<?xml version="1.0" encoding="UTF-8"?>
<<<<<<< HEAD
<osm version="0.6" generator="osmapis">
	<node lat="60.34992777941946" lon="10.520694448510467" id="-21100">
		<tag k="fixme" v="consider natural=peak for the most distinct mountains in the district" />
		<tag k="name" v="Gammehaugen" />
		<tag k="natural" v="hill" />
		<tag k="place" v="locality" />
		<tag k="ssr:stedsnr" v="6060" />
	</node>
	<node lat="60.46178888477211" lon="10.310508334540422" id="-21106">
		<tag k="name" v="Ljosdalen" />
		<tag k="natural" v="valley" />
		<tag k="place" v="locality" />
		<tag k="ssr:stedsnr" v="6581" />
	</node>
	<node lat="60.48792499578984" lon="10.27462222496886" id="-21108">
		<tag k="fixme" v="consider natural=peak for the most distinct mountains in the district" />
		<tag k="name" v="Gusberghaugen" />
		<tag k="natural" v="hill" />
		<tag k="place" v="locality" />
		<tag k="ssr:stedsnr" v="6715" />
	</node>
	<node lat="60.49714167091256" lon="10.196019443411366" id="-21118">
		<tag k="name" v="Furuberga" />
		<tag k="natural" v="slope" />
		<tag k="place" v="locality" />
		<tag k="ssr:stedsnr" v="232575" />
	</node>
	<node lat="60.46810833737926" lon="10.335813895973038" id="-21121">
		<tag k="name" v="Vardehøgda" />
		<tag k="natural" v="hill" />
		<tag k="place" v="locality" />
		<tag k="ssr:stedsnr" v="233177" />
	</node>
	<node lat="60.480061111227" lon="10.175491661968763" id="-21130">
		<tag k="name" v="Styggdalen" />
		<tag k="natural" v="valley" />
		<tag k="place" v="locality" />
		<tag k="ssr:stedsnr" v="233542" />
	</node>
	<node lat="60.482211111682616" lon="10.222597223122666" id="-21131">
		<tag k="name" v="Geitryggen" />
		<tag k="natural" v="hill" />
		<tag k="place" v="locality" />
		<tag k="ssr:stedsnr" v="233702" />
	</node>
	<node lat="60.430038889556215" lon="10.6491722297729" id="-21145">
		<tag k="name" v="Lauvlisæterhaugen" />
		<tag k="natural" v="hill" />
		<tag k="place" v="locality" />
		<tag k="ssr:stedsnr" v="29981" />
	</node>
	<node lat="60.470838886513306" lon="10.618847218077091" id="-21151">
		<tag k="name" v="Kambuhøgda" />
		<tag k="natural" v="hill" />
		<tag k="place" v="locality" />
		<tag k="ssr:stedsnr" v="32315" />
	</node>
	<node lat="60.43632500353925" lon="10.640349991863753" id="-21154">
		<tag k="name" v="Kvitberga" />
		<tag k="natural" v="hill" />
		<tag k="place" v="locality" />
		<tag k="ssr:stedsnr" v="32668" />
	</node>
	<node lat="60.3338444472914" lon="10.672958341068142" id="-21163">
		<tag k="name" v="Skarbrenna" />
		<tag k="natural" v="slope" />
		<tag k="place" v="locality" />
		<tag k="ssr:stedsnr" v="51424" />
	</node>
	<node lat="60.41041110999239" lon="10.822658333471885" id="-21169">
		<tag k="fixme" v="consider natural=peak for the most distinct mountains in the district" />
		<tag k="name" v="Fugleåsen" />
		<tag k="natural" v="hill" />
		<tag k="place" v="locality" />
		<tag k="ssr:stedsnr" v="52686" />
	</node>
	<node lat="60.37214722507049" lon="10.6311027833474" id="-21188">
		<tag k="name" v="Olabråtålia" />
		<tag k="natural" v="slope" />
		<tag k="place" v="locality" />
		<tag k="ssr:stedsnr" v="90732" />
	</node>
	<node lat="60.47257191564053" lon="10.673716996694546" id="-21208">
		<tag k="name" v="Helgedalen" />
		<tag k="natural" v="valley" />
		<tag k="place" v="locality" />
		<tag k="ssr:stedsnr" v="93405" />
	</node>
	<node lat="60.38383888521213" lon="10.314908332512523" id="-21220">
		<tag k="alt_name" v="Styggdalen" />
		<tag k="name" v="Styggedalen" />
		<tag k="natural" v="valley" />
		<tag k="place" v="locality" />
		<tag k="ssr:stedsnr" v="248631" />
	</node>
	<node lat="60.49289166477815" lon="10.30156944699482" id="-21221">
		<tag k="fixme" v="consider natural=peak for the most distinct mountains in the district" />
		<tag k="name" v="Kvitberget" />
		<tag k="natural" v="hill" />
		<tag k="place" v="locality" />
		<tag k="ssr:stedsnr" v="248737" />
	</node>
	<node lat="60.338455553474994" lon="10.502116661794958" id="-21222">
		<tag k="fixme" v="consider natural=peak for the most distinct mountains in the district" />
		<tag k="name" v="Buhammaren" />
		<tag k="natural" v="hill" />
		<tag k="place" v="locality" />
		<tag k="ssr:stedsnr" v="248977" />
	</node>
	<node lat="60.35668056013521" lon="10.659269439590568" id="-21226">
=======
<osm generator="osmapis" version="0.6">
	<node id="-387046" lat="60.5012527806" lon="10.642969451">
		<tag k="name" v="Geitberget" />
		<tag k="natural" v="hill" />
		<tag k="place" v="locality" />
		<tag k="ssr:stedsnr" v="215572" />
	</node>
	<node id="-387035" lat="60.4761888876" lon="10.5662972234">
		<tag k="name" v="Flyndreberget" />
		<tag k="natural" v="hill" />
		<tag k="place" v="locality" />
		<tag k="ssr:stedsnr" v="213748" />
	</node>
	<node id="-387030" lat="60.5356944468" lon="10.4203166741">
		<tag k="name" v="Budalen" />
		<tag k="natural" v="valley" />
		<tag k="place" v="locality" />
		<tag k="ssr:stedsnr" v="213668" />
	</node>
	<node id="-387009" lat="60.3939583289" lon="10.6199416733">
		<tag k="fixme" v="consider natural=peak for the most distinct mountains in the district" />
		<tag k="name" v="Rånåsen" />
		<tag k="natural" v="hill" />
		<tag k="place" v="locality" />
		<tag k="ssr:stedsnr" v="211583" />
	</node>
	<node id="-387001" lat="60.5142583338" lon="10.2746416668">
		<tag k="name" v="Saghaugen" />
		<tag k="natural" v="hill" />
		<tag k="place" v="locality" />
		<tag k="ssr:stedsnr" v="189466" />
	</node>
	<node id="-386995" lat="60.3403222265" lon="10.6498416681">
		<tag k="name" v="Randsberget" />
		<tag k="natural" v="hill" />
		<tag k="place" v="locality" />
		<tag k="ssr:stedsnr" v="188991" />
	</node>
	<node id="-386989" lat="60.485341665" lon="10.1989999975">
		<tag k="fixme" v="consider natural=peak for the most distinct mountains in the district" />
		<tag k="name" v="Sytterhaugen" />
		<tag k="natural" v="hill" />
		<tag k="place" v="locality" />
		<tag k="ssr:stedsnr" v="188739" />
	</node>
	<node id="-386988" lat="60.4271527782" lon="10.8200138867">
		<tag k="fixme" v="consider natural=peak for the most distinct mountains in the district" />
		<tag k="name" v="Lisæterkollen" />
		<tag k="natural" v="hill" />
		<tag k="place" v="locality" />
		<tag k="ssr:stedsnr" v="188684" />
	</node>
	<node id="-386985" lat="60.3986750036" lon="10.7445666739">
		<tag k="name" v="Knatthaugen" />
		<tag k="natural" v="hill" />
		<tag k="place" v="locality" />
		<tag k="ssr:stedsnr" v="188639" />
	</node>
	<node id="-386984" lat="60.3893583311" lon="10.8353833386">
		<tag k="alt_name" v="Kalvdykkjehaugen" />
		<tag k="name" v="Kalvlykkjehaugen" />
		<tag k="natural" v="hill" />
		<tag k="place" v="locality" />
		<tag k="ssr:stedsnr" v="188629" />
	</node>
	<node id="-386983" lat="60.3877333347" lon="10.791544439">
		<tag k="name" v="Lauvhaugen" />
		<tag k="natural" v="hill" />
		<tag k="place" v="locality" />
		<tag k="ssr:stedsnr" v="188626" />
	</node>
	<node id="-386937" lat="60.5113944453" lon="10.5008722186">
		<tag k="fixme" v="consider natural=peak for the most distinct mountains in the district" />
		<tag k="name" v="Munken" />
		<tag k="natural" v="hill" />
		<tag k="place" v="locality" />
		<tag k="ssr:stedsnr" v="188083" />
	</node>
	<node id="-386924" lat="60.4603111111" lon="10.3748527809">
		<tag k="name" v="Pålshaugen" />
		<tag k="natural" v="hill" />
		<tag k="place" v="locality" />
		<tag k="ssr:stedsnr" v="173836" />
	</node>
	<node id="-386913" lat="60.453741664" lon="10.3827555579">
		<tag k="name" v="Dagsens Hammer" />
		<tag k="natural" v="hill" />
		<tag k="place" v="locality" />
		<tag k="ssr:stedsnr" v="172791" />
	</node>
	<node id="-386911" lat="60.417604817" lon="10.6606727252">
		<tag k="name" v="Svartdalen" />
		<tag k="natural" v="valley" />
		<tag k="place" v="locality" />
		<tag k="ssr:stedsnr" v="172585" />
	</node>
	<node id="-386904" lat="60.4852222235" lon="10.3283694469">
>>>>>>> e1d4bc35ff8a6074a6f2e91616a996b547c36f15
		<tag k="fixme" v="consider natural=peak for the most distinct mountains in the district" />
		<tag k="name" v="Storås" />
		<tag k="natural" v="hill" />
		<tag k="place" v="locality" />
		<tag k="ssr:stedsnr" v="172251" />
	</node>
<<<<<<< HEAD
	<node lat="60.38793889305207" lon="10.708655558204574" id="-21231">
		<tag k="fixme" v="consider natural=peak for the most distinct mountains in the district" />
		<tag k="name" v="Vassbråskurven" />
		<tag k="natural" v="hill" />
		<tag k="place" v="locality" />
		<tag k="ssr:stedsnr" v="249071" />
	</node>
	<node lat="60.39166110937146" lon="10.670005563535025" id="-21232">
		<tag k="fixme" v="consider natural=peak for the most distinct mountains in the district" />
		<tag k="name" v="Framstadsæterfjellet" />
		<tag k="natural" v="hill" />
		<tag k="place" v="locality" />
		<tag k="ssr:stedsnr" v="249074" />
	</node>
	<node lat="60.52440000385535" lon="10.292994438221092" id="-21246">
		<tag k="name" v="Bjoneberget" />
		<tag k="natural" v="hill" />
		<tag k="place" v="locality" />
		<tag k="ssr:stedsnr" v="249481" />
	</node>
	<node lat="60.4232222188938" lon="10.791363891933065" id="-21256">
		<tag k="fixme" v="consider natural=peak for the most distinct mountains in the district" />
		<tag k="name" v="Fuglåsen" />
		<tag k="natural" v="hill" />
		<tag k="place" v="locality" />
		<tag k="ssr:stedsnr" v="249626" />
	</node>
	<node lat="60.35582777707518" lon="10.585802780512356" id="-21277">
		<tag k="name" v="Morstadbakken" />
		<tag k="natural" v="slope" />
		<tag k="place" v="locality" />
		<tag k="ssr:stedsnr" v="112085" />
	</node>
	<node lat="60.38042777843224" lon="10.59311666725629" id="-21279">
		<tag k="name" v="Skjønsberget" />
		<tag k="natural" v="hill" />
		<tag k="place" v="locality" />
		<tag k="ssr:stedsnr" v="112336" />
	</node>
	<node lat="60.36126667070631" lon="10.681286116685401" id="-21280">
		<tag k="name" v="Kastelia" />
		<tag k="natural" v="slope" />
		<tag k="place" v="locality" />
		<tag k="ssr:stedsnr" v="112338" />
	</node>
	<node lat="60.44210278221643" lon="10.366455549113072" id="-21281">
		<tag k="name" v="Liabakken" />
		<tag k="natural" v="slope" />
		<tag k="place" v="locality" />
		<tag k="ssr:stedsnr" v="112542" />
	</node>
	<node lat="60.47066666370107" lon="10.377652771469098" id="-21283">
		<tag k="name" v="Lokkeberget" />
		<tag k="natural" v="hill" />
		<tag k="place" v="locality" />
		<tag k="ssr:stedsnr" v="112783" />
	</node>
	<node lat="60.4086222218332" lon="10.502075001847267" id="-21285">
		<tag k="name" v="Grindåkerflaten" />
		<tag k="place" v="locality" />
		<tag k="ssr:stedsnr" v="115072" />
	</node>
	<node lat="60.405063885403706" lon="10.767086110463687" id="-21309">
		<tag k="name" v="Svarthaugen" />
		<tag k="natural" v="hill" />
		<tag k="place" v="locality" />
		<tag k="ssr:stedsnr" v="127649" />
	</node>
	<node lat="60.405389942003424" lon="10.87835176697143" id="-21310">
=======
	<node id="-386889" lat="60.4936638874" lon="10.6228111088">
		<tag k="name" v="Vestre Styggdalen" />
		<tag k="natural" v="valley" />
		<tag k="place" v="locality" />
		<tag k="ssr:stedsnr" v="154542" />
	</node>
	<node id="-386888" lat="60.4864222236" lon="10.6386222267">
		<tag k="name" v="Nordhelgedalslia" />
		<tag k="natural" v="slope" />
		<tag k="place" v="locality" />
		<tag k="ssr:stedsnr" v="154532" />
	</node>
	<node id="-386886" lat="60.46366389" lon="10.6589277769">
		<tag k="name" v="Gammelsæterhaugen" />
		<tag k="natural" v="hill" />
		<tag k="place" v="locality" />
		<tag k="ssr:stedsnr" v="153547" />
	</node>
	<node id="-386883" lat="60.417391669" lon="10.4671694466">
		<tag k="name" v="Høgmoen" />
		<tag k="natural" v="hill" />
		<tag k="place" v="locality" />
		<tag k="ssr:stedsnr" v="152929" />
	</node>
	<node id="-386868" lat="60.4657138881" lon="10.4658277841">
		<tag k="name" v="Sørstuhaugen" />
		<tag k="natural" v="hill" />
		<tag k="place" v="locality" />
		<tag k="ssr:stedsnr" v="152206" />
	</node>
	<node id="-386860" lat="60.3605472228" lon="10.6405194388">
		<tag k="name" v="Midtdala" />
		<tag k="natural" v="valley" />
		<tag k="place" v="locality" />
		<tag k="ssr:stedsnr" v="150978" />
	</node>
	<node id="-386854" lat="60.4164396316" lon="10.4981058775">
		<tag k="name" v="Tomtehaugen" />
		<tag k="natural" v="hill" />
		<tag k="place" v="locality" />
		<tag k="ssr:stedsnr" v="150166" />
	</node>
	<node id="-386849" lat="60.5301277744" lon="10.2359305519">
		<tag k="alt_name" v="Skjellemyrhaugen" />
		<tag k="name" v="Skillemyrhaugen" />
		<tag k="natural" v="hill" />
		<tag k="place" v="locality" />
		<tag k="ssr:stedsnr" v="128518" />
	</node>
	<node id="-386842" lat="60.5441722245" lon="10.6016944375">
		<tag k="name" v="Strandhøgda" />
		<tag k="natural" v="hill" />
		<tag k="place" v="locality" />
		<tag k="ssr:stedsnr" v="128090" />
	</node>
	<node id="-385775" lat="60.4112805556" lon="10.5442527854">
		<tag k="name" v="Feierdalen" />
		<tag k="natural" v="valley" />
		<tag k="place" v="locality" />
		<tag k="ssr:stedsnr" v="514839" />
	</node>
	<node id="-386821" lat="60.4053999988" lon="10.8783500046">
>>>>>>> e1d4bc35ff8a6074a6f2e91616a996b547c36f15
		<tag k="fixme" v="consider natural=peak for the most distinct mountains in the district" />
		<tag k="name" v="Rognhaugen" />
		<tag k="natural" v="hill" />
		<tag k="place" v="locality" />
		<tag k="ssr:stedsnr" v="127652" />
	</node>
<<<<<<< HEAD
	<node lat="60.544172224517574" lon="10.601694437489986" id="-21317">
		<tag k="name" v="Strandhøgda" />
		<tag k="natural" v="hill" />
		<tag k="place" v="locality" />
		<tag k="ssr:stedsnr" v="128090" />
	</node>
	<node lat="60.530127774433886" lon="10.235930551932094" id="-21319">
		<tag k="alt_name" v="Skjellemyrhaugen" />
		<tag k="name" v="Skillemyrhaugen" />
		<tag k="natural" v="hill" />
		<tag k="place" v="locality" />
		<tag k="ssr:stedsnr" v="128518" />
	</node>
	<node lat="60.41643963159777" lon="10.498105877536878" id="-21322">
		<tag k="name" v="Tomtehaugen" />
		<tag k="natural" v="hill" />
		<tag k="place" v="locality" />
		<tag k="ssr:stedsnr" v="150166" />
	</node>
	<node lat="60.465713888074056" lon="10.465827784102173" id="-21326">
		<tag k="name" v="Sørstuhaugen" />
		<tag k="natural" v="hill" />
		<tag k="place" v="locality" />
		<tag k="ssr:stedsnr" v="152206" />
	</node>
	<node lat="60.40239721951903" lon="10.635552778461657" id="-21335">
		<tag k="name" v="Olabråtålia" />
		<tag k="natural" v="slope" />
		<tag k="place" v="locality" />
		<tag k="ssr:stedsnr" v="272551" />
	</node>
	<node lat="60.42692777951834" lon="10.677283340540502" id="-21348">
		<tag k="name" v="Veslelushaugen" />
		<tag k="natural" v="hill" />
		<tag k="place" v="locality" />
		<tag k="ssr:stedsnr" v="173502" />
	</node>
	<node lat="60.511394445328705" lon="10.500872218622597" id="-21354">
		<tag k="fixme" v="consider natural=peak for the most distinct mountains in the district" />
		<tag k="name" v="Munken" />
		<tag k="natural" v="hill" />
		<tag k="place" v="locality" />
		<tag k="ssr:stedsnr" v="188083" />
	</node>
	<node lat="60.38773333474111" lon="10.791544438960807" id="-21377">
		<tag k="name" v="Lauvhaugen" />
		<tag k="natural" v="hill" />
		<tag k="place" v="locality" />
		<tag k="ssr:stedsnr" v="188626" />
	</node>
	<node lat="60.42715277817246" lon="10.820013886732383" id="-21383">
		<tag k="fixme" v="consider natural=peak for the most distinct mountains in the district" />
		<tag k="name" v="Lisæterkollen" />
		<tag k="natural" v="hill" />
		<tag k="place" v="locality" />
		<tag k="ssr:stedsnr" v="188684" />
	</node>
	<node lat="60.340322226526524" lon="10.649841668072314" id="-21388">
		<tag k="name" v="Randsberget" />
		<tag k="natural" v="hill" />
		<tag k="place" v="locality" />
		<tag k="ssr:stedsnr" v="188991" />
	</node>
	<node lat="60.39395832888373" lon="10.619941673273061" id="-21393">
		<tag k="fixme" v="consider natural=peak for the most distinct mountains in the district" />
		<tag k="name" v="Rånåsen" />
		<tag k="natural" v="hill" />
		<tag k="place" v="locality" />
		<tag k="ssr:stedsnr" v="211583" />
	</node>
	<node lat="60.446986113771615" lon="10.468119449751853" id="-21397">
		<tag k="name" v="Gauken" />
		<tag k="natural" v="hill" />
		<tag k="place" v="locality" />
		<tag k="ssr:stedsnr" v="213004" />
	</node>
	<node lat="60.51155555288228" lon="10.447391665115504" id="-21418">
		<tag k="name" v="Gravmoen" />
		<tag k="place" v="locality" />
		<tag k="ssr:stedsnr" v="449562" />
	</node>
	<node lat="60.43181666338723" lon="10.372452771252338" id="-21425">
		<tag k="name" v="Kophauger" />
		<tag k="natural" v="hill" />
		<tag k="place" v="locality" />
		<tag k="ssr:stedsnr" v="232478" />
	</node>
	<node lat="60.513330553962135" lon="10.290527779222387" id="-21426">
		<tag k="name" v="Gjerdingshaugen" />
		<tag k="natural" v="hill" />
		<tag k="place" v="locality" />
		<tag k="ssr:stedsnr" v="232431" />
	</node>
	<node lat="60.32620277471854" lon="10.87405556099978" id="-21436">
		<tag k="name" v="Kvernsjølia" />
		<tag k="natural" v="valley" />
		<tag k="place" v="locality" />
		<tag k="ssr:stedsnr" v="233611" />
	</node>
	<node lat="60.40406388913997" lon="10.581375008290083" id="-21460">
		<tag k="name" v="Geitryggen" />
		<tag k="natural" v="hill" />
		<tag k="place" v="locality" />
		<tag k="ssr:stedsnr" v="453148" />
	</node>
	<node lat="60.355805556761496" lon="10.538086114316819" id="-21463">
		<tag k="fixme" v="consider natural=peak for the most distinct mountains in the district" />
		<tag k="name" v="Granåsen" />
		<tag k="natural" v="hill" />
		<tag k="place" v="locality" />
		<tag k="ssr:stedsnr" v="453635" />
	</node>
	<node lat="60.366008330999094" lon="10.618688893562647" id="-21468">
		<tag k="name" v="Karensberget" />
		<tag k="natural" v="hill" />
		<tag k="place" v="locality" />
		<tag k="ssr:stedsnr" v="454488" />
	</node>
	<node lat="60.43782777362178" lon="10.470516660717298" id="-21478">
		<tag k="name" v="Rundshaugen" />
		<tag k="natural" v="hill" />
		<tag k="place" v="locality" />
		<tag k="ssr:stedsnr" v="456040" />
	</node>
	<node lat="60.48517222380405" lon="10.375169453349795" id="-21482">
		<tag k="name" v="Kleiva" />
		<tag k="natural" v="slope" />
		<tag k="place" v="locality" />
		<tag k="ssr:stedsnr" v="456422" />
	</node>
	<node lat="60.55982777707587" lon="10.48606666302149" id="-21490">
		<tag k="name" v="Vestre Kvitingslia" />
		<tag k="natural" v="slope" />
		<tag k="place" v="locality" />
		<tag k="ssr:stedsnr" v="457694" />
	</node>
	<node lat="60.52482778014238" lon="10.32807221550151" id="-21507">
		<tag k="name" v="Hornskleiva" />
		<tag k="natural" v="slope" />
		<tag k="place" v="locality" />
		<tag k="ssr:stedsnr" v="274674" />
	</node>
	<node lat="60.551519447924754" lon="10.52709721352519" id="-21509">
		<tag k="name" v="Valbergsfalla" />
		<tag k="natural" v="hill" />
		<tag k="place" v="locality" />
		<tag k="ssr:stedsnr" v="275686" />
	</node>
	<node lat="60.469647226279335" lon="10.373152778151937" id="-21514">
		<tag k="name" v="Sæterhaugen" />
		<tag k="natural" v="hill" />
		<tag k="place" v="locality" />
		<tag k="ssr:stedsnr" v="293774" />
	</node>
	<node lat="60.48843333062114" lon="10.179880551140219" id="-21520">
		<tag k="name" v="Nysæterlia" />
		<tag k="natural" v="slope" />
		<tag k="place" v="locality" />
		<tag k="ssr:stedsnr" v="294529" />
	</node>
	<node lat="60.323911108623975" lon="10.762558339828766" id="-21521">
		<tag k="name" v="Gåsdalen" />
		<tag k="natural" v="valley" />
		<tag k="place" v="locality" />
		<tag k="ssr:stedsnr" v="294624" />
	</node>
	<node lat="60.536336112297555" lon="10.54782777574597" id="-21544">
		<tag k="name" v="Gampedalen" />
		<tag k="natural" v="valley" />
		<tag k="place" v="locality" />
		<tag k="ssr:stedsnr" v="310100" />
	</node>
	<node lat="60.41473984857565" lon="10.852858417194126" id="-21552">
		<tag k="alt_name" v="Lomtjernhøgda" />
		<tag k="name" v="Lomtjernhaugen" />
		<tag k="natural" v="hill" />
		<tag k="place" v="locality" />
		<tag k="ssr:stedsnr" v="310625" />
	</node>
	<node lat="60.48714444280971" lon="10.322852775924733" id="-21582">
		<tag k="name" v="Klyfta" />
		<tag k="place" v="locality" />
		<tag k="ssr:stedsnr" v="354231" />
	</node>
	<node lat="60.36869444119849" lon="10.66786667184799" id="-21589">
		<tag k="name" v="Korpeputthaugen" />
		<tag k="natural" v="hill" />
=======
	<node id="-386820" lat="60.4050638854" lon="10.7670861105">
		<tag k="name" v="Svarthaugen" />
		<tag k="natural" v="hill" />
		<tag k="place" v="locality" />
		<tag k="ssr:stedsnr" v="127649" />
	</node>
	<node id="-386806" lat="60.4497722178" lon="10.6834472235">
		<tag k="fixme" v="consider natural=peak for the most distinct mountains in the district" />
		<tag k="name" v="Lauvhaugen" />
		<tag k="natural" v="hill" />
		<tag k="place" v="locality" />
		<tag k="ssr:stedsnr" v="127264" />
	</node>
	<node id="-386792" lat="60.4086222218" lon="10.5020750018">
		<tag k="name" v="Grindåkerflaten" />
		<tag k="place" v="locality" />
		<tag k="ssr:stedsnr" v="115072" />
	</node>
	<node id="-386789" lat="60.4706666637" lon="10.3776527715">
		<tag k="name" v="Lokkeberget" />
		<tag k="natural" v="hill" />
		<tag k="place" v="locality" />
		<tag k="ssr:stedsnr" v="112783" />
	</node>
	<node id="-386781" lat="60.4421027822" lon="10.3664555491">
		<tag k="name" v="Liabakken" />
		<tag k="natural" v="slope" />
		<tag k="place" v="locality" />
		<tag k="ssr:stedsnr" v="112542" />
	</node>
	<node id="-386779" lat="60.3644055554" lon="10.719516675">
		<tag k="name" v="Styggdalen" />
		<tag k="natural" v="valley" />
		<tag k="place" v="locality" />
		<tag k="ssr:stedsnr" v="112355" />
	</node>
	<node id="-386778" lat="60.3558277771" lon="10.5858027805">
		<tag k="name" v="Morstadbakken" />
		<tag k="natural" v="slope" />
		<tag k="place" v="locality" />
		<tag k="ssr:stedsnr" v="112085" />
	</node>
	<node id="-386768" lat="60.5259999961" lon="10.5126833387">
		<tag k="name" v="Nilsehaugen" />
		<tag k="natural" v="hill" />
		<tag k="place" v="locality" />
		<tag k="ssr:stedsnr" v="93652" />
	</node>
	<node id="-386767" lat="60.5304888906" lon="10.4975555505">
		<tag k="name" v="Åtdalen" />
		<tag k="natural" v="valley" />
		<tag k="place" v="locality" />
		<tag k="ssr:stedsnr" v="93648" />
	</node>
	<node id="-386765" lat="60.4818749981" lon="10.6604944375">
		<tag k="name" v="Helgedalen" />
		<tag k="natural" v="valley" />
		<tag k="place" v="locality" />
		<tag k="ssr:stedsnr" v="93405" />
	</node>
	<node id="-386749" lat="60.5491222253" lon="10.4547250036">
		<tag k="name" v="Holmetjernslia" />
		<tag k="natural" v="slope" />
		<tag k="place" v="locality" />
		<tag k="ssr:stedsnr" v="92434" />
	</node>
	<node id="-386747" lat="60.4949833295" lon="10.590969443">
		<tag k="name" v="Høgkorslia" />
		<tag k="natural" v="slope" />
		<tag k="place" v="locality" />
		<tag k="ssr:stedsnr" v="92342" />
	</node>
	<node id="-386746" lat="60.4986777793" lon="10.5638805481">
		<tag k="name" v="Korshaugen" />
		<tag k="natural" v="hill" />
		<tag k="place" v="locality" />
		<tag k="ssr:stedsnr" v="92333" />
	</node>
	<node id="-385650" lat="60.4788361121" lon="10.2253944389">
		<tag k="name" v="Svarttjernshøgda" />
		<tag k="natural" v="hill" />
		<tag k="place" v="locality" />
		<tag k="ssr:stedsnr" v="476585" />
	</node>
	<node id="-386729" lat="60.4264694404" lon="10.6233083332">
		<tag k="name" v="Spranglia" />
		<tag k="natural" v="slope" />
		<tag k="place" v="locality" />
		<tag k="ssr:stedsnr" v="90952" />
	</node>
	<node id="-386727" lat="60.3856166672" lon="10.6147277782">
		<tag k="fixme" v="consider natural=peak for the most distinct mountains in the district" />
		<tag k="name" v="Øverhagamana" />
		<tag k="natural" v="hill" />
		<tag k="place" v="locality" />
		<tag k="ssr:stedsnr" v="90798" />
	</node>
	<node id="-386726" lat="60.3721472251" lon="10.6311027833">
		<tag k="name" v="Olabråtålia" />
		<tag k="natural" v="slope" />
		<tag k="place" v="locality" />
		<tag k="ssr:stedsnr" v="90732" />
	</node>
	<node id="-386716" lat="60.5253416662" lon="10.4795611151">
		<tag k="name" v="Toppdalen" />
		<tag k="natural" v="valley" />
		<tag k="place" v="locality" />
		<tag k="ssr:stedsnr" v="85549" />
	</node>
	<node id="-386702" lat="60.3567527742" lon="10.8108694418">
		<tag k="name" v="Gullenhaugen" />
		<tag k="natural" v="hill" />
		<tag k="place" v="locality" />
		<tag k="ssr:stedsnr" v="67565" />
	</node>
	<node id="-386700" lat="60.424399999" lon="10.7186500057">
		<tag k="name" v="Jønnlidalen" />
		<tag k="natural" v="valley" />
		<tag k="place" v="locality" />
		<tag k="ssr:stedsnr" v="67637" />
	</node>
	<node id="-386699" lat="60.3136972181" lon="10.8504777786">
		<tag k="name" v="Hellerhøgda" />
		<tag k="natural" v="hill" />
		<tag k="place" v="locality" />
		<tag k="ssr:stedsnr" v="67287" />
	</node>
	<node id="-386682" lat="60.399136108" lon="10.6718499958">
		<tag k="fixme" v="consider natural=peak for the most distinct mountains in the district" />
		<tag k="name" v="Stormyrhaugen" />
		<tag k="natural" v="hill" />
		<tag k="place" v="locality" />
		<tag k="ssr:stedsnr" v="67188" />
	</node>
	<node id="-386672" lat="60.41041111" lon="10.8226583335">
		<tag k="fixme" v="consider natural=peak for the most distinct mountains in the district" />
		<tag k="name" v="Fugleåsen" />
		<tag k="natural" v="hill" />
		<tag k="place" v="locality" />
		<tag k="ssr:stedsnr" v="52686" />
	</node>
	<node id="-386670" lat="60.4751083376" lon="10.3772944405">
		<tag k="name" v="Kujutulen" />
		<tag k="natural" v="hill" />
		<tag k="place" v="locality" />
		<tag k="ssr:stedsnr" v="51945" />
	</node>
	<node id="-386669" lat="60.4741972257" lon="10.37626944">
		<tag k="name" v="Korpeberget" />
		<tag k="natural" v="hill" />
		<tag k="place" v="locality" />
		<tag k="ssr:stedsnr" v="51944" />
	</node>
	<node id="-386662" lat="60.3338444473" lon="10.6729583411">
		<tag k="name" v="Skarbrenna" />
		<tag k="natural" v="slope" />
		<tag k="place" v="locality" />
		<tag k="ssr:stedsnr" v="51424" />
	</node>
	<node id="-386660" lat="60.3587055574" lon="10.8620666751">
		<tag k="name" v="Koperudhaugen" />
		<tag k="natural" v="hill" />
		<tag k="place" v="locality" />
		<tag k="ssr:stedsnr" v="51200" />
	</node>
	<node id="-386658" lat="60.4998416689" lon="10.2259638915">
		<tag k="name" v="Flattumslette" />
		<tag k="place" v="locality" />
		<tag k="ssr:stedsnr" v="51191" />
	</node>
	<node id="-386642" lat="60.4363250035" lon="10.6403499919">
		<tag k="name" v="Kvitberga" />
		<tag k="natural" v="hill" />
		<tag k="place" v="locality" />
		<tag k="ssr:stedsnr" v="32668" />
	</node>
	<node id="-386638" lat="60.4760472225" lon="10.6530138978">
		<tag k="name" v="Lokkebekkhaugane" />
		<tag k="natural" v="ridge" />
		<tag k="place" v="locality" />
		<tag k="ssr:stedsnr" v="32507" />
	</node>
	<node id="-386634" lat="60.4708388865" lon="10.6188472181">
		<tag k="name" v="Kambuhøgda" />
		<tag k="natural" v="hill" />
		<tag k="place" v="locality" />
		<tag k="ssr:stedsnr" v="32315" />
	</node>
	<node id="-386633" lat="60.5446555544" lon="10.4183555504">
		<tag k="name" v="Gjersjøholen" />
		<tag k="natural" v="valley" />
>>>>>>> e1d4bc35ff8a6074a6f2e91616a996b547c36f15
		<tag k="place" v="locality" />
		<tag k="ssr:stedsnr" v="32191" />
	</node>
<<<<<<< HEAD
	<node lat="60.49585277508138" lon="10.1700055631167" id="-21590">
		<tag k="name" v="Blekketjernshaugen" />
		<tag k="natural" v="hill" />
		<tag k="place" v="locality" />
		<tag k="ssr:stedsnr" v="354652" />
	</node>
	<node lat="60.353766669812515" lon="10.75366665974173" id="-21591">
		<tag k="name" v="Mastefallet" />
		<tag k="natural" v="hill" />
		<tag k="place" v="locality" />
		<tag k="ssr:stedsnr" v="354656" />
	</node>
	<node lat="60.4462111141384" lon="10.303172223380555" id="-21592">
		<tag k="name" v="Stokksjøhøgda" />
		<tag k="natural" v="hill" />
		<tag k="place" v="locality" />
		<tag k="ssr:stedsnr" v="354593" />
	</node>
	<node lat="60.370874997869926" lon="10.346316669560927" id="-21598">
		<tag k="name" v="Perkastet" />
		<tag k="natural" v="slope" />
		<tag k="place" v="locality" />
		<tag k="ssr:stedsnr" v="355423" />
	</node>
	<node lat="60.41667221802119" lon="10.351161108857179" id="-21605">
		<tag k="name" v="Korpeberget" />
		<tag k="natural" v="hill" />
		<tag k="place" v="locality" />
		<tag k="ssr:stedsnr" v="475093" />
	</node>
	<node lat="60.490233332680226" lon="10.344863886011431" id="-21606">
		<tag k="name" v="Langbråtåberget" />
		<tag k="natural" v="hill" />
		<tag k="place" v="locality" />
		<tag k="ssr:stedsnr" v="475241" />
	</node>
	<node lat="60.478836112147" lon="10.225394438946129" id="-21615">
		<tag k="name" v="Svarttjernshøgda" />
		<tag k="natural" v="hill" />
		<tag k="place" v="locality" />
		<tag k="ssr:stedsnr" v="476585" />
	</node>
	<node lat="60.46708889042604" lon="10.362038897012368" id="-21619">
		<tag k="name" v="Rolibrænnsnaret" />
		<tag k="place" v="locality" />
		<tag k="ssr:stedsnr" v="476336" />
	</node>
	<node lat="60.45263055232757" lon="10.207077769735994" id="-21621">
		<tag k="name" v="Rovtjernsskaret" />
		<tag k="natural" v="valley" />
		<tag k="place" v="locality" />
		<tag k="ssr:stedsnr" v="476526" />
	</node>
	<node lat="60.431608332894506" lon="10.368336104081727" id="-21632">
		<tag k="fixme" v="consider natural=peak for the most distinct mountains in the district" />
		<tag k="name" v="Kophaug" />
		<tag k="natural" v="hill" />
		<tag k="place" v="locality" />
		<tag k="ssr:stedsnr" v="370177" />
	</node>
	<node lat="60.40691944695512" lon="10.243219451359" id="-21636">
		<tag k="fixme" v="consider natural=peak for the most distinct mountains in the district" />
		<tag k="name" v="Bjørnsjøhøgda" />
		<tag k="natural" v="hill" />
		<tag k="place" v="locality" />
		<tag k="ssr:stedsnr" v="370325" />
	</node>
	<node lat="60.45238610747201" lon="10.461627784681845" id="-21659">
		<tag k="name" v="Kjerringberget" />
		<tag k="natural" v="hill" />
		<tag k="place" v="locality" />
		<tag k="ssr:stedsnr" v="395002" />
	</node>
	<node lat="60.503616670082415" lon="10.552208336081918" id="-21672">
		<tag k="name" v="Rundhaugen" />
=======
	<node id="-386632" lat="60.5473194482" lon="10.4247805509">
		<tag k="name" v="Slåttmyrbakken" />
		<tag k="natural" v="slope" />
		<tag k="place" v="locality" />
		<tag k="ssr:stedsnr" v="32190" />
	</node>
	<node id="-386630" lat="60.5172027769" lon="10.5636444503">
		<tag k="name" v="Hugælnbråtån" />
		<tag k="place" v="locality" />
		<tag k="ssr:stedsnr" v="32124" />
	</node>
	<node id="-386617" lat="60.4300388896" lon="10.6491722298">
		<tag k="name" v="Lauvlisæterhaugen" />
		<tag k="natural" v="hill" />
		<tag k="place" v="locality" />
		<tag k="ssr:stedsnr" v="29981" />
	</node>
	<node id="-386613" lat="60.4157194419" lon="10.4894694439">
		<tag k="name" v="Raudhaugen" />
		<tag k="natural" v="hill" />
		<tag k="place" v="locality" />
		<tag k="ssr:stedsnr" v="29196" />
	</node>
	<node id="-386608" lat="60.4106611106" lon="10.5435111193">
		<tag k="name" v="Feierhaugen" />
		<tag k="natural" v="hill" />
		<tag k="place" v="locality" />
		<tag k="ssr:stedsnr" v="28056" />
	</node>
	<node id="-386604" lat="60.5487250029" lon="10.1488694378">
		<tag k="alt_name" v="Skjellrøyskollen" />
		<tag k="fixme" v="consider natural=peak for the most distinct mountains in the district" />
		<tag k="name" v="Skillerøyskollen" />
		<tag k="natural" v="hill" />
		<tag k="place" v="locality" />
		<tag k="ssr:stedsnr" v="7491" />
	</node>
	<node id="-388018" lat="60.4745416691" lon="10.3882111194">
		<tag k="name" v="Ovnsløkka" />
		<tag k="place" v="locality" />
		<tag k="ssr:stedsnr" v="961950" />
	</node>
	<node id="-386596" lat="60.4879249958" lon="10.274622225">
		<tag k="fixme" v="consider natural=peak for the most distinct mountains in the district" />
		<tag k="name" v="Gusberghaugen" />
		<tag k="natural" v="hill" />
		<tag k="place" v="locality" />
		<tag k="ssr:stedsnr" v="6715" />
	</node>
	<node id="-386591" lat="60.4617888848" lon="10.3105083345">
		<tag k="name" v="Ljosdalen" />
		<tag k="natural" v="valley" />
		<tag k="place" v="locality" />
		<tag k="ssr:stedsnr" v="6581" />
	</node>
	<node id="-386590" lat="60.3710361102" lon="10.7417749986">
		<tag k="alt_name" v="Glåmen, nordre" />
		<tag k="name" v="Nordre Glåmen" />
		<tag k="natural" v="hill" />
		<tag k="place" v="locality" />
		<tag k="ssr:stedsnr" v="6576" />
	</node>
	<node id="-386577" lat="60.4594138881" lon="10.5896583278">
		<tag k="fixme" v="consider natural=peak for the most distinct mountains in the district" />
		<tag k="name" v="Fagerberget" />
		<tag k="natural" v="hill" />
		<tag k="place" v="locality" />
		<tag k="ssr:stedsnr" v="6250" />
	</node>
	<node id="-385281" lat="60.3262027747" lon="10.874055561">
		<tag k="name" v="Kvernsjølia" />
		<tag k="natural" v="valley" />
		<tag k="place" v="locality" />
		<tag k="ssr:stedsnr" v="233611" />
	</node>
	<node id="-386560" lat="60.3499277794" lon="10.5206944485">
		<tag k="fixme" v="consider natural=peak for the most distinct mountains in the district" />
		<tag k="name" v="Gammehaugen" />
		<tag k="natural" v="hill" />
		<tag k="place" v="locality" />
		<tag k="ssr:stedsnr" v="6060" />
	</node>
	<node id="-386558" lat="60.3641583328" lon="10.6988138946">
		<tag k="fixme" v="consider natural=peak for the most distinct mountains in the district" />
		<tag k="name" v="Grasåsen" />
		<tag k="natural" v="hill" />
		<tag k="place" v="locality" />
		<tag k="ssr:stedsnr" v="6018" />
	</node>
	<node id="-385961" lat="60.3375805574" lon="10.4304777738">
		<tag k="fixme" v="consider natural=peak for the most distinct mountains in the district" />
		<tag k="name" v="Håtveithaugen" />
		<tag k="natural" v="hill" />
		<tag k="place" v="locality" />
		<tag k="ssr:stedsnr" v="698129" />
	</node>
	<node id="-386546" lat="60.4146870353" lon="10.8130117708">
		<tag k="name" v="Huldretjernsberget" />
>>>>>>> e1d4bc35ff8a6074a6f2e91616a996b547c36f15
		<tag k="natural" v="hill" />
		<tag k="old_name" v="Huldretjersberget" />
		<tag k="place" v="locality" />
<<<<<<< HEAD
		<tag k="ssr:stedsnr" v="396128" />
	</node>
	<node lat="60.48541111012766" lon="10.656558335853953" id="-21676">
		<tag k="name" v="Geitryggen" />
		<tag k="natural" v="ridge" />
		<tag k="place" v="locality" />
		<tag k="ssr:stedsnr" v="396430" />
	</node>
	<node lat="60.38739444794172" lon="10.341302779661724" id="-21694">
		<tag k="name" v="Veltadalen" />
		<tag k="natural" v="valley" />
		<tag k="place" v="locality" />
		<tag k="ssr:stedsnr" v="415503" />
	</node>
	<node lat="60.36597222409145" lon="10.760074999190584" id="-21699">
		<tag k="name" v="Søre Glåmen" />
		<tag k="natural" v="hill" />
		<tag k="place" v="locality" />
		<tag k="ssr:stedsnr" v="415697" />
	</node>
	<node lat="60.4643555540912" lon="10.210075008535737" id="-21700">
		<tag k="name" v="Skansen" />
		<tag k="natural" v="hill" />
		<tag k="place" v="locality" />
		<tag k="ssr:stedsnr" v="415805" />
	</node>
	<node lat="60.431269440945144" lon="10.309574999030273" id="-21709">
		<tag k="fixme" v="consider natural=peak for the most distinct mountains in the district" />
		<tag k="name" v="Bjørnhaugen" />
		<tag k="natural" v="hill" />
		<tag k="place" v="locality" />
		<tag k="ssr:stedsnr" v="491374" />
	</node>
	<node lat="60.42492777942925" lon="10.764752783275783" id="-21736">
		<tag k="name" v="Tommelsjøholen" />
		<tag k="natural" v="hill" />
		<tag k="place" v="locality" />
		<tag k="ssr:stedsnr" v="431650" />
	</node>
	<node lat="60.392008329063415" lon="10.873672227648727" id="-21737">
		<tag k="name" v="Nordsæterhaugen" />
		<tag k="natural" v="hill" />
		<tag k="place" v="locality" />
		<tag k="ssr:stedsnr" v="431598" />
	</node>
	<node lat="60.53668888767762" lon="10.392652783171432" id="-21753">
		<tag k="alt_name" v="Kampen" />
		<tag k="fixme" v="consider natural=peak for the most distinct mountains in the district" />
		<tag k="name" v="Gjerdvikskampen" />
		<tag k="natural" v="hill" />
		<tag k="place" v="locality" />
		<tag k="ssr:stedsnr" v="432100" />
	</node>
	<node lat="60.52384166226377" lon="10.322275007777591" id="-21754">
		<tag k="name" v="Hornsberget" />
		<tag k="natural" v="hill" />
		<tag k="place" v="locality" />
		<tag k="ssr:stedsnr" v="432511" />
	</node>
	<node lat="60.35905833281422" lon="10.848825002909937" id="-21756">
		<tag k="name" v="Sandbotnlia" />
		<tag k="natural" v="slope" />
		<tag k="place" v="locality" />
		<tag k="ssr:stedsnr" v="491560" />
	</node>
	<node lat="60.4053277745881" lon="10.529641668878034" id="-21776">
		<tag k="name" v="Kakuhaugen" />
		<tag k="natural" v="hill" />
		<tag k="place" v="locality" />
		<tag k="ssr:stedsnr" v="453025" />
	</node>
	<node lat="60.50954166486864" lon="10.481608331750232" id="-21784">
		<tag k="name" v="Knutsbråtån" />
		<tag k="natural" v="slope" />
		<tag k="place" v="locality" />
		<tag k="ssr:stedsnr" v="456606" />
	</node>
	<node lat="60.513074997429534" lon="10.556747228190115" id="-21788">
		<tag k="name" v="Budeiholen" />
		<tag k="natural" v="valley" />
		<tag k="place" v="locality" />
		<tag k="ssr:stedsnr" v="457136" />
	</node>
	<node lat="60.48961110834666" lon="10.683580552041521" id="-21790">
		<tag k="name" v="Lomtjernslia" />
		<tag k="natural" v="slope" />
		<tag k="place" v="locality" />
		<tag k="ssr:stedsnr" v="457468" />
	</node>
	<node lat="60.4742916632356" lon="10.662436113549546" id="-21793">
		<tag k="name" v="Lokkebakka" />
		<tag k="natural" v="slope" />
		<tag k="place" v="locality" />
		<tag k="ssr:stedsnr" v="457528" />
	</node>
	<node lat="60.32460277345741" lon="10.802811113629843" id="-21799">
		<tag k="name" v="Putthaugen" />
		<tag k="natural" v="hill" />
		<tag k="place" v="locality" />
		<tag k="ssr:stedsnr" v="673286" />
	</node>
	<node lat="60.35667778137225" lon="10.67335832636433" id="-21811">
		<tag k="fixme" v="consider natural=peak for the most distinct mountains in the district" />
		<tag k="name" v="Brandhaugen" />
		<tag k="natural" v="hill" />
		<tag k="place" v="locality" />
		<tag k="ssr:stedsnr" v="674055" />
	</node>
	<node lat="60.35762499826849" lon="10.700233327753399" id="-21812">
		<tag k="fixme" v="consider natural=peak for the most distinct mountains in the district" />
		<tag k="name" v="Rundelshaugen" />
		<tag k="natural" v="hill" />
		<tag k="place" v="locality" />
		<tag k="ssr:stedsnr" v="674058" />
	</node>
	<node lat="60.524570439319184" lon="10.15489883906606" id="-21822">
		<tag k="fixme" v="consider natural=peak for the most distinct mountains in the district" />
		<tag k="name" v="Vardhugukollen" />
		<tag k="natural" v="hill" />
		<tag k="place" v="locality" />
		<tag k="ssr:stedsnr" v="674468" />
	</node>
	<node lat="60.52936389084001" lon="10.150763882152495" id="-21837">
		<tag k="name" v="Beritlykjedalen" />
		<tag k="natural" v="valley" />
		<tag k="place" v="locality" />
		<tag k="ssr:stedsnr" v="475894" />
	</node>
	<node lat="60.42851111263614" lon="10.286841660506461" id="-21838">
		<tag k="name" v="Søndre Hovseterås" />
		<tag k="natural" v="hill" />
		<tag k="place" v="locality" />
		<tag k="ssr:stedsnr" v="475914" />
	</node>
	<node lat="60.425524996776126" lon="10.711288884354968" id="-21843">
		<tag k="name" v="Slettanghaugen" />
		<tag k="natural" v="hill" />
		<tag k="place" v="locality" />
		<tag k="ssr:stedsnr" v="476507" />
	</node>
	<node lat="60.447669445105475" lon="10.653927770136365" id="-21868">
		<tag k="fixme" v="consider natural=peak for the most distinct mountains in the district" />
		<tag k="name" v="Skarvåsen" />
		<tag k="natural" v="hill" />
		<tag k="place" v="locality" />
		<tag k="ssr:stedsnr" v="491227" />
	</node>
	<node lat="60.398588890895425" lon="10.192550001979253" id="-21869">
		<tag k="fixme" v="consider natural=peak for the most distinct mountains in the district" />
		<tag k="name" v="Tungeåsen" />
		<tag k="natural" v="hill" />
		<tag k="place" v="locality" />
		<tag k="ssr:stedsnr" v="491283" />
	</node>
	<node lat="60.33814999910937" lon="10.854863882761165" id="-21871">
		<tag k="name" v="Sæterhaugen" />
		<tag k="natural" v="hill" />
		<tag k="place" v="locality" />
		<tag k="ssr:stedsnr" v="491294" />
	</node>
	<node lat="60.38698333160318" lon="10.783708328390341" id="-21875">
		<tag k="name" v="Skreihaugen" />
		<tag k="natural" v="hill" />
		<tag k="place" v="locality" />
		<tag k="ssr:stedsnr" v="491598" />
	</node>
	<node lat="60.49672499620975" lon="10.321366668377694" id="-21877">
		<tag k="fixme" v="consider natural=peak for the most distinct mountains in the district" />
		<tag k="name" v="Sæterhaugen" />
		<tag k="natural" v="hill" />
		<tag k="place" v="locality" />
		<tag k="ssr:stedsnr" v="491717" />
	</node>
	<node lat="60.473758332435025" lon="10.215686105310736" id="-21883">
		<tag k="fixme" v="consider natural=peak for the most distinct mountains in the district" />
		<tag k="name" v="Svarttjernshøgda" />
		<tag k="natural" v="hill" />
		<tag k="place" v="locality" />
		<tag k="ssr:stedsnr" v="491693" />
	</node>
	<node lat="60.336574999003695" lon="10.491036106453356" id="-21886">
		<tag k="fixme" v="consider natural=peak for the most distinct mountains in the district" />
		<tag k="name" v="Kjekshushaugen" />
		<tag k="natural" v="hill" />
		<tag k="place" v="locality" />
		<tag k="ssr:stedsnr" v="491980" />
	</node>
	<node lat="60.431525004138265" lon="10.6457666733379" id="-21887">
		<tag k="fixme" v="consider natural=peak for the most distinct mountains in the district" />
		<tag k="name" v="Knørra" />
		<tag k="natural" v="hill" />
		<tag k="place" v="locality" />
		<tag k="ssr:stedsnr" v="492111" />
	</node>
	<node lat="60.43080360215305" lon="10.687294460738528" id="-21889">
		<tag k="fixme" v="consider natural=peak for the most distinct mountains in the district" />
		<tag k="name" v="Lushaugen" />
		<tag k="natural" v="hill" />
		<tag k="place" v="locality" />
		<tag k="ssr:stedsnr" v="492114" />
	</node>
	<node lat="60.4567027809496" lon="10.471041664240383" id="-21897">
		<tag k="name" v="Hella" />
		<tag k="natural" v="hill" />
		<tag k="place" v="locality" />
		<tag k="ssr:stedsnr" v="516005" />
	</node>
	<node lat="60.35981388763529" lon="10.435044451943678" id="-21899">
		<tag k="name" v="Hvindenhaugen" />
		<tag k="natural" v="hill" />
		<tag k="place" v="locality" />
		<tag k="ssr:stedsnr" v="516267" />
	</node>
	<node lat="60.500824997037654" lon="10.48187499231106" id="-21904">
		<tag k="name" v="Kalvebakken" />
		<tag k="natural" v="slope" />
		<tag k="place" v="locality" />
		<tag k="ssr:stedsnr" v="516606" />
	</node>
	<node lat="60.492791667346374" lon="10.550319437950906" id="-21906">
		<tag k="name" v="Østefallhaugen" />
		<tag k="natural" v="hill" />
		<tag k="place" v="locality" />
		<tag k="ssr:stedsnr" v="517325" />
	</node>
	<node lat="60.452105555985646" lon="10.534672225040717" id="-21907">
		<tag k="name" v="Langmyrhaugen" />
		<tag k="natural" v="hill" />
		<tag k="place" v="locality" />
		<tag k="ssr:stedsnr" v="517781" />
	</node>
	<node lat="60.52576944285606" lon="10.584108341368067" id="-21909">
		<tag k="name" v="Gåshaugen" />
		<tag k="natural" v="hill" />
		<tag k="place" v="locality" />
		<tag k="ssr:stedsnr" v="518086" />
	</node>
	<node lat="60.354422226150966" lon="10.693433340042104" id="-21923">
		<tag k="name" v="Geitberget" />
		<tag k="natural" v="hill" />
		<tag k="place" v="locality" />
		<tag k="ssr:stedsnr" v="537282" />
	</node>
	<node lat="60.43275277630033" lon="10.728099998679367" id="-21927">
		<tag k="name" v="Steinholen" />
		<tag k="natural" v="hill" />
		<tag k="place" v="locality" />
		<tag k="ssr:stedsnr" v="537868" />
	</node>
	<node lat="60.48606666852278" lon="10.685149998369988" id="-21941">
		<tag k="alt_name" v="Jøråshøgda" />
		<tag k="fixme" v="consider natural=peak for the most distinct mountains in the district" />
		<tag k="name" v="Jørushøgda" />
		<tag k="natural" v="hill" />
		<tag k="place" v="locality" />
		<tag k="ssr:stedsnr" v="552227" />
	</node>
	<node lat="60.407427773879576" lon="10.71071111805527" id="-21952">
		<tag k="fixme" v="consider natural=peak for the most distinct mountains in the district" />
		<tag k="name" v="Ognilsberga" />
		<tag k="natural" v="hill" />
		<tag k="place" v="locality" />
		<tag k="ssr:stedsnr" v="552196" />
	</node>
	<node lat="60.557658330947696" lon="10.51481111148304" id="-21964">
		<tag k="fixme" v="consider natural=peak for the most distinct mountains in the district" />
		<tag k="name" v="Kvitingen" />
		<tag k="natural" v="hill" />
		<tag k="place" v="locality" />
		<tag k="ssr:stedsnr" v="553101" />
	</node>
	<node lat="60.516261115381276" lon="10.47112778266956" id="-21965">
		<tag k="name" v="Slurperudsdalen" />
		<tag k="natural" v="valley" />
		<tag k="place" v="locality" />
		<tag k="ssr:stedsnr" v="692557" />
	</node>
	<node lat="60.504249997666605" lon="10.681780550245861" id="-21982">
		<tag k="name" v="Slåtthagalia" />
		<tag k="natural" v="slope" />
		<tag k="place" v="locality" />
		<tag k="ssr:stedsnr" v="578504" />
	</node>
	<node lat="60.50654166329192" lon="10.701961113288245" id="-21983">
		<tag k="name" v="Brannelvlia" />
		<tag k="natural" v="slope" />
		<tag k="place" v="locality" />
		<tag k="ssr:stedsnr" v="578505" />
	</node>
	<node lat="60.383672220743776" lon="10.517766667947765" id="-21991">
		<tag k="name" v="Pildalen" />
		<tag k="natural" v="valley" />
		<tag k="place" v="locality" />
		<tag k="ssr:stedsnr" v="696713" />
	</node>
	<node lat="60.37149999788609" lon="10.83625832777426" id="-21997">
		<tag k="name" v="Langshaugen" />
		<tag k="natural" v="hill" />
		<tag k="place" v="locality" />
		<tag k="ssr:stedsnr" v="596227" />
	</node>
	<node lat="60.492919445394314" lon="10.362061109559118" id="-22005">
		<tag k="name" v="Tostenhaugen" />
		<tag k="natural" v="hill" />
		<tag k="place" v="locality" />
		<tag k="ssr:stedsnr" v="597267" />
	</node>
	<node lat="60.52962777871063" lon="10.333258326456608" id="-22019">
		<tag k="name" v="Gammelkleiva" />
		<tag k="natural" v="valley" />
		<tag k="place" v="locality" />
		<tag k="ssr:stedsnr" v="698685" />
	</node>
	<node lat="60.51644167034206" lon="10.507611119112989" id="-22026">
		<tag k="name" v="Benstihaugen" />
		<tag k="natural" v="hill" />
		<tag k="place" v="locality" />
		<tag k="ssr:stedsnr" v="700148" />
	</node>
	<node lat="60.49158055140208" lon="10.610247216688501" id="-22032">
		<tag k="fixme" v="consider natural=peak for the most distinct mountains in the district" />
		<tag k="name" v="Elkensæterhøgda" />
		<tag k="natural" v="hill" />
		<tag k="place" v="locality" />
		<tag k="ssr:stedsnr" v="700493" />
	</node>
	<node lat="60.46383611317442" lon="10.662691659281117" id="-22034">
		<tag k="name" v="Gryta" />
		<tag k="natural" v="valley" />
		<tag k="place" v="locality" />
		<tag k="ssr:stedsnr" v="700595" />
	</node>
	<node lat="60.32389167046747" lon="10.891455555354327" id="-22044">
		<tag k="name" v="Korpehaugen" />
		<tag k="natural" v="hill" />
		<tag k="place" v="locality" />
		<tag k="ssr:stedsnr" v="612280" />
	</node>
	<node lat="60.484038885911616" lon="10.606308332442968" id="-22046">
		<tag k="alt_name" v="Høykorsvarden" />
		<tag k="fixme" v="consider natural=peak for the most distinct mountains in the district" />
		<tag k="name" v="Høgkorset" />
		<tag k="natural" v="hill" />
		<tag k="place" v="locality" />
		<tag k="ssr:stedsnr" v="612321" />
	</node>
	<node lat="60.3977388905215" lon="10.790494452057484" id="-22048">
		<tag k="name" v="Glåmberget" />
		<tag k="natural" v="hill" />
		<tag k="place" v="locality" />
		<tag k="ssr:stedsnr" v="612617" />
	</node>
	<node lat="60.44179444497131" lon="10.63110834064802" id="-22058">
		<tag k="fixme" v="consider natural=peak for the most distinct mountains in the district" />
		<tag k="name" v="Halmbråtåhøgda" />
		<tag k="natural" v="hill" />
		<tag k="place" v="locality" />
		<tag k="ssr:stedsnr" v="613223" />
	</node>
	<node lat="60.38166666500025" lon="10.640286117464408" id="-22072">
		<tag k="name" v="Linlandet" />
		<tag k="place" v="locality" />
		<tag k="ssr:stedsnr" v="635796" />
	</node>
	<node lat="60.353172226638385" lon="10.644197226298862" id="-22073">
		<tag k="name" v="Bikkjeberget" />
		<tag k="natural" v="hill" />
		<tag k="place" v="locality" />
		<tag k="ssr:stedsnr" v="635988" />
	</node>
	<node lat="60.558250000845746" lon="10.515136112822994" id="-22087">
		<tag k="name" v="Glåmhaugen" />
		<tag k="natural" v="hill" />
		<tag k="place" v="locality" />
		<tag k="ssr:stedsnr" v="639726" />
	</node>
	<node lat="60.34340555469403" lon="10.680241671917011" id="-22099">
		<tag k="name" v="Hamartjernberget" />
		<tag k="natural" v="hill" />
		<tag k="place" v="locality" />
		<tag k="ssr:stedsnr" v="657395" />
	</node>
	<node lat="60.34397499565753" lon="10.696358326067951" id="-22100">
		<tag k="name" v="Nordre Kudalen" />
		<tag k="natural" v="valley" />
		<tag k="place" v="locality" />
		<tag k="ssr:stedsnr" v="657396" />
	</node>
	<node lat="60.45564722306784" lon="10.376358333946564" id="-22103">
		<tag k="name" v="Hulderstad" />
		<tag k="natural" v="hill" />
		<tag k="place" v="locality" />
		<tag k="ssr:stedsnr" v="657706" />
	</node>
	<node lat="60.50171944521863" lon="10.320036104748379" id="-22106">
		<tag k="name" v="Åtedalen" />
		<tag k="natural" v="valley" />
		<tag k="place" v="locality" />
		<tag k="ssr:stedsnr" v="658404" />
	</node>
	<node lat="60.501447223306144" lon="10.315672216221468" id="-22109">
		<tag k="name" v="Kampen" />
		<tag k="natural" v="hill" />
		<tag k="place" v="locality" />
		<tag k="ssr:stedsnr" v="658402" />
	</node>
	<node lat="60.41704999578146" lon="10.824347225774016" id="-22110">
		<tag k="name" v="Badstufalldalen" />
		<tag k="natural" v="valley" />
		<tag k="place" v="locality" />
		<tag k="ssr:stedsnr" v="658881" />
	</node>
	<node lat="60.391022218198536" lon="10.618916667321527" id="-22119">
		<tag k="alt_name" v="Hvalebykampen" />
		<tag k="fixme" v="consider natural=peak for the most distinct mountains in the district" />
		<tag k="name" v="Hvalabykampen" />
		<tag k="natural" v="hill" />
		<tag k="place" v="locality" />
		<tag k="ssr:stedsnr" v="673103" />
	</node>
	<node lat="60.42774999943109" lon="10.747052776616917" id="-22121">
		<tag k="name" v="Langfallhaugen" />
		<tag k="natural" v="hill" />
		<tag k="place" v="locality" />
		<tag k="ssr:stedsnr" v="673641" />
	</node>
	<node lat="60.469650003577485" lon="10.245836111870632" id="-22123">
		<tag k="fixme" v="consider natural=peak for the most distinct mountains in the district" />
		<tag k="name" v="Gjørsbråtåberga" />
		<tag k="natural" v="hill" />
		<tag k="place" v="locality" />
		<tag k="ssr:stedsnr" v="673570" />
	</node>
	<node lat="60.33758055740254" lon="10.430477773780545" id="-22143">
=======
		<tag k="ssr:stedsnr" v="962873" />
	</node>
	<node id="-386544" lat="60.455633333" lon="10.3783555547">
		<tag k="name" v="Hulderstaddalen" />
		<tag k="natural" v="valley" />
		<tag k="place" v="locality" />
		<tag k="ssr:stedsnr" v="961770" />
	</node>
	<node id="-386539" lat="60.4148777744" lon="10.2396000084">
		<tag k="name" v="Bjørnsjøhøgda" />
		<tag k="natural" v="hill" />
		<tag k="place" v="locality" />
		<tag k="ssr:stedsnr" v="961562" />
	</node>
	<node id="-386528" lat="60.3996333355" lon="10.2963694467">
		<tag k="alt_name" v="Abborhaugen" />
		<tag k="name" v="Åbortjernshaugen" />
		<tag k="natural" v="hill" />
		<tag k="place" v="locality" />
		<tag k="ssr:stedsnr" v="917265" />
	</node>
	<node id="-386520" lat="60.3685250008" lon="10.8616305602">
		<tag k="name" v="Bjørnvikhaugen" />
		<tag k="natural" v="hill" />
		<tag k="place" v="locality" />
		<tag k="ssr:stedsnr" v="916573" />
	</node>
	<node id="-386516" lat="60.4308750012" lon="10.2883749914">
		<tag k="fixme" v="consider natural=peak for the most distinct mountains in the district" />
		<tag k="name" v="Hovsæteråsen" />
		<tag k="natural" v="hill" />
		<tag k="place" v="locality" />
		<tag k="ssr:stedsnr" v="916374" />
	</node>
	<node id="-386507" lat="60.338338891" lon="10.8134388839">
		<tag k="name" v="Rusaberga" />
		<tag k="natural" v="hill" />
		<tag k="place" v="locality" />
		<tag k="ssr:stedsnr" v="901757" />
	</node>
	<node id="-387660" lat="60.3977388905" lon="10.7904944521">
		<tag k="name" v="Glåmberget" />
		<tag k="natural" v="hill" />
		<tag k="place" v="locality" />
		<tag k="ssr:stedsnr" v="612617" />
	</node>
	<node id="-386499" lat="60.3481055551" lon="10.8421722202">
		<tag k="name" v="Høvernhøgda" />
		<tag k="natural" v="hill" />
		<tag k="place" v="locality" />
		<tag k="ssr:stedsnr" v="900257" />
	</node>
	<node id="-386498" lat="60.4696222209" lon="10.5600027751">
		<tag k="name" v="Goddalshaugen" />
		<tag k="natural" v="hill" />
		<tag k="place" v="locality" />
		<tag k="ssr:stedsnr" v="881716" />
	</node>
	<node id="-386483" lat="60.4255055515" lon="10.3028527839">
		<tag k="name" v="Grindåkerdalen" />
		<tag k="natural" v="valley" />
		<tag k="place" v="locality" />
		<tag k="ssr:stedsnr" v="856409" />
	</node>
	<node id="-386461" lat="60.4779916626" lon="10.6105138809">
		<tag k="name" v="Ormeberga" />
		<tag k="natural" v="ridge" />
		<tag k="place" v="locality" />
		<tag k="ssr:stedsnr" v="943367" />
	</node>
	<node id="-386460" lat="60.5383500013" lon="10.5520444523">
		<tag k="name" v="Parislia" />
		<tag k="natural" v="slope" />
		<tag k="place" v="locality" />
		<tag k="ssr:stedsnr" v="943351" />
	</node>
	<node id="-386456" lat="60.4721833303" lon="10.5793361136">
		<tag k="name" v="Morderknipen" />
		<tag k="place" v="locality" />
		<tag k="ssr:stedsnr" v="942733" />
	</node>
	<node id="-386432" lat="60.40203056" lon="10.5465888853">
		<tag k="name" v="Erikshaugen" />
		<tag k="natural" v="hill" />
		<tag k="place" v="locality" />
		<tag k="ssr:stedsnr" v="939841" />
	</node>
	<node id="-386426" lat="60.4321861145" lon="10.7152083282">
		<tag k="name" v="Jønnlidalen" />
		<tag k="natural" v="valley" />
		<tag k="place" v="locality" />
		<tag k="ssr:stedsnr" v="841505" />
	</node>
	<node id="-386418" lat="60.5310388863" lon="10.4827611165">
		<tag k="fixme" v="consider natural=peak for the most distinct mountains in the district" />
		<tag k="name" v="Toppåsen" />
		<tag k="natural" v="hill" />
		<tag k="place" v="locality" />
		<tag k="ssr:stedsnr" v="934593" />
	</node>
	<node id="-386410" lat="60.5138972253" lon="10.5042583249">
		<tag k="name" v="Festningshøgda" />
		<tag k="natural" v="hill" />
		<tag k="place" v="locality" />
		<tag k="ssr:stedsnr" v="821116" />
	</node>
	<node id="-386409" lat="60.5332361081" lon="10.382761109">
		<tag k="name" v="Kampesletta" />
		<tag k="place" v="locality" />
		<tag k="ssr:stedsnr" v="820671" />
	</node>
	<node id="-386400" lat="60.4321638921" lon="10.6313166631">
		<tag k="name" v="Bakkehaugsdalen" />
		<tag k="natural" v="valley" />
		<tag k="place" v="locality" />
		<tag k="ssr:stedsnr" v="818976" />
	</node>
	<node id="-386386" lat="60.354255559" lon="10.8460805496">
		<tag k="name" v="Sandbotnhaugen" />
		<tag k="natural" v="hill" />
		<tag k="place" v="locality" />
		<tag k="ssr:stedsnr" v="795575" />
	</node>
	<node id="-386371" lat="60.4702305525" lon="10.3376611194">
		<tag k="fixme" v="consider natural=peak for the most distinct mountains in the district" />
		<tag k="name" v="Skjukuåsen" />
		<tag k="natural" v="hill" />
		<tag k="place" v="locality" />
		<tag k="ssr:stedsnr" v="794558" />
	</node>
	<node id="-386357" lat="60.4546361126" lon="10.1985972285">
		<tag k="fixme" v="consider natural=peak for the most distinct mountains in the district" />
		<tag k="name" v="Vestlandsfjellet" />
		<tag k="natural" v="hill" />
		<tag k="place" v="locality" />
		<tag k="ssr:stedsnr" v="916546" />
	</node>
	<node id="-386350" lat="60.4226472239" lon="10.196369445">
		<tag k="fixme" v="consider natural=peak for the most distinct mountains in the district" />
		<tag k="name" v="Tretjernshøgda" />
		<tag k="natural" v="hill" />
		<tag k="place" v="locality" />
		<tag k="ssr:stedsnr" v="916397" />
	</node>
	<node id="-386338" lat="60.3830250038" lon="10.691925002">
		<tag k="fixme" v="consider natural=peak for the most distinct mountains in the district" />
		<tag k="name" v="Mykjegodthaugen" />
		<tag k="natural" v="hill" />
		<tag k="place" v="locality" />
		<tag k="ssr:stedsnr" v="916137" />
	</node>
	<node id="-386335" lat="60.4943249985" lon="10.6311416715">
		<tag k="name" v="Styggdalen" />
		<tag k="natural" v="valley" />
		<tag k="place" v="locality" />
		<tag k="ssr:stedsnr" v="761521" />
	</node>
	<node id="-386331" lat="60.4658694466" lon="10.5458805546">
		<tag k="name" v="Styggdalen" />
		<tag k="natural" v="valley" />
		<tag k="place" v="locality" />
		<tag k="ssr:stedsnr" v="759713" />
	</node>
	<node id="-386329" lat="60.5355333292" lon="10.4043222166">
		<tag k="name" v="Geitryggen" />
		<tag k="natural" v="ridge" />
		<tag k="place" v="locality" />
		<tag k="ssr:stedsnr" v="759676" />
	</node>
	<node id="-386328" lat="60.5387694458" lon="10.395747216">
		<tag k="fixme" v="consider natural=peak for the most distinct mountains in the district" />
		<tag k="name" v="Krullfuruputthøgda" />
		<tag k="natural" v="hill" />
		<tag k="place" v="locality" />
		<tag k="ssr:stedsnr" v="759673" />
	</node>
	<node id="-386324" lat="60.4923583345" lon="10.469327783">
		<tag k="name" v="Kudalen" />
		<tag k="natural" v="valley" />
		<tag k="place" v="locality" />
		<tag k="ssr:stedsnr" v="759260" />
	</node>
	<node id="-386322" lat="60.4914777805" lon="10.2363527819">
		<tag k="name" v="Flattumshaugen" />
		<tag k="natural" v="hill" />
		<tag k="place" v="locality" />
		<tag k="ssr:stedsnr" v="734735" />
	</node>
	<node id="-386316" lat="60.3175000032" lon="10.7964083302">
		<tag k="name" v="Kråkhaugen" />
		<tag k="natural" v="hill" />
		<tag k="place" v="locality" />
		<tag k="ssr:stedsnr" v="901560" />
	</node>
	<node id="-386313" lat="60.4375250035" lon="10.2872111029">
		<tag k="name" v="Lokkeberget" />
		<tag k="natural" v="hill" />
		<tag k="place" v="locality" />
		<tag k="ssr:stedsnr" v="900595" />
	</node>
	<node id="-386305" lat="60.3680388925" lon="10.8443833298">
		<tag k="name" v="Storstulia" />
		<tag k="natural" v="slope" />
		<tag k="place" v="locality" />
		<tag k="ssr:stedsnr" v="900244" />
	</node>
	<node id="-387623" lat="60.4933611131" lon="10.1795444385">
		<tag k="name" v="Valstjernlia" />
		<tag k="natural" v="slope" />
		<tag k="place" v="locality" />
		<tag k="ssr:stedsnr" v="597577" />
	</node>
	<node id="-386273" lat="60.3836722207" lon="10.5177666679">
		<tag k="name" v="Pildalen" />
		<tag k="natural" v="valley" />
		<tag k="place" v="locality" />
		<tag k="ssr:stedsnr" v="696713" />
	</node>
	<node id="-386267" lat="60.5162611154" lon="10.4711277827">
		<tag k="name" v="Slurperudsdalen" />
		<tag k="natural" v="valley" />
		<tag k="place" v="locality" />
		<tag k="ssr:stedsnr" v="692557" />
	</node>
	<node id="-386265" lat="60.5352333313" lon="10.5370499968">
		<tag k="name" v="Kløvfalla" />
		<tag k="natural" v="slope" />
		<tag k="place" v="locality" />
		<tag k="ssr:stedsnr" v="882644" />
	</node>
	<node id="-386263" lat="60.471449996" lon="10.6978222197">
		<tag k="name" v="Grandalen" />
		<tag k="natural" v="valley" />
		<tag k="place" v="locality" />
		<tag k="ssr:stedsnr" v="882491" />
	</node>
	<node id="-386259" lat="60.4935305569" lon="10.6753361137">
		<tag k="name" v="Bekkedalen" />
		<tag k="natural" v="valley" />
		<tag k="place" v="locality" />
		<tag k="ssr:stedsnr" v="882431" />
	</node>
	<node id="-386257" lat="60.4982916625" lon="10.6465444369">
		<tag k="name" v="Sagatåjet" />
		<tag k="place" v="locality" />
		<tag k="ssr:stedsnr" v="882408" />
	</node>
	<node id="-386250" lat="60.5245704393" lon="10.1548988391">
		<tag k="fixme" v="consider natural=peak for the most distinct mountains in the district" />
		<tag k="name" v="Vardhugukollen" />
		<tag k="natural" v="hill" />
		<tag k="place" v="locality" />
		<tag k="ssr:stedsnr" v="674468" />
	</node>
	<node id="-386249" lat="60.546763888" lon="10.4063999934">
		<tag k="name" v="Flaskehalsberget" />
		<tag k="natural" v="hill" />
		<tag k="place" v="locality" />
		<tag k="ssr:stedsnr" v="882153" />
	</node>
	<node id="-386243" lat="60.3576249983" lon="10.7002333278">
		<tag k="fixme" v="consider natural=peak for the most distinct mountains in the district" />
		<tag k="name" v="Rundelshaugen" />
		<tag k="natural" v="hill" />
		<tag k="place" v="locality" />
		<tag k="ssr:stedsnr" v="674058" />
	</node>
	<node id="-386242" lat="60.3566777814" lon="10.6733583264">
		<tag k="fixme" v="consider natural=peak for the most distinct mountains in the district" />
		<tag k="name" v="Brandhaugen" />
		<tag k="natural" v="hill" />
		<tag k="place" v="locality" />
		<tag k="ssr:stedsnr" v="674055" />
	</node>
	<node id="-386240" lat="60.5049999991" lon="10.4916694448">
		<tag k="name" v="Svartputtberget" />
		<tag k="natural" v="hill" />
		<tag k="place" v="locality" />
		<tag k="ssr:stedsnr" v="882121" />
	</node>
	<node id="-386239" lat="60.5201666654" lon="10.5136305577">
		<tag k="name" v="Kåreshaugen" />
		<tag k="natural" v="hill" />
		<tag k="place" v="locality" />
		<tag k="ssr:stedsnr" v="882111" />
	</node>
	<node id="-386231" lat="60.45896111" lon="10.5861722252">
		<tag k="name" v="Skålsæterhaugen" />
		<tag k="natural" v="hill" />
		<tag k="place" v="locality" />
		<tag k="ssr:stedsnr" v="881697" />
	</node>
	<node id="-386229" lat="60.539727778" lon="10.4220277692">
		<tag k="name" v="Gjersjølia" />
		<tag k="natural" v="slope" />
		<tag k="place" v="locality" />
		<tag k="ssr:stedsnr" v="881626" />
	</node>
	<node id="-386185" lat="60.4170499958" lon="10.8243472258">
		<tag k="name" v="Badstufalldalen" />
		<tag k="natural" v="valley" />
		<tag k="place" v="locality" />
		<tag k="ssr:stedsnr" v="658881" />
	</node>
	<node id="-386184" lat="60.4885444425" lon="10.1742583413">
		<tag k="name" v="Valtjernshøgda" />
		<tag k="natural" v="hill" />
		<tag k="place" v="locality" />
		<tag k="ssr:stedsnr" v="658520" />
	</node>
	<node id="-386178" lat="60.4556472231" lon="10.3763583339">
		<tag k="name" v="Hulderstad" />
		<tag k="natural" v="hill" />
		<tag k="place" v="locality" />
		<tag k="ssr:stedsnr" v="657706" />
	</node>
	<node id="-386157" lat="60.5146166652" lon="10.6928694417">
		<tag k="name" v="Rundhaugen" />
		<tag k="natural" v="hill" />
		<tag k="place" v="locality" />
		<tag k="ssr:stedsnr" v="735047" />
	</node>
	<node id="-387602" lat="60.3714999979" lon="10.8362583278">
		<tag k="name" v="Langshaugen" />
		<tag k="natural" v="hill" />
		<tag k="place" v="locality" />
		<tag k="ssr:stedsnr" v="596227" />
	</node>
	<node id="-386140" lat="60.3459249993" lon="10.9243750067">
		<tag k="name" v="Heggkollen" />
		<tag k="natural" v="hill" />
		<tag k="place" v="locality" />
		<tag k="ssr:stedsnr" v="734560" />
	</node>
	<node id="-387599" lat="60.4925277745" lon="10.2339527838">
		<tag k="name" v="Søthølet" />
		<tag k="natural" v="slope" />
		<tag k="place" v="locality" />
		<tag k="ssr:stedsnr" v="595612" />
	</node>
	<node id="-386132" lat="60.3321805521" lon="10.8809083274">
		<tag k="name" v="Lomtjernshaugen" />
		<tag k="natural" v="hill" />
		<tag k="place" v="locality" />
		<tag k="ssr:stedsnr" v="734320" />
	</node>
	<node id="-386126" lat="60.4702305585" lon="10.6519888939">
		<tag k="alt_name" v="Siljusæterhaugen" />
>>>>>>> e1d4bc35ff8a6074a6f2e91616a996b547c36f15
		<tag k="fixme" v="consider natural=peak for the most distinct mountains in the district" />
		<tag k="name" v="Syljusæterhaugen" />
		<tag k="natural" v="hill" />
		<tag k="place" v="locality" />
		<tag k="ssr:stedsnr" v="734236" />
	</node>
<<<<<<< HEAD
	<node lat="60.45785000247071" lon="10.588575005564557" id="-22148">
		<tag k="name" v="Skålsæterdalen" />
		<tag k="natural" v="valley" />
		<tag k="place" v="locality" />
		<tag k="ssr:stedsnr" v="699689" />
	</node>
	<node lat="60.54638333733816" lon="10.566161105957628" id="-22154">
		<tag k="name" v="Gåshaugen" />
		<tag k="natural" v="hill" />
		<tag k="place" v="locality" />
		<tag k="ssr:stedsnr" v="700718" />
	</node>
	<node lat="60.43888610758261" lon="10.201611109672006" id="-22162">
		<tag k="name" v="Sæterskaret" />
		<tag k="natural" v="valley" />
		<tag k="place" v="locality" />
		<tag k="ssr:stedsnr" v="718286" />
	</node>
	<node lat="60.401113890638065" lon="10.702188882030887" id="-22163">
		<tag k="name" v="Handklehaugen" />
		<tag k="natural" v="hill" />
		<tag k="place" v="locality" />
		<tag k="ssr:stedsnr" v="718475" />
	</node>
	<node lat="60.4492138878261" lon="10.360127771600837" id="-22173">
=======
	<node id="-386105" lat="60.3708277773" lon="10.480583335">
		<tag k="fixme" v="consider natural=peak for the most distinct mountains in the district" />
		<tag k="name" v="Sølvsberget" />
		<tag k="natural" v="hill" />
		<tag k="place" v="locality" />
		<tag k="ssr:stedsnr" v="734029" />
	</node>
	<node id="-386093" lat="60.381666665" lon="10.6402861175">
		<tag k="name" v="Linlandet" />
		<tag k="place" v="locality" />
		<tag k="ssr:stedsnr" v="635796" />
	</node>
	<node id="-386092" lat="60.4244555554" lon="10.6001500012">
		<tag k="name" v="Rognhaugen" />
		<tag k="natural" v="hill" />
		<tag k="place" v="locality" />
		<tag k="ssr:stedsnr" v="635574" />
	</node>
	<node id="-386084" lat="60.441794445" lon="10.6311083406">
		<tag k="fixme" v="consider natural=peak for the most distinct mountains in the district" />
		<tag k="name" v="Halmbråtåhøgda" />
		<tag k="natural" v="hill" />
		<tag k="place" v="locality" />
		<tag k="ssr:stedsnr" v="613223" />
	</node>
	<node id="-386083" lat="60.3392500006" lon="10.6900749919">
		<tag k="fixme" v="consider natural=peak for the most distinct mountains in the district" />
		<tag k="name" v="Skjerveknatten" />
		<tag k="natural" v="hill" />
		<tag k="place" v="locality" />
		<tag k="ssr:stedsnr" v="612988" />
	</node>
	<node id="-386061" lat="60.4492138878" lon="10.3601277716">
>>>>>>> e1d4bc35ff8a6074a6f2e91616a996b547c36f15
		<tag k="name" v="Treskeberget" />
		<tag k="natural" v="hill" />
		<tag k="place" v="locality" />
		<tag k="ssr:stedsnr" v="719523" />
	</node>
<<<<<<< HEAD
	<node lat="60.36803889245478" lon="10.844383329830162" id="-22177">
		<tag k="name" v="Storstulia" />
		<tag k="natural" v="slope" />
		<tag k="place" v="locality" />
		<tag k="ssr:stedsnr" v="900244" />
	</node>
	<node lat="60.43752500348674" lon="10.287211102906547" id="-22185">
		<tag k="name" v="Lokkeberget" />
		<tag k="natural" v="hill" />
		<tag k="place" v="locality" />
		<tag k="ssr:stedsnr" v="900595" />
	</node>
	<node lat="60.41487777438547" lon="10.23960000835842" id="-22192">
		<tag k="name" v="Bjørnsjøhøgda" />
=======
	<node id="-386057" lat="60.4242861104" lon="10.692972225">
		<tag k="name" v="Solstompen" />
		<tag k="natural" v="hill" />
		<tag k="place" v="locality" />
		<tag k="ssr:stedsnr" v="719510" />
	</node>
	<node id="-386056" lat="60.4229499983" lon="10.6746555548">
		<tag k="name" v="Malsjølia" />
		<tag k="natural" v="slope" />
		<tag k="place" v="locality" />
		<tag k="ssr:stedsnr" v="719495" />
	</node>
	<node id="-386048" lat="60.4176638928" lon="10.3046666659">
		<tag k="name" v="Skrikerud" />
>>>>>>> e1d4bc35ff8a6074a6f2e91616a996b547c36f15
		<tag k="natural" v="hill" />
		<tag k="place" v="locality" />
		<tag k="ssr:stedsnr" v="718934" />
	</node>
<<<<<<< HEAD
	<node lat="60.47023055846408" lon="10.651988893938464" id="-22201">
		<tag k="alt_name" v="Siljusæterhaugen" />
		<tag k="fixme" v="consider natural=peak for the most distinct mountains in the district" />
		<tag k="name" v="Syljusæterhaugen" />
		<tag k="natural" v="hill" />
		<tag k="place" v="locality" />
		<tag k="ssr:stedsnr" v="734236" />
	</node>
	<node lat="60.332180552063384" lon="10.880908327424633" id="-22211">
		<tag k="name" v="Lomtjernshaugen" />
		<tag k="natural" v="hill" />
		<tag k="place" v="locality" />
		<tag k="ssr:stedsnr" v="734320" />
	</node>
	<node lat="60.49147778048147" lon="10.236352781932991" id="-22223">
		<tag k="name" v="Flattumshaugen" />
		<tag k="natural" v="hill" />
		<tag k="place" v="locality" />
		<tag k="ssr:stedsnr" v="734735" />
	</node>
	<node lat="60.44721944773207" lon="10.483413894191505" id="-22237">
		<tag k="name" v="Rundshaugen" />
		<tag k="natural" v="hill" />
		<tag k="place" v="locality" />
		<tag k="ssr:stedsnr" v="759003" />
	</node>
	<node lat="60.48001944096886" lon="10.3745166654086" id="-22245">
		<tag k="name" v="Risfallhaugen" />
		<tag k="natural" v="hill" />
		<tag k="place" v="locality" />
		<tag k="ssr:stedsnr" v="759421" />
	</node>
	<node lat="60.46586944659254" lon="10.54588055461015" id="-22248">
		<tag k="name" v="Styggdalen" />
		<tag k="natural" v="valley" />
		<tag k="place" v="locality" />
		<tag k="ssr:stedsnr" v="759713" />
	</node>
	<node lat="60.4943249985492" lon="10.63114167150197" id="-22260">
		<tag k="name" v="Styggdalen" />
		<tag k="natural" v="valley" />
		<tag k="place" v="locality" />
		<tag k="ssr:stedsnr" v="761521" />
	</node>
	<node lat="60.518894446005056" lon="10.276124990955365" id="-22267">
		<tag k="name" v="Kvernhushaugen" />
		<tag k="natural" v="hill" />
		<tag k="place" v="locality" />
		<tag k="ssr:stedsnr" v="779457" />
	</node>
	<node lat="60.41510277767211" lon="10.3266416610988" id="-22286">
		<tag k="name" v="Kroktjernshaugen" />
		<tag k="natural" v="hill" />
		<tag k="place" v="locality" />
		<tag k="ssr:stedsnr" v="795289" />
	</node>
	<node lat="60.35425555899444" lon="10.84608054959693" id="-22292">
		<tag k="name" v="Sandbotnhaugen" />
=======
	<node id="-386044" lat="60.4809888899" lon="10.1785305559">
		<tag k="name" v="Bundingstikklia" />
		<tag k="natural" v="slope" />
		<tag k="place" v="locality" />
		<tag k="ssr:stedsnr" v="718537" />
	</node>
	<node id="-386043" lat="60.4011138906" lon="10.702188882">
		<tag k="name" v="Handklehaugen" />
		<tag k="natural" v="hill" />
		<tag k="place" v="locality" />
		<tag k="ssr:stedsnr" v="718475" />
	</node>
	<node id="-386040" lat="60.3147138856" lon="10.7626027783">
		<tag k="name" v="Grautbrudalen" />
		<tag k="natural" v="valley" />
		<tag k="place" v="locality" />
		<tag k="ssr:stedsnr" v="718582" />
	</node>
	<node id="-386037" lat="60.4388861076" lon="10.2016111097">
		<tag k="name" v="Sæterskaret" />
		<tag k="natural" v="valley" />
		<tag k="place" v="locality" />
		<tag k="ssr:stedsnr" v="718286" />
	</node>
	<node id="-386030" lat="60.3484805512" lon="10.9008722216">
		<tag k="name" v="Pyramiden" />
		<tag k="natural" v="hill" />
		<tag k="place" v="locality" />
		<tag k="ssr:stedsnr" v="718092" />
	</node>
	<node id="-386029" lat="60.3388361079" lon="10.904405551">
		<tag k="name" v="Gullbergdalen" />
		<tag k="natural" v="valley" />
		<tag k="place" v="locality" />
		<tag k="ssr:stedsnr" v="718090" />
	</node>
	<node id="-386018" lat="60.4103750019" lon="10.1976027722">
		<tag k="name" v="Tretjernshøyda" />
		<tag k="natural" v="hill" />
		<tag k="place" v="locality" />
		<tag k="ssr:stedsnr" v="584281" />
	</node>
	<node id="-386015" lat="60.5299805568" lon="10.3505194356">
		<tag k="name" v="Høkleberget" />
		<tag k="natural" v="hill" />
		<tag k="place" v="locality" />
		<tag k="ssr:stedsnr" v="577730" />
	</node>
	<node id="-386014" lat="60.5307027774" lon="10.3420805525">
		<tag k="name" v="Utsikten" />
		<tag k="natural" v="hill" />
		<tag k="place" v="locality" />
		<tag k="ssr:stedsnr" v="577728" />
	</node>
	<node id="-385528" lat="60.4172694479" lon="10.472905553">
		<tag k="name" v="Svarthaugen" />
		<tag k="natural" v="hill" />
		<tag k="place" v="locality" />
		<tag k="ssr:stedsnr" v="213933" />
	</node>
	<node id="-385993" lat="60.5463833373" lon="10.566161106">
		<tag k="name" v="Gåshaugen" />
		<tag k="natural" v="hill" />
		<tag k="place" v="locality" />
		<tag k="ssr:stedsnr" v="700718" />
	</node>
	<node id="-385990" lat="60.4638361132" lon="10.6626916593">
		<tag k="name" v="Gryta" />
		<tag k="natural" v="valley" />
		<tag k="place" v="locality" />
		<tag k="ssr:stedsnr" v="700595" />
	</node>
	<node id="-385987" lat="60.4915805514" lon="10.6102472167">
		<tag k="fixme" v="consider natural=peak for the most distinct mountains in the district" />
		<tag k="name" v="Elkensæterhøgda" />
		<tag k="natural" v="hill" />
		<tag k="place" v="locality" />
		<tag k="ssr:stedsnr" v="700493" />
	</node>
	<node id="-385983" lat="60.5164416703" lon="10.5076111191">
		<tag k="name" v="Benstihaugen" />
		<tag k="natural" v="hill" />
		<tag k="place" v="locality" />
		<tag k="ssr:stedsnr" v="700148" />
	</node>
	<node id="-385981" lat="60.4578500025" lon="10.5885750056">
		<tag k="name" v="Skålsæterdalen" />
		<tag k="natural" v="valley" />
		<tag k="place" v="locality" />
		<tag k="ssr:stedsnr" v="699689" />
	</node>
	<node id="-385970" lat="60.5296277787" lon="10.3332583265">
		<tag k="name" v="Gammelkleiva" />
		<tag k="natural" v="valley" />
		<tag k="place" v="locality" />
		<tag k="ssr:stedsnr" v="698685" />
	</node>
	<node id="-388011" lat="60.3543777736" lon="10.6673833241">
		<tag k="name" v="Kaperalen" />
>>>>>>> e1d4bc35ff8a6074a6f2e91616a996b547c36f15
		<tag k="natural" v="hill" />
		<tag k="place" v="locality" />
		<tag k="ssr:stedsnr" v="961319" />
	</node>
<<<<<<< HEAD
	<node lat="60.383025003829644" lon="10.691925001957419" id="-22309">
		<tag k="fixme" v="consider natural=peak for the most distinct mountains in the district" />
		<tag k="name" v="Mykjegodthaugen" />
		<tag k="natural" v="hill" />
		<tag k="place" v="locality" />
		<tag k="ssr:stedsnr" v="916137" />
	</node>
	<node lat="60.42264722392749" lon="10.196369444983732" id="-22317">
		<tag k="fixme" v="consider natural=peak for the most distinct mountains in the district" />
		<tag k="name" v="Tretjernshøgda" />
=======
	<node id="-388009" lat="60.4798583323" lon="10.2061388808">
		<tag k="name" v="Sytterlia" />
		<tag k="natural" v="slope" />
		<tag k="place" v="locality" />
		<tag k="ssr:stedsnr" v="961586" />
	</node>
	<node id="-388008" lat="60.5281361148" lon="10.2700249941">
		<tag k="name" v="Bjonemyrhaugen" />
		<tag k="natural" v="hill" />
		<tag k="place" v="locality" />
		<tag k="ssr:stedsnr" v="961382" />
	</node>
	<node id="-385948" lat="60.4997222217" lon="10.2703833371">
		<tag k="name" v="Juvet" />
		<tag k="natural" v="gorge" />
		<tag k="ssr:stedsnr" v="536441" />
	</node>
	<node id="-385943" lat="60.5428844559" lon="10.1591450763">
		<tag k="name" v="Luserudkollen" />
		<tag k="natural" v="hill" />
		<tag k="place" v="locality" />
		<tag k="ssr:stedsnr" v="536012" />
	</node>
	<node id="-385938" lat="60.4567027809" lon="10.4710416642">
		<tag k="name" v="Hella" />
>>>>>>> e1d4bc35ff8a6074a6f2e91616a996b547c36f15
		<tag k="natural" v="hill" />
		<tag k="place" v="locality" />
		<tag k="ssr:stedsnr" v="516005" />
	</node>
<<<<<<< HEAD
	<node lat="60.45463611260385" lon="10.198597228487051" id="-22319">
		<tag k="fixme" v="consider natural=peak for the most distinct mountains in the district" />
		<tag k="name" v="Vestlandsfjellet" />
		<tag k="natural" v="hill" />
		<tag k="place" v="locality" />
		<tag k="ssr:stedsnr" v="916546" />
	</node>
	<node lat="60.399633335465616" lon="10.296369446722773" id="-22331">
		<tag k="alt_name" v="Abborhaugen" />
		<tag k="name" v="Åbortjernshaugen" />
		<tag k="natural" v="hill" />
		<tag k="place" v="locality" />
		<tag k="ssr:stedsnr" v="917265" />
	</node>
	<node lat="60.43216389205709" lon="10.63131666312431" id="-22337">
		<tag k="name" v="Bakkehaugsdalen" />
		<tag k="natural" v="valley" />
		<tag k="place" v="locality" />
		<tag k="ssr:stedsnr" v="818976" />
	</node>
	<node lat="60.53323610812888" lon="10.382761108974291" id="-22342">
		<tag k="name" v="Kampesletta" />
		<tag k="place" v="locality" />
		<tag k="ssr:stedsnr" v="820671" />
	</node>
	<node lat="60.51389722530783" lon="10.504258324896513" id="-22343">
		<tag k="name" v="Festningshøgda" />
		<tag k="natural" v="hill" />
		<tag k="place" v="locality" />
		<tag k="ssr:stedsnr" v="821116" />
	</node>
	<node lat="60.46757499711873" lon="10.670427775886381" id="-22347">
=======
	<node id="-385909" lat="60.4277499994" lon="10.7470527766">
		<tag k="name" v="Langfallhaugen" />
		<tag k="natural" v="hill" />
		<tag k="place" v="locality" />
		<tag k="ssr:stedsnr" v="673641" />
	</node>
	<node id="-387954" lat="60.3835777761" lon="10.8296111114">
		<tag k="name" v="Hønefosslia" />
		<tag k="natural" v="slope" />
		<tag k="place" v="locality" />
		<tag k="ssr:stedsnr" v="840877" />
	</node>
	<node id="-385904" lat="60.4696500036" lon="10.2458361119">
		<tag k="fixme" v="consider natural=peak for the most distinct mountains in the district" />
		<tag k="name" v="Gjørsbråtåberga" />
		<tag k="natural" v="hill" />
		<tag k="place" v="locality" />
		<tag k="ssr:stedsnr" v="673570" />
	</node>
	<node id="-385897" lat="60.3246027735" lon="10.8028111136">
		<tag k="name" v="Putthaugen" />
		<tag k="natural" v="hill" />
		<tag k="place" v="locality" />
		<tag k="ssr:stedsnr" v="673286" />
	</node>
	<node id="-387942" lat="60.3427527775" lon="10.8888722224">
		<tag k="name" v="Bjørgelia" />
		<tag k="natural" v="slope" />
		<tag k="place" v="locality" />
		<tag k="ssr:stedsnr" v="840166" />
	</node>
	<node id="-385889" lat="60.3910222182" lon="10.6189166673">
		<tag k="alt_name" v="Hvalebykampen" />
		<tag k="fixme" v="consider natural=peak for the most distinct mountains in the district" />
		<tag k="name" v="Hvalabykampen" />
		<tag k="natural" v="hill" />
		<tag k="place" v="locality" />
		<tag k="ssr:stedsnr" v="673103" />
	</node>
	<node id="-387936" lat="60.34368611" lon="10.76024722">
		<tag k="name" v="Gullensæterlia" />
		<tag k="natural" v="slope" />
		<tag k="place" v="locality" />
		<tag k="ssr:stedsnr" v="839347" />
	</node>
	<node id="-385883" lat="60.4255249968" lon="10.7112888844">
		<tag k="name" v="Slettanghaugen" />
		<tag k="natural" v="hill" />
		<tag k="place" v="locality" />
		<tag k="ssr:stedsnr" v="476507" />
	</node>
	<node id="-385881" lat="60.4896111083" lon="10.683580552">
		<tag k="name" v="Lomtjernslia" />
		<tag k="natural" v="slope" />
		<tag k="place" v="locality" />
		<tag k="ssr:stedsnr" v="457468" />
	</node>
	<node id="-387928" lat="60.4675749971" lon="10.6704277759">
>>>>>>> e1d4bc35ff8a6074a6f2e91616a996b547c36f15
		<tag k="name" v="Lokkeberget" />
		<tag k="natural" v="hill" />
		<tag k="place" v="locality" />
		<tag k="ssr:stedsnr" v="821569" />
<<<<<<< HEAD
	</node>
	<node lat="60.383577776107764" lon="10.82961111136694" id="-22366">
		<tag k="name" v="Hønefosslia" />
		<tag k="natural" v="slope" />
		<tag k="place" v="locality" />
		<tag k="ssr:stedsnr" v="840877" />
	</node>
	<node lat="60.43218611449606" lon="10.715208328249627" id="-22368">
		<tag k="name" v="Jønnlidalen" />
		<tag k="natural" v="valley" />
		<tag k="place" v="locality" />
		<tag k="ssr:stedsnr" v="841505" />
	</node>
	<node lat="60.5201666653722" lon="10.513630557654635" id="-22422">
		<tag k="name" v="Kåreshaugen" />
		<tag k="natural" v="hill" />
		<tag k="place" v="locality" />
		<tag k="ssr:stedsnr" v="882111" />
	</node>
	<node lat="60.54676388803507" lon="10.406399993391071" id="-22424">
		<tag k="name" v="Flaskehalsberget" />
=======
	</node>
	<node id="-385875" lat="60.3558055568" lon="10.5380861143">
		<tag k="fixme" v="consider natural=peak for the most distinct mountains in the district" />
		<tag k="name" v="Granåsen" />
		<tag k="natural" v="hill" />
		<tag k="place" v="locality" />
		<tag k="ssr:stedsnr" v="453635" />
	</node>
	<node id="-387913" lat="60.498508334" lon="10.4575444434">
		<tag k="name" v="Jensefallet" />
		<tag k="natural" v="ridge" />
		<tag k="place" v="locality" />
		<tag k="ssr:stedsnr" v="820294" />
	</node>
	<node id="-385864" lat="60.5017194452" lon="10.3200361047">
		<tag k="name" v="Åtedalen" />
		<tag k="natural" v="valley" />
		<tag k="place" v="locality" />
		<tag k="ssr:stedsnr" v="658404" />
	</node>
	<node id="-385863" lat="60.5014472233" lon="10.3156722162">
		<tag k="name" v="Kampen" />
		<tag k="natural" v="hill" />
		<tag k="place" v="locality" />
		<tag k="ssr:stedsnr" v="658402" />
	</node>
	<node id="-385853" lat="60.4666722251" lon="10.2246333378">
		<tag k="name" v="Søthølkollen" />
		<tag k="natural" v="hill" />
		<tag k="place" v="locality" />
		<tag k="ssr:stedsnr" v="657736" />
	</node>
	<node id="-385849" lat="60.3439749957" lon="10.6963583261">
		<tag k="name" v="Nordre Kudalen" />
		<tag k="natural" v="valley" />
		<tag k="place" v="locality" />
		<tag k="ssr:stedsnr" v="657396" />
	</node>
	<node id="-385848" lat="60.3434055547" lon="10.6802416719">
		<tag k="name" v="Hamartjernberget" />
		<tag k="natural" v="hill" />
		<tag k="place" v="locality" />
		<tag k="ssr:stedsnr" v="657395" />
	</node>
	<node id="-387894" lat="60.54166667" lon="10.1563416664">
		<tag k="name" v="Luserudkollen" />
>>>>>>> e1d4bc35ff8a6074a6f2e91616a996b547c36f15
		<tag k="natural" v="hill" />
		<tag k="place" v="locality" />
		<tag k="ssr:stedsnr" v="796547" />
	</node>
<<<<<<< HEAD
	<node lat="60.49829166251104" lon="10.646544436928814" id="-22425">
		<tag k="name" v="Sagatåjet" />
		<tag k="place" v="locality" />
		<tag k="ssr:stedsnr" v="882408" />
	</node>
	<node lat="60.53103888626367" lon="10.482761116479757" id="-22426">
		<tag k="fixme" v="consider natural=peak for the most distinct mountains in the district" />
		<tag k="name" v="Toppåsen" />
		<tag k="natural" v="hill" />
		<tag k="place" v="locality" />
		<tag k="ssr:stedsnr" v="934593" />
	</node>
	<node lat="60.34810555513565" lon="10.842172220161135" id="-22430">
		<tag k="name" v="Høvernhøgda" />
		<tag k="natural" v="hill" />
		<tag k="place" v="locality" />
		<tag k="ssr:stedsnr" v="900257" />
	</node>
	<node lat="60.31750000322258" lon="10.796408330185733" id="-22434">
		<tag k="name" v="Kråkhaugen" />
		<tag k="natural" v="hill" />
		<tag k="place" v="locality" />
		<tag k="ssr:stedsnr" v="901560" />
	</node>
	<node lat="60.33833889102017" lon="10.81343888394152" id="-22437">
		<tag k="name" v="Rusaberga" />
		<tag k="natural" v="hill" />
		<tag k="place" v="locality" />
		<tag k="ssr:stedsnr" v="901757" />
=======
	<node id="-385502" lat="60.4884333306" lon="10.1798805511">
		<tag k="name" v="Nysæterlia" />
		<tag k="natural" v="slope" />
		<tag k="place" v="locality" />
		<tag k="ssr:stedsnr" v="294529" />
	</node>
	<node id="-385843" lat="60.3454472234" lon="10.8789972189">
		<tag k="name" v="Bjørgesæterlia" />
		<tag k="natural" v="slope" />
		<tag k="place" v="locality" />
		<tag k="ssr:stedsnr" v="657169" />
	</node>
	<node id="-387880" lat="60.3707805516" lon="10.8454750082">
		<tag k="name" v="Langshaugen" />
		<tag k="natural" v="hill" />
		<tag k="place" v="locality" />
		<tag k="ssr:stedsnr" v="795594" />
	</node>
	<node id="-385830" lat="60.4642861119" lon="10.6613638799">
		<tag k="fixme" v="consider natural=peak for the most distinct mountains in the district" />
		<tag k="name" v="Gammelsæterhøgda" />
		<tag k="natural" v="hill" />
		<tag k="place" v="locality" />
		<tag k="ssr:stedsnr" v="518554" />
	</node>
	<node id="-385829" lat="60.446847226" lon="10.6601250086">
		<tag k="fixme" v="consider natural=peak for the most distinct mountains in the district" />
		<tag k="name" v="Skarvåsen" />
		<tag k="natural" v="hill" />
		<tag k="place" v="locality" />
		<tag k="ssr:stedsnr" v="518550" />
	</node>
	<node id="-385827" lat="60.4753083364" lon="10.6083222264">
		<tag k="name" v="Kambudalen" />
		<tag k="natural" v="valley" />
		<tag k="place" v="locality" />
		<tag k="ssr:stedsnr" v="518365" />
	</node>
	<node id="-385826" lat="60.5102611086" lon="10.5841722174">
		<tag k="name" v="Heimtjernshøgda" />
		<tag k="natural" v="hill" />
		<tag k="place" v="locality" />
		<tag k="ssr:stedsnr" v="518166" />
	</node>
	<node id="-385821" lat="60.5257694429" lon="10.5841083414">
		<tag k="name" v="Gåshaugen" />
		<tag k="natural" v="hill" />
		<tag k="place" v="locality" />
		<tag k="ssr:stedsnr" v="518086" />
	</node>
	<node id="-385818" lat="60.452105556" lon="10.534672225">
		<tag k="name" v="Langmyrhaugen" />
		<tag k="natural" v="hill" />
		<tag k="place" v="locality" />
		<tag k="ssr:stedsnr" v="517781" />
	</node>
	<node id="-387857" lat="60.4151027777" lon="10.3266416611">
		<tag k="name" v="Kroktjernshaugen" />
		<tag k="natural" v="hill" />
		<tag k="place" v="locality" />
		<tag k="ssr:stedsnr" v="795289" />
	</node>
	<node id="-385797" lat="60.3651055513" lon="10.709080553">
		<tag k="fixme" v="consider natural=peak for the most distinct mountains in the district" />
		<tag k="name" v="Marikleivhaugen" />
		<tag k="natural" v="hill" />
		<tag k="place" v="locality" />
		<tag k="ssr:stedsnr" v="431011" />
	</node>
	<node id="-385796" lat="60.4965250029" lon="10.5803916617">
		<tag k="name" v="Åstjernsplassen" />
		<tag k="place" v="locality" />
		<tag k="ssr:stedsnr" v="517338" />
	</node>
	<node id="-385795" lat="60.4927916673" lon="10.550319438">
		<tag k="name" v="Østefallhaugen" />
		<tag k="natural" v="hill" />
		<tag k="place" v="locality" />
		<tag k="ssr:stedsnr" v="517325" />
	</node>
	<node id="-385790" lat="60.500824997" lon="10.4818749923">
		<tag k="name" v="Kalvebakken" />
		<tag k="natural" v="slope" />
		<tag k="place" v="locality" />
		<tag k="ssr:stedsnr" v="516606" />
	</node>
	<node id="-385788" lat="60.5075138903" lon="10.4822611127">
		<tag k="name" v="Oterflata" />
		<tag k="place" v="locality" />
		<tag k="ssr:stedsnr" v="516593" />
	</node>
	<node id="-385782" lat="60.3598138876" lon="10.4350444519">
		<tag k="name" v="Hvindenhaugen" />
		<tag k="natural" v="hill" />
		<tag k="place" v="locality" />
		<tag k="ssr:stedsnr" v="516267" />
	</node>
	<node id="-385776" lat="60.3690916668" lon="10.6394666576">
		<tag k="name" v="Lærensæterberget" />
		<tag k="natural" v="hill" />
		<tag k="place" v="locality" />
		<tag k="ssr:stedsnr" v="514947" />
	</node>
	<node id="-387823" lat="60.4559277789" lon="10.3602527711">
		<tag k="name" v="Hermanrud" />
		<tag k="natural" v="hill" />
		<tag k="place" v="locality" />
		<tag k="ssr:stedsnr" v="779597" />
	</node>
	<node id="-387821" lat="60.518894446" lon="10.276124991">
		<tag k="name" v="Kvernhushaugen" />
		<tag k="natural" v="hill" />
		<tag k="place" v="locality" />
		<tag k="ssr:stedsnr" v="779457" />
	</node>
	<node id="-387819" lat="60.5259111142" lon="10.2547583391">
		<tag k="name" v="Rykkekleiva" />
		<tag k="place" v="locality" />
		<tag k="ssr:stedsnr" v="779388" />
	</node>
	<node id="-385767" lat="60.4599444421" lon="10.3722777756">
		<tag k="name" v="Pålseruddalen" />
		<tag k="natural" v="valley" />
		<tag k="place" v="locality" />
		<tag k="ssr:stedsnr" v="416838" />
	</node>
	<node id="-385763" lat="60.4523861075" lon="10.4616277847">
		<tag k="name" v="Kjerringberget" />
		<tag k="natural" v="hill" />
		<tag k="place" v="locality" />
		<tag k="ssr:stedsnr" v="395002" />
	</node>
	<node id="-387809" lat="60.3409888922" lon="10.8695250051">
		<tag k="name" v="Lyhaugen" />
		<tag k="natural" v="hill" />
		<tag k="place" v="locality" />
		<tag k="ssr:stedsnr" v="779160" />
	</node>
	<node id="-385755" lat="60.5209444451" lon="10.4744055623">
		<tag k="name" v="Moterudshaugane" />
		<tag k="natural" v="ridge" />
		<tag k="place" v="locality" />
		<tag k="ssr:stedsnr" v="388559" />
	</node>
	<node id="-387796" lat="60.4588222234" lon="10.703316675">
		<tag k="name" v="Styggbrenna" />
		<tag k="natural" v="slope" />
		<tag k="place" v="locality" />
		<tag k="ssr:stedsnr" v="760574" />
	</node>
	<node id="-385735" lat="60.4308036022" lon="10.6872944607">
		<tag k="fixme" v="consider natural=peak for the most distinct mountains in the district" />
		<tag k="name" v="Lushaugen" />
		<tag k="natural" v="hill" />
		<tag k="place" v="locality" />
		<tag k="ssr:stedsnr" v="492114" />
	</node>
	<node id="-385733" lat="60.4315250041" lon="10.6457666733">
		<tag k="fixme" v="consider natural=peak for the most distinct mountains in the district" />
		<tag k="name" v="Knørra" />
		<tag k="natural" v="hill" />
		<tag k="place" v="locality" />
		<tag k="ssr:stedsnr" v="492111" />
	</node>
	<node id="-387780" lat="60.480019441" lon="10.3745166654">
		<tag k="name" v="Risfallhaugen" />
		<tag k="natural" v="hill" />
		<tag k="place" v="locality" />
		<tag k="ssr:stedsnr" v="759421" />
	</node>
	<node id="-385726" lat="60.336574999" lon="10.4910361065">
		<tag k="fixme" v="consider natural=peak for the most distinct mountains in the district" />
		<tag k="name" v="Kjekshushaugen" />
		<tag k="natural" v="hill" />
		<tag k="place" v="locality" />
		<tag k="ssr:stedsnr" v="491980" />
	</node>
	<node id="-385719" lat="60.4967249962" lon="10.3213666684">
		<tag k="fixme" v="consider natural=peak for the most distinct mountains in the district" />
		<tag k="name" v="Sæterhaugen" />
		<tag k="natural" v="hill" />
		<tag k="place" v="locality" />
		<tag k="ssr:stedsnr" v="491717" />
	</node>
	<node id="-385717" lat="60.4737583324" lon="10.2156861053">
		<tag k="fixme" v="consider natural=peak for the most distinct mountains in the district" />
		<tag k="name" v="Svarttjernshøgda" />
		<tag k="natural" v="hill" />
		<tag k="place" v="locality" />
		<tag k="ssr:stedsnr" v="491693" />
	</node>
	<node id="-387764" lat="60.4472194477" lon="10.4834138942">
		<tag k="name" v="Rundshaugen" />
		<tag k="natural" v="hill" />
		<tag k="place" v="locality" />
		<tag k="ssr:stedsnr" v="759003" />
	</node>
	<node id="-385714" lat="60.3869833316" lon="10.7837083284">
		<tag k="name" v="Skreihaugen" />
		<tag k="natural" v="hill" />
		<tag k="place" v="locality" />
		<tag k="ssr:stedsnr" v="491598" />
	</node>
	<node id="-387758" lat="60.3823388928" lon="10.6532472219">
		<tag k="name" v="Ullvildsdalen" />
		<tag k="natural" v="valley" />
		<tag k="place" v="locality" />
		<tag k="ssr:stedsnr" v="757773" />
	</node>
	<node id="-385709" lat="60.3590583328" lon="10.8488250029">
		<tag k="name" v="Sandbotnlia" />
		<tag k="natural" v="slope" />
		<tag k="place" v="locality" />
		<tag k="ssr:stedsnr" v="491560" />
	</node>
	<node id="-385705" lat="60.4312694409" lon="10.309574999">
		<tag k="fixme" v="consider natural=peak for the most distinct mountains in the district" />
		<tag k="name" v="Bjørnhaugen" />
		<tag k="natural" v="hill" />
		<tag k="place" v="locality" />
		<tag k="ssr:stedsnr" v="491374" />
	</node>
	<node id="-385701" lat="60.3381499991" lon="10.8548638828">
		<tag k="name" v="Sæterhaugen" />
		<tag k="natural" v="hill" />
		<tag k="place" v="locality" />
		<tag k="ssr:stedsnr" v="491294" />
	</node>
	<node id="-385699" lat="60.3985888909" lon="10.192550002">
		<tag k="fixme" v="consider natural=peak for the most distinct mountains in the district" />
		<tag k="name" v="Tungeåsen" />
		<tag k="natural" v="hill" />
		<tag k="place" v="locality" />
		<tag k="ssr:stedsnr" v="491283" />
	</node>
	<node id="-385697" lat="60.4476694451" lon="10.6539277701">
		<tag k="fixme" v="consider natural=peak for the most distinct mountains in the district" />
		<tag k="name" v="Skarvåsen" />
		<tag k="natural" v="hill" />
		<tag k="place" v="locality" />
		<tag k="ssr:stedsnr" v="491227" />
	</node>
	<node id="-387737" lat="60.5129222205" lon="10.4433194526">
		<tag k="name" v="Bråtålykkja" />
		<tag k="place" v="locality" />
		<tag k="ssr:stedsnr" v="752544" />
	</node>
	<node id="-387734" lat="60.5582500008" lon="10.5151361128">
		<tag k="name" v="Glåmhaugen" />
		<tag k="natural" v="hill" />
		<tag k="place" v="locality" />
		<tag k="ssr:stedsnr" v="639726" />
	</node>
	<node id="-387730" lat="60.4774666706" lon="10.6545388929">
		<tag k="name" v="Klypen" />
		<tag k="natural" v="valley" />
		<tag k="place" v="locality" />
		<tag k="ssr:stedsnr" v="639562" />
	</node>
	<node id="-387729" lat="60.5050305589" lon="10.6273833286">
		<tag k="name" v="Prestsæterlia" />
		<tag k="natural" v="slope" />
		<tag k="place" v="locality" />
		<tag k="ssr:stedsnr" v="639540" />
	</node>
	<node id="-387720" lat="60.5133944489" lon="10.5154222163">
		<tag k="name" v="Bruvollen" />
		<tag k="place" v="locality" />
		<tag k="ssr:stedsnr" v="639148" />
	</node>
	<node id="-387716" lat="60.4773111138" lon="10.5022861144">
		<tag k="name" v="Jeserbakken" />
		<tag k="natural" v="slope" />
		<tag k="place" v="locality" />
		<tag k="ssr:stedsnr" v="638641" />
	</node>
	<node id="-385472" lat="60.3905777763" lon="10.8595388957">
		<tag k="name" v="Helmenhaugene" />
		<tag k="natural" v="hill" />
		<tag k="place" v="locality" />
		<tag k="ssr:stedsnr" v="173414" />
	</node>
	<node id="-387710" lat="60.5295333311" lon="10.3844944357">
		<tag k="name" v="Bergehushøgda" />
		<tag k="natural" v="hill" />
		<tag k="place" v="locality" />
		<tag k="ssr:stedsnr" v="637690" />
	</node>
	<node id="-387707" lat="60.531474998" lon="10.423724991">
		<tag k="name" v="Vendbrennbakken" />
		<tag k="natural" v="slope" />
		<tag k="place" v="locality" />
		<tag k="ssr:stedsnr" v="637657" />
	</node>
	<node id="-387706" lat="60.5392999964" lon="10.439813883">
		<tag k="name" v="Fotbekkdalen" />
		<tag k="natural" v="valley" />
		<tag k="place" v="locality" />
		<tag k="ssr:stedsnr" v="637651" />
	</node>
	<node id="-387698" lat="60.3531722266" lon="10.6441972263">
		<tag k="name" v="Bikkjeberget" />
		<tag k="natural" v="hill" />
		<tag k="place" v="locality" />
		<tag k="ssr:stedsnr" v="635988" />
	</node>
	<node id="-385649" lat="60.4526305523" lon="10.2070777697">
		<tag k="name" v="Rovtjernsskaret" />
		<tag k="natural" v="valley" />
		<tag k="place" v="locality" />
		<tag k="ssr:stedsnr" v="476526" />
	</node>
	<node id="-385647" lat="60.4670888904" lon="10.362038897">
		<tag k="name" v="Rolibrænnsnaret" />
		<tag k="place" v="locality" />
		<tag k="ssr:stedsnr" v="476336" />
	</node>
	<node id="-385642" lat="60.4285111126" lon="10.2868416605">
		<tag k="name" v="Søndre Hovseterås" />
		<tag k="natural" v="hill" />
		<tag k="place" v="locality" />
		<tag k="ssr:stedsnr" v="475914" />
	</node>
	<node id="-385641" lat="60.5293638908" lon="10.1507638822">
		<tag k="name" v="Beritlykjedalen" />
		<tag k="natural" v="valley" />
		<tag k="place" v="locality" />
		<tag k="ssr:stedsnr" v="475894" />
	</node>
	<node id="-385632" lat="60.4902333327" lon="10.344863886">
		<tag k="name" v="Langbråtåberget" />
		<tag k="natural" v="hill" />
		<tag k="place" v="locality" />
		<tag k="ssr:stedsnr" v="475241" />
	</node>
	<node id="-385627" lat="60.416672218" lon="10.3511611089">
		<tag k="name" v="Korpeberget" />
		<tag k="natural" v="hill" />
		<tag k="place" v="locality" />
		<tag k="ssr:stedsnr" v="475093" />
	</node>
	<node id="-385612" lat="60.4750305519" lon="10.1925583315">
		<tag k="name" v="Skjellingerkollen" />
		<tag k="natural" v="hill" />
		<tag k="place" v="locality" />
		<tag k="ssr:stedsnr" v="293653" />
	</node>
	<node id="-387654" lat="60.4840388859" lon="10.6063083324">
		<tag k="alt_name" v="Høykorsvarden" />
		<tag k="fixme" v="consider natural=peak for the most distinct mountains in the district" />
		<tag k="name" v="Høgkorset" />
		<tag k="natural" v="hill" />
		<tag k="place" v="locality" />
		<tag k="ssr:stedsnr" v="612321" />
	</node>
	<node id="-387651" lat="60.3238916705" lon="10.8914555554">
		<tag k="name" v="Korpehaugen" />
		<tag k="natural" v="hill" />
		<tag k="place" v="locality" />
		<tag k="ssr:stedsnr" v="612280" />
	</node>
	<node id="-387646" lat="60.4746277791" lon="10.6700722154">
		<tag k="name" v="Helgedalen" />
		<tag k="natural" v="valley" />
		<tag k="place" v="locality" />
		<tag k="ssr:stedsnr" v="612216" />
	</node>
	<node id="-385592" lat="60.5598277771" lon="10.486066663">
		<tag k="name" v="Vestre Kvitingslia" />
		<tag k="natural" v="slope" />
		<tag k="place" v="locality" />
		<tag k="ssr:stedsnr" v="457694" />
	</node>
	<node id="-385587" lat="60.4742916632" lon="10.6624361135">
		<tag k="name" v="Lokkebakka" />
		<tag k="natural" v="slope" />
		<tag k="place" v="locality" />
		<tag k="ssr:stedsnr" v="457528" />
	</node>
	<node id="-387633" lat="60.543594441" lon="10.1538666609">
		<tag k="name" v="Storåsdalen" />
		<tag k="natural" v="valley" />
		<tag k="place" v="locality" />
		<tag k="ssr:stedsnr" v="601855" />
	</node>
	<node id="-385584" lat="60.5130749974" lon="10.5567472282">
		<tag k="name" v="Budeiholen" />
		<tag k="natural" v="valley" />
		<tag k="place" v="locality" />
		<tag k="ssr:stedsnr" v="457136" />
	</node>
	<node id="-387627" lat="60.3887194421" lon="10.7736472184">
		<tag k="name" v="Steinfallhaugen" />
		<tag k="natural" v="hill" />
		<tag k="place" v="locality" />
		<tag k="ssr:stedsnr" v="597775" />
	</node>
	<node id="-387626" lat="60.3992166685" lon="10.7965916642">
		<tag k="name" v="Brattåsen" />
		<tag k="natural" v="slope" />
		<tag k="place" v="locality" />
		<tag k="ssr:stedsnr" v="597739" />
	</node>
	<node id="-385577" lat="60.5095416649" lon="10.4816083318">
		<tag k="name" v="Knutsbråtån" />
		<tag k="natural" v="slope" />
		<tag k="place" v="locality" />
		<tag k="ssr:stedsnr" v="456606" />
	</node>
	<node id="-385575" lat="60.4851722238" lon="10.3751694533">
		<tag k="name" v="Kleiva" />
		<tag k="natural" v="slope" />
		<tag k="place" v="locality" />
		<tag k="ssr:stedsnr" v="456422" />
	</node>
	<node id="-387506" lat="60.5119527754" lon="10.4653888892">
		<tag k="alt_name" v="Ilhøgda" />
		<tag k="fixme" v="consider natural=peak for the most distinct mountains in the district" />
		<tag k="name" v="Eilhøgda" />
		<tag k="natural" v="hill" />
		<tag k="place" v="locality" />
		<tag k="ssr:stedsnr" v="552083" />
	</node>
	<node id="-385570" lat="60.4378277736" lon="10.4705166607">
		<tag k="name" v="Rundshaugen" />
		<tag k="natural" v="hill" />
		<tag k="place" v="locality" />
		<tag k="ssr:stedsnr" v="456040" />
	</node>
	<node id="-387616" lat="60.3973999964" lon="10.217058326">
		<tag k="name" v="Beretbrenna" />
		<tag k="natural" v="hill" />
		<tag k="place" v="locality" />
		<tag k="ssr:stedsnr" v="597291" />
	</node>
	<node id="-387614" lat="60.4929194454" lon="10.3620611096">
		<tag k="name" v="Tostenhaugen" />
		<tag k="natural" v="hill" />
		<tag k="place" v="locality" />
		<tag k="ssr:stedsnr" v="597267" />
	</node>
	<node id="-385559" lat="60.366008331" lon="10.6186888936">
		<tag k="name" v="Karensberget" />
		<tag k="natural" v="hill" />
		<tag k="place" v="locality" />
		<tag k="ssr:stedsnr" v="454488" />
	</node>
	<node id="-385554" lat="60.4040638891" lon="10.5813750083">
		<tag k="name" v="Geitryggen" />
		<tag k="natural" v="hill" />
		<tag k="place" v="locality" />
		<tag k="ssr:stedsnr" v="453148" />
	</node>
	<node id="-385551" lat="60.4053277746" lon="10.5296416689">
		<tag k="name" v="Kakuhaugen" />
		<tag k="natural" v="hill" />
		<tag k="place" v="locality" />
		<tag k="ssr:stedsnr" v="453025" />
	</node>
	<node id="-385548" lat="60.3838388852" lon="10.3149083325">
		<tag k="alt_name" v="Styggdalen" />
		<tag k="name" v="Styggedalen" />
		<tag k="natural" v="valley" />
		<tag k="place" v="locality" />
		<tag k="ssr:stedsnr" v="248631" />
	</node>
	<node id="-387595" lat="60.5351888894" lon="10.4908194491">
		<tag k="fixme" v="consider natural=peak for the most distinct mountains in the district" />
		<tag k="name" v="Filleblåen" />
		<tag k="natural" v="hill" />
		<tag k="place" v="locality" />
		<tag k="ssr:stedsnr" v="578699" />
	</node>
	<node id="-387594" lat="60.541616664" lon="10.506913889">
		<tag k="name" v="Svartdalslia" />
		<tag k="natural" v="slope" />
		<tag k="place" v="locality" />
		<tag k="ssr:stedsnr" v="578697" />
	</node>
	<node id="-385545" lat="60.5115555529" lon="10.4473916651">
		<tag k="name" v="Gravmoen" />
		<tag k="place" v="locality" />
		<tag k="ssr:stedsnr" v="449562" />
	</node>
	<node id="-385542" lat="60.4800611112" lon="10.175491662">
		<tag k="name" v="Styggdalen" />
		<tag k="natural" v="valley" />
		<tag k="place" v="locality" />
		<tag k="ssr:stedsnr" v="233542" />
	</node>
	<node id="-387589" lat="60.5065416633" lon="10.7019611133">
		<tag k="name" v="Brannelvlia" />
		<tag k="natural" v="slope" />
		<tag k="place" v="locality" />
		<tag k="ssr:stedsnr" v="578505" />
	</node>
	<node id="-387588" lat="60.5042499977" lon="10.6817805502">
		<tag k="name" v="Slåtthagalia" />
		<tag k="natural" v="slope" />
		<tag k="place" v="locality" />
		<tag k="ssr:stedsnr" v="578504" />
	</node>
	<node id="-387583" lat="60.5320611122" lon="10.4369805518">
		<tag k="name" v="Toregjellen" />
		<tag k="natural" v="valley" />
		<tag k="place" v="locality" />
		<tag k="ssr:stedsnr" v="577629" />
	</node>
	<node id="-387576" lat="60.3356277741" lon="10.4906944409">
		<tag k="name" v="Viksberget" />
		<tag k="natural" v="ridge" />
		<tag k="place" v="locality" />
		<tag k="ssr:stedsnr" v="577437" />
	</node>
	<node id="-387575" lat="60.5517388887" lon="10.4711611186">
		<tag k="name" v="Tuterberga" />
		<tag k="natural" v="hill" />
		<tag k="place" v="locality" />
		<tag k="ssr:stedsnr" v="577476" />
	</node>
	<node id="-387573" lat="60.459661114" lon="10.451555558">
		<tag k="name" v="Geitberget" />
		<tag k="natural" v="hill" />
		<tag k="place" v="locality" />
		<tag k="ssr:stedsnr" v="577187" />
	</node>
	<node id="-385523" lat="60.4469861138" lon="10.4681194498">
		<tag k="name" v="Gauken" />
		<tag k="natural" v="hill" />
		<tag k="place" v="locality" />
		<tag k="ssr:stedsnr" v="213004" />
	</node>
	<node id="-387562" lat="60.3912555587" lon="10.6331888823">
		<tag k="name" v="Burvollen" />
		<tag k="natural" v="hill" />
		<tag k="place" v="locality" />
		<tag k="ssr:stedsnr" v="575789" />
	</node>
	<node id="-385512" lat="60.4233222184" lon="10.8162888977">
		<tag k="name" v="Langmyrdalen" />
		<tag k="natural" v="valley" />
		<tag k="place" v="locality" />
		<tag k="ssr:stedsnr" v="294997" />
	</node>
	<node id="-385508" lat="60.3655694429" lon="10.7482416713">
		<tag k="name" v="Djupdalen" />
		<tag k="natural" v="valley" />
		<tag k="place" v="locality" />
		<tag k="ssr:stedsnr" v="294671" />
	</node>
	<node id="-385505" lat="60.3239111086" lon="10.7625583398">
		<tag k="name" v="Gåsdalen" />
		<tag k="natural" v="valley" />
		<tag k="place" v="locality" />
		<tag k="ssr:stedsnr" v="294624" />
	</node>
	<node id="-387550" lat="60.5576583309" lon="10.5148111115">
		<tag k="fixme" v="consider natural=peak for the most distinct mountains in the district" />
		<tag k="name" v="Kvitingen" />
		<tag k="natural" v="hill" />
		<tag k="place" v="locality" />
		<tag k="ssr:stedsnr" v="553101" />
	</node>
	<node id="-385494" lat="60.3544249981" lon="10.6730722179">
		<tag k="name" v="Blyberget" />
		<tag k="natural" v="hill" />
		<tag k="place" v="locality" />
		<tag k="ssr:stedsnr" v="294298" />
	</node>
	<node id="-385492" lat="60.3724944466" lon="10.5866777711">
		<tag k="name" v="Gjøsenhaug" />
		<tag k="natural" v="hill" />
		<tag k="place" v="locality" />
		<tag k="ssr:stedsnr" v="294279" />
	</node>
	<node id="-385489" lat="60.4696472263" lon="10.3731527782">
		<tag k="name" v="Sæterhaugen" />
		<tag k="natural" v="hill" />
		<tag k="place" v="locality" />
		<tag k="ssr:stedsnr" v="293774" />
	</node>
	<node id="-385488" lat="60.4692000028" lon="10.2073249934">
		<tag k="name" v="Åtedalen" />
		<tag k="natural" v="valley" />
		<tag k="place" v="locality" />
		<tag k="ssr:stedsnr" v="293766" />
	</node>
	<node id="-385475" lat="60.4269277795" lon="10.6772833405">
		<tag k="name" v="Veslelushaugen" />
		<tag k="natural" v="hill" />
		<tag k="place" v="locality" />
		<tag k="ssr:stedsnr" v="173502" />
	</node>
	<node id="-387520" lat="60.4860666685" lon="10.6851499984">
		<tag k="alt_name" v="Jøråshøgda" />
		<tag k="fixme" v="consider natural=peak for the most distinct mountains in the district" />
		<tag k="name" v="Jørushøgda" />
		<tag k="natural" v="hill" />
		<tag k="place" v="locality" />
		<tag k="ssr:stedsnr" v="552227" />
	</node>
	<node id="-387515" lat="60.4074277739" lon="10.7107111181">
		<tag k="fixme" v="consider natural=peak for the most distinct mountains in the district" />
		<tag k="name" v="Ognilsberga" />
		<tag k="natural" v="hill" />
		<tag k="place" v="locality" />
		<tag k="ssr:stedsnr" v="552196" />
	</node>
	<node id="-385463" lat="60.5146472213" lon="10.4672444397">
		<tag k="fixme" v="consider natural=peak for the most distinct mountains in the district" />
		<tag k="name" v="Ellenbrenna" />
		<tag k="natural" v="hill" />
		<tag k="place" v="locality" />
		<tag k="ssr:stedsnr" v="152634" />
	</node>
	<node id="-387507" lat="60.5114555532" lon="10.614222225">
		<tag k="name" v="Korssæterhaugen" />
		<tag k="natural" v="hill" />
		<tag k="place" v="locality" />
		<tag k="ssr:stedsnr" v="552084" />
	</node>
	<node id="-385458" lat="60.5515194479" lon="10.5270972135">
		<tag k="name" v="Valbergsfalla" />
		<tag k="natural" v="hill" />
		<tag k="place" v="locality" />
		<tag k="ssr:stedsnr" v="275686" />
	</node>
	<node id="-385457" lat="60.4478333364" lon="10.6849750064">
		<tag k="name" v="Nysæterlia" />
		<tag k="natural" v="slope" />
		<tag k="place" v="locality" />
		<tag k="ssr:stedsnr" v="275534" />
	</node>
	<node id="-387504" lat="60.3561138888" lon="10.6417277795">
		<tag k="fixme" v="consider natural=peak for the most distinct mountains in the district" />
		<tag k="name" v="Svartbråtåberget" />
		<tag k="natural" v="hill" />
		<tag k="place" v="locality" />
		<tag k="ssr:stedsnr" v="552073" />
	</node>
	<node id="-385449" lat="60.5248277801" lon="10.3280722155">
		<tag k="name" v="Hornskleiva" />
		<tag k="natural" v="slope" />
		<tag k="place" v="locality" />
		<tag k="ssr:stedsnr" v="274674" />
	</node>
	<node id="-387487" lat="60.4327527763" lon="10.7280999987">
		<tag k="name" v="Steinholen" />
		<tag k="natural" v="hill" />
		<tag k="place" v="locality" />
		<tag k="ssr:stedsnr" v="537868" />
	</node>
	<node id="-385438" lat="60.4023972195" lon="10.6355527785">
		<tag k="name" v="Olabråtålia" />
		<tag k="natural" v="slope" />
		<tag k="place" v="locality" />
		<tag k="ssr:stedsnr" v="272551" />
	</node>
	<node id="-387485" lat="60.3456388914" lon="10.8304999957">
		<tag k="name" v="Vesle Sandbotnhaugen" />
		<tag k="natural" v="hill" />
		<tag k="place" v="locality" />
		<tag k="ssr:stedsnr" v="537728" />
	</node>
	<node id="-387481" lat="60.3544222262" lon="10.69343334">
		<tag k="name" v="Geitberget" />
		<tag k="natural" v="hill" />
		<tag k="place" v="locality" />
		<tag k="ssr:stedsnr" v="537282" />
	</node>
	<node id="-387475" lat="60.4441277803" lon="10.1835805587">
		<tag k="fixme" v="consider natural=peak for the most distinct mountains in the district" />
		<tag k="name" v="Persrudhaugene" />
		<tag k="natural" v="hill" />
		<tag k="place" v="locality" />
		<tag k="ssr:stedsnr" v="536271" />
	</node>
	<node id="-387458" lat="60.5238416623" lon="10.3222750078">
		<tag k="name" v="Hornsberget" />
		<tag k="natural" v="hill" />
		<tag k="place" v="locality" />
		<tag k="ssr:stedsnr" v="432511" />
	</node>
	<node id="-387456" lat="60.5366888877" lon="10.3926527832">
		<tag k="alt_name" v="Kampen" />
		<tag k="fixme" v="consider natural=peak for the most distinct mountains in the district" />
		<tag k="name" v="Gjerdvikskampen" />
		<tag k="natural" v="hill" />
		<tag k="place" v="locality" />
		<tag k="ssr:stedsnr" v="432100" />
	</node>
	<node id="-385404" lat="60.3612666707" lon="10.6812861167">
		<tag k="name" v="Kastelia" />
		<tag k="natural" v="slope" />
		<tag k="place" v="locality" />
		<tag k="ssr:stedsnr" v="112338" />
	</node>
	<node id="-385403" lat="60.3804277784" lon="10.5931166673">
		<tag k="name" v="Skjønsberget" />
		<tag k="natural" v="hill" />
		<tag k="place" v="locality" />
		<tag k="ssr:stedsnr" v="112336" />
	</node>
	<node id="-387437" lat="60.4335666642" lon="10.7205777767">
		<tag k="fixme" v="consider natural=peak for the most distinct mountains in the district" />
		<tag k="name" v="Skreihaugen" />
		<tag k="natural" v="hill" />
		<tag k="place" v="locality" />
		<tag k="ssr:stedsnr" v="431682" />
	</node>
	<node id="-387436" lat="60.4249277794" lon="10.7647527833">
		<tag k="name" v="Tommelsjøholen" />
		<tag k="natural" v="hill" />
		<tag k="place" v="locality" />
		<tag k="ssr:stedsnr" v="431650" />
	</node>
	<node id="-387433" lat="60.3920083291" lon="10.8736722276">
		<tag k="name" v="Nordsæterhaugen" />
		<tag k="natural" v="hill" />
		<tag k="place" v="locality" />
		<tag k="ssr:stedsnr" v="431598" />
	</node>
	<node id="-387430" lat="60.346405552" lon="10.8373305483">
		<tag k="alt_name" v="Sandbotnhaug, vestre" />
		<tag k="name" v="Vestre Sandbotnhaugen" />
		<tag k="natural" v="hill" />
		<tag k="place" v="locality" />
		<tag k="ssr:stedsnr" v="431553" />
	</node>
	<node id="-387427" lat="60.4344777746" lon="10.2072249911">
		<tag k="fixme" v="consider natural=peak for the most distinct mountains in the district" />
		<tag k="name" v="Sæterkollen" />
		<tag k="natural" v="hill" />
		<tag k="place" v="locality" />
		<tag k="ssr:stedsnr" v="431386" />
	</node>
	<node id="-385378" lat="60.4232222189" lon="10.7913638919">
		<tag k="fixme" v="consider natural=peak for the most distinct mountains in the district" />
		<tag k="name" v="Fuglåsen" />
		<tag k="natural" v="hill" />
		<tag k="place" v="locality" />
		<tag k="ssr:stedsnr" v="249626" />
	</node>
	<node id="-387423" lat="60.4041416669" lon="10.6271499999">
		<tag k="alt_name" v="Hemsæterhaugen" />
		<tag k="fixme" v="consider natural=peak for the most distinct mountains in the district" />
		<tag k="name" v="Hemsæterhøgda" />
		<tag k="natural" v="hill" />
		<tag k="place" v="locality" />
		<tag k="ssr:stedsnr" v="431187" />
	</node>
	<node id="-385369" lat="60.5244000039" lon="10.2929944382">
		<tag k="name" v="Bjoneberget" />
		<tag k="natural" v="hill" />
		<tag k="place" v="locality" />
		<tag k="ssr:stedsnr" v="249481" />
	</node>
	<node id="-387394" lat="60.4569916643" lon="10.3352416756">
		<tag k="fixme" v="consider natural=peak for the most distinct mountains in the district" />
		<tag k="name" v="Fallakampen" />
		<tag k="natural" v="hill" />
		<tag k="place" v="locality" />
		<tag k="ssr:stedsnr" v="430542" />
	</node>
	<node id="-385345" lat="60.3916611094" lon="10.6700055635">
		<tag k="fixme" v="consider natural=peak for the most distinct mountains in the district" />
		<tag k="name" v="Framstadsæterfjellet" />
		<tag k="natural" v="hill" />
		<tag k="place" v="locality" />
		<tag k="ssr:stedsnr" v="249074" />
	</node>
	<node id="-385344" lat="60.3879388931" lon="10.7086555582">
		<tag k="fixme" v="consider natural=peak for the most distinct mountains in the district" />
		<tag k="name" v="Vassbråskurven" />
		<tag k="natural" v="hill" />
		<tag k="place" v="locality" />
		<tag k="ssr:stedsnr" v="249071" />
	</node>
	<node id="-385340" lat="60.3566805601" lon="10.6592694396">
		<tag k="fixme" v="consider natural=peak for the most distinct mountains in the district" />
		<tag k="name" v="Kaperalen" />
		<tag k="natural" v="hill" />
		<tag k="place" v="locality" />
		<tag k="ssr:stedsnr" v="249052" />
	</node>
	<node id="-387387" lat="60.4308750034" lon="10.2906055489">
		<tag k="name" v="Østre Hovseterås" />
		<tag k="natural" v="hill" />
		<tag k="place" v="locality" />
		<tag k="ssr:stedsnr" v="415929" />
	</node>
	<node id="-387385" lat="60.4643555541" lon="10.2100750085">
		<tag k="name" v="Skansen" />
		<tag k="natural" v="hill" />
		<tag k="place" v="locality" />
		<tag k="ssr:stedsnr" v="415805" />
	</node>
	<node id="-385335" lat="60.3384555535" lon="10.5021166618">
		<tag k="fixme" v="consider natural=peak for the most distinct mountains in the district" />
		<tag k="name" v="Buhammaren" />
		<tag k="natural" v="hill" />
		<tag k="place" v="locality" />
		<tag k="ssr:stedsnr" v="248977" />
	</node>
	<node id="-385334" lat="60.4928916648" lon="10.301569447">
		<tag k="fixme" v="consider natural=peak for the most distinct mountains in the district" />
		<tag k="name" v="Kvitberget" />
		<tag k="natural" v="hill" />
		<tag k="place" v="locality" />
		<tag k="ssr:stedsnr" v="248737" />
	</node>
	<node id="-387381" lat="60.3659722241" lon="10.7600749992">
		<tag k="name" v="Søre Glåmen" />
		<tag k="natural" v="hill" />
		<tag k="place" v="locality" />
		<tag k="ssr:stedsnr" v="415697" />
	</node>
	<node id="-387377" lat="60.3177638859" lon="10.8303361138">
		<tag k="name" v="Langvasshaugen" />
		<tag k="natural" v="hill" />
		<tag k="place" v="locality" />
		<tag k="ssr:stedsnr" v="415592" />
	</node>
	<node id="-387375" lat="60.4399444404" lon="10.3777055519">
		<tag k="name" v="Mastedalen" />
		<tag k="natural" v="valley" />
		<tag k="place" v="locality" />
		<tag k="ssr:stedsnr" v="415550" />
	</node>
	<node id="-387372" lat="60.3873944479" lon="10.3413027797">
		<tag k="name" v="Veltadalen" />
		<tag k="natural" v="valley" />
		<tag k="place" v="locality" />
		<tag k="ssr:stedsnr" v="415503" />
	</node>
	<node id="-387367" lat="60.3522055535" lon="10.6969666737">
		<tag k="name" v="Sæterhaugen" />
		<tag k="natural" v="hill" />
		<tag k="place" v="locality" />
		<tag k="ssr:stedsnr" v="415350" />
	</node>
	<node id="-387352" lat="60.4822805536" lon="10.189477771">
		<tag k="name" v="Grastjernlia" />
		<tag k="natural" v="slope" />
		<tag k="place" v="locality" />
		<tag k="ssr:stedsnr" v="415181" />
	</node>
	<node id="-385301" lat="60.4828527738" lon="10.22906111">
		<tag k="name" v="Frysihjeldalen" />
		<tag k="natural" v="valley" />
		<tag k="place" v="locality" />
		<tag k="ssr:stedsnr" v="51711" />
	</node>
	<node id="-387342" lat="60.4069083313" lon="10.8640888916">
		<tag k="name" v="Hekkentjernslia" />
		<tag k="natural" v="slope" />
		<tag k="place" v="locality" />
		<tag k="ssr:stedsnr" v="414084" />
	</node>
	<node id="-387340" lat="60.3382027788" lon="10.9085305571">
		<tag k="name" v="Isdalen" />
		<tag k="natural" v="valley" />
		<tag k="place" v="locality" />
		<tag k="ssr:stedsnr" v="414080" />
	</node>
	<node id="-385286" lat="60.4822111117" lon="10.2225972231">
		<tag k="name" v="Geitryggen" />
		<tag k="natural" v="hill" />
		<tag k="place" v="locality" />
		<tag k="ssr:stedsnr" v="233702" />
	</node>
	<node id="-387331" lat="60.4546555582" lon="10.6325972292">
		<tag k="name" v="Kvileberget" />
		<tag k="natural" v="hill" />
		<tag k="place" v="locality" />
		<tag k="ssr:stedsnr" v="396662" />
	</node>
	<node id="-387329" lat="60.5267027765" lon="10.5758361138">
		<tag k="fixme" v="consider natural=peak for the most distinct mountains in the district" />
		<tag k="name" v="Fuglåsen" />
		<tag k="natural" v="hill" />
		<tag k="place" v="locality" />
		<tag k="ssr:stedsnr" v="396441" />
	</node>
	<node id="-387328" lat="60.4854111101" lon="10.6565583359">
		<tag k="name" v="Geitryggen" />
		<tag k="natural" v="ridge" />
		<tag k="place" v="locality" />
		<tag k="ssr:stedsnr" v="396430" />
	</node>
	<node id="-387321" lat="60.5036166701" lon="10.5522083361">
		<tag k="name" v="Rundhaugen" />
		<tag k="natural" v="hill" />
		<tag k="place" v="locality" />
		<tag k="ssr:stedsnr" v="396128" />
	</node>
	<node id="-387317" lat="60.4632777792" lon="10.6767777727">
		<tag k="name" v="Pikmyrlia" />
		<tag k="natural" v="slope" />
		<tag k="place" v="locality" />
		<tag k="ssr:stedsnr" v="396551" />
	</node>
	<node id="-387316" lat="60.4535166709" lon="10.6985055566">
		<tag k="name" v="Kåvemyrdalen" />
		<tag k="natural" v="valley" />
		<tag k="place" v="locality" />
		<tag k="ssr:stedsnr" v="396548" />
	</node>
	<node id="-385265" lat="60.4681083374" lon="10.335813896">
		<tag k="name" v="Vardehøgda" />
		<tag k="natural" v="hill" />
		<tag k="place" v="locality" />
		<tag k="ssr:stedsnr" v="233177" />
	</node>
	<node id="-385262" lat="60.4971416709" lon="10.1960194434">
		<tag k="name" v="Furuberga" />
		<tag k="natural" v="slope" />
		<tag k="place" v="locality" />
		<tag k="ssr:stedsnr" v="232575" />
	</node>
	<node id="-385261" lat="60.4318166634" lon="10.3724527713">
		<tag k="name" v="Kophauger" />
		<tag k="natural" v="hill" />
		<tag k="place" v="locality" />
		<tag k="ssr:stedsnr" v="232478" />
	</node>
	<node id="-387308" lat="60.5247833338" lon="10.4250250085">
		<tag k="name" v="Haukberget" />
		<tag k="natural" v="ridge" />
		<tag k="place" v="locality" />
		<tag k="ssr:stedsnr" v="395659" />
	</node>
	<node id="-385259" lat="60.513330554" lon="10.2905277792">
		<tag k="name" v="Gjerdingshaugen" />
		<tag k="natural" v="hill" />
		<tag k="place" v="locality" />
		<tag k="ssr:stedsnr" v="232431" />
	</node>
	<node id="-385250" lat="60.5261972258" lon="10.4669527838">
		<tag k="name" v="Lushattbakken" />
		<tag k="natural" v="slope" />
		<tag k="place" v="locality" />
		<tag k="ssr:stedsnr" v="24621" />
	</node>
	<node id="-387286" lat="60.4127416641" lon="10.6320055599">
		<tag k="name" v="Hallomshøgda" />
		<tag k="natural" v="hill" />
		<tag k="place" v="locality" />
		<tag k="ssr:stedsnr" v="393581" />
	</node>
	<node id="-387276" lat="60.5294333361" lon="10.4690027838">
		<tag k="name" v="Moterudslia" />
		<tag k="natural" v="slope" />
		<tag k="place" v="locality" />
		<tag k="ssr:stedsnr" v="388609" />
	</node>
	<node id="-387274" lat="60.5339249977" lon="10.4860916616">
		<tag k="fixme" v="consider natural=peak for the most distinct mountains in the district" />
		<tag k="name" v="Toppåsen" />
		<tag k="natural" v="hill" />
		<tag k="place" v="locality" />
		<tag k="ssr:stedsnr" v="371095" />
	</node>
	<node id="-387273" lat="60.5407888864" lon="10.500105564">
		<tag k="name" v="Svartdalen" />
		<tag k="natural" v="valley" />
		<tag k="place" v="locality" />
		<tag k="ssr:stedsnr" v="371093" />
	</node>
	<node id="-387270" lat="60.3398277733" lon="10.6697916655">
		<tag k="fixme" v="consider natural=peak for the most distinct mountains in the district" />
		<tag k="name" v="Skalbrennhøgda" />
		<tag k="natural" v="hill" />
		<tag k="place" v="locality" />
		<tag k="ssr:stedsnr" v="370988" />
	</node>
	<node id="-387253" lat="60.406919447" lon="10.2432194514">
		<tag k="fixme" v="consider natural=peak for the most distinct mountains in the district" />
		<tag k="name" v="Bjørnsjøhøgda" />
		<tag k="natural" v="hill" />
		<tag k="place" v="locality" />
		<tag k="ssr:stedsnr" v="370325" />
	</node>
	<node id="-387248" lat="60.4686472254" lon="10.6197972166">
		<tag k="alt_name" v="Hengedyhaugane" />
		<tag k="fixme" v="consider natural=peak for the most distinct mountains in the district" />
		<tag k="name" v="Hengedyhaugen" />
		<tag k="natural" v="hill" />
		<tag k="place" v="locality" />
		<tag k="ssr:stedsnr" v="370251" />
	</node>
	<node id="-387234" lat="60.4316083329" lon="10.3683361041">
		<tag k="fixme" v="consider natural=peak for the most distinct mountains in the district" />
		<tag k="name" v="Kophaug" />
		<tag k="natural" v="hill" />
		<tag k="place" v="locality" />
		<tag k="ssr:stedsnr" v="370177" />
	</node>
	<node id="-387204" lat="60.3708749979" lon="10.3463166696">
		<tag k="name" v="Perkastet" />
		<tag k="natural" v="slope" />
		<tag k="place" v="locality" />
		<tag k="ssr:stedsnr" v="355423" />
	</node>
	<node id="-387201" lat="60.3736583346" lon="10.8339277702">
		<tag k="name" v="Langshaugen" />
		<tag k="natural" v="hill" />
		<tag k="place" v="locality" />
		<tag k="ssr:stedsnr" v="354869" />
	</node>
	<node id="-387200" lat="60.4682694423" lon="10.2006499939">
		<tag k="name" v="Fjellenden" />
		<tag k="natural" v="hill" />
		<tag k="place" v="locality" />
		<tag k="ssr:stedsnr" v="354791" />
	</node>
	<node id="-387198" lat="60.3537666698" lon="10.7536666597">
		<tag k="name" v="Mastefallet" />
		<tag k="natural" v="hill" />
		<tag k="place" v="locality" />
		<tag k="ssr:stedsnr" v="354656" />
	</node>
	<node id="-387197" lat="60.4958527751" lon="10.1700055631">
		<tag k="name" v="Blekketjernshaugen" />
		<tag k="natural" v="hill" />
		<tag k="place" v="locality" />
		<tag k="ssr:stedsnr" v="354652" />
	</node>
	<node id="-387196" lat="60.4462111141" lon="10.3031722234">
		<tag k="name" v="Stokksjøhøgda" />
		<tag k="natural" v="hill" />
		<tag k="place" v="locality" />
		<tag k="ssr:stedsnr" v="354593" />
	</node>
	<node id="-387190" lat="60.4109083362" lon="10.3503361082">
		<tag k="name" v="Korpeberget" />
		<tag k="natural" v="hill" />
		<tag k="place" v="locality" />
		<tag k="ssr:stedsnr" v="354436" />
	</node>
	<node id="-387189" lat="60.461341666" lon="10.3575027868">
		<tag k="name" v="Totjernhaugen" />
		<tag k="natural" v="hill" />
		<tag k="place" v="locality" />
		<tag k="ssr:stedsnr" v="354365" />
	</node>
	<node id="-387186" lat="60.3686944412" lon="10.6678666718">
		<tag k="name" v="Korpeputthaugen" />
		<tag k="natural" v="hill" />
		<tag k="place" v="locality" />
		<tag k="ssr:stedsnr" v="354330" />
	</node>
	<node id="-387182" lat="60.4378694486" lon="10.1961805534">
		<tag k="name" v="Sæterkollen" />
		<tag k="natural" v="hill" />
		<tag k="place" v="locality" />
		<tag k="ssr:stedsnr" v="354300" />
	</node>
	<node id="-387176" lat="60.4871444428" lon="10.3228527759">
		<tag k="name" v="Klyfta" />
		<tag k="place" v="locality" />
		<tag k="ssr:stedsnr" v="354231" />
	</node>
	<node id="-387165" lat="60.4907500002" lon="10.2260472245">
		<tag k="name" v="Stormyrlia" />
		<tag k="natural" v="slope" />
		<tag k="place" v="locality" />
		<tag k="ssr:stedsnr" v="353645" />
	</node>
	<node id="-387158" lat="60.5464111154" lon="10.493144452">
		<tag k="name" v="Toppåslia" />
		<tag k="natural" v="slope" />
		<tag k="place" v="locality" />
		<tag k="ssr:stedsnr" v="336684" />
	</node>
	<node id="-387157" lat="60.4484305549" lon="10.6030027815">
		<tag k="name" v="Svartbråtådalen" />
		<tag k="natural" v="valley" />
		<tag k="place" v="locality" />
		<tag k="ssr:stedsnr" v="336675" />
	</node>
	<node id="-387133" lat="60.4344277743" lon="10.472502781">
		<tag k="alt_name" v="Mysmørhaugen" />
		<tag k="name" v="Myssmørhaugen" />
		<tag k="natural" v="hill" />
		<tag k="place" v="locality" />
		<tag k="ssr:stedsnr" v="334087" />
	</node>
	<node id="-387129" lat="60.4001749964" lon="10.6438500026">
		<tag k="name" v="Fagerbakka" />
		<tag k="natural" v="slope" />
		<tag k="place" v="locality" />
		<tag k="ssr:stedsnr" v="332588" />
	</node>
	<node id="-387120" lat="60.4147398486" lon="10.8528584172">
		<tag k="alt_name" v="Lomtjernhøgda" />
		<tag k="name" v="Lomtjernhaugen" />
		<tag k="natural" v="hill" />
		<tag k="place" v="locality" />
		<tag k="ssr:stedsnr" v="310625" />
	</node>
	<node id="-387113" lat="60.5363361123" lon="10.5478277757">
		<tag k="name" v="Gampedalen" />
		<tag k="natural" v="valley" />
		<tag k="place" v="locality" />
		<tag k="ssr:stedsnr" v="310100" />
	</node>
	<node id="-387110" lat="60.5187999958" lon="10.4616583368">
		<tag k="alt_name" v="Sytjernsdalen" />
		<tag k="name" v="Sytjerndalen" />
		<tag k="natural" v="valley" />
		<tag k="place" v="locality" />
		<tag k="ssr:stedsnr" v="310077" />
	</node>
	<node id="-387081" lat="60.3139138853" lon="10.7834444498">
		<tag k="alt_name" v="Hemtjernshaugen" />
		<tag k="name" v="Himtjernshaugen" />
		<tag k="natural" v="hill" />
		<tag k="place" v="locality" />
		<tag k="ssr:stedsnr" v="309297" />
	</node>
	<node id="-387078" lat="60.4481499993" lon="10.4919277789">
		<tag k="alt_name" v="Brandberget" />
		<tag k="fixme" v="consider natural=peak for the most distinct mountains in the district" />
		<tag k="name" v="Brandbukampen" />
		<tag k="natural" v="hill" />
		<tag k="place" v="locality" />
		<tag k="ssr:stedsnr" v="309278" />
>>>>>>> e1d4bc35ff8a6074a6f2e91616a996b547c36f15
	</node>
</osm>
