<?xml version="1.0" encoding="UTF-8"?>
<osm version="0.6" generator="osmapis">
	<node lat="60.35193889156351" lon="10.592250002978771" id="-22782">
		<tag k="alt_name" v="Morstad" />
		<tag k="name" v="Østre Morstad" />
		<tag k="place" v="farm" />
		<tag k="ssr:stedsnr" v="6007" />
	</node>
	<node lat="60.42883333245655" lon="10.643874993952497" id="-22783">
		<tag k="historic" v="shieling" />
		<tag k="name" v="Lauvlisætra" />
		<tag k="place" v="isolated_dwelling" />
		<tag k="ssr:stedsnr" v="6157" />
	</node>
	<node lat="60.426913611081524" lon="10.568581021341856" id="-22784">
		<tag k="fixme" v="consider place=hamlet" />
		<tag k="name" v="Tåjet" />
		<tag k="place" v="farm" />
		<tag k="ssr:stedsnr" v="6162" />
	</node>
	<node lat="60.414194444344126" lon="10.54258334125184" id="-22786">
		<tag k="alt_name" v="Trulsrud" />
		<tag k="name" v="Trulserud" />
		<tag k="place" v="farm" />
		<tag k="ssr:stedsnr" v="6182" />
	</node>
	<node lat="60.49448889137301" lon="10.457341673407006" id="-22787">
		<tag k="name" v="Larsbråtån" />
		<tag k="place" v="isolated_dwelling" />
		<tag k="ssr:stedsnr" v="6301" />
	</node>
	<node lat="60.35716666793418" lon="10.616650001949871" id="-22792">
		<tag k="name" v="Goddokka" />
		<tag k="place" v="farm" />
		<tag k="ssr:stedsnr" v="6064" />
	</node>
	<node lat="60.45028333203112" lon="10.563988889630716" id="-22793">
		<tag k="alt_name" v="Iversrud" />
		<tag k="name" v="Søre Iversrud" />
		<tag k="place" v="farm" />
		<tag k="ssr:stedsnr" v="6255" />
	</node>
	<node lat="60.326183330369226" lon="10.616552770240526" id="-22799">
		<tag k="name" v="Berg" />
		<tag k="place" v="farm" />
		<tag k="ssr:stedsnr" v="6966" />
	</node>
	<node lat="60.343771960452834" lon="10.545639744968701" id="-22800">
		<tag k="fixme" v="consider place=hamlet" />
		<tag k="name" v="Raknerud" />
		<tag k="place" v="farm" />
		<tag k="ssr:stedsnr" v="6985" />
	</node>
	<node lat="60.33566666944611" lon="10.533355561828413" id="-22801">
		<tag k="alt_name" v="Narum" />
		<tag k="name" v="Norum" />
		<tag k="place" v="isolated_dwelling" />
		<tag k="ssr:stedsnr" v="6986" />
	</node>
	<node lat="60.55257499972215" lon="10.47629443708236" id="-22802">
		<tag k="historic" v="shieling" />
		<tag k="name" v="Grimsrudsætra" />
		<tag k="place" v="isolated_dwelling" />
		<tag k="ssr:stedsnr" v="7124" />
	</node>
	<node lat="60.53456666888308" lon="10.193300001133295" id="-22803">
		<tag k="name" v="Jonsrud" />
		<tag k="place" v="farm" />
		<tag k="ssr:stedsnr" v="7521" />
	</node>
	<node lat="60.33717499736894" lon="10.591983338878489" id="-22805">
		<tag k="name" v="Øvre Hval" />
		<tag k="place" v="farm" />
		<tag k="ssr:stedsnr" v="232212" />
	</node>
	<node lat="60.35654999608775" lon="10.599461112777885" id="-22809">
		<tag k="name" v="Gisleberg" />
		<tag k="place" v="farm" />
		<tag k="ssr:stedsnr" v="233126" />
	</node>
	<node lat="60.50474999903973" lon="10.31273610235249" id="-22812">
		<tag k="name" v="Jakobsbråtån" />
		<tag k="place" v="locality" />
		<tag k="ssr:stedsnr" v="233430" />
	</node>
	<node lat="60.4754527807053" lon="10.365219435721263" id="-22813">
		<tag k="name" v="Hansebråtan" />
		<tag k="place" v="locality" />
		<tag k="ssr:stedsnr" v="233361" />
	</node>
	<node lat="60.37793055969425" lon="10.870850003009863" id="-22819">
		<tag k="name" v="Tømmerbakken" />
		<tag k="place" v="isolated_dwelling" />
		<tag k="ssr:stedsnr" v="233496" />
	</node>
	<node lat="60.46706666565112" lon="10.37781666954449" id="-22824">
		<tag k="name" v="Kampebråtån" />
		<tag k="place" v="locality" />
		<tag k="ssr:stedsnr" v="233809" />
	</node>
	<node lat="60.32162222284113" lon="10.450616658092107" id="-22830">
		<tag k="name" v="Nordre Mjør" />
		<tag k="place" v="farm" />
		<tag k="ssr:stedsnr" v="29119" />
	</node>
	<node lat="60.40641282330003" lon="10.536174315684658" id="-22831">
		<tag k="fixme" v="consider place=hamlet" />
		<tag k="name" v="Sandbakken" />
		<tag k="place" v="farm" />
		<tag k="ssr:stedsnr" v="29015" />
	</node>
	<node lat="60.32268333078369" lon="10.43499166575191" id="-22832">
		<tag k="name" v="Nedre Blekkerud" />
		<tag k="place" v="farm" />
		<tag k="ssr:stedsnr" v="29069" />
	</node>
	<node lat="60.416930552376336" lon="10.534927769700403" id="-22833">
		<tag k="name" v="Rosendalsbakken" />
		<tag k="place" v="farm" />
		<tag k="ssr:stedsnr" v="29204" />
	</node>
	<node lat="60.398686108403865" lon="10.578277770002313" id="-22834">
		<tag k="name" v="Iversrud" />
		<tag k="place" v="farm" />
		<tag k="ssr:stedsnr" v="29207" />
	</node>
	<node lat="60.44937222418815" lon="10.449005559811473" id="-22837">
		<tag k="name" v="Sørleire" />
		<tag k="place" v="locality" />
		<tag k="ssr:stedsnr" v="31007" />
	</node>
	<node lat="60.46569167036652" lon="10.498383327776317" id="-22838">
		<tag k="name" v="Midtbleiken" />
		<tag k="old_name" v="Mellom-Bleiken;Bleiken mellem" />
		<tag k="place" v="farm" />
		<tag k="ssr:stedsnr" v="31675" />
	</node>
	<node lat="60.447536106871326" lon="10.579044442118674" id="-22839">
		<tag k="name" v="Hanserud" />
		<tag k="place" v="locality" />
		<tag k="ssr:stedsnr" v="31816" />
	</node>
	<node lat="60.465536110105106" lon="10.62389721324504" id="-22843">
		<tag k="name" v="Haugsvollen" />
		<tag k="place" v="locality" />
		<tag k="ssr:stedsnr" v="32504" />
	</node>
	<node lat="60.367572217845535" lon="10.583561118846918" id="-22849">
		<tag k="alt_name" v="Nedre Skjærvum" />
		<tag k="fixme" v="consider place=hamlet" />
		<tag k="name" v="Nedre Skjervum" />
		<tag k="place" v="farm" />
		<tag k="ssr:stedsnr" v="51111" />
	</node>
	<node lat="60.33148611369868" lon="10.829402781208717" id="-22858">
		<tag k="name" v="Hattemyrhytta" />
		<tag k="place" v="isolated_dwelling" />
		<tag k="ssr:stedsnr" v="52726" />
	</node>
	<node lat="60.421966670602025" lon="10.571386109540045" id="-22860">
		<tag k="name" v="Lauvlibråtån" />
		<tag k="place" v="farm" />
		<tag k="ssr:stedsnr" v="272546" />
	</node>
	<node lat="60.36088611276455" lon="10.492163892179773" id="-22861">
		<tag k="name" v="Mellerud" />
		<tag k="place" v="farm" />
		<tag k="ssr:stedsnr" v="272548" />
	</node>
	<node lat="60.46809722202778" lon="10.498127781492736" id="-22862">
		<tag k="name" v="Nordbleiken" />
		<tag k="place" v="farm" />
		<tag k="ssr:stedsnr" v="240575" />
	</node>
	<node lat="60.49134444790506" lon="10.510794451121814" id="-22865">
		<tag k="name" v="Vedbakken" />
		<tag k="place" v="farm" />
		<tag k="ssr:stedsnr" v="67310" />
	</node>
	<node lat="60.52261730739125" lon="10.278288296423154" id="-22867">
		<tag k="fixme" v="consider place=hamlet" />
		<tag k="name" v="Haug" />
		<tag k="place" v="farm" />
		<tag k="ssr:stedsnr" v="67513" />
	</node>
	<node lat="60.48498889208532" lon="10.252883336215241" id="-22869">
		<tag k="name" v="Berger" />
		<tag k="place" v="farm" />
		<tag k="ssr:stedsnr" v="67718" />
	</node>
	<node lat="60.495061111583006" lon="10.25203610343028" id="-22870">
		<tag k="name" v="Solstad" />
		<tag k="place" v="farm" />
		<tag k="ssr:stedsnr" v="67726" />
	</node>
	<node lat="60.336752776701815" lon="10.624611114875764" id="-22871">
		<tag k="name" v="Rugrota" />
		<tag k="place" v="farm" />
		<tag k="ssr:stedsnr" v="67990" />
	</node>
	<node lat="60.431538891432275" lon="10.454622214759981" id="-22873">
		<tag k="name" v="Nedre Nes" />
		<tag k="place" v="farm" />
		<tag k="ssr:stedsnr" v="242366" />
	</node>
	<node lat="60.3175388932697" lon="10.42224166543786" id="-22876">
		<tag k="name" v="Nedre Heier" />
		<tag k="place" v="farm" />
		<tag k="ssr:stedsnr" v="90618" />
	</node>
	<node lat="60.412138888050755" lon="10.64436667307759" id="-22877">
		<tag k="historic" v="shieling" />
		<tag k="name" v="Nedre Sverasæter" />
		<tag k="place" v="isolated_dwelling" />
		<tag k="ssr:stedsnr" v="90576" />
	</node>
	<node lat="60.42885278001247" lon="10.64421667579312" id="-22880">
		<tag k="historic" v="shieling" />
		<tag k="name" v="Lauvlisætra" />
		<tag k="place" v="isolated_dwelling" />
		<tag k="ssr:stedsnr" v="90969" />
	</node>
	<node lat="60.334038888514755" lon="10.411680558755052" id="-22882">
		<tag k="name" v="Rabben" />
		<tag k="place" v="farm" />
		<tag k="ssr:stedsnr" v="91176" />
	</node>
	<node lat="60.43121389099908" lon="10.461833332670066" id="-22885">
		<tag k="name" v="Nesstrand" />
		<tag k="place" v="farm" />
		<tag k="ssr:stedsnr" v="91082" />
	</node>
	<node lat="60.40287222124411" lon="10.432941667616499" id="-22886">
		<tag k="name" v="Stykket" />
		<tag k="place" v="farm" />
		<tag k="ssr:stedsnr" v="91226" />
	</node>
	<node lat="60.49188055928243" lon="10.478083326074692" id="-22888">
		<tag k="name" v="Monserud" />
		<tag k="place" v="farm" />
		<tag k="ssr:stedsnr" v="92322" />
	</node>
	<node lat="60.484644442941395" lon="10.445472226887155" id="-22889">
		<tag k="name" v="Bunes" />
		<tag k="place" v="isolated_dwelling" />
		<tag k="ssr:stedsnr" v="92267" />
	</node>
	<node lat="60.462697220996155" lon="10.486027772988654" id="-22892">
		<tag k="name" v="Kjos" />
		<tag k="place" v="farm" />
		<tag k="ssr:stedsnr" v="92663" />
	</node>
	<node lat="60.533497222958665" lon="10.366383335190553" id="-22895">
		<tag k="name" v="Storlund" />
		<tag k="place" v="locality" />
		<tag k="ssr:stedsnr" v="92705" />
	</node>
	<node lat="60.37899999707711" lon="10.337974999829243" id="-22899">
		<tag k="name" v="Ruden" />
		<tag k="place" v="isolated_dwelling" />
		<tag k="ssr:stedsnr" v="93388" />
	</node>
	<node lat="60.53629999947457" lon="10.510811116308883" id="-22900">
		<tag k="name" v="Almsætra" />
		<tag k="place" v="locality" />
		<tag k="ssr:stedsnr" v="93675" />
	</node>
	<node lat="60.371900001460645" lon="10.487824996273405" id="-22902">
		<tag k="name" v="Berget" />
		<tag k="place" v="farm" />
		<tag k="ssr:stedsnr" v="248114" />
	</node>
	<node lat="60.37667500272865" lon="10.464919442202026" id="-22903">
		<tag k="name" v="Grønmyr" />
		<tag k="place" v="farm" />
		<tag k="ssr:stedsnr" v="248117" />
	</node>
	<node lat="60.41729166668669" lon="10.382100007695804" id="-22904">
		<tag k="alt_name" v="Toverud, s" />
		<tag k="name" v="Søndre Toverud" />
		<tag k="place" v="farm" />
		<tag k="ssr:stedsnr" v="248131" />
	</node>
	<node lat="60.48112507692788" lon="10.457096811062986" id="-22905">
		<tag k="alt_name" v="Smedshammer" />
		<tag k="fixme" v="consider place=hamlet" />
		<tag k="name" v="Smedshammar" />
		<tag k="place" v="farm" />
		<tag k="ssr:stedsnr" v="248286" />
	</node>
	<node lat="60.435758331450934" lon="10.37662221571036" id="-22906">
		<tag k="name" v="Dalen" />
		<tag k="place" v="farm" />
		<tag k="ssr:stedsnr" v="249132" />
	</node>
	<node lat="60.43215724208849" lon="10.612556746718084" id="-22907">
		<tag k="name" v="Badstua" />
		<tag k="place" v="farm" />
		<tag k="ssr:stedsnr" v="249138" />
	</node>
	<node lat="60.36073333329587" lon="10.601877774377146" id="-22913">
		<tag k="name" v="Læren" />
		<tag k="place" v="farm" />
		<tag k="ssr:stedsnr" v="249007" />
	</node>
	<node lat="60.34904026028286" lon="10.427149744271485" id="-22914">
		<tag k="alt_name" v="Maurtvet" />
		<tag k="fixme" v="consider place=hamlet" />
		<tag k="name" v="Maurtveit" />
		<tag k="place" v="farm" />
		<tag k="ssr:stedsnr" v="249046" />
	</node>
	<node lat="60.50513967024808" lon="10.523853620187992" id="-22915">
		<tag k="fixme" v="consider place=hamlet" />
		<tag k="name" v="Hennung" />
		<tag k="place" v="farm" />
		<tag k="ssr:stedsnr" v="249049" />
	</node>
	<node lat="60.347797225627914" lon="10.578719439851332" id="-22917">
		<tag k="name" v="Bråtån" />
		<tag k="place" v="farm" />
		<tag k="ssr:stedsnr" v="249040" />
	</node>
	<node lat="60.511502228074725" lon="10.525323628686266" id="-22919">
		<tag k="fixme" v="consider place=hamlet" />
		<tag k="name" v="Sevaldrud" />
		<tag k="place" v="farm" />
		<tag k="ssr:stedsnr" v="249064" />
	</node>
	<node lat="60.51289722558451" lon="10.59191666840588" id="-22920">
		<tag k="alt_name" v="Råssumsætra" />
		<tag k="historic" v="shieling" />
		<tag k="name" v="Rossumsætra" />
		<tag k="place" v="isolated_dwelling" />
		<tag k="ssr:stedsnr" v="249069" />
	</node>
	<node lat="60.422619448573734" lon="10.37990276985909" id="-22923">
		<tag k="name" v="Røysing" />
		<tag k="place" v="isolated_dwelling" />
		<tag k="ssr:stedsnr" v="249145" />
	</node>
	<node lat="60.393122361413376" lon="10.36819758570867" id="-22924">
		<tag k="fixme" v="consider place=hamlet" />
		<tag k="name" v="Engnes" />
		<tag k="place" v="farm" />
		<tag k="ssr:stedsnr" v="249157" />
	</node>
	<node lat="60.44759166422109" lon="10.4613194461126" id="-22929">
		<tag k="name" v="Leirbru" />
		<tag k="place" v="farm" />
		<tag k="ssr:stedsnr" v="249231" />
	</node>
	<node lat="60.49281289581127" lon="10.381688139623218" id="-22931">
		<tag k="fixme" v="consider place=hamlet" />
		<tag k="name" v="Nyhus" />
		<tag k="place" v="farm" />
		<tag k="ssr:stedsnr" v="249278" />
	</node>
	<node lat="60.50230833705837" lon="10.271475004280255" id="-22935">
		<tag k="name" v="Rognbakken" />
		<tag k="place" v="farm" />
		<tag k="ssr:stedsnr" v="249466" />
	</node>
	<node lat="60.526697222417084" lon="10.293611109114472" id="-22937">
		<tag k="alt_name" v="Sandvik" />
		<tag k="name" v="Sandvika" />
		<tag k="place" v="farm" />
		<tag k="ssr:stedsnr" v="249486" />
	</node>
	<node lat="60.51892499734285" lon="10.217061112664654" id="-22938">
		<tag k="name" v="Gammelsætra" />
		<tag k="place" v="farm" />
		<tag k="ssr:stedsnr" v="249496" />
	</node>
	<node lat="60.393511113253204" lon="10.807969453270179" id="-22945">
		<tag k="name" v="Nye Lomtjernshytta" />
		<tag k="place" v="isolated_dwelling" />
		<tag k="ssr:stedsnr" v="249578" />
	</node>
	<node lat="60.33238055954815" lon="10.59996944047587" id="-22948">
		<tag k="alt_name" v="Smedsrud, nordre" />
		<tag k="name" v="Nordre Smedsrud" />
		<tag k="place" v="farm" />
		<tag k="ssr:stedsnr" v="249949" />
	</node>
	<node lat="60.3205249962097" lon="10.607500006113712" id="-22949">
		<tag k="name" v="Dynnamarka" />
		<tag k="place" v="farm" />
		<tag k="ssr:stedsnr" v="249903" />
	</node>
	<node lat="60.31828610753772" lon="10.606391669798079" id="-22950">
		<tag k="name" v="Dynnabråtån" />
		<tag k="place" v="farm" />
		<tag k="ssr:stedsnr" v="249906" />
	</node>
	<node lat="60.32958332993205" lon="10.50530833830042" id="-22954">
		<tag k="alt_name" v="Vien, vestre;Vien" />
		<tag k="name" v="Vestre Vien" />
		<tag k="place" v="farm" />
		<tag k="ssr:stedsnr" v="249936" />
	</node>
	<node lat="60.323233332652904" lon="10.39692499647889" id="-22955">
		<tag k="name" v="Vestli" />
		<tag k="place" v="farm" />
		<tag k="ssr:stedsnr" v="249966" />
	</node>
	<node lat="60.487869448048755" lon="10.216869439435344" id="-22956">
		<tag k="name" v="Bjørnebråtan" />
		<tag k="place" v="locality" />
		<tag k="ssr:stedsnr" v="111111" />
	</node>
	<node lat="60.34391111461104" lon="10.60049166031504" id="-22958">
		<tag k="name" v="Skjollabakken" />
		<tag k="place" v="farm" />
		<tag k="ssr:stedsnr" v="249988" />
	</node>
	<node lat="60.520422219485425" lon="10.221608341505396" id="-22959">
		<tag k="name" v="Gammelsæterlia" />
		<tag k="place" v="isolated_dwelling" />
		<tag k="ssr:stedsnr" v="111307" />
	</node>
	<node lat="60.33318889184284" lon="10.3936416677117" id="-22960">
		<tag k="name" v="Bekken" />
		<tag k="place" v="farm" />
		<tag k="ssr:stedsnr" v="249995" />
	</node>
	<node lat="60.32928333502654" lon="10.430975003149264" id="-22961">
		<tag k="name" v="Svingen" />
		<tag k="place" v="isolated_dwelling" />
		<tag k="ssr:stedsnr" v="250000" />
	</node>
	<node lat="60.519752781067474" lon="10.267627782368754" id="-22962">
		<tag k="name" v="Bråtån" />
		<tag k="place" v="locality" />
		<tag k="ssr:stedsnr" v="111425" />
	</node>
	<node lat="60.51645278031542" lon="10.531988892031922" id="-22966">
		<tag k="name" v="Fredrikstad" />
		<tag k="place" v="farm" />
		<tag k="ssr:stedsnr" v="250066" />
	</node>
	<node lat="60.361779016423746" lon="10.483679134565183" id="-22977">
		<tag k="fixme" v="consider place=hamlet" />
		<tag k="name" v="Lunde" />
		<tag k="place" v="farm" />
		<tag k="ssr:stedsnr" v="127003" />
	</node>
	<node lat="60.395205553573795" lon="10.49077778553438" id="-22979">
		<tag k="name" v="Nordenga" />
		<tag k="place" v="farm" />
		<tag k="ssr:stedsnr" v="127091" />
	</node>
	<node lat="60.37491111466357" lon="10.661222213456357" id="-22980">
		<tag k="historic" v="shieling" />
		<tag k="name" v="Sjosætra" />
		<tag k="place" v="isolated_dwelling" />
		<tag k="ssr:stedsnr" v="127098" />
	</node>
	<node lat="60.408041667128565" lon="10.503625009044534" id="-22981">
		<tag k="name" v="Veslehagan" />
		<tag k="place" v="farm" />
		<tag k="ssr:stedsnr" v="127206" />
	</node>
	<node lat="60.437855554803626" lon="10.50785555968212" id="-22984">
		<tag k="name" v="Bekken" />
		<tag k="place" v="farm" />
		<tag k="ssr:stedsnr" v="127258" />
	</node>
	<node lat="60.37681524661634" lon="10.58639695196867" id="-22985">
		<tag k="fixme" v="consider place=hamlet" />
		<tag k="name" v="Undeli" />
		<tag k="place" v="farm" />
		<tag k="ssr:stedsnr" v="127103" />
	</node>
	<node lat="60.377916664937715" lon="10.474458331107934" id="-22987">
		<tag k="name" v="Breidgata" />
		<tag k="place" v="farm" />
		<tag k="ssr:stedsnr" v="127111" />
	</node>
	<node lat="60.37937284846106" lon="10.500645448505068" id="-22988">
		<tag k="alt_name" v="Bakken" />
		<tag k="name" v="Allemannsbakken" />
		<tag k="place" v="farm" />
		<tag k="ssr:stedsnr" v="127112" />
	</node>
	<node lat="60.40873333686383" lon="10.538494436481306" id="-22990">
		<tag k="name" v="Knotterud" />
		<tag k="old_name" v="Knatterud" />
		<tag k="place" v="farm" />
		<tag k="ssr:stedsnr" v="127141" />
	</node>
	<node lat="60.43218077186205" lon="10.481597781141648" id="-22991">
		<tag k="fixme" v="consider place=hamlet" />
		<tag k="name" v="Rå" />
		<tag k="place" v="farm" />
		<tag k="ssr:stedsnr" v="127151" />
	</node>
	<node lat="60.435363888878044" lon="10.483119449639226" id="-22992">
		<tag k="name" v="Hagan" />
		<tag k="place" v="farm" />
		<tag k="ssr:stedsnr" v="127152" />
	</node>
	<node lat="60.41579999574657" lon="10.589166662859132" id="-22993">
		<tag k="name" v="Haugen" />
		<tag k="place" v="farm" />
		<tag k="ssr:stedsnr" v="127191" />
	</node>
	<node lat="60.41012499925988" lon="10.609861113956384" id="-22994">
		<tag k="name" v="Bekkestua" />
		<tag k="place" v="isolated_dwelling" />
		<tag k="ssr:stedsnr" v="127195" />
	</node>
	<node lat="60.498758329294674" lon="10.42713888849712" id="-22997">
		<tag k="name" v="Støa" />
		<tag k="place" v="farm" />
		<tag k="ssr:stedsnr" v="127312" />
	</node>
	<node lat="60.45956389206648" lon="10.259274993137133" id="-23002">
		<tag k="name" v="Sevaldrudbakken" />
		<tag k="place" v="farm" />
		<tag k="ssr:stedsnr" v="127591" />
	</node>
	<node lat="60.45631110739298" lon="10.214088896573685" id="-23003">
		<tag k="name" v="Rovtjernshytta" />
		<tag k="place" v="isolated_dwelling" />
		<tag k="ssr:stedsnr" v="127592" />
	</node>
	<node lat="60.50906023535204" lon="10.355554956301557" id="-23004">
		<tag k="fixme" v="consider place=hamlet" />
		<tag k="name" v="Strande" />
		<tag k="place" v="farm" />
		<tag k="ssr:stedsnr" v="128042" />
	</node>
	<node lat="60.488461111833324" lon="10.186883333040509" id="-23005">
		<tag k="historic" v="shieling" />
		<tag k="name" v="Nysætra" />
		<tag k="place" v="isolated_dwelling" />
		<tag k="ssr:stedsnr" v="127741" />
	</node>
	<node lat="60.41996666398071" lon="10.475283331274387" id="-23008">
		<tag k="alt_name" v="Julistykket" />
		<tag k="name" v="Stykket" />
		<tag k="place" v="farm" />
		<tag k="ssr:stedsnr" v="128093" />
	</node>
	<node lat="60.32128888741383" lon="10.624441659530275" id="-23010">
		<tag k="name" v="Kruggerud" />
		<tag k="place" v="farm" />
		<tag k="ssr:stedsnr" v="128901" />
	</node>
	<node lat="60.39909444321562" lon="10.521369436859198" id="-23011">
		<tag k="name" v="Nordhagan" />
		<tag k="place" v="farm" />
		<tag k="ssr:stedsnr" v="150064" />
	</node>
	<node lat="60.34492221901645" lon="10.417988890342217" id="-23013">
		<tag k="alt_name" v="Smedsrud Øvre" />
		<tag k="name" v="Øvre Smedsrud" />
		<tag k="place" v="farm" />
		<tag k="ssr:stedsnr" v="151158" />
	</node>
	<node lat="60.38063333081292" lon="10.47305833179343" id="-23014">
		<tag k="fixme" v="consider place=hamlet" />
		<tag k="name" v="Brenna" />
		<tag k="place" v="farm" />
		<tag k="ssr:stedsnr" v="151409" />
	</node>
	<node lat="60.394261109697595" lon="10.475622219408253" id="-23017">
		<tag k="building" v="industrial" />
		<tag k="name" v="Staksrud mølle" />
		<tag k="ssr:stedsnr" v="152270" />
	</node>
	<node lat="60.39732500018656" lon="10.472261120014767" id="-23019">
		<tag k="name" v="Hole" />
		<tag k="place" v="farm" />
		<tag k="ssr:stedsnr" v="152516" />
	</node>
	<node lat="60.477616663525055" lon="10.513174999843185" id="-23020">
		<tag k="name" v="Nordrunden" />
		<tag k="place" v="farm" />
		<tag k="ssr:stedsnr" v="152858" />
	</node>
	<node lat="60.54819999920535" lon="10.488902785447909" id="-23023">
		<tag k="name" v="Toppåstjernshytta" />
		<tag k="place" v="isolated_dwelling" />
		<tag k="ssr:stedsnr" v="154757" />
	</node>
	<node lat="60.35939166890241" lon="10.586188882628427" id="-23028">
		<tag k="amenity" v="school" />
		<tag k="name" v="Trintom skole" />
		<tag k="ssr:stedsnr" v="172069" />
	</node>
	<node lat="60.34786944899193" lon="10.5721638832384" id="-23030">
		<tag k="name" v="Lyseng" />
		<tag k="place" v="farm" />
		<tag k="ssr:stedsnr" v="172221" />
	</node>
	<node lat="60.339552780747205" lon="10.600738886999084" id="-23031">
		<tag k="leisure" v="pitch" />
		<tag k="name" v="Flågåbakken" />
		<tag k="ssr:stedsnr" v="172222" />
	</node>
	<node lat="60.42190555824471" lon="10.300727786229702" id="-23035">
		<tag k="name" v="Grinåkersva" />
		<tag k="place" v="isolated_dwelling" />
		<tag k="ssr:stedsnr" v="172922" />
	</node>
	<node lat="60.36294166584442" lon="10.508908332931215" id="-23040">
		<tag k="name" v="Nordhagen" />
		<tag k="place" v="farm" />
		<tag k="ssr:stedsnr" v="272560" />
	</node>
	<node lat="60.43562206556032" lon="10.495594830428287" id="-23041">
		<tag k="fixme" v="consider place=hamlet" />
		<tag k="name" v="Østre Egge" />
		<tag k="place" v="farm" />
		<tag k="ssr:stedsnr" v="181208" />
	</node>
	<node lat="60.38759767736119" lon="10.529148753742179" id="-23043">
		<tag k="fixme" v="consider place=hamlet" />
		<tag k="name" v="Stadstad" />
		<tag k="place" v="farm" />
		<tag k="ssr:stedsnr" v="188078" />
	</node>
	<node lat="60.390569444767834" lon="10.594108328527653" id="-23047">
		<tag k="name" v="Skapalen" />
		<tag k="place" v="isolated_dwelling" />
		<tag k="ssr:stedsnr" v="188095" />
	</node>
	<node lat="60.394027778878865" lon="10.589755555537044" id="-23048">
		<tag k="name" v="Ringheim" />
		<tag k="place" v="farm" />
		<tag k="ssr:stedsnr" v="188098" />
	</node>
	<node lat="60.391219441056954" lon="10.463316670817775" id="-23049">
		<tag k="alt_name" v="Fredheim skole" />
		<tag k="amenity" v="school" />
		<tag k="name" v="Fredheim" />
		<tag k="ssr:stedsnr" v="188204" />
	</node>
	<node lat="60.40563889181518" lon="10.594558334631957" id="-23050">
		<tag k="alt_name" v="Søre Hanserud" />
		<tag k="name" v="Hanserud" />
		<tag k="place" v="farm" />
		<tag k="ssr:stedsnr" v="188210" />
	</node>
	<node lat="60.40531388489485" lon="10.463691661441548" id="-23051">
		<tag k="name" v="Elken" />
		<tag k="place" v="farm" />
		<tag k="ssr:stedsnr" v="188219" />
	</node>
	<node lat="60.46694600704291" lon="10.467521979321175" id="-23052">
		<tag k="alt_name" v="Nordvika" />
		<tag k="fixme" v="consider place=hamlet" />
		<tag k="name" v="Vika" />
		<tag k="place" v="farm" />
		<tag k="ssr:stedsnr" v="188223" />
	</node>
	<node lat="60.366753399346514" lon="10.436641127551347" id="-23053">
		<tag k="fixme" v="consider place=hamlet" />
		<tag k="name" v="Moger" />
		<tag k="place" v="farm" />
		<tag k="ssr:stedsnr" v="188112" />
	</node>
	<node lat="60.3770268441374" lon="10.712943269750712" id="-23054">
		<tag k="loc_name" v="Sagvolden" />
		<tag k="name" v="Sagvollen" />
		<tag k="place" v="neighbourhood" />
		<tag k="ssr:stedsnr" v="188120" />
	</node>
	<node lat="60.371030555378155" lon="10.618524996365354" id="-23055">
		<tag k="name" v="Sørli" />
		<tag k="place" v="farm" />
		<tag k="ssr:stedsnr" v="188125" />
	</node>
	<node lat="60.36987499881722" lon="10.643758335093981" id="-23056">
		<tag k="historic" v="shieling" />
		<tag k="name" v="Lærensætra" />
		<tag k="place" v="isolated_dwelling" />
		<tag k="ssr:stedsnr" v="188128" />
	</node>
	<node lat="60.43019959458328" lon="10.47481517262487" id="-23057">
		<tag k="fixme" v="consider place=hamlet" />
		<tag k="name" v="Røyken" />
		<tag k="place" v="farm" />
		<tag k="ssr:stedsnr" v="188183" />
	</node>
	<node lat="60.428211114250416" lon="10.547305556476113" id="-23058">
		<tag k="alt_name" v="Olarud;Olarud, nordre" />
		<tag k="name" v="Nordre Olarud" />
		<tag k="place" v="farm" />
		<tag k="ssr:stedsnr" v="188185" />
	</node>
	<node lat="60.433727779074424" lon="10.579958336369977" id="-23059">
		<tag k="name" v="Tåjet" />
		<tag k="place" v="farm" />
		<tag k="ssr:stedsnr" v="188186" />
	</node>
	<node lat="60.39702499919612" lon="10.338488892089282" id="-23060">
		<tag k="name" v="Fløytabakken" />
		<tag k="place" v="isolated_dwelling" />
		<tag k="ssr:stedsnr" v="188314" />
	</node>
	<node lat="60.481997226540415" lon="10.49316111765235" id="-23061">
		<tag k="name" v="Bråumsmoen" />
		<tag k="place" v="farm" />
		<tag k="ssr:stedsnr" v="188325" />
	</node>
	<node lat="60.44581666727705" lon="10.501463881078225" id="-23062">
		<tag k="alt_name" v="Hagelykkja" />
		<tag k="name" v="Hagalykkja" />
		<tag k="place" v="farm" />
		<tag k="ssr:stedsnr" v="188272" />
	</node>
	<node lat="60.52431110876725" lon="10.284225004313031" id="-23068">
		<tag k="fixme" v="consider place=hamlet" />
		<tag k="name" v="Bjoneroa" />
		<tag k="place" v="village" />
		<tag k="ssr:stedsnr" v="188521" />
	</node>
	<node lat="60.41764722514265" lon="10.841972230672097" id="-23072">
		<tag k="name" v="Lomtjernstua" />
		<tag k="place" v="isolated_dwelling" />
		<tag k="ssr:stedsnr" v="188668" />
	</node>
	<node lat="60.33505277777938" lon="10.581380556439084" id="-23074">
		<tag k="name" v="Hvalshagan" />
		<tag k="place" v="farm" />
		<tag k="ssr:stedsnr" v="188956" />
	</node>
	<node lat="60.33964122029945" lon="10.435070145997914" id="-23075">
		<tag k="alt_name" v="Øvre Håtveit" />
		<tag k="fixme" v="consider place=hamlet" />
		<tag k="name" v="Håtveit" />
		<tag k="place" v="farm" />
		<tag k="ssr:stedsnr" v="188978" />
	</node>
	<node lat="60.33923889306632" lon="10.612744437028038" id="-23076">
		<tag k="alt_name" v="Hvila" />
		<tag k="name" v="Vila" />
		<tag k="place" v="farm" />
		<tag k="ssr:stedsnr" v="188987" />
	</node>
	<node lat="60.367052782002055" lon="10.533366675742679" id="-23079">
		<tag k="amenity" v="school" />
		<tag k="name" v="Sanne skole" />
		<tag k="ssr:stedsnr" v="210632" />
	</node>
	<node lat="60.39777500040202" lon="10.601844440133624" id="-23081">
		<tag k="name" v="Nedre Lia" />
		<tag k="place" v="farm" />
		<tag k="ssr:stedsnr" v="211127" />
	</node>
	<node lat="60.400316666754385" lon="10.568836109566256" id="-23082">
		<tag k="name" v="Bentestua" />
		<tag k="place" v="farm" />
		<tag k="ssr:stedsnr" v="211194" />
	</node>
	<node lat="60.397694440643996" lon="10.603333334322533" id="-23084">
		<tag k="name" v="Nedre Lia" />
		<tag k="place" v="farm" />
		<tag k="ssr:stedsnr" v="211584" />
	</node>
	<node lat="60.410686111598636" lon="10.54917222230116" id="-23085">
		<tag k="name" v="Heiås" />
		<tag k="place" v="isolated_dwelling" />
		<tag k="ssr:stedsnr" v="211829" />
	</node>
	<node lat="60.48026944085098" lon="10.447983334693141" id="-23088">
		<tag k="name" v="Sørby" />
		<tag k="place" v="isolated_dwelling" />
		<tag k="ssr:stedsnr" v="213287" />
	</node>
	<node lat="60.33968889141832" lon="10.45575555924652" id="-23089">
		<tag k="name" v="Mjølnerstua" />
		<tag k="place" v="farm" />
		<tag k="ssr:stedsnr" v="213175" />
	</node>
	<node lat="60.39673888754364" lon="10.46633333204203" id="-23091">
		<tag k="name" v="Østre Hole" />
		<tag k="place" v="farm" />
		<tag k="ssr:stedsnr" v="213502" />
	</node>
	<node lat="60.33433610827064" lon="10.536922230405771" id="-23092">
		<tag k="amenity" v="school" />
		<tag k="name" v="Granlund skole" />
		<tag k="ssr:stedsnr" v="213512" />
	</node>
	<node lat="60.47496667034303" lon="10.485755559948606" id="-23093">
		<tag k="name" v="Sylling" />
		<tag k="place" v="isolated_dwelling" />
		<tag k="ssr:stedsnr" v="213674" />
	</node>
	<node lat="60.46439999850716" lon="10.522530547223349" id="-23094">
		<tag k="name" v="Hagabekk" />
		<tag k="place" v="farm" />
		<tag k="ssr:stedsnr" v="213676" />
	</node>
	<node lat="60.459897219009235" lon="10.505783337654734" id="-23095">
		<tag k="name" v="Dalaberget" />
		<tag k="place" v="farm" />
		<tag k="ssr:stedsnr" v="213693" />
	</node>
	<node lat="60.39736388612322" lon="10.515577778793068" id="-23104">
		<tag k="name" v="Tingelstadstykket" />
		<tag k="place" v="farm" />
		<tag k="ssr:stedsnr" v="271085" />
	</node>
	<node lat="60.392461112281346" lon="10.502838881805141" id="-23105">
		<tag k="name" v="Skulterud" />
		<tag k="place" v="farm" />
		<tag k="ssr:stedsnr" v="271090" />
	</node>
	<node lat="60.364200297340936" lon="10.52739461725581" id="-23106">
		<tag k="fixme" v="consider place=hamlet" />
		<tag k="name" v="Helgum" />
		<tag k="place" v="farm" />
		<tag k="ssr:stedsnr" v="271670" />
	</node>
	<node lat="60.36351944016444" lon="10.53436388311107" id="-23107">
		<tag k="name" v="Ølhaugen" />
		<tag k="place" v="farm" />
		<tag k="ssr:stedsnr" v="271692" />
	</node>
	<node lat="60.347616665679524" lon="10.58335278266332" id="-23112">
		<tag k="name" v="Østre Morstad" />
		<tag k="place" v="farm" />
		<tag k="ssr:stedsnr" v="232207" />
	</node>
	<node lat="60.3488138876272" lon="10.573480554605908" id="-23113">
		<tag k="name" v="Stenberg" />
		<tag k="place" v="farm" />
		<tag k="ssr:stedsnr" v="232211" />
	</node>
	<node lat="60.333494446605336" lon="10.842047213652535" id="-23119">
		<tag k="name" v="Kvernsjøputthytta" />
		<tag k="place" v="isolated_dwelling" />
		<tag k="ssr:stedsnr" v="233190" />
	</node>
	<node lat="60.38038333708484" lon="10.577252772965737" id="-23121">
		<tag k="name" v="Nordgarden Horgen" />
		<tag k="place" v="farm" />
		<tag k="ssr:stedsnr" v="233323" />
	</node>
	<node lat="60.38111388568609" lon="10.66546944259094" id="-23123">
		<tag k="alt_name" v="Nedre Fremstadsætra" />
		<tag k="historic" v="shieling" />
		<tag k="name" v="Nedre Framstadsætra" />
		<tag k="place" v="isolated_dwelling" />
		<tag k="ssr:stedsnr" v="233511" />
	</node>
	<node lat="60.418927775122576" lon="10.668725007499177" id="-23124">
		<tag k="name" v="Svartdalshytta" />
		<tag k="place" v="isolated_dwelling" />
		<tag k="ssr:stedsnr" v="233602" />
	</node>
	<node lat="60.380397223968075" lon="10.577288890868042" id="-23132">
		<tag k="fixme" v="consider place=hamlet" />
		<tag k="name" v="Nordre Horgen" />
		<tag k="place" v="farm" />
		<tag k="ssr:stedsnr" v="242197" />
	</node>
	<node lat="60.374335569599396" lon="10.588880876996733" id="-23137">
		<tag k="name" v="Framstad" />
		<tag k="place" v="hamlet" />
		<tag k="ssr:stedsnr" v="249104" />
	</node>
	<node lat="60.37157499720894" lon="10.578616671312275" id="-23138">
		<tag k="name" v="Linlykkja" />
		<tag k="place" v="isolated_dwelling" />
		<tag k="ssr:stedsnr" v="249109" />
	</node>
	<node lat="60.37425000224362" lon="10.621647213837544" id="-23140">
		<tag k="alt_name" v="Ålsbygd, nordre" />
		<tag k="fixme" v="consider place=hamlet" />
		<tag k="name" v="Nordre Ålsbygd" />
		<tag k="place" v="village" />
		<tag k="ssr:stedsnr" v="249101" />
	</node>
	<node lat="60.43579760191789" lon="10.588943171720086" id="-23141">
		<tag k="fixme" v="consider place=hamlet" />
		<tag k="name" v="Ragnhildrud" />
		<tag k="place" v="farm" />
		<tag k="ssr:stedsnr" v="249210" />
	</node>
	<node lat="60.431774065631" lon="10.574880856864851" id="-23142">
		<tag k="fixme" v="consider place=hamlet" />
		<tag k="name" v="Amundrud" />
		<tag k="place" v="farm" />
		<tag k="ssr:stedsnr" v="249211" />
	</node>
	<node lat="60.441022223215235" lon="10.588100001104488" id="-23144">
		<tag k="alt_name" v="Nygård" />
		<tag k="name" v="Nygard" />
		<tag k="place" v="farm" />
		<tag k="ssr:stedsnr" v="249212" />
	</node>
	<node lat="60.44325277611882" lon="10.510674991740627" id="-23146">
		<tag k="name" v="Eggemoen" />
		<tag k="place" v="farm" />
		<tag k="ssr:stedsnr" v="249214" />
	</node>
	<node lat="60.412519447737274" lon="10.538475001586312" id="-23147">
		<tag k="building" v="industrial" />
		<tag k="industrial" v="factory" />
		<tag k="loc_name" v="Jaren sementfabrikk" />
		<tag k="name" v="Jaren Cementfabrikk" />
		<tag k="ssr:stedsnr" v="453046" />
	</node>
	<node lat="60.411483334117634" lon="10.504836108589812" id="-23148">
		<tag k="amenity" v="nursing_home" />
		<tag k="name" v="Marka pleiehjem" />
		<tag k="ssr:stedsnr" v="453050" />
	</node>
	<node lat="60.439980553691775" lon="10.385441657690302" id="-23149">
		<tag k="name" v="Bakken" />
		<tag k="place" v="farm" />
		<tag k="ssr:stedsnr" v="249195" />
	</node>
	<node lat="60.35381111512156" lon="10.507483329688498" id="-23151">
		<tag k="name" v="Kongebingen" />
		<tag k="place" v="isolated_dwelling" />
		<tag k="ssr:stedsnr" v="453618" />
	</node>
	<node lat="60.351441670352884" lon="10.507011115391427" id="-23152">
		<tag k="name" v="Øvre Gamme" />
		<tag k="place" v="farm" />
		<tag k="ssr:stedsnr" v="453619" />
	</node>
	<node lat="60.37864722500403" lon="10.51351944921259" id="-23155">
		<tag k="name" v="Tuvhagan" />
		<tag k="place" v="farm" />
		<tag k="ssr:stedsnr" v="453740" />
	</node>
	<node lat="60.36469444563659" lon="10.540791665477549" id="-23156">
		<tag k="name" v="Ringvold" />
		<tag k="ssr:stedsnr" v="453639" />
		<tag k="tourism" v="guest_house" />
	</node>
	<node lat="60.35520277401472" lon="10.530661119768185" id="-23157">
		<tag k="name" v="Tokerud" />
		<tag k="place" v="farm" />
		<tag k="ssr:stedsnr" v="453654" />
	</node>
	<node lat="60.41510832928064" lon="10.553505556110494" id="-23160">
		<tag k="name" v="Molstadenga" />
		<tag k="place" v="farm" />
		<tag k="ssr:stedsnr" v="454615" />
	</node>
	<node lat="60.32034722051507" lon="10.421511115745181" id="-23161">
		<tag k="name" v="Sverige" />
		<tag k="place" v="locality" />
		<tag k="ssr:stedsnr" v="454753" />
	</node>
	<node lat="60.34190931324363" lon="10.457017322857633" id="-23162">
		<tag k="name" v="Falang" />
		<tag k="place" v="hamlet" />
		<tag k="ssr:stedsnr" v="455154" />
	</node>
	<node lat="60.34183830517198" lon="10.459724107612576" id="-23163">
		<tag k="name" v="Vestre Falang" />
		<tag k="place" v="farm" />
		<tag k="ssr:stedsnr" v="455155" />
	</node>
	<node lat="60.35755278124903" lon="10.452255556240548" id="-23164">
		<tag k="name" v="Hvindenenga" />
		<tag k="place" v="farm" />
		<tag k="ssr:stedsnr" v="455243" />
	</node>
	<node lat="60.35209444380974" lon="10.45554443835066" id="-23165">
		<tag k="name" v="Stein" />
		<tag k="place" v="farm" />
		<tag k="ssr:stedsnr" v="455249" />
	</node>
	<node lat="60.418349995891575" lon="10.480358336843103" id="-23166">
		<tag k="name" v="Tomtebråtån" />
		<tag k="place" v="farm" />
		<tag k="ssr:stedsnr" v="455284" />
	</node>
	<node lat="60.435694446101344" lon="10.473127779467887" id="-23167">
		<tag k="name" v="Vestre Rossum" />
		<tag k="place" v="farm" />
		<tag k="ssr:stedsnr" v="456037" />
	</node>
	<node lat="60.45497777663721" lon="10.644155559604416" id="-23179">
		<tag k="name" v="Lygnasæter" />
		<tag k="ssr:stedsnr" v="457688" />
		<tag k="tourism" v="hotel" />
	</node>
	<node lat="60.39805000349685" lon="10.564058324651796" id="-23183">
		<tag k="name" v="Stabu" />
		<tag k="place" v="farm" />
		<tag k="ssr:stedsnr" v="271224" />
	</node>
	<node lat="60.4074354148955" lon="10.578187017255724" id="-23184">
		<tag k="fixme" v="consider place=hamlet" />
		<tag k="name" v="Søndre Sørum" />
		<tag k="place" v="farm" />
		<tag k="ssr:stedsnr" v="271156" />
	</node>
	<node lat="60.39594752891469" lon="10.534710789239668" id="-23185">
		<tag k="name" v="Røysum" />
		<tag k="place" v="hamlet" />
		<tag k="ssr:stedsnr" v="271305" />
	</node>
	<node lat="60.32635000134323" lon="10.416513881640844" id="-23186">
		<tag k="name" v="Nordre Bjella" />
		<tag k="place" v="farm" />
		<tag k="ssr:stedsnr" v="272689" />
	</node>
	<node lat="60.37358888650998" lon="10.469397220468739" id="-23189">
		<tag k="name" v="Hvindenødegård" />
		<tag k="place" v="farm" />
		<tag k="ssr:stedsnr" v="273427" />
	</node>
	<node lat="60.39563333711021" lon="10.479258332330852" id="-23190">
		<tag k="building" v="commercial" />
		<tag k="name" v="Kirkevold" />
		<tag k="ssr:stedsnr" v="273481" />
	</node>
	<node lat="60.43911666253419" lon="10.464422224466436" id="-23192">
		<tag k="name" v="Storlykkja" />
		<tag k="place" v="farm" />
		<tag k="ssr:stedsnr" v="274224" />
	</node>
	<node lat="60.4642666636227" lon="10.460533332427142" id="-23193">
		<tag k="name" v="Odden" />
		<tag k="place" v="farm" />
		<tag k="ssr:stedsnr" v="274175" />
	</node>
	<node lat="60.34306388515334" lon="10.584075001581054" id="-23201">
		<tag k="alt_name" v="Vøien" />
		<tag k="name" v="Vøyen" />
		<tag k="place" v="farm" />
		<tag k="ssr:stedsnr" v="281805" />
	</node>
	<node lat="60.50948333712595" lon="10.33513889752779" id="-23205">
		<tag k="name" v="Søndre Tokerud" />
		<tag k="place" v="farm" />
		<tag k="ssr:stedsnr" v="294411" />
	</node>
	<node lat="60.476116668003655" lon="10.355155547563834" id="-23208">
		<tag k="name" v="Gundershytta" />
		<tag k="place" v="isolated_dwelling" />
		<tag k="ssr:stedsnr" v="294326" />
	</node>
	<node lat="60.48310277406825" lon="10.200447218489279" id="-23213">
		<tag k="name" v="Sytterbråtan" />
		<tag k="place" v="locality" />
		<tag k="ssr:stedsnr" v="294626" />
	</node>
	<node lat="60.34289166867752" lon="10.546036117856106" id="-23215">
		<tag k="name" v="Raknerud" />
		<tag k="place" v="farm" />
		<tag k="ssr:stedsnr" v="295136" />
	</node>
	<node lat="60.46058611195528" lon="10.500180556326347" id="-23216">
		<tag k="alt_name" v="Bleiken;Bleiken søndre" />
		<tag k="name" v="Sørbleiken" />
		<tag k="place" v="farm" />
		<tag k="ssr:stedsnr" v="300206" />
	</node>
	<node lat="60.38544166556117" lon="10.665063897879644" id="-23217">
		<tag k="alt_name" v="Framstadsætra" />
		<tag k="historic" v="shieling" />
		<tag k="name" v="Øvre Framstadsætra" />
		<tag k="place" v="isolated_dwelling" />
		<tag k="ssr:stedsnr" v="309133" />
	</node>
	<node lat="60.41920556004349" lon="10.590438889660188" id="-23218">
		<tag k="name" v="Emse" />
		<tag k="place" v="farm" />
		<tag k="ssr:stedsnr" v="309146" />
	</node>
	<node lat="60.41046388572021" lon="10.462108328087062" id="-23219">
		<tag k="alt_name" v="Vesteng" />
		<tag k="name" v="Vestenga" />
		<tag k="place" v="farm" />
		<tag k="ssr:stedsnr" v="309149" />
	</node>
	<node lat="60.36696388513198" lon="10.560477778083163" id="-23220">
		<tag k="name" v="Jarhaug" />
		<tag k="place" v="farm" />
		<tag k="ssr:stedsnr" v="309018" />
	</node>
	<node lat="60.34121110708965" lon="10.41906666706792" id="-23221">
		<tag k="name" v="Klæstad" />
		<tag k="place" v="isolated_dwelling" />
		<tag k="ssr:stedsnr" v="309039" />
	</node>
	<node lat="60.39496388969379" lon="10.534400007395735" id="-23223">
		<tag k="alt_name" v="Røysum, nordre" />
		<tag k="name" v="Nordre Røysum" />
		<tag k="place" v="farm" />
		<tag k="ssr:stedsnr" v="309093" />
	</node>
	<node lat="60.36714630437672" lon="10.458628192197038" id="-23224">
		<tag k="fixme" v="consider place=hamlet" />
		<tag k="name" v="Kjekstad" />
		<tag k="place" v="farm" />
		<tag k="ssr:stedsnr" v="309101" />
	</node>
	<node lat="60.483205556669056" lon="10.666074991807966" id="-23226">
		<tag k="name" v="Nyvoll" />
		<tag k="place" v="isolated_dwelling" />
		<tag k="ssr:stedsnr" v="309337" />
	</node>
	<node lat="60.49153028610618" lon="10.651845109374547" id="-23227">
		<tag k="alt_name" v="Helgedalssætra, nordre;Nordre Helgedalssætra" />
		<tag k="historic" v="shieling" />
		<tag k="name" v="Nordhelgedalen" />
		<tag k="place" v="isolated_dwelling" />
		<tag k="ssr:stedsnr" v="309344" />
	</node>
	<node lat="60.51143610929928" lon="10.47715554897957" id="-23232">
		<tag k="historic" v="shieling" />
		<tag k="name" v="Nordsætra" />
		<tag k="place" v="isolated_dwelling" />
		<tag k="ssr:stedsnr" v="310080" />
	</node>
	<node lat="60.508044446211606" lon="10.531733336122617" id="-23233">
		<tag k="fixme" v="consider place=hamlet" />
		<tag k="name" v="Hennung" />
		<tag k="place" v="village" />
		<tag k="ssr:stedsnr" v="310081" />
	</node>
	<node lat="60.44124722424381" lon="10.5303027783851" id="-23235">
		<tag k="alt_name" v="Nedre Teslo" />
		<tag k="name" v="Teslo" />
		<tag k="place" v="farm" />
		<tag k="ssr:stedsnr" v="310211" />
	</node>
	<node lat="60.33914494627522" lon="10.567343501357582" id="-23236">
		<tag k="fixme" v="consider place=hamlet" />
		<tag k="name" v="Koller" />
		<tag k="place" v="farm" />
		<tag k="ssr:stedsnr" v="309980" />
	</node>
	<node lat="60.343347580837836" lon="10.579201189420035" id="-23237">
		<tag k="alt_name" v="Vøien" />
		<tag k="name" v="Vøyen" />
		<tag k="place" v="hamlet" />
		<tag k="ssr:stedsnr" v="309982" />
	</node>
	<node lat="60.3430416671653" lon="10.62133333443485" id="-23238">
		<tag k="name" v="Lia" />
		<tag k="place" v="farm" />
		<tag k="ssr:stedsnr" v="309991" />
	</node>
	<node lat="60.43935658641975" lon="10.65351785270466" id="-23239">
		<tag k="historic" v="shieling" />
		<tag k="name" v="Finnskjeggholen" />
		<tag k="place" v="isolated_dwelling" />
		<tag k="ssr:stedsnr" v="310135" />
	</node>
	<node lat="60.517413884745444" lon="10.295936110271795" id="-23240">
		<tag k="name" v="Kirkeby" />
		<tag k="place" v="farm" />
		<tag k="ssr:stedsnr" v="310484" />
	</node>
	<node lat="60.32300555594877" lon="10.602516661908862" id="-23244">
		<tag k="name" v="Dynna" />
		<tag k="place" v="farm" />
		<tag k="ssr:stedsnr" v="310894" />
	</node>
	<node lat="60.41003055849641" lon="10.524261104156484" id="-23245">
		<tag k="name" v="Bortafor" />
		<tag k="place" v="farm" />
		<tag k="ssr:stedsnr" v="332032" />
	</node>
	<node lat="60.411591665016225" lon="10.528208337427765" id="-23246">
		<tag k="name" v="Øvre Kolabakken" />
		<tag k="place" v="farm" />
		<tag k="ssr:stedsnr" v="332036" />
	</node>
	<node lat="60.411555557986105" lon="10.541074995957048" id="-23247">
		<tag k="name" v="Veisten" />
		<tag k="place" v="isolated_dwelling" />
		<tag k="ssr:stedsnr" v="332050" />
	</node>
	<node lat="60.4093916666865" lon="10.553933325209288" id="-23249">
		<tag k="name" v="Mohagen" />
		<tag k="place" v="quarter" />
		<tag k="ssr:stedsnr" v="332817" />
	</node>
	<node lat="60.40647777452808" lon="10.56430833239621" id="-23250">
		<tag k="name" v="Lillenga" />
		<tag k="place" v="farm" />
		<tag k="ssr:stedsnr" v="332822" />
	</node>
	<node lat="60.47713055964879" lon="10.471538896947274" id="-23252">
		<tag k="name" v="Bøle" />
		<tag k="place" v="farm" />
		<tag k="ssr:stedsnr" v="334166" />
	</node>
	<node lat="60.38045277705806" lon="10.33690556419149" id="-23263">
		<tag k="alt_name" v="Tønnerud" />
		<tag k="historic" v="shieling" />
		<tag k="name" v="Tønnerudsætra" />
		<tag k="place" v="isolated_dwelling" />
		<tag k="ssr:stedsnr" v="336431" />
	</node>
	<node lat="60.38051111508133" lon="10.338555549902939" id="-23264">
		<tag k="alt_name" v="Furunes" />
		<tag k="historic" v="shieling" />
		<tag k="name" v="Furunessætra" />
		<tag k="place" v="isolated_dwelling" />
		<tag k="ssr:stedsnr" v="336433" />
	</node>
	<node lat="60.49211389086604" lon="10.656180561625083" id="-23265">
		<tag k="historic" v="shieling" />
		<tag k="name" v="Fellessæter" />
		<tag k="place" v="isolated_dwelling" />
		<tag k="ssr:stedsnr" v="336438" />
	</node>
	<node lat="60.32961453442312" lon="10.565398674604644" id="-23268">
		<tag k="name" v="Bjørge" />
		<tag k="place" v="hamlet" />
		<tag k="ssr:stedsnr" v="342044" />
	</node>
	<node lat="60.34885833426057" lon="10.582336109337264" id="-23271">
		<tag k="name" v="Ødegård" />
		<tag k="place" v="farm" />
		<tag k="ssr:stedsnr" v="354228" />
	</node>
	<node lat="60.34456197953916" lon="10.599507977042187" id="-23274">
		<tag k="name" v="Molden" />
		<tag k="place" v="hamlet" />
		<tag k="ssr:stedsnr" v="354235" />
	</node>
	<node lat="60.39116667008704" lon="10.588722229546613" id="-23278">
		<tag k="name" v="Dammen" />
		<tag k="place" v="farm" />
		<tag k="ssr:stedsnr" v="354318" />
	</node>
	<node lat="60.36969166303432" lon="10.553269452470708" id="-23285">
		<tag k="name" v="Nedre Hvattum" />
		<tag k="place" v="farm" />
		<tag k="ssr:stedsnr" v="355009" />
	</node>
	<node lat="60.33169804809267" lon="10.798485717150223" id="-23289">
		<tag k="name" v="Langmyrhytta" />
		<tag k="place" v="isolated_dwelling" />
		<tag k="ssr:stedsnr" v="355724" />
	</node>
	<node lat="60.35050555580662" lon="10.586841675014526" id="-23293">
		<tag k="name" v="Vestre Morstad" />
		<tag k="place" v="farm" />
		<tag k="ssr:stedsnr" v="475047" />
	</node>
	<node lat="60.340433337614854" lon="10.771505558205257" id="-23299">
		<tag k="name" v="Høverhytta" />
		<tag k="place" v="isolated_dwelling" />
		<tag k="ssr:stedsnr" v="475364" />
	</node>
	<node lat="60.40918610912588" lon="10.332155549049713" id="-23302">
		<tag k="name" v="Gammelsætervollen" />
		<tag k="place" v="locality" />
		<tag k="ssr:stedsnr" v="475440" />
	</node>
	<node lat="60.425600001527954" lon="10.370502775022244" id="-23303">
		<tag k="name" v="Torget" />
		<tag k="place" v="locality" />
		<tag k="ssr:stedsnr" v="475538" />
	</node>
	<node lat="60.46364228905268" lon="10.261151294953562" id="-23313">
		<tag k="fixme" v="consider place=hamlet" />
		<tag k="name" v="Sevaldrud" />
		<tag k="old_name" v="Sevalrud" />
		<tag k="place" v="farm" />
		<tag k="ssr:stedsnr" v="369481" />
	</node>
	<node lat="60.366619447417875" lon="10.557741675755546" id="-23314">
		<tag k="name" v="Hjertebo" />
		<tag k="place" v="isolated_dwelling" />
		<tag k="ssr:stedsnr" v="370025" />
	</node>
	<node lat="60.50662221987576" lon="10.518705552494986" id="-23316">
		<tag k="name" v="Bølhaugen" />
		<tag k="place" v="farm" />
		<tag k="ssr:stedsnr" v="370063" />
	</node>
	<node lat="60.354455558028036" lon="10.617819450231325" id="-23317">
		<tag k="alt_name" v="Jonsebråtån" />
		<tag k="name" v="Bråtån" />
		<tag k="place" v="farm" />
		<tag k="ssr:stedsnr" v="370072" />
	</node>
	<node lat="60.36057778036817" lon="10.618124996227323" id="-23318">
		<tag k="alt_name" v="Lysaker" />
		<tag k="name" v="Lysåker" />
		<tag k="place" v="farm" />
		<tag k="ssr:stedsnr" v="370076" />
	</node>
	<node lat="60.410588891953566" lon="10.440655547385107" id="-23319">
		<tag k="alt_name" v="Støa" />
		<tag k="name" v="Lysenstøa" />
		<tag k="place" v="farm" />
		<tag k="ssr:stedsnr" v="370169" />
	</node>
	<node lat="60.41608332971535" lon="10.651361115929824" id="-23320">
		<tag k="name" v="Svera" />
		<tag k="place" v="isolated_dwelling" />
		<tag k="ssr:stedsnr" v="370171" />
	</node>
	<node lat="60.41132777772412" lon="10.508983328109633" id="-23321">
		<tag k="name" v="Stykket" />
		<tag k="place" v="isolated_dwelling" />
		<tag k="ssr:stedsnr" v="370174" />
	</node>
	<node lat="60.44088235032921" lon="10.575153957046169" id="-23327">
		<tag k="historic" v="shieling" />
		<tag k="name" v="Pålsætra" />
		<tag k="place" v="isolated_dwelling" />
		<tag k="ssr:stedsnr" v="370267" />
	</node>
	<node lat="60.3221638873928" lon="10.38596944838539" id="-23332">
		<tag k="alt_name" v="Strande, nordre" />
		<tag k="name" v="Nordre Strande" />
		<tag k="place" v="farm" />
		<tag k="ssr:stedsnr" v="370965" />
	</node>
	<node lat="60.32616515217804" lon="10.430919958942956" id="-23333">
		<tag k="fixme" v="consider place=hamlet" />
		<tag k="name" v="Kittelsrud" />
		<tag k="place" v="farm" />
		<tag k="ssr:stedsnr" v="370968" />
	</node>
	<node lat="60.326686335214156" lon="10.420457610071006" id="-23334">
		<tag k="fixme" v="consider place=hamlet" />
		<tag k="name" v="Grinda" />
		<tag k="place" v="farm" />
		<tag k="ssr:stedsnr" v="370970" />
	</node>
	<node lat="60.31930555338773" lon="10.449894450964619" id="-23335">
		<tag k="alt_name" v="Mjør" />
		<tag k="name" v="Søndre Mjør" />
		<tag k="place" v="farm" />
		<tag k="ssr:stedsnr" v="370976" />
	</node>
	<node lat="60.343366664358285" lon="10.453477778447592" id="-23336">
		<tag k="name" v="Myra" />
		<tag k="place" v="farm" />
		<tag k="ssr:stedsnr" v="370980" />
	</node>
	<node lat="60.337970640893005" lon="10.596971548460184" id="-23337">
		<tag k="name" v="Flågån" />
		<tag k="place" v="farm" />
		<tag k="ssr:stedsnr" v="370985" />
	</node>
	<node lat="60.41291389335034" lon="10.52478888458536" id="-23340">
		<tag k="name" v="Kolamyra" />
		<tag k="place" v="farm" />
		<tag k="ssr:stedsnr" v="392043" />
	</node>
	<node lat="60.394455659564976" lon="10.52805126766971" id="-23341">
		<tag k="fixme" v="consider place=hamlet" />
		<tag k="name" v="Røysum" />
		<tag k="place" v="farm" />
		<tag k="ssr:stedsnr" v="392290" />
	</node>
	<node lat="60.361777773665345" lon="10.540691675044956" id="-23342">
		<tag k="name" v="Gransbråten" />
		<tag k="place" v="quarter" />
		<tag k="ssr:stedsnr" v="392690" />
	</node>
	<node lat="60.42765278155723" lon="10.519305556187154" id="-23343">
		<tag k="name" v="Bjørkli" />
		<tag k="place" v="farm" />
		<tag k="ssr:stedsnr" v="393204" />
	</node>
	<node lat="60.42637499758115" lon="10.565083329024135" id="-23344">
		<tag k="name" v="Ellefsrud" />
		<tag k="place" v="farm" />
		<tag k="ssr:stedsnr" v="393613" />
	</node>
	<node lat="60.39964722067183" lon="10.456933340662214" id="-23346">
		<tag k="alt_name" v="Askjum Sørgarden" />
		<tag k="name" v="Sørgarden Askjum" />
		<tag k="place" v="farm" />
		<tag k="ssr:stedsnr" v="394229" />
	</node>
	<node lat="60.40093333482683" lon="10.449883324371811" id="-23347">
		<tag k="alt_name" v="Askjum Vestgarden" />
		<tag k="name" v="Vestgarden Askjum" />
		<tag k="place" v="farm" />
		<tag k="ssr:stedsnr" v="394232" />
	</node>
	<node lat="60.39962221904049" lon="10.436616667375416" id="-23348">
		<tag k="name" v="Kjeksrudøgarden" />
		<tag k="place" v="farm" />
		<tag k="ssr:stedsnr" v="394233" />
	</node>
	<node lat="60.43282365669958" lon="10.45392764243846" id="-23350">
		<tag k="fixme" v="consider place=hamlet" />
		<tag k="name" v="Nedre Nes" />
		<tag k="place" v="farm" />
		<tag k="ssr:stedsnr" v="395086" />
	</node>
	<node lat="60.479761108184924" lon="10.453769439932978" id="-23351">
		<tag k="name" v="Vestlia" />
		<tag k="place" v="isolated_dwelling" />
		<tag k="ssr:stedsnr" v="395279" />
	</node>
	<node lat="60.49751944730522" lon="10.43881111793334" id="-23352">
		<tag k="name" v="Fjellheim" />
		<tag k="place" v="isolated_dwelling" />
		<tag k="ssr:stedsnr" v="395308" />
	</node>
	<node lat="60.49106388641505" lon="10.482583340220033" id="-23353">
		<tag k="name" v="Nybakke" />
		<tag k="place" v="farm" />
		<tag k="ssr:stedsnr" v="395331" />
	</node>
	<node lat="60.509652780925826" lon="10.41382499443878" id="-23354">
		<tag k="name" v="Nordre Hanserud" />
		<tag k="place" v="farm" />
		<tag k="ssr:stedsnr" v="395387" />
	</node>
	<node lat="60.523741668726075" lon="10.37279166654441" id="-23356">
		<tag k="name" v="Kalvskinnbråtån" />
		<tag k="place" v="farm" />
		<tag k="ssr:stedsnr" v="395709" />
	</node>
	<node lat="60.344280558614216" lon="10.544905548568039" id="-23357">
		<tag k="alt_name" v="Raknerud Nordgar'n" />
		<tag k="name" v="Nordgarden Raknerud" />
		<tag k="place" v="farm" />
		<tag k="ssr:stedsnr" v="484198" />
	</node>
	<node lat="60.327169442860104" lon="10.434136114144334" id="-23368">
		<tag k="name" v="Kittelsrud" />
		<tag k="place" v="farm" />
		<tag k="ssr:stedsnr" v="272082" />
	</node>
	<node lat="60.414462643106546" lon="10.517261111599643" id="-23369">
		<tag k="name" v="Grindåkerstykket" />
		<tag k="place" v="locality" />
		<tag k="ssr:stedsnr" v="272188" />
	</node>
	<node lat="60.348905551208915" lon="10.720152781691455" id="-23372">
		<tag k="historic" v="shieling" />
		<tag k="name" v="Stabekksætra" />
		<tag k="place" v="isolated_dwelling" />
		<tag k="ssr:stedsnr" v="414336" />
	</node>
	<node lat="60.37479722612517" lon="10.545175007660504" id="-23376">
		<tag k="name" v="Hvattum" />
		<tag k="place" v="farm" />
		<tag k="ssr:stedsnr" v="415243" />
	</node>
	<node lat="60.50497500337946" lon="10.211836119756233" id="-23383">
		<tag k="name" v="Trønhus" />
		<tag k="place" v="isolated_dwelling" />
		<tag k="ssr:stedsnr" v="415345" />
	</node>
	<node lat="60.51513610779973" lon="10.302174992283412" id="-23386">
		<tag k="name" v="Frydenlund" />
		<tag k="place" v="isolated_dwelling" />
		<tag k="ssr:stedsnr" v="415506" />
	</node>
	<node lat="60.45866110822096" lon="10.379086104408955" id="-23391">
		<tag k="name" v="Vollenga" />
		<tag k="place" v="locality" />
		<tag k="ssr:stedsnr" v="415815" />
	</node>
	<node lat="60.33658135818199" lon="10.59438470480627" id="-23395">
		<tag k="name" v="Hval" />
		<tag k="place" v="hamlet" />
		<tag k="ssr:stedsnr" v="424412" />
	</node>
	<node lat="60.335325001816656" lon="10.404375001011632" id="-23396">
		<tag k="alt_name" v="Grymyr, midtre" />
		<tag k="name" v="Midtre Grymyr" />
		<tag k="place" v="farm" />
		<tag k="ssr:stedsnr" v="491041" />
	</node>
	<node lat="60.35328333409253" lon="10.524986117067524" id="-23397">
		<tag k="name" v="Tokerud" />
		<tag k="place" v="farm" />
		<tag k="ssr:stedsnr" v="491001" />
	</node>
	<node lat="60.39200053637466" lon="10.51184097684243" id="-23398">
		<tag k="name" v="Tingelstad" />
		<tag k="place" v="hamlet" />
		<tag k="ssr:stedsnr" v="491096" />
	</node>
	<node lat="60.375608337337795" lon="10.486380557530962" id="-23400">
		<tag k="name" v="Svenskerud" />
		<tag k="place" v="farm" />
		<tag k="ssr:stedsnr" v="491113" />
	</node>
	<node lat="60.39160278115732" lon="10.528344443437225" id="-23401">
		<tag k="amenity" v="nursing_home" />
		<tag k="name" v="Røysumtunet" />
		<tag k="ssr:stedsnr" v="431104" />
	</node>
	<node lat="60.36663990028439" lon="10.419161147094362" id="-23402">
		<tag k="fixme" v="consider place=hamlet" />
		<tag k="name" v="Steinsrud" />
		<tag k="place" v="farm" />
		<tag k="ssr:stedsnr" v="431112" />
	</node>
	<node lat="60.41843333606053" lon="10.56590278539542" id="-23404">
		<tag k="alt_name" v="Moen skole" />
		<tag k="amenity" v="school" />
		<tag k="name" v="Moen" />
		<tag k="ssr:stedsnr" v="491139" />
	</node>
	<node lat="60.4254972250418" lon="10.558697215673236" id="-23405">
		<tag k="name" v="Ellefsrud" />
		<tag k="place" v="farm" />
		<tag k="ssr:stedsnr" v="491141" />
	</node>
	<node lat="60.409065593977914" lon="10.52965947681324" id="-23406">
		<tag k="fixme" v="consider place=hamlet" />
		<tag k="name" v="Svensbakken" />
		<tag k="place" v="farm" />
		<tag k="ssr:stedsnr" v="491150" />
	</node>
	<node lat="60.5033666644495" lon="10.432791658808503" id="-23408">
		<tag k="alt_name" v="Retrumsbakken" />
		<tag k="name" v="Bakken" />
		<tag k="place" v="farm" />
		<tag k="ssr:stedsnr" v="431052" />
	</node>
	<node lat="60.347122317272444" lon="10.519938096245856" id="-23409">
		<tag k="fixme" v="consider place=hamlet" />
		<tag k="name" v="Ulverud" />
		<tag k="place" v="farm" />
		<tag k="ssr:stedsnr" v="431059" />
	</node>
	<node lat="60.35299444611957" lon="10.543300007711615" id="-23411">
		<tag k="name" v="Ringdalssvingen" />
		<tag k="place" v="farm" />
		<tag k="ssr:stedsnr" v="431064" />
	</node>
	<node lat="60.46474444572372" lon="10.486502773787109" id="-23412">
		<tag k="alt_name" v="Bjørklund skole" />
		<tag k="amenity" v="school" />
		<tag k="name" v="Bjørklund" />
		<tag k="ssr:stedsnr" v="431215" />
	</node>
	<node lat="60.47106666236511" lon="10.567994444700869" id="-23413">
		<tag k="historic" v="shieling" />
		<tag k="name" v="Nysætra" />
		<tag k="place" v="isolated_dwelling" />
		<tag k="ssr:stedsnr" v="431241" />
	</node>
	<node lat="60.37988611182655" lon="10.68655555932473" id="-23415">
		<tag k="historic" v="shieling" />
		<tag k="name" v="Bekkelisætra" />
		<tag k="place" v="isolated_dwelling" />
		<tag k="ssr:stedsnr" v="431142" />
	</node>
	<node lat="60.42245000138241" lon="10.49714999215672" id="-23416">
		<tag k="fixme" v="consider place=hamlet" />
		<tag k="name" v="Brandhagan" />
		<tag k="place" v="farm" />
		<tag k="ssr:stedsnr" v="431147" />
	</node>
	<node lat="60.399619440302416" lon="10.588705562457603" id="-23417">
		<tag k="alt_name" v="Bakkegjerdingen" />
		<tag k="name" v="Bakkegjerdinga" />
		<tag k="place" v="isolated_dwelling" />
		<tag k="ssr:stedsnr" v="431191" />
	</node>
	<node lat="60.447472220086986" lon="10.515730553262326" id="-23420">
		<tag k="name" v="Svingen" />
		<tag k="place" v="farm" />
		<tag k="ssr:stedsnr" v="491246" />
	</node>
	<node lat="60.39725833047663" lon="10.808055561420732" id="-23423">
		<tag k="name" v="Gamle Lomtjernshytta" />
		<tag k="place" v="isolated_dwelling" />
		<tag k="ssr:stedsnr" v="431623" />
	</node>
	<node lat="60.41457500367738" lon="10.7210305589525" id="-23425">
		<tag k="name" v="Risbakkhytta" />
		<tag k="place" v="isolated_dwelling" />
		<tag k="ssr:stedsnr" v="431643" />
	</node>
	<node lat="60.48514166386284" lon="10.277772216559413" id="-23428">
		<tag k="name" v="Vollen" />
		<tag k="place" v="farm" />
		<tag k="ssr:stedsnr" v="431727" />
	</node>
	<node lat="60.336225001370345" lon="10.605258325047705" id="-23433">
		<tag k="name" v="Kolkinn" />
		<tag k="place" v="farm" />
		<tag k="ssr:stedsnr" v="431990" />
	</node>
	<node lat="60.33589166420718" lon="10.620413885106359" id="-23434">
		<tag k="alt_name" v="Ålsbygd, søre" />
		<tag k="fixme" v="consider place=hamlet" />
		<tag k="name" v="Søre Ålsbygd" />
		<tag k="place" v="village" />
		<tag k="ssr:stedsnr" v="431991" />
	</node>
	<node lat="60.54476944471722" lon="10.545377772959574" id="-23435">
		<tag k="historic" v="shieling" />
		<tag k="name" v="Rognlisætra" />
		<tag k="place" v="isolated_dwelling" />
		<tag k="ssr:stedsnr" v="432112" />
	</node>
	<node lat="60.525771207825656" lon="10.363034062293107" id="-23440">
		<tag k="fixme" v="consider place=hamlet" />
		<tag k="name" v="Kalvskinn" />
		<tag k="place" v="farm" />
		<tag k="ssr:stedsnr" v="432086" />
	</node>
	<node lat="60.51762218211061" lon="10.396210933315706" id="-23441">
		<tag k="alt_name" v="Gjerdvika" />
		<tag k="name" v="Gjervika" />
		<tag k="old_name" v="Gjørvika" />
		<tag k="place" v="hamlet" />
		<tag k="ssr:stedsnr" v="432087" />
	</node>
	<node lat="60.35823055131881" lon="10.912558326510279" id="-23445">
		<tag k="name" v="Pølsesund" />
		<tag k="place" v="isolated_dwelling" />
		<tag k="ssr:stedsnr" v="491556" />
	</node>
	<node lat="60.33077778059498" lon="10.403022227243563" id="-23448">
		<tag k="alt_name" v="Nordhagen" />
		<tag k="name" v="Nordhagan" />
		<tag k="place" v="isolated_dwelling" />
		<tag k="ssr:stedsnr" v="491999" />
	</node>
	<node lat="60.330366667319936" lon="10.430491672407467" id="-23449">
		<tag k="name" v="Grindastua" />
		<tag k="place" v="isolated_dwelling" />
		<tag k="ssr:stedsnr" v="492000" />
	</node>
	<node lat="60.32731111356644" lon="10.593183332397217" id="-23452">
		<tag k="alt_name" v="Dynna, østre" />
		<tag k="name" v="Østre Dynna" />
		<tag k="place" v="farm" />
		<tag k="ssr:stedsnr" v="491951" />
	</node>
	<node lat="60.351338886996906" lon="10.61386389770743" id="-23453">
		<tag k="name" v="Mælum" />
		<tag k="place" v="farm" />
		<tag k="ssr:stedsnr" v="492030" />
	</node>
	<node lat="60.50385555608532" lon="10.474625004592273" id="-23454">
		<tag k="historic" v="shieling" />
		<tag k="name" v="Torsætra" />
		<tag k="place" v="isolated_dwelling" />
		<tag k="ssr:stedsnr" v="492034" />
	</node>
	<node lat="60.36010277953264" lon="10.66253611345089" id="-23455">
		<tag k="name" v="Kastet" />
		<tag k="place" v="isolated_dwelling" />
		<tag k="ssr:stedsnr" v="492044" />
	</node>
	<node lat="60.49608611548093" lon="10.37499722422336" id="-23459">
		<tag k="name" v="Sørli" />
		<tag k="place" v="farm" />
		<tag k="ssr:stedsnr" v="492257" />
	</node>
	<node lat="60.35216388737538" lon="10.77009444891925" id="-23462">
		<tag k="historic" v="shieling" />
		<tag k="name" v="Gullensætra" />
		<tag k="place" v="isolated_dwelling" />
		<tag k="ssr:stedsnr" v="492486" />
	</node>
	<node lat="60.32635555410113" lon="10.561769446476264" id="-23464">
		<tag k="alt_name" v="Røsåsen" />
		<tag k="name" v="Rødsåsen" />
		<tag k="place" v="farm" />
		<tag k="ssr:stedsnr" v="492899" />
	</node>
	<node lat="60.36682500219651" lon="10.528605551560595" id="-23465">
		<tag k="alt_name" v="Granvollen" />
		<tag k="name" v="Granavollen" />
		<tag k="place" v="hamlet" />
		<tag k="ssr:stedsnr" v="450216" />
	</node>
	<node lat="60.392688892516595" lon="10.577705546675924" id="-23467">
		<tag k="amenity" v="school" />
		<tag k="name" v="Jaren skole" />
		<tag k="ssr:stedsnr" v="453214" />
	</node>
	<node lat="60.401147223100764" lon="10.431249993843677" id="-23468">
		<tag k="name" v="Mikkelstua" />
		<tag k="place" v="farm" />
		<tag k="ssr:stedsnr" v="455205" />
	</node>
	<node lat="60.44237222145863" lon="10.458383342000529" id="-23470">
		<tag k="name" v="Holte" />
		<tag k="place" v="farm" />
		<tag k="ssr:stedsnr" v="456015" />
	</node>
	<node lat="60.482761107757504" lon="10.477861111990293" id="-23472">
		<tag k="name" v="Slettmoen" />
		<tag k="place" v="farm" />
		<tag k="ssr:stedsnr" v="456320" />
	</node>
	<node lat="60.334661110900925" lon="10.531905549417178" id="-23473">
		<tag k="name" v="Nedre Vien" />
		<tag k="place" v="farm" />
		<tag k="ssr:stedsnr" v="456476" />
	</node>
	<node lat="60.43621388638112" lon="10.486908327459572" id="-23475">
		<tag k="name" v="Rossumhågån" />
		<tag k="place" v="farm" />
		<tag k="ssr:stedsnr" v="456760" />
	</node>
	<node lat="60.37536666368437" lon="10.625305548079004" id="-23485">
		<tag k="name" v="Lundehøgda" />
		<tag k="place" v="isolated_dwelling" />
		<tag k="ssr:stedsnr" v="673118" />
	</node>
	<node lat="60.37678333129322" lon="10.654147222499194" id="-23486">
		<tag k="historic" v="shieling" />
		<tag k="name" v="Tokerudsætra" />
		<tag k="place" v="isolated_dwelling" />
		<tag k="ssr:stedsnr" v="673119" />
	</node>
	<node lat="60.33975832991862" lon="10.399436104119182" id="-23487">
		<tag k="name" v="Kjerkevik" />
		<tag k="place" v="farm" />
		<tag k="ssr:stedsnr" v="673037" />
	</node>
	<node lat="60.40575833615858" lon="10.435272228276974" id="-23488">
		<tag k="name" v="Bentestua" />
		<tag k="place" v="farm" />
		<tag k="ssr:stedsnr" v="673200" />
	</node>
	<node lat="60.46406944723347" lon="10.185086112910106" id="-23492">
		<tag k="name" v="Venemyrhytta" />
		<tag k="place" v="isolated_dwelling" />
		<tag k="ssr:stedsnr" v="673555" />
	</node>
	<node lat="60.48970000347856" lon="10.331808324725776" id="-23497">
		<tag k="name" v="Prestrud" />
		<tag k="place" v="isolated_dwelling" />
		<tag k="ssr:stedsnr" v="673701" />
	</node>
	<node lat="60.326675003369694" lon="10.559261110744872" id="-23498">
		<tag k="alt_name" v="Enelia" />
		<tag k="name" v="Endlia" />
		<tag k="place" v="farm" />
		<tag k="ssr:stedsnr" v="673949" />
	</node>
	<node lat="60.34841666855646" lon="10.439455564097823" id="-23499">
		<tag k="name" v="Åserud" />
		<tag k="place" v="farm" />
		<tag k="ssr:stedsnr" v="674040" />
	</node>
	<node lat="60.35093200164731" lon="10.500276225302443" id="-23500">
		<tag k="fixme" v="consider place=hamlet" />
		<tag k="name" v="Gamme" />
		<tag k="place" v="farm" />
		<tag k="ssr:stedsnr" v="674042" />
	</node>
	<node lat="60.5327830322919" lon="10.603952488150304" id="-23505">
		<tag k="name" v="Lysingen" />
		<tag k="place" v="locality" />
		<tag k="ssr:stedsnr" v="674088" />
	</node>
	<node lat="60.538741663470226" lon="10.378002772817112" id="-23506">
		<tag k="alt_name" v="Kalvskinnsætra" />
		<tag k="historic" v="shieling" />
		<tag k="name" v="Hornsætra" />
		<tag k="place" v="isolated_dwelling" />
		<tag k="ssr:stedsnr" v="674098" />
	</node>
	<node lat="60.43141944441914" lon="10.468569447350925" id="-23507">
		<tag k="fixme" v="consider place=hamlet" />
		<tag k="name" v="Røykenvik" />
		<tag k="place" v="village" />
		<tag k="ssr:stedsnr" v="674148" />
	</node>
	<node lat="60.43754722297228" lon="10.49485276969685" id="-23508">
		<tag k="name" v="Egge" />
		<tag k="place" v="farm" />
		<tag k="ssr:stedsnr" v="674223" />
	</node>
	<node lat="60.4463277778014" lon="10.35825277419744" id="-23509">
		<tag k="name" v="Vestern" />
		<tag k="place" v="farm" />
		<tag k="ssr:stedsnr" v="674227" />
	</node>
	<node lat="60.3266111092362" lon="10.566849996543771" id="-23510">
		<tag k="name" v="Søndre Bjørge" />
		<tag k="place" v="farm" />
		<tag k="ssr:stedsnr" v="464065" />
	</node>
	<node lat="60.52102778036395" lon="10.275366674561257" id="-23514">
		<tag k="name" v="Kvernhaugen" />
		<tag k="place" v="farm" />
		<tag k="ssr:stedsnr" v="674472" />
	</node>
	<node lat="60.52600555360792" lon="10.221375005530536" id="-23515">
		<tag k="name" v="Sevaldsholet" />
		<tag k="place" v="farm" />
		<tag k="ssr:stedsnr" v="674476" />
	</node>
	<node lat="60.31671666918051" lon="10.424036108419536" id="-23516">
		<tag k="alt_name" v="Heier" />
		<tag k="name" v="Øvre Heier" />
		<tag k="place" v="farm" />
		<tag k="ssr:stedsnr" v="674912" />
	</node>
	<node lat="60.50018611401069" lon="10.476000001101369" id="-23517">
		<tag k="alt_name" v="Løvbrøtte" />
		<tag k="name" v="Lauvbrøtet" />
		<tag k="place" v="farm" />
		<tag k="ssr:stedsnr" v="674881" />
	</node>
	<node lat="60.32206944829771" lon="10.602777770259179" id="-23518">
		<tag k="alt_name" v="Sløtte" />
		<tag k="name" v="Slottet" />
		<tag k="place" v="farm" />
		<tag k="ssr:stedsnr" v="674888" />
	</node>
	<node lat="60.33028055905533" lon="10.612013890659696" id="-23519">
		<tag k="name" v="Sletta" />
		<tag k="place" v="farm" />
		<tag k="ssr:stedsnr" v="674935" />
	</node>
	<node lat="60.32926388876554" lon="10.59003611266714" id="-23520">
		<tag k="alt_name" v="Dynna, vestre" />
		<tag k="name" v="Vestre Dynna" />
		<tag k="place" v="farm" />
		<tag k="ssr:stedsnr" v="674937" />
	</node>
	<node lat="60.365005553757236" lon="10.893850000325704" id="-23524">
		<tag k="name" v="Grindåkerbakken" />
		<tag k="place" v="locality" />
		<tag k="ssr:stedsnr" v="475219" />
	</node>
	<node lat="60.419803901072456" lon="10.51323421221911" id="-23525">
		<tag k="amenity" v="school" />
		<tag k="name" v="Brandbu ungdomsskole" />
		<tag k="ssr:stedsnr" v="272170" />
	</node>
	<node lat="60.37244444592285" lon="10.544700006107544" id="-23529">
		<tag k="name" v="Engestad" />
		<tag k="place" v="farm" />
		<tag k="ssr:stedsnr" v="476230" />
	</node>
	<node lat="60.41891944835378" lon="10.776380557602133" id="-23534">
		<tag k="name" v="Tommelsjøhytta" />
		<tag k="place" v="isolated_dwelling" />
		<tag k="ssr:stedsnr" v="476872" />
	</node>
	<node lat="60.36198610775138" lon="10.517702780979741" id="-23536">
		<tag k="name" v="Nordlund" />
		<tag k="place" v="farm" />
		<tag k="ssr:stedsnr" v="491005" />
	</node>
	<node lat="60.36233611543468" lon="10.41480000445058" id="-23537">
		<tag k="name" v="Furunes" />
		<tag k="place" v="farm" />
		<tag k="ssr:stedsnr" v="491018" />
	</node>
	<node lat="60.36649444690139" lon="10.528161109635334" id="-23538">
		<tag k="name" v="Granavolden Gjæstgiveri" />
		<tag k="ssr:stedsnr" v="491028" />
		<tag k="tourism" v="hotel" />
	</node>
	<node lat="60.36466111251836" lon="10.511597216585594" id="-23539">
		<tag k="alt_name" v="Ekeren" />
		<tag k="name" v="Ekern" />
		<tag k="place" v="farm" />
		<tag k="ssr:stedsnr" v="491031" />
	</node>
	<node lat="60.34516111193082" lon="10.402330547550324" id="-23540">
		<tag k="name" v="Vang" />
		<tag k="place" v="farm" />
		<tag k="ssr:stedsnr" v="491036" />
	</node>
	<node lat="60.422138887618146" lon="10.50427777831208" id="-23542">
		<tag k="name" v="Brandbu" />
		<tag k="place" v="village" />
		<tag k="ssr:stedsnr" v="491131" />
	</node>
	<node lat="60.42520099163312" lon="10.51511411410009" id="-23543">
		<tag k="alt_name" v="Bjørke;Nordre Bjerke" />
		<tag k="fixme" v="consider place=hamlet" />
		<tag k="name" v="Nordre Bjørke" />
		<tag k="place" v="farm" />
		<tag k="ssr:stedsnr" v="491133" />
	</node>
	<node lat="60.471121622284514" lon="10.388241920372767" id="-23545">
		<tag k="fixme" v="consider place=hamlet" />
		<tag k="name" v="Berven" />
		<tag k="place" v="farm" />
		<tag k="ssr:stedsnr" v="491193" />
	</node>
	<node lat="60.468655559449125" lon="10.517924997536635" id="-23547">
		<tag k="name" v="Badstubakken" />
		<tag k="place" v="farm" />
		<tag k="ssr:stedsnr" v="491201" />
	</node>
	<node lat="60.49027222249215" lon="10.612927778547233" id="-23548">
		<tag k="historic" v="shieling" />
		<tag k="name" v="Elkensætra" />
		<tag k="place" v="isolated_dwelling" />
		<tag k="ssr:stedsnr" v="491325" />
	</node>
	<node lat="60.48650589588993" lon="10.429939629738403" id="-23549">
		<tag k="fixme" v="consider place=hamlet" />
		<tag k="name" v="Eid" />
		<tag k="place" v="farm" />
		<tag k="ssr:stedsnr" v="491328" />
	</node>
	<node lat="60.38275555465629" lon="10.476124995150869" id="-23550">
		<tag k="alt_name" v="Østen" />
		<tag k="name" v="Vestre Østen" />
		<tag k="place" v="farm" />
		<tag k="ssr:stedsnr" v="491076" />
	</node>
	<node lat="60.38943888853923" lon="10.4253888977883" id="-23551">
		<tag k="name" v="Hovshagan" />
		<tag k="place" v="farm" />
		<tag k="ssr:stedsnr" v="491083" />
	</node>
	<node lat="60.389350002811746" lon="10.585808339583712" id="-23553">
		<tag k="name" v="Kvernstad" />
		<tag k="place" v="farm" />
		<tag k="ssr:stedsnr" v="491087" />
	</node>
	<node lat="60.3929027818512" lon="10.52610277650216" id="-23554">
		<tag k="alt_name" v="Røysum, s;Røysum" />
		<tag k="name" v="Søndre Røysum" />
		<tag k="place" v="farm" />
		<tag k="ssr:stedsnr" v="491093" />
	</node>
	<node lat="60.4806194476039" lon="10.388838887845411" id="-23557">
		<tag k="name" v="Ulsberget" />
		<tag k="place" v="farm" />
		<tag k="ssr:stedsnr" v="491210" />
	</node>
	<node lat="60.38467777478503" lon="10.88020278005211" id="-23564">
		<tag k="name" v="Nordsæterstua" />
		<tag k="place" v="isolated_dwelling" />
		<tag k="ssr:stedsnr" v="491589" />
	</node>
	<node lat="60.498479592592815" lon="10.252178345762312" id="-23568">
		<tag k="fixme" v="consider place=hamlet" />
		<tag k="name" v="Sollia" />
		<tag k="place" v="farm" />
		<tag k="ssr:stedsnr" v="491718" />
	</node>
	<node lat="60.4975333370593" lon="10.24814444142938" id="-23569">
		<tag k="name" v="Fossum" />
		<tag k="place" v="farm" />
		<tag k="ssr:stedsnr" v="491719" />
	</node>
	<node lat="60.49625277660511" lon="10.236116675557602" id="-23570">
		<tag k="name" v="Flattum" />
		<tag k="place" v="farm" />
		<tag k="ssr:stedsnr" v="491720" />
	</node>
	<node lat="60.3929055512812" lon="10.827447226922143" id="-23571">
		<tag k="alt_name" v="Finnlangen, nedre;Langen" />
		<tag k="name" v="Nedre Finnlangen" />
		<tag k="place" v="farm" />
		<tag k="ssr:stedsnr" v="491603" />
	</node>
	<node lat="60.34308760102758" lon="10.431018598243293" id="-23574">
		<tag k="fixme" v="consider place=hamlet" />
		<tag k="name" v="Dal" />
		<tag k="place" v="farm" />
		<tag k="ssr:stedsnr" v="491972" />
	</node>
	<node lat="60.33681366935523" lon="10.460679772235888" id="-23575">
		<tag k="fixme" v="consider place=hamlet" />
		<tag k="name" v="Gautveit" />
		<tag k="place" v="farm" />
		<tag k="ssr:stedsnr" v="491976" />
	</node>
	<node lat="60.425966784320345" lon="10.38643809236608" id="-23578">
		<tag k="alt_name" v="Toverud, midtre;Toverud" />
		<tag k="name" v="Midtre Toverud" />
		<tag k="place" v="farm" />
		<tag k="ssr:stedsnr" v="492113" />
	</node>
	<node lat="60.54106944248064" lon="10.411683330946339" id="-23580">
		<tag k="name" v="Dammen" />
		<tag k="place" v="isolated_dwelling" />
		<tag k="ssr:stedsnr" v="492076" />
	</node>
	<node lat="60.428224995958935" lon="10.501111103034837" id="-23582">
		<tag k="name" v="Neristua Dælen" />
		<tag k="place" v="farm" />
		<tag k="ssr:stedsnr" v="272199" />
	</node>
	<node lat="60.43350833464703" lon="10.495372229121728" id="-23583">
		<tag k="alt_name" v="Nest-Egge" />
		<tag k="fixme" v="consider place=hamlet" />
		<tag k="name" v="Nedst-Egge" />
		<tag k="place" v="farm" />
		<tag k="ssr:stedsnr" v="272201" />
	</node>
	<node lat="60.39607499664169" lon="10.556794436249374" id="-23584">
		<tag k="name" v="Tømte" />
		<tag k="place" v="farm" />
		<tag k="ssr:stedsnr" v="514283" />
	</node>
	<node lat="60.36721666897074" lon="10.603824993347251" id="-23585">
		<tag k="name" v="Lynne" />
		<tag k="place" v="farm" />
		<tag k="ssr:stedsnr" v="514511" />
	</node>
	<node lat="60.41233888635501" lon="10.552905555114647" id="-23586">
		<tag k="name" v="Steinerud" />
		<tag k="place" v="quarter" />
		<tag k="ssr:stedsnr" v="514812" />
	</node>
	<node lat="60.366952776592086" lon="10.449550001560567" id="-23590">
		<tag k="name" v="Blili" />
		<tag k="place" v="farm" />
		<tag k="ssr:stedsnr" v="516270" />
	</node>
	<node lat="60.35118333623236" lon="10.432783336548377" id="-23591">
		<tag k="name" v="Nyhus" />
		<tag k="place" v="farm" />
		<tag k="ssr:stedsnr" v="516278" />
	</node>
	<node lat="60.506105558863005" lon="10.47868610739618" id="-23593">
		<tag k="name" v="Flisbanen" />
		<tag k="place" v="locality" />
		<tag k="ssr:stedsnr" v="516604" />
	</node>
	<node lat="60.53834444238332" lon="10.41763055308098" id="-23595">
		<tag k="historic" v="shieling" />
		<tag k="name" v="Gjerviksætra" />
		<tag k="place" v="isolated_dwelling" />
		<tag k="ssr:stedsnr" v="516621" />
	</node>
	<node lat="60.44111111429781" lon="10.246477776428595" id="-23601">
		<tag k="name" v="Vesterheimen" />
		<tag k="place" v="isolated_dwelling" />
		<tag k="ssr:stedsnr" v="535284" />
	</node>
	<node lat="60.50823055183702" lon="10.168538890131293" id="-23602">
		<tag k="name" v="Eidsbråtåbråtån" />
		<tag k="place" v="locality" />
		<tag k="ssr:stedsnr" v="536079" />
	</node>
	<node lat="60.370522207829985" lon="10.577480437530042" id="-23612">
		<tag k="name" v="Nordenga" />
		<tag k="place" v="farm" />
		<tag k="ssr:stedsnr" v="537269" />
	</node>
	<node lat="60.41452499754017" lon="10.804449997599965" id="-23619">
		<tag k="name" v="Huldretjernshytta" />
		<tag k="place" v="isolated_dwelling" />
		<tag k="ssr:stedsnr" v="537884" />
	</node>
	<node lat="60.44611944477123" lon="10.342033338434149" id="-23620">
		<tag k="name" v="Myra" />
		<tag k="place" v="farm" />
		<tag k="ssr:stedsnr" v="551515" />
	</node>
	<node lat="60.46245466745899" lon="10.244691470586723" id="-23621">
		<tag k="fixme" v="consider place=hamlet" />
		<tag k="name" v="Vestland" />
		<tag k="place" v="farm" />
		<tag k="ssr:stedsnr" v="551527" />
	</node>
	<node lat="60.47230833421104" lon="10.296927768909478" id="-23622">
		<tag k="historic" v="shieling" />
		<tag k="name" v="Strandesætra" />
		<tag k="place" v="isolated_dwelling" />
		<tag k="ssr:stedsnr" v="551549" />
	</node>
</osm>
