<?xml version="1.0" encoding="UTF-8"?>
<<<<<<< HEAD
<osm version="0.6" generator="osmapis">
	<node lat="60.39511111307281" lon="10.485661104967244" id="-21095">
		<tag k="amenity" v="place_of_worship" />
		<tag k="denomination" v="lutheran" />
		<tag k="name" v="Tingelstad kirke" />
		<tag k="religion" v="christian" />
		<tag k="ssr:stedsnr" v="6178" />
	</node>
	<node lat="60.5102527799683" lon="10.202141665568911" id="-21124">
		<tag k="name" v="Nordstø" />
		<tag k="place" v="locality" />
		<tag k="ssr:stedsnr" v="233364" />
	</node>
	<node lat="60.343238885305645" lon="10.406652770287264" id="-21211">
		<tag k="amenity" v="community_centre" />
		<tag k="name" v="Fjordvang" />
		<tag k="ssr:stedsnr" v="248034" />
	</node>
	<node lat="60.39391666591786" lon="10.510233330712415" id="-21390">
		<tag k="amenity" v="place_of_worship" />
		<tag k="denomination" v="lutheran" />
		<tag k="name" v="Tingelstad gamle kirke" />
		<tag k="religion" v="christian" />
		<tag k="ssr:stedsnr" v="211079" />
	</node>
	<node lat="60.39565277530154" lon="10.511541657885232" id="-21413">
		<tag k="name" v="Hadeland folkemuseum" />
		<tag k="ssr:stedsnr" v="271080" />
		<tag k="tourism" v="museum" />
	</node>
	<node lat="60.41515277826791" lon="10.544941664822971" id="-21535">
=======
<osm generator="osmapis" version="0.6">
	<node id="-387072" lat="60.4151527783" lon="10.5449416648">
>>>>>>> e1d4bc35ff8a6074a6f2e91616a996b547c36f15
		<tag k="amenity" v="place_of_worship" />
		<tag k="denomination" v="lutheran" />
		<tag k="name" v="Moen kirke" />
		<tag k="religion" v="christian" />
		<tag k="ssr:stedsnr" v="309202" />
	</node>
<<<<<<< HEAD
	<node lat="60.516797222935324" lon="10.295427781478004" id="-21553">
		<tag k="amenity" v="place_of_worship" />
		<tag k="denomination" v="lutheran" />
		<tag k="name" v="Sørum kirke" />
		<tag k="religion" v="christian" />
		<tag k="ssr:stedsnr" v="310502" />
	</node>
	<node lat="60.518591665640955" lon="10.182672230969807" id="-21585">
=======
	<node id="-385272" lat="60.51025278" lon="10.2021416656">
		<tag k="name" v="Nordstø" />
		<tag k="place" v="locality" />
		<tag k="ssr:stedsnr" v="233364" />
	</node>
	<node id="-386666" lat="60.4698249972" lon="10.3757888884">
		<tag k="name" v="Haraldfallet" />
		<tag k="place" v="locality" />
		<tag k="ssr:stedsnr" v="51792" />
	</node>
	<node id="-387559" lat="60.4166305588" lon="10.5132944476">
		<tag k="amenity" v="community_centre" />
		<tag k="name" v="Bergslia" />
		<tag k="ssr:stedsnr" v="575169" />
	</node>
	<node id="-387173" lat="60.5185916656" lon="10.182672231">
>>>>>>> e1d4bc35ff8a6074a6f2e91616a996b547c36f15
		<tag k="name" v="Putterstø" />
		<tag k="place" v="locality" />
		<tag k="ssr:stedsnr" v="354158" />
	</node>
<<<<<<< HEAD
	<node lat="60.430847225364545" lon="10.454316662664912" id="-21633">
		<tag k="amenity" v="place_of_worship" />
		<tag k="denomination" v="lutheran" />
		<tag k="name" v="Nes kirke" />
		<tag k="old_name" v="Brandbu" />
		<tag k="religion" v="christian" />
		<tag k="ssr:stedsnr" v="370180" />
	</node>
	<node lat="60.437991666593895" lon="10.67421388870097" id="-21677">
		<tag k="name" v="Dritergranknipen" />
=======
	<node id="-387299" lat="60.4932361153" lon="10.4463999927">
		<tag k="name" v="Kvernhusbakken" />
		<tag k="place" v="locality" />
		<tag k="ssr:stedsnr" v="395255" />
	</node>
	<node id="-387288" lat="60.3334833321" lon="10.6106083419">
		<tag k="name" v="Svingehaugen" />
>>>>>>> e1d4bc35ff8a6074a6f2e91616a996b547c36f15
		<tag k="place" v="locality" />
		<tag k="ssr:stedsnr" v="484437" />
	</node>
<<<<<<< HEAD
	<node lat="60.36478611439425" lon="10.56313332598949" id="-21921">
=======
	<node id="-386005" lat="60.4321638916" lon="10.4660194447">
>>>>>>> e1d4bc35ff8a6074a6f2e91616a996b547c36f15
		<tag k="amenity" v="community_centre" />
		<tag k="name" v="Kløverhagen" />
		<tag k="ssr:stedsnr" v="537018" />
	</node>
<<<<<<< HEAD
	<node lat="60.36836944395802" lon="10.524133333942153" id="-21969">
=======
	<node id="-385998" lat="60.3664777806" lon="10.5295444373">
		<tag k="amenity" v="place_of_worship" />
		<tag k="denomination" v="lutheran" />
		<tag k="name" v="Mariakirken" />
		<tag k="religion" v="christian" />
		<tag k="ssr:stedsnr" v="707280" />
	</node>
	<node id="-386001" lat="60.368369444" lon="10.5241333339">
>>>>>>> e1d4bc35ff8a6074a6f2e91616a996b547c36f15
		<tag k="name" v="Steinhuset" />
		<tag k="ssr:stedsnr" v="574654" />
		<tag k="tourism" v="museum" />
	</node>
<<<<<<< HEAD
	<node lat="60.36647778064423" lon="10.529544437296769" id="-22092">
		<tag k="amenity" v="place_of_worship" />
		<tag k="denomination" v="lutheran" />
		<tag k="name" v="Mariakirken" />
		<tag k="religion" v="christian" />
		<tag k="ssr:stedsnr" v="707280" />
	</node>
	<node lat="60.35830555737844" lon="10.58565000792434" id="-22275">
=======
	<node id="-386510" lat="60.3666069679" lon="10.5294925034">
		<tag k="amenity" v="place_of_worship" />
		<tag k="denomination" v="lutheran" />
		<tag k="name" v="Søsterkirkene" />
		<tag k="religion" v="christian" />
		<tag k="ssr:stedsnr" v="916024" />
	</node>
	<node id="-386372" lat="60.3583055574" lon="10.5856500079">
>>>>>>> e1d4bc35ff8a6074a6f2e91616a996b547c36f15
		<tag k="amenity" v="place_of_worship" />
		<tag k="denomination" v="lutheran" />
		<tag k="name" v="Ål kirke" />
		<tag k="religion" v="christian" />
		<tag k="ssr:stedsnr" v="795009" />
	</node>
<<<<<<< HEAD
=======
	<node id="-387006" lat="60.3939166659" lon="10.5102333307">
		<tag k="amenity" v="place_of_worship" />
		<tag k="denomination" v="lutheran" />
		<tag k="name" v="Tingelstad gamle kirke" />
		<tag k="religion" v="christian" />
		<tag k="ssr:stedsnr" v="211079" />
	</node>
	<node id="-387119" lat="60.5167972229" lon="10.2954277815">
		<tag k="amenity" v="place_of_worship" />
		<tag k="denomination" v="lutheran" />
		<tag k="name" v="Sørum kirke" />
		<tag k="religion" v="christian" />
		<tag k="ssr:stedsnr" v="310502" />
	</node>
	<node id="-387502" lat="60.3401833312" lon="10.4042083246">
		<tag k="amenity" v="place_of_worship" />
		<tag k="denomination" v="lutheran" />
		<tag k="name" v="Grymyr kirke" />
		<tag k="religion" v="christian" />
		<tag k="ssr:stedsnr" v="552056" />
	</node>
	<node id="-385453" lat="60.4556972186" lon="10.5561666644">
		<tag k="name" v="Halvmilsstolpen" />
		<tag k="place" v="locality" />
		<tag k="ssr:stedsnr" v="274840" />
	</node>
	<node id="-387235" lat="60.4308472254" lon="10.4543166627">
		<tag k="amenity" v="place_of_worship" />
		<tag k="denomination" v="lutheran" />
		<tag k="name" v="Nes kirke" />
		<tag k="old_name" v="Brandbu" />
		<tag k="religion" v="christian" />
		<tag k="ssr:stedsnr" v="370180" />
	</node>
	<node id="-387477" lat="60.3647861144" lon="10.563133326">
		<tag k="amenity" v="community_centre" />
		<tag k="name" v="Kløverhagen" />
		<tag k="ssr:stedsnr" v="537018" />
	</node>
	<node id="-385428" lat="60.3956527753" lon="10.5115416579">
		<tag k="name" v="Hadeland folkemuseum" />
		<tag k="ssr:stedsnr" v="271080" />
		<tag k="tourism" v="museum" />
	</node>
	<node id="-386067" lat="60.4030833361" lon="10.5360972284">
		<tag k="amenity" v="community_centre" />
		<tag k="name" v="Folkvang" />
		<tag k="ssr:stedsnr" v="612177" />
	</node>
	<node id="-385325" lat="60.3432388853" lon="10.4066527703">
		<tag k="amenity" v="community_centre" />
		<tag k="name" v="Fjordvang" />
		<tag k="ssr:stedsnr" v="248034" />
	</node>
	<node id="-386571" lat="60.3951111131" lon="10.485661105">
		<tag k="amenity" v="place_of_worship" />
		<tag k="denomination" v="lutheran" />
		<tag k="name" v="Tingelstad kirke" />
		<tag k="religion" v="christian" />
		<tag k="ssr:stedsnr" v="6178" />
	</node>
	<node id="-386692" lat="60.3829055538" lon="10.5774222167">
		<tag k="amenity" v="community_centre" />
		<tag k="name" v="Solheim" />
		<tag k="ssr:stedsnr" v="67085" />
	</node>
	<node id="-385666" lat="60.4379916666" lon="10.6742138887">
		<tag k="name" v="Dritergranknipen" />
		<tag k="place" v="locality" />
		<tag k="ssr:stedsnr" v="484437" />
	</node>
	<node id="-387841" lat="60.3667666649" lon="10.5295027795">
		<tag k="amenity" v="place_of_worship" />
		<tag k="denomination" v="lutheran" />
		<tag k="name" v="Nikolaikirken" />
		<tag k="old_name" v="Gran" />
		<tag k="religion" v="christian" />
		<tag k="ssr:stedsnr" v="795045" />
	</node>
>>>>>>> e1d4bc35ff8a6074a6f2e91616a996b547c36f15
</osm>
