<?xml version="1.0" encoding="UTF-8"?>
<osm version="0.6" generator="osmapis">
	<node lat="62.117850000338144" lon="8.862616665709012" id="-30041">
		<tag k="name" v="Lesja kommune" />
		<tag k="ssr:date" v="2019-12-27" />
		<tag k="ssr:gruppe" v="administrativeIndelinger" />
		<tag k="ssr:hovedgruppe" v="offentligAdministrasjon" />
		<tag k="ssr:stedsnr" v="571755" />
		<tag k="ssr:type" v="kommune" />
	</node>
	<node lat="62.09293333555606" lon="9.110813896691509" id="-31144">
		<tag k="alt_name" v="Raumabana" />
		<tag k="name" v="Raumabanen" />
		<tag k="ssr:date" v="2019-12-27" />
		<tag k="ssr:gruppe" v="bane" />
		<tag k="ssr:hovedgruppe" v="infrastruktur" />
		<tag k="ssr:stedsnr" v="657956" />
		<tag k="ssr:type" v="banestrekning" />
	</node>
	<node lat="60.795248707246294" lon="11.082591224285064" id="-31439">
		<tag k="name" v="Innlandet fylke" />
		<tag k="ssr:date" v="2021-06-08" />
		<tag k="ssr:gruppe" v="administrativeIndelinger" />
		<tag k="ssr:hovedgruppe" v="offentligAdministrasjon" />
		<tag k="ssr:stedsnr" v="1074406" />
		<tag k="ssr:type" v="fylke" />
	</node>
	<node lat="62.263831082555896" lon="8.232360942128938" id="-31444">
		<tag k="name" v="Lisvingen" />
		<tag k="ssr:date" v="2021-05-06" />
		<tag k="ssr:gruppe" v="veg" />
		<tag k="ssr:hovedgruppe" v="infrastruktur" />
		<tag k="ssr:stedsnr" v="1081187" />
		<tag k="ssr:type" v="adressenavn" />
	</node>
	<node lat="62.26392638858536" lon="8.222881419862244" id="-31445">
		<tag k="name" v="Fjelldronningvegen" />
		<tag k="ssr:date" v="2021-05-06" />
		<tag k="ssr:gruppe" v="veg" />
		<tag k="ssr:hovedgruppe" v="infrastruktur" />
		<tag k="ssr:stedsnr" v="1081186" />
		<tag k="ssr:type" v="adressenavn" />
	</node>
	<node lat="62.246184726692874" lon="8.226176919531742" id="-31446">
		<tag k="name" v="Guståsvegen" />
		<tag k="ssr:date" v="2021-05-06" />
		<tag k="ssr:gruppe" v="veg" />
		<tag k="ssr:hovedgruppe" v="infrastruktur" />
		<tag k="ssr:stedsnr" v="1081188" />
		<tag k="ssr:type" v="adressenavn" />
	</node>
	<node lat="62.246322770384474" lon="8.218210911631662" id="-31447">
		<tag k="name" v="Bøvermoen hyttefelt" />
		<tag k="ssr:date" v="2021-05-06" />
		<tag k="ssr:gruppe" v="veg" />
		<tag k="ssr:hovedgruppe" v="infrastruktur" />
		<tag k="ssr:stedsnr" v="1081193" />
		<tag k="ssr:type" v="adressenavn" />
	</node>
	<node lat="62.235670405714636" lon="8.299871600240495" id="-31448">
		<tag k="name" v="Stormyrberget" />
		<tag k="ssr:date" v="2021-05-06" />
		<tag k="ssr:gruppe" v="veg" />
		<tag k="ssr:hovedgruppe" v="infrastruktur" />
		<tag k="ssr:stedsnr" v="1081190" />
		<tag k="ssr:type" v="adressenavn" />
	</node>
	<node lat="62.23539982534789" lon="8.303077184637965" id="-31449">
		<tag k="name" v="Langranden" />
		<tag k="ssr:date" v="2021-05-06" />
		<tag k="ssr:gruppe" v="veg" />
		<tag k="ssr:hovedgruppe" v="infrastruktur" />
		<tag k="ssr:stedsnr" v="1081191" />
		<tag k="ssr:type" v="adressenavn" />
	</node>
	<node lat="62.24426917216561" lon="8.223201458063768" id="-31450">
		<tag k="name" v="Løskambakken" />
		<tag k="ssr:date" v="2021-05-06" />
		<tag k="ssr:gruppe" v="veg" />
		<tag k="ssr:hovedgruppe" v="infrastruktur" />
		<tag k="ssr:stedsnr" v="1081192" />
		<tag k="ssr:type" v="adressenavn" />
	</node>
	<node lat="62.23614872079466" lon="8.318162281849261" id="-31451">
		<tag k="name" v="Solsida" />
		<tag k="ssr:date" v="2021-05-06" />
		<tag k="ssr:gruppe" v="veg" />
		<tag k="ssr:hovedgruppe" v="infrastruktur" />
		<tag k="ssr:stedsnr" v="1081194" />
		<tag k="ssr:type" v="adressenavn" />
	</node>
	<node lat="62.26586906811884" lon="8.22513637421149" id="-31452">
		<tag k="name" v="Heggevegen" />
		<tag k="old_name" v="Hegganvegen" />
		<tag k="ssr:date" v="2021-05-06" />
		<tag k="ssr:gruppe" v="veg" />
		<tag k="ssr:hovedgruppe" v="infrastruktur" />
		<tag k="ssr:stedsnr" v="1081195" />
		<tag k="ssr:type" v="adressenavn" />
	</node>
	<node lat="62.24383378492651" lon="8.235780709665763" id="-31453">
		<tag k="name" v="Morkalie" />
		<tag k="ssr:date" v="2021-05-20" />
		<tag k="ssr:gruppe" v="veg" />
		<tag k="ssr:hovedgruppe" v="infrastruktur" />
		<tag k="ssr:stedsnr" v="1081300" />
		<tag k="ssr:type" v="adressenavn" />
	</node>
	<node lat="62.24400244644732" lon="8.234849875188035" id="-31454">
		<tag k="name" v="Lyngvegen" />
		<tag k="ssr:date" v="2021-05-20" />
		<tag k="ssr:gruppe" v="veg" />
		<tag k="ssr:hovedgruppe" v="infrastruktur" />
		<tag k="ssr:stedsnr" v="1081301" />
		<tag k="ssr:type" v="adressenavn" />
	</node>
	<node lat="62.2435708312498" lon="8.235727121604588" id="-31455">
		<tag k="name" v="Einevegen" />
		<tag k="ssr:date" v="2021-05-20" />
		<tag k="ssr:gruppe" v="veg" />
		<tag k="ssr:hovedgruppe" v="infrastruktur" />
		<tag k="ssr:stedsnr" v="1081302" />
		<tag k="ssr:type" v="adressenavn" />
	</node>
</osm>
