<?xml version="1.0" encoding="UTF-8"?>
<<<<<<< HEAD
<osm version="0.6" generator="osmapis">
	<node lat="59.40185958913968" lon="5.244454033772899" id="-2391">
		<tag k="fixme" v="consider place=hamlet" />
		<tag k="name" v="Osnes" />
		<tag k="place" v="farm" />
		<tag k="ssr:stedsnr" v="1618" />
	</node>
	<node lat="59.34699826804133" lon="5.322810194564801" id="-2394">
		<tag k="fixme" v="consider place=hamlet" />
		<tag k="name" v="Snik" />
		<tag k="place" v="farm" />
		<tag k="ssr:stedsnr" v="1515" />
	</node>
	<node lat="59.26711666986869" lon="5.188855553158202" id="-2401">
		<tag k="name" v="Tveit" />
		<tag k="place" v="farm" />
		<tag k="ssr:stedsnr" v="2909" />
	</node>
	<node lat="59.17153384077173" lon="5.21048844447776" id="-2418">
		<tag k="fixme" v="consider place=hamlet" />
		<tag k="name" v="Lie" />
		<tag k="place" v="farm" />
		<tag k="ssr:stedsnr" v="60009" />
	</node>
	<node lat="59.33008611192606" lon="5.351388885908482" id="-2423">
		<tag k="name" v="Ytre Røyksund" />
		<tag k="place" v="farm" />
		<tag k="ssr:stedsnr" v="60220" />
	</node>
	<node lat="59.336752775590526" lon="5.357097218933354" id="-2433">
		<tag k="name" v="Grova" />
		<tag k="place" v="isolated_dwelling" />
		<tag k="ssr:stedsnr" v="60827" />
	</node>
	<node lat="59.273791669183964" lon="5.211297220405293" id="-2434">
		<tag k="name" v="Tangjerd" />
		<tag k="place" v="farm" />
		<tag k="ssr:stedsnr" v="60772" />
	</node>
	<node lat="59.342263891617606" lon="5.275397220565128" id="-2445">
		<tag k="fixme" v="consider place=suburb, village or hamlet" />
		<tag k="name" v="Våge" />
		<tag k="place" v="quarter" />
		<tag k="ssr:stedsnr" v="62509" />
	</node>
	<node lat="59.32105229842903" lon="5.286715906173071" id="-2447">
		<tag k="fixme" v="consider place=hamlet" />
		<tag k="name" v="Meland" />
		<tag k="place" v="farm" />
		<tag k="ssr:stedsnr" v="62983" />
	</node>
	<node lat="59.2246361114779" lon="5.188622225827006" id="-2449">
		<tag k="name" v="Lurane" />
		<tag k="place" v="farm" />
		<tag k="ssr:stedsnr" v="241258" />
	</node>
	<node lat="59.16961666336748" lon="5.2673694366885115" id="-2452">
		<tag k="barrier" v="fence" />
		<tag k="name" v="Storagjerde" />
		<tag k="ssr:stedsnr" v="242891" />
	</node>
	<node lat="59.26191944620609" lon="5.191758338104248" id="-2480">
		<tag k="name" v="Esebør" />
		<tag k="place" v="farm" />
		<tag k="ssr:stedsnr" v="242784" />
	</node>
	<node lat="59.21750833393275" lon="5.321402776034951" id="-2487">
		<tag k="name" v="Tømmervik" />
		<tag k="place" v="farm" />
		<tag k="ssr:stedsnr" v="244124" />
	</node>
	<node lat="59.332102779539746" lon="5.208788882972919" id="-2491">
		<tag k="name" v="Vikastøl" />
		<tag k="place" v="farm" />
		<tag k="ssr:stedsnr" v="244551" />
	</node>
	<node lat="59.368994056410024" lon="5.263094750894352" id="-2493">
		<tag k="alt_name" v="Hauga" />
		<tag k="name" v="Haugo" />
		<tag k="place" v="hamlet" />
		<tag k="ssr:stedsnr" v="244574" />
	</node>
	<node lat="59.319216137881654" lon="5.352261534584898" id="-2506">
		<tag k="alt_name" v="Leirevågen" />
		<tag k="fixme" v="consider place=hamlet" />
		<tag k="name" v="Leirvåg" />
=======
<osm generator="osmapis" version="0.6">
	<node id="-40958" lat="59.2212555586" lon="5.18179444434">
		<tag k="name" v="Kleivadne" />
		<tag k="place" v="farm" />
		<tag k="ssr:stedsnr" v="363227" />
	</node>
	<node id="-39594" lat="59.2907583297" lon="5.36231666447">
		<tag k="name" v="Gravå" />
		<tag k="place" v="farm" />
		<tag k="ssr:stedsnr" v="302614" />
	</node>
	<node id="-40950" lat="59.3135444463" lon="5.28589167261">
		<tag k="name" v="Rabben" />
		<tag k="place" v="farm" />
		<tag k="ssr:stedsnr" v="363119" />
	</node>
	<node id="-40945" lat="59.3765805595" lon="5.29924722521">
		<tag k="name" v="Krona" />
		<tag k="place" v="isolated_dwelling" />
		<tag k="ssr:stedsnr" v="360088" />
	</node>
	<node id="-40944" lat="59.2023788718" lon="5.17932156073">
		<tag k="alt_name" v="Hebnes" />
		<tag k="fixme" v="consider place=hamlet" />
		<tag k="name" v="Hemnes" />
		<tag k="place" v="farm" />
		<tag k="ssr:stedsnr" v="357096" />
	</node>
	<node id="-40931" lat="59.3865459505" lon="5.37333825817">
		<tag k="alt_name" v="Kollnes" />
		<tag k="fixme" v="consider place=hamlet" />
		<tag k="name" v="Kolnes" />
		<tag k="place" v="farm" />
		<tag k="ssr:stedsnr" v="330559" />
	</node>
	<node id="-40914" lat="59.2299777795" lon="5.32217777734">
		<tag k="fixme" v="consider place=hamlet" />
		<tag k="name" v="Snorteland" />
		<tag k="place" v="farm" />
		<tag k="ssr:stedsnr" v="328984" />
	</node>
	<node id="-40912" lat="59.3633333357" lon="5.30793333895">
		<tag k="name" v="Skarhaug" />
		<tag k="place" v="farm" />
		<tag k="ssr:stedsnr" v="328379" />
	</node>
	<node id="-40906" lat="59.3275601529" lon="5.27763752908">
		<tag k="fixme" v="consider place=hamlet" />
		<tag k="name" v="Rygge" />
		<tag k="place" v="farm" />
		<tag k="ssr:stedsnr" v="305996" />
	</node>
	<node id="-40905" lat="59.3266959913" lon="5.34855593418">
		<tag k="alt_name" v="Kjelde;Kjellå" />
		<tag k="name" v="Kjelda" />
		<tag k="place" v="farm" />
		<tag k="ssr:stedsnr" v="305982" />
	</node>
	<node id="-40900" lat="59.286269447" lon="5.39618333845">
		<tag k="name" v="Leirvåg" />
		<tag k="place" v="farm" />
		<tag k="ssr:stedsnr" v="305919" />
	</node>
	<node id="-40891" lat="59.3429999998" lon="5.36745555908">
		<tag k="name" v="Holmen" />
		<tag k="place" v="farm" />
		<tag k="ssr:stedsnr" v="305580" />
	</node>
	<node id="-40888" lat="59.357777782" lon="5.31499999802">
		<tag k="name" v="Vormedal" />
		<tag k="place" v="village" />
		<tag k="ssr:stedsnr" v="305556" />
	</node>
	<node id="-40882" lat="59.1923488335" lon="5.18293539798">
		<tag k="fixme" v="consider place=hamlet" />
		<tag k="name" v="Sandhåland" />
		<tag k="place" v="farm" />
		<tag k="ssr:stedsnr" v="304096" />
	</node>
	<node id="-40870" lat="59.1613333319" lon="5.28168054786">
		<tag k="name" v="Rudlå" />
		<tag k="place" v="farm" />
		<tag k="ssr:stedsnr" v="302661" />
	</node>
	<node id="-40869" lat="59.1580305573" lon="5.2755277827">
		<tag k="name" v="Øvre Vig" />
		<tag k="place" v="hamlet" />
		<tag k="ssr:stedsnr" v="302659" />
	</node>
	<node id="-40864" lat="59.1480333321" lon="5.26461111028">
		<tag k="name" v="Havnafjellet" />
		<tag k="place" v="quarter" />
		<tag k="ssr:stedsnr" v="302550" />
	</node>
	<node id="-40834" lat="59.2715737829" lon="5.19996146843">
		<tag k="alt_name" v="Sevland" />
		<tag k="fixme" v="consider place=hamlet" />
		<tag k="name" v="Sæveland" />
		<tag k="place" v="farm" />
		<tag k="ssr:stedsnr" v="207793" />
	</node>
	<node id="-40829" lat="59.3438972194" lon="5.26845833717">
		<tag k="name" v="Nygard" />
>>>>>>> e1d4bc35ff8a6074a6f2e91616a996b547c36f15
		<tag k="place" v="farm" />
		<tag k="ssr:stedsnr" v="207362" />
	</node>
<<<<<<< HEAD
	<node lat="59.29482777393715" lon="5.218744443347191" id="-2507">
		<tag k="name" v="Veavågen" />
		<tag k="old_name" v="Vedavågen" />
		<tag k="place" v="village" />
		<tag k="ssr:stedsnr" v="245950" />
	</node>
	<node lat="59.16529341490473" lon="5.230780033427619" id="-2515">
		<tag k="fixme" v="consider place=hamlet" />
		<tag k="name" v="Øvre Risdal" />
		<tag k="place" v="farm" />
		<tag k="ssr:stedsnr" v="120126" />
	</node>
	<node lat="59.328969439876815" lon="5.370613882927313" id="-2516">
		<tag k="name" v="Litlanes" />
		<tag k="place" v="farm" />
		<tag k="ssr:stedsnr" v="120214" />
	</node>
	<node lat="59.21192777830106" lon="5.186236116146311" id="-2519">
		<tag k="name" v="Abelshaugen" />
		<tag k="place" v="farm" />
		<tag k="ssr:stedsnr" v="120285" />
	</node>
	<node lat="59.21065821362923" lon="5.178642792624462" id="-2520">
		<tag k="fixme" v="consider place=hamlet" />
		<tag k="name" v="Kvilhaugsvik" />
		<tag k="place" v="farm" />
		<tag k="ssr:stedsnr" v="120286" />
	</node>
	<node lat="59.33002777356037" lon="5.205083333354343" id="-2524">
		<tag k="historic" v="shieling" />
		<tag k="name" v="Stølen" />
		<tag k="place" v="isolated_dwelling" />
		<tag k="ssr:stedsnr" v="120468" />
	</node>
	<node lat="59.35774758455329" lon="5.275086137853893" id="-2535">
		<tag k="name" v="Uvik" />
		<tag k="place" v="farm" />
		<tag k="ssr:stedsnr" v="120776" />
	</node>
	<node lat="59.212691663974695" lon="5.194738895507916" id="-2538">
		<tag k="name" v="Langåker" />
		<tag k="place" v="farm" />
		<tag k="ssr:stedsnr" v="122006" />
	</node>
	<node lat="59.17522818613016" lon="5.195862712175084" id="-2541">
		<tag k="name" v="Sandve" />
		<tag k="place" v="village" />
		<tag k="ssr:stedsnr" v="122070" />
	</node>
	<node lat="59.34740205151002" lon="5.370385398337273" id="-2547">
		<tag k="alt_name" v="Ysthus" />
		<tag k="fixme" v="consider place=hamlet" />
		<tag k="name" v="Østhus" />
		<tag k="place" v="farm" />
		<tag k="ssr:stedsnr" v="123569" />
	</node>
	<node lat="59.17759902919336" lon="5.2906286134574225" id="-2549">
		<tag k="fixme" v="consider place=hamlet" />
		<tag k="name" v="Dale" />
		<tag k="place" v="farm" />
		<tag k="ssr:stedsnr" v="123462" />
	</node>
	<node lat="59.27654999717822" lon="5.394997217549879" id="-2561">
		<tag k="fixme" v="consider place=hamlet" />
		<tag k="name" v="Høvring" />
		<tag k="place" v="farm" />
		<tag k="ssr:stedsnr" v="148666" />
	</node>
	<node lat="59.23206666715692" lon="5.197072215063605" id="-2571">
		<tag k="name" v="Berget" />
		<tag k="place" v="farm" />
		<tag k="ssr:stedsnr" v="181215" />
	</node>
	<node lat="59.2186777801387" lon="5.198425005985804" id="-2577">
		<tag k="name" v="Jarlehaug" />
		<tag k="place" v="farm" />
		<tag k="ssr:stedsnr" v="181315" />
	</node>
	<node lat="59.26558055815954" lon="5.3172805624993025" id="-2579">
		<tag k="name" v="Rindå" />
		<tag k="place" v="farm" />
		<tag k="ssr:stedsnr" v="181513" />
	</node>
	<node lat="59.22273888805876" lon="5.319816669245692" id="-2583">
		<tag k="barrier" v="fence" />
		<tag k="name" v="Hestagjerdet" />
		<tag k="ssr:stedsnr" v="181659" />
	</node>
	<node lat="59.25524999568666" lon="5.196083334571052" id="-2588">
		<tag k="amenity" v="school" />
		<tag k="name" v="Grindhaug" />
		<tag k="ssr:stedsnr" v="181809" />
	</node>
	<node lat="59.263546677314885" lon="5.197313801922784" id="-2589">
		<tag k="name" v="Tjøsvoll" />
		<tag k="place" v="farm" />
		<tag k="ssr:stedsnr" v="181814" />
	</node>
	<node lat="59.392553982050046" lon="5.230799011720979" id="-2600">
		<tag k="fixme" v="consider place=hamlet" />
		<tag k="name" v="Dale" />
		<tag k="place" v="farm" />
		<tag k="ssr:stedsnr" v="183609" />
	</node>
	<node lat="59.34476389273005" lon="5.285694449726551" id="-2603">
		<tag k="name" v="Sørbø" />
		<tag k="place" v="farm" />
		<tag k="ssr:stedsnr" v="184514" />
	</node>
	<node lat="59.3294750005568" lon="5.296408337491671" id="-2610">
		<tag k="name" v="Kolstøneset" />
		<tag k="place" v="farm" />
		<tag k="ssr:stedsnr" v="184983" />
	</node>
	<node lat="59.352869445568516" lon="5.324719446434401" id="-2613">
		<tag k="name" v="Mykje" />
		<tag k="place" v="farm" />
		<tag k="ssr:stedsnr" v="267367" />
	</node>
	<node lat="59.3253888913066" lon="5.35024166351436" id="-2625">
		<tag k="name" v="Svartups" />
		<tag k="place" v="farm" />
		<tag k="ssr:stedsnr" v="269079" />
	</node>
	<node lat="59.330824997145136" lon="5.351786117866944" id="-2637">
		<tag k="name" v="Rinden" />
		<tag k="place" v="farm" />
		<tag k="ssr:stedsnr" v="269187" />
	</node>
	<node lat="59.29413333341205" lon="5.378397229027872" id="-2639">
		<tag k="name" v="Austnes" />
		<tag k="place" v="farm" />
		<tag k="ssr:stedsnr" v="269315" />
	</node>
	<node lat="59.38121666392787" lon="5.230272225973393" id="-2643">
		<tag k="name" v="Prestegarden (Hovland)" />
		<tag k="place" v="farm" />
		<tag k="ssr:stedsnr" v="269840" />
	</node>
	<node lat="59.380079422277554" lon="5.152136566857894" id="-2649">
		<tag k="fixme" v="consider place=hamlet" />
		<tag k="name" v="Feøy" />
		<tag k="place" v="farm" />
		<tag k="ssr:stedsnr" v="269849" />
	</node>
	<node lat="59.310411388040215" lon="5.290472330858044" id="-2668">
		<tag k="alt_name" v="Vorå" />
		<tag k="fixme" v="consider place=hamlet" />
		<tag k="loc_name" v="Våre" />
		<tag k="name" v="Vårå" />
		<tag k="place" v="farm" />
		<tag k="ssr:stedsnr" v="451179" />
	</node>
	<node lat="59.26001944252475" lon="5.1879861040380035" id="-2671">
		<tag k="name" v="Røysene" />
		<tag k="place" v="farm" />
		<tag k="ssr:stedsnr" v="241781" />
	</node>
	<node lat="59.30961628783345" lon="5.279058424825163" id="-2673">
		<tag k="fixme" v="consider place=hamlet" />
		<tag k="name" v="Helgaberg" />
		<tag k="place" v="farm" />
		<tag k="ssr:stedsnr" v="242048" />
	</node>
	<node lat="59.292891665194496" lon="5.214952779867969" id="-2678">
		<tag k="alt_name" v="Ysthusneset" />
		<tag k="name" v="Ytsthusneset" />
		<tag k="place" v="quarter" />
		<tag k="ssr:stedsnr" v="242126" />
	</node>
	<node lat="59.32340555836485" lon="5.349713896098756" id="-2681">
		<tag k="name" v="Varaneset" />
		<tag k="place" v="hamlet" />
		<tag k="ssr:stedsnr" v="242183" />
	</node>
	<node lat="59.24056666899455" lon="5.321841671266388" id="-2705">
		<tag k="fixme" v="consider place=hamlet" />
		<tag k="name" v="Stokkastranda" />
		<tag k="place" v="village" />
		<tag k="ssr:stedsnr" v="244052" />
	</node>
	<node lat="59.22410909432984" lon="5.194028437255217" id="-2706">
		<tag k="fixme" v="consider place=hamlet" />
		<tag k="name" v="Stol" />
		<tag k="place" v="farm" />
		<tag k="ssr:stedsnr" v="244007" />
	</node>
	<node lat="59.158562702629375" lon="5.273378660045613" id="-2712">
		<tag k="fixme" v="consider place=hamlet" />
		<tag k="name" v="Vik" />
		<tag k="place" v="farm" />
		<tag k="ssr:stedsnr" v="244388" />
	</node>
	<node lat="59.38071937379218" lon="5.366499201443824" id="-2714">
		<tag k="fixme" v="consider place=hamlet" />
		<tag k="name" v="Aksnes" />
		<tag k="place" v="farm" />
		<tag k="ssr:stedsnr" v="244584" />
	</node>
	<node lat="59.38707222312169" lon="5.332486107526721" id="-2726">
		<tag k="name" v="Kartmyr" />
		<tag k="place" v="quarter" />
		<tag k="ssr:stedsnr" v="269536" />
	</node>
	<node lat="59.371075176544956" lon="5.263312556673566" id="-2727">
		<tag k="alt_name" v="Øvre Hauge;Haugo øvre" />
		<tag k="fixme" v="consider place=hamlet" />
		<tag k="name" v="Øvre Haugo" />
		<tag k="place" v="farm" />
		<tag k="ssr:stedsnr" v="269829" />
	</node>
	<node lat="59.373094097824264" lon="5.307524618409773" id="-2730">
		<tag k="fixme" v="consider place=hamlet" />
		<tag k="name" v="Norheim" />
		<tag k="place" v="farm" />
		<tag k="ssr:stedsnr" v="269980" />
	</node>
	<node lat="59.163686311767655" lon="5.29910537412588" id="-2731">
		<tag k="fixme" v="consider place=hamlet" />
		<tag k="name" v="Skitnadal" />
		<tag k="place" v="farm" />
		<tag k="ssr:stedsnr" v="283514" />
	</node>
	<node lat="59.378738885771455" lon="5.302163887468779" id="-2734">
		<tag k="name" v="Norheim" />
		<tag k="place" v="farm" />
		<tag k="ssr:stedsnr" v="300103" />
	</node>
	<node lat="59.22127500453512" lon="5.196855558108047" id="-2736">
		<tag k="name" v="Bråtå" />
		<tag k="place" v="farm" />
		<tag k="ssr:stedsnr" v="302321" />
	</node>
	<node lat="59.24631111553076" lon="5.205838889221092" id="-2740">
		<tag k="name" v="Ådland" />
		<tag k="place" v="farm" />
		<tag k="ssr:stedsnr" v="302211" />
	</node>
	<node lat="59.16188275661533" lon="5.298764982180092" id="-2745">
		<tag k="name" v="Lilledal" />
		<tag k="place" v="farm" />
		<tag k="ssr:stedsnr" v="302573" />
	</node>
	<node lat="59.29075832970945" lon="5.362316664472037" id="-2747">
		<tag k="name" v="Gravå" />
		<tag k="place" v="farm" />
		<tag k="ssr:stedsnr" v="302614" />
	</node>
	<node lat="59.39171666968383" lon="5.273077776262029" id="-2749">
		<tag k="name" v="Krosshaug" />
		<tag k="place" v="farm" />
		<tag k="ssr:stedsnr" v="464197" />
	</node>
	<node lat="59.39294166461842" lon="5.370852769324031" id="-2762">
		<tag k="name" v="Midtra Eike" />
		<tag k="place" v="farm" />
		<tag k="ssr:stedsnr" v="328217" />
	</node>
	<node lat="59.4078219568905" lon="5.361004288385593" id="-2763">
		<tag k="alt_name" v="Slettetre" />
		<tag k="name" v="Slettetræet" />
		<tag k="place" v="farm" />
		<tag k="ssr:stedsnr" v="328219" />
	</node>
	<node lat="59.36333333572892" lon="5.307933338952371" id="-2766">
		<tag k="name" v="Skarhaug" />
		<tag k="place" v="farm" />
		<tag k="ssr:stedsnr" v="328379" />
	</node>
	<node lat="59.386545950496156" lon="5.3733382581733276" id="-2781">
		<tag k="alt_name" v="Kollnes" />
		<tag k="fixme" v="consider place=hamlet" />
		<tag k="name" v="Kolnes" />
		<tag k="place" v="farm" />
		<tag k="ssr:stedsnr" v="330559" />
	</node>
	<node lat="59.221255558616065" lon="5.181794444342579" id="-2789">
		<tag k="name" v="Kleivadne" />
		<tag k="place" v="farm" />
		<tag k="ssr:stedsnr" v="363227" />
	</node>
	<node lat="59.21757829004214" lon="5.18863161536979" id="-2792">
		<tag k="name" v="Brekkå" />
		<tag k="place" v="farm" />
		<tag k="ssr:stedsnr" v="363263" />
	</node>
	<node lat="59.34731667075547" lon="5.32231110695703" id="-2798">
		<tag k="name" v="Snik" />
		<tag k="place" v="farm" />
		<tag k="ssr:stedsnr" v="363757" />
	</node>
	<node lat="59.25242975192842" lon="5.211197433013195" id="-2799">
		<tag k="name" v="Håstø" />
		<tag k="place" v="farm" />
		<tag k="ssr:stedsnr" v="363761" />
	</node>
	<node lat="59.283813890093704" lon="5.237572225491646" id="-2800">
		<tag k="name" v="Vedmyr" />
		<tag k="place" v="farm" />
		<tag k="ssr:stedsnr" v="363717" />
	</node>
	<node lat="59.341211111673275" lon="5.363533336926783" id="-2802">
		<tag k="name" v="Plasset" />
		<tag k="place" v="farm" />
		<tag k="ssr:stedsnr" v="363766" />
	</node>
	<node lat="59.34015277421898" lon="5.360074991590573" id="-2803">
		<tag k="name" v="Salheim" />
		<tag k="place" v="isolated_dwelling" />
		<tag k="ssr:stedsnr" v="363767" />
	</node>
	<node lat="59.40287564238248" lon="5.252851723878546" id="-2816">
		<tag k="alt_name" v="Litlesund" />
		<tag k="fixme" v="consider place=hamlet" />
		<tag k="name" v="Litlasund" />
		<tag k="place" v="farm" />
		<tag k="ssr:stedsnr" v="365640" />
	</node>
	<node lat="59.147974997884404" lon="5.252247220751887" id="-2826">
		<tag k="leisure" v="park" />
		<tag k="name" v="Vågen" />
		<tag k="ssr:stedsnr" v="482734" />
	</node>
	<node lat="59.31961666814903" lon="5.369166672689365" id="-2848">
		<tag k="name" v="Botten" />
		<tag k="place" v="farm" />
		<tag k="ssr:stedsnr" v="484187" />
	</node>
	<node lat="59.29871944620771" lon="5.219613879989359" id="-2852">
		<tag k="fixme" v="consider place=suburb, village or hamlet" />
		<tag k="name" v="Sævik" />
		<tag k="place" v="quarter" />
		<tag k="ssr:stedsnr" v="484123" />
	</node>
	<node lat="59.17315117076127" lon="5.278707317705115" id="-2854">
		<tag k="fixme" v="consider place=hamlet" />
		<tag k="name" v="Heggheim" />
		<tag k="place" v="farm" />
		<tag k="ssr:stedsnr" v="484387" />
	</node>
	<node lat="59.32709999995234" lon="5.283988896606096" id="-2855">
		<tag k="name" v="Kollstø" />
		<tag k="place" v="farm" />
		<tag k="ssr:stedsnr" v="484229" />
	</node>
	<node lat="59.15330555125604" lon="5.24485555838423" id="-2859">
		<tag k="name" v="Idlamyr" />
		<tag k="place" v="quarter" />
		<tag k="ssr:stedsnr" v="484520" />
	</node>
	<node lat="59.21392222515884" lon="5.319241667903429" id="-2860">
		<tag k="name" v="Otraplasset" />
		<tag k="place" v="farm" />
		<tag k="ssr:stedsnr" v="484640" />
	</node>
	<node lat="59.31151944330023" lon="5.373141666142474" id="-2881">
		<tag k="name" v="Fosen" />
		<tag k="place" v="farm" />
		<tag k="ssr:stedsnr" v="484943" />
	</node>
	<node lat="59.36541666407309" lon="5.28003610374515" id="-2883">
		<tag k="name" v="Bøkrossen" />
		<tag k="place" v="quarter" />
		<tag k="ssr:stedsnr" v="404212" />
	</node>
	<node lat="59.164177775220395" lon="5.2303527774962175" id="-2896">
		<tag k="alt_name" v="Tongaren" />
		<tag k="name" v="Tungarden" />
		<tag k="place" v="farm" />
		<tag k="ssr:stedsnr" v="487461" />
	</node>
	<node lat="59.36113332994475" lon="5.272758328900541" id="-2901">
		<tag k="name" v="Dalen" />
		<tag k="place" v="farm" />
		<tag k="ssr:stedsnr" v="487592" />
	</node>
	<node lat="59.40737499556107" lon="5.247558327445754" id="-2903">
		<tag k="alt_name" v="Vikjå" />
		<tag k="name" v="Vik" />
		<tag k="place" v="village" />
		<tag k="ssr:stedsnr" v="487658" />
	</node>
	<node lat="59.37380131703099" lon="5.247912523516007" id="-2905">
		<tag k="fixme" v="consider place=hamlet" />
		<tag k="name" v="Stange" />
		<tag k="place" v="farm" />
		<tag k="ssr:stedsnr" v="487634" />
	</node>
	<node lat="59.29629998982053" lon="5.239178701729582" id="-2908">
		<tag k="fixme" v="consider place=hamlet" />
		<tag k="name" v="Sund" />
		<tag k="place" v="farm" />
		<tag k="ssr:stedsnr" v="487949" />
	</node>
	<node lat="59.30938031188924" lon="5.299554186678265" id="-2913">
		<tag k="alt_name" v="Austvik" />
		<tag k="fixme" v="consider place=hamlet" />
		<tag k="name" v="Austevik" />
		<tag k="place" v="farm" />
		<tag k="ssr:stedsnr" v="488986" />
	</node>
	<node lat="59.14555833664552" lon="5.253247218075748" id="-2914">
		<tag k="name" v="Lahammar" />
		<tag k="place" v="isolated_dwelling" />
		<tag k="ssr:stedsnr" v="422750" />
	</node>
	<node lat="59.168636291321924" lon="5.211409678402069" id="-2915">
		<tag k="fixme" v="consider place=hamlet" />
		<tag k="name" v="Kyrkjeleite" />
		<tag k="place" v="farm" />
		<tag k="ssr:stedsnr" v="424020" />
	</node>
	<node lat="59.31799444210683" lon="5.308969449169542" id="-2922">
		<tag k="building" v="industrial" />
		<tag k="industrial" v="factory" />
		<tag k="name" v="Hydro Aliminium Karmøy" />
		<tag k="ssr:stedsnr" v="424245" />
	</node>
	<node lat="59.22501389034577" lon="5.190105554338711" id="-2924">
		<tag k="name" v="Stol" />
		<tag k="place" v="farm" />
		<tag k="ssr:stedsnr" v="424249" />
	</node>
	<node lat="59.187602780732796" lon="5.286163887771506" id="-2932">
		<tag k="historic" v="shieling" />
		<tag k="name" v="Tjøstheim" />
		<tag k="place" v="isolated_dwelling" />
		<tag k="ssr:stedsnr" v="424646" />
	</node>
	<node lat="59.37889780691218" lon="5.2849291199747395" id="-2948">
		<tag k="fixme" v="consider place=hamlet" />
		<tag k="name" v="Gunnarshaug" />
		<tag k="place" v="farm" />
		<tag k="ssr:stedsnr" v="426578" />
	</node>
	<node lat="59.1570897219216" lon="5.220745940169115" id="-2949">
		<tag k="alt_name" v="Grødem" />
		<tag k="fixme" v="consider place=hamlet" />
		<tag k="name" v="Grøtheim" />
		<tag k="place" v="farm" />
		<tag k="ssr:stedsnr" v="427409" />
	</node>
	<node lat="59.367127565019096" lon="5.265247622026515" id="-2965">
		<tag k="alt_name" v="Nedre Hauge;Haugo nedre" />
		<tag k="fixme" v="consider place=hamlet" />
		<tag k="name" v="Nedre Haugo" />
		<tag k="place" v="farm" />
		<tag k="ssr:stedsnr" v="452916" />
	</node>
	<node lat="59.300578730525366" lon="5.301791720517903" id="-2973">
		<tag k="fixme" v="consider place=hamlet" />
		<tag k="name" v="Byggnes" />
		<tag k="place" v="farm" />
		<tag k="ssr:stedsnr" v="484028" />
	</node>
	<node lat="59.166347223214665" lon="5.29948334017441" id="-2974">
		<tag k="name" v="Skitnedal" />
		<tag k="place" v="farm" />
		<tag k="ssr:stedsnr" v="484307" />
	</node>
	<node lat="59.332837735246926" lon="5.281300890385173" id="-2977">
		<tag k="fixme" v="consider place=hamlet" />
		<tag k="name" v="Matland" />
		<tag k="place" v="farm" />
		<tag k="ssr:stedsnr" v="484220" />
	</node>
	<node lat="59.3003833339904" lon="5.23547499488631" id="-2980">
		<tag k="name" v="Guråplasset" />
		<tag k="place" v="farm" />
		<tag k="ssr:stedsnr" v="484264" />
	</node>
	<node lat="59.22238888592517" lon="5.193502771994484" id="-2981">
		<tag k="name" v="Stien" />
		<tag k="place" v="hamlet" />
		<tag k="ssr:stedsnr" v="484265" />
	</node>
	<node lat="59.21988611256681" lon="5.318791659699044" id="-2993">
		<tag k="name" v="Tverdalen" />
		<tag k="place" v="farm" />
		<tag k="ssr:stedsnr" v="484621" />
	</node>
	<node lat="59.15067392498765" lon="5.213061893428824" id="-3005">
		<tag k="fixme" v="consider place=hamlet" />
		<tag k="name" v="Syre" />
		<tag k="place" v="farm" />
		<tag k="ssr:stedsnr" v="487418" />
	</node>
	<node lat="59.35405207669511" lon="5.254252203324531" id="-3009">
		<tag k="alt_name" v="Hinderåker" />
		<tag k="fixme" v="consider place=hamlet" />
		<tag k="name" v="Hindaråker" />
		<tag k="place" v="farm" />
		<tag k="ssr:stedsnr" v="487604" />
	</node>
	<node lat="59.38869514427079" lon="5.228344792205407" id="-3010">
		<tag k="fixme" v="consider place=hamlet" />
		<tag k="name" v="Skjølingstad" />
		<tag k="place" v="farm" />
		<tag k="ssr:stedsnr" v="487615" />
	</node>
	<node lat="59.2499944464075" lon="5.202041670290468" id="-3041">
		<tag k="name" v="Medhaug" />
		<tag k="place" v="village" />
		<tag k="ssr:stedsnr" v="545682" />
	</node>
	<node lat="59.35152778090788" lon="5.218541670212988" id="-3042">
		<tag k="leisure" v="pitch" />
		<tag k="name" v="Neset" />
		<tag k="ssr:stedsnr" v="545704" />
	</node>
	<node lat="59.35483333719082" lon="5.3597333334700075" id="-3043">
		<tag k="name" v="Mykje" />
		<tag k="place" v="farm" />
		<tag k="ssr:stedsnr" v="545771" />
	</node>
	<node lat="59.33538923371454" lon="5.278765495934385" id="-3049">
		<tag k="fixme" v="consider place=hamlet" />
		<tag k="name" v="Fiskå" />
		<tag k="place" v="farm" />
		<tag k="ssr:stedsnr" v="547567" />
	</node>
	<node lat="59.37621953068389" lon="5.234835630098325" id="-3050">
		<tag k="fixme" v="consider place=hamlet" />
		<tag k="name" v="Vikingstad" />
		<tag k="place" v="farm" />
		<tag k="ssr:stedsnr" v="547574" />
	</node>
	<node lat="59.3854769217897" lon="5.231602685309531" id="-3051">
		<tag k="alt_name" v="Grønningen;Grøningå" />
		<tag k="fixme" v="consider place=hamlet" />
		<tag k="name" v="Grøninga" />
		<tag k="place" v="farm" />
		<tag k="ssr:stedsnr" v="547620" />
	</node>
	<node lat="59.14995451924819" lon="5.257109818449543" id="-3058">
		<tag k="name" v="Skudeneshavn" />
		<tag k="place" v="town" />
		<tag k="ssr:stedsnr" v="548417" />
	</node>
	<node lat="59.285824995465894" lon="5.408130549631491" id="-3059">
		<tag k="name" v="Øygarden" />
		<tag k="place" v="farm" />
		<tag k="ssr:stedsnr" v="548904" />
	</node>
	<node lat="59.30805555201813" lon="5.317499997647935" id="-3063">
		<tag k="name" v="Koltre" />
		<tag k="place" v="farm" />
		<tag k="ssr:stedsnr" v="693169" />
	</node>
	<node lat="59.355333334563454" lon="5.36675833263955" id="-3064">
		<tag k="name" v="Åsen" />
		<tag k="place" v="farm" />
		<tag k="ssr:stedsnr" v="570210" />
	</node>
	<node lat="59.28505334461541" lon="5.287361200482661" id="-3084">
		<tag k="alt_name" v="Asadalen;Asaldal" />
		<tag k="fixme" v="consider place=hamlet" />
		<tag k="name" v="Asaldalen" />
		<tag k="place" v="farm" />
		<tag k="ssr:stedsnr" v="694131" />
	</node>
	<node lat="59.164591665589626" lon="5.230030560998316" id="-3094">
		<tag k="name" v="Toptene" />
		<tag k="place" v="farm" />
		<tag k="ssr:stedsnr" v="605154" />
	</node>
	<node lat="59.29992221846349" lon="5.232924996760002" id="-3095">
		<tag k="name" v="Hestavik" />
		<tag k="place" v="quarter" />
		<tag k="ssr:stedsnr" v="605164" />
	</node>
	<node lat="59.221072219739064" lon="5.189072214297054" id="-3099">
		<tag k="name" v="Udlaberg" />
		<tag k="place" v="farm" />
		<tag k="ssr:stedsnr" v="605314" />
	</node>
	<node lat="59.28162499767139" lon="5.295697213879703" id="-3111">
		<tag k="name" v="Svartups" />
		<tag k="place" v="farm" />
		<tag k="ssr:stedsnr" v="605664" />
	</node>
	<node lat="59.25327500097656" lon="5.198605548179203" id="-3114">
		<tag k="name" v="Mosbron" />
		<tag k="place" v="farm" />
		<tag k="ssr:stedsnr" v="605805" />
	</node>
	<node lat="59.1679946606352" lon="5.276926410435082" id="-3119">
		<tag k="fixme" v="consider place=hamlet" />
		<tag k="name" v="Hillesland" />
		<tag k="place" v="farm" />
		<tag k="ssr:stedsnr" v="608438" />
	</node>
	<node lat="59.16262064830115" lon="5.231455764641909" id="-3122">
		<tag k="name" v="Risdal" />
		<tag k="place" v="hamlet" />
		<tag k="ssr:stedsnr" v="608450" />
	</node>
	<node lat="59.1743083306175" lon="5.197030547972518" id="-3123">
		<tag k="name" v="Ramnastein" />
		<tag k="place" v="farm" />
		<tag k="ssr:stedsnr" v="608416" />
	</node>
	<node lat="59.28758611483578" lon="5.218283333613587" id="-3129">
		<tag k="fixme" v="consider place=hamlet" />
		<tag k="name" v="Veabygda" />
		<tag k="place" v="village" />
		<tag k="ssr:stedsnr" v="608960" />
	</node>
	<node lat="59.27530918513503" lon="5.239178063243167" id="-3131">
		<tag k="fixme" v="consider place=hamlet" />
		<tag k="name" v="Haringstad" />
		<tag k="place" v="farm" />
		<tag k="ssr:stedsnr" v="609905" />
	</node>
	<node lat="59.2273694426031" lon="5.186424994508996" id="-3159">
		<tag k="historic" v="shieling" />
		<tag k="name" v="Gamlestølen" />
		<tag k="place" v="isolated_dwelling" />
		<tag k="ssr:stedsnr" v="666215" />
	</node>
	<node lat="59.2685138872055" lon="5.3088333277870605" id="-3169">
		<tag k="historic" v="shieling" />
		<tag k="name" v="Klovsteinstølen" />
		<tag k="place" v="isolated_dwelling" />
		<tag k="ssr:stedsnr" v="666511" />
	</node>
	<node lat="59.2280392999338" lon="5.181767493326535" id="-3176">
		<tag k="alt_name" v="Ferkingstadgaren" />
		<tag k="name" v="Ferkingstadgarden" />
		<tag k="place" v="farm" />
		<tag k="ssr:stedsnr" v="668018" />
	</node>
	<node lat="59.31309722038606" lon="5.311625002838387" id="-3189">
		<tag k="building" v="industrial" />
		<tag k="industrial" v="factory" />
		<tag k="name" v="Hydro Aluminium Karmøy Metallverk" />
		<tag k="old_name" v="Alnor" />
		<tag k="ssr:stedsnr" v="670973" />
	</node>
	<node lat="59.32152519716122" lon="5.378218694241969" id="-3190">
		<tag k="fixme" v="consider place=hamlet" />
		<tag k="name" v="Hellevik" />
		<tag k="place" v="farm" />
		<tag k="ssr:stedsnr" v="670980" />
	</node>
	<node lat="59.37186944404325" lon="5.294494436524881" id="-3199">
		<tag k="name" v="Pilkevik" />
		<tag k="place" v="farm" />
		<tag k="ssr:stedsnr" v="707205" />
	</node>
	<node lat="59.3204972226188" lon="5.36529166574164" id="-3210">
		<tag k="name" v="Vollsvik" />
		<tag k="place" v="hamlet" />
		<tag k="ssr:stedsnr" v="727211" />
	</node>
	<node lat="59.238416669152755" lon="5.19441666189444" id="-3212">
		<tag k="name" v="Neraliknes" />
		<tag k="place" v="farm" />
		<tag k="ssr:stedsnr" v="727219" />
	</node>
	<node lat="59.155902780334046" lon="5.276319451005447" id="-3225">
		<tag k="name" v="Midtvig" />
		<tag k="place" v="hamlet" />
		<tag k="ssr:stedsnr" v="727642" />
	</node>
	<node lat="59.23300030653023" lon="5.19798538726202" id="-3236">
		<tag k="fixme" v="consider place=hamlet" />
		<tag k="name" v="Stava" />
		<tag k="place" v="farm" />
		<tag k="ssr:stedsnr" v="729025" />
	</node>
	<node lat="59.35972963316864" lon="5.2751069413089375" id="-3241">
		<tag k="fixme" v="consider place=hamlet" />
		<tag k="name" v="Utvik" />
		<tag k="place" v="farm" />
		<tag k="ssr:stedsnr" v="730604" />
	</node>
	<node lat="59.374761113483544" lon="5.294383333718795" id="-3246">
		<tag k="name" v="Salhus" />
		<tag k="place" v="farm" />
		<tag k="ssr:stedsnr" v="730575" />
	</node>
	<node lat="59.27003957625775" lon="5.21630018136446" id="-3254">
		<tag k="fixme" v="consider place=hamlet" />
		<tag k="name" v="Trælhaug" />
		<tag k="place" v="farm" />
		<tag k="ssr:stedsnr" v="730930" />
	</node>
	<node lat="59.31062737786002" lon="5.3727171089752455" id="-3258">
		<tag k="fixme" v="consider place=hamlet" />
		<tag k="name" v="Fosen" />
		<tag k="place" v="farm" />
		<tag k="ssr:stedsnr" v="731956" />
	</node>
	<node lat="59.35263055648668" lon="5.360041667898079" id="-3260">
		<tag k="name" v="Holmen" />
		<tag k="place" v="farm" />
		<tag k="ssr:stedsnr" v="753208" />
	</node>
	<node lat="59.41022586419769" lon="5.3662792111973285" id="-3261">
		<tag k="name" v="Nordheim" />
		<tag k="place" v="farm" />
		<tag k="ssr:stedsnr" v="753213" />
	</node>
	<node lat="59.33328165403804" lon="5.34140953371744" id="-3262">
		<tag k="alt_name" v="Nøstvik" />
		<tag k="name" v="Naustvik" />
		<tag k="place" v="farm" />
		<tag k="ssr:stedsnr" v="753254" />
	</node>
	<node lat="59.32596944660937" lon="5.297533334309125" id="-3266">
		<tag k="name" v="Draland" />
		<tag k="place" v="farm" />
		<tag k="ssr:stedsnr" v="754164" />
	</node>
	<node lat="59.28053474328781" lon="5.278172609818775" id="-3268">
		<tag k="alt_name" v="Indre Eide" />
		<tag k="fixme" v="consider place=hamlet" />
		<tag k="name" v="Indra Eide" />
		<tag k="place" v="farm" />
		<tag k="ssr:stedsnr" v="754211" />
	</node>
	<node lat="59.39782777479227" lon="5.2617611151562915" id="-3277">
		<tag k="alt_name" v="Nordre Storasund" />
		<tag k="name" v="Storasundet" />
		<tag k="place" v="farm" />
		<tag k="ssr:stedsnr" v="755896" />
	</node>
	<node lat="59.37080555564176" lon="5.278916668646084" id="-3279">
		<tag k="name" v="Øvra Bøkrossen" />
		<tag k="place" v="farm" />
		<tag k="ssr:stedsnr" v="768192" />
	</node>
	<node lat="59.30419410752163" lon="5.230227456916976" id="-3287">
		<tag k="fixme" v="consider place=hamlet" />
		<tag k="name" v="Ytraland" />
		<tag k="place" v="farm" />
		<tag k="ssr:stedsnr" v="909301" />
	</node>
	<node lat="59.21980555949146" lon="5.1876027754051846" id="-3288">
		<tag k="alt_name" v="Langåkergaren" />
		<tag k="name" v="Langåkergarden" />
		<tag k="place" v="farm" />
		<tag k="ssr:stedsnr" v="909302" />
	</node>
	<node lat="59.32776110727833" lon="5.199758327862" id="-3297">
		<tag k="historic" v="shieling" />
		<tag k="name" v="Vikene" />
		<tag k="place" v="isolated_dwelling" />
		<tag k="ssr:stedsnr" v="909484" />
	</node>
	<node lat="59.28098888852312" lon="5.298963887481549" id="-3302">
		<tag k="name" v="Askehagen" />
		<tag k="place" v="village" />
		<tag k="ssr:stedsnr" v="909660" />
	</node>
	<node lat="59.18590833005429" lon="5.292883340171673" id="-3303">
		<tag k="barrier" v="fence" />
		<tag k="name" v="Tønesgjerdet" />
		<tag k="ssr:stedsnr" v="909681" />
	</node>
	<node lat="59.19077537952423" lon="5.311219727324695" id="-3304">
		<tag k="name" v="Paradis" />
		<tag k="place" v="farm" />
		<tag k="ssr:stedsnr" v="909687" />
	</node>
	<node lat="59.391477780360994" lon="5.273516663735085" id="-3316">
		<tag k="alt_name" v="Storesundet" />
		<tag k="name" v="Storasund" />
		<tag k="place" v="village" />
		<tag k="ssr:stedsnr" v="912599" />
	</node>
	<node lat="59.38819228769336" lon="5.222328353086972" id="-3317">
		<tag k="fixme" v="consider place=hamlet" />
		<tag k="name" v="Sæbø" />
		<tag k="place" v="farm" />
		<tag k="ssr:stedsnr" v="912600" />
	</node>
	<node lat="59.33016944415939" lon="5.345030560104823" id="-3336">
		<tag k="name" v="Haugen" />
		<tag k="place" v="farm" />
		<tag k="ssr:stedsnr" v="788217" />
	</node>
	<node lat="59.24186944613064" lon="5.215947221954156" id="-3353">
		<tag k="name" v="Presthammar" />
		<tag k="place" v="farm" />
		<tag k="ssr:stedsnr" v="789024" />
	</node>
	<node lat="59.17275774399863" lon="5.301943279024924" id="-3356">
		<tag k="fixme" v="consider place=hamlet" />
		<tag k="name" v="Hovdastad" />
		<tag k="place" v="farm" />
		<tag k="ssr:stedsnr" v="790410" />
	</node>
	<node lat="59.37789722343632" lon="5.312761113587803" id="-3360">
		<tag k="alt_name" v="Nordheim" />
		<tag k="name" v="Norheim" />
		<tag k="place" v="village" />
		<tag k="ssr:stedsnr" v="790622" />
	</node>
	<node lat="59.36999763127696" lon="5.283693887287376" id="-3365">
		<tag k="fixme" v="consider place=hamlet" />
		<tag k="name" v="Bø" />
		<tag k="place" v="farm" />
		<tag k="ssr:stedsnr" v="790558" />
	</node>
	<node lat="59.39528836821731" lon="5.24600978670274" id="-3381">
		<tag k="alt_name" v="Hausken" />
		<tag k="fixme" v="consider place=hamlet" />
		<tag k="name" v="Hauskje" />
		<tag k="place" v="farm" />
		<tag k="ssr:stedsnr" v="912637" />
	</node>
	<node lat="59.27528430321157" lon="5.2614391116331305" id="-3382">
		<tag k="fixme" v="consider place=hamlet" />
		<tag k="name" v="Brekke" />
		<tag k="place" v="farm" />
		<tag k="ssr:stedsnr" v="912910" />
	</node>
	<node lat="59.2870613285264" lon="5.257193850275205" id="-3384">
		<tag k="fixme" v="consider place=hamlet" />
		<tag k="name" v="Skår" />
		<tag k="place" v="farm" />
		<tag k="ssr:stedsnr" v="912939" />
	</node>
	<node lat="59.29196110810654" lon="5.253413889057633" id="-3385">
		<tag k="alt_name" v="Djupvik" />
		<tag k="name" v="Juvika" />
		<tag k="place" v="farm" />
		<tag k="ssr:stedsnr" v="912941" />
	</node>
	<node lat="59.313413893221615" lon="5.376416670592599" id="-3390">
		<tag k="alt_name" v="Stokkane" />
		<tag k="name" v="Skokkane" />
		<tag k="place" v="farm" />
		<tag k="ssr:stedsnr" v="913959" />
	</node>
	<node lat="59.360183330815275" lon="5.226730557907795" id="-3398">
		<tag k="name" v="Visnes garden" />
		<tag k="place" v="farm" />
		<tag k="ssr:stedsnr" v="815812" />
	</node>
	<node lat="59.36336388597249" lon="5.313400005692973" id="-3403">
		<tag k="name" v="Moksheim" />
		<tag k="place" v="hamlet" />
		<tag k="ssr:stedsnr" v="829206" />
	</node>
	<node lat="59.32250833342521" lon="5.204883331037291" id="-3408">
		<tag k="name" v="Neset" />
		<tag k="place" v="farm" />
		<tag k="ssr:stedsnr" v="848511" />
	</node>
	<node lat="59.24135634566353" lon="5.202472642266693" id="-3412">
		<tag k="fixme" v="consider place=hamlet" />
		<tag k="name" v="Fagerland" />
		<tag k="place" v="farm" />
		<tag k="ssr:stedsnr" v="849197" />
	</node>
	<node lat="59.270836113535445" lon="5.317766662841293" id="-3431">
		<tag k="name" v="Myrå" />
		<tag k="place" v="farm" />
		<tag k="ssr:stedsnr" v="849627" />
	</node>
	<node lat="59.17039999814748" lon="5.20012777700079" id="-3443">
		<tag k="name" v="Sørbø" />
		<tag k="place" v="farm" />
		<tag k="ssr:stedsnr" v="851392" />
	</node>
	<node lat="59.357005552836505" lon="5.356591672405469" id="-3444">
		<tag k="alt_name" v="Bekken" />
		<tag k="name" v="Bakken" />
		<tag k="place" v="farm" />
		<tag k="ssr:stedsnr" v="851480" />
	</node>
	<node lat="59.34137167484372" lon="5.198820909183873" id="-3445">
		<tag k="alt_name" v="Kalstø" />
		<tag k="fixme" v="consider place=hamlet" />
		<tag k="name" v="Kallstø" />
		<tag k="place" v="farm" />
		<tag k="ssr:stedsnr" v="851487" />
	</node>
	<node lat="59.40520091963368" lon="5.364086481827643" id="-3446">
		<tag k="fixme" v="consider place=hamlet" />
		<tag k="name" v="Skre" />
		<tag k="place" v="farm" />
		<tag k="ssr:stedsnr" v="851603" />
	</node>
	<node lat="59.376124028265615" lon="5.282536593029997" id="-3447">
		<tag k="fixme" v="consider place=hamlet" />
		<tag k="name" v="Nordbø" />
		<tag k="place" v="farm" />
		<tag k="ssr:stedsnr" v="851571" />
	</node>
	<node lat="59.38401337606221" lon="5.325805487335759" id="-3448">
		<tag k="fixme" v="consider place=hamlet" />
		<tag k="name" v="Spanne" />
		<tag k="place" v="farm" />
		<tag k="ssr:stedsnr" v="851580" />
	</node>
	<node lat="59.37968053992617" lon="5.235971973607533" id="-3458">
		<tag k="fixme" v="consider place=hamlet" />
		<tag k="name" v="Torvastad" />
		<tag k="place" v="farm" />
		<tag k="ssr:stedsnr" v="876824" />
	</node>
	<node lat="59.297599999728334" lon="5.238122222609558" id="-3463">
		<tag k="name" v="Moen" />
		<tag k="place" v="farm" />
		<tag k="ssr:stedsnr" v="909163" />
	</node>
	<node lat="59.31911388506833" lon="5.351811107224619" id="-3466">
		<tag k="name" v="Leirvåg" />
		<tag k="place" v="farm" />
		<tag k="ssr:stedsnr" v="909213" />
	</node>
	<node lat="59.217775041908936" lon="5.190878323493669" id="-3474">
		<tag k="name" v="Bakken" />
		<tag k="place" v="farm" />
		<tag k="ssr:stedsnr" v="909305" />
	</node>
	<node lat="59.21528333062382" lon="5.181741664286828" id="-3475">
		<tag k="name" v="Nonstua" />
		<tag k="place" v="farm" />
		<tag k="ssr:stedsnr" v="909315" />
	</node>
	<node lat="59.22482657448877" lon="5.181876840298229" id="-3498">
		<tag k="fixme" v="consider place=hamlet" />
		<tag k="name" v="Nes" />
		<tag k="place" v="farm" />
		<tag k="ssr:stedsnr" v="911033" />
	</node>
	<node lat="59.24616685369937" lon="5.213158848617632" id="-3499">
		<tag k="fixme" v="consider place=hamlet" />
		<tag k="name" v="Ådland" />
		<tag k="place" v="farm" />
		<tag k="ssr:stedsnr" v="911045" />
	</node>
	<node lat="59.39695854152211" lon="5.37091165638762" id="-3507">
		<tag k="alt_name" v="Eike, nordre;Nordra Eike;Eike nordre" />
		<tag k="fixme" v="consider place=hamlet" />
		<tag k="name" v="Nordre Eike" />
		<tag k="place" v="farm" />
		<tag k="ssr:stedsnr" v="912605" />
	</node>
	<node lat="59.26713611420136" lon="5.315161105124772" id="-3511">
		<tag k="name" v="Stølen" />
		<tag k="place" v="farm" />
		<tag k="ssr:stedsnr" v="913889" />
	</node>
	<node lat="59.26019736452713" lon="5.316449466495789" id="-3512">
		<tag k="fixme" v="consider place=hamlet" />
		<tag k="name" v="Sunnarå" />
		<tag k="place" v="farm" />
		<tag k="ssr:stedsnr" v="913891" />
	</node>
	<node lat="59.27959721807852" lon="5.259063888176984" id="-3514">
		<tag k="name" v="Brekke" />
		<tag k="place" v="farm" />
		<tag k="ssr:stedsnr" v="936134" />
	</node>
	<node lat="59.4065916659185" lon="5.240744441793155" id="-3525">
		<tag k="fixme" v="consider place=suburb, village or hamlet" />
		<tag k="name" v="Osnes" />
		<tag k="place" v="quarter" />
		<tag k="ssr:stedsnr" v="967186" />
	</node>
	<node lat="59.25825277807489" lon="5.190569445005229" id="-3535">
		<tag k="name" v="Klæhaug" />
		<tag k="place" v="farm" />
		<tag k="ssr:stedsnr" v="969793" />
	</node>
	<node lat="59.31466110924496" lon="5.320761116004823" id="-3541">
		<tag k="name" v="Gamlehavntre" />
		<tag k="place" v="quarter" />
		<tag k="ssr:stedsnr" v="970201" />
	</node>
	<node lat="59.31452777373164" lon="5.319544440950549" id="-3549">
		<tag k="name" v="Gamlehavnsletta" />
		<tag k="place" v="quarter" />
		<tag k="ssr:stedsnr" v="970208" />
	</node>
	<node lat="59.27124722274645" lon="5.2951916601224065" id="-3551">
		<tag k="barrier" v="fence" />
		<tag k="name" v="Smalogjerdet" />
		<tag k="ssr:stedsnr" v="970249" />
	</node>
	<node lat="59.281961107280985" lon="5.2369500024192694" id="-3553">
		<tag k="name" v="Tøkje" />
		<tag k="place" v="farm" />
		<tag k="ssr:stedsnr" v="970388" />
	</node>
	<node lat="59.27303333452756" lon="5.197066664010436" id="-3555">
		<tag k="name" v="Naren" />
		<tag k="place" v="farm" />
		<tag k="ssr:stedsnr" v="970549" />
	</node>
	<node lat="59.174297221924334" lon="5.264774999030504" id="-3559">
		<tag k="barrier" v="fence" />
		<tag k="name" v="Matiasgjerde" />
		<tag k="ssr:stedsnr" v="970615" />
	</node>
	<node lat="59.28183667388926" lon="5.315387334691723" id="-3561">
		<tag k="fixme" v="consider place=suburb, village or hamlet" />
		<tag k="name" v="Kalvatræ" />
		<tag k="place" v="quarter" />
		<tag k="ssr:stedsnr" v="971727" />
	</node>
	<node lat="59.21236653874903" lon="5.195195177622791" id="-3583">
		<tag k="fixme" v="consider place=hamlet" />
		<tag k="name" v="Langåker" />
		<tag k="place" v="farm" />
		<tag k="ssr:stedsnr" v="1019" />
	</node>
	<node lat="59.23171666751651" lon="5.189986116705679" id="-3584">
		<tag k="name" v="Storsand" />
		<tag k="place" v="farm" />
		<tag k="ssr:stedsnr" v="1022" />
	</node>
	<node lat="59.20237594506986" lon="5.1971231776400675" id="-3585">
		<tag k="fixme" v="consider place=hamlet" />
		<tag k="name" v="Dyrland" />
		<tag k="place" v="farm" />
		<tag k="ssr:stedsnr" v="1122" />
	</node>
	<node lat="59.169067269033945" lon="5.203701325706275" id="-3586">
		<tag k="fixme" v="consider place=hamlet" />
		<tag k="name" v="Mjølhus" />
		<tag k="place" v="farm" />
		<tag k="ssr:stedsnr" v="1419" />
	</node>
	<node lat="59.34780800808238" lon="5.364605314762365" id="-3589">
		<tag k="alt_name" v="Tuestad" />
=======
	<node id="-40828" lat="59.3461034366" lon="5.27069671128">
		<tag k="fixme" v="consider place=hamlet" />
		<tag k="name" v="Søre Våge" />
		<tag k="place" v="farm" />
		<tag k="ssr:stedsnr" v="207361" />
	</node>
	<node id="-40827" lat="59.2850027733" lon="5.3628333279">
		<tag k="name" v="Våga" />
		<tag k="place" v="farm" />
		<tag k="ssr:stedsnr" v="206948" />
	</node>
	<node id="-40825" lat="59.3294750006" lon="5.29640833749">
		<tag k="name" v="Kolstøneset" />
		<tag k="place" v="farm" />
		<tag k="ssr:stedsnr" v="184983" />
	</node>
	<node id="-40824" lat="59.3240570843" lon="5.29679990491">
		<tag k="fixme" v="consider place=hamlet" />
		<tag k="name" v="Håvik" />
		<tag k="place" v="farm" />
		<tag k="ssr:stedsnr" v="184979" />
	</node>
	<node id="-40822" lat="59.3052416661" lon="5.2263416716">
		<tag k="alt_name" v="Ytreland" />
		<tag k="fixme" v="consider place=hamlet" />
		<tag k="name" v="Ytraland" />
		<tag k="place" v="village" />
		<tag k="ssr:stedsnr" v="184958" />
	</node>
	<node id="-40813" lat="59.2591138915" lon="5.32540554923">
		<tag k="alt_name" v="Midtre Stokke" />
		<tag k="name" v="Melstokke" />
		<tag k="place" v="village" />
		<tag k="ssr:stedsnr" v="184867" />
	</node>
	<node id="-40811" lat="59.3517966586" lon="5.26285641856">
		<tag k="fixme" v="consider place=hamlet" />
		<tag k="name" v="Skeie" />
		<tag k="place" v="farm" />
		<tag k="ssr:stedsnr" v="184567" />
	</node>
	<node id="-40810" lat="59.3640485041" lon="5.25620113672">
		<tag k="alt_name" v="Viks Håland" />
		<tag k="fixme" v="consider place=hamlet" />
		<tag k="name" v="Vikshåland" />
		<tag k="place" v="farm" />
		<tag k="ssr:stedsnr" v="184562" />
	</node>
	<node id="-40808" lat="59.3616722517" lon="5.24071165343">
		<tag k="alt_name" v="Landenes" />
		<tag k="fixme" v="consider place=hamlet" />
		<tag k="name" v="Landanes" />
		<tag k="place" v="farm" />
		<tag k="ssr:stedsnr" v="184559" />
	</node>
	<node id="-40804" lat="59.3447638927" lon="5.28569444973">
		<tag k="name" v="Sørbø" />
		<tag k="place" v="farm" />
		<tag k="ssr:stedsnr" v="184514" />
	</node>
	<node id="-40798" lat="59.3925539821" lon="5.23079901172">
		<tag k="fixme" v="consider place=hamlet" />
		<tag k="name" v="Dale" />
		<tag k="place" v="farm" />
		<tag k="ssr:stedsnr" v="183609" />
	</node>
	<node id="-39567" lat="59.367127565" lon="5.26524762203">
		<tag k="alt_name" v="Nedre Hauge;Haugo nedre" />
		<tag k="fixme" v="consider place=hamlet" />
		<tag k="name" v="Nedre Haugo" />
		<tag k="place" v="farm" />
		<tag k="ssr:stedsnr" v="452916" />
	</node>
	<node id="-40791" lat="59.1834924036" lon="5.29165752338">
		<tag k="fixme" v="consider place=hamlet" />
		<tag k="name" v="Tjøstheim" />
		<tag k="place" v="farm" />
		<tag k="ssr:stedsnr" v="183074" />
	</node>
	<node id="-40789" lat="59.2220388935" lon="5.18147222795">
		<tag k="name" v="Torvberg" />
		<tag k="place" v="farm" />
		<tag k="ssr:stedsnr" v="183022" />
	</node>
	<node id="-40782" lat="59.2926958497" lon="5.36482772799">
		<tag k="name" v="Litlagard" />
		<tag k="place" v="farm" />
		<tag k="ssr:stedsnr" v="181971" />
	</node>
	<node id="-40780" lat="59.1773861089" lon="5.23755277194">
		<tag k="barrier" v="fence" />
		<tag k="name" v="Gjetlegjerde" />
		<tag k="ssr:stedsnr" v="181901" />
	</node>
	<node id="-40777" lat="59.3494333337" lon="5.3180166744">
		<tag k="name" v="Snik" />
		<tag k="place" v="farm" />
		<tag k="ssr:stedsnr" v="181800" />
	</node>
	<node id="-40770" lat="59.2635466773" lon="5.19731380192">
		<tag k="name" v="Tjøsvoll" />
		<tag k="place" v="farm" />
		<tag k="ssr:stedsnr" v="181814" />
	</node>
	<node id="-40769" lat="59.2552499957" lon="5.19608333457">
		<tag k="amenity" v="school" />
		<tag k="name" v="Grindhaug" />
		<tag k="ssr:stedsnr" v="181809" />
	</node>
	<node id="-40765" lat="59.3542888917" lon="5.21891943725">
		<tag k="fixme" v="consider place=hamlet" />
		<tag k="name" v="Fransehagen" />
		<tag k="place" v="village" />
		<tag k="ssr:stedsnr" v="181750" />
	</node>
	<node id="-40761" lat="59.2227388881" lon="5.31981666925">
		<tag k="barrier" v="fence" />
		<tag k="name" v="Hestagjerdet" />
		<tag k="ssr:stedsnr" v="181659" />
	</node>
	<node id="-40741" lat="59.2320666672" lon="5.19707221506">
		<tag k="name" v="Berget" />
		<tag k="place" v="farm" />
		<tag k="ssr:stedsnr" v="181215" />
	</node>
	<node id="-40735" lat="59.1680604686" lon="5.22107517486">
		<tag k="fixme" v="consider place=suburb, village or hamlet" />
		<tag k="name" v="Vengedalsbråta" />
		<tag k="place" v="quarter" />
		<tag k="ssr:stedsnr" v="181150" />
	</node>
	<node id="-40719" lat="59.3820722221" lon="5.3192611068">
		<tag k="leisure" v="pitch" />
		<tag k="name" v="Hestmyr idrettsplass" />
		<tag k="ssr:stedsnr" v="147983" />
	</node>
	<node id="-40711" lat="59.3303667956" lon="5.34655328068">
		<tag k="name" v="Ramsvik" />
		<tag k="place" v="farm" />
		<tag k="ssr:stedsnr" v="147181" />
	</node>
	<node id="-39552" lat="59.310411388" lon="5.29047233086">
		<tag k="alt_name" v="Vorå" />
		<tag k="fixme" v="consider place=hamlet" />
		<tag k="loc_name" v="Våre" />
		<tag k="name" v="Vårå" />
		<tag k="place" v="farm" />
		<tag k="ssr:stedsnr" v="451179" />
	</node>
	<node id="-40702" lat="59.311474431" lon="5.28107387399">
		<tag k="alt_name" v="Håland, s" />
		<tag k="fixme" v="consider place=hamlet" />
		<tag k="name" v="Søre Håland" />
		<tag k="place" v="farm" />
		<tag k="ssr:stedsnr" v="123991" />
	</node>
	<node id="-40700" lat="59.2835392855" lon="5.30671303228">
		<tag k="name" v="Kopervik" />
		<tag k="place" v="town" />
		<tag k="ssr:stedsnr" v="123935" />
	</node>
	<node id="-40699" lat="59.2857602033" lon="5.36326851506">
		<tag k="fixme" v="consider place=hamlet" />
		<tag k="name" v="Våga" />
		<tag k="place" v="farm" />
		<tag k="ssr:stedsnr" v="123931" />
	</node>
	<node id="-40688" lat="59.3565505506" lon="5.23816534761">
		<tag k="name" v="Visnes" />
		<tag k="place" v="village" />
		<tag k="ssr:stedsnr" v="123596" />
	</node>
	<node id="-40686" lat="59.3720750013" lon="5.36571666217">
		<tag k="name" v="Århaug" />
		<tag k="place" v="farm" />
		<tag k="ssr:stedsnr" v="123590" />
	</node>
	<node id="-40684" lat="59.3474020515" lon="5.37038539834">
		<tag k="alt_name" v="Ysthus" />
		<tag k="fixme" v="consider place=hamlet" />
		<tag k="name" v="Østhus" />
		<tag k="place" v="farm" />
		<tag k="ssr:stedsnr" v="123569" />
	</node>
	<node id="-40680" lat="59.1775990292" lon="5.29062861346">
		<tag k="fixme" v="consider place=hamlet" />
		<tag k="name" v="Dale" />
		<tag k="place" v="farm" />
		<tag k="ssr:stedsnr" v="123462" />
	</node>
	<node id="-40672" lat="59.1752281861" lon="5.19586271218">
		<tag k="name" v="Sandve" />
		<tag k="place" v="village" />
		<tag k="ssr:stedsnr" v="122070" />
	</node>
	<node id="-40667" lat="59.212691664" lon="5.19473889551">
		<tag k="name" v="Langåker" />
		<tag k="place" v="farm" />
		<tag k="ssr:stedsnr" v="122006" />
	</node>
	<node id="-40663" lat="59.2685527735" lon="5.1951083307">
		<tag k="name" v="Tveit" />
		<tag k="place" v="farm" />
		<tag k="ssr:stedsnr" v="120799" />
	</node>
	<node id="-40659" lat="59.3577475846" lon="5.27508613785">
		<tag k="name" v="Uvik" />
		<tag k="place" v="farm" />
		<tag k="ssr:stedsnr" v="120776" />
	</node>
	<node id="-40641" lat="59.1581083333" lon="5.29741666457">
		<tag k="historic" v="shieling" />
		<tag k="name" v="Svinagjerdet" />
		<tag k="place" v="locality" />
		<tag k="ssr:stedsnr" v="120548" />
	</node>
	<node id="-40633" lat="59.3300277736" lon="5.20508333335">
		<tag k="historic" v="shieling" />
		<tag k="name" v="Stølen" />
		<tag k="place" v="locality" />
		<tag k="ssr:stedsnr" v="120468" />
	</node>
	<node id="-40629" lat="59.2667696766" lon="5.32256800525">
		<tag k="name" v="Stokkå" />
		<tag k="place" v="isolated_dwelling" />
		<tag k="ssr:stedsnr" v="120455" />
	</node>
	<node id="-40625" lat="59.3289694399" lon="5.37061388293">
		<tag k="name" v="Litlanes" />
		<tag k="place" v="farm" />
		<tag k="ssr:stedsnr" v="120214" />
	</node>
	<node id="-40621" lat="59.1652934149" lon="5.23078003343">
		<tag k="fixme" v="consider place=hamlet" />
		<tag k="name" v="Øvre Risdal" />
		<tag k="place" v="farm" />
		<tag k="ssr:stedsnr" v="120126" />
	</node>
	<node id="-40617" lat="59.2106582136" lon="5.17864279262">
		<tag k="fixme" v="consider place=hamlet" />
		<tag k="name" v="Kvilhaugsvik" />
		<tag k="place" v="farm" />
		<tag k="ssr:stedsnr" v="120286" />
	</node>
	<node id="-40616" lat="59.2119277783" lon="5.18623611615">
		<tag k="name" v="Abelshaugen" />
		<tag k="place" v="farm" />
		<tag k="ssr:stedsnr" v="120285" />
	</node>
	<node id="-40603" lat="59.343003933" lon="5.20283913038">
		<tag k="alt_name" v="Stogdal" />
		<tag k="fixme" v="consider place=hamlet" />
		<tag k="name" v="Stokkdal" />
		<tag k="place" v="farm" />
		<tag k="ssr:stedsnr" v="87934" />
	</node>
	<node id="-40592" lat="59.2823490316" lon="5.36678494887">
		<tag k="alt_name" v="Mekjervik" />
		<tag k="name" v="Mekrevik" />
		<tag k="place" v="farm" />
		<tag k="ssr:stedsnr" v="87147" />
	</node>
	<node id="-40580" lat="59.3213712911" lon="5.28761623074">
		<tag k="fixme" v="consider place=hamlet" />
		<tag k="name" v="Meland" />
		<tag k="place" v="farm" />
		<tag k="ssr:stedsnr" v="62983" />
	</node>
	<node id="-40572" lat="59.3422638916" lon="5.27539722057">
		<tag k="fixme" v="consider place=suburb, village or hamlet" />
		<tag k="name" v="Våge" />
		<tag k="place" v="quarter" />
		<tag k="ssr:stedsnr" v="62509" />
	</node>
	<node id="-40530" lat="59.3300861119" lon="5.35138888591">
		<tag k="name" v="Ytre Røyksund" />
		<tag k="place" v="farm" />
		<tag k="ssr:stedsnr" v="60220" />
	</node>
	<node id="-40529" lat="59.3346037531" lon="5.36107632953">
		<tag k="fixme" v="consider place=hamlet" />
		<tag k="name" v="Røyksund" />
		<tag k="place" v="farm" />
		<tag k="ssr:stedsnr" v="60211" />
	</node>
	<node id="-40522" lat="59.3107472215" lon="5.29940000874">
		<tag k="fixme" v="consider place=hamlet" />
		<tag k="name" v="Austevik" />
		<tag k="place" v="village" />
		<tag k="ssr:stedsnr" v="60064" />
	</node>
	<node id="-40521" lat="59.3117611133" lon="5.28765000338">
		<tag k="name" v="Smidjeberg" />
		<tag k="place" v="farm" />
		<tag k="ssr:stedsnr" v="60062" />
	</node>
	<node id="-40518" lat="59.1715338408" lon="5.21048844448">
		<tag k="fixme" v="consider place=hamlet" />
		<tag k="name" v="Lie" />
		<tag k="place" v="farm" />
		<tag k="ssr:stedsnr" v="60009" />
	</node>
	<node id="-40510" lat="59.1478499985" lon="5.27193054838">
		<tag k="name" v="Ryggen" />
		<tag k="place" v="farm" />
		<tag k="ssr:stedsnr" v="41579" />
	</node>
	<node id="-40500" lat="59.3748305589" lon="5.26116111596">
		<tag k="amenity" v="school" />
		<tag k="name" v="Hauge skole" />
		<tag k="ssr:stedsnr" v="26751" />
	</node>
	<node id="-40490" lat="59.274674996" lon="5.21834166473">
		<tag k="name" v="Heia" />
		<tag k="place" v="farm" />
		<tag k="ssr:stedsnr" v="2925" />
	</node>
	<node id="-40489" lat="59.2585194462" lon="5.18202499868">
		<tag k="name" v="Åkrehamn" />
		<tag k="place" v="town" />
		<tag k="ssr:stedsnr" v="2899" />
	</node>
	<node id="-40486" lat="59.3263666906" lon="5.28753244731">
		<tag k="fixme" v="consider place=hamlet" />
		<tag k="name" v="Kolstø" />
		<tag k="place" v="farm" />
		<tag k="ssr:stedsnr" v="1998" />
	</node>
	<node id="-40485" lat="59.3279292807" lon="5.200258534">
		<tag k="alt_name" v="Vikene" />
		<tag k="fixme" v="consider place=hamlet" />
		<tag k="name" v="Vikane" />
		<tag k="place" v="farm" />
		<tag k="ssr:stedsnr" v="1993" />
	</node>
	<node id="-40483" lat="59.3853108723" lon="5.24571436659">
		<tag k="alt_name" v="Håland, nordre;Håland" />
		<tag k="fixme" v="consider place=hamlet" />
		<tag k="name" v="Nordre Håland" />
		<tag k="place" v="farm" />
		<tag k="ssr:stedsnr" v="1580" />
	</node>
	<node id="-40478" lat="59.3478080081" lon="5.36460531476">
		<tag k="alt_name" v="Tuestad" />
		<tag k="fixme" v="consider place=hamlet" />
		<tag k="name" v="Tuastad" />
		<tag k="place" v="farm" />
		<tag k="ssr:stedsnr" v="1534" />
	</node>
	<node id="-40476" lat="59.346998268" lon="5.32281019456">
		<tag k="fixme" v="consider place=hamlet" />
		<tag k="name" v="Snik" />
		<tag k="place" v="farm" />
		<tag k="ssr:stedsnr" v="1515" />
	</node>
	<node id="-40475" lat="59.169067269" lon="5.20370132571">
		<tag k="fixme" v="consider place=hamlet" />
		<tag k="name" v="Mjølhus" />
		<tag k="place" v="farm" />
		<tag k="ssr:stedsnr" v="1419" />
	</node>
	<node id="-40472" lat="59.2317166675" lon="5.18998611671">
		<tag k="name" v="Storsand" />
		<tag k="place" v="farm" />
		<tag k="ssr:stedsnr" v="1022" />
	</node>
	<node id="-40471" lat="59.2123665387" lon="5.19519517762">
		<tag k="fixme" v="consider place=hamlet" />
		<tag k="name" v="Langåker" />
		<tag k="place" v="farm" />
		<tag k="ssr:stedsnr" v="1019" />
	</node>
	<node id="-40441" lat="59.1742972219" lon="5.26477499903">
		<tag k="barrier" v="fence" />
		<tag k="name" v="Matiasgjerde" />
		<tag k="ssr:stedsnr" v="970615" />
	</node>
	<node id="-40432" lat="59.3145277737" lon="5.31954444095">
		<tag k="name" v="Gamlehavnsletta" />
		<tag k="place" v="quarter" />
		<tag k="ssr:stedsnr" v="970208" />
	</node>
	<node id="-40425" lat="59.2691111134" lon="5.31396666895">
		<tag k="alt_name" v="Rundthaug" />
		<tag k="name" v="Rundhaug" />
		<tag k="place" v="farm" />
		<tag k="ssr:stedsnr" v="970014" />
	</node>
	<node id="-40417" lat="59.2303388877" lon="5.19603889108">
		<tag k="name" v="Stølsbakken" />
		<tag k="place" v="farm" />
		<tag k="ssr:stedsnr" v="969220" />
	</node>
	<node id="-40414" lat="59.3560997006" lon="5.32163247852">
		<tag k="fixme" v="consider place=hamlet" />
		<tag k="name" v="Vormedal" />
		<tag k="place" v="farm" />
		<tag k="ssr:stedsnr" v="961217" />
	</node>
	<node id="-40409" lat="59.2954972201" lon="5.2259805486">
		<tag k="alt_name" v="Ysthus" />
		<tag k="name" v="Ytsthus" />
		<tag k="place" v="farm" />
		<tag k="ssr:stedsnr" v="937832" />
	</node>
	<node id="-40403" lat="59.2795972181" lon="5.25906388818">
		<tag k="name" v="Brekke" />
		<tag k="place" v="farm" />
		<tag k="ssr:stedsnr" v="936134" />
	</node>
	<node id="-40392" lat="59.2532805581" lon="5.18256110684">
		<tag k="name" v="Stong" />
		<tag k="place" v="farm" />
		<tag k="ssr:stedsnr" v="875068" />
	</node>
	<node id="-40384" lat="59.3166514732" lon="5.30222556721">
		<tag k="name" v="Myrvang" />
		<tag k="place" v="locality" />
		<tag k="ssr:stedsnr" v="852978" />
	</node>
	<node id="-40380" lat="59.4052009196" lon="5.36408648183">
		<tag k="fixme" v="consider place=hamlet" />
		<tag k="name" v="Skre" />
		<tag k="place" v="farm" />
		<tag k="ssr:stedsnr" v="851603" />
	</node>
	<node id="-40379" lat="59.3840133761" lon="5.32580548734">
		<tag k="fixme" v="consider place=hamlet" />
		<tag k="name" v="Spanne" />
		<tag k="place" v="farm" />
		<tag k="ssr:stedsnr" v="851580" />
	</node>
	<node id="-40378" lat="59.3761240283" lon="5.28253659303">
		<tag k="fixme" v="consider place=hamlet" />
		<tag k="name" v="Nordbø" />
		<tag k="place" v="farm" />
		<tag k="ssr:stedsnr" v="851571" />
	</node>
	<node id="-40377" lat="59.3471555576" lon="5.28401111582">
		<tag k="fixme" v="consider place=suburb, village or hamlet" />
		<tag k="name" v="Velle" />
		<tag k="place" v="quarter" />
		<tag k="ssr:stedsnr" v="851533" />
	</node>
	<node id="-41544" lat="59.4065916659" lon="5.24074444179">
		<tag k="fixme" v="consider place=suburb, village or hamlet" />
		<tag k="name" v="Osnes" />
		<tag k="place" v="quarter" />
		<tag k="ssr:stedsnr" v="967186" />
	</node>
	<node id="-40364" lat="59.3326553737" lon="5.36713422735">
		<tag k="fixme" v="consider place=hamlet" />
		<tag k="name" v="Lindøy" />
		<tag k="place" v="farm" />
		<tag k="ssr:stedsnr" v="936263" />
	</node>
	<node id="-40347" lat="59.3796749971" lon="5.14873889148">
		<tag k="name" v="Der hima" />
		<tag k="place" v="farm" />
		<tag k="ssr:stedsnr" v="815766" />
	</node>
	<node id="-40344" lat="59.2903675543" lon="5.29457007224">
		<tag k="alt_name" v="Austrheim;Østrem" />
		<tag k="fixme" v="consider place=hamlet" />
		<tag k="name" v="Austreim" />
		<tag k="place" v="farm" />
		<tag k="ssr:stedsnr" v="815158" />
	</node>
	<node id="-40341" lat="59.3699976313" lon="5.28369388729">
		<tag k="fixme" v="consider place=hamlet" />
		<tag k="name" v="Bø" />
		<tag k="place" v="farm" />
		<tag k="ssr:stedsnr" v="790558" />
	</node>
	<node id="-40340" lat="59.3778972234" lon="5.31276111359">
		<tag k="alt_name" v="Nordheim" />
		<tag k="name" v="Norheim" />
		<tag k="place" v="village" />
		<tag k="ssr:stedsnr" v="790622" />
	</node>
	<node id="-40333" lat="59.1653027807" lon="5.29660278034">
		<tag k="name" v="Innebrekk" />
		<tag k="place" v="farm" />
		<tag k="ssr:stedsnr" v="790427" />
	</node>
	<node id="-40332" lat="59.172757744" lon="5.30194327902">
		<tag k="fixme" v="consider place=hamlet" />
		<tag k="name" v="Hovdastad" />
		<tag k="place" v="farm" />
		<tag k="ssr:stedsnr" v="790410" />
	</node>
	<node id="-40316" lat="59.2258138891" lon="5.31446944252">
		<tag k="name" v="Løkjen" />
		<tag k="place" v="farm" />
		<tag k="ssr:stedsnr" v="788628" />
	</node>
	<node id="-40312" lat="59.3301694442" lon="5.3450305601">
		<tag k="name" v="Haugen" />
		<tag k="place" v="farm" />
		<tag k="ssr:stedsnr" v="788217" />
	</node>
	<node id="-40307" lat="59.2980858118" lon="5.37036538988">
		<tag k="name" v="Kvelva" />
		<tag k="place" v="locality" />
		<tag k="ssr:stedsnr" v="787967" />
	</node>
	<node id="-40300" lat="59.3134138932" lon="5.37641667059">
		<tag k="alt_name" v="Stokkane" />
		<tag k="name" v="Skokkane" />
		<tag k="place" v="farm" />
		<tag k="ssr:stedsnr" v="913959" />
	</node>
	<node id="-40299" lat="59.2601973645" lon="5.3164494665">
		<tag k="fixme" v="consider place=hamlet" />
		<tag k="name" v="Sunnarå" />
		<tag k="place" v="farm" />
		<tag k="ssr:stedsnr" v="913891" />
	</node>
	<node id="-40298" lat="59.2671361142" lon="5.31516110512">
		<tag k="name" v="Stølen" />
		<tag k="place" v="farm" />
		<tag k="ssr:stedsnr" v="913889" />
	</node>
	<node id="-40294" lat="59.2919611081" lon="5.25341388906">
		<tag k="alt_name" v="Djupvik" />
		<tag k="name" v="Juvika" />
		<tag k="place" v="farm" />
		<tag k="ssr:stedsnr" v="912941" />
	</node>
	<node id="-40293" lat="59.2870613285" lon="5.25719385028">
		<tag k="fixme" v="consider place=hamlet" />
		<tag k="name" v="Skår" />
		<tag k="place" v="farm" />
		<tag k="ssr:stedsnr" v="912939" />
	</node>
	<node id="-40290" lat="59.2752843032" lon="5.26143911163">
		<tag k="fixme" v="consider place=hamlet" />
		<tag k="name" v="Brekke" />
		<tag k="place" v="farm" />
		<tag k="ssr:stedsnr" v="912910" />
	</node>
	<node id="-40288" lat="59.3952883682" lon="5.2460097867">
		<tag k="alt_name" v="Hausken" />
		<tag k="fixme" v="consider place=hamlet" />
		<tag k="name" v="Hauskje" />
		<tag k="place" v="farm" />
		<tag k="ssr:stedsnr" v="912637" />
	</node>
	<node id="-40287" lat="59.3969585415" lon="5.37091165639">
		<tag k="alt_name" v="Eike, nordre;Nordra Eike;Eike nordre" />
		<tag k="fixme" v="consider place=hamlet" />
		<tag k="name" v="Nordre Eike" />
		<tag k="place" v="farm" />
		<tag k="ssr:stedsnr" v="912605" />
	</node>
	<node id="-40285" lat="59.3881922877" lon="5.22232835309">
		<tag k="fixme" v="consider place=hamlet" />
		<tag k="name" v="Sæbø" />
		<tag k="place" v="farm" />
		<tag k="ssr:stedsnr" v="912600" />
	</node>
	<node id="-40284" lat="59.3914777804" lon="5.27351666374">
		<tag k="alt_name" v="Storesundet" />
		<tag k="name" v="Storasund" />
		<tag k="place" v="village" />
		<tag k="ssr:stedsnr" v="912599" />
	</node>
	<node id="-40263" lat="59.2461668537" lon="5.21315884862">
		<tag k="fixme" v="consider place=hamlet" />
		<tag k="name" v="Ådland" />
		<tag k="place" v="farm" />
		<tag k="ssr:stedsnr" v="911045" />
	</node>
	<node id="-40262" lat="59.2248265745" lon="5.1818768403">
		<tag k="fixme" v="consider place=hamlet" />
		<tag k="name" v="Nes" />
		<tag k="place" v="farm" />
		<tag k="ssr:stedsnr" v="911033" />
	</node>
	<node id="-40235" lat="59.1907753795" lon="5.31121972732">
		<tag k="name" v="Paradis" />
		<tag k="place" v="farm" />
		<tag k="ssr:stedsnr" v="909687" />
	</node>
	<node id="-40234" lat="59.1859083301" lon="5.29288334017">
		<tag k="barrier" v="fence" />
		<tag k="name" v="Tønesgjerdet" />
		<tag k="ssr:stedsnr" v="909681" />
	</node>
	<node id="-40233" lat="59.2809888885" lon="5.29896388748">
		<tag k="name" v="Askehagen" />
		<tag k="place" v="village" />
		<tag k="ssr:stedsnr" v="909660" />
	</node>
	<node id="-40228" lat="59.3277611073" lon="5.19975832786">
		<tag k="historic" v="shieling" />
		<tag k="name" v="Vikene" />
		<tag k="place" v="locality" />
		<tag k="ssr:stedsnr" v="909484" />
	</node>
	<node id="-40222" lat="59.2152833306" lon="5.18174166429">
		<tag k="name" v="Nonstua" />
		<tag k="place" v="farm" />
		<tag k="ssr:stedsnr" v="909315" />
	</node>
	<node id="-40221" lat="59.2177750419" lon="5.19087832349">
		<tag k="name" v="Bakken" />
		<tag k="place" v="farm" />
		<tag k="ssr:stedsnr" v="909305" />
	</node>
	<node id="-40220" lat="59.2198055595" lon="5.18760277541">
		<tag k="alt_name" v="Langåkergaren" />
		<tag k="name" v="Langåkergarden" />
		<tag k="place" v="farm" />
		<tag k="ssr:stedsnr" v="909302" />
	</node>
	<node id="-40219" lat="59.3041941075" lon="5.23022745692">
		<tag k="fixme" v="consider place=hamlet" />
		<tag k="name" v="Ytraland" />
		<tag k="place" v="farm" />
		<tag k="ssr:stedsnr" v="909301" />
	</node>
	<node id="-41519" lat="59.3222337509" lon="5.21015603871">
		<tag k="alt_name" v="Kvalevåg" />
		<tag k="fixme" v="consider place=hamlet" />
		<tag k="name" v="Kvalavåg" />
		<tag k="place" v="farm" />
		<tag k="ssr:stedsnr" v="851998" />
	</node>
	<node id="-40208" lat="59.3191138851" lon="5.35181110722">
		<tag k="name" v="Leirvåg" />
		<tag k="place" v="farm" />
		<tag k="ssr:stedsnr" v="909213" />
	</node>
	<node id="-40205" lat="59.2975999997" lon="5.23812222261">
		<tag k="name" v="Moen" />
		<tag k="place" v="farm" />
		<tag k="ssr:stedsnr" v="909163" />
	</node>
	<node id="-40193" lat="59.3747611135" lon="5.29438333372">
		<tag k="name" v="Salhus" />
		<tag k="place" v="farm" />
		<tag k="ssr:stedsnr" v="730575" />
	</node>
	<node id="-40188" lat="59.3597296332" lon="5.27510694131">
		<tag k="fixme" v="consider place=hamlet" />
		<tag k="name" v="Utvik" />
		<tag k="place" v="farm" />
		<tag k="ssr:stedsnr" v="730604" />
	</node>
	<node id="-40182" lat="59.2330003065" lon="5.19798538726">
		<tag k="fixme" v="consider place=hamlet" />
		<tag k="name" v="Stava" />
		<tag k="place" v="farm" />
		<tag k="ssr:stedsnr" v="729025" />
	</node>
	<node id="-40176" lat="59.1559027803" lon="5.27631945101">
		<tag k="name" v="Midtvig" />
		<tag k="place" v="hamlet" />
		<tag k="ssr:stedsnr" v="727642" />
	</node>
	<node id="-40172" lat="59.2792805585" lon="5.37257222116">
		<tag k="name" v="Rossevik" />
		<tag k="place" v="farm" />
		<tag k="ssr:stedsnr" v="727619" />
	</node>
	<node id="-40152" lat="59.3717722193" lon="5.28893889">
		<tag k="name" v="Bø" />
		<tag k="place" v="farm" />
		<tag k="ssr:stedsnr" v="889188" />
	</node>
	<node id="-40151" lat="59.3910277778" lon="5.27130555675">
		<tag k="name" v="Midtre Storasund" />
		<tag k="place" v="isolated_dwelling" />
		<tag k="ssr:stedsnr" v="889185" />
	</node>
	<node id="-40150" lat="59.308055552" lon="5.31749999765">
		<tag k="name" v="Koltre" />
		<tag k="place" v="farm" />
		<tag k="ssr:stedsnr" v="693169" />
	</node>
	<node id="-40132" lat="59.1475693586" lon="5.24771989156">
		<tag k="fixme" v="consider place=hamlet" />
		<tag k="name" v="Høynes" />
		<tag k="place" v="farm" />
		<tag k="ssr:stedsnr" v="664749" />
	</node>
	<node id="-40127" lat="59.3791149419" lon="5.32134675469">
		<tag k="amenity" v="school" />
		<tag k="name" v="Norheim skole" />
		<tag k="ssr:stedsnr" v="876997" />
	</node>
	<node id="-40119" lat="59.3796805399" lon="5.23597197361">
		<tag k="fixme" v="consider place=hamlet" />
		<tag k="name" v="Torvastad" />
		<tag k="place" v="farm" />
		<tag k="ssr:stedsnr" v="876824" />
	</node>
	<node id="-39454" lat="59.2948277739" lon="5.21874444335">
		<tag k="name" v="Veavågen" />
		<tag k="old_name" v="Vedavågen" />
		<tag k="place" v="village" />
		<tag k="ssr:stedsnr" v="245950" />
	</node>
	<node id="-40107" lat="59.3106273779" lon="5.37271710898">
		<tag k="fixme" v="consider place=hamlet" />
		<tag k="name" v="Fosen" />
		<tag k="place" v="farm" />
		<tag k="ssr:stedsnr" v="731956" />
	</node>
	<node id="-40102" lat="59.2700395763" lon="5.21630018136">
		<tag k="fixme" v="consider place=hamlet" />
		<tag k="name" v="Trælhaug" />
		<tag k="place" v="farm" />
		<tag k="ssr:stedsnr" v="730930" />
	</node>
	<node id="-40095" lat="59.4034187548" lon="5.36079051262">
		<tag k="fixme" v="consider place=hamlet" />
		<tag k="name" v="Døle" />
		<tag k="place" v="farm" />
		<tag k="ssr:stedsnr" v="730679" />
	</node>
	<node id="-40089" lat="59.3662017479" lon="5.30669412381">
		<tag k="alt_name" v="Mokseim" />
		<tag k="fixme" v="consider place=hamlet" />
		<tag k="name" v="Moksheim" />
		<tag k="place" v="farm" />
		<tag k="ssr:stedsnr" v="730593" />
	</node>
	<node id="-40088" lat="59.3710822736" lon="5.32908553729">
		<tag k="fixme" v="consider place=hamlet" />
		<tag k="name" v="Helgaland" />
		<tag k="place" v="farm" />
		<tag k="ssr:stedsnr" v="730588" />
	</node>
	<node id="-39449" lat="59.3807193738" lon="5.36649920144">
		<tag k="fixme" v="consider place=hamlet" />
		<tag k="name" v="Aksnes" />
		<tag k="place" v="farm" />
		<tag k="ssr:stedsnr" v="244584" />
	</node>
	<node id="-40075" lat="59.3538644095" lon="5.28999284135">
		<tag k="fixme" v="consider place=hamlet" />
		<tag k="name" v="Avaldsnes" />
		<tag k="place" v="farm" />
		<tag k="ssr:stedsnr" v="632315" />
	</node>
	<node id="-40070" lat="59.3072833363" lon="5.37234722496">
		<tag k="name" v="Jektevik" />
		<tag k="place" v="farm" />
		<tag k="ssr:stedsnr" v="727937" />
	</node>
	<node id="-40052" lat="59.2238027744" lon="5.31712500653">
		<tag k="name" v="Nygard" />
		<tag k="place" v="locality" />
		<tag k="ssr:stedsnr" v="727664" />
	</node>
	<node id="-40038" lat="59.2248222251" lon="5.19796665856">
		<tag k="name" v="Haugeberg" />
		<tag k="place" v="farm" />
		<tag k="ssr:stedsnr" v="727288" />
	</node>
	<node id="-40033" lat="59.3324895271" lon="5.34451971994">
		<tag k="alt_name" v="Juviken;Djupvik" />
		<tag k="name" v="Juvika" />
		<tag k="place" v="farm" />
		<tag k="ssr:stedsnr" v="727241" />
	</node>
	<node id="-40031" lat="59.2384166692" lon="5.19441666189">
		<tag k="name" v="Neraliknes" />
		<tag k="place" v="farm" />
		<tag k="ssr:stedsnr" v="727219" />
	</node>
	<node id="-40029" lat="59.3204972226" lon="5.36529166574">
		<tag k="name" v="Vollsvik" />
		<tag k="place" v="hamlet" />
		<tag k="ssr:stedsnr" v="727211" />
	</node>
	<node id="-40028" lat="59.3107916674" lon="5.2933638807">
		<tag k="name" v="Vorå" />
		<tag k="place" v="farm" />
		<tag k="ssr:stedsnr" v="727053" />
	</node>
	<node id="-40019" lat="59.1473722189" lon="5.25728332975">
		<tag k="building" v="industrial" />
		<tag k="industrial" v="factory" />
		<tag k="name" v="Skude Verft AS" />
		<tag k="ssr:stedsnr" v="724288" />
	</node>
	<node id="-40012" lat="59.2875861148" lon="5.21828333361">
		<tag k="fixme" v="consider place=hamlet" />
		<tag k="name" v="Veabygda" />
		<tag k="place" v="village" />
		<tag k="ssr:stedsnr" v="608960" />
	</node>
	<node id="-40010" lat="59.368462646" lon="5.36403386133">
		<tag k="alt_name" v="Myklebostad;Myklabost" />
		<tag k="fixme" v="consider place=hamlet" />
		<tag k="name" v="Myklabust" />
		<tag k="place" v="farm" />
		<tag k="ssr:stedsnr" v="608589" />
	</node>
	<node id="-40008" lat="59.389513469" lon="5.36566172328">
		<tag k="alt_name" v="Eike, s;Søra Eike;Eike" />
		<tag k="fixme" v="consider place=hamlet" />
		<tag k="name" v="Søre Eike" />
		<tag k="place" v="farm" />
		<tag k="ssr:stedsnr" v="608615" />
	</node>
	<node id="-40006" lat="59.1743083306" lon="5.19703054797">
		<tag k="name" v="Ramnastein" />
		<tag k="place" v="farm" />
		<tag k="ssr:stedsnr" v="608416" />
	</node>
	<node id="-39590" lat="59.2212750045" lon="5.19685555811">
		<tag k="name" v="Bråtå" />
		<tag k="place" v="farm" />
		<tag k="ssr:stedsnr" v="302321" />
	</node>
	<node id="-40002" lat="59.253275001" lon="5.19860554818">
		<tag k="name" v="Mosbron" />
		<tag k="place" v="farm" />
		<tag k="ssr:stedsnr" v="605805" />
	</node>
	<node id="-39986" lat="59.2431583359" lon="5.20006667265">
		<tag k="name" v="Lobben" />
		<tag k="place" v="farm" />
		<tag k="ssr:stedsnr" v="605203" />
	</node>
	<node id="-39984" lat="59.2948472247" lon="5.22127222085">
		<tag k="name" v="Rekkje" />
		<tag k="place" v="farm" />
		<tag k="ssr:stedsnr" v="605178" />
	</node>
	<node id="-39983" lat="59.2999222185" lon="5.23292499676">
		<tag k="name" v="Hestavik" />
		<tag k="place" v="quarter" />
		<tag k="ssr:stedsnr" v="605164" />
	</node>
	<node id="-39982" lat="59.1645916656" lon="5.230030561">
		<tag k="name" v="Toptene" />
		<tag k="place" v="farm" />
		<tag k="ssr:stedsnr" v="605154" />
	</node>
	<node id="-39969" lat="59.371869444" lon="5.29449443652">
		<tag k="name" v="Pilkevik" />
		<tag k="place" v="farm" />
		<tag k="ssr:stedsnr" v="707205" />
	</node>
	<node id="-39959" lat="59.2241562394" lon="5.19689155014">
		<tag k="fixme" v="consider place=hamlet" />
		<tag k="name" v="Ferkingstad" />
		<tag k="place" v="farm" />
		<tag k="ssr:stedsnr" v="547009" />
	</node>
	<node id="-39952" lat="59.1526833367" lon="5.28820277563">
		<tag k="fixme" v="consider place=hamlet" />
		<tag k="name" v="Falnes prestegård" />
		<tag k="place" v="farm" />
		<tag k="ssr:stedsnr" v="545615" />
	</node>
	<node id="-39951" lat="59.2850533446" lon="5.28736120048">
		<tag k="alt_name" v="Asadalen;Asaldal" />
		<tag k="fixme" v="consider place=hamlet" />
		<tag k="name" v="Asaldalen" />
		<tag k="place" v="farm" />
		<tag k="ssr:stedsnr" v="694131" />
	</node>
	<node id="-39939" lat="59.2818416664" lon="5.31538333391">
		<tag k="name" v="Kalvatræ" />
		<tag k="place" v="locality" />
		<tag k="ssr:stedsnr" v="511072" />
	</node>
	<node id="-39931" lat="59.150673925" lon="5.21306189343">
		<tag k="fixme" v="consider place=hamlet" />
		<tag k="name" v="Syre" />
		<tag k="place" v="farm" />
		<tag k="ssr:stedsnr" v="487418" />
	</node>
	<node id="-39920" lat="59.1533055513" lon="5.24485555838">
		<tag k="name" v="Idlamyr" />
		<tag k="place" v="quarter" />
		<tag k="ssr:stedsnr" v="484520" />
	</node>
	<node id="-39915" lat="59.2198861126" lon="5.3187916597">
		<tag k="name" v="Tverdalen" />
		<tag k="place" v="farm" />
		<tag k="ssr:stedsnr" v="484621" />
	</node>
	<node id="-39909" lat="59.2223888859" lon="5.19350277199">
		<tag k="name" v="Stien" />
		<tag k="place" v="hamlet" />
		<tag k="ssr:stedsnr" v="484265" />
	</node>
	<node id="-39908" lat="59.300383334" lon="5.23547499489">
		<tag k="name" v="Guråplasset" />
		<tag k="place" v="farm" />
		<tag k="ssr:stedsnr" v="484264" />
	</node>
	<node id="-39905" lat="59.3328377352" lon="5.28130089039">
>>>>>>> e1d4bc35ff8a6074a6f2e91616a996b547c36f15
		<tag k="fixme" v="consider place=hamlet" />
		<tag k="name" v="Matland" />
		<tag k="place" v="farm" />
		<tag k="ssr:stedsnr" v="484220" />
	</node>
<<<<<<< HEAD
	<node lat="59.38531087226268" lon="5.245714366594903" id="-3593">
		<tag k="alt_name" v="Håland, nordre;Håland" />
		<tag k="fixme" v="consider place=hamlet" />
		<tag k="name" v="Nordre Håland" />
		<tag k="place" v="farm" />
		<tag k="ssr:stedsnr" v="1580" />
	</node>
	<node lat="59.327929280713455" lon="5.200258534001328" id="-3594">
		<tag k="alt_name" v="Vikene" />
		<tag k="fixme" v="consider place=hamlet" />
		<tag k="name" v="Vikane" />
		<tag k="place" v="farm" />
		<tag k="ssr:stedsnr" v="1993" />
	</node>
	<node lat="59.32636669064304" lon="5.287532447314306" id="-3595">
		<tag k="fixme" v="consider place=hamlet" />
		<tag k="name" v="Kolstø" />
		<tag k="place" v="farm" />
		<tag k="ssr:stedsnr" v="1998" />
	</node>
	<node lat="59.25921520428591" lon="5.1926381914778315" id="-3596">
		<tag k="alt_name" v="Åkre" />
		<tag k="name" v="Åkra" />
		<tag k="place" v="village" />
		<tag k="ssr:stedsnr" v="2880" />
	</node>
	<node lat="59.25851944618564" lon="5.182024998679457" id="-3598">
		<tag k="name" v="Åkrehamn" />
		<tag k="place" v="town" />
		<tag k="ssr:stedsnr" v="2899" />
	</node>
	<node lat="59.28763888720654" lon="5.380091666176226" id="-3599">
		<tag k="name" v="Breidvik" />
		<tag k="place" v="farm" />
		<tag k="ssr:stedsnr" v="2919" />
	</node>
	<node lat="59.274674995951564" lon="5.2183416647322645" id="-3600">
		<tag k="name" v="Heia" />
		<tag k="place" v="farm" />
		<tag k="ssr:stedsnr" v="2925" />
	</node>
	<node lat="59.37483055892727" lon="5.261161115955203" id="-3609">
		<tag k="amenity" v="school" />
		<tag k="name" v="Hauge skole" />
		<tag k="ssr:stedsnr" v="26751" />
	</node>
	<node lat="59.14784999854297" lon="5.271930548378418" id="-3620">
		<tag k="name" v="Ryggen" />
		<tag k="place" v="farm" />
		<tag k="ssr:stedsnr" v="41579" />
	</node>
	<node lat="59.259896792950514" lon="5.203346558192525" id="-3639">
		<tag k="fixme" v="consider place=hamlet" />
		<tag k="name" v="Årvoll" />
		<tag k="place" v="farm" />
		<tag k="ssr:stedsnr" v="59789" />
	</node>
	<node lat="59.33460375311934" lon="5.361076329534603" id="-3642">
		<tag k="fixme" v="consider place=hamlet" />
		<tag k="name" v="Røyksund" />
		<tag k="place" v="farm" />
		<tag k="ssr:stedsnr" v="60211" />
	</node>
	<node lat="59.31176111328695" lon="5.287650003381548" id="-3644">
		<tag k="name" v="Smidjeberg" />
		<tag k="place" v="farm" />
		<tag k="ssr:stedsnr" v="60062" />
	</node>
	<node lat="59.3107472214793" lon="5.299400008735476" id="-3645">
		<tag k="fixme" v="consider place=hamlet" />
		<tag k="name" v="Austevik" />
		<tag k="place" v="village" />
		<tag k="ssr:stedsnr" v="60064" />
	</node>
	<node lat="59.278941484718366" lon="5.209025194233728" id="-3678">
		<tag k="fixme" v="consider place=hamlet" />
		<tag k="name" v="Mannes" />
		<tag k="place" v="farm" />
		<tag k="ssr:stedsnr" v="63921" />
	</node>
	<node lat="59.29165832950744" lon="5.378277776391732" id="-3679">
		<tag k="alt_name" v="Våga" />
		<tag k="name" v="Leirvåg" />
		<tag k="place" v="farm" />
		<tag k="ssr:stedsnr" v="63927" />
	</node>
	<node lat="59.288093888674084" lon="5.243057539070641" id="-3680">
		<tag k="fixme" v="consider place=hamlet" />
		<tag k="name" v="Vea" />
		<tag k="place" v="farm" />
		<tag k="ssr:stedsnr" v="63939" />
	</node>
	<node lat="59.28234903160082" lon="5.3667849488732555" id="-3691">
		<tag k="alt_name" v="Mekjervik" />
		<tag k="name" v="Mekrevik" />
		<tag k="place" v="farm" />
		<tag k="ssr:stedsnr" v="87147" />
	</node>
	<node lat="59.34300393299197" lon="5.202839130378948" id="-3693">
		<tag k="alt_name" v="Stogdal" />
		<tag k="fixme" v="consider place=hamlet" />
		<tag k="name" v="Stokkdal" />
		<tag k="place" v="farm" />
		<tag k="ssr:stedsnr" v="87934" />
	</node>
	<node lat="59.266769676560955" lon="5.322568005246374" id="-3710">
		<tag k="name" v="Stokkå" />
		<tag k="place" v="isolated_dwelling" />
		<tag k="ssr:stedsnr" v="120455" />
	</node>
	<node lat="59.15810833329906" lon="5.297416664570195" id="-3718">
		<tag k="historic" v="shieling" />
		<tag k="name" v="Svinagjerdet" />
		<tag k="place" v="isolated_dwelling" />
		<tag k="ssr:stedsnr" v="120548" />
	</node>
	<node lat="59.26855277347822" lon="5.195108330702158" id="-3726">
		<tag k="name" v="Tveit" />
		<tag k="place" v="farm" />
		<tag k="ssr:stedsnr" v="120799" />
	</node>
	<node lat="59.37207500128972" lon="5.365716662174874" id="-3738">
		<tag k="name" v="Århaug" />
		<tag k="place" v="farm" />
		<tag k="ssr:stedsnr" v="123590" />
	</node>
	<node lat="59.3565505506013" lon="5.238165347614864" id="-3740">
		<tag k="name" v="Visnes" />
		<tag k="place" v="village" />
		<tag k="ssr:stedsnr" v="123596" />
	</node>
	<node lat="59.28576020327867" lon="5.363268515064982" id="-3746">
		<tag k="fixme" v="consider place=hamlet" />
		<tag k="name" v="Våga" />
		<tag k="place" v="farm" />
		<tag k="ssr:stedsnr" v="123931" />
	</node>
	<node lat="59.28353928553258" lon="5.306713032280167" id="-3747">
		<tag k="name" v="Kopervik" />
		<tag k="place" v="town" />
		<tag k="ssr:stedsnr" v="123935" />
	</node>
	<node lat="59.31147443095668" lon="5.281073873988643" id="-3748">
		<tag k="alt_name" v="Håland, s" />
		<tag k="fixme" v="consider place=hamlet" />
		<tag k="name" v="Søre Håland" />
		<tag k="place" v="farm" />
		<tag k="ssr:stedsnr" v="123991" />
	</node>
	<node lat="59.33036679558943" lon="5.3465532806813805" id="-3756">
		<tag k="name" v="Ramsvik" />
		<tag k="place" v="farm" />
		<tag k="ssr:stedsnr" v="147181" />
	</node>
	<node lat="59.382072222090926" lon="5.319261106800363" id="-3764">
		<tag k="leisure" v="pitch" />
		<tag k="name" v="Hestmyr idrettsplass" />
		<tag k="ssr:stedsnr" v="147983" />
	</node>
	<node lat="59.16806046861689" lon="5.221075174857217" id="-3780">
		<tag k="fixme" v="consider place=suburb, village or hamlet" />
		<tag k="name" v="Vengedalsbråta" />
		<tag k="place" v="quarter" />
		<tag k="ssr:stedsnr" v="181150" />
	</node>
	<node lat="59.35428889168153" lon="5.218919437252132" id="-3797">
		<tag k="fixme" v="consider place=hamlet" />
		<tag k="name" v="Fransehagen" />
		<tag k="place" v="village" />
		<tag k="ssr:stedsnr" v="181750" />
	</node>
	<node lat="59.34943333368812" lon="5.318016674402472" id="-3803">
		<tag k="name" v="Snik" />
		<tag k="place" v="farm" />
		<tag k="ssr:stedsnr" v="181800" />
	</node>
	<node lat="59.17738610887299" lon="5.2375527719420685" id="-3807">
		<tag k="barrier" v="fence" />
		<tag k="name" v="Gjetlegjerde" />
		<tag k="ssr:stedsnr" v="181901" />
	</node>
	<node lat="59.29269584965271" lon="5.364827727988096" id="-3809">
		<tag k="name" v="Litlagard" />
		<tag k="place" v="farm" />
		<tag k="ssr:stedsnr" v="181971" />
	</node>
	<node lat="59.22203889354175" lon="5.181472227953105" id="-3811">
		<tag k="name" v="Torvberg" />
		<tag k="place" v="farm" />
		<tag k="ssr:stedsnr" v="183022" />
	</node>
	<node lat="59.18349240358286" lon="5.291657523377933" id="-3812">
		<tag k="fixme" v="consider place=hamlet" />
		<tag k="name" v="Tjøstheim" />
		<tag k="place" v="farm" />
		<tag k="ssr:stedsnr" v="183074" />
	</node>
	<node lat="59.36167225168018" lon="5.240711653425777" id="-3825">
		<tag k="alt_name" v="Landenes" />
		<tag k="fixme" v="consider place=hamlet" />
		<tag k="name" v="Landanes" />
		<tag k="place" v="farm" />
		<tag k="ssr:stedsnr" v="184559" />
	</node>
	<node lat="59.36404850414388" lon="5.256201136717476" id="-3827">
		<tag k="alt_name" v="Viks Håland" />
		<tag k="fixme" v="consider place=hamlet" />
		<tag k="name" v="Vikshåland" />
		<tag k="place" v="farm" />
		<tag k="ssr:stedsnr" v="184562" />
	</node>
	<node lat="59.351796658612315" lon="5.262856418561435" id="-3828">
		<tag k="fixme" v="consider place=hamlet" />
		<tag k="name" v="Skeie" />
		<tag k="place" v="farm" />
		<tag k="ssr:stedsnr" v="184567" />
	</node>
	<node lat="59.30524166608904" lon="5.226341671595034" id="-3831">
		<tag k="alt_name" v="Ytreland" />
		<tag k="fixme" v="consider place=hamlet" />
		<tag k="name" v="Ytraland" />
		<tag k="place" v="village" />
		<tag k="ssr:stedsnr" v="184958" />
	</node>
	<node lat="59.25911389150522" lon="5.325405549234591" id="-3832">
		<tag k="alt_name" v="Midtre Stokke" />
		<tag k="name" v="Melstokke" />
		<tag k="place" v="village" />
		<tag k="ssr:stedsnr" v="184867" />
	</node>
	<node lat="59.32405708426102" lon="5.296799904914584" id="-3835">
		<tag k="fixme" v="consider place=hamlet" />
		<tag k="name" v="Håvik" />
		<tag k="place" v="farm" />
		<tag k="ssr:stedsnr" v="184979" />
	</node>
	<node lat="59.285002773320976" lon="5.362833327896939" id="-3836">
		<tag k="name" v="Våga" />
		<tag k="place" v="farm" />
		<tag k="ssr:stedsnr" v="206948" />
	</node>
	<node lat="59.34610343664003" lon="5.270696711283351" id="-3838">
		<tag k="fixme" v="consider place=hamlet" />
		<tag k="name" v="Søre Våge" />
		<tag k="place" v="farm" />
		<tag k="ssr:stedsnr" v="207361" />
	</node>
	<node lat="59.34389721943144" lon="5.268458337166461" id="-3839">
		<tag k="name" v="Nygard" />
		<tag k="place" v="farm" />
		<tag k="ssr:stedsnr" v="207362" />
	</node>
	<node lat="59.27157378289552" lon="5.199961468432425" id="-3844">
		<tag k="alt_name" v="Sevland" />
		<tag k="fixme" v="consider place=hamlet" />
		<tag k="name" v="Sæveland" />
		<tag k="place" v="farm" />
		<tag k="ssr:stedsnr" v="207793" />
	</node>
	<node lat="59.38028888949807" lon="5.288694442792436" id="-3854">
		<tag k="name" v="Sjøli" />
		<tag k="place" v="isolated_dwelling" />
		<tag k="ssr:stedsnr" v="222159" />
	</node>
	<node lat="59.17817802675422" lon="5.1936841170834525" id="-3856">
		<tag k="fixme" v="consider place=hamlet" />
		<tag k="name" v="Vikra" />
		<tag k="place" v="farm" />
		<tag k="ssr:stedsnr" v="283457" />
	</node>
	<node lat="59.14803333206454" lon="5.264611110282101" id="-3872">
		<tag k="name" v="Havnafjellet" />
		<tag k="place" v="quarter" />
		<tag k="ssr:stedsnr" v="302550" />
	</node>
	<node lat="59.15803055725012" lon="5.275527782704014" id="-3883">
		<tag k="name" v="Øvre Vig" />
		<tag k="place" v="hamlet" />
		<tag k="ssr:stedsnr" v="302659" />
	</node>
	<node lat="59.161333331891086" lon="5.2816805478621065" id="-3884">
		<tag k="name" v="Rudlå" />
		<tag k="place" v="farm" />
		<tag k="ssr:stedsnr" v="302661" />
	</node>
	<node lat="59.293422225017686" lon="5.37296388176166" id="-3886">
		<tag k="name" v="Austnes" />
		<tag k="place" v="isolated_dwelling" />
		<tag k="ssr:stedsnr" v="302957" />
	</node>
	<node lat="59.282766668997816" lon="5.274947219394592" id="-3891">
		<tag k="name" v="Flesland" />
		<tag k="place" v="village" />
		<tag k="ssr:stedsnr" v="303660" />
	</node>
	<node lat="59.3545861081152" lon="5.319322227422331" id="-3893">
		<tag k="name" v="Vormedal" />
		<tag k="place" v="village" />
		<tag k="ssr:stedsnr" v="303770" />
	</node>
	<node lat="59.35395833447796" lon="5.28078611448287" id="-3894">
		<tag k="amenity" v="sports_centre" />
		<tag k="name" v="Kjuklinghaug" />
		<tag k="ssr:stedsnr" v="303772" />
	</node>
	<node lat="59.192348833529856" lon="5.182935397979566" id="-3899">
		<tag k="fixme" v="consider place=hamlet" />
		<tag k="name" v="Sandhåland" />
		<tag k="place" v="farm" />
		<tag k="ssr:stedsnr" v="304096" />
	</node>
	<node lat="59.34299999976221" lon="5.367455559076862" id="-3901">
		<tag k="name" v="Holmen" />
		<tag k="place" v="farm" />
		<tag k="ssr:stedsnr" v="305580" />
	</node>
	<node lat="59.357777781961886" lon="5.3149999980169715" id="-3907">
		<tag k="name" v="Vormedal" />
		<tag k="place" v="village" />
		<tag k="ssr:stedsnr" v="305556" />
	</node>
	<node lat="59.32669599132" lon="5.3485559341786955" id="-3915">
		<tag k="alt_name" v="Kjelde;Kjellå" />
		<tag k="name" v="Kjelda" />
		<tag k="place" v="farm" />
		<tag k="ssr:stedsnr" v="305982" />
	</node>
	<node lat="59.327560152926125" lon="5.277637529076463" id="-3916">
		<tag k="fixme" v="consider place=hamlet" />
		<tag k="name" v="Rygge" />
		<tag k="place" v="farm" />
		<tag k="ssr:stedsnr" v="305996" />
	</node>
	<node lat="59.2862694470074" lon="5.396183338447513" id="-3917">
		<tag k="name" v="Leirvåg" />
		<tag k="place" v="farm" />
		<tag k="ssr:stedsnr" v="305919" />
	</node>
	<node lat="59.22997777953327" lon="5.322177777341166" id="-3924">
		<tag k="fixme" v="consider place=hamlet" />
		<tag k="name" v="Snorteland" />
		<tag k="place" v="farm" />
		<tag k="ssr:stedsnr" v="328984" />
	</node>
	<node lat="59.20237887183759" lon="5.179321560733285" id="-3944">
		<tag k="alt_name" v="Hebnes" />
		<tag k="fixme" v="consider place=hamlet" />
		<tag k="name" v="Hemnes" />
		<tag k="place" v="farm" />
		<tag k="ssr:stedsnr" v="357096" />
	</node>
	<node lat="59.37658055951239" lon="5.299247225211588" id="-3945">
		<tag k="name" v="Krona" />
		<tag k="place" v="isolated_dwelling" />
		<tag k="ssr:stedsnr" v="360088" />
	</node>
	<node lat="59.15104166939859" lon="5.257599993874141" id="-3947">
		<tag k="name" v="Nylund" />
		<tag k="place" v="quarter" />
		<tag k="ssr:stedsnr" v="361758" />
	</node>
	<node lat="59.31354444632175" lon="5.285891672609701" id="-3954">
		<tag k="name" v="Rabben" />
		<tag k="place" v="farm" />
		<tag k="ssr:stedsnr" v="363119" />
	</node>
	<node lat="59.34646666493472" lon="5.276555547439189" id="-3984">
		<tag k="fixme" v="consider place=suburb, village or hamlet" />
		<tag k="name" v="Velleberget" />
		<tag k="place" v="quarter" />
		<tag k="ssr:stedsnr" v="363746" />
	</node>
	<node lat="59.18687073889237" lon="5.186599950833505" id="-3989">
		<tag k="fixme" v="consider place=hamlet" />
		<tag k="name" v="Haga" />
		<tag k="place" v="farm" />
		<tag k="ssr:stedsnr" v="365101" />
	</node>
	<node lat="59.17421666449001" lon="5.203450000443767" id="-3991">
		<tag k="name" v="Løkaberg" />
		<tag k="place" v="farm" />
		<tag k="ssr:stedsnr" v="365430" />
	</node>
	<node lat="59.33194166796101" lon="5.278352773098225" id="-3998">
		<tag k="name" v="Matland" />
		<tag k="place" v="farm" />
		<tag k="ssr:stedsnr" v="366548" />
	</node>
	<node lat="59.153400003167874" lon="5.200491673569928" id="-3999">
		<tag k="alt_name" v="Djupevig" />
		<tag k="name" v="Djupevik" />
		<tag k="place" v="farm" />
		<tag k="ssr:stedsnr" v="366397" />
	</node>
	<node lat="59.27557197049949" lon="5.305273592110817" id="-4004">
		<tag k="name" v="Stangaland" />
		<tag k="place" v="quarter" />
		<tag k="ssr:stedsnr" v="366896" />
	</node>
	<node lat="59.336483331251166" lon="5.357036105455384" id="-4006">
		<tag k="name" v="Myri" />
		<tag k="place" v="farm" />
		<tag k="ssr:stedsnr" v="388263" />
	</node>
	<node lat="59.33886944470497" lon="5.358541663887136" id="-4007">
		<tag k="name" v="Nygard" />
		<tag k="place" v="farm" />
		<tag k="ssr:stedsnr" v="388264" />
	</node>
	<node lat="59.33876388873837" lon="5.363408333150288" id="-4008">
		<tag k="name" v="Plasset" />
		<tag k="place" v="farm" />
		<tag k="ssr:stedsnr" v="388265" />
	</node>
	<node lat="59.28410000394061" lon="5.314119449452687" id="-4017">
		<tag k="alt_name" v="Trædborg" />
		<tag k="name" v="Treborg" />
		<tag k="place" v="quarter" />
		<tag k="ssr:stedsnr" v="390084" />
	</node>
	<node lat="59.25113055805415" lon="5.198738887574909" id="-4026">
		<tag k="name" v="Mehaug" />
		<tag k="place" v="farm" />
		<tag k="ssr:stedsnr" v="390835" />
	</node>
	<node lat="59.311150003736444" lon="5.281369436643889" id="-4035">
		<tag k="name" v="Håland" />
		<tag k="place" v="farm" />
		<tag k="ssr:stedsnr" v="424059" />
	</node>
	<node lat="59.245166663385525" lon="5.197980553941578" id="-4037">
		<tag k="name" v="Sandbakkane" />
		<tag k="place" v="village" />
		<tag k="ssr:stedsnr" v="424187" />
	</node>
	<node lat="59.27613889317325" lon="5.192558341026382" id="-4040">
		<tag k="name" v="Mannes" />
		<tag k="place" v="farm" />
		<tag k="ssr:stedsnr" v="424844" />
	</node>
	<node lat="59.26985277932507" lon="5.328813889711813" id="-4042">
		<tag k="name" v="Haugen" />
		<tag k="place" v="farm" />
		<tag k="ssr:stedsnr" v="424432" />
	</node>
	<node lat="59.28086110880733" lon="5.303877774412847" id="-4057">
		<tag k="name" v="Sveinsvolljordet" />
		<tag k="place" v="suburb" />
		<tag k="ssr:stedsnr" v="424637" />
	</node>
	<node lat="59.28474999786337" lon="5.293055562850684" id="-4058">
		<tag k="name" v="Østremlia" />
		<tag k="place" v="village" />
		<tag k="ssr:stedsnr" v="424639" />
	</node>
	<node lat="59.28881666851781" lon="5.228091668422563" id="-4059">
		<tag k="name" v="Ekrene" />
		<tag k="place" v="farm" />
		<tag k="ssr:stedsnr" v="424779" />
	</node>
	<node lat="59.3458194459736" lon="5.273138897299537" id="-4060">
		<tag k="name" v="Øygarden" />
		<tag k="place" v="farm" />
		<tag k="ssr:stedsnr" v="424780" />
	</node>
	<node lat="59.23012071300411" lon="5.25977796489436" id="-4064">
		<tag k="alt_name" v="Spinngaren" />
		<tag k="barrier" v="fence" />
		<tag k="name" v="Spinngarden" />
		<tag k="ssr:stedsnr" v="424874" />
	</node>
	<node lat="59.25911944675896" lon="5.322719446471316" id="-4079">
		<tag k="fixme" v="consider place=hamlet" />
		<tag k="name" v="Stokka" />
		<tag k="place" v="village" />
		<tag k="ssr:stedsnr" v="427860" />
	</node>
	<node lat="59.28039492650159" lon="5.274048371165618" id="-4082">
		<tag k="name" v="Eide" />
		<tag k="place" v="hamlet" />
		<tag k="ssr:stedsnr" v="427914" />
	</node>
	<node lat="59.281841666385546" lon="5.315383333906431" id="-4090">
		<tag k="name" v="Kalvatræ" />
		<tag k="place" v="locality" />
		<tag k="ssr:stedsnr" v="511072" />
	</node>
	<node lat="59.30935277960101" lon="5.281655558991558" id="-4094">
		<tag k="name" v="Helgeberg" />
		<tag k="place" v="farm" />
		<tag k="ssr:stedsnr" v="511157" />
	</node>
	<node lat="59.29095277958159" lon="5.361188896227556" id="-4095">
		<tag k="name" v="Gravi" />
		<tag k="place" v="farm" />
		<tag k="ssr:stedsnr" v="511179" />
	</node>
	<node lat="59.29734999954468" lon="5.215527774185929" id="-4120">
		<tag k="name" v="Sæviktun" />
		<tag k="place" v="village" />
		<tag k="ssr:stedsnr" v="545142" />
	</node>
	<node lat="59.29148333648687" lon="5.221472223483053" id="-4122">
		<tag k="name" v="Krokhaugen" />
		<tag k="place" v="farm" />
		<tag k="ssr:stedsnr" v="545149" />
	</node>
	<node lat="59.22561388554834" lon="5.186636116888664" id="-4125">
		<tag k="name" v="Ekrene" />
		<tag k="place" v="farm" />
		<tag k="ssr:stedsnr" v="545245" />
	</node>
	<node lat="59.2396111068203" lon="5.198022223513597" id="-4128">
		<tag k="name" v="Øvreliknes" />
		<tag k="place" v="farm" />
		<tag k="ssr:stedsnr" v="545194" />
	</node>
	<node lat="59.152683336683594" lon="5.288202775630734" id="-4134">
		<tag k="fixme" v="consider place=hamlet" />
		<tag k="name" v="Falnes prestegård" />
		<tag k="place" v="farm" />
		<tag k="ssr:stedsnr" v="545615" />
	</node>
	<node lat="59.27384444916127" lon="5.201102785290324" id="-4135">
		<tag k="name" v="Hansadalen" />
		<tag k="place" v="quarter" />
		<tag k="ssr:stedsnr" v="545852" />
	</node>
	<node lat="59.19716944082868" lon="5.202324999481027" id="-4138">
		<tag k="name" v="Stemmen" />
		<tag k="place" v="farm" />
		<tag k="ssr:stedsnr" v="545529" />
	</node>
	<node lat="59.285112132356645" lon="5.277977064537534" id="-4144">
		<tag k="alt_name" v="Midtre Eide" />
		<tag k="fixme" v="consider place=hamlet" />
		<tag k="name" v="Midt-Eide" />
		<tag k="place" v="farm" />
		<tag k="ssr:stedsnr" v="545651" />
	</node>
	<node lat="59.34877179408951" lon="5.269369962926356" id="-4150">
		<tag k="fixme" v="consider place=hamlet" />
		<tag k="name" v="Våge" />
		<tag k="place" v="farm" />
		<tag k="ssr:stedsnr" v="545767" />
	</node>
	<node lat="59.2241562393516" lon="5.196891550143796" id="-4152">
		<tag k="fixme" v="consider place=hamlet" />
		<tag k="name" v="Ferkingstad" />
=======
	<node id="-39902" lat="59.1663472232" lon="5.29948334017">
		<tag k="name" v="Skitnedal" />
		<tag k="place" v="farm" />
		<tag k="ssr:stedsnr" v="484307" />
	</node>
	<node id="-39899" lat="59.3215251972" lon="5.37821869424">
		<tag k="fixme" v="consider place=hamlet" />
		<tag k="name" v="Hellevik" />
		<tag k="place" v="farm" />
		<tag k="ssr:stedsnr" v="670980" />
	</node>
	<node id="-39898" lat="59.3130972204" lon="5.31162500284">
		<tag k="building" v="industrial" />
		<tag k="industrial" v="factory" />
		<tag k="name" v="Hydro Aluminium Karmøy Metallverk" />
		<tag k="old_name" v="Alnor" />
		<tag k="ssr:stedsnr" v="670973" />
	</node>
	<node id="-39886" lat="59.2901982674" lon="5.34424217584">
		<tag k="fixme" v="consider place=hamlet" />
		<tag k="name" v="Tjoland" />
		<tag k="place" v="farm" />
		<tag k="ssr:stedsnr" v="669936" />
	</node>
	<node id="-39874" lat="59.3722767859" lon="5.26991613297">
		<tag k="fixme" v="consider place=hamlet" />
		<tag k="name" v="Øvrabø" />
		<tag k="place" v="farm" />
		<tag k="ssr:stedsnr" v="669543" />
	</node>
	<node id="-39872" lat="59.3335117617" lon="5.35831493188">
		<tag k="alt_name" v="Røksund" />
		<tag k="fixme" v="consider place=hamlet" />
		<tag k="name" v="Røyksund" />
		<tag k="place" v="village" />
		<tag k="ssr:stedsnr" v="669538" />
	</node>
	<node id="-39866" lat="59.143286115" lon="5.29308889364">
		<tag k="name" v="Beiningen" />
		<tag k="place" v="farm" />
		<tag k="ssr:stedsnr" v="668424" />
	</node>
	<node id="-39862" lat="59.2407388904" lon="5.21229999656">
		<tag k="name" v="Farland" />
		<tag k="place" v="farm" />
		<tag k="ssr:stedsnr" v="668031" />
	</node>
	<node id="-39861" lat="59.2280392999" lon="5.18176749333">
		<tag k="alt_name" v="Ferkingstadgaren" />
		<tag k="name" v="Ferkingstadgarden" />
		<tag k="place" v="farm" />
		<tag k="ssr:stedsnr" v="668018" />
	</node>
	<node id="-39849" lat="59.3373061816" lon="5.36899817762">
		<tag k="name" v="Soldal" />
		<tag k="place" v="farm" />
		<tag k="ssr:stedsnr" v="666797" />
	</node>
	<node id="-39848" lat="59.2589916711" lon="5.18999722273">
		<tag k="name" v="Austigard" />
		<tag k="place" v="farm" />
		<tag k="ssr:stedsnr" v="666776" />
	</node>
	<node id="-39847" lat="59.2873833326" lon="5.22145277465">
		<tag k="name" v="Breiaberg" />
		<tag k="place" v="farm" />
		<tag k="ssr:stedsnr" v="666769" />
	</node>
	<node id="-39836" lat="59.2801388882" lon="5.2955416741">
		<tag k="name" v="Stølen" />
		<tag k="place" v="farm" />
		<tag k="ssr:stedsnr" v="666655" />
	</node>
	<node id="-39826" lat="59.2685138872" lon="5.30883332779">
		<tag k="historic" v="shieling" />
		<tag k="name" v="Klovsteinstølen" />
		<tag k="place" v="locality" />
		<tag k="ssr:stedsnr" v="666511" />
	</node>
	<node id="-39811" lat="59.2273694426" lon="5.18642499451">
		<tag k="historic" v="shieling" />
		<tag k="name" v="Gamlestølen" />
		<tag k="place" v="locality" />
		<tag k="ssr:stedsnr" v="666215" />
	</node>
	<node id="-39806" lat="59.1504750032" lon="5.26539721775">
		<tag k="name" v="Flatahella" />
		<tag k="place" v="quarter" />
		<tag k="ssr:stedsnr" v="664761" />
	</node>
	<node id="-39794" lat="59.2787895464" lon="5.27088009993">
		<tag k="alt_name" v="Ytra Eide" />
		<tag k="name" v="Eide" />
		<tag k="place" v="hamlet" />
		<tag k="ssr:stedsnr" v="427914" />
	</node>
	<node id="-39792" lat="59.1570897219" lon="5.22074594017">
		<tag k="alt_name" v="Grødem" />
		<tag k="fixme" v="consider place=hamlet" />
		<tag k="name" v="Grøtheim" />
		<tag k="place" v="farm" />
		<tag k="ssr:stedsnr" v="427409" />
	</node>
	<node id="-39781" lat="59.1876027807" lon="5.28616388777">
		<tag k="historic" v="shieling" />
		<tag k="name" v="Tjøstheim" />
		<tag k="place" v="locality" />
		<tag k="ssr:stedsnr" v="424646" />
	</node>
	<node id="-39779" lat="59.2847499979" lon="5.29305556285">
		<tag k="name" v="Østremlia" />
		<tag k="place" v="village" />
		<tag k="ssr:stedsnr" v="424639" />
	</node>
	<node id="-39778" lat="59.2808611088" lon="5.30387777441">
		<tag k="name" v="Sveinsvolljordet" />
		<tag k="place" v="suburb" />
		<tag k="ssr:stedsnr" v="424637" />
	</node>
	<node id="-39761" lat="59.1686362913" lon="5.2114096784">
		<tag k="fixme" v="consider place=hamlet" />
		<tag k="name" v="Kyrkjeleite" />
		<tag k="place" v="farm" />
		<tag k="ssr:stedsnr" v="424020" />
	</node>
	<node id="-39760" lat="59.1455583366" lon="5.25324721808">
		<tag k="name" v="Lahammar" />
		<tag k="place" v="isolated_dwelling" />
		<tag k="ssr:stedsnr" v="422750" />
	</node>
	<node id="-39743" lat="59.2909527796" lon="5.36118889623">
		<tag k="name" v="Gravi" />
		<tag k="place" v="farm" />
		<tag k="ssr:stedsnr" v="511179" />
	</node>
	<node id="-39742" lat="59.3093527796" lon="5.28165555899">
		<tag k="name" v="Helgeberg" />
		<tag k="place" v="farm" />
		<tag k="ssr:stedsnr" v="511157" />
	</node>
	<node id="-39729" lat="59.3654166641" lon="5.28003610375">
		<tag k="name" v="Bøkrossen" />
		<tag k="place" v="quarter" />
		<tag k="ssr:stedsnr" v="404212" />
	</node>
	<node id="-39718" lat="59.3387638887" lon="5.36340833315">
		<tag k="name" v="Plasset" />
		<tag k="place" v="farm" />
		<tag k="ssr:stedsnr" v="388265" />
	</node>
	<node id="-39717" lat="59.3388694447" lon="5.35854166389">
		<tag k="name" v="Nygard" />
		<tag k="place" v="farm" />
		<tag k="ssr:stedsnr" v="388264" />
	</node>
	<node id="-39716" lat="59.3364833313" lon="5.35703610546">
		<tag k="name" v="Myri" />
		<tag k="place" v="farm" />
		<tag k="ssr:stedsnr" v="388263" />
	</node>
	<node id="-39710" lat="59.3464666649" lon="5.27655554744">
		<tag k="fixme" v="consider place=suburb, village or hamlet" />
		<tag k="name" v="Velleberget" />
		<tag k="place" v="quarter" />
		<tag k="ssr:stedsnr" v="363746" />
	</node>
	<node id="-39709" lat="59.2838138901" lon="5.23757222549">
		<tag k="name" v="Vedmyr" />
		<tag k="place" v="farm" />
		<tag k="ssr:stedsnr" v="363717" />
	</node>
	<node id="-39703" lat="59.21757829" lon="5.18863161537">
		<tag k="name" v="Brekkå" />
		<tag k="place" v="farm" />
		<tag k="ssr:stedsnr" v="363263" />
	</node>
	<node id="-39699" lat="59.1510416694" lon="5.25759999387">
		<tag k="name" v="Nylund" />
		<tag k="place" v="quarter" />
		<tag k="ssr:stedsnr" v="361758" />
	</node>
	<node id="-39697" lat="59.3093803119" lon="5.29955418668">
		<tag k="alt_name" v="Austvik" />
		<tag k="fixme" v="consider place=hamlet" />
		<tag k="name" v="Austevik" />
		<tag k="place" v="farm" />
		<tag k="ssr:stedsnr" v="488986" />
	</node>
	<node id="-39691" lat="59.2962999898" lon="5.23917870173">
		<tag k="fixme" v="consider place=hamlet" />
		<tag k="name" v="Sund" />
		<tag k="place" v="farm" />
		<tag k="ssr:stedsnr" v="487949" />
	</node>
	<node id="-39688" lat="59.4073749956" lon="5.24755832745">
		<tag k="alt_name" v="Vikjå" />
		<tag k="name" v="Vik" />
		<tag k="place" v="village" />
		<tag k="ssr:stedsnr" v="487658" />
	</node>
	<node id="-39684" lat="59.373801317" lon="5.24791252352">
		<tag k="fixme" v="consider place=hamlet" />
		<tag k="name" v="Stange" />
		<tag k="place" v="farm" />
		<tag k="ssr:stedsnr" v="487634" />
	</node>
	<node id="-39682" lat="59.3886951443" lon="5.22834479221">
		<tag k="fixme" v="consider place=hamlet" />
		<tag k="name" v="Skjølingstad" />
		<tag k="place" v="farm" />
		<tag k="ssr:stedsnr" v="487615" />
	</node>
	<node id="-39681" lat="59.3540520767" lon="5.25425220332">
		<tag k="alt_name" v="Hinderåker" />
		<tag k="fixme" v="consider place=hamlet" />
		<tag k="name" v="Hindaråker" />
		<tag k="place" v="farm" />
		<tag k="ssr:stedsnr" v="487604" />
	</node>
	<node id="-39678" lat="59.3611333299" lon="5.2727583289">
		<tag k="name" v="Dalen" />
		<tag k="place" v="farm" />
		<tag k="ssr:stedsnr" v="487592" />
	</node>
	<node id="-39670" lat="59.1641777752" lon="5.2303527775">
		<tag k="alt_name" v="Tongaren" />
		<tag k="name" v="Tungarden" />
		<tag k="place" v="farm" />
		<tag k="ssr:stedsnr" v="487461" />
	</node>
	<node id="-39660" lat="59.3115194433" lon="5.37314166614">
		<tag k="name" v="Fosen" />
		<tag k="place" v="farm" />
		<tag k="ssr:stedsnr" v="484943" />
	</node>
	<node id="-39378" lat="59.3367527756" lon="5.35709721893">
		<tag k="name" v="Grova" />
		<tag k="place" v="isolated_dwelling" />
		<tag k="ssr:stedsnr" v="60827" />
	</node>
	<node id="-39639" lat="59.2139222252" lon="5.3192416679">
		<tag k="name" v="Otraplasset" />
		<tag k="place" v="farm" />
		<tag k="ssr:stedsnr" v="484640" />
	</node>
	<node id="-39637" lat="59.1731511708" lon="5.27870731771">
		<tag k="fixme" v="consider place=hamlet" />
		<tag k="name" v="Heggheim" />
		<tag k="place" v="farm" />
		<tag k="ssr:stedsnr" v="484387" />
	</node>
	<node id="-39634" lat="59.3271" lon="5.28398889661">
		<tag k="name" v="Kollstø" />
		<tag k="place" v="farm" />
		<tag k="ssr:stedsnr" v="484229" />
	</node>
	<node id="-39630" lat="59.3196166681" lon="5.36916667269">
		<tag k="name" v="Botten" />
		<tag k="place" v="farm" />
		<tag k="ssr:stedsnr" v="484187" />
	</node>
	<node id="-39626" lat="59.3005787305" lon="5.30179172052">
		<tag k="fixme" v="consider place=hamlet" />
		<tag k="name" v="Byggnes" />
		<tag k="place" v="farm" />
		<tag k="ssr:stedsnr" v="484028" />
	</node>
	<node id="-39624" lat="59.2987194462" lon="5.21961387999">
		<tag k="fixme" v="consider place=suburb, village or hamlet" />
		<tag k="name" v="Sævik" />
		<tag k="place" v="quarter" />
		<tag k="ssr:stedsnr" v="484123" />
	</node>
	<node id="-39622" lat="59.1479749979" lon="5.25224722075">
		<tag k="leisure" v="park" />
		<tag k="name" v="Vågen" />
		<tag k="ssr:stedsnr" v="482734" />
	</node>
	<node id="-41419" lat="59.3167027777" lon="5.27315554787">
		<tag k="name" v="Hårbjørg" />
		<tag k="place" v="farm" />
		<tag k="ssr:stedsnr" v="815141" />
	</node>
	<node id="-39613" lat="59.4078219569" lon="5.36100428839">
		<tag k="alt_name" v="Slettetre" />
		<tag k="name" v="Slettetræet" />
		<tag k="place" v="farm" />
		<tag k="ssr:stedsnr" v="328219" />
	</node>
	<node id="-39612" lat="59.3929416646" lon="5.37085276932">
		<tag k="name" v="Midtra Eike" />
		<tag k="place" v="farm" />
		<tag k="ssr:stedsnr" v="328217" />
	</node>
	<node id="-39608" lat="59.3539583345" lon="5.28078611448">
		<tag k="amenity" v="sports_centre" />
		<tag k="name" v="Kjuklinghaug" />
		<tag k="ssr:stedsnr" v="303772" />
	</node>
	<node id="-39607" lat="59.3545861081" lon="5.31932222742">
		<tag k="name" v="Vormedal" />
		<tag k="place" v="village" />
		<tag k="ssr:stedsnr" v="303770" />
	</node>
	<node id="-39605" lat="59.282766669" lon="5.27494721939">
		<tag k="name" v="Flesland" />
		<tag k="place" v="village" />
		<tag k="ssr:stedsnr" v="303660" />
	</node>
	<node id="-39602" lat="59.293422225" lon="5.37296388176">
		<tag k="name" v="Austnes" />
		<tag k="place" v="isolated_dwelling" />
		<tag k="ssr:stedsnr" v="302957" />
	</node>
	<node id="-39597" lat="59.1618827566" lon="5.29876498218">
		<tag k="name" v="Lilledal" />
		<tag k="place" v="farm" />
		<tag k="ssr:stedsnr" v="302573" />
	</node>
	<node id="-41644" lat="59.3826579626" lon="5.22818050223">
		<tag k="fixme" v="consider place=hamlet" />
		<tag k="name" v="Torvastad prestegard" />
		<tag k="place" v="farm" />
		<tag k="ssr:stedsnr" v="1072062" />
	</node>
	<node id="-41643" lat="59.3257756542" lon="5.29784864365">
		<tag k="fixme" v="consider place=hamlet" />
		<tag k="name" v="Klafthus" />
		<tag k="place" v="farm" />
		<tag k="ssr:stedsnr" v="1072060" />
	</node>
	<node id="-41642" lat="59.3592255592" lon="5.22901225666">
		<tag k="fixme" v="consider place=hamlet" />
		<tag k="name" v="Visnes" />
		<tag k="place" v="farm" />
		<tag k="ssr:stedsnr" v="1072042" />
	</node>
	<node id="-41641" lat="59.145545035" lon="5.29390657374">
		<tag k="fixme" v="consider place=hamlet" />
		<tag k="name" v="Nedre Falnes" />
		<tag k="place" v="farm" />
		<tag k="ssr:stedsnr" v="1072039" />
	</node>
	<node id="-41640" lat="59.1565899046" lon="5.25378228783">
		<tag k="fixme" v="consider place=hamlet" />
		<tag k="name" v="Selvåg" />
		<tag k="place" v="farm" />
		<tag k="ssr:stedsnr" v="1072036" />
	</node>
	<node id="-41639" lat="59.1517286472" lon="5.23342157692">
		<tag k="fixme" v="consider place=hamlet" />
		<tag k="name" v="Søndre Håland" />
		<tag k="place" v="farm" />
		<tag k="ssr:stedsnr" v="1072035" />
	</node>
	<node id="-41638" lat="59.1673700015" lon="5.20799716687">
		<tag k="fixme" v="consider place=hamlet" />
		<tag k="name" v="Austnaberg" />
		<tag k="place" v="farm" />
		<tag k="ssr:stedsnr" v="1072034" />
	</node>
	<node id="-41637" lat="59.2116318636" lon="5.18721021996">
		<tag k="fixme" v="consider place=hamlet" />
		<tag k="name" v="Kvilhaug" />
		<tag k="place" v="farm" />
		<tag k="ssr:stedsnr" v="1072031" />
	</node>
	<node id="-41636" lat="59.2697983966" lon="5.21218926303">
		<tag k="fixme" v="consider place=hamlet" />
		<tag k="name" v="Varne" />
		<tag k="place" v="farm" />
		<tag k="ssr:stedsnr" v="1072030" />
	</node>
	<node id="-41635" lat="59.272937371" lon="5.21207845913">
		<tag k="fixme" v="consider place=hamlet" />
		<tag k="name" v="Tangen" />
		<tag k="place" v="farm" />
		<tag k="ssr:stedsnr" v="1072029" />
	</node>
	<node id="-41634" lat="59.2731046748" lon="5.21680436503">
		<tag k="fixme" v="consider place=hamlet" />
		<tag k="name" v="Randvoldjord" />
		<tag k="place" v="farm" />
		<tag k="ssr:stedsnr" v="1072028" />
	</node>
	<node id="-41633" lat="59.2669194329" lon="5.25726841416">
		<tag k="fixme" v="consider place=hamlet" />
		<tag k="name" v="Østhus" />
		<tag k="place" v="farm" />
		<tag k="ssr:stedsnr" v="1072027" />
	</node>
	<node id="-39584" lat="59.2463111155" lon="5.20583888922">
		<tag k="name" v="Ådland" />
		<tag k="place" v="farm" />
		<tag k="ssr:stedsnr" v="302211" />
	</node>
	<node id="-39582" lat="59.3787388858" lon="5.30216388747">
		<tag k="name" v="Norheim" />
		<tag k="place" v="farm" />
		<tag k="ssr:stedsnr" v="300103" />
	</node>
	<node id="-39578" lat="59.3917166697" lon="5.27307777626">
		<tag k="name" v="Krosshaug" />
		<tag k="place" v="farm" />
		<tag k="ssr:stedsnr" v="464197" />
	</node>
	<node id="-39576" lat="59.2941333334" lon="5.37839722903">
		<tag k="name" v="Austnes" />
		<tag k="place" v="farm" />
		<tag k="ssr:stedsnr" v="269315" />
	</node>
	<node id="-39575" lat="59.3253888913" lon="5.35024166351">
		<tag k="name" v="Svartups" />
		<tag k="place" v="farm" />
		<tag k="ssr:stedsnr" v="269079" />
	</node>
	<node id="-41616" lat="59.1822476693" lon="5.24727548661">
		<tag k="fixme" v="consider tourism=alpine_hut or tourism=chalet" />
		<tag k="name" v="Røyningsbu" />
		<tag k="ssr:stedsnr" v="986320" />
		<tag k="tourism" v="wilderness_hut" />
	</node>
	<node id="-41615" lat="59.2423980128" lon="5.247503441">
		<tag k="fixme" v="consider tourism=alpine_hut or tourism=chalet" />
		<tag k="name" v="Kinnebu" />
		<tag k="ssr:stedsnr" v="986319" />
		<tag k="tourism" v="wilderness_hut" />
	</node>
	<node id="-41600" lat="59.2818366739" lon="5.31538733469">
		<tag k="fixme" v="consider place=suburb, village or hamlet" />
		<tag k="name" v="Kalvatræ" />
		<tag k="place" v="quarter" />
		<tag k="ssr:stedsnr" v="971727" />
	</node>
	<node id="-41593" lat="59.2550472217" lon="5.18852500477">
		<tag k="name" v="Haugeberg" />
		<tag k="place" v="farm" />
		<tag k="ssr:stedsnr" v="970459" />
	</node>
	<node id="-39543" lat="59.240566669" lon="5.32184167127">
		<tag k="fixme" v="consider place=hamlet" />
		<tag k="name" v="Stokkastranda" />
		<tag k="place" v="village" />
		<tag k="ssr:stedsnr" v="244052" />
	</node>
	<node id="-41590" lat="59.2879222206" lon="5.2202305539">
		<tag k="name" v="Siljeberg" />
		<tag k="place" v="farm" />
		<tag k="ssr:stedsnr" v="970447" />
	</node>
	<node id="-39540" lat="59.2241090943" lon="5.19402843726">
		<tag k="fixme" v="consider place=hamlet" />
		<tag k="name" v="Stol" />
		<tag k="place" v="farm" />
		<tag k="ssr:stedsnr" v="244007" />
	</node>
	<node id="-41585" lat="59.2730333345" lon="5.19706666401">
		<tag k="name" v="Naren" />
		<tag k="place" v="farm" />
		<tag k="ssr:stedsnr" v="970549" />
	</node>
	<node id="-41584" lat="59.1817444482" lon="5.18857222963">
		<tag k="name" v="Slåttebrekk" />
		<tag k="place" v="farm" />
		<tag k="ssr:stedsnr" v="970281" />
	</node>
	<node id="-41582" lat="59.2712472227" lon="5.29519166012">
		<tag k="barrier" v="fence" />
		<tag k="name" v="Smalogjerdet" />
		<tag k="ssr:stedsnr" v="970249" />
	</node>
	<node id="-41581" lat="59.2819611073" lon="5.23695000242">
		<tag k="name" v="Tøkje" />
		<tag k="place" v="farm" />
		<tag k="ssr:stedsnr" v="970388" />
	</node>
	<node id="-41578" lat="59.3212361153" lon="5.28949999918">
		<tag k="name" v="Håvagjerd" />
		<tag k="place" v="farm" />
		<tag k="ssr:stedsnr" v="970351" />
	</node>
	<node id="-41574" lat="59.3146611092" lon="5.320761116">
		<tag k="name" v="Gamlehavntre" />
		<tag k="place" v="quarter" />
		<tag k="ssr:stedsnr" v="970201" />
	</node>
	<node id="-41572" lat="59.2824638898" lon="5.2888944517">
		<tag k="name" v="Indre Eide" />
		<tag k="place" v="farm" />
		<tag k="ssr:stedsnr" v="970235" />
	</node>
	<node id="-39522" lat="59.2928916652" lon="5.21495277987">
		<tag k="alt_name" v="Ysthusneset" />
		<tag k="name" v="Ytsthusneset" />
		<tag k="place" v="quarter" />
		<tag k="ssr:stedsnr" v="242126" />
	</node>
	<node id="-39520" lat="59.2246361115" lon="5.18862222583">
		<tag k="name" v="Lurane" />
>>>>>>> e1d4bc35ff8a6074a6f2e91616a996b547c36f15
		<tag k="place" v="farm" />
		<tag k="ssr:stedsnr" v="241258" />
	</node>
<<<<<<< HEAD
	<node lat="59.346275001833426" lon="5.258636107473003" id="-4159">
		<tag k="name" v="Sletthei" />
		<tag k="place" v="farm" />
		<tag k="ssr:stedsnr" v="547552" />
	</node>
	<node lat="59.360716665890116" lon="5.2515218069462435" id="-4162">
		<tag k="fixme" v="consider place=hamlet" />
		<tag k="name" v="Landa" />
		<tag k="place" v="farm" />
		<tag k="ssr:stedsnr" v="547590" />
	</node>
	<node lat="59.27135833098757" lon="5.196341674055809" id="-4166">
		<tag k="alt_name" v="Sevlandsvik" />
		<tag k="fixme" v="consider place=suburb, village or hamlet" />
		<tag k="name" v="Sævelandsvik" />
		<tag k="place" v="quarter" />
		<tag k="ssr:stedsnr" v="548899" />
	</node>
	<node lat="59.39473333262452" lon="5.222888896244298" id="-4172">
		<tag k="name" v="Ishus" />
		<tag k="place" v="farm" />
		<tag k="ssr:stedsnr" v="571393" />
	</node>
	<node lat="59.319477779566654" lon="5.315244448357119" id="-4176">
		<tag k="name" v="Ringen" />
		<tag k="place" v="farm" />
		<tag k="ssr:stedsnr" v="572191" />
	</node>
	<node lat="59.131967064533676" lon="5.242613871453057" id="-4186">
		<tag k="fixme" v="consider tourism=alpine_hut or tourism=chalet" />
		<tag k="name" v="Geitungen fyr" />
		<tag k="ssr:stedsnr" v="586173" />
		<tag k="tourism" v="wilderness_hut" />
	</node>
	<node lat="59.2948472247393" lon="5.221272220854257" id="-4191">
		<tag k="name" v="Rekkje" />
		<tag k="place" v="farm" />
		<tag k="ssr:stedsnr" v="605178" />
	</node>
	<node lat="59.310772221895135" lon="5.304058338504564" id="-4196">
		<tag k="building" v="industrial" />
		<tag k="industrial" v="factory" />
		<tag k="name" v="Leite" />
		<tag k="ssr:stedsnr" v="605064" />
	</node>
	<node lat="59.24315833594278" lon="5.200066672645076" id="-4203">
		<tag k="name" v="Lobben" />
		<tag k="place" v="farm" />
		<tag k="ssr:stedsnr" v="605203" />
	</node>
	<node lat="59.32187500373539" lon="5.2041472215175295" id="-4215">
		<tag k="name" v="Nesahaugen" />
		<tag k="place" v="farm" />
		<tag k="ssr:stedsnr" v="605483" />
	</node>
	<node lat="59.23891791817187" lon="5.196917898922834" id="-4230">
		<tag k="name" v="Liknes" />
		<tag k="place" v="hamlet" />
		<tag k="ssr:stedsnr" v="607026" />
	</node>
	<node lat="59.24107777899804" lon="5.189133331846056" id="-4231">
		<tag k="name" v="Garden" />
		<tag k="place" v="farm" />
		<tag k="ssr:stedsnr" v="607039" />
	</node>
	<node lat="59.36846264596843" lon="5.364033861333822" id="-4237">
		<tag k="alt_name" v="Myklebostad;Myklabost" />
		<tag k="fixme" v="consider place=hamlet" />
		<tag k="name" v="Myklabust" />
		<tag k="place" v="farm" />
		<tag k="ssr:stedsnr" v="608589" />
	</node>
	<node lat="59.3895134689989" lon="5.365661723277505" id="-4240">
		<tag k="alt_name" v="Eike, s;Søra Eike" />
		<tag k="fixme" v="consider place=hamlet" />
		<tag k="name" v="Søre Eike" />
		<tag k="place" v="farm" />
		<tag k="ssr:stedsnr" v="608615" />
	</node>
	<node lat="59.27899166808123" lon="5.372686102563697" id="-4246">
		<tag k="name" v="Rossavik" />
		<tag k="place" v="farm" />
		<tag k="ssr:stedsnr" v="609901" />
	</node>
	<node lat="59.35386440954055" lon="5.289992841353836" id="-4257">
		<tag k="fixme" v="consider place=hamlet" />
		<tag k="name" v="Avaldsnes" />
		<tag k="place" v="farm" />
		<tag k="ssr:stedsnr" v="632315" />
	</node>
	<node lat="59.29097334478983" lon="5.227272930134024" id="-4263">
		<tag k="alt_name" v="Munkejord" />
		<tag k="fixme" v="consider place=hamlet" />
		<tag k="name" v="Munkajord" />
		<tag k="place" v="farm" />
		<tag k="ssr:stedsnr" v="633841" />
	</node>
	<node lat="59.14756935861995" lon="5.247719891555216" id="-4266">
		<tag k="fixme" v="consider place=hamlet" />
		<tag k="name" v="Høynes" />
		<tag k="place" v="farm" />
		<tag k="ssr:stedsnr" v="664749" />
	</node>
	<node lat="59.15047500318869" lon="5.265397217752544" id="-4267">
		<tag k="name" v="Flatahella" />
		<tag k="place" v="quarter" />
		<tag k="ssr:stedsnr" v="664761" />
	</node>
	<node lat="59.280138888175124" lon="5.295541674097828" id="-4286">
		<tag k="name" v="Stølen" />
		<tag k="place" v="farm" />
		<tag k="ssr:stedsnr" v="666655" />
	</node>
	<node lat="59.33730618156046" lon="5.3689981776168" id="-4297">
		<tag k="name" v="Soldal" />
=======
	<node id="-39519" lat="59.2655805582" lon="5.3172805625">
		<tag k="name" v="Rindå" />
		<tag k="place" v="farm" />
		<tag k="ssr:stedsnr" v="181513" />
	</node>
	<node id="-41566" lat="59.3125444426" lon="5.31455555459">
		<tag k="building" v="industrial" />
		<tag k="industrial" v="factory" />
		<tag k="name" v="Store Varde" />
		<tag k="ssr:stedsnr" v="970101" />
	</node>
	<node id="-39517" lat="59.2186777801" lon="5.19842500599">
		<tag k="name" v="Jarlehaug" />
		<tag k="place" v="farm" />
		<tag k="ssr:stedsnr" v="181315" />
	</node>
	<node id="-41561" lat="59.2582527781" lon="5.19056944501">
		<tag k="name" v="Klæhaug" />
		<tag k="place" v="farm" />
		<tag k="ssr:stedsnr" v="969793" />
	</node>
	<node id="-41558" lat="59.2383361139" lon="5.19158332967">
		<tag k="name" v="Bøden" />
		<tag k="place" v="farm" />
		<tag k="ssr:stedsnr" v="969882" />
	</node>
	<node id="-41554" lat="59.2268472179" lon="5.3226888806">
		<tag k="name" v="Bakken" />
		<tag k="place" v="farm" />
		<tag k="ssr:stedsnr" v="969671" />
	</node>
	<node id="-39497" lat="59.1636863118" lon="5.29910537413">
		<tag k="fixme" v="consider place=hamlet" />
		<tag k="name" v="Skitnadal" />
		<tag k="place" v="farm" />
		<tag k="ssr:stedsnr" v="283514" />
	</node>
	<node id="-39496" lat="59.1781780268" lon="5.19368411708">
		<tag k="fixme" v="consider place=hamlet" />
		<tag k="name" v="Vikra" />
		<tag k="place" v="farm" />
		<tag k="ssr:stedsnr" v="283457" />
	</node>
	<node id="-39494" lat="59.2765499972" lon="5.39499721755">
		<tag k="fixme" v="consider place=hamlet" />
		<tag k="name" v="Høvring" />
		<tag k="place" v="farm" />
		<tag k="ssr:stedsnr" v="148666" />
	</node>
	<node id="-39488" lat="59.3730940978" lon="5.30752461841">
		<tag k="fixme" v="consider place=hamlet" />
		<tag k="name" v="Norheim" />
		<tag k="place" v="farm" />
		<tag k="ssr:stedsnr" v="269980" />
	</node>
	<node id="-39487" lat="59.3800794223" lon="5.15213656686">
		<tag k="fixme" v="consider place=hamlet" />
		<tag k="name" v="Feøy" />
		<tag k="place" v="farm" />
		<tag k="ssr:stedsnr" v="269849" />
	</node>
	<node id="-39486" lat="59.3812166639" lon="5.23027222597">
		<tag k="name" v="Prestegarden (Hovland)" />
		<tag k="place" v="farm" />
		<tag k="ssr:stedsnr" v="269840" />
	</node>
	<node id="-39482" lat="59.3707186315" lon="5.26448988048">
		<tag k="alt_name" v="Øvre Hauge;Haugo øvre" />
		<tag k="fixme" v="consider place=hamlet" />
		<tag k="name" v="Øvre Haugo" />
		<tag k="place" v="farm" />
		<tag k="ssr:stedsnr" v="269829" />
	</node>
	<node id="-41528" lat="59.3026128433" lon="5.33989540282">
		<tag k="alt_name" v="Bratt-Helgeland" />
		<tag k="fixme" v="consider place=hamlet" />
		<tag k="name" v="Bratthelgaland" />
		<tag k="place" v="farm" />
		<tag k="ssr:stedsnr" v="852946" />
	</node>
	<node id="-41524" lat="59.2691249991" lon="5.31677500842">
		<tag k="name" v="Rabben" />
		<tag k="place" v="farm" />
		<tag k="ssr:stedsnr" v="852896" />
	</node>
	<node id="-39475" lat="59.3870722231" lon="5.33248610753">
		<tag k="name" v="Kartmyr" />
		<tag k="place" v="quarter" />
		<tag k="ssr:stedsnr" v="269536" />
	</node>
	<node id="-41522" lat="59.2659527745" lon="5.32342221628">
		<tag k="alt_name" v="Nordre Stokke" />
		<tag k="name" v="Nordstokke" />
		<tag k="place" v="village" />
		<tag k="ssr:stedsnr" v="852883" />
	</node>
	<node id="-39471" lat="59.3308249971" lon="5.35178611787">
		<tag k="name" v="Rinden" />
		<tag k="place" v="farm" />
		<tag k="ssr:stedsnr" v="269187" />
	</node>
	<node id="-41516" lat="59.3413716748" lon="5.19882090918">
		<tag k="alt_name" v="Kalstø" />
		<tag k="fixme" v="consider place=hamlet" />
		<tag k="name" v="Kallstø" />
		<tag k="place" v="farm" />
		<tag k="ssr:stedsnr" v="851487" />
	</node>
	<node id="-41515" lat="59.3570055528" lon="5.35659167241">
		<tag k="alt_name" v="Bekken" />
		<tag k="name" v="Bakken" />
		<tag k="place" v="farm" />
		<tag k="ssr:stedsnr" v="851480" />
	</node>
	<node id="-41514" lat="59.1703999981" lon="5.200127777">
		<tag k="name" v="Sørbø" />
		<tag k="place" v="farm" />
		<tag k="ssr:stedsnr" v="851392" />
	</node>
	<node id="-39462" lat="59.3528694456" lon="5.32471944643">
		<tag k="name" v="Mykje" />
>>>>>>> e1d4bc35ff8a6074a6f2e91616a996b547c36f15
		<tag k="place" v="farm" />
		<tag k="ssr:stedsnr" v="267367" />
	</node>
<<<<<<< HEAD
	<node lat="59.28738333257892" lon="5.221452774653245" id="-4301">
		<tag k="name" v="Breiaberg" />
=======
	<node id="-39457" lat="59.3192161379" lon="5.35226153458">
		<tag k="alt_name" v="Leirevågen" />
		<tag k="fixme" v="consider place=hamlet" />
		<tag k="name" v="Leirvåg" />
		<tag k="place" v="farm" />
		<tag k="ssr:stedsnr" v="245977" />
	</node>
	<node id="-41504" lat="59.2398415968" lon="5.32263489604">
		<tag k="fixme" v="consider place=hamlet" />
		<tag k="name" v="Sørstokke" />
>>>>>>> e1d4bc35ff8a6074a6f2e91616a996b547c36f15
		<tag k="place" v="farm" />
		<tag k="ssr:stedsnr" v="851020" />
	</node>
<<<<<<< HEAD
	<node lat="59.258991671065544" lon="5.189997222730056" id="-4302">
		<tag k="name" v="Austigard" />
		<tag k="place" v="farm" />
		<tag k="ssr:stedsnr" v="666776" />
	</node>
	<node lat="59.24073889035397" lon="5.212299996562474" id="-4309">
		<tag k="name" v="Farland" />
		<tag k="place" v="farm" />
		<tag k="ssr:stedsnr" v="668031" />
	</node>
	<node lat="59.14328611501149" lon="5.293088893644109" id="-4313">
		<tag k="name" v="Beiningen" />
		<tag k="place" v="farm" />
		<tag k="ssr:stedsnr" v="668424" />
	</node>
	<node lat="59.33351176172127" lon="5.358314931882359" id="-4315">
		<tag k="alt_name" v="Røksund" />
		<tag k="fixme" v="consider place=hamlet" />
		<tag k="name" v="Røyksund" />
		<tag k="place" v="village" />
		<tag k="ssr:stedsnr" v="669538" />
	</node>
	<node lat="59.37227678593225" lon="5.2699161329686275" id="-4317">
		<tag k="fixme" v="consider place=hamlet" />
		<tag k="name" v="Øvrabø" />
		<tag k="place" v="farm" />
		<tag k="ssr:stedsnr" v="669543" />
	</node>
	<node lat="59.29019826736429" lon="5.344242175837557" id="-4327">
		<tag k="fixme" v="consider place=hamlet" />
		<tag k="name" v="Tjoland" />
		<tag k="place" v="farm" />
		<tag k="ssr:stedsnr" v="669936" />
	</node>
	<node lat="59.14737221886406" lon="5.25728332975273" id="-4329">
		<tag k="building" v="industrial" />
		<tag k="industrial" v="factory" />
		<tag k="name" v="Skude Verft AS" />
		<tag k="ssr:stedsnr" v="724288" />
	</node>
	<node lat="59.31079166740647" lon="5.293363880695649" id="-4335">
		<tag k="name" v="Vorå" />
		<tag k="place" v="farm" />
		<tag k="ssr:stedsnr" v="727053" />
	</node>
	<node lat="59.224822225097" lon="5.1979666585586255" id="-4339">
		<tag k="name" v="Haugeberg" />
		<tag k="place" v="farm" />
		<tag k="ssr:stedsnr" v="727288" />
	</node>
	<node lat="59.33248952713422" lon="5.344519719941458" id="-4343">
		<tag k="alt_name" v="Juviken;Djupvik" />
		<tag k="name" v="Juvika" />
		<tag k="place" v="farm" />
		<tag k="ssr:stedsnr" v="727241" />
	</node>
	<node lat="59.27928055853032" lon="5.372572221159769" id="-4347">
		<tag k="name" v="Rossevik" />
		<tag k="place" v="farm" />
		<tag k="ssr:stedsnr" v="727619" />
	</node>
	<node lat="59.22380277443123" lon="5.317125006532542" id="-4362">
		<tag k="name" v="Nygard" />
		<tag k="place" v="locality" />
		<tag k="ssr:stedsnr" v="727664" />
	</node>
	<node lat="59.30728333625242" lon="5.372347224955384" id="-4366">
		<tag k="name" v="Jektevik" />
		<tag k="place" v="farm" />
		<tag k="ssr:stedsnr" v="727937" />
	</node>
	<node lat="59.40341875484775" lon="5.360790512615509" id="-4379">
		<tag k="fixme" v="consider place=hamlet" />
		<tag k="name" v="Døle" />
		<tag k="place" v="farm" />
		<tag k="ssr:stedsnr" v="730679" />
	</node>
	<node lat="59.37108227358357" lon="5.329085537291638" id="-4385">
		<tag k="fixme" v="consider place=hamlet" />
		<tag k="name" v="Helgaland" />
		<tag k="place" v="farm" />
		<tag k="ssr:stedsnr" v="730588" />
	</node>
	<node lat="59.36620174790377" lon="5.306694123807534" id="-4386">
		<tag k="alt_name" v="Mokseim" />
		<tag k="fixme" v="consider place=hamlet" />
		<tag k="name" v="Moksheim" />
		<tag k="place" v="farm" />
		<tag k="ssr:stedsnr" v="730593" />
	</node>
	<node lat="59.3901777787311" lon="5.24479445008845" id="-4404">
		<tag k="amenity" v="school" />
		<tag k="name" v="Håland skole" />
		<tag k="ssr:stedsnr" v="754817" />
	</node>
	<node lat="59.298085811841126" lon="5.370365389875364" id="-4422">
		<tag k="name" v="Kvelva" />
		<tag k="place" v="locality" />
		<tag k="ssr:stedsnr" v="787967" />
	</node>
	<node lat="59.22581388906295" lon="5.314469442522157" id="-4429">
		<tag k="name" v="Løkjen" />
		<tag k="place" v="farm" />
		<tag k="ssr:stedsnr" v="788628" />
	</node>
	<node lat="59.16530278066049" lon="5.29660278033535" id="-4447">
		<tag k="name" v="Innebrekk" />
		<tag k="place" v="farm" />
		<tag k="ssr:stedsnr" v="790427" />
	</node>
	<node lat="59.3623144901367" lon="5.365792301311286" id="-4451">
		<tag k="alt_name" v="Mykja;Mykjå" />
		<tag k="fixme" v="consider place=hamlet" />
		<tag k="name" v="Mykje" />
		<tag k="place" v="farm" />
		<tag k="ssr:stedsnr" v="790583" />
	</node>
	<node lat="59.24650832938267" lon="5.320886113923186" id="-4457">
		<tag k="fixme" v="consider place=hamlet" />
		<tag k="name" v="Søre Stokke" />
		<tag k="place" v="village" />
		<tag k="ssr:stedsnr" v="815191" />
	</node>
	<node lat="59.26409155093868" lon="5.197018943184253" id="-4459">
		<tag k="fixme" v="consider place=hamlet" />
		<tag k="name" v="Tjøsvoll" />
		<tag k="place" v="farm" />
		<tag k="ssr:stedsnr" v="813791" />
	</node>
	<node lat="59.35391561390839" lon="5.283241181015914" id="-4460">
		<tag k="fixme" v="consider place=suburb, village or hamlet" />
		<tag k="name" v="Avaldsnes" />
		<tag k="place" v="quarter" />
		<tag k="ssr:stedsnr" v="813823" />
	</node>
	<node lat="59.35799444321644" lon="5.254055546900663" id="-4462">
		<tag k="name" v="Luren" />
		<tag k="place" v="farm" />
		<tag k="ssr:stedsnr" v="814412" />
	</node>
	<node lat="59.31873580525244" lon="5.271295727985215" id="-4466">
		<tag k="name" v="Hårbjørg" />
		<tag k="place" v="farm" />
		<tag k="ssr:stedsnr" v="815141" />
	</node>
	<node lat="59.29036755430939" lon="5.294570072244441" id="-4467">
		<tag k="alt_name" v="Austrheim;Østrem" />
		<tag k="fixme" v="consider place=hamlet" />
		<tag k="name" v="Austreim" />
		<tag k="place" v="farm" />
		<tag k="ssr:stedsnr" v="815158" />
	</node>
	<node lat="59.29740434675666" lon="5.220027163647523" id="-4470">
		<tag k="fixme" v="consider place=hamlet" />
		<tag k="name" v="Sævik" />
		<tag k="place" v="farm" />
		<tag k="ssr:stedsnr" v="815794" />
	</node>
	<node lat="59.37967499705681" lon="5.148738891482677" id="-4478">
		<tag k="name" v="Der hima" />
		<tag k="place" v="farm" />
		<tag k="ssr:stedsnr" v="815766" />
	</node>
	<node lat="59.15303888546404" lon="5.271083330558678" id="-4490">
		<tag k="fixme" v="consider place=suburb, village or hamlet" />
		<tag k="name" v="Solvig" />
		<tag k="place" v="quarter" />
		<tag k="ssr:stedsnr" v="848655" />
	</node>
	<node lat="59.24616111010532" lon="5.208083333825771" id="-4504">
		<tag k="name" v="Stølshaugen" />
		<tag k="place" v="farm" />
		<tag k="ssr:stedsnr" v="849200" />
	</node>
	<node lat="59.27618055817966" lon="5.3031027735584075" id="-4505">
		<tag k="name" v="Grønnestølen" />
		<tag k="place" v="locality" />
		<tag k="ssr:stedsnr" v="849698" />
	</node>
	<node lat="59.342285790297105" lon="5.2767308901253225" id="-4506">
		<tag k="name" v="Nygård" />
		<tag k="place" v="quarter" />
		<tag k="ssr:stedsnr" v="849820" />
	</node>
	<node lat="59.1543222257724" lon="5.25447500821464" id="-4508">
		<tag k="leisure" v="pitch" />
		<tag k="name" v="Klungermyr" />
		<tag k="ssr:stedsnr" v="849560" />
	</node>
	<node lat="59.34715555764917" lon="5.284011115822738" id="-4521">
		<tag k="fixme" v="consider place=suburb, village or hamlet" />
		<tag k="name" v="Velle" />
		<tag k="place" v="quarter" />
		<tag k="ssr:stedsnr" v="851533" />
	</node>
	<node lat="59.22450000430769" lon="5.323594441618578" id="-4522">
		<tag k="name" v="Laberg" />
		<tag k="place" v="farm" />
		<tag k="ssr:stedsnr" v="851004" />
	</node>
	<node lat="59.23984159683572" lon="5.322634896041722" id="-4524">
		<tag k="fixme" v="consider place=hamlet" />
		<tag k="name" v="Sørstokke" />
		<tag k="place" v="farm" />
		<tag k="ssr:stedsnr" v="851020" />
	</node>
	<node lat="59.32223375093649" lon="5.210156038711757" id="-4529">
		<tag k="alt_name" v="Kvalevåg" />
		<tag k="fixme" v="consider place=hamlet" />
		<tag k="name" v="Kvalavåg" />
		<tag k="place" v="farm" />
		<tag k="ssr:stedsnr" v="851998" />
	</node>
	<node lat="59.265952774485946" lon="5.32342221628129" id="-4532">
		<tag k="alt_name" v="Nordre Stokke" />
		<tag k="name" v="Nordstokke" />
		<tag k="place" v="village" />
		<tag k="ssr:stedsnr" v="852883" />
	</node>
	<node lat="59.26912499909675" lon="5.31677500841759" id="-4534">
		<tag k="name" v="Rabben" />
		<tag k="place" v="farm" />
		<tag k="ssr:stedsnr" v="852896" />
	</node>
	<node lat="59.31665147321472" lon="5.302225567212527" id="-4536">
		<tag k="name" v="Myrvang" />
		<tag k="place" v="locality" />
		<tag k="ssr:stedsnr" v="852978" />
	</node>
	<node lat="59.30261284332526" lon="5.33989540282004" id="-4540">
		<tag k="alt_name" v="Bratt-Helgeland" />
		<tag k="fixme" v="consider place=hamlet" />
		<tag k="name" v="Bratthelgaland" />
		<tag k="place" v="farm" />
		<tag k="ssr:stedsnr" v="852946" />
	</node>
	<node lat="59.25328055813783" lon="5.18256110683825" id="-4549">
		<tag k="name" v="Stong" />
		<tag k="place" v="farm" />
		<tag k="ssr:stedsnr" v="875068" />
	</node>
	<node lat="59.37911494186015" lon="5.321346754691237" id="-4566">
		<tag k="amenity" v="school" />
		<tag k="name" v="Norheim skole" />
		<tag k="ssr:stedsnr" v="876997" />
	</node>
	<node lat="59.391027777809235" lon="5.271305556751851" id="-4569">
		<tag k="name" v="Midtre Storasund" />
		<tag k="place" v="isolated_dwelling" />
		<tag k="ssr:stedsnr" v="889185" />
	</node>
	<node lat="59.37177221932102" lon="5.2889388899981356" id="-4570">
		<tag k="name" v="Bø" />
		<tag k="place" v="farm" />
		<tag k="ssr:stedsnr" v="889188" />
	</node>
	<node lat="59.3326553737174" lon="5.367134227353416" id="-4579">
		<tag k="fixme" v="consider place=hamlet" />
		<tag k="name" v="Lindøy" />
		<tag k="place" v="farm" />
		<tag k="ssr:stedsnr" v="936263" />
	</node>
	<node lat="59.29549722011439" lon="5.225980548597832" id="-4585">
		<tag k="alt_name" v="Ysthus" />
		<tag k="name" v="Ytsthus" />
		<tag k="place" v="farm" />
		<tag k="ssr:stedsnr" v="937832" />
	</node>
	<node lat="59.356099700578504" lon="5.3216324785219475" id="-4593">
		<tag k="fixme" v="consider place=hamlet" />
		<tag k="name" v="Vormedal" />
		<tag k="place" v="farm" />
		<tag k="ssr:stedsnr" v="961217" />
	</node>
	<node lat="59.23033888773675" lon="5.196038891077196" id="-4602">
		<tag k="name" v="Stølsbakken" />
		<tag k="place" v="farm" />
		<tag k="ssr:stedsnr" v="969220" />
	</node>
	<node lat="59.22684721786832" lon="5.322688880603424" id="-4607">
		<tag k="name" v="Bakken" />
		<tag k="place" v="farm" />
		<tag k="ssr:stedsnr" v="969671" />
	</node>
	<node lat="59.23833611391018" lon="5.191583329665486" id="-4609">
		<tag k="name" v="Bøden" />
		<tag k="place" v="farm" />
		<tag k="ssr:stedsnr" v="969882" />
	</node>
	<node lat="59.26911111341656" lon="5.313966668947706" id="-4614">
		<tag k="alt_name" v="Rundthaug" />
		<tag k="name" v="Rundhaug" />
		<tag k="place" v="farm" />
		<tag k="ssr:stedsnr" v="970014" />
	</node>
	<node lat="59.31254444256183" lon="5.314555554585636" id="-4617">
		<tag k="building" v="industrial" />
		<tag k="industrial" v="factory" />
		<tag k="name" v="Store Varde" />
		<tag k="ssr:stedsnr" v="970101" />
	</node>
	<node lat="59.181744448172545" lon="5.188572229629995" id="-4627">
		<tag k="name" v="Slåttebrekk" />
		<tag k="place" v="farm" />
		<tag k="ssr:stedsnr" v="970281" />
	</node>
	<node lat="59.32123611525344" lon="5.289499999175954" id="-4628">
		<tag k="name" v="Håvagjerd" />
		<tag k="place" v="farm" />
		<tag k="ssr:stedsnr" v="970351" />
	</node>
	<node lat="59.28792222062923" lon="5.220230553904433" id="-4631">
		<tag k="name" v="Siljeberg" />
		<tag k="place" v="farm" />
		<tag k="ssr:stedsnr" v="970447" />
	</node>
	<node lat="59.255047221747496" lon="5.188525004771569" id="-4634">
		<tag k="name" v="Haugeberg" />
		<tag k="place" v="farm" />
		<tag k="ssr:stedsnr" v="970459" />
	</node>
	<node lat="59.24239801277393" lon="5.247503440998553" id="-4643">
		<tag k="fixme" v="consider tourism=alpine_hut or tourism=chalet" />
		<tag k="name" v="Kinnebu" />
		<tag k="ssr:stedsnr" v="986319" />
		<tag k="tourism" v="wilderness_hut" />
	</node>
	<node lat="59.182247669285736" lon="5.247275486614759" id="-4644">
		<tag k="fixme" v="consider tourism=alpine_hut or tourism=chalet" />
		<tag k="name" v="Røyningsbu" />
		<tag k="ssr:stedsnr" v="986320" />
		<tag k="tourism" v="wilderness_hut" />
	</node>
	<node lat="59.32577565424771" lon="5.297848643652391" id="-4675">
		<tag k="fixme" v="consider place=hamlet" />
		<tag k="name" v="Klafthus" />
		<tag k="place" v="farm" />
		<tag k="ssr:stedsnr" v="1072060" />
	</node>
	<node lat="59.38265796262119" lon="5.228180502225304" id="-4676">
		<tag k="fixme" v="consider place=hamlet" />
		<tag k="name" v="Torvastad prestegard" />
		<tag k="place" v="farm" />
		<tag k="ssr:stedsnr" v="1072062" />
	</node>
	<node lat="59.26691943294023" lon="5.257268414159511" id="-4677">
		<tag k="fixme" v="consider place=hamlet" />
		<tag k="name" v="Østhus" />
		<tag k="place" v="farm" />
		<tag k="ssr:stedsnr" v="1072027" />
	</node>
	<node lat="59.27310467483393" lon="5.216804365031502" id="-4678">
		<tag k="fixme" v="consider place=hamlet" />
		<tag k="name" v="Randvoldjord" />
		<tag k="place" v="farm" />
		<tag k="ssr:stedsnr" v="1072028" />
	</node>
	<node lat="59.2729373709735" lon="5.212078459126882" id="-4679">
		<tag k="fixme" v="consider place=hamlet" />
		<tag k="name" v="Tangen" />
		<tag k="place" v="farm" />
		<tag k="ssr:stedsnr" v="1072029" />
	</node>
	<node lat="59.269798396640546" lon="5.212189263025504" id="-4680">
		<tag k="fixme" v="consider place=hamlet" />
		<tag k="name" v="Varne" />
		<tag k="place" v="farm" />
		<tag k="ssr:stedsnr" v="1072030" />
	</node>
	<node lat="59.21163186357939" lon="5.187210219957021" id="-4681">
		<tag k="fixme" v="consider place=hamlet" />
		<tag k="name" v="Kvilhaug" />
		<tag k="place" v="farm" />
		<tag k="ssr:stedsnr" v="1072031" />
	</node>
	<node lat="59.16737000145621" lon="5.207997166870661" id="-4682">
		<tag k="fixme" v="consider place=hamlet" />
		<tag k="name" v="Austnaberg" />
		<tag k="place" v="farm" />
		<tag k="ssr:stedsnr" v="1072034" />
	</node>
	<node lat="59.15172864716196" lon="5.233421576924723" id="-4683">
		<tag k="fixme" v="consider place=hamlet" />
		<tag k="name" v="Søndre Håland" />
		<tag k="place" v="farm" />
		<tag k="ssr:stedsnr" v="1072035" />
	</node>
	<node lat="59.15658990464127" lon="5.253782287834128" id="-4684">
		<tag k="fixme" v="consider place=hamlet" />
		<tag k="name" v="Selvåg" />
		<tag k="place" v="farm" />
		<tag k="ssr:stedsnr" v="1072036" />
	</node>
	<node lat="59.14554503503449" lon="5.293906573741924" id="-4685">
		<tag k="fixme" v="consider place=hamlet" />
		<tag k="name" v="Nedre Falnes" />
		<tag k="place" v="farm" />
		<tag k="ssr:stedsnr" v="1072039" />
	</node>
	<node lat="59.359225559203644" lon="5.229012256658512" id="-4686">
		<tag k="fixme" v="consider place=hamlet" />
		<tag k="name" v="Visnes" />
		<tag k="place" v="farm" />
		<tag k="ssr:stedsnr" v="1072042" />
	</node>
	<node lat="59.27924381280706" lon="5.26610781675997" id="-4693">
		<tag k="alt_name" v="Ytre Eide" />
		<tag k="fixme" v="consider place=hamlet" />
		<tag k="name" v="Ytra Eide" />
		<tag k="place" v="farm" />
		<tag k="ssr:stedsnr" v="1077461" />
	</node>
	<node lat="59.160240391984836" lon="5.2304186203700915" id="-4694">
		<tag k="fixme" v="consider place=hamlet" />
		<tag k="name" v="Nedre Risdal" />
		<tag k="place" v="farm" />
		<tag k="ssr:stedsnr" v="1077467" />
	</node>
	<node lat="59.394484309551714" lon="5.371310857713973" id="-4696">
		<tag k="name" v="Eike" />
		<tag k="place" v="hamlet" />
		<tag k="ssr:stedsnr" v="1080320" />
=======
	<node id="-41392" lat="59.3623144901" lon="5.36579230131">
		<tag k="alt_name" v="Mykja;Mykjå" />
		<tag k="fixme" v="consider place=hamlet" />
		<tag k="name" v="Mykje" />
		<tag k="place" v="farm" />
		<tag k="ssr:stedsnr" v="790583" />
	</node>
	<node id="-41502" lat="59.2245000043" lon="5.32359444162">
		<tag k="name" v="Laberg" />
		<tag k="place" v="farm" />
		<tag k="ssr:stedsnr" v="851004" />
	</node>
	<node id="-41497" lat="59.3422857903" lon="5.27673089013">
		<tag k="name" v="Nygård" />
		<tag k="place" v="quarter" />
		<tag k="ssr:stedsnr" v="849820" />
	</node>
	<node id="-39447" lat="59.3321027795" lon="5.20878888297">
		<tag k="name" v="Vikastøl" />
		<tag k="place" v="farm" />
		<tag k="ssr:stedsnr" v="244551" />
	</node>
	<node id="-39442" lat="59.3689332963" lon="5.26199207423">
		<tag k="name" v="Hauga" />
		<tag k="place" v="hamlet" />
		<tag k="ssr:stedsnr" v="244574" />
	</node>
	<node id="-39441" lat="59.1585627026" lon="5.27337866005">
		<tag k="fixme" v="consider place=hamlet" />
		<tag k="name" v="Vik" />
		<tag k="place" v="farm" />
		<tag k="ssr:stedsnr" v="244388" />
	</node>
	<node id="-41487" lat="59.2761805582" lon="5.30310277356">
		<tag k="name" v="Grønnestølen" />
		<tag k="place" v="locality" />
		<tag k="ssr:stedsnr" v="849698" />
	</node>
	<node id="-39438" lat="59.2175083339" lon="5.32140277603">
		<tag k="name" v="Tømmervik" />
		<tag k="place" v="farm" />
		<tag k="ssr:stedsnr" v="244124" />
	</node>
	<node id="-41482" lat="59.2708361135" lon="5.31776666284">
		<tag k="name" v="Myrå" />
		<tag k="place" v="farm" />
		<tag k="ssr:stedsnr" v="849627" />
	</node>
	<node id="-39433" lat="59.1696166634" lon="5.26736943669">
		<tag k="barrier" v="fence" />
		<tag k="name" v="Storagjerde" />
		<tag k="ssr:stedsnr" v="242891" />
	</node>
	<node id="-39430" lat="59.2619194462" lon="5.1917583381">
		<tag k="name" v="Esebør" />
		<tag k="place" v="farm" />
		<tag k="ssr:stedsnr" v="242784" />
	</node>
	<node id="-41477" lat="59.1543222258" lon="5.25447500821">
		<tag k="leisure" v="pitch" />
		<tag k="name" v="Klungermyr" />
		<tag k="ssr:stedsnr" v="849560" />
	</node>
	<node id="-41457" lat="59.2461611101" lon="5.20808333383">
		<tag k="name" v="Stølshaugen" />
		<tag k="place" v="farm" />
		<tag k="ssr:stedsnr" v="849200" />
	</node>
	<node id="-41456" lat="59.2413563457" lon="5.20247264227">
		<tag k="fixme" v="consider place=hamlet" />
		<tag k="name" v="Fagerland" />
		<tag k="place" v="farm" />
		<tag k="ssr:stedsnr" v="849197" />
	</node>
	<node id="-39404" lat="59.3234055584" lon="5.3497138961">
		<tag k="name" v="Varaneset" />
		<tag k="place" v="hamlet" />
		<tag k="ssr:stedsnr" v="242183" />
	</node>
	<node id="-39400" lat="59.3096162878" lon="5.27905842483">
		<tag k="fixme" v="consider place=hamlet" />
		<tag k="name" v="Helgaberg" />
		<tag k="place" v="farm" />
		<tag k="ssr:stedsnr" v="242048" />
	</node>
	<node id="-41445" lat="59.1530388855" lon="5.27108333056">
		<tag k="fixme" v="consider place=suburb, village or hamlet" />
		<tag k="name" v="Solvig" />
		<tag k="place" v="quarter" />
		<tag k="ssr:stedsnr" v="848655" />
	</node>
	<node id="-41444" lat="59.3225083334" lon="5.20488333104">
		<tag k="name" v="Neset" />
		<tag k="place" v="farm" />
		<tag k="ssr:stedsnr" v="848511" />
	</node>
	<node id="-39393" lat="59.2600194425" lon="5.18798610404">
		<tag k="name" v="Røysene" />
		<tag k="place" v="farm" />
		<tag k="ssr:stedsnr" v="241781" />
	</node>
	<node id="-41438" lat="59.363363886" lon="5.31340000569">
		<tag k="name" v="Moksheim" />
		<tag k="place" v="hamlet" />
		<tag k="ssr:stedsnr" v="829206" />
	</node>
	<node id="-39389" lat="59.2880938887" lon="5.24305753907">
		<tag k="fixme" v="consider place=hamlet" />
		<tag k="name" v="Vea" />
		<tag k="place" v="farm" />
		<tag k="ssr:stedsnr" v="63939" />
	</node>
	<node id="-39388" lat="59.2916583295" lon="5.37827777639">
		<tag k="alt_name" v="Våga" />
		<tag k="name" v="Leirvåg" />
		<tag k="place" v="farm" />
		<tag k="ssr:stedsnr" v="63927" />
	</node>
	<node id="-39387" lat="59.2789414847" lon="5.20902519423">
		<tag k="fixme" v="consider place=hamlet" />
		<tag k="name" v="Mannes" />
		<tag k="place" v="farm" />
		<tag k="ssr:stedsnr" v="63921" />
	</node>
	<node id="-41426" lat="59.3601833308" lon="5.22673055791">
		<tag k="name" v="Visnes garden" />
		<tag k="place" v="farm" />
		<tag k="ssr:stedsnr" v="815812" />
	</node>
	<node id="-41423" lat="59.2974043468" lon="5.22002716365">
		<tag k="fixme" v="consider place=hamlet" />
		<tag k="name" v="Sævik" />
		<tag k="place" v="farm" />
		<tag k="ssr:stedsnr" v="815794" />
	</node>
	<node id="-39373" lat="59.2737916692" lon="5.21129722041">
		<tag k="name" v="Tangjerd" />
		<tag k="place" v="farm" />
		<tag k="ssr:stedsnr" v="60772" />
	</node>
	<node id="-39371" lat="59.259896793" lon="5.20334655819">
		<tag k="fixme" v="consider place=hamlet" />
		<tag k="name" v="Årvoll" />
		<tag k="place" v="farm" />
		<tag k="ssr:stedsnr" v="59789" />
	</node>
	<node id="-41418" lat="59.2465083294" lon="5.32088611392">
		<tag k="fixme" v="consider place=hamlet" />
		<tag k="name" v="Søre Stokke" />
		<tag k="place" v="village" />
		<tag k="ssr:stedsnr" v="815191" />
	</node>
	<node id="-41412" lat="59.3579944432" lon="5.2540555469">
		<tag k="name" v="Luren" />
		<tag k="place" v="farm" />
		<tag k="ssr:stedsnr" v="814412" />
	</node>
	<node id="-41409" lat="59.3539156139" lon="5.28324118102">
		<tag k="fixme" v="consider place=suburb, village or hamlet" />
		<tag k="name" v="Avaldsnes" />
		<tag k="place" v="quarter" />
		<tag k="ssr:stedsnr" v="813823" />
	</node>
	<node id="-41408" lat="59.2640915509" lon="5.19701894318">
		<tag k="fixme" v="consider place=hamlet" />
		<tag k="name" v="Tjøsvoll" />
		<tag k="place" v="farm" />
		<tag k="ssr:stedsnr" v="813791" />
	</node>
	<node id="-39347" lat="59.3802888895" lon="5.28869444279">
		<tag k="name" v="Sjøli" />
		<tag k="place" v="isolated_dwelling" />
		<tag k="ssr:stedsnr" v="222159" />
	</node>
	<node id="-39346" lat="59.2876388872" lon="5.38009166618">
		<tag k="name" v="Breidvik" />
		<tag k="place" v="farm" />
		<tag k="ssr:stedsnr" v="2919" />
	</node>
	<node id="-39344" lat="59.2671166699" lon="5.18885555316">
		<tag k="name" v="Tveit" />
		<tag k="place" v="farm" />
		<tag k="ssr:stedsnr" v="2909" />
	</node>
	<node id="-39342" lat="59.2592152043" lon="5.19263819148">
		<tag k="alt_name" v="Åkre" />
		<tag k="name" v="Åkra" />
		<tag k="place" v="village" />
		<tag k="ssr:stedsnr" v="2880" />
	</node>
	<node id="-39338" lat="59.4018595891" lon="5.24445403377">
		<tag k="fixme" v="consider place=hamlet" />
		<tag k="name" v="Osnes" />
		<tag k="place" v="farm" />
		<tag k="ssr:stedsnr" v="1618" />
	</node>
	<node id="-41385" lat="59.2418694461" lon="5.21594722195">
		<tag k="name" v="Presthammar" />
		<tag k="place" v="farm" />
		<tag k="ssr:stedsnr" v="789024" />
	</node>
	<node id="-39336" lat="59.2023759451" lon="5.19712317764">
		<tag k="fixme" v="consider place=hamlet" />
		<tag k="name" v="Dyrland" />
		<tag k="place" v="farm" />
		<tag k="ssr:stedsnr" v="1122" />
	</node>
	<node id="-40004" lat="59.2389179182" lon="5.19691789892">
		<tag k="name" v="Liknes" />
		<tag k="place" v="hamlet" />
		<tag k="ssr:stedsnr" v="607026" />
	</node>
	<node id="-41349" lat="59.3708055556" lon="5.27891666865">
		<tag k="name" v="Øvra Bøkrossen" />
		<tag k="place" v="farm" />
		<tag k="ssr:stedsnr" v="768192" />
	</node>
	<node id="-41346" lat="59.3978277748" lon="5.26176111516">
		<tag k="alt_name" v="Nordre Storasund" />
		<tag k="name" v="Storasundet" />
		<tag k="place" v="farm" />
		<tag k="ssr:stedsnr" v="755896" />
	</node>
	<node id="-41338" lat="59.3901777787" lon="5.24479445009">
		<tag k="amenity" v="school" />
		<tag k="name" v="Håland skole" />
		<tag k="ssr:stedsnr" v="754817" />
	</node>
	<node id="-41327" lat="59.2805347433" lon="5.27817260982">
		<tag k="fixme" v="consider place=hamlet" />
		<tag k="name" v="Indra Eide" />
		<tag k="place" v="farm" />
		<tag k="ssr:stedsnr" v="754211" />
	</node>
	<node id="-41324" lat="59.3259694466" lon="5.29753333431">
		<tag k="name" v="Draland" />
		<tag k="place" v="farm" />
		<tag k="ssr:stedsnr" v="754164" />
	</node>
	<node id="-41317" lat="59.333281654" lon="5.34140953372">
		<tag k="alt_name" v="Nøstvik" />
		<tag k="name" v="Naustvik" />
		<tag k="place" v="farm" />
		<tag k="ssr:stedsnr" v="753254" />
	</node>
	<node id="-41316" lat="59.4102258642" lon="5.3662792112">
		<tag k="name" v="Nordheim" />
		<tag k="place" v="farm" />
		<tag k="ssr:stedsnr" v="753213" />
	</node>
	<node id="-41315" lat="59.3526305565" lon="5.3600416679">
		<tag k="name" v="Holmen" />
		<tag k="place" v="farm" />
		<tag k="ssr:stedsnr" v="753208" />
	</node>
	<node id="-41313" lat="59.2909733448" lon="5.22727293013">
		<tag k="alt_name" v="Munkejord" />
		<tag k="fixme" v="consider place=hamlet" />
		<tag k="name" v="Munkajord" />
		<tag k="place" v="farm" />
		<tag k="ssr:stedsnr" v="633841" />
	</node>
	<node id="-41291" lat="59.2753091851" lon="5.23917806324">
		<tag k="fixme" v="consider place=hamlet" />
		<tag k="name" v="Haringstad" />
		<tag k="place" v="farm" />
		<tag k="ssr:stedsnr" v="609905" />
	</node>
	<node id="-41289" lat="59.2789916681" lon="5.37268610256">
		<tag k="name" v="Rossavik" />
		<tag k="place" v="farm" />
		<tag k="ssr:stedsnr" v="609901" />
	</node>
	<node id="-41285" lat="59.1626206483" lon="5.23145576464">
		<tag k="name" v="Risdal" />
		<tag k="place" v="hamlet" />
		<tag k="ssr:stedsnr" v="608450" />
	</node>
	<node id="-41282" lat="59.1679946606" lon="5.27692641044">
		<tag k="fixme" v="consider place=hamlet" />
		<tag k="name" v="Hillesland" />
		<tag k="place" v="farm" />
		<tag k="ssr:stedsnr" v="608438" />
	</node>
	<node id="-41272" lat="59.241077779" lon="5.18913333185">
		<tag k="name" v="Garden" />
		<tag k="place" v="farm" />
		<tag k="ssr:stedsnr" v="607039" />
	</node>
	<node id="-41263" lat="59.3218750037" lon="5.20414722152">
		<tag k="name" v="Nesahaugen" />
		<tag k="place" v="farm" />
		<tag k="ssr:stedsnr" v="605483" />
	</node>
	<node id="-41251" lat="59.2816249977" lon="5.29569721388">
		<tag k="name" v="Svartups" />
		<tag k="place" v="farm" />
		<tag k="ssr:stedsnr" v="605664" />
	</node>
	<node id="-41245" lat="59.3107722219" lon="5.3040583385">
		<tag k="building" v="industrial" />
		<tag k="industrial" v="factory" />
		<tag k="name" v="Leite" />
		<tag k="ssr:stedsnr" v="605064" />
	</node>
	<node id="-41241" lat="59.2210722197" lon="5.1890722143">
		<tag k="name" v="Udlaberg" />
		<tag k="place" v="farm" />
		<tag k="ssr:stedsnr" v="605314" />
	</node>
	<node id="-41228" lat="59.1319670645" lon="5.24261387145">
		<tag k="fixme" v="consider tourism=alpine_hut or tourism=chalet" />
		<tag k="name" v="Geitungen fyr" />
		<tag k="ssr:stedsnr" v="586173" />
		<tag k="tourism" v="wilderness_hut" />
	</node>
	<node id="-41212" lat="59.3194777796" lon="5.31524444836">
		<tag k="name" v="Ringen" />
		<tag k="place" v="farm" />
		<tag k="ssr:stedsnr" v="572191" />
	</node>
	<node id="-41204" lat="59.3947333326" lon="5.22288889624">
		<tag k="name" v="Ishus" />
		<tag k="place" v="farm" />
		<tag k="ssr:stedsnr" v="571393" />
	</node>
	<node id="-41198" lat="59.3553333346" lon="5.36675833264">
		<tag k="name" v="Åsen" />
		<tag k="place" v="farm" />
		<tag k="ssr:stedsnr" v="570210" />
	</node>
	<node id="-41196" lat="59.2858249955" lon="5.40813054963">
		<tag k="name" v="Øygarden" />
		<tag k="place" v="farm" />
		<tag k="ssr:stedsnr" v="548904" />
	</node>
	<node id="-41195" lat="59.271358331" lon="5.19634167406">
		<tag k="alt_name" v="Sevlandsvik" />
		<tag k="fixme" v="consider place=suburb, village or hamlet" />
		<tag k="name" v="Sævelandsvik" />
		<tag k="place" v="quarter" />
		<tag k="ssr:stedsnr" v="548899" />
	</node>
	<node id="-41192" lat="59.1499545192" lon="5.25710981845">
		<tag k="name" v="Skudeneshavn" />
		<tag k="place" v="town" />
		<tag k="ssr:stedsnr" v="548417" />
	</node>
	<node id="-41182" lat="59.3854769218" lon="5.23160268531">
		<tag k="alt_name" v="Grønningen;Grøningå" />
		<tag k="fixme" v="consider place=hamlet" />
		<tag k="name" v="Grøninga" />
		<tag k="place" v="farm" />
		<tag k="ssr:stedsnr" v="547620" />
	</node>
	<node id="-41181" lat="59.3607166659" lon="5.25152180695">
		<tag k="fixme" v="consider place=hamlet" />
		<tag k="name" v="Landa" />
		<tag k="place" v="farm" />
		<tag k="ssr:stedsnr" v="547590" />
	</node>
	<node id="-41180" lat="59.3762195307" lon="5.2348356301">
		<tag k="fixme" v="consider place=hamlet" />
		<tag k="name" v="Vikingstad" />
		<tag k="place" v="farm" />
		<tag k="ssr:stedsnr" v="547574" />
	</node>
	<node id="-41179" lat="59.3353892337" lon="5.27876549593">
		<tag k="fixme" v="consider place=hamlet" />
		<tag k="name" v="Fiskå" />
		<tag k="place" v="farm" />
		<tag k="ssr:stedsnr" v="547567" />
	</node>
	<node id="-41178" lat="59.3462750018" lon="5.25863610747">
		<tag k="name" v="Sletthei" />
		<tag k="place" v="farm" />
		<tag k="ssr:stedsnr" v="547552" />
	</node>
	<node id="-41168" lat="59.2738444492" lon="5.20110278529">
		<tag k="name" v="Hansadalen" />
		<tag k="place" v="quarter" />
		<tag k="ssr:stedsnr" v="545852" />
	</node>
	<node id="-41166" lat="59.3548333372" lon="5.35973333347">
		<tag k="name" v="Mykje" />
		<tag k="place" v="farm" />
		<tag k="ssr:stedsnr" v="545771" />
	</node>
	<node id="-41165" lat="59.3487717941" lon="5.26936996293">
		<tag k="fixme" v="consider place=hamlet" />
		<tag k="name" v="Våge" />
		<tag k="place" v="farm" />
		<tag k="ssr:stedsnr" v="545767" />
	</node>
	<node id="-41161" lat="59.3515277809" lon="5.21854167021">
		<tag k="leisure" v="pitch" />
		<tag k="name" v="Neset" />
		<tag k="ssr:stedsnr" v="545704" />
	</node>
	<node id="-41158" lat="59.2499944464" lon="5.20204167029">
		<tag k="name" v="Medhaug" />
		<tag k="place" v="village" />
		<tag k="ssr:stedsnr" v="545682" />
	</node>
	<node id="-41154" lat="59.2851121324" lon="5.27797706454">
		<tag k="fixme" v="consider place=hamlet" />
		<tag k="name" v="Midtre Eide" />
		<tag k="place" v="farm" />
		<tag k="ssr:stedsnr" v="545651" />
	</node>
	<node id="-41148" lat="59.1971694408" lon="5.20232499948">
		<tag k="name" v="Stemmen" />
		<tag k="place" v="farm" />
		<tag k="ssr:stedsnr" v="545529" />
	</node>
	<node id="-41138" lat="59.2256138855" lon="5.18663611689">
		<tag k="name" v="Ekrene" />
		<tag k="place" v="farm" />
		<tag k="ssr:stedsnr" v="545245" />
	</node>
	<node id="-41131" lat="59.2396111068" lon="5.19802222351">
		<tag k="name" v="Øvreliknes" />
		<tag k="place" v="farm" />
		<tag k="ssr:stedsnr" v="545194" />
	</node>
	<node id="-41128" lat="59.2914833365" lon="5.22147222348">
		<tag k="name" v="Krokhaugen" />
		<tag k="place" v="farm" />
		<tag k="ssr:stedsnr" v="545149" />
	</node>
	<node id="-41126" lat="59.2973499995" lon="5.21552777419">
		<tag k="name" v="Sæviktun" />
		<tag k="place" v="village" />
		<tag k="ssr:stedsnr" v="545142" />
	</node>
	<node id="-41107" lat="59.2591194468" lon="5.32271944647">
		<tag k="fixme" v="consider place=hamlet" />
		<tag k="name" v="Stokka" />
		<tag k="place" v="village" />
		<tag k="ssr:stedsnr" v="427860" />
	</node>
	<node id="-41104" lat="59.3788978069" lon="5.28492911997">
		<tag k="fixme" v="consider place=hamlet" />
		<tag k="name" v="Gunnarshaug" />
		<tag k="place" v="farm" />
		<tag k="ssr:stedsnr" v="426578" />
	</node>
	<node id="-41094" lat="59.230120713" lon="5.25977796489">
		<tag k="alt_name" v="Spinngaren" />
		<tag k="barrier" v="fence" />
		<tag k="name" v="Spinngarden" />
		<tag k="ssr:stedsnr" v="424874" />
	</node>
	<node id="-41091" lat="59.2761388932" lon="5.19255834103">
		<tag k="name" v="Mannes" />
		<tag k="place" v="farm" />
		<tag k="ssr:stedsnr" v="424844" />
	</node>
	<node id="-41088" lat="59.345819446" lon="5.2731388973">
		<tag k="name" v="Øygarden" />
		<tag k="place" v="farm" />
		<tag k="ssr:stedsnr" v="424780" />
	</node>
	<node id="-41087" lat="59.2888166685" lon="5.22809166842">
		<tag k="name" v="Ekrene" />
		<tag k="place" v="farm" />
		<tag k="ssr:stedsnr" v="424779" />
	</node>
	<node id="-41073" lat="59.2698527793" lon="5.32881388971">
		<tag k="name" v="Haugen" />
		<tag k="place" v="farm" />
		<tag k="ssr:stedsnr" v="424432" />
	</node>
	<node id="-41072" lat="59.2451666634" lon="5.19798055394">
		<tag k="name" v="Sandbakkane" />
		<tag k="place" v="village" />
		<tag k="ssr:stedsnr" v="424187" />
	</node>
	<node id="-41070" lat="59.3111500037" lon="5.28136943664">
		<tag k="name" v="Håland" />
		<tag k="place" v="farm" />
		<tag k="ssr:stedsnr" v="424059" />
	</node>
	<node id="-41065" lat="59.2250138903" lon="5.19010555434">
		<tag k="name" v="Stol" />
		<tag k="place" v="farm" />
		<tag k="ssr:stedsnr" v="424249" />
	</node>
	<node id="-41063" lat="59.3179944421" lon="5.30896944917">
		<tag k="building" v="industrial" />
		<tag k="industrial" v="factory" />
		<tag k="name" v="Hydro Aliminium Karmøy" />
		<tag k="ssr:stedsnr" v="424245" />
	</node>
	<node id="-41052" lat="59.2511305581" lon="5.19873888757">
		<tag k="name" v="Mehaug" />
		<tag k="place" v="farm" />
		<tag k="ssr:stedsnr" v="390835" />
	</node>
	<node id="-41033" lat="59.2841000039" lon="5.31411944945">
		<tag k="alt_name" v="Trædborg" />
		<tag k="name" v="Treborg" />
		<tag k="place" v="quarter" />
		<tag k="ssr:stedsnr" v="390084" />
	</node>
	<node id="-41016" lat="59.2755719705" lon="5.30527359211">
		<tag k="name" v="Stangaland" />
		<tag k="place" v="quarter" />
		<tag k="ssr:stedsnr" v="366896" />
	</node>
	<node id="-41011" lat="59.331941668" lon="5.2783527731">
		<tag k="name" v="Matland" />
		<tag k="place" v="farm" />
		<tag k="ssr:stedsnr" v="366548" />
	</node>
	<node id="-41009" lat="59.1534000032" lon="5.20049167357">
		<tag k="alt_name" v="Djupevig" />
		<tag k="name" v="Djupevik" />
		<tag k="place" v="farm" />
		<tag k="ssr:stedsnr" v="366397" />
	</node>
	<node id="-41005" lat="59.4028756424" lon="5.25285172388">
		<tag k="alt_name" v="Litlesund" />
		<tag k="fixme" v="consider place=hamlet" />
		<tag k="name" v="Litlasund" />
		<tag k="place" v="farm" />
		<tag k="ssr:stedsnr" v="365640" />
	</node>
	<node id="-40994" lat="59.1742166645" lon="5.20345000044">
		<tag k="name" v="Løkaberg" />
		<tag k="place" v="farm" />
		<tag k="ssr:stedsnr" v="365430" />
	</node>
	<node id="-40992" lat="59.1868707389" lon="5.18659995083">
		<tag k="fixme" v="consider place=hamlet" />
		<tag k="name" v="Haga" />
		<tag k="place" v="farm" />
		<tag k="ssr:stedsnr" v="365101" />
	</node>
	<node id="-40968" lat="59.3401527742" lon="5.36007499159">
		<tag k="name" v="Salheim" />
		<tag k="place" v="isolated_dwelling" />
		<tag k="ssr:stedsnr" v="363767" />
	</node>
	<node id="-40967" lat="59.3412111117" lon="5.36353333693">
		<tag k="name" v="Plasset" />
		<tag k="place" v="farm" />
		<tag k="ssr:stedsnr" v="363766" />
	</node>
	<node id="-40965" lat="59.2524297519" lon="5.21119743301">
		<tag k="name" v="Håstø" />
		<tag k="place" v="farm" />
		<tag k="ssr:stedsnr" v="363761" />
	</node>
	<node id="-40964" lat="59.3473166708" lon="5.32231110696">
		<tag k="name" v="Snik" />
		<tag k="place" v="farm" />
		<tag k="ssr:stedsnr" v="363757" />
>>>>>>> e1d4bc35ff8a6074a6f2e91616a996b547c36f15
	</node>
</osm>
