<?xml version="1.0" encoding="UTF-8"?>
<osm generator="osmapis" version="0.6">
	<node id="-38871" lat="59.2505568801" lon="5.2740222152">
		<tag k="alt_name" v="Sålefjell, nordre" />
		<tag k="fixme" v="consider natural=peak for the most distinct mountains in the district" />
		<tag k="name" v="Nordre Sålefjell" />
		<tag k="natural" v="hill" />
		<tag k="place" v="locality" />
		<tag k="ssr:stedsnr" v="123895" />
	</node>
	<node id="-38861" lat="59.3300000033" lon="5.22249999298">
		<tag k="name" v="Revadalen" />
		<tag k="natural" v="valley" />
		<tag k="place" v="locality" />
		<tag k="ssr:stedsnr" v="123574" />
	</node>
	<node id="-38857" lat="59.1616499957" lon="5.2277972253">
		<tag k="fixme" v="consider natural=peak for the most distinct mountains in the district" />
		<tag k="name" v="Risdalsfjellet" />
		<tag k="natural" v="hill" />
		<tag k="place" v="locality" />
		<tag k="ssr:stedsnr" v="123479" />
	</node>
	<node id="-38850" lat="59.1813324291" lon="5.29391423443">
		<tag k="name" v="Dalshaugen" />
		<tag k="natural" v="hill" />
		<tag k="place" v="locality" />
		<tag k="ssr:stedsnr" v="122075" />
	</node>
	<node id="-38845" lat="59.2432500014" lon="5.25336667163">
		<tag k="name" v="Ulvadalen" />
		<tag k="natural" v="valley" />
		<tag k="place" v="locality" />
		<tag k="ssr:stedsnr" v="122034" />
	</node>
	<node id="-38842" lat="59.306038892" lon="5.35676388253">
		<tag k="name" v="Steinhaugen" />
		<tag k="natural" v="hill" />
		<tag k="place" v="locality" />
		<tag k="ssr:stedsnr" v="120955" />
	</node>
	<node id="-38841" lat="59.2984944471" lon="5.33751666592">
		<tag k="name" v="Duehammar" />
		<tag k="natural" v="hill" />
		<tag k="place" v="locality" />
		<tag k="ssr:stedsnr" v="120943" />
	</node>
	<node id="-38840" lat="59.2378083306" lon="5.21817222021">
		<tag k="name" v="Leitedne" />
		<tag k="natural" v="hill" />
		<tag k="place" v="locality" />
		<tag k="ssr:stedsnr" v="120908" />
	</node>
	<node id="-38836" lat="59.2845527792" lon="5.22650833744">
		<tag k="alt_name" v="Munkejord" />
		<tag k="name" v="Munkajord" />
		<tag k="place" v="locality" />
		<tag k="ssr:stedsnr" v="120782" />
	</node>
	<node id="-38832" lat="59.2605722204" lon="5.22572222312">
		<tag k="name" v="Grønebrekk" />
		<tag k="natural" v="slope" />
		<tag k="place" v="locality" />
		<tag k="ssr:stedsnr" v="120713" />
	</node>
	<node id="-38830" lat="59.3453666633" lon="5.20203055222">
		<tag k="name" v="Nordre Stogdal" />
		<tag k="natural" v="valley" />
		<tag k="place" v="locality" />
		<tag k="ssr:stedsnr" v="120694" />
	</node>
	<node id="-38826" lat="59.2332361074" lon="5.2755666699">
		<tag k="name" v="Buavassdalen" />
		<tag k="natural" v="valley" />
		<tag k="place" v="locality" />
		<tag k="ssr:stedsnr" v="120639" />
	</node>
	<node id="-38824" lat="59.2076138931" lon="5.28211388371">
		<tag k="name" v="Håkådalen" />
		<tag k="natural" v="valley" />
		<tag k="place" v="locality" />
		<tag k="ssr:stedsnr" v="120630" />
	</node>
	<node id="-38823" lat="59.2204861109" lon="5.2710499988">
		<tag k="name" v="Stikletonjen" />
		<tag k="natural" v="hill" />
		<tag k="place" v="locality" />
		<tag k="ssr:stedsnr" v="120625" />
	</node>
	<node id="-38822" lat="59.2201888898" lon="5.31613055512">
		<tag k="name" v="Tverdalsvarden" />
		<tag k="natural" v="hill" />
		<tag k="place" v="locality" />
		<tag k="ssr:stedsnr" v="120623" />
	</node>
	<node id="-38820" lat="59.281144445" lon="5.37307499576">
		<tag k="name" v="Steinshaugen" />
		<tag k="natural" v="hill" />
		<tag k="place" v="locality" />
		<tag k="ssr:stedsnr" v="120609" />
	</node>
	<node id="-38819" lat="59.287438886" lon="5.37215833656">
		<tag k="name" v="Dalen" />
		<tag k="natural" v="valley" />
		<tag k="place" v="locality" />
		<tag k="ssr:stedsnr" v="120575" />
	</node>
	<node id="-38818" lat="59.2850111117" lon="5.36765555211">
		<tag k="name" v="Mekjervikdalen" />
		<tag k="natural" v="valley" />
		<tag k="place" v="locality" />
		<tag k="ssr:stedsnr" v="120558" />
	</node>
	<node id="-38816" lat="59.1520611111" lon="5.29159722445">
		<tag k="name" v="Alvaberg" />
		<tag k="natural" v="hill" />
		<tag k="place" v="locality" />
		<tag k="ssr:stedsnr" v="120546" />
	</node>
	<node id="-38815" lat="59.1466944466" lon="5.29348888847">
		<tag k="name" v="Lyktarhaugen" />
		<tag k="natural" v="hill" />
		<tag k="place" v="locality" />
		<tag k="ssr:stedsnr" v="120545" />
	</node>
	<node id="-38814" lat="59.2524138863" lon="5.30059165975">
		<tag k="name" v="Vassfjella" />
		<tag k="natural" v="hill" />
		<tag k="place" v="locality" />
		<tag k="ssr:stedsnr" v="120544" />
	</node>
	<node id="-38803" lat="59.2079166642" lon="5.24293889146">
		<tag k="fixme" v="consider natural=peak for the most distinct mountains in the district" />
		<tag k="name" v="Skukkane" />
		<tag k="natural" v="hill" />
		<tag k="place" v="locality" />
		<tag k="ssr:stedsnr" v="120228" />
	</node>
	<node id="-38802" lat="59.213088892" lon="5.25707777395">
		<tag k="name" v="Mannvarden" />
		<tag k="natural" v="hill" />
		<tag k="place" v="locality" />
		<tag k="ssr:stedsnr" v="120218" />
	</node>
	<node id="-38799" lat="59.3136194458" lon="5.2872722239">
		<tag k="name" v="Snurrevarden" />
		<tag k="natural" v="hill" />
		<tag k="place" v="locality" />
		<tag k="ssr:stedsnr" v="120133" />
	</node>
	<node id="-38798" lat="59.1624833292" lon="5.24510833329">
		<tag k="name" v="Kodledalen" />
		<tag k="natural" v="valley" />
		<tag k="place" v="locality" />
		<tag k="ssr:stedsnr" v="120129" />
	</node>
	<node id="-38794" lat="59.1767972186" lon="5.19975278331">
		<tag k="name" v="Sandfjell" />
		<tag k="natural" v="hill" />
		<tag k="place" v="locality" />
		<tag k="ssr:stedsnr" v="120006" />
	</node>
	<node id="-38791" lat="59.3019166671" lon="5.25497500456">
		<tag k="name" v="Gluggeskar" />
		<tag k="natural" v="valley" />
		<tag k="place" v="locality" />
		<tag k="ssr:stedsnr" v="120266" />
	</node>
	<node id="-38790" lat="59.3044222221" lon="5.25392777415">
		<tag k="name" v="Bodlaberghaugen" />
		<tag k="natural" v="hill" />
		<tag k="place" v="locality" />
		<tag k="ssr:stedsnr" v="120265" />
	</node>
	<node id="-38759" lat="59.3187462799" lon="5.34166878259">
		<tag k="name" v="Skumshaug" />
		<tag k="natural" v="hill" />
		<tag k="place" v="locality" />
		<tag k="ssr:stedsnr" v="63982" />
	</node>
	<node id="-38758" lat="59.2666194427" lon="5.22819166565">
		<tag k="alt_name" v="Kjersfjellet" />
		<tag k="fixme" v="consider natural=peak for the most distinct mountains in the district" />
		<tag k="name" v="Kjerfjellet" />
		<tag k="natural" v="hill" />
		<tag k="place" v="locality" />
		<tag k="ssr:stedsnr" v="63896" />
	</node>
	<node id="-38755" lat="59.3953333365" lon="5.36106388556">
		<tag k="alt_name" v="Longhammaren" />
		<tag k="name" v="Langhamrane" />
		<tag k="natural" v="hill" />
		<tag k="place" v="locality" />
		<tag k="ssr:stedsnr" v="62633" />
	</node>
	<node id="-38752" lat="59.3657444471" lon="5.35506110538">
		<tag k="alt_name" v="Husefjell" />
		<tag k="fixme" v="consider natural=peak for the most distinct mountains in the district" />
		<tag k="name" v="Husafjellet" />
		<tag k="natural" v="hill" />
		<tag k="place" v="locality" />
		<tag k="ssr:stedsnr" v="62548" />
	</node>
	<node id="-38743" lat="59.2034527806" lon="5.1951361097">
		<tag k="name" v="Varden" />
		<tag k="natural" v="hill" />
		<tag k="place" v="locality" />
		<tag k="ssr:stedsnr" v="62111" />
	</node>
	<node id="-38741" lat="59.1959499959" lon="5.30173056198">
		<tag k="name" v="Geithaug" />
		<tag k="natural" v="hill" />
		<tag k="place" v="locality" />
		<tag k="ssr:stedsnr" v="62086" />
	</node>
	<node id="-38737" lat="59.2880000007" lon="5.24341665857">
		<tag k="name" v="Slettå" />
		<tag k="place" v="locality" />
		<tag k="ssr:stedsnr" v="60800" />
	</node>
	<node id="-38736" lat="59.3453277756" lon="5.25466110418">
		<tag k="name" v="Gråbjørg" />
		<tag k="natural" v="hill" />
		<tag k="place" v="locality" />
		<tag k="ssr:stedsnr" v="60736" />
	</node>
	<node id="-38735" lat="59.2486611113" lon="5.24427500618">
		<tag k="name" v="Strigvatnehaugen" />
		<tag k="natural" v="hill" />
		<tag k="place" v="locality" />
		<tag k="ssr:stedsnr" v="60731" />
	</node>
	<node id="-38734" lat="59.1828749991" lon="5.18602778659">
		<tag k="name" v="Hagahaugen" />
		<tag k="natural" v="hill" />
		<tag k="place" v="locality" />
		<tag k="ssr:stedsnr" v="60668" />
	</node>
	<node id="-38733" lat="59.2908694451" lon="5.27817500233">
		<tag k="name" v="Hesthammar" />
		<tag k="natural" v="hill" />
		<tag k="place" v="locality" />
		<tag k="ssr:stedsnr" v="60657" />
	</node>
	<node id="-38730" lat="59.1885472266" lon="5.28334722898">
		<tag k="name" v="Akslå" />
		<tag k="natural" v="hill" />
		<tag k="place" v="locality" />
		<tag k="ssr:stedsnr" v="60642" />
	</node>
	<node id="-38729" lat="59.2851944451" lon="5.29474721795">
		<tag k="name" v="Valberg" />
		<tag k="natural" v="hill" />
		<tag k="place" v="locality" />
		<tag k="ssr:stedsnr" v="60638" />
	</node>
	<node id="-38728" lat="59.2420027773" lon="5.32047778374">
		<tag k="name" v="Kollhaug" />
		<tag k="natural" v="hill" />
		<tag k="place" v="locality" />
		<tag k="ssr:stedsnr" v="60627" />
	</node>
	<node id="-38727" lat="59.240086107" lon="5.30894722839">
		<tag k="name" v="Reiarsbakkane" />
		<tag k="natural" v="slope" />
		<tag k="place" v="locality" />
		<tag k="ssr:stedsnr" v="60625" />
	</node>
	<node id="-38726" lat="59.2112222247" lon="5.31753610721">
		<tag k="name" v="Uradalen" />
		<tag k="natural" v="valley" />
		<tag k="place" v="locality" />
		<tag k="ssr:stedsnr" v="60621" />
	</node>
	<node id="-38725" lat="59.2058166696" lon="5.26921666596">
		<tag k="name" v="Raunane" />
		<tag k="natural" v="hill" />
		<tag k="place" v="locality" />
		<tag k="ssr:stedsnr" v="60614" />
	</node>
	<node id="-38724" lat="59.2023777774" lon="5.23636111853">
		<tag k="name" v="Ulvadalshaugen" />
		<tag k="natural" v="hill" />
		<tag k="place" v="locality" />
		<tag k="ssr:stedsnr" v="60609" />
	</node>
	<node id="-38721" lat="59.1955888912" lon="5.20537500732">
		<tag k="name" v="Jonsokhaugen" />
		<tag k="natural" v="hill" />
		<tag k="place" v="locality" />
		<tag k="ssr:stedsnr" v="60561" />
	</node>
	<node id="-38719" lat="59.2861444411" lon="5.34675278562">
		<tag k="name" v="Vassdalen" />
		<tag k="natural" v="valley" />
		<tag k="place" v="locality" />
		<tag k="ssr:stedsnr" v="60554" />
	</node>
	<node id="-38717" lat="59.2574972195" lon="5.28304722757">
		<tag k="name" v="Storesåt" />
		<tag k="natural" v="hill" />
		<tag k="place" v="locality" />
		<tag k="ssr:stedsnr" v="60534" />
	</node>
	<node id="-38716" lat="59.2561277804" lon="5.29560555694">
		<tag k="name" v="Litlasåt" />
		<tag k="natural" v="hill" />
		<tag k="place" v="locality" />
		<tag k="ssr:stedsnr" v="60532" />
	</node>
	<node id="-38714" lat="59.179255559" lon="5.28188611429">
		<tag k="name" v="Kalagefjell" />
		<tag k="natural" v="hill" />
		<tag k="place" v="locality" />
		<tag k="ssr:stedsnr" v="60378" />
	</node>
	<node id="-38710" lat="59.3019166691" lon="5.23537778288">
		<tag k="name" v="Borgaredalen" />
		<tag k="natural" v="valley" />
		<tag k="place" v="locality" />
		<tag k="ssr:stedsnr" v="60259" />
	</node>
	<node id="-38709" lat="59.319219445" lon="5.31698055728">
		<tag k="name" v="Ringhaug" />
		<tag k="natural" v="hill" />
		<tag k="place" v="locality" />
		<tag k="ssr:stedsnr" v="60250" />
	</node>
	<node id="-38708" lat="59.2227083351" lon="5.22784166009">
		<tag k="name" v="Stavakverna" />
		<tag k="natural" v="hill" />
		<tag k="place" v="locality" />
		<tag k="ssr:stedsnr" v="60234" />
	</node>
	<node id="-38707" lat="59.2181333358" lon="5.25648888416">
		<tag k="name" v="Sjeneklompen" />
		<tag k="natural" v="hill" />
		<tag k="place" v="locality" />
		<tag k="ssr:stedsnr" v="60233" />
	</node>
	<node id="-38704" lat="59.2375777805" lon="5.19765277917">
		<tag k="name" v="Dognaberg" />
		<tag k="natural" v="hill" />
		<tag k="place" v="locality" />
		<tag k="ssr:stedsnr" v="60207" />
	</node>
	<node id="-38702" lat="59.3177250008" lon="5.37318332646">
		<tag k="name" v="Grønhaug" />
		<tag k="natural" v="hill" />
		<tag k="place" v="locality" />
		<tag k="ssr:stedsnr" v="60202" />
	</node>
	<node id="-38692" lat="59.1601999977" lon="5.23669444605">
		<tag k="name" v="Breidaskar" />
		<tag k="natural" v="valley" />
		<tag k="place" v="locality" />
		<tag k="ssr:stedsnr" v="59530" />
	</node>
	<node id="-38685" lat="59.3633527795" lon="5.31567222151">
		<tag k="name" v="Rauden" />
		<tag k="natural" v="hill" />
		<tag k="place" v="locality" />
		<tag k="ssr:stedsnr" v="27899" />
	</node>
	<node id="-38682" lat="59.3930666627" lon="5.35198888071">
		<tag k="name" v="Holmen" />
		<tag k="natural" v="hill" />
		<tag k="place" v="locality" />
		<tag k="ssr:stedsnr" v="27556" />
	</node>
	<node id="-38664" lat="59.2642888898" lon="5.30800556393">
		<tag k="fixme" v="consider natural=peak for the most distinct mountains in the district" />
		<tag k="name" v="Høgåsen" />
		<tag k="natural" v="hill" />
		<tag k="place" v="locality" />
		<tag k="ssr:stedsnr" v="2896" />
	</node>
	<node id="-38658" lat="59.3855527753" lon="5.26192222097">
		<tag k="alt_name" v="Bjørgjene" />
		<tag k="fixme" v="consider natural=peak for the most distinct mountains in the district" />
		<tag k="name" v="Bjørgene" />
		<tag k="natural" v="hill" />
		<tag k="place" v="locality" />
		<tag k="ssr:stedsnr" v="1577" />
	</node>
	<node id="-38644" lat="59.1808805566" lon="5.26491111696">
		<tag k="name" v="Trongahaugen" />
		<tag k="natural" v="hill" />
		<tag k="place" v="locality" />
		<tag k="ssr:stedsnr" v="1097" />
	</node>
	<node id="-38622" lat="59.2927217623" lon="5.23539006995">
		<tag k="name" v="Solhola" />
		<tag k="natural" v="valley" />
		<tag k="place" v="locality" />
		<tag k="ssr:stedsnr" v="980556" />
	</node>
	<node id="-38616" lat="59.1485416649" lon="5.2622638906">
		<tag k="fixme" v="consider natural=peak for the most distinct mountains in the district" />
		<tag k="name" v="Havnafjellet" />
		<tag k="natural" v="hill" />
		<tag k="place" v="locality" />
		<tag k="ssr:stedsnr" v="970609" />
	</node>
	<node id="-38610" lat="59.2426222199" lon="5.28973888695">
		<tag k="name" v="Lynghaugedalsbakkane" />
		<tag k="natural" v="slope" />
		<tag k="place" v="locality" />
		<tag k="ssr:stedsnr" v="970220" />
	</node>
	<node id="-38605" lat="59.1581388905" lon="5.2515361036">
		<tag k="name" v="Skarhaug" />
		<tag k="natural" v="hill" />
		<tag k="place" v="locality" />
		<tag k="ssr:stedsnr" v="970059" />
	</node>
	<node id="-38603" lat="59.3024249993" lon="5.34039999776">
		<tag k="name" v="Helgelandshaugen" />
		<tag k="natural" v="hill" />
		<tag k="place" v="locality" />
		<tag k="ssr:stedsnr" v="969923" />
	</node>
	<node id="-38598" lat="59.2674194483" lon="5.23118055918">
		<tag k="name" v="Simåvaren" />
		<tag k="natural" v="hill" />
		<tag k="place" v="locality" />
		<tag k="ssr:stedsnr" v="969722" />
	</node>
	<node id="-38595" lat="59.2155277793" lon="5.21038332791">
		<tag k="name" v="Lynghaugen" />
		<tag k="natural" v="hill" />
		<tag k="place" v="locality" />
		<tag k="ssr:stedsnr" v="969324" />
	</node>
	<node id="-38592" lat="59.2332888871" lon="5.18755000562">
		<tag k="name" v="Klobben" />
		<tag k="natural" v="hill" />
		<tag k="place" v="locality" />
		<tag k="ssr:stedsnr" v="969215" />
	</node>
	<node id="-38591" lat="59.2262277816" lon="5.17913055052">
		<tag k="name" v="Stonghaugen" />
		<tag k="natural" v="hill" />
		<tag k="place" v="locality" />
		<tag k="ssr:stedsnr" v="969207" />
	</node>
	<node id="-38582" lat="59.3810416624" lon="5.16639722688">
		<tag k="name" v="Ulvøyvarden" />
		<tag k="natural" v="hill" />
		<tag k="place" v="locality" />
		<tag k="ssr:stedsnr" v="936807" />
	</node>
	<node id="-38577" lat="59.264927776" lon="5.31449167343">
		<tag k="fixme" v="consider natural=peak for the most distinct mountains in the district" />
		<tag k="name" v="Høgåsen" />
		<tag k="natural" v="hill" />
		<tag k="place" v="locality" />
		<tag k="ssr:stedsnr" v="909519" />
	</node>
	<node id="-38576" lat="59.2435166623" lon="5.28358888908">
		<tag k="name" v="Ørnareirsfjell" />
		<tag k="natural" v="hill" />
		<tag k="place" v="locality" />
		<tag k="ssr:stedsnr" v="909653" />
	</node>
	<node id="-38574" lat="59.1570666706" lon="5.28714999453">
		<tag k="name" v="Trivardelia" />
		<tag k="natural" v="slope" />
		<tag k="place" v="locality" />
		<tag k="ssr:stedsnr" v="909634" />
	</node>
	<node id="-38570" lat="59.3957083343" lon="5.34866388515">
		<tag k="name" v="Kakeberg" />
		<tag k="natural" v="hill" />
		<tag k="place" v="locality" />
		<tag k="ssr:stedsnr" v="876539" />
	</node>
	<node id="-38563" lat="59.3486694435" lon="5.36822777918">
		<tag k="name" v="Ysthusfjellet" />
		<tag k="natural" v="hill" />
		<tag k="place" v="locality" />
		<tag k="ssr:stedsnr" v="874265" />
	</node>
	<node id="-38550" lat="59.3681916697" lon="5.33857778386">
		<tag k="fixme" v="consider natural=peak for the most distinct mountains in the district" />
		<tag k="name" v="Trånesveiv" />
		<tag k="natural" v="hill" />
		<tag k="place" v="locality" />
		<tag k="ssr:stedsnr" v="937092" />
	</node>
	<node id="-38512" lat="59.1445722196" lon="5.25088888922">
		<tag k="name" v="Varden" />
		<tag k="natural" v="hill" />
		<tag k="place" v="locality" />
		<tag k="ssr:stedsnr" v="790398" />
	</node>
	<node id="-38510" lat="59.1502722181" lon="5.24182499996">
		<tag k="name" v="Storehaugen" />
		<tag k="natural" v="hill" />
		<tag k="place" v="locality" />
		<tag k="ssr:stedsnr" v="790376" />
	</node>
	<node id="-38505" lat="59.343505555" lon="5.37099722922">
		<tag k="name" v="Døset" />
		<tag k="natural" v="hill" />
		<tag k="place" v="locality" />
		<tag k="ssr:stedsnr" v="788790" />
	</node>
	<node id="-38503" lat="59.3424111073" lon="5.36203334232">
		<tag k="name" v="Vetehaugen" />
		<tag k="natural" v="hill" />
		<tag k="place" v="locality" />
		<tag k="ssr:stedsnr" v="788788" />
	</node>
	<node id="-38501" lat="59.2875777813" lon="5.25274165821">
		<tag k="name" v="Litla Skår" />
		<tag k="natural" v="hill" />
		<tag k="place" v="locality" />
		<tag k="ssr:stedsnr" v="788776" />
	</node>
	<node id="-38498" lat="59.3524472211" lon="5.27510555863">
		<tag k="name" v="Nora" />
		<tag k="place" v="locality" />
		<tag k="ssr:stedsnr" v="788768" />
	</node>
	<node id="-38497" lat="59.1988944488" lon="5.19154722638">
		<tag k="name" v="Klåvhaugen" />
		<tag k="natural" v="hill" />
		<tag k="place" v="locality" />
		<tag k="ssr:stedsnr" v="788566" />
	</node>
	<node id="-38496" lat="59.2889416696" lon="5.35641389221">
		<tag k="name" v="Steinshaugen" />
		<tag k="natural" v="hill" />
		<tag k="place" v="locality" />
		<tag k="ssr:stedsnr" v="788564" />
	</node>
	<node id="-38494" lat="59.2885861075" lon="5.37591944473">
		<tag k="name" v="Hadlestykket" />
		<tag k="place" v="locality" />
		<tag k="ssr:stedsnr" v="788556" />
	</node>
	<node id="-38493" lat="59.1785916678" lon="5.29484999907">
		<tag k="name" v="Dale" />
		<tag k="natural" v="valley" />
		<tag k="place" v="locality" />
		<tag k="ssr:stedsnr" v="788370" />
	</node>
	<node id="-38489" lat="59.32173889" lon="5.31867500758">
		<tag k="name" v="Høyevarde" />
		<tag k="natural" v="hill" />
		<tag k="place" v="locality" />
		<tag k="ssr:stedsnr" v="788243" />
	</node>
	<node id="-38487" lat="59.2118194416" lon="5.23207778555">
		<tag k="name" v="Holmavatsstemmen" />
		<tag k="natural" v="hill" />
		<tag k="place" v="locality" />
		<tag k="ssr:stedsnr" v="788209" />
	</node>
	<node id="-38485" lat="59.2347027819" lon="5.19923610314">
		<tag k="name" v="Hesthaugen" />
		<tag k="natural" v="hill" />
		<tag k="place" v="locality" />
		<tag k="ssr:stedsnr" v="788204" />
	</node>
	<node id="-38468" lat="59.2957805586" lon="5.35492500147">
		<tag k="fixme" v="consider natural=peak for the most distinct mountains in the district" />
		<tag k="name" v="Arafjellet" />
		<tag k="natural" v="hill" />
		<tag k="place" v="locality" />
		<tag k="ssr:stedsnr" v="912937" />
	</node>
	<node id="-38457" lat="59.3646861074" lon="5.33491667361">
		<tag k="name" v="Midtleitet" />
		<tag k="natural" v="hill" />
		<tag k="place" v="locality" />
		<tag k="ssr:stedsnr" v="912581" />
	</node>
	<node id="-38451" lat="59.1754638888" lon="5.25068610832">
		<tag k="fixme" v="consider natural=peak for the most distinct mountains in the district" />
		<tag k="name" v="Medfjellsvarden" />
		<tag k="natural" v="hill" />
		<tag k="place" v="locality" />
		<tag k="ssr:stedsnr" v="912437" />
	</node>
	<node id="-38442" lat="59.1895083324" lon="5.19509445065">
		<tag k="name" v="Hålandsdalen" />
		<tag k="natural" v="valley" />
		<tag k="place" v="locality" />
		<tag k="ssr:stedsnr" v="911092" />
	</node>
	<node id="-38432" lat="59.3006694482" lon="5.36823610915">
		<tag k="name" v="Kvelvadalen" />
		<tag k="natural" v="valley" />
		<tag k="place" v="locality" />
		<tag k="ssr:stedsnr" v="909943" />
	</node>
	<node id="-38431" lat="59.244752777" lon="5.21555832765">
		<tag k="name" v="Netta" />
		<tag k="natural" v="hill" />
		<tag k="place" v="locality" />
		<tag k="ssr:stedsnr" v="909920" />
	</node>
	<node id="-38429" lat="59.3541194406" lon="5.36671110864">
		<tag k="fixme" v="consider natural=peak for the most distinct mountains in the district" />
		<tag k="name" v="Åsen" />
		<tag k="natural" v="hill" />
		<tag k="place" v="locality" />
		<tag k="ssr:stedsnr" v="909791" />
	</node>
	<node id="-38426" lat="59.2825027785" lon="5.24296943724">
		<tag k="name" v="Skarvedne" />
		<tag k="natural" v="hill" />
		<tag k="place" v="locality" />
		<tag k="ssr:stedsnr" v="909752" />
	</node>
	<node id="-38418" lat="59.3493722234" lon="5.23038055342">
		<tag k="name" v="Røkleiv" />
		<tag k="natural" v="slope" />
		<tag k="place" v="locality" />
		<tag k="ssr:stedsnr" v="909714" />
	</node>
	<node id="-38415" lat="59.3471361094" lon="5.2532305481">
		<tag k="name" v="Jonsokhaugen" />
		<tag k="natural" v="hill" />
		<tag k="place" v="locality" />
		<tag k="ssr:stedsnr" v="909709" />
	</node>
	<node id="-38413" lat="59.3377972206" lon="5.19341110841">
		<tag k="name" v="Stakkslettå" />
		<tag k="place" v="locality" />
		<tag k="ssr:stedsnr" v="909700" />
	</node>
	<node id="-38402" lat="59.3107888898" lon="5.21890555149">
		<tag k="name" v="Taningemyrshaugen" />
		<tag k="natural" v="hill" />
		<tag k="place" v="locality" />
		<tag k="ssr:stedsnr" v="909334" />
	</node>
	<node id="-38400" lat="59.205847225" lon="5.18461944131">
		<tag k="name" v="Vårdene" />
		<tag k="natural" v="hill" />
		<tag k="place" v="locality" />
		<tag k="ssr:stedsnr" v="909317" />
	</node>
	<node id="-38399" lat="59.2159999963" lon="5.20156388491">
		<tag k="name" v="Geite" />
		<tag k="natural" v="hill" />
		<tag k="place" v="locality" />
		<tag k="ssr:stedsnr" v="909316" />
	</node>
	<node id="-38394" lat="59.3070861136" lon="5.25187499412">
		<tag k="name" v="Borgaredalen" />
		<tag k="natural" v="valley" />
		<tag k="place" v="locality" />
		<tag k="ssr:stedsnr" v="909296" />
	</node>
	<node id="-38393" lat="59.3035416675" lon="5.2455499915">
		<tag k="name" v="Tyrihaugen" />
		<tag k="natural" v="hill" />
		<tag k="place" v="locality" />
		<tag k="ssr:stedsnr" v="909294" />
	</node>
	<node id="-38392" lat="59.3200138919" lon="5.31996945249">
		<tag k="name" v="Kongshaug" />
		<tag k="natural" v="hill" />
		<tag k="place" v="locality" />
		<tag k="ssr:stedsnr" v="909288" />
	</node>
	<node id="-38391" lat="59.2236416704" lon="5.22065278415">
		<tag k="name" v="Stavahatlå" />
		<tag k="natural" v="hill" />
		<tag k="place" v="locality" />
		<tag k="ssr:stedsnr" v="909271" />
	</node>
	<node id="-38390" lat="59.3255000013" lon="5.27389166186">
		<tag k="name" v="Kollstøvarden" />
		<tag k="natural" v="hill" />
		<tag k="place" v="locality" />
		<tag k="ssr:stedsnr" v="909269" />
	</node>
	<node id="-38386" lat="59.2083083296" lon="5.22299722491">
		<tag k="name" v="Krekane" />
		<tag k="natural" v="hill" />
		<tag k="place" v="locality" />
		<tag k="ssr:stedsnr" v="909241" />
	</node>
	<node id="-38382" lat="59.2973111098" lon="5.22163333552">
		<tag k="name" v="Sævikedalen" />
		<tag k="natural" v="valley" />
		<tag k="place" v="locality" />
		<tag k="ssr:stedsnr" v="909165" />
	</node>
	<node id="-38380" lat="59.1636694422" lon="5.23389722044">
		<tag k="name" v="Torvhodel" />
		<tag k="place" v="locality" />
		<tag k="ssr:stedsnr" v="909146" />
	</node>
	<node id="-38378" lat="59.3027000032" lon="5.27037500313">
		<tag k="name" v="Breiasmauet" />
		<tag k="natural" v="valley" />
		<tag k="place" v="locality" />
		<tag k="ssr:stedsnr" v="909058" />
	</node>
	<node id="-38377" lat="59.173177774" lon="5.211013886">
		<tag k="name" v="Liafjell" />
		<tag k="natural" v="hill" />
		<tag k="place" v="locality" />
		<tag k="ssr:stedsnr" v="909010" />
	</node>
	<node id="-38368" lat="59.337180559" lon="5.24035277161">
		<tag k="fixme" v="consider natural=peak for the most distinct mountains in the district" />
		<tag k="name" v="Sommarfjellet" />
		<tag k="natural" v="hill" />
		<tag k="place" v="locality" />
		<tag k="ssr:stedsnr" v="730569" />
	</node>
	<node id="-38359" lat="59.2466694452" lon="5.29704166093">
		<tag k="alt_name" v="Bodleshaugane" />
		<tag k="name" v="Bolleshaugane" />
		<tag k="natural" v="hill" />
		<tag k="place" v="locality" />
		<tag k="ssr:stedsnr" v="729050" />
	</node>
	<node id="-38350" lat="59.2170055514" lon="5.30623332718">
		<tag k="name" v="Simonsdalen" />
		<tag k="natural" v="valley" />
		<tag k="place" v="locality" />
		<tag k="ssr:stedsnr" v="727635" />
	</node>
	<node id="-38349" lat="59.1934333353" lon="5.22863888412">
		<tag k="name" v="Vondehaugen" />
		<tag k="natural" v="hill" />
		<tag k="place" v="locality" />
		<tag k="ssr:stedsnr" v="727622" />
	</node>
	<node id="-38347" lat="59.2039083364" lon="5.31318889108">
		<tag k="name" v="Monsabrekka" />
		<tag k="natural" v="slope" />
		<tag k="place" v="locality" />
		<tag k="ssr:stedsnr" v="727707" />
	</node>
	<node id="-38344" lat="59.1793611081" lon="5.30001943869">
		<tag k="name" v="Hedda" />
		<tag k="natural" v="hill" />
		<tag k="place" v="locality" />
		<tag k="ssr:stedsnr" v="727404" />
	</node>
	<node id="-38343" lat="59.1747833295" lon="5.30690833814">
		<tag k="name" v="Skjenhaugen" />
		<tag k="natural" v="hill" />
		<tag k="place" v="locality" />
		<tag k="ssr:stedsnr" v="727403" />
	</node>
	<node id="-38341" lat="59.2188055537" lon="5.2093000027">
		<tag k="name" v="Nesstølen" />
		<tag k="natural" v="hill" />
		<tag k="place" v="locality" />
		<tag k="ssr:stedsnr" v="727321" />
	</node>
	<node id="-38339" lat="59.3173722237" lon="5.21961388752">
		<tag k="name" v="Tverrgardshaugen" />
		<tag k="natural" v="hill" />
		<tag k="place" v="locality" />
		<tag k="ssr:stedsnr" v="727310" />
	</node>
	<node id="-38337" lat="59.3224527809" lon="5.22961944423">
		<tag k="name" v="Slettahaug" />
		<tag k="natural" v="hill" />
		<tag k="place" v="locality" />
		<tag k="ssr:stedsnr" v="727304" />
	</node>
	<node id="-38321" lat="59.2743500029" lon="5.22151110829">
		<tag k="name" v="Heiå" />
		<tag k="natural" v="hill" />
		<tag k="place" v="locality" />
		<tag k="ssr:stedsnr" v="666738" />
	</node>
	<node id="-38319" lat="59.3443777785" lon="5.22155556308">
		<tag k="name" v="Sætra" />
		<tag k="natural" v="hill" />
		<tag k="place" v="locality" />
		<tag k="ssr:stedsnr" v="666720" />
	</node>
	<node id="-38318" lat="59.3513944442" lon="5.1920638943">
		<tag k="name" v="Høgaberg" />
		<tag k="natural" v="hill" />
		<tag k="place" v="locality" />
		<tag k="ssr:stedsnr" v="666706" />
	</node>
	<node id="-38317" lat="59.1681166652" lon="5.28845556323">
		<tag k="name" v="Longafjell" />
		<tag k="natural" v="hill" />
		<tag k="place" v="locality" />
		<tag k="ssr:stedsnr" v="666340" />
	</node>
	<node id="-38313" lat="59.306469447" lon="5.2304944503">
		<tag k="name" v="Svehaug" />
		<tag k="natural" v="hill" />
		<tag k="place" v="locality" />
		<tag k="ssr:stedsnr" v="666316" />
	</node>
	<node id="-38311" lat="59.1625472215" lon="5.228663887">
		<tag k="name" v="Fjellsnova" />
		<tag k="place" v="locality" />
		<tag k="ssr:stedsnr" v="666023" />
	</node>
	<node id="-38304" lat="59.1884777798" lon="5.18550832674">
		<tag k="name" v="Svartops" />
		<tag k="natural" v="hill" />
		<tag k="place" v="locality" />
		<tag k="ssr:stedsnr" v="663905" />
	</node>
	<node id="-38301" lat="59.3608333374" lon="5.31610000669">
		<tag k="name" v="Skuggaberg" />
		<tag k="natural" v="hill" />
		<tag k="place" v="locality" />
		<tag k="ssr:stedsnr" v="876884" />
	</node>
	<node id="-38289" lat="59.3841833313" lon="5.14915833557">
		<tag k="name" v="Lepseberget" />
		<tag k="natural" v="hill" />
		<tag k="place" v="locality" />
		<tag k="ssr:stedsnr" v="876793" />
	</node>
	<node id="-38282" lat="59.281583942" lon="5.23121070422">
		<tag k="fixme" v="consider natural=peak for the most distinct mountains in the district" />
		<tag k="name" v="Rossafjellet" />
		<tag k="natural" v="hill" />
		<tag k="place" v="locality" />
		<tag k="ssr:stedsnr" v="731586" />
	</node>
	<node id="-38274" lat="59.263844446" lon="5.28039999327">
		<tag k="name" v="Storesåtdalen" />
		<tag k="natural" v="valley" />
		<tag k="place" v="locality" />
		<tag k="ssr:stedsnr" v="730913" />
	</node>
	<node id="-38267" lat="59.3797361078" lon="5.15168334147">
		<tag k="fixme" v="consider natural=peak for the most distinct mountains in the district" />
		<tag k="name" v="Hellefjellet" />
		<tag k="natural" v="hill" />
		<tag k="place" v="locality" />
		<tag k="ssr:stedsnr" v="730640" />
	</node>
	<node id="-38262" lat="59.2189055593" lon="5.30355832756">
		<tag k="name" v="Tverrdalsvarden" />
		<tag k="natural" v="hill" />
		<tag k="place" v="locality" />
		<tag k="ssr:stedsnr" v="730100" />
	</node>
	<node id="-38257" lat="59.1966138863" lon="5.25364165889">
		<tag k="name" v="Ørnahaugen" />
		<tag k="natural" v="hill" />
		<tag k="place" v="locality" />
		<tag k="ssr:stedsnr" v="729102" />
	</node>
	<node id="-38253" lat="59.3790277789" lon="5.36527222221">
		<tag k="name" v="Kyrkjehaugen" />
		<tag k="natural" v="hill" />
		<tag k="place" v="locality" />
		<tag k="ssr:stedsnr" v="633555" />
	</node>
	<node id="-38245" lat="59.2379027786" lon="5.18821110861">
		<tag k="name" v="Kleivadne" />
		<tag k="natural" v="hill" />
		<tag k="place" v="locality" />
		<tag k="ssr:stedsnr" v="727877" />
	</node>
	<node id="-38244" lat="59.2770749975" lon="5.20025277119">
		<tag k="name" v="Netta" />
		<tag k="natural" v="hill" />
		<tag k="place" v="locality" />
		<tag k="ssr:stedsnr" v="727852" />
	</node>
	<node id="-38243" lat="59.3499472236" lon="5.28321389378">
		<tag k="name" v="Munkhaug" />
		<tag k="natural" v="hill" />
		<tag k="place" v="locality" />
		<tag k="ssr:stedsnr" v="727798" />
	</node>
	<node id="-38242" lat="59.2858277804" lon="5.23260555806">
		<tag k="name" v="Moldhaugane" />
		<tag k="natural" v="hill" />
		<tag k="place" v="locality" />
		<tag k="ssr:stedsnr" v="727796" />
	</node>
	<node id="-38241" lat="59.1733611097" lon="5.24360000474">
		<tag k="name" v="Skardet" />
		<tag k="natural" v="valley" />
		<tag k="place" v="locality" />
		<tag k="ssr:stedsnr" v="727795" />
	</node>
	<node id="-38240" lat="59.2856083376" lon="5.21179166918">
		<tag k="name" v="Hapaløk" />
		<tag k="place" v="locality" />
		<tag k="ssr:stedsnr" v="727794" />
	</node>
	<node id="-38229" lat="59.1916638875" lon="5.2713222211">
		<tag k="name" v="Rundehaugen" />
		<tag k="natural" v="hill" />
		<tag k="place" v="locality" />
		<tag k="ssr:stedsnr" v="727672" />
	</node>
	<node id="-38226" lat="59.2359277762" lon="5.30153611208">
		<tag k="name" v="Beinedalen" />
		<tag k="natural" v="valley" />
		<tag k="place" v="locality" />
		<tag k="ssr:stedsnr" v="727654" />
	</node>
	<node id="-38225" lat="59.2416083374" lon="5.28542776901">
		<tag k="name" v="Revadalen" />
		<tag k="natural" v="valley" />
		<tag k="place" v="locality" />
		<tag k="ssr:stedsnr" v="727652" />
	</node>
	<node id="-38222" lat="59.1535805557" lon="5.24031111581">
		<tag k="name" v="Stemmen" />
		<tag k="natural" v="hill" />
		<tag k="place" v="locality" />
		<tag k="ssr:stedsnr" v="727536" />
	</node>
	<node id="-38221" lat="59.2666749987" lon="5.27677777244">
		<tag k="name" v="Nordre Ronahaug" />
		<tag k="natural" v="hill" />
		<tag k="place" v="locality" />
		<tag k="ssr:stedsnr" v="727530" />
	</node>
	<node id="-38213" lat="59.3124055585" lon="5.24775555427">
		<tag k="name" v="Lindedalen" />
		<tag k="natural" v="valley" />
		<tag k="place" v="locality" />
		<tag k="ssr:stedsnr" v="727275" />
	</node>
	<node id="-38192" lat="59.3073666677" lon="5.25577778166">
		<tag k="alt_name" v="Kjerringtua" />
		<tag k="fixme" v="consider natural=peak for the most distinct mountains in the district" />
		<tag k="name" v="Kjerringtuva" />
		<tag k="natural" v="hill" />
		<tag k="place" v="locality" />
		<tag k="ssr:stedsnr" v="609970" />
	</node>
	<node id="-38179" lat="59.2383230289" lon="5.2538325929">
		<tag k="fixme" v="consider natural=peak for the most distinct mountains in the district" />
		<tag k="name" v="Rossafjellet" />
		<tag k="natural" v="hill" />
		<tag k="place" v="locality" />
		<tag k="ssr:stedsnr" v="607024" />
	</node>
	<node id="-38177" lat="59.3465277788" lon="5.35983055725">
		<tag k="name" v="Tuastadhaugen" />
		<tag k="natural" v="hill" />
		<tag k="place" v="locality" />
		<tag k="ssr:stedsnr" v="605804" />
	</node>
	<node id="-38173" lat="59.2366361097" lon="5.28760000031">
		<tag k="name" v="Komledalen" />
		<tag k="natural" v="valley" />
		<tag k="place" v="locality" />
		<tag k="ssr:stedsnr" v="605652" />
	</node>
	<node id="-38172" lat="59.2391777762" lon="5.29067500241">
		<tag k="name" v="Tytebærhaugen" />
		<tag k="natural" v="hill" />
		<tag k="place" v="locality" />
		<tag k="ssr:stedsnr" v="605651" />
	</node>
	<node id="-38164" lat="59.2268277746" lon="5.19679722462">
		<tag k="name" v="Goleberg" />
		<tag k="natural" v="hill" />
		<tag k="place" v="locality" />
		<tag k="ssr:stedsnr" v="605239" />
	</node>
	<node id="-38146" lat="59.3837749956" lon="5.2735305496">
		<tag k="name" v="Gunnarshaugen" />
		<tag k="natural" v="hill" />
		<tag k="place" v="locality" />
		<tag k="ssr:stedsnr" v="707212" />
	</node>
	<node id="-38138" lat="59.1973138915" lon="5.2714944394">
		<tag k="name" v="Vassendedalen" />
		<tag k="natural" v="valley" />
		<tag k="place" v="locality" />
		<tag k="ssr:stedsnr" v="547121" />
	</node>
	<node id="-38132" lat="59.3815055553" lon="5.15008889304">
		<tag k="name" v="Sjydningshaugen" />
		<tag k="natural" v="hill" />
		<tag k="place" v="locality" />
		<tag k="ssr:stedsnr" v="694800" />
	</node>
	<node id="-38113" lat="59.2839999992" lon="5.29129165993">
		<tag k="name" v="Austreimlia" />
		<tag k="natural" v="slope" />
		<tag k="place" v="locality" />
		<tag k="ssr:stedsnr" v="511065" />
	</node>
	<node id="-38111" lat="61.2177777797" lon="6.59979722139">
		<tag k="alt_name" v="Alskori" />
		<tag k="name" v="Almskori" />
		<tag k="place" v="locality" />
		<tag k="ssr:stedsnr" v="677966" />
	</node>
	<node id="-38098" lat="59.2649666712" lon="5.22534166974">
		<tag k="name" v="Breiabakka" />
		<tag k="natural" v="hill" />
		<tag k="place" v="locality" />
		<tag k="ssr:stedsnr" v="484707" />
	</node>
	<node id="-38097" lat="59.2895833301" lon="5.36008888693">
		<tag k="name" v="Gravarhaugen" />
		<tag k="natural" v="hill" />
		<tag k="place" v="locality" />
		<tag k="ssr:stedsnr" v="484568" />
	</node>
	<node id="-38095" lat="59.1613416662" lon="5.23702499579">
		<tag k="name" v="Kjerkehaugen" />
		<tag k="natural" v="hill" />
		<tag k="place" v="locality" />
		<tag k="ssr:stedsnr" v="484511" />
	</node>
	<node id="-38094" lat="59.275194446" lon="5.29560555976">
		<tag k="name" v="Liarlund" />
		<tag k="natural" v="slope" />
		<tag k="place" v="locality" />
		<tag k="ssr:stedsnr" v="484664" />
	</node>
	<node id="-38093" lat="59.2321944475" lon="5.31786944008">
		<tag k="name" v="Eikjebrekk" />
		<tag k="natural" v="slope" />
		<tag k="place" v="locality" />
		<tag k="ssr:stedsnr" v="484654" />
	</node>
	<node id="-38092" lat="59.190897225" lon="5.27371667025">
		<tag k="name" v="Davaberg" />
		<tag k="natural" v="hill" />
		<tag k="place" v="locality" />
		<tag k="ssr:stedsnr" v="484652" />
	</node>
	<node id="-38090" lat="59.1889944414" lon="5.21914166603">
		<tag k="name" v="Belteslibråtå" />
		<tag k="natural" v="slope" />
		<tag k="place" v="locality" />
		<tag k="ssr:stedsnr" v="484611" />
	</node>
	<node id="-38087" lat="59.2205055542" lon="5.18296389036">
		<tag k="name" v="Kalgarshaugen" />
		<tag k="natural" v="hill" />
		<tag k="place" v="locality" />
		<tag k="ssr:stedsnr" v="484272" />
	</node>
	<node id="-38086" lat="59.2176305588" lon="5.18633610738">
		<tag k="name" v="Grindastaden" />
		<tag k="natural" v="hill" />
		<tag k="place" v="locality" />
		<tag k="ssr:stedsnr" v="484266" />
	</node>
	<node id="-38069" lat="59.2553305572" lon="5.25779167058">
		<tag k="name" v="Brekkevasshøgda" />
		<tag k="natural" v="hill" />
		<tag k="place" v="locality" />
		<tag k="ssr:stedsnr" v="670882" />
	</node>
	<node id="-38065" lat="59.3230927438" lon="5.23533776489">
		<tag k="alt_name" v="Kvalevågsvarden" />
		<tag k="fixme" v="consider natural=peak for the most distinct mountains in the district" />
		<tag k="name" v="Varden" />
		<tag k="natural" v="hill" />
		<tag k="place" v="locality" />
		<tag k="ssr:stedsnr" v="670000" />
	</node>
	<node id="-37684" lat="59.1657000026" lon="5.22089167384">
		<tag k="name" v="Skådlajerdene" />
		<tag k="natural" v="hill" />
		<tag k="place" v="locality" />
		<tag k="ssr:stedsnr" v="181016" />
	</node>
	<node id="-38044" lat="59.1858111151" lon="5.30808332952">
		<tag k="name" v="Peradalen" />
		<tag k="natural" v="valley" />
		<tag k="place" v="locality" />
		<tag k="ssr:stedsnr" v="669056" />
	</node>
	<node id="-38043" lat="59.179386109" lon="5.20553888298">
		<tag k="fixme" v="consider natural=peak for the most distinct mountains in the district" />
		<tag k="name" v="Sandfjellet" />
		<tag k="natural" v="hill" />
		<tag k="place" v="locality" />
		<tag k="ssr:stedsnr" v="669051" />
	</node>
	<node id="-38040" lat="59.1946250036" lon="5.2792861185">
		<tag k="name" v="Hilleslandshaugen" />
		<tag k="natural" v="hill" />
		<tag k="place" v="locality" />
		<tag k="ssr:stedsnr" v="668081" />
	</node>
	<node id="-38036" lat="59.2403245537" lon="5.28780205074">
		<tag k="alt_name" v="Sålefjellet, s" />
		<tag k="fixme" v="consider natural=peak for the most distinct mountains in the district" />
		<tag k="name" v="Søre Sålefjell" />
		<tag k="natural" v="hill" />
		<tag k="place" v="locality" />
		<tag k="ssr:stedsnr" v="668011" />
	</node>
	<node id="-38033" lat="59.148452781" lon="5.2613805472">
		<tag k="name" v="Fløyfjellet" />
		<tag k="natural" v="hill" />
		<tag k="place" v="locality" />
		<tag k="ssr:stedsnr" v="667461" />
	</node>
	<node id="-38029" lat="59.3057166675" lon="5.3668527749">
		<tag k="name" v="Nonsnuten" />
		<tag k="natural" v="hill" />
		<tag k="place" v="locality" />
		<tag k="ssr:stedsnr" v="666941" />
	</node>
	<node id="-38028" lat="59.3053472218" lon="5.34493611127">
		<tag k="name" v="Killingskar" />
		<tag k="natural" v="valley" />
		<tag k="place" v="locality" />
		<tag k="ssr:stedsnr" v="666940" />
	</node>
	<node id="-38027" lat="59.24194167" lon="5.23668056049">
		<tag k="name" v="Setradne" />
		<tag k="natural" v="hill" />
		<tag k="place" v="locality" />
		<tag k="ssr:stedsnr" v="666889" />
	</node>
	<node id="-38026" lat="59.2321944411" lon="5.23351110828">
		<tag k="name" v="Herbergshaugane" />
		<tag k="natural" v="hill" />
		<tag k="place" v="locality" />
		<tag k="ssr:stedsnr" v="666868" />
	</node>
	<node id="-38022" lat="59.1769555522" lon="5.25973611196">
		<tag k="name" v="Urahaugen" />
		<tag k="natural" v="hill" />
		<tag k="place" v="locality" />
		<tag k="ssr:stedsnr" v="666767" />
	</node>
	<node id="-38020" lat="59.3536638888" lon="5.27044999191">
		<tag k="name" v="Havrevoll" />
		<tag k="place" v="locality" />
		<tag k="ssr:stedsnr" v="666763" />
	</node>
	<node id="-38017" lat="59.1541249992" lon="5.28106389384">
		<tag k="name" v="Jektarhaugen" />
		<tag k="natural" v="hill" />
		<tag k="place" v="locality" />
		<tag k="ssr:stedsnr" v="666678" />
	</node>
	<node id="-38016" lat="59.151416667" lon="5.27161110579">
		<tag k="name" v="Ershaugen" />
		<tag k="natural" v="hill" />
		<tag k="place" v="locality" />
		<tag k="ssr:stedsnr" v="666675" />
	</node>
	<node id="-38014" lat="59.2898861134" lon="5.26986389697">
		<tag k="name" v="Haugaberg" />
		<tag k="natural" v="hill" />
		<tag k="place" v="locality" />
		<tag k="ssr:stedsnr" v="666660" />
	</node>
	<node id="-38013" lat="59.2774666658" lon="5.27693333833">
		<tag k="name" v="Løbergshaugen" />
		<tag k="natural" v="hill" />
		<tag k="place" v="locality" />
		<tag k="ssr:stedsnr" v="666656" />
	</node>
	<node id="-38011" lat="59.191213885" lon="5.28037500553">
		<tag k="name" v="Mittfjellsbråta" />
		<tag k="place" v="locality" />
		<tag k="ssr:stedsnr" v="666653" />
	</node>
	<node id="-38010" lat="59.155330553" lon="5.28137222849">
		<tag k="name" v="Øygardshaugen" />
		<tag k="natural" v="hill" />
		<tag k="place" v="locality" />
		<tag k="ssr:stedsnr" v="666627" />
	</node>
	<node id="-38009" lat="59.2111500028" lon="5.27121110663">
		<tag k="name" v="Øykjadalen" />
		<tag k="natural" v="valley" />
		<tag k="place" v="locality" />
		<tag k="ssr:stedsnr" v="666624" />
	</node>
	<node id="-38006" lat="59.1996027805" lon="5.19057500574">
		<tag k="name" v="Tyskahaugane" />
		<tag k="natural" v="hill" />
		<tag k="place" v="locality" />
		<tag k="ssr:stedsnr" v="666574" />
	</node>
	<node id="-38005" lat="59.2019444443" lon="5.19071667505">
		<tag k="name" v="Håvardshaugen" />
		<tag k="natural" v="hill" />
		<tag k="place" v="locality" />
		<tag k="ssr:stedsnr" v="666568" />
	</node>
	<node id="-38003" lat="59.2045916712" lon="5.20376111581">
		<tag k="name" v="Flekshammar" />
		<tag k="natural" v="hill" />
		<tag k="place" v="locality" />
		<tag k="ssr:stedsnr" v="666543" />
	</node>
	<node id="-38001" lat="59.3288833377" lon="5.21914444963">
		<tag k="name" v="Gångefjell" />
		<tag k="natural" v="hill" />
		<tag k="place" v="locality" />
		<tag k="ssr:stedsnr" v="666486" />
	</node>
	<node id="-38000" lat="59.3289944406" lon="5.20936665886">
		<tag k="name" v="Torvdalen" />
		<tag k="natural" v="valley" />
		<tag k="place" v="locality" />
		<tag k="ssr:stedsnr" v="666481" />
	</node>
	<node id="-37998" lat="59.3319805584" lon="5.2432722225">
		<tag k="fixme" v="consider natural=peak for the most distinct mountains in the district" />
		<tag k="name" v="Eggane" />
		<tag k="natural" v="hill" />
		<tag k="place" v="locality" />
		<tag k="ssr:stedsnr" v="666301" />
	</node>
	<node id="-37996" lat="59.2170194457" lon="5.20383332896">
		<tag k="name" v="Løkjen" />
		<tag k="place" v="locality" />
		<tag k="ssr:stedsnr" v="666292" />
	</node>
	<node id="-37995" lat="59.3084983049" lon="5.25362978787">
		<tag k="name" v="Borgarefjellet" />
		<tag k="natural" v="hill" />
		<tag k="place" v="locality" />
		<tag k="ssr:stedsnr" v="666276" />
	</node>
	<node id="-37994" lat="59.2260222259" lon="5.22435277698">
		<tag k="name" v="Styrevarden" />
		<tag k="natural" v="hill" />
		<tag k="place" v="locality" />
		<tag k="ssr:stedsnr" v="666257" />
	</node>
	<node id="-37993" lat="59.3282861129" lon="5.27675278259">
		<tag k="name" v="Ryggenuten" />
		<tag k="natural" v="hill" />
		<tag k="place" v="locality" />
		<tag k="ssr:stedsnr" v="666248" />
	</node>
	<node id="-37989" lat="59.3280388891" lon="5.34985000177">
		<tag k="name" v="Rindå" />
		<tag k="natural" v="hill" />
		<tag k="place" v="locality" />
		<tag k="ssr:stedsnr" v="666219" />
	</node>
	<node id="-37984" lat="59.1626222185" lon="5.23443333398">
		<tag k="name" v="Trettedalen" />
		<tag k="natural" v="valley" />
		<tag k="place" v="locality" />
		<tag k="ssr:stedsnr" v="666144" />
	</node>
	<node id="-37983" lat="59.3045583347" lon="5.26867778278">
		<tag k="name" v="Grullehaug" />
		<tag k="natural" v="hill" />
		<tag k="place" v="locality" />
		<tag k="ssr:stedsnr" v="666062" />
	</node>
	<node id="-37965" lat="59.1578861126" lon="5.21713056304">
		<tag k="name" v="Grøtheimstuva" />
		<tag k="natural" v="hill" />
		<tag k="place" v="locality" />
		<tag k="ssr:stedsnr" v="426414" />
	</node>
	<node id="-37964" lat="59.2119944433" lon="5.22509721736">
		<tag k="name" v="Storehaugane" />
		<tag k="natural" v="hill" />
		<tag k="place" v="locality" />
		<tag k="ssr:stedsnr" v="426016" />
	</node>
	<node id="-37952" lat="59.2434361145" lon="5.31842778172">
		<tag k="name" v="Bjødnafjell" />
		<tag k="natural" v="hill" />
		<tag k="place" v="locality" />
		<tag k="ssr:stedsnr" v="424626" />
	</node>
	<node id="-37949" lat="59.2242916696" lon="5.27179166086">
		<tag k="name" v="Udnevarden" />
		<tag k="natural" v="hill" />
		<tag k="place" v="locality" />
		<tag k="ssr:stedsnr" v="424609" />
	</node>
	<node id="-37947" lat="59.1466694428" lon="5.23947777036">
		<tag k="name" v="Kalvagjerdet" />
		<tag k="place" v="locality" />
		<tag k="ssr:stedsnr" v="424542" />
	</node>
	<node id="-37946" lat="59.1515055549" lon="5.24440554824">
		<tag k="name" v="Øygardshaugen" />
		<tag k="natural" v="hill" />
		<tag k="place" v="locality" />
		<tag k="ssr:stedsnr" v="424532" />
	</node>
	<node id="-37945" lat="59.1574944462" lon="5.26662499925">
		<tag k="name" v="Storaborg" />
		<tag k="natural" v="hill" />
		<tag k="place" v="locality" />
		<tag k="ssr:stedsnr" v="424516" />
	</node>
	<node id="-37943" lat="59.2093666656" lon="5.21665833096">
		<tag k="name" v="Sauadalen" />
		<tag k="natural" v="valley" />
		<tag k="place" v="locality" />
		<tag k="ssr:stedsnr" v="424225" />
	</node>
	<node id="-37941" lat="59.232494449" lon="5.17915000016">
		<tag k="name" v="Naustsjer" />
		<tag k="natural" v="hill" />
		<tag k="place" v="locality" />
		<tag k="ssr:stedsnr" v="424212" />
	</node>
	<node id="-37933" lat="59.3783194419" lon="5.34063054966">
		<tag k="alt_name" v="Spannevarden;Spannavaren" />
		<tag k="fixme" v="consider natural=peak for the most distinct mountains in the district" />
		<tag k="name" v="Spannavarden" />
		<tag k="natural" v="hill" />
		<tag k="place" v="locality" />
		<tag k="ssr:stedsnr" v="512561" />
	</node>
	<node id="-37925" lat="59.3727138894" lon="5.15851110812">
		<tag k="name" v="Dalen" />
		<tag k="natural" v="valley" />
		<tag k="place" v="locality" />
		<tag k="ssr:stedsnr" v="511785" />
	</node>
	<node id="-37889" lat="59.2521694472" lon="5.23821943949">
		<tag k="name" v="Beinadalen" />
		<tag k="natural" v="valley" />
		<tag k="place" v="locality" />
		<tag k="ssr:stedsnr" v="363687" />
	</node>
	<node id="-37888" lat="59.2522472221" lon="5.24798888062">
		<tag k="name" v="Vaulshaugen" />
		<tag k="natural" v="hill" />
		<tag k="place" v="locality" />
		<tag k="ssr:stedsnr" v="363685" />
	</node>
	<node id="-37887" lat="59.2638694443" lon="5.22655278358">
		<tag k="name" v="Eineskar" />
		<tag k="natural" v="valley" />
		<tag k="place" v="locality" />
		<tag k="ssr:stedsnr" v="363675" />
	</node>
	<node id="-37883" lat="59.1702111137" lon="5.30953611078">
		<tag k="name" v="Klovhaug" />
		<tag k="natural" v="hill" />
		<tag k="place" v="locality" />
		<tag k="ssr:stedsnr" v="363312" />
	</node>
	<node id="-37877" lat="59.1620166655" lon="5.20530000512">
		<tag k="name" v="Austnabergedne" />
		<tag k="natural" v="hill" />
		<tag k="place" v="locality" />
		<tag k="ssr:stedsnr" v="363011" />
	</node>
	<node id="-37715" lat="59.2396027776" lon="5.28882222885">
		<tag k="name" v="Hansabakkane" />
		<tag k="natural" v="slope" />
		<tag k="place" v="locality" />
		<tag k="ssr:stedsnr" v="242611" />
	</node>
	<node id="-37871" lat="59.3101805529" lon="5.27888889303">
		<tag k="alt_name" v="Helgeberghaugen" />
		<tag k="name" v="Helgabergsnuten" />
		<tag k="natural" v="hill" />
		<tag k="place" v="locality" />
		<tag k="ssr:stedsnr" v="488968" />
	</node>
	<node id="-37868" lat="59.3016382205" lon="5.24816710506">
		<tag k="name" v="Sundsfjellet" />
		<tag k="natural" v="hill" />
		<tag k="place" v="locality" />
		<tag k="ssr:stedsnr" v="487951" />
	</node>
	<node id="-37856" lat="59.3532994599" lon="5.23659918671">
		<tag k="alt_name" v="Vardberg" />
		<tag k="name" v="Vardberget" />
		<tag k="natural" v="hill" />
		<tag k="place" v="locality" />
		<tag k="ssr:stedsnr" v="487603" />
	</node>
	<node id="-37848" lat="59.3399500025" lon="5.25635833788">
		<tag k="alt_name" v="Kongshaug" />
		<tag k="name" v="Kongshaugen" />
		<tag k="natural" v="hill" />
		<tag k="place" v="locality" />
		<tag k="ssr:stedsnr" v="487552" />
	</node>
	<node id="-37839" lat="59.2376472262" lon="5.31103889687">
		<tag k="alt_name" v="Håvelifjell" />
		<tag k="fixme" v="consider natural=peak for the most distinct mountains in the district" />
		<tag k="name" v="Håvelifjellet" />
		<tag k="natural" v="hill" />
		<tag k="place" v="locality" />
		<tag k="ssr:stedsnr" v="486015" />
	</node>
	<node id="-37838" lat="59.2363666643" lon="5.3204222235">
		<tag k="name" v="Busterdalen" />
		<tag k="natural" v="valley" />
		<tag k="place" v="locality" />
		<tag k="ssr:stedsnr" v="486014" />
	</node>
	<node id="-37837" lat="59.3129638924" lon="5.34054999627">
		<tag k="name" v="Djupadalen" />
		<tag k="natural" v="valley" />
		<tag k="place" v="locality" />
		<tag k="ssr:stedsnr" v="484947" />
	</node>
	<node id="-37835" lat="59.2327694453" lon="5.21985278397">
		<tag k="fixme" v="consider natural=peak for the most distinct mountains in the district" />
		<tag k="name" v="Varaleitå" />
		<tag k="natural" v="hill" />
		<tag k="place" v="locality" />
		<tag k="ssr:stedsnr" v="484908" />
	</node>
	<node id="-37833" lat="59.3380805527" lon="5.37146945031">
		<tag k="name" v="Tronahaugen" />
		<tag k="natural" v="hill" />
		<tag k="place" v="locality" />
		<tag k="ssr:stedsnr" v="484797" />
	</node>
	<node id="-37832" lat="59.3381194409" lon="5.36706667084">
		<tag k="name" v="Layhaugen" />
		<tag k="natural" v="hill" />
		<tag k="place" v="locality" />
		<tag k="ssr:stedsnr" v="484794" />
	</node>
	<node id="-37831" lat="59.2593083327" lon="5.18481667088">
		<tag k="name" v="Naustaberg" />
		<tag k="natural" v="hill" />
		<tag k="place" v="locality" />
		<tag k="ssr:stedsnr" v="484790" />
	</node>
	<node id="-37830" lat="59.2575083343" lon="5.18786110255">
		<tag k="name" v="Snartaberg" />
		<tag k="natural" v="hill" />
		<tag k="place" v="locality" />
		<tag k="ssr:stedsnr" v="484786" />
	</node>
	<node id="-37829" lat="59.2846666641" lon="5.2609666671">
		<tag k="name" v="Skår" />
		<tag k="natural" v="hill" />
		<tag k="place" v="locality" />
		<tag k="ssr:stedsnr" v="484776" />
	</node>
	<node id="-37828" lat="59.2287555588" lon="5.26195556256">
		<tag k="name" v="Tiphaugane" />
		<tag k="natural" v="hill" />
		<tag k="place" v="locality" />
		<tag k="ssr:stedsnr" v="484877" />
	</node>
	<node id="-37823" lat="59.1800305543" lon="5.18466389241">
		<tag k="name" v="Legrohaugen" />
		<tag k="natural" v="hill" />
		<tag k="place" v="locality" />
		<tag k="ssr:stedsnr" v="484686" />
	</node>
	<node id="-37822" lat="59.1933722235" lon="5.27197500398">
		<tag k="name" v="Ambarsdalen" />
		<tag k="natural" v="valley" />
		<tag k="place" v="locality" />
		<tag k="ssr:stedsnr" v="484679" />
	</node>
	<node id="-37818" lat="59.2487833315" lon="5.31960556339">
		<tag k="name" v="Bratthammer" />
		<tag k="natural" v="slope" />
		<tag k="place" v="locality" />
		<tag k="ssr:stedsnr" v="484538" />
	</node>
	<node id="-37814" lat="59.1930111135" lon="5.20306666893">
		<tag k="name" v="Hagabråta" />
		<tag k="natural" v="hill" />
		<tag k="place" v="locality" />
		<tag k="ssr:stedsnr" v="484586" />
	</node>
	<node id="-37705" lat="59.2551611148" lon="5.30928055472">
		<tag k="name" v="Revur" />
		<tag k="natural" v="slope" />
		<tag k="place" v="locality" />
		<tag k="ssr:stedsnr" v="242518" />
	</node>
	<node id="-37812" lat="59.317355555" lon="5.31684722083">
		<tag k="name" v="Ringen" />
		<tag k="natural" v="hill" />
		<tag k="place" v="locality" />
		<tag k="ssr:stedsnr" v="484249" />
	</node>
	<node id="-37808" lat="59.2342666679" lon="5.18925000346">
		<tag k="name" v="Skjeldmeiene" />
		<tag k="place" v="locality" />
		<tag k="ssr:stedsnr" v="484189" />
	</node>
	<node id="-39752" lat="59.2500555582" lon="5.26056667096">
		<tag k="name" v="Jerikodalen" />
		<tag k="natural" v="valley" />
		<tag k="place" v="locality" />
		<tag k="ssr:stedsnr" v="970347" />
	</node>
	<node id="-37805" lat="59.3145749967" lon="5.37661388643">
		<tag k="name" v="Skokkane" />
		<tag k="natural" v="slope" />
		<tag k="place" v="locality" />
		<tag k="ssr:stedsnr" v="484184" />
	</node>
	<node id="-37799" lat="59.147455552" lon="5.26666944495">
		<tag k="name" v="Parkfjellet" />
		<tag k="natural" v="hill" />
		<tag k="place" v="locality" />
		<tag k="ssr:stedsnr" v="482745" />
	</node>
	<node id="-37793" lat="59.3806194426" lon="5.14744721718">
		<tag k="alt_name" v="Brøvaren" />
		<tag k="name" v="Brødvarden" />
		<tag k="natural" v="hill" />
		<tag k="place" v="locality" />
		<tag k="ssr:stedsnr" v="329719" />
	</node>
	<node id="-37786" lat="59.2242527769" lon="5.21358611563">
		<tag k="alt_name" v="Setrahaugen" />
		<tag k="name" v="Sætrahaugen" />
		<tag k="natural" v="hill" />
		<tag k="place" v="locality" />
		<tag k="ssr:stedsnr" v="304005" />
	</node>
	<node id="-37785" lat="59.345136113" lon="5.27344444222">
		<tag k="name" v="Øygardenhaugen" />
		<tag k="natural" v="hill" />
		<tag k="place" v="locality" />
		<tag k="ssr:stedsnr" v="303776" />
	</node>
	<node id="-37782" lat="59.2840416674" lon="5.28020278268">
		<tag k="name" v="Skjepahaugen" />
		<tag k="natural" v="hill" />
		<tag k="place" v="locality" />
		<tag k="ssr:stedsnr" v="303662" />
	</node>
	<node id="-37777" lat="59.2357611098" lon="5.21516943594">
		<tag k="name" v="Ådnafjellet" />
		<tag k="natural" v="hill" />
		<tag k="place" v="locality" />
		<tag k="ssr:stedsnr" v="302902" />
	</node>
	<node id="-37776" lat="59.2595305557" lon="5.21704445062">
		<tag k="name" v="Grønaholå" />
		<tag k="natural" v="valley" />
		<tag k="place" v="locality" />
		<tag k="ssr:stedsnr" v="302722" />
	</node>
	<node id="-37765" lat="59.2179333362" lon="5.18751388868">
		<tag k="name" v="Småhaugadne" />
		<tag k="natural" v="hill" />
		<tag k="place" v="locality" />
		<tag k="ssr:stedsnr" v="302316" />
	</node>
	<node id="-37764" lat="59.3074083299" lon="5.25553054991">
		<tag k="name" v="Kjerringtua" />
		<tag k="natural" v="hill" />
		<tag k="place" v="locality" />
		<tag k="ssr:stedsnr" v="302170" />
	</node>
	<node id="-37763" lat="59.3159694416" lon="5.30256111494">
		<tag k="name" v="Myrvang" />
		<tag k="natural" v="hill" />
		<tag k="place" v="locality" />
		<tag k="ssr:stedsnr" v="302164" />
	</node>
	<node id="-37762" lat="59.228805553" lon="5.18724445338">
		<tag k="name" v="Himmelsberg" />
		<tag k="natural" v="hill" />
		<tag k="place" v="locality" />
		<tag k="ssr:stedsnr" v="302229" />
	</node>
	<node id="-37759" lat="59.1852944487" lon="5.19125833532">
		<tag k="name" v="Blåbærhaugen" />
		<tag k="natural" v="hill" />
		<tag k="place" v="locality" />
		<tag k="ssr:stedsnr" v="300910" />
	</node>
	<node id="-39775" lat="59.3467749106" lon="5.32701290319">
		<tag k="name" v="Tjørnahaugen" />
		<tag k="natural" v="hill" />
		<tag k="place" v="locality" />
		<tag k="ssr:stedsnr" v="970853" />
	</node>
	<node id="-39774" lat="59.1775583313" lon="5.28667777396">
		<tag k="name" v="Brattaberg" />
		<tag k="natural" v="hill" />
		<tag k="place" v="locality" />
		<tag k="ssr:stedsnr" v="970585" />
	</node>
	<node id="-39770" lat="59.3350861087" lon="5.34408055947">
		<tag k="name" v="Langhammar" />
		<tag k="natural" v="hill" />
		<tag k="place" v="locality" />
		<tag k="ssr:stedsnr" v="970469" />
	</node>
	<node id="-39768" lat="59.3178083337" lon="5.26084165876">
		<tag k="name" v="Grøne Løken" />
		<tag k="place" v="locality" />
		<tag k="ssr:stedsnr" v="970458" />
	</node>
	<node id="-39765" lat="59.3183444411" lon="5.21500556174">
		<tag k="name" v="Ravnatuene" />
		<tag k="natural" v="hill" />
		<tag k="place" v="locality" />
		<tag k="ssr:stedsnr" v="970445" />
	</node>
	<node id="-39763" lat="59.2781944412" lon="5.22517500367">
		<tag k="name" v="Sponberg" />
		<tag k="natural" v="hill" />
		<tag k="place" v="locality" />
		<tag k="ssr:stedsnr" v="970433" />
	</node>
	<node id="-37714" lat="59.1949138852" lon="5.24002221767">
		<tag k="name" v="Syrelega" />
		<tag k="natural" v="hill" />
		<tag k="place" v="locality" />
		<tag k="ssr:stedsnr" v="242603" />
	</node>
	<node id="-37713" lat="59.2195444443" lon="5.3225638804">
		<tag k="name" v="Killingsvarden" />
		<tag k="natural" v="hill" />
		<tag k="place" v="locality" />
		<tag k="ssr:stedsnr" v="242602" />
	</node>
	<node id="-37711" lat="59.2906277795" lon="5.23792499377">
		<tag k="name" v="Kalvaberg" />
		<tag k="natural" v="hill" />
		<tag k="place" v="locality" />
		<tag k="ssr:stedsnr" v="242765" />
	</node>
	<node id="-39756" lat="59.2820082851" lon="5.23120325245">
		<tag k="name" v="Nora Rossafjellet" />
		<tag k="natural" v="hill" />
		<tag k="place" v="locality" />
		<tag k="ssr:stedsnr" v="970387" />
	</node>
	<node id="-39755" lat="59.3184222197" lon="5.31421666647">
		<tag k="name" v="Hesthaug" />
		<tag k="natural" v="hill" />
		<tag k="place" v="locality" />
		<tag k="ssr:stedsnr" v="970377" />
	</node>
	<node id="-37706" lat="59.2564861109" lon="5.3141749923">
		<tag k="name" v="Nordrevarden" />
		<tag k="natural" v="hill" />
		<tag k="place" v="locality" />
		<tag k="ssr:stedsnr" v="242519" />
	</node>
	<node id="-39753" lat="59.3209555554" lon="5.31858610643">
		<tag k="name" v="Klausastykket" />
		<tag k="place" v="locality" />
		<tag k="ssr:stedsnr" v="970350" />
	</node>
	<node id="-37704" lat="59.332227776" lon="5.21083610903">
		<tag k="name" v="Rambaskår" />
		<tag k="place" v="locality" />
		<tag k="ssr:stedsnr" v="242423" />
	</node>
	<node id="-39749" lat="59.2854944451" lon="5.28232778262">
		<tag k="name" v="Skansebakken" />
		<tag k="natural" v="slope" />
		<tag k="place" v="locality" />
		<tag k="ssr:stedsnr" v="970243" />
	</node>
	<node id="-37697" lat="59.2474944452" lon="5.20907777463">
		<tag k="name" v="Staraberg" />
		<tag k="place" v="locality" />
		<tag k="ssr:stedsnr" v="241175" />
	</node>
	<node id="-39743" lat="59.1977027762" lon="5.18335555552">
		<tag k="name" v="Kløyva" />
		<tag k="natural" v="hill" />
		<tag k="place" v="locality" />
		<tag k="ssr:stedsnr" v="970134" />
	</node>
	<node id="-39741" lat="59.2619888854" lon="5.27825555078">
		<tag k="name" v="Skrivarvarden" />
		<tag k="natural" v="hill" />
		<tag k="place" v="locality" />
		<tag k="ssr:stedsnr" v="970097" />
	</node>
	<node id="-39740" lat="59.2544138861" lon="5.30358611549">
		<tag k="name" v="Bukkevarden" />
		<tag k="natural" v="hill" />
		<tag k="place" v="locality" />
		<tag k="ssr:stedsnr" v="970092" />
	</node>
	<node id="-37688" lat="59.3055777744" lon="5.2459777793">
		<tag k="name" v="Litle Borgarefjell" />
		<tag k="natural" v="hill" />
		<tag k="place" v="locality" />
		<tag k="ssr:stedsnr" v="181265" />
	</node>
	<node id="-39735" lat="59.2267194457" lon="5.23816667465">
		<tag k="name" v="Torvbakken" />
		<tag k="natural" v="slope" />
		<tag k="place" v="locality" />
		<tag k="ssr:stedsnr" v="969885" />
	</node>
	<node id="-37686" lat="59.2876916674" lon="5.27773055711">
		<tag k="name" v="Svehaugen" />
		<tag k="natural" v="hill" />
		<tag k="place" v="locality" />
		<tag k="ssr:stedsnr" v="181110" />
	</node>
	<node id="-39732" lat="59.268991666" lon="5.24136945261">
		<tag k="name" v="Baggaskog" />
		<tag k="place" v="locality" />
		<tag k="ssr:stedsnr" v="969699" />
	</node>
	<node id="-39728" lat="59.3335472235" lon="5.20030833143">
		<tag k="name" v="Klområ" />
		<tag k="natural" v="hill" />
		<tag k="place" v="locality" />
		<tag k="ssr:stedsnr" v="969490" />
	</node>
	<node id="-39724" lat="59.1495694406" lon="5.25398056402">
		<tag k="name" v="Larshaugen" />
		<tag k="natural" v="hill" />
		<tag k="place" v="locality" />
		<tag k="ssr:stedsnr" v="967717" />
	</node>
	<node id="-37666" lat="59.4124416653" lon="5.35672499911">
		<tag k="name" v="Kriksdal" />
		<tag k="natural" v="valley" />
		<tag k="place" v="locality" />
		<tag k="ssr:stedsnr" v="269990" />
	</node>
	<node id="-39736" lat="59.3048416649" lon="5.36416944879">
		<tag k="fixme" v="consider natural=peak for the most distinct mountains in the district" />
		<tag k="name" v="Stolane" />
		<tag k="natural" v="hill" />
		<tag k="place" v="locality" />
		<tag k="ssr:stedsnr" v="969931" />
	</node>
	<node id="-37653" lat="59.3734750008" lon="5.31241944199">
		<tag k="name" v="Tomashaugen" />
		<tag k="natural" v="hill" />
		<tag k="place" v="locality" />
		<tag k="ssr:stedsnr" v="269890" />
	</node>
	<node id="-39693" lat="59.3398999965" lon="5.36905277181">
		<tag k="alt_name" v="Kjerthamaren" />
		<tag k="name" v="Kjorthammar" />
		<tag k="natural" v="hill" />
		<tag k="place" v="locality" />
		<tag k="ssr:stedsnr" v="851502" />
	</node>
	<node id="-39684" lat="59.2097944482" lon="5.18617778138">
		<tag k="alt_name" v="Kvilhaugen" />
		<tag k="name" v="Kvilhaug" />
		<tag k="natural" v="hill" />
		<tag k="place" v="locality" />
		<tag k="ssr:stedsnr" v="851114" />
	</node>
	<node id="-39679" lat="59.2316944456" lon="5.29271943595">
		<tag k="alt_name" v="Arafjell" />
		<tag k="fixme" v="consider natural=peak for the most distinct mountains in the district" />
		<tag k="name" v="Arafjellet" />
		<tag k="natural" v="hill" />
		<tag k="place" v="locality" />
		<tag k="ssr:stedsnr" v="851017" />
	</node>
	<node id="-39675" lat="59.2753027755" lon="5.19568888582">
		<tag k="name" v="Klypå" />
		<tag k="natural" v="hill" />
		<tag k="place" v="locality" />
		<tag k="ssr:stedsnr" v="849871" />
	</node>
	<node id="-39668" lat="59.2489305568" lon="5.23155833729">
		<tag k="name" v="Steinsfjell" />
		<tag k="natural" v="hill" />
		<tag k="place" v="locality" />
		<tag k="ssr:stedsnr" v="849757" />
	</node>
	<node id="-39666" lat="59.2638138918" lon="5.24699722914">
		<tag k="name" v="Rundehaugen" />
		<tag k="natural" v="hill" />
		<tag k="place" v="locality" />
		<tag k="ssr:stedsnr" v="849719" />
	</node>
	<node id="-39665" lat="59.181899998" lon="5.18004166753">
		<tag k="name" v="Sukkerdalen" />
		<tag k="natural" v="valley" />
		<tag k="place" v="locality" />
		<tag k="ssr:stedsnr" v="849718" />
	</node>
	<node id="-37610" lat="59.2311666661" lon="5.20866111567">
		<tag k="name" v="Sævikedalen" />
		<tag k="natural" v="valley" />
		<tag k="place" v="locality" />
		<tag k="ssr:stedsnr" v="244028" />
	</node>
	<node id="-39655" lat="59.2004777812" lon="5.20938889466">
		<tag k="name" v="Risbrekk" />
		<tag k="natural" v="slope" />
		<tag k="place" v="locality" />
		<tag k="ssr:stedsnr" v="849580" />
	</node>
	<node id="-39654" lat="59.1500111134" lon="5.26679444201">
		<tag k="name" v="Fladaberg" />
		<tag k="natural" v="hill" />
		<tag k="place" v="locality" />
		<tag k="ssr:stedsnr" v="849572" />
	</node>
	<node id="-37605" lat="59.3393138887" lon="5.25685555794">
		<tag k="name" v="Kongsheia" />
		<tag k="natural" v="hill" />
		<tag k="place" v="locality" />
		<tag k="ssr:stedsnr" v="242699" />
	</node>
	<node id="-37603" lat="59.1871472182" lon="5.21528054812">
		<tag k="name" v="Bråtå" />
		<tag k="natural" v="slope" />
		<tag k="place" v="locality" />
		<tag k="ssr:stedsnr" v="242597" />
	</node>
	<node id="-37602" lat="59.3501222212" lon="5.22273056086">
		<tag k="name" v="Oftedalsdalen" />
		<tag k="natural" v="valley" />
		<tag k="place" v="locality" />
		<tag k="ssr:stedsnr" v="242716" />
	</node>
	<node id="-37600" lat="59.2658083296" lon="5.2429138971">
		<tag k="name" v="Ørnahaugen" />
		<tag k="natural" v="hill" />
		<tag k="place" v="locality" />
		<tag k="ssr:stedsnr" v="242651" />
	</node>
	<node id="-39646" lat="59.3171499969" lon="5.25238333835">
		<tag k="name" v="Lindedal" />
		<tag k="natural" v="valley" />
		<tag k="place" v="locality" />
		<tag k="ssr:stedsnr" v="849318" />
	</node>
	<node id="-39645" lat="59.3238027786" lon="5.23835278333">
		<tag k="name" v="Varen" />
		<tag k="place" v="locality" />
		<tag k="ssr:stedsnr" v="849313" />
	</node>
	<node id="-39644" lat="59.2105305582" lon="5.20730834041">
		<tag k="name" v="Sæbustølen" />
		<tag k="natural" v="hill" />
		<tag k="place" v="locality" />
		<tag k="ssr:stedsnr" v="849311" />
	</node>
	<node id="-39640" lat="59.2128805582" lon="5.2221944403">
		<tag k="name" v="Djupadal" />
		<tag k="natural" v="valley" />
		<tag k="place" v="locality" />
		<tag k="ssr:stedsnr" v="849251" />
	</node>
	<node id="-39639" lat="59.206683333" lon="5.22393334205">
		<tag k="name" v="Nøkkvatshaugen" />
		<tag k="natural" v="hill" />
		<tag k="place" v="locality" />
		<tag k="ssr:stedsnr" v="849247" />
	</node>
	<node id="-39638" lat="59.3299583319" lon="5.37671667022">
		<tag k="name" v="Storeneshaugen" />
		<tag k="natural" v="hill" />
		<tag k="place" v="locality" />
		<tag k="ssr:stedsnr" v="849239" />
	</node>
	<node id="-37589" lat="59.3135499991" lon="5.23822222994">
		<tag k="name" v="Sjenarehaugen" />
		<tag k="natural" v="hill" />
		<tag k="place" v="locality" />
		<tag k="ssr:stedsnr" v="242288" />
	</node>
	<node id="-37587" lat="59.3181416682" lon="5.24650555006">
		<tag k="name" v="Gåsadal" />
		<tag k="natural" v="valley" />
		<tag k="place" v="locality" />
		<tag k="ssr:stedsnr" v="242281" />
	</node>
	<node id="-37586" lat="59.3168638898" lon="5.22718056207">
		<tag k="name" v="Knulten" />
		<tag k="natural" v="hill" />
		<tag k="place" v="locality" />
		<tag k="ssr:stedsnr" v="242280" />
	</node>
	<node id="-37585" lat="59.3337444478" lon="5.35585277903">
		<tag k="name" v="Ørnahaugen" />
		<tag k="natural" v="hill" />
		<tag k="place" v="locality" />
		<tag k="ssr:stedsnr" v="242192" />
	</node>
	<node id="-37584" lat="59.3247472228" lon="5.2799361123">
		<tag k="name" v="Nulten" />
		<tag k="natural" v="hill" />
		<tag k="place" v="locality" />
		<tag k="ssr:stedsnr" v="242217" />
	</node>
	<node id="-37583" lat="59.220397225" lon="5.22509722814">
		<tag k="name" v="Sjydninghaugane" />
		<tag k="natural" v="hill" />
		<tag k="place" v="locality" />
		<tag k="ssr:stedsnr" v="242214" />
	</node>
	<node id="-39630" lat="59.299805554" lon="5.21861388592">
		<tag k="name" v="Skipahaugen" />
		<tag k="natural" v="hill" />
		<tag k="place" v="locality" />
		<tag k="ssr:stedsnr" v="849160" />
	</node>
	<node id="-39629" lat="59.1689027776" lon="5.24890277138">
		<tag k="name" v="Drangsdalen" />
		<tag k="natural" v="valley" />
		<tag k="place" v="locality" />
		<tag k="ssr:stedsnr" v="849154" />
	</node>
	<node id="-37579" lat="59.3166444468" lon="5.36482500843">
		<tag k="name" v="Kambahaugen" />
		<tag k="natural" v="hill" />
		<tag k="place" v="locality" />
		<tag k="ssr:stedsnr" v="242179" />
	</node>
	<node id="-37578" lat="59.3170861139" lon="5.34907500222">
		<tag k="name" v="Middagshaugen" />
		<tag k="natural" v="hill" />
		<tag k="place" v="locality" />
		<tag k="ssr:stedsnr" v="242176" />
	</node>
	<node id="-37577" lat="59.3073194457" lon="5.2819833256">
		<tag k="name" v="Lynghaugen" />
		<tag k="natural" v="hill" />
		<tag k="place" v="locality" />
		<tag k="ssr:stedsnr" v="242050" />
	</node>
	<node id="-37573" lat="59.310258337" lon="5.36752778533">
		<tag k="fixme" v="consider natural=peak for the most distinct mountains in the district" />
		<tag k="name" v="Helgaberg" />
		<tag k="natural" v="hill" />
		<tag k="place" v="locality" />
		<tag k="ssr:stedsnr" v="241951" />
	</node>
	<node id="-37572" lat="59.3004527754" lon="5.33678054849">
		<tag k="name" v="Duberg" />
		<tag k="natural" v="hill" />
		<tag k="place" v="locality" />
		<tag k="ssr:stedsnr" v="241950" />
	</node>
	<node id="-37571" lat="59.2347111069" lon="5.24435555213">
		<tag k="name" v="Rotadalen" />
		<tag k="natural" v="valley" />
		<tag k="place" v="locality" />
		<tag k="ssr:stedsnr" v="241900" />
	</node>
	<node id="-37570" lat="59.2284361067" lon="5.23134722421">
		<tag k="name" v="Liaråsen" />
		<tag k="natural" v="hill" />
		<tag k="place" v="locality" />
		<tag k="ssr:stedsnr" v="241889" />
	</node>
	<node id="-37560" lat="59.2372333326" lon="5.30060833769">
		<tag k="name" v="Beinedalen" />
		<tag k="natural" v="valley" />
		<tag k="place" v="locality" />
		<tag k="ssr:stedsnr" v="62022" />
	</node>
	<node id="-39607" lat="59.3654972256" lon="5.33907222484">
		<tag k="name" v="Dyrabrekkene" />
		<tag k="natural" v="slope" />
		<tag k="place" v="locality" />
		<tag k="ssr:stedsnr" v="816085" />
	</node>
	<node id="-37557" lat="59.2261250017" lon="5.21579721678">
		<tag k="name" v="Stolvarden" />
		<tag k="natural" v="hill" />
		<tag k="place" v="locality" />
		<tag k="ssr:stedsnr" v="62005" />
	</node>
	<node id="-37553" lat="59.3357055515" lon="5.35272222109">
		<tag k="name" v="Øygardshaugen" />
		<tag k="natural" v="hill" />
		<tag k="place" v="locality" />
		<tag k="ssr:stedsnr" v="60817" />
	</node>
	<node id="-37552" lat="59.3368916626" lon="5.35847221635">
		<tag k="fixme" v="consider natural=peak for the most distinct mountains in the district" />
		<tag k="name" v="Ambjørnåsen" />
		<tag k="natural" v="hill" />
		<tag k="place" v="locality" />
		<tag k="ssr:stedsnr" v="60815" />
	</node>
	<node id="-37551" lat="59.2866861071" lon="5.21144444936">
		<tag k="alt_name" v="Ysthus" />
		<tag k="name" v="Ytsthus" />
		<tag k="place" v="locality" />
		<tag k="ssr:stedsnr" v="60796" />
	</node>
	<node id="-39577" lat="59.3105583299" lon="5.34528611918">
		<tag k="alt_name" v="Snortevarden" />
		<tag k="fixme" v="consider natural=peak for the most distinct mountains in the district" />
		<tag k="name" v="Snorlevarden" />
		<tag k="natural" v="hill" />
		<tag k="place" v="locality" />
		<tag k="ssr:stedsnr" v="791962" />
	</node>
	<node id="-37524" lat="59.1601055514" lon="5.20967777039">
		<tag k="alt_name" v="Grøtheimstua" />
		<tag k="name" v="Grødemstuå" />
		<tag k="natural" v="hill" />
		<tag k="place" v="locality" />
		<tag k="ssr:stedsnr" v="223589" />
	</node>
	<node id="-39570" lat="59.3337361079" lon="5.21332499787">
		<tag k="alt_name" v="Rambaskorfjellet;Rambaskårsfjell;Rambaskårsfjellet" />
		<tag k="fixme" v="consider natural=peak for the most distinct mountains in the district" />
		<tag k="name" v="Rambaskårfjellet" />
		<tag k="natural" v="hill" />
		<tag k="place" v="locality" />
		<tag k="ssr:stedsnr" v="790543" />
	</node>
	<node id="-39560" lat="59.2569416624" lon="5.25556388691">
		<tag k="name" v="Martasetrehaugen" />
		<tag k="natural" v="hill" />
		<tag k="place" v="locality" />
		<tag k="ssr:stedsnr" v="788730" />
	</node>
	<node id="-39559" lat="59.345913889" lon="5.25603889227">
		<tag k="name" v="Hansastemmen" />
		<tag k="natural" v="hill" />
		<tag k="place" v="locality" />
		<tag k="ssr:stedsnr" v="788728" />
	</node>
	<node id="-39558" lat="59.3363583335" lon="5.24354444839">
		<tag k="name" v="Svehammarhaugen" />
		<tag k="natural" v="hill" />
		<tag k="place" v="locality" />
		<tag k="ssr:stedsnr" v="788723" />
	</node>
	<node id="-39555" lat="59.1452666711" lon="5.24039999862">
		<tag k="name" v="Naleihaugen" />
		<tag k="natural" v="hill" />
		<tag k="place" v="locality" />
		<tag k="ssr:stedsnr" v="788529" />
	</node>
	<node id="-39553" lat="59.3294583304" lon="5.22196388451">
		<tag k="name" v="Grøne haugen" />
		<tag k="natural" v="hill" />
		<tag k="place" v="locality" />
		<tag k="ssr:stedsnr" v="788445" />
	</node>
	<node id="-39546" lat="59.3041388914" lon="5.25972500091">
		<tag k="name" v="Rossedalen" />
		<tag k="natural" v="valley" />
		<tag k="place" v="locality" />
		<tag k="ssr:stedsnr" v="788254" />
	</node>
	<node id="-39545" lat="59.3181333301" lon="5.35661110537">
		<tag k="name" v="Langemyrsdalen" />
		<tag k="natural" v="valley" />
		<tag k="place" v="locality" />
		<tag k="ssr:stedsnr" v="788198" />
	</node>
	<node id="-39542" lat="59.3167305595" lon="5.27312777862">
		<tag k="name" v="Hårbjørg" />
		<tag k="natural" v="hill" />
		<tag k="place" v="locality" />
		<tag k="ssr:stedsnr" v="788140" />
	</node>
	<node id="-39540" lat="59.2934138863" lon="5.2519388902">
		<tag k="name" v="Arhaugen" />
		<tag k="natural" v="hill" />
		<tag k="place" v="locality" />
		<tag k="ssr:stedsnr" v="788158" />
	</node>
	<node id="-39539" lat="59.2403638875" lon="5.24061111048">
		<tag k="name" v="Øltapparen" />
		<tag k="natural" v="hill" />
		<tag k="place" v="locality" />
		<tag k="ssr:stedsnr" v="787897" />
	</node>
	<node id="-39536" lat="59.2986388879" lon="5.30446111838">
		<tag k="name" v="Syngjarberg" />
		<tag k="natural" v="hill" />
		<tag k="place" v="locality" />
		<tag k="ssr:stedsnr" v="788028" />
	</node>
	<node id="-39524" lat="59.4067583359" lon="5.34592499542">
		<tag k="name" v="Kyrkjeleite" />
		<tag k="natural" v="valley" />
		<tag k="place" v="locality" />
		<tag k="ssr:stedsnr" v="755993" />
	</node>
	<node id="-39515" lat="59.4045138878" lon="5.24090278337">
		<tag k="name" v="Tuhaug" />
		<tag k="natural" v="hill" />
		<tag k="place" v="locality" />
		<tag k="ssr:stedsnr" v="754827" />
	</node>
	<node id="-39508" lat="59.416897218" lon="5.10755555369">
		<tag k="name" v="Bergjo" />
		<tag k="natural" v="hill" />
		<tag k="place" v="locality" />
		<tag k="ssr:stedsnr" v="754759" />
	</node>
	<node id="-39488" lat="59.3694888916" lon="5.34750833896">
		<tag k="fixme" v="consider natural=peak for the most distinct mountains in the district" />
		<tag k="name" v="Arareil" />
		<tag k="natural" v="hill" />
		<tag k="place" v="locality" />
		<tag k="ssr:stedsnr" v="633093" />
	</node>
	<node id="-39486" lat="59.3646277803" lon="5.35396943979">
		<tag k="name" v="Åkslå" />
		<tag k="natural" v="hill" />
		<tag k="place" v="locality" />
		<tag k="ssr:stedsnr" v="633084" />
	</node>
	<node id="-39460" lat="59.1670416696" lon="5.25005277538">
		<tag k="name" v="Høgahåland" />
		<tag k="natural" v="hill" />
		<tag k="place" v="locality" />
		<tag k="ssr:stedsnr" v="608447" />
	</node>
	<node id="-39459" lat="59.4012666654" lon="5.36219723068">
		<tag k="alt_name" v="Hest" />
		<tag k="name" v="Hesten" />
		<tag k="natural" v="hill" />
		<tag k="place" v="locality" />
		<tag k="ssr:stedsnr" v="608661" />
	</node>
	<node id="-39452" lat="59.1982277758" lon="5.28858611025">
		<tag k="fixme" v="consider natural=peak for the most distinct mountains in the district" />
		<tag k="name" v="Aurfjellet" />
		<tag k="natural" v="hill" />
		<tag k="place" v="locality" />
		<tag k="ssr:stedsnr" v="607103" />
	</node>
	<node id="-39451" lat="59.1930638896" lon="5.19371666352">
		<tag k="name" v="Tipphaugen" />
		<tag k="natural" v="hill" />
		<tag k="place" v="locality" />
		<tag k="ssr:stedsnr" v="607085" />
	</node>
	<node id="-39447" lat="59.3041027785" lon="5.35183889083">
		<tag k="name" v="Kvernhaugen" />
		<tag k="natural" v="hill" />
		<tag k="place" v="locality" />
		<tag k="ssr:stedsnr" v="605945" />
	</node>
	<node id="-39442" lat="59.3457472265" lon="5.24898333608">
		<tag k="name" v="Sletthei" />
		<tag k="natural" v="hill" />
		<tag k="place" v="locality" />
		<tag k="ssr:stedsnr" v="605718" />
	</node>
	<node id="-39435" lat="59.3285000008" lon="5.2295305473">
		<tag k="name" v="Revadalsplasset" />
		<tag k="place" v="locality" />
		<tag k="ssr:stedsnr" v="605474" />
	</node>
	<node id="-39433" lat="59.2636999963" lon="5.21607222944">
		<tag k="name" v="Tostemmen" />
		<tag k="place" v="locality" />
		<tag k="ssr:stedsnr" v="605708" />
	</node>
	<node id="-39432" lat="59.263272224" lon="5.22642499913">
		<tag k="name" v="Berjå" />
		<tag k="natural" v="hill" />
		<tag k="place" v="locality" />
		<tag k="ssr:stedsnr" v="605707" />
	</node>
	<node id="-39429" lat="59.1883194474" lon="5.29481110552">
		<tag k="name" v="Stongja" />
		<tag k="natural" v="hill" />
		<tag k="place" v="locality" />
		<tag k="ssr:stedsnr" v="605680" />
	</node>
	<node id="-39424" lat="59.3253138929" lon="5.2477361179">
		<tag k="fixme" v="consider natural=peak for the most distinct mountains in the district" />
		<tag k="name" v="Bandåsen" />
		<tag k="natural" v="hill" />
		<tag k="place" v="locality" />
		<tag k="ssr:stedsnr" v="605328" />
	</node>
	<node id="-39423" lat="59.1637111137" lon="5.30160833123">
		<tag k="name" v="Århaug" />
		<tag k="natural" v="hill" />
		<tag k="place" v="locality" />
		<tag k="ssr:stedsnr" v="605326" />
	</node>
	<node id="-39419" lat="59.3118055591" lon="5.27753611812">
		<tag k="name" v="Treshaug" />
		<tag k="natural" v="hill" />
		<tag k="place" v="locality" />
		<tag k="ssr:stedsnr" v="605054" />
	</node>
	<node id="-39416" lat="59.3032833313" lon="5.23314999803">
		<tag k="name" v="Toreplasset" />
		<tag k="place" v="locality" />
		<tag k="ssr:stedsnr" v="605312" />
	</node>
	<node id="-39410" lat="59.2104638878" lon="5.22165556212">
		<tag k="name" v="Sæbuldrehaugen" />
		<tag k="natural" v="hill" />
		<tag k="place" v="locality" />
		<tag k="ssr:stedsnr" v="605257" />
	</node>
	<node id="-39397" lat="59.3817138923" lon="5.16212221698">
		<tag k="name" v="Kattuglebrotet" />
		<tag k="natural" v="cliff" />
		<tag k="ssr:stedsnr" v="572831" />
	</node>
	<node id="-39385" lat="59.3622055582" lon="5.33726111197">
		<tag k="name" v="Konefjellet" />
		<tag k="natural" v="hill" />
		<tag k="place" v="locality" />
		<tag k="ssr:stedsnr" v="572086" />
	</node>
	<node id="-39373" lat="59.3013527783" lon="5.2733138916">
		<tag k="fixme" v="consider natural=peak for the most distinct mountains in the district" />
		<tag k="name" v="Kvalingstadfjellet" />
		<tag k="natural" v="hill" />
		<tag k="place" v="locality" />
		<tag k="ssr:stedsnr" v="548940" />
	</node>
	<node id="-39366" lat="59.1589777733" lon="5.25784999341">
		<tag k="fixme" v="multiple name tags, choose one and add the other to alt_name" />
		<tag k="name" v="Nauthilderen;Skardhaugen" />
		<tag k="natural" v="hill" />
		<tag k="place" v="locality" />
		<tag k="ssr:stedsnr" v="548408" />
	</node>
	<node id="-39360" lat="59.4089361129" lon="5.35487500691">
		<tag k="fixme" v="consider natural=peak for the most distinct mountains in the district" />
		<tag k="name" v="Dyrafjellet" />
		<tag k="natural" v="hill" />
		<tag k="place" v="locality" />
		<tag k="ssr:stedsnr" v="547660" />
	</node>
	<node id="-39353" lat="59.1661749969" lon="5.26114166504">
		<tag k="alt_name" v="Storhaug" />
		<tag k="name" v="Storhaugen" />
		<tag k="natural" v="hill" />
		<tag k="place" v="locality" />
		<tag k="ssr:stedsnr" v="547461" />
	</node>
	<node id="-39338" lat="59.281050004" lon="5.22006388314">
		<tag k="name" v="Trodlaskar" />
		<tag k="natural" v="valley" />
		<tag k="place" v="locality" />
		<tag k="ssr:stedsnr" v="545761" />
	</node>
	<node id="-39336" lat="59.3367638909" lon="5.22645000141">
		<tag k="name" v="Svarteholmen" />
		<tag k="natural" v="hill" />
		<tag k="place" v="locality" />
		<tag k="ssr:stedsnr" v="545701" />
	</node>
	<node id="-39333" lat="59.2680138871" lon="5.24180833972">
		<tag k="name" v="Arareir" />
		<tag k="natural" v="hill" />
		<tag k="place" v="locality" />
		<tag k="ssr:stedsnr" v="545669" />
	</node>
	<node id="-39332" lat="59.2771750011" lon="5.30134443602">
		<tag k="name" v="Nonsvarden" />
		<tag k="natural" v="hill" />
		<tag k="place" v="locality" />
		<tag k="ssr:stedsnr" v="545656" />
	</node>
	<node id="-39331" lat="59.1896638883" lon="5.27959723095">
		<tag k="name" v="Skiljeslettå" />
		<tag k="place" v="locality" />
		<tag k="ssr:stedsnr" v="545652" />
	</node>
	<node id="-39329" lat="59.1908027806" lon="5.22936666167">
		<tag k="name" v="Høgenuten" />
		<tag k="natural" v="hill" />
		<tag k="place" v="locality" />
		<tag k="ssr:stedsnr" v="545595" />
	</node>
	<node id="-39325" lat="59.2619805511" lon="5.28489166082">
		<tag k="name" v="Storesåtdalen" />
		<tag k="natural" v="valley" />
		<tag k="place" v="locality" />
		<tag k="ssr:stedsnr" v="545538" />
	</node>
	<node id="-39323" lat="59.1481722265" lon="5.24321388369">
		<tag k="name" v="Hålandsdalen" />
		<tag k="natural" v="valley" />
		<tag k="place" v="locality" />
		<tag k="ssr:stedsnr" v="545523" />
	</node>
	<node id="-39322" lat="59.2646916676" lon="5.28600277575">
		<tag k="fixme" v="consider natural=peak for the most distinct mountains in the district" />
		<tag k="name" v="Olavsvang" />
		<tag k="natural" v="hill" />
		<tag k="place" v="locality" />
		<tag k="ssr:stedsnr" v="545498" />
	</node>
	<node id="-39319" lat="59.1723416651" lon="5.29281110866">
		<tag k="name" v="Hovdastadliane" />
		<tag k="natural" v="slope" />
		<tag k="place" v="locality" />
		<tag k="ssr:stedsnr" v="545376" />
	</node>
	<node id="-39318" lat="59.177872224" lon="5.29916667478">
		<tag k="name" v="Dyrsteg" />
		<tag k="natural" v="slope" />
		<tag k="place" v="locality" />
		<tag k="ssr:stedsnr" v="545372" />
	</node>
	<node id="-39316" lat="59.211611109" lon="5.20578611949">
		<tag k="name" v="Hundadalen" />
		<tag k="natural" v="valley" />
		<tag k="place" v="locality" />
		<tag k="ssr:stedsnr" v="545279" />
	</node>
	<node id="-39310" lat="59.217661113" lon="5.25384166295">
		<tag k="name" v="Refdalshaugane" />
		<tag k="natural" v="hill" />
		<tag k="place" v="locality" />
		<tag k="ssr:stedsnr" v="545205" />
	</node>
	<node id="-39305" lat="59.3229194459" lon="5.35933332508">
		<tag k="name" v="Håhammar" />
		<tag k="natural" v="hill" />
		<tag k="place" v="locality" />
		<tag k="ssr:stedsnr" v="545190" />
	</node>
	<node id="-39303" lat="59.2955166654" lon="5.21704999657">
		<tag k="name" v="Skuteberg" />
		<tag k="natural" v="hill" />
		<tag k="place" v="locality" />
		<tag k="ssr:stedsnr" v="545147" />
	</node>
	<node id="-39301" lat="59.1695749964" lon="5.22620833687">
		<tag k="name" v="Grevdal" />
		<tag k="natural" v="valley" />
		<tag k="place" v="locality" />
		<tag k="ssr:stedsnr" v="545131" />
	</node>
	<node id="-39292" lat="59.318169444" lon="5.21531943797">
		<tag k="name" v="Ramnatuvene" />
		<tag k="natural" v="hill" />
		<tag k="place" v="locality" />
		<tag k="ssr:stedsnr" v="427972" />
	</node>
	<node id="-37607" lat="59.2745499978" lon="5.24676111456">
		<tag k="name" v="Stavadalen" />
		<tag k="natural" v="valley" />
		<tag k="place" v="locality" />
		<tag k="ssr:stedsnr" v="242727" />
	</node>
	<node id="-39269" lat="59.2343499965" lon="5.24832500575">
		<tag k="name" v="Smådalane" />
		<tag k="natural" v="valley" />
		<tag k="place" v="locality" />
		<tag k="ssr:stedsnr" v="424871" />
	</node>
	<node id="-39266" lat="59.3445000028" lon="5.35024722277">
		<tag k="fixme" v="consider natural=peak for the most distinct mountains in the district" />
		<tag k="name" v="Stolane" />
		<tag k="natural" v="hill" />
		<tag k="place" v="locality" />
		<tag k="ssr:stedsnr" v="424790" />
	</node>
	<node id="-39260" lat="59.2544805581" lon="5.22550276904">
		<tag k="name" v="Liadne" />
		<tag k="natural" v="slope" />
		<tag k="place" v="locality" />
		<tag k="ssr:stedsnr" v="424708" />
	</node>
	<node id="-39259" lat="59.3496333308" lon="5.24191667034">
		<tag k="name" v="Tårnfjell" />
		<tag k="natural" v="hill" />
		<tag k="place" v="locality" />
		<tag k="ssr:stedsnr" v="424700" />
	</node>
	<node id="-39258" lat="59.3459638845" lon="5.26279166117">
		<tag k="name" v="Jensahaugen" />
		<tag k="natural" v="hill" />
		<tag k="place" v="locality" />
		<tag k="ssr:stedsnr" v="424698" />
	</node>
	<node id="-39255" lat="59.2047861134" lon="5.27439445253">
		<tag k="name" v="Skåreløkjen" />
		<tag k="natural" v="hill" />
		<tag k="place" v="locality" />
		<tag k="ssr:stedsnr" v="424677" />
	</node>
	<node id="-39254" lat="59.1924444486" lon="5.22426111407">
		<tag k="name" v="Grønåslettå" />
		<tag k="place" v="locality" />
		<tag k="ssr:stedsnr" v="424594" />
	</node>
	<node id="-39253" lat="59.27370833" lon="5.32014445159">
		<tag k="name" v="Legene" />
		<tag k="place" v="locality" />
		<tag k="ssr:stedsnr" v="424572" />
	</node>
	<node id="-39252" lat="59.1930277739" lon="5.19374444612">
		<tag k="name" v="Skiaberg" />
		<tag k="natural" v="hill" />
		<tag k="place" v="locality" />
		<tag k="ssr:stedsnr" v="424562" />
	</node>
	<node id="-39251" lat="59.27611389" lon="5.31055834057">
		<tag k="name" v="Småvardene" />
		<tag k="natural" v="hill" />
		<tag k="place" v="locality" />
		<tag k="ssr:stedsnr" v="424649" />
	</node>
	<node id="-39250" lat="59.1673666692" lon="5.29270277698">
		<tag k="name" v="Dyrafjellet" />
		<tag k="natural" v="hill" />
		<tag k="place" v="locality" />
		<tag k="ssr:stedsnr" v="424323" />
	</node>
	<node id="-39244" lat="59.3100583294" lon="5.24363611038">
		<tag k="name" v="Århaugen" />
		<tag k="natural" v="hill" />
		<tag k="place" v="locality" />
		<tag k="ssr:stedsnr" v="424261" />
	</node>
	<node id="-39243" lat="59.3080833292" lon="5.24406389339">
		<tag k="name" v="Ingjeredbakkane" />
		<tag k="natural" v="slope" />
		<tag k="place" v="locality" />
		<tag k="ssr:stedsnr" v="424258" />
	</node>
	<node id="-37598" lat="59.1840888851" lon="5.31049165923">
		<tag k="name" v="Varberg" />
		<tag k="natural" v="hill" />
		<tag k="place" v="locality" />
		<tag k="ssr:stedsnr" v="242642" />
	</node>
	<node id="-39208" lat="59.3635472255" lon="5.36106389123">
		<tag k="name" v="Lehaugen" />
		<tag k="natural" v="hill" />
		<tag k="place" v="locality" />
		<tag k="ssr:stedsnr" v="390078" />
	</node>
	<node id="-37596" lat="59.288486109" lon="5.34853889202">
		<tag k="name" v="Hedlehaugen" />
		<tag k="natural" v="hill" />
		<tag k="place" v="locality" />
		<tag k="ssr:stedsnr" v="242548" />
	</node>
	<node id="-39201" lat="59.3268416661" lon="5.25533888559">
		<tag k="name" v="Skiftegardhaugen" />
		<tag k="natural" v="hill" />
		<tag k="place" v="locality" />
		<tag k="ssr:stedsnr" v="366999" />
	</node>
	<node id="-39189" lat="59.2581416694" lon="5.2818138969">
		<tag k="fixme" v="consider natural=peak for the most distinct mountains in the district" />
		<tag k="name" v="Storesåt" />
		<tag k="natural" v="hill" />
		<tag k="place" v="locality" />
		<tag k="ssr:stedsnr" v="366876" />
	</node>
	<node id="-37592" lat="59.3102944429" lon="5.23066944511">
		<tag k="fixme" v="consider natural=peak for the most distinct mountains in the district" />
		<tag k="name" v="Kvalavåg" />
		<tag k="natural" v="hill" />
		<tag k="place" v="locality" />
		<tag k="ssr:stedsnr" v="242291" />
	</node>
	<node id="-39178" lat="59.3850305585" lon="5.16646665926">
		<tag k="alt_name" v="Ørnefjellet;Ørnafjell" />
		<tag k="fixme" v="consider natural=peak for the most distinct mountains in the district" />
		<tag k="name" v="Ørnafjellet" />
		<tag k="natural" v="hill" />
		<tag k="place" v="locality" />
		<tag k="ssr:stedsnr" v="365570" />
	</node>
	<node id="-37591" lat="59.3276611119" lon="5.24060000538">
		<tag k="name" v="Kvigefjell" />
		<tag k="natural" v="hill" />
		<tag k="place" v="locality" />
		<tag k="ssr:stedsnr" v="242432" />
	</node>
	<node id="-39165" lat="59.2301083308" lon="5.29511944694">
		<tag k="name" v="Udnevarden" />
		<tag k="natural" v="hill" />
		<tag k="place" v="locality" />
		<tag k="ssr:stedsnr" v="365001" />
	</node>
	<node id="-39164" lat="59.2957472253" lon="5.35456110771">
		<tag k="name" v="Arefjellet" />
		<tag k="natural" v="hill" />
		<tag k="place" v="locality" />
		<tag k="ssr:stedsnr" v="363962" />
	</node>
	<node id="-39161" lat="59.2039722244" lon="5.28235277314">
		<tag k="name" v="Stiklebakken" />
		<tag k="natural" v="slope" />
		<tag k="place" v="locality" />
		<tag k="ssr:stedsnr" v="363643" />
	</node>
	<node id="-39160" lat="59.1839805552" lon="5.28517499795">
		<tag k="name" v="Øvstabrekkå" />
		<tag k="place" v="locality" />
		<tag k="ssr:stedsnr" v="363624" />
	</node>
	<node id="-39155" lat="59.1553416657" lon="5.21676944333">
		<tag k="name" v="Skitle" />
		<tag k="natural" v="hill" />
		<tag k="place" v="locality" />
		<tag k="ssr:stedsnr" v="363580" />
	</node>
	<node id="-39154" lat="59.2254805553" lon="5.26783888948">
		<tag k="name" v="Rokleiva" />
		<tag k="natural" v="hill" />
		<tag k="place" v="locality" />
		<tag k="ssr:stedsnr" v="363579" />
	</node>
	<node id="-39151" lat="59.2836222265" lon="5.35203056052">
		<tag k="name" v="Brønndalen" />
		<tag k="natural" v="valley" />
		<tag k="place" v="locality" />
		<tag k="ssr:stedsnr" v="363531" />
	</node>
	<node id="-39146" lat="59.269580553" lon="5.300149994">
		<tag k="name" v="Rossafjell" />
		<tag k="natural" v="hill" />
		<tag k="place" v="locality" />
		<tag k="ssr:stedsnr" v="363472" />
	</node>
	<node id="-39139" lat="59.3544249962" lon="5.22110555258">
		<tag k="name" v="Heiå" />
		<tag k="natural" v="hill" />
		<tag k="place" v="locality" />
		<tag k="ssr:stedsnr" v="363700" />
	</node>
	<node id="-39138" lat="59.2643861107" lon="5.25622221503">
		<tag k="name" v="Nasarehaugen" />
		<tag k="natural" v="hill" />
		<tag k="place" v="locality" />
		<tag k="ssr:stedsnr" v="363699" />
	</node>
	<node id="-39137" lat="59.260122226" lon="5.23061944071">
		<tag k="name" v="Djupedal" />
		<tag k="natural" v="valley" />
		<tag k="place" v="locality" />
		<tag k="ssr:stedsnr" v="363696" />
	</node>
	<node id="-39128" lat="59.2269472182" lon="5.17759444835">
		<tag k="name" v="Fiskaberg" />
		<tag k="natural" v="hill" />
		<tag k="place" v="locality" />
		<tag k="ssr:stedsnr" v="363180" />
	</node>
	<node id="-39123" lat="59.1581472221" lon="5.22918332727">
		<tag k="name" v="Løyningsdalen" />
		<tag k="natural" v="valley" />
		<tag k="place" v="locality" />
		<tag k="ssr:stedsnr" v="362542" />
	</node>
	<node id="-37581" lat="59.2321472238" lon="5.20779999136">
		<tag k="name" v="Varen" />
		<tag k="natural" v="hill" />
		<tag k="place" v="locality" />
		<tag k="ssr:stedsnr" v="242184" />
	</node>
	<node id="-39110" lat="59.4049388921" lon="5.35302222581">
		<tag k="name" v="Skjeraberget" />
		<tag k="natural" v="hill" />
		<tag k="place" v="locality" />
		<tag k="ssr:stedsnr" v="330999" />
	</node>
	<node id="-39109" lat="59.381600002" lon="5.34095833241">
		<tag k="name" v="Spannakalven" />
		<tag k="natural" v="hill" />
		<tag k="place" v="locality" />
		<tag k="ssr:stedsnr" v="330570" />
	</node>
	<node id="-39108" lat="59.3917916713" lon="5.36032500731">
		<tag k="name" v="Grønhaug" />
		<tag k="natural" v="hill" />
		<tag k="place" v="locality" />
		<tag k="ssr:stedsnr" v="330560" />
	</node>
	<node id="-39066" lat="59.3472025143" lon="5.33448961661">
		<tag k="alt_name" v="Varden" />
		<tag k="fixme" v="consider natural=peak for the most distinct mountains in the district" />
		<tag k="name" v="Storevarden" />
		<tag k="natural" v="hill" />
		<tag k="place" v="locality" />
		<tag k="ssr:stedsnr" v="305560" />
	</node>
	<node id="-39062" lat="59.2154472218" lon="5.28029721929">
		<tag k="name" v="Stiklevarden" />
		<tag k="natural" v="hill" />
		<tag k="place" v="locality" />
		<tag k="ssr:stedsnr" v="305110" />
	</node>
	<node id="-39054" lat="59.310113892" lon="5.23438056204">
		<tag k="fixme" v="consider natural=peak for the most distinct mountains in the district" />
		<tag k="name" v="Kyrkjestellet" />
		<tag k="natural" v="hill" />
		<tag k="place" v="locality" />
		<tag k="ssr:stedsnr" v="303299" />
	</node>
	<node id="-39053" lat="59.3310222201" lon="5.25212222566">
		<tag k="name" v="Skiftegardshaugen" />
		<tag k="natural" v="hill" />
		<tag k="place" v="locality" />
		<tag k="ssr:stedsnr" v="303277" />
	</node>
	<node id="-39052" lat="59.3153055577" lon="5.37383056044">
		<tag k="name" v="Stølaleite" />
		<tag k="natural" v="hill" />
		<tag k="place" v="locality" />
		<tag k="ssr:stedsnr" v="303198" />
	</node>
	<node id="-39050" lat="59.3398277797" lon="5.3686972142">
		<tag k="name" v="Kjerthammar" />
		<tag k="natural" v="hill" />
		<tag k="place" v="locality" />
		<tag k="ssr:stedsnr" v="302786" />
	</node>
	<node id="-39044" lat="59.1563111143" lon="5.27106111648">
		<tag k="name" v="Nonsvarden" />
		<tag k="natural" v="hill" />
		<tag k="place" v="locality" />
		<tag k="ssr:stedsnr" v="302658" />
	</node>
	<node id="-39043" lat="59.2841499963" lon="5.34773889397">
		<tag k="fixme" v="consider natural=peak for the most distinct mountains in the district" />
		<tag k="name" v="Hodlane" />
		<tag k="natural" v="hill" />
		<tag k="place" v="locality" />
		<tag k="ssr:stedsnr" v="302597" />
	</node>
	<node id="-39039" lat="59.264622226" lon="5.28040833718">
		<tag k="name" v="Søre Ronahaug" />
		<tag k="natural" v="hill" />
		<tag k="place" v="locality" />
		<tag k="ssr:stedsnr" v="302537" />
	</node>
	<node id="-39038" lat="59.1766277808" lon="5.27863611562">
		<tag k="name" v="Tuehaug" />
		<tag k="natural" v="hill" />
		<tag k="place" v="locality" />
		<tag k="ssr:stedsnr" v="302434" />
	</node>
	<node id="-39037" lat="59.1763138918" lon="5.29626943704">
		<tag k="name" v="Kophaug" />
		<tag k="natural" v="hill" />
		<tag k="place" v="locality" />
		<tag k="ssr:stedsnr" v="302427" />
	</node>
	<node id="-39036" lat="59.2380499977" lon="5.20798611465">
		<tag k="name" v="Toptedne" />
		<tag k="natural" v="hill" />
		<tag k="place" v="locality" />
		<tag k="ssr:stedsnr" v="302235" />
	</node>
	<node id="-39034" lat="59.3012861145" lon="5.27620833276">
		<tag k="name" v="Jonsvarden" />
		<tag k="natural" v="hill" />
		<tag k="place" v="locality" />
		<tag k="ssr:stedsnr" v="302042" />
	</node>
	<node id="-38995" lat="59.3006083303" lon="5.30617499714">
		<tag k="name" v="Nibba" />
		<tag k="natural" v="hill" />
		<tag k="place" v="locality" />
		<tag k="ssr:stedsnr" v="184940" />
	</node>
	<node id="-38993" lat="59.2768527772" lon="5.29560000057">
		<tag k="fixme" v="consider natural=peak for the most distinct mountains in the district" />
		<tag k="name" v="Liarfjell" />
		<tag k="natural" v="hill" />
		<tag k="place" v="locality" />
		<tag k="ssr:stedsnr" v="184907" />
	</node>
	<node id="-38991" lat="59.2810416664" lon="5.35442777183">
		<tag k="fixme" v="consider natural=peak for the most distinct mountains in the district" />
		<tag k="name" v="Grindafjellet" />
		<tag k="natural" v="hill" />
		<tag k="place" v="locality" />
		<tag k="ssr:stedsnr" v="184898" />
	</node>
	<node id="-38982" lat="59.3724527821" lon="5.34284999363">
		<tag k="alt_name" v="Trånefjellet" />
		<tag k="fixme" v="consider natural=peak for the most distinct mountains in the district" />
		<tag k="name" v="Tronefjellet" />
		<tag k="natural" v="hill" />
		<tag k="place" v="locality" />
		<tag k="ssr:stedsnr" v="184552" />
	</node>
	<node id="-38977" lat="59.1522166632" lon="5.20298610789">
		<tag k="alt_name" v="Syreglåna" />
		<tag k="name" v="Syreglånå" />
		<tag k="natural" v="hill" />
		<tag k="place" v="locality" />
		<tag k="ssr:stedsnr" v="184393" />
	</node>
	<node id="-38971" lat="59.382119441" lon="5.24132778141">
		<tag k="name" v="Munkaskard" />
		<tag k="natural" v="valley" />
		<tag k="place" v="locality" />
		<tag k="ssr:stedsnr" v="183569" />
	</node>
	<node id="-38957" lat="59.2969861152" lon="5.3666944417">
		<tag k="name" v="Siriskar" />
		<tag k="natural" v="valley" />
		<tag k="place" v="locality" />
		<tag k="ssr:stedsnr" v="181969" />
	</node>
	<node id="-38949" lat="59.2429388934" lon="5.2647166709">
		<tag k="loc_name" v="Buadalen" />
		<tag k="name" v="Buasdalen" />
		<tag k="natural" v="valley" />
		<tag k="place" v="locality" />
		<tag k="ssr:stedsnr" v="181913" />
	</node>
	<node id="-38943" lat="59.3520943743" lon="5.36642992766">
		<tag k="name" v="Eikehaugen" />
		<tag k="natural" v="hill" />
		<tag k="place" v="locality" />
		<tag k="ssr:stedsnr" v="181807" />
	</node>
	<node id="-38940" lat="59.2796277782" lon="5.2293555636">
		<tag k="name" v="Søra Rossafjellet" />
		<tag k="natural" v="hill" />
		<tag k="place" v="locality" />
		<tag k="ssr:stedsnr" v="181767" />
	</node>
	<node id="-38939" lat="59.1839166623" lon="5.30089443993">
		<tag k="name" v="Tjynhaugen" />
		<tag k="natural" v="hill" />
		<tag k="place" v="locality" />
		<tag k="ssr:stedsnr" v="181687" />
	</node>
	<node id="-38938" lat="59.187127781" lon="5.27898056112">
		<tag k="name" v="Stavansplasset" />
		<tag k="natural" v="slope" />
		<tag k="place" v="locality" />
		<tag k="ssr:stedsnr" v="181676" />
	</node>
	<node id="-38936" lat="59.3371972258" lon="5.23276943633">
		<tag k="name" v="Storhaug" />
		<tag k="natural" v="hill" />
		<tag k="place" v="locality" />
		<tag k="ssr:stedsnr" v="181745" />
	</node>
	<node id="-38935" lat="59.2523555562" lon="5.22968611541">
		<tag k="name" v="Kvednahaugen" />
		<tag k="natural" v="hill" />
		<tag k="place" v="locality" />
		<tag k="ssr:stedsnr" v="181743" />
	</node>
	<node id="-38931" lat="59.2061111139" lon="5.28357499843">
		<tag k="name" v="Søre Stiklevarden" />
		<tag k="natural" v="hill" />
		<tag k="place" v="locality" />
		<tag k="ssr:stedsnr" v="181641" />
	</node>
	<node id="-38929" lat="59.1571138887" lon="5.24373889529">
		<tag k="name" v="Breidablikk" />
		<tag k="natural" v="hill" />
		<tag k="place" v="locality" />
		<tag k="ssr:stedsnr" v="181549" />
	</node>
	<node id="-38928" lat="59.2651972231" lon="5.27792222273">
		<tag k="name" v="Brurabåsen" />
		<tag k="natural" v="slope" />
		<tag k="place" v="locality" />
		<tag k="ssr:stedsnr" v="181540" />
	</node>
	<node id="-38926" lat="59.2548027763" lon="5.29381945008">
		<tag k="name" v="Oskereiddalen" />
		<tag k="natural" v="valley" />
		<tag k="place" v="locality" />
		<tag k="ssr:stedsnr" v="181570" />
	</node>
	<node id="-38922" lat="59.1648055563" lon="5.29466110712">
		<tag k="name" v="Ækrehaugen" />
		<tag k="natural" v="hill" />
		<tag k="place" v="locality" />
		<tag k="ssr:stedsnr" v="181339" />
	</node>
	<node id="-38920" lat="59.3339249988" lon="5.33322500567">
		<tag k="name" v="Lyngheim" />
		<tag k="natural" v="slope" />
		<tag k="place" v="locality" />
		<tag k="ssr:stedsnr" v="181229" />
	</node>
</osm>
