<?xml version="1.0" encoding="UTF-8"?>
<<<<<<< HEAD
<osm version="0.6" generator="osmapis">
	<node lat="59.355172226419114" lon="5.276891664273279" id="-2413">
		<tag k="bridge" v="yes" />
		<tag k="layer" v="1" />
		<tag k="name" v="Avaldsnes" />
		<tag k="ssr:stedsnr" v="47519" />
	</node>
	<node lat="59.167430559631754" lon="5.227177778206737" id="-2488">
		<tag k="man_made" v="cairn" />
		<tag k="name" v="Pålsvarden" />
		<tag k="place" v="locality" />
		<tag k="ssr:stedsnr" v="244423" />
	</node>
	<node lat="59.3955527744786" lon="5.267333335545366" id="-2513">
		<tag k="junction" v="yes" />
		<tag k="name" v="Storasundkrossen" />
		<tag k="place" v="locality" />
		<tag k="ssr:stedsnr" v="102818" />
	</node>
	<node lat="59.314263302415945" lon="5.3225725850155525" id="-2558">
=======
<osm generator="osmapis" version="0.6">
	<node id="-41211" lat="59.3728916706" lon="5.35441110509">
		<tag k="highway" v="path" />
		<tag k="name" v="Kyrkjevegen" />
		<tag k="ssr:stedsnr" v="572096" />
	</node>
	<node id="-40314" lat="59.1859666677" lon="5.23461111675">
		<tag k="bridge" v="yes" />
		<tag k="layer" v="1" />
		<tag k="name" v="Prestkloppene" />
		<tag k="ssr:stedsnr" v="788603" />
	</node>
	<node id="-41336" lat="59.3790027747" lon="5.15880833841">
		<tag k="man_made" v="quay" />
		<tag k="name" v="Austre Havn" />
		<tag k="place" v="locality" />
		<tag k="ssr:stedsnr" v="754810" />
	</node>
	<node id="-39892" lat="59.2255666684" lon="5.19293054918">
		<tag k="bridge" v="yes" />
		<tag k="layer" v="1" />
		<tag k="name" v="Stols" />
		<tag k="ssr:stedsnr" v="472518" />
	</node>
	<node id="-40304" lat="59.2698138881" lon="5.20189167383">
		<tag k="bridge" v="yes" />
		<tag k="layer" v="1" />
		<tag k="name" v="Vestre Veaveg" />
		<tag k="ssr:stedsnr" v="775518" />
	</node>
	<node id="-40303" lat="59.2849750019" lon="5.30290555296">
		<tag k="bridge" v="yes" />
		<tag k="layer" v="1" />
		<tag k="name" v="Strømsund" />
		<tag k="ssr:stedsnr" v="775515" />
	</node>
	<node id="-40302" lat="59.3746027769" lon="5.28607500385">
		<tag k="bridge" v="yes" />
		<tag k="layer" v="1" />
		<tag k="name" v="Nordbøkrossen" />
		<tag k="ssr:stedsnr" v="775503" />
	</node>
	<node id="-40941" lat="59.3339388916" lon="5.27845000177">
		<tag k="bridge" v="yes" />
		<tag k="layer" v="1" />
		<tag k="name" v="Fiskå" />
		<tag k="ssr:stedsnr" v="350508" />
	</node>
	<node id="-40940" lat="59.224863892" lon="5.32235278543">
		<tag k="bridge" v="yes" />
		<tag k="layer" v="1" />
		<tag k="name" v="Snørteland" />
		<tag k="ssr:stedsnr" v="350504" />
	</node>
	<node id="-40939" lat="59.2922194419" lon="5.29212778402">
		<tag k="bridge" v="yes" />
		<tag k="layer" v="1" />
		<tag k="name" v="Bygnes" />
		<tag k="ssr:stedsnr" v="350498" />
	</node>
	<node id="-41359" lat="59.3532555529" lon="5.2152166624">
		<tag k="man_made" v="quay" />
		<tag k="name" v="Lastekaien" />
		<tag k="place" v="locality" />
		<tag k="ssr:stedsnr" v="787734" />
	</node>
	<node id="-41061" lat="59.2185361152" lon="5.19205554834">
		<tag k="bridge" v="yes" />
		<tag k="layer" v="1" />
		<tag k="name" v="Langåker" />
		<tag k="ssr:stedsnr" v="411524" />
	</node>
	<node id="-41060" lat="59.2781138918" lon="5.25628054664">
		<tag k="bridge" v="yes" />
		<tag k="layer" v="1" />
		<tag k="name" v="Brekke" />
		<tag k="ssr:stedsnr" v="411510" />
	</node>
	<node id="-41314" lat="59.1550555574" lon="5.22843611544">
		<tag k="bridge" v="yes" />
		<tag k="layer" v="1" />
		<tag k="name" v="Syrevågen" />
		<tag k="ssr:stedsnr" v="654545" />
	</node>
	<node id="-40928" lat="59.3575166703" lon="5.22089721808">
		<tag k="highway" v="path" />
		<tag k="name" v="Ridestien" />
		<tag k="ssr:stedsnr" v="329778" />
	</node>
	<node id="-40159" lat="59.2817638924" lon="5.29665278291">
		<tag k="bridge" v="yes" />
		<tag k="layer" v="1" />
		<tag k="name" v="Eidsbotn" />
		<tag k="ssr:stedsnr" v="897502" />
	</node>
	<node id="-41231" lat="59.2669666683" lon="5.19511944779">
		<tag k="bridge" v="yes" />
		<tag k="layer" v="1" />
		<tag k="name" v="Tjøsvoll" />
		<tag k="ssr:stedsnr" v="593504" />
	</node>
	<node id="-40276" lat="59.1756537967" lon="5.18698688553">
>>>>>>> e1d4bc35ff8a6074a6f2e91616a996b547c36f15
		<tag k="landuse" v="harbour" />
		<tag k="name" v="Gammelhamn" />
		<tag k="seamark:type" v="harbour" />
		<tag k="ssr:stedsnr" v="147157" />
	</node>
<<<<<<< HEAD
	<node lat="59.355241669353596" lon="5.320811105726256" id="-2657">
=======
	<node id="-39891" lat="59.3633444444" lon="5.27901388353">
>>>>>>> e1d4bc35ff8a6074a6f2e91616a996b547c36f15
		<tag k="bridge" v="yes" />
		<tag k="layer" v="1" />
		<tag k="name" v="Vormedal" />
		<tag k="ssr:stedsnr" v="229535" />
	</node>
<<<<<<< HEAD
	<node lat="59.289008335794335" lon="5.292113888717811" id="-2658">
=======
	<node id="-39890" lat="59.296502778" lon="5.21021665926">
>>>>>>> e1d4bc35ff8a6074a6f2e91616a996b547c36f15
		<tag k="bridge" v="yes" />
		<tag k="layer" v="1" />
		<tag k="name" v="Østrem" />
		<tag k="ssr:stedsnr" v="229538" />
	</node>
<<<<<<< HEAD
	<node lat="59.347038886853774" lon="5.274811112288975" id="-2659">
		<tag k="bridge" v="yes" />
		<tag k="layer" v="1" />
		<tag k="name" v="Øygarden" />
		<tag k="ssr:stedsnr" v="229540" />
	</node>
	<node lat="59.357516670297585" lon="5.220897218084804" id="-2777">
		<tag k="highway" v="path" />
		<tag k="name" v="Ridestien" />
		<tag k="ssr:stedsnr" v="329778" />
	</node>
	<node lat="59.22486389197235" lon="5.322352785433571" id="-2787">
		<tag k="bridge" v="yes" />
		<tag k="layer" v="1" />
		<tag k="name" v="Snørteland" />
		<tag k="ssr:stedsnr" v="350504" />
	</node>
	<node lat="59.3403583314396" lon="5.193722216694412" id="-2870">
		<tag k="man_made" v="cairn" />
		<tag k="name" v="Kalstø varde" />
		<tag k="place" v="locality" />
		<tag k="ssr:stedsnr" v="484697" />
	</node>
	<node lat="59.23132664151046" lon="5.179759980166425" id="-2885">
		<tag k="landuse" v="harbour" />
		<tag k="name" v="Ferkingstad hamn" />
		<tag k="old_name" v="Ferkingstadhamn" />
		<tag k="seamark:type" v="harbour" />
		<tag k="ssr:stedsnr" v="486018" />
	</node>
	<node lat="59.278113891845834" lon="5.2562805466421185" id="-2894">
=======
	<node id="-41613" lat="59.3764325186" lon="5.17203187042">
		<tag k="landuse" v="harbour" />
		<tag k="name" v="Austra Hamn" />
		<tag k="seamark:type" v="harbour" />
		<tag k="ssr:stedsnr" v="980638" />
	</node>
	<node id="-39370" lat="59.4119388928" lon="5.36462221584">
		<tag k="bridge" v="yes" />
		<tag k="layer" v="1" />
		<tag k="name" v="Skre" />
		<tag k="ssr:stedsnr" v="47530" />
	</node>
	<node id="-39369" lat="59.1466361144" lon="5.26754165949">
		<tag k="amenity" v="ferry_terminal" />
		<tag k="name" v="Skudeneshavn ferjekai" />
		<tag k="ssr:stedsnr" v="47529" />
	</node>
	<node id="-39368" lat="59.3551722264" lon="5.27689166427">
>>>>>>> e1d4bc35ff8a6074a6f2e91616a996b547c36f15
		<tag k="bridge" v="yes" />
		<tag k="layer" v="1" />
		<tag k="name" v="Brekke" />
		<tag k="ssr:stedsnr" v="411510" />
	</node>
<<<<<<< HEAD
	<node lat="59.296502777975185" lon="5.2102166592622705" id="-2968">
		<tag k="bridge" v="yes" />
		<tag k="layer" v="1" />
		<tag k="name" v="Salvøy" />
		<tag k="ssr:stedsnr" v="472503" />
	</node>
	<node lat="59.363344444421365" lon="5.279013883530316" id="-2969">
=======
	<node id="-39367" lat="59.3767388864" lon="5.35664444149">
		<tag k="bridge" v="yes" />
		<tag k="layer" v="1" />
		<tag k="name" v="Aksnes" />
		<tag k="ssr:stedsnr" v="47517" />
	</node>
	<node id="-39364" lat="59.3470388869" lon="5.27481111229">
>>>>>>> e1d4bc35ff8a6074a6f2e91616a996b547c36f15
		<tag k="bridge" v="yes" />
		<tag k="layer" v="1" />
		<tag k="name" v="Bø" />
		<tag k="ssr:stedsnr" v="472509" />
	</node>
<<<<<<< HEAD
	<node lat="59.22556666839342" lon="5.192930549180704" id="-2970">
=======
	<node id="-39363" lat="59.2890083358" lon="5.29211388872">
>>>>>>> e1d4bc35ff8a6074a6f2e91616a996b547c36f15
		<tag k="bridge" v="yes" />
		<tag k="layer" v="1" />
		<tag k="name" v="Stols" />
		<tag k="ssr:stedsnr" v="472518" />
	</node>
<<<<<<< HEAD
	<node lat="59.307994440796975" lon="5.286863883263829" id="-3091">
		<tag k="bridge" v="yes" />
		<tag k="layer" v="1" />
		<tag k="name" v="Stølshaugen" />
		<tag k="ssr:stedsnr" v="593503" />
	</node>
	<node lat="59.26696666833968" lon="5.195119447788832" id="-3092">
=======
	<node id="-39362" lat="59.3552416694" lon="5.32081110573">
		<tag k="bridge" v="yes" />
		<tag k="layer" v="1" />
		<tag k="name" v="Vormedal" />
		<tag k="ssr:stedsnr" v="229535" />
	</node>
	<node id="-39648" lat="59.3403583314" lon="5.19372221669">
		<tag k="man_made" v="cairn" />
		<tag k="name" v="Kalstø varde" />
		<tag k="place" v="locality" />
		<tag k="ssr:stedsnr" v="484697" />
	</node>
	<node id="-41646" lat="59.1778101925" lon="5.25612586823">
		<tag k="highway" v="path" />
		<tag k="name" v="Prestvegen" />
		<tag k="ssr:stedsnr" v="1073276" />
	</node>
	<node id="-41543" lat="59.3709777741" lon="5.26578611051">
>>>>>>> e1d4bc35ff8a6074a6f2e91616a996b547c36f15
		<tag k="bridge" v="yes" />
		<tag k="layer" v="1" />
		<tag k="name" v="Øvrabø" />
		<tag k="ssr:stedsnr" v="957529" />
	</node>
<<<<<<< HEAD
	<node lat="59.22677222242026" lon="5.172844452895218" id="-3160">
		<tag k="man_made" v="cairn" />
		<tag k="name" v="Nesvarden" />
		<tag k="place" v="locality" />
		<tag k="ssr:stedsnr" v="666218" />
	</node>
	<node lat="59.281763892400846" lon="5.296652782913598" id="-3202">
=======
	<node id="-40613" lat="59.3574444441" lon="5.27666110419">
		<tag k="bridge" v="yes" />
		<tag k="layer" v="1" />
		<tag k="name" v="Utvik" />
		<tag k="ssr:stedsnr" v="108566" />
	</node>
	<node id="-40612" lat="59.3359361102" lon="5.27661944923">
>>>>>>> e1d4bc35ff8a6074a6f2e91616a996b547c36f15
		<tag k="bridge" v="yes" />
		<tag k="layer" v="1" />
		<tag k="name" v="Eidsbotn" />
		<tag k="ssr:stedsnr" v="897502" />
	</node>
<<<<<<< HEAD
	<node lat="59.37900277471189" lon="5.15880833840767" id="-3274">
		<tag k="man_made" v="quay" />
		<tag k="name" v="Austre Havn" />
		<tag k="place" v="locality" />
		<tag k="ssr:stedsnr" v="754810" />
	</node>
	<node lat="59.374602776919765" lon="5.286075003851794" id="-3281">
		<tag k="bridge" v="yes" />
		<tag k="layer" v="1" />
		<tag k="name" v="Nordbøkrossen" />
		<tag k="ssr:stedsnr" v="775503" />
	</node>
	<node lat="59.18596666771597" lon="5.234611116753869" id="-3349">
=======
	<node id="-40611" lat="59.3509638888" lon="5.27661944622">
		<tag k="bridge" v="yes" />
		<tag k="layer" v="1" />
		<tag k="name" v="Skeie" />
		<tag k="ssr:stedsnr" v="108547" />
	</node>
	<node id="-40610" lat="59.3955527745" lon="5.26733333555">
		<tag k="junction" v="yes" />
		<tag k="name" v="Storasundkrossen" />
		<tag k="place" v="locality" />
		<tag k="ssr:stedsnr" v="102818" />
	</node>
	<node id="-41121" lat="59.3141861095" lon="5.29008611605">
>>>>>>> e1d4bc35ff8a6074a6f2e91616a996b547c36f15
		<tag k="bridge" v="yes" />
		<tag k="layer" v="1" />
		<tag k="name" v="Prestkloppene" />
		<tag k="ssr:stedsnr" v="788603" />
	</node>
<<<<<<< HEAD
	<node lat="59.17565379672779" lon="5.186986885525346" id="-3506">
		<tag k="landuse" v="harbour" />
		<tag k="name" v="Sandvehamn" />
		<tag k="seamark:type" v="harbour" />
		<tag k="ssr:stedsnr" v="912438" />
	</node>
	<node lat="59.37643251855135" lon="5.17203187042148" id="-3580">
		<tag k="landuse" v="harbour" />
		<tag k="name" v="Austra Hamn" />
		<tag k="seamark:type" v="harbour" />
		<tag k="ssr:stedsnr" v="980638" />
	</node>
	<node lat="59.34418610769503" lon="5.215855564714701" id="-3587">
=======
	<node id="-39664" lat="59.2313266415" lon="5.17975998017">
		<tag k="landuse" v="harbour" />
		<tag k="name" v="Ferkingstad hamn" />
		<tag k="old_name" v="Ferkingstadhamn" />
		<tag k="seamark:type" v="harbour" />
		<tag k="ssr:stedsnr" v="486018" />
	</node>
	<node id="-40477" lat="59.3441861077" lon="5.21585556471">
>>>>>>> e1d4bc35ff8a6074a6f2e91616a996b547c36f15
		<tag k="aeroway" v="aerodrome" />
		<tag k="alt_name" v="Karmøy" />
		<tag k="name" v="Haugesund lufthavn, Karmøy" />
		<tag k="old_name" v="Haugesund Lufthamn;Haugesund lufthavn" />
		<tag k="ssr:stedsnr" v="1520" />
	</node>
<<<<<<< HEAD
	<node lat="59.37673888635789" lon="5.356644441490468" id="-3622">
=======
	<node id="-40732" lat="59.1533694474" lon="5.27409722546">
>>>>>>> e1d4bc35ff8a6074a6f2e91616a996b547c36f15
		<tag k="bridge" v="yes" />
		<tag k="layer" v="1" />
		<tag k="name" v="Aksnes" />
		<tag k="ssr:stedsnr" v="47517" />
	</node>
<<<<<<< HEAD
	<node lat="59.14663611440205" lon="5.267541659492157" id="-3623">
		<tag k="amenity" v="ferry_terminal" />
		<tag k="name" v="Skudeneshavn ferjekai" />
		<tag k="ssr:stedsnr" v="47529" />
	</node>
	<node lat="59.411938892784626" lon="5.364622215836796" id="-3624">
=======
	<node id="-40731" lat="59.3438138872" lon="5.27508888438">
		<tag k="bridge" v="yes" />
		<tag k="layer" v="1" />
		<tag k="name" v="Våge" />
		<tag k="ssr:stedsnr" v="168531" />
	</node>
	<node id="-40730" lat="59.3194111077" lon="5.29208610422">
>>>>>>> e1d4bc35ff8a6074a6f2e91616a996b547c36f15
		<tag k="bridge" v="yes" />
		<tag k="layer" v="1" />
		<tag k="name" v="Skre" />
		<tag k="ssr:stedsnr" v="47530" />
	</node>
<<<<<<< HEAD
	<node lat="59.3509638888193" lon="5.276619446216837" id="-3699">
=======
	<node id="-40943" lat="59.2799777813" lon="5.30730834118">
		<tag k="bridge" v="yes" />
		<tag k="layer" v="1" />
		<tag k="name" v="Kopar" />
		<tag k="ssr:stedsnr" v="350511" />
	</node>
	<node id="-41220" lat="59.3752777745" lon="5.15147222884">
		<tag k="name" v="Kanalen" />
		<tag k="ssr:stedsnr" v="572827" />
		<tag k="waterway" v="canal" />
	</node>
	<node id="-40729" lat="59.3102694423" lon="5.28801388965">
>>>>>>> e1d4bc35ff8a6074a6f2e91616a996b547c36f15
		<tag k="bridge" v="yes" />
		<tag k="layer" v="1" />
		<tag k="name" v="Skeie" />
		<tag k="ssr:stedsnr" v="108547" />
	</node>
<<<<<<< HEAD
	<node lat="59.335936110155785" lon="5.276619449234116" id="-3700">
		<tag k="bridge" v="yes" />
		<tag k="layer" v="1" />
		<tag k="name" v="Nygård" />
		<tag k="ssr:stedsnr" v="108549" />
	</node>
	<node lat="59.357444444118656" lon="5.276661104185117" id="-3701">
		<tag k="bridge" v="yes" />
		<tag k="layer" v="1" />
		<tag k="name" v="Utvik" />
		<tag k="ssr:stedsnr" v="108566" />
	</node>
	<node lat="59.37781944752124" lon="5.148041659836102" id="-3759">
=======
	<node id="-40942" lat="59.3126333361" lon="5.2892777777">
		<tag k="bridge" v="yes" />
		<tag k="layer" v="1" />
		<tag k="name" v="Matland" />
		<tag k="ssr:stedsnr" v="350509" />
	</node>
	<node id="-40977" lat="59.2142944463" lon="5.20199721875">
		<tag k="bridge" v="yes" />
		<tag k="layer" v="1" />
		<tag k="name" v="Prestkloppene" />
		<tag k="ssr:stedsnr" v="363562" />
	</node>
	<node id="-39439" lat="59.1674305596" lon="5.22717777821">
		<tag k="man_made" v="cairn" />
		<tag k="name" v="Pålsvarden" />
		<tag k="place" v="locality" />
		<tag k="ssr:stedsnr" v="244423" />
	</node>
	<node id="-41230" lat="59.3079944408" lon="5.28686388326">
		<tag k="bridge" v="yes" />
		<tag k="layer" v="1" />
		<tag k="name" v="Stølshaugen" />
		<tag k="ssr:stedsnr" v="593503" />
	</node>
	<node id="-40717" lat="59.3778194475" lon="5.14804165984">
		<tag k="man_made" v="quay" />
		<tag k="name" v="Vestre Havn" />
		<tag k="place" v="locality" />
		<tag k="ssr:stedsnr" v="147747" />
	</node>
	<node id="-39948" lat="59.1476722259" lon="5.25646111326">
>>>>>>> e1d4bc35ff8a6074a6f2e91616a996b547c36f15
		<tag k="man_made" v="quay" />
		<tag k="name" v="Vestre Havn" />
		<tag k="place" v="locality" />
		<tag k="ssr:stedsnr" v="147747" />
	</node>
<<<<<<< HEAD
	<node lat="59.31026944226901" lon="5.2880138896528495" id="-3774">
		<tag k="bridge" v="yes" />
		<tag k="layer" v="1" />
		<tag k="name" v="Smidjeberg" />
		<tag k="ssr:stedsnr" v="168524" />
	</node>
	<node lat="59.319411107701974" lon="5.292086104221742" id="-3775">
		<tag k="bridge" v="yes" />
		<tag k="layer" v="1" />
		<tag k="name" v="Håland" />
		<tag k="ssr:stedsnr" v="168529" />
	</node>
	<node lat="59.34381388715392" lon="5.275088884382662" id="-3776">
		<tag k="bridge" v="yes" />
		<tag k="layer" v="1" />
		<tag k="name" v="Våge" />
		<tag k="ssr:stedsnr" v="168531" />
	</node>
	<node lat="59.153369447416566" lon="5.274097225461071" id="-3777">
		<tag k="bridge" v="yes" />
		<tag k="layer" v="1" />
		<tag k="name" v="Vik" />
		<tag k="ssr:stedsnr" v="168539" />
	</node>
	<node lat="59.292219441906134" lon="5.292127784019664" id="-3940">
		<tag k="bridge" v="yes" />
		<tag k="layer" v="1" />
		<tag k="name" v="Bygnes" />
		<tag k="ssr:stedsnr" v="350498" />
	</node>
	<node lat="59.33393889161209" lon="5.2784500017676805" id="-3941">
		<tag k="bridge" v="yes" />
		<tag k="layer" v="1" />
		<tag k="name" v="Fiskå" />
		<tag k="ssr:stedsnr" v="350508" />
	</node>
	<node lat="59.312633336101534" lon="5.289277777704999" id="-3942">
		<tag k="bridge" v="yes" />
		<tag k="layer" v="1" />
		<tag k="name" v="Matland" />
		<tag k="ssr:stedsnr" v="350509" />
	</node>
	<node lat="59.27997778127719" lon="5.307308341180038" id="-3943">
		<tag k="bridge" v="yes" />
		<tag k="layer" v="1" />
		<tag k="name" v="Kopar" />
		<tag k="ssr:stedsnr" v="350511" />
	</node>
	<node lat="59.214294446333284" lon="5.201997218746906" id="-3971">
		<tag k="bridge" v="yes" />
		<tag k="layer" v="1" />
		<tag k="name" v="Prestkloppene" />
		<tag k="ssr:stedsnr" v="363562" />
	</node>
	<node lat="59.21853611515895" lon="5.192055548341088" id="-4034">
		<tag k="bridge" v="yes" />
		<tag k="layer" v="1" />
		<tag k="name" v="Langåker" />
		<tag k="ssr:stedsnr" v="411524" />
	</node>
	<node lat="59.31418610947673" lon="5.290086116051616" id="-4110">
		<tag k="bridge" v="yes" />
		<tag k="layer" v="1" />
		<tag k="name" v="Hydrokrysset" />
		<tag k="ssr:stedsnr" v="533538" />
	</node>
	<node lat="59.1476722258658" lon="5.256461113257026" id="-4113">
		<tag k="man_made" v="quay" />
		<tag k="name" v="Sundtaskjeret" />
		<tag k="place" v="locality" />
		<tag k="ssr:stedsnr" v="543745" />
	</node>
	<node lat="59.37289167061154" lon="5.354411105087275" id="-4175">
		<tag k="highway" v="path" />
		<tag k="name" v="Kyrkjevegen" />
		<tag k="ssr:stedsnr" v="572096" />
	</node>
	<node lat="59.37527777450108" lon="5.151472228841842" id="-4180">
		<tag k="name" v="Kanalen" />
		<tag k="ssr:stedsnr" v="572827" />
		<tag k="waterway" v="canal" />
	</node>
	<node lat="59.1550555573715" lon="5.228436115435883" id="-4264">
		<tag k="bridge" v="yes" />
		<tag k="layer" v="1" />
		<tag k="name" v="Syrevågen" />
		<tag k="ssr:stedsnr" v="654545" />
	</node>
	<node lat="59.2849750019055" lon="5.302905552955622" id="-4414">
		<tag k="bridge" v="yes" />
		<tag k="layer" v="1" />
		<tag k="name" v="Strømsund" />
		<tag k="ssr:stedsnr" v="775515" />
	</node>
	<node lat="59.26981388807687" lon="5.201891673833149" id="-4415">
		<tag k="bridge" v="yes" />
		<tag k="layer" v="1" />
		<tag k="name" v="Vestre Veaveg" />
		<tag k="ssr:stedsnr" v="775518" />
	</node>
	<node lat="59.35325555293795" lon="5.215216662398567" id="-4420">
		<tag k="man_made" v="quay" />
		<tag k="name" v="Lastekaien" />
		<tag k="place" v="locality" />
		<tag k="ssr:stedsnr" v="787734" />
	</node>
	<node lat="59.3709777740747" lon="5.265786110507564" id="-4592">
		<tag k="bridge" v="yes" />
		<tag k="layer" v="1" />
		<tag k="name" v="Øvrabø" />
		<tag k="ssr:stedsnr" v="957529" />
	</node>
	<node lat="59.17781019247536" lon="5.256125868227887" id="-4689">
		<tag k="highway" v="path" />
		<tag k="name" v="Prestvegen" />
		<tag k="ssr:stedsnr" v="1073276" />
	</node>
=======
	<node id="-40710" lat="59.3142633024" lon="5.32257258502">
		<tag k="landuse" v="harbour" />
		<tag k="name" v="Gammelhamn" />
		<tag k="seamark:type" v="harbour" />
		<tag k="ssr:stedsnr" v="147157" />
	</node>
	<node id="-39812" lat="59.2267722224" lon="5.1728444529">
		<tag k="man_made" v="cairn" />
		<tag k="name" v="Nesvarden" />
		<tag k="place" v="locality" />
		<tag k="ssr:stedsnr" v="666218" />
	</node>
>>>>>>> e1d4bc35ff8a6074a6f2e91616a996b547c36f15
</osm>
