<?xml version="1.0" encoding="UTF-8"?>
<osm version="0.6" generator="osmapis">
	<node lat="59.27584166254943" lon="5.268188892495026" id="-4767">
		<tag k="name" v="Idlemyr" />
		<tag k="natural" v="wetland" />
		<tag k="ssr:stedsnr" v="60647" />
	</node>
	<node lat="59.20955555695177" lon="5.265124999094137" id="-4777">
		<tag k="name" v="Raunamyr" />
		<tag k="natural" v="wetland" />
		<tag k="ssr:stedsnr" v="62114" />
	</node>
	<node lat="59.17480215099871" lon="5.295265697034624" id="-4815">
		<tag k="name" v="Fenamyr" />
		<tag k="natural" v="wetland" />
		<tag k="ssr:stedsnr" v="120403" />
	</node>
	<node lat="59.15611666582456" lon="5.237616663346847" id="-4816">
		<tag k="name" v="Stordmyr" />
		<tag k="natural" v="wetland" />
		<tag k="ssr:stedsnr" v="120510" />
	</node>
	<node lat="59.178683331893204" lon="5.2398249996414314" id="-4826">
		<tag k="name" v="Kvitmyr" />
		<tag k="natural" v="wetland" />
		<tag k="ssr:stedsnr" v="122073" />
	</node>
	<node lat="59.322566665546276" lon="5.227355556833746" id="-4858">
		<tag k="name" v="Tvemyr" />
		<tag k="natural" v="wetland" />
		<tag k="ssr:stedsnr" v="242272" />
	</node>
	<node lat="59.26853055431923" lon="5.29329165815553" id="-4870">
		<tag k="name" v="Rossafjellsmyrane" />
		<tag k="natural" v="wetland" />
		<tag k="ssr:stedsnr" v="242478" />
	</node>
	<node lat="59.35458054001568" lon="5.253768537550872" id="-4875">
		<tag k="name" v="Skeisvoll" />
		<tag k="place" v="locality" />
		<tag k="ssr:stedsnr" v="242710" />
	</node>
	<node lat="59.229797225672485" lon="5.172663887430787" id="-4911">
		<tag k="name" v="Gryteberget" />
		<tag k="place" v="locality" />
		<tag k="ssr:stedsnr" v="181210" />
	</node>
	<node lat="59.29830277701329" lon="5.2461999953110725" id="-4918">
		<tag k="name" v="Brudgomsmyra" />
		<tag k="natural" v="wetland" />
		<tag k="ssr:stedsnr" v="181151" />
	</node>
	<node lat="59.308630559472626" lon="5.21977776973937" id="-4922">
		<tag k="name" v="Idlemyrå" />
		<tag k="natural" v="wetland" />
		<tag k="ssr:stedsnr" v="181316" />
	</node>
	<node lat="59.375486110268405" lon="5.254138894659229" id="-4961">
		<tag k="name" v="Stampemyr" />
		<tag k="natural" v="wetland" />
		<tag k="ssr:stedsnr" v="208799" />
	</node>
	<node lat="59.397766666890696" lon="5.163374993603521" id="-4964">
		<tag k="name" v="Otraurå" />
		<tag k="natural" v="scree" />
		<tag k="ssr:stedsnr" v="208819" />
	</node>
	<node lat="59.309333330782735" lon="5.2434861113764875" id="-4976">
		<tag k="name" v="Århaugeløkjen" />
		<tag k="natural" v="wetland" />
		<tag k="ssr:stedsnr" v="242247" />
	</node>
	<node lat="59.30688055539517" lon="5.227919449986692" id="-4979">
		<tag k="name" v="Kringlemyra" />
		<tag k="natural" v="wetland" />
		<tag k="ssr:stedsnr" v="242295" />
	</node>
	<node lat="59.27550822488262" lon="5.316077896839509" id="-4985">
		<tag k="name" v="Guletjødnsmyrene" />
		<tag k="natural" v="wetland" />
		<tag k="ssr:stedsnr" v="242549" />
	</node>
	<node lat="59.25326111420806" lon="5.251422217732888" id="-4993">
		<tag k="name" v="Vaulsmyrå" />
		<tag k="natural" v="wetland" />
		<tag k="ssr:stedsnr" v="242703" />
	</node>
	<node lat="59.17716944590431" lon="5.231638893529387" id="-4994">
		<tag k="name" v="Henrikkja" />
		<tag k="natural" v="wetland" />
		<tag k="ssr:stedsnr" v="242762" />
	</node>
	<node lat="59.37239722253389" lon="5.233277773517591" id="-5018">
		<tag k="name" v="Hestmyr" />
		<tag k="natural" v="wetland" />
		<tag k="ssr:stedsnr" v="269799" />
	</node>
	<node lat="59.39624167062268" lon="5.356966660704589" id="-5045">
		<tag k="name" v="Longhammarmyr" />
		<tag k="natural" v="wetland" />
		<tag k="ssr:stedsnr" v="452545" />
	</node>
	<node lat="59.388497218889" lon="5.34721944767349" id="-5046">
		<tag k="name" v="Slipatveit" />
		<tag k="natural" v="wetland" />
		<tag k="ssr:stedsnr" v="452562" />
	</node>
	<node lat="59.27943333297777" lon="5.234663882488893" id="-5058">
		<tag k="name" v="Tøkjemyr" />
		<tag k="natural" v="wetland" />
		<tag k="ssr:stedsnr" v="302740" />
	</node>
	<node lat="59.31113889166191" lon="5.21763611115968" id="-5065">
		<tag k="name" v="Taningemyra" />
		<tag k="natural" v="wetland" />
		<tag k="ssr:stedsnr" v="303301" />
	</node>
	<node lat="59.213075001602306" lon="5.23751389718854" id="-5071">
		<tag k="name" v="Ferkingstadskogen" />
		<tag k="place" v="locality" />
		<tag k="ssr:stedsnr" v="305009" />
	</node>
	<node lat="59.15058889045816" lon="5.2478666635562705" id="-5119">
		<tag k="name" v="Moldgro" />
		<tag k="place" v="locality" />
		<tag k="ssr:stedsnr" v="363507" />
	</node>
	<node lat="59.189608337853144" lon="5.283319450096008" id="-5125">
		<tag k="name" v="Stølsmyra" />
		<tag k="natural" v="wetland" />
		<tag k="ssr:stedsnr" v="363621" />
	</node>
	<node lat="59.21817222574318" lon="5.2603083334293785" id="-5177">
		<tag k="name" v="Stiklemyra" />
		<tag k="natural" v="wetland" />
		<tag k="ssr:stedsnr" v="424220" />
	</node>
	<node lat="59.17315278108809" lon="5.236058340505996" id="-5181">
		<tag k="name" v="Kjelsteinen" />
		<tag k="natural" v="stone" />
		<tag k="ssr:stedsnr" v="424156" />
	</node>
	<node lat="59.307819442180346" lon="5.234038893211661" id="-5182">
		<tag k="name" v="Løkjen" />
		<tag k="natural" v="wetland" />
		<tag k="ssr:stedsnr" v="424307" />
	</node>
	<node lat="59.30760277910581" lon="5.218186110125773" id="-5183">
		<tag k="name" v="Bokslemyrå" />
		<tag k="natural" v="wetland" />
		<tag k="ssr:stedsnr" v="424311" />
	</node>
	<node lat="59.20563333757271" lon="5.278491671161005" id="-5185">
		<tag k="name" v="Stiklemyra" />
		<tag k="natural" v="wetland" />
		<tag k="ssr:stedsnr" v="424616" />
	</node>
	<node lat="59.33548888701727" lon="5.362316663889744" id="-5198">
		<tag k="landuse" v="meadow" />
		<tag k="name" v="Myra" />
		<tag k="ssr:stedsnr" v="424802" />
	</node>
	<node lat="59.26533055682926" lon="5.295886112926747" id="-5221">
		<tag k="name" v="Vardleitemyr" />
		<tag k="natural" v="wetland" />
		<tag k="ssr:stedsnr" v="451213" />
	</node>
	<node lat="59.21351944028673" lon="5.238708336556389" id="-5240">
		<tag k="name" v="Ferkingstadskogen" />
		<tag k="place" v="locality" />
		<tag k="ssr:stedsnr" v="666228" />
	</node>
	<node lat="59.30990277695963" lon="5.24110277889513" id="-5247">
		<tag k="name" v="Århaugemyra" />
		<tag k="natural" v="wetland" />
		<tag k="ssr:stedsnr" v="666318" />
	</node>
	<node lat="59.200772218127646" lon="5.280808340754103" id="-5260">
		<tag k="name" v="Gamlamyra" />
		<tag k="natural" v="wetland" />
		<tag k="ssr:stedsnr" v="666667" />
	</node>
	<node lat="59.224338888477604" lon="5.218752785980184" id="-5279">
		<tag k="name" v="Gamlemyr" />
		<tag k="natural" v="wetland" />
		<tag k="ssr:stedsnr" v="484235" />
	</node>
	<node lat="59.200277778429864" lon="5.226866658884486" id="-5283">
		<tag k="name" v="Klovsteinen" />
		<tag k="natural" v="stone" />
		<tag k="ssr:stedsnr" v="484609" />
	</node>
	<node lat="59.25821666990338" lon="5.21425833730962" id="-5293">
		<tag k="name" v="Oddamyrå" />
		<tag k="natural" v="wetland" />
		<tag k="ssr:stedsnr" v="484717" />
	</node>
	<node lat="59.245263893099896" lon="5.240913889222231" id="-5297">
		<tag k="name" v="Kinnemyrå" />
		<tag k="natural" v="wetland" />
		<tag k="ssr:stedsnr" v="484907" />
	</node>
	<node lat="59.38064722609301" lon="5.256858341333577" id="-5359">
		<tag k="name" v="Stangemyrane" />
		<tag k="natural" v="wetland" />
		<tag k="ssr:stedsnr" v="511797" />
	</node>
	<node lat="59.24458611366559" lon="5.24111111529451" id="-5385">
		<tag k="name" v="Kinnestovå" />
		<tag k="natural" v="wetland" />
		<tag k="ssr:stedsnr" v="545901" />
	</node>
	<node lat="59.17843611460315" lon="5.226050002703528" id="-5388">
		<tag k="name" v="Langemyr" />
		<tag k="natural" v="wetland" />
		<tag k="ssr:stedsnr" v="547084" />
	</node>
	<node lat="59.2125222190473" lon="5.255422223208149" id="-5392">
		<tag k="name" v="Mannvardemyra" />
		<tag k="natural" v="wetland" />
		<tag k="ssr:stedsnr" v="548117" />
	</node>
	<node lat="59.20626944787865" lon="5.253722225948612" id="-5393">
		<tag k="name" v="Prestmyra" />
		<tag k="natural" v="wetland" />
		<tag k="ssr:stedsnr" v="548120" />
	</node>
	<node lat="59.15748095660802" lon="5.257032926304515" id="-5395">
		<tag k="alt_name" v="Almannamyr" />
		<tag k="name" v="Allmannamyra" />
		<tag k="natural" v="wetland" />
		<tag k="ssr:stedsnr" v="548407" />
	</node>
	<node lat="59.30699166364655" lon="5.240458326005829" id="-5424">
		<tag k="name" v="Joamyra" />
		<tag k="natural" v="wetland" />
		<tag k="ssr:stedsnr" v="605307" />
	</node>
	<node lat="59.33179444114025" lon="5.241480562997027" id="-5429">
		<tag k="name" v="Husmyr" />
		<tag k="natural" v="wetland" />
		<tag k="ssr:stedsnr" v="605473" />
	</node>
	<node lat="59.26200277418222" lon="5.2973388881218915" id="-5433">
		<tag k="name" v="Semjesmyr" />
		<tag k="natural" v="wetland" />
		<tag k="ssr:stedsnr" v="605510" />
	</node>
	<node lat="59.27253055978047" lon="5.307836107375685" id="-5438">
		<tag k="name" v="Storeløken" />
		<tag k="place" v="locality" />
		<tag k="ssr:stedsnr" v="605669" />
	</node>
	<node lat="59.19662500219869" lon="5.238852772601298" id="-5505">
		<tag k="name" v="Fjell myra" />
		<tag k="natural" v="wetland" />
		<tag k="ssr:stedsnr" v="666603" />
	</node>
	<node lat="59.30707777561175" lon="5.365019451277067" id="-5513">
		<tag k="name" v="Gamlemyr" />
		<tag k="natural" v="wetland" />
		<tag k="ssr:stedsnr" v="666942" />
	</node>
	<node lat="59.33130833118779" lon="5.241105558761942" id="-5523">
		<tag k="name" v="Husmyra" />
		<tag k="natural" v="wetland" />
		<tag k="ssr:stedsnr" v="669542" />
	</node>
	<node lat="59.370452781203305" lon="5.317322213902761" id="-5540">
		<tag k="name" v="Moksheimskogen" />
		<tag k="place" v="locality" />
		<tag k="ssr:stedsnr" v="694886" />
	</node>
	<node lat="59.25623888712805" lon="5.2287833264409755" id="-5582">
		<tag k="name" v="Stutamyrå" />
		<tag k="natural" v="wetland" />
		<tag k="ssr:stedsnr" v="727731" />
	</node>
	<node lat="59.29550278079487" lon="5.342952771792457" id="-5641">
		<tag k="name" v="Løkamyr" />
		<tag k="natural" v="wetland" />
		<tag k="ssr:stedsnr" v="787963" />
	</node>
	<node lat="59.26601666409764" lon="5.292775007515944" id="-5652">
		<tag k="name" v="Krekamyr" />
		<tag k="natural" v="wetland" />
		<tag k="ssr:stedsnr" v="788512" />
	</node>
	<node lat="59.253336114873306" lon="5.240286111008695" id="-5720">
		<tag k="name" v="Gamlamyrå" />
		<tag k="natural" v="wetland" />
		<tag k="ssr:stedsnr" v="909716" />
	</node>
	<node lat="59.252669446449495" lon="5.245536110342812" id="-5721">
		<tag k="name" v="Nyamyrå" />
		<tag k="natural" v="wetland" />
		<tag k="ssr:stedsnr" v="909718" />
	</node>
	<node lat="59.20189999741089" lon="5.255305555235884" id="-5724">
		<tag k="name" v="Eikjebrekk" />
		<tag k="place" v="locality" />
		<tag k="ssr:stedsnr" v="909637" />
	</node>
	<node lat="59.19674722073394" lon="5.305480556051797" id="-5728">
		<tag k="name" v="Geithaugsmyr" />
		<tag k="natural" v="wetland" />
		<tag k="ssr:stedsnr" v="909689" />
	</node>
	<node lat="59.34069722136141" lon="5.232188887580151" id="-5730">
		<tag k="name" v="Samsamyr" />
		<tag k="natural" v="wetland" />
		<tag k="ssr:stedsnr" v="909723" />
	</node>
	<node lat="59.2542777769277" lon="5.2626861033445085" id="-5731">
		<tag k="historic" v="shieling" />
		<tag k="name" v="Martasetrå" />
		<tag k="place" v="locality" />
		<tag k="ssr:stedsnr" v="909727" />
	</node>
	<node lat="59.352655652158376" lon="5.286776624785437" id="-5738">
		<tag k="name" v="Fantaskar" />
		<tag k="place" v="locality" />
		<tag k="ssr:stedsnr" v="910786" />
	</node>
	<node lat="59.228675001920415" lon="5.2529305608657735" id="-5751">
		<tag k="name" v="Gardsendane" />
		<tag k="natural" v="wetland" />
		<tag k="ssr:stedsnr" v="848877" />
	</node>
	<node lat="59.202924999855455" lon="5.190975004751963" id="-5763">
		<tag k="name" v="Rotamyr" />
		<tag k="natural" v="wetland" />
		<tag k="ssr:stedsnr" v="849613" />
	</node>
	<node lat="59.25378055799658" lon="5.303391667920931" id="-5829">
		<tag k="name" v="Bukkevardsmyr" />
		<tag k="natural" v="wetland" />
		<tag k="ssr:stedsnr" v="909568" />
	</node>
	<node lat="59.19401111311986" lon="5.2275055561619865" id="-5831">
		<tag k="name" v="Vondemyr" />
		<tag k="natural" v="wetland" />
		<tag k="ssr:stedsnr" v="909617" />
	</node>
	<node lat="59.177086112163636" lon="5.264819450607474" id="-5838">
		<tag k="name" v="Kvitamyr" />
		<tag k="natural" v="wetland" />
		<tag k="ssr:stedsnr" v="909774" />
	</node>
	<node lat="59.279913892935845" lon="5.2143749966339845" id="-5839">
		<tag k="name" v="Maramyra" />
		<tag k="natural" v="wetland" />
		<tag k="ssr:stedsnr" v="909775" />
	</node>
	<node lat="59.24451110655153" lon="5.314766662726972" id="-5893">
		<tag k="name" v="Pikhaugmyrane" />
		<tag k="natural" v="wetland" />
		<tag k="ssr:stedsnr" v="970219" />
	</node>
	<node lat="59.27508333405582" lon="5.284463884631258" id="-5899">
		<tag k="name" v="Litle" />
		<tag k="natural" v="wetland" />
		<tag k="ssr:stedsnr" v="970137" />
	</node>
	<node lat="59.16948055776188" lon="5.29555555471993" id="-5905">
		<tag k="name" v="Storemyr" />
		<tag k="natural" v="wetland" />
		<tag k="ssr:stedsnr" v="970498" />
	</node>
	<node lat="59.16988333600716" lon="5.289505549158126" id="-5910">
		<tag k="name" v="Buskhaugsmyr" />
		<tag k="natural" v="wetland" />
		<tag k="ssr:stedsnr" v="970503" />
	</node>
	<node lat="59.26010277420449" lon="5.213205555723103" id="-6312">
		<tag k="landuse" v="meadow" />
		<tag k="name" v="Oddabakken" />
		<tag k="ssr:stedsnr" v="60024" />
	</node>
	<node lat="59.31224721927112" lon="5.241652786319495" id="-6315">
		<tag k="name" v="Kyrkjemyra" />
		<tag k="natural" v="wetland" />
		<tag k="ssr:stedsnr" v="60297" />
	</node>
	<node lat="59.16415000140543" lon="5.209683340551905" id="-6322">
		<tag k="name" v="Skalkamyr" />
		<tag k="natural" v="wetland" />
		<tag k="ssr:stedsnr" v="60015" />
	</node>
	<node lat="59.30419444110008" lon="5.2773138864057385" id="-6385">
		<tag k="name" v="Grullehaugmyr" />
		<tag k="natural" v="wetland" />
		<tag k="ssr:stedsnr" v="120061" />
	</node>
	<node lat="59.329247224014836" lon="5.241358329455215" id="-6393">
		<tag k="name" v="Kvigefjellsmyr" />
		<tag k="natural" v="wetland" />
		<tag k="ssr:stedsnr" v="120466" />
	</node>
	<node lat="59.25897222409701" lon="5.293472221497417" id="-6397">
		<tag k="name" v="Saramyr" />
		<tag k="natural" v="wetland" />
		<tag k="ssr:stedsnr" v="120490" />
	</node>
	<node lat="59.198441666141896" lon="5.271633331065553" id="-6398">
		<tag k="name" v="Åkramyra" />
		<tag k="natural" v="wetland" />
		<tag k="ssr:stedsnr" v="120674" />
	</node>
	<node lat="59.2521166640646" lon="5.305327773536866" id="-6401">
		<tag k="name" v="Skutemyr" />
		<tag k="natural" v="wetland" />
		<tag k="ssr:stedsnr" v="120536" />
	</node>
	<node lat="59.271005558193764" lon="5.2324166730520085" id="-6411">
		<tag k="name" v="Bulegdne" />
		<tag k="place" v="locality" />
		<tag k="ssr:stedsnr" v="120753" />
	</node>
	<node lat="59.34153055656812" lon="5.3549833278366" id="-6417">
		<tag k="name" v="Nygård" />
		<tag k="place" v="locality" />
		<tag k="ssr:stedsnr" v="120792" />
	</node>
	<node lat="59.38285555777863" lon="5.1559527734399655" id="-6447">
		<tag k="name" v="Reiarsmyr" />
		<tag k="natural" v="wetland" />
		<tag k="ssr:stedsnr" v="147795" />
	</node>
	<node lat="59.14528611549988" lon="5.270983331333173" id="-6464">
		<tag k="name" v="Urå" />
		<tag k="natural" v="scree" />
		<tag k="ssr:stedsnr" v="179749" />
	</node>
	<node lat="59.20673333737051" lon="5.275847223188446" id="-6484">
		<tag k="name" v="Skåremyra" />
		<tag k="natural" v="wetland" />
		<tag k="ssr:stedsnr" v="181642" />
	</node>
	<node lat="59.23796111227898" lon="5.253297218885702" id="-6492">
		<tag k="name" v="Jarbastemyra" />
		<tag k="natural" v="wetland" />
		<tag k="ssr:stedsnr" v="181899" />
	</node>
	<node lat="59.389238892828004" lon="5.333166664736909" id="-6554">
		<tag k="name" v="Kinnestein" />
		<tag k="natural" v="stone" />
		<tag k="ssr:stedsnr" v="269533" />
	</node>
	<node lat="59.20501388731245" lon="5.253511102575462" id="-6580">
		<tag k="name" v="Kyrkjemyra" />
		<tag k="natural" v="wetland" />
		<tag k="ssr:stedsnr" v="302230" />
	</node>
	<node lat="59.326055554672834" lon="5.210030564350029" id="-6582">
		<tag k="name" v="Djuramyr" />
		<tag k="natural" v="wetland" />
		<tag k="ssr:stedsnr" v="302324" />
	</node>
	<node lat="59.266669443084155" lon="5.219288894884172" id="-6594">
		<tag k="name" v="Gauksteinen" />
		<tag k="natural" v="stone" />
		<tag k="ssr:stedsnr" v="302711" />
	</node>
	<node lat="59.15601666770694" lon="5.225813880212617" id="-6642">
		<tag k="name" v="Gamlamyr" />
		<tag k="natural" v="wetland" />
		<tag k="ssr:stedsnr" v="362539" />
	</node>
	<node lat="59.30178333582448" lon="5.2522305505004825" id="-6650">
		<tag k="name" v="Bleikamyr" />
		<tag k="natural" v="wetland" />
		<tag k="ssr:stedsnr" v="363236" />
	</node>
	<node lat="59.20719444899769" lon="5.305138891000968" id="-6663">
		<tag k="name" v="Kromyr" />
		<tag k="natural" v="wetland" />
		<tag k="ssr:stedsnr" v="363590" />
	</node>
	<node lat="59.21366944228986" lon="5.3135027758511475" id="-6664">
		<tag k="name" v="Buttermyra" />
		<tag k="natural" v="wetland" />
		<tag k="ssr:stedsnr" v="363592" />
	</node>
	<node lat="59.25499166240375" lon="5.216194444767356" id="-6669">
		<tag k="name" v="Jenterolmyrå" />
		<tag k="natural" v="wetland" />
		<tag k="ssr:stedsnr" v="363692" />
	</node>
	<node lat="59.38503055542235" lon="5.3598166695066185" id="-6712">
		<tag k="name" v="Gamlemyr" />
		<tag k="natural" v="wetland" />
		<tag k="ssr:stedsnr" v="390482" />
	</node>
	<node lat="59.30353333638221" lon="5.287580558627857" id="-6734">
		<tag k="name" v="Reidarsplassen" />
		<tag k="place" v="locality" />
		<tag k="ssr:stedsnr" v="424043" />
	</node>
	<node lat="59.19790277465378" lon="5.207955548254286" id="-6750">
		<tag k="name" v="Gamlemyr" />
		<tag k="natural" v="wetland" />
		<tag k="ssr:stedsnr" v="424543" />
	</node>
	<node lat="59.318855555788055" lon="5.222986107458074" id="-6784">
		<tag k="name" v="Bussemyr" />
		<tag k="natural" v="wetland" />
		<tag k="ssr:stedsnr" v="484286" />
	</node>
	<node lat="59.26191111560456" lon="5.27143333663181" id="-6794">
		<tag k="name" v="Beinedalsmyr" />
		<tag k="natural" v="wetland" />
		<tag k="ssr:stedsnr" v="484547" />
	</node>
	<node lat="59.27684167017893" lon="5.252991664798541" id="-6816">
		<tag k="historic" v="shieling" />
		<tag k="name" v="Høgestølen" />
		<tag k="place" v="locality" />
		<tag k="ssr:stedsnr" v="484739" />
	</node>
	<node lat="59.271036106906195" lon="5.219188888758891" id="-6818">
		<tag k="name" v="Meren" />
		<tag k="natural" v="wetland" />
		<tag k="ssr:stedsnr" v="484742" />
	</node>
	<node lat="59.389530554736666" lon="5.351583326275771" id="-6851">
		<tag k="name" v="Stampamyr" />
		<tag k="natural" v="wetland" />
		<tag k="ssr:stedsnr" v="512562" />
	</node>
	<node lat="59.33245555285524" lon="5.227947231036659" id="-6866">
		<tag k="name" v="Breiemyr" />
		<tag k="natural" v="wetland" />
		<tag k="ssr:stedsnr" v="545439" />
	</node>
	<node lat="59.288838885837976" lon="5.263830563881382" id="-6882">
		<tag k="name" v="Skidmyr" />
		<tag k="natural" v="wetland" />
		<tag k="ssr:stedsnr" v="545763" />
	</node>
	<node lat="59.17050277829643" lon="5.304322229859075" id="-6946">
		<tag k="name" v="Eikjedalsmyra" />
		<tag k="natural" v="wetland" />
		<tag k="ssr:stedsnr" v="605379" />
	</node>
	<node lat="59.28913889309598" lon="5.287447230243506" id="-6957">
		<tag k="name" v="Stemmemyr" />
		<tag k="natural" v="wetland" />
		<tag k="ssr:stedsnr" v="605682" />
	</node>
	<node lat="59.20265555702873" lon="5.2051861090164655" id="-6960">
		<tag k="name" v="Lysemyr" />
		<tag k="natural" v="wetland" />
		<tag k="ssr:stedsnr" v="605555" />
	</node>
	<node lat="59.191466662822855" lon="5.233305563547974" id="-6962">
		<tag k="name" v="Storamyr" />
		<tag k="natural" v="wetland" />
		<tag k="ssr:stedsnr" v="605627" />
	</node>
	<node lat="59.15388333270343" lon="5.287022228305676" id="-6963">
		<tag k="name" v="Grønnemyr" />
		<tag k="natural" v="wetland" />
		<tag k="ssr:stedsnr" v="605639" />
	</node>
	<node lat="59.24262222541991" lon="5.298547225571465" id="-7031">
		<tag k="landuse" v="quarry" />
		<tag k="name" v="Kopperkisgruva" />
		<tag k="ssr:stedsnr" v="727658" />
	</node>
	<node lat="59.34764166747257" lon="5.223358335175651" id="-7036">
		<tag k="name" v="Kjerrekrene" />
		<tag k="natural" v="wetland" />
		<tag k="ssr:stedsnr" v="727747" />
	</node>
	<node lat="59.28073055525911" lon="5.238508330627534" id="-7038">
		<tag k="name" v="Veamyra" />
		<tag k="natural" v="wetland" />
		<tag k="ssr:stedsnr" v="727759" />
	</node>
	<node lat="59.25410555606229" lon="5.3145194418483195" id="-7111">
		<tag k="name" v="Stølsmyr" />
		<tag k="natural" v="wetland" />
		<tag k="ssr:stedsnr" v="788538" />
	</node>
	<node lat="59.20386666590743" lon="5.2764749946305525" id="-7122">
		<tag k="name" v="Natterhuksmyra" />
		<tag k="natural" v="wetland" />
		<tag k="ssr:stedsnr" v="790086" />
	</node>
	<node lat="59.21831666280727" lon="5.259977784939548" id="-7124">
		<tag k="name" v="Stiklemyra" />
		<tag k="natural" v="wetland" />
		<tag k="ssr:stedsnr" v="790092" />
	</node>
	<node lat="59.37870277464756" lon="5.156752777866569" id="-7157">
		<tag k="name" v="Hedle" />
		<tag k="place" v="locality" />
		<tag k="ssr:stedsnr" v="815820" />
	</node>
	<node lat="59.38012222273401" lon="5.156883336075422" id="-7158">
		<tag k="name" v="Røyrmyr" />
		<tag k="natural" v="wetland" />
		<tag k="ssr:stedsnr" v="815821" />
	</node>
	<node lat="59.16557777510023" lon="5.199774991666092" id="-7166">
		<tag k="name" v="Tuemyr" />
		<tag k="natural" v="wetland" />
		<tag k="ssr:stedsnr" v="849024" />
	</node>
	<node lat="59.16851666772588" lon="5.256966663051006" id="-7177">
		<tag k="name" v="Stongemyrane" />
		<tag k="natural" v="wetland" />
		<tag k="ssr:stedsnr" v="849153" />
	</node>
	<node lat="59.21126111531894" lon="5.263169435739974" id="-7181">
		<tag k="name" v="Raunamyr" />
		<tag k="natural" v="wetland" />
		<tag k="ssr:stedsnr" v="849238" />
	</node>
	<node lat="59.349491663824935" lon="5.231672227890829" id="-7193">
		<tag k="landuse" v="quarry" />
		<tag k="name" v="Vigsnes kobberverk" />
		<tag k="ssr:stedsnr" v="849751" />
	</node>
	<node lat="59.25863611471149" lon="5.224005553713529" id="-7195">
		<tag k="historic" v="shieling" />
		<tag k="name" v="Oppigårdstølen" />
		<tag k="place" v="locality" />
		<tag k="ssr:stedsnr" v="849760" />
	</node>
	<node lat="59.19433888988192" lon="5.2053527758249745" id="-7206">
		<tag k="name" v="Kvitemyr" />
		<tag k="natural" v="wetland" />
		<tag k="ssr:stedsnr" v="851101" />
	</node>
	<node lat="59.22567778022707" lon="5.3176250030971275" id="-7277">
		<tag k="name" v="Gapesteinen" />
		<tag k="natural" v="stone" />
		<tag k="ssr:stedsnr" v="969675" />
	</node>
	<node lat="59.21504444641047" lon="5.207297218166902" id="-7279">
		<tag k="name" v="Storemyr" />
		<tag k="natural" v="wetland" />
		<tag k="ssr:stedsnr" v="969320" />
	</node>
	<node lat="59.15976672803086" lon="5.247127402518449" id="-7281">
		<tag k="name" v="Skeismyr" />
		<tag k="natural" v="wetland" />
		<tag k="ssr:stedsnr" v="969563" />
	</node>
	<node lat="59.15940555971102" lon="5.263072213073127" id="-7283">
		<tag k="name" v="Bergemyr" />
		<tag k="natural" v="wetland" />
		<tag k="ssr:stedsnr" v="970056" />
	</node>
</osm>
