<?xml version="1.0" encoding="UTF-8"?>
<osm version="0.6" generator="osmapis">
	<node lat="59.22248611546364" lon="5.232511115996615" id="-4601">
		<tag k="name" v="Tretjørnane" />
		<tag k="natural" v="water" />
		<tag k="ssr:stedsnr" v="1007" />
		<tag k="water" v="lake" />
	</node>
	<node lat="59.22693610665714" lon="5.2887805539949655" id="-4602">
		<tag k="alt_name" v="Himra Mjåvatn" />
		<tag k="name" v="Heimra Mjåvatnet" />
		<tag k="natural" v="water" />
		<tag k="ssr:stedsnr" v="1010" />
	</node>
	<node lat="59.272070487675485" lon="5.226995703992285" id="-4616">
		<tag k="name" v="Heiavatnet" />
		<tag k="natural" v="water" />
		<tag k="ssr:stedsnr" v="2911" />
		<tag k="water" v="lake" />
	</node>
	<node lat="59.229469444588396" lon="5.283102785970675" id="-4666">
		<tag k="alt_name" v="Mjåvatnet, vestra;Vestra Mjåvatn" />
		<tag k="name" v="Vestra Mjåvatnet" />
		<tag k="natural" v="water" />
		<tag k="ssr:stedsnr" v="62009" />
	</node>
	<node lat="59.21595555927581" lon="5.251344438236015" id="-4667">
		<tag k="name" v="Revsåna" />
		<tag k="ssr:stedsnr" v="62015" />
		<tag k="waterway" v="stream" />
	</node>
	<node lat="59.19527155494425" lon="5.243119164959872" id="-4671">
		<tag k="alt_name" v="Mjåvatn" />
		<tag k="name" v="Mjåvatnet" />
		<tag k="natural" v="water" />
		<tag k="ssr:stedsnr" v="62084" />
		<tag k="water" v="lake" />
	</node>
	<node lat="59.223502780740155" lon="5.291661104593401" id="-4716">
		<tag k="alt_name" v="Mjåvatnet, litla;Litla Mjåvatn" />
		<tag k="name" v="Litla Mjåvatnet" />
		<tag k="natural" v="water" />
		<tag k="ssr:stedsnr" v="123119" />
		<tag k="water" v="lake" />
	</node>
	<node lat="59.34444444702626" lon="5.339444445982684" id="-4719">
		<tag k="name" v="Tuastadvatnet" />
		<tag k="natural" v="water" />
		<tag k="ssr:stedsnr" v="123567" />
		<tag k="water" v="lake" />
	</node>
	<node lat="59.261888891613864" lon="5.220691662296346" id="-4724">
		<tag k="alt_name" v="Killingtjørn" />
		<tag k="name" v="Killingtjørna" />
		<tag k="natural" v="water" />
		<tag k="ssr:stedsnr" v="123911" />
	</node>
	<node lat="59.26541314467136" lon="5.1988462178281445" id="-4725">
		<tag k="fixme" v="multiple name tags, choose one and add the other to alt_name" />
		<tag k="name" v="Tjøsvollvatnet;Tveitvatnet" />
		<tag k="natural" v="water" />
		<tag k="ssr:stedsnr" v="123912" />
		<tag k="water" v="lake" />
	</node>
	<node lat="59.29499042274481" lon="5.276756725113733" id="-4727">
		<tag k="alt_name" v="Fotvatnet, store;Store Fotvatnet;Fotvatn" />
		<tag k="name" v="Stora Fotvatnet" />
		<tag k="natural" v="water" />
		<tag k="ssr:stedsnr" v="123956" />
		<tag k="water" v="lake" />
	</node>
	<node lat="59.31975833183533" lon="5.2274750033806585" id="-4747">
		<tag k="name" v="Litlestemmen" />
		<tag k="natural" v="water" />
		<tag k="ssr:stedsnr" v="242278" />
	</node>
	<node lat="59.35529444886563" lon="5.350900000026429" id="-4764">
		<tag k="name" v="Solbergsvatnet" />
		<tag k="natural" v="water" />
		<tag k="ssr:stedsnr" v="242775" />
	</node>
	<node lat="59.33485000116566" lon="5.264224992751299" id="-4778">
		<tag k="name" v="Fiskåvatnet" />
		<tag k="natural" v="water" />
		<tag k="ssr:stedsnr" v="244563" />
		<tag k="water" v="lake" />
	</node>
	<node lat="59.31822777694221" lon="5.344572216471749" id="-4797">
		<tag k="name" v="Leirvågsvatnet" />
		<tag k="natural" v="water" />
		<tag k="ssr:stedsnr" v="181206" />
		<tag k="water" v="lake" />
	</node>
	<node lat="59.207095128008774" lon="5.23421162715561" id="-4830">
		<tag k="alt_name" v="Holmavatnet, yt;Store Holmevatn" />
		<tag k="name" v="Ytra Holmavatnet" />
		<tag k="natural" v="water" />
		<tag k="ssr:stedsnr" v="184119" />
		<tag k="water" v="lake" />
	</node>
	<node lat="59.22044166583767" lon="5.305969443642269" id="-4831">
		<tag k="alt_name" v="Varatjørn" />
		<tag k="name" v="Vardatjørna" />
		<tag k="natural" v="water" />
		<tag k="ssr:stedsnr" v="184092" />
	</node>
	<node lat="59.25198888939235" lon="5.18846110965786" id="-4855">
		<tag k="name" v="Åkrasanden" />
		<tag k="natural" v="beach" />
		<tag k="ssr:stedsnr" v="241699" />
	</node>
	<node lat="59.29278333173686" lon="5.268122222675303" id="-4858">
		<tag k="name" v="Janastemmen" />
		<tag k="natural" v="water" />
		<tag k="ssr:stedsnr" v="242041" />
	</node>
	<node lat="59.211405551232836" lon="5.299636111521626" id="-4885">
		<tag k="alt_name" v="Holmavatn" />
		<tag k="name" v="Holmavatnet" />
		<tag k="natural" v="water" />
		<tag k="ssr:stedsnr" v="244107" />
		<tag k="water" v="lake" />
	</node>
	<node lat="59.18386666746766" lon="5.274641663057552" id="-4887">
		<tag k="alt_name" v="Hilleslandvatnet;Hilleslandvatn" />
		<tag k="name" v="Hilleslandsvatnet" />
		<tag k="natural" v="water" />
		<tag k="ssr:stedsnr" v="244101" />
		<tag k="water" v="lake" />
	</node>
	<node lat="59.34219300467341" lon="5.208313631071845" id="-4944">
		<tag k="name" v="Stogdalsvatnet" />
		<tag k="natural" v="water" />
		<tag k="ssr:stedsnr" v="302736" />
		<tag k="water" v="lake" />
	</node>
	<node lat="59.19798344155272" lon="5.229532201423212" id="-4955">
		<tag k="alt_name" v="Reidarsløkjene" />
		<tag k="name" v="Reidarsløkjane" />
		<tag k="natural" v="water" />
		<tag k="ssr:stedsnr" v="304094" />
	</node>
	<node lat="59.22047222595707" lon="5.249691674381157" id="-5003">
		<tag k="name" v="Dåva" />
		<tag k="natural" v="water" />
		<tag k="ssr:stedsnr" v="363220" />
		<tag k="water" v="lake" />
	</node>
	<node lat="59.35391110842713" lon="5.233452773527429" id="-5015">
		<tag k="name" v="Nordre Visnesvatnet" />
		<tag k="natural" v="water" />
		<tag k="ssr:stedsnr" v="363703" />
	</node>
	<node lat="59.171619447578315" lon="5.247641658506946" id="-5020">
		<tag k="alt_name" v="Ilsvatn" />
		<tag k="name" v="Ilsvatnet" />
		<tag k="natural" v="water" />
		<tag k="ssr:stedsnr" v="365426" />
		<tag k="water" v="lake" />
	</node>
	<node lat="59.21984496063092" lon="5.275645745320906" id="-5025">
		<tag k="alt_name" v="Stiklevatn" />
		<tag k="name" v="Stiklevatnet" />
		<tag k="natural" v="water" />
		<tag k="old_name" v="Stiklavatnet" />
		<tag k="ssr:stedsnr" v="366102" />
		<tag k="water" v="lake" />
	</node>
	<node lat="59.215133413107395" lon="5.304634043862191" id="-5026">
		<tag k="alt_name" v="Tømmerviksvatn" />
		<tag k="name" v="Tømmervikvatnet" />
		<tag k="natural" v="water" />
		<tag k="ssr:stedsnr" v="366100" />
		<tag k="water" v="lake" />
	</node>
	<node lat="59.31104444658224" lon="5.363008329100449" id="-5029">
		<tag k="name" v="Lysvatnet" />
		<tag k="natural" v="water" />
		<tag k="ssr:stedsnr" v="366943" />
	</node>
	<node lat="59.32485983812074" lon="5.231436639401795" id="-5031">
		<tag k="alt_name" v="Kvalavågtjørna;Kvalavågstjønna" />
		<tag k="name" v="Kvalavågstjørna" />
		<tag k="natural" v="water" />
		<tag k="ssr:stedsnr" v="366997" />
	</node>
	<node lat="59.27041111079743" lon="5.283552776833886" id="-5078">
		<tag k="name" v="Storestemmen" />
		<tag k="natural" v="water" />
		<tag k="ssr:stedsnr" v="424645" />
	</node>
	<node lat="59.2297638874932" lon="5.268844452050305" id="-5086">
		<tag k="name" v="Vaulen" />
		<tag k="natural" v="water" />
		<tag k="ssr:stedsnr" v="426009" />
	</node>
	<node lat="59.18113989112974" lon="5.249737345123805" id="-5088">
		<tag k="alt_name" v="Røyningsvatn" />
		<tag k="name" v="Røyningsvatnet" />
		<tag k="natural" v="water" />
		<tag k="ssr:stedsnr" v="426072" />
		<tag k="water" v="lake" />
	</node>
	<node lat="59.1977194464322" lon="5.262705562133468" id="-5090">
		<tag k="alt_name" v="Homravatn" />
		<tag k="name" v="Hamravatnet" />
		<tag k="natural" v="water" />
		<tag k="ssr:stedsnr" v="426110" />
	</node>
	<node lat="59.19869999585348" lon="5.22302499487324" id="-5091">
		<tag k="name" v="Butjørn" />
		<tag k="natural" v="water" />
		<tag k="ssr:stedsnr" v="426113" />
	</node>
	<node lat="59.21630886113139" lon="5.210447462440834" id="-5133">
		<tag k="name" v="Talastemmen" />
		<tag k="natural" v="water" />
		<tag k="ssr:stedsnr" v="666317" />
	</node>
	<node lat="59.169266665096444" lon="5.28372499697412" id="-5136">
		<tag k="name" v="Heggheimsstemmmen" />
		<tag k="natural" v="water" />
		<tag k="ssr:stedsnr" v="666390" />
	</node>
	<node lat="59.2077138878864" lon="5.247377779303886" id="-5163">
		<tag k="name" v="Skukketjødna" />
		<tag k="natural" v="water" />
		<tag k="ssr:stedsnr" v="484218" />
	</node>
	<node lat="59.346516667702446" lon="5.237316670071029" id="-5179">
		<tag k="name" v="Røvik" />
		<tag k="natural" v="bay" />
		<tag k="ssr:stedsnr" v="484708" />
	</node>
	<node lat="59.20463578786626" lon="5.225445528547171" id="-5197">
		<tag k="name" v="Nøkksvatnet" />
		<tag k="natural" v="water" />
		<tag k="ssr:stedsnr" v="487114" />
		<tag k="water" v="lake" />
	</node>
	<node lat="59.25495940801458" lon="5.278405468758295" id="-5207">
		<tag k="alt_name" v="Oskereidvatn" />
		<tag k="name" v="Oskreivatnet" />
		<tag k="natural" v="water" />
		<tag k="ssr:stedsnr" v="487903" />
		<tag k="water" v="lake" />
	</node>
	<node lat="59.31601389316218" lon="5.442644437598366" id="-5212">
		<tag k="alt_name" v="Vadvatnet, nordre;Vadvatnet;nordra Vavatnet" />
		<tag k="name" v="Nordre Vadvatnet" />
		<tag k="natural" v="water" />
		<tag k="ssr:stedsnr" v="488956" />
		<tag k="water" v="lake" />
	</node>
	<node lat="59.17595000013738" lon="5.245344436252067" id="-5220">
		<tag k="alt_name" v="Rotatjørn" />
		<tag k="name" v="Rotatjørna" />
		<tag k="natural" v="water" />
		<tag k="ssr:stedsnr" v="669430" />
	</node>
	<node lat="59.2227499973735" lon="5.232063889378738" id="-5259">
		<tag k="name" v="Trekjødnane" />
		<tag k="natural" v="water" />
		<tag k="ssr:stedsnr" v="545227" />
	</node>
	<node lat="59.24145277728058" lon="5.282847217658078" id="-5267">
		<tag k="name" v="Revadalsvatn" />
		<tag k="natural" v="water" />
		<tag k="ssr:stedsnr" v="545626" />
	</node>
	<node lat="59.346036110860226" lon="5.23502777333442" id="-5269">
		<tag k="name" v="Rovikneset" />
		<tag k="natural" v="cape" />
		<tag k="ssr:stedsnr" v="545696" />
	</node>
	<node lat="59.184786114294965" lon="5.2923055524391405" id="-5276">
		<tag k="name" v="Kvernabekken" />
		<tag k="ssr:stedsnr" v="547088" />
		<tag k="waterway" v="stream" />
	</node>
	<node lat="59.171711114908156" lon="5.221347219905795" id="-5336">
		<tag k="name" v="Liastemmen" />
		<tag k="natural" v="water" />
		<tag k="ssr:stedsnr" v="608417" />
	</node>
	<node lat="59.32488581513205" lon="5.251392934760736" id="-5343">
		<tag k="alt_name" v="Rotatjønn" />
		<tag k="name" v="Rotatjørna" />
		<tag k="natural" v="water" />
		<tag k="ssr:stedsnr" v="608996" />
	</node>
	<node lat="59.27145833014716" lon="5.3563305635977" id="-5344">
		<tag k="name" v="Krokanesvatnet" />
		<tag k="natural" v="water" />
		<tag k="ssr:stedsnr" v="609902" />
		<tag k="water" v="lake" />
	</node>
	<node lat="59.36044658222479" lon="5.344749852529004" id="-5357">
		<tag k="name" v="Longavatnet" />
		<tag k="natural" v="water" />
		<tag k="ssr:stedsnr" v="633085" />
		<tag k="water" v="lake" />
	</node>
	<node lat="59.244807208055775" lon="5.282229840322536" id="-5405">
		<tag k="alt_name" v="Ørnareirstjødn" />
		<tag k="name" v="Ørnareirsvatnet" />
		<tag k="natural" v="water" />
		<tag k="ssr:stedsnr" v="668043" />
		<tag k="water" v="lake" />
	</node>
	<node lat="59.20418333753011" lon="5.218052785300532" id="-5406">
		<tag k="name" v="Litlavatnet" />
		<tag k="natural" v="water" />
		<tag k="ssr:stedsnr" v="669114" />
		<tag k="water" v="lake" />
	</node>
	<node lat="59.164452778275276" lon="5.258477773644031" id="-5408">
		<tag k="alt_name" v="Litlavatn" />
		<tag k="name" v="Litlavatnet" />
		<tag k="natural" v="water" />
		<tag k="ssr:stedsnr" v="669440" />
	</node>
	<node lat="59.36185277387238" lon="5.254624995324064" id="-5425">
		<tag k="name" v="Skiftesbekken" />
		<tag k="ssr:stedsnr" v="694812" />
		<tag k="waterway" v="stream" />
	</node>
	<node lat="59.317291669448736" lon="5.228311113198879" id="-5446">
		<tag k="name" v="Knultadåven" />
		<tag k="natural" v="water" />
		<tag k="ssr:stedsnr" v="727307" />
	</node>
	<node lat="59.28265000429041" lon="5.276525003250234" id="-5464">
		<tag k="name" v="Øygardstjødna" />
		<tag k="natural" v="water" />
		<tag k="ssr:stedsnr" v="727681" />
	</node>
	<node lat="59.27163333174562" lon="5.271352779785743" id="-5465">
		<tag k="name" v="Ytreeidsløken" />
		<tag k="natural" v="water" />
		<tag k="ssr:stedsnr" v="727688" />
		<tag k="water" v="lake" />
	</node>
	<node lat="59.19662222137974" lon="5.284394435852372" id="-5466">
		<tag k="name" v="Kuneset" />
		<tag k="natural" v="cape" />
		<tag k="ssr:stedsnr" v="727697" />
	</node>
	<node lat="59.25581666471162" lon="5.245577783767766" id="-5467">
		<tag k="name" v="Svartatjørna" />
		<tag k="natural" v="water" />
		<tag k="ssr:stedsnr" v="727728" />
		<tag k="water" v="lake" />
	</node>
	<node lat="59.24953055473361" lon="5.251341665751984" id="-5468">
		<tag k="name" v="Vadet" />
		<tag k="natural" v="cape" />
		<tag k="ssr:stedsnr" v="727730" />
	</node>
	<node lat="59.27375700287355" lon="5.2364380204337335" id="-5470">
		<tag k="name" v="Haringstadstemmen" />
		<tag k="natural" v="water" />
		<tag k="ssr:stedsnr" v="727775" />
	</node>
	<node lat="59.23293611237946" lon="5.180061118058517" id="-5478">
		<tag k="name" v="Stavasanden" />
		<tag k="natural" v="beach" />
		<tag k="ssr:stedsnr" v="729021" />
	</node>
	<node lat="59.213588885614975" lon="5.245347217842576" id="-5481">
		<tag k="alt_name" v="Sandvatn" />
		<tag k="name" v="Sandvatnet" />
		<tag k="natural" v="water" />
		<tag k="ssr:stedsnr" v="730012" />
		<tag k="water" v="lake" />
	</node>
	<node lat="59.206119446429746" lon="5.239855556256035" id="-5482">
		<tag k="name" v="Mattisbekken" />
		<tag k="ssr:stedsnr" v="730112" />
		<tag k="waterway" v="stream" />
	</node>
	<node lat="59.33158055500147" lon="5.234830563393901" id="-5484">
		<tag k="name" v="Grodvatnet" />
		<tag k="natural" v="water" />
		<tag k="ssr:stedsnr" v="730565" />
		<tag k="water" v="lake" />
	</node>
	<node lat="59.33772407292796" lon="5.214073189501842" id="-5499">
		<tag k="name" v="Torestemmen" />
		<tag k="natural" v="water" />
		<tag k="ssr:stedsnr" v="731970" />
	</node>
	<node lat="59.33938207999405" lon="5.224711749494507" id="-5510">
		<tag k="name" v="Johannesvatnet" />
		<tag k="natural" v="water" />
		<tag k="ssr:stedsnr" v="754660" />
	</node>
	<node lat="59.3715083334668" lon="5.284777770806837" id="-5516">
		<tag k="name" v="Bøvatn" />
		<tag k="natural" v="water" />
		<tag k="ssr:stedsnr" v="755899" />
		<tag k="water" v="lake" />
	</node>
	<node lat="59.220711107540666" lon="5.221308329371573" id="-5550">
		<tag k="name" v="Tverrbekken" />
		<tag k="ssr:stedsnr" v="790008" />
		<tag k="waterway" v="stream" />
	</node>
	<node lat="59.39401944130889" lon="5.34184444436332" id="-5555">
		<tag k="name" v="Vassbrekkevatnet" />
		<tag k="natural" v="water" />
		<tag k="ssr:stedsnr" v="790610" />
	</node>
	<node lat="59.328519443834544" lon="5.262775000615783" id="-5558">
		<tag k="name" v="Kolstøåna" />
		<tag k="ssr:stedsnr" v="790996" />
		<tag k="waterway" v="stream" />
	</node>
	<node lat="59.375025002197106" lon="5.3592611154579775" id="-5577">
		<tag k="name" v="Aksneselva" />
		<tag k="ssr:stedsnr" v="816089" />
		<tag k="waterway" v="river" />
	</node>
	<node lat="59.32175833442685" lon="5.264716670605694" id="-5602">
		<tag k="name" v="Grasvatnet" />
		<tag k="natural" v="water" />
		<tag k="ssr:stedsnr" v="909318" />
	</node>
	<node lat="59.179941670206844" lon="5.284808335946289" id="-5606">
		<tag k="name" v="Lyngtjørna" />
		<tag k="natural" v="water" />
		<tag k="ssr:stedsnr" v="909715" />
	</node>
	<node lat="59.23096944370723" lon="5.227875006626683" id="-5621">
		<tag k="name" v="Røyrmyrå" />
		<tag k="ssr:stedsnr" v="909891" />
		<tag k="waterway" v="stream" />
	</node>
	<node lat="59.254066189057056" lon="5.252912682273028" id="-5624">
		<tag k="name" v="Vaulen" />
		<tag k="natural" v="water" />
		<tag k="ssr:stedsnr" v="910730" />
		<tag k="water" v="lake" />
	</node>
	<node lat="59.224349999074754" lon="5.3052666740818655" id="-5629">
		<tag k="alt_name" v="Røyningsvatn" />
		<tag k="name" v="Røyningsvatnet" />
		<tag k="natural" v="water" />
		<tag k="ssr:stedsnr" v="911001" />
		<tag k="water" v="lake" />
	</node>
	<node lat="59.195233330427726" lon="5.2863361189230345" id="-5631">
		<tag k="name" v="Dalsvatnet" />
		<tag k="natural" v="water" />
		<tag k="ssr:stedsnr" v="911093" />
		<tag k="water" v="lake" />
	</node>
	<node lat="59.16256388474626" lon="5.214727769982874" id="-5640">
		<tag k="name" v="Stuttånå" />
		<tag k="ssr:stedsnr" v="849032" />
		<tag k="waterway" v="stream" />
	</node>
	<node lat="59.21030833489236" lon="5.224669450941382" id="-5642">
		<tag k="name" v="Holmavatsløkjene" />
		<tag k="place" v="locality" />
		<tag k="ssr:stedsnr" v="849233" />
	</node>
	<node lat="59.32813055724292" lon="5.236291665503121" id="-5648">
		<tag k="alt_name" v="Litle Rotetjønn" />
		<tag k="name" v="Litla Rotatjørna" />
		<tag k="natural" v="water" />
		<tag k="ssr:stedsnr" v="849490" />
	</node>
	<node lat="59.27099444054822" lon="5.252227779804797" id="-5659">
		<tag k="name" v="Rotatjødn" />
		<tag k="natural" v="water" />
		<tag k="ssr:stedsnr" v="849786" />
	</node>
	<node lat="59.22616389225472" lon="5.305594437891477" id="-5660">
		<tag k="name" v="Stemmen" />
		<tag k="natural" v="water" />
		<tag k="ssr:stedsnr" v="849676" />
	</node>
	<node lat="59.24783082094647" lon="5.3092836081671955" id="-5661">
		<tag k="name" v="Melstokkåsternen" />
		<tag k="natural" v="water" />
		<tag k="ssr:stedsnr" v="849684" />
	</node>
	<node lat="59.19025278061067" lon="5.271649991315242" id="-5662">
		<tag k="name" v="Tjertnes" />
		<tag k="natural" v="cape" />
		<tag k="ssr:stedsnr" v="849692" />
	</node>
	<node lat="59.30038333365833" lon="5.243116674700332" id="-5684">
		<tag k="name" v="Storestemmen" />
		<tag k="natural" v="water" />
		<tag k="ssr:stedsnr" v="912948" />
	</node>
	<node lat="59.249127779843164" lon="5.313372229885909" id="-5715">
		<tag k="name" v="Melstokkåstemmen" />
		<tag k="natural" v="water" />
		<tag k="ssr:stedsnr" v="909564" />
	</node>
	<node lat="59.19969166442143" lon="5.231152772381472" id="-5719">
		<tag k="name" v="Ulvedalsbrunå" />
		<tag k="natural" v="bay" />
		<tag k="ssr:stedsnr" v="909620" />
	</node>
	<node lat="59.34741666727516" lon="5.235174992212488" id="-5722">
		<tag k="name" v="Vatnholmen" />
		<tag k="place" v="islet" />
		<tag k="ssr:stedsnr" v="909711" />
	</node>
	<node lat="59.20003888901553" lon="5.296294444323517" id="-5729">
		<tag k="alt_name" v="Kjigavatn" />
		<tag k="loc_name" v="Kidjavatnet" />
		<tag k="name" v="Kigjavatnet" />
		<tag k="natural" v="water" />
		<tag k="ssr:stedsnr" v="911107" />
		<tag k="water" v="lake" />
	</node>
	<node lat="59.216497221828696" lon="5.210202786047256" id="-5730">
		<tag k="name" v="Martaåna" />
		<tag k="ssr:stedsnr" v="911016" />
		<tag k="waterway" v="stream" />
	</node>
	<node lat="59.25001944181541" lon="5.194861108660044" id="-5769">
		<tag k="name" v="Medhaugsanden" />
		<tag k="natural" v="beach" />
		<tag k="ssr:stedsnr" v="969712" />
	</node>
	<node lat="59.20372777958662" lon="5.246711115558848" id="-5777">
		<tag k="name" v="Holmavasneset" />
		<tag k="natural" v="cape" />
		<tag k="ssr:stedsnr" v="970203" />
	</node>
	<node lat="59.26161111168059" lon="5.292744445205843" id="-5784">
		<tag k="name" v="Lomatjødn" />
		<tag k="natural" v="water" />
		<tag k="ssr:stedsnr" v="970002" />
	</node>
	<node lat="59.28849444074921" lon="5.345991664827679" id="-5785">
		<tag k="name" v="Litlavatnet" />
		<tag k="natural" v="water" />
		<tag k="ssr:stedsnr" v="970136" />
	</node>
	<node lat="59.291875945337345" lon="5.356023527724941" id="-5787">
		<tag k="name" v="Tjolandsvatnet" />
		<tag k="natural" v="water" />
		<tag k="ssr:stedsnr" v="970139" />
		<tag k="water" v="lake" />
	</node>
	<node lat="59.21934722427937" lon="5.295038892278696" id="-5789">
		<tag k="name" v="Stikletjørna" />
		<tag k="natural" v="bay" />
		<tag k="ssr:stedsnr" v="970202" />
	</node>
	<node lat="59.173447226394565" lon="5.287841665871263" id="-5793">
		<tag k="name" v="Kløvsteinstjørna" />
		<tag k="natural" v="water" />
		<tag k="ssr:stedsnr" v="970607" />
	</node>
	<node lat="59.300377781394246" lon="5.351358329140101" id="-6203">
		<tag k="name" v="Fosenvatnet" />
		<tag k="natural" v="water" />
		<tag k="ssr:stedsnr" v="59936" />
		<tag k="water" v="lake" />
	</node>
	<node lat="59.189280555521925" lon="5.2885583358371715" id="-6228">
		<tag k="name" v="Kvednabekken" />
		<tag k="ssr:stedsnr" v="60654" />
		<tag k="waterway" v="stream" />
	</node>
	<node lat="59.304005556634486" lon="5.358805563494261" id="-6248">
		<tag k="name" v="Steinsvatnet" />
		<tag k="natural" v="water" />
		<tag k="ssr:stedsnr" v="63950" />
		<tag k="water" v="lake" />
	</node>
	<node lat="59.20943333494381" lon="5.307438882933659" id="-6271">
		<tag k="name" v="Omundtjørna" />
		<tag k="natural" v="water" />
		<tag k="ssr:stedsnr" v="120632" />
	</node>
	<node lat="59.274805556173845" lon="5.2980527731499585" id="-6295">
		<tag k="name" v="Liartjødn" />
		<tag k="natural" v="water" />
		<tag k="ssr:stedsnr" v="120662" />
	</node>
	<node lat="59.27180277761027" lon="5.3115694454487095" id="-6296">
		<tag k="name" v="Stemmen" />
		<tag k="natural" v="water" />
		<tag k="ssr:stedsnr" v="120663" />
	</node>
	<node lat="59.27195555417866" lon="5.219930556433557" id="-6297">
		<tag k="name" v="Stemmen" />
		<tag k="natural" v="water" />
		<tag k="ssr:stedsnr" v="120746" />
	</node>
	<node lat="59.233145512225214" lon="5.300958833205436" id="-6306">
		<tag k="alt_name" v="Reiarsvatn" />
		<tag k="name" v="Reiarsvatnet" />
		<tag k="natural" v="water" />
		<tag k="ssr:stedsnr" v="122020" />
		<tag k="water" v="lake" />
	</node>
	<node lat="59.38270277612978" lon="5.350719440293403" id="-6313">
		<tag k="name" v="Aksnesvatnet" />
		<tag k="natural" v="water" />
		<tag k="ssr:stedsnr" v="123643" />
		<tag k="water" v="lake" />
	</node>
	<node lat="59.36147778027324" lon="5.340388888159971" id="-6321">
		<tag k="name" v="Vormedalsvatnet" />
		<tag k="natural" v="water" />
		<tag k="ssr:stedsnr" v="123592" />
		<tag k="water" v="lake" />
	</node>
	<node lat="59.23584166955125" lon="5.271705559249404" id="-6383">
		<tag k="alt_name" v="Buadalsvatnet, øvre;Øvre Budalsvatn" />
		<tag k="name" v="Øvre Buadalsvatnet" />
		<tag k="natural" v="water" />
		<tag k="ssr:stedsnr" v="183011" />
		<tag k="water" v="lake" />
	</node>
	<node lat="59.25010000170482" lon="5.254894442128868" id="-6385">
		<tag k="name" v="Strigvatnet" />
		<tag k="natural" v="water" />
		<tag k="ssr:stedsnr" v="183034" />
	</node>
	<node lat="59.173302774109985" lon="5.238700000979361" id="-6388">
		<tag k="name" v="Risdalstemmen" />
		<tag k="natural" v="water" />
		<tag k="ssr:stedsnr" v="183370" />
	</node>
	<node lat="59.1637298660358" lon="5.218160954241181" id="-6390">
		<tag k="alt_name" v="Grødheimsvatn" />
		<tag k="name" v="Grøtheimsvatnet" />
		<tag k="natural" v="water" />
		<tag k="ssr:stedsnr" v="183385" />
	</node>
	<node lat="59.367458331313124" lon="5.322474995218044" id="-6398">
		<tag k="name" v="Moksheimsvatnet" />
		<tag k="natural" v="water" />
		<tag k="ssr:stedsnr" v="184553" />
		<tag k="water" v="lake" />
	</node>
	<node lat="59.31606389250761" lon="5.240050008113382" id="-6409">
		<tag k="name" v="Gåsavatnet" />
		<tag k="natural" v="water" />
		<tag k="ssr:stedsnr" v="184967" />
		<tag k="water" v="lake" />
	</node>
	<node lat="59.22551666998061" lon="5.29645554708486" id="-6473">
		<tag k="name" v="Mjåvatn" />
		<tag k="natural" v="water" />
		<tag k="ssr:stedsnr" v="302655" />
		<tag k="water" v="lake" />
	</node>
	<node lat="59.199450001851105" lon="5.197302783355661" id="-6478">
		<tag k="name" v="Løkjene" />
		<tag k="ssr:stedsnr" v="302564" />
		<tag k="waterway" v="stream" />
	</node>
	<node lat="59.184336111828586" lon="5.2326166618074765" id="-6492">
		<tag k="alt_name" v="Rotavatn" />
		<tag k="name" v="Rotavatnet" />
		<tag k="natural" v="water" />
		<tag k="ssr:stedsnr" v="305059" />
	</node>
	<node lat="59.29842486287826" lon="5.25869881002559" id="-6502">
		<tag k="alt_name" v="Rossevatn" />
		<tag k="loc_name" v="Rossevatnet" />
		<tag k="name" v="Rossavatnet" />
		<tag k="natural" v="water" />
		<tag k="ssr:stedsnr" v="305956" />
	</node>
	<node lat="59.261022274968425" lon="5.254920073843359" id="-6505">
		<tag k="name" v="Tistreivatnet" />
		<tag k="natural" v="water" />
		<tag k="ssr:stedsnr" v="306901" />
		<tag k="water" v="lake" />
	</node>
	<node lat="59.30813333576307" lon="5.237344449102377" id="-6546">
		<tag k="name" v="Aureibekken" />
		<tag k="ssr:stedsnr" v="363283" />
		<tag k="waterway" v="stream" />
	</node>
	<node lat="59.21718333348448" lon="5.2693583366694785" id="-6549">
		<tag k="name" v="Stiklestemmen" />
		<tag k="natural" v="bay" />
		<tag k="ssr:stedsnr" v="363581" />
	</node>
	<node lat="59.24926110768378" lon="5.245122222234045" id="-6555">
		<tag k="name" v="Strigvatn" />
		<tag k="natural" v="water" />
		<tag k="ssr:stedsnr" v="363688" />
	</node>
	<node lat="59.38200594106972" lon="5.271281736014977" id="-6574">
		<tag k="alt_name" v="Gunnarshaugvatn" />
		<tag k="name" v="Gunnarshaugvatnet" />
		<tag k="natural" v="water" />
		<tag k="ssr:stedsnr" v="365576" />
		<tag k="water" v="lake" />
	</node>
	<node lat="59.33569444824533" lon="5.337094443691842" id="-6581">
		<tag k="name" v="Litlavatnet" />
		<tag k="natural" v="water" />
		<tag k="ssr:stedsnr" v="366543" />
	</node>
	<node lat="59.279577164268815" lon="5.218514720477804" id="-6585">
		<tag k="name" v="Nordvatnet" />
		<tag k="natural" v="water" />
		<tag k="ssr:stedsnr" v="366913" />
	</node>
	<node lat="59.29189877824973" lon="5.2677700593160095" id="-6587">
		<tag k="alt_name" v="Slettevann" />
		<tag k="loc_name" v="Slettevatnet" />
		<tag k="name" v="Slettvatnet" />
		<tag k="natural" v="water" />
		<tag k="ssr:stedsnr" v="366928" />
		<tag k="water" v="lake" />
	</node>
	<node lat="59.318653053270964" lon="5.2314499528264715" id="-6623">
		<tag k="name" v="Storestemmen" />
		<tag k="natural" v="water" />
		<tag k="ssr:stedsnr" v="424287" />
	</node>
	<node lat="59.299205559971625" lon="5.344541673091808" id="-6639">
		<tag k="name" v="Sæbjørnsvatn" />
		<tag k="natural" v="water" />
		<tag k="ssr:stedsnr" v="424926" />
		<tag k="water" v="lake" />
	</node>
	<node lat="59.342324997542796" lon="5.2211805492006" id="-6652">
		<tag k="name" v="Isgardvatnet" />
		<tag k="natural" v="water" />
		<tag k="ssr:stedsnr" v="426495" />
	</node>
	<node lat="59.20301729601374" lon="5.246519085565473" id="-6656">
		<tag k="alt_name" v="Holmavatnet, in;Indre Holmavatn" />
		<tag k="name" v="Indra Holmavatnet" />
		<tag k="natural" v="water" />
		<tag k="ssr:stedsnr" v="427129" />
		<tag k="water" v="lake" />
	</node>
	<node lat="59.25005076305893" lon="5.2947182996820965" id="-6658">
		<tag k="alt_name" v="Melstokkåvatn" />
		<tag k="name" v="Melstokkevatnet" />
		<tag k="natural" v="water" />
		<tag k="ssr:stedsnr" v="427862" />
		<tag k="water" v="lake" />
	</node>
	<node lat="59.272919518682805" lon="5.2594085037175455" id="-6659">
		<tag k="alt_name" v="Brekkevatnet, nordre" />
		<tag k="name" v="Nordre Brekkevatnet" />
		<tag k="natural" v="water" />
		<tag k="ssr:stedsnr" v="427898" />
		<tag k="water" v="lake" />
	</node>
	<node lat="59.30159925943861" lon="5.350024882256148" id="-6663">
		<tag k="alt_name" v="Helgalandsvatnet, nedre" />
		<tag k="name" v="Nedre Helgalandsvatnet" />
		<tag k="natural" v="water" />
		<tag k="ssr:stedsnr" v="427962" />
		<tag k="water" v="lake" />
	</node>
	<node lat="59.300772223558084" lon="5.239633330008626" id="-6684">
		<tag k="name" v="Storestemmen" />
		<tag k="natural" v="water" />
		<tag k="ssr:stedsnr" v="484261" />
		<tag k="water" v="lake" />
	</node>
	<node lat="59.1941333346279" lon="5.286016674290126" id="-6688">
		<tag k="name" v="Tøkjetongen" />
		<tag k="natural" v="cape" />
		<tag k="ssr:stedsnr" v="484677" />
	</node>
	<node lat="59.242572218661564" lon="5.295288880913553" id="-6692">
		<tag k="name" v="Liaretjødn" />
		<tag k="natural" v="water" />
		<tag k="ssr:stedsnr" v="484647" />
	</node>
	<node lat="59.37972222525765" lon="5.327491659168179" id="-6710">
		<tag k="alt_name" v="Spannevatnet" />
		<tag k="name" v="Spannavatnet" />
		<tag k="natural" v="water" />
		<tag k="ssr:stedsnr" v="487640" />
	</node>
	<node lat="59.37399999576243" lon="5.331205552535623" id="-6713">
		<tag k="alt_name" v="Helgelandsvatnet" />
		<tag k="name" v="Helgalandsvatnet" />
		<tag k="natural" v="water" />
		<tag k="ssr:stedsnr" v="487589" />
	</node>
	<node lat="59.30396666859073" lon="5.246611108057428" id="-6752">
		<tag k="name" v="Tyritjørn" />
		<tag k="natural" v="water" />
		<tag k="ssr:stedsnr" v="545249" />
	</node>
	<node lat="59.28096389150175" lon="5.347291666441334" id="-6764">
		<tag k="name" v="Grydviksvatnet" />
		<tag k="natural" v="water" />
		<tag k="ssr:stedsnr" v="545544" />
		<tag k="water" v="lake" />
	</node>
	<node lat="59.19661389018951" lon="5.184283328018281" id="-6766">
		<tag k="name" v="Hålandsand" />
		<tag k="natural" v="beach" />
		<tag k="ssr:stedsnr" v="545563" />
	</node>
	<node lat="59.19895000188144" lon="5.291205550586328" id="-6783">
		<tag k="alt_name" v="Paddetjørn" />
		<tag k="name" v="Paddetjørna" />
		<tag k="natural" v="water" />
		<tag k="ssr:stedsnr" v="547120" />
	</node>
	<node lat="59.26473716150758" lon="5.243050937877132" id="-6796">
		<tag k="alt_name" v="Aureivatn" />
		<tag k="name" v="Aureivatnet" />
		<tag k="natural" v="water" />
		<tag k="ssr:stedsnr" v="548898" />
		<tag k="water" v="lake" />
	</node>
	<node lat="59.40026360694797" lon="5.347522484198284" id="-6816">
		<tag k="name" v="Paddetjørn" />
		<tag k="natural" v="water" />
		<tag k="ssr:stedsnr" v="572994" />
	</node>
	<node lat="59.31208263949235" lon="5.235427206161525" id="-6839">
		<tag k="alt_name" v="Torestemmen" />
		<tag k="name" v="Tørresstemmen" />
		<tag k="natural" v="water" />
		<tag k="ssr:stedsnr" v="605344" />
	</node>
	<node lat="59.22354722054896" lon="5.274697217414253" id="-6851">
		<tag k="name" v="Udnetjørn" />
		<tag k="natural" v="water" />
		<tag k="ssr:stedsnr" v="605644" />
	</node>
	<node lat="59.267022396108146" lon="5.2614938076708695" id="-6856">
		<tag k="name" v="Brekkevatnet" />
		<tag k="natural" v="water" />
		<tag k="ssr:stedsnr" v="605741" />
		<tag k="water" v="lake" />
	</node>
	<node lat="59.24170638269629" lon="5.267184328031658" id="-6859">
		<tag k="alt_name" v="Buadalsvatnet, nedre;Nedre Buadalsvatn" />
		<tag k="name" v="Nedre Buadalsvatnet" />
		<tag k="natural" v="water" />
		<tag k="ssr:stedsnr" v="607048" />
		<tag k="water" v="lake" />
	</node>
	<node lat="59.29462499460668" lon="5.2859957094537755" id="-6869">
		<tag k="alt_name" v="Fotvatnet, l;Litle Fotvatnet" />
		<tag k="name" v="Litla Fotvatnet" />
		<tag k="natural" v="water" />
		<tag k="ssr:stedsnr" v="608962" />
	</node>
	<node lat="59.30605000163481" lon="5.350936114404291" id="-6876">
		<tag k="alt_name" v="Helgalandsvatnet, øvre" />
		<tag k="name" v="Øvre Helgalandsvatnet" />
		<tag k="natural" v="water" />
		<tag k="ssr:stedsnr" v="609974" />
		<tag k="water" v="lake" />
	</node>
	<node lat="59.29143889109356" lon="5.259747228823671" id="-6904">
		<tag k="name" v="Tomåsstemmen" />
		<tag k="natural" v="water" />
		<tag k="ssr:stedsnr" v="727156" />
		<tag k="water" v="lake" />
	</node>
	<node lat="59.218388885759865" lon="5.218130550271422" id="-6906">
		<tag k="name" v="Tverrbekkløkene" />
		<tag k="ssr:stedsnr" v="727249" />
		<tag k="waterway" v="stream" />
	</node>
	<node lat="59.20728333290283" lon="5.288424997611159" id="-6915">
		<tag k="name" v="Stiklebotn" />
		<tag k="natural" v="bay" />
		<tag k="ssr:stedsnr" v="727648" />
	</node>
	<node lat="59.23261944384934" lon="5.303719445361975" id="-6922">
		<tag k="name" v="Vaulen" />
		<tag k="place" v="islet" />
		<tag k="ssr:stedsnr" v="727674" />
	</node>
	<node lat="59.192069447045085" lon="5.197227784799361" id="-6931">
		<tag k="name" v="Nystemmen" />
		<tag k="ssr:stedsnr" v="729090" />
		<tag k="waterway" v="stream" />
	</node>
	<node lat="59.358683336562336" lon="5.358158326752205" id="-6940">
		<tag k="name" v="Rabbavatnet" />
		<tag k="natural" v="water" />
		<tag k="ssr:stedsnr" v="730532" />
	</node>
	<node lat="59.23679999827096" lon="5.257583336505645" id="-6983">
		<tag k="name" v="Ystersjøen" />
		<tag k="natural" v="water" />
		<tag k="ssr:stedsnr" v="787888" />
	</node>
	<node lat="59.310027775354904" lon="5.307233336362803" id="-6985">
		<tag k="name" v="Skinnvågen" />
		<tag k="natural" v="water" />
		<tag k="ssr:stedsnr" v="788037" />
	</node>
	<node lat="59.34497221919911" lon="5.342083331075094" id="-7000">
		<tag k="name" v="Tuastadvatnet" />
		<tag k="natural" v="water" />
		<tag k="ssr:stedsnr" v="788789" />
		<tag k="water" v="lake" />
	</node>
	<node lat="59.20282222166696" lon="5.305980562372791" id="-7010">
		<tag k="name" v="Stemmen" />
		<tag k="natural" v="water" />
		<tag k="ssr:stedsnr" v="790087" />
	</node>
	<node lat="59.161591663069146" lon="5.213480556410453" id="-7016">
		<tag k="name" v="Litlavatnet" />
		<tag k="natural" v="water" />
		<tag k="ssr:stedsnr" v="790438" />
	</node>
	<node lat="59.345386107588965" lon="5.233458332828949" id="-7018">
		<tag k="name" v="Visnesvatnet" />
		<tag k="natural" v="water" />
		<tag k="ssr:stedsnr" v="790537" />
		<tag k="water" v="lake" />
	</node>
	<node lat="59.32038610701022" lon="5.264950000131086" id="-7024">
		<tag k="name" v="Grasvatnet" />
		<tag k="natural" v="water" />
		<tag k="ssr:stedsnr" v="791983" />
	</node>
	<node lat="59.26425845857728" lon="5.262261551259662" id="-7025">
		<tag k="alt_name" v="Brekkevatnet, søre" />
		<tag k="name" v="Søre Brekkevatnet" />
		<tag k="natural" v="water" />
		<tag k="ssr:stedsnr" v="791898" />
		<tag k="water" v="lake" />
	</node>
	<node lat="59.28162777981324" lon="5.400458329234857" id="-7026">
		<tag k="alt_name" v="Stemvatn" />
		<tag k="name" v="Stemvatnet" />
		<tag k="natural" v="water" />
		<tag k="ssr:stedsnr" v="791912" />
		<tag k="water" v="lake" />
	</node>
	<node lat="59.3068861118723" lon="5.351100006904516" id="-7086">
		<tag k="name" v="Helgelandsvatnet" />
		<tag k="natural" v="water" />
		<tag k="ssr:stedsnr" v="849950" />
		<tag k="water" v="lake" />
	</node>
	<node lat="59.29716666423325" lon="5.2830166688339615" id="-7109">
		<tag k="alt_name" v="Fotvatnet, midtre;Midtre Fotvatnet" />
		<tag k="name" v="Midtra Fotvatnet" />
		<tag k="natural" v="water" />
		<tag k="ssr:stedsnr" v="852939" />
		<tag k="water" v="lake" />
	</node>
	<node lat="59.32499444091569" lon="5.215213882065438" id="-7184">
		<tag k="name" v="Litlatjønn" />
		<tag k="natural" v="water" />
		<tag k="ssr:stedsnr" v="970430" />
	</node>
	<node lat="59.3239611102968" lon="5.211583338481566" id="-7186">
		<tag k="name" v="Hølen" />
		<tag k="natural" v="water" />
		<tag k="ssr:stedsnr" v="970435" />
	</node>
	<node lat="59.351522221941174" lon="5.345566660005947" id="-7194">
		<tag k="name" v="Litlavatnet" />
		<tag k="natural" v="water" />
		<tag k="ssr:stedsnr" v="970455" />
		<tag k="water" v="lake" />
	</node>
	<node lat="59.16678333157878" lon="5.302500005712726" id="-7199">
		<tag k="name" v="Niple" />
		<tag k="ssr:stedsnr" v="970480" />
		<tag k="waterway" v="stream" />
	</node>
</osm>
