<?xml version="1.0" encoding="UTF-8"?>
<osm generator="osmapis" version="0.6">
	<node id="-40959" lat="59.2210777796" lon="5.17788332605">
		<tag k="name" v="Dueglåp" />
		<tag k="natural" v="bay" />
		<tag k="ssr:stedsnr" v="363228" />
	</node>
	<node id="-40956" lat="59.3322861079" lon="5.36960833374">
		<tag k="name" v="Makkavik" />
		<tag k="natural" v="bay" />
		<tag k="ssr:stedsnr" v="363198" />
	</node>
	<node id="-40955" lat="59.332205554" lon="5.36743610849">
		<tag k="name" v="Lindøy" />
		<tag k="natural" v="cape" />
		<tag k="ssr:stedsnr" v="363197" />
	</node>
	<node id="-40954" lat="59.3333883346" lon="5.36372431028">
		<tag k="alt_name" v="Røksundkanalen" />
		<tag k="name" v="Røyksundkanalen" />
		<tag k="natural" v="strait" />
		<tag k="ssr:stedsnr" v="363194" />
	</node>
	<node id="-40953" lat="59.2353166674" lon="5.18588611737">
		<tag k="name" v="Godamed" />
		<tag k="natural" v="bay" />
		<tag k="ssr:stedsnr" v="363191" />
	</node>
	<node id="-40951" lat="59.2973777733" lon="5.22796944277">
		<tag k="name" v="Jovika" />
		<tag k="natural" v="bay" />
		<tag k="ssr:stedsnr" v="363134" />
	</node>
	<node id="-41531" lat="59.1448499985" lon="5.17605555442">
		<tag k="name" v="Øyaflua" />
		<tag k="natural" v="shoal" />
		<tag k="place" v="locality" />
		<tag k="ssr:stedsnr" v="874579" />
	</node>
	<node id="-40949" lat="59.3191333346" lon="5.18971389492">
		<tag k="fixme" v="consider seamark:type=rock or natural=shoal" />
		<tag k="name" v="Skarvaskjer" />
		<tag k="place" v="islet" />
		<tag k="ssr:stedsnr" v="363422" />
	</node>
	<node id="-40948" lat="59.31998714" lon="5.20722523405">
		<tag k="name" v="Kvalavåg" />
		<tag k="natural" v="bay" />
		<tag k="ssr:stedsnr" v="363421" />
	</node>
	<node id="-40938" lat="59.4050111112" lon="5.25365000725">
		<tag k="name" v="Breivika" />
		<tag k="natural" v="bay" />
		<tag k="ssr:stedsnr" v="344831" />
	</node>
	<node id="-40937" lat="59.4098583342" lon="5.21478054738">
		<tag k="name" v="Nordre Leiarholmen" />
		<tag k="place" v="islet" />
		<tag k="ssr:stedsnr" v="344824" />
	</node>
	<node id="-40936" lat="59.4143166641" lon="5.23121110948">
		<tag k="name" v="Storøysundet" />
		<tag k="natural" v="strait" />
		<tag k="ssr:stedsnr" v="344731" />
	</node>
	<node id="-40935" lat="59.1731388898" lon="5.17073889616">
		<tag k="name" v="Vikraboen" />
		<tag k="place" v="locality" />
		<tag k="seamark:type" v="rock" />
		<tag k="ssr:stedsnr" v="344549" />
	</node>
	<node id="-40930" lat="59.3119277772" lon="5.17450277628">
		<tag k="name" v="Keipsteinen" />
		<tag k="natural" v="shoal" />
		<tag k="place" v="locality" />
		<tag k="ssr:stedsnr" v="329970" />
	</node>
	<node id="-40929" lat="59.3581749998" lon="5.23973054838">
		<tag k="name" v="Buvik" />
		<tag k="natural" v="beach" />
		<tag k="place" v="locality" />
		<tag k="ssr:stedsnr" v="329784" />
	</node>
	<node id="-40927" lat="59.3599611073" lon="5.23203333107">
		<tag k="name" v="Bårholmane" />
		<tag k="place" v="islet" />
		<tag k="ssr:stedsnr" v="329773" />
	</node>
	<node id="-40926" lat="59.3705361096" lon="5.15331667112">
		<tag k="name" v="Langevåg" />
		<tag k="natural" v="bay" />
		<tag k="ssr:stedsnr" v="329768" />
	</node>
	<node id="-40925" lat="59.2738527749" lon="5.32782222995">
		<tag k="name" v="Monsvik" />
		<tag k="natural" v="bay" />
		<tag k="ssr:stedsnr" v="329174" />
	</node>
	<node id="-40924" lat="59.2963888885" lon="5.3058333352">
		<tag k="name" v="Byggnesholmane" />
		<tag k="place" v="islet" />
		<tag k="ssr:stedsnr" v="329172" />
	</node>
	<node id="-40923" lat="59.2721593555" lon="5.40656485222">
		<tag k="alt_name" v="Fårøysund;Fårøysundet" />
		<tag k="name" v="Forøysundet" />
		<tag k="natural" v="strait" />
		<tag k="ssr:stedsnr" v="329159" />
	</node>
	<node id="-40922" lat="59.3090975676" lon="5.30238138915">
		<tag k="alt_name" v="Austvikvågen" />
		<tag k="name" v="Austevikvågen" />
		<tag k="natural" v="bay" />
		<tag k="ssr:stedsnr" v="329153" />
	</node>
	<node id="-40921" lat="59.3020878061" lon="5.29151407519">
		<tag k="alt_name" v="Søylå" />
		<tag k="name" v="Byggnesleira" />
		<tag k="natural" v="bay" />
		<tag k="ssr:stedsnr" v="329147" />
	</node>
	<node id="-40919" lat="59.286122" lon="5.30092890183">
		<tag k="name" v="Skjoldabukta" />
		<tag k="natural" v="bay" />
		<tag k="ssr:stedsnr" v="329090" />
	</node>
	<node id="-40918" lat="59.2868583371" lon="5.30020554947">
		<tag k="name" v="Skjoldaodden" />
		<tag k="natural" v="cape" />
		<tag k="ssr:stedsnr" v="329089" />
	</node>
	<node id="-40917" lat="59.2833553611" lon="5.31382638306">
		<tag k="alt_name" v="Stangelandsvågen" />
		<tag k="name" v="Stangalandsvågen" />
		<tag k="natural" v="bay" />
		<tag k="ssr:stedsnr" v="329084" />
	</node>
	<node id="-40916" lat="59.2517361143" lon="5.17618611311">
		<tag k="fixme" v="consider seamark:type=rock or natural=shoal" />
		<tag k="name" v="Svartaskjeret" />
		<tag k="place" v="islet" />
		<tag k="ssr:stedsnr" v="329078" />
	</node>
	<node id="-40915" lat="59.2576638865" lon="5.35048889108">
		<tag k="fixme" v="consider seamark:type=rock or natural=shoal" />
		<tag k="name" v="Storboen" />
		<tag k="place" v="islet" />
		<tag k="ssr:stedsnr" v="329105" />
	</node>
	<node id="-40913" lat="59.4019194426" lon="5.16491665941">
		<tag k="fixme" v="consider seamark:type=rock or natural=shoal" />
		<tag k="name" v="Nordra Persskjeret" />
		<tag k="old_name" v="Persskjeret" />
		<tag k="place" v="islet" />
		<tag k="ssr:stedsnr" v="328775" />
	</node>
	<node id="-40911" lat="59.4067805558" lon="5.21146111912">
		<tag k="name" v="Andresflua" />
		<tag k="natural" v="shoal" />
		<tag k="place" v="locality" />
		<tag k="ssr:stedsnr" v="328356" />
	</node>
	<node id="-40910" lat="59.4012138894" lon="5.2089972248">
		<tag k="name" v="Loppegrunna" />
		<tag k="natural" v="shoal" />
		<tag k="place" v="locality" />
		<tag k="ssr:stedsnr" v="328355" />
	</node>
	<node id="-40909" lat="59.3667416627" lon="5.28931666311">
		<tag k="name" v="Bøflua" />
		<tag k="natural" v="shoal" />
		<tag k="place" v="locality" />
		<tag k="ssr:stedsnr" v="328347" />
	</node>
	<node id="-40908" lat="59.1633981609" lon="5.30523018104">
		<tag k="name" v="Mongarshavnen" />
		<tag k="natural" v="bay" />
		<tag k="ssr:stedsnr" v="328613" />
	</node>
	<node id="-40904" lat="59.3312452105" lon="5.34212230861">
		<tag k="name" v="Juvika" />
		<tag k="natural" v="bay" />
		<tag k="ssr:stedsnr" v="305980" />
	</node>
	<node id="-40903" lat="59.3045941399" lon="5.31645835251">
		<tag k="name" v="Hestholmen" />
		<tag k="place" v="islet" />
		<tag k="ssr:stedsnr" v="305957" />
	</node>
	<node id="-40899" lat="59.3741416642" lon="5.02542777071">
		<tag k="alt_name" v="Sengi" />
		<tag k="name" v="Senga" />
		<tag k="place" v="islet" />
		<tag k="ssr:stedsnr" v="305734" />
	</node>
	<node id="-40898" lat="59.3995583338" lon="4.9995805559">
		<tag k="alt_name" v="Svea, store" />
		<tag k="fixme" v="consider seamark:type=rock or natural=shoal" />
		<tag k="name" v="Stora Svea" />
		<tag k="place" v="islet" />
		<tag k="ssr:stedsnr" v="305730" />
	</node>
	<node id="-40897" lat="59.4121027787" lon="5.09945833308">
		<tag k="alt_name" v="Svartaskjer" />
		<tag k="fixme" v="consider seamark:type=rock or natural=shoal" />
		<tag k="name" v="Svarteskjeret" />
		<tag k="place" v="islet" />
		<tag k="ssr:stedsnr" v="305674" />
	</node>
	<node id="-40896" lat="59.4096611144" lon="5.23876666276">
		<tag k="name" v="Osnes" />
		<tag k="natural" v="cape" />
		<tag k="ssr:stedsnr" v="305651" />
	</node>
	<node id="-40894" lat="59.3838277742" lon="5.18418055185">
		<tag k="alt_name" v="Gitterøy;Gjitterøy" />
		<tag k="name" v="Gitterøya" />
		<tag k="place" v="islet" />
		<tag k="ssr:stedsnr" v="305620" />
	</node>
	<node id="-40893" lat="59.3625500029" lon="5.20966666013">
		<tag k="name" v="Straumholmen" />
		<tag k="place" v="islet" />
		<tag k="ssr:stedsnr" v="305599" />
	</node>
	<node id="-40892" lat="59.3662527794" lon="5.20784444238">
		<tag k="alt_name" v="Vitaland" />
		<tag k="name" v="Vetaland" />
		<tag k="place" v="island" />
		<tag k="ssr:stedsnr" v="305595" />
	</node>
	<node id="-41529" lat="59.3127951771" lon="5.33696269114">
		<tag k="alt_name" v="Breidvik;Djupedalsvika" />
		<tag k="name" v="Breidvika" />
		<tag k="natural" v="bay" />
		<tag k="ssr:stedsnr" v="853615" />
	</node>
	<node id="-40887" lat="59.1504916648" lon="5.19319999185">
		<tag k="name" v="Kjelavågen" />
		<tag k="natural" v="bay" />
		<tag k="ssr:stedsnr" v="305406" />
	</node>
	<node id="-40883" lat="59.1406888865" lon="5.21183889703">
		<tag k="name" v="Flagholmsundet" />
		<tag k="natural" v="strait" />
		<tag k="ssr:stedsnr" v="304398" />
	</node>
	<node id="-40880" lat="59.2356750014" lon="5.05707499666">
		<tag k="alt_name" v="Liknesøy" />
		<tag k="name" v="Liknesøya" />
		<tag k="place" v="island" />
		<tag k="ssr:stedsnr" v="304042" />
	</node>
	<node id="-40875" lat="59.2633555577" lon="5.18459167057">
		<tag k="name" v="Oliversbukta" />
		<tag k="natural" v="bay" />
		<tag k="ssr:stedsnr" v="302789" />
	</node>
	<node id="-40873" lat="59.2991499964" lon="5.33486389391">
		<tag k="fixme" v="consider seamark:type=rock or natural=shoal" />
		<tag k="name" v="Dua" />
		<tag k="place" v="islet" />
		<tag k="ssr:stedsnr" v="302936" />
	</node>
	<node id="-40866" lat="59.3547944414" lon="5.21525555559">
		<tag k="name" v="Hyttesundet" />
		<tag k="natural" v="strait" />
		<tag k="ssr:stedsnr" v="302733" />
	</node>
	<node id="-40865" lat="59.2819583375" lon="5.37224999541">
		<tag k="name" v="Austneshalvøya" />
		<tag k="natural" v="cape" />
		<tag k="ssr:stedsnr" v="302639" />
	</node>
	<node id="-40857" lat="59.1435472199" lon="5.26861944588">
		<tag k="alt_name" v="Bagarholmen" />
		<tag k="name" v="Bakareholmen" />
		<tag k="place" v="islet" />
		<tag k="ssr:stedsnr" v="300745" />
	</node>
	<node id="-40856" lat="59.1422305525" lon="5.26878056304">
		<tag k="fixme" v="consider seamark:type=rock or natural=shoal" />
		<tag k="name" v="Lerkeskjer" />
		<tag k="place" v="islet" />
		<tag k="ssr:stedsnr" v="300740" />
	</node>
	<node id="-40855" lat="59.143374999" lon="5.2530138871">
		<tag k="name" v="Varnavika" />
		<tag k="natural" v="bay" />
		<tag k="ssr:stedsnr" v="300737" />
	</node>
	<node id="-40854" lat="59.3666055529" lon="5.04038610519">
		<tag k="name" v="Streden" />
		<tag k="natural" v="shoal" />
		<tag k="place" v="locality" />
		<tag k="ssr:stedsnr" v="210850" />
	</node>
	<node id="-40853" lat="59.3726027808" lon="5.14889444355">
		<tag k="name" v="Sauøysundet" />
		<tag k="natural" v="strait" />
		<tag k="ssr:stedsnr" v="209778" />
	</node>
	<node id="-40852" lat="59.3821861077" lon="5.37076666886">
		<tag k="name" v="Aksnesholmen" />
		<tag k="place" v="islet" />
		<tag k="ssr:stedsnr" v="209541" />
	</node>
	<node id="-40851" lat="59.2533138901" lon="5.17116388273">
		<tag k="alt_name" v="Humraskjeret" />
		<tag k="fixme" v="consider seamark:type=rock or natural=shoal" />
		<tag k="name" v="Hamreskjeret" />
		<tag k="place" v="islet" />
		<tag k="ssr:stedsnr" v="208841" />
	</node>
	<node id="-40850" lat="59.3777527764" lon="5.18808610803">
		<tag k="alt_name" v="Kjørkjesund" />
		<tag k="name" v="Kyrkjesund" />
		<tag k="natural" v="strait" />
		<tag k="ssr:stedsnr" v="208835" />
	</node>
	<node id="-40849" lat="59.3801861118" lon="5.20680833913">
		<tag k="alt_name" v="Ternholmen;Tednholmane" />
		<tag k="name" v="Tedneholmane" />
		<tag k="place" v="islet" />
		<tag k="ssr:stedsnr" v="208834" />
	</node>
	<node id="-40848" lat="59.4051916692" lon="5.22150834144">
		<tag k="alt_name" v="Gigjarøy;Gigjarøya" />
		<tag k="name" v="Gjarøy" />
		<tag k="place" v="island" />
		<tag k="ssr:stedsnr" v="208831" />
	</node>
	<node id="-40846" lat="59.3764972197" lon="5.19027221948">
		<tag k="fixme" v="consider seamark:type=rock or natural=shoal" />
		<tag k="name" v="Kjerandskjer" />
		<tag k="place" v="islet" />
		<tag k="ssr:stedsnr" v="208810" />
	</node>
	<node id="-40844" lat="59.38924167" lon="5.14946944661">
		<tag k="name" v="Resasete" />
		<tag k="natural" v="cape" />
		<tag k="ssr:stedsnr" v="208775" />
	</node>
	<node id="-40843" lat="59.2950722227" lon="5.38325277864">
		<tag k="alt_name" v="Vaagaholmen" />
		<tag k="name" v="Vågaholmen" />
		<tag k="place" v="islet" />
		<tag k="ssr:stedsnr" v="208655" />
	</node>
	<node id="-40842" lat="59.3265277779" lon="5.34997222842">
		<tag k="alt_name" v="Kjeldesund;Kjellesundet" />
		<tag k="name" v="Kjeldesundet" />
		<tag k="natural" v="strait" />
		<tag k="ssr:stedsnr" v="208165" />
	</node>
	<node id="-40841" lat="59.3191691308" lon="5.31243932562">
		<tag k="name" v="Sandvågen" />
		<tag k="natural" v="bay" />
		<tag k="ssr:stedsnr" v="208152" />
	</node>
	<node id="-40840" lat="59.2949510323" lon="5.24044508602">
		<tag k="name" v="Kvarvik" />
		<tag k="natural" v="bay" />
		<tag k="ssr:stedsnr" v="208147" />
	</node>
	<node id="-40839" lat="59.2604305525" lon="5.16583610497">
		<tag k="alt_name" v="Leiasundet" />
		<tag k="name" v="Leiesundet" />
		<tag k="natural" v="strait" />
		<tag k="ssr:stedsnr" v="208099" />
	</node>
	<node id="-40838" lat="59.2812500032" lon="5.3219444419">
		<tag k="name" v="Kalvatræneset" />
		<tag k="natural" v="cape" />
		<tag k="ssr:stedsnr" v="208076" />
	</node>
	<node id="-40837" lat="59.3804083335" lon="5.13478611496">
		<tag k="name" v="Askilsflua" />
		<tag k="natural" v="shoal" />
		<tag k="place" v="locality" />
		<tag k="ssr:stedsnr" v="207989" />
	</node>
	<node id="-40836" lat="59.3072527793" lon="5.16688889645">
		<tag k="name" v="Seiskallen" />
		<tag k="natural" v="shoal" />
		<tag k="place" v="locality" />
		<tag k="ssr:stedsnr" v="207949" />
	</node>
	<node id="-40835" lat="59.2439432902" lon="5.17297216333">
		<tag k="name" v="Stabbane" />
		<tag k="natural" v="shoal" />
		<tag k="place" v="locality" />
		<tag k="ssr:stedsnr" v="207810" />
	</node>
	<node id="-40833" lat="59.2636444436" lon="5.14717778321">
		<tag k="name" v="Svortingbrassen" />
		<tag k="natural" v="shoal" />
		<tag k="place" v="locality" />
		<tag k="ssr:stedsnr" v="207777" />
	</node>
	<node id="-40832" lat="59.149510412" lon="5.2767572429">
		<tag k="name" v="Vikevågen" />
		<tag k="natural" v="bay" />
		<tag k="ssr:stedsnr" v="207586" />
	</node>
	<node id="-40831" lat="59.3871494806" lon="5.27996104332">
		<tag k="name" v="Stornesvik" />
		<tag k="natural" v="bay" />
		<tag k="ssr:stedsnr" v="207368" />
	</node>
	<node id="-40830" lat="59.3329038324" lon="5.28695343856">
		<tag k="name" v="Matlandsvågen" />
		<tag k="natural" v="bay" />
		<tag k="ssr:stedsnr" v="207364" />
	</node>
	<node id="-40826" lat="59.2965750013" lon="5.19392499405">
		<tag k="alt_name" v="Vedøya;Vedøy" />
		<tag k="loc_name" v="Salvøyna" />
		<tag k="name" v="Salvøy" />
		<tag k="place" v="island" />
		<tag k="ssr:stedsnr" v="185956" />
	</node>
	<node id="-40821" lat="59.3060166653" lon="5.19044166815">
		<tag k="fixme" v="consider seamark:type=rock or natural=shoal" />
		<tag k="name" v="Leiaskjer" />
		<tag k="place" v="islet" />
		<tag k="ssr:stedsnr" v="184953" />
	</node>
	<node id="-40818" lat="59.2897222234" lon="5.31402777142">
		<tag k="alt_name" v="Østremneset" />
		<tag k="name" v="Austreimneset" />
		<tag k="natural" v="cape" />
		<tag k="ssr:stedsnr" v="184918" />
	</node>
	<node id="-40816" lat="59.2831130217" lon="5.26870218154">
		<tag k="alt_name" v="Skårholmen, in" />
		<tag k="name" v="Indre Skårholmen" />
		<tag k="place" v="islet" />
		<tag k="ssr:stedsnr" v="184902" />
	</node>
	<node id="-40814" lat="59.2585527785" lon="5.16325000208">
		<tag k="name" v="Sandholmane" />
		<tag k="place" v="islet" />
		<tag k="ssr:stedsnr" v="184882" />
	</node>
	<node id="-40812" lat="59.3764916628" lon="5.02266667475">
		<tag k="name" v="Guleiholmen" />
		<tag k="place" v="islet" />
		<tag k="ssr:stedsnr" v="184725" />
	</node>
	<node id="-40809" lat="59.3654609123" lon="5.24950968722">
		<tag k="alt_name" v="Haugevågen" />
		<tag k="name" v="Haugavågen" />
		<tag k="natural" v="bay" />
		<tag k="ssr:stedsnr" v="184561" />
	</node>
	<node id="-40805" lat="59.3504611107" lon="5.16558055033">
		<tag k="alt_name" v="Føyfjorden" />
		<tag k="bay" v="fjord" />
		<tag k="name" v="Føynfjorden" />
		<tag k="natural" v="bay" />
		<tag k="ssr:stedsnr" v="184548" />
	</node>
	<node id="-40803" lat="59.1449499996" lon="5.20449167075">
		<tag k="alt_name" v="Vindbalsvigå" />
		<tag k="name" v="Vindbalsvika" />
		<tag k="natural" v="bay" />
		<tag k="ssr:stedsnr" v="184413" />
	</node>
	<node id="-40802" lat="59.1459972206" lon="5.26530556397">
		<tag k="name" v="Skudeneshamn" />
		<tag k="natural" v="bay" />
		<tag k="ssr:stedsnr" v="184410" />
	</node>
	<node id="-40796" lat="59.4001527791" lon="5.15555277529">
		<tag k="name" v="Trongholmane" />
		<tag k="place" v="islet" />
		<tag k="ssr:stedsnr" v="183593" />
	</node>
	<node id="-40794" lat="59.2049777756" lon="5.3192638971">
		<tag k="name" v="Blikshavn" />
		<tag k="natural" v="bay" />
		<tag k="ssr:stedsnr" v="183101" />
	</node>
	<node id="-40793" lat="59.1976333337" lon="5.18153611892">
		<tag k="name" v="Laksodden" />
		<tag k="natural" v="cape" />
		<tag k="ssr:stedsnr" v="183094" />
	</node>
	<node id="-40792" lat="59.1902805586" lon="5.175838888">
		<tag k="name" v="Hølpesvika" />
		<tag k="natural" v="bay" />
		<tag k="ssr:stedsnr" v="183085" />
	</node>
	<node id="-40786" lat="59.1677250035" lon="5.19417222006">
		<tag k="name" v="Mjølhussanden" />
		<tag k="natural" v="cape" />
		<tag k="ssr:stedsnr" v="183375" />
	</node>
	<node id="-40784" lat="59.1468166679" lon="5.29830556187">
		<tag k="name" v="Falnes" />
		<tag k="natural" v="cape" />
		<tag k="ssr:stedsnr" v="183353" />
	</node>
	<node id="-40783" lat="58.1513083303" lon="6.29712777181">
		<tag k="name" v="Nordsjøen" />
		<tag k="name:en" v="North Sea" />
		<tag k="name:no" v="Nordsjøen" />
		<tag k="place" v="sea" />
		<tag k="ssr:stedsnr" v="182096" />
	</node>
	<node id="-40778" lat="59.2707055516" lon="5.19242778337">
		<tag k="alt_name" v="Sveaholmen;Knutholm" />
		<tag k="name" v="Sveholmen" />
		<tag k="place" v="islet" />
		<tag k="ssr:stedsnr" v="181866" />
	</node>
	<node id="-40776" lat="59.3535694467" lon="5.30376666333">
		<tag k="name" v="Bukkøy" />
		<tag k="place" v="islet" />
		<tag k="ssr:stedsnr" v="181796" />
	</node>
	<node id="-40775" lat="59.3028111135" lon="5.37183889283">
		<tag k="name" v="Kvernavika" />
		<tag k="natural" v="bay" />
		<tag k="ssr:stedsnr" v="181948" />
	</node>
	<node id="-40774" lat="59.3064527764" lon="5.37413889353">
		<tag k="name" v="Jektevika" />
		<tag k="natural" v="bay" />
		<tag k="ssr:stedsnr" v="181946" />
	</node>
	<node id="-40772" lat="59.267686112" lon="5.19067499471">
		<tag k="name" v="Hedleholmen" />
		<tag k="place" v="islet" />
		<tag k="ssr:stedsnr" v="181816" />
	</node>
	<node id="-40771" lat="59.2678388899" lon="5.19367777747">
		<tag k="name" v="Kvednavika" />
		<tag k="natural" v="bay" />
		<tag k="ssr:stedsnr" v="181815" />
	</node>
	<node id="-41611" lat="59.271310141" lon="5.19048782063">
		<tag k="name" v="Litle Medholmen" />
		<tag k="place" v="islet" />
		<tag k="ssr:stedsnr" v="980448" />
	</node>
	<node id="-40768" lat="59.3493083292" lon="5.3445027753">
		<tag k="name" v="Oterstø" />
		<tag k="natural" v="cape" />
		<tag k="ssr:stedsnr" v="181808" />
	</node>
	<node id="-40766" lat="59.3475361092" lon="5.37338055177">
		<tag k="name" v="Østhusvika" />
		<tag k="natural" v="bay" />
		<tag k="ssr:stedsnr" v="181806" />
	</node>
	<node id="-40758" lat="59.3431388866" lon="5.19071667521">
		<tag k="name" v="Nesvika" />
		<tag k="natural" v="bay" />
		<tag k="ssr:stedsnr" v="181725" />
	</node>
	<node id="-40757" lat="59.2138083344" lon="5.321605554">
		<tag k="name" v="Otravika" />
		<tag k="natural" v="bay" />
		<tag k="ssr:stedsnr" v="181646" />
	</node>
	<node id="-40754" lat="59.2809527791" lon="5.37620556038">
		<tag k="fixme" v="consider seamark:type=rock or natural=shoal" />
		<tag k="name" v="Ausene" />
		<tag k="place" v="islet" />
		<tag k="ssr:stedsnr" v="181624" />
	</node>
	<node id="-40751" lat="59.1411277773" lon="5.29269167002">
		<tag k="name" v="Skude" />
		<tag k="natural" v="cape" />
		<tag k="ssr:stedsnr" v="181575" />
	</node>
	<node id="-40749" lat="59.328691665" lon="5.18980277692">
		<tag k="fixme" v="consider seamark:type=rock or natural=shoal" />
		<tag k="name" v="Mælarane" />
		<tag k="place" v="islet" />
		<tag k="ssr:stedsnr" v="181476" />
	</node>
	<node id="-40748" lat="59.319319444" lon="5.20717499911">
		<tag k="name" v="Terneholmen" />
		<tag k="place" v="islet" />
		<tag k="ssr:stedsnr" v="181473" />
	</node>
	<node id="-40747" lat="59.1492416648" lon="5.1746388954">
		<tag k="name" v="Jarstein" />
		<tag k="natural" v="bay" />
		<tag k="ssr:stedsnr" v="181534" />
	</node>
	<node id="-40745" lat="59.3197611088" lon="5.31002777028">
		<tag k="name" v="Butre" />
		<tag k="natural" v="cape" />
		<tag k="ssr:stedsnr" v="181247" />
	</node>
	<node id="-40743" lat="59.3291416642" lon="5.37200278535">
		<tag k="alt_name" v="Storvik" />
		<tag k="name" v="Storevik" />
		<tag k="natural" v="bay" />
		<tag k="ssr:stedsnr" v="181222" />
	</node>
	<node id="-40742" lat="59.316513885" lon="5.33443611404">
		<tag k="name" v="Breiviksklubben" />
		<tag k="natural" v="cape" />
		<tag k="ssr:stedsnr" v="181218" />
	</node>
	<node id="-40740" lat="59.3013944407" lon="5.2275944457">
		<tag k="name" v="Århammaren" />
		<tag k="natural" v="cape" />
		<tag k="ssr:stedsnr" v="181279" />
	</node>
	<node id="-40739" lat="59.3289974915" lon="5.34548465441">
		<tag k="name" v="Ramsvik" />
		<tag k="natural" v="bay" />
		<tag k="ssr:stedsnr" v="181214" />
	</node>
	<node id="-40733" lat="59.1458833353" lon="5.26021110848">
		<tag k="name" v="Steiningsvågen" />
		<tag k="place" v="islet" />
		<tag k="ssr:stedsnr" v="179731" />
	</node>
	<node id="-40728" lat="59.1486277771" lon="5.28250000452">
		<tag k="name" v="Skammanes" />
		<tag k="natural" v="cape" />
		<tag k="ssr:stedsnr" v="162592" />
	</node>
	<node id="-40727" lat="59.1431083368" lon="5.27249722601">
		<tag k="name" v="Skeiavika" />
		<tag k="natural" v="bay" />
		<tag k="ssr:stedsnr" v="162588" />
	</node>
	<node id="-40726" lat="59.1855305546" lon="5.17059444549">
		<tag k="name" v="Hagaboen" />
		<tag k="place" v="locality" />
		<tag k="seamark:type" v="rock" />
		<tag k="ssr:stedsnr" v="162551" />
	</node>
	<node id="-40725" lat="59.164591665" lon="5.18634999981">
		<tag k="fixme" v="consider seamark:type=rock or natural=shoal" />
		<tag k="name" v="Nyvingen" />
		<tag k="place" v="islet" />
		<tag k="ssr:stedsnr" v="162537" />
	</node>
	<node id="-40724" lat="59.4078555551" lon="5.37358611246">
		<tag k="alt_name" v="Klubholmen" />
		<tag k="name" v="Kupholmen" />
		<tag k="place" v="islet" />
		<tag k="ssr:stedsnr" v="148986" />
	</node>
	<node id="-40723" lat="59.393369445" lon="5.2225027752">
		<tag k="name" v="Skjølingstadvågen" />
		<tag k="natural" v="bay" />
		<tag k="ssr:stedsnr" v="148850" />
	</node>
	<node id="-40722" lat="59.3843777813" lon="5.21840276996">
		<tag k="name" v="Grøningsjøen" />
		<tag k="natural" v="bay" />
		<tag k="ssr:stedsnr" v="148844" />
	</node>
	<node id="-40721" lat="59.2649861144" lon="5.40697221814">
		<tag k="alt_name" v="Kråkeholmen" />
		<tag k="name" v="Krågeholmen" />
		<tag k="place" v="islet" />
		<tag k="ssr:stedsnr" v="148042" />
	</node>
	<node id="-40720" lat="59.3471999966" lon="5.21592499691">
		<tag k="name" v="Bukkholmen" />
		<tag k="place" v="islet" />
		<tag k="ssr:stedsnr" v="147938" />
	</node>
	<node id="-40718" lat="59.3942138893" lon="5.14771944994">
		<tag k="name" v="Reholmfluene" />
		<tag k="natural" v="shoal" />
		<tag k="place" v="locality" />
		<tag k="ssr:stedsnr" v="147981" />
	</node>
	<node id="-40716" lat="59.4116222208" lon="5.11146388199">
		<tag k="name" v="Søra Avløypå" />
		<tag k="natural" v="bay" />
		<tag k="ssr:stedsnr" v="147745" />
	</node>
	<node id="-40715" lat="59.4191250024" lon="5.117588887">
		<tag k="name" v="Kalvasundet" />
		<tag k="natural" v="strait" />
		<tag k="ssr:stedsnr" v="147744" />
	</node>
	<node id="-40713" lat="59.360941667" lon="5.21728055417">
		<tag k="alt_name" v="Tressvik" />
		<tag k="name" v="Træsvika" />
		<tag k="natural" v="bay" />
		<tag k="ssr:stedsnr" v="147788" />
	</node>
	<node id="-40712" lat="59.3697111149" lon="5.16668610904">
		<tag k="alt_name" v="Svorteskjera" />
		<tag k="fixme" v="consider seamark:type=rock or natural=shoal" />
		<tag k="name" v="Svorteskjerene" />
		<tag k="place" v="islet" />
		<tag k="ssr:stedsnr" v="147778" />
	</node>
	<node id="-40709" lat="59.2530555559" lon="5.35475555581">
		<tag k="name" v="Skotholmen" />
		<tag k="place" v="islet" />
		<tag k="ssr:stedsnr" v="147094" />
	</node>
	<node id="-40708" lat="59.2550805577" lon="5.17440556205">
		<tag k="name" v="Mortholmen" />
		<tag k="place" v="islet" />
		<tag k="ssr:stedsnr" v="147064" />
	</node>
	<node id="-40707" lat="59.3049999981" lon="5.30555555823">
		<tag k="fixme" v="consider seamark:type=rock or natural=shoal" />
		<tag k="name" v="Kjelskjer" />
		<tag k="place" v="islet" />
		<tag k="ssr:stedsnr" v="147143" />
	</node>
	<node id="-40706" lat="59.1383472193" lon="5.24577776963">
		<tag k="name" v="Kjenholmen" />
		<tag k="place" v="islet" />
		<tag k="ssr:stedsnr" v="146585" />
	</node>
	<node id="-40705" lat="59.4066416637" lon="5.21150554755">
		<tag k="fixme" v="consider seamark:type=rock or natural=shoal" />
		<tag k="name" v="Broteskjeret" />
		<tag k="place" v="islet" />
		<tag k="ssr:stedsnr" v="146337" />
	</node>
	<node id="-40704" lat="59.3329555524" lon="5.37692500051">
		<tag k="name" v="Lindøytåna" />
		<tag k="natural" v="cape" />
		<tag k="ssr:stedsnr" v="146276" />
	</node>
	<node id="-40703" lat="59.329608334" lon="5.37659166432">
		<tag k="name" v="Lindøya" />
		<tag k="natural" v="cape" />
		<tag k="ssr:stedsnr" v="123998" />
	</node>
	<node id="-40698" lat="59.2790640369" lon="5.36389422765">
		<tag k="alt_name" v="Vågavågen, s;Vågavågen" />
		<tag k="name" v="Søre Vågavågen" />
		<tag k="natural" v="bay" />
		<tag k="ssr:stedsnr" v="123920" />
	</node>
	<node id="-40694" lat="59.3791555533" lon="5.01921943751">
		<tag k="alt_name" v="Næstholmane" />
		<tag k="name" v="Nestholmane" />
		<tag k="place" v="islet" />
		<tag k="ssr:stedsnr" v="123751" />
	</node>
	<node id="-40693" lat="59.4074888888" lon="5.04586943941">
		<tag k="alt_name" v="Urtrafjorden" />
		<tag k="bay" v="fjord" />
		<tag k="name" v="Urterfjorden" />
		<tag k="natural" v="bay" />
		<tag k="ssr:stedsnr" v="123748" />
	</node>
	<node id="-40692" lat="59.3920055588" lon="5.16264722402">
		<tag k="alt_name" v="Kvaløy" />
		<tag k="name" v="Kvaløya" />
		<tag k="place" v="island" />
		<tag k="ssr:stedsnr" v="123664" />
	</node>
	<node id="-40690" lat="59.377644445" lon="5.29379166974">
		<tag k="name" v="Salhusstraumen" />
		<tag k="natural" v="strait" />
		<tag k="ssr:stedsnr" v="123632" />
	</node>
	<node id="-40689" lat="59.3881250036" lon="5.14775555247">
		<tag k="alt_name" v="Kvernvikholmen;Kvednaviksholmane" />
		<tag k="name" v="Kvernvikholmane" />
		<tag k="place" v="islet" />
		<tag k="ssr:stedsnr" v="123609" />
	</node>
	<node id="-40682" lat="59.3450000021" lon="5.30052778203">
		<tag k="alt_name" v="Stutøy" />
		<tag k="name" v="Stutøya" />
		<tag k="place" v="island" />
		<tag k="ssr:stedsnr" v="123558" />
	</node>
	<node id="-40679" lat="59.1565611102" lon="5.29965000338">
		<tag k="name" v="Svingarholmen" />
		<tag k="place" v="islet" />
		<tag k="ssr:stedsnr" v="123421" />
	</node>
	<node id="-40677" lat="59.21252222" lon="5.32309722741">
		<tag k="fixme" v="consider seamark:type=rock or natural=shoal" />
		<tag k="name" v="Uradalsskjeret" />
		<tag k="place" v="islet" />
		<tag k="ssr:stedsnr" v="123106" />
	</node>
	<node id="-40676" lat="59.4124888849" lon="5.23492499797">
		<tag k="alt_name" v="Askhildsholmen;Askildsholmen" />
		<tag k="name" v="Askilsholmen" />
		<tag k="place" v="islet" />
		<tag k="ssr:stedsnr" v="122591" />
	</node>
	<node id="-41595" lat="59.2676333378" lon="5.18483333861">
		<tag k="name" v="Årabrot" />
		<tag k="natural" v="cape" />
		<tag k="ssr:stedsnr" v="970474" />
	</node>
	<node id="-40671" lat="59.1785500035" lon="5.17524167235">
		<tag k="alt_name" v="Ivarsneset" />
		<tag k="name" v="Ivarneset" />
		<tag k="natural" v="cape" />
		<tag k="ssr:stedsnr" v="122068" />
	</node>
	<node id="-40670" lat="59.2441444439" lon="5.36368055636">
		<tag k="alt_name" v="Tednholmen" />
		<tag k="name" v="Ternholmen" />
		<tag k="place" v="islet" />
		<tag k="ssr:stedsnr" v="122046" />
	</node>
	<node id="-40661" lat="59.3370611127" lon="5.30387222399">
		<tag k="name" v="Håvøy" />
		<tag k="place" v="islet" />
		<tag k="ssr:stedsnr" v="120786" />
	</node>
	<node id="-41427" lat="59.3672666696" lon="5.21018889339">
		<tag k="name" v="Sneikjesholmane" />
		<tag k="place" v="islet" />
		<tag k="ssr:stedsnr" v="815815" />
	</node>
	<node id="-40655" lat="59.3342250004" lon="5.19303610905">
		<tag k="name" v="Tresvik" />
		<tag k="natural" v="bay" />
		<tag k="ssr:stedsnr" v="120701" />
	</node>
	<node id="-40645" lat="59.2816694426" lon="5.36283055115">
		<tag k="name" v="Neset" />
		<tag k="natural" v="cape" />
		<tag k="ssr:stedsnr" v="120621" />
	</node>
	<node id="-40634" lat="59.2524666687" lon="5.36069999119">
		<tag k="name" v="Lauvøy" />
		<tag k="place" v="island" />
		<tag k="ssr:stedsnr" v="120471" />
	</node>
	<node id="-40632" lat="59.3291027774" lon="5.19243055961">
		<tag k="fixme" v="consider seamark:type=rock or natural=shoal" />
		<tag k="name" v="Kobben" />
		<tag k="place" v="islet" />
		<tag k="ssr:stedsnr" v="120467" />
	</node>
	<node id="-40630" lat="59.2698388932" lon="5.352872218">
		<tag k="name" v="Skarholmsvika" />
		<tag k="natural" v="bay" />
		<tag k="ssr:stedsnr" v="120456" />
	</node>
	<node id="-40624" lat="59.3226694444" lon="5.36553332823">
		<tag k="name" v="Butangen" />
		<tag k="natural" v="cape" />
		<tag k="ssr:stedsnr" v="120200" />
	</node>
	<node id="-40620" lat="59.3081666661" lon="5.31993334095">
		<tag k="name" v="Kolletre" />
		<tag k="natural" v="cape" />
		<tag k="ssr:stedsnr" v="120067" />
	</node>
	<node id="-40609" lat="59.3966805519" lon="5.2191611104">
		<tag k="name" v="Skjeljarvikholmane" />
		<tag k="place" v="islet" />
		<tag k="ssr:stedsnr" v="102814" />
	</node>
	<node id="-40608" lat="59.1435333361" lon="5.2756361094">
		<tag k="name" v="Nesodden" />
		<tag k="natural" v="cape" />
		<tag k="ssr:stedsnr" v="102623" />
	</node>
	<node id="-40607" lat="59.153752775" lon="5.19172222447">
		<tag k="name" v="Svartholmen" />
		<tag k="place" v="islet" />
		<tag k="ssr:stedsnr" v="101561" />
	</node>
	<node id="-40605" lat="59.3885361134" lon="5.17652499293">
		<tag k="name" v="Rassenesfluene" />
		<tag k="natural" v="shoal" />
		<tag k="place" v="locality" />
		<tag k="ssr:stedsnr" v="87984" />
	</node>
	<node id="-40604" lat="59.3888401998" lon="5.14429073192">
		<tag k="name" v="Kvernvikflua" />
		<tag k="natural" v="shoal" />
		<tag k="place" v="locality" />
		<tag k="ssr:stedsnr" v="87980" />
	</node>
	<node id="-40602" lat="59.2495277814" lon="5.16076111599">
		<tag k="name" v="Sildeleia" />
		<tag k="place" v="locality" />
		<tag k="ssr:stedsnr" v="87838" />
	</node>
	<node id="-40601" lat="59.3770277812" lon="5.175608339">
		<tag k="name" v="Fle" />
		<tag k="natural" v="bay" />
		<tag k="ssr:stedsnr" v="87833" />
	</node>
	<node id="-40600" lat="59.2813642342" lon="5.19051296559">
		<tag k="name" v="Manneshamn" />
		<tag k="natural" v="bay" />
		<tag k="ssr:stedsnr" v="87795" />
	</node>
	<node id="-40599" lat="59.4001305584" lon="5.16635832918">
		<tag k="fixme" v="consider seamark:type=rock or natural=shoal" />
		<tag k="name" v="Søra Persskjeret" />
		<tag k="place" v="islet" />
		<tag k="ssr:stedsnr" v="87793" />
	</node>
	<node id="-40598" lat="59.136933332" lon="5.2590527775">
		<tag k="fixme" v="consider seamark:type=rock or natural=shoal" />
		<tag k="name" v="Sylvskjer" />
		<tag k="place" v="islet" />
		<tag k="ssr:stedsnr" v="87613" />
	</node>
	<node id="-40597" lat="59.4196611077" lon="5.11627222082">
		<tag k="alt_name" v="norda Steinsvik" />
		<tag k="name" v="Nordra Steinsvik" />
		<tag k="natural" v="bay" />
		<tag k="ssr:stedsnr" v="87088" />
	</node>
	<node id="-40596" lat="59.2861111076" lon="5.31194445215">
		<tag k="alt_name" v="Frisaneset" />
		<tag k="name" v="Frisneset" />
		<tag k="natural" v="cape" />
		<tag k="ssr:stedsnr" v="87077" />
	</node>
	<node id="-40595" lat="59.2889472197" lon="5.30658334188">
		<tag k="name" v="Indra Austreimneset" />
		<tag k="natural" v="cape" />
		<tag k="ssr:stedsnr" v="87075" />
	</node>
	<node id="-40594" lat="59.3587305552" lon="5.36978333496">
		<tag k="name" v="Draddanakkjen" />
		<tag k="natural" v="cape" />
		<tag k="ssr:stedsnr" v="87069" />
	</node>
	<node id="-40593" lat="59.3304138857" lon="5.33773888339">
		<tag k="name" v="Dragøyvik" />
		<tag k="natural" v="bay" />
		<tag k="ssr:stedsnr" v="87162" />
	</node>
	<node id="-40591" lat="59.3236388852" lon="5.31463888337">
		<tag k="name" v="Ringflua" />
		<tag k="natural" v="shoal" />
		<tag k="place" v="locality" />
		<tag k="ssr:stedsnr" v="87142" />
	</node>
	<node id="-40589" lat="59.2272916647" lon="5.07752499208">
		<tag k="fixme" v="consider seamark:type=rock or natural=shoal" />
		<tag k="name" v="Seiskjeret" />
		<tag k="place" v="islet" />
		<tag k="ssr:stedsnr" v="85625" />
	</node>
	<node id="-40588" lat="59.2256388929" lon="5.07133055801">
		<tag k="name" v="Rauneboen" />
		<tag k="natural" v="shoal" />
		<tag k="place" v="locality" />
		<tag k="ssr:stedsnr" v="85621" />
	</node>
	<node id="-40587" lat="59.2353277736" lon="5.06473888059">
		<tag k="name" v="Liknesfluene" />
		<tag k="natural" v="shoal" />
		<tag k="place" v="locality" />
		<tag k="ssr:stedsnr" v="85619" />
	</node>
	<node id="-40586" lat="59.1361250022" lon="5.27785832926">
		<tag k="fixme" v="consider seamark:type=rock or natural=shoal" />
		<tag k="name" v="Skarvaskjer" />
		<tag k="place" v="islet" />
		<tag k="ssr:stedsnr" v="85531" />
	</node>
	<node id="-40585" lat="59.1438833289" lon="5.2976611051">
		<tag k="fixme" v="consider seamark:type=rock or natural=shoal" />
		<tag k="name" v="Beiningsflua" />
		<tag k="place" v="islet" />
		<tag k="ssr:stedsnr" v="85527" />
	</node>
	<node id="-40584" lat="59.1420583372" lon="5.20338055008">
		<tag k="fixme" v="consider seamark:type=rock or natural=shoal" />
		<tag k="name" v="Vindballen" />
		<tag k="place" v="islet" />
		<tag k="ssr:stedsnr" v="85524" />
	</node>
	<node id="-40581" lat="59.2647944454" lon="5.37389999559">
		<tag k="name" v="Risholmen" />
		<tag k="place" v="islet" />
		<tag k="ssr:stedsnr" v="63888" />
	</node>
	<node id="-40578" lat="59.3714444464" lon="5.15520833504">
		<tag k="alt_name" v="Sørøy" />
		<tag k="name" v="Sørøya" />
		<tag k="place" v="island" />
		<tag k="ssr:stedsnr" v="62582" />
	</node>
	<node id="-40577" lat="59.3630749957" lon="5.22646389287">
		<tag k="alt_name" v="Sjoholmen" />
		<tag k="name" v="Sjøholmen" />
		<tag k="place" v="islet" />
		<tag k="ssr:stedsnr" v="62549" />
	</node>
	<node id="-40574" lat="59.3721944425" lon="5.18241666917">
		<tag k="alt_name" v="Sandholmen" />
		<tag k="name" v="Sandholmane" />
		<tag k="place" v="islet" />
		<tag k="ssr:stedsnr" v="62532" />
	</node>
	<node id="-40573" lat="59.3678888865" lon="5.21851111738">
		<tag k="name" v="Lamholmen" />
		<tag k="place" v="islet" />
		<tag k="ssr:stedsnr" v="62530" />
	</node>
	<node id="-40571" lat="59.1653166676" lon="5.1736583358">
		<tag k="fixme" v="consider seamark:type=rock or natural=shoal" />
		<tag k="name" v="Håskjer" />
		<tag k="place" v="islet" />
		<tag k="ssr:stedsnr" v="62443" />
	</node>
	<node id="-40570" lat="59.1505583354" lon="5.17322499384">
		<tag k="name" v="Jarsteinen" />
		<tag k="place" v="islet" />
		<tag k="ssr:stedsnr" v="62391" />
	</node>
	<node id="-40569" lat="59.151325173" lon="5.22024287507">
		<tag k="name" v="Syrevågen" />
		<tag k="natural" v="bay" />
		<tag k="ssr:stedsnr" v="62388" />
	</node>
	<node id="-40566" lat="59.2181183581" lon="5.32202155806">
		<tag k="name" v="Tømmervika" />
		<tag k="natural" v="bay" />
		<tag k="ssr:stedsnr" v="62109" />
	</node>
	<node id="-40563" lat="59.2003500021" lon="5.31711388173">
		<tag k="name" v="Raudsteinsvika" />
		<tag k="natural" v="bay" />
		<tag k="ssr:stedsnr" v="62072" />
	</node>
	<node id="-40562" lat="59.1886416634" lon="5.31434722626">
		<tag k="name" v="Nordra Børevika" />
		<tag k="natural" v="bay" />
		<tag k="ssr:stedsnr" v="62067" />
	</node>
	<node id="-40547" lat="59.2128277776" lon="5.32064166423">
		<tag k="name" v="Uradalsvika" />
		<tag k="natural" v="bay" />
		<tag k="ssr:stedsnr" v="60607" />
	</node>
	<node id="-40546" lat="59.2900773518" lon="5.36495467017">
		<tag k="name" v="Båsvika" />
		<tag k="natural" v="bay" />
		<tag k="ssr:stedsnr" v="60563" />
	</node>
	<node id="-40544" lat="59.2878777814" lon="5.36796666518">
		<tag k="name" v="Dalasøyla" />
		<tag k="place" v="island" />
		<tag k="ssr:stedsnr" v="60560" />
	</node>
	<node id="-40542" lat="59.1948666695" lon="5.17960832803">
		<tag k="name" v="Hestklobben" />
		<tag k="natural" v="cape" />
		<tag k="ssr:stedsnr" v="60551" />
	</node>
	<node id="-40539" lat="59.1486999968" lon="5.23631389285">
		<tag k="name" v="Vaholmen" />
		<tag k="place" v="islet" />
		<tag k="ssr:stedsnr" v="60521" />
	</node>
	<node id="-40537" lat="59.1678444429" lon="5.30977500393">
		<tag k="name" v="Groddvika" />
		<tag k="natural" v="bay" />
		<tag k="ssr:stedsnr" v="60332" />
	</node>
	<node id="-40535" lat="59.3172499997" lon="5.21328056183">
		<tag k="name" v="Strompevik" />
		<tag k="natural" v="bay" />
		<tag k="ssr:stedsnr" v="60285" />
	</node>
	<node id="-41571" lat="59.2484194426" lon="5.3622027725">
		<tag k="name" v="Lauvøy" />
		<tag k="place" v="island" />
		<tag k="ssr:stedsnr" v="970229" />
	</node>
	<node id="-40527" lat="59.3281361069" lon="5.35659444434">
		<tag k="name" v="Noraneset" />
		<tag k="natural" v="cape" />
		<tag k="ssr:stedsnr" v="60204" />
	</node>
	<node id="-40525" lat="59.321911109" lon="5.34704444781">
		<tag k="name" v="Leirvåg" />
		<tag k="natural" v="bay" />
		<tag k="ssr:stedsnr" v="60198" />
	</node>
	<node id="-40524" lat="59.2982722215" lon="5.21048888561">
		<tag k="name" v="Store Kjeholmen" />
		<tag k="place" v="islet" />
		<tag k="ssr:stedsnr" v="60153" />
	</node>
	<node id="-40523" lat="59.3029499977" lon="5.2238888969">
		<tag k="name" v="Asgjerdstrædet" />
		<tag k="natural" v="strait" />
		<tag k="ssr:stedsnr" v="60152" />
	</node>
	<node id="-40515" lat="59.2421722217" lon="5.18539999541">
		<tag k="fixme" v="consider seamark:type=rock or natural=shoal" />
		<tag k="name" v="Skarvasjer" />
		<tag k="place" v="islet" />
		<tag k="ssr:stedsnr" v="59171" />
	</node>
	<node id="-40514" lat="59.2413888886" lon="5.18324167022">
		<tag k="name" v="Vadholmen" />
		<tag k="place" v="islet" />
		<tag k="ssr:stedsnr" v="59169" />
	</node>
	<node id="-40513" lat="59.1414569863" lon="5.24908715224">
		<tag k="alt_name" v="Høinessjøen" />
		<tag k="name" v="Høynessjøen" />
		<tag k="natural" v="bay" />
		<tag k="ssr:stedsnr" v="57730" />
	</node>
	<node id="-40507" lat="59.3830027775" lon="5.21486110308">
		<tag k="name" v="Vitnetlo" />
		<tag k="place" v="islet" />
		<tag k="ssr:stedsnr" v="27848" />
	</node>
	<node id="-40505" lat="59.2927993647" lon="5.30675150382">
		<tag k="name" v="Godfarhamn" />
		<tag k="natural" v="bay" />
		<tag k="ssr:stedsnr" v="27130" />
	</node>
	<node id="-40504" lat="59.3781500032" lon="5.29780555682">
		<tag k="name" v="Norheimsvågen" />
		<tag k="natural" v="bay" />
		<tag k="ssr:stedsnr" v="26994" />
	</node>
	<node id="-40503" lat="59.3988882537" lon="5.20774825038">
		<tag k="name" v="Hansaholmen" />
		<tag k="place" v="islet" />
		<tag k="ssr:stedsnr" v="26793" />
	</node>
	<node id="-40502" lat="59.3791777736" lon="5.21985554999">
		<tag k="name" v="Torvastadsjøen" />
		<tag k="natural" v="bay" />
		<tag k="ssr:stedsnr" v="26781" />
	</node>
	<node id="-40501" lat="59.389377778" lon="5.16549445117">
		<tag k="name" v="Storakast" />
		<tag k="natural" v="bay" />
		<tag k="ssr:stedsnr" v="26778" />
	</node>
	<node id="-40499" lat="59.3735138911" lon="5.22791388033">
		<tag k="name" v="Vikingstadsjøen" />
		<tag k="natural" v="bay" />
		<tag k="ssr:stedsnr" v="26745" />
	</node>
	<node id="-40498" lat="59.269214233" lon="5.35197437148">
		<tag k="name" v="Skarholmen" />
		<tag k="place" v="islet" />
		<tag k="ssr:stedsnr" v="26091" />
	</node>
	<node id="-40497" lat="59.2592527765" lon="5.18024167497">
		<tag k="name" v="Sjøensodden" />
		<tag k="natural" v="cape" />
		<tag k="ssr:stedsnr" v="26076" />
	</node>
	<node id="-40496" lat="59.2948861115" lon="5.17704999203">
		<tag k="name" v="Veidflua" />
		<tag k="natural" v="shoal" />
		<tag k="place" v="locality" />
		<tag k="ssr:stedsnr" v="25956" />
	</node>
	<node id="-40495" lat="59.1431277785" lon="5.23209722578">
		<tag k="name" v="Guleholmen" />
		<tag k="place" v="islet" />
		<tag k="ssr:stedsnr" v="25604" />
	</node>
	<node id="-40493" lat="59.3169769966" lon="5.18937138547">
		<tag k="fixme" v="consider seamark:type=rock or natural=shoal" />
		<tag k="name" v="Kvitingane" />
		<tag k="place" v="islet" />
		<tag k="ssr:stedsnr" v="2979" />
	</node>
	<node id="-40492" lat="59.3058194432" lon="5.29265834048">
		<tag k="alt_name" v="Lyngholmen" />
		<tag k="name" v="Lyngholmane" />
		<tag k="place" v="islet" />
		<tag k="ssr:stedsnr" v="2961" />
	</node>
	<node id="-40491" lat="59.3036388894" lon="5.21308332766">
		<tag k="name" v="Kvartnesholmen" />
		<tag k="place" v="islet" />
		<tag k="ssr:stedsnr" v="2952" />
	</node>
	<node id="-40487" lat="59.3603277779" lon="5.02387500432">
		<tag k="name" v="Storbrasen" />
		<tag k="place" v="islet" />
		<tag k="ssr:stedsnr" v="2724" />
	</node>
	<node id="-40484" lat="59.3820916636" lon="5.18909445274">
		<tag k="name" v="Buksholmen" />
		<tag k="place" v="islet" />
		<tag k="ssr:stedsnr" v="1589" />
	</node>
	<node id="-40481" lat="59.388969448" lon="5.16908889591">
		<tag k="name" v="Rassenes" />
		<tag k="natural" v="cape" />
		<tag k="ssr:stedsnr" v="1574" />
	</node>
	<node id="-40480" lat="59.3722111072" lon="5.20298333251">
		<tag k="alt_name" v="Tueholmen;Tuholmane" />
		<tag k="name" v="Tuveholmen" />
		<tag k="place" v="islet" />
		<tag k="ssr:stedsnr" v="1548" />
	</node>
	<node id="-40479" lat="59.3342361106" lon="5.36621110842">
		<tag k="alt_name" v="Røksund" />
		<tag k="name" v="Røyksund" />
		<tag k="natural" v="strait" />
		<tag k="ssr:stedsnr" v="1540" />
	</node>
	<node id="-41562" lat="59.260219447" lon="5.18064166322">
		<tag k="name" v="Åkrahamn" />
		<tag k="natural" v="bay" />
		<tag k="ssr:stedsnr" v="969794" />
	</node>
	<node id="-40474" lat="59.148669448" lon="5.29959167126">
		<tag k="fixme" v="consider seamark:type=rock or natural=shoal" />
		<tag k="name" v="Laksaskjer" />
		<tag k="place" v="islet" />
		<tag k="ssr:stedsnr" v="1398" />
	</node>
	<node id="-40473" lat="59.1347805589" lon="5.22841110903">
		<tag k="name" v="Skardsteinen" />
		<tag k="place" v="islet" />
		<tag k="ssr:stedsnr" v="1394" />
	</node>
	<node id="-40467" lat="59.284915562" lon="5.30199505553">
		<tag k="name" v="Straumsund" />
		<tag k="natural" v="strait" />
		<tag k="ssr:stedsnr" v="1074790" />
	</node>
	<node id="-40449" lat="59.2946668807" lon="5.23203079875">
		<tag k="name" v="Skjepanes" />
		<tag k="natural" v="cape" />
		<tag k="ssr:stedsnr" v="980560" />
	</node>
	<node id="-40448" lat="59.2982002958" lon="5.2272323762">
		<tag k="name" v="Ytsthusvika" />
		<tag k="natural" v="bay" />
		<tag k="ssr:stedsnr" v="980559" />
	</node>
	<node id="-40447" lat="59.2938099341" lon="5.23348725501">
		<tag k="name" v="Munkajordsvika" />
		<tag k="natural" v="bay" />
		<tag k="ssr:stedsnr" v="980558" />
	</node>
	<node id="-40445" lat="59.2989507346" lon="5.22163716792">
		<tag k="name" v="Sævikvika" />
		<tag k="natural" v="bay" />
		<tag k="ssr:stedsnr" v="980541" />
	</node>
	<node id="-40444" lat="59.2991304702" lon="5.20892258534">
		<tag k="name" v="Sæviksundet" />
		<tag k="natural" v="strait" />
		<tag k="ssr:stedsnr" v="980538" />
	</node>
	<node id="-40443" lat="59.2881773763" lon="5.21004236524">
		<tag k="name" v="Fiskeberg" />
		<tag k="natural" v="cape" />
		<tag k="ssr:stedsnr" v="980537" />
	</node>
	<node id="-40442" lat="59.2973030115" lon="5.2067966605">
		<tag k="name" v="Ospøya" />
		<tag k="place" v="island" />
		<tag k="ssr:stedsnr" v="980439" />
	</node>
	<node id="-40437" lat="59.3324194456" lon="5.33943888027">
		<tag k="name" v="Naustvik" />
		<tag k="natural" v="bay" />
		<tag k="ssr:stedsnr" v="970321" />
	</node>
	<node id="-40435" lat="59.2323305564" lon="5.32522222535">
		<tag k="name" v="Breivik" />
		<tag k="natural" v="bay" />
		<tag k="ssr:stedsnr" v="970226" />
	</node>
	<node id="-40431" lat="59.2219250028" lon="5.32413055925">
		<tag k="name" v="Steinarsvika" />
		<tag k="natural" v="bay" />
		<tag k="ssr:stedsnr" v="970206" />
	</node>
	<node id="-40426" lat="59.1777166687" lon="5.1876000069">
		<tag k="name" v="Vikrasanden" />
		<tag k="natural" v="beach" />
		<tag k="place" v="locality" />
		<tag k="ssr:stedsnr" v="970019" />
	</node>
	<node id="-40424" lat="59.1463972197" lon="5.22454721869">
		<tag k="name" v="Raugholmen" />
		<tag k="place" v="islet" />
		<tag k="ssr:stedsnr" v="969577" />
	</node>
	<node id="-41553" lat="59.3326277753" lon="5.18938056395">
		<tag k="name" v="Svarte holmen" />
		<tag k="place" v="islet" />
		<tag k="ssr:stedsnr" v="969492" />
	</node>
	<node id="-40420" lat="59.2509500009" lon="5.19319444615">
		<tag k="name" v="Hedleklubben" />
		<tag k="natural" v="cape" />
		<tag k="ssr:stedsnr" v="969711" />
	</node>
	<node id="-40413" lat="59.3985055585" lon="5.22200556091">
		<tag k="name" v="Træsvågen" />
		<tag k="natural" v="bay" />
		<tag k="ssr:stedsnr" v="951811" />
	</node>
	<node id="-40412" lat="59.3990805517" lon="5.21883888497">
		<tag k="fixme" v="consider seamark:type=rock or natural=shoal" />
		<tag k="name" v="Flataskjeret" />
		<tag k="place" v="islet" />
		<tag k="ssr:stedsnr" v="951809" />
	</node>
	<node id="-40411" lat="59.1694027765" lon="5.17818055888">
		<tag k="name" v="Sandveflæet" />
		<tag k="natural" v="shoal" />
		<tag k="place" v="locality" />
		<tag k="ssr:stedsnr" v="951556" />
	</node>
	<node id="-40410" lat="59.2922694488" lon="5.20651666984">
		<tag k="name" v="Hapaløksodden" />
		<tag k="natural" v="cape" />
		<tag k="ssr:stedsnr" v="937834" />
	</node>
	<node id="-41551" lat="59.2173611095" lon="5.17872221847">
		<tag k="name" v="Bakkalendingane" />
		<tag k="natural" v="cape" />
		<tag k="ssr:stedsnr" v="969290" />
	</node>
	<node id="-40408" lat="59.3756194414" lon="5.14843889069">
		<tag k="fixme" v="consider seamark:type=rock or natural=shoal" />
		<tag k="name" v="Ankerskjer" />
		<tag k="place" v="islet" />
		<tag k="ssr:stedsnr" v="937819" />
	</node>
	<node id="-40407" lat="59.3847416643" lon="5.17108333446">
		<tag k="name" v="Kåvane" />
		<tag k="natural" v="bay" />
		<tag k="ssr:stedsnr" v="936808" />
	</node>
	<node id="-40405" lat="59.4062833348" lon="5.23620000119">
		<tag k="name" v="Osneshavn" />
		<tag k="natural" v="bay" />
		<tag k="ssr:stedsnr" v="936803" />
	</node>
	<node id="-40404" lat="59.3217585332" lon="5.33914802155">
		<tag k="name" v="Låvesundet" />
		<tag k="natural" v="strait" />
		<tag k="ssr:stedsnr" v="936144" />
	</node>
	<node id="-41550" lat="59.2227888903" lon="5.17646666816">
		<tag k="name" v="Litlatre" />
		<tag k="natural" v="beach" />
		<tag k="place" v="locality" />
		<tag k="ssr:stedsnr" v="969259" />
	</node>
	<node id="-40402" lat="59.1646472233" lon="5.30956110911">
		<tag k="name" v="Laksodden" />
		<tag k="natural" v="cape" />
		<tag k="ssr:stedsnr" v="911335" />
	</node>
	<node id="-41549" lat="59.1483222225" lon="5.25780832848">
		<tag k="name" v="Holmen" />
		<tag k="place" v="islet" />
		<tag k="ssr:stedsnr" v="967725" />
	</node>
	<node id="-40395" lat="59.169747219" lon="5.18840278535">
		<tag k="name" v="Sandflua" />
		<tag k="place" v="locality" />
		<tag k="seamark:type" v="rock" />
		<tag k="ssr:stedsnr" v="890537" />
	</node>
	<node id="-40393" lat="59.3062166661" lon="5.17873055769">
		<tag k="fixme" v="consider seamark:type=rock or natural=shoal" />
		<tag k="name" v="Suleskjeret" />
		<tag k="place" v="islet" />
		<tag k="ssr:stedsnr" v="875956" />
	</node>
	<node id="-40391" lat="59.2559222261" lon="5.16937777745">
		<tag k="alt_name" v="Grasløys" />
		<tag k="name" v="Grasløs" />
		<tag k="place" v="islet" />
		<tag k="ssr:stedsnr" v="875060" />
	</node>
	<node id="-40390" lat="59.1474694473" lon="5.21595834088">
		<tag k="name" v="Stokkavika" />
		<tag k="natural" v="bay" />
		<tag k="old_name" v="Stokkevig" />
		<tag k="ssr:stedsnr" v="874611" />
	</node>
	<node id="-40389" lat="59.1425750002" lon="5.23656666628">
		<tag k="name" v="Avlingholmen" />
		<tag k="place" v="islet" />
		<tag k="ssr:stedsnr" v="874605" />
	</node>
	<node id="-40386" lat="59.3562222225" lon="5.3012555586">
		<tag k="name" v="Prestøya" />
		<tag k="place" v="islet" />
		<tag k="ssr:stedsnr" v="950232" />
	</node>
	<node id="-40385" lat="59.3895888855" lon="5.27981667402">
		<tag k="alt_name" v="Storasundflua;Søra Storesundflua" />
		<tag k="name" v="Søra Storasundflua" />
		<tag k="natural" v="shoal" />
		<tag k="place" v="locality" />
		<tag k="ssr:stedsnr" v="950203" />
	</node>
	<node id="-40383" lat="59.3058333321" lon="5.34083332959">
		<tag k="alt_name" v="Fosenøy" />
		<tag k="name" v="Fosen" />
		<tag k="place" v="island" />
		<tag k="ssr:stedsnr" v="852977" />
	</node>
	<node id="-40382" lat="59.3109500014" lon="5.18482499655">
		<tag k="name" v="Kavholmen" />
		<tag k="place" v="islet" />
		<tag k="ssr:stedsnr" v="852969" />
	</node>
	<node id="-40381" lat="59.283013888" lon="5.3747694363">
		<tag k="name" v="Austnes" />
		<tag k="natural" v="cape" />
		<tag k="ssr:stedsnr" v="852906" />
	</node>
	<node id="-41546" lat="59.1433638917" lon="5.2701083375">
		<tag k="name" v="Tverrsundet" />
		<tag k="natural" v="strait" />
		<tag k="ssr:stedsnr" v="967702" />
	</node>
	<node id="-40376" lat="59.292026801" lon="5.37102342158">
		<tag k="name" v="Pustervik" />
		<tag k="natural" v="bay" />
		<tag k="ssr:stedsnr" v="849967" />
	</node>
	<node id="-40375" lat="59.3085888929" lon="5.3358861117">
		<tag k="name" v="Torsvika" />
		<tag k="natural" v="bay" />
		<tag k="ssr:stedsnr" v="849955" />
	</node>
	<node id="-40373" lat="59.3703083335" lon="5.20618055556">
		<tag k="name" v="Kobbholmane" />
		<tag k="place" v="islet" />
		<tag k="ssr:stedsnr" v="937000" />
	</node>
	<node id="-40372" lat="59.3682277744" lon="5.19778333188">
		<tag k="name" v="Breidaflua" />
		<tag k="natural" v="shoal" />
		<tag k="place" v="locality" />
		<tag k="ssr:stedsnr" v="936998" />
	</node>
	<node id="-40371" lat="59.3884888885" lon="5.27799999762">
		<tag k="name" v="Haraldsvik" />
		<tag k="natural" v="bay" />
		<tag k="ssr:stedsnr" v="936983" />
	</node>
	<node id="-40370" lat="59.3815638927" lon="5.01499166237">
		<tag k="name" v="Sjurskolten" />
		<tag k="natural" v="shoal" />
		<tag k="place" v="locality" />
		<tag k="ssr:stedsnr" v="936901" />
	</node>
	<node id="-40369" lat="59.361330557" lon="5.22643054711">
		<tag k="name" v="Knarravik" />
		<tag k="natural" v="bay" />
		<tag k="ssr:stedsnr" v="936778" />
	</node>
	<node id="-40368" lat="59.3649194423" lon="5.20089444779">
		<tag k="alt_name" v="Litle Gråbak" />
		<tag k="fixme" v="consider seamark:type=rock or natural=shoal" />
		<tag k="name" v="Litle Gråbaken" />
		<tag k="place" v="islet" />
		<tag k="ssr:stedsnr" v="936775" />
	</node>
	<node id="-40367" lat="59.417477776" lon="5.10974166553">
		<tag k="alt_name" v="norde Skiftesdal" />
		<tag k="name" v="Nordre Skiftesdal" />
		<tag k="natural" v="bay" />
		<tag k="ssr:stedsnr" v="936734" />
	</node>
	<node id="-40366" lat="59.4134694425" lon="5.10943611517">
		<tag k="alt_name" v="norda Avløypå" />
		<tag k="name" v="Nordra Avløypå" />
		<tag k="natural" v="bay" />
		<tag k="ssr:stedsnr" v="936732" />
	</node>
	<node id="-40365" lat="59.197208338" lon="5.17850556032">
		<tag k="alt_name" v="Hebnesvik" />
		<tag k="name" v="Hemnesvika" />
		<tag k="natural" v="bay" />
		<tag k="ssr:stedsnr" v="936296" />
	</node>
	<node id="-40363" lat="59.2884166684" lon="5.31390000416">
		<tag k="name" v="Steinvikodden" />
		<tag k="natural" v="cape" />
		<tag k="ssr:stedsnr" v="936075" />
	</node>
	<node id="-40362" lat="59.2657882513" lon="5.32863494347">
		<tag k="name" v="Nordstokkholmen" />
		<tag k="place" v="islet" />
		<tag k="ssr:stedsnr" v="936156" />
	</node>
	<node id="-40361" lat="59.3137194467" lon="5.38241944487">
		<tag k="name" v="Fosnaflua" />
		<tag k="natural" v="shoal" />
		<tag k="place" v="locality" />
		<tag k="ssr:stedsnr" v="936147" />
	</node>
	<node id="-40360" lat="59.1791500012" lon="5.16975000024">
		<tag k="name" v="Bollen" />
		<tag k="place" v="locality" />
		<tag k="seamark:type" v="rock" />
		<tag k="ssr:stedsnr" v="830529" />
	</node>
	<node id="-40359" lat="59.1955722187" lon="5.1760416747">
		<tag k="name" v="Hestklubbflua" />
		<tag k="place" v="locality" />
		<tag k="seamark:type" v="rock" />
		<tag k="ssr:stedsnr" v="830516" />
	</node>
	<node id="-40358" lat="59.213869447" lon="5.165208337">
		<tag k="name" v="Sverdholmflua" />
		<tag k="natural" v="shoal" />
		<tag k="place" v="locality" />
		<tag k="ssr:stedsnr" v="935681" />
	</node>
	<node id="-40357" lat="59.1321083366" lon="5.27881943563">
		<tag k="name" v="Nesflua" />
		<tag k="place" v="locality" />
		<tag k="seamark:type" v="rock" />
		<tag k="ssr:stedsnr" v="935601" />
	</node>
	<node id="-40356" lat="59.1296916633" lon="5.27296110754">
		<tag k="name" v="Treboen" />
		<tag k="place" v="locality" />
		<tag k="seamark:type" v="rock" />
		<tag k="ssr:stedsnr" v="935600" />
	</node>
	<node id="-40355" lat="59.3982777797" lon="5.19709165832">
		<tag k="name" v="Skorpeboen" />
		<tag k="natural" v="shoal" />
		<tag k="place" v="locality" />
		<tag k="ssr:stedsnr" v="935382" />
	</node>
	<node id="-40354" lat="59.3537000027" lon="5.29628888372">
		<tag k="name" v="Gloppe" />
		<tag k="natural" v="cape" />
		<tag k="ssr:stedsnr" v="935376" />
	</node>
	<node id="-40353" lat="59.3333999983" lon="5.32985277167">
		<tag k="alt_name" v="Nore Kverneneset" />
		<tag k="name" v="Nordra Kvernneset" />
		<tag k="natural" v="cape" />
		<tag k="ssr:stedsnr" v="935276" />
	</node>
	<node id="-40352" lat="59.3309611128" lon="5.3338972307">
		<tag k="name" v="Søra Kvernneset" />
		<tag k="natural" v="cape" />
		<tag k="ssr:stedsnr" v="935275" />
	</node>
	<node id="-40351" lat="59.3576586375" lon="5.30164563202">
		<tag k="name" v="Svinatangen" />
		<tag k="natural" v="cape" />
		<tag k="ssr:stedsnr" v="816910" />
	</node>
	<node id="-40350" lat="59.3581694426" lon="5.28888056421">
		<tag k="name" v="Klaksholmodden" />
		<tag k="natural" v="cape" />
		<tag k="ssr:stedsnr" v="816909" />
	</node>
	<node id="-40349" lat="59.3713611094" lon="5.30041111454">
		<tag k="name" v="Klubbavik" />
		<tag k="natural" v="bay" />
		<tag k="ssr:stedsnr" v="816907" />
	</node>
	<node id="-40348" lat="59.3501777736" lon="5.18860833975">
		<tag k="fixme" v="consider seamark:type=rock or natural=shoal" />
		<tag k="name" v="Svartholmen" />
		<tag k="place" v="islet" />
		<tag k="ssr:stedsnr" v="815960" />
	</node>
	<node id="-40346" lat="59.3950416676" lon="5.15058334156">
		<tag k="alt_name" v="Skarveskjeret" />
		<tag k="fixme" v="consider seamark:type=rock or natural=shoal" />
		<tag k="name" v="Skarvaskjer" />
		<tag k="place" v="islet" />
		<tag k="ssr:stedsnr" v="815764" />
	</node>
	<node id="-40345" lat="59.2931389182" lon="5.30250048772">
		<tag k="name" v="Nordalsvågen" />
		<tag k="natural" v="bay" />
		<tag k="ssr:stedsnr" v="815161" />
	</node>
	<node id="-40343" lat="59.315636114" lon="5.17921944087">
		<tag k="name" v="Osaflua" />
		<tag k="natural" v="shoal" />
		<tag k="place" v="locality" />
		<tag k="ssr:stedsnr" v="814961" />
	</node>
	<node id="-40342" lat="59.2374305576" lon="5.17578888983">
		<tag k="name" v="Nautskjerflua" />
		<tag k="natural" v="shoal" />
		<tag k="place" v="locality" />
		<tag k="ssr:stedsnr" v="814671" />
	</node>
	<node id="-40339" lat="59.3790769645" lon="5.18525735839">
		<tag k="name" v="Vardholmen" />
		<tag k="place" v="islet" />
		<tag k="ssr:stedsnr" v="790617" />
	</node>
	<node id="-40337" lat="59.1419388899" lon="5.20970554928">
		<tag k="name" v="Flagholmen" />
		<tag k="place" v="islet" />
		<tag k="ssr:stedsnr" v="790402" />
	</node>
	<node id="-40335" lat="59.1316638878" lon="5.24404165983">
		<tag k="name" v="Geitungane" />
		<tag k="place" v="island" />
		<tag k="ssr:stedsnr" v="790389" />
	</node>
	<node id="-40331" lat="59.2379082877" lon="5.32519669263">
		<tag k="alt_name" v="Leitevik" />
		<tag k="name" v="Leitevika" />
		<tag k="natural" v="bay" />
		<tag k="ssr:stedsnr" v="790030" />
	</node>
	<node id="-40326" lat="59.3410891851" lon="5.2854608177">
		<tag k="name" v="Eidsknappen" />
		<tag k="natural" v="cape" />
		<tag k="ssr:stedsnr" v="788779" />
	</node>
	<node id="-41537" lat="59.365872221" lon="5.16099166923">
		<tag k="alt_name" v="Gagnvarfluene;Gangvarfluene" />
		<tag k="loc_name" v="Gangvadfluene" />
		<tag k="name" v="Gangvafluene" />
		<tag k="natural" v="shoal" />
		<tag k="place" v="locality" />
		<tag k="ssr:stedsnr" v="875986" />
	</node>
	<node id="-40324" lat="59.2907083358" lon="5.25000555052">
		<tag k="name" v="Juvika" />
		<tag k="natural" v="bay" />
		<tag k="ssr:stedsnr" v="788773" />
	</node>
	<node id="-40323" lat="59.3554027821" lon="5.30620833766">
		<tag k="name" v="Nottehamn" />
		<tag k="natural" v="bay" />
		<tag k="ssr:stedsnr" v="788770" />
	</node>
	<node id="-40319" lat="59.1993666635" lon="5.18154166376">
		<tag k="name" v="Hemnessand" />
		<tag k="natural" v="beach" />
		<tag k="place" v="locality" />
		<tag k="ssr:stedsnr" v="788561" />
	</node>
	<node id="-40315" lat="59.2158611131" lon="5.32201388473">
		<tag k="name" v="Diskavik" />
		<tag k="natural" v="bay" />
		<tag k="ssr:stedsnr" v="788611" />
	</node>
	<node id="-40310" lat="59.325233336" lon="5.34469999364">
		<tag k="alt_name" v="Kjelleneset" />
		<tag k="name" v="Kjeldeneset" />
		<tag k="natural" v="cape" />
		<tag k="ssr:stedsnr" v="788206" />
	</node>
	<node id="-40308" lat="59.2391750009" lon="5.18347222593">
		<tag k="name" v="Gjerdesvågen" />
		<tag k="natural" v="bay" />
		<tag k="ssr:stedsnr" v="787991" />
	</node>
	<node id="-40305" lat="59.1729750016" lon="5.19087776915">
		<tag k="name" v="Søre Åkervik" />
		<tag k="natural" v="bay" />
		<tag k="ssr:stedsnr" v="787004" />
	</node>
	<node id="-40301" lat="59.3191277746" lon="5.32312500358">
		<tag k="fixme" v="consider seamark:type=rock or natural=shoal" />
		<tag k="name" v="Kulorten" />
		<tag k="place" v="islet" />
		<tag k="ssr:stedsnr" v="913987" />
	</node>
	<node id="-40297" lat="59.2847749997" lon="5.18053611665">
		<tag k="name" v="Dyrholmen" />
		<tag k="place" v="islet" />
		<tag k="ssr:stedsnr" v="913599" />
	</node>
	<node id="-40296" lat="59.3062388927" lon="5.37436944957">
		<tag k="alt_name" v="Jektevik" />
		<tag k="name" v="Jektavika" />
		<tag k="natural" v="bay" />
		<tag k="ssr:stedsnr" v="912952" />
	</node>
	<node id="-41532" lat="59.129369448" lon="5.27736666988">
		<tag k="name" v="Treboskolten" />
		<tag k="place" v="locality" />
		<tag k="seamark:type" v="rock" />
		<tag k="ssr:stedsnr" v="874595" />
	</node>
	<node id="-40291" lat="59.2723999975" lon="5.14723611324">
		<tag k="alt_name" v="Rauflesk" />
		<tag k="fixme" v="consider seamark:type=rock or natural=shoal" />
		<tag k="name" v="Rauvflesk" />
		<tag k="place" v="islet" />
		<tag k="ssr:stedsnr" v="912912" />
	</node>
	<node id="-41509" lat="59.2281222192" lon="5.32422222085">
		<tag k="alt_name" v="Breivik" />
		<tag k="name" v="Breidvika" />
		<tag k="natural" v="bay" />
		<tag k="ssr:stedsnr" v="851306" />
	</node>
	<node id="-40289" lat="59.3900250042" lon="5.03780833265">
		<tag k="name" v="Persskallen" />
		<tag k="natural" v="shoal" />
		<tag k="place" v="locality" />
		<tag k="ssr:stedsnr" v="912732" />
	</node>
	<node id="-40286" lat="59.3848972264" lon="5.2087694412">
		<tag k="alt_name" v="Engøy;Ingøy" />
		<tag k="name" v="Engøya" />
		<tag k="place" v="islet" />
		<tag k="ssr:stedsnr" v="912601" />
	</node>
	<node id="-40283" lat="59.3528000035" lon="5.2038888926">
		<tag k="alt_name" v="Visnesbukt" />
		<tag k="name" v="Visnesbukta" />
		<tag k="natural" v="bay" />
		<tag k="ssr:stedsnr" v="912589" />
	</node>
	<node id="-40282" lat="59.3581555588" lon="5.20744999637">
		<tag k="alt_name" v="Hamneholmane" />
		<tag k="name" v="Hamnaholmane" />
		<tag k="place" v="islet" />
		<tag k="ssr:stedsnr" v="912584" />
	</node>
	<node id="-40280" lat="59.3633972207" lon="5.20230834041">
		<tag k="alt_name" v="Store Gråbak;store Gråbaken" />
		<tag k="name" v="Gråbak" />
		<tag k="place" v="islet" />
		<tag k="ssr:stedsnr" v="912573" />
	</node>
	<node id="-40279" lat="59.3317861099" lon="5.19365833003">
		<tag k="name" v="Lamholmen" />
		<tag k="place" v="islet" />
		<tag k="ssr:stedsnr" v="912547" />
	</node>
	<node id="-40277" lat="59.3398300139" lon="5.29214176151">
		<tag k="alt_name" v="Husøy" />
		<tag k="name" v="Husøya" />
		<tag k="place" v="island" />
		<tag k="ssr:stedsnr" v="912538" />
	</node>
	<node id="-40274" lat="59.1749583312" lon="5.31181110935">
		<tag k="name" v="Krosshammaren" />
		<tag k="natural" v="cape" />
		<tag k="ssr:stedsnr" v="912431" />
	</node>
	<node id="-40273" lat="59.1415527807" lon="5.24439167233">
		<tag k="name" v="Nalei" />
		<tag k="natural" v="cape" />
		<tag k="ssr:stedsnr" v="912425" />
	</node>
	<node id="-40272" lat="59.2066666644" lon="5.1709249945">
		<tag k="alt_name" v="Grøtvika;Grotvika" />
		<tag k="name" v="Grøtvik" />
		<tag k="natural" v="bay" />
		<tag k="ssr:stedsnr" v="912119" />
	</node>
	<node id="-40271" lat="59.1959194448" lon="5.31424444495">
		<tag k="name" v="Hestavika" />
		<tag k="natural" v="bay" />
		<tag k="ssr:stedsnr" v="912090" />
	</node>
	<node id="-40270" lat="59.175261111" lon="5.18081110353">
		<tag k="name" v="Skårnes" />
		<tag k="natural" v="cape" />
		<tag k="ssr:stedsnr" v="912066" />
	</node>
	<node id="-40269" lat="59.1171888847" lon="5.25613333666">
		<tag k="bay" v="fjord" />
		<tag k="name" v="Skudenesfjorden" />
		<tag k="natural" v="bay" />
		<tag k="ssr:stedsnr" v="911414" />
	</node>
	<node id="-40265" lat="59.2313666651" lon="5.07453611245">
		<tag k="alt_name" v="Kjerringøy" />
		<tag k="name" v="Kjerringøya" />
		<tag k="place" v="islet" />
		<tag k="ssr:stedsnr" v="911051" />
	</node>
	<node id="-40264" lat="59.2486666694" lon="5.19680000142">
		<tag k="name" v="Åkrasanden" />
		<tag k="natural" v="beach" />
		<tag k="place" v="locality" />
		<tag k="ssr:stedsnr" v="911047" />
	</node>
	<node id="-41526" lat="59.2887388881" lon="5.19131944907">
		<tag k="name" v="Vardholmane" />
		<tag k="place" v="islet" />
		<tag k="ssr:stedsnr" v="852933" />
	</node>
	<node id="-40257" lat="59.2402083365" lon="5.18070554924">
		<tag k="fixme" v="consider seamark:type=rock or natural=shoal" />
		<tag k="name" v="Tindasjer" />
		<tag k="place" v="islet" />
		<tag k="ssr:stedsnr" v="909976" />
	</node>
	<node id="-40249" lat="59.3506888914" lon="5.21381111264">
		<tag k="name" v="Fiskedammen" />
		<tag k="natural" v="bay" />
		<tag k="ssr:stedsnr" v="909733" />
	</node>
	<node id="-40238" lat="59.3431055564" lon="5.18616389194">
		<tag k="name" v="Stakk-smettå" />
		<tag k="natural" v="strait" />
		<tag k="ssr:stedsnr" v="909702" />
	</node>
	<node id="-40232" lat="59.1420749973" lon="5.2728194524">
		<tag k="alt_name" v="Vigeholmen" />
		<tag k="name" v="Vikaholmen" />
		<tag k="place" v="islet" />
		<tag k="ssr:stedsnr" v="909572" />
	</node>
	<node id="-40229" lat="59.14070833" lon="5.24567778031">
		<tag k="name" v="Stornes" />
		<tag k="natural" v="cape" />
		<tag k="ssr:stedsnr" v="909563" />
	</node>
	<node id="-40227" lat="59.3110694434" lon="5.22488610282">
		<tag k="name" v="Leirodden" />
		<tag k="natural" v="cape" />
		<tag k="ssr:stedsnr" v="909336" />
	</node>
	<node id="-41520" lat="59.4052166692" lon="4.99062500756">
		<tag k="alt_name" v="Steinbåen" />
		<tag k="name" v="Steinboen" />
		<tag k="natural" v="shoal" />
		<tag k="place" v="locality" />
		<tag k="ssr:stedsnr" v="852690" />
	</node>
	<node id="-40213" lat="59.3269027769" lon="5.36643610432">
		<tag k="name" v="Vendelsvik" />
		<tag k="natural" v="bay" />
		<tag k="ssr:stedsnr" v="909251" />
	</node>
	<node id="-40212" lat="59.3271250012" lon="5.35860278073">
		<tag k="name" v="Fosnaneset" />
		<tag k="natural" v="cape" />
		<tag k="ssr:stedsnr" v="909250" />
	</node>
	<node id="-40211" lat="59.3280333304" lon="5.3605472184">
		<tag k="name" v="Vollsvika" />
		<tag k="natural" v="bay" />
		<tag k="ssr:stedsnr" v="909249" />
	</node>
	<node id="-40209" lat="59.2265694431" lon="5.1690777834">
		<tag k="name" v="Neset" />
		<tag k="natural" v="cape" />
		<tag k="ssr:stedsnr" v="909220" />
	</node>
	<node id="-40207" lat="59.2437555563" lon="5.18755832823">
		<tag k="name" v="Nessjå" />
		<tag k="natural" v="cape" />
		<tag k="ssr:stedsnr" v="909203" />
	</node>
	<node id="-40203" lat="59.305405556" lon="5.30021110591">
		<tag k="name" v="Litle Lyngholm" />
		<tag k="place" v="islet" />
		<tag k="ssr:stedsnr" v="909060" />
	</node>
	<node id="-40200" lat="59.167511112" lon="5.19365832812">
		<tag k="name" v="Kalhaien" />
		<tag k="natural" v="cape" />
		<tag k="ssr:stedsnr" v="909008" />
	</node>
	<node id="-40199" lat="59.1448666675" lon="5.2598666672">
		<tag k="name" v="Steiningsholmsnaget" />
		<tag k="place" v="locality" />
		<tag k="seamark:type" v="rock" />
		<tag k="ssr:stedsnr" v="907689" />
	</node>
	<node id="-40198" lat="59.3234833347" lon="5.19745277207">
		<tag k="name" v="Langholmen" />
		<tag k="place" v="islet" />
		<tag k="ssr:stedsnr" v="730988" />
	</node>
	<node id="-40197" lat="59.3248111098" lon="5.37311110424">
		<tag k="alt_name" v="Hellevik" />
		<tag k="name" v="Hellevika" />
		<tag k="natural" v="bay" />
		<tag k="ssr:stedsnr" v="730986" />
	</node>
	<node id="-40196" lat="59.4028666675" lon="4.99169444945">
		<tag k="alt_name" v="Svea, l" />
		<tag k="fixme" v="consider seamark:type=rock or natural=shoal" />
		<tag k="name" v="Litla Svea" />
		<tag k="place" v="islet" />
		<tag k="ssr:stedsnr" v="730770" />
	</node>
	<node id="-40195" lat="59.3586749959" lon="5.02537222655">
		<tag k="alt_name" v="Svenskeskjeret" />
		<tag k="fixme" v="consider seamark:type=rock or natural=shoal" />
		<tag k="name" v="Svenskeskjera" />
		<tag k="place" v="islet" />
		<tag k="ssr:stedsnr" v="730758" />
	</node>
	<node id="-40194" lat="59.3723166704" lon="5.14668888356">
		<tag k="alt_name" v="Sauøy" />
		<tag k="name" v="Sauøya" />
		<tag k="place" v="islet" />
		<tag k="ssr:stedsnr" v="730579" />
	</node>
	<node id="-40190" lat="59.3366249966" lon="5.30505833135">
		<tag k="alt_name" v="Håvøy" />
		<tag k="name" v="Håvøya" />
		<tag k="place" v="islet" />
		<tag k="ssr:stedsnr" v="730563" />
	</node>
	<node id="-40187" lat="59.1645833305" lon="5.31112499489">
		<tag k="name" v="Sandvika" />
		<tag k="natural" v="bay" />
		<tag k="ssr:stedsnr" v="730442" />
	</node>
	<node id="-40186" lat="59.1727055596" lon="5.31159721702">
		<tag k="name" v="Litlehavnen" />
		<tag k="natural" v="bay" />
		<tag k="ssr:stedsnr" v="730428" />
	</node>
	<node id="-40185" lat="59.1405805513" lon="5.2297888868">
		<tag k="fixme" v="consider seamark:type=rock or natural=shoal" />
		<tag k="name" v="Svartaskjer" />
		<tag k="place" v="islet" />
		<tag k="ssr:stedsnr" v="730418" />
	</node>
	<node id="-40184" lat="59.1418888854" lon="5.1752611136">
		<tag k="fixme" v="consider seamark:type=rock or natural=shoal" />
		<tag k="name" v="Svelgjeskjer" />
		<tag k="place" v="islet" />
		<tag k="ssr:stedsnr" v="730383" />
	</node>
	<node id="-41513" lat="59.171038885" lon="5.31016667133">
		<tag k="name" v="Bekkjarvika" />
		<tag k="natural" v="bay" />
		<tag k="ssr:stedsnr" v="851385" />
	</node>
	<node id="-40180" lat="59.2166916642" lon="5.18098332868">
		<tag k="name" v="Taravika" />
		<tag k="natural" v="bay" />
		<tag k="ssr:stedsnr" v="729015" />
	</node>
	<node id="-40179" lat="59.2944083339" lon="5.33797500452">
		<tag k="name" v="Lønningstø" />
		<tag k="natural" v="bay" />
		<tag k="ssr:stedsnr" v="727967" />
	</node>
	<node id="-40177" lat="59.1489694455" lon="5.28557777459">
		<tag k="name" v="Skålavåg" />
		<tag k="natural" v="cape" />
		<tag k="ssr:stedsnr" v="727645" />
	</node>
	<node id="-41512" lat="59.1783166697" lon="5.31041388841">
		<tag k="name" v="Norstø" />
		<tag k="natural" v="bay" />
		<tag k="ssr:stedsnr" v="851382" />
	</node>
	<node id="-40170" lat="59.1990605101" lon="5.17790000637">
		<tag k="name" v="Fernes" />
		<tag k="natural" v="cape" />
		<tag k="ssr:stedsnr" v="727579" />
	</node>
	<node id="-40169" lat="59.2035027789" lon="5.16725000392">
		<tag k="name" v="Tønneshammaren" />
		<tag k="natural" v="cape" />
		<tag k="ssr:stedsnr" v="727576" />
	</node>
	<node id="-40164" lat="59.312083337" lon="5.19606110747">
		<tag k="fixme" v="consider seamark:type=rock or natural=shoal" />
		<tag k="name" v="Homraskjer" />
		<tag k="place" v="islet" />
		<tag k="ssr:stedsnr" v="727316" />
	</node>
	<node id="-40160" lat="59.1685472247" lon="5.19623889452">
		<tag k="name" v="Mjølhussand" />
		<tag k="natural" v="beach" />
		<tag k="place" v="locality" />
		<tag k="ssr:stedsnr" v="727015" />
	</node>
	<node id="-40158" lat="59.1835138916" lon="5.16989166651">
		<tag k="name" v="Hagaskolten" />
		<tag k="natural" v="shoal" />
		<tag k="place" v="locality" />
		<tag k="ssr:stedsnr" v="890562" />
	</node>
	<node id="-40157" lat="59.3796972263" lon="5.21726666106">
		<tag k="name" v="Langårsholmen" />
		<tag k="place" v="islet" />
		<tag k="ssr:stedsnr" v="694821" />
	</node>
	<node id="-40155" lat="59.3751555516" lon="5.18657778282">
		<tag k="name" v="Kjerringeholmane" />
		<tag k="place" v="islet" />
		<tag k="ssr:stedsnr" v="694803" />
	</node>
	<node id="-40154" lat="59.2698055573" lon="5.17772222384">
		<tag k="alt_name" v="Longaskjer" />
		<tag k="fixme" v="consider seamark:type=rock or natural=shoal" />
		<tag k="name" v="Langskjeret" />
		<tag k="place" v="islet" />
		<tag k="ssr:stedsnr" v="694778" />
	</node>
	<node id="-40153" lat="59.4182166652" lon="5.11256667247">
		<tag k="name" v="Smørholå" />
		<tag k="natural" v="bay" />
		<tag k="ssr:stedsnr" v="694756" />
	</node>
	<node id="-40149" lat="59.3116305531" lon="5.323550009">
		<tag k="name" v="Koltrepynten" />
		<tag k="natural" v="cape" />
		<tag k="ssr:stedsnr" v="693168" />
	</node>
	<node id="-40148" lat="59.2292833341" lon="5.0634888841">
		<tag k="name" v="Storeboen" />
		<tag k="natural" v="shoal" />
		<tag k="place" v="locality" />
		<tag k="ssr:stedsnr" v="692663" />
	</node>
	<node id="-40146" lat="59.1446472216" lon="5.22123611118">
		<tag k="name" v="Marlaukeholmen" />
		<tag k="place" v="islet" />
		<tag k="ssr:stedsnr" v="669404" />
	</node>
	<node id="-40144" lat="59.3504083305" lon="5.22083055383">
		<tag k="name" v="Litle Kvalavåg" />
		<tag k="natural" v="cape" />
		<tag k="ssr:stedsnr" v="666722" />
	</node>
	<node id="-40140" lat="59.3092472227" lon="5.21381944164">
		<tag k="name" v="Hådyr" />
		<tag k="natural" v="cape" />
		<tag k="ssr:stedsnr" v="666323" />
	</node>
	<node id="-41506" lat="59.1854111083" lon="5.17831110855">
		<tag k="alt_name" v="Breidvika" />
		<tag k="name" v="Breivik" />
		<tag k="natural" v="bay" />
		<tag k="ssr:stedsnr" v="851088" />
	</node>
	<node id="-40136" lat="59.2985805577" lon="5.20774722022">
		<tag k="name" v="Porsholmen" />
		<tag k="place" v="islet" />
		<tag k="ssr:stedsnr" v="666309" />
	</node>
	<node id="-40134" lat="59.1763555567" lon="5.18293611879">
		<tag k="name" v="Landrau" />
		<tag k="natural" v="beach" />
		<tag k="place" v="locality" />
		<tag k="ssr:stedsnr" v="666011" />
	</node>
	<node id="-40133" lat="59.1740111094" lon="5.18969444225">
		<tag k="name" v="Nordre Åkervik" />
		<tag k="natural" v="bay" />
		<tag k="ssr:stedsnr" v="666009" />
	</node>
	<node id="-40131" lat="59.1442888933" lon="5.26659444743">
		<tag k="name" v="Steinen" />
		<tag k="place" v="locality" />
		<tag k="seamark:type" v="rock" />
		<tag k="ssr:stedsnr" v="664740" />
	</node>
	<node id="-40130" lat="59.142005557" lon="5.26446389715">
		<tag k="fixme" v="consider seamark:type=rock or natural=shoal" />
		<tag k="name" v="Svartaskjeret" />
		<tag k="place" v="islet" />
		<tag k="ssr:stedsnr" v="664731" />
	</node>
	<node id="-40126" lat="59.4000305585" lon="4.98894722416">
		<tag k="name" v="Vestreflua" />
		<tag k="natural" v="shoal" />
		<tag k="place" v="locality" />
		<tag k="ssr:stedsnr" v="876915" />
	</node>
	<node id="-40124" lat="59.3798333323" lon="5.17762778088">
		<tag k="name" v="Kvigeholmen" />
		<tag k="place" v="islet" />
		<tag k="ssr:stedsnr" v="876849" />
	</node>
	<node id="-40123" lat="59.4028416677" lon="5.23521667458">
		<tag k="name" v="Hauskjevågen" />
		<tag k="natural" v="bay" />
		<tag k="ssr:stedsnr" v="876836" />
	</node>
	<node id="-40122" lat="59.3936333355" lon="5.22061944199">
		<tag k="name" v="Skjølingstadtre" />
		<tag k="natural" v="cape" />
		<tag k="ssr:stedsnr" v="876832" />
	</node>
	<node id="-40121" lat="59.395866666" lon="5.21272777688">
		<tag k="name" v="Litla Lamholmen" />
		<tag k="place" v="islet" />
		<tag k="ssr:stedsnr" v="876831" />
	</node>
	<node id="-40120" lat="59.3938111069" lon="5.20959722602">
		<tag k="alt_name" v="Teksla" />
		<tag k="fixme" v="consider seamark:type=rock or natural=shoal" />
		<tag k="name" v="Tekslo" />
		<tag k="place" v="islet" />
		<tag k="ssr:stedsnr" v="876830" />
	</node>
	<node id="-40118" lat="59.3781972214" lon="5.15197499575">
		<tag k="name" v="Ringomstrømmen" />
		<tag k="natural" v="bay" />
		<tag k="ssr:stedsnr" v="876822" />
	</node>
	<node id="-40117" lat="59.3708527757" lon="5.18595554733">
		<tag k="name" v="Kålgarden" />
		<tag k="place" v="islet" />
		<tag k="ssr:stedsnr" v="876810" />
	</node>
	<node id="-40116" lat="59.2734190682" lon="5.19164446">
		<tag k="name" v="Stivlevågen" />
		<tag k="natural" v="bay" />
		<tag k="ssr:stedsnr" v="876807" />
	</node>
	<node id="-40115" lat="59.3705222259" lon="5.23680834031">
		<tag k="name" v="Trestranda" />
		<tag k="natural" v="bay" />
		<tag k="ssr:stedsnr" v="876801" />
	</node>
	<node id="-40114" lat="59.3646861107" lon="5.21005000726">
		<tag k="fixme" v="multiple name tags, choose one and add the other to alt_name" />
		<tag k="name" v="Stora Straumsund;Straumsundet" />
		<tag k="natural" v="strait" />
		<tag k="ssr:stedsnr" v="876800" />
	</node>
	<node id="-40112" lat="59.4014444456" lon="5.37227221464">
		<tag k="alt_name" v="Eikesholmane" />
		<tag k="name" v="Eikjesholmen" />
		<tag k="place" v="islet" />
		<tag k="ssr:stedsnr" v="876582" />
	</node>
	<node id="-40111" lat="59.4127944448" lon="5.2274472278">
		<tag k="name" v="Båsen" />
		<tag k="natural" v="bay" />
		<tag k="ssr:stedsnr" v="648707" />
	</node>
	<node id="-40110" lat="59.1883138893" lon="5.17261388295">
		<tag k="fixme" v="consider seamark:type=rock or natural=shoal" />
		<tag k="name" v="Småskjer" />
		<tag k="place" v="islet" />
		<tag k="ssr:stedsnr" v="647533" />
	</node>
	<node id="-40109" lat="59.3102277819" lon="5.17611388307">
		<tag k="fixme" v="consider seamark:type=rock or natural=shoal" />
		<tag k="name" v="Keipen" />
		<tag k="place" v="islet" />
		<tag k="ssr:stedsnr" v="731980" />
	</node>
	<node id="-40105" lat="59.3860333373" lon="5.03480277847">
		<tag k="alt_name" v="Steinbåen" />
		<tag k="name" v="Steinboen" />
		<tag k="natural" v="shoal" />
		<tag k="place" v="locality" />
		<tag k="ssr:stedsnr" v="731579" />
	</node>
	<node id="-40104" lat="59.2917638928" lon="5.39696110915">
		<tag k="alt_name" v="Leirvågholmen" />
		<tag k="name" v="Høvringholmen" />
		<tag k="place" v="islet" />
		<tag k="ssr:stedsnr" v="730940" />
	</node>
	<node id="-40103" lat="59.2796638933" lon="5.18016111839">
		<tag k="alt_name" v="Marøy" />
		<tag k="name" v="Marøya" />
		<tag k="place" v="island" />
		<tag k="ssr:stedsnr" v="730936" />
	</node>
	<node id="-40101" lat="59.2786555576" lon="5.3219944457">
		<tag k="alt_name" v="Russvika;Russvik" />
		<tag k="name" v="Russevika" />
		<tag k="natural" v="bay" />
		<tag k="ssr:stedsnr" v="730925" />
	</node>
	<node id="-40100" lat="59.281216669" lon="5.34434167322">
		<tag k="alt_name" v="Holaholmen;Tjolandholmen" />
		<tag k="name" v="Hodlaholmen" />
		<tag k="place" v="islet" />
		<tag k="ssr:stedsnr" v="730923" />
	</node>
	<node id="-40099" lat="59.2670500016" lon="5.17453332981">
		<tag k="fixme" v="consider seamark:type=rock or natural=shoal" />
		<tag k="name" v="Småskjer" />
		<tag k="place" v="islet" />
		<tag k="ssr:stedsnr" v="730919" />
	</node>
	<node id="-40097" lat="59.2672861087" lon="5.4065472265">
		<tag k="alt_name" v="Fårå;Fårøyvågen" />
		<tag k="name" v="Forøyvågen" />
		<tag k="natural" v="bay" />
		<tag k="ssr:stedsnr" v="730903" />
	</node>
	<node id="-40096" lat="59.2588500035" lon="5.35574722084">
		<tag k="alt_name" v="Lamholmen" />
		<tag k="name" v="Langholmen" />
		<tag k="place" v="islet" />
		<tag k="ssr:stedsnr" v="730891" />
	</node>
	<node id="-40094" lat="59.4098583348" lon="5.21477777877">
		<tag k="name" v="Leiarholmane" />
		<tag k="place" v="islet" />
		<tag k="ssr:stedsnr" v="730650" />
	</node>
	<node id="-41498" lat="59.2892361152" lon="5.20488610703">
		<tag k="name" v="Gongholmane" />
		<tag k="place" v="islet" />
		<tag k="ssr:stedsnr" v="849867" />
	</node>
	<node id="-40090" lat="59.37583333" lon="5.20971944385">
		<tag k="alt_name" v="Langøy" />
		<tag k="name" v="Langøya" />
		<tag k="place" v="islet" />
		<tag k="ssr:stedsnr" v="730639" />
	</node>
	<node id="-40084" lat="59.4199722181" lon="5.11978888333">
		<tag k="name" v="Kalven" />
		<tag k="place" v="islet" />
		<tag k="ssr:stedsnr" v="729679" />
	</node>
	<node id="-40080" lat="59.1989555572" lon="5.17117221734">
		<tag k="alt_name" v="Hebneståa" />
		<tag k="name" v="Hemneståna" />
		<tag k="natural" v="cape" />
		<tag k="ssr:stedsnr" v="729100" />
	</node>
	<node id="-40076" lat="59.4221888871" lon="5.11470833883">
		<tag k="fixme" v="consider seamark:type=rock or natural=shoal" />
		<tag k="name" v="Litle Meler" />
		<tag k="place" v="islet" />
		<tag k="ssr:stedsnr" v="633108" />
	</node>
	<node id="-40074" lat="59.3224166645" lon="5.30769444307">
		<tag k="name" v="Gadesflua" />
		<tag k="natural" v="shoal" />
		<tag k="place" v="locality" />
		<tag k="ssr:stedsnr" v="632174" />
	</node>
	<node id="-40073" lat="59.147166664" lon="5.17831665941">
		<tag k="name" v="Meflua" />
		<tag k="natural" v="shoal" />
		<tag k="place" v="locality" />
		<tag k="ssr:stedsnr" v="631576" />
	</node>
	<node id="-40072" lat="59.3065500024" lon="5.33624721687">
		<tag k="name" v="Steintre" />
		<tag k="natural" v="cape" />
		<tag k="ssr:stedsnr" v="727942" />
	</node>
	<node id="-40071" lat="59.3603194463" lon="5.29165555147">
		<tag k="name" v="Kyrkjeflua" />
		<tag k="natural" v="shoal" />
		<tag k="place" v="locality" />
		<tag k="ssr:stedsnr" v="631361" />
	</node>
	<node id="-41494" lat="59.3475111138" lon="5.20904444423">
		<tag k="name" v="Helganes" />
		<tag k="natural" v="cape" />
		<tag k="ssr:stedsnr" v="849768" />
	</node>
	<node id="-40063" lat="59.3505500034" lon="5.21243611247">
		<tag k="name" v="Svinøytangen" />
		<tag k="natural" v="cape" />
		<tag k="ssr:stedsnr" v="727750" />
	</node>
	<node id="-40054" lat="59.2390166648" lon="5.34657223078">
		<tag k="name" v="Karmsundet" />
		<tag k="natural" v="strait" />
		<tag k="ssr:stedsnr" v="727673" />
	</node>
	<node id="-40047" lat="59.1455250002" lon="5.22296110631">
		<tag k="name" v="Matlaugeholmane" />
		<tag k="place" v="islet" />
		<tag k="ssr:stedsnr" v="727550" />
	</node>
	<node id="-40044" lat="59.3174833289" lon="5.18917777147">
		<tag k="name" v="Kvitingane" />
		<tag k="place" v="islet" />
		<tag k="ssr:stedsnr" v="727464" />
	</node>
	<node id="-40043" lat="59.3197527742" lon="5.18693611727">
		<tag k="name" v="Svarteholmen" />
		<tag k="place" v="islet" />
		<tag k="ssr:stedsnr" v="727460" />
	</node>
	<node id="-40041" lat="59.1626388926" lon="5.30568055039">
		<tag k="fixme" v="consider seamark:type=rock or natural=shoal" />
		<tag k="name" v="Svartaskjer" />
		<tag k="place" v="islet" />
		<tag k="ssr:stedsnr" v="727296" />
	</node>
	<node id="-40040" lat="59.164813888" lon="5.30526944185">
		<tag k="name" v="Taravika" />
		<tag k="natural" v="bay" />
		<tag k="ssr:stedsnr" v="727295" />
	</node>
	<node id="-40039" lat="59.2151833366" lon="5.17831665802">
		<tag k="fixme" v="consider seamark:type=rock or natural=shoal" />
		<tag k="name" v="Rullevikskjeret" />
		<tag k="place" v="islet" />
		<tag k="ssr:stedsnr" v="727292" />
	</node>
	<node id="-40036" lat="59.2943194457" lon="5.2108222258">
		<tag k="name" v="Rundhagen" />
		<tag k="natural" v="bay" />
		<tag k="ssr:stedsnr" v="727148" />
	</node>
	<node id="-40035" lat="59.2963194422" lon="5.21005555671">
		<tag k="name" v="Ropet" />
		<tag k="natural" v="cape" />
		<tag k="ssr:stedsnr" v="727147" />
	</node>
	<node id="-40032" lat="59.3183999979" lon="5.33702778294">
		<tag k="name" v="Eggavik" />
		<tag k="natural" v="bay" />
		<tag k="ssr:stedsnr" v="727223" />
	</node>
	<node id="-41488" lat="59.1934694423" lon="5.31911666773">
		<tag k="name" v="Karmøysundet" />
		<tag k="natural" v="strait" />
		<tag k="ssr:stedsnr" v="849717" />
	</node>
	<node id="-40030" lat="59.2260305554" lon="5.17029722354">
		<tag k="name" v="Djupevik" />
		<tag k="natural" v="bay" />
		<tag k="ssr:stedsnr" v="727214" />
	</node>
	<node id="-40027" lat="59.1478444471" lon="5.25432500298">
		<tag k="name" v="Kanalen" />
		<tag k="natural" v="bay" />
		<tag k="ssr:stedsnr" v="725722" />
	</node>
	<node id="-40026" lat="59.1445722188" lon="5.25744999915">
		<tag k="name" v="Skagaskjeret" />
		<tag k="natural" v="cape" />
		<tag k="ssr:stedsnr" v="725714" />
	</node>
	<node id="-40025" lat="59.1490527807" lon="5.25720555008">
		<tag k="fixme" v="consider seamark:type=rock or natural=shoal" />
		<tag k="name" v="Vadholmskjeret" />
		<tag k="place" v="islet" />
		<tag k="ssr:stedsnr" v="725708" />
	</node>
	<node id="-40024" lat="59.1456555585" lon="5.25944722532">
		<tag k="name" v="Steiningsodden" />
		<tag k="natural" v="cape" />
		<tag k="ssr:stedsnr" v="725707" />
	</node>
	<node id="-40023" lat="59.1440111115" lon="5.26480556132">
		<tag k="name" v="Guleholmen" />
		<tag k="place" v="islet" />
		<tag k="ssr:stedsnr" v="725699" />
	</node>
	<node id="-40022" lat="59.1436527789" lon="5.25389167443">
		<tag k="name" v="Torkjellsnakken" />
		<tag k="natural" v="cape" />
		<tag k="ssr:stedsnr" v="725696" />
	</node>
	<node id="-40021" lat="59.3835388931" lon="5.2986805493">
		<tag k="name" v="Hammaren" />
		<tag k="natural" v="cape" />
		<tag k="ssr:stedsnr" v="725098" />
	</node>
	<node id="-40020" lat="59.3791166673" lon="5.2974555551">
		<tag k="name" v="Norheimsholmen" />
		<tag k="place" v="islet" />
		<tag k="ssr:stedsnr" v="725095" />
	</node>
	<node id="-41500" lat="59.3015888858" lon="5.33721944412">
		<tag k="name" v="Helgelandsvika" />
		<tag k="natural" v="bay" />
		<tag k="ssr:stedsnr" v="849945" />
	</node>
	<node id="-40015" lat="59.3067944488" lon="5.20839166265">
		<tag k="name" v="Sandholmen" />
		<tag k="place" v="islet" />
		<tag k="ssr:stedsnr" v="609967" />
	</node>
	<node id="-40014" lat="59.3085555674" lon="5.3838033118">
		<tag k="name" v="Fosnaholmen" />
		<tag k="place" v="islet" />
		<tag k="ssr:stedsnr" v="609961" />
	</node>
	<node id="-40011" lat="59.4031888859" lon="5.08332777849">
		<tag k="name" v="Bjørkeværgrunnen" />
		<tag k="natural" v="shoal" />
		<tag k="place" v="locality" />
		<tag k="ssr:stedsnr" v="608753" />
	</node>
	<node id="-40009" lat="59.4028777813" lon="5.23331388161">
		<tag k="alt_name" v="Langeneset" />
		<tag k="name" v="Langaneset" />
		<tag k="natural" v="cape" />
		<tag k="ssr:stedsnr" v="608644" />
	</node>
	<node id="-40007" lat="59.3881555587" lon="5.16474444863">
		<tag k="alt_name" v="Kvaløysund" />
		<tag k="name" v="Kvaløysundet" />
		<tag k="natural" v="strait" />
		<tag k="ssr:stedsnr" v="608606" />
	</node>
	<node id="-40005" lat="59.1449611124" lon="5.19503888795">
		<tag k="fixme" v="consider seamark:type=rock or natural=shoal" />
		<tag k="name" v="Alleskjer" />
		<tag k="place" v="islet" />
		<tag k="ssr:stedsnr" v="608410" />
	</node>
	<node id="-41483" lat="59.2768638896" lon="5.3678583414">
		<tag k="name" v="Austnesvika" />
		<tag k="natural" v="bay" />
		<tag k="ssr:stedsnr" v="849663" />
	</node>
	<node id="-40000" lat="59.2795749979" lon="5.34622778241">
		<tag k="name" v="Grydvikene" />
		<tag k="natural" v="bay" />
		<tag k="ssr:stedsnr" v="605575" />
	</node>
	<node id="-39998" lat="59.1469416641" lon="5.23062778112">
		<tag k="name" v="Fladaskjerene" />
		<tag k="place" v="islet" />
		<tag k="ssr:stedsnr" v="605554" />
	</node>
	<node id="-39473" lat="59.4140194449" lon="5.11539167039">
		<tag k="alt_name" v="Søra Skiftesdal" />
		<tag k="name" v="Søre Skiftesdal" />
		<tag k="natural" v="bay" />
		<tag k="ssr:stedsnr" v="269785" />
	</node>
	<node id="-39992" lat="59.277808334" lon="5.37076111082">
		<tag k="name" v="Rossevik" />
		<tag k="natural" v="bay" />
		<tag k="ssr:stedsnr" v="605620" />
	</node>
	<node id="-39991" lat="59.3288388879" lon="5.37660832888">
		<tag k="name" v="Storenes" />
		<tag k="natural" v="cape" />
		<tag k="ssr:stedsnr" v="605247" />
	</node>
	<node id="-39990" lat="59.328149996" lon="5.34167499603">
		<tag k="fixme" v="consider seamark:type=rock or natural=shoal" />
		<tag k="name" v="Ramsvikskjeret" />
		<tag k="place" v="islet" />
		<tag k="ssr:stedsnr" v="605241" />
	</node>
	<node id="-39989" lat="59.3276681233" lon="5.34222488253">
		<tag k="name" v="Dragøybukta" />
		<tag k="natural" v="bay" />
		<tag k="ssr:stedsnr" v="605240" />
	</node>
	<node id="-39987" lat="59.2420527807" lon="5.18748332464">
		<tag k="name" v="Selvikja" />
		<tag k="natural" v="bay" />
		<tag k="ssr:stedsnr" v="605214" />
	</node>
	<node id="-41480" lat="59.2867444402" lon="5.34480833767">
		<tag k="name" v="Tjolandssanden" />
		<tag k="natural" v="beach" />
		<tag k="place" v="locality" />
		<tag k="ssr:stedsnr" v="849611" />
	</node>
	<node id="-39981" lat="59.1724166694" lon="5.19169444062">
		<tag k="name" v="Sveljen" />
		<tag k="natural" v="bay" />
		<tag k="ssr:stedsnr" v="605008" />
	</node>
	<node id="-39980" lat="59.416019441" lon="5.23292777391">
		<tag k="fixme" v="consider seamark:type=rock or natural=shoal" />
		<tag k="name" v="Steinskjeret" />
		<tag k="place" v="islet" />
		<tag k="ssr:stedsnr" v="587732" />
	</node>
	<node id="-39979" lat="59.166027777" lon="5.18596389519">
		<tag k="name" v="Litlaflua" />
		<tag k="place" v="locality" />
		<tag k="seamark:type" v="rock" />
		<tag k="ssr:stedsnr" v="586521" />
	</node>
	<node id="-39977" lat="59.408627778" lon="5.23376666747">
		<tag k="name" v="Klungersvika" />
		<tag k="natural" v="bay" />
		<tag k="ssr:stedsnr" v="709793" />
	</node>
	<node id="-39976" lat="59.4090083297" lon="5.24227499715">
		<tag k="name" v="Kvernavika" />
		<tag k="natural" v="bay" />
		<tag k="ssr:stedsnr" v="709791" />
	</node>
	<node id="-39975" lat="59.4192250035" lon="5.2213527783">
		<tag k="fixme" v="consider seamark:type=rock or natural=shoal" />
		<tag k="name" v="Nordre Bausen" />
		<tag k="place" v="islet" />
		<tag k="ssr:stedsnr" v="709740" />
	</node>
	<node id="-39974" lat="59.4091861147" lon="5.22571666768">
		<tag k="name" v="Kjøtrot" />
		<tag k="place" v="islet" />
		<tag k="ssr:stedsnr" v="709702" />
	</node>
	<node id="-39973" lat="59.1443111136" lon="5.27271666618">
		<tag k="name" v="Neset" />
		<tag k="place" v="locality" />
		<tag k="seamark:type" v="rock" />
		<tag k="ssr:stedsnr" v="709564" />
	</node>
	<node id="-39972" lat="59.1478527794" lon="5.2808361144">
		<tag k="fixme" v="consider seamark:type=rock or natural=shoal" />
		<tag k="name" v="Skammanesskjeret" />
		<tag k="place" v="islet" />
		<tag k="ssr:stedsnr" v="709563" />
	</node>
	<node id="-39971" lat="59.1639388901" lon="5.18777222892">
		<tag k="name" v="Kalvskinnsboen" />
		<tag k="place" v="locality" />
		<tag k="seamark:type" v="rock" />
		<tag k="ssr:stedsnr" v="708527" />
	</node>
	<node id="-39968" lat="59.2511249995" lon="5.18109999609">
		<tag k="name" v="Stonghamar" />
		<tag k="natural" v="cape" />
		<tag k="ssr:stedsnr" v="572852" />
	</node>
	<node id="-39967" lat="59.4231555586" lon="5.20731944061">
		<tag k="name" v="Kråkene" />
		<tag k="place" v="islet" />
		<tag k="ssr:stedsnr" v="572309" />
	</node>
	<node id="-39966" lat="59.2675555541" lon="5.36028055929">
		<tag k="name" v="Seleflua" />
		<tag k="natural" v="shoal" />
		<tag k="place" v="locality" />
		<tag k="ssr:stedsnr" v="572105" />
	</node>
	<node id="-39965" lat="59.3755444424" lon="5.01865833403">
		<tag k="fixme" v="consider seamark:type=rock or natural=shoal" />
		<tag k="name" v="Broteskjeret" />
		<tag k="place" v="islet" />
		<tag k="ssr:stedsnr" v="571912" />
	</node>
	<node id="-39963" lat="59.3690611133" lon="5.03634721439">
		<tag k="name" v="Kråkenakken" />
		<tag k="natural" v="cape" />
		<tag k="ssr:stedsnr" v="695826" />
	</node>
	<node id="-39960" lat="59.1869444473" lon="5.17389999993">
		<tag k="alt_name" v="Nibbå" />
		<tag k="name" v="Nibba" />
		<tag k="natural" v="cape" />
		<tag k="ssr:stedsnr" v="547105" />
	</node>
	<node id="-39957" lat="59.3792333347" lon="5.18843056233">
		<tag k="name" v="Fjerholmane" />
		<tag k="place" v="islet" />
		<tag k="ssr:stedsnr" v="694841" />
	</node>
	<node id="-39954" lat="59.209844443" lon="5.31998054902">
		<tag k="name" v="Sjursvik" />
		<tag k="natural" v="bay" />
		<tag k="ssr:stedsnr" v="545622" />
	</node>
	<node id="-39953" lat="59.2251999996" lon="5.32544443738">
		<tag k="name" v="Bekkarvika" />
		<tag k="natural" v="bay" />
		<tag k="ssr:stedsnr" v="545618" />
	</node>
	<node id="-39950" lat="59.369894448" lon="5.18798055131">
		<tag k="name" v="Kolgarden" />
		<tag k="natural" v="shoal" />
		<tag k="place" v="locality" />
		<tag k="ssr:stedsnr" v="693999" />
	</node>
	<node id="-39949" lat="59.3045388879" lon="5.29095277108">
		<tag k="name" v="Nordnes" />
		<tag k="natural" v="cape" />
		<tag k="ssr:stedsnr" v="545050" />
	</node>
	<node id="-39947" lat="59.1422694417" lon="5.25365834097">
		<tag k="name" v="Litleneset" />
		<tag k="natural" v="cape" />
		<tag k="ssr:stedsnr" v="543730" />
	</node>
	<node id="-39946" lat="59.242716665" lon="5.32562777707">
		<tag k="name" v="Sørstokkvik" />
		<tag k="natural" v="bay" />
		<tag k="ssr:stedsnr" v="693189" />
	</node>
	<node id="-39945" lat="59.2524972214" lon="5.35060278176">
		<tag k="name" v="Smørstakk" />
		<tag k="place" v="islet" />
		<tag k="ssr:stedsnr" v="693102" />
	</node>
	<node id="-39944" lat="59.3836916631" lon="5.37508332494">
		<tag k="name" v="Aksnesflua" />
		<tag k="natural" v="shoal" />
		<tag k="place" v="locality" />
		<tag k="ssr:stedsnr" v="692226" />
	</node>
	<node id="-39943" lat="59.4037416643" lon="5.21840554898">
		<tag k="name" v="Strumpo" />
		<tag k="place" v="islet" />
		<tag k="ssr:stedsnr" v="526823" />
	</node>
	<node id="-39942" lat="59.1439444481" lon="5.26967778356">
		<tag k="name" v="Bakareholmflua" />
		<tag k="place" v="locality" />
		<tag k="seamark:type" v="rock" />
		<tag k="ssr:stedsnr" v="526572" />
	</node>
	<node id="-39941" lat="59.2603388903" lon="5.35136111492">
		<tag k="name" v="Gråjærholmen" />
		<tag k="place" v="islet" />
		<tag k="ssr:stedsnr" v="511090" />
	</node>
	<node id="-39940" lat="59.2397861121" lon="5.36013888562">
		<tag k="name" v="Ternholmflua" />
		<tag k="natural" v="shoal" />
		<tag k="place" v="locality" />
		<tag k="ssr:stedsnr" v="511086" />
	</node>
	<node id="-39938" lat="59.2549555593" lon="5.17900276869">
		<tag k="name" v="Årabrot" />
		<tag k="place" v="islet" />
		<tag k="ssr:stedsnr" v="511068" />
	</node>
	<node id="-39936" lat="59.2569861088" lon="5.18042499906">
		<tag k="name" v="Seihamaren" />
		<tag k="natural" v="cape" />
		<tag k="ssr:stedsnr" v="511063" />
	</node>
	<node id="-39934" lat="59.26663889" lon="5.43076110832">
		<tag k="alt_name" v="Bokneflæet" />
		<tag k="bay" v="fjord" />
		<tag k="name" v="Boknaflæet" />
		<tag k="natural" v="bay" />
		<tag k="ssr:stedsnr" v="487906" />
	</node>
	<node id="-39932" lat="59.1481138888" lon="5.23534166113">
		<tag k="name" v="Hålandsvågen" />
		<tag k="natural" v="bay" />
		<tag k="ssr:stedsnr" v="487435" />
	</node>
	<node id="-41471" lat="59.313277781" lon="5.21947222624">
		<tag k="name" v="Paraldsnes" />
		<tag k="natural" v="cape" />
		<tag k="ssr:stedsnr" v="849324" />
	</node>
	<node id="-39928" lat="59.393852775" lon="5.25322778409">
		<tag k="name" v="Karmøy" />
		<tag k="place" v="island" />
		<tag k="ssr:stedsnr" v="486003" />
	</node>
	<node id="-39927" lat="59.2706361072" lon="5.18635832648">
		<tag k="name" v="Storholm" />
		<tag k="place" v="islet" />
		<tag k="ssr:stedsnr" v="484855" />
	</node>
	<node id="-39926" lat="59.3361944484" lon="5.37149444705">
		<tag k="name" v="Jo-neset" />
		<tag k="natural" v="cape" />
		<tag k="ssr:stedsnr" v="484807" />
	</node>
	<node id="-39925" lat="59.3552805521" lon="5.213072222">
		<tag k="name" v="Avløpsholmen" />
		<tag k="place" v="islet" />
		<tag k="ssr:stedsnr" v="484724" />
	</node>
	<node id="-39912" lat="59.2522972216" lon="5.35143333173">
		<tag k="name" v="Smørstakk" />
		<tag k="place" v="islet" />
		<tag k="ssr:stedsnr" v="484457" />
	</node>
	<node id="-39906" lat="59.3054944455" lon="5.21891388246">
		<tag k="name" v="Svelgen" />
		<tag k="natural" v="cape" />
		<tag k="ssr:stedsnr" v="484258" />
	</node>
	<node id="-41467" lat="59.3207027766" lon="5.21477777673">
		<tag k="name" v="Søylå" />
		<tag k="natural" v="bay" />
		<tag k="ssr:stedsnr" v="849309" />
	</node>
	<node id="-39903" lat="59.3344416698" lon="5.36865555851">
		<tag k="alt_name" v="Røyksundsvika;Røksundsvik" />
		<tag k="name" v="Røyksundvika" />
		<tag k="natural" v="bay" />
		<tag k="ssr:stedsnr" v="484207" />
	</node>
	<node id="-39896" lat="59.2717749966" lon="5.34928888156">
		<tag k="alt_name" v="Svartetongen" />
		<tag k="name" v="Svartetangen" />
		<tag k="natural" v="cape" />
		<tag k="ssr:stedsnr" v="670912" />
	</node>
	<node id="-39895" lat="59.2787777789" lon="5.3931694429">
		<tag k="name" v="Naustvika" />
		<tag k="natural" v="bay" />
		<tag k="ssr:stedsnr" v="670901" />
	</node>
	<node id="-39894" lat="59.2619194436" lon="5.36228333604">
		<tag k="name" v="Selen" />
		<tag k="place" v="island" />
		<tag k="ssr:stedsnr" v="670896" />
	</node>
	<node id="-39888" lat="59.3224944431" lon="5.31027499587">
		<tag k="name" v="Høgevardane" />
		<tag k="natural" v="bay" />
		<tag k="ssr:stedsnr" v="669985" />
	</node>
	<node id="-39887" lat="59.3240027801" lon="5.35483333875">
		<tag k="alt_name" v="Fosnes" />
		<tag k="name" v="Fosnanes" />
		<tag k="natural" v="cape" />
		<tag k="ssr:stedsnr" v="669982" />
	</node>
	<node id="-39885" lat="59.2945396497" lon="5.3715197477">
		<tag k="alt_name" v="Vågavågen, nordre;Nore-Vågavågen" />
		<tag k="name" v="Nordre Vågavågen" />
		<tag k="natural" v="bay" />
		<tag k="ssr:stedsnr" v="669935" />
	</node>
	<node id="-39884" lat="59.2838777739" lon="5.25737778034">
		<tag k="alt_name" v="Skårholmen, yt;Ytre Skårsholmen" />
		<tag k="name" v="Ytre Skårholmen" />
		<tag k="place" v="islet" />
		<tag k="ssr:stedsnr" v="669918" />
	</node>
	<node id="-39883" lat="59.3671611123" lon="5.03325833263">
		<tag k="name" v="Urter" />
		<tag k="place" v="island" />
		<tag k="ssr:stedsnr" v="669725" />
	</node>
	<node id="-39882" lat="59.373536108" lon="5.01244443718">
		<tag k="fixme" v="consider seamark:type=rock or natural=shoal" />
		<tag k="name" v="Skiljeskjeret" />
		<tag k="place" v="islet" />
		<tag k="ssr:stedsnr" v="669718" />
	</node>
	<node id="-39880" lat="59.3935083365" lon="5.1663388968">
		<tag k="alt_name" v="Likvik" />
		<tag k="name" v="Likvika" />
		<tag k="natural" v="bay" />
		<tag k="ssr:stedsnr" v="669629" />
	</node>
	<node id="-39879" lat="59.4092999994" lon="5.11356943662">
		<tag k="alt_name" v="Legerskjeret;Legerskjer" />
		<tag k="fixme" v="consider seamark:type=rock or natural=shoal" />
		<tag k="name" v="Lægerskjer" />
		<tag k="old_name" v="Lagerskjer" />
		<tag k="place" v="islet" />
		<tag k="ssr:stedsnr" v="669604" />
	</node>
	<node id="-39877" lat="59.3750777786" lon="5.1634166715">
		<tag k="alt_name" v="Duøy" />
		<tag k="name" v="Duøya" />
		<tag k="place" v="islet" />
		<tag k="ssr:stedsnr" v="669598" />
	</node>
	<node id="-39876" lat="59.3740777795" lon="5.18392778108">
		<tag k="alt_name" v="Kjerringesund" />
		<tag k="name" v="Kjerringsundet" />
		<tag k="natural" v="strait" />
		<tag k="ssr:stedsnr" v="669596" />
	</node>
	<node id="-39875" lat="59.3815611066" lon="5.14202776961">
		<tag k="alt_name" v="Kokholmane" />
		<tag k="name" v="Kokeholmane" />
		<tag k="place" v="islet" />
		<tag k="ssr:stedsnr" v="669583" />
	</node>
	<node id="-39865" lat="59.1370972223" lon="5.22836666761">
		<tag k="name" v="Langholmen" />
		<tag k="place" v="islet" />
		<tag k="ssr:stedsnr" v="668423" />
	</node>
	<node id="-39859" lat="59.4059250041" lon="5.21680555526">
		<tag k="name" v="Dalslamholmen" />
		<tag k="place" v="islet" />
		<tag k="ssr:stedsnr" v="466812" />
	</node>
	<node id="-39858" lat="59.140919448" lon="5.27292777012">
		<tag k="alt_name" v="Søra Sundet" />
		<tag k="name" v="Sørasundet" />
		<tag k="natural" v="strait" />
		<tag k="ssr:stedsnr" v="466574" />
	</node>
	<node id="-39856" lat="59.2371361072" lon="5.1862805612">
		<tag k="name" v="Gerpavika" />
		<tag k="natural" v="bay" />
		<tag k="ssr:stedsnr" v="666988" />
	</node>
	<node id="-39855" lat="59.2917611142" lon="5.33873333508">
		<tag k="alt_name" v="Tjolandsskjæret;Tjolandskjeret" />
		<tag k="fixme" v="consider seamark:type=rock or natural=shoal" />
		<tag k="name" v="Tjolandsskjeret" />
		<tag k="place" v="islet" />
		<tag k="ssr:stedsnr" v="666957" />
	</node>
	<node id="-39845" lat="59.26271111" lon="5.17609721734">
		<tag k="name" v="Avløypene" />
		<tag k="natural" v="bay" />
		<tag k="ssr:stedsnr" v="666766" />
	</node>
	<node id="-39843" lat="59.3431055564" lon="5.18616389194">
		<tag k="name" v="Stogedalsholmen" />
		<tag k="place" v="islet" />
		<tag k="ssr:stedsnr" v="666691" />
	</node>
	<node id="-39842" lat="59.2514111127" lon="5.19082499491">
		<tag k="name" v="Andersklubben" />
		<tag k="natural" v="cape" />
		<tag k="ssr:stedsnr" v="666682" />
	</node>
	<node id="-39831" lat="59.2884845792" lon="5.36821627788">
		<tag k="name" v="Indrevågen" />
		<tag k="natural" v="bay" />
		<tag k="ssr:stedsnr" v="666581" />
	</node>
	<node id="-39828" lat="59.1488138928" lon="5.22172499772">
		<tag k="name" v="Syresjøen" />
		<tag k="natural" v="bay" />
		<tag k="ssr:stedsnr" v="666547" />
	</node>
	<node id="-39821" lat="59.1666444442" lon="5.31086666886">
		<tag k="name" v="Laksodden" />
		<tag k="natural" v="cape" />
		<tag k="ssr:stedsnr" v="666298" />
	</node>
	<node id="-39815" lat="59.2343083319" lon="5.18668333535">
		<tag k="name" v="Bådsvika" />
		<tag k="natural" v="bay" />
		<tag k="ssr:stedsnr" v="666226" />
	</node>
	<node id="-39814" lat="59.3241694405" lon="5.33886944392">
		<tag k="name" v="Dragøy" />
		<tag k="place" v="island" />
		<tag k="ssr:stedsnr" v="666224" />
	</node>
	<node id="-39810" lat="59.245152782" lon="5.19198055633">
		<tag k="name" v="Følaneset" />
		<tag k="natural" v="cape" />
		<tag k="ssr:stedsnr" v="666198" />
	</node>
	<node id="-39809" lat="59.2456444455" lon="5.19376945245">
		<tag k="name" v="Farlandshammaren" />
		<tag k="natural" v="cape" />
		<tag k="ssr:stedsnr" v="666185" />
	</node>
	<node id="-39805" lat="59.2713780638" lon="5.16945550994">
		<tag k="name" v="Midtflua" />
		<tag k="natural" v="shoal" />
		<tag k="place" v="locality" />
		<tag k="ssr:stedsnr" v="451827" />
	</node>
	<node id="-39804" lat="59.3734111113" lon="5.1636749983">
		<tag k="name" v="Likholmen" />
		<tag k="place" v="islet" />
		<tag k="ssr:stedsnr" v="451820" />
	</node>
	<node id="-39803" lat="59.4036999976" lon="5.16104166956">
		<tag k="fixme" v="consider seamark:type=rock or natural=shoal" />
		<tag k="name" v="Tåskjeret" />
		<tag k="place" v="islet" />
		<tag k="ssr:stedsnr" v="451817" />
	</node>
	<node id="-39802" lat="59.4011083311" lon="5.15662500258">
		<tag k="name" v="Trengene" />
		<tag k="natural" v="strait" />
		<tag k="ssr:stedsnr" v="451815" />
	</node>
	<node id="-39801" lat="59.4011805586" lon="5.16344166463">
		<tag k="name" v="Pershavn" />
		<tag k="natural" v="bay" />
		<tag k="ssr:stedsnr" v="451814" />
	</node>
	<node id="-39799" lat="59.3741472248" lon="5.19982222252">
		<tag k="name" v="Flatmøy" />
		<tag k="place" v="islet" />
		<tag k="ssr:stedsnr" v="451305" />
	</node>
	<node id="-39798" lat="59.4198833373" lon="5.11244444909">
		<tag k="name" v="Smørholmen" />
		<tag k="place" v="islet" />
		<tag k="ssr:stedsnr" v="451108" />
	</node>
	<node id="-39797" lat="59.1393777786" lon="5.29727222265">
		<tag k="name" v="Skudeflua" />
		<tag k="place" v="locality" />
		<tag k="seamark:type" v="rock" />
		<tag k="ssr:stedsnr" v="450629" />
	</node>
	<node id="-39796" lat="59.1271805558" lon="5.27935554711">
		<tag k="name" v="Austboen" />
		<tag k="place" v="locality" />
		<tag k="seamark:type" v="rock" />
		<tag k="ssr:stedsnr" v="450617" />
	</node>
	<node id="-39795" lat="59.4017833297" lon="5.37239167466">
		<tag k="name" v="Storholmen" />
		<tag k="place" v="islet" />
		<tag k="ssr:stedsnr" v="450246" />
	</node>
	<node id="-39791" lat="59.3909861074" lon="5.21283333424">
		<tag k="alt_name" v="Sæbøøy" />
		<tag k="name" v="Sæbøøya" />
		<tag k="place" v="islet" />
		<tag k="ssr:stedsnr" v="426621" />
	</node>
	<node id="-39790" lat="59.4005444463" lon="5.2279138968">
		<tag k="name" v="Dalsvågen" />
		<tag k="natural" v="bay" />
		<tag k="ssr:stedsnr" v="426604" />
	</node>
	<node id="-39786" lat="59.2018333301" lon="5.31767500694">
		<tag k="fixme" v="multiple name tags, choose one and add the other to alt_name; consider seamark:type=rock or natural=shoal" />
		<tag k="name" v="Blikshavnskjeret;Kakkel" />
		<tag k="place" v="islet" />
		<tag k="ssr:stedsnr" v="426114" />
	</node>
	<node id="-39777" lat="59.2331694412" lon="5.32658611708">
		<tag k="name" v="Håtong" />
		<tag k="place" v="islet" />
		<tag k="ssr:stedsnr" v="424633" />
	</node>
	<node id="-39775" lat="59.1394583321" lon="5.27460833032">
		<tag k="alt_name" v="Søre Vikeholmen;Søre Vikaholmen" />
		<tag k="name" v="Søreholmen" />
		<tag k="place" v="islet" />
		<tag k="ssr:stedsnr" v="424618" />
	</node>
	<node id="-39768" lat="59.3320065458" lon="5.28714009626">
		<tag k="alt_name" v="Kolstøvågen" />
		<tag k="name" v="Kollstøvågen" />
		<tag k="natural" v="bay" />
		<tag k="ssr:stedsnr" v="424228" />
	</node>
	<node id="-39764" lat="59.3236166653" lon="5.34604999737">
		<tag k="name" v="Varanesodden" />
		<tag k="natural" v="cape" />
		<tag k="ssr:stedsnr" v="424210" />
	</node>
	<node id="-39759" lat="59.2843944471" lon="5.14593611186">
		<tag k="name" v="Skateflua" />
		<tag k="natural" v="shoal" />
		<tag k="place" v="locality" />
		<tag k="ssr:stedsnr" v="512821" />
	</node>
	<node id="-39756" lat="59.3656138858" lon="5.19721389444">
		<tag k="name" v="Gråbakboen" />
		<tag k="natural" v="shoal" />
		<tag k="place" v="locality" />
		<tag k="ssr:stedsnr" v="511996" />
	</node>
	<node id="-39755" lat="59.3909861113" lon="5.27483888225">
		<tag k="name" v="Vågen" />
		<tag k="natural" v="bay" />
		<tag k="ssr:stedsnr" v="511986" />
	</node>
	<node id="-39754" lat="59.3653833369" lon="5.21488611544">
		<tag k="fixme" v="consider seamark:type=rock or natural=shoal" />
		<tag k="name" v="Saupstein" />
		<tag k="place" v="islet" />
		<tag k="ssr:stedsnr" v="511933" />
	</node>
	<node id="-39753" lat="59.3634499962" lon="5.03448333602">
		<tag k="name" v="Båseflua" />
		<tag k="natural" v="shoal" />
		<tag k="place" v="locality" />
		<tag k="ssr:stedsnr" v="511913" />
	</node>
	<node id="-39752" lat="59.4084194441" lon="5.09946110969">
		<tag k="name" v="Breiflua" />
		<tag k="natural" v="shoal" />
		<tag k="place" v="locality" />
		<tag k="ssr:stedsnr" v="511902" />
	</node>
	<node id="-39751" lat="59.3795500038" lon="5.1756916622">
		<tag k="name" v="Tongane" />
		<tag k="natural" v="cape" />
		<tag k="ssr:stedsnr" v="511816" />
	</node>
	<node id="-39748" lat="59.372508335" lon="5.17149165824">
		<tag k="name" v="Vindkjeft" />
		<tag k="place" v="islet" />
		<tag k="ssr:stedsnr" v="511780" />
	</node>
	<node id="-39747" lat="59.3731250022" lon="5.152216666">
		<tag k="name" v="Sandvågen" />
		<tag k="natural" v="bay" />
		<tag k="ssr:stedsnr" v="511777" />
	</node>
	<node id="-39746" lat="59.3634083339" lon="5.21205000214">
		<tag k="name" v="Litla Straumsund" />
		<tag k="natural" v="strait" />
		<tag k="ssr:stedsnr" v="511762" />
	</node>
	<node id="-39745" lat="59.3671888909" lon="5.24592222021">
		<tag k="name" v="Stanganeset" />
		<tag k="natural" v="cape" />
		<tag k="ssr:stedsnr" v="511757" />
	</node>
	<node id="-39744" lat="59.3769666678" lon="5.22116943973">
		<tag k="name" v="Kveitevik" />
		<tag k="natural" v="bay" />
		<tag k="ssr:stedsnr" v="511756" />
	</node>
	<node id="-39740" lat="59.2527222197" lon="5.15815278386">
		<tag k="name" v="Smeldene" />
		<tag k="natural" v="shoal" />
		<tag k="place" v="locality" />
		<tag k="ssr:stedsnr" v="510809" />
	</node>
	<node id="-39739" lat="59.1291666676" lon="5.20830833979">
		<tag k="name" v="Skorva" />
		<tag k="place" v="locality" />
		<tag k="seamark:type" v="rock" />
		<tag k="ssr:stedsnr" v="510622" />
	</node>
	<node id="-39737" lat="59.338963887" lon="5.30535556071">
		<tag k="name" v="Midtøy" />
		<tag k="place" v="island" />
		<tag k="ssr:stedsnr" v="510394" />
	</node>
	<node id="-39736" lat="59.3697000037" lon="5.22516388343">
		<tag k="name" v="Høgholmen" />
		<tag k="place" v="islet" />
		<tag k="ssr:stedsnr" v="510376" />
	</node>
	<node id="-39735" lat="59.4242777808" lon="5.21996388908">
		<tag k="name" v="Kråkeflua" />
		<tag k="natural" v="shoal" />
		<tag k="place" v="locality" />
		<tag k="ssr:stedsnr" v="510356" />
	</node>
	<node id="-39733" lat="59.3943250019" lon="5.21483888223">
		<tag k="name" v="Litla Brattholmen" />
		<tag k="place" v="islet" />
		<tag k="ssr:stedsnr" v="405824" />
	</node>
	<node id="-39732" lat="59.1509114253" lon="5.27658996195">
		<tag k="alt_name" v="Vigesjøen" />
		<tag k="name" v="Vikesjøen" />
		<tag k="natural" v="bay" />
		<tag k="ssr:stedsnr" v="405607" />
	</node>
	<node id="-39731" lat="59.1502750046" lon="5.27843889656">
		<tag k="name" v="Kallastein" />
		<tag k="natural" v="beach" />
		<tag k="place" v="locality" />
		<tag k="ssr:stedsnr" v="405605" />
	</node>
	<node id="-39730" lat="59.1612277748" lon="5.30908889214">
		<tag k="name" v="Langholmen" />
		<tag k="place" v="islet" />
		<tag k="ssr:stedsnr" v="405571" />
	</node>
	<node id="-39728" lat="59.3571611085" lon="5.29465556171">
		<tag k="alt_name" v="Bjønnholmen" />
		<tag k="name" v="Bjørnholmen" />
		<tag k="place" v="islet" />
		<tag k="ssr:stedsnr" v="391923" />
	</node>
	<node id="-39727" lat="59.3813444459" lon="5.03373054832">
		<tag k="name" v="Stora Skardholmflua" />
		<tag k="natural" v="shoal" />
		<tag k="place" v="locality" />
		<tag k="ssr:stedsnr" v="390913" />
	</node>
	<node id="-39726" lat="59.3207361133" lon="5.18061666724">
		<tag k="fixme" v="consider seamark:type=rock or natural=shoal" />
		<tag k="name" v="Kvitingskjeret" />
		<tag k="place" v="islet" />
		<tag k="ssr:stedsnr" v="390204" />
	</node>
	<node id="-39725" lat="59.3286128764" lon="5.3065232484">
		<tag k="alt_name" v="Melandsflua" />
		<tag k="name" v="Melandflua" />
		<tag k="natural" v="shoal" />
		<tag k="place" v="locality" />
		<tag k="ssr:stedsnr" v="390156" />
	</node>
	<node id="-39724" lat="59.3007444408" lon="5.17607777845">
		<tag k="name" v="Stora Langeflua" />
		<tag k="natural" v="shoal" />
		<tag k="place" v="locality" />
		<tag k="ssr:stedsnr" v="389952" />
	</node>
	<node id="-39723" lat="59.1414916659" lon="5.27405556149">
		<tag k="name" v="Vikaholmane" />
		<tag k="place" v="islet" />
		<tag k="ssr:stedsnr" v="389612" />
	</node>
	<node id="-39722" lat="59.3779055528" lon="5.36906110606">
		<tag k="name" v="Gulpung" />
		<tag k="natural" v="shoal" />
		<tag k="place" v="locality" />
		<tag k="ssr:stedsnr" v="389258" />
	</node>
	<node id="-39721" lat="59.2601333342" lon="5.13006944448">
		<tag k="name" v="Svortingflua" />
		<tag k="natural" v="shoal" />
		<tag k="place" v="locality" />
		<tag k="ssr:stedsnr" v="388768" />
	</node>
	<node id="-39720" lat="59.2607027816" lon="5.17690000325">
		<tag k="alt_name" v="Svensholmen" />
		<tag k="name" v="Svendsholmen" />
		<tag k="place" v="islet" />
		<tag k="ssr:stedsnr" v="388761" />
	</node>
	<node id="-39719" lat="59.3843421838" lon="5.15434320817">
		<tag k="fixme" v="multiple name tags, choose one and add the other to alt_name" />
		<tag k="name" v="Feøy;Føyno" />
		<tag k="place" v="island" />
		<tag k="ssr:stedsnr" v="388518" />
	</node>
	<node id="-41434" lat="59.3604722228" lon="5.03030555337">
		<tag k="name" v="Malusflua" />
		<tag k="natural" v="shoal" />
		<tag k="place" v="locality" />
		<tag k="ssr:stedsnr" v="815932" />
	</node>
	<node id="-39705" lat="59.3085194453" lon="5.2156944417">
		<tag k="name" v="Hådyrsvika" />
		<tag k="natural" v="bay" />
		<tag k="ssr:stedsnr" v="363275" />
	</node>
	<node id="-39704" lat="59.293399998" lon="5.19194444971">
		<tag k="fixme" v="consider seamark:type=rock or natural=shoal" />
		<tag k="name" v="Vestraskjer" />
		<tag k="place" v="islet" />
		<tag k="ssr:stedsnr" v="363273" />
	</node>
	<node id="-39700" lat="59.1494055521" lon="5.25732221934">
		<tag k="name" v="Selvåg" />
		<tag k="natural" v="bay" />
		<tag k="ssr:stedsnr" v="361771" />
	</node>
	<node id="-39698" lat="59.1447416624" lon="5.26488332534">
		<tag k="name" v="Ringaskjerflua" />
		<tag k="place" v="locality" />
		<tag k="seamark:type" v="rock" />
		<tag k="ssr:stedsnr" v="361752" />
	</node>
	<node id="-39696" lat="59.3030805577" lon="5.19054167281">
		<tag k="name" v="Dyrholmen" />
		<tag k="place" v="islet" />
		<tag k="ssr:stedsnr" v="488975" />
	</node>
	<node id="-39694" lat="59.2981249988" lon="5.1892861083">
		<tag k="alt_name" v="Børøyskjer" />
		<tag k="fixme" v="consider seamark:type=rock or natural=shoal" />
		<tag k="name" v="Børøyskjeret" />
		<tag k="place" v="islet" />
		<tag k="ssr:stedsnr" v="488959" />
	</node>
	<node id="-39690" lat="59.3697882091" lon="5.01957268789">
		<tag k="alt_name" v="Silenningane;Seleningene" />
		<tag k="name" v="Sileningane" />
		<tag k="place" v="islet" />
		<tag k="ssr:stedsnr" v="487757" />
	</node>
	<node id="-39689" lat="59.3918722242" lon="5.15779444084">
		<tag k="name" v="Kalven" />
		<tag k="place" v="islet" />
		<tag k="ssr:stedsnr" v="487665" />
	</node>
	<node id="-39687" lat="59.4060916627" lon="5.10097222873">
		<tag k="alt_name" v="Skotleskjer;Skotlaskjer" />
		<tag k="fixme" v="consider seamark:type=rock or natural=shoal" />
		<tag k="name" v="Skotleskjeret" />
		<tag k="place" v="islet" />
		<tag k="ssr:stedsnr" v="487652" />
	</node>
	<node id="-39686" lat="59.4147111084" lon="5.21353332706">
		<tag k="alt_name" v="Haugskjeskjeret;Hauskeskjerane" />
		<tag k="fixme" v="consider seamark:type=rock or natural=shoal" />
		<tag k="name" v="Hauskjeskjeret" />
		<tag k="place" v="islet" />
		<tag k="ssr:stedsnr" v="487644" />
	</node>
	<node id="-39683" lat="59.3722363446" lon="5.14329152045">
		<tag k="alt_name" v="Silenningen;Seleningen" />
		<tag k="name" v="Sileningen" />
		<tag k="place" v="islet" />
		<tag k="ssr:stedsnr" v="487622" />
	</node>
	<node id="-39679" lat="59.3451500002" lon="5.19156110939">
		<tag k="alt_name" v="Kalstøbukta" />
		<tag k="name" v="Kallstøbukta" />
		<tag k="natural" v="bay" />
		<tag k="ssr:stedsnr" v="487601" />
	</node>
	<node id="-39676" lat="59.3684722262" lon="5.29295278236">
		<tag k="name" v="Bøneset" />
		<tag k="natural" v="cape" />
		<tag k="ssr:stedsnr" v="487581" />
	</node>
	<node id="-39675" lat="59.3378249993" lon="5.2910277761">
		<tag k="alt_name" v="Treholmen;Tretholmen" />
		<tag k="name" v="Trettholmen" />
		<tag k="place" v="islet" />
		<tag k="ssr:stedsnr" v="487573" />
	</node>
	<node id="-39673" lat="59.3943250019" lon="5.21483888223">
		<tag k="name" v="Stora Brattholmen" />
		<tag k="place" v="islet" />
		<tag k="ssr:stedsnr" v="344812" />
	</node>
	<node id="-39671" lat="59.1598861145" lon="5.19819443583">
		<tag k="alt_name" v="Kvalvigå" />
		<tag k="name" v="Kvalvika" />
		<tag k="natural" v="bay" />
		<tag k="ssr:stedsnr" v="487464" />
	</node>
	<node id="-39669" lat="59.1347472255" lon="5.20906667386">
		<tag k="name" v="Kavholmane" />
		<tag k="place" v="islet" />
		<tag k="ssr:stedsnr" v="486418" />
	</node>
	<node id="-39668" lat="59.1324527788" lon="5.23650278293">
		<tag k="fixme" v="consider seamark:type=rock or natural=shoal" />
		<tag k="name" v="Juden" />
		<tag k="place" v="islet" />
		<tag k="ssr:stedsnr" v="486415" />
	</node>
	<node id="-39667" lat="59.2034722244" lon="5.31970556209">
		<tag k="name" v="Blikshavnholmen" />
		<tag k="place" v="islet" />
		<tag k="ssr:stedsnr" v="486087" />
	</node>
	<node id="-39666" lat="59.2452111143" lon="5.18721666392">
		<tag k="name" v="Stareholmen" />
		<tag k="place" v="islet" />
		<tag k="ssr:stedsnr" v="486031" />
	</node>
	<node id="-39665" lat="59.2240472253" lon="5.17333889531">
		<tag k="name" v="Seihammaren" />
		<tag k="natural" v="cape" />
		<tag k="ssr:stedsnr" v="486024" />
	</node>
	<node id="-39650" lat="59.2817611151" lon="5.25550555706">
		<tag k="name" v="Brekkosen" />
		<tag k="natural" v="bay" />
		<tag k="ssr:stedsnr" v="484740" />
	</node>
	<node id="-39643" lat="59.1439805579" lon="5.23018332761">
		<tag k="name" v="Kobholmene" />
		<tag k="place" v="islet" />
		<tag k="ssr:stedsnr" v="484539" />
	</node>
	<node id="-39641" lat="59.2214277745" lon="5.32269445161">
		<tag k="name" v="Snorteland" />
		<tag k="natural" v="beach" />
		<tag k="place" v="locality" />
		<tag k="ssr:stedsnr" v="484648" />
	</node>
	<node id="-41422" lat="59.3625000015" lon="5.23283332714">
		<tag k="name" v="Ongøy" />
		<tag k="place" v="island" />
		<tag k="ssr:stedsnr" v="815788" />
	</node>
	<node id="-39633" lat="59.3249694413" lon="5.34391943982">
		<tag k="name" v="Nippsund" />
		<tag k="natural" v="strait" />
		<tag k="ssr:stedsnr" v="484193" />
	</node>
	<node id="-39631" lat="59.23036111" lon="5.17354722062">
		<tag k="name" v="Hobholmen" />
		<tag k="place" v="islet" />
		<tag k="ssr:stedsnr" v="484188" />
	</node>
	<node id="-39627" lat="59.2163777819" lon="5.18042777678">
		<tag k="name" v="Tarevika" />
		<tag k="natural" v="bay" />
		<tag k="ssr:stedsnr" v="484277" />
	</node>
	<node id="-39625" lat="59.2971666638" lon="5.23553333243">
		<tag k="name" v="Sundsvika" />
		<tag k="natural" v="bay" />
		<tag k="ssr:stedsnr" v="484125" />
	</node>
	<node id="-41420" lat="59.3436055598" lon="5.18640278435">
		<tag k="name" v="Stakk" />
		<tag k="place" v="islet" />
		<tag k="ssr:stedsnr" v="815627" />
	</node>
	<node id="-39621" lat="59.3747611075" lon="5.1505666702">
		<tag k="name" v="Lønes" />
		<tag k="natural" v="cape" />
		<tag k="ssr:stedsnr" v="330818" />
	</node>
	<node id="-39620" lat="59.3681888895" lon="5.01159443891">
		<tag k="name" v="Torvo" />
		<tag k="natural" v="shoal" />
		<tag k="place" v="locality" />
		<tag k="ssr:stedsnr" v="329921" />
	</node>
	<node id="-39619" lat="59.3706527793" lon="5.03455833459">
		<tag k="name" v="Kråkeholmen" />
		<tag k="place" v="islet" />
		<tag k="ssr:stedsnr" v="329920" />
	</node>
	<node id="-39618" lat="59.3946666703" lon="5.00394999498">
		<tag k="name" v="Vieflua" />
		<tag k="natural" v="shoal" />
		<tag k="place" v="locality" />
		<tag k="ssr:stedsnr" v="329908" />
	</node>
	<node id="-39616" lat="59.4098250014" lon="5.10210832736">
		<tag k="name" v="Longholmen" />
		<tag k="place" v="islet" />
		<tag k="ssr:stedsnr" v="329711" />
	</node>
	<node id="-39615" lat="59.4114666639" lon="5.11322500038">
		<tag k="name" v="Legern" />
		<tag k="natural" v="bay" />
		<tag k="ssr:stedsnr" v="329706" />
	</node>
	<node id="-39614" lat="59.4164500005" lon="5.11594443807">
		<tag k="name" v="Søra Steinvik" />
		<tag k="natural" v="bay" />
		<tag k="ssr:stedsnr" v="329705" />
	</node>
	<node id="-39611" lat="59.4078444454" lon="4.98893888499">
		<tag k="alt_name" v="Nordbåen" />
		<tag k="name" v="Nordboen" />
		<tag k="natural" v="shoal" />
		<tag k="place" v="locality" />
		<tag k="ssr:stedsnr" v="305308" />
	</node>
	<node id="-39604" lat="59.3274777774" lon="5.34653333041">
		<tag k="name" v="Sukkervika" />
		<tag k="natural" v="bay" />
		<tag k="ssr:stedsnr" v="303203" />
	</node>
	<node id="-39603" lat="59.3113114368" lon="5.22737093638">
		<tag k="name" v="Hivnarevågen" />
		<tag k="natural" v="bay" />
		<tag k="ssr:stedsnr" v="303305" />
	</node>
	<node id="-39596" lat="59.1429055563" lon="5.29108333036">
		<tag k="name" v="Bekkarvig" />
		<tag k="natural" v="bay" />
		<tag k="ssr:stedsnr" v="302569" />
	</node>
	<node id="-39593" lat="59.2677944423" lon="5.36912222078">
		<tag k="name" v="Sauøy" />
		<tag k="place" v="island" />
		<tag k="ssr:stedsnr" v="302469" />
	</node>
	<node id="-39592" lat="59.3201111105" lon="5.21174721886">
		<tag k="name" v="Melkevik" />
		<tag k="natural" v="bay" />
		<tag k="ssr:stedsnr" v="302325" />
	</node>
	<node id="-41414" lat="59.2828638908" lon="5.29719721377">
		<tag k="alt_name" v="Stølebukt" />
		<tag k="name" v="Stølabukta" />
		<tag k="natural" v="bay" />
		<tag k="ssr:stedsnr" v="815071" />
	</node>
	<node id="-39585" lat="59.241119441" lon="5.18450000766">
		<tag k="name" v="Husaneset" />
		<tag k="natural" v="cape" />
		<tag k="ssr:stedsnr" v="302215" />
	</node>
	<node id="-39581" lat="59.4087749975" lon="5.24445278478">
		<tag k="name" v="Vikaklubben" />
		<tag k="natural" v="cape" />
		<tag k="ssr:stedsnr" v="466832" />
	</node>
	<node id="-39580" lat="59.4025444455" lon="5.21122499625">
		<tag k="fixme" v="consider seamark:type=rock or natural=shoal" />
		<tag k="name" v="Loppo" />
		<tag k="place" v="islet" />
		<tag k="ssr:stedsnr" v="466823" />
	</node>
	<node id="-39579" lat="59.4104805518" lon="5.22135833565">
		<tag k="name" v="Brattholmane" />
		<tag k="place" v="islet" />
		<tag k="ssr:stedsnr" v="466817" />
	</node>
	<node id="-39577" lat="59.387030556" lon="5.03095000229">
		<tag k="name" v="Simoflua" />
		<tag k="natural" v="shoal" />
		<tag k="place" v="locality" />
		<tag k="ssr:stedsnr" v="269919" />
	</node>
	<node id="-39574" lat="59.2686833373" lon="5.39593055424">
		<tag k="alt_name" v="Fårøyholmane" />
		<tag k="name" v="Forøyholmane" />
		<tag k="place" v="islet" />
		<tag k="ssr:stedsnr" v="269065" />
	</node>
	<node id="-39573" lat="59.2626277797" lon="5.36791944155">
		<tag k="name" v="Selesundet" />
		<tag k="natural" v="strait" />
		<tag k="ssr:stedsnr" v="269103" />
	</node>
	<node id="-39572" lat="59.4008416624" lon="5.20200555118">
		<tag k="name" v="Gudfarflua" />
		<tag k="natural" v="shoal" />
		<tag k="place" v="locality" />
		<tag k="ssr:stedsnr" v="268374" />
	</node>
	<node id="-39571" lat="59.1382055554" lon="5.20993333063">
		<tag k="fixme" v="consider seamark:type=rock or natural=shoal" />
		<tag k="name" v="Lyraskjer" />
		<tag k="place" v="islet" />
		<tag k="ssr:stedsnr" v="267571" />
	</node>
	<node id="-39570" lat="59.1411444456" lon="5.17234166103">
		<tag k="name" v="Svelgjeskjerflua" />
		<tag k="natural" v="shoal" />
		<tag k="place" v="locality" />
		<tag k="ssr:stedsnr" v="267569" />
	</node>
	<node id="-39569" lat="59.1317027817" lon="5.20278056259">
		<tag k="name" v="Midtflu" />
		<tag k="place" v="locality" />
		<tag k="seamark:type" v="rock" />
		<tag k="ssr:stedsnr" v="267563" />
	</node>
	<node id="-39568" lat="59.1319583311" lon="5.27358889365">
		<tag k="name" v="Kyrkjeflua" />
		<tag k="place" v="locality" />
		<tag k="seamark:type" v="rock" />
		<tag k="ssr:stedsnr" v="267555" />
	</node>
	<node id="-41614" lat="59.3607430863" lon="5.23770010823">
		<tag k="name" v="Landanesvågen" />
		<tag k="natural" v="bay" />
		<tag k="ssr:stedsnr" v="980569" />
	</node>
	<node id="-39564" lat="59.3889722207" lon="5.27725277531">
		<tag k="name" v="Kalvatræ" />
		<tag k="natural" v="bay" />
		<tag k="ssr:stedsnr" v="451979" />
	</node>
	<node id="-39563" lat="59.3533194417" lon="5.18346666539">
		<tag k="name" v="Kyrkjeflua" />
		<tag k="natural" v="shoal" />
		<tag k="place" v="locality" />
		<tag k="ssr:stedsnr" v="451949" />
	</node>
	<node id="-39562" lat="59.3664222214" lon="5.01555278029">
		<tag k="name" v="Faksen" />
		<tag k="natural" v="shoal" />
		<tag k="place" v="locality" />
		<tag k="ssr:stedsnr" v="451931" />
	</node>
	<node id="-39561" lat="59.4105055585" lon="5.01560832455">
		<tag k="name" v="Sveagrunnen" />
		<tag k="natural" v="shoal" />
		<tag k="place" v="locality" />
		<tag k="ssr:stedsnr" v="451927" />
	</node>
	<node id="-39560" lat="59.3737138862" lon="5.14153888047">
		<tag k="alt_name" v="Litle Seleningen" />
		<tag k="name" v="Litle Sileningen" />
		<tag k="place" v="islet" />
		<tag k="ssr:stedsnr" v="451793" />
	</node>
	<node id="-39559" lat="59.3722249958" lon="5.14503055279">
		<tag k="alt_name" v="Seleningssundet" />
		<tag k="name" v="Sileningssundet" />
		<tag k="natural" v="strait" />
		<tag k="ssr:stedsnr" v="451792" />
	</node>
	<node id="-39558" lat="59.3796444456" lon="5.14565000469">
		<tag k="name" v="Mortasund" />
		<tag k="natural" v="strait" />
		<tag k="ssr:stedsnr" v="451784" />
	</node>
	<node id="-39557" lat="59.3850527734" lon="5.1474583294">
		<tag k="name" v="Tanglevik" />
		<tag k="natural" v="bay" />
		<tag k="ssr:stedsnr" v="451783" />
	</node>
	<node id="-39556" lat="59.4130750005" lon="5.10839444262">
		<tag k="fixme" v="consider seamark:type=rock or natural=shoal" />
		<tag k="name" v="Kjeven" />
		<tag k="place" v="islet" />
		<tag k="ssr:stedsnr" v="451782" />
	</node>
	<node id="-39555" lat="59.3820944457" lon="5.18702778134">
		<tag k="name" v="Småsundet" />
		<tag k="natural" v="strait" />
		<tag k="ssr:stedsnr" v="451854" />
	</node>
	<node id="-39554" lat="59.4036000034" lon="5.22425000532">
		<tag k="alt_name" v="Vadøy;Vadøya" />
		<tag k="name" v="Vaøy" />
		<tag k="natural" v="cape" />
		<tag k="ssr:stedsnr" v="451840" />
	</node>
	<node id="-39553" lat="59.3314194485" lon="5.35856388551">
		<tag k="name" v="Peraflua" />
		<tag k="natural" v="shoal" />
		<tag k="place" v="locality" />
		<tag k="ssr:stedsnr" v="451196" />
	</node>
	<node id="-39551" lat="59.3033333319" lon="5.30166666827">
		<tag k="name" v="Kattholmen" />
		<tag k="place" v="islet" />
		<tag k="ssr:stedsnr" v="451165" />
	</node>
	<node id="-39550" lat="59.2317166624" lon="5.07820832921">
		<tag k="name" v="Kjerringflua" />
		<tag k="natural" v="shoal" />
		<tag k="place" v="locality" />
		<tag k="ssr:stedsnr" v="450686" />
	</node>
	<node id="-39549" lat="59.3398138869" lon="5.31186111054">
		<tag k="fixme" v="consider seamark:type=rock or natural=shoal" />
		<tag k="name" v="Nordra Flatskjeret" />
		<tag k="place" v="islet" />
		<tag k="ssr:stedsnr" v="450409" />
	</node>
	<node id="-39548" lat="59.3889749994" lon="5.20936945007">
		<tag k="alt_name" v="Vardholman" />
		<tag k="name" v="Varholmane" />
		<tag k="place" v="islet" />
		<tag k="ssr:stedsnr" v="450383" />
	</node>
	<node id="-39547" lat="59.3926500033" lon="5.0365305638">
		<tag k="alt_name" v="Rolsbåen" />
		<tag k="name" v="Rolsboen" />
		<tag k="natural" v="shoal" />
		<tag k="place" v="locality" />
		<tag k="ssr:stedsnr" v="245702" />
	</node>
	<node id="-39546" lat="59.3953999974" lon="5.15543054821">
		<tag k="alt_name" v="Guløyholmen" />
		<tag k="name" v="Gulliholmen" />
		<tag k="place" v="islet" />
		<tag k="ssr:stedsnr" v="244655" />
	</node>
	<node id="-41407" lat="59.2572138886" lon="5.17755555922">
		<tag k="name" v="Varholmen" />
		<tag k="place" v="islet" />
		<tag k="ssr:stedsnr" v="813775" />
	</node>
	<node id="-39544" lat="59.1429138862" lon="5.26537777103">
		<tag k="alt_name" v="Sjåholmen" />
		<tag k="name" v="Skjåholmen" />
		<tag k="place" v="islet" />
		<tag k="ssr:stedsnr" v="244408" />
	</node>
	<node id="-39541" lat="59.1963611097" lon="5.31521388302">
		<tag k="name" v="Klubben" />
		<tag k="natural" v="cape" />
		<tag k="ssr:stedsnr" v="244103" />
	</node>
	<node id="-41405" lat="59.3082027816" lon="5.17816944836">
		<tag k="alt_name" v="Seiskjeret" />
		<tag k="fixme" v="consider seamark:type=rock or natural=shoal" />
		<tag k="name" v="Seiaskjer" />
		<tag k="place" v="islet" />
		<tag k="ssr:stedsnr" v="791972" />
	</node>
	<node id="-39532" lat="59.1437083358" lon="5.29624444601">
		<tag k="name" v="Beiningen" />
		<tag k="natural" v="cape" />
		<tag k="ssr:stedsnr" v="242522" />
	</node>
	<node id="-39531" lat="59.1420222263" lon="5.23914722674">
		<tag k="name" v="Naleiholmen" />
		<tag k="natural" v="cape" />
		<tag k="ssr:stedsnr" v="242521" />
	</node>
	<node id="-41404" lat="59.292876376" lon="5.23939313878">
		<tag k="alt_name" v="Vedavågen" />
		<tag k="bay" v="fjord" />
		<tag k="name" v="Veavågen" />
		<tag k="natural" v="bay" />
		<tag k="ssr:stedsnr" v="791943" />
	</node>
	<node id="-39526" lat="59.3206361084" lon="5.21098611184">
		<tag k="name" v="Klubben" />
		<tag k="natural" v="cape" />
		<tag k="ssr:stedsnr" v="242273" />
	</node>
	<node id="-39524" lat="59.303016668" lon="5.21563610966">
		<tag k="name" v="Sævikneset" />
		<tag k="natural" v="cape" />
		<tag k="ssr:stedsnr" v="242252" />
	</node>
	<node id="-39523" lat="59.3063194445" lon="5.28945833447">
		<tag k="name" v="Nautanes" />
		<tag k="natural" v="cape" />
		<tag k="ssr:stedsnr" v="242054" />
	</node>
	<node id="-41403" lat="59.289155553" lon="5.18688054789">
		<tag k="name" v="Møseprimen" />
		<tag k="place" v="islet" />
		<tag k="ssr:stedsnr" v="791934" />
	</node>
	<node id="-39516" lat="59.3131361136" lon="5.21153889548">
		<tag k="name" v="Jomfruene" />
		<tag k="place" v="islet" />
		<tag k="ssr:stedsnr" v="181308" />
	</node>
	<node id="-39515" lat="59.2952166682" lon="5.20650555767">
		<tag k="name" v="Hedleholmen" />
		<tag k="place" v="islet" />
		<tag k="ssr:stedsnr" v="181307" />
	</node>
	<node id="-39514" lat="59.268119445" lon="5.35412776934">
		<tag k="name" v="Krokaneset" />
		<tag k="natural" v="cape" />
		<tag k="ssr:stedsnr" v="181462" />
	</node>
	<node id="-39511" lat="59.2215805515" lon="5.17847777754">
		<tag k="name" v="Storatre" />
		<tag k="natural" v="beach" />
		<tag k="place" v="locality" />
		<tag k="ssr:stedsnr" v="181252" />
	</node>
	<node id="-41557" lat="59.3534666707" lon="5.21593056105">
		<tag k="name" v="Grønevik" />
		<tag k="natural" v="bay" />
		<tag k="ssr:stedsnr" v="969731" />
	</node>
	<node id="-39507" lat="59.1455472266" lon="5.26218889191">
		<tag k="name" v="Nedre Sølvstrandholmen" />
		<tag k="natural" v="cape" />
		<tag k="ssr:stedsnr" v="179710" />
	</node>
	<node id="-39506" lat="59.4075305563" lon="5.24870000115">
		<tag k="name" v="Knarravika" />
		<tag k="natural" v="bay" />
		<tag k="ssr:stedsnr" v="284847" />
	</node>
	<node id="-39505" lat="59.4062777739" lon="5.23395833425">
		<tag k="name" v="Kopholmen" />
		<tag k="place" v="islet" />
		<tag k="ssr:stedsnr" v="284845" />
	</node>
	<node id="-39503" lat="59.4042250019" lon="5.21555000641">
		<tag k="fixme" v="consider seamark:type=rock or natural=shoal" />
		<tag k="name" v="Torleivsskjeret" />
		<tag k="place" v="islet" />
		<tag k="ssr:stedsnr" v="284834" />
	</node>
	<node id="-39502" lat="59.4201166674" lon="5.22790278444">
		<tag k="name" v="Djupeflua" />
		<tag k="natural" v="shoal" />
		<tag k="place" v="locality" />
		<tag k="ssr:stedsnr" v="284807" />
	</node>
	<node id="-39501" lat="59.4103805515" lon="5.23066110838">
		<tag k="name" v="Garnesflua" />
		<tag k="natural" v="shoal" />
		<tag k="place" v="locality" />
		<tag k="ssr:stedsnr" v="284752" />
	</node>
	<node id="-39500" lat="59.4181749968" lon="5.22291388638">
		<tag k="fixme" v="consider seamark:type=rock or natural=shoal" />
		<tag k="name" v="Søra Bausen" />
		<tag k="place" v="islet" />
		<tag k="ssr:stedsnr" v="284735" />
	</node>
	<node id="-39499" lat="59.1407333343" lon="5.27648332539">
		<tag k="name" v="Stavebergsodden" />
		<tag k="natural" v="cape" />
		<tag k="ssr:stedsnr" v="284568" />
	</node>
	<node id="-39498" lat="59.1436217675" lon="5.27220807965">
		<tag k="alt_name" v="Smedsundet;Nesagabet" />
		<tag k="name" v="Nesagapet" />
		<tag k="natural" v="strait" />
		<tag k="ssr:stedsnr" v="284565" />
	</node>
	<node id="-41545" lat="59.143311111" lon="5.25728888909">
		<tag k="name" v="Skagaskjerflua" />
		<tag k="natural" v="shoal" />
		<tag k="place" v="locality" />
		<tag k="ssr:stedsnr" v="967696" />
	</node>
	<node id="-39495" lat="59.3700027762" lon="5.14409166561">
		<tag k="alt_name" v="Kvinnbåen" />
		<tag k="fixme" v="consider seamark:type=rock or natural=shoal" />
		<tag k="name" v="Kvinboen" />
		<tag k="place" v="islet" />
		<tag k="ssr:stedsnr" v="148808" />
	</node>
	<node id="-41542" lat="59.4086611127" lon="5.21688889291">
		<tag k="name" v="Søra Leiarholmen" />
		<tag k="place" v="islet" />
		<tag k="ssr:stedsnr" v="951830" />
	</node>
	<node id="-39493" lat="59.2247722221" lon="5.07421666663">
		<tag k="name" v="Rauneflua" />
		<tag k="natural" v="shoal" />
		<tag k="place" v="locality" />
		<tag k="ssr:stedsnr" v="146662" />
	</node>
	<node id="-41540" lat="59.1625999983" lon="5.19322500766">
		<tag k="name" v="Skiftesvikholmane" />
		<tag k="place" v="islet" />
		<tag k="ssr:stedsnr" v="951540" />
	</node>
	<node id="-39491" lat="59.2185222229" lon="5.17538333417">
		<tag k="name" v="Langåkervik" />
		<tag k="natural" v="bay" />
		<tag k="ssr:stedsnr" v="146655" />
	</node>
	<node id="-41538" lat="59.359950004" lon="5.36764445242">
		<tag k="alt_name" v="Mykjevik" />
		<tag k="name" v="Mykjåvik" />
		<tag k="natural" v="bay" />
		<tag k="ssr:stedsnr" v="876084" />
	</node>
	<node id="-39489" lat="59.37876111" lon="5.13289445138">
		<tag k="name" v="Svartetangsskoltene" />
		<tag k="natural" v="shoal" />
		<tag k="place" v="locality" />
		<tag k="ssr:stedsnr" v="269982" />
	</node>
	<node id="-41536" lat="59.1338138925" lon="5.16756388744">
		<tag k="name" v="Skallane" />
		<tag k="natural" v="shoal" />
		<tag k="place" v="locality" />
		<tag k="ssr:stedsnr" v="875589" />
	</node>
	<node id="-41535" lat="59.2973066001" lon="5.30346376271">
		<tag k="name" v="Byggnesvågen" />
		<tag k="natural" v="bay" />
		<tag k="ssr:stedsnr" v="875185" />
	</node>
	<node id="-41534" lat="59.3329112679" lon="5.33215298366">
		<tag k="alt_name" v="Kvernvik" />
		<tag k="name" v="Kvernavika" />
		<tag k="natural" v="bay" />
		<tag k="ssr:stedsnr" v="875174" />
	</node>
	<node id="-39485" lat="59.3853722215" lon="5.15908332686">
		<tag k="name" v="Vestre Podl" />
		<tag k="natural" v="bay" />
		<tag k="ssr:stedsnr" v="269836" />
	</node>
	<node id="-39484" lat="59.3786833314" lon="5.17234721394">
		<tag k="alt_name" v="Trulsholmen" />
		<tag k="name" v="Trulsholmane" />
		<tag k="place" v="islet" />
		<tag k="ssr:stedsnr" v="269834" />
	</node>
	<node id="-39483" lat="59.3790583297" lon="5.16327500787">
		<tag k="alt_name" v="Hedleholmen" />
		<tag k="name" v="Helleholmen" />
		<tag k="place" v="islet" />
		<tag k="ssr:stedsnr" v="269833" />
	</node>
	<node id="-41530" lat="59.3430555557" lon="5.30500000257">
		<tag k="name" v="Breidbukta" />
		<tag k="natural" v="bay" />
		<tag k="ssr:stedsnr" v="874434" />
	</node>
	<node id="-39481" lat="59.373119442" lon="5.21936110986">
		<tag k="alt_name" v="Små Urter" />
		<tag k="name" v="Småurter" />
		<tag k="place" v="islet" />
		<tag k="ssr:stedsnr" v="269800" />
	</node>
	<node id="-39479" lat="59.3771111151" lon="5.14769443717">
		<tag k="name" v="Middagsneset" />
		<tag k="natural" v="cape" />
		<tag k="ssr:stedsnr" v="269794" />
	</node>
	<node id="-39478" lat="59.4081749982" lon="5.10829166117">
		<tag k="alt_name" v="Perskjer" />
		<tag k="fixme" v="consider seamark:type=rock or natural=shoal" />
		<tag k="name" v="Perskjeret" />
		<tag k="place" v="islet" />
		<tag k="ssr:stedsnr" v="269789" />
	</node>
	<node id="-41525" lat="59.2856138893" lon="5.2025277743">
		<tag k="alt_name" v="Såøy" />
		<tag k="name" v="Såøya" />
		<tag k="place" v="islet" />
		<tag k="ssr:stedsnr" v="852932" />
	</node>
	<node id="-41523" lat="59.271975002" lon="5.38509444666">
		<tag k="name" v="Austdjupholmane" />
		<tag k="place" v="islet" />
		<tag k="ssr:stedsnr" v="852888" />
	</node>
	<node id="-41521" lat="59.3634500033" lon="5.01923054836">
		<tag k="alt_name" v="Rauden" />
		<tag k="name" v="Raunen" />
		<tag k="place" v="islet" />
		<tag k="ssr:stedsnr" v="852696" />
	</node>
	<node id="-39472" lat="59.283472226" lon="5.32319444491">
		<tag k="alt_name" v="Mandalsgrunnen" />
		<tag k="name" v="Mandalsflua" />
		<tag k="natural" v="shoal" />
		<tag k="place" v="locality" />
		<tag k="ssr:stedsnr" v="269196" />
	</node>
	<node id="-41518" lat="59.3252277765" lon="5.33760554712">
		<tag k="alt_name" v="Dragøy" />
		<tag k="name" v="Dragøya" />
		<tag k="place" v="island" />
		<tag k="ssr:stedsnr" v="851984" />
	</node>
	<node id="-39469" lat="59.2727666702" lon="5.37173611515">
		<tag k="fixme" v="consider seamark:type=rock or natural=shoal" />
		<tag k="name" v="Dyna" />
		<tag k="place" v="islet" />
		<tag k="ssr:stedsnr" v="269172" />
	</node>
	<node id="-39468" lat="59.3223249968" lon="5.31778611031">
		<tag k="name" v="Høyevarde" />
		<tag k="natural" v="cape" />
		<tag k="ssr:stedsnr" v="269168" />
	</node>
	<node id="-39467" lat="59.3290166696" lon="5.18948611584">
		<tag k="name" v="Meldrane" />
		<tag k="natural" v="shoal" />
		<tag k="place" v="locality" />
		<tag k="ssr:stedsnr" v="269161" />
	</node>
	<node id="-39466" lat="59.2967222222" lon="5.31416667424">
		<tag k="fixme" v="consider seamark:type=rock or natural=shoal" />
		<tag k="name" v="Byggnesskjeret" />
		<tag k="place" v="islet" />
		<tag k="ssr:stedsnr" v="269148" />
	</node>
	<node id="-39465" lat="59.3775499988" lon="5.01281944707">
		<tag k="name" v="Krukka" />
		<tag k="natural" v="shoal" />
		<tag k="place" v="locality" />
		<tag k="ssr:stedsnr" v="268922" />
	</node>
	<node id="-39464" lat="59.1613694408" lon="5.31187222109">
		<tag k="fixme" v="consider seamark:type=rock or natural=shoal" />
		<tag k="name" v="Svortingen" />
		<tag k="place" v="islet" />
		<tag k="ssr:stedsnr" v="267587" />
	</node>
	<node id="-41511" lat="59.1485249966" lon="5.2269138864">
		<tag k="name" v="Sandholmen" />
		<tag k="place" v="islet" />
		<tag k="ssr:stedsnr" v="851376" />
	</node>
	<node id="-41510" lat="59.1422472198" lon="5.29795833428">
		<tag k="name" v="Beiningsholmen" />
		<tag k="place" v="islet" />
		<tag k="ssr:stedsnr" v="851370" />
	</node>
	<node id="-39461" lat="59.3339083357" lon="5.31477222751">
		<tag k="fixme" v="consider seamark:type=rock or natural=shoal" />
		<tag k="name" v="Søra Flatskjeret" />
		<tag k="place" v="islet" />
		<tag k="ssr:stedsnr" v="267363" />
	</node>
	<node id="-39460" lat="59.1443722242" lon="5.26324443838">
		<tag k="name" v="Hollendaren" />
		<tag k="place" v="locality" />
		<tag k="seamark:type" v="rock" />
		<tag k="ssr:stedsnr" v="118726" />
	</node>
	<node id="-39459" lat="59.1684166683" lon="5.17680000432">
		<tag k="alt_name" v="Håskjerflua, n" />
		<tag k="name" v="Nordre Håskjerflua" />
		<tag k="place" v="locality" />
		<tag k="seamark:type" v="rock" />
		<tag k="ssr:stedsnr" v="101502" />
	</node>
	<node id="-39458" lat="59.3007944407" lon="5.16520834012">
		<tag k="name" v="Djupålen" />
		<tag k="natural" v="shoal" />
		<tag k="place" v="locality" />
		<tag k="ssr:stedsnr" v="86969" />
	</node>
	<node id="-41505" lat="59.2320138905" lon="5.06802500611">
		<tag k="alt_name" v="Eggøy" />
		<tag k="name" v="Eggøya" />
		<tag k="place" v="islet" />
		<tag k="ssr:stedsnr" v="851040" />
	</node>
	<node id="-39456" lat="59.3151527739" lon="5.22442777435">
		<tag k="name" v="Paraldsnes" />
		<tag k="natural" v="cape" />
		<tag k="ssr:stedsnr" v="245974" />
	</node>
	<node id="-39455" lat="59.3045999959" lon="5.29473889574">
		<tag k="alt_name" v="Voravågane;Vorå-vågane" />
		<tag k="name" v="Våråvågane" />
		<tag k="natural" v="bay" />
		<tag k="ssr:stedsnr" v="245958" />
	</node>
	<node id="-39453" lat="59.2805194444" lon="5.40459721658">
		<tag k="alt_name" v="Høvringøy" />
		<tag k="name" v="Høvring" />
		<tag k="place" v="island" />
		<tag k="ssr:stedsnr" v="245900" />
	</node>
	<node id="-39452" lat="59.2691500019" lon="5.37045000483">
		<tag k="alt_name" v="Sauøy" />
		<tag k="name" v="Sauøya" />
		<tag k="place" v="islet" />
		<tag k="ssr:stedsnr" v="245889" />
	</node>
	<node id="-39451" lat="59.324744445" lon="5.36370833318">
		<tag k="alt_name" v="Vollsvåg" />
		<tag k="name" v="Vollsvika" />
		<tag k="natural" v="bay" />
		<tag k="ssr:stedsnr" v="244994" />
	</node>
	<node id="-39450" lat="59.3176055532" lon="5.20611389258">
		<tag k="alt_name" v="Brandøy" />
		<tag k="name" v="Brandøya" />
		<tag k="place" v="islet" />
		<tag k="ssr:stedsnr" v="244987" />
	</node>
	<node id="-41495" lat="59.3519694403" lon="5.21364999956">
		<tag k="name" v="Svinøy" />
		<tag k="natural" v="cape" />
		<tag k="ssr:stedsnr" v="849771" />
	</node>
	<node id="-39446" lat="59.3444666668" lon="5.31861945201">
		<tag k="name" v="Sniksholmen" />
		<tag k="place" v="islet" />
		<tag k="ssr:stedsnr" v="244542" />
	</node>
	<node id="-39445" lat="59.3534638917" lon="5.30277777342">
		<tag k="alt_name" v="Bukøy" />
		<tag k="name" v="Bukkøya" />
		<tag k="place" v="islet" />
		<tag k="ssr:stedsnr" v="244539" />
	</node>
	<node id="-39443" lat="59.3661083362" lon="5.15500278215">
		<tag k="alt_name" v="Føytongjen" />
		<tag k="name" v="Feøytangen" />
		<tag k="place" v="islet" />
		<tag k="ssr:stedsnr" v="244575" />
	</node>
	<node id="-39440" lat="59.1663777819" lon="5.19143334079">
		<tag k="alt_name" v="Rompanes" />
		<tag k="name" v="Rumpeneset" />
		<tag k="natural" v="cape" />
		<tag k="ssr:stedsnr" v="244429" />
	</node>
	<node id="-41048" lat="59.3688333333" lon="5.15773888553">
		<tag k="name" v="Drivsund" />
		<tag k="natural" v="strait" />
		<tag k="ssr:stedsnr" v="390792" />
	</node>
	<node id="-39436" lat="59.1847166676" lon="5.31510277462">
		<tag k="name" v="Dalsneset" />
		<tag k="natural" v="cape" />
		<tag k="ssr:stedsnr" v="244084" />
	</node>
	<node id="-39435" lat="59.2267277796" lon="5.17040832613">
		<tag k="fixme" v="multiple name tags, choose one and add the other to alt_name" />
		<tag k="name" v="Ferkingstadneset;Nesvarden" />
		<tag k="natural" v="cape" />
		<tag k="ssr:stedsnr" v="244033" />
	</node>
	<node id="-39432" lat="59.2750833314" lon="5.185702773">
		<tag k="name" v="Stoknes" />
		<tag k="natural" v="cape" />
		<tag k="ssr:stedsnr" v="242847" />
	</node>
	<node id="-41388" lat="59.1852138929" lon="5.1719388947">
		<tag k="fixme" v="consider seamark:type=rock or natural=shoal" />
		<tag k="name" v="Storaskjer" />
		<tag k="place" v="islet" />
		<tag k="ssr:stedsnr" v="790078" />
	</node>
	<node id="-39428" lat="59.350236108" lon="5.18905833637">
		<tag k="name" v="Svarteholmen" />
		<tag k="place" v="islet" />
		<tag k="ssr:stedsnr" v="242690" />
	</node>
	<node id="-41474" lat="59.2112305601" lon="5.17108056172">
		<tag k="name" v="Otravika" />
		<tag k="natural" v="bay" />
		<tag k="ssr:stedsnr" v="849331" />
	</node>
	<node id="-41473" lat="59.3015583352" lon="5.20511111645">
		<tag k="name" v="Tvilaupeholmen" />
		<tag k="place" v="islet" />
		<tag k="ssr:stedsnr" v="849328" />
	</node>
	<node id="-41472" lat="59.3107694483" lon="5.21301666055">
		<tag k="name" v="Sjovika" />
		<tag k="natural" v="bay" />
		<tag k="ssr:stedsnr" v="849326" />
	</node>
	<node id="-39423" lat="59.1795888932" lon="5.17756666582">
		<tag k="name" v="Gunnarsvik" />
		<tag k="natural" v="bay" />
		<tag k="ssr:stedsnr" v="242647" />
	</node>
	<node id="-39419" lat="59.2805166697" lon="5.36149721623">
		<tag k="name" v="Lampatre" />
		<tag k="natural" v="bay" />
		<tag k="ssr:stedsnr" v="242576" />
	</node>
	<node id="-41466" lat="59.2240805541" lon="5.17544444338">
		<tag k="name" v="Nessjøen" />
		<tag k="natural" v="bay" />
		<tag k="ssr:stedsnr" v="849270" />
	</node>
	<node id="-41465" lat="59.3301916712" lon="5.35549445212">
		<tag k="name" v="Treborgneset" />
		<tag k="natural" v="cape" />
		<tag k="ssr:stedsnr" v="849254" />
	</node>
	<node id="-39412" lat="59.3130388932" lon="5.22862499327">
		<tag k="name" v="Kvernavåg" />
		<tag k="natural" v="bay" />
		<tag k="ssr:stedsnr" v="242287" />
	</node>
	<node id="-41459" lat="59.2287361133" lon="5.17055555233">
		<tag k="name" v="Seiavågen" />
		<tag k="natural" v="bay" />
		<tag k="ssr:stedsnr" v="849224" />
	</node>
	<node id="-41458" lat="59.2456972192" lon="5.19100833998">
		<tag k="name" v="Litle Sandholmen" />
		<tag k="place" v="islet" />
		<tag k="ssr:stedsnr" v="849206" />
	</node>
	<node id="-41455" lat="59.2944121922" lon="5.23904032109">
		<tag k="name" v="Jorenstrædet" />
		<tag k="natural" v="strait" />
		<tag k="ssr:stedsnr" v="849170" />
	</node>
	<node id="-39406" lat="59.3251805596" lon="5.36243332998">
		<tag k="name" v="Peraneset" />
		<tag k="natural" v="cape" />
		<tag k="ssr:stedsnr" v="242202" />
	</node>
	<node id="-41449" lat="59.1711503334" lon="5.19250269245">
		<tag k="name" v="Sandklubben" />
		<tag k="natural" v="cape" />
		<tag k="ssr:stedsnr" v="849026" />
	</node>
	<node id="-41447" lat="59.2377333312" lon="5.18577500552">
		<tag k="name" v="Bønasand" />
		<tag k="natural" v="beach" />
		<tag k="place" v="locality" />
		<tag k="ssr:stedsnr" v="848988" />
	</node>
	<node id="-39398" lat="59.3011555578" lon="5.30699999401">
		<tag k="name" v="Byggnesnibbå" />
		<tag k="natural" v="cape" />
		<tag k="ssr:stedsnr" v="242034" />
	</node>
	<node id="-41443" lat="59.3265583359" lon="5.19954167446">
		<tag k="name" v="Vikavågen" />
		<tag k="natural" v="bay" />
		<tag k="ssr:stedsnr" v="848510" />
	</node>
	<node id="-41442" lat="59.394774998" lon="5.21327500174">
		<tag k="fixme" v="consider seamark:type=rock or natural=shoal" />
		<tag k="name" v="Brattholmskjeret" />
		<tag k="place" v="islet" />
		<tag k="ssr:stedsnr" v="830815" />
	</node>
	<node id="-41440" lat="59.3959916644" lon="5.22143888129">
		<tag k="name" v="Skjeljarvika" />
		<tag k="natural" v="bay" />
		<tag k="ssr:stedsnr" v="830804" />
	</node>
	<node id="-41439" lat="59.1548444482" lon="5.18848610403">
		<tag k="alt_name" v="Gauksholmfluene" />
		<tag k="name" v="Gauksholmflua" />
		<tag k="place" v="locality" />
		<tag k="seamark:type" v="rock" />
		<tag k="ssr:stedsnr" v="830552" />
	</node>
	<node id="-39390" lat="59.299325004" lon="5.30591111243">
		<tag k="name" v="Byggnes" />
		<tag k="natural" v="cape" />
		<tag k="ssr:stedsnr" v="63946" />
	</node>
	<node id="-41436" lat="59.3639361119" lon="5.18343611624">
		<tag k="name" v="Dorgaroren" />
		<tag k="natural" v="shoal" />
		<tag k="place" v="locality" />
		<tag k="ssr:stedsnr" v="815998" />
	</node>
	<node id="-41435" lat="59.4019888855" lon="5.36865832772">
		<tag k="name" v="Grotnes" />
		<tag k="natural" v="cape" />
		<tag k="ssr:stedsnr" v="815988" />
	</node>
	<node id="-39386" lat="59.2414555586" lon="5.18514722254">
		<tag k="name" v="Grotla" />
		<tag k="natural" v="bay" />
		<tag k="ssr:stedsnr" v="241179" />
	</node>
	<node id="-39385" lat="59.2384111156" lon="5.18220278052">
		<tag k="name" v="Vårholmen" />
		<tag k="place" v="islet" />
		<tag k="ssr:stedsnr" v="62038" />
	</node>
	<node id="-41432" lat="59.3770916711" lon="5.36537777982">
		<tag k="name" v="Aksnesstranda" />
		<tag k="natural" v="bay" />
		<tag k="ssr:stedsnr" v="816088" />
	</node>
	<node id="-41547" lat="59.1436500008" lon="5.26659445036">
		<tag k="name" v="Fiskafatet" />
		<tag k="natural" v="shoal" />
		<tag k="place" v="locality" />
		<tag k="ssr:stedsnr" v="967706" />
	</node>
	<node id="-41430" lat="59.4010916675" lon="5.21817500233">
		<tag k="alt_name" v="Vestdalsøya" />
		<tag k="name" v="Vestdalsøy" />
		<tag k="place" v="island" />
		<tag k="ssr:stedsnr" v="815841" />
	</node>
	<node id="-39380" lat="59.1464111095" lon="5.26725555182">
		<tag k="name" v="Kuvika" />
		<tag k="natural" v="bay" />
		<tag k="ssr:stedsnr" v="239776" />
	</node>
	<node id="-39379" lat="59.1429861076" lon="5.25449167132">
		<tag k="fixme" v="consider seamark:type=rock or natural=shoal" />
		<tag k="name" v="Flataskjer" />
		<tag k="place" v="islet" />
		<tag k="ssr:stedsnr" v="239753" />
	</node>
	<node id="-41425" lat="59.3668500027" lon="5.16751666831">
		<tag k="fixme" v="consider seamark:type=rock or natural=shoal" />
		<tag k="loc_name" v="Gangvadskjeret" />
		<tag k="name" v="Gangvaskjer" />
		<tag k="place" v="islet" />
		<tag k="ssr:stedsnr" v="815799" />
	</node>
	<node id="-41424" lat="59.4128333367" lon="5.15654999882">
		<tag k="bay" v="fjord" />
		<tag k="name" v="Kvaløyfjorden" />
		<tag k="natural" v="bay" />
		<tag k="ssr:stedsnr" v="815796" />
	</node>
	<node id="-39374" lat="59.2688277783" lon="5.18051945312">
		<tag k="name" v="Brottholm" />
		<tag k="place" v="islet" />
		<tag k="ssr:stedsnr" v="60793" />
	</node>
	<node id="-41421" lat="59.3714500008" lon="5.22493889665">
		<tag k="name" v="Longholmen" />
		<tag k="place" v="islet" />
		<tag k="ssr:stedsnr" v="815784" />
	</node>
	<node id="-39372" lat="59.3494280061" lon="5.2169746226">
		<tag k="name" v="Porsholmen" />
		<tag k="place" v="islet" />
		<tag k="ssr:stedsnr" v="60752" />
	</node>
	<node id="-41417" lat="59.2711583349" lon="5.37271666531">
		<tag k="fixme" v="consider seamark:type=rock or natural=shoal" />
		<tag k="name" v="Guleskjeret" />
		<tag k="place" v="islet" />
		<tag k="ssr:stedsnr" v="815173" />
	</node>
	<node id="-41416" lat="59.2789749989" lon="5.3738861085">
		<tag k="fixme" v="consider seamark:type=rock or natural=shoal" />
		<tag k="name" v="Rosseholmen" />
		<tag k="place" v="islet" />
		<tag k="ssr:stedsnr" v="815171" />
	</node>
	<node id="-41415" lat="59.2624500032" lon="5.35324166858">
		<tag k="name" v="Høvringholmen" />
		<tag k="place" v="islet" />
		<tag k="ssr:stedsnr" v="815089" />
	</node>
	<node id="-39366" lat="59.4194833293" lon="5.22493888443">
		<tag k="fixme" v="consider seamark:type=rock or natural=shoal" />
		<tag k="name" v="Nordre Moldskjeret" />
		<tag k="place" v="islet" />
		<tag k="ssr:stedsnr" v="41712" />
	</node>
	<node id="-41413" lat="59.1297138882" lon="5.25809167483">
		<tag k="name" v="Kryssgrunnen" />
		<tag k="place" v="locality" />
		<tag k="seamark:type" v="rock" />
		<tag k="ssr:stedsnr" v="814625" />
	</node>
	<node id="-41411" lat="59.3681083324" lon="5.29244443702">
		<tag k="fixme" v="consider seamark:type=rock or natural=shoal" />
		<tag k="name" v="Bøskjerane" />
		<tag k="place" v="islet" />
		<tag k="ssr:stedsnr" v="814410" />
	</node>
	<node id="-41410" lat="59.3920833343" lon="5.3827000067">
		<tag k="name" v="Fjordflua" />
		<tag k="natural" v="shoal" />
		<tag k="place" v="locality" />
		<tag k="ssr:stedsnr" v="814308" />
	</node>
	<node id="-39361" lat="59.2660083306" lon="5.41424721623">
		<tag k="name" v="Straumholmen" />
		<tag k="place" v="islet" />
		<tag k="ssr:stedsnr" v="27041" />
	</node>
	<node id="-39360" lat="59.2476166637" lon="5.16327499479">
		<tag k="name" v="Nyvingbrassene" />
		<tag k="natural" v="shoal" />
		<tag k="place" v="locality" />
		<tag k="ssr:stedsnr" v="26802" />
	</node>
	<node id="-39359" lat="59.3554833327" lon="5.18310000204">
		<tag k="name" v="Helganesboen" />
		<tag k="natural" v="shoal" />
		<tag k="place" v="locality" />
		<tag k="ssr:stedsnr" v="26939" />
	</node>
	<node id="-39358" lat="59.3592027761" lon="5.23835833922">
		<tag k="name" v="Buvik" />
		<tag k="natural" v="bay" />
		<tag k="ssr:stedsnr" v="26918" />
	</node>
	<node id="-39357" lat="59.1347638917" lon="5.24617222615">
		<tag k="fixme" v="consider seamark:type=rock or natural=shoal" />
		<tag k="name" v="Sandholmen" />
		<tag k="place" v="islet" />
		<tag k="ssr:stedsnr" v="26603" />
	</node>
	<node id="-39356" lat="59.2601805559" lon="5.35927221744">
		<tag k="name" v="Kilholmen" />
		<tag k="place" v="islet" />
		<tag k="ssr:stedsnr" v="26105" />
	</node>
	<node id="-39355" lat="59.3406222219" lon="5.3046111033">
		<tag k="name" v="Langvågen" />
		<tag k="natural" v="bay" />
		<tag k="ssr:stedsnr" v="25405" />
	</node>
	<node id="-41402" lat="59.2974638915" lon="5.38080277083">
		<tag k="alt_name" v="Austnesholmen" />
		<tag k="name" v="Austnesholmane" />
		<tag k="place" v="islet" />
		<tag k="ssr:stedsnr" v="791931" />
	</node>
	<node id="-39353" lat="59.2323221703" lon="5.17789389604">
		<tag k="name" v="Ferkingstadvågen" />
		<tag k="natural" v="bay" />
		<tag k="ssr:stedsnr" v="24626" />
	</node>
	<node id="-41400" lat="59.3718250032" lon="5.0311416575">
		<tag k="name" v="Skardholmen" />
		<tag k="place" v="islet" />
		<tag k="ssr:stedsnr" v="791722" />
	</node>
	<node id="-39351" lat="59.4049222205" lon="5.23525277791">
		<tag k="name" v="Tornes" />
		<tag k="natural" v="cape" />
		<tag k="ssr:stedsnr" v="223837" />
	</node>
	<node id="-39350" lat="59.4156611082" lon="5.23113332717">
		<tag k="name" v="Heggjelen" />
		<tag k="place" v="islet" />
		<tag k="ssr:stedsnr" v="223741" />
	</node>
	<node id="-39349" lat="59.4141722199" lon="5.22657222367">
		<tag k="name" v="Storebukta" />
		<tag k="natural" v="bay" />
		<tag k="ssr:stedsnr" v="223739" />
	</node>
	<node id="-41395" lat="59.3384527778" lon="5.31218056341">
		<tag k="alt_name" v="Midtra Flatskjeret" />
		<tag k="fixme" v="consider seamark:type=rock or natural=shoal" />
		<tag k="name" v="Flatskjer" />
		<tag k="place" v="islet" />
		<tag k="ssr:stedsnr" v="790552" />
	</node>
	<node id="-39343" lat="59.2757944403" lon="5.40653888766">
		<tag k="alt_name" v="Storevåg" />
		<tag k="name" v="Storevågen" />
		<tag k="natural" v="bay" />
		<tag k="ssr:stedsnr" v="2904" />
	</node>
	<node id="-39341" lat="59.2514666678" lon="5.36033888724">
		<tag k="alt_name" v="Lavøya;Lauvøy" />
		<tag k="name" v="Lauvøya" />
		<tag k="place" v="island" />
		<tag k="ssr:stedsnr" v="2874" />
	</node>
	<node id="-39340" lat="59.2631916674" lon="5.37968611785">
		<tag k="bay" v="fjord" />
		<tag k="name" v="Austdjupet" />
		<tag k="natural" v="bay" />
		<tag k="ssr:stedsnr" v="2872" />
	</node>
	<node id="-39339" lat="59.3964861139" lon="5.2043527722">
		<tag k="alt_name" v="Skorpo" />
		<tag k="name" v="Skorpa" />
		<tag k="place" v="islet" />
		<tag k="ssr:stedsnr" v="1635" />
	</node>
	<node id="-39337" lat="59.4135027755" lon="5.22914443796">
		<tag k="alt_name" v="Storøy" />
		<tag k="name" v="Storøya" />
		<tag k="place" v="island" />
		<tag k="ssr:stedsnr" v="1603" />
	</node>
	<node id="-39335" lat="59.2972222266" lon="5.32638889698">
		<tag k="name" v="Karmsundet" />
		<tag k="natural" v="strait" />
		<tag k="ssr:stedsnr" v="1101" />
	</node>
	<node id="-41381" lat="59.2786916701" lon="5.18640556">
		<tag k="name" v="Salvanes" />
		<tag k="natural" v="cape" />
		<tag k="ssr:stedsnr" v="788858" />
	</node>
	<node id="-41376" lat="59.1801833363" lon="5.17760555041">
		<tag k="name" v="Otravik" />
		<tag k="natural" v="bay" />
		<tag k="ssr:stedsnr" v="788658" />
	</node>
	<node id="-41375" lat="59.2870265635" lon="5.31135637367">
		<tag k="alt_name" v="Skipparvika" />
		<tag k="name" v="Skiparvik" />
		<tag k="natural" v="bay" />
		<tag k="ssr:stedsnr" v="788646" />
	</node>
	<node id="-41374" lat="59.3066111112" lon="5.20820555897">
		<tag k="name" v="Sandholmen" />
		<tag k="place" v="islet" />
		<tag k="ssr:stedsnr" v="788308" />
	</node>
	<node id="-41373" lat="59.3145277735" lon="5.21048888786">
		<tag k="name" v="Setningholmen" />
		<tag k="place" v="islet" />
		<tag k="ssr:stedsnr" v="788300" />
	</node>
	<node id="-41372" lat="59.3163972247" lon="5.21764723006">
		<tag k="name" v="Tresvik" />
		<tag k="natural" v="bay" />
		<tag k="ssr:stedsnr" v="788298" />
	</node>
	<node id="-41371" lat="59.3042611127" lon="5.22168610747">
		<tag k="name" v="Aneklubben" />
		<tag k="natural" v="cape" />
		<tag k="ssr:stedsnr" v="788269" />
	</node>
	<node id="-41368" lat="59.2998166701" lon="5.21036943806">
		<tag k="name" v="Storøy" />
		<tag k="natural" v="cape" />
		<tag k="ssr:stedsnr" v="788146" />
	</node>
	<node id="-41367" lat="59.2989222203" lon="5.22231388176">
		<tag k="name" v="Botlasloen" />
		<tag k="natural" v="cape" />
		<tag k="ssr:stedsnr" v="788141" />
	</node>
	<node id="-41365" lat="59.2920027785" lon="5.24657778627">
		<tag k="name" v="Bjønnbervika" />
		<tag k="natural" v="bay" />
		<tag k="ssr:stedsnr" v="788159" />
	</node>
	<node id="-41358" lat="59.3267249971" lon="5.19568888626">
		<tag k="name" v="Anbjørholmen" />
		<tag k="place" v="islet" />
		<tag k="ssr:stedsnr" v="787499" />
	</node>
	<node id="-41357" lat="59.1627916626" lon="5.30850000398">
		<tag k="name" v="Notholmen" />
		<tag k="place" v="islet" />
		<tag k="ssr:stedsnr" v="787308" />
	</node>
	<node id="-41355" lat="59.1466194481" lon="5.25886944801">
		<tag k="name" v="Steiningsholmen" />
		<tag k="place" v="islet" />
		<tag k="ssr:stedsnr" v="785760" />
	</node>
	<node id="-41354" lat="59.1455083361" lon="5.25685555353">
		<tag k="alt_name" v="Lahammerodden" />
		<tag k="name" v="Lahammarodden" />
		<tag k="natural" v="cape" />
		<tag k="ssr:stedsnr" v="785741" />
	</node>
	<node id="-41353" lat="59.1447277768" lon="5.26623333413">
		<tag k="fixme" v="consider seamark:type=rock or natural=shoal" />
		<tag k="name" v="Ringaskjer" />
		<tag k="place" v="islet" />
		<tag k="ssr:stedsnr" v="785733" />
	</node>
	<node id="-41351" lat="59.3948638845" lon="5.21666666697">
		<tag k="fixme" v="consider seamark:type=rock or natural=shoal" />
		<tag k="name" v="Horso" />
		<tag k="place" v="islet" />
		<tag k="ssr:stedsnr" v="769800" />
	</node>
	<node id="-41350" lat="59.1388055528" lon="5.21478056287">
		<tag k="name" v="Hamsholmen" />
		<tag k="place" v="islet" />
		<tag k="ssr:stedsnr" v="769574" />
	</node>
	<node id="-39365" lat="59.4101083357" lon="5.24329999924">
		<tag k="name" v="Galten" />
		<tag k="natural" v="cape" />
		<tag k="ssr:stedsnr" v="41805" />
	</node>
	<node id="-41344" lat="59.3869833351" lon="5.21720277856">
		<tag k="name" v="Sæbøtre" />
		<tag k="natural" v="cape" />
		<tag k="ssr:stedsnr" v="755841" />
	</node>
	<node id="-41343" lat="59.3763083314" lon="5.14112222306">
		<tag k="fixme" v="consider seamark:type=rock or natural=shoal" />
		<tag k="name" v="Krekaskjer" />
		<tag k="place" v="islet" />
		<tag k="ssr:stedsnr" v="755804" />
	</node>
	<node id="-41342" lat="59.2895833334" lon="5.31833333772">
		<tag k="fixme" v="consider seamark:type=rock or natural=shoal" />
		<tag k="name" v="Koparnaglen" />
		<tag k="place" v="islet" />
		<tag k="ssr:stedsnr" v="755147" />
	</node>
	<node id="-41341" lat="59.3513194401" lon="5.2030388844">
		<tag k="fixme" v="consider seamark:type=rock or natural=shoal" />
		<tag k="name" v="Isgarden" />
		<tag k="place" v="islet" />
		<tag k="ssr:stedsnr" v="754946" />
	</node>
	<node id="-41340" lat="59.3809472238" lon="5.17876111147">
		<tag k="alt_name" v="Gjitterøysundet" />
		<tag k="name" v="Gitterøysundet" />
		<tag k="natural" v="strait" />
		<tag k="ssr:stedsnr" v="754837" />
	</node>
	<node id="-41337" lat="59.3922499967" lon="5.15250554772">
		<tag k="name" v="Dammen" />
		<tag k="natural" v="bay" />
		<tag k="ssr:stedsnr" v="754812" />
	</node>
	<node id="-41612" lat="59.2704843816" lon="5.18930228366">
		<tag k="name" v="Store Medholmen" />
		<tag k="place" v="islet" />
		<tag k="ssr:stedsnr" v="980449" />
	</node>
	<node id="-41334" lat="59.3758555577" lon="5.17615278515">
		<tag k="alt_name" v="Skifteskjer" />
		<tag k="fixme" v="consider seamark:type=rock or natural=shoal" />
		<tag k="name" v="Skifteskjeret" />
		<tag k="place" v="islet" />
		<tag k="ssr:stedsnr" v="754801" />
	</node>
	<node id="-41333" lat="59.3745333365" lon="5.16621944576">
		<tag k="name" v="Duøyvik" />
		<tag k="natural" v="bay" />
		<tag k="ssr:stedsnr" v="754795" />
	</node>
	<node id="-41330" lat="59.1346666686" lon="5.25842499569">
		<tag k="name" v="Skorva" />
		<tag k="place" v="locality" />
		<tag k="seamark:type" v="rock" />
		<tag k="ssr:stedsnr" v="754614" />
	</node>
	<node id="-41329" lat="59.2811861394" lon="5.32320006018">
		<tag k="alt_name" v="Kåleflua" />
		<tag k="name" v="Kålaflua" />
		<tag k="natural" v="shoal" />
		<tag k="place" v="locality" />
		<tag k="ssr:stedsnr" v="754216" />
	</node>
	<node id="-41328" lat="59.269655557" lon="5.32850277422">
		<tag k="name" v="Træsvik" />
		<tag k="natural" v="bay" />
		<tag k="ssr:stedsnr" v="754214" />
	</node>
	<node id="-41326" lat="59.3288638855" lon="5.37655276987">
		<tag k="name" v="Storeneset" />
		<tag k="natural" v="cape" />
		<tag k="ssr:stedsnr" v="754205" />
	</node>
	<node id="-41325" lat="59.3036805573" lon="5.2927777736">
		<tag k="name" v="Småneset" />
		<tag k="natural" v="cape" />
		<tag k="ssr:stedsnr" v="754175" />
	</node>
	<node id="-41323" lat="59.3220729888" lon="5.31615039383">
		<tag k="name" v="Store Klovet" />
		<tag k="natural" v="cape" />
		<tag k="ssr:stedsnr" v="754160" />
	</node>
	<node id="-41322" lat="59.2606861109" lon="5.36666665892">
		<tag k="name" v="Tekebergholmen" />
		<tag k="place" v="islet" />
		<tag k="ssr:stedsnr" v="754111" />
	</node>
	<node id="-41321" lat="59.2848361172" lon="5.30635332172">
		<tag k="name" v="Vågen" />
		<tag k="natural" v="bay" />
		<tag k="ssr:stedsnr" v="754096" />
	</node>
	<node id="-41320" lat="59.2445333471" lon="5.16224087812">
		<tag k="fixme" v="consider seamark:type=rock or natural=shoal" />
		<tag k="name" v="Nyvingen" />
		<tag k="place" v="islet" />
		<tag k="ssr:stedsnr" v="753792" />
	</node>
	<node id="-41319" lat="59.2123888865" lon="5.1713694419">
		<tag k="name" v="Otravik" />
		<tag k="natural" v="bay" />
		<tag k="ssr:stedsnr" v="753630" />
	</node>
	<node id="-41318" lat="59.1542055601" lon="5.17315555974">
		<tag k="name" v="Nordra Jarsteinsflua" />
		<tag k="natural" v="shoal" />
		<tag k="place" v="locality" />
		<tag k="ssr:stedsnr" v="753537" />
	</node>
	<node id="-41309" lat="59.3719024584" lon="5.17307834402">
		<tag k="name" v="Vindkjeftsund" />
		<tag k="natural" v="strait" />
		<tag k="ssr:stedsnr" v="632994" />
	</node>
	<node id="-41308" lat="59.3749222257" lon="5.03449999945">
		<tag k="name" v="Litla Skardholmflua" />
		<tag k="natural" v="shoal" />
		<tag k="place" v="locality" />
		<tag k="ssr:stedsnr" v="632911" />
	</node>
	<node id="-41307" lat="59.3795777795" lon="5.14477500701">
		<tag k="alt_name" v="Tørholmen" />
		<tag k="name" v="Tårholmen" />
		<tag k="place" v="islet" />
		<tag k="ssr:stedsnr" v="632733" />
	</node>
	<node id="-41306" lat="59.3865305549" lon="5.15020277455">
		<tag k="name" v="Kvednavik" />
		<tag k="natural" v="bay" />
		<tag k="ssr:stedsnr" v="632731" />
	</node>
	<node id="-41305" lat="59.386369447" lon="5.1947277698">
		<tag k="alt_name" v="Reidungen" />
		<tag k="fixme" v="consider seamark:type=rock or natural=shoal" />
		<tag k="name" v="Redjung" />
		<tag k="place" v="islet" />
		<tag k="ssr:stedsnr" v="632801" />
	</node>
	<node id="-41304" lat="59.3872666626" lon="5.16115278255">
		<tag k="alt_name" v="norde Podl" />
		<tag k="name" v="Nordre Podl" />
		<tag k="natural" v="strait" />
		<tag k="ssr:stedsnr" v="632787" />
	</node>
	<node id="-41303" lat="59.391894446" lon="5.17213334069">
		<tag k="alt_name" v="Guleskjer" />
		<tag k="name" v="Gulaskjer" />
		<tag k="place" v="islet" />
		<tag k="ssr:stedsnr" v="632786" />
	</node>
	<node id="-41302" lat="59.3569666674" lon="5.21601389485">
		<tag k="name" v="Sykehusbukta" />
		<tag k="natural" v="bay" />
		<tag k="ssr:stedsnr" v="632778" />
	</node>
	<node id="-41300" lat="59.2524805581" lon="5.17792777372">
		<tag k="name" v="Gulholmen" />
		<tag k="place" v="islet" />
		<tag k="ssr:stedsnr" v="632092" />
	</node>
	<node id="-41299" lat="59.2788388851" lon="5.38935832753">
		<tag k="name" v="Naustholmane" />
		<tag k="place" v="islet" />
		<tag k="ssr:stedsnr" v="632181" />
	</node>
	<node id="-41298" lat="59.3175000017" lon="5.31597222495">
		<tag k="name" v="Storetång" />
		<tag k="natural" v="cape" />
		<tag k="ssr:stedsnr" v="632179" />
	</node>
	<node id="-41297" lat="59.2625083366" lon="5.18066944858">
		<tag k="alt_name" v="Åkreøy" />
		<tag k="name" v="Åkreøyna" />
		<tag k="place" v="island" />
		<tag k="ssr:stedsnr" v="631807" />
	</node>
	<node id="-41296" lat="59.1383833349" lon="5.29388055147">
		<tag k="fixme" v="consider seamark:type=rock or natural=shoal" />
		<tag k="name" v="Skudesloen" />
		<tag k="place" v="islet" />
		<tag k="ssr:stedsnr" v="631617" />
	</node>
	<node id="-41295" lat="59.1386277743" lon="5.26231389567">
		<tag k="name" v="Trettholmen" />
		<tag k="place" v="islet" />
		<tag k="ssr:stedsnr" v="631603" />
	</node>
	<node id="-41294" lat="59.1275388918" lon="5.27616666951">
		<tag k="name" v="Søreflua" />
		<tag k="place" v="locality" />
		<tag k="seamark:type" v="rock" />
		<tag k="ssr:stedsnr" v="631597" />
	</node>
	<node id="-41293" lat="59.3403888886" lon="5.3203333271">
		<tag k="name" v="Sniksflua" />
		<tag k="natural" v="shoal" />
		<tag k="place" v="locality" />
		<tag k="ssr:stedsnr" v="631391" />
	</node>
	<node id="-41292" lat="59.404469448" lon="5.37624722249">
		<tag k="name" v="Jakobflua" />
		<tag k="natural" v="shoal" />
		<tag k="place" v="locality" />
		<tag k="ssr:stedsnr" v="631228" />
	</node>
	<node id="-41288" lat="59.2645194482" lon="5.35598333908">
		<tag k="fixme" v="consider seamark:type=rock or natural=shoal" />
		<tag k="name" v="Gulskjer" />
		<tag k="place" v="islet" />
		<tag k="ssr:stedsnr" v="609887" />
	</node>
	<node id="-41287" lat="59.2801611123" lon="5.15103055074">
		<tag k="name" v="Ryvingen" />
		<tag k="place" v="island" />
		<tag k="ssr:stedsnr" v="608947" />
	</node>
	<node id="-41286" lat="59.2834063929" lon="5.28733512346">
		<tag k="name" v="Eidsbotn" />
		<tag k="natural" v="bay" />
		<tag k="ssr:stedsnr" v="608940" />
	</node>
	<node id="-41281" lat="59.1709165252" lon="5.19546900387">
		<tag k="alt_name" v="Sandvesand" />
		<tag k="name" v="Sandvesanden" />
		<tag k="natural" v="beach" />
		<tag k="place" v="locality" />
		<tag k="ssr:stedsnr" v="608425" />
	</node>
	<node id="-41279" lat="59.1523166662" lon="5.18997499915">
		<tag k="name" v="Gauksholmane" />
		<tag k="place" v="islet" />
		<tag k="ssr:stedsnr" v="608398" />
	</node>
	<node id="-41278" lat="59.2228722248" lon="5.32520833549">
		<tag k="name" v="Ladbergskjeret" />
		<tag k="natural" v="cape" />
		<tag k="ssr:stedsnr" v="608100" />
	</node>
	<node id="-41277" lat="59.1830750026" lon="5.17780277423">
		<tag k="alt_name" v="Djupvika" />
		<tag k="name" v="Djupevik" />
		<tag k="natural" v="bay" />
		<tag k="ssr:stedsnr" v="608057" />
	</node>
	<node id="-41273" lat="59.2323055567" lon="5.06785000833">
		<tag k="name" v="Ferkingstadøyane" />
		<tag k="place" v="island" />
		<tag k="ssr:stedsnr" v="607042" />
	</node>
	<node id="-41270" lat="59.2862444458" lon="5.20797777486">
		<tag k="name" v="Store Gongholmen" />
		<tag k="place" v="islet" />
		<tag k="ssr:stedsnr" v="605872" />
	</node>
	<node id="-41269" lat="59.3353166656" lon="5.28147222998">
		<tag k="name" v="Matland" />
		<tag k="natural" v="cape" />
		<tag k="ssr:stedsnr" v="605794" />
	</node>
	<node id="-41267" lat="59.3482583348" lon="5.21614166539">
		<tag k="name" v="Isgaren" />
		<tag k="natural" v="bay" />
		<tag k="ssr:stedsnr" v="605726" />
	</node>
	<node id="-41265" lat="59.1430611121" lon="5.20879999354">
		<tag k="name" v="Litle Flagholmen" />
		<tag k="place" v="islet" />
		<tag k="ssr:stedsnr" v="605536" />
	</node>
	<node id="-41262" lat="59.3255722203" lon="5.19718889758">
		<tag k="name" v="Kråkeholmen" />
		<tag k="place" v="islet" />
		<tag k="ssr:stedsnr" v="605481" />
	</node>
	<node id="-41261" lat="59.3234444437" lon="5.1975333368">
		<tag k="name" v="Langholmen" />
		<tag k="place" v="islet" />
		<tag k="ssr:stedsnr" v="605479" />
	</node>
	<node id="-41260" lat="59.3306722187" lon="5.20061389749">
		<tag k="name" v="Stølavågen" />
		<tag k="natural" v="bay" />
		<tag k="ssr:stedsnr" v="605477" />
	</node>
	<node id="-39470" lat="59.3234666646" lon="5.34610277051">
		<tag k="name" v="Vardeneset" />
		<tag k="natural" v="cape" />
		<tag k="ssr:stedsnr" v="269181" />
	</node>
	<node id="-41254" lat="59.2225527753" lon="5.32464167233">
		<tag k="name" v="Laberg" />
		<tag k="natural" v="cape" />
		<tag k="ssr:stedsnr" v="605681" />
	</node>
	<node id="-41541" lat="59.4164444487" lon="5.22185555336">
		<tag k="fixme" v="consider seamark:type=rock or natural=shoal" />
		<tag k="name" v="Avlaupsøy" />
		<tag k="place" v="islet" />
		<tag k="ssr:stedsnr" v="951781" />
	</node>
	<node id="-41249" lat="59.3004694453" lon="5.19092500444">
		<tag k="fixme" v="consider seamark:type=rock or natural=shoal" />
		<tag k="name" v="Herraskjer" />
		<tag k="place" v="islet" />
		<tag k="ssr:stedsnr" v="605341" />
	</node>
	<node id="-41246" lat="59.2658833341" lon="5.32797777847">
		<tag k="name" v="Skjersund" />
		<tag k="natural" v="bay" />
		<tag k="ssr:stedsnr" v="605463" />
	</node>
	<node id="-41244" lat="59.3058611126" lon="5.29286389122">
		<tag k="name" v="Store Lyngholm" />
		<tag k="place" v="islet" />
		<tag k="ssr:stedsnr" v="605062" />
	</node>
	<node id="-41242" lat="59.2927558358" lon="5.29900144295">
		<tag k="name" v="Nordalsbotn" />
		<tag k="natural" v="bay" />
		<tag k="ssr:stedsnr" v="605048" />
	</node>
	<node id="-41239" lat="59.3020777813" lon="5.20988888968">
		<tag k="name" v="Hellesøy" />
		<tag k="place" v="islet" />
		<tag k="ssr:stedsnr" v="605309" />
	</node>
	<node id="-41237" lat="59.3210333353" lon="5.31593888019">
		<tag k="name" v="Litle Klovet" />
		<tag k="natural" v="cape" />
		<tag k="ssr:stedsnr" v="605284" />
	</node>
	<node id="-41236" lat="59.3230972202" lon="5.3174027809">
		<tag k="name" v="Holmen" />
		<tag k="natural" v="cape" />
		<tag k="ssr:stedsnr" v="605282" />
	</node>
	<node id="-41235" lat="59.3303055586" lon="5.29109721606">
		<tag k="name" v="Kollstøneset" />
		<tag k="natural" v="cape" />
		<tag k="ssr:stedsnr" v="605271" />
	</node>
	<node id="-41233" lat="59.3304361087" lon="5.33413056282">
		<tag k="name" v="Kverneneset" />
		<tag k="natural" v="cape" />
		<tag k="ssr:stedsnr" v="605254" />
	</node>
	<node id="-41232" lat="59.3991888901" lon="5.21302778525">
		<tag k="fixme" v="consider seamark:type=rock or natural=shoal" />
		<tag k="name" v="Svorteskjera" />
		<tag k="place" v="islet" />
		<tag k="ssr:stedsnr" v="602241" />
	</node>
	<node id="-41229" lat="59.4073222205" lon="5.22747500418">
		<tag k="name" v="Småholmane" />
		<tag k="place" v="islet" />
		<tag k="ssr:stedsnr" v="587820" />
	</node>
	<node id="-41227" lat="59.358124998" lon="5.28125832771">
		<tag k="name" v="Mortaneset" />
		<tag k="natural" v="cape" />
		<tag k="ssr:stedsnr" v="585190" />
	</node>
	<node id="-41225" lat="59.3603333374" lon="5.19801666582">
		<tag k="name" v="Grønkefluene" />
		<tag k="natural" v="shoal" />
		<tag k="place" v="locality" />
		<tag k="ssr:stedsnr" v="572946" />
	</node>
	<node id="-41224" lat="59.3509555549" lon="5.2192750039">
		<tag k="name" v="Grønnevik" />
		<tag k="natural" v="bay" />
		<tag k="ssr:stedsnr" v="572941" />
	</node>
	<node id="-41223" lat="59.402338891" lon="5.22038888989">
		<tag k="alt_name" v="Magløya" />
		<tag k="name" v="Mageløy" />
		<tag k="place" v="island" />
		<tag k="ssr:stedsnr" v="572845" />
	</node>
	<node id="-41222" lat="59.2429949574" lon="5.16730884019">
		<tag k="name" v="Peraflua" />
		<tag k="natural" v="shoal" />
		<tag k="place" v="locality" />
		<tag k="ssr:stedsnr" v="572835" />
	</node>
	<node id="-41345" lat="59.3966666694" lon="5.21076944969">
		<tag k="name" v="Stora Lamholmen" />
		<tag k="place" v="islet" />
		<tag k="ssr:stedsnr" v="755846" />
	</node>
	<node id="-41219" lat="59.3564472222" lon="5.2099416752">
		<tag k="name" v="Vindkjeftholmane" />
		<tag k="place" v="islet" />
		<tag k="ssr:stedsnr" v="572824" />
	</node>
	<node id="-41218" lat="59.3634138922" lon="5.22236388771">
		<tag k="name" v="Digermulen" />
		<tag k="natural" v="cape" />
		<tag k="ssr:stedsnr" v="572821" />
	</node>
	<node id="-41217" lat="59.3684583321" lon="5.15945556">
		<tag k="name" v="Drivsundholmen" />
		<tag k="place" v="islet" />
		<tag k="ssr:stedsnr" v="572812" />
	</node>
	<node id="-41216" lat="59.3791277746" lon="5.0108722189">
		<tag k="name" v="Næstholmflua" />
		<tag k="natural" v="shoal" />
		<tag k="place" v="locality" />
		<tag k="ssr:stedsnr" v="572922" />
	</node>
	<node id="-41215" lat="59.3693249997" lon="5.23810000551">
		<tag k="name" v="Børesholmen" />
		<tag k="place" v="islet" />
		<tag k="ssr:stedsnr" v="572799" />
	</node>
	<node id="-41214" lat="59.4113333346" lon="5.10698889313">
		<tag k="name" v="Flatholmen" />
		<tag k="place" v="islet" />
		<tag k="ssr:stedsnr" v="572784" />
	</node>
	<node id="-41213" lat="59.291108576" lon="5.36638646387">
		<tag k="name" v="Fosnavågen" />
		<tag k="natural" v="bay" />
		<tag k="ssr:stedsnr" v="572192" />
	</node>
	<node id="-41210" lat="59.2523166678" lon="5.17701667039">
		<tag k="fixme" v="consider seamark:type=rock or natural=shoal" />
		<tag k="name" v="Stongskjeret" />
		<tag k="place" v="islet" />
		<tag k="ssr:stedsnr" v="572090" />
	</node>
	<node id="-41208" lat="59.2593111112" lon="5.18465833481">
		<tag k="name" v="Naustaberg" />
		<tag k="natural" v="cape" />
		<tag k="ssr:stedsnr" v="572084" />
	</node>
	<node id="-41207" lat="59.1761944414" lon="5.31167500593">
		<tag k="name" v="Storagjerdsvika" />
		<tag k="natural" v="bay" />
		<tag k="ssr:stedsnr" v="571599" />
	</node>
	<node id="-41206" lat="59.3367222231" lon="5.32588610281">
		<tag k="alt_name" v="Trelhammar" />
		<tag k="name" v="Trælhamaren" />
		<tag k="natural" v="cape" />
		<tag k="ssr:stedsnr" v="571421" />
	</node>
	<node id="-41205" lat="59.3363833368" lon="5.3008861041">
		<tag k="name" v="Melandsholmen" />
		<tag k="natural" v="cape" />
		<tag k="ssr:stedsnr" v="571414" />
	</node>
	<node id="-41203" lat="59.4176666643" lon="5.19759721735">
		<tag k="name" v="Torvestad-Treboen" />
		<tag k="natural" v="shoal" />
		<tag k="place" v="locality" />
		<tag k="ssr:stedsnr" v="571374" />
	</node>
	<node id="-41202" lat="59.1358111071" lon="5.2049499927">
		<tag k="name" v="Skvetta" />
		<tag k="place" v="locality" />
		<tag k="seamark:type" v="rock" />
		<tag k="ssr:stedsnr" v="570552" />
	</node>
	<node id="-41201" lat="59.3442416628" lon="5.28049444814">
		<tag k="name" v="Eidsknappen" />
		<tag k="natural" v="cape" />
		<tag k="ssr:stedsnr" v="570325" />
	</node>
	<node id="-41200" lat="59.4035861074" lon="5.37415556242">
		<tag k="name" v="Guleholmen" />
		<tag k="place" v="islet" />
		<tag k="ssr:stedsnr" v="570214" />
	</node>
	<node id="-41199" lat="59.399511109" lon="5.3757361069">
		<tag k="fixme" v="consider seamark:type=rock or natural=shoal" />
		<tag k="name" v="Skallen" />
		<tag k="place" v="islet" />
		<tag k="ssr:stedsnr" v="570213" />
	</node>
	<node id="-41539" lat="59.172202777" lon="5.18812777232">
		<tag k="name" v="Svelgflua" />
		<tag k="place" v="locality" />
		<tag k="seamark:type" v="rock" />
		<tag k="ssr:stedsnr" v="951530" />
	</node>
	<node id="-41186" lat="59.2006805592" lon="5.16778888169">
		<tag k="alt_name" v="Skarvaskjer" />
		<tag k="fixme" v="consider seamark:type=rock or natural=shoal" />
		<tag k="name" v="Skarvaskjeret" />
		<tag k="place" v="islet" />
		<tag k="ssr:stedsnr" v="548086" />
	</node>
	<node id="-41185" lat="59.392700004" lon="5.15002222265">
		<tag k="name" v="Reholmen" />
		<tag k="place" v="islet" />
		<tag k="ssr:stedsnr" v="547666" />
	</node>
	<node id="-41387" lat="59.1648722259" lon="5.19041111045">
		<tag k="name" v="Mjølhusholmane" />
		<tag k="place" v="islet" />
		<tag k="ssr:stedsnr" v="790445" />
	</node>
	<node id="-41176" lat="59.1411895199" lon="5.29700740003">
		<tag k="name" v="Søtholmane" />
		<tag k="place" v="islet" />
		<tag k="ssr:stedsnr" v="547418" />
	</node>
	<node id="-41173" lat="59.2467833356" lon="5.18442499305">
		<tag k="alt_name" v="Svartasjer" />
		<tag k="fixme" v="consider seamark:type=rock or natural=shoal" />
		<tag k="name" v="Svartaskjer" />
		<tag k="place" v="islet" />
		<tag k="ssr:stedsnr" v="547052" />
	</node>
	<node id="-41172" lat="59.2135916698" lon="5.17031944577">
		<tag k="alt_name" v="Svarholmen" />
		<tag k="name" v="Sverdholmen" />
		<tag k="place" v="islet" />
		<tag k="ssr:stedsnr" v="547019" />
	</node>
	<node id="-41171" lat="59.2400888872" lon="5.18364999831">
		<tag k="name" v="Svelgen" />
		<tag k="natural" v="bay" />
		<tag k="ssr:stedsnr" v="545985" />
	</node>
	<node id="-41169" lat="59.2828361154" lon="5.20581111184">
		<tag k="name" v="Kvednavika" />
		<tag k="natural" v="bay" />
		<tag k="ssr:stedsnr" v="545853" />
	</node>
	<node id="-41167" lat="59.3413138861" lon="5.32392777079">
		<tag k="name" v="Sniksbukta" />
		<tag k="natural" v="bay" />
		<tag k="ssr:stedsnr" v="545782" />
	</node>
	<node id="-41163" lat="59.3513583299" lon="5.31358333042">
		<tag k="name" v="Karmsundet" />
		<tag k="natural" v="strait" />
		<tag k="ssr:stedsnr" v="545762" />
	</node>
	<node id="-41335" lat="59.3752055557" lon="5.15643611668">
		<tag k="name" v="Grønhaugebukt" />
		<tag k="natural" v="bay" />
		<tag k="ssr:stedsnr" v="754807" />
	</node>
	<node id="-39492" lat="59.231974518" lon="5.17226362494">
		<tag k="fixme" v="consider seamark:type=rock or natural=shoal" />
		<tag k="name" v="Urdskjeret" />
		<tag k="place" v="islet" />
		<tag k="ssr:stedsnr" v="146658" />
	</node>
	<node id="-41151" lat="59.2806944469" lon="5.3451222294">
		<tag k="name" v="Hodlavika" />
		<tag k="natural" v="bay" />
		<tag k="ssr:stedsnr" v="545558" />
	</node>
	<node id="-41145" lat="59.1476555535" lon="5.19471110598">
		<tag k="name" v="Syreneset" />
		<tag k="natural" v="cape" />
		<tag k="ssr:stedsnr" v="545497" />
	</node>
	<node id="-41141" lat="59.2963916704" lon="5.19802499688">
		<tag k="name" v="Taravika" />
		<tag k="natural" v="bay" />
		<tag k="ssr:stedsnr" v="545288" />
	</node>
	<node id="-41137" lat="59.2191027772" lon="5.17675556085">
		<tag k="fixme" v="consider seamark:type=rock or natural=shoal" />
		<tag k="name" v="Knudstø" />
		<tag k="place" v="islet" />
		<tag k="ssr:stedsnr" v="545242" />
	</node>
	<node id="-41135" lat="59.3278666671" lon="5.3736499915">
		<tag k="name" v="Litlanes" />
		<tag k="natural" v="cape" />
		<tag k="ssr:stedsnr" v="545206" />
	</node>
	<node id="-41133" lat="59.3340555598" lon="5.3631388839">
		<tag k="name" v="Bårdsvik" />
		<tag k="natural" v="bay" />
		<tag k="ssr:stedsnr" v="545201" />
	</node>
	<node id="-41130" lat="59.3234944463" lon="5.36928054988">
		<tag k="name" v="Uglesmog" />
		<tag k="natural" v="bay" />
		<tag k="ssr:stedsnr" v="545192" />
	</node>
	<node id="-41123" lat="59.3807000037" lon="5.29715833877">
		<tag k="fixme" v="consider seamark:type=rock or natural=shoal" />
		<tag k="name" v="Norheimskjeret" />
		<tag k="place" v="islet" />
		<tag k="ssr:stedsnr" v="543125" />
	</node>
	<node id="-41120" lat="59.4096888918" lon="5.23311943695">
		<tag k="name" v="Garnes" />
		<tag k="natural" v="cape" />
		<tag k="ssr:stedsnr" v="526741" />
	</node>
	<node id="-41119" lat="59.4176472228" lon="5.2314055605">
		<tag k="name" v="Langeflua" />
		<tag k="natural" v="shoal" />
		<tag k="place" v="locality" />
		<tag k="ssr:stedsnr" v="526717" />
	</node>
	<node id="-41118" lat="59.1749000005" lon="5.172258341">
		<tag k="name" v="Tomasgrunnen" />
		<tag k="place" v="locality" />
		<tag k="seamark:type" v="rock" />
		<tag k="ssr:stedsnr" v="526537" />
	</node>
	<node id="-41117" lat="59.1631000043" lon="5.17513610575">
		<tag k="alt_name" v="Håskjerflua, s" />
		<tag k="name" v="Søre Håskjerflua" />
		<tag k="place" v="locality" />
		<tag k="seamark:type" v="rock" />
		<tag k="ssr:stedsnr" v="526518" />
	</node>
	<node id="-41115" lat="59.3171555574" lon="5.38486389694">
		<tag k="name" v="Fosnasundet" />
		<tag k="natural" v="strait" />
		<tag k="ssr:stedsnr" v="427965" />
	</node>
	<node id="-41113" lat="59.3097749961" lon="5.33573610498">
		<tag k="alt_name" v="Skjelvik;Skjelavik" />
		<tag k="name" v="Skjelvika" />
		<tag k="natural" v="bay" />
		<tag k="ssr:stedsnr" v="427961" />
	</node>
	<node id="-41112" lat="59.2839111068" lon="5.15958610712">
		<tag k="alt_name" v="Kløvningen" />
		<tag k="name" v="Klovningen" />
		<tag k="place" v="islet" />
		<tag k="ssr:stedsnr" v="427934" />
	</node>
	<node id="-41111" lat="59.2945833306" lon="5.31319444931">
		<tag k="alt_name" v="Gofarnes" />
		<tag k="name" v="Godfarnes" />
		<tag k="natural" v="cape" />
		<tag k="ssr:stedsnr" v="427925" />
	</node>
	<node id="-41110" lat="59.2738578553" lon="5.178054488">
		<tag k="alt_name" v="Geining;Jegningen" />
		<tag k="name" v="Gjegningen" />
		<tag k="place" v="islet" />
		<tag k="ssr:stedsnr" v="427919" />
	</node>
	<node id="-39354" lat="59.3969027784" lon="5.37659721521">
		<tag k="name" v="Ognsflua" />
		<tag k="natural" v="shoal" />
		<tag k="place" v="locality" />
		<tag k="ssr:stedsnr" v="25260" />
	</node>
	<node id="-41106" lat="59.146763886" lon="5.19576665985">
		<tag k="name" v="Buksevika" />
		<tag k="natural" v="bay" />
		<tag k="ssr:stedsnr" v="427399" />
	</node>
	<node id="-41103" lat="59.3838994583" lon="5.16785500063">
		<tag k="alt_name" v="Ulvøy" />
		<tag k="name" v="Ulvøya" />
		<tag k="place" v="island" />
		<tag k="ssr:stedsnr" v="426559" />
	</node>
	<node id="-41102" lat="59.4147833339" lon="5.11208333447">
		<tag k="name" v="Bjørkevær" />
		<tag k="place" v="island" />
		<tag k="ssr:stedsnr" v="426646" />
	</node>
	<node id="-41100" lat="59.3499999992" lon="5.29694444905">
		<tag k="alt_name" v="Furøyna" />
		<tag k="name" v="Forøya" />
		<tag k="place" v="islet" />
		<tag k="ssr:stedsnr" v="426487" />
	</node>
	<node id="-41099" lat="59.1867250044" lon="5.31404444672">
		<tag k="name" v="Søra Børevika" />
		<tag k="natural" v="bay" />
		<tag k="ssr:stedsnr" v="426077" />
	</node>
	<node id="-41097" lat="59.2282694486" lon="5.07117499894">
		<tag k="fixme" v="multiple name tags, choose one and add the other to alt_name; consider seamark:type=rock or natural=shoal" />
		<tag k="name" v="Ramnaskjer;Rauneskjeret" />
		<tag k="place" v="islet" />
		<tag k="ssr:stedsnr" v="426039" />
	</node>
	<node id="-41096" lat="59.2336305557" lon="5.32610277338">
		<tag k="name" v="Snorteland" />
		<tag k="natural" v="beach" />
		<tag k="place" v="locality" />
		<tag k="ssr:stedsnr" v="426032" />
	</node>
	<node id="-41095" lat="59.2401861137" lon="5.18209444452">
		<tag k="name" v="Guleholmen" />
		<tag k="place" v="islet" />
		<tag k="ssr:stedsnr" v="424990" />
	</node>
	<node id="-41092" lat="59.2711611131" lon="5.19420278049">
		<tag k="alt_name" v="Sevlandsvik" />
		<tag k="name" v="Sævelandsvik" />
		<tag k="natural" v="bay" />
		<tag k="ssr:stedsnr" v="424849" />
	</node>
	<node id="-41089" lat="59.2897722219" lon="5.24216667416">
		<tag k="name" v="Slettavika" />
		<tag k="natural" v="bay" />
		<tag k="ssr:stedsnr" v="424781" />
	</node>
	<node id="-41086" lat="59.2817611151" lon="5.25550555706">
		<tag k="name" v="Stavadalen" />
		<tag k="natural" v="bay" />
		<tag k="ssr:stedsnr" v="424740" />
	</node>
	<node id="-41085" lat="59.3486809071" lon="5.22001169234">
		<tag k="name" v="Dyrnes" />
		<tag k="natural" v="cape" />
		<tag k="ssr:stedsnr" v="424725" />
	</node>
	<node id="-41081" lat="59.3366055547" lon="5.18960277675">
		<tag k="name" v="Benjamen" />
		<tag k="natural" v="cape" />
		<tag k="ssr:stedsnr" v="424691" />
	</node>
	<node id="-41080" lat="59.340205558" lon="5.18786111073">
		<tag k="name" v="Steinavik" />
		<tag k="natural" v="bay" />
		<tag k="ssr:stedsnr" v="424690" />
	</node>
	<node id="-41066" lat="59.2246944407" lon="5.17219999743">
		<tag k="name" v="Svinajere" />
		<tag k="natural" v="bay" />
		<tag k="ssr:stedsnr" v="424251" />
	</node>
	<node id="-41064" lat="59.2196444481" lon="5.17869444366">
		<tag k="name" v="Mortensvika" />
		<tag k="natural" v="bay" />
		<tag k="ssr:stedsnr" v="424247" />
	</node>
	<node id="-41059" lat="59.4109638908" lon="5.22442499499">
		<tag k="name" v="Avløypo" />
		<tag k="place" v="islet" />
		<tag k="ssr:stedsnr" v="405748" />
	</node>
	<node id="-41058" lat="59.4116388856" lon="5.23161388879">
		<tag k="name" v="Grøneholmen" />
		<tag k="place" v="islet" />
		<tag k="ssr:stedsnr" v="405743" />
	</node>
	<node id="-41057" lat="59.4183527771" lon="5.22661667009">
		<tag k="fixme" v="consider seamark:type=rock or natural=shoal" />
		<tag k="name" v="Søra Moldskjeret" />
		<tag k="place" v="islet" />
		<tag k="ssr:stedsnr" v="405735" />
	</node>
	<node id="-41056" lat="59.1762527785" lon="5.1721083405">
		<tag k="name" v="Ivarsflua" />
		<tag k="place" v="locality" />
		<tag k="seamark:type" v="rock" />
		<tag k="ssr:stedsnr" v="405551" />
	</node>
	<node id="-41055" lat="59.3981111129" lon="5.22091666527">
		<tag k="name" v="Dalstre" />
		<tag k="natural" v="cape" />
		<tag k="ssr:stedsnr" v="391869" />
	</node>
	<node id="-41054" lat="59.364791671" lon="5.19549167497">
		<tag k="name" v="Djupaflua" />
		<tag k="natural" v="shoal" />
		<tag k="place" v="locality" />
		<tag k="ssr:stedsnr" v="390996" />
	</node>
	<node id="-41053" lat="59.2142916669" lon="5.17671665851">
		<tag k="name" v="Rullevik" />
		<tag k="natural" v="bay" />
		<tag k="ssr:stedsnr" v="390983" />
	</node>
	<node id="-41051" lat="59.4143305523" lon="5.23374722868">
		<tag k="alt_name" v="Steinsøya" />
		<tag k="name" v="Steinsøy" />
		<tag k="place" v="island" />
		<tag k="ssr:stedsnr" v="390829" />
	</node>
	<node id="-41050" lat="59.4122611118" lon="5.23812777692">
		<tag k="alt_name" v="Osnesgavlen" />
		<tag k="name" v="Gavlen" />
		<tag k="natural" v="cape" />
		<tag k="ssr:stedsnr" v="390828" />
	</node>
	<node id="-41049" lat="59.3584805574" lon="5.23400833802">
		<tag k="name" v="Visnessjøen" />
		<tag k="natural" v="bay" />
		<tag k="ssr:stedsnr" v="390806" />
	</node>
	<node id="-39352" lat="59.4094972186" lon="5.24179721646">
		<tag k="name" v="Saltvika" />
		<tag k="natural" v="bay" />
		<tag k="ssr:stedsnr" v="223846" />
	</node>
	<node id="-41047" lat="59.3720166656" lon="5.16493332779">
		<tag k="name" v="Torsholmen" />
		<tag k="place" v="islet" />
		<tag k="ssr:stedsnr" v="390788" />
	</node>
	<node id="-41046" lat="59.4034194431" lon="5.15747222243">
		<tag k="name" v="Kvaløytåna" />
		<tag k="natural" v="cape" />
		<tag k="ssr:stedsnr" v="390784" />
	</node>
	<node id="-41045" lat="59.3723416639" lon="5.24303333186">
		<tag k="name" v="Stangavågen" />
		<tag k="natural" v="bay" />
		<tag k="ssr:stedsnr" v="390777" />
	</node>
	<node id="-41044" lat="59.3590833357" lon="5.21312222398">
		<tag k="fixme" v="consider seamark:type=rock or natural=shoal" />
		<tag k="name" v="Svartskjeret" />
		<tag k="place" v="islet" />
		<tag k="ssr:stedsnr" v="390941" />
	</node>
	<node id="-41043" lat="59.3822611143" lon="5.14484722007">
		<tag k="name" v="Skjerpe" />
		<tag k="natural" v="cape" />
		<tag k="ssr:stedsnr" v="390751" />
	</node>
	<node id="-41042" lat="59.3903166653" lon="5.14915555624">
		<tag k="name" v="Tommelen" />
		<tag k="natural" v="cape" />
		<tag k="ssr:stedsnr" v="390748" />
	</node>
	<node id="-41041" lat="59.4121222246" lon="5.10459444537">
		<tag k="fixme" v="consider seamark:type=rock or natural=shoal" />
		<tag k="name" v="Brasmå" />
		<tag k="place" v="islet" />
		<tag k="ssr:stedsnr" v="390745" />
	</node>
	<node id="-41039" lat="59.3743555553" lon="5.22611111065">
		<tag k="name" v="Skudnes" />
		<tag k="natural" v="cape" />
		<tag k="ssr:stedsnr" v="390772" />
	</node>
	<node id="-41038" lat="59.3687944399" lon="5.2321777722">
		<tag k="name" v="Bustøysundet" />
		<tag k="natural" v="strait" />
		<tag k="ssr:stedsnr" v="390765" />
	</node>
	<node id="-41037" lat="59.3689472256" lon="5.14743332855">
		<tag k="name" v="Sauøytåna" />
		<tag k="natural" v="cape" />
		<tag k="ssr:stedsnr" v="390761" />
	</node>
	<node id="-41036" lat="59.1290138926" lon="5.24942500475">
		<tag k="name" v="Geitungflua" />
		<tag k="place" v="locality" />
		<tag k="seamark:type" v="rock" />
		<tag k="ssr:stedsnr" v="390586" />
	</node>
	<node id="-41035" lat="59.260605558" lon="5.32923055257">
		<tag k="fixme" v="consider seamark:type=rock or natural=shoal" />
		<tag k="name" v="Leiteskjeret" />
		<tag k="place" v="islet" />
		<tag k="ssr:stedsnr" v="390201" />
	</node>
	<node id="-41034" lat="59.2575027811" lon="5.32758055434">
		<tag k="name" v="Kvernvik" />
		<tag k="natural" v="bay" />
		<tag k="ssr:stedsnr" v="390198" />
	</node>
	<node id="-41031" lat="59.2394930744" lon="5.16445315504">
		<tag k="name" v="Grunnen" />
		<tag k="natural" v="shoal" />
		<tag k="place" v="locality" />
		<tag k="ssr:stedsnr" v="388648" />
	</node>
	<node id="-41030" lat="59.1603333378" lon="5.30298889623">
		<tag k="name" v="Skitnadalsvika" />
		<tag k="natural" v="bay" />
		<tag k="ssr:stedsnr" v="388588" />
	</node>
	<node id="-41029" lat="59.1478614257" lon="5.28533996809">
		<tag k="name" v="Skålavågen" />
		<tag k="natural" v="bay" />
		<tag k="ssr:stedsnr" v="388582" />
	</node>
	<node id="-41028" lat="59.1524222191" lon="5.29761110511">
		<tag k="name" v="Austholmen" />
		<tag k="place" v="islet" />
		<tag k="ssr:stedsnr" v="388581" />
	</node>
	<node id="-41027" lat="59.3351277797" lon="5.2874555518">
		<tag k="name" v="Matlandsholmen" />
		<tag k="place" v="islet" />
		<tag k="ssr:stedsnr" v="388341" />
	</node>
	<node id="-41026" lat="59.3531361118" lon="5.18960833459">
		<tag k="name" v="Helganeset" />
		<tag k="natural" v="cape" />
		<tag k="ssr:stedsnr" v="367607" />
	</node>
	<node id="-41023" lat="59.3103861091" lon="5.22155000697">
		<tag k="name" v="Kvernavågen" />
		<tag k="natural" v="bay" />
		<tag k="ssr:stedsnr" v="366950" />
	</node>
	<node id="-41397" lat="59.4268499979" lon="4.96884721914">
		<tag k="name" v="Breidgrunnen" />
		<tag k="natural" v="shoal" />
		<tag k="place" v="locality" />
		<tag k="ssr:stedsnr" v="791287" />
	</node>
	<node id="-41020" lat="59.2836668514" lon="5.20109720556">
		<tag k="name" v="Sårevågen" />
		<tag k="natural" v="bay" />
		<tag k="ssr:stedsnr" v="366919" />
	</node>
	<node id="-41018" lat="59.2724833314" lon="5.1617805603">
		<tag k="alt_name" v="Skarveskjeret" />
		<tag k="fixme" v="consider seamark:type=rock or natural=shoal" />
		<tag k="name" v="Skarvaskjer" />
		<tag k="place" v="islet" />
		<tag k="ssr:stedsnr" v="366903" />
	</node>
	<node id="-41017" lat="59.2658277771" lon="5.16127499962">
		<tag k="fixme" v="multiple name tags, choose one and add the other to alt_name; consider seamark:type=rock or natural=shoal" />
		<tag k="name" v="Klepp;Kleppskjeret" />
		<tag k="place" v="islet" />
		<tag k="ssr:stedsnr" v="366902" />
	</node>
	<node id="-41015" lat="59.2589250015" lon="5.15093889217">
		<tag k="name" v="Svortingen" />
		<tag k="place" v="islet" />
		<tag k="ssr:stedsnr" v="366891" />
	</node>
	<node id="-41014" lat="59.268188888" lon="5.35413333351">
		<tag k="alt_name" v="Krokeneset" />
		<tag k="name" v="Krokanes" />
		<tag k="natural" v="cape" />
		<tag k="ssr:stedsnr" v="366879" />
	</node>
	<node id="-41012" lat="59.2684361109" lon="5.40375555262">
		<tag k="alt_name" v="Forøy;Fårøyna;Fårøy" />
		<tag k="name" v="Forøya" />
		<tag k="place" v="island" />
		<tag k="ssr:stedsnr" v="366871" />
	</node>
	<node id="-41533" lat="59.256894442" lon="5.36219166109">
		<tag k="name" v="Lauvøysundet" />
		<tag k="natural" v="strait" />
		<tag k="ssr:stedsnr" v="875098" />
	</node>
	<node id="-41006" lat="59.425983333" lon="5.10708889293">
		<tag k="name" v="Røværsosen" />
		<tag k="natural" v="strait" />
		<tag k="ssr:stedsnr" v="365663" />
	</node>
	<node id="-41004" lat="59.3779416637" lon="5.14116667511">
		<tag k="name" v="Lamholmen" />
		<tag k="place" v="islet" />
		<tag k="ssr:stedsnr" v="365586" />
	</node>
	<node id="-41001" lat="59.3549694412" lon="5.20651666065">
		<tag k="name" v="Fjærholmen" />
		<tag k="place" v="islet" />
		<tag k="ssr:stedsnr" v="365553" />
	</node>
	<node id="-41000" lat="59.3623866427" lon="5.29148203447">
		<tag k="alt_name" v="Bøvika" />
		<tag k="name" v="Bøvågen" />
		<tag k="natural" v="bay" />
		<tag k="ssr:stedsnr" v="365548" />
	</node>
	<node id="-40999" lat="59.3672694448" lon="5.23123055707">
		<tag k="alt_name" v="Bustøy" />
		<tag k="name" v="Bustøya" />
		<tag k="place" v="island" />
		<tag k="ssr:stedsnr" v="365533" />
	</node>
	<node id="-40998" lat="59.3880638846" lon="5.38100000007">
		<tag k="bay" v="fjord" />
		<tag k="name" v="Førresfjorden" />
		<tag k="natural" v="bay" />
		<tag k="ssr:stedsnr" v="365508" />
	</node>
	<node id="-40997" lat="59.1565638896" lon="5.19860555278">
		<tag k="alt_name" v="Røyrvig" />
		<tag k="name" v="Røyrvika" />
		<tag k="natural" v="bay" />
		<tag k="ssr:stedsnr" v="365450" />
	</node>
	<node id="-40996" lat="59.1627138929" lon="5.30854443772">
		<tag k="name" v="Båtholmen" />
		<tag k="place" v="islet" />
		<tag k="ssr:stedsnr" v="365441" />
	</node>
	<node id="-40995" lat="59.1643222225" lon="5.3092111091">
		<tag k="name" v="Neset" />
		<tag k="natural" v="cape" />
		<tag k="ssr:stedsnr" v="365440" />
	</node>
	<node id="-40991" lat="59.246908337" lon="5.32732222636">
		<tag k="alt_name" v="Bratthamarpynten" />
		<tag k="name" v="Bratthammarpynten" />
		<tag k="natural" v="cape" />
		<tag k="ssr:stedsnr" v="365048" />
	</node>
	<node id="-40990" lat="59.2308250003" lon="5.12212500819">
		<tag k="bay" v="fjord" />
		<tag k="name" v="Sirafjorden" />
		<tag k="natural" v="bay" />
		<tag k="ssr:stedsnr" v="365043" />
	</node>
	<node id="-40987" lat="59.2977000021" lon="5.37686389272">
		<tag k="name" v="Austnes" />
		<tag k="natural" v="cape" />
		<tag k="ssr:stedsnr" v="363955" />
	</node>
	<node id="-40986" lat="59.3055583328" lon="5.33714444584">
		<tag k="name" v="Risvika" />
		<tag k="natural" v="bay" />
		<tag k="ssr:stedsnr" v="363936" />
	</node>
	<node id="-40976" lat="59.2903694413" lon="5.36801666208">
		<tag k="name" v="Båsnes" />
		<tag k="natural" v="cape" />
		<tag k="ssr:stedsnr" v="363533" />
	</node>
	<node id="-40974" lat="59.2035027789" lon="5.16725000392">
		<tag k="name" v="Seiavik" />
		<tag k="natural" v="bay" />
		<tag k="ssr:stedsnr" v="363530" />
	</node>
	<node id="-40973" lat="59.1519684312" lon="5.22715307132">
		<tag k="name" v="Syrevig" />
		<tag k="natural" v="bay" />
		<tag k="ssr:stedsnr" v="363510" />
	</node>
	<node id="-40969" lat="59.3242750007" lon="5.20073056214">
		<tag k="name" v="Grodavika" />
		<tag k="natural" v="bay" />
		<tag k="ssr:stedsnr" v="363431" />
	</node>
	<node id="-40966" lat="59.2683833301" lon="5.1905083265">
		<tag k="name" v="Tjøsvollsjøen" />
		<tag k="natural" v="bay" />
		<tag k="ssr:stedsnr" v="363765" />
	</node>
	<node id="-41183" lat="59.4038583358" lon="5.19999722196">
		<tag k="alt_name" v="Flatskjeret;Flåteskjerene" />
		<tag k="fixme" v="consider seamark:type=rock or natural=shoal" />
		<tag k="name" v="Flataskjer" />
		<tag k="place" v="islet" />
		<tag k="ssr:stedsnr" v="547652" />
	</node>
</osm>
