<?xml version="1.0" encoding="UTF-8"?>
<osm version="0.6" generator="osmapis">
	<node lat="60.95516111335213" lon="10.235638893706525" id="-16663">
		<tag k="name" v="Finnbakken" />
		<tag k="place" v="farm" />
		<tag k="ssr:date" v="2019-12-27" />
		<tag k="ssr:gruppe" v="gardsbebyggelse" />
		<tag k="ssr:hovedgruppe" v="bebyggelse" />
		<tag k="ssr:stedsnr" v="8297" />
		<tag k="ssr:type" v="bruk" />
	</node>
	<node lat="60.94165833551327" lon="10.218800000270592" id="-16664">
		<tag k="alt_name" v="Hasli, øvre;Hasli" />
		<tag k="name" v="Øvre Hasli" />
		<tag k="place" v="farm" />
		<tag k="ssr:date" v="2019-12-27" />
		<tag k="ssr:gruppe" v="gardsbebyggelse" />
		<tag k="ssr:hovedgruppe" v="bebyggelse" />
		<tag k="ssr:stedsnr" v="8303" />
		<tag k="ssr:type" v="bruk" />
	</node>
	<node lat="60.751875001480265" lon="10.429736105682178" id="-16665">
		<tag k="name" v="Innersæterbekken" />
		<tag k="ssr:date" v="2019-12-27" />
		<tag k="ssr:gruppe" v="rennendeVann" />
		<tag k="ssr:hovedgruppe" v="ferskvann" />
		<tag k="ssr:stedsnr" v="9044" />
		<tag k="ssr:type" v="bekk" />
		<tag k="waterway" v="stream" />
	</node>
	<node lat="60.97931111309841" lon="10.286388888475301" id="-16666">
		<tag k="alt_name" v="Tomtersetrene" />
		<tag k="historic" v="shieling" />
		<tag k="name" v="Tomtsætra" />
		<tag k="place" v="isolated_dwelling" />
		<tag k="ssr:date" v="2019-12-27" />
		<tag k="ssr:gruppe" v="gardsbebyggelse" />
		<tag k="ssr:hovedgruppe" v="bebyggelse" />
		<tag k="ssr:stedsnr" v="9320" />
		<tag k="ssr:type" v="seterStøl" />
	</node>
	<node lat="60.9280805588976" lon="10.224755561950904" id="-16667">
		<tag k="name" v="Flatsjøen" />
		<tag k="natural" v="water" />
		<tag k="ssr:date" v="2019-12-27" />
		<tag k="ssr:gruppe" v="stilleståendeVann" />
		<tag k="ssr:hovedgruppe" v="ferskvann" />
		<tag k="ssr:stedsnr" v="9448" />
		<tag k="ssr:type" v="vann" />
		<tag k="water" v="lake" />
	</node>
	<node lat="60.929427780156665" lon="10.25421667433887" id="-16668">
		<tag k="name" v="Stokke" />
		<tag k="place" v="farm" />
		<tag k="ssr:date" v="2019-12-27" />
		<tag k="ssr:gruppe" v="gardsbebyggelse" />
		<tag k="ssr:hovedgruppe" v="bebyggelse" />
		<tag k="ssr:stedsnr" v="9454" />
		<tag k="ssr:type" v="bruk" />
	</node>
	<node lat="60.982416669761726" lon="10.364013883606935" id="-16669">
		<tag k="alt_name" v="Klunbyødegården" />
		<tag k="name" v="Øgarden" />
		<tag k="place" v="farm" />
		<tag k="ssr:date" v="2019-12-27" />
		<tag k="ssr:gruppe" v="gardsbebyggelse" />
		<tag k="ssr:hovedgruppe" v="bebyggelse" />
		<tag k="ssr:stedsnr" v="9713" />
		<tag k="ssr:type" v="bruk" />
	</node>
	<node lat="60.9709416622643" lon="10.44982222710343" id="-16670">
		<tag k="alt_name" v="Søndre Benrud" />
		<tag k="name" v="Beinerud" />
		<tag k="place" v="farm" />
		<tag k="ssr:date" v="2019-12-27" />
		<tag k="ssr:gruppe" v="gardsbebyggelse" />
		<tag k="ssr:hovedgruppe" v="bebyggelse" />
		<tag k="ssr:stedsnr" v="9692" />
		<tag k="ssr:type" v="bruk" />
	</node>
	<node lat="60.921850003991906" lon="10.603630555870168" id="-16671">
		<tag k="name" v="Skulhuselva" />
		<tag k="ssr:date" v="2019-12-27" />
		<tag k="ssr:gruppe" v="rennendeVann" />
		<tag k="ssr:hovedgruppe" v="ferskvann" />
		<tag k="ssr:stedsnr" v="9838" />
		<tag k="ssr:type" v="elv" />
		<tag k="waterway" v="river" />
	</node>
	<node lat="60.91496944515469" lon="10.409908327723542" id="-16672">
		<tag k="alt_name" v="Skonnordsetra" />
		<tag k="historic" v="shieling" />
		<tag k="name" v="Skonnolssætra" />
		<tag k="place" v="isolated_dwelling" />
		<tag k="ssr:date" v="2020-03-02" />
		<tag k="ssr:gruppe" v="gardsbebyggelse" />
		<tag k="ssr:hovedgruppe" v="bebyggelse" />
		<tag k="ssr:stedsnr" v="9843" />
		<tag k="ssr:type" v="seterStøl" />
	</node>
	<node lat="60.908511106680145" lon="10.346986115286642" id="-16673">
		<tag k="alt_name" v="Kvernsveen" />
		<tag k="name" v="Kvernsvea" />
		<tag k="place" v="farm" />
		<tag k="ssr:date" v="2019-12-27" />
		<tag k="ssr:gruppe" v="gardsbebyggelse" />
		<tag k="ssr:hovedgruppe" v="bebyggelse" />
		<tag k="ssr:stedsnr" v="9851" />
		<tag k="ssr:type" v="bruk" />
	</node>
	<node lat="60.90662499853722" lon="10.359847221877164" id="-16674">
		<tag k="name" v="Ligardskampen" />
		<tag k="natural" v="hill" />
		<tag k="place" v="locality" />
		<tag k="ssr:date" v="2019-12-27" />
		<tag k="ssr:gruppe" v="høyder" />
		<tag k="ssr:hovedgruppe" v="terreng" />
		<tag k="ssr:stedsnr" v="9852" />
		<tag k="ssr:type" v="haug" />
	</node>
	<node lat="60.902427774559506" lon="10.555308342138726" id="-16675">
		<tag k="name" v="Olsokhaugen" />
		<tag k="natural" v="hill" />
		<tag k="place" v="locality" />
		<tag k="ssr:date" v="2019-12-27" />
		<tag k="ssr:gruppe" v="høyder" />
		<tag k="ssr:hovedgruppe" v="terreng" />
		<tag k="ssr:stedsnr" v="9853" />
		<tag k="ssr:type" v="haug" />
	</node>
	<node lat="60.87738611512988" lon="10.44665833666087" id="-16676">
		<tag k="name" v="Elvedalen" />
		<tag k="place" v="farm" />
		<tag k="ssr:date" v="2019-12-27" />
		<tag k="ssr:gruppe" v="gardsbebyggelse" />
		<tag k="ssr:hovedgruppe" v="bebyggelse" />
		<tag k="ssr:stedsnr" v="9895" />
		<tag k="ssr:type" v="bruk" />
	</node>
	<node lat="60.94692500123751" lon="10.51627499156939" id="-16677">
		<tag k="name" v="Sagbekken" />
		<tag k="ssr:date" v="2019-12-27" />
		<tag k="ssr:gruppe" v="rennendeVann" />
		<tag k="ssr:hovedgruppe" v="ferskvann" />
		<tag k="ssr:stedsnr" v="9797" />
		<tag k="ssr:type" v="bekk" />
		<tag k="waterway" v="stream" />
	</node>
	<node lat="60.87669911616504" lon="10.627691855598943" id="-16678">
		<tag k="fixme" v="consider place=hamlet" />
		<tag k="name" v="Bakåsen" />
		<tag k="place" v="farm" />
		<tag k="ssr:date" v="2019-12-27" />
		<tag k="ssr:gruppe" v="gardsbebyggelse" />
		<tag k="ssr:hovedgruppe" v="bebyggelse" />
		<tag k="ssr:stedsnr" v="9920" />
		<tag k="ssr:type" v="gard" />
	</node>
	<node lat="60.811767450375726" lon="10.545348182720508" id="-16679">
		<tag k="alt_name" v="Mjølstad" />
		<tag k="name" v="Øvre Mjølstad" />
		<tag k="place" v="farm" />
		<tag k="ssr:date" v="2019-12-27" />
		<tag k="ssr:gruppe" v="gardsbebyggelse" />
		<tag k="ssr:hovedgruppe" v="bebyggelse" />
		<tag k="ssr:stedsnr" v="9937" />
		<tag k="ssr:type" v="bruk" />
	</node>
	<node lat="60.818986111726225" lon="10.660944435292022" id="-16680">
		<tag k="alt_name" v="Stensjord" />
		<tag k="name" v="Steinsjord" />
		<tag k="place" v="farm" />
		<tag k="ssr:date" v="2019-12-27" />
		<tag k="ssr:gruppe" v="gardsbebyggelse" />
		<tag k="ssr:hovedgruppe" v="bebyggelse" />
		<tag k="ssr:stedsnr" v="9938" />
		<tag k="ssr:type" v="bruk" />
	</node>
	<node lat="60.83677602786205" lon="10.494607367760949" id="-16681">
		<tag k="fixme" v="consider place=hamlet" />
		<tag k="name" v="Nordenga" />
		<tag k="place" v="farm" />
		<tag k="ssr:date" v="2019-12-27" />
		<tag k="ssr:gruppe" v="gardsbebyggelse" />
		<tag k="ssr:hovedgruppe" v="bebyggelse" />
		<tag k="ssr:stedsnr" v="9992" />
		<tag k="ssr:type" v="gard" />
	</node>
	<node lat="60.93656111243146" lon="10.620666659258852" id="-16682">
		<tag k="name" v="Røyne" />
		<tag k="place" v="farm" />
		<tag k="ssr:date" v="2019-12-27" />
		<tag k="ssr:gruppe" v="gardsbebyggelse" />
		<tag k="ssr:hovedgruppe" v="bebyggelse" />
		<tag k="ssr:stedsnr" v="10785" />
		<tag k="ssr:type" v="bruk" />
	</node>
	<node lat="60.910186114504405" lon="10.66183888512526" id="-16683">
		<tag k="alt_name" v="Smedmogrenda" />
		<tag k="name" v="Smedmoen" />
		<tag k="place" v="hamlet" />
		<tag k="ssr:date" v="2019-12-27" />
		<tag k="ssr:gruppe" v="bebyggelsesområder" />
		<tag k="ssr:hovedgruppe" v="bebyggelse" />
		<tag k="ssr:stedsnr" v="20388" />
		<tag k="ssr:type" v="grend" />
	</node>
	<node lat="60.89516666413045" lon="10.61150554855884" id="-16684">
		<tag k="name" v="Hagan" />
		<tag k="place" v="farm" />
		<tag k="ssr:date" v="2019-12-27" />
		<tag k="ssr:gruppe" v="gardsbebyggelse" />
		<tag k="ssr:hovedgruppe" v="bebyggelse" />
		<tag k="ssr:stedsnr" v="20390" />
		<tag k="ssr:type" v="bruk" />
	</node>
	<node lat="60.96371111538284" lon="10.387830562098342" id="-16685">
		<tag k="name" v="Kvekasæterbekken" />
		<tag k="ssr:date" v="2019-12-27" />
		<tag k="ssr:gruppe" v="rennendeVann" />
		<tag k="ssr:hovedgruppe" v="ferskvann" />
		<tag k="ssr:stedsnr" v="20495" />
		<tag k="ssr:type" v="bekk" />
		<tag k="waterway" v="stream" />
	</node>
	<node lat="60.896802781291406" lon="10.371844452413397" id="-16686">
		<tag k="name" v="Kjellsrud" />
		<tag k="place" v="isolated_dwelling" />
		<tag k="ssr:date" v="2019-12-27" />
		<tag k="ssr:gruppe" v="bolighus" />
		<tag k="ssr:hovedgruppe" v="bebyggelse" />
		<tag k="ssr:stedsnr" v="40161" />
		<tag k="ssr:type" v="eneboligMindreBoligbygg" />
	</node>
	<node lat="60.84318332902036" lon="10.616888897309643" id="-16687">
		<tag k="name" v="Bratteng" />
		<tag k="place" v="farm" />
		<tag k="ssr:date" v="2019-12-27" />
		<tag k="ssr:gruppe" v="gardsbebyggelse" />
		<tag k="ssr:hovedgruppe" v="bebyggelse" />
		<tag k="ssr:stedsnr" v="40170" />
		<tag k="ssr:type" v="bruk" />
	</node>
	<node lat="60.894469443599576" lon="10.423374995416307" id="-16688">
		<tag k="name" v="Rogne" />
		<tag k="place" v="farm" />
		<tag k="ssr:date" v="2019-12-27" />
		<tag k="ssr:gruppe" v="gardsbebyggelse" />
		<tag k="ssr:hovedgruppe" v="bebyggelse" />
		<tag k="ssr:stedsnr" v="40173" />
		<tag k="ssr:type" v="bruk" />
	</node>
	<node lat="60.91507500107572" lon="10.458130555033385" id="-16689">
		<tag k="name" v="Danseholen" />
		<tag k="natural" v="hill" />
		<tag k="place" v="locality" />
		<tag k="ssr:date" v="2019-12-27" />
		<tag k="ssr:gruppe" v="høyder" />
		<tag k="ssr:hovedgruppe" v="terreng" />
		<tag k="ssr:stedsnr" v="40177" />
		<tag k="ssr:type" v="haug" />
	</node>
	<node lat="60.90675555527964" lon="10.463322224302653" id="-16690">
		<tag k="highway" v="path" />
		<tag k="name" v="Redalsetervegen" />
		<tag k="ssr:date" v="2019-12-27" />
		<tag k="ssr:gruppe" v="veg" />
		<tag k="ssr:hovedgruppe" v="infrastruktur" />
		<tag k="ssr:stedsnr" v="40180" />
		<tag k="ssr:type" v="sti" />
	</node>
	<node lat="60.87609444718443" lon="10.406241661879067" id="-16691">
		<tag k="name" v="Myrheim" />
		<tag k="place" v="isolated_dwelling" />
		<tag k="ssr:date" v="2019-12-27" />
		<tag k="ssr:gruppe" v="bolighus" />
		<tag k="ssr:hovedgruppe" v="bebyggelse" />
		<tag k="ssr:stedsnr" v="40201" />
		<tag k="ssr:type" v="eneboligMindreBoligbygg" />
	</node>
	<node lat="61.00770277701157" lon="10.300116663902793" id="-16692">
		<tag k="name" v="Øvre Maridammen" />
		<tag k="natural" v="water" />
		<tag k="ssr:date" v="2019-12-27" />
		<tag k="ssr:gruppe" v="stilleståendeVann" />
		<tag k="ssr:hovedgruppe" v="ferskvann" />
		<tag k="ssr:stedsnr" v="40432" />
		<tag k="ssr:type" v="tjern" />
	</node>
	<node lat="60.78746944071706" lon="10.699458340388153" id="-16693">
		<tag k="amenity" v="place_of_worship" />
		<tag k="denomination" v="lutheran" />
		<tag k="name" v="Gjøvik gravkapell" />
		<tag k="religion" v="christian" />
		<tag k="ssr:date" v="2019-12-27" />
		<tag k="ssr:gruppe" v="kulturinstitusjoner" />
		<tag k="ssr:hovedgruppe" v="kultur" />
		<tag k="ssr:stedsnr" v="40575" />
		<tag k="ssr:type" v="kirke" />
	</node>
	<node lat="60.79005278021869" lon="10.683088892938544" id="-16694">
		<tag k="amenity" v="university" />
		<tag k="name" v="NTNU i Gjøvik" />
		<tag k="old_name" v="Høgskolen i Gjøvik" />
		<tag k="ssr:date" v="2021-06-08" />
		<tag k="ssr:gruppe" v="institusjoner" />
		<tag k="ssr:hovedgruppe" v="bebyggelse" />
		<tag k="ssr:stedsnr" v="40576" />
		<tag k="ssr:type" v="universitetHøgskole" />
	</node>
	<node lat="60.93963888732983" lon="10.533319438156884" id="-16695">
		<tag k="name" v="Brennbakken" />
		<tag k="place" v="farm" />
		<tag k="ssr:date" v="2019-12-27" />
		<tag k="ssr:gruppe" v="gardsbebyggelse" />
		<tag k="ssr:hovedgruppe" v="bebyggelse" />
		<tag k="ssr:stedsnr" v="40702" />
		<tag k="ssr:type" v="bruk" />
	</node>
	<node lat="60.993800001078284" lon="10.449013885390835" id="-16696">
		<tag k="name" v="Neråslia" />
		<tag k="natural" v="slope" />
		<tag k="place" v="locality" />
		<tag k="ssr:date" v="2019-12-27" />
		<tag k="ssr:gruppe" v="skråninger" />
		<tag k="ssr:hovedgruppe" v="terreng" />
		<tag k="ssr:stedsnr" v="40663" />
		<tag k="ssr:type" v="li" />
	</node>
	<node lat="61.00764166343658" lon="10.455605560681475" id="-16697">
		<tag k="name" v="Åsen" />
		<tag k="place" v="isolated_dwelling" />
		<tag k="ssr:date" v="2019-12-27" />
		<tag k="ssr:gruppe" v="bolighus" />
		<tag k="ssr:hovedgruppe" v="bebyggelse" />
		<tag k="ssr:stedsnr" v="40670" />
		<tag k="ssr:type" v="eneboligMindreBoligbygg" />
	</node>
	<node lat="60.82124444299372" lon="10.524922224216944" id="-16698">
		<tag k="name" v="Haugstuen" />
		<tag k="place" v="farm" />
		<tag k="ssr:date" v="2019-12-27" />
		<tag k="ssr:gruppe" v="gardsbebyggelse" />
		<tag k="ssr:hovedgruppe" v="bebyggelse" />
		<tag k="ssr:stedsnr" v="41101" />
		<tag k="ssr:type" v="bruk" />
	</node>
	<node lat="60.81328055142997" lon="10.529397227056956" id="-16699">
		<tag k="name" v="Klokkerbekken" />
		<tag k="ssr:date" v="2019-12-27" />
		<tag k="ssr:gruppe" v="rennendeVann" />
		<tag k="ssr:hovedgruppe" v="ferskvann" />
		<tag k="ssr:stedsnr" v="41103" />
		<tag k="ssr:type" v="bekk" />
		<tag k="waterway" v="stream" />
	</node>
	<node lat="60.81264311363384" lon="10.522886311881066" id="-16700">
		<tag k="fixme" v="consider place=hamlet" />
		<tag k="name" v="Vardal prestegard" />
		<tag k="place" v="farm" />
		<tag k="ssr:date" v="2019-12-27" />
		<tag k="ssr:gruppe" v="gardsbebyggelse" />
		<tag k="ssr:hovedgruppe" v="bebyggelse" />
		<tag k="ssr:stedsnr" v="41104" />
		<tag k="ssr:type" v="gard" />
	</node>
	<node lat="60.81936111264911" lon="10.382708335027463" id="-16701">
		<tag k="name" v="Skyberg skog" />
		<tag k="place" v="locality" />
		<tag k="ssr:date" v="2019-12-27" />
		<tag k="ssr:gruppe" v="vegetasjon" />
		<tag k="ssr:hovedgruppe" v="markslag" />
		<tag k="ssr:stedsnr" v="41108" />
		<tag k="ssr:type" v="skog" />
	</node>
	<node lat="60.81090833554671" lon="10.5847694390842" id="-16702">
		<tag k="amenity" v="school" />
		<tag k="name" v="Grande skole" />
		<tag k="ssr:date" v="2019-12-27" />
		<tag k="ssr:gruppe" v="institusjoner" />
		<tag k="ssr:hovedgruppe" v="bebyggelse" />
		<tag k="ssr:stedsnr" v="41112" />
		<tag k="ssr:type" v="skole" />
	</node>
	<node lat="60.851733337018736" lon="10.48313888328248" id="-16703">
		<tag k="name" v="Glæstad hytte" />
		<tag k="place" v="isolated_dwelling" />
		<tag k="ssr:date" v="2019-12-27" />
		<tag k="ssr:gruppe" v="bolighus" />
		<tag k="ssr:hovedgruppe" v="bebyggelse" />
		<tag k="ssr:stedsnr" v="41010" />
		<tag k="ssr:type" v="fritidsbolig" />
	</node>
	<node lat="60.9497111144368" lon="10.469302780932779" id="-16704">
		<tag k="name" v="Dynjuhytta" />
		<tag k="place" v="isolated_dwelling" />
		<tag k="ssr:date" v="2019-12-27" />
		<tag k="ssr:gruppe" v="bolighus" />
		<tag k="ssr:hovedgruppe" v="bebyggelse" />
		<tag k="ssr:stedsnr" v="41201" />
		<tag k="ssr:type" v="fritidsbolig" />
	</node>
	<node lat="60.89496944815586" lon="10.304500004358035" id="-16705">
		<tag k="name" v="Øvre Brenner" />
		<tag k="place" v="farm" />
		<tag k="ssr:date" v="2019-12-27" />
		<tag k="ssr:gruppe" v="gardsbebyggelse" />
		<tag k="ssr:hovedgruppe" v="bebyggelse" />
		<tag k="ssr:stedsnr" v="41319" />
		<tag k="ssr:type" v="bruk" />
	</node>
	<node lat="60.89223611421562" lon="10.348725007461026" id="-16706">
		<tag k="name" v="Rostad" />
		<tag k="place" v="farm" />
		<tag k="ssr:date" v="2019-12-27" />
		<tag k="ssr:gruppe" v="gardsbebyggelse" />
		<tag k="ssr:hovedgruppe" v="bebyggelse" />
		<tag k="ssr:stedsnr" v="41306" />
		<tag k="ssr:type" v="bruk" />
	</node>
	<node lat="60.94322499735447" lon="10.295897222989645" id="-16707">
		<tag k="name" v="Bjønndalen" />
		<tag k="natural" v="valley" />
		<tag k="place" v="locality" />
		<tag k="ssr:date" v="2019-12-27" />
		<tag k="ssr:gruppe" v="senkninger" />
		<tag k="ssr:hovedgruppe" v="terreng" />
		<tag k="ssr:stedsnr" v="41382" />
		<tag k="ssr:type" v="dal" />
	</node>
	<node lat="60.91537500275882" lon="10.646013883218146" id="-16708">
		<tag k="name" v="Fossheim" />
		<tag k="place" v="farm" />
		<tag k="ssr:date" v="2019-12-27" />
		<tag k="ssr:gruppe" v="gardsbebyggelse" />
		<tag k="ssr:hovedgruppe" v="bebyggelse" />
		<tag k="ssr:stedsnr" v="41502" />
		<tag k="ssr:type" v="bruk" />
	</node>
	<node lat="60.917941665209135" lon="10.246850002085912" id="-16709">
		<tag k="fixme" v="consider natural=peak for the most distinct mountains in the district" />
		<tag k="name" v="Gråberget" />
		<tag k="natural" v="hill" />
		<tag k="place" v="locality" />
		<tag k="ssr:date" v="2019-12-27" />
		<tag k="ssr:gruppe" v="høyder" />
		<tag k="ssr:hovedgruppe" v="terreng" />
		<tag k="ssr:stedsnr" v="41273" />
		<tag k="ssr:type" v="ås" />
	</node>
	<node lat="60.941424998014796" lon="10.204788884496136" id="-16710">
		<tag k="name" v="Undli" />
		<tag k="place" v="isolated_dwelling" />
		<tag k="ssr:date" v="2019-12-27" />
		<tag k="ssr:gruppe" v="bolighus" />
		<tag k="ssr:hovedgruppe" v="bebyggelse" />
		<tag k="ssr:stedsnr" v="41606" />
		<tag k="ssr:type" v="eneboligMindreBoligbygg" />
	</node>
	<node lat="60.92529722097754" lon="10.19319443830787" id="-16711">
		<tag k="name" v="Romsdalen" />
		<tag k="natural" v="valley" />
		<tag k="place" v="locality" />
		<tag k="ssr:date" v="2019-12-27" />
		<tag k="ssr:gruppe" v="senkninger" />
		<tag k="ssr:hovedgruppe" v="terreng" />
		<tag k="ssr:stedsnr" v="41608" />
		<tag k="ssr:type" v="dal" />
	</node>
	<node lat="60.98066111100327" lon="10.586713896270055" id="-16712">
		<tag k="name" v="Strandsvea" />
		<tag k="place" v="locality" />
		<tag k="ssr:date" v="2019-12-27" />
		<tag k="ssr:gruppe" v="dyrkamark" />
		<tag k="ssr:hovedgruppe" v="markslag" />
		<tag k="ssr:stedsnr" v="41609" />
		<tag k="ssr:type" v="utmark" />
	</node>
	<node lat="60.75312777747569" lon="10.59423333818467" id="-16713">
		<tag k="name" v="Vestre Egstad" />
		<tag k="place" v="farm" />
		<tag k="ssr:date" v="2019-12-27" />
		<tag k="ssr:gruppe" v="gardsbebyggelse" />
		<tag k="ssr:hovedgruppe" v="bebyggelse" />
		<tag k="ssr:stedsnr" v="41872" />
		<tag k="ssr:type" v="bruk" />
	</node>
	<node lat="60.80110833320771" lon="10.5396527747403" id="-16714">
		<tag k="bridge" v="yes" />
		<tag k="layer" v="1" />
		<tag k="name" v="Varde" />
		<tag k="ssr:date" v="2019-12-27" />
		<tag k="ssr:gruppe" v="samferdselsanlegg" />
		<tag k="ssr:hovedgruppe" v="infrastruktur" />
		<tag k="ssr:stedsnr" v="46412" />
		<tag k="ssr:type" v="bru" />
	</node>
	<node lat="60.78407777694153" lon="10.6502111196442" id="-16715">
		<tag k="bridge" v="yes" />
		<tag k="layer" v="1" />
		<tag k="name" v="Lilleengen" />
		<tag k="ssr:date" v="2019-12-27" />
		<tag k="ssr:gruppe" v="samferdselsanlegg" />
		<tag k="ssr:hovedgruppe" v="infrastruktur" />
		<tag k="ssr:stedsnr" v="46469" />
		<tag k="ssr:type" v="bru" />
	</node>
	<node lat="60.911894448806706" lon="10.238277779642472" id="-16716">
		<tag k="name" v="Elvekroka" />
		<tag k="place" v="locality" />
		<tag k="ssr:date" v="2019-12-27" />
		<tag k="ssr:gruppe" v="detaljerIFerskvann" />
		<tag k="ssr:hovedgruppe" v="ferskvann" />
		<tag k="ssr:stedsnr" v="238666" />
		<tag k="ssr:type" v="annenVanndetalj" />
	</node>
	<node lat="60.77251110678381" lon="10.530100004474185" id="-16717">
		<tag k="alt_name" v="Balleringsmyra" />
		<tag k="name" v="Balleropmyra" />
		<tag k="natural" v="wetland" />
		<tag k="ssr:date" v="2019-12-27" />
		<tag k="ssr:gruppe" v="våtmark" />
		<tag k="ssr:hovedgruppe" v="markslag" />
		<tag k="ssr:stedsnr" v="69035" />
		<tag k="ssr:type" v="myr" />
	</node>
	<node lat="60.76565000308879" lon="10.602136109372458" id="-16718">
		<tag k="name" v="Furuset" />
		<tag k="place" v="farm" />
		<tag k="ssr:date" v="2019-12-27" />
		<tag k="ssr:gruppe" v="gardsbebyggelse" />
		<tag k="ssr:hovedgruppe" v="bebyggelse" />
		<tag k="ssr:stedsnr" v="69038" />
		<tag k="ssr:type" v="bruk" />
	</node>
	<node lat="60.95533055660443" lon="10.227133330276871" id="-16719">
		<tag k="name" v="Engnes" />
		<tag k="place" v="farm" />
		<tag k="ssr:date" v="2019-12-27" />
		<tag k="ssr:gruppe" v="gardsbebyggelse" />
		<tag k="ssr:hovedgruppe" v="bebyggelse" />
		<tag k="ssr:stedsnr" v="69284" />
		<tag k="ssr:type" v="bruk" />
	</node>
	<node lat="60.88891110921445" lon="10.313622230216996" id="-16720">
		<tag k="name" v="Lyshaugen" />
		<tag k="place" v="farm" />
		<tag k="ssr:date" v="2019-12-27" />
		<tag k="ssr:gruppe" v="gardsbebyggelse" />
		<tag k="ssr:hovedgruppe" v="bebyggelse" />
		<tag k="ssr:stedsnr" v="69414" />
		<tag k="ssr:type" v="bruk" />
	</node>
	<node lat="60.93159166882634" lon="10.312733335541457" id="-16721">
		<tag k="name" v="Heimsangen" />
		<tag k="natural" v="water" />
		<tag k="ssr:date" v="2019-12-27" />
		<tag k="ssr:gruppe" v="stilleståendeVann" />
		<tag k="ssr:hovedgruppe" v="ferskvann" />
		<tag k="ssr:stedsnr" v="69482" />
		<tag k="ssr:type" v="tjern" />
	</node>
	<node lat="60.92271176799237" lon="10.263031067208555" id="-16722">
		<tag k="alt_name" v="Lunden" />
		<tag k="name" v="Søndre Lunden" />
		<tag k="place" v="farm" />
		<tag k="ssr:date" v="2019-12-27" />
		<tag k="ssr:gruppe" v="gardsbebyggelse" />
		<tag k="ssr:hovedgruppe" v="bebyggelse" />
		<tag k="ssr:stedsnr" v="69498" />
		<tag k="ssr:type" v="bruk" />
	</node>
	<node lat="60.962648924555005" lon="10.267239936353247" id="-16723">
		<tag k="alt_name" v="Ekersetra" />
		<tag k="historic" v="shieling" />
		<tag k="name" v="Ekressætra" />
		<tag k="place" v="isolated_dwelling" />
		<tag k="ssr:date" v="2021-03-16" />
		<tag k="ssr:gruppe" v="gardsbebyggelse" />
		<tag k="ssr:hovedgruppe" v="bebyggelse" />
		<tag k="ssr:stedsnr" v="69379" />
		<tag k="ssr:type" v="seterStøl" />
	</node>
	<node lat="60.90201550323725" lon="10.336929074547268" id="-16724">
		<tag k="alt_name" v="Åseth" />
		<tag k="name" v="Ålset" />
		<tag k="old_name" v="Aalseth;Aalset;Alseth;Aaseth" />
		<tag k="place" v="hamlet" />
		<tag k="ssr:date" v="2019-12-27" />
		<tag k="ssr:gruppe" v="gardsbebyggelse" />
		<tag k="ssr:hovedgruppe" v="bebyggelse" />
		<tag k="ssr:stedsnr" v="69392" />
		<tag k="ssr:type" v="navnegard" />
	</node>
	<node lat="60.92940278225282" lon="10.321236106651575" id="-16725">
		<tag k="name" v="Overhalla" />
		<tag k="place" v="farm" />
		<tag k="ssr:date" v="2019-12-27" />
		<tag k="ssr:gruppe" v="gardsbebyggelse" />
		<tag k="ssr:hovedgruppe" v="bebyggelse" />
		<tag k="ssr:stedsnr" v="69501" />
		<tag k="ssr:type" v="bruk" />
	</node>
	<node lat="60.89767500013188" lon="10.258774991135061" id="-16726">
		<tag k="name" v="Øversvea" />
		<tag k="place" v="farm" />
		<tag k="ssr:date" v="2019-12-27" />
		<tag k="ssr:gruppe" v="gardsbebyggelse" />
		<tag k="ssr:hovedgruppe" v="bebyggelse" />
		<tag k="ssr:stedsnr" v="69536" />
		<tag k="ssr:type" v="bruk" />
	</node>
	<node lat="60.799316666579124" lon="10.53649721551928" id="-16727">
		<tag k="name" v="Sjåheim" />
		<tag k="place" v="farm" />
		<tag k="ssr:date" v="2019-12-27" />
		<tag k="ssr:gruppe" v="gardsbebyggelse" />
		<tag k="ssr:hovedgruppe" v="bebyggelse" />
		<tag k="ssr:stedsnr" v="70001" />
		<tag k="ssr:type" v="bruk" />
	</node>
	<node lat="60.83039444783015" lon="10.446433342626761" id="-16728">
		<tag k="alt_name" v="Olestuen" />
		<tag k="name" v="Olestugua" />
		<tag k="place" v="isolated_dwelling" />
		<tag k="ssr:date" v="2019-12-27" />
		<tag k="ssr:gruppe" v="bolighus" />
		<tag k="ssr:hovedgruppe" v="bebyggelse" />
		<tag k="ssr:stedsnr" v="69978" />
		<tag k="ssr:type" v="eneboligMindreBoligbygg" />
	</node>
	<node lat="60.76699166872749" lon="10.695650002116105" id="-16729">
		<tag k="name" v="Enga" />
		<tag k="place" v="farm" />
		<tag k="ssr:date" v="2019-12-27" />
		<tag k="ssr:gruppe" v="gardsbebyggelse" />
		<tag k="ssr:hovedgruppe" v="bebyggelse" />
		<tag k="ssr:stedsnr" v="70078" />
		<tag k="ssr:type" v="bruk" />
	</node>
	<node lat="60.75528055711213" lon="10.600561110862628" id="-16730">
		<tag k="alt_name" v="Egstadbakken" />
		<tag k="name" v="Eikstadbakken" />
		<tag k="place" v="farm" />
		<tag k="ssr:date" v="2019-12-27" />
		<tag k="ssr:gruppe" v="gardsbebyggelse" />
		<tag k="ssr:hovedgruppe" v="bebyggelse" />
		<tag k="ssr:stedsnr" v="70082" />
		<tag k="ssr:type" v="bruk" />
	</node>
	<node lat="60.76015277529729" lon="10.501011109417657" id="-16731">
		<tag k="alt_name" v="Bragenes" />
		<tag k="name" v="Branes" />
		<tag k="place" v="isolated_dwelling" />
		<tag k="ssr:date" v="2019-12-27" />
		<tag k="ssr:gruppe" v="bolighus" />
		<tag k="ssr:hovedgruppe" v="bebyggelse" />
		<tag k="ssr:stedsnr" v="70085" />
		<tag k="ssr:type" v="fritidsbolig" />
	</node>
	<node lat="60.985182903141215" lon="10.565126409405284" id="-16732">
		<tag k="fixme" v="consider place=hamlet" />
		<tag k="name" v="Roterud" />
		<tag k="place" v="farm" />
		<tag k="ssr:date" v="2019-12-27" />
		<tag k="ssr:gruppe" v="gardsbebyggelse" />
		<tag k="ssr:hovedgruppe" v="bebyggelse" />
		<tag k="ssr:stedsnr" v="70707" />
		<tag k="ssr:type" v="gard" />
	</node>
	<node lat="60.98232788449417" lon="10.382447949976463" id="-16733">
		<tag k="fixme" v="consider place=hamlet" />
		<tag k="name" v="Stumlia" />
		<tag k="place" v="farm" />
		<tag k="ssr:date" v="2019-12-27" />
		<tag k="ssr:gruppe" v="gardsbebyggelse" />
		<tag k="ssr:hovedgruppe" v="bebyggelse" />
		<tag k="ssr:stedsnr" v="70717" />
		<tag k="ssr:type" v="gard" />
	</node>
	<node lat="60.99615461608819" lon="10.352193251839182" id="-16734">
		<tag k="alt_name" v="Håvollssætra" />
		<tag k="historic" v="shieling" />
		<tag k="name" v="Håvordsetra" />
		<tag k="place" v="isolated_dwelling" />
		<tag k="ssr:date" v="2019-12-27" />
		<tag k="ssr:gruppe" v="gardsbebyggelse" />
		<tag k="ssr:hovedgruppe" v="bebyggelse" />
		<tag k="ssr:stedsnr" v="70729" />
		<tag k="ssr:type" v="seterStøl" />
	</node>
	<node lat="60.89425877394208" lon="10.377663242812643" id="-16735">
		<tag k="alt_name" v="Fladlien" />
		<tag k="fixme" v="consider place=hamlet" />
		<tag k="name" v="Flatlia" />
		<tag k="place" v="farm" />
		<tag k="ssr:date" v="2019-12-27" />
		<tag k="ssr:gruppe" v="gardsbebyggelse" />
		<tag k="ssr:hovedgruppe" v="bebyggelse" />
		<tag k="ssr:stedsnr" v="70803" />
		<tag k="ssr:type" v="gard" />
	</node>
	<node lat="60.89154150551768" lon="10.563903496603196" id="-16736">
		<tag k="alt_name" v="Øvre Markeng" />
		<tag k="name" v="Markeng" />
		<tag k="place" v="farm" />
		<tag k="ssr:date" v="2019-12-27" />
		<tag k="ssr:gruppe" v="gardsbebyggelse" />
		<tag k="ssr:hovedgruppe" v="bebyggelse" />
		<tag k="ssr:stedsnr" v="70812" />
		<tag k="ssr:type" v="bruk" />
	</node>
	<node lat="60.93023123321327" lon="10.631905324657486" id="-16737">
		<tag k="fixme" v="consider place=hamlet" />
		<tag k="name" v="Skjønsby" />
		<tag k="place" v="farm" />
		<tag k="ssr:date" v="2019-12-27" />
		<tag k="ssr:gruppe" v="gardsbebyggelse" />
		<tag k="ssr:hovedgruppe" v="bebyggelse" />
		<tag k="ssr:stedsnr" v="70828" />
		<tag k="ssr:type" v="gard" />
	</node>
	<node lat="60.84358270914862" lon="10.484928694561003" id="-16738">
		<tag k="alt_name" v="Veltenga;Lilleengen" />
		<tag k="fixme" v="consider place=hamlet" />
		<tag k="name" v="Veslenga" />
		<tag k="place" v="farm" />
		<tag k="ssr:date" v="2019-12-27" />
		<tag k="ssr:gruppe" v="gardsbebyggelse" />
		<tag k="ssr:hovedgruppe" v="bebyggelse" />
		<tag k="ssr:stedsnr" v="70882" />
		<tag k="ssr:type" v="gard" />
	</node>
	<node lat="60.96573055461893" lon="10.556113889903125" id="-16739">
		<tag k="alt_name" v="Lysgård" />
		<tag k="name" v="Lysgard" />
		<tag k="place" v="farm" />
		<tag k="ssr:date" v="2019-12-27" />
		<tag k="ssr:gruppe" v="gardsbebyggelse" />
		<tag k="ssr:hovedgruppe" v="bebyggelse" />
		<tag k="ssr:stedsnr" v="70772" />
		<tag k="ssr:type" v="bruk" />
	</node>
	<node lat="60.873324517771245" lon="10.687904695165683" id="-16740">
		<tag k="fixme" v="consider place=hamlet" />
		<tag k="name" v="Dal" />
		<tag k="place" v="farm" />
		<tag k="ssr:date" v="2019-12-27" />
		<tag k="ssr:gruppe" v="gardsbebyggelse" />
		<tag k="ssr:hovedgruppe" v="bebyggelse" />
		<tag k="ssr:stedsnr" v="70926" />
		<tag k="ssr:type" v="gard" />
	</node>
	<node lat="60.84287834200726" lon="10.658263599121033" id="-16741">
		<tag k="fixme" v="consider place=hamlet" />
		<tag k="name" v="Kastad" />
		<tag k="place" v="farm" />
		<tag k="ssr:date" v="2019-12-27" />
		<tag k="ssr:gruppe" v="gardsbebyggelse" />
		<tag k="ssr:hovedgruppe" v="bebyggelse" />
		<tag k="ssr:stedsnr" v="70969" />
		<tag k="ssr:type" v="gard" />
	</node>
	<node lat="60.84033055625267" lon="10.383986110073085" id="-16742">
		<tag k="alt_name" v="Øytjerna;Øytjennet" />
		<tag k="name" v="Øytjernet" />
		<tag k="natural" v="water" />
		<tag k="ssr:date" v="2019-12-27" />
		<tag k="ssr:gruppe" v="stilleståendeVann" />
		<tag k="ssr:hovedgruppe" v="ferskvann" />
		<tag k="ssr:stedsnr" v="70972" />
		<tag k="ssr:type" v="tjern" />
	</node>
	<node lat="60.830583336254385" lon="10.41798055798073" id="-16743">
		<tag k="alt_name" v="Østberg" />
		<tag k="name" v="Austberg" />
		<tag k="place" v="farm" />
		<tag k="ssr:date" v="2019-12-27" />
		<tag k="ssr:gruppe" v="gardsbebyggelse" />
		<tag k="ssr:hovedgruppe" v="bebyggelse" />
		<tag k="ssr:stedsnr" v="70974" />
		<tag k="ssr:type" v="bruk" />
	</node>
	<node lat="60.925749998716036" lon="10.39997778575466" id="-16744">
		<tag k="name" v="Brattåshaugen" />
		<tag k="natural" v="hill" />
		<tag k="place" v="locality" />
		<tag k="ssr:date" v="2019-12-27" />
		<tag k="ssr:gruppe" v="høyder" />
		<tag k="ssr:hovedgruppe" v="terreng" />
		<tag k="ssr:stedsnr" v="81409" />
		<tag k="ssr:type" v="haug" />
	</node>
	<node lat="60.763522224668904" lon="10.725322220337297" id="-16745">
		<tag k="name" v="Svingen" />
		<tag k="place" v="quarter" />
		<tag k="ssr:date" v="2019-12-27" />
		<tag k="ssr:gruppe" v="bebyggelsesområder" />
		<tag k="ssr:hovedgruppe" v="bebyggelse" />
		<tag k="ssr:stedsnr" v="86428" />
		<tag k="ssr:type" v="boligfelt" />
	</node>
	<node lat="60.77486111507019" lon="10.644819439069623" id="-16746">
		<tag k="building" v="industrial" />
		<tag k="name" v="Oppland metall" />
		<tag k="ssr:date" v="2019-12-27" />
		<tag k="ssr:gruppe" v="næring" />
		<tag k="ssr:hovedgruppe" v="bebyggelse" />
		<tag k="ssr:stedsnr" v="86430" />
		<tag k="ssr:type" v="annenIndustri-OgLagerbygning" />
	</node>
	<node lat="60.88969166425851" lon="10.302780558644674" id="-16747">
		<tag k="name" v="Ytterroa" />
		<tag k="place" v="hamlet" />
		<tag k="ssr:date" v="2019-12-27" />
		<tag k="ssr:gruppe" v="bebyggelsesområder" />
		<tag k="ssr:hovedgruppe" v="bebyggelse" />
		<tag k="ssr:stedsnr" v="99761" />
		<tag k="ssr:type" v="grend" />
	</node>
	<node lat="60.83087778135523" lon="10.441086114030666" id="-16748">
		<tag k="name" v="Perstuen" />
		<tag k="place" v="farm" />
		<tag k="ssr:date" v="2019-12-27" />
		<tag k="ssr:gruppe" v="gardsbebyggelse" />
		<tag k="ssr:hovedgruppe" v="bebyggelse" />
		<tag k="ssr:stedsnr" v="101105" />
		<tag k="ssr:type" v="bruk" />
	</node>
	<node lat="60.81144167082261" lon="10.44687777180658" id="-16749">
		<tag k="name" v="Øvre Fuglerud" />
		<tag k="place" v="isolated_dwelling" />
		<tag k="ssr:date" v="2019-12-27" />
		<tag k="ssr:gruppe" v="bolighus" />
		<tag k="ssr:hovedgruppe" v="bebyggelse" />
		<tag k="ssr:stedsnr" v="101109" />
		<tag k="ssr:type" v="eneboligMindreBoligbygg" />
	</node>
	<node lat="60.81218055399112" lon="10.476269435438637" id="-16750">
		<tag k="name" v="Hermanrud" />
		<tag k="place" v="isolated_dwelling" />
		<tag k="ssr:date" v="2019-12-27" />
		<tag k="ssr:gruppe" v="bolighus" />
		<tag k="ssr:hovedgruppe" v="bebyggelse" />
		<tag k="ssr:stedsnr" v="101112" />
		<tag k="ssr:type" v="eneboligMindreBoligbygg" />
	</node>
	<node lat="60.88974999813368" lon="10.364850001366175" id="-16751">
		<tag k="name" v="Karlstad" />
		<tag k="place" v="isolated_dwelling" />
		<tag k="ssr:date" v="2019-12-27" />
		<tag k="ssr:gruppe" v="bolighus" />
		<tag k="ssr:hovedgruppe" v="bebyggelse" />
		<tag k="ssr:stedsnr" v="101116" />
		<tag k="ssr:type" v="eneboligMindreBoligbygg" />
	</node>
	<node lat="60.79158888723284" lon="10.528997219399646" id="-16752">
		<tag k="name" v="Øysteinlia skog" />
		<tag k="place" v="locality" />
		<tag k="ssr:date" v="2019-12-27" />
		<tag k="ssr:gruppe" v="vegetasjon" />
		<tag k="ssr:hovedgruppe" v="markslag" />
		<tag k="ssr:stedsnr" v="101127" />
		<tag k="ssr:type" v="skog" />
	</node>
	<node lat="60.79302500397891" lon="10.369822221849619" id="-16753">
		<tag k="name" v="Tjennsmyren" />
		<tag k="natural" v="wetland" />
		<tag k="ssr:date" v="2019-12-27" />
		<tag k="ssr:gruppe" v="våtmark" />
		<tag k="ssr:hovedgruppe" v="markslag" />
		<tag k="ssr:stedsnr" v="101440" />
		<tag k="ssr:type" v="myr" />
	</node>
	<node lat="60.86826110795506" lon="10.551649993837936" id="-16754">
		<tag k="name" v="Karlshovde" />
		<tag k="natural" v="hill" />
		<tag k="place" v="locality" />
		<tag k="ssr:date" v="2019-12-27" />
		<tag k="ssr:gruppe" v="høyder" />
		<tag k="ssr:hovedgruppe" v="terreng" />
		<tag k="ssr:stedsnr" v="101441" />
		<tag k="ssr:type" v="haug" />
	</node>
	<node lat="60.785686115084566" lon="10.396027776178318" id="-16755">
		<tag k="name" v="Borgen skog" />
		<tag k="place" v="locality" />
		<tag k="ssr:date" v="2019-12-27" />
		<tag k="ssr:gruppe" v="vegetasjon" />
		<tag k="ssr:hovedgruppe" v="markslag" />
		<tag k="ssr:stedsnr" v="101442" />
		<tag k="ssr:type" v="skog" />
	</node>
	<node lat="60.792988890905534" lon="10.421347219463348" id="-16756">
		<tag k="name" v="Stangstumyrene" />
		<tag k="natural" v="wetland" />
		<tag k="ssr:date" v="2019-12-27" />
		<tag k="ssr:gruppe" v="våtmark" />
		<tag k="ssr:hovedgruppe" v="markslag" />
		<tag k="ssr:stedsnr" v="101446" />
		<tag k="ssr:type" v="myr" />
	</node>
	<node lat="60.8854444470858" lon="10.489166668975143" id="-16757">
		<tag k="name" v="Barlund" />
		<tag k="place" v="farm" />
		<tag k="ssr:date" v="2019-12-27" />
		<tag k="ssr:gruppe" v="gardsbebyggelse" />
		<tag k="ssr:hovedgruppe" v="bebyggelse" />
		<tag k="ssr:stedsnr" v="101462" />
		<tag k="ssr:type" v="bruk" />
	</node>
	<node lat="60.89462221787742" lon="10.519661115002538" id="-16758">
		<tag k="name" v="Søndre Onsrud" />
		<tag k="place" v="farm" />
		<tag k="ssr:date" v="2019-12-27" />
		<tag k="ssr:gruppe" v="gardsbebyggelse" />
		<tag k="ssr:hovedgruppe" v="bebyggelse" />
		<tag k="ssr:stedsnr" v="101477" />
		<tag k="ssr:type" v="bruk" />
	</node>
	<node lat="60.88823611268367" lon="10.665580555604292" id="-16759">
		<tag k="name" v="Kubakken" />
		<tag k="natural" v="slope" />
		<tag k="place" v="locality" />
		<tag k="ssr:date" v="2019-12-27" />
		<tag k="ssr:gruppe" v="skråninger" />
		<tag k="ssr:hovedgruppe" v="terreng" />
		<tag k="ssr:stedsnr" v="102076" />
		<tag k="ssr:type" v="bakke" />
	</node>
	<node lat="60.9027194479747" lon="10.66301389233666" id="-16760">
		<tag k="name" v="Pålsmestad" />
		<tag k="place" v="locality" />
		<tag k="ssr:date" v="2019-12-27" />
		<tag k="ssr:gruppe" v="bolighus" />
		<tag k="ssr:hovedgruppe" v="bebyggelse" />
		<tag k="ssr:stedsnr" v="102081" />
		<tag k="ssr:type" v="gammelBosettingsplass" />
	</node>
	<node lat="60.89851389252418" lon="10.635774997528827" id="-16761">
		<tag k="name" v="Krakildhaugen" />
		<tag k="natural" v="hill" />
		<tag k="place" v="locality" />
		<tag k="ssr:date" v="2019-12-27" />
		<tag k="ssr:gruppe" v="høyder" />
		<tag k="ssr:hovedgruppe" v="terreng" />
		<tag k="ssr:stedsnr" v="102082" />
		<tag k="ssr:type" v="haug" />
	</node>
	<node lat="60.89651667030191" lon="10.638836110069656" id="-16762">
		<tag k="name" v="Sørli" />
		<tag k="place" v="isolated_dwelling" />
		<tag k="ssr:date" v="2019-12-27" />
		<tag k="ssr:gruppe" v="bolighus" />
		<tag k="ssr:hovedgruppe" v="bebyggelse" />
		<tag k="ssr:stedsnr" v="102084" />
		<tag k="ssr:type" v="eneboligMindreBoligbygg" />
	</node>
	<node lat="60.805336109533116" lon="10.555144451446123" id="-16763">
		<tag k="name" v="Nedre Ytterset" />
		<tag k="place" v="farm" />
		<tag k="ssr:date" v="2019-12-27" />
		<tag k="ssr:gruppe" v="gardsbebyggelse" />
		<tag k="ssr:hovedgruppe" v="bebyggelse" />
		<tag k="ssr:stedsnr" v="102086" />
		<tag k="ssr:type" v="bruk" />
	</node>
	<node lat="60.891199999498646" lon="10.62251388364259" id="-16764">
		<tag k="name" v="Laggerbakken" />
		<tag k="place" v="farm" />
		<tag k="ssr:date" v="2019-12-27" />
		<tag k="ssr:gruppe" v="gardsbebyggelse" />
		<tag k="ssr:hovedgruppe" v="bebyggelse" />
		<tag k="ssr:stedsnr" v="102087" />
		<tag k="ssr:type" v="bruk" />
	</node>
	<node lat="60.85538889333119" lon="10.394947224107234" id="-16765">
		<tag k="name" v="Djupdalen" />
		<tag k="natural" v="valley" />
		<tag k="place" v="locality" />
		<tag k="ssr:date" v="2019-12-27" />
		<tag k="ssr:gruppe" v="senkninger" />
		<tag k="ssr:hovedgruppe" v="terreng" />
		<tag k="ssr:stedsnr" v="102091" />
		<tag k="ssr:type" v="dal" />
	</node>
	<node lat="60.819994443791074" lon="10.549719445213723" id="-16766">
		<tag k="name" v="Sveen" />
		<tag k="place" v="isolated_dwelling" />
		<tag k="ssr:date" v="2019-12-27" />
		<tag k="ssr:gruppe" v="bolighus" />
		<tag k="ssr:hovedgruppe" v="bebyggelse" />
		<tag k="ssr:stedsnr" v="102092" />
		<tag k="ssr:type" v="eneboligMindreBoligbygg" />
	</node>
	<node lat="60.92517499729927" lon="10.336980554567146" id="-16767">
		<tag k="name" v="Lamphaugdalen" />
		<tag k="natural" v="valley" />
		<tag k="place" v="locality" />
		<tag k="ssr:date" v="2019-12-27" />
		<tag k="ssr:gruppe" v="senkninger" />
		<tag k="ssr:hovedgruppe" v="terreng" />
		<tag k="ssr:stedsnr" v="102338" />
		<tag k="ssr:type" v="dal" />
	</node>
	<node lat="60.989794440854354" lon="10.222883324142325" id="-16768">
		<tag k="name" v="Avdalene" />
		<tag k="place" v="locality" />
		<tag k="ssr:date" v="2019-12-27" />
		<tag k="ssr:gruppe" v="vegetasjon" />
		<tag k="ssr:hovedgruppe" v="markslag" />
		<tag k="ssr:stedsnr" v="102716" />
		<tag k="ssr:type" v="skog" />
	</node>
	<node lat="60.9414805584175" lon="10.548602787101744" id="-16769">
		<tag k="name" v="Skinnerlien" />
		<tag k="place" v="farm" />
		<tag k="ssr:date" v="2019-12-27" />
		<tag k="ssr:gruppe" v="gardsbebyggelse" />
		<tag k="ssr:hovedgruppe" v="bebyggelse" />
		<tag k="ssr:stedsnr" v="102726" />
		<tag k="ssr:type" v="bruk" />
	</node>
	<node lat="60.995663891951125" lon="10.502458339550456" id="-16770">
		<tag k="name" v="Lundstein" />
		<tag k="place" v="farm" />
		<tag k="ssr:date" v="2019-12-27" />
		<tag k="ssr:gruppe" v="gardsbebyggelse" />
		<tag k="ssr:hovedgruppe" v="bebyggelse" />
		<tag k="ssr:stedsnr" v="102671" />
		<tag k="ssr:type" v="bruk" />
	</node>
	<node lat="60.77738055176819" lon="10.697105549699367" id="-16771">
		<tag k="name" v="Rambekkmoen" />
		<tag k="place" v="quarter" />
		<tag k="ssr:date" v="2019-12-27" />
		<tag k="ssr:gruppe" v="bebyggelsesområder" />
		<tag k="ssr:hovedgruppe" v="bebyggelse" />
		<tag k="ssr:stedsnr" v="102675" />
		<tag k="ssr:type" v="industriområde" />
	</node>
	<node lat="60.76795832893775" lon="10.660897218536178" id="-16772">
		<tag k="name" v="Dalborgskolonien" />
		<tag k="place" v="isolated_dwelling" />
		<tag k="ssr:date" v="2019-12-27" />
		<tag k="ssr:gruppe" v="bolighus" />
		<tag k="ssr:hovedgruppe" v="bebyggelse" />
		<tag k="ssr:stedsnr" v="102679" />
		<tag k="ssr:type" v="eneboligMindreBoligbygg" />
	</node>
	<node lat="60.76835556004733" lon="10.702141661995634" id="-16773">
		<tag k="name" v="Nedre Fruset" />
		<tag k="place" v="farm" />
		<tag k="ssr:date" v="2019-12-27" />
		<tag k="ssr:gruppe" v="gardsbebyggelse" />
		<tag k="ssr:hovedgruppe" v="bebyggelse" />
		<tag k="ssr:stedsnr" v="102680" />
		<tag k="ssr:type" v="bruk" />
	</node>
	<node lat="60.805805558119346" lon="10.631083337933122" id="-16774">
		<tag k="name" v="Svenskemyra" />
		<tag k="natural" v="wetland" />
		<tag k="ssr:date" v="2019-12-27" />
		<tag k="ssr:gruppe" v="våtmark" />
		<tag k="ssr:hovedgruppe" v="markslag" />
		<tag k="ssr:stedsnr" v="102810" />
		<tag k="ssr:type" v="myr" />
	</node>
	<node lat="60.84370555964722" lon="10.665036108012039" id="-16775">
		<tag k="name" v="Kastad" />
		<tag k="place" v="isolated_dwelling" />
		<tag k="ssr:date" v="2019-12-27" />
		<tag k="ssr:gruppe" v="bolighus" />
		<tag k="ssr:hovedgruppe" v="bebyggelse" />
		<tag k="ssr:stedsnr" v="102885" />
		<tag k="ssr:type" v="eneboligMindreBoligbygg" />
	</node>
	<node lat="60.75590278194365" lon="10.59209721995984" id="-16776">
		<tag k="name" v="Egstadhaugen" />
		<tag k="natural" v="hill" />
		<tag k="place" v="locality" />
		<tag k="ssr:date" v="2019-12-27" />
		<tag k="ssr:gruppe" v="høyder" />
		<tag k="ssr:hovedgruppe" v="terreng" />
		<tag k="ssr:stedsnr" v="102887" />
		<tag k="ssr:type" v="høyde" />
	</node>
	<node lat="60.80932777970089" lon="10.67777499391522" id="-16777">
		<tag k="name" v="Grønland" />
		<tag k="place" v="isolated_dwelling" />
		<tag k="ssr:date" v="2019-12-27" />
		<tag k="ssr:gruppe" v="bolighus" />
		<tag k="ssr:hovedgruppe" v="bebyggelse" />
		<tag k="ssr:stedsnr" v="102888" />
		<tag k="ssr:type" v="eneboligMindreBoligbygg" />
	</node>
	<node lat="60.79718056006649" lon="10.550852770780338" id="-16778">
		<tag k="bridge" v="yes" />
		<tag k="layer" v="1" />
		<tag k="name" v="Ytterset" />
		<tag k="ssr:date" v="2019-12-27" />
		<tag k="ssr:gruppe" v="samferdselsanlegg" />
		<tag k="ssr:hovedgruppe" v="infrastruktur" />
		<tag k="ssr:stedsnr" v="106381" />
		<tag k="ssr:type" v="bru" />
	</node>
	<node lat="60.793936113775544" lon="10.694058332559129" id="-16779">
		<tag k="bridge" v="yes" />
		<tag k="layer" v="1" />
		<tag k="name" v="Hunselva" />
		<tag k="ssr:date" v="2019-12-27" />
		<tag k="ssr:gruppe" v="samferdselsanlegg" />
		<tag k="ssr:hovedgruppe" v="infrastruktur" />
		<tag k="ssr:stedsnr" v="107437" />
		<tag k="ssr:type" v="bru" />
	</node>
	<node lat="60.89126667091666" lon="10.551647222984945" id="-16780">
		<tag k="bridge" v="yes" />
		<tag k="layer" v="1" />
		<tag k="name" v="Markeng" />
		<tag k="ssr:date" v="2019-12-27" />
		<tag k="ssr:gruppe" v="samferdselsanlegg" />
		<tag k="ssr:hovedgruppe" v="infrastruktur" />
		<tag k="ssr:stedsnr" v="107445" />
		<tag k="ssr:type" v="bru" />
	</node>
	<node lat="61.008355558653825" lon="10.323838890055905" id="-16781">
		<tag k="alt_name" v="Dempa seter" />
		<tag k="historic" v="shieling" />
		<tag k="name" v="Dempesætra" />
		<tag k="place" v="isolated_dwelling" />
		<tag k="ssr:date" v="2019-12-27" />
		<tag k="ssr:gruppe" v="gardsbebyggelse" />
		<tag k="ssr:hovedgruppe" v="bebyggelse" />
		<tag k="ssr:stedsnr" v="250256" />
		<tag k="ssr:type" v="seterStøl" />
	</node>
	<node lat="60.73583570751428" lon="10.527585720266426" id="-16782">
		<tag k="alt_name" v="Skumlisveum" />
		<tag k="fixme" v="consider place=hamlet" />
		<tag k="name" v="Skumlisveom" />
		<tag k="place" v="farm" />
		<tag k="ssr:date" v="2019-12-27" />
		<tag k="ssr:gruppe" v="gardsbebyggelse" />
		<tag k="ssr:hovedgruppe" v="bebyggelse" />
		<tag k="ssr:stedsnr" v="250455" />
		<tag k="ssr:type" v="gard" />
	</node>
	<node lat="60.97617777760091" lon="10.213374993000551" id="-16783">
		<tag k="name" v="Seterstohaugen" />
		<tag k="natural" v="hill" />
		<tag k="place" v="locality" />
		<tag k="ssr:date" v="2019-12-27" />
		<tag k="ssr:gruppe" v="høyder" />
		<tag k="ssr:hovedgruppe" v="terreng" />
		<tag k="ssr:stedsnr" v="115103" />
		<tag k="ssr:type" v="haug" />
	</node>
	<node lat="60.79540277879448" lon="10.66545278279777" id="-16784">
		<tag k="leisure" v="park" />
		<tag k="name" v="Bassengparken" />
		<tag k="ssr:date" v="2019-12-27" />
		<tag k="ssr:gruppe" v="fritidsanlegg" />
		<tag k="ssr:hovedgruppe" v="bebyggelse" />
		<tag k="ssr:stedsnr" v="116571" />
		<tag k="ssr:type" v="park" />
	</node>
	<node lat="60.79787500314042" lon="10.675236115399732" id="-16785">
		<tag k="name" v="Hovdetjernet" />
		<tag k="natural" v="water" />
		<tag k="ssr:date" v="2019-12-27" />
		<tag k="ssr:gruppe" v="stilleståendeVann" />
		<tag k="ssr:hovedgruppe" v="ferskvann" />
		<tag k="ssr:stedsnr" v="116572" />
		<tag k="ssr:type" v="tjern" />
	</node>
	<node lat="60.79801666717161" lon="10.687722216003621" id="-16786">
		<tag k="amenity" v="place_of_worship" />
		<tag k="denomination" v="lutheran" />
		<tag k="name" v="Gjøvik kirke" />
		<tag k="religion" v="christian" />
		<tag k="ssr:date" v="2019-12-27" />
		<tag k="ssr:gruppe" v="kulturinstitusjoner" />
		<tag k="ssr:hovedgruppe" v="kultur" />
		<tag k="ssr:stedsnr" v="116574" />
		<tag k="ssr:type" v="kirke" />
	</node>
	<node lat="61.01652500252445" lon="10.419477769931364" id="-16787">
		<tag k="name" v="Vesleelva" />
		<tag k="ssr:date" v="2019-12-27" />
		<tag k="ssr:gruppe" v="rennendeVann" />
		<tag k="ssr:hovedgruppe" v="ferskvann" />
		<tag k="ssr:stedsnr" v="250721" />
		<tag k="ssr:type" v="bekk" />
		<tag k="waterway" v="stream" />
	</node>
	<node lat="61.00110833534316" lon="10.36887778006908" id="-16788">
		<tag k="historic" v="shieling" />
		<tag k="name" v="Nysætra" />
		<tag k="place" v="isolated_dwelling" />
		<tag k="ssr:date" v="2019-12-27" />
		<tag k="ssr:gruppe" v="gardsbebyggelse" />
		<tag k="ssr:hovedgruppe" v="bebyggelse" />
		<tag k="ssr:stedsnr" v="250723" />
		<tag k="ssr:type" v="seterStøl" />
	</node>
	<node lat="60.77372777995662" lon="10.549919440418266" id="-16789">
		<tag k="alt_name" v="Skonhovd, øvre" />
		<tag k="name" v="Øvre Skonhovd" />
		<tag k="place" v="farm" />
		<tag k="ssr:date" v="2019-12-27" />
		<tag k="ssr:gruppe" v="gardsbebyggelse" />
		<tag k="ssr:hovedgruppe" v="bebyggelse" />
		<tag k="ssr:stedsnr" v="251041" />
		<tag k="ssr:type" v="bruk" />
	</node>
	<node lat="60.771436113121226" lon="10.548433328545011" id="-16790">
		<tag k="alt_name" v="Skonhovd, nedre" />
		<tag k="name" v="Nedre Skonhovd" />
		<tag k="place" v="farm" />
		<tag k="ssr:date" v="2019-12-27" />
		<tag k="ssr:gruppe" v="gardsbebyggelse" />
		<tag k="ssr:hovedgruppe" v="bebyggelse" />
		<tag k="ssr:stedsnr" v="251045" />
		<tag k="ssr:type" v="bruk" />
	</node>
	<node lat="60.766452774159035" lon="10.580427779210845" id="-16791">
		<tag k="name" v="Granli" />
		<tag k="place" v="farm" />
		<tag k="ssr:date" v="2019-12-27" />
		<tag k="ssr:gruppe" v="gardsbebyggelse" />
		<tag k="ssr:hovedgruppe" v="bebyggelse" />
		<tag k="ssr:stedsnr" v="251047" />
		<tag k="ssr:type" v="bruk" />
	</node>
	<node lat="60.77612777339071" lon="10.657119451832553" id="-16792">
		<tag k="name" v="Nedre Nygårdssveum" />
		<tag k="old_name" v="Øversvea" />
		<tag k="place" v="farm" />
		<tag k="ssr:date" v="2019-12-27" />
		<tag k="ssr:gruppe" v="gardsbebyggelse" />
		<tag k="ssr:hovedgruppe" v="bebyggelse" />
		<tag k="ssr:stedsnr" v="251033" />
		<tag k="ssr:type" v="bruk" />
	</node>
	<node lat="60.939029168107496" lon="10.175279090461267" id="-16793">
		<tag k="fixme" v="consider place=hamlet" />
		<tag k="name" v="Ringsrud" />
		<tag k="place" v="farm" />
		<tag k="ssr:date" v="2019-12-27" />
		<tag k="ssr:gruppe" v="gardsbebyggelse" />
		<tag k="ssr:hovedgruppe" v="bebyggelse" />
		<tag k="ssr:stedsnr" v="251339" />
		<tag k="ssr:type" v="gard" />
	</node>
	<node lat="60.94345000040162" lon="10.25524999118285" id="-16794">
		<tag k="alt_name" v="Ulvesveen" />
		<tag k="name" v="Ulvesvea" />
		<tag k="place" v="locality" />
		<tag k="ssr:date" v="2019-12-27" />
		<tag k="ssr:gruppe" v="dyrkamark" />
		<tag k="ssr:hovedgruppe" v="markslag" />
		<tag k="ssr:stedsnr" v="251329" />
		<tag k="ssr:type" v="jorde" />
	</node>
	<node lat="60.940961110302545" lon="10.215597214608467" id="-16795">
		<tag k="alt_name" v="Hasli, nordre" />
		<tag k="name" v="Nordre Hasli" />
		<tag k="place" v="farm" />
		<tag k="ssr:date" v="2019-12-27" />
		<tag k="ssr:gruppe" v="gardsbebyggelse" />
		<tag k="ssr:hovedgruppe" v="bebyggelse" />
		<tag k="ssr:stedsnr" v="251334" />
		<tag k="ssr:type" v="bruk" />
	</node>
	<node lat="60.963477779404116" lon="10.24220555950888" id="-16796">
		<tag k="alt_name" v="Svarken, vle" />
		<tag k="name" v="Vesle Svarken" />
		<tag k="natural" v="water" />
		<tag k="ssr:date" v="2019-12-27" />
		<tag k="ssr:gruppe" v="stilleståendeVann" />
		<tag k="ssr:hovedgruppe" v="ferskvann" />
		<tag k="ssr:stedsnr" v="251387" />
		<tag k="ssr:type" v="tjern" />
	</node>
	<node lat="60.89983762066556" lon="10.332386222061107" id="-16797">
		<tag k="alt_name" v="Tomter" />
		<tag k="name" v="Søndre Tomter" />
		<tag k="place" v="farm" />
		<tag k="ssr:date" v="2019-12-27" />
		<tag k="ssr:gruppe" v="gardsbebyggelse" />
		<tag k="ssr:hovedgruppe" v="bebyggelse" />
		<tag k="ssr:stedsnr" v="251395" />
		<tag k="ssr:type" v="bruk" />
	</node>
	<node lat="60.9226138918913" lon="10.283027780765172" id="-16798">
		<tag k="name" v="Vegård" />
		<tag k="place" v="farm" />
		<tag k="ssr:date" v="2019-12-27" />
		<tag k="ssr:gruppe" v="gardsbebyggelse" />
		<tag k="ssr:hovedgruppe" v="bebyggelse" />
		<tag k="ssr:stedsnr" v="251472" />
		<tag k="ssr:type" v="bruk" />
	</node>
	<node lat="60.93558888873005" lon="10.450702778367525" id="-16799">
		<tag k="name" v="Vinterhovud" />
		<tag k="natural" v="hill" />
		<tag k="place" v="locality" />
		<tag k="ssr:date" v="2019-12-27" />
		<tag k="ssr:gruppe" v="høyder" />
		<tag k="ssr:hovedgruppe" v="terreng" />
		<tag k="ssr:stedsnr" v="251796" />
		<tag k="ssr:type" v="haug" />
	</node>
	<node lat="60.895044442166196" lon="10.602625008414366" id="-16800">
		<tag k="name" v="Nyset" />
		<tag k="place" v="farm" />
		<tag k="ssr:date" v="2019-12-27" />
		<tag k="ssr:gruppe" v="gardsbebyggelse" />
		<tag k="ssr:hovedgruppe" v="bebyggelse" />
		<tag k="ssr:stedsnr" v="251859" />
		<tag k="ssr:type" v="bruk" />
	</node>
	<node lat="60.89524448124837" lon="10.6451918703731" id="-16801">
		<tag k="alt_name" v="Bjerke" />
		<tag k="fixme" v="consider place=hamlet" />
		<tag k="name" v="Bjørke" />
		<tag k="place" v="farm" />
		<tag k="ssr:date" v="2019-12-27" />
		<tag k="ssr:gruppe" v="gardsbebyggelse" />
		<tag k="ssr:hovedgruppe" v="bebyggelse" />
		<tag k="ssr:stedsnr" v="251866" />
		<tag k="ssr:type" v="gard" />
	</node>
	<node lat="60.88397777758059" lon="10.486616659603825" id="-16802">
		<tag k="amenity" v="school" />
		<tag k="name" v="Skogheim" />
		<tag k="ssr:date" v="2019-12-27" />
		<tag k="ssr:gruppe" v="institusjoner" />
		<tag k="ssr:hovedgruppe" v="bebyggelse" />
		<tag k="ssr:stedsnr" v="251873" />
		<tag k="ssr:type" v="skole" />
	</node>
	<node lat="60.890033337714854" lon="10.402972229109228" id="-16803">
		<tag k="alt_name" v="Sollien" />
		<tag k="name" v="Sollia" />
		<tag k="place" v="farm" />
		<tag k="ssr:date" v="2019-12-27" />
		<tag k="ssr:gruppe" v="gardsbebyggelse" />
		<tag k="ssr:hovedgruppe" v="bebyggelse" />
		<tag k="ssr:stedsnr" v="251874" />
		<tag k="ssr:type" v="bruk" />
	</node>
	<node lat="60.8320026393667" lon="10.456821330727776" id="-16804">
		<tag k="fixme" v="consider place=hamlet" />
		<tag k="name" v="Viberg" />
		<tag k="place" v="farm" />
		<tag k="ssr:date" v="2019-12-27" />
		<tag k="ssr:gruppe" v="gardsbebyggelse" />
		<tag k="ssr:hovedgruppe" v="bebyggelse" />
		<tag k="ssr:stedsnr" v="251988" />
		<tag k="ssr:type" v="gard" />
	</node>
	<node lat="60.827994443433035" lon="10.56767499656171" id="-16805">
		<tag k="alt_name" v="Løvstad" />
		<tag k="name" v="Lauvstad" />
		<tag k="place" v="farm" />
		<tag k="ssr:date" v="2019-12-27" />
		<tag k="ssr:gruppe" v="gardsbebyggelse" />
		<tag k="ssr:hovedgruppe" v="bebyggelse" />
		<tag k="ssr:stedsnr" v="251997" />
		<tag k="ssr:type" v="bruk" />
	</node>
	<node lat="60.83398333070792" lon="10.4878499938317" id="-16806">
		<tag k="name" v="Skaugom" />
		<tag k="place" v="farm" />
		<tag k="ssr:date" v="2019-12-27" />
		<tag k="ssr:gruppe" v="gardsbebyggelse" />
		<tag k="ssr:hovedgruppe" v="bebyggelse" />
		<tag k="ssr:stedsnr" v="251999" />
		<tag k="ssr:type" v="bruk" />
	</node>
	<node lat="60.793083333392715" lon="10.503152777917338" id="-16807">
		<tag k="name" v="Presthaugen" />
		<tag k="place" v="locality" />
		<tag k="ssr:date" v="2019-12-27" />
		<tag k="ssr:gruppe" v="bolighus" />
		<tag k="ssr:hovedgruppe" v="bebyggelse" />
		<tag k="ssr:stedsnr" v="252001" />
		<tag k="ssr:type" v="gammelBosettingsplass" />
	</node>
	<node lat="60.79597777792162" lon="10.466013885853048" id="-16808">
		<tag k="name" v="Mustadkampen" />
		<tag k="natural" v="hill" />
		<tag k="place" v="locality" />
		<tag k="ssr:date" v="2019-12-27" />
		<tag k="ssr:gruppe" v="høyder" />
		<tag k="ssr:hovedgruppe" v="terreng" />
		<tag k="ssr:stedsnr" v="252003" />
		<tag k="ssr:type" v="høyde" />
	</node>
	<node lat="60.8111305567992" lon="10.502255560529743" id="-16809">
		<tag k="name" v="Prestberg" />
		<tag k="place" v="farm" />
		<tag k="ssr:date" v="2019-12-27" />
		<tag k="ssr:gruppe" v="gardsbebyggelse" />
		<tag k="ssr:hovedgruppe" v="bebyggelse" />
		<tag k="ssr:stedsnr" v="252019" />
		<tag k="ssr:type" v="bruk" />
	</node>
	<node lat="60.80951320130833" lon="10.582059743431397" id="-16810">
		<tag k="alt_name" v="Skjervum, øvre;Øvre Skjerven" />
		<tag k="fixme" v="consider place=hamlet" />
		<tag k="name" v="Øvre Skjervum" />
		<tag k="place" v="farm" />
		<tag k="ssr:date" v="2019-12-27" />
		<tag k="ssr:gruppe" v="gardsbebyggelse" />
		<tag k="ssr:hovedgruppe" v="bebyggelse" />
		<tag k="ssr:stedsnr" v="252023" />
		<tag k="ssr:type" v="gard" />
	</node>
	<node lat="60.781064275734124" lon="10.65263353101952" id="-16811">
		<tag k="fixme" v="consider place=hamlet" />
		<tag k="name" v="Nygard" />
		<tag k="place" v="farm" />
		<tag k="ssr:date" v="2019-12-27" />
		<tag k="ssr:gruppe" v="gardsbebyggelse" />
		<tag k="ssr:hovedgruppe" v="bebyggelse" />
		<tag k="ssr:stedsnr" v="252026" />
		<tag k="ssr:type" v="gard" />
	</node>
	<node lat="60.788549996585374" lon="10.481597215399765" id="-16812">
		<tag k="name" v="Prestmarkmyra" />
		<tag k="natural" v="wetland" />
		<tag k="ssr:date" v="2019-12-27" />
		<tag k="ssr:gruppe" v="våtmark" />
		<tag k="ssr:hovedgruppe" v="markslag" />
		<tag k="ssr:stedsnr" v="252049" />
		<tag k="ssr:type" v="myr" />
	</node>
	<node lat="60.7876277793288" lon="10.57858055530569" id="-16813">
		<tag k="name" v="Tyli" />
		<tag k="place" v="farm" />
		<tag k="ssr:date" v="2019-12-27" />
		<tag k="ssr:gruppe" v="gardsbebyggelse" />
		<tag k="ssr:hovedgruppe" v="bebyggelse" />
		<tag k="ssr:stedsnr" v="252051" />
		<tag k="ssr:type" v="bruk" />
	</node>
	<node lat="60.78476421702472" lon="10.486900262715274" id="-16814">
		<tag k="fixme" v="consider place=hamlet" />
		<tag k="name" v="Vesterås" />
		<tag k="place" v="farm" />
		<tag k="ssr:date" v="2019-12-27" />
		<tag k="ssr:gruppe" v="gardsbebyggelse" />
		<tag k="ssr:hovedgruppe" v="bebyggelse" />
		<tag k="ssr:stedsnr" v="252055" />
		<tag k="ssr:type" v="gard" />
	</node>
	<node lat="60.762494757937375" lon="10.675050034405906" id="-16815">
		<tag k="fixme" v="consider place=hamlet" />
		<tag k="name" v="Øykåsen" />
		<tag k="place" v="farm" />
		<tag k="ssr:date" v="2019-12-27" />
		<tag k="ssr:gruppe" v="gardsbebyggelse" />
		<tag k="ssr:hovedgruppe" v="bebyggelse" />
		<tag k="ssr:stedsnr" v="252064" />
		<tag k="ssr:type" v="gard" />
	</node>
	<node lat="60.75586110781267" lon="10.579594442202753" id="-16816">
		<tag k="alt_name" v="Sandaker" />
		<tag k="name" v="Sandåker" />
		<tag k="place" v="farm" />
		<tag k="ssr:date" v="2019-12-27" />
		<tag k="ssr:gruppe" v="gardsbebyggelse" />
		<tag k="ssr:hovedgruppe" v="bebyggelse" />
		<tag k="ssr:stedsnr" v="252066" />
		<tag k="ssr:type" v="bruk" />
	</node>
	<node lat="60.753945261117856" lon="10.563592649979961" id="-16817">
		<tag k="fixme" v="consider place=hamlet" />
		<tag k="name" v="Kongelstad" />
		<tag k="place" v="farm" />
		<tag k="ssr:date" v="2019-12-27" />
		<tag k="ssr:gruppe" v="gardsbebyggelse" />
		<tag k="ssr:hovedgruppe" v="bebyggelse" />
		<tag k="ssr:stedsnr" v="252070" />
		<tag k="ssr:type" v="gard" />
	</node>
	<node lat="60.796083330579684" lon="10.415983329308094" id="-16818">
		<tag k="alt_name" v="Stangstuhøgda" />
		<tag k="name" v="Stangstuguhøgda" />
		<tag k="natural" v="hill" />
		<tag k="place" v="locality" />
		<tag k="ssr:date" v="2019-12-27" />
		<tag k="ssr:gruppe" v="høyder" />
		<tag k="ssr:hovedgruppe" v="terreng" />
		<tag k="ssr:stedsnr" v="130003" />
		<tag k="ssr:type" v="høyde" />
	</node>
	<node lat="60.806097223628065" lon="10.603177785209915" id="-16820">
		<tag k="name" v="Bostad" />
		<tag k="place" v="farm" />
		<tag k="ssr:date" v="2019-12-27" />
		<tag k="ssr:gruppe" v="gardsbebyggelse" />
		<tag k="ssr:hovedgruppe" v="bebyggelse" />
		<tag k="ssr:stedsnr" v="130007" />
		<tag k="ssr:type" v="bruk" />
	</node>
	<node lat="60.795900003306905" lon="10.610322225418544" id="-16821">
		<tag k="alt_name" v="Brobakken" />
		<tag k="name" v="Brubakken" />
		<tag k="place" v="isolated_dwelling" />
		<tag k="ssr:date" v="2019-12-27" />
		<tag k="ssr:gruppe" v="bolighus" />
		<tag k="ssr:hovedgruppe" v="bebyggelse" />
		<tag k="ssr:stedsnr" v="130012" />
		<tag k="ssr:type" v="eneboligMindreBoligbygg" />
	</node>
	<node lat="60.807971887923024" lon="10.589206371938516" id="-16822">
		<tag k="alt_name" v="Skjervum, nedre;Nedre Skjerven" />
		<tag k="fixme" v="consider place=hamlet" />
		<tag k="name" v="Nedre Skjervum" />
		<tag k="place" v="farm" />
		<tag k="ssr:date" v="2019-12-27" />
		<tag k="ssr:gruppe" v="gardsbebyggelse" />
		<tag k="ssr:hovedgruppe" v="bebyggelse" />
		<tag k="ssr:stedsnr" v="130024" />
		<tag k="ssr:type" v="gard" />
	</node>
	<node lat="60.809692368858286" lon="10.651838031356725" id="-16823">
		<tag k="fixme" v="consider place=hamlet" />
		<tag k="name" v="Berg" />
		<tag k="place" v="farm" />
		<tag k="ssr:date" v="2019-12-27" />
		<tag k="ssr:gruppe" v="gardsbebyggelse" />
		<tag k="ssr:hovedgruppe" v="bebyggelse" />
		<tag k="ssr:stedsnr" v="130027" />
		<tag k="ssr:type" v="gard" />
	</node>
	<node lat="60.991652774778466" lon="10.264872214795826" id="-16824">
		<tag k="alt_name" v="Engum seter" />
		<tag k="historic" v="shieling" />
		<tag k="name" v="Engomsætra" />
		<tag k="place" v="isolated_dwelling" />
		<tag k="ssr:date" v="2019-12-27" />
		<tag k="ssr:gruppe" v="gardsbebyggelse" />
		<tag k="ssr:hovedgruppe" v="bebyggelse" />
		<tag k="ssr:stedsnr" v="130280" />
		<tag k="ssr:type" v="seterStøl" />
	</node>
	<node lat="60.98940166691009" lon="10.21137218495515" id="-16825">
		<tag k="alt_name" v="Rågarstjernet" />
		<tag k="name" v="Rågjerdstjernet" />
		<tag k="natural" v="water" />
		<tag k="ssr:date" v="2019-12-27" />
		<tag k="ssr:gruppe" v="stilleståendeVann" />
		<tag k="ssr:hovedgruppe" v="ferskvann" />
		<tag k="ssr:stedsnr" v="130282" />
		<tag k="ssr:type" v="tjern" />
	</node>
	<node lat="60.892744441176816" lon="10.612708340286257" id="-16826">
		<tag k="alt_name" v="Brovoll" />
		<tag k="name" v="Bruvoll" />
		<tag k="place" v="farm" />
		<tag k="ssr:date" v="2019-12-27" />
		<tag k="ssr:gruppe" v="gardsbebyggelse" />
		<tag k="ssr:hovedgruppe" v="bebyggelse" />
		<tag k="ssr:stedsnr" v="130786" />
		<tag k="ssr:type" v="bruk" />
	</node>
	<node lat="60.89266637790543" lon="10.630166691125668" id="-16827">
		<tag k="alt_name" v="Etanstad, nedre;Etanstad;Nedre Etnestad" />
		<tag k="name" v="Nedre Etanstad" />
		<tag k="place" v="farm" />
		<tag k="ssr:date" v="2019-12-27" />
		<tag k="ssr:gruppe" v="gardsbebyggelse" />
		<tag k="ssr:hovedgruppe" v="bebyggelse" />
		<tag k="ssr:stedsnr" v="130794" />
		<tag k="ssr:type" v="bruk" />
	</node>
	<node lat="60.88678611265614" lon="10.39596944665259" id="-16828">
		<tag k="name" v="Høystad" />
		<tag k="place" v="farm" />
		<tag k="ssr:date" v="2019-12-27" />
		<tag k="ssr:gruppe" v="gardsbebyggelse" />
		<tag k="ssr:hovedgruppe" v="bebyggelse" />
		<tag k="ssr:stedsnr" v="130796" />
		<tag k="ssr:type" v="bruk" />
	</node>
	<node lat="60.886421941925136" lon="10.676552069019879" id="-16829">
		<tag k="alt_name" v="Stokke, nedre" />
		<tag k="fixme" v="consider place=hamlet" />
		<tag k="name" v="Nedre Stokke" />
		<tag k="place" v="farm" />
		<tag k="ssr:date" v="2019-12-27" />
		<tag k="ssr:gruppe" v="gardsbebyggelse" />
		<tag k="ssr:hovedgruppe" v="bebyggelse" />
		<tag k="ssr:stedsnr" v="130904" />
		<tag k="ssr:type" v="gard" />
	</node>
	<node lat="60.88246110910112" lon="10.371486120196225" id="-16830">
		<tag k="name" v="Ringeli" />
		<tag k="place" v="farm" />
		<tag k="ssr:date" v="2019-12-27" />
		<tag k="ssr:gruppe" v="gardsbebyggelse" />
		<tag k="ssr:hovedgruppe" v="bebyggelse" />
		<tag k="ssr:stedsnr" v="130905" />
		<tag k="ssr:type" v="bruk" />
	</node>
	<node lat="60.879443209593646" lon="10.670009388698466" id="-16831">
		<tag k="name" v="Våstad" />
		<tag k="place" v="farm" />
		<tag k="ssr:date" v="2019-12-27" />
		<tag k="ssr:gruppe" v="gardsbebyggelse" />
		<tag k="ssr:hovedgruppe" v="bebyggelse" />
		<tag k="ssr:stedsnr" v="130916" />
		<tag k="ssr:type" v="bruk" />
	</node>
	<node lat="60.92118055534305" lon="10.56292777831287" id="-16832">
		<tag k="historic" v="shieling" />
		<tag k="name" v="Unsetsætra" />
		<tag k="place" v="isolated_dwelling" />
		<tag k="ssr:date" v="2020-03-03" />
		<tag k="ssr:gruppe" v="gardsbebyggelse" />
		<tag k="ssr:hovedgruppe" v="bebyggelse" />
		<tag k="ssr:stedsnr" v="130821" />
		<tag k="ssr:type" v="seterStøl" />
	</node>
	<node lat="60.925864320958446" lon="10.632954342321735" id="-16833">
		<tag k="fixme" v="consider place=hamlet" />
		<tag k="name" v="Klundby" />
		<tag k="place" v="farm" />
		<tag k="ssr:date" v="2019-12-27" />
		<tag k="ssr:gruppe" v="gardsbebyggelse" />
		<tag k="ssr:hovedgruppe" v="bebyggelse" />
		<tag k="ssr:stedsnr" v="130829" />
		<tag k="ssr:type" v="gard" />
	</node>
	<node lat="60.849658332864855" lon="10.577550005660093" id="-16834">
		<tag k="fixme" v="consider natural=peak for the most distinct mountains in the district" />
		<tag k="name" v="Åslendet" />
		<tag k="natural" v="hill" />
		<tag k="place" v="locality" />
		<tag k="ssr:date" v="2019-12-27" />
		<tag k="ssr:gruppe" v="høyder" />
		<tag k="ssr:hovedgruppe" v="terreng" />
		<tag k="ssr:stedsnr" v="130879" />
		<tag k="ssr:type" v="ås" />
	</node>
	<node lat="60.856016670752425" lon="10.391202775323366" id="-16835">
		<tag k="alt_name" v="Nøssetra" />
		<tag k="historic" v="shieling" />
		<tag k="name" v="Nossætra" />
		<tag k="place" v="isolated_dwelling" />
		<tag k="ssr:date" v="2020-02-27" />
		<tag k="ssr:gruppe" v="gardsbebyggelse" />
		<tag k="ssr:hovedgruppe" v="bebyggelse" />
		<tag k="ssr:stedsnr" v="130886" />
		<tag k="ssr:type" v="seterStøl" />
	</node>
	<node lat="60.860877781806536" lon="10.675972223450907" id="-16836">
		<tag k="alt_name" v="Nordre Koll" />
		<tag k="name" v="Koll" />
		<tag k="place" v="farm" />
		<tag k="ssr:date" v="2019-12-27" />
		<tag k="ssr:gruppe" v="gardsbebyggelse" />
		<tag k="ssr:hovedgruppe" v="bebyggelse" />
		<tag k="ssr:stedsnr" v="130889" />
		<tag k="ssr:type" v="bruk" />
	</node>
	<node lat="60.858693826142925" lon="10.653135036418742" id="-16837">
		<tag k="alt_name" v="Kålls-Ålstad" />
		<tag k="fixme" v="consider place=hamlet" />
		<tag k="name" v="Kolls-Ålstad" />
		<tag k="place" v="farm" />
		<tag k="ssr:date" v="2019-12-27" />
		<tag k="ssr:gruppe" v="gardsbebyggelse" />
		<tag k="ssr:hovedgruppe" v="bebyggelse" />
		<tag k="ssr:stedsnr" v="130894" />
		<tag k="ssr:type" v="gard" />
	</node>
	<node lat="60.7728722180478" lon="10.639888888541659" id="-16838">
		<tag k="name" v="Hunnselva" />
		<tag k="ssr:date" v="2019-12-27" />
		<tag k="ssr:gruppe" v="rennendeVann" />
		<tag k="ssr:hovedgruppe" v="ferskvann" />
		<tag k="ssr:stedsnr" v="252586" />
		<tag k="ssr:type" v="elv" />
		<tag k="waterway" v="river" />
	</node>
	<node lat="60.88942271915074" lon="10.56175647201618" id="-16839">
		<tag k="alt_name" v="Markeng" />
		<tag k="fixme" v="consider place=hamlet" />
		<tag k="name" v="Søndre Markeng" />
		<tag k="place" v="farm" />
		<tag k="ssr:date" v="2019-12-27" />
		<tag k="ssr:gruppe" v="gardsbebyggelse" />
		<tag k="ssr:hovedgruppe" v="bebyggelse" />
		<tag k="ssr:stedsnr" v="252588" />
		<tag k="ssr:type" v="gard" />
	</node>
	<node lat="60.825330555024124" lon="10.385122219751786" id="-16840">
		<tag k="name" v="Sæterhaugen" />
		<tag k="place" v="isolated_dwelling" />
		<tag k="ssr:date" v="2019-12-27" />
		<tag k="ssr:gruppe" v="bolighus" />
		<tag k="ssr:hovedgruppe" v="bebyggelse" />
		<tag k="ssr:stedsnr" v="130983" />
		<tag k="ssr:type" v="eneboligMindreBoligbygg" />
	</node>
	<node lat="60.985538892690236" lon="10.495694438690263" id="-16841">
		<tag k="alt_name" v="Finstad" />
		<tag k="name" v="Finnstad" />
		<tag k="place" v="farm" />
		<tag k="ssr:date" v="2019-12-27" />
		<tag k="ssr:gruppe" v="gardsbebyggelse" />
		<tag k="ssr:hovedgruppe" v="bebyggelse" />
		<tag k="ssr:stedsnr" v="252694" />
		<tag k="ssr:type" v="bruk" />
	</node>
	<node lat="60.97724444793381" lon="10.529327784759344" id="-16842">
		<tag k="alt_name" v="Engeset" />
		<tag k="name" v="Engset" />
		<tag k="place" v="farm" />
		<tag k="ssr:date" v="2019-12-27" />
		<tag k="ssr:gruppe" v="gardsbebyggelse" />
		<tag k="ssr:hovedgruppe" v="bebyggelse" />
		<tag k="ssr:stedsnr" v="252670" />
		<tag k="ssr:type" v="bruk" />
	</node>
	<node lat="60.985561106791046" lon="10.542955559596491" id="-16843">
		<tag k="name" v="Øvergard" />
		<tag k="place" v="farm" />
		<tag k="ssr:date" v="2019-12-27" />
		<tag k="ssr:gruppe" v="gardsbebyggelse" />
		<tag k="ssr:hovedgruppe" v="bebyggelse" />
		<tag k="ssr:stedsnr" v="252699" />
		<tag k="ssr:type" v="bruk" />
	</node>
	<node lat="60.95005833582538" lon="10.478649997764952" id="-16844">
		<tag k="name" v="Dynjua" />
		<tag k="ssr:date" v="2019-12-27" />
		<tag k="ssr:gruppe" v="rennendeVann" />
		<tag k="ssr:hovedgruppe" v="ferskvann" />
		<tag k="ssr:stedsnr" v="252782" />
		<tag k="ssr:type" v="bekk" />
		<tag k="waterway" v="stream" />
	</node>
	<node lat="60.94139722347806" lon="10.492355564365678" id="-16845">
		<tag k="historic" v="shieling" />
		<tag k="name" v="Grindlia" />
		<tag k="place" v="isolated_dwelling" />
		<tag k="ssr:date" v="2019-12-27" />
		<tag k="ssr:gruppe" v="gardsbebyggelse" />
		<tag k="ssr:hovedgruppe" v="bebyggelse" />
		<tag k="ssr:stedsnr" v="252740" />
		<tag k="ssr:type" v="seterStøl" />
	</node>
	<node lat="60.89410278160199" lon="10.424888893250959" id="-16846">
		<tag k="name" v="Fagerli" />
		<tag k="place" v="farm" />
		<tag k="ssr:date" v="2019-12-27" />
		<tag k="ssr:gruppe" v="gardsbebyggelse" />
		<tag k="ssr:hovedgruppe" v="bebyggelse" />
		<tag k="ssr:stedsnr" v="252790" />
		<tag k="ssr:type" v="bruk" />
	</node>
	<node lat="60.89683889287412" lon="10.419594436341317" id="-16847">
		<tag k="alt_name" v="Sveum" />
		<tag k="name" v="Sveom" />
		<tag k="place" v="farm" />
		<tag k="ssr:date" v="2019-12-27" />
		<tag k="ssr:gruppe" v="gardsbebyggelse" />
		<tag k="ssr:hovedgruppe" v="bebyggelse" />
		<tag k="ssr:stedsnr" v="252791" />
		<tag k="ssr:type" v="bruk" />
	</node>
</osm>
