<?xml version="1.0" encoding="UTF-8"?>
<osm version="0.6" generator="osmapis">
	<node id="312573431" lat="60.7260799" lon="10.6133236" version="9" timestamp="2022-04-28T06:01:28Z" changeset="120287122" uid="3497659" user="NKA">
		<tag k="name" v="Raufoss" />
		<tag k="name:ps" v="راوفوس" />
		<tag k="name:ru" v="Рёуфосс" />
		<tag k="place" v="town" />
		<tag k="population" v="7839" />
		<tag k="population:date" v="2021-01-01" />
		<tag k="ref:ssb_tettsted" v="1645" />
		<tag k="source:population" v="SSB - befolkning i tettstedet" />
		<tag k="ssr:stedsnr" v="553447" />
	</node>
	<node id="312573435" lat="60.679461" lon="10.6187351" version="5" timestamp="2022-04-28T06:01:28Z" changeset="120287122" uid="3497659" user="NKA">
		<tag k="name" v="Reinsvoll" />
		<tag k="place" v="village" />
		<tag k="population" v="1051" />
		<tag k="population:date" v="2021-01-01" />
		<tag k="ref:ssb_tettsted" v="1642" />
		<tag k="source:population" v="SSB - befolkning i tettstedet" />
		<tag k="ssr:stedsnr" v="189311" />
	</node>
	<node id="312573438" lat="60.6662105" lon="10.6771824" version="5" timestamp="2022-04-28T06:01:28Z" changeset="120287122" uid="3497659" user="NKA">
		<tag k="name" v="Bøverbru" />
		<tag k="place" v="village" />
		<tag k="population" v="752" />
		<tag k="population:date" v="2021-01-01" />
		<tag k="ref:ssb_tettsted" v="1643" />
		<tag k="source:population" v="SSB - befolkning i tettstedet" />
		<tag k="ssr:stedsnr" v="67328" />
	</node>
	<node id="317606044" lat="60.6286731" lon="10.5987753" version="5" timestamp="2022-04-28T06:01:28Z" changeset="120287122" uid="3497659" user="NKA">
		<tag k="name" v="Eina" />
		<tag k="place" v="village" />
		<tag k="population" v="704" />
		<tag k="population:date" v="2021-01-01" />
		<tag k="ref:ssb_tettsted" v="1644" />
		<tag k="source:population" v="SSB - befolkning i tettstedet" />
		<tag k="ssr:stedsnr" v="7244" />
	</node>
	<node id="1904455255" lat="60.5261179" lon="10.6162283" version="3" timestamp="2022-04-28T06:01:28Z" changeset="120287122" uid="3497659" user="NKA">
		<tag k="ele" v="517" />
		<tag k="name" v="Svarverud" />
		<tag k="place" v="farm" />
		<tag k="ssr:stedsnr" v="613090" />
	</node>
	<node id="1904458283" lat="60.5245396" lon="10.6165609" version="2" timestamp="2022-04-28T06:01:28Z" changeset="120287122" uid="3497659" user="NKA">
		<tag k="alt_name" v="Bråten" />
		<tag k="ele" v="517" />
		<tag k="name" v="Bråtån" />
		<tag k="place" v="farm" />
		<tag k="ssr:stedsnr" v="250091" />
	</node>
	<node id="4113684160" lat="60.720358" lon="10.7036023" version="3" timestamp="2022-04-28T06:01:28Z" changeset="120287122" uid="3497659" user="NKA">
		<tag k="name" v="Dagfinnrud" />
		<tag k="place" v="isolated_dwelling" />
		<tag k="ssr:stedsnr" v="553421" />
	</node>
	<node id="4113684162" lat="60.723032" lon="10.6767331" version="3" timestamp="2022-04-28T06:01:28Z" changeset="120287122" uid="3497659" user="NKA">
		<tag k="building" v="ruins" />
		<tag k="name" v="Raulåven" />
		<tag k="place" v="locality" />
		<tag k="ssr:stedsnr" v="708773" />
	</node>
	<node id="4113684164" lat="60.52339" lon="10.6304436" version="3" timestamp="2022-04-28T06:01:28Z" changeset="120287122" uid="3497659" user="NKA">
		<tag k="alt_name" v="Smedstua" />
		<tag k="name" v="Smedstugua" />
		<tag k="place" v="isolated_dwelling" />
		<tag k="ssr:stedsnr" v="310070" />
	</node>
	<node id="6080616485" lat="60.702366" lon="10.5843392" version="2" timestamp="2022-04-28T06:01:28Z" changeset="120287122" uid="3497659" user="NKA">
		<tag k="alt_name" v="Sagvoll" />
		<tag k="name" v="Sagvollen" />
		<tag k="place" v="hamlet" />
		<tag k="ssr:stedsnr" v="613363" />
	</node>
	<node id="7836533313" lat="60.516308" lon="10.635756" version="3" timestamp="2022-02-01T16:51:09Z" changeset="116876628" uid="3497659" user="NKA">
		<tag k="junction" v="yes" />
		<tag k="name" v="Einavollen" />
		<tag k="ssr:stedsnr" v="578473" />
	</node>
	<node id="7836533709" lat="60.659643" lon="10.537454" version="2" timestamp="2022-01-31T06:16:31Z" changeset="116806593" uid="3497659" user="NKA">
		<tag k="junction" v="yes" />
		<tag k="name" v="Rudsvebakken" />
		<tag k="ssr:stedsnr" v="526772" />
	</node>
	<node id="7836534046" lat="60.656866" lon="10.564204" version="2" timestamp="2022-01-31T06:16:31Z" changeset="116806593" uid="3497659" user="NKA">
		<tag k="junction" v="yes" />
		<tag k="name" v="Vesteråsvegskillet" />
		<tag k="ssr:stedsnr" v="466409" />
	</node>
	<node id="7836535922" lat="60.677679" lon="10.674347" version="2" timestamp="2022-01-31T06:16:31Z" changeset="116806593" uid="3497659" user="NKA">
		<tag k="junction" v="yes" />
		<tag k="name" v="Krekerud" />
		<tag k="ssr:stedsnr" v="189313" />
	</node>
	<node id="7836536224" lat="60.6590465" lon="10.52958" version="3" timestamp="2022-02-01T16:51:09Z" changeset="116876628" uid="3497659" user="NKA">
		<tag k="junction" v="yes" />
		<tag k="name" v="Smetoptåjet" />
		<tag k="ssr:stedsnr" v="404721" />
	</node>
	<node id="8617715045" lat="60.5155126" lon="10.6407977" version="2" timestamp="2022-04-28T06:01:28Z" changeset="120287122" uid="3497659" user="NKA">
		<tag k="name" v="Sløbakken" />
		<tag k="place" v="isolated_dwelling" />
		<tag k="ssr:stedsnr" v="822564" />
	</node>
	<node id="8617731010" lat="60.5726428" lon="10.5774273" version="2" timestamp="2022-04-28T06:01:28Z" changeset="120287122" uid="3497659" user="NKA">
		<tag k="name" v="Karlshus" />
		<tag k="place" v="isolated_dwelling" />
		<tag k="ssr:stedsnr" v="7157" />
	</node>
	<node id="8617824249" lat="60.6366486" lon="10.595124" version="2" timestamp="2022-04-28T06:01:28Z" changeset="120287122" uid="3497659" user="NKA">
		<tag k="name" v="Amerika" />
		<tag k="place" v="isolated_dwelling" />
		<tag k="ssr:stedsnr" v="432213" />
	</node>
	<node id="9088519769" lat="60.5898139" lon="10.5323278" version="1" timestamp="2021-09-13T16:27:08Z" changeset="111154537" uid="435265" user="Ansgar G Grimsrud">
		<tag k="name" v="Granlia" />
		<tag k="natural" v="slope" />
		<tag k="place" v="locality" />
		<tag k="ssr:stedsnr" v="675209" />
	</node>
	<node id="9122872456" lat="60.5441722" lon="10.6016944" version="1" timestamp="2021-09-25T18:24:36Z" changeset="111697914" uid="435265" user="Ansgar G Grimsrud">
		<tag k="name" v="Strandhøgda" />
		<tag k="natural" v="hill" />
		<tag k="place" v="locality" />
		<tag k="ssr:date" v="2019-12-27" />
		<tag k="ssr:gruppe" v="høyder" />
		<tag k="ssr:hovedgruppe" v="terreng" />
		<tag k="ssr:stedsnr" v="128090" />
		<tag k="ssr:type" v="haug" />
	</node>
	<node id="9699698074" lat="60.6472342" lon="10.560709" version="1" timestamp="2022-04-28T06:01:28Z" changeset="120287122" uid="3497659" user="NKA">
		<tag k="name" v="Vesterås" />
		<tag k="place" v="farm" />
		<tag k="ssr:stedsnr" v="613283" />
	</node>
	<node id="9699698075" lat="60.7230917" lon="10.5855" version="1" timestamp="2022-04-28T06:01:28Z" changeset="120287122" uid="3497659" user="NKA">
		<tag k="name" v="Rukkerud" />
		<tag k="place" v="farm" />
		<tag k="ssr:stedsnr" v="674418" />
	</node>
	<node id="9699698076" lat="60.7004701" lon="10.5787441" version="1" timestamp="2022-04-28T06:01:28Z" changeset="120287122" uid="3497659" user="NKA">
		<tag k="name" v="Brattberg" />
		<tag k="place" v="farm" />
		<tag k="ssr:stedsnr" v="492331" />
	</node>
	<node id="9699698077" lat="60.7169694" lon="10.6394028" version="1" timestamp="2022-04-28T06:01:28Z" changeset="120287122" uid="3497659" user="NKA">
		<tag k="name" v="Revoll" />
		<tag k="place" v="farm" />
		<tag k="ssr:stedsnr" v="613390" />
	</node>
	<node id="9699698078" lat="60.6550278" lon="10.6026472" version="1" timestamp="2022-04-28T06:01:28Z" changeset="120287122" uid="3497659" user="NKA">
		<tag k="name" v="Bruflat" />
		<tag k="place" v="hamlet" />
		<tag k="ssr:stedsnr" v="492225" />
	</node>
	<node id="9699698079" lat="60.6071727" lon="10.6429792" version="1" timestamp="2022-04-28T06:01:28Z" changeset="120287122" uid="3497659" user="NKA">
		<tag k="name" v="Sønsteli" />
		<tag k="place" v="farm" />
		<tag k="ssr:stedsnr" v="492159" />
	</node>
	<node id="9699698080" lat="60.651573" lon="10.6444661" version="1" timestamp="2022-04-28T06:01:28Z" changeset="120287122" uid="3497659" user="NKA">
		<tag k="name" v="Melby" />
		<tag k="place" v="farm" />
		<tag k="ssr:stedsnr" v="480789" />
	</node>
	<node id="9699698081" lat="60.6256917" lon="10.5904444" version="1" timestamp="2022-04-28T06:01:28Z" changeset="120287122" uid="3497659" user="NKA">
		<tag k="name" v="Røyskattlia" />
		<tag k="place" v="neighbourhood" />
		<tag k="ssr:stedsnr" v="466617" />
	</node>
	<node id="9699698082" lat="60.6444811" lon="10.6438632" version="1" timestamp="2022-04-28T06:01:28Z" changeset="120287122" uid="3497659" user="NKA">
		<tag k="name" v="Vestre Sivesind" />
		<tag k="place" v="farm" />
		<tag k="ssr:stedsnr" v="298957" />
	</node>
	<node id="9699698083" lat="60.7334987" lon="10.6340599" version="1" timestamp="2022-04-28T06:01:28Z" changeset="120287122" uid="3497659" user="NKA">
		<tag k="name" v="Vestrum" />
		<tag k="place" v="farm" />
		<tag k="ssr:stedsnr" v="432440" />
	</node>
	<node id="9699698084" lat="60.6944939" lon="10.6104254" version="1" timestamp="2022-04-28T06:01:28Z" changeset="120287122" uid="3497659" user="NKA">
		<tag k="name" v="Torsteinstuen" />
		<tag k="place" v="farm" />
		<tag k="ssr:stedsnr" v="298885" />
	</node>
	<node id="9699698085" lat="60.6549611" lon="10.6349166" version="1" timestamp="2022-04-28T06:01:28Z" changeset="120287122" uid="3497659" user="NKA">
		<tag k="name" v="Nyjordet" />
		<tag k="place" v="farm" />
		<tag k="ssr:stedsnr" v="310248" />
	</node>
	<node id="9699698086" lat="60.7363892" lon="10.6367672" version="1" timestamp="2022-04-28T06:01:28Z" changeset="120287122" uid="3497659" user="NKA">
		<tag k="name" v="Øverby" />
		<tag k="place" v="hamlet" />
		<tag k="ssr:stedsnr" v="128439" />
	</node>
	<node id="9699698087" lat="60.6919035" lon="10.5492281" version="1" timestamp="2022-04-28T06:01:28Z" changeset="120287122" uid="3497659" user="NKA">
		<tag k="name" v="Skjellerud" />
		<tag k="place" v="hamlet" />
		<tag k="ssr:stedsnr" v="128350" />
	</node>
	<node id="9699698088" lat="60.6522026" lon="10.6183823" version="1" timestamp="2022-04-28T06:01:28Z" changeset="120287122" uid="3497659" user="NKA">
		<tag k="alt_name" v="Nyhagen" />
		<tag k="name" v="Nyhågån" />
		<tag k="place" v="farm" />
		<tag k="ssr:stedsnr" v="128242" />
	</node>
	<node id="9699698089" lat="60.686775" lon="10.5735033" version="1" timestamp="2022-04-28T06:01:28Z" changeset="120287122" uid="3497659" user="NKA">
		<tag k="alt_name" v="Stenberg" />
		<tag k="name" v="Steinberg" />
		<tag k="place" v="farm" />
		<tag k="ssr:stedsnr" v="128347" />
	</node>
	<node id="9699698090" lat="60.7138094" lon="10.6127801" version="1" timestamp="2022-04-28T06:01:28Z" changeset="120287122" uid="3497659" user="NKA">
		<tag k="name" v="Furuset" />
		<tag k="place" v="farm" />
		<tag k="ssr:stedsnr" v="67407" />
	</node>
	<node id="9699698091" lat="60.7271945" lon="10.6031805" version="1" timestamp="2022-04-28T06:01:28Z" changeset="120287122" uid="3497659" user="NKA">
		<tag k="name" v="Tollerud" />
		<tag k="place" v="suburb" />
		<tag k="ssr:stedsnr" v="23782" />
	</node>
	<node id="9699698092" lat="60.6160804" lon="10.6130499" version="1" timestamp="2022-04-28T06:01:28Z" changeset="120287122" uid="3497659" user="NKA">
		<tag k="alt_name" v="Thunestuen" />
		<tag k="name" v="Tunestugua" />
		<tag k="place" v="farm" />
		<tag k="ssr:stedsnr" v="7228" />
	</node>
	<node id="9699698093" lat="60.7362381" lon="10.6405354" version="1" timestamp="2022-04-28T06:01:28Z" changeset="120287122" uid="3497659" user="NKA">
		<tag k="alt_name" v="Loe" />
		<tag k="name" v="Lo" />
		<tag k="place" v="farm" />
		<tag k="ssr:stedsnr" v="68480" />
	</node>
	<node id="9699698094" lat="60.722133" lon="10.6340408" version="1" timestamp="2022-04-28T06:01:28Z" changeset="120287122" uid="3497659" user="NKA">
		<tag k="name" v="Karsrudskogen" />
		<tag k="place" v="farm" />
		<tag k="ssr:stedsnr" v="7431" />
	</node>
	<node id="9699698095" lat="60.696661" lon="10.6268212" version="1" timestamp="2022-04-28T06:01:28Z" changeset="120287122" uid="3497659" user="NKA">
		<tag k="name" v="Kjelsrud" />
		<tag k="place" v="farm" />
		<tag k="ssr:stedsnr" v="796359" />
	</node>
	<node id="9699698096" lat="60.7070047" lon="10.6353092" version="1" timestamp="2022-04-28T06:01:28Z" changeset="120287122" uid="3497659" user="NKA">
		<tag k="name" v="Dragerbakken" />
		<tag k="place" v="farm" />
		<tag k="ssr:stedsnr" v="6434" />
	</node>
	<node id="9699698097" lat="60.6879277" lon="10.6386778" version="1" timestamp="2022-04-28T06:01:28Z" changeset="120287122" uid="3497659" user="NKA">
		<tag k="name" v="Nereng" />
		<tag k="place" v="farm" />
		<tag k="ssr:stedsnr" v="796312" />
	</node>
	<node id="9699698098" lat="60.5975687" lon="10.6432098" version="1" timestamp="2022-04-28T06:01:28Z" changeset="120287122" uid="3497659" user="NKA">
		<tag k="name" v="Vik" />
		<tag k="place" v="farm" />
		<tag k="ssr:stedsnr" v="735182" />
	</node>
	<node id="9699698099" lat="60.7223922" lon="10.5484142" version="1" timestamp="2022-04-28T06:01:28Z" changeset="120287122" uid="3497659" user="NKA">
		<tag k="name" v="Putten" />
		<tag k="place" v="farm" />
		<tag k="ssr:stedsnr" v="857429" />
	</node>
	<node id="9699698100" lat="60.7185562" lon="10.5880478" version="1" timestamp="2022-04-28T06:01:28Z" changeset="120287122" uid="3497659" user="NKA">
		<tag k="alt_name" v="Nordsveen" />
		<tag k="name" v="Nordsvea" />
		<tag k="place" v="farm" />
		<tag k="ssr:stedsnr" v="857417" />
	</node>
	<node id="9699698101" lat="60.6809218" lon="10.566683" version="1" timestamp="2022-04-28T06:01:28Z" changeset="120287122" uid="3497659" user="NKA">
		<tag k="name" v="Olsby" />
		<tag k="place" v="farm" />
		<tag k="ssr:stedsnr" v="857352" />
	</node>
	<node id="9699698102" lat="60.6449069" lon="10.6127097" version="1" timestamp="2022-04-28T06:01:28Z" changeset="120287122" uid="3497659" user="NKA">
		<tag k="alt_name" v="Gamengen" />
		<tag k="name" v="Gamenga" />
		<tag k="place" v="farm" />
		<tag k="ssr:stedsnr" v="857296" />
	</node>
	<node id="9699698103" lat="60.5985651" lon="10.6449469" version="1" timestamp="2022-04-28T06:01:28Z" changeset="120287122" uid="3497659" user="NKA">
		<tag k="alt_name" v="Øvergård" />
		<tag k="name" v="Øvergard" />
		<tag k="place" v="farm" />
		<tag k="ssr:stedsnr" v="857197" />
	</node>
	<node id="9699698104" lat="60.6018546" lon="10.6460853" version="1" timestamp="2022-04-28T06:01:28Z" changeset="120287122" uid="3497659" user="NKA">
		<tag k="alt_name" v="Skinderviken" />
		<tag k="name" v="Skinnervika" />
		<tag k="place" v="farm" />
		<tag k="ssr:stedsnr" v="857195" />
	</node>
	<node id="9699698105" lat="60.664838" lon="10.554209" version="1" timestamp="2022-04-28T06:01:28Z" changeset="120287122" uid="3497659" user="NKA">
		<tag k="name" v="Engevoll" />
		<tag k="place" v="farm" />
		<tag k="ssr:stedsnr" v="856340" />
	</node>
	<node id="9699698106" lat="60.7060049" lon="10.6424362" version="1" timestamp="2022-04-28T06:01:28Z" changeset="120287122" uid="3497659" user="NKA">
		<tag k="name" v="Drager" />
		<tag k="place" v="hamlet" />
		<tag k="ssr:stedsnr" v="856435" />
	</node>
	<node id="9699698107" lat="60.7370172" lon="10.5704782" version="1" timestamp="2022-04-28T06:01:28Z" changeset="120287122" uid="3497659" user="NKA">
		<tag k="name" v="Østre Villåsen" />
		<tag k="place" v="farm" />
		<tag k="ssr:stedsnr" v="647893" />
	</node>
	<node id="9699698108" lat="60.71765" lon="10.6283111" version="1" timestamp="2022-04-28T06:01:28Z" changeset="120287122" uid="3497659" user="NKA">
		<tag k="name" v="Vestby" />
		<tag k="place" v="farm" />
		<tag k="ssr:stedsnr" v="856422" />
	</node>
	<node id="9699698109" lat="60.6620682" lon="10.5833553" version="1" timestamp="2022-04-28T06:01:28Z" changeset="120287122" uid="3497659" user="NKA">
		<tag k="alt_name" v="Sørgenseter" />
		<tag k="name" v="Sorgensætra" />
		<tag k="place" v="farm" />
		<tag k="ssr:stedsnr" v="856338" />
	</node>
	<node id="9699698110" lat="60.6618502" lon="10.6031944" version="1" timestamp="2022-04-28T06:01:28Z" changeset="120287122" uid="3497659" user="NKA">
		<tag k="alt_name" v="Reinsvollsveen" />
		<tag k="name" v="Reinsvollsvea" />
		<tag k="place" v="farm" />
		<tag k="ssr:stedsnr" v="845753" />
	</node>
	<node id="9699698111" lat="60.6790304" lon="10.5477179" version="1" timestamp="2022-04-28T06:01:28Z" changeset="120287122" uid="3497659" user="NKA">
		<tag k="name" v="Granum" />
		<tag k="place" v="farm" />
		<tag k="ssr:stedsnr" v="647050" />
	</node>
	<node id="9699698112" lat="60.7380735" lon="10.6433294" version="1" timestamp="2022-04-28T06:01:28Z" changeset="120287122" uid="3497659" user="NKA">
		<tag k="name" v="Vestre Grøthaug" />
		<tag k="place" v="farm" />
		<tag k="ssr:stedsnr" v="647006" />
	</node>
	<node id="9699698113" lat="60.6119723" lon="10.5834639" version="1" timestamp="2022-04-28T06:01:28Z" changeset="120287122" uid="3497659" user="NKA">
		<tag k="name" v="Støen" />
		<tag k="place" v="farm" />
		<tag k="ssr:stedsnr" v="587611" />
	</node>
	<node id="9699698114" lat="60.6875629" lon="10.626971" version="1" timestamp="2022-04-28T06:01:28Z" changeset="120287122" uid="3497659" user="NKA">
		<tag k="alt_name" v="Røste" />
		<tag k="name" v="Røstøen" />
		<tag k="place" v="farm" />
		<tag k="ssr:stedsnr" v="553298" />
	</node>
	<node id="9699698115" lat="60.6908315" lon="10.6140558" version="1" timestamp="2022-04-28T06:01:28Z" changeset="120287122" uid="3497659" user="NKA">
		<tag k="alt_name" v="Morterud vestre" />
		<tag k="name" v="Vestre Morterud" />
		<tag k="place" v="farm" />
		<tag k="ssr:stedsnr" v="633837" />
	</node>
	<node id="9699698116" lat="60.7085508" lon="10.5817731" version="1" timestamp="2022-04-28T06:01:28Z" changeset="120287122" uid="3497659" user="NKA">
		<tag k="name" v="Lunde" />
		<tag k="place" v="farm" />
		<tag k="ssr:stedsnr" v="552438" />
	</node>
	<node id="9699717917" lat="60.7288407" lon="10.5736459" version="1" timestamp="2022-04-28T06:01:28Z" changeset="120287122" uid="3497659" user="NKA">
		<tag k="alt_name" v="Nordengen" />
		<tag k="name" v="Nordenga" />
		<tag k="place" v="farm" />
		<tag k="ssr:stedsnr" v="553398" />
	</node>
	<node id="9699717918" lat="60.656931" lon="10.5335418" version="1" timestamp="2022-04-28T06:01:28Z" changeset="120287122" uid="3497659" user="NKA">
		<tag k="alt_name" v="Rudsveen" />
		<tag k="name" v="Rudsvea" />
		<tag k="place" v="farm" />
		<tag k="ssr:stedsnr" v="552349" />
	</node>
	<node id="9699717919" lat="60.6436585" lon="10.6335196" version="1" timestamp="2022-04-28T06:01:28Z" changeset="120287122" uid="3497659" user="NKA">
		<tag k="alt_name" v="Vestre Hagen" />
		<tag k="name" v="Hågån" />
		<tag k="place" v="farm" />
		<tag k="ssr:stedsnr" v="553259" />
	</node>
	<node id="9699717920" lat="60.7230528" lon="10.5793361" version="1" timestamp="2022-04-28T06:01:28Z" changeset="120287122" uid="3497659" user="NKA">
		<tag k="name" v="Fredly" />
		<tag k="place" v="farm" />
		<tag k="ssr:stedsnr" v="371417" />
	</node>
	<node id="9699717921" lat="60.6953188" lon="10.579034" version="1" timestamp="2022-04-28T06:01:28Z" changeset="120287122" uid="3497659" user="NKA">
		<tag k="alt_name" v="Berger, øvre;Berger" />
		<tag k="name" v="Øvre Berger" />
		<tag k="place" v="farm" />
		<tag k="ssr:stedsnr" v="552396" />
	</node>
	<node id="9699717922" lat="60.6613742" lon="10.5242193" version="1" timestamp="2022-04-28T06:01:28Z" changeset="120287122" uid="3497659" user="NKA">
		<tag k="alt_name" v="Pålsrud" />
		<tag k="name" v="Paulsrud" />
		<tag k="place" v="farm" />
		<tag k="ssr:stedsnr" v="370353" />
	</node>
	<node id="9699717923" lat="60.6527902" lon="10.5976148" version="1" timestamp="2022-04-28T06:01:28Z" changeset="120287122" uid="3497659" user="NKA">
		<tag k="name" v="Vestbakken" />
		<tag k="place" v="farm" />
		<tag k="ssr:stedsnr" v="371250" />
	</node>
	<node id="9699717924" lat="60.7178915" lon="10.6376633" version="1" timestamp="2022-04-28T06:01:28Z" changeset="120287122" uid="3497659" user="NKA">
		<tag k="name" v="Sveum" />
		<tag k="place" v="farm" />
		<tag k="ssr:stedsnr" v="359858" />
	</node>
	<node id="9699717925" lat="60.6903447" lon="10.6082732" version="1" timestamp="2022-04-28T06:01:28Z" changeset="120287122" uid="3497659" user="NKA">
		<tag k="name" v="Roksvoll" />
		<tag k="place" v="farm" />
		<tag k="ssr:stedsnr" v="371304" />
	</node>
	<node id="9699717926" lat="60.7151118" lon="10.5572538" version="1" timestamp="2022-04-28T06:01:28Z" changeset="120287122" uid="3497659" user="NKA">
		<tag k="alt_name" v="Bradal, s" />
		<tag k="name" v="Søndre Bradal" />
		<tag k="place" v="farm" />
		<tag k="ssr:stedsnr" v="432403" />
	</node>
	<node id="9699717927" lat="60.6326899" lon="10.6235866" version="1" timestamp="2022-04-28T06:01:28Z" changeset="120287122" uid="3497659" user="NKA">
		<tag k="name" v="Romshus" />
		<tag k="place" v="farm" />
		<tag k="ssr:stedsnr" v="359961" />
	</node>
	<node id="9699717928" lat="60.7074513" lon="10.5787828" version="1" timestamp="2022-04-28T06:01:28Z" changeset="120287122" uid="3497659" user="NKA">
		<tag k="name" v="Berglund" />
		<tag k="place" v="farm" />
		<tag k="ssr:stedsnr" v="249410" />
	</node>
	<node id="9699717929" lat="60.6648902" lon="10.5816934" version="1" timestamp="2022-04-28T06:01:28Z" changeset="120287122" uid="3497659" user="NKA">
		<tag k="alt_name" v="Sorgen" />
		<tag k="name" v="Sørgen" />
		<tag k="place" v="farm" />
		<tag k="ssr:stedsnr" v="249305" />
	</node>
	<node id="9699717930" lat="60.6400868" lon="10.5958112" version="1" timestamp="2022-04-28T06:01:28Z" changeset="120287122" uid="3497659" user="NKA">
		<tag k="name" v="Fiskevollberget" />
		<tag k="place" v="farm" />
		<tag k="ssr:stedsnr" v="284371" />
	</node>
	<node id="9699717931" lat="60.6305" lon="10.5943761" version="1" timestamp="2022-04-28T06:01:28Z" changeset="120287122" uid="3497659" user="NKA">
		<tag k="name" v="Vadet" />
		<tag k="place" v="farm" />
		<tag k="ssr:stedsnr" v="284387" />
	</node>
	<node id="9699717932" lat="60.6630278" lon="10.5981584" version="1" timestamp="2022-04-28T06:01:28Z" changeset="120287122" uid="3497659" user="NKA">
		<tag k="name" v="Karlstad" />
		<tag k="place" v="locality" />
		<tag k="ssr:stedsnr" v="223402" />
	</node>
	<node id="9699717933" lat="60.7400031" lon="10.6294781" version="1" timestamp="2022-04-28T06:01:28Z" changeset="120287122" uid="3497659" user="NKA">
		<tag k="name" v="Lundby" />
		<tag k="place" v="farm" />
		<tag k="ssr:stedsnr" v="223517" />
	</node>
	<node id="9699717934" lat="60.6212389" lon="10.6031639" version="1" timestamp="2022-04-28T06:01:28Z" changeset="120287122" uid="3497659" user="NKA">
		<tag k="name" v="Sundskog" />
		<tag k="place" v="neighbourhood" />
		<tag k="ssr:stedsnr" v="223079" />
	</node>
	<node id="9699717935" lat="60.6619753" lon="10.5330327" version="1" timestamp="2022-04-28T06:01:28Z" changeset="120287122" uid="3497659" user="NKA">
		<tag k="name" v="Vallevoll" />
		<tag k="place" v="farm" />
		<tag k="ssr:stedsnr" v="222733" />
	</node>
	<node id="9699717936" lat="60.7152534" lon="10.5657394" version="1" timestamp="2022-04-28T06:01:28Z" changeset="120287122" uid="3497659" user="NKA">
		<tag k="alt_name" v="Flatlien" />
		<tag k="name" v="Flatlia" />
		<tag k="place" v="farm" />
		<tag k="ssr:stedsnr" v="189404" />
	</node>
	<node id="9699717937" lat="60.7127667" lon="10.6237555" version="1" timestamp="2022-04-28T06:01:28Z" changeset="120287122" uid="3497659" user="NKA">
		<tag k="name" v="Alvstad" />
		<tag k="place" v="farm" />
		<tag k="ssr:stedsnr" v="188449" />
	</node>
	<node id="9699717938" lat="60.6822639" lon="10.5908111" version="1" timestamp="2022-04-28T06:01:28Z" changeset="120287122" uid="3497659" user="NKA">
		<tag k="name" v="Enga" />
		<tag k="place" v="farm" />
		<tag k="ssr:stedsnr" v="189308" />
	</node>
	<node id="9699717939" lat="60.693222" lon="10.6207683" version="1" timestamp="2022-04-28T06:01:28Z" changeset="120287122" uid="3497659" user="NKA">
		<tag k="name" v="Lønnum" />
		<tag k="place" v="farm" />
		<tag k="ssr:stedsnr" v="7312" />
	</node>
	<node id="9699717940" lat="60.6416389" lon="10.644025" version="1" timestamp="2022-04-28T06:01:28Z" changeset="120287122" uid="3497659" user="NKA">
		<tag k="name" v="Solheim" />
		<tag k="place" v="farm" />
		<tag k="ssr:stedsnr" v="116966" />
	</node>
	<node id="9699717941" lat="60.5341949" lon="10.6586668" version="1" timestamp="2022-04-28T06:01:28Z" changeset="120287122" uid="3497659" user="NKA">
		<tag k="name" v="Bekkevoll" />
		<tag k="place" v="farm" />
		<tag k="ssr:stedsnr" v="942619" />
	</node>
	<node id="9699717942" lat="60.6045801" lon="10.642332" version="1" timestamp="2022-04-28T06:01:28Z" changeset="120287122" uid="3497659" user="NKA">
		<tag k="name" v="Lervoll" />
		<tag k="place" v="hamlet" />
		<tag k="ssr:stedsnr" v="67224" />
	</node>
	<node id="9699717943" lat="60.542643" lon="10.657031" version="1" timestamp="2022-04-28T06:01:28Z" changeset="120287122" uid="3497659" user="NKA">
		<tag k="name" v="Sjøli" />
		<tag k="place" v="farm" />
		<tag k="ssr:stedsnr" v="942559" />
	</node>
	<node id="9699717944" lat="60.5466066" lon="10.659167" version="1" timestamp="2022-04-28T06:01:28Z" changeset="120287122" uid="3497659" user="NKA">
		<tag k="name" v="Brubakken" />
		<tag k="place" v="farm" />
		<tag k="ssr:stedsnr" v="735090" />
	</node>
	<node id="9699717945" lat="60.5279169" lon="10.6304614" version="1" timestamp="2022-04-28T06:01:28Z" changeset="120287122" uid="3497659" user="NKA">
		<tag k="name" v="Sandbekk" />
		<tag k="place" v="farm" />
		<tag k="ssr:stedsnr" v="735086" />
	</node>
	<node id="9699717946" lat="60.5300133" lon="10.6138783" version="1" timestamp="2022-04-28T06:01:28Z" changeset="120287122" uid="3497659" user="NKA">
		<tag k="name" v="Marka" />
		<tag k="place" v="farm" />
		<tag k="ssr:stedsnr" v="735076" />
	</node>
	<node id="9699717947" lat="60.5304563" lon="10.6644762" version="1" timestamp="2022-04-28T06:01:28Z" changeset="120287122" uid="3497659" user="NKA">
		<tag k="name" v="Teiterudbakken" />
		<tag k="place" v="farm" />
		<tag k="ssr:stedsnr" v="674093" />
	</node>
	<node id="9699717948" lat="60.5225416" lon="10.661575" version="1" timestamp="2022-04-28T06:01:28Z" changeset="120287122" uid="3497659" user="NKA">
		<tag k="alt_name" v="Fosslien" />
		<tag k="name" v="Fosslia" />
		<tag k="place" v="farm" />
		<tag k="ssr:stedsnr" v="613075" />
	</node>
	<node id="9699717949" lat="60.5234431" lon="10.6261966" version="1" timestamp="2022-04-28T06:01:28Z" changeset="120287122" uid="3497659" user="NKA">
		<tag k="name" v="Dyrudberget" />
		<tag k="old_name" v="Dyreberget" />
		<tag k="place" v="farm" />
		<tag k="ssr:stedsnr" v="128051" />
	</node>
	<node id="9699717950" lat="60.5334453" lon="10.6604261" version="1" timestamp="2022-04-28T06:01:28Z" changeset="120287122" uid="3497659" user="NKA">
		<tag k="name" v="Rustad" />
		<tag k="place" v="farm" />
		<tag k="ssr:stedsnr" v="329731" />
	</node>
	<node id="9699717951" lat="60.5300712" lon="10.6551742" version="1" timestamp="2022-04-28T06:01:28Z" changeset="120287122" uid="3497659" user="NKA">
		<tag k="name" v="Teiterud" />
		<tag k="place" v="hamlet" />
		<tag k="ssr:stedsnr" v="68084" />
	</node>
	<node id="9699717952" lat="60.544325" lon="10.67575" version="1" timestamp="2022-04-28T06:01:28Z" changeset="120287122" uid="3497659" user="NKA">
		<tag k="alt_name" v="Norstad" />
		<tag k="name" v="Nordstad" />
		<tag k="place" v="farm" />
		<tag k="ssr:stedsnr" v="68095" />
	</node>
	<node id="9699717953" lat="60.5501354" lon="10.6759597" version="1" timestamp="2022-04-28T06:01:28Z" changeset="120287122" uid="3497659" user="NKA">
		<tag k="alt_name" v="Snipstadsetra" />
		<tag k="name" v="Snippstadsætra" />
		<tag k="place" v="farm" />
		<tag k="ssr:stedsnr" v="735107" />
	</node>
	<node id="9699717954" lat="60.6732645" lon="10.5586392" version="1" timestamp="2022-04-28T06:01:28Z" changeset="120287122" uid="3497659" user="NKA">
		<tag k="alt_name" v="Festadseter" />
		<tag k="name" v="Festadsætra" />
		<tag k="place" v="farm" />
		<tag k="ssr:stedsnr" v="795320" />
	</node>
	<node id="9699717955" lat="60.6830341" lon="10.5770332" version="1" timestamp="2022-04-28T06:01:28Z" changeset="120287122" uid="3497659" user="NKA">
		<tag k="name" v="Buer" />
		<tag k="place" v="farm" />
		<tag k="ssr:stedsnr" v="988919" />
	</node>
	<node id="9699717956" lat="60.6894939" lon="10.5641928" version="1" timestamp="2022-04-28T06:01:28Z" changeset="120287122" uid="3497659" user="NKA">
		<tag k="alt_name" v="Vestlien" />
		<tag k="name" v="Vestlia" />
		<tag k="place" v="farm" />
		<tag k="ssr:stedsnr" v="917352" />
	</node>
	<node id="9699717957" lat="60.7352538" lon="10.5715732" version="1" timestamp="2022-04-28T06:01:28Z" changeset="120287122" uid="3497659" user="NKA">
		<tag k="name" v="Vestre Villåsen" />
		<tag k="place" v="locality" />
		<tag k="ssr:stedsnr" v="988376" />
	</node>
	<node id="9699717958" lat="60.6959564" lon="10.5711482" version="1" timestamp="2022-04-28T06:01:28Z" changeset="120287122" uid="3497659" user="NKA">
		<tag k="alt_name" v="Austlia;Østlien" />
		<tag k="name" v="Østlia" />
		<tag k="place" v="farm" />
		<tag k="ssr:stedsnr" v="917325" />
	</node>
	<node id="9699717959" lat="60.6852559" lon="10.5707595" version="1" timestamp="2022-04-28T06:01:28Z" changeset="120287122" uid="3497659" user="NKA">
		<tag k="name" v="Gotterud" />
		<tag k="place" v="hamlet" />
		<tag k="ssr:stedsnr" v="812773" />
	</node>
	<node id="9699717960" lat="60.7102151" lon="10.5812623" version="1" timestamp="2022-04-28T06:01:28Z" changeset="120287122" uid="3497659" user="NKA">
		<tag k="name" v="Roset" />
		<tag k="place" v="farm" />
		<tag k="ssr:stedsnr" v="795899" />
	</node>
	<node id="9699717961" lat="60.6680633" lon="10.5546319" version="1" timestamp="2022-04-28T06:01:28Z" changeset="120287122" uid="3497659" user="NKA">
		<tag k="alt_name" v="Engeseter" />
		<tag k="name" v="Engesætra" />
		<tag k="place" v="farm" />
		<tag k="ssr:stedsnr" v="795321" />
	</node>
	<node id="9699717962" lat="60.7120685" lon="10.5756834" version="1" timestamp="2022-04-28T06:01:28Z" changeset="120287122" uid="3497659" user="NKA">
		<tag k="name" v="Nedre Roset" />
		<tag k="place" v="farm" />
		<tag k="ssr:stedsnr" v="783083" />
	</node>
	<node id="9699717963" lat="60.7091026" lon="10.5142199" version="1" timestamp="2022-04-28T06:01:28Z" changeset="120287122" uid="3497659" user="NKA">
		<tag k="name" v="Trollheim" />
		<tag k="place" v="isolated_dwelling" />
		<tag k="ssr:stedsnr" v="735396" />
	</node>
	<node id="9699717964" lat="60.7194111" lon="10.5749278" version="1" timestamp="2022-04-28T06:01:28Z" changeset="120287122" uid="3497659" user="NKA">
		<tag k="name" v="Nyberg" />
		<tag k="place" v="farm" />
		<tag k="ssr:stedsnr" v="735378" />
	</node>
	<node id="9699717965" lat="60.6773753" lon="10.5750063" version="1" timestamp="2022-04-28T06:01:28Z" changeset="120287122" uid="3497659" user="NKA">
		<tag k="name" v="Buerskogen" />
		<tag k="place" v="farm" />
		<tag k="ssr:stedsnr" v="735339" />
	</node>
	<node id="9699717966" lat="60.6672669" lon="10.5474731" version="1" timestamp="2022-04-28T06:01:28Z" changeset="120287122" uid="3497659" user="NKA">
		<tag k="alt_name" v="Evangseter" />
		<tag k="name" v="Evangssætra" />
		<tag k="place" v="farm" />
		<tag k="ssr:stedsnr" v="613317" />
	</node>
	<node id="9699717967" lat="60.6932988" lon="10.5789923" version="1" timestamp="2022-04-28T06:01:28Z" changeset="120287122" uid="3497659" user="NKA">
		<tag k="alt_name" v="Berger;Berger, midtre" />
		<tag k="name" v="Midtre Berger" />
		<tag k="place" v="farm" />
		<tag k="ssr:stedsnr" v="674338" />
	</node>
	<node id="9699717968" lat="60.6974273" lon="10.5867145" version="1" timestamp="2022-04-28T06:01:28Z" changeset="120287122" uid="3497659" user="NKA">
		<tag k="alt_name" v="Skartseter" />
		<tag k="name" v="Skartsætra" />
		<tag k="place" v="farm" />
		<tag k="ssr:stedsnr" v="492335" />
	</node>
	<node id="9699717969" lat="60.7044017" lon="10.5827353" version="1" timestamp="2022-04-28T06:01:28Z" changeset="120287122" uid="3497659" user="NKA">
		<tag k="name" v="Rognstad" />
		<tag k="place" v="farm" />
		<tag k="ssr:stedsnr" v="552436" />
	</node>
	<node id="9699717970" lat="60.6601883" lon="10.521309" version="1" timestamp="2022-04-28T06:01:28Z" changeset="120287122" uid="3497659" user="NKA">
		<tag k="name" v="Solvoll" />
		<tag k="place" v="farm" />
		<tag k="ssr:stedsnr" v="466760" />
	</node>
	<node id="9699717971" lat="60.6574792" lon="10.5186853" version="1" timestamp="2022-04-28T06:01:28Z" changeset="120287122" uid="3497659" user="NKA">
		<tag k="name" v="Grønlund" />
		<tag k="place" v="farm" />
		<tag k="ssr:stedsnr" v="492213" />
	</node>
	<node id="9699717972" lat="60.6776192" lon="10.5610154" version="1" timestamp="2022-04-28T06:01:28Z" changeset="120287122" uid="3497659" user="NKA">
		<tag k="name" v="Lognset" />
		<tag k="place" v="farm" />
		<tag k="ssr:stedsnr" v="465035" />
	</node>
	<node id="9699717973" lat="60.7295083" lon="10.5852695" version="1" timestamp="2022-04-28T06:01:28Z" changeset="120287122" uid="3497659" user="NKA">
		<tag k="alt_name" v="Sørlien" />
		<tag k="name" v="Sørligrenda" />
		<tag k="place" v="hamlet" />
		<tag k="ssr:stedsnr" v="492431" />
	</node>
	<node id="9699717974" lat="60.7180973" lon="10.5752111" version="1" timestamp="2022-04-28T06:01:28Z" changeset="120287122" uid="3497659" user="NKA">
		<tag k="alt_name" v="Gudbrandsstuen" />
		<tag k="name" v="Gudbrandstugua" />
		<tag k="place" v="farm" />
		<tag k="ssr:stedsnr" v="432356" />
	</node>
	<node id="9699717975" lat="60.6988292" lon="10.5838195" version="1" timestamp="2022-04-28T06:01:28Z" changeset="120287122" uid="3497659" user="NKA">
		<tag k="name" v="Skartseterbakken" />
		<tag k="place" v="farm" />
		<tag k="ssr:stedsnr" v="465420" />
	</node>
	<node id="9699717976" lat="60.6795268" lon="10.5503549" version="1" timestamp="2022-04-28T06:01:28Z" changeset="120287122" uid="3497659" user="NKA">
		<tag k="alt_name" v="Granum, nedre" />
		<tag k="name" v="Nedre Granum" />
		<tag k="place" v="farm" />
		<tag k="ssr:stedsnr" v="432309" />
	</node>
	<node id="9699717977" lat="60.6773917" lon="10.5449607" version="1" timestamp="2022-04-28T06:01:28Z" changeset="120287122" uid="3497659" user="NKA">
		<tag k="alt_name" v="Granum, øvre;Granum" />
		<tag k="name" v="Øvre Granum" />
		<tag k="place" v="farm" />
		<tag k="ssr:stedsnr" v="432308" />
	</node>
	<node id="9699717978" lat="60.6762005" lon="10.5580325" version="1" timestamp="2022-04-28T06:01:28Z" changeset="120287122" uid="3497659" user="NKA">
		<tag k="name" v="Sæterenga" />
		<tag k="place" v="farm" />
		<tag k="ssr:stedsnr" v="370332" />
	</node>
	<node id="9699717979" lat="60.6728569" lon="10.5518601" version="1" timestamp="2022-04-28T06:01:28Z" changeset="120287122" uid="3497659" user="NKA">
		<tag k="alt_name" v="Alfstadseter" />
		<tag k="name" v="Alstadsæter" />
		<tag k="place" v="farm" />
		<tag k="ssr:stedsnr" v="370331" />
	</node>
	<node id="9699717980" lat="60.7141503" lon="10.5659477" version="1" timestamp="2022-04-28T06:01:28Z" changeset="120287122" uid="3497659" user="NKA">
		<tag k="name" v="Flatlien" />
		<tag k="place" v="farm" />
		<tag k="ssr:stedsnr" v="101438" />
	</node>
	<node id="9699717981" lat="60.7412584" lon="10.5701932" version="1" timestamp="2022-04-28T06:01:28Z" changeset="120287122" uid="3497659" user="NKA">
		<tag k="alt_name" v="Villåsstuen" />
		<tag k="name" v="Villåsstugua" />
		<tag k="place" v="farm" />
		<tag k="ssr:stedsnr" v="310459" />
	</node>
	<node id="9699717982" lat="60.725175" lon="10.5787277" version="1" timestamp="2022-04-28T06:01:28Z" changeset="120287122" uid="3497659" user="NKA">
		<tag k="name" v="Nysetbakken" />
		<tag k="place" v="farm" />
		<tag k="ssr:stedsnr" v="68422" />
	</node>
	<node id="9699717983" lat="60.6581723" lon="10.5277481" version="1" timestamp="2022-04-28T06:01:28Z" changeset="120287122" uid="3497659" user="NKA">
		<tag k="alt_name" v="Smetop" />
		<tag k="name" v="Smettopp" />
		<tag k="place" v="farm" />
		<tag k="ssr:stedsnr" v="128223" />
	</node>
	<node id="9699717984" lat="60.6824805" lon="10.5805268" version="1" timestamp="2022-04-28T06:01:28Z" changeset="120287122" uid="3497659" user="NKA">
		<tag k="alt_name" v="Buer, østre;Buer" />
		<tag k="name" v="Østre Buer" />
		<tag k="place" v="farm" />
		<tag k="ssr:stedsnr" v="68348" />
	</node>
	<node id="9699717985" lat="60.6826943" lon="10.5722016" version="1" timestamp="2022-04-28T06:01:28Z" changeset="120287122" uid="3497659" user="NKA">
		<tag k="alt_name" v="Buer, vestre;Buer" />
		<tag k="name" v="Vestre Buer" />
		<tag k="place" v="farm" />
		<tag k="ssr:stedsnr" v="68345" />
	</node>
	<node id="9699717988" lat="60.7060778" lon="10.5711556" version="1" timestamp="2022-04-28T06:01:28Z" changeset="120287122" uid="3497659" user="NKA">
		<tag k="name" v="Skoglund" />
		<tag k="place" v="farm" />
		<tag k="ssr:stedsnr" v="67421" />
	</node>
	<node id="9699717989" lat="60.7037289" lon="10.576492" version="1" timestamp="2022-04-28T06:01:28Z" changeset="120287122" uid="3497659" user="NKA">
		<tag k="name" v="Granli" />
		<tag k="place" v="farm" />
		<tag k="ssr:stedsnr" v="67423" />
	</node>
	<node id="9699717990" lat="60.6553467" lon="10.5291107" version="1" timestamp="2022-04-28T06:01:28Z" changeset="120287122" uid="3497659" user="NKA">
		<tag k="alt_name" v="Sveen" />
		<tag k="name" v="Svea" />
		<tag k="place" v="farm" />
		<tag k="ssr:stedsnr" v="492207" />
	</node>
	<node id="9699717991" lat="60.7073422" lon="10.563801" version="1" timestamp="2022-04-28T06:01:28Z" changeset="120287122" uid="3497659" user="NKA">
		<tag k="name" v="Rosethaugen" />
		<tag k="place" v="farm" />
		<tag k="ssr:stedsnr" v="613414" />
	</node>
	<node id="9699717992" lat="60.6850788" lon="10.5812557" version="1" timestamp="2022-04-28T06:01:28Z" changeset="120287122" uid="3497659" user="NKA">
		<tag k="name" v="Bjørkebakken" />
		<tag k="place" v="farm" />
		<tag k="ssr:stedsnr" v="283388" />
	</node>
	<node id="9699717993" lat="60.7229938" lon="10.5734488" version="1" timestamp="2022-04-28T06:01:28Z" changeset="120287122" uid="3497659" user="NKA">
		<tag k="name" v="Nyset" />
		<tag k="old_name" v="Nyseth" />
		<tag k="place" v="hamlet" />
		<tag k="ssr:stedsnr" v="371386" />
	</node>
	<node id="9699717994" lat="60.7142138" lon="10.5764958" version="1" timestamp="2022-04-28T06:01:28Z" changeset="120287122" uid="3497659" user="NKA">
		<tag k="name" v="Roset" />
		<tag k="place" v="farm" />
		<tag k="ssr:stedsnr" v="189362" />
	</node>
	<node id="9699717995" lat="60.6632266" lon="10.5374125" version="1" timestamp="2022-04-28T06:01:28Z" changeset="120287122" uid="3497659" user="NKA">
		<tag k="alt_name" v="Valleseter" />
		<tag k="name" v="Vallesæter" />
		<tag k="place" v="farm" />
		<tag k="ssr:stedsnr" v="431338" />
	</node>
	<node id="9699717996" lat="60.6850401" lon="10.5509131" version="1" timestamp="2022-04-28T06:01:28Z" changeset="120287122" uid="3497659" user="NKA">
		<tag k="alt_name" v="Bratlien" />
		<tag k="name" v="Brattlia" />
		<tag k="place" v="farm" />
		<tag k="ssr:stedsnr" v="189306" />
	</node>
	<node id="9699717997" lat="60.684884" lon="10.5607289" version="1" timestamp="2022-04-28T06:01:28Z" changeset="120287122" uid="3497659" user="NKA">
		<tag k="alt_name" v="Undlien" />
		<tag k="name" v="Undlia" />
		<tag k="place" v="farm" />
		<tag k="ssr:stedsnr" v="128303" />
	</node>
	<node id="9699717998" lat="60.6638254" lon="10.521851" version="1" timestamp="2022-04-28T06:01:28Z" changeset="120287122" uid="3497659" user="NKA">
		<tag k="alt_name" v="Gauplien" />
		<tag k="name" v="Gaupelia" />
		<tag k="place" v="farm" />
		<tag k="ssr:stedsnr" v="188317" />
	</node>
	<node id="9699717999" lat="60.6857882" lon="10.5845524" version="1" timestamp="2022-04-28T06:01:28Z" changeset="120287122" uid="3497659" user="NKA">
		<tag k="name" v="Ninive" />
		<tag k="place" v="farm" />
		<tag k="ssr:stedsnr" v="189343" />
	</node>
	<node id="9699718000" lat="60.7360606" lon="10.5716435" version="1" timestamp="2022-04-28T06:01:28Z" changeset="120287122" uid="3497659" user="NKA">
		<tag k="name" v="Villåsen" />
		<tag k="place" v="hamlet" />
		<tag k="ssr:stedsnr" v="7447" />
	</node>
	<node id="9699718001" lat="60.7261722" lon="10.5644083" version="1" timestamp="2022-04-28T06:01:28Z" changeset="120287122" uid="3497659" user="NKA">
		<tag k="alt_name" v="Nyset-Vestbakken" />
		<tag k="name" v="Vestbakken" />
		<tag k="place" v="farm" />
		<tag k="ssr:stedsnr" v="7406" />
	</node>
	<node id="9699718002" lat="60.6785329" lon="10.5021608" version="1" timestamp="2022-04-28T06:01:28Z" changeset="120287122" uid="3497659" user="NKA">
		<tag k="alt_name" v="Midtre Skjerdalen;Skjerrdalen, midtre;Midtre Skjærdalen" />
		<tag k="name" v="Midtre Skjerrdalen" />
		<tag k="place" v="farm" />
		<tag k="ssr:stedsnr" v="298135" />
	</node>
	<node id="9699718003" lat="60.6644356" lon="10.5122845" version="1" timestamp="2022-04-28T06:01:28Z" changeset="120287122" uid="3497659" user="NKA">
		<tag k="alt_name" v="Sveum" />
		<tag k="name" v="Sveom" />
		<tag k="place" v="farm" />
		<tag k="ssr:stedsnr" v="552335" />
	</node>
	<node id="9699718004" lat="60.679465" lon="10.5041157" version="1" timestamp="2022-04-28T06:01:28Z" changeset="120287122" uid="3497659" user="NKA">
		<tag k="name" v="Skjerrdalen" />
		<tag k="place" v="hamlet" />
		<tag k="ssr:stedsnr" v="1080589" />
	</node>
	<node id="9699718005" lat="60.670885" lon="10.5066549" version="1" timestamp="2022-04-28T06:01:28Z" changeset="120287122" uid="3497659" user="NKA">
		<tag k="alt_name" v="Snekkerhaugen" />
		<tag k="name" v="Snikkerhaugen" />
		<tag k="place" v="farm" />
		<tag k="ssr:stedsnr" v="310283" />
	</node>
	<node id="9699718006" lat="60.5974083" lon="10.6049944" version="1" timestamp="2022-04-28T06:01:28Z" changeset="120287122" uid="3497659" user="NKA">
		<tag k="name" v="Steinodden" />
		<tag k="place" v="farm" />
		<tag k="ssr:stedsnr" v="371175" />
	</node>
	<node id="9699718007" lat="60.6820496" lon="10.5029475" version="1" timestamp="2022-04-28T06:01:28Z" changeset="120287122" uid="3497659" user="NKA">
		<tag k="alt_name" v="Skjerrdalen, nordre;Nordre Skjærdalen" />
		<tag k="name" v="Nordre Skjerrdalen" />
		<tag k="place" v="farm" />
		<tag k="ssr:stedsnr" v="68339" />
	</node>
	<node id="9699718008" lat="60.6279556" lon="10.5941555" version="1" timestamp="2022-04-28T06:01:28Z" changeset="120287122" uid="3497659" user="NKA">
		<tag k="name" v="Vadet" />
		<tag k="place" v="neighbourhood" />
		<tag k="ssr:stedsnr" v="951621" />
	</node>
	<node id="9699718009" lat="60.6001866" lon="10.5691807" version="1" timestamp="2022-04-28T06:01:28Z" changeset="120287122" uid="3497659" user="NKA">
		<tag k="name" v="Hågår" />
		<tag k="place" v="farm" />
		<tag k="ssr:stedsnr" v="552211" />
	</node>
	<node id="9699718010" lat="60.572792" lon="10.6187149" version="1" timestamp="2022-04-28T06:01:28Z" changeset="120287122" uid="3497659" user="NKA">
		<tag k="name" v="Bekkeli" />
		<tag k="place" v="farm" />
		<tag k="ssr:stedsnr" v="934738" />
	</node>
	<node id="9699718011" lat="60.6156159" lon="10.6188446" version="1" timestamp="2022-04-28T06:01:28Z" changeset="120287122" uid="3497659" user="NKA">
		<tag k="alt_name" v="Thune" />
		<tag k="name" v="Tune" />
		<tag k="place" v="hamlet" />
		<tag k="ssr:stedsnr" v="917179" />
	</node>
	<node id="9699718012" lat="60.5369595" lon="10.6305032" version="1" timestamp="2022-04-28T06:01:28Z" changeset="120287122" uid="3497659" user="NKA">
		<tag k="name" v="Smerud" />
		<tag k="place" v="farm" />
		<tag k="ssr:stedsnr" v="917087" />
	</node>
	<node id="9699718013" lat="60.6202667" lon="10.5875444" version="1" timestamp="2022-04-28T06:01:28Z" changeset="120287122" uid="3497659" user="NKA">
		<tag k="name" v="Kvernhaugen" />
		<tag k="place" v="neighbourhood" />
		<tag k="ssr:stedsnr" v="830577" />
	</node>
	<node id="9699718014" lat="60.6409317" lon="10.6876493" version="1" timestamp="2022-04-28T06:01:28Z" changeset="120287122" uid="3497659" user="NKA">
		<tag k="alt_name" v="Stikbakke" />
		<tag k="name" v="Stikkbakke" />
		<tag k="place" v="farm" />
		<tag k="ssr:stedsnr" v="796244" />
	</node>
	<node id="9699718015" lat="60.5322" lon="10.6727306" version="1" timestamp="2022-04-28T06:01:28Z" changeset="120287122" uid="3497659" user="NKA">
		<tag k="alt_name" v="Løvlien" />
		<tag k="name" v="Lauvlia" />
		<tag k="place" v="farm" />
		<tag k="ssr:stedsnr" v="796096" />
	</node>
	<node id="9699718016" lat="60.6548831" lon="10.6272208" version="1" timestamp="2022-04-28T06:01:28Z" changeset="120287122" uid="3497659" user="NKA">
		<tag k="name" v="Fremstad" />
		<tag k="place" v="farm" />
		<tag k="ssr:stedsnr" v="735252" />
	</node>
	<node id="9699718017" lat="60.5242538" lon="10.6314198" version="1" timestamp="2022-04-28T06:01:28Z" changeset="120287122" uid="3497659" user="NKA">
		<tag k="alt_name" v="Sløbråten" />
		<tag k="name" v="Sløbråtån" />
		<tag k="place" v="farm" />
		<tag k="ssr:stedsnr" v="796079" />
	</node>
	<node id="9699718018" lat="60.6037347" lon="10.6659001" version="1" timestamp="2022-04-28T06:01:28Z" changeset="120287122" uid="3497659" user="NKA">
		<tag k="name" v="Bakke" />
		<tag k="place" v="farm" />
		<tag k="ssr:stedsnr" v="735197" />
	</node>
	<node id="9699718019" lat="60.5419479" lon="10.6313988" version="1" timestamp="2022-04-28T06:01:28Z" changeset="120287122" uid="3497659" user="NKA">
		<tag k="name" v="Strande" />
		<tag k="place" v="hamlet" />
		<tag k="ssr:stedsnr" v="751798" />
	</node>
	<node id="9699718020" lat="60.5470968" lon="10.6588872" version="1" timestamp="2022-04-28T06:01:28Z" changeset="120287122" uid="3497659" user="NKA">
		<tag k="name" v="Bruhagen" />
		<tag k="place" v="farm" />
		<tag k="ssr:stedsnr" v="690364" />
	</node>
	<node id="9699718021" lat="60.5911464" lon="10.6101662" version="1" timestamp="2022-04-28T06:01:28Z" changeset="120287122" uid="3497659" user="NKA">
		<tag k="name" v="Nordre Jutulrud" />
		<tag k="place" v="farm" />
		<tag k="ssr:stedsnr" v="727482" />
	</node>
	<node id="9699718022" lat="60.5862596" lon="10.594037" version="1" timestamp="2022-04-28T06:01:28Z" changeset="120287122" uid="3497659" user="NKA">
		<tag k="name" v="Granum" />
		<tag k="place" v="farm" />
		<tag k="ssr:stedsnr" v="674158" />
	</node>
	<node id="9699718023" lat="60.6451905" lon="10.6838119" version="1" timestamp="2022-04-28T06:01:28Z" changeset="120287122" uid="3497659" user="NKA">
		<tag k="name" v="Glæserudstuen" />
		<tag k="place" v="farm" />
		<tag k="ssr:stedsnr" v="693583" />
	</node>
	<node id="9699718024" lat="60.5453014" lon="10.630372" version="1" timestamp="2022-04-28T06:01:28Z" changeset="120287122" uid="3497659" user="NKA">
		<tag k="name" v="Nygårdslunden" />
		<tag k="place" v="farm" />
		<tag k="ssr:stedsnr" v="690344" />
	</node>
	<node id="9699718025" lat="60.5232445" lon="10.6674055" version="1" timestamp="2022-04-28T06:01:28Z" changeset="120287122" uid="3497659" user="NKA">
		<tag k="alt_name" v="Hågån" />
		<tag k="name" v="Hagan" />
		<tag k="old_name" v="Hagen" />
		<tag k="place" v="farm" />
		<tag k="ssr:stedsnr" v="603066" />
	</node>
	<node id="9699718026" lat="60.5696344" lon="10.6076082" version="1" timestamp="2022-04-28T06:01:28Z" changeset="120287122" uid="3497659" user="NKA">
		<tag k="name" v="Nordby" />
		<tag k="place" v="farm" />
		<tag k="ssr:stedsnr" v="613143" />
	</node>
	<node id="9699718027" lat="60.6198031" lon="10.6113037" version="1" timestamp="2022-04-28T06:01:28Z" changeset="120287122" uid="3497659" user="NKA">
		<tag k="name" v="Dokke" />
		<tag k="place" v="farm" />
		<tag k="ssr:stedsnr" v="492176" />
	</node>
	<node id="9699718028" lat="60.6008153" lon="10.6843123" version="1" timestamp="2022-04-28T06:01:28Z" changeset="120287122" uid="3497659" user="NKA">
		<tag k="name" v="Sandbekken" />
		<tag k="place" v="farm" />
		<tag k="ssr:stedsnr" v="613172" />
	</node>
	<node id="9699718029" lat="60.6008332" lon="10.6752153" version="1" timestamp="2022-04-28T06:01:28Z" changeset="120287122" uid="3497659" user="NKA">
		<tag k="name" v="Hermanrud" />
		<tag k="place" v="farm" />
		<tag k="ssr:stedsnr" v="492149" />
	</node>
	<node id="9699718030" lat="60.5475861" lon="10.6316639" version="1" timestamp="2022-04-28T06:01:28Z" changeset="120287122" uid="3497659" user="NKA">
		<tag k="alt_name" v="Bjørnsløkken" />
		<tag k="name" v="Bjørnslykkja" />
		<tag k="place" v="farm" />
		<tag k="ssr:stedsnr" v="492094" />
	</node>
	<node id="9699718031" lat="60.5521816" lon="10.6223938" version="1" timestamp="2022-04-28T06:01:28Z" changeset="120287122" uid="3497659" user="NKA">
		<tag k="alt_name" v="Sveen" />
		<tag k="name" v="Dotsetsvea" />
		<tag k="place" v="farm" />
		<tag k="ssr:stedsnr" v="492088" />
	</node>
	<node id="9699718032" lat="60.6314034" lon="10.6162192" version="1" timestamp="2022-04-28T06:01:28Z" changeset="120287122" uid="3497659" user="NKA">
		<tag k="name" v="Nygard" />
		<tag k="place" v="farm" />
		<tag k="ssr:stedsnr" v="492192" />
	</node>
	<node id="9699718033" lat="60.6035888" lon="10.6713055" version="1" timestamp="2022-04-28T06:01:28Z" changeset="120287122" uid="3497659" user="NKA">
		<tag k="name" v="Nyborg" />
		<tag k="place" v="farm" />
		<tag k="ssr:stedsnr" v="450605" />
	</node>
	<node id="9699718034" lat="60.6454579" lon="10.6778908" version="1" timestamp="2022-04-28T06:01:28Z" changeset="120287122" uid="3497659" user="NKA">
		<tag k="name" v="Bekkevoll" />
		<tag k="place" v="farm" />
		<tag k="ssr:stedsnr" v="432233" />
	</node>
	<node id="9699718035" lat="60.5428075" lon="10.6177259" version="1" timestamp="2022-04-28T06:01:28Z" changeset="120287122" uid="3497659" user="NKA">
		<tag k="alt_name" v="Hopopp" />
		<tag k="name" v="Hoppopp" />
		<tag k="place" v="farm" />
		<tag k="ssr:stedsnr" v="432114" />
	</node>
	<node id="9699718036" lat="60.5169762" lon="10.6330141" version="1" timestamp="2022-04-28T06:01:28Z" changeset="120287122" uid="3497659" user="NKA">
		<tag k="alt_name" v="Einavollen" />
		<tag k="name" v="Einavoll" />
		<tag k="place" v="farm" />
		<tag k="ssr:stedsnr" v="432056" />
	</node>
	<node id="9699718037" lat="60.6174202" lon="10.6709535" version="1" timestamp="2022-04-28T06:01:28Z" changeset="120287122" uid="3497659" user="NKA">
		<tag k="alt_name" v="Midtbustuen" />
		<tag k="name" v="Midtbustugua" />
		<tag k="place" v="farm" />
		<tag k="ssr:stedsnr" v="431244" />
	</node>
	<node id="9699718038" lat="60.6056529" lon="10.6194847" version="1" timestamp="2022-04-28T06:01:28Z" changeset="120287122" uid="3497659" user="NKA">
		<tag k="alt_name" v="Næs" />
		<tag k="name" v="Nes" />
		<tag k="place" v="farm" />
		<tag k="ssr:stedsnr" v="310186" />
	</node>
	<node id="9699718039" lat="60.58283" lon="10.6215801" version="1" timestamp="2022-04-28T06:01:28Z" changeset="120287122" uid="3497659" user="NKA">
		<tag k="name" v="Lervoll" />
		<tag k="place" v="farm" />
		<tag k="ssr:stedsnr" v="431189" />
	</node>
	<node id="9699718040" lat="60.6546454" lon="10.6588393" version="1" timestamp="2022-04-28T06:01:28Z" changeset="120287122" uid="3497659" user="NKA">
		<tag k="name" v="Tangsvea" />
		<tag k="place" v="farm" />
		<tag k="ssr:stedsnr" v="310241" />
	</node>
	<node id="9699718041" lat="60.6435673" lon="10.6394948" version="1" timestamp="2022-04-28T06:01:28Z" changeset="120287122" uid="3497659" user="NKA">
		<tag k="alt_name" v="Hagebakken" />
		<tag k="name" v="Hågåbakken" />
		<tag k="place" v="farm" />
		<tag k="ssr:stedsnr" v="310267" />
	</node>
	<node id="9699718042" lat="60.6118038" lon="10.6464958" version="1" timestamp="2022-04-28T06:01:28Z" changeset="120287122" uid="3497659" user="NKA">
		<tag k="alt_name" v="Blilie" />
		<tag k="name" v="Blili" />
		<tag k="place" v="hamlet" />
		<tag k="ssr:stedsnr" v="310182" />
	</node>
	<node id="9699718043" lat="60.5348334" lon="10.6633001" version="1" timestamp="2022-04-28T06:01:28Z" changeset="120287122" uid="3497659" user="NKA">
		<tag k="name" v="Bjerke" />
		<tag k="place" v="farm" />
		<tag k="ssr:stedsnr" v="310108" />
	</node>
	<node id="9699718044" lat="60.571434" lon="10.6570392" version="1" timestamp="2022-04-28T06:01:28Z" changeset="120287122" uid="3497659" user="NKA">
		<tag k="alt_name" v="Johnsrudbakken" />
		<tag k="name" v="Jonsrudbakken" />
		<tag k="place" v="farm" />
		<tag k="ssr:stedsnr" v="310134" />
	</node>
	<node id="9699718045" lat="60.5637546" lon="10.6121681" version="1" timestamp="2022-04-28T06:01:28Z" changeset="120287122" uid="3497659" user="NKA">
		<tag k="name" v="Øvre Amlien" />
		<tag k="place" v="farm" />
		<tag k="ssr:stedsnr" v="298208" />
	</node>
	<node id="9699718046" lat="60.5567753" lon="10.6879467" version="1" timestamp="2022-04-28T06:01:28Z" changeset="120287122" uid="3497659" user="NKA">
		<tag k="name" v="Kjølvegen" />
		<tag k="place" v="farm" />
		<tag k="ssr:stedsnr" v="310112" />
	</node>
	<node id="9699718047" lat="60.5823405" lon="10.6495998" version="1" timestamp="2022-04-28T06:01:28Z" changeset="120287122" uid="3497659" user="NKA">
		<tag k="name" v="Bjørnsgård" />
		<tag k="place" v="farm" />
		<tag k="ssr:stedsnr" v="238226" />
	</node>
	<node id="9699718048" lat="60.6183194" lon="10.6742087" version="1" timestamp="2022-04-28T06:01:28Z" changeset="120287122" uid="3497659" user="NKA">
		<tag k="name" v="Midtbakken" />
		<tag k="place" v="farm" />
		<tag k="ssr:stedsnr" v="207581" />
	</node>
	<node id="9699718049" lat="60.5460468" lon="10.618991" version="1" timestamp="2022-04-28T06:01:28Z" changeset="120287122" uid="3497659" user="NKA">
		<tag k="name" v="Ørjasveen" />
		<tag k="place" v="farm" />
		<tag k="ssr:stedsnr" v="238307" />
	</node>
	<node id="9699718050" lat="60.6412263" lon="10.6091287" version="1" timestamp="2022-04-28T06:01:28Z" changeset="120287122" uid="3497659" user="NKA">
		<tag k="name" v="Slåttsvea" />
		<tag k="place" v="farm" />
		<tag k="ssr:stedsnr" v="128250" />
	</node>
	<node id="9699718051" lat="60.6541571" lon="10.6386215" version="1" timestamp="2022-04-28T06:01:28Z" changeset="120287122" uid="3497659" user="NKA">
		<tag k="name" v="Heksum" />
		<tag k="place" v="hamlet" />
		<tag k="ssr:stedsnr" v="128241" />
	</node>
	<node id="9699718052" lat="60.6012872" lon="10.6660064" version="1" timestamp="2022-04-28T06:01:28Z" changeset="120287122" uid="3497659" user="NKA">
		<tag k="name" v="Bakkeli" />
		<tag k="place" v="farm" />
		<tag k="ssr:stedsnr" v="128152" />
	</node>
	<node id="9699718053" lat="60.544625" lon="10.6570777" version="1" timestamp="2022-04-28T06:01:28Z" changeset="120287122" uid="3497659" user="NKA">
		<tag k="alt_name" v="Klæmma" />
		<tag k="name" v="Klemma" />
		<tag k="place" v="farm" />
		<tag k="ssr:stedsnr" v="128069" />
	</node>
	<node id="9699718054" lat="60.6222889" lon="10.6000527" version="1" timestamp="2022-04-28T06:01:28Z" changeset="120287122" uid="3497659" user="NKA">
		<tag k="name" v="Sundsvik" />
		<tag k="place" v="neighbourhood" />
		<tag k="ssr:stedsnr" v="102633" />
	</node>
	<node id="9699718055" lat="60.5593932" lon="10.6238321" version="1" timestamp="2022-04-28T06:01:28Z" changeset="120287122" uid="3497659" user="NKA">
		<tag k="name" v="Nyvoll" />
		<tag k="place" v="farm" />
		<tag k="ssr:stedsnr" v="128096" />
	</node>
	<node id="9699718056" lat="60.5612898" lon="10.6282012" version="1" timestamp="2022-04-28T06:01:28Z" changeset="120287122" uid="3497659" user="NKA">
		<tag k="alt_name" v="Amlihagen" />
		<tag k="name" v="Amlihågån" />
		<tag k="place" v="farm" />
		<tag k="ssr:stedsnr" v="67149" />
	</node>
	<node id="9699718057" lat="60.5842652" lon="10.5952952" version="1" timestamp="2022-04-28T06:01:28Z" changeset="120287122" uid="3497659" user="NKA">
		<tag k="name" v="Hoelsveen" />
		<tag k="place" v="farm" />
		<tag k="ssr:stedsnr" v="39452" />
	</node>
	<node id="9699718058" lat="60.6449328" lon="10.6585305" version="1" timestamp="2022-04-28T06:01:28Z" changeset="120287122" uid="3497659" user="NKA">
		<tag k="alt_name" v="Nærli" />
		<tag k="name" v="Nerli" />
		<tag k="place" v="farm" />
		<tag k="ssr:stedsnr" v="7258" />
	</node>
	<node id="9699718059" lat="60.5693288" lon="10.6489771" version="1" timestamp="2022-04-28T06:01:28Z" changeset="120287122" uid="3497659" user="NKA">
		<tag k="alt_name" v="Sundsødegård" />
		<tag k="name" v="Jonsrudøgarden" />
		<tag k="place" v="farm" />
		<tag k="ssr:stedsnr" v="67164" />
	</node>
	<node id="9699718060" lat="60.6364754" lon="10.6832394" version="1" timestamp="2022-04-28T06:01:28Z" changeset="120287122" uid="3497659" user="NKA">
		<tag k="name" v="Sandbakke" />
		<tag k="old_name" v="Sandbakken" />
		<tag k="place" v="farm" />
		<tag k="ssr:stedsnr" v="7231" />
	</node>
	<node id="9699718061" lat="60.5382167" lon="10.6575657" version="1" timestamp="2022-04-28T06:01:28Z" changeset="120287122" uid="3497659" user="NKA">
		<tag k="alt_name" v="Lønnhaug" />
		<tag k="name" v="Lønhaug" />
		<tag k="place" v="farm" />
		<tag k="ssr:stedsnr" v="7120" />
	</node>
	<node id="9699718062" lat="60.5718504" lon="10.6537155" version="1" timestamp="2022-04-28T06:01:28Z" changeset="120287122" uid="3497659" user="NKA">
		<tag k="name" v="Eina" />
		<tag k="place" v="quarter" />
		<tag k="ssr:stedsnr" v="1081734" />
	</node>
	<node id="9699718063" lat="60.5949507" lon="10.6402016" version="1" timestamp="2022-04-28T06:01:28Z" changeset="120287122" uid="3497659" user="NKA">
		<tag k="name" v="Ødegården" />
		<tag k="place" v="farm" />
		<tag k="ssr:stedsnr" v="890156" />
	</node>
	<node id="9699718064" lat="60.5954707" lon="10.6449414" version="1" timestamp="2022-04-28T06:01:28Z" changeset="120287122" uid="3497659" user="NKA">
		<tag k="name" v="Nøkleby" />
		<tag k="place" v="farm" />
		<tag k="ssr:stedsnr" v="890154" />
	</node>
	<node id="9699718065" lat="60.5580591" lon="10.6214588" version="1" timestamp="2022-04-28T06:01:28Z" changeset="120287122" uid="3497659" user="NKA">
		<tag k="name" v="Grefsrud" />
		<tag k="place" v="farm" />
		<tag k="ssr:stedsnr" v="796106" />
	</node>
	<node id="9699718066" lat="60.6439542" lon="10.6308721" version="1" timestamp="2022-04-28T06:01:28Z" changeset="120287122" uid="3497659" user="NKA">
		<tag k="alt_name" v="Nordsveen" />
		<tag k="name" v="Nordsvea" />
		<tag k="place" v="farm" />
		<tag k="ssr:stedsnr" v="857295" />
	</node>
	<node id="9699718067" lat="60.6461722" lon="10.6789889" version="1" timestamp="2022-04-28T06:01:28Z" changeset="120287122" uid="3497659" user="NKA">
		<tag k="name" v="Håkerud" />
		<tag k="place" v="locality" />
		<tag k="ssr:stedsnr" v="857270" />
	</node>
	<node id="9699718068" lat="60.6521566" lon="10.662792" version="1" timestamp="2022-04-28T06:01:28Z" changeset="120287122" uid="3497659" user="NKA">
		<tag k="alt_name" v="Børsvollen" />
		<tag k="name" v="Børsvoll" />
		<tag k="place" v="farm" />
		<tag k="ssr:stedsnr" v="856277" />
	</node>
	<node id="9699718069" lat="60.5939964" lon="10.6407476" version="1" timestamp="2022-04-28T06:01:28Z" changeset="120287122" uid="3497659" user="NKA">
		<tag k="alt_name" v="Ødegården" />
		<tag k="name" v="Bjørnerudøgarden" />
		<tag k="place" v="farm" />
		<tag k="ssr:stedsnr" v="613168" />
	</node>
	<node id="9699718070" lat="60.61713" lon="10.6746992" version="1" timestamp="2022-04-28T06:01:28Z" changeset="120287122" uid="3497659" user="NKA">
		<tag k="name" v="Kjelsrud" />
		<tag k="place" v="farm" />
		<tag k="ssr:stedsnr" v="613214" />
	</node>
	<node id="9699718071" lat="60.6520361" lon="10.6014499" version="1" timestamp="2022-04-28T06:01:28Z" changeset="120287122" uid="3497659" user="NKA">
		<tag k="name" v="Fredrikstad" />
		<tag k="place" v="farm" />
		<tag k="ssr:stedsnr" v="552292" />
	</node>
	<node id="9699718072" lat="60.5231975" lon="10.658501" version="1" timestamp="2022-04-28T06:01:28Z" changeset="120287122" uid="3497659" user="NKA">
		<tag k="name" v="Fosslien" />
		<tag k="place" v="farm" />
		<tag k="ssr:stedsnr" v="578614" />
	</node>
	<node id="9699718073" lat="60.5727607" lon="10.6497682" version="1" timestamp="2022-04-28T06:01:28Z" changeset="120287122" uid="3497659" user="NKA">
		<tag k="alt_name" v="Johnsrud" />
		<tag k="name" v="Jonsrud" />
		<tag k="place" v="farm" />
		<tag k="ssr:stedsnr" v="552150" />
	</node>
	<node id="9699718074" lat="60.6347148" lon="10.6027064" version="1" timestamp="2022-04-28T06:01:28Z" changeset="120287122" uid="3497659" user="NKA">
		<tag k="name" v="Blåvarp" />
		<tag k="place" v="farm" />
		<tag k="ssr:stedsnr" v="553218" />
	</node>
	<node id="9699718075" lat="60.5358361" lon="10.6770556" version="1" timestamp="2022-04-28T06:01:28Z" changeset="120287122" uid="3497659" user="NKA">
		<tag k="name" v="Berg" />
		<tag k="place" v="farm" />
		<tag k="ssr:stedsnr" v="371101" />
	</node>
	<node id="9699718076" lat="60.6420327" lon="10.6300361" version="1" timestamp="2022-04-28T06:01:28Z" changeset="120287122" uid="3497659" user="NKA">
		<tag k="name" v="Vestheim" />
		<tag k="place" v="farm" />
		<tag k="ssr:stedsnr" v="541953" />
	</node>
	<node id="9699718077" lat="60.6057374" lon="10.6702778" version="1" timestamp="2022-04-28T06:01:28Z" changeset="120287122" uid="3497659" user="NKA">
		<tag k="name" v="Blien" />
		<tag k="place" v="farm" />
		<tag k="ssr:stedsnr" v="310191" />
	</node>
	<node id="9699718078" lat="60.6409477" lon="10.6577141" version="1" timestamp="2022-04-28T06:01:28Z" changeset="120287122" uid="3497659" user="NKA">
		<tag k="name" v="Sinnerud" />
		<tag k="place" v="farm" />
		<tag k="ssr:stedsnr" v="371232" />
	</node>
	<node id="9699718079" lat="60.5233076" lon="10.6154242" version="1" timestamp="2022-04-28T06:01:28Z" changeset="120287122" uid="3497659" user="NKA">
		<tag k="name" v="Flata" />
		<tag k="place" v="farm" />
		<tag k="ssr:stedsnr" v="371057" />
	</node>
	<node id="9699718080" lat="60.5925784" lon="10.6473827" version="1" timestamp="2022-04-28T06:01:28Z" changeset="120287122" uid="3497659" user="NKA">
		<tag k="alt_name" v="Bjørnerudsvea, nordre;Bjørnerudsveen" />
		<tag k="name" v="Nordre Bjørnerudsvea" />
		<tag k="place" v="farm" />
		<tag k="ssr:stedsnr" v="128138" />
	</node>
	<node id="9699718081" lat="60.6541336" lon="10.6568008" version="1" timestamp="2022-04-28T06:01:28Z" changeset="120287122" uid="3497659" user="NKA">
		<tag k="alt_name" v="Sivesindhagen" />
		<tag k="name" v="Sivesinhagen" />
		<tag k="place" v="farm" />
		<tag k="ssr:stedsnr" v="298686" />
	</node>
	<node id="9699718082" lat="60.5714723" lon="10.6443638" version="1" timestamp="2022-04-28T06:01:28Z" changeset="120287122" uid="3497659" user="NKA">
		<tag k="name" v="Odden" />
		<tag k="place" v="farm" />
		<tag k="ssr:stedsnr" v="128108" />
	</node>
	<node id="9699718083" lat="60.6035444" lon="10.6715306" version="1" timestamp="2022-04-28T06:01:28Z" changeset="120287122" uid="3497659" user="NKA">
		<tag k="name" v="Sandberg" />
		<tag k="place" v="farm" />
		<tag k="ssr:stedsnr" v="189163" />
	</node>
	<node id="9699718084" lat="60.6521708" lon="10.6533024" version="1" timestamp="2022-04-28T06:01:28Z" changeset="120287122" uid="3497659" user="NKA">
		<tag k="alt_name" v="Hemstadmoen" />
		<tag k="name" v="Moen" />
		<tag k="place" v="farm" />
		<tag k="ssr:stedsnr" v="189233" />
	</node>
	<node id="9699718085" lat="60.646754" lon="10.6824842" version="1" timestamp="2022-04-28T06:01:28Z" changeset="120287122" uid="3497659" user="NKA">
		<tag k="name" v="Glæserud" />
		<tag k="place" v="farm" />
		<tag k="ssr:stedsnr" v="189221" />
	</node>
	<node id="9699718086" lat="60.6412111" lon="10.6600166" version="1" timestamp="2022-04-28T06:01:28Z" changeset="120287122" uid="3497659" user="NKA">
		<tag k="name" v="Linnerud" />
		<tag k="place" v="farm" />
		<tag k="ssr:stedsnr" v="189220" />
	</node>
	<node id="9699718087" lat="60.647957" lon="10.6229555" version="1" timestamp="2022-04-28T06:01:28Z" changeset="120287122" uid="3497659" user="NKA">
		<tag k="name" v="Gamme" />
		<tag k="place" v="farm" />
		<tag k="ssr:stedsnr" v="144761" />
	</node>
	<node id="9699718088" lat="60.5831813" lon="10.6162531" version="1" timestamp="2022-04-28T06:01:28Z" changeset="120287122" uid="3497659" user="NKA">
		<tag k="name" v="Hanshaugen" />
		<tag k="place" v="farm" />
		<tag k="ssr:stedsnr" v="67179" />
	</node>
	<node id="9699718089" lat="60.5081582" lon="10.6468394" version="1" timestamp="2022-04-28T06:01:28Z" changeset="120287122" uid="3497659" user="NKA">
		<tag k="alt_name" v="Helgedalssaga, nedre" />
		<tag k="name" v="Nedre Helgedalssaga" />
		<tag k="place" v="farm" />
		<tag k="ssr:stedsnr" v="188085" />
	</node>
	<node id="9699718090" lat="60.5637068" lon="10.6212275" version="1" timestamp="2022-04-28T06:01:28Z" changeset="120287122" uid="3497659" user="NKA">
		<tag k="alt_name" v="Noraker" />
		<tag k="name" v="Nordåker" />
		<tag k="place" v="farm" />
		<tag k="ssr:stedsnr" v="67148" />
	</node>
	<node id="9699718091" lat="60.6837244" lon="10.5974921" version="1" timestamp="2022-04-28T06:01:28Z" changeset="120287122" uid="3497659" user="NKA">
		<tag k="name" v="Brenna" />
		<tag k="place" v="locality" />
		<tag k="ssr:stedsnr" v="988918" />
	</node>
	<node id="9699718092" lat="60.68739" lon="10.6020575" version="1" timestamp="2022-04-28T06:01:28Z" changeset="120287122" uid="3497659" user="NKA">
		<tag k="name" v="Skarseterhagen" />
		<tag k="place" v="farm" />
		<tag k="ssr:stedsnr" v="769374" />
	</node>
	<node id="9699718093" lat="60.6661734" lon="10.6033716" version="1" timestamp="2022-04-28T06:01:28Z" changeset="120287122" uid="3497659" user="NKA">
		<tag k="name" v="Ødegård" />
		<tag k="place" v="farm" />
		<tag k="ssr:stedsnr" v="905789" />
	</node>
	<node id="9699718094" lat="60.689575" lon="10.6026806" version="1" timestamp="2022-04-28T06:01:28Z" changeset="120287122" uid="3497659" user="NKA">
		<tag k="alt_name" v="Brustuen" />
		<tag k="name" v="Brustugua" />
		<tag k="place" v="farm" />
		<tag k="ssr:stedsnr" v="492361" />
	</node>
	<node id="9699718095" lat="60.6686544" lon="10.5998483" version="1" timestamp="2022-04-28T06:01:28Z" changeset="120287122" uid="3497659" user="NKA">
		<tag k="alt_name" v="Elgeberget" />
		<tag k="name" v="Berget" />
		<tag k="place" v="farm" />
		<tag k="ssr:stedsnr" v="674288" />
	</node>
	<node id="9699718096" lat="60.6780521" lon="10.6028768" version="1" timestamp="2022-04-28T06:01:28Z" changeset="120287122" uid="3497659" user="NKA">
		<tag k="name" v="Skogly" />
		<tag k="place" v="farm" />
		<tag k="ssr:stedsnr" v="250340" />
	</node>
	<node id="9699718097" lat="60.7176823" lon="10.5945676" version="1" timestamp="2022-04-28T06:01:28Z" changeset="120287122" uid="3497659" user="NKA">
		<tag k="name" v="Lønnberget" />
		<tag k="place" v="suburb" />
		<tag k="ssr:stedsnr" v="492375" />
	</node>
	<node id="9699718098" lat="60.7117061" lon="10.6059004" version="1" timestamp="2022-04-28T06:01:28Z" changeset="120287122" uid="3497659" user="NKA">
		<tag k="name" v="Prøven" />
		<tag k="place" v="farm" />
		<tag k="ssr:stedsnr" v="917364" />
	</node>
	<node id="9699718099" lat="60.6894036" lon="10.6025862" version="1" timestamp="2022-04-28T06:01:28Z" changeset="120287122" uid="3497659" user="NKA">
		<tag k="name" v="Brustuskogen" />
		<tag k="place" v="farm" />
		<tag k="ssr:stedsnr" v="432341" />
	</node>
	<node id="9699718100" lat="60.71015" lon="10.593425" version="1" timestamp="2022-04-28T06:01:28Z" changeset="120287122" uid="3497659" user="NKA">
		<tag k="name" v="Rosetlia" />
		<tag k="place" v="neighbourhood" />
		<tag k="ssr:stedsnr" v="708458" />
	</node>
	<node id="9699718101" lat="60.6832153" lon="10.6040855" version="1" timestamp="2022-04-28T06:01:28Z" changeset="120287122" uid="3497659" user="NKA">
		<tag k="name" v="Gudmundsveen" />
		<tag k="place" v="farm" />
		<tag k="ssr:stedsnr" v="41383" />
	</node>
	<node id="9699718102" lat="60.6846436" lon="10.5890209" version="1" timestamp="2022-04-28T06:01:28Z" changeset="120287122" uid="3497659" user="NKA">
		<tag k="alt_name" v="Målstad" />
		<tag k="name" v="Moldstad" />
		<tag k="place" v="farm" />
		<tag k="ssr:stedsnr" v="857355" />
	</node>
	<node id="9699718103" lat="60.7089027" lon="10.603239" version="1" timestamp="2022-04-28T06:01:28Z" changeset="120287122" uid="3497659" user="NKA">
		<tag k="name" v="Dragerfløyten" />
		<tag k="place" v="neighbourhood" />
		<tag k="ssr:stedsnr" v="420922" />
	</node>
	<node id="9699718104" lat="60.7104191" lon="10.6044207" version="1" timestamp="2022-04-28T06:01:28Z" changeset="120287122" uid="3497659" user="NKA">
		<tag k="name" v="Kildal" />
		<tag k="place" v="farm" />
		<tag k="ssr:stedsnr" v="613407" />
	</node>
	<node id="9699718105" lat="60.6786051" lon="10.5950095" version="1" timestamp="2022-04-28T06:01:28Z" changeset="120287122" uid="3497659" user="NKA">
		<tag k="name" v="Danielrudstuen" />
		<tag k="place" v="farm" />
		<tag k="ssr:stedsnr" v="404039" />
	</node>
	<node id="9699718106" lat="60.6668267" lon="10.6027852" version="1" timestamp="2022-04-28T06:01:28Z" changeset="120287122" uid="3497659" user="NKA">
		<tag k="name" v="Vestbakken" />
		<tag k="place" v="farm" />
		<tag k="ssr:stedsnr" v="238797" />
	</node>
	<node id="9699718107" lat="60.6986164" lon="10.7132238" version="1" timestamp="2022-04-28T06:01:28Z" changeset="120287122" uid="3497659" user="NKA">
		<tag k="alt_name" v="Westby" />
		<tag k="name" v="Myrvang" />
		<tag k="place" v="farm" />
		<tag k="ssr:stedsnr" v="492344" />
	</node>
	<node id="9699718108" lat="60.6802615" lon="10.6046822" version="1" timestamp="2022-04-28T06:01:28Z" changeset="120287122" uid="3497659" user="NKA">
		<tag k="name" v="Enkenhus" />
		<tag k="place" v="farm" />
		<tag k="ssr:stedsnr" v="344391" />
	</node>
	<node id="9699718109" lat="60.6814742" lon="10.7036697" version="1" timestamp="2022-04-28T06:01:28Z" changeset="120287122" uid="3497659" user="NKA">
		<tag k="name" v="Steffensrud" />
		<tag k="place" v="hamlet" />
		<tag k="ssr:stedsnr" v="613337" />
	</node>
	<node id="9699718110" lat="60.6575595" lon="10.6534041" version="1" timestamp="2022-04-28T06:01:28Z" changeset="120287122" uid="3497659" user="NKA">
		<tag k="name" v="Nordre Løvstad" />
		<tag k="place" v="farm" />
		<tag k="ssr:stedsnr" v="966724" />
	</node>
	<node id="9699718111" lat="60.7268372" lon="10.6908028" version="1" timestamp="2022-04-28T06:01:28Z" changeset="120287122" uid="3497659" user="NKA">
		<tag k="name" v="Årvoll" />
		<tag k="place" v="farm" />
		<tag k="ssr:stedsnr" v="128413" />
	</node>
	<node id="9699718112" lat="60.6572862" lon="10.6548305" version="1" timestamp="2022-04-28T06:01:28Z" changeset="120287122" uid="3497659" user="NKA">
		<tag k="name" v="Løvstad" />
		<tag k="place" v="farm" />
		<tag k="ssr:stedsnr" v="905720" />
	</node>
	<node id="9699718113" lat="60.6730627" lon="10.6744483" version="1" timestamp="2022-04-28T06:01:28Z" changeset="120287122" uid="3497659" user="NKA">
		<tag k="name" v="Gjestrumsbakken" />
		<tag k="place" v="farm" />
		<tag k="ssr:stedsnr" v="812777" />
	</node>
	<node id="9699718114" lat="60.6614328" lon="10.6938854" version="1" timestamp="2022-04-28T06:01:28Z" changeset="120287122" uid="3497659" user="NKA">
		<tag k="alt_name" v="Ås" />
		<tag k="name" v="Prestegården" />
		<tag k="place" v="farm" />
		<tag k="ssr:stedsnr" v="723770" />
	</node>
	<node id="9699718115" lat="60.6741498" lon="10.6497482" version="1" timestamp="2022-04-28T06:01:28Z" changeset="120287122" uid="3497659" user="NKA">
		<tag k="name" v="Arnli" />
		<tag k="place" v="farm" />
		<tag k="ssr:stedsnr" v="674287" />
	</node>
	<node id="9699718116" lat="60.677702" lon="10.6729725" version="1" timestamp="2022-04-28T06:01:28Z" changeset="120287122" uid="3497659" user="NKA">
		<tag k="name" v="Rustad" />
		<tag k="place" v="farm" />
		<tag k="ssr:stedsnr" v="662535" />
	</node>
	<node id="9699718117" lat="60.6852366" lon="10.6653306" version="1" timestamp="2022-04-28T06:01:28Z" changeset="120287122" uid="3497659" user="NKA">
		<tag k="alt_name" v="Inndal, nedre;Inndal" />
		<tag k="name" v="Nedre Inndal" />
		<tag k="place" v="farm" />
		<tag k="ssr:stedsnr" v="128288" />
	</node>
	<node id="9699718118" lat="60.6792357" lon="10.6098546" version="1" timestamp="2022-04-28T06:01:28Z" changeset="120287122" uid="3497659" user="NKA">
		<tag k="name" v="Reinsvoll" />
		<tag k="place" v="farm" />
		<tag k="ssr:stedsnr" v="526365" />
	</node>
	<node id="9699718119" lat="60.6817091" lon="10.6407583" version="1" timestamp="2022-04-28T06:01:28Z" changeset="120287122" uid="3497659" user="NKA">
		<tag k="name" v="Presteseter" />
		<tag k="place" v="farm" />
		<tag k="ssr:stedsnr" v="988911" />
	</node>
	<node id="9699718120" lat="60.6670257" lon="10.6440647" version="1" timestamp="2022-04-28T06:01:28Z" changeset="120287122" uid="3497659" user="NKA">
		<tag k="alt_name" v="Bernsgård" />
		<tag k="name" v="Bernsgard" />
		<tag k="place" v="farm" />
		<tag k="ssr:stedsnr" v="310308" />
	</node>
	<node id="9699718121" lat="60.657505" lon="10.6563969" version="1" timestamp="2022-04-28T06:01:28Z" changeset="120287122" uid="3497659" user="NKA">
		<tag k="name" v="Heksumengen" />
		<tag k="place" v="farm" />
		<tag k="ssr:stedsnr" v="784802" />
	</node>
	<node id="9699718122" lat="60.6565046" lon="10.6240629" version="1" timestamp="2022-04-28T06:01:28Z" changeset="120287122" uid="3497659" user="NKA">
		<tag k="name" v="Gjerdingen" />
		<tag k="place" v="farm" />
		<tag k="ssr:stedsnr" v="420820" />
	</node>
	<node id="9699718123" lat="60.6680223" lon="10.6916444" version="1" timestamp="2022-04-28T06:01:28Z" changeset="120287122" uid="3497659" user="NKA">
		<tag k="name" v="Nærsten" />
		<tag k="place" v="farm" />
		<tag k="ssr:stedsnr" v="420816" />
	</node>
	<node id="9699718124" lat="60.6709372" lon="10.6144754" version="1" timestamp="2022-04-28T06:01:28Z" changeset="120287122" uid="3497659" user="NKA">
		<tag k="name" v="Skauge" />
		<tag k="place" v="farm" />
		<tag k="ssr:stedsnr" v="238798" />
	</node>
	<node id="9699718125" lat="60.6578959" lon="10.6665873" version="1" timestamp="2022-04-28T06:01:28Z" changeset="120287122" uid="3497659" user="NKA">
		<tag k="alt_name" v="Børsvollsveen" />
		<tag k="name" v="Børsvollsvea" />
		<tag k="place" v="hamlet" />
		<tag k="ssr:stedsnr" v="128236" />
	</node>
	<node id="9699718126" lat="60.6659624" lon="10.6458012" version="1" timestamp="2022-04-28T06:01:28Z" changeset="120287122" uid="3497659" user="NKA">
		<tag k="name" v="Flaten" />
		<tag k="place" v="farm" />
		<tag k="ssr:stedsnr" v="189275" />
	</node>
	<node id="9699718127" lat="60.6891611" lon="10.6492695" version="1" timestamp="2022-04-28T06:01:28Z" changeset="120287122" uid="3497659" user="NKA">
		<tag k="name" v="Bjørge" />
		<tag k="place" v="farm" />
		<tag k="ssr:stedsnr" v="480209" />
	</node>
	<node id="9699718128" lat="60.6582343" lon="10.6419517" version="1" timestamp="2022-04-28T06:01:28Z" changeset="120287122" uid="3497659" user="NKA">
		<tag k="name" v="Dølbakken" />
		<tag k="place" v="farm" />
		<tag k="ssr:stedsnr" v="189271" />
	</node>
	<node id="9699718129" lat="60.7047984" lon="10.6539175" version="1" timestamp="2022-04-28T06:01:28Z" changeset="120287122" uid="3497659" user="NKA">
		<tag k="name" v="Grevlaus" />
		<tag k="place" v="farm" />
		<tag k="ssr:stedsnr" v="988910" />
	</node>
	<node id="9699718130" lat="60.6584057" lon="10.6363671" version="1" timestamp="2022-04-28T06:01:28Z" changeset="120287122" uid="3497659" user="NKA">
		<tag k="name" v="Stangjordet" />
		<tag k="place" v="farm" />
		<tag k="ssr:stedsnr" v="7305" />
	</node>
	<node id="9699718131" lat="60.7237656" lon="10.6555731" version="1" timestamp="2022-04-28T06:01:28Z" changeset="120287122" uid="3497659" user="NKA">
		<tag k="name" v="Løvstad" />
		<tag k="place" v="farm" />
		<tag k="ssr:stedsnr" v="917395" />
	</node>
	<node id="9699718132" lat="60.6892451" lon="10.6455352" version="1" timestamp="2022-04-28T06:01:28Z" changeset="120287122" uid="3497659" user="NKA">
		<tag k="name" v="Grønvoll" />
		<tag k="place" v="farm" />
		<tag k="ssr:stedsnr" v="56233" />
	</node>
	<node id="9699718133" lat="60.6910227" lon="10.680475" version="1" timestamp="2022-04-28T06:01:28Z" changeset="120287122" uid="3497659" user="NKA">
		<tag k="alt_name" v="Finstad" />
		<tag k="name" v="Finnstad" />
		<tag k="place" v="hamlet" />
		<tag k="ssr:stedsnr" v="917283" />
	</node>
	<node id="9699718134" lat="60.7239097" lon="10.6479321" version="1" timestamp="2022-04-28T06:01:28Z" changeset="120287122" uid="3497659" user="NKA">
		<tag k="name" v="Karsrudødegård" />
		<tag k="place" v="farm" />
		<tag k="ssr:stedsnr" v="906850" />
	</node>
	<node id="9699718135" lat="60.750757" lon="10.6707831" version="1" timestamp="2022-04-28T06:01:28Z" changeset="120287122" uid="3497659" user="NKA">
		<tag k="name" v="Nyland" />
		<tag k="place" v="farm" />
		<tag k="ssr:stedsnr" v="798116" />
	</node>
	<node id="9699718136" lat="60.7215302" lon="10.6405098" version="1" timestamp="2022-04-28T06:01:28Z" changeset="120287122" uid="3497659" user="NKA">
		<tag k="name" v="Østvoll" />
		<tag k="place" v="suburb" />
		<tag k="ssr:stedsnr" v="796431" />
	</node>
	<node id="9699718137" lat="60.7250657" lon="10.665894" version="1" timestamp="2022-04-28T06:01:28Z" changeset="120287122" uid="3497659" user="NKA">
		<tag k="name" v="Lerud" />
		<tag k="place" v="hamlet" />
		<tag k="ssr:stedsnr" v="735421" />
	</node>
	<node id="9699718138" lat="60.7452778" lon="10.6805305" version="1" timestamp="2022-04-28T06:01:28Z" changeset="120287122" uid="3497659" user="NKA">
		<tag k="name" v="Lauvlia" />
		<tag k="place" v="farm" />
		<tag k="ssr:stedsnr" v="796463" />
	</node>
	<node id="9699718139" lat="60.740998" lon="10.6811724" version="1" timestamp="2022-04-28T06:01:28Z" changeset="120287122" uid="3497659" user="NKA">
		<tag k="name" v="Jemtland" />
		<tag k="place" v="farm" />
		<tag k="ssr:stedsnr" v="674449" />
	</node>
	<node id="9699718140" lat="60.7205724" lon="10.6449206" version="1" timestamp="2022-04-28T06:01:28Z" changeset="120287122" uid="3497659" user="NKA">
		<tag k="name" v="Hermannrud" />
		<tag k="place" v="farm" />
		<tag k="ssr:stedsnr" v="674415" />
	</node>
	<node id="9699718141" lat="60.735239" lon="10.6292132" version="1" timestamp="2022-04-28T06:01:28Z" changeset="120287122" uid="3497659" user="NKA">
		<tag k="name" v="Bergsland" />
		<tag k="place" v="farm" />
		<tag k="ssr:stedsnr" v="586651" />
	</node>
	<node id="9699718142" lat="60.7423383" lon="10.6741039" version="1" timestamp="2022-04-28T06:01:28Z" changeset="120287122" uid="3497659" user="NKA">
		<tag k="name" v="Elton" />
		<tag k="place" v="hamlet" />
		<tag k="ssr:stedsnr" v="613473" />
	</node>
	<node id="9699718143" lat="60.7261222" lon="10.6675944" version="1" timestamp="2022-04-28T06:01:28Z" changeset="120287122" uid="3497659" user="NKA">
		<tag k="name" v="Lerudjordet" />
		<tag k="place" v="farm" />
		<tag k="ssr:stedsnr" v="526793" />
	</node>
	<node id="9699718144" lat="60.7117703" lon="10.6368464" version="1" timestamp="2022-04-28T06:01:28Z" changeset="120287122" uid="3497659" user="NKA">
		<tag k="name" v="Grimås" />
		<tag k="place" v="farm" />
		<tag k="ssr:stedsnr" v="613391" />
	</node>
	<node id="9699718145" lat="60.7124659" lon="10.6448919" version="1" timestamp="2022-04-28T06:01:28Z" changeset="120287122" uid="3497659" user="NKA">
		<tag k="name" v="Østeng" />
		<tag k="place" v="farm" />
		<tag k="ssr:stedsnr" v="492370" />
	</node>
	<node id="9699718146" lat="60.7422492" lon="10.6938584" version="1" timestamp="2022-04-28T06:01:28Z" changeset="120287122" uid="3497659" user="NKA">
		<tag k="alt_name" v="Markestadmyren" />
		<tag k="name" v="Markestadmyra" />
		<tag k="place" v="farm" />
		<tag k="ssr:stedsnr" v="553456" />
	</node>
	<node id="9699718147" lat="60.7121646" lon="10.6906455" version="1" timestamp="2022-04-28T06:01:28Z" changeset="120287122" uid="3497659" user="NKA">
		<tag k="alt_name" v="Thune" />
		<tag k="name" v="Tune" />
		<tag k="place" v="farm" />
		<tag k="ssr:stedsnr" v="492366" />
	</node>
	<node id="9699718148" lat="60.7021436" lon="10.6471951" version="1" timestamp="2022-04-28T06:01:28Z" changeset="120287122" uid="3497659" user="NKA">
		<tag k="name" v="Hager" />
		<tag k="place" v="farm" />
		<tag k="ssr:stedsnr" v="492382" />
	</node>
	<node id="9699718149" lat="60.7511493" lon="10.666647" version="1" timestamp="2022-04-28T06:01:28Z" changeset="120287122" uid="3497659" user="NKA">
		<tag k="alt_name" v="Flikkeshauglangen" />
		<tag k="name" v="Langen" />
		<tag k="place" v="farm" />
		<tag k="ssr:stedsnr" v="373099" />
	</node>
	<node id="9699718150" lat="60.6973762" lon="10.6669862" version="1" timestamp="2022-04-28T06:01:28Z" changeset="120287122" uid="3497659" user="NKA">
		<tag k="name" v="Øystad" />
		<tag k="place" v="farm" />
		<tag k="ssr:stedsnr" v="432332" />
	</node>
	<node id="9699718151" lat="60.7323127" lon="10.661021" version="1" timestamp="2022-04-28T06:01:28Z" changeset="120287122" uid="3497659" user="NKA">
		<tag k="name" v="Fagerlund" />
		<tag k="place" v="farm" />
		<tag k="ssr:stedsnr" v="310431" />
	</node>
	<node id="9699718152" lat="60.6907759" lon="10.6605696" version="1" timestamp="2022-04-28T06:01:28Z" changeset="120287122" uid="3497659" user="NKA">
		<tag k="alt_name" v="Stor-Kyset;Kyset" />
		<tag k="name" v="Nordøstre Kyset" />
		<tag k="place" v="farm" />
		<tag k="ssr:stedsnr" v="432296" />
	</node>
	<node id="9699718153" lat="60.7023403" lon="10.6432341" version="1" timestamp="2022-04-28T06:01:28Z" changeset="120287122" uid="3497659" user="NKA">
		<tag k="name" v="Grindstad" />
		<tag k="place" v="farm" />
		<tag k="ssr:stedsnr" v="249406" />
	</node>
	<node id="9699718154" lat="60.7055531" lon="10.6849682" version="1" timestamp="2022-04-28T06:01:28Z" changeset="120287122" uid="3497659" user="NKA">
		<tag k="name" v="Tåsås" />
		<tag k="place" v="hamlet" />
		<tag k="ssr:stedsnr" v="370445" />
	</node>
	<node id="9699718155" lat="60.7418155" lon="10.6301391" version="1" timestamp="2022-04-28T06:01:28Z" changeset="120287122" uid="3497659" user="NKA">
		<tag k="name" v="Nereng" />
		<tag k="place" v="farm" />
		<tag k="ssr:stedsnr" v="101484" />
	</node>
	<node id="9699718156" lat="60.7220826" lon="10.6269716" version="1" timestamp="2022-04-28T06:01:28Z" changeset="120287122" uid="3497659" user="NKA">
		<tag k="name" v="Korterud" />
		<tag k="place" v="farm" />
		<tag k="ssr:stedsnr" v="250428" />
	</node>
	<node id="9699718157" lat="60.6995524" lon="10.6443145" version="1" timestamp="2022-04-28T06:01:28Z" changeset="120287122" uid="3497659" user="NKA">
		<tag k="name" v="Ånnerud" />
		<tag k="place" v="farm" />
		<tag k="ssr:stedsnr" v="67383" />
	</node>
	<node id="9699718158" lat="60.7414451" lon="10.6448337" version="1" timestamp="2022-04-28T06:01:28Z" changeset="120287122" uid="3497659" user="NKA">
		<tag k="name" v="Nordre Grøthaug" />
		<tag k="place" v="farm" />
		<tag k="ssr:stedsnr" v="162013" />
	</node>
	<node id="9699718159" lat="60.7267265" lon="10.6463675" version="1" timestamp="2022-04-28T06:01:28Z" changeset="120287122" uid="3497659" user="NKA">
		<tag k="alt_name" v="Karsrud, øvre" />
		<tag k="name" v="Øvre Karsrud" />
		<tag k="place" v="farm" />
		<tag k="ssr:stedsnr" v="7430" />
	</node>
	<node id="9699718160" lat="60.7515748" lon="10.6833617" version="1" timestamp="2022-04-28T06:01:28Z" changeset="120287122" uid="3497659" user="NKA">
		<tag k="name" v="Markestad" />
		<tag k="place" v="farm" />
		<tag k="ssr:stedsnr" v="70100" />
	</node>
	<node id="9699718161" lat="60.7393885" lon="10.6270538" version="1" timestamp="2022-04-28T06:01:28Z" changeset="120287122" uid="3497659" user="NKA">
		<tag k="alt_name" v="Åkersveen" />
		<tag k="name" v="Åkersvea" />
		<tag k="place" v="farm" />
		<tag k="ssr:stedsnr" v="856505" />
	</node>
	<node id="9699718162" lat="60.7395511" lon="10.6453021" version="1" timestamp="2022-04-28T06:01:28Z" changeset="120287122" uid="3497659" user="NKA">
		<tag k="name" v="Grøthaug" />
		<tag k="place" v="hamlet" />
		<tag k="ssr:stedsnr" v="67491" />
	</node>
	<node id="9699718163" lat="60.7406833" lon="10.6589333" version="1" timestamp="2022-04-28T06:01:28Z" changeset="120287122" uid="3497659" user="NKA">
		<tag k="name" v="Vestli" />
		<tag k="place" v="locality" />
		<tag k="ssr:stedsnr" v="890551" />
	</node>
	<node id="9699718164" lat="60.6981943" lon="10.6366339" version="1" timestamp="2022-04-28T06:01:28Z" changeset="120287122" uid="3497659" user="NKA">
		<tag k="alt_name" v="Sellanrå" />
		<tag k="name" v="Sellanråd" />
		<tag k="place" v="farm" />
		<tag k="ssr:stedsnr" v="7355" />
	</node>
	<node id="9699718165" lat="60.690831" lon="10.6571879" version="1" timestamp="2022-04-28T06:01:28Z" changeset="120287122" uid="3497659" user="NKA">
		<tag k="name" v="Nordvestre Kyset" />
		<tag k="place" v="farm" />
		<tag k="ssr:stedsnr" v="723076" />
	</node>
	<node id="9699718166" lat="60.7470155" lon="10.6275793" version="1" timestamp="2022-04-28T06:01:28Z" changeset="120287122" uid="3497659" user="NKA">
		<tag k="name" v="Vestre Grøndalen" />
		<tag k="place" v="farm" />
		<tag k="ssr:stedsnr" v="891004" />
	</node>
	<node id="9699718167" lat="60.7090902" lon="10.6446633" version="1" timestamp="2022-04-28T06:01:28Z" changeset="120287122" uid="3497659" user="NKA">
		<tag k="alt_name" v="Dragerengen" />
		<tag k="name" v="Dragerenga" />
		<tag k="place" v="farm" />
		<tag k="ssr:stedsnr" v="856437" />
	</node>
	<node id="9699718168" lat="60.7156395" lon="10.6463465" version="1" timestamp="2022-04-28T06:01:28Z" changeset="120287122" uid="3497659" user="NKA">
		<tag k="name" v="Drager" />
		<tag k="place" v="farm" />
		<tag k="ssr:stedsnr" v="723827" />
	</node>
	<node id="9699718169" lat="60.7480562" lon="10.6739414" version="1" timestamp="2022-04-28T06:01:28Z" changeset="120287122" uid="3497659" user="NKA">
		<tag k="name" v="Flikkeshaug" />
		<tag k="place" v="hamlet" />
		<tag k="ssr:stedsnr" v="647673" />
	</node>
	<node id="9699718170" lat="60.7384034" lon="10.6266013" version="1" timestamp="2022-04-28T06:01:28Z" changeset="120287122" uid="3497659" user="NKA">
		<tag k="name" v="Frydenlund" />
		<tag k="place" v="farm" />
		<tag k="ssr:stedsnr" v="647482" />
	</node>
	<node id="9699718171" lat="60.7333607" lon="10.6624376" version="1" timestamp="2022-04-28T06:01:28Z" changeset="120287122" uid="3497659" user="NKA">
		<tag k="name" v="Lerudmyra" />
		<tag k="place" v="farm" />
		<tag k="ssr:stedsnr" v="512829" />
	</node>
	<node id="9699718172" lat="60.7163834" lon="10.6202916" version="1" timestamp="2022-04-28T06:01:28Z" changeset="120287122" uid="3497659" user="NKA">
		<tag k="name" v="Grimåsfeltet" />
		<tag k="place" v="suburb" />
		<tag k="ssr:stedsnr" v="508767" />
	</node>
	<node id="9699718173" lat="60.7457272" lon="10.6748665" version="1" timestamp="2022-04-28T06:01:28Z" changeset="120287122" uid="3497659" user="NKA">
		<tag k="name" v="Søndre Flikkeshaug" />
		<tag k="place" v="farm" />
		<tag k="ssr:stedsnr" v="405683" />
	</node>
	<node id="9699718174" lat="60.6936447" lon="10.6252829" version="1" timestamp="2022-04-28T06:01:28Z" changeset="120287122" uid="3497659" user="NKA">
		<tag k="name" v="Ringelien" />
		<tag k="place" v="farm" />
		<tag k="ssr:stedsnr" v="466417" />
	</node>
	<node id="9699718175" lat="60.7449912" lon="10.6508878" version="1" timestamp="2022-04-28T06:01:28Z" changeset="120287122" uid="3497659" user="NKA">
		<tag k="name" v="Vestre Drengsrud" />
		<tag k="place" v="farm" />
		<tag k="ssr:stedsnr" v="284004" />
	</node>
	<node id="9699718176" lat="60.6979251" lon="10.6466942" version="1" timestamp="2022-04-28T06:01:28Z" changeset="120287122" uid="3497659" user="NKA">
		<tag k="name" v="Eng" />
		<tag k="place" v="farm" />
		<tag k="ssr:stedsnr" v="371340" />
	</node>
	<node id="9699718177" lat="60.7249805" lon="10.6364029" version="1" timestamp="2022-04-28T06:01:28Z" changeset="120287122" uid="3497659" user="NKA">
		<tag k="name" v="Øvre Karsrudskogen" />
		<tag k="place" v="farm" />
		<tag k="ssr:stedsnr" v="420841" />
	</node>
	<node id="9699718178" lat="60.7323791" lon="10.6812551" version="1" timestamp="2022-04-28T06:01:28Z" changeset="120287122" uid="3497659" user="NKA">
		<tag k="name" v="Torstad" />
		<tag k="place" v="farm" />
		<tag k="ssr:stedsnr" v="250410" />
	</node>
	<node id="9699718179" lat="60.7489314" lon="10.6707617" version="1" timestamp="2022-04-28T06:01:28Z" changeset="120287122" uid="3497659" user="NKA">
		<tag k="name" v="Nordre Flikkeshaug" />
		<tag k="place" v="farm" />
		<tag k="ssr:stedsnr" v="223695" />
	</node>
	<node id="9699718180" lat="60.7234377" lon="10.6402231" version="1" timestamp="2022-04-28T06:01:28Z" changeset="120287122" uid="3497659" user="NKA">
		<tag k="name" v="Solhaug" />
		<tag k="place" v="farm" />
		<tag k="ssr:stedsnr" v="420843" />
	</node>
	<node id="9699718181" lat="60.6993854" lon="10.628933" version="1" timestamp="2022-04-28T06:01:28Z" changeset="120287122" uid="3497659" user="NKA">
		<tag k="name" v="Morterud" />
		<tag k="place" v="farm" />
		<tag k="ssr:stedsnr" v="189331" />
	</node>
	<node id="9699718182" lat="60.750965" lon="10.6312073" version="1" timestamp="2022-04-28T06:01:28Z" changeset="120287122" uid="3497659" user="NKA">
		<tag k="name" v="Bratland" />
		<tag k="place" v="farm" />
		<tag k="ssr:stedsnr" v="344434" />
	</node>
	<node id="9699718183" lat="60.5695634" lon="10.5643101" version="1" timestamp="2022-04-28T06:01:28Z" changeset="120287122" uid="3497659" user="NKA">
		<tag k="alt_name" v="Sønsteby" />
		<tag k="name" v="Nordre Sønsteby" />
		<tag k="place" v="farm" />
		<tag k="ssr:stedsnr" v="613145" />
	</node>
	<node id="9699718184" lat="60.6528037" lon="10.5258524" version="1" timestamp="2022-04-28T06:01:28Z" changeset="120287122" uid="3497659" user="NKA">
		<tag k="alt_name" v="Sørlien" />
		<tag k="name" v="Sørlia" />
		<tag k="place" v="farm" />
		<tag k="ssr:stedsnr" v="917208" />
	</node>
	<node id="9699718185" lat="60.5842389" lon="10.5768138" version="1" timestamp="2022-04-28T06:01:28Z" changeset="120287122" uid="3497659" user="NKA">
		<tag k="name" v="Korsen" />
		<tag k="place" v="farm" />
		<tag k="ssr:stedsnr" v="492121" />
	</node>
	<node id="9699718186" lat="60.6397211" lon="10.5660811" version="1" timestamp="2022-04-28T06:01:28Z" changeset="120287122" uid="3497659" user="NKA">
		<tag k="alt_name" v="Storhaugstuen" />
		<tag k="name" v="Storhaugstugua" />
		<tag k="place" v="farm" />
		<tag k="ssr:stedsnr" v="432218" />
	</node>
	<node id="9699718187" lat="60.6375538" lon="10.5663602" version="1" timestamp="2022-04-28T06:01:28Z" changeset="120287122" uid="3497659" user="NKA">
		<tag k="name" v="Storhaugen" />
		<tag k="place" v="hamlet" />
		<tag k="ssr:stedsnr" v="128201" />
	</node>
	<node id="9699718188" lat="60.5728894" lon="10.5668733" version="1" timestamp="2022-04-28T06:01:28Z" changeset="120287122" uid="3497659" user="NKA">
		<tag k="name" v="Solberg" />
		<tag k="place" v="farm" />
		<tag k="ssr:stedsnr" v="431171" />
	</node>
	<node id="9699718189" lat="60.5602916" lon="10.5610882" version="1" timestamp="2022-04-28T06:01:28Z" changeset="120287122" uid="3497659" user="NKA">
		<tag k="name" v="Rognlia" />
		<tag k="place" v="farm" />
		<tag k="ssr:stedsnr" v="7125" />
	</node>
	<node id="9699718190" lat="60.5678138" lon="10.5620254" version="1" timestamp="2022-04-28T06:01:28Z" changeset="120287122" uid="3497659" user="NKA">
		<tag k="alt_name" v="Søndre Sønsteby" />
		<tag k="name" v="Sørgard" />
		<tag k="place" v="farm" />
		<tag k="ssr:stedsnr" v="856132" />
	</node>
	<node id="9699718191" lat="60.6217731" lon="10.5796705" version="1" timestamp="2022-04-28T06:01:28Z" changeset="120287122" uid="3497659" user="NKA">
		<tag k="name" v="Strømstad" />
		<tag k="place" v="farm" />
		<tag k="ssr:stedsnr" v="613210" />
	</node>
	<node id="9699718192" lat="60.5686732" lon="10.5584465" version="1" timestamp="2022-04-28T06:01:28Z" changeset="120287122" uid="3497659" user="NKA">
		<tag k="alt_name" v="Vesteren" />
		<tag k="name" v="Vestern" />
		<tag k="place" v="farm" />
		<tag k="ssr:stedsnr" v="370184" />
	</node>
	<node id="9699718193" lat="60.6528399" lon="10.5148663" version="1" timestamp="2022-04-28T06:01:28Z" changeset="120287122" uid="3497659" user="NKA">
		<tag k="name" v="Furuset" />
		<tag k="place" v="hamlet" />
		<tag k="ssr:stedsnr" v="432242" />
	</node>
	<node id="9699718194" lat="60.5841859" lon="10.5647073" version="1" timestamp="2022-04-28T06:01:28Z" changeset="120287122" uid="3497659" user="NKA">
		<tag k="name" v="Kjelsberg" />
		<tag k="place" v="farm" />
		<tag k="ssr:stedsnr" v="218567" />
	</node>
	<node id="9699718195" lat="60.59145" lon="10.5622833" version="1" timestamp="2022-04-28T06:01:28Z" changeset="120287122" uid="3497659" user="NKA">
		<tag k="name" v="Skjellsveen" />
		<tag k="place" v="farm" />
		<tag k="ssr:stedsnr" v="282583" />
	</node>
	<node id="9699718196" lat="60.6685268" lon="10.6041348" version="1" timestamp="2022-04-28T06:01:28Z" changeset="120287122" uid="3497659" user="NKA">
		<tag k="alt_name" v="Voldengen" />
		<tag k="name" v="Vollenga" />
		<tag k="place" v="farm" />
		<tag k="ssr:stedsnr" v="795332" />
	</node>
	<node id="9699718197" lat="60.5700693" lon="10.5693203" version="1" timestamp="2022-04-28T06:01:28Z" changeset="120287122" uid="3497659" user="NKA">
		<tag k="name" v="Ringstad" />
		<tag k="place" v="farm" />
		<tag k="ssr:stedsnr" v="128113" />
	</node>
	<node id="9699718198" lat="60.6744591" lon="10.6910633" version="1" timestamp="2022-04-28T06:01:28Z" changeset="120287122" uid="3497659" user="NKA">
		<tag k="alt_name" v="Øfstås" />
		<tag k="name" v="Øvstås" />
		<tag k="old_name" v="Øfstaas;Øvstaas" />
		<tag k="place" v="hamlet" />
		<tag k="ssr:stedsnr" v="492267" />
	</node>
	<node id="9699718199" lat="60.6105382" lon="10.6412786" version="1" timestamp="2022-04-28T06:01:28Z" changeset="120287122" uid="3497659" user="NKA">
		<tag k="name" v="Vestre Blilie" />
		<tag k="place" v="farm" />
		<tag k="ssr:stedsnr" v="830073" />
	</node>
	<node id="9699718200" lat="60.5370234" lon="10.6576851" version="1" timestamp="2022-04-28T06:01:28Z" changeset="120287122" uid="3497659" user="NKA">
		<tag k="name" v="Gårder" />
		<tag k="place" v="farm" />
		<tag k="ssr:stedsnr" v="214567" />
	</node>
	<node id="9699718201" lat="60.7377896" lon="10.6984477" version="1" timestamp="2022-04-28T06:01:28Z" changeset="120287122" uid="3497659" user="NKA">
		<tag k="alt_name" v="Li, vestre" />
		<tag k="name" v="Vestre Li" />
		<tag k="place" v="farm" />
		<tag k="ssr:stedsnr" v="250461" />
	</node>
	<node id="9699718202" lat="60.6582371" lon="10.5180039" version="1" timestamp="2022-04-28T06:01:28Z" changeset="120287122" uid="3497659" user="NKA">
		<tag k="name" v="Furuly" />
		<tag k="place" v="farm" />
		<tag k="ssr:stedsnr" v="735247" />
	</node>
	<node id="9699718203" lat="60.6502961" lon="10.5312328" version="1" timestamp="2022-04-28T06:01:28Z" changeset="120287122" uid="3497659" user="NKA">
		<tag k="name" v="Smørstad" />
		<tag k="place" v="farm" />
		<tag k="ssr:stedsnr" v="613247" />
	</node>
	<node id="9699718204" lat="60.6893081" lon="10.6602912" version="1" timestamp="2022-04-28T06:01:28Z" changeset="120287122" uid="3497659" user="NKA">
		<tag k="name" v="Kyset" />
		<tag k="place" v="hamlet" />
		<tag k="ssr:stedsnr" v="988912" />
	</node>
	<node id="9699718205" lat="60.6702639" lon="10.5559749" version="1" timestamp="2022-04-28T06:01:28Z" changeset="120287122" uid="3497659" user="NKA">
		<tag k="name" v="Sæterbakken" />
		<tag k="old_name" v="Bakkeli" />
		<tag k="place" v="farm" />
		<tag k="ssr:stedsnr" v="552320" />
	</node>
	<node id="9699718206" lat="60.72585" lon="10.5826334" version="1" timestamp="2022-04-28T06:01:28Z" changeset="120287122" uid="3497659" user="NKA">
		<tag k="name" v="Løvlien" />
		<tag k="place" v="neighbourhood" />
		<tag k="ssr:stedsnr" v="587930" />
	</node>
	<node id="9699718207" lat="60.7043107" lon="10.7536366" version="1" timestamp="2022-04-28T06:01:28Z" changeset="120287122" uid="3497659" user="NKA">
		<tag k="alt_name" v="Stenberg" />
		<tag k="name" v="Steinberg" />
		<tag k="place" v="hamlet" />
		<tag k="ssr:stedsnr" v="917937" />
	</node>
	<node id="9699718208" lat="60.7165778" lon="10.6286222" version="1" timestamp="2022-04-28T06:01:28Z" changeset="120287122" uid="3497659" user="NKA">
		<tag k="name" v="Skogsrud" />
		<tag k="place" v="farm" />
		<tag k="ssr:stedsnr" v="674370" />
	</node>
	<node id="9699718209" lat="60.6576262" lon="10.5999717" version="1" timestamp="2022-04-28T06:01:28Z" changeset="120287122" uid="3497659" user="NKA">
		<tag k="name" v="Børthus" />
		<tag k="place" v="farm" />
		<tag k="ssr:stedsnr" v="674242" />
	</node>
	<node id="9699718210" lat="60.6784137" lon="10.7047848" version="1" timestamp="2022-04-28T06:01:28Z" changeset="120287122" uid="3497659" user="NKA">
		<tag k="name" v="Kallerud" />
		<tag k="place" v="farm" />
		<tag k="ssr:stedsnr" v="613338" />
	</node>
	<node id="9699718211" lat="60.711021" lon="10.7402716" version="1" timestamp="2022-04-28T06:01:28Z" changeset="120287122" uid="3497659" user="NKA">
		<tag k="name" v="Husbystuen" />
		<tag k="place" v="farm" />
		<tag k="ssr:stedsnr" v="329676" />
	</node>
	<node id="9699718212" lat="60.6594465" lon="10.5204662" version="1" timestamp="2022-04-28T06:01:28Z" changeset="120287122" uid="3497659" user="NKA">
		<tag k="name" v="Furusethagen" />
		<tag k="place" v="farm" />
		<tag k="ssr:stedsnr" v="431327" />
	</node>
	<node id="9699718213" lat="60.6804173" lon="10.5877224" version="1" timestamp="2022-04-28T06:01:28Z" changeset="120287122" uid="3497659" user="NKA">
		<tag k="name" v="Danielrud" />
		<tag k="place" v="farm" />
		<tag k="ssr:stedsnr" v="310343" />
	</node>
	<node id="9699718214" lat="60.7069611" lon="10.7281694" version="1" timestamp="2022-04-28T06:01:28Z" changeset="120287122" uid="3497659" user="NKA">
		<tag k="name" v="Østby" />
		<tag k="place" v="farm" />
		<tag k="ssr:stedsnr" v="511657" />
	</node>
	<node id="9699718215" lat="60.6781277" lon="10.7162163" version="1" timestamp="2022-04-28T06:01:28Z" changeset="120287122" uid="3497659" user="NKA">
		<tag k="name" v="Holtstein" />
		<tag k="place" v="farm" />
		<tag k="ssr:stedsnr" v="934724" />
	</node>
	<node id="9699718216" lat="60.643588" lon="10.6011916" version="1" timestamp="2022-04-28T06:01:28Z" changeset="120287122" uid="3497659" user="NKA">
		<tag k="alt_name" v="Vestre Gamme" />
		<tag k="name" v="Gamme" />
		<tag k="place" v="farm" />
		<tag k="ssr:stedsnr" v="691743" />
	</node>
	<node id="9699718217" lat="60.7373427" lon="10.7039284" version="1" timestamp="2022-04-28T06:01:28Z" changeset="120287122" uid="3497659" user="NKA">
		<tag k="alt_name" v="Sveen" />
		<tag k="name" v="Svea" />
		<tag k="place" v="farm" />
		<tag k="ssr:stedsnr" v="735453" />
	</node>
	<node id="9699718218" lat="60.6679084" lon="10.7076479" version="1" timestamp="2022-04-28T06:01:28Z" changeset="120287122" uid="3497659" user="NKA">
		<tag k="name" v="Jordet" />
		<tag k="place" v="farm" />
		<tag k="ssr:stedsnr" v="966828" />
	</node>
	<node id="9699718219" lat="60.7086349" lon="10.7408453" version="1" timestamp="2022-04-28T06:01:28Z" changeset="120287122" uid="3497659" user="NKA">
		<tag k="alt_name" v="Eriksrud;Eriksrud, s" />
		<tag k="name" v="Søndre Eriksrud" />
		<tag k="place" v="farm" />
		<tag k="ssr:stedsnr" v="128937" />
	</node>
	<node id="9699718220" lat="60.7090275" lon="10.5798214" version="1" timestamp="2022-04-28T06:01:28Z" changeset="120287122" uid="3497659" user="NKA">
		<tag k="name" v="Rosetenga" />
		<tag k="place" v="farm" />
		<tag k="ssr:stedsnr" v="795457" />
	</node>
	<node id="9699718221" lat="60.7206323" lon="10.7432023" version="1" timestamp="2022-04-28T06:01:28Z" changeset="120287122" uid="3497659" user="NKA">
		<tag k="name" v="Svartås" />
		<tag k="place" v="hamlet" />
		<tag k="ssr:stedsnr" v="988909" />
	</node>
	<node id="9699718222" lat="60.6773038" lon="10.7234461" version="1" timestamp="2022-04-28T06:01:28Z" changeset="120287122" uid="3497659" user="NKA">
		<tag k="name" v="Holtebråten" />
		<tag k="place" v="farm" />
		<tag k="ssr:stedsnr" v="269046" />
	</node>
	<node id="9699718223" lat="60.5866603" lon="10.5648893" version="1" timestamp="2022-04-28T06:01:28Z" changeset="120287122" uid="3497659" user="NKA">
		<tag k="alt_name" v="Nordengen" />
		<tag k="name" v="Nordenga" />
		<tag k="place" v="farm" />
		<tag k="ssr:stedsnr" v="735171" />
	</node>
	<node id="9699718224" lat="60.7114733" lon="10.6767474" version="1" timestamp="2022-04-28T06:01:28Z" changeset="120287122" uid="3497659" user="NKA">
		<tag k="name" v="Malterud" />
		<tag k="place" v="farm" />
		<tag k="ssr:stedsnr" v="128352" />
	</node>
	<node id="9699718225" lat="60.6952501" lon="10.6136677" version="1" timestamp="2022-04-28T06:01:28Z" changeset="120287122" uid="3497659" user="NKA">
		<tag k="alt_name" v="Finrøstø" />
		<tag k="name" v="Finnrøste" />
		<tag k="old_name" v="Myre" />
		<tag k="place" v="farm" />
		<tag k="ssr:stedsnr" v="674336" />
	</node>
	<node id="9699718226" lat="60.7061193" lon="10.581914" version="1" timestamp="2022-04-28T06:01:28Z" changeset="120287122" uid="3497659" user="NKA">
		<tag k="name" v="Bakke" />
		<tag k="place" v="farm" />
		<tag k="ssr:stedsnr" v="917371" />
	</node>
	<node id="9699718227" lat="60.5886087" lon="10.6458752" version="1" timestamp="2022-04-28T06:01:28Z" changeset="120287122" uid="3497659" user="NKA">
		<tag k="name" v="Bjørnerud" />
		<tag k="place" v="hamlet" />
		<tag k="ssr:stedsnr" v="492130" />
	</node>
	<node id="9699718228" lat="60.7186043" lon="10.644222" version="1" timestamp="2022-04-28T06:01:28Z" changeset="120287122" uid="3497659" user="NKA">
		<tag k="alt_name" v="Nedre Karsrud" />
		<tag k="name" v="Karsrud" />
		<tag k="place" v="farm" />
		<tag k="ssr:stedsnr" v="735377" />
	</node>
	<node id="9699718229" lat="60.5494295" lon="10.655091" version="1" timestamp="2022-04-28T06:01:28Z" changeset="120287122" uid="3497659" user="NKA">
		<tag k="alt_name" v="Hegernes, nedre;Hegernes" />
		<tag k="name" v="Nedre Hegernes" />
		<tag k="place" v="farm" />
		<tag k="ssr:stedsnr" v="432106" />
	</node>
	<node id="9699718230" lat="60.6729209" lon="10.4984938" version="1" timestamp="2022-04-28T06:01:28Z" changeset="120287122" uid="3497659" user="NKA">
		<tag k="alt_name" v="Storsveen" />
		<tag k="name" v="Storsvea" />
		<tag k="place" v="farm" />
		<tag k="ssr:stedsnr" v="613288" />
	</node>
	<node id="9699718231" lat="60.6420185" lon="10.5994507" version="1" timestamp="2022-04-28T06:01:28Z" changeset="120287122" uid="3497659" user="NKA">
		<tag k="alt_name" v="Fiskevoll" />
		<tag k="name" v="Fiskevollen" />
		<tag k="place" v="hamlet" />
		<tag k="ssr:stedsnr" v="249275" />
	</node>
	<node id="9699718232" lat="60.5828163" lon="10.6223906" version="1" timestamp="2022-04-28T06:01:28Z" changeset="120287122" uid="3497659" user="NKA">
		<tag k="alt_name" v="Gråsten" />
		<tag k="name" v="Gråstein" />
		<tag k="place" v="farm" />
		<tag k="ssr:stedsnr" v="310146" />
	</node>
	<node id="9699718233" lat="60.5858555" lon="10.6136417" version="1" timestamp="2022-04-28T06:01:28Z" changeset="120287122" uid="3497659" user="NKA">
		<tag k="name" v="Jutulrudbakken" />
		<tag k="place" v="farm" />
		<tag k="ssr:stedsnr" v="128145" />
	</node>
	<node id="9699718234" lat="60.7205181" lon="10.5501995" version="1" timestamp="2022-04-28T06:01:28Z" changeset="120287122" uid="3497659" user="NKA">
		<tag k="name" v="Bjørklund" />
		<tag k="place" v="farm" />
		<tag k="ssr:stedsnr" v="162936" />
	</node>
	<node id="9699718235" lat="60.72095" lon="10.5478167" version="1" timestamp="2022-04-28T06:01:28Z" changeset="120287122" uid="3497659" user="NKA">
		<tag k="alt_name" v="Bradal, n" />
		<tag k="name" v="Nordre Bradal" />
		<tag k="place" v="farm" />
		<tag k="ssr:stedsnr" v="68443" />
	</node>
	<node id="9699718236" lat="60.6177894" lon="10.6112981" version="1" timestamp="2022-04-28T06:01:28Z" changeset="120287122" uid="3497659" user="NKA">
		<tag k="name" v="Nysveen" />
		<tag k="place" v="farm" />
		<tag k="ssr:stedsnr" v="101075" />
	</node>
	<node id="9699718237" lat="60.6689111" lon="10.5000528" version="1" timestamp="2022-04-28T06:01:28Z" changeset="120287122" uid="3497659" user="NKA">
		<tag k="alt_name" v="Ringelien" />
		<tag k="name" v="Ringelia" />
		<tag k="place" v="farm" />
		<tag k="ssr:stedsnr" v="7285" />
	</node>
	<node id="9699718238" lat="60.647272" lon="10.6573982" version="1" timestamp="2022-04-28T06:01:28Z" changeset="120287122" uid="3497659" user="NKA">
		<tag k="name" v="Lier" />
		<tag k="place" v="farm" />
		<tag k="ssr:stedsnr" v="7278" />
	</node>
	<node id="9699718239" lat="60.6886781" lon="10.6427908" version="1" timestamp="2022-04-28T06:01:28Z" changeset="120287122" uid="3497659" user="NKA">
		<tag k="alt_name" v="Kysethengen" />
		<tag k="name" v="Kysetenga" />
		<tag k="place" v="farm" />
		<tag k="ssr:stedsnr" v="7315" />
	</node>
	<node id="9699718240" lat="60.5684778" lon="10.567189" version="1" timestamp="2022-04-28T06:01:28Z" changeset="120287122" uid="3497659" user="NKA">
		<tag k="alt_name" v="Østre Sønsteby" />
		<tag k="name" v="Østgard" />
		<tag k="place" v="farm" />
		<tag k="ssr:stedsnr" v="7148" />
	</node>
	<node id="9699718241" lat="60.7126721" lon="10.6294844" version="1" timestamp="2022-04-28T06:01:28Z" changeset="120287122" uid="3497659" user="NKA">
		<tag k="alt_name" v="Nærby" />
		<tag k="name" v="Nerby" />
		<tag k="place" v="farm" />
		<tag k="ssr:stedsnr" v="6416" />
	</node>
	<node id="9699718242" lat="60.7073" lon="10.74705" version="1" timestamp="2022-04-28T06:01:28Z" changeset="120287122" uid="3497659" user="NKA">
		<tag k="name" v="Roland" />
		<tag k="place" v="farm" />
		<tag k="ssr:stedsnr" v="389685" />
	</node>
	<node id="9699718243" lat="60.5752519" lon="10.5673693" version="1" timestamp="2022-04-28T06:01:28Z" changeset="120287122" uid="3497659" user="NKA">
		<tag k="name" v="Bjerkvoll" />
		<tag k="place" v="farm" />
		<tag k="ssr:stedsnr" v="674151" />
	</node>
	<node id="9699718244" lat="60.5492243" lon="10.6600454" version="1" timestamp="2022-04-28T06:01:28Z" changeset="120287122" uid="3497659" user="NKA">
		<tag k="name" v="Hegernes" />
		<tag k="place" v="hamlet" />
		<tag k="ssr:stedsnr" v="933338" />
	</node>
	<node id="9699718245" lat="60.5700745" lon="10.5643685" version="1" timestamp="2022-04-28T06:01:28Z" changeset="120287122" uid="3497659" user="NKA">
		<tag k="name" v="Sønstebygrenda" />
		<tag k="place" v="hamlet" />
		<tag k="ssr:stedsnr" v="128116" />
	</node>
	<node id="9699718246" lat="60.6999831" lon="10.6727299" version="1" timestamp="2022-04-28T06:01:28Z" changeset="120287122" uid="3497659" user="NKA">
		<tag k="alt_name" v="Nerbrott" />
		<tag k="name" v="Nybrott" />
		<tag k="place" v="farm" />
		<tag k="ssr:stedsnr" v="7359" />
	</node>
	<node id="9699718247" lat="60.7385227" lon="10.6185293" version="1" timestamp="2022-04-28T06:01:28Z" changeset="120287122" uid="3497659" user="NKA">
		<tag k="alt_name" v="Finsveen" />
		<tag k="name" v="Finnsvea" />
		<tag k="place" v="farm" />
		<tag k="ssr:stedsnr" v="917414" />
	</node>
	<node id="9699718248" lat="60.7290315" lon="10.6617014" version="1" timestamp="2022-04-28T06:01:28Z" changeset="120287122" uid="3497659" user="NKA">
		<tag k="name" v="Lerudbakken" />
		<tag k="place" v="farm" />
		<tag k="ssr:stedsnr" v="7418" />
	</node>
	<node id="9699718249" lat="60.7451287" lon="10.6053815" version="1" timestamp="2022-04-28T06:01:28Z" changeset="120287122" uid="3497659" user="NKA">
		<tag k="alt_name" v="Napstad, øvre" />
		<tag k="name" v="Øvre Napstad" />
		<tag k="place" v="locality" />
		<tag k="ssr:stedsnr" v="856502" />
	</node>
	<node id="9699718250" lat="60.6493976" lon="10.6766191" version="1" timestamp="2022-04-28T06:01:28Z" changeset="120287122" uid="3497659" user="NKA">
		<tag k="name" v="Kjelsberg" />
		<tag k="place" v="farm" />
		<tag k="ssr:stedsnr" v="856281" />
	</node>
	<node id="9699718251" lat="60.5486429" lon="10.665664" version="1" timestamp="2022-04-28T06:01:28Z" changeset="120287122" uid="3497659" user="NKA">
		<tag k="alt_name" v="Hegernes, øvre;Hegernes" />
		<tag k="name" v="Øvre Hegernes" />
		<tag k="place" v="farm" />
		<tag k="ssr:stedsnr" v="432109" />
	</node>
	<node id="9699718252" lat="60.7022528" lon="10.5185989" version="1" timestamp="2022-04-28T06:01:28Z" changeset="120287122" uid="3497659" user="NKA">
		<tag k="name" v="Rognlihaughytta" />
		<tag k="place" v="locality" />
		<tag k="ssr:stedsnr" v="1076450" />
	</node>
	<node id="9699718253" lat="60.7141508" lon="10.6869627" version="1" timestamp="2022-04-28T06:01:28Z" changeset="120287122" uid="3497659" user="NKA">
		<tag k="alt_name" v="Malterud, velt;Lille Malterud" />
		<tag k="name" v="Velt-Malterud" />
		<tag k="place" v="farm" />
		<tag k="ssr:stedsnr" v="310388" />
	</node>
	<node id="9699718254" lat="60.590203" lon="10.6115743" version="1" timestamp="2022-04-28T06:01:28Z" changeset="120287122" uid="3497659" user="NKA">
		<tag k="name" v="Jutulrud" />
		<tag k="old_name" v="Juterud" />
		<tag k="place" v="hamlet" />
		<tag k="ssr:stedsnr" v="310161" />
	</node>
	<node id="9699718255" lat="60.5838408" lon="10.5621763" version="1" timestamp="2022-04-28T06:01:28Z" changeset="120287122" uid="3497659" user="NKA">
		<tag k="alt_name" v="Skreppen" />
		<tag k="name" v="Skreppa" />
		<tag k="place" v="farm" />
		<tag k="ssr:stedsnr" v="310149" />
	</node>
	<node id="9699718256" lat="60.6360334" lon="10.659714" version="1" timestamp="2022-04-28T06:01:28Z" changeset="120287122" uid="3497659" user="NKA">
		<tag k="alt_name" v="Sivesindtajet" />
		<tag k="name" v="Sivesintajet" />
		<tag k="place" v="farm" />
		<tag k="ssr:stedsnr" v="310206" />
	</node>
	<node id="9699718257" lat="60.6857902" lon="10.6753027" version="1" timestamp="2022-04-28T06:01:28Z" changeset="120287122" uid="3497659" user="NKA">
		<tag k="name" v="Rønås" />
		<tag k="place" v="farm" />
		<tag k="ssr:stedsnr" v="492291" />
	</node>
	<node id="9699718258" lat="60.6362009" lon="10.6300586" version="1" timestamp="2022-04-28T06:01:28Z" changeset="120287122" uid="3497659" user="NKA">
		<tag k="name" v="Nordre Romshus" />
		<tag k="place" v="farm" />
		<tag k="ssr:stedsnr" v="116948" />
	</node>
	<node id="9699718259" lat="60.6499278" lon="10.6718055" version="1" timestamp="2022-04-28T06:01:28Z" changeset="120287122" uid="3497659" user="NKA">
		<tag k="alt_name" v="Asplund" />
		<tag k="name" v="Aspelund" />
		<tag k="place" v="farm" />
		<tag k="ssr:stedsnr" v="310240" />
	</node>
	<node id="9699718260" lat="60.7129351" lon="10.6925521" version="1" timestamp="2022-04-28T06:01:28Z" changeset="120287122" uid="3497659" user="NKA">
		<tag k="name" v="Fåreng" />
		<tag k="place" v="farm" />
		<tag k="ssr:stedsnr" v="613387" />
	</node>
	<node id="9699718261" lat="60.6984972" lon="10.7096681" version="1" timestamp="2022-04-28T06:01:28Z" changeset="120287122" uid="3497659" user="NKA">
		<tag k="name" v="Lyngås" />
		<tag k="place" v="farm" />
		<tag k="ssr:stedsnr" v="905010" />
	</node>
	<node id="9699718262" lat="60.7514806" lon="10.6971783" version="1" timestamp="2022-04-28T06:01:28Z" changeset="120287122" uid="3497659" user="NKA">
		<tag k="name" v="Hjelpstein" />
		<tag k="place" v="farm" />
		<tag k="ssr:stedsnr" v="373098" />
	</node>
	<node id="9699718263" lat="60.6823327" lon="10.7485612" version="1" timestamp="2022-04-28T06:01:28Z" changeset="120287122" uid="3497659" user="NKA">
		<tag k="alt_name" v="Listerud" />
		<tag k="name" v="Lesterud" />
		<tag k="place" v="farm" />
		<tag k="ssr:stedsnr" v="917978" />
	</node>
	<node id="9699718264" lat="60.5325326" lon="10.6670104" version="1" timestamp="2022-04-28T06:01:28Z" changeset="120287122" uid="3497659" user="NKA">
		<tag k="name" v="Hvalstad" />
		<tag k="place" v="farm" />
		<tag k="ssr:stedsnr" v="389748" />
	</node>
	<node id="9699718265" lat="60.5586338" lon="10.6573382" version="1" timestamp="2022-04-28T06:01:28Z" changeset="120287122" uid="3497659" user="NKA">
		<tag k="name" v="Mjørlund" />
		<tag k="place" v="hamlet" />
		<tag k="ssr:stedsnr" v="917109" />
	</node>
	<node id="9699718266" lat="60.5546357" lon="10.6273372" version="1" timestamp="2022-04-28T06:01:28Z" changeset="120287122" uid="3497659" user="NKA">
		<tag k="name" v="Tomlevoll" />
		<tag k="place" v="isolated_dwelling" />
		<tag k="ssr:stedsnr" v="751789" />
	</node>
	<node id="9699718267" lat="60.5686277" lon="10.5572222" version="1" timestamp="2022-04-28T06:01:28Z" changeset="120287122" uid="3497659" user="NKA">
		<tag k="name" v="Skogsrud" />
		<tag k="place" v="farm" />
		<tag k="ssr:stedsnr" v="735127" />
	</node>
	<node id="9699718268" lat="60.6938531" lon="10.7487473" version="1" timestamp="2022-04-28T06:01:28Z" changeset="120287122" uid="3497659" user="NKA">
		<tag k="name" v="Kverndalen" />
		<tag k="place" v="farm" />
		<tag k="ssr:stedsnr" v="674941" />
	</node>
	<node id="9699718269" lat="60.695229" lon="10.7271706" version="1" timestamp="2022-04-28T06:01:28Z" changeset="120287122" uid="3497659" user="NKA">
		<tag k="name" v="Tjernholm" />
		<tag k="place" v="farm" />
		<tag k="ssr:stedsnr" v="796953" />
	</node>
	<node id="9699718270" lat="60.686172" lon="10.7459457" version="1" timestamp="2022-04-28T06:01:28Z" changeset="120287122" uid="3497659" user="NKA">
		<tag k="name" v="Evenrud" />
		<tag k="place" v="farm" />
		<tag k="ssr:stedsnr" v="250952" />
	</node>
	<node id="9699718271" lat="60.6058416" lon="10.6603469" version="1" timestamp="2022-04-28T06:01:28Z" changeset="120287122" uid="3497659" user="NKA">
		<tag k="name" v="Vegli" />
		<tag k="place" v="farm" />
		<tag k="ssr:stedsnr" v="586182" />
	</node>
	<node id="9699718272" lat="60.6747778" lon="10.6689118" version="1" timestamp="2022-04-28T06:01:28Z" changeset="120287122" uid="3497659" user="NKA">
		<tag k="name" v="Rud" />
		<tag k="place" v="farm" />
		<tag k="ssr:stedsnr" v="249295" />
	</node>
	<node id="9699718273" lat="60.6984219" lon="10.7405346" version="1" timestamp="2022-04-28T06:01:28Z" changeset="120287122" uid="3497659" user="NKA">
		<tag k="name" v="Løken" />
		<tag k="place" v="farm" />
		<tag k="ssr:stedsnr" v="268664" />
	</node>
	<node id="9699718274" lat="60.6017521" lon="10.6812813" version="1" timestamp="2022-04-28T06:01:28Z" changeset="120287122" uid="3497659" user="NKA">
		<tag k="name" v="Solli" />
		<tag k="place" v="farm" />
		<tag k="ssr:stedsnr" v="936596" />
	</node>
	<node id="9699718275" lat="60.7327472" lon="10.622475" version="1" timestamp="2022-04-28T06:01:28Z" changeset="120287122" uid="3497659" user="NKA">
		<tag k="name" v="Vestrumenga" />
		<tag k="place" v="suburb" />
		<tag k="ssr:stedsnr" v="934722" />
	</node>
	<node id="9699718276" lat="60.5947864" lon="10.5811054" version="1" timestamp="2022-04-28T06:01:28Z" changeset="120287122" uid="3497659" user="NKA">
		<tag k="name" v="Sætra" />
		<tag k="place" v="farm" />
		<tag k="ssr:stedsnr" v="735172" />
	</node>
	<node id="9699718277" lat="60.6487052" lon="10.64972" version="1" timestamp="2022-04-28T06:01:28Z" changeset="120287122" uid="3497659" user="NKA">
		<tag k="alt_name" v="Sivesind" />
		<tag k="name" v="Sivesin" />
		<tag k="place" v="hamlet" />
		<tag k="ssr:stedsnr" v="735266" />
	</node>
	<node id="9699718278" lat="60.7081849" lon="10.7439019" version="1" timestamp="2022-04-28T06:01:28Z" changeset="120287122" uid="3497659" user="NKA">
		<tag k="name" v="Knappengen" />
		<tag k="place" v="farm" />
		<tag k="ssr:stedsnr" v="936663" />
	</node>
	<node id="9699718279" lat="60.6705887" lon="10.5002956" version="1" timestamp="2022-04-28T06:01:28Z" changeset="120287122" uid="3497659" user="NKA">
		<tag k="alt_name" v="Bjørlien" />
		<tag k="name" v="Bjørlia" />
		<tag k="place" v="farm" />
		<tag k="ssr:stedsnr" v="68287" />
	</node>
	<node id="9699718280" lat="60.6927274" lon="10.7073775" version="1" timestamp="2022-04-28T06:01:28Z" changeset="120287122" uid="3497659" user="NKA">
		<tag k="name" v="Hørsrud" />
		<tag k="place" v="farm" />
		<tag k="ssr:stedsnr" v="917287" />
	</node>
	<node id="9699718281" lat="60.6981747" lon="10.6998888" version="1" timestamp="2022-04-28T06:01:28Z" changeset="120287122" uid="3497659" user="NKA">
		<tag k="name" v="Gaukom" />
		<tag k="place" v="farm" />
		<tag k="ssr:stedsnr" v="905070" />
	</node>
	<node id="9699718282" lat="60.6933146" lon="10.721688" version="1" timestamp="2022-04-28T06:01:28Z" changeset="120287122" uid="3497659" user="NKA">
		<tag k="name" v="Ersrud" />
		<tag k="place" v="farm" />
		<tag k="ssr:stedsnr" v="917942" />
	</node>
	<node id="9699718283" lat="60.7050687" lon="10.6786968" version="1" timestamp="2022-04-28T06:01:28Z" changeset="120287122" uid="3497659" user="NKA">
		<tag k="name" v="Lille Vestre Tåsås" />
		<tag k="place" v="farm" />
		<tag k="ssr:stedsnr" v="784121" />
	</node>
	<node id="9699718284" lat="60.6988039" lon="10.6863271" version="1" timestamp="2022-04-28T06:01:28Z" changeset="120287122" uid="3497659" user="NKA">
		<tag k="name" v="Knatterud" />
		<tag k="place" v="farm" />
		<tag k="ssr:stedsnr" v="917339" />
	</node>
	<node id="9699718285" lat="60.7135" lon="10.7241917" version="1" timestamp="2022-04-28T06:01:28Z" changeset="120287122" uid="3497659" user="NKA">
		<tag k="name" v="Midtskogen" />
		<tag k="place" v="farm" />
		<tag k="ssr:stedsnr" v="735931" />
	</node>
	<node id="9699718286" lat="60.7095722" lon="10.7382001" version="1" timestamp="2022-04-28T06:01:28Z" changeset="120287122" uid="3497659" user="NKA">
		<tag k="alt_name" v="Eriksrud, nordre;Eriksrud" />
		<tag k="name" v="Nordre Eriksrud" />
		<tag k="place" v="farm" />
		<tag k="ssr:stedsnr" v="674930" />
	</node>
	<node id="9699718287" lat="60.7132174" lon="10.7001225" version="1" timestamp="2022-04-28T06:01:28Z" changeset="120287122" uid="3497659" user="NKA">
		<tag k="alt_name" v="Myren" />
		<tag k="name" v="Myra" />
		<tag k="place" v="farm" />
		<tag k="ssr:stedsnr" v="674367" />
	</node>
	<node id="9699718288" lat="60.6955336" lon="10.6493732" version="1" timestamp="2022-04-28T06:01:28Z" changeset="120287122" uid="3497659" user="NKA">
		<tag k="name" v="Vien" />
		<tag k="place" v="farm" />
		<tag k="ssr:stedsnr" v="674351" />
	</node>
	<node id="9699718289" lat="60.700091" lon="10.7451247" version="1" timestamp="2022-04-28T06:01:28Z" changeset="120287122" uid="3497659" user="NKA">
		<tag k="name" v="Stepperud" />
		<tag k="place" v="farm" />
		<tag k="ssr:stedsnr" v="613945" />
	</node>
	<node id="9699718290" lat="60.7022077" lon="10.7307686" version="1" timestamp="2022-04-28T06:01:28Z" changeset="120287122" uid="3497659" user="NKA">
		<tag k="name" v="Knappen" />
		<tag k="place" v="farm" />
		<tag k="ssr:stedsnr" v="613937" />
	</node>
	<node id="9699718291" lat="60.7026617" lon="10.6532935" version="1" timestamp="2022-04-28T06:01:28Z" changeset="120287122" uid="3497659" user="NKA">
		<tag k="alt_name" v="Grevløsengen" />
		<tag k="name" v="Grevlausenga" />
		<tag k="place" v="farm" />
		<tag k="ssr:stedsnr" v="552397" />
	</node>
	<node id="9699718292" lat="60.7094177" lon="10.6653052" version="1" timestamp="2022-04-28T06:01:28Z" changeset="120287122" uid="3497659" user="NKA">
		<tag k="alt_name" v="Tåsåsstuen" />
		<tag k="name" v="Tåsåsstugua" />
		<tag k="place" v="farm" />
		<tag k="ssr:stedsnr" v="67416" />
	</node>
	<node id="9699718293" lat="60.7209364" lon="10.7404091" version="1" timestamp="2022-04-28T06:01:28Z" changeset="120287122" uid="3497659" user="NKA">
		<tag k="name" v="Øvre Svartås" />
		<tag k="place" v="farm" />
		<tag k="ssr:stedsnr" v="389315" />
	</node>
	<node id="9699718294" lat="60.7216765" lon="10.7427127" version="1" timestamp="2022-04-28T06:01:28Z" changeset="120287122" uid="3497659" user="NKA">
		<tag k="alt_name" v="Svartås" />
		<tag k="name" v="Nedre Svartås" />
		<tag k="place" v="farm" />
		<tag k="ssr:stedsnr" v="917914" />
	</node>
	<node id="9699718295" lat="60.7130885" lon="10.743219" version="1" timestamp="2022-04-28T06:01:28Z" changeset="120287122" uid="3497659" user="NKA">
		<tag k="alt_name" v="Husby" />
		<tag k="name" v="Huseby" />
		<tag k="place" v="farm" />
		<tag k="ssr:stedsnr" v="249929" />
	</node>
	<node id="9699718296" lat="60.6953369" lon="10.6505451" version="1" timestamp="2022-04-28T06:01:28Z" changeset="120287122" uid="3497659" user="NKA">
		<tag k="name" v="Elstad" />
		<tag k="place" v="farm" />
		<tag k="ssr:stedsnr" v="796358" />
	</node>
	<node id="9699718297" lat="60.7051329" lon="10.7161869" version="1" timestamp="2022-04-28T06:01:28Z" changeset="120287122" uid="3497659" user="NKA">
		<tag k="name" v="Lierengen" />
		<tag k="old_name" v="Lier" />
		<tag k="place" v="farm" />
		<tag k="ssr:stedsnr" v="67409" />
	</node>
	<node id="9699718298" lat="60.7064689" lon="10.6979832" version="1" timestamp="2022-04-28T06:01:28Z" changeset="120287122" uid="3497659" user="NKA">
		<tag k="name" v="Helset" />
		<tag k="place" v="hamlet" />
		<tag k="ssr:stedsnr" v="856433" />
	</node>
	<node id="9699718299" lat="60.7093501" lon="10.7342987" version="1" timestamp="2022-04-28T06:01:28Z" changeset="120287122" uid="3497659" user="NKA">
		<tag k="name" v="Eriksrud" />
		<tag k="place" v="hamlet" />
		<tag k="ssr:stedsnr" v="451752" />
	</node>
	<node id="9699718300" lat="60.697571" lon="10.6805547" version="1" timestamp="2022-04-28T06:01:28Z" changeset="120287122" uid="3497659" user="NKA">
		<tag k="alt_name" v="Engødegård" />
		<tag k="name" v="Engøgard" />
		<tag k="place" v="farm" />
		<tag k="ssr:stedsnr" v="552403" />
	</node>
	<node id="9699718301" lat="60.7130134" lon="10.7262886" version="1" timestamp="2022-04-28T06:01:28Z" changeset="120287122" uid="3497659" user="NKA">
		<tag k="name" v="Skjønsby" />
		<tag k="place" v="farm" />
		<tag k="ssr:stedsnr" v="451749" />
	</node>
	<node id="9699718302" lat="60.6990377" lon="10.7183284" version="1" timestamp="2022-04-28T06:01:28Z" changeset="120287122" uid="3497659" user="NKA">
		<tag k="name" v="Kvaksrud" />
		<tag k="place" v="farm" />
		<tag k="ssr:stedsnr" v="450690" />
	</node>
	<node id="9699718303" lat="60.6984947" lon="10.7360587" version="1" timestamp="2022-04-28T06:01:28Z" changeset="120287122" uid="3497659" user="NKA">
		<tag k="name" v="Løkenlia" />
		<tag k="place" v="farm" />
		<tag k="ssr:stedsnr" v="223665" />
	</node>
	<node id="9699718304" lat="60.7073312" lon="10.7231765" version="1" timestamp="2022-04-28T06:01:28Z" changeset="120287122" uid="3497659" user="NKA">
		<tag k="alt_name" v="Thorsrud" />
		<tag k="name" v="Torsrud" />
		<tag k="place" v="farm" />
		<tag k="ssr:stedsnr" v="371943" />
	</node>
	<node id="9699718305" lat="60.7142861" lon="10.737339" version="1" timestamp="2022-04-28T06:01:28Z" changeset="120287122" uid="3497659" user="NKA">
		<tag k="name" v="Trosterud" />
		<tag k="place" v="farm" />
		<tag k="ssr:stedsnr" v="189928" />
	</node>
	<node id="9699718306" lat="60.7190584" lon="10.7253111" version="1" timestamp="2022-04-28T06:01:28Z" changeset="120287122" uid="3497659" user="NKA">
		<tag k="name" v="Almsbakken" />
		<tag k="place" v="farm" />
		<tag k="ssr:stedsnr" v="371930" />
	</node>
	<node id="9699718307" lat="60.7066535" lon="10.726309" version="1" timestamp="2022-04-28T06:01:28Z" changeset="120287122" uid="3497659" user="NKA">
		<tag k="name" v="Thorsrudødegård" />
		<tag k="place" v="farm" />
		<tag k="ssr:stedsnr" v="86671" />
	</node>
	<node id="9699718308" lat="60.7035565" lon="10.6620317" version="1" timestamp="2022-04-28T06:01:28Z" changeset="120287122" uid="3497659" user="NKA">
		<tag k="alt_name" v="Gårder" />
		<tag k="name" v="Garder" />
		<tag k="place" v="farm" />
		<tag k="ssr:stedsnr" v="188447" />
	</node>
	<node id="9699718309" lat="60.7438763" lon="10.6985414" version="1" timestamp="2022-04-28T06:01:28Z" changeset="120287122" uid="3497659" user="NKA">
		<tag k="name" v="Røste" />
		<tag k="place" v="farm" />
		<tag k="ssr:stedsnr" v="128446" />
	</node>
	<node id="9699718310" lat="60.7091555" lon="10.6605" version="1" timestamp="2022-04-28T06:01:28Z" changeset="120287122" uid="3497659" user="NKA">
		<tag k="alt_name" v="Holm" />
		<tag k="name" v="Gårdersveen" />
		<tag k="place" v="farm" />
		<tag k="ssr:stedsnr" v="188438" />
	</node>
	<node id="9699718311" lat="60.7353131" lon="10.708254" version="1" timestamp="2022-04-28T06:01:28Z" changeset="120287122" uid="3497659" user="NKA">
		<tag k="alt_name" v="Øvergård" />
		<tag k="name" v="Øvergard" />
		<tag k="place" v="farm" />
		<tag k="ssr:stedsnr" v="796415" />
	</node>
	<node id="9699718312" lat="60.7322917" lon="10.691081" version="1" timestamp="2022-04-28T06:01:28Z" changeset="120287122" uid="3497659" user="NKA">
		<tag k="name" v="Frogner" />
		<tag k="place" v="farm" />
		<tag k="ssr:stedsnr" v="735411" />
	</node>
	<node id="9699718313" lat="60.7347536" lon="10.7032811" version="1" timestamp="2022-04-28T06:01:28Z" changeset="120287122" uid="3497659" user="NKA">
		<tag k="name" v="Nordli" />
		<tag k="place" v="farm" />
		<tag k="ssr:stedsnr" v="647787" />
	</node>
	<node id="9699718314" lat="60.7519747" lon="10.694859" version="1" timestamp="2022-04-28T06:01:28Z" changeset="120287122" uid="3497659" user="NKA">
		<tag k="name" v="Østre søndre Hjelpstein" />
		<tag k="place" v="farm" />
		<tag k="ssr:stedsnr" v="647746" />
	</node>
	<node id="9699718315" lat="60.7284847" lon="10.7080754" version="1" timestamp="2022-04-28T06:01:28Z" changeset="120287122" uid="3497659" user="NKA">
		<tag k="name" v="Solstad" />
		<tag k="place" v="farm" />
		<tag k="ssr:stedsnr" v="553424" />
	</node>
	<node id="9699718316" lat="60.7294049" lon="10.6981197" version="1" timestamp="2022-04-28T06:01:28Z" changeset="120287122" uid="3497659" user="NKA">
		<tag k="alt_name" v="Flaterud" />
		<tag k="name" v="Flatrud" />
		<tag k="place" v="farm" />
		<tag k="ssr:stedsnr" v="250406" />
	</node>
	<node id="9699718317" lat="60.7332003" lon="10.7271949" version="1" timestamp="2022-04-28T06:01:28Z" changeset="120287122" uid="3497659" user="NKA">
		<tag k="name" v="Alm" />
		<tag k="place" v="hamlet" />
		<tag k="ssr:stedsnr" v="249913" />
	</node>
	<node id="9699718318" lat="60.7284982" lon="10.7050179" version="1" timestamp="2022-04-28T06:01:28Z" changeset="120287122" uid="3497659" user="NKA">
		<tag k="name" v="Skogstad" />
		<tag k="place" v="farm" />
		<tag k="ssr:stedsnr" v="284822" />
	</node>
	<node id="9699718319" lat="60.7286758" lon="10.6727145" version="1" timestamp="2022-04-28T06:01:28Z" changeset="120287122" uid="3497659" user="NKA">
		<tag k="name" v="Lerudåsen" />
		<tag k="place" v="farm" />
		<tag k="ssr:stedsnr" v="189414" />
	</node>
	<node id="9699718320" lat="60.7381562" lon="10.7156223" version="1" timestamp="2022-04-28T06:01:28Z" changeset="120287122" uid="3497659" user="NKA">
		<tag k="name" v="Li" />
		<tag k="place" v="farm" />
		<tag k="ssr:stedsnr" v="189442" />
	</node>
	<node id="9699718321" lat="60.7431996" lon="10.6874433" version="1" timestamp="2022-04-28T06:01:28Z" changeset="120287122" uid="3497659" user="NKA">
		<tag k="alt_name" v="Markestad, s;Markestad" />
		<tag k="name" v="Søndre Markestad" />
		<tag k="place" v="farm" />
		<tag k="ssr:stedsnr" v="189441" />
	</node>
	<node id="9699718322" lat="60.7465216" lon="10.6565233" version="1" timestamp="2022-04-28T06:01:28Z" changeset="120287122" uid="3497659" user="NKA">
		<tag k="alt_name" v="Drengsrud" />
		<tag k="name" v="Østre Drengsrud" />
		<tag k="place" v="farm" />
		<tag k="ssr:stedsnr" v="189436" />
	</node>
	<node id="9699718323" lat="60.7341894" lon="10.6999507" version="1" timestamp="2022-04-28T06:01:28Z" changeset="120287122" uid="3497659" user="NKA">
		<tag k="alt_name" v="Frognli" />
		<tag k="name" v="Frognerlia" />
		<tag k="place" v="farm" />
		<tag k="ssr:stedsnr" v="189400" />
	</node>
	<node id="9699718324" lat="60.7308656" lon="10.683894" version="1" timestamp="2022-04-28T06:01:28Z" changeset="120287122" uid="3497659" user="NKA">
		<tag k="name" v="Ringvoll" />
		<tag k="place" v="hamlet" />
		<tag k="ssr:stedsnr" v="68437" />
	</node>
	<node id="9699718325" lat="60.7300395" lon="10.7169329" version="1" timestamp="2022-04-28T06:01:28Z" changeset="120287122" uid="3497659" user="NKA">
		<tag k="name" v="Bøle" />
		<tag k="place" v="farm" />
		<tag k="ssr:stedsnr" v="68434" />
	</node>
	<node id="9699718326" lat="60.5671055" lon="10.6554001" version="1" timestamp="2022-04-28T06:01:28Z" changeset="120287122" uid="3497659" user="NKA">
		<tag k="name" v="Tollevsrudhågån" />
		<tag k="place" v="farm" />
		<tag k="ssr:stedsnr" v="735121" />
	</node>
	<node id="9699718327" lat="60.5635008" lon="10.6582715" version="1" timestamp="2022-04-28T06:01:28Z" changeset="120287122" uid="3497659" user="NKA">
		<tag k="alt_name" v="Tollefsrud" />
		<tag k="name" v="Tollevsrud" />
		<tag k="place" v="farm" />
		<tag k="ssr:stedsnr" v="735119" />
	</node>
	<node id="9699718328" lat="60.6012222" lon="10.6759083" version="1" timestamp="2022-04-28T06:01:28Z" changeset="120287122" uid="3497659" user="NKA">
		<tag k="name" v="Grønland" />
		<tag k="place" v="farm" />
		<tag k="ssr:stedsnr" v="693615" />
	</node>
	<node id="9699718329" lat="60.5753584" lon="10.6554749" version="1" timestamp="2022-04-28T06:01:28Z" changeset="120287122" uid="3497659" user="NKA">
		<tag k="alt_name" v="Tømten" />
		<tag k="name" v="Tomta" />
		<tag k="place" v="farm" />
		<tag k="ssr:stedsnr" v="7153" />
	</node>
	<node id="9699718330" lat="60.5904716" lon="10.6471011" version="1" timestamp="2022-04-28T06:01:28Z" changeset="120287122" uid="3497659" user="NKA">
		<tag k="name" v="Bjørnstad" />
		<tag k="place" v="farm" />
		<tag k="ssr:stedsnr" v="553148" />
	</node>
	<node id="9699718331" lat="60.5429525" lon="10.6743992" version="1" timestamp="2022-04-28T06:01:28Z" changeset="120287122" uid="3497659" user="NKA">
		<tag k="name" v="Nyland" />
		<tag k="place" v="farm" />
		<tag k="ssr:stedsnr" v="553084" />
	</node>
	<node id="9699718332" lat="60.5343306" lon="10.6547677" version="1" timestamp="2022-04-28T06:01:28Z" changeset="120287122" uid="3497659" user="NKA">
		<tag k="alt_name" v="Teiterud, nordre" />
		<tag k="name" v="Nordre Teiterud" />
		<tag k="place" v="farm" />
		<tag k="ssr:stedsnr" v="553097" />
	</node>
	<node id="9699718333" lat="60.5077351" lon="10.6653122" version="1" timestamp="2022-04-28T06:01:28Z" changeset="120287122" uid="3497659" user="NKA">
		<tag k="name" v="Villåsen" />
		<tag k="place" v="farm" />
		<tag k="ssr:stedsnr" v="552066" />
	</node>
	<node id="9699718334" lat="60.6210414" lon="10.6791001" version="1" timestamp="2022-04-28T06:01:28Z" changeset="120287122" uid="3497659" user="NKA">
		<tag k="alt_name" v="Midtbu" />
		<tag k="name" v="Midtbua" />
		<tag k="place" v="farm" />
		<tag k="ssr:stedsnr" v="370254" />
	</node>
	<node id="9699718335" lat="60.5807611" lon="10.6535972" version="1" timestamp="2022-04-28T06:01:28Z" changeset="120287122" uid="3497659" user="NKA">
		<tag k="alt_name" v="Bjørnerudsvea, s;Bjørnerudsveen" />
		<tag k="name" v="Søndre Bjørnerudsvea" />
		<tag k="place" v="farm" />
		<tag k="ssr:stedsnr" v="189144" />
	</node>
	<node id="9699718336" lat="60.5734583" lon="10.6534821" version="1" timestamp="2022-04-28T06:01:28Z" changeset="120287122" uid="3497659" user="NKA">
		<tag k="name" v="Kirkeby" />
		<tag k="place" v="farm" />
		<tag k="ssr:stedsnr" v="359215" />
	</node>
	<node id="9699718337" lat="60.578575" lon="10.653575" version="1" timestamp="2022-04-28T06:01:28Z" changeset="120287122" uid="3497659" user="NKA">
		<tag k="alt_name" v="Nordengen" />
		<tag k="name" v="Nordenga" />
		<tag k="place" v="farm" />
		<tag k="ssr:stedsnr" v="189143" />
	</node>
	<node id="9699718338" lat="60.5774296" lon="10.6578969" version="1" timestamp="2022-04-28T06:01:28Z" changeset="120287122" uid="3497659" user="NKA">
		<tag k="name" v="Lauvbakken" />
		<tag k="place" v="farm" />
		<tag k="ssr:stedsnr" v="189141" />
	</node>
	<node id="9699718339" lat="60.6845339" lon="10.7508407" version="1" timestamp="2022-04-28T06:01:28Z" changeset="120287122" uid="3497659" user="NKA">
		<tag k="name" v="Skarten" />
		<tag k="place" v="farm" />
		<tag k="ssr:stedsnr" v="735959" />
	</node>
	<node id="9699718340" lat="60.5615056" lon="10.6718543" version="1" timestamp="2022-04-28T06:01:28Z" changeset="120287122" uid="3497659" user="NKA">
		<tag k="alt_name" v="Bråten" />
		<tag k="name" v="Bråtån" />
		<tag k="place" v="farm" />
		<tag k="ssr:stedsnr" v="189117" />
	</node>
	<node id="9699718341" lat="60.6440527" lon="10.6849277" version="1" timestamp="2022-04-28T06:01:28Z" changeset="120287122" uid="3497659" user="NKA">
		<tag k="name" v="Glæserudbakken" />
		<tag k="place" v="farm" />
		<tag k="ssr:stedsnr" v="693581" />
	</node>
	<node id="9699718342" lat="60.6804435" lon="10.7264659" version="1" timestamp="2022-04-28T06:01:28Z" changeset="120287122" uid="3497659" user="NKA">
		<tag k="name" v="Augustenborg" />
		<tag k="place" v="farm" />
		<tag k="ssr:stedsnr" v="796973" />
	</node>
	<node id="9699718343" lat="60.687232" lon="10.7256392" version="1" timestamp="2022-04-28T06:01:28Z" changeset="120287122" uid="3497659" user="NKA">
		<tag k="name" v="Kauserud" />
		<tag k="place" v="farm" />
		<tag k="ssr:stedsnr" v="310959" />
	</node>
	<node id="9699718344" lat="60.6867258" lon="10.6695501" version="1" timestamp="2022-04-28T06:01:28Z" changeset="120287122" uid="3497659" user="NKA">
		<tag k="name" v="Inndal" />
		<tag k="place" v="hamlet" />
		<tag k="ssr:stedsnr" v="465401" />
	</node>
	<node id="9699718345" lat="60.6745014" lon="10.6783417" version="1" timestamp="2022-04-28T06:01:28Z" changeset="120287122" uid="3497659" user="NKA">
		<tag k="name" v="Gjestrum" />
		<tag k="place" v="hamlet" />
		<tag k="ssr:stedsnr" v="917261" />
	</node>
	<node id="9699718346" lat="60.6650341" lon="10.7009739" version="1" timestamp="2022-04-28T06:01:28Z" changeset="120287122" uid="3497659" user="NKA">
		<tag k="name" v="Kirkevoll" />
		<tag k="place" v="farm" />
		<tag k="ssr:stedsnr" v="128279" />
	</node>
	<node id="9699718347" lat="60.6908855" lon="10.6977277" version="1" timestamp="2022-04-28T06:01:28Z" changeset="120287122" uid="3497659" user="NKA">
		<tag k="name" v="Hørsrud" />
		<tag k="place" v="farm" />
		<tag k="ssr:stedsnr" v="569730" />
	</node>
	<node id="9699718348" lat="60.6430021" lon="10.6574975" version="1" timestamp="2022-04-28T06:01:28Z" changeset="120287122" uid="3497659" user="NKA">
		<tag k="alt_name" v="Lie" />
		<tag k="name" v="Li" />
		<tag k="place" v="farm" />
		<tag k="ssr:stedsnr" v="857266" />
	</node>
	<node id="9699718349" lat="60.6379619" lon="10.6587946" version="1" timestamp="2022-04-28T06:01:28Z" changeset="120287122" uid="3497659" user="NKA">
		<tag k="name" v="Nordby" />
		<tag k="place" v="farm" />
		<tag k="ssr:stedsnr" v="371206" />
	</node>
	<node id="9699718350" lat="60.6698853" lon="10.6758587" version="1" timestamp="2022-04-28T06:01:28Z" changeset="120287122" uid="3497659" user="NKA">
		<tag k="name" v="Karlsborg" />
		<tag k="place" v="farm" />
		<tag k="ssr:stedsnr" v="420779" />
	</node>
	<node id="9699718351" lat="60.689254" lon="10.6587849" version="1" timestamp="2022-04-28T06:01:28Z" changeset="120287122" uid="3497659" user="NKA">
		<tag k="name" v="Borgen" />
		<tag k="place" v="farm" />
		<tag k="ssr:stedsnr" v="298502" />
	</node>
	<node id="9699718352" lat="60.6750335" lon="10.682364" version="1" timestamp="2022-04-28T06:01:28Z" changeset="120287122" uid="3497659" user="NKA">
		<tag k="loc_name" v="Kapperanbakken" />
		<tag k="name" v="Østrum" />
		<tag k="place" v="farm" />
		<tag k="ssr:stedsnr" v="541547" />
	</node>
	<node id="9699718353" lat="60.6619011" lon="10.6562321" version="1" timestamp="2022-04-28T06:01:28Z" changeset="120287122" uid="3497659" user="NKA">
		<tag k="name" v="Tjernsrud" />
		<tag k="place" v="farm" />
		<tag k="ssr:stedsnr" v="177806" />
	</node>
	<node id="9699718354" lat="60.6715505" lon="10.6983316" version="1" timestamp="2022-04-28T06:01:28Z" changeset="120287122" uid="3497659" user="NKA">
		<tag k="name" v="Berg" />
		<tag k="place" v="farm" />
		<tag k="ssr:stedsnr" v="370342" />
	</node>
	<node id="9699718355" lat="60.6874583" lon="10.7349652" version="1" timestamp="2022-04-28T06:01:28Z" changeset="120287122" uid="3497659" user="NKA">
		<tag k="name" v="Valheim" />
		<tag k="place" v="farm" />
		<tag k="ssr:stedsnr" v="7965" />
	</node>
	<node id="9699718356" lat="60.669013" lon="10.6899668" version="1" timestamp="2022-04-28T06:01:28Z" changeset="120287122" uid="3497659" user="NKA">
		<tag k="name" v="Åsjordet" />
		<tag k="place" v="farm" />
		<tag k="ssr:stedsnr" v="6311" />
	</node>
	<node id="9699718357" lat="60.7470799" lon="10.6344533" version="1" timestamp="2022-04-28T06:01:28Z" changeset="120287122" uid="3497659" user="NKA">
		<tag k="name" v="Grøndalen" />
		<tag k="place" v="farm" />
		<tag k="ssr:stedsnr" v="310461" />
	</node>
	<node id="9699718358" lat="60.67565" lon="10.7135472" version="1" timestamp="2022-04-28T06:01:28Z" changeset="120287122" uid="3497659" user="NKA">
		<tag k="name" v="Holte" />
		<tag k="place" v="hamlet" />
		<tag k="ssr:stedsnr" v="6310" />
	</node>
	<node id="9699718359" lat="60.750525" lon="10.6279055" version="1" timestamp="2022-04-28T06:01:28Z" changeset="120287122" uid="3497659" user="NKA">
		<tag k="name" v="Nordby" />
		<tag k="place" v="farm" />
		<tag k="ssr:stedsnr" v="284007" />
	</node>
	<node id="9699718360" lat="60.553625" lon="10.627286" version="1" timestamp="2022-04-28T06:01:28Z" changeset="120287122" uid="3497659" user="NKA">
		<tag k="name" v="Dotset" />
		<tag k="place" v="hamlet" />
		<tag k="ssr:stedsnr" v="371109" />
	</node>
	<node id="9699718361" lat="60.5064639" lon="10.6746805" version="1" timestamp="2022-04-28T06:01:28Z" changeset="120287122" uid="3497659" user="NKA">
		<tag k="name" v="Husumenga" />
		<tag k="place" v="locality" />
		<tag k="ssr:stedsnr" v="882490" />
	</node>
	<node id="9699718362" lat="60.5336701" lon="10.6310359" version="1" timestamp="2022-04-28T06:01:28Z" changeset="120287122" uid="3497659" user="NKA">
		<tag k="name" v="Dyrud" />
		<tag k="place" v="hamlet" />
		<tag k="ssr:stedsnr" v="310105" />
	</node>
	<node id="9699718363" lat="60.5365692" lon="10.6558802" version="1" timestamp="2022-04-28T06:01:28Z" changeset="120287122" uid="3497659" user="NKA">
		<tag k="name" v="Tveito" />
		<tag k="place" v="farm" />
		<tag k="ssr:stedsnr" v="250108" />
	</node>
	<node id="9699718364" lat="60.5296416" lon="10.6305888" version="1" timestamp="2022-04-28T06:01:28Z" changeset="120287122" uid="3497659" user="NKA">
		<tag k="name" v="Sandbakken" />
		<tag k="place" v="farm" />
		<tag k="ssr:stedsnr" v="189075" />
	</node>
	<node id="9699718365" lat="60.5374519" lon="10.619275" version="1" timestamp="2022-04-28T06:01:28Z" changeset="120287122" uid="3497659" user="NKA">
		<tag k="alt_name" v="Hovelsrud" />
		<tag k="name" v="Håvelsrud" />
		<tag k="place" v="farm" />
		<tag k="ssr:stedsnr" v="68104" />
	</node>
	<node id="9699718366" lat="60.7435055" lon="10.6058898" version="1" timestamp="2022-04-28T06:01:28Z" changeset="120287122" uid="3497659" user="NKA">
		<tag k="name" v="Napstad" />
		<tag k="place" v="farm" />
		<tag k="ssr:stedsnr" v="988378" />
	</node>
	<node id="9699718367" lat="60.7434286" lon="10.6944533" version="1" timestamp="2022-04-28T06:01:28Z" changeset="120287122" uid="3497659" user="NKA">
		<tag k="name" v="Haugom" />
		<tag k="place" v="farm" />
		<tag k="ssr:stedsnr" v="951759" />
	</node>
	<node id="9699718368" lat="60.7470351" lon="10.6534125" version="1" timestamp="2022-04-28T06:01:28Z" changeset="120287122" uid="3497659" user="NKA">
		<tag k="name" v="Drengsrud" />
		<tag k="place" v="hamlet" />
		<tag k="ssr:stedsnr" v="988906" />
	</node>
	<node id="9699718369" lat="60.7403893" lon="10.6533681" version="1" timestamp="2022-04-28T06:01:28Z" changeset="120287122" uid="3497659" user="NKA">
		<tag k="name" v="Ripe" />
		<tag k="place" v="farm" />
		<tag k="ssr:stedsnr" v="735450" />
	</node>
	<node id="9699718370" lat="60.7398556" lon="10.6135611" version="1" timestamp="2022-04-28T06:01:28Z" changeset="120287122" uid="3497659" user="NKA">
		<tag k="name" v="Brovoll" />
		<tag k="place" v="locality" />
		<tag k="ssr:stedsnr" v="526632" />
	</node>
	<node id="9699718371" lat="60.7440691" lon="10.6412429" version="1" timestamp="2022-04-28T06:01:28Z" changeset="120287122" uid="3497659" user="NKA">
		<tag k="name" v="Hanstad" />
		<tag k="place" v="farm" />
		<tag k="ssr:stedsnr" v="492417" />
	</node>
	<node id="9699718372" lat="60.7376016" lon="10.6273554" version="1" timestamp="2022-04-28T06:01:28Z" changeset="120287122" uid="3497659" user="NKA">
		<tag k="name" v="Negard" />
		<tag k="place" v="farm" />
		<tag k="ssr:stedsnr" v="432441" />
	</node>
	<node id="9699718373" lat="60.744432" lon="10.6316349" version="1" timestamp="2022-04-28T06:01:28Z" changeset="120287122" uid="3497659" user="NKA">
		<tag k="name" v="Nerby" />
		<tag k="place" v="farm" />
		<tag k="ssr:stedsnr" v="432420" />
	</node>
	<node id="9699718374" lat="60.7420866" lon="10.6193273" version="1" timestamp="2022-04-28T06:01:28Z" changeset="120287122" uid="3497659" user="NKA">
		<tag k="name" v="Breiskallengen" />
		<tag k="place" v="farm" />
		<tag k="ssr:stedsnr" v="162420" />
	</node>
	<node id="9699718375" lat="60.5686382" lon="10.5649818" version="1" timestamp="2022-04-28T06:01:28Z" changeset="120287122" uid="3497659" user="NKA">
		<tag k="name" v="Sønsteby" />
		<tag k="place" v="farm" />
		<tag k="ssr:stedsnr" v="988921" />
	</node>
	<node id="9699718376" lat="60.7438394" lon="10.6299974" version="1" timestamp="2022-04-28T06:01:28Z" changeset="120287122" uid="3497659" user="NKA">
		<tag k="name" v="Helgeby" />
		<tag k="place" v="farm" />
		<tag k="ssr:stedsnr" v="101489" />
	</node>
	<node id="9699718377" lat="60.590008" lon="10.5676532" version="1" timestamp="2022-04-28T06:01:28Z" changeset="120287122" uid="3497659" user="NKA">
		<tag k="alt_name" v="Stenberg" />
		<tag k="name" v="Steinberg" />
		<tag k="place" v="farm" />
		<tag k="ssr:stedsnr" v="796172" />
	</node>
	<node id="9699718378" lat="60.578475" lon="10.6217972" version="1" timestamp="2022-04-28T06:01:28Z" changeset="120287122" uid="3497659" user="NKA">
		<tag k="name" v="Rasmussveen" />
		<tag k="old_name" v="Amlund" />
		<tag k="place" v="farm" />
		<tag k="ssr:stedsnr" v="783140" />
	</node>
	<node id="9699718379" lat="60.5626337" lon="10.6186273" version="1" timestamp="2022-04-28T06:01:28Z" changeset="120287122" uid="3497659" user="NKA">
		<tag k="name" v="Amlien" />
		<tag k="place" v="farm" />
		<tag k="ssr:stedsnr" v="310125" />
	</node>
	<node id="9699718380" lat="60.5429541" lon="10.6244569" version="1" timestamp="2022-04-28T06:01:28Z" changeset="120287122" uid="3497659" user="NKA">
		<tag k="name" v="Strandbakken" />
		<tag k="place" v="farm" />
		<tag k="ssr:stedsnr" v="93461" />
	</node>
	<node id="9699718381" lat="60.5598471" lon="10.6074039" version="1" timestamp="2022-04-28T06:01:28Z" changeset="120287122" uid="3497659" user="NKA">
		<tag k="name" v="Bremenholm" />
		<tag k="place" v="farm" />
		<tag k="ssr:stedsnr" v="67150" />
	</node>
	<node id="9699718382" lat="60.5765509" lon="10.5655454" version="1" timestamp="2022-04-28T06:01:28Z" changeset="120287122" uid="3497659" user="NKA">
		<tag k="alt_name" v="Grinna" />
		<tag k="name" v="Sønstebygrinda" />
		<tag k="place" v="farm" />
		<tag k="ssr:stedsnr" v="7161" />
	</node>
	<node id="9699718383" lat="60.5661437" lon="10.6003403" version="1" timestamp="2022-04-28T06:01:28Z" changeset="120287122" uid="3497659" user="NKA">
		<tag k="name" v="Dambråtan" />
		<tag k="place" v="farm" />
		<tag k="ssr:stedsnr" v="856131" />
	</node>
	<node id="9699718384" lat="60.5632653" lon="10.6213006" version="1" timestamp="2022-04-28T06:01:28Z" changeset="120287122" uid="3497659" user="NKA">
		<tag k="name" v="Einastranda" />
		<tag k="place" v="quarter" />
		<tag k="ssr:stedsnr" v="856145" />
	</node>
	<node id="9699718385" lat="60.5727726" lon="10.626416" version="1" timestamp="2022-04-28T06:01:28Z" changeset="120287122" uid="3497659" user="NKA">
		<tag k="alt_name" v="Sangnæs" />
		<tag k="name" v="Sangnes" />
		<tag k="place" v="hamlet" />
		<tag k="ssr:stedsnr" v="552156" />
	</node>
	<node id="9699718386" lat="60.5649567" lon="10.6276184" version="1" timestamp="2022-04-28T06:01:28Z" changeset="120287122" uid="3497659" user="NKA">
		<tag k="alt_name" v="Søndre Amlien" />
		<tag k="name" v="Amlien" />
		<tag k="place" v="farm" />
		<tag k="ssr:stedsnr" v="205791" />
	</node>
	<node id="9699718387" lat="60.5881691" lon="10.5633509" version="1" timestamp="2022-04-28T06:01:28Z" changeset="120287122" uid="3497659" user="NKA">
		<tag k="name" v="Engebakken" />
		<tag k="place" v="farm" />
		<tag k="ssr:stedsnr" v="371172" />
	</node>
	<node id="9699718388" lat="60.5826597" lon="10.6106056" version="1" timestamp="2022-04-28T06:01:28Z" changeset="120287122" uid="3497659" user="NKA">
		<tag k="name" v="Engeli" />
		<tag k="place" v="farm" />
		<tag k="ssr:stedsnr" v="552173" />
	</node>
	<node id="9699718389" lat="60.568597" lon="10.60913" version="1" timestamp="2022-04-28T06:01:28Z" changeset="120287122" uid="3497659" user="NKA">
		<tag k="alt_name" v="Thorsbakken" />
		<tag k="name" v="Torsbakken" />
		<tag k="place" v="farm" />
		<tag k="ssr:stedsnr" v="370181" />
	</node>
	<node id="9699718390" lat="60.5706765" lon="10.6251402" version="1" timestamp="2022-04-28T06:01:28Z" changeset="120287122" uid="3497659" user="NKA">
		<tag k="name" v="Østre Sangnæs" />
		<tag k="place" v="farm" />
		<tag k="ssr:stedsnr" v="541224" />
	</node>
	<node id="9699718391" lat="60.5894596" lon="10.613686" version="1" timestamp="2022-04-28T06:01:28Z" changeset="120287122" uid="3497659" user="NKA">
		<tag k="name" v="Søndre Jutulrud" />
		<tag k="place" v="farm" />
		<tag k="ssr:stedsnr" v="223227" />
	</node>
	<node id="9699718392" lat="60.5675794" lon="10.6101797" version="1" timestamp="2022-04-28T06:01:28Z" changeset="120287122" uid="3497659" user="NKA">
		<tag k="name" v="Petersbakken" />
		<tag k="place" v="farm" />
		<tag k="ssr:stedsnr" v="371130" />
	</node>
	<node id="9699718393" lat="60.6726211" lon="10.5021636" version="1" timestamp="2022-04-28T06:01:28Z" changeset="120287122" uid="3497659" user="NKA">
		<tag k="name" v="Skjerven" />
		<tag k="place" v="farm" />
		<tag k="ssr:stedsnr" v="735277" />
	</node>
	<node id="9699718394" lat="60.5857836" lon="10.5749751" version="1" timestamp="2022-04-28T06:01:28Z" changeset="120287122" uid="3497659" user="NKA">
		<tag k="name" v="Prestvoll" />
		<tag k="place" v="farm" />
		<tag k="ssr:stedsnr" v="279610" />
	</node>
	<node id="9699718395" lat="60.666032" lon="10.514311" version="1" timestamp="2022-04-28T06:01:28Z" changeset="120287122" uid="3497659" user="NKA">
		<tag k="name" v="Blikset" />
		<tag k="place" v="farm" />
		<tag k="ssr:stedsnr" v="188316" />
	</node>
	<node id="9699718396" lat="60.6765684" lon="10.5008919" version="1" timestamp="2022-04-28T06:01:28Z" changeset="120287122" uid="3497659" user="NKA">
		<tag k="alt_name" v="Skjerrdalen, s;Søndre Skjærdalen" />
		<tag k="name" v="Søndre Skjerrdalen" />
		<tag k="place" v="farm" />
		<tag k="ssr:stedsnr" v="553315" />
	</node>
	<node id="9699718397" lat="60.7317439" lon="10.5744697" version="1" timestamp="2022-04-28T06:01:28Z" changeset="120287122" uid="3497659" user="NKA">
		<tag k="name" v="Nyjordet" />
		<tag k="place" v="farm" />
		<tag k="ssr:stedsnr" v="796457" />
	</node>
	<node id="9699718398" lat="60.6840525" lon="10.5691548" version="1" timestamp="2022-04-28T06:01:28Z" changeset="120287122" uid="3497659" user="NKA">
		<tag k="name" v="Bekkelien" />
		<tag k="place" v="farm" />
		<tag k="ssr:stedsnr" v="830049" />
	</node>
	<node id="9699718399" lat="60.6897171" lon="10.5820788" version="1" timestamp="2022-04-28T06:01:28Z" changeset="120287122" uid="3497659" user="NKA">
		<tag k="alt_name" v="Berger, nedre" />
		<tag k="name" v="Nedre Berger" />
		<tag k="place" v="farm" />
		<tag k="ssr:stedsnr" v="735355" />
	</node>
	<node id="9699718400" lat="60.6558107" lon="10.5996716" version="1" timestamp="2022-04-28T06:01:28Z" changeset="120287122" uid="3497659" user="NKA">
		<tag k="name" v="Kvernum" />
		<tag k="place" v="farm" />
		<tag k="ssr:stedsnr" v="735241" />
	</node>
	<node id="9699718401" lat="60.6969805" lon="10.6245" version="1" timestamp="2022-04-28T06:01:28Z" changeset="120287122" uid="3497659" user="NKA">
		<tag k="name" v="Morterudenga" />
		<tag k="place" v="farm" />
		<tag k="ssr:stedsnr" v="674345" />
	</node>
	<node id="9699718402" lat="60.6129355" lon="10.5986507" version="1" timestamp="2022-04-28T06:01:28Z" changeset="120287122" uid="3497659" user="NKA">
		<tag k="name" v="Sund" />
		<tag k="place" v="hamlet" />
		<tag k="ssr:stedsnr" v="735201" />
	</node>
	<node id="3141244587" lat="60.5436141" lon="10.5742737" version="1" timestamp="2014-10-21T04:40:09Z" changeset="26227128" uid="435265" user="Ansgar G Grimsrud">
		<tag k="source" v="Kartverket" />
	</node>
	<node id="3141244588" lat="60.5436684" lon="10.574441" version="1" timestamp="2014-10-21T04:40:09Z" changeset="26227128" uid="435265" user="Ansgar G Grimsrud">
		<tag k="source" v="Kartverket" />
	</node>
	<node id="3141244589" lat="60.5436939" lon="10.5745198" version="1" timestamp="2014-10-21T04:40:09Z" changeset="26227128" uid="435265" user="Ansgar G Grimsrud">
		<tag k="source" v="Kartverket" />
	</node>
	<node id="3141244590" lat="60.5437017" lon="10.5754196" version="1" timestamp="2014-10-21T04:40:09Z" changeset="26227128" uid="435265" user="Ansgar G Grimsrud">
		<tag k="source" v="Kartverket" />
	</node>
	<node id="3141244591" lat="60.5437149" lon="10.5756312" version="1" timestamp="2014-10-21T04:40:09Z" changeset="26227128" uid="435265" user="Ansgar G Grimsrud">
		<tag k="source" v="Kartverket" />
	</node>
	<node id="3141244592" lat="60.5437205" lon="10.5757202" version="1" timestamp="2014-10-21T04:40:09Z" changeset="26227128" uid="435265" user="Ansgar G Grimsrud">
		<tag k="source" v="Kartverket" />
	</node>
	<node id="3141244593" lat="60.5437374" lon="10.5758176" version="1" timestamp="2014-10-21T04:40:09Z" changeset="26227128" uid="435265" user="Ansgar G Grimsrud">
		<tag k="source" v="Kartverket" />
	</node>
	<node id="3141244594" lat="60.5437528" lon="10.5740329" version="1" timestamp="2014-10-21T04:40:09Z" changeset="26227128" uid="435265" user="Ansgar G Grimsrud">
		<tag k="source" v="Kartverket" />
	</node>
	<node id="3141244595" lat="60.5437754" lon="10.5746648" version="1" timestamp="2014-10-21T04:40:09Z" changeset="26227128" uid="435265" user="Ansgar G Grimsrud">
		<tag k="source" v="Kartverket" />
	</node>
	<node id="3141244596" lat="60.5437966" lon="10.5758849" version="1" timestamp="2014-10-21T04:40:09Z" changeset="26227128" uid="435265" user="Ansgar G Grimsrud">
		<tag k="source" v="Kartverket" />
	</node>
	<node id="3141244597" lat="60.5438353" lon="10.5752045" version="1" timestamp="2014-10-21T04:40:09Z" changeset="26227128" uid="435265" user="Ansgar G Grimsrud">
		<tag k="source" v="Kartverket" />
	</node>
	<node id="3141244598" lat="60.5438831" lon="10.5759455" version="1" timestamp="2014-10-21T04:40:09Z" changeset="26227128" uid="435265" user="Ansgar G Grimsrud">
		<tag k="source" v="Kartverket" />
	</node>
	<node id="3141244599" lat="60.543907" lon="10.5747945" version="1" timestamp="2014-10-21T04:40:09Z" changeset="26227128" uid="435265" user="Ansgar G Grimsrud">
		<tag k="source" v="Kartverket" />
	</node>
	<node id="3141244600" lat="60.5439111" lon="10.575051" version="1" timestamp="2014-10-21T04:40:09Z" changeset="26227128" uid="435265" user="Ansgar G Grimsrud">
		<tag k="source" v="Kartverket" />
	</node>
	<node id="3141244601" lat="60.5439219" lon="10.5740664" version="1" timestamp="2014-10-21T04:40:09Z" changeset="26227128" uid="435265" user="Ansgar G Grimsrud">
		<tag k="source" v="Kartverket" />
	</node>
	<node id="3141244602" lat="60.5439764" lon="10.5748534" version="1" timestamp="2014-10-21T04:40:09Z" changeset="26227128" uid="435265" user="Ansgar G Grimsrud">
		<tag k="source" v="Kartverket" />
	</node>
	<node id="3141244603" lat="60.5439996" lon="10.5759541" version="1" timestamp="2014-10-21T04:40:09Z" changeset="26227128" uid="435265" user="Ansgar G Grimsrud">
		<tag k="source" v="Kartverket" />
	</node>
	<node id="3141244604" lat="60.5441009" lon="10.5759612" version="1" timestamp="2014-10-21T04:40:09Z" changeset="26227128" uid="435265" user="Ansgar G Grimsrud">
		<tag k="source" v="Kartverket" />
	</node>
	<node id="3141244605" lat="60.5441973" lon="10.5759217" version="1" timestamp="2014-10-21T04:40:09Z" changeset="26227128" uid="435265" user="Ansgar G Grimsrud">
		<tag k="source" v="Kartverket" />
	</node>
	<node id="3141244606" lat="60.5442196" lon="10.574112" version="1" timestamp="2014-10-21T04:40:09Z" changeset="26227128" uid="435265" user="Ansgar G Grimsrud">
		<tag k="source" v="Kartverket" />
	</node>
	<node id="3141244607" lat="60.5443112" lon="10.5741259" version="1" timestamp="2014-10-21T04:40:09Z" changeset="26227128" uid="435265" user="Ansgar G Grimsrud">
		<tag k="source" v="Kartverket" />
	</node>
	<node id="3141244608" lat="60.5443208" lon="10.575442" version="1" timestamp="2014-10-21T04:40:09Z" changeset="26227128" uid="435265" user="Ansgar G Grimsrud">
		<tag k="source" v="Kartverket" />
	</node>
	<node id="3141244609" lat="60.5443413" lon="10.5753971" version="1" timestamp="2014-10-21T04:40:09Z" changeset="26227128" uid="435265" user="Ansgar G Grimsrud">
		<tag k="source" v="Kartverket" />
	</node>
	<node id="3141244610" lat="60.5444254" lon="10.5740913" version="1" timestamp="2014-10-21T04:40:09Z" changeset="26227128" uid="435265" user="Ansgar G Grimsrud">
		<tag k="source" v="Kartverket" />
	</node>
	<node id="3141244611" lat="60.544506" lon="10.575032" version="1" timestamp="2014-10-21T04:40:09Z" changeset="26227128" uid="435265" user="Ansgar G Grimsrud">
		<tag k="source" v="Kartverket" />
	</node>
	<node id="3141244612" lat="60.5445341" lon="10.5749586" version="1" timestamp="2014-10-21T04:40:09Z" changeset="26227128" uid="435265" user="Ansgar G Grimsrud">
		<tag k="source" v="Kartverket" />
	</node>
	<node id="3141244613" lat="60.5445822" lon="10.5737341" version="1" timestamp="2014-10-21T04:40:09Z" changeset="26227128" uid="435265" user="Ansgar G Grimsrud">
		<tag k="source" v="Kartverket" />
	</node>
	<node id="3141244614" lat="60.5447657" lon="10.5734151" version="1" timestamp="2014-10-21T04:40:09Z" changeset="26227128" uid="435265" user="Ansgar G Grimsrud">
		<tag k="source" v="Kartverket" />
	</node>
	<node id="3141244615" lat="60.5447981" lon="10.5748246" version="1" timestamp="2014-10-21T04:40:10Z" changeset="26227128" uid="435265" user="Ansgar G Grimsrud">
		<tag k="source" v="Kartverket" />
	</node>
	<node id="3141244616" lat="60.5448754" lon="10.5747695" version="1" timestamp="2014-10-21T04:40:10Z" changeset="26227128" uid="435265" user="Ansgar G Grimsrud">
		<tag k="source" v="Kartverket" />
	</node>
	<node id="3141244617" lat="60.5449135" lon="10.5745083" version="1" timestamp="2014-10-21T04:40:10Z" changeset="26227128" uid="435265" user="Ansgar G Grimsrud">
		<tag k="source" v="Kartverket" />
	</node>
	<node id="3141244618" lat="60.5449556" lon="10.5744526" version="1" timestamp="2014-10-21T04:40:10Z" changeset="26227128" uid="435265" user="Ansgar G Grimsrud">
		<tag k="source" v="Kartverket" />
	</node>
	<node id="3141244619" lat="60.5450191" lon="10.5743685" version="1" timestamp="2014-10-21T04:40:10Z" changeset="26227128" uid="435265" user="Ansgar G Grimsrud">
		<tag k="source" v="Kartverket" />
	</node>
	<node id="3141244620" lat="60.5450972" lon="10.5742335" version="1" timestamp="2014-10-21T04:40:10Z" changeset="26227128" uid="435265" user="Ansgar G Grimsrud">
		<tag k="source" v="Kartverket" />
	</node>
	<node id="3141244621" lat="60.5451052" lon="10.5733902" version="1" timestamp="2014-10-21T04:40:10Z" changeset="26227128" uid="435265" user="Ansgar G Grimsrud">
		<tag k="source" v="Kartverket" />
	</node>
	<node id="3141244622" lat="60.5451354" lon="10.5733878" version="1" timestamp="2014-10-21T04:40:10Z" changeset="26227128" uid="435265" user="Ansgar G Grimsrud">
		<tag k="source" v="Kartverket" />
	</node>
	<node id="3141244623" lat="60.5452037" lon="10.5743761" version="1" timestamp="2014-10-21T04:40:10Z" changeset="26227128" uid="435265" user="Ansgar G Grimsrud">
		<tag k="source" v="Kartverket" />
	</node>
	<node id="3141244624" lat="60.5453388" lon="10.5733728" version="1" timestamp="2014-10-21T04:40:10Z" changeset="26227128" uid="435265" user="Ansgar G Grimsrud">
		<tag k="source" v="Kartverket" />
	</node>
	<node id="3141244625" lat="60.5453865" lon="10.5748309" version="1" timestamp="2014-10-21T04:40:10Z" changeset="26227128" uid="435265" user="Ansgar G Grimsrud">
		<tag k="source" v="Kartverket" />
	</node>
	<node id="3141244626" lat="60.5454297" lon="10.573366" version="1" timestamp="2014-10-21T04:40:10Z" changeset="26227128" uid="435265" user="Ansgar G Grimsrud">
		<tag k="source" v="Kartverket" />
	</node>
	<node id="3141244627" lat="60.5455685" lon="10.5761526" version="1" timestamp="2014-10-21T04:40:10Z" changeset="26227128" uid="435265" user="Ansgar G Grimsrud">
		<tag k="source" v="Kartverket" />
	</node>
	<node id="3141244628" lat="60.5455921" lon="10.5749139" version="1" timestamp="2014-10-21T04:40:10Z" changeset="26227128" uid="435265" user="Ansgar G Grimsrud">
		<tag k="source" v="Kartverket" />
	</node>
	<node id="3141254729" lat="60.5455958" lon="10.5753699" version="1" timestamp="2014-10-21T04:40:10Z" changeset="26227128" uid="435265" user="Ansgar G Grimsrud">
		<tag k="source" v="Kartverket" />
	</node>
	<node id="3141254730" lat="60.5456084" lon="10.5749082" version="1" timestamp="2014-10-21T04:40:10Z" changeset="26227128" uid="435265" user="Ansgar G Grimsrud">
		<tag k="source" v="Kartverket" />
	</node>
	<node id="3141254731" lat="60.5456241" lon="10.5731996" version="1" timestamp="2014-10-21T04:40:10Z" changeset="26227128" uid="435265" user="Ansgar G Grimsrud">
		<tag k="source" v="Kartverket" />
	</node>
	<node id="3141254732" lat="60.5456389" lon="10.5766591" version="1" timestamp="2014-10-21T04:40:10Z" changeset="26227128" uid="435265" user="Ansgar G Grimsrud">
		<tag k="source" v="Kartverket" />
	</node>
	<node id="3141254733" lat="60.5457011" lon="10.5731116" version="1" timestamp="2014-10-21T04:40:10Z" changeset="26227128" uid="435265" user="Ansgar G Grimsrud">
		<tag k="source" v="Kartverket" />
	</node>
	<node id="3141254734" lat="60.5457684" lon="10.5751149" version="1" timestamp="2014-10-21T04:40:10Z" changeset="26227128" uid="435265" user="Ansgar G Grimsrud">
		<tag k="source" v="Kartverket" />
	</node>
	<node id="3141254735" lat="60.5458592" lon="10.5771441" version="1" timestamp="2014-10-21T04:40:10Z" changeset="26227128" uid="435265" user="Ansgar G Grimsrud">
		<tag k="source" v="Kartverket" />
	</node>
	<node id="3141254736" lat="60.5458973" lon="10.5772079" version="1" timestamp="2014-10-21T04:40:10Z" changeset="26227128" uid="435265" user="Ansgar G Grimsrud">
		<tag k="source" v="Kartverket" />
	</node>
	<node id="3141254737" lat="60.545942" lon="10.5731584" version="1" timestamp="2014-10-21T04:40:10Z" changeset="26227128" uid="435265" user="Ansgar G Grimsrud">
		<tag k="source" v="Kartverket" />
	</node>
	<node id="3141254738" lat="60.5459513" lon="10.5747919" version="1" timestamp="2014-10-21T04:40:10Z" changeset="26227128" uid="435265" user="Ansgar G Grimsrud">
		<tag k="source" v="Kartverket" />
	</node>
	<node id="3141254739" lat="60.545991" lon="10.5772126" version="1" timestamp="2014-10-21T04:40:10Z" changeset="26227128" uid="435265" user="Ansgar G Grimsrud">
		<tag k="source" v="Kartverket" />
	</node>
	<node id="3141254740" lat="60.5460077" lon="10.5731712" version="1" timestamp="2014-10-21T04:40:10Z" changeset="26227128" uid="435265" user="Ansgar G Grimsrud">
		<tag k="source" v="Kartverket" />
	</node>
	<node id="3141254741" lat="60.5460579" lon="10.5747558" version="1" timestamp="2014-10-21T04:40:10Z" changeset="26227128" uid="435265" user="Ansgar G Grimsrud">
		<tag k="source" v="Kartverket" />
	</node>
	<node id="3141254742" lat="60.5460865" lon="10.5771623" version="1" timestamp="2014-10-21T04:40:10Z" changeset="26227128" uid="435265" user="Ansgar G Grimsrud">
		<tag k="source" v="Kartverket" />
	</node>
	<node id="3141254743" lat="60.5461066" lon="10.5733314" version="1" timestamp="2014-10-21T04:40:10Z" changeset="26227128" uid="435265" user="Ansgar G Grimsrud">
		<tag k="source" v="Kartverket" />
	</node>
	<node id="3141254744" lat="60.5461107" lon="10.5751031" version="1" timestamp="2014-10-21T04:40:10Z" changeset="26227128" uid="435265" user="Ansgar G Grimsrud">
		<tag k="source" v="Kartverket" />
	</node>
	<node id="3141254745" lat="60.5461298" lon="10.5747836" version="1" timestamp="2014-10-21T04:40:10Z" changeset="26227128" uid="435265" user="Ansgar G Grimsrud">
		<tag k="source" v="Kartverket" />
	</node>
	<node id="3141254746" lat="60.5461614" lon="10.5734441" version="1" timestamp="2014-10-21T04:40:10Z" changeset="26227128" uid="435265" user="Ansgar G Grimsrud">
		<tag k="source" v="Kartverket" />
	</node>
	<node id="3141254747" lat="60.5461772" lon="10.5770756" version="1" timestamp="2014-10-21T04:40:10Z" changeset="26227128" uid="435265" user="Ansgar G Grimsrud">
		<tag k="source" v="Kartverket" />
	</node>
	<node id="3141254748" lat="60.54619" lon="10.5735523" version="1" timestamp="2014-10-21T04:40:10Z" changeset="26227128" uid="435265" user="Ansgar G Grimsrud">
		<tag k="source" v="Kartverket" />
	</node>
	<node id="3141254749" lat="60.5462212" lon="10.5748715" version="1" timestamp="2014-10-21T04:40:10Z" changeset="26227128" uid="435265" user="Ansgar G Grimsrud">
		<tag k="source" v="Kartverket" />
	</node>
	<node id="3141254750" lat="60.5462231" lon="10.5738338" version="1" timestamp="2014-10-21T04:40:10Z" changeset="26227128" uid="435265" user="Ansgar G Grimsrud">
		<tag k="source" v="Kartverket" />
	</node>
	<node id="3141254751" lat="60.5462296" lon="10.5738554" version="1" timestamp="2014-10-21T04:40:10Z" changeset="26227128" uid="435265" user="Ansgar G Grimsrud">
		<tag k="source" v="Kartverket" />
	</node>
	<node id="3141254752" lat="60.5462493" lon="10.5739226" version="1" timestamp="2014-10-21T04:40:10Z" changeset="26227128" uid="435265" user="Ansgar G Grimsrud">
		<tag k="source" v="Kartverket" />
	</node>
	<node id="3141254753" lat="60.5462719" lon="10.5740044" version="1" timestamp="2014-10-21T04:40:10Z" changeset="26227128" uid="435265" user="Ansgar G Grimsrud">
		<tag k="source" v="Kartverket" />
	</node>
	<node id="3141254754" lat="60.5463549" lon="10.5764824" version="1" timestamp="2014-10-21T04:40:10Z" changeset="26227128" uid="435265" user="Ansgar G Grimsrud">
		<tag k="source" v="Kartverket" />
	</node>
	<node id="3141254755" lat="60.5463712" lon="10.5741605" version="1" timestamp="2014-10-21T04:40:10Z" changeset="26227128" uid="435265" user="Ansgar G Grimsrud">
		<tag k="source" v="Kartverket" />
	</node>
	<node id="3141254756" lat="60.5465459" lon="10.5744351" version="1" timestamp="2014-10-21T04:40:11Z" changeset="26227128" uid="435265" user="Ansgar G Grimsrud">
		<tag k="source" v="Kartverket" />
	</node>
	<node id="3141254757" lat="60.5465735" lon="10.5762197" version="1" timestamp="2014-10-21T04:40:11Z" changeset="26227128" uid="435265" user="Ansgar G Grimsrud">
		<tag k="source" v="Kartverket" />
	</node>
	<node id="3141254758" lat="60.5466702" lon="10.5741093" version="1" timestamp="2014-10-21T04:40:11Z" changeset="26227128" uid="435265" user="Ansgar G Grimsrud">
		<tag k="source" v="Kartverket" />
	</node>
	<node id="3141254759" lat="60.5466719" lon="10.5739583" version="1" timestamp="2014-10-21T04:40:11Z" changeset="26227128" uid="435265" user="Ansgar G Grimsrud">
		<tag k="source" v="Kartverket" />
	</node>
	<node id="3141254760" lat="60.546674" lon="10.5737812" version="1" timestamp="2014-10-21T04:40:11Z" changeset="26227128" uid="435265" user="Ansgar G Grimsrud">
		<tag k="source" v="Kartverket" />
	</node>
	<node id="3141254761" lat="60.5466974" lon="10.5744594" version="1" timestamp="2014-10-21T04:40:11Z" changeset="26227128" uid="435265" user="Ansgar G Grimsrud">
		<tag k="source" v="Kartverket" />
	</node>
	<node id="3141254762" lat="60.5467384" lon="10.5744224" version="1" timestamp="2014-10-21T04:40:11Z" changeset="26227128" uid="435265" user="Ansgar G Grimsrud">
		<tag k="source" v="Kartverket" />
	</node>
	<node id="3141254763" lat="60.5467853" lon="10.5734657" version="1" timestamp="2014-10-21T04:40:11Z" changeset="26227128" uid="435265" user="Ansgar G Grimsrud">
		<tag k="source" v="Kartverket" />
	</node>
	<node id="3141254764" lat="60.5470297" lon="10.5733245" version="1" timestamp="2014-10-21T04:40:11Z" changeset="26227128" uid="435265" user="Ansgar G Grimsrud">
		<tag k="source" v="Kartverket" />
	</node>
	<node id="3141254765" lat="60.5470523" lon="10.5760289" version="1" timestamp="2014-10-21T04:40:11Z" changeset="26227128" uid="435265" user="Ansgar G Grimsrud">
		<tag k="source" v="Kartverket" />
	</node>
	<node id="3141254766" lat="60.5474067" lon="10.5758877" version="1" timestamp="2014-10-21T04:40:11Z" changeset="26227128" uid="435265" user="Ansgar G Grimsrud">
		<tag k="source" v="Kartverket" />
	</node>
	<node id="3141254767" lat="60.5477277" lon="10.5735226" version="1" timestamp="2014-10-21T04:40:11Z" changeset="26227128" uid="435265" user="Ansgar G Grimsrud">
		<tag k="source" v="Kartverket" />
	</node>
	<node id="3141254768" lat="60.5479561" lon="10.5756763" version="1" timestamp="2014-10-21T04:40:11Z" changeset="26227128" uid="435265" user="Ansgar G Grimsrud">
		<tag k="source" v="Kartverket" />
	</node>
	<node id="3141254769" lat="60.5480128" lon="10.5756545" version="1" timestamp="2014-10-21T04:40:11Z" changeset="26227128" uid="435265" user="Ansgar G Grimsrud">
		<tag k="source" v="Kartverket" />
	</node>
	<node id="3141254770" lat="60.5481543" lon="10.5754148" version="1" timestamp="2014-10-21T04:40:11Z" changeset="26227128" uid="435265" user="Ansgar G Grimsrud">
		<tag k="source" v="Kartverket" />
	</node>
	<node id="3141254771" lat="60.5481706" lon="10.5732887" version="1" timestamp="2014-10-21T04:40:11Z" changeset="26227128" uid="435265" user="Ansgar G Grimsrud">
		<tag k="source" v="Kartverket" />
	</node>
	<node id="3141254772" lat="60.5483287" lon="10.5751199" version="1" timestamp="2014-10-21T04:40:11Z" changeset="26227128" uid="435265" user="Ansgar G Grimsrud">
		<tag k="source" v="Kartverket" />
	</node>
	<node id="3141254773" lat="60.548589" lon="10.5751302" version="1" timestamp="2014-10-21T04:40:11Z" changeset="26227128" uid="435265" user="Ansgar G Grimsrud">
		<tag k="source" v="Kartverket" />
	</node>
	<node id="3141254774" lat="60.5486682" lon="10.5751332" version="1" timestamp="2014-10-21T04:40:11Z" changeset="26227128" uid="435265" user="Ansgar G Grimsrud">
		<tag k="source" v="Kartverket" />
	</node>
	<node id="3141254775" lat="60.5487588" lon="10.5732874" version="1" timestamp="2014-10-21T04:40:11Z" changeset="26227128" uid="435265" user="Ansgar G Grimsrud">
		<tag k="source" v="Kartverket" />
	</node>
	<node id="3141254776" lat="60.5488631" lon="10.5752256" version="1" timestamp="2014-10-21T04:40:11Z" changeset="26227128" uid="435265" user="Ansgar G Grimsrud">
		<tag k="source" v="Kartverket" />
	</node>
	<node id="3141254777" lat="60.5488891" lon="10.5732871" version="1" timestamp="2014-10-21T04:40:11Z" changeset="26227128" uid="435265" user="Ansgar G Grimsrud">
		<tag k="source" v="Kartverket" />
	</node>
	<node id="3141254778" lat="60.5489545" lon="10.5752763" version="1" timestamp="2014-10-21T04:40:11Z" changeset="26227128" uid="435265" user="Ansgar G Grimsrud">
		<tag k="source" v="Kartverket" />
	</node>
	<node id="3141254779" lat="60.5490019" lon="10.5753026" version="1" timestamp="2014-10-21T04:40:11Z" changeset="26227128" uid="435265" user="Ansgar G Grimsrud">
		<tag k="source" v="Kartverket" />
	</node>
	<node id="3141254780" lat="60.5490549" lon="10.5729304" version="1" timestamp="2014-10-21T04:40:11Z" changeset="26227128" uid="435265" user="Ansgar G Grimsrud">
		<tag k="source" v="Kartverket" />
	</node>
	<node id="3141254781" lat="60.5491601" lon="10.5723885" version="1" timestamp="2014-10-21T04:40:11Z" changeset="26227128" uid="435265" user="Ansgar G Grimsrud">
		<tag k="source" v="Kartverket" />
	</node>
	<node id="3141254782" lat="60.5492683" lon="10.5753568" version="1" timestamp="2014-10-21T04:40:11Z" changeset="26227128" uid="435265" user="Ansgar G Grimsrud">
		<tag k="source" v="Kartverket" />
	</node>
	<node id="3141254783" lat="60.5493694" lon="10.5718468" version="1" timestamp="2014-10-21T04:40:11Z" changeset="26227128" uid="435265" user="Ansgar G Grimsrud">
		<tag k="source" v="Kartverket" />
	</node>
	<node id="3141254784" lat="60.5494231" lon="10.5717618" version="1" timestamp="2014-10-21T04:40:11Z" changeset="26227128" uid="435265" user="Ansgar G Grimsrud">
		<tag k="source" v="Kartverket" />
	</node>
	<node id="3141254785" lat="60.5494542" lon="10.5753594" version="1" timestamp="2014-10-21T04:40:11Z" changeset="26227128" uid="435265" user="Ansgar G Grimsrud">
		<tag k="source" v="Kartverket" />
	</node>
	<node id="3141254786" lat="60.5494993" lon="10.5716696" version="1" timestamp="2014-10-21T04:40:11Z" changeset="26227128" uid="435265" user="Ansgar G Grimsrud">
		<tag k="source" v="Kartverket" />
	</node>
	<node id="3141254787" lat="60.5495315" lon="10.5753339" version="1" timestamp="2014-10-21T04:40:11Z" changeset="26227128" uid="435265" user="Ansgar G Grimsrud">
		<tag k="source" v="Kartverket" />
	</node>
	<node id="3141254788" lat="60.5495734" lon="10.5753002" version="1" timestamp="2014-10-21T04:40:11Z" changeset="26227128" uid="435265" user="Ansgar G Grimsrud">
		<tag k="source" v="Kartverket" />
	</node>
	<node id="3141254789" lat="60.5496263" lon="10.5752579" version="1" timestamp="2014-10-21T04:40:11Z" changeset="26227128" uid="435265" user="Ansgar G Grimsrud">
		<tag k="source" v="Kartverket" />
	</node>
	<node id="3141254790" lat="60.5497943" lon="10.5716105" version="1" timestamp="2014-10-21T04:40:11Z" changeset="26227128" uid="435265" user="Ansgar G Grimsrud">
		<tag k="source" v="Kartverket" />
	</node>
	<node id="3141254791" lat="60.5498625" lon="10.5715912" version="1" timestamp="2014-10-21T04:40:11Z" changeset="26227128" uid="435265" user="Ansgar G Grimsrud">
		<tag k="source" v="Kartverket" />
	</node>
	<node id="3141254792" lat="60.549903" lon="10.575041" version="1" timestamp="2014-10-21T04:40:11Z" changeset="26227128" uid="435265" user="Ansgar G Grimsrud" />
	<node id="3141254793" lat="60.5500001" lon="10.5716808" version="1" timestamp="2014-10-21T04:40:11Z" changeset="26227128" uid="435265" user="Ansgar G Grimsrud">
		<tag k="source" v="Kartverket" />
	</node>
	<node id="3141254794" lat="60.5500001" lon="10.5750989" version="1" timestamp="2014-10-21T04:40:11Z" changeset="26227128" uid="435265" user="Ansgar G Grimsrud">
		<tag k="source" v="Kartverket" />
	</node>
	<node id="3141254795" lat="60.5500694" lon="10.5717261" version="1" timestamp="2014-10-21T04:40:11Z" changeset="26227128" uid="435265" user="Ansgar G Grimsrud">
		<tag k="source" v="Kartverket" />
	</node>
	<node id="3141254796" lat="60.5500862" lon="10.5751492" version="1" timestamp="2014-10-21T04:40:11Z" changeset="26227128" uid="435265" user="Ansgar G Grimsrud">
		<tag k="source" v="Kartverket" />
	</node>
	<node id="3141254797" lat="60.5501229" lon="10.5717578" version="1" timestamp="2014-10-21T04:40:11Z" changeset="26227128" uid="435265" user="Ansgar G Grimsrud">
		<tag k="source" v="Kartverket" />
	</node>
	<node id="3141254798" lat="60.5502431" lon="10.575171" version="1" timestamp="2014-10-21T04:40:12Z" changeset="26227128" uid="435265" user="Ansgar G Grimsrud">
		<tag k="source" v="Kartverket" />
	</node>
	<node id="3141254799" lat="60.5503018" lon="10.5751531" version="1" timestamp="2014-10-21T04:40:12Z" changeset="26227128" uid="435265" user="Ansgar G Grimsrud">
		<tag k="source" v="Kartverket" />
	</node>
	<node id="3141254800" lat="60.5504459" lon="10.5722504" version="1" timestamp="2014-10-21T04:40:12Z" changeset="26227128" uid="435265" user="Ansgar G Grimsrud">
		<tag k="source" v="Kartverket" />
	</node>
	<node id="3141254801" lat="60.5504521" lon="10.5748783" version="1" timestamp="2014-10-21T04:40:12Z" changeset="26227128" uid="435265" user="Ansgar G Grimsrud">
		<tag k="source" v="Kartverket" />
	</node>
	<node id="3141254802" lat="60.5504796" lon="10.5748021" version="1" timestamp="2014-10-21T04:40:12Z" changeset="26227128" uid="435265" user="Ansgar G Grimsrud">
		<tag k="source" v="Kartverket" />
	</node>
	<node id="3141254803" lat="60.5506241" lon="10.5723683" version="1" timestamp="2014-10-21T04:40:12Z" changeset="26227128" uid="435265" user="Ansgar G Grimsrud">
		<tag k="source" v="Kartverket" />
	</node>
	<node id="3141254804" lat="60.5507255" lon="10.574164" version="1" timestamp="2014-10-21T04:40:12Z" changeset="26227128" uid="435265" user="Ansgar G Grimsrud">
		<tag k="source" v="Kartverket" />
	</node>
	<node id="3141254805" lat="60.5507751" lon="10.5740351" version="1" timestamp="2014-10-21T04:40:12Z" changeset="26227128" uid="435265" user="Ansgar G Grimsrud">
		<tag k="source" v="Kartverket" />
	</node>
	<node id="3141254806" lat="60.5507947" lon="10.5723767" version="1" timestamp="2014-10-21T04:40:12Z" changeset="26227128" uid="435265" user="Ansgar G Grimsrud">
		<tag k="source" v="Kartverket" />
	</node>
	<node id="3141254807" lat="60.5509245" lon="10.5738041" version="1" timestamp="2014-10-21T04:40:12Z" changeset="26227128" uid="435265" user="Ansgar G Grimsrud">
		<tag k="source" v="Kartverket" />
	</node>
	<node id="3141254808" lat="60.5511082" lon="10.5737833" version="1" timestamp="2014-10-21T04:40:12Z" changeset="26227128" uid="435265" user="Ansgar G Grimsrud">
		<tag k="source" v="Kartverket" />
	</node>
	<node id="3141254809" lat="60.5512092" lon="10.5714851" version="1" timestamp="2014-10-21T04:40:12Z" changeset="26227128" uid="435265" user="Ansgar G Grimsrud">
		<tag k="source" v="Kartverket" />
	</node>
	<node id="3141254810" lat="60.5512258" lon="10.5714724" version="1" timestamp="2014-10-21T04:40:12Z" changeset="26227128" uid="435265" user="Ansgar G Grimsrud">
		<tag k="source" v="Kartverket" />
	</node>
	<node id="3141254811" lat="60.5512541" lon="10.5737668" version="1" timestamp="2014-10-21T04:40:12Z" changeset="26227128" uid="435265" user="Ansgar G Grimsrud">
		<tag k="source" v="Kartverket" />
	</node>
	<node id="3141254812" lat="60.5512553" lon="10.5726789" version="1" timestamp="2014-10-21T04:40:12Z" changeset="26227128" uid="435265" user="Ansgar G Grimsrud">
		<tag k="source" v="Kartverket" />
	</node>
	<node id="3141254813" lat="60.5512683" lon="10.5724998" version="1" timestamp="2014-10-21T04:40:12Z" changeset="26227128" uid="435265" user="Ansgar G Grimsrud">
		<tag k="source" v="Kartverket" />
	</node>
	<node id="3141254814" lat="60.5512989" lon="10.5727331" version="1" timestamp="2014-10-21T04:40:12Z" changeset="26227128" uid="435265" user="Ansgar G Grimsrud">
		<tag k="source" v="Kartverket" />
	</node>
	<node id="3141254815" lat="60.5513585" lon="10.5724666" version="1" timestamp="2014-10-21T04:40:12Z" changeset="26227128" uid="435265" user="Ansgar G Grimsrud">
		<tag k="source" v="Kartverket" />
	</node>
	<node id="3141254816" lat="60.5514173" lon="10.5728809" version="1" timestamp="2014-10-21T04:40:12Z" changeset="26227128" uid="435265" user="Ansgar G Grimsrud">
		<tag k="source" v="Kartverket" />
	</node>
	<node id="3141254817" lat="60.5514888" lon="10.572933" version="1" timestamp="2014-10-21T04:40:12Z" changeset="26227128" uid="435265" user="Ansgar G Grimsrud">
		<tag k="source" v="Kartverket" />
	</node>
	<node id="3141254818" lat="60.5515397" lon="10.5724" version="1" timestamp="2014-10-21T04:40:12Z" changeset="26227128" uid="435265" user="Ansgar G Grimsrud">
		<tag k="source" v="Kartverket" />
	</node>
	<node id="3141254819" lat="60.551635" lon="10.5711592" version="1" timestamp="2014-10-21T04:40:12Z" changeset="26227128" uid="435265" user="Ansgar G Grimsrud">
		<tag k="source" v="Kartverket" />
	</node>
	<node id="3141254820" lat="60.5518927" lon="10.5729223" version="1" timestamp="2014-10-21T04:40:12Z" changeset="26227128" uid="435265" user="Ansgar G Grimsrud">
		<tag k="source" v="Kartverket" />
	</node>
	<node id="3141254821" lat="60.5519883" lon="10.5724346" version="1" timestamp="2014-10-21T04:40:12Z" changeset="26227128" uid="435265" user="Ansgar G Grimsrud">
		<tag k="source" v="Kartverket" />
	</node>
	<node id="3141254822" lat="60.5520071" lon="10.5730304" version="1" timestamp="2014-10-21T04:40:12Z" changeset="26227128" uid="435265" user="Ansgar G Grimsrud">
		<tag k="source" v="Kartverket" />
	</node>
	<node id="3141254823" lat="60.5520704" lon="10.5730903" version="1" timestamp="2014-10-21T04:40:12Z" changeset="26227128" uid="435265" user="Ansgar G Grimsrud">
		<tag k="source" v="Kartverket" />
	</node>
	<node id="3141254824" lat="60.5520795" lon="10.5711877" version="1" timestamp="2014-10-21T04:40:12Z" changeset="26227128" uid="435265" user="Ansgar G Grimsrud">
		<tag k="source" v="Kartverket" />
	</node>
	<node id="3141254825" lat="60.5520964" lon="10.5743595" version="1" timestamp="2014-10-21T04:40:12Z" changeset="26227128" uid="435265" user="Ansgar G Grimsrud">
		<tag k="source" v="Kartverket" />
	</node>
	<node id="3141254826" lat="60.5521148" lon="10.5731324" version="1" timestamp="2014-10-21T04:40:12Z" changeset="26227128" uid="435265" user="Ansgar G Grimsrud">
		<tag k="source" v="Kartverket" />
	</node>
	<node id="3141254827" lat="60.5521375" lon="10.5712312" version="1" timestamp="2014-10-21T04:40:12Z" changeset="26227128" uid="435265" user="Ansgar G Grimsrud">
		<tag k="source" v="Kartverket" />
	</node>
	<node id="3141254828" lat="60.5521448" lon="10.5743934" version="1" timestamp="2014-10-21T04:40:12Z" changeset="26227128" uid="435265" user="Ansgar G Grimsrud">
		<tag k="source" v="Kartverket" />
	</node>
	<node id="3141254829" lat="60.5522403" lon="10.5723921" version="1" timestamp="2014-10-21T04:40:12Z" changeset="26227128" uid="435265" user="Ansgar G Grimsrud">
		<tag k="source" v="Kartverket" />
	</node>
	<node id="3141254830" lat="60.552261" lon="10.5713901" version="1" timestamp="2014-10-21T04:40:12Z" changeset="26227128" uid="435265" user="Ansgar G Grimsrud">
		<tag k="source" v="Kartverket" />
	</node>
	<node id="3141254831" lat="60.5523153" lon="10.5721778" version="1" timestamp="2014-10-21T04:40:12Z" changeset="26227128" uid="435265" user="Ansgar G Grimsrud">
		<tag k="source" v="Kartverket" />
	</node>
	<node id="3141254832" lat="60.5523544" lon="10.5716394" version="1" timestamp="2014-10-21T04:40:12Z" changeset="26227128" uid="435265" user="Ansgar G Grimsrud">
		<tag k="source" v="Kartverket" />
	</node>
	<node id="3141254833" lat="60.5523955" lon="10.5717854" version="1" timestamp="2014-10-21T04:40:12Z" changeset="26227128" uid="435265" user="Ansgar G Grimsrud">
		<tag k="source" v="Kartverket" />
	</node>
	<node id="3141254834" lat="60.5524002" lon="10.5717617" version="1" timestamp="2014-10-21T04:40:12Z" changeset="26227128" uid="435265" user="Ansgar G Grimsrud">
		<tag k="source" v="Kartverket" />
	</node>
	<node id="3141254835" lat="60.5524141" lon="10.5744064" version="1" timestamp="2014-10-21T04:40:12Z" changeset="26227128" uid="435265" user="Ansgar G Grimsrud">
		<tag k="source" v="Kartverket" />
	</node>
	<node id="3141254836" lat="60.5525192" lon="10.5731404" version="1" timestamp="2014-10-21T04:40:12Z" changeset="26227128" uid="435265" user="Ansgar G Grimsrud">
		<tag k="source" v="Kartverket" />
	</node>
	<node id="3141254837" lat="60.5525944" lon="10.5731418" version="1" timestamp="2014-10-21T04:40:12Z" changeset="26227128" uid="435265" user="Ansgar G Grimsrud">
		<tag k="source" v="Kartverket" />
	</node>
	<node id="3141254838" lat="60.5527318" lon="10.5732884" version="1" timestamp="2014-10-21T04:40:12Z" changeset="26227128" uid="435265" user="Ansgar G Grimsrud">
		<tag k="source" v="Kartverket" />
	</node>
	<node id="3141254839" lat="60.5527886" lon="10.5733604" version="1" timestamp="2014-10-21T04:40:13Z" changeset="26227128" uid="435265" user="Ansgar G Grimsrud">
		<tag k="source" v="Kartverket" />
	</node>
	<node id="3141254840" lat="60.5528679" lon="10.5739909" version="1" timestamp="2014-10-21T04:40:13Z" changeset="26227128" uid="435265" user="Ansgar G Grimsrud">
		<tag k="source" v="Kartverket" />
	</node>
	<node id="3141254841" lat="60.5528824" lon="10.573572" version="1" timestamp="2014-10-21T04:40:13Z" changeset="26227128" uid="435265" user="Ansgar G Grimsrud">
		<tag k="source" v="Kartverket" />
	</node>
	<node id="3141254842" lat="60.5528907" lon="10.5735908" version="1" timestamp="2014-10-21T04:40:13Z" changeset="26227128" uid="435265" user="Ansgar G Grimsrud">
		<tag k="source" v="Kartverket" />
	</node>
	<way id="308832571" version="2" timestamp="2021-09-25T18:24:36Z" changeset="111697914" uid="435265" user="Ansgar G Grimsrud">
		<tag k="name" v="Gulbrandsmyra" />
		<tag k="natural" v="wetland" />
		<tag k="source" v="Kartverket" />
		<tag k="ssr:date" v="2019-12-27" />
		<tag k="ssr:gruppe" v="våtmark" />
		<tag k="ssr:hovedgruppe" v="markslag" />
		<tag k="ssr:stedsnr" v="518692" />
		<tag k="ssr:type" v="myr" />
		<nd ref="3141254789" />
		<nd ref="3141254788" />
		<nd ref="3141254787" />
		<nd ref="3141254785" />
		<nd ref="3141254782" />
		<nd ref="3141254779" />
		<nd ref="3141254778" />
		<nd ref="3141254776" />
		<nd ref="3141254774" />
		<nd ref="3141254773" />
		<nd ref="3141254772" />
		<nd ref="3141254770" />
		<nd ref="3141254769" />
		<nd ref="3141254768" />
		<nd ref="3141254766" />
		<nd ref="3141254765" />
		<nd ref="3141254757" />
		<nd ref="3141254754" />
		<nd ref="3141254747" />
		<nd ref="3141254742" />
		<nd ref="3141254739" />
		<nd ref="3141254736" />
		<nd ref="3141254735" />
		<nd ref="3141254732" />
		<nd ref="3141244627" />
		<nd ref="3141254729" />
		<nd ref="3141254734" />
		<nd ref="3141254744" />
		<nd ref="3141254749" />
		<nd ref="3141254745" />
		<nd ref="3141254741" />
		<nd ref="3141254738" />
		<nd ref="3141254730" />
		<nd ref="3141244628" />
		<nd ref="3141244625" />
		<nd ref="3141244623" />
		<nd ref="3141244620" />
		<nd ref="3141244619" />
		<nd ref="3141244618" />
		<nd ref="3141244617" />
		<nd ref="3141244616" />
		<nd ref="3141244615" />
		<nd ref="3141244612" />
		<nd ref="3141244611" />
		<nd ref="3141244609" />
		<nd ref="3141244608" />
		<nd ref="3141244605" />
		<nd ref="3141244604" />
		<nd ref="3141244603" />
		<nd ref="3141244598" />
		<nd ref="3141244596" />
		<nd ref="3141244593" />
		<nd ref="3141244592" />
		<nd ref="3141244591" />
		<nd ref="3141244590" />
		<nd ref="3141244597" />
		<nd ref="3141244600" />
		<nd ref="3141244602" />
		<nd ref="3141244599" />
		<nd ref="3141244595" />
		<nd ref="3141244589" />
		<nd ref="3141244588" />
		<nd ref="3141244587" />
		<nd ref="3141244594" />
		<nd ref="3141244601" />
		<nd ref="3141244606" />
		<nd ref="3141244607" />
		<nd ref="3141244610" />
		<nd ref="3141244613" />
		<nd ref="3141244614" />
		<nd ref="3141244621" />
		<nd ref="3141244622" />
		<nd ref="3141244624" />
		<nd ref="3141244626" />
		<nd ref="3141254731" />
		<nd ref="3141254733" />
		<nd ref="3141254737" />
		<nd ref="3141254740" />
		<nd ref="3141254743" />
		<nd ref="3141254746" />
		<nd ref="3141254748" />
		<nd ref="3141254750" />
		<nd ref="3141254751" />
		<nd ref="3141254752" />
		<nd ref="3141254753" />
		<nd ref="3141254755" />
		<nd ref="3141254756" />
		<nd ref="3141254761" />
		<nd ref="3141254762" />
		<nd ref="3141254758" />
		<nd ref="3141254759" />
		<nd ref="3141254760" />
		<nd ref="3141254763" />
		<nd ref="3141254764" />
		<nd ref="3141254767" />
		<nd ref="3141254771" />
		<nd ref="3141254775" />
		<nd ref="3141254777" />
		<nd ref="3141254780" />
		<nd ref="3141254781" />
		<nd ref="3141254783" />
		<nd ref="3141254784" />
		<nd ref="3141254786" />
		<nd ref="3141254790" />
		<nd ref="3141254791" />
		<nd ref="3141254793" />
		<nd ref="3141254795" />
		<nd ref="3141254797" />
		<nd ref="3141254800" />
		<nd ref="3141254803" />
		<nd ref="3141254806" />
		<nd ref="3141254809" />
		<nd ref="3141254810" />
		<nd ref="3141254819" />
		<nd ref="3141254824" />
		<nd ref="3141254827" />
		<nd ref="3141254830" />
		<nd ref="3141254832" />
		<nd ref="3141254834" />
		<nd ref="3141254833" />
		<nd ref="3141254831" />
		<nd ref="3141254829" />
		<nd ref="3141254821" />
		<nd ref="3141254818" />
		<nd ref="3141254815" />
		<nd ref="3141254813" />
		<nd ref="3141254812" />
		<nd ref="3141254814" />
		<nd ref="3141254816" />
		<nd ref="3141254817" />
		<nd ref="3141254820" />
		<nd ref="3141254822" />
		<nd ref="3141254823" />
		<nd ref="3141254826" />
		<nd ref="3141254836" />
		<nd ref="3141254837" />
		<nd ref="3141254838" />
		<nd ref="3141254839" />
		<nd ref="3141254841" />
		<nd ref="3141254842" />
		<nd ref="3141254840" />
		<nd ref="3141254835" />
		<nd ref="3141254828" />
		<nd ref="3141254825" />
		<nd ref="3141254811" />
		<nd ref="3141254808" />
		<nd ref="3141254807" />
		<nd ref="3141254805" />
		<nd ref="3141254804" />
		<nd ref="3141254802" />
		<nd ref="3141254801" />
		<nd ref="3141254799" />
		<nd ref="3141254798" />
		<nd ref="3141254796" />
		<nd ref="3141254794" />
		<nd ref="3141254792" />
		<nd ref="3141254789" />
	</way>
</osm>
