<?xml version="1.0" encoding="UTF-8"?>
<osm generator="osmapis" version="0.6">
	<node id="-371968" lat="58.1520027803" lon="7.1405277816">
		<tag k="name" v="Herdalsmølla" />
		<tag k="place" v="locality" />
		<tag k="ssr:stedsnr" v="385964" />
	</node>
	<node id="-371737" lat="58.0601472194" lon="6.99663333919">
		<tag k="name" v="Varden" />
		<tag k="ssr:stedsnr" v="324718" />
		<tag k="tourism" v="viewpoint" />
	</node>
	<node id="-372921" lat="58.1533527769" lon="7.09117499823">
		<tag k="amenity" v="place_of_worship" />
		<tag k="denomination" v="lutheran" />
		<tag k="name" v="Lyngdal" />
		<tag k="religion" v="christian" />
		<tag k="ssr:stedsnr" v="425467" />
	</node>
	<node id="-371668" lat="58.0919444422" lon="7.04596944832">
		<tag k="amenity" v="place_of_worship" />
		<tag k="denomination" v="lutheran" />
		<tag k="name" v="Austad" />
		<tag k="religion" v="christian" />
		<tag k="ssr:stedsnr" v="304513" />
	</node>
	<node id="-373999" lat="58.1001611099" lon="7.13463888565">
		<tag k="amenity" v="community_centre" />
		<tag k="name" v="Eika" />
		<tag k="ssr:stedsnr" v="789515" />
	</node>
	<node id="-372939" lat="58.2633055554" lon="7.19965277586">
		<tag k="amenity" v="place_of_worship" />
		<tag k="denomination" v="lutheran" />
		<tag k="name" v="Kvås" />
		<tag k="religion" v="christian" />
		<tag k="ssr:stedsnr" v="425594" />
	</node>
	<node id="-372037" lat="58.0230099135" lon="7.00112630449">
		<tag k="alt_name" v="Korshamn" />
		<tag k="amenity" v="place_of_worship" />
		<tag k="denomination" v="lutheran" />
		<tag k="name" v="Korshavn" />
		<tag k="religion" v="christian" />
		<tag k="ssr:stedsnr" v="656" />
	</node>
</osm>
