<?xml version="1.0" encoding="UTF-8"?>
<osm generator="osmapis" version="0.6">
	<node id="-373247" lat="58.0332166673" lon="6.9733944506">
		<tag k="name" v="Lille Grotholm" />
		<tag k="place" v="islet" />
		<tag k="ssr:stedsnr" v="264282" />
	</node>
	<node id="-373246" lat="58.0065972198" lon="6.99918332508">
		<tag k="name" v="Våge" />
		<tag k="natural" v="bay" />
		<tag k="ssr:stedsnr" v="264269" />
	</node>
	<node id="-373243" lat="58.0029527784" lon="6.98924723015">
		<tag k="name" v="Markøysund" />
		<tag k="natural" v="strait" />
		<tag k="ssr:stedsnr" v="264254" />
	</node>
	<node id="-373240" lat="58.1141777778" lon="6.95053332641">
		<tag k="name" v="Kåleviga" />
		<tag k="natural" v="bay" />
		<tag k="ssr:stedsnr" v="264245" />
	</node>
	<node id="-372726" lat="58.0288083335" lon="6.96492777018">
		<tag k="fixme" v="consider seamark:type=rock or natural=shoal" />
		<tag k="name" v="Bjørneskjeran" />
		<tag k="place" v="islet" />
		<tag k="ssr:stedsnr" v="82298" />
	</node>
	<node id="-372725" lat="58.0223277781" lon="6.97209444543">
		<tag k="name" v="Skåreholmen" />
		<tag k="place" v="islet" />
		<tag k="ssr:stedsnr" v="82296" />
	</node>
	<node id="-372724" lat="58.0364861081" lon="6.98498888738">
		<tag k="name" v="Steinsvika" />
		<tag k="natural" v="bay" />
		<tag k="ssr:stedsnr" v="82291" />
	</node>
	<node id="-372723" lat="58.0282194489" lon="7.00353889647">
		<tag k="name" v="Nøkkelodden" />
		<tag k="natural" v="cape" />
		<tag k="ssr:stedsnr" v="82287" />
	</node>
	<node id="-373439" lat="58.0135750022" lon="6.97972778253">
		<tag k="fixme" v="consider seamark:type=rock or natural=shoal" />
		<tag k="name" v="Svartskjærene" />
		<tag k="place" v="islet" />
		<tag k="ssr:stedsnr" v="446300" />
	</node>
	<node id="-374769" lat="58.0535222217" lon="7.0439388829">
		<tag k="name" v="Likstø" />
		<tag k="natural" v="bay" />
		<tag k="ssr:stedsnr" v="871809" />
	</node>
	<node id="-374768" lat="58.0558722216" lon="7.05903333898">
		<tag k="name" v="Torskeholmen" />
		<tag k="place" v="islet" />
		<tag k="ssr:stedsnr" v="871803" />
	</node>
	<node id="-372719" lat="58.0295833315" lon="6.97554722174">
		<tag k="name" v="Sjøbuvika" />
		<tag k="natural" v="bay" />
		<tag k="ssr:stedsnr" v="82273" />
	</node>
	<node id="-372718" lat="58.0153555518" lon="7.01826111206">
		<tag k="name" v="Vervågen" />
		<tag k="natural" v="bay" />
		<tag k="ssr:stedsnr" v="82269" />
	</node>
	<node id="-372717" lat="58.013616671" lon="6.97235555756">
		<tag k="name" v="Vestre Tåsholm" />
		<tag k="place" v="island" />
		<tag k="ssr:stedsnr" v="82267" />
	</node>
	<node id="-374252" lat="58.1167861124" lon="6.95557499642">
		<tag k="name" v="Kollevollbukta" />
		<tag k="natural" v="bay" />
		<tag k="ssr:stedsnr" v="728263" />
	</node>
	<node id="-372818" lat="58.1144999997" lon="7.03023889028">
		<tag k="name" v="Indre Svenevigbukta" />
		<tag k="natural" v="bay" />
		<tag k="ssr:stedsnr" v="85415" />
	</node>
	<node id="-374760" lat="58.0731027755" lon="7.10558888225">
		<tag k="name" v="Austre båtstø" />
		<tag k="natural" v="bay" />
		<tag k="ssr:stedsnr" v="871765" />
	</node>
	<node id="-372198" lat="58.0787361155" lon="7.1093444386">
		<tag k="name" v="Vederstøodden" />
		<tag k="natural" v="cape" />
		<tag k="ssr:stedsnr" v="324781" />
	</node>
	<node id="-374242" lat="58.0944972203" lon="7.03294167279">
		<tag k="name" v="Rauodden" />
		<tag k="natural" v="cape" />
		<tag k="ssr:stedsnr" v="692146" />
	</node>
	<node id="-374241" lat="58.0976694428" lon="7.03397778589">
		<tag k="name" v="Stibukta" />
		<tag k="natural" v="bay" />
		<tag k="ssr:stedsnr" v="692143" />
	</node>
	<node id="-374752" lat="58.1002222249" lon="7.02465277743">
		<tag k="name" v="Blåbærodden" />
		<tag k="natural" v="cape" />
		<tag k="ssr:stedsnr" v="871728" />
	</node>
	<node id="-372191" lat="58.097816669" lon="7.01998332834">
		<tag k="fixme" v="consider seamark:type=rock or natural=shoal" />
		<tag k="name" v="Storaskjæret" />
		<tag k="place" v="islet" />
		<tag k="ssr:stedsnr" v="324736" />
	</node>
	<node id="-374750" lat="58.0899583338" lon="7.02309444976">
		<tag k="name" v="Litlehavn" />
		<tag k="natural" v="bay" />
		<tag k="ssr:stedsnr" v="871716" />
	</node>
	<node id="-374745" lat="58.0523944411" lon="6.99707222958">
		<tag k="name" v="Eitlandsbukta" />
		<tag k="natural" v="bay" />
		<tag k="ssr:stedsnr" v="871698" />
	</node>
	<node id="-374225" lat="58.1415444457" lon="7.04130833094">
		<tag k="name" v="Orreøyene" />
		<tag k="place" v="island" />
		<tag k="ssr:stedsnr" v="689887" />
	</node>
	<node id="-374222" lat="58.1162055548" lon="7.18179167115">
		<tag k="name" v="Deildliodden" />
		<tag k="natural" v="cape" />
		<tag k="ssr:stedsnr" v="689849" />
	</node>
	<node id="-374220" lat="58.121175004" lon="7.05723611436">
		<tag k="name" v="Rosfjordsanden" />
		<tag k="natural" v="beach" />
		<tag k="place" v="locality" />
		<tag k="ssr:stedsnr" v="689807" />
	</node>
	<node id="-372168" lat="58.017616669" lon="7.00059722366">
		<tag k="name" v="Flåna" />
		<tag k="natural" v="strait" />
		<tag k="ssr:stedsnr" v="324308" />
	</node>
	<node id="-372166" lat="58.0133527741" lon="7.02276110297">
		<tag k="name" v="Straumsnesodden" />
		<tag k="natural" v="cape" />
		<tag k="ssr:stedsnr" v="324305" />
	</node>
	<node id="-374213" lat="58.0786722248" lon="7.10587777916">
		<tag k="name" v="Espeøya" />
		<tag k="place" v="island" />
		<tag k="ssr:stedsnr" v="689749" />
	</node>
	<node id="-372164" lat="58.0133388928" lon="7.0079527763">
		<tag k="name" v="Gulanobben" />
		<tag k="natural" v="cape" />
		<tag k="ssr:stedsnr" v="324298" />
	</node>
	<node id="-373699" lat="58.0765305523" lon="7.11830832812">
		<tag k="fixme" v="consider seamark:type=rock or natural=shoal" />
		<tag k="name" v="Kjerringa" />
		<tag k="place" v="islet" />
		<tag k="ssr:stedsnr" v="524340" />
	</node>
	<node id="-373697" lat="57.9949999973" lon="7.00916666331">
		<tag k="name" v="Hovdefluan" />
		<tag k="natural" v="shoal" />
		<tag k="place" v="locality" />
		<tag k="ssr:stedsnr" v="510526" />
	</node>
	<node id="-373696" lat="58.1191666702" lon="7.06000000328">
		<tag k="name" v="Indre Skomragbukta" />
		<tag k="natural" v="bay" />
		<tag k="ssr:stedsnr" v="509991" />
	</node>
	<node id="-373695" lat="58.0052777763" lon="6.98333334187">
		<tag k="name" v="Laksebåen" />
		<tag k="natural" v="shoal" />
		<tag k="place" v="locality" />
		<tag k="ssr:stedsnr" v="509985" />
	</node>
	<node id="-373694" lat="58.0899333299" lon="7.02293056177">
		<tag k="name" v="Litlahavn" />
		<tag k="natural" v="bay" />
		<tag k="old_name" v="Litlehavn" />
		<tag k="ssr:stedsnr" v="509141" />
	</node>
	<node id="-374204" lat="58.1062999992" lon="7.02594165886">
		<tag k="name" v="Kvernhusviga" />
		<tag k="natural" v="bay" />
		<tag k="ssr:stedsnr" v="689682" />
	</node>
	<node id="-374602" lat="58.00821667" lon="7.02453888594">
		<tag k="name" v="Østre Straumsnesodden" />
		<tag k="natural" v="cape" />
		<tag k="ssr:stedsnr" v="845443" />
	</node>
	<node id="-372666" lat="58.0101000009" lon="7.01349999796">
		<tag k="name" v="Lyngholmen" />
		<tag k="place" v="islet" />
		<tag k="ssr:stedsnr" v="60655" />
	</node>
	<node id="-374201" lat="58.0621277795" lon="7.00350000436">
		<tag k="name" v="Furtesundet" />
		<tag k="natural" v="strait" />
		<tag k="ssr:stedsnr" v="689642" />
	</node>
	<node id="-374200" lat="58.1346527748" lon="6.90399167233">
		<tag k="name" v="Litleøya" />
		<tag k="place" v="islet" />
		<tag k="ssr:stedsnr" v="689627" />
	</node>
	<node id="-374199" lat="58.077933336" lon="7.01631665999">
		<tag k="name" v="Borvikbukta" />
		<tag k="natural" v="bay" />
		<tag k="old_name" v="Borvigen" />
		<tag k="ssr:stedsnr" v="689624" />
	</node>
	<node id="-373174" lat="57.9871138854" lon="6.99438611734">
		<tag k="name" v="Tverrflua" />
		<tag k="natural" v="shoal" />
		<tag k="place" v="locality" />
		<tag k="ssr:stedsnr" v="243013" />
	</node>
	<node id="-372661" lat="58.0053694487" lon="7.01027777767">
		<tag k="fixme" v="multiple name tags, choose one and add the other to alt_name; consider seamark:type=rock or natural=shoal" />
		<tag k="name" v="Lypskjer;Østre Selør" />
		<tag k="place" v="islet" />
		<tag k="ssr:stedsnr" v="52922" />
	</node>
	<node id="-372655" lat="58.0693027762" lon="7.10566944094">
		<tag k="name" v="Hovdepynten" />
		<tag k="natural" v="cape" />
		<tag k="ssr:stedsnr" v="26476" />
	</node>
	<node id="-372654" lat="57.9872805561" lon="7.01173610887">
		<tag k="name" v="Ydre Villaflua" />
		<tag k="natural" v="shoal" />
		<tag k="place" v="locality" />
		<tag k="ssr:stedsnr" v="25520" />
	</node>
	<node id="-372653" lat="58.0323694479" lon="7.00486943967">
		<tag k="name" v="Hunsdalshavn" />
		<tag k="natural" v="bay" />
		<tag k="ssr:stedsnr" v="24997" />
	</node>
	<node id="-372652" lat="57.9908333322" lon="6.99805555768">
		<tag k="name" v="Tareflua" />
		<tag k="natural" v="shoal" />
		<tag k="place" v="locality" />
		<tag k="ssr:stedsnr" v="24992" />
	</node>
	<node id="-372651" lat="58.1126722254" lon="7.02713055331">
		<tag k="name" v="Ydre Svenevigbukta" />
		<tag k="natural" v="bay" />
		<tag k="ssr:stedsnr" v="24491" />
	</node>
	<node id="-372649" lat="58.1086833298" lon="7.04927499965">
		<tag k="name" v="Skårstranda" />
		<tag k="natural" v="beach" />
		<tag k="place" v="locality" />
		<tag k="ssr:stedsnr" v="24104" />
	</node>
	<node id="-373160" lat="58.1225194435" lon="6.94753610618">
		<tag k="name" v="Djupvigodden" />
		<tag k="natural" v="cape" />
		<tag k="ssr:stedsnr" v="210844" />
	</node>
	<node id="-372226" lat="58.0785916666" lon="7.01515832497">
		<tag k="name" v="Noteberget" />
		<tag k="natural" v="cape" />
		<tag k="ssr:stedsnr" v="324676" />
	</node>
	<node id="-372376" lat="58.0626277737" lon="7.00626944059">
		<tag k="name" v="Holmen" />
		<tag k="place" v="islet" />
		<tag k="ssr:stedsnr" v="385708" />
	</node>
	<node id="-372721" lat="58.0323277749" lon="7.01191111047">
		<tag k="name" v="Hummerdalsholmen" />
		<tag k="place" v="islet" />
		<tag k="ssr:stedsnr" v="82283" />
	</node>
	<node id="-373155" lat="58.1265472252" lon="7.00860000056">
		<tag k="name" v="Launeset" />
		<tag k="natural" v="cape" />
		<tag k="ssr:stedsnr" v="206995" />
	</node>
	<node id="-373154" lat="58.1064583294" lon="7.02728888634">
		<tag k="name" v="Skododden" />
		<tag k="natural" v="cape" />
		<tag k="ssr:stedsnr" v="206213" />
	</node>
	<node id="-373153" lat="58.07700278" lon="7.1461055495">
		<tag k="alt_name" v="Spunnevika" />
		<tag k="name" v="Spunneviga" />
		<tag k="natural" v="bay" />
		<tag k="ssr:stedsnr" v="204877" />
	</node>
	<node id="-373151" lat="58.0712666712" lon="7.13858889308">
		<tag k="name" v="Usnes" />
		<tag k="natural" v="cape" />
		<tag k="ssr:stedsnr" v="204869" />
	</node>
	<node id="-374767" lat="58.0652222214" lon="7.10121110287">
		<tag k="name" v="Steinholmen" />
		<tag k="place" v="islet" />
		<tag k="ssr:stedsnr" v="871799" />
	</node>
	<node id="-373656" lat="58.0650750045" lon="7.10732222258">
		<tag k="name" v="Risholmen" />
		<tag k="place" v="islet" />
		<tag k="ssr:stedsnr" v="506826" />
	</node>
	<node id="-372548" lat="58.0004861099" lon="6.99849722285">
		<tag k="name" v="Rauskårholmen" />
		<tag k="place" v="islet" />
		<tag k="ssr:stedsnr" v="21293" />
	</node>
	<node id="-374678" lat="58.0325305557" lon="6.9772222246">
		<tag k="name" v="Saueholmen" />
		<tag k="place" v="islet" />
		<tag k="ssr:stedsnr" v="871267" />
	</node>
	<node id="-373657" lat="58.0483000041" lon="7.04316111831">
		<tag k="loc_name" v="Vagleoddan" />
		<tag k="name" v="Vagleodden" />
		<tag k="natural" v="cape" />
		<tag k="ssr:stedsnr" v="506835" />
	</node>
	<node id="-374676" lat="58.017008335" lon="7.00422499679">
		<tag k="name" v="Mannevika" />
		<tag k="natural" v="bay" />
		<tag k="ssr:stedsnr" v="871266" />
	</node>
	<node id="-374674" lat="58.0140277754" lon="6.98290000507">
		<tag k="name" v="Grønnavik" />
		<tag k="natural" v="bay" />
		<tag k="ssr:stedsnr" v="871261" />
	</node>
	<node id="-374673" lat="58.0187861104" lon="6.98698055936">
		<tag k="name" v="Indre Breivika" />
		<tag k="natural" v="bay" />
		<tag k="ssr:stedsnr" v="871262" />
	</node>
	<node id="-374672" lat="58.0107416694" lon="7.000761117">
		<tag k="name" v="Selørodden" />
		<tag k="natural" v="cape" />
		<tag k="ssr:stedsnr" v="871259" />
	</node>
	<node id="-374671" lat="58.0152111091" lon="7.00702499516">
		<tag k="name" v="Olsvik" />
		<tag k="natural" v="bay" />
		<tag k="ssr:stedsnr" v="871260" />
	</node>
	<node id="-373646" lat="58.0929999987" lon="7.02798333223">
		<tag k="name" v="Borgåsodden" />
		<tag k="natural" v="cape" />
		<tag k="ssr:stedsnr" v="506742" />
	</node>
	<node id="-374669" lat="58.0046638924" lon="7.00733888312">
		<tag k="name" v="Kleveholmene" />
		<tag k="place" v="islet" />
		<tag k="ssr:stedsnr" v="871252" />
	</node>
	<node id="-372108" lat="58.065227777" lon="6.9807777742">
		<tag k="bay" v="fjord" />
		<tag k="name" v="Rosfjorden" />
		<tag k="natural" v="bay" />
		<tag k="ssr:stedsnr" v="303613" />
	</node>
	<node id="-373058" lat="58.0082388897" lon="6.98942221685">
		<tag k="name" v="Kingholmen" />
		<tag k="place" v="islet" />
		<tag k="ssr:stedsnr" v="203296" />
	</node>
	<node id="-373642" lat="58.0418361074" lon="6.97649999259">
		<tag k="name" v="Sjonevikholman" />
		<tag k="place" v="islet" />
		<tag k="ssr:stedsnr" v="506705" />
	</node>
	<node id="-372617" lat="58.0554499999" lon="7.04858333984">
		<tag k="name" v="Perstø" />
		<tag k="natural" v="bay" />
		<tag k="ssr:stedsnr" v="21823" />
	</node>
	<node id="-373640" lat="58.0754472261" lon="6.98906388115">
		<tag k="fixme" v="consider seamark:type=rock or natural=shoal" />
		<tag k="name" v="Nettskjæret" />
		<tag k="place" v="islet" />
		<tag k="ssr:stedsnr" v="506693" />
	</node>
	<node id="-373639" lat="58.0635500005" lon="7.00424999631">
		<tag k="name" v="Kvalholmen" />
		<tag k="place" v="islet" />
		<tag k="ssr:stedsnr" v="506690" />
	</node>
	<node id="-373125" lat="58.071072223" lon="7.09814166694">
		<tag k="name" v="Hovdestrand" />
		<tag k="natural" v="bay" />
		<tag k="ssr:stedsnr" v="203795" />
	</node>
	<node id="-372612" lat="58.0750916655" lon="7.12581945199">
		<tag k="name" v="Åsevågsundet" />
		<tag k="natural" v="strait" />
		<tag k="ssr:stedsnr" v="21782" />
	</node>
	<node id="-374147" lat="58.0281583309" lon="7.01454999866">
		<tag k="name" v="Rona" />
		<tag k="place" v="locality" />
		<tag k="ssr:stedsnr" v="689303" />
	</node>
	<node id="-374146" lat="58.0125388894" lon="6.99835832572">
		<tag k="name" v="Fiskeskjæret" />
		<tag k="place" v="islet" />
		<tag k="ssr:stedsnr" v="689289" />
	</node>
	<node id="-374145" lat="58.001772222" lon="6.99507500346">
		<tag k="name" v="Seliflåna" />
		<tag k="natural" v="bay" />
		<tag k="ssr:stedsnr" v="689282" />
	</node>
	<node id="-372605" lat="58.0497944437" lon="6.98867778154">
		<tag k="name" v="Vellvika" />
		<tag k="natural" v="bay" />
		<tag k="ssr:stedsnr" v="21717" />
	</node>
	<node id="-372604" lat="58.0410166643" lon="6.97919444138">
		<tag k="name" v="Sjonevika" />
		<tag k="natural" v="bay" />
		<tag k="ssr:stedsnr" v="21716" />
	</node>
	<node id="-373382" lat="58.1425444467" lon="7.06706111609">
		<tag k="name" v="Bringsjordneset" />
		<tag k="natural" v="cape" />
		<tag k="ssr:stedsnr" v="425469" />
	</node>
	<node id="-372601" lat="58.0681305582" lon="7.01145555944">
		<tag k="fixme" v="consider seamark:type=rock or natural=shoal" />
		<tag k="name" v="Selskjæret" />
		<tag k="place" v="islet" />
		<tag k="ssr:stedsnr" v="21700" />
	</node>
	<node id="-373110" lat="58.074733335" lon="6.98724999168">
		<tag k="name" v="Stuelandsbukta" />
		<tag k="natural" v="bay" />
		<tag k="ssr:stedsnr" v="203711" />
	</node>
	<node id="-372082" lat="58.0787499963" lon="7.11681944119">
		<tag k="name" v="Fladstadbukta" />
		<tag k="natural" v="bay" />
		<tag k="ssr:stedsnr" v="269457" />
	</node>
	<node id="-373650" lat="58.0718277803" lon="7.09632499189">
		<tag k="name" v="Hovdebukta" />
		<tag k="natural" v="bay" />
		<tag k="ssr:stedsnr" v="506780" />
	</node>
	<node id="-373608" lat="58.0387888855" lon="6.97859166911">
		<tag k="name" v="Hovden" />
		<tag k="natural" v="cape" />
		<tag k="ssr:stedsnr" v="506327" />
	</node>
	<node id="-374630" lat="58.0513722184" lon="7.05510000449">
		<tag k="name" v="Førøyan" />
		<tag k="place" v="islet" />
		<tag k="ssr:stedsnr" v="850568" />
	</node>
	<node id="-374629" lat="58.0636416709" lon="7.10312221499">
		<tag k="alt_name" v="Midtfjordøya" />
		<tag k="name" v="Midtfjordøyane" />
		<tag k="place" v="islet" />
		<tag k="ssr:stedsnr" v="850557" />
	</node>
	<node id="-373603" lat="58.0112833373" lon="6.98682223032">
		<tag k="name" v="Selkilholmen" />
		<tag k="place" v="islet" />
		<tag k="ssr:stedsnr" v="506288" />
	</node>
	<node id="-373602" lat="58.0079500021" lon="7.00520000792">
		<tag k="name" v="Vareholmen" />
		<tag k="place" v="islet" />
		<tag k="ssr:stedsnr" v="506283" />
	</node>
	<node id="-373601" lat="58.006897226" lon="7.00351111169">
		<tag k="name" v="Kjørgardsvika" />
		<tag k="natural" v="bay" />
		<tag k="ssr:stedsnr" v="506279" />
	</node>
	<node id="-373600" lat="57.9994944478" lon="6.98931665828">
		<tag k="name" v="Kålodden" />
		<tag k="natural" v="cape" />
		<tag k="ssr:stedsnr" v="506277" />
	</node>
	<node id="-372879" lat="58.0378916645" lon="6.98317778419">
		<tag k="name" v="Bådnes" />
		<tag k="natural" v="cape" />
		<tag k="ssr:stedsnr" v="142304" />
	</node>
	<node id="-374615" lat="58.0267333375" lon="6.96764444953">
		<tag k="name" v="Langholmen" />
		<tag k="place" v="islet" />
		<tag k="ssr:stedsnr" v="850414" />
	</node>
	<node id="-372793" lat="58.0813416678" lon="7.10641110821">
		<tag k="name" v="Båtodden" />
		<tag k="natural" v="cape" />
		<tag k="ssr:stedsnr" v="82782" />
	</node>
	<node id="-374610" lat="57.9963416658" lon="6.99733888553">
		<tag k="name" v="Grotholmen" />
		<tag k="place" v="islet" />
		<tag k="ssr:stedsnr" v="850003" />
	</node>
	<node id="-372792" lat="58.0722277747" lon="7.12964999462">
		<tag k="name" v="Kittelsnesbukta" />
		<tag k="natural" v="bay" />
		<tag k="ssr:stedsnr" v="82776" />
	</node>
	<node id="-372558" lat="58.0240638921" lon="6.96543889521">
		<tag k="fixme" v="consider seamark:type=rock or natural=shoal" />
		<tag k="name" v="Besskjeran" />
		<tag k="place" v="islet" />
		<tag k="ssr:stedsnr" v="21332" />
	</node>
	<node id="-372621" lat="58.1299305515" lon="7.03165278647">
		<tag k="name" v="Stranda" />
		<tag k="natural" v="bay" />
		<tag k="ssr:stedsnr" v="21884" />
	</node>
	<node id="-374091" lat="58.0531166648" lon="6.99430000138">
		<tag k="alt_name" v="Neset" />
		<tag k="name" v="Eitlandsneset" />
		<tag k="natural" v="cape" />
		<tag k="ssr:stedsnr" v="667537" />
	</node>
	<node id="-372554" lat="58.0270777823" lon="7.01024445203">
		<tag k="name" v="Langevågen" />
		<tag k="natural" v="bay" />
		<tag k="ssr:stedsnr" v="21319" />
	</node>
	<node id="-372552" lat="58.0257444456" lon="6.97321111219">
		<tag k="name" v="Ytrevika" />
		<tag k="natural" v="bay" />
		<tag k="ssr:stedsnr" v="21314" />
	</node>
	<node id="-373644" lat="58.0972416651" lon="7.00868611593">
		<tag k="name" v="Kvålsvikbukta" />
		<tag k="natural" v="bay" />
		<tag k="ssr:stedsnr" v="506736" />
	</node>
	<node id="-372549" lat="58.0081750019" lon="7.02442500157">
		<tag k="fixme" v="consider seamark:type=rock or natural=shoal" />
		<tag k="name" v="Stusvikskjærene" />
		<tag k="place" v="islet" />
		<tag k="ssr:stedsnr" v="21302" />
	</node>
	<node id="-374596" lat="58.0072305545" lon="7.01831389124">
		<tag k="fixme" v="consider seamark:type=rock or natural=shoal" />
		<tag k="name" v="Lyrskjeran" />
		<tag k="place" v="islet" />
		<tag k="ssr:stedsnr" v="814587" />
	</node>
	<node id="-374595" lat="58.0793611134" lon="7.01259444895">
		<tag k="name" v="Nodebergflua" />
		<tag k="natural" v="shoal" />
		<tag k="place" v="locality" />
		<tag k="ssr:stedsnr" v="813121" />
	</node>
	<node id="-374082" lat="58.0919750021" lon="7.02900000154">
		<tag k="name" v="Austadstranda" />
		<tag k="natural" v="beach" />
		<tag k="place" v="locality" />
		<tag k="ssr:stedsnr" v="667490" />
	</node>
	<node id="-374240" lat="58.035127775" lon="7.01801111331">
		<tag k="name" v="Nodeholmen" />
		<tag k="place" v="islet" />
		<tag k="ssr:stedsnr" v="692065" />
	</node>
	<node id="-374590" lat="58.071561107" lon="7.14207778021">
		<tag k="name" v="Robertodden" />
		<tag k="natural" v="cape" />
		<tag k="ssr:stedsnr" v="811848" />
	</node>
	<node id="-373565" lat="58.0033555576" lon="7.00170277638">
		<tag k="name" v="Austre Seli" />
		<tag k="place" v="island" />
		<tag k="ssr:stedsnr" v="485626" />
	</node>
	<node id="-373561" lat="58.0345611081" lon="6.97316111529">
		<tag k="name" v="Grotholmen" />
		<tag k="place" v="islet" />
		<tag k="ssr:stedsnr" v="485543" />
	</node>
	<node id="-373046" lat="58.0394138929" lon="6.98349722594">
		<tag k="name" v="Hausviksvågen" />
		<tag k="natural" v="bay" />
		<tag k="ssr:stedsnr" v="203333" />
	</node>
	<node id="-373045" lat="58.0372166624" lon="6.97608611789">
		<tag k="name" v="Ytre Hovden" />
		<tag k="natural" v="cape" />
		<tag k="ssr:stedsnr" v="203328" />
	</node>
	<node id="-374068" lat="57.984877776" lon="7.00713055172">
		<tag k="name" v="Bispen" />
		<tag k="natural" v="shoal" />
		<tag k="place" v="locality" />
		<tag k="ssr:stedsnr" v="667018" />
	</node>
	<node id="-374066" lat="58.0766749993" lon="7.11681110656">
		<tag k="name" v="Holmen" />
		<tag k="place" v="islet" />
		<tag k="ssr:stedsnr" v="666506" />
	</node>
	<node id="-373041" lat="58.0302222196" lon="6.97611110772">
		<tag k="name" v="Jaktholmodden" />
		<tag k="natural" v="cape" />
		<tag k="ssr:stedsnr" v="203309" />
	</node>
	<node id="-374064" lat="58.0284387238" lon="7.01626626841">
		<tag k="name" v="Kjelvig" />
		<tag k="natural" v="bay" />
		<tag k="ssr:stedsnr" v="663404" />
	</node>
	<node id="-373042" lat="58.0286194469" lon="6.99866667346">
		<tag k="name" v="Kjovenesodden" />
		<tag k="natural" v="cape" />
		<tag k="ssr:stedsnr" v="203323" />
	</node>
	<node id="-373688" lat="58.0817166704" lon="7.15238611255">
		<tag k="name" v="Krageviken" />
		<tag k="natural" v="bay" />
		<tag k="ssr:stedsnr" v="507888" />
	</node>
	<node id="-374055" lat="58.0857777812" lon="7.00710832633">
		<tag k="fixme" v="consider seamark:type=rock or natural=shoal" />
		<tag k="name" v="Kjerringa" />
		<tag k="place" v="islet" />
		<tag k="ssr:stedsnr" v="645373" />
	</node>
	<node id="-374054" lat="58.023841665" lon="6.99475555553">
		<tag k="name" v="Sagebomflua" />
		<tag k="place" v="locality" />
		<tag k="seamark:type" v="rock" />
		<tag k="ssr:stedsnr" v="645022" />
	</node>
	<node id="-374052" lat="58.0542833291" lon="6.98848056393">
		<tag k="fixme" v="consider seamark:type=rock or natural=shoal" />
		<tag k="name" v="Eitlandsskjeran" />
		<tag k="place" v="islet" />
		<tag k="ssr:stedsnr" v="630993" />
	</node>
	<node id="-374051" lat="58.025091664" lon="7.00166388397">
		<tag k="alt_name" v="Bruneskjeret" />
		<tag k="fixme" v="multiple name tags, choose one and add the other to alt_name; consider seamark:type=rock or natural=shoal" />
		<tag k="name" v="Broneflua;Broneskjeret" />
		<tag k="place" v="islet" />
		<tag k="ssr:stedsnr" v="630752" />
	</node>
	<node id="-372716" lat="58.0134194432" lon="6.98780556396">
		<tag k="name" v="Selkilen" />
		<tag k="natural" v="bay" />
		<tag k="ssr:stedsnr" v="82260" />
	</node>
	<node id="-374561" lat="58.0737111134" lon="7.11021943702">
		<tag k="fixme" v="consider seamark:type=rock or natural=shoal" />
		<tag k="name" v="Naudskjærene" />
		<tag k="place" v="islet" />
		<tag k="ssr:stedsnr" v="810810" />
	</node>
	<node id="-372784" lat="58.0988833322" lon="7.02003332667">
		<tag k="name" v="Seivika" />
		<tag k="natural" v="bay" />
		<tag k="ssr:stedsnr" v="82722" />
	</node>
	<node id="-373533" lat="58.02379167" lon="6.9768416614">
		<tag k="name" v="Myrvigflu" />
		<tag k="place" v="locality" />
		<tag k="seamark:type" v="rock" />
		<tag k="ssr:stedsnr" v="464034" />
	</node>
	<node id="-373531" lat="57.9892249995" lon="7.01255833935">
		<tag k="name" v="Indre Villaflua" />
		<tag k="natural" v="shoal" />
		<tag k="place" v="locality" />
		<tag k="ssr:stedsnr" v="450554" />
	</node>
	<node id="-373530" lat="57.9992055581" lon="7.01248056361">
		<tag k="name" v="Ydre Seliflua" />
		<tag k="natural" v="shoal" />
		<tag k="place" v="locality" />
		<tag k="ssr:stedsnr" v="450553" />
	</node>
	<node id="-374553" lat="58.091622225" lon="7.02696667462">
		<tag k="name" v="Bruvika" />
		<tag k="natural" v="bay" />
		<tag k="ssr:stedsnr" v="810752" />
	</node>
	<node id="-374550" lat="58.0573194483" lon="6.99995554854">
		<tag k="name" v="Hølen" />
		<tag k="natural" v="bay" />
		<tag k="ssr:stedsnr" v="810718" />
	</node>
	<node id="-374549" lat="58.0513222185" lon="6.9931277696">
		<tag k="name" v="Likvika" />
		<tag k="natural" v="bay" />
		<tag k="ssr:stedsnr" v="810710" />
	</node>
	<node id="-374548" lat="58.0547444479" lon="6.99777222635">
		<tag k="name" v="Rogneholmen" />
		<tag k="place" v="islet" />
		<tag k="ssr:stedsnr" v="810708" />
	</node>
	<node id="-372499" lat="58.0338000041" lon="6.96407778108">
		<tag k="name" v="Herreholmen" />
		<tag k="place" v="islet" />
		<tag k="ssr:stedsnr" v="400" />
	</node>
	<node id="-372496" lat="58.026205553" lon="6.98616666803">
		<tag k="name" v="Håøy" />
		<tag k="place" v="islet" />
		<tag k="ssr:stedsnr" v="652" />
	</node>
	<node id="-372493" lat="57.9854722263" lon="6.98021945006">
		<tag k="name" v="Havnegardsflua" />
		<tag k="natural" v="shoal" />
		<tag k="place" v="locality" />
		<tag k="ssr:stedsnr" v="9" />
	</node>
	<node id="-372492" lat="58.0013828132" lon="6.9859754751">
		<tag k="name" v="Markøy" />
		<tag k="place" v="island" />
		<tag k="ssr:stedsnr" v="2" />
	</node>
	<node id="-374536" lat="58.1039664778" lon="6.95512632069">
		<tag k="name" v="Bøyversund" />
		<tag k="natural" v="strait" />
		<tag k="ssr:stedsnr" v="810475" />
	</node>
	<node id="-372268" lat="58.0274583371" lon="6.96439166559">
		<tag k="name" v="Bjørneskjerflua" />
		<tag k="place" v="locality" />
		<tag k="seamark:type" v="rock" />
		<tag k="ssr:stedsnr" v="342051" />
	</node>
	<node id="-374022" lat="58.0722277771" lon="7.12731944745">
		<tag k="name" v="Kittelsnesodden" />
		<tag k="natural" v="cape" />
		<tag k="ssr:stedsnr" v="628392" />
	</node>
	<node id="-373121" lat="58.0866944488" lon="7.01595833197">
		<tag k="name" v="Tobakkodden" />
		<tag k="natural" v="cape" />
		<tag k="ssr:stedsnr" v="203778" />
	</node>
	<node id="-373507" lat="58.0556361109" lon="7.05361667181">
		<tag k="fixme" v="consider seamark:type=rock or natural=shoal" />
		<tag k="name" v="Skarveskjær" />
		<tag k="place" v="islet" />
		<tag k="ssr:stedsnr" v="446831" />
	</node>
	<node id="-372993" lat="57.9928305547" lon="7.01569167361">
		<tag k="bay" v="fjord" />
		<tag k="name" v="Grønsfjorden" />
		<tag k="natural" v="bay" />
		<tag k="ssr:stedsnr" v="182006" />
	</node>
	<node id="-372437" lat="58.1140472249" lon="7.05812222826">
		<tag k="name" v="Ydre Skomragbukta" />
		<tag k="natural" v="bay" />
		<tag k="ssr:stedsnr" v="387475" />
	</node>
	<node id="-372778" lat="58.0674166658" lon="7.01263334042">
		<tag k="name" v="Døra" />
		<tag k="natural" v="bay" />
		<tag k="ssr:stedsnr" v="82675" />
	</node>
	<node id="-373497" lat="58.1125694457" lon="7.02732500173">
		<tag k="name" v="Ytre Svenevikbukta" />
		<tag k="natural" v="bay" />
		<tag k="ssr:stedsnr" v="446736" />
	</node>
	<node id="-372983" lat="58.0069333304" lon="7.0124083404">
		<tag k="name" v="Juden" />
		<tag k="natural" v="shoal" />
		<tag k="place" v="locality" />
		<tag k="ssr:stedsnr" v="268566" />
	</node>
	<node id="-372982" lat="57.9988888932" lon="6.97916665931">
		<tag k="name" v="Vestre Følflua" />
		<tag k="natural" v="shoal" />
		<tag k="place" v="locality" />
		<tag k="ssr:stedsnr" v="145983" />
	</node>
	<node id="-372434" lat="58.071602779" lon="7.14028055756">
		<tag k="name" v="Hegevika" />
		<tag k="natural" v="bay" />
		<tag k="ssr:stedsnr" v="386871" />
	</node>
	<node id="-374505" lat="58.02611111" lon="6.97648611515">
		<tag k="name" v="Sutnevika" />
		<tag k="natural" v="bay" />
		<tag k="ssr:stedsnr" v="810293" />
	</node>
	<node id="-372119" lat="58.0251583332" lon="7.01406667199">
		<tag k="name" v="Revøy" />
		<tag k="place" v="island" />
		<tag k="ssr:stedsnr" v="304682" />
	</node>
	<node id="-372454" lat="58.0880416708" lon="7.16313333484">
		<tag k="alt_name" v="Lenesfjorden" />
		<tag k="bay" v="fjord" />
		<tag k="name" v="Lenefjorden" />
		<tag k="natural" v="bay" />
		<tag k="ssr:stedsnr" v="546565" />
	</node>
	<node id="-373201" lat="58.0608500038" lon="6.99718611692">
		<tag k="name" v="Bærøy" />
		<tag k="place" v="island" />
		<tag k="ssr:stedsnr" v="243623" />
	</node>
	<node id="-374500" lat="58.1197222225" lon="6.969297223">
		<tag k="name" v="Aunevikbukta" />
		<tag k="natural" v="bay" />
		<tag k="ssr:stedsnr" v="810268" />
	</node>
	<node id="-374499" lat="58.1147694409" lon="6.95207500489">
		<tag k="name" v="Lundodden" />
		<tag k="natural" v="cape" />
		<tag k="ssr:stedsnr" v="810265" />
	</node>
	<node id="-372449" lat="58.0153027767" lon="7.0041888856">
		<tag k="name" v="Ulvåsodden" />
		<tag k="natural" v="cape" />
		<tag k="ssr:stedsnr" v="889062" />
	</node>
	<node id="-373984" lat="58.1345027776" lon="6.99543610977">
		<tag k="name" v="Sandvika" />
		<tag k="natural" v="bay" />
		<tag k="ssr:stedsnr" v="627816" />
	</node>
	<node id="-373982" lat="58.0718777747" lon="7.09945000488">
		<tag k="fixme" v="consider seamark:type=rock or natural=shoal" />
		<tag k="name" v="Sugga" />
		<tag k="place" v="islet" />
		<tag k="ssr:stedsnr" v="627800" />
	</node>
	<node id="-373981" lat="58.0767333306" lon="7.11850832609">
		<tag k="name" v="Todnes" />
		<tag k="natural" v="cape" />
		<tag k="ssr:stedsnr" v="627794" />
	</node>
	<node id="-372443" lat="58.0651277751" lon="7.10995833617">
		<tag k="name" v="Risholmgrunnen" />
		<tag k="natural" v="shoal" />
		<tag k="place" v="locality" />
		<tag k="ssr:stedsnr" v="390436" />
	</node>
	<node id="-372442" lat="57.9966666631" lon="6.98194444076">
		<tag k="name" v="Søndre Følflua" />
		<tag k="natural" v="shoal" />
		<tag k="place" v="locality" />
		<tag k="ssr:stedsnr" v="388993" />
	</node>
	<node id="-372441" lat="58.0038888865" lon="6.9799999952">
		<tag k="name" v="Dannemarksflua" />
		<tag k="natural" v="shoal" />
		<tag k="place" v="locality" />
		<tag k="ssr:stedsnr" v="388989" />
	</node>
	<node id="-372440" lat="58.1149732218" lon="6.96003788955">
		<tag k="name" v="Skeidalsbukta" />
		<tag k="natural" v="bay" />
		<tag k="ssr:stedsnr" v="388968" />
	</node>
	<node id="-372439" lat="58.0973888876" lon="7.0202166685">
		<tag k="fixme" v="consider seamark:type=rock or natural=shoal" />
		<tag k="name" v="Litlaskjeret" />
		<tag k="place" v="islet" />
		<tag k="ssr:stedsnr" v="388123" />
	</node>
	<node id="-372438" lat="58.0978944442" lon="7.01985833616">
		<tag k="fixme" v="consider seamark:type=rock or natural=shoal" />
		<tag k="name" v="Storaskjeret" />
		<tag k="place" v="islet" />
		<tag k="ssr:stedsnr" v="388121" />
	</node>
	<node id="-372949" lat="58.1266833315" lon="7.18221388786">
		<tag k="name" v="Svinnes" />
		<tag k="natural" v="cape" />
		<tag k="ssr:stedsnr" v="142946" />
	</node>
	<node id="-372435" lat="58.0762194481" lon="7.14688056048">
		<tag k="name" v="Svinesodden" />
		<tag k="natural" v="cape" />
		<tag k="ssr:stedsnr" v="386874" />
	</node>
	<node id="-373970" lat="58.0453305583" lon="6.9760722206">
		<tag k="name" v="Gretlevika" />
		<tag k="natural" v="bay" />
		<tag k="ssr:stedsnr" v="627718" />
	</node>
	<node id="-372941" lat="58.0544305515" lon="7.00181666024">
		<tag k="name" v="Buvika" />
		<tag k="natural" v="bay" />
		<tag k="ssr:stedsnr" v="142712" />
	</node>
	<node id="-372940" lat="58.0708972246" lon="7.01021665992">
		<tag k="name" v="Sponevika" />
		<tag k="natural" v="bay" />
		<tag k="ssr:stedsnr" v="142710" />
	</node>
	<node id="-373538" lat="58.0385055595" lon="7.03161110472">
		<tag k="fixme" v="consider seamark:type=rock or natural=shoal" />
		<tag k="name" v="Riva" />
		<tag k="place" v="islet" />
		<tag k="ssr:stedsnr" v="481477" />
	</node>
	<node id="-374600" lat="58.0095916706" lon="7.00723333449">
		<tag k="fixme" v="consider seamark:type=rock or natural=shoal" />
		<tag k="name" v="Musa" />
		<tag k="place" v="islet" />
		<tag k="ssr:stedsnr" v="830175" />
	</node>
	<node id="-373537" lat="58.0284361105" lon="7.02135833665">
		<tag k="fixme" v="consider seamark:type=rock or natural=shoal" />
		<tag k="name" v="Kjelvigholmen" />
		<tag k="place" v="islet" />
		<tag k="ssr:stedsnr" v="481443" />
	</node>
	<node id="-373444" lat="58.0312694403" lon="6.979691668">
		<tag k="name" v="Stangholmen" />
		<tag k="place" v="islet" />
		<tag k="ssr:stedsnr" v="446319" />
	</node>
	<node id="-373443" lat="58.0291472196" lon="6.97770555114">
		<tag k="name" v="Sutnøybukta" />
		<tag k="natural" v="bay" />
		<tag k="ssr:stedsnr" v="446317" />
	</node>
	<node id="-372781" lat="58.0783305584" lon="6.99141388583">
		<tag k="name" v="Ådneskårstranda" />
		<tag k="natural" v="bay" />
		<tag k="ssr:stedsnr" v="82680" />
	</node>
	<node id="-372939" lat="58.0737249996" lon="6.98693056023">
		<tag k="name" v="Lindevika" />
		<tag k="natural" v="bay" />
		<tag k="ssr:stedsnr" v="142696" />
	</node>
	<node id="-373440" lat="58.0139750007" lon="6.99166111576">
		<tag k="name" v="Kjepsøybukta" />
		<tag k="natural" v="bay" />
		<tag k="ssr:stedsnr" v="446303" />
	</node>
	<node id="-372815" lat="58.0261194454" lon="7.02398055496">
		<tag k="name" v="Svensodden" />
		<tag k="natural" v="cape" />
		<tag k="ssr:stedsnr" v="85048" />
	</node>
	<node id="-373438" lat="58.001530555" lon="7.00606666829">
		<tag k="name" v="Kommedørskjærene" />
		<tag k="place" v="island" />
		<tag k="ssr:stedsnr" v="446295" />
	</node>
	<node id="-373437" lat="58.0072583366" lon="7.00398055974">
		<tag k="name" v="Hønseholmen" />
		<tag k="place" v="islet" />
		<tag k="ssr:stedsnr" v="446290" />
	</node>
	<node id="-374972" lat="58.0353722242" lon="7.01784165894">
		<tag k="name" v="Strandjordbukta" />
		<tag k="natural" v="bay" />
		<tag k="ssr:stedsnr" v="949030" />
	</node>
	<node id="-374971" lat="58.0460916668" lon="6.97688610288">
		<tag k="name" v="Hausvigodden" />
		<tag k="natural" v="cape" />
		<tag k="ssr:stedsnr" v="949029" />
	</node>
	<node id="-374970" lat="58.0578694448" lon="6.99774721727">
		<tag k="name" v="Børøykilen" />
		<tag k="natural" v="bay" />
		<tag k="ssr:stedsnr" v="949001" />
	</node>
	<node id="-374969" lat="57.9875000005" lon="6.99666665952">
		<tag k="name" v="Vesterflua" />
		<tag k="natural" v="shoal" />
		<tag k="place" v="locality" />
		<tag k="ssr:stedsnr" v="934993" />
	</node>
	<node id="-374968" lat="58.1015472236" lon="7.03862777312">
		<tag k="name" v="Rorsholet" />
		<tag k="natural" v="bay" />
		<tag k="ssr:stedsnr" v="934128" />
	</node>
	<node id="-374967" lat="58.1031333357" lon="7.04035277811">
		<tag k="name" v="Krågestølstranda" />
		<tag k="natural" v="beach" />
		<tag k="place" v="locality" />
		<tag k="ssr:stedsnr" v="934129" />
	</node>
	<node id="-374962" lat="58.13965556" lon="7.03078333537">
		<tag k="name" v="Monodden" />
		<tag k="natural" v="cape" />
		<tag k="ssr:stedsnr" v="932874" />
	</node>
	<node id="-372401" lat="58.0696249958" lon="7.0943527737">
		<tag k="name" v="Rotneoddene" />
		<tag k="natural" v="cape" />
		<tag k="ssr:stedsnr" v="385796" />
	</node>
	<node id="-374502" lat="58.0019111076" lon="6.99896666293">
		<tag k="name" v="Legevikholmen" />
		<tag k="place" v="islet" />
		<tag k="ssr:stedsnr" v="810274" />
	</node>
	<node id="-374442" lat="58.0143888883" lon="6.97178055513">
		<tag k="loc_name" v="Vestre Torsholmen" />
		<tag k="name" v="Torsholmane" />
		<tag k="place" v="islet" />
		<tag k="ssr:stedsnr" v="788645" />
	</node>
	<node id="-373928" lat="58.0239444434" lon="6.98212222553">
		<tag k="name" v="Kjerringøy" />
		<tag k="place" v="island" />
		<tag k="ssr:stedsnr" v="627320" />
	</node>
	<node id="-373927" lat="58.0236694403" lon="6.99826666557">
		<tag k="name" v="Kreklingholmen" />
		<tag k="place" v="islet" />
		<tag k="ssr:stedsnr" v="627319" />
	</node>
	<node id="-373926" lat="58.0113777762" lon="7.01383056388">
		<tag k="name" v="Lyngholmsundet" />
		<tag k="natural" v="strait" />
		<tag k="ssr:stedsnr" v="627313" />
	</node>
	<node id="-373925" lat="58.0027527774" lon="6.99311388487">
		<tag k="name" v="Glubodden" />
		<tag k="natural" v="cape" />
		<tag k="ssr:stedsnr" v="627306" />
	</node>
	<node id="-373924" lat="58.0041916689" lon="6.99942777811">
		<tag k="name" v="Flisevika" />
		<tag k="natural" v="bay" />
		<tag k="ssr:stedsnr" v="627302" />
	</node>
	<node id="-373923" lat="58.0013138862" lon="7.00213055833">
		<tag k="name" v="Legevika" />
		<tag k="natural" v="bay" />
		<tag k="ssr:stedsnr" v="627299" />
	</node>
	<node id="-374811" lat="58.120916671" lon="6.95906111798">
		<tag k="name" v="Homseholman" />
		<tag k="place" v="islet" />
		<tag k="ssr:stedsnr" v="910299" />
	</node>
	<node id="-374430" lat="58.0528861103" lon="7.05005554954">
		<tag k="name" v="Åmlandsbukta" />
		<tag k="natural" v="bay" />
		<tag k="ssr:stedsnr" v="784469" />
	</node>
	<node id="-374429" lat="58.00821667" lon="7.02453888594">
		<tag k="fixme" v="consider seamark:type=rock or natural=shoal" />
		<tag k="name" v="Stusvigskjeran" />
		<tag k="place" v="islet" />
		<tag k="ssr:stedsnr" v="784458" />
	</node>
	<node id="-374428" lat="58.0935083349" lon="7.03288889312">
		<tag k="name" v="Lervikbukta" />
		<tag k="natural" v="bay" />
		<tag k="ssr:stedsnr" v="784433" />
	</node>
	<node id="-372891" lat="58.0324666657" lon="7.01814999779">
		<tag k="name" v="Badstuodden" />
		<tag k="natural" v="cape" />
		<tag k="ssr:stedsnr" v="142298" />
	</node>
	<node id="-372890" lat="58.0151194447" lon="6.97732221908">
		<tag k="fixme" v="consider seamark:type=rock or natural=shoal" />
		<tag k="name" v="Låveskjeran" />
		<tag k="place" v="islet" />
		<tag k="ssr:stedsnr" v="142287" />
	</node>
	<node id="-372377" lat="58.0658416701" lon="6.9952777744">
		<tag k="name" v="Mørteholet" />
		<tag k="natural" v="bay" />
		<tag k="ssr:stedsnr" v="385712" />
	</node>
	<node id="-374424" lat="58.0053972181" lon="6.97146666165">
		<tag k="name" v="Markøysundet" />
		<tag k="natural" v="strait" />
		<tag k="ssr:stedsnr" v="768183" />
	</node>
	<node id="-374423" lat="58.0059194488" lon="6.95530833171">
		<tag k="name" v="Torsholmgrunnen" />
		<tag k="natural" v="shoal" />
		<tag k="place" v="locality" />
		<tag k="ssr:stedsnr" v="768180" />
	</node>
	<node id="-373649" lat="58.0784944429" lon="7.11493888914">
		<tag k="name" v="Bjødnesodden" />
		<tag k="natural" v="cape" />
		<tag k="ssr:stedsnr" v="506773" />
	</node>
	<node id="-372163" lat="58.12210833" lon="6.94833056406">
		<tag k="fixme" v="consider seamark:type=rock or natural=shoal" />
		<tag k="name" v="Djupvigskjeran" />
		<tag k="place" v="islet" />
		<tag k="ssr:stedsnr" v="324279" />
	</node>
	<node id="-372880" lat="58.0314750035" lon="7.00546944221">
		<tag k="name" v="Hunsdalsholmen" />
		<tag k="place" v="islet" />
		<tag k="ssr:stedsnr" v="142308" />
	</node>
	<node id="-374927" lat="58.0936583353" lon="7.03195278344">
		<tag k="name" v="Austadbukta" />
		<tag k="natural" v="bay" />
		<tag k="ssr:stedsnr" v="931886" />
	</node>
	<node id="-373901" lat="58.016280082" lon="6.98842171308">
		<tag k="alt_name" v="Kjepsøy" />
		<tag k="name" v="Kjøpsøy" />
		<tag k="place" v="island" />
		<tag k="ssr:stedsnr" v="606669" />
	</node>
	<node id="-374924" lat="58.1154861093" lon="7.04393054831">
		<tag k="name" v="Holmsundet" />
		<tag k="natural" v="strait" />
		<tag k="ssr:stedsnr" v="931863" />
	</node>
	<node id="-374922" lat="58.058286107" lon="7.07440833503">
		<tag k="name" v="Eikenesodden" />
		<tag k="natural" v="cape" />
		<tag k="ssr:stedsnr" v="931853" />
	</node>
	<node id="-374918" lat="58.0685555524" lon="7.10185555697">
		<tag k="name" v="Kvinesvika" />
		<tag k="natural" v="bay" />
		<tag k="ssr:stedsnr" v="931828" />
	</node>
	<node id="-373441" lat="58.0183166643" lon="6.98112499261">
		<tag k="name" v="Helvedesodden" />
		<tag k="natural" v="cape" />
		<tag k="ssr:stedsnr" v="446305" />
	</node>
	<node id="-372269" lat="58.0196333344" lon="6.97286110605">
		<tag k="name" v="Skåregrunnen" />
		<tag k="natural" v="shoal" />
		<tag k="place" v="locality" />
		<tag k="ssr:stedsnr" v="342071" />
	</node>
	<node id="-374038" lat="58.1080055585" lon="7.17132222617">
		<tag k="name" v="Hornsøya" />
		<tag k="place" v="island" />
		<tag k="ssr:stedsnr" v="628912" />
	</node>
	<node id="-374914" lat="58.0913055525" lon="7.01018888757">
		<tag k="name" v="Stinasa" />
		<tag k="natural" v="cape" />
		<tag k="ssr:stedsnr" v="931800" />
	</node>
	<node id="-372165" lat="58.0071527819" lon="7.01834999409">
		<tag k="fixme" v="consider seamark:type=rock or natural=shoal" />
		<tag k="name" v="Lyreskjærene" />
		<tag k="place" v="islet" />
		<tag k="ssr:stedsnr" v="324299" />
	</node>
	<node id="-374037" lat="58.0940750037" lon="7.16527777829">
		<tag k="name" v="Kjøgsøy" />
		<tag k="place" v="islet" />
		<tag k="ssr:stedsnr" v="628904" />
	</node>
	<node id="-374393" lat="58.13489722" lon="7.03456111766">
		<tag k="name" v="Kvåviksanden" />
		<tag k="natural" v="beach" />
		<tag k="place" v="locality" />
		<tag k="ssr:stedsnr" v="749897" />
	</node>
	<node id="-373012" lat="58.0783749994" lon="7.1320611167">
		<tag k="alt_name" v="Åsevågen" />
		<tag k="name" v="Øsevågen" />
		<tag k="natural" v="bay" />
		<tag k="ssr:stedsnr" v="182607" />
	</node>
	<node id="-373878" lat="58.1470194417" lon="6.88899722951">
		<tag k="alt_name" v="Skredlistranda" />
		<tag k="name" v="Skrelistranda" />
		<tag k="natural" v="beach" />
		<tag k="place" v="locality" />
		<tag k="ssr:stedsnr" v="606235" />
	</node>
	<node id="-372337" lat="58.1212361118" lon="6.96809999222">
		<tag k="name" v="Brurholmen" />
		<tag k="place" v="islet" />
		<tag k="ssr:stedsnr" v="385271" />
	</node>
	<node id="-374384" lat="58.0800638877" lon="7.10811389048">
		<tag k="name" v="Jubavika" />
		<tag k="natural" v="bay" />
		<tag k="ssr:stedsnr" v="749814" />
	</node>
	<node id="-373358" lat="58.0821388882" lon="7.00880278315">
		<tag k="name" v="Håbergflua" />
		<tag k="natural" v="shoal" />
		<tag k="place" v="locality" />
		<tag k="ssr:stedsnr" v="267106" />
	</node>
	<node id="-373357" lat="58.102266665" lon="7.02465555693">
		<tag k="fixme" v="consider seamark:type=rock or natural=shoal" />
		<tag k="name" v="Selskjeran" />
		<tag k="place" v="islet" />
		<tag k="ssr:stedsnr" v="267083" />
	</node>
	<node id="-373356" lat="58.0295527779" lon="7.0178277827">
		<tag k="name" v="Varmekrona" />
		<tag k="natural" v="bay" />
		<tag k="ssr:stedsnr" v="267047" />
	</node>
	<node id="-373865" lat="58.1288972193" lon="6.97034166282">
		<tag k="name" v="Marehovud" />
		<tag k="natural" v="cape" />
		<tag k="ssr:stedsnr" v="585312" />
	</node>
	<node id="-373864" lat="58.1296638923" lon="6.94691110867">
		<tag k="name" v="Kjempestranda" />
		<tag k="natural" v="beach" />
		<tag k="place" v="locality" />
		<tag k="ssr:stedsnr" v="585300" />
	</node>
	<node id="-373863" lat="58.0196222254" lon="6.99665000196">
		<tag k="name" v="Røsvig" />
		<tag k="natural" v="bay" />
		<tag k="ssr:stedsnr" v="585065" />
	</node>
	<node id="-374374" lat="58.0553083349" lon="6.99667499771">
		<tag k="name" v="Kjeholmen" />
		<tag k="place" v="islet" />
		<tag k="ssr:stedsnr" v="749731" />
	</node>
	<node id="-374373" lat="58.0743805568" lon="7.00640555546">
		<tag k="name" v="Lefsevika" />
		<tag k="natural" v="bay" />
		<tag k="ssr:stedsnr" v="749719" />
	</node>
	<node id="-372109" lat="58.0649611075" lon="7.0069166676">
		<tag k="alt_name" v="Bærøybukta" />
		<tag k="name" v="Børøybugta" />
		<tag k="natural" v="bay" />
		<tag k="ssr:stedsnr" v="303612" />
	</node>
	<node id="-372832" lat="58.1322111131" lon="6.9100805613">
		<tag k="name" v="Asperøya" />
		<tag k="natural" v="cape" />
		<tag k="ssr:stedsnr" v="121281" />
	</node>
	<node id="-372933" lat="58.0987972213" lon="7.02255832694">
		<tag k="name" v="Syrhovud" />
		<tag k="natural" v="cape" />
		<tag k="ssr:stedsnr" v="142756" />
	</node>
	<node id="-373861" lat="58.0136250027" lon="7.02015555304">
		<tag k="name" v="Vervågholmen" />
		<tag k="natural" v="bay" />
		<tag k="ssr:stedsnr" v="570931" />
	</node>
	<node id="-372828" lat="57.9931166668" lon="7.00186667141">
		<tag k="name" v="Vaholmen" />
		<tag k="place" v="islet" />
		<tag k="ssr:stedsnr" v="121016" />
	</node>
	<node id="-372827" lat="57.9983388907" lon="6.98423333703">
		<tag k="name" v="Følet" />
		<tag k="place" v="islet" />
		<tag k="ssr:stedsnr" v="121003" />
	</node>
	<node id="-372641" lat="58.0752027801" lon="7.14365556116">
		<tag k="name" v="Illoga" />
		<tag k="natural" v="bay" />
		<tag k="ssr:stedsnr" v="22868" />
	</node>
	<node id="-372409" lat="58.0416666709" lon="7.02799721662">
		<tag k="name" v="Hundingslandsbukta" />
		<tag k="natural" v="bay" />
		<tag k="ssr:stedsnr" v="385839" />
	</node>
	<node id="-372819" lat="58.0764972196" lon="7.11681943684">
		<tag k="name" v="Fladstadholmen" />
		<tag k="place" v="islet" />
		<tag k="ssr:stedsnr" v="87785" />
	</node>
	<node id="-374866" lat="58.0316638854" lon="7.01287777156">
		<tag k="name" v="Revøysundet" />
		<tag k="natural" v="strait" />
		<tag k="ssr:stedsnr" v="931321" />
	</node>
	<node id="-372817" lat="58.0348388865" lon="7.02386110605">
		<tag k="name" v="Aspenskjerbåen" />
		<tag k="place" v="locality" />
		<tag k="seamark:type" v="rock" />
		<tag k="ssr:stedsnr" v="85133" />
	</node>
	<node id="-374864" lat="58.0191582528" lon="7.01189257034">
		<tag k="name" v="Kilen" />
		<tag k="natural" v="strait" />
		<tag k="ssr:stedsnr" v="931311" />
	</node>
	<node id="-374863" lat="58.0106666654" lon="6.99321110753">
		<tag k="name" v="Terneholman" />
		<tag k="place" v="island" />
		<tag k="ssr:stedsnr" v="931285" />
	</node>
	<node id="-372814" lat="58.0335166676" lon="7.02196110787">
		<tag k="fixme" v="consider seamark:type=rock or natural=shoal" />
		<tag k="name" v="Aspenskjer" />
		<tag k="place" v="islet" />
		<tag k="ssr:stedsnr" v="85047" />
	</node>
	<node id="-373773" lat="58.0295444488" lon="6.99579166394">
		<tag k="name" v="Rossvika" />
		<tag k="natural" v="bay" />
		<tag k="ssr:stedsnr" v="567294" />
	</node>
	<node id="-372812" lat="58.1209388923" lon="7.18847222835">
		<tag k="name" v="Kalveneset" />
		<tag k="natural" v="cape" />
		<tag k="ssr:stedsnr" v="83874" />
	</node>
	<node id="-373687" lat="58.0743361149" lon="7.14786666451">
		<tag k="name" v="Odden" />
		<tag k="natural" v="cape" />
		<tag k="ssr:stedsnr" v="507881" />
	</node>
	<node id="-373832" lat="58.0565166676" lon="7.04937499369">
		<tag k="name" v="Bekkestø" />
		<tag k="natural" v="bay" />
		<tag k="ssr:stedsnr" v="567828" />
	</node>
	<node id="-373318" lat="58.0748388893" lon="7.10776389695">
		<tag k="name" v="Naudøyna" />
		<tag k="place" v="island" />
		<tag k="ssr:stedsnr" v="264801" />
	</node>
	<node id="-373317" lat="58.0738416649" lon="7.09644166463">
		<tag k="fixme" v="consider seamark:type=rock or natural=shoal" />
		<tag k="name" v="Fiskeskjær" />
		<tag k="place" v="islet" />
		<tag k="ssr:stedsnr" v="264793" />
	</node>
	<node id="-373827" lat="58.0791944452" lon="7.11198334114">
		<tag k="name" v="Snorodden" />
		<tag k="natural" v="cape" />
		<tag k="ssr:stedsnr" v="567772" />
	</node>
	<node id="-373314" lat="58.0902833306" lon="7.01111666634">
		<tag k="name" v="Visdalsodden" />
		<tag k="natural" v="cape" />
		<tag k="ssr:stedsnr" v="264768" />
	</node>
	<node id="-372320" lat="58.0203388887" lon="7.01383055717">
		<tag k="name" v="Vraget" />
		<tag k="natural" v="shoal" />
		<tag k="place" v="locality" />
		<tag k="ssr:stedsnr" v="385302" />
	</node>
	<node id="-373822" lat="58.0578916637" lon="7.00419722862">
		<tag k="name" v="Gauksholmen" />
		<tag k="place" v="islet" />
		<tag k="ssr:stedsnr" v="567695" />
	</node>
	<node id="-373306" lat="58.0758944458" lon="6.98993610832">
		<tag k="name" v="Nesset" />
		<tag k="natural" v="cape" />
		<tag k="ssr:stedsnr" v="264679" />
	</node>
	<node id="-373305" lat="58.0647972185" lon="7.01156111534">
		<tag k="name" v="Nordstø" />
		<tag k="natural" v="bay" />
		<tag k="ssr:stedsnr" v="264674" />
	</node>
	<node id="-373304" lat="58.0693194444" lon="7.01179721656">
		<tag k="name" v="Jubavika" />
		<tag k="natural" v="bay" />
		<tag k="ssr:stedsnr" v="264669" />
	</node>
	<node id="-372319" lat="58.0204361144" lon="7.02197221842">
		<tag k="name" v="Grode" />
		<tag k="place" v="locality" />
		<tag k="ssr:stedsnr" v="385303" />
	</node>
	<node id="-372787" lat="58.1308777773" lon="6.98908610895">
		<tag k="name" v="Museholmen" />
		<tag k="place" v="islet" />
		<tag k="ssr:stedsnr" v="82746" />
	</node>
	<node id="-372547" lat="58.0020333363" lon="6.98226665853">
		<tag k="name" v="Hattevika" />
		<tag k="natural" v="bay" />
		<tag k="ssr:stedsnr" v="21288" />
	</node>
	<node id="-374320" lat="58.0318166703" lon="6.98774721558">
		<tag k="name" v="Samsviga" />
		<tag k="natural" v="bay" />
		<tag k="ssr:stedsnr" v="749308" />
	</node>
	<node id="-373512" lat="58.1424666668" lon="7.03114721447">
		<tag k="name" v="Stamsøya" />
		<tag k="place" v="island" />
		<tag k="ssr:stedsnr" v="446904" />
	</node>
	<node id="-374317" lat="58.0182222211" lon="6.98337777464">
		<tag k="name" v="Ytre Breivika" />
		<tag k="natural" v="bay" />
		<tag k="ssr:stedsnr" v="749290" />
	</node>
	<node id="-374316" lat="58.009669448" lon="6.98718054697">
		<tag k="name" v="Vrageholmen" />
		<tag k="place" v="islet" />
		<tag k="ssr:stedsnr" v="749288" />
	</node>
	<node id="-372267" lat="58.0568972213" lon="6.99088611464">
		<tag k="name" v="Børøyflua" />
		<tag k="place" v="locality" />
		<tag k="seamark:type" v="rock" />
		<tag k="ssr:stedsnr" v="342003" />
	</node>
	<node id="-374314" lat="58.0064055596" lon="6.99049722631">
		<tag k="name" v="Sandvika" />
		<tag k="natural" v="bay" />
		<tag k="ssr:stedsnr" v="749285" />
	</node>
	<node id="-372265" lat="58.0786138874" lon="6.99670277317">
		<tag k="name" v="Flesa" />
		<tag k="natural" v="cape" />
		<tag k="ssr:stedsnr" v="328973" />
	</node>
	<node id="-373249" lat="58.0203388896" lon="6.99848055584">
		<tag k="name" v="Fisersundet" />
		<tag k="natural" v="strait" />
		<tag k="ssr:stedsnr" v="264290" />
	</node>
	<node id="-372263" lat="57.9883333365" lon="6.99944444055">
		<tag k="name" v="Breiflua" />
		<tag k="natural" v="shoal" />
		<tag k="place" v="locality" />
		<tag k="ssr:stedsnr" v="327990" />
	</node>
	<node id="-372262" lat="58.0065111086" lon="6.98003610893">
		<tag k="name" v="Tjuven" />
		<tag k="natural" v="shoal" />
		<tag k="place" v="locality" />
		<tag k="ssr:stedsnr" v="327986" />
	</node>
	<node id="-372261" lat="58.0090194481" lon="6.97386944722">
		<tag k="fixme" v="multiple name tags, choose one and add the other to alt_name" />
		<tag k="loc_name" v="Austre Torsholmen" />
		<tag k="name" v="Tjuven;Østre Tåsholm" />
		<tag k="place" v="islet" />
		<tag k="ssr:stedsnr" v="327623" />
	</node>
	<node id="-374668" lat="58.0007166689" lon="6.99355276984">
		<tag k="name" v="Skuteholmen" />
		<tag k="place" v="islet" />
		<tag k="ssr:stedsnr" v="871249" />
	</node>
	<node id="-373321" lat="58.0607777799" lon="7.06690276943">
		<tag k="name" v="Epledalsbukta" />
		<tag k="natural" v="bay" />
		<tag k="ssr:stedsnr" v="264827" />
	</node>
	<node id="-372758" lat="58.0543749997" lon="7.04802499969">
		<tag k="name" v="Brattestø" />
		<tag k="natural" v="bay" />
		<tag k="ssr:stedsnr" v="82835" />
	</node>
	<node id="-374802" lat="58.0762861074" lon="7.11793333218">
		<tag k="name" v="Lilleholmen" />
		<tag k="place" v="islet" />
		<tag k="ssr:stedsnr" v="909503" />
	</node>
	<node id="-374800" lat="58.117038891" lon="6.96055000025">
		<tag k="loc_name" v="Nesebukta" />
		<tag k="name" v="Nesbukta" />
		<tag k="natural" v="bay" />
		<tag k="ssr:stedsnr" v="878836" />
	</node>
	<node id="-374798" lat="58.0010583348" lon="7.01019444519">
		<tag k="name" v="Indre Seliflua" />
		<tag k="natural" v="shoal" />
		<tag k="place" v="locality" />
		<tag k="ssr:stedsnr" v="875560" />
	</node>
	<node id="-374797" lat="57.9872416656" lon="7.00568333038">
		<tag k="name" v="Tverrflua" />
		<tag k="natural" v="shoal" />
		<tag k="place" v="locality" />
		<tag k="ssr:stedsnr" v="875532" />
	</node>
	<node id="-373772" lat="58.021777776" lon="6.99812777154">
		<tag k="name" v="Holmen" />
		<tag k="place" v="islet" />
		<tag k="ssr:stedsnr" v="567285" />
	</node>
	<node id="-374795" lat="58.0535805591" lon="7.04467777377">
		<tag k="name" v="Ligviga" />
		<tag k="natural" v="bay" />
		<tag k="ssr:stedsnr" v="874182" />
	</node>
	<node id="-374794" lat="58.0734499976" lon="7.00587778261">
		<tag k="name" v="Munken" />
		<tag k="natural" v="cape" />
		<tag k="ssr:stedsnr" v="874181" />
	</node>
	<node id="-373525" lat="58.0771111135" lon="7.14934444305">
		<tag k="name" v="Espenesodden" />
		<tag k="natural" v="cape" />
		<tag k="ssr:stedsnr" v="447859" />
	</node>
	<node id="-373542" lat="57.9706277761" lon="7.00294999397">
		<tag k="name" v="Låmekletten" />
		<tag k="natural" v="shoal" />
		<tag k="place" v="locality" />
		<tag k="ssr:stedsnr" v="485012" />
	</node>
	<node id="-374599" lat="58.0424111113" lon="6.974250001">
		<tag k="name" v="Sjoneviksflua" />
		<tag k="place" v="locality" />
		<tag k="seamark:type" v="rock" />
		<tag k="ssr:stedsnr" v="828018" />
	</node>
	<node id="-372229" lat="58.0623888927" lon="7.0094305587">
		<tag k="name" v="Indresundet" />
		<tag k="natural" v="strait" />
		<tag k="ssr:stedsnr" v="324689" />
	</node>
	<node id="-374274" lat="58.0072694438" lon="6.99583333963">
		<tag k="name" v="Vestre Seli" />
		<tag k="place" v="island" />
		<tag k="ssr:stedsnr" v="728642" />
	</node>
	<node id="-374273" lat="58.0278166692" lon="6.97318611493">
		<tag k="name" v="Sutnøy" />
		<tag k="place" v="island" />
		<tag k="ssr:stedsnr" v="728632" />
	</node>
</osm>
