<?xml version="1.0" encoding="UTF-8"?>
<osm generator="osmapis" version="0.6">
	<node id="-374782" lat="58.099052781" lon="7.14037500753">
		<tag k="name" v="Eiketjønn" />
		<tag k="natural" v="water" />
		<tag k="ssr:stedsnr" v="871916" />
	</node>
	<node id="-374781" lat="58.1668833351" lon="7.16378888037">
		<tag k="name" v="Huntjønna" />
		<tag k="natural" v="water" />
		<tag k="ssr:stedsnr" v="871907" />
	</node>
	<node id="-374779" lat="58.1506027741" lon="7.18639722923">
		<tag k="name" v="Flatosen" />
		<tag k="natural" v="bay" />
		<tag k="ssr:stedsnr" v="871906" />
	</node>
	<node id="-374777" lat="58.1619138934" lon="7.16185834004">
		<tag k="name" v="Skortjønn" />
		<tag k="natural" v="water" />
		<tag k="ssr:stedsnr" v="871893" />
	</node>
	<node id="-374775" lat="58.1511694463" lon="7.08286666422">
		<tag k="name" v="Notehølen" />
		<tag k="natural" v="bay" />
		<tag k="ssr:stedsnr" v="871881" />
	</node>
	<node id="-374774" lat="58.1431027803" lon="7.07070833582">
		<tag k="name" v="Stuvannssanden" />
		<tag k="natural" v="shoal" />
		<tag k="place" v="locality" />
		<tag k="ssr:stedsnr" v="871876" />
	</node>
	<node id="-374772" lat="58.099911108" lon="7.06228333615">
		<tag k="name" v="Hagestadvannet" />
		<tag k="natural" v="water" />
		<tag k="ssr:stedsnr" v="871850" />
		<tag k="water" v="lake" />
	</node>
	<node id="-372713" lat="58.2740666676" lon="7.07676667444">
		<tag k="name" v="Igletjønna" />
		<tag k="natural" v="water" />
		<tag k="ssr:stedsnr" v="82149" />
	</node>
	<node id="-374757" lat="58.1608722183" lon="7.01009444363">
		<tag k="name" v="Egilstadtjønna" />
		<tag k="natural" v="water" />
		<tag k="ssr:stedsnr" v="871745" />
	</node>
	<node id="-372707" lat="58.2315249964" lon="7.07874722679">
		<tag k="name" v="Laulandstjønn" />
		<tag k="natural" v="water" />
		<tag k="ssr:stedsnr" v="82075" />
	</node>
	<node id="-372699" lat="58.214638887" lon="7.09656943676">
		<tag k="name" v="Stemmen" />
		<tag k="natural" v="water" />
		<tag k="ssr:stedsnr" v="82188" />
	</node>
	<node id="-372694" lat="58.2030777787" lon="7.0402861081">
		<tag k="name" v="Bukta" />
		<tag k="natural" v="bay" />
		<tag k="ssr:stedsnr" v="82018" />
	</node>
	<node id="-374739" lat="58.2294444413" lon="7.23344166404">
		<tag k="name" v="Sollivann" />
		<tag k="natural" v="water" />
		<tag k="ssr:stedsnr" v="871617" />
		<tag k="water" v="lake" />
	</node>
	<node id="-374736" lat="58.1943833303" lon="7.22257222521">
		<tag k="name" v="Raptevann" />
		<tag k="natural" v="water" />
		<tag k="ssr:stedsnr" v="871590" />
	</node>
	<node id="-374735" lat="58.1956805549" lon="7.22031666138">
		<tag k="name" v="Smalavann" />
		<tag k="natural" v="water" />
		<tag k="ssr:stedsnr" v="871589" />
	</node>
	<node id="-374733" lat="58.2607861145" lon="7.21564166762">
		<tag k="name" v="Kvernebekken" />
		<tag k="ssr:stedsnr" v="871577" />
		<tag k="waterway" v="stream" />
	</node>
	<node id="-374728" lat="58.2590083371" lon="7.15839166306">
		<tag k="name" v="Lislona" />
		<tag k="natural" v="water" />
		<tag k="ssr:stedsnr" v="871559" />
		<tag k="water" v="lake" />
	</node>
	<node id="-372675" lat="58.1982079703" lon="7.08385551805">
		<tag k="alt_name" v="Hagevatnet" />
		<tag k="name" v="Hagevann" />
		<tag k="natural" v="water" />
		<tag k="ssr:stedsnr" v="61457" />
	</node>
	<node id="-372384" lat="58.2346750033" lon="7.24585277491">
		<tag k="name" v="Røynestøltjønn" />
		<tag k="natural" v="water" />
		<tag k="ssr:stedsnr" v="385652" />
	</node>
	<node id="-372670" lat="58.1593705948" lon="6.89013261813">
		<tag k="alt_name" v="Bergevann" />
		<tag k="name" v="Bergsvatnet" />
		<tag k="natural" v="water" />
		<tag k="ssr:stedsnr" v="61219" />
	</node>
	<node id="-372669" lat="58.1576475572" lon="6.89929415793">
		<tag k="alt_name" v="Sandvann" />
		<tag k="name" v="Sandvatnet" />
		<tag k="natural" v="water" />
		<tag k="ssr:stedsnr" v="61216" />
	</node>
	<node id="-374706" lat="58.165797226" lon="7.09543334073">
		<tag k="name" v="Lautjønn" />
		<tag k="natural" v="water" />
		<tag k="ssr:stedsnr" v="871411" />
	</node>
	<node id="-372657" lat="58.1401083289" lon="6.95174721757">
		<tag k="name" v="Skulpetjønna" />
		<tag k="natural" v="water" />
		<tag k="ssr:stedsnr" v="42525" />
	</node>
	<node id="-372656" lat="58.1171000017" lon="6.95206666574">
		<tag k="name" v="Djupvigstranda" />
		<tag k="natural" v="beach" />
		<tag k="ssr:stedsnr" v="28854" />
	</node>
	<node id="-374703" lat="58.1450166691" lon="7.13130278515">
		<tag k="name" v="Åsevannet" />
		<tag k="natural" v="water" />
		<tag k="ssr:stedsnr" v="871399" />
		<tag k="water" v="lake" />
	</node>
	<node id="-372650" lat="58.1099138861" lon="7.02939444484">
		<tag k="name" v="Nesodden" />
		<tag k="natural" v="cape" />
		<tag k="ssr:stedsnr" v="24187" />
	</node>
	<node id="-374686" lat="58.2567222241" lon="7.2301166592">
		<tag k="name" v="Igletjønn" />
		<tag k="natural" v="water" />
		<tag k="ssr:stedsnr" v="871290" />
	</node>
	<node id="-372618" lat="58.0879249962" lon="7.11792500346">
		<tag k="name" v="Ytre Steinslandsvannet" />
		<tag k="natural" v="water" />
		<tag k="ssr:stedsnr" v="21844" />
		<tag k="water" v="lake" />
	</node>
	<node id="-372606" lat="58.041227777" lon="7.0071138831">
		<tag k="name" v="Holviktjønna" />
		<tag k="natural" v="water" />
		<tag k="ssr:stedsnr" v="21720" />
	</node>
	<node id="-374653" lat="58.2213916629" lon="7.11162777687">
		<tag k="name" v="Gulltjønna" />
		<tag k="natural" v="water" />
		<tag k="ssr:stedsnr" v="871167" />
	</node>
	<node id="-374651" lat="58.21814444" lon="7.08889999775">
		<tag k="name" v="Lille Krokvann" />
		<tag k="natural" v="water" />
		<tag k="ssr:stedsnr" v="871156" />
		<tag k="water" v="lake" />
	</node>
	<node id="-372602" lat="58.0726249994" lon="7.02414445068">
		<tag k="name" v="Rotjønn" />
		<tag k="natural" v="water" />
		<tag k="ssr:stedsnr" v="21702" />
	</node>
	<node id="-372595" lat="58.2377222221" lon="7.24184723074">
		<tag k="name" v="Klætjønn" />
		<tag k="natural" v="water" />
		<tag k="ssr:stedsnr" v="21659" />
	</node>
	<node id="-372592" lat="58.2331722226" lon="7.22426388479">
		<tag k="name" v="Bringhomstjønn" />
		<tag k="natural" v="water" />
		<tag k="ssr:stedsnr" v="21641" />
	</node>
	<node id="-374639" lat="58.2133830059" lon="6.99067606281">
		<tag k="name" v="Stemmetjønna" />
		<tag k="natural" v="water" />
		<tag k="ssr:stedsnr" v="871048" />
	</node>
	<node id="-374638" lat="58.2009249984" lon="6.98701943721">
		<tag k="name" v="Heptetjønna" />
		<tag k="natural" v="water" />
		<tag k="ssr:stedsnr" v="871047" />
	</node>
	<node id="-372587" lat="58.1779749988" lon="7.20425000609">
		<tag k="name" v="Åsebukta" />
		<tag k="natural" v="bay" />
		<tag k="ssr:stedsnr" v="21581" />
	</node>
	<node id="-372586" lat="58.2461166652" lon="7.12033889676">
		<tag k="name" v="Gluggtjønn" />
		<tag k="natural" v="water" />
		<tag k="ssr:stedsnr" v="21530" />
	</node>
	<node id="-374075" lat="58.2054500032" lon="7.23282499835">
		<tag k="alt_name" v="Bronevann" />
		<tag k="name" v="Bronevatnet" />
		<tag k="natural" v="water" />
		<tag k="ssr:stedsnr" v="667396" />
	</node>
	<node id="-374622" lat="58.1674552459" lon="7.23172373174">
		<tag k="alt_name" v="Lølandsvann" />
		<tag k="name" v="Lølandsvatnet" />
		<tag k="natural" v="water" />
		<tag k="ssr:stedsnr" v="850499" />
		<tag k="water" v="lake" />
	</node>
	<node id="-372573" lat="58.1563333343" lon="7.09056110602">
		<tag k="name" v="Presthølen" />
		<tag k="place" v="locality" />
		<tag k="ssr:stedsnr" v="21462" />
	</node>
	<node id="-374620" lat="58.1920750012" lon="7.044875001">
		<tag k="alt_name" v="Vatlandsvann" />
		<tag k="name" v="Vatlandsvatnet" />
		<tag k="natural" v="water" />
		<tag k="ssr:stedsnr" v="850473" />
	</node>
	<node id="-372571" lat="58.142833331" lon="7.11586666291">
		<tag k="name" v="Kyrauge" />
		<tag k="natural" v="water" />
		<tag k="ssr:stedsnr" v="21458" />
	</node>
	<node id="-374618" lat="58.2151160001" lon="7.08682694259">
		<tag k="alt_name" v="Kroketjønn" />
		<tag k="name" v="Kroketjørn" />
		<tag k="natural" v="water" />
		<tag k="ssr:stedsnr" v="850450" />
	</node>
	<node id="-374614" lat="58.2307789667" lon="7.11951599902">
		<tag k="alt_name" v="Kleivvann" />
		<tag k="name" v="Kleivvatnet" />
		<tag k="natural" v="water" />
		<tag k="ssr:stedsnr" v="850398" />
	</node>
	<node id="-372565" lat="58.2893594611" lon="7.23856228982">
		<tag k="name" v="Pertjønn" />
		<tag k="natural" v="water" />
		<tag k="ssr:stedsnr" v="21375" />
	</node>
	<node id="-372550" lat="58.2252444425" lon="7.16465000394">
		<tag k="name" v="Kvennebekken" />
		<tag k="ssr:stedsnr" v="21309" />
		<tag k="waterway" v="stream" />
	</node>
	<node id="-374597" lat="58.1188722195" lon="6.95937500636">
		<tag k="name" v="Innerodden" />
		<tag k="natural" v="cape" />
		<tag k="ssr:stedsnr" v="814967" />
	</node>
	<node id="-372545" lat="58.2095666678" lon="7.16341943852">
		<tag k="name" v="Lomtjønn" />
		<tag k="natural" v="water" />
		<tag k="ssr:stedsnr" v="21266" />
	</node>
	<node id="-374589" lat="58.1841277752" lon="7.20047500235">
		<tag k="name" v="Nesodden" />
		<tag k="natural" v="cape" />
		<tag k="ssr:stedsnr" v="811548" />
	</node>
	<node id="-374585" lat="58.1628194417" lon="7.20669723008">
		<tag k="name" v="Grauttjønn" />
		<tag k="natural" v="water" />
		<tag k="ssr:stedsnr" v="811500" />
	</node>
	<node id="-374578" lat="58.2220222266" lon="7.14634722132">
		<tag k="name" v="Bjørnsbekken" />
		<tag k="ssr:stedsnr" v="811253" />
		<tag k="waterway" v="stream" />
	</node>
	<node id="-372529" lat="58.2437972223" lon="7.07908055571">
		<tag k="name" v="Mjåsundet" />
		<tag k="natural" v="strait" />
		<tag k="ssr:stedsnr" v="21153" />
	</node>
	<node id="-372527" lat="58.2536499996" lon="7.06728611657">
		<tag k="name" v="Toftelandsvann" />
		<tag k="natural" v="water" />
		<tag k="ssr:stedsnr" v="21138" />
		<tag k="water" v="lake" />
	</node>
	<node id="-372526" lat="58.2147027811" lon="7.07999445167">
		<tag k="name" v="Ålgardstjønn" />
		<tag k="natural" v="water" />
		<tag k="ssr:stedsnr" v="21096" />
	</node>
	<node id="-374571" lat="58.0912833365" lon="7.04128055876">
		<tag k="name" v="Austadtjønna" />
		<tag k="natural" v="water" />
		<tag k="ssr:stedsnr" v="810880" />
	</node>
	<node id="-372522" lat="58.2229416689" lon="7.02004166727">
		<tag k="name" v="Lammeholmen" />
		<tag k="place" v="islet" />
		<tag k="ssr:stedsnr" v="21071" />
	</node>
	<node id="-372517" lat="58.2098861098" lon="7.13099721863">
		<tag k="name" v="Ytre Sagebekken" />
		<tag k="ssr:stedsnr" v="21045" />
		<tag k="waterway" v="stream" />
	</node>
	<node id="-372516" lat="58.2104277791" lon="7.09463889305">
		<tag k="name" v="Stemmebekken" />
		<tag k="ssr:stedsnr" v="21034" />
		<tag k="waterway" v="stream" />
	</node>
	<node id="-374562" lat="58.0708111099" lon="7.05889443761">
		<tag k="name" v="Erikstadtjønna" />
		<tag k="natural" v="water" />
		<tag k="ssr:stedsnr" v="810812" />
	</node>
	<node id="-372511" lat="58.2248277793" lon="7.0226027762">
		<tag k="name" v="Handelandsvann" />
		<tag k="natural" v="water" />
		<tag k="ssr:stedsnr" v="21004" />
		<tag k="water" v="lake" />
	</node>
	<node id="-374557" lat="58.1389722226" lon="6.95583055391">
		<tag k="name" v="Storatjønna" />
		<tag k="natural" v="water" />
		<tag k="ssr:stedsnr" v="810772" />
	</node>
	<node id="-372508" lat="58.1047194184" lon="7.00579560257">
		<tag k="alt_name" v="Helleråsvannet" />
		<tag k="name" v="Helleråsvatnet" />
		<tag k="natural" v="water" />
		<tag k="ssr:stedsnr" v="508" />
	</node>
	<node id="-372506" lat="58.1657419439" lon="7.12991602741">
		<tag k="alt_name" v="Jovann" />
		<tag k="name" v="Jovatnet" />
		<tag k="natural" v="water" />
		<tag k="ssr:stedsnr" v="492" />
	</node>
	<node id="-372504" lat="58.1495274219" lon="7.14862948132">
		<tag k="alt_name" v="Gulltjønna" />
		<tag k="name" v="Gulltjørn" />
		<tag k="natural" v="water" />
		<tag k="ssr:stedsnr" v="481" />
	</node>
	<node id="-372494" lat="58.1623038439" lon="6.95531449688">
		<tag k="alt_name" v="Svartevann" />
		<tag k="name" v="Svartevatnet" />
		<tag k="natural" v="water" />
		<tag k="ssr:stedsnr" v="229" />
	</node>
	<node id="-374531" lat="58.1292722265" lon="7.12536667487">
		<tag k="name" v="Gasteholmen" />
		<tag k="place" v="islet" />
		<tag k="ssr:stedsnr" v="810435" />
	</node>
	<node id="-372477" lat="58.3032017769" lon="7.20818981632">
		<tag k="name" v="Gysfossen" />
		<tag k="natural" v="waterfall" />
		<tag k="ssr:stedsnr" v="340086" />
	</node>
	<node id="-372476" lat="58.1401076919" lon="7.23435948201">
		<tag k="name" v="Mjåsund" />
		<tag k="natural" v="strait" />
		<tag k="ssr:stedsnr" v="325821" />
	</node>
	<node id="-374520" lat="58.2521583322" lon="7.11645278196">
		<tag k="name" v="Finnesbukt" />
		<tag k="natural" v="bay" />
		<tag k="ssr:stedsnr" v="810378" />
	</node>
	<node id="-374515" lat="58.1794944435" lon="7.2406194361">
		<tag k="name" v="Bervann" />
		<tag k="natural" v="water" />
		<tag k="ssr:stedsnr" v="810350" />
		<tag k="water" v="lake" />
	</node>
	<node id="-374514" lat="58.1513916636" lon="7.22280832873">
		<tag k="name" v="Bekkedalsbekken" />
		<tag k="ssr:stedsnr" v="810347" />
		<tag k="waterway" v="stream" />
	</node>
	<node id="-372691" lat="58.2589906199" lon="7.14005730345">
		<tag k="alt_name" v="Sandvann" />
		<tag k="name" v="Sandvatnet" />
		<tag k="natural" v="water" />
		<tag k="ssr:stedsnr" v="61608" />
	</node>
	<node id="-374511" lat="58.2627416685" lon="7.24187777831">
		<tag k="loc_name" v="Mjåvannet" />
		<tag k="name" v="Mjåvann" />
		<tag k="natural" v="water" />
		<tag k="ssr:stedsnr" v="810324" />
		<tag k="water" v="lake" />
	</node>
	<node id="-374506" lat="58.2207027736" lon="7.18384444621">
		<tag k="name" v="Høråstjønn" />
		<tag k="natural" v="water" />
		<tag k="ssr:stedsnr" v="810296" />
	</node>
	<node id="-372453" lat="58.1723972226" lon="7.24433611693">
		<tag k="name" v="Lølandsvannet" />
		<tag k="natural" v="water" />
		<tag k="ssr:stedsnr" v="507642" />
		<tag k="water" v="lake" />
	</node>
	<node id="-372452" lat="58.1767264382" lon="6.92109107255">
		<tag k="name" v="Hunsvann" />
		<tag k="natural" v="water" />
		<tag k="ssr:stedsnr" v="324748" />
		<tag k="water" v="lake" />
	</node>
	<node id="-374496" lat="58.2605111131" lon="7.12829166512">
		<tag k="name" v="Kvalpetjønn" />
		<tag k="natural" v="water" />
		<tag k="ssr:stedsnr" v="810243" />
	</node>
	<node id="-372688" lat="58.0932984217" lon="7.11632147851">
		<tag k="alt_name" v="Steinslandsvannet" />
		<tag k="name" v="Steinslandsvatnet" />
		<tag k="natural" v="water" />
		<tag k="ssr:stedsnr" v="61587" />
	</node>
	<node id="-374488" lat="58.2251527819" lon="7.09898055839">
		<tag k="name" v="Vestre Skjerlandstjønn" />
		<tag k="natural" v="water" />
		<tag k="ssr:stedsnr" v="810201" />
	</node>
	<node id="-374478" lat="58.2255083359" lon="7.11139166242">
		<tag k="name" v="Hellestøltjønn" />
		<tag k="natural" v="water" />
		<tag k="ssr:stedsnr" v="810112" />
	</node>
	<node id="-374477" lat="58.2389972227" lon="7.06595554733">
		<tag k="name" v="Nesodde" />
		<tag k="natural" v="cape" />
		<tag k="ssr:stedsnr" v="810088" />
	</node>
	<node id="-374476" lat="58.2392194468" lon="7.04891943863">
		<tag k="name" v="Nedre Risånlona" />
		<tag k="natural" v="water" />
		<tag k="ssr:stedsnr" v="810084" />
	</node>
	<node id="-374475" lat="58.2159749977" lon="6.99873611259">
		<tag k="name" v="Lona" />
		<tag k="natural" v="water" />
		<tag k="ssr:stedsnr" v="810081" />
	</node>
	<node id="-374474" lat="58.2215166705" lon="7.02128610274">
		<tag k="name" v="Buodden" />
		<tag k="natural" v="cape" />
		<tag k="ssr:stedsnr" v="810077" />
	</node>
	<node id="-374473" lat="58.2261250005" lon="7.02683611222">
		<tag k="name" v="Fureholmen" />
		<tag k="place" v="islet" />
		<tag k="ssr:stedsnr" v="810075" />
	</node>
	<node id="-374472" lat="58.2441888856" lon="7.02184721397">
		<tag k="name" v="Flatlona" />
		<tag k="natural" v="water" />
		<tag k="ssr:stedsnr" v="810070" />
	</node>
	<node id="-374470" lat="58.2059305532" lon="7.10035833925">
		<tag k="name" v="Trogrimstjønn" />
		<tag k="natural" v="water" />
		<tag k="ssr:stedsnr" v="810045" />
	</node>
	<node id="-372416" lat="58.1356833348" lon="7.15046944663">
		<tag k="name" v="Drengstjønn" />
		<tag k="natural" v="water" />
		<tag k="ssr:stedsnr" v="385941" />
	</node>
	<node id="-372414" lat="58.1404972202" lon="7.04601388446">
		<tag k="name" v="Storøya" />
		<tag k="place" v="island" />
		<tag k="ssr:stedsnr" v="385900" />
	</node>
	<node id="-374453" lat="58.1997882928" lon="7.1657166069">
		<tag k="alt_name" v="Måvann" />
		<tag k="name" v="Måvatnet" />
		<tag k="natural" v="water" />
		<tag k="ssr:stedsnr" v="789470" />
	</node>
	<node id="-374451" lat="58.2294633394" lon="7.2491061174">
		<tag k="alt_name" v="Maurvannet" />
		<tag k="name" v="Maurevatnet" />
		<tag k="natural" v="water" />
		<tag k="ssr:stedsnr" v="789427" />
	</node>
	<node id="-374447" lat="58.1573296078" lon="6.94942672047">
		<tag k="alt_name" v="Øyestadvannet" />
		<tag k="name" v="Øvstevatnet" />
		<tag k="natural" v="water" />
		<tag k="ssr:stedsnr" v="789231" />
		<tag k="water" v="lake" />
	</node>
	<node id="-372398" lat="58.1446638866" lon="6.99190277657">
		<tag k="name" v="Lastadbekken" />
		<tag k="ssr:stedsnr" v="385771" />
		<tag k="waterway" v="stream" />
	</node>
	<node id="-372393" lat="58.1414916711" lon="6.95010555323">
		<tag k="name" v="Sandtjønna" />
		<tag k="natural" v="water" />
		<tag k="ssr:stedsnr" v="385761" />
	</node>
	<node id="-374434" lat="58.1349487846" lon="6.94467261995">
		<tag k="alt_name" v="Måkevannet" />
		<tag k="name" v="Måkevatnet" />
		<tag k="natural" v="water" />
		<tag k="ssr:stedsnr" v="788258" />
	</node>
	<node id="-374432" lat="58.2124346664" lon="6.95224380719">
		<tag k="alt_name" v="Tjomslandsvatnet" />
		<tag k="name" v="Indre Tjomslandsvann" />
		<tag k="natural" v="water" />
		<tag k="ssr:stedsnr" v="788164" />
	</node>
	<node id="-372375" lat="58.1534916644" lon="6.97111667253">
		<tag k="name" v="Slåtetjødna" />
		<tag k="natural" v="water" />
		<tag k="ssr:stedsnr" v="385487" />
	</node>
	<node id="-372374" lat="58.1770527741" lon="6.98111389667">
		<tag k="name" v="Lyngtjønna" />
		<tag k="natural" v="water" />
		<tag k="ssr:stedsnr" v="385480" />
	</node>
	<node id="-372372" lat="58.2203722249" lon="6.93550555109">
		<tag k="name" v="Botnebekken" />
		<tag k="ssr:stedsnr" v="385459" />
		<tag k="waterway" v="stream" />
	</node>
	<node id="-374416" lat="58.1618000033" lon="7.16602777706">
		<tag k="name" v="Stykketjønn" />
		<tag k="natural" v="water" />
		<tag k="ssr:stedsnr" v="750894" />
	</node>
	<node id="-374415" lat="58.1644444473" lon="7.17907499366">
		<tag k="name" v="Kleivfossen" />
		<tag k="natural" v="waterfall" />
		<tag k="ssr:stedsnr" v="750893" />
	</node>
	<node id="-372366" lat="58.13083611" lon="7.10143611252">
		<tag k="name" v="Midtvannet" />
		<tag k="natural" v="water" />
		<tag k="ssr:stedsnr" v="385431" />
		<tag k="water" v="lake" />
	</node>
	<node id="-374412" lat="58.1841416697" lon="7.20570277908">
		<tag k="name" v="Kjellebrotodden" />
		<tag k="natural" v="cape" />
		<tag k="ssr:stedsnr" v="750552" />
	</node>
	<node id="-374409" lat="58.2000027757" lon="7.21512222139">
		<tag k="name" v="Botnetjønn" />
		<tag k="natural" v="water" />
		<tag k="ssr:stedsnr" v="750525" />
	</node>
	<node id="-374407" lat="58.1515027812" lon="7.21091944215">
		<tag k="name" v="Krokvann" />
		<tag k="natural" v="water" />
		<tag k="ssr:stedsnr" v="750513" />
	</node>
	<node id="-372357" lat="58.1864111128" lon="7.13054999307">
		<tag k="name" v="Svartevann" />
		<tag k="natural" v="water" />
		<tag k="ssr:stedsnr" v="385389" />
		<tag k="water" v="lake" />
	</node>
	<node id="-372354" lat="58.1787166645" lon="7.11462221485">
		<tag k="name" v="Stakkemyrstjønna" />
		<tag k="natural" v="water" />
		<tag k="ssr:stedsnr" v="385380" />
	</node>
	<node id="-372352" lat="58.1580777809" lon="7.22895556302">
		<tag k="name" v="Torvetjønn" />
		<tag k="natural" v="water" />
		<tag k="ssr:stedsnr" v="385366" />
	</node>
	<node id="-374397" lat="58.1552666706" lon="7.0769111172">
		<tag k="name" v="Prestneset" />
		<tag k="natural" v="cape" />
		<tag k="ssr:stedsnr" v="749915" />
	</node>
	<node id="-372348" lat="58.2707055527" lon="7.17428055807">
		<tag k="name" v="Uretjønn" />
		<tag k="natural" v="water" />
		<tag k="ssr:stedsnr" v="385581" />
	</node>
	<node id="-372342" lat="58.2208805583" lon="7.17488333232">
		<tag k="name" v="Skråmtjønn" />
		<tag k="natural" v="water" />
		<tag k="ssr:stedsnr" v="385296" />
	</node>
	<node id="-372336" lat="58.1911888922" lon="7.1842972183">
		<tag k="name" v="Sandvika" />
		<tag k="natural" v="bay" />
		<tag k="ssr:stedsnr" v="385262" />
	</node>
	<node id="-374382" lat="58.0675722215" lon="7.09911666509">
		<tag k="name" v="Kvinesodden" />
		<tag k="natural" v="cape" />
		<tag k="ssr:stedsnr" v="749810" />
	</node>
	<node id="-374375" lat="58.0486555587" lon="7.01739721998">
		<tag k="name" v="Hegerneset" />
		<tag k="natural" v="cape" />
		<tag k="ssr:stedsnr" v="749736" />
	</node>
	<node id="-372326" lat="58.2635722195" lon="7.22730832663">
		<tag k="name" v="Fjellåna" />
		<tag k="ssr:stedsnr" v="385322" />
		<tag k="waterway" v="river" />
	</node>
	<node id="-374368" lat="58.215863885" lon="7.23073610925">
		<tag k="name" v="Sandtjønn" />
		<tag k="natural" v="water" />
		<tag k="ssr:stedsnr" v="749657" />
	</node>
	<node id="-372318" lat="58.2393388903" lon="7.03485833114">
		<tag k="name" v="Lonan" />
		<tag k="natural" v="water" />
		<tag k="ssr:stedsnr" v="385101" />
		<tag k="water" v="lake" />
	</node>
	<node id="-372316" lat="58.2378916691" lon="7.07823611292">
		<tag k="name" v="Trådartjønn" />
		<tag k="natural" v="water" />
		<tag k="ssr:stedsnr" v="385088" />
	</node>
	<node id="-372313" lat="58.1963138849" lon="7.03959444585">
		<tag k="name" v="Glofossen" />
		<tag k="natural" v="waterfall" />
		<tag k="ssr:stedsnr" v="385034" />
	</node>
	<node id="-374360" lat="58.2573361097" lon="7.16804999235">
		<tag k="name" v="Nestalona" />
		<tag k="natural" v="water" />
		<tag k="ssr:stedsnr" v="749596" />
		<tag k="water" v="lake" />
	</node>
	<node id="-372311" lat="58.2039527783" lon="7.03726944505">
		<tag k="name" v="Røiskårvann" />
		<tag k="natural" v="water" />
		<tag k="ssr:stedsnr" v="385024" />
		<tag k="water" v="lake" />
	</node>
	<node id="-374357" lat="58.2577111092" lon="7.19037221395">
		<tag k="name" v="Store Breihølen" />
		<tag k="place" v="locality" />
		<tag k="ssr:stedsnr" v="749591" />
	</node>
	<node id="-374356" lat="58.2599305553" lon="7.19369999921">
		<tag k="name" v="Nedøyna" />
		<tag k="place" v="island" />
		<tag k="ssr:stedsnr" v="749589" />
	</node>
	<node id="-374355" lat="58.262266665" lon="7.19578611557">
		<tag k="name" v="Øyna" />
		<tag k="place" v="island" />
		<tag k="ssr:stedsnr" v="749585" />
	</node>
	<node id="-374354" lat="58.2633361145" lon="7.19343055306">
		<tag k="name" v="Havshølen" />
		<tag k="place" v="locality" />
		<tag k="ssr:stedsnr" v="749584" />
	</node>
	<node id="-372305" lat="58.2680972225" lon="7.08758332958">
		<tag k="name" v="Nilsetjønn" />
		<tag k="natural" v="water" />
		<tag k="ssr:stedsnr" v="385154" />
	</node>
	<node id="-374344" lat="58.1373916682" lon="7.11078055641">
		<tag k="name" v="Rennelåsvannet" />
		<tag k="natural" v="water" />
		<tag k="ssr:stedsnr" v="749443" />
		<tag k="water" v="lake" />
	</node>
	<node id="-374339" lat="58.1725888877" lon="7.11241388615">
		<tag k="name" v="Stemmen" />
		<tag k="natural" v="water" />
		<tag k="ssr:stedsnr" v="749402" />
	</node>
	<node id="-372290" lat="58.1911148217" lon="7.15511462721">
		<tag k="alt_name" v="Mårvann" />
		<tag k="name" v="Mårvatnet" />
		<tag k="natural" v="water" />
		<tag k="ssr:stedsnr" v="364452" />
	</node>
	<node id="-374337" lat="58.1601166712" lon="7.22346944957">
		<tag k="name" v="Sandvann" />
		<tag k="natural" v="water" />
		<tag k="ssr:stedsnr" v="749392" />
		<tag k="water" v="lake" />
	</node>
	<node id="-372286" lat="58.2253485581" lon="6.99819764259">
		<tag k="alt_name" v="Sandvann" />
		<tag k="name" v="Sandvatnet" />
		<tag k="natural" v="water" />
		<tag k="ssr:stedsnr" v="364440" />
	</node>
	<node id="-374333" lat="58.2666694472" lon="7.22197221522">
		<tag k="name" v="Kleivtjønn" />
		<tag k="natural" v="water" />
		<tag k="ssr:stedsnr" v="749364" />
	</node>
	<node id="-374332" lat="58.295847224" lon="7.23211944565">
		<tag k="name" v="Troddetjønn" />
		<tag k="natural" v="water" />
		<tag k="ssr:stedsnr" v="749357" />
	</node>
	<node id="-372280" lat="58.2456753222" lon="7.13044364701">
		<tag k="alt_name" v="Heptevann" />
		<tag k="name" v="Heptevatnet" />
		<tag k="natural" v="water" />
		<tag k="ssr:stedsnr" v="364392" />
	</node>
	<node id="-374326" lat="58.2242916624" lon="7.1801166701">
		<tag k="name" v="Tvitjønnan" />
		<tag k="natural" v="water" />
		<tag k="ssr:stedsnr" v="749319" />
	</node>
	<node id="-374310" lat="58.1907055561" lon="7.19058332898">
		<tag k="name" v="Bjønndalsbukta" />
		<tag k="natural" v="bay" />
		<tag k="ssr:stedsnr" v="749266" />
	</node>
	<node id="-374309" lat="58.194130555" lon="7.18835833528">
		<tag k="name" v="Stormyrodden" />
		<tag k="natural" v="cape" />
		<tag k="ssr:stedsnr" v="749257" />
	</node>
	<node id="-372260" lat="58.1515583317" lon="7.17536110823">
		<tag k="name" v="Eikelandstjønna" />
		<tag k="natural" v="water" />
		<tag k="ssr:stedsnr" v="325957" />
	</node>
	<node id="-372256" lat="58.1516138881" lon="7.20304721607">
		<tag k="name" v="Småhomstjønn" />
		<tag k="natural" v="water" />
		<tag k="ssr:stedsnr" v="325527" />
	</node>
	<node id="-374303" lat="58.2476083365" lon="7.20357222738">
		<tag k="name" v="Hisåstjønn" />
		<tag k="natural" v="water" />
		<tag k="ssr:stedsnr" v="749229" />
	</node>
	<node id="-374300" lat="58.1951472259" lon="7.17701666607">
		<tag k="name" v="Presttjønn" />
		<tag k="natural" v="water" />
		<tag k="ssr:stedsnr" v="749216" />
	</node>
	<node id="-372250" lat="58.2131416707" lon="7.1776083349">
		<tag k="name" v="Gluggtjønn" />
		<tag k="natural" v="water" />
		<tag k="ssr:stedsnr" v="325305" />
	</node>
	<node id="-374293" lat="58.2687499967" lon="7.10870278337">
		<tag k="name" v="Stemmen" />
		<tag k="natural" v="water" />
		<tag k="ssr:stedsnr" v="749159" />
	</node>
	<node id="-374290" lat="58.2769377147" lon="7.12931180107">
		<tag k="name" v="Sterketjønn" />
		<tag k="natural" v="water" />
		<tag k="ssr:stedsnr" v="749147" />
	</node>
	<node id="-374284" lat="58.2026527785" lon="7.10546388855">
		<tag k="name" v="Klevtjønn" />
		<tag k="natural" v="water" />
		<tag k="ssr:stedsnr" v="749096" />
	</node>
	<node id="-374282" lat="58.2355694404" lon="7.02204444007">
		<tag k="name" v="Rullevatn" />
		<tag k="natural" v="water" />
		<tag k="ssr:stedsnr" v="749045" />
		<tag k="water" v="lake" />
	</node>
	<node id="-374277" lat="58.2397555561" lon="7.2252972174">
		<tag k="name" v="Ytre Solåsvann" />
		<tag k="natural" v="water" />
		<tag k="ssr:stedsnr" v="749636" />
		<tag k="water" v="lake" />
	</node>
	<node id="-372224" lat="58.1524111149" lon="6.89446110283">
		<tag k="name" v="Skrelifallan" />
		<tag k="natural" v="waterfall" />
		<tag k="ssr:stedsnr" v="324661" />
	</node>
	<node id="-374269" lat="58.1247677909" lon="7.11450851719">
		<tag k="alt_name" v="Bordevannet" />
		<tag k="name" v="Bårdervatnet" />
		<tag k="natural" v="water" />
		<tag k="ssr:stedsnr" v="728539" />
	</node>
	<node id="-374267" lat="58.1112312224" lon="7.12609854897">
		<tag k="alt_name" v="Trælandsvannet" />
		<tag k="name" v="Trælandsvatnet" />
		<tag k="natural" v="water" />
		<tag k="ssr:stedsnr" v="728505" />
	</node>
	<node id="-374265" lat="58.1643174608" lon="7.06199175919">
		<tag k="alt_name" v="Skolandsvannet" />
		<tag k="name" v="Skolandsvatnet" />
		<tag k="natural" v="water" />
		<tag k="ssr:stedsnr" v="728486" />
	</node>
	<node id="-372215" lat="58.2582416682" lon="7.16409444088">
		<tag k="name" v="Langelona" />
		<tag k="natural" v="water" />
		<tag k="ssr:stedsnr" v="324579" />
		<tag k="water" v="lake" />
	</node>
	<node id="-372212" lat="58.2690694451" lon="7.14666110916">
		<tag k="name" v="Paddetjønn" />
		<tag k="natural" v="water" />
		<tag k="ssr:stedsnr" v="324550" />
	</node>
	<node id="-372307" lat="58.2175388872" lon="7.13202222323">
		<tag k="name" v="Kleivbekken" />
		<tag k="ssr:stedsnr" v="385178" />
		<tag k="waterway" v="stream" />
	</node>
	<node id="-374256" lat="58.2424101313" lon="7.01141345163">
		<tag k="alt_name" v="Gluggevatnet" />
		<tag k="fixme" v="multiple name tags, choose one and add the other to alt_name" />
		<tag k="name" v="Gluggevann;Gluggevatn" />
		<tag k="natural" v="water" />
		<tag k="ssr:stedsnr" v="728363" />
	</node>
	<node id="-374255" lat="58.2382493119" lon="7.23908285465">
		<tag k="alt_name" v="Ytre Dynjevann" />
		<tag k="name" v="Dyngjevatnet" />
		<tag k="natural" v="water" />
		<tag k="ssr:stedsnr" v="728343" />
	</node>
	<node id="-372306" lat="58.2601585621" lon="7.08870572889">
		<tag k="name" v="Skuggelitjønn" />
		<tag k="natural" v="water" />
		<tag k="ssr:stedsnr" v="385169" />
	</node>
	<node id="-372201" lat="58.1328343954" lon="7.11493342716">
		<tag k="name" v="Tjønnene" />
		<tag k="natural" v="water" />
		<tag k="ssr:stedsnr" v="324430" />
	</node>
	<node id="-372199" lat="58.1279138912" lon="7.10554443657">
		<tag k="name" v="Biktjønnsvannet" />
		<tag k="natural" v="water" />
		<tag k="ssr:stedsnr" v="324428" />
		<tag k="water" v="lake" />
	</node>
	<node id="-372197" lat="58.1517222247" lon="6.99586110554">
		<tag k="name" v="Tvitjødnan" />
		<tag k="natural" v="water" />
		<tag k="ssr:stedsnr" v="324775" />
	</node>
	<node id="-372192" lat="58.1032749962" lon="6.99139444467">
		<tag k="name" v="Skiftestjønn" />
		<tag k="natural" v="water" />
		<tag k="ssr:stedsnr" v="324739" />
	</node>
	<node id="-374239" lat="58.2100055517" lon="6.91877221478">
		<tag k="name" v="Mannehølen" />
		<tag k="place" v="locality" />
		<tag k="ssr:stedsnr" v="689973" />
	</node>
	<node id="-374234" lat="58.1422444483" lon="7.141797219">
		<tag k="name" v="Lonan" />
		<tag k="natural" v="water" />
		<tag k="ssr:stedsnr" v="689953" />
		<tag k="water" v="lake" />
	</node>
	<node id="-374233" lat="58.1419500001" lon="7.16149444202">
		<tag k="name" v="Lommetjønna" />
		<tag k="natural" v="water" />
		<tag k="ssr:stedsnr" v="689943" />
	</node>
	<node id="-374231" lat="58.1245583328" lon="7.14074445079">
		<tag k="name" v="Sørtøvannet" />
		<tag k="natural" v="water" />
		<tag k="ssr:stedsnr" v="689931" />
		<tag k="water" v="lake" />
	</node>
	<node id="-372179" lat="58.1577527783" lon="7.21887221794">
		<tag k="name" v="Hestsundet" />
		<tag k="natural" v="strait" />
		<tag k="ssr:stedsnr" v="324377" />
	</node>
	<node id="-372178" lat="58.1822527781" lon="7.23002499558">
		<tag k="name" v="Monsbekken" />
		<tag k="ssr:stedsnr" v="324367" />
		<tag k="waterway" v="stream" />
	</node>
	<node id="-374216" lat="58.0810666677" lon="7.03001665898">
		<tag k="name" v="Hoksåstjønn" />
		<tag k="natural" v="water" />
		<tag k="ssr:stedsnr" v="689761" />
	</node>
	<node id="-372161" lat="58.2073250028" lon="7.14880833885">
		<tag k="name" v="Svinetjønn" />
		<tag k="natural" v="water" />
		<tag k="ssr:stedsnr" v="324269" />
	</node>
	<node id="-372159" lat="58.1991805587" lon="7.17845555863">
		<tag k="name" v="Gulltjønn" />
		<tag k="natural" v="water" />
		<tag k="ssr:stedsnr" v="324261" />
	</node>
	<node id="-374203" lat="58.0573972266" lon="7.01699444658">
		<tag k="name" v="Sauodden" />
		<tag k="natural" v="cape" />
		<tag k="ssr:stedsnr" v="689666" />
	</node>
	<node id="-374198" lat="58.2491249996" lon="7.25081388305">
		<tag k="name" v="Sprangsbekken" />
		<tag k="ssr:stedsnr" v="689603" />
		<tag k="waterway" v="stream" />
	</node>
	<node id="-374196" lat="58.2019455365" lon="7.22503754346">
		<tag k="name" v="Stuedalstjønn" />
		<tag k="natural" v="water" />
		<tag k="ssr:stedsnr" v="689575" />
	</node>
	<node id="-372147" lat="58.2656805518" lon="7.13887222777">
		<tag k="name" v="Nyfisk" />
		<tag k="natural" v="water" />
		<tag k="ssr:stedsnr" v="324159" />
		<tag k="water" v="lake" />
	</node>
	<node id="-374192" lat="58.2729222199" lon="7.21607778124">
		<tag k="name" v="Meidalsbekken" />
		<tag k="ssr:stedsnr" v="689557" />
		<tag k="waterway" v="stream" />
	</node>
	<node id="-372142" lat="58.2542555556" lon="7.07202777441">
		<tag k="name" v="Gulltjønn" />
		<tag k="natural" v="water" />
		<tag k="ssr:stedsnr" v="324114" />
	</node>
	<node id="-374188" lat="58.256047218" lon="7.18851111095">
		<tag k="name" v="Laksehølen" />
		<tag k="place" v="locality" />
		<tag k="ssr:stedsnr" v="689540" />
	</node>
	<node id="-372137" lat="58.226380552" lon="7.0342027855">
		<tag k="name" v="Hellenesodden" />
		<tag k="natural" v="cape" />
		<tag k="ssr:stedsnr" v="324080" />
	</node>
	<node id="-372136" lat="58.2165444427" lon="7.07396111495">
		<tag k="name" v="Igletjønn" />
		<tag k="natural" v="water" />
		<tag k="ssr:stedsnr" v="324078" />
	</node>
	<node id="-372134" lat="58.2403694441" lon="7.06328056077">
		<tag k="name" v="Guttormsholmen" />
		<tag k="place" v="islet" />
		<tag k="ssr:stedsnr" v="324061" />
	</node>
	<node id="-372133" lat="58.2377694436" lon="7.04526943779">
		<tag k="name" v="Risåna" />
		<tag k="ssr:stedsnr" v="324056" />
		<tag k="waterway" v="river" />
	</node>
	<node id="-374180" lat="58.153025002" lon="7.10378611076">
		<tag k="name" v="Litleåna" />
		<tag k="ssr:stedsnr" v="689435" />
		<tag k="waterway" v="river" />
	</node>
	<node id="-374166" lat="58.1625444443" lon="7.22249999384">
		<tag k="name" v="Teinebekken" />
		<tag k="ssr:stedsnr" v="689363" />
		<tag k="waterway" v="stream" />
	</node>
	<node id="-374162" lat="58.1741138919" lon="7.22372499187">
		<tag k="name" v="Tvitjønnan" />
		<tag k="natural" v="water" />
		<tag k="ssr:stedsnr" v="689345" />
	</node>
	<node id="-372111" lat="58.2528785723" lon="7.11156467579">
		<tag k="alt_name" v="Hestadvann" />
		<tag k="name" v="Hestadvatnet" />
		<tag k="natural" v="water" />
		<tag k="ssr:stedsnr" v="303615" />
	</node>
	<node id="-374157" lat="58.2606527744" lon="7.24352221794">
		<tag k="name" v="Svartevann" />
		<tag k="natural" v="water" />
		<tag k="ssr:stedsnr" v="689331" />
		<tag k="water" v="lake" />
	</node>
	<node id="-374156" lat="58.2614555549" lon="7.22786389723">
		<tag k="name" v="Kvåsstemmen" />
		<tag k="natural" v="water" />
		<tag k="ssr:stedsnr" v="689329" />
	</node>
	<node id="-372103" lat="58.290594338" lon="7.23230290634">
		<tag k="alt_name" v="Krokvann" />
		<tag k="name" v="Krokevatnet" />
		<tag k="natural" v="water" />
		<tag k="ssr:stedsnr" v="303527" />
	</node>
	<node id="-372101" lat="58.1554001104" lon="7.22521731708">
		<tag k="alt_name" v="Rødlandsvann" />
		<tag k="name" v="Rødlendsvatnet" />
		<tag k="natural" v="water" />
		<tag k="ssr:stedsnr" v="303485" />
	</node>
	<node id="-372100" lat="58.1926939415" lon="7.18583657702">
		<tag k="alt_name" v="Øygardsvann" />
		<tag k="name" v="Øygardsvatnet" />
		<tag k="natural" v="water" />
		<tag k="ssr:stedsnr" v="303453" />
	</node>
	<node id="-374143" lat="58.2875861077" lon="7.1714166663">
		<tag k="name" v="Kalvelona" />
		<tag k="natural" v="water" />
		<tag k="ssr:stedsnr" v="689277" />
		<tag k="water" v="lake" />
	</node>
	<node id="-372094" lat="58.2460115839" lon="7.06986129936">
		<tag k="alt_name" v="Stemvann" />
		<tag k="name" v="Stemmevatnet" />
		<tag k="natural" v="water" />
		<tag k="ssr:stedsnr" v="303391" />
	</node>
	<node id="-374139" lat="58.1969361118" lon="7.1876277817">
		<tag k="name" v="Otergrinda" />
		<tag k="natural" v="bay" />
		<tag k="ssr:stedsnr" v="689261" />
	</node>
	<node id="-374128" lat="58.2696666672" lon="7.07452777943">
		<tag k="name" v="Bjortjønn" />
		<tag k="natural" v="water" />
		<tag k="ssr:stedsnr" v="689140" />
	</node>
	<node id="-374127" lat="58.268763889" lon="7.08058610397">
		<tag k="name" v="Subbelona" />
		<tag k="natural" v="water" />
		<tag k="ssr:stedsnr" v="689139" />
		<tag k="water" v="lake" />
	</node>
	<node id="-374125" lat="58.2260388896" lon="7.04558333302">
		<tag k="name" v="Røyrodden" />
		<tag k="natural" v="cape" />
		<tag k="ssr:stedsnr" v="689091" />
	</node>
	<node id="-374124" lat="58.2300250008" lon="7.03601944707">
		<tag k="name" v="Hellenesbukta" />
		<tag k="natural" v="bay" />
		<tag k="ssr:stedsnr" v="689088" />
	</node>
	<node id="-374123" lat="58.2229305591" lon="7.06267222708">
		<tag k="name" v="Leiktjønn" />
		<tag k="natural" v="water" />
		<tag k="ssr:stedsnr" v="689086" />
	</node>
	<node id="-374122" lat="58.2172750031" lon="7.07971944684">
		<tag k="name" v="Kråketjønn" />
		<tag k="natural" v="water" />
		<tag k="ssr:stedsnr" v="689083" />
	</node>
	<node id="-374120" lat="58.2327932416" lon="7.057584784">
		<tag k="name" v="Bjorvann" />
		<tag k="natural" v="water" />
		<tag k="ssr:stedsnr" v="689079" />
		<tag k="water" v="lake" />
	</node>
	<node id="-374117" lat="58.2277749977" lon="7.0724111121">
		<tag k="name" v="Lille Laulandstjønn" />
		<tag k="natural" v="water" />
		<tag k="ssr:stedsnr" v="689074" />
	</node>
	<node id="-374113" lat="58.2100750045" lon="6.98233333891">
		<tag k="name" v="Åletjønn" />
		<tag k="natural" v="water" />
		<tag k="ssr:stedsnr" v="689041" />
	</node>
	<node id="-374079" lat="58.1525009" lon="7.00882410196">
		<tag k="name" v="Bjergevannet" />
		<tag k="natural" v="water" />
		<tag k="ssr:stedsnr" v="667451" />
		<tag k="water" v="lake" />
	</node>
	<node id="-374666" lat="58.2767027791" lon="7.19044443934">
		<tag k="name" v="Gjeidusøyna" />
		<tag k="place" v="island" />
		<tag k="ssr:stedsnr" v="871242" />
	</node>
	<node id="-374072" lat="58.1442436049" lon="6.94221554885">
		<tag k="alt_name" v="Svartevannet" />
		<tag k="name" v="Svartetjørna" />
		<tag k="natural" v="water" />
		<tag k="ssr:stedsnr" v="667273" />
	</node>
	<node id="-374069" lat="58.1772911752" lon="6.96022118592">
		<tag k="alt_name" v="Bjellandsvannet" />
		<tag k="name" v="Bjellandstjørna" />
		<tag k="natural" v="water" />
		<tag k="ssr:stedsnr" v="667214" />
	</node>
	<node id="-374048" lat="58.1853055541" lon="7.17434166955">
		<tag k="name" v="Leidingstjønna" />
		<tag k="natural" v="water" />
		<tag k="ssr:stedsnr" v="628991" />
	</node>
	<node id="-374047" lat="58.1859527746" lon="7.17811667403">
		<tag k="name" v="Olasbekken" />
		<tag k="ssr:stedsnr" v="628989" />
		<tag k="waterway" v="stream" />
	</node>
	<node id="-374043" lat="58.2103972228" lon="6.91951666143">
		<tag k="name" v="Tverråna" />
		<tag k="ssr:stedsnr" v="628961" />
		<tag k="waterway" v="stream" />
	</node>
	<node id="-374042" lat="58.1500777769" lon="7.16154444221">
		<tag k="name" v="Loppeneset" />
		<tag k="natural" v="cape" />
		<tag k="ssr:stedsnr" v="628955" />
	</node>
	<node id="-374029" lat="58.2080611116" lon="7.21656732446">
		<tag k="name" v="Lonene" />
		<tag k="natural" v="water" />
		<tag k="ssr:stedsnr" v="628536" />
	</node>
	<node id="-374027" lat="58.1589194464" lon="7.20270555714">
		<tag k="name" v="Mevann" />
		<tag k="natural" v="water" />
		<tag k="ssr:stedsnr" v="628529" />
		<tag k="water" v="lake" />
	</node>
	<node id="-374021" lat="58.2798888918" lon="7.1527777714">
		<tag k="name" v="Ytre Surtevann" />
		<tag k="natural" v="water" />
		<tag k="ssr:stedsnr" v="628359" />
		<tag k="water" v="lake" />
	</node>
	<node id="-374016" lat="58.1502222237" lon="7.22846665929">
		<tag k="name" v="Skaddan" />
		<tag k="natural" v="cape" />
		<tag k="ssr:stedsnr" v="628335" />
	</node>
	<node id="-374011" lat="58.289369445" lon="7.16246667367">
		<tag k="name" v="Bulitangen" />
		<tag k="natural" v="cape" />
		<tag k="ssr:stedsnr" v="628241" />
	</node>
	<node id="-374010" lat="58.1958499984" lon="7.13629999623">
		<tag k="name" v="Storbekken" />
		<tag k="ssr:stedsnr" v="628090" />
		<tag k="waterway" v="stream" />
	</node>
	<node id="-374007" lat="58.2351694431" lon="7.0703555474">
		<tag k="name" v="Museholmen" />
		<tag k="place" v="islet" />
		<tag k="ssr:stedsnr" v="628060" />
	</node>
	<node id="-374003" lat="58.210752774" lon="7.13092222456">
		<tag k="name" v="Sagebekken" />
		<tag k="ssr:stedsnr" v="628026" />
		<tag k="waterway" v="stream" />
	</node>
	<node id="-374002" lat="58.2103111149" lon="7.13253055275">
		<tag k="name" v="Indre Sagebekken" />
		<tag k="ssr:stedsnr" v="628025" />
		<tag k="waterway" v="stream" />
	</node>
	<node id="-373989" lat="58.1106861106" lon="7.10679166616">
		<tag k="name" v="Grønntjønna" />
		<tag k="natural" v="water" />
		<tag k="ssr:stedsnr" v="627844" />
	</node>
	<node id="-373978" lat="58.1391666622" lon="6.94612777541">
		<tag k="name" v="Langevannet" />
		<tag k="natural" v="water" />
		<tag k="ssr:stedsnr" v="627775" />
		<tag k="water" v="lake" />
	</node>
	<node id="-373972" lat="58.1138583297" lon="7.00344722955">
		<tag k="name" v="Bruselandstjønna" />
		<tag k="natural" v="water" />
		<tag k="ssr:stedsnr" v="627734" />
	</node>
	<node id="-373964" lat="58.1514111114" lon="6.88019166542">
		<tag k="name" v="Langkombekken" />
		<tag k="ssr:stedsnr" v="627678" />
		<tag k="waterway" v="stream" />
	</node>
	<node id="-373963" lat="58.2502083367" lon="7.25769445012">
		<tag k="name" v="Røsselona" />
		<tag k="natural" v="water" />
		<tag k="ssr:stedsnr" v="627673" />
		<tag k="water" v="lake" />
	</node>
	<node id="-373961" lat="58.2331555587" lon="7.2340444367">
		<tag k="name" v="Svartevann" />
		<tag k="natural" v="water" />
		<tag k="ssr:stedsnr" v="627643" />
		<tag k="water" v="lake" />
	</node>
	<node id="-373959" lat="58.259627778" lon="7.19132777383">
		<tag k="name" v="Broden" />
		<tag k="natural" v="cape" />
		<tag k="ssr:stedsnr" v="627595" />
	</node>
	<node id="-373955" lat="58.2676055564" lon="7.15254444218">
		<tag k="name" v="Stemvann" />
		<tag k="natural" v="water" />
		<tag k="ssr:stedsnr" v="627579" />
		<tag k="water" v="lake" />
	</node>
	<node id="-373944" lat="58.2163546224" lon="6.95293608293">
		<tag k="name" v="Ytre Tjomslandsvann" />
		<tag k="natural" v="water" />
		<tag k="ssr:stedsnr" v="627482" />
		<tag k="water" v="lake" />
	</node>
	<node id="-373942" lat="58.1346805526" lon="7.10498333806">
		<tag k="name" v="Øygardstjønna" />
		<tag k="natural" v="water" />
		<tag k="ssr:stedsnr" v="627453" />
	</node>
	<node id="-373940" lat="58.1370972247" lon="7.13700554919">
		<tag k="name" v="Tjønna" />
		<tag k="natural" v="water" />
		<tag k="ssr:stedsnr" v="627447" />
	</node>
	<node id="-373939" lat="58.1804333353" lon="7.06555834025">
		<tag k="name" v="Tremalona" />
		<tag k="natural" v="water" />
		<tag k="ssr:stedsnr" v="627440" />
		<tag k="water" v="lake" />
	</node>
	<node id="-373933" lat="58.226358337" lon="7.15666111443">
		<tag k="name" v="Steinshølen" />
		<tag k="place" v="locality" />
		<tag k="ssr:stedsnr" v="627342" />
	</node>
	<node id="-373921" lat="58.1106527795" lon="6.94330554953">
		<tag k="name" v="Støvlåstjønn" />
		<tag k="natural" v="water" />
		<tag k="ssr:stedsnr" v="627293" />
	</node>
	<node id="-373912" lat="58.2727277767" lon="7.11254165853">
		<tag k="name" v="Skydalsvann" />
		<tag k="natural" v="water" />
		<tag k="ssr:stedsnr" v="627178" />
		<tag k="water" v="lake" />
	</node>
	<node id="-373908" lat="58.2714611144" lon="7.08530277381">
		<tag k="name" v="Ormelona" />
		<tag k="natural" v="water" />
		<tag k="ssr:stedsnr" v="627140" />
	</node>
	<node id="-372590" lat="58.2611638852" lon="7.19568889447">
		<tag k="name" v="Nothølen" />
		<tag k="place" v="locality" />
		<tag k="ssr:stedsnr" v="21597" />
	</node>
	<node id="-373903" lat="58.2286832166" lon="6.92417222518">
		<tag k="alt_name" v="Hålandsvannet" />
		<tag k="name" v="Hålandsvatnet" />
		<tag k="natural" v="water" />
		<tag k="ssr:stedsnr" v="607161" />
	</node>
	<node id="-373897" lat="58.2576578458" lon="7.23556662791">
		<tag k="alt_name" v="Bergevann" />
		<tag k="name" v="Bergetjørna" />
		<tag k="natural" v="water" />
		<tag k="ssr:stedsnr" v="606600" />
	</node>
	<node id="-373890" lat="58.1558361108" lon="7.18960000389">
		<tag k="alt_name" v="Grubbevann" />
		<tag k="name" v="Grubbevatnet" />
		<tag k="natural" v="water" />
		<tag k="ssr:stedsnr" v="606463" />
	</node>
	<node id="-372245" lat="58.2078444421" lon="6.92409722879">
		<tag k="name" v="Klungelandsvannet" />
		<tag k="natural" v="water" />
		<tag k="ssr:stedsnr" v="324968" />
		<tag k="water" v="lake" />
	</node>
	<node id="-373879" lat="58.2484159429" lon="7.12845578694">
		<tag k="alt_name" v="Bastelivann" />
		<tag k="name" v="Bastelivatnet" />
		<tag k="natural" v="water" />
		<tag k="ssr:stedsnr" v="606371" />
	</node>
	<node id="-373877" lat="58.2126901802" lon="6.92318214213">
		<tag k="alt_name" v="Ormevannet" />
		<tag k="name" v="Ormevatnet" />
		<tag k="natural" v="water" />
		<tag k="ssr:stedsnr" v="606156" />
	</node>
	<node id="-373874" lat="58.1393564521" lon="7.15001372929">
		<tag k="name" v="Askevannet" />
		<tag k="natural" v="water" />
		<tag k="ssr:stedsnr" v="602091" />
	</node>
	<node id="-373858" lat="58.1616805511" lon="7.15319721482">
		<tag k="name" v="Blesevann" />
		<tag k="natural" v="water" />
		<tag k="ssr:stedsnr" v="568902" />
		<tag k="water" v="lake" />
	</node>
	<node id="-373851" lat="58.2163361157" lon="7.21255000665">
		<tag k="name" v="Helvetestjønnan" />
		<tag k="natural" v="water" />
		<tag k="ssr:stedsnr" v="568278" />
	</node>
	<node id="-373850" lat="58.2252833314" lon="7.2141472212">
		<tag k="name" v="Radetjønn" />
		<tag k="natural" v="water" />
		<tag k="ssr:stedsnr" v="568276" />
	</node>
	<node id="-373838" lat="58.1568194438" lon="7.05064443974">
		<tag k="name" v="Tjønna" />
		<tag k="natural" v="water" />
		<tag k="ssr:stedsnr" v="567860" />
	</node>
	<node id="-373829" lat="58.0802207394" lon="7.08353025032">
		<tag k="name" v="Bonevolltjønna" />
		<tag k="natural" v="water" />
		<tag k="ssr:stedsnr" v="567796" />
	</node>
	<node id="-373826" lat="58.1380277747" lon="6.95731389192">
		<tag k="name" v="Heideristjønna" />
		<tag k="natural" v="water" />
		<tag k="ssr:stedsnr" v="567742" />
	</node>
	<node id="-372234" lat="58.0854222205" lon="7.13507777064">
		<tag k="name" v="Åmlandstjønna" />
		<tag k="natural" v="water" />
		<tag k="ssr:stedsnr" v="324842" />
	</node>
	<node id="-373818" lat="58.1604861078" lon="6.89686389648">
		<tag k="name" v="Rasvædvannet" />
		<tag k="natural" v="water" />
		<tag k="ssr:stedsnr" v="567644" />
		<tag k="water" v="lake" />
	</node>
	<node id="-373815" lat="58.2256444401" lon="7.23104445109">
		<tag k="name" v="Lomstjønnan" />
		<tag k="natural" v="water" />
		<tag k="ssr:stedsnr" v="567619" />
	</node>
	<node id="-372574" lat="58.1328722199" lon="7.09646944679">
		<tag k="name" v="Øygardsvannet" />
		<tag k="natural" v="water" />
		<tag k="ssr:stedsnr" v="21465" />
		<tag k="water" v="lake" />
	</node>
	<node id="-373804" lat="58.181730552" lon="7.20292777759">
		<tag k="name" v="Holman" />
		<tag k="place" v="islet" />
		<tag k="ssr:stedsnr" v="567544" />
	</node>
	<node id="-373796" lat="58.2443027788" lon="7.13426389033">
		<tag k="name" v="Hafsbekken" />
		<tag k="ssr:stedsnr" v="567495" />
		<tag k="waterway" v="stream" />
	</node>
	<node id="-373794" lat="58.2392472183" lon="7.12272222262">
		<tag k="name" v="Kråketjønn" />
		<tag k="natural" v="water" />
		<tag k="ssr:stedsnr" v="567489" />
	</node>
	<node id="-372570" lat="58.1425000034" lon="7.12141944584">
		<tag k="name" v="Tvitjønn" />
		<tag k="natural" v="water" />
		<tag k="ssr:stedsnr" v="21452" />
	</node>
	<node id="-373785" lat="58.1667944466" lon="7.0887055558">
		<tag k="name" v="Øyna" />
		<tag k="place" v="island" />
		<tag k="ssr:stedsnr" v="567424" />
	</node>
	<node id="-373779" lat="58.2535027819" lon="7.12108611288">
		<tag k="name" v="Koletjønn" />
		<tag k="natural" v="water" />
		<tag k="ssr:stedsnr" v="567372" />
	</node>
	<node id="-373770" lat="58.2229194428" lon="7.18881388904">
		<tag k="name" v="Sagebekken" />
		<tag k="ssr:stedsnr" v="567279" />
		<tag k="waterway" v="stream" />
	</node>
	<node id="-373767" lat="58.1961805515" lon="7.19064723049">
		<tag k="name" v="Tjuringbukta" />
		<tag k="natural" v="bay" />
		<tag k="ssr:stedsnr" v="567241" />
	</node>
	<node id="-373766" lat="58.2568444412" lon="7.10003056387">
		<tag k="name" v="Hesttjønn" />
		<tag k="natural" v="water" />
		<tag k="ssr:stedsnr" v="567236" />
	</node>
	<node id="-373759" lat="58.2252249978" lon="7.10530277501">
		<tag k="name" v="Østre Skjerlandstjønn" />
		<tag k="natural" v="water" />
		<tag k="ssr:stedsnr" v="567185" />
	</node>
	<node id="-373748" lat="58.2225972187" lon="7.0526916589">
		<tag k="name" v="Hesttjønn" />
		<tag k="natural" v="water" />
		<tag k="ssr:stedsnr" v="567079" />
	</node>
	<node id="-373746" lat="58.2347249965" lon="7.06668055584">
		<tag k="name" v="Timreviga" />
		<tag k="natural" v="bay" />
		<tag k="ssr:stedsnr" v="567062" />
	</node>
	<node id="-372221" lat="58.2485861137" lon="7.25718332813">
		<tag k="name" v="Blåndetjønn" />
		<tag k="natural" v="water" />
		<tag k="ssr:stedsnr" v="324641" />
	</node>
	<node id="-373730" lat="58.1402614921" lon="7.15250721488">
		<tag k="alt_name" v="Askevann" />
		<tag k="name" v="Askevatnet" />
		<tag k="natural" v="water" />
		<tag k="ssr:stedsnr" v="546493" />
	</node>
	<node id="-373726" lat="58.2844576968" lon="7.14827555605">
		<tag k="alt_name" v="Indre Surtevann" />
		<tag k="name" v="Surtevatnet" />
		<tag k="natural" v="water" />
		<tag k="ssr:stedsnr" v="546482" />
	</node>
	<node id="-374495" lat="58.2057750015" lon="7.19176388276">
		<tag k="name" v="Stråndan" />
		<tag k="natural" v="beach" />
		<tag k="ssr:stedsnr" v="810237" />
	</node>
	<node id="-373698" lat="58.1161888858" lon="6.95918888421">
		<tag k="name" v="Ydderodden" />
		<tag k="natural" v="cape" />
		<tag k="ssr:stedsnr" v="510963" />
	</node>
	<node id="-372896" lat="58.131847218" lon="7.12612500831">
		<tag k="name" v="Røydlandsvannet" />
		<tag k="natural" v="water" />
		<tag k="ssr:stedsnr" v="142417" />
		<tag k="water" v="lake" />
	</node>
	<node id="-373685" lat="58.1484055597" lon="7.20193056215">
		<tag k="name" v="Loftstjønn" />
		<tag k="natural" v="water" />
		<tag k="ssr:stedsnr" v="507535" />
	</node>
	<node id="-373683" lat="58.2344833296" lon="7.09163611048">
		<tag k="name" v="Tjønnihei" />
		<tag k="natural" v="water" />
		<tag k="ssr:stedsnr" v="507512" />
	</node>
	<node id="-373682" lat="58.163405556" lon="7.20947776981">
		<tag k="name" v="Sauetjønn" />
		<tag k="natural" v="water" />
		<tag k="ssr:stedsnr" v="507504" />
	</node>
	<node id="-373680" lat="58.2549138869" lon="7.25793055747">
		<tag k="name" v="Geitetjønn" />
		<tag k="natural" v="water" />
		<tag k="ssr:stedsnr" v="507410" />
	</node>
	<node id="-373677" lat="58.1534722248" lon="7.23560833494">
		<tag k="name" v="Brusundet" />
		<tag k="natural" v="strait" />
		<tag k="ssr:stedsnr" v="507328" />
	</node>
	<node id="-373667" lat="58.2878416682" lon="7.17315556125">
		<tag k="name" v="Espelandsbekken" />
		<tag k="ssr:stedsnr" v="507245" />
		<tag k="waterway" v="river" />
	</node>
	<node id="-373663" lat="58.1801166708" lon="7.16189444785">
		<tag k="name" v="Lometjønna" />
		<tag k="natural" v="water" />
		<tag k="ssr:stedsnr" v="506977" />
	</node>
	<node id="-373645" lat="58.0874361077" lon="7.02373054859">
		<tag k="name" v="Knartjønn" />
		<tag k="natural" v="water" />
		<tag k="ssr:stedsnr" v="506740" />
	</node>
	<node id="-373635" lat="58.2502500004" lon="7.24342222765">
		<tag k="name" v="Trættestemmen" />
		<tag k="natural" v="water" />
		<tag k="ssr:stedsnr" v="506649" />
	</node>
	<node id="-373634" lat="58.2453583375" lon="7.24733888279">
		<tag k="name" v="Hestvann" />
		<tag k="natural" v="water" />
		<tag k="ssr:stedsnr" v="506644" />
		<tag k="water" v="lake" />
	</node>
	<node id="-373633" lat="58.1970437196" lon="7.22929938436">
		<tag k="name" v="Sådemyrvann" />
		<tag k="natural" v="water" />
		<tag k="ssr:stedsnr" v="506616" />
		<tag k="water" v="lake" />
	</node>
	<node id="-373630" lat="58.2594722211" lon="7.16026944952">
		<tag k="name" v="Rundelona" />
		<tag k="natural" v="water" />
		<tag k="ssr:stedsnr" v="506589" />
		<tag k="water" v="lake" />
	</node>
	<node id="-373626" lat="58.2433722204" lon="7.13921944056">
		<tag k="name" v="Logelona" />
		<tag k="natural" v="water" />
		<tag k="ssr:stedsnr" v="506515" />
		<tag k="water" v="lake" />
	</node>
	<node id="-373624" lat="58.1510305574" lon="6.93914999748">
		<tag k="name" v="Gildra" />
		<tag k="natural" v="water" />
		<tag k="ssr:stedsnr" v="506494" />
		<tag k="water" v="lake" />
	</node>
	<node id="-373611" lat="58.2500138905" lon="7.10880833664">
		<tag k="name" v="Skrømtebukt" />
		<tag k="natural" v="bay" />
		<tag k="ssr:stedsnr" v="506402" />
	</node>
	<node id="-373610" lat="58.1730388849" lon="7.12521388468">
		<tag k="name" v="Hunstjønna" />
		<tag k="natural" v="water" />
		<tag k="ssr:stedsnr" v="506398" />
	</node>
	<node id="-373599" lat="58.1939055593" lon="7.18138611581">
		<tag k="name" v="Timrevedbekken" />
		<tag k="ssr:stedsnr" v="506253" />
		<tag k="waterway" v="stream" />
	</node>
	<node id="-373597" lat="58.262355556" lon="7.11429999339">
		<tag k="name" v="Storebekken" />
		<tag k="ssr:stedsnr" v="506243" />
		<tag k="waterway" v="stream" />
	</node>
	<node id="-373596" lat="58.2373805542" lon="7.14325000393">
		<tag k="name" v="Hauebekken" />
		<tag k="ssr:stedsnr" v="506234" />
		<tag k="waterway" v="stream" />
	</node>
	<node id="-372537" lat="58.2256249984" lon="7.08908054813">
		<tag k="name" v="Kringletjønn" />
		<tag k="natural" v="water" />
		<tag k="ssr:stedsnr" v="21206" />
	</node>
	<node id="-373581" lat="58.2494388869" lon="7.07901666938">
		<tag k="name" v="Rabnevann" />
		<tag k="natural" v="water" />
		<tag k="ssr:stedsnr" v="506120" />
		<tag k="water" v="lake" />
	</node>
	<node id="-373580" lat="58.1908527757" lon="7.11225833186">
		<tag k="name" v="Dyrøya" />
		<tag k="place" v="island" />
		<tag k="ssr:stedsnr" v="506119" />
	</node>
	<node id="-373579" lat="58.1923833318" lon="7.13723055885">
		<tag k="name" v="Skiftingstjønn" />
		<tag k="natural" v="water" />
		<tag k="ssr:stedsnr" v="506110" />
	</node>
	<node id="-373573" lat="58.2275111122" lon="7.01727499866">
		<tag k="name" v="Hestvadhølen" />
		<tag k="place" v="locality" />
		<tag k="ssr:stedsnr" v="506057" />
	</node>
	<node id="-373563" lat="58.2656395643" lon="7.12491314">
		<tag k="alt_name" v="Stemvann" />
		<tag k="name" v="Stemvatnet" />
		<tag k="natural" v="water" />
		<tag k="ssr:stedsnr" v="485572" />
	</node>
	<node id="-373560" lat="58.0524253435" lon="7.01328360997">
		<tag k="alt_name" v="Bervannet" />
		<tag k="name" v="Børrevatnet" />
		<tag k="natural" v="water" />
		<tag k="ssr:stedsnr" v="485532" />
	</node>
	<node id="-373556" lat="58.2862127601" lon="7.24519956087">
		<tag k="fixme" v="multiple name tags, choose one and add the other to alt_name" />
		<tag k="name" v="Hautjørna;Stemmen" />
		<tag k="natural" v="water" />
		<tag k="ssr:stedsnr" v="485457" />
	</node>
	<node id="-373555" lat="58.1032250012" lon="6.99182500114">
		<tag k="alt_name" v="Skiftestjønn" />
		<tag k="name" v="Skiftingstjørn" />
		<tag k="natural" v="water" />
		<tag k="ssr:stedsnr" v="485456" />
	</node>
	<node id="-373552" lat="58.1739029287" lon="7.23421429282">
		<tag k="alt_name" v="Grimevann" />
		<tag k="name" v="Grimevatnet" />
		<tag k="natural" v="water" />
		<tag k="ssr:stedsnr" v="485434" />
	</node>
	<node id="-373548" lat="58.2158987358" lon="7.04525007938">
		<tag k="alt_name" v="Måkevann" />
		<tag k="name" v="Måkevatnet" />
		<tag k="natural" v="water" />
		<tag k="ssr:stedsnr" v="485367" />
	</node>
	<node id="-373521" lat="58.1590499983" lon="7.21466943707">
		<tag k="name" v="Stemmen" />
		<tag k="ssr:stedsnr" v="447494" />
		<tag k="waterway" v="dam" />
	</node>
	<node id="-373513" lat="58.1335972256" lon="7.16015555037">
		<tag k="name" v="Reinstjønna" />
		<tag k="natural" v="water" />
		<tag k="ssr:stedsnr" v="446943" />
	</node>
	<node id="-373506" lat="58.1169333309" lon="7.11266389359">
		<tag k="name" v="Ramslandstjønna" />
		<tag k="natural" v="water" />
		<tag k="ssr:stedsnr" v="446816" />
	</node>
	<node id="-372523" lat="58.2444361145" lon="7.05074722176">
		<tag k="name" v="Slogetjønna" />
		<tag k="natural" v="water" />
		<tag k="ssr:stedsnr" v="21076" />
	</node>
	<node id="-373503" lat="58.1589416633" lon="6.99450833871">
		<tag k="name" v="Refstjønna" />
		<tag k="natural" v="water" />
		<tag k="ssr:stedsnr" v="446781" />
	</node>
	<node id="-373490" lat="58.2461999971" lon="7.25414721749">
		<tag k="name" v="Grøndalstjønn" />
		<tag k="natural" v="water" />
		<tag k="ssr:stedsnr" v="446662" />
	</node>
	<node id="-373488" lat="58.229619447" lon="7.2276611111">
		<tag k="name" v="Fangedalstjønn" />
		<tag k="natural" v="water" />
		<tag k="ssr:stedsnr" v="446654" />
	</node>
	<node id="-373485" lat="58.1980972216" lon="7.21958333458">
		<tag k="name" v="Heistølvann" />
		<tag k="natural" v="water" />
		<tag k="ssr:stedsnr" v="446619" />
		<tag k="water" v="lake" />
	</node>
	<node id="-373484" lat="58.203838888" lon="7.2237027861">
		<tag k="name" v="Bjorvann" />
		<tag k="natural" v="water" />
		<tag k="ssr:stedsnr" v="446617" />
		<tag k="water" v="lake" />
	</node>
	<node id="-373462" lat="58.1674250021" lon="7.10766944474">
		<tag k="name" v="Preststemmen" />
		<tag k="natural" v="water" />
		<tag k="ssr:stedsnr" v="446443" />
		<tag k="water" v="lake" />
	</node>
	<node id="-373461" lat="58.1404944481" lon="7.10370000627">
		<tag k="name" v="Stemtjønna" />
		<tag k="natural" v="water" />
		<tag k="ssr:stedsnr" v="446437" />
	</node>
	<node id="-373459" lat="58.132761113" lon="7.08955277501">
		<tag k="name" v="Tussetjønna" />
		<tag k="natural" v="water" />
		<tag k="ssr:stedsnr" v="446429" />
	</node>
	<node id="-373456" lat="58.187361115" lon="7.10913889032">
		<tag k="name" v="Slåttøya" />
		<tag k="place" v="island" />
		<tag k="ssr:stedsnr" v="446413" />
	</node>
	<node id="-373455" lat="58.1781166676" lon="7.23681944442">
		<tag k="name" v="Bervannstjønn" />
		<tag k="natural" v="water" />
		<tag k="ssr:stedsnr" v="446382" />
	</node>
	<node id="-372514" lat="58.2025833354" lon="7.03540555979">
		<tag k="name" v="Tømmervika" />
		<tag k="natural" v="bay" />
		<tag k="ssr:stedsnr" v="21019" />
	</node>
	<node id="-373449" lat="58.2725583303" lon="7.2572472291">
		<tag k="name" v="Fanneskartjønn" />
		<tag k="natural" v="water" />
		<tag k="ssr:stedsnr" v="446351" />
	</node>
	<node id="-373434" lat="58.2605583364" lon="7.11543333284">
		<tag k="name" v="Øyna" />
		<tag k="natural" v="cape" />
		<tag k="ssr:stedsnr" v="446270" />
	</node>
	<node id="-373426" lat="58.2205722239" lon="7.1098111143">
		<tag k="name" v="Tandelbekken" />
		<tag k="ssr:stedsnr" v="446230" />
		<tag k="waterway" v="stream" />
	</node>
	<node id="-372509" lat="58.2783388882" lon="7.08508333291">
		<tag k="name" v="Svartevatnet" />
		<tag k="natural" v="water" />
		<tag k="ssr:stedsnr" v="515" />
	</node>
	<node id="-373415" lat="58.2233805533" lon="7.07699444052">
		<tag k="name" v="Vardetjønn" />
		<tag k="natural" v="water" />
		<tag k="ssr:stedsnr" v="446101" />
	</node>
	<node id="-373414" lat="58.2349694472" lon="7.05207778023">
		<tag k="name" v="Troddevann" />
		<tag k="natural" v="water" />
		<tag k="ssr:stedsnr" v="446090" />
		<tag k="water" v="lake" />
	</node>
	<node id="-373413" lat="58.2370638854" lon="7.06965556195">
		<tag k="name" v="Lauseholmen" />
		<tag k="place" v="islet" />
		<tag k="ssr:stedsnr" v="446083" />
	</node>
	<node id="-373411" lat="58.207372222" lon="6.99143055552">
		<tag k="name" v="Hesttjønna" />
		<tag k="natural" v="water" />
		<tag k="ssr:stedsnr" v="446064" />
	</node>
	<node id="-373406" lat="58.2048388893" lon="7.03690832749">
		<tag k="name" v="Finnodden" />
		<tag k="natural" v="cape" />
		<tag k="ssr:stedsnr" v="446033" />
	</node>
	<node id="-373405" lat="58.2111888926" lon="7.04860556265">
		<tag k="name" v="Troddevann" />
		<tag k="natural" v="water" />
		<tag k="ssr:stedsnr" v="446016" />
		<tag k="water" v="lake" />
	</node>
	<node id="-373392" lat="58.118017808" lon="7.16157895294">
		<tag k="alt_name" v="Auglandsvannet" />
		<tag k="name" v="Auglandsvatnet" />
		<tag k="natural" v="water" />
		<tag k="ssr:stedsnr" v="425531" />
	</node>
	<node id="-373390" lat="58.1416893591" lon="7.20832710324">
		<tag k="alt_name" v="Mjåvann" />
		<tag k="name" v="Mjåvatnet" />
		<tag k="natural" v="water" />
		<tag k="ssr:stedsnr" v="425513" />
	</node>
	<node id="-373386" lat="58.2702972101" lon="7.11985781887">
		<tag k="alt_name" v="Krokevann" />
		<tag k="name" v="Krokevatnet" />
		<tag k="natural" v="water" />
		<tag k="ssr:stedsnr" v="425485" />
	</node>
	<node id="-373380" lat="58.1421166959" lon="7.13556890808">
		<tag k="alt_name" v="Vestervannet" />
		<tag k="name" v="Vestervatnet" />
		<tag k="natural" v="water" />
		<tag k="ssr:stedsnr" v="425459" />
	</node>
	<node id="-373379" lat="58.1476166652" lon="7.0087611088">
		<tag k="alt_name" v="Fivelandsvannet" />
		<tag k="name" v="Fivelandsvatnet" />
		<tag k="natural" v="water" />
		<tag k="ssr:stedsnr" v="425457" />
	</node>
	<node id="-373378" lat="58.2011861135" lon="7.12400556289">
		<tag k="alt_name" v="Lyngdalselva" />
		<tag k="name" v="Lygna" />
		<tag k="ssr:stedsnr" v="425448" />
		<tag k="waterway" v="river" />
	</node>
	<node id="-373375" lat="58.1714800472" lon="7.11646470984">
		<tag k="alt_name" v="Skiljetjønna" />
		<tag k="name" v="Skiljetjern" />
		<tag k="natural" v="water" />
		<tag k="ssr:stedsnr" v="425429" />
	</node>
	<node id="-373372" lat="58.2149751413" lon="7.02416029114">
		<tag k="alt_name" v="Mjåvann" />
		<tag k="name" v="Mjåvatnet" />
		<tag k="natural" v="water" />
		<tag k="ssr:stedsnr" v="425420" />
	</node>
	<node id="-373370" lat="58.2462006907" lon="7.21501838283">
		<tag k="alt_name" v="Gusevann" />
		<tag k="name" v="Gusevatnet" />
		<tag k="natural" v="water" />
		<tag k="ssr:stedsnr" v="425390" />
	</node>
	<node id="-373346" lat="58.2143444404" lon="7.14707500748">
		<tag k="name" v="Rudjordsbekken" />
		<tag k="ssr:stedsnr" v="265320" />
		<tag k="waterway" v="stream" />
	</node>
	<node id="-373342" lat="58.2293999959" lon="7.20698334089">
		<tag k="name" v="Sollibekken" />
		<tag k="ssr:stedsnr" v="265288" />
		<tag k="waterway" v="stream" />
	</node>
	<node id="-373335" lat="58.1801805575" lon="7.14227778495">
		<tag k="name" v="Blesetjønna" />
		<tag k="natural" v="water" />
		<tag k="ssr:stedsnr" v="264978" />
	</node>
	<node id="-373331" lat="58.1416583305" lon="7.05101945051">
		<tag k="name" v="Bergeøya" />
		<tag k="natural" v="cape" />
		<tag k="ssr:stedsnr" v="264894" />
	</node>
	<node id="-373330" lat="58.1401527773" lon="7.05098611006">
		<tag k="name" v="Spregla" />
		<tag k="natural" v="bay" />
		<tag k="ssr:stedsnr" v="264890" />
	</node>
	<node id="-372150" lat="58.2286527793" lon="7.10066944025">
		<tag k="name" v="Vidringstadvann" />
		<tag k="natural" v="water" />
		<tag k="ssr:stedsnr" v="324177" />
		<tag k="water" v="lake" />
	</node>
	<node id="-373311" lat="58.1382083298" lon="6.96352778126">
		<tag k="name" v="Lonefjelltjønna" />
		<tag k="natural" v="water" />
		<tag k="ssr:stedsnr" v="264754" />
	</node>
	<node id="-372831" lat="58.1550450882" lon="6.88308505441">
		<tag k="alt_name" v="Stangelitjødna" />
		<tag k="name" v="Stangelitjørna" />
		<tag k="natural" v="water" />
		<tag k="ssr:stedsnr" v="121251" />
	</node>
	<node id="-373298" lat="58.2243027795" lon="7.2342611156">
		<tag k="name" v="Tvitjønn" />
		<tag k="natural" v="water" />
		<tag k="ssr:stedsnr" v="264621" />
	</node>
	<node id="-373293" lat="58.2400499963" lon="7.23879167477">
		<tag k="name" v="Indre Dynjevann" />
		<tag k="natural" v="water" />
		<tag k="ssr:stedsnr" v="264603" />
		<tag k="water" v="lake" />
	</node>
	<node id="-373287" lat="58.2607749989" lon="7.1576055547">
		<tag k="name" v="Sandlona" />
		<tag k="natural" v="water" />
		<tag k="ssr:stedsnr" v="264575" />
		<tag k="water" v="lake" />
	</node>
	<node id="-373278" lat="58.1791388873" lon="6.9950444445">
		<tag k="name" v="Rikketjønn" />
		<tag k="natural" v="water" />
		<tag k="ssr:stedsnr" v="264471" />
	</node>
	<node id="-373273" lat="58.1486027814" lon="7.1381944525">
		<tag k="name" v="Kjeddingtjønn" />
		<tag k="natural" v="water" />
		<tag k="ssr:stedsnr" v="264440" />
	</node>
	<node id="-373269" lat="58.1403666697" lon="7.1214722147">
		<tag k="name" v="Tvitjønn" />
		<tag k="natural" v="water" />
		<tag k="ssr:stedsnr" v="264417" />
	</node>
	<node id="-373268" lat="58.1414555524" lon="7.21219444976">
		<tag k="name" v="Kvennebekken" />
		<tag k="ssr:stedsnr" v="264415" />
		<tag k="waterway" v="stream" />
	</node>
	<node id="-373265" lat="58.130672218" lon="7.09543334135">
		<tag k="name" v="Madlandsstemmen" />
		<tag k="natural" v="bay" />
		<tag k="ssr:stedsnr" v="264408" />
	</node>
	<node id="-373262" lat="58.189663886" lon="7.09309443895">
		<tag k="name" v="Grimshammerbekken" />
		<tag k="ssr:stedsnr" v="264391" />
		<tag k="waterway" v="stream" />
	</node>
	<node id="-373238" lat="58.2377222255" lon="7.19120278545">
		<tag k="name" v="Sjurslona" />
		<tag k="natural" v="water" />
		<tag k="ssr:stedsnr" v="264222" />
		<tag k="water" v="lake" />
	</node>
	<node id="-373234" lat="58.2440472253" lon="7.20429999933">
		<tag k="name" v="Åmlilona" />
		<tag k="natural" v="water" />
		<tag k="ssr:stedsnr" v="264210" />
		<tag k="water" v="lake" />
	</node>
	<node id="-373232" lat="58.1929194433" lon="7.14215278471">
		<tag k="name" v="Grautestemmen" />
		<tag k="natural" v="water" />
		<tag k="ssr:stedsnr" v="264198" />
		<tag k="water" v="lake" />
	</node>
	<node id="-373230" lat="58.2778513794" lon="7.08465479508">
		<tag k="name" v="Svartevann" />
		<tag k="natural" v="water" />
		<tag k="ssr:stedsnr" v="264185" />
		<tag k="water" v="lake" />
	</node>
	<node id="-373221" lat="58.2754194452" lon="7.08393610685">
		<tag k="name" v="Stemlona" />
		<tag k="natural" v="water" />
		<tag k="ssr:stedsnr" v="264134" />
	</node>
	<node id="-373217" lat="58.2019638856" lon="7.10064166259">
		<tag k="name" v="Utlandsvann" />
		<tag k="natural" v="water" />
		<tag k="ssr:stedsnr" v="264107" />
		<tag k="water" v="lake" />
	</node>
	<node id="-373216" lat="58.2056083355" lon="7.10961944734">
		<tag k="name" v="Lundebekken" />
		<tag k="ssr:stedsnr" v="264103" />
		<tag k="waterway" v="stream" />
	</node>
	<node id="-373208" lat="58.2057666651" lon="7.02371388299">
		<tag k="name" v="Igletjønn" />
		<tag k="natural" v="water" />
		<tag k="ssr:stedsnr" v="264051" />
	</node>
	<node id="-373204" lat="58.1925611143" lon="7.07446667226">
		<tag k="name" v="Geitebutjønn" />
		<tag k="natural" v="water" />
		<tag k="ssr:stedsnr" v="264019" />
	</node>
	<node id="-373203" lat="58.2120444416" lon="7.05238610423">
		<tag k="name" v="Fruetjønn" />
		<tag k="natural" v="water" />
		<tag k="ssr:stedsnr" v="264010" />
	</node>
	<node id="-373197" lat="58.1209220409" lon="7.08544550786">
		<tag k="name" v="Åveslandsvannet" />
		<tag k="natural" v="water" />
		<tag k="ssr:stedsnr" v="243567" />
		<tag k="water" v="lake" />
	</node>
	<node id="-373183" lat="58.2267052359" lon="7.04416254328">
		<tag k="alt_name" v="Hellevann" />
		<tag k="name" v="Hellevatnet" />
		<tag k="natural" v="water" />
		<tag k="ssr:stedsnr" v="243437" />
		<tag k="water" v="lake" />
	</node>
	<node id="-373175" lat="58.209444735" lon="6.93222856569">
		<tag k="alt_name" v="Slåttetjødna" />
		<tag k="name" v="Slåttetjørna" />
		<tag k="natural" v="water" />
		<tag k="ssr:stedsnr" v="243145" />
	</node>
	<node id="-373145" lat="58.1473961716" lon="7.17843172362">
		<tag k="name" v="Tvitjønnene" />
		<tag k="natural" v="water" />
		<tag k="ssr:stedsnr" v="204905" />
	</node>
	<node id="-373141" lat="58.1887055543" lon="7.18812777462">
		<tag k="name" v="Midvannet" />
		<tag k="natural" v="water" />
		<tag k="ssr:stedsnr" v="203990" />
		<tag k="water" v="lake" />
	</node>
	<node id="-373123" lat="58.1401777781" lon="6.97163611342">
		<tag k="name" v="Toftetjønna" />
		<tag k="natural" v="water" />
		<tag k="ssr:stedsnr" v="203781" />
	</node>
	<node id="-373116" lat="58.1114444403" lon="6.98041111587">
		<tag k="name" v="Bordalsvannet" />
		<tag k="natural" v="water" />
		<tag k="ssr:stedsnr" v="203753" />
		<tag k="water" v="lake" />
	</node>
	<node id="-373115" lat="58.0473194421" lon="7.00452223058">
		<tag k="name" v="Brennebukta" />
		<tag k="natural" v="bay" />
		<tag k="ssr:stedsnr" v="203741" />
	</node>
	<node id="-373112" lat="58.0496527755" lon="7.01242222778">
		<tag k="name" v="Øygardsholman" />
		<tag k="place" v="island" />
		<tag k="ssr:stedsnr" v="203722" />
	</node>
	<node id="-373103" lat="58.2493805565" lon="7.2455749925">
		<tag k="name" v="Tvitjønna" />
		<tag k="natural" v="water" />
		<tag k="ssr:stedsnr" v="203660" />
	</node>
	<node id="-373102" lat="58.2521055593" lon="7.22757500274">
		<tag k="alt_name" v="Myklestøllona" />
		<tag k="name" v="Myglestøllona" />
		<tag k="natural" v="water" />
		<tag k="ssr:stedsnr" v="203648" />
	</node>
	<node id="-373101" lat="58.1945638889" lon="7.22964444578">
		<tag k="name" v="Ålgarvann" />
		<tag k="natural" v="water" />
		<tag k="ssr:stedsnr" v="203627" />
		<tag k="water" v="lake" />
	</node>
	<node id="-373094" lat="58.2611111106" lon="7.19442222416">
		<tag k="name" v="Nesodden" />
		<tag k="natural" v="cape" />
		<tag k="ssr:stedsnr" v="203587" />
	</node>
	<node id="-373093" lat="58.2644444477" lon="7.18999444194">
		<tag k="name" v="Kvåsfossen" />
		<tag k="natural" v="waterfall" />
		<tag k="ssr:stedsnr" v="203584" />
	</node>
	<node id="-373087" lat="58.1752138868" lon="7.19750277651">
		<tag k="name" v="Svartevann" />
		<tag k="natural" v="water" />
		<tag k="ssr:stedsnr" v="203552" />
		<tag k="water" v="lake" />
	</node>
	<node id="-373079" lat="58.1367833335" lon="7.21483888227">
		<tag k="name" v="Aurebukta" />
		<tag k="natural" v="bay" />
		<tag k="ssr:stedsnr" v="203450" />
	</node>
	<node id="-373076" lat="58.1695638886" lon="7.07861111672">
		<tag k="name" v="Ingridtjønn" />
		<tag k="natural" v="water" />
		<tag k="ssr:stedsnr" v="203435" />
	</node>
	<node id="-373063" lat="58.1569694468" lon="7.19887221783">
		<tag k="name" v="Lonene" />
		<tag k="natural" v="water" />
		<tag k="ssr:stedsnr" v="204477" />
		<tag k="water" v="lake" />
	</node>
	<node id="-373056" lat="58.1906833358" lon="7.18736110382">
		<tag k="name" v="Buneset" />
		<tag k="natural" v="cape" />
		<tag k="ssr:stedsnr" v="203276" />
	</node>
	<node id="-373049" lat="58.2617055543" lon="7.10055278444">
		<tag k="name" v="Paddetjønn" />
		<tag k="natural" v="water" />
		<tag k="ssr:stedsnr" v="203188" />
	</node>
	<node id="-373038" lat="58.2446388911" lon="7.05561111255">
		<tag k="name" v="Bortjønna" />
		<tag k="natural" v="water" />
		<tag k="ssr:stedsnr" v="203089" />
	</node>
	<node id="-373029" lat="58.2085250028" lon="7.05377500352">
		<tag k="name" v="Stemtjønn" />
		<tag k="natural" v="water" />
		<tag k="ssr:stedsnr" v="203014" />
	</node>
	<node id="-373022" lat="58.1971888874" lon="7.13817221819">
		<tag k="name" v="Småkleivbekken" />
		<tag k="ssr:stedsnr" v="203133" />
		<tag k="waterway" v="stream" />
	</node>
	<node id="-373018" lat="58.2199833299" lon="7.04791944143">
		<tag k="name" v="Indre Stemvann" />
		<tag k="natural" v="water" />
		<tag k="ssr:stedsnr" v="203118" />
		<tag k="water" v="lake" />
	</node>
	<node id="-373017" lat="58.2224694434" lon="7.04897221448">
		<tag k="name" v="Ytre Stemvann" />
		<tag k="natural" v="water" />
		<tag k="ssr:stedsnr" v="203116" />
		<tag k="water" v="lake" />
	</node>
	<node id="-373003" lat="58.2928709551" lon="7.16173933809">
		<tag k="alt_name" v="Espelandsvatnet, yt" />
		<tag k="name" v="Ytre Espelandsvatnet" />
		<tag k="natural" v="water" />
		<tag k="ssr:stedsnr" v="182516" />
	</node>
	<node id="-373002" lat="58.2821949298" lon="7.1574191067">
		<tag k="alt_name" v="Steinsvann" />
		<tag k="name" v="Steinsvatnet" />
		<tag k="natural" v="water" />
		<tag k="ssr:stedsnr" v="182501" />
	</node>
	<node id="-373001" lat="58.2791423263" lon="7.21137951244">
		<tag k="alt_name" v="Røyrvann" />
		<tag k="name" v="Stemmen" />
		<tag k="natural" v="water" />
		<tag k="ssr:stedsnr" v="182496" />
	</node>
	<node id="-372999" lat="58.1467999963" lon="7.02955277622">
		<tag k="alt_name" v="Skurvåna" />
		<tag k="name" v="Skurvåa" />
		<tag k="ssr:stedsnr" v="182465" />
		<tag k="waterway" v="river" />
	</node>
	<node id="-372998" lat="58.1831666634" lon="7.06299722324">
		<tag k="name" v="Møska" />
		<tag k="ssr:stedsnr" v="182455" />
		<tag k="waterway" v="river" />
	</node>
	<node id="-372997" lat="58.2195719478" lon="6.98878329366">
		<tag k="alt_name" v="Iddelandsvannet" />
		<tag k="name" v="Iddelandsvatnet" />
		<tag k="natural" v="water" />
		<tag k="ssr:stedsnr" v="182423" />
	</node>
	<node id="-372995" lat="58.2395992206" lon="7.06721730892">
		<tag k="alt_name" v="Brådlandsvatnet, nedre;Ytre Brådlandsvann" />
		<tag k="name" v="Nedre Brådlandsvatnet" />
		<tag k="natural" v="water" />
		<tag k="ssr:stedsnr" v="182374" />
	</node>
	<node id="-372994" lat="58.2373372065" lon="7.21950273314">
		<tag k="name" v="Stemmen" />
		<tag k="natural" v="water" />
		<tag k="ssr:stedsnr" v="182372" />
	</node>
	<node id="-372095" lat="58.2200292716" lon="7.23539454212">
		<tag k="alt_name" v="Krokevann" />
		<tag k="name" v="Kråkevatnet" />
		<tag k="natural" v="water" />
		<tag k="ssr:stedsnr" v="303414" />
		<tag k="water" v="lake" />
	</node>
	<node id="-372979" lat="58.0899750028" lon="7.14334445242">
		<tag k="name" v="Veddetjønna" />
		<tag k="natural" v="water" />
		<tag k="ssr:stedsnr" v="143917" />
	</node>
	<node id="-372976" lat="58.0757249967" lon="7.14599723061">
		<tag k="name" v="Neset" />
		<tag k="natural" v="cape" />
		<tag k="ssr:stedsnr" v="143863" />
	</node>
	<node id="-372975" lat="58.1939138914" lon="7.20765832832">
		<tag k="name" v="Moltetjønn" />
		<tag k="natural" v="water" />
		<tag k="ssr:stedsnr" v="143546" />
	</node>
	<node id="-372973" lat="58.2032722224" lon="7.21811110331">
		<tag k="name" v="Bjortjønn" />
		<tag k="natural" v="water" />
		<tag k="ssr:stedsnr" v="143534" />
	</node>
	<node id="-372960" lat="58.1398944426" lon="7.04885278301">
		<tag k="name" v="Amerika" />
		<tag k="place" v="island" />
		<tag k="ssr:stedsnr" v="142894" />
	</node>
	<node id="-372947" lat="58.1532583314" lon="7.07573333216">
		<tag k="name" v="Sandøya" />
		<tag k="place" v="island" />
		<tag k="ssr:stedsnr" v="142904" />
	</node>
	<node id="-372429" lat="58.1636999959" lon="7.19753888632">
		<tag k="name" v="Elsetjønn" />
		<tag k="natural" v="water" />
		<tag k="ssr:stedsnr" v="386514" />
	</node>
	<node id="-372936" lat="58.1432749998" lon="6.95555555112">
		<tag k="name" v="Lødåsfjelltjønna" />
		<tag k="natural" v="water" />
		<tag k="ssr:stedsnr" v="142791" />
	</node>
	<node id="-372928" lat="58.2352250016" lon="7.23880554751">
		<tag k="name" v="Gildretjønn" />
		<tag k="natural" v="water" />
		<tag k="ssr:stedsnr" v="142607" />
	</node>
	<node id="-372926" lat="58.2440277799" lon="7.10694722937">
		<tag k="name" v="Ormetjønn" />
		<tag k="natural" v="water" />
		<tag k="ssr:stedsnr" v="142476" />
	</node>
	<node id="-372924" lat="58.1563472232" lon="6.95204444188">
		<tag k="name" v="Sandvika" />
		<tag k="natural" v="bay" />
		<tag k="ssr:stedsnr" v="142468" />
	</node>
	<node id="-372923" lat="58.1566249998" lon="6.95093056327">
		<tag k="name" v="Langetangen" />
		<tag k="natural" v="cape" />
		<tag k="ssr:stedsnr" v="142466" />
	</node>
	<node id="-372922" lat="58.1721722228" lon="7.01082221762">
		<tag k="name" v="Skjærebekken" />
		<tag k="ssr:stedsnr" v="142455" />
		<tag k="waterway" v="stream" />
	</node>
	<node id="-372921" lat="58.2182111098" lon="6.96852221547">
		<tag k="name" v="Dyblevannet" />
		<tag k="natural" v="water" />
		<tag k="ssr:stedsnr" v="142445" />
		<tag k="water" v="lake" />
	</node>
	<node id="-372916" lat="58.2705111122" lon="7.1992777842">
		<tag k="name" v="Lontjønn" />
		<tag k="natural" v="water" />
		<tag k="ssr:stedsnr" v="142579" />
	</node>
	<node id="-372914" lat="58.2549972178" lon="7.14601666659">
		<tag k="name" v="Skiftingslona" />
		<tag k="natural" v="water" />
		<tag k="ssr:stedsnr" v="142575" />
		<tag k="water" v="lake" />
	</node>
	<node id="-372424" lat="58.218841669" lon="7.16883889023">
		<tag k="name" v="Hedderstjønn" />
		<tag k="natural" v="water" />
		<tag k="ssr:stedsnr" v="386283" />
	</node>
	<node id="-372908" lat="58.1813555547" lon="7.09489166785">
		<tag k="name" v="Kvellandsfossen" />
		<tag k="natural" v="waterfall" />
		<tag k="ssr:stedsnr" v="142390" />
	</node>
	<node id="-374954" lat="58.2363611108" lon="7.12553888451">
		<tag k="name" v="Tvitjønnene" />
		<tag k="natural" v="water" />
		<tag k="ssr:stedsnr" v="932486" />
	</node>
	<node id="-374945" lat="58.2552358555" lon="7.23968923696">
		<tag k="name" v="Store Tvitjønn" />
		<tag k="natural" v="water" />
		<tag k="ssr:stedsnr" v="932328" />
	</node>
	<node id="-374944" lat="58.2684611099" lon="7.27898333335">
		<tag k="name" v="Hestvannet" />
		<tag k="natural" v="water" />
		<tag k="ssr:stedsnr" v="932315" />
		<tag k="water" v="lake" />
	</node>
	<node id="-374942" lat="58.2201805568" lon="7.21815834147">
		<tag k="name" v="Stemvann" />
		<tag k="natural" v="water" />
		<tag k="ssr:stedsnr" v="932270" />
		<tag k="water" v="lake" />
	</node>
	<node id="-374940" lat="58.2297361094" lon="7.20127777075">
		<tag k="name" v="Sollilona" />
		<tag k="natural" v="water" />
		<tag k="ssr:stedsnr" v="932261" />
	</node>
	<node id="-374938" lat="58.2925305539" lon="7.16172499977">
		<tag k="name" v="Ytre Espelandsvann" />
		<tag k="natural" v="water" />
		<tag k="ssr:stedsnr" v="932248" />
		<tag k="water" v="lake" />
	</node>
	<node id="-372889" lat="58.2277388851" lon="7.09040833186">
		<tag k="name" v="Rennebekken" />
		<tag k="ssr:stedsnr" v="142198" />
		<tag k="waterway" v="stream" />
	</node>
	<node id="-372886" lat="58.256183334" lon="7.13866666578">
		<tag k="name" v="Kalvetjønn" />
		<tag k="natural" v="water" />
		<tag k="ssr:stedsnr" v="142173" />
	</node>
	<node id="-372761" lat="58.1487861121" lon="7.2047166731">
		<tag k="name" v="Drengstjønn" />
		<tag k="natural" v="water" />
		<tag k="ssr:stedsnr" v="82526" />
	</node>
	<node id="-374931" lat="58.1811472193" lon="7.18052777757">
		<tag k="name" v="Åna" />
		<tag k="ssr:stedsnr" v="931984" />
		<tag k="waterway" v="river" />
	</node>
	<node id="-372878" lat="58.2578388898" lon="7.09184722026">
		<tag k="name" v="Kringletjønn" />
		<tag k="natural" v="water" />
		<tag k="ssr:stedsnr" v="142246" />
	</node>
	<node id="-374917" lat="58.0782305542" lon="7.10343888203">
		<tag k="name" v="Skjeines" />
		<tag k="natural" v="cape" />
		<tag k="ssr:stedsnr" v="931819" />
	</node>
	<node id="-372862" lat="58.2644888856" lon="7.07224166245">
		<tag k="name" v="Tangen" />
		<tag k="natural" v="cape" />
		<tag k="ssr:stedsnr" v="142158" />
	</node>
	<node id="-372861" lat="58.2570638916" lon="7.05789444385">
		<tag k="name" v="Holjeråstjønna" />
		<tag k="natural" v="water" />
		<tag k="ssr:stedsnr" v="142155" />
	</node>
	<node id="-372859" lat="58.2401222217" lon="7.05259165848">
		<tag k="name" v="Øvre Risånlona" />
		<tag k="natural" v="water" />
		<tag k="ssr:stedsnr" v="142077" />
	</node>
	<node id="-372857" lat="58.1962583346" lon="7.03047778273">
		<tag k="name" v="Åtlandslona" />
		<tag k="natural" v="water" />
		<tag k="ssr:stedsnr" v="142062" />
		<tag k="water" v="lake" />
	</node>
	<node id="-374904" lat="58.2303194465" lon="7.2431166601">
		<tag k="name" v="Kalven" />
		<tag k="natural" v="water" />
		<tag k="ssr:stedsnr" v="931691" />
	</node>
	<node id="-374902" lat="58.1544972211" lon="6.89889444106">
		<tag k="name" v="Lona" />
		<tag k="natural" v="water" />
		<tag k="ssr:stedsnr" v="931685" />
		<tag k="water" v="lake" />
	</node>
	<node id="-372853" lat="58.0385022473" lon="6.99826092261">
		<tag k="alt_name" v="Ramsjordvannet" />
		<tag k="name" v="Ramsjordvatnet" />
		<tag k="natural" v="water" />
		<tag k="ssr:stedsnr" v="121670" />
	</node>
	<node id="-374898" lat="58.2402611137" lon="7.23204445188">
		<tag k="name" v="Indre Solåsvann" />
		<tag k="natural" v="water" />
		<tag k="ssr:stedsnr" v="931647" />
		<tag k="water" v="lake" />
	</node>
	<node id="-374897" lat="58.2354777796" lon="7.22568056072">
		<tag k="name" v="Ulsvann" />
		<tag k="natural" v="water" />
		<tag k="ssr:stedsnr" v="931636" />
		<tag k="water" v="lake" />
	</node>
	<node id="-372843" lat="58.2749437512" lon="7.23975425927">
		<tag k="alt_name" v="Tjåmelandsvann" />
		<tag k="name" v="Tjåmelandsvatnet" />
		<tag k="natural" v="water" />
		<tag k="ssr:stedsnr" v="121502" />
	</node>
	<node id="-374885" lat="58.2444111154" lon="7.1129472259">
		<tag k="name" v="Røinersvann" />
		<tag k="natural" v="water" />
		<tag k="ssr:stedsnr" v="931525" />
		<tag k="water" v="lake" />
	</node>
	<node id="-374884" lat="58.1754444447" lon="6.93730556204">
		<tag k="name" v="Spelebekken" />
		<tag k="ssr:stedsnr" v="931518" />
		<tag k="waterway" v="stream" />
	</node>
	<node id="-372835" lat="58.2206984657" lon="7.08636973413">
		<tag k="alt_name" v="Krokevann" />
		<tag k="name" v="Krokevatnet" />
		<tag k="natural" v="water" />
		<tag k="ssr:stedsnr" v="121419" />
	</node>
	<node id="-374882" lat="58.1666224766" lon="6.96354812828">
		<tag k="name" v="Tvitjødna" />
		<tag k="natural" v="water" />
		<tag k="ssr:stedsnr" v="931508" />
	</node>
	<node id="-372833" lat="58.229772903" lon="6.99383481934">
		<tag k="alt_name" v="Troddevann" />
		<tag k="name" v="Troldevatnet" />
		<tag k="natural" v="water" />
		<tag k="ssr:stedsnr" v="121377" />
	</node>
	<node id="-374879" lat="58.2158305574" lon="6.92811944932">
		<tag k="name" v="Steggjevannet" />
		<tag k="natural" v="water" />
		<tag k="ssr:stedsnr" v="931489" />
	</node>
	<node id="-374878" lat="58.2248722213" lon="6.94334722546">
		<tag k="name" v="Lona" />
		<tag k="natural" v="water" />
		<tag k="ssr:stedsnr" v="931478" />
		<tag k="water" v="lake" />
	</node>
	<node id="-374876" lat="58.1836277811" lon="7.09883333947">
		<tag k="name" v="Kvellandshølen" />
		<tag k="place" v="locality" />
		<tag k="ssr:stedsnr" v="931421" />
	</node>
	<node id="-374874" lat="58.1757666687" lon="7.1204555632">
		<tag k="name" v="Londalstjønna" />
		<tag k="natural" v="water" />
		<tag k="ssr:stedsnr" v="931401" />
	</node>
	<node id="-374865" lat="58.2154583301" lon="7.17305278362">
		<tag k="name" v="Øygardsvann" />
		<tag k="natural" v="water" />
		<tag k="ssr:stedsnr" v="931313" />
		<tag k="water" v="lake" />
	</node>
	<node id="-374860" lat="58.2348993849" lon="7.01172867122">
		<tag k="name" v="Svartevann" />
		<tag k="natural" v="water" />
		<tag k="ssr:stedsnr" v="932051" />
		<tag k="water" v="lake" />
	</node>
	<node id="-374859" lat="58.1918500035" lon="7.0449166585">
		<tag k="name" v="Vatlandsvann" />
		<tag k="natural" v="water" />
		<tag k="ssr:stedsnr" v="932021" />
		<tag k="water" v="lake" />
	</node>
	<node id="-372808" lat="58.1551916675" lon="7.20546389672">
		<tag k="name" v="Treskebekken" />
		<tag k="ssr:stedsnr" v="83512" />
		<tag k="waterway" v="stream" />
	</node>
	<node id="-374853" lat="58.2655111121" lon="7.09079166877">
		<tag k="name" v="Austtjønn" />
		<tag k="natural" v="water" />
		<tag k="ssr:stedsnr" v="931165" />
	</node>
	<node id="-372802" lat="58.1692913564" lon="7.16875404796">
		<tag k="name" v="Bjodlandstjønna" />
		<tag k="natural" v="water" />
		<tag k="ssr:stedsnr" v="82988" />
	</node>
	<node id="-374848" lat="58.2276666668" lon="7.04903056254">
		<tag k="name" v="Fureholmen" />
		<tag k="place" v="islet" />
		<tag k="ssr:stedsnr" v="931086" />
	</node>
	<node id="-374845" lat="58.2088999992" lon="7.14336111716">
		<tag k="name" v="Stangedalsbekken" />
		<tag k="ssr:stedsnr" v="931248" />
		<tag k="waterway" v="stream" />
	</node>
	<node id="-372796" lat="58.1535388891" lon="7.07301944994">
		<tag k="name" v="Banken" />
		<tag k="natural" v="shoal" />
		<tag k="place" v="locality" />
		<tag k="ssr:stedsnr" v="82909" />
	</node>
	<node id="-374843" lat="58.204608337" lon="7.16901111171">
		<tag k="name" v="Kjerringtjønn" />
		<tag k="natural" v="water" />
		<tag k="ssr:stedsnr" v="931234" />
	</node>
	<node id="-374839" lat="58.2513694408" lon="7.21564999743">
		<tag k="name" v="Nedre Surtetjønn" />
		<tag k="natural" v="water" />
		<tag k="ssr:stedsnr" v="931222" />
	</node>
	<node id="-372403" lat="58.0770611083" lon="7.10496110631">
		<tag k="name" v="Aspenesodden" />
		<tag k="natural" v="cape" />
		<tag k="ssr:stedsnr" v="385798" />
	</node>
	<node id="-374829" lat="58.2654862059" lon="7.26447442514">
		<tag k="alt_name" v="Undelandsvann" />
		<tag k="name" v="Undelandsvatnet" />
		<tag k="natural" v="water" />
		<tag k="ssr:stedsnr" v="910609" />
	</node>
	<node id="-372777" lat="58.1391166688" lon="6.91033333176">
		<tag k="name" v="Solskårtjønna" />
		<tag k="natural" v="water" />
		<tag k="ssr:stedsnr" v="82668" />
	</node>
	<node id="-372776" lat="58.1776972253" lon="6.89499999285">
		<tag k="name" v="Stemstjønn" />
		<tag k="natural" v="water" />
		<tag k="ssr:stedsnr" v="82665" />
	</node>
	<node id="-374821" lat="58.2689542219" lon="7.05573003509">
		<tag k="alt_name" v="Fiskevann" />
		<tag k="name" v="Fiskevatnet" />
		<tag k="natural" v="water" />
		<tag k="ssr:stedsnr" v="910521" />
	</node>
	<node id="-374816" lat="58.1817378469" lon="7.20487840638">
		<tag k="alt_name" v="Homsvann" />
		<tag k="name" v="Homsvatnet" />
		<tag k="natural" v="water" />
		<tag k="ssr:stedsnr" v="910448" />
		<tag k="water" v="lake" />
	</node>
	<node id="-374813" lat="58.2414879381" lon="7.07365571044">
		<tag k="alt_name" v="Brådlandsvatnet, øvre;Indre Brådlandsvann" />
		<tag k="name" v="Øvre Brådlandsvatnet" />
		<tag k="natural" v="water" />
		<tag k="ssr:stedsnr" v="910376" />
	</node>
	<node id="-374810" lat="58.1671523399" lon="6.8970959702">
		<tag k="alt_name" v="Homsvann" />
		<tag k="name" v="Homsvatnet" />
		<tag k="natural" v="water" />
		<tag k="ssr:stedsnr" v="910236" />
		<tag k="water" v="lake" />
	</node>
	<node id="-374809" lat="58.1795666086" lon="6.94140454047">
		<tag k="alt_name" v="Råvedalsvannet" />
		<tag k="name" v="Rovedalsvatnet" />
		<tag k="natural" v="water" />
		<tag k="ssr:stedsnr" v="910215" />
	</node>
	<node id="-374807" lat="58.1890062818" lon="6.96362691762">
		<tag k="alt_name" v="Ljosevatnet" />
		<tag k="name" v="Ljosevann" />
		<tag k="natural" v="water" />
		<tag k="ssr:stedsnr" v="910194" />
	</node>
	<node id="-372757" lat="58.0660083309" lon="7.0419055478">
		<tag k="name" v="Deltjønna" />
		<tag k="natural" v="water" />
		<tag k="ssr:stedsnr" v="82810" />
	</node>
	<node id="-372748" lat="58.1780388908" lon="7.07669443752">
		<tag k="name" v="Galtetjønn" />
		<tag k="natural" v="water" />
		<tag k="ssr:stedsnr" v="82408" />
	</node>
	<node id="-372742" lat="58.1813750026" lon="7.01125833581">
		<tag k="name" v="Øyna" />
		<tag k="place" v="island" />
		<tag k="ssr:stedsnr" v="82463" />
	</node>
	<node id="-372894" lat="58.1425472204" lon="7.19935832692">
		<tag k="name" v="Kvarthusvann" />
		<tag k="natural" v="water" />
		<tag k="ssr:stedsnr" v="142409" />
		<tag k="water" v="lake" />
	</node>
</osm>
