<?xml version="1.0" encoding="UTF-8"?>
<osm generator="osmapis" version="0.6">
	<node id="-374272" lat="58.2672666664" lon="7.21376111121">
		<tag k="highway" v="path" />
		<tag k="name" v="Brattestien" />
		<tag k="ssr:stedsnr" v="871575" />
	</node>
	<node id="-373887" lat="58.2555500021" lon="7.2438722167">
		<tag k="highway" v="path" />
		<tag k="name" v="Snedveien" />
		<tag k="ssr:stedsnr" v="749453" />
	</node>
	<node id="-373757" lat="58.1142416635" lon="7.08884721635">
		<tag k="highway" v="path" />
		<tag k="name" v="Stien" />
		<tag k="ssr:stedsnr" v="689780" />
	</node>
	<node id="-373244" lat="58.1480444405" lon="6.97214166946">
		<tag k="bridge" v="yes" />
		<tag k="layer" v="1" />
		<tag k="name" v="Meland" />
		<tag k="ssr:stedsnr" v="532454" />
	</node>
	<node id="-373243" lat="58.0317027809" lon="7.01572778223">
		<tag k="bridge" v="yes" />
		<tag k="layer" v="1" />
		<tag k="name" v="Revøysund" />
		<tag k="ssr:stedsnr" v="532450" />
	</node>
	<node id="-373242" lat="58.2400527778" lon="7.17969166498">
		<tag k="bridge" v="yes" />
		<tag k="layer" v="1" />
		<tag k="name" v="Vemestad" />
		<tag k="ssr:stedsnr" v="532444" />
	</node>
	<node id="-373241" lat="58.1913166659" lon="7.04596110851">
		<tag k="bridge" v="yes" />
		<tag k="layer" v="1" />
		<tag k="name" v="Vatland" />
		<tag k="ssr:stedsnr" v="532445" />
	</node>
	<node id="-374513" lat="58.1125194426" lon="6.94073333527">
		<tag k="barrier" v="toll_booth" />
		<tag k="name" v="Djupvik" />
		<tag k="ssr:stedsnr" v="951925" />
	</node>
	<node id="-371824" lat="58.2476916626" lon="7.09141666788">
		<tag k="bridge" v="yes" />
		<tag k="layer" v="1" />
		<tag k="name" v="Brådland" />
		<tag k="ssr:stedsnr" v="350436" />
	</node>
	<node id="-371823" lat="58.1373638856" lon="7.17701111911">
		<tag k="bridge" v="yes" />
		<tag k="layer" v="1" />
		<tag k="name" v="Salvodd" />
		<tag k="ssr:stedsnr" v="350428" />
	</node>
	<node id="-371822" lat="58.2186861093" lon="6.93380000598">
		<tag k="bridge" v="yes" />
		<tag k="layer" v="1" />
		<tag k="name" v="Stedjansbekk" />
		<tag k="ssr:stedsnr" v="350424" />
	</node>
	<node id="-371821" lat="58.2596111098" lon="7.05547222558">
		<tag k="bridge" v="yes" />
		<tag k="layer" v="1" />
		<tag k="name" v="Trældal" />
		<tag k="ssr:stedsnr" v="350420" />
	</node>
	<node id="-372199" lat="58.2438472256" lon="7.01700277205">
		<tag k="bridge" v="yes" />
		<tag k="layer" v="1" />
		<tag k="name" v="Flatlona" />
		<tag k="ssr:stedsnr" v="46521" />
	</node>
	<node id="-372198" lat="58.1307861072" lon="7.09540555564">
		<tag k="bridge" v="yes" />
		<tag k="layer" v="1" />
		<tag k="name" v="Eiåslandbekk" />
		<tag k="ssr:stedsnr" v="46519" />
	</node>
	<node id="-374499" lat="58.1930750021" lon="7.20913888806">
		<tag k="highway" v="path" />
		<tag k="name" v="Heistølveien" />
		<tag k="ssr:stedsnr" v="932518" />
	</node>
	<node id="-373601" lat="58.2436888881" lon="7.18292499329">
		<tag k="bridge" v="yes" />
		<tag k="layer" v="1" />
		<tag k="name" v="Moisbekk" />
		<tag k="ssr:stedsnr" v="653461" />
	</node>
	<node id="-373600" lat="58.263161114" lon="7.20183611061">
		<tag k="bridge" v="yes" />
		<tag k="layer" v="1" />
		<tag k="name" v="Småjordan" />
		<tag k="ssr:stedsnr" v="653449" />
	</node>
	<node id="-373599" lat="58.1563472246" lon="7.02792777908">
		<tag k="bridge" v="yes" />
		<tag k="layer" v="1" />
		<tag k="name" v="Skyrvåna" />
		<tag k="ssr:stedsnr" v="653446" />
	</node>
	<node id="-373598" lat="58.1614861155" lon="6.95405556138">
		<tag k="bridge" v="yes" />
		<tag k="layer" v="1" />
		<tag k="name" v="Svartvatn" />
		<tag k="ssr:stedsnr" v="653443" />
	</node>
	<node id="-372701" lat="58.1215111067" lon="7.0607499996">
		<tag k="bridge" v="yes" />
		<tag k="layer" v="1" />
		<tag k="name" v="Kjellermo" />
		<tag k="ssr:stedsnr" v="228537" />
	</node>
	<node id="-371706" lat="58.2378083349" lon="7.16512500586">
		<tag k="fixme" v="consider highway=path" />
		<tag k="highway" v="track" />
		<tag k="name" v="Liskleiva" />
		<tag k="ssr:stedsnr" v="324230" />
	</node>
	<node id="-372186" lat="58.1017694474" lon="7.15825554935">
		<tag k="man_made" v="quay" />
		<tag k="name" v="Jaktstøa" />
		<tag k="place" v="locality" />
		<tag k="ssr:stedsnr" v="22923" />
	</node>
	<node id="-373209" lat="58.2224499957" lon="7.15290277131">
		<tag k="ford" v="yes" />
		<tag k="name" v="Gautevad" />
		<tag k="place" v="locality" />
		<tag k="ssr:stedsnr" v="507247" />
	</node>
	<node id="-373076" lat="58.0799916709" lon="7.11823611783">
		<tag k="bridge" v="yes" />
		<tag k="layer" v="1" />
		<tag k="name" v="Kvernbekk" />
		<tag k="ssr:stedsnr" v="471490" />
	</node>
	<node id="-373075" lat="58.1602777737" lon="7.06773054756">
		<tag k="bridge" v="yes" />
		<tag k="layer" v="1" />
		<tag k="name" v="Møska" />
		<tag k="ssr:stedsnr" v="471485" />
	</node>
	<node id="-373074" lat="58.1551805515" lon="7.12951667021">
		<tag k="bridge" v="yes" />
		<tag k="layer" v="1" />
		<tag k="name" v="Slaget bru" />
		<tag k="ssr:stedsnr" v="471484" />
	</node>
	<node id="-372175" lat="58.239283334" lon="7.10437777016">
		<tag k="name" v="Homplandsle" />
		<tag k="place" v="locality" />
		<tag k="ssr:stedsnr" v="22502" />
	</node>
	<node id="-373965" lat="58.1121111099" lon="7.08020554917">
		<tag k="bridge" v="yes" />
		<tag k="layer" v="1" />
		<tag k="name" v="Åveslandvannet bru" />
		<tag k="ssr:stedsnr" v="775426" />
	</node>
	<node id="-373708" lat="58.1853055533" lon="7.10089166725">
		<tag k="bridge" v="yes" />
		<tag k="layer" v="1" />
		<tag k="name" v="Grøvans bru" />
		<tag k="ssr:stedsnr" v="689381" />
	</node>
	<node id="-372002" lat="58.117891669" lon="7.15626666067">
		<tag k="bridge" v="yes" />
		<tag k="layer" v="1" />
		<tag k="name" v="Øygårdsvassbekk" />
		<tag k="ssr:stedsnr" v="896490" />
	</node>
	<node id="-371639" lat="58.1979583354" lon="7.03522499995">
		<tag k="layer" v="-1" />
		<tag k="name" v="Åtland" />
		<tag k="ssr:stedsnr" v="44648" />
		<tag k="tunnel" v="yes" />
	</node>
	<node id="-373320" lat="58.1764166671" lon="7.1026083313">
		<tag k="highway" v="path" />
		<tag k="name" v="Spannstien" />
		<tag k="ssr:stedsnr" v="567384" />
	</node>
	<node id="-371783" lat="58.1154027796" lon="7.09309721903">
		<tag k="highway" v="path" />
		<tag k="name" v="Kjærlighetsstien" />
		<tag k="ssr:stedsnr" v="324814" />
	</node>
	<node id="-371809" lat="58.16442222" lon="7.18612776965">
		<tag k="fixme" v="consider highway=path" />
		<tag k="highway" v="track" />
		<tag k="name" v="Sandkleiva" />
		<tag k="ssr:stedsnr" v="325907" />
	</node>
	<node id="-372292" lat="58.1412416685" lon="7.08891110384">
		<tag k="highway" v="path" />
		<tag k="name" v="Kongens postveg" />
		<tag k="ssr:stedsnr" v="82417" />
	</node>
	<node id="-372803" lat="58.1801833368" lon="7.10643056015">
		<tag k="highway" v="path" />
		<tag k="name" v="Gjeidestien" />
		<tag k="ssr:stedsnr" v="264398" />
	</node>
	<node id="-372290" lat="58.1767499965" lon="7.07355555483">
		<tag k="highway" v="path" />
		<tag k="name" v="Stien" />
		<tag k="ssr:stedsnr" v="82413" />
	</node>
	<node id="-372363" lat="58.260083333" lon="7.19649166819">
		<tag k="bridge" v="yes" />
		<tag k="layer" v="1" />
		<tag k="name" v="Kvås" />
		<tag k="ssr:stedsnr" v="107491" />
	</node>
	<node id="-374460" lat="58.1082777768" lon="7.04889722865">
		<tag k="man_made" v="quay" />
		<tag k="name" v="Prestjordstranda" />
		<tag k="place" v="locality" />
		<tag k="ssr:stedsnr" v="931841" />
	</node>
	<node id="-373818" lat="58.196986108" lon="7.04885278079">
		<tag k="highway" v="path" />
		<tag k="name" v="Utskårstien" />
		<tag k="ssr:stedsnr" v="749013" />
	</node>
	<node id="-374200" lat="58.2075472235" lon="7.14106666359">
		<tag k="highway" v="path" />
		<tag k="name" v="Geitestegen" />
		<tag k="ssr:stedsnr" v="871208" />
	</node>
	<node id="-373943" lat="58.2878250019" lon="7.19826110279">
		<tag k="bridge" v="yes" />
		<tag k="layer" v="1" />
		<tag k="name" v="Birkeland bru" />
		<tag k="ssr:stedsnr" v="750327" />
	</node>
	<node id="-371638" lat="58.1355055559" lon="7.18212777021">
		<tag k="bridge" v="yes" />
		<tag k="layer" v="1" />
		<tag k="name" v="Lene" />
		<tag k="ssr:stedsnr" v="289508" />
	</node>
	<node id="-371637" lat="58.1575555593" lon="7.09115833889">
		<tag k="bridge" v="yes" />
		<tag k="layer" v="1" />
		<tag k="name" v="Presthøl" />
		<tag k="ssr:stedsnr" v="289500" />
	</node>
	<node id="-371636" lat="58.1497222186" lon="7.08968055714">
		<tag k="bridge" v="yes" />
		<tag k="layer" v="1" />
		<tag k="name" v="Ofte" />
		<tag k="ssr:stedsnr" v="289497" />
	</node>
	<node id="-372702" lat="58.196497226" lon="7.12179445216">
		<tag k="bridge" v="yes" />
		<tag k="layer" v="1" />
		<tag k="name" v="Foss" />
		<tag k="ssr:stedsnr" v="228548" />
	</node>
	<node id="-372914" lat="58.2284250012" lon="7.05963611105">
		<tag k="alt_name" v="Hellevann" />
		<tag k="amenity" v="parking" />
		<tag k="name" v="Hellevatn" />
		<tag k="ssr:stedsnr" v="425424" />
	</node>
	<node id="-373169" lat="58.2574166655" lon="7.18812777291">
		<tag k="highway" v="path" />
		<tag k="name" v="Bjørosveien" />
		<tag k="ssr:stedsnr" v="506583" />
	</node>
	<node id="-372573" lat="58.2006083371" lon="6.96932778155">
		<tag k="ford" v="yes" />
		<tag k="name" v="Kalvesvae" />
		<tag k="place" v="locality" />
		<tag k="ssr:stedsnr" v="203045" />
	</node>
	<node id="-372524" lat="58.1741222261" lon="7.01540278019">
		<tag k="bridge" v="yes" />
		<tag k="layer" v="1" />
		<tag k="name" v="Drageland" />
		<tag k="ssr:stedsnr" v="168459" />
	</node>
	<node id="-373034" lat="58.0457194425" lon="7.00919167017">
		<tag k="junction" v="yes" />
		<tag k="name" v="Hausviksvingen" />
		<tag k="place" v="locality" />
		<tag k="ssr:stedsnr" v="446712" />
	</node>
	<node id="-373670" lat="58.2665500014" lon="7.05091110692">
		<tag k="highway" v="path" />
		<tag k="name" v="Fænveien" />
		<tag k="ssr:stedsnr" v="689164" />
	</node>
	<node id="-374310" lat="58.1579972181" lon="7.06889167009">
		<tag k="bridge" v="yes" />
		<tag k="layer" v="1" />
		<tag k="name" v="Møskebrua" />
		<tag k="ssr:stedsnr" v="871839" />
	</node>
	<node id="-372901" lat="58.1979583354" lon="7.03522499995">
		<tag k="layer" v="-1" />
		<tag k="name" v="Åtlandstunnelen" />
		<tag k="ssr:stedsnr" v="423511" />
		<tag k="tunnel" v="yes" />
	</node>
	<node id="-373156" lat="58.1654083338" lon="7.09120277544">
		<tag k="highway" v="path" />
		<tag k="name" v="Gjest Bårdsens vei" />
		<tag k="ssr:stedsnr" v="506439" />
	</node>
	<node id="-373666" lat="58.1982444408" lon="7.1383527756">
		<tag k="fixme" v="consider highway=path" />
		<tag k="highway" v="track" />
		<tag k="name" v="Timrekleiva" />
		<tag k="ssr:stedsnr" v="689103" />
	</node>
	<node id="-372001" lat="58.0862555573" lon="7.10308610287">
		<tag k="bridge" v="yes" />
		<tag k="layer" v="1" />
		<tag k="name" v="Gitlevåg" />
		<tag k="ssr:stedsnr" v="896515" />
	</node>
	<node id="-373408" lat="58.145283331" lon="7.05791666606">
		<tag k="bridge" v="yes" />
		<tag k="layer" v="1" />
		<tag k="name" v="Faret" />
		<tag k="ssr:stedsnr" v="592524" />
	</node>
	<node id="-373407" lat="58.1535055593" lon="7.13654443713">
		<tag k="bridge" v="yes" />
		<tag k="layer" v="1" />
		<tag k="name" v="Herdalsbrua" />
		<tag k="ssr:stedsnr" v="592519" />
	</node>
	<node id="-373406" lat="58.0925972248" lon="7.05277222399">
		<tag k="bridge" v="yes" />
		<tag k="layer" v="1" />
		<tag k="name" v="Myran" />
		<tag k="ssr:stedsnr" v="592511" />
	</node>
	<node id="-371997" lat="58.1592166668" lon="7.09105832839">
		<tag k="bridge" v="yes" />
		<tag k="layer" v="1" />
		<tag k="name" v="Skrumoen" />
		<tag k="ssr:stedsnr" v="410484" />
	</node>
	<node id="-371996" lat="58.2379138844" lon="7.17541110464">
		<tag k="bridge" v="yes" />
		<tag k="layer" v="1" />
		<tag k="name" v="Vemestad" />
		<tag k="ssr:stedsnr" v="410474" />
	</node>
	<node id="-373787" lat="58.2184861113" lon="7.01770554916">
		<tag k="barrier" v="toll_booth" />
		<tag k="name" v="Handeland" />
		<tag k="ssr:stedsnr" v="725917" />
	</node>
	<node id="-374298" lat="58.0906972218" lon="7.01027500255">
		<tag k="landuse" v="harbour" />
		<tag k="name" v="Visdalstranda" />
		<tag k="seamark:type" v="harbour" />
		<tag k="ssr:stedsnr" v="871746" />
	</node>
	<node id="-373785" lat="58.2003888893" lon="6.96976110518">
		<tag k="bridge" v="yes" />
		<tag k="layer" v="1" />
		<tag k="name" v="Ljosevassbekk" />
		<tag k="ssr:stedsnr" v="714423" />
	</node>
	<node id="-373784" lat="58.1298944481" lon="7.10423333787">
		<tag k="bridge" v="yes" />
		<tag k="layer" v="1" />
		<tag k="name" v="Øygårdsvatn" />
		<tag k="ssr:stedsnr" v="714407" />
	</node>
	<node id="-373910" lat="58.2538277774" lon="7.25186667002">
		<tag k="highway" v="path" />
		<tag k="name" v="Vondeveien" />
		<tag k="ssr:stedsnr" v="749669" />
	</node>
	<node id="-372788" lat="58.2238333353" lon="7.16351666228">
		<tag k="highway" v="path" />
		<tag k="name" v="Brattestien" />
		<tag k="ssr:stedsnr" v="264283" />
	</node>
	<node id="-373902" lat="58.2950055553" lon="7.19086943841">
		<tag k="highway" v="path" />
		<tag k="name" v="Gampestien" />
		<tag k="ssr:stedsnr" v="750210" />
	</node>
	<node id="-372525" lat="58.0896638853" lon="7.04429722474">
		<tag k="bridge" v="yes" />
		<tag k="layer" v="1" />
		<tag k="name" v="Austad" />
		<tag k="ssr:stedsnr" v="168462" />
	</node>
	<node id="-372364" lat="58.2294250027" lon="7.01273888511">
		<tag k="bridge" v="yes" />
		<tag k="layer" v="1" />
		<tag k="name" v="Handeland" />
		<tag k="ssr:stedsnr" v="107504" />
	</node>
	<node id="-372747" lat="58.2072861095" lon="7.02647778109">
		<tag k="highway" v="path" />
		<tag k="name" v="Ormestien" />
		<tag k="ssr:stedsnr" v="264049" />
	</node>
	<node id="-372362" lat="58.1309111119" lon="7.0403305478">
		<tag k="bridge" v="yes" />
		<tag k="layer" v="1" />
		<tag k="name" v="Rosfjord" />
		<tag k="ssr:stedsnr" v="107488" />
	</node>
	<node id="-372745" lat="58.1969305551" lon="7.05770000765">
		<tag k="highway" v="path" />
		<tag k="name" v="Mollstien" />
		<tag k="ssr:stedsnr" v="264018" />
	</node>
	<node id="-372613" lat="58.1733305594" lon="7.09002222785">
		<tag k="ford" v="yes" />
		<tag k="name" v="Hestvad" />
		<tag k="place" v="locality" />
		<tag k="ssr:stedsnr" v="203426" />
	</node>
</osm>
