<?xml version="1.0" encoding="UTF-8"?>
<osm generator="osmapis" version="0.6">
	<node id="-372736" lat="58.1231250041" lon="7.04784721456">
		<tag k="fixme" v="consider place=hamlet" />
		<tag k="name" v="Agnefest" />
		<tag k="place" v="village" />
		<tag k="ssr:stedsnr" v="243565" />
	</node>
	<node id="-372735" lat="58.1303499965" lon="7.09153611367">
		<tag k="alt_name" v="Vestre Madland" />
		<tag k="name" v="Madland" />
		<tag k="place" v="farm" />
		<tag k="ssr:stedsnr" v="243564" />
	</node>
	<node id="-372734" lat="58.1188222179" lon="6.97599165959">
		<tag k="fixme" v="consider place=hamlet" />
		<tag k="name" v="Ramsdalen" />
		<tag k="place" v="farm" />
		<tag k="ssr:stedsnr" v="243549" />
	</node>
	<node id="-372733" lat="58.1346194446" lon="7.11924165918">
		<tag k="alt_name" v="Rødland" />
		<tag k="fixme" v="consider place=hamlet" />
		<tag k="name" v="Røydland" />
		<tag k="place" v="farm" />
		<tag k="ssr:stedsnr" v="243544" />
	</node>
	<node id="-372732" lat="58.0871611152" lon="7.0627138888">
		<tag k="alt_name" v="Ytre Nygård" />
		<tag k="name" v="Nygard" />
		<tag k="place" v="locality" />
		<tag k="ssr:stedsnr" v="243529" />
	</node>
	<node id="-372731" lat="58.0983305525" lon="7.00507500825">
		<tag k="fixme" v="consider place=hamlet" />
		<tag k="name" v="Kvålsvik" />
		<tag k="place" v="farm" />
		<tag k="ssr:stedsnr" v="243527" />
	</node>
	<node id="-372730" lat="58.2687000042" lon="7.23876110446">
		<tag k="fixme" v="consider place=hamlet" />
		<tag k="name" v="Eikeland" />
		<tag k="place" v="farm" />
		<tag k="ssr:stedsnr" v="243502" />
	</node>
	<node id="-372729" lat="58.1089305589" lon="7.056902776">
		<tag k="name" v="Øydna" />
		<tag k="place" v="farm" />
		<tag k="ssr:stedsnr" v="243501" />
	</node>
	<node id="-372727" lat="58.1575111137" lon="7.20515000108">
		<tag k="alt_name" v="Grubbelien" />
		<tag k="fixme" v="consider place=hamlet" />
		<tag k="name" v="Grubbelia" />
		<tag k="place" v="farm" />
		<tag k="ssr:stedsnr" v="243475" />
	</node>
	<node id="-372726" lat="58.1963916636" lon="7.06596111685">
		<tag k="name" v="Gauksheim" />
		<tag k="place" v="farm" />
		<tag k="ssr:stedsnr" v="243462" />
	</node>
	<node id="-372725" lat="58.1955222206" lon="7.12337221951">
		<tag k="alt_name" v="Foss, yt;Foss ytre;Foss" />
		<tag k="fixme" v="consider place=hamlet" />
		<tag k="name" v="Ytre Foss" />
		<tag k="place" v="farm" />
		<tag k="ssr:stedsnr" v="243461" />
	</node>
	<node id="-372724" lat="58.1834666705" lon="7.0089666604">
		<tag k="fixme" v="consider place=hamlet" />
		<tag k="name" v="Åmland" />
		<tag k="place" v="farm" />
		<tag k="ssr:stedsnr" v="243456" />
	</node>
	<node id="-372722" lat="58.215125" lon="6.98128611075">
		<tag k="name" v="Vintland" />
		<tag k="place" v="isolated_dwelling" />
		<tag k="ssr:stedsnr" v="243428" />
	</node>
	<node id="-372721" lat="58.2251833352" lon="7.19622777119">
		<tag k="alt_name" v="Tofteland østre;Tofteland" />
		<tag k="fixme" v="consider place=hamlet" />
		<tag k="name" v="Topteland" />
		<tag k="place" v="farm" />
		<tag k="ssr:stedsnr" v="243424" />
	</node>
	<node id="-372719" lat="58.2441500026" lon="7.07326110439">
		<tag k="fixme" v="consider place=hamlet" />
		<tag k="name" v="Eitland" />
		<tag k="place" v="farm" />
		<tag k="ssr:stedsnr" v="243401" />
	</node>
	<node id="-372717" lat="58.10856111" lon="6.96461110998">
		<tag k="fixme" v="consider place=hamlet" />
		<tag k="name" v="Indre Eikeland" />
		<tag k="place" v="farm" />
		<tag k="ssr:stedsnr" v="243287" />
	</node>
	<node id="-372716" lat="58.2134666624" lon="6.94648055545">
		<tag k="fixme" v="consider place=hamlet" />
		<tag k="name" v="Tjomsland" />
		<tag k="place" v="farm" />
		<tag k="ssr:stedsnr" v="243155" />
	</node>
	<node id="-372713" lat="58.1254249996" lon="7.07616666104">
		<tag k="name" v="Åvesland" />
		<tag k="place" v="farm" />
		<tag k="ssr:stedsnr" v="242845" />
	</node>
	<node id="-372712" lat="58.1103416678" lon="6.95228334045">
		<tag k="name" v="Kollevoll" />
		<tag k="place" v="farm" />
		<tag k="ssr:stedsnr" v="242837" />
	</node>
	<node id="-372711" lat="58.1519472225" lon="7.02621667075">
		<tag k="name" v="Bjerge" />
		<tag k="place" v="farm" />
		<tag k="ssr:stedsnr" v="242822" />
	</node>
	<node id="-372710" lat="58.1116916646" lon="6.95188333604">
		<tag k="name" v="Kollevoll" />
		<tag k="place" v="farm" />
		<tag k="ssr:stedsnr" v="242823" />
	</node>
	<node id="-372709" lat="58.2041833309" lon="7.03039721547">
		<tag k="name" v="Vestre Eikeland" />
		<tag k="place" v="farm" />
		<tag k="ssr:stedsnr" v="242584" />
	</node>
	<node id="-372708" lat="58.2017027752" lon="7.02514167191">
		<tag k="name" v="Ytre Eikeland" />
		<tag k="place" v="farm" />
		<tag k="ssr:stedsnr" v="242582" />
	</node>
	<node id="-372707" lat="58.0852388867" lon="7.07345000794">
		<tag k="alt_name" v="Knuden" />
		<tag k="fixme" v="consider place=hamlet" />
		<tag k="name" v="Knuten" />
		<tag k="place" v="farm" />
		<tag k="ssr:stedsnr" v="242568" />
	</node>
	<node id="-372706" lat="58.3124777795" lon="7.20865555476">
		<tag k="name" v="Neset" />
		<tag k="place" v="farm" />
		<tag k="ssr:stedsnr" v="242514" />
	</node>
	<node id="-372705" lat="58.2321111072" lon="7.16522777584">
		<tag k="alt_name" v="Væmestad" />
		<tag k="name" v="Vemestad" />
		<tag k="place" v="hamlet" />
		<tag k="ssr:stedsnr" v="239698" />
	</node>
	<node id="-372699" lat="58.1362916667" lon="6.99862499842">
		<tag k="name" v="Sørlia" />
		<tag k="place" v="farm" />
		<tag k="ssr:stedsnr" v="210833" />
	</node>
	<node id="-372698" lat="58.1170805571" lon="6.94711388399">
		<tag k="name" v="Djupvig" />
		<tag k="place" v="farm" />
		<tag k="ssr:stedsnr" v="210827" />
	</node>
	<node id="-372697" lat="58.1357777808" lon="6.99783055469">
		<tag k="loc_name" v="Sørlia III" />
		<tag k="name" v="Sørli III" />
		<tag k="place" v="farm" />
		<tag k="ssr:stedsnr" v="210826" />
	</node>
	<node id="-372696" lat="58.1159305584" lon="7.06186389664">
		<tag k="name" v="Skomrag" />
		<tag k="place" v="farm" />
		<tag k="ssr:stedsnr" v="207401" />
	</node>
	<node id="-372672" lat="58.1413111072" lon="7.07908610632">
		<tag k="fixme" v="consider place=suburb, village or hamlet" />
		<tag k="name" v="Øvre Berge" />
		<tag k="place" v="quarter" />
		<tag k="ssr:stedsnr" v="203900" />
	</node>
	<node id="-372668" lat="58.1581999991" lon="7.08130555979">
		<tag k="name" v="Østre Bringsjord" />
		<tag k="place" v="hamlet" />
		<tag k="ssr:stedsnr" v="203862" />
	</node>
	<node id="-372545" lat="58.1341555552" lon="7.09989165899">
		<tag k="alt_name" v="Ødegården" />
		<tag k="fixme" v="consider place=hamlet" />
		<tag k="name" v="Øygarden" />
		<tag k="place" v="farm" />
		<tag k="ssr:stedsnr" v="182523" />
	</node>
	<node id="-372660" lat="58.0946194474" lon="6.99076944822">
		<tag k="name" v="Skifte" />
		<tag k="place" v="locality" />
		<tag k="ssr:stedsnr" v="203777" />
	</node>
	<node id="-372654" lat="58.1154722199" lon="7.03145834101">
		<tag k="name" v="Indre Svenevik" />
		<tag k="place" v="hamlet" />
		<tag k="ssr:stedsnr" v="203735" />
	</node>
	<node id="-372624" lat="58.181911112" lon="7.0135305505">
		<tag k="name" v="Hauan" />
		<tag k="place" v="farm" />
		<tag k="ssr:stedsnr" v="203497" />
	</node>
	<node id="-374606" lat="58.1983758338" lon="7.12268414288">
		<tag k="fixme" v="consider place=hamlet" />
		<tag k="name" v="Øvre Foss" />
		<tag k="place" v="farm" />
		<tag k="ssr:stedsnr" v="979587" />
	</node>
	<node id="-374605" lat="58.080858299" lon="7.12303445086">
		<tag k="fixme" v="consider place=hamlet" />
		<tag k="name" v="Flatstad" />
		<tag k="place" v="farm" />
		<tag k="ssr:stedsnr" v="979596" />
	</node>
	<node id="-374604" lat="58.1055948373" lon="7.14550813704">
		<tag k="fixme" v="consider place=hamlet" />
		<tag k="name" v="Heien" />
		<tag k="place" v="farm" />
		<tag k="ssr:stedsnr" v="979595" />
	</node>
	<node id="-374603" lat="58.1004182672" lon="7.13791346479">
		<tag k="name" v="Eiken" />
		<tag k="place" v="locality" />
		<tag k="ssr:stedsnr" v="979594" />
	</node>
	<node id="-374602" lat="58.0712813355" lon="7.10238123919">
		<tag k="fixme" v="consider place=hamlet" />
		<tag k="name" v="Hovde" />
		<tag k="place" v="farm" />
		<tag k="ssr:stedsnr" v="979593" />
	</node>
	<node id="-372553" lat="58.1963499973" lon="7.02288610979">
		<tag k="name" v="Lille Eikeland" />
		<tag k="place" v="farm" />
		<tag k="ssr:stedsnr" v="182618" />
	</node>
	<node id="-374600" lat="58.2523003242" lon="7.06603910775">
		<tag k="fixme" v="consider place=hamlet" />
		<tag k="name" v="Vestre Tofteland" />
		<tag k="place" v="farm" />
		<tag k="ssr:stedsnr" v="979589" />
	</node>
	<node id="-374599" lat="58.2453551985" lon="7.13382411253">
		<tag k="name" v="Logan" />
		<tag k="place" v="locality" />
		<tag k="ssr:stedsnr" v="979588" />
	</node>
	<node id="-372550" lat="58.1218277802" lon="7.16485833742">
		<tag k="name" v="Østre Eikeland" />
		<tag k="place" v="farm" />
		<tag k="ssr:stedsnr" v="182555" />
	</node>
	<node id="-372549" lat="58.115908329" lon="7.17043610943">
		<tag k="fixme" v="consider place=hamlet" />
		<tag k="name" v="Augland" />
		<tag k="place" v="farm" />
		<tag k="ssr:stedsnr" v="182550" />
	</node>
	<node id="-374596" lat="58.2629015927" lon="7.20280799803">
		<tag k="fixme" v="consider place=hamlet" />
		<tag k="name" v="Øvre Kvås" />
		<tag k="place" v="farm" />
		<tag k="ssr:stedsnr" v="979584" />
	</node>
	<node id="-374595" lat="58.282922964" lon="7.20264734815">
		<tag k="name" v="Kvåvan" />
		<tag k="place" v="locality" />
		<tag k="ssr:stedsnr" v="979583" />
	</node>
	<node id="-374594" lat="58.1871726873" lon="7.15012097929">
		<tag k="fixme" v="consider place=hamlet" />
		<tag k="name" v="Øvre Madland" />
		<tag k="place" v="farm" />
		<tag k="ssr:stedsnr" v="979581" />
	</node>
	<node id="-374593" lat="58.1742950687" lon="7.13174693388">
		<tag k="fixme" v="consider place=hamlet" />
		<tag k="name" v="Store Nenningsland" />
		<tag k="place" v="farm" />
		<tag k="ssr:stedsnr" v="979580" />
	</node>
	<node id="-374592" lat="58.1829526535" lon="7.19295770218">
		<tag k="name" v="Oftenes" />
		<tag k="place" v="hamlet" />
		<tag k="ssr:stedsnr" v="979557" />
	</node>
	<node id="-374591" lat="58.1703430387" lon="7.16202821612">
		<tag k="name" v="Bjodland" />
		<tag k="place" v="hamlet" />
		<tag k="ssr:stedsnr" v="979556" />
	</node>
	<node id="-374589" lat="58.1689784475" lon="7.17291653971">
		<tag k="fixme" v="consider place=hamlet" />
		<tag k="name" v="Store Bjodland" />
		<tag k="place" v="farm" />
		<tag k="ssr:stedsnr" v="979554" />
	</node>
	<node id="-374588" lat="58.1843612582" lon="7.19801265469">
		<tag k="fixme" v="consider place=hamlet" />
		<tag k="name" v="Lille Oftenes" />
		<tag k="place" v="farm" />
		<tag k="ssr:stedsnr" v="979553" />
	</node>
	<node id="-374587" lat="58.1837435905" lon="7.20994212844">
		<tag k="fixme" v="consider place=hamlet" />
		<tag k="name" v="Østre Hommen" />
		<tag k="place" v="farm" />
		<tag k="ssr:stedsnr" v="979552" />
	</node>
	<node id="-374586" lat="58.1518678446" lon="7.16045163247">
		<tag k="fixme" v="consider place=hamlet" />
		<tag k="name" v="Oftedal" />
		<tag k="place" v="farm" />
		<tag k="ssr:stedsnr" v="979551" />
	</node>
	<node id="-374585" lat="58.121412424" lon="7.18942717236">
		<tag k="fixme" v="consider place=hamlet" />
		<tag k="name" v="Dåle" />
		<tag k="place" v="farm" />
		<tag k="ssr:stedsnr" v="979549" />
	</node>
	<node id="-374584" lat="58.11754231" lon="7.10685738176">
		<tag k="name" v="Raumsland" />
		<tag k="place" v="hamlet" />
		<tag k="ssr:stedsnr" v="979548" />
	</node>
	<node id="-374583" lat="58.1169318313" lon="7.09887915026">
		<tag k="fixme" v="consider place=hamlet" />
		<tag k="name" v="Ytre Raumsland" />
		<tag k="place" v="farm" />
		<tag k="ssr:stedsnr" v="979547" />
	</node>
	<node id="-374582" lat="58.118398003" lon="7.11081745865">
		<tag k="fixme" v="consider place=hamlet" />
		<tag k="name" v="Indre Raumsland" />
		<tag k="place" v="farm" />
		<tag k="ssr:stedsnr" v="979546" />
	</node>
	<node id="-374581" lat="58.1263927792" lon="7.12632343625">
		<tag k="fixme" v="consider place=hamlet" />
		<tag k="name" v="Fokvelland" />
		<tag k="place" v="farm" />
		<tag k="ssr:stedsnr" v="979545" />
	</node>
	<node id="-374580" lat="58.1308847231" lon="7.13547956509">
		<tag k="fixme" v="consider place=hamlet" />
		<tag k="name" v="Brørås" />
		<tag k="place" v="farm" />
		<tag k="ssr:stedsnr" v="979544" />
	</node>
	<node id="-374579" lat="58.129992499" lon="7.09122743791">
		<tag k="fixme" v="consider place=hamlet" />
		<tag k="name" v="Ytre Madland" />
		<tag k="place" v="farm" />
		<tag k="ssr:stedsnr" v="979543" />
	</node>
	<node id="-372530" lat="58.0631138918" lon="7.00099721554">
		<tag k="fixme" v="consider place=hamlet" />
		<tag k="name" v="Bærøy" />
		<tag k="place" v="farm" />
		<tag k="ssr:stedsnr" v="181870" />
	</node>
	<node id="-374577" lat="58.1368895869" lon="7.05389348994">
		<tag k="fixme" v="consider place=hamlet" />
		<tag k="name" v="Bergemoen" />
		<tag k="place" v="farm" />
		<tag k="ssr:stedsnr" v="979536" />
	</node>
	<node id="-374576" lat="58.1405013924" lon="7.05623227925">
		<tag k="name" v="Berge" />
		<tag k="place" v="hamlet" />
		<tag k="ssr:stedsnr" v="979533" />
	</node>
	<node id="-374575" lat="58.136745154" lon="7.0616739349">
		<tag k="fixme" v="consider place=hamlet" />
		<tag k="name" v="Ytre Berge" />
		<tag k="place" v="farm" />
		<tag k="ssr:stedsnr" v="979532" />
	</node>
	<node id="-374574" lat="58.1416413366" lon="7.05396567877">
		<tag k="fixme" v="consider place=hamlet" />
		<tag k="name" v="Øvre Berge" />
		<tag k="place" v="farm" />
		<tag k="ssr:stedsnr" v="979531" />
	</node>
	<node id="-374573" lat="58.145842996" lon="7.08180789217">
		<tag k="fixme" v="consider place=hamlet" />
		<tag k="name" v="Bergsaker" />
		<tag k="place" v="farm" />
		<tag k="ssr:stedsnr" v="979530" />
	</node>
	<node id="-374572" lat="58.1460955813" lon="7.04752347119">
		<tag k="fixme" v="consider place=hamlet" />
		<tag k="name" v="Årnes" />
		<tag k="place" v="farm" />
		<tag k="ssr:stedsnr" v="979529" />
	</node>
	<node id="-374571" lat="58.1582155354" lon="7.07436980742">
		<tag k="fixme" v="consider place=hamlet" />
		<tag k="name" v="Bringsjord" />
		<tag k="place" v="farm" />
		<tag k="ssr:stedsnr" v="979528" />
	</node>
	<node id="-374570" lat="58.1548023087" lon="7.08936719963">
		<tag k="fixme" v="consider place=hamlet" />
		<tag k="name" v="Lyngdal Prestegård" />
		<tag k="place" v="farm" />
		<tag k="ssr:stedsnr" v="979527" />
	</node>
	<node id="-374569" lat="58.1519642504" lon="7.10484329919">
		<tag k="fixme" v="consider place=hamlet" />
		<tag k="name" v="Angersmyr" />
		<tag k="place" v="farm" />
		<tag k="ssr:stedsnr" v="979526" />
	</node>
	<node id="-374568" lat="58.1540665385" lon="7.10660977093">
		<tag k="fixme" v="consider place=hamlet" />
		<tag k="name" v="Tuen" />
		<tag k="place" v="farm" />
		<tag k="ssr:stedsnr" v="979525" />
	</node>
	<node id="-374567" lat="58.1568339813" lon="7.10454165191">
		<tag k="name" v="Rom" />
		<tag k="place" v="hamlet" />
		<tag k="ssr:stedsnr" v="979524" />
	</node>
	<node id="-374566" lat="58.155277167" lon="7.10607588678">
		<tag k="fixme" v="consider place=hamlet" />
		<tag k="name" v="Vestre Rom" />
		<tag k="place" v="farm" />
		<tag k="ssr:stedsnr" v="979522" />
	</node>
	<node id="-374565" lat="58.1586545472" lon="7.10709178851">
		<tag k="fixme" v="consider place=hamlet" />
		<tag k="name" v="Østre Rom" />
		<tag k="place" v="farm" />
		<tag k="ssr:stedsnr" v="979521" />
	</node>
	<node id="-374564" lat="58.1662160789" lon="7.11484613388">
		<tag k="fixme" v="consider place=hamlet" />
		<tag k="name" v="Østre Høyland" />
		<tag k="place" v="farm" />
		<tag k="ssr:stedsnr" v="979520" />
	</node>
	<node id="-374563" lat="58.1964738507" lon="7.12691964982">
		<tag k="name" v="Foss" />
		<tag k="place" v="hamlet" />
		<tag k="ssr:stedsnr" v="979519" />
	</node>
	<node id="-374562" lat="58.2018537207" lon="7.09098716701">
		<tag k="fixme" v="consider place=hamlet" />
		<tag k="name" v="Østre Vintland" />
		<tag k="place" v="farm" />
		<tag k="ssr:stedsnr" v="979516" />
	</node>
	<node id="-374561" lat="58.192575224" lon="7.08646595051">
		<tag k="fixme" v="consider place=hamlet" />
		<tag k="name" v="Øvre Hægeland" />
		<tag k="place" v="farm" />
		<tag k="ssr:stedsnr" v="979515" />
	</node>
	<node id="-374559" lat="58.2414743189" lon="7.02729264364">
		<tag k="fixme" v="consider place=hamlet" />
		<tag k="name" v="Heieknuten" />
		<tag k="place" v="farm" />
		<tag k="ssr:stedsnr" v="979513" />
	</node>
	<node id="-374557" lat="58.2104462466" lon="7.00344776338">
		<tag k="fixme" v="consider place=hamlet" />
		<tag k="name" v="Vestre Høyland" />
		<tag k="place" v="farm" />
		<tag k="ssr:stedsnr" v="979510" />
	</node>
	<node id="-374556" lat="58.2146335344" lon="6.98098263198">
		<tag k="fixme" v="consider place=hamlet" />
		<tag k="name" v="Vestre Vintland" />
		<tag k="place" v="farm" />
		<tag k="ssr:stedsnr" v="979509" />
	</node>
	<node id="-374554" lat="58.1983971811" lon="6.97189830987">
		<tag k="name" v="Birkeland" />
		<tag k="place" v="hamlet" />
		<tag k="ssr:stedsnr" v="979507" />
	</node>
	<node id="-374553" lat="58.2000428924" lon="6.96724213446">
		<tag k="fixme" v="consider place=hamlet" />
		<tag k="name" v="Store Birkeland" />
		<tag k="place" v="farm" />
		<tag k="ssr:stedsnr" v="979505" />
	</node>
	<node id="-374552" lat="58.1956813737" lon="6.97821880946">
		<tag k="fixme" v="consider place=hamlet" />
		<tag k="name" v="Lille Birkeland" />
		<tag k="place" v="farm" />
		<tag k="ssr:stedsnr" v="979504" />
	</node>
	<node id="-374551" lat="58.1917822376" lon="6.99623374574">
		<tag k="name" v="Hægeland" />
		<tag k="place" v="hamlet" />
		<tag k="ssr:stedsnr" v="979503" />
	</node>
	<node id="-374550" lat="58.1942288108" lon="6.9939591439">
		<tag k="fixme" v="consider place=hamlet" />
		<tag k="name" v="Store Hægeland" />
		<tag k="place" v="farm" />
		<tag k="ssr:stedsnr" v="979502" />
	</node>
	<node id="-374549" lat="58.191304078" lon="7.0002776165">
		<tag k="fixme" v="consider place=hamlet" />
		<tag k="name" v="Lille Hægeland" />
		<tag k="place" v="farm" />
		<tag k="ssr:stedsnr" v="979501" />
	</node>
	<node id="-374548" lat="58.1648561283" lon="7.01272069188">
		<tag k="fixme" v="consider place=hamlet" />
		<tag k="name" v="Kleivan" />
		<tag k="place" v="farm" />
		<tag k="ssr:stedsnr" v="979496" />
	</node>
	<node id="-374547" lat="58.1500482599" lon="7.02989415829">
		<tag k="fixme" v="consider place=hamlet" />
		<tag k="name" v="Vestre Fidje" />
		<tag k="place" v="farm" />
		<tag k="ssr:stedsnr" v="979495" />
	</node>
	<node id="-374546" lat="58.1418703324" lon="7.01331911447">
		<tag k="name" v="Fivelands laksefiskeri" />
		<tag k="place" v="locality" />
		<tag k="ssr:stedsnr" v="979494" />
	</node>
	<node id="-374545" lat="58.1364860676" lon="6.99659464674">
		<tag k="fixme" v="consider place=hamlet" />
		<tag k="name" v="Sørlien" />
		<tag k="place" v="farm" />
		<tag k="ssr:stedsnr" v="979493" />
	</node>
	<node id="-374544" lat="58.1730073881" lon="6.90734934007">
		<tag k="fixme" v="consider place=hamlet" />
		<tag k="name" v="Vestre Hommen" />
		<tag k="place" v="farm" />
		<tag k="ssr:stedsnr" v="979492" />
	</node>
	<node id="-374543" lat="58.1502757261" lon="6.88165171188">
		<tag k="name" v="Lille Skrelia" />
		<tag k="place" v="locality" />
		<tag k="ssr:stedsnr" v="979490" />
	</node>
	<node id="-374540" lat="58.111533624" lon="7.02204418214">
		<tag k="name" v="Svenevig" />
		<tag k="place" v="hamlet" />
		<tag k="ssr:stedsnr" v="979484" />
	</node>
	<node id="-374539" lat="58.1160890766" lon="7.03317158342">
		<tag k="fixme" v="consider place=hamlet" />
		<tag k="name" v="Indre Svenevig" />
		<tag k="place" v="farm" />
		<tag k="ssr:stedsnr" v="979480" />
	</node>
	<node id="-374538" lat="58.1085248059" lon="7.02546142612">
		<tag k="fixme" v="consider place=hamlet" />
		<tag k="name" v="Ydre Svenevig" />
		<tag k="place" v="farm" />
		<tag k="ssr:stedsnr" v="979479" />
	</node>
	<node id="-374537" lat="58.0754150086" lon="7.01721933489">
		<tag k="name" v="Borviga" />
		<tag k="place" v="hamlet" />
		<tag k="ssr:stedsnr" v="979478" />
	</node>
	<node id="-374536" lat="58.0943419642" lon="7.03509546283">
		<tag k="name" v="Stølen" />
		<tag k="place" v="locality" />
		<tag k="ssr:stedsnr" v="979475" />
	</node>
	<node id="-374535" lat="58.1081038281" lon="7.04900073241">
		<tag k="name" v="Prestjordstrand" />
		<tag k="place" v="locality" />
		<tag k="ssr:stedsnr" v="979474" />
	</node>
	<node id="-374534" lat="58.1017846795" lon="7.09607101974">
		<tag k="name" v="Utsmog" />
		<tag k="place" v="locality" />
		<tag k="ssr:stedsnr" v="979473" />
	</node>
	<node id="-374531" lat="58.0624059724" lon="7.06210015058">
		<tag k="fixme" v="consider place=hamlet" />
		<tag k="name" v="Nedre Epledal" />
		<tag k="place" v="farm" />
		<tag k="ssr:stedsnr" v="979470" />
	</node>
	<node id="-374530" lat="58.0421956736" lon="7.00990370666">
		<tag k="name" v="Hollevik" />
		<tag k="place" v="hamlet" />
		<tag k="ssr:stedsnr" v="979468" />
	</node>
	<node id="-374529" lat="58.042054112" lon="6.98568231831">
		<tag k="name" v="Hausvikstranden" />
		<tag k="place" v="hamlet" />
		<tag k="ssr:stedsnr" v="979467" />
	</node>
	<node id="-374528" lat="58.0249377837" lon="7.01821436726">
		<tag k="name" v="Revøy" />
		<tag k="place" v="hamlet" />
		<tag k="ssr:stedsnr" v="979466" />
	</node>
	<node id="-374527" lat="58.037381766" lon="7.01881402222">
		<tag k="fixme" v="consider place=hamlet" />
		<tag k="name" v="Ytre Strandjord" />
		<tag k="place" v="farm" />
		<tag k="ssr:stedsnr" v="979465" />
	</node>
	<node id="-374526" lat="58.0368412611" lon="7.01613547733">
		<tag k="fixme" v="consider place=hamlet" />
		<tag k="name" v="Lundegård" />
		<tag k="place" v="farm" />
		<tag k="ssr:stedsnr" v="979464" />
	</node>
	<node id="-374525" lat="58.0409543135" lon="6.98741838928">
		<tag k="fixme" v="consider place=hamlet" />
		<tag k="name" v="Østre Hausvikstranden" />
		<tag k="place" v="farm" />
		<tag k="ssr:stedsnr" v="979463" />
	</node>
	<node id="-374524" lat="58.042912896" lon="6.98384684102">
		<tag k="fixme" v="consider place=hamlet" />
		<tag k="name" v="Vestre Hausvikstranden" />
		<tag k="place" v="farm" />
		<tag k="ssr:stedsnr" v="979462" />
	</node>
	<node id="-374523" lat="58.0268260346" lon="6.97545874589">
		<tag k="name" v="Sutnø" />
		<tag k="place" v="locality" />
		<tag k="ssr:stedsnr" v="979461" />
	</node>
	<node id="-374522" lat="58.0076484889" lon="6.99669297454">
		<tag k="fixme" v="consider place=hamlet" />
		<tag k="name" v="Vestre Selø" />
		<tag k="place" v="farm" />
		<tag k="ssr:stedsnr" v="979459" />
	</node>
	<node id="-374521" lat="58.0058292764" lon="7.00140856179">
		<tag k="fixme" v="consider place=hamlet" />
		<tag k="name" v="Østre Selø" />
		<tag k="place" v="farm" />
		<tag k="ssr:stedsnr" v="979457" />
	</node>
	<node id="-374520" lat="58.0158856403" lon="6.99113445799">
		<tag k="name" v="Kjepsø" />
		<tag k="place" v="locality" />
		<tag k="ssr:stedsnr" v="979456" />
	</node>
	<node id="-374519" lat="58.000154423" lon="7.0019954121">
		<tag k="name" v="Selhovden" />
		<tag k="place" v="locality" />
		<tag k="ssr:stedsnr" v="979455" />
	</node>
	<node id="-374517" lat="58.2209722222" lon="7.14545555383">
		<tag k="name" v="Gitlestad" />
		<tag k="place" v="farm" />
		<tag k="ssr:stedsnr" v="970709" />
	</node>
	<node id="-374516" lat="58.1558722187" lon="7.13783333042">
		<tag k="name" v="Herdal" />
		<tag k="place" v="farm" />
		<tag k="ssr:stedsnr" v="970588" />
	</node>
	<node id="-374515" lat="58.123247225" lon="7.15804444238">
		<tag k="name" v="Østre Eikeland" />
		<tag k="place" v="farm" />
		<tag k="ssr:stedsnr" v="970188" />
	</node>
	<node id="-374514" lat="58.236872225" lon="7.17532222803">
		<tag k="alt_name" v="Væmestad øvre" />
		<tag k="fixme" v="consider place=hamlet" />
		<tag k="name" v="Vemestad øvre" />
		<tag k="place" v="farm" />
		<tag k="ssr:stedsnr" v="967636" />
	</node>
	<node id="-371663" lat="58.1221083311" lon="7.15311111776">
		<tag k="name" v="Østre Eikeland" />
		<tag k="place" v="farm" />
		<tag k="ssr:stedsnr" v="303617" />
	</node>
	<node id="-372432" lat="58.1101583319" lon="7.02611388492">
		<tag k="name" v="Ytre Svenevik" />
		<tag k="place" v="hamlet" />
		<tag k="ssr:stedsnr" v="142402" />
	</node>
	<node id="-374448" lat="58.0406555512" lon="7.00944445073">
		<tag k="alt_name" v="Midtre Hollevik" />
		<tag k="fixme" v="consider place=hamlet" />
		<tag k="name" v="Holvik midtre" />
		<tag k="place" v="farm" />
		<tag k="ssr:stedsnr" v="931745" />
	</node>
	<node id="-374445" lat="58.1723472178" lon="6.90623333006">
		<tag k="name" v="Hommen" />
		<tag k="place" v="locality" />
		<tag k="ssr:stedsnr" v="931707" />
	</node>
	<node id="-372396" lat="58.1262138931" lon="7.07179166277">
		<tag k="name" v="Åvesland" />
		<tag k="place" v="farm" />
		<tag k="ssr:stedsnr" v="121860" />
	</node>
	<node id="-372395" lat="58.1251194449" lon="7.06653611564">
		<tag k="name" v="Åvesland" />
		<tag k="place" v="farm" />
		<tag k="ssr:stedsnr" v="121857" />
	</node>
	<node id="-372394" lat="58.1489416677" lon="6.96136666244">
		<tag k="name" v="Eikenes" />
		<tag k="place" v="farm" />
		<tag k="ssr:stedsnr" v="121781" />
	</node>
	<node id="-372392" lat="58.2582833357" lon="7.12039445035">
		<tag k="fixme" v="consider place=hamlet" />
		<tag k="name" v="Hestad" />
		<tag k="place" v="farm" />
		<tag k="ssr:stedsnr" v="121626" />
	</node>
	<node id="-372391" lat="58.2515722213" lon="7.06451110575">
		<tag k="alt_name" v="Tofteland" />
		<tag k="name" v="Topteland" />
		<tag k="place" v="farm" />
		<tag k="ssr:stedsnr" v="121620" />
	</node>
	<node id="-372390" lat="58.0719277771" lon="7.03098610545">
		<tag k="fixme" v="consider place=hamlet" />
		<tag k="name" v="Høyland" />
		<tag k="place" v="farm" />
		<tag k="ssr:stedsnr" v="121619" />
	</node>
	<node id="-372389" lat="58.0845111126" lon="7.13925555288">
		<tag k="fixme" v="consider place=hamlet" />
		<tag k="name" v="Åmland" />
		<tag k="place" v="farm" />
		<tag k="ssr:stedsnr" v="121612" />
	</node>
	<node id="-372388" lat="58.0812888905" lon="7.12336944762">
		<tag k="alt_name" v="Fladstad" />
		<tag k="name" v="Flatstad" />
		<tag k="place" v="hamlet" />
		<tag k="ssr:stedsnr" v="121610" />
	</node>
	<node id="-372387" lat="58.0358722205" lon="7.01713610574">
		<tag k="alt_name" v="Lundegård" />
		<tag k="name" v="Lundegard" />
		<tag k="place" v="hamlet" />
		<tag k="ssr:stedsnr" v="121590" />
	</node>
	<node id="-372386" lat="58.1220944413" lon="7.16465555826">
		<tag k="name" v="Østre Eikeland" />
		<tag k="place" v="farm" />
		<tag k="ssr:stedsnr" v="121568" />
	</node>
	<node id="-372384" lat="58.0995333044" lon="7.11708916564">
		<tag k="fixme" v="consider place=hamlet" />
		<tag k="name" v="Mydland" />
		<tag k="place" v="farm" />
		<tag k="ssr:stedsnr" v="121517" />
	</node>
	<node id="-372382" lat="58.1650611073" lon="7.1914972282">
		<tag k="alt_name" v="Opsal" />
		<tag k="fixme" v="consider place=hamlet" />
		<tag k="name" v="Oppsal" />
		<tag k="place" v="farm" />
		<tag k="ssr:stedsnr" v="121489" />
	</node>
	<node id="-372381" lat="58.1933611133" lon="6.99436666714">
		<tag k="alt_name" v="Store Hægeland" />
		<tag k="name" v="Hægeland" />
		<tag k="place" v="hamlet" />
		<tag k="ssr:stedsnr" v="121456" />
	</node>
	<node id="-372380" lat="58.1934805545" lon="7.0507638838">
		<tag k="fixme" v="consider place=hamlet" />
		<tag k="name" v="Vatland" />
		<tag k="place" v="farm" />
		<tag k="ssr:stedsnr" v="121455" />
	</node>
	<node id="-372379" lat="58.1876583361" lon="7.14722500759">
		<tag k="name" v="Madland" />
		<tag k="place" v="farm" />
		<tag k="ssr:stedsnr" v="121440" />
	</node>
	<node id="-372378" lat="58.1837305513" lon="7.05384443835">
		<tag k="fixme" v="consider place=hamlet" />
		<tag k="name" v="Åsan" />
		<tag k="place" v="farm" />
		<tag k="ssr:stedsnr" v="121431" />
	</node>
	<node id="-372377" lat="58.1748388906" lon="7.13002777182">
		<tag k="name" v="Nenningsland" />
		<tag k="place" v="farm" />
		<tag k="ssr:stedsnr" v="121428" />
	</node>
	<node id="-372376" lat="58.2196333313" lon="7.15005833732">
		<tag k="fixme" v="consider place=hamlet" />
		<tag k="name" v="Rudjord" />
		<tag k="place" v="farm" />
		<tag k="ssr:stedsnr" v="121421" />
	</node>
	<node id="-372374" lat="58.2451027769" lon="7.18437222744">
		<tag k="fixme" v="consider place=hamlet" />
		<tag k="name" v="Moi" />
		<tag k="place" v="village" />
		<tag k="ssr:stedsnr" v="121384" />
	</node>
	<node id="-372370" lat="58.1497111099" lon="6.90880556214">
		<tag k="alt_name" v="Skredlia;Skreli" />
		<tag k="fixme" v="consider place=hamlet" />
		<tag k="name" v="Skrelia" />
		<tag k="place" v="farm" />
		<tag k="ssr:stedsnr" v="121248" />
	</node>
	<node id="-372369" lat="58.1825944451" lon="6.93859999694">
		<tag k="alt_name" v="Råvedal" />
		<tag k="fixme" v="consider place=hamlet" />
		<tag k="name" v="Rovedal" />
		<tag k="place" v="farm" />
		<tag k="ssr:stedsnr" v="121188" />
	</node>
	<node id="-374415" lat="58.2530194411" lon="7.10279721762">
		<tag k="name" v="Trodmyra" />
		<tag k="place" v="farm" />
		<tag k="ssr:stedsnr" v="931412" />
	</node>
	<node id="-372361" lat="58.1346333343" lon="6.994880559">
		<tag k="name" v="Sørlia" />
		<tag k="place" v="farm" />
		<tag k="ssr:stedsnr" v="89819" />
	</node>
	<node id="-372360" lat="58.1172555588" lon="6.94786389702">
		<tag k="fixme" v="consider place=hamlet" />
		<tag k="name" v="Djupvig" />
		<tag k="place" v="farm" />
		<tag k="ssr:stedsnr" v="89811" />
	</node>
	<node id="-371653" lat="58.1656166671" lon="7.13869167085">
		<tag k="alt_name" v="Bjodland lille" />
		<tag k="name" v="Åsan" />
		<tag k="place" v="farm" />
		<tag k="ssr:stedsnr" v="303495" />
	</node>
	<node id="-374375" lat="58.2199805595" lon="7.1420527779">
		<tag k="name" v="Gitlestad" />
		<tag k="place" v="farm" />
		<tag k="ssr:stedsnr" v="910979" />
	</node>
	<node id="-374374" lat="58.1049499197" lon="6.96010616834">
		<tag k="name" v="Indre Eikeland" />
		<tag k="place" v="farm" />
		<tag k="ssr:stedsnr" v="910977" />
	</node>
	<node id="-374373" lat="58.019661114" lon="7.01080000824">
		<tag k="name" v="Kershamn" />
		<tag k="place" v="farm" />
		<tag k="ssr:stedsnr" v="910670" />
	</node>
	<node id="-374372" lat="58.2617222207" lon="7.19941110346">
		<tag k="name" v="Kvås" />
		<tag k="place" v="farm" />
		<tag k="ssr:stedsnr" v="910621" />
	</node>
	<node id="-374371" lat="58.07348889" lon="7.14277500545">
		<tag k="fixme" v="consider place=hamlet" />
		<tag k="name" v="Jåsund" />
		<tag k="place" v="farm" />
		<tag k="ssr:stedsnr" v="910617" />
	</node>
	<node id="-374370" lat="58.0683111148" lon="7.0578750006">
		<tag k="alt_name" v="Eirikstad" />
		<tag k="fixme" v="consider place=hamlet" />
		<tag k="name" v="Erikstad" />
		<tag k="place" v="farm" />
		<tag k="ssr:stedsnr" v="910614" />
	</node>
	<node id="-374368" lat="58.0742722193" lon="7.01477777834">
		<tag k="fixme" v="consider place=hamlet" />
		<tag k="name" v="Ydre Borviga" />
		<tag k="place" v="farm" />
		<tag k="ssr:stedsnr" v="910605" />
	</node>
	<node id="-374367" lat="58.1187749967" lon="6.99145833978">
		<tag k="fixme" v="consider place=hamlet" />
		<tag k="name" v="Åmdal" />
		<tag k="place" v="farm" />
		<tag k="ssr:stedsnr" v="910575" />
	</node>
	<node id="-374366" lat="58.1163305539" lon="7.00361389383">
		<tag k="fixme" v="consider place=hamlet" />
		<tag k="name" v="Bruseland" />
		<tag k="place" v="farm" />
		<tag k="ssr:stedsnr" v="910568" />
	</node>
	<node id="-374365" lat="58.1284833371" lon="7.07651388656">
		<tag k="name" v="Myran" />
		<tag k="place" v="locality" />
		<tag k="ssr:stedsnr" v="910562" />
	</node>
	<node id="-374364" lat="58.1199666638" lon="7.00132777527">
		<tag k="fixme" v="consider place=hamlet" />
		<tag k="name" v="Rudjord" />
		<tag k="place" v="farm" />
		<tag k="ssr:stedsnr" v="910556" />
	</node>
	<node id="-374363" lat="58.0949265485" lon="6.99587247797">
		<tag k="fixme" v="consider place=hamlet" />
		<tag k="name" v="Stålstøl" />
		<tag k="place" v="farm" />
		<tag k="ssr:stedsnr" v="910537" />
	</node>
	<node id="-374362" lat="58.0971499987" lon="7.09485278513">
		<tag k="fixme" v="consider place=hamlet" />
		<tag k="name" v="Gitlestein" />
		<tag k="place" v="farm" />
		<tag k="ssr:stedsnr" v="910534" />
	</node>
	<node id="-374360" lat="58.1686250022" lon="7.17447777136">
		<tag k="name" v="Bjodland" />
		<tag k="place" v="farm" />
		<tag k="ssr:stedsnr" v="910516" />
	</node>
	<node id="-374359" lat="58.1376000038" lon="7.07002500256">
		<tag k="name" v="Lyngdal" />
		<tag k="place" v="town" />
		<tag k="ssr:stedsnr" v="910476" />
	</node>
	<node id="-374358" lat="58.1463999997" lon="7.05873888881">
		<tag k="name" v="Faret" />
		<tag k="place" v="farm" />
		<tag k="ssr:stedsnr" v="910477" />
	</node>
	<node id="-374355" lat="58.2194499967" lon="6.996875006">
		<tag k="fixme" v="consider place=hamlet" />
		<tag k="name" v="Iddeland" />
		<tag k="place" v="farm" />
		<tag k="ssr:stedsnr" v="910431" />
	</node>
	<node id="-374354" lat="58.2475055513" lon="7.09996110955">
		<tag k="fixme" v="consider place=hamlet" />
		<tag k="name" v="Brådland" />
		<tag k="place" v="farm" />
		<tag k="ssr:stedsnr" v="910377" />
	</node>
	<node id="-374352" lat="58.2295916698" lon="7.02636110937">
		<tag k="alt_name" v="Gauviken" />
		<tag k="fixme" v="consider place=hamlet" />
		<tag k="name" v="Gauvik" />
		<tag k="place" v="farm" />
		<tag k="ssr:stedsnr" v="910372" />
	</node>
	<node id="-374348" lat="58.1990361129" lon="6.96761389549">
		<tag k="name" v="Birkeland" />
		<tag k="place" v="farm" />
		<tag k="ssr:stedsnr" v="910202" />
	</node>
	<node id="-374345" lat="58.2136999965" lon="6.95712500621">
		<tag k="fixme" v="consider place=hamlet" />
		<tag k="name" v="Drangsland" />
		<tag k="place" v="farm" />
		<tag k="ssr:stedsnr" v="910173" />
	</node>
	<node id="-374344" lat="58.2150583336" lon="6.9376750011">
		<tag k="alt_name" v="Øygarden" />
		<tag k="name" v="Kaldåsen" />
		<tag k="place" v="farm" />
		<tag k="ssr:stedsnr" v="910167" />
	</node>
	<node id="-374341" lat="58.0627166674" lon="7.05955277706">
		<tag k="name" v="Epledalen" />
		<tag k="place" v="farm" />
		<tag k="ssr:stedsnr" v="906424" />
	</node>
	<node id="-374339" lat="58.1178666707" lon="6.95152776957">
		<tag k="name" v="Djupvig" />
		<tag k="place" v="farm" />
		<tag k="ssr:stedsnr" v="878824" />
	</node>
	<node id="-374330" lat="58.1535888909" lon="7.15979165897">
		<tag k="name" v="Vollan" />
		<tag k="place" v="farm" />
		<tag k="ssr:stedsnr" v="871961" />
	</node>
	<node id="-372278" lat="58.2814999982" lon="7.24860278196">
		<tag k="name" v="Haugejord" />
		<tag k="place" v="farm" />
		<tag k="ssr:stedsnr" v="82323" />
	</node>
	<node id="-372271" lat="58.1774277776" lon="7.05361667086">
		<tag k="name" v="Slettåsen" />
		<tag k="place" v="farm" />
		<tag k="ssr:stedsnr" v="82375" />
	</node>
	<node id="-372260" lat="58.0318249991" lon="7.01753889276">
		<tag k="fixme" v="consider place=hamlet" />
		<tag k="name" v="Revøy indre" />
		<tag k="place" v="farm" />
		<tag k="ssr:stedsnr" v="82281" />
	</node>
	<node id="-374306" lat="58.1065833328" lon="7.106591674">
		<tag k="name" v="Ballestad øvre" />
		<tag k="place" v="locality" />
		<tag k="ssr:stedsnr" v="871795" />
	</node>
	<node id="-372254" lat="58.203366664" lon="7.14618888515">
		<tag k="name" v="Øysteinsland nedre" />
		<tag k="place" v="locality" />
		<tag k="ssr:stedsnr" v="82244" />
	</node>
	<node id="-372250" lat="58.2025444447" lon="7.12807221622">
		<tag k="name" v="Spilling" />
		<tag k="place" v="farm" />
		<tag k="ssr:stedsnr" v="82099" />
	</node>
	<node id="-372230" lat="58.2499000007" lon="7.13620832999">
		<tag k="fixme" v="multiple name tags, choose one and add the other to alt_name; consider place=hamlet" />
		<tag k="name" v="Basteli;Bastelien" />
		<tag k="place" v="farm" />
		<tag k="ssr:stedsnr" v="61604" />
	</node>
	<node id="-372229" lat="58.2535888898" lon="7.23145277829">
		<tag k="fixme" v="consider place=hamlet" />
		<tag k="name" v="Myglestøl" />
		<tag k="place" v="farm" />
		<tag k="ssr:stedsnr" v="61592" />
	</node>
	<node id="-372227" lat="58.0369722252" lon="6.99325277026">
		<tag k="fixme" v="consider place=hamlet" />
		<tag k="name" v="Ramsjord" />
		<tag k="place" v="farm" />
		<tag k="ssr:stedsnr" v="61578" />
	</node>
	<node id="-372226" lat="58.0479666654" lon="7.0150500067">
		<tag k="fixme" v="consider place=hamlet" />
		<tag k="name" v="Vasstøl" />
		<tag k="place" v="farm" />
		<tag k="ssr:stedsnr" v="61564" />
	</node>
	<node id="-372225" lat="58.1305277749" lon="7.10608889042">
		<tag k="alt_name" v="Biktjønn;Bigtjønn" />
		<tag k="fixme" v="consider place=hamlet" />
		<tag k="name" v="Biktjørn" />
		<tag k="place" v="farm" />
		<tag k="ssr:stedsnr" v="61519" />
	</node>
	<node id="-372224" lat="58.1237508401" lon="7.16185509891">
		<tag k="fixme" v="consider place=hamlet" />
		<tag k="name" v="Østre Eikeland" />
		<tag k="place" v="farm" />
		<tag k="ssr:stedsnr" v="61517" />
	</node>
	<node id="-372223" lat="58.1363916643" lon="7.167875002">
		<tag k="alt_name" v="Skåd" />
		<tag k="historic" v="shieling" />
		<tag k="name" v="Skod" />
		<tag k="place" v="locality" />
		<tag k="ssr:stedsnr" v="61513" />
	</node>
	<node id="-372222" lat="58.1000972223" lon="7.10832499928">
		<tag k="fixme" v="consider place=hamlet" />
		<tag k="name" v="Steinsland" />
		<tag k="place" v="farm" />
		<tag k="ssr:stedsnr" v="61488" />
	</node>
	<node id="-372221" lat="58.1101527815" lon="7.02611110244">
		<tag k="name" v="Svenevik" />
		<tag k="place" v="hamlet" />
		<tag k="ssr:stedsnr" v="61481" />
	</node>
	<node id="-372220" lat="58.1114694485" lon="7.00089165936">
		<tag k="fixme" v="consider place=hamlet" />
		<tag k="name" v="Nenningsland" />
		<tag k="place" v="farm" />
		<tag k="ssr:stedsnr" v="61480" />
	</node>
	<node id="-372219" lat="58.1047861075" lon="7.094397221">
		<tag k="name" v="Ballestad" />
		<tag k="place" v="locality" />
		<tag k="ssr:stedsnr" v="61479" />
	</node>
	<node id="-372218" lat="58.1607222186" lon="7.08360277921">
		<tag k="alt_name" v="Strømsnes" />
		<tag k="name" v="Straumnes" />
		<tag k="place" v="farm" />
		<tag k="ssr:stedsnr" v="61475" />
	</node>
	<node id="-372217" lat="58.1656777774" lon="7.11414165878">
		<tag k="name" v="Høyland" />
		<tag k="place" v="farm" />
		<tag k="ssr:stedsnr" v="61471" />
	</node>
	<node id="-372216" lat="58.1519527809" lon="7.11070278568">
		<tag k="alt_name" v="Gauksåsen" />
		<tag k="fixme" v="consider place=hamlet" />
		<tag k="name" v="Gauksås" />
		<tag k="place" v="farm" />
		<tag k="ssr:stedsnr" v="61468" />
	</node>
	<node id="-372213" lat="58.2051249974" lon="7.1514999959">
		<tag k="fixme" v="consider place=hamlet" />
		<tag k="name" v="Øysteinsland" />
		<tag k="place" v="farm" />
		<tag k="ssr:stedsnr" v="61393" />
	</node>
	<node id="-372212" lat="58.1116305595" lon="7.02416666306">
		<tag k="alt_name" v="Utland" />
		<tag k="fixme" v="consider place=hamlet" />
		<tag k="name" v="Udland" />
		<tag k="place" v="farm" />
		<tag k="ssr:stedsnr" v="61391" />
	</node>
	<node id="-372207" lat="58.1506499995" lon="6.96150833686">
		<tag k="name" v="Eikenes" />
		<tag k="place" v="farm" />
		<tag k="ssr:stedsnr" v="60791" />
	</node>
	<node id="-374254" lat="58.1724388865" lon="6.98411945128">
		<tag k="name" v="Nedre Skjærstad" />
		<tag k="place" v="locality" />
		<tag k="ssr:stedsnr" v="871450" />
	</node>
	<node id="-372205" lat="58.0839444451" lon="7.08022222196">
		<tag k="alt_name" v="Birkjestøl" />
		<tag k="name" v="Birkestøl" />
		<tag k="place" v="farm" />
		<tag k="ssr:stedsnr" v="60588" />
	</node>
	<node id="-372204" lat="58.079077779" lon="7.04203333265">
		<tag k="fixme" v="consider place=hamlet" />
		<tag k="name" v="Nyland" />
		<tag k="place" v="farm" />
		<tag k="ssr:stedsnr" v="60583" />
	</node>
	<node id="-372203" lat="58.1907694423" lon="7.09906944166">
		<tag k="alt_name" v="Grimshammer" />
		<tag k="fixme" v="consider place=hamlet" />
		<tag k="name" v="Grimshammar" />
		<tag k="place" v="farm" />
		<tag k="ssr:stedsnr" v="60435" />
	</node>
	<node id="-372202" lat="58.112277777" lon="6.95471944696">
		<tag k="alt_name" v="Kolevoll" />
		<tag k="name" v="Kollevoll" />
		<tag k="place" v="hamlet" />
		<tag k="ssr:stedsnr" v="60274" />
	</node>
	<node id="-374237" lat="58.1355722216" lon="7.10267221569">
		<tag k="name" v="Huset" />
		<tag k="place" v="locality" />
		<tag k="ssr:stedsnr" v="871385" />
	</node>
	<node id="-372153" lat="58.0777833365" lon="7.07702777065">
		<tag k="fixme" v="consider place=hamlet" />
		<tag k="name" v="Birkeland" />
		<tag k="place" v="farm" />
		<tag k="ssr:stedsnr" v="21800" />
	</node>
	<node id="-372150" lat="58.1089916683" lon="7.00374445221">
		<tag k="alt_name" v="Hellerås" />
		<tag k="fixme" v="consider place=hamlet" />
		<tag k="name" v="Helleråsen" />
		<tag k="place" v="farm" />
		<tag k="ssr:stedsnr" v="21754" />
	</node>
	<node id="-374171" lat="58.0410305515" lon="6.98468333673">
		<tag k="name" v="Hausvikstrand" />
		<tag k="place" v="farm" />
		<tag k="ssr:stedsnr" v="850578" />
	</node>
	<node id="-374168" lat="58.1180083341" lon="6.96861943696">
		<tag k="fixme" v="consider place=hamlet" />
		<tag k="name" v="Aunevik" />
		<tag k="place" v="farm" />
		<tag k="ssr:stedsnr" v="850555" />
	</node>
	<node id="-374167" lat="58.1231166656" lon="7.17378056018">
		<tag k="alt_name" v="Holda;Holte" />
		<tag k="fixme" v="consider place=hamlet" />
		<tag k="name" v="Holta" />
		<tag k="place" v="farm" />
		<tag k="ssr:stedsnr" v="850548" />
	</node>
	<node id="-374166" lat="58.1341111135" lon="7.20720000672">
		<tag k="fixme" v="consider place=hamlet" />
		<tag k="name" v="Haddeland" />
		<tag k="place" v="farm" />
		<tag k="ssr:stedsnr" v="850544" />
	</node>
	<node id="-374165" lat="58.1022833308" lon="7.12964167232">
		<tag k="alt_name" v="Dalland" />
		<tag k="fixme" v="consider place=hamlet" />
		<tag k="name" v="Daland" />
		<tag k="place" v="farm" />
		<tag k="ssr:stedsnr" v="850524" />
	</node>
	<node id="-374163" lat="58.1579083347" lon="7.0276500005">
		<tag k="alt_name" v="Dragedalen" />
		<tag k="fixme" v="consider place=hamlet" />
		<tag k="name" v="Dragedal" />
		<tag k="place" v="farm" />
		<tag k="ssr:stedsnr" v="850505" />
	</node>
	<node id="-374161" lat="58.198536107" lon="7.12317778228">
		<tag k="alt_name" v="Foss, øvre;Foss øvre" />
		<tag k="name" v="Øvre Foss" />
		<tag k="place" v="hamlet" />
		<tag k="ssr:stedsnr" v="850476" />
	</node>
	<node id="-374159" lat="58.2018277749" lon="7.1841111062">
		<tag k="alt_name" v="Nebdal" />
		<tag k="fixme" v="consider place=hamlet" />
		<tag k="name" v="Nebbdal" />
		<tag k="place" v="farm" />
		<tag k="ssr:stedsnr" v="850474" />
	</node>
	<node id="-374157" lat="58.2158750008" lon="7.11990556224">
		<tag k="alt_name" v="Bjenndalen" />
		<tag k="fixme" v="consider place=hamlet" />
		<tag k="name" v="Bjørndalen" />
		<tag k="place" v="farm" />
		<tag k="ssr:stedsnr" v="850432" />
	</node>
	<node id="-371850" lat="58.1282305577" lon="7.1566472161">
		<tag k="fixme" v="consider place=hamlet" />
		<tag k="name" v="Støle" />
		<tag k="place" v="farm" />
		<tag k="ssr:stedsnr" v="364558" />
	</node>
	<node id="-374153" lat="58.2329305565" lon="7.02149167508">
		<tag k="alt_name" v="Rudlende" />
		<tag k="fixme" v="consider place=hamlet" />
		<tag k="name" v="Rudlend" />
		<tag k="place" v="farm" />
		<tag k="ssr:stedsnr" v="850393" />
	</node>
	<node id="-374152" lat="58.2347888902" lon="7.11657499969">
		<tag k="fixme" v="consider place=hamlet" />
		<tag k="name" v="Hompland" />
		<tag k="place" v="farm" />
		<tag k="ssr:stedsnr" v="850389" />
	</node>
	<node id="-374151" lat="58.140027778" lon="6.92753889472">
		<tag k="fixme" v="consider place=hamlet" />
		<tag k="name" v="Solskår" />
		<tag k="place" v="farm" />
		<tag k="ssr:stedsnr" v="850264" />
	</node>
	<node id="-374149" lat="58.1520416701" lon="7.02537778138">
		<tag k="name" v="Bjerge" />
		<tag k="place" v="farm" />
		<tag k="ssr:stedsnr" v="849873" />
	</node>
	<node id="-374148" lat="58.112466668" lon="6.94742500638">
		<tag k="name" v="Kollevoll" />
		<tag k="place" v="farm" />
		<tag k="ssr:stedsnr" v="849863" />
	</node>
	<node id="-374145" lat="58.1858222206" lon="7.1955555502">
		<tag k="name" v="Neset" />
		<tag k="place" v="farm" />
		<tag k="ssr:stedsnr" v="849483" />
	</node>
	<node id="-374144" lat="58.1840722248" lon="7.21027777355">
		<tag k="alt_name" v="Hommen østre" />
		<tag k="name" v="Hommen" />
		<tag k="place" v="farm" />
		<tag k="ssr:stedsnr" v="849478" />
	</node>
	<node id="-374143" lat="58.1790749982" lon="7.05193611922">
		<tag k="fixme" v="consider place=hamlet" />
		<tag k="name" v="Haugeland" />
		<tag k="place" v="farm" />
		<tag k="ssr:stedsnr" v="849473" />
	</node>
	<node id="-374138" lat="58.1169444452" lon="6.9474833277">
		<tag k="name" v="Djupvig" />
		<tag k="place" v="farm" />
		<tag k="ssr:stedsnr" v="817829" />
	</node>
	<node id="-374132" lat="58.1675388879" lon="7.15176389183">
		<tag k="name" v="Vintlandsheia" />
		<tag k="place" v="farm" />
		<tag k="ssr:stedsnr" v="811901" />
	</node>
	<node id="-372052" lat="58.1909499963" lon="7.07104444843">
		<tag k="alt_name" v="Gjeitebu" />
		<tag k="name" v="Geitebu" />
		<tag k="place" v="locality" />
		<tag k="ssr:stedsnr" v="21013" />
	</node>
	<node id="-372047" lat="58.1480166672" lon="7.00379167409">
		<tag k="fixme" v="consider place=hamlet" />
		<tag k="name" v="Fiveland" />
		<tag k="place" v="farm" />
		<tag k="ssr:stedsnr" v="491" />
	</node>
	<node id="-372045" lat="58.1504277764" lon="6.98064999962">
		<tag k="fixme" v="consider place=hamlet" />
		<tag k="name" v="Hindersland" />
		<tag k="place" v="farm" />
		<tag k="ssr:stedsnr" v="490" />
	</node>
	<node id="-372043" lat="58.1566916662" lon="7.11218610407">
		<tag k="fixme" v="consider place=hamlet" />
		<tag k="name" v="Hagen" />
		<tag k="place" v="farm" />
		<tag k="ssr:stedsnr" v="479" />
	</node>
	<node id="-372042" lat="58.1512527773" lon="7.22517500684">
		<tag k="fixme" v="consider place=hamlet" />
		<tag k="name" v="Homeland" />
		<tag k="place" v="farm" />
		<tag k="ssr:stedsnr" v="477" />
	</node>
	<node id="-372041" lat="58.1804555581" lon="7.21470554727">
		<tag k="alt_name" v="Sandal" />
		<tag k="fixme" v="consider place=hamlet" />
		<tag k="name" v="Sanddal" />
		<tag k="place" v="farm" />
		<tag k="ssr:stedsnr" v="456" />
	</node>
	<node id="-372038" lat="58.2377499976" lon="7.16014999909">
		<tag k="fixme" v="consider place=hamlet" />
		<tag k="name" v="Li" />
		<tag k="place" v="farm" />
		<tag k="ssr:stedsnr" v="387" />
	</node>
	<node id="-372035" lat="58.1321277808" lon="6.94184166709">
		<tag k="name" v="Kjempe" />
		<tag k="place" v="locality" />
		<tag k="ssr:stedsnr" v="263" />
	</node>
	<node id="-374065" lat="58.1286083359" lon="7.09681944368">
		<tag k="name" v="Østre Madland" />
		<tag k="place" v="farm" />
		<tag k="ssr:stedsnr" v="810411" />
	</node>
	<node id="-374064" lat="58.2048999981" lon="7.04447500285">
		<tag k="fixme" v="consider place=hamlet" />
		<tag k="name" v="Røiskår store" />
		<tag k="place" v="farm" />
		<tag k="ssr:stedsnr" v="810403" />
	</node>
	<node id="-372014" lat="58.1028394859" lon="7.04847719418">
		<tag k="name" v="Krågestøl" />
		<tag k="place" v="farm" />
		<tag k="ssr:stedsnr" v="984391" />
	</node>
	<node id="-372013" lat="58.1673961695" lon="6.92484792222">
		<tag k="name" v="Skredal" />
		<tag k="place" v="farm" />
		<tag k="ssr:stedsnr" v="984390" />
	</node>
	<node id="-372012" lat="58.0634281529" lon="6.99977718686">
		<tag k="name" v="Bærøy" />
		<tag k="place" v="farm" />
		<tag k="ssr:stedsnr" v="984384" />
	</node>
	<node id="-372011" lat="58.0634122437" lon="7.00187013225">
		<tag k="name" v="Bærøy" />
		<tag k="place" v="farm" />
		<tag k="ssr:stedsnr" v="984383" />
	</node>
	<node id="-372010" lat="58.064213582" lon="7.00230161715">
		<tag k="name" v="Bærøy" />
		<tag k="place" v="farm" />
		<tag k="ssr:stedsnr" v="984382" />
	</node>
	<node id="-372009" lat="58.0628836735" lon="7.00151562754">
		<tag k="name" v="Bærøy" />
		<tag k="place" v="farm" />
		<tag k="ssr:stedsnr" v="984380" />
	</node>
	<node id="-372008" lat="58.0584542188" lon="7.00132007623">
		<tag k="name" v="Bærøy" />
		<tag k="place" v="farm" />
		<tag k="ssr:stedsnr" v="984379" />
	</node>
	<node id="-372007" lat="58.0653534621" lon="7.00029223731">
		<tag k="name" v="Bærøy" />
		<tag k="place" v="farm" />
		<tag k="ssr:stedsnr" v="984378" />
	</node>
	<node id="-372005" lat="58.0569903186" lon="6.99657950847">
		<tag k="name" v="Bærøy" />
		<tag k="place" v="farm" />
		<tag k="ssr:stedsnr" v="984369" />
	</node>
	<node id="-372004" lat="58.0616289584" lon="7.00319803815">
		<tag k="name" v="Bærøy" />
		<tag k="place" v="farm" />
		<tag k="ssr:stedsnr" v="984367" />
	</node>
	<node id="-374047" lat="58.0238444437" lon="7.0163694408">
		<tag k="name" v="Øvre Øyna" />
		<tag k="place" v="hamlet" />
		<tag k="ssr:stedsnr" v="810297" />
	</node>
	<node id="-371964" lat="58.1012055541" lon="7.07190000371">
		<tag k="name" v="Dalekjerret" />
		<tag k="place" v="farm" />
		<tag k="ssr:stedsnr" v="385859" />
	</node>
	<node id="-371961" lat="58.0935138928" lon="7.09657776983">
		<tag k="name" v="Sandbrotet" />
		<tag k="place" v="farm" />
		<tag k="ssr:stedsnr" v="385842" />
	</node>
	<node id="-374004" lat="58.255391667" lon="7.10698889134">
		<tag k="name" v="Solvang" />
		<tag k="place" v="farm" />
		<tag k="ssr:stedsnr" v="789610" />
	</node>
	<node id="-374003" lat="58.0862416642" lon="7.08342500431">
		<tag k="fixme" v="consider place=hamlet" />
		<tag k="name" v="Saudland" />
		<tag k="place" v="farm" />
		<tag k="ssr:stedsnr" v="789584" />
	</node>
	<node id="-374002" lat="58.1165000005" lon="7.10096666996">
		<tag k="alt_name" v="Ramsland" />
		<tag k="name" v="Raumsland" />
		<tag k="place" v="farm" />
		<tag k="ssr:stedsnr" v="789555" />
	</node>
	<node id="-374001" lat="58.141950004" lon="7.18175556345">
		<tag k="fixme" v="consider place=hamlet" />
		<tag k="name" v="Flaten" />
		<tag k="place" v="farm" />
		<tag k="ssr:stedsnr" v="789534" />
	</node>
	<node id="-374000" lat="58.0901111119" lon="7.04442777047">
		<tag k="fixme" v="consider place=hamlet" />
		<tag k="name" v="Austad" />
		<tag k="place" v="farm" />
		<tag k="ssr:stedsnr" v="789524" />
	</node>
	<node id="-373998" lat="58.1570805567" lon="7.09918611257">
		<tag k="name" v="Rom" />
		<tag k="place" v="village" />
		<tag k="ssr:stedsnr" v="789488" />
	</node>
	<node id="-373997" lat="58.1462555561" lon="7.0494722183">
		<tag k="fixme" v="consider place=suburb, village or hamlet" />
		<tag k="name" v="Årnes" />
		<tag k="place" v="quarter" />
		<tag k="ssr:stedsnr" v="789485" />
	</node>
	<node id="-373996" lat="58.152744444" lon="7.16008889214">
		<tag k="alt_name" v="Oftedal" />
		<tag k="name" v="Optedal" />
		<tag k="place" v="hamlet" />
		<tag k="ssr:stedsnr" v="789481" />
	</node>
	<node id="-373995" lat="58.1444999962" lon="7.07929999433">
		<tag k="alt_name" v="Bergsaker" />
		<tag k="fixme" v="consider place=suburb, village or hamlet" />
		<tag k="name" v="Bergsåker" />
		<tag k="place" v="quarter" />
		<tag k="ssr:stedsnr" v="789477" />
	</node>
	<node id="-373992" lat="58.18527778" lon="7.0029000066">
		<tag k="alt_name" v="Lian" />
		<tag k="name" v="Haugan" />
		<tag k="place" v="farm" />
		<tag k="ssr:stedsnr" v="789467" />
	</node>
	<node id="-373990" lat="58.2139194472" lon="7.13925277199">
		<tag k="alt_name" v="Vegge" />
		<tag k="fixme" v="consider place=hamlet" />
		<tag k="name" v="Veggja" />
		<tag k="place" v="farm" />
		<tag k="ssr:stedsnr" v="789422" />
	</node>
	<node id="-373988" lat="58.2357138911" lon="7.19758610601">
		<tag k="fixme" v="consider place=hamlet" />
		<tag k="name" v="Markeland" />
		<tag k="place" v="farm" />
		<tag k="ssr:stedsnr" v="789397" />
	</node>
	<node id="-373986" lat="58.1608416692" lon="6.90402500496">
		<tag k="alt_name" v="Rasvæda;Rasvæta" />
		<tag k="name" v="Rassvæta" />
		<tag k="place" v="locality" />
		<tag k="ssr:stedsnr" v="789232" />
	</node>
	<node id="-373984" lat="58.2202305532" lon="7.1444222247">
		<tag k="name" v="Gitlestad" />
		<tag k="place" v="farm" />
		<tag k="ssr:stedsnr" v="788970" />
	</node>
	<node id="-373981" lat="58.2759444409" lon="7.17506665845">
		<tag k="fixme" v="consider place=hamlet" />
		<tag k="name" v="Fidjestøl" />
		<tag k="place" v="farm" />
		<tag k="ssr:stedsnr" v="788511" />
	</node>
	<node id="-373980" lat="58.2759555595" lon="7.19237499481">
		<tag k="alt_name" v="Kvås øvre" />
		<tag k="name" v="Fidjan" />
		<tag k="place" v="farm" />
		<tag k="ssr:stedsnr" v="788510" />
	</node>
	<node id="-373978" lat="58.1577194472" lon="7.07833332495">
		<tag k="alt_name" v="Vestre Bringsjord" />
		<tag k="name" v="Bringsjord" />
		<tag k="place" v="hamlet" />
		<tag k="ssr:stedsnr" v="788491" />
	</node>
	<node id="-373977" lat="58.190861112" lon="7.17606111327">
		<tag k="fixme" v="consider place=hamlet" />
		<tag k="name" v="Vieland" />
		<tag k="place" v="farm" />
		<tag k="ssr:stedsnr" v="788440" />
	</node>
	<node id="-373976" lat="58.1791805583" lon="7.19489722231">
		<tag k="alt_name" v="Oftenes;Store Oftenes" />
		<tag k="fixme" v="consider place=hamlet" />
		<tag k="name" v="Optenes" />
		<tag k="place" v="farm" />
		<tag k="ssr:stedsnr" v="788433" />
	</node>
	<node id="-373973" lat="58.2193861133" lon="6.9352916646">
		<tag k="name" v="Fidjeland" />
		<tag k="place" v="farm" />
		<tag k="ssr:stedsnr" v="788174" />
	</node>
	<node id="-371915" lat="58.1514277792" lon="7.09087221983">
		<tag k="fixme" v="consider place=hamlet" />
		<tag k="name" v="Nygård" />
		<tag k="place" v="farm" />
		<tag k="ssr:stedsnr" v="385427" />
	</node>
	<node id="-373962" lat="58.1302833319" lon="7.06252222432">
		<tag k="name" v="Skomrag indre" />
		<tag k="place" v="farm" />
		<tag k="ssr:stedsnr" v="752990" />
	</node>
	<node id="-371912" lat="58.1379555556" lon="7.10468888627">
		<tag k="name" v="Solhov" />
		<tag k="place" v="farm" />
		<tag k="ssr:stedsnr" v="385413" />
	</node>
	<node id="-373957" lat="58.1659861147" lon="7.19138055459">
		<tag k="name" v="Hagåkeren" />
		<tag k="place" v="farm" />
		<tag k="ssr:stedsnr" v="750908" />
	</node>
	<node id="-373954" lat="58.136550003" lon="7.04857778164">
		<tag k="name" v="Øverlund" />
		<tag k="place" v="farm" />
		<tag k="ssr:stedsnr" v="750859" />
	</node>
	<node id="-373936" lat="58.1371833312" lon="7.05844999773">
		<tag k="name" v="Ytre Berge" />
		<tag k="place" v="hamlet" />
		<tag k="ssr:stedsnr" v="749907" />
	</node>
	<node id="-373911" lat="58.1516305558" lon="6.90164721427">
		<tag k="name" v="Vestigarden" />
		<tag k="place" v="farm" />
		<tag k="ssr:stedsnr" v="749678" />
	</node>
	<node id="-371861" lat="58.2066999995" lon="7.03775555425">
		<tag k="fixme" v="consider place=hamlet" />
		<tag k="name" v="Røiskår lille" />
		<tag k="place" v="farm" />
		<tag k="ssr:stedsnr" v="385014" />
	</node>
	<node id="-371854" lat="58.2086888914" lon="7.13541666673">
		<tag k="name" v="Foss indre" />
		<tag k="place" v="farm" />
		<tag k="ssr:stedsnr" v="385123" />
	</node>
	<node id="-371853" lat="58.2605749972" lon="7.07220277608">
		<tag k="fixme" v="consider place=hamlet" />
		<tag k="name" v="Trældal" />
		<tag k="place" v="farm" />
		<tag k="ssr:stedsnr" v="364628" />
	</node>
	<node id="-371852" lat="58.0789111142" lon="6.98548611918">
		<tag k="alt_name" v="Ådneskår;Ådnesskår" />
		<tag k="fixme" v="consider place=hamlet" />
		<tag k="name" v="Ådneskar" />
		<tag k="place" v="farm" />
		<tag k="ssr:stedsnr" v="364615" />
	</node>
	<node id="-371851" lat="58.1144749993" lon="7.12452500005">
		<tag k="fixme" v="consider place=hamlet" />
		<tag k="name" v="Træland" />
		<tag k="place" v="farm" />
		<tag k="ssr:stedsnr" v="364569" />
	</node>
	<node id="-373898" lat="58.254502782" lon="7.18993333718">
		<tag k="name" v="Rebbak" />
		<tag k="place" v="farm" />
		<tag k="ssr:stedsnr" v="749593" />
	</node>
	<node id="-371849" lat="58.1257916699" lon="7.05485833236">
		<tag k="fixme" v="consider place=hamlet" />
		<tag k="name" v="Rosfjord" />
		<tag k="place" v="farm" />
		<tag k="ssr:stedsnr" v="364550" />
	</node>
	<node id="-371848" lat="58.295752782" lon="7.21049444667">
		<tag k="fixme" v="consider place=hamlet" />
		<tag k="name" v="Ydestad" />
		<tag k="place" v="farm" />
		<tag k="ssr:stedsnr" v="364533" />
	</node>
	<node id="-371847" lat="58.2847055552" lon="7.23023888186">
		<tag k="fixme" v="consider place=hamlet" />
		<tag k="name" v="Titland" />
		<tag k="place" v="farm" />
		<tag k="ssr:stedsnr" v="364529" />
	</node>
	<node id="-371846" lat="58.1586750021" lon="6.98490833679">
		<tag k="fixme" v="consider place=hamlet" />
		<tag k="name" v="Røyseland" />
		<tag k="place" v="farm" />
		<tag k="ssr:stedsnr" v="364500" />
	</node>
	<node id="-371845" lat="58.1639166693" lon="7.16849444324">
		<tag k="alt_name" v="Kleivan, østre;Kleivan" />
		<tag k="fixme" v="consider place=hamlet" />
		<tag k="name" v="Østre Kleivan" />
		<tag k="place" v="farm" />
		<tag k="ssr:stedsnr" v="364497" />
	</node>
	<node id="-371844" lat="58.1510583368" lon="7.10366943854">
		<tag k="alt_name" v="Akersmyr" />
		<tag k="name" v="Angersmyr" />
		<tag k="place" v="farm" />
		<tag k="ssr:stedsnr" v="364484" />
	</node>
	<node id="-371843" lat="58.1536249991" lon="7.17082777348">
		<tag k="fixme" v="consider place=hamlet" />
		<tag k="name" v="Nedre Eikeland" />
		<tag k="place" v="farm" />
		<tag k="ssr:stedsnr" v="364477" />
	</node>
	<node id="-371842" lat="58.1559249964" lon="7.22082778521">
		<tag k="alt_name" v="Rødland" />
		<tag k="fixme" v="consider place=hamlet" />
		<tag k="name" v="Rødlend" />
		<tag k="place" v="farm" />
		<tag k="ssr:stedsnr" v="364471" />
	</node>
	<node id="-371840" lat="58.1733999982" lon="6.98015000542">
		<tag k="alt_name" v="Øvre Skjærstad" />
		<tag k="fixme" v="consider place=hamlet" />
		<tag k="name" v="Skjerstad" />
		<tag k="place" v="farm" />
		<tag k="ssr:stedsnr" v="364448" />
	</node>
	<node id="-371839" lat="58.1674416659" lon="7.05276389378">
		<tag k="fixme" v="consider place=hamlet" />
		<tag k="name" v="Tjersland" />
		<tag k="place" v="farm" />
		<tag k="ssr:stedsnr" v="364447" />
	</node>
	<node id="-373886" lat="58.148736114" lon="7.09212222367">
		<tag k="fixme" v="consider place=suburb, village or hamlet" />
		<tag k="name" v="Oftebro" />
		<tag k="place" v="quarter" />
		<tag k="ssr:stedsnr" v="749450" />
	</node>
	<node id="-371836" lat="58.2239694428" lon="7.00724166291">
		<tag k="fixme" v="consider place=hamlet" />
		<tag k="name" v="Handeland" />
		<tag k="place" v="farm" />
		<tag k="ssr:stedsnr" v="364439" />
	</node>
	<node id="-371835" lat="58.2043805513" lon="7.04620555706">
		<tag k="name" v="Røyskår" />
		<tag k="place" v="hamlet" />
		<tag k="ssr:stedsnr" v="364428" />
	</node>
	<node id="-371834" lat="58.2202222263" lon="7.13785832885">
		<tag k="fixme" v="consider place=hamlet" />
		<tag k="name" v="Gitlestad" />
		<tag k="place" v="farm" />
		<tag k="ssr:stedsnr" v="364425" />
	</node>
	<node id="-371833" lat="58.2117888903" lon="7.19156388794">
		<tag k="fixme" v="consider place=hamlet" />
		<tag k="name" v="Lundevoll" />
		<tag k="place" v="farm" />
		<tag k="ssr:stedsnr" v="364418" />
	</node>
	<node id="-371830" lat="58.1491527811" lon="6.88104167289">
		<tag k="name" v="Lia" />
		<tag k="place" v="farm" />
		<tag k="ssr:stedsnr" v="364264" />
	</node>
	<node id="-371829" lat="58.1218527815" lon="7.16463611595">
		<tag k="name" v="Østre Eikeland" />
		<tag k="place" v="farm" />
		<tag k="ssr:stedsnr" v="363570" />
	</node>
	<node id="-371828" lat="58.1222305582" lon="7.16412222517">
		<tag k="name" v="Østre Eikeland" />
		<tag k="place" v="farm" />
		<tag k="ssr:stedsnr" v="363520" />
	</node>
	<node id="-371817" lat="58.1520000031" lon="7.02558332524">
		<tag k="name" v="Bjerge" />
		<tag k="place" v="farm" />
		<tag k="ssr:stedsnr" v="121868" />
	</node>
	<node id="-371815" lat="58.1159305584" lon="7.06186389664">
		<tag k="fixme" v="consider place=hamlet" />
		<tag k="name" v="Skomrag indre" />
		<tag k="place" v="farm" />
		<tag k="ssr:stedsnr" v="327992" />
	</node>
	<node id="-373844" lat="58.2351222249" lon="7.17113610472">
		<tag k="name" v="Tingmonen" />
		<tag k="place" v="farm" />
		<tag k="ssr:stedsnr" v="749238" />
	</node>
	<node id="-371795" lat="58.148779679" lon="7.1457210168">
		<tag k="name" v="Gullsletta" />
		<tag k="place" v="locality" />
		<tag k="ssr:stedsnr" v="324948" />
	</node>
	<node id="-371786" lat="58.1568749991" lon="7.07339444294">
		<tag k="name" v="Vollen" />
		<tag k="place" v="farm" />
		<tag k="ssr:stedsnr" v="324851" />
	</node>
	<node id="-373815" lat="58.1049250037" lon="6.9601138884">
		<tag k="name" v="Indre Eikeland" />
		<tag k="place" v="farm" />
		<tag k="ssr:stedsnr" v="728977" />
	</node>
	<node id="-373812" lat="58.2629583366" lon="7.10565277251">
		<tag k="fixme" v="consider place=hamlet" />
		<tag k="name" v="Hægeland" />
		<tag k="place" v="farm" />
		<tag k="ssr:stedsnr" v="728601" />
	</node>
	<node id="-373811" lat="58.0729985321" lon="7.13236694474">
		<tag k="fixme" v="consider place=hamlet" />
		<tag k="name" v="Kittelsnes" />
		<tag k="place" v="farm" />
		<tag k="ssr:stedsnr" v="728597" />
	</node>
	<node id="-373810" lat="58.1149305558" lon="7.15446666642">
		<tag k="alt_name" v="Eiåsland" />
		<tag k="fixme" v="consider place=hamlet" />
		<tag k="name" v="Eiersland" />
		<tag k="place" v="farm" />
		<tag k="ssr:stedsnr" v="728541" />
	</node>
	<node id="-373806" lat="58.1048472261" lon="7.05499444998">
		<tag k="fixme" v="consider place=hamlet" />
		<tag k="name" v="Prestjord" />
		<tag k="place" v="farm" />
		<tag k="ssr:stedsnr" v="728492" />
	</node>
	<node id="-373804" lat="58.1503388909" lon="7.06063610945">
		<tag k="fixme" v="consider place=hamlet" />
		<tag k="name" v="Møskeland" />
		<tag k="place" v="farm" />
		<tag k="ssr:stedsnr" v="728464" />
	</node>
	<node id="-373803" lat="58.1445500009" lon="7.12521389165">
		<tag k="alt_name" v="Østre Åsan" />
		<tag k="fixme" v="consider place=hamlet" />
		<tag k="name" v="Åsan" />
		<tag k="place" v="farm" />
		<tag k="ssr:stedsnr" v="728452" />
	</node>
	<node id="-373802" lat="58.1784055555" lon="6.98989999498">
		<tag k="fixme" v="consider place=hamlet" />
		<tag k="name" v="Hæåk" />
		<tag k="place" v="farm" />
		<tag k="ssr:stedsnr" v="728424" />
	</node>
	<node id="-373801" lat="58.1762500042" lon="7.06892500529">
		<tag k="fixme" v="consider place=hamlet" />
		<tag k="name" v="Møskedal" />
		<tag k="place" v="farm" />
		<tag k="ssr:stedsnr" v="728423" />
	</node>
	<node id="-373800" lat="58.1680388878" lon="7.03515277995">
		<tag k="alt_name" v="Kjeddan" />
		<tag k="fixme" v="consider place=hamlet" />
		<tag k="name" v="Kjelland" />
		<tag k="place" v="farm" />
		<tag k="ssr:stedsnr" v="728413" />
	</node>
	<node id="-373799" lat="58.1747868877" lon="7.13931972423">
		<tag k="alt_name" v="Birkjestøl" />
		<tag k="fixme" v="consider place=hamlet" />
		<tag k="name" v="Birkestøl" />
		<tag k="place" v="farm" />
		<tag k="ssr:stedsnr" v="728410" />
	</node>
	<node id="-373797" lat="58.2025249989" lon="7.09225000819">
		<tag k="alt_name" v="Vintland østre" />
		<tag k="name" v="Vintland" />
		<tag k="place" v="hamlet" />
		<tag k="ssr:stedsnr" v="728393" />
	</node>
	<node id="-373794" lat="58.2377305548" lon="7.24621110554">
		<tag k="alt_name" v="Røynestøl" />
		<tag k="name" v="Østre Røynestøl" />
		<tag k="place" v="locality" />
		<tag k="ssr:stedsnr" v="728341" />
	</node>
	<node id="-373793" lat="58.2283833368" lon="7.03710555735">
		<tag k="name" v="Hellenes" />
		<tag k="place" v="locality" />
		<tag k="ssr:stedsnr" v="728338" />
	</node>
	<node id="-373790" lat="58.1649750029" lon="6.94838888267">
		<tag k="fixme" v="consider place=hamlet" />
		<tag k="name" v="Bjørnestad" />
		<tag k="place" v="farm" />
		<tag k="ssr:stedsnr" v="728205" />
	</node>
	<node id="-373768" lat="58.1623916678" lon="7.17616389673">
		<tag k="name" v="Wally" />
		<tag k="place" v="farm" />
		<tag k="ssr:stedsnr" v="689904" />
	</node>
	<node id="-373764" lat="58.1375888924" lon="7.07184166401">
		<tag k="fixme" v="consider place=suburb, village or hamlet" />
		<tag k="name" v="Berge" />
		<tag k="place" v="quarter" />
		<tag k="ssr:stedsnr" v="689877" />
	</node>
	<node id="-373761" lat="58.1028416712" lon="7.09606945177">
		<tag k="name" v="Fredbo" />
		<tag k="place" v="farm" />
		<tag k="ssr:stedsnr" v="689842" />
	</node>
	<node id="-371702" lat="58.2415277742" lon="7.17911944804">
		<tag k="amenity" v="nursing_home" />
		<tag k="name" v="Kvås kvileheim" />
		<tag k="ssr:stedsnr" v="324199" />
	</node>
	<node id="-371669" lat="58.0888472196" lon="7.09665278474">
		<tag k="alt_name" v="Trolleshei" />
		<tag k="fixme" v="consider place=hamlet" />
		<tag k="name" v="Trolleskei" />
		<tag k="place" v="farm" />
		<tag k="ssr:stedsnr" v="304607" />
	</node>
	<node id="-371667" lat="58.1976277754" lon="7.03492222762">
		<tag k="fixme" v="consider place=hamlet" />
		<tag k="name" v="Åtland" />
		<tag k="place" v="farm" />
		<tag k="ssr:stedsnr" v="304457" />
	</node>
	<node id="-371665" lat="58.123247225" lon="7.15804444238">
		<tag k="name" v="Østre Eikeland" />
		<tag k="place" v="farm" />
		<tag k="ssr:stedsnr" v="303619" />
	</node>
	<node id="-373711" lat="58.0251583332" lon="7.01406667199">
		<tag k="fixme" v="consider place=hamlet" />
		<tag k="name" v="Revøy midtre" />
		<tag k="place" v="farm" />
		<tag k="ssr:stedsnr" v="689394" />
	</node>
	<node id="-371661" lat="58.2028416629" lon="7.02273055275">
		<tag k="name" v="Ytre Eikeland" />
		<tag k="place" v="farm" />
		<tag k="ssr:stedsnr" v="303614" />
	</node>
	<node id="-371658" lat="58.0791500023" lon="7.08330000699">
		<tag k="fixme" v="consider place=hamlet" />
		<tag k="name" v="Bonevoll" />
		<tag k="place" v="farm" />
		<tag k="ssr:stedsnr" v="303605" />
	</node>
	<node id="-371656" lat="58.1165222223" lon="7.03679444858">
		<tag k="fixme" v="consider place=hamlet" />
		<tag k="name" v="Salthaug" />
		<tag k="place" v="farm" />
		<tag k="ssr:stedsnr" v="303562" />
	</node>
	<node id="-371655" lat="58.1327138927" lon="7.13411110959">
		<tag k="name" v="Heia" />
		<tag k="place" v="farm" />
		<tag k="ssr:stedsnr" v="303548" />
	</node>
	<node id="-373701" lat="58.1705583311" lon="7.22830277854">
		<tag k="fixme" v="consider place=hamlet" />
		<tag k="name" v="Løland" />
		<tag k="place" v="farm" />
		<tag k="ssr:stedsnr" v="689343" />
	</node>
	<node id="-371650" lat="58.1767361107" lon="7.09658056322">
		<tag k="fixme" v="consider place=hamlet" />
		<tag k="name" v="Kvelland" />
		<tag k="place" v="farm" />
		<tag k="ssr:stedsnr" v="303448" />
	</node>
	<node id="-371649" lat="58.16529722" lon="7.01158333541">
		<tag k="alt_name" v="Kleivan, vestre;Kleivan" />
		<tag k="name" v="Vestre Kleivan" />
		<tag k="place" v="farm" />
		<tag k="ssr:stedsnr" v="303437" />
	</node>
	<node id="-371648" lat="58.1744222241" lon="7.06087499881">
		<tag k="fixme" v="consider place=hamlet" />
		<tag k="name" v="Skoland" />
		<tag k="place" v="farm" />
		<tag k="ssr:stedsnr" v="303434" />
	</node>
	<node id="-371647" lat="58.203699996" lon="7.03398333746">
		<tag k="fixme" v="consider place=hamlet" />
		<tag k="name" v="Ytre Eikeland" />
		<tag k="place" v="farm" />
		<tag k="ssr:stedsnr" v="303422" />
	</node>
	<node id="-371644" lat="58.2196944486" lon="6.93015554722">
		<tag k="fixme" v="consider place=hamlet" />
		<tag k="name" v="Håland" />
		<tag k="place" v="farm" />
		<tag k="ssr:stedsnr" v="303170" />
	</node>
	<node id="-373690" lat="58.0328555553" lon="7.00324166049">
		<tag k="name" v="Hunsdalen" />
		<tag k="place" v="locality" />
		<tag k="ssr:stedsnr" v="689311" />
	</node>
	<node id="-371635" lat="58.1137361088" lon="6.94765555216">
		<tag k="name" v="Djupvig" />
		<tag k="place" v="farm" />
		<tag k="ssr:stedsnr" v="271848" />
	</node>
	<node id="-371634" lat="58.1176416628" lon="6.94918055868">
		<tag k="name" v="Djupvig" />
		<tag k="place" v="farm" />
		<tag k="ssr:stedsnr" v="271846" />
	</node>
	<node id="-372551" lat="58.0862055578" lon="7.10474167091">
		<tag k="fixme" v="consider place=hamlet" />
		<tag k="name" v="Gitlevåg" />
		<tag k="place" v="farm" />
		<tag k="ssr:stedsnr" v="182605" />
	</node>
	<node id="-374598" lat="58.2621425559" lon="7.19766039579">
		<tag k="name" v="Kvås" />
		<tag k="place" v="hamlet" />
		<tag k="ssr:stedsnr" v="979586" />
	</node>
	<node id="-374597" lat="58.2609869352" lon="7.19798289309">
		<tag k="fixme" v="consider place=hamlet" />
		<tag k="name" v="Ytre Kvås" />
		<tag k="place" v="farm" />
		<tag k="ssr:stedsnr" v="979585" />
	</node>
	<node id="-372548" lat="58.1159305584" lon="7.06186389664">
		<tag k="name" v="Skomrag" />
		<tag k="place" v="farm" />
		<tag k="ssr:stedsnr" v="182548" />
	</node>
	<node id="-372547" lat="58.1234055579" lon="7.19214166006">
		<tag k="name" v="Dåla" />
		<tag k="place" v="farm" />
		<tag k="ssr:stedsnr" v="182545" />
	</node>
	<node id="-373644" lat="58.0363999968" lon="7.0196111084">
		<tag k="name" v="Strandjord" />
		<tag k="place" v="farm" />
		<tag k="ssr:stedsnr" v="668700" />
	</node>
	<node id="-373643" lat="58.0426623316" lon="7.0114996998">
		<tag k="name" v="Holvik" />
		<tag k="place" v="hamlet" />
		<tag k="ssr:stedsnr" v="668599" />
	</node>
	<node id="-373642" lat="58.0440888905" lon="7.02587499384">
		<tag k="fixme" v="consider place=hamlet" />
		<tag k="name" v="Hundingsland" />
		<tag k="place" v="farm" />
		<tag k="ssr:stedsnr" v="668597" />
	</node>
	<node id="-373641" lat="58.1265722235" lon="7.07603611212">
		<tag k="name" v="Åvesland" />
		<tag k="place" v="farm" />
		<tag k="ssr:stedsnr" v="667836" />
	</node>
	<node id="-373640" lat="58.1103861119" lon="6.95280833653">
		<tag k="name" v="Kollevoll" />
		<tag k="place" v="farm" />
		<tag k="ssr:stedsnr" v="667824" />
	</node>
	<node id="-373639" lat="58.1518555599" lon="7.0261861095">
		<tag k="name" v="Bjerge" />
		<tag k="place" v="farm" />
		<tag k="ssr:stedsnr" v="667809" />
	</node>
	<node id="-373638" lat="58.1515055575" lon="6.96223889019">
		<tag k="name" v="Eigenes" />
		<tag k="place" v="farm" />
		<tag k="ssr:stedsnr" v="667735" />
	</node>
	<node id="-373637" lat="58.1209052904" lon="7.16162649209">
		<tag k="name" v="Østre Eikeland" />
		<tag k="place" v="farm" />
		<tag k="ssr:stedsnr" v="667576" />
	</node>
	<node id="-373636" lat="58.1073361099" lon="6.95856666979">
		<tag k="name" v="Indre Eikeland" />
		<tag k="place" v="farm" />
		<tag k="ssr:stedsnr" v="667572" />
	</node>
	<node id="-373635" lat="58.1089694409" lon="6.97152500699">
		<tag k="name" v="Indre Eikeland" />
		<tag k="place" v="farm" />
		<tag k="ssr:stedsnr" v="667570" />
	</node>
	<node id="-373634" lat="58.2541388861" lon="7.24641389514">
		<tag k="fixme" v="consider place=hamlet" />
		<tag k="name" v="Løland" />
		<tag k="place" v="farm" />
		<tag k="ssr:stedsnr" v="667565" />
	</node>
	<node id="-373633" lat="58.0802583291" lon="6.98503889266">
		<tag k="name" v="Reiskard" />
		<tag k="place" v="farm" />
		<tag k="ssr:stedsnr" v="667563" />
	</node>
	<node id="-373632" lat="58.0768166635" lon="6.98272500524">
		<tag k="alt_name" v="Stueland" />
		<tag k="fixme" v="consider place=hamlet" />
		<tag k="name" v="Stuland" />
		<tag k="place" v="farm" />
		<tag k="ssr:stedsnr" v="667564" />
	</node>
	<node id="-372544" lat="58.1361916668" lon="6.99748888289">
		<tag k="name" v="Sørlia" />
		<tag k="place" v="farm" />
		<tag k="ssr:stedsnr" v="182520" />
	</node>
	<node id="-373630" lat="58.1263500024" lon="7.08553611647">
		<tag k="alt_name" v="Haukelien" />
		<tag k="fixme" v="consider place=hamlet" />
		<tag k="name" v="Haukeli" />
		<tag k="place" v="farm" />
		<tag k="ssr:stedsnr" v="667519" />
	</node>
	<node id="-373629" lat="58.1251333354" lon="7.0764361045">
		<tag k="name" v="Åvesland" />
		<tag k="place" v="hamlet" />
		<tag k="ssr:stedsnr" v="667518" />
	</node>
	<node id="-373628" lat="58.127005559" lon="7.12650555339">
		<tag k="name" v="Fokvelland" />
		<tag k="place" v="farm" />
		<tag k="ssr:stedsnr" v="667516" />
	</node>
	<node id="-373627" lat="58.1359194466" lon="7.19090832802">
		<tag k="fixme" v="consider place=hamlet" />
		<tag k="name" v="Grummedal" />
		<tag k="place" v="farm" />
		<tag k="ssr:stedsnr" v="667514" />
	</node>
	<node id="-373626" lat="58.1364750043" lon="7.18247500746">
		<tag k="fixme" v="consider place=hamlet" />
		<tag k="name" v="Lene" />
		<tag k="place" v="farm" />
		<tag k="ssr:stedsnr" v="667512" />
	</node>
	<node id="-373625" lat="58.137675002" lon="7.06750277474">
		<tag k="name" v="Alleen" />
		<tag k="place" v="village" />
		<tag k="ssr:stedsnr" v="667504" />
	</node>
	<node id="-373624" lat="58.1317000001" lon="7.03964999831">
		<tag k="fixme" v="consider place=hamlet" />
		<tag k="name" v="Kvåvik" />
		<tag k="place" v="farm" />
		<tag k="ssr:stedsnr" v="667501" />
	</node>
	<node id="-373623" lat="58.1353861095" lon="6.97480278209">
		<tag k="alt_name" v="Tofta;Tofte" />
		<tag k="name" v="Tufta" />
		<tag k="place" v="locality" />
		<tag k="ssr:stedsnr" v="667500" />
	</node>
	<node id="-373621" lat="58.2725861093" lon="7.08962500836">
		<tag k="fixme" v="consider place=hamlet" />
		<tag k="name" v="Røyseland" />
		<tag k="place" v="farm" />
		<tag k="ssr:stedsnr" v="667474" />
	</node>
	<node id="-373620" lat="58.1629583362" lon="7.01751110339">
		<tag k="fixme" v="consider place=hamlet" />
		<tag k="name" v="Egilstad" />
		<tag k="place" v="farm" />
		<tag k="ssr:stedsnr" v="667462" />
	</node>
	<node id="-373618" lat="58.1555638897" lon="7.00512499745">
		<tag k="fixme" v="consider place=hamlet" />
		<tag k="name" v="Næveland" />
		<tag k="place" v="farm" />
		<tag k="ssr:stedsnr" v="667449" />
	</node>
	<node id="-373617" lat="58.1556096832" lon="7.13725634879">
		<tag k="fixme" v="consider place=hamlet" />
		<tag k="name" v="Herdal" />
		<tag k="place" v="farm" />
		<tag k="ssr:stedsnr" v="667439" />
	</node>
	<node id="-373614" lat="58.2356916626" lon="7.14551667506">
		<tag k="fixme" v="consider place=hamlet" />
		<tag k="name" v="Høyland" />
		<tag k="place" v="farm" />
		<tag k="ssr:stedsnr" v="667367" />
	</node>
	<node id="-373613" lat="58.117127781" lon="6.96223055225">
		<tag k="name" v="Aunevikneset" />
		<tag k="place" v="farm" />
		<tag k="ssr:stedsnr" v="667283" />
	</node>
	<node id="-373611" lat="58.1486194442" lon="6.96203055363">
		<tag k="alt_name" v="Eikenes" />
		<tag k="name" v="Eigenes" />
		<tag k="place" v="hamlet" />
		<tag k="ssr:stedsnr" v="667244" />
	</node>
	<node id="-373610" lat="58.1467250008" lon="6.96385277988">
		<tag k="fixme" v="consider place=hamlet" />
		<tag k="name" v="Meland" />
		<tag k="place" v="farm" />
		<tag k="ssr:stedsnr" v="667241" />
	</node>
	<node id="-372540" lat="58.1529000031" lon="7.14921388805">
		<tag k="alt_name" v="Gullknuden;Gullknuten" />
		<tag k="fixme" v="consider place=hamlet" />
		<tag k="name" v="Knuten" />
		<tag k="place" v="farm" />
		<tag k="ssr:stedsnr" v="182474" />
	</node>
	<node id="-373605" lat="58.1557472188" lon="7.13788889398">
		<tag k="name" v="Herdal" />
		<tag k="place" v="farm" />
		<tag k="ssr:stedsnr" v="666413" />
	</node>
	<node id="-373593" lat="58.1302833319" lon="7.06252222432">
		<tag k="name" v="Skomrag" />
		<tag k="place" v="farm" />
		<tag k="ssr:stedsnr" v="631407" />
	</node>
	<node id="-373589" lat="58.1150458343" lon="7.03488733565">
		<tag k="name" v="Indre Svenevig" />
		<tag k="place" v="farm" />
		<tag k="ssr:stedsnr" v="630214" />
	</node>
	<node id="-373586" lat="58.1895944449" lon="7.18309999478">
		<tag k="name" v="Øygarden" />
		<tag k="place" v="farm" />
		<tag k="ssr:stedsnr" v="628988" />
	</node>
	<node id="-373576" lat="58.1616138872" lon="7.17778611168">
		<tag k="name" v="Gastestad" />
		<tag k="place" v="farm" />
		<tag k="ssr:stedsnr" v="628894" />
	</node>
	<node id="-373563" lat="58.0913750275" lon="7.03215849856">
		<tag k="alt_name" v="Lerviken" />
		<tag k="fixme" v="consider place=hamlet" />
		<tag k="name" v="Lervik" />
		<tag k="place" v="farm" />
		<tag k="ssr:stedsnr" v="628404" />
	</node>
	<node id="-372532" lat="58.2187222223" lon="7.14387222211">
		<tag k="name" v="Gitlestad" />
		<tag k="place" v="farm" />
		<tag k="ssr:stedsnr" v="181972" />
	</node>
	<node id="-373558" lat="58.2944166652" lon="7.20237777077">
		<tag k="name" v="Danefall" />
		<tag k="place" v="farm" />
		<tag k="ssr:stedsnr" v="628350" />
	</node>
	<node id="-372531" lat="58.1498055595" lon="6.96203056272">
		<tag k="fixme" v="consider place=hamlet" />
		<tag k="name" v="Eikenes" />
		<tag k="place" v="farm" />
		<tag k="ssr:stedsnr" v="181908" />
	</node>
	<node id="-372529" lat="58.1119972186" lon="6.9541416623">
		<tag k="fixme" v="consider place=hamlet" />
		<tag k="name" v="Kollevoll" />
		<tag k="place" v="farm" />
		<tag k="ssr:stedsnr" v="181592" />
	</node>
	<node id="-373539" lat="58.1294416664" lon="7.03594722288">
		<tag k="name" v="Eplehagen" />
		<tag k="place" v="farm" />
		<tag k="ssr:stedsnr" v="627905" />
	</node>
	<node id="-373536" lat="58.0974527743" lon="7.07802222575">
		<tag k="name" v="Slåta" />
		<tag k="place" v="farm" />
		<tag k="ssr:stedsnr" v="627881" />
	</node>
	<node id="-373533" lat="58.1135388901" lon="7.06001945247">
		<tag k="fixme" v="consider place=hamlet" />
		<tag k="name" v="Skomrak ytre" />
		<tag k="place" v="farm" />
		<tag k="ssr:stedsnr" v="627862" />
	</node>
	<node id="-373527" lat="58.1081527749" lon="7.0541361161">
		<tag k="name" v="Skåra" />
		<tag k="place" v="locality" />
		<tag k="ssr:stedsnr" v="627831" />
	</node>
	<node id="-373520" lat="58.0739007555" lon="7.1310402948">
		<tag k="name" v="Kittelsnes" />
		<tag k="place" v="hamlet" />
		<tag k="ssr:stedsnr" v="627793" />
	</node>
	<node id="-373498" lat="58.2626666637" lon="7.19227777562">
		<tag k="name" v="Kvåsneset" />
		<tag k="place" v="farm" />
		<tag k="ssr:stedsnr" v="627592" />
	</node>
	<node id="-371838" lat="58.1694305567" lon="7.01460000615">
		<tag k="fixme" v="consider place=hamlet" />
		<tag k="name" v="Li" />
		<tag k="place" v="farm" />
		<tag k="ssr:stedsnr" v="364445" />
	</node>
	<node id="-372518" lat="58.1630749961" lon="7.17851110577">
		<tag k="name" v="Lindekleiva" />
		<tag k="place" v="farm" />
		<tag k="ssr:stedsnr" v="143907" />
	</node>
	<node id="-373469" lat="58.0262694447" lon="7.01431388975">
		<tag k="name" v="Indre Øyna" />
		<tag k="place" v="hamlet" />
		<tag k="ssr:stedsnr" v="627325" />
	</node>
	<node id="-373445" lat="58.2273388869" lon="7.11775554805">
		<tag k="fixme" v="consider place=hamlet" />
		<tag k="name" v="Hellestøl" />
		<tag k="place" v="farm" />
		<tag k="ssr:stedsnr" v="627096" />
	</node>
	<node id="-373442" lat="58.1503444461" lon="6.96813611333">
		<tag k="name" v="Eigenes" />
		<tag k="place" v="farm" />
		<tag k="ssr:stedsnr" v="606774" />
	</node>
	<node id="-373440" lat="58.0663388883" lon="7.03163333311">
		<tag k="fixme" v="consider place=hamlet" />
		<tag k="name" v="Askeland" />
		<tag k="place" v="farm" />
		<tag k="ssr:stedsnr" v="606615" />
	</node>
	<node id="-373439" lat="58.2027499987" lon="7.03076667435">
		<tag k="name" v="Ytre Eikeland" />
		<tag k="place" v="farm" />
		<tag k="ssr:stedsnr" v="606604" />
	</node>
	<node id="-373438" lat="58.1091638882" lon="6.96343611088">
		<tag k="name" v="Indre Eikeland" />
		<tag k="place" v="farm" />
		<tag k="ssr:stedsnr" v="606601" />
	</node>
	<node id="-373436" lat="58.0993083319" lon="7.05348333217">
		<tag k="alt_name" v="Reiåsen" />
		<tag k="fixme" v="consider place=hamlet" />
		<tag k="name" v="Reiås" />
		<tag k="place" v="farm" />
		<tag k="ssr:stedsnr" v="606514" />
	</node>
	<node id="-373435" lat="58.1093500026" lon="7.16783611039">
		<tag k="name" v="Paradis" />
		<tag k="place" v="farm" />
		<tag k="ssr:stedsnr" v="606508" />
	</node>
	<node id="-373434" lat="58.2794666649" lon="7.24835556223">
		<tag k="fixme" v="consider place=hamlet" />
		<tag k="name" v="Tjåmeland" />
		<tag k="place" v="farm" />
		<tag k="ssr:stedsnr" v="606499" />
	</node>
	<node id="-373433" lat="58.170483333" lon="7.20238611834">
		<tag k="alt_name" v="Ånesrei" />
		<tag k="name" v="Anesrei" />
		<tag k="place" v="farm" />
		<tag k="ssr:stedsnr" v="606485" />
	</node>
	<node id="-373432" lat="58.152633334" lon="7.02468333309">
		<tag k="fixme" v="consider place=hamlet" />
		<tag k="name" v="Bjerga" />
		<tag k="place" v="farm" />
		<tag k="ssr:stedsnr" v="606466" />
	</node>
	<node id="-373431" lat="58.1509222209" lon="7.03196666753">
		<tag k="alt_name" v="Fidja, vestre;Fidja" />
		<tag k="name" v="Vestre Fidja" />
		<tag k="place" v="hamlet" />
		<tag k="ssr:stedsnr" v="606464" />
	</node>
	<node id="-373429" lat="58.1409277765" lon="7.01112499987">
		<tag k="name" v="Lastad" />
		<tag k="place" v="farm" />
		<tag k="ssr:stedsnr" v="606455" />
	</node>
	<node id="-373428" lat="58.1934694483" lon="7.02382499161">
		<tag k="fixme" v="consider place=hamlet" />
		<tag k="name" v="Lille Eikeland" />
		<tag k="place" v="farm" />
		<tag k="ssr:stedsnr" v="606452" />
	</node>
	<node id="-373427" lat="58.1940499966" lon="7.1111388904">
		<tag k="fixme" v="consider place=hamlet" />
		<tag k="name" v="Grøvan" />
		<tag k="place" v="farm" />
		<tag k="ssr:stedsnr" v="606451" />
	</node>
	<node id="-373426" lat="58.187700002" lon="7.03657778304">
		<tag k="fixme" v="consider place=hamlet" />
		<tag k="name" v="Sådland" />
		<tag k="place" v="farm" />
		<tag k="ssr:stedsnr" v="606443" />
	</node>
	<node id="-373425" lat="58.1753111146" lon="6.99621111633">
		<tag k="alt_name" v="Glomsheller" />
		<tag k="fixme" v="consider place=hamlet" />
		<tag k="name" v="Glomshelleren" />
		<tag k="place" v="farm" />
		<tag k="ssr:stedsnr" v="606436" />
	</node>
	<node id="-373424" lat="58.1742361148" lon="7.01750833746">
		<tag k="fixme" v="consider place=hamlet" />
		<tag k="name" v="Dragland" />
		<tag k="place" v="farm" />
		<tag k="ssr:stedsnr" v="606434" />
	</node>
	<node id="-373423" lat="58.1530153818" lon="7.02475201178">
		<tag k="name" v="Bjerge" />
		<tag k="place" v="farm" />
		<tag k="ssr:stedsnr" v="606423" />
	</node>
	<node id="-373422" lat="58.2263277799" lon="7.15905000474">
		<tag k="name" v="Voilen" />
		<tag k="place" v="farm" />
		<tag k="ssr:stedsnr" v="606419" />
	</node>
	<node id="-373421" lat="58.2115861067" lon="7.00310833555">
		<tag k="name" v="Høyland" />
		<tag k="place" v="farm" />
		<tag k="ssr:stedsnr" v="606409" />
	</node>
	<node id="-373420" lat="58.208077437" lon="7.12158507267">
		<tag k="alt_name" v="Røynestøl" />
		<tag k="historic" v="shieling" />
		<tag k="name" v="Vestre Røynestøl" />
		<tag k="place" v="locality" />
		<tag k="ssr:stedsnr" v="606384" />
	</node>
	<node id="-373415" lat="58.1250722222" lon="7.06767778311">
		<tag k="name" v="Åvesland" />
		<tag k="place" v="farm" />
		<tag k="ssr:stedsnr" v="606852" />
	</node>
	<node id="-373402" lat="58.1170805571" lon="6.94711388399">
		<tag k="name" v="Djupvig" />
		<tag k="place" v="farm" />
		<tag k="ssr:stedsnr" v="574851" />
	</node>
	<node id="-373374" lat="58.119333337" lon="7.06923611089">
		<tag k="name" v="Støa" />
		<tag k="place" v="locality" />
		<tag k="ssr:stedsnr" v="567841" />
	</node>
	<node id="-372498" lat="58.0897444416" lon="7.06969722609">
		<tag k="name" v="Indre Nygård" />
		<tag k="place" v="farm" />
		<tag k="ssr:stedsnr" v="142868" />
	</node>
	<node id="-373342" lat="58.188783332" lon="7.19712500197">
		<tag k="name" v="Litlehommen" />
		<tag k="place" v="locality" />
		<tag k="ssr:stedsnr" v="567533" />
	</node>
	<node id="-373321" lat="58.0431805734" lon="7.0081485948">
		<tag k="alt_name" v="Øvre Hollevik" />
		<tag k="fixme" v="consider place=hamlet" />
		<tag k="name" v="Holvik øvre" />
		<tag k="place" v="farm" />
		<tag k="ssr:stedsnr" v="567392" />
	</node>
	<node id="-373304" lat="58.243647225" lon="7.20876388614">
		<tag k="alt_name" v="Åmlien" />
		<tag k="fixme" v="consider place=hamlet" />
		<tag k="name" v="Åmli" />
		<tag k="place" v="farm" />
		<tag k="ssr:stedsnr" v="567215" />
	</node>
	<node id="-373276" lat="58.0717888908" lon="7.10185832699">
		<tag k="alt_name" v="Hovden" />
		<tag k="name" v="Hovda" />
		<tag k="place" v="hamlet" />
		<tag k="ssr:stedsnr" v="546578" />
	</node>
	<node id="-373275" lat="58.0729916707" lon="7.09353888173">
		<tag k="alt_name" v="Skråvik" />
		<tag k="fixme" v="consider place=hamlet" />
		<tag k="name" v="Skråvika" />
		<tag k="place" v="farm" />
		<tag k="ssr:stedsnr" v="546573" />
	</node>
	<node id="-373274" lat="58.0734749976" lon="7.0664555487">
		<tag k="fixme" v="consider place=hamlet" />
		<tag k="name" v="Dale" />
		<tag k="place" v="farm" />
		<tag k="ssr:stedsnr" v="546574" />
	</node>
	<node id="-373273" lat="58.0432083377" lon="6.99170833193">
		<tag k="fixme" v="consider place=hamlet" />
		<tag k="name" v="Hausvik" />
		<tag k="place" v="farm" />
		<tag k="ssr:stedsnr" v="546541" />
	</node>
	<node id="-373272" lat="58.0515361148" lon="7.00172500449">
		<tag k="fixme" v="consider place=hamlet" />
		<tag k="name" v="Eitland" />
		<tag k="place" v="farm" />
		<tag k="ssr:stedsnr" v="546527" />
	</node>
	<node id="-373271" lat="58.0600861089" lon="7.03563055272">
		<tag k="fixme" v="consider place=hamlet" />
		<tag k="name" v="Åmland" />
		<tag k="place" v="farm" />
		<tag k="ssr:stedsnr" v="546520" />
	</node>
	<node id="-373269" lat="58.2942249975" lon="7.1843277701">
		<tag k="alt_name" v="Buli" />
		<tag k="fixme" v="consider place=hamlet" />
		<tag k="name" v="Bulia" />
		<tag k="place" v="farm" />
		<tag k="ssr:stedsnr" v="546488" />
	</node>
	<node id="-373267" lat="58.2891472241" lon="7.19371665946">
		<tag k="fixme" v="consider place=hamlet" />
		<tag k="name" v="Birkeland" />
		<tag k="place" v="farm" />
		<tag k="ssr:stedsnr" v="546483" />
	</node>
	<node id="-373265" lat="58.0976250026" lon="7.13586110932">
		<tag k="fixme" v="consider place=hamlet" />
		<tag k="name" v="Leksbø" />
		<tag k="place" v="farm" />
		<tag k="ssr:stedsnr" v="546479" />
	</node>
	<node id="-373263" lat="58.1429805534" lon="6.99291111">
		<tag k="alt_name" v="Vilshamar" />
		<tag k="fixme" v="consider place=hamlet" />
		<tag k="name" v="Vilshammer" />
		<tag k="place" v="farm" />
		<tag k="ssr:stedsnr" v="546434" />
	</node>
	<node id="-373262" lat="58.1876499989" lon="7.13785000375">
		<tag k="fixme" v="consider place=hamlet" />
		<tag k="name" v="Risbakken" />
		<tag k="place" v="farm" />
		<tag k="ssr:stedsnr" v="546427" />
	</node>
	<node id="-373261" lat="58.1915499957" lon="7.14038054963">
		<tag k="fixme" v="consider place=hamlet" />
		<tag k="name" v="Buan" />
		<tag k="place" v="farm" />
		<tag k="ssr:stedsnr" v="546425" />
	</node>
	<node id="-373260" lat="58.2233000045" lon="7.12368611901">
		<tag k="alt_name" v="Stuestøl" />
		<tag k="fixme" v="consider place=hamlet" />
		<tag k="name" v="Stustøl" />
		<tag k="place" v="farm" />
		<tag k="ssr:stedsnr" v="546407" />
	</node>
	<node id="-373258" lat="58.1968499973" lon="6.97446110621">
		<tag k="name" v="Birkjeland" />
		<tag k="place" v="farm" />
		<tag k="ssr:stedsnr" v="546386" />
	</node>
	<node id="-373257" lat="58.1917805594" lon="6.99078055224">
		<tag k="fixme" v="consider place=hamlet" />
		<tag k="name" v="Skårdal" />
		<tag k="place" v="farm" />
		<tag k="ssr:stedsnr" v="546385" />
	</node>
	<node id="-373256" lat="58.2455749979" lon="7.18460555472">
		<tag k="fixme" v="consider place=hamlet" />
		<tag k="name" v="Moi" />
		<tag k="place" v="farm" />
		<tag k="ssr:stedsnr" v="546350" />
	</node>
	<node id="-373255" lat="58.2323944452" lon="7.164311104">
		<tag k="fixme" v="consider place=hamlet" />
		<tag k="name" v="Vemestad ytre" />
		<tag k="place" v="farm" />
		<tag k="ssr:stedsnr" v="546348" />
	</node>
	<node id="-373254" lat="58.2295611136" lon="7.09171110825">
		<tag k="fixme" v="consider place=hamlet" />
		<tag k="name" v="Vidringstad" />
		<tag k="place" v="farm" />
		<tag k="ssr:stedsnr" v="546342" />
	</node>
	<node id="-373253" lat="58.1169638881" lon="6.94747499394">
		<tag k="name" v="Djupvig" />
		<tag k="place" v="farm" />
		<tag k="ssr:stedsnr" v="546287" />
	</node>
	<node id="-373250" lat="58.1273249989" lon="7.14983333894">
		<tag k="name" v="Østre Eikeland" />
		<tag k="place" v="farm" />
		<tag k="ssr:stedsnr" v="545603" />
	</node>
	<node id="-373249" lat="58.1238416647" lon="7.16003333575">
		<tag k="name" v="Østre Eikeland" />
		<tag k="place" v="farm" />
		<tag k="ssr:stedsnr" v="545600" />
	</node>
	<node id="-373248" lat="58.1067527768" lon="6.96043333846">
		<tag k="name" v="Indre Eikeland" />
		<tag k="place" v="farm" />
		<tag k="ssr:stedsnr" v="545591" />
	</node>
	<node id="-373247" lat="58.1532448242" lon="7.02523206521">
		<tag k="name" v="Bjerge" />
		<tag k="place" v="farm" />
		<tag k="ssr:stedsnr" v="545858" />
	</node>
	<node id="-373246" lat="58.1127694448" lon="6.95180555923">
		<tag k="name" v="Kollevoll" />
		<tag k="place" v="farm" />
		<tag k="ssr:stedsnr" v="545834" />
	</node>
	<node id="-372478" lat="58.1403361069" lon="6.90895277387">
		<tag k="name" v="Solskår" />
		<tag k="place" v="locality" />
		<tag k="ssr:stedsnr" v="142683" />
	</node>
	<node id="-373218" lat="58.0228782042" lon="7.00103322301">
		<tag k="alt_name" v="Korshamn" />
		<tag k="fixme" v="consider place=suburb, village or hamlet" />
		<tag k="name" v="Korshavn" />
		<tag k="place" v="quarter" />
		<tag k="ssr:stedsnr" v="507391" />
	</node>
	<node id="-373204" lat="58.1708722249" lon="7.16991666105">
		<tag k="name" v="Vestregården" />
		<tag k="place" v="farm" />
		<tag k="ssr:stedsnr" v="506980" />
	</node>
	<node id="-373176" lat="58.151108332" lon="6.87283889452">
		<tag k="fixme" v="consider place=hamlet" />
		<tag k="name" v="Stangelia" />
		<tag k="place" v="farm" />
		<tag k="ssr:stedsnr" v="506658" />
	</node>
	<node id="-373133" lat="58.2390138848" lon="7.15299444194">
		<tag k="name" v="Vårmyra" />
		<tag k="place" v="locality" />
		<tag k="ssr:stedsnr" v="506202" />
	</node>
	<node id="-373108" lat="58.125713893" lon="7.07616667389">
		<tag k="name" v="Åvesland" />
		<tag k="place" v="farm" />
		<tag k="ssr:stedsnr" v="485845" />
	</node>
	<node id="-373107" lat="58.1521444419" lon="7.02685000841">
		<tag k="name" v="Bjerge" />
		<tag k="place" v="farm" />
		<tag k="ssr:stedsnr" v="485828" />
	</node>
	<node id="-373106" lat="58.1492166682" lon="6.95898889564">
		<tag k="name" v="Eikenes" />
		<tag k="place" v="farm" />
		<tag k="ssr:stedsnr" v="485759" />
	</node>
	<node id="-373104" lat="58.1224777786" lon="7.16390833182">
		<tag k="name" v="Østre Eikeland" />
		<tag k="place" v="farm" />
		<tag k="ssr:stedsnr" v="485575" />
	</node>
	<node id="-373102" lat="58.2526388851" lon="7.1913305548">
		<tag k="name" v="Moismoen" />
		<tag k="place" v="farm" />
		<tag k="ssr:stedsnr" v="485568" />
	</node>
	<node id="-373099" lat="58.1377777791" lon="7.14021388816">
		<tag k="alt_name" v="Kindungsland" />
		<tag k="fixme" v="consider place=hamlet" />
		<tag k="name" v="Kinnungsland" />
		<tag k="place" v="farm" />
		<tag k="ssr:stedsnr" v="485491" />
	</node>
	<node id="-373098" lat="58.0895805537" lon="7.00436110296">
		<tag k="fixme" v="consider place=hamlet" />
		<tag k="name" v="Visdal" />
		<tag k="place" v="farm" />
		<tag k="ssr:stedsnr" v="485475" />
	</node>
	<node id="-373097" lat="58.099511109" lon="7.15098333413">
		<tag k="fixme" v="consider place=hamlet" />
		<tag k="name" v="Fleseland" />
		<tag k="place" v="farm" />
		<tag k="ssr:stedsnr" v="485469" />
	</node>
	<node id="-373093" lat="58.2676333315" lon="7.26597499526">
		<tag k="fixme" v="consider place=hamlet" />
		<tag k="name" v="Undeland" />
		<tag k="place" v="farm" />
		<tag k="ssr:stedsnr" v="485444" />
	</node>
	<node id="-373091" lat="58.1611555548" lon="7.17448889135">
		<tag k="alt_name" v="Fidja, østre;Fidja;Østre Fidje" />
		<tag k="fixme" v="consider place=hamlet" />
		<tag k="name" v="Østre Fidja" />
		<tag k="place" v="farm" />
		<tag k="ssr:stedsnr" v="485430" />
	</node>
	<node id="-373090" lat="58.1918333305" lon="7.08451389334">
		<tag k="name" v="Hægeland" />
		<tag k="place" v="farm" />
		<tag k="ssr:stedsnr" v="485404" />
	</node>
	<node id="-373089" lat="58.190183336" lon="7.05427499852">
		<tag k="alt_name" v="Hårigstad" />
		<tag k="fixme" v="consider place=hamlet" />
		<tag k="name" v="Hårikstad" />
		<tag k="place" v="farm" />
		<tag k="ssr:stedsnr" v="485394" />
	</node>
	<node id="-373087" lat="58.2073445422" lon="7.07620839554">
		<tag k="alt_name" v="Kvelland, l" />
		<tag k="fixme" v="multiple name tags, choose one and add the other to alt_name; consider place=hamlet" />
		<tag k="name" v="Kvelland lille;Lille Kvelland" />
		<tag k="place" v="farm" />
		<tag k="ssr:stedsnr" v="485354" />
	</node>
	<node id="-373086" lat="58.2413749995" lon="7.21711388063">
		<tag k="fixme" v="multiple name tags, choose one and add the other to alt_name; consider place=hamlet" />
		<tag k="name" v="Gusa;Guse" />
		<tag k="place" v="farm" />
		<tag k="ssr:stedsnr" v="485326" />
	</node>
	<node id="-373085" lat="58.2479611111" lon="7.21784166886">
		<tag k="name" v="Hepte" />
		<tag k="place" v="farm" />
		<tag k="ssr:stedsnr" v="485325" />
	</node>
	<node id="-373084" lat="58.1118055549" lon="6.94408054812">
		<tag k="alt_name" v="Skogåsen" />
		<tag k="name" v="Skogås" />
		<tag k="place" v="farm" />
		<tag k="ssr:stedsnr" v="485249" />
	</node>
	<node id="-373080" lat="58.2202805558" lon="6.92120834105">
		<tag k="fixme" v="consider place=hamlet" />
		<tag k="name" v="Rørdal" />
		<tag k="place" v="farm" />
		<tag k="ssr:stedsnr" v="485136" />
	</node>
	<node id="-373072" lat="58.1151694416" lon="6.94558889682">
		<tag k="name" v="Djupvig" />
		<tag k="place" v="farm" />
		<tag k="ssr:stedsnr" v="453820" />
	</node>
	<node id="-373051" lat="58.1399555595" lon="7.06214722722">
		<tag k="name" v="Grønndokka" />
		<tag k="place" v="quarter" />
		<tag k="ssr:stedsnr" v="446894" />
	</node>
	<node id="-373016" lat="58.1733166656" lon="7.2066388805">
		<tag k="name" v="Solheim" />
		<tag k="place" v="farm" />
		<tag k="ssr:stedsnr" v="446555" />
	</node>
	<node id="-373011" lat="58.1670194412" lon="6.92494443947">
		<tag k="fixme" v="consider place=hamlet" />
		<tag k="name" v="Skredal" />
		<tag k="place" v="farm" />
		<tag k="ssr:stedsnr" v="446481" />
	</node>
	<node id="-372967" lat="58.2425333346" lon="7.1841333363">
		<tag k="amenity" v="school" />
		<tag k="name" v="Kvås folkehøgskole" />
		<tag k="ssr:stedsnr" v="446238" />
	</node>
	<node id="-372942" lat="58.0684638919" lon="7.07588611391">
		<tag k="fixme" v="consider place=hamlet" />
		<tag k="name" v="Nakkestad" />
		<tag k="place" v="farm" />
		<tag k="ssr:stedsnr" v="425603" />
	</node>
	<node id="-372941" lat="58.1081499965" lon="6.96961944753">
		<tag k="name" v="Indre Eikeland" />
		<tag k="place" v="farm" />
		<tag k="ssr:stedsnr" v="425598" />
	</node>
	<node id="-372940" lat="58.1081444418" lon="6.96765277874">
		<tag k="name" v="Indre Eikeland" />
		<tag k="place" v="farm" />
		<tag k="ssr:stedsnr" v="425595" />
	</node>
	<node id="-372938" lat="58.0769277813" lon="7.01629166736">
		<tag k="fixme" v="consider place=hamlet" />
		<tag k="name" v="Indre Borviga" />
		<tag k="place" v="farm" />
		<tag k="ssr:stedsnr" v="425581" />
	</node>
	<node id="-372936" lat="58.122252776" lon="7.16449721397">
		<tag k="name" v="Østre Eikeland" />
		<tag k="place" v="farm" />
		<tag k="ssr:stedsnr" v="425541" />
	</node>
	<node id="-372935" lat="58.0597305516" lon="7.05069721492">
		<tag k="fixme" v="consider place=hamlet" />
		<tag k="loc_name" v="Koveland" />
		<tag k="name" v="Kåveland" />
		<tag k="place" v="farm" />
		<tag k="ssr:stedsnr" v="425542" />
	</node>
	<node id="-372934" lat="58.0629222194" lon="7.06531944103">
		<tag k="alt_name" v="Epledalen nedre" />
		<tag k="name" v="Epledal" />
		<tag k="place" v="farm" />
		<tag k="ssr:stedsnr" v="425540" />
	</node>
	<node id="-372933" lat="58.1227138854" lon="7.16452222947">
		<tag k="name" v="Østre Eikeland" />
		<tag k="place" v="farm" />
		<tag k="ssr:stedsnr" v="425539" />
	</node>
	<node id="-372929" lat="58.2979527815" lon="7.19205278123">
		<tag k="alt_name" v="Skår" />
		<tag k="fixme" v="consider place=hamlet" />
		<tag k="name" v="Skor" />
		<tag k="place" v="farm" />
		<tag k="ssr:stedsnr" v="425505" />
	</node>
	<node id="-372928" lat="58.1024499956" lon="7.04866389066">
		<tag k="fixme" v="consider place=hamlet" />
		<tag k="name" v="Krågestøl" />
		<tag k="place" v="farm" />
		<tag k="ssr:stedsnr" v="425501" />
	</node>
	<node id="-372927" lat="58.1004388883" lon="7.07718611643">
		<tag k="fixme" v="consider place=hamlet" />
		<tag k="name" v="Ås" />
		<tag k="place" v="farm" />
		<tag k="ssr:stedsnr" v="425500" />
	</node>
	<node id="-372925" lat="58.2650305515" lon="7.05640833111">
		<tag k="alt_name" v="Ødegården" />
		<tag k="fixme" v="consider place=hamlet" />
		<tag k="name" v="Øygarden" />
		<tag k="place" v="farm" />
		<tag k="ssr:stedsnr" v="425482" />
	</node>
	<node id="-372924" lat="58.1036861142" lon="7.06278610619">
		<tag k="alt_name" v="Hakestad" />
		<tag k="fixme" v="consider place=hamlet" />
		<tag k="name" v="Hagestad" />
		<tag k="place" v="farm" />
		<tag k="ssr:stedsnr" v="425479" />
	</node>
	<node id="-372923" lat="58.1708500041" lon="7.18300000206">
		<tag k="alt_name" v="Landrud;Landrø" />
		<tag k="fixme" v="consider place=hamlet" />
		<tag k="name" v="Landro" />
		<tag k="place" v="farm" />
		<tag k="ssr:stedsnr" v="425478" />
	</node>
	<node id="-372913" lat="58.2257111116" lon="7.10220277483">
		<tag k="fixme" v="consider place=hamlet" />
		<tag k="name" v="Skjerland" />
		<tag k="place" v="farm" />
		<tag k="ssr:stedsnr" v="425425" />
	</node>
	<node id="-372911" lat="58.2080249988" lon="7.19873610828">
		<tag k="fixme" v="consider place=hamlet" />
		<tag k="name" v="Vatland" />
		<tag k="place" v="farm" />
		<tag k="ssr:stedsnr" v="425406" />
	</node>
	<node id="-372909" lat="58.2414249993" lon="7.08325277196">
		<tag k="fixme" v="consider place=hamlet" />
		<tag k="name" v="Håvetoft" />
		<tag k="place" v="farm" />
		<tag k="ssr:stedsnr" v="425383" />
	</node>
	<node id="-372908" lat="58.230061108" lon="7.12782500826">
		<tag k="fixme" v="consider place=hamlet" />
		<tag k="name" v="Stakkeland" />
		<tag k="place" v="farm" />
		<tag k="ssr:stedsnr" v="425379" />
	</node>
	<node id="-372907" lat="58.1469083375" lon="6.9424499948">
		<tag k="fixme" v="consider place=hamlet" />
		<tag k="name" v="Øvsteland" />
		<tag k="place" v="farm" />
		<tag k="ssr:stedsnr" v="425240" />
	</node>
	<node id="-372906" lat="58.2241277738" lon="7.15361944151">
		<tag k="name" v="Gitlestad" />
		<tag k="place" v="farm" />
		<tag k="ssr:stedsnr" v="424970" />
	</node>
	<node id="-372905" lat="58.1067083331" lon="6.96827777727">
		<tag k="name" v="Indre Eikeland" />
		<tag k="place" v="farm" />
		<tag k="ssr:stedsnr" v="424968" />
	</node>
	<node id="-372904" lat="58.1251333354" lon="7.0764361045">
		<tag k="fixme" v="consider place=hamlet" />
		<tag k="name" v="Åvesland" />
		<tag k="place" v="farm" />
		<tag k="ssr:stedsnr" v="424852" />
	</node>
	<node id="-372902" lat="58.2067905481" lon="7.07655752433">
		<tag k="name" v="Kvelland" />
		<tag k="place" v="farm" />
		<tag k="ssr:stedsnr" v="424100" />
	</node>
	<node id="-372885" lat="58.2147833359" lon="7.17080277785">
		<tag k="name" v="Øygarden" />
		<tag k="place" v="locality" />
		<tag k="ssr:stedsnr" v="265319" />
	</node>
	<node id="-372868" lat="58.1368277789" lon="7.04312222938">
		<tag k="name" v="Kvåvikmoen" />
		<tag k="place" v="quarter" />
		<tag k="ssr:stedsnr" v="264878" />
	</node>
	<node id="-372864" lat="58.1682250024" lon="7.06035000804">
		<tag k="fixme" v="consider place=hamlet" />
		<tag k="name" v="Ramselia" />
		<tag k="place" v="farm" />
		<tag k="ssr:stedsnr" v="264842" />
	</node>
	<node id="-372847" lat="58.0614083313" lon="7.01897499504">
		<tag k="name" v="Vestregården" />
		<tag k="place" v="farm" />
		<tag k="ssr:stedsnr" v="264697" />
	</node>
	<node id="-372555" lat="58.1251416695" lon="7.07752222293">
		<tag k="name" v="Åvesland" />
		<tag k="place" v="farm" />
		<tag k="ssr:stedsnr" v="182849" />
	</node>
	<node id="-372790" lat="58.0210166644" lon="7.00639166417">
		<tag k="fixme" v="consider place=hamlet" />
		<tag k="name" v="Revøy ytre" />
		<tag k="place" v="farm" />
		<tag k="ssr:stedsnr" v="264295" />
	</node>
	<node id="-372759" lat="58.2435944413" lon="7.08521389625">
		<tag k="name" v="Tjønnebakken" />
		<tag k="place" v="locality" />
		<tag k="ssr:stedsnr" v="264122" />
	</node>
	<node id="-372742" lat="58.2659000033" lon="7.16756666957">
		<tag k="fixme" v="consider place=hamlet" />
		<tag k="name" v="Dydland" />
		<tag k="place" v="farm" />
		<tag k="ssr:stedsnr" v="243624" />
	</node>
	<node id="-372740" lat="58.2601861145" lon="7.11084999251">
		<tag k="alt_name" v="Lien" />
		<tag k="fixme" v="consider place=hamlet" />
		<tag k="name" v="Lia" />
		<tag k="place" v="farm" />
		<tag k="ssr:stedsnr" v="243620" />
	</node>
	<node id="-372739" lat="58.0609083348" lon="7.01801943783">
		<tag k="fixme" v="consider place=hamlet" />
		<tag k="name" v="Belland" />
		<tag k="place" v="farm" />
		<tag k="ssr:stedsnr" v="243621" />
	</node>
</osm>
