<?xml version="1.0" encoding="UTF-8"?>
<osm generator="osmapis" version="0.6">
	<node id="-371709" lat="58.2572250004" lon="7.11159722577">
		<tag k="name" v="Stegan" />
		<tag k="natural" v="wetland" />
		<tag k="ssr:stedsnr" v="324251" />
	</node>
	<node id="-374267" lat="58.2588500043" lon="7.16890554805">
		<tag k="name" v="Jonsokkjerrmyra" />
		<tag k="natural" v="wetland" />
		<tag k="ssr:stedsnr" v="871554" />
	</node>
	<node id="-374264" lat="58.166422222" lon="7.21713054859">
		<tag k="name" v="Storemyr" />
		<tag k="natural" v="wetland" />
		<tag k="ssr:stedsnr" v="871502" />
	</node>
	<node id="-372308" lat="58.2012666634" lon="7.23795555007">
		<tag k="name" v="Trættemyr" />
		<tag k="natural" v="wetland" />
		<tag k="ssr:stedsnr" v="82607" />
	</node>
	<node id="-373763" lat="58.1298250022" lon="7.03974722226">
		<tag k="name" v="Vollan" />
		<tag k="place" v="locality" />
		<tag k="ssr:stedsnr" v="689869" />
	</node>
	<node id="-374257" lat="58.1874666678" lon="6.9496305585">
		<tag k="name" v="Lonemyra" />
		<tag k="natural" v="wetland" />
		<tag k="ssr:stedsnr" v="871463" />
	</node>
	<node id="-371695" lat="58.2602472205" lon="7.07726111762">
		<tag k="name" v="Karimyra" />
		<tag k="natural" v="wetland" />
		<tag k="ssr:stedsnr" v="324137" />
	</node>
	<node id="-374250" lat="58.1893916691" lon="6.98665277185">
		<tag k="name" v="Surtemyra" />
		<tag k="natural" v="wetland" />
		<tag k="ssr:stedsnr" v="871440" />
	</node>
	<node id="-374183" lat="58.2037361094" lon="7.09951667312">
		<tag k="name" v="Skjermyra" />
		<tag k="natural" v="wetland" />
		<tag k="ssr:stedsnr" v="871093" />
	</node>
	<node id="-374248" lat="58.2194944412" lon="6.92676388867">
		<tag k="name" v="Stedjan" />
		<tag k="place" v="locality" />
		<tag k="ssr:stedsnr" v="871432" />
	</node>
	<node id="-373221" lat="58.2595249971" lon="7.26747777953">
		<tag k="name" v="Dauremyr" />
		<tag k="natural" v="wetland" />
		<tag k="ssr:stedsnr" v="507415" />
	</node>
	<node id="-374244" lat="58.1365694431" lon="7.20954722534">
		<tag k="name" v="Torvmyra" />
		<tag k="natural" v="wetland" />
		<tag k="ssr:stedsnr" v="871401" />
	</node>
	<node id="-373755" lat="58.0824222187" lon="7.07843611925">
		<tag k="name" v="Poddekjerret" />
		<tag k="natural" v="wetland" />
		<tag k="ssr:stedsnr" v="689760" />
	</node>
	<node id="-373215" lat="58.2650694416" lon="7.23310833275">
		<tag k="name" v="Roddusmyra" />
		<tag k="natural" v="wetland" />
		<tag k="ssr:stedsnr" v="507318" />
	</node>
	<node id="-371678" lat="58.2109916663" lon="7.13385556113">
		<tag k="name" v="Svinejordet" />
		<tag k="place" v="locality" />
		<tag k="ssr:stedsnr" v="324025" />
	</node>
	<node id="-372133" lat="58.2488749964" lon="7.2336583329">
		<tag k="name" v="Langemyran" />
		<tag k="natural" v="wetland" />
		<tag k="ssr:stedsnr" v="21646" />
	</node>
	<node id="-373724" lat="58.1505083319" lon="7.21761388931">
		<tag k="name" v="Store Surtemyra" />
		<tag k="natural" v="wetland" />
		<tag k="ssr:stedsnr" v="689495" />
	</node>
	<node id="-374235" lat="58.2509166649" lon="7.10705833673">
		<tag k="name" v="Hestadmyra" />
		<tag k="natural" v="wetland" />
		<tag k="ssr:stedsnr" v="871357" />
	</node>
	<node id="-374234" lat="58.1703111112" lon="7.11194167441">
		<tag k="name" v="Forumyra" />
		<tag k="natural" v="wetland" />
		<tag k="ssr:stedsnr" v="871348" />
	</node>
	<node id="-371791" lat="58.1339083326" lon="7.04317778229">
		<tag k="name" v="Grønaseget" />
		<tag k="place" v="locality" />
		<tag k="ssr:stedsnr" v="324888" />
	</node>
	<node id="-373719" lat="58.1577416682" lon="7.12737778276">
		<tag k="name" v="Langemyra" />
		<tag k="natural" v="wetland" />
		<tag k="ssr:stedsnr" v="689434" />
	</node>
	<node id="-374230" lat="58.2926055571" lon="7.22344166986">
		<tag k="name" v="Morgonbitmyra" />
		<tag k="natural" v="wetland" />
		<tag k="ssr:stedsnr" v="871321" />
	</node>
	<node id="-372692" lat="58.0763833309" lon="7.14087777921">
		<tag k="name" v="Myra" />
		<tag k="natural" v="wetland" />
		<tag k="ssr:stedsnr" v="204872" />
	</node>
	<node id="-374227" lat="58.2698833333" lon="7.22090000533">
		<tag k="name" v="Øvre Trettemyr" />
		<tag k="natural" v="wetland" />
		<tag k="ssr:stedsnr" v="871296" />
	</node>
	<node id="-371733" lat="58.0754277806" lon="7.01553056148">
		<tag k="name" v="Litlemyra" />
		<tag k="place" v="locality" />
		<tag k="ssr:stedsnr" v="324703" />
	</node>
	<node id="-372688" lat="58.1024277753" lon="7.14350277525">
		<tag k="name" v="Bårmyra" />
		<tag k="natural" v="wetland" />
		<tag k="ssr:stedsnr" v="204925" />
	</node>
	<node id="-374222" lat="58.2173555584" lon="7.16120556186">
		<tag k="name" v="Storemyr" />
		<tag k="natural" v="wetland" />
		<tag k="ssr:stedsnr" v="871276" />
	</node>
	<node id="-373707" lat="58.2506111125" lon="7.12081666108">
		<tag k="name" v="Finneskroken" />
		<tag k="natural" v="wetland" />
		<tag k="ssr:stedsnr" v="689371" />
	</node>
	<node id="-373194" lat="58.1196472202" lon="7.12272499655">
		<tag k="name" v="Langemyra" />
		<tag k="natural" v="wetland" />
		<tag k="ssr:stedsnr" v="506816" />
	</node>
	<node id="-374217" lat="58.2224111148" lon="7.17599443587">
		<tag k="name" v="Moltemyra" />
		<tag k="natural" v="wetland" />
		<tag k="ssr:stedsnr" v="871268" />
	</node>
	<node id="-372679" lat="58.1846444419" lon="7.17917777036">
		<tag k="name" v="Indre Leide" />
		<tag k="place" v="locality" />
		<tag k="ssr:stedsnr" v="203981" />
	</node>
	<node id="-373007" lat="58.1720750015" lon="6.93309166905">
		<tag k="name" v="Kringlemyra" />
		<tag k="natural" v="wetland" />
		<tag k="ssr:stedsnr" v="446468" />
	</node>
	<node id="-372676" lat="58.1489444416" lon="7.16407778313">
		<tag k="name" v="Myran" />
		<tag k="natural" v="wetland" />
		<tag k="ssr:stedsnr" v="203968" />
	</node>
	<node id="-372163" lat="58.1582777795" lon="7.15313611313">
		<tag k="name" v="Langemyra" />
		<tag k="natural" v="wetland" />
		<tag k="ssr:stedsnr" v="21946" />
	</node>
	<node id="-372674" lat="58.1501888933" lon="7.06640278205">
		<tag k="name" v="Vestregardsneset" />
		<tag k="place" v="locality" />
		<tag k="ssr:stedsnr" v="203915" />
	</node>
	<node id="-374207" lat="58.2789666655" lon="7.18799166598">
		<tag k="name" v="Fidjan" />
		<tag k="place" v="locality" />
		<tag k="ssr:stedsnr" v="871244" />
	</node>
	<node id="-372669" lat="58.0908222227" lon="7.06245833203">
		<tag k="name" v="Bjørnestølene" />
		<tag k="place" v="locality" />
		<tag k="ssr:stedsnr" v="203871" />
	</node>
	<node id="-374203" lat="58.1990250043" lon="7.16421389671">
		<tag k="name" v="Hatlesteinmyra" />
		<tag k="natural" v="wetland" />
		<tag k="ssr:stedsnr" v="871228" />
	</node>
	<node id="-373178" lat="58.1734527779" lon="6.89639166064">
		<tag k="name" v="Silkemyr" />
		<tag k="natural" v="wetland" />
		<tag k="ssr:stedsnr" v="506673" />
	</node>
	<node id="-374201" lat="58.21031111" lon="7.15818888752">
		<tag k="name" v="Torvmyra" />
		<tag k="natural" v="wetland" />
		<tag k="ssr:stedsnr" v="871212" />
	</node>
	<node id="-373688" lat="58.2360388846" lon="7.20231111153">
		<tag k="name" v="Steggjan" />
		<tag k="natural" v="wetland" />
		<tag k="ssr:stedsnr" v="689305" />
	</node>
	<node id="-373172" lat="58.2050611118" lon="7.22782777966">
		<tag k="name" v="Martineslåtta" />
		<tag k="natural" v="wetland" />
		<tag k="ssr:stedsnr" v="506612" />
	</node>
	<node id="-372147" lat="58.0532250003" lon="7.02060555494">
		<tag k="name" v="Jordeskogane" />
		<tag k="place" v="locality" />
		<tag k="ssr:stedsnr" v="21725" />
	</node>
	<node id="-372657" lat="58.1287027745" lon="7.02059166913">
		<tag k="name" v="Bukkesteinen" />
		<tag k="natural" v="stone" />
		<tag k="ssr:stedsnr" v="203761" />
	</node>
	<node id="-373167" lat="58.2420222251" lon="7.12505277493">
		<tag k="name" v="Dyblemyra" />
		<tag k="natural" v="wetland" />
		<tag k="ssr:stedsnr" v="506521" />
	</node>
	<node id="-373165" lat="58.1537083315" lon="6.93559721719">
		<tag k="name" v="Bresemyra" />
		<tag k="natural" v="wetland" />
		<tag k="ssr:stedsnr" v="506495" />
	</node>
	<node id="-373676" lat="58.251883329" lon="7.21037499752">
		<tag k="name" v="Stokkemyr" />
		<tag k="natural" v="wetland" />
		<tag k="ssr:stedsnr" v="689232" />
	</node>
	<node id="-372651" lat="58.0754055574" lon="7.01894166865">
		<tag k="name" v="Storamyra" />
		<tag k="place" v="locality" />
		<tag k="ssr:stedsnr" v="203714" />
	</node>
	<node id="-373162" lat="58.2184027774" lon="6.93256388251">
		<tag k="name" v="Steggan" />
		<tag k="place" v="locality" />
		<tag k="ssr:stedsnr" v="506465" />
	</node>
	<node id="-373673" lat="58.2230388924" lon="7.10782499362">
		<tag k="name" v="Veigjemyra" />
		<tag k="natural" v="wetland" />
		<tag k="ssr:stedsnr" v="689210" />
	</node>
	<node id="-373672" lat="58.219327778" lon="7.11049444331">
		<tag k="name" v="Kinnemyrdega" />
		<tag k="natural" v="wetland" />
		<tag k="ssr:stedsnr" v="689196" />
	</node>
	<node id="-373671" lat="58.2150722264" lon="7.10446944153">
		<tag k="name" v="Torvmyra" />
		<tag k="natural" v="wetland" />
		<tag k="ssr:stedsnr" v="689189" />
	</node>
	<node id="-373233" lat="58.1706166624" lon="7.1498499935">
		<tag k="name" v="Vintlandsmyrene" />
		<tag k="natural" v="wetland" />
		<tag k="ssr:stedsnr" v="507992" />
	</node>
	<node id="-372828" lat="58.2596611099" lon="7.20427221578">
		<tag k="name" v="Karten" />
		<tag k="natural" v="wetland" />
		<tag k="ssr:stedsnr" v="264585" />
	</node>
	<node id="-372638" lat="58.2076972186" lon="7.22029167112">
		<tag k="name" v="Perslåtta" />
		<tag k="natural" v="wetland" />
		<tag k="ssr:stedsnr" v="203613" />
	</node>
	<node id="-372637" lat="58.2572111143" lon="7.21564166807">
		<tag k="name" v="Lunden" />
		<tag k="place" v="locality" />
		<tag k="ssr:stedsnr" v="203609" />
	</node>
	<node id="-374172" lat="58.2062888853" lon="7.05564444487">
		<tag k="name" v="Hellermyra" />
		<tag k="natural" v="wetland" />
		<tag k="ssr:stedsnr" v="871010" />
	</node>
	<node id="-373145" lat="58.2329611156" lon="7.19876944643">
		<tag k="name" v="Skarmyr" />
		<tag k="place" v="locality" />
		<tag k="ssr:stedsnr" v="506312" />
	</node>
	<node id="-371697" lat="58.2667972239" lon="7.09916665947">
		<tag k="name" v="Dyblemyra" />
		<tag k="natural" v="wetland" />
		<tag k="ssr:stedsnr" v="324155" />
	</node>
	<node id="-372118" lat="58.2258861103" lon="6.92867222801">
		<tag k="name" v="Indrejordet" />
		<tag k="place" v="locality" />
		<tag k="ssr:stedsnr" v="21494" />
	</node>
	<node id="-372629" lat="58.1812805578" lon="7.21750277001">
		<tag k="name" v="Monen" />
		<tag k="natural" v="wetland" />
		<tag k="ssr:stedsnr" v="203556" />
	</node>
	<node id="-373648" lat="58.2152777814" lon="6.99333332986">
		<tag k="name" v="Langemyra" />
		<tag k="place" v="locality" />
		<tag k="ssr:stedsnr" v="689005" />
	</node>
	<node id="-373135" lat="58.2498777802" lon="7.20585832923">
		<tag k="name" v="Dyblemyra" />
		<tag k="natural" v="wetland" />
		<tag k="ssr:stedsnr" v="506223" />
	</node>
	<node id="-373134" lat="58.239133331" lon="7.20446667075">
		<tag k="name" v="Hjuringshusmyra" />
		<tag k="natural" v="wetland" />
		<tag k="ssr:stedsnr" v="506219" />
	</node>
	<node id="-373131" lat="58.219461109" lon="7.10466111342">
		<tag k="name" v="Valfaksstein" />
		<tag k="natural" v="stone" />
		<tag k="ssr:stedsnr" v="506190" />
	</node>
	<node id="-374541" lat="58.122618061" lon="7.03567846281">
		<tag k="name" v="Åsen" />
		<tag k="place" v="locality" />
		<tag k="ssr:stedsnr" v="979487" />
	</node>
	<node id="-373057" lat="58.2906833338" lon="7.17489167461">
		<tag k="name" v="Moltemyr" />
		<tag k="natural" v="wetland" />
		<tag k="ssr:stedsnr" v="447225" />
	</node>
	<node id="-372097" lat="58.2294888877" lon="7.16446388086">
		<tag k="name" v="Revsteinen" />
		<tag k="natural" v="stone" />
		<tag k="ssr:stedsnr" v="21325" />
	</node>
	<node id="-372096" lat="58.2348444412" lon="7.21697499175">
		<tag k="name" v="Ulsmyra" />
		<tag k="natural" v="wetland" />
		<tag k="ssr:stedsnr" v="21321" />
	</node>
	<node id="-373056" lat="58.2891666688" lon="7.16770554971">
		<tag k="name" v="Jøtnemyr" />
		<tag k="natural" v="wetland" />
		<tag k="ssr:stedsnr" v="447223" />
	</node>
	<node id="-372606" lat="58.1466000026" lon="7.22766666984">
		<tag k="name" v="Såddemyra" />
		<tag k="natural" v="wetland" />
		<tag k="ssr:stedsnr" v="203371" />
	</node>
	<node id="-372605" lat="58.2715555571" lon="7.2326499954">
		<tag k="name" v="Hepteslåtta" />
		<tag k="natural" v="wetland" />
		<tag k="ssr:stedsnr" v="203359" />
	</node>
	<node id="-372403" lat="58.2772888913" lon="7.08063333424">
		<tag k="name" v="Stakksmyra" />
		<tag k="natural" v="wetland" />
		<tag k="ssr:stedsnr" v="142163" />
	</node>
	<node id="-371690" lat="58.1978722243" lon="7.11941666683">
		<tag k="name" v="Laksesteinen" />
		<tag k="natural" v="stone" />
		<tag k="ssr:stedsnr" v="324101" />
	</node>
	<node id="-373114" lat="58.2192055595" lon="7.0026861163">
		<tag k="name" v="Slåttene" />
		<tag k="natural" v="wetland" />
		<tag k="ssr:stedsnr" v="506064" />
	</node>
	<node id="-372600" lat="58.2374416709" lon="7.08838888448">
		<tag k="name" v="Langemyran" />
		<tag k="natural" v="wetland" />
		<tag k="ssr:stedsnr" v="204456" />
	</node>
	<node id="-373110" lat="58.2110805597" lon="7.07553889602">
		<tag k="name" v="Dyblemyra" />
		<tag k="natural" v="wetland" />
		<tag k="ssr:stedsnr" v="506005" />
	</node>
	<node id="-372597" lat="58.202205556" lon="7.14779443627">
		<tag k="name" v="Gråkodna" />
		<tag k="natural" v="wetland" />
		<tag k="ssr:stedsnr" v="203285" />
	</node>
	<node id="-371764" lat="58.2681138879" lon="7.15742223078">
		<tag k="name" v="Torvemyra" />
		<tag k="natural" v="wetland" />
		<tag k="ssr:stedsnr" v="324551" />
	</node>
	<node id="-374131" lat="58.1470111127" lon="7.17353332502">
		<tag k="name" v="Skarkleivmyra" />
		<tag k="natural" v="wetland" />
		<tag k="ssr:stedsnr" v="811893" />
	</node>
	<node id="-372082" lat="58.2057833311" lon="7.16473055891">
		<tag k="name" v="Langemyr" />
		<tag k="natural" v="wetland" />
		<tag k="ssr:stedsnr" v="21256" />
	</node>
	<node id="-371859" lat="58.2271833341" lon="7.11111667112">
		<tag k="name" v="Hagemyr" />
		<tag k="natural" v="wetland" />
		<tag k="ssr:stedsnr" v="385186" />
	</node>
	<node id="-372078" lat="58.2188111121" lon="7.10512778204">
		<tag k="name" v="Valfarmyra" />
		<tag k="natural" v="wetland" />
		<tag k="ssr:stedsnr" v="21215" />
	</node>
	<node id="-374124" lat="58.240277775" lon="7.10387499744">
		<tag k="name" v="Nedre Slåttemyr" />
		<tag k="natural" v="wetland" />
		<tag k="ssr:stedsnr" v="811494" />
	</node>
	<node id="-371755" lat="58.140455555" lon="7.12646110991">
		<tag k="name" v="Kråkemyr" />
		<tag k="natural" v="wetland" />
		<tag k="ssr:stedsnr" v="324438" />
	</node>
	<node id="-373656" lat="58.2197777763" lon="7.00685834001">
		<tag k="name" v="Tremyra" />
		<tag k="natural" v="wetland" />
		<tag k="ssr:stedsnr" v="689062" />
	</node>
	<node id="-372831" lat="58.1907333368" lon="7.21946388492">
		<tag k="name" v="Karimyra" />
		<tag k="natural" v="wetland" />
		<tag k="ssr:stedsnr" v="264597" />
	</node>
	<node id="-372667" lat="58.0962666652" lon="7.12209445036">
		<tag k="name" v="Mydlandskogane" />
		<tag k="place" v="locality" />
		<tag k="ssr:stedsnr" v="203857" />
	</node>
	<node id="-373392" lat="58.2200777737" lon="7.16428055567">
		<tag k="name" v="Bjønnskjerr" />
		<tag k="natural" v="wetland" />
		<tag k="ssr:stedsnr" v="568292" />
	</node>
	<node id="-372574" lat="58.2109000003" lon="7.00014999669">
		<tag k="name" v="Langåsjordet" />
		<tag k="place" v="locality" />
		<tag k="ssr:stedsnr" v="203050" />
	</node>
	<node id="-373597" lat="58.140344442" lon="6.97674165981">
		<tag k="name" v="Sletåsmyra" />
		<tag k="natural" v="wetland" />
		<tag k="ssr:stedsnr" v="648579" />
	</node>
	<node id="-374107" lat="58.1590888916" lon="7.08437500456">
		<tag k="name" v="Katteneset" />
		<tag k="place" v="locality" />
		<tag k="ssr:stedsnr" v="810862" />
	</node>
	<node id="-374104" lat="58.109008336" lon="7.11704999986">
		<tag k="name" v="Langamyra" />
		<tag k="natural" v="wetland" />
		<tag k="ssr:stedsnr" v="810841" />
	</node>
	<node id="-372055" lat="58.198130554" lon="7.0389499987">
		<tag k="landuse" v="meadow" />
		<tag k="name" v="Øvre jordet" />
		<tag k="ssr:stedsnr" v="21027" />
	</node>
	<node id="-373305" lat="58.2057027808" lon="7.16874999961">
		<tag k="name" v="Videmyra" />
		<tag k="natural" v="wetland" />
		<tag k="ssr:stedsnr" v="567228" />
	</node>
	<node id="-372155" lat="58.106297223" lon="7.13268611751">
		<tag k="name" v="Bjørnmyra" />
		<tag k="natural" v="wetland" />
		<tag k="ssr:stedsnr" v="21816" />
	</node>
	<node id="-372560" lat="58.1990361125" lon="7.13390834141">
		<tag k="name" v="Kråkestein" />
		<tag k="natural" v="stone" />
		<tag k="ssr:stedsnr" v="203121" />
	</node>
	<node id="-371768" lat="58.1957083372" lon="7.23481110285">
		<tag k="name" v="Lasseslåtta" />
		<tag k="natural" v="wetland" />
		<tag k="ssr:stedsnr" v="324607" />
	</node>
	<node id="-373580" lat="58.1506111116" lon="7.14228332989">
		<tag k="name" v="Plassen" />
		<tag k="natural" v="wetland" />
		<tag k="ssr:stedsnr" v="628933" />
	</node>
	<node id="-373067" lat="58.1527083365" lon="7.18181945276">
		<tag k="name" v="Litletjønnmyra" />
		<tag k="natural" v="wetland" />
		<tag k="ssr:stedsnr" v="447899" />
	</node>
	<node id="-374601" lat="58.2536623753" lon="7.08700905017">
		<tag k="name" v="Ravnåsen" />
		<tag k="place" v="locality" />
		<tag k="ssr:stedsnr" v="979590" />
	</node>
	<node id="-372632" lat="58.2660833295" lon="7.18019722283">
		<tag k="name" v="Lidalsmyra" />
		<tag k="natural" v="wetland" />
		<tag k="ssr:stedsnr" v="203579" />
	</node>
	<node id="-374086" lat="58.1449722216" lon="6.9119472191">
		<tag k="name" v="Skrelimyra" />
		<tag k="natural" v="wetland" />
		<tag k="ssr:stedsnr" v="810692" />
	</node>
	<node id="-374085" lat="58.0815722191" lon="6.99431666805">
		<tag k="name" v="Langemyr" />
		<tag k="natural" v="wetland" />
		<tag k="ssr:stedsnr" v="810675" />
	</node>
	<node id="-374084" lat="58.1570944417" lon="6.91152777046">
		<tag k="name" v="Breikjerr" />
		<tag k="natural" v="wetland" />
		<tag k="ssr:stedsnr" v="810665" />
	</node>
	<node id="-373570" lat="58.1892277743" lon="7.19509722153">
		<tag k="name" v="Finnvollen" />
		<tag k="place" v="locality" />
		<tag k="ssr:stedsnr" v="628538" />
	</node>
	<node id="-374081" lat="58.2429333376" lon="7.22390554914">
		<tag k="name" v="Bumyra" />
		<tag k="natural" v="wetland" />
		<tag k="ssr:stedsnr" v="810626" />
	</node>
	<node id="-374080" lat="58.2605944431" lon="7.16504167044">
		<tag k="name" v="Orremyra" />
		<tag k="natural" v="wetland" />
		<tag k="ssr:stedsnr" v="810591" />
	</node>
	<node id="-374079" lat="58.2476694464" lon="7.10400000665">
		<tag k="name" v="Storamyra" />
		<tag k="place" v="locality" />
		<tag k="ssr:stedsnr" v="810500" />
	</node>
	<node id="-374590" lat="58.1676601687" lon="7.14296706111">
		<tag k="name" v="Lille Bjodland" />
		<tag k="place" v="locality" />
		<tag k="ssr:stedsnr" v="979555" />
	</node>
	<node id="-372277" lat="58.2725361145" lon="7.24476945192">
		<tag k="name" v="Sothammerkarten" />
		<tag k="natural" v="wetland" />
		<tag k="ssr:stedsnr" v="82318" />
	</node>
	<node id="-373564" lat="58.1399222199" lon="7.19831389602">
		<tag k="name" v="Storemyr" />
		<tag k="natural" v="wetland" />
		<tag k="ssr:stedsnr" v="628410" />
	</node>
	<node id="-372768" lat="58.221991669" lon="7.13880554969">
		<tag k="name" v="Blomrivollen" />
		<tag k="place" v="locality" />
		<tag k="ssr:stedsnr" v="264175" />
	</node>
	<node id="-374073" lat="58.2181666691" lon="6.94319721498">
		<tag k="name" v="Kjerkevollen" />
		<tag k="place" v="locality" />
		<tag k="ssr:stedsnr" v="810462" />
	</node>
	<node id="-373559" lat="58.2964722242" lon="7.20482499575">
		<tag k="name" v="Gysura" />
		<tag k="natural" v="scree" />
		<tag k="ssr:stedsnr" v="628352" />
	</node>
	<node id="-373470" lat="58.23115278" lon="7.18897222333">
		<tag k="name" v="Tuemyra" />
		<tag k="natural" v="wetland" />
		<tag k="ssr:stedsnr" v="627336" />
	</node>
	<node id="-374578" lat="58.1184931854" lon="7.0707574752">
		<tag k="name" v="Heien" />
		<tag k="place" v="locality" />
		<tag k="ssr:stedsnr" v="979540" />
	</node>
	<node id="-373039" lat="58.0961499993" lon="7.0091805512">
		<tag k="name" v="Brørsteinen" />
		<tag k="natural" v="stone" />
		<tag k="ssr:stedsnr" v="446745" />
	</node>
	<node id="-373038" lat="58.0463611109" lon="6.99473056222">
		<tag k="name" v="Dyblemyra" />
		<tag k="natural" v="wetland" />
		<tag k="ssr:stedsnr" v="446739" />
	</node>
	<node id="-374061" lat="58.1722194403" lon="7.04761389558">
		<tag k="name" v="Støvlemyra" />
		<tag k="natural" v="wetland" />
		<tag k="ssr:stedsnr" v="810387" />
	</node>
	<node id="-373545" lat="58.2073916661" lon="7.00663888422">
		<tag k="name" v="Steggemyra" />
		<tag k="natural" v="wetland" />
		<tag k="ssr:stedsnr" v="628034" />
	</node>
	<node id="-372517" lat="58.1536916633" lon="7.18099721713">
		<tag k="name" v="Moltemyra" />
		<tag k="natural" v="wetland" />
		<tag k="ssr:stedsnr" v="143902" />
	</node>
	<node id="-374052" lat="58.2615500023" lon="7.2568277712">
		<tag k="name" v="Undalsmyra" />
		<tag k="natural" v="wetland" />
		<tag k="ssr:stedsnr" v="810326" />
	</node>
	<node id="-373027" lat="58.2241027746" lon="7.23080833456">
		<tag k="name" v="Åsemyra" />
		<tag k="natural" v="wetland" />
		<tag k="ssr:stedsnr" v="446647" />
	</node>
	<node id="-372514" lat="58.1920111132" lon="7.20673055054">
		<tag k="name" v="Krossmyra" />
		<tag k="natural" v="wetland" />
		<tag k="ssr:stedsnr" v="143542" />
	</node>
	<node id="-371675" lat="58.1288555547" lon="7.21268610938">
		<tag k="name" v="Langemyr" />
		<tag k="natural" v="wetland" />
		<tag k="ssr:stedsnr" v="324423" />
	</node>
	<node id="-372512" lat="58.2005166628" lon="7.19624167268">
		<tag k="name" v="Dyblemyra" />
		<tag k="natural" v="wetland" />
		<tag k="ssr:stedsnr" v="143531" />
	</node>
	<node id="-372511" lat="58.1643222249" lon="7.20563888761">
		<tag k="name" v="Sauemyra" />
		<tag k="natural" v="wetland" />
		<tag k="ssr:stedsnr" v="143517" />
	</node>
	<node id="-374558" lat="58.239514945" lon="7.01770260928">
		<tag k="name" v="Slåtten" />
		<tag k="place" v="locality" />
		<tag k="ssr:stedsnr" v="979512" />
	</node>
	<node id="-372101" lat="58.2561861135" lon="7.22088056156">
		<tag k="name" v="Kyrkjemyra" />
		<tag k="natural" v="wetland" />
		<tag k="ssr:stedsnr" v="21337" />
	</node>
	<node id="-373020" lat="58.2584222207" lon="7.14805277168">
		<tag k="name" v="Videmyran" />
		<tag k="natural" v="wetland" />
		<tag k="ssr:stedsnr" v="446593" />
	</node>
	<node id="-374555" lat="58.2270203608" lon="6.94399998446">
		<tag k="name" v="Botne" />
		<tag k="place" v="locality" />
		<tag k="ssr:stedsnr" v="979508" />
	</node>
	<node id="-373528" lat="58.1070972193" lon="7.1344833386">
		<tag k="name" v="Stemyra" />
		<tag k="natural" v="wetland" />
		<tag k="ssr:stedsnr" v="627839" />
	</node>
	<node id="-374038" lat="58.2013333324" lon="7.17830555301">
		<tag k="name" v="Hestekjerran" />
		<tag k="natural" v="wetland" />
		<tag k="ssr:stedsnr" v="810259" />
	</node>
	<node id="-372602" lat="58.1560249971" lon="7.20702221768">
		<tag k="name" v="Døblemyra" />
		<tag k="natural" v="wetland" />
		<tag k="ssr:stedsnr" v="204476" />
	</node>
	<node id="-372903" lat="58.149927778" lon="7.02179166465">
		<tag k="name" v="Brånemyr" />
		<tag k="natural" v="wetland" />
		<tag k="ssr:stedsnr" v="424474" />
	</node>
	<node id="-373009" lat="58.1808999975" lon="6.99635833708">
		<tag k="name" v="Birkestislåtten" />
		<tag k="place" v="locality" />
		<tag k="ssr:stedsnr" v="446475" />
	</node>
	<node id="-373008" lat="58.1720166628" lon="6.92674443675">
		<tag k="name" v="Homsmyra" />
		<tag k="natural" v="wetland" />
		<tag k="ssr:stedsnr" v="446470" />
	</node>
	<node id="-372495" lat="58.0884833339" lon="7.12996389681">
		<tag k="name" v="Ryggsmyra" />
		<tag k="natural" v="wetland" />
		<tag k="ssr:stedsnr" v="142855" />
	</node>
	<node id="-374542" lat="58.1232651248" lon="7.01504749585">
		<tag k="name" v="Spinderåsen" />
		<tag k="place" v="locality" />
		<tag k="ssr:stedsnr" v="979488" />
	</node>
	<node id="-371981" lat="58.1950499996" lon="7.21410278126">
		<tag k="historic" v="shieling" />
		<tag k="name" v="Heistøl" />
		<tag k="place" v="locality" />
		<tag k="ssr:stedsnr" v="386528" />
	</node>
	<node id="-373005" lat="58.2279833339" lon="6.9601694479">
		<tag k="name" v="Viemyran" />
		<tag k="natural" v="wetland" />
		<tag k="ssr:stedsnr" v="446455" />
	</node>
	<node id="-372488" lat="58.1512666642" lon="7.07165554944">
		<tag k="name" v="Østregardsneset" />
		<tag k="place" v="locality" />
		<tag k="ssr:stedsnr" v="142909" />
	</node>
	<node id="-371756" lat="58.2240583342" lon="6.93584166135">
		<tag k="name" v="Kringlemyra" />
		<tag k="natural" v="wetland" />
		<tag k="ssr:stedsnr" v="324459" />
	</node>
	<node id="-371641" lat="58.0850944418" lon="7.11742777885">
		<tag k="name" v="Vass-slåtta" />
		<tag k="natural" v="wetland" />
		<tag k="ssr:stedsnr" v="293881" />
	</node>
	<node id="-374533" lat="58.0873058382" lon="7.06635347967">
		<tag k="name" v="Indre Skogen" />
		<tag k="place" v="locality" />
		<tag k="ssr:stedsnr" v="979472" />
	</node>
	<node id="-374532" lat="58.0848528224" lon="7.06229972048">
		<tag k="name" v="Nedre Skogen" />
		<tag k="place" v="locality" />
		<tag k="ssr:stedsnr" v="979471" />
	</node>
	<node id="-373206" lat="58.2806805515" lon="7.18171110597">
		<tag k="name" v="Ørnesteinen" />
		<tag k="natural" v="stone" />
		<tag k="ssr:stedsnr" v="507242" />
	</node>
	<node id="-374431" lat="58.2653777801" lon="7.17585833155">
		<tag k="name" v="Rudjordsmyra" />
		<tag k="natural" v="wetland" />
		<tag k="ssr:stedsnr" v="931589" />
	</node>
	<node id="-373505" lat="58.0805888859" lon="6.99113055304">
		<tag k="name" v="Legemyra" />
		<tag k="natural" v="wetland" />
		<tag k="ssr:stedsnr" v="627689" />
	</node>
	<node id="-372767" lat="58.2143666706" lon="7.13164445162">
		<tag k="name" v="Karsmyra" />
		<tag k="natural" v="wetland" />
		<tag k="ssr:stedsnr" v="264166" />
	</node>
	<node id="-371962" lat="58.086049996" lon="7.12390276998">
		<tag k="name" v="Fladstadskogane" />
		<tag k="place" v="locality" />
		<tag k="ssr:stedsnr" v="385846" />
	</node>
	<node id="-374009" lat="58.2094388932" lon="7.08821389263">
		<tag k="name" v="Torvmyra" />
		<tag k="natural" v="wetland" />
		<tag k="ssr:stedsnr" v="810043" />
	</node>
	<node id="-372472" lat="58.2289694485" lon="7.22073889536">
		<tag k="name" v="Djupemyr" />
		<tag k="natural" v="wetland" />
		<tag k="ssr:stedsnr" v="142634" />
	</node>
	<node id="-371924" lat="58.2171166709" lon="6.93158611362">
		<tag k="name" v="Rørkjerran" />
		<tag k="place" v="locality" />
		<tag k="ssr:stedsnr" v="385463" />
	</node>
	<node id="-374006" lat="58.2067861088" lon="7.06723333019">
		<tag k="name" v="Storemyr" />
		<tag k="natural" v="wetland" />
		<tag k="ssr:stedsnr" v="810009" />
	</node>
	<node id="-372521" lat="58.1554694431" lon="7.16405278445">
		<tag k="name" v="Dugan" />
		<tag k="natural" v="wetland" />
		<tag k="ssr:stedsnr" v="143957" />
	</node>
	<node id="-372467" lat="58.2692194448" lon="7.14470555611">
		<tag k="name" v="Fugleslåtta" />
		<tag k="natural" v="wetland" />
		<tag k="ssr:stedsnr" v="142544" />
	</node>
	<node id="-373487" lat="58.1910611072" lon="6.99520556419">
		<tag k="name" v="Nedrejordet" />
		<tag k="place" v="locality" />
		<tag k="ssr:stedsnr" v="627488" />
	</node>
	<node id="-373485" lat="58.2184722227" lon="6.96380832939">
		<tag k="name" v="Dyblemyra" />
		<tag k="natural" v="wetland" />
		<tag k="ssr:stedsnr" v="627484" />
	</node>
	<node id="-372794" lat="58.2836388847" lon="7.24682777034">
		<tag k="name" v="Slåttemyra" />
		<tag k="natural" v="wetland" />
		<tag k="ssr:stedsnr" v="264326" />
	</node>
	<node id="-372970" lat="58.2533111071" lon="7.14501666305">
		<tag k="name" v="Vænerslåtta" />
		<tag k="natural" v="wetland" />
		<tag k="ssr:stedsnr" v="446244" />
	</node>
	<node id="-372969" lat="58.2522416633" lon="7.15491111127">
		<tag k="name" v="Stakkedalsmyra" />
		<tag k="natural" v="wetland" />
		<tag k="ssr:stedsnr" v="446241" />
	</node>
	<node id="-372968" lat="58.2469583343" lon="7.14619166935">
		<tag k="name" v="Torvemyra" />
		<tag k="natural" v="wetland" />
		<tag k="ssr:stedsnr" v="446239" />
	</node>
	<node id="-372455" lat="58.2559861151" lon="7.1528472203">
		<tag k="name" v="Moismyran" />
		<tag k="natural" v="wetland" />
		<tag k="ssr:stedsnr" v="142574" />
	</node>
	<node id="-372433" lat="58.1264805537" lon="7.20463333011">
		<tag k="name" v="Djupemyra" />
		<tag k="natural" v="wetland" />
		<tag k="ssr:stedsnr" v="142403" />
	</node>
	<node id="-373476" lat="58.184552777" lon="7.06177221744">
		<tag k="name" v="Lislåtta" />
		<tag k="place" v="locality" />
		<tag k="ssr:stedsnr" v="627432" />
	</node>
	<node id="-372451" lat="58.2574555542" lon="7.15190278112">
		<tag k="name" v="Gertrudslåtta" />
		<tag k="natural" v="wetland" />
		<tag k="ssr:stedsnr" v="142563" />
	</node>
	<node id="-371938" lat="58.1479111141" lon="6.90877777742">
		<tag k="name" v="Sekstanfeda" />
		<tag k="place" v="locality" />
		<tag k="ssr:stedsnr" v="385669" />
	</node>
	<node id="-372961" lat="58.2769388863" lon="7.13539166341">
		<tag k="name" v="Sterketjønnmyra" />
		<tag k="natural" v="wetland" />
		<tag k="ssr:stedsnr" v="446186" />
	</node>
	<node id="-374496" lat="58.2365555572" lon="7.09897778213">
		<tag k="name" v="Gummerliura" />
		<tag k="natural" v="scree" />
		<tag k="ssr:stedsnr" v="932502" />
	</node>
	<node id="-372176" lat="58.1589277739" lon="7.20689444584">
		<tag k="name" v="Orrekjerr" />
		<tag k="natural" v="wetland" />
		<tag k="ssr:stedsnr" v="22517" />
	</node>
	<node id="-372446" lat="58.1878250011" lon="7.11233888728">
		<tag k="name" v="Lømonen" />
		<tag k="place" v="locality" />
		<tag k="ssr:stedsnr" v="142380" />
	</node>
	<node id="-373532" lat="58.0945277761" lon="7.08901944358">
		<tag k="name" v="Gartmyra" />
		<tag k="natural" v="wetland" />
		<tag k="ssr:stedsnr" v="627863" />
	</node>
	<node id="-373549" lat="58.2273083375" lon="7.08340834056">
		<tag k="name" v="Silkemyr" />
		<tag k="natural" v="wetland" />
		<tag k="ssr:stedsnr" v="628065" />
	</node>
	<node id="-371929" lat="58.0510416652" lon="7.02439443958">
		<tag k="name" v="Langemyr" />
		<tag k="natural" v="wetland" />
		<tag k="ssr:stedsnr" v="385731" />
	</node>
	<node id="-372439" lat="58.1637944413" lon="7.12325832926">
		<tag k="name" v="Orreskjelda" />
		<tag k="natural" v="wetland" />
		<tag k="ssr:stedsnr" v="142423" />
	</node>
	<node id="-374486" lat="58.2745055562" lon="7.22273055302">
		<tag k="name" v="Kvåsvardemyra" />
		<tag k="natural" v="wetland" />
		<tag k="ssr:stedsnr" v="932330" />
	</node>
	<node id="-373460" lat="58.2006027746" lon="7.17835555176">
		<tag k="name" v="Skrubbesteinen" />
		<tag k="natural" v="stone" />
		<tag k="ssr:stedsnr" v="627275" />
	</node>
	<node id="-374483" lat="58.2115944431" lon="7.20263056082">
		<tag k="name" v="Indre Jordet" />
		<tag k="natural" v="wetland" />
		<tag k="ssr:stedsnr" v="932277" />
	</node>
	<node id="-373458" lat="58.1948444431" lon="7.19150000699">
		<tag k="name" v="Stormyr" />
		<tag k="natural" v="wetland" />
		<tag k="ssr:stedsnr" v="627265" />
	</node>
	<node id="-374481" lat="58.2271249957" lon="7.21251944547">
		<tag k="name" v="Torvmyra" />
		<tag k="natural" v="wetland" />
		<tag k="ssr:stedsnr" v="932267" />
	</node>
	<node id="-372409" lat="58.1919083327" lon="7.09288055837">
		<tag k="name" v="Karsmyra" />
		<tag k="natural" v="wetland" />
		<tag k="ssr:stedsnr" v="142137" />
	</node>
	<node id="-371919" lat="58.2570083319" lon="7.26653888588">
		<tag k="name" v="Maurslåta" />
		<tag k="natural" v="wetland" />
		<tag k="ssr:stedsnr" v="385435" />
	</node>
	<node id="-372986" lat="58.2320249977" lon="7.18500000564">
		<tag k="name" v="Jonsokmyra" />
		<tag k="natural" v="wetland" />
		<tag k="ssr:stedsnr" v="446333" />
	</node>
	<node id="-374477" lat="58.2003833298" lon="7.11282221438">
		<tag k="name" v="Stormyra" />
		<tag k="natural" v="wetland" />
		<tag k="ssr:stedsnr" v="932110" />
	</node>
	<node id="-373026" lat="58.2415277772" lon="7.22031666114">
		<tag k="name" v="Torvemyra" />
		<tag k="natural" v="wetland" />
		<tag k="ssr:stedsnr" v="446640" />
	</node>
	<node id="-372425" lat="58.2738694438" lon="7.26503054789">
		<tag k="name" v="Storemyr" />
		<tag k="natural" v="wetland" />
		<tag k="ssr:stedsnr" v="142329" />
	</node>
	<node id="-372423" lat="58.2659583352" lon="7.25172777823">
		<tag k="name" v="Byttingsmyr" />
		<tag k="natural" v="wetland" />
		<tag k="ssr:stedsnr" v="142325" />
	</node>
	<node id="-371909" lat="58.1774750022" lon="7.03352778319">
		<tag k="name" v="Skandrunsmyran" />
		<tag k="natural" v="wetland" />
		<tag k="ssr:stedsnr" v="385393" />
	</node>
	<node id="-371707" lat="58.2074722225" lon="7.15735278385">
		<tag k="name" v="Venamyr" />
		<tag k="natural" v="wetland" />
		<tag k="ssr:stedsnr" v="324235" />
	</node>
	<node id="-374465" lat="58.048097222" lon="7.03436667498">
		<tag k="name" v="Hundingslandsskogene" />
		<tag k="place" v="locality" />
		<tag k="ssr:stedsnr" v="931865" />
	</node>
	<node id="-374560" lat="58.2249074915" lon="7.0416912448">
		<tag k="name" v="Spjotsodden" />
		<tag k="place" v="locality" />
		<tag k="ssr:stedsnr" v="979514" />
	</node>
	<node id="-372414" lat="58.2465388883" lon="7.16376666742">
		<tag k="name" v="Dyblemyra" />
		<tag k="natural" v="wetland" />
		<tag k="ssr:stedsnr" v="142222" />
	</node>
	<node id="-374497" lat="58.1663138871" lon="7.20955833955">
		<tag k="name" v="Rinnemyra" />
		<tag k="natural" v="wetland" />
		<tag k="ssr:stedsnr" v="932503" />
	</node>
	<node id="-372682" lat="58.2300833294" lon="7.19829999809">
		<tag k="name" v="Skarmyra" />
		<tag k="natural" v="wetland" />
		<tag k="ssr:stedsnr" v="204230" />
	</node>
	<node id="-372410" lat="58.2483305577" lon="7.07766944475">
		<tag k="name" v="Moltemyra" />
		<tag k="natural" v="wetland" />
		<tag k="ssr:stedsnr" v="142148" />
	</node>
	<node id="-373945" lat="58.2412222229" lon="7.09604166998">
		<tag k="name" v="Hengelimyra" />
		<tag k="natural" v="wetland" />
		<tag k="ssr:stedsnr" v="750490" />
	</node>
	<node id="-373944" lat="58.2414055524" lon="7.0914611195">
		<tag k="name" v="Stakkstongmyra" />
		<tag k="natural" v="wetland" />
		<tag k="ssr:stedsnr" v="750488" />
	</node>
	<node id="-372406" lat="58.2090027743" lon="7.10980834082">
		<tag k="name" v="Kaldskarmyra" />
		<tag k="natural" v="wetland" />
		<tag k="ssr:stedsnr" v="142037" />
	</node>
	<node id="-371891" lat="58.0044527816" lon="6.99336389224">
		<tag k="name" v="Bringebærura" />
		<tag k="natural" v="scree" />
		<tag k="ssr:stedsnr" v="385281" />
	</node>
	<node id="-373935" lat="58.1444583337" lon="7.04195278556">
		<tag k="name" v="Årnesmoen" />
		<tag k="place" v="locality" />
		<tag k="ssr:stedsnr" v="749908" />
	</node>
	<node id="-373934" lat="58.1341666626" lon="7.04838333769">
		<tag k="name" v="Galgemyra" />
		<tag k="place" v="locality" />
		<tag k="ssr:stedsnr" v="749900" />
	</node>
	<node id="-373932" lat="58.0947527803" lon="7.07878611693">
		<tag k="name" v="Krossegra" />
		<tag k="place" v="locality" />
		<tag k="ssr:stedsnr" v="749883" />
	</node>
	<node id="-374443" lat="58.1562916672" lon="6.89155000207">
		<tag k="name" v="Monemyra" />
		<tag k="natural" v="wetland" />
		<tag k="ssr:stedsnr" v="931689" />
	</node>
	<node id="-371881" lat="58.2386055558" lon="7.21190278194">
		<tag k="name" v="Småmyran" />
		<tag k="natural" v="wetland" />
		<tag k="ssr:stedsnr" v="385222" />
	</node>
	<node id="-373928" lat="58.1170361154" lon="7.09229999896">
		<tag k="name" v="Myra" />
		<tag k="place" v="locality" />
		<tag k="ssr:stedsnr" v="749844" />
	</node>
	<node id="-374439" lat="58.237338885" lon="7.22438889401">
		<tag k="name" v="Stemvassmyra" />
		<tag k="natural" v="wetland" />
		<tag k="ssr:stedsnr" v="931646" />
	</node>
	<node id="-374435" lat="58.2058138844" lon="7.21957499968">
		<tag k="name" v="Pyttemyr" />
		<tag k="natural" v="wetland" />
		<tag k="ssr:stedsnr" v="931626" />
	</node>
	<node id="-371873" lat="58.2363027783" lon="7.2114861121">
		<tag k="name" v="Slåttemyra" />
		<tag k="natural" v="wetland" />
		<tag k="ssr:stedsnr" v="385311" />
	</node>
	<node id="-374432" lat="58.2619249972" lon="7.15051111343">
		<tag k="name" v="Skaremyra" />
		<tag k="natural" v="wetland" />
		<tag k="ssr:stedsnr" v="931604" />
	</node>
	<node id="-373063" lat="58.1531861137" lon="7.21241666463">
		<tag k="name" v="Torvmyra" />
		<tag k="natural" v="wetland" />
		<tag k="ssr:stedsnr" v="447500" />
	</node>
	<node id="-374430" lat="58.2705388865" lon="7.15377778317">
		<tag k="name" v="Hellerheimyra" />
		<tag k="natural" v="wetland" />
		<tag k="ssr:stedsnr" v="931583" />
	</node>
	<node id="-373917" lat="58.0427111066" lon="7.02468888498">
		<tag k="landuse" v="meadow" />
		<tag k="name" v="Pilåkeren" />
		<tag k="ssr:stedsnr" v="749743" />
	</node>
	<node id="-372762" lat="58.2779833318" lon="7.10798889165">
		<tag k="name" v="Skydalsmyra" />
		<tag k="natural" v="wetland" />
		<tag k="ssr:stedsnr" v="264145" />
	</node>
	<node id="-373396" lat="58.3120333312" lon="7.21170278187">
		<tag k="name" v="Stedjan" />
		<tag k="natural" v="wetland" />
		<tag k="ssr:stedsnr" v="568383" />
	</node>
	<node id="-373907" lat="58.2223055544" lon="7.19949166605">
		<tag k="name" v="Slåttemyra" />
		<tag k="natural" v="wetland" />
		<tag k="ssr:stedsnr" v="750240" />
	</node>
	<node id="-373905" lat="58.2232138898" lon="7.15265000824">
		<tag k="name" v="Slåttan" />
		<tag k="place" v="locality" />
		<tag k="ssr:stedsnr" v="750233" />
	</node>
	<node id="-373904" lat="58.2814472244" lon="7.17335832583">
		<tag k="name" v="Leitingsmyr" />
		<tag k="natural" v="wetland" />
		<tag k="ssr:stedsnr" v="750226" />
	</node>
	<node id="-372879" lat="58.2898805526" lon="7.19141389201">
		<tag k="name" v="Halevollen" />
		<tag k="place" v="locality" />
		<tag k="ssr:stedsnr" v="265270" />
	</node>
	<node id="-371995" lat="58.1449999988" lon="6.97737778581">
		<tag k="name" v="Høystakkmyra" />
		<tag k="natural" v="wetland" />
		<tag k="ssr:stedsnr" v="406565" />
	</node>
	<node id="-372876" lat="58.2041194464" lon="6.95857500171">
		<tag k="name" v="Surtemyra" />
		<tag k="natural" v="wetland" />
		<tag k="ssr:stedsnr" v="264984" />
	</node>
	<node id="-373387" lat="58.1993583322" lon="6.97377499162">
		<tag k="name" v="Birkelandsmyra" />
		<tag k="place" v="locality" />
		<tag k="ssr:stedsnr" v="567985" />
	</node>
	<node id="-372588" lat="58.2677055585" lon="7.2529027811">
		<tag k="name" v="Torvmyra" />
		<tag k="natural" v="wetland" />
		<tag k="ssr:stedsnr" v="203345" />
	</node>
	<node id="-373382" lat="58.0786861151" lon="7.14618333045">
		<tag k="name" v="Linnekjerret" />
		<tag k="natural" v="wetland" />
		<tag k="ssr:stedsnr" v="567890" />
	</node>
	<node id="-373381" lat="58.0956500002" lon="7.13405832741">
		<tag k="name" v="Leksbøskogane" />
		<tag k="place" v="locality" />
		<tag k="ssr:stedsnr" v="567875" />
	</node>
	<node id="-372867" lat="58.0814444411" lon="7.1379138908">
		<tag k="name" v="Trettura" />
		<tag k="natural" v="scree" />
		<tag k="ssr:stedsnr" v="264876" />
	</node>
	<node id="-372865" lat="58.1107833304" lon="7.09745555083">
		<tag k="name" v="Torvmyra" />
		<tag k="natural" v="wetland" />
		<tag k="ssr:stedsnr" v="264847" />
	</node>
	<node id="-372350" lat="58.194361115" lon="7.2172694506">
		<tag k="name" v="Kjegemyr" />
		<tag k="natural" v="wetland" />
		<tag k="ssr:stedsnr" v="83532" />
	</node>
	<node id="-374397" lat="58.2119583358" lon="7.05893055017">
		<tag k="name" v="Slåttemyra" />
		<tag k="natural" v="wetland" />
		<tag k="ssr:stedsnr" v="932012" />
	</node>
	<node id="-372860" lat="58.0814111106" lon="7.09820000178">
		<tag k="name" v="Fenan" />
		<tag k="natural" v="wetland" />
		<tag k="ssr:stedsnr" v="264811" />
	</node>
	<node id="-374395" lat="58.2729972261" lon="7.13695555943">
		<tag k="name" v="Samlingslåtta" />
		<tag k="natural" v="wetland" />
		<tag k="ssr:stedsnr" v="931173" />
	</node>
	<node id="-373882" lat="58.1324750033" lon="7.2059222152">
		<tag k="name" v="Gullinasfeda" />
		<tag k="natural" v="wetland" />
		<tag k="ssr:stedsnr" v="749435" />
	</node>
	<node id="-373881" lat="58.1759805525" lon="7.10556944745">
		<tag k="name" v="Kleivemyra" />
		<tag k="natural" v="wetland" />
		<tag k="ssr:stedsnr" v="749410" />
	</node>
	<node id="-372855" lat="58.0815388884" lon="7.10757500353">
		<tag k="name" v="Neset" />
		<tag k="place" v="locality" />
		<tag k="ssr:stedsnr" v="264789" />
	</node>
	<node id="-372340" lat="58.2044666678" lon="6.96626665819">
		<tag k="name" v="Traudemyra" />
		<tag k="natural" v="wetland" />
		<tag k="ssr:stedsnr" v="82973" />
	</node>
	<node id="-373864" lat="58.2311638895" lon="7.15048610634">
		<tag k="name" v="Finnstein" />
		<tag k="natural" v="stone" />
		<tag k="ssr:stedsnr" v="749312" />
	</node>
	<node id="-373838" lat="58.2126194438" lon="7.11803610985">
		<tag k="name" v="Dyblemyra" />
		<tag k="natural" v="wetland" />
		<tag k="ssr:stedsnr" v="749199" />
	</node>
	<node id="-374384" lat="58.2053666655" lon="7.18458889278">
		<tag k="name" v="Glusemyrene" />
		<tag k="natural" v="wetland" />
		<tag k="ssr:stedsnr" v="931244" />
	</node>
	<node id="-372335" lat="58.1436055581" lon="7.0567416673">
		<tag k="name" v="Grønndokkmoen" />
		<tag k="place" v="locality" />
		<tag k="ssr:stedsnr" v="82904" />
	</node>
	<node id="-374382" lat="58.2352583295" lon="7.15058332768">
		<tag k="name" v="Pinkesteinen" />
		<tag k="natural" v="stone" />
		<tag k="ssr:stedsnr" v="931229" />
	</node>
	<node id="-373868" lat="58.2552444426" lon="7.22611389103">
		<tag k="name" v="Klyftedalsmyra" />
		<tag k="natural" v="wetland" />
		<tag k="ssr:stedsnr" v="749329" />
	</node>
	<node id="-374378" lat="58.1952083291" lon="7.18478055562">
		<tag k="name" v="Hoggura" />
		<tag k="natural" v="scree" />
		<tag k="ssr:stedsnr" v="931215" />
	</node>
	<node id="-372841" lat="58.1503416648" lon="6.88466389675">
		<tag k="name" v="Storur" />
		<tag k="natural" v="scree" />
		<tag k="ssr:stedsnr" v="264643" />
	</node>
	<node id="-374376" lat="58.1976972227" lon="7.17745832531">
		<tag k="name" v="Loftsmyra" />
		<tag k="natural" v="wetland" />
		<tag k="ssr:stedsnr" v="931208" />
	</node>
	<node id="-373863" lat="58.2282111079" lon="7.18399722387">
		<tag k="name" v="Troddefænan" />
		<tag k="natural" v="wetland" />
		<tag k="ssr:stedsnr" v="749313" />
	</node>
	<node id="-373350" lat="58.2554499969" lon="7.19771944857">
		<tag k="name" v="Karmannslåtta" />
		<tag k="natural" v="wetland" />
		<tag k="ssr:stedsnr" v="567586" />
	</node>
	<node id="-372497" lat="58.1616111102" lon="7.05278888914">
		<tag k="name" v="Koddekjerr" />
		<tag k="natural" v="wetland" />
		<tag k="ssr:stedsnr" v="142861" />
	</node>
	<node id="-373348" lat="58.2715000036" lon="7.20654999563">
		<tag k="name" v="Furemyra" />
		<tag k="natural" v="wetland" />
		<tag k="ssr:stedsnr" v="567579" />
	</node>
	<node id="-373859" lat="58.2206777773" lon="7.16780000534">
		<tag k="name" v="Stemmyra" />
		<tag k="natural" v="wetland" />
		<tag k="ssr:stedsnr" v="749298" />
	</node>
	<node id="-373691" lat="58.2299111136" lon="7.1837972171">
		<tag k="name" v="Kjebemyra" />
		<tag k="natural" v="wetland" />
		<tag k="ssr:stedsnr" v="689314" />
	</node>
	<node id="-374288" lat="58.1227388866" lon="7.01427778583">
		<tag k="name" v="Fuglesteinen" />
		<tag k="natural" v="stone" />
		<tag k="ssr:stedsnr" v="871709" />
	</node>
	<node id="-371806" lat="58.2413388912" lon="7.11114999215">
		<tag k="name" v="Langemyra" />
		<tag k="natural" v="wetland" />
		<tag k="ssr:stedsnr" v="325509" />
	</node>
	<node id="-373341" lat="58.2028972224" lon="7.21390277084">
		<tag k="name" v="Langsteinsmyra" />
		<tag k="natural" v="wetland" />
		<tag k="ssr:stedsnr" v="567530" />
	</node>
	<node id="-373340" lat="58.1989833356" lon="7.19905277841">
		<tag k="name" v="Dragehiet" />
		<tag k="natural" v="scree" />
		<tag k="ssr:stedsnr" v="567526" />
	</node>
	<node id="-373338" lat="58.1627249988" lon="7.2142250038">
		<tag k="name" v="Vedalsmyra" />
		<tag k="natural" v="wetland" />
		<tag k="ssr:stedsnr" v="567515" />
	</node>
	<node id="-373337" lat="58.2427861069" lon="7.10646110497">
		<tag k="name" v="Øvre Slåttemyr" />
		<tag k="natural" v="wetland" />
		<tag k="ssr:stedsnr" v="567507" />
	</node>
	<node id="-372312" lat="58.1465722189" lon="6.90038888255">
		<tag k="name" v="Bukkesteinan" />
		<tag k="natural" v="stone" />
		<tag k="ssr:stedsnr" v="82636" />
	</node>
	<node id="-373729" lat="58.2624388864" lon="7.17503610478">
		<tag k="name" v="Dyblemyra" />
		<tag k="natural" v="wetland" />
		<tag k="ssr:stedsnr" v="689539" />
	</node>
	<node id="-372982" lat="58.2210166622" lon="7.1942777775">
		<tag k="name" v="Kartan" />
		<tag k="natural" v="wetland" />
		<tag k="ssr:stedsnr" v="446311" />
	</node>
	<node id="-373689" lat="58.2377777768" lon="7.20475000396">
		<tag k="name" v="Stedjan" />
		<tag k="natural" v="wetland" />
		<tag k="ssr:stedsnr" v="689307" />
	</node>
	<node id="-372820" lat="58.1128500041" lon="6.96892221537">
		<tag k="name" v="Spikkelandsmyra" />
		<tag k="natural" v="wetland" />
		<tag k="ssr:stedsnr" v="264482" />
	</node>
	<node id="-371976" lat="58.2157555554" lon="7.14181944415">
		<tag k="name" v="Lammehagen" />
		<tag k="place" v="locality" />
		<tag k="ssr:stedsnr" v="386286" />
	</node>
	<node id="-371794" lat="58.1494305566" lon="7.15216665934">
		<tag k="name" v="Slåta" />
		<tag k="natural" v="wetland" />
		<tag k="ssr:stedsnr" v="324946" />
	</node>
	<node id="-373329" lat="58.1906638862" lon="6.97935278576">
		<tag k="name" v="Kvennhusmyra" />
		<tag k="natural" v="wetland" />
		<tag k="ssr:stedsnr" v="567454" />
	</node>
	<node id="-373328" lat="58.2161388859" lon="6.92445833515">
		<tag k="name" v="Øykhagjen" />
		<tag k="place" v="locality" />
		<tag k="ssr:stedsnr" v="567450" />
	</node>
	<node id="-372303" lat="58.2746972199" lon="7.19035554905">
		<tag k="name" v="Goneset" />
		<tag k="place" v="locality" />
		<tag k="ssr:stedsnr" v="82551" />
	</node>
	<node id="-372814" lat="58.1540805535" lon="7.12172500816">
		<tag k="name" v="Stakkemyra" />
		<tag k="natural" v="wetland" />
		<tag k="ssr:stedsnr" v="264442" />
	</node>
	<node id="-373837" lat="58.217244448" lon="7.09382500177">
		<tag k="name" v="Åtlandsmyr" />
		<tag k="natural" v="wetland" />
		<tag k="ssr:stedsnr" v="749190" />
	</node>
	<node id="-373324" lat="58.2560972198" lon="7.25291945218">
		<tag k="name" v="Stemmyr" />
		<tag k="natural" v="wetland" />
		<tag k="ssr:stedsnr" v="567415" />
	</node>
	<node id="-373835" lat="58.2220666629" lon="7.11884999198">
		<tag k="name" v="Hestmyra" />
		<tag k="natural" v="wetland" />
		<tag k="ssr:stedsnr" v="749173" />
	</node>
	<node id="-372493" lat="58.1072666682" lon="7.11241110269">
		<tag k="name" v="Nordåsmyra" />
		<tag k="natural" v="wetland" />
		<tag k="ssr:stedsnr" v="142836" />
	</node>
	<node id="-373831" lat="58.2752361108" lon="7.07064443793">
		<tag k="name" v="Myran" />
		<tag k="natural" v="wetland" />
		<tag k="ssr:stedsnr" v="749149" />
	</node>
	<node id="-373318" lat="58.170627779" lon="7.10191389368">
		<tag k="name" v="Storamyra" />
		<tag k="natural" v="wetland" />
		<tag k="ssr:stedsnr" v="567356" />
	</node>
	<node id="-373317" lat="58.1784972262" lon="7.22820555593">
		<tag k="name" v="Storemyr" />
		<tag k="natural" v="wetland" />
		<tag k="ssr:stedsnr" v="567338" />
	</node>
	<node id="-371779" lat="58.1444777807" lon="6.91803333374">
		<tag k="name" v="Solskårmyra" />
		<tag k="natural" v="wetland" />
		<tag k="ssr:stedsnr" v="324682" />
	</node>
	<node id="-373825" lat="58.1960583372" lon="7.11783888444">
		<tag k="landuse" v="meadow" />
		<tag k="name" v="Gravlen" />
		<tag k="ssr:stedsnr" v="749097" />
	</node>
	<node id="-373823" lat="58.2058694402" lon="7.13134999569">
		<tag k="name" v="Røysemyra" />
		<tag k="natural" v="wetland" />
		<tag k="ssr:stedsnr" v="749088" />
	</node>
	<node id="-371773" lat="58.2534333376" lon="7.26037500538">
		<tag k="name" v="Hestmyra" />
		<tag k="natural" v="wetland" />
		<tag k="ssr:stedsnr" v="324649" />
	</node>
	<node id="-372283" lat="58.1789305538" lon="7.0115805543">
		<tag k="name" v="Råsura" />
		<tag k="natural" v="scree" />
		<tag k="ssr:stedsnr" v="82467" />
	</node>
	<node id="-372964" lat="58.2213583364" lon="7.11528332973">
		<tag k="name" v="Sauesteinen" />
		<tag k="natural" v="stone" />
		<tag k="ssr:stedsnr" v="446229" />
	</node>
	<node id="-371769" lat="58.1958500035" lon="7.22436111517">
		<tag k="name" v="Steinmyra" />
		<tag k="natural" v="wetland" />
		<tag k="ssr:stedsnr" v="324611" />
	</node>
	<node id="-372280" lat="58.1823055579" lon="7.24051944342">
		<tag k="name" v="Loneslåttan" />
		<tag k="natural" v="wetland" />
		<tag k="ssr:stedsnr" v="82336" />
	</node>
	<node id="-372791" lat="58.0308305526" lon="6.99731389535">
		<tag k="name" v="Rossmyra" />
		<tag k="natural" v="wetland" />
		<tag k="ssr:stedsnr" v="264299" />
	</node>
	<node id="-373301" lat="58.2225444414" lon="7.10542777466">
		<tag k="name" v="Tiurkjerret" />
		<tag k="natural" v="wetland" />
		<tag k="ssr:stedsnr" v="567199" />
	</node>
	<node id="-373300" lat="58.2788944477" lon="7.07112221463">
		<tag k="name" v="Kilan" />
		<tag k="place" v="locality" />
		<tag k="ssr:stedsnr" v="567188" />
	</node>
	<node id="-372275" lat="58.2546166677" lon="7.23709166889">
		<tag k="name" v="Lonåkeren" />
		<tag k="natural" v="wetland" />
		<tag k="ssr:stedsnr" v="82304" />
	</node>
	<node id="-372785" lat="58.0052916646" lon="6.99462500825">
		<tag k="name" v="Hovedura" />
		<tag k="natural" v="scree" />
		<tag k="ssr:stedsnr" v="264263" />
	</node>
	<node id="-374320" lat="58.1508055599" lon="7.18314722885">
		<tag k="name" v="Svinsoksbølet" />
		<tag k="natural" v="scree" />
		<tag k="ssr:stedsnr" v="871905" />
	</node>
	<node id="-374024" lat="58.2730888868" lon="7.09651666379">
		<tag k="name" v="Jåmyra" />
		<tag k="natural" v="wetland" />
		<tag k="ssr:stedsnr" v="810171" />
	</node>
	<node id="-374498" lat="58.1985055516" lon="7.19634721434">
		<tag k="name" v="Krakkekleivmyra" />
		<tag k="natural" v="wetland" />
		<tag k="ssr:stedsnr" v="932519" />
	</node>
	<node id="-374316" lat="58.1524055549" lon="7.07839999677">
		<tag k="name" v="Sandøystykket" />
		<tag k="place" v="locality" />
		<tag k="ssr:stedsnr" v="871887" />
	</node>
	<node id="-373291" lat="58.2319333311" lon="7.09811388755">
		<tag k="name" v="Storemyr" />
		<tag k="natural" v="wetland" />
		<tag k="ssr:stedsnr" v="567091" />
	</node>
	<node id="-372095" lat="58.0339611081" lon="6.98481111198">
		<tag k="name" v="Vestmyra" />
		<tag k="natural" v="wetland" />
		<tag k="ssr:stedsnr" v="21323" />
	</node>
	<node id="-371753" lat="58.269941666" lon="7.24290554742">
		<tag k="name" v="Nordjordet" />
		<tag k="natural" v="wetland" />
		<tag k="ssr:stedsnr" v="324431" />
	</node>
	<node id="-372775" lat="58.2490055569" lon="7.21029722864">
		<tag k="name" v="Kalleskarmyr" />
		<tag k="natural" v="wetland" />
		<tag k="ssr:stedsnr" v="264215" />
	</node>
	<node id="-372880" lat="58.2801777746" lon="7.18127499585">
		<tag k="name" v="Furemyra" />
		<tag k="natural" v="wetland" />
		<tag k="ssr:stedsnr" v="265278" />
	</node>
	<node id="-372773" lat="58.2397472258" lon="7.1988972273">
		<tag k="name" v="Godkjerran" />
		<tag k="natural" v="wetland" />
		<tag k="ssr:stedsnr" v="264207" />
	</node>
	<node id="-371745" lat="58.0928277804" lon="6.9933388846">
		<tag k="name" v="Stora kjerra" />
		<tag k="natural" v="wetland" />
		<tag k="ssr:stedsnr" v="324764" />
	</node>
	<node id="-374304" lat="58.1183666659" lon="7.09207777793">
		<tag k="name" v="Engehola" />
		<tag k="place" v="locality" />
		<tag k="ssr:stedsnr" v="871782" />
	</node>
	<node id="-373279" lat="58.2027916637" lon="7.03404444682">
		<tag k="name" v="Nesemyra" />
		<tag k="natural" v="wetland" />
		<tag k="ssr:stedsnr" v="567020" />
	</node>
	<node id="-374302" lat="58.0741638856" lon="7.06450277862">
		<tag k="name" v="Rossemyra" />
		<tag k="natural" v="wetland" />
		<tag k="ssr:stedsnr" v="871773" />
	</node>
	<node id="-372124" lat="58.1752944465" lon="6.93482222363">
		<tag k="name" v="Hellermyra" />
		<tag k="natural" v="wetland" />
		<tag k="ssr:stedsnr" v="21527" />
	</node>
	<node id="-372764" lat="58.2628444454" lon="7.09326943602">
		<tag k="name" v="Austtjønnmyra" />
		<tag k="natural" v="wetland" />
		<tag k="ssr:stedsnr" v="264149" />
	</node>
	<node id="-374327" lat="58.1511666657" lon="7.15862221558">
		<tag k="name" v="Kalvehagen" />
		<tag k="place" v="locality" />
		<tag k="ssr:stedsnr" v="871953" />
	</node>
	<node id="-372997" lat="58.1805944437" lon="7.11598332975">
		<tag k="name" v="Stakkemyra" />
		<tag k="natural" v="wetland" />
		<tag k="ssr:stedsnr" v="446417" />
	</node>
	<node id="-374296" lat="58.1468194451" lon="7.02484443959">
		<tag k="name" v="Fidjeura" />
		<tag k="natural" v="scree" />
		<tag k="ssr:stedsnr" v="871743" />
	</node>
	<node id="-372246" lat="58.2201888886" lon="7.01585833424">
		<tag k="name" v="Moltemyra" />
		<tag k="natural" v="wetland" />
		<tag k="ssr:stedsnr" v="82056" />
	</node>
	<node id="-372313" lat="58.1510361154" lon="6.90165277494">
		<tag k="name" v="Kringla" />
		<tag k="place" v="locality" />
		<tag k="ssr:stedsnr" v="82641" />
	</node>
	<node id="-374293" lat="58.1423111139" lon="6.95970832659">
		<tag k="name" v="Bjønnsmyra" />
		<tag k="natural" v="wetland" />
		<tag k="ssr:stedsnr" v="871732" />
	</node>
	<node id="-372895" lat="58.1544222267" lon="7.16230278456">
		<tag k="name" v="Storefeda" />
		<tag k="natural" v="wetland" />
		<tag k="ssr:stedsnr" v="265965" />
	</node>
	<node id="-372752" lat="58.2182222254" lon="7.06975556255">
		<tag k="name" v="Grasdalsmyra" />
		<tag k="natural" v="wetland" />
		<tag k="ssr:stedsnr" v="264078" />
	</node>
	<node id="-371727" lat="58.2895694457" lon="7.22489722578">
		<tag k="name" v="Titlandsmyra" />
		<tag k="natural" v="wetland" />
		<tag k="ssr:stedsnr" v="324353" />
	</node>
	<node id="-371726" lat="58.2572027733" lon="7.22442777369">
		<tag k="name" v="Vestreskogen" />
		<tag k="place" v="locality" />
		<tag k="ssr:stedsnr" v="324342" />
	</node>
	<node id="-372237" lat="58.2130499956" lon="7.13580554766">
		<tag k="name" v="Dugevollen" />
		<tag k="place" v="locality" />
		<tag k="ssr:stedsnr" v="82167" />
	</node>
	<node id="-371724" lat="58.2678944447" lon="7.22318611794">
		<tag k="name" v="Nedre Trettemyr" />
		<tag k="natural" v="wetland" />
		<tag k="ssr:stedsnr" v="324337" />
	</node>
	<node id="-373335" lat="58.2432611118" lon="7.12975556129">
		<tag k="name" v="Logemyran" />
		<tag k="natural" v="wetland" />
		<tag k="ssr:stedsnr" v="567494" />
	</node>
	<node id="-374280" lat="58.0778388878" lon="6.97524722087">
		<tag k="name" v="Rutlesteinen" />
		<tag k="natural" v="stone" />
		<tag k="ssr:stedsnr" v="871644" />
	</node>
	<node id="-373766" lat="58.1592805594" lon="7.16862222334">
		<tag k="name" v="Storehagen" />
		<tag k="natural" v="wetland" />
		<tag k="ssr:stedsnr" v="689898" />
	</node>
	<node id="-374277" lat="58.2450055536" lon="7.23448333836">
		<tag k="name" v="Esperåsmyra" />
		<tag k="natural" v="wetland" />
		<tag k="ssr:stedsnr" v="871606" />
	</node>
	<node id="-372822" lat="58.1608222221" lon="7.21367777717">
		<tag k="name" v="Teinemyra" />
		<tag k="natural" v="wetland" />
		<tag k="ssr:stedsnr" v="264521" />
	</node>
</osm>
