<?xml version="1.0" encoding="UTF-8"?>
<osm generator="osmapis" version="0.6">
	<node id="-473472" lat="60.1499083369" lon="5.2489750062">
		<tag k="alt_name" v="Litle Laugarøy" />
		<tag k="name" v="Litle Laugarøy lykt" />
		<tag k="old_name" v="Laugarøyi, l" />
		<tag k="ssr:date" v="2016-05-11" />
		<tag k="ssr:gruppe" v="navigasjon" />
		<tag k="ssr:hovedgruppe" v="infrastruktur" />
		<tag k="ssr:stedsnr" v="915958" />
		<tag k="ssr:type" v="fyrlykt" />
	</node>
	<node id="-472443" lat="60.0534805549" lon="5.16086388104">
		<tag k="alt_name" v="Grøningen" />
		<tag k="name" v="Grøningen lykt" />
		<tag k="ssr:date" v="2016-05-10" />
		<tag k="ssr:gruppe" v="navigasjon" />
		<tag k="ssr:hovedgruppe" v="infrastruktur" />
		<tag k="ssr:stedsnr" v="5170" />
		<tag k="ssr:type" v="fyrlykt" />
	</node>
	<node id="-472511" lat="60.132580559" lon="5.10098333955">
		<tag k="alt_name" v="Bakkasund" />
		<tag k="name" v="Bakkasund lykt" />
		<tag k="ssr:date" v="2016-05-10" />
		<tag k="ssr:gruppe" v="navigasjon" />
		<tag k="ssr:hovedgruppe" v="infrastruktur" />
		<tag k="ssr:stedsnr" v="54321" />
		<tag k="ssr:type" v="fyrlykt" />
	</node>
	<node id="-472686" lat="60.1286638857" lon="5.0943499968">
		<tag k="alt_name" v="Kassholmboen" />
		<tag k="name" v="Kassholmboen lykt" />
		<tag k="ssr:date" v="2016-05-10" />
		<tag k="ssr:gruppe" v="navigasjon" />
		<tag k="ssr:hovedgruppe" v="infrastruktur" />
		<tag k="ssr:stedsnr" v="175316" />
		<tag k="ssr:type" v="fyrlykt" />
	</node>
	<node id="-473127" lat="60.0808750025" lon="5.22989721377">
		<tag k="name" v="Bjånestangen" />
		<tag k="ssr:date" v="2019-05-30" />
		<tag k="ssr:gruppe" v="veg" />
		<tag k="ssr:hovedgruppe" v="infrastruktur" />
		<tag k="ssr:stedsnr" v="648860" />
		<tag k="ssr:type" v="adressenavn" />
	</node>
	<node id="-473062" lat="60.0160638916" lon="5.20212777144">
		<tag k="name" v="Bekkjarviksundet" />
		<tag k="ssr:date" v="2016-05-10" />
		<tag k="ssr:gruppe" v="navigasjon" />
		<tag k="ssr:hovedgruppe" v="infrastruktur" />
		<tag k="ssr:stedsnr" v="611239" />
		<tag k="ssr:type" v="fyrlykt" />
	</node>
	<node id="-472544" lat="60.0927916666" lon="5.20409444663">
		<tag k="alt_name" v="Rostøy" />
		<tag k="name" v="Rostøy lykt" />
		<tag k="ssr:date" v="2016-05-10" />
		<tag k="ssr:gruppe" v="navigasjon" />
		<tag k="ssr:hovedgruppe" v="infrastruktur" />
		<tag k="ssr:stedsnr" v="94990" />
		<tag k="ssr:type" v="fyrlykt" />
	</node>
	<node id="-473055" lat="59.9889055526" lon="5.22194999144">
		<tag k="fixme" v="multiple name tags, choose one and add the other to alt_name" />
		<tag k="name" v="Økshammaren lykt;Økshammaren" />
		<tag k="ssr:date" v="2016-05-10" />
		<tag k="ssr:gruppe" v="navigasjon" />
		<tag k="ssr:hovedgruppe" v="infrastruktur" />
		<tag k="ssr:stedsnr" v="610165" />
		<tag k="ssr:type" v="fyrlykt" />
	</node>
	<node id="-473051" lat="60.0895249961" lon="5.16901666495">
		<tag k="name" v="Vestre Bakholmen" />
		<tag k="ssr:date" v="2019-05-31" />
		<tag k="ssr:gruppe" v="veg" />
		<tag k="ssr:hovedgruppe" v="infrastruktur" />
		<tag k="ssr:stedsnr" v="604134" />
		<tag k="ssr:type" v="adressenavn" />
	</node>
	<node id="-472409" lat="59.9628873738" lon="5.05174392378">
		<tag k="name" v="Furen" />
		<tag k="ssr:date" v="2019-03-22" />
		<tag k="ssr:gruppe" v="navigasjon" />
		<tag k="ssr:hovedgruppe" v="infrastruktur" />
		<tag k="ssr:stedsnr" v="990819" />
		<tag k="ssr:type" v="sjøvarde" />
	</node>
	<node id="-472276" lat="60.087686107" lon="5.12858888791">
		<tag k="alt_name" v="Horgesund" />
		<tag k="name" v="Horgesund lykt" />
		<tag k="ssr:date" v="2016-05-10" />
		<tag k="ssr:gruppe" v="navigasjon" />
		<tag k="ssr:hovedgruppe" v="infrastruktur" />
		<tag k="ssr:stedsnr" v="368891" />
		<tag k="ssr:type" v="fyrlykt" />
	</node>
	<node id="-472913" lat="60.0948555554" lon="5.22158611888">
		<tag k="alt_name" v="Austevoll" />
		<tag k="name" v="Austevoll kommune" />
		<tag k="ssr:date" v="2016-05-10" />
		<tag k="ssr:gruppe" v="administrativeIndelinger" />
		<tag k="ssr:hovedgruppe" v="offentligAdministrasjon" />
		<tag k="ssr:stedsnr" v="510024" />
		<tag k="ssr:type" v="kommune" />
	</node>
	<node id="-472400" lat="60.0508949477" lon="5.17887325373">
		<tag k="name" v="Busesund" />
		<tag k="ssr:date" v="2019-05-31" />
		<tag k="ssr:gruppe" v="veg" />
		<tag k="ssr:hovedgruppe" v="infrastruktur" />
		<tag k="ssr:stedsnr" v="988662" />
		<tag k="ssr:type" v="adressenavn" />
	</node>
	<node id="-472398" lat="60.0955203438" lon="5.21929504135">
		<tag k="name" v="Prestaneset" />
		<tag k="ssr:date" v="2019-05-30" />
		<tag k="ssr:gruppe" v="veg" />
		<tag k="ssr:hovedgruppe" v="infrastruktur" />
		<tag k="ssr:stedsnr" v="983399" />
		<tag k="ssr:type" v="adressenavn" />
	</node>
	<node id="-473417" lat="59.9759888912" lon="5.19680556365">
		<tag k="alt_name" v="Selbjørn" />
		<tag k="name" v="Selbjørn lykt" />
		<tag k="ssr:date" v="2016-05-11" />
		<tag k="ssr:gruppe" v="navigasjon" />
		<tag k="ssr:hovedgruppe" v="infrastruktur" />
		<tag k="ssr:stedsnr" v="854149" />
		<tag k="ssr:type" v="fyrlykt" />
	</node>
	<node id="-473414" lat="60.0209694463" lon="5.09778611837">
		<tag k="name" v="Stallareskjer" />
		<tag k="ssr:date" v="2016-05-11" />
		<tag k="ssr:gruppe" v="navigasjon" />
		<tag k="ssr:hovedgruppe" v="infrastruktur" />
		<tag k="ssr:stedsnr" v="854126" />
		<tag k="ssr:type" v="fyrlykt" />
	</node>
	<node id="-473154" lat="60.1356583364" lon="5.04148332759">
		<tag k="name" v="Skjeljaboskaget" />
		<tag k="ssr:date" v="2016-05-10" />
		<tag k="ssr:gruppe" v="navigasjon" />
		<tag k="ssr:hovedgruppe" v="infrastruktur" />
		<tag k="ssr:stedsnr" v="672739" />
		<tag k="ssr:type" v="fyrlykt" />
	</node>
	<node id="-473537" lat="60.8816104596" lon="6.30047518531">
		<tag k="name" v="Vestlandet" />
		<tag k="ssr:date" v="2019-01-06" />
		<tag k="ssr:gruppe" v="administrativeIndelinger" />
		<tag k="ssr:hovedgruppe" v="offentligAdministrasjon" />
		<tag k="ssr:stedsnr" v="974777" />
		<tag k="ssr:type" v="annenAdministrativInndeling" />
	</node>
	<node id="-473407" lat="60.0921111099" lon="5.10591666828">
		<tag k="name" v="Horgo" />
		<tag k="ssr:date" v="2019-05-31" />
		<tag k="ssr:gruppe" v="veg" />
		<tag k="ssr:hovedgruppe" v="infrastruktur" />
		<tag k="ssr:stedsnr" v="831836" />
		<tag k="ssr:type" v="adressenavn" />
	</node>
	<node id="-473138" lat="60.040361111" lon="5.07571667291">
		<tag k="alt_name" v="Rosmunnholmen" />
		<tag k="name" v="Rosmunnholmen lykt" />
		<tag k="ssr:date" v="2016-05-10" />
		<tag k="ssr:gruppe" v="navigasjon" />
		<tag k="ssr:hovedgruppe" v="infrastruktur" />
		<tag k="ssr:stedsnr" v="671653" />
		<tag k="ssr:type" v="fyrlykt" />
	</node>
	<node id="-472999" lat="59.9821777758" lon="5.09050832744">
		<tag k="name" v="Stolmasundet" />
		<tag k="ssr:date" v="2016-05-10" />
		<tag k="ssr:gruppe" v="navigasjon" />
		<tag k="ssr:hovedgruppe" v="infrastruktur" />
		<tag k="ssr:stedsnr" v="572069" />
		<tag k="ssr:type" v="fyrlykt" />
	</node>
	<node id="-472596" lat="60.0909527751" lon="5.18116111808">
		<tag k="alt_name" v="Pirholmen" />
		<tag k="name" v="Pirholmen lykt" />
		<tag k="ssr:date" v="2016-05-10" />
		<tag k="ssr:gruppe" v="navigasjon" />
		<tag k="ssr:hovedgruppe" v="infrastruktur" />
		<tag k="ssr:stedsnr" v="114339" />
		<tag k="ssr:type" v="fyrlykt" />
	</node>
	<node id="-472846" lat="60.1422138899" lon="5.24979999176">
		<tag k="name" v="Trollsøya" />
		<tag k="ssr:date" v="2016-05-10" />
		<tag k="ssr:gruppe" v="navigasjon" />
		<tag k="ssr:hovedgruppe" v="infrastruktur" />
		<tag k="ssr:stedsnr" v="450863" />
		<tag k="ssr:type" v="fyrlykt" />
	</node>
	<node id="-473357" lat="60.1267428096" lon="5.19988316569">
		<tag k="alt_name" v="Lindholmen" />
		<tag k="name" v="Lindholmen lanterne" />
		<tag k="ssr:date" v="2016-12-30" />
		<tag k="ssr:gruppe" v="navigasjon" />
		<tag k="ssr:hovedgruppe" v="infrastruktur" />
		<tag k="ssr:stedsnr" v="823978" />
		<tag k="ssr:type" v="lanterne" />
	</node>
	<node id="-473538" lat="60.0135037949" lon="5.28668761177">
		<tag k="name" v="Avløypet" />
		<tag k="ssr:date" v="2019-05-31" />
		<tag k="ssr:gruppe" v="veg" />
		<tag k="ssr:hovedgruppe" v="infrastruktur" />
		<tag k="ssr:stedsnr" v="976593" />
		<tag k="ssr:type" v="adressenavn" />
	</node>
	<node id="-472840" lat="60.1305505593" lon="5.01007209747">
		<tag k="alt_name" v="Marstein" />
		<tag k="name" v="Marstein fyr" />
		<tag k="ssr:date" v="2019-04-24" />
		<tag k="ssr:gruppe" v="navigasjon" />
		<tag k="ssr:hovedgruppe" v="infrastruktur" />
		<tag k="ssr:stedsnr" v="430725" />
		<tag k="ssr:type" v="fyrstasjon" />
	</node>
</osm>
