<?xml version="1.0" encoding="UTF-8"?>
<osm version="0.6" generator="osmapis">
	<node id="6850990171" lat="63.9726404" lon="10.0043173" version="2" timestamp="2022-01-26T07:15:22Z" changeset="116611310" uid="3497659" user="NKA">
		<tag k="junction" v="yes" />
		<tag k="name" v="Korsan" />
		<tag k="ssr:stedsnr" v="516062" />
	</node>
	<node id="6850990744" lat="64.0462874" lon="10.075919" version="2" timestamp="2022-01-26T07:15:22Z" changeset="116611310" uid="3497659" user="NKA">
		<tag k="junction" v="yes" />
		<tag k="name" v="Salbuvikkrysset" />
		<tag k="ssr:stedsnr" v="637871" />
	</node>
	<node id="9427514693" lat="63.9582656" lon="10.1846647" version="1" timestamp="2022-01-18T07:49:55Z" changeset="116285062" uid="3497659" user="NKA">
		<tag k="amenity" v="restaurant" />
		<tag k="name" v="Saga" />
		<tag k="ssr:stedsnr" v="419347" />
	</node>
	<node id="301450714" lat="64.0485833" lon="9.9209732" version="3" timestamp="2018-08-28T23:19:38Z" changeset="62087373" uid="366321" user="Peter Bremer" />
	<node id="1932079259" lat="64.0495258" lon="9.9272589" version="2" timestamp="2018-08-28T23:19:40Z" changeset="62087373" uid="366321" user="Peter Bremer" />
	<node id="5864506804" lat="64.0492412" lon="9.9253774" version="3" timestamp="2022-01-24T21:00:15Z" changeset="116559033" uid="3497659" user="NKA">
		<tag k="bridge:support" v="pier" />
		<tag k="highway" v="passing_place" />
	</node>
	<node id="5864506954" lat="64.0488829" lon="9.9229436" version="3" timestamp="2022-01-24T21:00:15Z" changeset="116559033" uid="3497659" user="NKA">
		<tag k="bridge:support" v="pier" />
		<tag k="highway" v="passing_place" />
	</node>
	<node id="6851039300" lat="64.0493185" lon="9.9258726" version="1" timestamp="2019-10-04T10:27:05Z" changeset="75274141" uid="3497659" user="NKA" />
	<node id="6851011199" lat="64.044399" lon="10.0399111" version="1" timestamp="2019-10-04T10:25:44Z" changeset="75274131" uid="3497659" user="NKA" />
	<node id="6851011200" lat="64.0444169" lon="10.0399377" version="1" timestamp="2019-10-04T10:25:44Z" changeset="75274131" uid="3497659" user="NKA" />
	<node id="6851011201" lat="64.0444692" lon="10.0400127" version="1" timestamp="2019-10-04T10:25:44Z" changeset="75274131" uid="3497659" user="NKA" />
	<node id="6851011202" lat="64.0446196" lon="10.0401873" version="1" timestamp="2019-10-04T10:25:44Z" changeset="75274131" uid="3497659" user="NKA" />
	<node id="6851011203" lat="64.044729" lon="10.040292" version="1" timestamp="2019-10-04T10:25:44Z" changeset="75274131" uid="3497659" user="NKA" />
	<node id="6851011204" lat="64.0448565" lon="10.0403933" version="1" timestamp="2019-10-04T10:25:44Z" changeset="75274131" uid="3497659" user="NKA" />
	<node id="6851011205" lat="64.044993" lon="10.0404896" version="1" timestamp="2019-10-04T10:25:44Z" changeset="75274131" uid="3497659" user="NKA" />
	<node id="6851011206" lat="64.0452316" lon="10.0406297" version="2" timestamp="2022-01-24T21:00:15Z" changeset="116559033" uid="3497659" user="NKA" />
	<node id="6851011208" lat="64.0479992" lon="10.0422577" version="2" timestamp="2022-01-24T21:00:15Z" changeset="116559033" uid="3497659" user="NKA">
		<tag k="bridge:support" v="pier" />
	</node>
	<node id="6851011209" lat="64.049009" lon="10.0428457" version="1" timestamp="2019-10-04T10:25:44Z" changeset="75274131" uid="3497659" user="NKA" />
	<node id="9445777750" lat="64.0462143" lon="10.0412196" version="1" timestamp="2022-01-24T21:00:15Z" changeset="116559033" uid="3497659" user="NKA">
		<tag k="bridge:support" v="pier" />
	</node>
	<node id="6851008734" lat="63.8907175" lon="10.2157924" version="1" timestamp="2019-10-04T10:25:33Z" changeset="75274119" uid="3497659" user="NKA" />
	<node id="6851008735" lat="63.8907692" lon="10.2158745" version="2" timestamp="2022-01-24T21:00:15Z" changeset="116559033" uid="3497659" user="NKA" />
	<node id="6851008736" lat="63.8908074" lon="10.2159458" version="1" timestamp="2019-10-04T10:25:33Z" changeset="75274119" uid="3497659" user="NKA" />
	<node id="6851017166" lat="63.93626" lon="10.2225308" version="1" timestamp="2019-10-04T10:25:44Z" changeset="75274131" uid="3497659" user="NKA" />
	<node id="6851017168" lat="63.9367284" lon="10.2229793" version="1" timestamp="2019-10-04T10:25:44Z" changeset="75274131" uid="3497659" user="NKA" />
	<node id="6851016425" lat="63.9617631" lon="10.2232194" version="1" timestamp="2019-10-04T10:25:44Z" changeset="75274131" uid="3497659" user="NKA" />
	<node id="6851016426" lat="63.9625215" lon="10.2224971" version="3" timestamp="2022-02-07T22:11:14Z" changeset="117137812" uid="665677" user="FennecusZerda" />
	<node id="9445777816" lat="63.9618521" lon="10.2231203" version="1" timestamp="2022-01-24T21:00:15Z" changeset="116559033" uid="3497659" user="NKA" />
	<node id="9445777817" lat="63.9619415" lon="10.2230304" version="1" timestamp="2022-01-24T21:00:15Z" changeset="116559033" uid="3497659" user="NKA" />
	<node id="6851037788" lat="63.959252" lon="10.2269098" version="1" timestamp="2019-10-04T10:27:05Z" changeset="75274141" uid="3497659" user="NKA" />
	<node id="6851037789" lat="63.95926" lon="10.2268999" version="1" timestamp="2019-10-04T10:27:05Z" changeset="75274141" uid="3497659" user="NKA" />
	<node id="6851037790" lat="63.9593569" lon="10.2267669" version="1" timestamp="2019-10-04T10:27:05Z" changeset="75274141" uid="3497659" user="NKA" />
	<node id="6851037791" lat="63.959682" lon="10.2262535" version="2" timestamp="2022-02-07T22:11:14Z" changeset="117137812" uid="665677" user="FennecusZerda" />
	<node id="6851014546" lat="63.9289221" lon="10.3627714" version="1" timestamp="2019-10-04T10:25:44Z" changeset="75274131" uid="3497659" user="NKA" />
	<node id="6851014547" lat="63.9291638" lon="10.3629966" version="1" timestamp="2019-10-04T10:25:44Z" changeset="75274131" uid="3497659" user="NKA" />
	<node id="8920447527" lat="64.0234086" lon="10.0681866" version="1" timestamp="2021-07-14T19:48:08Z" changeset="107999359" uid="3497659" user="NKA" />
	<node id="8920447528" lat="64.023332" lon="10.068031" version="1" timestamp="2021-07-14T19:48:08Z" changeset="107999359" uid="3497659" user="NKA" />
	<node id="5758675904" lat="64.115608" lon="10.2576221" version="1" timestamp="2018-07-13T13:31:26Z" changeset="60688808" uid="8470372" user="Entur AS | Angie Torres" />
	<node id="5758679961" lat="64.1155481" lon="10.257833" version="1" timestamp="2018-07-13T13:32:10Z" changeset="60688808" uid="8470372" user="Entur AS | Angie Torres" />
	<node id="5758678402" lat="64.1439431" lon="10.1775509" version="1" timestamp="2018-07-13T13:31:56Z" changeset="60688808" uid="8470372" user="Entur AS | Angie Torres" />
	<node id="5758682512" lat="64.1438429" lon="10.1774884" version="1" timestamp="2018-07-13T13:32:42Z" changeset="60688884" uid="8470372" user="Entur AS | Angie Torres" />
	<node id="5758675281" lat="64.1478712" lon="10.2291812" version="2" timestamp="2022-01-24T21:00:15Z" changeset="116559033" uid="3497659" user="NKA" />
	<node id="5758680705" lat="64.147837" lon="10.2290807" version="2" timestamp="2022-01-24T21:00:15Z" changeset="116559033" uid="3497659" user="NKA" />
	<node id="2201117729" lat="64.1718849" lon="10.2292376" version="5" timestamp="2018-07-13T13:34:10Z" changeset="60688884" uid="8470372" user="Entur AS | Angie Torres" />
	<node id="5758675713" lat="64.1719272" lon="10.2292394" version="1" timestamp="2018-07-13T13:31:23Z" changeset="60688808" uid="8470372" user="Entur AS | Angie Torres" />
	<node id="5758683586" lat="64.1718494" lon="10.2292348" version="1" timestamp="2018-07-13T13:32:53Z" changeset="60688884" uid="8470372" user="Entur AS | Angie Torres" />
	<node id="6851009058" lat="63.9965839" lon="10.3064197" version="1" timestamp="2019-10-04T10:25:33Z" changeset="75274119" uid="3497659" user="NKA" />
	<node id="6851009059" lat="63.9966386" lon="10.3066641" version="1" timestamp="2019-10-04T10:25:33Z" changeset="75274119" uid="3497659" user="NKA" />
	<node id="6851009183" lat="64.0220521" lon="10.3770483" version="1" timestamp="2019-10-04T10:25:33Z" changeset="75274119" uid="3497659" user="NKA" />
	<node id="6851009184" lat="64.0222482" lon="10.3778557" version="1" timestamp="2019-10-04T10:25:33Z" changeset="75274119" uid="3497659" user="NKA" />
	<node id="4557293175" lat="64.1758907" lon="10.3529183" version="2" timestamp="2018-07-13T13:34:51Z" changeset="60688884" uid="8470372" user="Entur AS | Angie Torres" />
	<node id="5758676198" lat="64.1758893" lon="10.3530461" version="1" timestamp="2018-07-13T13:31:32Z" changeset="60688808" uid="8470372" user="Entur AS | Angie Torres" />
	<node id="5758677883" lat="64.1759053" lon="10.3526703" version="1" timestamp="2018-07-13T13:31:50Z" changeset="60688808" uid="8470372" user="Entur AS | Angie Torres" />
	<node id="5758684246" lat="64.1758939" lon="10.3528173" version="1" timestamp="2018-07-13T13:33:01Z" changeset="60688884" uid="8470372" user="Entur AS | Angie Torres" />
	<node id="5758675630" lat="64.1734086" lon="10.3726894" version="1" timestamp="2018-07-13T13:31:22Z" changeset="60688808" uid="8470372" user="Entur AS | Angie Torres" />
	<node id="5758679502" lat="64.1733286" lon="10.3724661" version="1" timestamp="2018-07-13T13:32:06Z" changeset="60688808" uid="8470372" user="Entur AS | Angie Torres" />
	<node id="5758676520" lat="64.1833607" lon="10.4296933" version="1" timestamp="2018-07-13T13:31:38Z" changeset="60688808" uid="8470372" user="Entur AS | Angie Torres" />
	<node id="5758679116" lat="64.1837354" lon="10.4298511" version="1" timestamp="2018-07-13T13:32:03Z" changeset="60688808" uid="8470372" user="Entur AS | Angie Torres" />
	<node id="5758664611" lat="64.1673725" lon="10.477217" version="3" timestamp="2022-01-24T21:00:15Z" changeset="116559033" uid="3497659" user="NKA" />
	<node id="5758665664" lat="64.1675619" lon="10.4772127" version="3" timestamp="2022-01-24T21:00:15Z" changeset="116559033" uid="3497659" user="NKA" />
	<node id="5758670424" lat="64.1676602" lon="10.4771951" version="2" timestamp="2018-07-21T05:06:04Z" changeset="60923272" uid="715936" user="Gazer75" />
	<node id="5758674736" lat="64.1674667" lon="10.4772199" version="3" timestamp="2022-01-24T21:00:15Z" changeset="116559033" uid="3497659" user="NKA" />
	<node id="5758665454" lat="64.1516" lon="10.5509228" version="1" timestamp="2018-07-13T13:30:01Z" changeset="60688808" uid="8470372" user="Entur AS | Angie Torres" />
	<node id="5758674229" lat="64.1515677" lon="10.5506889" version="1" timestamp="2018-07-13T13:31:08Z" changeset="60688808" uid="8470372" user="Entur AS | Angie Torres" />
	<way id="24652335" version="6" timestamp="2022-01-24T21:00:15Z" changeset="116559033" uid="3497659" user="NKA">
		<tag k="bridge" v="cantilever" />
		<tag k="highway" v="primary" />
		<tag k="layer" v="1" />
		<tag k="maxspeed" v="60" />
		<tag k="name" v="Stokkøybrua" />
		<tag k="ref" v="723" />
		<tag k="ssr:stedsnr" v="82266" />
		<tag k="wikidata" v="Q7618585" />
		<tag k="wikipedia" v="en:Stokkøy Bridge" />
		<nd ref="6851011199" />
		<nd ref="6851011200" />
		<nd ref="6851011201" />
		<nd ref="6851011202" />
		<nd ref="6851011203" />
		<nd ref="6851011204" />
		<nd ref="6851011205" />
		<nd ref="6851011206" />
		<nd ref="9445777750" />
		<nd ref="6851011208" />
		<nd ref="6851011209" />
	</way>
	<way id="27452396" version="8" timestamp="2022-01-24T21:00:15Z" changeset="116559033" uid="3497659" user="NKA">
		<tag k="bridge" v="yes" />
		<tag k="highway" v="primary" />
		<tag k="layer" v="1" />
		<tag k="maxspeed" v="40" />
		<tag k="name" v="Årnesbrua" />
		<tag k="ref" v="715" />
		<tag k="ssr:stedsnr" v="528330" />
		<tag k="surface" v="asphalt" />
		<nd ref="6851016425" />
		<nd ref="9445777816" />
		<nd ref="9445777817" />
		<nd ref="6851016426" />
	</way>
	<way id="27452595" version="10" timestamp="2022-02-07T22:11:14Z" changeset="117137812" uid="665677" user="FennecusZerda">
		<tag k="bridge" v="yes" />
		<tag k="cycleway:both" v="no" />
		<tag k="highway" v="primary" />
		<tag k="lanes" v="2" />
		<tag k="layer" v="1" />
		<tag k="maxspeed" v="30" />
		<tag k="name" v="Melabrua" />
		<tag k="ref" v="715" />
		<tag k="ssr:stedsnr" v="213725" />
		<tag k="surface" v="asphalt" />
		<nd ref="6851037788" />
		<nd ref="6851037789" />
		<nd ref="6851037790" />
		<nd ref="6851037791" />
	</way>
	<way id="106159104" version="5" timestamp="2022-01-24T21:00:15Z" changeset="116559033" uid="3497659" user="NKA">
		<tag k="bridge" v="yes" />
		<tag k="highway" v="primary" />
		<tag k="layer" v="1" />
		<tag k="maxspeed" v="80" />
		<tag k="name" v="Arnvikbrua" />
		<tag k="ref" v="715" />
		<tag k="ssr:stedsnr" v="516624" />
		<nd ref="6851017166" />
		<nd ref="6851017168" />
	</way>
	<way id="182839771" version="7" timestamp="2022-01-24T21:00:15Z" changeset="116559033" uid="3497659" user="NKA">
		<tag k="bridge" v="yes" />
		<tag k="bridge:structure" v="beam" />
		<tag k="highway" v="secondary" />
		<tag k="layer" v="1" />
		<tag k="maxspeed" v="80" />
		<tag k="name" v="Linesøybrua" />
		<tag k="oneway" v="no" />
		<tag k="ref" v="6320" />
		<tag k="ssr:stedsnr" v="238136" />
		<nd ref="6851039300" />
		<nd ref="5864506804" />
		<nd ref="5864506954" />
		<nd ref="301450714" />
	</way>
	<way id="313426720" version="6" timestamp="2022-01-24T21:00:15Z" changeset="116559033" uid="3497659" user="NKA">
		<tag k="bridge" v="yes" />
		<tag k="highway" v="secondary" />
		<tag k="lanes" v="1" />
		<tag k="layer" v="1" />
		<tag k="maxspeed" v="50" />
		<tag k="name" v="Straumbrua" />
		<tag k="ref" v="6312" />
		<tag k="ssr:stedsnr" v="956819" />
		<nd ref="5758678402" />
		<nd ref="5758682512" />
	</way>
	<way id="313426721" version="4" timestamp="2022-01-24T21:00:15Z" changeset="116559033" uid="3497659" user="NKA">
		<tag k="bridge" v="yes" />
		<tag k="highway" v="secondary" />
		<tag k="layer" v="1" />
		<tag k="maxspeed" v="80" />
		<tag k="name" v="Berfjordbrua" />
		<tag k="ref" v="6312" />
		<tag k="ssr:stedsnr" v="652789" />
		<nd ref="5758675281" />
		<nd ref="5758680705" />
	</way>
	<way id="313446875" version="5" timestamp="2022-01-24T21:00:15Z" changeset="116559033" uid="3497659" user="NKA">
		<tag k="bridge" v="yes" />
		<tag k="highway" v="secondary" />
		<tag k="layer" v="1" />
		<tag k="maxspeed" v="80" />
		<tag k="name" v="Nordskjørbrua" />
		<tag k="ref" v="6312" />
		<tag k="ssr:stedsnr" v="836694" />
		<nd ref="5758675904" />
		<nd ref="5758679961" />
	</way>
	<way id="313446877" version="5" timestamp="2022-01-24T21:00:15Z" changeset="116559033" uid="3497659" user="NKA">
		<tag k="bridge" v="yes" />
		<tag k="highway" v="secondary" />
		<tag k="layer" v="1" />
		<tag k="maxspeed" v="50" />
		<tag k="name" v="Prestelvbrua" />
		<tag k="ref" v="6312" />
		<tag k="ssr:stedsnr" v="652791" />
		<nd ref="5758675713" />
		<nd ref="2201117729" />
		<nd ref="5758683586" />
	</way>
	<way id="425369749" version="4" timestamp="2022-01-24T21:00:15Z" changeset="116559033" uid="3497659" user="NKA">
		<tag k="bridge" v="yes" />
		<tag k="highway" v="secondary" />
		<tag k="layer" v="1" />
		<tag k="maxspeed" v="80" />
		<tag k="name" v="Reppkleivbrua" />
		<tag k="ref" v="6312" />
		<tag k="ssr:stedsnr" v="924448" />
		<nd ref="5758679116" />
		<nd ref="5758676520" />
	</way>
	<way id="607705932" version="3" timestamp="2022-01-24T21:00:15Z" changeset="116559033" uid="3497659" user="NKA">
		<tag k="bridge" v="yes" />
		<tag k="highway" v="primary" />
		<tag k="layer" v="1" />
		<tag k="maxspeed" v="80" />
		<tag k="name" v="Øverdalsbrua" />
		<tag k="ref" v="715" />
		<tag k="ssr:stedsnr" v="774795" />
		<nd ref="5758664611" />
		<nd ref="5758674736" />
		<nd ref="5758665664" />
		<nd ref="5758670424" />
	</way>
	<way id="607705990" version="3" timestamp="2022-01-24T21:00:15Z" changeset="116559033" uid="3497659" user="NKA">
		<tag k="bridge" v="yes" />
		<tag k="highway" v="service" />
		<tag k="layer" v="1" />
		<tag k="name" v="Storskardbrua" />
		<tag k="ssr:stedsnr" v="456716" />
		<nd ref="5758674229" />
		<nd ref="5758665454" />
	</way>
	<way id="607706095" version="3" timestamp="2022-01-24T21:00:15Z" changeset="116559033" uid="3497659" user="NKA">
		<tag k="bridge" v="yes" />
		<tag k="highway" v="secondary" />
		<tag k="layer" v="1" />
		<tag k="maxspeed" v="50" />
		<tag k="name" v="Einarsdalsbrua" />
		<tag k="ref" v="6312" />
		<tag k="ssr:stedsnr" v="773772" />
		<nd ref="5758676198" />
		<nd ref="4557293175" />
		<nd ref="5758684246" />
		<nd ref="5758677883" />
	</way>
	<way id="607706288" version="3" timestamp="2022-01-24T21:00:15Z" changeset="116559033" uid="3497659" user="NKA">
		<tag k="bridge" v="yes" />
		<tag k="highway" v="secondary" />
		<tag k="layer" v="1" />
		<tag k="maxspeed" v="50" />
		<tag k="name" v="Straumselvbrua" />
		<tag k="ref" v="6312" />
		<tag k="ssr:stedsnr" v="227786" />
		<nd ref="5758675630" />
		<nd ref="5758679502" />
	</way>
	<way id="697426321" version="3" timestamp="2022-01-24T21:00:15Z" changeset="116559033" uid="3497659" user="NKA">
		<tag k="bridge" v="yes" />
		<tag k="highway" v="primary" />
		<tag k="layer" v="1" />
		<tag k="maxspeed" v="80" />
		<tag k="name" v="Garrabrekkbrua" />
		<tag k="ref" v="715" />
		<tag k="ssr:stedsnr" v="710312" />
		<nd ref="6851008734" />
		<nd ref="6851008735" />
		<nd ref="6851008736" />
	</way>
	<way id="731549613" version="2" timestamp="2022-01-24T21:00:15Z" changeset="116559033" uid="3497659" user="NKA">
		<tag k="bridge" v="yes" />
		<tag k="highway" v="primary" />
		<tag k="layer" v="1" />
		<tag k="maxspeed" v="60" />
		<tag k="name" v="Mølslettbrua" />
		<tag k="ref" v="715" />
		<tag k="ssr:stedsnr" v="406313" />
		<nd ref="6851009058" />
		<nd ref="6851009059" />
	</way>
	<way id="731549615" version="2" timestamp="2022-01-24T21:00:15Z" changeset="116559033" uid="3497659" user="NKA">
		<tag k="bridge" v="yes" />
		<tag k="highway" v="primary" />
		<tag k="layer" v="1" />
		<tag k="maxspeed" v="80" />
		<tag k="name" v="Trømobrua" />
		<tag k="ref" v="715" />
		<tag k="ssr:stedsnr" v="42299" />
		<nd ref="6851009183" />
		<nd ref="6851009184" />
	</way>
	<way id="731549642" version="2" timestamp="2022-01-24T21:00:15Z" changeset="116559033" uid="3497659" user="NKA">
		<tag k="bridge" v="yes" />
		<tag k="highway" v="secondary" />
		<tag k="layer" v="1" />
		<tag k="maxspeed" v="80" />
		<tag k="name" v="Skjærbubrua" />
		<tag k="ref" v="6330" />
		<tag k="ssr:stedsnr" v="880992" />
		<nd ref="6851014546" />
		<nd ref="6851014547" />
	</way>
	<way id="731549959" version="2" timestamp="2022-01-24T21:00:15Z" changeset="116559033" uid="3497659" user="NKA">
		<tag k="bridge" v="yes" />
		<tag k="highway" v="secondary" />
		<tag k="layer" v="1" />
		<tag k="maxspeed" v="40" />
		<tag k="name" v="Linesøybrua" />
		<tag k="ref" v="6320" />
		<tag k="ssr:stedsnr" v="238136" />
		<nd ref="1932079259" />
		<nd ref="6851039300" />
	</way>
	<way id="964400394" version="2" timestamp="2022-01-24T21:00:15Z" changeset="116559033" uid="3497659" user="NKA">
		<tag k="bridge" v="yes" />
		<tag k="highway" v="primary" />
		<tag k="layer" v="1" />
		<tag k="maxspeed" v="50" />
		<tag k="name" v="Nordre Lunnfjordbrua" />
		<tag k="ref" v="723" />
		<tag k="ssr:stedsnr" v="164357" />
		<nd ref="8920447528" />
		<nd ref="8920447527" />
	</way>
</osm>
