<?xml version="1.0" encoding="UTF-8"?>
<osm version="0.6" generator="osmapis">
	<node lat="66.438122220337" lon="11.950944437890351" id="-17483">
		<tag k="name" v="Langtaren" />
		<tag k="natural" v="shoal" />
		<tag k="place" v="locality" />
		<tag k="ssr:date" v="2021-06-08" />
		<tag k="ssr:gruppe" v="grunnerISjø" />
		<tag k="ssr:hovedgruppe" v="sjø" />
		<tag k="ssr:stedsnr" v="15202" />
		<tag k="ssr:type" v="grunneISjø" />
	</node>
	<node lat="66.40945278132253" lon="11.965491666389475" id="-17484">
		<tag k="name" v="Øvskallen" />
		<tag k="natural" v="shoal" />
		<tag k="place" v="locality" />
		<tag k="ssr:date" v="2021-06-08" />
		<tag k="ssr:gruppe" v="grunnerISjø" />
		<tag k="ssr:hovedgruppe" v="sjø" />
		<tag k="ssr:stedsnr" v="15206" />
		<tag k="ssr:type" v="grunneISjø" />
	</node>
	<node lat="66.45979166643897" lon="11.952774997701987" id="-17485">
		<tag k="name" v="Fromerra" />
		<tag k="place" v="islet" />
		<tag k="ssr:date" v="2021-06-08" />
		<tag k="ssr:gruppe" v="kystkontur" />
		<tag k="ssr:hovedgruppe" v="sjø" />
		<tag k="ssr:stedsnr" v="15264" />
		<tag k="ssr:type" v="holmeISjø" />
	</node>
	<node lat="66.47244722523602" lon="12.003561108149556" id="-17486">
		<tag k="name" v="Fløttingen" />
		<tag k="place" v="islet" />
		<tag k="ssr:date" v="2021-06-08" />
		<tag k="ssr:gruppe" v="kystkontur" />
		<tag k="ssr:hovedgruppe" v="sjø" />
		<tag k="ssr:stedsnr" v="15268" />
		<tag k="ssr:type" v="holmeISjø" />
	</node>
	<node lat="66.47535278088628" lon="11.990811103760393" id="-17487">
		<tag k="name" v="Rodussen" />
		<tag k="place" v="islet" />
		<tag k="ssr:date" v="2016-05-10" />
		<tag k="ssr:gruppe" v="kystkontur" />
		<tag k="ssr:hovedgruppe" v="sjø" />
		<tag k="ssr:stedsnr" v="15270" />
		<tag k="ssr:type" v="holmeISjø" />
	</node>
	<node lat="66.46348333451743" lon="11.958724989307457" id="-17488">
		<tag k="name" v="Litlfroa" />
		<tag k="place" v="islet" />
		<tag k="ssr:date" v="2021-06-08" />
		<tag k="ssr:gruppe" v="kystkontur" />
		<tag k="ssr:hovedgruppe" v="sjø" />
		<tag k="ssr:stedsnr" v="15271" />
		<tag k="ssr:type" v="holmeISjø" />
	</node>
	<node lat="66.61164999663168" lon="12.070830553427774" id="-17489">
		<tag k="name" v="Seiholmgrunnen" />
		<tag k="natural" v="shoal" />
		<tag k="place" v="locality" />
		<tag k="ssr:date" v="2021-06-08" />
		<tag k="ssr:gruppe" v="grunnerISjø" />
		<tag k="ssr:hovedgruppe" v="sjø" />
		<tag k="ssr:stedsnr" v="15662" />
		<tag k="ssr:type" v="grunneISjø" />
	</node>
	<node lat="66.60591944765754" lon="12.106519438160865" id="-17490">
		<tag k="name" v="Breiskallen" />
		<tag k="natural" v="shoal" />
		<tag k="place" v="locality" />
		<tag k="ssr:date" v="2021-06-08" />
		<tag k="ssr:gruppe" v="grunnerISjø" />
		<tag k="ssr:hovedgruppe" v="sjø" />
		<tag k="ssr:stedsnr" v="15669" />
		<tag k="ssr:type" v="grunneISjø" />
	</node>
	<node lat="66.6120250006942" lon="12.20750832243916" id="-17491">
		<tag k="name" v="Andholmflua" />
		<tag k="natural" v="shoal" />
		<tag k="place" v="locality" />
		<tag k="ssr:date" v="2021-06-08" />
		<tag k="ssr:gruppe" v="grunnerISjø" />
		<tag k="ssr:hovedgruppe" v="sjø" />
		<tag k="ssr:stedsnr" v="16601" />
		<tag k="ssr:type" v="grunneISjø" />
	</node>
	<node lat="66.56525555344246" lon="12.146275007705134" id="-17492">
		<tag k="fixme" v="consider seamark:type=rock or natural=shoal" />
		<tag k="name" v="Rossøykalven" />
		<tag k="place" v="islet" />
		<tag k="ssr:date" v="2021-06-08" />
		<tag k="ssr:gruppe" v="grunnerISjø" />
		<tag k="ssr:hovedgruppe" v="sjø" />
		<tag k="ssr:stedsnr" v="16604" />
		<tag k="ssr:type" v="skjærISjø" />
	</node>
	<node lat="66.55771666975696" lon="12.141080555298197" id="-17493">
		<tag k="name" v="Rossøyfluan" />
		<tag k="natural" v="shoal" />
		<tag k="place" v="locality" />
		<tag k="ssr:date" v="2021-06-08" />
		<tag k="ssr:gruppe" v="grunnerISjø" />
		<tag k="ssr:hovedgruppe" v="sjø" />
		<tag k="ssr:stedsnr" v="16609" />
		<tag k="ssr:type" v="grunneISjø" />
	</node>
	<node lat="66.56218889296242" lon="12.10098334153185" id="-17494">
		<tag k="name" v="Kobbåsen" />
		<tag k="place" v="islet" />
		<tag k="ssr:date" v="2021-06-08" />
		<tag k="ssr:gruppe" v="kystkontur" />
		<tag k="ssr:hovedgruppe" v="sjø" />
		<tag k="ssr:stedsnr" v="16612" />
		<tag k="ssr:type" v="holmeISjø" />
	</node>
	<node lat="66.50549722121478" lon="12.027866677299548" id="-17495">
		<tag k="name" v="Nordstorvika" />
		<tag k="natural" v="bay" />
		<tag k="ssr:date" v="2016-05-10" />
		<tag k="ssr:gruppe" v="kystkontur" />
		<tag k="ssr:hovedgruppe" v="sjø" />
		<tag k="ssr:stedsnr" v="232772" />
		<tag k="ssr:type" v="vikISjø" />
	</node>
	<node lat="66.64953611228803" lon="12.25293610205091" id="-17496">
		<tag k="fixme" v="consider seamark:type=rock or natural=shoal" />
		<tag k="name" v="Litlskarvholmmerra" />
		<tag k="place" v="islet" />
		<tag k="ssr:date" v="2021-06-08" />
		<tag k="ssr:gruppe" v="grunnerISjø" />
		<tag k="ssr:hovedgruppe" v="sjø" />
		<tag k="ssr:stedsnr" v="16701" />
		<tag k="ssr:type" v="skjærISjø" />
	</node>
	<node lat="66.58797500309656" lon="12.246013884796572" id="-17497">
		<tag k="name" v="Neset" />
		<tag k="natural" v="cape" />
		<tag k="ssr:date" v="2016-05-10" />
		<tag k="ssr:gruppe" v="kystkontur" />
		<tag k="ssr:hovedgruppe" v="sjø" />
		<tag k="ssr:stedsnr" v="49780" />
		<tag k="ssr:type" v="nesISjø" />
	</node>
	<node lat="66.43323055663345" lon="11.99413612072882" id="-17498">
		<tag k="name" v="Heimfallet" />
		<tag k="natural" v="shoal" />
		<tag k="place" v="locality" />
		<tag k="ssr:date" v="2021-06-08" />
		<tag k="ssr:gruppe" v="grunnerISjø" />
		<tag k="ssr:hovedgruppe" v="sjø" />
		<tag k="ssr:stedsnr" v="76211" />
		<tag k="ssr:type" v="grunneISjø" />
	</node>
	<node lat="66.42583055897266" lon="11.989055559317046" id="-17499">
		<tag k="name" v="Djuphesten" />
		<tag k="natural" v="shoal" />
		<tag k="place" v="locality" />
		<tag k="ssr:date" v="2021-06-08" />
		<tag k="ssr:gruppe" v="grunnerISjø" />
		<tag k="ssr:hovedgruppe" v="sjø" />
		<tag k="ssr:stedsnr" v="76224" />
		<tag k="ssr:type" v="grunneISjø" />
	</node>
	<node lat="66.48893333456121" lon="11.961002786379149" id="-17500">
		<tag k="name" v="Brørne" />
		<tag k="natural" v="shoal" />
		<tag k="place" v="locality" />
		<tag k="ssr:date" v="2021-06-08" />
		<tag k="ssr:gruppe" v="grunnerISjø" />
		<tag k="ssr:hovedgruppe" v="sjø" />
		<tag k="ssr:stedsnr" v="76248" />
		<tag k="ssr:type" v="grunneISjø" />
	</node>
	<node lat="66.47777500025776" lon="12.070008332556679" id="-17501">
		<tag k="name" v="Surnøya" />
		<tag k="place" v="islet" />
		<tag k="ssr:date" v="2016-05-10" />
		<tag k="ssr:gruppe" v="kystkontur" />
		<tag k="ssr:hovedgruppe" v="sjø" />
		<tag k="ssr:stedsnr" v="76254" />
		<tag k="ssr:type" v="holmeISjø" />
	</node>
	<node lat="66.48240833016591" lon="12.10666389942979" id="-17502">
		<tag k="name" v="Skarvskjæret" />
		<tag k="place" v="islet" />
		<tag k="ssr:date" v="2021-06-08" />
		<tag k="ssr:gruppe" v="kystkontur" />
		<tag k="ssr:hovedgruppe" v="sjø" />
		<tag k="ssr:stedsnr" v="76255" />
		<tag k="ssr:type" v="holmeISjø" />
	</node>
	<node lat="66.48564444058194" lon="12.087772213619516" id="-17503">
		<tag k="name" v="Lamholmen" />
		<tag k="place" v="islet" />
		<tag k="ssr:date" v="2016-05-10" />
		<tag k="ssr:gruppe" v="kystkontur" />
		<tag k="ssr:hovedgruppe" v="sjø" />
		<tag k="ssr:stedsnr" v="76260" />
		<tag k="ssr:type" v="holmeISjø" />
	</node>
	<node lat="66.55973888687983" lon="12.036183322197894" id="-17504">
		<tag k="name" v="Bollbåen" />
		<tag k="natural" v="shoal" />
		<tag k="place" v="locality" />
		<tag k="ssr:date" v="2021-06-08" />
		<tag k="ssr:gruppe" v="grunnerISjø" />
		<tag k="ssr:hovedgruppe" v="sjø" />
		<tag k="ssr:stedsnr" v="77655" />
		<tag k="ssr:type" v="grunneISjø" />
	</node>
	<node lat="66.57150833079184" lon="12.10294167572671" id="-17505">
		<tag k="name" v="Båsan" />
		<tag k="place" v="island" />
		<tag k="ssr:date" v="2021-06-08" />
		<tag k="ssr:gruppe" v="kystkontur" />
		<tag k="ssr:hovedgruppe" v="sjø" />
		<tag k="ssr:stedsnr" v="77663" />
		<tag k="ssr:type" v="øygruppeISjø" />
	</node>
	<node lat="66.51130277347798" lon="12.143644451126335" id="-17506">
		<tag k="name" v="Verholman" />
		<tag k="place" v="islet" />
		<tag k="ssr:date" v="2021-06-08" />
		<tag k="ssr:gruppe" v="kystkontur" />
		<tag k="ssr:hovedgruppe" v="sjø" />
		<tag k="ssr:stedsnr" v="77703" />
		<tag k="ssr:type" v="holmeISjø" />
	</node>
	<node lat="66.50426111323097" lon="12.01348887997178" id="-17507">
		<tag k="fixme" v="consider natural=peak for the most distinct mountains in the district" />
		<tag k="name" v="Ålvoren" />
		<tag k="natural" v="hill" />
		<tag k="place" v="locality" />
		<tag k="ssr:date" v="2016-05-10" />
		<tag k="ssr:gruppe" v="høyder" />
		<tag k="ssr:hovedgruppe" v="terreng" />
		<tag k="ssr:stedsnr" v="77707" />
		<tag k="ssr:type" v="ås" />
	</node>
	<node lat="66.6202888926312" lon="12.24264999447763" id="-17508">
		<tag k="name" v="Raudholmfluan" />
		<tag k="natural" v="shoal" />
		<tag k="place" v="locality" />
		<tag k="ssr:date" v="2021-06-08" />
		<tag k="ssr:gruppe" v="grunnerISjø" />
		<tag k="ssr:hovedgruppe" v="sjø" />
		<tag k="ssr:stedsnr" v="77753" />
		<tag k="ssr:type" v="grunneISjø" />
	</node>
	<node lat="66.63792499643303" lon="12.235074992338381" id="-17509">
		<tag k="name" v="Tjørnholmen" />
		<tag k="place" v="islet" />
		<tag k="ssr:date" v="2016-05-10" />
		<tag k="ssr:gruppe" v="kystkontur" />
		<tag k="ssr:hovedgruppe" v="sjø" />
		<tag k="ssr:stedsnr" v="77759" />
		<tag k="ssr:type" v="holmeISjø" />
	</node>
	<node lat="66.57831110935794" lon="12.234524995984057" id="-17510">
		<tag k="name" v="Sjurdøydragan" />
		<tag k="natural" v="strait" />
		<tag k="ssr:date" v="2016-05-10" />
		<tag k="ssr:gruppe" v="kystkontur" />
		<tag k="ssr:hovedgruppe" v="sjø" />
		<tag k="ssr:stedsnr" v="77798" />
		<tag k="ssr:type" v="sundISjø" />
	</node>
	<node lat="66.50595000147158" lon="12.03314722313732" id="-17511">
		<tag k="name" v="Øksendalsvika" />
		<tag k="natural" v="bay" />
		<tag k="ssr:date" v="2016-05-10" />
		<tag k="ssr:gruppe" v="kystkontur" />
		<tag k="ssr:hovedgruppe" v="sjø" />
		<tag k="ssr:stedsnr" v="111770" />
		<tag k="ssr:type" v="vikISjø" />
	</node>
	<node lat="66.54331944067201" lon="12.251502774851215" id="-17512">
		<tag k="name" v="Tana" />
		<tag k="natural" v="cape" />
		<tag k="ssr:date" v="2016-05-10" />
		<tag k="ssr:gruppe" v="kystkontur" />
		<tag k="ssr:hovedgruppe" v="sjø" />
		<tag k="ssr:stedsnr" v="111772" />
		<tag k="ssr:type" v="nesISjø" />
	</node>
	<node lat="66.5120111115793" lon="12.060486111086167" id="-17513">
		<tag k="fixme" v="consider seamark:type=rock or natural=shoal" />
		<tag k="name" v="Flæsa" />
		<tag k="place" v="islet" />
		<tag k="ssr:date" v="2016-05-10" />
		<tag k="ssr:gruppe" v="grunnerISjø" />
		<tag k="ssr:hovedgruppe" v="sjø" />
		<tag k="ssr:stedsnr" v="111777" />
		<tag k="ssr:type" v="skjærISjø" />
	</node>
	<node lat="66.49676666882749" lon="11.956063900266221" id="-17514">
		<tag k="name" v="Gauvan" />
		<tag k="natural" v="shoal" />
		<tag k="place" v="locality" />
		<tag k="ssr:date" v="2021-06-08" />
		<tag k="ssr:gruppe" v="grunnerISjø" />
		<tag k="ssr:hovedgruppe" v="sjø" />
		<tag k="ssr:stedsnr" v="136255" />
		<tag k="ssr:type" v="grunneISjø" />
	</node>
	<node lat="66.61532777620381" lon="12.163569442801055" id="-17515">
		<tag k="name" v="Skrælingsfluan" />
		<tag k="natural" v="shoal" />
		<tag k="place" v="locality" />
		<tag k="ssr:date" v="2021-06-08" />
		<tag k="ssr:gruppe" v="grunnerISjø" />
		<tag k="ssr:hovedgruppe" v="sjø" />
		<tag k="ssr:stedsnr" v="136648" />
		<tag k="ssr:type" v="grunneISjø" />
	</node>
	<node lat="66.59799444362515" lon="12.234697215450069" id="-17516">
		<tag k="name" v="Vardøya" />
		<tag k="place" v="islet" />
		<tag k="ssr:date" v="2021-06-08" />
		<tag k="ssr:gruppe" v="kystkontur" />
		<tag k="ssr:hovedgruppe" v="sjø" />
		<tag k="ssr:stedsnr" v="137745" />
		<tag k="ssr:type" v="holmeISjø" />
	</node>
	<node lat="66.63042499687465" lon="12.289936099758645" id="-17517">
		<tag k="name" v="Mellombursbåen" />
		<tag k="natural" v="shoal" />
		<tag k="place" v="locality" />
		<tag k="ssr:date" v="2021-06-08" />
		<tag k="ssr:gruppe" v="grunnerISjø" />
		<tag k="ssr:hovedgruppe" v="sjø" />
		<tag k="ssr:stedsnr" v="153903" />
		<tag k="ssr:type" v="grunneISjø" />
	</node>
	<node lat="66.5282277805151" lon="12.07350555594799" id="-17518">
		<tag k="name" v="Likholmen" />
		<tag k="place" v="islet" />
		<tag k="ssr:date" v="2021-06-08" />
		<tag k="ssr:gruppe" v="kystkontur" />
		<tag k="ssr:hovedgruppe" v="sjø" />
		<tag k="ssr:stedsnr" v="258690" />
		<tag k="ssr:type" v="holmeISjø" />
	</node>
	<node lat="66.497419445841" lon="11.98214167558345" id="-17519">
		<tag k="fixme" v="consider seamark:type=rock or natural=shoal" />
		<tag k="name" v="Svartskjæret" />
		<tag k="place" v="islet" />
		<tag k="ssr:date" v="2021-06-08" />
		<tag k="ssr:gruppe" v="grunnerISjø" />
		<tag k="ssr:hovedgruppe" v="sjø" />
		<tag k="ssr:stedsnr" v="258229" />
		<tag k="ssr:type" v="skjærISjø" />
	</node>
	<node lat="66.46113333669759" lon="12.037463878070863" id="-17520">
		<tag k="fixme" v="consider seamark:type=rock or natural=shoal" />
		<tag k="name" v="Grunnskjæran" />
		<tag k="place" v="islet" />
		<tag k="ssr:date" v="2016-05-10" />
		<tag k="ssr:gruppe" v="grunnerISjø" />
		<tag k="ssr:hovedgruppe" v="sjø" />
		<tag k="ssr:stedsnr" v="258247" />
		<tag k="ssr:type" v="skjærISjø" />
	</node>
	<node lat="66.6327777821792" lon="12.206919440223837" id="-17521">
		<tag k="fixme" v="consider seamark:type=rock or natural=shoal" />
		<tag k="name" v="Klubbskjæret" />
		<tag k="place" v="islet" />
		<tag k="ssr:date" v="2021-06-08" />
		<tag k="ssr:gruppe" v="grunnerISjø" />
		<tag k="ssr:hovedgruppe" v="sjø" />
		<tag k="ssr:stedsnr" v="258618" />
		<tag k="ssr:type" v="skjærISjø" />
	</node>
	<node lat="66.65198333791346" lon="12.197819440292427" id="-17522">
		<tag k="name" v="Kuskallen" />
		<tag k="natural" v="shoal" />
		<tag k="place" v="locality" />
		<tag k="ssr:date" v="2016-05-10" />
		<tag k="ssr:gruppe" v="grunnerISjø" />
		<tag k="ssr:hovedgruppe" v="sjø" />
		<tag k="ssr:stedsnr" v="258626" />
		<tag k="ssr:type" v="grunneISjø" />
	</node>
	<node lat="66.59622500313957" lon="12.076102775636784" id="-17523">
		<tag k="name" v="Litltrænseiholmen" />
		<tag k="place" v="islet" />
		<tag k="ssr:date" v="2021-06-08" />
		<tag k="ssr:gruppe" v="kystkontur" />
		<tag k="ssr:hovedgruppe" v="sjø" />
		<tag k="ssr:stedsnr" v="258629" />
		<tag k="ssr:type" v="holmeISjø" />
	</node>
	<node lat="66.59868055889412" lon="12.076591670774874" id="-17524">
		<tag k="name" v="Trænseiholmen" />
		<tag k="place" v="islet" />
		<tag k="ssr:date" v="2021-06-08" />
		<tag k="ssr:gruppe" v="kystkontur" />
		<tag k="ssr:hovedgruppe" v="sjø" />
		<tag k="ssr:stedsnr" v="258630" />
		<tag k="ssr:type" v="holmeISjø" />
	</node>
	<node lat="66.61632222335469" lon="12.206558337278757" id="-17525">
		<tag k="name" v="Skrælingan" />
		<tag k="place" v="islet" />
		<tag k="ssr:date" v="2021-06-08" />
		<tag k="ssr:gruppe" v="kystkontur" />
		<tag k="ssr:hovedgruppe" v="sjø" />
		<tag k="ssr:stedsnr" v="258646" />
		<tag k="ssr:type" v="holmeISjø" />
	</node>
	<node lat="66.61206944202377" lon="12.165125002256824" id="-17526">
		<tag k="fixme" v="multiple name tags, choose one and add the other to alt_name" />
		<tag k="name" v="Selværseiholmen;Seiholmen" />
		<tag k="place" v="islet" />
		<tag k="ssr:date" v="2021-06-08" />
		<tag k="ssr:gruppe" v="kystkontur" />
		<tag k="ssr:hovedgruppe" v="sjø" />
		<tag k="ssr:stedsnr" v="258648" />
		<tag k="ssr:type" v="holmeISjø" />
	</node>
	<node lat="66.59321111339584" lon="12.273750004017959" id="-17527">
		<tag k="name" v="Kvitingsfluan" />
		<tag k="natural" v="shoal" />
		<tag k="place" v="locality" />
		<tag k="ssr:date" v="2021-06-08" />
		<tag k="ssr:gruppe" v="grunnerISjø" />
		<tag k="ssr:hovedgruppe" v="sjø" />
		<tag k="ssr:stedsnr" v="259757" />
		<tag k="ssr:type" v="grunneISjø" />
	</node>
	<node lat="66.6245333307224" lon="12.201561105428299" id="-17528">
		<tag k="fixme" v="consider seamark:type=rock or natural=shoal" />
		<tag k="name" v="Måøyteisten" />
		<tag k="place" v="islet" />
		<tag k="ssr:date" v="2016-05-10" />
		<tag k="ssr:gruppe" v="grunnerISjø" />
		<tag k="ssr:hovedgruppe" v="sjø" />
		<tag k="ssr:stedsnr" v="170768" />
		<tag k="ssr:type" v="skjærISjø" />
	</node>
	<node lat="66.50658889005793" lon="12.052422212332184" id="-17529">
		<tag k="name" v="Sannagården" />
		<tag k="place" v="farm" />
		<tag k="ssr:date" v="2016-05-10" />
		<tag k="ssr:gruppe" v="gardsbebyggelse" />
		<tag k="ssr:hovedgruppe" v="bebyggelse" />
		<tag k="ssr:stedsnr" v="171802" />
		<tag k="ssr:type" v="bruk" />
	</node>
	<node lat="66.49313055528498" lon="12.074886120483857" id="-17530">
		<tag k="name" v="Heirsandsundet" />
		<tag k="natural" v="strait" />
		<tag k="ssr:date" v="2021-06-08" />
		<tag k="ssr:gruppe" v="kystkontur" />
		<tag k="ssr:hovedgruppe" v="sjø" />
		<tag k="ssr:stedsnr" v="263570" />
		<tag k="ssr:type" v="sundISjø" />
	</node>
	<node lat="66.47575555145376" lon="11.95132777377088" id="-17531">
		<tag k="name" v="Djupbåen" />
		<tag k="natural" v="shoal" />
		<tag k="place" v="locality" />
		<tag k="ssr:date" v="2021-06-08" />
		<tag k="ssr:gruppe" v="grunnerISjø" />
		<tag k="ssr:hovedgruppe" v="sjø" />
		<tag k="ssr:stedsnr" v="197265" />
		<tag k="ssr:type" v="grunneISjø" />
	</node>
	<node lat="66.45937221813294" lon="12.078055552184978" id="-17533">
		<tag k="name" v="Fjellskallen" />
		<tag k="natural" v="shoal" />
		<tag k="place" v="locality" />
		<tag k="ssr:date" v="2021-06-08" />
		<tag k="ssr:gruppe" v="grunnerISjø" />
		<tag k="ssr:hovedgruppe" v="sjø" />
		<tag k="ssr:stedsnr" v="197271" />
		<tag k="ssr:type" v="grunneISjø" />
	</node>
	<node lat="66.61471944880523" lon="12.215408337570878" id="-17535">
		<tag k="name" v="Andholmen" />
		<tag k="place" v="islet" />
		<tag k="ssr:date" v="2021-06-08" />
		<tag k="ssr:gruppe" v="kystkontur" />
		<tag k="ssr:hovedgruppe" v="sjø" />
		<tag k="ssr:stedsnr" v="197670" />
		<tag k="ssr:type" v="holmeISjø" />
	</node>
	<node lat="66.58812499637386" lon="12.031911109986536" id="-17536">
		<tag k="name" v="Kobbholmen" />
		<tag k="place" v="islet" />
		<tag k="ssr:date" v="2021-06-08" />
		<tag k="ssr:gruppe" v="kystkontur" />
		<tag k="ssr:hovedgruppe" v="sjø" />
		<tag k="ssr:stedsnr" v="198625" />
		<tag k="ssr:type" v="holmeISjø" />
	</node>
	<node lat="66.59215278048553" lon="12.18392778891373" id="-17537">
		<tag k="fixme" v="consider seamark:type=rock or natural=shoal" />
		<tag k="name" v="Bjørskjæran" />
		<tag k="place" v="islet" />
		<tag k="ssr:date" v="2021-06-08" />
		<tag k="ssr:gruppe" v="grunnerISjø" />
		<tag k="ssr:hovedgruppe" v="sjø" />
		<tag k="ssr:stedsnr" v="198626" />
		<tag k="ssr:type" v="skjærISjø" />
	</node>
	<node lat="66.54001388650072" lon="12.070927775926434" id="-17538">
		<tag k="name" v="Raudholmbåen" />
		<tag k="natural" v="shoal" />
		<tag k="place" v="locality" />
		<tag k="ssr:date" v="2021-06-08" />
		<tag k="ssr:gruppe" v="grunnerISjø" />
		<tag k="ssr:hovedgruppe" v="sjø" />
		<tag k="ssr:stedsnr" v="198658" />
		<tag k="ssr:type" v="grunneISjø" />
	</node>
	<node lat="66.53921111025434" lon="12.170427783885303" id="-17539">
		<tag k="name" v="Medholmen" />
		<tag k="place" v="islet" />
		<tag k="ssr:date" v="2021-06-08" />
		<tag k="ssr:gruppe" v="kystkontur" />
		<tag k="ssr:hovedgruppe" v="sjø" />
		<tag k="ssr:stedsnr" v="198661" />
		<tag k="ssr:type" v="holmeISjø" />
	</node>
	<node lat="66.55333333522344" lon="12.2500000010794" id="-17540">
		<tag k="fixme" v="consider natural=peak for the most distinct mountains in the district" />
		<tag k="name" v="Ørkjetindan" />
		<tag k="natural" v="hill" />
		<tag k="place" v="locality" />
		<tag k="ssr:date" v="2021-06-08" />
		<tag k="ssr:gruppe" v="høyder" />
		<tag k="ssr:hovedgruppe" v="terreng" />
		<tag k="ssr:stedsnr" v="202595" />
		<tag k="ssr:type" v="fjell" />
	</node>
	<node lat="66.50574444239764" lon="12.002708342737508" id="-17541">
		<tag k="name" v="Ålvorsneset" />
		<tag k="natural" v="cape" />
		<tag k="ssr:date" v="2021-06-08" />
		<tag k="ssr:gruppe" v="kystkontur" />
		<tag k="ssr:hovedgruppe" v="sjø" />
		<tag k="ssr:stedsnr" v="213675" />
		<tag k="ssr:type" v="nesISjø" />
	</node>
	<node lat="66.50096389296736" lon="12.024697224643399" id="-17542">
		<tag k="fixme" v="consider seamark:type=rock or natural=shoal" />
		<tag k="name" v="Hagaskjæran" />
		<tag k="place" v="islet" />
		<tag k="ssr:date" v="2021-06-08" />
		<tag k="ssr:gruppe" v="grunnerISjø" />
		<tag k="ssr:hovedgruppe" v="sjø" />
		<tag k="ssr:stedsnr" v="213805" />
		<tag k="ssr:type" v="skjærISjø" />
	</node>
	<node lat="66.60524444203402" lon="12.247852781229723" id="-17543">
		<tag k="fixme" v="consider seamark:type=rock or natural=shoal" />
		<tag k="name" v="Vardøygalten" />
		<tag k="place" v="islet" />
		<tag k="ssr:date" v="2021-06-08" />
		<tag k="ssr:gruppe" v="grunnerISjø" />
		<tag k="ssr:hovedgruppe" v="sjø" />
		<tag k="ssr:stedsnr" v="213924" />
		<tag k="ssr:type" v="skjærISjø" />
	</node>
	<node lat="66.59550555282344" lon="12.232683339992422" id="-17544">
		<tag k="name" v="Lyngøya" />
		<tag k="place" v="island" />
		<tag k="ssr:date" v="2016-05-10" />
		<tag k="ssr:gruppe" v="kystkontur" />
		<tag k="ssr:hovedgruppe" v="sjø" />
		<tag k="ssr:stedsnr" v="231808" />
		<tag k="ssr:type" v="øyISjø" />
	</node>
	<node lat="66.61158610780119" lon="12.146858330186724" id="-17545">
		<tag k="fixme" v="consider seamark:type=rock or natural=shoal" />
		<tag k="name" v="Nordnipskjæret" />
		<tag k="place" v="islet" />
		<tag k="ssr:date" v="2016-05-10" />
		<tag k="ssr:gruppe" v="grunnerISjø" />
		<tag k="ssr:hovedgruppe" v="sjø" />
		<tag k="ssr:stedsnr" v="456596" />
		<tag k="ssr:type" v="skjærISjø" />
	</node>
	<node lat="66.44923889194763" lon="12.036552777006099" id="-17546">
		<tag k="name" v="Innerflåtaren" />
		<tag k="natural" v="shoal" />
		<tag k="place" v="locality" />
		<tag k="ssr:date" v="2021-06-08" />
		<tag k="ssr:gruppe" v="grunnerISjø" />
		<tag k="ssr:hovedgruppe" v="sjø" />
		<tag k="ssr:stedsnr" v="258202" />
		<tag k="ssr:type" v="grunneISjø" />
	</node>
	<node lat="66.42250555521363" lon="12.004130545606023" id="-17547">
		<tag k="name" v="Mjågrunnen" />
		<tag k="natural" v="shoal" />
		<tag k="place" v="locality" />
		<tag k="ssr:date" v="2021-06-08" />
		<tag k="ssr:gruppe" v="grunnerISjø" />
		<tag k="ssr:hovedgruppe" v="sjø" />
		<tag k="ssr:stedsnr" v="258209" />
		<tag k="ssr:type" v="grunneISjø" />
	</node>
	<node lat="66.54793610826627" lon="12.015450007082107" id="-17548">
		<tag k="name" v="Lavrumskallen" />
		<tag k="natural" v="shoal" />
		<tag k="place" v="locality" />
		<tag k="ssr:date" v="2021-06-08" />
		<tag k="ssr:gruppe" v="grunnerISjø" />
		<tag k="ssr:hovedgruppe" v="sjø" />
		<tag k="ssr:stedsnr" v="258656" />
		<tag k="ssr:type" v="grunneISjø" />
	</node>
	<node lat="66.56553611401927" lon="12.102911120167915" id="-17549">
		<tag k="name" v="Kisbåsen" />
		<tag k="place" v="islet" />
		<tag k="ssr:date" v="2021-06-08" />
		<tag k="ssr:gruppe" v="kystkontur" />
		<tag k="ssr:hovedgruppe" v="sjø" />
		<tag k="ssr:stedsnr" v="258660" />
		<tag k="ssr:type" v="holmeISjø" />
	</node>
	<node lat="66.5251666694124" lon="11.981524994246643" id="-17550">
		<tag k="name" v="Nordmjågrunnen" />
		<tag k="natural" v="shoal" />
		<tag k="place" v="locality" />
		<tag k="ssr:date" v="2021-06-08" />
		<tag k="ssr:gruppe" v="grunnerISjø" />
		<tag k="ssr:hovedgruppe" v="sjø" />
		<tag k="ssr:stedsnr" v="258669" />
		<tag k="ssr:type" v="grunneISjø" />
	</node>
	<node lat="66.54984999998118" lon="12.137580566384495" id="-17551">
		<tag k="name" v="Marøybåen" />
		<tag k="natural" v="shoal" />
		<tag k="place" v="locality" />
		<tag k="ssr:date" v="2021-06-08" />
		<tag k="ssr:gruppe" v="grunnerISjø" />
		<tag k="ssr:hovedgruppe" v="sjø" />
		<tag k="ssr:stedsnr" v="258674" />
		<tag k="ssr:type" v="grunneISjø" />
	</node>
	<node lat="66.54465277798772" lon="12.171366665594025" id="-17552">
		<tag k="name" v="Austholmen" />
		<tag k="place" v="islet" />
		<tag k="ssr:date" v="2021-06-08" />
		<tag k="ssr:gruppe" v="kystkontur" />
		<tag k="ssr:hovedgruppe" v="sjø" />
		<tag k="ssr:stedsnr" v="258678" />
		<tag k="ssr:type" v="holmeISjø" />
	</node>
	<node lat="66.53386666854608" lon="12.23293610505905" id="-17553">
		<tag k="name" v="Sørskarven" />
		<tag k="place" v="islet" />
		<tag k="ssr:date" v="2021-06-08" />
		<tag k="ssr:gruppe" v="kystkontur" />
		<tag k="ssr:hovedgruppe" v="sjø" />
		<tag k="ssr:stedsnr" v="258811" />
		<tag k="ssr:type" v="holmeISjø" />
	</node>
	<node lat="66.50483333519568" lon="12.128333326673122" id="-17554">
		<tag k="name" v="Remningsvågen" />
		<tag k="place" v="islet" />
		<tag k="ssr:date" v="2016-05-10" />
		<tag k="ssr:gruppe" v="kystkontur" />
		<tag k="ssr:hovedgruppe" v="sjø" />
		<tag k="ssr:stedsnr" v="258705" />
		<tag k="ssr:type" v="holmeISjø" />
	</node>
	<node lat="66.61040833400186" lon="12.224913889062528" id="-17555">
		<tag k="name" v="Gotterongsflua" />
		<tag k="natural" v="shoal" />
		<tag k="place" v="locality" />
		<tag k="ssr:date" v="2021-06-08" />
		<tag k="ssr:gruppe" v="grunnerISjø" />
		<tag k="ssr:hovedgruppe" v="sjø" />
		<tag k="ssr:stedsnr" v="456929" />
		<tag k="ssr:type" v="grunneISjø" />
	</node>
	<node lat="66.61888055424777" lon="12.228891671173148" id="-17556">
		<tag k="name" v="Litlbrya" />
		<tag k="place" v="islet" />
		<tag k="ssr:date" v="2021-06-08" />
		<tag k="ssr:gruppe" v="kystkontur" />
		<tag k="ssr:hovedgruppe" v="sjø" />
		<tag k="ssr:stedsnr" v="457199" />
		<tag k="ssr:type" v="holmeISjø" />
	</node>
	<node lat="66.48068611225764" lon="12.365786120096175" id="-17557">
		<tag k="name" v="Austerfallet" />
		<tag k="natural" v="shoal" />
		<tag k="place" v="locality" />
		<tag k="ssr:date" v="2021-06-08" />
		<tag k="ssr:gruppe" v="grunnerISjø" />
		<tag k="ssr:hovedgruppe" v="sjø" />
		<tag k="ssr:stedsnr" v="318202" />
		<tag k="ssr:type" v="grunneISjø" />
	</node>
	<node lat="66.49821110682322" lon="12.109394448348711" id="-17558">
		<tag k="name" v="Torvøya" />
		<tag k="place" v="islet" />
		<tag k="ssr:date" v="2021-06-08" />
		<tag k="ssr:gruppe" v="kystkontur" />
		<tag k="ssr:hovedgruppe" v="sjø" />
		<tag k="ssr:stedsnr" v="318224" />
		<tag k="ssr:type" v="holmeISjø" />
	</node>
	<node lat="66.47876666381977" lon="11.98817499453677" id="-17559">
		<tag k="name" v="Skarvholman" />
		<tag k="place" v="islet" />
		<tag k="ssr:date" v="2021-06-08" />
		<tag k="ssr:gruppe" v="kystkontur" />
		<tag k="ssr:hovedgruppe" v="sjø" />
		<tag k="ssr:stedsnr" v="318229" />
		<tag k="ssr:type" v="holmeISjø" />
	</node>
	<node lat="66.4767888850755" lon="11.996644448053072" id="-17560">
		<tag k="name" v="Selsholmen" />
		<tag k="place" v="islet" />
		<tag k="ssr:date" v="2021-06-08" />
		<tag k="ssr:gruppe" v="kystkontur" />
		<tag k="ssr:hovedgruppe" v="sjø" />
		<tag k="ssr:stedsnr" v="318231" />
		<tag k="ssr:type" v="holmeISjø" />
	</node>
	<node lat="66.65870000059657" lon="12.27087499461825" id="-17561">
		<tag k="fixme" v="consider seamark:type=rock or natural=shoal" />
		<tag k="name" v="Storskarvholmmerra" />
		<tag k="place" v="islet" />
		<tag k="ssr:date" v="2021-06-08" />
		<tag k="ssr:gruppe" v="grunnerISjø" />
		<tag k="ssr:hovedgruppe" v="sjø" />
		<tag k="ssr:stedsnr" v="319734" />
		<tag k="ssr:type" v="skjærISjø" />
	</node>
	<node lat="66.6121972207879" lon="12.28889443299753" id="-17562">
		<tag k="fixme" v="consider seamark:type=rock or natural=shoal" />
		<tag k="name" v="Nordre Trollskjæret" />
		<tag k="place" v="islet" />
		<tag k="ssr:date" v="2021-06-08" />
		<tag k="ssr:gruppe" v="grunnerISjø" />
		<tag k="ssr:hovedgruppe" v="sjø" />
		<tag k="ssr:stedsnr" v="319735" />
		<tag k="ssr:type" v="skjærISjø" />
	</node>
	<node lat="66.63692499710882" lon="12.265052774597038" id="-17563">
		<tag k="name" v="Bursfluan" />
		<tag k="natural" v="shoal" />
		<tag k="place" v="locality" />
		<tag k="ssr:date" v="2021-06-08" />
		<tag k="ssr:gruppe" v="grunnerISjø" />
		<tag k="ssr:hovedgruppe" v="sjø" />
		<tag k="ssr:stedsnr" v="319746" />
		<tag k="ssr:type" v="grunneISjø" />
	</node>
	<node lat="66.60146388866298" lon="12.271986113269879" id="-17564">
		<tag k="fixme" v="consider seamark:type=rock or natural=shoal" />
		<tag k="name" v="Kvitingan" />
		<tag k="place" v="islet" />
		<tag k="ssr:date" v="2021-06-08" />
		<tag k="ssr:gruppe" v="grunnerISjø" />
		<tag k="ssr:hovedgruppe" v="sjø" />
		<tag k="ssr:stedsnr" v="319747" />
		<tag k="ssr:type" v="skjærISjø" />
	</node>
	<node lat="66.5372416686731" lon="12.172080563173461" id="-17565">
		<tag k="name" v="Slettholmen" />
		<tag k="place" v="islet" />
		<tag k="ssr:date" v="2021-06-08" />
		<tag k="ssr:gruppe" v="kystkontur" />
		<tag k="ssr:hovedgruppe" v="sjø" />
		<tag k="ssr:stedsnr" v="319641" />
		<tag k="ssr:type" v="holmeISjø" />
	</node>
	<node lat="66.5439694415971" lon="12.152883335585345" id="-17566">
		<tag k="name" v="Torvvær" />
		<tag k="place" v="island" />
		<tag k="ssr:date" v="2021-06-08" />
		<tag k="ssr:gruppe" v="kystkontur" />
		<tag k="ssr:hovedgruppe" v="sjø" />
		<tag k="ssr:stedsnr" v="319650" />
		<tag k="ssr:type" v="øygruppeISjø" />
	</node>
	<node lat="66.53802499613458" lon="12.21616944329512" id="-17567">
		<tag k="name" v="Vågsholmen" />
		<tag k="place" v="islet" />
		<tag k="ssr:date" v="2021-06-08" />
		<tag k="ssr:gruppe" v="kystkontur" />
		<tag k="ssr:hovedgruppe" v="sjø" />
		<tag k="ssr:stedsnr" v="319652" />
		<tag k="ssr:type" v="holmeISjø" />
	</node>
	<node lat="66.50700277794711" lon="12.045505544343605" id="-17568">
		<tag k="fixme" v="consider natural=peak for the most distinct mountains in the district" />
		<tag k="name" v="Breitinden" />
		<tag k="natural" v="hill" />
		<tag k="place" v="locality" />
		<tag k="ssr:date" v="2021-06-08" />
		<tag k="ssr:gruppe" v="høyder" />
		<tag k="ssr:hovedgruppe" v="terreng" />
		<tag k="ssr:stedsnr" v="319695" />
		<tag k="ssr:type" v="ås" />
	</node>
	<node lat="66.54932499592832" lon="12.250102775287191" id="-17569">
		<tag k="name" v="Dørvær" />
		<tag k="place" v="island" />
		<tag k="ssr:date" v="2021-06-08" />
		<tag k="ssr:gruppe" v="kystkontur" />
		<tag k="ssr:hovedgruppe" v="sjø" />
		<tag k="ssr:stedsnr" v="320843" />
		<tag k="ssr:type" v="øygruppeISjø" />
	</node>
	<node lat="66.5852388875399" lon="12.220127778326802" id="-17570">
		<tag k="name" v="Sør-Sommarauken" />
		<tag k="place" v="island" />
		<tag k="ssr:date" v="2016-05-10" />
		<tag k="ssr:gruppe" v="kystkontur" />
		<tag k="ssr:hovedgruppe" v="sjø" />
		<tag k="ssr:stedsnr" v="473789" />
		<tag k="ssr:type" v="øyISjø" />
	</node>
	<node lat="66.59507222415178" lon="12.243480558221744" id="-17571">
		<tag k="name" v="Årøyvalen" />
		<tag k="natural" v="strait" />
		<tag k="ssr:date" v="2016-05-10" />
		<tag k="ssr:gruppe" v="kystkontur" />
		<tag k="ssr:hovedgruppe" v="sjø" />
		<tag k="ssr:stedsnr" v="352756" />
		<tag k="ssr:type" v="sundISjø" />
	</node>
	<node lat="66.5868666706299" lon="12.22824722929678" id="-17572">
		<tag k="name" v="Selværsundet" />
		<tag k="natural" v="strait" />
		<tag k="ssr:date" v="2016-05-10" />
		<tag k="ssr:gruppe" v="kystkontur" />
		<tag k="ssr:hovedgruppe" v="sjø" />
		<tag k="ssr:stedsnr" v="352764" />
		<tag k="ssr:type" v="sundISjø" />
	</node>
	<node lat="66.5041666672383" lon="12.103816662267509" id="-17573">
		<tag k="name" v="Galtneset" />
		<tag k="natural" v="cape" />
		<tag k="ssr:date" v="2016-05-10" />
		<tag k="ssr:gruppe" v="kystkontur" />
		<tag k="ssr:hovedgruppe" v="sjø" />
		<tag k="ssr:stedsnr" v="353203" />
		<tag k="ssr:type" v="nesISjø" />
	</node>
	<node lat="66.5010138848623" lon="12.043313878943657" id="-17574">
		<tag k="name" v="Gumpen" />
		<tag k="natural" v="hill" />
		<tag k="place" v="locality" />
		<tag k="ssr:date" v="2016-05-10" />
		<tag k="ssr:gruppe" v="høyder" />
		<tag k="ssr:hovedgruppe" v="terreng" />
		<tag k="ssr:stedsnr" v="353211" />
		<tag k="ssr:type" v="hei" />
	</node>
	<node lat="66.4921638904089" lon="12.014352778619221" id="-17575">
		<tag k="fixme" v="consider seamark:type=rock or natural=shoal" />
		<tag k="name" v="Røsnesskjæran" />
		<tag k="place" v="islet" />
		<tag k="ssr:date" v="2016-05-10" />
		<tag k="ssr:gruppe" v="grunnerISjø" />
		<tag k="ssr:hovedgruppe" v="sjø" />
		<tag k="ssr:stedsnr" v="353217" />
		<tag k="ssr:type" v="skjærISjø" />
	</node>
	<node lat="66.5522444410299" lon="12.247122227011657" id="-17576">
		<tag k="fixme" v="consider natural=peak for the most distinct mountains in the district" />
		<tag k="name" v="Mellatinden" />
		<tag k="natural" v="hill" />
		<tag k="place" v="locality" />
		<tag k="ssr:date" v="2016-05-10" />
		<tag k="ssr:gruppe" v="høyder" />
		<tag k="ssr:hovedgruppe" v="terreng" />
		<tag k="ssr:stedsnr" v="353771" />
		<tag k="ssr:type" v="topp" />
	</node>
	<node lat="66.48091667012503" lon="11.965175002613904" id="-17577">
		<tag k="fixme" v="consider seamark:type=rock or natural=shoal" />
		<tag k="name" v="Haugøyskjæran" />
		<tag k="place" v="islet" />
		<tag k="ssr:date" v="2016-05-10" />
		<tag k="ssr:gruppe" v="grunnerISjø" />
		<tag k="ssr:hovedgruppe" v="sjø" />
		<tag k="ssr:stedsnr" v="475150" />
		<tag k="ssr:type" v="skjærISjø" />
	</node>
	<node lat="66.4943055533356" lon="12.07734721390631" id="-17578">
		<tag k="name" v="Fallavika" />
		<tag k="natural" v="bay" />
		<tag k="ssr:date" v="2016-05-10" />
		<tag k="ssr:gruppe" v="kystkontur" />
		<tag k="ssr:hovedgruppe" v="sjø" />
		<tag k="ssr:stedsnr" v="475152" />
		<tag k="ssr:type" v="vikISjø" />
	</node>
	<node lat="66.55708889056669" lon="12.064258323291735" id="-17579">
		<tag k="name" v="Kangva" />
		<tag k="place" v="islet" />
		<tag k="ssr:date" v="2016-05-10" />
		<tag k="ssr:gruppe" v="kystkontur" />
		<tag k="ssr:hovedgruppe" v="sjø" />
		<tag k="ssr:stedsnr" v="475795" />
		<tag k="ssr:type" v="holmeISjø" />
	</node>
	<node lat="66.4951833295704" lon="12.05561388494753" id="-17580">
		<tag k="name" v="Reinsøya" />
		<tag k="place" v="island" />
		<tag k="ssr:date" v="2021-06-08" />
		<tag k="ssr:gruppe" v="kystkontur" />
		<tag k="ssr:hovedgruppe" v="sjø" />
		<tag k="ssr:stedsnr" v="379220" />
		<tag k="ssr:type" v="øyISjø" />
	</node>
	<node lat="66.48695000034974" lon="11.948605545482915" id="-17581">
		<tag k="name" v="Flåtaren" />
		<tag k="natural" v="shoal" />
		<tag k="place" v="locality" />
		<tag k="ssr:date" v="2021-06-08" />
		<tag k="ssr:gruppe" v="grunnerISjø" />
		<tag k="ssr:hovedgruppe" v="sjø" />
		<tag k="ssr:stedsnr" v="379231" />
		<tag k="ssr:type" v="grunneISjø" />
	</node>
	<node lat="66.4887194465392" lon="12.113374998435186" id="-17582">
		<tag k="name" v="Skarvøya" />
		<tag k="place" v="island" />
		<tag k="ssr:date" v="2021-06-08" />
		<tag k="ssr:gruppe" v="kystkontur" />
		<tag k="ssr:hovedgruppe" v="sjø" />
		<tag k="ssr:stedsnr" v="379241" />
		<tag k="ssr:type" v="øyISjø" />
	</node>
	<node lat="66.46872222540848" lon="11.967997228011363" id="-17583">
		<tag k="name" v="Rakflesa" />
		<tag k="natural" v="shoal" />
		<tag k="place" v="locality" />
		<tag k="ssr:date" v="2021-06-08" />
		<tag k="ssr:gruppe" v="grunnerISjø" />
		<tag k="ssr:hovedgruppe" v="sjø" />
		<tag k="ssr:stedsnr" v="379246" />
		<tag k="ssr:type" v="grunneISjø" />
	</node>
	<node lat="66.51715556001025" lon="12.08770276969618" id="-17584">
		<tag k="name" v="Stornesholmen" />
		<tag k="place" v="islet" />
		<tag k="ssr:date" v="2021-06-08" />
		<tag k="ssr:gruppe" v="kystkontur" />
		<tag k="ssr:hovedgruppe" v="sjø" />
		<tag k="ssr:stedsnr" v="380706" />
		<tag k="ssr:type" v="holmeISjø" />
	</node>
	<node lat="66.52078611479178" lon="12.057197218723473" id="-17585">
		<tag k="alt_name" v="Bussøya" />
		<tag k="name" v="Bussøyan" />
		<tag k="place" v="islet" />
		<tag k="ssr:date" v="2016-05-10" />
		<tag k="ssr:gruppe" v="kystkontur" />
		<tag k="ssr:hovedgruppe" v="sjø" />
		<tag k="ssr:stedsnr" v="380712" />
		<tag k="ssr:type" v="holmeISjø" />
	</node>
	<node lat="66.59393055942509" lon="12.247152782758818" id="-17586">
		<tag k="name" v="Årøya" />
		<tag k="place" v="islet" />
		<tag k="ssr:date" v="2021-06-08" />
		<tag k="ssr:gruppe" v="kystkontur" />
		<tag k="ssr:hovedgruppe" v="sjø" />
		<tag k="ssr:stedsnr" v="380766" />
		<tag k="ssr:type" v="holmeISjø" />
	</node>
	<node lat="66.49499999912993" lon="12.088333323082793" id="-17587">
		<tag k="name" v="Fløttingen" />
		<tag k="place" v="islet" />
		<tag k="ssr:date" v="2021-06-08" />
		<tag k="ssr:gruppe" v="kystkontur" />
		<tag k="ssr:hovedgruppe" v="sjø" />
		<tag k="ssr:stedsnr" v="384545" />
		<tag k="ssr:type" v="holmeISjø" />
	</node>
	<node lat="66.50011111498216" lon="12.038033329219147" id="-17588">
		<tag k="name" v="Sørsanna" />
		<tag k="place" v="island" />
		<tag k="ssr:date" v="2016-05-10" />
		<tag k="ssr:gruppe" v="kystkontur" />
		<tag k="ssr:hovedgruppe" v="sjø" />
		<tag k="ssr:stedsnr" v="414191" />
		<tag k="ssr:type" v="øyISjø" />
	</node>
	<node lat="66.48669999603109" lon="12.29751389894821" id="-17589">
		<tag k="name" v="Sterktaren" />
		<tag k="natural" v="shoal" />
		<tag k="place" v="locality" />
		<tag k="ssr:date" v="2021-06-08" />
		<tag k="ssr:gruppe" v="grunnerISjø" />
		<tag k="ssr:hovedgruppe" v="sjø" />
		<tag k="ssr:stedsnr" v="440253" />
		<tag k="ssr:type" v="grunneISjø" />
	</node>
	<node lat="66.50126380199862" lon="12.098363391438923" id="-17590">
		<tag k="alt_name" v="Træna" />
		<tag k="amenity" v="place_of_worship" />
		<tag k="denomination" v="lutheran" />
		<tag k="name" v="Træna kirke" />
		<tag k="religion" v="christian" />
		<tag k="ssr:date" v="2021-10-15" />
		<tag k="ssr:gruppe" v="kulturinstitusjoner" />
		<tag k="ssr:hovedgruppe" v="kultur" />
		<tag k="ssr:stedsnr" v="441707" />
		<tag k="ssr:type" v="kirke" />
	</node>
	<node lat="66.57535000273636" lon="12.028094442903846" id="-17591">
		<tag k="name" v="Steinen" />
		<tag k="natural" v="shoal" />
		<tag k="place" v="locality" />
		<tag k="ssr:date" v="2021-06-08" />
		<tag k="ssr:gruppe" v="grunnerISjø" />
		<tag k="ssr:hovedgruppe" v="sjø" />
		<tag k="ssr:stedsnr" v="441658" />
		<tag k="ssr:type" v="grunneISjø" />
	</node>
	<node lat="66.52837500261259" lon="12.006841661181914" id="-17592">
		<tag k="name" v="Store Eskjæret" />
		<tag k="place" v="islet" />
		<tag k="ssr:date" v="2016-05-10" />
		<tag k="ssr:gruppe" v="kystkontur" />
		<tag k="ssr:hovedgruppe" v="sjø" />
		<tag k="ssr:stedsnr" v="441667" />
		<tag k="ssr:type" v="holmeISjø" />
	</node>
	<node lat="66.53434444519371" lon="12.165294440074106" id="-17593">
		<tag k="fixme" v="multiple name tags, choose one and add the other to alt_name" />
		<tag k="name" v="Bergeholmen;Seglholmen" />
		<tag k="place" v="islet" />
		<tag k="ssr:date" v="2016-05-10" />
		<tag k="ssr:gruppe" v="kystkontur" />
		<tag k="ssr:hovedgruppe" v="sjø" />
		<tag k="ssr:stedsnr" v="441671" />
		<tag k="ssr:type" v="holmeISjø" />
	</node>
	<node lat="66.5176083294366" lon="12.128752768984159" id="-17594">
		<tag k="name" v="Ytterhellholmen" />
		<tag k="place" v="islet" />
		<tag k="ssr:date" v="2021-06-08" />
		<tag k="ssr:gruppe" v="kystkontur" />
		<tag k="ssr:hovedgruppe" v="sjø" />
		<tag k="ssr:stedsnr" v="441687" />
		<tag k="ssr:type" v="holmeISjø" />
	</node>
	<node lat="66.52315277476632" lon="12.039833329225793" id="-17595">
		<tag k="name" v="Bukkøya" />
		<tag k="place" v="island" />
		<tag k="ssr:date" v="2021-06-08" />
		<tag k="ssr:gruppe" v="kystkontur" />
		<tag k="ssr:hovedgruppe" v="sjø" />
		<tag k="ssr:stedsnr" v="441693" />
		<tag k="ssr:type" v="øyISjø" />
	</node>
	<node lat="66.52290277343572" lon="12.076769443329793" id="-17596">
		<tag k="name" v="Visvær" />
		<tag k="place" v="islet" />
		<tag k="ssr:date" v="2021-06-08" />
		<tag k="ssr:gruppe" v="kystkontur" />
		<tag k="ssr:hovedgruppe" v="sjø" />
		<tag k="ssr:stedsnr" v="441695" />
		<tag k="ssr:type" v="holmeISjø" />
	</node>
	<node lat="66.5254166637686" lon="12.098247216234245" id="-17597">
		<tag k="name" v="Eskjærsteinen" />
		<tag k="natural" v="shoal" />
		<tag k="place" v="locality" />
		<tag k="ssr:date" v="2021-06-08" />
		<tag k="ssr:gruppe" v="grunnerISjø" />
		<tag k="ssr:hovedgruppe" v="sjø" />
		<tag k="ssr:stedsnr" v="441697" />
		<tag k="ssr:type" v="grunneISjø" />
	</node>
	<node lat="66.55342222277683" lon="12.262563882712683" id="-17598">
		<tag k="name" v="Nordskarven" />
		<tag k="place" v="island" />
		<tag k="ssr:date" v="2021-06-08" />
		<tag k="ssr:gruppe" v="kystkontur" />
		<tag k="ssr:hovedgruppe" v="sjø" />
		<tag k="ssr:stedsnr" v="441806" />
		<tag k="ssr:type" v="øyISjø" />
	</node>
	<node lat="66.54935555885483" lon="12.249238882238524" id="-17599">
		<tag k="name" v="Bukkøya" />
		<tag k="place" v="islet" />
		<tag k="ssr:date" v="2016-05-10" />
		<tag k="ssr:gruppe" v="kystkontur" />
		<tag k="ssr:hovedgruppe" v="sjø" />
		<tag k="ssr:stedsnr" v="441809" />
		<tag k="ssr:type" v="holmeISjø" />
	</node>
	<node lat="66.51656666813881" lon="12.148386102023936" id="-17600">
		<tag k="name" v="Matskjæret" />
		<tag k="place" v="islet" />
		<tag k="ssr:date" v="2021-06-08" />
		<tag k="ssr:gruppe" v="kystkontur" />
		<tag k="ssr:hovedgruppe" v="sjø" />
		<tag k="ssr:stedsnr" v="445574" />
		<tag k="ssr:type" v="holmeISjø" />
	</node>
	<node lat="66.53141389109169" lon="12.162000005807872" id="-17601">
		<tag k="fixme" v="consider seamark:type=rock or natural=shoal" />
		<tag k="name" v="Seglskjæret" />
		<tag k="place" v="islet" />
		<tag k="ssr:date" v="2021-06-08" />
		<tag k="ssr:gruppe" v="grunnerISjø" />
		<tag k="ssr:hovedgruppe" v="sjø" />
		<tag k="ssr:stedsnr" v="456465" />
		<tag k="ssr:type" v="skjærISjø" />
	</node>
	<node lat="66.58488333569719" lon="12.238633341246736" id="-17602">
		<tag k="name" v="Olderstad" />
		<tag k="place" v="hamlet" />
		<tag k="ssr:date" v="2016-05-10" />
		<tag k="ssr:gruppe" v="bebyggelsesområder" />
		<tag k="ssr:hovedgruppe" v="bebyggelse" />
		<tag k="ssr:stedsnr" v="473775" />
		<tag k="ssr:type" v="grend" />
	</node>
	<node lat="66.50114999945475" lon="12.073708324814856" id="-17603">
		<tag k="fixme" v="consider natural=peak for the most distinct mountains in the district" />
		<tag k="name" v="Ramberget" />
		<tag k="natural" v="hill" />
		<tag k="place" v="locality" />
		<tag k="ssr:date" v="2016-05-10" />
		<tag k="ssr:gruppe" v="høyder" />
		<tag k="ssr:hovedgruppe" v="terreng" />
		<tag k="ssr:stedsnr" v="475162" />
		<tag k="ssr:type" v="ås" />
	</node>
	<node lat="66.5026472185784" lon="12.10217778183479" id="-17604">
		<tag k="name" v="Janeset" />
		<tag k="natural" v="cape" />
		<tag k="ssr:date" v="2016-05-10" />
		<tag k="ssr:gruppe" v="kystkontur" />
		<tag k="ssr:hovedgruppe" v="sjø" />
		<tag k="ssr:stedsnr" v="475164" />
		<tag k="ssr:type" v="nesISjø" />
	</node>
	<node lat="66.42949166544307" lon="11.96665832221589" id="-17605">
		<tag k="name" v="Sørholmen" />
		<tag k="place" v="islet" />
		<tag k="ssr:date" v="2021-06-08" />
		<tag k="ssr:gruppe" v="kystkontur" />
		<tag k="ssr:hovedgruppe" v="sjø" />
		<tag k="ssr:stedsnr" v="500210" />
		<tag k="ssr:type" v="holmeISjø" />
	</node>
	<node lat="66.45004166257745" lon="12.284205549899264" id="-17606">
		<tag k="name" v="Handrevan" />
		<tag k="natural" v="shoal" />
		<tag k="place" v="locality" />
		<tag k="ssr:date" v="2021-06-08" />
		<tag k="ssr:gruppe" v="grunnerISjø" />
		<tag k="ssr:hovedgruppe" v="sjø" />
		<tag k="ssr:stedsnr" v="500185" />
		<tag k="ssr:type" v="grunneISjø" />
	</node>
	<node lat="66.47132499654109" lon="11.956308323888406" id="-17607">
		<tag k="name" v="Skåktaren" />
		<tag k="natural" v="shoal" />
		<tag k="place" v="locality" />
		<tag k="ssr:date" v="2021-06-08" />
		<tag k="ssr:gruppe" v="grunnerISjø" />
		<tag k="ssr:hovedgruppe" v="sjø" />
		<tag k="ssr:stedsnr" v="500282" />
		<tag k="ssr:type" v="grunneISjø" />
	</node>
	<node lat="66.46347777333732" lon="11.944800007168922" id="-17608">
		<tag k="name" v="Froskiten" />
		<tag k="place" v="islet" />
		<tag k="ssr:date" v="2021-06-08" />
		<tag k="ssr:gruppe" v="kystkontur" />
		<tag k="ssr:hovedgruppe" v="sjø" />
		<tag k="ssr:stedsnr" v="500285" />
		<tag k="ssr:type" v="holmeISjø" />
	</node>
	<node lat="66.62796944469268" lon="12.180175003564429" id="-17609">
		<tag k="name" v="Selvær" />
		<tag k="place" v="islet" />
		<tag k="ssr:date" v="2016-05-10" />
		<tag k="ssr:gruppe" v="kystkontur" />
		<tag k="ssr:hovedgruppe" v="sjø" />
		<tag k="ssr:stedsnr" v="500683" />
		<tag k="ssr:type" v="holmeISjø" />
	</node>
	<node lat="66.6136027801369" lon="12.193361105034239" id="-17610">
		<tag k="name" v="Skrælingstaren" />
		<tag k="natural" v="shoal" />
		<tag k="place" v="locality" />
		<tag k="ssr:date" v="2021-06-08" />
		<tag k="ssr:gruppe" v="grunnerISjø" />
		<tag k="ssr:hovedgruppe" v="sjø" />
		<tag k="ssr:stedsnr" v="500695" />
		<tag k="ssr:type" v="grunneISjø" />
	</node>
	<node lat="66.62165000401707" lon="12.12329999533244" id="-17611">
		<tag k="name" v="Langtaren" />
		<tag k="natural" v="shoal" />
		<tag k="place" v="locality" />
		<tag k="ssr:date" v="2021-06-08" />
		<tag k="ssr:gruppe" v="grunnerISjø" />
		<tag k="ssr:hovedgruppe" v="sjø" />
		<tag k="ssr:stedsnr" v="500697" />
		<tag k="ssr:type" v="grunneISjø" />
	</node>
	<node lat="66.58702777824081" lon="12.21662777086186" id="-17612">
		<tag k="alt_name" v="Åkerøya" />
		<tag k="name" v="Inneråkerøya" />
		<tag k="place" v="islet" />
		<tag k="ssr:date" v="2016-05-10" />
		<tag k="ssr:gruppe" v="kystkontur" />
		<tag k="ssr:hovedgruppe" v="sjø" />
		<tag k="ssr:stedsnr" v="501620" />
		<tag k="ssr:type" v="holmeISjø" />
	</node>
	<node lat="66.53739721775813" lon="12.06896389333147" id="-17613">
		<tag k="name" v="Litlraudholmen" />
		<tag k="place" v="islet" />
		<tag k="ssr:date" v="2021-06-08" />
		<tag k="ssr:gruppe" v="kystkontur" />
		<tag k="ssr:hovedgruppe" v="sjø" />
		<tag k="ssr:stedsnr" v="501634" />
		<tag k="ssr:type" v="holmeISjø" />
	</node>
	<node lat="66.54064167095184" lon="12.064227774862852" id="-17614">
		<tag k="fixme" v="consider seamark:type=rock or natural=shoal" />
		<tag k="name" v="Brosmaskjæret" />
		<tag k="place" v="islet" />
		<tag k="ssr:date" v="2021-06-08" />
		<tag k="ssr:gruppe" v="grunnerISjø" />
		<tag k="ssr:hovedgruppe" v="sjø" />
		<tag k="ssr:stedsnr" v="501635" />
		<tag k="ssr:type" v="skjærISjø" />
	</node>
	<node lat="66.51186944222543" lon="12.047633332772774" id="-17615">
		<tag k="fixme" v="consider natural=peak for the most distinct mountains in the district" />
		<tag k="name" v="Trænstaven" />
		<tag k="natural" v="hill" />
		<tag k="place" v="locality" />
		<tag k="ssr:date" v="2021-06-08" />
		<tag k="ssr:gruppe" v="høyder" />
		<tag k="ssr:hovedgruppe" v="terreng" />
		<tag k="ssr:stedsnr" v="501645" />
		<tag k="ssr:type" v="fjell" />
	</node>
	<node lat="66.51847499846232" lon="12.107716676175377" id="-17616">
		<tag k="name" v="Sendingan" />
		<tag k="place" v="islet" />
		<tag k="ssr:date" v="2021-06-08" />
		<tag k="ssr:gruppe" v="kystkontur" />
		<tag k="ssr:hovedgruppe" v="sjø" />
		<tag k="ssr:stedsnr" v="501647" />
		<tag k="ssr:type" v="holmeISjø" />
	</node>
	<node lat="66.51769721893766" lon="12.138488892445114" id="-17617">
		<tag k="name" v="Innerhellholmen" />
		<tag k="place" v="islet" />
		<tag k="ssr:date" v="2021-06-08" />
		<tag k="ssr:gruppe" v="kystkontur" />
		<tag k="ssr:hovedgruppe" v="sjø" />
		<tag k="ssr:stedsnr" v="501649" />
		<tag k="ssr:type" v="holmeISjø" />
	</node>
	<node lat="66.52153611168481" lon="11.950919454701886" id="-17618">
		<tag k="name" v="Vårfiskskolten" />
		<tag k="natural" v="shoal" />
		<tag k="place" v="locality" />
		<tag k="ssr:date" v="2021-06-08" />
		<tag k="ssr:gruppe" v="grunnerISjø" />
		<tag k="ssr:hovedgruppe" v="sjø" />
		<tag k="ssr:stedsnr" v="501652" />
		<tag k="ssr:type" v="grunneISjø" />
	</node>
	<node lat="66.62028888556911" lon="12.226202782633589" id="-17619">
		<tag k="name" v="Nordbrya" />
		<tag k="place" v="islet" />
		<tag k="ssr:date" v="2021-06-08" />
		<tag k="ssr:gruppe" v="kystkontur" />
		<tag k="ssr:hovedgruppe" v="sjø" />
		<tag k="ssr:stedsnr" v="501709" />
		<tag k="ssr:type" v="holmeISjø" />
	</node>
	<node lat="66.59069444697477" lon="12.225299999627262" id="-17620">
		<tag k="name" v="Galtmoen" />
		<tag k="place" v="islet" />
		<tag k="ssr:date" v="2016-05-10" />
		<tag k="ssr:gruppe" v="kystkontur" />
		<tag k="ssr:hovedgruppe" v="sjø" />
		<tag k="ssr:stedsnr" v="501734" />
		<tag k="ssr:type" v="holmeISjø" />
	</node>
	<node lat="66.54047222223295" lon="12.231233332095453" id="-17621">
		<tag k="name" v="Buøya" />
		<tag k="place" v="island" />
		<tag k="ssr:date" v="2021-06-08" />
		<tag k="ssr:gruppe" v="kystkontur" />
		<tag k="ssr:hovedgruppe" v="sjø" />
		<tag k="ssr:stedsnr" v="501810" />
		<tag k="ssr:type" v="øyISjø" />
	</node>
	<node lat="66.57853610691494" lon="12.290141672851794" id="-17622">
		<tag k="name" v="Storflua" />
		<tag k="natural" v="shoal" />
		<tag k="place" v="locality" />
		<tag k="ssr:date" v="2021-06-08" />
		<tag k="ssr:gruppe" v="grunnerISjø" />
		<tag k="ssr:hovedgruppe" v="sjø" />
		<tag k="ssr:stedsnr" v="501781" />
		<tag k="ssr:type" v="grunneISjø" />
	</node>
	<node lat="66.56626666946943" lon="12.254000010451094" id="-17623">
		<tag k="name" v="Selværflaget" />
		<tag k="natural" v="bay" />
		<tag k="ssr:date" v="2016-05-10" />
		<tag k="ssr:gruppe" v="farvann" />
		<tag k="ssr:hovedgruppe" v="sjø" />
		<tag k="ssr:stedsnr" v="501789" />
		<tag k="ssr:type" v="sjøstykke" />
	</node>
	<node lat="66.52445000175832" lon="12.306544448050609" id="-17624">
		<tag k="name" v="Knausen" />
		<tag k="natural" v="shoal" />
		<tag k="place" v="locality" />
		<tag k="ssr:date" v="2021-06-08" />
		<tag k="ssr:gruppe" v="grunnerISjø" />
		<tag k="ssr:hovedgruppe" v="sjø" />
		<tag k="ssr:stedsnr" v="501792" />
		<tag k="ssr:type" v="grunneISjø" />
	</node>
	<node lat="66.62913611497717" lon="12.151855564354936" id="-17626">
		<tag k="name" v="Storhavsula" />
		<tag k="place" v="islet" />
		<tag k="ssr:date" v="2021-06-08" />
		<tag k="ssr:gruppe" v="kystkontur" />
		<tag k="ssr:hovedgruppe" v="sjø" />
		<tag k="ssr:stedsnr" v="682672" />
		<tag k="ssr:type" v="holmeISjø" />
	</node>
	<node lat="66.63194444251066" lon="12.15204167422954" id="-17627">
		<tag k="name" v="Litlhavsula" />
		<tag k="place" v="islet" />
		<tag k="ssr:date" v="2021-06-08" />
		<tag k="ssr:gruppe" v="kystkontur" />
		<tag k="ssr:hovedgruppe" v="sjø" />
		<tag k="ssr:stedsnr" v="682673" />
		<tag k="ssr:type" v="holmeISjø" />
	</node>
	<node lat="66.53199721808383" lon="12.052641655912364" id="-17628">
		<tag k="alt_name" v="Ænakkan" />
		<tag k="name" v="Enakken" />
		<tag k="place" v="islet" />
		<tag k="ssr:date" v="2016-05-11" />
		<tag k="ssr:gruppe" v="kystkontur" />
		<tag k="ssr:hovedgruppe" v="sjø" />
		<tag k="ssr:stedsnr" v="683637" />
		<tag k="ssr:type" v="holmeISjø" />
	</node>
	<node lat="66.53406388704904" lon="12.14516667170513" id="-17629">
		<tag k="name" v="Einbærholmen" />
		<tag k="place" v="islet" />
		<tag k="ssr:date" v="2021-06-08" />
		<tag k="ssr:gruppe" v="kystkontur" />
		<tag k="ssr:hovedgruppe" v="sjø" />
		<tag k="ssr:stedsnr" v="683642" />
		<tag k="ssr:type" v="holmeISjø" />
	</node>
	<node lat="66.53910278089114" lon="12.153869439236978" id="-17630">
		<tag k="name" v="Stortorvvær" />
		<tag k="place" v="island" />
		<tag k="ssr:date" v="2021-06-08" />
		<tag k="ssr:gruppe" v="kystkontur" />
		<tag k="ssr:hovedgruppe" v="sjø" />
		<tag k="ssr:stedsnr" v="683649" />
		<tag k="ssr:type" v="øyISjø" />
	</node>
	<node lat="66.50316110792649" lon="12.032602775690322" id="-17631">
		<tag k="name" v="Hagabukta" />
		<tag k="natural" v="bay" />
		<tag k="ssr:date" v="2021-06-08" />
		<tag k="ssr:gruppe" v="kystkontur" />
		<tag k="ssr:hovedgruppe" v="sjø" />
		<tag k="ssr:stedsnr" v="683687" />
		<tag k="ssr:type" v="vikISjø" />
	</node>
	<node lat="66.55575555857897" lon="12.228138894503388" id="-17632">
		<tag k="fixme" v="consider seamark:type=rock or natural=shoal" />
		<tag k="name" v="Kjerringskjæret" />
		<tag k="place" v="islet" />
		<tag k="ssr:date" v="2016-05-10" />
		<tag k="ssr:gruppe" v="grunnerISjø" />
		<tag k="ssr:hovedgruppe" v="sjø" />
		<tag k="ssr:stedsnr" v="516281" />
		<tag k="ssr:type" v="skjærISjø" />
	</node>
	<node lat="66.65674999575815" lon="12.308463883627136" id="-17634">
		<tag k="name" v="Revet" />
		<tag k="place" v="islet" />
		<tag k="ssr:date" v="2021-06-08" />
		<tag k="ssr:gruppe" v="kystkontur" />
		<tag k="ssr:hovedgruppe" v="sjø" />
		<tag k="ssr:stedsnr" v="517428" />
		<tag k="ssr:type" v="holmeISjø" />
	</node>
	<node lat="66.5319027749198" lon="12.171786106324134" id="-17635">
		<tag k="fixme" v="consider seamark:type=rock or natural=shoal" />
		<tag k="name" v="Raudskjæran" />
		<tag k="place" v="islet" />
		<tag k="ssr:date" v="2021-06-08" />
		<tag k="ssr:gruppe" v="grunnerISjø" />
		<tag k="ssr:hovedgruppe" v="sjø" />
		<tag k="ssr:stedsnr" v="517474" />
		<tag k="ssr:type" v="skjærISjø" />
	</node>
	<node lat="66.58630833537552" lon="12.231763896437498" id="-17636">
		<tag k="name" v="Stonghaugen" />
		<tag k="natural" v="hill" />
		<tag k="place" v="locality" />
		<tag k="ssr:date" v="2016-05-10" />
		<tag k="ssr:gruppe" v="høyder" />
		<tag k="ssr:hovedgruppe" v="terreng" />
		<tag k="ssr:stedsnr" v="534768" />
		<tag k="ssr:type" v="haug" />
	</node>
	<node lat="66.55269444682531" lon="12.268202771981187" id="-17637">
		<tag k="fixme" v="consider seamark:type=rock or natural=shoal" />
		<tag k="name" v="Kobbskjæret" />
		<tag k="place" v="islet" />
		<tag k="ssr:date" v="2016-05-10" />
		<tag k="ssr:gruppe" v="grunnerISjø" />
		<tag k="ssr:hovedgruppe" v="sjø" />
		<tag k="ssr:stedsnr" v="535767" />
		<tag k="ssr:type" v="skjærISjø" />
	</node>
	<node lat="66.5387750021258" lon="12.247472219513659" id="-17638">
		<tag k="name" v="Storhågen" />
		<tag k="natural" v="hill" />
		<tag k="place" v="locality" />
		<tag k="ssr:date" v="2016-05-10" />
		<tag k="ssr:gruppe" v="høyder" />
		<tag k="ssr:hovedgruppe" v="terreng" />
		<tag k="ssr:stedsnr" v="535788" />
		<tag k="ssr:type" v="høyde" />
	</node>
	<node lat="66.50333333070883" lon="12.108333327436434" id="-17639">
		<tag k="name" v="Bursholmen" />
		<tag k="place" v="islet" />
		<tag k="ssr:date" v="2021-06-08" />
		<tag k="ssr:gruppe" v="kystkontur" />
		<tag k="ssr:hovedgruppe" v="sjø" />
		<tag k="ssr:stedsnr" v="566558" />
		<tag k="ssr:type" v="holmeISjø" />
	</node>
	<node lat="66.58200833709849" lon="12.234188888807566" id="-17640">
		<tag k="fixme" v="consider seamark:type=rock or natural=shoal" />
		<tag k="name" v="Daumannskjæret" />
		<tag k="place" v="islet" />
		<tag k="ssr:date" v="2016-05-10" />
		<tag k="ssr:gruppe" v="grunnerISjø" />
		<tag k="ssr:hovedgruppe" v="sjø" />
		<tag k="ssr:stedsnr" v="595750" />
		<tag k="ssr:type" v="skjærISjø" />
	</node>
	<node lat="66.59601666536666" lon="12.23845832772157" id="-17641">
		<tag k="name" v="Bergholmen" />
		<tag k="place" v="islet" />
		<tag k="ssr:date" v="2016-05-10" />
		<tag k="ssr:gruppe" v="kystkontur" />
		<tag k="ssr:hovedgruppe" v="sjø" />
		<tag k="ssr:stedsnr" v="595757" />
		<tag k="ssr:type" v="holmeISjø" />
	</node>
	<node lat="66.48874722500933" lon="12.081083341665819" id="-17642">
		<tag k="name" v="Kobbholmen" />
		<tag k="place" v="islet" />
		<tag k="ssr:date" v="2016-05-10" />
		<tag k="ssr:gruppe" v="kystkontur" />
		<tag k="ssr:hovedgruppe" v="sjø" />
		<tag k="ssr:stedsnr" v="596158" />
		<tag k="ssr:type" v="holmeISjø" />
	</node>
	<node lat="66.4975222181095" lon="12.091802780560265" id="-17643">
		<tag k="name" v="Kvernnesvågen" />
		<tag k="natural" v="bay" />
		<tag k="ssr:date" v="2016-05-10" />
		<tag k="ssr:gruppe" v="kystkontur" />
		<tag k="ssr:hovedgruppe" v="sjø" />
		<tag k="ssr:stedsnr" v="596161" />
		<tag k="ssr:type" v="vikISjø" />
	</node>
	<node lat="66.49706944280409" lon="12.072683328460698" id="-17644">
		<tag k="name" v="Husøyvågen" />
		<tag k="natural" v="bay" />
		<tag k="ssr:date" v="2016-05-10" />
		<tag k="ssr:gruppe" v="kystkontur" />
		<tag k="ssr:hovedgruppe" v="sjø" />
		<tag k="ssr:stedsnr" v="596164" />
		<tag k="ssr:type" v="vikISjø" />
	</node>
	<node lat="66.55286944238622" lon="12.264322223905886" id="-17645">
		<tag k="name" v="Austervika" />
		<tag k="natural" v="bay" />
		<tag k="ssr:date" v="2016-05-10" />
		<tag k="ssr:gruppe" v="kystkontur" />
		<tag k="ssr:hovedgruppe" v="sjø" />
		<tag k="ssr:stedsnr" v="596752" />
		<tag k="ssr:type" v="vikISjø" />
	</node>
	<node lat="66.5465750040195" lon="12.235619438895155" id="-17646">
		<tag k="name" v="Rognholmen" />
		<tag k="place" v="islet" />
		<tag k="ssr:date" v="2016-05-10" />
		<tag k="ssr:gruppe" v="kystkontur" />
		<tag k="ssr:hovedgruppe" v="sjø" />
		<tag k="ssr:stedsnr" v="596758" />
		<tag k="ssr:type" v="holmeISjø" />
	</node>
	<node lat="66.54882222229689" lon="12.263802769860986" id="-17647">
		<tag k="name" v="Buholmen" />
		<tag k="place" v="islet" />
		<tag k="ssr:date" v="2016-05-10" />
		<tag k="ssr:gruppe" v="kystkontur" />
		<tag k="ssr:hovedgruppe" v="sjø" />
		<tag k="ssr:stedsnr" v="596763" />
		<tag k="ssr:type" v="holmeISjø" />
	</node>
	<node lat="66.44741388932094" lon="11.974219448247577" id="-17648">
		<tag k="name" v="Brakvadskiten" />
		<tag k="natural" v="shoal" />
		<tag k="place" v="locality" />
		<tag k="ssr:date" v="2021-06-08" />
		<tag k="ssr:gruppe" v="grunnerISjø" />
		<tag k="ssr:hovedgruppe" v="sjø" />
		<tag k="ssr:stedsnr" v="621194" />
		<tag k="ssr:type" v="grunneISjø" />
	</node>
	<node lat="66.60829721942525" lon="12.147172232491698" id="-17649">
		<tag k="fixme" v="consider seamark:type=rock or natural=shoal" />
		<tag k="name" v="Sørnipskjæret" />
		<tag k="place" v="islet" />
		<tag k="ssr:date" v="2021-06-08" />
		<tag k="ssr:gruppe" v="grunnerISjø" />
		<tag k="ssr:hovedgruppe" v="sjø" />
		<tag k="ssr:stedsnr" v="621674" />
		<tag k="ssr:type" v="skjærISjø" />
	</node>
	<node lat="66.52723333121521" lon="12.13315277998336" id="-17650">
		<tag k="fixme" v="consider seamark:type=rock or natural=shoal" />
		<tag k="name" v="Tverrskjæran" />
		<tag k="place" v="islet" />
		<tag k="ssr:date" v="2021-06-08" />
		<tag k="ssr:gruppe" v="grunnerISjø" />
		<tag k="ssr:hovedgruppe" v="sjø" />
		<tag k="ssr:stedsnr" v="622671" />
		<tag k="ssr:type" v="skjærISjø" />
	</node>
	<node lat="66.52688611430983" lon="12.000105560657998" id="-17651">
		<tag k="name" v="Brimholmbåen" />
		<tag k="natural" v="shoal" />
		<tag k="place" v="locality" />
		<tag k="ssr:date" v="2021-06-08" />
		<tag k="ssr:gruppe" v="grunnerISjø" />
		<tag k="ssr:hovedgruppe" v="sjø" />
		<tag k="ssr:stedsnr" v="622679" />
		<tag k="ssr:type" v="grunneISjø" />
	</node>
	<node lat="66.56329999623848" lon="12.28694999683898" id="-17653">
		<tag k="name" v="Steinsholmen" />
		<tag k="place" v="islet" />
		<tag k="ssr:date" v="2021-06-08" />
		<tag k="ssr:gruppe" v="kystkontur" />
		<tag k="ssr:hovedgruppe" v="sjø" />
		<tag k="ssr:stedsnr" v="622767" />
		<tag k="ssr:type" v="holmeISjø" />
	</node>
	<node lat="66.54503055883639" lon="12.247794451481118" id="-17654">
		<tag k="name" v="Geitøya" />
		<tag k="place" v="islet" />
		<tag k="ssr:date" v="2016-05-10" />
		<tag k="ssr:gruppe" v="kystkontur" />
		<tag k="ssr:hovedgruppe" v="sjø" />
		<tag k="ssr:stedsnr" v="623864" />
		<tag k="ssr:type" v="holmeISjø" />
	</node>
	<node lat="66.53870555411346" lon="12.272658326798256" id="-17655">
		<tag k="name" v="Ternskjærkallen" />
		<tag k="natural" v="shoal" />
		<tag k="place" v="locality" />
		<tag k="ssr:date" v="2021-06-08" />
		<tag k="ssr:gruppe" v="grunnerISjø" />
		<tag k="ssr:hovedgruppe" v="sjø" />
		<tag k="ssr:stedsnr" v="623867" />
		<tag k="ssr:type" v="grunneISjø" />
	</node>
	<node lat="66.4911416634369" lon="12.421519448811805" id="-17657">
		<tag k="name" v="Ytteråsbrakrevet" />
		<tag k="natural" v="shoal" />
		<tag k="place" v="locality" />
		<tag k="ssr:date" v="2021-06-08" />
		<tag k="ssr:gruppe" v="grunnerISjø" />
		<tag k="ssr:hovedgruppe" v="sjø" />
		<tag k="ssr:stedsnr" v="637498" />
		<tag k="ssr:type" v="grunneISjø" />
	</node>
	<node lat="66.43718889212347" lon="12.025441666113393" id="-17658">
		<tag k="name" v="Bålskjærbåen" />
		<tag k="natural" v="shoal" />
		<tag k="place" v="locality" />
		<tag k="ssr:date" v="2021-06-08" />
		<tag k="ssr:gruppe" v="grunnerISjø" />
		<tag k="ssr:hovedgruppe" v="sjø" />
		<tag k="ssr:stedsnr" v="682212" />
		<tag k="ssr:type" v="grunneISjø" />
	</node>
	<node lat="66.48066666737849" lon="12.390219448573635" id="-17659">
		<tag k="name" v="Kringeltaren" />
		<tag k="natural" v="shoal" />
		<tag k="place" v="locality" />
		<tag k="ssr:date" v="2021-06-08" />
		<tag k="ssr:gruppe" v="grunnerISjø" />
		<tag k="ssr:hovedgruppe" v="sjø" />
		<tag k="ssr:stedsnr" v="683207" />
		<tag k="ssr:type" v="grunneISjø" />
	</node>
	<node lat="66.60250277397242" lon="12.208922230724689" id="-17660">
		<tag k="name" v="Reinsøya" />
		<tag k="place" v="islet" />
		<tag k="ssr:date" v="2021-06-08" />
		<tag k="ssr:gruppe" v="kystkontur" />
		<tag k="ssr:hovedgruppe" v="sjø" />
		<tag k="ssr:stedsnr" v="683603" />
		<tag k="ssr:type" v="holmeISjø" />
	</node>
	<node lat="66.57393055798556" lon="12.157344452191033" id="-17661">
		<tag k="fixme" v="consider seamark:type=rock or natural=shoal" />
		<tag k="name" v="Grasholmskjæran" />
		<tag k="place" v="islet" />
		<tag k="ssr:date" v="2021-06-08" />
		<tag k="ssr:gruppe" v="grunnerISjø" />
		<tag k="ssr:hovedgruppe" v="sjø" />
		<tag k="ssr:stedsnr" v="683614" />
		<tag k="ssr:type" v="skjærISjø" />
	</node>
	<node lat="66.56400555514873" lon="12.162713882012092" id="-17662">
		<tag k="name" v="Larsbåen" />
		<tag k="natural" v="shoal" />
		<tag k="place" v="locality" />
		<tag k="ssr:date" v="2021-06-08" />
		<tag k="ssr:gruppe" v="grunnerISjø" />
		<tag k="ssr:hovedgruppe" v="sjø" />
		<tag k="ssr:stedsnr" v="683618" />
		<tag k="ssr:type" v="grunneISjø" />
	</node>
	<node lat="66.55379722066185" lon="12.113555562668612" id="-17663">
		<tag k="name" v="Arværet" />
		<tag k="place" v="island" />
		<tag k="ssr:date" v="2021-06-08" />
		<tag k="ssr:gruppe" v="kystkontur" />
		<tag k="ssr:hovedgruppe" v="sjø" />
		<tag k="ssr:stedsnr" v="683620" />
		<tag k="ssr:type" v="øygruppeISjø" />
	</node>
	<node lat="66.57859999756126" lon="12.161505555914882" id="-17664">
		<tag k="name" v="Klubbgrasholmen" />
		<tag k="place" v="islet" />
		<tag k="ssr:date" v="2021-06-08" />
		<tag k="ssr:gruppe" v="kystkontur" />
		<tag k="ssr:hovedgruppe" v="sjø" />
		<tag k="ssr:stedsnr" v="683627" />
		<tag k="ssr:type" v="holmeISjø" />
	</node>
	<node lat="66.52093055175942" lon="11.94819166672181" id="-17665">
		<tag k="name" v="Grunnskolten" />
		<tag k="natural" v="shoal" />
		<tag k="place" v="locality" />
		<tag k="ssr:date" v="2021-06-08" />
		<tag k="ssr:gruppe" v="grunnerISjø" />
		<tag k="ssr:hovedgruppe" v="sjø" />
		<tag k="ssr:stedsnr" v="683664" />
		<tag k="ssr:type" v="grunneISjø" />
	</node>
	<node lat="66.6464416654317" lon="12.245830563868553" id="-17666">
		<tag k="fixme" v="consider seamark:type=rock or natural=shoal" />
		<tag k="name" v="Tjønnholmmerra" />
		<tag k="place" v="islet" />
		<tag k="ssr:date" v="2021-06-08" />
		<tag k="ssr:gruppe" v="grunnerISjø" />
		<tag k="ssr:hovedgruppe" v="sjø" />
		<tag k="ssr:stedsnr" v="683718" />
		<tag k="ssr:type" v="skjærISjø" />
	</node>
	<node lat="66.58877777475378" lon="12.23035832555102" id="-17667">
		<tag k="name" v="Hestøya" />
		<tag k="place" v="islet" />
		<tag k="ssr:date" v="2021-06-08" />
		<tag k="ssr:gruppe" v="kystkontur" />
		<tag k="ssr:hovedgruppe" v="sjø" />
		<tag k="ssr:stedsnr" v="683738" />
		<tag k="ssr:type" v="holmeISjø" />
	</node>
	<node lat="66.6047805579201" lon="12.281947230090019" id="-17668">
		<tag k="fixme" v="consider seamark:type=rock or natural=shoal" />
		<tag k="name" v="Søre Trollskjæret" />
		<tag k="place" v="islet" />
		<tag k="ssr:date" v="2021-06-08" />
		<tag k="ssr:gruppe" v="grunnerISjø" />
		<tag k="ssr:hovedgruppe" v="sjø" />
		<tag k="ssr:stedsnr" v="683752" />
		<tag k="ssr:type" v="skjærISjø" />
	</node>
	<node lat="66.49607499838612" lon="12.086944452374988" id="-17669">
		<tag k="name" v="Torsholmen" />
		<tag k="place" v="islet" />
		<tag k="ssr:date" v="2021-06-08" />
		<tag k="ssr:gruppe" v="kystkontur" />
		<tag k="ssr:hovedgruppe" v="sjø" />
		<tag k="ssr:stedsnr" v="688555" />
		<tag k="ssr:type" v="holmeISjø" />
	</node>
	<node lat="66.53014999875253" lon="12.084063880834508" id="-17670">
		<tag k="name" v="Storraudholmen" />
		<tag k="place" v="islet" />
		<tag k="ssr:date" v="2021-06-08" />
		<tag k="ssr:gruppe" v="kystkontur" />
		<tag k="ssr:hovedgruppe" v="sjø" />
		<tag k="ssr:stedsnr" v="699362" />
		<tag k="ssr:type" v="holmeISjø" />
	</node>
	<node lat="66.49731944763656" lon="11.973219454768563" id="-17671">
		<tag k="name" v="Laukeskallen" />
		<tag k="natural" v="shoal" />
		<tag k="place" v="locality" />
		<tag k="ssr:date" v="2021-06-08" />
		<tag k="ssr:gruppe" v="grunnerISjø" />
		<tag k="ssr:hovedgruppe" v="sjø" />
		<tag k="ssr:stedsnr" v="699767" />
		<tag k="ssr:type" v="grunneISjø" />
	</node>
	<node lat="66.58899444042788" lon="12.210011101167991" id="-17672">
		<tag k="name" v="Ytteråkerøya" />
		<tag k="place" v="island" />
		<tag k="ssr:date" v="2016-05-11" />
		<tag k="ssr:gruppe" v="kystkontur" />
		<tag k="ssr:hovedgruppe" v="sjø" />
		<tag k="ssr:stedsnr" v="899790" />
		<tag k="ssr:type" v="øyISjø" />
	</node>
	<node lat="66.50625277430886" lon="12.082172231640513" id="-17673">
		<tag k="name" v="Svendsholmen" />
		<tag k="natural" v="cape" />
		<tag k="ssr:date" v="2016-05-11" />
		<tag k="ssr:gruppe" v="kystkontur" />
		<tag k="ssr:hovedgruppe" v="sjø" />
		<tag k="ssr:stedsnr" v="717174" />
		<tag k="ssr:type" v="nesISjø" />
	</node>
	<node lat="66.5527305521542" lon="12.243230562168991" id="-17674">
		<tag k="fixme" v="consider natural=peak for the most distinct mountains in the district" />
		<tag k="name" v="Vestertinden" />
		<tag k="natural" v="hill" />
		<tag k="place" v="locality" />
		<tag k="ssr:date" v="2016-05-11" />
		<tag k="ssr:gruppe" v="høyder" />
		<tag k="ssr:hovedgruppe" v="terreng" />
		<tag k="ssr:stedsnr" v="717775" />
		<tag k="ssr:type" v="topp" />
	</node>
	<node lat="66.50601667057687" lon="12.062449999649985" id="-17675">
		<tag k="name" v="Grytnesvågen" />
		<tag k="natural" v="bay" />
		<tag k="ssr:date" v="2016-05-11" />
		<tag k="ssr:gruppe" v="kystkontur" />
		<tag k="ssr:hovedgruppe" v="sjø" />
		<tag k="ssr:stedsnr" v="717806" />
		<tag k="ssr:type" v="vikISjø" />
	</node>
	<node lat="66.49776944875958" lon="12.071572230040442" id="-17676">
		<tag k="name" v="Husøyvågneset" />
		<tag k="natural" v="cape" />
		<tag k="ssr:date" v="2016-05-11" />
		<tag k="ssr:gruppe" v="kystkontur" />
		<tag k="ssr:hovedgruppe" v="sjø" />
		<tag k="ssr:stedsnr" v="900181" />
		<tag k="ssr:type" v="nesISjø" />
	</node>
	<node lat="66.50032778140857" lon="12.092686121552598" id="-17677">
		<tag k="name" v="Storhågen" />
		<tag k="natural" v="hill" />
		<tag k="place" v="locality" />
		<tag k="ssr:date" v="2016-05-11" />
		<tag k="ssr:gruppe" v="høyder" />
		<tag k="ssr:hovedgruppe" v="terreng" />
		<tag k="ssr:stedsnr" v="900188" />
		<tag k="ssr:type" v="høyde" />
	</node>
	<node lat="66.54933888616878" lon="12.258830558645204" id="-17678">
		<tag k="name" v="Hammervika" />
		<tag k="natural" v="bay" />
		<tag k="ssr:date" v="2016-05-11" />
		<tag k="ssr:gruppe" v="kystkontur" />
		<tag k="ssr:hovedgruppe" v="sjø" />
		<tag k="ssr:stedsnr" v="900779" />
		<tag k="ssr:type" v="vikISjø" />
	</node>
	<node lat="66.53610832926921" lon="12.04228333789563" id="-17679">
		<tag k="name" v="Ytter-Skarvholmen" />
		<tag k="place" v="islet" />
		<tag k="ssr:date" v="2016-05-11" />
		<tag k="ssr:gruppe" v="kystkontur" />
		<tag k="ssr:hovedgruppe" v="sjø" />
		<tag k="ssr:stedsnr" v="900789" />
		<tag k="ssr:type" v="holmeISjø" />
	</node>
	<node lat="66.4646555530465" lon="11.951752783287015" id="-17680">
		<tag k="name" v="Storfroa" />
		<tag k="place" v="island" />
		<tag k="ssr:date" v="2021-06-08" />
		<tag k="ssr:gruppe" v="kystkontur" />
		<tag k="ssr:hovedgruppe" v="sjø" />
		<tag k="ssr:stedsnr" v="743280" />
		<tag k="ssr:type" v="øyISjø" />
	</node>
	<node lat="66.54562777377404" lon="12.154225009991928" id="-17682">
		<tag k="name" v="Marøya" />
		<tag k="place" v="islet" />
		<tag k="ssr:date" v="2021-06-08" />
		<tag k="ssr:gruppe" v="kystkontur" />
		<tag k="ssr:hovedgruppe" v="sjø" />
		<tag k="ssr:stedsnr" v="744630" />
		<tag k="ssr:type" v="holmeISjø" />
	</node>
	<node lat="66.62270833273246" lon="12.238725006953636" id="-17683">
		<tag k="name" v="Raudholmen" />
		<tag k="place" v="islet" />
		<tag k="ssr:date" v="2021-06-08" />
		<tag k="ssr:gruppe" v="kystkontur" />
		<tag k="ssr:hovedgruppe" v="sjø" />
		<tag k="ssr:stedsnr" v="744715" />
		<tag k="ssr:type" v="holmeISjø" />
	</node>
	<node lat="66.5968777799251" lon="12.254313899261426" id="-17684">
		<tag k="name" v="Sendingan" />
		<tag k="place" v="islet" />
		<tag k="ssr:date" v="2016-05-11" />
		<tag k="ssr:gruppe" v="kystkontur" />
		<tag k="ssr:hovedgruppe" v="sjø" />
		<tag k="ssr:stedsnr" v="744730" />
		<tag k="ssr:type" v="holmeISjø" />
	</node>
	<node lat="66.6012499992809" lon="12.261688892207095" id="-17685">
		<tag k="name" v="Sendingsflua" />
		<tag k="natural" v="shoal" />
		<tag k="place" v="locality" />
		<tag k="ssr:date" v="2021-06-08" />
		<tag k="ssr:gruppe" v="grunnerISjø" />
		<tag k="ssr:hovedgruppe" v="sjø" />
		<tag k="ssr:stedsnr" v="760348" />
		<tag k="ssr:type" v="grunneISjø" />
	</node>
	<node lat="66.56767499694912" lon="12.296491672692108" id="-17686">
		<tag k="name" v="Storflua" />
		<tag k="natural" v="shoal" />
		<tag k="place" v="locality" />
		<tag k="ssr:date" v="2016-05-11" />
		<tag k="ssr:gruppe" v="grunnerISjø" />
		<tag k="ssr:hovedgruppe" v="sjø" />
		<tag k="ssr:stedsnr" v="821275" />
		<tag k="ssr:type" v="grunneISjø" />
	</node>
	<node lat="66.59620833335673" lon="12.231594454076843" id="-17687">
		<tag k="name" v="Varøykila" />
		<tag k="natural" v="bay" />
		<tag k="ssr:date" v="2016-05-11" />
		<tag k="ssr:gruppe" v="kystkontur" />
		<tag k="ssr:hovedgruppe" v="sjø" />
		<tag k="ssr:stedsnr" v="838780" />
		<tag k="ssr:type" v="vikISjø" />
	</node>
	<node lat="66.59425833440503" lon="12.225402783110471" id="-17688">
		<tag k="fixme" v="consider seamark:type=rock or natural=shoal" />
		<tag k="name" v="Per-Nilsa-skjæran" />
		<tag k="place" v="islet" />
		<tag k="ssr:date" v="2016-05-11" />
		<tag k="ssr:gruppe" v="grunnerISjø" />
		<tag k="ssr:hovedgruppe" v="sjø" />
		<tag k="ssr:stedsnr" v="838806" />
		<tag k="ssr:type" v="skjærISjø" />
	</node>
	<node lat="66.58640000434572" lon="12.223777775666882" id="-17689">
		<tag k="name" v="Nord-Sommarauken" />
		<tag k="place" v="island" />
		<tag k="ssr:date" v="2016-05-11" />
		<tag k="ssr:gruppe" v="kystkontur" />
		<tag k="ssr:hovedgruppe" v="sjø" />
		<tag k="ssr:stedsnr" v="838808" />
		<tag k="ssr:type" v="øyISjø" />
	</node>
	<node lat="66.49217500410451" lon="12.068011116058534" id="-17690">
		<tag k="alt_name" v="Heirsand" />
		<tag k="name" v="Heirsanden" />
		<tag k="natural" v="bay" />
		<tag k="ssr:date" v="2016-05-11" />
		<tag k="ssr:gruppe" v="kystkontur" />
		<tag k="ssr:hovedgruppe" v="sjø" />
		<tag k="ssr:stedsnr" v="839177" />
		<tag k="ssr:type" v="vikISjø" />
	</node>
	<node lat="66.44085000412171" lon="12.027027785824433" id="-17691">
		<tag k="fixme" v="consider seamark:type=rock or natural=shoal" />
		<tag k="name" v="Bålskjæret" />
		<tag k="place" v="islet" />
		<tag k="ssr:date" v="2021-06-08" />
		<tag k="ssr:gruppe" v="grunnerISjø" />
		<tag k="ssr:hovedgruppe" v="sjø" />
		<tag k="ssr:stedsnr" v="925196" />
		<tag k="ssr:type" v="skjærISjø" />
	</node>
	<node lat="66.45016944591754" lon="12.025238883386608" id="-17692">
		<tag k="name" v="Ytterflåtaren" />
		<tag k="natural" v="shoal" />
		<tag k="place" v="locality" />
		<tag k="ssr:date" v="2021-06-08" />
		<tag k="ssr:gruppe" v="grunnerISjø" />
		<tag k="ssr:hovedgruppe" v="sjø" />
		<tag k="ssr:stedsnr" v="925202" />
		<tag k="ssr:type" v="grunneISjø" />
	</node>
	<node lat="66.49538241990768" lon="12.074924111444568" id="-17693">
		<tag k="name" v="Husøya" />
		<tag k="place" v="island" />
		<tag k="ssr:date" v="2021-06-08" />
		<tag k="ssr:gruppe" v="kystkontur" />
		<tag k="ssr:hovedgruppe" v="sjø" />
		<tag k="ssr:stedsnr" v="925264" />
		<tag k="ssr:type" v="øyISjø" />
	</node>
	<node lat="66.48059166439081" lon="12.05522777200178" id="-17694">
		<tag k="name" v="Hiøykalven" />
		<tag k="place" v="islet" />
		<tag k="ssr:date" v="2016-05-11" />
		<tag k="ssr:gruppe" v="kystkontur" />
		<tag k="ssr:hovedgruppe" v="sjø" />
		<tag k="ssr:stedsnr" v="925266" />
		<tag k="ssr:type" v="holmeISjø" />
	</node>
	<node lat="66.49284166245022" lon="12.328311100514926" id="-17695">
		<tag k="fixme" v="consider seamark:type=rock or natural=shoal" />
		<tag k="name" v="Vesterskjæret" />
		<tag k="place" v="islet" />
		<tag k="ssr:date" v="2021-06-08" />
		<tag k="ssr:gruppe" v="grunnerISjø" />
		<tag k="ssr:hovedgruppe" v="sjø" />
		<tag k="ssr:stedsnr" v="925236" />
		<tag k="ssr:type" v="skjærISjø" />
	</node>
	<node lat="66.48906111416164" lon="12.354680557655948" id="-17696">
		<tag k="fixme" v="consider seamark:type=rock or natural=shoal" />
		<tag k="name" v="Austerskjæret" />
		<tag k="place" v="islet" />
		<tag k="ssr:date" v="2021-06-08" />
		<tag k="ssr:gruppe" v="grunnerISjø" />
		<tag k="ssr:hovedgruppe" v="sjø" />
		<tag k="ssr:stedsnr" v="925239" />
		<tag k="ssr:type" v="skjærISjø" />
	</node>
	<node lat="66.45512777589299" lon="12.002238894591603" id="-17697">
		<tag k="fixme" v="consider seamark:type=rock or natural=shoal" />
		<tag k="name" v="Flatskjæret" />
		<tag k="place" v="islet" />
		<tag k="ssr:date" v="2021-06-08" />
		<tag k="ssr:gruppe" v="grunnerISjø" />
		<tag k="ssr:hovedgruppe" v="sjø" />
		<tag k="ssr:stedsnr" v="925277" />
		<tag k="ssr:type" v="skjærISjø" />
	</node>
	<node lat="66.50443888665464" lon="12.022502786704527" id="-17698">
		<tag k="name" v="Træna" />
		<tag k="place" v="island" />
		<tag k="ssr:date" v="2021-06-08" />
		<tag k="ssr:gruppe" v="kystkontur" />
		<tag k="ssr:hovedgruppe" v="sjø" />
		<tag k="ssr:stedsnr" v="925281" />
		<tag k="ssr:type" v="øygruppeISjø" />
	</node>
	<node lat="66.63114166252979" lon="12.199130549104586" id="-17699">
		<tag k="name" v="Rya" />
		<tag k="place" v="islet" />
		<tag k="ssr:date" v="2016-05-11" />
		<tag k="ssr:gruppe" v="kystkontur" />
		<tag k="ssr:hovedgruppe" v="sjø" />
		<tag k="ssr:stedsnr" v="925664" />
		<tag k="ssr:type" v="holmeISjø" />
	</node>
	<node lat="66.57473888698463" lon="12.134208344045893" id="-17700">
		<tag k="fixme" v="consider seamark:type=rock or natural=shoal" />
		<tag k="name" v="Rossøyskjæran" />
		<tag k="place" v="islet" />
		<tag k="ssr:date" v="2021-06-08" />
		<tag k="ssr:gruppe" v="grunnerISjø" />
		<tag k="ssr:hovedgruppe" v="sjø" />
		<tag k="ssr:stedsnr" v="926639" />
		<tag k="ssr:type" v="skjærISjø" />
	</node>
	<node lat="66.52733610961603" lon="12.015655555366628" id="-17701">
		<tag k="name" v="Litle Eskjæret" />
		<tag k="place" v="islet" />
		<tag k="ssr:date" v="2016-05-11" />
		<tag k="ssr:gruppe" v="kystkontur" />
		<tag k="ssr:hovedgruppe" v="sjø" />
		<tag k="ssr:stedsnr" v="926643" />
		<tag k="ssr:type" v="holmeISjø" />
	</node>
	<node lat="66.53151666765521" lon="12.031608328202102" id="-17702">
		<tag k="name" v="Sannavær" />
		<tag k="place" v="island" />
		<tag k="ssr:date" v="2021-06-08" />
		<tag k="ssr:gruppe" v="kystkontur" />
		<tag k="ssr:hovedgruppe" v="sjø" />
		<tag k="ssr:stedsnr" v="926653" />
		<tag k="ssr:type" v="øygruppeISjø" />
	</node>
	<node lat="66.61809444840898" lon="12.283819438397853" id="-17703">
		<tag k="fixme" v="consider seamark:type=rock or natural=shoal" />
		<tag k="name" v="Bålskjæran" />
		<tag k="place" v="islet" />
		<tag k="ssr:date" v="2021-06-08" />
		<tag k="ssr:gruppe" v="grunnerISjø" />
		<tag k="ssr:hovedgruppe" v="sjø" />
		<tag k="ssr:stedsnr" v="926738" />
		<tag k="ssr:type" v="skjærISjø" />
	</node>
	<node lat="66.51990000380313" lon="12.153991671613834" id="-17704">
		<tag k="name" v="Sørsandøya" />
		<tag k="place" v="island" />
		<tag k="ssr:date" v="2021-06-08" />
		<tag k="ssr:gruppe" v="kystkontur" />
		<tag k="ssr:hovedgruppe" v="sjø" />
		<tag k="ssr:stedsnr" v="926664" />
		<tag k="ssr:type" v="øyISjø" />
	</node>
	<node lat="66.50778611227547" lon="11.993169450037417" id="-17705">
		<tag k="name" v="Ålvorsbåen" />
		<tag k="natural" v="shoal" />
		<tag k="place" v="locality" />
		<tag k="ssr:date" v="2021-06-08" />
		<tag k="ssr:gruppe" v="grunnerISjø" />
		<tag k="ssr:hovedgruppe" v="sjø" />
		<tag k="ssr:stedsnr" v="926666" />
		<tag k="ssr:type" v="grunneISjø" />
	</node>
	<node lat="66.51273889117523" lon="12.10129444514652" id="-17706">
		<tag k="name" v="Kveita" />
		<tag k="place" v="islet" />
		<tag k="ssr:date" v="2021-06-08" />
		<tag k="ssr:gruppe" v="kystkontur" />
		<tag k="ssr:hovedgruppe" v="sjø" />
		<tag k="ssr:stedsnr" v="926670" />
		<tag k="ssr:type" v="holmeISjø" />
	</node>
	<node lat="66.52628333730667" lon="12.026872215430458" id="-17707">
		<tag k="name" v="Storlamøya" />
		<tag k="place" v="island" />
		<tag k="ssr:date" v="2021-06-08" />
		<tag k="ssr:gruppe" v="kystkontur" />
		<tag k="ssr:hovedgruppe" v="sjø" />
		<tag k="ssr:stedsnr" v="926675" />
		<tag k="ssr:type" v="øyISjø" />
	</node>
	<node lat="66.50513055943092" lon="12.04622221271366" id="-17708">
		<tag k="fixme" v="consider natural=peak for the most distinct mountains in the district" />
		<tag k="name" v="Mjåtinden" />
		<tag k="natural" v="hill" />
		<tag k="place" v="locality" />
		<tag k="ssr:date" v="2021-06-08" />
		<tag k="ssr:gruppe" v="høyder" />
		<tag k="ssr:hovedgruppe" v="terreng" />
		<tag k="ssr:stedsnr" v="926693" />
		<tag k="ssr:type" v="ås" />
	</node>
	<node lat="66.49917222278437" lon="12.052658335404319" id="-17709">
		<tag k="name" v="Langhågen" />
		<tag k="natural" v="ridge" />
		<tag k="place" v="locality" />
		<tag k="ssr:date" v="2016-05-11" />
		<tag k="ssr:gruppe" v="høyder" />
		<tag k="ssr:hovedgruppe" v="terreng" />
		<tag k="ssr:stedsnr" v="900204" />
		<tag k="ssr:type" v="rygg" />
	</node>
	<node lat="66.45136666917774" lon="11.95800833347592" id="-17710">
		<tag k="name" v="Nesøytaren" />
		<tag k="natural" v="shoal" />
		<tag k="place" v="locality" />
		<tag k="ssr:date" v="2021-06-08" />
		<tag k="ssr:gruppe" v="grunnerISjø" />
		<tag k="ssr:hovedgruppe" v="sjø" />
		<tag k="ssr:stedsnr" v="925204" />
		<tag k="ssr:type" v="grunneISjø" />
	</node>
	<node lat="66.44175555693126" lon="12.018575008595388" id="-17711">
		<tag k="fixme" v="consider seamark:type=rock or natural=shoal" />
		<tag k="name" v="Brørne" />
		<tag k="place" v="islet" />
		<tag k="ssr:date" v="2021-06-08" />
		<tag k="ssr:gruppe" v="grunnerISjø" />
		<tag k="ssr:hovedgruppe" v="sjø" />
		<tag k="ssr:stedsnr" v="925207" />
		<tag k="ssr:type" v="skjærISjø" />
	</node>
	<node lat="66.36888055454996" lon="11.968077778792662" id="-17712">
		<tag k="name" v="Samskallen" />
		<tag k="natural" v="shoal" />
		<tag k="place" v="locality" />
		<tag k="ssr:date" v="2016-05-11" />
		<tag k="ssr:gruppe" v="grunnerISjø" />
		<tag k="ssr:hovedgruppe" v="sjø" />
		<tag k="ssr:stedsnr" v="925218" />
		<tag k="ssr:type" v="grunneISjø" />
	</node>
	<node lat="66.58910000150743" lon="12.102700005354524" id="-17713">
		<tag k="name" v="Djupbåen" />
		<tag k="natural" v="shoal" />
		<tag k="place" v="locality" />
		<tag k="ssr:date" v="2021-06-08" />
		<tag k="ssr:gruppe" v="grunnerISjø" />
		<tag k="ssr:hovedgruppe" v="sjø" />
		<tag k="ssr:stedsnr" v="926611" />
		<tag k="ssr:type" v="grunneISjø" />
	</node>
	<node lat="66.59131944137505" lon="12.207769438936682" id="-17714">
		<tag k="name" v="Kobbholmskjeret" />
		<tag k="place" v="islet" />
		<tag k="ssr:date" v="2016-05-11" />
		<tag k="ssr:gruppe" v="kystkontur" />
		<tag k="ssr:hovedgruppe" v="sjø" />
		<tag k="ssr:stedsnr" v="926613" />
		<tag k="ssr:type" v="holmeISjø" />
	</node>
	<node lat="66.64042222492314" lon="12.310269450008462" id="-17715">
		<tag k="name" v="Raudskjærtaren" />
		<tag k="natural" v="shoal" />
		<tag k="place" v="locality" />
		<tag k="ssr:date" v="2021-06-08" />
		<tag k="ssr:gruppe" v="grunnerISjø" />
		<tag k="ssr:hovedgruppe" v="sjø" />
		<tag k="ssr:stedsnr" v="926717" />
		<tag k="ssr:type" v="grunneISjø" />
	</node>
	<node lat="66.60030277674247" lon="12.24161945380686" id="-17716">
		<tag k="name" v="Vardøykalven" />
		<tag k="place" v="islet" />
		<tag k="ssr:date" v="2021-06-08" />
		<tag k="ssr:gruppe" v="kystkontur" />
		<tag k="ssr:hovedgruppe" v="sjø" />
		<tag k="ssr:stedsnr" v="926779" />
		<tag k="ssr:type" v="holmeISjø" />
	</node>
	<node lat="66.49130000195954" lon="12.343327783444819" id="-17730">
		<tag k="name" v="Stokkholmen" />
		<tag k="place" v="islet" />
		<tag k="ssr:date" v="2021-06-08" />
		<tag k="ssr:gruppe" v="kystkontur" />
		<tag k="ssr:hovedgruppe" v="sjø" />
		<tag k="ssr:stedsnr" v="15225" />
		<tag k="ssr:type" v="holmeISjø" />
	</node>
	<node lat="66.49914722258664" lon="12.11805833615133" id="-17731">
		<tag k="name" v="Ytterstongholmen" />
		<tag k="place" v="islet" />
		<tag k="ssr:date" v="2021-06-08" />
		<tag k="ssr:gruppe" v="kystkontur" />
		<tag k="ssr:hovedgruppe" v="sjø" />
		<tag k="ssr:stedsnr" v="15246" />
		<tag k="ssr:type" v="holmeISjø" />
	</node>
	<node lat="66.49235740093182" lon="12.081198930624108" id="-17732">
		<tag k="name" v="Ærøya" />
		<tag k="place" v="islet" />
		<tag k="ssr:date" v="2019-09-02" />
		<tag k="ssr:gruppe" v="kystkontur" />
		<tag k="ssr:hovedgruppe" v="sjø" />
		<tag k="ssr:stedsnr" v="15251" />
		<tag k="ssr:type" v="holmeISjø" />
	</node>
	<node lat="66.59144444441287" lon="12.044036103485766" id="-17733">
		<tag k="name" v="Storfroholmen" />
		<tag k="place" v="islet" />
		<tag k="ssr:date" v="2016-05-10" />
		<tag k="ssr:gruppe" v="kystkontur" />
		<tag k="ssr:hovedgruppe" v="sjø" />
		<tag k="ssr:stedsnr" v="16592" />
		<tag k="ssr:type" v="holmeISjø" />
	</node>
	<node lat="66.59631944145171" lon="12.200330557935622" id="-17734">
		<tag k="fixme" v="consider seamark:type=rock or natural=shoal" />
		<tag k="name" v="Ongelskjæret" />
		<tag k="place" v="islet" />
		<tag k="ssr:date" v="2021-06-08" />
		<tag k="ssr:gruppe" v="grunnerISjø" />
		<tag k="ssr:hovedgruppe" v="sjø" />
		<tag k="ssr:stedsnr" v="16597" />
		<tag k="ssr:type" v="skjærISjø" />
	</node>
	<node lat="66.5017916642446" lon="12.017288882740523" id="-17735">
		<tag k="alt_name" v="Sauhaugen" />
		<tag k="name" v="Sauhågen" />
		<tag k="natural" v="hill" />
		<tag k="place" v="locality" />
		<tag k="ssr:date" v="2016-05-10" />
		<tag k="ssr:gruppe" v="høyder" />
		<tag k="ssr:hovedgruppe" v="terreng" />
		<tag k="ssr:stedsnr" v="16670" />
		<tag k="ssr:type" v="haug" />
	</node>
	<node lat="66.51369444240038" lon="12.154547232473568" id="-17736">
		<tag k="fixme" v="consider seamark:type=rock or natural=shoal" />
		<tag k="name" v="Storskjæret" />
		<tag k="place" v="islet" />
		<tag k="ssr:date" v="2021-06-08" />
		<tag k="ssr:gruppe" v="grunnerISjø" />
		<tag k="ssr:hovedgruppe" v="sjø" />
		<tag k="ssr:stedsnr" v="16676" />
		<tag k="ssr:type" v="skjærISjø" />
	</node>
	<node lat="66.64673611484587" lon="12.282099994445229" id="-17737">
		<tag k="name" v="Løholmen" />
		<tag k="place" v="islet" />
		<tag k="ssr:date" v="2021-06-08" />
		<tag k="ssr:gruppe" v="kystkontur" />
		<tag k="ssr:hovedgruppe" v="sjø" />
		<tag k="ssr:stedsnr" v="16698" />
		<tag k="ssr:type" v="holmeISjø" />
	</node>
	<node lat="66.58335555419691" lon="12.159694442446538" id="-17738">
		<tag k="name" v="Grasholman" />
		<tag k="place" v="islet" />
		<tag k="ssr:date" v="2021-06-08" />
		<tag k="ssr:gruppe" v="kystkontur" />
		<tag k="ssr:hovedgruppe" v="sjø" />
		<tag k="ssr:stedsnr" v="16614" />
		<tag k="ssr:type" v="holmegruppeISjø" />
	</node>
	<node lat="66.53504444166879" lon="12.048058335072284" id="-17739">
		<tag k="name" v="Skarvholman" />
		<tag k="place" v="islet" />
		<tag k="ssr:date" v="2021-06-08" />
		<tag k="ssr:gruppe" v="kystkontur" />
		<tag k="ssr:hovedgruppe" v="sjø" />
		<tag k="ssr:stedsnr" v="16618" />
		<tag k="ssr:type" v="holmeISjø" />
	</node>
	<node lat="66.53137777768423" lon="12.128969446985371" id="-17740">
		<tag k="fixme" v="consider seamark:type=rock or natural=shoal" />
		<tag k="name" v="Gregusskjæran" />
		<tag k="place" v="islet" />
		<tag k="ssr:date" v="2021-06-08" />
		<tag k="ssr:gruppe" v="grunnerISjø" />
		<tag k="ssr:hovedgruppe" v="sjø" />
		<tag k="ssr:stedsnr" v="16620" />
		<tag k="ssr:type" v="skjærISjø" />
	</node>
	<node lat="66.53741389126341" lon="12.04546389788732" id="-17741">
		<tag k="bay" v="fjord" />
		<tag k="name" v="Skarvholmkåsa" />
		<tag k="natural" v="bay" />
		<tag k="ssr:date" v="2021-06-08" />
		<tag k="ssr:gruppe" v="farvann" />
		<tag k="ssr:hovedgruppe" v="sjø" />
		<tag k="ssr:stedsnr" v="16632" />
		<tag k="ssr:type" v="fjord" />
	</node>
	<node lat="66.54248889117626" lon="12.166299989951732" id="-17742">
		<tag k="name" v="Raudskjærholmen" />
		<tag k="place" v="islet" />
		<tag k="ssr:date" v="2021-06-08" />
		<tag k="ssr:gruppe" v="kystkontur" />
		<tag k="ssr:hovedgruppe" v="sjø" />
		<tag k="ssr:stedsnr" v="16636" />
		<tag k="ssr:type" v="holmeISjø" />
	</node>
	<node lat="66.52732777534223" lon="12.044727774085251" id="-17743">
		<tag k="name" v="Litllamøya" />
		<tag k="place" v="island" />
		<tag k="ssr:date" v="2021-06-08" />
		<tag k="ssr:gruppe" v="kystkontur" />
		<tag k="ssr:hovedgruppe" v="sjø" />
		<tag k="ssr:stedsnr" v="16645" />
		<tag k="ssr:type" v="øyISjø" />
	</node>
	<node lat="66.66295555269892" lon="12.242244448059601" id="-17744">
		<tag k="name" v="Skåka" />
		<tag k="natural" v="shoal" />
		<tag k="place" v="locality" />
		<tag k="ssr:date" v="2021-06-08" />
		<tag k="ssr:gruppe" v="grunnerISjø" />
		<tag k="ssr:hovedgruppe" v="sjø" />
		<tag k="ssr:stedsnr" v="16712" />
		<tag k="ssr:type" v="grunneISjø" />
	</node>
	<node lat="66.62261388514027" lon="12.22262221411884" id="-17745">
		<tag k="fixme" v="consider seamark:type=rock or natural=shoal" />
		<tag k="name" v="Bryskjæran" />
		<tag k="place" v="islet" />
		<tag k="ssr:date" v="2021-06-08" />
		<tag k="ssr:gruppe" v="grunnerISjø" />
		<tag k="ssr:hovedgruppe" v="sjø" />
		<tag k="ssr:stedsnr" v="16724" />
		<tag k="ssr:type" v="skjærISjø" />
	</node>
	<node lat="66.55903055891093" lon="12.290941664733122" id="-17746">
		<tag k="name" v="Lyngøya" />
		<tag k="place" v="islet" />
		<tag k="ssr:date" v="2021-06-08" />
		<tag k="ssr:gruppe" v="kystkontur" />
		<tag k="ssr:hovedgruppe" v="sjø" />
		<tag k="ssr:stedsnr" v="16777" />
		<tag k="ssr:type" v="holmeISjø" />
	</node>
	<node lat="66.58323610937266" lon="12.240002781094404" id="-17748">
		<tag k="name" v="Laukholmen" />
		<tag k="place" v="islet" />
		<tag k="ssr:date" v="2021-06-08" />
		<tag k="ssr:gruppe" v="kystkontur" />
		<tag k="ssr:hovedgruppe" v="sjø" />
		<tag k="ssr:stedsnr" v="16798" />
		<tag k="ssr:type" v="holmeISjø" />
	</node>
	<node lat="66.52833333381844" lon="12.099999996073853" id="-17749">
		<tag k="name" v="Storflua" />
		<tag k="natural" v="shoal" />
		<tag k="place" v="locality" />
		<tag k="ssr:date" v="2021-06-08" />
		<tag k="ssr:gruppe" v="grunnerISjø" />
		<tag k="ssr:hovedgruppe" v="sjø" />
		<tag k="ssr:stedsnr" v="20579" />
		<tag k="ssr:type" v="grunneISjø" />
	</node>
	<node lat="66.55079444885071" lon="12.108783335872875" id="-17750">
		<tag k="name" v="Litlarværet" />
		<tag k="place" v="islet" />
		<tag k="ssr:date" v="2021-06-08" />
		<tag k="ssr:gruppe" v="kystkontur" />
		<tag k="ssr:hovedgruppe" v="sjø" />
		<tag k="ssr:stedsnr" v="45267" />
		<tag k="ssr:type" v="holmeISjø" />
	</node>
	<node lat="66.63211944820644" lon="12.291949991087868" id="-17751">
		<tag k="name" v="Bursbåan" />
		<tag k="natural" v="shoal" />
		<tag k="place" v="locality" />
		<tag k="ssr:date" v="2021-06-08" />
		<tag k="ssr:gruppe" v="grunnerISjø" />
		<tag k="ssr:hovedgruppe" v="sjø" />
		<tag k="ssr:stedsnr" v="47491" />
		<tag k="ssr:type" v="grunneISjø" />
	</node>
	<node lat="66.49412777821418" lon="12.068797212504785" id="-17752">
		<tag k="name" v="Støttberget" />
		<tag k="natural" v="ridge" />
		<tag k="place" v="locality" />
		<tag k="ssr:date" v="2016-05-10" />
		<tag k="ssr:gruppe" v="høyder" />
		<tag k="ssr:hovedgruppe" v="terreng" />
		<tag k="ssr:stedsnr" v="50149" />
		<tag k="ssr:type" v="rygg" />
	</node>
	<node lat="66.50139721921714" lon="12.101672229394302" id="-17753">
		<tag k="name" v="Selværneset" />
		<tag k="natural" v="cape" />
		<tag k="ssr:date" v="2016-05-10" />
		<tag k="ssr:gruppe" v="kystkontur" />
		<tag k="ssr:hovedgruppe" v="sjø" />
		<tag k="ssr:stedsnr" v="50166" />
		<tag k="ssr:type" v="nesISjø" />
	</node>
	<node lat="66.50461944584625" lon="12.081055547557739" id="-17754">
		<tag k="name" v="Kjerkvågen" />
		<tag k="natural" v="bay" />
		<tag k="ssr:date" v="2016-05-10" />
		<tag k="ssr:gruppe" v="kystkontur" />
		<tag k="ssr:hovedgruppe" v="sjø" />
		<tag k="ssr:stedsnr" v="50174" />
		<tag k="ssr:type" v="vikISjø" />
	</node>
	<node lat="66.49821944064142" lon="12.035516676619185" id="-17755">
		<tag k="name" v="Lilthaga" />
		<tag k="natural" v="bay" />
		<tag k="ssr:date" v="2016-05-10" />
		<tag k="ssr:gruppe" v="kystkontur" />
		<tag k="ssr:hovedgruppe" v="sjø" />
		<tag k="ssr:stedsnr" v="50178" />
		<tag k="ssr:type" v="vikISjø" />
	</node>
	<node lat="66.49611111301124" lon="12.038941673790179" id="-17756">
		<tag k="name" v="Røsnesvalen" />
		<tag k="place" v="locality" />
		<tag k="ssr:date" v="2016-05-10" />
		<tag k="ssr:gruppe" v="dyrkamark" />
		<tag k="ssr:hovedgruppe" v="markslag" />
		<tag k="ssr:stedsnr" v="50182" />
		<tag k="ssr:type" v="utmark" />
	</node>
	<node lat="66.5084833333985" lon="12.037208339379857" id="-17757">
		<tag k="name" v="Ytter-Nøvvikja" />
		<tag k="natural" v="bay" />
		<tag k="ssr:date" v="2016-05-10" />
		<tag k="ssr:gruppe" v="kystkontur" />
		<tag k="ssr:hovedgruppe" v="sjø" />
		<tag k="ssr:stedsnr" v="50738" />
		<tag k="ssr:type" v="vikISjø" />
	</node>
	<node lat="66.5386222222836" lon="12.238588889523289" id="-17758">
		<tag k="name" v="Kuvågen" />
		<tag k="natural" v="bay" />
		<tag k="ssr:date" v="2016-05-10" />
		<tag k="ssr:gruppe" v="kystkontur" />
		<tag k="ssr:hovedgruppe" v="sjø" />
		<tag k="ssr:stedsnr" v="50749" />
		<tag k="ssr:type" v="vikISjø" />
	</node>
	<node lat="66.53957500357807" lon="12.227861119697856" id="-17759">
		<tag k="name" v="Dårkista" />
		<tag k="natural" v="valley" />
		<tag k="place" v="locality" />
		<tag k="ssr:date" v="2016-05-10" />
		<tag k="ssr:gruppe" v="senkninger" />
		<tag k="ssr:hovedgruppe" v="terreng" />
		<tag k="ssr:stedsnr" v="50751" />
		<tag k="ssr:type" v="dal" />
	</node>
	<node lat="66.53662778116217" lon="12.2298027865178" id="-17760">
		<tag k="name" v="Kjørsøya" />
		<tag k="place" v="island" />
		<tag k="ssr:date" v="2016-05-10" />
		<tag k="ssr:gruppe" v="kystkontur" />
		<tag k="ssr:hovedgruppe" v="sjø" />
		<tag k="ssr:stedsnr" v="50752" />
		<tag k="ssr:type" v="øyISjø" />
	</node>
	<node lat="66.48636111236978" lon="12.030150011193673" id="-17761">
		<tag k="name" v="Hudfatskjæret" />
		<tag k="place" v="islet" />
		<tag k="ssr:date" v="2021-06-08" />
		<tag k="ssr:gruppe" v="kystkontur" />
		<tag k="ssr:hovedgruppe" v="sjø" />
		<tag k="ssr:stedsnr" v="76244" />
		<tag k="ssr:type" v="holmeISjø" />
	</node>
	<node lat="66.51986944608217" lon="12.022719435769293" id="-17762">
		<tag k="name" v="Bukkøybåen" />
		<tag k="natural" v="shoal" />
		<tag k="place" v="locality" />
		<tag k="ssr:date" v="2021-06-08" />
		<tag k="ssr:gruppe" v="grunnerISjø" />
		<tag k="ssr:hovedgruppe" v="sjø" />
		<tag k="ssr:stedsnr" v="77691" />
		<tag k="ssr:type" v="grunneISjø" />
	</node>
	<node lat="66.52153610979256" lon="12.048294434957008" id="-17763">
		<tag k="name" v="Laukøya" />
		<tag k="place" v="islet" />
		<tag k="ssr:date" v="2016-05-10" />
		<tag k="ssr:gruppe" v="kystkontur" />
		<tag k="ssr:hovedgruppe" v="sjø" />
		<tag k="ssr:stedsnr" v="77693" />
		<tag k="ssr:type" v="holmeISjø" />
	</node>
	<node lat="66.59261944495286" lon="12.04790556540358" id="-17764">
		<tag k="name" v="Rundholmen" />
		<tag k="place" v="islet" />
		<tag k="ssr:date" v="2016-05-10" />
		<tag k="ssr:gruppe" v="kystkontur" />
		<tag k="ssr:hovedgruppe" v="sjø" />
		<tag k="ssr:stedsnr" v="77641" />
		<tag k="ssr:type" v="holmeISjø" />
	</node>
	<node lat="66.58738888592221" lon="12.18030556182901" id="-17765">
		<tag k="fixme" v="consider seamark:type=rock or natural=shoal" />
		<tag k="name" v="Rørholmskjæran" />
		<tag k="place" v="islet" />
		<tag k="ssr:date" v="2016-05-10" />
		<tag k="ssr:gruppe" v="grunnerISjø" />
		<tag k="ssr:hovedgruppe" v="sjø" />
		<tag k="ssr:stedsnr" v="77642" />
		<tag k="ssr:type" v="skjærISjø" />
	</node>
	<node lat="66.65583611091033" lon="12.264288886085696" id="-17766">
		<tag k="name" v="Tjuvtaren" />
		<tag k="natural" v="shoal" />
		<tag k="place" v="locality" />
		<tag k="ssr:date" v="2021-06-08" />
		<tag k="ssr:gruppe" v="grunnerISjø" />
		<tag k="ssr:hovedgruppe" v="sjø" />
		<tag k="ssr:stedsnr" v="77729" />
		<tag k="ssr:type" v="grunneISjø" />
	</node>
	<node lat="66.66316388539259" lon="12.229519437870366" id="-17767">
		<tag k="fixme" v="consider seamark:type=rock or natural=shoal" />
		<tag k="name" v="Litlhongskjæret" />
		<tag k="place" v="islet" />
		<tag k="ssr:date" v="2021-06-08" />
		<tag k="ssr:gruppe" v="grunnerISjø" />
		<tag k="ssr:hovedgruppe" v="sjø" />
		<tag k="ssr:stedsnr" v="77738" />
		<tag k="ssr:type" v="skjærISjø" />
	</node>
	<node lat="66.59610555299716" lon="12.243008338981483" id="-17768">
		<tag k="name" v="Sekkeholmen" />
		<tag k="place" v="islet" />
		<tag k="ssr:date" v="2016-05-10" />
		<tag k="ssr:gruppe" v="kystkontur" />
		<tag k="ssr:hovedgruppe" v="sjø" />
		<tag k="ssr:stedsnr" v="77784" />
		<tag k="ssr:type" v="holmeISjø" />
	</node>
	<node lat="66.54220277677103" lon="12.234441655367082" id="-17769">
		<tag k="fixme" v="consider natural=peak for the most distinct mountains in the district" />
		<tag k="name" v="Smaltinden" />
		<tag k="natural" v="hill" />
		<tag k="place" v="locality" />
		<tag k="ssr:date" v="2021-06-08" />
		<tag k="ssr:gruppe" v="høyder" />
		<tag k="ssr:hovedgruppe" v="terreng" />
		<tag k="ssr:stedsnr" v="81576" />
		<tag k="ssr:type" v="fjell" />
	</node>
	<node lat="66.60889444513606" lon="12.271213896076524" id="-17770">
		<tag k="name" v="Bålskjærfluan" />
		<tag k="natural" v="shoal" />
		<tag k="place" v="locality" />
		<tag k="ssr:date" v="2021-06-08" />
		<tag k="ssr:gruppe" v="grunnerISjø" />
		<tag k="ssr:hovedgruppe" v="sjø" />
		<tag k="ssr:stedsnr" v="92902" />
		<tag k="ssr:type" v="grunneISjø" />
	</node>
	<node lat="66.55379722066185" lon="12.113555562668612" id="-17771">
		<tag k="name" v="Storarværet" />
		<tag k="place" v="islet" />
		<tag k="ssr:date" v="2021-06-08" />
		<tag k="ssr:gruppe" v="kystkontur" />
		<tag k="ssr:hovedgruppe" v="sjø" />
		<tag k="ssr:stedsnr" v="106266" />
		<tag k="ssr:type" v="holmeISjø" />
	</node>
	<node lat="66.62284166517009" lon="12.215830565854944" id="-17772">
		<tag k="fixme" v="consider seamark:type=rock or natural=shoal" />
		<tag k="name" v="Ytterleiskjæret" />
		<tag k="place" v="islet" />
		<tag k="ssr:date" v="2016-05-10" />
		<tag k="ssr:gruppe" v="grunnerISjø" />
		<tag k="ssr:hovedgruppe" v="sjø" />
		<tag k="ssr:stedsnr" v="110764" />
		<tag k="ssr:type" v="skjærISjø" />
	</node>
	<node lat="66.4785666671715" lon="11.95396666944843" id="-17773">
		<tag k="name" v="Djupenbaken" />
		<tag k="place" v="islet" />
		<tag k="ssr:date" v="2016-05-10" />
		<tag k="ssr:gruppe" v="kystkontur" />
		<tag k="ssr:hovedgruppe" v="sjø" />
		<tag k="ssr:stedsnr" v="110139" />
		<tag k="ssr:type" v="holmeISjø" />
	</node>
	<node lat="66.4980805552439" lon="12.090722211851615" id="-17774">
		<tag k="name" v="Kamshågen" />
		<tag k="natural" v="hill" />
		<tag k="place" v="locality" />
		<tag k="ssr:date" v="2016-05-10" />
		<tag k="ssr:gruppe" v="høyder" />
		<tag k="ssr:hovedgruppe" v="terreng" />
		<tag k="ssr:stedsnr" v="111162" />
		<tag k="ssr:type" v="høyde" />
	</node>
	<node lat="66.55039444448244" lon="12.266061117078266" id="-17775">
		<tag k="name" v="Nord-Bærholmen" />
		<tag k="place" v="islet" />
		<tag k="ssr:date" v="2016-05-10" />
		<tag k="ssr:gruppe" v="kystkontur" />
		<tag k="ssr:hovedgruppe" v="sjø" />
		<tag k="ssr:stedsnr" v="111744" />
		<tag k="ssr:type" v="holmeISjø" />
	</node>
	<node lat="66.5058138862096" lon="12.064211107757094" id="-17776">
		<tag k="name" v="Grytneset" />
		<tag k="natural" v="cape" />
		<tag k="ssr:date" v="2016-05-10" />
		<tag k="ssr:gruppe" v="kystkontur" />
		<tag k="ssr:hovedgruppe" v="sjø" />
		<tag k="ssr:stedsnr" v="111762" />
		<tag k="ssr:type" v="nesISjø" />
	</node>
	<node lat="66.42958889335233" lon="11.971919444995212" id="-17777">
		<tag k="name" v="Austholmen" />
		<tag k="place" v="islet" />
		<tag k="ssr:date" v="2021-06-08" />
		<tag k="ssr:gruppe" v="kystkontur" />
		<tag k="ssr:hovedgruppe" v="sjø" />
		<tag k="ssr:stedsnr" v="136221" />
		<tag k="ssr:type" v="holmeISjø" />
	</node>
	<node lat="66.63752777802269" lon="12.166269447064897" id="-17778">
		<tag k="name" v="Havsultaren" />
		<tag k="natural" v="shoal" />
		<tag k="place" v="locality" />
		<tag k="ssr:date" v="2021-06-08" />
		<tag k="ssr:gruppe" v="grunnerISjø" />
		<tag k="ssr:hovedgruppe" v="sjø" />
		<tag k="ssr:stedsnr" v="136635" />
		<tag k="ssr:type" v="grunneISjø" />
	</node>
	<node lat="66.64386667087618" lon="12.20236110764348" id="-17779">
		<tag k="name" v="Jarntaren" />
		<tag k="natural" v="shoal" />
		<tag k="place" v="locality" />
		<tag k="ssr:date" v="2021-06-08" />
		<tag k="ssr:gruppe" v="grunnerISjø" />
		<tag k="ssr:hovedgruppe" v="sjø" />
		<tag k="ssr:stedsnr" v="136638" />
		<tag k="ssr:type" v="grunneISjø" />
	</node>
	<node lat="66.54840277895903" lon="12.059838880176605" id="-17780">
		<tag k="name" v="Litlkangva" />
		<tag k="place" v="islet" />
		<tag k="ssr:date" v="2016-05-10" />
		<tag k="ssr:gruppe" v="kystkontur" />
		<tag k="ssr:hovedgruppe" v="sjø" />
		<tag k="ssr:stedsnr" v="137611" />
		<tag k="ssr:type" v="holmeISjø" />
	</node>
	<node lat="66.57100278088134" lon="12.209858331992038" id="-17781">
		<tag k="name" v="Nautøybåen" />
		<tag k="natural" v="shoal" />
		<tag k="place" v="locality" />
		<tag k="ssr:date" v="2021-06-08" />
		<tag k="ssr:gruppe" v="grunnerISjø" />
		<tag k="ssr:hovedgruppe" v="sjø" />
		<tag k="ssr:stedsnr" v="137612" />
		<tag k="ssr:type" v="grunneISjø" />
	</node>
	<node lat="66.5582666703789" lon="12.162844452502314" id="-17782">
		<tag k="fixme" v="consider seamark:type=rock or natural=shoal" />
		<tag k="name" v="Marøyskjæran" />
		<tag k="place" v="islet" />
		<tag k="ssr:date" v="2021-06-08" />
		<tag k="ssr:gruppe" v="grunnerISjø" />
		<tag k="ssr:hovedgruppe" v="sjø" />
		<tag k="ssr:stedsnr" v="137613" />
		<tag k="ssr:type" v="skjærISjø" />
	</node>
	<node lat="66.58905277432855" lon="12.204888881966795" id="-17783">
		<tag k="name" v="Verholmen" />
		<tag k="place" v="islet" />
		<tag k="ssr:date" v="2021-06-08" />
		<tag k="ssr:gruppe" v="kystkontur" />
		<tag k="ssr:hovedgruppe" v="sjø" />
		<tag k="ssr:stedsnr" v="137618" />
		<tag k="ssr:type" v="holmeISjø" />
	</node>
	<node lat="66.54121943995969" lon="11.998975010109008" id="-17784">
		<tag k="name" v="Rumpa" />
		<tag k="natural" v="shoal" />
		<tag k="place" v="locality" />
		<tag k="ssr:date" v="2021-06-08" />
		<tag k="ssr:gruppe" v="grunnerISjø" />
		<tag k="ssr:hovedgruppe" v="sjø" />
		<tag k="ssr:stedsnr" v="137630" />
		<tag k="ssr:type" v="grunneISjø" />
	</node>
	<node lat="66.50664722262886" lon="11.928052766613595" id="-17787">
		<tag k="name" v="Solken" />
		<tag k="natural" v="shoal" />
		<tag k="place" v="locality" />
		<tag k="ssr:date" v="2021-06-08" />
		<tag k="ssr:gruppe" v="grunnerISjø" />
		<tag k="ssr:hovedgruppe" v="sjø" />
		<tag k="ssr:stedsnr" v="137666" />
		<tag k="ssr:type" v="grunneISjø" />
	</node>
	<node lat="66.52443055774692" lon="12.322105565988174" id="-17788">
		<tag k="name" v="Hellfallet" />
		<tag k="natural" v="shoal" />
		<tag k="place" v="locality" />
		<tag k="ssr:date" v="2021-06-08" />
		<tag k="ssr:gruppe" v="grunnerISjø" />
		<tag k="ssr:hovedgruppe" v="sjø" />
		<tag k="ssr:stedsnr" v="137792" />
		<tag k="ssr:type" v="grunneISjø" />
	</node>
	<node lat="66.62971388628476" lon="12.306666667436174" id="-17789">
		<tag k="name" v="Aurflua" />
		<tag k="natural" v="shoal" />
		<tag k="place" v="locality" />
		<tag k="ssr:date" v="2021-06-08" />
		<tag k="ssr:gruppe" v="grunnerISjø" />
		<tag k="ssr:hovedgruppe" v="sjø" />
		<tag k="ssr:stedsnr" v="137708" />
		<tag k="ssr:type" v="grunneISjø" />
	</node>
	<node lat="66.60659999948678" lon="12.22491111162144" id="-17790">
		<tag k="fixme" v="consider seamark:type=rock or natural=shoal" />
		<tag k="name" v="Gotterongsskjæret" />
		<tag k="place" v="islet" />
		<tag k="ssr:date" v="2021-06-08" />
		<tag k="ssr:gruppe" v="grunnerISjø" />
		<tag k="ssr:hovedgruppe" v="sjø" />
		<tag k="ssr:stedsnr" v="137734" />
		<tag k="ssr:type" v="skjærISjø" />
	</node>
	<node lat="66.5532916642336" lon="12.294469433356888" id="-17791">
		<tag k="name" v="Litlkverna" />
		<tag k="place" v="islet" />
		<tag k="ssr:date" v="2021-06-08" />
		<tag k="ssr:gruppe" v="kystkontur" />
		<tag k="ssr:hovedgruppe" v="sjø" />
		<tag k="ssr:stedsnr" v="168948" />
		<tag k="ssr:type" v="holmeISjø" />
	</node>
	<node lat="66.49876110765548" lon="12.12383888577793" id="-17792">
		<tag k="name" v="Innerstongholmen" />
		<tag k="place" v="islet" />
		<tag k="ssr:date" v="2021-06-08" />
		<tag k="ssr:gruppe" v="kystkontur" />
		<tag k="ssr:hovedgruppe" v="sjø" />
		<tag k="ssr:stedsnr" v="168979" />
		<tag k="ssr:type" v="holmeISjø" />
	</node>
	<node lat="66.5048861150388" lon="12.10171667176173" id="-17793">
		<tag k="name" v="Ishusvika" />
		<tag k="natural" v="bay" />
		<tag k="ssr:date" v="2016-05-10" />
		<tag k="ssr:gruppe" v="kystkontur" />
		<tag k="ssr:hovedgruppe" v="sjø" />
		<tag k="ssr:stedsnr" v="171154" />
		<tag k="ssr:type" v="vikISjø" />
	</node>
	<node lat="66.54338610869392" lon="12.220866659920746" id="-17794">
		<tag k="fixme" v="consider seamark:type=rock or natural=shoal" />
		<tag k="name" v="Buøyskjæret" />
		<tag k="place" v="islet" />
		<tag k="ssr:date" v="2016-05-10" />
		<tag k="ssr:gruppe" v="grunnerISjø" />
		<tag k="ssr:hovedgruppe" v="sjø" />
		<tag k="ssr:stedsnr" v="171794" />
		<tag k="ssr:type" v="skjærISjø" />
	</node>
	<node lat="66.53501388464625" lon="12.048049995123462" id="-17795">
		<tag k="name" v="Inner-Skarvholmen" />
		<tag k="place" v="islet" />
		<tag k="ssr:date" v="2016-05-10" />
		<tag k="ssr:gruppe" v="kystkontur" />
		<tag k="ssr:hovedgruppe" v="sjø" />
		<tag k="ssr:stedsnr" v="171799" />
		<tag k="ssr:type" v="holmeISjø" />
	</node>
	<node lat="66.52755555634646" lon="12.015494446010251" id="-17796">
		<tag k="name" v="Eskjæran" />
		<tag k="place" v="island" />
		<tag k="ssr:date" v="2016-05-10" />
		<tag k="ssr:gruppe" v="kystkontur" />
		<tag k="ssr:hovedgruppe" v="sjø" />
		<tag k="ssr:stedsnr" v="171800" />
		<tag k="ssr:type" v="øygruppeISjø" />
	</node>
	<node lat="66.41375277550992" lon="11.983397212355786" id="-17797">
		<tag k="name" v="Ol Nilsa-skallen" />
		<tag k="natural" v="shoal" />
		<tag k="place" v="locality" />
		<tag k="ssr:date" v="2021-06-08" />
		<tag k="ssr:gruppe" v="grunnerISjø" />
		<tag k="ssr:hovedgruppe" v="sjø" />
		<tag k="ssr:stedsnr" v="197233" />
		<tag k="ssr:type" v="grunneISjø" />
	</node>
	<node lat="66.49849166778651" lon="12.06194444614737" id="-17798">
		<tag k="name" v="Sandasundet" />
		<tag k="natural" v="strait" />
		<tag k="ssr:date" v="2016-05-10" />
		<tag k="ssr:gruppe" v="kystkontur" />
		<tag k="ssr:hovedgruppe" v="sjø" />
		<tag k="ssr:stedsnr" v="197251" />
		<tag k="ssr:type" v="sundISjø" />
	</node>
	<node lat="66.49325833711988" lon="12.030894438403193" id="-17799">
		<tag k="name" v="Røssneset" />
		<tag k="natural" v="cape" />
		<tag k="ssr:date" v="2021-06-08" />
		<tag k="ssr:gruppe" v="kystkontur" />
		<tag k="ssr:hovedgruppe" v="sjø" />
		<tag k="ssr:stedsnr" v="197254" />
		<tag k="ssr:type" v="nesISjø" />
	</node>
	<node lat="66.49172777417571" lon="11.970802770933343" id="-17800">
		<tag k="name" v="Styrtaren" />
		<tag k="natural" v="shoal" />
		<tag k="place" v="locality" />
		<tag k="ssr:date" v="2021-06-08" />
		<tag k="ssr:gruppe" v="grunnerISjø" />
		<tag k="ssr:hovedgruppe" v="sjø" />
		<tag k="ssr:stedsnr" v="197255" />
		<tag k="ssr:type" v="grunneISjø" />
	</node>
	<node lat="66.64928888847409" lon="12.263877784402926" id="-17801">
		<tag k="name" v="Litlskarvholmen" />
		<tag k="place" v="islet" />
		<tag k="ssr:date" v="2016-05-10" />
		<tag k="ssr:gruppe" v="kystkontur" />
		<tag k="ssr:hovedgruppe" v="sjø" />
		<tag k="ssr:stedsnr" v="198715" />
		<tag k="ssr:type" v="holmeISjø" />
	</node>
	<node lat="66.62643611063264" lon="12.2789555493929" id="-17802">
		<tag k="name" v="Sørbursbåen" />
		<tag k="natural" v="shoal" />
		<tag k="place" v="locality" />
		<tag k="ssr:date" v="2021-06-08" />
		<tag k="ssr:gruppe" v="grunnerISjø" />
		<tag k="ssr:hovedgruppe" v="sjø" />
		<tag k="ssr:stedsnr" v="198732" />
		<tag k="ssr:type" v="grunneISjø" />
	</node>
	<node lat="66.62638888675507" lon="12.230516662044646" id="-17803">
		<tag k="fixme" v="consider seamark:type=rock or natural=shoal" />
		<tag k="name" v="Raudholmskjæran" />
		<tag k="place" v="islet" />
		<tag k="ssr:date" v="2021-06-08" />
		<tag k="ssr:gruppe" v="grunnerISjø" />
		<tag k="ssr:hovedgruppe" v="sjø" />
		<tag k="ssr:stedsnr" v="198734" />
		<tag k="ssr:type" v="skjærISjø" />
	</node>
	<node lat="66.6352999976148" lon="12.30933611355522" id="-17804">
		<tag k="fixme" v="consider seamark:type=rock or natural=shoal" />
		<tag k="name" v="Raudskjæret" />
		<tag k="place" v="islet" />
		<tag k="ssr:date" v="2021-06-08" />
		<tag k="ssr:gruppe" v="grunnerISjø" />
		<tag k="ssr:hovedgruppe" v="sjø" />
		<tag k="ssr:stedsnr" v="198735" />
		<tag k="ssr:type" v="skjærISjø" />
	</node>
	<node lat="66.56179166699427" lon="12.10671388254772" id="-17805">
		<tag k="fixme" v="consider seamark:type=rock or natural=shoal" />
		<tag k="name" v="Båsskjæran" />
		<tag k="place" v="islet" />
		<tag k="ssr:date" v="2021-06-08" />
		<tag k="ssr:gruppe" v="grunnerISjø" />
		<tag k="ssr:hovedgruppe" v="sjø" />
		<tag k="ssr:stedsnr" v="198635" />
		<tag k="ssr:type" v="skjærISjø" />
	</node>
	<node lat="66.5608277761976" lon="12.057402767377788" id="-17806">
		<tag k="fixme" v="consider seamark:type=rock or natural=shoal" />
		<tag k="name" v="Kangvadskjæran" />
		<tag k="place" v="islet" />
		<tag k="ssr:date" v="2021-06-08" />
		<tag k="ssr:gruppe" v="grunnerISjø" />
		<tag k="ssr:hovedgruppe" v="sjø" />
		<tag k="ssr:stedsnr" v="198636" />
		<tag k="ssr:type" v="skjærISjø" />
	</node>
	<node lat="66.57031944615704" lon="12.101275004665496" id="-17807">
		<tag k="name" v="Klubbåsen" />
		<tag k="place" v="islet" />
		<tag k="ssr:date" v="2021-06-08" />
		<tag k="ssr:gruppe" v="kystkontur" />
		<tag k="ssr:hovedgruppe" v="sjø" />
		<tag k="ssr:stedsnr" v="198641" />
		<tag k="ssr:type" v="holmeISjø" />
	</node>
	<node lat="66.55471389151178" lon="12.249663884208486" id="-17809">
		<tag k="name" v="Ørkja" />
		<tag k="place" v="island" />
		<tag k="ssr:date" v="2021-06-08" />
		<tag k="ssr:gruppe" v="kystkontur" />
		<tag k="ssr:hovedgruppe" v="sjø" />
		<tag k="ssr:stedsnr" v="198789" />
		<tag k="ssr:type" v="øyISjø" />
	</node>
	<node lat="66.58002777906265" lon="12.234222220289649" id="-17810">
		<tag k="name" v="Sjurøya" />
		<tag k="place" v="islet" />
		<tag k="ssr:date" v="2021-06-08" />
		<tag k="ssr:gruppe" v="kystkontur" />
		<tag k="ssr:hovedgruppe" v="sjø" />
		<tag k="ssr:stedsnr" v="198793" />
		<tag k="ssr:type" v="holmeISjø" />
	</node>
	<node lat="66.54311666974004" lon="12.270444449107924" id="-17811">
		<tag k="name" v="Ternskjæret" />
		<tag k="place" v="islet" />
		<tag k="ssr:date" v="2016-05-10" />
		<tag k="ssr:gruppe" v="kystkontur" />
		<tag k="ssr:hovedgruppe" v="sjø" />
		<tag k="ssr:stedsnr" v="198840" />
		<tag k="ssr:type" v="holmeISjø" />
	</node>
	<node lat="66.6314777794772" lon="12.221333329090955" id="-17812">
		<tag k="name" v="Stabben" />
		<tag k="place" v="locality" />
		<tag k="seamark:type" v="rock" />
		<tag k="ssr:date" v="2021-06-08" />
		<tag k="ssr:gruppe" v="grunnerISjø" />
		<tag k="ssr:hovedgruppe" v="sjø" />
		<tag k="ssr:stedsnr" v="214943" />
		<tag k="ssr:type" v="båeISjø" />
	</node>
	<node lat="66.51454166971718" lon="12.000725007453172" id="-17813">
		<tag k="name" v="Bukta" />
		<tag k="natural" v="bay" />
		<tag k="ssr:date" v="2021-06-08" />
		<tag k="ssr:gruppe" v="kystkontur" />
		<tag k="ssr:hovedgruppe" v="sjø" />
		<tag k="ssr:stedsnr" v="274778" />
		<tag k="ssr:type" v="vågISjø" />
	</node>
	<node lat="66.63274444719" lon="12.244819437680064" id="-17814">
		<tag k="fixme" v="consider seamark:type=rock or natural=shoal" />
		<tag k="name" v="Tjønnholmskjæran" />
		<tag k="place" v="islet" />
		<tag k="ssr:date" v="2021-06-08" />
		<tag k="ssr:gruppe" v="grunnerISjø" />
		<tag k="ssr:hovedgruppe" v="sjø" />
		<tag k="ssr:stedsnr" v="275929" />
		<tag k="ssr:type" v="skjærISjø" />
	</node>
	<node lat="66.56861388487171" lon="12.13296389061861" id="-17815">
		<tag k="name" v="Rossøyan" />
		<tag k="place" v="islet" />
		<tag k="ssr:date" v="2021-06-08" />
		<tag k="ssr:gruppe" v="kystkontur" />
		<tag k="ssr:hovedgruppe" v="sjø" />
		<tag k="ssr:stedsnr" v="290660" />
		<tag k="ssr:type" v="holmeISjø" />
	</node>
	<node lat="66.60168055781268" lon="12.254883334185354" id="-17816">
		<tag k="fixme" v="consider seamark:type=rock or natural=shoal" />
		<tag k="name" v="Auster-Senningskjæret" />
		<tag k="place" v="islet" />
		<tag k="ssr:date" v="2016-05-10" />
		<tag k="ssr:gruppe" v="grunnerISjø" />
		<tag k="ssr:hovedgruppe" v="sjø" />
		<tag k="ssr:stedsnr" v="292753" />
		<tag k="ssr:type" v="skjærISjø" />
	</node>
	<node lat="66.59383333040357" lon="12.236447229872969" id="-17817">
		<tag k="name" v="Innereinholmen" />
		<tag k="place" v="islet" />
		<tag k="ssr:date" v="2016-05-10" />
		<tag k="ssr:gruppe" v="kystkontur" />
		<tag k="ssr:hovedgruppe" v="sjø" />
		<tag k="ssr:stedsnr" v="292769" />
		<tag k="ssr:type" v="holmeISjø" />
	</node>
	<node lat="66.50700833718881" lon="12.06310000623193" id="-17818">
		<tag k="name" v="Pålneset" />
		<tag k="natural" v="cape" />
		<tag k="ssr:date" v="2016-05-10" />
		<tag k="ssr:gruppe" v="kystkontur" />
		<tag k="ssr:hovedgruppe" v="sjø" />
		<tag k="ssr:stedsnr" v="293813" />
		<tag k="ssr:type" v="nesISjø" />
	</node>
	<node lat="66.6400611128195" lon="12.199874995734824" id="-17819">
		<tag k="name" v="Trælskjærbåen" />
		<tag k="natural" v="shoal" />
		<tag k="place" v="locality" />
		<tag k="ssr:date" v="2021-06-08" />
		<tag k="ssr:gruppe" v="grunnerISjø" />
		<tag k="ssr:hovedgruppe" v="sjø" />
		<tag k="ssr:stedsnr" v="318634" />
		<tag k="ssr:type" v="grunneISjø" />
	</node>
	<node lat="66.48895555273582" lon="12.103744446889685" id="-17820">
		<tag k="name" v="Valløya" />
		<tag k="place" v="island" />
		<tag k="ssr:date" v="2021-06-08" />
		<tag k="ssr:gruppe" v="kystkontur" />
		<tag k="ssr:hovedgruppe" v="sjø" />
		<tag k="ssr:stedsnr" v="318235" />
		<tag k="ssr:type" v="øyISjø" />
	</node>
	<node lat="66.60203611197589" lon="12.137275006399353" id="-17822">
		<tag k="name" v="Sørnipskjærtaren" />
		<tag k="natural" v="shoal" />
		<tag k="place" v="locality" />
		<tag k="ssr:date" v="2021-06-08" />
		<tag k="ssr:gruppe" v="grunnerISjø" />
		<tag k="ssr:hovedgruppe" v="sjø" />
		<tag k="ssr:stedsnr" v="318657" />
		<tag k="ssr:type" v="grunneISjø" />
	</node>
	<node lat="66.52888055486575" lon="12.145027783108215" id="-17823">
		<tag k="fixme" v="consider seamark:type=rock or natural=shoal" />
		<tag k="name" v="Langskjæret" />
		<tag k="place" v="islet" />
		<tag k="ssr:date" v="2021-06-08" />
		<tag k="ssr:gruppe" v="grunnerISjø" />
		<tag k="ssr:hovedgruppe" v="sjø" />
		<tag k="ssr:stedsnr" v="319655" />
		<tag k="ssr:type" v="skjærISjø" />
	</node>
	<node lat="66.5145500026846" lon="12.072208327761508" id="-17824">
		<tag k="fixme" v="consider seamark:type=rock or natural=shoal" />
		<tag k="name" v="Ausa" />
		<tag k="place" v="islet" />
		<tag k="ssr:date" v="2021-06-08" />
		<tag k="ssr:gruppe" v="grunnerISjø" />
		<tag k="ssr:hovedgruppe" v="sjø" />
		<tag k="ssr:stedsnr" v="319661" />
		<tag k="ssr:type" v="skjærISjø" />
	</node>
	<node lat="66.52235277678909" lon="11.97085277020761" id="-17825">
		<tag k="name" v="Fallet" />
		<tag k="natural" v="shoal" />
		<tag k="place" v="locality" />
		<tag k="ssr:date" v="2021-06-08" />
		<tag k="ssr:gruppe" v="grunnerISjø" />
		<tag k="ssr:hovedgruppe" v="sjø" />
		<tag k="ssr:stedsnr" v="319668" />
		<tag k="ssr:type" v="grunneISjø" />
	</node>
	<node lat="66.59829444545295" lon="12.188477769464606" id="-17826">
		<tag k="name" v="Ytterongelskjærbåen" />
		<tag k="place" v="locality" />
		<tag k="seamark:type" v="rock" />
		<tag k="ssr:date" v="2021-06-08" />
		<tag k="ssr:gruppe" v="grunnerISjø" />
		<tag k="ssr:hovedgruppe" v="sjø" />
		<tag k="ssr:stedsnr" v="319609" />
		<tag k="ssr:type" v="båeISjø" />
	</node>
	<node lat="66.59186666868166" lon="12.143869442245228" id="-17827">
		<tag k="name" v="Vestbrya" />
		<tag k="place" v="islet" />
		<tag k="ssr:date" v="2021-06-08" />
		<tag k="ssr:gruppe" v="kystkontur" />
		<tag k="ssr:hovedgruppe" v="sjø" />
		<tag k="ssr:stedsnr" v="319610" />
		<tag k="ssr:type" v="holmeISjø" />
	</node>
	<node lat="66.58982778012962" lon="12.190061116374522" id="-17828">
		<tag k="name" v="Rørholmen" />
		<tag k="place" v="islet" />
		<tag k="ssr:date" v="2021-06-08" />
		<tag k="ssr:gruppe" v="kystkontur" />
		<tag k="ssr:hovedgruppe" v="sjø" />
		<tag k="ssr:stedsnr" v="319613" />
		<tag k="ssr:type" v="holmeISjø" />
	</node>
	<node lat="66.54503333398965" lon="12.258211106489545" id="-17829">
		<tag k="name" v="Torvøya" />
		<tag k="place" v="island" />
		<tag k="ssr:date" v="2021-06-08" />
		<tag k="ssr:gruppe" v="kystkontur" />
		<tag k="ssr:hovedgruppe" v="sjø" />
		<tag k="ssr:stedsnr" v="320853" />
		<tag k="ssr:type" v="øyISjø" />
	</node>
	<node lat="66.54578333536591" lon="12.28276389666615" id="-17830">
		<tag k="fixme" v="multiple name tags, choose one and add the other to alt_name; consider seamark:type=rock or natural=shoal" />
		<tag k="name" v="Bonden;Bondskjæret" />
		<tag k="place" v="islet" />
		<tag k="ssr:date" v="2016-05-10" />
		<tag k="ssr:gruppe" v="grunnerISjø" />
		<tag k="ssr:hovedgruppe" v="sjø" />
		<tag k="ssr:stedsnr" v="320855" />
		<tag k="ssr:type" v="skjærISjø" />
	</node>
	<node lat="66.49584166486821" lon="12.090902770891397" id="-17831">
		<tag k="name" v="Kvernneset" />
		<tag k="place" v="islet" />
		<tag k="ssr:date" v="2021-06-08" />
		<tag k="ssr:gruppe" v="kystkontur" />
		<tag k="ssr:hovedgruppe" v="sjø" />
		<tag k="ssr:stedsnr" v="323570" />
		<tag k="ssr:type" v="holmeISjø" />
	</node>
	<node lat="66.48662222594955" lon="12.047716678142129" id="-17832">
		<tag k="fixme" v="consider seamark:type=rock or natural=shoal" />
		<tag k="name" v="Nordkvaløyskjæret" />
		<tag k="place" v="islet" />
		<tag k="ssr:date" v="2021-06-08" />
		<tag k="ssr:gruppe" v="grunnerISjø" />
		<tag k="ssr:hovedgruppe" v="sjø" />
		<tag k="ssr:stedsnr" v="350695" />
		<tag k="ssr:type" v="skjærISjø" />
	</node>
	<node lat="66.58608055931502" lon="12.23411665679073" id="-17833">
		<tag k="name" v="Osen" />
		<tag k="natural" v="bay" />
		<tag k="ssr:date" v="2016-05-10" />
		<tag k="ssr:gruppe" v="kystkontur" />
		<tag k="ssr:hovedgruppe" v="sjø" />
		<tag k="ssr:stedsnr" v="352748" />
		<tag k="ssr:type" v="vikISjø" />
	</node>
	<node lat="66.58185555511294" lon="12.231422227528784" id="-17834">
		<tag k="fixme" v="consider seamark:type=rock or natural=shoal" />
		<tag k="name" v="Kvilskjæret" />
		<tag k="place" v="islet" />
		<tag k="ssr:date" v="2016-05-10" />
		<tag k="ssr:gruppe" v="grunnerISjø" />
		<tag k="ssr:hovedgruppe" v="sjø" />
		<tag k="ssr:stedsnr" v="352751" />
		<tag k="ssr:type" v="skjærISjø" />
	</node>
	<node lat="66.5005583323309" lon="12.098519434444654" id="-17835">
		<tag k="name" v="Burshågen" />
		<tag k="natural" v="hill" />
		<tag k="place" v="locality" />
		<tag k="ssr:date" v="2016-05-10" />
		<tag k="ssr:gruppe" v="høyder" />
		<tag k="ssr:hovedgruppe" v="terreng" />
		<tag k="ssr:stedsnr" v="353198" />
		<tag k="ssr:type" v="høyde" />
	</node>
	<node lat="66.50378610775027" lon="12.061611101600938" id="-17836">
		<tag k="name" v="Merrahella" />
		<tag k="natural" v="shoal" />
		<tag k="place" v="locality" />
		<tag k="ssr:date" v="2016-05-10" />
		<tag k="ssr:gruppe" v="grunnerISjø" />
		<tag k="ssr:hovedgruppe" v="sjø" />
		<tag k="ssr:stedsnr" v="353783" />
		<tag k="ssr:type" v="grunneISjø" />
	</node>
	<node lat="66.50640833472538" lon="12.017033324166665" id="-17837">
		<tag k="name" v="Hornskorra" />
		<tag k="place" v="locality" />
		<tag k="ssr:date" v="2016-05-10" />
		<tag k="ssr:gruppe" v="terrengdetaljer" />
		<tag k="ssr:hovedgruppe" v="terreng" />
		<tag k="ssr:stedsnr" v="353786" />
		<tag k="ssr:type" v="hylle" />
	</node>
	<node lat="66.53490555752718" lon="12.242491660405529" id="-17838">
		<tag k="name" v="Øyneset" />
		<tag k="natural" v="cape" />
		<tag k="ssr:date" v="2016-05-10" />
		<tag k="ssr:gruppe" v="kystkontur" />
		<tag k="ssr:hovedgruppe" v="sjø" />
		<tag k="ssr:stedsnr" v="353791" />
		<tag k="ssr:type" v="nesISjø" />
	</node>
	<node lat="66.53862777945159" lon="12.131144442725251" id="-17839">
		<tag k="name" v="Omnholmen" />
		<tag k="place" v="islet" />
		<tag k="ssr:date" v="2021-06-08" />
		<tag k="ssr:gruppe" v="kystkontur" />
		<tag k="ssr:hovedgruppe" v="sjø" />
		<tag k="ssr:stedsnr" v="380697" />
		<tag k="ssr:type" v="holmeISjø" />
	</node>
	<node lat="66.53665278093361" lon="12.074944441938406" id="-17841">
		<tag k="fixme" v="consider seamark:type=rock or natural=shoal" />
		<tag k="name" v="Kyllingskjæret" />
		<tag k="place" v="islet" />
		<tag k="ssr:date" v="2021-06-08" />
		<tag k="ssr:gruppe" v="grunnerISjø" />
		<tag k="ssr:hovedgruppe" v="sjø" />
		<tag k="ssr:stedsnr" v="380692" />
		<tag k="ssr:type" v="skjærISjø" />
	</node>
	<node lat="66.51116388659182" lon="12.111336119745934" id="-17842">
		<tag k="fixme" v="consider seamark:type=rock or natural=shoal" />
		<tag k="name" v="Ørna" />
		<tag k="place" v="islet" />
		<tag k="ssr:date" v="2021-06-08" />
		<tag k="ssr:gruppe" v="grunnerISjø" />
		<tag k="ssr:hovedgruppe" v="sjø" />
		<tag k="ssr:stedsnr" v="380733" />
		<tag k="ssr:type" v="skjærISjø" />
	</node>
	<node lat="66.55377222366286" lon="12.293022215856775" id="-17843">
		<tag k="name" v="Storkverna" />
		<tag k="place" v="islet" />
		<tag k="ssr:date" v="2021-06-08" />
		<tag k="ssr:gruppe" v="kystkontur" />
		<tag k="ssr:hovedgruppe" v="sjø" />
		<tag k="ssr:stedsnr" v="380838" />
		<tag k="ssr:type" v="holmeISjø" />
	</node>
	<node lat="66.55880555834028" lon="12.276263887634062" id="-17844">
		<tag k="fixme" v="consider seamark:type=rock or natural=shoal" />
		<tag k="name" v="Stikkveskjæran" />
		<tag k="place" v="islet" />
		<tag k="ssr:date" v="2021-06-08" />
		<tag k="ssr:gruppe" v="grunnerISjø" />
		<tag k="ssr:hovedgruppe" v="sjø" />
		<tag k="ssr:stedsnr" v="380797" />
		<tag k="ssr:type" v="skjærISjø" />
	</node>
	<node lat="66.55413889171949" lon="12.238944449229157" id="-17846">
		<tag k="fixme" v="consider seamark:type=rock or natural=shoal" />
		<tag k="name" v="Ørkjekalven" />
		<tag k="place" v="islet" />
		<tag k="ssr:date" v="2016-05-10" />
		<tag k="ssr:gruppe" v="grunnerISjø" />
		<tag k="ssr:hovedgruppe" v="sjø" />
		<tag k="ssr:stedsnr" v="395273" />
		<tag k="ssr:type" v="skjærISjø" />
	</node>
	<node lat="66.49004166581939" lon="12.054783326686993" id="-17847">
		<tag k="name" v="Reinsøygalten" />
		<tag k="natural" v="shoal" />
		<tag k="place" v="locality" />
		<tag k="ssr:date" v="2021-06-08" />
		<tag k="ssr:gruppe" v="grunnerISjø" />
		<tag k="ssr:hovedgruppe" v="sjø" />
		<tag k="ssr:stedsnr" v="395854" />
		<tag k="ssr:type" v="grunneISjø" />
	</node>
	<node lat="66.49670000006489" lon="12.11228333422852" id="-17848">
		<tag k="name" v="Lilt-Torvøya" />
		<tag k="place" v="islet" />
		<tag k="ssr:date" v="2016-05-10" />
		<tag k="ssr:gruppe" v="kystkontur" />
		<tag k="ssr:hovedgruppe" v="sjø" />
		<tag k="ssr:stedsnr" v="414162" />
		<tag k="ssr:type" v="holmeISjø" />
	</node>
	<node lat="66.58338888697733" lon="12.222908327754256" id="-17849">
		<tag k="name" v="Stongodden" />
		<tag k="natural" v="cape" />
		<tag k="ssr:date" v="2016-05-10" />
		<tag k="ssr:gruppe" v="kystkontur" />
		<tag k="ssr:hovedgruppe" v="sjø" />
		<tag k="ssr:stedsnr" v="413775" />
		<tag k="ssr:type" v="nesISjø" />
	</node>
	<node lat="66.58521111260713" lon="12.235686106204245" id="-17850">
		<tag k="name" v="Larsstøa" />
		<tag k="place" v="farm" />
		<tag k="ssr:date" v="2016-05-10" />
		<tag k="ssr:gruppe" v="gardsbebyggelse" />
		<tag k="ssr:hovedgruppe" v="bebyggelse" />
		<tag k="ssr:stedsnr" v="413777" />
		<tag k="ssr:type" v="bruk" />
	</node>
	<node lat="66.58065278021883" lon="12.218149998238399" id="-17851">
		<tag k="name" v="Innerlamholmen" />
		<tag k="place" v="islet" />
		<tag k="ssr:date" v="2016-05-10" />
		<tag k="ssr:gruppe" v="kystkontur" />
		<tag k="ssr:hovedgruppe" v="sjø" />
		<tag k="ssr:stedsnr" v="413779" />
		<tag k="ssr:type" v="holmeISjø" />
	</node>
	<node lat="66.5421944445936" lon="12.24936110600338" id="-17852">
		<tag k="name" v="Nordvika" />
		<tag k="natural" v="bay" />
		<tag k="ssr:date" v="2016-05-10" />
		<tag k="ssr:gruppe" v="kystkontur" />
		<tag k="ssr:hovedgruppe" v="sjø" />
		<tag k="ssr:stedsnr" v="414763" />
		<tag k="ssr:type" v="vikISjø" />
	</node>
	<node lat="66.54073333465335" lon="12.2309888886012" id="-17853">
		<tag k="name" v="Drengen" />
		<tag k="natural" v="hill" />
		<tag k="place" v="locality" />
		<tag k="ssr:date" v="2016-05-10" />
		<tag k="ssr:gruppe" v="høyder" />
		<tag k="ssr:hovedgruppe" v="terreng" />
		<tag k="ssr:stedsnr" v="414765" />
		<tag k="ssr:type" v="hei" />
	</node>
	<node lat="66.50455555194495" lon="12.03840554423062" id="-17854">
		<tag k="name" v="Øksendalsfjellet" />
		<tag k="natural" v="cliff" />
		<tag k="ssr:date" v="2016-05-10" />
		<tag k="ssr:gruppe" v="terrengdetaljer" />
		<tag k="ssr:hovedgruppe" v="terreng" />
		<tag k="ssr:stedsnr" v="414775" />
		<tag k="ssr:type" v="stup" />
	</node>
	<node lat="66.49693611191616" lon="12.140838895524809" id="-17855">
		<tag k="name" v="Slønga" />
		<tag k="natural" v="shoal" />
		<tag k="place" v="locality" />
		<tag k="ssr:date" v="2021-06-08" />
		<tag k="ssr:gruppe" v="grunnerISjø" />
		<tag k="ssr:hovedgruppe" v="sjø" />
		<tag k="ssr:stedsnr" v="440263" />
		<tag k="ssr:type" v="grunneISjø" />
	</node>
	<node lat="66.46276111077391" lon="12.013444438065825" id="-17856">
		<tag k="name" v="Hunden" />
		<tag k="natural" v="shoal" />
		<tag k="place" v="locality" />
		<tag k="ssr:date" v="2021-06-08" />
		<tag k="ssr:gruppe" v="grunnerISjø" />
		<tag k="ssr:hovedgruppe" v="sjø" />
		<tag k="ssr:stedsnr" v="440269" />
		<tag k="ssr:type" v="grunneISjø" />
	</node>
	<node lat="66.622966667572" lon="12.191924996745042" id="-17857">
		<tag k="name" v="Stormåøya" />
		<tag k="place" v="islet" />
		<tag k="ssr:date" v="2021-06-08" />
		<tag k="ssr:gruppe" v="kystkontur" />
		<tag k="ssr:hovedgruppe" v="sjø" />
		<tag k="ssr:stedsnr" v="440619" />
		<tag k="ssr:type" v="holmeISjø" />
	</node>
	<node lat="66.62744722614377" lon="12.1944944473353" id="-17858">
		<tag k="name" v="Litlmåøya" />
		<tag k="place" v="islet" />
		<tag k="ssr:date" v="2021-06-08" />
		<tag k="ssr:gruppe" v="kystkontur" />
		<tag k="ssr:hovedgruppe" v="sjø" />
		<tag k="ssr:stedsnr" v="440621" />
		<tag k="ssr:type" v="holmeISjø" />
	</node>
	<node lat="66.5232861132834" lon="12.126047212951754" id="-17859">
		<tag k="name" v="Lyngøya" />
		<tag k="place" v="islet" />
		<tag k="ssr:date" v="2021-06-08" />
		<tag k="ssr:gruppe" v="kystkontur" />
		<tag k="ssr:hovedgruppe" v="sjø" />
		<tag k="ssr:stedsnr" v="441679" />
		<tag k="ssr:type" v="holmeISjø" />
	</node>
	<node lat="66.66281944388398" lon="12.264127767072445" id="-17860">
		<tag k="name" v="Jo Tomsa-skallen" />
		<tag k="natural" v="shoal" />
		<tag k="place" v="locality" />
		<tag k="ssr:date" v="2021-06-08" />
		<tag k="ssr:gruppe" v="grunnerISjø" />
		<tag k="ssr:hovedgruppe" v="sjø" />
		<tag k="ssr:stedsnr" v="441742" />
		<tag k="ssr:type" v="grunneISjø" />
	</node>
	<node lat="66.61896110722084" lon="12.302522218499014" id="-17861">
		<tag k="name" v="Bårdskjerhovudet" />
		<tag k="natural" v="shoal" />
		<tag k="place" v="locality" />
		<tag k="ssr:date" v="2021-06-08" />
		<tag k="ssr:gruppe" v="grunnerISjø" />
		<tag k="ssr:hovedgruppe" v="sjø" />
		<tag k="ssr:stedsnr" v="441745" />
		<tag k="ssr:type" v="grunneISjø" />
	</node>
	<node lat="66.6169333348693" lon="12.256972224101606" id="-17862">
		<tag k="fixme" v="consider seamark:type=rock or natural=shoal" />
		<tag k="name" v="Innerleiskjæret" />
		<tag k="place" v="islet" />
		<tag k="ssr:date" v="2021-06-08" />
		<tag k="ssr:gruppe" v="grunnerISjø" />
		<tag k="ssr:hovedgruppe" v="sjø" />
		<tag k="ssr:stedsnr" v="441752" />
		<tag k="ssr:type" v="skjærISjø" />
	</node>
	<node lat="66.48189999834517" lon="11.982983335811658" id="-17863">
		<tag k="name" v="Oterholmen" />
		<tag k="place" v="islet" />
		<tag k="ssr:date" v="2021-06-08" />
		<tag k="ssr:gruppe" v="kystkontur" />
		<tag k="ssr:hovedgruppe" v="sjø" />
		<tag k="ssr:stedsnr" v="500258" />
		<tag k="ssr:type" v="holmeISjø" />
	</node>
	<node lat="66.4811305556725" lon="11.93938888600111" id="-17864">
		<tag k="fixme" v="consider seamark:type=rock or natural=shoal" />
		<tag k="name" v="Leiskjæret" />
		<tag k="place" v="islet" />
		<tag k="ssr:date" v="2021-06-08" />
		<tag k="ssr:gruppe" v="grunnerISjø" />
		<tag k="ssr:hovedgruppe" v="sjø" />
		<tag k="ssr:stedsnr" v="500260" />
		<tag k="ssr:type" v="skjærISjø" />
	</node>
	<node lat="66.47864722587312" lon="11.93801945157191" id="-17865">
		<tag k="name" v="Båvarden" />
		<tag k="place" v="islet" />
		<tag k="ssr:date" v="2021-06-08" />
		<tag k="ssr:gruppe" v="kystkontur" />
		<tag k="ssr:hovedgruppe" v="sjø" />
		<tag k="ssr:stedsnr" v="500269" />
		<tag k="ssr:type" v="holmeISjø" />
	</node>
	<node lat="66.49021111075957" lon="12.07578610006188" id="-17866">
		<tag k="name" v="Hikelen" />
		<tag k="place" v="island" />
		<tag k="ssr:date" v="2021-06-08" />
		<tag k="ssr:gruppe" v="kystkontur" />
		<tag k="ssr:hovedgruppe" v="sjø" />
		<tag k="ssr:stedsnr" v="500270" />
		<tag k="ssr:type" v="øyISjø" />
	</node>
	<node lat="66.4933305596831" lon="12.291416664425558" id="-17867">
		<tag k="name" v="Okstindryggen" />
		<tag k="natural" v="shoal" />
		<tag k="place" v="locality" />
		<tag k="ssr:date" v="2021-06-08" />
		<tag k="ssr:gruppe" v="grunnerISjø" />
		<tag k="ssr:hovedgruppe" v="sjø" />
		<tag k="ssr:stedsnr" v="500230" />
		<tag k="ssr:type" v="grunneISjø" />
	</node>
	<node lat="66.5057361079868" lon="12.306225001572727" id="-17868">
		<tag k="name" v="Langtaren" />
		<tag k="natural" v="shoal" />
		<tag k="place" v="locality" />
		<tag k="ssr:date" v="2021-06-08" />
		<tag k="ssr:gruppe" v="grunnerISjø" />
		<tag k="ssr:hovedgruppe" v="sjø" />
		<tag k="ssr:stedsnr" v="501800" />
		<tag k="ssr:type" v="grunneISjø" />
	</node>
	<node lat="66.54409166289261" lon="12.304244441649919" id="-17869">
		<tag k="bay" v="fjord" />
		<tag k="name" v="Kvernleia" />
		<tag k="natural" v="bay" />
		<tag k="ssr:date" v="2021-06-08" />
		<tag k="ssr:gruppe" v="farvann" />
		<tag k="ssr:hovedgruppe" v="sjø" />
		<tag k="ssr:stedsnr" v="502849" />
		<tag k="ssr:type" v="fjord" />
	</node>
	<node lat="66.5353361119255" lon="12.225113881440661" id="-17871">
		<tag k="fixme" v="consider seamark:type=rock or natural=shoal" />
		<tag k="name" v="Kjørsøyskjæret" />
		<tag k="place" v="islet" />
		<tag k="ssr:date" v="2021-06-08" />
		<tag k="ssr:gruppe" v="grunnerISjø" />
		<tag k="ssr:hovedgruppe" v="sjø" />
		<tag k="ssr:stedsnr" v="517343" />
		<tag k="ssr:type" v="skjærISjø" />
	</node>
	<node lat="66.5042055577938" lon="12.13731667615693" id="-17872">
		<tag k="name" v="Bergeholmen" />
		<tag k="place" v="islet" />
		<tag k="ssr:date" v="2021-06-08" />
		<tag k="ssr:gruppe" v="kystkontur" />
		<tag k="ssr:hovedgruppe" v="sjø" />
		<tag k="ssr:stedsnr" v="517872" />
		<tag k="ssr:type" v="holmeISjø" />
	</node>
	<node lat="66.59878610941016" lon="12.076288884930312" id="-17873">
		<tag k="name" v="Seiholman" />
		<tag k="place" v="islet" />
		<tag k="ssr:date" v="2021-06-08" />
		<tag k="ssr:gruppe" v="kystkontur" />
		<tag k="ssr:hovedgruppe" v="sjø" />
		<tag k="ssr:stedsnr" v="530330" />
		<tag k="ssr:type" v="holmeISjø" />
	</node>
	<node lat="66.47722777962207" lon="12.001327779953883" id="-17874">
		<tag k="name" v="Litlselsholmen" />
		<tag k="place" v="islet" />
		<tag k="ssr:date" v="2021-06-08" />
		<tag k="ssr:gruppe" v="kystkontur" />
		<tag k="ssr:hovedgruppe" v="sjø" />
		<tag k="ssr:stedsnr" v="530547" />
		<tag k="ssr:type" v="holmeISjø" />
	</node>
	<node lat="66.5936111117862" lon="12.232261101665385" id="-17875">
		<tag k="name" v="Yttereinholmen" />
		<tag k="place" v="islet" />
		<tag k="ssr:date" v="2016-05-10" />
		<tag k="ssr:gruppe" v="kystkontur" />
		<tag k="ssr:hovedgruppe" v="sjø" />
		<tag k="ssr:stedsnr" v="534781" />
		<tag k="ssr:type" v="holmeISjø" />
	</node>
	<node lat="66.59164166833303" lon="12.220072215846045" id="-17876">
		<tag k="fixme" v="consider seamark:type=rock or natural=shoal" />
		<tag k="name" v="Galtmonskjæret" />
		<tag k="place" v="islet" />
		<tag k="ssr:date" v="2016-05-10" />
		<tag k="ssr:gruppe" v="grunnerISjø" />
		<tag k="ssr:hovedgruppe" v="sjø" />
		<tag k="ssr:stedsnr" v="534785" />
		<tag k="ssr:type" v="skjærISjø" />
	</node>
	<node lat="66.58567777940083" lon="12.227630547093232" id="-17877">
		<tag k="name" v="Stangen" />
		<tag k="place" v="hamlet" />
		<tag k="ssr:date" v="2016-05-10" />
		<tag k="ssr:gruppe" v="bebyggelsesområder" />
		<tag k="ssr:hovedgruppe" v="bebyggelse" />
		<tag k="ssr:stedsnr" v="534789" />
		<tag k="ssr:type" v="grend" />
	</node>
	<node lat="66.50198055961795" lon="12.094538889670272" id="-17878">
		<tag k="name" v="Kubbhågen" />
		<tag k="natural" v="hill" />
		<tag k="old_name" v="Klubbhågen" />
		<tag k="place" v="locality" />
		<tag k="ssr:date" v="2016-05-10" />
		<tag k="ssr:gruppe" v="høyder" />
		<tag k="ssr:hovedgruppe" v="terreng" />
		<tag k="ssr:stedsnr" v="535169" />
		<tag k="ssr:type" v="høyde" />
	</node>
	<node lat="66.49921111275685" lon="12.0315805591388" id="-17879">
		<tag k="name" v="Storhaugklubben" />
		<tag k="natural" v="cape" />
		<tag k="ssr:date" v="2016-05-10" />
		<tag k="ssr:gruppe" v="kystkontur" />
		<tag k="ssr:hovedgruppe" v="sjø" />
		<tag k="ssr:stedsnr" v="535174" />
		<tag k="ssr:type" v="nesISjø" />
	</node>
	<node lat="66.49540833561606" lon="12.085833339039764" id="-17880">
		<tag k="name" v="Fløttingsundet" />
		<tag k="natural" v="strait" />
		<tag k="ssr:date" v="2016-05-10" />
		<tag k="ssr:gruppe" v="kystkontur" />
		<tag k="ssr:hovedgruppe" v="sjø" />
		<tag k="ssr:stedsnr" v="535164" />
		<tag k="ssr:type" v="sundISjø" />
	</node>
	<node lat="66.55317221810587" lon="12.250802783526307" id="-17881">
		<tag k="fixme" v="consider natural=peak for the most distinct mountains in the district" />
		<tag k="name" v="Ørkjetinden" />
		<tag k="natural" v="hill" />
		<tag k="place" v="locality" />
		<tag k="ssr:date" v="2016-05-10" />
		<tag k="ssr:gruppe" v="høyder" />
		<tag k="ssr:hovedgruppe" v="terreng" />
		<tag k="ssr:stedsnr" v="535762" />
		<tag k="ssr:type" v="topp" />
	</node>
	<node lat="66.48782222292225" lon="12.022061110103873" id="-17882">
		<tag k="name" v="Spanna" />
		<tag k="place" v="islet" />
		<tag k="ssr:date" v="2021-06-08" />
		<tag k="ssr:gruppe" v="kystkontur" />
		<tag k="ssr:hovedgruppe" v="sjø" />
		<tag k="ssr:stedsnr" v="561234" />
		<tag k="ssr:type" v="holmeISjø" />
	</node>
	<node lat="66.4909416712581" lon="12.09670277150438" id="-17883">
		<tag k="name" v="Innerhakksholmen" />
		<tag k="place" v="islet" />
		<tag k="ssr:date" v="2021-06-08" />
		<tag k="ssr:gruppe" v="kystkontur" />
		<tag k="ssr:hovedgruppe" v="sjø" />
		<tag k="ssr:stedsnr" v="561251" />
		<tag k="ssr:type" v="holmeISjø" />
	</node>
	<node lat="66.43320278121205" lon="11.963736107458866" id="-17884">
		<tag k="name" v="Merra" />
		<tag k="place" v="islet" />
		<tag k="ssr:date" v="2021-06-08" />
		<tag k="ssr:gruppe" v="kystkontur" />
		<tag k="ssr:hovedgruppe" v="sjø" />
		<tag k="ssr:stedsnr" v="561190" />
		<tag k="ssr:type" v="holmeISjø" />
	</node>
	<node lat="66.49370833019871" lon="12.312861109546233" id="-17885">
		<tag k="name" v="Vesterfallet" />
		<tag k="natural" v="shoal" />
		<tag k="place" v="locality" />
		<tag k="ssr:date" v="2021-06-08" />
		<tag k="ssr:gruppe" v="grunnerISjø" />
		<tag k="ssr:hovedgruppe" v="sjø" />
		<tag k="ssr:stedsnr" v="561209" />
		<tag k="ssr:type" v="grunneISjø" />
	</node>
	<node lat="66.48570833090987" lon="12.367180547544443" id="-17886">
		<tag k="name" v="Litltaren" />
		<tag k="natural" v="shoal" />
		<tag k="place" v="locality" />
		<tag k="ssr:date" v="2021-06-08" />
		<tag k="ssr:gruppe" v="grunnerISjø" />
		<tag k="ssr:hovedgruppe" v="sjø" />
		<tag k="ssr:stedsnr" v="561221" />
		<tag k="ssr:type" v="grunneISjø" />
	</node>
	<node lat="66.45632777620096" lon="11.980041671103724" id="-17887">
		<tag k="name" v="Gjersholmen" />
		<tag k="place" v="islet" />
		<tag k="ssr:date" v="2021-06-08" />
		<tag k="ssr:gruppe" v="kystkontur" />
		<tag k="ssr:hovedgruppe" v="sjø" />
		<tag k="ssr:stedsnr" v="561257" />
		<tag k="ssr:type" v="holmeISjø" />
	</node>
	<node lat="66.62008055676168" lon="12.166311121147213" id="-17888">
		<tag k="fixme" v="consider seamark:type=rock or natural=shoal" />
		<tag k="name" v="Seiholmskjæran" />
		<tag k="place" v="islet" />
		<tag k="ssr:date" v="2021-06-08" />
		<tag k="ssr:gruppe" v="grunnerISjø" />
		<tag k="ssr:hovedgruppe" v="sjø" />
		<tag k="ssr:stedsnr" v="561644" />
		<tag k="ssr:type" v="skjærISjø" />
	</node>
	<node lat="66.58033055686042" lon="12.197005545344343" id="-17889">
		<tag k="name" v="Lamholmskjæret" />
		<tag k="place" v="islet" />
		<tag k="ssr:date" v="2016-05-10" />
		<tag k="ssr:gruppe" v="kystkontur" />
		<tag k="ssr:hovedgruppe" v="sjø" />
		<tag k="ssr:stedsnr" v="561666" />
		<tag k="ssr:type" v="holmeISjø" />
	</node>
	<node lat="66.53176389099963" lon="12.014591670990306" id="-17890">
		<tag k="alt_name" v="Kovrosholmen" />
		<tag k="name" v="Kovrosholman" />
		<tag k="place" v="islet" />
		<tag k="ssr:date" v="2016-05-10" />
		<tag k="ssr:gruppe" v="kystkontur" />
		<tag k="ssr:hovedgruppe" v="sjø" />
		<tag k="ssr:stedsnr" v="561668" />
		<tag k="ssr:type" v="holmeISjø" />
	</node>
	<node lat="66.53583610713879" lon="12.162155546517196" id="-17891">
		<tag k="alt_name" v="Litltorvvær" />
		<tag k="name" v="Litltørvær" />
		<tag k="place" v="islet" />
		<tag k="ssr:date" v="2016-05-10" />
		<tag k="ssr:gruppe" v="kystkontur" />
		<tag k="ssr:hovedgruppe" v="sjø" />
		<tag k="ssr:stedsnr" v="561676" />
		<tag k="ssr:type" v="holmeISjø" />
	</node>
	<node lat="66.52391110970358" lon="12.16078333724235" id="-17892">
		<tag k="name" v="Nordsandøya" />
		<tag k="place" v="island" />
		<tag k="ssr:date" v="2021-06-08" />
		<tag k="ssr:gruppe" v="kystkontur" />
		<tag k="ssr:hovedgruppe" v="sjø" />
		<tag k="ssr:stedsnr" v="561685" />
		<tag k="ssr:type" v="øyISjø" />
	</node>
	<node lat="66.52190833578142" lon="12.002613879164729" id="-17893">
		<tag k="name" v="Tverrbåen" />
		<tag k="natural" v="shoal" />
		<tag k="place" v="locality" />
		<tag k="ssr:date" v="2021-06-08" />
		<tag k="ssr:gruppe" v="grunnerISjø" />
		<tag k="ssr:hovedgruppe" v="sjø" />
		<tag k="ssr:stedsnr" v="561698" />
		<tag k="ssr:type" v="grunneISjø" />
	</node>
	<node lat="66.52805277578477" lon="12.109272227907026" id="-17894">
		<tag k="fixme" v="consider seamark:type=rock or natural=shoal" />
		<tag k="name" v="Eskjæret" />
		<tag k="place" v="islet" />
		<tag k="ssr:date" v="2021-06-08" />
		<tag k="ssr:gruppe" v="grunnerISjø" />
		<tag k="ssr:hovedgruppe" v="sjø" />
		<tag k="ssr:stedsnr" v="561701" />
		<tag k="ssr:type" v="skjærISjø" />
	</node>
	<node lat="66.50682499726726" lon="12.099036110662734" id="-17895">
		<tag k="name" v="Fløholmen" />
		<tag k="place" v="islet" />
		<tag k="ssr:date" v="2021-06-08" />
		<tag k="ssr:gruppe" v="kystkontur" />
		<tag k="ssr:hovedgruppe" v="sjø" />
		<tag k="ssr:stedsnr" v="561710" />
		<tag k="ssr:type" v="holmeISjø" />
	</node>
	<node lat="66.65916110747045" lon="12.2770916686075" id="-17896">
		<tag k="name" v="Storskarvholmen" />
		<tag k="place" v="islet" />
		<tag k="ssr:date" v="2021-06-08" />
		<tag k="ssr:gruppe" v="kystkontur" />
		<tag k="ssr:hovedgruppe" v="sjø" />
		<tag k="ssr:stedsnr" v="561739" />
		<tag k="ssr:type" v="holmeISjø" />
	</node>
	<node lat="66.50975833383957" lon="12.294824989722997" id="-17897">
		<tag k="name" v="Tverrtaren" />
		<tag k="natural" v="shoal" />
		<tag k="place" v="locality" />
		<tag k="ssr:date" v="2021-06-08" />
		<tag k="ssr:gruppe" v="grunnerISjø" />
		<tag k="ssr:hovedgruppe" v="sjø" />
		<tag k="ssr:stedsnr" v="561821" />
		<tag k="ssr:type" v="grunneISjø" />
	</node>
	<node lat="66.598552777926" lon="12.28177778667389" id="-17898">
		<tag k="fixme" v="consider seamark:type=rock or natural=shoal" />
		<tag k="name" v="Kvitingsskjæran" />
		<tag k="place" v="islet" />
		<tag k="ssr:date" v="2016-05-10" />
		<tag k="ssr:gruppe" v="grunnerISjø" />
		<tag k="ssr:hovedgruppe" v="sjø" />
		<tag k="ssr:stedsnr" v="562729" />
		<tag k="ssr:type" v="skjærISjø" />
	</node>
	<node lat="66.6514194469272" lon="12.285233324085313" id="-17899">
		<tag k="name" v="Kobbholman" />
		<tag k="place" v="islet" />
		<tag k="ssr:date" v="2021-06-08" />
		<tag k="ssr:gruppe" v="kystkontur" />
		<tag k="ssr:hovedgruppe" v="sjø" />
		<tag k="ssr:stedsnr" v="562703" />
		<tag k="ssr:type" v="holmeISjø" />
	</node>
	<node lat="66.63976111264098" lon="12.293008326040088" id="-17900">
		<tag k="name" v="Nordbursbåen" />
		<tag k="natural" v="shoal" />
		<tag k="place" v="locality" />
		<tag k="ssr:date" v="2021-06-08" />
		<tag k="ssr:gruppe" v="grunnerISjø" />
		<tag k="ssr:hovedgruppe" v="sjø" />
		<tag k="ssr:stedsnr" v="562722" />
		<tag k="ssr:type" v="grunneISjø" />
	</node>
	<node lat="66.56892500121168" lon="12.286702776863727" id="-17901">
		<tag k="fixme" v="consider seamark:type=rock or natural=shoal" />
		<tag k="name" v="Svartskjæret" />
		<tag k="place" v="islet" />
		<tag k="ssr:date" v="2021-06-08" />
		<tag k="ssr:gruppe" v="grunnerISjø" />
		<tag k="ssr:hovedgruppe" v="sjø" />
		<tag k="ssr:stedsnr" v="562810" />
		<tag k="ssr:type" v="skjærISjø" />
	</node>
	<node lat="66.53877777458017" lon="12.230341660635727" id="-17902">
		<tag k="fixme" v="multiple name tags, choose one and add the other to alt_name; consider natural=peak for the most distinct mountains in the district" />
		<tag k="name" v="Buøytinden;Dørværtinden" />
		<tag k="natural" v="hill" />
		<tag k="place" v="locality" />
		<tag k="ssr:date" v="2021-06-08" />
		<tag k="ssr:gruppe" v="høyder" />
		<tag k="ssr:hovedgruppe" v="terreng" />
		<tag k="ssr:stedsnr" v="562844" />
		<tag k="ssr:type" v="ås" />
	</node>
	<node lat="66.5976083360507" lon="12.195794443463486" id="-17903">
		<tag k="name" v="Innerongelskjærbåen" />
		<tag k="place" v="locality" />
		<tag k="seamark:type" v="rock" />
		<tag k="ssr:date" v="2021-06-08" />
		<tag k="ssr:gruppe" v="grunnerISjø" />
		<tag k="ssr:hovedgruppe" v="sjø" />
		<tag k="ssr:stedsnr" v="578331" />
		<tag k="ssr:type" v="båeISjø" />
	</node>
	<node lat="66.60154722008656" lon="12.247850009718608" id="-17904">
		<tag k="name" v="Vester-Senningskjæret" />
		<tag k="natural" v="bay" />
		<tag k="ssr:date" v="2016-05-10" />
		<tag k="ssr:gruppe" v="kystkontur" />
		<tag k="ssr:hovedgruppe" v="sjø" />
		<tag k="ssr:stedsnr" v="595738" />
		<tag k="ssr:type" v="vikISjø" />
	</node>
	<node lat="66.50315833206444" lon="12.02125834038566" id="-17905">
		<tag k="name" v="Laukvågen" />
		<tag k="natural" v="bay" />
		<tag k="ssr:date" v="2016-05-10" />
		<tag k="ssr:gruppe" v="kystkontur" />
		<tag k="ssr:hovedgruppe" v="sjø" />
		<tag k="ssr:stedsnr" v="596779" />
		<tag k="ssr:type" v="vikISjø" />
	</node>
	<node lat="66.47966111112729" lon="12.030163890440548" id="-17906">
		<tag k="fixme" v="consider seamark:type=rock or natural=shoal" />
		<tag k="name" v="Sørkvaløyskjæret" />
		<tag k="place" v="islet" />
		<tag k="ssr:date" v="2021-06-08" />
		<tag k="ssr:gruppe" v="grunnerISjø" />
		<tag k="ssr:hovedgruppe" v="sjø" />
		<tag k="ssr:stedsnr" v="621244" />
		<tag k="ssr:type" v="skjærISjø" />
	</node>
	<node lat="66.46888055621812" lon="12.04006666298613" id="-17907">
		<tag k="name" v="Olsdrettan" />
		<tag k="place" v="islet" />
		<tag k="ssr:date" v="2021-06-08" />
		<tag k="ssr:gruppe" v="kystkontur" />
		<tag k="ssr:hovedgruppe" v="sjø" />
		<tag k="ssr:stedsnr" v="621252" />
		<tag k="ssr:type" v="holmeISjø" />
	</node>
	<node lat="66.59246388693234" lon="12.033661119182556" id="-17908">
		<tag k="name" v="Froholman" />
		<tag k="place" v="islet" />
		<tag k="ssr:date" v="2021-06-08" />
		<tag k="ssr:gruppe" v="kystkontur" />
		<tag k="ssr:hovedgruppe" v="sjø" />
		<tag k="ssr:stedsnr" v="622617" />
		<tag k="ssr:type" v="holmeISjø" />
	</node>
	<node lat="66.56071110783246" lon="12.014338882843106" id="-17910">
		<tag k="name" v="Per Jensa-skallen" />
		<tag k="natural" v="shoal" />
		<tag k="place" v="locality" />
		<tag k="ssr:date" v="2021-06-08" />
		<tag k="ssr:gruppe" v="grunnerISjø" />
		<tag k="ssr:hovedgruppe" v="sjø" />
		<tag k="ssr:stedsnr" v="622636" />
		<tag k="ssr:type" v="grunneISjø" />
	</node>
	<node lat="66.58200833517697" lon="12.186997223527728" id="-17911">
		<tag k="name" v="Omundsholmen" />
		<tag k="place" v="islet" />
		<tag k="ssr:date" v="2021-06-08" />
		<tag k="ssr:gruppe" v="kystkontur" />
		<tag k="ssr:hovedgruppe" v="sjø" />
		<tag k="ssr:stedsnr" v="622648" />
		<tag k="ssr:type" v="holmeISjø" />
	</node>
	<node lat="66.57739444604866" lon="12.054136111276106" id="-17912">
		<tag k="name" v="Måsflesa" />
		<tag k="place" v="islet" />
		<tag k="ssr:date" v="2021-06-08" />
		<tag k="ssr:gruppe" v="kystkontur" />
		<tag k="ssr:hovedgruppe" v="sjø" />
		<tag k="ssr:stedsnr" v="622651" />
		<tag k="ssr:type" v="holmeISjø" />
	</node>
	<node lat="66.53454166883304" lon="12.027836121679389" id="-17913">
		<tag k="fixme" v="consider seamark:type=rock or natural=shoal" />
		<tag k="name" v="Kvalhausen" />
		<tag k="place" v="islet" />
		<tag k="ssr:date" v="2021-06-08" />
		<tag k="ssr:gruppe" v="grunnerISjø" />
		<tag k="ssr:hovedgruppe" v="sjø" />
		<tag k="ssr:stedsnr" v="622657" />
		<tag k="ssr:type" v="skjærISjø" />
	</node>
	<node lat="66.58083332975171" lon="12.307713884079847" id="-17914">
		<tag k="name" v="Skallen" />
		<tag k="natural" v="shoal" />
		<tag k="place" v="locality" />
		<tag k="ssr:date" v="2021-06-08" />
		<tag k="ssr:gruppe" v="grunnerISjø" />
		<tag k="ssr:hovedgruppe" v="sjø" />
		<tag k="ssr:stedsnr" v="622780" />
		<tag k="ssr:type" v="grunneISjø" />
	</node>
	<node lat="66.52822500038582" lon="12.224113895730813" id="-17915">
		<tag k="name" v="Skarvbåen" />
		<tag k="natural" v="shoal" />
		<tag k="place" v="locality" />
		<tag k="ssr:date" v="2021-06-08" />
		<tag k="ssr:gruppe" v="grunnerISjø" />
		<tag k="ssr:hovedgruppe" v="sjø" />
		<tag k="ssr:stedsnr" v="622795" />
		<tag k="ssr:type" v="grunneISjø" />
	</node>
	<node lat="66.5389638899646" lon="12.249819439993951" id="-17916">
		<tag k="name" v="Dørværøya" />
		<tag k="place" v="island" />
		<tag k="ssr:date" v="2021-06-08" />
		<tag k="ssr:gruppe" v="kystkontur" />
		<tag k="ssr:hovedgruppe" v="sjø" />
		<tag k="ssr:stedsnr" v="622800" />
		<tag k="ssr:type" v="øyISjø" />
	</node>
	<node lat="66.5904944429338" lon="12.246352766550098" id="-17917">
		<tag k="name" v="Selvær" />
		<tag k="place" v="island" />
		<tag k="ssr:date" v="2021-06-08" />
		<tag k="ssr:gruppe" v="kystkontur" />
		<tag k="ssr:hovedgruppe" v="sjø" />
		<tag k="ssr:stedsnr" v="622748" />
		<tag k="ssr:type" v="øygruppeISjø" />
	</node>
	<node lat="66.54543888496141" lon="12.228891670285725" id="-17918">
		<tag k="name" v="Brattholmen" />
		<tag k="place" v="islet" />
		<tag k="ssr:date" v="2016-05-10" />
		<tag k="ssr:gruppe" v="kystkontur" />
		<tag k="ssr:hovedgruppe" v="sjø" />
		<tag k="ssr:stedsnr" v="623851" />
		<tag k="ssr:type" v="holmeISjø" />
	</node>
	<node lat="66.44507777723918" lon="12.027091676114242" id="-17919">
		<tag k="name" v="Brørne" />
		<tag k="natural" v="shoal" />
		<tag k="place" v="locality" />
		<tag k="ssr:date" v="2021-06-08" />
		<tag k="ssr:gruppe" v="grunnerISjø" />
		<tag k="ssr:hovedgruppe" v="sjø" />
		<tag k="ssr:stedsnr" v="637970" />
		<tag k="ssr:type" v="grunneISjø" />
	</node>
	<node lat="66.62450277570635" lon="12.183980554191013" id="-17920">
		<tag k="name" v="Måøyknausen" />
		<tag k="place" v="islet" />
		<tag k="ssr:date" v="2021-06-08" />
		<tag k="ssr:gruppe" v="kystkontur" />
		<tag k="ssr:hovedgruppe" v="sjø" />
		<tag k="ssr:stedsnr" v="638921" />
		<tag k="ssr:type" v="holmeISjø" />
	</node>
	<node lat="66.53041666897894" lon="12.018863898715068" id="-17921">
		<tag k="name" v="Ovnholmen" />
		<tag k="place" v="islet" />
		<tag k="ssr:date" v="2016-05-10" />
		<tag k="ssr:gruppe" v="kystkontur" />
		<tag k="ssr:hovedgruppe" v="sjø" />
		<tag k="ssr:stedsnr" v="656817" />
		<tag k="ssr:type" v="holmeISjø" />
	</node>
	<node lat="66.61410833083889" lon="12.207766664127714" id="-17922">
		<tag k="fixme" v="consider seamark:type=rock or natural=shoal" />
		<tag k="name" v="Skrælingskjæret" />
		<tag k="place" v="islet" />
		<tag k="ssr:date" v="2016-05-10" />
		<tag k="ssr:gruppe" v="grunnerISjø" />
		<tag k="ssr:hovedgruppe" v="sjø" />
		<tag k="ssr:stedsnr" v="655740" />
		<tag k="ssr:type" v="skjærISjø" />
	</node>
	<node lat="66.57456944682914" lon="12.116425000127592" id="-17923">
		<tag k="fixme" v="consider seamark:type=rock or natural=shoal" />
		<tag k="name" v="Båsskjæret" />
		<tag k="place" v="islet" />
		<tag k="ssr:date" v="2016-05-10" />
		<tag k="ssr:gruppe" v="grunnerISjø" />
		<tag k="ssr:hovedgruppe" v="sjø" />
		<tag k="ssr:stedsnr" v="655742" />
		<tag k="ssr:type" v="skjærISjø" />
	</node>
	<node lat="66.59097500038085" lon="12.240844455751796" id="-17924">
		<tag k="name" v="Langskjæret" />
		<tag k="place" v="islet" />
		<tag k="ssr:date" v="2016-05-10" />
		<tag k="ssr:gruppe" v="kystkontur" />
		<tag k="ssr:hovedgruppe" v="sjø" />
		<tag k="ssr:stedsnr" v="655759" />
		<tag k="ssr:type" v="holmeISjø" />
	</node>
	<node lat="66.5921361124006" lon="12.226027775621912" id="-17925">
		<tag k="fixme" v="consider seamark:type=rock or natural=shoal" />
		<tag k="name" v="Galtmonskjæran" />
		<tag k="place" v="islet" />
		<tag k="ssr:date" v="2016-05-10" />
		<tag k="ssr:gruppe" v="grunnerISjø" />
		<tag k="ssr:hovedgruppe" v="sjø" />
		<tag k="ssr:stedsnr" v="655763" />
		<tag k="ssr:type" v="skjærISjø" />
	</node>
	<node lat="66.48029444700778" lon="11.992994451069112" id="-17926">
		<tag k="name" v="Seingstaget" />
		<tag k="place" v="islet" />
		<tag k="ssr:date" v="2016-05-10" />
		<tag k="ssr:gruppe" v="kystkontur" />
		<tag k="ssr:hovedgruppe" v="sjø" />
		<tag k="ssr:stedsnr" v="657150" />
		<tag k="ssr:type" v="holmeISjø" />
	</node>
	<node lat="66.49641388944868" lon="12.103355560245705" id="-17927">
		<tag k="name" v="Likholmen" />
		<tag k="place" v="islet" />
		<tag k="ssr:date" v="2016-05-10" />
		<tag k="ssr:gruppe" v="kystkontur" />
		<tag k="ssr:hovedgruppe" v="sjø" />
		<tag k="ssr:stedsnr" v="657161" />
		<tag k="ssr:type" v="holmeISjø" />
	</node>
	<node lat="66.54288333256537" lon="12.150016676171186" id="-17928">
		<tag k="name" v="Brattholmen" />
		<tag k="place" v="islet" />
		<tag k="ssr:date" v="2016-05-10" />
		<tag k="ssr:gruppe" v="kystkontur" />
		<tag k="ssr:hovedgruppe" v="sjø" />
		<tag k="ssr:stedsnr" v="657766" />
		<tag k="ssr:type" v="holmeISjø" />
	</node>
	<node lat="66.5098777772007" lon="12.055708326633859" id="-17929">
		<tag k="name" v="Nordsand" />
		<tag k="natural" v="beach" />
		<tag k="ssr:date" v="2016-05-10" />
		<tag k="ssr:gruppe" v="kystkontur" />
		<tag k="ssr:hovedgruppe" v="sjø" />
		<tag k="ssr:stedsnr" v="657774" />
		<tag k="ssr:type" v="strandISjø" />
	</node>
	<node lat="66.52581111145517" lon="12.067197221895258" id="-17931">
		<tag k="name" v="Sannaværet" />
		<tag k="place" v="island" />
		<tag k="ssr:date" v="2016-05-11" />
		<tag k="ssr:gruppe" v="kystkontur" />
		<tag k="ssr:hovedgruppe" v="sjø" />
		<tag k="ssr:stedsnr" v="717785" />
		<tag k="ssr:type" v="øygruppeISjø" />
	</node>
	<node lat="66.5103555559207" lon="12.041794446877475" id="-17932">
		<tag k="name" v="Heimer-Nøvvikja" />
		<tag k="natural" v="bay" />
		<tag k="ssr:date" v="2016-05-11" />
		<tag k="ssr:gruppe" v="kystkontur" />
		<tag k="ssr:hovedgruppe" v="sjø" />
		<tag k="ssr:stedsnr" v="717797" />
		<tag k="ssr:type" v="vikISjø" />
	</node>
	<node lat="66.50363055982329" lon="12.025213896150952" id="-17933">
		<tag k="name" v="Sørstorvika" />
		<tag k="natural" v="bay" />
		<tag k="ssr:date" v="2016-05-11" />
		<tag k="ssr:gruppe" v="kystkontur" />
		<tag k="ssr:hovedgruppe" v="sjø" />
		<tag k="ssr:stedsnr" v="717798" />
		<tag k="ssr:type" v="vikISjø" />
	</node>
	<node lat="66.5422861094315" lon="12.251091672709537" id="-17934">
		<tag k="name" v="Hammaren" />
		<tag k="natural" v="hill" />
		<tag k="place" v="locality" />
		<tag k="ssr:date" v="2016-05-11" />
		<tag k="ssr:gruppe" v="høyder" />
		<tag k="ssr:hovedgruppe" v="terreng" />
		<tag k="ssr:stedsnr" v="717801" />
		<tag k="ssr:type" v="høyde" />
	</node>
	<node lat="66.4921277762022" lon="12.004897225285271" id="-17935">
		<tag k="name" v="Skyrsholmen" />
		<tag k="place" v="islet" />
		<tag k="ssr:date" v="2021-06-08" />
		<tag k="ssr:gruppe" v="kystkontur" />
		<tag k="ssr:hovedgruppe" v="sjø" />
		<tag k="ssr:stedsnr" v="743247" />
		<tag k="ssr:type" v="holmeISjø" />
	</node>
	<node lat="66.49387222040741" lon="11.997333332651131" id="-17936">
		<tag k="alt_name" v="Flatskyrsholmen" />
		<tag k="name" v="Flatsjyrsholmen" />
		<tag k="place" v="islet" />
		<tag k="ssr:date" v="2016-05-11" />
		<tag k="ssr:gruppe" v="kystkontur" />
		<tag k="ssr:hovedgruppe" v="sjø" />
		<tag k="ssr:stedsnr" v="743249" />
		<tag k="ssr:type" v="holmeISjø" />
	</node>
	<node lat="66.48343333260021" lon="12.037241669050472" id="-17937">
		<tag k="name" v="Kvaløya" />
		<tag k="place" v="islet" />
		<tag k="ssr:date" v="2021-06-08" />
		<tag k="ssr:gruppe" v="kystkontur" />
		<tag k="ssr:hovedgruppe" v="sjø" />
		<tag k="ssr:stedsnr" v="743257" />
		<tag k="ssr:type" v="holmeISjø" />
	</node>
	<node lat="66.47217777813026" lon="12.09540277798891" id="-17939">
		<tag k="name" v="Surnøybåen" />
		<tag k="natural" v="shoal" />
		<tag k="place" v="locality" />
		<tag k="ssr:date" v="2021-06-08" />
		<tag k="ssr:gruppe" v="grunnerISjø" />
		<tag k="ssr:hovedgruppe" v="sjø" />
		<tag k="ssr:stedsnr" v="743276" />
		<tag k="ssr:type" v="grunneISjø" />
	</node>
	<node lat="66.62808610990288" lon="12.204125002324847" id="-17940">
		<tag k="name" v="Måøysteinen" />
		<tag k="place" v="islet" />
		<tag k="ssr:date" v="2016-05-11" />
		<tag k="ssr:gruppe" v="kystkontur" />
		<tag k="ssr:hovedgruppe" v="sjø" />
		<tag k="ssr:stedsnr" v="743648" />
		<tag k="ssr:type" v="holmeISjø" />
	</node>
	<node lat="66.56913610769958" lon="12.131022218610175" id="-17941">
		<tag k="name" v="Ytterrossøya" />
		<tag k="place" v="islet" />
		<tag k="ssr:date" v="2021-06-08" />
		<tag k="ssr:gruppe" v="kystkontur" />
		<tag k="ssr:hovedgruppe" v="sjø" />
		<tag k="ssr:stedsnr" v="744615" />
		<tag k="ssr:type" v="holmeISjø" />
	</node>
	<node lat="66.57122500102085" lon="12.038599995796165" id="-17942">
		<tag k="name" v="Måsflesskallan" />
		<tag k="natural" v="shoal" />
		<tag k="place" v="locality" />
		<tag k="ssr:date" v="2021-06-08" />
		<tag k="ssr:gruppe" v="grunnerISjø" />
		<tag k="ssr:hovedgruppe" v="sjø" />
		<tag k="ssr:stedsnr" v="744618" />
		<tag k="ssr:type" v="grunneISjø" />
	</node>
	<node lat="66.58446667031667" lon="12.23282778604277" id="-17943">
		<tag k="name" v="Fjæraholmen" />
		<tag k="natural" v="cape" />
		<tag k="ssr:date" v="2016-05-11" />
		<tag k="ssr:gruppe" v="kystkontur" />
		<tag k="ssr:hovedgruppe" v="sjø" />
		<tag k="ssr:stedsnr" v="777760" />
		<tag k="ssr:type" v="halvøyISjø" />
	</node>
	<node lat="66.60080277921483" lon="12.201272214143458" id="-17944">
		<tag k="fixme" v="consider seamark:type=rock or natural=shoal" />
		<tag k="name" v="Reinsøyskjæran" />
		<tag k="place" v="islet" />
		<tag k="ssr:date" v="2016-05-11" />
		<tag k="ssr:gruppe" v="grunnerISjø" />
		<tag k="ssr:hovedgruppe" v="sjø" />
		<tag k="ssr:stedsnr" v="777745" />
		<tag k="ssr:type" v="skjærISjø" />
	</node>
	<node lat="66.48857777614477" lon="12.067886103550949" id="-17945">
		<tag k="name" v="Storneset" />
		<tag k="natural" v="cape" />
		<tag k="ssr:date" v="2016-05-11" />
		<tag k="ssr:gruppe" v="kystkontur" />
		<tag k="ssr:hovedgruppe" v="sjø" />
		<tag k="ssr:stedsnr" v="778180" />
		<tag k="ssr:type" v="nesISjø" />
	</node>
	<node lat="66.5056638928327" lon="12.090688882421738" id="-17946">
		<tag k="name" v="Nordhusøy" />
		<tag k="place" v="locality" />
		<tag k="ssr:date" v="2016-05-11" />
		<tag k="ssr:gruppe" v="dyrkamark" />
		<tag k="ssr:hovedgruppe" v="markslag" />
		<tag k="ssr:stedsnr" v="778135" />
		<tag k="ssr:type" v="utmark" />
	</node>
	<node lat="66.54139166663128" lon="12.156022213501837" id="-17947">
		<tag k="name" v="Langskjæret" />
		<tag k="place" v="islet" />
		<tag k="ssr:date" v="2016-05-11" />
		<tag k="ssr:gruppe" v="kystkontur" />
		<tag k="ssr:hovedgruppe" v="sjø" />
		<tag k="ssr:stedsnr" v="778764" />
		<tag k="ssr:type" v="holmeISjø" />
	</node>
	<node lat="66.50289722224967" lon="12.017563884861096" id="-17948">
		<tag k="name" v="Sauhågen" />
		<tag k="natural" v="ridge" />
		<tag k="place" v="locality" />
		<tag k="ssr:date" v="2016-05-11" />
		<tag k="ssr:gruppe" v="høyder" />
		<tag k="ssr:hovedgruppe" v="terreng" />
		<tag k="ssr:stedsnr" v="778780" />
		<tag k="ssr:type" v="rygg" />
	</node>
	<node lat="66.5036555525836" lon="12.015886106214044" id="-17949">
		<tag k="name" v="Trongvika" />
		<tag k="natural" v="bay" />
		<tag k="ssr:date" v="2016-05-11" />
		<tag k="ssr:gruppe" v="kystkontur" />
		<tag k="ssr:hovedgruppe" v="sjø" />
		<tag k="ssr:stedsnr" v="778783" />
		<tag k="ssr:type" v="vikISjø" />
	</node>
	<node lat="66.6354027774998" lon="12.27991944598755" id="-17950">
		<tag k="fixme" v="consider seamark:type=rock or natural=shoal" />
		<tag k="name" v="Buran" />
		<tag k="place" v="islet" />
		<tag k="ssr:date" v="2021-06-08" />
		<tag k="ssr:gruppe" v="grunnerISjø" />
		<tag k="ssr:hovedgruppe" v="sjø" />
		<tag k="ssr:stedsnr" v="805731" />
		<tag k="ssr:type" v="skjærISjø" />
	</node>
	<node lat="66.62509721796803" lon="12.252519451213304" id="-17951">
		<tag k="fixme" v="consider seamark:type=rock or natural=shoal" />
		<tag k="name" v="Ytterleiskjæret" />
		<tag k="place" v="islet" />
		<tag k="ssr:date" v="2021-06-08" />
		<tag k="ssr:gruppe" v="grunnerISjø" />
		<tag k="ssr:hovedgruppe" v="sjø" />
		<tag k="ssr:stedsnr" v="805727" />
		<tag k="ssr:type" v="skjærISjø" />
	</node>
	<node lat="66.4948666669311" lon="12.121950001217826" id="-17952">
		<tag k="fixme" v="consider seamark:type=rock or natural=shoal" />
		<tag k="name" v="Langskjæret" />
		<tag k="place" v="islet" />
		<tag k="ssr:date" v="2021-06-08" />
		<tag k="ssr:gruppe" v="grunnerISjø" />
		<tag k="ssr:hovedgruppe" v="sjø" />
		<tag k="ssr:stedsnr" v="804267" />
		<tag k="ssr:type" v="skjærISjø" />
	</node>
	<node lat="66.43977499734548" lon="11.989533339874502" id="-17953">
		<tag k="name" v="Brakvad" />
		<tag k="place" v="islet" />
		<tag k="ssr:date" v="2021-06-08" />
		<tag k="ssr:gruppe" v="kystkontur" />
		<tag k="ssr:hovedgruppe" v="sjø" />
		<tag k="ssr:stedsnr" v="804231" />
		<tag k="ssr:type" v="holmeISjø" />
	</node>
	<node lat="66.41835277665312" lon="12.133502768420238" id="-17954">
		<tag k="bay" v="fjord" />
		<tag k="name" v="Trænfjorden" />
		<tag k="natural" v="bay" />
		<tag k="ssr:date" v="2016-05-11" />
		<tag k="ssr:gruppe" v="farvann" />
		<tag k="ssr:hovedgruppe" v="sjø" />
		<tag k="ssr:stedsnr" v="804238" />
		<tag k="ssr:type" v="fjord" />
	</node>
	<node lat="66.6399555518545" lon="12.208574995800728" id="-17956">
		<tag k="fixme" v="consider seamark:type=rock or natural=shoal" />
		<tag k="name" v="Trælskjæret" />
		<tag k="place" v="islet" />
		<tag k="ssr:date" v="2021-06-08" />
		<tag k="ssr:gruppe" v="grunnerISjø" />
		<tag k="ssr:hovedgruppe" v="sjø" />
		<tag k="ssr:stedsnr" v="804643" />
		<tag k="ssr:type" v="skjærISjø" />
	</node>
	<node lat="66.66781388660145" lon="12.211688884489918" id="-17957">
		<tag k="fixme" v="consider seamark:type=rock or natural=shoal" />
		<tag k="name" v="Storhongskjæret" />
		<tag k="place" v="islet" />
		<tag k="ssr:date" v="2021-06-08" />
		<tag k="ssr:gruppe" v="grunnerISjø" />
		<tag k="ssr:hovedgruppe" v="sjø" />
		<tag k="ssr:stedsnr" v="804647" />
		<tag k="ssr:type" v="skjærISjø" />
	</node>
	<node lat="66.54241944746069" lon="12.21029165746249" id="-17958">
		<tag k="name" v="Vågsholmtaren" />
		<tag k="natural" v="shoal" />
		<tag k="place" v="locality" />
		<tag k="ssr:date" v="2021-06-08" />
		<tag k="ssr:gruppe" v="grunnerISjø" />
		<tag k="ssr:hovedgruppe" v="sjø" />
		<tag k="ssr:stedsnr" v="805657" />
		<tag k="ssr:type" v="grunneISjø" />
	</node>
	<node lat="66.52195277823006" lon="12.142438895019167" id="-17959">
		<tag k="alt_name" v="Æmorsøya;Emårsøya" />
		<tag k="name" v="Emårsøyen" />
		<tag k="place" v="islet" />
		<tag k="ssr:date" v="2016-05-11" />
		<tag k="ssr:gruppe" v="kystkontur" />
		<tag k="ssr:hovedgruppe" v="sjø" />
		<tag k="ssr:stedsnr" v="805658" />
		<tag k="ssr:type" v="holmeISjø" />
	</node>
	<node lat="66.50958333005018" lon="12.037866672951337" id="-17960">
		<tag k="fixme" v="consider natural=peak for the most distinct mountains in the district" />
		<tag k="name" v="Nova" />
		<tag k="natural" v="hill" />
		<tag k="place" v="locality" />
		<tag k="ssr:date" v="2021-06-08" />
		<tag k="ssr:gruppe" v="høyder" />
		<tag k="ssr:hovedgruppe" v="terreng" />
		<tag k="ssr:stedsnr" v="805661" />
		<tag k="ssr:type" v="ås" />
	</node>
	<node lat="66.51764999829304" lon="12.03073332554438" id="-17961">
		<tag k="name" v="Stavfjellbåen" />
		<tag k="natural" v="shoal" />
		<tag k="place" v="locality" />
		<tag k="ssr:date" v="2021-06-08" />
		<tag k="ssr:gruppe" v="grunnerISjø" />
		<tag k="ssr:hovedgruppe" v="sjø" />
		<tag k="ssr:stedsnr" v="805671" />
		<tag k="ssr:type" v="grunneISjø" />
	</node>
	<node lat="66.50230278023346" lon="12.050308343909693" id="-17962">
		<tag k="fixme" v="consider natural=peak for the most distinct mountains in the district" />
		<tag k="name" v="Kjølen" />
		<tag k="natural" v="hill" />
		<tag k="place" v="locality" />
		<tag k="ssr:date" v="2021-06-08" />
		<tag k="ssr:gruppe" v="høyder" />
		<tag k="ssr:hovedgruppe" v="terreng" />
		<tag k="ssr:stedsnr" v="805693" />
		<tag k="ssr:type" v="ås" />
	</node>
	<node lat="66.58772500160913" lon="12.241127774715952" id="-17963">
		<tag k="name" v="Selvær" />
		<tag k="place" v="hamlet" />
		<tag k="ssr:date" v="2021-06-08" />
		<tag k="ssr:gruppe" v="bebyggelsesområder" />
		<tag k="ssr:hovedgruppe" v="bebyggelse" />
		<tag k="ssr:stedsnr" v="805742" />
		<tag k="ssr:type" v="grend" />
	</node>
	<node lat="66.56249999965179" lon="12.281519441832089" id="-17964">
		<tag k="name" v="Grasholmen" />
		<tag k="place" v="islet" />
		<tag k="ssr:date" v="2021-06-08" />
		<tag k="ssr:gruppe" v="kystkontur" />
		<tag k="ssr:hovedgruppe" v="sjø" />
		<tag k="ssr:stedsnr" v="805770" />
		<tag k="ssr:type" v="holmeISjø" />
	</node>
	<node lat="66.54807778106394" lon="12.229644436658978" id="-17965">
		<tag k="name" v="Hellholmen" />
		<tag k="place" v="islet" />
		<tag k="ssr:date" v="2021-06-08" />
		<tag k="ssr:gruppe" v="kystkontur" />
		<tag k="ssr:hovedgruppe" v="sjø" />
		<tag k="ssr:stedsnr" v="805787" />
		<tag k="ssr:type" v="holmeISjø" />
	</node>
	<node lat="66.57971944433278" lon="12.224283344370699" id="-17966">
		<tag k="name" v="Buøya" />
		<tag k="place" v="islet" />
		<tag k="ssr:date" v="2021-06-08" />
		<tag k="ssr:gruppe" v="kystkontur" />
		<tag k="ssr:hovedgruppe" v="sjø" />
		<tag k="ssr:stedsnr" v="805791" />
		<tag k="ssr:type" v="holmeISjø" />
	</node>
	<node lat="66.58251389327037" lon="12.23057776822755" id="-17967">
		<tag k="name" v="Olderøya" />
		<tag k="place" v="islet" />
		<tag k="ssr:date" v="2016-05-11" />
		<tag k="ssr:gruppe" v="kystkontur" />
		<tag k="ssr:hovedgruppe" v="sjø" />
		<tag k="ssr:stedsnr" v="805792" />
		<tag k="ssr:type" v="holmeISjø" />
	</node>
	<node lat="66.4911694475215" lon="12.089211101944626" id="-17968">
		<tag k="name" v="Ytterhakksholmen" />
		<tag k="place" v="islet" />
		<tag k="ssr:date" v="2021-06-08" />
		<tag k="ssr:gruppe" v="kystkontur" />
		<tag k="ssr:hovedgruppe" v="sjø" />
		<tag k="ssr:stedsnr" v="820854" />
		<tag k="ssr:type" v="holmeISjø" />
	</node>
	<node lat="66.59764166505298" lon="12.220855562041088" id="-17969">
		<tag k="fixme" v="consider seamark:type=rock or natural=shoal" />
		<tag k="name" v="Indremerra" />
		<tag k="place" v="islet" />
		<tag k="ssr:date" v="2016-05-11" />
		<tag k="ssr:gruppe" v="grunnerISjø" />
		<tag k="ssr:hovedgruppe" v="sjø" />
		<tag k="ssr:stedsnr" v="821343" />
		<tag k="ssr:type" v="skjærISjø" />
	</node>
	<node lat="66.59221666943256" lon="12.210200009720587" id="-17970">
		<tag k="name" v="Kobbholmen" />
		<tag k="place" v="islet" />
		<tag k="ssr:date" v="2021-06-08" />
		<tag k="ssr:gruppe" v="kystkontur" />
		<tag k="ssr:hovedgruppe" v="sjø" />
		<tag k="ssr:stedsnr" v="821363" />
		<tag k="ssr:type" v="holmeISjø" />
	</node>
	<node lat="66.49670555196192" lon="12.03480277642795" id="-17971">
		<tag k="name" v="Ildvikja" />
		<tag k="natural" v="bay" />
		<tag k="ssr:date" v="2016-05-11" />
		<tag k="ssr:gruppe" v="kystkontur" />
		<tag k="ssr:hovedgruppe" v="sjø" />
		<tag k="ssr:stedsnr" v="839173" />
		<tag k="ssr:type" v="vikISjø" />
	</node>
	<node lat="66.50392222387234" lon="12.013111104639812" id="-17972">
		<tag k="name" v="Skarvberget" />
		<tag k="natural" v="ridge" />
		<tag k="place" v="locality" />
		<tag k="ssr:date" v="2016-05-11" />
		<tag k="ssr:gruppe" v="høyder" />
		<tag k="ssr:hovedgruppe" v="terreng" />
		<tag k="ssr:stedsnr" v="839174" />
		<tag k="ssr:type" v="rygg" />
	</node>
	<node lat="66.50711110862589" lon="12.037408331275723" id="-17973">
		<tag k="fixme" v="consider natural=peak for the most distinct mountains in the district" />
		<tag k="name" v="Øksendalshågen" />
		<tag k="natural" v="hill" />
		<tag k="place" v="locality" />
		<tag k="ssr:date" v="2016-05-11" />
		<tag k="ssr:gruppe" v="høyder" />
		<tag k="ssr:hovedgruppe" v="terreng" />
		<tag k="ssr:stedsnr" v="839782" />
		<tag k="ssr:type" v="ås" />
	</node>
	<node lat="66.50748889005605" lon="12.055144450443068" id="-17974">
		<tag k="name" v="Heimersand" />
		<tag k="natural" v="beach" />
		<tag k="ssr:date" v="2016-05-11" />
		<tag k="ssr:gruppe" v="kystkontur" />
		<tag k="ssr:hovedgruppe" v="sjø" />
		<tag k="ssr:stedsnr" v="839783" />
		<tag k="ssr:type" v="strandISjø" />
	</node>
	<node lat="66.49072777574852" lon="12.3354027830782" id="-17975">
		<tag k="fixme" v="consider seamark:type=rock or natural=shoal" />
		<tag k="name" v="Mellomskjæret" />
		<tag k="place" v="islet" />
		<tag k="ssr:date" v="2021-06-08" />
		<tag k="ssr:gruppe" v="grunnerISjø" />
		<tag k="ssr:hovedgruppe" v="sjø" />
		<tag k="ssr:stedsnr" v="865249" />
		<tag k="ssr:type" v="skjærISjø" />
	</node>
	<node lat="66.50565000086878" lon="12.04693055890885" id="-17976">
		<tag k="name" v="Sanna" />
		<tag k="place" v="island" />
		<tag k="ssr:date" v="2021-06-08" />
		<tag k="ssr:gruppe" v="kystkontur" />
		<tag k="ssr:hovedgruppe" v="sjø" />
		<tag k="ssr:stedsnr" v="865254" />
		<tag k="ssr:type" v="øyISjø" />
	</node>
	<node lat="66.50256943992581" lon="11.98059167356011" id="-17977">
		<tag k="name" v="Svartskjærkåsa" />
		<tag k="natural" v="bay" />
		<tag k="ssr:date" v="2021-06-08" />
		<tag k="ssr:gruppe" v="farvann" />
		<tag k="ssr:hovedgruppe" v="sjø" />
		<tag k="ssr:stedsnr" v="865261" />
		<tag k="ssr:type" v="sjøstykke" />
	</node>
	<node lat="66.4810805556672" lon="12.046522216669691" id="-17978">
		<tag k="name" v="Hiøya" />
		<tag k="place" v="islet" />
		<tag k="ssr:date" v="2021-06-08" />
		<tag k="ssr:gruppe" v="kystkontur" />
		<tag k="ssr:hovedgruppe" v="sjø" />
		<tag k="ssr:stedsnr" v="865265" />
		<tag k="ssr:type" v="holmeISjø" />
	</node>
	<node lat="66.48989444493348" lon="12.015405566701235" id="-17979">
		<tag k="fixme" v="multiple name tags, choose one and add the other to alt_name" />
		<tag k="name" v="Djupsagnskjæret;Juksongskjæret" />
		<tag k="place" v="islet" />
		<tag k="ssr:date" v="2016-05-11" />
		<tag k="ssr:gruppe" v="kystkontur" />
		<tag k="ssr:hovedgruppe" v="sjø" />
		<tag k="ssr:stedsnr" v="865269" />
		<tag k="ssr:type" v="holmeISjø" />
	</node>
	<node lat="66.4820305525155" lon="11.976244451898404" id="-17980">
		<tag k="name" v="Haugøya" />
		<tag k="place" v="islet" />
		<tag k="ssr:date" v="2021-06-08" />
		<tag k="ssr:gruppe" v="kystkontur" />
		<tag k="ssr:hovedgruppe" v="sjø" />
		<tag k="ssr:stedsnr" v="865271" />
		<tag k="ssr:type" v="holmeISjø" />
	</node>
	<node lat="66.48118610941964" lon="12.062794441299648" id="-17981">
		<tag k="name" v="Surnøykalven" />
		<tag k="place" v="islet" />
		<tag k="ssr:date" v="2016-05-11" />
		<tag k="ssr:gruppe" v="kystkontur" />
		<tag k="ssr:hovedgruppe" v="sjø" />
		<tag k="ssr:stedsnr" v="865277" />
		<tag k="ssr:type" v="holmeISjø" />
	</node>
	<node lat="66.45529999629608" lon="12.062755562425588" id="-17982">
		<tag k="name" v="Larsskallen" />
		<tag k="natural" v="shoal" />
		<tag k="place" v="locality" />
		<tag k="ssr:date" v="2021-06-08" />
		<tag k="ssr:gruppe" v="grunnerISjø" />
		<tag k="ssr:hovedgruppe" v="sjø" />
		<tag k="ssr:stedsnr" v="865226" />
		<tag k="ssr:type" v="grunneISjø" />
	</node>
	<node lat="66.6575361121343" lon="12.204355555206018" id="-17983">
		<tag k="name" v="Hårgrunnen" />
		<tag k="natural" v="shoal" />
		<tag k="place" v="locality" />
		<tag k="ssr:date" v="2016-05-11" />
		<tag k="ssr:gruppe" v="grunnerISjø" />
		<tag k="ssr:hovedgruppe" v="sjø" />
		<tag k="ssr:stedsnr" v="865640" />
		<tag k="ssr:type" v="grunneISjø" />
	</node>
	<node lat="66.61198055710477" lon="12.123280546205345" id="-17984">
		<tag k="fixme" v="consider seamark:type=rock or natural=shoal" />
		<tag k="name" v="Vesternipskjæret" />
		<tag k="place" v="islet" />
		<tag k="ssr:date" v="2021-06-08" />
		<tag k="ssr:gruppe" v="grunnerISjø" />
		<tag k="ssr:hovedgruppe" v="sjø" />
		<tag k="ssr:stedsnr" v="865661" />
		<tag k="ssr:type" v="skjærISjø" />
	</node>
	<node lat="66.55406666817917" lon="12.064172212688831" id="-17985">
		<tag k="name" v="Storkangvad" />
		<tag k="place" v="islet" />
		<tag k="ssr:date" v="2021-06-08" />
		<tag k="ssr:gruppe" v="kystkontur" />
		<tag k="ssr:hovedgruppe" v="sjø" />
		<tag k="ssr:stedsnr" v="865666" />
		<tag k="ssr:type" v="holmeISjø" />
	</node>
	<node lat="66.56948611541635" lon="12.137405562242133" id="-17986">
		<tag k="name" v="Innerrossøya" />
		<tag k="place" v="islet" />
		<tag k="ssr:date" v="2021-06-08" />
		<tag k="ssr:gruppe" v="kystkontur" />
		<tag k="ssr:hovedgruppe" v="sjø" />
		<tag k="ssr:stedsnr" v="865668" />
		<tag k="ssr:type" v="holmeISjø" />
	</node>
	<node lat="66.58074444640032" lon="12.212841658843146" id="-17987">
		<tag k="name" v="Ytterlamholmen" />
		<tag k="place" v="islet" />
		<tag k="ssr:date" v="2021-06-08" />
		<tag k="ssr:gruppe" v="kystkontur" />
		<tag k="ssr:hovedgruppe" v="sjø" />
		<tag k="ssr:stedsnr" v="865684" />
		<tag k="ssr:type" v="holmeISjø" />
	</node>
	<node lat="66.52900833132068" lon="12.002680548735892" id="-17988">
		<tag k="name" v="Brimholmen" />
		<tag k="place" v="islet" />
		<tag k="ssr:date" v="2021-06-08" />
		<tag k="ssr:gruppe" v="kystkontur" />
		<tag k="ssr:hovedgruppe" v="sjø" />
		<tag k="ssr:stedsnr" v="865685" />
		<tag k="ssr:type" v="holmeISjø" />
	</node>
	<node lat="66.51731389330473" lon="12.319738890661018" id="-17989">
		<tag k="name" v="Jekthaugskallen" />
		<tag k="natural" v="shoal" />
		<tag k="place" v="locality" />
		<tag k="ssr:date" v="2021-06-08" />
		<tag k="ssr:gruppe" v="grunnerISjø" />
		<tag k="ssr:hovedgruppe" v="sjø" />
		<tag k="ssr:stedsnr" v="865828" />
		<tag k="ssr:type" v="grunneISjø" />
	</node>
	<node lat="66.51142222077253" lon="12.095663886323855" id="-17990">
		<tag k="name" v="Buholman" />
		<tag k="place" v="islet" />
		<tag k="ssr:date" v="2021-06-08" />
		<tag k="ssr:gruppe" v="kystkontur" />
		<tag k="ssr:hovedgruppe" v="sjø" />
		<tag k="ssr:stedsnr" v="866655" />
		<tag k="ssr:type" v="holmegruppeISjø" />
	</node>
	<node lat="66.50846944515663" lon="11.948158340840777" id="-17991">
		<tag k="name" v="Katten" />
		<tag k="natural" v="shoal" />
		<tag k="place" v="locality" />
		<tag k="ssr:date" v="2021-06-08" />
		<tag k="ssr:gruppe" v="grunnerISjø" />
		<tag k="ssr:hovedgruppe" v="sjø" />
		<tag k="ssr:stedsnr" v="866679" />
		<tag k="ssr:type" v="grunneISjø" />
	</node>
	<node lat="66.66649999865328" lon="12.242933339709984" id="-17992">
		<tag k="name" v="Skåkbåen" />
		<tag k="natural" v="shoal" />
		<tag k="place" v="locality" />
		<tag k="ssr:date" v="2021-06-08" />
		<tag k="ssr:gruppe" v="grunnerISjø" />
		<tag k="ssr:hovedgruppe" v="sjø" />
		<tag k="ssr:stedsnr" v="866716" />
		<tag k="ssr:type" v="grunneISjø" />
	</node>
	<node lat="66.54773055611705" lon="12.27130277515142" id="-17993">
		<tag k="name" v="Langskjæret" />
		<tag k="place" v="islet" />
		<tag k="ssr:date" v="2021-06-08" />
		<tag k="ssr:gruppe" v="kystkontur" />
		<tag k="ssr:hovedgruppe" v="sjø" />
		<tag k="ssr:stedsnr" v="866835" />
		<tag k="ssr:type" v="holmeISjø" />
	</node>
	<node lat="66.59860000116245" lon="12.211602783919815" id="-17994">
		<tag k="fixme" v="consider seamark:type=rock or natural=shoal" />
		<tag k="name" v="Ytremerra" />
		<tag k="place" v="islet" />
		<tag k="ssr:date" v="2016-05-11" />
		<tag k="ssr:gruppe" v="grunnerISjø" />
		<tag k="ssr:hovedgruppe" v="sjø" />
		<tag k="ssr:stedsnr" v="882292" />
		<tag k="ssr:type" v="skjærISjø" />
	</node>
	<node lat="66.53579721981798" lon="12.22078334155204" id="-17995">
		<tag k="fixme" v="consider seamark:type=rock or natural=shoal" />
		<tag k="name" v="Sauskjæret" />
		<tag k="place" v="islet" />
		<tag k="ssr:date" v="2021-06-08" />
		<tag k="ssr:gruppe" v="grunnerISjø" />
		<tag k="ssr:hovedgruppe" v="sjø" />
		<tag k="ssr:stedsnr" v="942334" />
		<tag k="ssr:type" v="skjærISjø" />
	</node>
	<node lat="66.64520277698873" lon="12.220605553918354" id="-17996">
		<tag k="name" v="Lurøytaren" />
		<tag k="natural" v="shoal" />
		<tag k="place" v="locality" />
		<tag k="ssr:date" v="2021-06-08" />
		<tag k="ssr:gruppe" v="grunnerISjø" />
		<tag k="ssr:hovedgruppe" v="sjø" />
		<tag k="ssr:stedsnr" v="942426" />
		<tag k="ssr:type" v="grunneISjø" />
	</node>
	<node lat="66.48708888479028" lon="12.070336100744015" id="-17997">
		<tag k="name" v="Kvitneset" />
		<tag k="natural" v="cape" />
		<tag k="ssr:date" v="2016-05-11" />
		<tag k="ssr:gruppe" v="kystkontur" />
		<tag k="ssr:hovedgruppe" v="sjø" />
		<tag k="ssr:stedsnr" v="960137" />
		<tag k="ssr:type" v="nesISjø" />
	</node>
	<node lat="66.5943222200567" lon="12.228713888979359" id="-17998">
		<tag k="fixme" v="consider seamark:type=rock or natural=shoal" />
		<tag k="name" v="Lyngøyskjæret" />
		<tag k="place" v="islet" />
		<tag k="ssr:date" v="2016-05-11" />
		<tag k="ssr:gruppe" v="grunnerISjø" />
		<tag k="ssr:hovedgruppe" v="sjø" />
		<tag k="ssr:stedsnr" v="959769" />
		<tag k="ssr:type" v="skjærISjø" />
	</node>
	<node lat="66.50186944259737" lon="12.099988889864262" id="-17999">
		<tag k="landuse" v="harbour" />
		<tag k="name" v="Janesvågen" />
		<tag k="seamark:type" v="harbour" />
		<tag k="ssr:date" v="2016-05-11" />
		<tag k="ssr:gruppe" v="sjøfart" />
		<tag k="ssr:hovedgruppe" v="infrastruktur" />
		<tag k="ssr:stedsnr" v="960147" />
		<tag k="ssr:type" v="havn" />
	</node>
	<node lat="66.50086388888394" lon="12.031750008249732" id="-18000">
		<tag k="name" v="Storhaga" />
		<tag k="natural" v="bay" />
		<tag k="ssr:date" v="2016-05-11" />
		<tag k="ssr:gruppe" v="kystkontur" />
		<tag k="ssr:hovedgruppe" v="sjø" />
		<tag k="ssr:stedsnr" v="960160" />
		<tag k="ssr:type" v="vikISjø" />
	</node>
	<node lat="66.50491944262058" lon="12.005149997854515" id="-18001">
		<tag k="name" v="Raudbergslåga" />
		<tag k="natural" v="valley" />
		<tag k="place" v="locality" />
		<tag k="ssr:date" v="2016-05-11" />
		<tag k="ssr:gruppe" v="senkninger" />
		<tag k="ssr:hovedgruppe" v="terreng" />
		<tag k="ssr:stedsnr" v="960163" />
		<tag k="ssr:type" v="dal" />
	</node>
	<node lat="66.50240277431288" lon="12.05886666782038" id="-18002">
		<tag k="name" v="Hellarvikja" />
		<tag k="natural" v="bay" />
		<tag k="ssr:date" v="2016-05-11" />
		<tag k="ssr:gruppe" v="kystkontur" />
		<tag k="ssr:hovedgruppe" v="sjø" />
		<tag k="ssr:stedsnr" v="960169" />
		<tag k="ssr:type" v="vikISjø" />
	</node>
	<node lat="66.54846111420942" lon="12.266630547244768" id="-18003">
		<tag k="name" v="Sør-Bærholmen" />
		<tag k="place" v="islet" />
		<tag k="ssr:date" v="2016-05-11" />
		<tag k="ssr:gruppe" v="kystkontur" />
		<tag k="ssr:hovedgruppe" v="sjø" />
		<tag k="ssr:stedsnr" v="960751" />
		<tag k="ssr:type" v="holmeISjø" />
	</node>
	<node lat="66.5284472219006" lon="12.00786944853694" id="-18004">
		<tag k="name" v="Bremholman" />
		<tag k="place" v="island" />
		<tag k="ssr:date" v="2016-05-11" />
		<tag k="ssr:gruppe" v="kystkontur" />
		<tag k="ssr:hovedgruppe" v="sjø" />
		<tag k="ssr:stedsnr" v="960757" />
		<tag k="ssr:type" v="øygruppeISjø" />
	</node>
	<node lat="66.50710278215308" lon="12.059950002581768" id="-18005">
		<tag k="name" v="Hundberget" />
		<tag k="natural" v="cape" />
		<tag k="ssr:date" v="2016-05-11" />
		<tag k="ssr:gruppe" v="kystkontur" />
		<tag k="ssr:hovedgruppe" v="sjø" />
		<tag k="ssr:stedsnr" v="960766" />
		<tag k="ssr:type" v="nesISjø" />
	</node>
	<node lat="66.50036667065191" lon="12.0873732335471" id="-18020">
		<tag k="fixme" v="consider place=hamlet" />
		<tag k="name" v="Husøya" />
		<tag k="place" v="farm" />
		<tag k="ssr:date" v="2019-09-02" />
		<tag k="ssr:gruppe" v="gardsbebyggelse" />
		<tag k="ssr:hovedgruppe" v="bebyggelse" />
		<tag k="ssr:stedsnr" v="1072438" />
		<tag k="ssr:type" v="gard" />
	</node>
	<node lat="66.49289183534401" lon="12.083800883113792" id="-18021">
		<tag k="name" v="Ærøya" />
		<tag k="place" v="locality" />
		<tag k="ssr:date" v="2019-09-02" />
		<tag k="ssr:gruppe" v="gardsbebyggelse" />
		<tag k="ssr:hovedgruppe" v="bebyggelse" />
		<tag k="ssr:stedsnr" v="1072439" />
		<tag k="ssr:type" v="eiendom" />
	</node>
	<node lat="66.49202258443451" lon="12.085512752511903" id="-18022">
		<tag k="name" v="Hikelen" />
		<tag k="place" v="locality" />
		<tag k="ssr:date" v="2019-09-02" />
		<tag k="ssr:gruppe" v="gardsbebyggelse" />
		<tag k="ssr:hovedgruppe" v="bebyggelse" />
		<tag k="ssr:stedsnr" v="1072440" />
		<tag k="ssr:type" v="eiendom" />
	</node>
	<node lat="66.50614683599454" lon="12.053868485646264" id="-18023">
		<tag k="alt_name" v="Sande" />
		<tag k="fixme" v="consider place=hamlet" />
		<tag k="name" v="Sanna" />
		<tag k="place" v="farm" />
		<tag k="ssr:date" v="2019-09-05" />
		<tag k="ssr:gruppe" v="gardsbebyggelse" />
		<tag k="ssr:hovedgruppe" v="bebyggelse" />
		<tag k="ssr:stedsnr" v="1072464" />
		<tag k="ssr:type" v="gard" />
	</node>
	<node lat="66.52192784945586" lon="12.156647647257717" id="-18024">
		<tag k="fixme" v="consider place=hamlet" />
		<tag k="name" v="Sandøya" />
		<tag k="place" v="farm" />
		<tag k="ssr:date" v="2019-09-05" />
		<tag k="ssr:gruppe" v="gardsbebyggelse" />
		<tag k="ssr:hovedgruppe" v="bebyggelse" />
		<tag k="ssr:stedsnr" v="1072485" />
		<tag k="ssr:type" v="gard" />
	</node>
	<node lat="66.54302222194191" lon="12.164627238776648" id="-18025">
		<tag k="fixme" v="consider place=hamlet" />
		<tag k="name" v="Rødskjærholmen" />
		<tag k="place" v="farm" />
		<tag k="ssr:date" v="2019-09-05" />
		<tag k="ssr:gruppe" v="gardsbebyggelse" />
		<tag k="ssr:hovedgruppe" v="bebyggelse" />
		<tag k="ssr:stedsnr" v="1072486" />
		<tag k="ssr:type" v="gard" />
	</node>
	<node lat="66.54042029446698" lon="12.250656953643267" id="-18026">
		<tag k="fixme" v="consider place=hamlet" />
		<tag k="name" v="Dørvær" />
		<tag k="place" v="farm" />
		<tag k="ssr:date" v="2021-02-09" />
		<tag k="ssr:gruppe" v="gardsbebyggelse" />
		<tag k="ssr:hovedgruppe" v="bebyggelse" />
		<tag k="ssr:stedsnr" v="1072487" />
		<tag k="ssr:type" v="gard" />
	</node>
	<node lat="66.58720632590334" lon="12.242570805667478" id="-18027">
		<tag k="fixme" v="consider place=hamlet" />
		<tag k="name" v="Selvær" />
		<tag k="place" v="farm" />
		<tag k="ssr:date" v="2019-09-05" />
		<tag k="ssr:gruppe" v="gardsbebyggelse" />
		<tag k="ssr:hovedgruppe" v="bebyggelse" />
		<tag k="ssr:stedsnr" v="1072488" />
		<tag k="ssr:type" v="gard" />
	</node>
</osm>
