<?xml version="1.0" encoding="UTF-8"?>
<<<<<<< HEAD
<osm version="0.6" generator="osmapis">
	<node lat="68.51625992745261" lon="17.00513253634806" id="-9270">
		<tag k="alt_name" v="Bogen" />
=======
<osm generator="osmapis" version="0.6">
	<node id="-185839" lat="68.516419442" lon="17.0054611025">
		<tag k="amenity" v="place_of_worship" />
		<tag k="denomination" v="lutheran" />
		<tag k="name" v="Bogen" />
		<tag k="religion" v="christian" />
		<tag k="ssr:stedsnr" v="81638" />
	</node>
	<node id="-185149" lat="68.4711166678" lon="17.2673027669">
		<tag k="cemetery" v="grave" />
		<tag k="name" v="Veggen gravlund" />
		<tag k="place" v="locality" />
		<tag k="ssr:stedsnr" v="100074" />
	</node>
	<node id="-185290" lat="68.5162583375" lon="17.0050805628">
>>>>>>> e1d4bc35ff8a6074a6f2e91616a996b547c36f15
		<tag k="amenity" v="place_of_worship" />
		<tag k="denomination" v="lutheran" />
		<tag k="name" v="Bogen kapell" />
		<tag k="religion" v="christian" />
		<tag k="ssr:stedsnr" v="81638" />
	</node>
<<<<<<< HEAD
	<node lat="68.45990832900141" lon="16.698638888498856" id="-9527">
=======
	<node id="-185249" lat="68.459908329" lon="16.6986388885">
>>>>>>> e1d4bc35ff8a6074a6f2e91616a996b547c36f15
		<tag k="alt_name" v="Evenes" />
		<tag k="amenity" v="place_of_worship" />
		<tag k="denomination" v="lutheran" />
		<tag k="name" v="Evenes kirke" />
		<tag k="religion" v="christian" />
		<tag k="ssr:stedsnr" v="441452" />
	</node>
<<<<<<< HEAD
	<node lat="68.47111666782175" lon="17.267302766923144" id="-9931">
		<tag k="cemetery" v="grave" />
		<tag k="name" v="Veggen gravlund" />
		<tag k="place" v="locality" />
		<tag k="ssr:stedsnr" v="100074" />
	</node>
	<node lat="68.52663761614195" lon="16.996934689261607" id="-10541">
		<tag k="name" v="Evenes  folkebibibliotek - Evenášši álbmotgirjerájus" />
		<tag k="name:no" v="Evenes  folkebibibliotek" />
		<tag k="name:se" v="Evenášši álbmotgirjerájus" />
		<tag k="ssr:stedsnr" v="1079442" />
		<tag k="tourism" v="museum" />
	</node>
=======
>>>>>>> e1d4bc35ff8a6074a6f2e91616a996b547c36f15
</osm>
