<?xml version="1.0" encoding="UTF-8"?>
<osm version="0.6" generator="osmapis">
	<node lat="68.46235277599958" lon="16.901899994684424" id="-20892">
		<tag k="name" v="Øyflua" />
		<tag k="natural" v="shoal" />
		<tag k="place" v="locality" />
		<tag k="ssr:stedsnr" v="218565" />
	</node>
	<node lat="68.49169166930417" lon="17.061213883067637" id="-20895">
		<tag k="fixme" v="consider seamark:type=rock or natural=shoal" />
		<tag k="name" v="Storlandskjeret" />
		<tag k="place" v="islet" />
		<tag k="ssr:stedsnr" v="16518" />
	</node>
	<node lat="68.47018888534423" lon="17.034119437239227" id="-20906">
		<tag k="name" v="Gardsgrunnen" />
		<tag k="natural" v="shoal" />
		<tag k="place" v="locality" />
		<tag k="ssr:stedsnr" v="17519" />
	</node>
	<node lat="68.5040666694125" lon="17.053497219131934" id="-20927">
		<tag k="name" v="Elvegrunnen" />
		<tag k="natural" v="shoal" />
		<tag k="place" v="locality" />
		<tag k="ssr:stedsnr" v="36623" />
	</node>
	<node lat="68.4635111144567" lon="16.77350555075144" id="-20939">
		<tag k="name" v="Stranden" />
		<tag k="natural" v="beach" />
		<tag k="ssr:stedsnr" v="58580" />
	</node>
	<node lat="68.46819166834706" lon="17.03382778322086" id="-20947">
		<tag k="fixme" v="consider seamark:type=rock or natural=shoal" />
		<tag k="name" v="Småskjeran" />
		<tag k="place" v="islet" />
		<tag k="ssr:stedsnr" v="86234" />
	</node>
	<node lat="68.42916944392424" lon="16.482694438700207" id="-20976">
		<tag k="bay" v="fjord" />
		<tag k="name" v="Ofotfjorden - Ufuohttá" />
		<tag k="name:no" v="Ofotfjorden" />
		<tag k="name:se" v="Ufuohttá" />
		<tag k="natural" v="bay" />
		<tag k="ssr:stedsnr" v="137251" />
	</node>
	<node lat="68.44947222602855" lon="16.581555544482118" id="-20977">
		<tag k="name" v="Innerholmen" />
		<tag k="place" v="islet" />
		<tag k="ssr:stedsnr" v="138438" />
	</node>
	<node lat="68.47055277573222" lon="16.950986101584427" id="-20978">
		<tag k="name" v="Sørholmen" />
		<tag k="natural" v="cape" />
		<tag k="ssr:stedsnr" v="138511" />
	</node>
	<node lat="68.50693333593438" lon="16.935311108924605" id="-20983">
		<tag k="name" v="Storholmen" />
		<tag k="natural" v="cape" />
		<tag k="ssr:stedsnr" v="141608" />
	</node>
	<node lat="68.50432778089194" lon="16.935658339723748" id="-20984">
		<tag k="name" v="Aspenes" />
		<tag k="natural" v="cape" />
		<tag k="ssr:stedsnr" v="141609" />
	</node>
	<node lat="68.49635000470306" lon="16.916544437681576" id="-20990">
		<tag k="name" v="Osneset" />
		<tag k="natural" v="cape" />
		<tag k="ssr:stedsnr" v="146208" />
	</node>
	<node lat="68.49690277881905" lon="16.964166670336922" id="-21003">
		<tag k="name" v="Kolvika" />
		<tag k="natural" v="bay" />
		<tag k="ssr:stedsnr" v="157650" />
	</node>
	<node lat="68.4736833356064" lon="16.886638889396043" id="-21007">
		<tag k="name" v="Holmsundet" />
		<tag k="natural" v="strait" />
		<tag k="ssr:stedsnr" v="160053" />
	</node>
	<node lat="68.48141388580319" lon="17.09566665831816" id="-21015">
		<tag k="name" v="Botnholmen" />
		<tag k="place" v="islet" />
		<tag k="ssr:stedsnr" v="198510" />
	</node>
	<node lat="68.47448888533457" lon="16.95245556200744" id="-21018">
		<tag k="name" v="Bårøya" />
		<tag k="place" v="island" />
		<tag k="ssr:stedsnr" v="199520" />
	</node>
	<node lat="68.51449722403993" lon="16.940119447548298" id="-21030">
		<tag k="name" v="Dragvika" />
		<tag k="natural" v="bay" />
		<tag k="ssr:stedsnr" v="207217" />
	</node>
	<node lat="68.45837778235617" lon="16.6593777668972" id="-21031">
		<tag k="name" v="Stunesosen" />
		<tag k="natural" v="bay" />
		<tag k="ssr:stedsnr" v="207297" />
	</node>
	<node lat="68.45376944360302" lon="16.71040554260096" id="-21045">
		<tag k="name" v="Evenestangen" />
		<tag k="natural" v="cape" />
		<tag k="ssr:stedsnr" v="442436" />
	</node>
	<node lat="68.45865000356423" lon="16.710405565149408" id="-21046">
		<tag k="name" v="Evenesvika" />
		<tag k="natural" v="bay" />
		<tag k="ssr:stedsnr" v="442441" />
	</node>
	<node lat="68.49737222401214" lon="16.964869443784053" id="-21053">
		<tag k="name" v="Kufeskholmen" />
		<tag k="place" v="islet" />
		<tag k="ssr:stedsnr" v="221098" />
	</node>
	<node lat="68.50922499802883" lon="17.041424990180463" id="-21063">
		<tag k="alt_name" v="Lenvik" />
		<tag k="name" v="Lenvika" />
		<tag k="natural" v="bay" />
		<tag k="ssr:stedsnr" v="445645" />
	</node>
	<node lat="68.5028416661564" lon="16.94995554921297" id="-21077">
		<tag k="name" v="Øykalven" />
		<tag k="place" v="islet" />
		<tag k="ssr:stedsnr" v="263616" />
	</node>
	<node lat="68.45805833416408" lon="17.016955548729157" id="-21082">
		<tag k="name" v="Lillevik" />
		<tag k="natural" v="bay" />
		<tag k="ssr:stedsnr" v="268208" />
	</node>
	<node lat="68.4778472218078" lon="17.080377767121135" id="-21090">
		<tag k="name" v="Kufeskholmen" />
		<tag k="place" v="islet" />
		<tag k="ssr:stedsnr" v="268795" />
	</node>
	<node lat="68.47806388628454" lon="17.092000003899468" id="-21099">
		<tag k="fixme" v="consider seamark:type=rock or natural=shoal" />
		<tag k="name" v="Lillebotnskjeret" />
		<tag k="place" v="islet" />
		<tag k="ssr:stedsnr" v="268812" />
	</node>
	<node lat="68.49199999800021" lon="17.065522212657672" id="-21111">
		<tag k="fixme" v="consider seamark:type=rock or natural=shoal" />
		<tag k="name" v="Klubbskjeret" />
		<tag k="place" v="islet" />
		<tag k="ssr:stedsnr" v="450834" />
	</node>
	<node lat="68.45249444612766" lon="17.093536105406322" id="-21123">
		<tag k="fixme" v="consider seamark:type=rock or natural=shoal" />
		<tag k="name" v="Reinskinnskjæret - Duolljeskearri" />
		<tag k="name:no" v="Reinskinnskjæret" />
		<tag k="name:se" v="Duolljeskearri" />
		<tag k="place" v="islet" />
		<tag k="ssr:stedsnr" v="282884" />
	</node>
	<node lat="68.4644194442688" lon="17.076936118564646" id="-21124">
		<tag k="name" v="Fárronjárga" />
		<tag k="name:se" v="Fárronjárga" />
		<tag k="natural" v="cape" />
		<tag k="ssr:stedsnr" v="283413" />
	</node>
	<node lat="68.4730638863005" lon="16.890922215739593" id="-21191">
		<tag k="name" v="Hamnholmen" />
		<tag k="place" v="islet" />
		<tag k="ssr:stedsnr" v="381517" />
	</node>
	<node lat="68.45735556014766" lon="16.627336100362108" id="-21197">
		<tag k="name" v="Lensberget" />
		<tag k="natural" v="cape" />
		<tag k="ssr:stedsnr" v="389322" />
	</node>
	<node lat="68.4561416636129" lon="16.655547220349757" id="-21198">
		<tag k="fixme" v="consider seamark:type=rock or natural=shoal" />
		<tag k="name" v="Skjeret" />
		<tag k="place" v="islet" />
		<tag k="ssr:stedsnr" v="389323" />
	</node>
	<node lat="68.52988889195903" lon="17.01366667562531" id="-21199">
		<tag k="name" v="Feneset" />
		<tag k="natural" v="cape" />
		<tag k="ssr:stedsnr" v="389750" />
	</node>
	<node lat="68.47049166661006" lon="17.049511104750916" id="-21206">
		<tag k="name" v="Sauvikhalsen" />
		<tag k="natural" v="cape" />
		<tag k="ssr:stedsnr" v="389820" />
	</node>
	<node lat="68.50013333565026" lon="16.964050006996704" id="-21232">
		<tag k="name" v="Kolneset" />
		<tag k="natural" v="cape" />
		<tag k="ssr:stedsnr" v="450205" />
	</node>
	<node lat="68.47731388936744" lon="17.08989443807763" id="-21239">
		<tag k="name" v="Lillebotn" />
		<tag k="natural" v="bay" />
		<tag k="ssr:stedsnr" v="450809" />
	</node>
	<node lat="68.44807222256672" lon="16.814194435137967" id="-21250">
		<tag k="name" v="Liagrunnen" />
		<tag k="natural" v="shoal" />
		<tag k="place" v="locality" />
		<tag k="ssr:stedsnr" v="461614" />
	</node>
	<node lat="68.45427778190573" lon="16.667827773734288" id="-21276">
		<tag k="name" v="Gåsbarkneset" />
		<tag k="natural" v="cape" />
		<tag k="ssr:stedsnr" v="502444" />
	</node>
	<node lat="68.4688277819767" lon="16.91911110433748" id="-21277">
		<tag k="name" v="Ungsmaløya" />
		<tag k="place" v="island" />
		<tag k="ssr:stedsnr" v="503479" />
	</node>
	<node lat="68.50145000073026" lon="16.953041674995067" id="-21282">
		<tag k="name" v="Øykalvsundet" />
		<tag k="natural" v="strait" />
		<tag k="ssr:stedsnr" v="510214" />
	</node>
	<node lat="68.51060833429732" lon="17.041533335042534" id="-21291">
		<tag k="fixme" v="consider seamark:type=rock or natural=shoal" />
		<tag k="name" v="Kuberget" />
		<tag k="place" v="islet" />
		<tag k="ssr:stedsnr" v="510915" />
	</node>
	<node lat="68.49447500252927" lon="17.00258333736676" id="-21304">
		<tag k="name" v="Kvannholmen" />
		<tag k="place" v="islet" />
		<tag k="ssr:stedsnr" v="563510" />
	</node>
	<node lat="68.45988333348478" lon="16.862933332180713" id="-21305">
		<tag k="name" v="Vollflua" />
		<tag k="natural" v="shoal" />
		<tag k="place" v="locality" />
		<tag k="ssr:stedsnr" v="563486" />
	</node>
	<node lat="68.45692777932844" lon="17.145291675665433" id="-21306">
		<tag k="name" v="Sølvsteinvika" />
		<tag k="natural" v="bay" />
		<tag k="ssr:stedsnr" v="563978" />
	</node>
	<node lat="68.49828888876607" lon="17.07104444439516" id="-21332">
		<tag k="name" v="Klubben" />
		<tag k="natural" v="cape" />
		<tag k="ssr:stedsnr" v="571815" />
	</node>
	<node lat="68.49380555130955" lon="17.078216665250913" id="-21333">
		<tag k="fixme" v="consider seamark:type=rock or natural=shoal" />
		<tag k="name" v="Høgberget" />
		<tag k="place" v="islet" />
		<tag k="ssr:stedsnr" v="571819" />
	</node>
	<node lat="68.45526944083917" lon="16.63851110571133" id="-21343">
		<tag k="name" v="Nesan" />
		<tag k="natural" v="cape" />
		<tag k="ssr:stedsnr" v="684425" />
	</node>
	<node lat="68.46376110920606" lon="17.24825555608122" id="-21348">
		<tag k="name" v="Segelnes - Borjjasnjárga" />
		<tag k="name:no" v="Segelnes" />
		<tag k="name:se" v="Borjjasnjárga" />
		<tag k="natural" v="cape" />
		<tag k="ssr:stedsnr" v="685481" />
	</node>
	<node lat="68.49248333227305" lon="16.99150832063745" id="-21352">
		<tag k="name" v="Klebu" />
		<tag k="natural" v="shoal" />
		<tag k="place" v="locality" />
		<tag k="ssr:stedsnr" v="685532" />
	</node>
	<node lat="68.51953889188029" lon="17.00336944093259" id="-21362">
		<tag k="alt_name" v="Bergvik" />
		<tag k="name" v="Bergvika" />
		<tag k="natural" v="bay" />
		<tag k="ssr:stedsnr" v="688623" />
	</node>
	<node lat="68.51565555663902" lon="17.001094434306445" id="-21363">
		<tag k="name" v="Bergvikneset" />
		<tag k="natural" v="cape" />
		<tag k="ssr:stedsnr" v="688632" />
	</node>
	<node lat="68.47523889304091" lon="17.061263878394875" id="-21368">
		<tag k="name" v="Kobbsteinneset - Njuorjonjárga" />
		<tag k="name:no" v="Kobbsteinneset" />
		<tag k="name:se" v="Njuorjonjárga" />
		<tag k="natural" v="cape" />
		<tag k="ssr:stedsnr" v="624519" />
	</node>
	<node lat="68.46000833130537" lon="16.645333328568466" id="-21386">
		<tag k="name" v="Tårstadosen" />
		<tag k="natural" v="strait" />
		<tag k="ssr:stedsnr" v="692264" />
	</node>
	<node lat="68.45484166891512" lon="16.597875006731226" id="-21392">
		<tag k="name" v="Sjåberget" />
		<tag k="natural" v="cape" />
		<tag k="ssr:stedsnr" v="693362" />
	</node>
	<node lat="68.48293889070814" lon="17.01178611853232" id="-21409">
		<tag k="bay" v="fjord" />
		<tag k="name" v="Bogen - Birraluokta" />
		<tag k="name:no" v="Bogen" />
		<tag k="name:se" v="Birraluokta" />
		<tag k="natural" v="bay" />
		<tag k="ssr:stedsnr" v="684514" />
	</node>
	<node lat="68.46476666770496" lon="17.361516677243223" id="-21412">
		<tag k="bay" v="fjord" />
		<tag k="name" v="Herjangsfjorden - Hearjjak" />
		<tag k="name:no" v="Herjangsfjorden" />
		<tag k="name:se" v="Hearjjak" />
		<tag k="natural" v="bay" />
		<tag k="ssr:stedsnr" v="685506" />
	</node>
	<node lat="68.47659999828619" lon="16.906816675798353" id="-21414">
		<tag k="name" v="Rydneset" />
		<tag k="natural" v="cape" />
		<tag k="ssr:stedsnr" v="685512" />
	</node>
	<node lat="68.4507666692274" lon="17.04514999873901" id="-21415">
		<tag k="name" v="Skredneset" />
		<tag k="natural" v="cape" />
		<tag k="ssr:stedsnr" v="685974" />
	</node>
	<node lat="68.48947221958514" lon="16.91368054778073" id="-21424">
		<tag k="name" v="Lilleleirosen" />
		<tag k="natural" v="bay" />
		<tag k="ssr:stedsnr" v="692196" />
	</node>
	<node lat="68.45301388541293" lon="16.708674999046526" id="-21425">
		<tag k="name" v="Tangodden" />
		<tag k="natural" v="cape" />
		<tag k="ssr:stedsnr" v="692315" />
	</node>
	<node lat="68.47874722464533" lon="16.997483329967892" id="-21437">
		<tag k="name" v="Skolten" />
		<tag k="natural" v="shoal" />
		<tag k="place" v="locality" />
		<tag k="ssr:stedsnr" v="886674" />
	</node>
	<node lat="68.48627777607307" lon="17.058163890284852" id="-21438">
		<tag k="name" v="Storlandskjergrunnen" />
		<tag k="natural" v="shoal" />
		<tag k="place" v="locality" />
		<tag k="ssr:stedsnr" v="886675" />
	</node>
	<node lat="68.5006111138825" lon="16.982036117716582" id="-21439">
		<tag k="alt_name" v="Gagnlausskjerran" />
		<tag k="fixme" v="consider seamark:type=rock or natural=shoal" />
		<tag k="name" v="Gagnlausskjeran" />
		<tag k="place" v="islet" />
		<tag k="ssr:stedsnr" v="886686" />
	</node>
	<node lat="68.51930555098876" lon="16.999727785982294" id="-21440">
		<tag k="name" v="Strandbogen" />
		<tag k="natural" v="shoal" />
		<tag k="place" v="locality" />
		<tag k="ssr:stedsnr" v="886688" />
	</node>
	<node lat="68.48681111292835" lon="16.971272227174786" id="-21467">
		<tag k="name" v="Valen" />
		<tag k="natural" v="shoal" />
		<tag k="place" v="locality" />
		<tag k="ssr:stedsnr" v="753179" />
	</node>
	<node lat="68.50736389273168" lon="16.928733328512138" id="-21468">
		<tag k="name" v="Dragvikosen" />
		<tag k="natural" v="bay" />
		<tag k="ssr:stedsnr" v="753180" />
	</node>
	<node lat="68.45728333092482" lon="17.1601944480289" id="-21477">
		<tag k="name" v="Svultensteinvika" />
		<tag k="natural" v="bay" />
		<tag k="ssr:stedsnr" v="767027" />
	</node>
	<node lat="68.46816944738761" lon="16.83324443888534" id="-21500">
		<tag k="name" v="Bulineset" />
		<tag k="natural" v="cape" />
		<tag k="ssr:stedsnr" v="907581" />
	</node>
	<node lat="68.46754166679257" lon="16.80857499479714" id="-21501">
		<tag k="name" v="Lilandskarvika" />
		<tag k="natural" v="bay" />
		<tag k="ssr:stedsnr" v="907598" />
	</node>
	<node lat="68.4789833325029" lon="17.067663876655963" id="-21502">
		<tag k="name" v="Isakgrunnen" />
		<tag k="natural" v="shoal" />
		<tag k="place" v="locality" />
		<tag k="ssr:stedsnr" v="825610" />
	</node>
	<node lat="68.48553055170026" lon="16.914330557073423" id="-21519">
		<tag k="name" v="Øysundet" />
		<tag k="natural" v="strait" />
		<tag k="ssr:stedsnr" v="866507" />
	</node>
	<node lat="68.45471389246667" lon="16.60309721523228" id="-21530">
		<tag k="fixme" v="consider seamark:type=rock or natural=shoal" />
		<tag k="name" v="Storskjæret" />
		<tag k="place" v="islet" />
		<tag k="ssr:stedsnr" v="875322" />
	</node>
	<node lat="68.49749444424388" lon="17.068033330565648" id="-21531">
		<tag k="fixme" v="consider seamark:type=rock or natural=shoal" />
		<tag k="name" v="Halvfallskjeret" />
		<tag k="place" v="islet" />
		<tag k="ssr:stedsnr" v="875819" />
	</node>
	<node lat="68.4616499972721" lon="17.22448610861925" id="-21550">
		<tag k="name" v="Sommarvika" />
		<tag k="natural" v="bay" />
		<tag k="ssr:stedsnr" v="928459" />
	</node>
	<node lat="68.45368889115242" lon="16.665205550133262" id="-21561">
		<tag k="name" v="Rotnesodden" />
		<tag k="natural" v="cape" />
		<tag k="ssr:stedsnr" v="935349" />
	</node>
	<node lat="68.47025555670693" lon="17.051708337063072" id="-21563">
		<tag k="name" v="Sauvika" />
		<tag k="natural" v="bay" />
		<tag k="ssr:stedsnr" v="935803" />
	</node>
	<node lat="68.50626666422966" lon="16.939436106248113" id="-21568">
		<tag k="fixme" v="consider seamark:type=rock or natural=shoal" />
		<tag k="name" v="Holmskjeret" />
		<tag k="place" v="islet" />
		<tag k="ssr:stedsnr" v="946535" />
	</node>
	<node lat="68.52108259915906" lon="16.604023598236534" id="-21579">
		<tag k="loc_name:no" v="Lavangseidet" />
		<tag k="name" v="Loabákáidi" />
		<tag k="name:se" v="Loabákáidi" />
		<tag k="place" v="locality" />
		<tag k="ssr:stedsnr" v="986206" />
	</node>
	<node lat="68.45226944022794" lon="17.082969452337096" id="-21617">
		<tag k="alt_name:no" v="Huggvika" />
		<tag k="name" v="Hoggvika - Hoaŋkagaska" />
		<tag k="name:no" v="Hoggvika" />
		<tag k="name:se" v="Hoaŋkagaska" />
		<tag k="natural" v="bay" />
		<tag k="ssr:stedsnr" v="18980" />
	</node>
	<node lat="68.50815277716936" lon="16.93387223167981" id="-21618">
		<tag k="alt_name" v="Litleholmen" />
		<tag k="fixme" v="consider seamark:type=rock or natural=shoal" />
		<tag k="name" v="Lilleholmen" />
		<tag k="place" v="islet" />
		<tag k="ssr:stedsnr" v="20659" />
	</node>
	<node lat="68.49185833598457" lon="17.08737778044463" id="-21630">
		<tag k="name" v="Langstranda" />
		<tag k="natural" v="beach" />
		<tag k="ssr:stedsnr" v="25843" />
	</node>
	<node lat="68.50674166949112" lon="17.05478055451702" id="-21632">
		<tag k="fixme" v="consider seamark:type=rock or natural=shoal" />
		<tag k="name" v="Seiberget" />
		<tag k="place" v="islet" />
		<tag k="ssr:stedsnr" v="25861" />
	</node>
	<node lat="68.46975833383291" lon="16.871405546545176" id="-21648">
		<tag k="name" v="Risneset" />
		<tag k="natural" v="cape" />
		<tag k="ssr:stedsnr" v="58649" />
	</node>
	<node lat="68.45476944135332" lon="16.590111112437334" id="-21653">
		<tag k="name" v="Skardsvika" />
		<tag k="natural" v="bay" />
		<tag k="ssr:stedsnr" v="78437" />
	</node>
	<node lat="68.46623333415052" lon="16.817483341952407" id="-21671">
		<tag k="fixme" v="consider seamark:type=rock or natural=shoal" />
		<tag k="name" v="Prestskjeret" />
		<tag k="place" v="islet" />
		<tag k="ssr:stedsnr" v="97595" />
	</node>
	<node lat="68.49337777952765" lon="16.970691675307524" id="-21672">
		<tag k="name" v="Kolvikneset" />
		<tag k="natural" v="cape" />
		<tag k="ssr:stedsnr" v="100114" />
	</node>
	<node lat="68.45523333263333" lon="17.017183334838776" id="-21689">
		<tag k="alt_name" v="Trangvika" />
		<tag k="name" v="Tangvika" />
		<tag k="natural" v="bay" />
		<tag k="ssr:stedsnr" v="138968" />
	</node>
	<node lat="68.49272500268485" lon="16.991302779720893" id="-21712">
		<tag k="fixme" v="consider seamark:type=rock or natural=shoal" />
		<tag k="name" v="Klæbuskjeret" />
		<tag k="place" v="islet" />
		<tag k="ssr:stedsnr" v="160085" />
	</node>
	<node lat="68.51023888579657" lon="17.03276943223119" id="-21728">
		<tag k="name" v="Lenvikhammaren" />
		<tag k="natural" v="cape" />
		<tag k="ssr:stedsnr" v="202650" />
	</node>
	<node lat="68.47661389160075" lon="16.95325278908651" id="-21749">
		<tag k="name" v="Nordholmen" />
		<tag k="natural" v="cape" />
		<tag k="ssr:stedsnr" v="260538" />
	</node>
	<node lat="68.49572777699505" lon="17.076472221880685" id="-21766">
		<tag k="name" v="Silsanden" />
		<tag k="natural" v="beach" />
		<tag k="ssr:stedsnr" v="268832" />
	</node>
	<node lat="68.49170832914096" lon="17.07033055240308" id="-21767">
		<tag k="fixme" v="consider seamark:type=rock or natural=shoal" />
		<tag k="name" v="Langskjeret" />
		<tag k="place" v="islet" />
		<tag k="ssr:stedsnr" v="268835" />
	</node>
	<node lat="68.51412500136374" lon="17.007294438395782" id="-21769">
		<tag k="name" v="Kleivvika" />
		<tag k="natural" v="bay" />
		<tag k="ssr:stedsnr" v="268778" />
	</node>
	<node lat="68.48257221869859" lon="16.90446945413163" id="-21774">
		<tag k="name" v="Hesteskjeret" />
		<tag k="natural" v="cape" />
		<tag k="ssr:stedsnr" v="281057" />
	</node>
	<node lat="68.4533416643158" lon="16.674866670282782" id="-21792">
		<tag k="name" v="Rotneset" />
		<tag k="natural" v="cape" />
		<tag k="ssr:stedsnr" v="320437" />
	</node>
	<node lat="68.44834722468687" lon="16.577133336970714" id="-21793">
		<tag k="fixme" v="multiple name tags, choose one and add the other to alt_name" />
		<tag k="name" v="Ytterholmen;Holman" />
		<tag k="place" v="islet" />
		<tag k="ssr:stedsnr" v="320441" />
	</node>
	<node lat="68.46485833055817" lon="17.010861110714448" id="-21797">
		<tag k="name" v="Saltvikgrunnen" />
		<tag k="natural" v="shoal" />
		<tag k="place" v="locality" />
		<tag k="ssr:stedsnr" v="321471" />
	</node>
	<node lat="68.45567778150591" lon="17.014877781873484" id="-21800">
		<tag k="name" v="Forratangen" />
		<tag k="natural" v="cape" />
		<tag k="old_name" v="Foratangen" />
		<tag k="ssr:stedsnr" v="321961" />
	</node>
	<node lat="68.52851944238085" lon="17.009672229417543" id="-21824">
		<tag k="name" v="Krøkebergneset" />
		<tag k="natural" v="cape" />
		<tag k="ssr:stedsnr" v="328746" />
	</node>
	<node lat="68.47433333521272" lon="17.29259721330448" id="-21840">
		<tag k="name" v="Tjukkeneset" />
		<tag k="natural" v="cape" />
		<tag k="ssr:stedsnr" v="380549" />
	</node>
	<node lat="68.49725277601925" lon="17.074024987338493" id="-21846">
		<tag k="name" v="Peterneset" />
		<tag k="natural" v="cape" />
		<tag k="ssr:stedsnr" v="381533" />
	</node>
	<node lat="68.46029722531628" lon="17.007922233776533" id="-21850">
		<tag k="alt_name" v="Foraskjeret" />
		<tag k="fixme" v="consider seamark:type=rock or natural=shoal" />
		<tag k="name" v="Forraskjeret" />
		<tag k="place" v="islet" />
		<tag k="ssr:stedsnr" v="381975" />
	</node>
	<node lat="68.46922499606823" lon="17.27570278403129" id="-21853">
		<tag k="name" v="Holmelvneset" />
		<tag k="natural" v="cape" />
		<tag k="ssr:stedsnr" v="385682" />
	</node>
	<node lat="68.47691944720457" lon="17.067233335214986" id="-21862">
		<tag k="name" v="Stranda" />
		<tag k="natural" v="beach" />
		<tag k="ssr:stedsnr" v="389790" />
	</node>
	<node lat="68.45059444710941" lon="17.040394455246197" id="-21871">
		<tag k="name" v="Skredstranda" />
		<tag k="natural" v="beach" />
		<tag k="ssr:stedsnr" v="403035" />
	</node>
	<node lat="68.44832499663899" lon="16.83251388313782" id="-21902">
		<tag k="name" v="Lilandsgrunnen" />
		<tag k="natural" v="shoal" />
		<tag k="place" v="locality" />
		<tag k="ssr:stedsnr" v="503963" />
	</node>
	<node lat="68.45706944790516" lon="17.152602780395778" id="-21903">
		<tag k="alt_name" v="Skardbergvika" />
		<tag k="name" v="Skarbergvika" />
		<tag k="natural" v="bay" />
		<tag k="ssr:stedsnr" v="503969" />
	</node>
	<node lat="68.48992222653244" lon="17.09494166906095" id="-21918">
		<tag k="name" v="Skjelnvika" />
		<tag k="natural" v="bay" />
		<tag k="ssr:stedsnr" v="510875" />
	</node>
	<node lat="68.49963333044823" lon="17.07068888711864" id="-21919">
		<tag k="fixme" v="consider seamark:type=rock or natural=shoal" />
		<tag k="name" v="Kleksberget" />
		<tag k="place" v="islet" />
		<tag k="ssr:stedsnr" v="510889" />
	</node>
	<node lat="68.46861388521103" lon="17.042127786798915" id="-21923">
		<tag k="name" v="Klubbneset" />
		<tag k="natural" v="cape" />
		<tag k="ssr:stedsnr" v="510845" />
	</node>
	<node lat="68.45672500385379" lon="16.647161120481044" id="-21939">
		<tag k="name" v="Stuneset - Stohponášši" />
		<tag k="name:no" v="Stuneset" />
		<tag k="name:se" v="Stohponášši" />
		<tag k="natural" v="cape" />
		<tag k="ssr:stedsnr" v="562432" />
	</node>
	<node lat="68.45973610966283" lon="16.74166666051846" id="-21940">
		<tag k="name" v="Liavika" />
		<tag k="natural" v="bay" />
		<tag k="ssr:stedsnr" v="562459" />
	</node>
	<node lat="68.48625833192871" lon="16.969655563078167" id="-21943">
		<tag k="name" v="Sennholmen" />
		<tag k="place" v="islet" />
		<tag k="ssr:stedsnr" v="562526" />
	</node>
	<node lat="68.45226111102409" lon="17.022263891620078" id="-21957">
		<tag k="fixme" v="consider seamark:type=rock or natural=shoal" />
		<tag k="name" v="Brennskjeret" />
		<tag k="place" v="islet" />
		<tag k="ssr:stedsnr" v="571218" />
	</node>
	<node lat="68.49926388440971" lon="16.94905277940736" id="-21958">
		<tag k="name" v="Storvika" />
		<tag k="natural" v="bay" />
		<tag k="ssr:stedsnr" v="571224" />
	</node>
	<node lat="68.46130833772695" lon="17.022438890230795" id="-21959">
		<tag k="name" v="Vassvik" />
		<tag k="natural" v="bay" />
		<tag k="ssr:stedsnr" v="571188" />
	</node>
	<node lat="68.48938889280848" lon="17.084188886744194" id="-21961">
		<tag k="fixme" v="consider seamark:type=rock or natural=shoal" />
		<tag k="name" v="Skjellskjeran" />
		<tag k="place" v="islet" />
		<tag k="ssr:stedsnr" v="571828" />
	</node>
	<node lat="68.48313333522275" lon="17.103744432217205" id="-21969">
		<tag k="name" v="Nordelvbergan" />
		<tag k="natural" v="cape" />
		<tag k="ssr:stedsnr" v="571790" />
	</node>
	<node lat="68.49909166585675" lon="17.0603833294096" id="-21973">
		<tag k="name" v="Berggrunnen" />
		<tag k="natural" v="shoal" />
		<tag k="place" v="locality" />
		<tag k="ssr:stedsnr" v="582685" />
	</node>
	<node lat="68.46863611455024" lon="16.849575002497275" id="-21984">
		<tag k="name" v="Vollstranda" />
		<tag k="natural" v="beach" />
		<tag k="ssr:stedsnr" v="594644" />
	</node>
	<node lat="68.46733610738345" lon="16.816741667294497" id="-21986">
		<tag k="name" v="Buvika" />
		<tag k="natural" v="bay" />
		<tag k="ssr:stedsnr" v="603597" />
	</node>
	<node lat="68.4603555551934" lon="17.211449998958358" id="-21990">
		<tag k="name" v="Gammelveggen - Boaressiida" />
		<tag k="name:no" v="Gammelveggen" />
		<tag k="name:se" v="Boaressiida" />
		<tag k="natural" v="cape" />
		<tag k="ssr:stedsnr" v="624972" />
	</node>
	<node lat="68.52771666344141" lon="17.0037444504849" id="-22004">
		<tag k="name" v="Løneset" />
		<tag k="natural" v="cape" />
		<tag k="ssr:stedsnr" v="631752" />
	</node>
	<node lat="68.45569999880402" lon="16.992591667539514" id="-22023">
		<tag k="name" v="Håkviksholmen" />
		<tag k="natural" v="shoal" />
		<tag k="place" v="locality" />
		<tag k="ssr:stedsnr" v="703653" />
	</node>
	<node lat="68.4874111093119" lon="17.073708324733953" id="-22038">
		<tag k="fixme" v="consider seamark:type=rock or natural=shoal" />
		<tag k="name" v="Botnklubbskjeret" />
		<tag k="place" v="islet" />
		<tag k="ssr:stedsnr" v="744479" />
	</node>
	<node lat="68.45847222389165" lon="16.63132223339913" id="-22041">
		<tag k="name" v="Silsand" />
		<tag k="natural" v="bay" />
		<tag k="ssr:stedsnr" v="745438" />
	</node>
	<node lat="68.49125555086717" lon="16.921425006859245" id="-22049">
		<tag k="name" v="Øysundet" />
		<tag k="natural" v="strait" />
		<tag k="ssr:stedsnr" v="753181" />
	</node>
	<node lat="68.53010555355813" lon="17.035619442116616" id="-22053">
		<tag k="name" v="Slettneset" />
		<tag k="natural" v="cape" />
		<tag k="ssr:stedsnr" v="753731" />
	</node>
	<node lat="68.50569166583398" lon="17.064136106852523" id="-22059">
		<tag k="name" v="Stranda" />
		<tag k="natural" v="beach" />
		<tag k="ssr:stedsnr" v="753841" />
	</node>
	<node lat="68.50690833020164" lon="17.05026111520236" id="-22060">
		<tag k="name" v="Lenvikneset" />
		<tag k="natural" v="cape" />
		<tag k="ssr:stedsnr" v="753851" />
	</node>
	<node lat="68.46897777481176" lon="17.046205546765595" id="-22069">
		<tag k="name" v="Bjørnstranda" />
		<tag k="natural" v="beach" />
		<tag k="ssr:stedsnr" v="753797" />
	</node>
	<node lat="68.44914999764151" lon="16.578952778072406" id="-22072">
		<tag k="name" v="Skarsholmene - Skárddiidsuolu" />
		<tag k="name:no" v="Skarsholmene" />
		<tag k="name:se" v="Skárddiidsuolu" />
		<tag k="place" v="islet" />
		<tag k="ssr:stedsnr" v="754378" />
	</node>
	<node lat="68.45395277736768" lon="16.637074991534607" id="-22076">
		<tag k="name" v="Nesbåen" />
		<tag k="natural" v="shoal" />
		<tag k="place" v="locality" />
		<tag k="ssr:stedsnr" v="764581" />
	</node>
	<node lat="68.49207222097293" lon="16.940630555125225" id="-22098">
		<tag k="name" v="Skogøya - Beahcesuolu" />
		<tag k="name:no" v="Skogøya" />
		<tag k="name:se" v="Beahcesuolu" />
		<tag k="place" v="island" />
		<tag k="ssr:stedsnr" v="805533" />
	</node>
	<node lat="68.45323888575395" lon="16.61073888192797" id="-22100">
		<tag k="name" v="Storvikholmen" />
		<tag k="place" v="islet" />
		<tag k="ssr:stedsnr" v="806420" />
	</node>
	<node lat="68.48528611044573" lon="16.970263875077375" id="-22143">
		<tag k="name" v="Sennholmklubben" />
		<tag k="place" v="islet" />
		<tag k="ssr:stedsnr" v="874230" />
	</node>
	<node lat="68.52761944764887" lon="17.00288889399959" id="-22149">
		<tag k="name" v="Skåla" />
		<tag k="natural" v="strait" />
		<tag k="ssr:stedsnr" v="875776" />
	</node>
	<node lat="68.4565000012483" lon="16.72743056131345" id="-22195">
		<tag k="name" v="Rørvika" />
		<tag k="natural" v="bay" />
		<tag k="ssr:stedsnr" v="968572" />
	</node>
</osm>
