<?xml version="1.0" encoding="UTF-8"?>
<osm generator="osmapis" version="0.6">
	<node id="-696320" lat="68.5425916631" lon="17.2108749944">
		<tag k="name" v="Fiskedammen" />
		<tag k="natural" v="water" />
		<tag k="ssr:stedsnr" v="25477" />
		<tag k="water" v="lake" />
	</node>
	<node id="-697343" lat="68.478688892" lon="17.1249194557">
		<tag k="name" v="Heggebakkelva" />
		<tag k="ssr:stedsnr" v="949119" />
		<tag k="waterway" v="stream" />
	</node>
	<node id="-696318" lat="68.4940499972" lon="16.7270972213">
		<tag k="name" v="Elvekroken" />
		<tag k="natural" v="bay" />
		<tag k="ssr:stedsnr" v="25361" />
	</node>
	<node id="-696829" lat="68.4763972202" lon="17.2239916553">
		<tag k="name" v="Mølnvatnet" />
		<tag k="natural" v="water" />
		<tag k="ssr:stedsnr" v="563490" />
	</node>
	<node id="-696827" lat="68.484533337" lon="16.9354138936">
		<tag k="name" v="Storvatnet" />
		<tag k="natural" v="water" />
		<tag k="ssr:stedsnr" v="562529" />
	</node>
	<node id="-697338" lat="68.5380583334" lon="17.0106027787">
		<tag k="name" v="Mølnfossen" />
		<tag k="natural" v="waterfall" />
		<tag k="ssr:stedsnr" v="949076" />
	</node>
	<node id="-696404" lat="68.5241222225" lon="17.1866333358">
		<tag k="name" v="Storelvneset" />
		<tag k="natural" v="cape" />
		<tag k="ssr:stedsnr" v="86890" />
	</node>
	<node id="-696309" lat="68.4936555519" lon="16.8687388966">
		<tag k="name" v="Kvannbekken" />
		<tag k="ssr:stedsnr" v="24015" />
		<tag k="waterway" v="stream" />
	</node>
	<node id="-696308" lat="68.4988499993" lon="16.6548138969">
		<tag k="name" v="Mølnelva" />
		<tag k="ssr:stedsnr" v="24005" />
		<tag k="waterway" v="stream" />
	</node>
	<node id="-696819" lat="68.4691250022" lon="16.6487722304">
		<tag k="name" v="Tårstadosen" />
		<tag k="natural" v="bay" />
		<tag k="ssr:stedsnr" v="562406" />
	</node>
	<node id="-696306" lat="68.5191472199" lon="16.7407805648">
		<tag k="name" v="Sommarvatnet - Geassejávri" />
		<tag k="name:no" v="Sommarvatnet" />
		<tag k="name:se" v="Geassejávri" />
		<tag k="natural" v="water" />
		<tag k="ssr:stedsnr" v="20808" />
	</node>
	<node id="-696817" lat="68.5298111115" lon="16.8743805538">
		<tag k="name" v="Mersskarosen" />
		<tag k="natural" v="bay" />
		<tag k="ssr:stedsnr" v="543656" />
	</node>
	<node id="-696816" lat="68.518863885" lon="16.7359500098">
		<tag k="name" v="Lillevatnet" />
		<tag k="natural" v="water" />
		<tag k="ssr:stedsnr" v="543631" />
	</node>
	<node id="-696302" lat="68.5288833339" lon="17.2104083293">
		<tag k="name" v="Holmvasselva - Suolojávrrejohka" />
		<tag k="name:no" v="Holmvasselva" />
		<tag k="name:se" v="Suolojávrrejohka" />
		<tag k="ssr:stedsnr" v="20608" />
		<tag k="waterway" v="river" />
	</node>
	<node id="-696811" lat="68.5330333379" lon="16.7938888785">
		<tag k="name" v="Kjørdalselva - Čoardá" />
		<tag k="name:no" v="Kjørdalselva" />
		<tag k="name:se" v="Čoardá" />
		<tag k="ssr:stedsnr" v="525863" />
		<tag k="waterway" v="stream" />
	</node>
	<node id="-697319" lat="68.522438892" lon="17.1692916661">
		<tag k="name" v="Stabbursholmen - Njallasuolu" />
		<tag k="name:no" v="Stabbursholmen" />
		<tag k="name:se" v="Njallasuolu" />
		<tag k="place" v="islet" />
		<tag k="ssr:stedsnr" v="935911" />
	</node>
	<node id="-696293" lat="68.4886527749" lon="16.7103749973">
		<tag k="name" v="Svanevatnet" />
		<tag k="natural" v="water" />
		<tag k="ssr:stedsnr" v="17449" />
	</node>
	<node id="-696804" lat="68.5447361155" lon="17.0618833224">
		<tag k="name" v="Kvanndalselva" />
		<tag k="ssr:stedsnr" v="524081" />
		<tag k="waterway" v="stream" />
	</node>
	<node id="-696291" lat="68.4732750036" lon="16.7870138981">
		<tag k="name" v="Sommarvikelva" />
		<tag k="ssr:stedsnr" v="17439" />
		<tag k="waterway" v="stream" />
	</node>
	<node id="-696290" lat="68.4665805586" lon="16.6313416712">
		<tag k="name" v="Innerelva" />
		<tag k="ssr:stedsnr" v="17434" />
		<tag k="waterway" v="stream" />
	</node>
	<node id="-696289" lat="68.4740333354" lon="16.6081638918">
		<tag k="alt_name" v="Fisketjørna" />
		<tag k="name" v="Fisketjønna" />
		<tag k="natural" v="water" />
		<tag k="ssr:stedsnr" v="17432" />
	</node>
	<node id="-696288" lat="68.494599999" lon="16.5658888788">
		<tag k="name" v="Kvanntovatnet" />
		<tag k="natural" v="water" />
		<tag k="ssr:stedsnr" v="17424" />
	</node>
	<node id="-696799" lat="68.5368888894" lon="17.1768138994">
		<tag k="name" v="Larselva" />
		<tag k="ssr:stedsnr" v="510992" />
		<tag k="waterway" v="stream" />
	</node>
	<node id="-696286" lat="68.4964249995" lon="16.809266675">
		<tag k="fixme" v="multiple name tags, choose one and add the other to alt_name" />
		<tag k="name" v="Gamelva;Partelva" />
		<tag k="ssr:stedsnr" v="17410" />
		<tag k="waterway" v="stream" />
	</node>
	<node id="-696285" lat="68.4946111088" lon="17.1146360978">
		<tag k="name" v="Skjelnelva" />
		<tag k="ssr:stedsnr" v="16520" />
		<tag k="waterway" v="stream" />
	</node>
	<node id="-696570" lat="68.5426083377" lon="17.0730111081">
		<tag k="name" v="Dammen" />
		<tag k="natural" v="water" />
		<tag k="ssr:stedsnr" v="221094" />
		<tag k="water" v="lake" />
	</node>
	<node id="-697304" lat="68.5528583374" lon="17.1098555629">
		<tag k="name" v="Buvatnet" />
		<tag k="natural" v="water" />
		<tag k="ssr:stedsnr" v="930931" />
	</node>
	<node id="-697302" lat="68.5254805592" lon="16.8053861027">
		<tag k="fixme" v="multiple name tags, choose one and add the other to alt_name" />
		<tag k="name" v="Geitslettvatnet;Grønlivatnet - Ruonasjávri" />
		<tag k="name:no" v="Geitslettvatnet;Grønlivatnet" />
		<tag k="name:se" v="Ruonasjávri" />
		<tag k="natural" v="water" />
		<tag k="old_name:se" v="Ruonasjavri" />
		<tag k="ssr:stedsnr" v="930808" />
	</node>
	<node id="-697298" lat="68.5408500031" lon="17.0633166632">
		<tag k="alt_name" v="Kvitforsen" />
		<tag k="name" v="Kvitfossen" />
		<tag k="natural" v="waterfall" />
		<tag k="ssr:stedsnr" v="930622" />
	</node>
	<node id="-697297" lat="68.545941664" lon="17.005338894">
		<tag k="name" v="Rogndalsvatnet" />
		<tag k="natural" v="water" />
		<tag k="ssr:stedsnr" v="930613" />
	</node>
	<node id="-697296" lat="68.5328083371" lon="17.0317944564">
		<tag k="name" v="Strandvatnet - Stuora Rándajávri" />
		<tag k="name:no" v="Strandvatnet" />
		<tag k="name:se" v="Stuora Rándajávri" />
		<tag k="natural" v="water" />
		<tag k="ssr:stedsnr" v="930607" />
		<tag k="water" v="lake" />
	</node>
	<node id="-696783" lat="68.5347944436" lon="17.2529638944">
		<tag k="name" v="Nordholmen" />
		<tag k="place" v="islet" />
		<tag k="ssr:stedsnr" v="510494" />
	</node>
	<node id="-696782" lat="68.5325499998" lon="17.2510416725">
		<tag k="name" v="Langholmen" />
		<tag k="place" v="islet" />
		<tag k="ssr:stedsnr" v="510492" />
	</node>
	<node id="-697287" lat="68.462513893" lon="16.7145805482">
		<tag k="name" v="Vikaelva" />
		<tag k="ssr:stedsnr" v="927463" />
		<tag k="waterway" v="stream" />
	</node>
	<node id="-696772" lat="68.5047333372" lon="16.8675444451">
		<tag k="name" v="Brattfossen" />
		<tag k="natural" v="waterfall" />
		<tag k="ssr:stedsnr" v="510011" />
	</node>
	<node id="-697282" lat="68.4872777817" lon="16.574644447">
		<tag k="name" v="Trollholvatnet" />
		<tag k="natural" v="water" />
		<tag k="ssr:stedsnr" v="927405" />
	</node>
	<node id="-696768" lat="68.5555777806" lon="17.1379277707">
		<tag k="name" v="Langvatnet - Lágujávri" />
		<tag k="name:no" v="Langvatnet" />
		<tag k="name:se" v="Lágujávri" />
		<tag k="natural" v="water" />
		<tag k="ssr:stedsnr" v="505593" />
	</node>
	<node id="-696766" lat="68.5350916667" lon="17.2371166549">
		<tag k="name" v="Andvatnet" />
		<tag k="natural" v="water" />
		<tag k="ssr:stedsnr" v="505576" />
	</node>
	<node id="-696765" lat="68.5395416691" lon="17.0121944336">
		<tag k="name" v="Rognåa" />
		<tag k="ssr:stedsnr" v="505572" />
		<tag k="waterway" v="stream" />
	</node>
	<node id="-696251" lat="68.4765222232" lon="17.2477083394">
		<tag k="name" v="Småvatnan" />
		<tag k="natural" v="water" />
		<tag k="ssr:stedsnr" v="889124" />
		<tag k="water" v="lake" />
	</node>
	<node id="-696735" lat="68.4671861107" lon="17.1792388905">
		<tag k="name" v="Ropparjohka" />
		<tag k="name:se" v="Ropparjohka" />
		<tag k="ssr:stedsnr" v="464131" />
		<tag k="waterway" v="stream" />
	</node>
	<node id="-696820" lat="68.4850500034" lon="16.7126777861">
		<tag k="name" v="Tverrelva" />
		<tag k="ssr:stedsnr" v="562417" />
		<tag k="waterway" v="stream" />
	</node>
	<node id="-696757" lat="68.496741664" lon="16.9168249905">
		<tag k="name" v="Leirosen" />
		<tag k="natural" v="bay" />
		<tag k="ssr:stedsnr" v="502530" />
	</node>
	<node id="-696756" lat="68.4882361121" lon="17.1086138779">
		<tag k="name" v="Bjørnåselva" />
		<tag k="ssr:stedsnr" v="502527" />
		<tag k="waterway" v="stream" />
	</node>
	<node id="-697266" lat="68.4817027798" lon="17.1079722306">
		<tag k="name" v="Lilleforsa" />
		<tag k="ssr:stedsnr" v="875918" />
		<tag k="waterway" v="stream" />
	</node>
	<node id="-697261" lat="68.519730556" lon="16.9207333412">
		<tag k="name" v="Dragvikelva" />
		<tag k="ssr:stedsnr" v="875782" />
		<tag k="waterway" v="river" />
	</node>
	<node id="-697260" lat="68.5268249996" lon="16.8947583344">
		<tag k="name" v="Kvantoelva" />
		<tag k="ssr:stedsnr" v="875780" />
		<tag k="waterway" v="river" />
	</node>
	<node id="-696747" lat="68.5181222261" lon="16.7608333236">
		<tag k="name" v="Skjellbekken" />
		<tag k="ssr:stedsnr" v="483680" />
		<tag k="waterway" v="stream" />
	</node>
	<node id="-696234" lat="68.4860555597" lon="16.6670194345">
		<tag k="name" v="Munnneset" />
		<tag k="natural" v="cape" />
		<tag k="ssr:stedsnr" v="403508" />
	</node>
	<node id="-697255" lat="68.4811083345" lon="17.2315194381">
		<tag k="name" v="Geitvatnet" />
		<tag k="natural" v="water" />
		<tag k="ssr:stedsnr" v="874878" />
	</node>
	<node id="-696740" lat="68.4697222224" lon="16.6754888863">
		<tag k="name" v="Måsneset" />
		<tag k="natural" v="cape" />
		<tag k="ssr:stedsnr" v="482554" />
	</node>
	<node id="-696739" lat="68.4695361147" lon="16.6064277743">
		<tag k="name" v="Geitmyrbekken" />
		<tag k="ssr:stedsnr" v="464535" />
		<tag k="waterway" v="stream" />
	</node>
	<node id="-697247" lat="68.4934611087" lon="16.7213249968">
		<tag k="name" v="Kjerkhaugfossen" />
		<tag k="natural" v="waterfall" />
		<tag k="ssr:stedsnr" v="874072" />
	</node>
	<node id="-696219" lat="68.5243500009" lon="17.0703249989">
		<tag k="name" v="Tjønnan" />
		<tag k="natural" v="water" />
		<tag k="ssr:stedsnr" v="389877" />
	</node>
	<node id="-697239" lat="68.5184972248" lon="17.1675222316">
		<tag k="name" v="Joneset - Čoalmminjárga" />
		<tag k="name:no" v="Joneset" />
		<tag k="name:se" v="Čoalmminjárga" />
		<tag k="natural" v="cape" />
		<tag k="ssr:stedsnr" v="871406" />
	</node>
	<node id="-697234" lat="68.4593749957" lon="17.0743222295">
		<tag k="alt_name" v="Foratjørna" />
		<tag k="name" v="Forratjønna" />
		<tag k="natural" v="water" />
		<tag k="ssr:stedsnr" v="867962" />
	</node>
	<node id="-696683" lat="68.5328138854" lon="17.1681972142">
		<tag k="name" v="Kvigelva" />
		<tag k="ssr:stedsnr" v="449991" />
		<tag k="waterway" v="stream" />
	</node>
	<node id="-697231" lat="68.4985750008" lon="16.7285694327">
		<tag k="fixme" v="multiple name tags, choose one and add the other to alt_name" />
		<tag k="name" v="Kjerkhaugvatnet;Svenskevatnet - Venskkajávri" />
		<tag k="name:no" v="Kjerkhaugvatnet;Svenskevatnet" />
		<tag k="name:se" v="Venskkajávri" />
		<tag k="natural" v="water" />
		<tag k="ssr:stedsnr" v="867395" />
		<tag k="water" v="lake" />
	</node>
	<node id="-697229" lat="68.4662805565" lon="16.668150002">
		<tag k="name" v="Stunesosen" />
		<tag k="natural" v="bay" />
		<tag k="ssr:stedsnr" v="866437" />
	</node>
	<node id="-696376" lat="68.5356888862" lon="16.8703111123">
		<tag k="name" v="Mersskarelva" />
		<tag k="ssr:stedsnr" v="81612" />
		<tag k="waterway" v="stream" />
	</node>
	<node id="-696200" lat="68.4997166654" lon="16.8174472142">
		<tag k="name" v="Mølnelva" />
		<tag k="ssr:stedsnr" v="388026" />
		<tag k="waterway" v="river" />
	</node>
	<node id="-696199" lat="68.4964888886" lon="16.8200249994">
		<tag k="name" v="Stilleelva" />
		<tag k="ssr:stedsnr" v="388022" />
		<tag k="waterway" v="river" />
	</node>
	<node id="-697222" lat="68.4852833344" lon="16.79234722">
		<tag k="name" v="Elvekrokan" />
		<tag k="natural" v="bay" />
		<tag k="ssr:stedsnr" v="847612" />
	</node>
	<node id="-696709" lat="68.5198444475" lon="17.1602333402">
		<tag k="name" v="Krokelva" />
		<tag k="ssr:stedsnr" v="450913" />
		<tag k="waterway" v="river" />
	</node>
	<node id="-696708" lat="68.5139055522" lon="17.1530944355">
		<tag k="name" v="Lendinga" />
		<tag k="natural" v="bay" />
		<tag k="ssr:stedsnr" v="450906" />
	</node>
	<node id="-697219" lat="68.4613194437" lon="16.7334138906">
		<tag k="name" v="Skjellelva" />
		<tag k="ssr:stedsnr" v="847559" />
		<tag k="waterway" v="stream" />
	</node>
	<node id="-697218" lat="68.5032416639" lon="17.2250944315">
		<tag k="name" v="Lapplibekken" />
		<tag k="ssr:stedsnr" v="841017" />
		<tag k="waterway" v="stream" />
	</node>
	<node id="-696193" lat="68.5486861077" lon="17.0492777673">
		<tag k="name" v="Djupåvatnet" />
		<tag k="natural" v="water" />
		<tag k="ssr:stedsnr" v="384560" />
	</node>
	<node id="-696695" lat="68.5404972232" lon="17.2805000097">
		<tag k="name" v="Svanevasselva" />
		<tag k="ssr:stedsnr" v="450517" />
		<tag k="waterway" v="stream" />
	</node>
	<node id="-697205" lat="68.5331583363" lon="17.0184166575">
		<tag k="name" v="Rognsåneset" />
		<tag k="natural" v="cape" />
		<tag k="ssr:stedsnr" v="828033" />
	</node>
	<node id="-696179" lat="68.4635138908" lon="16.590741668">
		<tag k="name" v="Skardselva" />
		<tag k="ssr:stedsnr" v="380472" />
		<tag k="waterway" v="stream" />
	</node>
	<node id="-696178" lat="68.4839333353" lon="16.604738889">
		<tag k="alt_name" v="Lomtjørna" />
		<tag k="name" v="Lomtjønna" />
		<tag k="natural" v="water" />
		<tag k="ssr:stedsnr" v="380458" />
	</node>
	<node id="-697199" lat="68.5186944418" lon="17.1631527732">
		<tag k="name" v="Joneset" />
		<tag k="natural" v="cape" />
		<tag k="ssr:stedsnr" v="814907" />
	</node>
	<node id="-696210" lat="68.5243555578" lon="16.9725833207">
		<tag k="name" v="Gjerdelva" />
		<tag k="ssr:stedsnr" v="389771" />
		<tag k="waterway" v="river" />
	</node>
	<node id="-697190" lat="68.548861111" lon="17.2179194382">
		<tag k="name" v="Reinokselva" />
		<tag k="ssr:stedsnr" v="814508" />
		<tag k="waterway" v="stream" />
	</node>
	<node id="-696165" lat="68.5174388863" lon="17.1794250082">
		<tag k="name" v="Čoskajohka" />
		<tag k="name:se" v="Čoskajohka" />
		<tag k="ssr:stedsnr" v="355013" />
		<tag k="waterway" v="stream" />
	</node>
	<node id="-697188" lat="68.5067666646" lon="16.7310777817">
		<tag k="name" v="Nordelva - Čoalbmi" />
		<tag k="name:no" v="Nordelva" />
		<tag k="name:se" v="Čoalbmi" />
		<tag k="ssr:stedsnr" v="814386" />
		<tag k="waterway" v="river" />
	</node>
	<node id="-696161" lat="68.4867805543" lon="16.6341999879">
		<tag k="name" v="Store Nøkktjønna" />
		<tag k="natural" v="water" />
		<tag k="ssr:stedsnr" v="342448" />
	</node>
	<node id="-697183" lat="68.5020138907" lon="16.7162111062">
		<tag k="name" v="Krokelva" />
		<tag k="ssr:stedsnr" v="813055" />
		<tag k="waterway" v="stream" />
	</node>
	<node id="-696156" lat="68.5240749985" lon="17.2138527675">
		<tag k="name" v="Lomvatnet" />
		<tag k="natural" v="water" />
		<tag k="ssr:stedsnr" v="342063" />
	</node>
	<node id="-696667" lat="68.5426916665" lon="17.2798972319">
		<tag k="name" v="Svanevatnet" />
		<tag k="natural" v="water" />
		<tag k="ssr:stedsnr" v="445603" />
	</node>
	<node id="-697176" lat="68.5629722203" lon="16.8407083426">
		<tag k="name" v="Kvannbekken" />
		<tag k="ssr:stedsnr" v="809929" />
		<tag k="waterway" v="stream" />
	</node>
	<node id="-697173" lat="68.5444305597" lon="16.9736250029">
		<tag k="name" v="Åsslettvatnet" />
		<tag k="natural" v="water" />
		<tag k="ssr:stedsnr" v="809604" />
	</node>
	<node id="-697172" lat="68.5333638873" lon="17.277483342">
		<tag k="name" v="Skallvasselva" />
		<tag k="ssr:stedsnr" v="809591" />
		<tag k="waterway" v="stream" />
	</node>
	<node id="-696147" lat="68.5121805587" lon="17.1254916551">
		<tag k="name" v="Småvatnan" />
		<tag k="natural" v="water" />
		<tag k="ssr:stedsnr" v="328910" />
		<tag k="water" v="lake" />
	</node>
	<node id="-696144" lat="68.5203805583" lon="17.1788055441">
		<tag k="name" v="Hornholman" />
		<tag k="place" v="islet" />
		<tag k="ssr:stedsnr" v="328883" />
	</node>
	<node id="-696655" lat="68.4955333331" lon="16.7114027848">
		<tag k="name" v="Nautåvatnet" />
		<tag k="natural" v="water" />
		<tag k="ssr:stedsnr" v="442384" />
	</node>
	<node id="-696717" lat="68.52275833" lon="17.2292722215">
		<tag k="name" v="Rundkollelva" />
		<tag k="ssr:stedsnr" v="464097" />
		<tag k="waterway" v="stream" />
	</node>
	<node id="-696651" lat="68.4832500004" lon="17.2499166684">
		<tag k="alt_name" v="Pølsevatnet" />
		<tag k="name" v="Pølsvatnet" />
		<tag k="natural" v="water" />
		<tag k="ssr:stedsnr" v="441522" />
	</node>
	<node id="-696646" lat="68.4878166671" lon="16.6003694425">
		<tag k="name" v="Sælebotelva" />
		<tag k="ssr:stedsnr" v="441381" />
		<tag k="waterway" v="stream" />
	</node>
	<node id="-696630" lat="68.5156916643" lon="17.1564888934">
		<tag k="name" v="Lille Geitholmen" />
		<tag k="place" v="islet" />
		<tag k="ssr:stedsnr" v="268900" />
	</node>
	<node id="-696631" lat="68.5287583309" lon="17.1915166636">
		<tag k="name" v="Røytelva" />
		<tag k="ssr:stedsnr" v="268907" />
		<tag k="waterway" v="river" />
	</node>
	<node id="-696118" lat="68.5044416661" lon="16.821955555">
		<tag k="name" v="Høystakkveien" />
		<tag k="ssr:stedsnr" v="328029" />
		<tag k="waterway" v="river" />
	</node>
	<node id="-697141" lat="68.529558333" lon="17.244861098">
		<tag k="name" v="Moltebærholmen" />
		<tag k="place" v="islet" />
		<tag k="ssr:stedsnr" v="767083" />
	</node>
	<node id="-696628" lat="68.5208833361" lon="17.1731138992">
		<tag k="name" v="Geitholmen - Gáicasuolu" />
		<tag k="name:no" v="Geitholmen" />
		<tag k="name:se" v="Gáicasuolu" />
		<tag k="place" v="islet" />
		<tag k="ssr:stedsnr" v="268885" />
	</node>
	<node id="-696115" lat="68.5554388855" lon="16.9042888804">
		<tag k="name" v="Skinnstakkvatnan - Geatkelágojávrrik" />
		<tag k="name:no" v="Skinnstakkvatnan" />
		<tag k="name:se" v="Geatkelágojávrrik" />
		<tag k="natural" v="water" />
		<tag k="ssr:stedsnr" v="323930" />
	</node>
	<node id="-696113" lat="68.5634666686" lon="16.8953000049">
		<tag k="name" v="Luggevatnet" />
		<tag k="natural" v="water" />
		<tag k="ssr:stedsnr" v="323926" />
	</node>
	<node id="-696111" lat="68.5114305535" lon="17.1058305561">
		<tag k="alt_name:no" v="Austervikelva" />
		<tag k="name" v="Østervikelva - Stuorjohka" />
		<tag k="name:no" v="Østervikelva" />
		<tag k="name:se" v="Stuorjohka" />
		<tag k="ssr:stedsnr" v="323632" />
		<tag k="waterway" v="river" />
	</node>
	<node id="-696110" lat="68.5180805517" lon="16.8652277728">
		<tag k="name" v="Siriåsvatnet" />
		<tag k="natural" v="water" />
		<tag k="ssr:stedsnr" v="323628" />
	</node>
	<node id="-696109" lat="68.5452555548" lon="17.218641669">
		<tag k="name" v="Grunnvatnet - Doggejávri" />
		<tag k="name:no" v="Grunnvatnet" />
		<tag k="name:se" v="Doggejávri" />
		<tag k="natural" v="water" />
		<tag k="ssr:stedsnr" v="323605" />
	</node>
	<node id="-696108" lat="68.5405888857" lon="16.8427861049">
		<tag k="name" v="Mersskarvatnet" />
		<tag k="natural" v="water" />
		<tag k="ssr:stedsnr" v="323601" />
	</node>
	<node id="-696107" lat="68.5434611144" lon="17.0509611052">
		<tag k="name" v="Djupåa" />
		<tag k="ssr:stedsnr" v="323592" />
		<tag k="waterway" v="stream" />
	</node>
	<node id="-697129" lat="68.545947221" lon="16.8774472244">
		<tag k="name" v="Kjerkelva" />
		<tag k="ssr:stedsnr" v="755277" />
		<tag k="waterway" v="stream" />
	</node>
	<node id="-696616" lat="68.5296" lon="16.9881916642">
		<tag k="name" v="Storbruelva" />
		<tag k="ssr:stedsnr" v="268775" />
		<tag k="waterway" v="river" />
	</node>
	<node id="-697126" lat="68.5379972233" lon="17.1833888904">
		<tag k="name" v="Gorsajohka" />
		<tag k="name:se" v="Gorsajohka" />
		<tag k="old_name:se" v="Gorsajokka" />
		<tag k="ssr:stedsnr" v="753992" />
		<tag k="waterway" v="stream" />
	</node>
	<node id="-696100" lat="68.4670194443" lon="17.2174249905">
		<tag k="name" v="Mølnelva" />
		<tag k="ssr:stedsnr" v="321466" />
		<tag k="waterway" v="stream" />
	</node>
	<node id="-697123" lat="68.5134250037" lon="17.1190722254">
		<tag k="name" v="Svendvad" />
		<tag k="natural" v="water" />
		<tag k="ssr:stedsnr" v="753905" />
		<tag k="water" v="lake" />
	</node>
	<node id="-696098" lat="68.484977781" lon="16.9421583218">
		<tag k="alt_name" v="Lillevatnet" />
		<tag k="name" v="Litlevatnet" />
		<tag k="natural" v="water" />
		<tag k="ssr:stedsnr" v="320510" />
	</node>
	<node id="-696095" lat="68.4781638862" lon="16.6114388966">
		<tag k="alt_name" v="Langmarksvannet" />
		<tag k="name" v="Langmarksvatnet" />
		<tag k="natural" v="water" />
		<tag k="ssr:stedsnr" v="320432" />
	</node>
	<node id="-696094" lat="68.484161114" lon="16.5636499985">
		<tag k="name" v="Holmevatnet" />
		<tag k="natural" v="water" />
		<tag k="ssr:stedsnr" v="320431" />
	</node>
	<node id="-696093" lat="68.4888333305" lon="16.7957833214">
		<tag k="name" v="Dalelva" />
		<tag k="ssr:stedsnr" v="320425" />
		<tag k="waterway" v="stream" />
	</node>
	<node id="-696604" lat="68.4929166647" lon="16.7045416674">
		<tag k="name" v="Nautåa" />
		<tag k="ssr:stedsnr" v="267034" />
		<tag k="waterway" v="river" />
	</node>
	<node id="-696091" lat="68.4670888924" lon="16.6212416781">
		<tag k="name" v="Ytterelva" />
		<tag k="ssr:stedsnr" v="320409" />
		<tag k="waterway" v="stream" />
	</node>
	<node id="-696087" lat="68.5192333314" lon="16.8323027806">
		<tag k="name" v="Sennvatnet" />
		<tag k="natural" v="water" />
		<tag k="ssr:stedsnr" v="300666" />
	</node>
	<node id="-696598" lat="68.5440805552" lon="17.2543944543">
		<tag k="name" v="Andvasselva" />
		<tag k="ssr:stedsnr" v="263610" />
		<tag k="waterway" v="stream" />
	</node>
	<node id="-697108" lat="68.5263138846" lon="16.996177783">
		<tag k="name" v="Strandelva - Rándajohka" />
		<tag k="name:no" v="Strandelva" />
		<tag k="name:se" v="Rándajohka" />
		<tag k="ssr:stedsnr" v="753761" />
		<tag k="waterway" v="river" />
	</node>
	<node id="-696595" lat="68.5306833299" lon="17.2457361191">
		<tag k="name" v="Holmvatnet - Suolojávri" />
		<tag k="name:no" v="Holmvatnet" />
		<tag k="name:se" v="Suolojávri" />
		<tag k="natural" v="water" />
		<tag k="ssr:stedsnr" v="263582" />
		<tag k="water" v="lake" />
	</node>
	<node id="-696707" lat="68.5214472207" lon="17.1879194525">
		<tag k="name" v="Elvenesan" />
		<tag k="natural" v="cape" />
		<tag k="ssr:stedsnr" v="450899" />
	</node>
	<node id="-696798" lat="68.5262055585" lon="17.1849500085">
		<tag k="name" v="Storholmen" />
		<tag k="place" v="islet" />
		<tag k="ssr:stedsnr" v="510924" />
	</node>
	<node id="-696194" lat="68.5390638888" lon="16.8677305426">
		<tag k="name" v="Klubbfjellvatnet" />
		<tag k="natural" v="water" />
		<tag k="ssr:stedsnr" v="384574" />
	</node>
	<node id="-696074" lat="68.4749527766" lon="16.6114805521">
		<tag k="name" v="Reinskinndalselva" />
		<tag k="ssr:stedsnr" v="282512" />
		<tag k="waterway" v="stream" />
	</node>
	<node id="-696073" lat="68.4836833309" lon="16.631824994">
		<tag k="name" v="Lille Nøkktjønna" />
		<tag k="natural" v="water" />
		<tag k="ssr:stedsnr" v="282506" />
	</node>
	<node id="-696068" lat="68.5393916702" lon="17.0439500044">
		<tag k="name" v="Olderneset" />
		<tag k="natural" v="cape" />
		<tag k="ssr:stedsnr" v="282105" />
	</node>
	<node id="-697091" lat="68.5668222206" lon="16.9861027737">
		<tag k="name" v="Blåvatnet - Seamulvákkejávri" />
		<tag k="name:no" v="Blåvatnet" />
		<tag k="name:se" v="Seamulvákkejávri" />
		<tag k="natural" v="water" />
		<tag k="ssr:stedsnr" v="748938" />
		<tag k="water" v="lake" />
	</node>
	<node id="-696578" lat="68.475375002" lon="16.7766361216">
		<tag k="name" v="Åsvatnet" />
		<tag k="natural" v="water" />
		<tag k="ssr:stedsnr" v="240641" />
	</node>
	<node id="-697089" lat="68.5227916656" lon="17.178172224">
		<tag k="alt_name:no" v="Austervikvatnet" />
		<tag k="name" v="Østervikvatnet - Duorggajávri" />
		<tag k="name:no" v="Østervikvatnet" />
		<tag k="name:se" v="Duorggajávri" />
		<tag k="natural" v="water" />
		<tag k="ssr:stedsnr" v="748635" />
		<tag k="water" v="lake" />
	</node>
	<node id="-697084" lat="68.5161166641" lon="17.0833055604">
		<tag k="name" v="Mølnelva" />
		<tag k="ssr:stedsnr" v="747513" />
		<tag k="waterway" v="stream" />
	</node>
	<node id="-697082" lat="68.4841055536" lon="17.1151499935">
		<tag k="name" v="Nordelva" />
		<tag k="ssr:stedsnr" v="744473" />
		<tag k="waterway" v="stream" />
	</node>
	<node id="-697081" lat="68.4862555552" lon="16.6282222221">
		<tag k="alt_name" v="Anfinnvatnet" />
		<tag k="name" v="Annfinnvatnet" />
		<tag k="natural" v="water" />
		<tag k="ssr:stedsnr" v="744343" />
	</node>
	<node id="-696553" lat="68.5095222243" lon="17.133947228">
		<tag k="name" v="Elvekroken - Johkamohkki" />
		<tag k="name:no" v="Elvekroken" />
		<tag k="name:se" v="Johkamohkki" />
		<tag k="natural" v="water" />
		<tag k="ssr:stedsnr" v="207900" />
		<tag k="water" v="lake" />
	</node>
	<node id="-697064" lat="68.4671527756" lon="16.6452111091">
		<tag k="name" v="Langmyrelva" />
		<tag k="ssr:stedsnr" v="707535" />
		<tag k="waterway" v="stream" />
	</node>
	<node id="-696551" lat="68.5121916636" lon="17.0558">
		<tag k="name" v="Gårdsbekken" />
		<tag k="ssr:stedsnr" v="207878" />
		<tag k="waterway" v="stream" />
	</node>
	<node id="-697062" lat="68.5477111145" lon="17.0011250101">
		<tag k="name" v="Djupåneset" />
		<tag k="natural" v="cape" />
		<tag k="ssr:stedsnr" v="707109" />
	</node>
	<node id="-696711" lat="68.5507777768" lon="16.8635083365">
		<tag k="name" v="Sprutelva" />
		<tag k="ssr:stedsnr" v="452252" />
		<tag k="waterway" v="river" />
	</node>
	<node id="-697058" lat="68.481877775" lon="17.1597333253">
		<tag k="name" v="Kvanntoheielva" />
		<tag k="ssr:stedsnr" v="706092" />
		<tag k="waterway" v="stream" />
	</node>
	<node id="-696545" lat="68.5235583355" lon="16.9726777659">
		<tag k="name" v="Jørnelva" />
		<tag k="ssr:stedsnr" v="207768" />
		<tag k="waterway" v="river" />
	</node>
	<node id="-697056" lat="68.4697333367" lon="17.2034972126">
		<tag k="name" v="Storlivatnet" />
		<tag k="natural" v="water" />
		<tag k="ssr:stedsnr" v="706069" />
	</node>
	<node id="-697055" lat="68.4687750005" lon="17.2611555472">
		<tag k="name" v="Grolielva" />
		<tag k="ssr:stedsnr" v="706067" />
		<tag k="waterway" v="stream" />
	</node>
	<node id="-697295" lat="68.5159638923" lon="16.8463555474">
		<tag k="alt_name" v="Grønlivatnet" />
		<tag k="name" v="Grønnlivatnet" />
		<tag k="natural" v="water" />
		<tag k="ssr:stedsnr" v="930546" />
	</node>
	<node id="-696534" lat="68.493552774" lon="16.9017888873">
		<tag k="name" v="Kjørrlauken" />
		<tag k="ssr:stedsnr" v="207228" />
		<tag k="waterway" v="stream" />
	</node>
	<node id="-697042" lat="68.5205888862" lon="17.1880055508">
		<tag k="name" v="Austerkjosen" />
		<tag k="natural" v="bay" />
		<tag k="ssr:stedsnr" v="692889" />
	</node>
	<node id="-697039" lat="68.503627777" lon="17.0973138818">
		<tag k="name" v="Mølnelva" />
		<tag k="ssr:stedsnr" v="692821" />
		<tag k="waterway" v="stream" />
	</node>
	<node id="-696525" lat="68.4955555582" lon="16.8132833289">
		<tag k="name" v="Anderselva" />
		<tag k="ssr:stedsnr" v="206025" />
		<tag k="waterway" v="river" />
	</node>
	<node id="-697034" lat="68.5264000011" lon="17.0151416734">
		<tag k="name" v="Båtvika" />
		<tag k="natural" v="bay" />
		<tag k="ssr:stedsnr" v="692743" />
	</node>
	<node id="-696519" lat="68.5293999971" lon="17.2312749885">
		<tag k="name" v="Vesterkjosen" />
		<tag k="natural" v="bay" />
		<tag k="ssr:stedsnr" v="202609" />
	</node>
	<node id="-696518" lat="68.5321027765" lon="17.151825008">
		<tag k="name" v="Tverrelva" />
		<tag k="ssr:stedsnr" v="202545" />
		<tag k="waterway" v="stream" />
	</node>
	<node id="-696511" lat="68.4870083325" lon="16.9363027761">
		<tag k="name" v="Svartvatnet" />
		<tag k="natural" v="water" />
		<tag k="ssr:stedsnr" v="198515" />
	</node>
	<node id="-697020" lat="68.4781250025" lon="17.2922138837">
		<tag k="name" v="Kvannelva" />
		<tag k="ssr:stedsnr" v="689616" />
		<tag k="waterway" v="stream" />
	</node>
	<node id="-697016" lat="68.5425222212" lon="17.2659805566">
		<tag k="name" v="Hundelva - Beanajohka" />
		<tag k="name:no" v="Hundelva" />
		<tag k="name:se" v="Beanajohka" />
		<tag k="ssr:stedsnr" v="687617" />
		<tag k="waterway" v="stream" />
	</node>
	<node id="-697012" lat="68.5379749993" lon="17.2100444313">
		<tag k="name" v="Røytelva - Guohcajohka" />
		<tag k="name:no" v="Røytelva" />
		<tag k="name:se" v="Guohcajohka" />
		<tag k="ssr:stedsnr" v="687594" />
		<tag k="waterway" v="stream" />
	</node>
	<node id="-697171" lat="68.4749055539" lon="17.1839666568">
		<tag k="name" v="Holmvatnet" />
		<tag k="natural" v="water" />
		<tag k="ssr:stedsnr" v="806505" />
	</node>
	<node id="-696498" lat="68.4820111104" lon="17.1359638885">
		<tag k="name" v="Storelva" />
		<tag k="ssr:stedsnr" v="160093" />
		<tag k="waterway" v="stream" />
	</node>
	<node id="-697009" lat="68.4974027756" lon="16.8356916585">
		<tag k="name" v="Osvatnet" />
		<tag k="natural" v="water" />
		<tag k="ssr:stedsnr" v="685539" />
		<tag k="water" v="lake" />
	</node>
	<node id="-697002" lat="68.5006083341" lon="16.9046472207">
		<tag k="alt_name" v="Laksåga;Lakselva" />
		<tag k="name" v="Laksåa" />
		<tag k="ssr:stedsnr" v="685429" />
		<tag k="waterway" v="river" />
	</node>
	<node id="-696482" lat="68.5501305546" lon="16.8612555473">
		<tag k="name" v="Spruten" />
		<tag k="natural" v="waterfall" />
		<tag k="ssr:stedsnr" v="148280" />
	</node>
	<node id="-696479" lat="68.5260388884" lon="17.1440611128">
		<tag k="name" v="Krokelva" />
		<tag k="ssr:stedsnr" v="146911" />
		<tag k="waterway" v="river" />
	</node>
	<node id="-696989" lat="68.4735694435" lon="16.7800583311">
		<tag k="name" v="Forsvatnet" />
		<tag k="natural" v="water" />
		<tag k="ssr:stedsnr" v="664587" />
	</node>
	<node id="-696988" lat="68.4837277809" lon="16.7992888772">
		<tag k="name" v="Tverrelva" />
		<tag k="ssr:stedsnr" v="664585" />
		<tag k="waterway" v="stream" />
	</node>
	<node id="-696984" lat="68.5278388854" lon="16.7538805529">
		<tag k="name" v="Larsefossen - Lássegorži" />
		<tag k="name:no" v="Larsefossen" />
		<tag k="name:se" v="Lássegorži" />
		<tag k="natural" v="waterfall" />
		<tag k="ssr:stedsnr" v="646648" />
	</node>
	<node id="-696468" lat="68.5303611109" lon="17.2517166656">
		<tag k="name" v="Tofteneset" />
		<tag k="natural" v="cape" />
		<tag k="ssr:stedsnr" v="146456" />
	</node>
	<node id="-696978" lat="68.5334416641" lon="17.0711638927">
		<tag k="name" v="Krokelva" />
		<tag k="ssr:stedsnr" v="645081" />
		<tag k="waterway" v="stream" />
	</node>
	<node id="-697203" lat="68.4600305538" lon="17.1144027666">
		<tag k="name" v="Sommarfjøsbekken" />
		<tag k="ssr:stedsnr" v="828026" />
		<tag k="waterway" v="stream" />
	</node>
	<node id="-696770" lat="68.5430500043" lon="16.7937527706">
		<tag k="name" v="Kvitforsen" />
		<tag k="natural" v="waterfall" />
		<tag k="ssr:stedsnr" v="505764" />
	</node>
	<node id="-696499" lat="68.4804055556" lon="17.1437555619">
		<tag k="name" v="Elvekrokan" />
		<tag k="natural" v="bay" />
		<tag k="ssr:stedsnr" v="160098" />
	</node>
	<node id="-696455" lat="68.5582694444" lon="17.2175444383">
		<tag k="name" v="Skredelva" />
		<tag k="ssr:stedsnr" v="141918" />
		<tag k="waterway" v="stream" />
	</node>
	<node id="-696453" lat="68.511586114" lon="16.7331000085">
		<tag k="fixme" v="multiple name tags, choose one and add the other to alt_name" />
		<tag k="name" v="Nordvatnet;Pålvatnet - Bovelajávri" />
		<tag k="name:no" v="Nordvatnet;Pålvatnet" />
		<tag k="name:se" v="Bovelajávri" />
		<tag k="natural" v="water" />
		<tag k="ssr:stedsnr" v="141793" />
	</node>
	<node id="-696961" lat="68.5505611077" lon="16.865002764">
		<tag k="name" v="Skinnstakkelva" />
		<tag k="ssr:stedsnr" v="634284" />
		<tag k="waterway" v="stream" />
	</node>
	<node id="-696445" lat="68.5468694482" lon="16.8862388956">
		<tag k="name" v="Svartvatnet" />
		<tag k="natural" v="water" />
		<tag k="ssr:stedsnr" v="141589" />
	</node>
	<node id="-696956" lat="68.5169638868" lon="17.162644445">
		<tag k="name" v="Kvassneset" />
		<tag k="natural" v="cape" />
		<tag k="ssr:stedsnr" v="631903" />
	</node>
	<node id="-696443" lat="68.4752472234" lon="17.1017027677">
		<tag k="alt_name" v="Kerstielva" />
		<tag k="name" v="Kirstielva" />
		<tag k="ssr:stedsnr" v="138519" />
		<tag k="waterway" v="river" />
	</node>
	<node id="-696442" lat="68.4765972248" lon="17.2082972098">
		<tag k="name" v="Fuglvatnet" />
		<tag k="natural" v="water" />
		<tag k="ssr:stedsnr" v="138514" />
	</node>
	<node id="-696953" lat="68.5045638852" lon="17.0711194525">
		<tag k="name" v="Ånnhalsen" />
		<tag k="natural" v="bay" />
		<tag k="ssr:stedsnr" v="631879" />
	</node>
	<node id="-696440" lat="68.4671944456" lon="17.2345916704">
		<tag k="name" v="Sommarvikelva" />
		<tag k="ssr:stedsnr" v="138499" />
		<tag k="waterway" v="stream" />
	</node>
	<node id="-696438" lat="68.4794999998" lon="16.567138888">
		<tag k="name" v="Storvassåsvatnet" />
		<tag k="natural" v="water" />
		<tag k="ssr:stedsnr" v="137421" />
	</node>
	<node id="-696435" lat="68.5285777819" lon="16.867516672">
		<tag k="name" v="Tverrelva" />
		<tag k="ssr:stedsnr" v="118634" />
		<tag k="waterway" v="stream" />
	</node>
	<node id="-696945" lat="68.5302444425" lon="17.2465749997">
		<tag k="name" v="Moltebærholmen" />
		<tag k="place" v="islet" />
		<tag k="ssr:stedsnr" v="631475" />
	</node>
	<node id="-696944" lat="68.5323666668" lon="17.2272722196">
		<tag k="name" v="Stillhølla" />
		<tag k="natural" v="water" />
		<tag k="ssr:stedsnr" v="631463" />
		<tag k="water" v="lake" />
	</node>
	<node id="-696430" lat="68.4760222185" lon="16.7839416523">
		<tag k="name" v="Elsemyrvatnet" />
		<tag k="natural" v="water" />
		<tag k="ssr:stedsnr" v="118559" />
		<tag k="water" v="pond" />
	</node>
	<node id="-696427" lat="68.5214555598" lon="17.1912138807">
		<tag k="alt_name" v="Bjerkåselva" />
		<tag k="name" v="Bjørkåselva" />
		<tag k="ssr:stedsnr" v="113022" />
		<tag k="waterway" v="stream" />
	</node>
	<node id="-696425" lat="68.4854083373" lon="16.6599333361">
		<tag k="name" v="Vassneset" />
		<tag k="natural" v="cape" />
		<tag k="ssr:stedsnr" v="100524" />
	</node>
	<node id="-696934" lat="68.4961805557" lon="16.8313388938">
		<tag k="name" v="Elenneset" />
		<tag k="natural" v="cape" />
		<tag k="ssr:stedsnr" v="631023" />
	</node>
	<node id="-696656" lat="68.4978388888" lon="16.566088892">
		<tag k="name" v="Kolvatnet" />
		<tag k="natural" v="water" />
		<tag k="ssr:stedsnr" v="442404" />
	</node>
	<node id="-696678" lat="68.5046888914" lon="16.8305111008">
		<tag k="name" v="Baklielva" />
		<tag k="ssr:stedsnr" v="449015" />
		<tag k="waterway" v="river" />
	</node>
	<node id="-696763" lat="68.535347218" lon="17.0790666684">
		<tag k="name" v="Tverrelva - Jalgesjohka" />
		<tag k="name:no" v="Tverrelva" />
		<tag k="name:se" v="Jalgesjohka" />
		<tag k="ssr:stedsnr" v="505570" />
		<tag k="waterway" v="stream" />
	</node>
	<node id="-696928" lat="68.5167638929" lon="16.8862944443">
		<tag k="name" v="Laksåvatnet" />
		<tag k="natural" v="water" />
		<tag k="ssr:stedsnr" v="626641" />
	</node>
	<node id="-696415" lat="68.5473999963" lon="17.0140527667">
		<tag k="name" v="Middagselva" />
		<tag k="ssr:stedsnr" v="100088" />
		<tag k="waterway" v="stream" />
	</node>
	<node id="-696933" lat="68.4957583313" lon="16.8682361113">
		<tag k="name" v="Oselva" />
		<tag k="ssr:stedsnr" v="631018" />
		<tag k="waterway" v="river" />
	</node>
	<node id="-696412" lat="68.5294166685" lon="17.2601083388">
		<tag k="name" v="Skollelva" />
		<tag k="ssr:stedsnr" v="100067" />
		<tag k="waterway" v="stream" />
	</node>
	<node id="-696411" lat="68.5478249999" lon="16.9954499889">
		<tag k="name" v="Djupåa" />
		<tag k="ssr:stedsnr" v="100054" />
		<tag k="waterway" v="stream" />
	</node>
	<node id="-696409" lat="68.461272227" lon="17.1778638801">
		<tag k="name" v="Bukkelva" />
		<tag k="ssr:stedsnr" v="100024" />
		<tag k="waterway" v="stream" />
	</node>
	<node id="-696676" lat="68.4714583364" lon="17.2764249971">
		<tag k="name" v="Holmelva" />
		<tag k="ssr:stedsnr" v="446677" />
		<tag k="waterway" v="stream" />
	</node>
	<node id="-696405" lat="68.5342277755" lon="16.8712861092">
		<tag k="name" v="Klubbfjellelva" />
		<tag k="ssr:stedsnr" v="88221" />
		<tag k="waterway" v="river" />
	</node>
	<node id="-696916" lat="68.473291669" lon="16.8177305542">
		<tag k="name" v="Vikelva" />
		<tag k="ssr:stedsnr" v="603614" />
		<tag k="waterway" v="stream" />
	</node>
	<node id="-696593" lat="68.5506527813" lon="17.2237333407">
		<tag k="name" v="Botnelva - Heargejohka" />
		<tag k="name:no" v="Botnelva" />
		<tag k="name:se" v="Heargejohka" />
		<tag k="ssr:stedsnr" v="262595" />
		<tag k="waterway" v="stream" />
	</node>
	<node id="-696907" lat="68.485905557" lon="16.6738027728">
		<tag k="name" v="Munneselva" />
		<tag k="ssr:stedsnr" v="585501" />
		<tag k="waterway" v="stream" />
	</node>
	<node id="-696394" lat="68.5362694424" lon="16.8488249898">
		<tag k="name" v="Tverrelva" />
		<tag k="ssr:stedsnr" v="86788" />
		<tag k="waterway" v="stream" />
	</node>
	<node id="-696391" lat="68.5344250043" lon="17.2700416702">
		<tag k="name" v="Toftevatnet" />
		<tag k="natural" v="water" />
		<tag k="ssr:stedsnr" v="86516" />
		<tag k="water" v="lake" />
	</node>
	<node id="-696902" lat="68.4838500013" lon="16.5778027868">
		<tag k="name" v="Ole Hjørnåsvatnet" />
		<tag k="natural" v="water" />
		<tag k="ssr:stedsnr" v="585466" />
	</node>
	<node id="-696898" lat="68.5463499991" lon="17.0080555632">
		<tag k="name" v="Slettneset" />
		<tag k="natural" v="cape" />
		<tag k="ssr:stedsnr" v="585099" />
	</node>
	<node id="-696331" lat="68.5146499953" lon="17.1152694496">
		<tag k="name" v="Snubbaelva" />
		<tag k="ssr:stedsnr" v="25865" />
		<tag k="waterway" v="stream" />
	</node>
	<node id="-696894" lat="68.5496555585" lon="16.858905561">
		<tag k="name" v="Sprutosan" />
		<tag k="place" v="locality" />
		<tag k="ssr:stedsnr" v="573262" />
	</node>
	<node id="-696381" lat="68.4999527797" lon="16.8524694414">
		<tag k="name" v="Grønnlibekken" />
		<tag k="ssr:stedsnr" v="85010" />
		<tag k="waterway" v="stream" />
	</node>
	<node id="-696892" lat="68.5552805536" lon="16.8805055446">
		<tag k="name" v="Nedste Skinnstakkvatn" />
		<tag k="natural" v="water" />
		<tag k="ssr:stedsnr" v="573177" />
		<tag k="water" v="lake" />
	</node>
	<node id="-696586" lat="68.469049996" lon="16.6801027833">
		<tag k="alt_name" v="Kjerkevatnet" />
		<tag k="name" v="Kjerkvatnet" />
		<tag k="natural" v="water" />
		<tag k="ssr:stedsnr" v="259408" />
	</node>
	<node id="-696890" lat="68.521633329" lon="17.1217250048">
		<tag k="name" v="Snubbkollelva - Ráigejohka" />
		<tag k="name:no" v="Snubbkollelva" />
		<tag k="name:se" v="Ráigejohka" />
		<tag k="ssr:stedsnr" v="571915" />
		<tag k="waterway" v="stream" />
	</node>
	<node id="-696671" lat="68.517952781" lon="16.9188444388">
		<tag k="name" v="Storelva" />
		<tag k="ssr:stedsnr" v="445642" />
		<tag k="waterway" v="stream" />
	</node>
	<node id="-696888" lat="68.5165027783" lon="17.1542972316">
		<tag k="name" v="Ripnes" />
		<tag k="natural" v="cape" />
		<tag k="ssr:stedsnr" v="571899" />
	</node>
	<node id="-696886" lat="68.5221722215" lon="17.0448360973">
		<tag k="name" v="Lisbetvatnet" />
		<tag k="natural" v="water" />
		<tag k="ssr:stedsnr" v="571892" />
	</node>
	<node id="-697011" lat="68.537366664" lon="17.2671499973">
		<tag k="name" v="Austerkjosen" />
		<tag k="natural" v="bay" />
		<tag k="ssr:stedsnr" v="687591" />
	</node>
	<node id="-696367" lat="68.4970777792" lon="16.6153000052">
		<tag k="name" v="Kolelva" />
		<tag k="ssr:stedsnr" v="78377" />
		<tag k="waterway" v="stream" />
	</node>
	<node id="-696366" lat="68.4933694476" lon="16.6013277842">
		<tag k="alt_name" v="Kvantoelva" />
		<tag k="name" v="Kvanntoelva" />
		<tag k="ssr:stedsnr" v="78375" />
		<tag k="waterway" v="stream" />
	</node>
	<node id="-696363" lat="68.4928888859" lon="16.7423138754">
		<tag k="name" v="Gjertrudelva" />
		<tag k="ssr:stedsnr" v="77441" />
		<tag k="waterway" v="stream" />
	</node>
	<node id="-696869" lat="68.5428277794" lon="17.2440555529">
		<tag k="name" v="Lomvatnet" />
		<tag k="natural" v="water" />
		<tag k="ssr:stedsnr" v="571498" />
		<tag k="water" v="lake" />
	</node>
	<node id="-696356" lat="68.4721416704" lon="16.6793305643">
		<tag k="name" v="Migmaurneset" />
		<tag k="natural" v="cape" />
		<tag k="ssr:stedsnr" v="58579" />
	</node>
	<node id="-696353" lat="68.4807583324" lon="16.6638194389">
		<tag k="name" v="Vassbotnelva" />
		<tag k="ssr:stedsnr" v="39484" />
		<tag k="waterway" v="stream" />
	</node>
	<node id="-696351" lat="68.4817583354" lon="17.190347219">
		<tag k="name" v="Kvanntoheivatnet" />
		<tag k="natural" v="water" />
		<tag k="ssr:stedsnr" v="39100" />
	</node>
	<node id="-696580" lat="68.4808666633" lon="17.120794449">
		<tag k="name" v="Gårdselva" />
		<tag k="ssr:stedsnr" v="259506" />
		<tag k="waterway" v="river" />
	</node>
	<node id="-696338" lat="68.5145055559" lon="17.1531749894">
		<tag k="name" v="Hestneset" />
		<tag k="natural" v="cape" />
		<tag k="ssr:stedsnr" v="26874" />
	</node>
	<node id="-696749" lat="68.4953694487" lon="16.6658250022">
		<tag k="name" v="Lavangsvatnet - Loabákjávri" />
		<tag k="name:no" v="Lavangsvatnet" />
		<tag k="name:se" v="Loabákjávri" />
		<tag k="natural" v="water" />
		<tag k="ssr:stedsnr" v="502373" />
		<tag k="water" v="lake" />
	</node>
	<node id="-696066" lat="68.4744472188" lon="17.2187888842">
		<tag k="name" v="Hundvatnet" />
		<tag k="natural" v="water" />
		<tag k="ssr:stedsnr" v="282093" />
	</node>
	<node id="-696838" lat="68.5078972235" lon="16.8708722308">
		<tag k="name" v="Vasselva" />
		<tag k="ssr:stedsnr" v="566605" />
		<tag k="waterway" v="stream" />
	</node>
	<node id="-696577" lat="68.4851138904" lon="16.7770333367">
		<tag k="name" v="Maridalsbekken" />
		<tag k="ssr:stedsnr" v="240633" />
		<tag k="waterway" v="stream" />
	</node>
	<node id="-697347" lat="68.4840055558" lon="16.6638861074">
		<tag k="name" v="Vassbotn" />
		<tag k="natural" v="bay" />
		<tag k="ssr:stedsnr" v="949480" />
	</node>
</osm>
