<?xml version="1.0" encoding="UTF-8"?>
<<<<<<< HEAD
<osm version="0.6" generator="osmapis">
	<node lat="68.472330551592" lon="16.637527782274095" id="-9290">
=======
<osm generator="osmapis" version="0.6">
	<node id="-185808" lat="68.4551666637" lon="17.0944166746">
		<tag k="highway" v="path" />
		<tag k="name" v="Huggvikvegen" />
		<tag k="ssr:stedsnr" v="39031" />
	</node>
	<node id="-185150" lat="68.4723305516" lon="16.6375277823">
>>>>>>> e1d4bc35ff8a6074a6f2e91616a996b547c36f15
		<tag k="highway" v="path" />
		<tag k="name" v="Hellarhøgveien" />
		<tag k="ssr:stedsnr" v="100520" />
	</node>
<<<<<<< HEAD
	<node lat="68.49020738814203" lon="16.680181630478486" id="-9323">
=======
	<node id="-186231" lat="68.5210055558" lon="17.0794944454">
		<tag k="highway" v="path" />
		<tag k="name" v="Høyvegen" />
		<tag k="ssr:stedsnr" v="753861" />
	</node>
	<node id="-185366" lat="68.5185611086" lon="16.7804499889">
		<tag k="highway" v="path" />
		<tag k="name" v="Sáttogeaidnu" />
		<tag k="name:se" v="Sáttogeaidnu" />
		<tag k="ssr:stedsnr" v="483683" />
	</node>
	<node id="-185154" lat="68.488863889" lon="16.678391654">
>>>>>>> e1d4bc35ff8a6074a6f2e91616a996b547c36f15
		<tag k="aeroway" v="aerodrome" />
		<tag k="alt_name:no" v="Evenes" />
		<tag k="loc_name:se" v="Evenášši" />
		<tag k="name" v="Harstad/Narvik lufthavn, Evenes - Hársttáid/Áhkánjárgga girdihámman" />
		<tag k="name:no" v="Harstad/Narvik lufthavn, Evenes" />
		<tag k="name:se" v="Hársttáid/Áhkánjárgga girdihámman" />
		<tag k="old_name:no" v="Evenes lufthavn" />
		<tag k="ssr:stedsnr" v="259373" />
	</node>
<<<<<<< HEAD
	<node lat="68.53706389017522" lon="17.21618055125486" id="-9363">
		<tag k="junction" v="yes" />
		<tag k="name" v="Grovfjord vegkryss" />
		<tag k="place" v="locality" />
		<tag k="ssr:stedsnr" v="328450" />
	</node>
	<node lat="68.50038611063428" lon="17.11840000868344" id="-9447">
		<tag k="highway" v="path" />
		<tag k="name" v="Lappvegen" />
		<tag k="ssr:stedsnr" v="464031" />
	</node>
	<node lat="68.53705000270557" lon="17.028413892135035" id="-9451">
=======
	<node id="-186321" lat="68.4865888915" lon="16.6384138991">
		<tag k="highway" v="path" />
		<tag k="name" v="Bjørnåsvegen" />
		<tag k="ssr:stedsnr" v="828485" />
	</node>
	<node id="-186128" lat="68.5073472178" lon="17.0745638971">
		<tag k="junction" v="yes" />
		<tag k="name" v="Lenvik vegkryss" />
		<tag k="place" v="locality" />
		<tag k="ssr:stedsnr" v="571843" />
	</node>
	<node id="-185325" lat="68.5370500027" lon="17.0284138921">
>>>>>>> e1d4bc35ff8a6074a6f2e91616a996b547c36f15
		<tag k="landuse" v="industrial" />
		<tag k="name" v="Niingen kraftverk" />
		<tag k="power" v="plant" />
		<tag k="ssr:stedsnr" v="464049" />
	</node>
<<<<<<< HEAD
	<node lat="68.47781111255786" lon="17.086530561854392" id="-9478">
=======
	<node id="-186252" lat="68.4759583311" lon="16.621641673">
		<tag k="highway" v="path" />
		<tag k="name" v="Rømmelveien" />
		<tag k="ssr:stedsnr" v="767519" />
	</node>
	<node id="-186251" lat="68.4683444469" lon="16.6167722224">
		<tag k="highway" v="path" />
		<tag k="name" v="Kalvslettveien" />
		<tag k="ssr:stedsnr" v="767517" />
	</node>
	<node id="-185354" lat="68.4778111126" lon="17.0865305619">
>>>>>>> e1d4bc35ff8a6074a6f2e91616a996b547c36f15
		<tag k="fixme" v="verify maritime location" />
		<tag k="mooring" v="yes" />
		<tag k="name" v="Lappstøa - Vancaválggis" />
		<tag k="name:no" v="Lappstøa" />
		<tag k="name:se" v="Vancaválggis" />
		<tag k="place" v="locality" />
		<tag k="ssr:stedsnr" v="328806" />
	</node>
<<<<<<< HEAD
	<node lat="68.51856110857777" lon="16.780449988949012" id="-9518">
=======
	<node id="-185321" lat="68.5003861106" lon="17.1184000087">
>>>>>>> e1d4bc35ff8a6074a6f2e91616a996b547c36f15
		<tag k="highway" v="path" />
		<tag k="name" v="Sáttogeaidnu" />
		<tag k="name:se" v="Sáttogeaidnu" />
		<tag k="ssr:stedsnr" v="483683" />
	</node>
<<<<<<< HEAD
	<node lat="68.47947222391686" lon="16.63218055576828" id="-9682">
=======
	<node id="-185576" lat="68.4794722239" lon="16.6321805558">
>>>>>>> e1d4bc35ff8a6074a6f2e91616a996b547c36f15
		<tag k="highway" v="path" />
		<tag k="name" v="Tømmerveien" />
		<tag k="ssr:stedsnr" v="707533" />
	</node>
<<<<<<< HEAD
	<node lat="68.52100555582544" lon="17.079494445439785" id="-9748">
		<tag k="highway" v="path" />
		<tag k="name" v="Høyvegen" />
		<tag k="ssr:stedsnr" v="753861" />
	</node>
	<node lat="68.46834444694677" lon="16.616772222437152" id="-9755">
		<tag k="highway" v="path" />
		<tag k="name" v="Kalvslettveien" />
		<tag k="ssr:stedsnr" v="767517" />
	</node>
	<node lat="68.47595833106742" lon="16.62164167296117" id="-9756">
		<tag k="highway" v="path" />
		<tag k="name" v="Rømmelveien" />
		<tag k="ssr:stedsnr" v="767519" />
	</node>
	<node lat="68.48658889145304" lon="16.638413899099653" id="-9783">
		<tag k="highway" v="path" />
		<tag k="name" v="Bjørnåsvegen" />
		<tag k="ssr:stedsnr" v="828485" />
	</node>
	<node lat="68.45516666370735" lon="17.094416674630835" id="-9890">
		<tag k="highway" v="path" />
		<tag k="name" v="Huggvikvegen" />
		<tag k="ssr:stedsnr" v="39031" />
	</node>
	<node lat="68.51310555554886" lon="16.918963891762587" id="-9961">
		<tag k="highway" v="path" />
		<tag k="name" v="Heivegen" />
		<tag k="ssr:stedsnr" v="146772" />
	</node>
	<node lat="68.48025555477346" lon="16.744958320330724" id="-9994">
=======
	<node id="-185927" lat="68.4802555548" lon="16.7449583203">
>>>>>>> e1d4bc35ff8a6074a6f2e91616a996b547c36f15
		<tag k="highway" v="path" />
		<tag k="name" v="Liavegen" />
		<tag k="ssr:stedsnr" v="206027" />
	</node>
<<<<<<< HEAD
	<node lat="68.47140555294257" lon="16.83597500115279" id="-10044">
=======
	<node id="-185958" lat="68.4714055529" lon="16.8359750012">
>>>>>>> e1d4bc35ff8a6074a6f2e91616a996b547c36f15
		<tag k="highway" v="path" />
		<tag k="name" v="Vollbuvegen" />
		<tag k="ssr:stedsnr" v="300651" />
	</node>
<<<<<<< HEAD
	<node lat="68.47015277967269" lon="16.747499994193802" id="-10105">
		<tag k="highway" v="path" />
		<tag k="name" v="Rødsandvegen" />
		<tag k="ssr:stedsnr" v="361641" />
	</node>
	<node lat="68.50734721782784" lon="17.074563897133924" id="-10266">
		<tag k="junction" v="yes" />
		<tag k="name" v="Lenvik vegkryss" />
		<tag k="place" v="locality" />
		<tag k="ssr:stedsnr" v="571843" />
=======
	<node id="-185989" lat="68.5370638902" lon="17.2161805513">
		<tag k="junction" v="yes" />
		<tag k="name" v="Grovfjord vegkryss" />
		<tag k="place" v="locality" />
		<tag k="ssr:stedsnr" v="328450" />
	</node>
	<node id="-186018" lat="68.4701527797" lon="16.7474999942">
		<tag k="highway" v="path" />
		<tag k="name" v="Rødsandvegen" />
		<tag k="ssr:stedsnr" v="361641" />
	</node>
	<node id="-185889" lat="68.5131055555" lon="16.9189638918">
		<tag k="highway" v="path" />
		<tag k="name" v="Heivegen" />
		<tag k="ssr:stedsnr" v="146772" />
>>>>>>> e1d4bc35ff8a6074a6f2e91616a996b547c36f15
	</node>
</osm>
