<?xml version="1.0" encoding="UTF-8"?>
<<<<<<< HEAD
<osm version="0.6" generator="osmapis">
	<node lat="68.50276944283013" lon="16.806513875180897" id="-9239">
		<tag k="name" v="Engsvoll" />
		<tag k="place" v="farm" />
		<tag k="ssr:stedsnr" v="24025" />
	</node>
	<node lat="68.513441670823" lon="16.934541663716" id="-9244">
		<tag k="name" v="Løknes" />
		<tag k="place" v="farm" />
		<tag k="ssr:stedsnr" v="25805" />
	</node>
	<node lat="68.4665527783888" lon="17.252286110132324" id="-9251">
		<tag k="name" v="Gammelgården" />
		<tag k="place" v="farm" />
		<tag k="ssr:stedsnr" v="39064" />
	</node>
	<node lat="68.46742499590921" lon="16.786708331314582" id="-9255">
		<tag k="name" v="Dalen" />
		<tag k="place" v="farm" />
		<tag k="ssr:stedsnr" v="58647" />
	</node>
	<node lat="68.51390555783614" lon="16.752969454943507" id="-9260">
		<tag k="name" v="Myrbakken" />
		<tag k="place" v="farm" />
		<tag k="ssr:stedsnr" v="58672" />
	</node>
	<node lat="68.48334999642759" lon="16.89413332962366" id="-9264">
		<tag k="fixme" v="consider place=hamlet" />
		<tag k="name" v="Bjellgam - Bealgápmá" />
		<tag k="name:no" v="Bjellgam" />
		<tag k="name:se" v="Bealgápmá" />
		<tag k="place" v="farm" />
		<tag k="ssr:stedsnr" v="77551" />
	</node>
	<node lat="68.45917222322586" lon="16.73278611775675" id="-9265">
		<tag k="name" v="Bergan" />
		<tag k="place" v="farm" />
		<tag k="ssr:stedsnr" v="78457" />
	</node>
	<node lat="68.46132373348416" lon="16.741785254731322" id="-9266">
		<tag k="alt_name" v="Lien" />
		<tag k="fixme" v="consider place=hamlet" />
		<tag k="name" v="Lia" />
		<tag k="place" v="farm" />
		<tag k="ssr:stedsnr" v="78458" />
	</node>
	<node lat="68.47612549305497" lon="16.884035858554554" id="-9267">
		<tag k="fixme" v="consider place=hamlet" />
		<tag k="name" v="Liland - Lidaláddi" />
		<tag k="name:no" v="Liland" />
		<tag k="name:se" v="Lidaláddi" />
		<tag k="place" v="village" />
		<tag k="ssr:stedsnr" v="78512" />
	</node>
	<node lat="68.46375833384387" lon="17.216524998263612" id="-9268">
		<tag k="name" v="Myrvoll" />
		<tag k="place" v="farm" />
		<tag k="ssr:stedsnr" v="78494" />
	</node>
	<node lat="68.4839555591865" lon="16.902905548845933" id="-9281">
		<tag k="name" v="Bergli" />
		<tag k="place" v="farm" />
		<tag k="ssr:stedsnr" v="99067" />
	</node>
	<node lat="68.49872222582688" lon="16.751094443065657" id="-9292">
		<tag k="name" v="Finnhaugen - Čorru" />
		<tag k="name:no" v="Finnhaugen" />
		<tag k="name:se" v="Čorru" />
		<tag k="place" v="hamlet" />
		<tag k="ssr:stedsnr" v="101475" />
	</node>
	<node lat="68.51410359805418" lon="17.01688197171221" id="-9303">
		<tag k="fixme" v="consider place=hamlet" />
		<tag k="name" v="Kleiva" />
		<tag k="place" v="farm" />
		<tag k="ssr:stedsnr" v="141633" />
	</node>
	<node lat="68.51511110947796" lon="16.729272231933987" id="-9306">
		<tag k="name" v="Nordbakk" />
		<tag k="place" v="farm" />
		<tag k="ssr:stedsnr" v="141789" />
	</node>
	<node lat="68.49938888733251" lon="16.91100278131915" id="-9313">
		<tag k="name" v="Moen" />
		<tag k="place" v="farm" />
		<tag k="ssr:stedsnr" v="146218" />
	</node>
	<node lat="68.49380000283396" lon="16.77221667197206" id="-9314">
		<tag k="name" v="Slettvold" />
		<tag k="place" v="farm" />
		<tag k="ssr:stedsnr" v="146302" />
	</node>
	<node lat="68.48925555298794" lon="16.640783324994636" id="-9324">
		<tag k="alt_name" v="Trollkjerka" />
		<tag k="name" v="Trollkirka" />
		<tag k="place" v="locality" />
		<tag k="ssr:stedsnr" v="259376" />
	</node>
	<node lat="68.46813888696695" lon="16.793894438755867" id="-9326">
		<tag k="name" v="Sommarvik" />
		<tag k="place" v="farm" />
		<tag k="ssr:stedsnr" v="179615" />
	</node>
	<node lat="68.51033055646197" lon="16.74906943954546" id="-9330">
		<tag k="name" v="Dalhaugen" />
		<tag k="place" v="farm" />
		<tag k="ssr:stedsnr" v="263818" />
	</node>
	<node lat="68.47397221981204" lon="16.71039444137313" id="-9334">
		<tag k="name" v="Åsheim" />
		<tag k="place" v="farm" />
		<tag k="ssr:stedsnr" v="199418" />
	</node>
	<node lat="68.5108956238261" lon="16.927343743554378" id="-9340">
		<tag k="alt_name" v="Dragvika" />
		<tag k="fixme" v="consider place=hamlet" />
		<tag k="name" v="Dragvik" />
		<tag k="place" v="farm" />
		<tag k="ssr:stedsnr" v="202653" />
	</node>
	<node lat="68.53480833513302" lon="16.778916655707192" id="-9342">
		<tag k="alt_name" v="Solhaug" />
		<tag k="name" v="Sollihaug" />
		<tag k="place" v="farm" />
		<tag k="ssr:stedsnr" v="202790" />
	</node>
	<node lat="68.49208888852466" lon="16.730277764431143" id="-9348">
		<tag k="name" v="Bergmark" />
		<tag k="place" v="farm" />
		<tag k="ssr:stedsnr" v="268345" />
	</node>
	<node lat="68.48275000256535" lon="17.108722220115105" id="-9354">
		<tag k="name" v="Malm feriehjem" />
		<tag k="ssr:stedsnr" v="268809" />
		<tag k="tourism" v="guest_house" />
	</node>
	<node lat="68.52272222229064" lon="17.150627788471542" id="-9360">
		<tag k="name" v="Susannadungan" />
		<tag k="place" v="farm" />
		<tag k="ssr:stedsnr" v="268908" />
	</node>
	<node lat="68.52463055809874" lon="17.151433324833334" id="-9361">
		<tag k="amenity" v="school" />
		<tag k="name" v="Lenvikmark gamle skole" />
		<tag k="ssr:stedsnr" v="268909" />
	</node>
	<node lat="68.53571388686218" lon="17.181694435133448" id="-9375">
		<tag k="name" v="Larsgamtuften" />
		<tag k="place" v="farm" />
		<tag k="ssr:stedsnr" v="449990" />
	</node>
	<node lat="68.50523333794425" lon="16.915652767945616" id="-9380">
		<tag k="name" v="Fjellheim" />
		<tag k="place" v="farm" />
		<tag k="ssr:stedsnr" v="450199" />
	</node>
	<node lat="68.50221389133846" lon="16.912544454026094" id="-9381">
		<tag k="name" v="Olsborg" />
		<tag k="place" v="farm" />
		<tag k="ssr:stedsnr" v="450201" />
	</node>
	<node lat="68.49601111390686" lon="16.754611111473928" id="-9382">
		<tag k="name" v="Skogås" />
		<tag k="place" v="farm" />
		<tag k="ssr:stedsnr" v="450340" />
	</node>
	<node lat="68.50912221851515" lon="16.92436111543489" id="-9385">
		<tag k="name" v="Nyborg" />
		<tag k="place" v="farm" />
		<tag k="ssr:stedsnr" v="450794" />
	</node>
	<node lat="68.46911666257208" lon="16.703580558905642" id="-9395">
		<tag k="name" v="Nordvang" />
		<tag k="place" v="farm" />
		<tag k="ssr:stedsnr" v="259411" />
	</node>
	<node lat="68.4610083381731" lon="16.677383323025857" id="-9398">
		<tag k="name" v="Løvollen" />
		<tag k="place" v="farm" />
		<tag k="ssr:stedsnr" v="259452" />
	</node>
	<node lat="68.4888499977768" lon="16.903438896237898" id="-9401">
		<tag k="name" v="Godliåsen" />
		<tag k="place" v="isolated_dwelling" />
		<tag k="ssr:stedsnr" v="259516" />
	</node>
	<node lat="68.50032041614985" lon="16.81407406079562" id="-9404">
		<tag k="alt_name" v="Osmarken" />
		<tag k="fixme" v="consider place=hamlet" />
		<tag k="name" v="Osmarka" />
		<tag k="place" v="farm" />
		<tag k="ssr:stedsnr" v="262951" />
	</node>
	<node lat="68.51562778093296" lon="16.744511103504895" id="-9409">
		<tag k="name" v="Nordås" />
		<tag k="place" v="farm" />
		<tag k="ssr:stedsnr" v="263811" />
	</node>
	<node lat="68.47584444329982" lon="16.698452781650705" id="-9414">
		<tag k="name" v="Fredly" />
=======
<osm generator="osmapis" version="0.6">
	<node id="-186368" lat="68.4574746987" lon="17.1383503062">
		<tag k="name" v="Veggen - Veaggu" />
		<tag k="name:no" v="Veggen" />
		<tag k="name:se" v="Veaggu" />
		<tag k="place" v="farm" />
		<tag k="ssr:stedsnr" v="987808" />
	</node>
	<node id="-186367" lat="68.4654608674" lon="17.0384600505">
		<tag k="name" v="Forra - Fárru" />
		<tag k="name:no" v="Forra" />
		<tag k="name:se" v="Fárru" />
		<tag k="place" v="farm" />
		<tag k="ssr:stedsnr" v="987807" />
	</node>
	<node id="-186366" lat="68.4661582687" lon="17.0620621914">
		<tag k="name" v="Forra - Fárru" />
		<tag k="name:no" v="Forra" />
		<tag k="name:se" v="Fárru" />
		<tag k="place" v="farm" />
		<tag k="ssr:stedsnr" v="987806" />
	</node>
	<node id="-186365" lat="68.4592307937" lon="17.1231121666">
		<tag k="name" v="Indre Brenna - Buollám" />
		<tag k="name:no" v="Indre Brenna" />
		<tag k="name:se" v="Buollám" />
		<tag k="place" v="farm" />
		<tag k="ssr:stedsnr" v="987805" />
	</node>
	<node id="-186364" lat="68.4852004271" lon="16.8860385779">
		<tag k="name" v="Bjellgam - Bealgápmá" />
		<tag k="name:no" v="Bjellgam" />
		<tag k="name:se" v="Bealgápmá" />
		<tag k="place" v="farm" />
		<tag k="ssr:stedsnr" v="987803" />
	</node>
	<node id="-186363" lat="68.4617446468" lon="16.6551628795">
		<tag k="name" v="Stunes - Stohponášši" />
		<tag k="name:no" v="Stunes" />
		<tag k="name:se" v="Stohponášši" />
		<tag k="place" v="farm" />
		<tag k="ssr:stedsnr" v="987801" />
	</node>
	<node id="-186362" lat="68.5229614901" lon="16.766963589">
		<tag k="name" v="Fjellkroken - Várremoski" />
		<tag k="name:no" v="Fjellkroken" />
		<tag k="name:se" v="Várremoski" />
		<tag k="place" v="farm" />
		<tag k="ssr:stedsnr" v="987800" />
	</node>
	<node id="-186361" lat="68.4590722181" lon="16.698315323">
		<tag k="fixme" v="consider place=hamlet" />
		<tag k="name" v="Evenes - Evenášši" />
		<tag k="name:no" v="Evenes" />
		<tag k="name:se" v="Evenášši" />
		<tag k="place" v="farm" />
		<tag k="ssr:stedsnr" v="987557" />
	</node>
	<node id="-186360" lat="68.5023144403" lon="17.0793039191">
		<tag k="fixme" v="consider place=hamlet" />
		<tag k="name" v="Østervika - Eavsttárviika" />
		<tag k="name:no" v="Østervika" />
		<tag k="name:se" v="Eavsttárviika" />
		<tag k="place" v="farm" />
		<tag k="ssr:stedsnr" v="987556" />
	</node>
	<node id="-186359" lat="68.4591824335" lon="16.6221416277">
		<tag k="fixme" v="consider place=hamlet" />
		<tag k="name" v="Tårstad - Durrák" />
		<tag k="name:no" v="Tårstad" />
		<tag k="name:se" v="Durrák" />
		<tag k="place" v="farm" />
		<tag k="ssr:stedsnr" v="987555" />
	</node>
	<node id="-186358" lat="68.5112004696" lon="17.0547194114">
		<tag k="fixme" v="consider place=hamlet" />
		<tag k="name" v="Lenvika - Leaŋgaviika" />
		<tag k="name:no" v="Lenvika" />
		<tag k="name:se" v="Leaŋgaviika" />
		<tag k="place" v="farm" />
		<tag k="ssr:stedsnr" v="987554" />
	</node>
	<node id="-186357" lat="68.4663057897" lon="17.2467327712">
		<tag k="fixme" v="consider place=hamlet" />
		<tag k="name" v="Veggen - Veaggu" />
		<tag k="name:no" v="Veggen" />
		<tag k="name:se" v="Veaggu" />
		<tag k="place" v="farm" />
		<tag k="ssr:stedsnr" v="987553" />
	</node>
	<node id="-186356" lat="68.4643190474" lon="17.0355640498">
		<tag k="fixme" v="consider place=hamlet" />
		<tag k="name" v="Forra - Fárru" />
		<tag k="name:no" v="Forra" />
		<tag k="name:se" v="Fárru" />
		<tag k="place" v="farm" />
		<tag k="ssr:stedsnr" v="987552" />
	</node>
	<node id="-186351" lat="68.5269361096" lon="16.7767277789">
		<tag k="loc_name:se" v="Gállogieddi" />
		<tag k="name" v="Myrnes søndre" />
		<tag k="name:no" v="Myrnes søndre" />
		<tag k="place" v="farm" />
		<tag k="ssr:stedsnr" v="952631" />
	</node>
	<node id="-186348" lat="68.5010000035" lon="16.7515749933">
		<tag k="historic" v="shieling" />
		<tag k="name" v="Goahtesadji" />
		<tag k="name:se" v="Goahtesadji" />
		<tag k="place" v="locality" />
		<tag k="ssr:stedsnr" v="874347" />
	</node>
	<node id="-186347" lat="68.4938777802" lon="16.7568250074">
		<tag k="name" v="Dalbakken" />
		<tag k="place" v="farm" />
		<tag k="ssr:stedsnr" v="874343" />
	</node>
	<node id="-185833" lat="68.4637583338" lon="17.2165249983">
		<tag k="name" v="Myrvoll" />
		<tag k="place" v="farm" />
		<tag k="ssr:stedsnr" v="78494" />
	</node>
	<node id="-185832" lat="68.4613237335" lon="16.7417852547">
		<tag k="alt_name" v="Lien" />
		<tag k="fixme" v="consider place=hamlet" />
		<tag k="name" v="Lia" />
		<tag k="place" v="farm" />
		<tag k="ssr:stedsnr" v="78458" />
	</node>
	<node id="-185831" lat="68.4591722232" lon="16.7327861178">
		<tag k="name" v="Bergan" />
		<tag k="place" v="farm" />
		<tag k="ssr:stedsnr" v="78457" />
	</node>
	<node id="-185169" lat="68.5003204161" lon="16.8140740608">
		<tag k="alt_name" v="Osmarken" />
		<tag k="fixme" v="consider place=hamlet" />
		<tag k="name" v="Osmarka" />
		<tag k="place" v="farm" />
		<tag k="ssr:stedsnr" v="262951" />
	</node>
	<node id="-186339" lat="68.5343131234" lon="16.7832651446">
		<tag k="alt_name" v="Sørkvitfors" />
		<tag k="fixme" v="consider place=hamlet" />
		<tag k="loc_name" v="Kvitfors" />
		<tag k="name" v="Sør-Kvitfors" />
		<tag k="place" v="farm" />
		<tag k="ssr:stedsnr" v="869806" />
	</node>
	<node id="-185823" lat="68.5139055578" lon="16.7529694549">
		<tag k="name" v="Myrbakken" />
		<tag k="place" v="farm" />
		<tag k="ssr:stedsnr" v="58672" />
	</node>
	<node id="-185820" lat="68.4674249959" lon="16.7867083313">
		<tag k="name" v="Dalen" />
		<tag k="place" v="farm" />
		<tag k="ssr:stedsnr" v="58647" />
	</node>
	<node id="-185809" lat="68.5122999992" lon="16.9328777723">
		<tag k="name" v="Dragvik" />
		<tag k="place" v="farm" />
		<tag k="ssr:stedsnr" v="39032" />
	</node>
	<node id="-185296" lat="68.4691166626" lon="16.7035805589">
		<tag k="name" v="Nordvang" />
		<tag k="place" v="farm" />
		<tag k="ssr:stedsnr" v="259411" />
	</node>
	<node id="-185269" lat="68.5099861107" lon="17.0588083359">
		<tag k="alt_name:no" v="Lenvik" />
		<tag k="fixme" v="consider place=hamlet" />
		<tag k="loc_name:se" v="Leaŋgaviika" />
		<tag k="name" v="Lenvika" />
		<tag k="name:no" v="Lenvika" />
		<tag k="place" v="village" />
		<tag k="ssr:stedsnr" v="445643" />
	</node>
	<node id="-185291" lat="68.5091222185" lon="16.9243611154">
		<tag k="name" v="Nyborg" />
		<tag k="place" v="farm" />
		<tag k="ssr:stedsnr" v="450794" />
	</node>
	<node id="-185800" lat="68.491575003" lon="17.0918055444">
		<tag k="amenity" v="nursing_home" />
		<tag k="name" v="Blindesenteret" />
		<tag k="ssr:stedsnr" v="25845" />
	</node>
	<node id="-185798" lat="68.5134416708" lon="16.9345416637">
		<tag k="name" v="Løknes" />
		<tag k="place" v="farm" />
		<tag k="ssr:stedsnr" v="25805" />
	</node>
	<node id="-185846" lat="68.5150583323" lon="17.0037777802">
		<tag k="amenity" v="school" />
		<tag k="loc_name:se" v="Rándda Skovlá" />
		<tag k="name" v="Bogen skole" />
		<tag k="name:no" v="Bogen skole" />
		<tag k="ssr:stedsnr" v="86783" />
	</node>
	<node id="-185281" lat="68.4960111139" lon="16.7546111115">
		<tag k="name" v="Skogås" />
		<tag k="place" v="farm" />
		<tag k="ssr:stedsnr" v="450340" />
	</node>
	<node id="-185280" lat="68.5022138913" lon="16.912544454">
		<tag k="name" v="Olsborg" />
		<tag k="place" v="farm" />
		<tag k="ssr:stedsnr" v="450201" />
	</node>
	<node id="-185279" lat="68.5052333379" lon="16.9156527679">
		<tag k="name" v="Fjellheim" />
		<tag k="place" v="farm" />
		<tag k="ssr:stedsnr" v="450199" />
	</node>
	<node id="-186301" lat="68.509422227" lon="17.0533583225">
		<tag k="name" v="Haugen" />
		<tag k="place" v="farm" />
		<tag k="ssr:stedsnr" v="814900" />
	</node>
	<node id="-185276" lat="68.5357138869" lon="17.1816944351">
		<tag k="name" v="Larsgamtuften" />
		<tag k="place" v="farm" />
		<tag k="ssr:stedsnr" v="449990" />
	</node>
	<node id="-185275" lat="68.4997361081" lon="16.7017750081">
		<tag k="name" v="Skoglund" />
		<tag k="place" v="farm" />
		<tag k="ssr:stedsnr" v="449047" />
	</node>
	<node id="-186297" lat="68.4982388859" lon="16.7385916626">
		<tag k="name" v="Øverland" />
		<tag k="place" v="farm" />
		<tag k="ssr:stedsnr" v="814389" />
	</node>
	<node id="-185784" lat="68.5027694428" lon="16.8065138752">
		<tag k="name" v="Engsvoll" />
		<tag k="place" v="farm" />
		<tag k="ssr:stedsnr" v="24025" />
	</node>
	<node id="-185844" lat="68.4967277807" lon="16.8997333385">
		<tag k="name" v="Øvergaarden" />
		<tag k="place" v="farm" />
		<tag k="ssr:stedsnr" v="86239" />
	</node>
	<node id="-185781" lat="68.504508329" lon="16.9159722302">
		<tag k="fixme" v="consider place=hamlet" />
		<tag k="name" v="Lakså" />
		<tag k="place" v="village" />
		<tag k="ssr:stedsnr" v="20634" />
	</node>
	<node id="-186290" lat="68.5013277817" lon="16.8145583247">
		<tag k="name" v="Bjørkli" />
		<tag k="place" v="farm" />
		<tag k="ssr:stedsnr" v="813028" />
	</node>
	<node id="-185776" lat="68.4678138878" lon="17.0696194369">
		<tag k="name" v="Lemmen" />
		<tag k="place" v="farm" />
		<tag k="ssr:stedsnr" v="17520" />
	</node>
	<node id="-185262" lat="68.5263782065" lon="16.772164195">
		<tag k="fixme" v="consider place=hamlet" />
		<tag k="name" v="Myrnes - Gállogieddi" />
		<tag k="name:no" v="Myrnes" />
		<tag k="name:se" v="Gállogieddi" />
		<tag k="place" v="farm" />
		<tag k="ssr:stedsnr" v="444783" />
	</node>
	<node id="-185773" lat="68.4600638845" lon="16.6249194495">
		<tag k="fixme" v="consider place=hamlet" />
		<tag k="loc_name:se" v="Durrák" />
		<tag k="name" v="Tårstad" />
		<tag k="name:no" v="Tårstad" />
		<tag k="place" v="village" />
		<tag k="ssr:stedsnr" v="17473" />
	</node>
	<node id="-185259" lat="68.4581583363" lon="17.1149583378">
		<tag k="name" v="Granmo" />
		<tag k="place" v="farm" />
		<tag k="ssr:stedsnr" v="442973" />
	</node>
	<node id="-185770" lat="68.467669446" lon="16.6582416652">
		<tag k="alt_name" v="Breidgotta" />
		<tag k="name" v="Breigotta" />
		<tag k="place" v="farm" />
		<tag k="ssr:stedsnr" v="17445" />
	</node>
	<node id="-185769" lat="68.5243701743" lon="16.9803364039">
		<tag k="name" v="Nystrand" />
		<tag k="place" v="farm" />
		<tag k="ssr:stedsnr" v="1072367" />
	</node>
	<node id="-185370" lat="68.4631166697" lon="17.2078805479">
		<tag k="name" v="Veggfjellet" />
		<tag k="place" v="farm" />
		<tag k="ssr:stedsnr" v="381502" />
	</node>
	<node id="-185253" lat="68.490988891" lon="17.0985055526">
		<tag k="name" v="Østervikstranda" />
		<tag k="place" v="farm" />
		<tag k="ssr:stedsnr" v="441534" />
	</node>
	<node id="-185252" lat="68.4824121543" lon="17.1100945886">
		<tag k="fixme" v="consider place=hamlet" />
		<tag k="loc_name:se" v="Boahttan" />
		<tag k="name" v="Botn" />
		<tag k="name:no" v="Botn" />
>>>>>>> e1d4bc35ff8a6074a6f2e91616a996b547c36f15
		<tag k="place" v="farm" />
		<tag k="ssr:stedsnr" v="441527" />
	</node>
<<<<<<< HEAD
	<node lat="68.46105833016024" lon="17.175033331318446" id="-9429">
		<tag k="name" v="Steinmoen" />
		<tag k="place" v="farm" />
		<tag k="ssr:stedsnr" v="273101" />
	</node>
	<node lat="68.48045277628695" lon="16.88511944724" id="-9440">
		<tag k="name" v="Bjørklund" />
		<tag k="place" v="farm" />
		<tag k="ssr:stedsnr" v="461609" />
	</node>
	<node lat="68.53163171192362" lon="16.77005133870027" id="-9442">
		<tag k="fixme" v="consider place=hamlet" />
		<tag k="name" v="Storelven" />
		<tag k="place" v="farm" />
		<tag k="ssr:stedsnr" v="296842" />
	</node>
	<node lat="68.48054166904318" lon="16.947561113202" id="-9444">
		<tag k="name" v="Gammelgården" />
		<tag k="place" v="farm" />
		<tag k="ssr:stedsnr" v="463047" />
	</node>
	<node lat="68.51811666832086" lon="16.89342777797357" id="-9453">
		<tag k="name" v="Gamman" />
		<tag k="place" v="locality" />
		<tag k="ssr:stedsnr" v="464052" />
	</node>
	<node lat="68.49274721952214" lon="16.65017222032834" id="-9467">
		<tag k="name" v="Kvassåsen" />
		<tag k="place" v="farm" />
		<tag k="ssr:stedsnr" v="320383" />
	</node>
	<node lat="68.49863611362387" lon="16.905283342767387" id="-9473">
		<tag k="name" v="Bjerkaas" />
=======
	<node id="-186275" lat="68.4805972181" lon="16.7119222173">
		<tag k="name" v="Solvoll" />
		<tag k="place" v="farm" />
		<tag k="ssr:stedsnr" v="805446" />
	</node>
	<node id="-185248" lat="68.4827055605" lon="16.7040166578">
		<tag k="name" v="Myrland" />
		<tag k="place" v="farm" />
		<tag k="ssr:stedsnr" v="441434" />
	</node>
	<node id="-185246" lat="68.4675305516" lon="16.7816555592">
		<tag k="name" v="Sommarvika" />
		<tag k="place" v="hamlet" />
		<tag k="ssr:stedsnr" v="441412" />
	</node>
	<node id="-185244" lat="68.5316317119" lon="16.7700513387">
		<tag k="fixme" v="consider place=hamlet" />
		<tag k="name" v="Storelven" />
		<tag k="place" v="farm" />
		<tag k="ssr:stedsnr" v="296842" />
	</node>
	<node id="-185753" lat="68.5264638925" lon="16.9928000036">
		<tag k="loc_name:no" v="Bogen i Ofoten" />
		<tag k="name" v="Bogen - Ránda" />
		<tag k="name:no" v="Bogen" />
		<tag k="name:se" v="Ránda" />
		<tag k="place" v="village" />
		<tag k="ssr:stedsnr" v="930632" />
	</node>
	<node id="-186263" lat="68.5118111121" lon="16.9294277656">
		<tag k="name" v="Mellomgård" />
		<tag k="place" v="farm" />
		<tag k="ssr:stedsnr" v="875789" />
	</node>
	<node id="-185227" lat="68.4867194404" lon="16.910011103">
		<tag k="name" v="Sunnbakk" />
		<tag k="place" v="farm" />
		<tag k="ssr:stedsnr" v="281059" />
	</node>
	<node id="-185239" lat="68.468138887" lon="16.7938944388">
		<tag k="name" v="Sommarvik" />
		<tag k="place" v="farm" />
		<tag k="ssr:stedsnr" v="179615" />
	</node>
	<node id="-185836" lat="68.4977250025" lon="16.9059999981">
		<tag k="name" v="Osen" />
		<tag k="place" v="farm" />
		<tag k="ssr:stedsnr" v="78531" />
	</node>
	<node id="-185218" lat="68.4978971315" lon="16.9132705957">
		<tag k="fixme" v="consider place=hamlet" />
		<tag k="name" v="Leiros" />
>>>>>>> e1d4bc35ff8a6074a6f2e91616a996b547c36f15
		<tag k="place" v="farm" />
		<tag k="ssr:stedsnr" v="279581" />
	</node>
<<<<<<< HEAD
	<node lat="68.48110833229313" lon="16.884447221455293" id="-9487">
		<tag k="name" v="Birkelund" />
		<tag k="place" v="farm" />
		<tag k="ssr:stedsnr" v="342059" />
	</node>
	<node lat="68.48612221912634" lon="16.894363876403553" id="-9493">
		<tag k="fixme" v="multiple name tags, choose one and add the other to alt_name" />
		<tag k="name" v="Høgda;Bjønnli" />
		<tag k="place" v="farm" />
		<tag k="ssr:stedsnr" v="380564" />
	</node>
	<node lat="68.46311666966287" lon="17.207880547903073" id="-9495">
		<tag k="name" v="Veggfjellet" />
		<tag k="place" v="farm" />
		<tag k="ssr:stedsnr" v="381502" />
	</node>
	<node lat="68.5083111099854" lon="16.74910833315817" id="-9498">
		<tag k="name" v="Nordmarka - Geabarohtu" />
		<tag k="name:no" v="Nordmarka" />
		<tag k="name:se" v="Geabarohtu" />
		<tag k="place" v="farm" />
		<tag k="ssr:stedsnr" v="383949" />
	</node>
	<node lat="68.51026111114757" lon="16.7487749966273" id="-9525">
		<tag k="fixme" v="consider place=hamlet" />
		<tag k="loc_name:no" v="Lavangseidet" />
		<tag k="name" v="Loabákáidi" />
		<tag k="name:se" v="Loabákáidi" />
		<tag k="place" v="village" />
		<tag k="ssr:stedsnr" v="422414" />
	</node>
	<node lat="68.46753055161946" lon="16.781655559220116" id="-9526">
		<tag k="name" v="Sommarvika" />
		<tag k="place" v="hamlet" />
		<tag k="ssr:stedsnr" v="441412" />
	</node>
	<node lat="68.49098889097591" lon="17.098505552588726" id="-9528">
		<tag k="name" v="Østervikstranda" />
		<tag k="place" v="farm" />
		<tag k="ssr:stedsnr" v="441534" />
	</node>
	<node lat="68.52637820653611" lon="16.772164194971847" id="-9533">
		<tag k="fixme" v="consider place=hamlet" />
		<tag k="name" v="Myrnes - Gállogieddi" />
		<tag k="name:no" v="Myrnes" />
		<tag k="name:se" v="Gállogieddi" />
		<tag k="place" v="farm" />
		<tag k="ssr:stedsnr" v="444783" />
	</node>
	<node lat="68.4603555572474" lon="16.594022225324824" id="-9544">
		<tag k="name" v="Nymo" />
		<tag k="place" v="farm" />
		<tag k="ssr:stedsnr" v="450306" />
	</node>
	<node lat="68.4571611146664" lon="17.019797213683493" id="-9556">
		<tag k="name" v="Tangås" />
		<tag k="place" v="isolated_dwelling" />
		<tag k="ssr:stedsnr" v="461675" />
	</node>
	<node lat="68.49052222138666" lon="16.71792500009686" id="-9568">
		<tag k="name" v="Nystad" />
		<tag k="place" v="farm" />
		<tag k="ssr:stedsnr" v="502379" />
	</node>
	<node lat="68.48688332899543" lon="16.715299997930916" id="-9569">
		<tag k="name" v="Sørås" />
		<tag k="place" v="farm" />
		<tag k="ssr:stedsnr" v="502381" />
	</node>
	<node lat="68.46992751034837" lon="17.086383645168738" id="-9589">
		<tag k="fixme" v="consider place=hamlet" />
		<tag k="name" v="Botnmarka" />
		<tag k="place" v="farm" />
		<tag k="ssr:stedsnr" v="685495" />
	</node>
	<node lat="68.4657722185077" lon="17.225133332554957" id="-9593">
		<tag k="name" v="Lundvoll" />
		<tag k="place" v="farm" />
		<tag k="ssr:stedsnr" v="685488" />
	</node>
	<node lat="68.46724444687051" lon="16.740780554741782" id="-9601">
		<tag k="name" v="Sætran" />
		<tag k="place" v="locality" />
		<tag k="ssr:stedsnr" v="543610" />
	</node>
	<node lat="68.49331944403781" lon="16.732027785798337" id="-9626">
		<tag k="name" v="Daleng" />
		<tag k="place" v="farm" />
		<tag k="ssr:stedsnr" v="571356" />
	</node>
	<node lat="68.50375555238404" lon="17.080474985990577" id="-9628">
		<tag k="name" v="Brekka" />
		<tag k="place" v="farm" />
		<tag k="ssr:stedsnr" v="571847" />
	</node>
	<node lat="68.51853055916584" lon="17.141286120256638" id="-9632">
		<tag k="name" v="Skjellhaugen" />
		<tag k="place" v="farm" />
		<tag k="ssr:stedsnr" v="571907" />
	</node>
	<node lat="68.52402811327418" lon="16.771203253891503" id="-9647">
		<tag k="fixme" v="consider place=hamlet" />
		<tag k="name" v="Fjellkroken - Várremoski" />
		<tag k="name:no" v="Fjellkroken" />
		<tag k="name:se" v="Várremoski" />
		<tag k="place" v="farm" />
		<tag k="ssr:stedsnr" v="626810" />
	</node>
	<node lat="68.46165833052405" lon="17.168155545581634" id="-9649">
		<tag k="name" v="Sølvstein" />
		<tag k="place" v="farm" />
		<tag k="ssr:stedsnr" v="703657" />
	</node>
	<node lat="68.46500833417039" lon="16.77657498921536" id="-9666">
		<tag k="name" v="Lien" />
		<tag k="place" v="farm" />
		<tag k="ssr:stedsnr" v="642583" />
	</node>
	<node lat="68.46671666494258" lon="16.657388885110006" id="-9687">
		<tag k="name" v="Nordheim" />
=======
	<node id="-185835" lat="68.4761254931" lon="16.8840358586">
		<tag k="fixme" v="consider place=hamlet" />
		<tag k="name" v="Liland - Lidaláddi" />
		<tag k="name:no" v="Liland" />
		<tag k="name:se" v="Lidaláddi" />
		<tag k="place" v="village" />
		<tag k="ssr:stedsnr" v="78512" />
	</node>
	<node id="-185722" lat="68.4630472226" lon="17.1501944437">
		<tag k="name" v="Sætran" />
		<tag k="place" v="locality" />
		<tag k="ssr:stedsnr" v="949034" />
	</node>
	<node id="-185719" lat="68.5195314741" lon="17.0084528085">
		<tag k="fixme" v="consider place=hamlet" />
		<tag k="name" v="Bergvik" />
		<tag k="place" v="farm" />
		<tag k="ssr:stedsnr" v="946649" />
	</node>
	<node id="-185205" lat="68.4993888873" lon="16.9110027813">
		<tag k="name" v="Moen" />
		<tag k="place" v="farm" />
		<tag k="ssr:stedsnr" v="146218" />
	</node>
	<node id="-185202" lat="68.4938000028" lon="16.772216672">
		<tag k="name" v="Slettvold" />
		<tag k="place" v="farm" />
		<tag k="ssr:stedsnr" v="146302" />
	</node>
	<node id="-185201" lat="68.4610583302" lon="17.1750333313">
		<tag k="name" v="Steinmoen" />
		<tag k="place" v="farm" />
		<tag k="ssr:stedsnr" v="273101" />
	</node>
	<node id="-185320" lat="68.4571611147" lon="17.0197972137">
		<tag k="name" v="Tangås" />
		<tag k="place" v="isolated_dwelling" />
		<tag k="ssr:stedsnr" v="461675" />
	</node>
	<node id="-186222" lat="68.5107527754" lon="16.9298638816">
		<tag k="name" v="Fagertun" />
		<tag k="place" v="farm" />
		<tag k="ssr:stedsnr" v="753776" />
	</node>
	<node id="-185192" lat="68.5246305581" lon="17.1514333248">
		<tag k="amenity" v="school" />
		<tag k="name" v="Lenvikmark gamle skole" />
		<tag k="ssr:stedsnr" v="268909" />
	</node>
	<node id="-185191" lat="68.5227222223" lon="17.1506277885">
		<tag k="name" v="Susannadungan" />
		<tag k="place" v="farm" />
		<tag k="ssr:stedsnr" v="268908" />
	</node>
	<node id="-185183" lat="68.4920888885" lon="16.7302777644">
		<tag k="name" v="Bergmark" />
		<tag k="place" v="farm" />
		<tag k="ssr:stedsnr" v="268345" />
	</node>
	<node id="-185693" lat="68.5163750011" lon="16.7528416741">
		<tag k="name" v="Nordheim" />
		<tag k="place" v="farm" />
		<tag k="ssr:stedsnr" v="930825" />
	</node>
	<node id="-185691" lat="68.4804614879" lon="16.9409630496">
		<tag k="alt_name" v="Øyen" />
		<tag k="fixme" v="consider place=hamlet" />
		<tag k="name" v="Øya" />
		<tag k="place" v="farm" />
		<tag k="ssr:stedsnr" v="928475" />
	</node>
	<node id="-186200" lat="68.5033066879" lon="17.0781951349">
		<tag k="alt_name:no" v="Austervika;Østervik" />
		<tag k="fixme" v="consider place=hamlet" />
		<tag k="loc_name:se" v="Eavsttárviika" />
		<tag k="name" v="Østervika" />
		<tag k="name:no" v="Østervika" />
		<tag k="place" v="village" />
		<tag k="ssr:stedsnr" v="748618" />
	</node>
	<node id="-186198" lat="68.5328237816" lon="17.1877753315">
		<tag k="fixme" v="consider place=hamlet" />
		<tag k="name" v="Snubba - Duorga" />
		<tag k="name:no" v="Snubba" />
		<tag k="name:se" v="Duorga" />
		<tag k="place" v="village" />
		<tag k="ssr:stedsnr" v="748597" />
	</node>
	<node id="-186197" lat="68.5396777802" lon="17.2564499927">
		<tag k="name" v="Holmvatn" />
		<tag k="place" v="farm" />
		<tag k="ssr:stedsnr" v="748585" />
	</node>
	<node id="-185172" lat="68.5156277809" lon="16.7445111035">
		<tag k="name" v="Nordås" />
		<tag k="place" v="farm" />
		<tag k="ssr:stedsnr" v="263811" />
	</node>
	<node id="-185681" lat="68.4621548689" lon="16.6596189592">
		<tag k="fixme" v="consider place=hamlet" />
		<tag k="name" v="Stunes - Stohponášši" />
		<tag k="name:no" v="Stunes" />
		<tag k="name:se" v="Stohponášši" />
		<tag k="place" v="farm" />
		<tag k="ssr:stedsnr" v="927467" />
	</node>
	<node id="-185679" lat="68.4554611098" lon="16.7200750023">
		<tag k="name" v="Rørvika" />
		<tag k="place" v="farm" />
		<tag k="ssr:stedsnr" v="927446" />
	</node>
	<node id="-185678" lat="68.4542722226" lon="16.5822499925">
		<tag k="name" v="Viksletta" />
		<tag k="place" v="farm" />
		<tag k="ssr:stedsnr" v="927445" />
	</node>
	<node id="-185163" lat="68.5118166632" lon="16.7504083425">
		<tag k="name" v="Sommerbakken" />
		<tag k="place" v="farm" />
		<tag k="ssr:stedsnr" v="118604" />
	</node>
	<node id="-185674" lat="68.4867277806" lon="16.7341361211">
		<tag k="name" v="Tverrfjell" />
		<tag k="place" v="farm" />
		<tag k="ssr:stedsnr" v="927403" />
	</node>
	<node id="-185159" lat="68.4888499978" lon="16.9034388962">
		<tag k="name" v="Godliåsen" />
		<tag k="place" v="isolated_dwelling" />
		<tag k="ssr:stedsnr" v="259516" />
	</node>
	<node id="-185827" lat="68.4833499964" lon="16.8941333296">
		<tag k="fixme" v="consider place=hamlet" />
		<tag k="name" v="Bjellgam - Bealgápmá" />
		<tag k="name:no" v="Bjellgam" />
		<tag k="name:se" v="Bealgápmá" />
>>>>>>> e1d4bc35ff8a6074a6f2e91616a996b547c36f15
		<tag k="place" v="farm" />
		<tag k="ssr:stedsnr" v="664522" />
	</node>
<<<<<<< HEAD
	<node lat="68.52807500302502" lon="16.768983328542685" id="-9690">
		<tag k="name" v="Myrland" />
		<tag k="place" v="farm" />
		<tag k="ssr:stedsnr" v="664632" />
	</node>
	<node lat="68.47460000492181" lon="16.673936100768476" id="-9698">
		<tag k="name" v="Brennhaugen" />
		<tag k="place" v="farm" />
		<tag k="ssr:stedsnr" v="684417" />
	</node>
	<node lat="68.48159166563777" lon="16.886002771591375" id="-9701">
		<tag k="name" v="Bjellund" />
		<tag k="place" v="farm" />
		<tag k="ssr:stedsnr" v="684519" />
	</node>
	<node lat="68.48641944037395" lon="16.90984999351642" id="-9702">
		<tag k="name" v="Øysundet" />
		<tag k="place" v="farm" />
		<tag k="ssr:stedsnr" v="684521" />
	</node>
	<node lat="68.50393333172065" lon="16.91860832633939" id="-9713">
		<tag k="name" v="Bjørkmo" />
		<tag k="place" v="farm" />
		<tag k="ssr:stedsnr" v="692184" />
	</node>
	<node lat="68.50329721945246" lon="16.90941666530993" id="-9714">
		<tag k="name" v="Nyborg" />
		<tag k="place" v="farm" />
		<tag k="ssr:stedsnr" v="692185" />
	</node>
	<node lat="68.49429722034635" lon="16.743036103210947" id="-9732">
		<tag k="fixme" v="consider place=hamlet" />
		<tag k="name" v="Evenesmarka" />
		<tag k="place" v="village" />
		<tag k="ssr:stedsnr" v="745408" />
	</node>
	<node lat="68.53553332966996" lon="16.779072211216878" id="-9734">
		<tag k="name" v="Nordheim" />
		<tag k="place" v="farm" />
		<tag k="ssr:stedsnr" v="903842" />
	</node>
	<node lat="68.5013277817145" lon="16.814558324673314" id="-9768">
		<tag k="name" v="Bjørkli" />
		<tag k="place" v="farm" />
		<tag k="ssr:stedsnr" v="813028" />
	</node>
	<node lat="68.46215486885549" lon="16.65961895916766" id="-9785">
		<tag k="fixme" v="consider place=hamlet" />
		<tag k="name" v="Stunes - Stohponášši" />
		<tag k="name:no" v="Stunes" />
		<tag k="name:se" v="Stohponášši" />
		<tag k="place" v="farm" />
		<tag k="ssr:stedsnr" v="927467" />
	</node>
	<node lat="68.45427222257806" lon="16.58224999252548" id="-9787">
		<tag k="name" v="Viksletta" />
		<tag k="place" v="farm" />
		<tag k="ssr:stedsnr" v="927445" />
	</node>
	<node lat="68.45546110977538" lon="16.720075002316648" id="-9788">
		<tag k="name" v="Rørvika" />
		<tag k="place" v="farm" />
		<tag k="ssr:stedsnr" v="927446" />
	</node>
	<node lat="68.48046148794538" lon="16.940963049612332" id="-9789">
		<tag k="alt_name" v="Øyen" />
		<tag k="fixme" v="consider place=hamlet" />
		<tag k="name" v="Øya" />
		<tag k="place" v="farm" />
		<tag k="ssr:stedsnr" v="928475" />
	</node>
	<node lat="68.53431312340832" lon="16.7832651445751" id="-9790">
		<tag k="alt_name" v="Sørkvitfors" />
		<tag k="fixme" v="consider place=hamlet" />
		<tag k="loc_name" v="Kvitfors" />
		<tag k="name" v="Sør-Kvitfors" />
		<tag k="place" v="farm" />
		<tag k="ssr:stedsnr" v="869806" />
	</node>
	<node lat="68.52646389252473" lon="16.992800003553523" id="-9798">
		<tag k="loc_name:no" v="Bogen i Ofoten" />
		<tag k="name" v="Bogen - Ránda" />
		<tag k="name:no" v="Bogen" />
		<tag k="name:se" v="Ránda" />
		<tag k="place" v="village" />
		<tag k="ssr:stedsnr" v="930632" />
	</node>
	<node lat="68.51637500111623" lon="16.75284167409935" id="-9799">
		<tag k="name" v="Nordheim" />
		<tag k="place" v="farm" />
		<tag k="ssr:stedsnr" v="930825" />
	</node>
	<node lat="68.47712499829093" lon="16.908458320450432" id="-9803">
		<tag k="name" v="Rydneset" />
		<tag k="place" v="farm" />
		<tag k="ssr:stedsnr" v="888050" />
	</node>
	<node lat="68.48672778062671" lon="16.734136121133062" id="-9819">
		<tag k="name" v="Tverrfjell" />
		<tag k="place" v="farm" />
		<tag k="ssr:stedsnr" v="927403" />
	</node>
	<node lat="68.4656888869721" lon="17.23111944631075" id="-9824">
		<tag k="name" v="Stimoen - Áidarasbákti" />
		<tag k="name:no" v="Stimoen" />
		<tag k="name:se" v="Áidarasbákti" />
		<tag k="place" v="farm" />
		<tag k="ssr:stedsnr" v="928462" />
	</node>
	<node lat="68.4998083309787" lon="16.646930556227158" id="-9851">
		<tag k="name" v="Heimås" />
		<tag k="place" v="farm" />
		<tag k="ssr:stedsnr" v="17413" />
	</node>
	<node lat="68.46766944599987" lon="16.6582416651874" id="-9856">
		<tag k="alt_name" v="Breidgotta" />
		<tag k="name" v="Breigotta" />
		<tag k="place" v="farm" />
		<tag k="ssr:stedsnr" v="17445" />
	</node>
	<node lat="68.4678138877572" lon="17.0696194369265" id="-9859">
		<tag k="name" v="Lemmen" />
		<tag k="place" v="farm" />
		<tag k="ssr:stedsnr" v="17520" />
	</node>
	<node lat="68.46006388447059" lon="16.624919449470173" id="-9861">
		<tag k="fixme" v="consider place=hamlet" />
		<tag k="name" v="Tårstad - Durrák" />
		<tag k="name:no" v="Tårstad" />
		<tag k="name:se" v="Durrák" />
=======
	<node id="-185155" lat="68.489255553" lon="16.640783325">
		<tag k="alt_name" v="Trollkjerka" />
		<tag k="name" v="Trollkirka" />
		<tag k="place" v="locality" />
		<tag k="ssr:stedsnr" v="259376" />
	</node>
	<node id="-186172" lat="68.4650083342" lon="16.7765749892">
		<tag k="name" v="Lien" />
		<tag k="place" v="farm" />
		<tag k="ssr:stedsnr" v="642583" />
	</node>
	<node id="-185311" lat="68.4827500026" lon="17.1087222201">
		<tag k="name" v="Malm feriehjem" />
		<tag k="ssr:stedsnr" v="268809" />
		<tag k="tourism" v="guest_house" />
	</node>
	<node id="-185656" lat="68.4942972203" lon="16.7430361032">
		<tag k="fixme" v="consider place=hamlet" />
		<tag k="loc_name:se" v="Evenesmárku" />
		<tag k="name" v="Evenesmarka" />
		<tag k="name:no" v="Evenesmarka" />
		<tag k="place" v="village" />
		<tag k="ssr:stedsnr" v="745408" />
	</node>
	<node id="-186166" lat="68.5127361141" lon="17.0581749897">
		<tag k="name" v="Gulljorda" />
		<tag k="place" v="farm" />
		<tag k="ssr:stedsnr" v="631899" />
	</node>
	<node id="-185653" lat="68.5355333297" lon="16.7790722112">
		<tag k="name" v="Nordheim" />
		<tag k="place" v="farm" />
		<tag k="ssr:stedsnr" v="903842" />
	</node>
	<node id="-185138" lat="68.4839555592" lon="16.9029055488">
		<tag k="name" v="Bergli" />
		<tag k="place" v="farm" />
		<tag k="ssr:stedsnr" v="99067" />
	</node>
	<node id="-185649" lat="68.4667916683" lon="16.7838972305">
		<tag k="name" v="Stranda" />
		<tag k="place" v="farm" />
		<tag k="ssr:stedsnr" v="725569" />
	</node>
	<node id="-185642" lat="68.4616583305" lon="17.1681555456">
		<tag k="name" v="Sølvstein" />
		<tag k="place" v="farm" />
		<tag k="ssr:stedsnr" v="703657" />
	</node>
	<node id="-186150" lat="68.5228534932" lon="16.7712420838">
		<tag k="fixme" v="consider place=hamlet" />
		<tag k="name" v="Fjellkroken - Várremoski" />
		<tag k="name:no" v="Fjellkroken" />
		<tag k="name:se" v="Várremoski" />
		<tag k="place" v="farm" />
		<tag k="ssr:stedsnr" v="626810" />
	</node>
	<node id="-186145" lat="68.4591333359" lon="17.1136361">
		<tag k="alt_name:no" v="Brenna ytre" />
		<tag k="name" v="Brenna - Buollám" />
		<tag k="name:no" v="Brenna" />
		<tag k="name:se" v="Buollám" />
		<tag k="place" v="farm" />
		<tag k="ssr:stedsnr" v="624974" />
	</node>
	<node id="-185117" lat="68.4665527784" lon="17.2522861101">
		<tag k="name" v="Gammelgården" />
		<tag k="place" v="farm" />
		<tag k="ssr:stedsnr" v="39064" />
	</node>
	<node id="-186140" lat="68.4614388924" lon="17.167111103">
		<tag k="alt_name:no" v="Sølvsteinlien" />
		<tag k="name" v="Sølvsteinlia - Silbagoaluohkká" />
		<tag k="name:no" v="Sølvsteinlia" />
		<tag k="name:se" v="Silbagoaluohkká" />
		<tag k="place" v="farm" />
		<tag k="ssr:stedsnr" v="624506" />
	</node>
	<node id="-185625" lat="68.4771249983" lon="16.9084583205">
		<tag k="name" v="Rydneset" />
		<tag k="place" v="farm" />
		<tag k="ssr:stedsnr" v="888050" />
	</node>
	<node id="-185476" lat="68.5181166683" lon="16.893427778">
		<tag k="name" v="Gamman" />
		<tag k="place" v="locality" />
		<tag k="ssr:stedsnr" v="464052" />
	</node>
	<node id="-185110" lat="68.4586833356" lon="16.6169027762">
		<tag k="amenity" v="nursing_home" />
		<tag k="name" v="Vadlatun" />
		<tag k="ssr:stedsnr" v="25320" />
	</node>
	<node id="-185109" lat="68.4567583373" lon="16.6125111189">
		<tag k="name" v="Nøisomheten" />
		<tag k="place" v="farm" />
		<tag k="ssr:stedsnr" v="25319" />
	</node>
	<node id="-186130" lat="68.5188444405" lon="16.9618194496">
		<tag k="name" v="Slettebakk" />
		<tag k="place" v="isolated_dwelling" />
		<tag k="ssr:stedsnr" v="572353" />
	</node>
	<node id="-186129" lat="68.5037555524" lon="17.080474986">
		<tag k="name" v="Brekka" />
		<tag k="place" v="farm" />
		<tag k="ssr:stedsnr" v="571847" />
	</node>
	<node id="-185616" lat="68.4815916656" lon="16.8860027716">
		<tag k="name" v="Bjellund" />
		<tag k="place" v="farm" />
		<tag k="ssr:stedsnr" v="684519" />
	</node>
	<node id="-185614" lat="68.4746000049" lon="16.6739361008">
		<tag k="name" v="Brennhaugen" />
		<tag k="place" v="farm" />
		<tag k="ssr:stedsnr" v="684417" />
	</node>
	<node id="-185099" lat="68.499808331" lon="16.6469305562">
		<tag k="name" v="Heimås" />
		<tag k="place" v="farm" />
		<tag k="ssr:stedsnr" v="17413" />
	</node>
	<node id="-185606" lat="68.4646305538" lon="16.6424305655">
		<tag k="name" v="Osvoll" />
		<tag k="place" v="farm" />
		<tag k="ssr:stedsnr" v="631260" />
	</node>
	<node id="-186116" lat="68.4587499994" lon="16.6994555448">
		<tag k="fixme" v="consider place=hamlet" />
		<tag k="loc_name:se" v="Evenášši" />
		<tag k="name" v="Evenes" />
		<tag k="name:no" v="Evenes" />
>>>>>>> e1d4bc35ff8a6074a6f2e91616a996b547c36f15
		<tag k="place" v="village" />
		<tag k="ssr:stedsnr" v="571359" />
	</node>
<<<<<<< HEAD
	<node lat="68.50450832903064" lon="16.915972230239355" id="-9869">
		<tag k="fixme" v="consider place=hamlet" />
		<tag k="name" v="Lakså" />
		<tag k="place" v="village" />
		<tag k="ssr:stedsnr" v="20634" />
	</node>
	<node lat="68.45675833730236" lon="16.61251111893052" id="-9875">
		<tag k="name" v="Nøisomheten" />
		<tag k="place" v="farm" />
		<tag k="ssr:stedsnr" v="25319" />
	</node>
	<node lat="68.45868333557794" lon="16.616902776180357" id="-9876">
		<tag k="amenity" v="nursing_home" />
		<tag k="name" v="Vadlatun" />
		<tag k="ssr:stedsnr" v="25320" />
	</node>
	<node lat="68.49157500303991" lon="17.0918055444381" id="-9886">
		<tag k="amenity" v="nursing_home" />
		<tag k="name" v="Evenes syn- og mestringssenter" />
		<tag k="ssr:stedsnr" v="25845" />
	</node>
	<node lat="68.51229999924466" lon="16.93287777227455" id="-9891">
		<tag k="name" v="Dragvik" />
		<tag k="place" v="farm" />
		<tag k="ssr:stedsnr" v="39032" />
	</node>
	<node lat="68.48167777411973" lon="16.892319451874975" id="-9898">
		<tag k="name" v="Solberg" />
		<tag k="place" v="farm" />
		<tag k="ssr:stedsnr" v="39056" />
	</node>
	<node lat="68.49772500246314" lon="16.90599999805491" id="-9906">
		<tag k="name" v="Osen" />
		<tag k="place" v="farm" />
		<tag k="ssr:stedsnr" v="78531" />
	</node>
	<node lat="68.49672778074331" lon="16.899733338545975" id="-9915">
		<tag k="name" v="Øvergaarden" />
		<tag k="place" v="farm" />
		<tag k="ssr:stedsnr" v="86239" />
	</node>
	<node lat="68.51505833227178" lon="17.00377778022773" id="-9924">
		<tag k="amenity" v="school" />
		<tag k="loc_name:se" v="Rándda Skovlá" />
		<tag k="name" v="Bogen skole" />
		<tag k="name:no" v="Bogen skole" />
		<tag k="ssr:stedsnr" v="86783" />
	</node>
	<node lat="68.49758888848493" lon="16.639186110005884" id="-9934">
		<tag k="name" v="Høyaas østre" />
		<tag k="place" v="isolated_dwelling" />
		<tag k="ssr:stedsnr" v="100432" />
	</node>
	<node lat="68.51181666317635" lon="16.75040834248644" id="-9938">
		<tag k="name" v="Sommerbakken" />
		<tag k="place" v="farm" />
		<tag k="ssr:stedsnr" v="118604" />
	</node>
	<node lat="68.50009722004559" lon="16.711911116683513" id="-9949">
		<tag k="name" v="Lundemo" />
		<tag k="place" v="farm" />
		<tag k="ssr:stedsnr" v="141957" />
	</node>
	<node lat="68.53570949848176" lon="17.022234378119794" id="-9978">
		<tag k="fixme" v="consider place=hamlet" />
		<tag k="name" v="Strand" />
		<tag k="place" v="farm" />
		<tag k="ssr:stedsnr" v="160033" />
	</node>
	<node lat="68.46661111080256" lon="16.700263883809306" id="-9988">
		<tag k="name" v="Berg" />
		<tag k="place" v="farm" />
		<tag k="ssr:stedsnr" v="199442" />
	</node>
	<node lat="68.46541779583802" lon="17.033377643897847" id="-9991">
		<tag k="fixme" v="consider place=hamlet" />
		<tag k="name" v="Forra - Fárru" />
		<tag k="name:no" v="Forra" />
		<tag k="name:se" v="Fárru" />
		<tag k="place" v="village" />
		<tag k="ssr:stedsnr" v="199501" />
	</node>
	<node lat="68.49502221851974" lon="16.762216669901616" id="-10003">
		<tag k="name" v="Storbakken" />
		<tag k="place" v="farm" />
		<tag k="ssr:stedsnr" v="207327" />
	</node>
	<node lat="68.5094361097536" lon="16.927075005442344" id="-10014">
		<tag k="name" v="Bratteng" />
		<tag k="place" v="farm" />
		<tag k="ssr:stedsnr" v="207789" />
	</node>
	<node lat="68.52399168513546" lon="17.154620172614774" id="-10020">
		<tag k="alt_name" v="Lenvikmark" />
		<tag k="fixme" v="consider place=hamlet" />
		<tag k="name" v="Lenvikmarka" />
		<tag k="place" v="farm" />
		<tag k="ssr:stedsnr" v="207897" />
	</node>
	<node lat="68.53478611407567" lon="17.006694446873702" id="-10030">
		<tag k="name" v="Østgård" />
		<tag k="place" v="farm" />
		<tag k="ssr:stedsnr" v="221069" />
	</node>
	<node lat="68.53464722188757" lon="16.77853333365212" id="-10031">
		<tag k="name" v="Moski" />
		<tag k="name:se" v="Moski" />
		<tag k="place" v="hamlet" />
		<tag k="ssr:stedsnr" v="222446" />
	</node>
	<node lat="68.49789713147008" lon="16.91327059572353" id="-10033">
		<tag k="fixme" v="consider place=hamlet" />
		<tag k="name" v="Leiros" />
		<tag k="place" v="farm" />
		<tag k="ssr:stedsnr" v="279581" />
	</node>
	<node lat="68.48671944037464" lon="16.91001110298094" id="-10035">
		<tag k="name" v="Sunnbakk" />
		<tag k="place" v="farm" />
		<tag k="ssr:stedsnr" v="281059" />
	</node>
	<node lat="68.4648777761277" lon="16.780058336742712" id="-10045">
		<tag k="name" v="Haugen" />
		<tag k="place" v="farm" />
		<tag k="ssr:stedsnr" v="300551" />
	</node>
	<node lat="68.49406944043686" lon="16.63020277178483" id="-10052">
		<tag k="alt_name" v="Høyaas vestre" />
		<tag k="name" v="Høgås" />
		<tag k="place" v="farm" />
		<tag k="ssr:stedsnr" v="320376" />
	</node>
	<node lat="68.46972574724941" lon="16.85726939612148" id="-10058">
		<tag k="fixme" v="consider place=hamlet" />
		<tag k="name" v="Vollen" />
		<tag k="place" v="farm" />
		<tag k="ssr:stedsnr" v="321473" />
	</node>
	<node lat="68.52469166992674" lon="16.767369455750362" id="-10067">
		<tag k="alt_name" v="Vindal" />
		<tag k="name" v="Vinddal" />
		<tag k="place" v="farm" />
		<tag k="ssr:stedsnr" v="323792" />
	</node>
	<node lat="68.50503610643392" lon="16.740936115613017" id="-10070">
		<tag k="name" v="Nyheim" />
		<tag k="place" v="farm" />
		<tag k="ssr:stedsnr" v="323949" />
	</node>
	<node lat="68.46000555219105" lon="17.02352776721801" id="-10077">
		<tag k="name" v="Utheim" />
		<tag k="place" v="farm" />
		<tag k="ssr:stedsnr" v="328182" />
	</node>
	<node lat="68.49858055779075" lon="16.91671944549613" id="-10078">
		<tag k="name" v="Høytomt" />
		<tag k="place" v="farm" />
		<tag k="ssr:stedsnr" v="328193" />
	</node>
	<node lat="68.49989722351341" lon="16.75053333801284" id="-10080">
		<tag k="name" v="Finnhaug - Čorru" />
		<tag k="name:no" v="Finnhaug" />
		<tag k="name:se" v="Čorru" />
		<tag k="old_name:no" v="Finhaug" />
		<tag k="place" v="farm" />
		<tag k="ssr:stedsnr" v="328300" />
	</node>
	<node lat="68.51152778216917" lon="17.0477249994332" id="-10088">
		<tag k="name" v="Ljøra" />
		<tag k="place" v="farm" />
		<tag k="ssr:stedsnr" v="328888" />
	</node>
	<node lat="68.55400833142478" lon="17.078474989893916" id="-10097">
		<tag k="fixme" v="consider tourism=alpine_hut or tourism=chalet" />
		<tag k="name" v="Niingshytta" />
		<tag k="ssr:stedsnr" v="345842" />
		<tag k="tourism" v="wilderness_hut" />
	</node>
	<node lat="68.45723430697882" lon="16.586715176881032" id="-10113">
		<tag k="alt_name:no" v="Skard" />
		<tag k="fixme" v="consider place=hamlet" />
		<tag k="name" v="Skar - Skárddik" />
		<tag k="name:no" v="Skar" />
		<tag k="name:se" v="Skárddik" />
		<tag k="place" v="farm" />
		<tag k="ssr:stedsnr" v="381441" />
	</node>
	<node lat="68.48093333480533" lon="16.943236108008257" id="-10114">
		<tag k="alt_name" v="Fossmo" />
		<tag k="name" v="Forsmo" />
		<tag k="place" v="farm" />
		<tag k="ssr:stedsnr" v="381514" />
	</node>
	<node lat="68.46618333245299" lon="17.24799167396451" id="-10117">
		<tag k="fixme" v="consider place=hamlet" />
		<tag k="name" v="Veggen - Veaggu" />
		<tag k="name:no" v="Veggen" />
		<tag k="name:se" v="Veaggu" />
		<tag k="place" v="village" />
		<tag k="ssr:stedsnr" v="381501" />
	</node>
	<node lat="68.50024166477631" lon="16.757472225737175" id="-10118">
		<tag k="name" v="Fedreheim" />
=======
	<node id="-186115" lat="68.493319444" lon="16.7320277858">
		<tag k="name" v="Daleng" />
		<tag k="place" v="farm" />
		<tag k="ssr:stedsnr" v="571356" />
	</node>
	<node id="-185599" lat="68.5154722191" lon="16.7413416603">
		<tag k="name" v="Elvebakken - Boalajoarkka" />
		<tag k="name:no" v="Elvebakken" />
		<tag k="name:se" v="Boalajoarkka" />
		<tag k="place" v="farm" />
		<tag k="ssr:stedsnr" v="725594" />
	</node>
	<node id="-185086" lat="68.5347861141" lon="17.0066944469">
		<tag k="name" v="Østgård" />
		<tag k="place" v="farm" />
		<tag k="ssr:stedsnr" v="221069" />
	</node>
	<node id="-186104" lat="68.4985166684" lon="16.7483416624">
		<tag k="name" v="Vesterheim" />
		<tag k="place" v="farm" />
		<tag k="ssr:stedsnr" v="570282" />
	</node>
	<node id="-186029" lat="68.4861222191" lon="16.8943638764">
		<tag k="fixme" v="multiple name tags, choose one and add the other to alt_name" />
		<tag k="name" v="Bjønnli;Høgda" />
		<tag k="place" v="farm" />
		<tag k="ssr:stedsnr" v="380564" />
	</node>
	<node id="-186097" lat="68.5132010476" lon="16.7548608462">
		<tag k="alt_name" v="Fjellakslen" />
		<tag k="fixme" v="consider place=hamlet" />
		<tag k="name" v="Fjellaksla" />
		<tag k="place" v="farm" />
		<tag k="ssr:stedsnr" v="566828" />
	</node>
	<node id="-186096" lat="68.5126527792" lon="16.7215722211">
		<tag k="alt_name" v="Fagerlid" />
		<tag k="name" v="Fagerli" />
		<tag k="place" v="farm" />
		<tag k="ssr:stedsnr" v="566824" />
	</node>
	<node id="-186091" lat="68.5022333357" lon="16.7418916692">
		<tag k="alt_name" v="Lyngmoen" />
		<tag k="name" v="Lyngmo" />
		<tag k="place" v="farm" />
		<tag k="ssr:stedsnr" v="565943" />
	</node>
	<node id="-186086" lat="68.4690277993" lon="16.8200257778">
		<tag k="alt_name" v="Lilandskardet" />
		<tag k="fixme" v="consider place=hamlet" />
		<tag k="name" v="Lilandskar" />
		<tag k="place" v="farm" />
		<tag k="ssr:stedsnr" v="563493" />
	</node>
	<node id="-185570" lat="68.5185305592" lon="17.1412861203">
		<tag k="name" v="Skjellhaugen" />
		<tag k="place" v="farm" />
		<tag k="ssr:stedsnr" v="571907" />
	</node>
	<node id="-185560" lat="68.4573416654" lon="16.6030888781">
		<tag k="name" v="Bakken" />
		<tag k="place" v="farm" />
		<tag k="ssr:stedsnr" v="571311" />
	</node>
	<node id="-185559" lat="68.4600972233" lon="16.5999805432">
		<tag k="name" v="Øverlandet" />
		<tag k="place" v="farm" />
		<tag k="ssr:stedsnr" v="571310" />
	</node>
	<node id="-185379" lat="68.4758444433" lon="16.6984527817">
		<tag k="name" v="Fredly" />
		<tag k="place" v="farm" />
		<tag k="ssr:stedsnr" v="502431" />
	</node>
	<node id="-186060" lat="68.5102611111" lon="16.7487749966">
		<tag k="fixme" v="consider place=hamlet" />
		<tag k="loc_name:no" v="Lavangseidet" />
		<tag k="name" v="Loabákáidi" />
		<tag k="name:se" v="Loabákáidi" />
		<tag k="place" v="village" />
		<tag k="ssr:stedsnr" v="422414" />
	</node>
	<node id="-185538" lat="68.4672444469" lon="16.7407805547">
		<tag k="name" v="Sætran" />
		<tag k="place" v="locality" />
		<tag k="ssr:stedsnr" v="543610" />
	</node>
	<node id="-186035" lat="68.5002416648" lon="16.7574722257">
		<tag k="name" v="Fedreheim" />
		<tag k="place" v="farm" />
		<tag k="ssr:stedsnr" v="383976" />
	</node>
	<node id="-186034" lat="68.50831111" lon="16.7491083332">
		<tag k="name" v="Nordmarka - Geabarohtu" />
		<tag k="name:no" v="Nordmarka" />
		<tag k="name:se" v="Geabarohtu" />
		<tag k="place" v="farm" />
		<tag k="ssr:stedsnr" v="383949" />
	</node>
	<node id="-186031" lat="68.4661833325" lon="17.247991674">
		<tag k="fixme" v="consider place=hamlet" />
		<tag k="loc_name:se" v="Veaggu" />
		<tag k="name" v="Veggen" />
		<tag k="name:no" v="Veggen" />
		<tag k="place" v="village" />
		<tag k="ssr:stedsnr" v="381501" />
	</node>
	<node id="-185518" lat="68.5039333317" lon="16.9186083263">
		<tag k="name" v="Bjørkmo" />
		<tag k="place" v="farm" />
		<tag k="ssr:stedsnr" v="692184" />
	</node>
	<node id="-186180" lat="68.5319388872" lon="17.0173027761">
		<tag k="name" v="Stuven" />
		<tag k="place" v="farm" />
		<tag k="ssr:stedsnr" v="645035" />
	</node>
	<node id="-185116" lat="68.4816777741" lon="16.8923194519">
		<tag k="name" v="Solberg" />
		<tag k="place" v="farm" />
		<tag k="ssr:stedsnr" v="39056" />
	</node>
	<node id="-185456" lat="68.4667166649" lon="16.6573888851">
		<tag k="name" v="Nordheim" />
		<tag k="place" v="farm" />
		<tag k="ssr:stedsnr" v="664522" />
	</node>
	<node id="-186014" lat="68.5540083314" lon="17.0784749899">
		<tag k="fixme" v="consider tourism=alpine_hut or tourism=chalet" />
		<tag k="name" v="Niingshytta" />
		<tag k="ssr:stedsnr" v="345842" />
		<tag k="tourism" v="wilderness_hut" />
	</node>
	<node id="-185500" lat="68.4699275103" lon="17.0863836452">
		<tag k="fixme" v="consider place=hamlet" />
		<tag k="name" v="Botnmarka" />
		<tag k="place" v="farm" />
		<tag k="ssr:stedsnr" v="685495" />
	</node>
	<node id="-185499" lat="68.4657722185" lon="17.2251333326">
		<tag k="name" v="Lundvoll" />
		<tag k="place" v="farm" />
		<tag k="ssr:stedsnr" v="685488" />
	</node>
	<node id="-185344" lat="68.4940694404" lon="16.6302027718">
		<tag k="alt_name" v="Høyaas vestre" />
		<tag k="name" v="Høgås" />
		<tag k="place" v="farm" />
		<tag k="ssr:stedsnr" v="320376" />
	</node>
	<node id="-186004" lat="68.4811083323" lon="16.8844472215">
		<tag k="name" v="Birkelund" />
		<tag k="place" v="farm" />
		<tag k="ssr:stedsnr" v="342059" />
	</node>
	<node id="-186000" lat="68.5115277822" lon="17.0477249994">
		<tag k="name" v="Ljøra" />
		<tag k="place" v="farm" />
		<tag k="ssr:stedsnr" v="328888" />
	</node>
	<node id="-185156" lat="68.4610083382" lon="16.677383323">
		<tag k="name" v="Løvollen" />
		<tag k="place" v="farm" />
		<tag k="ssr:stedsnr" v="259452" />
	</node>
	<node id="-185173" lat="68.5103305565" lon="16.7490694395">
		<tag k="name" v="Dalhaugen" />
>>>>>>> e1d4bc35ff8a6074a6f2e91616a996b547c36f15
		<tag k="place" v="farm" />
		<tag k="ssr:stedsnr" v="383976" />
	</node>
<<<<<<< HEAD
	<node lat="68.52570833269071" lon="16.990413877959845" id="-10130">
		<tag k="fixme" v="consider place=suburb, village or hamlet" />
		<tag k="name" v="Strand" />
		<tag k="place" v="quarter" />
		<tag k="ssr:stedsnr" v="389773" />
	</node>
	<node lat="68.46447222023276" lon="16.655250000974" id="-10142">
		<tag k="name" v="Stunes - Stohponášši" />
		<tag k="name:no" v="Stunes" />
		<tag k="name:se" v="Stohponášši" />
		<tag k="place" v="hamlet" />
		<tag k="ssr:stedsnr" v="404453" />
	</node>
	<node lat="68.52851944237565" lon="16.76837222444988" id="-10143">
		<tag k="name" v="Myrnes - Várivuolli" />
		<tag k="name:no" v="Myrnes" />
		<tag k="name:se" v="Várivuolli" />
		<tag k="place" v="hamlet" />
		<tag k="ssr:stedsnr" v="404462" />
	</node>
	<node lat="68.49973610808156" lon="16.70177500805446" id="-10145">
		<tag k="name" v="Skoglund" />
		<tag k="place" v="farm" />
		<tag k="ssr:stedsnr" v="449047" />
	</node>
	<node lat="68.4827055604545" lon="16.704016657782784" id="-10158">
		<tag k="name" v="Myrland" />
		<tag k="place" v="farm" />
		<tag k="ssr:stedsnr" v="441434" />
	</node>
	<node lat="68.48241215425787" lon="17.110094588591085" id="-10161">
		<tag k="fixme" v="consider place=hamlet" />
		<tag k="loc_name:se" v="Boahttan" />
		<tag k="name" v="Botn" />
		<tag k="name:no" v="Botn" />
		<tag k="place" v="farm" />
		<tag k="ssr:stedsnr" v="441527" />
	</node>
	<node lat="68.45815833633439" lon="17.11495833775573" id="-10163">
		<tag k="name" v="Granmo" />
		<tag k="place" v="farm" />
		<tag k="ssr:stedsnr" v="442973" />
	</node>
	<node lat="68.53346110940392" lon="16.779055550238922" id="-10164">
		<tag k="name" v="Fjellelva" />
		<tag k="place" v="farm" />
		<tag k="ssr:stedsnr" v="444772" />
	</node>
	<node lat="68.50998611069814" lon="17.058808335861883" id="-10168">
		<tag k="fixme" v="consider place=hamlet" />
		<tag k="name" v="Lenvika - Leaŋgaviika" />
		<tag k="name:no" v="Lenvika" />
		<tag k="name:se" v="Leaŋgaviika" />
		<tag k="place" v="village" />
		<tag k="ssr:stedsnr" v="445643" />
	</node>
	<node lat="68.46902779934425" lon="16.820025777807444" id="-10224">
		<tag k="alt_name" v="Lilandskardet" />
		<tag k="fixme" v="consider place=hamlet" />
		<tag k="name" v="Lilandskar" />
		<tag k="place" v="farm" />
		<tag k="ssr:stedsnr" v="563493" />
	</node>
	<node lat="68.50223333574014" lon="16.741891669201248" id="-10229">
		<tag k="alt_name" v="Lyngmoen" />
		<tag k="name" v="Lyngmo" />
		<tag k="place" v="farm" />
		<tag k="ssr:stedsnr" v="565943" />
	</node>
	<node lat="68.512652779235" lon="16.72157222113441" id="-10233">
		<tag k="alt_name" v="Fagerlid" />
		<tag k="name" v="Fagerli" />
		<tag k="place" v="farm" />
		<tag k="ssr:stedsnr" v="566824" />
	</node>
	<node lat="68.51320104759188" lon="16.754860846225974" id="-10234">
		<tag k="alt_name" v="Fjellakslen" />
		<tag k="fixme" v="consider place=hamlet" />
		<tag k="name" v="Fjellaksla" />
		<tag k="place" v="farm" />
		<tag k="ssr:stedsnr" v="566828" />
	</node>
	<node lat="68.49851666836139" lon="16.7483416623975" id="-10239">
		<tag k="name" v="Vesterheim" />
		<tag k="place" v="farm" />
		<tag k="ssr:stedsnr" v="570282" />
	</node>
	<node lat="68.45874999938592" lon="16.69945554477219" id="-10250">
		<tag k="fixme" v="consider place=hamlet" />
		<tag k="name" v="Evenes - Evenášši" />
		<tag k="name:no" v="Evenes" />
		<tag k="name:se" v="Evenášši" />
		<tag k="place" v="village" />
		<tag k="ssr:stedsnr" v="571359" />
	</node>
	<node lat="68.45755277760865" lon="16.69439167041686" id="-10252">
		<tag k="name" v="Lunnan" />
		<tag k="place" v="farm" />
		<tag k="ssr:stedsnr" v="571363" />
	</node>
	<node lat="68.46009722329089" lon="16.59998054316619" id="-10254">
		<tag k="name" v="Øverlandet" />
		<tag k="place" v="farm" />
		<tag k="ssr:stedsnr" v="571310" />
	</node>
	<node lat="68.45734166541774" lon="16.60308887810558" id="-10255">
		<tag k="name" v="Bakken" />
		<tag k="place" v="farm" />
		<tag k="ssr:stedsnr" v="571311" />
	</node>
	<node lat="68.51884444053272" lon="16.961819449633424" id="-10269">
		<tag k="name" v="Slettebakk" />
		<tag k="place" v="isolated_dwelling" />
		<tag k="ssr:stedsnr" v="572353" />
	</node>
	<node lat="68.46143889243086" lon="17.1671111029545" id="-10288">
		<tag k="alt_name:no" v="Sølvsteinlien" />
		<tag k="name" v="Sølvsteinlia - Silbagoaluohkká" />
		<tag k="name:no" v="Sølvsteinlia" />
		<tag k="name:se" v="Silbagoaluohkká" />
		<tag k="place" v="farm" />
		<tag k="ssr:stedsnr" v="624506" />
	</node>
	<node lat="68.45913333591453" lon="17.113636099960644" id="-10293">
		<tag k="alt_name:no" v="Brenna ytre" />
		<tag k="name" v="Brenna - Buollám" />
		<tag k="name:no" v="Brenna" />
		<tag k="name:se" v="Buollám" />
		<tag k="place" v="farm" />
		<tag k="ssr:stedsnr" v="624974" />
	</node>
	<node lat="68.46463055377772" lon="16.642430565547315" id="-10304">
		<tag k="name" v="Osvoll" />
		<tag k="place" v="farm" />
		<tag k="ssr:stedsnr" v="631260" />
	</node>
	<node lat="68.51273611410257" lon="17.058174989666725" id="-10311">
		<tag k="name" v="Gulljorda" />
		<tag k="place" v="farm" />
		<tag k="ssr:stedsnr" v="631899" />
	</node>
	<node lat="68.53193888721162" lon="17.01730277613135" id="-10318">
		<tag k="name" v="Stuven" />
		<tag k="place" v="farm" />
		<tag k="ssr:stedsnr" v="645035" />
	</node>
	<node lat="68.46679166833356" lon="16.783897230527476" id="-10331">
		<tag k="name" v="Stranda" />
=======
	<node id="-185988" lat="68.4998972235" lon="16.750533338">
		<tag k="alt_name:no" v="Finhaug" />
		<tag k="name" v="Finnhaug - Čorru" />
		<tag k="name:no" v="Finnhaug" />
		<tag k="name:se" v="Čorru" />
		<tag k="place" v="farm" />
		<tag k="ssr:stedsnr" v="328300" />
	</node>
	<node id="-185985" lat="68.4985805578" lon="16.9167194455">
		<tag k="name" v="Høytomt" />
		<tag k="place" v="farm" />
		<tag k="ssr:stedsnr" v="328193" />
	</node>
	<node id="-185984" lat="68.4600055522" lon="17.0235277672">
		<tag k="name" v="Utheim" />
		<tag k="place" v="farm" />
		<tag k="ssr:stedsnr" v="328182" />
	</node>
	<node id="-185982" lat="68.5050361064" lon="16.7409361156">
		<tag k="name" v="Nyheim" />
		<tag k="place" v="farm" />
		<tag k="ssr:stedsnr" v="323949" />
	</node>
	<node id="-185469" lat="68.480541669" lon="16.9475611132">
		<tag k="name" v="Gammelgården" />
		<tag k="place" v="farm" />
		<tag k="ssr:stedsnr" v="463047" />
	</node>
	<node id="-185467" lat="68.4804527763" lon="16.8851194472">
		<tag k="name" v="Bjørklund" />
		<tag k="place" v="farm" />
		<tag k="ssr:stedsnr" v="461609" />
	</node>
	<node id="-185978" lat="68.5246916699" lon="16.7673694558">
		<tag k="alt_name" v="Vindal" />
		<tag k="name" v="Vinddal" />
		<tag k="place" v="farm" />
		<tag k="ssr:stedsnr" v="323792" />
	</node>
	<node id="-185465" lat="68.528075003" lon="16.7689833285">
		<tag k="name" v="Myrland" />
		<tag k="place" v="farm" />
		<tag k="ssr:stedsnr" v="664632" />
	</node>
	<node id="-186387" lat="68.4742383911" lon="16.872874459">
		<tag k="fixme" v="consider place=hamlet" />
		<tag k="name" v="Liland" />
		<tag k="place" v="farm" />
		<tag k="ssr:stedsnr" v="1076437" />
	</node>
	<node id="-185968" lat="68.4697257472" lon="16.8572693961">
		<tag k="fixme" v="consider place=hamlet" />
		<tag k="name" v="Vollen" />
		<tag k="place" v="farm" />
		<tag k="ssr:stedsnr" v="321473" />
	</node>
	<node id="-185617" lat="68.4864194404" lon="16.9098499935">
		<tag k="name" v="Øysundet" />
		<tag k="place" v="farm" />
		<tag k="ssr:stedsnr" v="684521" />
	</node>
	<node id="-185444" lat="68.4603555572" lon="16.5940222253">
		<tag k="name" v="Nymo" />
		<tag k="place" v="farm" />
		<tag k="ssr:stedsnr" v="450306" />
	</node>
	<node id="-185953" lat="68.5239916851" lon="17.1546201726">
		<tag k="alt_name" v="Lenvikmark" />
		<tag k="fixme" v="consider place=hamlet" />
		<tag k="name" v="Lenvikmarka" />
		<tag k="place" v="farm" />
		<tag k="ssr:stedsnr" v="207897" />
	</node>
	<node id="-185947" lat="68.5094361098" lon="16.9270750054">
		<tag k="name" v="Bratteng" />
>>>>>>> e1d4bc35ff8a6074a6f2e91616a996b547c36f15
		<tag k="place" v="farm" />
		<tag k="ssr:stedsnr" v="207789" />
	</node>
<<<<<<< HEAD
	<node lat="68.51547221907288" lon="16.741341660256023" id="-10333">
		<tag k="name" v="Elvebakken - Boalajoarkka" />
		<tag k="name:no" v="Elvebakken" />
		<tag k="name:se" v="Boalajoarkka" />
		<tag k="place" v="farm" />
		<tag k="ssr:stedsnr" v="725594" />
	</node>
	<node lat="68.53967778019712" lon="17.25644999274419" id="-10338">
		<tag k="name" v="Holmvatn" />
		<tag k="place" v="farm" />
		<tag k="ssr:stedsnr" v="748585" />
	</node>
	<node lat="68.53282378156274" lon="17.187775331506195" id="-10339">
		<tag k="fixme" v="consider place=hamlet" />
		<tag k="name" v="Snubba - Duorga" />
		<tag k="name:no" v="Snubba" />
		<tag k="name:se" v="Duorga" />
		<tag k="place" v="village" />
		<tag k="ssr:stedsnr" v="748597" />
	</node>
	<node lat="68.50330668788341" lon="17.078195134866498" id="-10341">
		<tag k="alt_name:no" v="Austervika;Østervik" />
		<tag k="fixme" v="consider place=hamlet" />
		<tag k="loc_name:se" v="Eavsttárviika" />
		<tag k="name" v="Østervika" />
		<tag k="name:no" v="Østervika" />
		<tag k="place" v="village" />
		<tag k="ssr:stedsnr" v="748618" />
	</node>
	<node lat="68.51075277541761" lon="16.929863881643854" id="-10355">
		<tag k="name" v="Fagertun" />
		<tag k="place" v="farm" />
		<tag k="ssr:stedsnr" v="753776" />
	</node>
	<node lat="68.48059721809821" lon="16.711922217313468" id="-10390">
		<tag k="name" v="Solvoll" />
		<tag k="place" v="farm" />
		<tag k="ssr:stedsnr" v="805446" />
	</node>
	<node lat="68.49823888590682" lon="16.738591662574066" id="-10410">
		<tag k="name" v="Øverland" />
		<tag k="place" v="farm" />
		<tag k="ssr:stedsnr" v="814389" />
	</node>
	<node lat="68.5094222270275" lon="17.05335832250901" id="-10414">
		<tag k="name" v="Haugen" />
		<tag k="place" v="farm" />
		<tag k="ssr:stedsnr" v="814900" />
	</node>
	<node lat="68.49387778017616" lon="16.75682500743535" id="-10441">
		<tag k="name" v="Dalbakken" />
		<tag k="place" v="farm" />
		<tag k="ssr:stedsnr" v="874343" />
	</node>
	<node lat="68.50100000347103" lon="16.75157499331456" id="-10442">
		<tag k="historic" v="shieling" />
		<tag k="name" v="Goahtesadji" />
		<tag k="name:se" v="Goahtesadji" />
		<tag k="place" v="isolated_dwelling" />
		<tag k="ssr:stedsnr" v="874347" />
	</node>
	<node lat="68.51181111206049" lon="16.929427765584528" id="-10468">
		<tag k="name" v="Mellomgård" />
		<tag k="place" v="farm" />
		<tag k="ssr:stedsnr" v="875789" />
	</node>
	<node lat="68.51953147408878" lon="17.0084528085223" id="-10487">
		<tag k="fixme" v="consider place=hamlet" />
		<tag k="name" v="Bergvik" />
		<tag k="place" v="farm" />
		<tag k="ssr:stedsnr" v="946649" />
	</node>
	<node lat="68.46304722261857" lon="17.150194443693685" id="-10492">
		<tag k="name" v="Sætran" />
		<tag k="place" v="locality" />
		<tag k="ssr:stedsnr" v="949034" />
	</node>
	<node lat="68.52693610959751" lon="16.776727778906874" id="-10502">
		<tag k="loc_name:se" v="Gállogieddi" />
		<tag k="name" v="Myrnes søndre" />
		<tag k="name:no" v="Myrnes søndre" />
		<tag k="place" v="farm" />
		<tag k="ssr:stedsnr" v="952631" />
	</node>
	<node lat="68.45655000250648" lon="16.592961119290546" id="-10505">
		<tag k="name" v="Skar - Skárddik" />
		<tag k="name:no" v="Skar" />
		<tag k="name:se" v="Skárddik" />
		<tag k="place" v="hamlet" />
		<tag k="ssr:stedsnr" v="969529" />
	</node>
	<node lat="68.46431904737864" lon="17.03556404983786" id="-10506">
		<tag k="fixme" v="consider place=hamlet" />
		<tag k="name" v="Forra - Fárru" />
		<tag k="name:no" v="Forra" />
		<tag k="name:se" v="Fárru" />
		<tag k="place" v="farm" />
		<tag k="ssr:stedsnr" v="987552" />
	</node>
	<node lat="68.46630578968178" lon="17.246732771233326" id="-10507">
		<tag k="fixme" v="consider place=hamlet" />
		<tag k="name" v="Veggen - Veaggu" />
		<tag k="name:no" v="Veggen" />
		<tag k="name:se" v="Veaggu" />
		<tag k="place" v="farm" />
		<tag k="ssr:stedsnr" v="987553" />
	</node>
	<node lat="68.51120046962475" lon="17.05471941143364" id="-10508">
		<tag k="fixme" v="consider place=hamlet" />
		<tag k="name" v="Lenvika - Leaŋgaviika" />
		<tag k="name:no" v="Lenvika" />
		<tag k="name:se" v="Leaŋgaviika" />
		<tag k="place" v="farm" />
		<tag k="ssr:stedsnr" v="987554" />
	</node>
	<node lat="68.45964200563722" lon="16.626786694663526" id="-10510">
		<tag k="fixme" v="consider place=hamlet" />
		<tag k="name" v="Tårstad - Durrák" />
		<tag k="name:no" v="Tårstad" />
		<tag k="name:se" v="Durrák" />
		<tag k="place" v="farm" />
		<tag k="ssr:stedsnr" v="987555" />
	</node>
	<node lat="68.5011438483691" lon="17.080059499636143" id="-10511">
		<tag k="fixme" v="consider place=hamlet" />
		<tag k="name" v="Østervika - Eavsttárviika" />
		<tag k="name:no" v="Østervika" />
		<tag k="name:se" v="Eavsttárviika" />
		<tag k="place" v="farm" />
		<tag k="ssr:stedsnr" v="987556" />
	</node>
	<node lat="68.4584897677962" lon="16.699345814443113" id="-10512">
		<tag k="fixme" v="consider place=hamlet" />
		<tag k="name" v="Evenes - Evenášši" />
		<tag k="name:no" v="Evenes" />
		<tag k="name:se" v="Evenášši" />
		<tag k="place" v="farm" />
		<tag k="ssr:stedsnr" v="987557" />
	</node>
	<node lat="68.52296149007148" lon="16.766963588965144" id="-10513">
		<tag k="name" v="Fjellkroken - Várremoski" />
		<tag k="name:no" v="Fjellkroken" />
		<tag k="name:se" v="Várremoski" />
		<tag k="place" v="farm" />
		<tag k="ssr:stedsnr" v="987800" />
	</node>
	<node lat="68.46174464683517" lon="16.655162879522635" id="-10514">
		<tag k="name" v="Stunes - Stohponášši" />
		<tag k="name:no" v="Stunes" />
		<tag k="name:se" v="Stohponášši" />
		<tag k="place" v="farm" />
		<tag k="ssr:stedsnr" v="987801" />
	</node>
	<node lat="68.48520042707835" lon="16.886038577857928" id="-10515">
		<tag k="name" v="Bjellgam - Bealgápmá" />
		<tag k="name:no" v="Bjellgam" />
		<tag k="name:se" v="Bealgápmá" />
		<tag k="place" v="farm" />
		<tag k="ssr:stedsnr" v="987803" />
	</node>
	<node lat="68.45923079370968" lon="17.12311216660947" id="-10516">
		<tag k="name" v="Indre Brenna - Buollám" />
		<tag k="name:no" v="Indre Brenna" />
		<tag k="name:se" v="Buollám" />
		<tag k="place" v="farm" />
		<tag k="ssr:stedsnr" v="987805" />
	</node>
	<node lat="68.46615826873328" lon="17.0620621914371" id="-10517">
		<tag k="name" v="Forra - Fárru" />
		<tag k="name:no" v="Forra" />
		<tag k="name:se" v="Fárru" />
		<tag k="place" v="farm" />
		<tag k="ssr:stedsnr" v="987806" />
	</node>
	<node lat="68.46546086740224" lon="17.038460050537022" id="-10518">
		<tag k="name" v="Forra - Fárru" />
		<tag k="name:no" v="Forra" />
		<tag k="name:se" v="Fárru" />
		<tag k="place" v="farm" />
		<tag k="ssr:stedsnr" v="987807" />
	</node>
	<node lat="68.45747469869379" lon="17.138350306167958" id="-10519">
		<tag k="name" v="Veggen - Veaggu" />
		<tag k="name:no" v="Veggen" />
		<tag k="name:se" v="Veaggu" />
		<tag k="place" v="farm" />
		<tag k="ssr:stedsnr" v="987808" />
	</node>
	<node lat="68.51248517012166" lon="17.03719137775318" id="-10520">
=======
	<node id="-185938" lat="68.4950222185" lon="16.7622166699">
		<tag k="name" v="Storbakken" />
		<tag k="place" v="farm" />
		<tag k="ssr:stedsnr" v="207327" />
	</node>
	<node id="-185923" lat="68.5348083351" lon="16.7789166557">
		<tag k="alt_name" v="Solhaug" />
		<tag k="name" v="Sollihaug" />
		<tag k="place" v="farm" />
		<tag k="ssr:stedsnr" v="202790" />
	</node>
	<node id="-185922" lat="68.5108956238" lon="16.9273437436">
		<tag k="alt_name" v="Dragvika" />
		<tag k="fixme" v="consider place=hamlet" />
		<tag k="name" v="Dragvik" />
		<tag k="place" v="farm" />
		<tag k="ssr:stedsnr" v="202653" />
	</node>
	<node id="-185917" lat="68.46536667" lon="17.0334333381">
		<tag k="alt_name:no" v="Fora" />
		<tag k="fixme" v="consider place=hamlet" />
		<tag k="loc_name:se" v="Fárru" />
		<tag k="name" v="Forra" />
		<tag k="name:no" v="Forra" />
		<tag k="place" v="village" />
		<tag k="ssr:stedsnr" v="199501" />
	</node>
	<node id="-185915" lat="68.4666111108" lon="16.7002638838">
		<tag k="name" v="Berg" />
		<tag k="place" v="farm" />
		<tag k="ssr:stedsnr" v="199442" />
	</node>
	<node id="-185914" lat="68.4739722198" lon="16.7103944414">
		<tag k="name" v="Åsheim" />
		<tag k="place" v="farm" />
		<tag k="ssr:stedsnr" v="199418" />
	</node>
	<node id="-185396" lat="68.5257083327" lon="16.990413878">
		<tag k="fixme" v="consider place=suburb, village or hamlet" />
		<tag k="name" v="Strand" />
		<tag k="place" v="quarter" />
		<tag k="ssr:stedsnr" v="389773" />
	</node>
	<node id="-185907" lat="68.4648777761" lon="16.7800583367">
		<tag k="name" v="Haugen" />
		<tag k="place" v="farm" />
		<tag k="ssr:stedsnr" v="300551" />
	</node>
	<node id="-185904" lat="68.5357094985" lon="17.0222343781">
		<tag k="fixme" v="consider place=hamlet" />
		<tag k="name" v="Strand" />
		<tag k="place" v="farm" />
		<tag k="ssr:stedsnr" v="160033" />
	</node>
	<node id="-186118" lat="68.4575527776" lon="16.6943916704">
		<tag k="name" v="Lunnan" />
		<tag k="place" v="farm" />
		<tag k="ssr:stedsnr" v="571363" />
	</node>
	<node id="-185378" lat="68.486883329" lon="16.7152999979">
		<tag k="name" v="Sørås" />
		<tag k="place" v="farm" />
		<tag k="ssr:stedsnr" v="502381" />
	</node>
	<node id="-185377" lat="68.4905222214" lon="16.7179250001">
		<tag k="name" v="Nystad" />
		<tag k="place" v="farm" />
		<tag k="ssr:stedsnr" v="502379" />
	</node>
	<node id="-185372" lat="68.4809333348" lon="16.943236108">
		<tag k="alt_name" v="Fossmo" />
		<tag k="name" v="Forsmo" />
		<tag k="place" v="farm" />
		<tag k="ssr:stedsnr" v="381514" />
	</node>
	<node id="-185882" lat="68.50009722" lon="16.7119111167">
		<tag k="name" v="Lundemo" />
		<tag k="place" v="farm" />
		<tag k="ssr:stedsnr" v="141957" />
	</node>
	<node id="-185519" lat="68.5032972195" lon="16.9094166653">
		<tag k="name" v="Nyborg" />
		<tag k="place" v="farm" />
		<tag k="ssr:stedsnr" v="692185" />
	</node>
	<node id="-185880" lat="68.5151111095" lon="16.7292722319">
		<tag k="name" v="Nordbakk" />
		<tag k="place" v="farm" />
		<tag k="ssr:stedsnr" v="141789" />
	</node>
	<node id="-185878" lat="68.5141035981" lon="17.0168819717">
		<tag k="fixme" v="consider place=hamlet" />
		<tag k="name" v="Kleiva" />
		<tag k="place" v="farm" />
		<tag k="ssr:stedsnr" v="141633" />
	</node>
	<node id="-186389" lat="68.5501430217" lon="17.2331288104">
		<tag k="name" v="Bogmarka" />
		<tag k="place" v="locality" />
		<tag k="ssr:stedsnr" v="1076439" />
	</node>
	<node id="-186388" lat="68.5046060182" lon="16.9217061944">
		<tag k="fixme" v="consider place=hamlet" />
		<tag k="name" v="Lakså" />
		<tag k="place" v="farm" />
		<tag k="ssr:stedsnr" v="1076438" />
	</node>
	<node id="-186030" lat="68.457234307" lon="16.5867151769">
		<tag k="alt_name:no" v="Skard" />
		<tag k="fixme" v="consider place=hamlet" />
		<tag k="name" v="Skar - Skárddik" />
		<tag k="name:no" v="Skar" />
		<tag k="name:se" v="Skárddik" />
		<tag k="place" v="farm" />
		<tag k="ssr:stedsnr" v="381441" />
	</node>
	<node id="-186386" lat="68.4917190778" lon="16.8180758011">
		<tag k="name" v="Osvatnet" />
		<tag k="place" v="locality" />
		<tag k="ssr:stedsnr" v="1076429" />
	</node>
	<node id="-186385" lat="68.5120764976" lon="16.742608734">
		<tag k="fixme" v="consider place=hamlet" />
		<tag k="name" v="Dalshaugen" />
		<tag k="place" v="farm" />
		<tag k="ssr:stedsnr" v="1076428" />
	</node>
	<node id="-186384" lat="68.4656789383" lon="17.2441304879">
		<tag k="fixme" v="consider place=hamlet" />
		<tag k="name" v="Ramnes" />
		<tag k="place" v="farm" />
		<tag k="ssr:stedsnr" v="1076427" />
	</node>
	<node id="-185688" lat="68.465688887" lon="17.2311194463">
		<tag k="name" v="Stimoen - Áidarasbákti" />
		<tag k="name:no" v="Stimoen" />
		<tag k="name:se" v="Áidarasbákti" />
		<tag k="place" v="farm" />
		<tag k="ssr:stedsnr" v="928462" />
	</node>
	<node id="-185261" lat="68.5334611094" lon="16.7790555502">
		<tag k="name" v="Fjellelva" />
		<tag k="place" v="farm" />
		<tag k="ssr:stedsnr" v="444772" />
	</node>
	<node id="-186369" lat="68.5124851701" lon="17.0371913778">
>>>>>>> e1d4bc35ff8a6074a6f2e91616a996b547c36f15
		<tag k="alt_name:no" v="Lenvik" />
		<tag k="fixme" v="consider place=hamlet" />
		<tag k="name" v="Lenvika - Leaŋgaviika" />
		<tag k="name:no" v="Lenvika" />
		<tag k="name:se" v="Leaŋgaviika" />
		<tag k="place" v="farm" />
		<tag k="ssr:stedsnr" v="987809" />
	</node>
<<<<<<< HEAD
	<node lat="68.52437017432577" lon="16.980336403864868" id="-10531">
		<tag k="name" v="Nystrand" />
		<tag k="place" v="farm" />
		<tag k="ssr:stedsnr" v="1072367" />
	</node>
	<node lat="68.51207649760704" lon="16.742608733986387" id="-10532">
		<tag k="fixme" v="consider place=hamlet" />
		<tag k="name" v="Dalshaugen" />
		<tag k="place" v="farm" />
		<tag k="ssr:stedsnr" v="1076428" />
	</node>
	<node lat="68.4917190778469" lon="16.8180758011171" id="-10533">
		<tag k="name" v="Osvatnet" />
		<tag k="place" v="locality" />
		<tag k="ssr:stedsnr" v="1076429" />
	</node>
	<node lat="68.4742383911388" lon="16.87287445903181" id="-10534">
		<tag k="fixme" v="consider place=hamlet" />
		<tag k="name" v="Liland" />
		<tag k="place" v="farm" />
		<tag k="ssr:stedsnr" v="1076437" />
	</node>
	<node lat="68.50460601824379" lon="16.921706194364646" id="-10535">
		<tag k="fixme" v="consider place=hamlet" />
		<tag k="name" v="Lakså" />
		<tag k="place" v="farm" />
		<tag k="ssr:stedsnr" v="1076438" />
	</node>
	<node lat="68.55014302172475" lon="17.233128810416783" id="-10536">
		<tag k="name" v="Bogmarka" />
		<tag k="place" v="locality" />
		<tag k="ssr:stedsnr" v="1076439" />
	</node>
	<node lat="68.4831986072416" lon="16.88818361529122" id="-10537">
		<tag k="amenity" v="school" />
		<tag k="name" v="Evenes  skole - Evenášši skovlá" />
		<tag k="name:no" v="Evenes  skole" />
		<tag k="name:se" v="Evenášši skovlá" />
		<tag k="ssr:stedsnr" v="1079415" />
	</node>
	<node lat="68.47528737467572" lon="16.88174918476796" id="-10538">
		<tag k="amenity" v="kindergarten" />
		<tag k="name" v="Liland barnehage - Lidalátti mánáidgárdi" />
		<tag k="name:no" v="Liland barnehage" />
		<tag k="name:se" v="Lidalátti mánáidgárdi" />
		<tag k="ssr:stedsnr" v="1079431" />
	</node>
	<node lat="68.51574219812387" lon="17.002240572243274" id="-10539">
		<tag k="amenity" v="kindergarten" />
		<tag k="name" v="Bogen barnehage - Rándda mánáidgárdi" />
		<tag k="name:no" v="Bogen barnehage" />
		<tag k="name:se" v="Rándda mánáidgárdi" />
		<tag k="ssr:stedsnr" v="1079435" />
	</node>
	<node lat="68.4841268631549" lon="16.890498654891204" id="-10540">
		<tag k="amenity" v="nursing_home" />
		<tag k="name" v="Evenes omsorgssenter - Evenášši dorvo- ja dikšosiida" />
		<tag k="name:no" v="Evenes omsorgssenter" />
		<tag k="name:se" v="Evenášši dorvo- ja dikšosiida" />
		<tag k="ssr:stedsnr" v="1079436" />
=======
	<node id="-185347" lat="68.4986361136" lon="16.9052833428">
		<tag k="name" v="Bjerkaas" />
		<tag k="place" v="farm" />
		<tag k="ssr:stedsnr" v="328207" />
	</node>
	<node id="-185858" lat="68.4975888885" lon="16.63918611">
		<tag k="name" v="Høyaas østre" />
		<tag k="place" v="isolated_dwelling" />
		<tag k="ssr:stedsnr" v="100432" />
	</node>
	<node id="-185345" lat="68.4927472195" lon="16.6501722203">
		<tag k="name" v="Kvassåsen" />
		<tag k="place" v="farm" />
		<tag k="ssr:stedsnr" v="320383" />
>>>>>>> e1d4bc35ff8a6074a6f2e91616a996b547c36f15
	</node>
</osm>
