<?xml version="1.0" encoding="UTF-8"?>
<osm version="0.6" generator="osmapis">
	<node lat="68.46255832958178" lon="17.026227770354478" id="-20314">
		<tag k="name" v="Slåtthaugen" />
		<tag k="natural" v="hill" />
		<tag k="place" v="locality" />
		<tag k="ssr:stedsnr" v="25193" />
	</node>
	<node lat="68.46204722358925" lon="16.67425000066376" id="-20315">
		<tag k="name" v="Kjerkberget" />
		<tag k="natural" v="hill" />
		<tag k="place" v="locality" />
		<tag k="ssr:stedsnr" v="25311" />
	</node>
	<node lat="68.53385277887621" lon="17.228199996833155" id="-20317">
		<tag k="name" v="Brenthaugen" />
		<tag k="natural" v="hill" />
		<tag k="place" v="locality" />
		<tag k="ssr:stedsnr" v="25485" />
	</node>
	<node lat="68.47875833567886" lon="17.11124721172062" id="-20319">
		<tag k="name" v="Heggbakken" />
		<tag k="natural" v="slope" />
		<tag k="place" v="locality" />
		<tag k="ssr:stedsnr" v="25920" />
	</node>
	<node lat="68.48806944229949" lon="17.118980547366615" id="-20323">
		<tag k="name" v="Bergtoftdalen" />
		<tag k="natural" v="valley" />
		<tag k="place" v="locality" />
		<tag k="ssr:stedsnr" v="39014" />
	</node>
	<node lat="68.50273333213622" lon="17.198277763582347" id="-20324">
		<tag k="fixme" v="consider natural=peak for the most distinct mountains in the district" />
		<tag k="name" v="Bjerkåsen" />
		<tag k="natural" v="hill" />
		<tag k="place" v="locality" />
		<tag k="ssr:stedsnr" v="39016" />
	</node>
	<node lat="68.4769555582" lon="16.61574999423057" id="-20327">
		<tag k="name" v="Reinskinndalen" />
		<tag k="natural" v="valley" />
		<tag k="place" v="locality" />
		<tag k="ssr:stedsnr" v="39463" />
	</node>
	<node lat="68.53069166440345" lon="16.78554721218598" id="-20328">
		<tag k="name" v="Geitberget" />
		<tag k="natural" v="hill" />
		<tag k="place" v="locality" />
		<tag k="ssr:stedsnr" v="54886" />
	</node>
	<node lat="68.4708194404899" lon="16.87049165851831" id="-20330">
		<tag k="name" v="Varden" />
		<tag k="natural" v="hill" />
		<tag k="place" v="locality" />
		<tag k="ssr:stedsnr" v="58648" />
	</node>
	<node lat="68.50949166288615" lon="16.824561100241628" id="-20337">
		<tag k="name" v="Reingjerdsletta" />
		<tag k="place" v="locality" />
		<tag k="ssr:stedsnr" v="240700" />
	</node>
	<node lat="68.46519444775824" lon="17.148663898853577" id="-20343">
		<tag k="name" v="Buhaugen" />
		<tag k="natural" v="hill" />
		<tag k="place" v="locality" />
		<tag k="ssr:stedsnr" v="78497" />
	</node>
	<node lat="68.45664722065571" lon="17.019727777226926" id="-20346">
		<tag k="name" v="Brennkåten" />
		<tag k="place" v="locality" />
		<tag k="ssr:stedsnr" v="86225" />
	</node>
	<node lat="68.47273055173713" lon="17.068055543517445" id="-20348">
		<tag k="name" v="Steinmoen" />
		<tag k="place" v="locality" />
		<tag k="ssr:stedsnr" v="86802" />
	</node>
	<node lat="68.46905555513455" lon="17.082963875294602" id="-20350">
		<tag k="name" v="Krokhallarsletta" />
		<tag k="place" v="locality" />
		<tag k="ssr:stedsnr" v="86817" />
	</node>
	<node lat="68.52922222527428" lon="17.102325005705346" id="-20351">
		<tag k="name" v="Røssalikollen" />
		<tag k="natural" v="hill" />
		<tag k="place" v="locality" />
		<tag k="ssr:stedsnr" v="86874" />
	</node>
	<node lat="68.48901666910103" lon="17.145330548557613" id="-20356">
		<tag k="name" v="Våtlian" />
		<tag k="natural" v="slope" />
		<tag k="place" v="locality" />
		<tag k="ssr:stedsnr" v="100021" />
	</node>
	<node lat="68.5459388860952" lon="17.06118612044112" id="-20358">
		<tag k="name" v="Kvanndalen" />
		<tag k="natural" v="valley" />
		<tag k="place" v="locality" />
		<tag k="ssr:stedsnr" v="100105" />
	</node>
	<node lat="68.5453999967332" lon="17.081505541150598" id="-20359">
		<tag k="name" v="Krestinaskaret" />
		<tag k="natural" v="valley" />
		<tag k="place" v="locality" />
		<tag k="ssr:stedsnr" v="100108" />
	</node>
	<node lat="68.47457222245609" lon="17.1604277880457" id="-20361">
		<tag k="name" v="Heia" />
		<tag k="natural" v="hill" />
		<tag k="place" v="locality" />
		<tag k="ssr:stedsnr" v="100115" />
	</node>
	<node lat="68.54184166260856" lon="17.04696389007214" id="-20362">
		<tag k="fixme" v="consider natural=peak for the most distinct mountains in the district" />
		<tag k="name" v="Gobbonfjellet" />
		<tag k="natural" v="hill" />
		<tag k="place" v="locality" />
		<tag k="ssr:stedsnr" v="100117" />
	</node>
	<node lat="68.50983055530352" lon="16.724733342524015" id="-20368">
		<tag k="name" v="Ryggen" />
		<tag k="natural" v="ridge" />
		<tag k="place" v="locality" />
		<tag k="ssr:stedsnr" v="114007" />
	</node>
	<node lat="68.4635500001692" lon="16.737052778311337" id="-20369">
		<tag k="fixme" v="consider natural=peak for the most distinct mountains in the district" />
		<tag k="name" v="Nedre Høgåsen" />
		<tag k="natural" v="hill" />
		<tag k="place" v="locality" />
		<tag k="ssr:stedsnr" v="118510" />
	</node>
	<node lat="68.50968055345234" lon="17.08083611939536" id="-20376">
		<tag k="name" v="Jansbakken" />
		<tag k="natural" v="slope" />
		<tag k="place" v="locality" />
		<tag k="ssr:stedsnr" v="141631" />
	</node>
	<node lat="68.55398889078164" lon="17.327700008112174" id="-20379">
		<tag k="name" v="Pungen" />
		<tag k="natural" v="hill" />
		<tag k="place" v="locality" />
		<tag k="ssr:stedsnr" v="141596" />
	</node>
	<node lat="68.50412499890666" lon="16.880988880599787" id="-20382">
		<tag k="name" v="Hellelia" />
		<tag k="natural" v="slope" />
		<tag k="place" v="locality" />
		<tag k="ssr:stedsnr" v="145013" />
	</node>
	<node lat="68.49077221775292" lon="16.852802783776788" id="-20383">
		<tag k="fixme" v="consider natural=peak for the most distinct mountains in the district" />
		<tag k="name" v="Rømmeråsen" />
		<tag k="natural" v="hill" />
		<tag k="place" v="locality" />
		<tag k="ssr:stedsnr" v="145017" />
	</node>
	<node lat="68.4541694462722" lon="17.03520000011455" id="-20385">
		<tag k="fixme" v="consider natural=peak for the most distinct mountains in the district" />
		<tag k="name" v="Branden" />
		<tag k="natural" v="hill" />
		<tag k="place" v="locality" />
		<tag k="ssr:stedsnr" v="146202" />
	</node>
	<node lat="68.53563333463964" lon="17.29074721550442" id="-20389">
		<tag k="fixme" v="consider natural=peak for the most distinct mountains in the district" />
		<tag k="name" v="Sivåsen" />
		<tag k="natural" v="hill" />
		<tag k="place" v="locality" />
		<tag k="ssr:stedsnr" v="146462" />
	</node>
	<node lat="68.51508888644065" lon="17.128261115467165" id="-20390">
		<tag k="name" v="Lågsnubba" />
		<tag k="place" v="locality" />
		<tag k="ssr:stedsnr" v="146905" />
	</node>
	<node lat="68.52919722615002" lon="17.087869434490454" id="-20393">
		<tag k="name" v="Blåbergan" />
		<tag k="natural" v="hill" />
		<tag k="place" v="locality" />
		<tag k="ssr:stedsnr" v="146876" />
	</node>
	<node lat="68.46940000226014" lon="16.750055557717474" id="-20395">
		<tag k="alt_name" v="Rødsandkollen" />
		<tag k="fixme" v="consider natural=peak for the most distinct mountains in the district" />
		<tag k="name" v="Raudsandkollen" />
		<tag k="natural" v="hill" />
		<tag k="place" v="locality" />
		<tag k="ssr:stedsnr" v="320412" />
	</node>
	<node lat="68.47757222365419" lon="16.873908343148532" id="-20401">
		<tag k="fixme" v="consider natural=peak for the most distinct mountains in the district" />
		<tag k="name" v="Aspåsen" />
		<tag k="natural" v="hill" />
		<tag k="place" v="locality" />
		<tag k="ssr:stedsnr" v="179627" />
	</node>
	<node lat="68.47720000239192" lon="16.754958322047216" id="-20407">
		<tag k="fixme" v="consider natural=peak for the most distinct mountains in the district" />
		<tag k="name" v="Liakollen" />
		<tag k="natural" v="hill" />
		<tag k="place" v="locality" />
		<tag k="ssr:stedsnr" v="199415" />
	</node>
	<node lat="68.50282777623798" lon="16.7463833310493" id="-20411">
		<tag k="name" v="Bukkeberget" />
		<tag k="name:no" v="Bukkeberget" />
		<tag k="name:se" v="Rámadarda" />
		<tag k="natural" v="hill" />
		<tag k="place" v="locality" />
		<tag k="ssr:stedsnr" v="267301" />
	</node>
	<node lat="68.4955722240944" lon="16.906061117891973" id="-20418">
		<tag k="name" v="Grorhaug" />
		<tag k="natural" v="hill" />
		<tag k="place" v="locality" />
		<tag k="ssr:stedsnr" v="268224" />
	</node>
	<node lat="68.50383888834001" lon="16.67118610309984" id="-20421">
		<tag k="name" v="Karihaugen" />
		<tag k="natural" v="hill" />
		<tag k="place" v="locality" />
		<tag k="ssr:stedsnr" v="206002" />
	</node>
	<node lat="68.46500833371014" lon="16.66994999599109" id="-20423">
		<tag k="name" v="Mosehaugen" />
		<tag k="natural" v="hill" />
		<tag k="place" v="locality" />
		<tag k="ssr:stedsnr" v="207294" />
	</node>
	<node lat="68.46682500345032" lon="17.05653889485238" id="-20426">
		<tag k="name" v="Nephågen" />
		<tag k="natural" v="hill" />
		<tag k="place" v="locality" />
		<tag k="ssr:stedsnr" v="268804" />
	</node>
	<node lat="68.486811107801" lon="17.108591661717554" id="-20427">
		<tag k="name" v="Hallaren" />
		<tag k="natural" v="slope" />
		<tag k="place" v="locality" />
		<tag k="ssr:stedsnr" v="268808" />
	</node>
	<node lat="68.4981000029018" lon="17.1081138974663" id="-20430">
		<tag k="fixme" v="consider natural=peak for the most distinct mountains in the district" />
		<tag k="name" v="Skipperåskollen" />
		<tag k="natural" v="hill" />
		<tag k="place" v="locality" />
		<tag k="ssr:stedsnr" v="268819" />
	</node>
	<node lat="68.52791666637025" lon="17.15913054609371" id="-20436">
		<tag k="name" v="Moberget" />
		<tag k="natural" v="hill" />
		<tag k="place" v="locality" />
		<tag k="ssr:stedsnr" v="268912" />
	</node>
	<node lat="68.50393055985396" lon="17.138380558278666" id="-20441">
		<tag k="name" v="Heisteindalen" />
		<tag k="natural" v="valley" />
		<tag k="place" v="locality" />
		<tag k="ssr:stedsnr" v="221024" />
	</node>
	<node lat="68.47058611533768" lon="17.213622226570827" id="-20443">
		<tag k="fixme" v="consider natural=peak for the most distinct mountains in the district" />
		<tag k="name" v="Storlihøgda" />
		<tag k="natural" v="hill" />
		<tag k="place" v="locality" />
		<tag k="ssr:stedsnr" v="221074" />
	</node>
	<node lat="68.54188055203893" lon="16.999950004317146" id="-20444">
		<tag k="name" v="Nordkapp" />
		<tag k="natural" v="hill" />
		<tag k="place" v="locality" />
		<tag k="ssr:stedsnr" v="221079" />
	</node>
	<node lat="68.53950832899001" lon="17.049130563708133" id="-20446">
		<tag k="name" v="Djupmoen" />
		<tag k="place" v="locality" />
		<tag k="ssr:stedsnr" v="221095" />
	</node>
	<node lat="68.50023611441263" lon="16.64559167659233" id="-20447">
		<tag k="name" v="Olderdalen" />
		<tag k="natural" v="valley" />
		<tag k="place" v="locality" />
		<tag k="ssr:stedsnr" v="221417" />
	</node>
	<node lat="68.54074999690759" lon="17.182691674108952" id="-20452">
		<tag k="name" v="Øverhoanta" />
		<tag k="natural" v="slope" />
		<tag k="place" v="locality" />
		<tag k="ssr:stedsnr" v="449997" />
	</node>
	<node lat="68.48809722304745" lon="17.244336100019485" id="-20453">
		<tag k="fixme" v="consider natural=peak for the most distinct mountains in the district" />
		<tag k="name" v="Veggen Vest" />
		<tag k="natural" v="hill" />
		<tag k="place" v="locality" />
		<tag k="ssr:stedsnr" v="234019" />
	</node>
	<node lat="68.52794444606268" lon="17.20886944552118" id="-20454">
		<tag k="name" v="Jo-Larsahallaren" />
		<tag k="natural" v="slope" />
		<tag k="place" v="locality" />
		<tag k="ssr:stedsnr" v="234025" />
	</node>
	<node lat="68.50675555239177" lon="16.74777777378445" id="-20458">
		<tag k="name" v="Grindhaugen" />
		<tag k="name:no" v="Grindhaugen" />
		<tag k="name:se" v="Rinnjadievvá" />
		<tag k="natural" v="hill" />
		<tag k="place" v="locality" />
		<tag k="ssr:stedsnr" v="450347" />
	</node>
	<node lat="68.51018889005235" lon="17.076372232238942" id="-20462">
		<tag k="name" v="Trolldalen" />
		<tag k="natural" v="valley" />
		<tag k="place" v="locality" />
		<tag k="ssr:stedsnr" v="450890" />
	</node>
	<node lat="68.50597500102101" lon="17.08496665975757" id="-20465">
		<tag k="name" v="Holtet" />
		<tag k="natural" v="hill" />
		<tag k="place" v="locality" />
		<tag k="ssr:stedsnr" v="450853" />
	</node>
	<node lat="68.4787777762709" lon="16.634280542702918" id="-20471">
		<tag k="fixme" v="consider natural=peak for the most distinct mountains in the district" />
		<tag k="name" v="Geithallaren" />
		<tag k="natural" v="hill" />
		<tag k="place" v="locality" />
		<tag k="ssr:stedsnr" v="259422" />
	</node>
	<node lat="68.47703333283883" lon="16.722055566430473" id="-20472">
		<tag k="name" v="Trindlaberget" />
		<tag k="natural" v="hill" />
		<tag k="place" v="locality" />
		<tag k="ssr:stedsnr" v="259425" />
	</node>
	<node lat="68.48846666924028" lon="16.883441661617713" id="-20475">
		<tag k="fixme" v="consider natural=peak for the most distinct mountains in the district" />
		<tag k="name" v="Bjørnlikollen" />
		<tag k="natural" v="hill" />
		<tag k="place" v="locality" />
		<tag k="ssr:stedsnr" v="259514" />
	</node>
	<node lat="68.48680000126895" lon="17.228627768640703" id="-20477">
		<tag k="fixme" v="consider natural=peak for the most distinct mountains in the district" />
		<tag k="name" v="Snaufjellet" />
		<tag k="natural" v="hill" />
		<tag k="place" v="locality" />
		<tag k="ssr:stedsnr" v="259519" />
	</node>
	<node lat="68.54435833575918" lon="16.929561118323946" id="-20480">
		<tag k="fixme" v="consider natural=peak for the most distinct mountains in the district" />
		<tag k="name" v="Dragvikfjellet" />
		<tag k="natural" v="hill" />
		<tag k="place" v="locality" />
		<tag k="ssr:stedsnr" v="263606" />
	</node>
	<node lat="68.53104722539551" lon="17.117966669115432" id="-20483">
		<tag k="name" v="Kvitfløy" />
		<tag k="natural" v="hill" />
		<tag k="place" v="locality" />
		<tag k="ssr:stedsnr" v="263590" />
	</node>
	<node lat="68.50727500160758" lon="16.7481888867214" id="-20487">
		<tag k="name" v="Høgli" />
		<tag k="natural" v="slope" />
		<tag k="place" v="locality" />
		<tag k="ssr:stedsnr" v="267307" />
	</node>
	<node lat="68.53607778025828" lon="17.151200002270766" id="-20488">
		<tag k="name" v="Jokkegropa" />
		<tag k="natural" v="valley" />
		<tag k="place" v="locality" />
		<tag k="ssr:stedsnr" v="267881" />
	</node>
	<node lat="68.46064722070953" lon="16.62959165901768" id="-20492">
		<tag k="fixme" v="consider natural=peak for the most distinct mountains in the district" />
		<tag k="name" v="Dauvollen" />
		<tag k="natural" v="hill" />
		<tag k="place" v="locality" />
		<tag k="ssr:stedsnr" v="268303" />
	</node>
	<node lat="68.4580138911636" lon="16.59215001133994" id="-20493">
		<tag k="fixme" v="consider natural=peak for the most distinct mountains in the district" />
		<tag k="name" v="Laukåsen" />
		<tag k="natural" v="hill" />
		<tag k="place" v="locality" />
		<tag k="ssr:stedsnr" v="268312" />
	</node>
	<node lat="68.54776666544356" lon="17.293044441234215" id="-20494">
		<tag k="fixme" v="consider natural=peak for the most distinct mountains in the district" />
		<tag k="name" v="Svanevassåsen" />
		<tag k="natural" v="hill" />
		<tag k="place" v="locality" />
		<tag k="ssr:stedsnr" v="268505" />
	</node>
	<node lat="68.5300333355499" lon="16.98471666374031" id="-20496">
		<tag k="name" v="Trollbrua" />
		<tag k="natural" v="ridge" />
		<tag k="place" v="locality" />
		<tag k="ssr:stedsnr" v="268776" />
	</node>
	<node lat="68.52586111048103" lon="17.005324995971833" id="-20498">
		<tag k="fixme" v="consider natural=peak for the most distinct mountains in the district" />
		<tag k="name" v="Åsen" />
		<tag k="natural" v="hill" />
		<tag k="place" v="locality" />
		<tag k="ssr:stedsnr" v="268782" />
	</node>
	<node lat="68.51466944742901" lon="17.193405556968383" id="-20501">
		<tag k="name" v="Reinvelthågen" />
		<tag k="natural" v="hill" />
		<tag k="place" v="locality" />
		<tag k="ssr:stedsnr" v="268897" />
	</node>
	<node lat="68.53988889005245" lon="17.058280558161005" id="-20507">
		<tag k="name" v="Tjærmilbakken" />
		<tag k="natural" v="slope" />
		<tag k="place" v="locality" />
		<tag k="ssr:stedsnr" v="282111" />
	</node>
	<node lat="68.534680559004" lon="17.070494446125714" id="-20508">
		<tag k="name" v="Kroksletta" />
		<tag k="place" v="locality" />
		<tag k="ssr:stedsnr" v="282113" />
	</node>
	<node lat="68.50954348755818" lon="16.707083833824903" id="-20518">
		<tag k="name" v="Stuneshaugen" />
		<tag k="name:no" v="Stuneshaugen" />
		<tag k="name:se" v="Guottodievvá" />
		<tag k="natural" v="hill" />
		<tag k="place" v="locality" />
		<tag k="ssr:stedsnr" v="463002" />
	</node>
	<node lat="68.48452222261024" lon="16.88332221976227" id="-20519">
		<tag k="name" v="Mørkholdalen" />
		<tag k="natural" v="valley" />
		<tag k="place" v="locality" />
		<tag k="ssr:stedsnr" v="463086" />
	</node>
	<node lat="68.46523888550803" lon="17.186208340377064" id="-20525">
		<tag k="fixme" v="consider natural=peak for the most distinct mountains in the district" />
		<tag k="name" v="Veggfjellet" />
		<tag k="natural" v="hill" />
		<tag k="place" v="locality" />
		<tag k="ssr:stedsnr" v="464036" />
	</node>
	<node lat="68.46391388763148" lon="17.127341656308776" id="-20526">
		<tag k="name" v="Kuvasshaugen" />
		<tag k="natural" v="hill" />
		<tag k="place" v="locality" />
		<tag k="ssr:stedsnr" v="464042" />
	</node>
	<node lat="68.47413888821842" lon="17.216388884273194" id="-20531">
		<tag k="fixme" v="consider natural=peak for the most distinct mountains in the district" />
		<tag k="name" v="Sommarbakk-kollen" />
		<tag k="natural" v="hill" />
		<tag k="place" v="locality" />
		<tag k="ssr:stedsnr" v="464104" />
	</node>
	<node lat="68.47267222116574" lon="17.26626111926241" id="-20532">
		<tag k="fixme" v="consider natural=peak for the most distinct mountains in the district" />
		<tag k="name" v="Mellomfjellet" />
		<tag k="natural" v="hill" />
		<tag k="place" v="locality" />
		<tag k="ssr:stedsnr" v="464106" />
	</node>
	<node lat="68.46952499887621" lon="17.195977768470833" id="-20534">
		<tag k="name" v="Oterhiet" />
		<tag k="natural" v="valley" />
		<tag k="place" v="locality" />
		<tag k="ssr:stedsnr" v="464118" />
	</node>
	<node lat="68.46920000340465" lon="17.272166658945217" id="-20535">
		<tag k="name" v="Grolia" />
		<tag k="natural" v="slope" />
		<tag k="place" v="locality" />
		<tag k="ssr:stedsnr" v="464089" />
	</node>
	<node lat="68.46805277622747" lon="17.267605555283286" id="-20536">
		<tag k="name" v="Kattlibergan" />
		<tag k="natural" v="hill" />
		<tag k="place" v="locality" />
		<tag k="ssr:stedsnr" v="464090" />
	</node>
	<node lat="68.48066944127258" lon="17.12862500530694" id="-20539">
		<tag k="name" v="Svartberget" />
		<tag k="natural" v="hill" />
		<tag k="place" v="locality" />
		<tag k="ssr:stedsnr" v="464137" />
	</node>
	<node lat="68.48113055384644" lon="17.127544443395504" id="-20540">
		<tag k="name" v="Perlapp-kjell" />
		<tag k="natural" v="slope" />
		<tag k="place" v="locality" />
		<tag k="ssr:stedsnr" v="464140" />
	</node>
	<node lat="68.5020527778427" lon="16.863905559180406" id="-20549">
		<tag k="fixme" v="consider natural=peak for the most distinct mountains in the district" />
		<tag k="name" v="Grønnåsen" />
		<tag k="natural" v="hill" />
		<tag k="place" v="locality" />
		<tag k="ssr:stedsnr" v="328019" />
	</node>
	<node lat="68.4624583330298" lon="16.62589723006779" id="-20551">
		<tag k="name" v="Varghaugen" />
		<tag k="natural" v="hill" />
		<tag k="place" v="locality" />
		<tag k="ssr:stedsnr" v="328273" />
	</node>
	<node lat="68.5208166705137" lon="17.012222234075942" id="-20552">
		<tag k="fixme" v="consider natural=peak for the most distinct mountains in the district" />
		<tag k="name" v="Toppen" />
		<tag k="natural" v="hill" />
		<tag k="place" v="locality" />
		<tag k="ssr:stedsnr" v="328769" />
	</node>
	<node lat="68.52950000113658" lon="17.208063893688404" id="-20553">
		<tag k="name" v="Storelvhaugen" />
		<tag k="natural" v="hill" />
		<tag k="place" v="locality" />
		<tag k="ssr:stedsnr" v="328460" />
	</node>
	<node lat="68.48223332926295" lon="17.11291666019607" id="-20554">
		<tag k="name" v="Asphaugen" />
		<tag k="natural" v="hill" />
		<tag k="place" v="locality" />
		<tag k="ssr:stedsnr" v="328804" />
	</node>
	<node lat="68.4672722247535" lon="17.07530832744241" id="-20556">
		<tag k="name" v="Stordalshøgda" />
		<tag k="natural" v="hill" />
		<tag k="place" v="locality" />
		<tag k="ssr:stedsnr" v="328807" />
	</node>
	<node lat="68.49379722338392" lon="17.114863878239543" id="-20557">
		<tag k="name" v="Ilemarkdalen" />
		<tag k="natural" v="valley" />
		<tag k="place" v="locality" />
		<tag k="ssr:stedsnr" v="328816" />
	</node>
	<node lat="68.50840000396592" lon="17.101394433179113" id="-20558">
		<tag k="name" v="Middagsholtan" />
		<tag k="natural" v="hill" />
		<tag k="place" v="locality" />
		<tag k="ssr:stedsnr" v="328823" />
	</node>
	<node lat="68.52611666888372" lon="17.128719434011888" id="-20561">
		<tag k="name" v="Trolldalen" />
		<tag k="natural" v="valley" />
		<tag k="place" v="locality" />
		<tag k="ssr:stedsnr" v="328913" />
	</node>
	<node lat="68.51111944573674" lon="17.11406111974559" id="-20562">
		<tag k="fixme" v="consider natural=peak for the most distinct mountains in the district" />
		<tag k="name" v="Slettingsåskollen" />
		<tag k="natural" v="hill" />
		<tag k="place" v="locality" />
		<tag k="ssr:stedsnr" v="329854" />
	</node>
	<node lat="68.50448889180875" lon="17.15298888522943" id="-20563">
		<tag k="name" v="Milbakken" />
		<tag k="natural" v="slope" />
		<tag k="place" v="locality" />
		<tag k="ssr:stedsnr" v="342021" />
	</node>
	<node lat="68.47589722320788" lon="17.149655560882216" id="-20566">
		<tag k="name" v="Mehåjen" />
		<tag k="natural" v="hill" />
		<tag k="place" v="locality" />
		<tag k="ssr:stedsnr" v="342110" />
	</node>
	<node lat="68.47672499988929" lon="17.168844446747617" id="-20567">
		<tag k="name" v="Gårdselvdalen" />
		<tag k="natural" v="valley" />
		<tag k="place" v="locality" />
		<tag k="ssr:stedsnr" v="342097" />
	</node>
	<node lat="68.47090555879663" lon="16.81436389370315" id="-20578">
		<tag k="name" v="Skaret" />
		<tag k="natural" v="valley" />
		<tag k="place" v="locality" />
		<tag k="ssr:stedsnr" v="482629" />
	</node>
	<node lat="68.50931388837954" lon="16.801938881032676" id="-20579">
		<tag k="name" v="Gjetersletta" />
		<tag k="place" v="locality" />
		<tag k="ssr:stedsnr" v="482634" />
	</node>
	<node lat="68.53411944802664" lon="17.153502788791354" id="-20582">
		<tag k="name" v="Ramnberget" />
		<tag k="natural" v="hill" />
		<tag k="place" v="locality" />
		<tag k="ssr:stedsnr" v="388855" />
	</node>
	<node lat="68.53631388751124" lon="17.167261108699464" id="-20583">
		<tag k="name" v="Fjelløa" />
		<tag k="natural" v="hill" />
		<tag k="place" v="locality" />
		<tag k="ssr:stedsnr" v="388998" />
	</node>
	<node lat="68.53781388917072" lon="17.170852786448126" id="-20584">
		<tag k="fixme" v="consider natural=peak for the most distinct mountains in the district" />
		<tag k="name" v="Larsfjelløa" />
		<tag k="natural" v="hill" />
		<tag k="place" v="locality" />
		<tag k="ssr:stedsnr" v="389000" />
	</node>
	<node lat="68.52270277629991" lon="17.125919440407383" id="-20589">
		<tag k="name" v="Gruvlian" />
		<tag k="natural" v="slope" />
		<tag k="place" v="locality" />
		<tag k="ssr:stedsnr" v="389914" />
	</node>
	<node lat="68.52786666598375" lon="17.132530545479675" id="-20590">
		<tag k="name" v="Øverlien" />
		<tag k="natural" v="slope" />
		<tag k="place" v="locality" />
		<tag k="ssr:stedsnr" v="389918" />
	</node>
	<node lat="68.49613611422545" lon="17.093850001099643" id="-20592">
		<tag k="fixme" v="consider natural=peak for the most distinct mountains in the district" />
		<tag k="name" v="Langåsen" />
		<tag k="natural" v="hill" />
		<tag k="place" v="locality" />
		<tag k="ssr:stedsnr" v="389816" />
	</node>
	<node lat="68.53143610840391" lon="17.00316666053872" id="-20596">
		<tag k="name" v="Blåkjerringbergan" />
		<tag k="natural" v="hill" />
		<tag k="place" v="locality" />
		<tag k="ssr:stedsnr" v="403078" />
	</node>
	<node lat="68.5416833312006" lon="17.002241657607364" id="-20597">
		<tag k="name" v="Stordalen" />
		<tag k="natural" v="valley" />
		<tag k="place" v="locality" />
		<tag k="ssr:stedsnr" v="403089" />
	</node>
	<node lat="68.54398888606983" lon="17.029327785193175" id="-20598">
		<tag k="name" v="Niingsaksla" />
		<tag k="place" v="locality" />
		<tag k="ssr:stedsnr" v="403090" />
	</node>
	<node lat="68.53106111013105" lon="17.094558326467716" id="-20600">
		<tag k="fixme" v="consider natural=peak for the most distinct mountains in the district" />
		<tag k="name" v="Vasbotnhallaren" />
		<tag k="natural" v="hill" />
		<tag k="place" v="locality" />
		<tag k="ssr:stedsnr" v="403097" />
	</node>
	<node lat="68.53445555687642" lon="17.127713883160343" id="-20615">
		<tag k="name" v="Ramnfløy" />
		<tag k="natural" v="hill" />
		<tag k="place" v="locality" />
		<tag k="ssr:stedsnr" v="445583" />
	</node>
	<node lat="68.52368610663623" lon="16.855530559810344" id="-20616">
		<tag k="fixme" v="consider natural=peak for the most distinct mountains in the district" />
		<tag k="name" v="Siriåsen" />
		<tag k="natural" v="hill" />
		<tag k="place" v="locality" />
		<tag k="ssr:stedsnr" v="445591" />
	</node>
	<node lat="68.48946666870306" lon="16.89359998989664" id="-20620">
		<tag k="name" v="Bjørnlia" />
		<tag k="natural" v="slope" />
		<tag k="place" v="locality" />
		<tag k="ssr:stedsnr" v="450207" />
	</node>
	<node lat="68.53936944229213" lon="17.23506667319932" id="-20622">
		<tag k="name" v="Andvasslia" />
		<tag k="natural" v="slope" />
		<tag k="place" v="locality" />
		<tag k="ssr:stedsnr" v="450503" />
	</node>
	<node lat="68.55001944775545" lon="17.272802774047452" id="-20623">
		<tag k="name" v="Hundlituva" />
		<tag k="natural" v="hill" />
		<tag k="place" v="locality" />
		<tag k="ssr:stedsnr" v="450508" />
	</node>
	<node lat="68.52750833500943" lon="17.10030278829122" id="-20627">
		<tag k="name" v="Røssalia" />
		<tag k="natural" v="slope" />
		<tag k="place" v="locality" />
		<tag k="ssr:stedsnr" v="450874" />
	</node>
	<node lat="68.51935833591912" lon="17.10797776799436" id="-20628">
		<tag k="fixme" v="consider natural=peak for the most distinct mountains in the district" />
		<tag k="name" v="Tjønnlikollen" />
		<tag k="natural" v="hill" />
		<tag k="place" v="locality" />
		<tag k="ssr:stedsnr" v="450877" />
	</node>
	<node lat="68.49486944461829" lon="17.138058327075434" id="-20634">
		<tag k="name" v="Ilemarkdalen" />
		<tag k="natural" v="valley" />
		<tag k="place" v="locality" />
		<tag k="ssr:stedsnr" v="464023" />
	</node>
	<node lat="68.46011666689954" lon="17.04249999890876" id="-20635">
		<tag k="name" v="Svarthammaren" />
		<tag k="natural" v="hill" />
		<tag k="place" v="locality" />
		<tag k="ssr:stedsnr" v="464055" />
	</node>
	<node lat="68.55107221945399" lon="16.982494445831822" id="-20636">
		<tag k="name" v="Sløkjebenkan" />
		<tag k="natural" v="hill" />
		<tag k="place" v="locality" />
		<tag k="ssr:stedsnr" v="464069" />
	</node>
	<node lat="68.47196666367962" lon="17.20273888144292" id="-20637">
		<tag k="name" v="Finndalen" />
		<tag k="natural" v="valley" />
		<tag k="place" v="locality" />
		<tag k="ssr:stedsnr" v="464102" />
	</node>
	<node lat="68.53104166865229" lon="16.798900009072337" id="-20639">
		<tag k="fixme" v="consider natural=peak for the most distinct mountains in the district" />
		<tag k="name" v="Beikifjellet" />
		<tag k="natural" v="hill" />
		<tag k="place" v="locality" />
		<tag k="ssr:stedsnr" v="478865" />
	</node>
	<node lat="68.46963055338246" lon="16.771566676628954" id="-20640">
		<tag k="name" v="Snydalen" />
		<tag k="natural" v="valley" />
		<tag k="place" v="locality" />
		<tag k="ssr:stedsnr" v="482602" />
	</node>
	<node lat="68.47370555184648" lon="16.853725006744142" id="-20641">
		<tag k="name" v="Lyslien" />
		<tag k="natural" v="slope" />
		<tag k="place" v="locality" />
		<tag k="ssr:stedsnr" v="482618" />
	</node>
	<node lat="68.49943888705859" lon="16.621883339313378" id="-20644">
		<tag k="name" v="Kjelda" />
		<tag k="place" v="locality" />
		<tag k="ssr:stedsnr" v="502377" />
	</node>
	<node lat="68.53728888597048" lon="17.076019447698823" id="-20652">
		<tag k="name" v="Vassbotn" />
		<tag k="natural" v="valley" />
		<tag k="place" v="locality" />
		<tag k="ssr:stedsnr" v="505571" />
	</node>
	<node lat="68.53062778170401" lon="16.944969446842013" id="-20655">
		<tag k="fixme" v="consider natural=peak for the most distinct mountains in the district" />
		<tag k="name" v="Stortinden" />
		<tag k="natural" v="hill" />
		<tag k="place" v="locality" />
		<tag k="ssr:stedsnr" v="505586" />
	</node>
	<node lat="68.50388610724967" lon="16.82195832622759" id="-20658">
		<tag k="name" v="Holman" />
		<tag k="natural" v="valley" />
		<tag k="place" v="locality" />
		<tag k="ssr:stedsnr" v="510019" />
	</node>
	<node lat="68.50279166293379" lon="16.70131111255834" id="-20659">
		<tag k="name" v="Tomashaugen" />
		<tag k="natural" v="hill" />
		<tag k="place" v="locality" />
		<tag k="ssr:stedsnr" v="510054" />
	</node>
	<node lat="68.5180083378627" lon="16.949699991218914" id="-20661">
		<tag k="fixme" v="consider natural=peak for the most distinct mountains in the district" />
		<tag k="name" v="Fjellet" />
		<tag k="natural" v="hill" />
		<tag k="place" v="locality" />
		<tag k="ssr:stedsnr" v="510821" />
	</node>
	<node lat="68.52098333635888" lon="17.065869439400412" id="-20662">
		<tag k="name" v="Orlihaugen" />
		<tag k="natural" v="hill" />
		<tag k="place" v="locality" />
		<tag k="ssr:stedsnr" v="510910" />
	</node>
	<node lat="68.51299444639946" lon="17.068619437383294" id="-20663">
		<tag k="name" v="Fortebakken" />
		<tag k="natural" v="slope" />
		<tag k="place" v="locality" />
		<tag k="ssr:stedsnr" v="510913" />
	</node>
	<node lat="68.47197500413127" lon="17.06166665547298" id="-20669">
		<tag k="fixme" v="consider natural=peak for the most distinct mountains in the district" />
		<tag k="name" v="Kobbsteinåsen" />
		<tag k="natural" v="hill" />
		<tag k="place" v="locality" />
		<tag k="ssr:stedsnr" v="685509" />
	</node>
	<node lat="68.55006667080126" lon="17.312511117498712" id="-20677">
		<tag k="name" v="Pungen" />
		<tag k="natural" v="hill" />
		<tag k="place" v="locality" />
		<tag k="ssr:stedsnr" v="753445" />
	</node>
	<node lat="68.47195278087786" lon="16.769183336468007" id="-20678">
		<tag k="name" v="Snydalheia" />
		<tag k="natural" v="hill" />
		<tag k="place" v="locality" />
		<tag k="ssr:stedsnr" v="543609" />
	</node>
	<node lat="68.46759444005731" lon="16.80276667313456" id="-20680">
		<tag k="name" v="Klubberget" />
		<tag k="natural" v="hill" />
		<tag k="place" v="locality" />
		<tag k="ssr:stedsnr" v="543615" />
	</node>
	<node lat="68.51964722350412" lon="16.811638894218184" id="-20682">
		<tag k="name" v="Grønlia" />
		<tag k="natural" v="slope" />
		<tag k="place" v="locality" />
		<tag k="ssr:stedsnr" v="687953" />
	</node>
	<node lat="68.50446666731473" lon="16.775327788302025" id="-20684">
		<tag k="name" v="Gebmegorra" />
		<tag k="name:se" v="Gebmegorra" />
		<tag k="natural" v="valley" />
		<tag k="place" v="locality" />
		<tag k="ssr:stedsnr" v="692292" />
	</node>
	<node lat="68.50563333747452" lon="16.7586861160315" id="-20685">
		<tag k="fixme" v="consider natural=peak for the most distinct mountains in the district" />
		<tag k="name" v="Frammerfjellet" />
		<tag k="natural" v="hill" />
		<tag k="place" v="locality" />
		<tag k="ssr:stedsnr" v="692298" />
	</node>
	<node lat="68.49676110787884" lon="16.72005555450387" id="-20687">
		<tag k="name" v="Bergan" />
		<tag k="natural" v="hill" />
		<tag k="place" v="locality" />
		<tag k="ssr:stedsnr" v="692059" />
	</node>
	<node lat="68.4917916635151" lon="16.727469432119175" id="-20689">
		<tag k="name" v="Rundhaugen" />
		<tag k="natural" v="hill" />
		<tag k="place" v="locality" />
		<tag k="ssr:stedsnr" v="693390" />
	</node>
	<node lat="68.5257305536618" lon="17.022575006305438" id="-20690">
		<tag k="name" v="Livlausberget" />
		<tag k="natural" v="hill" />
		<tag k="place" v="locality" />
		<tag k="ssr:stedsnr" v="692739" />
	</node>
	<node lat="68.5213388927437" lon="17.02144722079264" id="-20692">
		<tag k="fixme" v="consider natural=peak for the most distinct mountains in the district" />
		<tag k="name" v="Bergvikfjell" />
		<tag k="natural" v="hill" />
		<tag k="place" v="locality" />
		<tag k="ssr:stedsnr" v="692745" />
	</node>
	<node lat="68.5187583363567" lon="17.13183056624725" id="-20693">
		<tag k="name" v="Snubbakollen" />
		<tag k="name:no" v="Snubbakollen" />
		<tag k="name:se" v="Šlubbočohkka" />
		<tag k="natural" v="hill" />
		<tag k="place" v="locality" />
		<tag k="ssr:stedsnr" v="566619" />
	</node>
	<node lat="68.51686944391616" lon="17.04749444210281" id="-20694">
		<tag k="name" v="Storlia" />
		<tag k="natural" v="slope" />
		<tag k="place" v="locality" />
		<tag k="ssr:stedsnr" v="692880" />
	</node>
	<node lat="68.51022222353842" lon="17.07087222864658" id="-20695">
		<tag k="fixme" v="consider natural=peak for the most distinct mountains in the district" />
		<tag k="name" v="Heståsen" />
		<tag k="natural" v="hill" />
		<tag k="place" v="locality" />
		<tag k="ssr:stedsnr" v="692882" />
	</node>
	<node lat="68.54011389045145" lon="17.187677777320857" id="-20697">
		<tag k="name" v="Nerhoanta" />
		<tag k="natural" v="slope" />
		<tag k="place" v="locality" />
		<tag k="ssr:stedsnr" v="693000" />
	</node>
	<node lat="68.47720833690914" lon="16.729819434445922" id="-20700">
		<tag k="name" v="Haugbakkfloget" />
		<tag k="natural" v="hill" />
		<tag k="place" v="locality" />
		<tag k="ssr:stedsnr" v="570011" />
	</node>
	<node lat="68.49223333651764" lon="16.85433889690166" id="-20701">
		<tag k="fixme" v="consider natural=peak for the most distinct mountains in the district" />
		<tag k="name" v="Vassåsen" />
		<tag k="natural" v="hill" />
		<tag k="place" v="locality" />
		<tag k="ssr:stedsnr" v="570018" />
	</node>
	<node lat="68.46564722565377" lon="17.051819439610966" id="-20705">
		<tag k="name" v="Breiveihøgda" />
		<tag k="natural" v="hill" />
		<tag k="place" v="locality" />
		<tag k="ssr:stedsnr" v="571808" />
	</node>
	<node lat="68.49043611409488" lon="17.16815555223844" id="-20716">
		<tag k="name" v="Ressmålsskaret" />
		<tag k="natural" v="valley" />
		<tag k="place" v="locality" />
		<tag k="ssr:stedsnr" v="585032" />
	</node>
	<node lat="68.53208055437145" lon="17.003497219710177" id="-20717">
		<tag k="name" v="Åshola" />
		<tag k="natural" v="valley" />
		<tag k="place" v="locality" />
		<tag k="ssr:stedsnr" v="585055" />
	</node>
	<node lat="68.53797777390635" lon="17.056266666870577" id="-20718">
		<tag k="name" v="Perlapphallaren" />
		<tag k="natural" v="hill" />
		<tag k="place" v="locality" />
		<tag k="ssr:stedsnr" v="585112" />
	</node>
	<node lat="68.47608333393137" lon="16.67366388126748" id="-20719">
		<tag k="name" v="Brennhaugen" />
		<tag k="natural" v="hill" />
		<tag k="place" v="locality" />
		<tag k="ssr:stedsnr" v="585503" />
	</node>
	<node lat="68.47904722289408" lon="16.860005549064372" id="-20720">
		<tag k="fixme" v="consider natural=peak for the most distinct mountains in the district" />
		<tag k="name" v="Lille-Kleggåsen" />
		<tag k="natural" v="hill" />
		<tag k="place" v="locality" />
		<tag k="ssr:stedsnr" v="603609" />
	</node>
	<node lat="68.47634999709766" lon="16.859636099078433" id="-20721">
		<tag k="name" v="Orrogotthaugen" />
		<tag k="natural" v="hill" />
		<tag k="place" v="locality" />
		<tag k="ssr:stedsnr" v="603612" />
	</node>
	<node lat="68.47377777840545" lon="16.822461098742842" id="-20723">
		<tag k="name" v="Åsveiten" />
		<tag k="natural" v="slope" />
		<tag k="place" v="locality" />
		<tag k="ssr:stedsnr" v="603616" />
	</node>
	<node lat="68.49016666401569" lon="16.87830555555771" id="-20729">
		<tag k="name" v="Kjørllauken" />
		<tag k="place" v="locality" />
		<tag k="ssr:stedsnr" v="631005" />
	</node>
	<node lat="68.49380000283396" lon="16.77221667197206" id="-20731">
		<tag k="name" v="Stuberget" />
		<tag k="natural" v="hill" />
		<tag k="place" v="locality" />
		<tag k="ssr:stedsnr" v="631299" />
	</node>
	<node lat="68.50092222685323" lon="16.777044434567767" id="-20732">
		<tag k="fixme" v="consider natural=peak for the most distinct mountains in the district" />
		<tag k="name" v="Snaufjell lille" />
		<tag k="natural" v="hill" />
		<tag k="place" v="locality" />
		<tag k="ssr:stedsnr" v="631302" />
	</node>
	<node lat="68.490319446315" lon="16.8887388968526" id="-20733">
		<tag k="name" v="Stordalen" />
		<tag k="natural" v="valley" />
		<tag k="place" v="locality" />
		<tag k="ssr:stedsnr" v="631188" />
	</node>
	<node lat="68.48733333588136" lon="16.89093611687244" id="-20734">
		<tag k="name" v="Bjønnli" />
		<tag k="natural" v="slope" />
		<tag k="place" v="locality" />
		<tag k="ssr:stedsnr" v="631191" />
	</node>
	<node lat="68.45163333249164" lon="17.03245276561347" id="-20735">
		<tag k="name" v="Djupdalen" />
		<tag k="natural" v="valley" />
		<tag k="place" v="locality" />
		<tag k="ssr:stedsnr" v="631195" />
	</node>
	<node lat="68.53775555410044" lon="17.063941674783237" id="-20742">
		<tag k="name" v="Lillebåtberget" />
		<tag k="natural" v="hill" />
		<tag k="place" v="locality" />
		<tag k="ssr:stedsnr" v="706090" />
	</node>
	<node lat="68.49702221934032" lon="17.145355543190192" id="-20745">
		<tag k="fixme" v="consider natural=peak for the most distinct mountains in the district" />
		<tag k="name" v="Ilemarkkollen" />
		<tag k="natural" v="hill" />
		<tag k="place" v="locality" />
		<tag k="ssr:stedsnr" v="645016" />
	</node>
	<node lat="68.46341666842646" lon="17.17167223342743" id="-20746">
		<tag k="name" v="Bukkelvdalen" />
		<tag k="natural" v="valley" />
		<tag k="place" v="locality" />
		<tag k="ssr:stedsnr" v="645025" />
	</node>
	<node lat="68.46297778066852" lon="17.1332388765553" id="-20747">
		<tag k="name" v="Tjønnmyrhaugen" />
		<tag k="natural" v="hill" />
		<tag k="place" v="locality" />
		<tag k="ssr:stedsnr" v="645026" />
	</node>
	<node lat="68.45094444607541" lon="17.04340554655353" id="-20748">
		<tag k="name" v="Skredberget" />
		<tag k="natural" v="hill" />
		<tag k="place" v="locality" />
		<tag k="ssr:stedsnr" v="645028" />
	</node>
	<node lat="68.53110833110718" lon="17.01264998766145" id="-20749">
		<tag k="name" v="Bjørntuva" />
		<tag k="natural" v="hill" />
		<tag k="place" v="locality" />
		<tag k="ssr:stedsnr" v="645029" />
	</node>
	<node lat="68.45116667028162" lon="17.06256111700188" id="-20750">
		<tag k="name" v="Montern" />
		<tag k="natural" v="slope" />
		<tag k="place" v="locality" />
		<tag k="ssr:stedsnr" v="645032" />
	</node>
	<node lat="68.46776388947197" lon="17.1259694517912" id="-20752">
		<tag k="name" v="Kalvhola" />
		<tag k="natural" v="valley" />
		<tag k="place" v="locality" />
		<tag k="ssr:stedsnr" v="645107" />
	</node>
	<node lat="68.53433888588584" lon="16.996097210546136" id="-20753">
		<tag k="name" v="Rothamran" />
		<tag k="natural" v="hill" />
		<tag k="place" v="locality" />
		<tag k="ssr:stedsnr" v="645075" />
	</node>
	<node lat="68.48444444806697" lon="16.688994437160826" id="-20756">
		<tag k="name" v="Trollbakken" />
		<tag k="natural" v="slope" />
		<tag k="place" v="locality" />
		<tag k="ssr:stedsnr" v="645509" />
	</node>
	<node lat="68.54039722333168" lon="17.0185972274277" id="-20757">
		<tag k="fixme" v="consider natural=peak for the most distinct mountains in the district" />
		<tag k="name" v="Brattåsen" />
		<tag k="natural" v="hill" />
		<tag k="place" v="locality" />
		<tag k="ssr:stedsnr" v="707043" />
	</node>
	<node lat="68.53402500022078" lon="16.99269722506716" id="-20759">
		<tag k="fixme" v="consider natural=peak for the most distinct mountains in the district" />
		<tag k="name" v="Galtåsfjellet" />
		<tag k="natural" v="hill" />
		<tag k="place" v="locality" />
		<tag k="ssr:stedsnr" v="707101" />
	</node>
	<node lat="68.48688610910305" lon="16.695141655417796" id="-20763">
		<tag k="fixme" v="consider natural=peak for the most distinct mountains in the district" />
		<tag k="name" v="Svanvassåsen" />
		<tag k="natural" v="hill" />
		<tag k="place" v="locality" />
		<tag k="ssr:stedsnr" v="707544" />
	</node>
	<node lat="68.4624722240664" lon="16.743294449069214" id="-20766">
		<tag k="name" v="Fløya" />
		<tag k="natural" v="hill" />
		<tag k="place" v="locality" />
		<tag k="ssr:stedsnr" v="664527" />
	</node>
	<node lat="68.47450555245298" lon="16.826599991540256" id="-20767">
		<tag k="fixme" v="consider natural=peak for the most distinct mountains in the district" />
		<tag k="name" v="Gardsliåsen" />
		<tag k="natural" v="hill" />
		<tag k="place" v="locality" />
		<tag k="ssr:stedsnr" v="664613" />
	</node>
	<node lat="68.52427222074675" lon="16.761216653846343" id="-20769">
		<tag k="name" v="Stáhkaroggi" />
		<tag k="name:se" v="Stáhkaroggi" />
		<tag k="natural" v="valley" />
		<tag k="place" v="locality" />
		<tag k="ssr:stedsnr" v="664634" />
	</node>
	<node lat="68.47312500013089" lon="16.785741664519044" id="-20772">
		<tag k="fixme" v="consider natural=peak for the most distinct mountains in the district" />
		<tag k="name" v="Sommarvikhøgda" />
		<tag k="natural" v="hill" />
		<tag k="place" v="locality" />
		<tag k="ssr:stedsnr" v="664588" />
	</node>
	<node lat="68.47028055552205" lon="16.75503332648622" id="-20773">
		<tag k="name" v="Storskaran" />
		<tag k="natural" v="valley" />
		<tag k="place" v="locality" />
		<tag k="ssr:stedsnr" v="664590" />
	</node>
	<node lat="68.5156694478832" lon="16.785827781664523" id="-20775">
		<tag k="fixme" v="consider natural=peak for the most distinct mountains in the district" />
		<tag k="name" v="Fjellakselfjellet" />
		<tag k="natural" v="hill" />
		<tag k="place" v="locality" />
		<tag k="ssr:stedsnr" v="665706" />
	</node>
	<node lat="68.52837500124008" lon="17.099586116275972" id="-20781">
		<tag k="fixme" v="consider natural=peak for the most distinct mountains in the district" />
		<tag k="name" v="Sauen" />
		<tag k="natural" v="hill" />
		<tag k="place" v="locality" />
		<tag k="ssr:stedsnr" v="687604" />
	</node>
	<node lat="68.54586110990721" lon="17.117044448719447" id="-20782">
		<tag k="fixme" v="consider natural=peak for the most distinct mountains in the district" />
		<tag k="name" v="Butinden" />
		<tag k="natural" v="hill" />
		<tag k="place" v="locality" />
		<tag k="ssr:stedsnr" v="687614" />
	</node>
	<node lat="68.45118332924677" lon="17.035719446333182" id="-20794">
		<tag k="name" v="Kvitfløyet" />
		<tag k="natural" v="hill" />
		<tag k="place" v="locality" />
		<tag k="ssr:stedsnr" v="692193" />
	</node>
	<node lat="68.50722778057228" lon="17.1142416610372" id="-20796">
		<tag k="fixme" v="consider natural=peak for the most distinct mountains in the district" />
		<tag k="name" v="Middagslettholtan" />
		<tag k="natural" v="hill" />
		<tag k="place" v="locality" />
		<tag k="ssr:stedsnr" v="692815" />
	</node>
	<node lat="68.50993055215048" lon="16.928200005469623" id="-20799">
		<tag k="name" v="Veibakk" />
		<tag k="natural" v="slope" />
		<tag k="place" v="locality" />
		<tag k="ssr:stedsnr" v="692791" />
	</node>
	<node lat="68.46580556032006" lon="17.128327771786054" id="-20800">
		<tag k="fixme" v="consider natural=peak for the most distinct mountains in the district" />
		<tag k="name" v="Nonsåsen" />
		<tag k="natural" v="hill" />
		<tag k="place" v="locality" />
		<tag k="ssr:stedsnr" v="692918" />
	</node>
	<node lat="68.51522222417587" lon="17.13454722858249" id="-20801">
		<tag k="name" v="Småvasslian" />
		<tag k="natural" v="slope" />
		<tag k="place" v="locality" />
		<tag k="ssr:stedsnr" v="693913" />
	</node>
	<node lat="68.49312777681197" lon="17.16611389408736" id="-20802">
		<tag k="name" v="Bjørnen" />
		<tag k="natural" v="valley" />
		<tag k="place" v="locality" />
		<tag k="ssr:stedsnr" v="706013" />
	</node>
	<node lat="68.46197500301464" lon="17.156172225085143" id="-20804">
		<tag k="name" v="Dobbeltkorra" />
		<tag k="natural" v="valley" />
		<tag k="place" v="locality" />
		<tag k="ssr:stedsnr" v="706025" />
	</node>
	<node lat="68.53698611168078" lon="16.787419450441668" id="-20811">
		<tag k="name" v="Tjekkijallga" />
		<tag k="place" v="locality" />
		<tag k="ssr:stedsnr" v="903840" />
	</node>
	<node lat="68.54784166664133" lon="16.81281110514983" id="-20814">
		<tag k="fixme" v="consider natural=peak for the most distinct mountains in the district" />
		<tag k="name" v="Olgovárri" />
		<tag k="name:se" v="Olgovárri" />
		<tag k="natural" v="hill" />
		<tag k="old_name:se" v="Ålguvarri" />
		<tag k="place" v="locality" />
		<tag k="ssr:stedsnr" v="748865" />
	</node>
	<node lat="68.49244167095839" lon="16.904824990686755" id="-20815">
		<tag k="name" v="Løvollan" />
		<tag k="place" v="locality" />
		<tag k="ssr:stedsnr" v="753169" />
	</node>
	<node lat="68.4882333298653" lon="16.73003611076884" id="-20817">
		<tag k="name" v="Moan" />
		<tag k="place" v="locality" />
		<tag k="ssr:stedsnr" v="753304" />
	</node>
	<node lat="68.5244916635415" lon="17.013125004321104" id="-20819">
		<tag k="fixme" v="consider natural=peak for the most distinct mountains in the district" />
		<tag k="name" v="Høgåsen" />
		<tag k="natural" v="hill" />
		<tag k="place" v="locality" />
		<tag k="ssr:stedsnr" v="753764" />
	</node>
	<node lat="68.52756944450536" lon="16.89681388636043" id="-20820">
		<tag k="name" v="Kvantobotn" />
		<tag k="natural" v="valley" />
		<tag k="place" v="locality" />
		<tag k="ssr:stedsnr" v="753768" />
	</node>
	<node lat="68.51394166959142" lon="16.90267777776534" id="-20821">
		<tag k="name" v="Dragvikheia" />
		<tag k="natural" v="hill" />
		<tag k="place" v="locality" />
		<tag k="ssr:stedsnr" v="753773" />
	</node>
	<node lat="68.51813055870642" lon="17.120588894999965" id="-20823">
		<tag k="name" v="Vargpålhola" />
		<tag k="natural" v="valley" />
		<tag k="place" v="locality" />
		<tag k="ssr:stedsnr" v="753907" />
	</node>
	<node lat="68.52570555869686" lon="17.099230550668786" id="-20827">
		<tag k="name" v="Kvanntolia" />
		<tag k="natural" v="slope" />
		<tag k="place" v="locality" />
		<tag k="ssr:stedsnr" v="753868" />
	</node>
	<node lat="68.49415000016992" lon="16.6457833213214" id="-20830">
		<tag k="fixme" v="consider natural=peak for the most distinct mountains in the district" />
		<tag k="name" v="Kvassåskollen" />
		<tag k="natural" v="hill" />
		<tag k="place" v="locality" />
		<tag k="ssr:stedsnr" v="767449" />
	</node>
	<node lat="68.48431111019158" lon="16.831719442298418" id="-20835">
		<tag k="name" v="Nordraumyåsdalen" />
		<tag k="natural" v="valley" />
		<tag k="place" v="locality" />
		<tag k="ssr:stedsnr" v="907576" />
	</node>
	<node lat="68.46581944521354" lon="16.745016669938803" id="-20839">
		<tag k="name" v="Småskaran" />
		<tag k="natural" v="valley" />
		<tag k="place" v="locality" />
		<tag k="ssr:stedsnr" v="786650" />
	</node>
	<node lat="68.47635833063526" lon="16.84741945406084" id="-20840">
		<tag k="name" v="Hesteberget" />
		<tag k="natural" v="hill" />
		<tag k="place" v="locality" />
		<tag k="ssr:stedsnr" v="786651" />
	</node>
	<node lat="68.4698888931771" lon="16.79034721073716" id="-20841">
		<tag k="name" v="Jamna" />
		<tag k="natural" v="slope" />
		<tag k="place" v="locality" />
		<tag k="ssr:stedsnr" v="786655" />
	</node>
	<node lat="68.54954722437971" lon="17.16698888295986" id="-20843">
		<tag k="fixme" v="consider natural=peak for the most distinct mountains in the district" />
		<tag k="name" v="Tverrfjellet" />
		<tag k="natural" v="hill" />
		<tag k="place" v="locality" />
		<tag k="ssr:stedsnr" v="809609" />
	</node>
	<node lat="68.49307777385302" lon="16.648936113228025" id="-20845">
		<tag k="fixme" v="consider natural=peak for the most distinct mountains in the district" />
		<tag k="name" v="Vassåsen" />
		<tag k="natural" v="hill" />
		<tag k="place" v="locality" />
		<tag k="ssr:stedsnr" v="813004" />
	</node>
	<node lat="68.47307222224303" lon="17.090905545851562" id="-20848">
		<tag k="fixme" v="consider natural=peak for the most distinct mountains in the district" />
		<tag k="name" v="Blomåsen" />
		<tag k="natural" v="hill" />
		<tag k="place" v="locality" />
		<tag k="ssr:stedsnr" v="814820" />
	</node>
	<node lat="68.5146138872648" lon="17.17860833645289" id="-20851">
		<tag k="fixme" v="consider natural=peak for the most distinct mountains in the district" />
		<tag k="name" v="Småskogåsen" />
		<tag k="natural" v="hill" />
		<tag k="place" v="locality" />
		<tag k="ssr:stedsnr" v="814903" />
	</node>
	<node lat="68.47975833558486" lon="17.132500008117006" id="-20854">
		<tag k="name" v="Reinmyrbakken" />
		<tag k="natural" v="slope" />
		<tag k="place" v="locality" />
		<tag k="ssr:stedsnr" v="828113" />
	</node>
	<node lat="68.46633333179395" lon="17.259250008607943" id="-20855">
		<tag k="name" v="Kvitbergan" />
		<tag k="natural" v="hill" />
		<tag k="place" v="locality" />
		<tag k="ssr:stedsnr" v="828066" />
	</node>
	<node lat="68.54001944296935" lon="17.003383329228722" id="-20856">
		<tag k="fixme" v="consider natural=peak for the most distinct mountains in the district" />
		<tag k="name" v="Høgfløyet" />
		<tag k="natural" v="hill" />
		<tag k="place" v="locality" />
		<tag k="ssr:stedsnr" v="828068" />
	</node>
	<node lat="68.4660388857744" lon="17.218819445095647" id="-20857">
		<tag k="name" v="Mølndalen" />
		<tag k="natural" v="valley" />
		<tag k="place" v="locality" />
		<tag k="ssr:stedsnr" v="828069" />
	</node>
	<node lat="68.54097499820497" lon="17.013261108512594" id="-20858">
		<tag k="name" v="Strupen" />
		<tag k="natural" v="valley" />
		<tag k="place" v="locality" />
		<tag k="ssr:stedsnr" v="828074" />
	</node>
	<node lat="68.53463333610877" lon="17.08293610645561" id="-20859">
		<tag k="name" v="Hellenabergan" />
		<tag k="natural" v="hill" />
		<tag k="place" v="locality" />
		<tag k="ssr:stedsnr" v="828076" />
	</node>
	<node lat="68.4863944477069" lon="16.635247213493255" id="-20860">
		<tag k="name" v="Nøkktjønnbakken" />
		<tag k="natural" v="slope" />
		<tag k="place" v="locality" />
		<tag k="ssr:stedsnr" v="828481" />
	</node>
	<node lat="68.47459722484876" lon="16.7656388789423" id="-20862">
		<tag k="name" v="Snødalen" />
		<tag k="natural" v="valley" />
		<tag k="place" v="locality" />
		<tag k="ssr:stedsnr" v="927424" />
	</node>
	<node lat="68.52187500317497" lon="17.037258333213373" id="-20869">
		<tag k="name" v="Helgevasshaugen" />
		<tag k="natural" v="hill" />
		<tag k="place" v="locality" />
		<tag k="ssr:stedsnr" v="870609" />
	</node>
	<node lat="68.52520000113384" lon="16.908536108174523" id="-20870">
		<tag k="fixme" v="consider natural=peak for the most distinct mountains in the district" />
		<tag k="name" v="Rundlia" />
		<tag k="natural" v="hill" />
		<tag k="place" v="locality" />
		<tag k="ssr:stedsnr" v="870616" />
	</node>
	<node lat="68.53677778182569" lon="16.934574999241132" id="-20874">
		<tag k="name" v="Renskvannto" />
		<tag k="natural" v="valley" />
		<tag k="place" v="locality" />
		<tag k="ssr:stedsnr" v="930621" />
	</node>
	<node lat="68.50324444201235" lon="16.872655562170124" id="-20880">
		<tag k="fixme" v="consider natural=peak for the most distinct mountains in the district" />
		<tag k="name" v="Mettifjellet" />
		<tag k="natural" v="hill" />
		<tag k="place" v="locality" />
		<tag k="ssr:stedsnr" v="935008" />
	</node>
	<node lat="68.4594138908051" lon="16.65519723156423" id="-20882">
		<tag k="name" v="Haustlobakken" />
		<tag k="natural" v="slope" />
		<tag k="place" v="locality" />
		<tag k="ssr:stedsnr" v="935274" />
	</node>
	<node lat="68.46833611137076" lon="17.243741663612063" id="-20886">
		<tag k="name" v="Lemmen" />
		<tag k="natural" v="hill" />
		<tag k="place" v="locality" />
		<tag k="ssr:stedsnr" v="889115" />
	</node>
	<node lat="68.47245833521471" lon="17.269538884467817" id="-20889">
		<tag k="name" v="Storforrmoen" />
		<tag k="place" v="locality" />
		<tag k="ssr:stedsnr" v="889100" />
	</node>
	<node lat="68.46633610742857" lon="16.738438895386288" id="-20894">
		<tag k="fixme" v="consider natural=peak for the most distinct mountains in the district" />
		<tag k="name" v="Øvre-Høgåsen" />
		<tag k="natural" v="hill" />
		<tag k="place" v="locality" />
		<tag k="ssr:stedsnr" v="907572" />
	</node>
	<node lat="68.52592500154118" lon="16.783236121203256" id="-20895">
		<tag k="name" v="Kisletta" />
		<tag k="place" v="locality" />
		<tag k="ssr:stedsnr" v="907609" />
	</node>
	<node lat="68.5201138890713" lon="16.81565278258766" id="-20896">
		<tag k="fixme" v="consider natural=peak for the most distinct mountains in the district" />
		<tag k="name" v="Mallafjellet" />
		<tag k="natural" v="hill" />
		<tag k="place" v="locality" />
		<tag k="ssr:stedsnr" v="907619" />
	</node>
	<node lat="68.48705000422706" lon="17.107816672340945" id="-20899">
		<tag k="name" v="Hallaren" />
		<tag k="natural" v="hill" />
		<tag k="place" v="locality" />
		<tag k="ssr:stedsnr" v="927525" />
	</node>
	<node lat="68.51149722241483" lon="16.852841664824478" id="-20906">
		<tag k="alt_name" v="Grønlikollen" />
		<tag k="name" v="Grønnlikollen" />
		<tag k="natural" v="hill" />
		<tag k="place" v="locality" />
		<tag k="ssr:stedsnr" v="930642" />
	</node>
	<node lat="68.57277222556891" lon="16.86694167640347" id="-20908">
		<tag k="alt_name:no" v="Resmåltind" />
		<tag k="fixme" v="consider natural=peak for the most distinct mountains in the district" />
		<tag k="name" v="Rismålstinden" />
		<tag k="name:no" v="Rismålstinden" />
		<tag k="name:se" v="Geassegasčohkka" />
		<tag k="natural" v="hill" />
		<tag k="place" v="locality" />
		<tag k="ssr:stedsnr" v="931951" />
	</node>
	<node lat="68.48961666272035" lon="16.714197212611968" id="-20909">
		<tag k="fixme" v="consider natural=peak for the most distinct mountains in the district" />
		<tag k="name" v="Svanvassås" />
		<tag k="natural" v="hill" />
		<tag k="place" v="locality" />
		<tag k="ssr:stedsnr" v="935043" />
	</node>
	<node lat="68.49444722503762" lon="16.786044445962716" id="-20910">
		<tag k="name" v="Skjellsletta" />
		<tag k="place" v="locality" />
		<tag k="ssr:stedsnr" v="935313" />
	</node>
	<node lat="68.49762500098743" lon="16.743508336366812" id="-20911">
		<tag k="name" v="Stordalen" />
		<tag k="natural" v="valley" />
		<tag k="place" v="locality" />
		<tag k="ssr:stedsnr" v="935335" />
	</node>
	<node lat="68.51977222480602" lon="16.958036120495436" id="-20913">
		<tag k="name" v="Slettebakken" />
		<tag k="natural" v="slope" />
		<tag k="place" v="locality" />
		<tag k="ssr:stedsnr" v="935790" />
	</node>
	<node lat="68.51994721982305" lon="16.94942499306717" id="-20914">
		<tag k="name" v="Jøsesletta" />
		<tag k="place" v="locality" />
		<tag k="ssr:stedsnr" v="935792" />
	</node>
	<node lat="68.53115277730151" lon="16.99512499213847" id="-20918">
		<tag k="name" v="Galtåshalsen" />
		<tag k="natural" v="valley" />
		<tag k="place" v="locality" />
		<tag k="ssr:stedsnr" v="949078" />
	</node>
	<node lat="68.53551666393864" lon="17.002849986855512" id="-20919">
		<tag k="name" v="Skredlia" />
		<tag k="natural" v="slope" />
		<tag k="place" v="locality" />
		<tag k="ssr:stedsnr" v="949080" />
	</node>
	<node lat="68.47311111325389" lon="17.238302786800592" id="-20920">
		<tag k="name" v="Reingjerdan" />
		<tag k="natural" v="slope" />
		<tag k="place" v="locality" />
		<tag k="ssr:stedsnr" v="949083" />
	</node>
	<node lat="68.52043611155176" lon="16.825447224081028" id="-20923">
		<tag k="name" v="Rundhaugen" />
		<tag k="natural" v="hill" />
		<tag k="place" v="locality" />
		<tag k="ssr:stedsnr" v="968708" />
	</node>
	<node lat="68.47978055545852" lon="16.589452786724173" id="-20947">
		<tag k="alt_name" v="Skardsfjellet;Skarfjellet" />
		<tag k="fixme" v="consider natural=peak for the most distinct mountains in the district" />
		<tag k="name" v="Skarsfjellet" />
		<tag k="natural" v="hill" />
		<tag k="place" v="locality" />
		<tag k="ssr:stedsnr" v="17461" />
	</node>
	<node lat="68.46341111087658" lon="16.710613891131747" id="-20949">
		<tag k="fixme" v="consider natural=peak for the most distinct mountains in the district" />
		<tag k="name" v="Evenesåsen" />
		<tag k="natural" v="hill" />
		<tag k="place" v="locality" />
		<tag k="ssr:stedsnr" v="17478" />
	</node>
	<node lat="68.45971666955556" lon="17.051691676893693" id="-20950">
		<tag k="name" v="Middagsdalshøgda" />
		<tag k="natural" v="hill" />
		<tag k="place" v="locality" />
		<tag k="ssr:stedsnr" v="18972" />
	</node>
	<node lat="68.496963892927" lon="16.78173054570219" id="-20957">
		<tag k="name" v="Storlia" />
		<tag k="natural" v="slope" />
		<tag k="place" v="locality" />
		<tag k="ssr:stedsnr" v="25346" />
	</node>
	<node lat="68.49037777963758" lon="16.740233336443943" id="-20959">
		<tag k="name" v="Svingsletta" />
		<tag k="place" v="locality" />
		<tag k="ssr:stedsnr" v="25356" />
	</node>
	<node lat="68.51164444890134" lon="17.024522220012372" id="-20964">
		<tag k="name" v="Rødeberget" />
		<tag k="natural" v="hill" />
		<tag k="place" v="locality" />
		<tag k="ssr:stedsnr" v="25749" />
	</node>
	<node lat="68.51706666502295" lon="17.028516655062806" id="-20966">
		<tag k="name" v="Stufjellryggen" />
		<tag k="natural" v="ridge" />
		<tag k="place" v="locality" />
		<tag k="ssr:stedsnr" v="25777" />
	</node>
	<node lat="68.51630833377045" lon="17.052919443140055" id="-20969">
		<tag k="name" v="Ramnfløy" />
		<tag k="natural" v="hill" />
		<tag k="place" v="locality" />
		<tag k="ssr:stedsnr" v="25885" />
	</node>
	<node lat="68.5183055571539" lon="17.06536111798405" id="-20970">
		<tag k="fixme" v="consider natural=peak for the most distinct mountains in the district" />
		<tag k="name" v="Høgtinden" />
		<tag k="natural" v="hill" />
		<tag k="place" v="locality" />
		<tag k="ssr:stedsnr" v="25887" />
	</node>
	<node lat="68.51295000357312" lon="17.106008343157242" id="-20976">
		<tag k="name" v="Toften" />
		<tag k="natural" v="hill" />
		<tag k="place" v="locality" />
		<tag k="ssr:stedsnr" v="25866" />
	</node>
	<node lat="68.4629305518777" lon="17.07486666235865" id="-20979">
		<tag k="name" v="Heidalen" />
		<tag k="natural" v="valley" />
		<tag k="place" v="locality" />
		<tag k="ssr:stedsnr" v="39036" />
	</node>
	<node lat="68.47557221973818" lon="17.22808889643173" id="-20981">
		<tag k="name" v="Svartberget" />
		<tag k="natural" v="hill" />
		<tag k="place" v="locality" />
		<tag k="ssr:stedsnr" v="39086" />
	</node>
	<node lat="68.55039444658145" lon="16.99806389880957" id="-20984">
		<tag k="name" v="Syregresslia" />
		<tag k="natural" v="slope" />
		<tag k="place" v="locality" />
		<tag k="ssr:stedsnr" v="39048" />
	</node>
	<node lat="68.52071110796953" lon="16.8051999966578" id="-20988">
		<tag k="fixme" v="consider natural=peak for the most distinct mountains in the district" />
		<tag k="name" v="Osmarkfjellet" />
		<tag k="natural" v="hill" />
		<tag k="place" v="locality" />
		<tag k="ssr:stedsnr" v="58698" />
	</node>
	<node lat="68.47985833714812" lon="16.8325555473666" id="-20991">
		<tag k="name" v="Rømmeråsdalen" />
		<tag k="natural" v="valley" />
		<tag k="place" v="locality" />
		<tag k="ssr:stedsnr" v="77545" />
	</node>
	<node lat="68.54468333237196" lon="16.80288056399338" id="-20997">
		<tag k="fixme" v="multiple name tags, choose one and add the other to alt_name" />
		<tag k="name" v="Nipetruva;Nebbtinden" />
		<tag k="natural" v="hill" />
		<tag k="place" v="locality" />
		<tag k="ssr:stedsnr" v="81762" />
	</node>
	<node lat="68.49368888999736" lon="16.879405547665613" id="-20999">
		<tag k="name" v="Bjørnbakken" />
		<tag k="natural" v="slope" />
		<tag k="place" v="locality" />
		<tag k="ssr:stedsnr" v="85006" />
	</node>
	<node lat="68.50425555255643" lon="16.855811102986063" id="-21001">
		<tag k="name" v="Grønnlia" />
		<tag k="natural" v="slope" />
		<tag k="place" v="locality" />
		<tag k="ssr:stedsnr" v="85013" />
	</node>
	<node lat="68.49268055720758" lon="16.78668611613168" id="-21002">
		<tag k="name" v="Holtan" />
		<tag k="natural" v="hill" />
		<tag k="place" v="locality" />
		<tag k="ssr:stedsnr" v="85260" />
	</node>
	<node lat="68.46325000354472" lon="16.654155563234003" id="-21004">
		<tag k="name" v="Rønnhaugen" />
		<tag k="natural" v="hill" />
		<tag k="place" v="locality" />
		<tag k="ssr:stedsnr" v="86320" />
	</node>
	<node lat="68.54100833438437" lon="17.24882777160288" id="-21005">
		<tag k="name" v="Krangelhaugen" />
		<tag k="natural" v="hill" />
		<tag k="place" v="locality" />
		<tag k="ssr:stedsnr" v="86508" />
	</node>
	<node lat="68.53527777470833" lon="17.27265277315774" id="-21007">
		<tag k="name" v="Toftehaugen" />
		<tag k="natural" v="hill" />
		<tag k="place" v="locality" />
		<tag k="ssr:stedsnr" v="86517" />
	</node>
	<node lat="68.5152249974041" lon="17.02185278325584" id="-21008">
		<tag k="name" v="Pallan" />
		<tag k="natural" v="valley" />
		<tag k="place" v="locality" />
		<tag k="ssr:stedsnr" v="86759" />
	</node>
	<node lat="68.50768889307608" lon="17.090774989714326" id="-21009">
		<tag k="name" v="Blokkdalen" />
		<tag k="natural" v="valley" />
		<tag k="place" v="locality" />
		<tag k="ssr:stedsnr" v="86824" />
	</node>
	<node lat="68.51168333703768" lon="17.1005916676316" id="-21010">
		<tag k="name" v="Høghågan" />
		<tag k="natural" v="hill" />
		<tag k="place" v="locality" />
		<tag k="ssr:stedsnr" v="86867" />
	</node>
	<node lat="68.51562222564688" lon="17.10618056081775" id="-21011">
		<tag k="name" v="Tjønnlian" />
		<tag k="natural" v="slope" />
		<tag k="place" v="locality" />
		<tag k="ssr:stedsnr" v="86870" />
	</node>
	<node lat="68.52859999539656" lon="16.891747230381075" id="-21015">
		<tag k="name" v="Mørkhola" />
		<tag k="natural" v="valley" />
		<tag k="place" v="locality" />
		<tag k="ssr:stedsnr" v="86793" />
	</node>
	<node lat="68.45929722518841" lon="17.146052774113674" id="-21017">
		<tag k="name" v="Fjellbruna" />
		<tag k="place" v="locality" />
		<tag k="ssr:stedsnr" v="100030" />
	</node>
	<node lat="68.53898611117684" lon="17.00716667062357" id="-21020">
		<tag k="name" v="Fløyskaret" />
		<tag k="natural" v="valley" />
		<tag k="place" v="locality" />
		<tag k="ssr:stedsnr" v="100080" />
	</node>
	<node lat="68.49951389254811" lon="16.65059999125368" id="-21023">
		<tag k="name" v="Skavlia" />
		<tag k="natural" v="slope" />
		<tag k="place" v="locality" />
		<tag k="ssr:stedsnr" v="100489" />
	</node>
	<node lat="68.48259722463999" lon="16.581208334653432" id="-21024">
		<tag k="fixme" v="consider natural=peak for the most distinct mountains in the district" />
		<tag k="name" v="Ole Hjørnsåsen" />
		<tag k="natural" v="hill" />
		<tag k="place" v="locality" />
		<tag k="ssr:stedsnr" v="100495" />
	</node>
	<node lat="68.48001944300972" lon="16.829294445784818" id="-21025">
		<tag k="fixme" v="consider natural=peak for the most distinct mountains in the district" />
		<tag k="name" v="Raumyråsen" />
		<tag k="natural" v="hill" />
		<tag k="place" v="locality" />
		<tag k="ssr:stedsnr" v="118578" />
	</node>
	<node lat="68.5200749979908" lon="17.02593888209504" id="-21035">
		<tag k="name" v="Skrubbhaugen" />
		<tag k="natural" v="hill" />
		<tag k="place" v="locality" />
		<tag k="ssr:stedsnr" v="141628" />
	</node>
	<node lat="68.51403889242864" lon="17.054836113430603" id="-21040">
		<tag k="name" v="Snærlidalen" />
		<tag k="natural" v="valley" />
		<tag k="place" v="locality" />
		<tag k="ssr:stedsnr" v="146884" />
	</node>
	<node lat="68.5305722261907" lon="17.168561105894707" id="-21041">
		<tag k="name" v="Tverrelvsletta" />
		<tag k="place" v="locality" />
		<tag k="ssr:stedsnr" v="146991" />
	</node>
	<node lat="68.4587999954079" lon="16.651763892089733" id="-21042">
		<tag k="name" v="Nausthaugen" />
		<tag k="natural" v="hill" />
		<tag k="place" v="locality" />
		<tag k="ssr:stedsnr" v="146274" />
	</node>
	<node lat="68.49541111035899" lon="16.781494450802565" id="-21043">
		<tag k="name" v="Ramnberget" />
		<tag k="natural" v="hill" />
		<tag k="place" v="locality" />
		<tag k="ssr:stedsnr" v="146298" />
	</node>
	<node lat="68.54275555101422" lon="17.25282222945977" id="-21044">
		<tag k="name" v="Tiurhaugen" />
		<tag k="natural" v="hill" />
		<tag k="place" v="locality" />
		<tag k="ssr:stedsnr" v="146454" />
	</node>
	<node lat="68.52666389037043" lon="16.98426388257788" id="-21046">
		<tag k="name" v="Saubakkan" />
		<tag k="natural" v="slope" />
		<tag k="place" v="locality" />
		<tag k="ssr:stedsnr" v="146757" />
	</node>
	<node lat="68.52828333075703" lon="16.990558324072744" id="-21047">
		<tag k="name" v="Storelaughola" />
		<tag k="natural" v="valley" />
		<tag k="place" v="locality" />
		<tag k="ssr:stedsnr" v="146760" />
	</node>
	<node lat="68.52106944078099" lon="17.01019444914492" id="-21048">
		<tag k="name" v="Rapet" />
		<tag k="natural" v="slope" />
		<tag k="place" v="locality" />
		<tag k="ssr:stedsnr" v="146761" />
	</node>
	<node lat="68.48217778163644" lon="16.95540277713103" id="-21053">
		<tag k="name" v="Øyhammaren" />
		<tag k="natural" v="hill" />
		<tag k="place" v="locality" />
		<tag k="ssr:stedsnr" v="160055" />
	</node>
	<node lat="68.47395555318464" lon="17.21331667579758" id="-21054">
		<tag k="name" v="Sommardalen" />
		<tag k="natural" v="valley" />
		<tag k="place" v="locality" />
		<tag k="ssr:stedsnr" v="160062" />
	</node>
	<node lat="68.53936388789113" lon="17.06820554405309" id="-21056">
		<tag k="name" v="Pepperdalen" />
		<tag k="natural" v="valley" />
		<tag k="place" v="locality" />
		<tag k="ssr:stedsnr" v="160078" />
	</node>
	<node lat="68.53560832989214" lon="17.06938054581722" id="-21057">
		<tag k="name" v="Storbåtberget" />
		<tag k="natural" v="hill" />
		<tag k="place" v="locality" />
		<tag k="ssr:stedsnr" v="160081" />
	</node>
	<node lat="68.4829999978703" lon="17.19010277873093" id="-21058">
		<tag k="name" v="Kvanntoheia" />
		<tag k="natural" v="hill" />
		<tag k="place" v="locality" />
		<tag k="ssr:stedsnr" v="160084" />
	</node>
	<node lat="68.48901944112353" lon="17.18405833307226" id="-21061">
		<tag k="name" v="Livodden" />
		<tag k="natural" v="hill" />
		<tag k="place" v="locality" />
		<tag k="ssr:stedsnr" v="160016" />
	</node>
	<node lat="68.48987777821065" lon="17.180766655268584" id="-21062">
		<tag k="name" v="Ressmålslien" />
		<tag k="natural" v="slope" />
		<tag k="place" v="locality" />
		<tag k="ssr:stedsnr" v="160019" />
	</node>
	<node lat="68.49773055552288" lon="17.135372218577405" id="-21063">
		<tag k="fixme" v="consider natural=peak for the most distinct mountains in the district" />
		<tag k="name" v="Heimarkkollen" />
		<tag k="natural" v="hill" />
		<tag k="place" v="locality" />
		<tag k="ssr:stedsnr" v="160024" />
	</node>
	<node lat="68.46115277649022" lon="17.1539444488629" id="-21064">
		<tag k="name" v="Baukakorra" />
		<tag k="natural" v="valley" />
		<tag k="place" v="locality" />
		<tag k="ssr:stedsnr" v="160030" />
	</node>
	<node lat="68.47991944292426" lon="16.65789443556297" id="-21068">
		<tag k="name" v="Vassneshaugen" />
		<tag k="natural" v="hill" />
		<tag k="place" v="locality" />
		<tag k="ssr:stedsnr" v="160470" />
	</node>
	<node lat="68.47754999689634" lon="16.70008609736495" id="-21071">
		<tag k="name" v="Lussihaugen" />
		<tag k="natural" v="hill" />
		<tag k="place" v="locality" />
		<tag k="ssr:stedsnr" v="179534" />
	</node>
	<node lat="68.4624972232514" lon="16.766541672615762" id="-21072">
		<tag k="name" v="Orvolden" />
		<tag k="place" v="locality" />
		<tag k="ssr:stedsnr" v="179543" />
	</node>
	<node lat="68.4773250034038" lon="16.777936099487878" id="-21074">
		<tag k="fixme" v="consider natural=peak for the most distinct mountains in the district" />
		<tag k="name" v="Ørntuva" />
		<tag k="natural" v="hill" />
		<tag k="place" v="locality" />
		<tag k="ssr:stedsnr" v="179600" />
	</node>
	<node lat="68.47335277956695" lon="16.792183329334037" id="-21075">
		<tag k="fixme" v="consider natural=peak for the most distinct mountains in the district" />
		<tag k="name" v="Telgelikollen" />
		<tag k="natural" v="hill" />
		<tag k="place" v="locality" />
		<tag k="ssr:stedsnr" v="179601" />
	</node>
	<node lat="68.46871666283673" lon="17.183075008986073" id="-21077">
		<tag k="name" v="Kvanndalen" />
		<tag k="natural" v="valley" />
		<tag k="place" v="locality" />
		<tag k="ssr:stedsnr" v="199513" />
	</node>
	<node lat="68.51557777620361" lon="17.216616662296335" id="-21080">
		<tag k="fixme" v="consider natural=peak for the most distinct mountains in the district" />
		<tag k="name" v="Bjørkåsen" />
		<tag k="natural" v="hill" />
		<tag k="place" v="locality" />
		<tag k="ssr:stedsnr" v="202639" />
	</node>
	<node lat="68.50243611131772" lon="16.826166670347593" id="-21083">
		<tag k="name" v="Sirigamman" />
		<tag k="natural" v="slope" />
		<tag k="place" v="locality" />
		<tag k="ssr:stedsnr" v="206029" />
	</node>
	<node lat="68.4576472244339" lon="17.024611114799022" id="-21084">
		<tag k="name" v="Jordbærlia" />
		<tag k="natural" v="slope" />
		<tag k="place" v="locality" />
		<tag k="ssr:stedsnr" v="207205" />
	</node>
	<node lat="68.46633610930755" lon="17.034449993371382" id="-21086">
		<tag k="name" v="Nausthaugen" />
		<tag k="natural" v="hill" />
		<tag k="place" v="locality" />
		<tag k="ssr:stedsnr" v="207209" />
	</node>
	<node lat="68.53176388429927" lon="17.164511117845244" id="-21090">
		<tag k="name" v="Tverrelvbakken" />
		<tag k="natural" v="slope" />
		<tag k="place" v="locality" />
		<tag k="ssr:stedsnr" v="207998" />
	</node>
	<node lat="68.50582777530586" lon="16.742158331321253" id="-21092">
		<tag k="name" v="Jordbærhaugen" />
		<tag k="natural" v="hill" />
		<tag k="place" v="locality" />
		<tag k="ssr:stedsnr" v="207330" />
	</node>
	<node lat="68.54133333822976" lon="17.239430545929213" id="-21095">
		<tag k="name" v="Kjølan" />
		<tag k="place" v="locality" />
		<tag k="ssr:stedsnr" v="207453" />
	</node>
	<node lat="68.54594444548151" lon="17.286794454713476" id="-21096">
		<tag k="name" v="Svanevassdalen" />
		<tag k="natural" v="valley" />
		<tag k="place" v="locality" />
		<tag k="ssr:stedsnr" v="207472" />
	</node>
	<node lat="68.52012777765738" lon="17.02317778192619" id="-21097">
		<tag k="name" v="Anderslia" />
		<tag k="natural" v="slope" />
		<tag k="place" v="locality" />
		<tag k="ssr:stedsnr" v="207748" />
	</node>
	<node lat="68.52430833747735" lon="17.018088891113052" id="-21098">
		<tag k="name" v="Namnberget" />
		<tag k="natural" v="hill" />
		<tag k="place" v="locality" />
		<tag k="ssr:stedsnr" v="207752" />
	</node>
	<node lat="68.51428333400332" lon="17.03329166940742" id="-21099">
		<tag k="name" v="Skjellndalen" />
		<tag k="natural" v="valley" />
		<tag k="place" v="locality" />
		<tag k="ssr:stedsnr" v="207756" />
	</node>
	<node lat="68.51533611209643" lon="17.028969439500717" id="-21100">
		<tag k="name" v="Høgden" />
		<tag k="natural" v="hill" />
		<tag k="place" v="locality" />
		<tag k="ssr:stedsnr" v="207761" />
	</node>
	<node lat="68.47608332965419" lon="17.086002763425554" id="-21103">
		<tag k="name" v="Løhaugen" />
		<tag k="natural" v="hill" />
		<tag k="place" v="locality" />
		<tag k="ssr:stedsnr" v="207805" />
	</node>
	<node lat="68.46616388485084" lon="17.07281111003696" id="-21104">
		<tag k="name" v="Stordalen" />
		<tag k="natural" v="valley" />
		<tag k="place" v="locality" />
		<tag k="ssr:stedsnr" v="207807" />
	</node>
	<node lat="68.53234444704412" lon="17.154141676415225" id="-21106">
		<tag k="name" v="Tverrlian" />
		<tag k="natural" v="slope" />
		<tag k="place" v="locality" />
		<tag k="ssr:stedsnr" v="207866" />
	</node>
	<node lat="68.45850278197267" lon="17.058444433009235" id="-21114">
		<tag k="fixme" v="consider natural=peak for the most distinct mountains in the district" />
		<tag k="name" v="Mila" />
		<tag k="natural" v="hill" />
		<tag k="place" v="locality" />
		<tag k="ssr:stedsnr" v="221036" />
	</node>
	<node lat="68.46417222326572" lon="17.057152767280446" id="-21116">
		<tag k="fixme" v="consider natural=peak for the most distinct mountains in the district" />
		<tag k="name" v="Veråsen" />
		<tag k="natural" v="hill" />
		<tag k="place" v="locality" />
		<tag k="ssr:stedsnr" v="221041" />
	</node>
	<node lat="68.46197777765474" lon="17.052411113238865" id="-21117">
		<tag k="name" v="Skavlegda" />
		<tag k="natural" v="slope" />
		<tag k="place" v="locality" />
		<tag k="ssr:stedsnr" v="221043" />
	</node>
	<node lat="68.48837500045265" lon="16.91352776641646" id="-21120">
		<tag k="name" v="Aspsletta" />
		<tag k="place" v="locality" />
		<tag k="ssr:stedsnr" v="279578" />
	</node>
	<node lat="68.53146666946186" lon="16.994166671786928" id="-21124">
		<tag k="name" v="Tortenberget" />
		<tag k="natural" v="hill" />
		<tag k="place" v="locality" />
		<tag k="ssr:stedsnr" v="282088" />
	</node>
	<node lat="68.54946944536712" lon="17.019519448656506" id="-21125">
		<tag k="name" v="Middagsskaret" />
		<tag k="natural" v="valley" />
		<tag k="place" v="locality" />
		<tag k="ssr:stedsnr" v="282090" />
	</node>
	<node lat="68.54185000373846" lon="17.025700010226096" id="-21126">
		<tag k="name" v="Floget" />
		<tag k="natural" v="hill" />
		<tag k="place" v="locality" />
		<tag k="ssr:stedsnr" v="282092" />
	</node>
	<node lat="68.46194444520043" lon="17.147500004457385" id="-21128">
		<tag k="name" v="Skjellhaugen" />
		<tag k="natural" v="hill" />
		<tag k="place" v="locality" />
		<tag k="ssr:stedsnr" v="282036" />
	</node>
	<node lat="68.45723333748668" lon="17.05449445183598" id="-21129">
		<tag k="name" v="Høystakkmoen" />
		<tag k="place" v="locality" />
		<tag k="ssr:stedsnr" v="282050" />
	</node>
	<node lat="68.49766111226015" lon="16.646358320946412" id="-21130">
		<tag k="fixme" v="consider natural=peak for the most distinct mountains in the district" />
		<tag k="name" v="Kvassåsen" />
		<tag k="natural" v="hill" />
		<tag k="place" v="locality" />
		<tag k="ssr:stedsnr" v="282430" />
	</node>
	<node lat="68.4731166634108" lon="16.871852785573083" id="-21131">
		<tag k="name" v="Bergshaugen" />
		<tag k="natural" v="hill" />
		<tag k="place" v="locality" />
		<tag k="ssr:stedsnr" v="300636" />
	</node>
	<node lat="68.49302499984526" lon="17.185863878720724" id="-21140">
		<tag k="name" v="Lapplihøgda" />
		<tag k="natural" v="hill" />
		<tag k="place" v="locality" />
		<tag k="ssr:stedsnr" v="320518" />
	</node>
	<node lat="68.47458889300668" lon="17.18149166842713" id="-21148">
		<tag k="name" v="Reinhaugen" />
		<tag k="natural" v="hill" />
		<tag k="place" v="locality" />
		<tag k="ssr:stedsnr" v="321476" />
	</node>
	<node lat="68.45362499763628" lon="17.04786943318068" id="-21150">
		<tag k="name" v="Aspelikollen" />
		<tag k="natural" v="hill" />
		<tag k="place" v="locality" />
		<tag k="ssr:stedsnr" v="321963" />
	</node>
	<node lat="68.50624722461332" lon="16.75328055877735" id="-21162">
		<tag k="name" v="Storsletten" />
		<tag k="place" v="locality" />
		<tag k="ssr:stedsnr" v="328308" />
	</node>
	<node lat="68.47696110674265" lon="16.733050005987703" id="-21163">
		<tag k="name" v="Haugbakken" />
		<tag k="natural" v="hill" />
		<tag k="place" v="locality" />
		<tag k="ssr:stedsnr" v="328312" />
	</node>
	<node lat="68.49568610794519" lon="16.740100005907426" id="-21164">
		<tag k="name" v="Petterhaugen" />
		<tag k="natural" v="hill" />
		<tag k="place" v="locality" />
		<tag k="ssr:stedsnr" v="328315" />
	</node>
	<node lat="68.49181111124827" lon="16.7377555539163" id="-21166">
		<tag k="name" v="Storberget" />
		<tag k="natural" v="hill" />
		<tag k="place" v="locality" />
		<tag k="ssr:stedsnr" v="328321" />
	</node>
	<node lat="68.5056222198968" lon="16.779611106661" id="-21169">
		<tag k="fixme" v="consider natural=peak for the most distinct mountains in the district" />
		<tag k="name" v="Snaufjell" />
		<tag k="natural" v="hill" />
		<tag k="place" v="locality" />
		<tag k="ssr:stedsnr" v="328298" />
	</node>
	<node lat="68.51465000189037" lon="17.024538899261163" id="-21173">
		<tag k="name" v="Svartberget" />
		<tag k="natural" v="hill" />
		<tag k="place" v="locality" />
		<tag k="ssr:stedsnr" v="328750" />
	</node>
	<node lat="68.51633610940173" lon="16.897908333957748" id="-21174">
		<tag k="name" v="Løbakk" />
		<tag k="natural" v="slope" />
		<tag k="place" v="locality" />
		<tag k="ssr:stedsnr" v="328783" />
	</node>
	<node lat="68.51699722079627" lon="17.079633337690492" id="-21175">
		<tag k="name" v="Veltlia" />
		<tag k="natural" v="slope" />
		<tag k="place" v="locality" />
		<tag k="ssr:stedsnr" v="328875" />
	</node>
	<node lat="68.51346666835053" lon="17.071850000517685" id="-21176">
		<tag k="name" v="Reinmyrdalen" />
		<tag k="natural" v="valley" />
		<tag k="place" v="locality" />
		<tag k="ssr:stedsnr" v="328881" />
	</node>
	<node lat="68.525655557151" lon="17.148997233273413" id="-21179">
		<tag k="name" v="Bjørnhola" />
		<tag k="natural" v="valley" />
		<tag k="place" v="locality" />
		<tag k="ssr:stedsnr" v="328902" />
	</node>
	<node lat="68.53841388584311" lon="17.164494437240904" id="-21180">
		<tag k="name" v="Smillkjekk" />
		<tag k="place" v="locality" />
		<tag k="ssr:stedsnr" v="328998" />
	</node>
	<node lat="68.52327852361175" lon="16.771483975612224" id="-21181">
		<tag k="name" v="Fjellkroken" />
		<tag k="name:no" v="Fjellkroken" />
		<tag k="name:se" v="Várremoski" />
		<tag k="natural" v="slope" />
		<tag k="place" v="locality" />
		<tag k="ssr:stedsnr" v="341723" />
	</node>
	<node lat="68.47836666696618" lon="16.692011100069912" id="-21190">
		<tag k="fixme" v="consider natural=peak for the most distinct mountains in the district" />
		<tag k="name" v="Åsan" />
		<tag k="natural" v="hill" />
		<tag k="place" v="locality" />
		<tag k="ssr:stedsnr" v="361579" />
	</node>
	<node lat="68.47329999789378" lon="16.667544435233125" id="-21191">
		<tag k="fixme" v="consider natural=peak for the most distinct mountains in the district" />
		<tag k="name" v="Galnåsen" />
		<tag k="natural" v="hill" />
		<tag k="place" v="locality" />
		<tag k="ssr:stedsnr" v="361580" />
	</node>
	<node lat="68.48691944318196" lon="16.874952780156836" id="-21192">
		<tag k="fixme" v="consider natural=peak for the most distinct mountains in the district" />
		<tag k="name" v="Holamyra" />
		<tag k="natural" v="hill" />
		<tag k="place" v="locality" />
		<tag k="ssr:stedsnr" v="361666" />
	</node>
	<node lat="68.50932222445108" lon="16.769102769104297" id="-21193">
		<tag k="name" v="Spiidnedievva" />
		<tag k="name:se" v="Spiidnedievva" />
		<tag k="natural" v="hill" />
		<tag k="place" v="locality" />
		<tag k="ssr:stedsnr" v="361677" />
	</node>
	<node lat="68.46746944316801" lon="16.72689999924184" id="-21196">
		<tag k="name" v="Storsteinfloget" />
		<tag k="natural" v="hill" />
		<tag k="place" v="locality" />
		<tag k="ssr:stedsnr" v="361646" />
	</node>
	<node lat="68.52955000168676" lon="16.880308329538625" id="-21197">
		<tag k="name" v="Klubbfjellhalsen" />
		<tag k="natural" v="valley" />
		<tag k="place" v="locality" />
		<tag k="ssr:stedsnr" v="361705" />
	</node>
	<node lat="68.4928750042607" lon="16.561822218376747" id="-21198">
		<tag k="fixme" v="consider natural=peak for the most distinct mountains in the district" />
		<tag k="name" v="Rismålsfjellet" />
		<tag k="natural" v="hill" />
		<tag k="place" v="locality" />
		<tag k="ssr:stedsnr" v="380400" />
	</node>
	<node lat="68.47264166330861" lon="16.738558325493337" id="-21199">
		<tag k="fixme" v="consider natural=peak for the most distinct mountains in the district" />
		<tag k="name" v="Liafjellet" />
		<tag k="natural" v="hill" />
		<tag k="place" v="locality" />
		<tag k="ssr:stedsnr" v="380439" />
	</node>
	<node lat="68.4834527763957" lon="17.153158343034924" id="-21202">
		<tag k="name" v="Fagerlihøgda" />
		<tag k="natural" v="hill" />
		<tag k="place" v="locality" />
		<tag k="ssr:stedsnr" v="380552" />
	</node>
	<node lat="68.49798055334145" lon="16.861172217602704" id="-21212">
		<tag k="fixme" v="consider natural=peak for the most distinct mountains in the district" />
		<tag k="name" v="Toppåsen" />
		<tag k="natural" v="hill" />
		<tag k="place" v="locality" />
		<tag k="ssr:stedsnr" v="388020" />
	</node>
	<node lat="68.52218610812842" lon="16.970838879447914" id="-21218">
		<tag k="name" v="Svarteberget" />
		<tag k="natural" v="hill" />
		<tag k="place" v="locality" />
		<tag k="ssr:stedsnr" v="389770" />
	</node>
	<node lat="68.51696388812795" lon="17.09995832349278" id="-21222">
		<tag k="fixme" v="consider natural=peak for the most distinct mountains in the district" />
		<tag k="name" v="Løssingkollen" />
		<tag k="natural" v="hill" />
		<tag k="place" v="locality" />
		<tag k="ssr:stedsnr" v="389866" />
	</node>
	<node lat="68.5099722192381" lon="17.085391661807005" id="-21223">
		<tag k="fixme" v="consider natural=peak for the most distinct mountains in the district" />
		<tag k="name" v="Glefjellet" />
		<tag k="natural" v="hill" />
		<tag k="place" v="locality" />
		<tag k="ssr:stedsnr" v="389874" />
	</node>
	<node lat="68.47568611244571" lon="17.22079443492926" id="-21225">
		<tag k="name" v="Mølnvasshaugen" />
		<tag k="natural" v="hill" />
		<tag k="place" v="locality" />
		<tag k="ssr:stedsnr" v="389879" />
	</node>
	<node lat="68.50643333698358" lon="17.12422777362854" id="-21226">
		<tag k="fixme" v="consider natural=peak for the most distinct mountains in the district" />
		<tag k="name" v="Høgda" />
		<tag k="natural" v="hill" />
		<tag k="place" v="locality" />
		<tag k="ssr:stedsnr" v="403027" />
	</node>
	<node lat="68.48744721861294" lon="16.644880561397866" id="-21229">
		<tag k="fixme" v="consider natural=peak for the most distinct mountains in the district" />
		<tag k="name" v="Arnakkollen" />
		<tag k="natural" v="hill" />
		<tag k="place" v="locality" />
		<tag k="ssr:stedsnr" v="403416" />
	</node>
	<node lat="68.47076944751782" lon="16.639513899751712" id="-21230">
		<tag k="name" v="Langmyrbakken" />
		<tag k="natural" v="slope" />
		<tag k="place" v="locality" />
		<tag k="ssr:stedsnr" v="403504" />
	</node>
	<node lat="68.47506388886545" lon="16.737741669502743" id="-21237">
		<tag k="name" v="Tverrberget" />
		<tag k="natural" v="hill" />
		<tag k="place" v="locality" />
		<tag k="ssr:stedsnr" v="422614" />
	</node>
	<node lat="68.46936111509969" lon="16.835808333433793" id="-21239">
		<tag k="name" v="Bulia" />
		<tag k="natural" v="slope" />
		<tag k="place" v="locality" />
		<tag k="ssr:stedsnr" v="422630" />
	</node>
	<node lat="68.53218888716599" lon="16.766905565930966" id="-21240">
		<tag k="name" v="Plana" />
		<tag k="place" v="locality" />
		<tag k="ssr:stedsnr" v="422632" />
	</node>
	<node lat="68.54019722052766" lon="16.817761102730465" id="-21241">
		<tag k="fixme" v="consider natural=peak for the most distinct mountains in the district" />
		<tag k="name" v="Nordfjellet" />
		<tag k="natural" v="hill" />
		<tag k="place" v="locality" />
		<tag k="ssr:stedsnr" v="422638" />
	</node>
	<node lat="68.52385832945102" lon="16.785961117416495" id="-21242">
		<tag k="name" v="Stuoraluohkká" />
		<tag k="name:se" v="Stuoraluohkká" />
		<tag k="natural" v="slope" />
		<tag k="place" v="locality" />
		<tag k="ssr:stedsnr" v="422648" />
	</node>
	<node lat="68.53049722092298" lon="16.875783319953065" id="-21243">
		<tag k="name" v="Kvanntobotten" />
		<tag k="natural" v="valley" />
		<tag k="place" v="locality" />
		<tag k="ssr:stedsnr" v="422656" />
	</node>
	<node lat="68.4854777740549" lon="16.727641662189722" id="-21245">
		<tag k="fixme" v="consider natural=peak for the most distinct mountains in the district" />
		<tag k="name" v="Sørås" />
		<tag k="natural" v="hill" />
		<tag k="place" v="locality" />
		<tag k="ssr:stedsnr" v="449041" />
	</node>
	<node lat="68.48500000226583" lon="16.759794442207916" id="-21246">
		<tag k="alt_name" v="Anfinnskaret" />
		<tag k="name" v="Annfinnskardet" />
		<tag k="natural" v="valley" />
		<tag k="place" v="locality" />
		<tag k="ssr:stedsnr" v="441426" />
	</node>
	<node lat="68.486133332244" lon="17.129458332561214" id="-21250">
		<tag k="name" v="Nordelvdalen" />
		<tag k="natural" v="valley" />
		<tag k="place" v="locality" />
		<tag k="ssr:stedsnr" v="441523" />
	</node>
	<node lat="68.49178889189645" lon="16.880686105619073" id="-21252">
		<tag k="fixme" v="consider natural=peak for the most distinct mountains in the district" />
		<tag k="name" v="Stotteråsen" />
		<tag k="natural" v="hill" />
		<tag k="place" v="locality" />
		<tag k="ssr:stedsnr" v="442548" />
	</node>
	<node lat="68.50860833544189" lon="16.70102499517181" id="-21255">
		<tag k="name" v="Tomashaugen" />
		<tag k="natural" v="hill" />
		<tag k="place" v="locality" />
		<tag k="ssr:stedsnr" v="444945" />
	</node>
	<node lat="68.52133889136225" lon="17.05264443808037" id="-21256">
		<tag k="name" v="Lenvikhøghaugen" />
		<tag k="natural" v="hill" />
		<tag k="place" v="locality" />
		<tag k="ssr:stedsnr" v="445639" />
	</node>
	<node lat="68.50151110814669" lon="16.57720278253085" id="-21260">
		<tag k="alt_name" v="Kvantokollen" />
		<tag k="fixme" v="consider natural=peak for the most distinct mountains in the district" />
		<tag k="name" v="Kvanntokollen" />
		<tag k="natural" v="hill" />
		<tag k="place" v="locality" />
		<tag k="ssr:stedsnr" v="445949" />
	</node>
	<node lat="68.51714722270565" lon="16.791722213126974" id="-21261">
		<tag k="fixme" v="consider natural=peak for the most distinct mountains in the district" />
		<tag k="name" v="Snaufjellet - Čorrovárri" />
		<tag k="name:no" v="Snaufjellet" />
		<tag k="name:se" v="Čorrovárri" />
		<tag k="natural" v="hill" />
		<tag k="place" v="locality" />
		<tag k="ssr:stedsnr" v="445821" />
	</node>
	<node lat="68.51209999816082" lon="17.171533336693816" id="-21263">
		<tag k="name" v="Ørnreirhaugen" />
		<tag k="natural" v="hill" />
		<tag k="place" v="locality" />
		<tag k="ssr:stedsnr" v="510916" />
	</node>
	<node lat="68.4550888901578" lon="16.56877499600572" id="-21265">
		<tag k="name" v="Ramsteinhøgda" />
		<tag k="natural" v="hill" />
		<tag k="place" v="locality" />
		<tag k="ssr:stedsnr" v="502470" />
	</node>
	<node lat="68.49835555755095" lon="17.10842778868264" id="-21267">
		<tag k="fixme" v="consider natural=peak for the most distinct mountains in the district" />
		<tag k="name" v="Skipperåsen" />
		<tag k="natural" v="hill" />
		<tag k="place" v="locality" />
		<tag k="ssr:stedsnr" v="502535" />
	</node>
	<node lat="68.54724999886177" lon="16.896955547054933" id="-21270">
		<tag k="name" v="Langbergan" />
		<tag k="natural" v="hill" />
		<tag k="place" v="locality" />
		<tag k="ssr:stedsnr" v="505599" />
	</node>
	<node lat="68.54684999831952" lon="17.255116652132575" id="-21272">
		<tag k="name" v="Storhaugen" />
		<tag k="natural" v="hill" />
		<tag k="place" v="locality" />
		<tag k="ssr:stedsnr" v="510490" />
	</node>
	<node lat="68.45459999660798" lon="16.609999990260526" id="-21273">
		<tag k="name" v="Ørntuva" />
		<tag k="natural" v="hill" />
		<tag k="place" v="locality" />
		<tag k="ssr:stedsnr" v="510278" />
	</node>
	<node lat="68.46106111308039" lon="16.618047220101676" id="-21274">
		<tag k="fixme" v="consider natural=peak for the most distinct mountains in the district" />
		<tag k="name" v="Langvollen" />
		<tag k="natural" v="hill" />
		<tag k="place" v="locality" />
		<tag k="ssr:stedsnr" v="510279" />
	</node>
	<node lat="68.4637277799583" lon="16.631386109305943" id="-21275">
		<tag k="name" v="Brennhaugen" />
		<tag k="natural" v="hill" />
		<tag k="place" v="locality" />
		<tag k="ssr:stedsnr" v="510280" />
	</node>
	<node lat="68.5004444417889" lon="16.76147776922993" id="-21277">
		<tag k="name" v="Korssletta" />
		<tag k="place" v="locality" />
		<tag k="ssr:stedsnr" v="510324" />
	</node>
	<node lat="68.51979166455219" lon="17.016497231317008" id="-21279">
		<tag k="name" v="Munnhola" />
		<tag k="natural" v="valley" />
		<tag k="place" v="locality" />
		<tag k="ssr:stedsnr" v="510782" />
	</node>
	<node lat="68.52535833534714" lon="16.975863884336178" id="-21280">
		<tag k="name" v="Svahella" />
		<tag k="place" v="locality" />
		<tag k="ssr:stedsnr" v="510796" />
	</node>
	<node lat="68.5320444431381" lon="17.145841667833608" id="-21284">
		<tag k="name" v="Ditalia" />
		<tag k="natural" v="slope" />
		<tag k="place" v="locality" />
		<tag k="ssr:stedsnr" v="510898" />
	</node>
	<node lat="68.53664444438226" lon="17.172600003241037" id="-21287">
		<tag k="name" v="Svartberget" />
		<tag k="natural" v="hill" />
		<tag k="place" v="locality" />
		<tag k="ssr:stedsnr" v="510995" />
	</node>
	<node lat="68.46236111517213" lon="17.07019999880564" id="-21291">
		<tag k="name" v="Mila" />
		<tag k="natural" v="hill" />
		<tag k="place" v="locality" />
		<tag k="ssr:stedsnr" v="524038" />
	</node>
	<node lat="68.48014166907159" lon="16.64078054412006" id="-21294">
		<tag k="name" v="Arnakken" />
		<tag k="natural" v="ridge" />
		<tag k="place" v="locality" />
		<tag k="ssr:stedsnr" v="524449" />
	</node>
	<node lat="68.53668888979166" lon="17.00591666656303" id="-21295">
		<tag k="name" v="Fløya" />
		<tag k="natural" v="hill" />
		<tag k="place" v="locality" />
		<tag k="ssr:stedsnr" v="525041" />
	</node>
	<node lat="68.53088611523782" lon="16.996430547092025" id="-21298">
		<tag k="fixme" v="consider natural=peak for the most distinct mountains in the district" />
		<tag k="name" v="Galtåsen" />
		<tag k="natural" v="hill" />
		<tag k="place" v="locality" />
		<tag k="ssr:stedsnr" v="525094" />
	</node>
	<node lat="68.48576944485522" lon="16.762566674463447" id="-21304">
		<tag k="alt_name" v="Anfinnkollen" />
		<tag k="fixme" v="consider natural=peak for the most distinct mountains in the district" />
		<tag k="name" v="Annfinnkollen" />
		<tag k="natural" v="hill" />
		<tag k="place" v="locality" />
		<tag k="ssr:stedsnr" v="562419" />
	</node>
	<node lat="68.48599999535108" lon="16.560419452234303" id="-21307">
		<tag k="fixme" v="consider natural=peak for the most distinct mountains in the district" />
		<tag k="name" v="Heståsen" />
		<tag k="natural" v="hill" />
		<tag k="place" v="locality" />
		<tag k="ssr:stedsnr" v="562371" />
	</node>
	<node lat="68.45857500210708" lon="16.6747777735112" id="-21309">
		<tag k="alt_name" v="Ørnflåget" />
		<tag k="name" v="Ørnfloget" />
		<tag k="natural" v="hill" />
		<tag k="place" v="locality" />
		<tag k="ssr:stedsnr" v="562435" />
	</node>
	<node lat="68.4637805582686" lon="16.76319443414983" id="-21311">
		<tag k="name" v="Svartberget" />
		<tag k="natural" v="hill" />
		<tag k="place" v="locality" />
		<tag k="ssr:stedsnr" v="562460" />
	</node>
	<node lat="68.53200000134686" lon="16.906374989452207" id="-21320">
		<tag k="name" v="Kvanntobotn" />
		<tag k="natural" v="valley" />
		<tag k="place" v="locality" />
		<tag k="ssr:stedsnr" v="566575" />
	</node>
	<node lat="68.49179722636718" lon="16.764652766920786" id="-21326">
		<tag k="name" v="Liamohaugen" />
		<tag k="natural" v="hill" />
		<tag k="place" v="locality" />
		<tag k="ssr:stedsnr" v="570273" />
	</node>
	<node lat="68.50647221946558" lon="16.722891661174117" id="-21328">
		<tag k="name" v="Mellaryggen" />
		<tag k="natural" v="ridge" />
		<tag k="place" v="locality" />
		<tag k="ssr:stedsnr" v="570045" />
	</node>
	<node lat="68.50821667045706" lon="16.758402773519922" id="-21331">
		<tag k="name" v="Rabben" />
		<tag k="natural" v="slope" />
		<tag k="place" v="locality" />
		<tag k="ssr:stedsnr" v="570285" />
	</node>
	<node lat="68.53443611301162" lon="17.16302778360756" id="-21332">
		<tag k="name" v="Storberget" />
		<tag k="natural" v="hill" />
		<tag k="place" v="locality" />
		<tag k="ssr:stedsnr" v="570848" />
	</node>
	<node lat="68.5378194450862" lon="17.187108342201924" id="-21334">
		<tag k="name" v="Velta" />
		<tag k="natural" v="slope" />
		<tag k="place" v="locality" />
		<tag k="ssr:stedsnr" v="570992" />
	</node>
	<node lat="68.53515555216009" lon="17.17277778418859" id="-21335">
		<tag k="fixme" v="consider natural=peak for the most distinct mountains in the district" />
		<tag k="name" v="Stakklemmen" />
		<tag k="natural" v="hill" />
		<tag k="place" v="locality" />
		<tag k="ssr:stedsnr" v="570996" />
	</node>
	<node lat="68.45735833192822" lon="17.027902776141097" id="-21336">
		<tag k="fixme" v="consider natural=peak for the most distinct mountains in the district" />
		<tag k="name" v="Høgaksla" />
		<tag k="natural" v="hill" />
		<tag k="place" v="locality" />
		<tag k="ssr:stedsnr" v="571217" />
	</node>
	<node lat="68.46236388769442" lon="16.66321666353213" id="-21339">
		<tag k="name" v="Rova" />
		<tag k="place" v="locality" />
		<tag k="ssr:stedsnr" v="571292" />
	</node>
	<node lat="68.46129999611033" lon="16.71941667526467" id="-21341">
		<tag k="name" v="Evenesfløya" />
		<tag k="place" v="locality" />
		<tag k="ssr:stedsnr" v="571360" />
	</node>
	<node lat="68.51692778206231" lon="17.032991656729138" id="-21347">
		<tag k="name" v="Kleivskaret" />
		<tag k="natural" v="valley" />
		<tag k="place" v="locality" />
		<tag k="ssr:stedsnr" v="571731" />
	</node>
	<node lat="68.51492499944636" lon="17.036916653072605" id="-21348">
		<tag k="name" v="Skjervlia" />
		<tag k="natural" v="slope" />
		<tag k="place" v="locality" />
		<tag k="ssr:stedsnr" v="571736" />
	</node>
	<node lat="68.52521110768629" lon="17.010633334605828" id="-21352">
		<tag k="name" v="Brennstuven" />
		<tag k="natural" v="hill" />
		<tag k="place" v="locality" />
		<tag k="ssr:stedsnr" v="571765" />
	</node>
	<node lat="68.4938333351203" lon="17.08608332116407" id="-21354">
		<tag k="name" v="Lappsletta" />
		<tag k="place" v="locality" />
		<tag k="ssr:stedsnr" v="571826" />
	</node>
	<node lat="68.5128944488666" lon="17.188563888331164" id="-21358">
		<tag k="fixme" v="consider natural=peak for the most distinct mountains in the district" />
		<tag k="name" v="Bergåsen" />
		<tag k="natural" v="hill" />
		<tag k="place" v="locality" />
		<tag k="ssr:stedsnr" v="571895" />
	</node>
	<node lat="68.4805083352993" lon="17.174119443264285" id="-21363">
		<tag k="name" v="Kvanntoheidalen" />
		<tag k="natural" v="valley" />
		<tag k="place" v="locality" />
		<tag k="ssr:stedsnr" v="585117" />
	</node>
	<node lat="68.48110555279908" lon="16.574677783157878" id="-21366">
		<tag k="fixme" v="consider natural=peak for the most distinct mountains in the district" />
		<tag k="name" v="Lappegamåsen" />
		<tag k="natural" v="hill" />
		<tag k="place" v="locality" />
		<tag k="ssr:stedsnr" v="585469" />
	</node>
	<node lat="68.48648055288817" lon="16.640286120741667" id="-21369">
		<tag k="fixme" v="consider natural=peak for the most distinct mountains in the district" />
		<tag k="name" v="Øvre Arnakken" />
		<tag k="natural" v="hill" />
		<tag k="place" v="locality" />
		<tag k="ssr:stedsnr" v="585481" />
	</node>
	<node lat="68.47807777349736" lon="16.629586107926983" id="-21370">
		<tag k="name" v="Kolmildalen" />
		<tag k="natural" v="valley" />
		<tag k="place" v="locality" />
		<tag k="ssr:stedsnr" v="585485" />
	</node>
	<node lat="68.47788611035297" lon="16.703066672956258" id="-21373">
		<tag k="name" v="Blåaksla" />
		<tag k="natural" v="ridge" />
		<tag k="place" v="locality" />
		<tag k="ssr:stedsnr" v="603541" />
	</node>
	<node lat="68.48588888790545" lon="16.87560000734752" id="-21374">
		<tag k="fixme" v="consider natural=peak for the most distinct mountains in the district" />
		<tag k="name" v="Holatoppen" />
		<tag k="natural" v="hill" />
		<tag k="place" v="locality" />
		<tag k="ssr:stedsnr" v="603594" />
	</node>
	<node lat="68.49818333602909" lon="16.775447216949196" id="-21376">
		<tag k="fixme" v="consider natural=peak for the most distinct mountains in the district" />
		<tag k="name" v="Nordfjellet" />
		<tag k="natural" v="hill" />
		<tag k="place" v="locality" />
		<tag k="ssr:stedsnr" v="623380" />
	</node>
	<node lat="68.48524166465529" lon="17.253905561881826" id="-21377">
		<tag k="name" v="Varden" />
		<tag k="natural" v="hill" />
		<tag k="place" v="locality" />
		<tag k="ssr:stedsnr" v="623542" />
	</node>
	<node lat="68.47533610948325" lon="17.138255551147" id="-21379">
		<tag k="fixme" v="consider natural=peak for the most distinct mountains in the district" />
		<tag k="name" v="Stabben" />
		<tag k="natural" v="hill" />
		<tag k="place" v="locality" />
		<tag k="ssr:stedsnr" v="624518" />
	</node>
	<node lat="68.45470278008327" lon="17.077016657513195" id="-21381">
		<tag k="alt_name" v="Forrhaugen" />
		<tag k="name" v="Forhaugen" />
		<tag k="natural" v="hill" />
		<tag k="place" v="locality" />
		<tag k="ssr:stedsnr" v="624970" />
	</node>
	<node lat="68.51291388843029" lon="16.901077775220028" id="-21385">
		<tag k="fixme" v="consider natural=peak for the most distinct mountains in the district" />
		<tag k="name" v="Vassåsen" />
		<tag k="natural" v="hill" />
		<tag k="place" v="locality" />
		<tag k="ssr:stedsnr" v="626640" />
	</node>
	<node lat="68.55093611070549" lon="16.92863609907369" id="-21387">
		<tag k="fixme" v="consider natural=peak for the most distinct mountains in the district" />
		<tag k="name" v="Litletinden" />
		<tag k="name:no" v="Litletinden" />
		<tag k="name:se" v="Seamulvákkečohkka" />
		<tag k="natural" v="hill" />
		<tag k="place" v="locality" />
		<tag k="ssr:stedsnr" v="627588" />
	</node>
	<node lat="68.51366111180324" lon="17.013602778801424" id="-21389">
		<tag k="name" v="Kleivryggen" />
		<tag k="natural" v="ridge" />
		<tag k="place" v="locality" />
		<tag k="ssr:stedsnr" v="631779" />
	</node>
	<node lat="68.52258610738234" lon="17.008955558594376" id="-21396">
		<tag k="name" v="Geitbogen" />
		<tag k="place" v="locality" />
		<tag k="ssr:stedsnr" v="631784" />
	</node>
	<node lat="68.52251110801927" lon="16.900038894151713" id="-21397">
		<tag k="fixme" v="consider natural=peak for the most distinct mountains in the district" />
		<tag k="name" v="Rundlikollen" />
		<tag k="natural" v="hill" />
		<tag k="place" v="locality" />
		<tag k="ssr:stedsnr" v="631790" />
	</node>
	<node lat="68.47056944082395" lon="17.06108332192424" id="-21399">
		<tag k="name" v="Brøysletta" />
		<tag k="place" v="locality" />
		<tag k="ssr:stedsnr" v="631818" />
	</node>
	<node lat="68.53253888477624" lon="17.14425555352756" id="-21400">
		<tag k="name" v="Skillesletta" />
		<tag k="place" v="locality" />
		<tag k="ssr:stedsnr" v="631889" />
	</node>
	<node lat="68.5253194470346" lon="17.128002785166057" id="-21402">
		<tag k="fixme" v="consider natural=peak for the most distinct mountains in the district" />
		<tag k="name" v="Gruvlikollen" />
		<tag k="natural" v="hill" />
		<tag k="place" v="locality" />
		<tag k="ssr:stedsnr" v="631927" />
	</node>
	<node lat="68.52966110709363" lon="17.11368334142009" id="-21404">
		<tag k="name" v="Lappkjerringa" />
		<tag k="place" v="locality" />
		<tag k="ssr:stedsnr" v="632864" />
	</node>
	<node lat="68.54413333124539" lon="17.0657250025555" id="-21406">
		<tag k="name" v="Forraheia" />
		<tag k="natural" v="hill" />
		<tag k="place" v="locality" />
		<tag k="ssr:stedsnr" v="645088" />
	</node>
	<node lat="68.53898888507824" lon="17.01945000215776" id="-21407">
		<tag k="name" v="Røyrhola" />
		<tag k="natural" v="valley" />
		<tag k="place" v="locality" />
		<tag k="ssr:stedsnr" v="645034" />
	</node>
	<node lat="68.46386111514569" lon="17.068480554282843" id="-21409">
		<tag k="name" v="Mildalen" />
		<tag k="natural" v="valley" />
		<tag k="place" v="locality" />
		<tag k="ssr:stedsnr" v="645037" />
	</node>
	<node lat="68.5482972220012" lon="16.988375000855903" id="-21410">
		<tag k="name" v="Åtslettbergan" />
		<tag k="natural" v="hill" />
		<tag k="place" v="locality" />
		<tag k="ssr:stedsnr" v="645051" />
	</node>
	<node lat="68.54912777774068" lon="16.991644446446518" id="-21411">
		<tag k="name" v="Åtsletta" />
		<tag k="place" v="locality" />
		<tag k="ssr:stedsnr" v="645055" />
	</node>
	<node lat="68.46750278009691" lon="17.26378888745921" id="-21412">
		<tag k="name" v="Karihellaren" />
		<tag k="natural" v="hill" />
		<tag k="place" v="locality" />
		<tag k="ssr:stedsnr" v="645066" />
	</node>
	<node lat="68.53711110745844" lon="17.06963888553714" id="-21413">
		<tag k="name" v="Vassbotnsletta" />
		<tag k="place" v="locality" />
		<tag k="ssr:stedsnr" v="645101" />
	</node>
	<node lat="68.48011666773775" lon="17.212308319800034" id="-21416">
		<tag k="name" v="Sennvassdalen" />
		<tag k="natural" v="valley" />
		<tag k="place" v="locality" />
		<tag k="ssr:stedsnr" v="719012" />
	</node>
	<node lat="68.48007777679813" lon="16.83968333024558" id="-21417">
		<tag k="fixme" v="consider natural=peak for the most distinct mountains in the district" />
		<tag k="name" v="Mellafjellet" />
		<tag k="natural" v="hill" />
		<tag k="place" v="locality" />
		<tag k="ssr:stedsnr" v="725563" />
	</node>
	<node lat="68.47642778099446" lon="16.837113889928442" id="-21418">
		<tag k="fixme" v="consider natural=peak for the most distinct mountains in the district" />
		<tag k="name" v="Brennfjellet" />
		<tag k="natural" v="hill" />
		<tag k="place" v="locality" />
		<tag k="ssr:stedsnr" v="725566" />
	</node>
	<node lat="68.48261110887394" lon="16.822000003582886" id="-21419">
		<tag k="name" v="Bjørnskaret" />
		<tag k="natural" v="valley" />
		<tag k="place" v="locality" />
		<tag k="ssr:stedsnr" v="725567" />
	</node>
	<node lat="68.50984722069556" lon="16.877786101449143" id="-21420">
		<tag k="name" v="Munndalen" />
		<tag k="natural" v="valley" />
		<tag k="place" v="locality" />
		<tag k="ssr:stedsnr" v="725625" />
	</node>
	<node lat="68.52404444007388" lon="16.79704444365558" id="-21422">
		<tag k="name" v="Kisteberget" />
		<tag k="natural" v="hill" />
		<tag k="place" v="locality" />
		<tag k="ssr:stedsnr" v="725593" />
	</node>
	<node lat="68.5508472232429" lon="17.274813880992973" id="-21430">
		<tag k="name" v="Hundlikollen" />
		<tag k="name:no" v="Hundlikollen" />
		<tag k="name:se" v="Beanarápmačohkka" />
		<tag k="natural" v="hill" />
		<tag k="place" v="locality" />
		<tag k="ssr:stedsnr" v="748601" />
	</node>
	<node lat="68.4547861070219" lon="16.68112222557742" id="-21438">
		<tag k="name" v="Oterhola" />
		<tag k="natural" v="valley" />
		<tag k="place" v="locality" />
		<tag k="ssr:stedsnr" v="753309" />
	</node>
	<node lat="68.53347500336403" lon="17.219605557073713" id="-21440">
		<tag k="name" v="Storelvryggen" />
		<tag k="natural" v="ridge" />
		<tag k="place" v="locality" />
		<tag k="ssr:stedsnr" v="753428" />
	</node>
	<node lat="68.50506666781256" lon="16.76612221265503" id="-21441">
		<tag k="name" v="Tyttebærhaugen" />
		<tag k="natural" v="hill" />
		<tag k="place" v="locality" />
		<tag k="ssr:stedsnr" v="753292" />
	</node>
	<node lat="68.47617777773085" lon="17.081827764618126" id="-21446">
		<tag k="name" v="Strupen" />
		<tag k="place" v="locality" />
		<tag k="ssr:stedsnr" v="753782" />
	</node>
	<node lat="68.47216388591275" lon="17.078497216699333" id="-21447">
		<tag k="fixme" v="consider natural=peak for the most distinct mountains in the district" />
		<tag k="name" v="Bjørnliåsen" />
		<tag k="natural" v="hill" />
		<tag k="place" v="locality" />
		<tag k="ssr:stedsnr" v="753794" />
	</node>
	<node lat="68.50619166763161" lon="17.07386943678417" id="-21452">
		<tag k="name" v="Heikhola" />
		<tag k="natural" v="valley" />
		<tag k="place" v="locality" />
		<tag k="ssr:stedsnr" v="753839" />
	</node>
	<node lat="68.54018888917948" lon="17.175730542953563" id="-21454">
		<tag k="name" v="Ansiktet" />
		<tag k="place" v="locality" />
		<tag k="ssr:stedsnr" v="753999" />
	</node>
	<node lat="68.50124722621179" lon="17.153780563479668" id="-21460">
		<tag k="name" v="Mobakkheia" />
		<tag k="natural" v="hill" />
		<tag k="place" v="locality" />
		<tag k="ssr:stedsnr" v="767022" />
	</node>
	<node lat="68.46107777804531" lon="17.12663611747502" id="-21463">
		<tag k="name" v="Langmarkbakken" />
		<tag k="natural" v="slope" />
		<tag k="place" v="locality" />
		<tag k="ssr:stedsnr" v="767033" />
	</node>
	<node lat="68.4778888920683" lon="16.91980000343897" id="-21464">
		<tag k="name" v="Fagerbakken" />
		<tag k="natural" v="slope" />
		<tag k="place" v="locality" />
		<tag k="ssr:stedsnr" v="767070" />
	</node>
	<node lat="68.4720083336355" lon="17.269613888634634" id="-21466">
		<tag k="name" v="Favnvedmoen" />
		<tag k="place" v="locality" />
		<tag k="ssr:stedsnr" v="767078" />
	</node>
	<node lat="68.54397222303052" lon="16.994155545197263" id="-21469">
		<tag k="fixme" v="consider natural=peak for the most distinct mountains in the district" />
		<tag k="name" v="Tverrfjellet" />
		<tag k="natural" v="hill" />
		<tag k="place" v="locality" />
		<tag k="ssr:stedsnr" v="767087" />
	</node>
	<node lat="68.47029444839323" lon="16.634033324383406" id="-21470">
		<tag k="name" v="Toveisletta" />
		<tag k="place" v="locality" />
		<tag k="ssr:stedsnr" v="767523" />
	</node>
	<node lat="68.48256111237649" lon="16.700316676671317" id="-21471">
		<tag k="name" v="Stuneshaugbakken" />
		<tag k="natural" v="slope" />
		<tag k="place" v="locality" />
		<tag k="ssr:stedsnr" v="767532" />
	</node>
	<node lat="68.47899999585067" lon="16.870702771487196" id="-21473">
		<tag k="name" v="Stengseldalen" />
		<tag k="natural" v="valley" />
		<tag k="place" v="locality" />
		<tag k="ssr:stedsnr" v="786667" />
	</node>
	<node lat="68.5097111104181" lon="16.73443887622396" id="-21474">
		<tag k="name" v="Heastaroggi" />
		<tag k="name:se" v="Heastaroggi" />
		<tag k="natural" v="valley" />
		<tag k="place" v="locality" />
		<tag k="ssr:stedsnr" v="786676" />
	</node>
	<node lat="68.52635277700618" lon="16.75611388796082" id="-21475">
		<tag k="name" v="Hesterontoet" />
		<tag k="place" v="locality" />
		<tag k="ssr:stedsnr" v="786678" />
	</node>
	<node lat="68.52763888939353" lon="16.77727499723496" id="-21476">
		<tag k="name" v="Gállogodi" />
		<tag k="name:se" v="Gállogodi" />
		<tag k="natural" v="hill" />
		<tag k="place" v="locality" />
		<tag k="ssr:stedsnr" v="786683" />
	</node>
	<node lat="68.47251666300822" lon="16.652463896870753" id="-21477">
		<tag k="name" v="Holman" />
		<tag k="place" v="locality" />
		<tag k="ssr:stedsnr" v="786572" />
	</node>
	<node lat="68.47558889137389" lon="16.751000003496515" id="-21478">
		<tag k="fixme" v="consider natural=peak for the most distinct mountains in the district" />
		<tag k="name" v="Tåra" />
		<tag k="natural" v="hill" />
		<tag k="place" v="locality" />
		<tag k="ssr:stedsnr" v="786640" />
	</node>
	<node lat="68.48487499808327" lon="16.82633609715906" id="-21482">
		<tag k="fixme" v="consider natural=peak for the most distinct mountains in the district" />
		<tag k="name" v="Rømmeråsen" />
		<tag k="natural" v="hill" />
		<tag k="place" v="locality" />
		<tag k="ssr:stedsnr" v="805537" />
	</node>
	<node lat="68.47677221850624" lon="16.791274989456063" id="-21483">
		<tag k="name" v="Sommarviksletta" />
		<tag k="place" v="locality" />
		<tag k="ssr:stedsnr" v="806404" />
	</node>
	<node lat="68.46277778151752" lon="16.72760000116478" id="-21485">
		<tag k="fixme" v="consider natural=peak for the most distinct mountains in the district" />
		<tag k="name" v="Evenesfløya" />
		<tag k="natural" v="hill" />
		<tag k="place" v="locality" />
		<tag k="ssr:stedsnr" v="806439" />
	</node>
	<node lat="68.47164166748328" lon="17.213163882416595" id="-21486">
		<tag k="fixme" v="consider natural=peak for the most distinct mountains in the district" />
		<tag k="name" v="Friarfjellet" />
		<tag k="natural" v="hill" />
		<tag k="place" v="locality" />
		<tag k="ssr:stedsnr" v="806503" />
	</node>
	<node lat="68.51659167141706" lon="16.773691661105715" id="-21488">
		<tag k="fixme" v="consider natural=peak for the most distinct mountains in the district" />
		<tag k="name" v="Oalgi" />
		<tag k="name:se" v="Oalgi" />
		<tag k="natural" v="hill" />
		<tag k="place" v="locality" />
		<tag k="ssr:stedsnr" v="809815" />
	</node>
	<node lat="68.55950833121354" lon="16.981300009640886" id="-21489">
		<tag k="fixme" v="consider natural=peak for the most distinct mountains in the district" />
		<tag k="name" v="Rogndalsfjellet" />
		<tag k="natural" v="hill" />
		<tag k="place" v="locality" />
		<tag k="ssr:stedsnr" v="809933" />
	</node>
	<node lat="68.49039721805009" lon="16.806850004167778" id="-21491">
		<tag k="name" v="Parten" />
		<tag k="place" v="locality" />
		<tag k="ssr:stedsnr" v="813018" />
	</node>
	<node lat="68.5069833333028" lon="16.83057777783013" id="-21492">
		<tag k="name" v="Baklia" />
		<tag k="natural" v="slope" />
		<tag k="place" v="locality" />
		<tag k="ssr:stedsnr" v="813023" />
	</node>
	<node lat="68.50542222307651" lon="16.830580565960197" id="-21493">
		<tag k="name" v="Sauhallaren" />
		<tag k="natural" v="slope" />
		<tag k="place" v="locality" />
		<tag k="ssr:stedsnr" v="813025" />
	</node>
	<node lat="68.50434444674669" lon="16.926822220854195" id="-21496">
		<tag k="fixme" v="consider natural=peak for the most distinct mountains in the district" />
		<tag k="name" v="Nonsåsen" />
		<tag k="natural" v="hill" />
		<tag k="place" v="locality" />
		<tag k="ssr:stedsnr" v="814259" />
	</node>
	<node lat="68.50506389091689" lon="16.918830551849865" id="-21497">
		<tag k="name" v="Bunkedalen" />
		<tag k="natural" v="valley" />
		<tag k="place" v="locality" />
		<tag k="ssr:stedsnr" v="814260" />
	</node>
	<node lat="68.45694166928168" lon="17.032291673269654" id="-21498">
		<tag k="fixme" v="consider natural=peak for the most distinct mountains in the district" />
		<tag k="name" v="Seljeåsen" />
		<tag k="natural" v="hill" />
		<tag k="place" v="locality" />
		<tag k="ssr:stedsnr" v="814266" />
	</node>
	<node lat="68.49068333366206" lon="17.109213875403334" id="-21501">
		<tag k="name" v="Skjellmoen" />
		<tag k="place" v="locality" />
		<tag k="ssr:stedsnr" v="814823" />
	</node>
	<node lat="68.52109167093762" lon="17.0268277824082" id="-21502">
		<tag k="name" v="Næverhola" />
		<tag k="natural" v="valley" />
		<tag k="place" v="locality" />
		<tag k="ssr:stedsnr" v="814771" />
	</node>
	<node lat="68.48022777666458" lon="17.222047231099918" id="-21503">
		<tag k="name" v="Grolien" />
		<tag k="natural" v="slope" />
		<tag k="place" v="locality" />
		<tag k="ssr:stedsnr" v="814896" />
	</node>
	<node lat="68.45207777844436" lon="17.042994435318036" id="-21507">
		<tag k="name" v="Djupdalssletta" />
		<tag k="place" v="locality" />
		<tag k="ssr:stedsnr" v="828028" />
	</node>
	<node lat="68.46650000113878" lon="17.177488875628345" id="-21510">
		<tag k="name" v="Bukkelvhola" />
		<tag k="natural" v="valley" />
		<tag k="place" v="locality" />
		<tag k="ssr:stedsnr" v="828099" />
	</node>
	<node lat="68.47221944449825" lon="16.737888888806847" id="-21514">
		<tag k="fixme" v="consider natural=peak for the most distinct mountains in the district" />
		<tag k="name" v="Lillekollen" />
		<tag k="natural" v="hill" />
		<tag k="place" v="locality" />
		<tag k="ssr:stedsnr" v="847605" />
	</node>
	<node lat="68.47167221993516" lon="16.733327771356922" id="-21515">
		<tag k="name" v="Kjellarfjellbruna" />
		<tag k="natural" v="ridge" />
		<tag k="place" v="locality" />
		<tag k="ssr:stedsnr" v="847606" />
	</node>
	<node lat="68.52040833450612" lon="16.8031444425061" id="-21519">
		<tag k="fixme" v="consider natural=peak for the most distinct mountains in the district" />
		<tag k="name" v="Mellomfjellet" />
		<tag k="natural" v="hill" />
		<tag k="place" v="locality" />
		<tag k="ssr:stedsnr" v="847660" />
	</node>
	<node lat="68.51867777987913" lon="16.771133331434275" id="-21520">
		<tag k="fixme" v="consider natural=peak for the most distinct mountains in the district" />
		<tag k="name" v="Varkavatnja" />
		<tag k="name:se" v="Varkavatnja" />
		<tag k="natural" v="hill" />
		<tag k="place" v="locality" />
		<tag k="ssr:stedsnr" v="847661" />
	</node>
	<node lat="68.47688888655942" lon="16.807224994455787" id="-21521">
		<tag k="fixme" v="consider natural=peak for the most distinct mountains in the district" />
		<tag k="name" v="Snaufjellet" />
		<tag k="natural" v="hill" />
		<tag k="place" v="locality" />
		<tag k="ssr:stedsnr" v="866386" />
	</node>
	<node lat="68.48629444775331" lon="16.743027783613325" id="-21522">
		<tag k="fixme" v="consider natural=peak for the most distinct mountains in the district" />
		<tag k="name" v="Tverrfjellet" />
		<tag k="natural" v="hill" />
		<tag k="place" v="locality" />
		<tag k="ssr:stedsnr" v="866403" />
	</node>
	<node lat="68.47710000358065" lon="16.842080554746808" id="-21527">
		<tag k="alt_name" v="Vetten" />
		<tag k="fixme" v="consider natural=peak for the most distinct mountains in the district" />
		<tag k="name" v="Veten" />
		<tag k="natural" v="hill" />
		<tag k="place" v="locality" />
		<tag k="ssr:stedsnr" v="867539" />
	</node>
	<node lat="68.48010832889015" lon="16.848191673138082" id="-21528">
		<tag k="fixme" v="consider natural=peak for the most distinct mountains in the district" />
		<tag k="name" v="Kleggåsen" />
		<tag k="natural" v="hill" />
		<tag k="place" v="locality" />
		<tag k="ssr:stedsnr" v="867540" />
	</node>
	<node lat="68.50791388878517" lon="16.82766388372277" id="-21530">
		<tag k="name" v="Ørntuva" />
		<tag k="natural" v="hill" />
		<tag k="place" v="locality" />
		<tag k="ssr:stedsnr" v="870591" />
	</node>
	<node lat="68.4879500029556" lon="16.88028611637522" id="-21537">
		<tag k="name" v="Mørkhola" />
		<tag k="natural" v="valley" />
		<tag k="place" v="locality" />
		<tag k="ssr:stedsnr" v="874007" />
	</node>
	<node lat="68.49402777528095" lon="16.714649996558016" id="-21539">
		<tag k="name" v="Kjerkhaugen" />
		<tag k="natural" v="hill" />
		<tag k="place" v="locality" />
		<tag k="ssr:stedsnr" v="874070" />
	</node>
	<node lat="68.50083055208678" lon="17.11126943826065" id="-21543">
		<tag k="fixme" v="consider natural=peak for the most distinct mountains in the district" />
		<tag k="name" v="Tømmeråsen" />
		<tag k="natural" v="hill" />
		<tag k="place" v="locality" />
		<tag k="ssr:stedsnr" v="874816" />
	</node>
	<node lat="68.49396111182271" lon="17.09893611419093" id="-21545">
		<tag k="fixme" v="consider natural=peak for the most distinct mountains in the district" />
		<tag k="name" v="Brattåsen" />
		<tag k="natural" v="hill" />
		<tag k="place" v="locality" />
		<tag k="ssr:stedsnr" v="874846" />
	</node>
	<node lat="68.52528888537599" lon="16.97270833904918" id="-21548">
		<tag k="name" v="Kårlia" />
		<tag k="natural" v="slope" />
		<tag k="place" v="locality" />
		<tag k="ssr:stedsnr" v="875768" />
	</node>
	<node lat="68.51728888539965" lon="17.0073361191273" id="-21549">
		<tag k="fixme" v="consider natural=peak for the most distinct mountains in the district" />
		<tag k="name" v="Åsen" />
		<tag k="natural" v="hill" />
		<tag k="place" v="locality" />
		<tag k="ssr:stedsnr" v="875773" />
	</node>
	<node lat="68.50889722237787" lon="17.09144722543462" id="-21552">
		<tag k="name" v="Vadalshaugen" />
		<tag k="natural" v="hill" />
		<tag k="place" v="locality" />
		<tag k="ssr:stedsnr" v="875853" />
	</node>
	<node lat="68.46651944462636" lon="17.111811099243248" id="-21555">
		<tag k="fixme" v="consider natural=peak for the most distinct mountains in the district" />
		<tag k="name" v="Rundkollen" />
		<tag k="natural" v="hill" />
		<tag k="place" v="locality" />
		<tag k="ssr:stedsnr" v="875922" />
	</node>
	<node lat="68.51142222345833" lon="16.90864166416678" id="-21557">
		<tag k="fixme" v="consider natural=peak for the most distinct mountains in the district" />
		<tag k="name" v="Forrholtan" />
		<tag k="natural" v="hill" />
		<tag k="place" v="locality" />
		<tag k="ssr:stedsnr" v="875788" />
	</node>
	<node lat="68.45946666544822" lon="17.184330559867714" id="-21559">
		<tag k="name" v="Bukkelvlia" />
		<tag k="natural" v="slope" />
		<tag k="place" v="locality" />
		<tag k="ssr:stedsnr" v="880085" />
	</node>
	<node lat="68.46245833726675" lon="17.086202782991705" id="-21564">
		<tag k="fixme" v="consider natural=peak for the most distinct mountains in the district" />
		<tag k="name" v="Nerskavåsen" />
		<tag k="natural" v="hill" />
		<tag k="place" v="locality" />
		<tag k="ssr:stedsnr" v="889060" />
	</node>
	<node lat="68.51357777776984" lon="17.23681110751051" id="-21565">
		<tag k="fixme" v="consider natural=peak for the most distinct mountains in the district" />
		<tag k="name" v="Rundkollen" />
		<tag k="natural" v="hill" />
		<tag k="place" v="locality" />
		<tag k="ssr:stedsnr" v="889093" />
	</node>
	<node lat="68.54760555877799" lon="17.269922211824692" id="-21566">
		<tag k="name" v="Hundlia" />
		<tag k="name:no" v="Hundlia" />
		<tag k="name:se" v="Beanarápma" />
		<tag k="natural" v="slope" />
		<tag k="place" v="locality" />
		<tag k="ssr:stedsnr" v="935490" />
	</node>
	<node lat="68.51601666507736" lon="17.017527774341854" id="-21567">
		<tag k="name" v="Stridsvollen" />
		<tag k="natural" v="hill" />
		<tag k="place" v="locality" />
		<tag k="ssr:stedsnr" v="935759" />
	</node>
	<node lat="68.52236944832849" lon="16.96477222366854" id="-21568">
		<tag k="name" v="Hestesletta" />
		<tag k="place" v="locality" />
		<tag k="ssr:stedsnr" v="935769" />
	</node>
	<node lat="68.52382777467224" lon="16.969816667870504" id="-21569">
		<tag k="name" v="Korssteinbakkan" />
		<tag k="natural" v="slope" />
		<tag k="place" v="locality" />
		<tag k="ssr:stedsnr" v="935773" />
	</node>
	<node lat="68.52157777560053" lon="17.147288891937755" id="-21570">
		<tag k="name" v="Stabburshågen" />
		<tag k="natural" v="hill" />
		<tag k="place" v="locality" />
		<tag k="ssr:stedsnr" v="935919" />
	</node>
	<node lat="68.45170000282728" lon="16.581869451583746" id="-21572">
		<tag k="name" v="Langberget" />
		<tag k="natural" v="hill" />
		<tag k="place" v="locality" />
		<tag k="ssr:stedsnr" v="936302" />
	</node>
	<node lat="68.51502778155542" lon="16.80631110529885" id="-21575">
		<tag k="name" v="Slettbakken" />
		<tag k="natural" v="slope" />
		<tag k="place" v="locality" />
		<tag k="ssr:stedsnr" v="938676" />
	</node>
	<node lat="68.49029722574656" lon="17.144791657079406" id="-21578">
		<tag k="fixme" v="consider natural=peak for the most distinct mountains in the district" />
		<tag k="name" v="Kollen" />
		<tag k="natural" v="hill" />
		<tag k="place" v="locality" />
		<tag k="ssr:stedsnr" v="949021" />
	</node>
	<node lat="68.48304166565345" lon="17.136133326897962" id="-21579">
		<tag k="name" v="Slåttmyrhaugen" />
		<tag k="natural" v="hill" />
		<tag k="place" v="locality" />
		<tag k="ssr:stedsnr" v="949118" />
	</node>
	<node lat="68.45986388762921" lon="17.186102776828022" id="-21581">
		<tag k="fixme" v="consider natural=peak for the most distinct mountains in the district" />
		<tag k="name" v="Bukkelvfjellet" />
		<tag k="natural" v="hill" />
		<tag k="place" v="locality" />
		<tag k="ssr:stedsnr" v="949032" />
	</node>
	<node lat="68.54959722252109" lon="16.982263898766096" id="-21585">
		<tag k="name" v="Botnberget" />
		<tag k="natural" v="hill" />
		<tag k="place" v="locality" />
		<tag k="ssr:stedsnr" v="949055" />
	</node>
	<node lat="68.53367777444608" lon="17.006075002753196" id="-21586">
		<tag k="name" v="Langmoen" />
		<tag k="place" v="locality" />
		<tag k="ssr:stedsnr" v="949071" />
	</node>
	<node lat="68.53699167054864" lon="17.01033887871059" id="-21587">
		<tag k="name" v="Rundmoen" />
		<tag k="place" v="locality" />
		<tag k="ssr:stedsnr" v="949072" />
	</node>
	<node lat="68.52588333201415" lon="17.208738878007512" id="-21588">
		<tag k="fixme" v="consider natural=peak for the most distinct mountains in the district" />
		<tag k="name" v="Olderhøgda" />
		<tag k="natural" v="hill" />
		<tag k="place" v="locality" />
		<tag k="ssr:stedsnr" v="949075" />
	</node>
	<node lat="68.47476111121638" lon="16.620283341553918" id="-21591">
		<tag k="name" v="Rømmelen" />
		<tag k="natural" v="slope" />
		<tag k="place" v="locality" />
		<tag k="ssr:stedsnr" v="949467" />
	</node>
</osm>
