<?xml version="1.0" encoding="UTF-8"?>
<osm version="0.6" generator="osmapis">
	<node lat="68.47181666779844" lon="17.107055562289712" id="-21396">
		<tag k="name" v="Langmyren" />
		<tag k="natural" v="wetland" />
		<tag k="ssr:stedsnr" v="25922" />
	</node>
	<node lat="68.47103610915673" lon="17.235238891466125" id="-21402">
		<tag k="name" v="Skogen" />
		<tag k="place" v="locality" />
		<tag k="ssr:stedsnr" v="39070" />
	</node>
	<node lat="68.53073611201334" lon="17.18779721198691" id="-21421">
		<tag k="name" v="Rislømyran" />
		<tag k="natural" v="wetland" />
		<tag k="ssr:stedsnr" v="85984" />
	</node>
	<node lat="68.46913889275635" lon="17.06634167031009" id="-21425">
		<tag k="name" v="Forrakselmyra" />
		<tag k="natural" v="wetland" />
		<tag k="ssr:stedsnr" v="86808" />
	</node>
	<node lat="68.50029166499921" lon="16.695024992809753" id="-21460">
		<tag k="name" v="Nautåteigen" />
		<tag k="place" v="locality" />
		<tag k="ssr:stedsnr" v="145001" />
	</node>
	<node lat="68.50910832901411" lon="17.09536111881487" id="-21468">
		<tag k="name" v="Hundmyra" />
		<tag k="natural" v="wetland" />
		<tag k="ssr:stedsnr" v="146858" />
	</node>
	<node lat="68.50783333558495" lon="16.720899991186872" id="-21486">
		<tag k="name" v="Blautmyrdalen" />
		<tag k="natural" v="wetland" />
		<tag k="ssr:stedsnr" v="267035" />
	</node>
	<node lat="68.54923889263114" lon="17.199311110878725" id="-21496">
		<tag k="name" v="Nilsjordene" />
		<tag k="place" v="locality" />
		<tag k="ssr:stedsnr" v="268495" />
	</node>
	<node lat="68.52300277333441" lon="16.972455556474113" id="-21501">
		<tag k="name" v="Korssteinen" />
		<tag k="natural" v="stone" />
		<tag k="ssr:stedsnr" v="268772" />
	</node>
	<node lat="68.52028184158978" lon="16.760779786951154" id="-21516">
		<tag k="landuse" v="meadow" />
		<tag k="name" v="Njárgagieddi" />
		<tag k="name:se" v="Njárgagieddi" />
		<tag k="ssr:stedsnr" v="220488" />
	</node>
	<node lat="68.53322222544817" lon="16.99969445096082" id="-21518">
		<tag k="name" v="Selebotsteinen" />
		<tag k="natural" v="stone" />
		<tag k="ssr:stedsnr" v="221072" />
	</node>
	<node lat="68.47077222288544" lon="16.611522220908324" id="-21524">
		<tag k="name" v="Geitmyra" />
		<tag k="natural" v="wetland" />
		<tag k="ssr:stedsnr" v="221488" />
	</node>
	<node lat="68.53653055708254" lon="17.154141657220013" id="-21525">
		<tag k="name" v="Kjerksteinen" />
		<tag k="natural" v="stone" />
		<tag k="ssr:stedsnr" v="449836" />
	</node>
	<node lat="68.53523055241273" lon="17.201197220464014" id="-21535">
		<tag k="name" v="Endejorda" />
		<tag k="place" v="locality" />
		<tag k="ssr:stedsnr" v="450500" />
	</node>
	<node lat="68.47500833278141" lon="17.05855276423793" id="-21537">
		<tag k="name" v="Kobbsteinen" />
		<tag k="natural" v="stone" />
		<tag k="ssr:stedsnr" v="450801" />
	</node>
	<node lat="68.50050833678853" lon="16.854961113169676" id="-21562">
		<tag k="name" v="Grønnlimyra" />
		<tag k="natural" v="wetland" />
		<tag k="ssr:stedsnr" v="267011" />
	</node>
	<node lat="68.53708610915454" lon="17.187294434836556" id="-21566">
		<tag k="name" v="Lenvikmark Ø" />
		<tag k="place" v="locality" />
		<tag k="ssr:stedsnr" v="267993" />
	</node>
	<node lat="68.5344983714641" lon="16.845588835972958" id="-21579">
		<tag k="name" v="Mersskarlægdene" />
		<tag k="place" v="locality" />
		<tag k="ssr:stedsnr" v="269281" />
	</node>
	<node lat="68.53989999662008" lon="17.047941654904815" id="-21582">
		<tag k="name" v="Gobbonmyra" />
		<tag k="natural" v="wetland" />
		<tag k="ssr:stedsnr" v="282108" />
	</node>
	<node lat="68.46953611121532" lon="16.62416111611719" id="-21587">
		<tag k="name" v="Stormyra" />
		<tag k="natural" v="wetland" />
		<tag k="ssr:stedsnr" v="282515" />
	</node>
	<node lat="68.4862694422437" lon="16.669724998030333" id="-21588">
		<tag k="name" v="Munnesskogen" />
		<tag k="place" v="locality" />
		<tag k="ssr:stedsnr" v="282527" />
	</node>
	<node lat="68.47567499718427" lon="16.77883333053286" id="-21598">
		<tag k="name" v="Åsmyra" />
		<tag k="natural" v="wetland" />
		<tag k="ssr:stedsnr" v="300608" />
	</node>
	<node lat="68.49482499774469" lon="16.592530561445244" id="-21599">
		<tag k="name" v="Fjellteigan" />
		<tag k="place" v="locality" />
		<tag k="ssr:stedsnr" v="301273" />
	</node>
	<node lat="68.45659444651861" lon="17.040547225959667" id="-21603">
		<tag k="name" v="Nebbsteinmyra" />
		<tag k="natural" v="wetland" />
		<tag k="ssr:stedsnr" v="464048" />
	</node>
	<node lat="68.46169721959973" lon="17.065841673526048" id="-21605">
		<tag k="name" v="Storslåttmyra" />
		<tag k="natural" v="wetland" />
		<tag k="ssr:stedsnr" v="464050" />
	</node>
	<node lat="68.54831666919492" lon="16.99867499202764" id="-21609">
		<tag k="name" v="Moltbærmyran" />
		<tag k="natural" v="wetland" />
		<tag k="ssr:stedsnr" v="464107" />
	</node>
	<node lat="68.5192694436188" lon="17.126911106831304" id="-21636">
		<tag k="name" v="Snubbkollmyra" />
		<tag k="natural" v="wetland" />
		<tag k="ssr:stedsnr" v="328911" />
	</node>
	<node lat="68.5357972218171" lon="17.0150583282974" id="-21641">
		<tag k="name" v="Brattåsmyra" />
		<tag k="natural" v="wetland" />
		<tag k="ssr:stedsnr" v="342061" />
	</node>
	<node lat="68.47026388507577" lon="17.19233609851833" id="-21644">
		<tag k="name" v="Kvanndalsmyran" />
		<tag k="natural" v="wetland" />
		<tag k="ssr:stedsnr" v="342100" />
	</node>
	<node lat="68.52710000426347" lon="16.76099722314987" id="-21656">
		<tag k="name" v="Tjoppeláttu" />
		<tag k="name:se" v="Tjoppeláttu" />
		<tag k="natural" v="wetland" />
		<tag k="ssr:stedsnr" v="482642" />
	</node>
	<node lat="68.52535555521384" lon="17.032505566124684" id="-21661">
		<tag k="name" v="Uran" />
		<tag k="natural" v="scree" />
		<tag k="ssr:stedsnr" v="389749" />
	</node>
	<node lat="68.51936666390931" lon="17.03391111734036" id="-21663">
		<tag k="landuse" v="quarry" />
		<tag k="name" v="Helgevassgruva" />
		<tag k="ssr:stedsnr" v="389752" />
	</node>
	<node lat="68.50289444793516" lon="17.116227773412916" id="-21667">
		<tag k="name" v="Kalvemyra" />
		<tag k="natural" v="wetland" />
		<tag k="ssr:stedsnr" v="389813" />
	</node>
	<node lat="68.5177083348969" lon="17.146119452004633" id="-21669">
		<tag k="name" v="Vedhøggan" />
		<tag k="place" v="locality" />
		<tag k="ssr:stedsnr" v="389898" />
	</node>
	<node lat="68.47299167132725" lon="17.245255543366174" id="-21675">
		<tag k="name" v="Langmyran" />
		<tag k="natural" v="wetland" />
		<tag k="ssr:stedsnr" v="403094" />
	</node>
	<node lat="68.54254444892945" lon="17.19861666491774" id="-21689">
		<tag k="name" v="Atterskogen - Lullevuopmi" />
		<tag k="name:no" v="Atterskogen" />
		<tag k="name:se" v="Lullevuopmi" />
		<tag k="place" v="locality" />
		<tag k="ssr:stedsnr" v="445611" />
	</node>
	<node lat="68.53463333526382" lon="16.845588896436233" id="-21690">
		<tag k="name" v="Gahpervuopmi" />
		<tag k="name:se" v="Gahpervuopmi" />
		<tag k="old_name:no" v="Huveskogen" />
		<tag k="old_name:se" v="Gappervuobmi" />
		<tag k="place" v="locality" />
		<tag k="ssr:stedsnr" v="445580" />
	</node>
	<node lat="68.49258610835697" lon="16.873347207809196" id="-21694">
		<tag k="name" v="Nøkkholmyra" />
		<tag k="natural" v="wetland" />
		<tag k="ssr:stedsnr" v="449005" />
	</node>
	<node lat="68.4711416703395" lon="17.077927788373934" id="-21702">
		<tag k="name" v="Bjørnåsmyra" />
		<tag k="natural" v="wetland" />
		<tag k="ssr:stedsnr" v="450811" />
	</node>
	<node lat="68.52529167025105" lon="17.11588888462782" id="-21705">
		<tag k="name" v="Bufallmyrene" />
		<tag k="natural" v="wetland" />
		<tag k="ssr:stedsnr" v="450879" />
	</node>
	<node lat="68.51434999888038" lon="17.14326666596325" id="-21708">
		<tag k="name" v="Småvasslimyran" />
		<tag k="natural" v="wetland" />
		<tag k="ssr:stedsnr" v="450919" />
	</node>
	<node lat="68.48848333175074" lon="16.610244432784164" id="-21714">
		<tag k="name" v="Langmarkmyran" />
		<tag k="natural" v="wetland" />
		<tag k="ssr:stedsnr" v="464458" />
	</node>
	<node lat="68.48174166879133" lon="16.875866665189054" id="-21718">
		<tag k="landuse" v="meadow" />
		<tag k="name" v="Stuslåtta" />
		<tag k="ssr:stedsnr" v="482623" />
	</node>
	<node lat="68.4625749969728" lon="17.13114720976979" id="-21724">
		<tag k="name" v="Langmarka" />
		<tag k="place" v="locality" />
		<tag k="ssr:stedsnr" v="503475" />
	</node>
	<node lat="68.46496110843873" lon="16.65982499146079" id="-21736">
		<tag k="name" v="Gardsmyra" />
		<tag k="natural" v="wetland" />
		<tag k="ssr:stedsnr" v="510273" />
	</node>
	<node lat="68.47205000207856" lon="16.79965277422764" id="-21757">
		<tag k="name" v="Saudalsmarka" />
		<tag k="place" v="locality" />
		<tag k="ssr:stedsnr" v="543619" />
	</node>
	<node lat="68.49082778209882" lon="16.877402769322313" id="-21775">
		<tag k="name" v="Rypsteinmyra" />
		<tag k="natural" v="wetland" />
		<tag k="ssr:stedsnr" v="570009" />
	</node>
	<node lat="68.50243888926792" lon="16.808444448885844" id="-21778">
		<tag k="name" v="Baklandet" />
		<tag k="place" v="locality" />
		<tag k="ssr:stedsnr" v="570023" />
	</node>
	<node lat="68.49125833512744" lon="16.79441388147784" id="-21779">
		<tag k="name" v="Trongholmyra" />
		<tag k="natural" v="wetland" />
		<tag k="ssr:stedsnr" v="570266" />
	</node>
	<node lat="68.46909444589774" lon="17.07427499738672" id="-21785">
		<tag k="name" v="Momyra" />
		<tag k="natural" v="wetland" />
		<tag k="ssr:stedsnr" v="571797" />
	</node>
	<node lat="68.49952222289214" lon="17.110719438787974" id="-21812">
		<tag k="name" v="Skjettenmyra" />
		<tag k="natural" v="wetland" />
		<tag k="ssr:stedsnr" v="631833" />
	</node>
	<node lat="68.50625278066862" lon="17.10496665645098" id="-21813">
		<tag k="name" v="Tjørnmyra" />
		<tag k="natural" v="wetland" />
		<tag k="ssr:stedsnr" v="631839" />
	</node>
	<node lat="68.48536666661184" lon="17.16256110584986" id="-21827">
		<tag k="name" v="Storuran" />
		<tag k="natural" v="scree" />
		<tag k="ssr:stedsnr" v="645103" />
	</node>
	<node lat="68.48731110703582" lon="16.609183342399312" id="-21831">
		<tag k="alt_name" v="Anfinnvasskogen" />
		<tag k="name" v="Annfinnvasskogen" />
		<tag k="place" v="locality" />
		<tag k="ssr:stedsnr" v="645418" />
	</node>
	<node lat="68.46888055825285" lon="16.640988887325953" id="-21838">
		<tag k="name" v="Glirskogen" />
		<tag k="place" v="locality" />
		<tag k="ssr:stedsnr" v="707536" />
	</node>
	<node lat="68.48249166773164" lon="16.837925007651812" id="-21850">
		<tag k="name" v="Raumyråsmyra" />
		<tag k="natural" v="wetland" />
		<tag k="ssr:stedsnr" v="664592" />
	</node>
	<node lat="68.46120833500692" lon="17.032611115618025" id="-21866">
		<tag k="name" v="Stulihagen" />
		<tag k="place" v="locality" />
		<tag k="ssr:stedsnr" v="692172" />
	</node>
	<node lat="68.49456666573651" lon="16.88377777897848" id="-21869">
		<tag k="name" v="Nøkkemyra" />
		<tag k="natural" v="wetland" />
		<tag k="ssr:stedsnr" v="692187" />
	</node>
	<node lat="68.52353055420303" lon="16.924677784730594" id="-21874">
		<tag k="name" v="Resskvante" />
		<tag k="place" v="locality" />
		<tag k="ssr:stedsnr" v="692785" />
	</node>
	<node lat="68.50322777924828" lon="17.123658324810076" id="-21879">
		<tag k="name" v="Langmyra" />
		<tag k="natural" v="wetland" />
		<tag k="ssr:stedsnr" v="706019" />
	</node>
	<node lat="68.4648583332253" lon="17.128677774206963" id="-21881">
		<tag k="name" v="Kuvassmyra" />
		<tag k="natural" v="wetland" />
		<tag k="ssr:stedsnr" v="706031" />
	</node>
	<node lat="68.53805278148091" lon="16.999163882314498" id="-21882">
		<tag k="name" v="Mikkel Jonsasteinen" />
		<tag k="natural" v="stone" />
		<tag k="ssr:stedsnr" v="707104" />
	</node>
	<node lat="68.52488332922465" lon="16.753477786089423" id="-21883">
		<tag k="name" v="Gárdojeaggi" />
		<tag k="name:se" v="Gárdojeaggi" />
		<tag k="natural" v="wetland" />
		<tag k="ssr:stedsnr" v="725603" />
	</node>
	<node lat="68.45528055673766" lon="17.023427768129956" id="-21892">
		<tag k="name" v="Lillebrenna" />
		<tag k="place" v="locality" />
		<tag k="ssr:stedsnr" v="753173" />
	</node>
	<node lat="68.48550833579355" lon="17.13964166033758" id="-21900">
		<tag k="name" v="Bjørnmyra" />
		<tag k="natural" v="wetland" />
		<tag k="ssr:stedsnr" v="753910" />
	</node>
	<node lat="68.47085555818128" lon="17.2532527726631" id="-21904">
		<tag k="name" v="Grolielvmyra" />
		<tag k="natural" v="wetland" />
		<tag k="ssr:stedsnr" v="767088" />
	</node>
	<node lat="68.47049444232611" lon="17.24610555985329" id="-21905">
		<tag k="name" v="Torvmyran" />
		<tag k="natural" v="wetland" />
		<tag k="ssr:stedsnr" v="767090" />
	</node>
	<node lat="68.49150277783232" lon="16.62087499308723" id="-21907">
		<tag k="alt_name" v="Anfinnvassmyran" />
		<tag k="name" v="Annfinnvassmyran" />
		<tag k="natural" v="wetland" />
		<tag k="ssr:stedsnr" v="767453" />
	</node>
	<node lat="68.47574722294863" lon="16.645030545679617" id="-21908">
		<tag k="name" v="Hallarteigen" />
		<tag k="place" v="locality" />
		<tag k="ssr:stedsnr" v="767514" />
	</node>
	<node lat="68.50366666509223" lon="17.103011117540408" id="-21925">
		<tag k="name" v="Stormyra" />
		<tag k="natural" v="wetland" />
		<tag k="ssr:stedsnr" v="814826" />
	</node>
	<node lat="68.5247777753651" lon="17.08911943575001" id="-21926">
		<tag k="name" v="Kvanntoskarmyra" />
		<tag k="natural" v="wetland" />
		<tag k="ssr:stedsnr" v="814880" />
	</node>
	<node lat="68.52368888682967" lon="17.13958055803544" id="-21928">
		<tag k="name" v="Pålheimen" />
		<tag k="place" v="locality" />
		<tag k="ssr:stedsnr" v="814932" />
	</node>
	<node lat="68.47375833611451" lon="16.690241674012025" id="-21940">
		<tag k="name" v="Kjerkevassmyra" />
		<tag k="natural" v="wetland" />
		<tag k="ssr:stedsnr" v="927429" />
	</node>
	<node lat="68.4582305528476" lon="16.662405558112745" id="-21960">
		<tag k="name" v="Gåsbarken" />
		<tag k="place" v="locality" />
		<tag k="ssr:stedsnr" v="935351" />
	</node>
	<node lat="68.46987777920937" lon="17.24731666510195" id="-21961">
		<tag k="name" v="Forrholtan" />
		<tag k="place" v="locality" />
		<tag k="ssr:stedsnr" v="889112" />
	</node>
	<node lat="68.53023889169242" lon="17.044050002284777" id="-21963">
		<tag k="name" v="Klemsteinan" />
		<tag k="natural" v="stone" />
		<tag k="ssr:stedsnr" v="889120" />
	</node>
	<node lat="68.46381666333053" lon="17.136466661323194" id="-21966">
		<tag k="name" v="Stormyra" />
		<tag k="natural" v="wetland" />
		<tag k="ssr:stedsnr" v="889046" />
	</node>
	<node lat="68.4927388888428" lon="16.641377767837156" id="-21967">
		<tag k="name" v="Høgåsmyra" />
		<tag k="natural" v="wetland" />
		<tag k="ssr:stedsnr" v="889451" />
	</node>
	<node lat="68.47469444400268" lon="16.78566944518898" id="-21969">
		<tag k="name" v="Gressmyra" />
		<tag k="natural" v="wetland" />
		<tag k="ssr:stedsnr" v="907571" />
	</node>
	<node lat="68.46240277980604" lon="17.094988899081585" id="-21979">
		<tag k="name" v="Skavåsmyra" />
		<tag k="natural" v="wetland" />
		<tag k="ssr:stedsnr" v="928466" />
	</node>
	<node lat="68.46646389280797" lon="17.16292500982209" id="-21993">
		<tag k="name" v="Ropparjokkmyra" />
		<tag k="natural" v="wetland" />
		<tag k="ssr:stedsnr" v="949110" />
	</node>
	<node lat="68.51407221857616" lon="16.738638885572673" id="-21998">
		<tag k="name" v="Nermyra" />
		<tag k="natural" v="wetland" />
		<tag k="ssr:stedsnr" v="963898" />
	</node>
	<node lat="68.46054166845202" lon="17.064427786752418" id="-22027">
		<tag k="name" v="Mila" />
		<tag k="natural" v="wetland" />
		<tag k="ssr:stedsnr" v="18973" />
	</node>
	<node lat="68.49600278145095" lon="16.733572227721737" id="-22034">
		<tag k="name" v="Rabben" />
		<tag k="place" v="locality" />
		<tag k="ssr:stedsnr" v="25354" />
	</node>
	<node lat="68.45959444568113" lon="16.690447217691677" id="-22037">
		<tag k="name" v="Storlunnan" />
		<tag k="place" v="locality" />
		<tag k="ssr:stedsnr" v="25363" />
	</node>
	<node lat="68.51078611564587" lon="17.03221943609972" id="-22041">
		<tag k="name" v="Hammarmyran" />
		<tag k="natural" v="wetland" />
		<tag k="ssr:stedsnr" v="25760" />
	</node>
	<node lat="68.51812777720205" lon="17.01389721715977" id="-22043">
		<tag k="name" v="Loftan" />
		<tag k="place" v="locality" />
		<tag k="ssr:stedsnr" v="25795" />
	</node>
	<node lat="68.51997499717396" lon="16.89306666078773" id="-22044">
		<tag k="name" v="Gamskogen" />
		<tag k="place" v="locality" />
		<tag k="ssr:stedsnr" v="25799" />
	</node>
	<node lat="68.52518889032191" lon="17.117624998801556" id="-22047">
		<tag k="name" v="Stor Kvantomyra" />
		<tag k="natural" v="wetland" />
		<tag k="ssr:stedsnr" v="25916" />
	</node>
	<node lat="68.46530555748677" lon="17.07134722052729" id="-22056">
		<tag k="name" v="Akselslåtta" />
		<tag k="place" v="locality" />
		<tag k="ssr:stedsnr" v="39037" />
	</node>
	<node lat="68.54084722207898" lon="16.79556666221386" id="-22062">
		<tag k="name" v="Nippeskogen" />
		<tag k="place" v="locality" />
		<tag k="ssr:stedsnr" v="54857" />
	</node>
	<node lat="68.51039534744608" lon="16.70103196148672" id="-22063">
		<tag k="name" v="Guhkesjeaggi" />
		<tag k="name:se" v="Guhkesjeaggi" />
		<tag k="natural" v="wetland" />
		<tag k="ssr:stedsnr" v="55392" />
	</node>
	<node lat="68.52540833483236" lon="16.884430552038026" id="-22090">
		<tag k="name" v="Klubbfjellmyran" />
		<tag k="natural" v="wetland" />
		<tag k="ssr:stedsnr" v="86791" />
	</node>
	<node lat="68.51253333394715" lon="16.741727775451494" id="-22102">
		<tag k="landuse" v="meadow" />
		<tag k="name" v="Ekkeråkeren" />
		<tag k="ssr:stedsnr" v="118605" />
	</node>
	<node lat="68.4768972256444" lon="16.734924996749427" id="-22104">
		<tag k="name" v="Palmemyra" />
		<tag k="natural" v="wetland" />
		<tag k="ssr:stedsnr" v="118567" />
	</node>
	<node lat="68.50806666301098" lon="17.07290833437895" id="-22125">
		<tag k="name" v="Vedmyra" />
		<tag k="natural" v="wetland" />
		<tag k="ssr:stedsnr" v="146856" />
	</node>
	<node lat="68.47078888718589" lon="17.24024722733871" id="-22130">
		<tag k="name" v="Rundmyra" />
		<tag k="natural" v="wetland" />
		<tag k="ssr:stedsnr" v="160071" />
	</node>
	<node lat="68.5390000038027" lon="17.02449722166033" id="-22140">
		<tag k="name" v="Nilsslåtta" />
		<tag k="place" v="locality" />
		<tag k="ssr:stedsnr" v="160032" />
	</node>
	<node lat="68.48538611237215" lon="16.7217444368637" id="-22144">
		<tag k="name" v="Øvre Forrmyr" />
		<tag k="natural" v="wetland" />
		<tag k="ssr:stedsnr" v="160473" />
	</node>
	<node lat="68.47556111242932" lon="16.817913880645886" id="-22148">
		<tag k="name" v="Olistakkmyra" />
		<tag k="natural" v="wetland" />
		<tag k="ssr:stedsnr" v="179629" />
	</node>
	<node lat="68.49210833840142" lon="16.95418887716658" id="-22162">
		<tag k="name" v="Kolmyra" />
		<tag k="natural" v="wetland" />
		<tag k="ssr:stedsnr" v="207215" />
	</node>
	<node lat="68.53136111224586" lon="17.179877771905126" id="-22164">
		<tag k="name" v="Risløa" />
		<tag k="place" v="locality" />
		<tag k="ssr:stedsnr" v="207994" />
	</node>
	<node lat="68.4903361088136" lon="16.907449994060283" id="-22168">
		<tag k="name" v="Tjeldslåtten" />
		<tag k="place" v="locality" />
		<tag k="ssr:stedsnr" v="207227" />
	</node>
	<node lat="68.50411944491974" lon="17.084536118081104" id="-22180">
		<tag k="name" v="Bandstaksteinen" />
		<tag k="natural" v="stone" />
		<tag k="ssr:stedsnr" v="207856" />
	</node>
	<node lat="68.52691944130574" lon="17.13655832408716" id="-22185">
		<tag k="name" v="Larsselja" />
		<tag k="place" v="locality" />
		<tag k="ssr:stedsnr" v="207915" />
	</node>
	<node lat="68.46523888600636" lon="17.153624996294653" id="-22188">
		<tag k="name" v="Tverrmyra" />
		<tag k="natural" v="wetland" />
		<tag k="ssr:stedsnr" v="221030" />
	</node>
	<node lat="68.46400555359291" lon="17.082902782519916" id="-22190">
		<tag k="name" v="Hundkjellmyra" />
		<tag k="natural" v="wetland" />
		<tag k="ssr:stedsnr" v="221038" />
	</node>
	<node lat="68.4605388852974" lon="16.755913877709514" id="-22210">
		<tag k="name" v="Liaøra" />
		<tag k="place" v="locality" />
		<tag k="ssr:stedsnr" v="300555" />
	</node>
	<node lat="68.4812277812085" lon="16.791561104494722" id="-22211">
		<tag k="name" v="Dalmarka" />
		<tag k="place" v="locality" />
		<tag k="ssr:stedsnr" v="300610" />
	</node>
	<node lat="68.48165277855469" lon="16.77331666143153" id="-22212">
		<tag k="name" v="Kollmyran" />
		<tag k="natural" v="wetland" />
		<tag k="ssr:stedsnr" v="300611" />
	</node>
	<node lat="68.49186111442239" lon="16.744033326476416" id="-22240">
		<tag k="name" v="Lisbetmyra" />
		<tag k="natural" v="wetland" />
		<tag k="ssr:stedsnr" v="328317" />
	</node>
	<node lat="68.45598611110714" lon="17.11490278303761" id="-22246">
		<tag k="name" v="Hopteigen" />
		<tag k="place" v="locality" />
		<tag k="ssr:stedsnr" v="328741" />
	</node>
	<node lat="68.53944444081284" lon="17.055102771600463" id="-22258">
		<tag k="name" v="Tredmyra" />
		<tag k="natural" v="wetland" />
		<tag k="ssr:stedsnr" v="342090" />
	</node>
	<node lat="68.47573889107643" lon="16.62570556192697" id="-22260">
		<tag k="name" v="Mellommarka" />
		<tag k="place" v="locality" />
		<tag k="ssr:stedsnr" v="342458" />
	</node>
	<node lat="68.46623888684272" lon="16.6238499997351" id="-22261">
		<tag k="name" v="Litjeteigen" />
		<tag k="place" v="locality" />
		<tag k="ssr:stedsnr" v="342467" />
	</node>
	<node lat="68.47442222683492" lon="16.77678054859496" id="-22264">
		<tag k="name" v="Forsmyra" />
		<tag k="natural" v="wetland" />
		<tag k="ssr:stedsnr" v="361640" />
	</node>
	<node lat="68.5097083309429" lon="16.775080564570366" id="-22269">
		<tag k="name" v="Láttogieddi" />
		<tag k="name:se" v="Láttogieddi" />
		<tag k="natural" v="wetland" />
		<tag k="ssr:stedsnr" v="361679" />
	</node>
	<node lat="68.48951944243241" lon="16.86824167612046" id="-22286">
		<tag k="name" v="Storlimyra" />
		<tag k="natural" v="wetland" />
		<tag k="ssr:stedsnr" v="388017" />
	</node>
	<node lat="68.49081944558584" lon="16.899363886360362" id="-22290">
		<tag k="name" v="Gammelhesjen" />
		<tag k="place" v="locality" />
		<tag k="ssr:stedsnr" v="389230" />
	</node>
	<node lat="68.45957499659512" lon="17.08786667141674" id="-22303">
		<tag k="name" v="Stormyra" />
		<tag k="natural" v="wetland" />
		<tag k="ssr:stedsnr" v="403039" />
	</node>
	<node lat="68.47113333515435" lon="16.69496111791258" id="-22311">
		<tag k="name" v="Evenesmyran" />
		<tag k="natural" v="wetland" />
		<tag k="ssr:stedsnr" v="422559" />
	</node>
	<node lat="68.47440833415072" lon="16.75168888716971" id="-22313">
		<tag k="name" v="Likkiststeinen" />
		<tag k="natural" v="stone" />
		<tag k="ssr:stedsnr" v="422618" />
	</node>
	<node lat="68.52299444371675" lon="16.755658343797677" id="-22319">
		<tag k="name" v="Geassejeaggi" />
		<tag k="name:se" v="Geassejeaggi" />
		<tag k="natural" v="wetland" />
		<tag k="ssr:stedsnr" v="422662" />
	</node>
	<node lat="68.52844722324373" lon="17.03281943945871" id="-22353">
		<tag k="name" v="Røyråkeren" />
		<tag k="place" v="locality" />
		<tag k="ssr:stedsnr" v="510775" />
	</node>
	<node lat="68.46645555586532" lon="17.04062498935027" id="-22356">
		<tag k="name" v="Røvegmyra" />
		<tag k="natural" v="wetland" />
		<tag k="ssr:stedsnr" v="510863" />
	</node>
	<node lat="68.53116666960108" lon="17.12688888538925" id="-22360">
		<tag k="name" v="Skogrøren" />
		<tag k="place" v="locality" />
		<tag k="ssr:stedsnr" v="510899" />
	</node>
	<node lat="68.46483333126989" lon="17.05284165915706" id="-22367">
		<tag k="name" v="Tømmervegmyra" />
		<tag k="natural" v="wetland" />
		<tag k="ssr:stedsnr" v="524039" />
	</node>
	<node lat="68.53206667053492" lon="17.0138305669963" id="-22372">
		<tag k="name" v="Fløymyra" />
		<tag k="natural" v="wetland" />
		<tag k="ssr:stedsnr" v="525089" />
	</node>
	<node lat="68.54298611388354" lon="17.22254445575145" id="-22396">
		<tag k="name" v="Grunnvassmyran - Doggejávrejeakkik" />
		<tag k="name:no" v="Grunnvassmyran" />
		<tag k="name:se" v="Doggejávrejeakkik" />
		<tag k="natural" v="wetland" />
		<tag k="ssr:stedsnr" v="566594" />
	</node>
	<node lat="68.50225278043155" lon="16.767186106215696" id="-22402">
		<tag k="name" v="Korsegerra" />
		<tag k="name:se" v="Korsegerra" />
		<tag k="place" v="locality" />
		<tag k="ssr:stedsnr" v="570278" />
	</node>
	<node lat="68.5040972204878" lon="16.753636111195775" id="-22405">
		<tag k="name" v="Henrikplassen - Heanddabáiki" />
		<tag k="name:no" v="Henrikplassen" />
		<tag k="name:se" v="Heanddabáiki" />
		<tag k="place" v="locality" />
		<tag k="ssr:stedsnr" v="570283" />
	</node>
	<node lat="68.46366666372269" lon="16.59434722850814" id="-22418">
		<tag k="landuse" v="meadow" />
		<tag k="name" v="Småenga" />
		<tag k="ssr:stedsnr" v="571308" />
	</node>
	<node lat="68.51463055822684" lon="17.108616664095813" id="-22424">
		<tag k="name" v="Langmyra" />
		<tag k="natural" v="wetland" />
		<tag k="ssr:stedsnr" v="571863" />
	</node>
	<node lat="68.51309722501425" lon="17.089283331676715" id="-22425">
		<tag k="name" v="Glefjellmyra" />
		<tag k="natural" v="wetland" />
		<tag k="ssr:stedsnr" v="571873" />
	</node>
	<node lat="68.52047499929604" lon="17.10324443552349" id="-22426">
		<tag k="name" v="Lappegam" />
		<tag k="place" v="locality" />
		<tag k="ssr:stedsnr" v="571875" />
	</node>
	<node lat="68.46797221960644" lon="17.140572223171766" id="-22439">
		<tag k="name" v="Kaggmyra" />
		<tag k="natural" v="wetland" />
		<tag k="ssr:stedsnr" v="585120" />
	</node>
	<node lat="68.46765833448801" lon="16.64031388975091" id="-22442">
		<tag k="name" v="Langmyra" />
		<tag k="natural" v="wetland" />
		<tag k="ssr:stedsnr" v="585495" />
	</node>
	<node lat="68.5154972194225" lon="16.742727772621187" id="-22446">
		<tag k="landuse" v="meadow" />
		<tag k="name" v="Boalajoarkka" />
		<tag k="name:se" v="Boalajoarkka" />
		<tag k="ssr:stedsnr" v="586465" />
	</node>
	<node lat="68.50183889190421" lon="16.822941669336178" id="-22459">
		<tag k="name" v="Osmarka" />
		<tag k="place" v="locality" />
		<tag k="ssr:stedsnr" v="626628" />
	</node>
	<node lat="68.4876722244312" lon="16.90251387822341" id="-22466">
		<tag k="name" v="Banmyra" />
		<tag k="natural" v="wetland" />
		<tag k="ssr:stedsnr" v="631208" />
	</node>
	<node lat="68.49779166349181" lon="16.76022223114611" id="-22467">
		<tag k="name" v="Toften" />
		<tag k="place" v="locality" />
		<tag k="ssr:stedsnr" v="631308" />
	</node>
	<node lat="68.46083333342538" lon="16.650716666736287" id="-22468">
		<tag k="name" v="Tingbenkan" />
		<tag k="place" v="locality" />
		<tag k="ssr:stedsnr" v="631256" />
	</node>
	<node lat="68.46348333070826" lon="16.608672221225408" id="-22478">
		<tag k="landuse" v="quarry" />
		<tag k="name" v="Koppargruva" />
		<tag k="ssr:stedsnr" v="632354" />
	</node>
	<node lat="68.47416666371728" lon="16.740261117449084" id="-22490">
		<tag k="name" v="Rundsteinen" />
		<tag k="natural" v="stone" />
		<tag k="ssr:stedsnr" v="664580" />
	</node>
	<node lat="68.48150278115487" lon="16.611800002187728" id="-22500">
		<tag k="name" v="Langmarka" />
		<tag k="place" v="locality" />
		<tag k="ssr:stedsnr" v="745433" />
	</node>
	<node lat="68.46187500392867" lon="16.75746110303303" id="-22502">
		<tag k="name" v="Liurda" />
		<tag k="natural" v="scree" />
		<tag k="ssr:stedsnr" v="745454" />
	</node>
	<node lat="68.53148610917425" lon="17.204841654199335" id="-22514">
		<tag k="name" v="Røytelvmyran" />
		<tag k="natural" v="wetland" />
		<tag k="ssr:stedsnr" v="753425" />
	</node>
	<node lat="68.52219166602845" lon="17.02032777120615" id="-22518">
		<tag k="name" v="Vedhøggen" />
		<tag k="place" v="locality" />
		<tag k="ssr:stedsnr" v="753738" />
	</node>
	<node lat="68.52375555851951" lon="17.01512499872923" id="-22519">
		<tag k="name" v="Åsmyra" />
		<tag k="natural" v="wetland" />
		<tag k="ssr:stedsnr" v="753740" />
	</node>
	<node lat="68.4708972232568" lon="17.07985556574105" id="-22523">
		<tag k="name" v="Ingertofta" />
		<tag k="place" v="locality" />
		<tag k="ssr:stedsnr" v="753796" />
	</node>
	<node lat="68.49481666812426" lon="17.096086118845523" id="-22526">
		<tag k="name" v="Geitsteinen" />
		<tag k="natural" v="stone" />
		<tag k="ssr:stedsnr" v="753825" />
	</node>
	<node lat="68.54038610703898" lon="16.864791663151433" id="-22532">
		<tag k="name" v="Klubbfjellmyran" />
		<tag k="natural" v="wetland" />
		<tag k="ssr:stedsnr" v="755280" />
	</node>
	<node lat="68.45727222170595" lon="17.140952781481708" id="-22533">
		<tag k="alt_name:no" v="Sølvstein" />
		<tag k="name" v="Sølvsteinen - Silbageargi" />
		<tag k="name:no" v="Sølvsteinen" />
		<tag k="name:se" v="Silbageargi" />
		<tag k="natural" v="stone" />
		<tag k="ssr:stedsnr" v="758093" />
	</node>
	<node lat="68.46114444676475" lon="17.150941673716893" id="-22537">
		<tag k="name" v="Baukakorrmyra" />
		<tag k="natural" v="wetland" />
		<tag k="ssr:stedsnr" v="767031" />
	</node>
	<node lat="68.53095555658655" lon="17.00697221695312" id="-22540">
		<tag k="name" v="Hesjebakkmyra" />
		<tag k="natural" v="wetland" />
		<tag k="ssr:stedsnr" v="767076" />
	</node>
	<node lat="68.47091666520959" lon="17.27148332280313" id="-22542">
		<tag k="name" v="Slåttgjerdan" />
		<tag k="place" v="locality" />
		<tag k="ssr:stedsnr" v="767079" />
	</node>
	<node lat="68.48289721867887" lon="16.721113896112907" id="-22547">
		<tag k="name" v="Nedre Forrmyr" />
		<tag k="natural" v="wetland" />
		<tag k="ssr:stedsnr" v="767536" />
	</node>
	<node lat="68.47814444738547" lon="16.661183327957943" id="-22554">
		<tag k="name" v="Laksmyra" />
		<tag k="natural" v="wetland" />
		<tag k="ssr:stedsnr" v="805444" />
	</node>
	<node lat="68.54601388780969" lon="17.18780555454453" id="-22570">
		<tag k="name" v="Nilsjorden" />
		<tag k="place" v="locality" />
		<tag k="ssr:stedsnr" v="814000" />
	</node>
	<node lat="68.5120361122506" lon="17.201949986769186" id="-22584">
		<tag k="name" v="Bjørkåsskogen" />
		<tag k="place" v="locality" />
		<tag k="ssr:stedsnr" v="828055" />
	</node>
	<node lat="68.54322777606012" lon="17.061158329762314" id="-22586">
		<tag k="name" v="Bjørnura" />
		<tag k="natural" v="scree" />
		<tag k="ssr:stedsnr" v="828104" />
	</node>
	<node lat="68.48039444639711" lon="16.623986121915568" id="-22587">
		<tag k="name" v="Langmarkmyra" />
		<tag k="natural" v="wetland" />
		<tag k="ssr:stedsnr" v="828493" />
	</node>
	<node lat="68.47489999709373" lon="16.79670276476179" id="-22592">
		<tag k="name" v="Langmyra" />
		<tag k="natural" v="wetland" />
		<tag k="ssr:stedsnr" v="847616" />
	</node>
	<node lat="68.4797749985891" lon="16.690975004295506" id="-22598">
		<tag k="name" v="Blåakselmyra" />
		<tag k="natural" v="wetland" />
		<tag k="ssr:stedsnr" v="866407" />
	</node>
	<node lat="68.48220000128507" lon="17.30105556088392" id="-22608">
		<tag k="name" v="Skavsteinan" />
		<tag k="natural" v="stone" />
		<tag k="ssr:stedsnr" v="871637" />
	</node>
	<node lat="68.49670277686079" lon="16.671280564850864" id="-22611">
		<tag k="name" v="Ligamyren" />
		<tag k="natural" v="wetland" />
		<tag k="ssr:stedsnr" v="874005" />
	</node>
	<node lat="68.49977222588839" lon="16.82541666783501" id="-22613">
		<tag k="name" v="Kjempetoften" />
		<tag k="natural" v="wetland" />
		<tag k="ssr:stedsnr" v="874030" />
	</node>
	<node lat="68.4876472262991" lon="16.884633327805123" id="-22616">
		<tag k="name" v="Bjørnlimyra" />
		<tag k="natural" v="wetland" />
		<tag k="ssr:stedsnr" v="874224" />
	</node>
	<node lat="68.4663166663102" lon="17.046138894333648" id="-22619">
		<tag k="name" v="Øverlandet" />
		<tag k="place" v="locality" />
		<tag k="ssr:stedsnr" v="874833" />
	</node>
	<node lat="68.47491944247007" lon="17.106572224237766" id="-22629">
		<tag k="name" v="Brumyra" />
		<tag k="natural" v="wetland" />
		<tag k="ssr:stedsnr" v="875920" />
	</node>
	<node lat="68.46561944321972" lon="17.10831112011869" id="-22646">
		<tag k="name" v="Beinvassmyra" />
		<tag k="natural" v="wetland" />
		<tag k="ssr:stedsnr" v="935932" />
	</node>
	<node lat="68.51687500224332" lon="17.084255565723574" id="-22648">
		<tag k="name" v="Momyra" />
		<tag k="natural" v="wetland" />
		<tag k="ssr:stedsnr" v="936861" />
	</node>
	<node lat="68.4614138872748" lon="17.061858319634794" id="-22658">
		<tag k="name" v="Lilleslåttmyra" />
		<tag k="natural" v="wetland" />
		<tag k="ssr:stedsnr" v="949046" />
	</node>
	<node lat="68.54953055900401" lon="16.992602775495673" id="-22659">
		<tag k="name" v="Åtslettsteinen" />
		<tag k="natural" v="stone" />
		<tag k="ssr:stedsnr" v="949053" />
	</node>
	<node lat="68.47478055257305" lon="16.810349999852345" id="-22669">
		<tag k="name" v="Snaufjellskogen" />
		<tag k="place" v="locality" />
		<tag k="ssr:stedsnr" v="968680" />
	</node>
</osm>
