<?xml version="1.0" encoding="UTF-8"?>
<osm version="0.6" generator="osmapis">
	<node lat="67.93466944853225" lon="13.091075003191717" id="-22746">
		<tag k="name" v="Moskenes kommune" />
		<tag k="ssr:date" v="2016-05-10" />
		<tag k="ssr:gruppe" v="administrativeIndelinger" />
		<tag k="ssr:hovedgruppe" v="offentligAdministrasjon" />
		<tag k="ssr:stedsnr" v="85675" />
		<tag k="ssr:type" v="kommune" />
	</node>
	<node lat="67.93608851877376" lon="13.111198369053655" id="-22781">
		<tag k="name" v="Olnilsøy" />
		<tag k="old_name" v="Olnilsøya" />
		<tag k="ssr:date" v="2020-09-15" />
		<tag k="ssr:gruppe" v="navigasjon" />
		<tag k="ssr:hovedgruppe" v="infrastruktur" />
		<tag k="ssr:stedsnr" v="199485" />
		<tag k="ssr:type" v="fyrlykt" />
	</node>
	<node lat="67.8323138230254" lon="12.801990907277135" id="-23006">
		<tag k="name" v="Helle" />
		<tag k="ssr:date" v="2020-09-15" />
		<tag k="ssr:gruppe" v="navigasjon" />
		<tag k="ssr:hovedgruppe" v="infrastruktur" />
		<tag k="ssr:stedsnr" v="17098" />
		<tag k="ssr:type" v="fyrlykt" />
	</node>
	<node lat="68.04533611083491" lon="13.382350011489187" id="-23014">
		<tag k="loc_name:se" v="Lufuohttá" />
		<tag k="loc_name:smj" v="Lufoahtta" />
		<tag k="name" v="Lofoten" />
		<tag k="name:no" v="Lofoten" />
		<tag k="ssr:date" v="2021-09-22" />
		<tag k="ssr:gruppe" v="terrengområder" />
		<tag k="ssr:hovedgruppe" v="terreng" />
		<tag k="ssr:stedsnr" v="26064" />
		<tag k="ssr:type" v="landskapsområde" />
	</node>
	<node lat="67.94489722425067" lon="13.126941660458924" id="-23059">
		<tag k="name" v="Havnøy" />
		<tag k="ssr:date" v="2016-05-10" />
		<tag k="ssr:gruppe" v="navigasjon" />
		<tag k="ssr:hovedgruppe" v="infrastruktur" />
		<tag k="ssr:stedsnr" v="168537" />
		<tag k="ssr:type" v="fyrlykt" />
	</node>
	<node lat="67.84233874200034" lon="12.77914229721817" id="-23079">
		<tag k="name" v="Nordholmen" />
		<tag k="ssr:date" v="2020-09-15" />
		<tag k="ssr:gruppe" v="navigasjon" />
		<tag k="ssr:hovedgruppe" v="infrastruktur" />
		<tag k="ssr:stedsnr" v="259428" />
		<tag k="ssr:type" v="fyrlykt" />
	</node>
	<node lat="67.88741775194731" lon="13.036240770264328" id="-23104">
		<tag k="name" v="Glåpen" />
		<tag k="old_name" v="Gloppen Fyr;Glåpen fyr" />
		<tag k="ssr:date" v="2020-09-01" />
		<tag k="ssr:gruppe" v="navigasjon" />
		<tag k="ssr:hovedgruppe" v="infrastruktur" />
		<tag k="ssr:stedsnr" v="319397" />
		<tag k="ssr:type" v="fyrstasjon" />
	</node>
	<node lat="67.89747078131299" lon="13.037672099599948" id="-23158">
		<tag k="name" v="Moskenes" />
		<tag k="ssr:date" v="2020-09-15" />
		<tag k="ssr:gruppe" v="navigasjon" />
		<tag k="ssr:hovedgruppe" v="infrastruktur" />
		<tag k="ssr:stedsnr" v="381416" />
		<tag k="ssr:type" v="fyrlykt" />
	</node>
	<node lat="67.9364277766015" lon="13.102227768093568" id="-23166">
		<tag k="alt_name" v="Fiskarskjæret" />
		<tag k="name" v="Fiskarskjeret" />
		<tag k="ssr:date" v="2016-05-10" />
		<tag k="ssr:gruppe" v="navigasjon" />
		<tag k="ssr:hovedgruppe" v="infrastruktur" />
		<tag k="ssr:stedsnr" v="421787" />
		<tag k="ssr:type" v="fyrlykt" />
	</node>
	<node lat="67.88303055186198" lon="12.986077773379897" id="-23173">
		<tag k="name" v="Å" />
		<tag k="ssr:date" v="2016-05-10" />
		<tag k="ssr:gruppe" v="navigasjon" />
		<tag k="ssr:hovedgruppe" v="infrastruktur" />
		<tag k="ssr:stedsnr" v="501384" />
		<tag k="ssr:type" v="fyrlykt" />
	</node>
	<node lat="67.2804027758844" lon="14.376388898255625" id="-23182">
		<tag k="alt_name:no" v="Nordland" />
		<tag k="loc_name:se" v="Nordlándda fylka" />
		<tag k="loc_name:sma" v="Nordlaanten fylhke" />
		<tag k="name" v="Nordland fylke - Nordlánda fylkka" />
		<tag k="name:no" v="Nordland fylke" />
		<tag k="name:smj" v="Nordlánda fylkka" />
		<tag k="ssr:date" v="2021-02-03" />
		<tag k="ssr:gruppe" v="administrativeIndelinger" />
		<tag k="ssr:hovedgruppe" v="offentligAdministrasjon" />
		<tag k="ssr:stedsnr" v="511766" />
		<tag k="ssr:type" v="fylke" />
	</node>
	<node lat="67.82875433546363" lon="12.87148809038326" id="-23325">
		<tag k="name" v="Yttertuven" />
		<tag k="old_name" v="Ytretuven" />
		<tag k="ssr:date" v="2020-09-17" />
		<tag k="ssr:gruppe" v="navigasjon" />
		<tag k="ssr:hovedgruppe" v="infrastruktur" />
		<tag k="ssr:stedsnr" v="927084" />
		<tag k="ssr:type" v="fyrlykt" />
	</node>
	<node lat="67.88177768818773" lon="12.979727528526874" id="-23351">
		<tag k="name" v="Musdalen" />
		<tag k="ssr:date" v="2019-05-30" />
		<tag k="ssr:gruppe" v="veg" />
		<tag k="ssr:hovedgruppe" v="infrastruktur" />
		<tag k="ssr:stedsnr" v="1036823" />
		<tag k="ssr:type" v="adressenavn" />
	</node>
	<node lat="67.96031040557655" lon="13.049466142648987" id="-23352">
		<tag k="name" v="Rostad" />
		<tag k="ssr:date" v="2019-05-30" />
		<tag k="ssr:gruppe" v="veg" />
		<tag k="ssr:hovedgruppe" v="infrastruktur" />
		<tag k="ssr:stedsnr" v="1036824" />
		<tag k="ssr:type" v="adressenavn" />
	</node>
	<node lat="67.87870395836903" lon="12.980794387423966" id="-23353">
		<tag k="name" v="Langhaugan" />
		<tag k="ssr:date" v="2019-05-30" />
		<tag k="ssr:gruppe" v="veg" />
		<tag k="ssr:hovedgruppe" v="infrastruktur" />
		<tag k="ssr:stedsnr" v="1036825" />
		<tag k="ssr:type" v="adressenavn" />
	</node>
	<node lat="67.88942984065825" lon="13.012886384278227" id="-23354">
		<tag k="name" v="Storhaugen" />
		<tag k="ssr:date" v="2019-05-30" />
		<tag k="ssr:gruppe" v="veg" />
		<tag k="ssr:hovedgruppe" v="infrastruktur" />
		<tag k="ssr:stedsnr" v="1036826" />
		<tag k="ssr:type" v="adressenavn" />
	</node>
	<node lat="67.88799444015345" lon="13.012558247151983" id="-23355">
		<tag k="name" v="Flathaugen" />
		<tag k="ssr:date" v="2019-05-30" />
		<tag k="ssr:gruppe" v="veg" />
		<tag k="ssr:hovedgruppe" v="infrastruktur" />
		<tag k="ssr:stedsnr" v="1036827" />
		<tag k="ssr:type" v="adressenavn" />
	</node>
	<node lat="67.87944565062328" lon="12.984678841498518" id="-23356">
		<tag k="name" v="Å-veien" />
		<tag k="ssr:date" v="2019-05-30" />
		<tag k="ssr:gruppe" v="veg" />
		<tag k="ssr:hovedgruppe" v="infrastruktur" />
		<tag k="ssr:stedsnr" v="1036828" />
		<tag k="ssr:type" v="adressenavn" />
	</node>
	<node lat="67.94833464945843" lon="13.137025641393821" id="-23357">
		<tag k="name" v="Skagen" />
		<tag k="ssr:date" v="2019-05-30" />
		<tag k="ssr:gruppe" v="veg" />
		<tag k="ssr:hovedgruppe" v="infrastruktur" />
		<tag k="ssr:stedsnr" v="1036803" />
		<tag k="ssr:type" v="adressenavn" />
	</node>
	<node lat="67.88063812928173" lon="12.97856041755186" id="-23358">
		<tag k="name" v="Moskenesveien" />
		<tag k="ssr:date" v="2019-05-30" />
		<tag k="ssr:gruppe" v="veg" />
		<tag k="ssr:hovedgruppe" v="infrastruktur" />
		<tag k="ssr:stedsnr" v="1036804" />
		<tag k="ssr:type" v="adressenavn" />
	</node>
	<node lat="67.93403810307512" lon="13.089648923941274" id="-23359">
		<tag k="name" v="Sverdrups vei" />
		<tag k="ssr:date" v="2019-05-30" />
		<tag k="ssr:gruppe" v="veg" />
		<tag k="ssr:hovedgruppe" v="infrastruktur" />
		<tag k="ssr:stedsnr" v="1036805" />
		<tag k="ssr:type" v="adressenavn" />
	</node>
	<node lat="67.9328451534732" lon="13.087828776089422" id="-23360">
		<tag k="name" v="Kirkeveien" />
		<tag k="ssr:date" v="2019-05-30" />
		<tag k="ssr:gruppe" v="veg" />
		<tag k="ssr:hovedgruppe" v="infrastruktur" />
		<tag k="ssr:stedsnr" v="1036806" />
		<tag k="ssr:type" v="adressenavn" />
	</node>
	<node lat="67.90285656451823" lon="13.047915547104123" id="-23361">
		<tag k="name" v="Kirkhaugveien" />
		<tag k="ssr:date" v="2019-05-30" />
		<tag k="ssr:gruppe" v="veg" />
		<tag k="ssr:hovedgruppe" v="infrastruktur" />
		<tag k="ssr:stedsnr" v="1036807" />
		<tag k="ssr:type" v="adressenavn" />
	</node>
	<node lat="67.93473736285883" lon="13.089285743201614" id="-23362">
		<tag k="name" v="Reine ytre havn" />
		<tag k="ssr:date" v="2019-05-30" />
		<tag k="ssr:gruppe" v="veg" />
		<tag k="ssr:hovedgruppe" v="infrastruktur" />
		<tag k="ssr:stedsnr" v="1036808" />
		<tag k="ssr:type" v="adressenavn" />
	</node>
	<node lat="67.92838427787935" lon="13.090208758847316" id="-23363">
		<tag k="name" v="Munkhauan" />
		<tag k="ssr:date" v="2019-05-30" />
		<tag k="ssr:gruppe" v="veg" />
		<tag k="ssr:hovedgruppe" v="infrastruktur" />
		<tag k="ssr:stedsnr" v="1036809" />
		<tag k="ssr:type" v="adressenavn" />
	</node>
	<node lat="67.9281693296065" lon="13.083400173232514" id="-23364">
		<tag k="name" v="Reineveien" />
		<tag k="ssr:date" v="2019-05-30" />
		<tag k="ssr:gruppe" v="veg" />
		<tag k="ssr:hovedgruppe" v="infrastruktur" />
		<tag k="ssr:stedsnr" v="1036810" />
		<tag k="ssr:type" v="adressenavn" />
	</node>
	<node lat="67.93165622002574" lon="13.08853694156397" id="-23365">
		<tag k="name" v="Idrettsveien" />
		<tag k="ssr:date" v="2019-05-30" />
		<tag k="ssr:gruppe" v="veg" />
		<tag k="ssr:hovedgruppe" v="infrastruktur" />
		<tag k="ssr:stedsnr" v="1036812" />
		<tag k="ssr:type" v="adressenavn" />
	</node>
	<node lat="67.93076415536524" lon="13.08898727413147" id="-23366">
		<tag k="name" v="Gravdalsbukta" />
		<tag k="ssr:date" v="2019-05-30" />
		<tag k="ssr:gruppe" v="veg" />
		<tag k="ssr:hovedgruppe" v="infrastruktur" />
		<tag k="ssr:stedsnr" v="1036813" />
		<tag k="ssr:type" v="adressenavn" />
	</node>
	<node lat="67.93890264578324" lon="13.083076142048478" id="-23367">
		<tag k="name" v="Valen" />
		<tag k="ssr:date" v="2019-05-30" />
		<tag k="ssr:gruppe" v="veg" />
		<tag k="ssr:hovedgruppe" v="infrastruktur" />
		<tag k="ssr:stedsnr" v="1036814" />
		<tag k="ssr:type" v="adressenavn" />
	</node>
	<node lat="67.93840440449034" lon="13.073400525927477" id="-23368">
		<tag k="name" v="Bollhaugveien" />
		<tag k="ssr:date" v="2019-05-30" />
		<tag k="ssr:gruppe" v="veg" />
		<tag k="ssr:hovedgruppe" v="infrastruktur" />
		<tag k="ssr:stedsnr" v="1036815" />
		<tag k="ssr:type" v="adressenavn" />
	</node>
	<node lat="67.93923507210613" lon="13.075179979109908" id="-23369">
		<tag k="name" v="Vestervalen" />
		<tag k="ssr:date" v="2019-05-30" />
		<tag k="ssr:gruppe" v="veg" />
		<tag k="ssr:hovedgruppe" v="infrastruktur" />
		<tag k="ssr:stedsnr" v="1036816" />
		<tag k="ssr:type" v="adressenavn" />
	</node>
	<node lat="67.94146173258832" lon="13.111418590758804" id="-23370">
		<tag k="name" v="Sakrisøya" />
		<tag k="ssr:date" v="2019-05-30" />
		<tag k="ssr:gruppe" v="veg" />
		<tag k="ssr:hovedgruppe" v="infrastruktur" />
		<tag k="ssr:stedsnr" v="1036817" />
		<tag k="ssr:type" v="adressenavn" />
	</node>
	<node lat="67.94528221361297" lon="13.133491073443762" id="-23371">
		<tag k="name" v="Hamnøya" />
		<tag k="ssr:date" v="2019-05-30" />
		<tag k="ssr:gruppe" v="veg" />
		<tag k="ssr:hovedgruppe" v="infrastruktur" />
		<tag k="ssr:stedsnr" v="1036818" />
		<tag k="ssr:type" v="adressenavn" />
	</node>
	<node lat="67.94110882846314" lon="13.096303078787438" id="-23372">
		<tag k="name" v="Myran" />
		<tag k="ssr:date" v="2019-05-30" />
		<tag k="ssr:gruppe" v="veg" />
		<tag k="ssr:hovedgruppe" v="infrastruktur" />
		<tag k="ssr:stedsnr" v="1036819" />
		<tag k="ssr:type" v="adressenavn" />
	</node>
	<node lat="67.94248457431726" lon="13.100174868688566" id="-23373">
		<tag k="name" v="Kvalvika" />
		<tag k="ssr:date" v="2019-05-30" />
		<tag k="ssr:gruppe" v="veg" />
		<tag k="ssr:hovedgruppe" v="infrastruktur" />
		<tag k="ssr:stedsnr" v="1036820" />
		<tag k="ssr:type" v="adressenavn" />
	</node>
	<node lat="67.87911977584253" lon="12.981405911729789" id="-23374">
		<tag k="name" v="Middagshaugen" />
		<tag k="ssr:date" v="2019-05-30" />
		<tag k="ssr:gruppe" v="veg" />
		<tag k="ssr:hovedgruppe" v="infrastruktur" />
		<tag k="ssr:stedsnr" v="1036821" />
		<tag k="ssr:type" v="adressenavn" />
	</node>
	<node lat="67.8848779218917" lon="13.00029311504856" id="-23375">
		<tag k="name" v="Tindsveien" />
		<tag k="ssr:date" v="2019-05-30" />
		<tag k="ssr:gruppe" v="veg" />
		<tag k="ssr:hovedgruppe" v="infrastruktur" />
		<tag k="ssr:stedsnr" v="1036829" />
		<tag k="ssr:type" v="adressenavn" />
	</node>
	<node lat="67.891060686461" lon="13.026152813243469" id="-23376">
		<tag k="name" v="Oddanveien" />
		<tag k="ssr:date" v="2019-05-30" />
		<tag k="ssr:gruppe" v="veg" />
		<tag k="ssr:hovedgruppe" v="infrastruktur" />
		<tag k="ssr:stedsnr" v="1036830" />
		<tag k="ssr:type" v="adressenavn" />
	</node>
	<node lat="67.89062389071266" lon="13.024961739912998" id="-23377">
		<tag k="name" v="Svinnesveien" />
		<tag k="ssr:date" v="2019-05-30" />
		<tag k="ssr:gruppe" v="veg" />
		<tag k="ssr:hovedgruppe" v="infrastruktur" />
		<tag k="ssr:stedsnr" v="1036831" />
		<tag k="ssr:type" v="adressenavn" />
	</node>
	<node lat="67.8862948991368" lon="13.02071601158295" id="-23378">
		<tag k="name" v="Bogen" />
		<tag k="ssr:date" v="2019-05-30" />
		<tag k="ssr:gruppe" v="veg" />
		<tag k="ssr:hovedgruppe" v="infrastruktur" />
		<tag k="ssr:stedsnr" v="1036832" />
		<tag k="ssr:type" v="adressenavn" />
	</node>
	<node lat="67.88724693284207" lon="13.01688613440395" id="-23379">
		<tag k="name" v="Besselvågveien" />
		<tag k="ssr:date" v="2019-05-30" />
		<tag k="ssr:gruppe" v="veg" />
		<tag k="ssr:hovedgruppe" v="infrastruktur" />
		<tag k="ssr:stedsnr" v="1036833" />
		<tag k="ssr:type" v="adressenavn" />
	</node>
	<node lat="67.8953859131681" lon="13.034544560003383" id="-23380">
		<tag k="name" v="Løktoddveien" />
		<tag k="ssr:date" v="2019-05-30" />
		<tag k="ssr:gruppe" v="veg" />
		<tag k="ssr:hovedgruppe" v="infrastruktur" />
		<tag k="ssr:stedsnr" v="1036834" />
		<tag k="ssr:type" v="adressenavn" />
	</node>
	<node lat="67.90018629919348" lon="13.046562749796548" id="-23381">
		<tag k="name" v="Birger Eriksens vei" />
		<tag k="ssr:date" v="2019-05-30" />
		<tag k="ssr:gruppe" v="veg" />
		<tag k="ssr:hovedgruppe" v="infrastruktur" />
		<tag k="ssr:stedsnr" v="1036835" />
		<tag k="ssr:type" v="adressenavn" />
	</node>
	<node lat="67.89369201287141" lon="13.030044715798986" id="-23382">
		<tag k="name" v="Klippenveien" />
		<tag k="ssr:date" v="2019-05-30" />
		<tag k="ssr:gruppe" v="veg" />
		<tag k="ssr:hovedgruppe" v="infrastruktur" />
		<tag k="ssr:stedsnr" v="1036836" />
		<tag k="ssr:type" v="adressenavn" />
	</node>
	<node lat="67.89561263895327" lon="13.029535574786893" id="-23383">
		<tag k="name" v="Rostaddalen" />
		<tag k="ssr:date" v="2019-05-30" />
		<tag k="ssr:gruppe" v="veg" />
		<tag k="ssr:hovedgruppe" v="infrastruktur" />
		<tag k="ssr:stedsnr" v="1036837" />
		<tag k="ssr:type" v="adressenavn" />
	</node>
	<node lat="67.8901137739426" lon="13.025104816369028" id="-23384">
		<tag k="name" v="Gamle Sørvågen" />
		<tag k="ssr:date" v="2019-05-30" />
		<tag k="ssr:gruppe" v="veg" />
		<tag k="ssr:hovedgruppe" v="infrastruktur" />
		<tag k="ssr:stedsnr" v="1036838" />
		<tag k="ssr:type" v="adressenavn" />
	</node>
	<node lat="67.88876986724728" lon="13.01895045750581" id="-23385">
		<tag k="name" v="Styrmannsveien" />
		<tag k="ssr:date" v="2019-05-30" />
		<tag k="ssr:gruppe" v="veg" />
		<tag k="ssr:hovedgruppe" v="infrastruktur" />
		<tag k="ssr:stedsnr" v="1036839" />
		<tag k="ssr:type" v="adressenavn" />
	</node>
	<node lat="67.96186874111811" lon="12.997858290085642" id="-23386">
		<tag k="name" v="Bunesfjorden" />
		<tag k="ssr:date" v="2019-05-30" />
		<tag k="ssr:gruppe" v="veg" />
		<tag k="ssr:hovedgruppe" v="infrastruktur" />
		<tag k="ssr:stedsnr" v="1036841" />
		<tag k="ssr:type" v="adressenavn" />
	</node>
	<node lat="67.9875367775207" lon="13.008174233983725" id="-23387">
		<tag k="name" v="Kjerkfjorden" />
		<tag k="ssr:date" v="2019-05-30" />
		<tag k="ssr:gruppe" v="veg" />
		<tag k="ssr:hovedgruppe" v="infrastruktur" />
		<tag k="ssr:stedsnr" v="1036842" />
		<tag k="ssr:type" v="adressenavn" />
	</node>
	<node lat="67.93956395686789" lon="12.981773892550459" id="-23388">
		<tag k="name" v="Forsfjorden" />
		<tag k="ssr:date" v="2019-05-30" />
		<tag k="ssr:gruppe" v="veg" />
		<tag k="ssr:hovedgruppe" v="infrastruktur" />
		<tag k="ssr:stedsnr" v="1036843" />
		<tag k="ssr:type" v="adressenavn" />
	</node>
	<node lat="67.95793791053359" lon="13.003610347852682" id="-23389">
		<tag k="name" v="Vindstad" />
		<tag k="ssr:date" v="2019-05-30" />
		<tag k="ssr:gruppe" v="veg" />
		<tag k="ssr:hovedgruppe" v="infrastruktur" />
		<tag k="ssr:stedsnr" v="1036844" />
		<tag k="ssr:type" v="adressenavn" />
	</node>
</osm>
