<?xml version="1.0" encoding="UTF-8"?>
<osm generator="osmapis" version="0.6">
	<node id="-100540" lat="60.5908609473" lon="9.63819281559">
		<tag k="fixme" v="multiple name tags, choose one and add the other to alt_name" />
		<tag k="name" v="Austlandet;Ã˜stlandet" />
		<tag k="ssr:date" v="2018-01-09" />
		<tag k="ssr:gruppe" v="administrativeIndelinger" />
		<tag k="ssr:hovedgruppe" v="offentligAdministrasjon" />
		<tag k="ssr:stedsnr" v="974775" />
		<tag k="ssr:type" v="annenAdministrativInndeling" />
	</node>
	<node id="-99356" lat="62.1062361096" lon="10.6333888963">
		<tag k="name" v="Grindegga" />
		<tag k="ssr:date" v="2016-05-10" />
		<tag k="ssr:gruppe" v="veg" />
		<tag k="ssr:hovedgruppe" v="infrastruktur" />
		<tag k="ssr:stedsnr" v="356797" />
		<tag k="ssr:type" v="vegstrekning" />
	</node>
	<node id="-100085" lat="62.1085361141" lon="10.6348305548">
		<tag k="name" v="Alvdal kommune" />
		<tag k="ssr:date" v="2016-05-10" />
		<tag k="ssr:gruppe" v="administrativeIndelinger" />
		<tag k="ssr:hovedgruppe" v="offentligAdministrasjon" />
		<tag k="ssr:stedsnr" v="631251" />
		<tag k="ssr:type" v="kommune" />
	</node>
	<node id="-99372" lat="62.0010833334" lon="10.8878916597">
		<tag k="name" v="Midtskogsvegen" />
		<tag k="ssr:date" v="2016-05-10" />
		<tag k="ssr:gruppe" v="veg" />
		<tag k="ssr:hovedgruppe" v="infrastruktur" />
		<tag k="ssr:stedsnr" v="357673" />
		<tag k="ssr:type" v="vegstrekning" />
	</node>
	<node id="-100355" lat="62.0759249967" lon="10.3941694528">
		<tag k="name" v="Follandsvangvegen" />
		<tag k="ssr:date" v="2016-05-11" />
		<tag k="ssr:gruppe" v="veg" />
		<tag k="ssr:hovedgruppe" v="infrastruktur" />
		<tag k="ssr:stedsnr" v="841762" />
		<tag k="ssr:type" v="vegstrekning" />
	</node>
</osm>
