<?xml version="1.0" encoding="UTF-8"?>
<osm version="0.6" generator="osmapis">
	<node lat="62.715419445087285" lon="10.987477783989682" id="-40019">
		<tag k="name" v="Nyvollhaugen" />
		<tag k="natural" v="hill" />
		<tag k="place" v="locality" />
		<tag k="ssr:stedsnr" v="11005" />
	</node>
	<node lat="62.79127499569053" lon="11.039630548608804" id="-40022">
		<tag k="name" v="Båttjønnhøgda" />
		<tag k="natural" v="hill" />
		<tag k="place" v="locality" />
		<tag k="ssr:stedsnr" v="12009" />
	</node>
	<node lat="62.92186110952223" lon="11.30748610801176" id="-40027">
		<tag k="fixme" v="consider natural=peak for the most distinct mountains in the district" />
		<tag k="name" v="Fallan" />
		<tag k="natural" v="hill" />
		<tag k="place" v="locality" />
		<tag k="ssr:stedsnr" v="12172" />
	</node>
	<node lat="62.88315555284482" lon="11.700419453588824" id="-40029">
		<tag k="fixme" v="consider natural=peak for the most distinct mountains in the district" />
		<tag k="name" v="Rapmere" />
		<tag k="name:sma" v="Rapmere" />
		<tag k="natural" v="hill" />
		<tag k="place" v="locality" />
		<tag k="ssr:stedsnr" v="12180" />
	</node>
	<node lat="62.80535000385792" lon="11.727219437479333" id="-40033">
		<tag k="fixme" v="consider natural=peak for the most distinct mountains in the district" />
		<tag k="name" v="Gaulhåvola" />
		<tag k="natural" v="hill" />
		<tag k="place" v="locality" />
		<tag k="ssr:stedsnr" v="12804" />
	</node>
	<node lat="62.83051111258069" lon="11.351341662897308" id="-40034">
		<tag k="name" v="Bangan" />
		<tag k="natural" v="slope" />
		<tag k="place" v="locality" />
		<tag k="ssr:stedsnr" v="12877" />
	</node>
	<node lat="63.055649997003975" lon="11.085069449699386" id="-40036">
		<tag k="name" v="Stordalen" />
		<tag k="natural" v="valley" />
		<tag k="place" v="locality" />
		<tag k="ssr:stedsnr" v="21340" />
	</node>
	<node lat="62.85252777795939" lon="11.622216659095258" id="-40037">
		<tag k="fixme" v="consider natural=peak for the most distinct mountains in the district" />
		<tag k="name" v="Litjfjellet" />
		<tag k="natural" v="hill" />
		<tag k="place" v="locality" />
		<tag k="ssr:stedsnr" v="21689" />
	</node>
	<node lat="62.96380833196273" lon="11.163438891547273" id="-40040">
		<tag k="name" v="Hardlia" />
		<tag k="natural" v="slope" />
		<tag k="place" v="locality" />
		<tag k="ssr:stedsnr" v="45313" />
	</node>
	<node lat="62.91035277499251" lon="11.242375001316399" id="-40042">
		<tag k="fixme" v="consider natural=peak for the most distinct mountains in the district" />
		<tag k="name" v="Vollfjellet" />
		<tag k="natural" v="hill" />
		<tag k="place" v="locality" />
		<tag k="ssr:stedsnr" v="45704" />
	</node>
	<node lat="62.83058611450755" lon="11.68180833598569" id="-40051">
		<tag k="name" v="Gråbenhaugan" />
		<tag k="natural" v="hill" />
		<tag k="place" v="locality" />
		<tag k="ssr:stedsnr" v="46044" />
	</node>
	<node lat="62.83032222686834" lon="11.659705547855593" id="-40053">
		<tag k="name" v="Storingshaugen" />
		<tag k="natural" v="hill" />
		<tag k="place" v="locality" />
		<tag k="ssr:stedsnr" v="46046" />
	</node>
	<node lat="62.82592777332543" lon="11.462200003712617" id="-40054">
		<tag k="name" v="Rutlåsen" />
		<tag k="natural" v="cliff" />
		<tag k="ssr:stedsnr" v="46221" />
	</node>
	<node lat="62.93162222229665" lon="11.247694447039239" id="-40056">
		<tag k="name" v="Hovollia" />
		<tag k="natural" v="slope" />
		<tag k="place" v="locality" />
		<tag k="ssr:stedsnr" v="46181" />
	</node>
	<node lat="62.833066670320804" lon="11.185436120577497" id="-40057">
		<tag k="fixme" v="consider natural=peak for the most distinct mountains in the district" />
		<tag k="name" v="Odden" />
		<tag k="natural" v="hill" />
		<tag k="place" v="locality" />
		<tag k="ssr:stedsnr" v="46413" />
	</node>
	<node lat="62.74804722364151" lon="11.105191666987183" id="-40061">
		<tag k="name" v="Heståsen" />
		<tag k="natural" v="cliff" />
		<tag k="ssr:stedsnr" v="46674" />
	</node>
	<node lat="62.73588611205246" lon="11.1525416602505" id="-40063">
		<tag k="fixme" v="consider natural=peak for the most distinct mountains in the district" />
		<tag k="name" v="Myråsberget" />
		<tag k="natural" v="hill" />
		<tag k="place" v="locality" />
		<tag k="ssr:stedsnr" v="46681" />
	</node>
	<node lat="62.96137778147539" lon="11.215983328239478" id="-40068">
		<tag k="fixme" v="consider natural=peak for the most distinct mountains in the district" />
		<tag k="name" v="Sagåsen" />
		<tag k="natural" v="hill" />
		<tag k="place" v="locality" />
		<tag k="ssr:stedsnr" v="60380" />
	</node>
	<node lat="62.80497499940659" lon="11.006913880828682" id="-40073">
		<tag k="name" v="Øyungsgrøbba" />
		<tag k="natural" v="valley" />
		<tag k="place" v="locality" />
		<tag k="ssr:stedsnr" v="73065" />
	</node>
	<node lat="63.003658335210154" lon="11.271336102936102" id="-40075">
		<tag k="name" v="Bukkhåmmåren" />
		<tag k="natural" v="hill" />
		<tag k="place" v="locality" />
		<tag k="ssr:stedsnr" v="73373" />
	</node>
	<node lat="62.806852779626524" lon="11.421113897290384" id="-40081">
		<tag k="name" v="Tverrdalen" />
		<tag k="natural" v="valley" />
		<tag k="place" v="locality" />
		<tag k="ssr:stedsnr" v="73912" />
	</node>
	<node lat="62.869947222539395" lon="11.074866662425663" id="-40083">
		<tag k="fixme" v="consider natural=peak for the most distinct mountains in the district" />
		<tag k="name" v="Støten" />
		<tag k="natural" v="hill" />
		<tag k="place" v="locality" />
		<tag k="ssr:stedsnr" v="81410" />
	</node>
	<node lat="62.863155554492145" lon="11.332624999002952" id="-40090">
		<tag k="name" v="Kårslåtthøgda" />
		<tag k="natural" v="hill" />
		<tag k="place" v="locality" />
		<tag k="ssr:stedsnr" v="106272" />
	</node>
	<node lat="62.95444166552424" lon="11.237188893628295" id="-40094">
		<tag k="name" v="Petterøya" />
		<tag k="place" v="locality" />
		<tag k="ssr:stedsnr" v="106613" />
	</node>
	<node lat="62.811844446127566" lon="11.47714999953121" id="-40101">
		<tag k="name" v="Sakshåmmåren" />
		<tag k="natural" v="ridge" />
		<tag k="place" v="locality" />
		<tag k="ssr:stedsnr" v="107183" />
	</node>
	<node lat="62.93394721888607" lon="11.319902780142398" id="-40104">
		<tag k="name" v="Dolpan" />
		<tag k="natural" v="hill" />
		<tag k="place" v="locality" />
		<tag k="ssr:stedsnr" v="107332" />
	</node>
	<node lat="62.899597219919734" lon="11.219055561205167" id="-40106">
		<tag k="name" v="Brunråen" />
		<tag k="natural" v="slope" />
		<tag k="place" v="locality" />
		<tag k="ssr:stedsnr" v="107503" />
	</node>
	<node lat="62.86959166333481" lon="11.183222222672324" id="-40107">
		<tag k="name" v="Odden" />
		<tag k="natural" v="ridge" />
		<tag k="place" v="locality" />
		<tag k="ssr:stedsnr" v="107512" />
	</node>
	<node lat="62.94985555612291" lon="10.984088879670146" id="-40109">
		<tag k="name" v="Danielshogget" />
		<tag k="natural" v="hill" />
		<tag k="place" v="locality" />
		<tag k="ssr:stedsnr" v="107746" />
	</node>
	<node lat="62.94269444722901" lon="10.974708335846602" id="-40110">
		<tag k="name" v="Bekkøyan" />
		<tag k="place" v="locality" />
		<tag k="ssr:stedsnr" v="107750" />
	</node>
	<node lat="62.96839444685485" lon="11.039116674943191" id="-40111">
		<tag k="fixme" v="consider natural=peak for the most distinct mountains in the district" />
		<tag k="name" v="Bønnstumyråsen" />
		<tag k="natural" v="hill" />
		<tag k="place" v="locality" />
		<tag k="ssr:stedsnr" v="107614" />
	</node>
	<node lat="62.92288611441059" lon="11.287077786479665" id="-40122">
		<tag k="fixme" v="consider natural=peak for the most distinct mountains in the district" />
		<tag k="name" v="Høgkjærsåsen" />
		<tag k="natural" v="hill" />
		<tag k="place" v="locality" />
		<tag k="ssr:stedsnr" v="133160" />
	</node>
	<node lat="62.93600203967639" lon="11.110261058405655" id="-40129">
		<tag k="name" v="Ysetmoan" />
		<tag k="place" v="locality" />
		<tag k="ssr:stedsnr" v="133371" />
	</node>
	<node lat="62.71756944641839" lon="11.029894435590936" id="-40130">
		<tag k="fixme" v="consider natural=peak for the most distinct mountains in the district" />
		<tag k="name" v="Steinskneppen" />
		<tag k="natural" v="hill" />
		<tag k="place" v="locality" />
		<tag k="ssr:stedsnr" v="254031" />
	</node>
	<node lat="62.76060555187377" lon="10.982330559677049" id="-40135">
		<tag k="name" v="Kåshøgda" />
		<tag k="natural" v="hill" />
		<tag k="place" v="locality" />
		<tag k="ssr:stedsnr" v="255224" />
	</node>
	<node lat="62.96993333692904" lon="11.411002768694177" id="-40136">
		<tag k="fixme" v="consider natural=peak for the most distinct mountains in the district" />
		<tag k="name" v="Kneppen, Inste" />
		<tag k="natural" v="hill" />
		<tag k="place" v="locality" />
		<tag k="ssr:stedsnr" v="255231" />
	</node>
	<node lat="63.02956111325023" lon="11.148450001238324" id="-40142">
		<tag k="name" v="Kvammen" />
		<tag k="natural" v="valley" />
		<tag k="place" v="locality" />
		<tag k="ssr:stedsnr" v="141335" />
	</node>
	<node lat="62.81928055426869" lon="11.109352786059056" id="-40147">
		<tag k="loc_name" v="Finnåshøgda" />
		<tag k="name" v="Finnsåhøgda" />
		<tag k="natural" v="hill" />
		<tag k="place" v="locality" />
		<tag k="ssr:stedsnr" v="255056" />
	</node>
	<node lat="62.947375001600854" lon="11.338005564318381" id="-40151">
		<tag k="name" v="Kløftan" />
		<tag k="natural" v="valley" />
		<tag k="place" v="locality" />
		<tag k="ssr:stedsnr" v="255190" />
	</node>
	<node lat="62.910466667815854" lon="11.118644436227363" id="-40168">
		<tag k="fixme" v="consider natural=peak for the most distinct mountains in the district" />
		<tag k="name" v="Bjørneråsen" />
		<tag k="natural" v="hill" />
		<tag k="place" v="locality" />
		<tag k="ssr:stedsnr" v="167411" />
	</node>
	<node lat="62.846447223233994" lon="11.185177778043537" id="-40170">
		<tag k="fixme" v="consider natural=peak for the most distinct mountains in the district" />
		<tag k="name" v="Hammerkneppen" />
		<tag k="natural" v="hill" />
		<tag k="place" v="locality" />
		<tag k="ssr:stedsnr" v="167417" />
	</node>
	<node lat="62.82239999732946" lon="11.180130549019166" id="-40171">
		<tag k="name" v="Vårhuslia" />
		<tag k="natural" v="slope" />
		<tag k="place" v="locality" />
		<tag k="ssr:stedsnr" v="167421" />
	</node>
	<node lat="62.83141666613102" lon="11.290997221727686" id="-40174">
		<tag k="fixme" v="consider natural=peak for the most distinct mountains in the district" />
		<tag k="name" v="Jerpåsen" />
		<tag k="natural" v="hill" />
		<tag k="place" v="locality" />
		<tag k="ssr:stedsnr" v="167359" />
	</node>
	<node lat="62.855533336517" lon="11.160636106245075" id="-40175">
		<tag k="name" v="Kammen" />
		<tag k="natural" v="ridge" />
		<tag k="place" v="locality" />
		<tag k="ssr:stedsnr" v="167376" />
	</node>
	<node lat="62.89074444254877" lon="11.205988883748981" id="-40178">
		<tag k="name" v="Skalberga" />
		<tag k="natural" v="hill" />
		<tag k="place" v="locality" />
		<tag k="ssr:stedsnr" v="167511" />
	</node>
	<node lat="62.88936111070791" lon="11.182741665181958" id="-40180">
		<tag k="name" v="Litjeidkammen" />
		<tag k="natural" v="ridge" />
		<tag k="place" v="locality" />
		<tag k="ssr:stedsnr" v="167516" />
	</node>
	<node lat="62.89382221918116" lon="11.158355549836836" id="-40181">
		<tag k="name" v="Styggdalen" />
		<tag k="natural" v="valley" />
		<tag k="place" v="locality" />
		<tag k="ssr:stedsnr" v="167518" />
	</node>
	<node lat="62.92661666967718" lon="11.048605558603498" id="-40182">
		<tag k="name" v="Hogstret" />
		<tag k="natural" v="hill" />
		<tag k="place" v="locality" />
		<tag k="ssr:stedsnr" v="167612" />
	</node>
	<node lat="62.724155558616054" lon="11.001402784192173" id="-40185">
		<tag k="name" v="Øyan" />
		<tag k="place" v="locality" />
		<tag k="ssr:stedsnr" v="167705" />
	</node>
	<node lat="62.99776666824184" lon="10.962905546776279" id="-40197">
		<tag k="fixme" v="consider natural=peak for the most distinct mountains in the district" />
		<tag k="name" v="Mortenfjellet" />
		<tag k="natural" v="hill" />
		<tag k="place" v="locality" />
		<tag k="ssr:stedsnr" v="263413" />
	</node>
	<node lat="63.006027776655614" lon="11.040047225696757" id="-40199">
		<tag k="name" v="Røvskørrudalen" />
		<tag k="natural" v="valley" />
		<tag k="place" v="locality" />
		<tag k="ssr:stedsnr" v="263355" />
	</node>
	<node lat="63.03153611093976" lon="11.136730550210572" id="-40200">
		<tag k="name" v="Kvamshaugen" />
		<tag k="natural" v="hill" />
		<tag k="place" v="locality" />
		<tag k="ssr:stedsnr" v="263360" />
	</node>
	<node lat="65.11002777597567" lon="13.085422216082504" id="-40206">
		<tag k="fixme" v="consider natural=peak for the most distinct mountains in the district" />
		<tag k="name" v="Kløftfjellet - Sloeptjenguevtele" />
		<tag k="name:no" v="Kløftfjellet" />
		<tag k="name:sma" v="Sloeptjenguevtele" />
		<tag k="natural" v="hill" />
		<tag k="place" v="locality" />
		<tag k="ssr:stedsnr" v="196523" />
	</node>
	<node lat="62.765447220074414" lon="11.207411105344464" id="-40208">
		<tag k="name" v="Kleppen" />
		<tag k="natural" v="hill" />
		<tag k="place" v="locality" />
		<tag k="ssr:stedsnr" v="202348" />
	</node>
	<node lat="63.009980555054206" lon="11.137127781721349" id="-40210">
		<tag k="name" v="Tjukklia" />
		<tag k="natural" v="slope" />
		<tag k="place" v="locality" />
		<tag k="ssr:stedsnr" v="203346" />
	</node>
	<node lat="62.7692638908525" lon="11.420383341661626" id="-40217">
		<tag k="name" v="Skardet" />
		<tag k="natural" v="valley" />
		<tag k="place" v="locality" />
		<tag k="ssr:stedsnr" v="228137" />
	</node>
	<node lat="62.84313888877901" lon="11.690975000470505" id="-40218">
		<tag k="name" v="Stallan" />
		<tag k="place" v="locality" />
		<tag k="ssr:stedsnr" v="228183" />
	</node>
	<node lat="62.81835000301754" lon="11.543994451702716" id="-40220">
		<tag k="name" v="Hestgroen" />
		<tag k="place" v="locality" />
		<tag k="ssr:stedsnr" v="228192" />
	</node>
	<node lat="62.81647777677338" lon="11.510538889064307" id="-40222">
		<tag k="name" v="Mennslættet" />
		<tag k="place" v="locality" />
		<tag k="ssr:stedsnr" v="228198" />
	</node>
	<node lat="62.92971944155768" lon="11.34909167123896" id="-40224">
		<tag k="alt_name" v="Simensråen" />
		<tag k="name" v="Simensråin" />
		<tag k="natural" v="slope" />
		<tag k="place" v="locality" />
		<tag k="ssr:stedsnr" v="228208" />
	</node>
	<node lat="62.96602778018432" lon="11.068341659556408" id="-40229">
		<tag k="name" v="Bredtjønndalen" />
		<tag k="natural" v="valley" />
		<tag k="place" v="locality" />
		<tag k="ssr:stedsnr" v="228638" />
	</node>
	<node lat="62.963022218978445" lon="11.067297220830666" id="-40230">
		<tag k="name" v="Kvennstuldalen" />
		<tag k="natural" v="valley" />
		<tag k="place" v="locality" />
		<tag k="ssr:stedsnr" v="228640" />
	</node>
	<node lat="62.906616662699044" lon="11.230841672666063" id="-40231">
		<tag k="name" v="Mørkaslåtta" />
		<tag k="natural" v="slope" />
		<tag k="place" v="locality" />
		<tag k="ssr:stedsnr" v="228382" />
	</node>
	<node lat="63.02055277556018" lon="11.09046944432116" id="-40246">
		<tag k="name" v="Vålen" />
		<tag k="natural" v="ridge" />
		<tag k="place" v="locality" />
		<tag k="ssr:stedsnr" v="247312" />
	</node>
	<node lat="62.71425833181885" lon="11.073244439692546" id="-40249">
		<tag k="name" v="Høsbekkhøgda" />
		<tag k="natural" v="hill" />
		<tag k="place" v="locality" />
		<tag k="ssr:stedsnr" v="254015" />
	</node>
	<node lat="62.784500004259506" lon="11.029027784828687" id="-40254">
		<tag k="name" v="Raudådalen" />
		<tag k="natural" v="valley" />
		<tag k="place" v="locality" />
		<tag k="ssr:stedsnr" v="255016" />
	</node>
	<node lat="62.77407500338057" lon="11.206425004316307" id="-40255">
		<tag k="fixme" v="consider natural=peak for the most distinct mountains in the district" />
		<tag k="name" v="Rognsåsen" />
		<tag k="natural" v="hill" />
		<tag k="place" v="locality" />
		<tag k="ssr:stedsnr" v="255023" />
	</node>
	<node lat="63.01208055132371" lon="11.212513880646888" id="-40257">
		<tag k="fixme" v="consider natural=peak for the most distinct mountains in the district" />
		<tag k="name" v="Bælingfjella" />
		<tag k="natural" v="hill" />
		<tag k="place" v="locality" />
		<tag k="ssr:stedsnr" v="255206" />
	</node>
	<node lat="62.92140277955987" lon="11.478008332247883" id="-40259">
		<tag k="fixme" v="consider natural=peak for the most distinct mountains in the district" />
		<tag k="name" v="Tvertforfjellet" />
		<tag k="natural" v="hill" />
		<tag k="place" v="locality" />
		<tag k="ssr:stedsnr" v="255170" />
	</node>
	<node lat="62.897733331098095" lon="11.431955547041333" id="-40261">
		<tag k="fixme" v="consider natural=peak for the most distinct mountains in the district" />
		<tag k="name" v="Holdsjøhøgda" />
		<tag k="natural" v="hill" />
		<tag k="place" v="locality" />
		<tag k="ssr:stedsnr" v="255182" />
	</node>
	<node lat="62.87182500289949" lon="11.19087777640577" id="-40266">
		<tag k="fixme" v="consider natural=peak for the most distinct mountains in the district" />
		<tag k="name" v="Storhåmmåren" />
		<tag k="natural" v="hill" />
		<tag k="place" v="locality" />
		<tag k="ssr:stedsnr" v="262396" />
	</node>
	<node lat="62.93416110970771" lon="11.004030548940397" id="-40267">
		<tag k="name" v="Austbergåsen" />
		<tag k="natural" v="hill" />
		<tag k="place" v="locality" />
		<tag k="ssr:stedsnr" v="280834" />
	</node>
	<node lat="62.94507221772845" lon="11.128252784197867" id="-40270">
		<tag k="fixme" v="consider natural=peak for the most distinct mountains in the district" />
		<tag k="name" v="Litjengsvollåsen" />
		<tag k="natural" v="hill" />
		<tag k="place" v="locality" />
		<tag k="ssr:stedsnr" v="288404" />
	</node>
	<node lat="62.95079166988284" lon="11.200452775520507" id="-40271">
		<tag k="alt_name" v="Litløya" />
		<tag k="name" v="Litjøia" />
		<tag k="natural" v="hill" />
		<tag k="place" v="locality" />
		<tag k="ssr:stedsnr" v="288429" />
	</node>
	<node lat="62.85810555779667" lon="11.210008325029913" id="-40273">
		<tag k="name" v="Kolhaugen" />
		<tag k="natural" v="hill" />
		<tag k="place" v="locality" />
		<tag k="ssr:stedsnr" v="288687" />
	</node>
	<node lat="62.77363332953689" lon="11.42583332680239" id="-40278">
		<tag k="name" v="Litlkleppen" />
		<tag k="natural" v="slope" />
		<tag k="place" v="locality" />
		<tag k="ssr:stedsnr" v="289131" />
	</node>
	<node lat="62.82548888493563" lon="11.652508336158945" id="-40279">
		<tag k="name" v="Stentrøhaugen" />
		<tag k="natural" v="hill" />
		<tag k="place" v="locality" />
		<tag k="ssr:stedsnr" v="289182" />
	</node>
	<node lat="62.82687222040889" lon="11.653494446449644" id="-40280">
		<tag k="name" v="Storhaugen" />
		<tag k="natural" v="hill" />
		<tag k="place" v="locality" />
		<tag k="ssr:stedsnr" v="289183" />
	</node>
	<node lat="62.81281111190832" lon="11.500011102377915" id="-40281">
		<tag k="name" v="Moen" />
		<tag k="place" v="locality" />
		<tag k="ssr:stedsnr" v="289194" />
	</node>
	<node lat="62.86650555632729" lon="11.146025005394488" id="-40288">
		<tag k="fixme" v="consider natural=peak for the most distinct mountains in the district" />
		<tag k="name" v="Litlfjellet" />
		<tag k="natural" v="hill" />
		<tag k="place" v="locality" />
		<tag k="ssr:stedsnr" v="289386" />
	</node>
	<node lat="62.84786944699208" lon="11.152452777700562" id="-40289">
		<tag k="name" v="Nyvollia" />
		<tag k="natural" v="slope" />
		<tag k="place" v="locality" />
		<tag k="ssr:stedsnr" v="289387" />
	</node>
	<node lat="62.940030554160124" lon="10.974388894895455" id="-40292">
		<tag k="name" v="Tussberga" />
		<tag k="natural" v="hill" />
		<tag k="place" v="locality" />
		<tag k="ssr:stedsnr" v="289575" />
	</node>
	<node lat="62.88152221938396" lon="11.08762499645533" id="-40312">
		<tag k="name" v="Grønkorsen" />
		<tag k="natural" v="hill" />
		<tag k="place" v="locality" />
		<tag k="ssr:stedsnr" v="315102" />
	</node>
	<node lat="62.913247218053456" lon="11.094677783455715" id="-40313">
		<tag k="name" v="Svartberget" />
		<tag k="natural" v="hill" />
		<tag k="place" v="locality" />
		<tag k="ssr:stedsnr" v="315365" />
	</node>
	<node lat="62.93849722284709" lon="10.958900000367247" id="-40318">
		<tag k="name" v="Stordalen" />
		<tag k="natural" v="valley" />
		<tag k="place" v="locality" />
		<tag k="ssr:stedsnr" v="315404" />
	</node>
	<node lat="62.917527775350365" lon="11.078224996444265" id="-40319">
		<tag k="fixme" v="consider natural=peak for the most distinct mountains in the district" />
		<tag k="name" v="Åsbrenna" />
		<tag k="natural" v="hill" />
		<tag k="place" v="locality" />
		<tag k="ssr:stedsnr" v="316449" />
	</node>
	<node lat="62.78814999889523" lon="10.980277769413611" id="-40320">
		<tag k="fixme" v="consider natural=peak for the most distinct mountains in the district" />
		<tag k="name" v="Slettfjellet" />
		<tag k="natural" v="hill" />
		<tag k="place" v="locality" />
		<tag k="ssr:stedsnr" v="316699" />
	</node>
	<node lat="62.785447224000386" lon="11.330233341275441" id="-40327">
		<tag k="name" v="Stordalen" />
		<tag k="natural" v="valley" />
		<tag k="place" v="locality" />
		<tag k="ssr:stedsnr" v="470237" />
	</node>
	<node lat="62.85806944502069" lon="11.327963879560278" id="-40328">
		<tag k="name" v="Kårslåttlia" />
		<tag k="natural" v="slope" />
		<tag k="place" v="locality" />
		<tag k="ssr:stedsnr" v="470246" />
	</node>
	<node lat="62.923380553085636" lon="11.280102777164705" id="-40334">
		<tag k="name" v="Høgkjærsåsen" />
		<tag k="natural" v="cliff" />
		<tag k="ssr:stedsnr" v="471187" />
	</node>
	<node lat="62.95983610786205" lon="11.267711117086854" id="-40339">
		<tag k="name" v="Høglia" />
		<tag k="natural" v="slope" />
		<tag k="place" v="locality" />
		<tag k="ssr:stedsnr" v="471138" />
	</node>
	<node lat="62.96873333348446" lon="11.27785278704637" id="-40340">
		<tag k="name" v="Kopperrya" />
		<tag k="natural" v="ridge" />
		<tag k="place" v="locality" />
		<tag k="ssr:stedsnr" v="471156" />
	</node>
	<node lat="62.81865277576329" lon="11.572777779485838" id="-40342">
		<tag k="name" v="Syosbakken" />
		<tag k="natural" v="slope" />
		<tag k="place" v="locality" />
		<tag k="ssr:stedsnr" v="471193" />
	</node>
	<node lat="62.79637974025977" lon="11.416221096485334" id="-40344">
		<tag k="fixme" v="consider natural=peak for the most distinct mountains in the district" />
		<tag k="name" v="Bjørgåsen" />
		<tag k="natural" v="hill" />
		<tag k="place" v="locality" />
		<tag k="ssr:stedsnr" v="471237" />
	</node>
	<node lat="62.95043055575404" lon="11.279849990724001" id="-40345">
		<tag k="name" v="Grøtlihaugen" />
		<tag k="natural" v="hill" />
		<tag k="place" v="locality" />
		<tag k="ssr:stedsnr" v="471297" />
	</node>
	<node lat="62.9008583292789" lon="11.237938894046136" id="-40348">
		<tag k="name" v="Drøyslåttan" />
		<tag k="natural" v="slope" />
		<tag k="place" v="locality" />
		<tag k="ssr:stedsnr" v="471351" />
	</node>
	<node lat="62.690208331193375" lon="11.146761114200904" id="-40350">
		<tag k="name" v="Storlimoen" />
		<tag k="place" v="locality" />
		<tag k="ssr:stedsnr" v="471585" />
	</node>
	<node lat="62.80159722606118" lon="11.4139944496424" id="-40373">
		<tag k="fixme" v="consider natural=peak for the most distinct mountains in the district" />
		<tag k="name" v="Gamle Joråsen" />
		<tag k="natural" v="hill" />
		<tag k="place" v="locality" />
		<tag k="ssr:stedsnr" v="349275" />
	</node>
	<node lat="62.78446111411488" lon="11.435180554767351" id="-40374">
		<tag k="fixme" v="consider natural=peak for the most distinct mountains in the district" />
		<tag k="name" v="Ørmåsen" />
		<tag k="natural" v="hill" />
		<tag k="place" v="locality" />
		<tag k="ssr:stedsnr" v="349277" />
	</node>
	<node lat="62.93404722506242" lon="11.261344437563205" id="-40378">
		<tag k="name" v="Bernslia" />
		<tag k="natural" v="slope" />
		<tag k="place" v="locality" />
		<tag k="ssr:stedsnr" v="349375" />
	</node>
	<node lat="62.945961113705835" lon="11.11486943610747" id="-40379">
		<tag k="name" v="Brendtbakken" />
		<tag k="natural" v="slope" />
		<tag k="place" v="locality" />
		<tag k="ssr:stedsnr" v="349505" />
	</node>
	<node lat="62.82465833135898" lon="11.435094453726212" id="-40387">
		<tag k="name" v="Tverråbakkan" />
		<tag k="natural" v="slope" />
		<tag k="place" v="locality" />
		<tag k="ssr:stedsnr" v="349719" />
	</node>
	<node lat="62.910552774596205" lon="11.122894449098348" id="-40388">
		<tag k="name" v="Skjeftlia" />
		<tag k="natural" v="slope" />
		<tag k="place" v="locality" />
		<tag k="ssr:stedsnr" v="349720" />
	</node>
	<node lat="62.70728333063039" lon="10.859036103086181" id="-40395">
		<tag k="name" v="Øverforddalen" />
		<tag k="natural" v="valley" />
		<tag k="place" v="locality" />
		<tag k="ssr:stedsnr" v="375008" />
	</node>
	<node lat="62.69651944850132" lon="11.014455552430862" id="-40396">
		<tag k="name" v="Gardåkløfta" />
		<tag k="natural" v="valley" />
		<tag k="place" v="locality" />
		<tag k="ssr:stedsnr" v="375202" />
	</node>
	<node lat="62.868622226457255" lon="11.090455562390522" id="-40398">
		<tag k="name" v="Bjørnen" />
		<tag k="natural" v="valley" />
		<tag k="place" v="locality" />
		<tag k="ssr:stedsnr" v="376123" />
	</node>
	<node lat="62.87079999945295" lon="11.652575004974889" id="-40401">
		<tag k="fixme" v="consider natural=peak for the most distinct mountains in the district" />
		<tag k="name" v="Rundhaugen" />
		<tag k="natural" v="hill" />
		<tag k="place" v="locality" />
		<tag k="ssr:stedsnr" v="376133" />
	</node>
	<node lat="62.826727774348356" lon="11.159147216926238" id="-40415">
		<tag k="name" v="Kvenndalen" />
		<tag k="natural" v="valley" />
		<tag k="place" v="locality" />
		<tag k="ssr:stedsnr" v="410404" />
	</node>
	<node lat="62.69123055823121" lon="11.138280549651654" id="-40418">
		<tag k="name" v="Sommårskardet" />
		<tag k="natural" v="valley" />
		<tag k="place" v="locality" />
		<tag k="ssr:stedsnr" v="410593" />
	</node>
	<node lat="62.81408055386987" lon="11.529755548746614" id="-40420">
		<tag k="name" v="Finnmoen" />
		<tag k="place" v="locality" />
		<tag k="ssr:stedsnr" v="410711" />
	</node>
	<node lat="62.75442222379905" lon="10.966716661523606" id="-40421">
		<tag k="name" v="Kåsan" />
		<tag k="place" v="locality" />
		<tag k="ssr:stedsnr" v="410716" />
	</node>
	<node lat="62.73970000362207" lon="11.089552776487988" id="-40424">
		<tag k="name" v="Litjslettælet" />
		<tag k="place" v="locality" />
		<tag k="ssr:stedsnr" v="410740" />
	</node>
	<node lat="62.89411389213295" lon="11.18003056483613" id="-40427">
		<tag k="alt_name" v="Råen" />
		<tag k="name" v="Råin" />
		<tag k="natural" v="cliff" />
		<tag k="ssr:stedsnr" v="410489" />
	</node>
	<node lat="62.73389999940168" lon="11.160041671299666" id="-40430">
		<tag k="name" v="Litjfjellet" />
		<tag k="natural" v="hill" />
		<tag k="place" v="locality" />
		<tag k="ssr:stedsnr" v="410629" />
	</node>
	<node lat="62.72877777706222" lon="10.981116674983893" id="-40443">
		<tag k="name" v="Elgsjøkneppen" />
		<tag k="natural" v="hill" />
		<tag k="place" v="locality" />
		<tag k="ssr:stedsnr" v="436016" />
	</node>
	<node lat="62.729749999262715" lon="10.877216660552861" id="-40445">
		<tag k="fixme" v="consider natural=peak for the most distinct mountains in the district" />
		<tag k="name" v="Utsikten" />
		<tag k="natural" v="hill" />
		<tag k="place" v="locality" />
		<tag k="ssr:stedsnr" v="436025" />
	</node>
	<node lat="62.70481944695551" lon="11.084374998419872" id="-40446">
		<tag k="name" v="Berghøgda" />
		<tag k="natural" v="hill" />
		<tag k="place" v="locality" />
		<tag k="ssr:stedsnr" v="436226" />
	</node>
	<node lat="62.952788886179526" lon="11.046791663434549" id="-40463">
		<tag k="name" v="Odden" />
		<tag k="natural" v="hill" />
		<tag k="place" v="locality" />
		<tag k="ssr:stedsnr" v="437469" />
	</node>
	<node lat="62.802055558240305" lon="11.282011117605814" id="-40469">
		<tag k="fixme" v="consider natural=peak for the most distinct mountains in the district" />
		<tag k="name" v="Storhøgda" />
		<tag k="natural" v="hill" />
		<tag k="place" v="locality" />
		<tag k="ssr:stedsnr" v="437904" />
	</node>
	<node lat="62.944691662314334" lon="11.065766672584974" id="-40476">
		<tag k="name" v="Bakkan" />
		<tag k="natural" v="slope" />
		<tag k="place" v="locality" />
		<tag k="ssr:stedsnr" v="463775" />
	</node>
	<node lat="62.92701944763399" lon="11.20636945072863" id="-40478">
		<tag k="alt_name" v="Svenslia" />
		<tag k="name" v="Svendslia" />
		<tag k="natural" v="slope" />
		<tag k="place" v="locality" />
		<tag k="ssr:stedsnr" v="470261" />
	</node>
	<node lat="62.95683889185676" lon="11.110602781893167" id="-40479">
		<tag k="name" v="Skreddalan" />
		<tag k="natural" v="valley" />
		<tag k="old_name" v="Skreddal'an" />
		<tag k="place" v="locality" />
		<tag k="ssr:stedsnr" v="470272" />
	</node>
	<node lat="62.814727778820924" lon="11.171694450466944" id="-40484">
		<tag k="name" v="Vårhuskjølen" />
		<tag k="natural" v="hill" />
		<tag k="place" v="locality" />
		<tag k="ssr:stedsnr" v="470678" />
	</node>
	<node lat="62.96079999952302" lon="11.23051945096811" id="-40492">
		<tag k="name" v="Håggågjardet" />
		<tag k="place" v="locality" />
		<tag k="ssr:stedsnr" v="471166" />
	</node>
	<node lat="62.8152638906616" lon="11.209925003300043" id="-40494">
		<tag k="name" v="Kvernbekkdalen" />
		<tag k="natural" v="valley" />
		<tag k="place" v="locality" />
		<tag k="ssr:stedsnr" v="471402" />
	</node>
	<node lat="62.86270555229555" lon="11.138330554039454" id="-40499">
		<tag k="name" v="Stordalen" />
		<tag k="natural" v="valley" />
		<tag k="place" v="locality" />
		<tag k="ssr:stedsnr" v="471375" />
	</node>
	<node lat="62.94975000375764" lon="11.06933334299393" id="-40500">
		<tag k="fixme" v="consider natural=peak for the most distinct mountains in the district" />
		<tag k="name" v="Haugaåsen" />
		<tag k="natural" v="hill" />
		<tag k="place" v="locality" />
		<tag k="ssr:stedsnr" v="471512" />
	</node>
	<node lat="62.94390555437958" lon="11.074916659414258" id="-40501">
		<tag k="fixme" v="consider natural=peak for the most distinct mountains in the district" />
		<tag k="name" v="Gjetåsen" />
		<tag k="natural" v="hill" />
		<tag k="place" v="locality" />
		<tag k="ssr:stedsnr" v="471524" />
	</node>
	<node lat="62.9611027773189" lon="11.052350009339387" id="-40503">
		<tag k="name" v="Storaundalen" />
		<tag k="natural" v="valley" />
		<tag k="place" v="locality" />
		<tag k="ssr:stedsnr" v="471574" />
	</node>
	<node lat="63.03493889017449" lon="11.02560278659549" id="-40521">
		<tag k="fixme" v="consider natural=peak for the most distinct mountains in the district" />
		<tag k="name" v="Turen" />
		<tag k="natural" v="hill" />
		<tag k="place" v="locality" />
		<tag k="ssr:stedsnr" v="679149" />
	</node>
	<node lat="62.6754000018242" lon="11.127152770522267" id="-40522">
		<tag k="name" v="Gruvhøgda" />
		<tag k="natural" v="hill" />
		<tag k="place" v="locality" />
		<tag k="ssr:stedsnr" v="679199" />
	</node>
	<node lat="62.97283725941691" lon="11.210847438146246" id="-40525">
		<tag k="name" v="Seterkvolvet" />
		<tag k="natural" v="valley" />
		<tag k="place" v="locality" />
		<tag k="ssr:stedsnr" v="679436" />
	</node>
	<node lat="62.97344722341791" lon="10.986230552485328" id="-40526">
		<tag k="fixme" v="consider natural=peak for the most distinct mountains in the district" />
		<tag k="name" v="Gammelbuåsen" />
		<tag k="natural" v="hill" />
		<tag k="place" v="locality" />
		<tag k="ssr:stedsnr" v="679439" />
	</node>
	<node lat="62.92274166923719" lon="11.504955556802658" id="-40539">
		<tag k="alt_name" v="Auspiken" />
		<tag k="fixme" v="consider natural=peak for the most distinct mountains in the district" />
		<tag k="name" v="Blåstøten" />
		<tag k="natural" v="hill" />
		<tag k="place" v="locality" />
		<tag k="ssr:stedsnr" v="680171" />
	</node>
	<node lat="62.871166668132645" lon="11.257824994642652" id="-40541">
		<tag k="fixme" v="consider natural=peak for the most distinct mountains in the district" />
		<tag k="name" v="Ålmannfjellet" />
		<tag k="natural" v="hill" />
		<tag k="place" v="locality" />
		<tag k="ssr:stedsnr" v="680188" />
	</node>
	<node lat="62.93380833267383" lon="10.993424998205533" id="-40549">
		<tag k="fixme" v="consider natural=peak for the most distinct mountains in the district" />
		<tag k="name" v="Toråsen" />
		<tag k="natural" v="hill" />
		<tag k="place" v="locality" />
		<tag k="ssr:stedsnr" v="680468" />
	</node>
	<node lat="62.7972333357439" lon="11.081452774453242" id="-40558">
		<tag k="name" v="Båttjønndalen" />
		<tag k="natural" v="valley" />
		<tag k="place" v="locality" />
		<tag k="ssr:stedsnr" v="497009" />
	</node>
	<node lat="62.8947277808059" lon="11.0955416710067" id="-40561">
		<tag k="fixme" v="consider natural=peak for the most distinct mountains in the district" />
		<tag k="name" v="Hofjellet" />
		<tag k="natural" v="hill" />
		<tag k="place" v="locality" />
		<tag k="ssr:stedsnr" v="497098" />
	</node>
	<node lat="62.989586109016024" lon="11.255688894258702" id="-40562">
		<tag k="fixme" v="consider natural=peak for the most distinct mountains in the district" />
		<tag k="name" v="Blåstøten" />
		<tag k="natural" v="hill" />
		<tag k="place" v="locality" />
		<tag k="ssr:stedsnr" v="497204" />
	</node>
	<node lat="62.76909286589803" lon="11.178949875478652" id="-40565">
		<tag k="name" v="Kjerkvollen" />
		<tag k="place" v="locality" />
		<tag k="ssr:stedsnr" v="497215" />
	</node>
	<node lat="62.81558888582929" lon="11.027033335480585" id="-40572">
		<tag k="fixme" v="consider natural=peak for the most distinct mountains in the district" />
		<tag k="name" v="Båggån" />
		<tag k="natural" v="hill" />
		<tag k="place" v="locality" />
		<tag k="ssr:stedsnr" v="498052" />
	</node>
	<node lat="62.98312500082663" lon="11.205527782377203" id="-40573">
		<tag k="fixme" v="consider natural=peak for the most distinct mountains in the district" />
		<tag k="name" v="Tverråfjellet" />
		<tag k="natural" v="hill" />
		<tag k="place" v="locality" />
		<tag k="ssr:stedsnr" v="498554" />
	</node>
	<node lat="62.92062222046147" lon="11.005536103339466" id="-40577">
		<tag k="fixme" v="consider natural=peak for the most distinct mountains in the district" />
		<tag k="name" v="Flatåsen" />
		<tag k="natural" v="hill" />
		<tag k="place" v="locality" />
		<tag k="ssr:stedsnr" v="505321" />
	</node>
	<node lat="62.83647499879238" lon="11.426999993656915" id="-40578">
		<tag k="name" v="Folldalen" />
		<tag k="natural" v="valley" />
		<tag k="place" v="locality" />
		<tag k="ssr:stedsnr" v="506406" />
	</node>
	<node lat="62.803183331194305" lon="11.359591659752754" id="-40585">
		<tag k="name" v="Nesset" />
		<tag k="natural" v="slope" />
		<tag k="place" v="locality" />
		<tag k="ssr:stedsnr" v="531119" />
	</node>
	<node lat="62.89699999577673" lon="11.15134721768396" id="-40590">
		<tag k="fixme" v="consider natural=peak for the most distinct mountains in the district" />
		<tag k="name" v="Matåsen" />
		<tag k="natural" v="hill" />
		<tag k="place" v="locality" />
		<tag k="ssr:stedsnr" v="531402" />
	</node>
	<node lat="62.862344442561835" lon="11.149891659090367" id="-40595">
		<tag k="name" v="Tytbakken" />
		<tag k="natural" v="slope" />
		<tag k="place" v="locality" />
		<tag k="ssr:stedsnr" v="531442" />
	</node>
	<node lat="62.91494444499446" lon="11.207980551757725" id="-40596">
		<tag k="name" v="Grøtslia" />
		<tag k="natural" v="slope" />
		<tag k="place" v="locality" />
		<tag k="ssr:stedsnr" v="531304" />
	</node>
	<node lat="62.9342694429095" lon="11.04843610982689" id="-40603">
		<tag k="name" v="Vakkerdalen" />
		<tag k="natural" v="valley" />
		<tag k="place" v="locality" />
		<tag k="ssr:stedsnr" v="531582" />
	</node>
	<node lat="62.967050001564736" lon="11.026366659809607" id="-40606">
		<tag k="name" v="Dragåsvollhaugen" />
		<tag k="natural" v="hill" />
		<tag k="place" v="locality" />
		<tag k="ssr:stedsnr" v="531594" />
	</node>
	<node lat="63.03157777464568" lon="11.073463897435627" id="-40615">
		<tag k="name" v="Høglia" />
		<tag k="natural" v="slope" />
		<tag k="place" v="locality" />
		<tag k="ssr:stedsnr" v="688339" />
	</node>
	<node lat="62.96033888636945" lon="11.378088886843496" id="-40620">
		<tag k="name" v="Litjgrohøgda" />
		<tag k="natural" v="hill" />
		<tag k="place" v="locality" />
		<tag k="ssr:stedsnr" v="688687" />
	</node>
	<node lat="62.71582500378693" lon="11.292086116263468" id="-40621">
		<tag k="name" v="Måssådalen" />
		<tag k="natural" v="valley" />
		<tag k="place" v="locality" />
		<tag k="ssr:stedsnr" v="688825" />
	</node>
	<node lat="62.89607777825523" lon="11.147711108397026" id="-40622">
		<tag k="fixme" v="consider natural=peak for the most distinct mountains in the district" />
		<tag k="name" v="Brattåsan" />
		<tag k="natural" v="hill" />
		<tag k="place" v="locality" />
		<tag k="ssr:stedsnr" v="557367" />
	</node>
	<node lat="62.92416110966173" lon="11.214452769901579" id="-40646">
		<tag k="alt_name" v="Nordreliene" />
		<tag k="name" v="Nord-Lian" />
		<tag k="natural" v="slope" />
		<tag k="place" v="locality" />
		<tag k="ssr:stedsnr" v="591260" />
	</node>
	<node lat="62.774677780135264" lon="11.418316657738766" id="-40652">
		<tag k="name" v="Killingbakken" />
		<tag k="natural" v="slope" />
		<tag k="place" v="locality" />
		<tag k="ssr:stedsnr" v="592153" />
	</node>
	<node lat="62.78550832990612" lon="11.376588894280474" id="-40654">
		<tag k="name" v="Svartberget" />
		<tag k="natural" v="hill" />
		<tag k="place" v="locality" />
		<tag k="ssr:stedsnr" v="592260" />
	</node>
	<node lat="62.95183055146701" lon="11.06563888842935" id="-40659">
		<tag k="name" v="Kolhogstret" />
		<tag k="natural" v="valley" />
		<tag k="place" v="locality" />
		<tag k="ssr:stedsnr" v="592568" />
	</node>
	<node lat="62.94601389273375" lon="11.078841673038433" id="-40660">
		<tag k="name" v="Brenthogstret" />
		<tag k="place" v="locality" />
		<tag k="ssr:stedsnr" v="592570" />
	</node>
	<node lat="62.88831389092389" lon="10.957716670423563" id="-40671">
		<tag k="fixme" v="consider natural=peak for the most distinct mountains in the district" />
		<tag k="name" v="Korsfonnkneppen" />
		<tag k="natural" v="hill" />
		<tag k="place" v="locality" />
		<tag k="ssr:stedsnr" v="618089" />
	</node>
	<node lat="62.6971888845474" lon="11.13606666844632" id="-40672">
		<tag k="name" v="Hessjøhøgda" />
		<tag k="natural" v="hill" />
		<tag k="place" v="locality" />
		<tag k="ssr:stedsnr" v="618208" />
	</node>
	<node lat="62.88210278163098" lon="11.35765554677993" id="-40675">
		<tag k="fixme" v="consider natural=peak for the most distinct mountains in the district" />
		<tag k="name" v="Botnhamran" />
		<tag k="natural" v="hill" />
		<tag k="place" v="locality" />
		<tag k="ssr:stedsnr" v="619208" />
	</node>
	<node lat="62.97646111422627" lon="11.259099991833754" id="-40677">
		<tag k="fixme" v="consider natural=peak for the most distinct mountains in the district" />
		<tag k="name" v="Litjbukkhåmmåren" />
		<tag k="natural" v="hill" />
		<tag k="place" v="locality" />
		<tag k="ssr:stedsnr" v="619272" />
	</node>
	<node lat="62.92248333708061" lon="11.154077768922443" id="-40686">
		<tag k="name" v="Elvebakken" />
		<tag k="place" v="locality" />
		<tag k="ssr:stedsnr" v="652236" />
	</node>
	<node lat="62.942547219913436" lon="11.133344438036072" id="-40687">
		<tag k="fixme" v="consider natural=peak for the most distinct mountains in the district" />
		<tag k="name" v="Gladvollåsen" />
		<tag k="natural" v="hill" />
		<tag k="place" v="locality" />
		<tag k="ssr:stedsnr" v="652415" />
	</node>
	<node lat="62.795861112239784" lon="11.386361118764" id="-40692">
		<tag k="name" v="Blæsterslættet" />
		<tag k="place" v="locality" />
		<tag k="ssr:stedsnr" v="653108" />
	</node>
	<node lat="62.85580833402464" lon="11.366427776072214" id="-40694">
		<tag k="name" v="Rensjølia" />
		<tag k="natural" v="slope" />
		<tag k="place" v="locality" />
		<tag k="ssr:stedsnr" v="653217" />
	</node>
	<node lat="62.78542222342869" lon="11.200222213015053" id="-40695">
		<tag k="name" v="Rognsålia" />
		<tag k="natural" v="slope" />
		<tag k="place" v="locality" />
		<tag k="ssr:stedsnr" v="653418" />
	</node>
	<node lat="62.72751111192776" lon="11.170838881695905" id="-40700">
		<tag k="name" v="Lomtjønnåsen" />
		<tag k="natural" v="cliff" />
		<tag k="ssr:stedsnr" v="653636" />
	</node>
	<node lat="62.72308610731229" lon="11.171747222373387" id="-40701">
		<tag k="name" v="Hessjølia" />
		<tag k="natural" v="slope" />
		<tag k="place" v="locality" />
		<tag k="ssr:stedsnr" v="653637" />
	</node>
	<node lat="62.70746388674574" lon="11.140033334944658" id="-40702">
		<tag k="name" v="Vinterskardet" />
		<tag k="natural" v="valley" />
		<tag k="place" v="locality" />
		<tag k="ssr:stedsnr" v="653645" />
	</node>
	<node lat="62.95242499893903" lon="11.156666666499966" id="-40714">
		<tag k="name" v="Kvammen" />
		<tag k="natural" v="slope" />
		<tag k="place" v="locality" />
		<tag k="ssr:stedsnr" v="895437" />
	</node>
	<node lat="62.8175749969364" lon="11.341075009144632" id="-40720">
		<tag k="name" v="Øyan" />
		<tag k="place" v="locality" />
		<tag k="ssr:stedsnr" v="895237" />
	</node>
	<node lat="62.970347224694684" lon="11.217772215672996" id="-40721">
		<tag k="fixme" v="consider natural=peak for the most distinct mountains in the district" />
		<tag k="name" v="Langslåttåsen" />
		<tag k="natural" v="hill" />
		<tag k="place" v="locality" />
		<tag k="ssr:stedsnr" v="895291" />
	</node>
	<node lat="62.953649999000945" lon="11.146497229143069" id="-40722">
		<tag k="name" v="Nerdalen" />
		<tag k="natural" v="valley" />
		<tag k="place" v="locality" />
		<tag k="ssr:stedsnr" v="895439" />
	</node>
	<node lat="62.72789444847994" lon="11.015866667770464" id="-40725">
		<tag k="name" v="Elgsjølia" />
		<tag k="natural" v="slope" />
		<tag k="place" v="locality" />
		<tag k="ssr:stedsnr" v="895641" />
	</node>
	<node lat="62.96073333492564" lon="11.279533325833484" id="-40734">
		<tag k="name" v="Langkåsen" />
		<tag k="natural" v="slope" />
		<tag k="place" v="locality" />
		<tag k="ssr:stedsnr" v="896144" />
	</node>
	<node lat="62.88510277610009" lon="11.25975833376229" id="-40742">
		<tag k="fixme" v="consider natural=peak for the most distinct mountains in the district" />
		<tag k="name" v="Lermela" />
		<tag k="natural" v="hill" />
		<tag k="place" v="locality" />
		<tag k="ssr:stedsnr" v="896384" />
	</node>
	<node lat="62.907266664419296" lon="11.122016671012119" id="-40745">
		<tag k="name" v="Svartberget" />
		<tag k="natural" v="hill" />
		<tag k="place" v="locality" />
		<tag k="ssr:stedsnr" v="896421" />
	</node>
	<node lat="62.91215832910587" lon="11.06896666109464" id="-40747">
		<tag k="name" v="Småslåttbakken" />
		<tag k="natural" v="slope" />
		<tag k="place" v="locality" />
		<tag k="ssr:stedsnr" v="896594" />
	</node>
	<node lat="62.96415833651679" lon="10.986975005633788" id="-40748">
		<tag k="name" v="Vedhogstret" />
		<tag k="natural" v="slope" />
		<tag k="place" v="locality" />
		<tag k="ssr:stedsnr" v="896598" />
	</node>
	<node lat="62.696716666223914" lon="11.160605553781267" id="-40753">
		<tag k="name" v="Ryhaugen" />
		<tag k="natural" v="hill" />
		<tag k="place" v="locality" />
		<tag k="ssr:stedsnr" v="896696" />
	</node>
	<node lat="62.73482777426933" lon="11.01272776946218" id="-40762">
		<tag k="name" v="Litjlaua" />
		<tag k="natural" v="slope" />
		<tag k="place" v="locality" />
		<tag k="ssr:stedsnr" v="713704" />
	</node>
	<node lat="62.79654166391126" lon="11.345475007723756" id="-40769">
		<tag k="name" v="Styggdalen" />
		<tag k="natural" v="valley" />
		<tag k="place" v="locality" />
		<tag k="ssr:stedsnr" v="714103" />
	</node>
	<node lat="62.96387777739029" lon="11.24781944547024" id="-40771">
		<tag k="name" v="Nordaunlia" />
		<tag k="natural" v="slope" />
		<tag k="place" v="locality" />
		<tag k="ssr:stedsnr" v="714127" />
	</node>
	<node lat="62.86033610901257" lon="11.301180559816789" id="-40772">
		<tag k="name" v="Litlsvenuken" />
		<tag k="natural" v="hill" />
		<tag k="place" v="locality" />
		<tag k="ssr:stedsnr" v="714235" />
	</node>
	<node lat="62.948430554591376" lon="11.295250008071891" id="-40775">
		<tag k="alt_name" v="Litjå-dalen" />
		<tag k="name" v="Litlådalen" />
		<tag k="natural" v="valley" />
		<tag k="place" v="locality" />
		<tag k="ssr:stedsnr" v="714287" />
	</node>
	<node lat="62.95118055528583" lon="11.301597215655825" id="-40776">
		<tag k="name" v="Namnberget" />
		<tag k="natural" v="hill" />
		<tag k="place" v="locality" />
		<tag k="ssr:stedsnr" v="714292" />
	</node>
	<node lat="62.85474166514182" lon="11.37795000400584" id="-40778">
		<tag k="fixme" v="consider natural=peak for the most distinct mountains in the district" />
		<tag k="name" v="Veråsen" />
		<tag k="natural" v="hill" />
		<tag k="place" v="locality" />
		<tag k="ssr:stedsnr" v="714193" />
	</node>
	<node lat="62.94839722585709" lon="11.049930553626519" id="-40782">
		<tag k="fixme" v="consider natural=peak for the most distinct mountains in the district" />
		<tag k="name" v="Åsbrenna" />
		<tag k="natural" v="hill" />
		<tag k="place" v="locality" />
		<tag k="ssr:stedsnr" v="714478" />
	</node>
	<node lat="62.71188333787001" lon="11.17380555081407" id="-40784">
		<tag k="name" v="Svartåsen" />
		<tag k="natural" v="cliff" />
		<tag k="ssr:stedsnr" v="714591" />
	</node>
	<node lat="62.70799444344246" lon="11.163388888677247" id="-40785">
		<tag k="name" v="Ludvighaugan" />
		<tag k="natural" v="hill" />
		<tag k="place" v="locality" />
		<tag k="ssr:stedsnr" v="714592" />
	</node>
	<node lat="62.82401377282851" lon="11.218977998738707" id="-40799">
		<tag k="fixme" v="consider natural=peak for the most distinct mountains in the district" />
		<tag k="name" v="Rogne" />
		<tag k="natural" v="hill" />
		<tag k="place" v="locality" />
		<tag k="ssr:stedsnr" v="740029" />
	</node>
	<node lat="62.88170116040363" lon="11.177489608267827" id="-40800">
		<tag k="name" v="Svølgja" />
		<tag k="natural" v="valley" />
		<tag k="old_name" v="Svelgen" />
		<tag k="place" v="locality" />
		<tag k="ssr:stedsnr" v="740105" />
	</node>
	<node lat="62.825297224195396" lon="11.485999998736457" id="-40831">
		<tag k="fixme" v="consider natural=peak for the most distinct mountains in the district" />
		<tag k="name" v="Unsgardsåsen" />
		<tag k="natural" v="hill" />
		<tag k="place" v="locality" />
		<tag k="ssr:stedsnr" v="774203" />
	</node>
	<node lat="62.818747220222555" lon="11.564483341195016" id="-40832">
		<tag k="name" v="Pellslættet" />
		<tag k="place" v="locality" />
		<tag k="ssr:stedsnr" v="774205" />
	</node>
	<node lat="62.90477500037722" lon="11.165127770023727" id="-40837">
		<tag k="name" v="Hamran" />
		<tag k="natural" v="slope" />
		<tag k="place" v="locality" />
		<tag k="ssr:stedsnr" v="774529" />
	</node>
	<node lat="62.878480553854466" lon="11.129752784503463" id="-40838">
		<tag k="name" v="Langdalen" />
		<tag k="natural" v="valley" />
		<tag k="place" v="locality" />
		<tag k="ssr:stedsnr" v="774553" />
	</node>
	<node lat="62.94573610938562" lon="11.044424991920229" id="-40839">
		<tag k="fixme" v="consider natural=peak for the most distinct mountains in the district" />
		<tag k="name" v="Kvernmoåsen" />
		<tag k="natural" v="hill" />
		<tag k="place" v="locality" />
		<tag k="ssr:stedsnr" v="774572" />
	</node>
	<node lat="62.777627779949796" lon="11.10129166521284" id="-40857">
		<tag k="name" v="Synnertjønndalen" />
		<tag k="natural" v="valley" />
		<tag k="place" v="locality" />
		<tag k="ssr:stedsnr" v="801024" />
	</node>
	<node lat="62.95550000139335" lon="11.399124991323449" id="-40865">
		<tag k="fixme" v="consider natural=peak for the most distinct mountains in the district" />
		<tag k="name" v="Midtikneppen" />
		<tag k="natural" v="hill" />
		<tag k="place" v="locality" />
		<tag k="ssr:stedsnr" v="801186" />
	</node>
	<node lat="62.90361666448017" lon="11.004602773718071" id="-40867">
		<tag k="name" v="Fjellvollia" />
		<tag k="natural" v="slope" />
		<tag k="place" v="locality" />
		<tag k="ssr:stedsnr" v="801374" />
	</node>
	<node lat="62.90398055260864" lon="10.978136110615608" id="-40868">
		<tag k="alt_name" v="Synnerskarvan" />
		<tag k="fixme" v="consider natural=peak for the most distinct mountains in the district" />
		<tag k="name" v="Søreskarvan" />
		<tag k="natural" v="hill" />
		<tag k="place" v="locality" />
		<tag k="ssr:stedsnr" v="801376" />
	</node>
	<node lat="62.78959166451702" lon="11.655008334654255" id="-40877">
		<tag k="name" v="Torberdalen" />
		<tag k="natural" v="valley" />
		<tag k="place" v="locality" />
		<tag k="ssr:stedsnr" v="801911" />
	</node>
	<node lat="62.78998333371693" lon="11.55436944264528" id="-40879">
		<tag k="fixme" v="consider natural=peak for the most distinct mountains in the district" />
		<tag k="name" v="Skarvskaftet" />
		<tag k="natural" v="hill" />
		<tag k="place" v="locality" />
		<tag k="ssr:stedsnr" v="801914" />
	</node>
	<node lat="62.7904638865107" lon="11.596677780374252" id="-40881">
		<tag k="fixme" v="consider natural=peak for the most distinct mountains in the district" />
		<tag k="name" v="Nersjøskarven - Jorpetjahke" />
		<tag k="name:no" v="Nersjøskarven" />
		<tag k="name:sma" v="Jorpetjahke" />
		<tag k="natural" v="hill" />
		<tag k="place" v="locality" />
		<tag k="ssr:stedsnr" v="801917" />
	</node>
	<node lat="62.826450003697985" lon="11.287288888457184" id="-40884">
		<tag k="fixme" v="consider natural=peak for the most distinct mountains in the district" />
		<tag k="name" v="Jerpåsen" />
		<tag k="natural" v="hill" />
		<tag k="place" v="locality" />
		<tag k="ssr:stedsnr" v="801877" />
	</node>
	<node lat="63.011205553007" lon="11.115486104872087" id="-40888">
		<tag k="name" v="Sandbangan" />
		<tag k="natural" v="ridge" />
		<tag k="place" v="locality" />
		<tag k="ssr:stedsnr" v="810315" />
	</node>
	<node lat="62.97003055891112" lon="11.122463895009457" id="-40903">
		<tag k="name" v="Litjhøgda" />
		<tag k="natural" v="hill" />
		<tag k="place" v="locality" />
		<tag k="ssr:stedsnr" v="922436" />
	</node>
	<node lat="62.75968889114713" lon="11.4357833241014" id="-40904">
		<tag k="name" v="Killingdalskjerka" />
		<tag k="natural" v="valley" />
		<tag k="place" v="locality" />
		<tag k="ssr:stedsnr" v="922663" />
	</node>
	<node lat="62.819891668123574" lon="11.171677776611277" id="-40907">
		<tag k="name" v="Vårhuskjølen" />
		<tag k="natural" v="hill" />
		<tag k="place" v="locality" />
		<tag k="ssr:stedsnr" v="923063" />
	</node>
	<node lat="62.839263889387176" lon="11.563577782182689" id="-40921">
		<tag k="fixme" v="consider natural=peak for the most distinct mountains in the district" />
		<tag k="name" v="Gauldalsgruvhøgda" />
		<tag k="natural" v="hill" />
		<tag k="place" v="locality" />
		<tag k="ssr:stedsnr" v="923897" />
	</node>
	<node lat="62.95816388600408" lon="11.273355559421795" id="-40925">
		<tag k="name" v="Franshaugen" />
		<tag k="natural" v="hill" />
		<tag k="place" v="locality" />
		<tag k="ssr:stedsnr" v="835161" />
	</node>
	<node lat="62.782541666463466" lon="11.375336114799603" id="-40927">
		<tag k="fixme" v="consider natural=peak for the most distinct mountains in the district" />
		<tag k="name" v="Våttåsen" />
		<tag k="natural" v="hill" />
		<tag k="place" v="locality" />
		<tag k="ssr:stedsnr" v="923963" />
	</node>
	<node lat="62.93066944550904" lon="11.141813896827085" id="-40930">
		<tag k="name" v="Olderbakken" />
		<tag k="natural" v="slope" />
		<tag k="place" v="locality" />
		<tag k="ssr:stedsnr" v="835285" />
	</node>
	<node lat="62.975202774531894" lon="11.022863886239467" id="-40933">
		<tag k="name" v="Trenåtjønndalen" />
		<tag k="natural" v="valley" />
		<tag k="place" v="locality" />
		<tag k="ssr:stedsnr" v="835619" />
	</node>
	<node lat="62.971283333895116" lon="11.050819440632084" id="-40934">
		<tag k="name" v="Litjlia" />
		<tag k="natural" v="slope" />
		<tag k="place" v="locality" />
		<tag k="ssr:stedsnr" v="835635" />
	</node>
	<node lat="62.71638889154053" lon="11.159019446848003" id="-40935">
		<tag k="name" v="Andhaugen" />
		<tag k="natural" v="hill" />
		<tag k="old_name" v="Annehaugen" />
		<tag k="place" v="locality" />
		<tag k="ssr:stedsnr" v="835646" />
	</node>
	<node lat="62.90901389220776" lon="11.163638888641481" id="-40936">
		<tag k="name" v="Grøthamran" />
		<tag k="natural" v="slope" />
		<tag k="place" v="locality" />
		<tag k="ssr:stedsnr" v="835521" />
	</node>
	<node lat="62.90629722668445" lon="11.182638888459854" id="-40937">
		<tag k="name" v="Rønningsfætta" />
		<tag k="place" v="locality" />
		<tag k="ssr:stedsnr" v="835522" />
	</node>
	<node lat="62.96855833089445" lon="11.008208338018749" id="-40938">
		<tag k="name" v="Brannegga" />
		<tag k="natural" v="ridge" />
		<tag k="place" v="locality" />
		<tag k="ssr:stedsnr" v="835587" />
	</node>
	<node lat="62.924863889140255" lon="11.065591658234796" id="-40940">
		<tag k="name" v="Stenbakken" />
		<tag k="natural" v="slope" />
		<tag k="place" v="locality" />
		<tag k="ssr:stedsnr" v="835593" />
	</node>
	<node lat="62.73461944776477" lon="11.058138896108177" id="-40945">
		<tag k="name" v="Bråttet" />
		<tag k="natural" v="slope" />
		<tag k="place" v="locality" />
		<tag k="ssr:stedsnr" v="835733" />
	</node>
	<node lat="62.78060555504169" lon="11.04597222496055" id="-40952">
		<tag k="name" v="Tronget" />
		<tag k="natural" v="valley" />
		<tag k="place" v="locality" />
		<tag k="ssr:stedsnr" v="862019" />
	</node>
	<node lat="62.87979721873365" lon="11.239447219146738" id="-40954">
		<tag k="name" v="Ålbyggfjellet" />
		<tag k="natural" v="hill" />
		<tag k="place" v="locality" />
		<tag k="ssr:stedsnr" v="862208" />
	</node>
	<node lat="62.82691944707282" lon="11.570652784931795" id="-40963">
		<tag k="name" v="Pellslættdalen" />
		<tag k="natural" v="valley" />
		<tag k="place" v="locality" />
		<tag k="ssr:stedsnr" v="862884" />
	</node>
	<node lat="62.81939444053584" lon="11.266580547710282" id="-40967">
		<tag k="fixme" v="consider natural=peak for the most distinct mountains in the district" />
		<tag k="name" v="Katrenahøgda" />
		<tag k="natural" v="hill" />
		<tag k="place" v="locality" />
		<tag k="ssr:stedsnr" v="870411" />
	</node>
	<node lat="63.02171110992172" lon="11.072763890778708" id="-40970">
		<tag k="name" v="Trongdalen" />
		<tag k="natural" v="valley" />
		<tag k="place" v="locality" />
		<tag k="ssr:stedsnr" v="931341" />
	</node>
	<node lat="62.93645555644859" lon="11.129274996999209" id="-40979">
		<tag k="fixme" v="consider natural=peak for the most distinct mountains in the district" />
		<tag k="name" v="Høgste" />
		<tag k="natural" v="hill" />
		<tag k="place" v="locality" />
		<tag k="ssr:stedsnr" v="895426" />
	</node>
	<node lat="62.785083334136324" lon="11.352205561466775" id="-40980">
		<tag k="name" v="Storholet" />
		<tag k="natural" v="cliff" />
		<tag k="ssr:stedsnr" v="896111" />
	</node>
	<node lat="62.838611108951646" lon="11.435041662281655" id="-40983">
		<tag k="name" v="Folldalsbrottet" />
		<tag k="natural" v="slope" />
		<tag k="place" v="locality" />
		<tag k="ssr:stedsnr" v="896220" />
	</node>
	<node lat="62.74414722013452" lon="11.13307777373129" id="-40986">
		<tag k="name" v="Testadråen" />
		<tag k="natural" v="slope" />
		<tag k="place" v="locality" />
		<tag k="ssr:stedsnr" v="896667" />
	</node>
	<node lat="62.90005833106435" lon="11.379552787052813" id="-41000">
		<tag k="name" v="Tjønnlian" />
		<tag k="natural" v="slope" />
		<tag k="place" v="locality" />
		<tag k="ssr:stedsnr" v="909461" />
	</node>
	<node lat="62.837972218951606" lon="11.110549994772734" id="-41012">
		<tag k="name" v="Øggdalen" />
		<tag k="natural" v="valley" />
		<tag k="place" v="locality" />
		<tag k="ssr:stedsnr" v="923106" />
	</node>
	<node lat="62.922994448440434" lon="11.239374993186187" id="-41015">
		<tag k="fixme" v="consider natural=peak for the most distinct mountains in the district" />
		<tag k="name" v="Vollfjellet" />
		<tag k="natural" v="hill" />
		<tag k="place" v="locality" />
		<tag k="ssr:stedsnr" v="923207" />
	</node>
	<node lat="62.87294444120569" lon="11.762050000942594" id="-41024">
		<tag k="name" v="Rovpe" />
		<tag k="name:sma" v="Rovpe" />
		<tag k="natural" v="hill" />
		<tag k="place" v="locality" />
		<tag k="ssr:stedsnr" v="923807" />
	</node>
	<node lat="62.97185278178062" lon="11.256249991067405" id="-41029">
		<tag k="fixme" v="consider natural=peak for the most distinct mountains in the district" />
		<tag k="name" v="Limstenhøgda" />
		<tag k="natural" v="hill" />
		<tag k="place" v="locality" />
		<tag k="ssr:stedsnr" v="931705" />
	</node>
	<node lat="62.74112499939394" lon="11.147080561152581" id="-41033">
		<tag k="name" v="Løbergsåsen" />
		<tag k="natural" v="cliff" />
		<tag k="ssr:stedsnr" v="228754" />
	</node>
	<node lat="62.930294448421556" lon="11.365052774880104" id="-41039">
		<tag k="name" v="Råin" />
		<tag k="natural" v="slope" />
		<tag k="place" v="locality" />
		<tag k="ssr:stedsnr" v="956229" />
	</node>
	<node lat="62.78563888775018" lon="11.45421388916379" id="-41040">
		<tag k="fixme" v="consider natural=peak for the most distinct mountains in the district" />
		<tag k="name" v="Svartåsen" />
		<tag k="natural" v="hill" />
		<tag k="place" v="locality" />
		<tag k="ssr:stedsnr" v="956261" />
	</node>
	<node lat="62.83717222554311" lon="11.220572212663908" id="-41041">
		<tag k="name" v="Hessdalslia" />
		<tag k="natural" v="slope" />
		<tag k="place" v="locality" />
		<tag k="ssr:stedsnr" v="956298" />
	</node>
	<node lat="62.85498888820082" lon="11.187433333146908" id="-41042">
		<tag k="fixme" v="consider natural=peak for the most distinct mountains in the district" />
		<tag k="name" v="Åsan" />
		<tag k="natural" v="hill" />
		<tag k="place" v="locality" />
		<tag k="ssr:stedsnr" v="956407" />
	</node>
	<node lat="62.768994444203166" lon="11.041222229675457" id="-41049">
		<tag k="name" v="Åsbardsmoen" />
		<tag k="place" v="locality" />
		<tag k="ssr:stedsnr" v="956726" />
	</node>
	<node lat="62.96111944744859" lon="11.033874991502516" id="-41050">
		<tag k="name" v="Dalan" />
		<tag k="natural" v="valley" />
		<tag k="place" v="locality" />
		<tag k="ssr:stedsnr" v="956630" />
	</node>
	<node lat="62.781836115219164" lon="11.191058328087054" id="-41055">
		<tag k="fixme" v="consider natural=peak for the most distinct mountains in the district" />
		<tag k="name" v="Rognså-åsen" />
		<tag k="natural" v="hill" />
		<tag k="place" v="locality" />
		<tag k="ssr:stedsnr" v="956656" />
	</node>
	<node lat="62.68653332909618" lon="11.03257500343285" id="-41066">
		<tag k="name" v="Tverrhøgdan" />
		<tag k="natural" v="hill" />
		<tag k="place" v="locality" />
		<tag k="ssr:stedsnr" v="11224" />
	</node>
	<node lat="62.69525000274992" lon="10.983175000637363" id="-41071">
		<tag k="fixme" v="consider natural=peak for the most distinct mountains in the district" />
		<tag k="name" v="Åslitangen" />
		<tag k="natural" v="hill" />
		<tag k="place" v="locality" />
		<tag k="ssr:stedsnr" v="11237" />
	</node>
	<node lat="62.85031111041267" lon="11.04211389220451" id="-41077">
		<tag k="name" v="Mannhøgda" />
		<tag k="natural" v="hill" />
		<tag k="place" v="locality" />
		<tag k="ssr:stedsnr" v="12093" />
	</node>
	<node lat="62.87295833709928" lon="11.58642500493315" id="-41083">
		<tag k="name" v="Kjølifjellet - Gåebrie" />
		<tag k="name:no" v="Kjølifjellet" />
		<tag k="name:sma" v="Gåebrie" />
		<tag k="natural" v="mountain_range" />
		<tag k="ssr:stedsnr" v="12147" />
	</node>
	<node lat="62.86033055921611" lon="11.30118332957347" id="-41084">
		<tag k="name" v="Litjsvenuken" />
		<tag k="natural" v="hill" />
		<tag k="place" v="locality" />
		<tag k="ssr:stedsnr" v="12152" />
	</node>
	<node lat="62.926125000443385" lon="11.40280555165117" id="-41086">
		<tag k="name" v="Tronget" />
		<tag k="natural" v="valley" />
		<tag k="place" v="locality" />
		<tag k="ssr:stedsnr" v="12162" />
	</node>
	<node lat="62.96743888954983" lon="10.977191664439697" id="-41089">
		<tag k="name" v="Brannen" />
		<tag k="natural" v="slope" />
		<tag k="place" v="locality" />
		<tag k="ssr:stedsnr" v="12463" />
	</node>
	<node lat="62.93311110664815" lon="10.958486113807002" id="-41090">
		<tag k="name" v="Kvernmopiken" />
		<tag k="natural" v="hill" />
		<tag k="place" v="locality" />
		<tag k="ssr:stedsnr" v="12403" />
	</node>
	<node lat="62.94852499956415" lon="10.990838879102178" id="-41093">
		<tag k="name" v="Nesvolldalen" />
		<tag k="natural" v="valley" />
		<tag k="place" v="locality" />
		<tag k="ssr:stedsnr" v="12410" />
	</node>
	<node lat="62.79380833546165" lon="11.317863888598543" id="-41112">
		<tag k="name" v="Tverrdalen" />
		<tag k="natural" v="valley" />
		<tag k="place" v="locality" />
		<tag k="ssr:stedsnr" v="45255" />
	</node>
	<node lat="62.91369166423173" lon="11.147944434916333" id="-41118">
		<tag k="fixme" v="consider natural=peak for the most distinct mountains in the district" />
		<tag k="name" v="Løvåsen" />
		<tag k="natural" v="hill" />
		<tag k="place" v="locality" />
		<tag k="ssr:stedsnr" v="45469" />
	</node>
	<node lat="62.81702499644225" lon="11.453738893420924" id="-41119">
		<tag k="name" v="Hånoret" />
		<tag k="place" v="locality" />
		<tag k="ssr:stedsnr" v="45646" />
	</node>
	<node lat="62.826558329867794" lon="11.62346666058714" id="-41126">
		<tag k="name" v="Tohaugan" />
		<tag k="natural" v="hill" />
		<tag k="place" v="locality" />
		<tag k="ssr:stedsnr" v="46193" />
	</node>
	<node lat="62.841991665885416" lon="11.164044448316911" id="-41133">
		<tag k="name" v="Tytinghaugen" />
		<tag k="natural" v="hill" />
		<tag k="place" v="locality" />
		<tag k="ssr:stedsnr" v="46426" />
	</node>
	<node lat="62.78296111133523" lon="11.452913889918975" id="-41134">
		<tag k="name" v="Storbekkøyan" />
		<tag k="place" v="locality" />
		<tag k="ssr:stedsnr" v="46252" />
	</node>
	<node lat="62.95018889105627" lon="11.330044441271754" id="-41136">
		<tag k="name" v="Hansflobrøttet" />
		<tag k="natural" v="slope" />
		<tag k="place" v="locality" />
		<tag k="ssr:stedsnr" v="46349" />
	</node>
	<node lat="62.83127777638085" lon="11.296369449112941" id="-41137">
		<tag k="name" v="Storegga" />
		<tag k="natural" v="ridge" />
		<tag k="place" v="locality" />
		<tag k="ssr:stedsnr" v="46360" />
	</node>
	<node lat="62.880172225649225" lon="11.206324996388314" id="-41139">
		<tag k="name" v="Drøylia" />
		<tag k="natural" v="slope" />
		<tag k="place" v="locality" />
		<tag k="ssr:stedsnr" v="46530" />
	</node>
	<node lat="62.806966663405476" lon="11.151461112465483" id="-41140">
		<tag k="name" v="Rundhaugen" />
		<tag k="natural" v="hill" />
		<tag k="place" v="locality" />
		<tag k="ssr:stedsnr" v="46449" />
	</node>
	<node lat="62.95006666356085" lon="11.080716665388774" id="-41147">
		<tag k="fixme" v="consider natural=peak for the most distinct mountains in the district" />
		<tag k="name" v="Refsåsen" />
		<tag k="natural" v="hill" />
		<tag k="place" v="locality" />
		<tag k="ssr:stedsnr" v="46550" />
	</node>
	<node lat="62.95318055549471" lon="11.060744434995494" id="-41148">
		<tag k="fixme" v="consider natural=peak for the most distinct mountains in the district" />
		<tag k="name" v="Brunnmyråsen" />
		<tag k="natural" v="hill" />
		<tag k="place" v="locality" />
		<tag k="ssr:stedsnr" v="46557" />
	</node>
	<node lat="62.93534368604794" lon="11.019786838525127" id="-41154">
		<tag k="fixme" v="consider natural=peak for the most distinct mountains in the district" />
		<tag k="name" v="Svartåsen" />
		<tag k="natural" v="hill" />
		<tag k="old_name" v="Svartås'ann" />
		<tag k="place" v="locality" />
		<tag k="ssr:stedsnr" v="46761" />
	</node>
	<node lat="62.831500003636776" lon="11.156924999107673" id="-41160">
		<tag k="name" v="Kvennlia" />
		<tag k="natural" v="slope" />
		<tag k="place" v="locality" />
		<tag k="ssr:stedsnr" v="73047" />
	</node>
	<node lat="62.721583331471216" lon="11.098877773888233" id="-41163">
		<tag k="name" v="Morkavollhøgda" />
		<tag k="natural" v="hill" />
		<tag k="place" v="locality" />
		<tag k="ssr:stedsnr" v="72029" />
	</node>
	<node lat="62.946852780499746" lon="11.44869166562759" id="-41169">
		<tag k="fixme" v="consider natural=peak for the most distinct mountains in the district" />
		<tag k="name" v="Skjellåfjellet" />
		<tag k="natural" v="hill" />
		<tag k="place" v="locality" />
		<tag k="ssr:stedsnr" v="73184" />
	</node>
	<node lat="63.01336388960747" lon="11.018202773192456" id="-41171">
		<tag k="fixme" v="consider natural=peak for the most distinct mountains in the district" />
		<tag k="name" v="Vardpiken" />
		<tag k="natural" v="hill" />
		<tag k="place" v="locality" />
		<tag k="ssr:stedsnr" v="73198" />
	</node>
	<node lat="62.965197220526726" lon="10.954966668222792" id="-41175">
		<tag k="fixme" v="consider natural=peak for the most distinct mountains in the district" />
		<tag k="name" v="Elvåsen" />
		<tag k="natural" v="hill" />
		<tag k="place" v="locality" />
		<tag k="ssr:stedsnr" v="73489" />
	</node>
	<node lat="62.764833335916016" lon="11.415225000771656" id="-41193">
		<tag k="fixme" v="consider natural=peak for the most distinct mountains in the district" />
		<tag k="name" v="Killingdalskleppen" />
		<tag k="natural" v="hill" />
		<tag k="place" v="locality" />
		<tag k="ssr:stedsnr" v="81422" />
	</node>
	<node lat="63.01225000081286" lon="11.044430547471697" id="-41194">
		<tag k="name" v="Storbekkøyan" />
		<tag k="place" v="locality" />
		<tag k="ssr:stedsnr" v="81358" />
	</node>
	<node lat="62.840880551945205" lon="11.603650006814854" id="-41200">
		<tag k="name" v="Bekkøyan" />
		<tag k="place" v="locality" />
		<tag k="ssr:stedsnr" v="81705" />
	</node>
	<node lat="62.86927499974618" lon="11.466700006710852" id="-41201">
		<tag k="name" v="Stillbankan" />
		<tag k="natural" v="ridge" />
		<tag k="place" v="locality" />
		<tag k="ssr:stedsnr" v="81707" />
	</node>
	<node lat="62.7644305585677" lon="11.409011120723" id="-41205">
		<tag k="name" v="Rundhøgda" />
		<tag k="natural" v="hill" />
		<tag k="place" v="locality" />
		<tag k="ssr:stedsnr" v="107105" />
	</node>
	<node lat="62.9298555510612" lon="11.243075003667952" id="-41219">
		<tag k="name" v="Stenhaugen" />
		<tag k="natural" v="hill" />
		<tag k="place" v="locality" />
		<tag k="ssr:stedsnr" v="107145" />
	</node>
	<node lat="62.82300833554721" lon="11.640797224168706" id="-41221">
		<tag k="name" v="Pikhaugen" />
		<tag k="natural" v="hill" />
		<tag k="place" v="locality" />
		<tag k="ssr:stedsnr" v="107159" />
	</node>
	<node lat="62.845977777173786" lon="11.261438895321078" id="-41225">
		<tag k="name" v="Mosletta" />
		<tag k="place" v="locality" />
		<tag k="ssr:stedsnr" v="107264" />
	</node>
	<node lat="62.95801110713518" lon="11.039891670713565" id="-41233">
		<tag k="loc_name" v="Ysterbakkan" />
		<tag k="name" v="Synnerbakkan" />
		<tag k="natural" v="slope" />
		<tag k="old_name" v="Synnerbakk'ann" />
		<tag k="place" v="locality" />
		<tag k="ssr:stedsnr" v="107599" />
	</node>
	<node lat="62.689188889555666" lon="11.154536116713128" id="-41234">
		<tag k="name" v="Kjerringpiken" />
		<tag k="natural" v="hill" />
		<tag k="place" v="locality" />
		<tag k="ssr:stedsnr" v="107642" />
	</node>
	<node lat="62.9424972218884" lon="10.955877768514325" id="-41247">
		<tag k="name" v="Skoran" />
		<tag k="natural" v="valley" />
		<tag k="place" v="locality" />
		<tag k="ssr:stedsnr" v="133381" />
	</node>
	<node lat="62.94962777552268" lon="11.130050002560576" id="-41248">
		<tag k="name" v="Holddalen" />
		<tag k="natural" v="valley" />
		<tag k="place" v="locality" />
		<tag k="ssr:stedsnr" v="133388" />
	</node>
	<node lat="62.72301944624764" lon="11.193891659255726" id="-41249">
		<tag k="name" v="Kneppan" />
		<tag k="natural" v="hill" />
		<tag k="place" v="locality" />
		<tag k="ssr:stedsnr" v="132001" />
	</node>
	<node lat="62.70113347400661" lon="10.924040497431818" id="-41252">
		<tag k="name" v="Finnkoihaugen" />
		<tag k="natural" v="hill" />
		<tag k="place" v="locality" />
		<tag k="ssr:stedsnr" v="132222" />
	</node>
	<node lat="62.74049890705356" lon="11.380581260340387" id="-41253">
		<tag k="fixme" v="consider natural=peak for the most distinct mountains in the district" />
		<tag k="name" v="Vola" />
		<tag k="natural" v="hill" />
		<tag k="place" v="locality" />
		<tag k="ssr:stedsnr" v="132786" />
	</node>
	<node lat="62.82024721921201" lon="10.97252499649357" id="-41256">
		<tag k="name" v="Grålia" />
		<tag k="natural" v="slope" />
		<tag k="place" v="locality" />
		<tag k="ssr:stedsnr" v="133034" />
	</node>
	<node lat="62.9197194430333" lon="11.352036117938313" id="-41259">
		<tag k="name" v="Håmmåren" />
		<tag k="natural" v="hill" />
		<tag k="place" v="locality" />
		<tag k="ssr:stedsnr" v="133148" />
	</node>
	<node lat="63.015894443968335" lon="11.13911111654003" id="-41260">
		<tag k="fixme" v="consider natural=peak for the most distinct mountains in the district" />
		<tag k="name" v="Fonnfjellet" />
		<tag k="natural" v="hill" />
		<tag k="place" v="locality" />
		<tag k="ssr:stedsnr" v="133150" />
	</node>
	<node lat="62.93285278232788" lon="11.43569999776197" id="-41261">
		<tag k="fixme" v="consider natural=peak for the most distinct mountains in the district" />
		<tag k="name" v="Gjetleken" />
		<tag k="natural" v="hill" />
		<tag k="place" v="locality" />
		<tag k="ssr:stedsnr" v="133154" />
	</node>
	<node lat="62.91650555129686" lon="11.456697218918087" id="-41264">
		<tag k="fixme" v="consider natural=peak for the most distinct mountains in the district" />
		<tag k="name" v="Litjfjellet" />
		<tag k="natural" v="hill" />
		<tag k="place" v="locality" />
		<tag k="ssr:stedsnr" v="133168" />
	</node>
	<node lat="62.94266388865279" lon="11.3172305629312" id="-41265">
		<tag k="name" v="Osplia" />
		<tag k="natural" v="slope" />
		<tag k="place" v="locality" />
		<tag k="ssr:stedsnr" v="133175" />
	</node>
	<node lat="62.9390666665161" lon="11.396358338818061" id="-41267">
		<tag k="fixme" v="consider natural=peak for the most distinct mountains in the district" />
		<tag k="name" v="Fremre Kneppen" />
		<tag k="natural" v="hill" />
		<tag k="place" v="locality" />
		<tag k="ssr:stedsnr" v="133192" />
	</node>
	<node lat="62.97469166485705" lon="11.45299999203057" id="-41271">
		<tag k="fixme" v="consider natural=peak for the most distinct mountains in the district" />
		<tag k="name" v="Hyllingen" />
		<tag k="natural" v="hill" />
		<tag k="place" v="locality" />
		<tag k="ssr:stedsnr" v="133222" />
	</node>
	<node lat="62.825913890186555" lon="11.395605565256567" id="-41276">
		<tag k="name" v="Bønsbudalen" />
		<tag k="natural" v="valley" />
		<tag k="place" v="locality" />
		<tag k="ssr:stedsnr" v="133891" />
	</node>
	<node lat="63.04877500003322" lon="11.001986107341754" id="-41284">
		<tag k="name" v="Storlihøgda" />
		<tag k="natural" v="hill" />
		<tag k="place" v="locality" />
		<tag k="ssr:stedsnr" v="142321" />
	</node>
	<node lat="62.76469166521355" lon="11.39413887947938" id="-41291">
		<tag k="name" v="Rundhøgda" />
		<tag k="natural" v="hill" />
		<tag k="place" v="locality" />
		<tag k="ssr:stedsnr" v="167165" />
	</node>
	<node lat="62.81771666412652" lon="11.361808324363453" id="-41296">
		<tag k="fixme" v="consider natural=peak for the most distinct mountains in the district" />
		<tag k="name" v="Brattåsen" />
		<tag k="natural" v="hill" />
		<tag k="place" v="locality" />
		<tag k="ssr:stedsnr" v="167153" />
	</node>
	<node lat="62.83552221913577" lon="11.370655557228194" id="-41297">
		<tag k="fixme" v="consider natural=peak for the most distinct mountains in the district" />
		<tag k="name" v="Åsgrubba" />
		<tag k="natural" v="hill" />
		<tag k="place" v="locality" />
		<tag k="ssr:stedsnr" v="167235" />
	</node>
	<node lat="62.75503888755946" lon="11.198419448609602" id="-41303">
		<tag k="name" v="Grøtålia" />
		<tag k="natural" v="slope" />
		<tag k="place" v="locality" />
		<tag k="ssr:stedsnr" v="167437" />
	</node>
	<node lat="62.87689166466962" lon="11.150519444583368" id="-41308">
		<tag k="name" v="Endalen" />
		<tag k="natural" v="valley" />
		<tag k="place" v="locality" />
		<tag k="ssr:stedsnr" v="167552" />
	</node>
	<node lat="62.97518611110153" lon="11.04404443774169" id="-41309">
		<tag k="fixme" v="consider natural=peak for the most distinct mountains in the district" />
		<tag k="name" v="Litjåsen" />
		<tag k="natural" v="hill" />
		<tag k="place" v="locality" />
		<tag k="ssr:stedsnr" v="167629" />
	</node>
	<node lat="62.739652774976626" lon="11.103516674629075" id="-41311">
		<tag k="name" v="Storslettælet" />
		<tag k="place" v="locality" />
		<tag k="ssr:stedsnr" v="167646" />
	</node>
	<node lat="62.76355833398889" lon="11.414766661604672" id="-41318">
		<tag k="name" v="Killingdalskleppen" />
		<tag k="natural" v="hill" />
		<tag k="place" v="locality" />
		<tag k="ssr:stedsnr" v="167676" />
	</node>
	<node lat="62.69747778074261" lon="11.109952787213052" id="-41331">
		<tag k="name" v="Gruvdalen" />
		<tag k="natural" v="valley" />
		<tag k="place" v="locality" />
		<tag k="ssr:stedsnr" v="193237" />
	</node>
	<node lat="62.95796110721622" lon="11.400094435699568" id="-41336">
		<tag k="fixme" v="consider natural=peak for the most distinct mountains in the district" />
		<tag k="name" v="Trælsåfjellet" />
		<tag k="natural" v="hill" />
		<tag k="place" v="locality" />
		<tag k="ssr:stedsnr" v="194185" />
	</node>
	<node lat="62.87268332944199" lon="11.309463890398998" id="-41350">
		<tag k="fixme" v="consider natural=peak for the most distinct mountains in the district" />
		<tag k="name" v="Storsvenuken" />
		<tag k="natural" v="hill" />
		<tag k="place" v="locality" />
		<tag k="ssr:stedsnr" v="194140" />
	</node>
	<node lat="62.9297694481588" lon="11.488558330034003" id="-41357">
		<tag k="name" v="Ausa" />
		<tag k="natural" v="ridge" />
		<tag k="place" v="locality" />
		<tag k="ssr:stedsnr" v="194162" />
	</node>
	<node lat="62.88701666507423" lon="11.328908340849035" id="-41358">
		<tag k="fixme" v="consider natural=peak for the most distinct mountains in the district" />
		<tag k="name" v="Grønfjellet" />
		<tag k="natural" v="hill" />
		<tag k="place" v="locality" />
		<tag k="ssr:stedsnr" v="194169" />
	</node>
	<node lat="62.94698055830404" lon="11.229558326447568" id="-41361">
		<tag k="fixme" v="consider natural=peak for the most distinct mountains in the district" />
		<tag k="name" v="Hovmyråsen" />
		<tag k="natural" v="hill" />
		<tag k="place" v="locality" />
		<tag k="ssr:stedsnr" v="194198" />
	</node>
	<node lat="62.67832499686014" lon="11.157113893081204" id="-41362">
		<tag k="name" v="Kjølidalen" />
		<tag k="natural" v="valley" />
		<tag k="place" v="locality" />
		<tag k="ssr:stedsnr" v="194210" />
	</node>
	<node lat="62.998572224517545" lon="10.99417499514915" id="-41365">
		<tag k="name" v="Gjetberga" />
		<tag k="natural" v="hill" />
		<tag k="place" v="locality" />
		<tag k="ssr:stedsnr" v="194229" />
	</node>
	<node lat="62.83374444391356" lon="11.751180563964231" id="-41378">
		<tag k="name" v="Grønlia" />
		<tag k="natural" v="slope" />
		<tag k="place" v="locality" />
		<tag k="ssr:stedsnr" v="194776" />
	</node>
	<node lat="62.777938886739435" lon="11.514258338170857" id="-41384">
		<tag k="alt_name" v="Litjskarven" />
		<tag k="fixme" v="consider natural=peak for the most distinct mountains in the district" />
		<tag k="name" v="Killingdalsskarven" />
		<tag k="natural" v="hill" />
		<tag k="place" v="locality" />
		<tag k="ssr:stedsnr" v="194930" />
	</node>
	<node lat="62.783330557968995" lon="11.321619443115633" id="-41387">
		<tag k="name" v="Hollia" />
		<tag k="natural" v="slope" />
		<tag k="place" v="locality" />
		<tag k="ssr:stedsnr" v="195933" />
	</node>
	<node lat="62.79378333311845" lon="11.235241658958518" id="-41388">
		<tag k="fixme" v="consider natural=peak for the most distinct mountains in the district" />
		<tag k="name" v="Stordalshøgda" />
		<tag k="natural" v="hill" />
		<tag k="place" v="locality" />
		<tag k="ssr:stedsnr" v="195938" />
	</node>
	<node lat="62.89162499890849" lon="11.199127780090826" id="-41391">
		<tag k="name" v="Drøylian" />
		<tag k="natural" v="slope" />
		<tag k="place" v="locality" />
		<tag k="ssr:stedsnr" v="202382" />
	</node>
</osm>
