<?xml version="1.0" encoding="UTF-8"?>
<osm version="0.6" generator="osmapis">
	<node lat="62.87350548558466" lon="11.18624467514923" id="-81664">
		<tag k="layer" v="-1" />
		<tag k="name" v="Svølgjatunnelen" />
		<tag k="ssr:stedsnr" v="21539" />
		<tag k="tunnel" v="yes" />
	</node>
	<node lat="62.927672226109806" lon="11.151430564147386" id="-81722">
		<tag k="name" v="Kleva" />
		<tag k="place" v="locality" />
		<tag k="ssr:stedsnr" v="106278" />
	</node>
	<node lat="62.92764722218751" lon="11.124555560028215" id="-81969">
		<tag k="bridge" v="yes" />
		<tag k="layer" v="1" />
		<tag k="name" v="Evenmobrua" />
		<tag k="ssr:stedsnr" v="467986" />
	</node>
	<node lat="62.95748611384627" lon="10.970944452287483" id="-81997">
		<tag k="alt_name" v="Langåsvae" />
		<tag k="ford" v="yes" />
		<tag k="name" v="Langåsvadet" />
		<tag k="place" v="locality" />
		<tag k="ssr:stedsnr" v="471551" />
	</node>
	<node lat="62.73505833240412" lon="11.042772231627977" id="-82067">
		<tag k="highway" v="path" />
		<tag k="name" v="Gamle Elgsjøvegen" />
		<tag k="ssr:stedsnr" v="410706" />
	</node>
	<node lat="62.78327500246644" lon="11.080044435277248" id="-82073">
		<tag k="man_made" v="quay" />
		<tag k="name" v="Fiskebryggan" />
		<tag k="place" v="locality" />
		<tag k="ssr:stedsnr" v="410745" />
	</node>
	<node lat="62.74853055471142" lon="11.157738897840582" id="-82086">
		<tag k="amenity" v="parking" />
		<tag k="name" v="Fjellheim parkeringsplass" />
		<tag k="ssr:stedsnr" v="422689" />
	</node>
	<node lat="62.84685278165194" lon="11.311583327740625" id="-82104">
		<tag k="name" v="Ålen holdeplass" />
		<tag k="railway" v="station" />
		<tag k="ssr:stedsnr" v="437170" />
		<tag k="train" v="yes" />
	</node>
	<node lat="62.92736877017127" lon="11.124333379973365" id="-82251">
		<tag k="bridge" v="yes" />
		<tag k="layer" v="1" />
		<tag k="name" v="Øvindmobrua" />
		<tag k="ssr:stedsnr" v="531684" />
	</node>
	<node lat="62.953402775588714" lon="11.245530545718324" id="-82364">
		<tag k="bridge" v="yes" />
		<tag k="layer" v="1" />
		<tag k="name" v="Brubakkbrua" />
		<tag k="ssr:stedsnr" v="709129" />
	</node>
	<node lat="62.96364166457649" lon="11.28243610609249" id="-82396">
		<tag k="ford" v="yes" />
		<tag k="name" v="Høglivadet" />
		<tag k="place" v="locality" />
		<tag k="ssr:stedsnr" v="896146" />
	</node>
	<node lat="62.8197333366095" lon="11.406511103553099" id="-82485">
		<tag k="amenity" v="parking" />
		<tag k="name" v="Målåsetret parkeringsplass" />
		<tag k="ssr:stedsnr" v="907645" />
	</node>
	<node lat="62.899919442573974" lon="11.198919440464973" id="-82671">
		<tag k="name" v="Drøya" />
		<tag k="railway" v="halt" />
		<tag k="ssr:stedsnr" v="922099" />
		<tag k="train" v="yes" />
	</node>
	<node lat="62.80734166217415" lon="11.378258337844324" id="-82690">
		<tag k="name" v="Reitan stasjon" />
		<tag k="railway" v="station" />
		<tag k="ssr:stedsnr" v="923923" />
		<tag k="train" v="yes" />
	</node>
	<node lat="62.85977970923301" lon="11.212309649607343" id="-82732">
		<tag k="bridge" v="yes" />
		<tag k="layer" v="1" />
		<tag k="name" v="Eidet bru" />
		<tag k="ssr:stedsnr" v="986456" />
	</node>
	<node lat="62.855488886376946" lon="11.258961111059062" id="-82879">
		<tag k="fixme" v="consider highway=path" />
		<tag k="highway" v="track" />
		<tag k="name" v="Allmannvegen" />
		<tag k="ssr:stedsnr" v="106268" />
	</node>
	<node lat="62.96823610801457" lon="11.236113887479585" id="-83095">
		<tag k="ford" v="yes" />
		<tag k="name" v="Måssåvadet" />
		<tag k="place" v="locality" />
		<tag k="ssr:stedsnr" v="228174" />
	</node>
	<node lat="62.88759722324298" lon="11.252333327580185" id="-83138">
		<tag k="highway" v="path" />
		<tag k="name" v="Setervegen" />
		<tag k="ssr:stedsnr" v="289362" />
	</node>
	<node lat="62.928436115398426" lon="11.144177786799808" id="-83265">
		<tag k="alt_name" v="Haltdalen" />
		<tag k="name" v="Haltdalen stasjon" />
		<tag k="railway" v="station" />
		<tag k="ssr:stedsnr" v="376421" />
		<tag k="train" v="yes" />
	</node>
	<node lat="62.92505833551931" lon="11.191644434948019" id="-83629">
		<tag k="name" v="Lermelbakken" />
		<tag k="place" v="locality" />
		<tag k="ssr:stedsnr" v="652252" />
	</node>
	<node lat="62.942627778218245" lon="11.106847222132572" id="-83768">
		<tag k="highway" v="path" />
		<tag k="name" v="Hallguttu" />
		<tag k="ssr:stedsnr" v="774475" />
	</node>
	<node lat="62.95140555275428" lon="11.08856110942848" id="-83892">
		<tag k="junction" v="yes" />
		<tag k="name" v="Våggåskilet" />
		<tag k="place" v="locality" />
		<tag k="ssr:stedsnr" v="835549" />
	</node>
	<node lat="62.95737351702757" lon="10.992627098064236" id="-84014">
		<tag k="name" v="Langlete holdeplass" />
		<tag k="railway" v="station" />
		<tag k="ssr:stedsnr" v="1076223" />
		<tag k="train" v="yes" />
	</node>
</osm>
