<?xml version="1.0" encoding="UTF-8"?>
<osm version="0.6" generator="osmapis">
	<node lat="62.71156944695003" lon="11.145500005306385" id="-83137">
		<tag k="fixme" v="consider boundary=protected_area and relevant protect_class if not nature reserve" />
		<tag k="leisure" v="nature_reserve" />
		<tag k="name" v="Øyungen landskapsvernområde" />
		<tag k="ssr:stedsnr" v="100369" />
	</node>
	<node lat="62.93028055890122" lon="11.098541669007439" id="-83370">
		<tag k="alt_name" v="Haltdal søndre statsallmenning" />
		<tag k="name" v="Haltdalen søndre statsallmenning" />
		<tag k="place" v="locality" />
		<tag k="ssr:stedsnr" v="463846" />
	</node>
	<node lat="62.864922222732325" lon="11.123797223499416" id="-83656">
		<tag k="name" v="Hesjedal statsallmenning" />
		<tag k="place" v="locality" />
		<tag k="ssr:stedsnr" v="523868" />
	</node>
	<node lat="62.96506944524325" lon="10.959422219120837" id="-83936">
		<tag k="fixme" v="consider boundary=protected_area and relevant protect_class if not nature reserve" />
		<tag k="leisure" v="nature_reserve" />
		<tag k="name" v="Elvåsen naturreservat" />
		<tag k="ssr:stedsnr" v="909437" />
	</node>
	<node lat="62.91443889224546" lon="11.12704723133013" id="-84124">
		<tag k="fixme" v="specify shooting=range, clay_pigeon etc" />
		<tag k="leisure" v="pitch" />
		<tag k="name" v="Skytebane" />
		<tag k="sport" v="shooting" />
		<tag k="ssr:stedsnr" v="950887" />
	</node>
	<node lat="62.77851944730508" lon="11.349355557309368" id="-84583">
		<tag k="name" v="Holla statsallmenning" />
		<tag k="old_name" v="Holden Statsalmenning" />
		<tag k="place" v="locality" />
		<tag k="ssr:stedsnr" v="302415" />
	</node>
	<node lat="62.96628889344653" lon="10.99560554832467" id="-84899">
		<tag k="name" v="Haltdalen nordre statsallmenning" />
		<tag k="place" v="locality" />
		<tag k="ssr:stedsnr" v="545363" />
	</node>
	<node lat="62.83432221950752" lon="11.66443056332624" id="-85140">
		<tag k="name" v="Gauldal statsallmenning" />
		<tag k="place" v="locality" />
		<tag k="ssr:stedsnr" v="727394" />
	</node>
	<node lat="62.955877778279984" lon="11.007338890865912" id="-85327">
		<tag k="fixme" v="consider boundary=protected_area and relevant protect_class if not nature reserve" />
		<tag k="leisure" v="nature_reserve" />
		<tag k="name" v="Lokbekken naturreservat" />
		<tag k="ssr:stedsnr" v="849429" />
	</node>
	<node lat="62.98617500340859" lon="10.952663889042016" id="-85426">
		<tag k="fixme" v="consider boundary=protected_area and relevant protect_class if not nature reserve" />
		<tag k="leisure" v="nature_reserve" />
		<tag k="name" v="Dragåsvollan naturreservat" />
		<tag k="ssr:stedsnr" v="970634" />
	</node>
</osm>
