<?xml version="1.0" encoding="UTF-8"?>
<osm version="0.6" generator="osmapis">
	<node lat="62.952141662700456" lon="11.070958327098046" id="-40032">
		<tag k="name" v="Kåsmyran" />
		<tag k="natural" v="wetland" />
		<tag k="ssr:stedsnr" v="12431" />
	</node>
	<node lat="62.84327222170479" lon="11.391966663143837" id="-40045">
		<tag k="name" v="Hestskodikja" />
		<tag k="natural" v="wetland" />
		<tag k="ssr:stedsnr" v="45691" />
	</node>
	<node lat="62.93506388468811" lon="11.070211106984168" id="-40059">
		<tag k="name" v="Hyttrøa" />
		<tag k="place" v="locality" />
		<tag k="ssr:stedsnr" v="46569" />
	</node>
	<node lat="62.96491944301267" lon="11.078008336898696" id="-40060">
		<tag k="name" v="Brøttet" />
		<tag k="natural" v="wetland" />
		<tag k="ssr:stedsnr" v="46621" />
	</node>
	<node lat="62.68204722182571" lon="11.127066666662278" id="-40085">
		<tag k="landuse" v="quarry" />
		<tag k="name" v="Hessjøgruva" />
		<tag k="ssr:stedsnr" v="102205" />
	</node>
	<node lat="62.9616749977822" lon="11.097794447038824" id="-40093">
		<tag k="name" v="Brukjølen" />
		<tag k="natural" v="wetland" />
		<tag k="ssr:stedsnr" v="106301" />
	</node>
	<node lat="62.815886107601095" lon="11.500888895397473" id="-40100">
		<tag k="historic" v="shieling" />
		<tag k="name" v="Hovsvollen" />
		<tag k="place" v="locality" />
		<tag k="ssr:stedsnr" v="107176" />
	</node>
	<node lat="62.94799444861384" lon="11.324680561022804" id="-40103">
		<tag k="name" v="Tjønnfloen" />
		<tag k="natural" v="wetland" />
		<tag k="ssr:stedsnr" v="107331" />
	</node>
	<node lat="62.96137222562008" lon="11.02597222676079" id="-40108">
		<tag k="name" v="Stømarka" />
		<tag k="place" v="locality" />
		<tag k="ssr:stedsnr" v="107571" />
	</node>
	<node lat="62.833616667697704" lon="11.53321944322964" id="-40144">
		<tag k="landuse" v="quarry" />
		<tag k="name" v="Røros-Menna" />
		<tag k="ssr:stedsnr" v="141411" />
	</node>
	<node lat="62.95638333078664" lon="11.27096388436037" id="-40161">
		<tag k="name" v="Kvernslåtta" />
		<tag k="place" v="locality" />
		<tag k="ssr:stedsnr" v="164777" />
	</node>
	<node lat="62.81458889077381" lon="11.539574994890526" id="-40165">
		<tag k="historic" v="shieling" />
		<tag k="name" v="Holet" />
		<tag k="place" v="locality" />
		<tag k="ssr:stedsnr" v="167209" />
	</node>
	<node lat="62.92485555383869" lon="11.093366667167196" id="-40183">
		<tag k="name" v="Stortjønnfloen" />
		<tag k="natural" v="wetland" />
		<tag k="ssr:stedsnr" v="167615" />
	</node>
	<node lat="62.94303611123914" lon="11.092355562107205" id="-40184">
		<tag k="landuse" v="meadow" />
		<tag k="name" v="Småtrøan" />
		<tag k="old_name" v="Småtrøa'nn" />
		<tag k="ssr:stedsnr" v="167560" />
	</node>
	<node lat="62.95921388564481" lon="11.21708054978006" id="-40194">
		<tag k="name" v="Kvamstegen" />
		<tag k="place" v="locality" />
		<tag k="ssr:stedsnr" v="181403" />
	</node>
	<node lat="62.79433888473986" lon="11.474527776105305" id="-40198">
		<tag k="landuse" v="quarry" />
		<tag k="name" v="Killingdalsgruva" />
		<tag k="ssr:stedsnr" v="263417" />
	</node>
	<node lat="62.82220277614582" lon="11.572055548878367" id="-40219">
		<tag k="name" v="Pellslættdalen" />
		<tag k="natural" v="stone" />
		<tag k="ssr:stedsnr" v="228188" />
	</node>
	<node lat="62.814288885709225" lon="11.507388895785173" id="-40221">
		<tag k="landuse" v="meadow" />
		<tag k="name" v="Langslåtten" />
		<tag k="ssr:stedsnr" v="228197" />
	</node>
	<node lat="62.95531666236256" lon="10.979899995603358" id="-40226">
		<tag k="name" v="Småmyran" />
		<tag k="natural" v="wetland" />
		<tag k="old_name" v="Småmyr'ann" />
		<tag k="ssr:stedsnr" v="228603" />
	</node>
	<node lat="62.97416388438407" lon="10.9765972307551" id="-40227">
		<tag k="name" v="Støra" />
		<tag k="natural" v="wetland" />
		<tag k="ssr:stedsnr" v="228610" />
	</node>
	<node lat="62.97262222465974" lon="10.976305555374847" id="-40228">
		<tag k="name" v="Verkjesmyra" />
		<tag k="natural" v="wetland" />
		<tag k="ssr:stedsnr" v="228612" />
	</node>
	<node lat="62.94798333201307" lon="11.265541674583352" id="-40232">
		<tag k="landuse" v="meadow" />
		<tag k="name" v="Bruøya" />
		<tag k="ssr:stedsnr" v="228394" />
	</node>
	<node lat="62.83033333665253" lon="11.442905547709747" id="-40275">
		<tag k="name" v="Follfloen" />
		<tag k="natural" v="wetland" />
		<tag k="ssr:stedsnr" v="289205" />
	</node>
	<node lat="62.84360833400205" lon="11.375858328962755" id="-40277">
		<tag k="name" v="Kyrbekkfloen" />
		<tag k="natural" v="wetland" />
		<tag k="ssr:stedsnr" v="289212" />
	</node>
	<node lat="62.95296944114786" lon="11.295641658061744" id="-40282">
		<tag k="name" v="Brøttet" />
		<tag k="place" v="locality" />
		<tag k="ssr:stedsnr" v="289327" />
	</node>
	<node lat="62.95665833519028" lon="11.05152221281036" id="-40284">
		<tag k="name" v="Storaunet" />
		<tag k="place" v="locality" />
		<tag k="ssr:stedsnr" v="289631" />
	</node>
	<node lat="62.8624194420774" lon="11.152683333674247" id="-40286">
		<tag k="name" v="Litlvollmyra" />
		<tag k="natural" v="wetland" />
		<tag k="ssr:stedsnr" v="289378" />
	</node>
	<node lat="62.863150002406286" lon="11.160336101939544" id="-40287">
		<tag k="name" v="Engdalsmyra" />
		<tag k="natural" v="wetland" />
		<tag k="ssr:stedsnr" v="289383" />
	</node>
	<node lat="62.97422499567451" lon="10.977025002400065" id="-40302">
		<tag k="name" v="Størå" />
		<tag k="natural" v="wetland" />
		<tag k="ssr:stedsnr" v="462883" />
	</node>
	<node lat="62.77023055175052" lon="11.3321250072798" id="-40314">
		<tag k="historic" v="shieling" />
		<tag k="name" v="Håmmårvollen" />
		<tag k="place" v="locality" />
		<tag k="ssr:stedsnr" v="315371" />
	</node>
	<node lat="62.75263611343646" lon="11.175091670173744" id="-40315">
		<tag k="name" v="Pikhaugfloen" />
		<tag k="natural" v="wetland" />
		<tag k="ssr:stedsnr" v="315205" />
	</node>
	<node lat="62.91414444567906" lon="11.118849998839952" id="-40330">
		<tag k="name" v="Fromyran" />
		<tag k="natural" v="wetland" />
		<tag k="ssr:stedsnr" v="470437" />
	</node>
	<node lat="62.824013890791846" lon="11.420777769254224" id="-40337">
		<tag k="name" v="Bremyra" />
		<tag k="natural" v="wetland" />
		<tag k="ssr:stedsnr" v="471128" />
	</node>
	<node lat="62.96209166974295" lon="11.259969443157186" id="-40369">
		<tag k="historic" v="shieling" />
		<tag k="name" v="Bjørnslåtta" />
		<tag k="place" v="locality" />
		<tag k="ssr:stedsnr" v="349203" />
	</node>
	<node lat="62.85109167070537" lon="11.364125000614603" id="-40371">
		<tag k="name" v="Løbergfloan" />
		<tag k="natural" v="wetland" />
		<tag k="ssr:stedsnr" v="349262" />
	</node>
	<node lat="62.94683333021123" lon="11.270661110568764" id="-40377">
		<tag k="alt_name" v="Nordpaøia" />
		<tag k="name" v="Nordpåøya" />
		<tag k="place" v="locality" />
		<tag k="ssr:stedsnr" v="349371" />
	</node>
	<node lat="62.954249999442794" lon="11.205561103779731" id="-40381">
		<tag k="name" v="Prestgårdsskogen" />
		<tag k="place" v="locality" />
		<tag k="ssr:stedsnr" v="349523" />
	</node>
	<node lat="62.80936944244364" lon="11.385569435627245" id="-40416">
		<tag k="name" v="Storfloen" />
		<tag k="natural" v="wetland" />
		<tag k="ssr:stedsnr" v="410139" />
	</node>
	<node lat="62.94719166848047" lon="10.991963896896596" id="-40422">
		<tag k="name" v="Jørnsfloen" />
		<tag k="natural" v="wetland" />
		<tag k="ssr:stedsnr" v="410727" />
	</node>
	<node lat="62.95033055981492" lon="11.031069452185614" id="-40423">
		<tag k="name" v="Langmyran" />
		<tag k="natural" v="wetland" />
		<tag k="old_name" v="Langmyr'ann" />
		<tag k="ssr:stedsnr" v="410739" />
	</node>
	<node lat="62.96766111320015" lon="11.05003055746441" id="-40428">
		<tag k="name" v="Stubbmyra" />
		<tag k="natural" v="wetland" />
		<tag k="ssr:stedsnr" v="410605" />
	</node>
	<node lat="62.959597222573" lon="11.206361104937695" id="-40432">
		<tag k="name" v="Prestgårdsskogen" />
		<tag k="place" v="locality" />
		<tag k="ssr:stedsnr" v="410648" />
	</node>
	<node lat="62.95662221869609" lon="11.107175006161036" id="-40480">
		<tag k="name" v="Skreddalsmyran" />
		<tag k="natural" v="wetland" />
		<tag k="old_name" v="Skreddalsmyr'ann" />
		<tag k="ssr:stedsnr" v="470275" />
	</node>
	<node lat="62.93706388858875" lon="11.143805549276303" id="-40481">
		<tag k="name" v="Ruskåsmyra" />
		<tag k="natural" v="wetland" />
		<tag k="ssr:stedsnr" v="470415" />
	</node>
	<node lat="62.95261944013038" lon="11.105861104332238" id="-40482">
		<tag k="name" v="Skredalsmyran" />
		<tag k="natural" v="wetland" />
		<tag k="old_name" v="Skredalsmyr'ann" />
		<tag k="ssr:stedsnr" v="470426" />
	</node>
	<node lat="62.93004167014124" lon="11.162163880475827" id="-40487">
		<tag k="name" v="Kråkkån" />
		<tag k="place" v="locality" />
		<tag k="ssr:stedsnr" v="470720" />
	</node>
	<node lat="62.8122138907575" lon="11.199463898751866" id="-40496">
		<tag k="name" v="Heggsetmyran" />
		<tag k="natural" v="wetland" />
		<tag k="ssr:stedsnr" v="471407" />
	</node>
	<node lat="62.95113888653813" lon="11.2523777718491" id="-40497">
		<tag k="name" v="Loklandet" />
		<tag k="place" v="locality" />
		<tag k="ssr:stedsnr" v="471366" />
	</node>
	<node lat="62.85258611031233" lon="11.17052778369546" id="-40498">
		<tag k="alt_name" v="Ner Røstfloen" />
		<tag k="name" v="Nedre Røstfloen" />
		<tag k="natural" v="wetland" />
		<tag k="ssr:stedsnr" v="471369" />
	</node>
	<node lat="62.967783335208274" lon="11.091013879886042" id="-40502">
		<tag k="name" v="Bredtjønnfloen" />
		<tag k="natural" v="wetland" />
		<tag k="ssr:stedsnr" v="471570" />
	</node>
	<node lat="62.81227778187024" lon="11.166855559182833" id="-40518">
		<tag k="name" v="Storfloen" />
		<tag k="natural" v="wetland" />
		<tag k="ssr:stedsnr" v="679060" />
	</node>
	<node lat="62.75525000458983" lon="11.399547213374134" id="-40530">
		<tag k="name" v="Svenskmyra" />
		<tag k="natural" v="wetland" />
		<tag k="ssr:stedsnr" v="679949" />
	</node>
	<node lat="62.751188886327874" lon="11.326930548737177" id="-40531">
		<tag k="alt_name" v="Slågåvsvollan" />
		<tag k="name" v="Slågrovsvollan" />
		<tag k="place" v="locality" />
		<tag k="ssr:stedsnr" v="679959" />
	</node>
	<node lat="62.9874916629528" lon="11.057452771440232" id="-40552">
		<tag k="name" v="Slåggån" />
		<tag k="natural" v="wetland" />
		<tag k="ssr:stedsnr" v="680549" />
	</node>
	<node lat="62.93069999999626" lon="11.27204167360777" id="-40569">
		<tag k="historic" v="shieling" />
		<tag k="name" v="Kjærsåsvollan" />
		<tag k="place" v="locality" />
		<tag k="ssr:stedsnr" v="497195" />
	</node>
	<node lat="62.792886106672874" lon="11.284969447749273" id="-40574">
		<tag k="landuse" v="quarry" />
		<tag k="name" v="Storhøgdgruva" />
		<tag k="ssr:stedsnr" v="498945" />
	</node>
	<node lat="62.930674998064404" lon="11.211863886505354" id="-40597">
		<tag k="historic" v="shieling" />
		<tag k="name" v="Trontrøa" />
		<tag k="place" v="locality" />
		<tag k="ssr:stedsnr" v="531313" />
	</node>
	<node lat="62.96993611114284" lon="10.9966694372329" id="-40604">
		<tag k="name" v="Vintervegmyran" />
		<tag k="natural" v="wetland" />
		<tag k="ssr:stedsnr" v="531585" />
	</node>
	<node lat="62.82240000435816" lon="11.556986115022518" id="-40634">
		<tag k="name" v="Sjursfloan" />
		<tag k="natural" v="wetland" />
		<tag k="ssr:stedsnr" v="558910" />
	</node>
	<node lat="62.817775003452724" lon="11.241461113084977" id="-40635">
		<tag k="landuse" v="quarry" />
		<tag k="name" v="Rogngruva" />
		<tag k="ssr:stedsnr" v="558912" />
	</node>
	<node lat="62.92791944060264" lon="11.348402776888054" id="-40649">
		<tag k="name" v="Stormyra" />
		<tag k="natural" v="wetland" />
		<tag k="ssr:stedsnr" v="591674" />
	</node>
	<node lat="62.94139166285511" lon="11.265063887674703" id="-40653">
		<tag k="name" v="Mørkslåtta" />
		<tag k="place" v="locality" />
		<tag k="ssr:stedsnr" v="592324" />
	</node>
	<node lat="62.96131111092208" lon="11.070966670942186" id="-40655">
		<tag k="historic" v="shieling" />
		<tag k="name" v="Litjvollen" />
		<tag k="place" v="locality" />
		<tag k="ssr:stedsnr" v="592606" />
	</node>
	<node lat="62.9692222177959" lon="11.093797227605984" id="-40656">
		<tag k="historic" v="shieling" />
		<tag k="name" v="Storstensvoll" />
		<tag k="place" v="locality" />
		<tag k="ssr:stedsnr" v="592608" />
	</node>
	<node lat="62.93501944249523" lon="11.006716659296126" id="-40658">
		<tag k="name" v="Stigamyra" />
		<tag k="natural" v="wetland" />
		<tag k="ssr:stedsnr" v="592560" />
	</node>
	<node lat="62.77163611164181" lon="11.167105558980838" id="-40673">
		<tag k="name" v="Bekkafloan" />
		<tag k="natural" v="wetland" />
		<tag k="ssr:stedsnr" v="619025" />
	</node>
	<node lat="62.944163893144065" lon="11.009058340211155" id="-40684">
		<tag k="name" v="Brannåsfloan" />
		<tag k="natural" v="scree" />
		<tag k="old_name" v="Brannåsflo'ann" />
		<tag k="ssr:stedsnr" v="643827" />
	</node>
	<node lat="62.93665555759783" lon="11.167422224553563" id="-40689">
		<tag k="name" v="Bottenslættet" />
		<tag k="natural" v="wetland" />
		<tag k="ssr:stedsnr" v="652643" />
	</node>
	<node lat="62.949963885211616" lon="11.342708335110013" id="-40696">
		<tag k="name" v="Svensfloen" />
		<tag k="natural" v="wetland" />
		<tag k="ssr:stedsnr" v="653318" />
	</node>
	<node lat="62.93306110956859" lon="11.31958611538178" id="-40697">
		<tag k="name" v="Hesthagen" />
		<tag k="place" v="locality" />
		<tag k="ssr:stedsnr" v="653324" />
	</node>
	<node lat="62.94242222595149" lon="11.089650007613583" id="-40698">
		<tag k="landuse" v="meadow" />
		<tag k="name" v="Kløvbekktrøa" />
		<tag k="ssr:stedsnr" v="653508" />
	</node>
	<node lat="62.72283611518851" lon="11.142322216054884" id="-40699">
		<tag k="name" v="Koiedalen" />
		<tag k="natural" v="stone" />
		<tag k="ssr:stedsnr" v="653632" />
	</node>
	<node lat="62.97466944088442" lon="11.029286103348968" id="-40703">
		<tag k="alt_name" v="Krakstarslåtten" />
		<tag k="name" v="Kvakstadslåtten" />
		<tag k="natural" v="wetland" />
		<tag k="ssr:stedsnr" v="653533" />
	</node>
	<node lat="62.93507222596703" lon="11.17359444383534" id="-40723">
		<tag k="name" v="Kjølen" />
		<tag k="natural" v="wetland" />
		<tag k="ssr:stedsnr" v="895450" />
	</node>
	<node lat="62.839324997819844" lon="11.366930547814167" id="-40736">
		<tag k="landuse" v="meadow" />
		<tag k="name" v="Nerslåtten" />
		<tag k="ssr:stedsnr" v="896231" />
	</node>
	<node lat="62.934980552611556" lon="11.333924997471515" id="-40739">
		<tag k="name" v="Lundslåtta" />
		<tag k="place" v="locality" />
		<tag k="ssr:stedsnr" v="896346" />
	</node>
	<node lat="62.90458055235386" lon="11.24056110206282" id="-40741">
		<tag k="name" v="Rundfloen" />
		<tag k="natural" v="wetland" />
		<tag k="ssr:stedsnr" v="896375" />
	</node>
	<node lat="62.943625003542984" lon="11.230311110470208" id="-40744">
		<tag k="name" v="Langbrumyran" />
		<tag k="natural" v="wetland" />
		<tag k="old_name" v="Langbrumyr'ann" />
		<tag k="ssr:stedsnr" v="896394" />
	</node>
	<node lat="62.698283333941916" lon="11.163986107899275" id="-40752">
		<tag k="name" v="Myrfloen" />
		<tag k="natural" v="wetland" />
		<tag k="ssr:stedsnr" v="896695" />
	</node>
	<node lat="62.88634444550455" lon="11.166008342751784" id="-40763">
		<tag k="name" v="Renåmarka" />
		<tag k="place" v="locality" />
		<tag k="ssr:stedsnr" v="713717" />
	</node>
	<node lat="62.87786944590699" lon="11.119677778615966" id="-40766">
		<tag k="name" v="Renåfloan" />
		<tag k="natural" v="wetland" />
		<tag k="ssr:stedsnr" v="713680" />
	</node>
	<node lat="62.891183331942486" lon="11.226483340276168" id="-40780">
		<tag k="name" v="Vondbekkmyran" />
		<tag k="natural" v="wetland" />
		<tag k="ssr:stedsnr" v="714305" />
	</node>
	<node lat="62.954450002994726" lon="11.062886108295087" id="-40783">
		<tag k="name" v="Brunnmyra" />
		<tag k="natural" v="wetland" />
		<tag k="ssr:stedsnr" v="714480" />
	</node>
	<node lat="62.94901389245482" lon="11.151127780847988" id="-40820">
		<tag k="name" v="Kvennfossøia" />
		<tag k="natural" v="wetland" />
		<tag k="ssr:stedsnr" v="766793" />
	</node>
	<node lat="62.77680832894238" lon="11.454541667178292" id="-40827">
		<tag k="name" v="Litlbekkøyan" />
		<tag k="natural" v="wetland" />
		<tag k="ssr:stedsnr" v="774152" />
	</node>
	<node lat="62.890361112191236" lon="11.1939694499008" id="-40836">
		<tag k="historic" v="shieling" />
		<tag k="name" v="Eggavollen" />
		<tag k="place" v="locality" />
		<tag k="ssr:stedsnr" v="774523" />
	</node>
	<node lat="62.92113985368586" lon="11.072139640635323" id="-40844">
		<tag k="historic" v="shieling" />
		<tag k="name" v="Lesetvollen" />
		<tag k="place" v="locality" />
		<tag k="ssr:stedsnr" v="774723" />
	</node>
	<node lat="62.96623888768538" lon="11.09462221591226" id="-40846">
		<tag k="historic" v="shieling" />
		<tag k="name" v="Øyvollen" />
		<tag k="old_name" v="Øivollen" />
		<tag k="place" v="locality" />
		<tag k="ssr:stedsnr" v="774625" />
	</node>
	<node lat="62.96146388585849" lon="11.211097221086288" id="-40852">
		<tag k="name" v="Liemsskogen" />
		<tag k="place" v="locality" />
		<tag k="ssr:stedsnr" v="788365" />
	</node>
	<node lat="62.96167499597012" lon="11.227861110154468" id="-40853">
		<tag k="name" v="Litjtverråtegen" />
		<tag k="place" v="locality" />
		<tag k="ssr:stedsnr" v="788368" />
	</node>
	<node lat="62.96212778163952" lon="11.31389443762511" id="-40864">
		<tag k="name" v="Andersaunfloan" />
		<tag k="natural" v="wetland" />
		<tag k="ssr:stedsnr" v="801184" />
	</node>
	<node lat="62.93247500168936" lon="11.208655552608466" id="-40887">
		<tag k="historic" v="shieling" />
		<tag k="name" v="Heksemsvollan" />
		<tag k="place" v="locality" />
		<tag k="ssr:stedsnr" v="809404" />
	</node>
	<node lat="62.81447221866415" lon="11.522116665078077" id="-40928">
		<tag k="name" v="Hølet" />
		<tag k="natural" v="wetland" />
		<tag k="ssr:stedsnr" v="835211" />
	</node>
	<node lat="62.92187778211051" lon="11.061405560080962" id="-40939">
		<tag k="name" v="Innlegget" />
		<tag k="place" v="locality" />
		<tag k="ssr:stedsnr" v="835591" />
	</node>
	<node lat="62.923405553430946" lon="11.090013893204443" id="-40941">
		<tag k="name" v="Litltjønnfloen" />
		<tag k="natural" v="wetland" />
		<tag k="ssr:stedsnr" v="835597" />
	</node>
	<node lat="63.02437500065089" lon="11.074930558936408" id="-40971">
		<tag k="historic" v="shieling" />
		<tag k="name" v="Vevådalsvollen" />
		<tag k="place" v="locality" />
		<tag k="ssr:stedsnr" v="931365" />
	</node>
	<node lat="62.931761114868465" lon="11.363844444738811" id="-40982">
		<tag k="name" v="Granmyra" />
		<tag k="natural" v="wetland" />
		<tag k="ssr:stedsnr" v="896210" />
	</node>
	<node lat="62.86396111489659" lon="11.194336102166087" id="-41002">
		<tag k="name" v="Storfloen" />
		<tag k="natural" v="wetland" />
		<tag k="ssr:stedsnr" v="922124" />
	</node>
	<node lat="62.953950001085595" lon="10.970858335452474" id="-41010">
		<tag k="name" v="Klokkarmyra" />
		<tag k="natural" v="wetland" />
		<tag k="ssr:stedsnr" v="922414" />
	</node>
	<node lat="62.954319445430684" lon="11.244680560492508" id="-41028">
		<tag k="historic" v="shieling" />
		<tag k="name" v="Hovsvollen" />
		<tag k="place" v="locality" />
		<tag k="ssr:stedsnr" v="931704" />
	</node>
	<node lat="62.86790833618054" lon="11.148108334385482" id="-41043">
		<tag k="name" v="Storsteinen" />
		<tag k="natural" v="stone" />
		<tag k="ssr:stedsnr" v="956410" />
	</node>
	<node lat="62.90466388585615" lon="11.204822226097564" id="-41045">
		<tag k="historic" v="shieling" />
		<tag k="name" v="Brattvollen" />
		<tag k="place" v="locality" />
		<tag k="ssr:stedsnr" v="956511" />
	</node>
	<node lat="62.9706694457496" lon="11.015641658343283" id="-41047">
		<tag k="name" v="Dragåsfloan" />
		<tag k="natural" v="wetland" />
		<tag k="ssr:stedsnr" v="956602" />
	</node>
	<node lat="62.95803333729856" lon="11.005947219472887" id="-41051">
		<tag k="name" v="Olderfætten" />
		<tag k="place" v="locality" />
		<tag k="ssr:stedsnr" v="956635" />
	</node>
	<node lat="62.97180833185051" lon="11.028783331843593" id="-41052">
		<tag k="name" v="Bønnstumyra" />
		<tag k="natural" v="wetland" />
		<tag k="ssr:stedsnr" v="956636" />
	</node>
	<node lat="62.964577779390936" lon="11.048536104078833" id="-41054">
		<tag k="name" v="Blistermyra" />
		<tag k="natural" v="wetland" />
		<tag k="ssr:stedsnr" v="956650" />
	</node>
	<node lat="62.8774638891691" lon="11.243025001674134" id="-41094">
		<tag k="name" v="Storfloen" />
		<tag k="natural" v="wetland" />
		<tag k="ssr:stedsnr" v="12642" />
	</node>
	<node lat="62.94024166655742" lon="11.26797778024761" id="-41108">
		<tag k="name" v="Aletskogen" />
		<tag k="place" v="locality" />
		<tag k="ssr:stedsnr" v="43871" />
	</node>
	<node lat="62.93172500092099" lon="11.191072222237286" id="-41110">
		<tag k="name" v="Kjølstegen" />
		<tag k="natural" v="wetland" />
		<tag k="ssr:stedsnr" v="45297" />
	</node>
	<node lat="62.96222500248126" lon="11.215850003259563" id="-41111">
		<tag k="name" v="Sagåstegen" />
		<tag k="place" v="locality" />
		<tag k="ssr:stedsnr" v="45247" />
	</node>
	<node lat="62.82166110908243" lon="11.317641665965665" id="-41113">
		<tag k="name" v="Bremyra" />
		<tag k="natural" v="wetland" />
		<tag k="ssr:stedsnr" v="45257" />
	</node>
	<node lat="62.93672499866098" lon="11.16005834228625" id="-41117">
		<tag k="name" v="Torvlandet" />
		<tag k="natural" v="wetland" />
		<tag k="ssr:stedsnr" v="45454" />
	</node>
	<node lat="62.771694441289746" lon="11.45753055093335" id="-41124">
		<tag k="name" v="Langrabben" />
		<tag k="place" v="locality" />
		<tag k="ssr:stedsnr" v="46139" />
	</node>
	<node lat="62.95232500245499" lon="11.237205560558056" id="-41129">
		<tag k="name" v="Kringelåsmyra" />
		<tag k="natural" v="wetland" />
		<tag k="ssr:stedsnr" v="46391" />
	</node>
	<node lat="62.908052781569026" lon="11.176494443540232" id="-41138">
		<tag k="landuse" v="quarry" />
		<tag k="name" v="Mogrøbba" />
		<tag k="ssr:stedsnr" v="46525" />
	</node>
	<node lat="62.92145833532634" lon="11.052327771498751" id="-41141">
		<tag k="name" v="Kjølen" />
		<tag k="natural" v="wetland" />
		<tag k="ssr:stedsnr" v="46600" />
	</node>
	<node lat="62.945647219134" lon="11.092388894148915" id="-41149">
		<tag k="name" v="Sveet" />
		<tag k="place" v="locality" />
		<tag k="ssr:stedsnr" v="46558" />
	</node>
	<node lat="62.95873333646041" lon="11.0344583427663" id="-41150">
		<tag k="name" v="Krestianplassen" />
		<tag k="place" v="locality" />
		<tag k="ssr:stedsnr" v="46640" />
	</node>
	<node lat="62.962402774821115" lon="11.034399994536647" id="-41152">
		<tag k="name" v="Langmyra" />
		<tag k="natural" v="wetland" />
		<tag k="ssr:stedsnr" v="46654" />
	</node>
	<node lat="62.96011389084243" lon="10.95410000499531" id="-41173">
		<tag k="alt_name" v="Sandåfloan" />
		<tag k="name" v="Sandåmyra" />
		<tag k="natural" v="wetland" />
		<tag k="ssr:stedsnr" v="73471" />
	</node>
	<node lat="62.865858336139944" lon="11.630100007757928" id="-41177">
		<tag k="landuse" v="quarry" />
		<tag k="name" v="Kjøligruva" />
		<tag k="ssr:stedsnr" v="73140" />
	</node>
	<node lat="62.75636944353727" lon="10.960097229664267" id="-41208">
		<tag k="name" v="Kjerringvollfloen" />
		<tag k="natural" v="wetland" />
		<tag k="ssr:stedsnr" v="106698" />
	</node>
	<node lat="62.92828889312267" lon="11.333744447724007" id="-41214">
		<tag k="historic" v="shieling" />
		<tag k="name" v="Fjellvollen" />
		<tag k="place" v="locality" />
		<tag k="ssr:stedsnr" v="107131" />
	</node>
	<node lat="62.94080277412524" lon="11.264266675758142" id="-41222">
		<tag k="name" v="Fasteskogen" />
		<tag k="place" v="locality" />
		<tag k="ssr:stedsnr" v="107306" />
	</node>
	<node lat="62.95408055947251" lon="11.240236115376792" id="-41223">
		<tag k="name" v="Hansøya" />
		<tag k="place" v="locality" />
		<tag k="ssr:stedsnr" v="107311" />
	</node>
	<node lat="62.85175277508545" lon="11.338730558156728" id="-41226">
		<tag k="name" v="Flyfloan" />
		<tag k="natural" v="wetland" />
		<tag k="ssr:stedsnr" v="107268" />
	</node>
	<node lat="62.96532777928697" lon="11.093663897592688" id="-41232">
		<tag k="historic" v="shieling" />
		<tag k="name" v="Gjetåsøyvollen" />
		<tag k="place" v="locality" />
		<tag k="ssr:stedsnr" v="107592" />
	</node>
	<node lat="62.96227499893125" lon="11.21837777334517" id="-41245">
		<tag k="name" v="Trøskogen" />
		<tag k="place" v="locality" />
		<tag k="ssr:stedsnr" v="120395" />
	</node>
	<node lat="62.72117499605897" lon="11.29621111595021" id="-41274">
		<tag k="landuse" v="quarry" />
		<tag k="name" v="Muggruva" />
		<tag k="ssr:stedsnr" v="133786" />
	</node>
	<node lat="62.938186114019814" lon="11.282936111716914" id="-41300">
		<tag k="historic" v="shieling" />
		<tag k="name" v="Onsesvollan" />
		<tag k="place" v="locality" />
		<tag k="ssr:stedsnr" v="167329" />
	</node>
	<node lat="62.938113884855674" lon="11.314730548352225" id="-41301">
		<tag k="name" v="Stormyra" />
		<tag k="natural" v="wetland" />
		<tag k="ssr:stedsnr" v="167340" />
	</node>
	<node lat="62.827105559213734" lon="11.671199993184153" id="-41316">
		<tag k="historic" v="shieling" />
		<tag k="name" v="Gammelvollen" />
		<tag k="place" v="locality" />
		<tag k="ssr:stedsnr" v="167737" />
	</node>
	<node lat="62.99425277438981" lon="11.015025008377751" id="-41339">
		<tag k="name" v="Kjølan" />
		<tag k="natural" v="wetland" />
		<tag k="ssr:stedsnr" v="194238" />
	</node>
	<node lat="62.85164166841897" lon="10.994950006718241" id="-41348">
		<tag k="name" v="Storfloan" />
		<tag k="natural" v="wetland" />
		<tag k="ssr:stedsnr" v="194079" />
	</node>
	<node lat="62.96727222651772" lon="11.035138885187838" id="-41375">
		<tag k="name" v="Bønstermyra" />
		<tag k="natural" v="wetland" />
		<tag k="ssr:stedsnr" v="194412" />
	</node>
	<node lat="62.79176388817233" lon="11.437388894913262" id="-41389">
		<tag k="alt_name" v="Bjørg-floan" />
		<tag k="name" v="Bjørgfloan" />
		<tag k="natural" v="wetland" />
		<tag k="ssr:stedsnr" v="195946" />
	</node>
</osm>
