<?xml version="1.0" encoding="UTF-8"?>
<osm version="0.6" generator="osmapis">
	<node lat="62.73962382856759" lon="11.131176487171498" id="-48567">
		<tag k="alt_name" v="Stenevollen" />
		<tag k="historic" v="shieling" />
		<tag k="name" v="Steinsvollen" />
		<tag k="place" v="isolated_dwelling" />
		<tag k="ssr:stedsnr" v="11037" />
	</node>
	<node lat="62.69186111385926" lon="11.163886108068112" id="-48568">
		<tag k="historic" v="shieling" />
		<tag k="name" v="Almåsvollen" />
		<tag k="place" v="isolated_dwelling" />
		<tag k="ssr:stedsnr" v="11231" />
	</node>
	<node lat="62.86455718298926" lon="11.21572727263975" id="-48570">
		<tag k="fixme" v="consider place=hamlet" />
		<tag k="name" v="Storlia" />
		<tag k="place" v="farm" />
		<tag k="ssr:stedsnr" v="12077" />
	</node>
	<node lat="63.01151110861315" lon="11.083925004091814" id="-48571">
		<tag k="historic" v="shieling" />
		<tag k="name" v="Grønsetvollen" />
		<tag k="place" v="isolated_dwelling" />
		<tag k="ssr:stedsnr" v="12203" />
	</node>
	<node lat="62.937124998046656" lon="11.28505555257383" id="-48572">
		<tag k="historic" v="shieling" />
		<tag k="name" v="Onsesvollan" />
		<tag k="place" v="isolated_dwelling" />
		<tag k="ssr:stedsnr" v="12206" />
	</node>
	<node lat="63.014480553409875" lon="10.99490277173801" id="-48573">
		<tag k="historic" v="shieling" />
		<tag k="name" v="Smålivollen" />
		<tag k="place" v="isolated_dwelling" />
		<tag k="ssr:stedsnr" v="12168" />
	</node>
	<node lat="62.92331944565824" lon="11.33315556495645" id="-48575">
		<tag k="historic" v="shieling" />
		<tag k="name" v="Raudåvollen" />
		<tag k="place" v="isolated_dwelling" />
		<tag k="ssr:stedsnr" v="12174" />
	</node>
	<node lat="62.95209166383825" lon="11.257477774241574" id="-48585">
		<tag k="name" v="Aunegrenda" />
		<tag k="place" v="hamlet" />
		<tag k="ssr:stedsnr" v="21694" />
	</node>
	<node lat="62.77276111221652" lon="11.07633333884183" id="-48586">
		<tag k="historic" v="shieling" />
		<tag k="name" v="Bakkavollen" />
		<tag k="place" v="isolated_dwelling" />
		<tag k="ssr:stedsnr" v="42810" />
	</node>
	<node lat="62.818538891079726" lon="11.334408339996774" id="-48593">
		<tag k="name" v="Holte" />
		<tag k="place" v="farm" />
		<tag k="ssr:stedsnr" v="45982" />
	</node>
	<node lat="62.94251111318692" lon="11.058158328840594" id="-48595">
		<tag k="fixme" v="consider place=hamlet" />
		<tag k="name" v="Haugen" />
		<tag k="place" v="farm" />
		<tag k="ssr:stedsnr" v="46040" />
	</node>
	<node lat="62.695636108897716" lon="11.155763897095301" id="-48596">
		<tag k="historic" v="shieling" />
		<tag k="name" v="Eidebakkvollen" />
		<tag k="place" v="isolated_dwelling" />
		<tag k="ssr:stedsnr" v="46042" />
	</node>
	<node lat="62.84635000143385" lon="11.24446666116155" id="-48597">
		<tag k="alt_name" v="Bendoshaug" />
		<tag k="name" v="Bendoshaugen" />
		<tag k="place" v="farm" />
		<tag k="ssr:stedsnr" v="46043" />
	</node>
	<node lat="62.9613944430742" lon="11.238863896287295" id="-48602">
		<tag k="name" v="Nordaune" />
		<tag k="place" v="hamlet" />
		<tag k="ssr:stedsnr" v="46170" />
	</node>
	<node lat="62.81441111359613" lon="11.457908337754555" id="-48611">
		<tag k="historic" v="shieling" />
		<tag k="name" v="Sundrønningsvollen" />
		<tag k="place" v="isolated_dwelling" />
		<tag k="ssr:stedsnr" v="46870" />
	</node>
	<node lat="62.82159444057486" lon="11.34933888749007" id="-48612">
		<tag k="name" v="Stavaunet" />
		<tag k="place" v="farm" />
		<tag k="ssr:stedsnr" v="46882" />
	</node>
	<node lat="62.84432222181128" lon="11.260658324607789" id="-48613">
		<tag k="name" v="Moan" />
		<tag k="place" v="farm" />
		<tag k="ssr:stedsnr" v="46920" />
	</node>
	<node lat="62.83595000128982" lon="11.20024721323828" id="-48614">
		<tag k="name" v="Hessdalskjølen hyttefelt" />
		<tag k="place" v="neighbourhood" />
		<tag k="ssr:stedsnr" v="58379" />
	</node>
	<node lat="62.80085555675958" lon="11.197488884778918" id="-48616">
		<tag k="name" v="Eggalia" />
		<tag k="place" v="farm" />
		<tag k="ssr:stedsnr" v="73002" />
	</node>
	<node lat="62.79208055414849" lon="11.192552786791806" id="-48617">
		<tag k="alt_name" v="Storvollia" />
		<tag k="fixme" v="consider place=hamlet" />
		<tag k="name" v="Bendoslia" />
		<tag k="place" v="farm" />
		<tag k="ssr:stedsnr" v="73016" />
	</node>
	<node lat="62.78691111261511" lon="11.083175003520955" id="-48618">
		<tag k="historic" v="shieling" />
		<tag k="name" v="Bakåsvollen" />
		<tag k="place" v="isolated_dwelling" />
		<tag k="ssr:stedsnr" v="73019" />
	</node>
	<node lat="62.86180832962412" lon="11.214147221578635" id="-48621">
		<tag k="name" v="Kleva" />
		<tag k="place" v="farm" />
		<tag k="ssr:stedsnr" v="73070" />
	</node>
	<node lat="62.90916666903961" lon="11.172041667598446" id="-48623">
		<tag k="alt_name" v="Rønningen, nordre;Rønningen nordre;Nordre Rønningen" />
		<tag k="name" v="Nørdre Rønningen" />
		<tag k="place" v="farm" />
		<tag k="ssr:stedsnr" v="73389" />
	</node>
	<node lat="62.98011389159" lon="11.037777768786558" id="-48624">
		<tag k="name" v="Gislbua" />
		<tag k="place" v="locality" />
		<tag k="ssr:stedsnr" v="73510" />
	</node>
	<node lat="62.82410833513031" lon="11.344469435126538" id="-48625">
		<tag k="name" v="Megarden" />
		<tag k="place" v="farm" />
		<tag k="ssr:stedsnr" v="73905" />
	</node>
	<node lat="62.80661666357555" lon="11.324316675759999" id="-48626">
		<tag k="name" v="Sjursvollen" />
		<tag k="place" v="farm" />
		<tag k="ssr:stedsnr" v="73907" />
	</node>
	<node lat="62.81143544088189" lon="11.326547429747624" id="-48627">
		<tag k="fixme" v="consider place=hamlet" />
		<tag k="name" v="Ellingsvollen" />
		<tag k="place" v="farm" />
		<tag k="ssr:stedsnr" v="73908" />
	</node>
	<node lat="62.69819166644524" lon="11.158919438199186" id="-48633">
		<tag k="historic" v="shieling" />
		<tag k="name" v="Klokkarvollvollen" />
		<tag k="place" v="isolated_dwelling" />
		<tag k="ssr:stedsnr" v="106007" />
	</node>
	<node lat="62.81541944026428" lon="11.159938882105283" id="-48634">
		<tag k="historic" v="shieling" />
		<tag k="name" v="Vårhussetra" />
		<tag k="place" v="isolated_dwelling" />
		<tag k="ssr:stedsnr" v="106127" />
	</node>
	<node lat="62.698580552513484" lon="11.167958323637993" id="-48635">
		<tag k="historic" v="shieling" />
		<tag k="name" v="Myrhaugvollen" />
		<tag k="place" v="isolated_dwelling" />
		<tag k="ssr:stedsnr" v="106012" />
	</node>
	<node lat="62.90296944160955" lon="11.19342500882609" id="-48636">
		<tag k="name" v="Nytrøen" />
		<tag k="place" v="farm" />
		<tag k="ssr:stedsnr" v="106076" />
	</node>
	<node lat="62.920186112733454" lon="11.171736105493014" id="-48642">
		<tag k="name" v="Megården" />
		<tag k="place" v="farm" />
		<tag k="ssr:stedsnr" v="106971" />
	</node>
	<node lat="62.924714449067544" lon="11.179552036834616" id="-48643">
		<tag k="fixme" v="consider place=hamlet" />
		<tag k="name" v="Bjørgtrøa" />
		<tag k="place" v="farm" />
		<tag k="ssr:stedsnr" v="106972" />
	</node>
	<node lat="62.941605554391025" lon="11.090013896902603" id="-48644">
		<tag k="name" v="Fættan" />
		<tag k="place" v="farm" />
		<tag k="ssr:stedsnr" v="107043" />
	</node>
	<node lat="62.81236388992522" lon="11.507616662681805" id="-48646">
		<tag k="name" v="Moløa" />
		<tag k="place" v="locality" />
		<tag k="ssr:stedsnr" v="107173" />
	</node>
	<node lat="62.940066669048605" lon="11.288127772054986" id="-48649">
		<tag k="name" v="Mikkeløya" />
		<tag k="place" v="locality" />
		<tag k="ssr:stedsnr" v="107322" />
	</node>
	<node lat="62.82524166342478" lon="11.352458330714924" id="-48659">
		<tag k="name" v="Løvdal" />
		<tag k="place" v="farm" />
		<tag k="ssr:stedsnr" v="107905" />
	</node>
	<node lat="62.85871111437874" lon="11.72524721849541" id="-48660">
		<tag k="name" v="Tjønnvollåsen hyttefelt" />
		<tag k="place" v="neighbourhood" />
		<tag k="ssr:stedsnr" v="117323" />
	</node>
	<node lat="62.72990000129155" lon="11.140449993620987" id="-48663">
		<tag k="historic" v="shieling" />
		<tag k="name" v="Kirkhusvollan" />
		<tag k="place" v="isolated_dwelling" />
		<tag k="ssr:stedsnr" v="132018" />
	</node>
	<node lat="62.85892222405081" lon="11.201311102027518" id="-48665">
		<tag k="name" v="Nyberg" />
		<tag k="place" v="farm" />
		<tag k="ssr:stedsnr" v="133116" />
	</node>
	<node lat="62.79521666756604" lon="11.190672231938091" id="-48666">
		<tag k="name" v="Trøan" />
		<tag k="place" v="farm" />
		<tag k="ssr:stedsnr" v="133006" />
	</node>
	<node lat="62.85150833356657" lon="11.2040000038235" id="-48667">
		<tag k="name" v="Myrbakken" />
		<tag k="place" v="farm" />
		<tag k="ssr:stedsnr" v="133069" />
	</node>
	<node lat="62.913186096652026" lon="11.187746305231466" id="-48671">
		<tag k="fixme" v="consider place=hamlet" />
		<tag k="name" v="Sveet" />
		<tag k="place" v="farm" />
		<tag k="ssr:stedsnr" v="133358" />
	</node>
	<node lat="62.92543888836534" lon="11.049313894546598" id="-48672">
		<tag k="historic" v="shieling" />
		<tag k="name" v="Leåsvollen" />
		<tag k="place" v="isolated_dwelling" />
		<tag k="ssr:stedsnr" v="133363" />
	</node>
	<node lat="62.92604796574911" lon="11.12212197213123" id="-48673">
		<tag k="name" v="Øvindmoen" />
		<tag k="place" v="hamlet" />
		<tag k="ssr:stedsnr" v="133365" />
	</node>
	<node lat="62.92406098575652" lon="11.158890690540156" id="-48674">
		<tag k="fixme" v="consider place=hamlet" />
		<tag k="name" v="Heksem" />
		<tag k="place" v="farm" />
		<tag k="ssr:stedsnr" v="133367" />
	</node>
	<node lat="62.92936110846952" lon="11.160355559041859" id="-48675">
		<tag k="name" v="Ranøya" />
		<tag k="place" v="farm" />
		<tag k="ssr:stedsnr" v="133368" />
	</node>
	<node lat="62.74933888659723" lon="11.02064444077863" id="-48680">
		<tag k="historic" v="shieling" />
		<tag k="name" v="Almåsvollan" />
		<tag k="old_name" v="Gjersvollvollan" />
		<tag k="place" v="isolated_dwelling" />
		<tag k="ssr:stedsnr" v="255216" />
	</node>
	<node lat="62.7515605070226" lon="11.15524774155091" id="-48681">
		<tag k="fixme" v="consider place=hamlet" />
		<tag k="name" v="Grytbakksfætta" />
		<tag k="place" v="farm" />
		<tag k="ssr:stedsnr" v="255217" />
	</node>
	<node lat="62.70179166657723" lon="11.170966671127484" id="-48685">
		<tag k="historic" v="shieling" />
		<tag k="name" v="Haugavollen" />
		<tag k="place" v="isolated_dwelling" />
		<tag k="ssr:stedsnr" v="254212" />
	</node>
	<node lat="62.96408055807625" lon="11.028966661520641" id="-48686">
		<tag k="historic" v="shieling" />
		<tag k="name" v="Dragåsvollen" />
		<tag k="place" v="isolated_dwelling" />
		<tag k="ssr:stedsnr" v="254431" />
	</node>
	<node lat="62.96960222068209" lon="11.205157462475384" id="-48687">
		<tag k="name" v="Tovhaugan" />
		<tag k="place" v="locality" />
		<tag k="ssr:stedsnr" v="254446" />
	</node>
	<node lat="62.837991334504345" lon="11.180270902769799" id="-48688">
		<tag k="fixme" v="consider place=hamlet" />
		<tag k="name" v="Åsbardet" />
		<tag k="place" v="farm" />
		<tag k="ssr:stedsnr" v="141101" />
	</node>
	<node lat="62.84808055288865" lon="11.20718056475569" id="-48692">
		<tag k="name" v="Lyng" />
		<tag k="place" v="farm" />
		<tag k="ssr:stedsnr" v="255094" />
	</node>
	<node lat="62.864992545183384" lon="11.173366371456053" id="-48695">
		<tag k="fixme" v="consider place=hamlet" />
		<tag k="name" v="Åsen" />
		<tag k="place" v="farm" />
		<tag k="ssr:stedsnr" v="255133" />
	</node>
	<node lat="62.86634119895967" lon="11.04104968349163" id="-48696">
		<tag k="name" v="Fremmervollen" />
		<tag k="place" v="locality" />
		<tag k="ssr:stedsnr" v="255135" />
	</node>
	<node lat="62.84438171804779" lon="11.248314245650068" id="-48700">
		<tag k="fixme" v="consider place=hamlet" />
		<tag k="name" v="Myra" />
		<tag k="place" v="farm" />
		<tag k="ssr:stedsnr" v="255162" />
	</node>
	<node lat="62.91570277707212" lon="11.1836916656411" id="-48701">
		<tag k="name" v="Ødegård" />
		<tag k="place" v="farm" />
		<tag k="ssr:stedsnr" v="255390" />
	</node>
	<node lat="62.95678247973352" lon="11.022534045877599" id="-48702">
		<tag k="fixme" v="consider place=hamlet" />
		<tag k="name" v="Brenna" />
		<tag k="place" v="farm" />
		<tag k="ssr:stedsnr" v="255448" />
	</node>
	<node lat="62.823144442820805" lon="11.3262111159901" id="-48703">
		<tag k="name" v="Melia" />
		<tag k="place" v="farm" />
		<tag k="ssr:stedsnr" v="255927" />
	</node>
	<node lat="62.80356666597841" lon="11.32743055897361" id="-48704">
		<tag k="name" v="Gjelta" />
		<tag k="place" v="farm" />
		<tag k="ssr:stedsnr" v="255936" />
	</node>
	<node lat="62.70090833525112" lon="11.16967499164445" id="-48709">
		<tag k="historic" v="shieling" />
		<tag k="name" v="Øvre Pålsvollen" />
		<tag k="place" v="isolated_dwelling" />
		<tag k="ssr:stedsnr" v="167005" />
	</node>
	<node lat="62.77272499702911" lon="11.184116673737618" id="-48710">
		<tag k="alt_name" v="Gjersvollen" />
		<tag k="name" v="Gjerdsvollen" />
		<tag k="place" v="farm" />
		<tag k="ssr:stedsnr" v="167110" />
	</node>
	<node lat="62.93730555910199" lon="11.21731388668348" id="-48711">
		<tag k="historic" v="shieling" />
		<tag k="name" v="Arnevollen" />
		<tag k="place" v="isolated_dwelling" />
		<tag k="ssr:stedsnr" v="167058" />
	</node>
	<node lat="62.90385555760129" lon="11.217130559002868" id="-48726">
		<tag k="historic" v="shieling" />
		<tag k="name" v="Vollan" />
		<tag k="old_name" v="Vol'lan" />
		<tag k="place" v="isolated_dwelling" />
		<tag k="ssr:stedsnr" v="167513" />
	</node>
	<node lat="62.82473889076779" lon="11.597722228720546" id="-48737">
		<tag k="historic" v="shieling" />
		<tag k="name" v="Kirkbakkvollen" />
		<tag k="place" v="isolated_dwelling" />
		<tag k="ssr:stedsnr" v="167774" />
	</node>
	<node lat="62.813836113363074" lon="11.45301111080366" id="-48738">
		<tag k="historic" v="shieling" />
		<tag k="name" v="Sjursgardsvollen" />
		<tag k="place" v="isolated_dwelling" />
		<tag k="ssr:stedsnr" v="167867" />
	</node>
	<node lat="62.91765277822291" lon="11.175613891799975" id="-48739">
		<tag k="name" v="Ramnan" />
		<tag k="place" v="farm" />
		<tag k="ssr:stedsnr" v="167975" />
	</node>
	<node lat="62.83768333273709" lon="11.305386109907353" id="-48740">
		<tag k="name" v="Trøa" />
		<tag k="place" v="farm" />
		<tag k="ssr:stedsnr" v="168905" />
	</node>
	<node lat="62.85347777395128" lon="11.222488890735775" id="-48742">
		<tag k="building" v="industrial" />
		<tag k="name" v="Eidbakken sagbruk" />
		<tag k="ssr:stedsnr" v="181424" />
	</node>
	<node lat="62.84756666333048" lon="11.734236120202148" id="-48752">
		<tag k="historic" v="shieling" />
		<tag k="name" v="Gjårdvollen" />
		<tag k="place" v="isolated_dwelling" />
		<tag k="ssr:stedsnr" v="195805" />
	</node>
	<node lat="62.86844444264797" lon="11.648605545727495" id="-48754">
		<tag k="fixme" v="consider tourism=alpine_hut or tourism=chalet" />
		<tag k="name" v="Kjølihytta" />
		<tag k="ssr:stedsnr" v="267528" />
		<tag k="tourism" v="wilderness_hut" />
	</node>
	<node lat="62.84274999986764" lon="11.303894452709608" id="-48760">
		<tag k="name" v="Nøra" />
		<tag k="place" v="hamlet" />
		<tag k="ssr:stedsnr" v="203701" />
	</node>
	<node lat="62.88099999876275" lon="11.770466675604734" id="-48761">
		<tag k="name" v="Storøvlingen hyttefelt" />
		<tag k="place" v="neighbourhood" />
		<tag k="ssr:stedsnr" v="222274" />
	</node>
	<node lat="62.740227778882385" lon="11.129052768445732" id="-48762">
		<tag k="historic" v="shieling" />
		<tag k="name" v="Dragmyrhaugvollen" />
		<tag k="place" v="isolated_dwelling" />
		<tag k="ssr:stedsnr" v="228107" />
	</node>
	<node lat="62.94355555214618" lon="10.988438890089384" id="-48770">
		<tag k="historic" v="shieling" />
		<tag k="name" v="Bergansetra" />
		<tag k="place" v="isolated_dwelling" />
		<tag k="ssr:stedsnr" v="228042" />
	</node>
	<node lat="62.945505557280455" lon="11.204391671184629" id="-48780">
		<tag k="name" v="Lian" />
		<tag k="place" v="locality" />
		<tag k="ssr:stedsnr" v="228504" />
	</node>
	<node lat="62.7381444422398" lon="11.069052777995301" id="-48782">
		<tag k="historic" v="shieling" />
		<tag k="name" v="Engesvollvollen" />
		<tag k="place" v="isolated_dwelling" />
		<tag k="ssr:stedsnr" v="228711" />
	</node>
	<node lat="62.81890833224776" lon="11.581238891660321" id="-48783">
		<tag k="historic" v="shieling" />
		<tag k="name" v="Fækjevollen" />
		<tag k="place" v="isolated_dwelling" />
		<tag k="ssr:stedsnr" v="228888" />
	</node>
	<node lat="62.85070833474889" lon="11.267886120245585" id="-48786">
		<tag k="fixme" v="consider place=hamlet" />
		<tag k="name" v="Testad" />
		<tag k="place" v="farm" />
		<tag k="ssr:stedsnr" v="228911" />
	</node>
	<node lat="62.84691388811768" lon="11.287900004469751" id="-48787">
		<tag k="name" v="Solheim" />
		<tag k="place" v="farm" />
		<tag k="ssr:stedsnr" v="228913" />
	</node>
	<node lat="62.84360277632835" lon="11.273469437206721" id="-48788">
		<tag k="name" v="Moan" />
		<tag k="place" v="farm" />
		<tag k="ssr:stedsnr" v="228932" />
	</node>
	<node lat="62.84325000375706" lon="11.338200006071627" id="-48789">
		<tag k="name" v="Nylendet" />
		<tag k="place" v="farm" />
		<tag k="ssr:stedsnr" v="228939" />
	</node>
	<node lat="62.84277575779559" lon="11.295268716119502" id="-48790">
		<tag k="name" v="Hov" />
		<tag k="place" v="farm" />
		<tag k="ssr:stedsnr" v="228940" />
	</node>
	<node lat="62.815196032784556" lon="11.337728652140507" id="-48791">
		<tag k="name" v="Solandsliegga" />
		<tag k="place" v="farm" />
		<tag k="ssr:stedsnr" v="228994" />
	</node>
	<node lat="62.83969508849789" lon="11.308557671517669" id="-48792">
		<tag k="fixme" v="consider place=hamlet" />
		<tag k="name" v="Lunderenget" />
		<tag k="place" v="farm" />
		<tag k="ssr:stedsnr" v="471933" />
	</node>
	<node lat="62.712174999914495" lon="11.16099166326877" id="-48794">
		<tag k="historic" v="shieling" />
		<tag k="name" v="Lauvåsvollan" />
		<tag k="place" v="isolated_dwelling" />
		<tag k="ssr:stedsnr" v="254009" />
	</node>
	<node lat="62.798133332140395" lon="11.196599998037064" id="-48798">
		<tag k="name" v="Vangslia" />
		<tag k="place" v="farm" />
		<tag k="ssr:stedsnr" v="254001" />
	</node>
	<node lat="62.857833331351216" lon="11.017280554766334" id="-48803">
		<tag k="name" v="Synnervollen" />
		<tag k="place" v="isolated_dwelling" />
		<tag k="ssr:stedsnr" v="255067" />
	</node>
	<node lat="62.81953333274451" lon="11.44615000316659" id="-48809">
		<tag k="historic" v="shieling" />
		<tag k="name" v="Tverråvollen" />
		<tag k="place" v="isolated_dwelling" />
		<tag k="ssr:stedsnr" v="255916" />
	</node>
	<node lat="62.81319721932495" lon="11.19971110637178" id="-48811">
		<tag k="name" v="Myrheim" />
		<tag k="place" v="farm" />
		<tag k="ssr:stedsnr" v="262347" />
	</node>
	<node lat="62.83876666820313" lon="11.172158334359539" id="-48812">
		<tag k="name" v="Stenvollen" />
		<tag k="place" v="farm" />
		<tag k="ssr:stedsnr" v="262353" />
	</node>
	<node lat="62.71474722307567" lon="11.163724991982253" id="-48815">
		<tag k="historic" v="shieling" />
		<tag k="name" v="Vervollen" />
		<tag k="place" v="isolated_dwelling" />
		<tag k="ssr:stedsnr" v="288002" />
	</node>
	<node lat="62.859197225800045" lon="11.205725004926123" id="-48816">
		<tag k="name" v="Grøndal" />
		<tag k="place" v="farm" />
		<tag k="ssr:stedsnr" v="288092" />
	</node>
	<node lat="62.74493889047029" lon="11.009438898778855" id="-48821">
		<tag k="historic" v="shieling" />
		<tag k="name" v="Smemovollen" />
		<tag k="place" v="isolated_dwelling" />
		<tag k="ssr:stedsnr" v="289029" />
	</node>
	<node lat="62.84117222347452" lon="11.435730565367964" id="-48823">
		<tag k="name" v="Slåttbua" />
		<tag k="place" v="locality" />
		<tag k="ssr:stedsnr" v="289207" />
	</node>
	<node lat="62.95691666711859" lon="11.036377774895128" id="-48832">
		<tag k="name" v="Trøan" />
		<tag k="place" v="locality" />
		<tag k="ssr:stedsnr" v="289633" />
	</node>
	<node lat="62.8978055547661" lon="11.180261117669035" id="-48837">
		<tag k="alt_name" v="Råen" />
		<tag k="name" v="Råin" />
		<tag k="place" v="locality" />
		<tag k="ssr:stedsnr" v="289506" />
	</node>
	<node lat="62.82768055283037" lon="11.350527778529404" id="-48842">
		<tag k="name" v="Storrønning" />
		<tag k="place" v="farm" />
		<tag k="ssr:stedsnr" v="289898" />
	</node>
	<node lat="62.79329444233198" lon="11.357752771893185" id="-48846">
		<tag k="name" v="Trøan" />
		<tag k="place" v="farm" />
		<tag k="ssr:stedsnr" v="289902" />
	</node>
	<node lat="62.8142805538789" lon="11.467377772282422" id="-48847">
		<tag k="historic" v="shieling" />
		<tag k="name" v="Grønlivollen" />
		<tag k="place" v="isolated_dwelling" />
		<tag k="ssr:stedsnr" v="289908" />
	</node>
	<node lat="62.844519441643115" lon="11.243527775951726" id="-48848">
		<tag k="name" v="Haug" />
		<tag k="place" v="farm" />
		<tag k="ssr:stedsnr" v="289932" />
	</node>
	<node lat="62.770733337581134" lon="11.33860277882851" id="-48850">
		<tag k="leisure" v="pitch" />
		<tag k="name" v="Holden skistadion" />
		<tag k="ssr:stedsnr" v="300690" />
	</node>
	<node lat="62.84408889001593" lon="11.331702774536389" id="-48851">
		<tag k="name" v="Åsset hyttefelt" />
		<tag k="place" v="neighbourhood" />
		<tag k="ssr:stedsnr" v="300697" />
	</node>
	<node lat="62.716893304314894" lon="11.168063799649895" id="-48854">
		<tag k="historic" v="shieling" />
		<tag k="name" v="Hovsvollan" />
		<tag k="place" v="isolated_dwelling" />
		<tag k="ssr:stedsnr" v="315007" />
	</node>
	<node lat="62.78875555993432" lon="11.212250001158012" id="-48857">
		<tag k="historic" v="shieling" />
		<tag k="name" v="Storvollen" />
		<tag k="place" v="isolated_dwelling" />
		<tag k="ssr:stedsnr" v="315018" />
	</node>
	<node lat="62.81114167081656" lon="11.492277786094375" id="-48868">
		<tag k="historic" v="shieling" />
		<tag k="name" v="Bønsvollen" />
		<tag k="place" v="isolated_dwelling" />
		<tag k="ssr:stedsnr" v="316950" />
	</node>
	<node lat="62.71604724158744" lon="11.169785066539681" id="-48869">
		<tag k="historic" v="shieling" />
		<tag k="name" v="Haugavollen" />
		<tag k="place" v="isolated_dwelling" />
		<tag k="ssr:stedsnr" v="467692" />
	</node>
	<node lat="62.76811944461786" lon="11.035925008904416" id="-48870">
		<tag k="historic" v="shieling" />
		<tag k="name" v="Bakåsvollen" />
		<tag k="place" v="isolated_dwelling" />
		<tag k="ssr:stedsnr" v="467857" />
	</node>
	<node lat="62.909086110507246" lon="11.169224997503422" id="-48872">
		<tag k="alt_name" v="Ramlorydningen" />
		<tag k="fixme" v="consider place=hamlet" />
		<tag k="name" v="Rønningan" />
		<tag k="place" v="farm" />
		<tag k="ssr:stedsnr" v="470056" />
	</node>
	<node lat="62.744052779419114" lon="11.121591674204044" id="-48873">
		<tag k="historic" v="shieling" />
		<tag k="name" v="Heggsetvollen" />
		<tag k="place" v="isolated_dwelling" />
		<tag k="ssr:stedsnr" v="470092" />
	</node>
	<node lat="62.916338426754145" lon="11.166776268148498" id="-48876">
		<tag k="leisure" v="pitch" />
		<tag k="name" v="Skytebane/skiskytteranlegg" />
		<tag k="ssr:stedsnr" v="470255" />
	</node>
	<node lat="62.93258611194157" lon="11.105061113452269" id="-48880">
		<tag k="name" v="Eriks-Engan" />
		<tag k="place" v="farm" />
		<tag k="ssr:stedsnr" v="470941" />
	</node>
	<node lat="62.8324194486793" lon="11.327144440108754" id="-48882">
		<tag k="name" v="Syndre Langlandet" />
		<tag k="place" v="farm" />
		<tag k="ssr:stedsnr" v="471044" />
	</node>
	<node lat="62.81810833687177" lon="11.579938896033225" id="-48883">
		<tag k="alt_name" v="Grønlivollan" />
		<tag k="historic" v="shieling" />
		<tag k="name" v="Grønlivollen" />
		<tag k="place" v="isolated_dwelling" />
		<tag k="ssr:stedsnr" v="471052" />
	</node>
	<node lat="62.934702776048226" lon="11.321922229922937" id="-48894">
		<tag k="historic" v="shieling" />
		<tag k="name" v="Smårørønningvollan" />
		<tag k="place" v="isolated_dwelling" />
		<tag k="ssr:stedsnr" v="471334" />
	</node>
	<node lat="62.85188055224513" lon="11.237216665884056" id="-48902">
		<tag k="name" v="Vestgård" />
		<tag k="place" v="farm" />
		<tag k="ssr:stedsnr" v="471882" />
	</node>
	<node lat="62.84694999944704" lon="11.248538895575054" id="-48903">
		<tag k="name" v="Myrhaugen" />
		<tag k="place" v="farm" />
		<tag k="ssr:stedsnr" v="471883" />
	</node>
	<node lat="62.8439638876668" lon="11.278283326938888" id="-48904">
		<tag k="name" v="Hansmoen" />
		<tag k="place" v="farm" />
		<tag k="ssr:stedsnr" v="471896" />
	</node>
	<node lat="62.95263611270912" lon="11.280405551661994" id="-48905">
		<tag k="name" v="Oppgården" />
		<tag k="place" v="farm" />
		<tag k="ssr:stedsnr" v="471838" />
	</node>
	<node lat="62.953316666352485" lon="11.27389722001034" id="-48906">
		<tag k="name" v="Andersaune" />
		<tag k="place" v="farm" />
		<tag k="ssr:stedsnr" v="471840" />
	</node>
	<node lat="62.848299997632935" lon="11.232952778650201" id="-48907">
		<tag k="name" v="Fætten" />
		<tag k="place" v="farm" />
		<tag k="ssr:stedsnr" v="471992" />
	</node>
	<node lat="62.851338727135406" lon="11.27193059823497" id="-48908">
		<tag k="name" v="Almås" />
		<tag k="place" v="hamlet" />
		<tag k="ssr:stedsnr" v="471997" />
	</node>
	<node lat="62.94618611109088" lon="10.97326111485673" id="-48909">
		<tag k="name" v="Gammelløa" />
		<tag k="place" v="locality" />
		<tag k="ssr:stedsnr" v="340811" />
	</node>
	<node lat="62.80836111040736" lon="11.195636117254992" id="-48910">
		<tag k="name" v="Gjelten" />
		<tag k="place" v="farm" />
		<tag k="ssr:stedsnr" v="349111" />
	</node>
	<node lat="62.74447499932393" lon="11.121558341633534" id="-48911">
		<tag k="historic" v="shieling" />
		<tag k="name" v="Engesvollvollen" />
		<tag k="place" v="isolated_dwelling" />
		<tag k="ssr:stedsnr" v="349122" />
	</node>
	<node lat="62.69933055816311" lon="11.168124999347723" id="-48912">
		<tag k="historic" v="shieling" />
		<tag k="name" v="Myrvangvollen" />
		<tag k="place" v="isolated_dwelling" />
		<tag k="ssr:stedsnr" v="349008" />
	</node>
	<node lat="62.960294445306275" lon="10.986408329838078" id="-48913">
		<tag k="name" v="Langletet" />
		<tag k="place" v="isolated_dwelling" />
		<tag k="ssr:stedsnr" v="349025" />
	</node>
	<node lat="62.743922219720226" lon="11.20900000668816" id="-48914">
		<tag k="name" v="Syndre Grøtådalen" />
		<tag k="place" v="farm" />
		<tag k="ssr:stedsnr" v="349057" />
	</node>
	<node lat="62.84316944202622" lon="11.286177787189377" id="-48915">
		<tag k="fixme" v="consider place=hamlet" />
		<tag k="name" v="Ven" />
		<tag k="place" v="farm" />
		<tag k="ssr:stedsnr" v="349066" />
	</node>
	<node lat="62.834750002852644" lon="11.67313333536272" id="-48938">
		<tag k="name" v="Håbua" />
		<tag k="place" v="isolated_dwelling" />
		<tag k="ssr:stedsnr" v="349791" />
	</node>
	<node lat="62.813919448731305" lon="11.492763896721925" id="-48939">
		<tag k="historic" v="shieling" />
		<tag k="name" v="Bårdstuvollen" />
		<tag k="place" v="isolated_dwelling" />
		<tag k="ssr:stedsnr" v="349904" />
	</node>
	<node lat="62.81437221883461" lon="11.49360000911174" id="-48940">
		<tag k="historic" v="shieling" />
		<tag k="name" v="Bårdshaugvollen" />
		<tag k="place" v="isolated_dwelling" />
		<tag k="ssr:stedsnr" v="349907" />
	</node>
	<node lat="62.781250000594085" lon="11.176888891215802" id="-48944">
		<tag k="name" v="Bjørga" />
		<tag k="place" v="farm" />
		<tag k="ssr:stedsnr" v="376024" />
	</node>
	<node lat="62.850014073289294" lon="11.25970733826614" id="-48946">
		<tag k="name" v="Stene" />
		<tag k="place" v="hamlet" />
		<tag k="ssr:stedsnr" v="376128" />
	</node>
	<node lat="62.96056666247404" lon="11.247199990382569" id="-48950">
		<tag k="name" v="Trøa" />
		<tag k="place" v="farm" />
		<tag k="ssr:stedsnr" v="376199" />
	</node>
	<node lat="62.85087966267148" lon="11.198909521665916" id="-48951">
		<tag k="alt_name" v="Åsvollan" />
		<tag k="fixme" v="consider place=hamlet" />
		<tag k="name" v="Åsvollen" />
		<tag k="place" v="farm" />
		<tag k="ssr:stedsnr" v="376077" />
	</node>
	<node lat="63.000305553300244" lon="11.008863885904221" id="-48952">
		<tag k="historic" v="shieling" />
		<tag k="name" v="Mortenvollen" />
		<tag k="place" v="isolated_dwelling" />
		<tag k="ssr:stedsnr" v="376209" />
	</node>
	<node lat="62.757164017046485" lon="11.167780220554501" id="-48954">
		<tag k="fixme" v="consider place=hamlet" />
		<tag k="name" v="Bekken" />
		<tag k="place" v="farm" />
		<tag k="ssr:stedsnr" v="376227" />
	</node>
	<node lat="62.933566670027375" lon="11.213227769405936" id="-48955">
		<tag k="alt_name" v="Heksemsvollene;Heksemsvollan" />
		<tag k="historic" v="shieling" />
		<tag k="name" v="Heksemvollen" />
		<tag k="place" v="isolated_dwelling" />
		<tag k="ssr:stedsnr" v="376409" />
	</node>
	<node lat="62.963780554637175" lon="11.015486110394859" id="-48957">
		<tag k="name" v="Brennvollen" />
		<tag k="place" v="locality" />
		<tag k="ssr:stedsnr" v="376481" />
	</node>
	<node lat="62.79999722197215" lon="11.182722223748721" id="-48960">
		<tag k="historic" v="shieling" />
		<tag k="name" v="Brattsetret" />
		<tag k="place" v="isolated_dwelling" />
		<tag k="ssr:stedsnr" v="410102" />
	</node>
	<node lat="62.73659166722889" lon="11.069777773748825" id="-48961">
		<tag k="historic" v="shieling" />
		<tag k="name" v="Hesjestøvollen" />
		<tag k="place" v="isolated_dwelling" />
		<tag k="ssr:stedsnr" v="410044" />
	</node>
	<node lat="62.952100002108196" lon="11.25745834315663" id="-48978">
		<tag k="name" v="Tverråvollan" />
		<tag k="old_name" v="Tveråvoll'ann" />
		<tag k="place" v="hamlet" />
		<tag k="ssr:stedsnr" v="410644" />
	</node>
	<node lat="62.7799472194508" lon="11.439225004880889" id="-48980">
		<tag k="name" v="Bårdshaugvollen" />
		<tag k="place" v="isolated_dwelling" />
		<tag k="ssr:stedsnr" v="410844" />
	</node>
	<node lat="62.95777221999123" lon="11.23955277263294" id="-48981">
		<tag k="historic" v="shieling" />
		<tag k="name" v="Åkerhaugen" />
		<tag k="place" v="isolated_dwelling" />
		<tag k="ssr:stedsnr" v="410846" />
	</node>
	<node lat="62.784619446720875" lon="11.353294435666019" id="-48982">
		<tag k="name" v="Salameråen" />
		<tag k="place" v="farm" />
		<tag k="ssr:stedsnr" v="410854" />
	</node>
	<node lat="62.84805277380326" lon="11.26769999552866" id="-48983">
		<tag k="name" v="Nordheim" />
		<tag k="place" v="farm" />
		<tag k="ssr:stedsnr" v="410889" />
	</node>
	<node lat="62.92500277771928" lon="11.151791669397642" id="-48984">
		<tag k="name" v="Heksem" />
		<tag k="place" v="farm" />
		<tag k="ssr:stedsnr" v="410947" />
	</node>
	<node lat="62.84300000156277" lon="11.280888886059957" id="-48986">
		<tag k="leisure" v="pitch" />
		<tag k="name" v="Kirkhusmoen arena" />
		<tag k="ssr:stedsnr" v="422690" />
	</node>
	<node lat="62.74928889045706" lon="11.095661117731686" id="-48987">
		<tag k="name" v="Øyungen hyttefelt" />
		<tag k="place" v="neighbourhood" />
		<tag k="ssr:stedsnr" v="423309" />
	</node>
	<node lat="62.71041111170967" lon="11.166241659114682" id="-48988">
		<tag k="historic" v="shieling" />
		<tag k="name" v="Øyvollen" />
		<tag k="place" v="isolated_dwelling" />
		<tag k="ssr:stedsnr" v="436009" />
	</node>
	<node lat="62.82632499683709" lon="11.19282499480119" id="-48995">
		<tag k="name" v="Ingbriktsvollen" />
		<tag k="place" v="farm" />
		<tag k="ssr:stedsnr" v="437053" />
	</node>
	<node lat="62.79781389187465" lon="11.192222218409476" id="-48996">
		<tag k="name" v="Bredslættet" />
		<tag k="place" v="farm" />
		<tag k="ssr:stedsnr" v="437001" />
	</node>
	<node lat="62.851339221121805" lon="11.264460154699353" id="-48999">
		<tag k="fixme" v="consider place=hamlet" />
		<tag k="name" v="Grytbakk" />
		<tag k="place" v="farm" />
		<tag k="ssr:stedsnr" v="437159" />
	</node>
	<node lat="62.763624619426594" lon="11.184914843828583" id="-49004">
		<tag k="name" v="Moen" />
		<tag k="place" v="locality" />
		<tag k="ssr:stedsnr" v="437251" />
	</node>
	<node lat="62.9044132781928" lon="11.19032999777447" id="-49006">
		<tag k="fixme" v="consider place=hamlet" />
		<tag k="name" v="Drøyvollen" />
		<tag k="place" v="farm" />
		<tag k="ssr:stedsnr" v="437406" />
	</node>
	<node lat="62.90852222191161" lon="11.040886105758199" id="-49007">
		<tag k="name" v="Brennrya" />
		<tag k="place" v="locality" />
		<tag k="ssr:stedsnr" v="437412" />
	</node>
	<node lat="62.918886359897115" lon="11.18464550899757" id="-49008">
		<tag k="alt_name" v="Klokkarhaugen" />
		<tag k="fixme" v="consider place=hamlet" />
		<tag k="name" v="Haugen" />
		<tag k="place" v="farm" />
		<tag k="ssr:stedsnr" v="437418" />
	</node>
	<node lat="62.95668895403833" lon="11.15500797773294" id="-49009">
		<tag k="alt_name" v="Endalsvollan" />
		<tag k="historic" v="shieling" />
		<tag k="name" v="Endalsvollen" />
		<tag k="place" v="isolated_dwelling" />
		<tag k="ssr:stedsnr" v="437466" />
	</node>
	<node lat="62.9827777755611" lon="11.102538891040789" id="-49011">
		<tag k="historic" v="shieling" />
		<tag k="name" v="Movollen" />
		<tag k="place" v="isolated_dwelling" />
		<tag k="ssr:stedsnr" v="437511" />
	</node>
	<node lat="62.82702777657648" lon="11.63140278536639" id="-49012">
		<tag k="historic" v="shieling" />
		<tag k="name" v="Jordslivollen" />
		<tag k="place" v="isolated_dwelling" />
		<tag k="ssr:stedsnr" v="437857" />
	</node>
	<node lat="62.83945832953959" lon="11.22462777775251" id="-49014">
		<tag k="name" v="Rognli" />
		<tag k="place" v="farm" />
		<tag k="ssr:stedsnr" v="437863" />
	</node>
	<node lat="62.83373059098893" lon="11.31292645564006" id="-49015">
		<tag k="alt_name" v="Jensåsvollan" />
		<tag k="fixme" v="consider place=hamlet" />
		<tag k="name" v="Jensåsvollen" />
		<tag k="place" v="farm" />
		<tag k="ssr:stedsnr" v="437865" />
	</node>
	<node lat="62.80768055362662" lon="11.501033327154788" id="-49017">
		<tag k="historic" v="shieling" />
		<tag k="name" v="Finnlandsvollan" />
		<tag k="place" v="isolated_dwelling" />
		<tag k="ssr:stedsnr" v="437910" />
	</node>
	<node lat="62.8021749983711" lon="11.349236118800702" id="-49020">
		<tag k="name" v="Eriks-Engan" />
		<tag k="place" v="farm" />
		<tag k="ssr:stedsnr" v="437919" />
	</node>
	<node lat="62.7559499987457" lon="11.333527774875362" id="-49021">
		<tag k="name" v="Grubba" />
		<tag k="place" v="farm" />
		<tag k="ssr:stedsnr" v="437955" />
	</node>
	<node lat="62.78562777921404" lon="11.357999995672577" id="-49022">
		<tag k="fixme" v="consider place=hamlet" />
		<tag k="name" v="Råtrøa" />
		<tag k="place" v="farm" />
		<tag k="ssr:stedsnr" v="437899" />
	</node>
	<node lat="62.714933334469464" lon="11.159808335211247" id="-49024">
		<tag k="historic" v="shieling" />
		<tag k="name" v="Skåkåsvollen" />
		<tag k="place" v="isolated_dwelling" />
		<tag k="ssr:stedsnr" v="470014" />
	</node>
	<node lat="62.95567221988986" lon="11.046347230705706" id="-49035">
		<tag k="name" v="Monsplassen" />
		<tag k="place" v="farm" />
		<tag k="ssr:stedsnr" v="471015" />
	</node>
	<node lat="62.69395555623124" lon="11.15708610974277" id="-49036">
		<tag k="alt_name" v="Åsvollen" />
		<tag k="historic" v="shieling" />
		<tag k="name" v="Puttvollen" />
		<tag k="place" v="isolated_dwelling" />
		<tag k="ssr:stedsnr" v="471022" />
	</node>
	<node lat="62.92723611310209" lon="11.393411105814929" id="-49037">
		<tag k="name" v="Svensvollen" />
		<tag k="place" v="isolated_dwelling" />
		<tag k="ssr:stedsnr" v="471214" />
	</node>
	<node lat="62.845411111758466" lon="11.308169440447756" id="-49051">
		<tag k="name" v="Jensåsen" />
		<tag k="place" v="farm" />
		<tag k="ssr:stedsnr" v="471902" />
	</node>
	<node lat="62.84102221905156" lon="11.319524995885752" id="-49052">
		<tag k="name" v="Djupdalshåggån" />
		<tag k="place" v="farm" />
		<tag k="ssr:stedsnr" v="471920" />
	</node>
	<node lat="62.83347364147315" lon="11.315836246409141" id="-49053">
		<tag k="name" v="Berglund" />
		<tag k="place" v="farm" />
		<tag k="ssr:stedsnr" v="471925" />
	</node>
	<node lat="62.81274721937654" lon="11.358188879526487" id="-49054">
		<tag k="name" v="Reitan" />
		<tag k="place" v="farm" />
		<tag k="ssr:stedsnr" v="471860" />
	</node>
	<node lat="62.81941667040727" lon="11.350608336867907" id="-49055">
		<tag k="name" v="Dalsbakken" />
		<tag k="place" v="farm" />
		<tag k="ssr:stedsnr" v="471862" />
	</node>
	<node lat="62.900909259493325" lon="11.197078538899657" id="-49063">
		<tag k="fixme" v="consider place=hamlet" />
		<tag k="name" v="Drøylia" />
		<tag k="place" v="farm" />
		<tag k="ssr:stedsnr" v="679099" />
	</node>
	<node lat="62.77013852725162" lon="11.186562461897411" id="-49064">
		<tag k="fixme" v="consider place=hamlet" />
		<tag k="name" v="Trøa" />
		<tag k="place" v="farm" />
		<tag k="ssr:stedsnr" v="679035" />
	</node>
	<node lat="62.87893055478176" lon="11.183730548918316" id="-49066">
		<tag k="name" v="Øya" />
		<tag k="place" v="farm" />
		<tag k="ssr:stedsnr" v="679101" />
	</node>
	<node lat="62.864907523963886" lon="11.180975552696449" id="-49067">
		<tag k="fixme" v="consider place=hamlet" />
		<tag k="name" v="Morka" />
		<tag k="place" v="farm" />
		<tag k="ssr:stedsnr" v="679117" />
	</node>
	<node lat="62.96028610678237" lon="10.986413897698407" id="-49071">
		<tag k="alt_name" v="Langlete, øvre" />
		<tag k="name" v="Øvre Langlete" />
		<tag k="place" v="isolated_dwelling" />
		<tag k="ssr:stedsnr" v="679425" />
	</node>
	<node lat="62.82059340013714" lon="11.198731099585833" id="-49079">
		<tag k="name" v="Vårhus" />
		<tag k="place" v="hamlet" />
		<tag k="ssr:stedsnr" v="680055" />
	</node>
	<node lat="62.85506981587449" lon="11.152654512957128" id="-49080">
		<tag k="historic" v="shieling" />
		<tag k="name" v="Høgvollen" />
		<tag k="place" v="isolated_dwelling" />
		<tag k="ssr:stedsnr" v="680076" />
	</node>
	<node lat="62.84657519851496" lon="11.303847258895033" id="-49084">
		<tag k="name" v="Gjerdan" />
		<tag k="place" v="hamlet" />
		<tag k="ssr:stedsnr" v="680147" />
	</node>
	<node lat="62.84048667643841" lon="11.255020739352101" id="-49085">
		<tag k="fixme" v="consider place=hamlet" />
		<tag k="name" v="Bakåsen" />
		<tag k="place" v="farm" />
		<tag k="ssr:stedsnr" v="680168" />
	</node>
	<node lat="62.8434191889311" lon="11.444528420106092" id="-49087">
		<tag k="fixme" v="multiple name tags, choose one and add the other to alt_name" />
		<tag k="historic" v="shieling" />
		<tag k="name" v="Djupdalsvollan;Folldalen" />
		<tag k="place" v="isolated_dwelling" />
		<tag k="ssr:stedsnr" v="680160" />
	</node>
	<node lat="62.92908975931045" lon="11.35305264125365" id="-49091">
		<tag k="name" v="Råvollan" />
		<tag k="place" v="isolated_dwelling" />
		<tag k="ssr:stedsnr" v="680222" />
	</node>
	<node lat="62.94812308609112" lon="11.289922430873188" id="-49093">
		<tag k="fixme" v="consider place=hamlet" />
		<tag k="name" v="Trondsaunet" />
		<tag k="place" v="farm" />
		<tag k="ssr:stedsnr" v="680230" />
	</node>
	<node lat="62.94200277917042" lon="10.967455563874632" id="-49095">
		<tag k="alt_name" v="Bollingmovollen, øvre" />
		<tag k="historic" v="shieling" />
		<tag k="name" v="Øvre Bollingmovollen" />
		<tag k="place" v="isolated_dwelling" />
		<tag k="ssr:stedsnr" v="680466" />
	</node>
	<node lat="62.92803541185105" lon="11.152743014627744" id="-49098">
		<tag k="fixme" v="consider place=hamlet" />
		<tag k="name" v="Botnen" />
		<tag k="place" v="farm" />
		<tag k="ssr:stedsnr" v="680456" />
	</node>
	<node lat="62.824981619948765" lon="11.317476494228336" id="-49100">
		<tag k="fixme" v="consider place=hamlet" />
		<tag k="name" v="Granmora" />
		<tag k="place" v="farm" />
		<tag k="ssr:stedsnr" v="680925" />
	</node>
	<node lat="62.80993401294709" lon="11.340210028507856" id="-49101">
		<tag k="fixme" v="consider place=hamlet" />
		<tag k="name" v="Brusetvollen" />
		<tag k="place" v="farm" />
		<tag k="ssr:stedsnr" v="680934" />
	</node>
	<node lat="62.81515820699256" lon="11.346897734920566" id="-49102">
		<tag k="fixme" v="consider place=hamlet" />
		<tag k="name" v="Fossvollan" />
		<tag k="place" v="farm" />
		<tag k="ssr:stedsnr" v="680939" />
	</node>
	<node lat="62.814599999274115" lon="11.475024992022108" id="-49103">
		<tag k="historic" v="shieling" />
		<tag k="name" v="Unsgardsvollen" />
		<tag k="place" v="isolated_dwelling" />
		<tag k="ssr:stedsnr" v="680948" />
	</node>
	<node lat="62.78537499865218" lon="11.345725007575416" id="-49104">
		<tag k="name" v="Hollheim" />
		<tag k="place" v="farm" />
		<tag k="ssr:stedsnr" v="680956" />
	</node>
	<node lat="62.875911113654496" lon="11.183977777216768" id="-49106">
		<tag k="name" v="Åsplassen" />
		<tag k="place" v="farm" />
		<tag k="ssr:stedsnr" v="497114" />
	</node>
	<node lat="62.85466567039651" lon="11.00856760778195" id="-49107">
		<tag k="name" v="Flovollen" />
		<tag k="place" v="locality" />
		<tag k="ssr:stedsnr" v="497054" />
	</node>
	<node lat="62.75693611147732" lon="11.158350006381374" id="-49110">
		<tag k="historic" v="shieling" />
		<tag k="name" v="Røsta" />
		<tag k="place" v="isolated_dwelling" />
		<tag k="ssr:stedsnr" v="497207" />
	</node>
	<node lat="62.76053695331302" lon="11.177434491037344" id="-49111">
		<tag k="fixme" v="consider place=hamlet" />
		<tag k="name" v="Kjerringvollen" />
		<tag k="place" v="farm" />
		<tag k="ssr:stedsnr" v="497212" />
	</node>
	<node lat="62.76326238674293" lon="11.169172982790668" id="-49113">
		<tag k="name" v="Nyheim" />
		<tag k="place" v="farm" />
		<tag k="ssr:stedsnr" v="497216" />
	</node>
	<node lat="62.99599722075623" lon="11.11142778349942" id="-49115">
		<tag k="historic" v="shieling" />
		<tag k="name" v="Grønsetlivollen" />
		<tag k="place" v="isolated_dwelling" />
		<tag k="ssr:stedsnr" v="497253" />
	</node>
	<node lat="62.962116667177895" lon="10.974805557172894" id="-49118">
		<tag k="alt_name" v="Langlete, nedre" />
		<tag k="fixme" v="multiple name tags, choose one and add the other to alt_name" />
		<tag k="name" v="Langletet;Nedre Langlete" />
		<tag k="place" v="farm" />
		<tag k="ssr:stedsnr" v="497448" />
	</node>
	<node lat="62.830408328995645" lon="11.344577782426056" id="-49122">
		<tag k="alt_name" v="Søndre Haugen;Søre Haugen" />
		<tag k="name" v="Haugen" />
		<tag k="place" v="farm" />
		<tag k="ssr:stedsnr" v="498897" />
	</node>
	<node lat="62.825344443376814" lon="11.60719999359851" id="-49123">
		<tag k="historic" v="shieling" />
		<tag k="name" v="Jensåsvollan" />
		<tag k="place" v="isolated_dwelling" />
		<tag k="ssr:stedsnr" v="498899" />
	</node>
	<node lat="63.04292499639606" lon="11.088863886917743" id="-49127">
		<tag k="historic" v="shieling" />
		<tag k="name" v="Ysetvollan" />
		<tag k="place" v="isolated_dwelling" />
		<tag k="ssr:stedsnr" v="506371" />
	</node>
	<node lat="62.71748332886997" lon="11.16850278206328" id="-49133">
		<tag k="historic" v="shieling" />
		<tag k="name" v="Øverhaugsvollen" />
		<tag k="place" v="isolated_dwelling" />
		<tag k="ssr:stedsnr" v="531004" />
	</node>
	<node lat="62.946925454095876" lon="11.06093072912333" id="-49134">
		<tag k="fixme" v="consider place=hamlet" />
		<tag k="name" v="Grønset" />
		<tag k="place" v="farm" />
		<tag k="ssr:stedsnr" v="531015" />
	</node>
	<node lat="62.937005551394186" lon="11.298833334457914" id="-49145">
		<tag k="alt_name" v="Østerøyan" />
		<tag k="name" v="Usterøyan" />
		<tag k="place" v="locality" />
		<tag k="ssr:stedsnr" v="531340" />
	</node>
	<node lat="62.93691666637685" lon="11.30459444386424" id="-49146">
		<tag k="name" v="Ratøya" />
		<tag k="place" v="locality" />
		<tag k="ssr:stedsnr" v="531342" />
	</node>
	<node lat="62.84445555462846" lon="11.231413896100868" id="-49154">
		<tag k="name" v="Bendosen" />
		<tag k="place" v="farm" />
		<tag k="ssr:stedsnr" v="531730" />
	</node>
	<node lat="62.92421389014935" lon="11.175205564582225" id="-49155">
		<tag k="name" v="Larsgården" />
		<tag k="place" v="farm" />
		<tag k="ssr:stedsnr" v="531973" />
	</node>
	<node lat="62.92236666835726" lon="11.166063886073578" id="-49156">
		<tag k="name" v="Heksem" />
		<tag k="place" v="farm" />
		<tag k="ssr:stedsnr" v="531975" />
	</node>
	<node lat="62.80686111339295" lon="11.33957500612167" id="-49157">
		<tag k="alt_name" v="Nordre Kåsa;Kåsa nordre" />
		<tag k="name" v="Nørdre Kåsa" />
		<tag k="place" v="farm" />
		<tag k="ssr:stedsnr" v="531988" />
	</node>
	<node lat="62.940549997357245" lon="11.245766674001633" id="-49158">
		<tag k="historic" v="shieling" />
		<tag k="name" v="Aletsetra" />
		<tag k="place" v="isolated_dwelling" />
		<tag k="ssr:stedsnr" v="532921" />
	</node>
	<node lat="62.94179722590965" lon="11.248211117554549" id="-49159">
		<tag k="historic" v="shieling" />
		<tag k="name" v="Jorriholet" />
		<tag k="place" v="isolated_dwelling" />
		<tag k="ssr:stedsnr" v="532923" />
	</node>
	<node lat="62.83511111169121" lon="11.307088884096109" id="-49160">
		<tag k="name" v="Jensavollan" />
		<tag k="place" v="farm" />
		<tag k="ssr:stedsnr" v="542870" />
	</node>
	<node lat="62.8514819253892" lon="11.241403976792858" id="-49161">
		<tag k="alt_name" v="Stensli" />
		<tag k="name" v="Stenslia" />
		<tag k="place" v="farm" />
		<tag k="ssr:stedsnr" v="545368" />
	</node>
	<node lat="62.71368055288165" lon="11.153374997303207" id="-49165">
		<tag k="historic" v="shieling" />
		<tag k="name" v="Øyvollen" />
		<tag k="place" v="isolated_dwelling" />
		<tag k="ssr:stedsnr" v="557005" />
	</node>
	<node lat="62.73902500433563" lon="11.143750001968026" id="-49166">
		<tag k="historic" v="shieling" />
		<tag k="name" v="Løbergsvollen" />
		<tag k="place" v="isolated_dwelling" />
		<tag k="ssr:stedsnr" v="557012" />
	</node>
	<node lat="62.8570194433865" lon="11.235605559125837" id="-49170">
		<tag k="fixme" v="consider place=hamlet" />
		<tag k="name" v="Hesjestøa" />
		<tag k="place" v="farm" />
		<tag k="ssr:stedsnr" v="558147" />
	</node>
	<node lat="62.920788889391865" lon="11.135833336276262" id="-49175">
		<tag k="name" v="Evenstad" />
		<tag k="place" v="farm" />
		<tag k="ssr:stedsnr" v="558408" />
	</node>
	<node lat="62.92496918907334" lon="11.178261644822191" id="-49176">
		<tag k="name" v="Bjørgan" />
		<tag k="place" v="hamlet" />
		<tag k="ssr:stedsnr" v="558416" />
	</node>
	<node lat="62.9424299896172" lon="11.211296421892817" id="-49177">
		<tag k="fixme" v="consider place=hamlet" />
		<tag k="name" v="Lian" />
		<tag k="place" v="farm" />
		<tag k="ssr:stedsnr" v="558443" />
	</node>
	<node lat="62.82068888986916" lon="11.354030546742566" id="-49180">
		<tag k="name" v="Stømnenget" />
		<tag k="place" v="farm" />
		<tag k="ssr:stedsnr" v="558905" />
	</node>
	<node lat="62.83080277712386" lon="11.6632249983506" id="-49183">
		<tag k="historic" v="shieling" />
		<tag k="name" v="Lunderengvollan" />
		<tag k="place" v="isolated_dwelling" />
		<tag k="ssr:stedsnr" v="558913" />
	</node>
	<node lat="62.9370588656054" lon="11.222769756254838" id="-49185">
		<tag k="historic" v="shieling" />
		<tag k="name" v="Sjettlivollan" />
		<tag k="place" v="isolated_dwelling" />
		<tag k="ssr:stedsnr" v="566212" />
	</node>
	<node lat="62.95828759054331" lon="11.000834069076555" id="-49188">
		<tag k="fixme" v="consider place=hamlet" />
		<tag k="name" v="Fætta" />
		<tag k="place" v="farm" />
		<tag k="ssr:stedsnr" v="566463" />
	</node>
	<node lat="62.84244444859838" lon="11.290669450602902" id="-49190">
		<tag k="amenity" v="school" />
		<tag k="name" v="Hov skole" />
		<tag k="ssr:stedsnr" v="586255" />
	</node>
	<node lat="62.74583333617691" lon="11.208699992815378" id="-49191">
		<tag k="name" v="Nørdre Grøtådalen" />
		<tag k="place" v="farm" />
		<tag k="ssr:stedsnr" v="591109" />
	</node>
	<node lat="62.91911389032898" lon="11.181580548084654" id="-49197">
		<tag k="name" v="Hanshaugen" />
		<tag k="place" v="farm" />
		<tag k="ssr:stedsnr" v="591973" />
	</node>
	<node lat="62.77099722030238" lon="11.052677785035359" id="-49198">
		<tag k="historic" v="shieling" />
		<tag k="name" v="Vårhusvollen" />
		<tag k="place" v="isolated_dwelling" />
		<tag k="ssr:stedsnr" v="592052" />
	</node>
	<node lat="62.944941666999746" lon="11.292963894285057" id="-49209">
		<tag k="name" v="Fageråsen" />
		<tag k="place" v="farm" />
		<tag k="ssr:stedsnr" v="592875" />
	</node>
	<node lat="62.80543055770455" lon="11.348288885495444" id="-49210">
		<tag k="name" v="Engset" />
		<tag k="place" v="farm" />
		<tag k="ssr:stedsnr" v="592905" />
	</node>
	<node lat="62.82043610886604" lon="11.347216665537733" id="-49211">
		<tag k="name" v="Sundal" />
		<tag k="place" v="farm" />
		<tag k="ssr:stedsnr" v="592907" />
	</node>
	<node lat="62.818758334701634" lon="11.345552780692195" id="-49212">
		<tag k="name" v="Hagen" />
		<tag k="place" v="farm" />
		<tag k="ssr:stedsnr" v="592908" />
	</node>
	<node lat="62.844950000114935" lon="11.246244441879805" id="-49213">
		<tag k="name" v="Myrvang" />
		<tag k="place" v="farm" />
		<tag k="ssr:stedsnr" v="592924" />
	</node>
	<node lat="62.967683336083425" lon="11.10009999492377" id="-49215">
		<tag k="name" v="Saksgarden hyttefelt" />
		<tag k="place" v="neighbourhood" />
		<tag k="ssr:stedsnr" v="604303" />
	</node>
	<node lat="62.76734166675942" lon="11.037805564911814" id="-49221">
		<tag k="historic" v="shieling" />
		<tag k="name" v="Kvamvollen" />
		<tag k="place" v="isolated_dwelling" />
		<tag k="ssr:stedsnr" v="619029" />
	</node>
	<node lat="62.912052773660605" lon="11.211599997822129" id="-49225">
		<tag k="historic" v="shieling" />
		<tag k="name" v="Aletlia" />
		<tag k="place" v="isolated_dwelling" />
		<tag k="ssr:stedsnr" v="619426" />
	</node>
	<node lat="62.83796666481319" lon="11.335341659132034" id="-49226">
		<tag k="name" v="Renmoen" />
		<tag k="place" v="farm" />
		<tag k="ssr:stedsnr" v="619905" />
	</node>
	<node lat="62.82701666513022" lon="11.319074997383197" id="-49227">
		<tag k="fixme" v="consider place=hamlet" />
		<tag k="name" v="Storvollen" />
		<tag k="place" v="farm" />
		<tag k="ssr:stedsnr" v="619916" />
	</node>
	<node lat="62.91192222534517" lon="11.189474993541038" id="-49228">
		<tag k="name" v="Innlegget" />
		<tag k="place" v="farm" />
		<tag k="ssr:stedsnr" v="627398" />
	</node>
	<node lat="62.93023333531014" lon="11.210866676357087" id="-49230">
		<tag k="historic" v="shieling" />
		<tag k="name" v="Bjørgvollan" />
		<tag k="place" v="isolated_dwelling" />
		<tag k="ssr:stedsnr" v="631989" />
	</node>
	<node lat="62.94447222250145" lon="11.166377769632856" id="-49235">
		<tag k="name" v="Lian" />
		<tag k="place" v="locality" />
		<tag k="ssr:stedsnr" v="652445" />
	</node>
	<node lat="62.71220833377196" lon="11.161088896675208" id="-49237">
		<tag k="historic" v="shieling" />
		<tag k="name" v="Lauvåsvollen" />
		<tag k="place" v="isolated_dwelling" />
		<tag k="ssr:stedsnr" v="652645" />
	</node>
	<node lat="62.79596666992624" lon="11.35608611763826" id="-49240">
		<tag k="name" v="Skårdalen" />
		<tag k="place" v="hamlet" />
		<tag k="ssr:stedsnr" v="653110" />
	</node>
	<node lat="62.848502774345555" lon="11.278780548779729" id="-49251">
		<tag k="alt_name" v="Rydningen" />
		<tag k="fixme" v="consider place=hamlet" />
		<tag k="name" v="Rønningen" />
		<tag k="place" v="farm" />
		<tag k="ssr:stedsnr" v="653992" />
	</node>
	<node lat="62.85034444410348" lon="11.230888890381411" id="-49252">
		<tag k="fixme" v="consider place=hamlet" />
		<tag k="name" v="Bukkfætten" />
		<tag k="place" v="farm" />
		<tag k="ssr:stedsnr" v="653996" />
	</node>
	<node lat="62.931122224053716" lon="11.34423888965777" id="-49253">
		<tag k="name" v="Envollen" />
		<tag k="place" v="isolated_dwelling" />
		<tag k="ssr:stedsnr" v="653839" />
	</node>
	<node lat="62.84793333701613" lon="11.251991672370405" id="-49254">
		<tag k="name" v="Nordgjerdet" />
		<tag k="place" v="farm" />
		<tag k="ssr:stedsnr" v="653884" />
	</node>
	<node lat="62.68236774126178" lon="11.159461711579475" id="-49256">
		<tag k="name" v="Moavollen" />
		<tag k="place" v="isolated_dwelling" />
		<tag k="ssr:stedsnr" v="679209" />
	</node>
	<node lat="62.92265606998829" lon="11.136218974845649" id="-49258">
		<tag k="fixme" v="multiple name tags, choose one and add the other to alt_name; consider place=hamlet" />
		<tag k="name" v="Evenåsen;Sørensåsen" />
		<tag k="place" v="farm" />
		<tag k="ssr:stedsnr" v="680431" />
	</node>
	<node lat="62.94476049839152" lon="11.096267882043346" id="-49259">
		<tag k="alt_name" v="Klasaunet;Sommervoll" />
		<tag k="fixme" v="consider place=hamlet" />
		<tag k="name" v="Sommarvoll" />
		<tag k="place" v="farm" />
		<tag k="ssr:stedsnr" v="688443" />
	</node>
	<node lat="62.86290000300153" lon="11.21464445329732" id="-49262">
		<tag k="name" v="Klingenberg" />
		<tag k="place" v="farm" />
		<tag k="ssr:stedsnr" v="895081" />
	</node>
	<node lat="62.86465000456465" lon="11.179963882897974" id="-49263">
		<tag k="name" v="Klevan" />
		<tag k="place" v="farm" />
		<tag k="ssr:stedsnr" v="895084" />
	</node>
	<node lat="62.837997222952126" lon="11.177183337556913" id="-49264">
		<tag k="name" v="Åsbardet" />
		<tag k="place" v="farm" />
		<tag k="ssr:stedsnr" v="895087" />
	</node>
	<node lat="62.760036111962705" lon="11.17691111396658" id="-49265">
		<tag k="name" v="Haugen" />
		<tag k="place" v="farm" />
		<tag k="ssr:stedsnr" v="895130" />
	</node>
	<node lat="62.9607388859832" lon="11.2049583241764" id="-49266">
		<tag k="name" v="Kvammen" />
		<tag k="place" v="locality" />
		<tag k="ssr:stedsnr" v="895229" />
	</node>
	<node lat="62.81183333145585" lon="11.339091669048866" id="-49271">
		<tag k="name" v="Østerås" />
		<tag k="place" v="farm" />
		<tag k="ssr:stedsnr" v="895991" />
	</node>
	<node lat="62.9279638913766" lon="11.133663897339465" id="-49275">
		<tag k="name" v="Øvre Rønningen" />
		<tag k="place" v="farm" />
		<tag k="ssr:stedsnr" v="895948" />
	</node>
	<node lat="62.927483336402126" lon="11.167872213076187" id="-49276">
		<tag k="name" v="Bjørke" />
		<tag k="place" v="farm" />
		<tag k="ssr:stedsnr" v="895951" />
	</node>
	<node lat="62.84261111178472" lon="11.319577783284883" id="-49277">
		<tag k="name" v="Nybakken" />
		<tag k="place" v="farm" />
		<tag k="ssr:stedsnr" v="896040" />
	</node>
	<node lat="62.77659167091812" lon="11.0693500003781" id="-49278">
		<tag k="name" v="Eidebakkhytta" />
		<tag k="place" v="isolated_dwelling" />
		<tag k="ssr:stedsnr" v="896045" />
	</node>
	<node lat="62.791647222205" lon="11.35863611632886" id="-49301">
		<tag k="name" v="Moen" />
		<tag k="place" v="farm" />
		<tag k="ssr:stedsnr" v="896885" />
	</node>
	<node lat="62.81598055752942" lon="11.503136113509989" id="-49302">
		<tag k="historic" v="shieling" />
		<tag k="name" v="Løbergsvollen" />
		<tag k="place" v="isolated_dwelling" />
		<tag k="ssr:stedsnr" v="896901" />
	</node>
	<node lat="62.84278611237459" lon="11.30130555190781" id="-49303">
		<tag k="name" v="Skansen" />
		<tag k="place" v="farm" />
		<tag k="ssr:stedsnr" v="896932" />
	</node>
	<node lat="62.83763888943962" lon="11.326091671260658" id="-49304">
		<tag k="name" v="Ustigard" />
		<tag k="place" v="farm" />
		<tag k="ssr:stedsnr" v="896937" />
	</node>
	<node lat="62.842336109251946" lon="11.308402771373233" id="-49305">
		<tag k="alt_name" v="Litlgjerdet nedre" />
		<tag k="name" v="Nedre Litlgjerdet" />
		<tag k="place" v="farm" />
		<tag k="ssr:stedsnr" v="896940" />
	</node>
	<node lat="62.82495520794191" lon="11.325548086647483" id="-49306">
		<tag k="fixme" v="consider place=hamlet" />
		<tag k="name" v="Melia" />
		<tag k="place" v="farm" />
		<tag k="ssr:stedsnr" v="896948" />
	</node>
	<node lat="62.920613886607946" lon="11.170827781761018" id="-49307">
		<tag k="amenity" v="school" />
		<tag k="name" v="Haltdalen oppvekstsenter" />
		<tag k="old_name" v="Grøt skole" />
		<tag k="ssr:stedsnr" v="706861" />
	</node>
	<node lat="62.73761110744324" lon="11.069952776070457" id="-49311">
		<tag k="historic" v="shieling" />
		<tag k="name" v="Kolbotnvollan" />
		<tag k="place" v="isolated_dwelling" />
		<tag k="ssr:stedsnr" v="713726" />
	</node>
	<node lat="62.75683611252258" lon="11.308777781422425" id="-49314">
		<tag k="historic" v="shieling" />
		<tag k="name" v="Litlstugguvollen" />
		<tag k="place" v="isolated_dwelling" />
		<tag k="ssr:stedsnr" v="713984" />
	</node>
	<node lat="62.76408610906255" lon="11.334080548232881" id="-49315">
		<tag k="name" v="Berg" />
		<tag k="place" v="farm" />
		<tag k="ssr:stedsnr" v="713985" />
	</node>
	<node lat="62.828444440236744" lon="11.334416660921036" id="-49333">
		<tag k="name" v="Rimsgarden" />
		<tag k="place" v="farm" />
		<tag k="ssr:stedsnr" v="714903" />
	</node>
	<node lat="62.948202778612625" lon="11.287569446548313" id="-49334">
		<tag k="name" v="Nordstuggu" />
		<tag k="place" v="farm" />
		<tag k="ssr:stedsnr" v="714824" />
	</node>
	<node lat="62.84737500299291" lon="11.311350009618964" id="-49335">
		<tag k="name" v="Nordvang" />
		<tag k="place" v="farm" />
		<tag k="ssr:stedsnr" v="714890" />
	</node>
	<node lat="62.846041663927664" lon="11.259177774828515" id="-49336">
		<tag k="name" v="Moan" />
		<tag k="place" v="farm" />
		<tag k="ssr:stedsnr" v="714895" />
	</node>
	<node lat="62.83463888491794" lon="11.331188885641613" id="-49337">
		<tag k="name" v="Åsheim" />
		<tag k="place" v="farm" />
		<tag k="ssr:stedsnr" v="714928" />
	</node>
	<node lat="62.845963884801755" lon="11.292338882770748" id="-49338">
		<tag k="name" v="Norder Hov" />
		<tag k="place" v="farm" />
		<tag k="ssr:stedsnr" v="714930" />
	</node>
	<node lat="62.70798889087274" lon="11.184758327820205" id="-49339">
		<tag k="historic" v="shieling" />
		<tag k="name" v="Heggsetvollan" />
		<tag k="place" v="isolated_dwelling" />
		<tag k="ssr:stedsnr" v="739005" />
	</node>
	<node lat="62.79310000355935" lon="11.09578611869173" id="-49342">
		<tag k="historic" v="shieling" />
		<tag k="name" v="Båttjønnvollen" />
		<tag k="place" v="isolated_dwelling" />
		<tag k="ssr:stedsnr" v="740004" />
	</node>
	<node lat="62.792156496440455" lon="11.181503048301574" id="-49343">
		<tag k="alt_name" v="Engesvoll" />
		<tag k="name" v="Engesvollen" />
		<tag k="place" v="hamlet" />
		<tag k="ssr:stedsnr" v="740005" />
	</node>
	<node lat="62.776349998577345" lon="10.915927779726438" id="-49344">
		<tag k="historic" v="shieling" />
		<tag k="name" v="Øyavollen" />
		<tag k="place" v="isolated_dwelling" />
		<tag k="ssr:stedsnr" v="740016" />
	</node>
	<node lat="62.774097224694046" lon="11.034022214728585" id="-49345">
		<tag k="historic" v="shieling" />
		<tag k="name" v="Raudåvollen" />
		<tag k="place" v="isolated_dwelling" />
		<tag k="ssr:stedsnr" v="740018" />
	</node>
	<node lat="62.94318971429207" lon="11.067080401770912" id="-49349">
		<tag k="name" v="Flatberg" />
		<tag k="place" v="hamlet" />
		<tag k="ssr:stedsnr" v="740406" />
	</node>
	<node lat="62.77947499971651" lon="11.443836109563183" id="-49356">
		<tag k="name" v="Sundvollen" />
		<tag k="place" v="isolated_dwelling" />
		<tag k="ssr:stedsnr" v="228863" />
	</node>
	<node lat="62.82577499960277" lon="11.351388896036026" id="-49357">
		<tag k="name" v="Bjerkli" />
		<tag k="place" v="farm" />
		<tag k="ssr:stedsnr" v="228874" />
	</node>
	<node lat="62.839958329530496" lon="11.318974998308127" id="-49358">
		<tag k="name" v="Aspli" />
		<tag k="place" v="farm" />
		<tag k="ssr:stedsnr" v="228942" />
	</node>
	<node lat="62.832155559662226" lon="11.338772221676017" id="-49359">
		<tag k="name" v="Saksgarden" />
		<tag k="place" v="farm" />
		<tag k="ssr:stedsnr" v="228944" />
	</node>
	<node lat="62.82548978007177" lon="11.317566310142118" id="-49360">
		<tag k="name" v="Granmora" />
		<tag k="place" v="farm" />
		<tag k="ssr:stedsnr" v="228945" />
	</node>
	<node lat="62.83395278134562" lon="11.31145277211457" id="-49361">
		<tag k="name" v="Vollan" />
		<tag k="place" v="farm" />
		<tag k="ssr:stedsnr" v="228946" />
	</node>
	<node lat="62.833763892662525" lon="11.336569440674369" id="-49362">
		<tag k="name" v="Bjørgardshåggån" />
		<tag k="place" v="farm" />
		<tag k="ssr:stedsnr" v="228948" />
	</node>
	<node lat="62.92378055384896" lon="11.175866671179872" id="-49363">
		<tag k="name" v="Danielsgården" />
		<tag k="place" v="farm" />
		<tag k="ssr:stedsnr" v="228958" />
	</node>
	<node lat="62.925727779382854" lon="11.175266658311436" id="-49364">
		<tag k="name" v="Oppgården" />
		<tag k="place" v="farm" />
		<tag k="ssr:stedsnr" v="228961" />
	</node>
	<node lat="62.92852777682933" lon="11.163911108872728" id="-49365">
		<tag k="name" v="Bjørklund" />
		<tag k="place" v="farm" />
		<tag k="ssr:stedsnr" v="228962" />
	</node>
	<node lat="62.91607777993006" lon="11.182380559539354" id="-49366">
		<tag k="name" v="Hagen" />
		<tag k="place" v="farm" />
		<tag k="ssr:stedsnr" v="228966" />
	</node>
	<node lat="62.8462722238894" lon="11.276113888932478" id="-49369">
		<tag k="name" v="Rønningslia" />
		<tag k="place" v="quarter" />
		<tag k="ssr:stedsnr" v="907644" />
	</node>
	<node lat="62.71008333552539" lon="11.166238880225462" id="-49371">
		<tag k="historic" v="shieling" />
		<tag k="name" v="Bekkavollen" />
		<tag k="place" v="isolated_dwelling" />
		<tag k="ssr:stedsnr" v="774008" />
	</node>
	<node lat="62.779488886343096" lon="11.17920833435408" id="-49372">
		<tag k="name" v="Bjørgheim" />
		<tag k="place" v="farm" />
		<tag k="ssr:stedsnr" v="774013" />
	</node>
	<node lat="62.824872219402565" lon="11.195038894401794" id="-49373">
		<tag k="name" v="Vårhusbjørga" />
		<tag k="place" v="farm" />
		<tag k="ssr:stedsnr" v="774116" />
	</node>
	<node lat="62.78793610974019" lon="11.182388890391888" id="-49376">
		<tag k="name" v="Engesvollen" />
		<tag k="place" v="neighbourhood" />
		<tag k="ssr:stedsnr" v="908380" />
	</node>
	<node lat="62.902063892979484" lon="11.196044446219673" id="-49377">
		<tag k="name" v="Haugen" />
		<tag k="place" v="farm" />
		<tag k="ssr:stedsnr" v="774059" />
	</node>
	<node lat="62.933916664435536" lon="11.214241674208308" id="-49382">
		<tag k="name" v="Sjettlivollan" />
		<tag k="place" v="locality" />
		<tag k="ssr:stedsnr" v="774504" />
	</node>
	<node lat="62.72118610846966" lon="10.997052784429638" id="-49387">
		<tag k="historic" v="shieling" />
		<tag k="name" v="Grønåsvollen" />
		<tag k="place" v="isolated_dwelling" />
		<tag k="ssr:stedsnr" v="774707" />
	</node>
	<node lat="62.84293333517754" lon="11.273355560761969" id="-49388">
		<tag k="name" v="Karlsberg" />
		<tag k="place" v="farm" />
		<tag k="ssr:stedsnr" v="774713" />
	</node>
	<node lat="62.849124998311034" lon="11.252661118467254" id="-49394">
		<tag k="alt_name" v="Østengen" />
		<tag k="fixme" v="multiple name tags, choose one and add the other to alt_name" />
		<tag k="name" v="Stenset;Ystenget" />
		<tag k="place" v="farm" />
		<tag k="ssr:stedsnr" v="774909" />
	</node>
	<node lat="62.847150000505884" lon="11.306086114256775" id="-49395">
		<tag k="name" v="Jensåsen" />
		<tag k="place" v="farm" />
		<tag k="ssr:stedsnr" v="774914" />
	</node>
	<node lat="62.92713889135967" lon="11.136922232198009" id="-49396">
		<tag k="name" v="Hesthagen" />
		<tag k="place" v="farm" />
		<tag k="ssr:stedsnr" v="774960" />
	</node>
	<node lat="62.778508329663225" lon="11.44688612032427" id="-49397">
		<tag k="name" v="Killingløkka" />
		<tag k="place" v="isolated_dwelling" />
		<tag k="ssr:stedsnr" v="774861" />
	</node>
	<node lat="62.84556388748574" lon="11.263838898014576" id="-49401">
		<tag k="name" v="Moan" />
		<tag k="place" v="farm" />
		<tag k="ssr:stedsnr" v="788404" />
	</node>
	<node lat="62.78021305634055" lon="11.169607894483283" id="-49403">
		<tag k="name" v="Finnsåvollen" />
		<tag k="place" v="farm" />
		<tag k="ssr:stedsnr" v="801017" />
	</node>
	<node lat="62.87037294202977" lon="11.20699424210514" id="-49408">
		<tag k="fixme" v="multiple name tags, choose one and add the other to alt_name; consider place=hamlet" />
		<tag k="name" v="Bukkrønningen;Tamlagsrønningen" />
		<tag k="place" v="farm" />
		<tag k="ssr:stedsnr" v="801112" />
	</node>
	<node lat="62.899326009845545" lon="11.112078033189851" id="-49413">
		<tag k="name" v="Øvervollen" />
		<tag k="place" v="locality" />
		<tag k="ssr:stedsnr" v="801373" />
	</node>
	<node lat="62.91073055541139" lon="11.020897224904346" id="-49416">
		<tag k="name" v="Fjellvollen" />
		<tag k="place" v="isolated_dwelling" />
		<tag k="ssr:stedsnr" v="801379" />
	</node>
	<node lat="62.80923333734156" lon="11.365894450527383" id="-49422">
		<tag k="name" v="Reitan" />
		<tag k="place" v="farm" />
		<tag k="ssr:stedsnr" v="801906" />
	</node>
	<node lat="62.8159083372866" lon="11.493427782839744" id="-49423">
		<tag k="historic" v="shieling" />
		<tag k="name" v="Stømnvollen" />
		<tag k="place" v="isolated_dwelling" />
		<tag k="ssr:stedsnr" v="801910" />
	</node>
	<node lat="62.7874166699859" lon="11.388652784954923" id="-49429">
		<tag k="historic" v="shieling" />
		<tag k="name" v="Kvernsåsvollen" />
		<tag k="place" v="isolated_dwelling" />
		<tag k="ssr:stedsnr" v="801919" />
	</node>
	<node lat="62.7856706457935" lon="11.390308607290741" id="-49430">
		<tag k="name" v="Sibirien" />
		<tag k="place" v="locality" />
		<tag k="ssr:stedsnr" v="801920" />
	</node>
	<node lat="62.827438891711694" lon="11.350666670786154" id="-49432">
		<tag k="name" v="Graftåsen" />
		<tag k="place" v="hamlet" />
		<tag k="ssr:stedsnr" v="801883" />
	</node>
	<node lat="62.771135873681246" lon="11.18712476856831" id="-49440">
		<tag k="name" v="Slåttet" />
		<tag k="place" v="farm" />
		<tag k="ssr:stedsnr" v="922031" />
	</node>
	<node lat="62.807471655462244" lon="11.196190350396616" id="-49442">
		<tag k="name" v="Heggset" />
		<tag k="place" v="hamlet" />
		<tag k="ssr:stedsnr" v="922055" />
	</node>
	<node lat="62.876560884254005" lon="11.189270115027444" id="-49444">
		<tag k="fixme" v="consider place=hamlet" />
		<tag k="name" v="Tamlaget" />
		<tag k="place" v="farm" />
		<tag k="ssr:stedsnr" v="922119" />
	</node>
	<node lat="62.73347777814093" lon="11.014163888840018" id="-49446">
		<tag k="historic" v="shieling" />
		<tag k="name" v="Grønåsvollen" />
		<tag k="place" v="isolated_dwelling" />
		<tag k="ssr:stedsnr" v="228716" />
	</node>
	<node lat="62.905691662833554" lon="11.176158323511027" id="-49448">
		<tag k="alt_name" v="Rønningen, midtre;Rønningen midtre" />
		<tag k="name" v="Midtre Rønningen" />
		<tag k="place" v="farm" />
		<tag k="ssr:stedsnr" v="922351" />
	</node>
	<node lat="62.91309722409033" lon="11.14125832394599" id="-49449">
		<tag k="name" v="Smedvollen" />
		<tag k="place" v="locality" />
		<tag k="ssr:stedsnr" v="922366" />
	</node>
	<node lat="62.857863887949655" lon="11.182186114105617" id="-49455">
		<tag k="name" v="Grantrøa" />
		<tag k="place" v="farm" />
		<tag k="ssr:stedsnr" v="923092" />
	</node>
	<node lat="62.84183921285127" lon="11.206366066925957" id="-49456">
		<tag k="fixme" v="consider place=hamlet" />
		<tag k="name" v="Mesmyra" />
		<tag k="place" v="farm" />
		<tag k="ssr:stedsnr" v="923099" />
	</node>
	<node lat="62.84772595833863" lon="11.286473290620114" id="-49457">
		<tag k="name" v="Løberg" />
		<tag k="place" v="hamlet" />
		<tag k="ssr:stedsnr" v="923191" />
	</node>
	<node lat="62.814666591235" lon="11.495756045225052" id="-49460">
		<tag k="historic" v="shieling" />
		<tag k="loc_name" v="Graftsåsvollan" />
		<tag k="name" v="Graftåsvollan" />
		<tag k="place" v="isolated_dwelling" />
		<tag k="ssr:stedsnr" v="923929" />
	</node>
	<node lat="62.79340263526549" lon="11.340969776183822" id="-49462">
		<tag k="fixme" v="consider place=hamlet" />
		<tag k="name" v="Ner-Holla" />
		<tag k="place" v="farm" />
		<tag k="ssr:stedsnr" v="923941" />
	</node>
	<node lat="62.80039567758156" lon="11.334418946145409" id="-49463">
		<tag k="name" v="Holla" />
		<tag k="place" v="hamlet" />
		<tag k="ssr:stedsnr" v="923945" />
	</node>
	<node lat="62.928005559557114" lon="11.200161119934423" id="-49464">
		<tag k="name" v="Svenslia" />
		<tag k="place" v="farm" />
		<tag k="ssr:stedsnr" v="923437" />
	</node>
	<node lat="62.92900833405103" lon="11.176822216543929" id="-49465">
		<tag k="name" v="Munklia" />
		<tag k="place" v="farm" />
		<tag k="ssr:stedsnr" v="923440" />
	</node>
	<node lat="62.82860555564801" lon="11.638261102286023" id="-49467">
		<tag k="historic" v="shieling" />
		<tag k="name" v="Melivollen" />
		<tag k="place" v="isolated_dwelling" />
		<tag k="ssr:stedsnr" v="923896" />
	</node>
	<node lat="62.81487421201422" lon="11.494788830723202" id="-49470">
		<tag k="historic" v="shieling" />
		<tag k="name" v="Bjørgardsvollen" />
		<tag k="place" v="isolated_dwelling" />
		<tag k="ssr:stedsnr" v="923967" />
	</node>
	<node lat="62.805380559453134" lon="11.190413896913672" id="-49478">
		<tag k="name" v="Frigård" />
		<tag k="place" v="locality" />
		<tag k="ssr:stedsnr" v="835436" />
	</node>
	<node lat="62.80622499818725" lon="11.35132500620542" id="-49489">
		<tag k="name" v="Eriks-Engan" />
		<tag k="place" v="farm" />
		<tag k="ssr:stedsnr" v="835872" />
	</node>
	<node lat="62.81400833707022" lon="11.34654999461633" id="-49490">
		<tag k="name" v="Skog" />
		<tag k="place" v="farm" />
		<tag k="ssr:stedsnr" v="835874" />
	</node>
	<node lat="62.81538333152691" lon="11.480958340765437" id="-49491">
		<tag k="historic" v="shieling" />
		<tag k="name" v="Stømnevollen" />
		<tag k="place" v="isolated_dwelling" />
		<tag k="ssr:stedsnr" v="835891" />
	</node>
	<node lat="62.84786944616589" lon="11.321430547219418" id="-49493">
		<tag k="name" v="Nordvang" />
		<tag k="place" v="farm" />
		<tag k="ssr:stedsnr" v="835912" />
	</node>
	<node lat="62.83102222588444" lon="11.337472213999254" id="-49494">
		<tag k="name" v="Haugli" />
		<tag k="place" v="farm" />
		<tag k="ssr:stedsnr" v="835930" />
	</node>
	<node lat="62.75030555301374" lon="11.325791667061825" id="-49495">
		<tag k="name" v="Slågrovsvollan" />
		<tag k="place" v="isolated_dwelling" />
		<tag k="ssr:stedsnr" v="835982" />
	</node>
	<node lat="62.79410000088002" lon="11.194411111250856" id="-49498">
		<tag k="name" v="Nordlia" />
		<tag k="place" v="farm" />
		<tag k="ssr:stedsnr" v="862016" />
	</node>
	<node lat="63.023952776974234" lon="11.138219439924242" id="-49500">
		<tag k="historic" v="shieling" />
		<tag k="name" v="Fonnvollan" />
		<tag k="place" v="isolated_dwelling" />
		<tag k="ssr:stedsnr" v="862204" />
	</node>
	<node lat="62.907113886952345" lon="11.444094441868277" id="-49503">
		<tag k="name" v="Råen" />
		<tag k="place" v="isolated_dwelling" />
		<tag k="ssr:stedsnr" v="862217" />
	</node>
	<node lat="63.030569445391734" lon="11.04541110767709" id="-49505">
		<tag k="historic" v="shieling" />
		<tag k="name" v="Flatbergvollen" />
		<tag k="place" v="isolated_dwelling" />
		<tag k="ssr:stedsnr" v="862201" />
	</node>
	<node lat="62.91425555401102" lon="11.185833324013359" id="-49506">
		<tag k="name" v="Trøan" />
		<tag k="place" v="farm" />
		<tag k="ssr:stedsnr" v="862400" />
	</node>
	<node lat="62.755375004290805" lon="10.959497213754013" id="-49507">
		<tag k="historic" v="shieling" />
		<tag k="name" v="Meiåvollan" />
		<tag k="place" v="isolated_dwelling" />
		<tag k="ssr:stedsnr" v="862250" />
	</node>
	<node lat="62.86219999899613" lon="11.734322231433515" id="-49509">
		<tag k="historic" v="shieling" />
		<tag k="name" v="Rennolsvollen" />
		<tag k="place" v="isolated_dwelling" />
		<tag k="ssr:stedsnr" v="862808" />
	</node>
	<node lat="62.837840666883764" lon="11.32510871993137" id="-49511">
		<tag k="name" v="Grønli" />
		<tag k="place" v="hamlet" />
		<tag k="ssr:stedsnr" v="862896" />
	</node>
	<node lat="62.81544444465759" lon="11.49985556508852" id="-49513">
		<tag k="historic" v="shieling" />
		<tag k="name" v="Hovsvollan" />
		<tag k="place" v="isolated_dwelling" />
		<tag k="ssr:stedsnr" v="870410" />
	</node>
	<node lat="62.803705555606406" lon="11.14886666478704" id="-49516">
		<tag k="historic" v="shieling" />
		<tag k="name" v="Kleppvollen" />
		<tag k="place" v="isolated_dwelling" />
		<tag k="ssr:stedsnr" v="930374" />
	</node>
	<node lat="62.84573333668012" lon="11.213199999492186" id="-49521">
		<tag k="name" v="Lyngstad" />
		<tag k="place" v="farm" />
		<tag k="ssr:stedsnr" v="228720" />
	</node>
	<node lat="62.80173610970426" lon="11.193588891490643" id="-49522">
		<tag k="name" v="Nyset" />
		<tag k="place" v="farm" />
		<tag k="ssr:stedsnr" v="895107" />
	</node>
	<node lat="62.788022225051805" lon="11.178499992660118" id="-49523">
		<tag k="alt_name" v="Engesvoll" />
		<tag k="name" v="Engesvollen" />
		<tag k="place" v="farm" />
		<tag k="ssr:stedsnr" v="895109" />
	</node>
	<node lat="62.8179055548762" lon="11.203752770173548" id="-49524">
		<tag k="name" v="Nytrøa" />
		<tag k="place" v="farm" />
		<tag k="ssr:stedsnr" v="895122" />
	</node>
	<node lat="62.93944722093398" lon="11.215597223927317" id="-49525">
		<tag k="historic" v="shieling" />
		<tag k="name" v="Botnvollen" />
		<tag k="place" v="isolated_dwelling" />
		<tag k="ssr:stedsnr" v="895069" />
	</node>
	<node lat="62.81548332946782" lon="11.490452780877039" id="-49536">
		<tag k="historic" v="shieling" />
		<tag k="name" v="Fekjevollen" />
		<tag k="place" v="isolated_dwelling" />
		<tag k="ssr:stedsnr" v="896903" />
	</node>
	<node lat="62.80920555134645" lon="11.493288881190702" id="-49537">
		<tag k="historic" v="shieling" />
		<tag k="name" v="Langlandsvollen" />
		<tag k="place" v="isolated_dwelling" />
		<tag k="ssr:stedsnr" v="896904" />
	</node>
	<node lat="62.923311110978474" lon="11.35798889570046" id="-49538">
		<tag k="name" v="Holet" />
		<tag k="place" v="isolated_dwelling" />
		<tag k="ssr:stedsnr" v="896912" />
	</node>
	<node lat="62.84951110927196" lon="11.254552782654645" id="-49539">
		<tag k="name" v="Sundberg" />
		<tag k="place" v="farm" />
		<tag k="ssr:stedsnr" v="896914" />
	</node>
	<node lat="62.84711944655634" lon="11.296913885450213" id="-49540">
		<tag k="name" v="Nesgårdseng" />
		<tag k="place" v="farm" />
		<tag k="ssr:stedsnr" v="896917" />
	</node>
	<node lat="62.84206663862884" lon="11.246599887190404" id="-49541">
		<tag k="name" v="Myrberg" />
		<tag k="place" v="farm" />
		<tag k="ssr:stedsnr" v="896920" />
	</node>
	<node lat="62.9405555524184" lon="11.249055554844958" id="-49542">
		<tag k="historic" v="shieling" />
		<tag k="name" v="Lisbetsetra" />
		<tag k="place" v="isolated_dwelling" />
		<tag k="ssr:stedsnr" v="896960" />
	</node>
	<node lat="62.9395611120014" lon="11.289805552217619" id="-49543">
		<tag k="historic" v="shieling" />
		<tag k="name" v="Engesøya" />
		<tag k="place" v="isolated_dwelling" />
		<tag k="ssr:stedsnr" v="896856" />
	</node>
	<node lat="62.93782777418435" lon="11.297019453068298" id="-49544">
		<tag k="historic" v="shieling" />
		<tag k="name" v="Rønningen" />
		<tag k="place" v="isolated_dwelling" />
		<tag k="ssr:stedsnr" v="896859" />
	</node>
	<node lat="62.81141111541151" lon="11.357377787598262" id="-49545">
		<tag k="name" v="Nordlien" />
		<tag k="place" v="farm" />
		<tag k="ssr:stedsnr" v="896868" />
	</node>
	<node lat="62.727577778733064" lon="11.159205552549153" id="-49546">
		<tag k="name" v="Hessjøen hyttefelt" />
		<tag k="place" v="neighbourhood" />
		<tag k="ssr:stedsnr" v="908318" />
	</node>
	<node lat="62.73741944564669" lon="11.083852778211684" id="-49548">
		<tag k="historic" v="shieling" />
		<tag k="name" v="Morkavollen" />
		<tag k="place" v="isolated_dwelling" />
		<tag k="ssr:stedsnr" v="921043" />
	</node>
	<node lat="62.899638387312365" lon="11.190116394144775" id="-49550">
		<tag k="fixme" v="consider place=hamlet" />
		<tag k="name" v="Moen" />
		<tag k="place" v="farm" />
		<tag k="ssr:stedsnr" v="922103" />
	</node>
	<node lat="62.75617499644516" lon="11.191924997116217" id="-49552">
		<tag k="name" v="Lunås" />
		<tag k="place" v="farm" />
		<tag k="ssr:stedsnr" v="922211" />
	</node>
	<node lat="62.94928889089814" lon="11.273958325868488" id="-49554">
		<tag k="name" v="Rya" />
		<tag k="place" v="farm" />
		<tag k="ssr:stedsnr" v="922178" />
	</node>
	<node lat="62.95171110860496" lon="11.261388897018165" id="-49555">
		<tag k="name" v="Tverråa" />
		<tag k="place" v="farm" />
		<tag k="ssr:stedsnr" v="922181" />
	</node>
	<node lat="62.957369820048015" lon="11.01355175686238" id="-49556">
		<tag k="fixme" v="consider place=hamlet" />
		<tag k="name" v="Nygård" />
		<tag k="place" v="farm" />
		<tag k="ssr:stedsnr" v="922411" />
	</node>
	<node lat="62.841327781070355" lon="11.320872214093468" id="-49560">
		<tag k="fixme" v="consider place=hamlet" />
		<tag k="name" v="Renbygda" />
		<tag k="place" v="village" />
		<tag k="ssr:stedsnr" v="923182" />
	</node>
	<node lat="62.82187777864233" lon="11.345433331250485" id="-49567">
		<tag k="name" v="Sundrønningen" />
		<tag k="old_name" v="Sjursgarden" />
		<tag k="place" v="farm" />
		<tag k="ssr:stedsnr" v="923903" />
	</node>
	<node lat="62.827686110053676" lon="11.341455565141334" id="-49568">
		<tag k="name" v="Saksgarden" />
		<tag k="place" v="farm" />
		<tag k="ssr:stedsnr" v="923913" />
	</node>
	<node lat="62.8481750046131" lon="11.731638882261759" id="-49572">
		<tag k="historic" v="shieling" />
		<tag k="name" v="Langlandsvollan" />
		<tag k="place" v="isolated_dwelling" />
		<tag k="ssr:stedsnr" v="923818" />
	</node>
	<node lat="62.9715638853013" lon="11.10389167539295" id="-49574">
		<tag k="historic" v="shieling" />
		<tag k="name" v="Fjellsetvollen" />
		<tag k="place" v="isolated_dwelling" />
		<tag k="ssr:stedsnr" v="931423" />
	</node>
	<node lat="62.92665977703166" lon="11.140589613945568" id="-49578">
		<tag k="fixme" v="consider place=hamlet" />
		<tag k="name" v="Haltdalen" />
		<tag k="place" v="village" />
		<tag k="ssr:stedsnr" v="938431" />
	</node>
	<node lat="62.71132777729365" lon="11.161505557307317" id="-49582">
		<tag k="historic" v="shieling" />
		<tag k="name" v="Gjersvollvollen" />
		<tag k="place" v="isolated_dwelling" />
		<tag k="ssr:stedsnr" v="956006" />
	</node>
	<node lat="62.764705559009045" lon="11.183677783162624" id="-49583">
		<tag k="name" v="Øymoen" />
		<tag k="place" v="farm" />
		<tag k="ssr:stedsnr" v="956117" />
	</node>
	<node lat="62.76259999928519" lon="11.18035555574402" id="-49584">
		<tag k="fixme" v="consider place=hamlet" />
		<tag k="name" v="Tørrmoen" />
		<tag k="place" v="farm" />
		<tag k="ssr:stedsnr" v="956118" />
	</node>
	<node lat="62.93219444117015" lon="11.209636104399843" id="-49585">
		<tag k="alt_name" v="Petervollen" />
		<tag k="historic" v="shieling" />
		<tag k="name" v="Pettervoll" />
		<tag k="place" v="isolated_dwelling" />
		<tag k="ssr:stedsnr" v="956315" />
	</node>
	<node lat="62.93303333043259" lon="11.104986101355536" id="-49591">
		<tag k="name" v="Moan" />
		<tag k="place" v="hamlet" />
		<tag k="ssr:stedsnr" v="956507" />
	</node>
	<node lat="62.940961113226344" lon="11.075019435854538" id="-49593">
		<tag k="name" v="Gåre-grenda" />
		<tag k="place" v="hamlet" />
		<tag k="ssr:stedsnr" v="956589" />
	</node>
	<node lat="62.70438888487613" lon="11.154094446573684" id="-49603">
		<tag k="historic" v="shieling" />
		<tag k="name" v="Hovsvollen" />
		<tag k="place" v="isolated_dwelling" />
		<tag k="ssr:stedsnr" v="956695" />
	</node>
	<node lat="62.6943499962037" lon="11.153577777605378" id="-49604">
		<tag k="historic" v="shieling" />
		<tag k="name" v="Dalsvollen" />
		<tag k="place" v="isolated_dwelling" />
		<tag k="ssr:stedsnr" v="956697" />
	</node>
	<node lat="62.77456389317758" lon="11.445694444107211" id="-49606">
		<tag k="name" v="Jonasvollen" />
		<tag k="place" v="isolated_dwelling" />
		<tag k="ssr:stedsnr" v="956836" />
	</node>
	<node lat="62.77713055445702" lon="11.447675007413237" id="-49607">
		<tag k="name" v="Stømnvollen" />
		<tag k="place" v="isolated_dwelling" />
		<tag k="ssr:stedsnr" v="956838" />
	</node>
	<node lat="62.75420277341373" lon="11.332555553900088" id="-49608">
		<tag k="name" v="Syndre Grubba" />
		<tag k="place" v="farm" />
		<tag k="ssr:stedsnr" v="956986" />
	</node>
	<node lat="62.842655468825974" lon="11.289377564684226" id="-49609">
		<tag k="fixme" v="consider place=hamlet" />
		<tag k="name" v="Krokan" />
		<tag k="place" v="farm" />
		<tag k="ssr:stedsnr" v="975247" />
	</node>
	<node lat="62.845608337434406" lon="11.240052769603851" id="-49611">
		<tag k="name" v="Bendheim" />
		<tag k="place" v="farm" />
		<tag k="ssr:stedsnr" v="228926" />
	</node>
	<node lat="62.93039166344013" lon="11.205952769297607" id="-49612">
		<tag k="historic" v="shieling" />
		<tag k="name" v="Utsikten" />
		<tag k="place" v="isolated_dwelling" />
		<tag k="ssr:stedsnr" v="228973" />
	</node>
	<node lat="62.75145278146379" lon="11.19309721766956" id="-49615">
		<tag k="name" v="Bjørkli" />
		<tag k="place" v="farm" />
		<tag k="ssr:stedsnr" v="12226" />
	</node>
	<node lat="62.76880450355531" lon="11.189725696114023" id="-49616">
		<tag k="alt_name" v="Furuslættet" />
		<tag k="name" v="Furuslettet" />
		<tag k="place" v="farm" />
		<tag k="ssr:stedsnr" v="12232" />
	</node>
	<node lat="62.74618055943037" lon="11.328055558902467" id="-49620">
		<tag k="name" v="Spellan" />
		<tag k="place" v="farm" />
		<tag k="ssr:stedsnr" v="11785" />
	</node>
	<node lat="62.770728745678134" lon="11.053182251265206" id="-49622">
		<tag k="name" v="Vårhusvoll" />
		<tag k="place" v="locality" />
		<tag k="ssr:stedsnr" v="12033" />
	</node>
	<node lat="62.777180559328755" lon="11.17654999807284" id="-49623">
		<tag k="fixme" v="multiple name tags, choose one and add the other to alt_name; consider place=hamlet" />
		<tag k="name" v="Grytbakksvollen;Småvollen" />
		<tag k="place" v="farm" />
		<tag k="ssr:stedsnr" v="12034" />
	</node>
	<node lat="62.86254886910043" lon="11.124573766142968" id="-49626">
		<tag k="name" v="Øggbua" />
		<tag k="place" v="locality" />
		<tag k="ssr:stedsnr" v="12131" />
	</node>
	<node lat="62.85569312832814" lon="11.22498144266616" id="-49627">
		<tag k="fixme" v="consider place=hamlet" />
		<tag k="name" v="Kolbotnet" />
		<tag k="place" v="farm" />
		<tag k="ssr:stedsnr" v="12139" />
	</node>
	<node lat="62.85074999822282" lon="11.271919445636875" id="-49628">
		<tag k="name" v="Almåsen" />
		<tag k="place" v="hamlet" />
		<tag k="ssr:stedsnr" v="12141" />
	</node>
	<node lat="62.94139361457832" lon="11.004065620265164" id="-49639">
		<tag k="name" v="Kløftvollen" />
		<tag k="place" v="isolated_dwelling" />
		<tag k="ssr:stedsnr" v="12408" />
	</node>
	<node lat="62.85156110899859" lon="11.781091674696201" id="-49642">
		<tag k="historic" v="shieling" />
		<tag k="name" v="Syndre Stuggudalsvollen" />
		<tag k="place" v="isolated_dwelling" />
		<tag k="ssr:stedsnr" v="12647" />
	</node>
	<node lat="62.82021388834965" lon="11.189200001804151" id="-49644">
		<tag k="name" v="Vårhuslia" />
		<tag k="place" v="farm" />
		<tag k="ssr:stedsnr" v="20351" />
	</node>
	<node lat="62.9467361151655" lon="11.062105564459047" id="-49645">
		<tag k="name" v="Grønset" />
		<tag k="place" v="farm" />
		<tag k="ssr:stedsnr" v="32277" />
	</node>
	<node lat="62.96085555924819" lon="11.237930563041138" id="-49646">
		<tag k="name" v="Nordgården" />
		<tag k="place" v="farm" />
		<tag k="ssr:stedsnr" v="46829" />
	</node>
	<node lat="62.94917777373049" lon="11.285774993286426" id="-49647">
		<tag k="name" v="Bersvendsgjardet" />
		<tag k="place" v="farm" />
		<tag k="ssr:stedsnr" v="46837" />
	</node>
	<node lat="62.953980558315145" lon="11.253200003521327" id="-49648">
		<tag k="name" v="Hardkroken" />
		<tag k="place" v="farm" />
		<tag k="ssr:stedsnr" v="46841" />
	</node>
	<node lat="62.82271388499485" lon="11.345813888770467" id="-49649">
		<tag k="name" v="Bårdstu" />
		<tag k="place" v="farm" />
		<tag k="ssr:stedsnr" v="46846" />
	</node>
	<node lat="62.77542499739273" lon="11.444147225145507" id="-49650">
		<tag k="name" v="Stigersvollen" />
		<tag k="place" v="isolated_dwelling" />
		<tag k="ssr:stedsnr" v="46848" />
	</node>
	<node lat="62.774911115553195" lon="11.437947214089226" id="-49651">
		<tag k="name" v="Bårdsvollen" />
		<tag k="place" v="isolated_dwelling" />
		<tag k="ssr:stedsnr" v="46851" />
	</node>
	<node lat="62.79519166325859" lon="11.356950008275138" id="-49652">
		<tag k="name" v="Teigen" />
		<tag k="place" v="farm" />
		<tag k="ssr:stedsnr" v="46861" />
	</node>
	<node lat="62.791511113754886" lon="11.182255560574156" id="-49653">
		<tag k="alt_name" v="Magneten" />
		<tag k="name" v="Engesvollen" />
		<tag k="place" v="farm" />
		<tag k="ssr:stedsnr" v="40116" />
	</node>
	<node lat="62.93388332982542" lon="11.140894443054195" id="-49656">
		<tag k="name" v="Malmmyra" />
		<tag k="place" v="farm" />
		<tag k="ssr:stedsnr" v="45083" />
	</node>
	<node lat="62.84665277708232" lon="11.267575002139061" id="-49661">
		<tag k="name" v="Holmberget" />
		<tag k="place" v="farm" />
		<tag k="ssr:stedsnr" v="45264" />
	</node>
	<node lat="62.80378055868606" lon="11.194013881818254" id="-49662">
		<tag k="name" v="Heggset" />
		<tag k="place" v="farm" />
		<tag k="ssr:stedsnr" v="46097" />
	</node>
	<node lat="62.9261416675533" lon="11.163797221048744" id="-49668">
		<tag k="name" v="Trøan" />
		<tag k="place" v="farm" />
		<tag k="ssr:stedsnr" v="45938" />
	</node>
	<node lat="62.77458888885193" lon="11.337313890590414" id="-49669">
		<tag k="name" v="Langlandsvollen" />
		<tag k="place" v="isolated_dwelling" />
		<tag k="ssr:stedsnr" v="45964" />
	</node>
	<node lat="62.815444446255015" lon="11.329519436356142" id="-49670">
		<tag k="name" v="Lieng" />
		<tag k="place" v="farm" />
		<tag k="ssr:stedsnr" v="45968" />
	</node>
	<node lat="62.78738611462558" lon="11.087405559117437" id="-49672">
		<tag k="historic" v="shieling" />
		<tag k="name" v="Skåkåstrøvollen" />
		<tag k="place" v="isolated_dwelling" />
		<tag k="ssr:stedsnr" v="46032" />
	</node>
	<node lat="62.92988055407142" lon="11.367333326422258" id="-49674">
		<tag k="name" v="Holvollen" />
		<tag k="place" v="locality" />
		<tag k="ssr:stedsnr" v="46218" />
	</node>
	<node lat="62.946197217932834" lon="11.227747227980236" id="-49675">
		<tag k="historic" v="shieling" />
		<tag k="name" v="Litlvollan" />
		<tag k="old_name" v="Litjvoll'ann" />
		<tag k="place" v="isolated_dwelling" />
		<tag k="ssr:stedsnr" v="46386" />
	</node>
	<node lat="62.81400833428753" lon="11.473019447467369" id="-49689">
		<tag k="historic" v="shieling" />
		<tag k="name" v="Stigersvollen" />
		<tag k="place" v="isolated_dwelling" />
		<tag k="ssr:stedsnr" v="46895" />
	</node>
	<node lat="62.846405559822884" lon="11.311094435736626" id="-49690">
		<tag k="name" v="Vanghaugen" />
		<tag k="place" v="farm" />
		<tag k="ssr:stedsnr" v="46914" />
	</node>
	<node lat="62.853466034157286" lon="11.217437376247988" id="-49691">
		<tag k="name" v="Eidet" />
		<tag k="old_name" v="EIDET EL. ELIPL." />
		<tag k="place" v="farm" />
		<tag k="ssr:stedsnr" v="46992" />
	</node>
	<node lat="62.85614166253822" lon="11.23314722154257" id="-49692">
		<tag k="name" v="Krokstad" />
		<tag k="place" v="farm" />
		<tag k="ssr:stedsnr" v="46995" />
	</node>
	<node lat="62.84286389277696" lon="11.331694437885204" id="-49702">
		<tag k="name" v="Åsset" />
		<tag k="place" v="farm" />
		<tag k="ssr:stedsnr" v="46938" />
	</node>
	<node lat="62.83293611552103" lon="11.32644444723747" id="-49703">
		<tag k="name" v="Kårvollen" />
		<tag k="place" v="farm" />
		<tag k="ssr:stedsnr" v="46946" />
	</node>
	<node lat="62.94675277790503" lon="11.263786101273007" id="-49704">
		<tag k="name" v="Bjørgårdsøya" />
		<tag k="place" v="farm" />
		<tag k="ssr:stedsnr" v="46952" />
	</node>
	<node lat="62.951455556032236" lon="11.25786388110565" id="-49705">
		<tag k="name" v="Syndre Tverråa" />
		<tag k="place" v="farm" />
		<tag k="ssr:stedsnr" v="46955" />
	</node>
	<node lat="62.81362222409679" lon="11.195177769329497" id="-49708">
		<tag k="name" v="Utheim" />
		<tag k="place" v="farm" />
		<tag k="ssr:stedsnr" v="73053" />
	</node>
	<node lat="62.745016452723235" lon="11.209088404672846" id="-49711">
		<tag k="fixme" v="consider place=hamlet" />
		<tag k="name" v="Grøtådalen" />
		<tag k="place" v="farm" />
		<tag k="ssr:stedsnr" v="72039" />
	</node>
	<node lat="62.7381638877977" lon="11.068874991747249" id="-49712">
		<tag k="historic" v="shieling" />
		<tag k="name" v="Engesvollen" />
		<tag k="place" v="isolated_dwelling" />
		<tag k="ssr:stedsnr" v="72043" />
	</node>
	<node lat="62.741230555510754" lon="11.129111101689334" id="-49713">
		<tag k="historic" v="shieling" />
		<tag k="name" v="Nordgardsvollen" />
		<tag k="place" v="isolated_dwelling" />
		<tag k="ssr:stedsnr" v="72047" />
	</node>
	<node lat="62.70460277692477" lon="11.154044453424147" id="-49714">
		<tag k="historic" v="shieling" />
		<tag k="name" v="Hovsetvollen" />
		<tag k="place" v="isolated_dwelling" />
		<tag k="ssr:stedsnr" v="72244" />
	</node>
	<node lat="62.93624693707887" lon="11.326311244269583" id="-49717">
		<tag k="name" v="Lundvollen" />
		<tag k="place" v="isolated_dwelling" />
		<tag k="ssr:stedsnr" v="73197" />
	</node>
	<node lat="62.94095555743081" lon="11.295886107640538" id="-49719">
		<tag k="name" v="Meenget" />
		<tag k="place" v="farm" />
		<tag k="ssr:stedsnr" v="73204" />
	</node>
	<node lat="62.96015989360264" lon="10.974673785385768" id="-49721">
		<tag k="alt_name" v="Bollingmo" />
		<tag k="fixme" v="consider place=hamlet" />
		<tag k="name" v="Bolingmoen" />
		<tag k="place" v="farm" />
		<tag k="ssr:stedsnr" v="73473" />
	</node>
	<node lat="62.84319915174591" lon="11.295652555640553" id="-49725">
		<tag k="name" v="Hov" />
		<tag k="place" v="hamlet" />
		<tag k="ssr:stedsnr" v="73143" />
	</node>
	<node lat="62.98668888730744" lon="11.272052769980466" id="-49727">
		<tag k="historic" v="shieling" />
		<tag k="name" v="Tverrådalssetra" />
		<tag k="place" v="isolated_dwelling" />
		<tag k="ssr:stedsnr" v="73356" />
	</node>
	<node lat="62.943536112185086" lon="11.055152772326563" id="-49728">
		<tag k="fixme" v="consider place=hamlet" />
		<tag k="name" v="Kvernmoen" />
		<tag k="place" v="farm" />
		<tag k="ssr:stedsnr" v="73447" />
	</node>
	<node lat="62.839205551268186" lon="11.75624999684258" id="-49729">
		<tag k="historic" v="shieling" />
		<tag k="name" v="Solandsvollen" />
		<tag k="place" v="isolated_dwelling" />
		<tag k="ssr:stedsnr" v="73798" />
	</node>
	<node lat="62.83497084994191" lon="11.336142920197592" id="-49730">
		<tag k="fixme" v="consider place=hamlet" />
		<tag k="name" v="Smålihaugan" />
		<tag k="place" v="farm" />
		<tag k="ssr:stedsnr" v="73866" />
	</node>
	<node lat="62.82814722318095" lon="11.652441666153422" id="-49731">
		<tag k="historic" v="shieling" />
		<tag k="name" v="Vollvollan" />
		<tag k="place" v="isolated_dwelling" />
		<tag k="ssr:stedsnr" v="73876" />
	</node>
	<node lat="62.83973332898859" lon="11.257530563334166" id="-49733">
		<tag k="name" v="Larsstuvollen" />
		<tag k="place" v="farm" />
		<tag k="ssr:stedsnr" v="73882" />
	</node>
	<node lat="62.83571315897069" lon="11.302659249357024" id="-49734">
		<tag k="fixme" v="consider place=hamlet" />
		<tag k="name" v="Trondsvollen" />
		<tag k="place" v="farm" />
		<tag k="ssr:stedsnr" v="73883" />
	</node>
	<node lat="62.81378055730179" lon="11.455624992861312" id="-49735">
		<tag k="historic" v="shieling" />
		<tag k="name" v="Håvollan" />
		<tag k="place" v="isolated_dwelling" />
		<tag k="ssr:stedsnr" v="73922" />
	</node>
	<node lat="62.7897728599769" lon="11.341804895642461" id="-49736">
		<tag k="fixme" v="consider place=hamlet" />
		<tag k="name" v="Øver-Holla" />
		<tag k="place" v="farm" />
		<tag k="ssr:stedsnr" v="73933" />
	</node>
	<node lat="62.774224999060834" lon="11.453405555373498" id="-49737">
		<tag k="name" v="Ustuvollen" />
		<tag k="place" v="isolated_dwelling" />
		<tag k="ssr:stedsnr" v="73942" />
	</node>
	<node lat="62.76866944853018" lon="11.350744442326539" id="-49738">
		<tag k="name" v="Taraldsbakken" />
		<tag k="place" v="farm" />
		<tag k="ssr:stedsnr" v="73949" />
	</node>
	<node lat="62.77203821377247" lon="11.357473283059159" id="-49739">
		<tag k="name" v="Vondgrova" />
		<tag k="place" v="hamlet" />
		<tag k="ssr:stedsnr" v="73950" />
	</node>
	<node lat="62.90800278112864" lon="11.190749993773133" id="-49756">
		<tag k="name" v="Brå" />
		<tag k="place" v="farm" />
		<tag k="ssr:stedsnr" v="106719" />
	</node>
	<node lat="62.91617532175806" lon="11.171724117148624" id="-49762">
		<tag k="fixme" v="consider place=hamlet" />
		<tag k="name" v="Litlbakken" />
		<tag k="place" v="farm" />
		<tag k="ssr:stedsnr" v="106953" />
	</node>
	<node lat="62.93004722292379" lon="11.204472212765355" id="-49763">
		<tag k="historic" v="shieling" />
		<tag k="name" v="Larsvollen" />
		<tag k="place" v="isolated_dwelling" />
		<tag k="ssr:stedsnr" v="106958" />
	</node>
	<node lat="62.922336111420776" lon="11.184188888694738" id="-49764">
		<tag k="name" v="Trongården" />
		<tag k="place" v="farm" />
		<tag k="ssr:stedsnr" v="106963" />
	</node>
	<node lat="62.92347777710746" lon="11.180330563070608" id="-49765">
		<tag k="name" v="Stor-Olagården" />
		<tag k="place" v="farm" />
		<tag k="ssr:stedsnr" v="106965" />
	</node>
	<node lat="62.82412222278792" lon="11.623724999115643" id="-49782">
		<tag k="historic" v="shieling" />
		<tag k="name" v="Litjgjardvollan" />
		<tag k="place" v="isolated_dwelling" />
		<tag k="ssr:stedsnr" v="107781" />
	</node>
	<node lat="62.960994445913045" lon="11.241383331960483" id="-49783">
		<tag k="name" v="Ustgården" />
		<tag k="place" v="farm" />
		<tag k="ssr:stedsnr" v="107862" />
	</node>
	<node lat="62.78219166454814" lon="11.393263897384916" id="-49784">
		<tag k="name" v="Åsvollan" />
		<tag k="place" v="isolated_dwelling" />
		<tag k="ssr:stedsnr" v="107866" />
	</node>
	<node lat="62.841752779261114" lon="11.299022217966447" id="-49785">
		<tag k="name" v="Lidarende" />
		<tag k="place" v="farm" />
		<tag k="ssr:stedsnr" v="107939" />
	</node>
	<node lat="62.8298916685428" lon="11.341888882739106" id="-49786">
		<tag k="name" v="søndre" />
		<tag k="place" v="farm" />
		<tag k="ssr:stedsnr" v="107945" />
	</node>
	<node lat="62.842955552074756" lon="11.293144441717251" id="-49787">
		<tag k="name" v="Nordstu" />
		<tag k="place" v="farm" />
		<tag k="ssr:stedsnr" v="107949" />
	</node>
	<node lat="62.84445277946965" lon="11.286536102725726" id="-49788">
		<tag k="name" v="Kirkhus" />
		<tag k="place" v="farm" />
		<tag k="ssr:stedsnr" v="107950" />
	</node>
	<node lat="62.81499444467036" lon="11.49314722504261" id="-49789">
		<tag k="historic" v="shieling" />
		<tag k="name" v="Grønlivollen" />
		<tag k="place" v="isolated_dwelling" />
		<tag k="ssr:stedsnr" v="107886" />
	</node>
	<node lat="62.808688891796045" lon="11.49770554630463" id="-49790">
		<tag k="historic" v="shieling" />
		<tag k="name" v="Finlandsvollen" />
		<tag k="place" v="isolated_dwelling" />
		<tag k="ssr:stedsnr" v="107889" />
	</node>
	<node lat="62.85858610972574" lon="11.224411104294594" id="-49791">
		<tag k="fixme" v="consider place=hamlet" />
		<tag k="name" v="Solli" />
		<tag k="place" v="farm" />
		<tag k="ssr:stedsnr" v="107999" />
	</node>
	<node lat="62.68225278100752" lon="11.145227771930692" id="-49797">
		<tag k="historic" v="shieling" />
		<tag k="name" v="Heggsetvollan" />
		<tag k="place" v="isolated_dwelling" />
		<tag k="ssr:stedsnr" v="132215" />
	</node>
	<node lat="62.69324166719419" lon="11.155508330202569" id="-49798">
		<tag k="alt_name" v="Fættvollen" />
		<tag k="historic" v="shieling" />
		<tag k="name" v="Fetvollen" />
		<tag k="place" v="isolated_dwelling" />
		<tag k="ssr:stedsnr" v="132219" />
	</node>
	<node lat="62.7706867982616" lon="11.196349546144306" id="-49801">
		<tag k="name" v="Rønningen" />
		<tag k="place" v="locality" />
		<tag k="ssr:stedsnr" v="133025" />
	</node>
	<node lat="62.84089722254455" lon="10.970727771024269" id="-49809">
		<tag k="historic" v="shieling" />
		<tag k="name" v="Åsvollen" />
		<tag k="place" v="isolated_dwelling" />
		<tag k="ssr:stedsnr" v="133087" />
	</node>
	<node lat="62.94256944872054" lon="11.296069438408283" id="-49813">
		<tag k="name" v="Fageråsmyra" />
		<tag k="place" v="farm" />
		<tag k="ssr:stedsnr" v="133189" />
	</node>
	<node lat="62.96865277683326" lon="11.380588883569294" id="-49816">
		<tag k="historic" v="shieling" />
		<tag k="name" v="Grosetra" />
		<tag k="place" v="isolated_dwelling" />
		<tag k="ssr:stedsnr" v="133213" />
	</node>
	<node lat="62.831230558758016" lon="11.307958342247696" id="-49822">
		<tag k="name" v="Saksvollen" />
		<tag k="place" v="farm" />
		<tag k="ssr:stedsnr" v="133887" />
	</node>
	<node lat="62.80711964008212" lon="11.350007925987082" id="-49824">
		<tag k="name" v="Engan" />
		<tag k="place" v="hamlet" />
		<tag k="ssr:stedsnr" v="133914" />
	</node>
	<node lat="62.81215393931063" lon="11.33048377680886" id="-49825">
		<tag k="fixme" v="consider place=hamlet" />
		<tag k="name" v="Østerlia" />
		<tag k="place" v="farm" />
		<tag k="ssr:stedsnr" v="133917" />
	</node>
	<node lat="62.79616666439746" lon="11.330383326824977" id="-49826">
		<tag k="alt_name" v="Lillevollen" />
		<tag k="fixme" v="consider place=hamlet" />
		<tag k="name" v="Litlvollen" />
		<tag k="place" v="farm" />
		<tag k="ssr:stedsnr" v="133934" />
	</node>
	<node lat="62.78000278150671" lon="11.444966665034705" id="-49827">
		<tag k="name" v="Graftåsvollan" />
		<tag k="place" v="isolated_dwelling" />
		<tag k="ssr:stedsnr" v="133948" />
	</node>
	<node lat="62.83992325061855" lon="11.256291135259564" id="-49828">
		<tag k="name" v="Veret" />
		<tag k="place" v="hamlet" />
		<tag k="ssr:stedsnr" v="141350" />
	</node>
	<node lat="62.79664167112484" lon="11.101452773700876" id="-49833">
		<tag k="historic" v="shieling" />
		<tag k="name" v="Einarsenvollen" />
		<tag k="place" v="isolated_dwelling" />
		<tag k="ssr:stedsnr" v="167090" />
	</node>
	<node lat="62.93083055324544" lon="11.20580277113614" id="-49834">
		<tag k="historic" v="shieling" />
		<tag k="name" v="Hustad" />
		<tag k="place" v="isolated_dwelling" />
		<tag k="ssr:stedsnr" v="167980" />
	</node>
	<node lat="62.75606110696012" lon="11.32019443559907" id="-49835">
		<tag k="name" v="Spellvollen" />
		<tag k="place" v="isolated_dwelling" />
		<tag k="ssr:stedsnr" v="167983" />
	</node>
	<node lat="62.780250004443296" lon="11.330636102861037" id="-49836">
		<tag k="historic" v="shieling" />
		<tag k="name" v="Granlundvollen" />
		<tag k="place" v="isolated_dwelling" />
		<tag k="ssr:stedsnr" v="167984" />
	</node>
	<node lat="62.81297221900972" lon="11.336880555174483" id="-49837">
		<tag k="name" v="Ekran" />
		<tag k="place" v="farm" />
		<tag k="ssr:stedsnr" v="167992" />
	</node>
	<node lat="62.694950159821474" lon="11.156925204998222" id="-49840">
		<tag k="historic" v="shieling" />
		<tag k="name" v="Mesmyrvollen" />
		<tag k="place" v="isolated_dwelling" />
		<tag k="ssr:stedsnr" v="167025" />
	</node>
	<node lat="62.73599721989385" lon="11.066738891599389" id="-49841">
		<tag k="historic" v="shieling" />
		<tag k="name" v="Stenslivollan" />
		<tag k="place" v="isolated_dwelling" />
		<tag k="ssr:stedsnr" v="167047" />
	</node>
	<node lat="62.844966665202314" lon="11.258572223031896" id="-49867">
		<tag k="name" v="Moholt" />
		<tag k="place" v="farm" />
		<tag k="ssr:stedsnr" v="168885" />
	</node>
	<node lat="62.842283335971075" lon="11.274522212650293" id="-49868">
		<tag k="name" v="Elvebakken" />
		<tag k="place" v="farm" />
		<tag k="ssr:stedsnr" v="168887" />
	</node>
	<node lat="62.84530833445253" lon="11.265333341006839" id="-49869">
		<tag k="name" v="Løkken" />
		<tag k="place" v="farm" />
		<tag k="ssr:stedsnr" v="168889" />
	</node>
	<node lat="62.835933337156526" lon="11.319933340016643" id="-49870">
		<tag k="name" v="Vestre Langlandet" />
		<tag k="place" v="farm" />
		<tag k="ssr:stedsnr" v="167947" />
	</node>
	<node lat="62.82089721928448" lon="11.407766657593925" id="-49873">
		<tag k="historic" v="shieling" />
		<tag k="name" v="Målåsetret" />
		<tag k="place" v="isolated_dwelling" />
		<tag k="ssr:stedsnr" v="190696" />
	</node>
	<node lat="62.745468107658134" lon="11.1697193451042" id="-49877">
		<tag k="fixme" v="consider place=hamlet" />
		<tag k="name" v="Borren" />
		<tag k="place" v="farm" />
		<tag k="ssr:stedsnr" v="193036" />
	</node>
	<node lat="62.860900000358846" lon="11.206947218939204" id="-49881">
		<tag k="name" v="Øvre Bakken" />
		<tag k="place" v="farm" />
		<tag k="ssr:stedsnr" v="194121" />
	</node>
	<node lat="62.85185857275836" lon="11.242727139294184" id="-49882">
		<tag k="alt_name" v="Stensli" />
		<tag k="name" v="Stenslia" />
		<tag k="place" v="hamlet" />
		<tag k="ssr:stedsnr" v="194130" />
	</node>
	<node lat="62.96052132280783" lon="11.240991782469898" id="-49884">
		<tag k="name" v="Nordaunet" />
		<tag k="place" v="hamlet" />
		<tag k="ssr:stedsnr" v="194187" />
	</node>
	<node lat="62.99060782581158" lon="11.035229051763178" id="-49887">
		<tag k="name" v="Mortenbua" />
		<tag k="place" v="locality" />
		<tag k="ssr:stedsnr" v="194242" />
	</node>
	<node lat="62.78570833506562" lon="11.177400005352094" id="-49888">
		<tag k="name" v="Pålsan" />
		<tag k="place" v="farm" />
		<tag k="ssr:stedsnr" v="194016" />
	</node>
	<node lat="62.78213055995883" lon="11.174208324509324" id="-49889">
		<tag k="name" v="Langengan" />
		<tag k="place" v="farm" />
		<tag k="ssr:stedsnr" v="194017" />
	</node>
	<node lat="62.77658183753532" lon="11.184742212119511" id="-49890">
		<tag k="name" v="Gjerdsvollen" />
		<tag k="place" v="hamlet" />
		<tag k="ssr:stedsnr" v="194023" />
	</node>
	<node lat="62.82438888806913" lon="11.161825005785602" id="-49893">
		<tag k="historic" v="shieling" />
		<tag k="name" v="Morkavollan" />
		<tag k="place" v="isolated_dwelling" />
		<tag k="ssr:stedsnr" v="194036" />
	</node>
	<node lat="62.88323888566074" lon="11.26606943856532" id="-49896">
		<tag k="historic" v="shieling" />
		<tag k="name" v="Moavollen" />
		<tag k="place" v="isolated_dwelling" />
		<tag k="ssr:stedsnr" v="194137" />
	</node>
	<node lat="62.84133284541067" lon="11.328217923223752" id="-49898">
		<tag k="fixme" v="consider place=hamlet" />
		<tag k="name" v="Djupdalen" />
		<tag k="place" v="farm" />
		<tag k="ssr:stedsnr" v="194145" />
	</node>
	<node lat="62.84690995627556" lon="11.220760291778712" id="-49900">
		<tag k="fixme" v="consider place=hamlet" />
		<tag k="name" v="Hyllbekktrøa" />
		<tag k="place" v="farm" />
		<tag k="ssr:stedsnr" v="194149" />
	</node>
	<node lat="62.84182499873157" lon="11.223155551293889" id="-49901">
		<tag k="name" v="Granmo" />
		<tag k="place" v="farm" />
		<tag k="ssr:stedsnr" v="194150" />
	</node>
	<node lat="62.847577171007146" lon="11.265817657355074" id="-49902">
		<tag k="name" v="Testadberget" />
		<tag k="place" v="farm" />
		<tag k="ssr:stedsnr" v="194153" />
	</node>
	<node lat="62.95512221905552" lon="11.249369442613082" id="-49906">
		<tag k="alt_name" v="Hovsmo" />
		<tag k="name" v="Hovsmoen" />
		<tag k="place" v="farm" />
		<tag k="ssr:stedsnr" v="194180" />
	</node>
	<node lat="62.958636109516135" lon="11.267450006885415" id="-49907">
		<tag k="name" v="Høglia" />
		<tag k="place" v="farm" />
		<tag k="ssr:stedsnr" v="194184" />
	</node>
	<node lat="62.91671237084184" lon="11.177614203230146" id="-49914">
		<tag k="name" v="Ramlo" />
		<tag k="place" v="hamlet" />
		<tag k="ssr:stedsnr" v="194356" />
	</node>
	<node lat="62.9286222200836" lon="10.97626667483273" id="-49915">
		<tag k="historic" v="shieling" />
		<tag k="name" v="Kvernmovollen" />
		<tag k="place" v="isolated_dwelling" />
		<tag k="ssr:stedsnr" v="194360" />
	</node>
	<node lat="62.92971111338285" lon="11.12665000120411" id="-49917">
		<tag k="name" v="Prestrønningen" />
		<tag k="place" v="farm" />
		<tag k="ssr:stedsnr" v="194363" />
	</node>
	<node lat="62.947166669284904" lon="11.05107778106916" id="-49919">
		<tag k="fixme" v="multiple name tags, choose one and add the other to alt_name" />
		<tag k="name" v="Grønsetenget;Grisvollen" />
		<tag k="place" v="locality" />
		<tag k="ssr:stedsnr" v="194385" />
	</node>
	<node lat="62.95431666295453" lon="11.186355554088628" id="-49920">
		<tag k="name" v="Kvammen" />
		<tag k="place" v="locality" />
		<tag k="ssr:stedsnr" v="194392" />
	</node>
	<node lat="62.98581111046057" lon="10.993002783145775" id="-49924">
		<tag k="historic" v="shieling" />
		<tag k="name" v="Åsvollan" />
		<tag k="place" v="isolated_dwelling" />
		<tag k="ssr:stedsnr" v="194429" />
	</node>
	<node lat="62.83452542718759" lon="11.321398983739535" id="-49926">
		<tag k="fixme" v="consider place=hamlet" />
		<tag k="name" v="Langlandet" />
		<tag k="place" v="farm" />
		<tag k="ssr:stedsnr" v="194860" />
	</node>
	<node lat="62.82303333258036" lon="11.349074998774132" id="-49928">
		<tag k="name" v="Stømnet" />
		<tag k="place" v="farm" />
		<tag k="ssr:stedsnr" v="194882" />
	</node>
	<node lat="62.829341664970016" lon="11.238669438003415" id="-49929">
		<tag k="name" v="Rognvollen" />
		<tag k="place" v="isolated_dwelling" />
		<tag k="ssr:stedsnr" v="194893" />
	</node>
	<node lat="62.80906111494941" lon="11.321000007330246" id="-49930">
		<tag k="name" v="Buvollen" />
		<tag k="place" v="farm" />
		<tag k="ssr:stedsnr" v="194902" />
	</node>
	<node lat="63.01033610708993" lon="11.113449996519897" id="-49943">
		<tag k="name" v="Litjnålsjøvollan" />
		<tag k="place" v="isolated_dwelling" />
		<tag k="ssr:stedsnr" v="203372" />
	</node>
	<node lat="62.94093888946769" lon="11.065108340077494" id="-49949">
		<tag k="name" v="Syndre Flatbergsengan" />
		<tag k="place" v="farm" />
		<tag k="ssr:stedsnr" v="220795" />
	</node>
	<node lat="62.95468888815014" lon="11.037550004901977" id="-49953">
		<tag k="fixme" v="consider place=hamlet" />
		<tag k="loc_name" v="Gillsetmoen" />
		<tag k="name" v="Gilsetmoen" />
		<tag k="place" v="farm" />
		<tag k="ssr:stedsnr" v="228047" />
	</node>
	<node lat="62.936255551359665" lon="11.08748610870297" id="-49954">
		<tag k="name" v="Grønsetaunet" />
		<tag k="place" v="farm" />
		<tag k="ssr:stedsnr" v="228049" />
	</node>
	<node lat="62.74996111315513" lon="11.213347222676" id="-49955">
		<tag k="historic" v="shieling" />
		<tag k="name" v="Kløftvollen" />
		<tag k="place" v="isolated_dwelling" />
		<tag k="ssr:stedsnr" v="228116" />
	</node>
	<node lat="62.906184591921665" lon="11.188188139778836" id="-49957">
		<tag k="fixme" v="consider place=hamlet" />
		<tag k="name" v="Drøyvollsmoen" />
		<tag k="place" v="farm" />
		<tag k="ssr:stedsnr" v="228070" />
	</node>
	<node lat="62.93370833679976" lon="11.212211120779395" id="-49958">
		<tag k="historic" v="shieling" />
		<tag k="name" v="Hansvollen" />
		<tag k="place" v="isolated_dwelling" />
		<tag k="ssr:stedsnr" v="228075" />
	</node>
	<node lat="62.84697304522562" lon="11.209113452317002" id="-49959">
		<tag k="fixme" v="consider place=hamlet" />
		<tag k="name" v="Klokkarvollen" />
		<tag k="place" v="farm" />
		<tag k="ssr:stedsnr" v="228079" />
	</node>
	<node lat="62.956091662978714" lon="11.273080564360987" id="-49960">
		<tag k="name" v="Nordpå" />
		<tag k="ssr:stedsnr" v="228145" />
		<tag k="tourism" v="hotel" />
	</node>
	<node lat="62.77609381171012" lon="11.18826488043565" id="-49976">
		<tag k="alt_name" v="Jordvoll-lia" />
		<tag k="fixme" v="consider place=hamlet" />
		<tag k="name" v="Jordvollia" />
		<tag k="place" v="farm" />
		<tag k="ssr:stedsnr" v="228670" />
	</node>
	<node lat="62.9180916655126" lon="11.168297221210397" id="-49979">
		<tag k="name" v="Grøtsfætta boligfelt" />
		<tag k="place" v="quarter" />
		<tag k="ssr:stedsnr" v="282257" />
	</node>
	<node lat="62.92177778013334" lon="11.19280277264018" id="-49993">
		<tag k="name" v="Løvlia" />
		<tag k="place" v="farm" />
		<tag k="ssr:stedsnr" v="288958" />
	</node>
	<node lat="62.924430559059545" lon="11.18233332727809" id="-49994">
		<tag k="name" v="Arnehaugen" />
		<tag k="place" v="farm" />
		<tag k="ssr:stedsnr" v="288964" />
	</node>
	<node lat="62.930647223085" lon="11.20194167459811" id="-49995">
		<tag k="historic" v="shieling" />
		<tag k="name" v="Svendsvollen" />
		<tag k="place" v="isolated_dwelling" />
		<tag k="ssr:stedsnr" v="288971" />
	</node>
	<node lat="62.94934444791715" lon="11.044288881448283" id="-49996">
		<tag k="name" v="Storkleva" />
		<tag k="place" v="farm" />
		<tag k="ssr:stedsnr" v="289041" />
	</node>
	<node lat="62.842602775497795" lon="11.295747231097526" id="-50020">
		<tag k="name" v="Ustu" />
		<tag k="place" v="farm" />
		<tag k="ssr:stedsnr" v="289951" />
	</node>
	<node lat="62.93058889132665" lon="11.353263892523913" id="-50022">
		<tag k="name" v="Andersaunvollen" />
		<tag k="place" v="isolated_dwelling" />
		<tag k="ssr:stedsnr" v="289921" />
	</node>
	<node lat="62.849027778453774" lon="11.275611119553282" id="-50023">
		<tag k="name" v="Nesgård" />
		<tag k="place" v="farm" />
		<tag k="ssr:stedsnr" v="289924" />
	</node>
	<node lat="62.77898610897216" lon="11.332161101701038" id="-50024">
		<tag k="name" v="Novola hyttefelt" />
		<tag k="place" v="neighbourhood" />
		<tag k="ssr:stedsnr" v="301280" />
	</node>
	<node lat="62.84882531623303" lon="11.20263080943277" id="-50030">
		<tag k="fixme" v="consider place=hamlet" />
		<tag k="name" v="Rotan" />
		<tag k="place" v="farm" />
		<tag k="ssr:stedsnr" v="315074" />
	</node>
	<node lat="62.94343889006405" lon="11.285902776955778" id="-50033">
		<tag k="name" v="Øyan" />
		<tag k="place" v="farm" />
		<tag k="ssr:stedsnr" v="315198" />
	</node>
	<node lat="62.702705558554044" lon="11.155333328651142" id="-50038">
		<tag k="historic" v="shieling" />
		<tag k="name" v="Moholtvollen" />
		<tag k="place" v="isolated_dwelling" />
		<tag k="ssr:stedsnr" v="315232" />
	</node>
	<node lat="62.70376389159707" lon="11.156175005769823" id="-50039">
		<tag k="historic" v="shieling" />
		<tag k="name" v="Storstuguvollen" />
		<tag k="place" v="isolated_dwelling" />
		<tag k="ssr:stedsnr" v="315233" />
	</node>
	<node lat="62.84650833043427" lon="11.732725004969444" id="-50044">
		<tag k="historic" v="shieling" />
		<tag k="name" v="Grønlivollen" />
		<tag k="place" v="isolated_dwelling" />
		<tag k="ssr:stedsnr" v="316828" />
	</node>
	<node lat="62.84035371416472" lon="11.210906001492017" id="-50045">
		<tag k="fixme" v="consider place=hamlet" />
		<tag k="name" v="Skåkåsen" />
		<tag k="place" v="farm" />
		<tag k="ssr:stedsnr" v="316090" />
	</node>
	<node lat="62.83589721862637" lon="11.008255547514635" id="-50046">
		<tag k="historic" v="shieling" />
		<tag k="name" v="Øvindmovollen" />
		<tag k="place" v="isolated_dwelling" />
		<tag k="ssr:stedsnr" v="316094" />
	</node>
	<node lat="62.840762537621515" lon="11.289145534488474" id="-50049">
		<tag k="fixme" v="consider place=hamlet" />
		<tag k="name" v="Træet" />
		<tag k="place" v="farm" />
		<tag k="ssr:stedsnr" v="316157" />
	</node>
	<node lat="62.993722220548236" lon="10.983333341712052" id="-50050">
		<tag k="name" v="Uroa" />
		<tag k="place" v="isolated_dwelling" />
		<tag k="ssr:stedsnr" v="316291" />
	</node>
	<node lat="62.83082818968046" lon="11.33165216093838" id="-50057">
		<tag k="fixme" v="consider place=hamlet" />
		<tag k="name" v="Rennolen" />
		<tag k="place" v="farm" />
		<tag k="ssr:stedsnr" v="316920" />
	</node>
	<node lat="62.83927499941237" lon="11.219999990393086" id="-50058">
		<tag k="name" v="Skåkåstrøa" />
		<tag k="place" v="farm" />
		<tag k="ssr:stedsnr" v="316926" />
	</node>
	<node lat="62.80007499747901" lon="11.349449993179737" id="-50065">
		<tag k="name" v="Hans-Engan" />
		<tag k="place" v="farm" />
		<tag k="ssr:stedsnr" v="324397" />
	</node>
	<node lat="63.04604166390787" lon="11.072013893646005" id="-50066">
		<tag k="historic" v="shieling" />
		<tag k="name" v="Aunvollen" />
		<tag k="place" v="isolated_dwelling" />
		<tag k="ssr:stedsnr" v="324363" />
	</node>
	<node lat="62.91036944395771" lon="11.18325277986477" id="-50070">
		<tag k="name" v="Dansktrøa" />
		<tag k="place" v="farm" />
		<tag k="ssr:stedsnr" v="349081" />
	</node>
	<node lat="62.72894999840653" lon="11.140747213665875" id="-50071">
		<tag k="historic" v="shieling" />
		<tag k="name" v="Kjørkhusvollan" />
		<tag k="place" v="isolated_dwelling" />
		<tag k="ssr:stedsnr" v="349038" />
	</node>
	<node lat="62.77618664318694" lon="11.182539927776777" id="-50072">
		<tag k="alt_name" v="Melen" />
		<tag k="name" v="Mælen" />
		<tag k="place" v="farm" />
		<tag k="ssr:stedsnr" v="349125" />
	</node>
	<node lat="62.85992777805936" lon="11.186566665157272" id="-50073">
		<tag k="name" v="Hallguttu" />
		<tag k="place" v="farm" />
		<tag k="ssr:stedsnr" v="349094" />
	</node>
	<node lat="62.948291666291745" lon="11.285305559143735" id="-50103">
		<tag k="name" v="Grubba" />
		<tag k="place" v="farm" />
		<tag k="ssr:stedsnr" v="349859" />
	</node>
	<node lat="62.84681388698013" lon="11.29064722221819" id="-50104">
		<tag k="name" v="Venhaugen" />
		<tag k="place" v="farm" />
		<tag k="ssr:stedsnr" v="349931" />
	</node>
	<node lat="62.961024998068815" lon="11.235313896669998" id="-50105">
		<tag k="name" v="Gjardet" />
		<tag k="place" v="farm" />
		<tag k="ssr:stedsnr" v="349846" />
	</node>
	<node lat="62.8416527783441" lon="11.31735833368005" id="-50106">
		<tag k="name" v="Finlandstømne" />
		<tag k="place" v="farm" />
		<tag k="ssr:stedsnr" v="349954" />
	</node>
	<node lat="62.83543611433966" lon="11.325083337552261" id="-50107">
		<tag k="name" v="Fekjan" />
		<tag k="place" v="farm" />
		<tag k="ssr:stedsnr" v="349959" />
	</node>
	<node lat="62.953975003809475" lon="11.244608342333557" id="-50108">
		<tag k="name" v="Langøya" />
		<tag k="place" v="farm" />
		<tag k="ssr:stedsnr" v="349966" />
	</node>
	<node lat="62.758375003251956" lon="11.335000008620002" id="-50109">
		<tag k="name" v="Nordgården" />
		<tag k="place" v="farm" />
		<tag k="ssr:stedsnr" v="349983" />
	</node>
	<node lat="62.80352222597594" lon="11.335233343184886" id="-50110">
		<tag k="name" v="Haukvollen" />
		<tag k="place" v="farm" />
		<tag k="ssr:stedsnr" v="349985" />
	</node>
	<node lat="62.81946944250982" lon="11.32873888121293" id="-50111">
		<tag k="name" v="Nyhåggån" />
		<tag k="place" v="farm" />
		<tag k="ssr:stedsnr" v="349987" />
	</node>
	<node lat="62.69054722029815" lon="11.163227779252109" id="-50112">
		<tag k="historic" v="shieling" />
		<tag k="name" v="Fetvollen" />
		<tag k="place" v="isolated_dwelling" />
		<tag k="ssr:stedsnr" v="363357" />
	</node>
	<node lat="62.74436666510589" lon="11.125438894747468" id="-50113">
		<tag k="alt_name" v="Engesvoll" />
		<tag k="historic" v="shieling" />
		<tag k="name" v="Engesvollen" />
		<tag k="place" v="isolated_dwelling" />
		<tag k="ssr:stedsnr" v="375031" />
	</node>
	<node lat="62.6927166703006" lon="11.15701389597352" id="-50115">
		<tag k="alt_name" v="Rognlivollen" />
		<tag k="historic" v="shieling" />
		<tag k="name" v="Rognlivollan" />
		<tag k="place" v="isolated_dwelling" />
		<tag k="ssr:stedsnr" v="375199" />
	</node>
	<node lat="62.833666662457674" lon="10.949583340522548" id="-50117">
		<tag k="name" v="Sandhaugen" />
		<tag k="place" v="locality" />
		<tag k="ssr:stedsnr" v="376043" />
	</node>
	<node lat="62.84480915584832" lon="11.320593641931167" id="-50118">
		<tag k="alt_name" v="Finland" />
		<tag k="fixme" v="consider place=hamlet" />
		<tag k="name" v="Finnland" />
		<tag k="place" v="farm" />
		<tag k="ssr:stedsnr" v="376139" />
	</node>
	<node lat="62.947485638253006" lon="11.247509384852632" id="-50123">
		<tag k="fixme" v="consider place=hamlet" />
		<tag k="name" v="Jamtvollen" />
		<tag k="place" v="farm" />
		<tag k="ssr:stedsnr" v="376220" />
	</node>
	<node lat="62.92801667042089" lon="11.19436110916318" id="-50125">
		<tag k="name" v="Kjølsslåtta" />
		<tag k="place" v="farm" />
		<tag k="ssr:stedsnr" v="376412" />
	</node>
	<node lat="62.92583611361579" lon="11.194297227015078" id="-50126">
		<tag k="name" v="Rønningan" />
		<tag k="place" v="farm" />
		<tag k="ssr:stedsnr" v="376414" />
	</node>
	<node lat="62.955254965496536" lon="11.131105368433639" id="-50130">
		<tag k="alt_name" v="Hegsetvollen" />
		<tag k="historic" v="shieling" />
		<tag k="name" v="Heggsetvollen" />
		<tag k="place" v="isolated_dwelling" />
		<tag k="ssr:stedsnr" v="376457" />
	</node>
	<node lat="62.828402781578696" lon="11.343730549262267" id="-50132">
		<tag k="name" v="Bjørgarden" />
		<tag k="place" v="farm" />
		<tag k="ssr:stedsnr" v="376900" />
	</node>
	<node lat="62.82398889291846" lon="11.617130552294736" id="-50135">
		<tag k="historic" v="shieling" />
		<tag k="name" v="Engesvollen" />
		<tag k="place" v="isolated_dwelling" />
		<tag k="ssr:stedsnr" v="376909" />
	</node>
	<node lat="62.81252500203176" lon="11.602450002658943" id="-50137">
		<tag k="historic" v="shieling" />
		<tag k="name" v="Bønsåsen" />
		<tag k="place" v="isolated_dwelling" />
		<tag k="ssr:stedsnr" v="376922" />
	</node>
	<node lat="62.80600848391267" lon="11.339122341213306" id="-50139">
		<tag k="fixme" v="consider place=hamlet" />
		<tag k="name" v="Kåsa" />
		<tag k="place" v="farm" />
		<tag k="ssr:stedsnr" v="376929" />
	</node>
	<node lat="62.81514444848574" lon="11.491458326570896" id="-50140">
		<tag k="historic" v="shieling" />
		<tag k="name" v="Djupdalsvollan" />
		<tag k="place" v="isolated_dwelling" />
		<tag k="ssr:stedsnr" v="376938" />
	</node>
	<node lat="62.766577777952406" lon="11.313266672839159" id="-50143">
		<tag k="historic" v="shieling" />
		<tag k="name" v="Bukkrønningsvollen" />
		<tag k="place" v="isolated_dwelling" />
		<tag k="ssr:stedsnr" v="376955" />
	</node>
	<node lat="62.822975002095674" lon="11.346399992247289" id="-50146">
		<tag k="name" v="Sundan" />
		<tag k="place" v="farm" />
		<tag k="ssr:stedsnr" v="376917" />
	</node>
	<node lat="62.757668613686455" lon="11.33461154970918" id="-50147">
		<tag k="loc_name" v="Nesvollan" />
		<tag k="name" v="Nesvollen" />
		<tag k="place" v="hamlet" />
		<tag k="ssr:stedsnr" v="376973" />
	</node>
	<node lat="62.82759347355669" lon="11.504510383596939" id="-50151">
		<tag k="name" v="Vinkelen" />
		<tag k="place" v="locality" />
		<tag k="ssr:stedsnr" v="384370" />
	</node>
	<node lat="62.86261110688878" lon="11.19750554660911" id="-50152">
		<tag k="name" v="Kneppen" />
		<tag k="place" v="farm" />
		<tag k="ssr:stedsnr" v="384394" />
	</node>
	<node lat="62.84085833788459" lon="11.174622217653077" id="-50153">
		<tag k="name" v="Aspås" />
		<tag k="place" v="farm" />
		<tag k="ssr:stedsnr" v="401123" />
	</node>
	<node lat="62.927638886948834" lon="11.140594445188015" id="-50155">
		<tag k="name" v="Jordmorbakken boligfelt" />
		<tag k="place" v="quarter" />
		<tag k="ssr:stedsnr" v="403264" />
	</node>
	<node lat="62.94226944230257" lon="10.986522213909083" id="-50161">
		<tag k="historic" v="shieling" />
		<tag k="name" v="Nervollen" />
		<tag k="place" v="isolated_dwelling" />
		<tag k="ssr:stedsnr" v="410029" />
	</node>
	<node lat="62.854278861519546" lon="11.217265470285152" id="-50163">
		<tag k="fixme" v="consider place=hamlet" />
		<tag k="name" v="Eidet" />
		<tag k="place" v="farm" />
		<tag k="ssr:stedsnr" v="410070" />
	</node>
	<node lat="62.865625000646325" lon="11.18321945406926" id="-50164">
		<tag k="name" v="Mattisan" />
		<tag k="place" v="farm" />
		<tag k="ssr:stedsnr" v="410075" />
	</node>
	<node lat="62.94718479428098" lon="11.291881405969889" id="-50165">
		<tag k="fixme" v="consider place=hamlet" />
		<tag k="name" v="Skreddargården" />
		<tag k="place" v="farm" />
		<tag k="ssr:stedsnr" v="410818" />
	</node>
	<node lat="62.93074540537934" lon="11.331503690811235" id="-50166">
		<tag k="historic" v="shieling" />
		<tag k="name" v="Nervollan" />
		<tag k="place" v="isolated_dwelling" />
		<tag k="ssr:stedsnr" v="410821" />
	</node>
	<node lat="62.950002777520865" lon="11.285791656822614" id="-50167">
		<tag k="name" v="Haugen" />
		<tag k="place" v="farm" />
		<tag k="ssr:stedsnr" v="410826" />
	</node>
	<node lat="62.84627500208298" lon="11.253086102894626" id="-50172">
		<tag k="name" v="Kvelva" />
		<tag k="place" v="hamlet" />
		<tag k="ssr:stedsnr" v="410289" />
	</node>
	<node lat="62.9532027740087" lon="11.174372213662425" id="-50177">
		<tag k="name" v="Kvammen" />
		<tag k="place" v="locality" />
		<tag k="ssr:stedsnr" v="410467" />
	</node>
	<node lat="62.93859119266683" lon="11.072162973231777" id="-50180">
		<tag k="fixme" v="consider place=hamlet" />
		<tag k="name" v="Lesethaugen" />
		<tag k="place" v="farm" />
		<tag k="ssr:stedsnr" v="410531" />
	</node>
	<node lat="62.849969446315676" lon="11.220513894963313" id="-50190">
		<tag k="name" v="Hyllbekken" />
		<tag k="place" v="farm" />
		<tag k="ssr:stedsnr" v="410996" />
	</node>
	<node lat="62.808919447727625" lon="11.359944452006124" id="-50191">
		<tag k="name" v="Reitan" />
		<tag k="place" v="farm" />
		<tag k="ssr:stedsnr" v="410860" />
	</node>
	<node lat="62.819558334687876" lon="11.347019448378006" id="-50192">
		<tag k="name" v="Stortrøa" />
		<tag k="place" v="farm" />
		<tag k="ssr:stedsnr" v="410864" />
	</node>
	<node lat="62.81573889049332" lon="11.495027776159949" id="-50193">
		<tag k="historic" v="shieling" />
		<tag k="name" v="Djupdalsvollen" />
		<tag k="place" v="isolated_dwelling" />
		<tag k="ssr:stedsnr" v="410868" />
	</node>
	<node lat="62.81360555581951" lon="11.494169441438432" id="-50194">
		<tag k="historic" v="shieling" />
		<tag k="name" v="Bårdstrøvollen" />
		<tag k="place" v="isolated_dwelling" />
		<tag k="ssr:stedsnr" v="410873" />
	</node>
	<node lat="62.814644445918326" lon="11.471702779071359" id="-50195">
		<tag k="historic" v="shieling" />
		<tag k="name" v="Haugavollen" />
		<tag k="place" v="isolated_dwelling" />
		<tag k="ssr:stedsnr" v="410875" />
	</node>
	<node lat="62.82532499699786" lon="11.347575002176606" id="-50196">
		<tag k="name" v="Bårdstrøa" />
		<tag k="place" v="farm" />
		<tag k="ssr:stedsnr" v="410882" />
	</node>
	<node lat="62.85129444668744" lon="11.269447217058095" id="-50197">
		<tag k="name" v="Nordgård" />
		<tag k="place" v="farm" />
		<tag k="ssr:stedsnr" v="410886" />
	</node>
	<node lat="62.92449722651884" lon="11.173652770233087" id="-50198">
		<tag k="name" v="Svendsgården" />
		<tag k="place" v="farm" />
		<tag k="ssr:stedsnr" v="410962" />
	</node>
	<node lat="62.918038887867816" lon="11.183572226111371" id="-50199">
		<tag k="name" v="Trøan" />
		<tag k="place" v="farm" />
		<tag k="ssr:stedsnr" v="410966" />
	</node>
	<node lat="62.80539166270262" lon="11.338955545947544" id="-50200">
		<tag k="alt_name" v="Kåsa søre" />
		<tag k="name" v="Søre Kåsa" />
		<tag k="place" v="farm" />
		<tag k="ssr:stedsnr" v="410981" />
	</node>
	<node lat="62.8046333309967" lon="11.331922223013674" id="-50201">
		<tag k="name" v="Holla" />
		<tag k="place" v="farm" />
		<tag k="ssr:stedsnr" v="410983" />
	</node>
	<node lat="62.80708332903552" lon="11.313211116418726" id="-50202">
		<tag k="name" v="Rundhaugen" />
		<tag k="place" v="farm" />
		<tag k="ssr:stedsnr" v="410984" />
	</node>
	<node lat="62.84027500378687" lon="11.316369441015292" id="-50203">
		<tag k="name" v="Kalvhåggån" />
		<tag k="place" v="farm" />
		<tag k="ssr:stedsnr" v="410929" />
	</node>
	<node lat="62.83705277794338" lon="11.314547216330626" id="-50204">
		<tag k="name" v="Nørdre Langlandet" />
		<tag k="place" v="locality" />
		<tag k="ssr:stedsnr" v="410934" />
	</node>
	<node lat="62.851497224676116" lon="11.244405560207953" id="-50205">
		<tag k="fixme" v="multiple name tags, choose one and add the other to alt_name" />
		<tag k="name" v="Ystenget;Stensli" />
		<tag k="place" v="farm" />
		<tag k="ssr:stedsnr" v="424390" />
	</node>
	<node lat="62.719705557629446" lon="11.001713893599838" id="-50206">
		<tag k="historic" v="shieling" />
		<tag k="name" v="Elgsjømoen" />
		<tag k="place" v="isolated_dwelling" />
		<tag k="ssr:stedsnr" v="436031" />
	</node>
	<node lat="62.74216389157414" lon="11.122716675187126" id="-50207">
		<tag k="historic" v="shieling" />
		<tag k="name" v="Rathagvollen" />
		<tag k="place" v="isolated_dwelling" />
		<tag k="ssr:stedsnr" v="436042" />
	</node>
	<node lat="62.79346944689674" lon="11.183855550882775" id="-50208">
		<tag k="name" v="Liavollen" />
		<tag k="place" v="farm" />
		<tag k="ssr:stedsnr" v="437013" />
	</node>
	<node lat="62.8545552865317" lon="11.203880705078882" id="-50209">
		<tag k="fixme" v="consider place=hamlet" />
		<tag k="name" v="Øverhaugen" />
		<tag k="place" v="farm" />
		<tag k="ssr:stedsnr" v="437097" />
	</node>
	<node lat="62.8472916637385" lon="11.206022218644653" id="-50210">
		<tag k="name" v="Sveet" />
		<tag k="place" v="farm" />
		<tag k="ssr:stedsnr" v="437098" />
	</node>
	<node lat="62.931527781784844" lon="11.378897230767445" id="-50214">
		<tag k="alt_name" v="Haugvollen" />
		<tag k="name" v="Høgvollen" />
		<tag k="place" v="isolated_dwelling" />
		<tag k="ssr:stedsnr" v="437228" />
	</node>
	<node lat="62.754913886785616" lon="11.020236114858045" id="-50215">
		<tag k="historic" v="shieling" />
		<tag k="name" v="Buvollen" />
		<tag k="place" v="isolated_dwelling" />
		<tag k="ssr:stedsnr" v="437247" />
	</node>
	<node lat="62.772452780260686" lon="11.076661106709272" id="-50216">
		<tag k="historic" v="shieling" />
		<tag k="name" v="Langsåvollen" />
		<tag k="place" v="isolated_dwelling" />
		<tag k="ssr:stedsnr" v="437036" />
	</node>
	<node lat="62.8462273976703" lon="11.307437324740174" id="-50218">
		<tag k="name" v="Jensåsen" />
		<tag k="place" v="hamlet" />
		<tag k="ssr:stedsnr" v="437172" />
	</node>
	<node lat="62.92902778052449" lon="11.39032500319341" id="-50221">
		<tag k="historic" v="shieling" />
		<tag k="name" v="Holddalsvollan" />
		<tag k="place" v="isolated_dwelling" />
		<tag k="ssr:stedsnr" v="437194" />
	</node>
	<node lat="62.98743288426701" lon="10.98551399144261" id="-50224">
		<tag k="name" v="Trettslættet" />
		<tag k="place" v="locality" />
		<tag k="ssr:stedsnr" v="437285" />
	</node>
	<node lat="62.918843234742425" lon="11.070959757941976" id="-50225">
		<tag k="alt_name" v="Lesetvollen" />
		<tag k="name" v="Ledalskoia" />
		<tag k="place" v="locality" />
		<tag k="ssr:stedsnr" v="437429" />
	</node>
	<node lat="62.92753333145518" lon="11.167022231810627" id="-50227">
		<tag k="name" v="Kroken" />
		<tag k="place" v="farm" />
		<tag k="ssr:stedsnr" v="437437" />
	</node>
	<node lat="62.85797777708392" lon="11.759955552082099" id="-50231">
		<tag k="historic" v="shieling" />
		<tag k="name" v="Hovsvollen" />
		<tag k="place" v="isolated_dwelling" />
		<tag k="ssr:stedsnr" v="437779" />
	</node>
	<node lat="62.83106457535087" lon="11.684487758997966" id="-50232">
		<tag k="historic" v="shieling" />
		<tag k="name" v="Stømnvollen" />
		<tag k="place" v="isolated_dwelling" />
		<tag k="ssr:stedsnr" v="437876" />
	</node>
	<node lat="62.83092257496652" lon="11.320446186623458" id="-50233">
		<tag k="fixme" v="consider place=hamlet" />
		<tag k="name" v="Jordslia" />
		<tag k="place" v="farm" />
		<tag k="ssr:stedsnr" v="437879" />
	</node>
	<node lat="62.774586112747514" lon="11.337316669601973" id="-50235">
		<tag k="name" v="Langlandsvollen" />
		<tag k="place" v="isolated_dwelling" />
		<tag k="ssr:stedsnr" v="437936" />
	</node>
	<node lat="62.78217500424801" lon="11.393266662799052" id="-50236">
		<tag k="name" v="Åsvollen" />
		<tag k="place" v="isolated_dwelling" />
		<tag k="ssr:stedsnr" v="437938" />
	</node>
	<node lat="62.85187969173054" lon="11.206678787500028" id="-50238">
		<tag k="fixme" v="consider place=hamlet" />
		<tag k="name" v="Dragmyrhaugen" />
		<tag k="place" v="farm" />
		<tag k="ssr:stedsnr" v="444341" />
	</node>
	<node lat="62.80128055467452" lon="11.384677775596693" id="-50242">
		<tag k="historic" v="shieling" />
		<tag k="name" v="Storvollen" />
		<tag k="place" v="isolated_dwelling" />
		<tag k="ssr:stedsnr" v="445409" />
	</node>
	<node lat="62.716138891010935" lon="11.152380548693516" id="-50249">
		<tag k="historic" v="shieling" />
		<tag k="name" v="Heggsetvollen" />
		<tag k="place" v="isolated_dwelling" />
		<tag k="ssr:stedsnr" v="496025" />
	</node>
	<node lat="62.73921944027781" lon="11.01963611971596" id="-50250">
		<tag k="alt_name" v="Stensvollan" />
		<tag k="historic" v="shieling" />
		<tag k="loc_name" v="Steinsvollen" />
		<tag k="name" v="Steinsvollan" />
		<tag k="place" v="isolated_dwelling" />
		<tag k="ssr:stedsnr" v="496045" />
	</node>
	<node lat="62.85540833434488" lon="11.192202769553369" id="-50252">
		<tag k="alt_name" v="Åshaug" />
		<tag k="name" v="Åshaugen" />
		<tag k="place" v="farm" />
		<tag k="ssr:stedsnr" v="497073" />
	</node>
	<node lat="62.9233083332729" lon="11.35799444450823" id="-50253">
		<tag k="name" v="Holet" />
		<tag k="place" v="isolated_dwelling" />
		<tag k="ssr:stedsnr" v="497157" />
	</node>
	<node lat="62.90682778207401" lon="11.25150834157565" id="-50255">
		<tag k="historic" v="shieling" />
		<tag k="name" v="Drøyvollssetra" />
		<tag k="place" v="isolated_dwelling" />
		<tag k="ssr:stedsnr" v="497173" />
	</node>
	<node lat="62.76400833737672" lon="11.048855553251263" id="-50257">
		<tag k="historic" v="shieling" />
		<tag k="name" v="Storvollen" />
		<tag k="place" v="isolated_dwelling" />
		<tag k="ssr:stedsnr" v="497030" />
	</node>
	<node lat="62.74666111091844" lon="10.995925007362278" id="-50258">
		<tag k="historic" v="shieling" />
		<tag k="name" v="Nesgardsvollene" />
		<tag k="place" v="isolated_dwelling" />
		<tag k="ssr:stedsnr" v="497032" />
	</node>
	<node lat="62.95470682477077" lon="11.235500463028007" id="-50263">
		<tag k="name" v="Jonsøya" />
		<tag k="place" v="farm" />
		<tag k="ssr:stedsnr" v="497180" />
	</node>
	<node lat="62.95276397345084" lon="11.278158635779148" id="-50264">
		<tag k="fixme" v="consider place=hamlet" />
		<tag k="name" v="Midtaunet" />
		<tag k="place" v="farm" />
		<tag k="ssr:stedsnr" v="497183" />
	</node>
	<node lat="62.90534722286822" lon="11.189180559479308" id="-50265">
		<tag k="name" v="Neset" />
		<tag k="place" v="farm" />
		<tag k="ssr:stedsnr" v="497376" />
	</node>
	<node lat="62.958300310998936" lon="10.995798069251473" id="-50266">
		<tag k="fixme" v="consider place=hamlet" />
		<tag k="name" v="Haugen" />
		<tag k="place" v="farm" />
		<tag k="ssr:stedsnr" v="497424" />
	</node>
	<node lat="62.76451370811916" lon="11.334946390469943" id="-50269">
		<tag k="fixme" v="consider place=hamlet" />
		<tag k="name" v="Hollbakken" />
		<tag k="place" v="farm" />
		<tag k="ssr:stedsnr" v="497963" />
	</node>
	<node lat="62.836877774399774" lon="11.009088889706486" id="-50271">
		<tag k="name" v="Evenåsvollen" />
		<tag k="place" v="isolated_dwelling" />
		<tag k="ssr:stedsnr" v="498095" />
	</node>
	<node lat="62.84478882222281" lon="11.26553308593593" id="-50272">
		<tag k="name" v="Moan" />
		<tag k="place" v="hamlet" />
		<tag k="ssr:stedsnr" v="498180" />
	</node>
	<node lat="62.91938641780188" lon="11.174010639015611" id="-50274">
		<tag k="fixme" v="consider place=hamlet" />
		<tag k="name" v="Grøt" />
		<tag k="place" v="farm" />
		<tag k="ssr:stedsnr" v="498462" />
	</node>
	<node lat="62.846475000835724" lon="11.789966674978379" id="-50276">
		<tag k="historic" v="shieling" />
		<tag k="name" v="Skordalsvollan" />
		<tag k="place" v="isolated_dwelling" />
		<tag k="ssr:stedsnr" v="498819" />
	</node>
	<node lat="62.82384999683749" lon="11.651638896667441" id="-50277">
		<tag k="historic" v="shieling" />
		<tag k="name" v="Stentrøvollen" />
		<tag k="place" v="isolated_dwelling" />
		<tag k="ssr:stedsnr" v="498912" />
	</node>
	<node lat="62.8270916653423" lon="11.343433333618059" id="-50279">
		<tag k="name" v="Unsgarden" />
		<tag k="place" v="farm" />
		<tag k="ssr:stedsnr" v="498919" />
	</node>
	<node lat="62.813266671171434" lon="11.160752771908529" id="-50281">
		<tag k="historic" v="shieling" />
		<tag k="name" v="Vårhusvollan" />
		<tag k="place" v="isolated_dwelling" />
		<tag k="ssr:stedsnr" v="505060" />
	</node>
	<node lat="62.83542222056447" lon="11.447549991561779" id="-50286">
		<tag k="historic" v="shieling" />
		<tag k="name" v="Finnlandsvollan" />
		<tag k="place" v="isolated_dwelling" />
		<tag k="ssr:stedsnr" v="506878" />
	</node>
	<node lat="62.71495833156298" lon="11.1657416605387" id="-50291">
		<tag k="historic" v="shieling" />
		<tag k="name" v="Rønningsvollen" />
		<tag k="place" v="isolated_dwelling" />
		<tag k="ssr:stedsnr" v="531001" />
	</node>
	<node lat="62.79393611271162" lon="11.183969452873392" id="-50292">
		<tag k="name" v="Rognsåvollen" />
		<tag k="old_name" v="Rognesvollen" />
		<tag k="place" v="farm" />
		<tag k="ssr:stedsnr" v="531098" />
	</node>
	<node lat="62.75274681767125" lon="10.955713634293856" id="-50293">
		<tag k="historic" v="shieling" />
		<tag k="name" v="Meiåvollan" />
		<tag k="place" v="isolated_dwelling" />
		<tag k="ssr:stedsnr" v="531046" />
	</node>
	<node lat="62.89340833713584" lon="11.184480564631562" id="-50294">
		<tag k="alt_name" v="Egga nordre" />
		<tag k="name" v="Nørdre Egga" />
		<tag k="place" v="farm" />
		<tag k="ssr:stedsnr" v="531049" />
	</node>
	<node lat="62.91619185686347" lon="11.148458531083044" id="-50295">
		<tag k="fixme" v="consider place=hamlet" />
		<tag k="name" v="Løvåsen" />
		<tag k="place" v="farm" />
		<tag k="ssr:stedsnr" v="531057" />
	</node>
	<node lat="62.90600351368055" lon="11.177145467871105" id="-50317">
		<tag k="alt_name" v="Rønningen" />
		<tag k="name" v="Rønningan" />
		<tag k="place" v="hamlet" />
		<tag k="ssr:stedsnr" v="531518" />
	</node>
	<node lat="62.9407888891802" lon="11.061525005565356" id="-50321">
		<tag k="name" v="Eriks-Engan" />
		<tag k="place" v="farm" />
		<tag k="ssr:stedsnr" v="531738" />
	</node>
	<node lat="62.825386109686605" lon="11.342122226600184" id="-50324">
		<tag k="name" v="Bønstu" />
		<tag k="place" v="farm" />
		<tag k="ssr:stedsnr" v="531941" />
	</node>
	<node lat="62.952663888834884" lon="11.25764166982278" id="-50325">
		<tag k="name" v="Nørdre Tverråa" />
		<tag k="place" v="farm" />
		<tag k="ssr:stedsnr" v="531954" />
	</node>
	<node lat="62.92947222503618" lon="11.124236120129712" id="-50327">
		<tag k="alt_name" v="Nordre Prestrønningen" />
		<tag k="name" v="Nørdre Prestrønningen" />
		<tag k="place" v="farm" />
		<tag k="ssr:stedsnr" v="531967" />
	</node>
	<node lat="62.7923694454525" lon="11.357791665697892" id="-50328">
		<tag k="name" v="Håggan" />
		<tag k="place" v="farm" />
		<tag k="ssr:stedsnr" v="532849" />
	</node>
	<node lat="62.79359722484229" lon="11.354191661511136" id="-50329">
		<tag k="name" v="Kvernbekkheim" />
		<tag k="place" v="farm" />
		<tag k="ssr:stedsnr" v="532850" />
	</node>
	<node lat="62.85053888842819" lon="11.280880556181355" id="-50330">
		<tag k="name" v="Buheim" />
		<tag k="place" v="farm" />
		<tag k="ssr:stedsnr" v="532985" />
	</node>
	<node lat="62.74900380184364" lon="11.021340005692897" id="-50333">
		<tag k="historic" v="shieling" />
		<tag k="name" v="Gjersvollvollan" />
		<tag k="place" v="isolated_dwelling" />
		<tag k="ssr:stedsnr" v="557026" />
	</node>
	<node lat="62.90988888761292" lon="11.13535278097599" id="-50337">
		<tag k="name" v="Nedre Øvindmovollen" />
		<tag k="place" v="locality" />
		<tag k="ssr:stedsnr" v="557374" />
	</node>
	<node lat="62.7005083312822" lon="11.169152782705977" id="-50341">
		<tag k="historic" v="shieling" />
		<tag k="name" v="Myrvollen" />
		<tag k="place" v="isolated_dwelling" />
		<tag k="ssr:stedsnr" v="557236" />
	</node>
	<node lat="62.77685000212983" lon="11.448233340000133" id="-50343">
		<tag k="historic" v="shieling" />
		<tag k="name" v="Reitvollan" />
		<tag k="place" v="isolated_dwelling" />
		<tag k="ssr:stedsnr" v="557933" />
	</node>
	<node lat="62.84427122178303" lon="11.23469832654701" id="-50348">
		<tag k="fixme" v="consider place=hamlet" />
		<tag k="name" v="Bendosen" />
		<tag k="place" v="farm" />
		<tag k="ssr:stedsnr" v="558165" />
	</node>
	<node lat="62.88938611357731" lon="11.251374997139884" id="-50349">
		<tag k="name" v="Klokkarvollen" />
		<tag k="place" v="isolated_dwelling" />
		<tag k="ssr:stedsnr" v="558185" />
	</node>
	<node lat="62.94066388982218" lon="11.250249997920132" id="-50351">
		<tag k="name" v="Gronsesvollen" />
		<tag k="place" v="isolated_dwelling" />
		<tag k="ssr:stedsnr" v="558224" />
	</node>
	<node lat="62.93246388482232" lon="11.108288882558817" id="-50353">
		<tag k="name" v="Gladhaugen" />
		<tag k="place" v="farm" />
		<tag k="ssr:stedsnr" v="558440" />
	</node>
	<node lat="62.934330552192385" lon="11.13022221716883" id="-50354">
		<tag k="alt_name" v="Ruskåsen" />
		<tag k="name" v="Steinsås" />
		<tag k="place" v="farm" />
		<tag k="ssr:stedsnr" v="558441" />
	</node>
	<node lat="62.80098991605036" lon="11.193576157115304" id="-50355">
		<tag k="alt_name" v="Grønsetrommet" />
		<tag k="name" v="Bredslættet" />
		<tag k="place" v="farm" />
		<tag k="ssr:stedsnr" v="558460" />
	</node>
	<node lat="62.954313885004765" lon="11.124808341105807" id="-50356">
		<tag k="historic" v="shieling" />
		<tag k="name" v="Gårdvollan" />
		<tag k="place" v="isolated_dwelling" />
		<tag k="ssr:stedsnr" v="558469" />
	</node>
	<node lat="62.75604999767946" lon="11.320197225692832" id="-50363">
		<tag k="historic" v="shieling" />
		<tag k="name" v="Spellvollen" />
		<tag k="place" v="isolated_dwelling" />
		<tag k="ssr:stedsnr" v="558968" />
	</node>
	<node lat="62.81530691601411" lon="11.333648626703766" id="-50364">
		<tag k="fixme" v="consider place=hamlet" />
		<tag k="name" v="Solandslia" />
		<tag k="place" v="farm" />
		<tag k="ssr:stedsnr" v="558929" />
	</node>
	<node lat="62.81115555576043" lon="11.482780553722726" id="-50365">
		<tag k="historic" v="shieling" />
		<tag k="name" v="Gunnavollen" />
		<tag k="place" v="isolated_dwelling" />
		<tag k="ssr:stedsnr" v="558933" />
	</node>
	<node lat="62.892200001438226" lon="11.185019446360776" id="-50376">
		<tag k="name" v="Eggen søndre" />
		<tag k="place" v="farm" />
		<tag k="ssr:stedsnr" v="584891" />
	</node>
	<node lat="62.857991669517766" lon="11.217586110221665" id="-50377">
		<tag k="fixme" v="consider place=hamlet" />
		<tag k="name" v="Smedmoen" />
		<tag k="place" v="farm" />
		<tag k="ssr:stedsnr" v="591075" />
	</node>
	<node lat="62.84390555532106" lon="11.209849994627533" id="-50378">
		<tag k="name" v="Granlund" />
		<tag k="place" v="farm" />
		<tag k="ssr:stedsnr" v="591080" />
	</node>
	<node lat="62.85272499988221" lon="11.220641672939216" id="-50381">
		<tag k="name" v="Eidebakken" />
		<tag k="old_name" v="BENTÅS" />
		<tag k="place" v="farm" />
		<tag k="ssr:stedsnr" v="591237" />
	</node>
	<node lat="62.720216667345035" lon="11.005197230733135" id="-50386">
		<tag k="historic" v="shieling" />
		<tag k="name" v="Vavollen" />
		<tag k="place" v="isolated_dwelling" />
		<tag k="ssr:stedsnr" v="591642" />
	</node>
	<node lat="62.932355557264074" lon="11.211124992761185" id="-50390">
		<tag k="historic" v="shieling" />
		<tag k="name" v="Eriksvollen" />
		<tag k="place" v="isolated_dwelling" />
		<tag k="ssr:stedsnr" v="591977" />
	</node>
	<node lat="62.74673055691867" lon="10.996861113325052" id="-50393">
		<tag k="historic" v="shieling" />
		<tag k="name" v="Nesgardsvollan" />
		<tag k="place" v="isolated_dwelling" />
		<tag k="ssr:stedsnr" v="592031" />
	</node>
	<node lat="62.93923889296292" lon="11.294605553168717" id="-50418">
		<tag k="historic" v="shieling" />
		<tag k="name" v="Larsøya" />
		<tag k="place" v="isolated_dwelling" />
		<tag k="ssr:stedsnr" v="592877" />
	</node>
	<node lat="62.84341388998155" lon="11.277172227850096" id="-50419">
		<tag k="name" v="Kirkhusmoen" />
		<tag k="place" v="farm" />
		<tag k="ssr:stedsnr" v="592926" />
	</node>
	<node lat="62.947469441015706" lon="11.280425005214827" id="-50420">
		<tag k="name" v="Slåtthaugen" />
		<tag k="place" v="farm" />
		<tag k="ssr:stedsnr" v="592881" />
	</node>
	<node lat="62.819663887644175" lon="11.353769450476536" id="-50421">
		<tag k="name" v="Brattås" />
		<tag k="place" v="farm" />
		<tag k="ssr:stedsnr" v="592888" />
	</node>
	<node lat="62.74053525786126" lon="11.095174700210777" id="-50423">
		<tag k="name" v="Slettælet" />
		<tag k="place" v="isolated_dwelling" />
		<tag k="ssr:stedsnr" v="618039" />
	</node>
	<node lat="62.7085666641112" lon="11.154900007531575" id="-50426">
		<tag k="historic" v="shieling" />
		<tag k="name" v="Grytbakkvollan" />
		<tag k="place" v="isolated_dwelling" />
		<tag k="ssr:stedsnr" v="618009" />
	</node>
	<node lat="62.85985833356018" lon="11.182022212639398" id="-50428">
		<tag k="name" v="Kvam" />
		<tag k="place" v="farm" />
		<tag k="ssr:stedsnr" v="618103" />
	</node>
	<node lat="62.86614166420881" lon="11.039499992383286" id="-50429">
		<tag k="name" v="Gårdsetran" />
		<tag k="place" v="locality" />
		<tag k="ssr:stedsnr" v="618105" />
	</node>
	<node lat="62.8654111070494" lon="11.022383323509011" id="-50430">
		<tag k="historic" v="shieling" />
		<tag k="name" v="Holvollen" />
		<tag k="place" v="isolated_dwelling" />
		<tag k="ssr:stedsnr" v="618110" />
	</node>
	<node lat="62.90373888705398" lon="11.178016670406768" id="-50431">
		<tag k="alt_name" v="Rønningen, syndre" />
		<tag k="name" v="Syndre Rønningen" />
		<tag k="place" v="farm" />
		<tag k="ssr:stedsnr" v="618355" />
	</node>
	<node lat="62.97809166426859" lon="10.969824994056205" id="-50434">
		<tag k="historic" v="shieling" />
		<tag k="name" v="Langletvollan" />
		<tag k="place" v="isolated_dwelling" />
		<tag k="ssr:stedsnr" v="618473" />
	</node>
	<node lat="62.74337687884011" lon="11.346923321492838" id="-50435">
		<tag k="historic" v="shieling" />
		<tag k="name" v="Hølvollen" />
		<tag k="place" v="isolated_dwelling" />
		<tag k="ssr:stedsnr" v="618761" />
	</node>
	<node lat="62.91526814306439" lon="11.149874820198846" id="-50438">
		<tag k="name" v="Lauvåsen" />
		<tag k="place" v="farm" />
		<tag k="ssr:stedsnr" v="619440" />
	</node>
	<node lat="62.93984346164768" lon="11.085209398162961" id="-50440">
		<tag k="name" v="Yset" />
		<tag k="place" v="hamlet" />
		<tag k="ssr:stedsnr" v="619468" />
	</node>
	<node lat="62.756841665724615" lon="11.308763896161754" id="-50442">
		<tag k="historic" v="shieling" />
		<tag k="name" v="Litjstugguvollen" />
		<tag k="place" v="isolated_dwelling" />
		<tag k="ssr:stedsnr" v="618952" />
	</node>
	<node lat="62.76738611480601" lon="11.33076944086287" id="-50443">
		<tag k="historic" v="shieling" />
		<tag k="name" v="Retvollen" />
		<tag k="place" v="isolated_dwelling" />
		<tag k="ssr:stedsnr" v="618955" />
	</node>
	<node lat="62.76019999826647" lon="11.31278332867875" id="-50444">
		<tag k="historic" v="shieling" />
		<tag k="name" v="Hollvollan" />
		<tag k="place" v="isolated_dwelling" />
		<tag k="ssr:stedsnr" v="618956" />
	</node>
	<node lat="62.85854753197806" lon="11.210070660187041" id="-50448">
		<tag k="fixme" v="consider place=hamlet" />
		<tag k="name" v="Berget" />
		<tag k="place" v="farm" />
		<tag k="ssr:stedsnr" v="619081" />
	</node>
	<node lat="62.84437499801772" lon="10.994041664650714" id="-50449">
		<tag k="historic" v="shieling" />
		<tag k="name" v="Tangvollen" />
		<tag k="place" v="isolated_dwelling" />
		<tag k="ssr:stedsnr" v="619088" />
	</node>
	<node lat="62.95551944342398" lon="11.274677768230388" id="-50454">
		<tag k="name" v="Nordpå" />
		<tag k="ssr:stedsnr" v="619223" />
		<tag k="tourism" v="hotel" />
	</node>
	<node lat="62.84870412682656" lon="11.251757166185207" id="-50457">
		<tag k="alt_name" v="Østengen" />
		<tag k="fixme" v="consider place=hamlet" />
		<tag k="name" v="Ystenget" />
		<tag k="place" v="farm" />
		<tag k="ssr:stedsnr" v="619154" />
	</node>
	<node lat="62.81771450786468" lon="11.34632914594318" id="-50462">
		<tag k="fixme" v="consider place=hamlet" />
		<tag k="name" v="Nyrønningen" />
		<tag k="place" v="farm" />
		<tag k="ssr:stedsnr" v="619931" />
	</node>
	<node lat="62.86639444878134" lon="11.758075008721608" id="-50464">
		<tag k="name" v="Kvila" />
		<tag k="place" v="isolated_dwelling" />
		<tag k="ssr:stedsnr" v="619831" />
	</node>
	<node lat="62.79490785977607" lon="11.356440952552788" id="-50465">
		<tag k="fixme" v="consider place=hamlet" />
		<tag k="name" v="Skordalen" />
		<tag k="place" v="farm" />
		<tag k="ssr:stedsnr" v="619959" />
	</node>
	<node lat="62.83927777374959" lon="11.33485556434811" id="-50467">
		<tag k="name" v="Trøan" />
		<tag k="place" v="farm" />
		<tag k="ssr:stedsnr" v="627410" />
	</node>
	<node lat="62.79544307102226" lon="11.353960591620986" id="-50469">
		<tag k="name" v="Skordalen" />
		<tag k="place" v="hamlet" />
		<tag k="ssr:stedsnr" v="627417" />
	</node>
	<node lat="62.94891110768209" lon="11.03691665828246" id="-50475">
		<tag k="name" v="Bakåsen" />
		<tag k="place" v="farm" />
		<tag k="ssr:stedsnr" v="644789" />
	</node>
	<node lat="62.816988892937985" lon="11.160158342011023" id="-50477">
		<tag k="historic" v="shieling" />
		<tag k="name" v="Morkasetra" />
		<tag k="place" v="isolated_dwelling" />
		<tag k="ssr:stedsnr" v="652097" />
	</node>
	<node lat="62.85784999743891" lon="11.195824996773633" id="-50478">
		<tag k="name" v="Furumo" />
		<tag k="place" v="farm" />
		<tag k="ssr:stedsnr" v="652072" />
	</node>
	<node lat="62.91951944220074" lon="11.17248055415289" id="-50480">
		<tag k="fixme" v="consider place=suburb, village or hamlet" />
		<tag k="name" v="Knuten" />
		<tag k="place" v="quarter" />
		<tag k="ssr:stedsnr" v="652257" />
	</node>
	<node lat="62.93335555834168" lon="11.207655548523528" id="-50484">
		<tag k="historic" v="shieling" />
		<tag k="name" v="Gjardavollen" />
		<tag k="place" v="isolated_dwelling" />
		<tag k="ssr:stedsnr" v="652451" />
	</node>
	<node lat="62.91196944360804" lon="11.188038892087922" id="-50490">
		<tag k="name" v="Ystersveet" />
		<tag k="place" v="farm" />
		<tag k="ssr:stedsnr" v="652963" />
	</node>
	<node lat="62.925711108180884" lon="11.18044444659584" id="-50491">
		<tag k="name" v="Rønningen" />
		<tag k="place" v="farm" />
		<tag k="ssr:stedsnr" v="652966" />
	</node>
	<node lat="62.770994443889634" lon="11.075666667193646" id="-50492">
		<tag k="historic" v="shieling" />
		<tag k="name" v="Børsvollen" />
		<tag k="place" v="isolated_dwelling" />
		<tag k="ssr:stedsnr" v="653051" />
	</node>
	<node lat="62.837869441658455" lon="11.288352777875613" id="-50510">
		<tag k="name" v="Østre Egga" />
		<tag k="place" v="farm" />
		<tag k="ssr:stedsnr" v="653912" />
	</node>
	<node lat="62.84320833371174" lon="11.307791667459686" id="-50511">
		<tag k="alt_name" v="Litlgjerdet øvre" />
		<tag k="name" v="Øvre Litlgjerdet" />
		<tag k="place" v="farm" />
		<tag k="ssr:stedsnr" v="653919" />
	</node>
	<node lat="62.82038333570579" lon="11.346177781799097" id="-50515">
		<tag k="name" v="Sjursgarden" />
		<tag k="place" v="farm" />
		<tag k="ssr:stedsnr" v="653848" />
	</node>
	<node lat="62.775216663589546" lon="11.448372222673493" id="-50516">
		<tag k="name" v="Monsvollen" />
		<tag k="place" v="isolated_dwelling" />
		<tag k="ssr:stedsnr" v="653852" />
	</node>
	<node lat="62.95601389043884" lon="11.248644436967378" id="-50517">
		<tag k="name" v="Hovstrøa" />
		<tag k="place" v="farm" />
		<tag k="ssr:stedsnr" v="653862" />
	</node>
	<node lat="62.923752778448424" lon="11.357605564730425" id="-50518">
		<tag k="name" v="Eriksvollen" />
		<tag k="place" v="isolated_dwelling" />
		<tag k="ssr:stedsnr" v="653878" />
	</node>
	<node lat="62.84621944236358" lon="11.708447215859138" id="-50519">
		<tag k="name" v="Gaulhåen boligområde" />
		<tag k="place" v="quarter" />
		<tag k="ssr:stedsnr" v="663274" />
	</node>
	<node lat="62.8113805522528" lon="11.459566665069657" id="-50520">
		<tag k="name" v="Håen hyttefelt" />
		<tag k="place" v="neighbourhood" />
		<tag k="ssr:stedsnr" v="665346" />
	</node>
	<node lat="62.84412499655847" lon="11.265691668744688" id="-50522">
		<tag k="fixme" v="multiple name tags, choose one and add the other to alt_name" />
		<tag k="name" v="Moan;Søndre Moan" />
		<tag k="place" v="farm" />
		<tag k="ssr:stedsnr" v="666450" />
	</node>
	<node lat="62.84964722627418" lon="11.247802787073049" id="-50523">
		<tag k="building" v="industrial" />
		<tag k="name" v="Ystenget" />
		<tag k="ssr:stedsnr" v="666423" />
	</node>
	<node lat="62.71527222436064" lon="11.16687499969755" id="-50524">
		<tag k="historic" v="shieling" />
		<tag k="name" v="Skandsvollen" />
		<tag k="place" v="isolated_dwelling" />
		<tag k="ssr:stedsnr" v="713002" />
	</node>
	<node lat="62.70114166997643" lon="11.168497220250813" id="-50525">
		<tag k="historic" v="shieling" />
		<tag k="name" v="Nedre Pålsvollen" />
		<tag k="place" v="isolated_dwelling" />
		<tag k="ssr:stedsnr" v="713008" />
	</node>
	<node lat="62.83824444192189" lon="11.323413891332969" id="-50539">
		<tag k="name" v="Norigard" />
		<tag k="place" v="farm" />
		<tag k="ssr:stedsnr" v="714913" />
	</node>
	<node lat="62.7167949778273" lon="11.16704687850431" id="-50540">
		<tag k="historic" v="shieling" />
		<tag k="name" v="Bendzvollen" />
		<tag k="place" v="isolated_dwelling" />
		<tag k="ssr:stedsnr" v="713749" />
	</node>
	<node lat="62.92988333413345" lon="11.121977781733857" id="-50542">
		<tag k="name" v="Sten" />
		<tag k="place" v="farm" />
		<tag k="ssr:stedsnr" v="713951" />
	</node>
	<node lat="62.92934166718626" lon="11.20552221410604" id="-50543">
		<tag k="historic" v="shieling" />
		<tag k="name" v="Oppgårsvollen" />
		<tag k="place" v="isolated_dwelling" />
		<tag k="ssr:stedsnr" v="713969" />
	</node>
	<node lat="62.73653888773201" lon="11.144472231738296" id="-50544">
		<tag k="historic" v="shieling" />
		<tag k="name" v="Eggavollen" />
		<tag k="place" v="isolated_dwelling" />
		<tag k="ssr:stedsnr" v="714030" />
	</node>
	<node lat="62.755724996145226" lon="11.078830552270796" id="-50545">
		<tag k="name" v="Ballonghytta" />
		<tag k="place" v="isolated_dwelling" />
		<tag k="ssr:stedsnr" v="714042" />
	</node>
	<node lat="62.80641111346881" lon="11.196038880673084" id="-50550">
		<tag k="name" v="Heggsetgrenda" />
		<tag k="place" v="hamlet" />
		<tag k="ssr:stedsnr" v="714341" />
	</node>
	<node lat="62.81862221987414" lon="11.201838890241334" id="-50551">
		<tag k="name" v="Vårhusgrenda" />
		<tag k="place" v="hamlet" />
		<tag k="ssr:stedsnr" v="714342" />
	</node>
	<node lat="62.963052774364705" lon="11.243155548000786" id="-50562">
		<tag k="historic" v="shieling" />
		<tag k="name" v="Torpvollen" />
		<tag k="place" v="isolated_dwelling" />
		<tag k="ssr:stedsnr" v="714814" />
	</node>
	<node lat="62.947372222068346" lon="11.286372214932719" id="-50563">
		<tag k="name" v="Uststuggu" />
		<tag k="place" v="farm" />
		<tag k="ssr:stedsnr" v="714817" />
	</node>
	<node lat="62.95740833630865" lon="11.248197230913924" id="-50564">
		<tag k="name" v="Simenshardkroken" />
		<tag k="place" v="farm" />
		<tag k="ssr:stedsnr" v="714846" />
	</node>
	<node lat="62.809675000034275" lon="11.370183338801235" id="-50565">
		<tag k="name" v="Rydningsberg" />
		<tag k="place" v="farm" />
		<tag k="ssr:stedsnr" v="714867" />
	</node>
	<node lat="62.843866667020755" lon="11.321861116269009" id="-50566">
		<tag k="alt_name" v="Finland" />
		<tag k="name" v="Finnland" />
		<tag k="place" v="farm" />
		<tag k="ssr:stedsnr" v="714936" />
	</node>
	<node lat="62.72091666280568" lon="11.006555555939578" id="-50568">
		<tag k="historic" v="shieling" />
		<tag k="name" v="Aspåsvollen" />
		<tag k="place" v="isolated_dwelling" />
		<tag k="ssr:stedsnr" v="739029" />
	</node>
	<node lat="62.69884999641694" lon="11.168033342744842" id="-50569">
		<tag k="historic" v="shieling" />
		<tag k="name" v="Myrvangen" />
		<tag k="place" v="isolated_dwelling" />
		<tag k="ssr:stedsnr" v="739236" />
	</node>
	<node lat="62.698802782317536" lon="11.15274166131587" id="-50570">
		<tag k="historic" v="shieling" />
		<tag k="name" v="Storlivollen" />
		<tag k="place" v="isolated_dwelling" />
		<tag k="ssr:stedsnr" v="739239" />
	</node>
	<node lat="62.83377777414946" lon="11.000183324040972" id="-50572">
		<tag k="name" v="Lesetvollen" />
		<tag k="place" v="locality" />
		<tag k="ssr:stedsnr" v="740033" />
	</node>
	<node lat="62.89252988550013" lon="11.18527638284735" id="-50575">
		<tag k="fixme" v="consider place=hamlet" />
		<tag k="name" v="Egga" />
		<tag k="place" v="farm" />
		<tag k="ssr:stedsnr" v="740095" />
	</node>
	<node lat="62.7523416642479" lon="11.16218332363726" id="-50578">
		<tag k="name" v="Fjellheim" />
		<tag k="place" v="farm" />
		<tag k="ssr:stedsnr" v="740210" />
	</node>
	<node lat="62.9558023136622" lon="11.035937007748867" id="-50579">
		<tag k="fixme" v="consider place=hamlet" />
		<tag k="name" v="Gillset" />
		<tag k="place" v="farm" />
		<tag k="ssr:stedsnr" v="740419" />
	</node>
	<node lat="62.90759427978909" lon="11.199641148527322" id="-50581">
		<tag k="name" v="Hogstret" />
		<tag k="place" v="locality" />
		<tag k="ssr:stedsnr" v="740368" />
	</node>
	<node lat="62.91750658784364" lon="11.17058597457883" id="-50584">
		<tag k="fixme" v="consider place=hamlet" />
		<tag k="name" v="Grøtsfætta" />
		<tag k="place" v="farm" />
		<tag k="ssr:stedsnr" v="740379" />
	</node>
	<node lat="62.93792537907675" lon="11.071087340668646" id="-50586">
		<tag k="name" v="Lesetmoen" />
		<tag k="place" v="farm" />
		<tag k="ssr:stedsnr" v="740386" />
	</node>
	<node lat="62.82700833492148" lon="11.665144450142225" id="-50589">
		<tag k="historic" v="shieling" />
		<tag k="name" v="Gjårdvollan" />
		<tag k="place" v="isolated_dwelling" />
		<tag k="ssr:stedsnr" v="740864" />
	</node>
	<node lat="62.83721847863015" lon="11.28923765329394" id="-50590">
		<tag k="name" v="Egga" />
		<tag k="place" v="hamlet" />
		<tag k="ssr:stedsnr" v="740873" />
	</node>
	<node lat="62.85603333062811" lon="11.777544447467731" id="-50591">
		<tag k="historic" v="shieling" />
		<tag k="name" v="Nørdre Stuggudalsvollen" />
		<tag k="place" v="isolated_dwelling" />
		<tag k="ssr:stedsnr" v="740777" />
	</node>
	<node lat="62.76248055138045" lon="11.341569444117384" id="-50593">
		<tag k="name" v="Nesvollmoen" />
		<tag k="place" v="farm" />
		<tag k="ssr:stedsnr" v="740963" />
	</node>
	<node lat="62.80635277709411" lon="11.34995278353568" id="-50597">
		<tag k="name" v="Klas-Engan" />
		<tag k="place" v="farm" />
		<tag k="ssr:stedsnr" v="748389" />
	</node>
	<node lat="62.79121489910102" lon="11.18423860136528" id="-50602">
		<tag k="name" v="Eavollen" />
		<tag k="place" v="farm" />
		<tag k="ssr:stedsnr" v="748354" />
	</node>
	<node lat="62.793322220728896" lon="11.188336109643991" id="-50609">
		<tag k="fixme" v="consider place=hamlet" />
		<tag k="name" v="Hessdalen" />
		<tag k="place" v="village" />
		<tag k="ssr:stedsnr" v="753941" />
	</node>
	<node lat="62.920527778802125" lon="11.1541583319287" id="-50613">
		<tag k="name" v="Litjslættet" />
		<tag k="place" v="farm" />
		<tag k="ssr:stedsnr" v="774499" />
	</node>
	<node lat="62.759880556278596" lon="11.172230554262185" id="-50614">
		<tag k="name" v="Bendosfætta" />
		<tag k="place" v="farm" />
		<tag k="ssr:stedsnr" v="774120" />
	</node>
	<node lat="62.74279444221271" lon="11.04217221487699" id="-50616">
		<tag k="historic" v="shieling" />
		<tag k="name" v="Bornessvollan" />
		<tag k="place" v="isolated_dwelling" />
		<tag k="ssr:stedsnr" v="774031" />
	</node>
	<node lat="62.746319441552785" lon="11.013369439912983" id="-50617">
		<tag k="historic" v="shieling" />
		<tag k="name" v="Gjersvollan" />
		<tag k="place" v="isolated_dwelling" />
		<tag k="ssr:stedsnr" v="774032" />
	</node>
	<node lat="62.93943888967017" lon="11.0673777871289" id="-50618">
		<tag k="name" v="Litl-Leseten" />
		<tag k="place" v="farm" />
		<tag k="ssr:stedsnr" v="774040" />
	</node>
	<node lat="62.83413889259197" lon="11.330491673720736" id="-50619">
		<tag k="name" v="Skogly" />
		<tag k="place" v="farm" />
		<tag k="ssr:stedsnr" v="774046" />
	</node>
	<node lat="62.84266944602104" lon="11.33516389519317" id="-50620">
		<tag k="name" v="Åsli" />
		<tag k="place" v="farm" />
		<tag k="ssr:stedsnr" v="774048" />
	</node>
	<node lat="62.826269447274015" lon="11.341316671014162" id="-50621">
		<tag k="name" v="Bårdshaugen" />
		<tag k="place" v="farm" />
		<tag k="ssr:stedsnr" v="774050" />
	</node>
	<node lat="62.909208335881885" lon="11.186541676468472" id="-50622">
		<tag k="alt_name" v="Steinmo" />
		<tag k="name" v="Stenmoen" />
		<tag k="place" v="farm" />
		<tag k="ssr:stedsnr" v="774069" />
	</node>
	<node lat="62.933955554053306" lon="11.101997223560383" id="-50623">
		<tag k="name" v="Moan" />
		<tag k="place" v="farm" />
		<tag k="ssr:stedsnr" v="774077" />
	</node>
	<node lat="62.934608331289624" lon="11.100344440078391" id="-50624">
		<tag k="name" v="Litlenget" />
		<tag k="place" v="farm" />
		<tag k="ssr:stedsnr" v="774078" />
	</node>
	<node lat="62.84924462616068" lon="11.199785139897184" id="-50625">
		<tag k="fixme" v="consider place=hamlet" />
		<tag k="name" v="Lervollen" />
		<tag k="place" v="farm" />
		<tag k="ssr:stedsnr" v="774080" />
	</node>
	<node lat="62.847233336014035" lon="11.204741668945191" id="-50626">
		<tag k="name" v="Svelia" />
		<tag k="place" v="farm" />
		<tag k="ssr:stedsnr" v="774095" />
	</node>
	<node lat="62.81126558978101" lon="11.359359738234295" id="-50644">
		<tag k="name" v="Reitan" />
		<tag k="place" v="hamlet" />
		<tag k="ssr:stedsnr" v="774683" />
	</node>
	<node lat="62.82772499627441" lon="11.664716660019304" id="-50647">
		<tag k="historic" v="shieling" />
		<tag k="name" v="Oppistugguvollen" />
		<tag k="place" v="isolated_dwelling" />
		<tag k="ssr:stedsnr" v="774783" />
	</node>
	<node lat="62.95222221790486" lon="11.267255563280191" id="-50651">
		<tag k="name" v="Slåtta" />
		<tag k="place" v="farm" />
		<tag k="ssr:stedsnr" v="774843" />
	</node>
	<node lat="62.84004937887423" lon="11.308385473065128" id="-50652">
		<tag k="alt_name" v="Lunderenget nordre;Nordre Lunderenget" />
		<tag k="name" v="Nørdre Lunderenget" />
		<tag k="place" v="farm" />
		<tag k="ssr:stedsnr" v="774947" />
	</node>
	<node lat="62.888880558033385" lon="11.25255276916038" id="-50653">
		<tag k="name" v="Klokkarvollen" />
		<tag k="place" v="isolated_dwelling" />
		<tag k="ssr:stedsnr" v="774950" />
	</node>
	<node lat="62.846516663631434" lon="11.27986389156106" id="-50654">
		<tag k="name" v="Nordeng" />
		<tag k="place" v="farm" />
		<tag k="ssr:stedsnr" v="774985" />
	</node>
	<node lat="62.85776388571892" lon="11.230958325172534" id="-50655">
		<tag k="name" v="Granan" />
		<tag k="place" v="farm" />
		<tag k="ssr:stedsnr" v="774994" />
	</node>
	<node lat="62.85282222141252" lon="11.230577780033675" id="-50656">
		<tag k="name" v="Nordberg" />
		<tag k="place" v="isolated_dwelling" />
		<tag k="ssr:stedsnr" v="775000" />
	</node>
	<node lat="62.84543889068427" lon="11.53450278344555" id="-50659">
		<tag k="name" v="Nyrønningsbua" />
		<tag k="place" v="isolated_dwelling" />
		<tag k="ssr:stedsnr" v="801149" />
	</node>
	<node lat="62.842123690370784" lon="11.268679808735596" id="-50660">
		<tag k="fixme" v="consider place=hamlet" />
		<tag k="name" v="Trøhaugen" />
		<tag k="place" v="farm" />
		<tag k="ssr:stedsnr" v="801153" />
	</node>
	<node lat="62.91653055720249" lon="11.311694436565247" id="-50662">
		<tag k="historic" v="shieling" />
		<tag k="name" v="Dalan" />
		<tag k="place" v="isolated_dwelling" />
		<tag k="ssr:stedsnr" v="801158" />
	</node>
	<node lat="62.92618939647389" lon="11.366713517554688" id="-50663">
		<tag k="name" v="Kammen" />
		<tag k="place" v="isolated_dwelling" />
		<tag k="ssr:stedsnr" v="801162" />
	</node>
	<node lat="62.736469448644534" lon="11.145894441188725" id="-50664">
		<tag k="historic" v="shieling" />
		<tag k="name" v="Eggevollen" />
		<tag k="place" v="isolated_dwelling" />
		<tag k="ssr:stedsnr" v="800024" />
	</node>
	<node lat="62.939055436339096" lon="11.069249692844583" id="-50672">
		<tag k="name" v="Leset" />
		<tag k="place" v="hamlet" />
		<tag k="ssr:stedsnr" v="801398" />
	</node>
	<node lat="62.95129022744197" lon="11.03738876097661" id="-50673">
		<tag k="fixme" v="multiple name tags, choose one and add the other to alt_name" />
		<tag k="name" v="Gilsetstøa;Bergan" />
		<tag k="place" v="hamlet" />
		<tag k="ssr:stedsnr" v="801418" />
	</node>
	<node lat="62.90940555760856" lon="11.189680553935162" id="-50675">
		<tag k="name" v="Trøan" />
		<tag k="place" v="farm" />
		<tag k="ssr:stedsnr" v="801367" />
	</node>
	<node lat="62.911140708513294" lon="11.184726179044992" id="-50676">
		<tag k="fixme" v="consider place=hamlet" />
		<tag k="name" v="Rathåggån" />
		<tag k="place" v="farm" />
		<tag k="ssr:stedsnr" v="801368" />
	</node>
	<node lat="62.82630337823782" lon="11.313466370555945" id="-50680">
		<tag k="fixme" v="consider place=hamlet" />
		<tag k="name" v="Gjårdvollen" />
		<tag k="place" v="farm" />
		<tag k="ssr:stedsnr" v="801894" />
	</node>
	<node lat="62.78112189894831" lon="11.340759822576844" id="-50683">
		<tag k="fixme" v="consider place=hamlet" />
		<tag k="name" v="Granlundvollen" />
		<tag k="place" v="farm" />
		<tag k="ssr:stedsnr" v="801951" />
	</node>
	<node lat="62.790263888928465" lon="11.34189722028362" id="-50691">
		<tag k="name" v="Øver-Holla" />
		<tag k="place" v="farm" />
		<tag k="ssr:stedsnr" v="826144" />
	</node>
	<node lat="62.91753889151985" lon="11.179758324184176" id="-50692">
		<tag k="name" v="Ramlo boligfelt" />
		<tag k="place" v="quarter" />
		<tag k="ssr:stedsnr" v="829287" />
	</node>
	<node lat="62.71603055497447" lon="11.16438888454514" id="-50694">
		<tag k="historic" v="shieling" />
		<tag k="name" v="Bendoshaugvollen" />
		<tag k="place" v="isolated_dwelling" />
		<tag k="ssr:stedsnr" v="835002" />
	</node>
	<node lat="62.81389444393236" lon="11.19894167017646" id="-50695">
		<tag k="name" v="Myrmo" />
		<tag k="place" v="farm" />
		<tag k="ssr:stedsnr" v="835091" />
	</node>
	<node lat="62.744427776871426" lon="11.12564722873846" id="-50696">
		<tag k="historic" v="shieling" />
		<tag k="name" v="Liavollvollen" />
		<tag k="place" v="isolated_dwelling" />
		<tag k="ssr:stedsnr" v="835098" />
	</node>
	<node lat="62.76711111392232" lon="11.186044452304014" id="-50697">
		<tag k="name" v="Eggaslættet" />
		<tag k="place" v="farm" />
		<tag k="ssr:stedsnr" v="835105" />
	</node>
	<node lat="62.94168889113607" lon="11.06346667411549" id="-50698">
		<tag k="name" v="Nørdre Flatbergsengan" />
		<tag k="place" v="farm" />
		<tag k="ssr:stedsnr" v="835035" />
	</node>
	<node lat="62.94210832891034" lon="11.093783332658383" id="-50699">
		<tag k="name" v="Aunet" />
		<tag k="place" v="farm" />
		<tag k="ssr:stedsnr" v="835038" />
	</node>
	<node lat="62.862470571019244" lon="11.209439786415095" id="-50701">
		<tag k="fixme" v="consider place=hamlet" />
		<tag k="name" v="Bakken" />
		<tag k="place" v="farm" />
		<tag k="ssr:stedsnr" v="835076" />
	</node>
	<node lat="62.77229444470542" lon="11.181525008889116" id="-50705">
		<tag k="name" v="Rønningen" />
		<tag k="place" v="farm" />
		<tag k="ssr:stedsnr" v="835111" />
	</node>
	<node lat="62.93279722236813" lon="11.314361110138986" id="-50717">
		<tag k="name" v="Ramloøyan" />
		<tag k="place" v="locality" />
		<tag k="ssr:stedsnr" v="835339" />
	</node>
	<node lat="62.80766666586235" lon="11.347847227820951" id="-50728">
		<tag k="name" v="Eriks-Engan" />
		<tag k="place" v="farm" />
		<tag k="ssr:stedsnr" v="835846" />
	</node>
	<node lat="62.772861110245" lon="11.43701666887977" id="-50729">
		<tag k="name" v="Sjursgardsvollen" />
		<tag k="place" v="isolated_dwelling" />
		<tag k="ssr:stedsnr" v="835847" />
	</node>
	<node lat="62.76945000398742" lon="11.356455561450524" id="-50730">
		<tag k="name" v="Bakkeli" />
		<tag k="place" v="farm" />
		<tag k="ssr:stedsnr" v="835849" />
	</node>
	<node lat="62.77959444827164" lon="11.434161112564684" id="-50731">
		<tag k="name" v="Bjørgårdssetra" />
		<tag k="place" v="isolated_dwelling" />
		<tag k="ssr:stedsnr" v="835852" />
	</node>
	<node lat="62.830416669146" lon="11.344563894928886" id="-50737">
		<tag k="name" v="Ekran" />
		<tag k="place" v="farm" />
		<tag k="ssr:stedsnr" v="835708" />
	</node>
	<node lat="62.94378333770094" lon="11.272652784048569" id="-50740">
		<tag k="name" v="Norderøyan" />
		<tag k="place" v="farm" />
		<tag k="ssr:stedsnr" v="835957" />
	</node>
	<node lat="62.92826110751453" lon="11.124377777995875" id="-50741">
		<tag k="name" v="Rønningen" />
		<tag k="place" v="farm" />
		<tag k="ssr:stedsnr" v="835963" />
	</node>
	<node lat="62.823677780979814" lon="11.33439722841984" id="-50742">
		<tag k="name" v="Bjørnli" />
		<tag k="place" v="farm" />
		<tag k="ssr:stedsnr" v="835999" />
	</node>
	<node lat="62.84519214081997" lon="11.285490995870813" id="-50748">
		<tag k="name" v="Kirkhus" />
		<tag k="place" v="hamlet" />
		<tag k="ssr:stedsnr" v="862169" />
	</node>
	<node lat="62.841568427082336" lon="11.304245843304555" id="-50749">
		<tag k="fixme" v="consider place=hamlet" />
		<tag k="name" v="Stentrøa" />
		<tag k="place" v="farm" />
		<tag k="ssr:stedsnr" v="862171" />
	</node>
	<node lat="62.84344615247061" lon="11.26245337927213" id="-50752">
		<tag k="fixme" v="consider place=hamlet" />
		<tag k="name" v="Testadhaugen" />
		<tag k="place" v="farm" />
		<tag k="ssr:stedsnr" v="862179" />
	</node>
	<node lat="63.03312500455102" lon="11.127205547583392" id="-50753">
		<tag k="historic" v="shieling" />
		<tag k="name" v="Gårdvollan" />
		<tag k="place" v="isolated_dwelling" />
		<tag k="ssr:stedsnr" v="862184" />
	</node>
	<node lat="62.742716379677866" lon="11.198854672671812" id="-50754">
		<tag k="fixme" v="consider place=hamlet" />
		<tag k="name" v="Grønåsen" />
		<tag k="place" v="farm" />
		<tag k="ssr:stedsnr" v="861036" />
	</node>
	<node lat="62.850497219153716" lon="11.204413896752513" id="-50756">
		<tag k="name" v="Nergård" />
		<tag k="place" v="farm" />
		<tag k="ssr:stedsnr" v="862092" />
	</node>
	<node lat="62.93274166981164" lon="11.305133329982795" id="-50760">
		<tag k="name" v="Ramlovollen" />
		<tag k="place" v="locality" />
		<tag k="ssr:stedsnr" v="862232" />
	</node>
	<node lat="62.75426110695711" lon="11.194211109617" id="-50761">
		<tag k="name" v="Nygård" />
		<tag k="place" v="farm" />
		<tag k="ssr:stedsnr" v="862242" />
	</node>
	<node lat="62.94338333315891" lon="10.988502772634657" id="-50762">
		<tag k="historic" v="shieling" />
		<tag k="name" v="Bergavollan" />
		<tag k="old_name" v="Gilsetstøvollen" />
		<tag k="place" v="isolated_dwelling" />
		<tag k="ssr:stedsnr" v="862426" />
	</node>
	<node lat="62.94173502977379" lon="11.081308288549842" id="-50763">
		<tag k="name" v="Gårdan" />
		<tag k="place" v="hamlet" />
		<tag k="ssr:stedsnr" v="862434" />
	</node>
	<node lat="62.9866777780942" lon="11.12092222206788" id="-50766">
		<tag k="historic" v="shieling" />
		<tag k="name" v="Gillsetlivollen" />
		<tag k="place" v="isolated_dwelling" />
		<tag k="ssr:stedsnr" v="862480" />
	</node>
	<node lat="62.768456687594984" lon="11.183606443061969" id="-50767">
		<tag k="name" v="Trøa" />
		<tag k="place" v="farm" />
		<tag k="ssr:stedsnr" v="862639" />
	</node>
	<node lat="62.836377781211844" lon="11.771249996953523" id="-50768">
		<tag k="historic" v="shieling" />
		<tag k="name" v="Engesvollen" />
		<tag k="place" v="isolated_dwelling" />
		<tag k="ssr:stedsnr" v="862821" />
	</node>
	<node lat="62.81975731849928" lon="11.333695588061701" id="-50772">
		<tag k="fixme" v="consider place=hamlet" />
		<tag k="name" v="Unsholtan" />
		<tag k="place" v="farm" />
		<tag k="ssr:stedsnr" v="862927" />
	</node>
	<node lat="62.782769442714724" lon="11.359199994465481" id="-50774">
		<tag k="name" v="Slettrøstet" />
		<tag k="place" v="farm" />
		<tag k="ssr:stedsnr" v="862953" />
	</node>
	<node lat="62.94137205771527" lon="11.064698545899267" id="-50775">
		<tag k="alt_name" v="Flatbergsengan" />
		<tag k="fixme" v="consider place=hamlet" />
		<tag k="name" v="Engan" />
		<tag k="place" v="farm" />
		<tag k="ssr:stedsnr" v="869461" />
	</node>
	<node lat="63.0305583376691" lon="11.04540000899357" id="-50777">
		<tag k="historic" v="shieling" />
		<tag k="name" v="Flatbergstorlia" />
		<tag k="place" v="isolated_dwelling" />
		<tag k="ssr:stedsnr" v="870374" />
	</node>
	<node lat="62.84185277992725" lon="11.301300002893246" id="-50781">
		<tag k="fixme" v="consider place=hamlet" />
		<tag k="name" v="Ålen" />
		<tag k="place" v="village" />
		<tag k="ssr:stedsnr" v="880284" />
	</node>
	<node lat="62.84828999942997" lon="11.192267669113486" id="-50788">
		<tag k="fixme" v="consider place=hamlet" />
		<tag k="name" v="Håmmårvollen" />
		<tag k="place" v="farm" />
		<tag k="ssr:stedsnr" v="956098" />
	</node>
	<node lat="62.94344166247132" lon="10.989041674046373" id="-50790">
		<tag k="historic" v="shieling" />
		<tag k="name" v="Bakåssetra" />
		<tag k="place" v="isolated_dwelling" />
		<tag k="ssr:stedsnr" v="956045" />
	</node>
	<node lat="62.85121666429945" lon="11.273080564804575" id="-50791">
		<tag k="name" v="Larsstu" />
		<tag k="place" v="isolated_dwelling" />
		<tag k="ssr:stedsnr" v="956054" />
	</node>
	<node lat="62.90539999981631" lon="11.19104443660033" id="-50792">
		<tag k="name" v="Ramberg" />
		<tag k="place" v="farm" />
		<tag k="ssr:stedsnr" v="956070" />
	</node>
	<node lat="62.90225555275168" lon="11.21829443882524" id="-50793">
		<tag k="historic" v="shieling" />
		<tag k="name" v="Aletvollen" />
		<tag k="place" v="isolated_dwelling" />
		<tag k="ssr:stedsnr" v="956075" />
	</node>
	<node lat="62.937900000730096" lon="11.219369445519542" id="-50794">
		<tag k="historic" v="shieling" />
		<tag k="name" v="Oppstuvollen" />
		<tag k="place" v="isolated_dwelling" />
		<tag k="ssr:stedsnr" v="956076" />
	</node>
	<node lat="62.85450277690633" lon="11.232080548933835" id="-50823">
		<tag k="name" v="Minde" />
		<tag k="place" v="farm" />
		<tag k="ssr:stedsnr" v="957000" />
	</node>
	<node lat="62.83120277529396" lon="11.66489444678088" id="-50826">
		<tag k="historic" v="shieling" />
		<tag k="name" v="Stømnvollan" />
		<tag k="place" v="isolated_dwelling" />
		<tag k="ssr:stedsnr" v="956775" />
	</node>
	<node lat="62.81648055760929" lon="11.468688896426617" id="-50827">
		<tag k="historic" v="shieling" />
		<tag k="name" v="Hollvollen" />
		<tag k="place" v="isolated_dwelling" />
		<tag k="ssr:stedsnr" v="956862" />
	</node>
	<node lat="62.81672499661817" lon="11.45649722608912" id="-50828">
		<tag k="historic" v="shieling" />
		<tag k="name" v="Gammelvollen" />
		<tag k="place" v="isolated_dwelling" />
		<tag k="ssr:stedsnr" v="956866" />
	</node>
	<node lat="62.843700001118826" lon="11.292941666228794" id="-50829">
		<tag k="name" v="Oppigard" />
		<tag k="place" v="farm" />
		<tag k="ssr:stedsnr" v="956939" />
	</node>
	<node lat="62.845341662403825" lon="11.305277786429082" id="-50830">
		<tag k="name" v="Jensåsen" />
		<tag k="place" v="farm" />
		<tag k="ssr:stedsnr" v="956942" />
	</node>
	<node lat="62.830508329620955" lon="11.340188894166742" id="-50831">
		<tag k="alt_name" v="Nordre Haugen" />
		<tag k="name" v="Nørdre Haugen" />
		<tag k="place" v="farm" />
		<tag k="ssr:stedsnr" v="956956" />
	</node>
	<node lat="62.83801111123453" lon="11.286080561127617" id="-50832">
		<tag k="alt_name" v="Egga, nordre" />
		<tag k="name" v="Nørdre Egga" />
		<tag k="place" v="farm" />
		<tag k="ssr:stedsnr" v="956959" />
	</node>
	<node lat="62.8393563913357" lon="11.307618738399217" id="-50833">
		<tag k="alt_name" v="Lunderenget søndre" />
		<tag k="name" v="Syndre Lunderenget" />
		<tag k="place" v="farm" />
		<tag k="ssr:stedsnr" v="956966" />
	</node>
	<node lat="62.92648483829087" lon="11.143829792784471" id="-50834">
		<tag k="fixme" v="consider place=hamlet" />
		<tag k="name" v="Prestgården" />
		<tag k="place" v="farm" />
		<tag k="ssr:stedsnr" v="956974" />
	</node>
	<node lat="62.911950002690325" lon="11.182511111344803" id="-50835">
		<tag k="name" v="Brennan" />
		<tag k="place" v="farm" />
		<tag k="ssr:stedsnr" v="956978" />
	</node>
	<node lat="62.796452782105156" lon="11.357388887078253" id="-50836">
		<tag k="name" v="Nytrøa" />
		<tag k="place" v="farm" />
		<tag k="ssr:stedsnr" v="957857" />
	</node>
	<node lat="62.88891111342511" lon="11.25121665707295" id="-50837">
		<tag k="historic" v="shieling" />
		<tag k="name" v="Eggavollen" />
		<tag k="place" v="isolated_dwelling" />
		<tag k="ssr:stedsnr" v="957931" />
	</node>
	<node lat="62.83739166682003" lon="11.307658326569337" id="-50838">
		<tag k="name" v="Lunderengshaugan" />
		<tag k="place" v="quarter" />
		<tag k="ssr:stedsnr" v="967651" />
	</node>
	<node lat="62.839516666835344" lon="11.316508337011436" id="-50839">
		<tag k="name" v="Svarthåggån" />
		<tag k="place" v="quarter" />
		<tag k="ssr:stedsnr" v="967653" />
	</node>
	<node lat="62.917980554907174" lon="11.165611104221426" id="-50840">
		<tag k="leisure" v="pitch" />
		<tag k="name" v="Haltdalen stadion" />
		<tag k="ssr:stedsnr" v="968723" />
	</node>
	<node lat="62.842900131685624" lon="11.309083213928" id="-50842">
		<tag k="fixme" v="consider place=hamlet" />
		<tag k="name" v="Litlgjerdet" />
		<tag k="place" v="farm" />
		<tag k="ssr:stedsnr" v="975248" />
	</node>
	<node lat="62.825769605632594" lon="11.348140486967823" id="-50843">
		<tag k="name" v="Graftåsen" />
		<tag k="place" v="hamlet" />
		<tag k="ssr:stedsnr" v="975249" />
	</node>
	<node lat="62.763561138780865" lon="11.356256733903754" id="-50844">
		<tag k="historic" v="shieling" />
		<tag k="name" v="Vondgrovsvollen" />
		<tag k="place" v="isolated_dwelling" />
		<tag k="ssr:stedsnr" v="975294" />
	</node>
	<node lat="62.96019818274004" lon="10.981132001733508" id="-50845">
		<tag k="fixme" v="consider place=hamlet" />
		<tag k="name" v="Langletet" />
		<tag k="place" v="farm" />
		<tag k="ssr:stedsnr" v="975356" />
	</node>
	<node lat="62.85525954169084" lon="11.231657540365932" id="-50848">
		<tag k="name" v="Stensli" />
		<tag k="place" v="hamlet" />
		<tag k="ssr:stedsnr" v="1076139" />
	</node>
	<node lat="62.918652440529385" lon="11.139824592525652" id="-50850">
		<tag k="landuse" v="military" />
		<tag k="name" v="Haltdalen Kurs- og øvingssenter" />
		<tag k="ssr:stedsnr" v="1077053" />
	</node>
	<node lat="62.837044445619526" lon="11.300529244623862" id="-50851">
		<tag k="leisure" v="pitch" />
		<tag k="name" v="Ålen skisenter" />
		<tag k="ssr:stedsnr" v="1077060" />
	</node>
	<node lat="62.85159007916254" lon="11.221051950259422" id="-50852">
		<tag k="name" v="Øvre Eidebakken" />
		<tag k="place" v="farm" />
		<tag k="ssr:stedsnr" v="1079147" />
	</node>
	<node lat="62.852791053880445" lon="11.21859085519123" id="-50853">
		<tag k="name" v="Eidet skole" />
		<tag k="old_name" v="SKOLEBAKKEN" />
		<tag k="place" v="farm" />
		<tag k="ssr:stedsnr" v="1080640" />
	</node>
</osm>
