<?xml version="1.0" encoding="UTF-8"?>
<osm version="0.6" generator="osmapis">
	<node lat="62.888255555138024" lon="11.465213886679525" id="-40030">
		<tag k="name" v="Holdsjøen" />
		<tag k="natural" v="water" />
		<tag k="ssr:stedsnr" v="12182" />
		<tag k="water" v="lake" />
	</node>
	<node lat="62.95008888473148" lon="10.983177777062208" id="-40031">
		<tag k="name" v="Banebekken" />
		<tag k="ssr:stedsnr" v="12419" />
		<tag k="waterway" v="stream" />
	</node>
	<node lat="62.864811106882" lon="11.739761119051284" id="-40035">
		<tag k="name" v="Ausa" />
		<tag k="natural" v="cape" />
		<tag k="ssr:stedsnr" v="20805" />
	</node>
	<node lat="62.92710833193818" lon="11.131058328613912" id="-40041">
		<tag k="name" v="Prestøya" />
		<tag k="place" v="island" />
		<tag k="ssr:stedsnr" v="45279" />
	</node>
	<node lat="62.94828333274839" lon="10.975313895840898" id="-40043">
		<tag k="name" v="Josveråa" />
		<tag k="ssr:stedsnr" v="45617" />
		<tag k="waterway" v="stream" />
	</node>
	<node lat="62.857236113457" lon="11.360450003696213" id="-40044">
		<tag k="name" v="Litlrena" />
		<tag k="ssr:stedsnr" v="45676" />
		<tag k="waterway" v="stream" />
	</node>
	<node lat="62.803300003691426" lon="11.370769453445408" id="-40047">
		<tag k="name" v="Vedbekken" />
		<tag k="ssr:stedsnr" v="46129" />
		<tag k="waterway" v="stream" />
	</node>
	<node lat="62.83209444373255" lon="11.680149993697606" id="-40052">
		<tag k="name" v="Stømnhølen" />
		<tag k="place" v="locality" />
		<tag k="ssr:stedsnr" v="46045" />
	</node>
	<node lat="62.95038888802615" lon="11.195408331787247" id="-40058">
		<tag k="name" v="Merkesbekken" />
		<tag k="ssr:stedsnr" v="46495" />
		<tag k="waterway" v="stream" />
	</node>
	<node lat="62.75151389297951" lon="11.132222218753299" id="-40062">
		<tag k="name" v="Storbekken" />
		<tag k="ssr:stedsnr" v="46676" />
		<tag k="waterway" v="stream" />
	</node>
	<node lat="62.8410944448872" lon="11.007241663540507" id="-40072">
		<tag k="name" v="Hølbekken" />
		<tag k="ssr:stedsnr" v="73106" />
		<tag k="waterway" v="stream" />
	</node>
	<node lat="62.762233330540646" lon="11.364236106424089" id="-40082">
		<tag k="name" v="Taraldstjønna" />
		<tag k="natural" v="water" />
		<tag k="ssr:stedsnr" v="73971" />
	</node>
	<node lat="62.97025833733866" lon="11.096613885793344" id="-40092">
		<tag k="name" v="Lonken" />
		<tag k="natural" v="water" />
		<tag k="ssr:stedsnr" v="106297" />
		<tag k="water" v="lake" />
	</node>
	<node lat="62.9597805527461" lon="11.231858341720773" id="-40098">
		<tag k="name" v="Sagbekken" />
		<tag k="ssr:stedsnr" v="107125" />
		<tag k="waterway" v="stream" />
	</node>
	<node lat="62.860052780781984" lon="11.404527779239361" id="-40105">
		<tag k="name" v="Holbekken" />
		<tag k="ssr:stedsnr" v="107213" />
		<tag k="waterway" v="stream" />
	</node>
	<node lat="62.73016944713806" lon="11.174244439039827" id="-40115">
		<tag k="name" v="Blisterbekken" />
		<tag k="ssr:stedsnr" v="132015" />
		<tag k="waterway" v="stream" />
	</node>
	<node lat="62.72546944138059" lon="10.951313885904767" id="-40117">
		<tag k="name" v="Storrålån" />
		<tag k="place" v="locality" />
		<tag k="ssr:stedsnr" v="132019" />
	</node>
	<node lat="63.02414444074756" lon="11.115900001414708" id="-40121">
		<tag k="name" v="Svarttjønna" />
		<tag k="natural" v="water" />
		<tag k="ssr:stedsnr" v="133157" />
	</node>
	<node lat="62.921777779237594" lon="11.189149994706272" id="-40123">
		<tag k="name" v="Remna" />
		<tag k="ssr:stedsnr" v="133356" />
		<tag k="waterway" v="stream" />
	</node>
	<node lat="62.74483055428888" lon="11.065424993334359" id="-40131">
		<tag k="name" v="Garnholmen" />
		<tag k="place" v="islet" />
		<tag k="ssr:stedsnr" v="254037" />
	</node>
	<node lat="62.73080000269331" lon="11.035655561341837" id="-40132">
		<tag k="alt_name" v="Garbekken" />
		<tag k="name" v="Gardbekken" />
		<tag k="ssr:stedsnr" v="254020" />
		<tag k="waterway" v="stream" />
	</node>
	<node lat="62.69712499727953" lon="10.901127774661434" id="-40137">
		<tag k="name" v="Butjønna" />
		<tag k="natural" v="water" />
		<tag k="ssr:stedsnr" v="254210" />
	</node>
	<node lat="62.903352781648046" lon="11.069158325105285" id="-40143">
		<tag k="name" v="Fjerdingsbekken" />
		<tag k="ssr:stedsnr" v="141396" />
		<tag k="waterway" v="stream" />
	</node>
	<node lat="62.74593055959102" lon="11.234099994226499" id="-40146">
		<tag k="name" v="Djuptjørna" />
		<tag k="natural" v="water" />
		<tag k="ssr:stedsnr" v="142838" />
	</node>
	<node lat="62.86411944752557" lon="11.107752770061472" id="-40150">
		<tag k="name" v="Litjøgga" />
		<tag k="ssr:stedsnr" v="255137" />
		<tag k="waterway" v="stream" />
	</node>
	<node lat="62.95884444505957" lon="11.347955557837365" id="-40152">
		<tag k="name" v="Grobekken" />
		<tag k="ssr:stedsnr" v="255199" />
		<tag k="waterway" v="stream" />
	</node>
	<node lat="62.795638893128434" lon="11.524650001819799" id="-40158">
		<tag k="name" v="Skarvtjønna" />
		<tag k="natural" v="water" />
		<tag k="ssr:stedsnr" v="255941" />
	</node>
	<node lat="62.766999996115025" lon="11.232252767996718" id="-40159">
		<tag k="name" v="Rognsåsjøen" />
		<tag k="natural" v="water" />
		<tag k="ssr:stedsnr" v="255952" />
		<tag k="water" v="lake" />
	</node>
	<node lat="62.816066669026284" lon="11.498899997808879" id="-40166">
		<tag k="name" v="Hovsbekken" />
		<tag k="ssr:stedsnr" v="167213" />
		<tag k="waterway" v="stream" />
	</node>
	<node lat="62.865277779787405" lon="11.229691657805631" id="-40167">
		<tag k="name" v="Søndre Djupbekken" />
		<tag k="ssr:stedsnr" v="167265" />
		<tag k="waterway" v="stream" />
	</node>
	<node lat="62.8570361099628" lon="11.164486104508986" id="-40169">
		<tag k="name" v="Øgga" />
		<tag k="ssr:stedsnr" v="167414" />
		<tag k="waterway" v="river" />
	</node>
	<node lat="62.97506111397436" lon="11.09723889046328" id="-40172">
		<tag k="name" v="Lihølen" />
		<tag k="place" v="locality" />
		<tag k="ssr:stedsnr" v="167317" />
	</node>
	<node lat="62.94702222228652" lon="11.267947221112676" id="-40173">
		<tag k="name" v="Kvitla" />
		<tag k="ssr:stedsnr" v="167325" />
		<tag k="waterway" v="drain" />
	</node>
	<node lat="62.858997226475644" lon="11.214813893883342" id="-40176">
		<tag k="name" v="Hyttfossen" />
		<tag k="natural" v="waterfall" />
		<tag k="ssr:stedsnr" v="167378" />
	</node>
	<node lat="62.95169444700163" lon="11.204680554157836" id="-40177">
		<tag k="name" v="Kjellingøyan" />
		<tag k="old_name" v="Kjellingøi'ann" />
		<tag k="place" v="island" />
		<tag k="ssr:stedsnr" v="167502" />
	</node>
	<node lat="62.74643333666149" lon="11.336941669955667" id="-40186">
		<tag k="name" v="Spellbekken" />
		<tag k="ssr:stedsnr" v="167709" />
		<tag k="waterway" v="stream" />
	</node>
	<node lat="62.75991388903587" lon="11.053316662811332" id="-40187">
		<tag k="name" v="Kvamodden" />
		<tag k="natural" v="cape" />
		<tag k="ssr:stedsnr" v="167723" />
	</node>
	<node lat="62.74533610789414" lon="11.041219447898552" id="-40188">
		<tag k="name" v="Bornesset" />
		<tag k="natural" v="cape" />
		<tag k="ssr:stedsnr" v="167756" />
	</node>
	<node lat="62.75260555516172" lon="11.039713879339581" id="-40189">
		<tag k="name" v="Hansaran" />
		<tag k="place" v="islet" />
		<tag k="ssr:stedsnr" v="167761" />
	</node>
	<node lat="63.03039166930779" lon="11.093150007284343" id="-40201">
		<tag k="name" v="Svartsjøen" />
		<tag k="natural" v="water" />
		<tag k="ssr:stedsnr" v="263376" />
		<tag k="water" v="lake" />
	</node>
	<node lat="63.023969444998635" lon="11.161874995307304" id="-40202">
		<tag k="name" v="Garddalstjønna" />
		<tag k="natural" v="water" />
		<tag k="ssr:stedsnr" v="263378" />
	</node>
	<node lat="63.02963055514649" lon="11.021925007029084" id="-40203">
		<tag k="name" v="Midtikusma" />
		<tag k="natural" v="water" />
		<tag k="ssr:stedsnr" v="263382" />
	</node>
	<node lat="62.73291388805048" lon="11.240663889530436" id="-40204">
		<tag k="name" v="Langtjønna" />
		<tag k="natural" v="water" />
		<tag k="ssr:stedsnr" v="263833" />
	</node>
	<node lat="62.77007499759746" lon="11.02935554686451" id="-40209">
		<tag k="name" v="Raudåvika" />
		<tag k="natural" v="bay" />
		<tag k="ssr:stedsnr" v="202350" />
	</node>
	<node lat="63.034647225652314" lon="11.047980546233275" id="-40211">
		<tag k="name" v="Storbekken" />
		<tag k="ssr:stedsnr" v="203355" />
		<tag k="waterway" v="stream" />
	</node>
	<node lat="62.96304722460595" lon="11.280811104315237" id="-40212">
		<tag k="name" v="Syndre Tverråa" />
		<tag k="ssr:stedsnr" v="203694" />
		<tag k="waterway" v="river" />
	</node>
	<node lat="62.77554167090278" lon="11.44276112006028" id="-40216">
		<tag k="name" v="Litlbekken" />
		<tag k="ssr:stedsnr" v="228136" />
		<tag k="waterway" v="stream" />
	</node>
	<node lat="62.859983334278475" lon="11.383686112623726" id="-40225">
		<tag k="name" v="Finlandstjønna" />
		<tag k="natural" v="water" />
		<tag k="ssr:stedsnr" v="228235" />
	</node>
	<node lat="62.718541664456176" lon="11.167788880216655" id="-40234">
		<tag k="name" v="Litjhovsbekken" />
		<tag k="ssr:stedsnr" v="228705" />
		<tag k="waterway" v="stream" />
	</node>
	<node lat="62.785233333108415" lon="11.082930547937098" id="-40237">
		<tag k="name" v="Langen" />
		<tag k="natural" v="water" />
		<tag k="ssr:stedsnr" v="228735" />
		<tag k="water" v="lake" />
	</node>
	<node lat="62.74789999975057" lon="11.057252779435037" id="-40238">
		<tag k="name" v="Tvellingholman" />
		<tag k="place" v="islet" />
		<tag k="ssr:stedsnr" v="228784" />
	</node>
	<node lat="62.710152779404154" lon="11.094197218271976" id="-40248">
		<tag k="name" v="Bukktjønna" />
		<tag k="natural" v="water" />
		<tag k="ssr:stedsnr" v="254013" />
	</node>
	<node lat="62.731349996831405" lon="11.058375002635742" id="-40250">
		<tag k="name" v="Velåsbekken" />
		<tag k="ssr:stedsnr" v="254025" />
		<tag k="waterway" v="stream" />
	</node>
	<node lat="62.96066666383557" lon="11.127327784996286" id="-40252">
		<tag k="alt_name" v="Hegsetbekken" />
		<tag k="name" v="Heggsetbekken" />
		<tag k="ssr:stedsnr" v="254426" />
		<tag k="waterway" v="stream" />
	</node>
	<node lat="62.778266665721624" lon="11.45968610726913" id="-40253">
		<tag k="name" v="Litjbekken" />
		<tag k="ssr:stedsnr" v="254932" />
		<tag k="waterway" v="stream" />
	</node>
	<node lat="62.92128889248051" lon="11.390963896417482" id="-40258">
		<tag k="name" v="Utrenna" />
		<tag k="ssr:stedsnr" v="255169" />
		<tag k="waterway" v="river" />
	</node>
	<node lat="62.92230278197426" lon="11.371761103550641" id="-40260">
		<tag k="name" v="Andåa" />
		<tag k="ssr:stedsnr" v="255178" />
		<tag k="waterway" v="stream" />
	</node>
	<node lat="62.8122472250553" lon="11.143605559039953" id="-40263">
		<tag k="name" v="Tverrfinnsåa" />
		<tag k="ssr:stedsnr" v="262050" />
		<tag k="waterway" v="stream" />
	</node>
	<node lat="62.74518889051697" lon="11.00433889335305" id="-40272">
		<tag k="name" v="Knutsbekken" />
		<tag k="ssr:stedsnr" v="288726" />
		<tag k="waterway" v="stream" />
	</node>
	<node lat="62.7898111094751" lon="11.095897225890711" id="-40283">
		<tag k="name" v="Svartloken" />
		<tag k="natural" v="water" />
		<tag k="ssr:stedsnr" v="289409" />
		<tag k="water" v="pond" />
	</node>
	<node lat="62.89039999609139" lon="11.182802768139966" id="-40291">
		<tag k="name" v="Eggafossen" />
		<tag k="natural" v="waterfall" />
		<tag k="ssr:stedsnr" v="289509" />
	</node>
	<node lat="62.94615832904046" lon="11.01527778046555" id="-40293">
		<tag k="name" v="Lokbekken" />
		<tag k="place" v="locality" />
		<tag k="ssr:stedsnr" v="289583" />
	</node>
	<node lat="62.9573638850694" lon="10.990441658323231" id="-40294">
		<tag k="name" v="Stasjonshølen" />
		<tag k="place" v="locality" />
		<tag k="ssr:stedsnr" v="289588" />
	</node>
	<node lat="62.95398055297558" lon="11.029344448943469" id="-40296">
		<tag k="name" v="Smedøya" />
		<tag k="place" v="island" />
		<tag k="ssr:stedsnr" v="289785" />
	</node>
	<node lat="62.757897223089124" lon="11.08171389126329" id="-40297">
		<tag k="name" v="Sandbekken" />
		<tag k="ssr:stedsnr" v="289789" />
		<tag k="waterway" v="stream" />
	</node>
	<node lat="62.76019722142476" lon="11.06224721297712" id="-40298">
		<tag k="name" v="Langsåvika" />
		<tag k="natural" v="bay" />
		<tag k="ssr:stedsnr" v="289790" />
	</node>
	<node lat="62.720322220380524" lon="11.208677784005225" id="-40306">
		<tag k="name" v="Litjhovsbekktjønna" />
		<tag k="natural" v="water" />
		<tag k="ssr:stedsnr" v="315006" />
	</node>
	<node lat="62.7889416660275" lon="11.13935555589826" id="-40308">
		<tag k="name" v="Finnsåa" />
		<tag k="ssr:stedsnr" v="315014" />
		<tag k="waterway" v="river" />
	</node>
	<node lat="62.71036388956695" lon="11.100547217518306" id="-40309">
		<tag k="name" v="Bergtjønna" />
		<tag k="natural" v="water" />
		<tag k="ssr:stedsnr" v="315017" />
	</node>
	<node lat="62.72033889129191" lon="11.116086106333738" id="-40311">
		<tag k="name" v="Brattbekktjønna" />
		<tag k="natural" v="water" />
		<tag k="ssr:stedsnr" v="315025" />
	</node>
	<node lat="62.76022500004416" lon="11.091277778094337" id="-40316">
		<tag k="name" v="Naustertjønna" />
		<tag k="natural" v="water" />
		<tag k="ssr:stedsnr" v="315211" />
	</node>
	<node lat="62.685802775199754" lon="11.173019435127632" id="-40317">
		<tag k="name" v="Rybekken" />
		<tag k="ssr:stedsnr" v="315216" />
		<tag k="waterway" v="stream" />
	</node>
	<node lat="62.89107777556305" lon="11.152922214280666" id="-40331">
		<tag k="name" v="Tjønnfloen" />
		<tag k="natural" v="water" />
		<tag k="ssr:stedsnr" v="470632" />
	</node>
	<node lat="62.74989999688942" lon="11.057119445439403" id="-40332">
		<tag k="name" v="Brattholmen" />
		<tag k="place" v="islet" />
		<tag k="ssr:stedsnr" v="470747" />
	</node>
	<node lat="62.76580278063736" lon="11.448630552152894" id="-40338">
		<tag k="name" v="Skarvbekken" />
		<tag k="ssr:stedsnr" v="471133" />
		<tag k="waterway" v="stream" />
	</node>
	<node lat="62.82727222375557" lon="11.64200832994926" id="-40341">
		<tag k="name" v="Kjølibekken" />
		<tag k="ssr:stedsnr" v="471192" />
		<tag k="waterway" v="stream" />
	</node>
	<node lat="62.85297777492338" lon="11.37724443594905" id="-40343">
		<tag k="name" v="Storrena" />
		<tag k="ssr:stedsnr" v="471225" />
		<tag k="waterway" v="river" />
	</node>
	<node lat="62.94550277678994" lon="11.28954721636164" id="-40346">
		<tag k="name" v="Fageråsbekken" />
		<tag k="ssr:stedsnr" v="471323" />
		<tag k="waterway" v="stream" />
	</node>
	<node lat="62.93541667009762" lon="11.278461117484717" id="-40349">
		<tag k="name" v="Kjærsåsbekken" />
		<tag k="ssr:stedsnr" v="471355" />
		<tag k="waterway" v="stream" />
	</node>
	<node lat="62.96310277450856" lon="11.022305546126198" id="-40351">
		<tag k="name" v="Brennbekken" />
		<tag k="ssr:stedsnr" v="471597" />
		<tag k="waterway" v="stream" />
	</node>
	<node lat="62.724163887141714" lon="11.163180546739277" id="-40353">
		<tag k="name" v="Jakopmonsenvika" />
		<tag k="natural" v="bay" />
		<tag k="ssr:stedsnr" v="471628" />
	</node>
	<node lat="62.720619446019306" lon="11.157088883015177" id="-40354">
		<tag k="name" v="Storøra" />
		<tag k="natural" v="shoal" />
		<tag k="place" v="locality" />
		<tag k="ssr:stedsnr" v="471633" />
	</node>
	<node lat="62.92894721811294" lon="11.265227774027853" id="-40370">
		<tag k="name" v="Lerbekken" />
		<tag k="ssr:stedsnr" v="349206" />
		<tag k="waterway" v="stream" />
	</node>
	<node lat="62.849844446287385" lon="11.356283338296961" id="-40372">
		<tag k="name" v="Storrena" />
		<tag k="ssr:stedsnr" v="349266" />
		<tag k="waterway" v="river" />
	</node>
	<node lat="62.85423055659704" lon="11.344636119268861" id="-40375">
		<tag k="name" v="Litlrena" />
		<tag k="ssr:stedsnr" v="349309" />
		<tag k="waterway" v="stream" />
	</node>
	<node lat="62.95259166433549" lon="11.21163054573868" id="-40380">
		<tag k="name" v="Kjøvfossan" />
		<tag k="natural" v="waterfall" />
		<tag k="old_name" v="Kjøvfoss'ann" />
		<tag k="ssr:stedsnr" v="349521" />
	</node>
	<node lat="62.95613888488274" lon="11.003472218060038" id="-40382">
		<tag k="name" v="Stortjønnbekken" />
		<tag k="ssr:stedsnr" v="349606" />
		<tag k="waterway" v="stream" />
	</node>
	<node lat="62.780163886553964" lon="11.216005549910914" id="-40383">
		<tag k="name" v="Storbekken" />
		<tag k="ssr:stedsnr" v="349658" />
		<tag k="waterway" v="stream" />
	</node>
	<node lat="62.740491670717454" lon="11.1338083246393" id="-40384">
		<tag k="name" v="Litjhesja" />
		<tag k="ssr:stedsnr" v="349661" />
		<tag k="waterway" v="river" />
	</node>
	<node lat="62.73751110891042" lon="10.999766663699356" id="-40385">
		<tag k="name" v="Elgtjønnbekken" />
		<tag k="ssr:stedsnr" v="349715" />
		<tag k="waterway" v="stream" />
	</node>
	<node lat="62.74252777689661" lon="11.074641674118796" id="-40389">
		<tag k="name" v="Skåkåsstenen" />
		<tag k="place" v="islet" />
		<tag k="ssr:stedsnr" v="349773" />
	</node>
	<node lat="62.74675833617979" lon="11.039238886091873" id="-40390">
		<tag k="name" v="Bornesslandet" />
		<tag k="natural" v="beach" />
		<tag k="ssr:stedsnr" v="349777" />
	</node>
	<node lat="62.71027221861012" lon="10.940925008526277" id="-40394">
		<tag k="name" v="Storrålåtjønnan" />
		<tag k="natural" v="water" />
		<tag k="ssr:stedsnr" v="375003" />
	</node>
	<node lat="62.87445555626896" lon="11.378291661599919" id="-40400">
		<tag k="name" v="Limstentjønna" />
		<tag k="natural" v="water" />
		<tag k="ssr:stedsnr" v="376132" />
	</node>
	<node lat="62.89662778087834" lon="11.247719439742722" id="-40402">
		<tag k="name" v="Tverrdrøya, s" />
		<tag k="ssr:stedsnr" v="376178" />
		<tag k="waterway" v="stream" />
	</node>
	<node lat="62.93722777545445" lon="11.262361114887593" id="-40406">
		<tag k="name" v="Lerbekken" />
		<tag k="ssr:stedsnr" v="376214" />
		<tag k="waterway" v="stream" />
	</node>
	<node lat="62.99138055409914" lon="11.090152778754954" id="-40409">
		<tag k="name" v="Langsbekken" />
		<tag k="ssr:stedsnr" v="376507" />
		<tag k="waterway" v="stream" />
	</node>
	<node lat="62.975825002845404" lon="11.096399993965079" id="-40417">
		<tag k="name" v="Olderøia" />
		<tag k="natural" v="cape" />
		<tag k="ssr:stedsnr" v="410312" />
	</node>
	<node lat="62.74371388784641" lon="11.031655555970884" id="-40426">
		<tag k="name" v="Stensvika" />
		<tag k="place" v="locality" />
		<tag k="ssr:stedsnr" v="410754" />
	</node>
	<node lat="62.772122225621665" lon="11.179544436994323" id="-40429">
		<tag k="loc_name" v="Kjekvollbekken" />
		<tag k="name" v="Kjerkvollbekken" />
		<tag k="ssr:stedsnr" v="410612" />
		<tag k="waterway" v="stream" />
	</node>
	<node lat="62.71097777852092" lon="10.964944442833659" id="-40442">
		<tag k="name" v="Storrbekken" />
		<tag k="ssr:stedsnr" v="436004" />
		<tag k="waterway" v="stream" />
	</node>
	<node lat="62.72619999923398" lon="11.130575003719676" id="-40444">
		<tag k="name" v="Brattbekken" />
		<tag k="ssr:stedsnr" v="436023" />
		<tag k="waterway" v="stream" />
	</node>
	<node lat="62.71555555815209" lon="11.241144451430648" id="-40447">
		<tag k="name" v="Grøtåtjønna" />
		<tag k="natural" v="water" />
		<tag k="ssr:stedsnr" v="436802" />
	</node>
	<node lat="62.840597221196134" lon="11.142974999509084" id="-40450">
		<tag k="name" v="Brattbekken" />
		<tag k="ssr:stedsnr" v="437115" />
		<tag k="waterway" v="stream" />
	</node>
	<node lat="62.86671666658366" lon="10.992452778070888" id="-40451">
		<tag k="name" v="Syndre Storbekken" />
		<tag k="ssr:stedsnr" v="437155" />
		<tag k="waterway" v="stream" />
	</node>
	<node lat="62.85648055192028" lon="11.264224997080484" id="-40453">
		<tag k="name" v="Gryta" />
		<tag k="ssr:stedsnr" v="437160" />
		<tag k="waterway" v="stream" />
	</node>
	<node lat="62.849249995435734" lon="11.35400278705633" id="-40454">
		<tag k="name" v="Storrena" />
		<tag k="ssr:stedsnr" v="437162" />
		<tag k="waterway" v="river" />
	</node>
	<node lat="62.86903610681496" lon="11.523758325482582" id="-40455">
		<tag k="name" v="Meintjønna" />
		<tag k="natural" v="water" />
		<tag k="ssr:stedsnr" v="437165" />
	</node>
	<node lat="62.966705555467996" lon="11.236230551486495" id="-40458">
		<tag k="name" v="Litjtverråa" />
		<tag k="ssr:stedsnr" v="437257" />
		<tag k="waterway" v="stream" />
	</node>
	<node lat="62.83763611061509" lon="11.586205557178578" id="-40466">
		<tag k="name" v="Jensåsbekken" />
		<tag k="ssr:stedsnr" v="437860" />
		<tag k="waterway" v="stream" />
	</node>
	<node lat="62.79872777995932" lon="11.609216668817098" id="-40471">
		<tag k="name" v="Nersjøen" />
		<tag k="natural" v="water" />
		<tag k="ssr:stedsnr" v="437912" />
		<tag k="water" v="lake" />
	</node>
	<node lat="62.800055554736765" lon="11.346811104967578" id="-40472">
		<tag k="name" v="Rugla" />
		<tag k="ssr:stedsnr" v="437918" />
		<tag k="waterway" v="river" />
	</node>
	<node lat="62.861424997613724" lon="11.122263891250546" id="-40483">
		<tag k="name" v="Øgga" />
		<tag k="ssr:stedsnr" v="470676" />
		<tag k="waterway" v="river" />
	</node>
	<node lat="62.94615832904046" lon="11.01527778046555" id="-40485">
		<tag k="name" v="Lokbekken" />
		<tag k="place" v="locality" />
		<tag k="ssr:stedsnr" v="470682" />
	</node>
	<node lat="62.8251779633148" lon="11.203018225476105" id="-40486">
		<tag k="name" v="Tømmerbakktjønna" />
		<tag k="natural" v="water" />
		<tag k="ssr:stedsnr" v="470710" />
	</node>
	<node lat="62.957608336199385" lon="11.227449996007648" id="-40491">
		<tag k="name" v="Bruhølen" />
		<tag k="place" v="locality" />
		<tag k="ssr:stedsnr" v="471160" />
	</node>
	<node lat="62.95793610975321" lon="11.255694447807835" id="-40493">
		<tag k="name" v="Bjørnslåttbekken" />
		<tag k="ssr:stedsnr" v="471179" />
		<tag k="waterway" v="stream" />
	</node>
	<node lat="62.818849998285124" lon="11.195608332860065" id="-40495">
		<tag k="name" v="Kvernbekken" />
		<tag k="ssr:stedsnr" v="471405" />
		<tag k="waterway" v="stream" />
	</node>
	<node lat="62.730424998118195" lon="11.075591674813106" id="-40509">
		<tag k="name" v="Høsbekken" />
		<tag k="ssr:stedsnr" v="678025" />
		<tag k="waterway" v="stream" />
	</node>
	<node lat="62.73538333653439" lon="10.893077781340454" id="-40510">
		<tag k="name" v="Meiåtjønnan" />
		<tag k="natural" v="water" />
		<tag k="ssr:stedsnr" v="678019" />
	</node>
	<node lat="62.73479722330083" lon="11.140902776297159" id="-40511">
		<tag k="name" v="Litjhesja" />
		<tag k="ssr:stedsnr" v="678020" />
		<tag k="waterway" v="stream" />
	</node>
	<node lat="62.72641793852572" lon="11.164839151037107" id="-40512">
		<tag k="name" v="Lomtjønna" />
		<tag k="natural" v="water" />
		<tag k="ssr:stedsnr" v="678021" />
	</node>
	<node lat="62.71482777671091" lon="11.180472219638718" id="-40513">
		<tag k="name" v="Litjhovsbekken" />
		<tag k="ssr:stedsnr" v="679008" />
		<tag k="waterway" v="stream" />
	</node>
	<node lat="62.78325000381873" lon="11.19999444938272" id="-40514">
		<tag k="name" v="Rognsåa" />
		<tag k="ssr:stedsnr" v="679026" />
		<tag k="waterway" v="river" />
	</node>
	<node lat="62.780950001375594" lon="11.024097224413683" id="-40515">
		<tag k="name" v="Raudåa" />
		<tag k="ssr:stedsnr" v="679028" />
		<tag k="waterway" v="river" />
	</node>
	<node lat="62.70856944712778" lon="11.004969435354733" id="-40523">
		<tag k="name" v="Gardåa" />
		<tag k="ssr:stedsnr" v="679328" />
		<tag k="waterway" v="river" />
	</node>
	<node lat="62.73931389005569" lon="11.30394999417793" id="-40527">
		<tag k="name" v="Stordalsbekken" />
		<tag k="name:no" v="Stordalsbekken" />
		<tag k="ssr:stedsnr" v="679748" />
		<tag k="waterway" v="stream" />
	</node>
	<node lat="62.74380833017044" lon="11.35885832329906" id="-40528">
		<tag k="name" v="Hølvolltjønnan" />
		<tag k="natural" v="water" />
		<tag k="ssr:stedsnr" v="679754" />
	</node>
	<node lat="62.82916741154159" lon="11.80782285175845" id="-40529">
		<tag k="name" v="Svarttjønna" />
		<tag k="natural" v="water" />
		<tag k="ssr:stedsnr" v="679771" />
	</node>
	<node lat="62.84932221963478" lon="11.077374997990102" id="-40534">
		<tag k="name" v="Tverrøgga" />
		<tag k="ssr:stedsnr" v="680101" />
		<tag k="waterway" v="stream" />
	</node>
	<node lat="62.84665000000356" lon="11.482124998767565" id="-40535">
		<tag k="name" v="Børklepptjønna" />
		<tag k="natural" v="water" />
		<tag k="ssr:stedsnr" v="680163" />
	</node>
	<node lat="62.85506389094577" lon="11.285830563414251" id="-40536">
		<tag k="name" v="Olderåa" />
		<tag k="ssr:stedsnr" v="680145" />
		<tag k="waterway" v="stream" />
	</node>
	<node lat="62.90150555570033" lon="11.403172218212827" id="-40542">
		<tag k="name" v="Utrenntjønna" />
		<tag k="natural" v="water" />
		<tag k="ssr:stedsnr" v="680193" />
	</node>
	<node lat="62.94825000042929" lon="11.427219444433206" id="-40543">
		<tag k="alt_name" v="Skjellåa, Fremste" />
		<tag k="name" v="Fremste Skjellåa" />
		<tag k="ssr:stedsnr" v="680201" />
		<tag k="waterway" v="river" />
	</node>
	<node lat="62.93541667005922" lon="11.278458338658487" id="-40545">
		<tag k="name" v="Kjærsåa" />
		<tag k="ssr:stedsnr" v="680228" />
		<tag k="waterway" v="stream" />
	</node>
	<node lat="62.96319999722977" lon="11.268000001875716" id="-40547">
		<tag k="name" v="Nørdre Tverråa" />
		<tag k="ssr:stedsnr" v="680256" />
		<tag k="waterway" v="stream" />
	</node>
	<node lat="62.94456110832019" lon="11.106130548954134" id="-40550">
		<tag k="name" v="Raudbergsfossen" />
		<tag k="natural" v="waterfall" />
		<tag k="ssr:stedsnr" v="680477" />
	</node>
	<node lat="62.764649997944694" lon="11.085380564787505" id="-40567">
		<tag k="name" v="Storsandtjønna" />
		<tag k="natural" v="water" />
		<tag k="ssr:stedsnr" v="497218" />
	</node>
	<node lat="62.94695833055386" lon="11.337580557301628" id="-40570">
		<tag k="name" v="Trælsåa" />
		<tag k="ssr:stedsnr" v="497197" />
		<tag k="waterway" v="river" />
	</node>
	<node lat="63.03713333067811" lon="11.061994436128447" id="-40579">
		<tag k="name" v="Søla" />
		<tag k="ssr:stedsnr" v="506367" />
		<tag k="waterway" v="river" />
	</node>
	<node lat="62.86038392044357" lon="11.377486764578125" id="-40581">
		<tag k="name" v="Litjrentjønna" />
		<tag k="natural" v="water" />
		<tag k="ssr:stedsnr" v="506674" />
	</node>
	<node lat="63.0061444482343" lon="11.032144440522693" id="-40582">
		<tag k="name" v="Vassflobekken" />
		<tag k="ssr:stedsnr" v="507179" />
		<tag k="waterway" v="stream" />
	</node>
	<node lat="62.951301607576596" lon="11.147868024835681" id="-40583">
		<tag k="alt_name" v="Kvennfossan" />
		<tag k="name" v="Kvennfossene" />
		<tag k="natural" v="waterfall" />
		<tag k="ssr:stedsnr" v="523817" />
	</node>
	<node lat="62.847666666699354" lon="11.222008333556571" id="-40588">
		<tag k="name" v="Hyllbekken" />
		<tag k="ssr:stedsnr" v="531270" />
		<tag k="waterway" v="stream" />
	</node>
	<node lat="62.85306667071932" lon="11.22459166720619" id="-40589">
		<tag k="name" v="Hyttdammen" />
		<tag k="natural" v="water" />
		<tag k="ssr:stedsnr" v="531272" />
		<tag k="water" v="lake" />
	</node>
	<node lat="62.854194441786824" lon="11.157944450004672" id="-40591">
		<tag k="name" v="Høgvollsbekken" />
		<tag k="ssr:stedsnr" v="531407" />
		<tag k="waterway" v="stream" />
	</node>
	<node lat="62.83255833221975" lon="11.162255560104645" id="-40592">
		<tag k="name" v="Øverhaugbekken" />
		<tag k="ssr:stedsnr" v="531414" />
		<tag k="waterway" v="stream" />
	</node>
	<node lat="62.74869722604678" lon="11.164722215756724" id="-40594">
		<tag k="name" v="Kjerringbekken" />
		<tag k="ssr:stedsnr" v="531429" />
		<tag k="waterway" v="stream" />
	</node>
	<node lat="62.94899167045939" lon="11.302794438257152" id="-40600">
		<tag k="name" v="Megårdsbekken" />
		<tag k="ssr:stedsnr" v="531344" />
		<tag k="waterway" v="stream" />
	</node>
	<node lat="62.931733334905445" lon="11.275083339857893" id="-40601">
		<tag k="name" v="Kjærsåa" />
		<tag k="ssr:stedsnr" v="531678" />
		<tag k="waterway" v="stream" />
	</node>
	<node lat="62.695556788926936" lon="11.158270401147382" id="-40602">
		<tag k="name" v="Rybekken" />
		<tag k="ssr:stedsnr" v="531690" />
		<tag k="waterway" v="stream" />
	</node>
	<node lat="62.96508055591208" lon="10.988561115929429" id="-40605">
		<tag k="name" v="Langletbekken" />
		<tag k="ssr:stedsnr" v="531587" />
		<tag k="waterway" v="stream" />
	</node>
	<node lat="63.054777775194204" lon="11.021691675984297" id="-40616">
		<tag k="name" v="Nyvollbekken" />
		<tag k="ssr:stedsnr" v="688343" />
		<tag k="waterway" v="stream" />
	</node>
	<node lat="62.86863888643964" lon="11.647094449257327" id="-40617">
		<tag k="name" v="Øvre Kjølitjønna" />
		<tag k="natural" v="water" />
		<tag k="ssr:stedsnr" v="688366" />
	</node>
	<node lat="62.902313891184775" lon="11.229883331198126" id="-40624">
		<tag k="name" v="Nørdre Tverrdrøya" />
		<tag k="ssr:stedsnr" v="558194" />
		<tag k="waterway" v="stream" />
	</node>
	<node lat="62.94733333632095" lon="11.315055549950925" id="-40625">
		<tag k="name" v="Litjtrælsåa" />
		<tag k="ssr:stedsnr" v="558199" />
		<tag k="waterway" v="stream" />
	</node>
	<node lat="62.9807749983275" lon="11.01883056351923" id="-40626">
		<tag k="name" v="Trænåtjønna" />
		<tag k="natural" v="water" />
		<tag k="ssr:stedsnr" v="558515" />
	</node>
	<node lat="62.98357499755762" lon="11.395838880920527" id="-40627">
		<tag k="name" v="Grotjønnan" />
		<tag k="natural" v="water" />
		<tag k="ssr:stedsnr" v="558252" />
	</node>
	<node lat="62.946688886213636" lon="11.02414999689759" id="-40631">
		<tag k="name" v="Gåstjønna" />
		<tag k="natural" v="water" />
		<tag k="ssr:stedsnr" v="558455" />
	</node>
	<node lat="62.94443611543134" lon="11.041325007694427" id="-40632">
		<tag k="alt_name" v="Dambekken" />
		<tag k="name" v="Damåa" />
		<tag k="ssr:stedsnr" v="558458" />
		<tag k="waterway" v="stream" />
	</node>
	<node lat="62.83289444846412" lon="11.437775003090634" id="-40637">
		<tag k="name" v="Litjtverråa" />
		<tag k="ssr:stedsnr" v="558897" />
		<tag k="waterway" v="stream" />
	</node>
	<node lat="62.984830555597284" lon="11.309011115895762" id="-40639">
		<tag k="name" v="Tverråtjønnan" />
		<tag k="natural" v="water" />
		<tag k="ssr:stedsnr" v="566358" />
	</node>
	<node lat="63.030780554932214" lon="11.004211104946176" id="-40640">
		<tag k="name" v="Storkusma" />
		<tag k="natural" v="water" />
		<tag k="ssr:stedsnr" v="566363" />
	</node>
	<node lat="62.85428332939097" lon="11.32590277776532" id="-40647">
		<tag k="name" v="Litlrena" />
		<tag k="ssr:stedsnr" v="591610" />
		<tag k="waterway" v="stream" />
	</node>
	<node lat="62.8893500030079" lon="11.171599994510887" id="-40648">
		<tag k="name" v="Litjeidbekken" />
		<tag k="ssr:stedsnr" v="591620" />
		<tag k="waterway" v="stream" />
	</node>
	<node lat="62.93885555125958" lon="11.066683342576626" id="-40657">
		<tag k="name" v="Lea" />
		<tag k="natural" v="shoal" />
		<tag k="ssr:stedsnr" v="592553" />
	</node>
	<node lat="62.72901389279542" lon="11.152911109717339" id="-40661">
		<tag k="name" v="Grytbakksvika" />
		<tag k="natural" v="bay" />
		<tag k="ssr:stedsnr" v="592667" />
	</node>
	<node lat="62.74720833706214" lon="10.954669441192499" id="-40669">
		<tag k="name" v="Langtjønna" />
		<tag k="natural" v="water" />
		<tag k="ssr:stedsnr" v="618028" />
	</node>
	<node lat="62.74677499760737" lon="11.053030558429981" id="-40670">
		<tag k="name" v="Øyungen" />
		<tag k="natural" v="water" />
		<tag k="ssr:stedsnr" v="618031" />
		<tag k="water" v="lake" />
	</node>
	<node lat="62.900730559193065" lon="11.50588888008075" id="-40676">
		<tag k="name" v="Bentjønna" />
		<tag k="natural" v="water" />
		<tag k="ssr:stedsnr" v="619213" />
	</node>
	<node lat="62.92010872202161" lon="11.441196476820458" id="-40682">
		<tag k="fixme" v="multiple name tags, choose one and add the other to alt_name" />
		<tag k="name" v="Syndre Skjellåa;Skjellåa, Synste" />
		<tag k="ssr:stedsnr" v="627698" />
		<tag k="waterway" v="river" />
	</node>
	<node lat="62.764066670587475" lon="11.046161116292774" id="-40691">
		<tag k="name" v="Storvollvika" />
		<tag k="natural" v="bay" />
		<tag k="ssr:stedsnr" v="652693" />
	</node>
	<node lat="62.845966670668375" lon="11.052858341562358" id="-40710">
		<tag k="name" v="Måstjønna" />
		<tag k="natural" v="water" />
		<tag k="ssr:stedsnr" v="680103" />
	</node>
	<node lat="62.853749999613385" lon="11.770869436285295" id="-40713">
		<tag k="name" v="Dalsvika" />
		<tag k="natural" v="bay" />
		<tag k="ssr:stedsnr" v="688737" />
	</node>
	<node lat="62.84909722567599" lon="11.298033335222456" id="-40726">
		<tag k="name" v="Kvernbekken" />
		<tag k="ssr:stedsnr" v="895663" />
		<tag k="waterway" v="stream" />
	</node>
	<node lat="62.76768611299269" lon="11.048686120416292" id="-40727">
		<tag k="name" v="Gjetklauvtjønna" />
		<tag k="natural" v="water" />
		<tag k="ssr:stedsnr" v="895677" />
	</node>
	<node lat="62.7802083371415" lon="11.421188888418701" id="-40733">
		<tag k="name" v="Storfallet" />
		<tag k="ssr:stedsnr" v="896138" />
		<tag k="waterway" v="rapids" />
	</node>
	<node lat="62.793219445023205" lon="11.385224994669615" id="-40737">
		<tag k="name" v="Skørru" />
		<tag k="ssr:stedsnr" v="896245" />
		<tag k="waterway" v="river" />
	</node>
	<node lat="62.939702774925095" lon="11.328527783456964" id="-40738">
		<tag k="name" v="Stoet" />
		<tag k="place" v="locality" />
		<tag k="ssr:stedsnr" v="896345" />
	</node>
	<node lat="62.83996944459204" lon="11.332811113778455" id="-40740">
		<tag k="name" v="Storrena" />
		<tag k="ssr:stedsnr" v="896356" />
		<tag k="waterway" v="stream" />
	</node>
	<node lat="62.94463333056025" lon="11.255602779872833" id="-40743">
		<tag k="alt_name" v="Litjøibekken" />
		<tag k="name" v="Litløybekken" />
		<tag k="ssr:stedsnr" v="896391" />
		<tag k="waterway" v="stream" />
	</node>
	<node lat="62.737527778486744" lon="11.16699999746051" id="-40749">
		<tag k="name" v="Kjerringbekken" />
		<tag k="ssr:stedsnr" v="896678" />
		<tag k="waterway" v="stream" />
	</node>
	<node lat="62.72367222628356" lon="11.165638887283608" id="-40750">
		<tag k="name" v="Midtsanda" />
		<tag k="natural" v="beach" />
		<tag k="ssr:stedsnr" v="896684" />
	</node>
	<node lat="62.72044722204688" lon="11.164024994459412" id="-40751">
		<tag k="name" v="Storholmen" />
		<tag k="place" v="islet" />
		<tag k="ssr:stedsnr" v="896689" />
	</node>
	<node lat="62.84814166268933" lon="11.27465000237226" id="-40761">
		<tag k="name" v="Almåsbekken" />
		<tag k="ssr:stedsnr" v="706873" />
		<tag k="waterway" v="stream" />
	</node>
	<node lat="62.842224997259486" lon="11.352763893122852" id="-40765">
		<tag k="name" v="Kyrbekken" />
		<tag k="ssr:stedsnr" v="713731" />
		<tag k="waterway" v="stream" />
	</node>
	<node lat="62.7752555562599" lon="11.433744450381342" id="-40770">
		<tag k="name" v="Skørru" />
		<tag k="ssr:stedsnr" v="714109" />
		<tag k="waterway" v="river" />
	</node>
	<node lat="62.838574998174295" lon="11.22520833480356" id="-40773">
		<tag k="name" v="Hestbekken" />
		<tag k="ssr:stedsnr" v="714241" />
		<tag k="waterway" v="stream" />
	</node>
	<node lat="62.93616388517903" lon="11.307905556288556" id="-40774">
		<tag k="alt_name" v="Litløya" />
		<tag k="name" v="Litjøya" />
		<tag k="place" v="island" />
		<tag k="ssr:stedsnr" v="714282" />
	</node>
	<node lat="62.93711666268488" lon="11.310749991706075" id="-40777">
		<tag k="name" v="Trælsåa" />
		<tag k="ssr:stedsnr" v="714295" />
		<tag k="waterway" v="river" />
	</node>
	<node lat="62.78251666495317" lon="11.413055559364743" id="-40779">
		<tag k="name" v="Ørmåsbekken" />
		<tag k="ssr:stedsnr" v="714195" />
		<tag k="waterway" v="stream" />
	</node>
	<node lat="62.86840833356306" lon="11.224736118775242" id="-40781">
		<tag k="name" v="Kvernhusbekken" />
		<tag k="ssr:stedsnr" v="714312" />
		<tag k="waterway" v="stream" />
	</node>
	<node lat="62.719855558245506" lon="10.870625001837553" id="-40793">
		<tag k="name" v="Langtjønnbekken" />
		<tag k="ssr:stedsnr" v="739024" />
		<tag k="waterway" v="stream" />
	</node>
	<node lat="62.700774999985185" lon="10.824361103612867" id="-40794">
		<tag k="name" v="Litjsjøen" />
		<tag k="natural" v="bay" />
		<tag k="ssr:stedsnr" v="739232" />
	</node>
	<node lat="62.85066111265632" lon="11.713019441449882" id="-40801">
		<tag k="name" v="Tjønnvolltjønna" />
		<tag k="natural" v="water" />
		<tag k="ssr:stedsnr" v="740125" />
	</node>
	<node lat="62.93089166419213" lon="11.37151110515114" id="-40803">
		<tag k="name" v="Storbekken" />
		<tag k="ssr:stedsnr" v="740191" />
		<tag k="waterway" v="stream" />
	</node>
	<node lat="62.786433331472786" lon="11.657177778368409" id="-40804">
		<tag k="name" v="Torbertjønna" />
		<tag k="natural" v="water" />
		<tag k="ssr:stedsnr" v="740940" />
	</node>
	<node lat="62.823930554813394" lon="11.287516663142352" id="-40805">
		<tag k="name" v="Dyråa" />
		<tag k="ssr:stedsnr" v="740902" />
		<tag k="waterway" v="stream" />
	</node>
	<node lat="63.041988888141915" lon="11.036624998502251" id="-40806">
		<tag k="name" v="Turbekken" />
		<tag k="ssr:stedsnr" v="749372" />
		<tag k="waterway" v="stream" />
	</node>
	<node lat="62.73865278014312" lon="11.254025008656045" id="-40807">
		<tag k="name" v="Lunkan" />
		<tag k="natural" v="water" />
		<tag k="ssr:stedsnr" v="749878" />
	</node>
	<node lat="62.738324997035576" lon="11.238138896883305" id="-40808">
		<tag k="name" v="Bersvendtjønna" />
		<tag k="natural" v="water" />
		<tag k="ssr:stedsnr" v="749879" />
	</node>
	<node lat="62.76383610933913" lon="11.357977772405361" id="-40828">
		<tag k="name" v="Taraldsbekken" />
		<tag k="ssr:stedsnr" v="774164" />
		<tag k="waterway" v="stream" />
	</node>
	<node lat="62.9303027742974" lon="11.403347216217352" id="-40833">
		<tag k="name" v="Fremst Skjellåa" />
		<tag k="old_name" v="Skjellåa, Fremste" />
		<tag k="ssr:stedsnr" v="774220" />
		<tag k="waterway" v="stream" />
	</node>
	<node lat="62.94446944765539" lon="11.228305555634284" id="-40834">
		<tag k="alt_name" v="Libekkan" />
		<tag k="name" v="Libekken" />
		<tag k="old_name" v="Libekk'ann" />
		<tag k="ssr:stedsnr" v="774409" />
		<tag k="waterway" v="stream" />
	</node>
	<node lat="62.83038333613019" lon="11.667950005157433" id="-40842">
		<tag k="name" v="Stømnbekken" />
		<tag k="ssr:stedsnr" v="774717" />
		<tag k="waterway" v="stream" />
	</node>
	<node lat="62.74895833622635" lon="11.202802777029529" id="-40843">
		<tag k="name" v="Merkesbekken" />
		<tag k="ssr:stedsnr" v="774721" />
		<tag k="waterway" v="stream" />
	</node>
	<node lat="62.916316666095504" lon="11.056224998776687" id="-40845">
		<tag k="name" v="Gubbdalsbekken" />
		<tag k="ssr:stedsnr" v="774622" />
		<tag k="waterway" v="stream" />
	</node>
	<node lat="62.72837777352129" lon="11.27190000877941" id="-40855">
		<tag k="name" v="Skarddammen" />
		<tag k="natural" v="water" />
		<tag k="ssr:stedsnr" v="800777" />
	</node>
	<node lat="62.89377499994151" lon="11.028686117345819" id="-40858">
		<tag k="name" v="Fremre Storbekken" />
		<tag k="ssr:stedsnr" v="801095" />
		<tag k="waterway" v="stream" />
	</node>
	<node lat="62.9381527748427" lon="11.334627777666663" id="-40859">
		<tag k="name" v="Lundbekken" />
		<tag k="ssr:stedsnr" v="801205" />
		<tag k="waterway" v="stream" />
	</node>
	<node lat="62.98588610958536" lon="11.359111117433851" id="-40860">
		<tag k="name" v="Hynntjønna" />
		<tag k="natural" v="water" />
		<tag k="ssr:stedsnr" v="801227" />
	</node>
	<node lat="62.85072778064274" lon="11.409283329750005" id="-40862">
		<tag k="name" v="Litjormtjønna" />
		<tag k="natural" v="water" />
		<tag k="ssr:stedsnr" v="801130" />
	</node>
	<node lat="62.95792500233491" lon="11.255694439966707" id="-40863">
		<tag k="name" v="Aletbekken" />
		<tag k="ssr:stedsnr" v="801182" />
		<tag k="waterway" v="stream" />
	</node>
	<node lat="62.91630833043733" lon="11.152922229982419" id="-40870">
		<tag k="alt_name" v="Løvåsbekken" />
		<tag k="name" v="Lauvåsbekken" />
		<tag k="ssr:stedsnr" v="801383" />
		<tag k="waterway" v="stream" />
	</node>
	<node lat="62.92186076518496" lon="11.12491489962482" id="-40871">
		<tag k="name" v="Litjøvinda" />
		<tag k="ssr:stedsnr" v="801384" />
		<tag k="waterway" v="stream" />
	</node>
	<node lat="62.94698055497741" lon="11.073216667310298" id="-40872">
		<tag k="name" v="Haugabekken" />
		<tag k="ssr:stedsnr" v="801421" />
		<tag k="waterway" v="stream" />
	</node>
	<node lat="62.98192222355338" lon="10.971361104627684" id="-40873">
		<tag k="name" v="Djupdalsbekken" />
		<tag k="ssr:stedsnr" v="801480" />
		<tag k="waterway" v="stream" />
	</node>
	<node lat="62.98900833643776" lon="11.0407222144505" id="-40874">
		<tag k="name" v="Slåggåbekken" />
		<tag k="ssr:stedsnr" v="801482" />
		<tag k="waterway" v="stream" />
	</node>
	<node lat="62.787013889933455" lon="11.28873055382316" id="-40878">
		<tag k="name" v="Loken" />
		<tag k="natural" v="water" />
		<tag k="ssr:stedsnr" v="801913" />
	</node>
	<node lat="62.7921888856554" lon="11.628605552806832" id="-40880">
		<tag k="name" v="Busjøelva" />
		<tag k="ssr:stedsnr" v="801916" />
		<tag k="waterway" v="river" />
	</node>
	<node lat="62.82686389160784" lon="11.691383332748957" id="-40886">
		<tag k="name" v="Stømnbekken" />
		<tag k="ssr:stedsnr" v="801889" />
		<tag k="waterway" v="stream" />
	</node>
	<node lat="63.00783889042547" lon="11.057747217198658" id="-40889">
		<tag k="name" v="Tverrbekken" />
		<tag k="ssr:stedsnr" v="810319" />
		<tag k="waterway" v="stream" />
	</node>
	<node lat="62.71870277973168" lon="10.886238892938817" id="-40890">
		<tag k="name" v="Meiåtjønnbekken" />
		<tag k="ssr:stedsnr" v="921008" />
		<tag k="waterway" v="stream" />
	</node>
	<node lat="62.78637222633217" lon="11.077491657776688" id="-40891">
		<tag k="name" v="Litjsandtjønna" />
		<tag k="natural" v="water" />
		<tag k="ssr:stedsnr" v="922022" />
	</node>
	<node lat="62.88482500389636" lon="11.157905550999113" id="-40892">
		<tag k="name" v="Renåa" />
		<tag k="ssr:stedsnr" v="922110" />
		<tag k="waterway" v="stream" />
	</node>
	<node lat="62.74738055390245" lon="10.958480554761895" id="-40894">
		<tag k="name" v="Rundtjønna" />
		<tag k="natural" v="water" />
		<tag k="ssr:stedsnr" v="922039" />
	</node>
	<node lat="63.042652773851984" lon="11.052188897612833" id="-40896">
		<tag k="name" v="Vevåtjønna" />
		<tag k="natural" v="water" />
		<tag k="ssr:stedsnr" v="922155" />
	</node>
	<node lat="62.85833055970798" lon="11.242455548607829" id="-40898">
		<tag k="name" v="Litlnåa" />
		<tag k="ssr:stedsnr" v="228699" />
		<tag k="waterway" v="stream" />
	</node>
	<node lat="62.94391110759208" lon="11.243063895667257" id="-40900">
		<tag k="name" v="Jamtvollbekken" />
		<tag k="ssr:stedsnr" v="922199" />
		<tag k="waterway" v="stream" />
	</node>
	<node lat="62.72519999903443" lon="11.284922213372802" id="-40905">
		<tag k="name" v="Gruvdamman" />
		<tag k="natural" v="water" />
		<tag k="ssr:stedsnr" v="922765" />
	</node>
	<node lat="62.82309444029888" lon="11.004463897612174" id="-40906">
		<tag k="name" v="Storbekken" />
		<tag k="ssr:stedsnr" v="923054" />
		<tag k="waterway" v="stream" />
	</node>
	<node lat="62.929358330447215" lon="11.321024991427606" id="-40911">
		<tag k="name" v="Raudåa" />
		<tag k="ssr:stedsnr" v="923200" />
		<tag k="waterway" v="stream" />
	</node>
	<node lat="62.91997777522242" lon="11.285300006181489" id="-40912">
		<tag k="name" v="Kjærsåstjønna" />
		<tag k="natural" v="water" />
		<tag k="ssr:stedsnr" v="923202" />
	</node>
	<node lat="62.81553333191867" lon="11.453391660118331" id="-40914">
		<tag k="name" v="Håen" />
		<tag k="natural" v="water" />
		<tag k="ssr:stedsnr" v="923931" />
	</node>
	<node lat="62.99357778027051" lon="11.168044436519665" id="-40919">
		<tag k="name" v="Midtibælingsjøen" />
		<tag k="natural" v="water" />
		<tag k="ssr:stedsnr" v="923552" />
	</node>
	<node lat="62.83896944208241" lon="11.690466658643231" id="-40922">
		<tag k="name" v="Gaulhåen" />
		<tag k="natural" v="water" />
		<tag k="ssr:stedsnr" v="923898" />
	</node>
	<node lat="62.82181111567859" lon="11.417980551347673" id="-40924">
		<tag k="name" v="Storbekken" />
		<tag k="ssr:stedsnr" v="835137" />
		<tag k="waterway" v="stream" />
	</node>
	<node lat="62.77717499694369" lon="11.391194448349262" id="-40926">
		<tag k="name" v="Åsvollbekken" />
		<tag k="ssr:stedsnr" v="923962" />
		<tag k="waterway" v="stream" />
	</node>
	<node lat="62.830222222343274" lon="11.450866664948235" id="-40929">
		<tag k="name" v="Follkroken" />
		<tag k="natural" v="water" />
		<tag k="ssr:stedsnr" v="835222" />
		<tag k="water" v="lake" />
	</node>
	<node lat="62.970627779836995" lon="11.055169444890382" id="-40932">
		<tag k="name" v="Litjlibekken" />
		<tag k="ssr:stedsnr" v="835605" />
		<tag k="waterway" v="stream" />
	</node>
	<node lat="62.792516665953215" lon="11.104708334945517" id="-40949">
		<tag k="name" v="Båttjønna" />
		<tag k="natural" v="water" />
		<tag k="ssr:stedsnr" v="862008" />
	</node>
	<node lat="62.90535832899711" lon="11.442294449288914" id="-40955">
		<tag k="name" v="Luskamfossen" />
		<tag k="natural" v="waterfall" />
		<tag k="ssr:stedsnr" v="862215" />
	</node>
	<node lat="63.01960000125316" lon="11.00451943900015" id="-40957">
		<tag k="name" v="Vardpiktjønna" />
		<tag k="natural" v="water" />
		<tag k="ssr:stedsnr" v="862199" />
	</node>
	<node lat="62.873897219222016" lon="11.71881110845685" id="-40961">
		<tag k="name" v="Fallbekken" />
		<tag k="ssr:stedsnr" v="862807" />
		<tag k="waterway" v="stream" />
	</node>
	<node lat="62.89617777738822" lon="11.069202776383412" id="-40965">
		<tag k="name" v="Lauvøydalsbekken" />
		<tag k="ssr:stedsnr" v="869420" />
		<tag k="waterway" v="stream" />
	</node>
	<node lat="62.967947221919225" lon="11.030366671786243" id="-40968">
		<tag k="name" v="Nørdre Gisla" />
		<tag k="ssr:stedsnr" v="870413" />
		<tag k="waterway" v="stream" />
	</node>
	<node lat="63.00223888908333" lon="11.053605563999609" id="-40972">
		<tag k="name" v="Bjørndalstjønna" />
		<tag k="natural" v="water" />
		<tag k="ssr:stedsnr" v="931368" />
	</node>
	<node lat="62.86138055377567" lon="11.485555555321678" id="-40973">
		<tag k="name" v="Kongetjønnan" />
		<tag k="natural" v="water" />
		<tag k="ssr:stedsnr" v="931717" />
	</node>
	<node lat="62.8126805573297" lon="11.377936120222843" id="-40981">
		<tag k="name" v="Vedbekken" />
		<tag k="ssr:stedsnr" v="896124" />
		<tag k="waterway" v="stream" />
	</node>
	<node lat="62.83599444085095" lon="11.438097223383712" id="-40984">
		<tag k="name" v="Litlfolla" />
		<tag k="ssr:stedsnr" v="896221" />
		<tag k="waterway" v="stream" />
	</node>
	<node lat="62.728108337314254" lon="11.149572213638262" id="-40987">
		<tag k="name" v="Tyskstenen" />
		<tag k="place" v="islet" />
		<tag k="ssr:stedsnr" v="896673" />
	</node>
	<node lat="62.7615249994457" lon="11.008936103176833" id="-41006">
		<tag k="name" v="Bubekken" />
		<tag k="ssr:stedsnr" v="922213" />
		<tag k="waterway" v="stream" />
	</node>
	<node lat="62.96475555760426" lon="11.051163897130747" id="-41011">
		<tag k="name" v="Lermelgisla" />
		<tag k="ssr:stedsnr" v="922427" />
		<tag k="waterway" v="stream" />
	</node>
	<node lat="62.85369166457547" lon="11.449152777767948" id="-41014">
		<tag k="name" v="Folla" />
		<tag k="ssr:stedsnr" v="923184" />
		<tag k="waterway" v="stream" />
	</node>
	<node lat="62.88977777538579" lon="11.22149443847869" id="-41016">
		<tag k="name" v="Vondbekken" />
		<tag k="ssr:stedsnr" v="923210" />
		<tag k="waterway" v="stream" />
	</node>
	<node lat="62.93186666499942" lon="11.00702777927745" id="-41017">
		<tag k="name" v="Syndre Bolunga" />
		<tag k="ssr:stedsnr" v="923468" />
		<tag k="waterway" v="stream" />
	</node>
	<node lat="62.94872221963958" lon="11.096524995745398" id="-41018">
		<tag k="name" v="Lautåa" />
		<tag k="ssr:stedsnr" v="923478" />
		<tag k="waterway" v="stream" />
	</node>
	<node lat="62.88866111099716" lon="11.777347226346821" id="-41019">
		<tag k="name" v="Storøvlingen" />
		<tag k="natural" v="water" />
		<tag k="old_name" v="Busjøen" />
		<tag k="ssr:stedsnr" v="923794" />
		<tag k="water" v="lake" />
	</node>
	<node lat="62.80663888907579" lon="11.48026110679462" id="-41022">
		<tag k="name" v="Gruvbekken" />
		<tag k="ssr:stedsnr" v="923921" />
		<tag k="waterway" v="stream" />
	</node>
	<node lat="62.8506833350284" lon="11.75811111857878" id="-41026">
		<tag k="name" v="Storholmen" />
		<tag k="place" v="islet" />
		<tag k="ssr:stedsnr" v="923820" />
	</node>
	<node lat="62.850450000433376" lon="11.500866675248048" id="-41030">
		<tag k="name" v="Øvre Børklepptjønna" />
		<tag k="natural" v="water" />
		<tag k="ssr:stedsnr" v="931709" />
	</node>
	<node lat="62.750780552262086" lon="10.954924994850566" id="-41032">
		<tag k="name" v="Ystengsøya" />
		<tag k="place" v="island" />
		<tag k="ssr:stedsnr" v="228745" />
	</node>
	<node lat="62.81664166648652" lon="11.577661115858344" id="-41048">
		<tag k="name" v="Syøya" />
		<tag k="natural" v="cape" />
		<tag k="ssr:stedsnr" v="956722" />
	</node>
	<node lat="62.95521666267883" lon="11.028449992048117" id="-41053">
		<tag k="name" v="Støhølen" />
		<tag k="place" v="locality" />
		<tag k="ssr:stedsnr" v="956637" />
	</node>
	<node lat="62.75260833572739" lon="10.95165278192702" id="-41058">
		<tag k="name" v="Vadet" />
		<tag k="place" v="locality" />
		<tag k="ssr:stedsnr" v="956698" />
	</node>
	<node lat="62.68747499687612" lon="11.118369448983234" id="-41067">
		<tag k="name" v="Gruvtjønnan" />
		<tag k="natural" v="water" />
		<tag k="ssr:stedsnr" v="11225" />
	</node>
	<node lat="62.99527222404114" lon="11.028400000754266" id="-41070">
		<tag k="name" v="Merkesbekken" />
		<tag k="ssr:stedsnr" v="12246" />
		<tag k="waterway" v="stream" />
	</node>
	<node lat="62.70406110749818" lon="11.157055554385181" id="-41072">
		<tag k="name" v="Kjølia" />
		<tag k="old_name" v="Kjølja" />
		<tag k="ssr:stedsnr" v="11240" />
		<tag k="waterway" v="river" />
	</node>
	<node lat="62.78087500223032" lon="11.079650001882365" id="-41074">
		<tag k="name" v="Langen" />
		<tag k="natural" v="water" />
		<tag k="ssr:stedsnr" v="12018" />
		<tag k="water" v="lake" />
	</node>
	<node lat="62.87137222299272" lon="11.101761113104592" id="-41078">
		<tag k="name" v="Renåtjønnan" />
		<tag k="natural" v="water" />
		<tag k="ssr:stedsnr" v="12129" />
	</node>
	<node lat="62.854833329789" lon="11.35189443750375" id="-41082">
		<tag k="name" v="Litjrena" />
		<tag k="ssr:stedsnr" v="12144" />
		<tag k="waterway" v="stream" />
	</node>
	<node lat="62.84336389081175" lon="11.344883341687824" id="-41085">
		<tag k="name" v="Kyrbekken" />
		<tag k="ssr:stedsnr" v="12155" />
		<tag k="waterway" v="stream" />
	</node>
	<node lat="63.04759194565911" lon="10.989287191719246" id="-41087">
		<tag k="name" v="Auntjønnan" />
		<tag k="natural" v="water" />
		<tag k="ssr:stedsnr" v="12163" />
	</node>
	<node lat="62.94318896385666" lon="11.219061165901623" id="-41088">
		<tag k="name" v="Storbekken" />
		<tag k="ssr:stedsnr" v="12213" />
		<tag k="waterway" v="stream" />
	</node>
	<node lat="62.93605833372746" lon="10.989900006486677" id="-41091">
		<tag k="name" v="Nørdre Bolunga" />
		<tag k="ssr:stedsnr" v="12406" />
		<tag k="waterway" v="stream" />
	</node>
	<node lat="62.760586115301436" lon="10.965208341763832" id="-41096">
		<tag k="name" v="Meiåa" />
		<tag k="ssr:stedsnr" v="12654" />
		<tag k="waterway" v="river" />
	</node>
	<node lat="62.92724722015655" lon="11.353447221408864" id="-41107">
		<tag k="alt_name" v="Hammerkroken" />
		<tag k="name" v="Håmmårkroken" />
		<tag k="place" v="locality" />
		<tag k="ssr:stedsnr" v="42834" />
	</node>
	<node lat="62.739138887141756" lon="11.070513897314123" id="-41116">
		<tag k="name" v="Høsbekken" />
		<tag k="ssr:stedsnr" v="45694" />
		<tag k="waterway" v="stream" />
	</node>
	<node lat="62.74917221895045" lon="11.013672221364244" id="-41120">
		<tag k="name" v="Krestinabekken" />
		<tag k="ssr:stedsnr" v="45745" />
		<tag k="waterway" v="stream" />
	</node>
	<node lat="62.867238887566586" lon="11.16686111396874" id="-41130">
		<tag k="name" v="Sagbekken" />
		<tag k="ssr:stedsnr" v="46395" />
		<tag k="waterway" v="stream" />
	</node>
	<node lat="62.86732221853943" lon="11.21774445359888" id="-41131">
		<tag k="name" v="Kvernhusbekken" />
		<tag k="ssr:stedsnr" v="46396" />
		<tag k="waterway" v="stream" />
	</node>
	<node lat="62.951411107760634" lon="11.289724997311593" id="-41135">
		<tag k="name" v="Kvennbekken" />
		<tag k="ssr:stedsnr" v="46345" />
		<tag k="waterway" v="stream" />
	</node>
	<node lat="62.89716111060659" lon="11.21061666050502" id="-41146">
		<tag k="name" v="Kvakstadslåttbekken" />
		<tag k="ssr:stedsnr" v="46547" />
		<tag k="waterway" v="stream" />
	</node>
	<node lat="62.95550833271168" lon="11.023094446124245" id="-41151">
		<tag k="name" v="Brennhølen" />
		<tag k="place" v="locality" />
		<tag k="ssr:stedsnr" v="46644" />
	</node>
	<node lat="62.96961666887272" lon="11.093116669221937" id="-41153">
		<tag k="name" v="Dagroshølen" />
		<tag k="place" v="locality" />
		<tag k="ssr:stedsnr" v="46662" />
	</node>
	<node lat="62.77663333087436" lon="11.061630562526888" id="-41159">
		<tag k="name" v="Holtålstjønna" />
		<tag k="natural" v="water" />
		<tag k="ssr:stedsnr" v="73029" />
	</node>
	<node lat="62.9505805597503" lon="11.158649991667058" id="-41162">
		<tag k="name" v="Halsenøya" />
		<tag k="place" v="islet" />
		<tag k="ssr:stedsnr" v="73433" />
	</node>
	<node lat="62.91484166829637" lon="11.34595000679818" id="-41168">
		<tag k="name" v="Øvindsåa" />
		<tag k="ssr:stedsnr" v="73161" />
		<tag k="waterway" v="river" />
	</node>
	<node lat="62.88171110829138" lon="11.38164443527792" id="-41176">
		<tag k="name" v="Røtjønna" />
		<tag k="natural" v="water" />
		<tag k="ssr:stedsnr" v="73135" />
	</node>
	<node lat="62.99068333527347" lon="11.31260554764068" id="-41179">
		<tag k="name" v="Tverråtjønnan" />
		<tag k="natural" v="water" />
		<tag k="ssr:stedsnr" v="73246" />
		<tag k="water" v="lake" />
	</node>
	<node lat="62.836469445045935" lon="11.524852785067505" id="-41185">
		<tag k="name" v="Menna" />
		<tag k="ssr:stedsnr" v="73880" />
		<tag k="waterway" v="river" />
	</node>
	<node lat="63.02636110684834" lon="11.122513896444223" id="-41195">
		<tag k="name" v="Øvernåla" />
		<tag k="ssr:stedsnr" v="81367" />
		<tag k="waterway" v="stream" />
	</node>
	<node lat="63.034400000691356" lon="11.064766670650853" id="-41196">
		<tag k="name" v="Nåltjønna" />
		<tag k="natural" v="water" />
		<tag k="ssr:stedsnr" v="81371" />
	</node>
	<node lat="62.758702780643034" lon="11.062441675523456" id="-41197">
		<tag k="name" v="Langsåvika" />
		<tag k="natural" v="bay" />
		<tag k="ssr:stedsnr" v="81375" />
	</node>
	<node lat="62.87165277537361" lon="11.449766675945488" id="-41198">
		<tag k="name" v="Stilla" />
		<tag k="ssr:stedsnr" v="81699" />
		<tag k="waterway" v="stream" />
	</node>
	<node lat="62.89662500318059" lon="11.24770554825928" id="-41199">
		<tag k="name" v="Syndre Tverrdrøya" />
		<tag k="ssr:stedsnr" v="81702" />
		<tag k="waterway" v="stream" />
	</node>
	<node lat="62.95759166255858" lon="11.277783339913595" id="-41202">
		<tag k="name" v="Storbekken" />
		<tag k="ssr:stedsnr" v="103738" />
		<tag k="waterway" v="stream" />
	</node>
	<node lat="62.75082500087586" lon="11.319558335296946" id="-41203">
		<tag k="name" v="Lerdalsbekken" />
		<tag k="ssr:stedsnr" v="106250" />
		<tag k="waterway" v="stream" />
	</node>
	<node lat="62.78534444206544" lon="11.400055553840225" id="-41206">
		<tag k="name" v="Skørru" />
		<tag k="ssr:stedsnr" v="106687" />
		<tag k="waterway" v="river" />
	</node>
	<node lat="62.827766669620516" lon="11.448177771776518" id="-41207">
		<tag k="name" v="Tverråa" />
		<tag k="ssr:stedsnr" v="106689" />
		<tag k="waterway" v="stream" />
	</node>
	<node lat="62.746391670628334" lon="11.068330550806852" id="-41210">
		<tag k="name" v="Rundholmen" />
		<tag k="place" v="islet" />
		<tag k="ssr:stedsnr" v="106750" />
	</node>
	<node lat="62.74087222520601" lon="11.0661722228939" id="-41211">
		<tag k="name" v="Smålandet" />
		<tag k="natural" v="beach" />
		<tag k="ssr:stedsnr" v="106751" />
	</node>
	<node lat="62.74019166699241" lon="11.057613897026135" id="-41212">
		<tag k="name" v="Veldalsbekken" />
		<tag k="ssr:stedsnr" v="106752" />
		<tag k="waterway" v="stream" />
	</node>
	<node lat="62.741569446874394" lon="11.070250009703447" id="-41213">
		<tag k="name" v="Høsbekkvika" />
		<tag k="place" v="locality" />
		<tag k="ssr:stedsnr" v="106755" />
	</node>
	<node lat="62.82671389138819" lon="11.604341673569191" id="-41220">
		<tag k="name" v="Jensåsbekken" />
		<tag k="ssr:stedsnr" v="107158" />
		<tag k="waterway" v="stream" />
	</node>
	<node lat="62.95333889199036" lon="11.25436944543433" id="-41224">
		<tag k="name" v="Tverråa" />
		<tag k="ssr:stedsnr" v="107313" />
		<tag k="waterway" v="stream" />
	</node>
	<node lat="62.83382221985095" lon="11.327149997925185" id="-41227">
		<tag k="name" v="Børshølen" />
		<tag k="place" v="locality" />
		<tag k="ssr:stedsnr" v="107343" />
	</node>
	<node lat="62.859981311092646" lon="11.194154213512341" id="-41229">
		<tag k="name" v="Trolltjønna" />
		<tag k="natural" v="water" />
		<tag k="ssr:stedsnr" v="107383" />
	</node>
	<node lat="62.837308331525755" lon="11.164130559490088" id="-41230">
		<tag k="name" v="Rygglibekken" />
		<tag k="ssr:stedsnr" v="107406" />
		<tag k="waterway" v="stream" />
	</node>
	<node lat="62.751433330694745" lon="11.17026111575901" id="-41231">
		<tag k="name" v="Blæsterbekken" />
		<tag k="ssr:stedsnr" v="107419" />
		<tag k="waterway" v="stream" />
	</node>
	<node lat="62.76300555575034" lon="10.921408331939256" id="-41255">
		<tag k="name" v="Storbekken" />
		<tag k="ssr:stedsnr" v="133027" />
		<tag k="waterway" v="stream" />
	</node>
	<node lat="62.802952780591724" lon="11.102666671250802" id="-41257">
		<tag k="name" v="Fjellbekken" />
		<tag k="ssr:stedsnr" v="133054" />
		<tag k="waterway" v="stream" />
	</node>
	<node lat="62.860069447322815" lon="11.394830563146465" id="-41258">
		<tag k="name" v="Rensjøen" />
		<tag k="natural" v="water" />
		<tag k="ssr:stedsnr" v="133132" />
		<tag k="water" v="lake" />
	</node>
	<node lat="62.94883055906712" lon="11.176269450325275" id="-41263">
		<tag k="name" v="Holda" />
		<tag k="ssr:stedsnr" v="133621" />
		<tag k="waterway" v="river" />
	</node>
	<node lat="62.75758654662621" lon="11.156865692842908" id="-41268">
		<tag k="name" v="Korstjønnbekken" />
		<tag k="ssr:stedsnr" v="133210" />
		<tag k="waterway" v="stream" />
	</node>
	<node lat="62.96415833712331" lon="11.247100006979043" id="-41270">
		<tag k="name" v="Hovsvollbekken" />
		<tag k="ssr:stedsnr" v="133215" />
		<tag k="waterway" v="stream" />
	</node>
	<node lat="62.98528333751041" lon="11.08132499293279" id="-41272">
		<tag k="name" v="Storslåtlbekken" />
		<tag k="ssr:stedsnr" v="133441" />
		<tag k="waterway" v="stream" />
	</node>
	<node lat="62.84919999889499" lon="11.754691658065624" id="-41273">
		<tag k="name" v="Litjholmen" />
		<tag k="place" v="islet" />
		<tag k="ssr:stedsnr" v="133777" />
	</node>
	<node lat="62.754337635158016" lon="11.05367828853997" id="-41282">
		<tag k="name" v="Storholmen" />
		<tag k="place" v="islet" />
		<tag k="ssr:stedsnr" v="141359" />
	</node>
	<node lat="62.973883335156785" lon="11.085233339980949" id="-41283">
		<tag k="name" v="Bredtjønnbekken" />
		<tag k="ssr:stedsnr" v="141330" />
		<tag k="waterway" v="stream" />
	</node>
	<node lat="62.92781944258999" lon="11.408583331271435" id="-41285">
		<tag k="alt_name" v="Øster Skjelåa" />
		<tag k="name" v="Øster Skjellåa" />
		<tag k="ssr:stedsnr" v="164875" />
		<tag k="waterway" v="stream" />
	</node>
	<node lat="62.779116662813095" lon="11.429449998886305" id="-41292">
		<tag k="name" v="Litlfallet" />
		<tag k="ssr:stedsnr" v="167169" />
		<tag k="waterway" v="rapids" />
	</node>
	<node lat="62.82136388594293" lon="11.399313897013068" id="-41295">
		<tag k="name" v="Målåseterbekken" />
		<tag k="ssr:stedsnr" v="167137" />
		<tag k="waterway" v="stream" />
	</node>
	<node lat="62.78343333720439" lon="11.458841660025746" id="-41298">
		<tag k="name" v="Storbekken" />
		<tag k="ssr:stedsnr" v="167244" />
		<tag k="waterway" v="stream" />
	</node>
	<node lat="62.75532777736167" lon="11.328047220282166" id="-41299">
		<tag k="name" v="Rugla" />
		<tag k="ssr:stedsnr" v="167253" />
		<tag k="waterway" v="river" />
	</node>
	<node lat="62.792647226209965" lon="11.117899992932978" id="-41302">
		<tag k="name" v="Raudhansålån" />
		<tag k="natural" v="water" />
		<tag k="ssr:stedsnr" v="167427" />
		<tag k="water" v="lake" />
	</node>
	<node lat="62.80592222074098" lon="11.153230555040047" id="-41304">
		<tag k="name" v="Kvamloken" />
		<tag k="natural" v="water" />
		<tag k="ssr:stedsnr" v="167438" />
		<tag k="water" v="pond" />
	</node>
	<node lat="62.851819443969255" lon="11.098472214431098" id="-41305">
		<tag k="name" v="Tverr-Øgga" />
		<tag k="ssr:stedsnr" v="167455" />
		<tag k="waterway" v="stream" />
	</node>
	<node lat="62.900716665436704" lon="11.185561102090718" id="-41306">
		<tag k="name" v="Fiskøya" />
		<tag k="place" v="island" />
		<tag k="ssr:stedsnr" v="167540" />
	</node>
	<node lat="62.87755277854462" lon="11.161311112566004" id="-41307">
		<tag k="name" v="Holbekken" />
		<tag k="ssr:stedsnr" v="167548" />
		<tag k="waterway" v="stream" />
	</node>
	<node lat="62.71023611393454" lon="11.16975555045682" id="-41310">
		<tag k="name" v="Storhovsbekken" />
		<tag k="ssr:stedsnr" v="167638" />
		<tag k="waterway" v="stream" />
	</node>
	<node lat="62.73480000286044" lon="11.140908340633567" id="-41312">
		<tag k="name" v="Litlhesja" />
		<tag k="ssr:stedsnr" v="167652" />
		<tag k="waterway" v="stream" />
	</node>
	<node lat="62.724347223878105" lon="11.147486109268463" id="-41313">
		<tag k="name" v="Koiedalsvika" />
		<tag k="natural" v="bay" />
		<tag k="ssr:stedsnr" v="167655" />
	</node>
	<node lat="62.77232777691613" lon="11.073744446831887" id="-41314">
		<tag k="name" v="Butjønna" />
		<tag k="natural" v="water" />
		<tag k="ssr:stedsnr" v="167728" />
	</node>
	<node lat="62.76862222323966" lon="11.061874991195692" id="-41315">
		<tag k="name" v="Nedre Svarttjønna" />
		<tag k="natural" v="water" />
		<tag k="ssr:stedsnr" v="167729" />
	</node>
	<node lat="62.94251110697066" lon="11.285844447231637" id="-41319">
		<tag k="name" v="Kvitla" />
		<tag k="ssr:stedsnr" v="167681" />
		<tag k="waterway" v="stream" />
	</node>
	<node lat="62.737386111950514" lon="10.855294453635764" id="-41327">
		<tag k="name" v="Langtjønnan" />
		<tag k="natural" v="water" />
		<tag k="ssr:stedsnr" v="193045" />
	</node>
	<node lat="62.70701666537068" lon="10.85825554701792" id="-41328">
		<tag k="name" v="Øverforda" />
		<tag k="ssr:stedsnr" v="193010" />
		<tag k="waterway" v="stream" />
	</node>
	<node lat="62.72163959526135" lon="11.156105798526813" id="-41329">
		<tag k="name" v="Hessjøen" />
		<tag k="natural" v="water" />
		<tag k="ssr:stedsnr" v="193026" />
		<tag k="water" v="lake" />
	</node>
	<node lat="62.89027499972517" lon="11.18003611238291" id="-41332">
		<tag k="name" v="Litjeidet" />
		<tag k="place" v="locality" />
		<tag k="ssr:stedsnr" v="194090" />
	</node>
	<node lat="62.90047500200398" lon="11.212127780282923" id="-41333">
		<tag k="name" v="Drøya" />
		<tag k="ssr:stedsnr" v="194097" />
		<tag k="waterway" v="river" />
	</node>
	<node lat="62.74237222625666" lon="11.235463889269733" id="-41338">
		<tag k="name" v="Tverrgrøtåtjønna" />
		<tag k="natural" v="water" />
		<tag k="ssr:stedsnr" v="193769" />
	</node>
	<node lat="62.766683330330046" lon="11.071552768703295" id="-41344">
		<tag k="name" v="Langsåa" />
		<tag k="ssr:stedsnr" v="194025" />
		<tag k="waterway" v="stream" />
	</node>
	<node lat="62.833150001590504" lon="11.174602780576802" id="-41345">
		<tag k="name" v="Hesja" />
		<tag k="ssr:stedsnr" v="194035" />
		<tag k="waterway" v="river" />
	</node>
	<node lat="62.815199997823804" lon="11.210033339019214" id="-41347">
		<tag k="name" v="Kvernbekken" />
		<tag k="ssr:stedsnr" v="194048" />
		<tag k="waterway" v="stream" />
	</node>
	<node lat="62.83741110684884" lon="11.45788888728982" id="-41352">
		<tag k="name" v="Finnlandsbekken" />
		<tag k="natural" v="water" />
		<tag k="ssr:stedsnr" v="194146" />
	</node>
	<node lat="63.0369166709222" lon="11.108361110589591" id="-41356">
		<tag k="name" v="Matmorbekkan" />
		<tag k="ssr:stedsnr" v="194156" />
		<tag k="waterway" v="stream" />
	</node>
	<node lat="62.765938886413984" lon="11.135675002699159" id="-41363">
		<tag k="name" v="Korstjønna" />
		<tag k="natural" v="water" />
		<tag k="ssr:stedsnr" v="194217" />
	</node>
	<node lat="62.97593611200867" lon="11.3715694460997" id="-41364">
		<tag k="name" v="Langtjønna" />
		<tag k="natural" v="water" />
		<tag k="ssr:stedsnr" v="194221" />
	</node>
	<node lat="62.99811111386144" lon="11.09173333065541" id="-41366">
		<tag k="name" v="Lunkfloen" />
		<tag k="natural" v="water" />
		<tag k="ssr:stedsnr" v="194234" />
	</node>
	<node lat="62.93954722046313" lon="11.030552784969796" id="-41371">
		<tag k="name" v="Damtjønna" />
		<tag k="natural" v="water" />
		<tag k="ssr:stedsnr" v="194366" />
	</node>
	<node lat="62.95630555884731" lon="11.110577781885596" id="-41374">
		<tag k="name" v="Bælinga" />
		<tag k="ssr:stedsnr" v="194394" />
		<tag k="waterway" v="river" />
	</node>
	<node lat="62.991188891715375" lon="11.098958329297652" id="-41376">
		<tag k="name" v="Nålsjøbekken" />
		<tag k="ssr:stedsnr" v="194436" />
		<tag k="waterway" v="stream" />
	</node>
	<node lat="62.83697499727642" lon="11.243294439257951" id="-41380">
		<tag k="name" v="Benda" />
		<tag k="ssr:stedsnr" v="194873" />
		<tag k="waterway" v="river" />
	</node>
	<node lat="62.7643777752323" lon="11.455975001236618" id="-41385">
		<tag k="name" v="Skarvbekken" />
		<tag k="ssr:stedsnr" v="195648" />
		<tag k="waterway" v="stream" />
	</node>
	<node lat="62.823722219587104" lon="11.45011945130225" id="-41386">
		<tag k="name" v="Tverråa" />
		<tag k="ssr:stedsnr" v="195649" />
		<tag k="waterway" v="river" />
	</node>
	<node lat="62.768561111581135" lon="11.06420832489471" id="-41390">
		<tag k="name" v="Svarttjønna" />
		<tag k="natural" v="water" />
		<tag k="ssr:stedsnr" v="202338" />
	</node>
</osm>
