<?xml version="1.0" encoding="UTF-8"?>
<osm generator="osmapis" version="0.6">
	<node id="-868708" lat="62.9297555592" lon="11.1470972186">
		<tag k="name" v="Bauta" />
		<tag k="ssr:stedsnr" v="713286" />
		<tag k="tourism" v="attraction" />
	</node>
	<node id="-869436" lat="62.8438166707" lon="11.2852361108">
		<tag k="amenity" v="place_of_worship" />
		<tag k="denomination" v="lutheran" />
		<tag k="name" v="Ålen kirke" />
		<tag k="religion" v="christian" />
		<tag k="ssr:stedsnr" v="619168" />
	</node>
	<node id="-870424" lat="62.8249361109" lon="11.346227772">
		<tag k="amenity" v="community_centre" />
		<tag k="name" v="Graftåsen forsamlingshus" />
		<tag k="ssr:stedsnr" v="118666" />
	</node>
	<node id="-870775" lat="62.9291861075" lon="11.3738972239">
		<tag k="alt_name" v="Rågruva" />
		<tag k="name" v="Råen" />
		<tag k="place" v="locality" />
		<tag k="ssr:stedsnr" v="862195" />
	</node>
	<node id="-870004" lat="62.8545499989" lon="11.2211333386">
		<tag k="amenity" v="community_centre" />
		<tag k="name" v="Eidet bedehus" />
		<tag k="ssr:stedsnr" v="120419" />
	</node>
	<node id="-869169" lat="62.8078583373" lon="11.3303638886">
		<tag k="amenity" v="community_centre" />
		<tag k="name" v="Liaåsen forsamlingshus" />
		<tag k="ssr:stedsnr" v="482674" />
	</node>
	<node id="-868848" lat="62.9255638915" lon="11.1448361084">
		<tag k="name" v="Gammelgården" />
		<tag k="ssr:stedsnr" v="179674" />
		<tag k="tourism" v="museum" />
	</node>
	<node id="-869294" lat="62.7906750032" lon="11.1812194534">
		<tag k="alt_name" v="Hessdalen" />
		<tag k="amenity" v="place_of_worship" />
		<tag k="denomination" v="lutheran" />
		<tag k="name" v="Hessdalen kirke" />
		<tag k="old_name" v="Hessdalen kapell" />
		<tag k="religion" v="christian" />
		<tag k="ssr:stedsnr" v="862010" />
	</node>
	<node id="-869196" lat="62.8425916713" lon="11.29221388">
		<tag k="amenity" v="community_centre" />
		<tag k="name" v="Hovet" />
		<tag k="ssr:stedsnr" v="482673" />
	</node>
	<node id="-869962" lat="62.9263053973" lon="11.1454778014">
		<tag k="alt_name" v="Haltdalen" />
		<tag k="amenity" v="place_of_worship" />
		<tag k="denomination" v="lutheran" />
		<tag k="name" v="Haltdalen kirke" />
		<tag k="religion" v="christian" />
		<tag k="ssr:stedsnr" v="194362" />
	</node>
	<node id="-868713" lat="62.9565000025" lon="11.0669166612">
		<tag k="name" v="Skigrana" />
		<tag k="place" v="locality" />
		<tag k="ssr:stedsnr" v="289620" />
	</node>
	<node id="-870376" lat="62.79293889" lon="11.1899416655">
		<tag k="amenity" v="community_centre" />
		<tag k="name" v="Hessdalen samfunnshus" />
		<tag k="ssr:stedsnr" v="896457" />
	</node>
	<node id="-868996" lat="62.9199166654" lon="11.1653583339">
		<tag k="amenity" v="community_centre" />
		<tag k="name" v="Haltdalen samfunnshus" />
		<tag k="ssr:stedsnr" v="603648" />
	</node>
	<node id="-870327" lat="62.8270666684" lon="11.5028055621">
		<tag k="name" v="Vinkelen" />
		<tag k="place" v="locality" />
		<tag k="ssr:stedsnr" v="384370" />
	</node>
	<node id="-869378" lat="62.9534249995" lon="11.2520777819">
		<tag k="amenity" v="community_centre" />
		<tag k="name" v="Aunegrenda grendahus" />
		<tag k="ssr:stedsnr" v="907639" />
	</node>
</osm>
