<?xml version="1.0" encoding="UTF-8"?>
<osm generator="osmapis" version="0.6">
	<node id="-772092" lat="70.1237083332" lon="20.4049722101">
		<tag k="fixme" v="consider natural=peak for the most distinct mountains in the district" />
		<tag k="name" v="Holbergtinden" />
		<tag k="natural" v="hill" />
		<tag k="place" v="locality" />
		<tag k="ssr:stedsnr" v="262897" />
	</node>
	<node id="-772090" lat="69.9836916643" lon="20.6312305415">
		<tag k="name" v="Eneshaugen" />
		<tag k="natural" v="hill" />
		<tag k="place" v="locality" />
		<tag k="ssr:stedsnr" v="262614" />
	</node>
	<node id="-772088" lat="70.0512749989" lon="20.9967722057">
		<tag k="name" v="Prestberget" />
		<tag k="natural" v="hill" />
		<tag k="place" v="locality" />
		<tag k="ssr:stedsnr" v="262229" />
	</node>
	<node id="-772081" lat="70.1926916685" lon="20.8020027471">
		<tag k="name" v="Veggen" />
		<tag k="natural" v="slope" />
		<tag k="place" v="locality" />
		<tag k="ssr:stedsnr" v="262020" />
	</node>
	<node id="-772080" lat="70.1904805555" lon="20.6510555334">
		<tag k="alt_name" v="Fjellfinnhola, nedre" />
		<tag k="name" v="Nedre Fjellfinnholla" />
		<tag k="natural" v="valley" />
		<tag k="place" v="locality" />
		<tag k="ssr:stedsnr" v="262015" />
	</node>
	<node id="-772079" lat="70.1764777756" lon="20.5314416483">
		<tag k="name" v="Årvikdalen" />
		<tag k="natural" v="valley" />
		<tag k="place" v="locality" />
		<tag k="ssr:stedsnr" v="262011" />
	</node>
	<node id="-772077" lat="70.1601805589" lon="20.7605222085">
		<tag k="fixme" v="consider natural=peak for the most distinct mountains in the district" />
		<tag k="name" v="Tarenesfjellet" />
		<tag k="natural" v="hill" />
		<tag k="place" v="locality" />
		<tag k="ssr:stedsnr" v="262001" />
	</node>
	<node id="-772067" lat="69.9269166714" lon="20.8134694179">
		<tag k="name" v="Noveslettan" />
		<tag k="place" v="locality" />
		<tag k="ssr:stedsnr" v="231884" />
	</node>
	<node id="-772066" lat="70.0466500013" lon="20.6681166564">
		<tag k="name" v="Gambergan" />
		<tag k="natural" v="hill" />
		<tag k="place" v="locality" />
		<tag k="ssr:stedsnr" v="231870" />
	</node>
	<node id="-772065" lat="70.0461611152" lon="20.6955638642">
		<tag k="name" v="Småbergan" />
		<tag k="natural" v="hill" />
		<tag k="place" v="locality" />
		<tag k="ssr:stedsnr" v="231868" />
	</node>
	<node id="-772064" lat="70.0335388899" lon="20.5735722097">
		<tag k="name" v="Kvitsteinbergan" />
		<tag k="natural" v="hill" />
		<tag k="place" v="locality" />
		<tag k="ssr:stedsnr" v="231850" />
	</node>
	<node id="-772063" lat="70.046513894" lon="20.5487555323">
		<tag k="name" v="Toftelia" />
		<tag k="natural" v="slope" />
		<tag k="place" v="locality" />
		<tag k="ssr:stedsnr" v="231734" />
	</node>
	<node id="-772062" lat="70.0450083313" lon="20.6092027601">
		<tag k="name" v="Lille-Ørnhammaran" />
		<tag k="natural" v="hill" />
		<tag k="place" v="locality" />
		<tag k="ssr:stedsnr" v="231716" />
	</node>
	<node id="-772061" lat="70.0420861069" lon="20.6228805424">
		<tag k="name" v="Reinbakken" />
		<tag k="natural" v="slope" />
		<tag k="place" v="locality" />
		<tag k="ssr:stedsnr" v="231703" />
	</node>
	<node id="-772056" lat="70.0380694476" lon="21.2425110813">
		<tag k="name" v="Rundhompen" />
		<tag k="natural" v="hill" />
		<tag k="place" v="locality" />
		<tag k="ssr:stedsnr" v="231260" />
	</node>
	<node id="-772051" lat="70.1111000001" lon="20.7333805369">
		<tag k="name" v="Breitindbakkan" />
		<tag k="natural" v="slope" />
		<tag k="place" v="locality" />
		<tag k="ssr:stedsnr" v="231205" />
	</node>
	<node id="-772047" lat="69.9564944468" lon="20.9597138778">
		<tag k="name" v="Sjurberget" />
		<tag k="natural" v="hill" />
		<tag k="place" v="locality" />
		<tag k="ssr:stedsnr" v="231176" />
	</node>
	<node id="-772046" lat="70.1510944432" lon="20.7587777643">
		<tag k="name" v="Hesteøran" />
		<tag k="natural" v="hill" />
		<tag k="place" v="locality" />
		<tag k="ssr:stedsnr" v="231172" />
	</node>
	<node id="-772045" lat="70.1503166639" lon="20.7744610949">
		<tag k="name" v="Tempen" />
		<tag k="natural" v="hill" />
		<tag k="place" v="locality" />
		<tag k="ssr:stedsnr" v="231166" />
	</node>
	<node id="-772040" lat="70.2126361125" lon="20.7966749758">
		<tag k="name" v="Storskorra" />
		<tag k="natural" v="valley" />
		<tag k="place" v="locality" />
		<tag k="ssr:stedsnr" v="231154" />
	</node>
	<node id="-772038" lat="70.0496444426" lon="20.7484277642">
		<tag k="name" v="Tyttebærryggen" />
		<tag k="natural" v="ridge" />
		<tag k="place" v="locality" />
		<tag k="ssr:stedsnr" v="231125" />
	</node>
	<node id="-772037" lat="70.0552833358" lon="20.7983444227">
		<tag k="name" v="Hamnebergan" />
		<tag k="natural" v="hill" />
		<tag k="place" v="locality" />
		<tag k="ssr:stedsnr" v="231026" />
	</node>
	<node id="-772033" lat="70.0487055564" lon="20.4838221984">
		<tag k="name" v="Nessebakken" />
		<tag k="natural" v="slope" />
		<tag k="place" v="locality" />
		<tag k="ssr:stedsnr" v="230904" />
	</node>
	<node id="-772032" lat="69.930830555" lon="20.8800972066">
		<tag k="name" v="Sletta" />
		<tag k="place" v="locality" />
		<tag k="ssr:stedsnr" v="230903" />
	</node>
	<node id="-772031" lat="69.9246944492" lon="20.855491642">
		<tag k="name" v="Sørnesberget" />
		<tag k="natural" v="hill" />
		<tag k="place" v="locality" />
		<tag k="ssr:stedsnr" v="230878" />
	</node>
	<node id="-772030" lat="70.048030559" lon="20.4558194342">
		<tag k="name" v="Storfloget" />
		<tag k="natural" v="hill" />
		<tag k="place" v="locality" />
		<tag k="ssr:stedsnr" v="230879" />
	</node>
	<node id="-772029" lat="70.0496583311" lon="20.4422527591">
		<tag k="name" v="Nakkheia" />
		<tag k="natural" v="slope" />
		<tag k="place" v="locality" />
		<tag k="ssr:stedsnr" v="230871" />
	</node>
	<node id="-772028" lat="70.0529638887" lon="20.4361499863">
		<tag k="name" v="Aksla" />
		<tag k="place" v="locality" />
		<tag k="ssr:stedsnr" v="230872" />
	</node>
	<node id="-772025" lat="70.0701833339" lon="20.637433324">
		<tag k="name" v="Sletta" />
		<tag k="place" v="locality" />
		<tag k="ssr:stedsnr" v="230740" />
	</node>
	<node id="-772023" lat="69.986744446" lon="20.9846305216">
		<tag k="fixme" v="consider natural=peak for the most distinct mountains in the district" />
		<tag k="name" v="Bruna" />
		<tag k="natural" v="hill" />
		<tag k="place" v="locality" />
		<tag k="ssr:stedsnr" v="230659" />
	</node>
	<node id="-772022" lat="69.9054861076" lon="20.7030305415">
		<tag k="name" v="Tyttebærhaugen" />
		<tag k="natural" v="hill" />
		<tag k="place" v="locality" />
		<tag k="ssr:stedsnr" v="230558" />
	</node>
	<node id="-772021" lat="69.9402166672" lon="20.6395805463">
		<tag k="name" v="Gulbrandberget" />
		<tag k="natural" v="hill" />
		<tag k="place" v="locality" />
		<tag k="ssr:stedsnr" v="230529" />
	</node>
	<node id="-772019" lat="69.996311111" lon="21.021111083">
		<tag k="name" v="Strupen" />
		<tag k="natural" v="valley" />
		<tag k="place" v="locality" />
		<tag k="ssr:stedsnr" v="230360" />
	</node>
	<node id="-772018" lat="69.9169583292" lon="20.6890638789">
		<tag k="name" v="Langbakken" />
		<tag k="natural" v="slope" />
		<tag k="place" v="locality" />
		<tag k="ssr:stedsnr" v="230356" />
	</node>
	<node id="-772017" lat="69.9951777816" lon="21.0467249817">
		<tag k="name" v="Skaret" />
		<tag k="natural" v="valley" />
		<tag k="place" v="locality" />
		<tag k="ssr:stedsnr" v="230348" />
	</node>
	<node id="-772014" lat="69.8723722216" lon="20.6370194154">
		<tag k="name" v="Svarttindaksla" />
		<tag k="place" v="locality" />
		<tag k="ssr:stedsnr" v="230328" />
	</node>
	<node id="-772013" lat="69.9828583371" lon="20.9573333195">
		<tag k="name" v="Sletten" />
		<tag k="place" v="locality" />
		<tag k="ssr:stedsnr" v="230250" />
	</node>
	<node id="-772012" lat="70.1219250005" lon="20.8861333156">
		<tag k="name" v="Lia" />
		<tag k="natural" v="slope" />
		<tag k="place" v="locality" />
		<tag k="ssr:stedsnr" v="230199" />
	</node>
	<node id="-772010" lat="70.0604999965" lon="20.9965305416">
		<tag k="name" v="Flatbergan" />
		<tag k="natural" v="hill" />
		<tag k="place" v="locality" />
		<tag k="ssr:stedsnr" v="230195" />
	</node>
	<node id="-772009" lat="70.0614138879" lon="20.9944305301">
		<tag k="name" v="Lykthaugen" />
		<tag k="natural" v="hill" />
		<tag k="place" v="locality" />
		<tag k="ssr:stedsnr" v="230192" />
	</node>
	<node id="-772008" lat="70.0362166689" lon="20.9810777466">
		<tag k="name" v="Skjervøyberget" />
		<tag k="natural" v="hill" />
		<tag k="place" v="locality" />
		<tag k="ssr:stedsnr" v="230173" />
	</node>
	<node id="-772007" lat="70.0262694494" lon="20.9694666375">
		<tag k="name" v="Soltjyven" />
		<tag k="natural" v="hill" />
		<tag k="place" v="locality" />
		<tag k="ssr:stedsnr" v="230168" />
	</node>
	<node id="-772004" lat="70.0398194468" lon="20.9747221915">
		<tag k="fixme" v="consider natural=peak for the most distinct mountains in the district" />
		<tag k="name" v="Gråtafjellet" />
		<tag k="natural" v="hill" />
		<tag k="place" v="locality" />
		<tag k="ssr:stedsnr" v="230146" />
	</node>
	<node id="-771990" lat="70.2127111162" lon="20.6350194173">
		<tag k="name" v="Rekvikaksla" />
		<tag k="place" v="locality" />
		<tag k="ssr:stedsnr" v="206245" />
	</node>
	<node id="-771983" lat="69.9653444491" lon="20.6364527653">
		<tag k="name" v="Djupdalen" />
		<tag k="natural" v="valley" />
		<tag k="place" v="locality" />
		<tag k="ssr:stedsnr" v="201582" />
	</node>
	<node id="-771982" lat="69.9873416712" lon="20.8552916502">
		<tag k="name" v="Storbuktdalen" />
		<tag k="natural" v="valley" />
		<tag k="place" v="locality" />
		<tag k="ssr:stedsnr" v="201562" />
	</node>
	<node id="-771971" lat="69.9987888914" lon="20.875522208">
		<tag k="name" v="Storbukthaugen" />
		<tag k="natural" v="hill" />
		<tag k="place" v="locality" />
		<tag k="ssr:stedsnr" v="201624" />
	</node>
	<node id="-771967" lat="70.0785722211" lon="20.5240499789">
		<tag k="fixme" v="consider natural=peak for the most distinct mountains in the district" />
		<tag k="name" v="Sandnestinden" />
		<tag k="natural" v="hill" />
		<tag k="ssr:stedsnr" v="201186" />
	</node>
	<node id="-771966" lat="70.067399999" lon="20.6002861005">
		<tag k="fixme" v="consider natural=peak for the most distinct mountains in the district" />
		<tag k="name" v="Svarthamartinden" />
		<tag k="natural" v="hill" />
		<tag k="place" v="locality" />
		<tag k="ssr:stedsnr" v="201185" />
	</node>
	<node id="-771965" lat="70.068058336" lon="20.4479888792">
		<tag k="loc_name:se" v="Cirguriehppi" />
		<tag k="name" v="Trollhola" />
		<tag k="name:no" v="Trollhola" />
		<tag k="natural" v="valley" />
		<tag k="place" v="locality" />
		<tag k="ssr:stedsnr" v="201182" />
	</node>
	<node id="-771964" lat="70.078538889" lon="20.6926694343">
		<tag k="name" v="Smellskaret" />
		<tag k="natural" v="valley" />
		<tag k="place" v="locality" />
		<tag k="ssr:stedsnr" v="201178" />
	</node>
	<node id="-771960" lat="70.046069446" lon="20.5739888628">
		<tag k="fixme" v="consider natural=peak for the most distinct mountains in the district" />
		<tag k="loc_name:se" v="Hovvanášvárri" />
		<tag k="name" v="Langfjordfjellet" />
		<tag k="name:no" v="Langfjordfjellet" />
		<tag k="natural" v="hill" />
		<tag k="place" v="locality" />
		<tag k="ssr:stedsnr" v="201212" />
	</node>
	<node id="-771956" lat="70.0347055549" lon="20.5780110908">
		<tag k="name" v="Bergan" />
		<tag k="natural" v="hill" />
		<tag k="place" v="locality" />
		<tag k="ssr:stedsnr" v="201202" />
	</node>
	<node id="-771952" lat="70.0904833342" lon="20.4133166597">
		<tag k="fixme" v="consider natural=peak for the most distinct mountains in the district" />
		<tag k="name" v="Trolldalstinden" />
		<tag k="natural" v="hill" />
		<tag k="place" v="locality" />
		<tag k="ssr:stedsnr" v="201072" />
	</node>
	<node id="-771947" lat="70.1319861143" lon="20.5573360897">
		<tag k="alt_name" v="Kattdalen" />
		<tag k="name" v="Kappdalen" />
		<tag k="natural" v="valley" />
		<tag k="place" v="locality" />
		<tag k="ssr:stedsnr" v="201049" />
	</node>
	<node id="-771942" lat="70.0060416629" lon="20.8838583196">
		<tag k="name" v="Brenthaugan" />
		<tag k="natural" v="hill" />
		<tag k="place" v="locality" />
		<tag k="ssr:stedsnr" v="171310" />
	</node>
	<node id="-771940" lat="69.9456472271" lon="20.8835138689">
		<tag k="fixme" v="consider natural=peak for the most distinct mountains in the district" />
		<tag k="name" v="Kågfjellet" />
		<tag k="natural" v="hill" />
		<tag k="place" v="locality" />
		<tag k="ssr:stedsnr" v="171150" />
	</node>
	<node id="-771936" lat="69.9357083391" lon="20.8168916369">
		<tag k="fixme" v="consider natural=peak for the most distinct mountains in the district" />
		<tag k="name" v="Novefjellet" />
		<tag k="natural" v="hill" />
		<tag k="place" v="locality" />
		<tag k="ssr:stedsnr" v="170915" />
	</node>
	<node id="-771933" lat="69.9272083364" lon="20.846858305">
		<tag k="name" v="Torvehaugen" />
		<tag k="natural" v="hill" />
		<tag k="place" v="locality" />
		<tag k="ssr:stedsnr" v="170903" />
	</node>
	<node id="-771932" lat="70.0331527796" lon="20.5742888722">
		<tag k="name" v="Sjåbergan" />
		<tag k="natural" v="hill" />
		<tag k="place" v="locality" />
		<tag k="ssr:stedsnr" v="170841" />
	</node>
	<node id="-771931" lat="70.0913250025" lon="20.5562027652">
		<tag k="name" v="Lyngnesvollen" />
		<tag k="place" v="locality" />
		<tag k="ssr:stedsnr" v="170817" />
	</node>
	<node id="-771927" lat="70.0454333337" lon="20.683127752">
		<tag k="name" v="Loftbergan" />
		<tag k="natural" v="hill" />
		<tag k="place" v="locality" />
		<tag k="ssr:stedsnr" v="170872" />
	</node>
	<node id="-771926" lat="69.9805500054" lon="20.9924110788">
		<tag k="name" v="Bergan" />
		<tag k="natural" v="hill" />
		<tag k="place" v="locality" />
		<tag k="ssr:stedsnr" v="170868" />
	</node>
	<node id="-771925" lat="70.0408888901" lon="20.5617944387">
		<tag k="fixme" v="consider natural=peak for the most distinct mountains in the district" />
		<tag k="name" v="Faueltinden" />
		<tag k="natural" v="hill" />
		<tag k="place" v="locality" />
		<tag k="ssr:stedsnr" v="170695" />
	</node>
	<node id="-771924" lat="70.0488777791" lon="20.550019435">
		<tag k="name" v="Toftebergan" />
		<tag k="natural" v="hill" />
		<tag k="place" v="locality" />
		<tag k="ssr:stedsnr" v="170687" />
	</node>
	<node id="-771922" lat="69.9714249986" lon="20.6276360809">
		<tag k="name" v="Storskorra" />
		<tag k="natural" v="valley" />
		<tag k="place" v="locality" />
		<tag k="ssr:stedsnr" v="170605" />
	</node>
	<node id="-771921" lat="69.8895083336" lon="20.6364638679">
		<tag k="name" v="Flogan" />
		<tag k="place" v="locality" />
		<tag k="ssr:stedsnr" v="170606" />
	</node>
	<node id="-771919" lat="69.9788666716" lon="20.6443305288">
		<tag k="fixme" v="consider natural=peak for the most distinct mountains in the district" />
		<tag k="name" v="Reinfjellet" />
		<tag k="natural" v="hill" />
		<tag k="place" v="locality" />
		<tag k="ssr:stedsnr" v="170531" />
	</node>
	<node id="-771918" lat="69.9893111095" lon="20.6340722041">
		<tag k="name" v="Haugen" />
		<tag k="natural" v="hill" />
		<tag k="place" v="locality" />
		<tag k="ssr:stedsnr" v="170529" />
	</node>
	<node id="-771917" lat="69.9742361084" lon="20.6521277449">
		<tag k="name" v="Monseberget" />
		<tag k="natural" v="hill" />
		<tag k="place" v="locality" />
		<tag k="ssr:stedsnr" v="170523" />
	</node>
	<node id="-771916" lat="70.036822219" lon="20.578674987">
		<tag k="name" v="Bromlia" />
		<tag k="natural" v="slope" />
		<tag k="place" v="locality" />
		<tag k="ssr:stedsnr" v="170662" />
	</node>
	<node id="-771915" lat="70.1997861102" lon="20.5316277564">
		<tag k="name" v="Einelia" />
		<tag k="natural" v="slope" />
		<tag k="place" v="locality" />
		<tag k="ssr:stedsnr" v="170327" />
	</node>
	<node id="-771913" lat="70.1721000042" lon="20.5204972101">
		<tag k="name" v="Dollarhaugen" />
		<tag k="natural" v="hill" />
		<tag k="place" v="locality" />
		<tag k="ssr:stedsnr" v="170298" />
	</node>
	<node id="-771910" lat="69.9720277791" lon="20.8832360954">
		<tag k="fixme" v="consider natural=peak for the most distinct mountains in the district" />
		<tag k="name" v="Møllnesfjellet" />
		<tag k="natural" v="hill" />
		<tag k="place" v="locality" />
		<tag k="ssr:stedsnr" v="170292" />
	</node>
	<node id="-771909" lat="69.9792361147" lon="20.9630194225">
		<tag k="name" v="Middagshompen" />
		<tag k="natural" v="hill" />
		<tag k="place" v="locality" />
		<tag k="ssr:stedsnr" v="170286" />
	</node>
	<node id="-771907" lat="70.0528388916" lon="21.2419722087">
		<tag k="name" v="Bukkelia" />
		<tag k="natural" v="slope" />
		<tag k="place" v="locality" />
		<tag k="ssr:stedsnr" v="170255" />
	</node>
	<node id="-771906" lat="70.1655992918" lon="20.7485655592">
		<tag k="name" v="Øverdalen" />
		<tag k="natural" v="valley" />
		<tag k="place" v="locality" />
		<tag k="ssr:stedsnr" v="170245" />
	</node>
	<node id="-771905" lat="70.1802472194" lon="20.4962333248">
		<tag k="name" v="Akslan" />
		<tag k="place" v="locality" />
		<tag k="ssr:stedsnr" v="170244" />
	</node>
	<node id="-771903" lat="70.1668805596" lon="20.5401361083">
		<tag k="name" v="Svarttindfloget" />
		<tag k="natural" v="cliff" />
		<tag k="ssr:stedsnr" v="170239" />
	</node>
	<node id="-771900" lat="70.1019944454" lon="20.9240999836">
		<tag k="name" v="Novefloget" />
		<tag k="natural" v="hill" />
		<tag k="place" v="locality" />
		<tag k="ssr:stedsnr" v="170212" />
	</node>
	<node id="-771895" lat="70.1207222252" lon="20.7398694333">
		<tag k="name" v="Dalbakkan" />
		<tag k="natural" v="slope" />
		<tag k="place" v="locality" />
		<tag k="ssr:stedsnr" v="170199" />
	</node>
	<node id="-771892" lat="70.0362166689" lon="20.9810777466">
		<tag k="name" v="Strømmeberget" />
		<tag k="natural" v="hill" />
		<tag k="place" v="locality" />
		<tag k="ssr:stedsnr" v="170168" />
	</node>
	<node id="-771891" lat="70.0255444466" lon="20.9676860986">
		<tag k="fixme" v="consider natural=peak for the most distinct mountains in the district" />
		<tag k="name" v="Anna Malenafjellet" />
		<tag k="natural" v="hill" />
		<tag k="place" v="locality" />
		<tag k="ssr:stedsnr" v="170165" />
	</node>
	<node id="-771888" lat="70.0446277775" lon="20.9834860791">
		<tag k="name" v="Premiebakken" />
		<tag k="natural" v="slope" />
		<tag k="place" v="locality" />
		<tag k="ssr:stedsnr" v="170145" />
	</node>
	<node id="-771887" lat="70.0895694469" lon="20.8007222135">
		<tag k="name" v="Bjørndalen" />
		<tag k="natural" v="valley" />
		<tag k="place" v="locality" />
		<tag k="ssr:stedsnr" v="170053" />
	</node>
	<node id="-771884" lat="70.0472499961" lon="20.6051166497">
		<tag k="name" v="Sør-Kjedalskulen" />
		<tag k="natural" v="hill" />
		<tag k="place" v="locality" />
		<tag k="ssr:stedsnr" v="169666" />
	</node>
	<node id="-771878" lat="70.0681277798" lon="20.5154583208">
		<tag k="name" v="Storlia" />
		<tag k="natural" v="slope" />
		<tag k="place" v="locality" />
		<tag k="ssr:stedsnr" v="169099" />
	</node>
	<node id="-771876" lat="70.0555194456" lon="20.784605523">
		<tag k="name" v="Singelaksla" />
		<tag k="place" v="locality" />
		<tag k="ssr:stedsnr" v="169091" />
	</node>
	<node id="-771869" lat="69.9950666695" lon="21.0029583142">
		<tag k="fixme" v="consider natural=peak for the most distinct mountains in the district" />
		<tag k="name" v="Vestbergan" />
		<tag k="natural" v="hill" />
		<tag k="place" v="locality" />
		<tag k="ssr:stedsnr" v="170366" />
	</node>
	<node id="-771868" lat="70.004827781" lon="21.0372083153">
		<tag k="name" v="Kaggeberget" />
		<tag k="natural" v="hill" />
		<tag k="place" v="locality" />
		<tag k="ssr:stedsnr" v="170354" />
	</node>
	<node id="-771844" lat="69.9534444469" lon="20.9354194106">
		<tag k="fixme" v="consider natural=peak for the most distinct mountains in the district" />
		<tag k="name" v="Skognestinden" />
		<tag k="natural" v="hill" />
		<tag k="place" v="locality" />
		<tag k="ssr:stedsnr" v="140560" />
	</node>
	<node id="-771835" lat="70.0900805531" lon="20.8862249685">
		<tag k="fixme" v="consider natural=peak for the most distinct mountains in the district" />
		<tag k="name" v="Ramnbergtinden" />
		<tag k="natural" v="hill" />
		<tag k="place" v="locality" />
		<tag k="ssr:stedsnr" v="140202" />
	</node>
	<node id="-771834" lat="70.0928861166" lon="20.8274805296">
		<tag k="fixme" v="consider natural=peak for the most distinct mountains in the district" />
		<tag k="name" v="Langnestinden" />
		<tag k="natural" v="hill" />
		<tag k="place" v="locality" />
		<tag k="ssr:stedsnr" v="140197" />
	</node>
	<node id="-771833" lat="70.06186111" lon="20.462763875">
		<tag k="name" v="Bjørnbåsen" />
		<tag k="natural" v="valley" />
		<tag k="place" v="locality" />
		<tag k="ssr:stedsnr" v="140185" />
	</node>
	<node id="-771830" lat="70.1409166716" lon="20.7168722032">
		<tag k="fixme" v="consider natural=peak for the most distinct mountains in the district" />
		<tag k="name" v="Laukslettinden" />
		<tag k="natural" v="hill" />
		<tag k="place" v="locality" />
		<tag k="ssr:stedsnr" v="140051" />
	</node>
	<node id="-771824" lat="70.1764055533" lon="20.73768888">
		<tag k="fixme" v="consider natural=peak for the most distinct mountains in the district" />
		<tag k="name" v="Slettfjellvarden" />
		<tag k="natural" v="hill" />
		<tag k="place" v="locality" />
		<tag k="ssr:stedsnr" v="140022" />
	</node>
	<node id="-771821" lat="70.0060055543" lon="20.7487471907">
		<tag k="name" v="Nymodalen" />
		<tag k="natural" v="valley" />
		<tag k="place" v="locality" />
		<tag k="ssr:stedsnr" v="140127" />
	</node>
	<node id="-771820" lat="70.0555805578" lon="20.5671833125">
		<tag k="fixme" v="consider natural=peak for the most distinct mountains in the district" />
		<tag k="name" v="Lillefjellet" />
		<tag k="natural" v="hill" />
		<tag k="place" v="locality" />
		<tag k="ssr:stedsnr" v="110697" />
	</node>
	<node id="-771819" lat="70.0371444486" lon="20.589719422">
		<tag k="name" v="Kråkebergan" />
		<tag k="natural" v="hill" />
		<tag k="place" v="locality" />
		<tag k="ssr:stedsnr" v="110689" />
	</node>
	<node id="-771818" lat="70.0425944445" lon="20.621191656">
		<tag k="name" v="Grindvollan" />
		<tag k="place" v="locality" />
		<tag k="ssr:stedsnr" v="110663" />
	</node>
	<node id="-771817" lat="69.9476055525" lon="20.6664999887">
		<tag k="name" v="Bøtthaugbakken" />
		<tag k="natural" v="slope" />
		<tag k="place" v="locality" />
		<tag k="ssr:stedsnr" v="110596" />
	</node>
	<node id="-771816" lat="69.9800666698" lon="20.6441527523">
		<tag k="name" v="Langnesdalen" />
		<tag k="natural" v="valley" />
		<tag k="place" v="locality" />
		<tag k="ssr:stedsnr" v="110565" />
	</node>
	<node id="-771815" lat="69.9729805539" lon="20.6384666527">
		<tag k="name" v="Gaskaland" />
		<tag k="natural" v="slope" />
		<tag k="place" v="locality" />
		<tag k="ssr:stedsnr" v="110558" />
	</node>
	<node id="-771814" lat="69.9801444427" lon="20.6375583237">
		<tag k="name" v="Jongariidi" />
		<tag k="name:se" v="Jongariidi" />
		<tag k="place" v="locality" />
		<tag k="ssr:stedsnr" v="110556" />
	</node>
	<node id="-771810" lat="69.9478027745" lon="20.9472638599">
		<tag k="name" v="Permarjaplassen" />
		<tag k="natural" v="slope" />
		<tag k="place" v="locality" />
		<tag k="ssr:stedsnr" v="110325" />
	</node>
	<node id="-771808" lat="70.1903083347" lon="20.4922611019">
		<tag k="name" v="Storbolgerhaugen" />
		<tag k="natural" v="hill" />
		<tag k="place" v="locality" />
		<tag k="ssr:stedsnr" v="110320" />
	</node>
	<node id="-771807" lat="70.1956666718" lon="20.5346027547">
		<tag k="name" v="Beritlia" />
		<tag k="natural" v="slope" />
		<tag k="place" v="locality" />
		<tag k="ssr:stedsnr" v="110315" />
	</node>
	<node id="-771806" lat="70.0100083358" lon="20.9541333145">
		<tag k="name" v="Doaŋgeroggi" />
		<tag k="name:se" v="Doaŋgeroggi" />
		<tag k="natural" v="valley" />
		<tag k="place" v="locality" />
		<tag k="ssr:stedsnr" v="110311" />
	</node>
	<node id="-771805" lat="70.2030361126" lon="20.5262083072">
		<tag k="name" v="Grønnbakken" />
		<tag k="natural" v="slope" />
		<tag k="place" v="locality" />
		<tag k="ssr:stedsnr" v="110301" />
	</node>
	<node id="-771803" lat="70.2106638861" lon="20.5395833031">
		<tag k="fixme" v="consider natural=peak for the most distinct mountains in the district" />
		<tag k="name" v="Storfjellet" />
		<tag k="natural" v="hill" />
		<tag k="place" v="locality" />
		<tag k="ssr:stedsnr" v="110261" />
	</node>
	<node id="-771801" lat="70.0201722216" lon="21.0864055305">
		<tag k="name" v="Skarvberget" />
		<tag k="natural" v="hill" />
		<tag k="place" v="locality" />
		<tag k="ssr:stedsnr" v="110196" />
	</node>
	<node id="-771795" lat="70.0524138905" lon="20.7899694256">
		<tag k="name" v="Øverbakken" />
		<tag k="natural" v="slope" />
		<tag k="place" v="locality" />
		<tag k="ssr:stedsnr" v="110085" />
	</node>
	<node id="-771794" lat="70.0907249987" lon="20.4648305257">
		<tag k="name" v="Gamhaugan" />
		<tag k="natural" v="hill" />
		<tag k="place" v="locality" />
		<tag k="ssr:stedsnr" v="110006" />
	</node>
	<node id="-771793" lat="70.0595722186" lon="20.4000277586">
		<tag k="name" v="Nakken" />
		<tag k="natural" v="hill" />
		<tag k="place" v="locality" />
		<tag k="ssr:stedsnr" v="109978" />
	</node>
	<node id="-771790" lat="70.0739694477" lon="20.387413865">
		<tag k="name" v="Øverloftet" />
		<tag k="natural" v="slope" />
		<tag k="place" v="locality" />
		<tag k="ssr:stedsnr" v="109876" />
	</node>
	<node id="-771789" lat="70.0375499981" lon="20.5394499715">
		<tag k="name" v="Hollberget" />
		<tag k="natural" v="hill" />
		<tag k="place" v="locality" />
		<tag k="ssr:stedsnr" v="109875" />
	</node>
	<node id="-771787" lat="70.0541472227" lon="20.4303388692">
		<tag k="name" v="Brudesløret" />
		<tag k="natural" v="cliff" />
		<tag k="ssr:stedsnr" v="109873" />
	</node>
	<node id="-771786" lat="70.0471805597" lon="20.4590722088">
		<tag k="name" v="Storberget" />
		<tag k="natural" v="hill" />
		<tag k="place" v="locality" />
		<tag k="ssr:stedsnr" v="109866" />
	</node>
	<node id="-771785" lat="70.0478749977" lon="20.4574249764">
		<tag k="name" v="Kulia" />
		<tag k="natural" v="slope" />
		<tag k="place" v="locality" />
		<tag k="ssr:stedsnr" v="109864" />
	</node>
	<node id="-771784" lat="70.0353527795" lon="20.5497333056">
		<tag k="name" v="Kjelberget" />
		<tag k="natural" v="hill" />
		<tag k="place" v="locality" />
		<tag k="ssr:stedsnr" v="109835" />
	</node>
	<node id="-771783" lat="70.0538361099" lon="20.6590194247">
		<tag k="name" v="Tyttebærlia" />
		<tag k="natural" v="slope" />
		<tag k="place" v="locality" />
		<tag k="ssr:stedsnr" v="109829" />
	</node>
	<node id="-771781" lat="69.9729249997" lon="20.9704360993">
		<tag k="name" v="Bjørndalen" />
		<tag k="natural" v="valley" />
		<tag k="place" v="locality" />
		<tag k="ssr:stedsnr" v="109808" />
	</node>
	<node id="-771779" lat="70.0700638892" lon="20.6063916621">
		<tag k="fixme" v="consider natural=peak for the most distinct mountains in the district" />
		<tag k="name" v="Spisstinden" />
		<tag k="natural" v="hill" />
		<tag k="place" v="locality" />
		<tag k="ssr:stedsnr" v="109742" />
	</node>
	<node id="-771778" lat="70.0680416708" lon="20.6375499847">
		<tag k="name" v="Holmenkollen" />
		<tag k="natural" v="hill" />
		<tag k="place" v="locality" />
		<tag k="ssr:stedsnr" v="109738" />
	</node>
	<node id="-771774" lat="70.092197225" lon="20.668283311">
		<tag k="name" v="Rødsanddalen" />
		<tag k="natural" v="valley" />
		<tag k="place" v="locality" />
		<tag k="ssr:stedsnr" v="109718" />
	</node>
	<node id="-771773" lat="70.0495555563" lon="20.6145249786">
		<tag k="name" v="Brenta" />
		<tag k="natural" v="slope" />
		<tag k="place" v="locality" />
		<tag k="ssr:stedsnr" v="109639" />
	</node>
	<node id="-771771" lat="69.9031555571" lon="20.6629055441">
		<tag k="name" v="Hollberget" />
		<tag k="natural" v="hill" />
		<tag k="place" v="locality" />
		<tag k="ssr:stedsnr" v="109538" />
	</node>
	<node id="-771769" lat="69.9409777768" lon="20.6475610985">
		<tag k="name" v="Lilleelvedalen" />
		<tag k="natural" v="valley" />
		<tag k="place" v="locality" />
		<tag k="ssr:stedsnr" v="109511" />
	</node>
	<node id="-771768" lat="70.1986750025" lon="20.6851944165">
		<tag k="name" v="Haugan" />
		<tag k="natural" v="hill" />
		<tag k="place" v="locality" />
		<tag k="ssr:stedsnr" v="109919" />
	</node>
	<node id="-771764" lat="69.9853777785" lon="20.964605543">
		<tag k="name" v="Kvalbergan" />
		<tag k="natural" v="hill" />
		<tag k="place" v="locality" />
		<tag k="ssr:stedsnr" v="109250" />
	</node>
	<node id="-771763" lat="69.9835305534" lon="20.9586916519">
		<tag k="name" v="Småbergan" />
		<tag k="natural" v="hill" />
		<tag k="place" v="locality" />
		<tag k="ssr:stedsnr" v="109245" />
	</node>
	<node id="-771756" lat="70.0585277819" lon="20.992722189">
		<tag k="name" v="Smihaugen" />
		<tag k="natural" v="hill" />
		<tag k="place" v="locality" />
		<tag k="ssr:stedsnr" v="109187" />
	</node>
	<node id="-771750" lat="70.0391749972" lon="20.9948805393">
		<tag k="fixme" v="consider natural=peak for the most distinct mountains in the district" />
		<tag k="name" v="Fiskenesfjellet" />
		<tag k="natural" v="hill" />
		<tag k="place" v="locality" />
		<tag k="ssr:stedsnr" v="109137" />
	</node>
	<node id="-771749" lat="70.0699583318" lon="20.5219083133">
		<tag k="name" v="Bukkelian" />
		<tag k="natural" v="slope" />
		<tag k="place" v="locality" />
		<tag k="ssr:stedsnr" v="109115" />
	</node>
	<node id="-771736" lat="70.1441749984" lon="20.7673527702">
		<tag k="name" v="Halsen" />
		<tag k="natural" v="valley" />
		<tag k="place" v="locality" />
		<tag k="ssr:stedsnr" v="90273" />
	</node>
	<node id="-771733" lat="70.2141944458" lon="21.1885166321">
		<tag k="name" v="Skarveberget" />
		<tag k="natural" v="hill" />
		<tag k="place" v="locality" />
		<tag k="ssr:stedsnr" v="90022" />
	</node>
	<node id="-771716" lat="70.0391388905" lon="21.233677764">
		<tag k="fixme" v="consider natural=peak for the most distinct mountains in the district" />
		<tag k="name" v="Haukøyfjellet" />
		<tag k="natural" v="hill" />
		<tag k="place" v="locality" />
		<tag k="ssr:stedsnr" v="80331" />
	</node>
	<node id="-771713" lat="70.0874222222" lon="20.6475499732">
		<tag k="loc_name:se" v="Rudnesvuonvággi" />
		<tag k="name" v="Grunnfjorddalen" />
		<tag k="name:no" v="Grunnfjorddalen" />
		<tag k="natural" v="valley" />
		<tag k="place" v="locality" />
		<tag k="ssr:stedsnr" v="80214" />
	</node>
	<node id="-771712" lat="70.0781222219" lon="20.8521360824">
		<tag k="fixme" v="consider natural=peak for the most distinct mountains in the district" />
		<tag k="name" v="Nikkebytinden" />
		<tag k="natural" v="hill" />
		<tag k="place" v="locality" />
		<tag k="ssr:stedsnr" v="80204" />
	</node>
	<node id="-771709" lat="70.1017277806" lon="20.3969194173">
		<tag k="fixme" v="consider natural=peak for the most distinct mountains in the district" />
		<tag k="name" v="Breiskartinden" />
		<tag k="natural" v="hill" />
		<tag k="place" v="locality" />
		<tag k="ssr:stedsnr" v="80083" />
	</node>
	<node id="-771706" lat="70.129088885" lon="20.4375472112">
		<tag k="name" v="Sør-Rekvikdalen" />
		<tag k="natural" v="valley" />
		<tag k="place" v="locality" />
		<tag k="ssr:stedsnr" v="80046" />
	</node>
	<node id="-771705" lat="70.102038893" lon="20.6046527726">
		<tag k="fixme" v="consider natural=peak for the most distinct mountains in the district" />
		<tag k="name" v="Lyngnestindan" />
		<tag k="natural" v="hill" />
		<tag k="place" v="locality" />
		<tag k="ssr:stedsnr" v="80036" />
	</node>
	<node id="-771704" lat="70.1166611147" lon="20.6423833264">
		<tag k="name" v="Isbotnen" />
		<tag k="natural" v="valley" />
		<tag k="place" v="locality" />
		<tag k="ssr:stedsnr" v="80033" />
	</node>
	<node id="-771703" lat="70.1697722191" lon="20.7245944125">
		<tag k="fixme" v="consider natural=peak for the most distinct mountains in the district" />
		<tag k="name" v="Brattfjellet" />
		<tag k="natural" v="hill" />
		<tag k="place" v="locality" />
		<tag k="ssr:stedsnr" v="80025" />
	</node>
	<node id="-771701" lat="70.1390666657" lon="20.5014027681">
		<tag k="alt_name:no" v="Høgtind" />
		<tag k="fixme" v="consider natural=peak for the most distinct mountains in the district" />
		<tag k="loc_name:se" v="Allačohkka" />
		<tag k="name" v="Høgtinden" />
		<tag k="name:no" v="Høgtinden" />
		<tag k="natural" v="hill" />
		<tag k="place" v="locality" />
		<tag k="ssr:stedsnr" v="80013" />
	</node>
	<node id="-771698" lat="70.0667555595" lon="20.7415055303">
		<tag k="fixme" v="consider natural=peak for the most distinct mountains in the district" />
		<tag k="name" v="Småtindan" />
		<tag k="natural" v="hill" />
		<tag k="place" v="locality" />
		<tag k="ssr:stedsnr" v="80258" />
	</node>
	<node id="-771694" lat="70.2322361082" lon="20.6937166388">
		<tag k="name" v="Hyllereika" />
		<tag k="natural" v="valley" />
		<tag k="place" v="locality" />
		<tag k="ssr:stedsnr" v="49937" />
	</node>
	<node id="-771692" lat="70.1881861129" lon="20.5477527643">
		<tag k="name" v="Breilia" />
		<tag k="natural" v="slope" />
		<tag k="place" v="locality" />
		<tag k="ssr:stedsnr" v="49925" />
	</node>
	<node id="-771689" lat="70.0503777814" lon="20.4787888734">
		<tag k="fixme" v="consider natural=peak for the most distinct mountains in the district" />
		<tag k="name" v="Bjørntinden" />
		<tag k="natural" v="hill" />
		<tag k="place" v="locality" />
		<tag k="ssr:stedsnr" v="49899" />
	</node>
	<node id="-771688" lat="70.0700805529" lon="20.3884472162">
		<tag k="name" v="Storhaugen" />
		<tag k="natural" v="hill" />
		<tag k="place" v="locality" />
		<tag k="ssr:stedsnr" v="49889" />
	</node>
	<node id="-771686" lat="69.9593972185" lon="20.7552138695">
		<tag k="name" v="Ryggen" />
		<tag k="natural" v="ridge" />
		<tag k="place" v="locality" />
		<tag k="ssr:stedsnr" v="49883" />
	</node>
	<node id="-771685" lat="70.0561555605" lon="20.4410527526">
		<tag k="name" v="Revhaugen" />
		<tag k="natural" v="hill" />
		<tag k="place" v="locality" />
		<tag k="ssr:stedsnr" v="49882" />
	</node>
	<node id="-771684" lat="70.0509972214" lon="20.6304666481">
		<tag k="name" v="Kjergårdsmoan" />
		<tag k="place" v="locality" />
		<tag k="ssr:stedsnr" v="49846" />
	</node>
	<node id="-771682" lat="70.0355027797" lon="20.566316661">
		<tag k="name" v="Gåshammaren" />
		<tag k="natural" v="hill" />
		<tag k="place" v="locality" />
		<tag k="ssr:stedsnr" v="49825" />
	</node>
	<node id="-771679" lat="70.0355805531" lon="20.5551083091">
		<tag k="name" v="Slatthallo" />
		<tag k="name:se" v="Slatthallo" />
		<tag k="natural" v="valley" />
		<tag k="place" v="locality" />
		<tag k="ssr:stedsnr" v="49817" />
	</node>
	<node id="-771678" lat="70.0568055546" lon="20.9917777525">
		<tag k="name" v="Sannahollet" />
		<tag k="natural" v="valley" />
		<tag k="place" v="locality" />
		<tag k="ssr:stedsnr" v="49812" />
	</node>
	<node id="-771676" lat="70.0023027811" lon="21.022769432">
		<tag k="name" v="Benken" />
		<tag k="natural" v="hill" />
		<tag k="place" v="locality" />
		<tag k="ssr:stedsnr" v="49418" />
	</node>
	<node id="-771675" lat="70.1871194486" lon="20.4904110921">
		<tag k="name" v="Bromlia" />
		<tag k="natural" v="slope" />
		<tag k="place" v="locality" />
		<tag k="ssr:stedsnr" v="49364" />
	</node>
	<node id="-771673" lat="70.2055638881" lon="20.5226055258">
		<tag k="name" v="Preikstolen" />
		<tag k="natural" v="hill" />
		<tag k="place" v="locality" />
		<tag k="ssr:stedsnr" v="49349" />
	</node>
	<node id="-771672" lat="70.1977888925" lon="20.5327027503">
		<tag k="name" v="Ograslia" />
		<tag k="natural" v="slope" />
		<tag k="place" v="locality" />
		<tag k="ssr:stedsnr" v="49345" />
	</node>
	<node id="-771667" lat="69.9749611093" lon="20.937777758">
		<tag k="name" v="Eideberget" />
		<tag k="natural" v="hill" />
		<tag k="place" v="locality" />
		<tag k="ssr:stedsnr" v="49297" />
	</node>
	<node id="-771663" lat="69.9899638948" lon="21.0554610772">
		<tag k="name" v="Sæterbergan" />
		<tag k="natural" v="hill" />
		<tag k="place" v="locality" />
		<tag k="ssr:stedsnr" v="49251" />
	</node>
	<node id="-771658" lat="70.151116669" lon="20.7683055494">
		<tag k="name" v="Skansen" />
		<tag k="natural" v="slope" />
		<tag k="place" v="locality" />
		<tag k="ssr:stedsnr" v="49186" />
	</node>
	<node id="-771655" lat="70.2207083336" lon="20.7533305453">
		<tag k="name" v="Sløkelia" />
		<tag k="natural" v="slope" />
		<tag k="place" v="locality" />
		<tag k="ssr:stedsnr" v="49164" />
	</node>
	<node id="-771654" lat="70.0530111096" lon="20.7877027653">
		<tag k="name" v="Storčorru" />
		<tag k="name:se" v="Storčorru" />
		<tag k="natural" v="hill" />
		<tag k="place" v="locality" />
		<tag k="ssr:stedsnr" v="49138" />
	</node>
	<node id="-771653" lat="70.0430638904" lon="20.7254555319">
		<tag k="name" v="Skuteberget" />
		<tag k="natural" v="hill" />
		<tag k="place" v="locality" />
		<tag k="ssr:stedsnr" v="49134" />
	</node>
	<node id="-771652" lat="70.0452055593" lon="20.7252972081">
		<tag k="name" v="Haugdalen" />
		<tag k="natural" v="valley" />
		<tag k="place" v="locality" />
		<tag k="ssr:stedsnr" v="49133" />
	</node>
	<node id="-771651" lat="70.0783888877" lon="20.8190805449">
		<tag k="name" v="Elvenesdalen" />
		<tag k="natural" v="valley" />
		<tag k="place" v="locality" />
		<tag k="ssr:stedsnr" v="49074" />
	</node>
	<node id="-771650" lat="70.0731861118" lon="20.7653610823">
		<tag k="name" v="Aksla" />
		<tag k="place" v="locality" />
		<tag k="ssr:stedsnr" v="49049" />
	</node>
	<node id="-771648" lat="70.0725055568" lon="20.8709999727">
		<tag k="name" v="Sandbakkskorra" />
		<tag k="natural" v="valley" />
		<tag k="place" v="locality" />
		<tag k="ssr:stedsnr" v="49036" />
	</node>
	<node id="-771645" lat="70.0795555547" lon="20.7468805316">
		<tag k="name" v="Middagstinden" />
		<tag k="natural" v="hill" />
		<tag k="place" v="locality" />
		<tag k="ssr:stedsnr" v="49005" />
	</node>
	<node id="-771643" lat="70.071569444" lon="20.3736027598">
		<tag k="loc_name" v="Sotneshumpen" />
		<tag k="name" v="Sotneshompen" />
		<tag k="natural" v="hill" />
		<tag k="place" v="locality" />
		<tag k="ssr:stedsnr" v="48964" />
	</node>
	<node id="-771641" lat="70.0590194459" lon="20.6108555424">
		<tag k="name" v="Inner-Kjedalen" />
		<tag k="natural" v="valley" />
		<tag k="place" v="locality" />
		<tag k="ssr:stedsnr" v="48765" />
	</node>
	<node id="-771639" lat="70.0882222231" lon="20.6309361044">
		<tag k="name" v="Gamhaugan" />
		<tag k="natural" v="hill" />
		<tag k="place" v="locality" />
		<tag k="ssr:stedsnr" v="48749" />
	</node>
	<node id="-771638" lat="70.0552444477" lon="20.6279472">
		<tag k="name" v="Storbakken" />
		<tag k="natural" v="slope" />
		<tag k="place" v="locality" />
		<tag k="ssr:stedsnr" v="48652" />
	</node>
	<node id="-771636" lat="69.9453666659" lon="20.6505194342">
		<tag k="fixme" v="consider natural=peak for the most distinct mountains in the district" />
		<tag k="name" v="Trollvasshøgda" />
		<tag k="natural" v="hill" />
		<tag k="place" v="locality" />
		<tag k="ssr:stedsnr" v="48513" />
	</node>
	<node id="-771634" lat="69.8683805589" lon="20.6413333254">
		<tag k="name" v="Veddalen" />
		<tag k="natural" v="valley" />
		<tag k="place" v="locality" />
		<tag k="ssr:stedsnr" v="48313" />
	</node>
	<node id="-771630" lat="69.9632277775" lon="20.9611638701">
		<tag k="name" v="Torvhatten" />
		<tag k="natural" v="hill" />
		<tag k="place" v="locality" />
		<tag k="ssr:stedsnr" v="45874" />
	</node>
	<node id="-771627" lat="70.031677779" lon="21.2197666322">
		<tag k="name" v="Storbakken" />
		<tag k="natural" v="slope" />
		<tag k="place" v="locality" />
		<tag k="ssr:stedsnr" v="29650" />
	</node>
	<node id="-771615" lat="70.1307305517" lon="20.3815944325">
		<tag k="name" v="Holberget" />
		<tag k="natural" v="hill" />
		<tag k="place" v="locality" />
		<tag k="ssr:stedsnr" v="20482" />
	</node>
	<node id="-771594" lat="70.0449416719" lon="20.7275860862">
		<tag k="name" v="Haugen" />
		<tag k="natural" v="hill" />
		<tag k="place" v="locality" />
		<tag k="ssr:stedsnr" v="19213" />
	</node>
	<node id="-771588" lat="70.2014888907" lon="20.8073527643">
		<tag k="name" v="Faulberget" />
		<tag k="natural" v="hill" />
		<tag k="place" v="locality" />
		<tag k="ssr:stedsnr" v="19094" />
	</node>
	<node id="-771587" lat="70.2216527824" lon="20.7416694269">
		<tag k="name" v="Norddalen" />
		<tag k="natural" v="valley" />
		<tag k="place" v="locality" />
		<tag k="ssr:stedsnr" v="19087" />
	</node>
	<node id="-771586" lat="70.0707999966" lon="20.4355055384">
		<tag k="name" v="Sotnesdalen" />
		<tag k="natural" v="valley" />
		<tag k="place" v="locality" />
		<tag k="ssr:stedsnr" v="19059" />
	</node>
	<node id="-771585" lat="70.1323000002" lon="20.6154999751">
		<tag k="name" v="Skardalen" />
		<tag k="natural" v="valley" />
		<tag k="place" v="locality" />
		<tag k="ssr:stedsnr" v="19049" />
	</node>
	<node id="-771584" lat="70.1268694439" lon="20.6991749843">
		<tag k="name" v="Fossbakken" />
		<tag k="natural" v="slope" />
		<tag k="place" v="locality" />
		<tag k="ssr:stedsnr" v="19046" />
	</node>
	<node id="-771583" lat="70.1336999985" lon="20.6545583235">
		<tag k="name" v="Isbakken" />
		<tag k="natural" v="slope" />
		<tag k="place" v="locality" />
		<tag k="ssr:stedsnr" v="19042" />
	</node>
	<node id="-771565" lat="70.0653222233" lon="20.6493694264">
		<tag k="name" v="Gamtofta" />
		<tag k="place" v="locality" />
		<tag k="ssr:stedsnr" v="413973" />
	</node>
	<node id="-771564" lat="70.1874555589" lon="20.6688972114">
		<tag k="fixme" v="consider natural=peak for the most distinct mountains in the district" />
		<tag k="name" v="Svarttind" />
		<tag k="natural" v="hill" />
		<tag k="place" v="locality" />
		<tag k="ssr:stedsnr" v="413938" />
	</node>
	<node id="-771562" lat="70.2294722267" lon="20.6978638734">
		<tag k="name" v="Odinreika" />
		<tag k="natural" v="hill" />
		<tag k="place" v="locality" />
		<tag k="ssr:stedsnr" v="413933" />
	</node>
	<node id="-771559" lat="70.0554444468" lon="20.4237888872">
		<tag k="name" v="Asbistfloget" />
		<tag k="natural" v="hill" />
		<tag k="place" v="locality" />
		<tag k="ssr:stedsnr" v="413896" />
	</node>
	<node id="-771558" lat="70.0350916688" lon="20.5706027508">
		<tag k="name" v="Halsebakken" />
		<tag k="natural" v="slope" />
		<tag k="place" v="locality" />
		<tag k="ssr:stedsnr" v="413877" />
	</node>
	<node id="-771557" lat="70.0574666708" lon="20.6592222082">
		<tag k="name" v="Grindfaren" />
		<tag k="natural" v="slope" />
		<tag k="place" v="locality" />
		<tag k="ssr:stedsnr" v="413875" />
	</node>
	<node id="-771555" lat="70.0478861133" lon="20.6967444148">
		<tag k="name" v="Dalbakken" />
		<tag k="natural" v="slope" />
		<tag k="place" v="locality" />
		<tag k="ssr:stedsnr" v="413863" />
	</node>
	<node id="-771549" lat="70.054849997" lon="20.9728916352">
		<tag k="name" v="Langlia" />
		<tag k="natural" v="slope" />
		<tag k="place" v="locality" />
		<tag k="ssr:stedsnr" v="413825" />
	</node>
	<node id="-771548" lat="70.0798444472" lon="20.5775138682">
		<tag k="name" v="Storlia" />
		<tag k="natural" v="slope" />
		<tag k="place" v="locality" />
		<tag k="ssr:stedsnr" v="413809" />
	</node>
	<node id="-771547" lat="70.0634805539" lon="20.6136888647">
		<tag k="fixme" v="consider natural=peak for the most distinct mountains in the district" />
		<tag k="name" v="Svarthammaren" />
		<tag k="natural" v="hill" />
		<tag k="place" v="locality" />
		<tag k="ssr:stedsnr" v="413786" />
	</node>
	<node id="-771545" lat="70.0363527783" lon="20.558555533">
		<tag k="name" v="Einehaugen" />
		<tag k="natural" v="hill" />
		<tag k="place" v="locality" />
		<tag k="ssr:stedsnr" v="413705" />
	</node>
	<node id="-771544" lat="70.0508916691" lon="20.556672199">
		<tag k="name" v="Bjørnholla" />
		<tag k="natural" v="valley" />
		<tag k="place" v="locality" />
		<tag k="ssr:stedsnr" v="413697" />
	</node>
	<node id="-771543" lat="70.0430138905" lon="20.615986107">
		<tag k="name" v="Lilleberget" />
		<tag k="natural" v="hill" />
		<tag k="place" v="locality" />
		<tag k="ssr:stedsnr" v="413689" />
	</node>
	<node id="-771540" lat="69.9711444442" lon="20.9560999778">
		<tag k="name" v="Kobbepollsletta" />
		<tag k="place" v="locality" />
		<tag k="ssr:stedsnr" v="899163" />
	</node>
	<node id="-771539" lat="70.1495583337" lon="20.763599982">
		<tag k="name" v="Langryggen" />
		<tag k="natural" v="ridge" />
		<tag k="place" v="locality" />
		<tag k="ssr:stedsnr" v="899156" />
	</node>
	<node id="-771537" lat="70.0510277748" lon="20.7718360938">
		<tag k="name" v="Blomsterlia" />
		<tag k="natural" v="slope" />
		<tag k="place" v="locality" />
		<tag k="ssr:stedsnr" v="899107" />
	</node>
	<node id="-771535" lat="70.10469167" lon="20.5686611056">
		<tag k="name" v="Lyngnesdalen" />
		<tag k="natural" v="valley" />
		<tag k="place" v="locality" />
		<tag k="ssr:stedsnr" v="898974" />
	</node>
	<node id="-771533" lat="70.1357777764" lon="20.5454944149">
		<tag k="name" v="Finnvollan" />
		<tag k="place" v="locality" />
		<tag k="ssr:stedsnr" v="898969" />
	</node>
	<node id="-771532" lat="70.2293388918" lon="20.6130999952">
		<tag k="name" v="Hompan" />
		<tag k="natural" v="hill" />
		<tag k="place" v="locality" />
		<tag k="ssr:stedsnr" v="898926" />
	</node>
	<node id="-771531" lat="70.159761108" lon="20.5546833116">
		<tag k="name" v="Svarttindaksla" />
		<tag k="place" v="locality" />
		<tag k="ssr:stedsnr" v="898918" />
	</node>
	<node id="-771529" lat="70.1806111134" lon="20.5485249735">
		<tag k="name" v="Bjørnbåsen" />
		<tag k="natural" v="hill" />
		<tag k="place" v="locality" />
		<tag k="ssr:stedsnr" v="898914" />
	</node>
	<node id="-771527" lat="70.0487527815" lon="20.472527758">
		<tag k="fixme" v="consider natural=peak for the most distinct mountains in the district" />
		<tag k="name" v="Bjørnsteinfjellet" />
		<tag k="natural" v="hill" />
		<tag k="place" v="locality" />
		<tag k="ssr:stedsnr" v="898899" />
	</node>
	<node id="-771525" lat="70.0798888923" lon="20.3930249898">
		<tag k="name" v="Rødmannsdalen" />
		<tag k="natural" v="valley" />
		<tag k="place" v="locality" />
		<tag k="ssr:stedsnr" v="898889" />
	</node>
	<node id="-771524" lat="69.9233249964" lon="20.845633319">
		<tag k="name" v="Rundberget" />
		<tag k="natural" v="hill" />
		<tag k="place" v="locality" />
		<tag k="ssr:stedsnr" v="898881" />
	</node>
	<node id="-771523" lat="70.0452777825" lon="20.708466641">
		<tag k="name" v="Gråbergan" />
		<tag k="natural" v="hill" />
		<tag k="place" v="locality" />
		<tag k="ssr:stedsnr" v="898866" />
	</node>
	<node id="-771522" lat="70.0943777787" lon="20.5541110888">
		<tag k="name" v="Lyngnesbakken" />
		<tag k="natural" v="slope" />
		<tag k="place" v="locality" />
		<tag k="ssr:stedsnr" v="898798" />
	</node>
	<node id="-771521" lat="70.0504055581" lon="20.6174249801">
		<tag k="name" v="Grønnlia" />
		<tag k="natural" v="slope" />
		<tag k="place" v="locality" />
		<tag k="ssr:stedsnr" v="898681" />
	</node>
	<node id="-771520" lat="69.8941027779" lon="20.6004388671">
		<tag k="name" v="Lávkaroggi" />
		<tag k="name:se" v="Lávkaroggi" />
		<tag k="natural" v="valley" />
		<tag k="place" v="locality" />
		<tag k="ssr:stedsnr" v="898577" />
	</node>
	<node id="-771519" lat="69.9680250039" lon="20.6584305274">
		<tag k="name" v="Gammelværskaret" />
		<tag k="natural" v="valley" />
		<tag k="place" v="locality" />
		<tag k="ssr:stedsnr" v="898554" />
	</node>
	<node id="-771518" lat="69.986194447" lon="20.968713867">
		<tag k="name" v="Småkvalbergan" />
		<tag k="natural" v="hill" />
		<tag k="place" v="locality" />
		<tag k="ssr:stedsnr" v="898548" />
	</node>
	<node id="-771517" lat="69.9425222187" lon="20.6676777646">
		<tag k="name" v="Haugen" />
		<tag k="natural" v="hill" />
		<tag k="place" v="locality" />
		<tag k="ssr:stedsnr" v="898545" />
	</node>
	<node id="-771513" lat="69.8649083327" lon="20.6583638765">
		<tag k="name" v="Skarbakken" />
		<tag k="natural" v="slope" />
		<tag k="place" v="locality" />
		<tag k="ssr:stedsnr" v="898320" />
	</node>
	<node id="-771510" lat="70.2013749974" lon="20.5292638777">
		<tag k="name" v="Baklia" />
		<tag k="natural" v="slope" />
		<tag k="place" v="locality" />
		<tag k="ssr:stedsnr" v="898295" />
	</node>
	<node id="-771509" lat="69.9869138911" lon="20.8984944259">
		<tag k="name" v="Storhylla" />
		<tag k="place" v="locality" />
		<tag k="ssr:stedsnr" v="898256" />
	</node>
	<node id="-771506" lat="70.1858388879" lon="20.4820610834">
		<tag k="name" v="Nilsbakk" />
		<tag k="natural" v="slope" />
		<tag k="place" v="locality" />
		<tag k="ssr:stedsnr" v="898221" />
	</node>
	<node id="-771503" lat="70.1281722263" lon="20.7452860979">
		<tag k="name" v="Urbakken" />
		<tag k="natural" v="slope" />
		<tag k="place" v="locality" />
		<tag k="ssr:stedsnr" v="898200" />
	</node>
	<node id="-771497" lat="70.0595222239" lon="20.9784555274">
		<tag k="name" v="Laen" />
		<tag k="natural" v="hill" />
		<tag k="place" v="locality" />
		<tag k="ssr:stedsnr" v="898178" />
	</node>
	<node id="-771494" lat="70.025030556" lon="20.9578749732">
		<tag k="fixme" v="consider natural=peak for the most distinct mountains in the district" />
		<tag k="name" v="Urfjellet" />
		<tag k="natural" v="hill" />
		<tag k="place" v="locality" />
		<tag k="ssr:stedsnr" v="898150" />
	</node>
	<node id="-771491" lat="70.1492972206" lon="20.7492221974">
		<tag k="name" v="Storhammaren" />
		<tag k="natural" v="hill" />
		<tag k="place" v="locality" />
		<tag k="ssr:stedsnr" v="898143" />
	</node>
	<node id="-771490" lat="70.0652750008" lon="20.5217277673">
		<tag k="name" v="Kjerkenesaksla" />
		<tag k="place" v="locality" />
		<tag k="ssr:stedsnr" v="898098" />
	</node>
	<node id="-771487" lat="70.0655444487" lon="20.8448944134">
		<tag k="name" v="Notberget" />
		<tag k="natural" v="hill" />
		<tag k="place" v="locality" />
		<tag k="ssr:stedsnr" v="898028" />
	</node>
	<node id="-771486" lat="70.0932444473" lon="20.7200833143">
		<tag k="fixme" v="consider natural=peak for the most distinct mountains in the district" />
		<tag k="name" v="Lillefjellet" />
		<tag k="natural" v="hill" />
		<tag k="place" v="locality" />
		<tag k="ssr:stedsnr" v="898005" />
	</node>
	<node id="-771485" lat="70.0370555571" lon="21.2687694309">
		<tag k="name" v="Balsaskaret" />
		<tag k="natural" v="valley" />
		<tag k="place" v="locality" />
		<tag k="ssr:stedsnr" v="899232" />
	</node>
	<node id="-771477" lat="70.0350361117" lon="20.5594749752">
		<tag k="name" v="Speielen" />
		<tag k="natural" v="hill" />
		<tag k="place" v="locality" />
		<tag k="ssr:stedsnr" v="474825" />
	</node>
	<node id="-771475" lat="70.0359194444" lon="20.5542610886">
		<tag k="name" v="Uraberreoggi" />
		<tag k="name:se" v="Uraberreoggi" />
		<tag k="natural" v="valley" />
		<tag k="place" v="locality" />
		<tag k="ssr:stedsnr" v="474819" />
	</node>
	<node id="-771474" lat="70.0394611092" lon="21.2791138519">
		<tag k="name" v="Terstaberget" />
		<tag k="natural" v="hill" />
		<tag k="place" v="locality" />
		<tag k="ssr:stedsnr" v="474228" />
	</node>
	<node id="-771473" lat="70.0180277749" lon="21.0869471952">
		<tag k="name" v="Løklia" />
		<tag k="natural" v="slope" />
		<tag k="place" v="locality" />
		<tag k="ssr:stedsnr" v="474220" />
	</node>
	<node id="-771472" lat="70.0513472209" lon="21.2506222012">
		<tag k="name" v="Skarberghaugen" />
		<tag k="natural" v="hill" />
		<tag k="place" v="locality" />
		<tag k="ssr:stedsnr" v="474215" />
	</node>
	<node id="-771470" lat="69.9928749986" lon="21.0639277498">
		<tag k="name" v="Svineryggen" />
		<tag k="natural" v="slope" />
		<tag k="place" v="locality" />
		<tag k="ssr:stedsnr" v="474206" />
	</node>
	<node id="-771467" lat="70.2228861078" lon="20.7597916513">
		<tag k="name" v="Kokberget" />
		<tag k="natural" v="hill" />
		<tag k="place" v="locality" />
		<tag k="ssr:stedsnr" v="474130" />
	</node>
	<node id="-771465" lat="70.0661333379" lon="20.4173416411">
		<tag k="name" v="Maritelvskorra" />
		<tag k="natural" v="valley" />
		<tag k="place" v="locality" />
		<tag k="ssr:stedsnr" v="473972" />
	</node>
	<node id="-771463" lat="70.1762222229" lon="20.6118999952">
		<tag k="name" v="Laksevannsbakkan" />
		<tag k="natural" v="slope" />
		<tag k="place" v="locality" />
		<tag k="ssr:stedsnr" v="473922" />
	</node>
	<node id="-771461" lat="70.0480194484" lon="20.4696860951">
		<tag k="name" v="Nufset" />
		<tag k="natural" v="slope" />
		<tag k="place" v="locality" />
		<tag k="ssr:stedsnr" v="473909" />
	</node>
	<node id="-771460" lat="70.0684861087" lon="20.3811333113">
		<tag k="name" v="Storskorra" />
		<tag k="natural" v="valley" />
		<tag k="place" v="locality" />
		<tag k="ssr:stedsnr" v="473908" />
	</node>
	<node id="-771459" lat="70.0731750008" lon="20.3834388769">
		<tag k="name" v="Lilleloftan" />
		<tag k="natural" v="slope" />
		<tag k="place" v="locality" />
		<tag k="ssr:stedsnr" v="473907" />
	</node>
	<node id="-771457" lat="70.0517444414" lon="20.4534888633">
		<tag k="name" v="Geitvikdalen" />
		<tag k="natural" v="valley" />
		<tag k="place" v="locality" />
		<tag k="ssr:stedsnr" v="473894" />
	</node>
	<node id="-771456" lat="70.0557944419" lon="20.4348388696">
		<tag k="name" v="Revreika" />
		<tag k="natural" v="valley" />
		<tag k="place" v="locality" />
		<tag k="ssr:stedsnr" v="473893" />
	</node>
	<node id="-771453" lat="70.0483583335" lon="21.0050166525">
		<tag k="name" v="Elin Kjerstinahaugen" />
		<tag k="natural" v="hill" />
		<tag k="place" v="locality" />
		<tag k="ssr:stedsnr" v="473842" />
	</node>
	<node id="-771450" lat="70.0474499997" lon="20.9701444325">
		<tag k="name" v="Bakaromnen" />
		<tag k="natural" v="cliff" />
		<tag k="ssr:stedsnr" v="473822" />
	</node>
	<node id="-771449" lat="70.0580166676" lon="20.5728610921">
		<tag k="fixme" v="consider natural=peak for the most distinct mountains in the district" />
		<tag k="name" v="Tufjellet" />
		<tag k="natural" v="hill" />
		<tag k="place" v="locality" />
		<tag k="ssr:stedsnr" v="473782" />
	</node>
	<node id="-771446" lat="70.0658277752" lon="20.5659971902">
		<tag k="name" v="Stakeromnan" />
		<tag k="natural" v="slope" />
		<tag k="place" v="locality" />
		<tag k="ssr:stedsnr" v="473757" />
	</node>
	<node id="-771444" lat="70.0378722256" lon="20.5525666482">
		<tag k="name" v="Oddedalen" />
		<tag k="natural" v="valley" />
		<tag k="place" v="locality" />
		<tag k="ssr:stedsnr" v="473685" />
	</node>
	<node id="-771443" lat="70.0524111131" lon="20.6284444195">
		<tag k="name" v="Singelsletta" />
		<tag k="place" v="locality" />
		<tag k="ssr:stedsnr" v="473680" />
	</node>
	<node id="-771442" lat="70.0477472241" lon="20.5956277503">
		<tag k="name" v="Sør-Kjedalskråa" />
		<tag k="place" v="locality" />
		<tag k="ssr:stedsnr" v="473678" />
	</node>
	<node id="-771441" lat="70.0531972232" lon="20.6066583231">
		<tag k="name" v="Kjedalsaksla" />
		<tag k="place" v="locality" />
		<tag k="ssr:stedsnr" v="473675" />
	</node>
	<node id="-771439" lat="70.0370388861" lon="20.6071722141">
		<tag k="name" v="Holtebergan" />
		<tag k="natural" v="hill" />
		<tag k="place" v="locality" />
		<tag k="ssr:stedsnr" v="473654" />
	</node>
	<node id="-771438" lat="70.050049999" lon="20.631324982">
		<tag k="name" v="Sandbakken" />
		<tag k="natural" v="slope" />
		<tag k="place" v="locality" />
		<tag k="ssr:stedsnr" v="473632" />
	</node>
	<node id="-771435" lat="69.8867916684" lon="20.5842916525">
		<tag k="name" v="Storsevigorra" />
		<tag k="natural" v="valley" />
		<tag k="place" v="locality" />
		<tag k="ssr:stedsnr" v="473597" />
	</node>
	<node id="-771434" lat="69.9686305583" lon="20.6289138622">
		<tag k="name" v="Irvien" />
		<tag k="natural" v="slope" />
		<tag k="place" v="locality" />
		<tag k="ssr:stedsnr" v="473583" />
	</node>
	<node id="-771433" lat="69.9700805608" lon="20.6494777534">
		<tag k="fixme" v="consider natural=peak for the most distinct mountains in the district" />
		<tag k="name" v="Prestfjellet" />
		<tag k="natural" v="hill" />
		<tag k="place" v="locality" />
		<tag k="ssr:stedsnr" v="473581" />
	</node>
	<node id="-771430" lat="69.972152778" lon="20.6320194391">
		<tag k="fixme" v="consider natural=peak for the most distinct mountains in the district" />
		<tag k="name" v="Trondalsfjellet" />
		<tag k="natural" v="hill" />
		<tag k="place" v="locality" />
		<tag k="ssr:stedsnr" v="473522" />
	</node>
	<node id="-771429" lat="69.9798277782" lon="20.6401805502">
		<tag k="name" v="Duorgavággi" />
		<tag k="name:se" v="Duorgavággi" />
		<tag k="natural" v="valley" />
		<tag k="place" v="locality" />
		<tag k="ssr:stedsnr" v="473516" />
	</node>
	<node id="-771428" lat="69.9763444414" lon="20.6610444304">
		<tag k="name" v="Langnesberget" />
		<tag k="natural" v="hill" />
		<tag k="place" v="locality" />
		<tag k="ssr:stedsnr" v="473515" />
	</node>
	<node id="-771427" lat="69.9102833345" lon="20.7027805374">
		<tag k="name" v="Kuberget" />
		<tag k="natural" v="hill" />
		<tag k="place" v="locality" />
		<tag k="ssr:stedsnr" v="473419" />
	</node>
	<node id="-771426" lat="70.0008305569" lon="21.0339527438">
		<tag k="name" v="Notberget" />
		<tag k="natural" v="hill" />
		<tag k="place" v="locality" />
		<tag k="ssr:stedsnr" v="473405" />
	</node>
	<node id="-771421" lat="69.8621944426" lon="20.6832888699">
		<tag k="name" v="Bakken" />
		<tag k="natural" v="slope" />
		<tag k="place" v="locality" />
		<tag k="ssr:stedsnr" v="473372" />
	</node>
	<node id="-771420" lat="70.0065749996" lon="21.0442610823">
		<tag k="name" v="Rundhaugen" />
		<tag k="natural" v="hill" />
		<tag k="place" v="locality" />
		<tag k="ssr:stedsnr" v="473362" />
	</node>
	<node id="-771415" lat="69.8662944411" lon="20.569338871">
		<tag k="name" v="Kvænnesdalen" />
		<tag k="natural" v="valley" />
		<tag k="place" v="locality" />
		<tag k="ssr:stedsnr" v="473337" />
	</node>
	<node id="-771414" lat="70.1889333316" lon="20.4942777687">
		<tag k="name" v="Lillebolgerhaugen" />
		<tag k="natural" v="hill" />
		<tag k="place" v="locality" />
		<tag k="ssr:stedsnr" v="473334" />
	</node>
	<node id="-771412" lat="70.1767500028" lon="20.5323610834">
		<tag k="name" v="Rødveita" />
		<tag k="natural" v="valley" />
		<tag k="place" v="locality" />
		<tag k="ssr:stedsnr" v="473275" />
	</node>
	<node id="-771408" lat="70.1403500052" lon="20.859711082">
		<tag k="name" v="Omnebergan" />
		<tag k="natural" v="hill" />
		<tag k="place" v="locality" />
		<tag k="ssr:stedsnr" v="473231" />
	</node>
	<node id="-771405" lat="70.0123722209" lon="21.0822582965">
		<tag k="name" v="Teistebergan" />
		<tag k="natural" v="hill" />
		<tag k="place" v="locality" />
		<tag k="ssr:stedsnr" v="473218" />
	</node>
	<node id="-771402" lat="69.9513416683" lon="20.6167027631">
		<tag k="name" v="Petrikaberget" />
		<tag k="natural" v="hill" />
		<tag k="place" v="locality" />
		<tag k="ssr:stedsnr" v="413610" />
	</node>
	<node id="-771401" lat="70.0305888874" lon="20.9518833154">
		<tag k="name" v="Høgda" />
		<tag k="natural" v="hill" />
		<tag k="place" v="locality" />
		<tag k="ssr:stedsnr" v="473166" />
	</node>
	<node id="-771400" lat="70.1595194441" lon="20.7697166389">
		<tag k="name" v="Tareneslia" />
		<tag k="natural" v="slope" />
		<tag k="place" v="locality" />
		<tag k="ssr:stedsnr" v="473165" />
	</node>
	<node id="-771398" lat="69.9378527737" lon="20.6551110962">
		<tag k="name" v="Brattberget" />
		<tag k="natural" v="hill" />
		<tag k="place" v="locality" />
		<tag k="ssr:stedsnr" v="413578" />
	</node>
	<node id="-771397" lat="69.9875777784" lon="20.646486085">
		<tag k="name" v="Gammelstøberget" />
		<tag k="natural" v="hill" />
		<tag k="place" v="locality" />
		<tag k="ssr:stedsnr" v="413547" />
	</node>
	<node id="-771396" lat="69.9873666683" lon="20.6440027657">
		<tag k="name" v="Lauparen" />
		<tag k="natural" v="slope" />
		<tag k="place" v="locality" />
		<tag k="ssr:stedsnr" v="413544" />
	</node>
	<node id="-771395" lat="70.0017166647" lon="21.036155542">
		<tag k="name" v="Storberget" />
		<tag k="natural" v="hill" />
		<tag k="place" v="locality" />
		<tag k="ssr:stedsnr" v="413387" />
	</node>
	<node id="-771394" lat="69.9504638888" lon="20.9496749834">
		<tag k="name" v="Jaunaplassen" />
		<tag k="place" v="locality" />
		<tag k="ssr:stedsnr" v="413374" />
	</node>
	<node id="-771393" lat="70.1913222235" lon="20.5395138746">
		<tag k="name" v="Kroklia" />
		<tag k="natural" v="slope" />
		<tag k="place" v="locality" />
		<tag k="ssr:stedsnr" v="413342" />
	</node>
	<node id="-771388" lat="69.9784777769" lon="20.9437583167">
		<tag k="name" v="Bottensletta" />
		<tag k="place" v="locality" />
		<tag k="ssr:stedsnr" v="413278" />
	</node>
	<node id="-771387" lat="69.9750027781" lon="20.9547832983">
		<tag k="name" v="Rødnakken" />
		<tag k="place" v="locality" />
		<tag k="ssr:stedsnr" v="413277" />
	</node>
	<node id="-771386" lat="70.1795916718" lon="20.5082999812">
		<tag k="name" v="Sengberget" />
		<tag k="natural" v="hill" />
		<tag k="place" v="locality" />
		<tag k="ssr:stedsnr" v="413245" />
	</node>
	<node id="-771384" lat="70.1263611112" lon="20.7391416595">
		<tag k="name" v="Svarthammaren" />
		<tag k="natural" v="hill" />
		<tag k="place" v="locality" />
		<tag k="ssr:stedsnr" v="413225" />
	</node>
	<node id="-771383" lat="70.1173500038" lon="20.8848944349">
		<tag k="name" v="Kveitvikdalen" />
		<tag k="natural" v="valley" />
		<tag k="place" v="locality" />
		<tag k="ssr:stedsnr" v="413217" />
	</node>
	<node id="-771382" lat="70.1134916698" lon="20.7834249898">
		<tag k="fixme" v="consider natural=peak for the most distinct mountains in the district" />
		<tag k="name" v="Blåhammaren" />
		<tag k="natural" v="hill" />
		<tag k="place" v="locality" />
		<tag k="ssr:stedsnr" v="413214" />
	</node>
	<node id="-771380" lat="70.0583472233" lon="20.9749360878">
		<tag k="name" v="Skaret" />
		<tag k="natural" v="valley" />
		<tag k="place" v="locality" />
		<tag k="ssr:stedsnr" v="413206" />
	</node>
	<node id="-771376" lat="70.0274861107" lon="20.9523360836">
		<tag k="fixme" v="consider natural=peak for the most distinct mountains in the district" />
		<tag k="name" v="Gjøkfjellet" />
		<tag k="natural" v="hill" />
		<tag k="place" v="locality" />
		<tag k="ssr:stedsnr" v="413160" />
	</node>
	<node id="-771375" lat="70.1625888886" lon="20.7724277572">
		<tag k="name" v="Langryggen" />
		<tag k="natural" v="ridge" />
		<tag k="place" v="locality" />
		<tag k="ssr:stedsnr" v="413159" />
	</node>
	<node id="-771373" lat="70.0400888937" lon="20.9811527557">
		<tag k="name" v="Russeleiren" />
		<tag k="place" v="locality" />
		<tag k="ssr:stedsnr" v="413146" />
	</node>
	<node id="-771368" lat="70.0613638884" lon="20.7754527515">
		<tag k="name" v="Singeldalen" />
		<tag k="natural" v="valley" />
		<tag k="place" v="locality" />
		<tag k="ssr:stedsnr" v="413043" />
	</node>
	<node id="-771367" lat="70.1421166664" lon="20.7443221902">
		<tag k="fixme" v="consider natural=peak for the most distinct mountains in the district" />
		<tag k="name" v="Lillefjellet" />
		<tag k="natural" v="hill" />
		<tag k="place" v="locality" />
		<tag k="ssr:stedsnr" v="413030" />
	</node>
	<node id="-771366" lat="70.0593555557" lon="20.464561102">
		<tag k="name" v="Rundhaugen" />
		<tag k="natural" v="hill" />
		<tag k="place" v="locality" />
		<tag k="ssr:stedsnr" v="413012" />
	</node>
	<node id="-771364" lat="69.9655361081" lon="20.655230547">
		<tag k="name" v="Storflagda" />
		<tag k="natural" v="hill" />
		<tag k="place" v="locality" />
		<tag k="ssr:stedsnr" v="412526" />
	</node>
	<node id="-771362" lat="69.8714250005" lon="20.6802610932">
		<tag k="name" v="Geitlia" />
		<tag k="natural" v="slope" />
		<tag k="place" v="locality" />
		<tag k="ssr:stedsnr" v="412318" />
	</node>
	<node id="-771361" lat="69.8747194473" lon="20.677291651">
		<tag k="name" v="Skavdalen" />
		<tag k="natural" v="valley" />
		<tag k="place" v="locality" />
		<tag k="ssr:stedsnr" v="412307" />
	</node>
	<node id="-771357" lat="70.0646861113" lon="20.4897055258">
		<tag k="name" v="Hamnebakken" />
		<tag k="natural" v="slope" />
		<tag k="place" v="locality" />
		<tag k="ssr:stedsnr" v="412082" />
	</node>
	<node id="-771341" lat="69.8426944479" lon="20.6967388796">
		<tag k="fixme" v="consider natural=peak for the most distinct mountains in the district" />
		<tag k="name" v="Skrednesfjellet" />
		<tag k="natural" v="hill" />
		<tag k="place" v="locality" />
		<tag k="ssr:stedsnr" v="383994" />
	</node>
	<node id="-771339" lat="70.1117277765" lon="20.408691642">
		<tag k="fixme" v="consider natural=peak for the most distinct mountains in the district" />
		<tag k="loc_name:se" v="Ruksesolbmágáisá" />
		<tag k="name" v="Rødbergtinden" />
		<tag k="name:no" v="Rødbergtinden" />
		<tag k="natural" v="hill" />
		<tag k="place" v="locality" />
		<tag k="ssr:stedsnr" v="383903" />
	</node>
	<node id="-771330" lat="70.0606138877" lon="20.6778805468">
		<tag k="fixme" v="consider natural=peak for the most distinct mountains in the district" />
		<tag k="name" v="Botnfjellet" />
		<tag k="natural" v="hill" />
		<tag k="place" v="locality" />
		<tag k="ssr:stedsnr" v="383271" />
	</node>
	<node id="-771328" lat="70.0494305569" lon="20.603497205">
		<tag k="name" v="Sør-Kjedalen" />
		<tag k="natural" v="valley" />
		<tag k="place" v="locality" />
		<tag k="ssr:stedsnr" v="383253" />
	</node>
	<node id="-771317" lat="70.1303555535" lon="20.4917027693">
		<tag k="fixme" v="consider natural=peak for the most distinct mountains in the district" />
		<tag k="name" v="Dalbakktinden" />
		<tag k="natural" v="hill" />
		<tag k="place" v="locality" />
		<tag k="ssr:stedsnr" v="383051" />
	</node>
	<node id="-771316" lat="70.1105055558" lon="20.6286555357">
		<tag k="fixme" v="consider natural=peak for the most distinct mountains in the district" />
		<tag k="name" v="Fosstinden" />
		<tag k="natural" v="hill" />
		<tag k="place" v="locality" />
		<tag k="ssr:stedsnr" v="383049" />
	</node>
	<node id="-771314" lat="70.1500972266" lon="20.6615583102">
		<tag k="fixme" v="consider natural=peak for the most distinct mountains in the district" />
		<tag k="name" v="Silstøaksla" />
		<tag k="natural" v="hill" />
		<tag k="place" v="locality" />
		<tag k="ssr:stedsnr" v="383019" />
	</node>
	<node id="-771313" lat="70.1380611085" lon="20.4541138656">
		<tag k="fixme" v="multiple name tags, choose one and add the other to alt_name; consider natural=peak for the most distinct mountains in the district" />
		<tag k="name" v="Klovsteinfjellet;Luten" />
		<tag k="natural" v="hill" />
		<tag k="place" v="locality" />
		<tag k="ssr:stedsnr" v="383016" />
	</node>
	<node id="-771304" lat="70.0659999979" lon="20.6970083002">
		<tag k="name" v="Oksehaugen" />
		<tag k="natural" v="hill" />
		<tag k="place" v="locality" />
		<tag k="ssr:stedsnr" v="352968" />
	</node>
	<node id="-771300" lat="70.2229416675" lon="20.5874527647">
		<tag k="name" v="Rotvågdalen" />
		<tag k="natural" v="valley" />
		<tag k="place" v="locality" />
		<tag k="ssr:stedsnr" v="352906" />
	</node>
	<node id="-771298" lat="70.0469694408" lon="20.4816055374">
		<tag k="name" v="Leirholla" />
		<tag k="natural" v="valley" />
		<tag k="place" v="locality" />
		<tag k="ssr:stedsnr" v="352883" />
	</node>
	<node id="-771296" lat="69.9302833358" lon="20.7997833065">
		<tag k="name" v="Novebergan" />
		<tag k="natural" v="hill" />
		<tag k="place" v="locality" />
		<tag k="ssr:stedsnr" v="352877" />
	</node>
	<node id="-771294" lat="70.0486916669" lon="20.4377610992">
		<tag k="name" v="Møllberget" />
		<tag k="natural" v="hill" />
		<tag k="place" v="locality" />
		<tag k="ssr:stedsnr" v="352858" />
	</node>
	<node id="-771293" lat="70.0357750014" lon="20.5502222064">
		<tag k="name" v="Oddebergan" />
		<tag k="natural" v="hill" />
		<tag k="place" v="locality" />
		<tag k="ssr:stedsnr" v="352850" />
	</node>
	<node id="-771292" lat="70.0465777745" lon="20.6865777672">
		<tag k="name" v="Preikestolen" />
		<tag k="natural" v="hill" />
		<tag k="place" v="locality" />
		<tag k="ssr:stedsnr" v="352836" />
	</node>
	<node id="-771286" lat="70.0428194425" lon="20.5479166537">
		<tag k="name" v="Teistefloget" />
		<tag k="natural" v="hill" />
		<tag k="place" v="locality" />
		<tag k="ssr:stedsnr" v="352643" />
	</node>
	<node id="-771282" lat="69.94087778" lon="20.6606249704">
		<tag k="name" v="Fjøsbakken" />
		<tag k="natural" v="slope" />
		<tag k="place" v="locality" />
		<tag k="ssr:stedsnr" v="352556" />
	</node>
	<node id="-771280" lat="69.9892055589" lon="20.6272666523">
		<tag k="name" v="Mellaberget" />
		<tag k="natural" v="hill" />
		<tag k="place" v="locality" />
		<tag k="ssr:stedsnr" v="352551" />
	</node>
	<node id="-771277" lat="69.9726305596" lon="20.6477860854">
		<tag k="name" v="Laigurra" />
		<tag k="name:se" v="Laigurra" />
		<tag k="natural" v="valley" />
		<tag k="place" v="locality" />
		<tag k="ssr:stedsnr" v="352522" />
	</node>
	<node id="-771276" lat="69.9883694461" lon="21.006283298">
		<tag k="name" v="Einehaugen" />
		<tag k="natural" v="hill" />
		<tag k="place" v="locality" />
		<tag k="ssr:stedsnr" v="352462" />
	</node>
	<node id="-771274" lat="70.0475416655" lon="20.750163878">
		<tag k="name" v="Jonnemarjasletta" />
		<tag k="place" v="locality" />
		<tag k="ssr:stedsnr" v="352351" />
	</node>
	<node id="-771273" lat="69.9767222236" lon="20.7533527552">
		<tag k="name" v="Lia" />
		<tag k="natural" v="slope" />
		<tag k="place" v="locality" />
		<tag k="ssr:stedsnr" v="352350" />
	</node>
	<node id="-771271" lat="70.0035305526" lon="21.0272249765">
		<tag k="name" v="Preikestolen" />
		<tag k="natural" v="hill" />
		<tag k="place" v="locality" />
		<tag k="ssr:stedsnr" v="352318" />
	</node>
	<node id="-771267" lat="70.1876555578" lon="20.4832861013">
		<tag k="name" v="Kvitstein" />
		<tag k="natural" v="hill" />
		<tag k="place" v="locality" />
		<tag k="ssr:stedsnr" v="352298" />
	</node>
	<node id="-771264" lat="69.985947228" lon="20.9856805251">
		<tag k="fixme" v="consider natural=peak for the most distinct mountains in the district" />
		<tag k="name" v="Brunfjellet" />
		<tag k="natural" v="hill" />
		<tag k="place" v="locality" />
		<tag k="ssr:stedsnr" v="352243" />
	</node>
	<node id="-771257" lat="70.116630553" lon="20.7385527542">
		<tag k="name" v="Ormebakkan" />
		<tag k="natural" v="slope" />
		<tag k="place" v="locality" />
		<tag k="ssr:stedsnr" v="352171" />
	</node>
	<node id="-771256" lat="70.0406833329" lon="20.9862444124">
		<tag k="name" v="Holmenkollen" />
		<tag k="natural" v="hill" />
		<tag k="place" v="locality" />
		<tag k="ssr:stedsnr" v="352133" />
	</node>
	<node id="-771249" lat="70.070094442" lon="20.8588694144">
		<tag k="fixme" v="consider natural=peak for the most distinct mountains in the district" />
		<tag k="name" v="Finnkeilfjellet" />
		<tag k="natural" v="hill" />
		<tag k="place" v="locality" />
		<tag k="ssr:stedsnr" v="352036" />
	</node>
	<node id="-771248" lat="70.1354555553" lon="20.7532388566">
		<tag k="name" v="Storbakken" />
		<tag k="natural" v="slope" />
		<tag k="place" v="locality" />
		<tag k="ssr:stedsnr" v="352030" />
	</node>
	<node id="-771247" lat="70.0533666624" lon="20.7984694302">
		<tag k="name" v="Oppsettarberget" />
		<tag k="natural" v="hill" />
		<tag k="place" v="locality" />
		<tag k="ssr:stedsnr" v="352027" />
	</node>
	<node id="-771246" lat="70.0766305527" lon="20.4649833104">
		<tag k="name" v="Urbakken" />
		<tag k="natural" v="slope" />
		<tag k="place" v="locality" />
		<tag k="ssr:stedsnr" v="352019" />
	</node>
	<node id="-771245" lat="70.1957194438" lon="20.8086110938">
		<tag k="name" v="Rødbergan" />
		<tag k="natural" v="hill" />
		<tag k="place" v="locality" />
		<tag k="ssr:stedsnr" v="353154" />
	</node>
	<node id="-771244" lat="69.8918138892" lon="20.6160166478">
		<tag k="name" v="Storvikdalen" />
		<tag k="natural" v="valley" />
		<tag k="place" v="locality" />
		<tag k="ssr:stedsnr" v="351574" />
	</node>
	<node id="-771243" lat="69.961938891" lon="20.6456388665">
		<tag k="name" v="Vitedalen" />
		<tag k="natural" v="valley" />
		<tag k="place" v="locality" />
		<tag k="ssr:stedsnr" v="351556" />
	</node>
	<node id="-771240" lat="69.9157861096" lon="20.6908805245">
		<tag k="name" v="Småbergan" />
		<tag k="natural" v="hill" />
		<tag k="place" v="locality" />
		<tag k="ssr:stedsnr" v="351355" />
	</node>
	<node id="-771239" lat="69.8540888944" lon="20.6943388632">
		<tag k="name" v="Mettenga" />
		<tag k="place" v="locality" />
		<tag k="ssr:stedsnr" v="351346" />
	</node>
	<node id="-771235" lat="70.0709916648" lon="20.4970944309">
		<tag k="name" v="Nordsida" />
		<tag k="place" v="locality" />
		<tag k="ssr:stedsnr" v="351117" />
	</node>
	<node id="-771231" lat="69.983488888" lon="21.0258888637">
		<tag k="fixme" v="multiple name tags, choose one and add the other to alt_name" />
		<tag k="name" v="Hagebergan;Hakkebergan" />
		<tag k="natural" v="hill" />
		<tag k="place" v="locality" />
		<tag k="ssr:stedsnr" v="349932" />
	</node>
	<node id="-771203" lat="70.1054361083" lon="20.4875027481">
		<tag k="fixme" v="consider natural=peak for the most distinct mountains in the district" />
		<tag k="name" v="Høgtindan" />
		<tag k="natural" v="hill" />
		<tag k="place" v="locality" />
		<tag k="ssr:stedsnr" v="323047" />
	</node>
	<node id="-771201" lat="70.160152776" lon="20.7191194289">
		<tag k="fixme" v="consider natural=peak for the most distinct mountains in the district" />
		<tag k="name" v="Rødhetta" />
		<tag k="natural" v="hill" />
		<tag k="place" v="locality" />
		<tag k="ssr:stedsnr" v="323027" />
	</node>
	<node id="-771194" lat="69.9917194471" lon="21.0342805225">
		<tag k="fixme" v="consider natural=peak for the most distinct mountains in the district" />
		<tag k="name" v="Stortua" />
		<tag k="natural" v="hill" />
		<tag k="place" v="locality" />
		<tag k="ssr:stedsnr" v="322903" />
	</node>
	<node id="-771193" lat="69.9791833362" lon="20.9628222089">
		<tag k="fixme" v="consider natural=peak for the most distinct mountains in the district" />
		<tag k="name" v="Taskebyfjellet" />
		<tag k="natural" v="hill" />
		<tag k="place" v="locality" />
		<tag k="ssr:stedsnr" v="322632" />
	</node>
	<node id="-771185" lat="69.9466333376" lon="20.8594166542">
		<tag k="fixme" v="consider natural=peak for the most distinct mountains in the district" />
		<tag k="name" v="Maursundtinden" />
		<tag k="natural" v="hill" />
		<tag k="place" v="locality" />
		<tag k="ssr:stedsnr" v="322565" />
	</node>
	<node id="-771181" lat="70.0502666703" lon="20.4790110991">
		<tag k="name" v="Oksehaugen" />
		<tag k="natural" v="hill" />
		<tag k="place" v="locality" />
		<tag k="ssr:stedsnr" v="322219" />
	</node>
	<node id="-771175" lat="70.0215583313" lon="20.9403944257">
		<tag k="fixme" v="consider natural=peak for the most distinct mountains in the district" />
		<tag k="loc_name:se" v="Goaskimčohkka" />
		<tag k="name" v="Skattørfjellet" />
		<tag k="name:no" v="Skattørfjellet" />
		<tag k="natural" v="hill" />
		<tag k="place" v="locality" />
		<tag k="ssr:stedsnr" v="322133" />
	</node>
	<node id="-771171" lat="70.0622027813" lon="20.4036555328">
		<tag k="fixme" v="consider natural=peak for the most distinct mountains in the district" />
		<tag k="name" v="Revfjellet" />
		<tag k="natural" v="hill" />
		<tag k="place" v="locality" />
		<tag k="ssr:stedsnr" v="322081" />
	</node>
	<node id="-771169" lat="70.1721250004" lon="20.474399976">
		<tag k="name" v="Rundhaugen" />
		<tag k="natural" v="hill" />
		<tag k="place" v="locality" />
		<tag k="ssr:stedsnr" v="322019" />
	</node>
	<node id="-771164" lat="69.9835250021" lon="20.6203638847">
		<tag k="name" v="Omnsholla" />
		<tag k="natural" v="hill" />
		<tag k="place" v="locality" />
		<tag k="ssr:stedsnr" v="292548" />
	</node>
	<node id="-771163" lat="69.9763444452" lon="20.6301638656">
		<tag k="name" v="Mellaberget" />
		<tag k="natural" v="hill" />
		<tag k="place" v="locality" />
		<tag k="ssr:stedsnr" v="292536" />
	</node>
	<node id="-771162" lat="70.0498250028" lon="20.5532027564">
		<tag k="name" v="Tofteryggen" />
		<tag k="natural" v="ridge" />
		<tag k="place" v="locality" />
		<tag k="ssr:stedsnr" v="292670" />
	</node>
	<node id="-771161" lat="70.0460083297" lon="20.6071083199">
		<tag k="name" v="Ørnhammaran" />
		<tag k="natural" v="hill" />
		<tag k="place" v="locality" />
		<tag k="ssr:stedsnr" v="292649" />
	</node>
	<node id="-771160" lat="70.0187138919" lon="21.0770916487">
		<tag k="name" v="Røytlia" />
		<tag k="natural" v="slope" />
		<tag k="place" v="locality" />
		<tag k="ssr:stedsnr" v="292192" />
	</node>
	<node id="-771159" lat="69.9977388883" lon="21.0531749728">
		<tag k="name" v="Skjærnesbakken" />
		<tag k="natural" v="slope" />
		<tag k="place" v="locality" />
		<tag k="ssr:stedsnr" v="292189" />
	</node>
	<node id="-771156" lat="70.0516083375" lon="20.7429138837">
		<tag k="name" v="Svartflogan" />
		<tag k="place" v="locality" />
		<tag k="ssr:stedsnr" v="292102" />
	</node>
	<node id="-771155" lat="70.0696777748" lon="20.4552805446">
		<tag k="name" v="Trolltindholla" />
		<tag k="natural" v="valley" />
		<tag k="place" v="locality" />
		<tag k="ssr:stedsnr" v="291970" />
	</node>
	<node id="-771152" lat="70.2250388855" lon="20.6997833194">
		<tag k="name" v="Skaret" />
		<tag k="natural" v="valley" />
		<tag k="place" v="locality" />
		<tag k="ssr:stedsnr" v="291923" />
	</node>
	<node id="-771149" lat="70.1726611072" lon="20.5460833267">
		<tag k="name" v="Svarttindbakken" />
		<tag k="natural" v="slope" />
		<tag k="place" v="locality" />
		<tag k="ssr:stedsnr" v="291909" />
	</node>
	<node id="-771148" lat="70.0464166689" lon="20.4646833074">
		<tag k="name" v="Slåka" />
		<tag k="natural" v="valley" />
		<tag k="place" v="locality" />
		<tag k="ssr:stedsnr" v="291905" />
	</node>
	<node id="-771146" lat="70.0526277764" lon="20.4850360921">
		<tag k="name" v="Elseskaret" />
		<tag k="natural" v="valley" />
		<tag k="place" v="locality" />
		<tag k="ssr:stedsnr" v="291901" />
	</node>
	<node id="-771145" lat="69.9305361139" lon="20.847824986">
		<tag k="name" v="Maursunddalen" />
		<tag k="natural" v="valley" />
		<tag k="place" v="locality" />
		<tag k="ssr:stedsnr" v="291889" />
	</node>
	<node id="-771142" lat="69.9261722261" lon="20.8234499713">
		<tag k="name" v="Rebekkas fryd" />
		<tag k="natural" v="hill" />
		<tag k="place" v="locality" />
		<tag k="ssr:stedsnr" v="291883" />
	</node>
	<node id="-771140" lat="70.0500583324" lon="20.6636777602">
		<tag k="name" v="Draugneslia" />
		<tag k="natural" v="slope" />
		<tag k="place" v="locality" />
		<tag k="ssr:stedsnr" v="291864" />
	</node>
	<node id="-771138" lat="70.0509055594" lon="20.6804972145">
		<tag k="name" v="Loftaksla" />
		<tag k="place" v="locality" />
		<tag k="ssr:stedsnr" v="291852" />
	</node>
	<node id="-771137" lat="69.981794441" lon="20.996283321">
		<tag k="name" v="Sjåbergan" />
		<tag k="natural" v="hill" />
		<tag k="place" v="locality" />
		<tag k="ssr:stedsnr" v="291847" />
	</node>
	<node id="-771135" lat="70.0526000033" lon="20.9958777693">
		<tag k="name" v="Torvhaugen" />
		<tag k="natural" v="hill" />
		<tag k="place" v="locality" />
		<tag k="ssr:stedsnr" v="291836" />
	</node>
	<node id="-771134" lat="70.048355555" lon="20.9695666303">
		<tag k="name" v="Mannen" />
		<tag k="natural" v="hill" />
		<tag k="place" v="locality" />
		<tag k="ssr:stedsnr" v="291818" />
	</node>
	<node id="-771133" lat="70.049691663" lon="20.9719027583">
		<tag k="name" v="Kjerringa" />
		<tag k="natural" v="slope" />
		<tag k="place" v="locality" />
		<tag k="ssr:stedsnr" v="291816" />
	</node>
	<node id="-771129" lat="70.056975005" lon="20.6155444264">
		<tag k="name" v="Inner-Kjedalsbakken" />
		<tag k="natural" v="slope" />
		<tag k="place" v="locality" />
		<tag k="ssr:stedsnr" v="291674" />
	</node>
	<node id="-771126" lat="69.903044442" lon="20.6964138551">
		<tag k="name" v="Skaret" />
		<tag k="natural" v="valley" />
		<tag k="place" v="locality" />
		<tag k="ssr:stedsnr" v="291589" />
	</node>
	<node id="-771125" lat="69.96797778" lon="20.6610999812">
		<tag k="name" v="Lilleflagda" />
		<tag k="natural" v="hill" />
		<tag k="place" v="locality" />
		<tag k="ssr:stedsnr" v="291581" />
	</node>
	<node id="-771124" lat="69.9525472197" lon="20.6668666341">
		<tag k="name" v="Bøtthaugtua" />
		<tag k="natural" v="hill" />
		<tag k="place" v="locality" />
		<tag k="ssr:stedsnr" v="291571" />
	</node>
	<node id="-771123" lat="69.998186107" lon="21.0211916508">
		<tag k="name" v="Simavågberget" />
		<tag k="natural" v="hill" />
		<tag k="place" v="locality" />
		<tag k="ssr:stedsnr" v="291396" />
	</node>
	<node id="-771119" lat="69.9985111126" lon="21.0038777479">
		<tag k="name" v="Skarvberget" />
		<tag k="natural" v="hill" />
		<tag k="place" v="locality" />
		<tag k="ssr:stedsnr" v="291373" />
	</node>
	<node id="-771118" lat="69.9175333312" lon="20.6652833028">
		<tag k="name" v="Hellarhaugen" />
		<tag k="natural" v="hill" />
		<tag k="place" v="locality" />
		<tag k="ssr:stedsnr" v="291371" />
	</node>
	<node id="-771117" lat="69.9249916669" lon="20.6727860983">
		<tag k="name" v="Sleipskorra" />
		<tag k="natural" v="valley" />
		<tag k="place" v="locality" />
		<tag k="ssr:stedsnr" v="291370" />
	</node>
	<node id="-771115" lat="69.8740583343" lon="20.6158972141">
		<tag k="name" v="Krangelhaugen" />
		<tag k="natural" v="hill" />
		<tag k="place" v="locality" />
		<tag k="ssr:stedsnr" v="291337" />
	</node>
	<node id="-771114" lat="69.8648999986" lon="20.5573416353">
		<tag k="name" v="Kirka" />
		<tag k="natural" v="hill" />
		<tag k="place" v="locality" />
		<tag k="ssr:stedsnr" v="291336" />
	</node>
	<node id="-771113" lat="70.207761108" lon="20.5200666603">
		<tag k="name" v="Novlia" />
		<tag k="natural" v="slope" />
		<tag k="place" v="locality" />
		<tag k="ssr:stedsnr" v="291318" />
	</node>
	<node id="-771111" lat="70.1636277752" lon="20.5079416551">
		<tag k="name" v="Storhaugen" />
		<tag k="natural" v="hill" />
		<tag k="place" v="locality" />
		<tag k="ssr:stedsnr" v="291292" />
	</node>
	<node id="-771110" lat="70.1493166632" lon="20.5316083145">
		<tag k="name" v="Høgtindfloget" />
		<tag k="natural" v="hill" />
		<tag k="place" v="locality" />
		<tag k="ssr:stedsnr" v="291291" />
	</node>
	<node id="-771108" lat="70.180725004" lon="20.7983110835">
		<tag k="name" v="Bjørnlia" />
		<tag k="natural" v="slope" />
		<tag k="place" v="locality" />
		<tag k="ssr:stedsnr" v="291246" />
	</node>
	<node id="-771107" lat="70.1860333314" lon="20.4969916495">
		<tag k="name" v="Skattemagen" />
		<tag k="natural" v="slope" />
		<tag k="place" v="locality" />
		<tag k="ssr:stedsnr" v="291237" />
	</node>
	<node id="-771103" lat="70.1338416703" lon="20.728024988">
		<tag k="name" v="Andreadalen" />
		<tag k="natural" v="valley" />
		<tag k="place" v="locality" />
		<tag k="ssr:stedsnr" v="291218" />
	</node>
	<node id="-771099" lat="70.1791361093" lon="20.4960249855">
		<tag k="name" v="Haugan" />
		<tag k="natural" v="hill" />
		<tag k="place" v="locality" />
		<tag k="ssr:stedsnr" v="291183" />
	</node>
	<node id="-771098" lat="70.0916527784" lon="20.9211666569">
		<tag k="name" v="Laberget" />
		<tag k="natural" v="hill" />
		<tag k="place" v="locality" />
		<tag k="ssr:stedsnr" v="291181" />
	</node>
	<node id="-771097" lat="70.1742666693" lon="20.4245194173">
		<tag k="name" v="Bergebakken" />
		<tag k="natural" v="slope" />
		<tag k="place" v="locality" />
		<tag k="ssr:stedsnr" v="291178" />
	</node>
	<node id="-771096" lat="70.0285222238" lon="20.9831305282">
		<tag k="name" v="Sandvåghaugen" />
		<tag k="natural" v="hill" />
		<tag k="place" v="locality" />
		<tag k="ssr:stedsnr" v="291168" />
	</node>
	<node id="-771095" lat="70.0285722201" lon="20.9523333073">
		<tag k="name" v="Spellemannsdalen" />
		<tag k="natural" v="valley" />
		<tag k="place" v="locality" />
		<tag k="ssr:stedsnr" v="291158" />
	</node>
	<node id="-771093" lat="70.1644750018" lon="20.7731999944">
		<tag k="name" v="Finnsletta" />
		<tag k="place" v="locality" />
		<tag k="ssr:stedsnr" v="291154" />
	</node>
	<node id="-771090" lat="70.0390416724" lon="20.9918110783">
		<tag k="name" v="Engnesdalen" />
		<tag k="natural" v="valley" />
		<tag k="place" v="locality" />
		<tag k="ssr:stedsnr" v="291140" />
	</node>
	<node id="-771089" lat="70.0036277768" lon="20.7447360852">
		<tag k="name" v="Naskardalen" />
		<tag k="natural" v="valley" />
		<tag k="place" v="locality" />
		<tag k="ssr:stedsnr" v="291112" />
	</node>
	<node id="-771083" lat="70.2159333311" lon="21.1985916388">
		<tag k="name" v="Seglvikfjellet" />
		<tag k="natural" v="hill" />
		<tag k="place" v="locality" />
		<tag k="ssr:stedsnr" v="276139" />
	</node>
	<node id="-771081" lat="70.0513861136" lon="20.9656499915">
		<tag k="name" v="Skarvberget" />
		<tag k="natural" v="hill" />
		<tag k="place" v="locality" />
		<tag k="ssr:stedsnr" v="272795" />
	</node>
	<node id="-773100" lat="69.9264638924" lon="20.8208999871">
		<tag k="name" v="Lutbergan" />
		<tag k="natural" v="hill" />
		<tag k="place" v="locality" />
		<tag k="ssr:stedsnr" v="960355" />
	</node>
	<node id="-773098" lat="69.9417666702" lon="20.9042249802">
		<tag k="name" v="Kågelvdalen" />
		<tag k="natural" v="valley" />
		<tag k="place" v="locality" />
		<tag k="ssr:stedsnr" v="960143" />
	</node>
	<node id="-773096" lat="70.1462999993" lon="20.7689666418">
		<tag k="name" v="Nygårdsbakkan" />
		<tag k="natural" v="slope" />
		<tag k="place" v="locality" />
		<tag k="ssr:stedsnr" v="960129" />
	</node>
	<node id="-773089" lat="69.9352222216" lon="20.8061360925">
		<tag k="name" v="Stakmarka" />
		<tag k="natural" v="slope" />
		<tag k="place" v="locality" />
		<tag k="ssr:stedsnr" v="959899" />
	</node>
	<node id="-773088" lat="70.039338887" lon="20.543872214">
		<tag k="name" v="Storsteinaksla" />
		<tag k="place" v="locality" />
		<tag k="ssr:stedsnr" v="959895" />
	</node>
	<node id="-773087" lat="70.0676833377" lon="20.3825777522">
		<tag k="name" v="Stakkevollen" />
		<tag k="place" v="locality" />
		<tag k="ssr:stedsnr" v="959891" />
	</node>
	<node id="-773085" lat="70.0516472207" lon="20.4337416544">
		<tag k="name" v="Lillebakken" />
		<tag k="natural" v="slope" />
		<tag k="place" v="locality" />
		<tag k="ssr:stedsnr" v="959879" />
	</node>
	<node id="-773083" lat="70.0548111146" lon="20.6579805447">
		<tag k="name" v="Bringebærberget" />
		<tag k="natural" v="hill" />
		<tag k="place" v="locality" />
		<tag k="ssr:stedsnr" v="959864" />
	</node>
	<node id="-773082" lat="69.9847166671" lon="21.0338999853">
		<tag k="name" v="Sæterskaret" />
		<tag k="natural" v="valley" />
		<tag k="place" v="locality" />
		<tag k="ssr:stedsnr" v="959855" />
	</node>
	<node id="-773081" lat="69.9836472248" lon="21.0377749668">
		<tag k="name" v="Oterstokkbergan" />
		<tag k="natural" v="hill" />
		<tag k="place" v="locality" />
		<tag k="ssr:stedsnr" v="959853" />
	</node>
	<node id="-773078" lat="70.0567416637" lon="20.9853944271">
		<tag k="name" v="Gjerdet" />
		<tag k="natural" v="slope" />
		<tag k="place" v="locality" />
		<tag k="ssr:stedsnr" v="959813" />
	</node>
	<node id="-773075" lat="70.0489722273" lon="20.6102305279">
		<tag k="name" v="Sør-Kjedalsbakken" />
		<tag k="natural" v="slope" />
		<tag k="place" v="locality" />
		<tag k="ssr:stedsnr" v="959671" />
	</node>
	<node id="-773073" lat="70.0399555597" lon="20.6121305352">
		<tag k="name" v="Skjellberget" />
		<tag k="natural" v="hill" />
		<tag k="place" v="locality" />
		<tag k="ssr:stedsnr" v="959645" />
	</node>
	<node id="-773072" lat="70.0429944475" lon="20.6117610821">
		<tag k="name" v="Blåbærlia" />
		<tag k="natural" v="slope" />
		<tag k="place" v="locality" />
		<tag k="ssr:stedsnr" v="959643" />
	</node>
	<node id="-773071" lat="70.0445277762" lon="20.5985527549">
		<tag k="fixme" v="consider natural=peak for the most distinct mountains in the district" />
		<tag k="name" v="Lillefjellet" />
		<tag k="natural" v="hill" />
		<tag k="place" v="locality" />
		<tag k="ssr:stedsnr" v="959638" />
	</node>
	<node id="-773069" lat="69.9396388936" lon="20.6561249708">
		<tag k="name" v="Sjurhammaren" />
		<tag k="place" v="locality" />
		<tag k="ssr:stedsnr" v="959542" />
	</node>
	<node id="-773068" lat="69.9867833369" lon="20.6214444202">
		<tag k="name" v="Enesbergan" />
		<tag k="natural" v="hill" />
		<tag k="place" v="locality" />
		<tag k="ssr:stedsnr" v="959537" />
	</node>
	<node id="-773067" lat="69.9910416689" lon="20.6296166461">
		<tag k="name" v="Skagbergan" />
		<tag k="natural" v="hill" />
		<tag k="place" v="locality" />
		<tag k="ssr:stedsnr" v="959535" />
	</node>
	<node id="-773064" lat="70.1895694445" lon="20.5410583287">
		<tag k="name" v="Trollalia" />
		<tag k="natural" v="slope" />
		<tag k="place" v="locality" />
		<tag k="ssr:stedsnr" v="959282" />
	</node>
	<node id="-773061" lat="70.1229861112" lon="20.7429777566">
		<tag k="name" v="Dalbakkan" />
		<tag k="natural" v="slope" />
		<tag k="place" v="locality" />
		<tag k="ssr:stedsnr" v="959184" />
	</node>
	<node id="-773059" lat="70.1167416632" lon="20.89951943">
		<tag k="name" v="Svartberget" />
		<tag k="natural" v="hill" />
		<tag k="place" v="locality" />
		<tag k="ssr:stedsnr" v="959171" />
	</node>
	<node id="-773057" lat="70.0912194449" lon="20.9165610993">
		<tag k="name" v="Lia" />
		<tag k="natural" v="slope" />
		<tag k="place" v="locality" />
		<tag k="ssr:stedsnr" v="959158" />
	</node>
	<node id="-773056" lat="70.0300472263" lon="20.995644436">
		<tag k="name" v="Steinbergan" />
		<tag k="natural" v="hill" />
		<tag k="place" v="locality" />
		<tag k="ssr:stedsnr" v="959143" />
	</node>
	<node id="-773055" lat="70.0430944497" lon="21.013441639">
		<tag k="name" v="Ramnneshaugen" />
		<tag k="natural" v="hill" />
		<tag k="place" v="locality" />
		<tag k="ssr:stedsnr" v="959139" />
	</node>
	<node id="-773053" lat="70.0788277779" lon="20.7725305304">
		<tag k="name" v="Sandbakken" />
		<tag k="natural" v="slope" />
		<tag k="place" v="locality" />
		<tag k="ssr:stedsnr" v="959051" />
	</node>
	<node id="-773050" lat="70.0651083298" lon="20.4625222091">
		<tag k="name" v="Lille Trolltindholla" />
		<tag k="natural" v="valley" />
		<tag k="place" v="locality" />
		<tag k="ssr:stedsnr" v="959022" />
	</node>
	<node id="-773047" lat="70.0502472199" lon="20.5987555472">
		<tag k="fixme" v="consider natural=peak for the most distinct mountains in the district" />
		<tag k="name" v="Tverrfjellet" />
		<tag k="natural" v="hill" />
		<tag k="place" v="locality" />
		<tag k="ssr:stedsnr" v="958698" />
	</node>
	<node id="-773046" lat="70.0544388877" lon="20.6120722139">
		<tag k="name" v="Inner-Kjedalskulen" />
		<tag k="natural" v="hill" />
		<tag k="place" v="locality" />
		<tag k="ssr:stedsnr" v="958694" />
	</node>
	<node id="-773042" lat="69.9521972262" lon="20.6630805401">
		<tag k="name" v="Bøtthaugen" />
		<tag k="natural" v="hill" />
		<tag k="place" v="locality" />
		<tag k="ssr:stedsnr" v="958593" />
	</node>
	<node id="-773037" lat="69.8764638876" lon="20.6337472018">
		<tag k="fixme" v="consider natural=peak for the most distinct mountains in the district" />
		<tag k="name" v="Svarttinden" />
		<tag k="natural" v="hill" />
		<tag k="place" v="locality" />
		<tag k="ssr:stedsnr" v="958344" />
	</node>
	<node id="-773036" lat="70.1807555564" lon="20.458033306">
		<tag k="name" v="Storsteinshaugen" />
		<tag k="natural" v="hill" />
		<tag k="place" v="locality" />
		<tag k="ssr:stedsnr" v="958186" />
	</node>
	<node id="-773034" lat="70.0500583374" lon="20.7560360804">
		<tag k="name" v="Elveryggen" />
		<tag k="natural" v="ridge" />
		<tag k="place" v="locality" />
		<tag k="ssr:stedsnr" v="958106" />
	</node>
	<node id="-773011" lat="70.2059527742" lon="20.6992610886">
		<tag k="name" v="Norddalen" />
		<tag k="natural" v="valley" />
		<tag k="place" v="locality" />
		<tag k="ssr:stedsnr" v="931512" />
	</node>
	<node id="-773009" lat="69.9940805563" lon="20.7595194361">
		<tag k="name" v="Steinbakkdalen" />
		<tag k="natural" v="valley" />
		<tag k="place" v="locality" />
		<tag k="ssr:stedsnr" v="930667" />
	</node>
	<node id="-773007" lat="70.1021805581" lon="20.6758388797">
		<tag k="fixme" v="consider natural=peak for the most distinct mountains in the district" />
		<tag k="name" v="Tågtinden" />
		<tag k="natural" v="hill" />
		<tag k="place" v="locality" />
		<tag k="ssr:stedsnr" v="930211" />
	</node>
	<node id="-773005" lat="70.1201972214" lon="20.4677944236">
		<tag k="name" v="Dalskiftet" />
		<tag k="natural" v="valley" />
		<tag k="place" v="locality" />
		<tag k="ssr:stedsnr" v="930061" />
	</node>
	<node id="-773003" lat="70.1097611095" lon="20.8071527511">
		<tag k="fixme" v="consider natural=peak for the most distinct mountains in the district" />
		<tag k="name" v="Hamnnestinden" />
		<tag k="natural" v="hill" />
		<tag k="place" v="locality" />
		<tag k="ssr:stedsnr" v="930045" />
	</node>
	<node id="-773000" lat="70.1217583374" lon="20.8613999924">
		<tag k="fixme" v="consider natural=peak for the most distinct mountains in the district" />
		<tag k="name" v="Kveitviktinden" />
		<tag k="natural" v="hill" />
		<tag k="place" v="locality" />
		<tag k="ssr:stedsnr" v="930036" />
	</node>
	<node id="-772993" lat="69.9625888878" lon="20.8306722095">
		<tag k="fixme" v="consider natural=peak for the most distinct mountains in the district" />
		<tag k="name" v="Storsandnestinden" />
		<tag k="natural" v="hill" />
		<tag k="place" v="locality" />
		<tag k="ssr:stedsnr" v="929549" />
	</node>
	<node id="-772988" lat="70.0496972193" lon="20.4520999864">
		<tag k="name" v="Søraksla" />
		<tag k="natural" v="hill" />
		<tag k="place" v="locality" />
		<tag k="ssr:stedsnr" v="929213" />
	</node>
	<node id="-772987" lat="70.0811083335" lon="20.4513249872">
		<tag k="name" v="Skavdalen" />
		<tag k="natural" v="valley" />
		<tag k="place" v="locality" />
		<tag k="ssr:stedsnr" v="929194" />
	</node>
	<node id="-772983" lat="70.2115861099" lon="20.7657471918">
		<tag k="name" v="Sørdalen" />
		<tag k="natural" v="valley" />
		<tag k="place" v="locality" />
		<tag k="ssr:stedsnr" v="929088" />
	</node>
	<node id="-772980" lat="70.096558329" lon="20.3742666567">
		<tag k="loc_name:se" v="Uvssut" />
		<tag k="name" v="Ytter-Omnan" />
		<tag k="name:no" v="Ytter-Omnan" />
		<tag k="place" v="locality" />
		<tag k="ssr:stedsnr" v="929076" />
	</node>
	<node id="-772978" lat="70.1777250021" lon="20.5822249768">
		<tag k="alt_name" v="Trongdalen" />
		<tag k="name" v="Trongedalen" />
		<tag k="natural" v="valley" />
		<tag k="place" v="locality" />
		<tag k="ssr:stedsnr" v="929016" />
	</node>
	<node id="-772977" lat="70.1919527761" lon="20.6132971969">
		<tag k="name" v="Nord-Rekvikdalen" />
		<tag k="natural" v="valley" />
		<tag k="place" v="locality" />
		<tag k="ssr:stedsnr" v="929012" />
	</node>
	<node id="-772976" lat="70.1798861138" lon="20.6396333232">
		<tag k="alt_name" v="Fjellfinnhola, øvre" />
		<tag k="name" v="Øvre Fjellfinnholla" />
		<tag k="natural" v="valley" />
		<tag k="place" v="locality" />
		<tag k="ssr:stedsnr" v="929010" />
	</node>
	<node id="-772970" lat="70.1790194445" lon="20.7884721927">
		<tag k="name" v="Tippsteindalen" />
		<tag k="natural" v="valley" />
		<tag k="place" v="locality" />
		<tag k="ssr:stedsnr" v="879285" />
	</node>
	<node id="-772969" lat="69.9725861112" lon="20.9208305208">
		<tag k="name" v="Møllnesdalen" />
		<tag k="natural" v="valley" />
		<tag k="place" v="locality" />
		<tag k="ssr:stedsnr" v="879260" />
	</node>
	<node id="-772959" lat="70.1409444483" lon="20.5718638628">
		<tag k="alt_name:no" v="Svarttindan" />
		<tag k="fixme" v="consider natural=peak for the most distinct mountains in the district" />
		<tag k="loc_name:se" v="Čáhppesčohkka" />
		<tag k="name" v="Svarttinden" />
		<tag k="name:no" v="Svarttinden" />
		<tag k="natural" v="hill" />
		<tag k="ssr:stedsnr" v="870498" />
	</node>
	<node id="-772946" lat="70.0241611079" lon="20.9821333107">
		<tag k="fixme" v="consider natural=peak for the most distinct mountains in the district" />
		<tag k="name" v="Stussnesfjellet" />
		<tag k="natural" v="hill" />
		<tag k="place" v="locality" />
		<tag k="ssr:stedsnr" v="869167" />
	</node>
	<node id="-772943" lat="70.0658833332" lon="20.3971083177">
		<tag k="name" v="Svartbergan" />
		<tag k="natural" v="hill" />
		<tag k="place" v="locality" />
		<tag k="ssr:stedsnr" v="869080" />
	</node>
	<node id="-772940" lat="70.1180166644" lon="20.8724360826">
		<tag k="name" v="Kveitvikdalen" />
		<tag k="natural" v="valley" />
		<tag k="place" v="locality" />
		<tag k="ssr:stedsnr" v="869039" />
	</node>
	<node id="-772939" lat="70.1762527783" lon="20.6767610796">
		<tag k="fixme" v="consider natural=peak for the most distinct mountains in the district" />
		<tag k="name" v="Svarttinden" />
		<tag k="natural" v="hill" />
		<tag k="place" v="locality" />
		<tag k="ssr:stedsnr" v="869031" />
	</node>
	<node id="-772938" lat="70.194008332" lon="20.7921527618">
		<tag k="fixme" v="consider natural=peak for the most distinct mountains in the district" />
		<tag k="name" v="Flutinden" />
		<tag k="natural" v="hill" />
		<tag k="place" v="locality" />
		<tag k="ssr:stedsnr" v="869022" />
	</node>
	<node id="-772931" lat="70.0615222268" lon="20.4504805433">
		<tag k="fixme" v="consider natural=peak for the most distinct mountains in the district" />
		<tag k="name" v="Trolltindaksla" />
		<tag k="natural" v="hill" />
		<tag k="place" v="locality" />
		<tag k="ssr:stedsnr" v="868222" />
	</node>
	<node id="-772930" lat="70.0553694454" lon="20.6033610953">
		<tag k="name" v="Inner-Kjedalen" />
		<tag k="natural" v="valley" />
		<tag k="place" v="locality" />
		<tag k="ssr:stedsnr" v="868216" />
	</node>
	<node id="-772927" lat="70.0826861161" lon="20.41991942">
		<tag k="name" v="Sotnesskaret" />
		<tag k="natural" v="valley" />
		<tag k="place" v="locality" />
		<tag k="ssr:stedsnr" v="868185" />
	</node>
	<node id="-772925" lat="70.0892833378" lon="20.6906694338">
		<tag k="fixme" v="consider natural=peak for the most distinct mountains in the district" />
		<tag k="loc_name:se" v="Skárračohkka" />
		<tag k="name" v="Skartinden" />
		<tag k="name:no" v="Skartinden" />
		<tag k="natural" v="hill" />
		<tag k="ssr:stedsnr" v="868182" />
	</node>
	<node id="-772924" lat="70.0792250043" lon="20.8762972046">
		<tag k="name" v="Ramnbergdalen" />
		<tag k="natural" v="valley" />
		<tag k="place" v="locality" />
		<tag k="ssr:stedsnr" v="868177" />
	</node>
	<node id="-772916" lat="70.0062833336" lon="20.897641639">
		<tag k="name" v="Brattberget" />
		<tag k="natural" v="hill" />
		<tag k="place" v="locality" />
		<tag k="ssr:stedsnr" v="839326" />
	</node>
	<node id="-772911" lat="70.2123305573" lon="20.6792166413">
		<tag k="name" v="Blåberget" />
		<tag k="natural" v="hill" />
		<tag k="place" v="locality" />
		<tag k="ssr:stedsnr" v="838936" />
	</node>
	<node id="-772910" lat="69.9317194482" lon="20.8708472043">
		<tag k="name" v="Hamnedalen" />
		<tag k="natural" v="valley" />
		<tag k="place" v="locality" />
		<tag k="ssr:stedsnr" v="838913" />
	</node>
	<node id="-772909" lat="70.0487194432" lon="20.4764166562">
		<tag k="name" v="Geitskaret" />
		<tag k="natural" v="valley" />
		<tag k="place" v="locality" />
		<tag k="ssr:stedsnr" v="838909" />
	</node>
	<node id="-772907" lat="70.047363891" lon="20.6707055327">
		<tag k="name" v="Hatteberget" />
		<tag k="natural" v="hill" />
		<tag k="place" v="locality" />
		<tag k="ssr:stedsnr" v="838880" />
	</node>
	<node id="-772904" lat="69.9882416712" lon="20.9806777452">
		<tag k="name" v="Småvedbergan" />
		<tag k="natural" v="hill" />
		<tag k="place" v="locality" />
		<tag k="ssr:stedsnr" v="838874" />
	</node>
	<node id="-772903" lat="69.9806805515" lon="20.9681472039">
		<tag k="name" v="Skansan" />
		<tag k="natural" v="hill" />
		<tag k="place" v="locality" />
		<tag k="ssr:stedsnr" v="838872" />
	</node>
	<node id="-772901" lat="70.0451277788" lon="20.9625861012">
		<tag k="name" v="Rødberget" />
		<tag k="natural" v="hill" />
		<tag k="place" v="locality" />
		<tag k="ssr:stedsnr" v="838867" />
	</node>
	<node id="-772899" lat="70.0639805587" lon="20.6245611066">
		<tag k="name" v="Langskreda" />
		<tag k="natural" v="slope" />
		<tag k="place" v="locality" />
		<tag k="ssr:stedsnr" v="838805" />
	</node>
	<node id="-772897" lat="70.0680361146" lon="20.5699222135">
		<tag k="name" v="Lilleskreda" />
		<tag k="natural" v="slope" />
		<tag k="place" v="locality" />
		<tag k="ssr:stedsnr" v="838779" />
	</node>
	<node id="-772896" lat="70.0701305602" lon="20.5727944257">
		<tag k="name" v="Rikardlian" />
		<tag k="natural" v="slope" />
		<tag k="place" v="locality" />
		<tag k="ssr:stedsnr" v="838778" />
	</node>
	<node id="-772895" lat="70.0545999996" lon="20.5658916473">
		<tag k="fixme" v="consider natural=peak for the most distinct mountains in the district" />
		<tag k="name" v="Breifjellet" />
		<tag k="natural" v="hill" />
		<tag k="place" v="locality" />
		<tag k="ssr:stedsnr" v="838699" />
	</node>
	<node id="-772892" lat="69.9735972211" lon="20.628094414">
		<tag k="name" v="Nissebergan" />
		<tag k="natural" v="hill" />
		<tag k="place" v="locality" />
		<tag k="ssr:stedsnr" v="838590" />
	</node>
	<node id="-772883" lat="70.0336777776" lon="20.9781944343">
		<tag k="name" v="Seppolaberget" />
		<tag k="natural" v="hill" />
		<tag k="place" v="locality" />
		<tag k="ssr:stedsnr" v="838202" />
	</node>
	<node id="-772879" lat="70.0383361157" lon="21.003236092">
		<tag k="name" v="Sofaen" />
		<tag k="natural" v="hill" />
		<tag k="place" v="locality" />
		<tag k="ssr:stedsnr" v="838181" />
	</node>
	<node id="-772878" lat="70.0440527804" lon="20.7157305367">
		<tag k="name" v="Springarbergan" />
		<tag k="natural" v="hill" />
		<tag k="place" v="locality" />
		<tag k="ssr:stedsnr" v="838131" />
	</node>
	<node id="-772877" lat="70.0451999975" lon="20.7157138661">
		<tag k="name" v="Springarbakkan" />
		<tag k="natural" v="slope" />
		<tag k="place" v="locality" />
		<tag k="ssr:stedsnr" v="838129" />
	</node>
	<node id="-772876" lat="70.0510777767" lon="20.7745138809">
		<tag k="name" v="Geitberget" />
		<tag k="natural" v="hill" />
		<tag k="place" v="locality" />
		<tag k="ssr:stedsnr" v="838122" />
	</node>
	<node id="-772871" lat="70.0835999974" lon="20.477902763">
		<tag k="name" v="Laksebakken" />
		<tag k="natural" v="slope" />
		<tag k="place" v="locality" />
		<tag k="ssr:stedsnr" v="838011" />
	</node>
	<node id="-772869" lat="70.0525111092" lon="20.6081666541">
		<tag k="name" v="Kjedalshompen" />
		<tag k="natural" v="hill" />
		<tag k="place" v="locality" />
		<tag k="ssr:stedsnr" v="837675" />
	</node>
	<node id="-772867" lat="69.9025111112" lon="20.6497472055">
		<tag k="name" v="Flatberget" />
		<tag k="natural" v="hill" />
		<tag k="place" v="locality" />
		<tag k="ssr:stedsnr" v="837583" />
	</node>
	<node id="-772866" lat="69.9556638915" lon="20.6808694358">
		<tag k="name" v="Bukkhollet" />
		<tag k="natural" v="valley" />
		<tag k="place" v="locality" />
		<tag k="ssr:stedsnr" v="837562" />
	</node>
	<node id="-772865" lat="69.9142777757" lon="20.6786416456">
		<tag k="name" v="Båtberget" />
		<tag k="natural" v="hill" />
		<tag k="place" v="locality" />
		<tag k="ssr:stedsnr" v="837379" />
	</node>
	<node id="-772863" lat="69.9196833362" lon="20.6677277682">
		<tag k="name" v="Lilleberget" />
		<tag k="natural" v="hill" />
		<tag k="place" v="locality" />
		<tag k="ssr:stedsnr" v="837353" />
	</node>
	<node id="-772858" lat="70.0102944485" lon="20.7410110851">
		<tag k="name" v="Storhompen" />
		<tag k="natural" v="hill" />
		<tag k="place" v="locality" />
		<tag k="ssr:stedsnr" v="837097" />
	</node>
	<node id="-772854" lat="69.9837666622" lon="20.6312999892">
		<tag k="name" v="Hellarfjellet" />
		<tag k="natural" v="hill" />
		<tag k="place" v="locality" />
		<tag k="ssr:stedsnr" v="819938" />
	</node>
	<node id="-772843" lat="70.0887055558" lon="20.375402764">
		<tag k="name" v="Inner-Omnan" />
		<tag k="place" v="locality" />
		<tag k="ssr:stedsnr" v="813374" />
	</node>
	<node id="-772839" lat="69.8256638899" lon="20.6701471943">
		<tag k="fixme" v="consider natural=peak for the most distinct mountains in the district" />
		<tag k="loc_name:se" v="Seahttároalgi" />
		<tag k="name" v="Sæteraksla" />
		<tag k="name:no" v="Sæteraksla" />
		<tag k="natural" v="hill" />
		<tag k="place" v="locality" />
		<tag k="ssr:stedsnr" v="808969" />
	</node>
	<node id="-772835" lat="70.1215055552" lon="20.3792527719">
		<tag k="name" v="Skarveberget" />
		<tag k="natural" v="hill" />
		<tag k="place" v="locality" />
		<tag k="ssr:stedsnr" v="808883" />
	</node>
	<node id="-772832" lat="69.9581500034" lon="20.6482666523">
		<tag k="fixme" v="consider natural=peak for the most distinct mountains in the district" />
		<tag k="name" v="Viten" />
		<tag k="natural" v="hill" />
		<tag k="place" v="locality" />
		<tag k="ssr:stedsnr" v="808605" />
	</node>
	<node id="-772829" lat="69.9283805603" lon="20.8307249734">
		<tag k="name" v="Vardhaugen" />
		<tag k="natural" v="hill" />
		<tag k="place" v="locality" />
		<tag k="ssr:stedsnr" v="808583" />
	</node>
	<node id="-772816" lat="70.0539972243" lon="20.4414027635">
		<tag k="name" v="Nakkeheia" />
		<tag k="natural" v="hill" />
		<tag k="place" v="locality" />
		<tag k="ssr:stedsnr" v="808225" />
	</node>
	<node id="-772811" lat="70.0709722241" lon="20.6148638779">
		<tag k="name" v="Sløkedalen" />
		<tag k="natural" v="valley" />
		<tag k="place" v="locality" />
		<tag k="ssr:stedsnr" v="808174" />
	</node>
	<node id="-772809" lat="70.0083166642" lon="20.7656305248">
		<tag k="name" v="Solhakket" />
		<tag k="natural" v="valley" />
		<tag k="place" v="locality" />
		<tag k="ssr:stedsnr" v="808128" />
	</node>
	<node id="-772798" lat="70.14985278" lon="20.7422222079">
		<tag k="alt_name" v="Litlefjellet" />
		<tag k="fixme" v="consider natural=peak for the most distinct mountains in the district" />
		<tag k="name" v="Lillefjellet" />
		<tag k="natural" v="hill" />
		<tag k="place" v="locality" />
		<tag k="ssr:stedsnr" v="808009" />
	</node>
	<node id="-772796" lat="70.1392638889" lon="20.5708166528">
		<tag k="alt_name" v="Svarttinddalen, in" />
		<tag k="name" v="Indre Svarttinddalen" />
		<tag k="natural" v="valley" />
		<tag k="place" v="locality" />
		<tag k="ssr:stedsnr" v="808006" />
	</node>
	<node id="-772793" lat="70.013411114" lon="20.9153277695">
		<tag k="name" v="Hogobákti" />
		<tag k="name:se" v="Hogobákti" />
		<tag k="natural" v="hill" />
		<tag k="place" v="locality" />
		<tag k="ssr:stedsnr" v="778311" />
	</node>
	<node id="-772792" lat="69.9602777834" lon="20.9586083005">
		<tag k="name" v="Finnhaugen" />
		<tag k="natural" v="hill" />
		<tag k="place" v="locality" />
		<tag k="ssr:stedsnr" v="778157" />
	</node>
	<node id="-772790" lat="70.0679250032" lon="20.4428666571">
		<tag k="fixme" v="consider natural=peak for the most distinct mountains in the district" />
		<tag k="name" v="Lilletinden" />
		<tag k="natural" v="hill" />
		<tag k="place" v="locality" />
		<tag k="ssr:stedsnr" v="777974" />
	</node>
	<node id="-772787" lat="70.2310055576" lon="20.6862916552">
		<tag k="name" v="Grønnbakkan" />
		<tag k="natural" v="slope" />
		<tag k="place" v="locality" />
		<tag k="ssr:stedsnr" v="777929" />
	</node>
	<node id="-772786" lat="70.2353194493" lon="20.6931138721">
		<tag k="name" v="Hyllebergan" />
		<tag k="natural" v="hill" />
		<tag k="place" v="locality" />
		<tag k="ssr:stedsnr" v="777924" />
	</node>
	<node id="-772785" lat="70.2032833369" lon="20.6948610892">
		<tag k="name" v="Tjyven" />
		<tag k="natural" v="slope" />
		<tag k="place" v="locality" />
		<tag k="ssr:stedsnr" v="777921" />
	</node>
	<node id="-772784" lat="70.2306138867" lon="20.6015777602">
		<tag k="name" v="Storstua" />
		<tag k="natural" v="hill" />
		<tag k="place" v="locality" />
		<tag k="ssr:stedsnr" v="777915" />
	</node>
	<node id="-772783" lat="70.2286861118" lon="20.6275222093">
		<tag k="name" v="Svartsøyla" />
		<tag k="natural" v="slope" />
		<tag k="place" v="locality" />
		<tag k="ssr:stedsnr" v="777908" />
	</node>
	<node id="-772782" lat="70.2154861111" lon="20.6272305255">
		<tag k="fixme" v="consider natural=peak for the most distinct mountains in the district" />
		<tag k="name" v="Middagstinden" />
		<tag k="natural" v="hill" />
		<tag k="place" v="locality" />
		<tag k="ssr:stedsnr" v="777900" />
	</node>
	<node id="-772781" lat="70.1756277815" lon="20.5600221975">
		<tag k="name" v="Årvikaksla" />
		<tag k="place" v="locality" />
		<tag k="ssr:stedsnr" v="777887" />
	</node>
	<node id="-772779" lat="70.0508583308" lon="20.439463881">
		<tag k="name" v="Storbakken" />
		<tag k="natural" v="slope" />
		<tag k="place" v="locality" />
		<tag k="ssr:stedsnr" v="777859" />
	</node>
	<node id="-772777" lat="70.0476916646" lon="20.4415444288">
		<tag k="name" v="Tjukkberget" />
		<tag k="natural" v="hill" />
		<tag k="place" v="locality" />
		<tag k="ssr:stedsnr" v="777854" />
	</node>
	<node id="-772775" lat="70.0323333308" lon="20.5573555332">
		<tag k="name" v="Reinan" />
		<tag k="place" v="locality" />
		<tag k="ssr:stedsnr" v="777834" />
	</node>
	<node id="-772774" lat="70.0544805522" lon="20.6590888633">
		<tag k="name" v="Heksehula" />
		<tag k="natural" v="valley" />
		<tag k="place" v="locality" />
		<tag k="ssr:stedsnr" v="777831" />
	</node>
	<node id="-772773" lat="70.0505138896" lon="20.6619638626">
		<tag k="name" v="Blåberget" />
		<tag k="natural" v="hill" />
		<tag k="place" v="locality" />
		<tag k="ssr:stedsnr" v="777830" />
	</node>
	<node id="-772772" lat="70.0536416708" lon="20.7019138742">
		<tag k="name" v="Lillehompen" />
		<tag k="natural" v="hill" />
		<tag k="place" v="locality" />
		<tag k="ssr:stedsnr" v="777825" />
	</node>
	<node id="-772771" lat="70.0610722252" lon="20.6992861009">
		<tag k="loc_name:se" v="Ealvavággi" />
		<tag k="name" v="Elvedalen" />
		<tag k="name:no" v="Elvedalen" />
		<tag k="natural" v="valley" />
		<tag k="place" v="locality" />
		<tag k="ssr:stedsnr" v="777824" />
	</node>
	<node id="-772769" lat="70.0486305557" lon="20.7082888608">
		<tag k="name" v="Elveskorra" />
		<tag k="natural" v="valley" />
		<tag k="place" v="locality" />
		<tag k="ssr:stedsnr" v="777820" />
	</node>
	<node id="-772768" lat="70.0457722211" lon="20.6929444153">
		<tag k="loc_name:se" v="Ealva" />
		<tag k="name" v="Elvesletta" />
		<tag k="name:no" v="Elvesletta" />
		<tag k="place" v="locality" />
		<tag k="ssr:stedsnr" v="777816" />
	</node>
	<node id="-772763" lat="70.0386222253" lon="20.5772222153">
		<tag k="name" v="Nerdalen" />
		<tag k="natural" v="valley" />
		<tag k="place" v="locality" />
		<tag k="ssr:stedsnr" v="777658" />
	</node>
	<node id="-772761" lat="69.9736000012" lon="20.652480544">
		<tag k="name" v="Trondalsskaret" />
		<tag k="natural" v="valley" />
		<tag k="place" v="locality" />
		<tag k="ssr:stedsnr" v="777529" />
	</node>
	<node id="-772760" lat="69.9901611163" lon="20.9885055241">
		<tag k="name" v="Storvedberget" />
		<tag k="natural" v="hill" />
		<tag k="place" v="locality" />
		<tag k="ssr:stedsnr" v="777433" />
	</node>
	<node id="-772759" lat="69.9982861148" lon="21.014224984">
		<tag k="name" v="Jørgendalen" />
		<tag k="natural" v="valley" />
		<tag k="place" v="locality" />
		<tag k="ssr:stedsnr" v="777361" />
	</node>
	<node id="-772758" lat="69.9970388937" lon="21.0147999807">
		<tag k="name" v="Bersvenndalen" />
		<tag k="natural" v="valley" />
		<tag k="place" v="locality" />
		<tag k="ssr:stedsnr" v="777359" />
	</node>
	<node id="-772756" lat="69.9999250037" lon="21.0200944235">
		<tag k="name" v="Eberget" />
		<tag k="natural" v="hill" />
		<tag k="place" v="locality" />
		<tag k="ssr:stedsnr" v="777326" />
	</node>
	<node id="-772754" lat="70.2050777809" lon="20.5221138689">
		<tag k="name" v="Hammarsberget" />
		<tag k="natural" v="hill" />
		<tag k="place" v="locality" />
		<tag k="ssr:stedsnr" v="777288" />
	</node>
	<node id="-772751" lat="70.1279055526" lon="20.7396749863">
		<tag k="name" v="Breilia" />
		<tag k="natural" v="slope" />
		<tag k="place" v="locality" />
		<tag k="ssr:stedsnr" v="777193" />
	</node>
	<node id="-772750" lat="70.1389722202" lon="20.7595805243">
		<tag k="name" v="Magnusbakken" />
		<tag k="natural" v="slope" />
		<tag k="place" v="locality" />
		<tag k="ssr:stedsnr" v="777190" />
	</node>
	<node id="-772749" lat="70.1340750031" lon="20.7469277564">
		<tag k="name" v="Kulia" />
		<tag k="natural" v="slope" />
		<tag k="place" v="locality" />
		<tag k="ssr:stedsnr" v="777187" />
	</node>
	<node id="-772748" lat="70.130777775" lon="20.7538999865">
		<tag k="name" v="Lillebakken" />
		<tag k="natural" v="slope" />
		<tag k="place" v="locality" />
		<tag k="ssr:stedsnr" v="777186" />
	</node>
	<node id="-772745" lat="70.1515500024" lon="20.7789361053">
		<tag k="name" v="Sommarvollan" />
		<tag k="place" v="locality" />
		<tag k="ssr:stedsnr" v="777147" />
	</node>
	<node id="-772742" lat="70.0366083308" lon="20.9723916512">
		<tag k="name" v="St. Hanshaugen" />
		<tag k="natural" v="hill" />
		<tag k="place" v="locality" />
		<tag k="ssr:stedsnr" v="777136" />
	</node>
	<node id="-772739" lat="70.0493611152" lon="20.7593027728">
		<tag k="name" v="Storsteinryggen" />
		<tag k="natural" v="ridge" />
		<tag k="place" v="locality" />
		<tag k="ssr:stedsnr" v="777103" />
	</node>
	<node id="-772738" lat="70.076072223" lon="20.4859027603">
		<tag k="name" v="Rishaugen" />
		<tag k="natural" v="hill" />
		<tag k="place" v="locality" />
		<tag k="ssr:stedsnr" v="777058" />
	</node>
	<node id="-772737" lat="70.0711333351" lon="20.8277388646">
		<tag k="name" v="Sjurkjerka" />
		<tag k="natural" v="hill" />
		<tag k="place" v="locality" />
		<tag k="ssr:stedsnr" v="777043" />
	</node>
	<node id="-772732" lat="69.9013722239" lon="20.6456971979">
		<tag k="name" v="Novebergan" />
		<tag k="natural" v="hill" />
		<tag k="place" v="locality" />
		<tag k="ssr:stedsnr" v="776557" />
	</node>
	<node id="-772731" lat="69.9007833361" lon="20.675772193">
		<tag k="name" v="Dverberget" />
		<tag k="natural" v="hill" />
		<tag k="place" v="locality" />
		<tag k="ssr:stedsnr" v="776551" />
	</node>
	<node id="-772729" lat="69.963063893" lon="20.6811611059">
		<tag k="name" v="Kåvikberget" />
		<tag k="natural" v="hill" />
		<tag k="place" v="locality" />
		<tag k="ssr:stedsnr" v="776545" />
	</node>
	<node id="-772728" lat="69.9442166675" lon="20.6586888752">
		<tag k="name" v="Brenta" />
		<tag k="natural" v="slope" />
		<tag k="place" v="locality" />
		<tag k="ssr:stedsnr" v="776529" />
	</node>
	<node id="-772720" lat="69.8704416641" lon="20.6876694306">
		<tag k="name" v="Haugen" />
		<tag k="natural" v="hill" />
		<tag k="place" v="locality" />
		<tag k="ssr:stedsnr" v="776306" />
	</node>
	<node id="-772701" lat="70.1880444432" lon="20.4565249743">
		<tag k="name" v="Båberget" />
		<tag k="natural" v="hill" />
		<tag k="place" v="locality" />
		<tag k="ssr:stedsnr" v="752481" />
	</node>
	<node id="-772693" lat="69.9616750031" lon="20.8893333072">
		<tag k="name" v="Stokknesdalen" />
		<tag k="natural" v="valley" />
		<tag k="place" v="locality" />
		<tag k="ssr:stedsnr" v="747566" />
	</node>
	<node id="-772690" lat="69.8919972259" lon="20.5743388795">
		<tag k="name" v="Geithaugen" />
		<tag k="natural" v="hill" />
		<tag k="place" v="locality" />
		<tag k="ssr:stedsnr" v="747551" />
	</node>
	<node id="-772683" lat="70.1925027794" lon="20.7442805457">
		<tag k="fixme" v="consider natural=peak for the most distinct mountains in the district" />
		<tag k="name" v="Slettfjellet" />
		<tag k="natural" v="hill" />
		<tag k="place" v="locality" />
		<tag k="ssr:stedsnr" v="747086" />
	</node>
	<node id="-772682" lat="70.2024166648" lon="20.5628138711">
		<tag k="fixme" v="consider natural=peak for the most distinct mountains in the district" />
		<tag k="name" v="Storfjellet" />
		<tag k="natural" v="hill" />
		<tag k="place" v="locality" />
		<tag k="ssr:stedsnr" v="747077" />
	</node>
	<node id="-772679" lat="70.1284527781" lon="20.5355860972">
		<tag k="name" v="Langfjorddalen" />
		<tag k="natural" v="valley" />
		<tag k="place" v="locality" />
		<tag k="ssr:stedsnr" v="747043" />
	</node>
	<node id="-772677" lat="70.131775" lon="20.8457694358">
		<tag k="fixme" v="consider natural=peak for the most distinct mountains in the district" />
		<tag k="name" v="Hellnesfjellet" />
		<tag k="natural" v="hill" />
		<tag k="place" v="locality" />
		<tag k="ssr:stedsnr" v="747031" />
	</node>
	<node id="-772675" lat="70.1746333376" lon="20.7781749876">
		<tag k="fixme" v="consider natural=peak for the most distinct mountains in the district" />
		<tag k="name" v="Urtinden" />
		<tag k="natural" v="hill" />
		<tag k="place" v="locality" />
		<tag k="ssr:stedsnr" v="747022" />
	</node>
	<node id="-772673" lat="70.1619583341" lon="20.5092833243">
		<tag k="name" v="Høgtindkråa" />
		<tag k="natural" v="valley" />
		<tag k="place" v="locality" />
		<tag k="ssr:stedsnr" v="747015" />
	</node>
	<node id="-772672" lat="70.1607166648" lon="20.4444333107">
		<tag k="fixme" v="consider natural=peak for the most distinct mountains in the district" />
		<tag k="name" v="Keiletinden" />
		<tag k="natural" v="hill" />
		<tag k="place" v="locality" />
		<tag k="ssr:stedsnr" v="747014" />
	</node>
	<node id="-772671" lat="70.1667722227" lon="20.4509444358">
		<tag k="name" v="Keiledalen" />
		<tag k="natural" v="valley" />
		<tag k="place" v="locality" />
		<tag k="ssr:stedsnr" v="747012" />
	</node>
	<node id="-772670" lat="70.181588894" lon="20.4431333126">
		<tag k="alt_name" v="Falkberget" />
		<tag k="name" v="Falkeberget" />
		<tag k="natural" v="hill" />
		<tag k="place" v="locality" />
		<tag k="ssr:stedsnr" v="747009" />
	</node>
	<node id="-772668" lat="70.1599277763" lon="20.6042388788">
		<tag k="name" v="Klovsteinbakken" />
		<tag k="natural" v="slope" />
		<tag k="place" v="locality" />
		<tag k="ssr:stedsnr" v="747004" />
	</node>
	<node id="-772661" lat="70.0916749974" lon="20.5078777468">
		<tag k="fixme" v="consider natural=peak for the most distinct mountains in the district" />
		<tag k="name" v="Lappeguden" />
		<tag k="natural" v="hill" />
		<tag k="place" v="locality" />
		<tag k="ssr:stedsnr" v="747213" />
	</node>
	<node id="-772658" lat="70.0016777794" lon="20.8912444221">
		<tag k="name" v="Finnelvdalen" />
		<tag k="natural" v="valley" />
		<tag k="place" v="locality" />
		<tag k="ssr:stedsnr" v="717320" />
	</node>
	<node id="-772654" lat="70.1534277754" lon="20.7736110833">
		<tag k="name" v="Larsnesbakken" />
		<tag k="natural" v="slope" />
		<tag k="place" v="locality" />
		<tag k="ssr:stedsnr" v="717140" />
	</node>
	<node id="-772651" lat="70.0158000005" lon="21.0757416336">
		<tag k="name" v="Stigen" />
		<tag k="natural" v="hill" />
		<tag k="place" v="locality" />
		<tag k="ssr:stedsnr" v="717215" />
	</node>
	<node id="-772648" lat="69.9309166688" lon="20.8223638677">
		<tag k="name" v="Novedalen" />
		<tag k="natural" v="valley" />
		<tag k="place" v="locality" />
		<tag k="ssr:stedsnr" v="716886" />
	</node>
	<node id="-772643" lat="70.066822227" lon="20.6326555294">
		<tag k="name" v="Langbakken" />
		<tag k="natural" v="slope" />
		<tag k="place" v="locality" />
		<tag k="ssr:stedsnr" v="716775" />
	</node>
	<node id="-772641" lat="70.0761111073" lon="20.6507138813">
		<tag k="name" v="Stormelen" />
		<tag k="place" v="locality" />
		<tag k="ssr:stedsnr" v="716771" />
	</node>
	<node id="-772640" lat="70.0543527809" lon="20.5980472182">
		<tag k="name" v="Inner-Kjedalskråa" />
		<tag k="place" v="locality" />
		<tag k="ssr:stedsnr" v="716700" />
	</node>
	<node id="-772638" lat="70.0363277803" lon="20.5775305403">
		<tag k="name" v="Bukkhalli - Gáicahálli" />
		<tag k="name:no" v="Bukkhalli" />
		<tag k="name:se" v="Gáicahálli" />
		<tag k="natural" v="slope" />
		<tag k="place" v="locality" />
		<tag k="ssr:stedsnr" v="716677" />
	</node>
	<node id="-772637" lat="69.9559666708" lon="20.6506805367">
		<tag k="name" v="Høgda" />
		<tag k="natural" v="hill" />
		<tag k="place" v="locality" />
		<tag k="ssr:stedsnr" v="716589" />
	</node>
	<node id="-772636" lat="69.9449749984" lon="20.6419027473">
		<tag k="name" v="Storelvedalen" />
		<tag k="natural" v="valley" />
		<tag k="place" v="locality" />
		<tag k="ssr:stedsnr" v="716580" />
	</node>
	<node id="-772635" lat="69.9800222256" lon="20.625833304">
		<tag k="name" v="Sleiphella" />
		<tag k="natural" v="slope" />
		<tag k="place" v="locality" />
		<tag k="ssr:stedsnr" v="716575" />
	</node>
	<node id="-772634" lat="69.9383805518" lon="20.649772202">
		<tag k="name" v="Vorterøyendhaugen" />
		<tag k="natural" v="hill" />
		<tag k="place" v="locality" />
		<tag k="ssr:stedsnr" v="716568" />
	</node>
	<node id="-772632" lat="69.8914027824" lon="20.7107360829">
		<tag k="name" v="Bukteberget" />
		<tag k="natural" v="hill" />
		<tag k="place" v="locality" />
		<tag k="ssr:stedsnr" v="716621" />
	</node>
	<node id="-772631" lat="70.0011166713" lon="21.0355777495">
		<tag k="name" v="Teistberget" />
		<tag k="natural" v="hill" />
		<tag k="place" v="locality" />
		<tag k="ssr:stedsnr" v="716395" />
	</node>
	<node id="-772626" lat="70.0135194419" lon="20.9715833053">
		<tag k="name" v="Søppelhaugen" />
		<tag k="natural" v="hill" />
		<tag k="place" v="locality" />
		<tag k="ssr:stedsnr" v="716341" />
	</node>
	<node id="-772624" lat="70.187066664" lon="20.5136222014">
		<tag k="name" v="Rundberget" />
		<tag k="natural" v="hill" />
		<tag k="place" v="locality" />
		<tag k="ssr:stedsnr" v="716329" />
	</node>
	<node id="-772623" lat="70.1942138927" lon="20.5371222056">
		<tag k="name" v="Ambruseslia" />
		<tag k="natural" v="slope" />
		<tag k="place" v="locality" />
		<tag k="ssr:stedsnr" v="716325" />
	</node>
	<node id="-772621" lat="70.2008500024" lon="20.5310999859">
		<tag k="name" v="Storlia" />
		<tag k="natural" v="slope" />
		<tag k="place" v="locality" />
		<tag k="ssr:stedsnr" v="716322" />
	</node>
	<node id="-772618" lat="70.1676750025" lon="20.7736666566">
		<tag k="name" v="Storlia" />
		<tag k="natural" v="slope" />
		<tag k="place" v="locality" />
		<tag k="ssr:stedsnr" v="716242" />
	</node>
	<node id="-772612" lat="70.1633305543" lon="20.4061805481">
		<tag k="name" v="Tennhaugen" />
		<tag k="natural" v="hill" />
		<tag k="place" v="locality" />
		<tag k="ssr:stedsnr" v="716203" />
	</node>
	<node id="-772610" lat="70.1236277819" lon="20.543099994">
		<tag k="name" v="Tua" />
		<tag k="natural" v="hill" />
		<tag k="place" v="locality" />
		<tag k="ssr:stedsnr" v="716179" />
	</node>
	<node id="-772608" lat="70.0518944488" lon="20.7678861032">
		<tag k="name" v="Storlia" />
		<tag k="natural" v="slope" />
		<tag k="place" v="locality" />
		<tag k="ssr:stedsnr" v="716123" />
	</node>
	<node id="-772607" lat="70.04662778" lon="20.7224166558">
		<tag k="name" v="Øvre Haugdalen" />
		<tag k="natural" v="valley" />
		<tag k="place" v="locality" />
		<tag k="ssr:stedsnr" v="716118" />
	</node>
	<node id="-772606" lat="70.0492027764" lon="20.7469611025">
		<tag k="name" v="Blåbærdalen" />
		<tag k="natural" v="valley" />
		<tag k="place" v="locality" />
		<tag k="ssr:stedsnr" v="716111" />
	</node>
	<node id="-772601" lat="69.9905999969" lon="20.6336055292">
		<tag k="name" v="Fyrberget" />
		<tag k="natural" v="hill" />
		<tag k="place" v="locality" />
		<tag k="ssr:stedsnr" v="716539" />
	</node>
	<node id="-772593" lat="70.2258027825" lon="20.6128471994">
		<tag k="name" v="Nord-Rekvikaksla" />
		<tag k="place" v="locality" />
		<tag k="ssr:stedsnr" v="697379" />
	</node>
	<node id="-772582" lat="70.1155111152" lon="20.3794249756">
		<tag k="name" v="Rødbergan" />
		<tag k="natural" v="hill" />
		<tag k="place" v="locality" />
		<tag k="ssr:stedsnr" v="687906" />
	</node>
	<node id="-772576" lat="69.8746305514" lon="20.6440333233">
		<tag k="fixme" v="consider natural=peak for the most distinct mountains in the district" />
		<tag k="name" v="Kankeliheia" />
		<tag k="natural" v="hill" />
		<tag k="place" v="locality" />
		<tag k="ssr:stedsnr" v="687508" />
	</node>
	<node id="-772573" lat="70.1028166654" lon="20.7065527525">
		<tag k="fixme" v="consider natural=peak for the most distinct mountains in the district" />
		<tag k="name" v="Breifjellet" />
		<tag k="natural" v="hill" />
		<tag k="place" v="locality" />
		<tag k="ssr:stedsnr" v="687211" />
	</node>
	<node id="-772572" lat="70.0990499988" lon="20.6959277504">
		<tag k="fixme" v="consider natural=peak for the most distinct mountains in the district" />
		<tag k="name" v="Svartskogtinden" />
		<tag k="natural" v="hill" />
		<tag k="place" v="locality" />
		<tag k="ssr:stedsnr" v="687210" />
	</node>
	<node id="-772571" lat="70.1306888899" lon="20.7301944246">
		<tag k="alt_name:no" v="Tjyvtinden" />
		<tag k="fixme" v="consider natural=peak for the most distinct mountains in the district" />
		<tag k="loc_name:se" v="Givačohkka" />
		<tag k="name" v="Tjuvtinden" />
		<tag k="name:no" v="Tjuvtinden" />
		<tag k="natural" v="hill" />
		<tag k="place" v="locality" />
		<tag k="ssr:stedsnr" v="687063" />
	</node>
	<node id="-772570" lat="70.1176444417" lon="20.5862555464">
		<tag k="fixme" v="consider natural=peak for the most distinct mountains in the district" />
		<tag k="name" v="Røyskattfjellet" />
		<tag k="natural" v="hill" />
		<tag k="place" v="locality" />
		<tag k="ssr:stedsnr" v="687054" />
	</node>
	<node id="-772567" lat="70.1152666653" lon="20.4264471927">
		<tag k="name" v="Trolldalen" />
		<tag k="natural" v="valley" />
		<tag k="place" v="locality" />
		<tag k="ssr:stedsnr" v="687023" />
	</node>
	<node id="-772555" lat="70.0507777818" lon="21.2305944126">
		<tag k="name" v="Skarvberget" />
		<tag k="natural" v="hill" />
		<tag k="place" v="locality" />
		<tag k="ssr:stedsnr" v="686300" />
	</node>
	<node id="-772554" lat="70.0565861111" lon="20.7434055267">
		<tag k="fixme" v="consider natural=peak for the most distinct mountains in the district" />
		<tag k="loc_name:se" v="Siŋalčohkka" />
		<tag k="name" v="Singeltinden" />
		<tag k="name:no" v="Singeltinden" />
		<tag k="natural" v="hill" />
		<tag k="place" v="locality" />
		<tag k="ssr:stedsnr" v="686232" />
	</node>
	<node id="-772553" lat="70.0540388922" lon="20.9759999851">
		<tag k="fixme" v="multiple name tags, choose one and add the other to alt_name" />
		<tag k="name" v="Skjervøytrollet;Brusen" />
		<tag k="natural" v="hill" />
		<tag k="place" v="locality" />
		<tag k="ssr:stedsnr" v="686231" />
	</node>
	<node id="-772550" lat="70.0263555541" lon="20.8113944173">
		<tag k="alt_name" v="Breidkågen" />
		<tag k="fixme" v="consider natural=peak for the most distinct mountains in the district" />
		<tag k="name" v="Breikågen" />
		<tag k="natural" v="hill" />
		<tag k="place" v="locality" />
		<tag k="ssr:stedsnr" v="686214" />
	</node>
	<node id="-772549" lat="70.0374861109" lon="20.9562777606">
		<tag k="fixme" v="consider natural=peak for the most distinct mountains in the district" />
		<tag k="loc_name:se" v="Gaskabruggu" />
		<tag k="name" v="Lailafjellet" />
		<tag k="name:no" v="Lailafjellet" />
		<tag k="natural" v="hill" />
		<tag k="place" v="locality" />
		<tag k="ssr:stedsnr" v="686210" />
	</node>
	<node id="-772546" lat="70.0745916696" lon="20.4318222146">
		<tag k="fixme" v="consider natural=peak for the most distinct mountains in the district" />
		<tag k="loc_name:se" v="Stállogáisá" />
		<tag k="name" v="Trolltinden" />
		<tag k="name:no" v="Trolltinden" />
		<tag k="natural" v="hill" />
		<tag k="place" v="locality" />
		<tag k="ssr:stedsnr" v="686189" />
	</node>
	<node id="-772542" lat="70.0002305555" lon="20.7980527503">
		<tag k="alt_name" v="Kågtinden, store" />
		<tag k="fixme" v="consider natural=peak for the most distinct mountains in the district" />
		<tag k="name" v="Store Kågtinden" />
		<tag k="natural" v="hill" />
		<tag k="place" v="locality" />
		<tag k="ssr:stedsnr" v="686125" />
	</node>
	<node id="-772539" lat="70.0129027819" lon="20.9175833025">
		<tag k="name" v="Tráhppabákti" />
		<tag k="name:se" v="Tráhppabákti" />
		<tag k="natural" v="hill" />
		<tag k="place" v="locality" />
		<tag k="ssr:stedsnr" v="656313" />
	</node>
	<node id="-772538" lat="70.00784722" lon="20.8912388684">
		<tag k="name" v="Tennberget" />
		<tag k="natural" v="hill" />
		<tag k="place" v="locality" />
		<tag k="ssr:stedsnr" v="656309" />
	</node>
	<node id="-772537" lat="70.010727782" lon="20.9603166493">
		<tag k="name" v="Gussaroggi" />
		<tag k="name:se" v="Gussaroggi" />
		<tag k="natural" v="valley" />
		<tag k="place" v="locality" />
		<tag k="ssr:stedsnr" v="656308" />
	</node>
	<node id="-772535" lat="69.9939416643" lon="21.0655277398">
		<tag k="name" v="Marilia" />
		<tag k="natural" v="slope" />
		<tag k="place" v="locality" />
		<tag k="ssr:stedsnr" v="656197" />
	</node>
	<node id="-772530" lat="70.2055166693" lon="20.8052666469">
		<tag k="name" v="Bukkeberget" />
		<tag k="natural" v="hill" />
		<tag k="place" v="locality" />
		<tag k="ssr:stedsnr" v="656123" />
	</node>
	<node id="-772524" lat="69.9356111164" lon="20.8097360885">
		<tag k="name" v="Vedhøgga" />
		<tag k="natural" v="slope" />
		<tag k="place" v="locality" />
		<tag k="ssr:stedsnr" v="655887" />
	</node>
	<node id="-772523" lat="69.9619333359" lon="20.7541360821">
		<tag k="name" v="Lilleberget" />
		<tag k="natural" v="hill" />
		<tag k="place" v="locality" />
		<tag k="ssr:stedsnr" v="655884" />
	</node>
	<node id="-772519" lat="69.9102694499" lon="20.7164221928">
		<tag k="name" v="Grythadda" />
		<tag k="natural" v="slope" />
		<tag k="place" v="locality" />
		<tag k="ssr:stedsnr" v="655866" />
	</node>
	<node id="-772518" lat="70.034022226" lon="20.5551666621">
		<tag k="name" v="Storbakken" />
		<tag k="natural" v="slope" />
		<tag k="place" v="locality" />
		<tag k="ssr:stedsnr" v="655859" />
	</node>
	<node id="-772517" lat="70.051569448" lon="20.6651249708">
		<tag k="name" v="Langhammaren" />
		<tag k="natural" v="hill" />
		<tag k="place" v="locality" />
		<tag k="ssr:stedsnr" v="655852" />
	</node>
	<node id="-772516" lat="70.0462222228" lon="20.6989749926">
		<tag k="name" v="Tyttebærryggen" />
		<tag k="natural" v="slope" />
		<tag k="place" v="locality" />
		<tag k="ssr:stedsnr" v="655842" />
	</node>
	<node id="-772515" lat="70.099038888" lon="20.5709888585">
		<tag k="name" v="Lyngnesdalen" />
		<tag k="natural" v="valley" />
		<tag k="place" v="locality" />
		<tag k="ssr:stedsnr" v="655786" />
	</node>
	<node id="-772514" lat="70.0690388898" lon="20.5701888643">
		<tag k="name" v="Storskreda" />
		<tag k="natural" v="slope" />
		<tag k="place" v="locality" />
		<tag k="ssr:stedsnr" v="655744" />
	</node>
	<node id="-772513" lat="70.0431277744" lon="20.5872888738">
		<tag k="name" v="Bruna" />
		<tag k="natural" v="slope" />
		<tag k="place" v="locality" />
		<tag k="ssr:stedsnr" v="655681" />
	</node>
	<node id="-772511" lat="70.0419694449" lon="20.6140638706">
		<tag k="name" v="Bakaromnsberget" />
		<tag k="natural" v="hill" />
		<tag k="place" v="locality" />
		<tag k="ssr:stedsnr" v="655661" />
	</node>
	<node id="-772509" lat="70.0378861153" lon="20.5961610981">
		<tag k="name" v="Storhaugen" />
		<tag k="natural" v="hill" />
		<tag k="place" v="locality" />
		<tag k="ssr:stedsnr" v="655656" />
	</node>
	<node id="-772506" lat="69.9648472233" lon="20.6430777497">
		<tag k="name" v="Sleparbakken - Javedearbmi" />
		<tag k="name:no" v="Sleparbakken" />
		<tag k="name:se" v="Javedearbmi" />
		<tag k="natural" v="slope" />
		<tag k="place" v="locality" />
		<tag k="ssr:stedsnr" v="655581" />
	</node>
	<node id="-772505" lat="69.9691222189" lon="20.6692444233">
		<tag k="name" v="Storbakken" />
		<tag k="natural" v="slope" />
		<tag k="place" v="locality" />
		<tag k="ssr:stedsnr" v="655578" />
	</node>
	<node id="-772504" lat="69.9804111132" lon="20.6276583218">
		<tag k="name" v="Hellaren" />
		<tag k="natural" v="slope" />
		<tag k="place" v="locality" />
		<tag k="ssr:stedsnr" v="655555" />
	</node>
	<node id="-772503" lat="69.9770222227" lon="20.6419555387">
		<tag k="name" v="Smådalan" />
		<tag k="natural" v="valley" />
		<tag k="place" v="locality" />
		<tag k="ssr:stedsnr" v="655512" />
	</node>
	<node id="-772502" lat="69.9821083371" lon="20.642049981">
		<tag k="name" v="Gåsvikdalen" />
		<tag k="natural" v="valley" />
		<tag k="place" v="locality" />
		<tag k="ssr:stedsnr" v="655513" />
	</node>
	<node id="-772501" lat="69.9107944439" lon="20.7080416595">
		<tag k="name" v="Garnberget" />
		<tag k="natural" v="hill" />
		<tag k="place" v="locality" />
		<tag k="ssr:stedsnr" v="655385" />
	</node>
	<node id="-772500" lat="69.9087083337" lon="20.6987333144">
		<tag k="name" v="Bystuhollet" />
		<tag k="natural" v="valley" />
		<tag k="place" v="locality" />
		<tag k="ssr:stedsnr" v="655377" />
	</node>
	<node id="-772499" lat="70.0025583341" lon="21.0383332984">
		<tag k="name" v="Småbergan" />
		<tag k="natural" v="hill" />
		<tag k="place" v="locality" />
		<tag k="ssr:stedsnr" v="655360" />
	</node>
	<node id="-772498" lat="69.9265138859" lon="20.6765471914">
		<tag k="name" v="Floget" />
		<tag k="natural" v="hill" />
		<tag k="place" v="locality" />
		<tag k="ssr:stedsnr" v="655352" />
	</node>
	<node id="-772496" lat="69.9224055572" lon="20.6855111051">
		<tag k="name" v="Høeghberget" />
		<tag k="natural" v="hill" />
		<tag k="place" v="locality" />
		<tag k="ssr:stedsnr" v="655345" />
	</node>
	<node id="-772491" lat="70.0089444435" lon="21.0414110864">
		<tag k="name" v="Hummaren" />
		<tag k="natural" v="hill" />
		<tag k="place" v="locality" />
		<tag k="ssr:stedsnr" v="655324" />
	</node>
	<node id="-772489" lat="70.1822194421" lon="20.5319722084">
		<tag k="name" v="Finskjebakken" />
		<tag k="natural" v="slope" />
		<tag k="place" v="locality" />
		<tag k="ssr:stedsnr" v="655269" />
	</node>
	<node id="-772488" lat="69.9775138855" lon="20.9355971942">
		<tag k="name" v="Langbakken" />
		<tag k="natural" v="slope" />
		<tag k="place" v="locality" />
		<tag k="ssr:stedsnr" v="655260" />
	</node>
	<node id="-772483" lat="70.1055694474" lon="20.9176638661">
		<tag k="name" v="Grunntoftsberget" />
		<tag k="natural" v="hill" />
		<tag k="place" v="locality" />
		<tag k="ssr:stedsnr" v="655207" />
	</node>
	<node id="-772480" lat="70.0383611133" lon="21.0012860889">
		<tag k="name" v="Bratta" />
		<tag k="natural" v="slope" />
		<tag k="place" v="locality" />
		<tag k="ssr:stedsnr" v="655157" />
	</node>
	<node id="-772479" lat="70.0421611097" lon="20.9879249732">
		<tag k="fixme" v="consider natural=peak for the most distinct mountains in the district" />
		<tag k="name" v="Vardefjellet" />
		<tag k="natural" v="hill" />
		<tag k="place" v="locality" />
		<tag k="ssr:stedsnr" v="655152" />
	</node>
	<node id="-772478" lat="70.0165611102" lon="20.7883888656">
		<tag k="name" v="Vittnesdalen" />
		<tag k="natural" v="valley" />
		<tag k="place" v="locality" />
		<tag k="ssr:stedsnr" v="655134" />
	</node>
	<node id="-772477" lat="70.0520694448" lon="20.7465860877">
		<tag k="name" v="Kvitflogan" />
		<tag k="place" v="locality" />
		<tag k="ssr:stedsnr" v="655125" />
	</node>
	<node id="-772476" lat="70.0600111115" lon="20.7986666415">
		<tag k="name" v="Singelbergan" />
		<tag k="natural" v="hill" />
		<tag k="place" v="locality" />
		<tag k="ssr:stedsnr" v="655046" />
	</node>
	<node id="-772470" lat="70.031933333" lon="20.958299965">
		<tag k="name" v="Haugen" />
		<tag k="natural" v="hill" />
		<tag k="place" v="locality" />
		<tag k="ssr:stedsnr" v="651992" />
	</node>
	<node id="-772467" lat="70.2319888888" lon="20.702672201">
		<tag k="name" v="Hyllaksla" />
		<tag k="place" v="locality" />
		<tag k="ssr:stedsnr" v="636258" />
	</node>
	<node id="-772457" lat="70.0491749973" lon="20.6316610962">
		<tag k="name" v="Hamna" />
		<tag k="natural" v="valley" />
		<tag k="place" v="locality" />
		<tag k="ssr:stedsnr" v="631164" />
	</node>
	<node id="-772446" lat="70.1230638855" lon="20.6304166504">
		<tag k="fixme" v="consider natural=peak for the most distinct mountains in the district" />
		<tag k="name" v="Grunnfjordtindan" />
		<tag k="natural" v="hill" />
		<tag k="place" v="locality" />
		<tag k="ssr:stedsnr" v="626042" />
	</node>
	<node id="-772445" lat="70.1234611106" lon="20.7175138739">
		<tag k="alt_name:no" v="Tjyvdalen" />
		<tag k="loc_name:se" v="Givavággi" />
		<tag k="name" v="Tjuvdalen" />
		<tag k="name:no" v="Tjuvdalen" />
		<tag k="natural" v="valley" />
		<tag k="place" v="locality" />
		<tag k="ssr:stedsnr" v="626040" />
	</node>
	<node id="-772444" lat="70.1110944405" lon="20.4957083222">
		<tag k="fixme" v="consider natural=peak for the most distinct mountains in the district" />
		<tag k="name" v="Kistefjellet" />
		<tag k="natural" v="hill" />
		<tag k="place" v="locality" />
		<tag k="ssr:stedsnr" v="626034" />
	</node>
	<node id="-772443" lat="70.1125277816" lon="20.4384583142">
		<tag k="name" v="Rundhaugen" />
		<tag k="natural" v="hill" />
		<tag k="place" v="locality" />
		<tag k="ssr:stedsnr" v="626033" />
	</node>
	<node id="-772440" lat="70.1524833369" lon="20.4293749948">
		<tag k="name" v="Tobbevikdalen" />
		<tag k="natural" v="valley" />
		<tag k="place" v="locality" />
		<tag k="ssr:stedsnr" v="626006" />
	</node>
	<node id="-772438" lat="70.1531722199" lon="20.7447666441">
		<tag k="name" v="Lilledalen" />
		<tag k="natural" v="valley" />
		<tag k="place" v="locality" />
		<tag k="ssr:stedsnr" v="626003" />
	</node>
	<node id="-772434" lat="69.9555666693" lon="20.8869888785">
		<tag k="fixme" v="consider natural=peak for the most distinct mountains in the district" />
		<tag k="name" v="Høgfjellet" />
		<tag k="natural" v="hill" />
		<tag k="place" v="locality" />
		<tag k="ssr:stedsnr" v="625552" />
	</node>
	<node id="-772420" lat="70.0355972264" lon="20.595338885">
		<tag k="name" v="Holtevollen" />
		<tag k="place" v="locality" />
		<tag k="ssr:stedsnr" v="595813" />
	</node>
	<node id="-772419" lat="70.0420972206" lon="20.575261098">
		<tag k="fixme" v="consider natural=peak for the most distinct mountains in the district" />
		<tag k="name" v="Nordre Faueltinden" />
		<tag k="natural" v="hill" />
		<tag k="place" v="locality" />
		<tag k="ssr:stedsnr" v="595657" />
	</node>
	<node id="-772418" lat="70.0465805554" lon="20.6110638637">
		<tag k="name" v="Blomlia" />
		<tag k="natural" v="slope" />
		<tag k="place" v="locality" />
		<tag k="ssr:stedsnr" v="595640" />
	</node>
	<node id="-772416" lat="69.9424250043" lon="20.6680472024">
		<tag k="name" v="Haugen" />
		<tag k="natural" v="hill" />
		<tag k="place" v="locality" />
		<tag k="ssr:stedsnr" v="595546" />
	</node>
	<node id="-772413" lat="69.9296222232" lon="20.8723333015">
		<tag k="name" v="Reinslakteriet" />
		<tag k="place" v="locality" />
		<tag k="ssr:stedsnr" v="595346" />
	</node>
	<node id="-772410" lat="70.0521444477" lon="20.790261102">
		<tag k="name" v="Nerbakken" />
		<tag k="natural" v="slope" />
		<tag k="place" v="locality" />
		<tag k="ssr:stedsnr" v="595083" />
	</node>
	<node id="-772408" lat="70.1284333375" lon="20.549449983">
		<tag k="name" v="Kvilarbakken" />
		<tag k="natural" v="slope" />
		<tag k="place" v="locality" />
		<tag k="ssr:stedsnr" v="594959" />
	</node>
	<node id="-772406" lat="70.0570249984" lon="20.4270805468">
		<tag k="fixme" v="consider natural=peak for the most distinct mountains in the district" />
		<tag k="name" v="Revfjellet" />
		<tag k="natural" v="hill" />
		<tag k="place" v="locality" />
		<tag k="ssr:stedsnr" v="594916" />
	</node>
	<node id="-772400" lat="69.92539722" lon="20.8563721898">
		<tag k="name" v="Rundhaugen" />
		<tag k="natural" v="hill" />
		<tag k="place" v="locality" />
		<tag k="ssr:stedsnr" v="594873" />
	</node>
	<node id="-772399" lat="69.9223666715" lon="20.8369749765">
		<tag k="name" v="Stangnesrabben" />
		<tag k="natural" v="slope" />
		<tag k="place" v="locality" />
		<tag k="ssr:stedsnr" v="594872" />
	</node>
	<node id="-772398" lat="69.9265083343" lon="20.8184610998">
		<tag k="name" v="Manndrapet" />
		<tag k="place" v="locality" />
		<tag k="ssr:stedsnr" v="594867" />
	</node>
	<node id="-772393" lat="70.040427778" lon="20.9577666488">
		<tag k="name" v="Skaret" />
		<tag k="natural" v="valley" />
		<tag k="place" v="locality" />
		<tag k="ssr:stedsnr" v="594821" />
	</node>
	<node id="-772391" lat="70.0559166706" lon="20.9889138563">
		<tag k="name" v="Brennerpasset" />
		<tag k="natural" v="valley" />
		<tag k="place" v="locality" />
		<tag k="ssr:stedsnr" v="594799" />
	</node>
	<node id="-772389" lat="70.0704777801" lon="20.6232610987">
		<tag k="fixme" v="consider natural=peak for the most distinct mountains in the district" />
		<tag k="name" v="Sløkedalskulen" />
		<tag k="natural" v="hill" />
		<tag k="place" v="locality" />
		<tag k="ssr:stedsnr" v="594762" />
	</node>
	<node id="-772385" lat="70.0026583298" lon="21.0288221968">
		<tag k="name" v="Ørnaberget" />
		<tag k="natural" v="hill" />
		<tag k="place" v="locality" />
		<tag k="ssr:stedsnr" v="594353" />
	</node>
	<node id="-772377" lat="70.1701666631" lon="20.785577758">
		<tag k="name" v="Urlia" />
		<tag k="natural" v="slope" />
		<tag k="place" v="locality" />
		<tag k="ssr:stedsnr" v="594225" />
	</node>
	<node id="-772371" lat="70.1405916709" lon="20.7636222033">
		<tag k="name" v="Lyngnesbakken" />
		<tag k="natural" v="slope" />
		<tag k="place" v="locality" />
		<tag k="ssr:stedsnr" v="594197" />
	</node>
	<node id="-772369" lat="70.1323777812" lon="20.5214971954">
		<tag k="name" v="Bjørndalen" />
		<tag k="natural" v="valley" />
		<tag k="place" v="locality" />
		<tag k="ssr:stedsnr" v="594158" />
	</node>
	<node id="-772368" lat="70.1590611089" lon="20.776424974">
		<tag k="name" v="Småbakkan" />
		<tag k="natural" v="slope" />
		<tag k="place" v="locality" />
		<tag k="ssr:stedsnr" v="594154" />
	</node>
	<node id="-772365" lat="70.0701055579" lon="20.5140194237">
		<tag k="name" v="Lilledalen" />
		<tag k="natural" v="valley" />
		<tag k="place" v="locality" />
		<tag k="ssr:stedsnr" v="594125" />
	</node>
	<node id="-772364" lat="69.9967111094" lon="20.7435110849">
		<tag k="fixme" v="consider natural=peak for the most distinct mountains in the district" />
		<tag k="name" v="Steinbakkaksla" />
		<tag k="natural" v="hill" />
		<tag k="place" v="locality" />
		<tag k="ssr:stedsnr" v="594124" />
	</node>
	<node id="-772363" lat="70.1125583367" lon="20.7439499851">
		<tag k="name" v="Lauksletta" />
		<tag k="place" v="locality" />
		<tag k="ssr:stedsnr" v="594017" />
	</node>
	<node id="-772361" lat="69.9820416686" lon="20.6443305469">
		<tag k="name" v="Gåsvikhaugen" />
		<tag k="natural" v="hill" />
		<tag k="place" v="locality" />
		<tag k="ssr:stedsnr" v="594506" />
	</node>
	<node id="-772351" lat="70.2181361156" lon="20.5300972031">
		<tag k="name" v="Gryta" />
		<tag k="natural" v="valley" />
		<tag k="place" v="locality" />
		<tag k="ssr:stedsnr" v="575348" />
	</node>
	<node id="-772350" lat="70.1287805592" lon="20.8685944288">
		<tag k="name" v="Tennkeildalen" />
		<tag k="natural" v="valley" />
		<tag k="place" v="locality" />
		<tag k="ssr:stedsnr" v="575232" />
	</node>
	<node id="-772341" lat="70.0395027824" lon="20.537858306">
		<tag k="name" v="Storsteinbergan" />
		<tag k="natural" v="hill" />
		<tag k="place" v="locality" />
		<tag k="ssr:stedsnr" v="570919" />
	</node>
	<node id="-772337" lat="70.1093666646" lon="20.386533326">
		<tag k="name" v="Breiskaret" />
		<tag k="natural" v="valley" />
		<tag k="place" v="locality" />
		<tag k="ssr:stedsnr" v="570357" />
	</node>
	<node id="-772335" lat="70.0668888856" lon="20.5247388778">
		<tag k="name" v="Flathella" />
		<tag k="place" v="locality" />
		<tag k="ssr:stedsnr" v="570152" />
	</node>
	<node id="-772333" lat="70.0204972236" lon="20.7195944299">
		<tag k="name" v="Ottarhola" />
		<tag k="natural" v="valley" />
		<tag k="place" v="locality" />
		<tag k="ssr:stedsnr" v="570134" />
	</node>
	<node id="-772328" lat="69.9856166663" lon="20.7618166564">
		<tag k="name" v="Bruttodalen" />
		<tag k="natural" v="valley" />
		<tag k="place" v="locality" />
		<tag k="ssr:stedsnr" v="565613" />
	</node>
	<node id="-772326" lat="69.8949444446" lon="20.6750527597">
		<tag k="fixme" v="consider natural=peak for the most distinct mountains in the district" />
		<tag k="name" v="Arontinden" />
		<tag k="natural" v="hill" />
		<tag k="place" v="locality" />
		<tag k="ssr:stedsnr" v="565565" />
	</node>
	<node id="-772324" lat="69.8865555596" lon="20.6483194219">
		<tag k="fixme" v="consider natural=peak for the most distinct mountains in the district" />
		<tag k="name" v="Reinrabben" />
		<tag k="natural" v="hill" />
		<tag k="place" v="locality" />
		<tag k="ssr:stedsnr" v="565553" />
	</node>
	<node id="-772320" lat="69.8771361086" lon="20.5769583054">
		<tag k="fixme" v="consider natural=peak for the most distinct mountains in the district" />
		<tag k="name" v="Komagteppen - Njunnáš" />
		<tag k="name:no" v="Komagteppen" />
		<tag k="name:se" v="Njunnáš" />
		<tag k="natural" v="hill" />
		<tag k="place" v="locality" />
		<tag k="ssr:stedsnr" v="565499" />
	</node>
	<node id="-772314" lat="70.2227972185" lon="20.6085722073">
		<tag k="fixme" v="consider natural=peak for the most distinct mountains in the district" />
		<tag k="name" v="Makeiltinden" />
		<tag k="natural" v="hill" />
		<tag k="place" v="locality" />
		<tag k="ssr:stedsnr" v="565085" />
	</node>
	<node id="-772313" lat="70.2177277802" lon="20.7096055413">
		<tag k="fixme" v="consider natural=peak for the most distinct mountains in the district" />
		<tag k="loc_name:se" v="Hildovárri" />
		<tag k="name" v="Hyllefjellet" />
		<tag k="name:no" v="Hyllefjellet" />
		<tag k="natural" v="hill" />
		<tag k="place" v="locality" />
		<tag k="ssr:stedsnr" v="565081" />
	</node>
	<node id="-772310" lat="70.1179111148" lon="20.8054555306">
		<tag k="fixme" v="consider natural=peak for the most distinct mountains in the district" />
		<tag k="name" v="Sandnestinden" />
		<tag k="natural" v="hill" />
		<tag k="ssr:stedsnr" v="565031" />
	</node>
	<node id="-772309" lat="70.1657777741" lon="20.5700805381">
		<tag k="name" v="Ytre Svarttinddalen" />
		<tag k="natural" v="valley" />
		<tag k="place" v="locality" />
		<tag k="ssr:stedsnr" v="565021" />
	</node>
	<node id="-772306" lat="70.1546888936" lon="20.5657277669">
		<tag k="fixme" v="consider natural=peak for the most distinct mountains in the district" />
		<tag k="loc_name:se" v="Hárjevárri" />
		<tag k="name" v="Svarttindfjellet" />
		<tag k="name:no" v="Svarttindfjellet" />
		<tag k="natural" v="hill" />
		<tag k="place" v="locality" />
		<tag k="ssr:stedsnr" v="565006" />
	</node>
	<node id="-772303" lat="70.0582333352" lon="20.5786638672">
		<tag k="name" v="Tuva" />
		<tag k="natural" v="hill" />
		<tag k="place" v="locality" />
		<tag k="ssr:stedsnr" v="564228" />
	</node>
	<node id="-772298" lat="70.0869833357" lon="20.6298194291">
		<tag k="name" v="Gammhaugdalen" />
		<tag k="natural" v="valley" />
		<tag k="place" v="locality" />
		<tag k="ssr:stedsnr" v="564182" />
	</node>
	<node id="-772295" lat="70.0823444481" lon="20.3973916482">
		<tag k="fixme" v="consider natural=peak for the most distinct mountains in the district" />
		<tag k="loc_name:se" v="Suovttavárri" />
		<tag k="name" v="Sotnestinden" />
		<tag k="name:no" v="Sotnestinden" />
		<tag k="natural" v="hill" />
		<tag k="place" v="locality" />
		<tag k="ssr:stedsnr" v="564079" />
	</node>
	<node id="-772293" lat="70.0353250014" lon="20.5531444369">
		<tag k="name" v="Irvi" />
		<tag k="name:se" v="Irvi" />
		<tag k="place" v="locality" />
		<tag k="ssr:stedsnr" v="535813" />
	</node>
	<node id="-772288" lat="69.9593833325" lon="20.9640749812">
		<tag k="name" v="Kuberget" />
		<tag k="natural" v="hill" />
		<tag k="place" v="locality" />
		<tag k="ssr:stedsnr" v="535156" />
	</node>
	<node id="-772287" lat="70.1476138852" lon="20.7719055343">
		<tag k="name" v="Sandmelen" />
		<tag k="natural" v="slope" />
		<tag k="place" v="locality" />
		<tag k="ssr:stedsnr" v="535144" />
	</node>
	<node id="-772283" lat="70.203813888" lon="20.6561722001">
		<tag k="name" v="Storhaugen" />
		<tag k="natural" v="hill" />
		<tag k="place" v="locality" />
		<tag k="ssr:stedsnr" v="534928" />
	</node>
	<node id="-772282" lat="70.2002138879" lon="20.6099416581">
		<tag k="name" v="Rotvågdalen" />
		<tag k="natural" v="valley" />
		<tag k="place" v="locality" />
		<tag k="ssr:stedsnr" v="534927" />
	</node>
	<node id="-772281" lat="70.2244972207" lon="20.6360444287">
		<tag k="name" v="Steinheia" />
		<tag k="place" v="locality" />
		<tag k="ssr:stedsnr" v="534925" />
	</node>
	<node id="-772280" lat="70.2103944464" lon="20.6411360969">
		<tag k="name" v="Nord-Rekvikaksla" />
		<tag k="place" v="locality" />
		<tag k="ssr:stedsnr" v="534917" />
	</node>
	<node id="-772279" lat="70.1912305544" lon="20.5672249777">
		<tag k="fixme" v="consider natural=peak for the most distinct mountains in the district" />
		<tag k="name" v="Storfjellet" />
		<tag k="natural" v="hill" />
		<tag k="place" v="locality" />
		<tag k="ssr:stedsnr" v="534909" />
	</node>
	<node id="-772278" lat="70.0536138891" lon="20.4812555277">
		<tag k="name" v="Okshaugen" />
		<tag k="natural" v="hill" />
		<tag k="place" v="locality" />
		<tag k="ssr:stedsnr" v="534902" />
	</node>
	<node id="-772277" lat="69.9492472187" lon="20.8532305443">
		<tag k="fixme" v="consider natural=peak for the most distinct mountains in the district" />
		<tag k="name" v="Søre Kågtinden" />
		<tag k="natural" v="hill" />
		<tag k="old_name" v="Kågtinden, s" />
		<tag k="place" v="locality" />
		<tag k="ssr:stedsnr" v="534898" />
	</node>
	<node id="-772276" lat="70.0533944479" lon="20.4896416462">
		<tag k="name" v="Stormoa" />
		<tag k="place" v="locality" />
		<tag k="ssr:stedsnr" v="534897" />
	</node>
	<node id="-772275" lat="69.955880556" lon="20.7550972148">
		<tag k="name" v="Tverrberget" />
		<tag k="natural" v="hill" />
		<tag k="place" v="locality" />
		<tag k="ssr:stedsnr" v="534892" />
	</node>
	<node id="-772273" lat="70.0466583303" lon="20.6975249892">
		<tag k="name" v="Elvebakken" />
		<tag k="natural" v="slope" />
		<tag k="place" v="locality" />
		<tag k="ssr:stedsnr" v="534849" />
	</node>
	<node id="-772272" lat="70.0504527754" lon="20.9649944315">
		<tag k="name" v="Larsberget" />
		<tag k="natural" v="hill" />
		<tag k="place" v="locality" />
		<tag k="ssr:stedsnr" v="534847" />
	</node>
	<node id="-772268" lat="70.0378861153" lon="20.5961610981">
		<tag k="name" v="Lillehaugen" />
		<tag k="natural" v="hill" />
		<tag k="place" v="locality" />
		<tag k="ssr:stedsnr" v="534669" />
	</node>
	<node id="-772267" lat="70.0381527809" lon="20.5689110915">
		<tag k="name" v="Øverdalen" />
		<tag k="natural" v="valley" />
		<tag k="place" v="locality" />
		<tag k="ssr:stedsnr" v="534664" />
	</node>
	<node id="-772265" lat="69.9670138876" lon="20.6594166452">
		<tag k="name" v="Liivvasčorru" />
		<tag k="name:se" v="Liivvasčorru" />
		<tag k="natural" v="hill" />
		<tag k="place" v="locality" />
		<tag k="ssr:stedsnr" v="534592" />
	</node>
	<node id="-772264" lat="69.9437972213" lon="20.6633999699">
		<tag k="name" v="Brentaksla" />
		<tag k="place" v="locality" />
		<tag k="ssr:stedsnr" v="534570" />
	</node>
	<node id="-772263" lat="69.9848666638" lon="20.6275277506">
		<tag k="name" v="Falkedalen" />
		<tag k="natural" v="valley" />
		<tag k="place" v="locality" />
		<tag k="ssr:stedsnr" v="534567" />
	</node>
	<node id="-772262" lat="69.9827638932" lon="20.6249472142">
		<tag k="name" v="Hellarsletta" />
		<tag k="place" v="locality" />
		<tag k="ssr:stedsnr" v="534566" />
	</node>
	<node id="-772261" lat="69.9165027816" lon="20.6845027685">
		<tag k="name" v="Storhaugen" />
		<tag k="natural" v="hill" />
		<tag k="place" v="locality" />
		<tag k="ssr:stedsnr" v="534371" />
	</node>
	<node id="-772259" lat="69.8660638867" lon="20.6758388681">
		<tag k="name" v="Fururabben" />
		<tag k="natural" v="slope" />
		<tag k="place" v="locality" />
		<tag k="ssr:stedsnr" v="534340" />
	</node>
	<node id="-772256" lat="69.8773611139" lon="20.6164888755">
		<tag k="name" v="Svarttinddalen" />
		<tag k="natural" v="valley" />
		<tag k="place" v="locality" />
		<tag k="ssr:stedsnr" v="534309" />
	</node>
	<node id="-772254" lat="70.1607861151" lon="20.5209721991">
		<tag k="name" v="Ressebakken" />
		<tag k="natural" v="slope" />
		<tag k="place" v="locality" />
		<tag k="ssr:stedsnr" v="534265" />
	</node>
	<node id="-772253" lat="70.1744777806" lon="20.4916472101">
		<tag k="name" v="Jotan" />
		<tag k="natural" v="valley" />
		<tag k="place" v="locality" />
		<tag k="ssr:stedsnr" v="534258" />
	</node>
	<node id="-772248" lat="70.1844305562" lon="20.7989083095">
		<tag k="fixme" v="consider natural=peak for the most distinct mountains in the district" />
		<tag k="name" v="Flufjellet" />
		<tag k="natural" v="hill" />
		<tag k="place" v="locality" />
		<tag k="ssr:stedsnr" v="534216" />
	</node>
	<node id="-772242" lat="70.0233555539" lon="20.973091638">
		<tag k="name" v="Vågadalen" />
		<tag k="natural" v="valley" />
		<tag k="place" v="locality" />
		<tag k="ssr:stedsnr" v="534168" />
	</node>
	<node id="-772239" lat="70.0001972199" lon="20.7983277631">
		<tag k="fixme" v="consider natural=peak for the most distinct mountains in the district" />
		<tag k="loc_name:se" v="Gávvirgáisi" />
		<tag k="name" v="Kågtinden" />
		<tag k="name:no" v="Kågtinden" />
		<tag k="natural" v="hill" />
		<tag k="place" v="locality" />
		<tag k="ssr:stedsnr" v="534127" />
	</node>
	<node id="-772238" lat="70.0117166681" lon="20.7387666353">
		<tag k="name" v="Kvaldalen" />
		<tag k="natural" v="valley" />
		<tag k="place" v="locality" />
		<tag k="ssr:stedsnr" v="534115" />
	</node>
	<node id="-772237" lat="70.0497444488" lon="20.763236091">
		<tag k="name" v="Grasryggen" />
		<tag k="natural" v="ridge" />
		<tag k="place" v="locality" />
		<tag k="ssr:stedsnr" v="534102" />
	</node>
	<node id="-772226" lat="69.9563416667" lon="20.6447138767">
		<tag k="name" v="Langbakken" />
		<tag k="natural" v="slope" />
		<tag k="place" v="locality" />
		<tag k="ssr:stedsnr" v="533576" />
	</node>
	<node id="-772223" lat="69.9466000001" lon="20.6575277476">
		<tag k="name" v="Strupen" />
		<tag k="natural" v="valley" />
		<tag k="place" v="locality" />
		<tag k="ssr:stedsnr" v="533558" />
	</node>
	<node id="-772222" lat="70.0687750009" lon="20.5251944271">
		<tag k="name" v="Josmohaugen" />
		<tag k="natural" v="hill" />
		<tag k="place" v="locality" />
		<tag k="ssr:stedsnr" v="533107" />
	</node>
	<node id="-772219" lat="70.0493083351" lon="20.7534472113">
		<tag k="name" v="Bringebærholla" />
		<tag k="natural" v="slope" />
		<tag k="place" v="locality" />
		<tag k="ssr:stedsnr" v="533096" />
	</node>
	<node id="-772217" lat="70.1290472195" lon="20.3828055518">
		<tag k="name" v="Lia" />
		<tag k="natural" v="slope" />
		<tag k="place" v="locality" />
		<tag k="ssr:stedsnr" v="533085" />
	</node>
	<node id="-772209" lat="70.150411111" lon="20.8461833109">
		<tag k="name" v="Skarveberget" />
		<tag k="natural" v="hill" />
		<tag k="place" v="locality" />
		<tag k="ssr:stedsnr" v="515312" />
	</node>
	<node id="-772196" lat="70.0852138891" lon="20.7345027552">
		<tag k="name" v="Skardalen" />
		<tag k="natural" v="valley" />
		<tag k="place" v="locality" />
		<tag k="ssr:stedsnr" v="505502" />
	</node>
	<node id="-772195" lat="70.1029555602" lon="20.8599471962">
		<tag k="fixme" v="consider natural=peak for the most distinct mountains in the district" />
		<tag k="name" v="Novetinden" />
		<tag k="natural" v="hill" />
		<tag k="place" v="locality" />
		<tag k="ssr:stedsnr" v="505231" />
	</node>
	<node id="-772192" lat="70.1171083383" lon="20.5352166421">
		<tag k="alt_name" v="Langfjordbotnen" />
		<tag k="name" v="Langfjordbotn" />
		<tag k="natural" v="valley" />
		<tag k="place" v="locality" />
		<tag k="ssr:stedsnr" v="505057" />
	</node>
	<node id="-772191" lat="70.1424527791" lon="20.6556110918">
		<tag k="name" v="Isbakkdalen" />
		<tag k="natural" v="valley" />
		<tag k="place" v="locality" />
		<tag k="ssr:stedsnr" v="505055" />
	</node>
	<node id="-772188" lat="70.1653200326" lon="20.7723263339">
		<tag k="name" v="Storelvdalen" />
		<tag k="natural" v="valley" />
		<tag k="place" v="locality" />
		<tag k="ssr:stedsnr" v="505030" />
	</node>
	<node id="-772187" lat="70.1513638914" lon="20.4887277697">
		<tag k="fixme" v="consider natural=peak for the most distinct mountains in the district" />
		<tag k="name" v="Dalbakken" />
		<tag k="natural" v="hill" />
		<tag k="place" v="locality" />
		<tag k="ssr:stedsnr" v="505004" />
	</node>
	<node id="-772183" lat="69.9797000033" lon="20.876963877">
		<tag k="name" v="Trolldalen" />
		<tag k="natural" v="valley" />
		<tag k="place" v="locality" />
		<tag k="ssr:stedsnr" v="504629" />
	</node>
	<node id="-772181" lat="69.9692388899" lon="20.7857305435">
		<tag k="alt_name" v="Sandnesdalen" />
		<tag k="name" v="Storsandnesdalen" />
		<tag k="natural" v="valley" />
		<tag k="place" v="locality" />
		<tag k="ssr:stedsnr" v="504617" />
	</node>
	<node id="-772176" lat="69.9469555566" lon="20.6513555457">
		<tag k="name" v="Trollvassfloget" />
		<tag k="natural" v="hill" />
		<tag k="place" v="locality" />
		<tag k="ssr:stedsnr" v="504577" />
	</node>
	<node id="-772175" lat="69.9467666718" lon="20.8190944237">
		<tag k="fixme" v="consider natural=peak for the most distinct mountains in the district" />
		<tag k="name" v="Blåtinden" />
		<tag k="natural" v="hill" />
		<tag k="place" v="locality" />
		<tag k="ssr:stedsnr" v="504576" />
	</node>
	<node id="-772170" lat="70.0510944474" lon="20.5918999752">
		<tag k="fixme" v="consider natural=peak for the most distinct mountains in the district" />
		<tag k="name" v="Kjedalsfjellet" />
		<tag k="natural" v="hill" />
		<tag k="ssr:stedsnr" v="504200" />
	</node>
	<node id="-772169" lat="70.0937944443" lon="20.4963166632">
		<tag k="fixme" v="consider natural=peak for the most distinct mountains in the district" />
		<tag k="loc_name:se" v="Girku" />
		<tag k="name" v="Finnkjerka" />
		<tag k="name:no" v="Finnkjerka" />
		<tag k="natural" v="hill" />
		<tag k="place" v="locality" />
		<tag k="ssr:stedsnr" v="504194" />
	</node>
	<node id="-772167" lat="70.0885805532" lon="20.5946360794">
		<tag k="fixme" v="consider natural=peak for the most distinct mountains in the district" />
		<tag k="name" v="Småtindan" />
		<tag k="natural" v="hill" />
		<tag k="ssr:stedsnr" v="504170" />
	</node>
	<node id="-772161" lat="70.0656916696" lon="20.794697194">
		<tag k="name" v="Sommarfjøssletta" />
		<tag k="place" v="locality" />
		<tag k="ssr:stedsnr" v="473049" />
	</node>
	<node id="-772140" lat="69.9802555558" lon="20.80666109">
		<tag k="alt_name" v="Reddotinden" />
		<tag k="fixme" v="consider natural=peak for the most distinct mountains in the district" />
		<tag k="name" v="Redotinden" />
		<tag k="natural" v="hill" />
		<tag k="place" v="locality" />
		<tag k="ssr:stedsnr" v="444604" />
	</node>
	<node id="-772138" lat="69.9708333316" lon="20.8685666387">
		<tag k="fixme" v="consider natural=peak for the most distinct mountains in the district" />
		<tag k="name" v="Mølnfjellet" />
		<tag k="natural" v="hill" />
		<tag k="place" v="locality" />
		<tag k="ssr:stedsnr" v="444590" />
	</node>
	<node id="-772137" lat="69.9852888886" lon="20.885355532">
		<tag k="fixme" v="consider natural=peak for the most distinct mountains in the district" />
		<tag k="name" v="Trolltinden" />
		<tag k="natural" v="hill" />
		<tag k="place" v="locality" />
		<tag k="ssr:stedsnr" v="444586" />
	</node>
	<node id="-772130" lat="69.87321389" lon="20.5870694389">
		<tag k="fixme" v="consider natural=peak for the most distinct mountains in the district" />
		<tag k="name" v="Svarttinden" />
		<tag k="natural" v="hill" />
		<tag k="place" v="locality" />
		<tag k="ssr:stedsnr" v="444500" />
	</node>
	<node id="-772126" lat="70.0948138928" lon="20.4793860952">
		<tag k="name" v="Akkarvikdalen" />
		<tag k="natural" v="valley" />
		<tag k="place" v="locality" />
		<tag k="ssr:stedsnr" v="444194" />
	</node>
	<node id="-772125" lat="70.1024194502" lon="20.8961916356">
		<tag k="name" v="Novedalen" />
		<tag k="natural" v="valley" />
		<tag k="place" v="locality" />
		<tag k="ssr:stedsnr" v="444191" />
	</node>
	<node id="-772124" lat="70.0780527739" lon="20.4574416604">
		<tag k="fixme" v="consider natural=peak for the most distinct mountains in the district" />
		<tag k="name" v="Røstet" />
		<tag k="natural" v="hill" />
		<tag k="place" v="locality" />
		<tag k="ssr:stedsnr" v="444176" />
	</node>
	<node id="-772120" lat="70.0117333347" lon="20.7642971955">
		<tag k="fixme" v="consider natural=peak for the most distinct mountains in the district" />
		<tag k="name" v="Kågtindan" />
		<tag k="natural" v="hill" />
		<tag k="place" v="locality" />
		<tag k="ssr:stedsnr" v="444144" />
	</node>
	<node id="-772112" lat="70.1299722219" lon="20.6450360885">
		<tag k="fixme" v="consider natural=peak for the most distinct mountains in the district" />
		<tag k="name" v="Sukkertoppen" />
		<tag k="natural" v="hill" />
		<tag k="place" v="locality" />
		<tag k="ssr:stedsnr" v="444056" />
	</node>
	<node id="-772107" lat="70.1531361117" lon="20.7005499694">
		<tag k="fixme" v="consider natural=peak for the most distinct mountains in the district" />
		<tag k="name" v="Arnøyhøgda" />
		<tag k="natural" v="hill" />
		<tag k="place" v="locality" />
		<tag k="ssr:stedsnr" v="444001" />
	</node>
	<node id="-772103" lat="70.0506361081" lon="20.7665611023">
		<tag k="name" v="Njerran" />
		<tag k="natural" v="slope" />
		<tag k="place" v="locality" />
		<tag k="ssr:stedsnr" v="267981" />
	</node>
	<node id="-772102" lat="70.0569194476" lon="20.4931805326">
		<tag k="name" v="Sandbakken" />
		<tag k="natural" v="slope" />
		<tag k="place" v="locality" />
		<tag k="ssr:stedsnr" v="267966" />
	</node>
</osm>
