<?xml version="1.0" encoding="UTF-8"?>
<osm generator="osmapis" version="0.6">
	<node id="-771390" lat="70.1637555546" lon="20.5221972082">
		<tag k="name" v="Pengeknipa" />
		<tag k="place" v="locality" />
		<tag k="ssr:stedsnr" v="413287" />
	</node>
	<node id="-771741" lat="70.0502611105" lon="20.629319423">
		<tag k="amenity" v="place_of_worship" />
		<tag k="denomination" v="lutheran" />
		<tag k="loc_name" v="Arnøyhamn" />
		<tag k="name" v="Arnøy" />
		<tag k="religion" v="christian" />
		<tag k="ssr:stedsnr" v="94532" />
	</node>
	<node id="-772156" lat="70.0360083318" lon="20.9779249642">
		<tag k="amenity" v="place_of_worship" />
		<tag k="denomination" v="lutheran" />
		<tag k="name" v="Skjervøy" />
		<tag k="religion" v="christian" />
		<tag k="ssr:stedsnr" v="454651" />
	</node>
	<node id="-771255" lat="70.0435138872" lon="20.7153444298">
		<tag k="name" v="Salmeboka" />
		<tag k="place" v="locality" />
		<tag k="ssr:stedsnr" v="352108" />
	</node>
	<node id="-771670" lat="70.1709638909" lon="20.5414722127">
		<tag k="name" v="Lysverket" />
		<tag k="place" v="locality" />
		<tag k="ssr:stedsnr" v="49313" />
	</node>
	<node id="-773077" lat="70.0651555542" lon="20.6255360938">
		<tag k="name" v="Reingjerdet" />
		<tag k="place" v="locality" />
		<tag k="ssr:stedsnr" v="959774" />
	</node>
	<node id="-771371" lat="70.0468611145" lon="20.7397166559">
		<tag k="name" v="Reingjerdet" />
		<tag k="place" v="locality" />
		<tag k="ssr:stedsnr" v="413115" />
	</node>
	<node id="-771141" lat="69.9259249977" lon="20.8580416427">
		<tag k="name" v="Maursundgården" />
		<tag k="ssr:stedsnr" v="291876" />
		<tag k="tourism" v="museum" />
	</node>
</osm>
