<?xml version="1.0" encoding="UTF-8"?>
<osm generator="osmapis" version="0.6">
	<node id="-774139" lat="70.0626555577" lon="20.6965833266">
		<tag k="name" v="Nedre Elvedalsvannet" />
		<tag k="natural" v="water" />
		<tag k="ssr:stedsnr" v="758139" />
	</node>
	<node id="-773626" lat="70.0278111153" lon="20.7911749752">
		<tag k="loc_name:se" v="Várnjárgjávri" />
		<tag k="name" v="Første Vittnesvannet" />
		<tag k="name:no" v="Første Vittnesvannet" />
		<tag k="natural" v="water" />
		<tag k="ssr:stedsnr" v="515192" />
		<tag k="water" v="lake" />
	</node>
	<node id="-773801" lat="69.9771972196" lon="20.9520582999">
		<tag k="name" v="Eidedalsvannet" />
		<tag k="natural" v="water" />
		<tag k="ssr:stedsnr" v="594263" />
	</node>
	<node id="-773618" lat="69.8858166717" lon="20.566280532">
		<tag k="name" v="Rakkeneselva" />
		<tag k="ssr:stedsnr" v="505555" />
		<tag k="waterway" v="stream" />
	</node>
	<node id="-774129" lat="70.0617416668" lon="20.6355055413">
		<tag k="name" v="Sikelva" />
		<tag k="ssr:stedsnr" v="757099" />
		<tag k="waterway" v="stream" />
	</node>
	<node id="-773615" lat="70.1033055519" lon="20.8256722036">
		<tag k="name" v="Inner-Kveitvikvannet" />
		<tag k="natural" v="water" />
		<tag k="ssr:stedsnr" v="505225" />
	</node>
	<node id="-773614" lat="70.1269750046" lon="20.8046583038">
		<tag k="name" v="Storelva" />
		<tag k="ssr:stedsnr" v="505061" />
		<tag k="waterway" v="stream" />
	</node>
	<node id="-773611" lat="70.1081305529" lon="20.6129638571">
		<tag k="name" v="Fossvannan" />
		<tag k="natural" v="water" />
		<tag k="ssr:stedsnr" v="505046" />
		<tag k="water" v="lake" />
	</node>
	<node id="-773610" lat="70.1648444442" lon="20.6928805442">
		<tag k="name" v="Innervannet" />
		<tag k="natural" v="water" />
		<tag k="ssr:stedsnr" v="505029" />
	</node>
	<node id="-772584" lat="70.1710249988" lon="20.5812527551">
		<tag k="name" v="Langvannet" />
		<tag k="natural" v="water" />
		<tag k="ssr:stedsnr" v="322028" />
	</node>
	<node id="-773607" lat="69.8426138869" lon="20.6435416575">
		<tag k="name" v="Blåvannet" />
		<tag k="natural" v="water" />
		<tag k="ssr:stedsnr" v="504993" />
	</node>
	<node id="-774118" lat="69.9880861128" lon="20.8254666581">
		<tag k="name" v="Storbuktvannet" />
		<tag k="natural" v="water" />
		<tag k="ssr:stedsnr" v="747594" />
	</node>
	<node id="-773093" lat="69.9833722208" lon="20.9758916321">
		<tag k="name" v="Taskebyvannet" />
		<tag k="natural" v="water" />
		<tag k="ssr:stedsnr" v="49316" />
	</node>
	<node id="-773091" lat="70.1766527805" lon="20.5193611086">
		<tag k="name" v="Elvedalelva" />
		<tag k="ssr:stedsnr" v="49312" />
		<tag k="waterway" v="stream" />
	</node>
	<node id="-773090" lat="70.1774611087" lon="20.5368083076">
		<tag k="name" v="Longvannet" />
		<tag k="natural" v="water" />
		<tag k="ssr:stedsnr" v="49303" />
	</node>
	<node id="-774112" lat="69.9408083318" lon="20.9047805432">
		<tag k="name" v="Kågelva" />
		<tag k="ssr:stedsnr" v="747555" />
		<tag k="waterway" v="stream" />
	</node>
	<node id="-773087" lat="70.0428527775" lon="21.2719138531">
		<tag k="name" v="Klubbelva" />
		<tag k="ssr:stedsnr" v="49258" />
		<tag k="waterway" v="stream" />
	</node>
	<node id="-773086" lat="70.0505277804" lon="21.2540777505">
		<tag k="name" v="Skarbergvannet" />
		<tag k="natural" v="water" />
		<tag k="ssr:stedsnr" v="49256" />
	</node>
	<node id="-773084" lat="70.1271805516" lon="20.7468527662">
		<tag k="name" v="Melkeneselva" />
		<tag k="ssr:stedsnr" v="49239" />
		<tag k="waterway" v="stream" />
	</node>
	<node id="-773083" lat="70.1114944491" lon="20.7157277493">
		<tag k="name" v="Breitindvannan" />
		<tag k="natural" v="water" />
		<tag k="ssr:stedsnr" v="49224" />
		<tag k="water" v="lake" />
	</node>
	<node id="-773082" lat="70.1214111072" lon="20.7320083179">
		<tag k="alt_name" v="Storelva" />
		<tag k="name" v="Tjyvdalselva" />
		<tag k="ssr:stedsnr" v="49218" />
		<tag k="waterway" v="stream" />
	</node>
	<node id="-774105" lat="70.0124027771" lon="20.7254138805">
		<tag k="name" v="Kvalelva" />
		<tag k="ssr:stedsnr" v="747136" />
		<tag k="waterway" v="stream" />
	</node>
	<node id="-773078" lat="70.1652305546" lon="20.7761472151">
		<tag k="name" v="Hesteskovannet" />
		<tag k="natural" v="water" />
		<tag k="ssr:stedsnr" v="49174" />
	</node>
	<node id="-772565" lat="70.2289027765" lon="20.6744027609">
		<tag k="name" v="Kjosen" />
		<tag k="ssr:stedsnr" v="291920" />
		<tag k="waterway" v="stream" />
	</node>
	<node id="-773198" lat="70.0620527801" lon="20.6429610988">
		<tag k="name" v="Flynderelva" />
		<tag k="ssr:stedsnr" v="109734" />
		<tag k="waterway" v="stream" />
	</node>
	<node id="-774097" lat="70.0964444489" lon="20.6342916382">
		<tag k="name" v="Fosselva" />
		<tag k="ssr:stedsnr" v="747026" />
		<tag k="waterway" v="stream" />
	</node>
	<node id="-773071" lat="70.0681722219" lon="20.8684777564">
		<tag k="name" v="Lillevannet" />
		<tag k="natural" v="water" />
		<tag k="ssr:stedsnr" v="49037" />
	</node>
	<node id="-773069" lat="70.033675002" lon="20.7918111029">
		<tag k="name" v="Vittnesfossen" />
		<tag k="natural" v="waterfall" />
		<tag k="ssr:stedsnr" v="49032" />
	</node>
	<node id="-773068" lat="70.0757472232" lon="20.4915388804">
		<tag k="name" v="Storelva" />
		<tag k="ssr:stedsnr" v="49013" />
		<tag k="waterway" v="river" />
	</node>
	<node id="-774090" lat="70.1550555581" lon="20.5969888598">
		<tag k="name" v="Ytre Svarttindvannet" />
		<tag k="natural" v="water" />
		<tag k="ssr:stedsnr" v="747005" />
	</node>
	<node id="-773062" lat="70.0862694448" lon="20.6318916438">
		<tag k="name" v="Gamhaugelva" />
		<tag k="ssr:stedsnr" v="48750" />
		<tag k="waterway" v="stream" />
	</node>
	<node id="-773025" lat="69.9638388863" lon="20.9331555282">
		<tag k="name" v="Stokkneselva" />
		<tag k="ssr:stedsnr" v="19551" />
		<tag k="waterway" v="river" />
	</node>
	<node id="-773265" lat="69.9939638884" lon="20.7467416377">
		<tag k="name" v="Steinbakkelva" />
		<tag k="ssr:stedsnr" v="140642" />
		<tag k="waterway" v="river" />
	</node>
	<node id="-774080" lat="69.9417305563" lon="20.926588863">
		<tag k="name" v="Gammelflåtelva" />
		<tag k="ssr:stedsnr" v="717371" />
		<tag k="waterway" v="stream" />
	</node>
	<node id="-773055" lat="69.8733750018" lon="20.6831721991">
		<tag k="name" v="Skjellelva" />
		<tag k="ssr:stedsnr" v="48311" />
		<tag k="waterway" v="stream" />
	</node>
	<node id="-774078" lat="70.0107833291" lon="20.9380110992">
		<tag k="name" v="Čohkkajávri" />
		<tag k="name:se" v="Čohkkajávri" />
		<tag k="natural" v="water" />
		<tag k="ssr:stedsnr" v="717317" />
	</node>
	<node id="-773053" lat="70.0816999993" lon="20.4752944361">
		<tag k="name" v="Skavdalselva" />
		<tag k="ssr:stedsnr" v="48028" />
		<tag k="waterway" v="stream" />
	</node>
	<node id="-774074" lat="70.2151527825" lon="20.7647277578">
		<tag k="name" v="Sørdalselva" />
		<tag k="ssr:stedsnr" v="717123" />
		<tag k="waterway" v="stream" />
	</node>
	<node id="-772530" lat="69.8639055533" lon="20.6496610972">
		<tag k="name" v="Trollvannet" />
		<tag k="natural" v="water" />
		<tag k="ssr:stedsnr" v="291362" />
	</node>
	<node id="-773553" lat="69.9009861121" lon="20.7176333233">
		<tag k="name" v="Lomvannet" />
		<tag k="natural" v="water" />
		<tag k="ssr:stedsnr" v="444544" />
	</node>
	<node id="-773192" lat="69.9520055518" lon="20.6429333204">
		<tag k="name" v="Lomvannet" />
		<tag k="natural" v="water" />
		<tag k="ssr:stedsnr" v="109517" />
	</node>
	<node id="-773550" lat="69.8819833332" lon="20.5950694311">
		<tag k="name" v="Holmevannet" />
		<tag k="natural" v="water" />
		<tag k="ssr:stedsnr" v="444498" />
	</node>
	<node id="-773189" lat="70.1679055574" lon="20.6397361051">
		<tag k="name" v="Djupvannet" />
		<tag k="natural" v="water" />
		<tag k="ssr:stedsnr" v="109904" />
	</node>
	<node id="-773031" lat="69.97944167" lon="20.9117221951">
		<tag k="alt_name" v="Lilleelva" />
		<tag k="name" v="Litlelva" />
		<tag k="ssr:stedsnr" v="19590" />
		<tag k="waterway" v="stream" />
	</node>
	<node id="-773028" lat="69.9301222232" lon="20.8458971974">
		<tag k="name" v="Maursundelva" />
		<tag k="ssr:stedsnr" v="19566" />
		<tag k="waterway" v="stream" />
	</node>
	<node id="-773027" lat="69.9314499968" lon="20.8194610814">
		<tag k="name" v="Novelva" />
		<tag k="ssr:stedsnr" v="19565" />
		<tag k="waterway" v="stream" />
	</node>
	<node id="-774049" lat="70.0023888867" lon="21.0357888686">
		<tag k="name" v="Leirvågvannet" />
		<tag k="natural" v="water" />
		<tag k="ssr:stedsnr" v="716370" />
	</node>
	<node id="-773536" lat="70.2044805602" lon="20.6394666507">
		<tag k="name" v="Nord-Rekvikelva" />
		<tag k="ssr:stedsnr" v="444101" />
		<tag k="waterway" v="river" />
	</node>
	<node id="-773021" lat="69.8459888883" lon="20.6738333127">
		<tag k="name" v="Mettengelva" />
		<tag k="ssr:stedsnr" v="19513" />
		<tag k="waterway" v="river" />
	</node>
	<node id="-773020" lat="69.9912388869" lon="20.8638805348">
		<tag k="name" v="Storbuktelva" />
		<tag k="ssr:stedsnr" v="19449" />
		<tag k="waterway" v="river" />
	</node>
	<node id="-772505" lat="70.1441527786" lon="20.7518416412">
		<tag k="name" v="Halselvhollet" />
		<tag k="natural" v="water" />
		<tag k="ssr:stedsnr" v="291145" />
		<tag k="water" v="lake" />
	</node>
	<node id="-773642" lat="70.067588886" lon="20.4891083176">
		<tag k="name" v="Krikelva" />
		<tag k="ssr:stedsnr" v="533103" />
		<tag k="waterway" v="stream" />
	</node>
	<node id="-774038" lat="70.1333777772" lon="20.7472249702">
		<tag k="name" v="Kulielva" />
		<tag k="ssr:stedsnr" v="716231" />
		<tag k="waterway" v="stream" />
	</node>
	<node id="-773529" lat="70.1018666667" lon="20.4363222118">
		<tag k="name" v="Trolldalselva" />
		<tag k="ssr:stedsnr" v="444031" />
		<tag k="waterway" v="stream" />
	</node>
	<node id="-774035" lat="70.1157916686" lon="20.7799749807">
		<tag k="name" v="Tofteelva" />
		<tag k="ssr:stedsnr" v="716217" />
		<tag k="waterway" v="stream" />
	</node>
	<node id="-772704" lat="70.0431749963" lon="20.992886096">
		<tag k="name" v="Hestvannet" />
		<tag k="natural" v="water" />
		<tag k="ssr:stedsnr" v="352807" />
	</node>
	<node id="-773516" lat="70.2119361105" lon="20.6704777655">
		<tag k="name" v="Norddalselva" />
		<tag k="ssr:stedsnr" v="263517" />
		<tag k="waterway" v="river" />
	</node>
	<node id="-773003" lat="70.1446750007" lon="20.7402416348">
		<tag k="name" v="Lillefjellvannet" />
		<tag k="natural" v="water" />
		<tag k="ssr:stedsnr" v="19013" />
		<tag k="water" v="lake" />
	</node>
	<node id="-773002" lat="70.1500583332" lon="20.5370277738">
		<tag k="loc_name:se" v="Guhkesvuonjávri" />
		<tag k="name" v="Langfjordvannet" />
		<tag k="name:no" v="Langfjordvannet" />
		<tag k="natural" v="water" />
		<tag k="ssr:stedsnr" v="19009" />
		<tag k="water" v="lake" />
	</node>
	<node id="-774025" lat="70.0701972202" lon="20.8774277497">
		<tag k="name" v="Sandbakkvannet" />
		<tag k="natural" v="water" />
		<tag k="ssr:stedsnr" v="716033" />
	</node>
	<node id="-774024" lat="70.0695666652" lon="20.8724888616">
		<tag k="name" v="Storvannet" />
		<tag k="natural" v="water" />
		<tag k="ssr:stedsnr" v="716032" />
	</node>
	<node id="-774023" lat="70.0990638912" lon="20.7376416551">
		<tag k="name" v="Svartskogelva" />
		<tag k="ssr:stedsnr" v="716010" />
		<tag k="waterway" v="stream" />
	</node>
	<node id="-773014" lat="70.0913972184" lon="20.6668583246">
		<tag k="name" v="Rødsandelva" />
		<tag k="ssr:stedsnr" v="19194" />
		<tag k="waterway" v="river" />
	</node>
	<node id="-773503" lat="70.090302782" lon="20.6405555387">
		<tag k="loc_name:se" v="Rudnesvuonjohka" />
		<tag k="name" v="Grunnfjordelva" />
		<tag k="name:no" v="Grunnfjordelva" />
		<tag k="ssr:stedsnr" v="262030" />
		<tag k="waterway" v="river" />
	</node>
	<node id="-773183" lat="70.1663749994" lon="20.780705537">
		<tag k="name" v="Lillevannet" />
		<tag k="natural" v="water" />
		<tag k="ssr:stedsnr" v="109216" />
	</node>
	<node id="-774518" lat="69.9364722243" lon="20.8979833055">
		<tag k="name" v="Fjellfinnbuktelva" />
		<tag k="ssr:stedsnr" v="960302" />
		<tag k="waterway" v="stream" />
	</node>
	<node id="-773493" lat="69.9641916679" lon="20.656349991">
		<tag k="name" v="Flagdevannet" />
		<tag k="natural" v="water" />
		<tag k="ssr:stedsnr" v="261612" />
	</node>
	<node id="-774513" lat="70.1107694478" lon="20.5570249823">
		<tag k="name" v="Leirbakkelva" />
		<tag k="ssr:stedsnr" v="959952" />
		<tag k="waterway" v="stream" />
	</node>
	<node id="-774511" lat="70.1736805528" lon="20.6537166355">
		<tag k="name" v="Fjellfinnhollvannet" />
		<tag k="natural" v="water" />
		<tag k="ssr:stedsnr" v="959908" />
	</node>
	<node id="-773998" lat="69.8704805541" lon="20.6236444217">
		<tag k="fixme" v="multiple name tags, choose one and add the other to alt_name" />
		<tag k="name" v="Svarttinddalsvannet;Storvannet" />
		<tag k="natural" v="water" />
		<tag k="ssr:stedsnr" v="687511" />
	</node>
	<node id="-773181" lat="70.1273861114" lon="20.7953499694">
		<tag k="name" v="Kvantoelva" />
		<tag k="ssr:stedsnr" v="109204" />
		<tag k="waterway" v="stream" />
	</node>
	<node id="-773996" lat="69.863369447" lon="20.6640110929">
		<tag k="name" v="Lomvannet" />
		<tag k="natural" v="water" />
		<tag k="ssr:stedsnr" v="687501" />
	</node>
	<node id="-774505" lat="70.0499638879" lon="20.4394333036">
		<tag k="name" v="Møllelva" />
		<tag k="ssr:stedsnr" v="959882" />
		<tag k="waterway" v="stream" />
	</node>
	<node id="-772968" lat="70.066675005" lon="20.6589666469">
		<tag k="name" v="Lakselva" />
		<tag k="ssr:stedsnr" v="413783" />
		<tag k="waterway" v="stream" />
	</node>
	<node id="-772668" lat="70.0773694441" lon="20.7618971938">
		<tag k="name" v="Sandbakkelva" />
		<tag k="ssr:stedsnr" v="352064" />
		<tag k="waterway" v="stream" />
	</node>
	<node id="-773989" lat="70.1172833303" lon="20.8240083116">
		<tag k="name" v="Storelvvannet" />
		<tag k="natural" v="water" />
		<tag k="ssr:stedsnr" v="687028" />
	</node>
	<node id="-772582" lat="70.1809194446" lon="20.5351999814">
		<tag k="name" v="Årvikelva" />
		<tag k="ssr:stedsnr" v="322015" />
		<tag k="waterway" v="river" />
	</node>
	<node id="-773474" lat="70.1065388919" lon="20.7477638719">
		<tag k="name" v="Paulinavannet" />
		<tag k="natural" v="water" />
		<tag k="ssr:stedsnr" v="231217" />
	</node>
	<node id="-773985" lat="69.9710666644" lon="20.9124888596">
		<tag k="alt_name" v="Mølnelva" />
		<tag k="name" v="Møllneselva" />
		<tag k="ssr:stedsnr" v="686613" />
		<tag k="waterway" v="stream" />
	</node>
	<node id="-774495" lat="70.0775277807" lon="20.6688610838">
		<tag k="name" v="Skarelva" />
		<tag k="ssr:stedsnr" v="959757" />
		<tag k="waterway" v="stream" />
	</node>
	<node id="-773470" lat="69.9449277779" lon="20.89608609">
		<tag k="name" v="Lillevannet" />
		<tag k="natural" v="water" />
		<tag k="ssr:stedsnr" v="231185" />
	</node>
	<node id="-773469" lat="69.9491361152" lon="20.9383499911">
		<tag k="name" v="Skredneselva" />
		<tag k="ssr:stedsnr" v="231184" />
		<tag k="waterway" v="stream" />
	</node>
	<node id="-772955" lat="69.9963361122" lon="20.893708315">
		<tag k="name" v="Fossen" />
		<tag k="natural" v="waterfall" />
		<tag k="ssr:stedsnr" v="899318" />
	</node>
	<node id="-774489" lat="70.0515361096" lon="20.6308499821">
		<tag k="name" v="Kjergårdselva" />
		<tag k="ssr:stedsnr" v="959614" />
		<tag k="waterway" v="stream" />
	</node>
	<node id="-773464" lat="70.2200916644" lon="20.7555083177">
		<tag k="name" v="Norddalselva" />
		<tag k="ssr:stedsnr" v="231160" />
		<tag k="waterway" v="stream" />
	</node>
	<node id="-774485" lat="69.9951277784" lon="21.0278666358">
		<tag k="name" v="Sivertelva" />
		<tag k="ssr:stedsnr" v="959316" />
		<tag k="waterway" v="stream" />
	</node>
	<node id="-773460" lat="70.1976638884" lon="20.7682333093">
		<tag k="name" v="Nedre Sørdalsvannet" />
		<tag k="natural" v="water" />
		<tag k="ssr:stedsnr" v="231155" />
		<tag k="water" v="lake" />
	</node>
	<node id="-774482" lat="70.0477416677" lon="21.2699582994">
		<tag k="name" v="Skjellelva" />
		<tag k="ssr:stedsnr" v="959207" />
		<tag k="waterway" v="stream" />
	</node>
	<node id="-773969" lat="70.0979194408" lon="20.719144429">
		<tag k="name" v="Svartskogvannet" />
		<tag k="natural" v="water" />
		<tag k="ssr:stedsnr" v="686195" />
	</node>
	<node id="-773968" lat="70.0729388882" lon="20.5793527619">
		<tag k="name" v="Vintersetelva" />
		<tag k="ssr:stedsnr" v="686193" />
		<tag k="waterway" v="stream" />
	</node>
	<node id="-772943" lat="70.2000638927" lon="20.6452055429">
		<tag k="name" v="Oterelva" />
		<tag k="ssr:stedsnr" v="898912" />
		<tag k="waterway" v="stream" />
	</node>
	<node id="-772941" lat="70.0475749974" lon="20.4859499868">
		<tag k="name" v="Skittenbekken" />
		<tag k="ssr:stedsnr" v="898908" />
		<tag k="waterway" v="stream" />
	</node>
	<node id="-773964" lat="70.0788027816" lon="20.7108638719">
		<tag k="name" v="Skardalsvannet" />
		<tag k="natural" v="water" />
		<tag k="ssr:stedsnr" v="686180" />
	</node>
	<node id="-773447" lat="70.0601388854" lon="20.5674055494">
		<tag k="name" v="Rikardelva" />
		<tag k="ssr:stedsnr" v="230745" />
		<tag k="waterway" v="stream" />
	</node>
	<node id="-773445" lat="70.0877555536" lon="20.64409998">
		<tag k="name" v="Fossan" />
		<tag k="natural" v="waterfall" />
		<tag k="ssr:stedsnr" v="230730" />
	</node>
	<node id="-774467" lat="70.076641663" lon="20.3723194324">
		<tag k="name" v="Otertjønna" />
		<tag k="natural" v="water" />
		<tag k="ssr:stedsnr" v="958966" />
		<tag k="water" v="pond" />
	</node>
	<node id="-773953" lat="69.9645999992" lon="20.9519305344">
		<tag k="name" v="Geitelva" />
		<tag k="ssr:stedsnr" v="656176" />
		<tag k="waterway" v="stream" />
	</node>
	<node id="-773952" lat="69.9438166675" lon="20.8971888575">
		<tag k="name" v="Kanalen" />
		<tag k="place" v="locality" />
		<tag k="ssr:stedsnr" v="656155" />
	</node>
	<node id="-773088" lat="70.0399249999" lon="21.2558666436">
		<tag k="name" v="Johannavannet" />
		<tag k="natural" v="water" />
		<tag k="ssr:stedsnr" v="49268" />
	</node>
	<node id="-773946" lat="70.2199861087" lon="20.6621249766">
		<tag k="name" v="Hollelva" />
		<tag k="ssr:stedsnr" v="655916" />
		<tag k="waterway" v="stream" />
	</node>
	<node id="-772489" lat="70.0515500056" lon="20.765466639">
		<tag k="name" v="Njerranelva" />
		<tag k="ssr:stedsnr" v="272103" />
		<tag k="waterway" v="stream" />
	</node>
	<node id="-772502" lat="70.0822416655" lon="20.7257555297">
		<tag k="name" v="Skarelva" />
		<tag k="ssr:stedsnr" v="291003" />
		<tag k="waterway" v="stream" />
	</node>
	<node id="-773427" lat="70.1327583325" lon="20.5295027632">
		<tag k="name" v="Bjørndalselva" />
		<tag k="ssr:stedsnr" v="230160" />
		<tag k="waterway" v="stream" />
	</node>
	<node id="-772914" lat="70.1052305558" lon="20.9045249673">
		<tag k="name" v="Noveelva" />
		<tag k="ssr:stedsnr" v="898185" />
		<tag k="waterway" v="stream" />
	</node>
	<node id="-774449" lat="70.1345972277" lon="20.4090888635">
		<tag k="name" v="Sør-Rekvikelva" />
		<tag k="ssr:stedsnr" v="958089" />
		<tag k="waterway" v="river" />
	</node>
	<node id="-773424" lat="70.0030277812" lon="20.7277666613">
		<tag k="name" v="Naskarelva" />
		<tag k="ssr:stedsnr" v="230126" />
		<tag k="waterway" v="stream" />
	</node>
	<node id="-773423" lat="70.0351611072" lon="20.79082498">
		<tag k="name" v="Vittneselva" />
		<tag k="ssr:stedsnr" v="230031" />
		<tag k="waterway" v="stream" />
	</node>
	<node id="-773933" lat="70.049177777" lon="20.6306833173">
		<tag k="name" v="Sandbakkelva" />
		<tag k="ssr:stedsnr" v="655671" />
		<tag k="waterway" v="stream" />
	</node>
	<node id="-774440" lat="70.069233337" lon="20.6180388691">
		<tag k="name" v="Nedre Sløkedalsvannet" />
		<tag k="natural" v="water" />
		<tag k="ssr:stedsnr" v="940039" />
	</node>
	<node id="-773410" lat="70.166080561" lon="20.7602138629">
		<tag k="fixme" v="multiple name tags, choose one and add the other to alt_name" />
		<tag k="name" v="Kvænangselva;Storelva" />
		<tag k="ssr:stedsnr" v="202500" />
		<tag k="waterway" v="river" />
	</node>
	<node id="-773407" lat="69.9805888902" lon="20.8436138741">
		<tag k="name" v="Fjellvannet" />
		<tag k="natural" v="water" />
		<tag k="ssr:stedsnr" v="201587" />
	</node>
	<node id="-773253" lat="70.1309888927" lon="20.6706666514">
		<tag k="name" v="Isbakkvannet" />
		<tag k="natural" v="water" />
		<tag k="ssr:stedsnr" v="140056" />
	</node>
	<node id="-774428" lat="69.8770777778" lon="20.5982888805">
		<tag k="name" v="Langvannet" />
		<tag k="natural" v="water" />
		<tag k="ssr:stedsnr" v="930535" />
	</node>
	<node id="-773401" lat="69.9832555577" lon="20.9151860902">
		<tag k="name" v="Storelva" />
		<tag k="ssr:stedsnr" v="201555" />
		<tag k="waterway" v="stream" />
	</node>
	<node id="-774424" lat="70.1349305514" lon="20.7371610997">
		<tag k="fixme" v="multiple name tags, choose one and add the other to alt_name" />
		<tag k="name" v="Andreavannet;Tjuvlivannet" />
		<tag k="natural" v="water" />
		<tag k="ssr:stedsnr" v="930052" />
	</node>
	<node id="-773397" lat="69.9026694454" lon="20.6968555463">
		<tag k="name" v="Skarvannet" />
		<tag k="natural" v="water" />
		<tag k="ssr:stedsnr" v="201521" />
	</node>
	<node id="-774418" lat="70.1340027774" lon="20.5179666491">
		<tag k="name" v="Bjørndalsvannet" />
		<tag k="natural" v="water" />
		<tag k="ssr:stedsnr" v="930011" />
	</node>
	<node id="-774417" lat="70.151661112" lon="20.3999722012">
		<tag k="name" v="Tobbevikelva" />
		<tag k="ssr:stedsnr" v="929932" />
		<tag k="waterway" v="stream" />
	</node>
	<node id="-774409" lat="70.0656056372" lon="20.7004352643">
		<tag k="name" v="Elvedalsvannan" />
		<tag k="natural" v="water" />
		<tag k="ssr:stedsnr" v="929217" />
	</node>
	<node id="-773384" lat="70.0610916701" lon="20.78023887">
		<tag k="name" v="Singelelva" />
		<tag k="ssr:stedsnr" v="201216" />
		<tag k="waterway" v="stream" />
	</node>
	<node id="-773130" lat="70.1198222185" lon="20.5987999927">
		<tag k="name" v="Kappdalsvannet" />
		<tag k="natural" v="water" />
		<tag k="ssr:stedsnr" v="80062" />
	</node>
	<node id="-773603" lat="69.9741111075" lon="20.7616083145">
		<tag k="name" v="Redoneselva" />
		<tag k="ssr:stedsnr" v="504627" />
		<tag k="waterway" v="stream" />
	</node>
	<node id="-773649" lat="70.0475638868" lon="20.6214694266">
		<tag k="name" v="Bekkhuselva" />
		<tag k="ssr:stedsnr" v="533686" />
		<tag k="waterway" v="stream" />
	</node>
	<node id="-773375" lat="70.2161805532" lon="20.7301694149">
		<tag k="name" v="Norddalsvannet" />
		<tag k="natural" v="water" />
		<tag k="ssr:stedsnr" v="201085" />
	</node>
	<node id="-773845" lat="70.0201000039" lon="20.971680529">
		<tag k="name" v="Vågavannet" />
		<tag k="natural" v="water" />
		<tag k="ssr:stedsnr" v="625147" />
	</node>
	<node id="-773372" lat="70.0214722228" lon="20.8258416383">
		<tag k="name" v="Isbuktelva" />
		<tag k="ssr:stedsnr" v="201137" />
		<tag k="waterway" v="river" />
	</node>
	<node id="-772859" lat="70.0683916633" lon="20.6338110928">
		<tag k="name" v="Sløkedalselva" />
		<tag k="ssr:stedsnr" v="473754" />
		<tag k="waterway" v="stream" />
	</node>
	<node id="-773247" lat="70.1753000004" lon="20.6947694238">
		<tag k="name" v="Mellavannet" />
		<tag k="natural" v="water" />
		<tag k="ssr:stedsnr" v="140021" />
	</node>
	<node id="-773366" lat="70.1334444451" lon="20.4737555485">
		<tag k="name" v="Dalbakkvannet" />
		<tag k="natural" v="water" />
		<tag k="ssr:stedsnr" v="201010" />
	</node>
	<node id="-773876" lat="70.0644638863" lon="20.6462583148">
		<tag k="name" v="Storelva" />
		<tag k="ssr:stedsnr" v="627513" />
		<tag k="waterway" v="river" />
	</node>
	<node id="-772729" lat="70.1083416692" lon="20.5151861074">
		<tag k="name" v="Laksebuktelva" />
		<tag k="ssr:stedsnr" v="383040" />
		<tag k="waterway" v="stream" />
	</node>
	<node id="-772982" lat="70.0750916681" lon="20.4011833055">
		<tag k="name" v="Sotneselva" />
		<tag k="ssr:stedsnr" v="413903" />
		<tag k="waterway" v="stream" />
	</node>
	<node id="-774377" lat="69.9920361094" lon="20.9966916392">
		<tag k="name" v="Storvannet" />
		<tag k="natural" v="water" />
		<tag k="ssr:stedsnr" v="869648" />
	</node>
	<node id="-773352" lat="70.0634027766" lon="20.6449083259">
		<tag k="name" v="Djuphollet" />
		<tag k="natural" v="water" />
		<tag k="ssr:stedsnr" v="170787" />
		<tag k="water" v="lake" />
	</node>
	<node id="-772837" lat="69.9959749988" lon="21.0464388565">
		<tag k="name" v="Skarelva" />
		<tag k="ssr:stedsnr" v="473389" />
		<tag k="waterway" v="stream" />
	</node>
	<node id="-773345" lat="70.053580558" lon="20.5560888793">
		<tag k="name" v="Rundelva" />
		<tag k="ssr:stedsnr" v="170685" />
		<tag k="waterway" v="stream" />
	</node>
	<node id="-774369" lat="69.8655416676" lon="20.6385694188">
		<tag k="fixme" v="multiple name tags, choose one and add the other to alt_name" />
		<tag k="name" v="Laksevannet;Elvevannet" />
		<tag k="natural" v="water" />
		<tag k="ssr:stedsnr" v="869549" />
	</node>
	<node id="-772830" lat="69.8774861119" lon="20.5626777504">
		<tag k="name" v="Båtelva" />
		<tag k="ssr:stedsnr" v="473339" />
		<tag k="waterway" v="stream" />
	</node>
	<node id="-772827" lat="69.9887361132" lon="21.0034833067">
		<tag k="name" v="Lillevannet" />
		<tag k="natural" v="water" />
		<tag k="ssr:stedsnr" v="473292" />
	</node>
	<node id="-772825" lat="70.1765694431" lon="20.539155536">
		<tag k="name" v="Lille Rekvikelva" />
		<tag k="ssr:stedsnr" v="473274" />
		<tag k="waterway" v="stream" />
	</node>
	<node id="-773336" lat="69.9891555513" lon="20.9730305424">
		<tag k="name" v="Kalvelva" />
		<tag k="ssr:stedsnr" v="170306" />
		<tag k="waterway" v="stream" />
	</node>
	<node id="-772823" lat="70.1094499971" lon="20.7790138666">
		<tag k="name" v="Jeskebakkelva" />
		<tag k="ssr:stedsnr" v="473253" />
		<tag k="waterway" v="stream" />
	</node>
	<node id="-774357" lat="70.1441750006" lon="20.4859444297">
		<tag k="name" v="Høgtindvannet" />
		<tag k="natural" v="water" />
		<tag k="ssr:stedsnr" v="869013" />
	</node>
	<node id="-773465" lat="70.1546833325" lon="20.7682388691">
		<tag k="name" v="Lomvannet" />
		<tag k="natural" v="water" />
		<tag k="ssr:stedsnr" v="231167" />
	</node>
	<node id="-773330" lat="69.9748111077" lon="20.9451555379">
		<tag k="name" v="Kobbepolleidet" />
		<tag k="natural" v="strait" />
		<tag k="ssr:stedsnr" v="170278" />
	</node>
	<node id="-773857" lat="69.9488638854" lon="20.6498860924">
		<tag k="name" v="Trollvannet" />
		<tag k="natural" v="water" />
		<tag k="ssr:stedsnr" v="625562" />
	</node>
	<node id="-774346" lat="70.095408332" lon="20.8816916418">
		<tag k="name" v="Novevannet" />
		<tag k="natural" v="water" />
		<tag k="ssr:stedsnr" v="868186" />
	</node>
	<node id="-772561" lat="69.93179722" lon="20.7998472116">
		<tag k="name" v="Novebergelva" />
		<tag k="ssr:stedsnr" v="291902" />
		<tag k="waterway" v="stream" />
	</node>
	<node id="-773318" lat="70.1155388911" lon="20.738722193">
		<tag k="name" v="Stykkeneselva" />
		<tag k="ssr:stedsnr" v="170201" />
		<tag k="waterway" v="stream" />
	</node>
	<node id="-772805" lat="69.9334611121" lon="20.8858277574">
		<tag k="name" v="Øksneselva" />
		<tag k="ssr:stedsnr" v="413334" />
		<tag k="waterway" v="stream" />
	</node>
	<node id="-772803" lat="70.1802583332" lon="20.5395222109">
		<tag k="name" v="Gammelnessan" />
		<tag k="natural" v="cape" />
		<tag k="ssr:stedsnr" v="413283" />
	</node>
	<node id="-773826" lat="70.2133944449" lon="20.6775860907">
		<tag k="name" v="Blåbergodden" />
		<tag k="natural" v="cape" />
		<tag k="ssr:stedsnr" v="594913" />
	</node>
	<node id="-773825" lat="70.2241694413" lon="20.6603360924">
		<tag k="name" v="Lilleelva" />
		<tag k="ssr:stedsnr" v="594909" />
		<tag k="waterway" v="stream" />
	</node>
	<node id="-773312" lat="70.015594445" lon="20.9496888728">
		<tag k="loc_name:se" v="Goaskimjávri" />
		<tag k="name" v="Godskejávri" />
		<tag k="name:se" v="Godskejávri" />
		<tag k="natural" v="water" />
		<tag k="ssr:stedsnr" v="170164" />
	</node>
	<node id="-773823" lat="70.0580194446" lon="20.4951499883">
		<tag k="name" v="Sandbakkelva" />
		<tag k="ssr:stedsnr" v="594884" />
		<tag k="waterway" v="stream" />
	</node>
	<node id="-774333" lat="70.1899555597" lon="20.7637444169">
		<tag k="name" v="Øvre Sørdalsvannet" />
		<tag k="natural" v="water" />
		<tag k="ssr:stedsnr" v="839121" />
		<tag k="water" v="lake" />
	</node>
	<node id="-774332" lat="70.1376833332" lon="20.5590610853">
		<tag k="name" v="Indre Svarttindelva" />
		<tag k="ssr:stedsnr" v="838959" />
		<tag k="waterway" v="stream" />
	</node>
	<node id="-774326" lat="70.0587583337" lon="20.698374993">
		<tag k="loc_name:se" v="Ealvajohka" />
		<tag k="name" v="Elveelva" />
		<tag k="name:no" v="Elveelva" />
		<tag k="ssr:stedsnr" v="838878" />
		<tag k="waterway" v="river" />
	</node>
	<node id="-773813" lat="70.0436583375" lon="20.9885527452">
		<tag k="name" v="Holmevannet" />
		<tag k="natural" v="water" />
		<tag k="ssr:stedsnr" v="594802" />
	</node>
	<node id="-772788" lat="70.033422225" lon="20.9570194172">
		<tag k="name" v="Eidevannet" />
		<tag k="natural" v="water" />
		<tag k="ssr:stedsnr" v="413157" />
	</node>
	<node id="-773811" lat="70.1007444495" lon="20.5576860926">
		<tag k="name" v="Lille-Lyngneselva" />
		<tag k="ssr:stedsnr" v="594779" />
		<tag k="waterway" v="stream" />
	</node>
	<node id="-772783" lat="70.0704305577" lon="20.7843194368">
		<tag k="name" v="Ytre Oterelva" />
		<tag k="ssr:stedsnr" v="413048" />
		<tag k="waterway" v="stream" />
	</node>
	<node id="-774318" lat="70.0670249972" lon="20.6487388748">
		<tag k="name" v="Sennahollet" />
		<tag k="natural" v="water" />
		<tag k="ssr:stedsnr" v="838797" />
		<tag k="water" v="lake" />
	</node>
	<node id="-773805" lat="69.8559527815" lon="20.6792194227">
		<tag k="name" v="Lilleelva" />
		<tag k="ssr:stedsnr" v="594351" />
		<tag k="waterway" v="stream" />
	</node>
	<node id="-773802" lat="69.9871305552" lon="20.9770916341">
		<tag k="name" v="Storelva" />
		<tag k="ssr:stedsnr" v="594282" />
		<tag k="waterway" v="stream" />
	</node>
	<node id="-774313" lat="69.9697666649" lon="20.6640277486">
		<tag k="name" v="Gammelværelva" />
		<tag k="ssr:stedsnr" v="838617" />
		<tag k="waterway" v="stream" />
	</node>
	<node id="-773489" lat="69.9277388901" lon="20.8499360839">
		<tag k="name" v="Vannsjåelva" />
		<tag k="ssr:stedsnr" v="231895" />
		<tag k="waterway" v="stream" />
	</node>
	<node id="-774307" lat="70.1656945837" lon="20.7773762639">
		<tag k="name" v="Storvannet" />
		<tag k="natural" v="water" />
		<tag k="ssr:stedsnr" v="838252" />
	</node>
	<node id="-774306" lat="70.1302666638" lon="20.7485277464">
		<tag k="name" v="Laksevannet" />
		<tag k="natural" v="water" />
		<tag k="ssr:stedsnr" v="838239" />
	</node>
	<node id="-773281" lat="70.0194555599" lon="20.7950471939">
		<tag k="name" v="Tredje Vittnesvannet" />
		<tag k="natural" v="water" />
		<tag k="ssr:stedsnr" v="150181" />
		<tag k="water" v="lake" />
	</node>
	<node id="-774361" lat="70.1039666684" lon="20.4242638613">
		<tag k="name" v="Trolldalsvannet" />
		<tag k="natural" v="water" />
		<tag k="ssr:stedsnr" v="869045" />
	</node>
	<node id="-774302" lat="70.1496527758" lon="20.7734416545">
		<tag k="name" v="Skanseelva" />
		<tag k="ssr:stedsnr" v="838193" />
		<tag k="waterway" v="stream" />
	</node>
	<node id="-774301" lat="70.1485944437" lon="20.7665138817">
		<tag k="name" v="Bekkelva" />
		<tag k="ssr:stedsnr" v="838188" />
		<tag k="waterway" v="stream" />
	</node>
	<node id="-772747" lat="69.9475944499" lon="20.7746110826">
		<tag k="name" v="Jektsetelva - Jávttaseahtujohka" />
		<tag k="name:no" v="Jektsetelva" />
		<tag k="name:se" v="Jávttaseahtujohka" />
		<tag k="ssr:stedsnr" v="383598" />
		<tag k="waterway" v="stream" />
	</node>
	<node id="-774296" lat="70.0464388868" lon="20.7281694176">
		<tag k="name" v="Haugelva" />
		<tag k="ssr:stedsnr" v="838120" />
		<tag k="waterway" v="stream" />
	</node>
	<node id="-774295" lat="70.0877750031" lon="20.7931888747">
		<tag k="name" v="Bjørnelva" />
		<tag k="ssr:stedsnr" v="838075" />
		<tag k="waterway" v="stream" />
	</node>
	<node id="-774294" lat="70.0773583352" lon="20.8124360935">
		<tag k="name" v="Elveneselva" />
		<tag k="ssr:stedsnr" v="838069" />
		<tag k="waterway" v="stream" />
	</node>
	<node id="-774289" lat="69.8877444485" lon="20.5889638787">
		<tag k="name" v="Sevigorvannet" />
		<tag k="natural" v="water" />
		<tag k="ssr:stedsnr" v="837587" />
	</node>
	<node id="-773656" lat="70.0818583333" lon="20.8018999761">
		<tag k="name" v="Søsterelva" />
		<tag k="ssr:stedsnr" v="534055" />
		<tag k="waterway" v="stream" />
	</node>
	<node id="-772750" lat="69.969377776" lon="20.7748471884">
		<tag k="alt_name" v="Buktelva" />
		<tag k="name" v="Storsandneselva" />
		<tag k="ssr:stedsnr" v="383624" />
		<tag k="waterway" v="stream" />
	</node>
	<node id="-772717" lat="70.200102778" lon="20.6249694152">
		<tag k="name" v="Stillkjosen" />
		<tag k="natural" v="water" />
		<tag k="ssr:stedsnr" v="352919" />
		<tag k="water" v="lake" />
	</node>
	<node id="-774338" lat="69.9386083376" lon="20.9172749713">
		<tag k="name" v="Flåtelva" />
		<tag k="ssr:stedsnr" v="839333" />
		<tag k="waterway" v="stream" />
	</node>
	<node id="-773770" lat="70.0692527801" lon="20.7009555279">
		<tag k="name" v="Øvre Elvedalsvannet" />
		<tag k="natural" v="water" />
		<tag k="ssr:stedsnr" v="575112" />
	</node>
	<node id="-772972" lat="70.051352782" lon="20.9982416581">
		<tag k="name" v="Grønnvannet" />
		<tag k="natural" v="water" />
		<tag k="ssr:stedsnr" v="413840" />
	</node>
	<node id="-774337" lat="70.0019944482" lon="20.8937833153">
		<tag k="name" v="Finnelva" />
		<tag k="ssr:stedsnr" v="839331" />
		<tag k="waterway" v="stream" />
	</node>
	<node id="-772738" lat="70.0961361093" lon="20.8316972124">
		<tag k="name" v="Svartvannet" />
		<tag k="natural" v="water" />
		<tag k="ssr:stedsnr" v="383222" />
	</node>
	<node id="-773248" lat="70.1123666705" lon="20.6682333257">
		<tag k="name" v="Grunnfjordvannet" />
		<tag k="natural" v="water" />
		<tag k="ssr:stedsnr" v="140038" />
	</node>
	<node id="-773824" lat="69.930563889" lon="20.8699416527">
		<tag k="name" v="Hamneelva" />
		<tag k="ssr:stedsnr" v="594886" />
		<tag k="waterway" v="stream" />
	</node>
	<node id="-774270" lat="70.023380559" lon="20.7997305462">
		<tag k="name" v="Andre Vittnesvannet" />
		<tag k="natural" v="water" />
		<tag k="ssr:stedsnr" v="818170" />
		<tag k="water" v="lake" />
	</node>
	<node id="-773653" lat="70.0683555573" lon="20.7882833126">
		<tag k="name" v="Midtre Oterelva" />
		<tag k="ssr:stedsnr" v="534039" />
		<tag k="waterway" v="stream" />
	</node>
	<node id="-773244" lat="70.144313892" lon="20.7583555391">
		<tag k="name" v="Halselva" />
		<tag k="ssr:stedsnr" v="140011" />
		<tag k="waterway" v="stream" />
	</node>
	<node id="-773753" lat="69.8338333377" lon="20.7124583183">
		<tag k="loc_name:se" v="Seahttárjohka" />
		<tag k="name" v="Sæterelva" />
		<tag k="name:no" v="Sæterelva" />
		<tag k="ssr:stedsnr" v="565998" />
		<tag k="waterway" v="stream" />
	</node>
	<node id="-773748" lat="69.9852638905" lon="20.7530499682">
		<tag k="name" v="Bruttoelva" />
		<tag k="ssr:stedsnr" v="565611" />
		<tag k="waterway" v="stream" />
	</node>
	<node id="-772542" lat="69.8996722211" lon="20.6562333152">
		<tag k="name" v="Skjellelva" />
		<tag k="ssr:stedsnr" v="291602" />
		<tag k="waterway" v="stream" />
	</node>
	<node id="-773746" lat="69.8942138879" lon="20.6144083028">
		<tag k="name" v="Storelva" />
		<tag k="ssr:stedsnr" v="565564" />
		<tag k="waterway" v="stream" />
	</node>
	<node id="-772720" lat="70.0611222255" lon="20.3991166483">
		<tag k="name" v="Maritelva" />
		<tag k="ssr:stedsnr" v="352977" />
		<tag k="waterway" v="stream" />
	</node>
	<node id="-774077" lat="69.9477666666" lon="20.8899055386">
		<tag k="name" v="Storvannet" />
		<tag k="natural" v="water" />
		<tag k="ssr:stedsnr" v="717159" />
		<tag k="water" v="lake" />
	</node>
	<node id="-772612" lat="69.8308611129" lon="20.6297916393">
		<tag k="name" v="Isvannet" />
		<tag k="natural" v="water" />
		<tag k="ssr:stedsnr" v="322996" />
		<tag k="water" v="lake" />
	</node>
	<node id="-774251" lat="69.9880277825" lon="20.9836749798">
		<tag k="name" v="Lillevannet" />
		<tag k="natural" v="water" />
		<tag k="ssr:stedsnr" v="808595" />
	</node>
	<node id="-772713" lat="70.0491416635" lon="20.464272197">
		<tag k="name" v="Lillevikelva" />
		<tag k="ssr:stedsnr" v="352893" />
		<tag k="waterway" v="stream" />
	</node>
	<node id="-773224" lat="70.1724611097" lon="20.541358309">
		<tag k="name" v="Svarttindelva" />
		<tag k="ssr:stedsnr" v="110250" />
		<tag k="waterway" v="stream" />
	</node>
	<node id="-773308" lat="70.0660694438" lon="20.7887805235">
		<tag k="name" v="Indre Oterelva" />
		<tag k="ssr:stedsnr" v="170044" />
		<tag k="waterway" v="stream" />
	</node>
	<node id="-773733" lat="70.1380416635" lon="20.5936833077">
		<tag k="name" v="Indre Svarttindvannet" />
		<tag k="natural" v="water" />
		<tag k="ssr:stedsnr" v="565047" />
	</node>
	<node id="-773220" lat="70.118211108" lon="20.7328666355">
		<tag k="name" v="Storvannet" />
		<tag k="natural" v="water" />
		<tag k="ssr:stedsnr" v="110171" />
	</node>
	<node id="-774243" lat="69.8909777789" lon="20.5975138708">
		<tag k="name" v="Hansevannet" />
		<tag k="natural" v="water" />
		<tag k="ssr:stedsnr" v="808539" />
	</node>
	<node id="-773729" lat="70.1942888915" lon="20.765572203">
		<tag k="name" v="Sørdalsvannan" />
		<tag k="natural" v="water" />
		<tag k="ssr:stedsnr" v="565019" />
		<tag k="water" v="lake" />
	</node>
	<node id="-774240" lat="69.858988887" lon="20.6669694165">
		<tag k="name" v="Bakkelva" />
		<tag k="ssr:stedsnr" v="808483" />
		<tag k="waterway" v="river" />
	</node>
	<node id="-773213" lat="70.0533083374" lon="20.4662416637">
		<tag k="name" v="Lomvannet" />
		<tag k="natural" v="water" />
		<tag k="ssr:stedsnr" v="109884" />
	</node>
	<node id="-773103" lat="70.0532555563" lon="20.9943805281">
		<tag k="name" v="Sivvannet" />
		<tag k="natural" v="water" />
		<tag k="ssr:stedsnr" v="49822" />
	</node>
	<node id="-772699" lat="69.968722224" lon="20.6382527479">
		<tag k="name" v="Fjellvannan" />
		<tag k="natural" v="water" />
		<tag k="ssr:stedsnr" v="352582" />
	</node>
	<node id="-773210" lat="70.0531111154" lon="20.4285277542">
		<tag k="name" v="Revelva" />
		<tag k="ssr:stedsnr" v="109874" />
		<tag k="waterway" v="stream" />
	</node>
	<node id="-773721" lat="70.0702687706" lon="20.6127071449">
		<tag k="name" v="Sløkedalsvannan" />
		<tag k="natural" v="water" />
		<tag k="ssr:stedsnr" v="564187" />
		<tag k="water" v="lake" />
	</node>
	<node id="-773720" lat="70.0767916708" lon="20.5793638664">
		<tag k="alt_name" v="Skilelva" />
		<tag k="name" v="Skjellelva" />
		<tag k="ssr:stedsnr" v="564186" />
		<tag k="waterway" v="stream" />
	</node>
	<node id="-774229" lat="70.0121416662" lon="20.8425916472">
		<tag k="name" v="Isbuktvannet" />
		<tag k="natural" v="water" />
		<tag k="ssr:stedsnr" v="808126" />
	</node>
	<node id="-773202" lat="70.0806666676" lon="20.5760777626">
		<tag k="name" v="Storskogelva" />
		<tag k="ssr:stedsnr" v="109773" />
		<tag k="waterway" v="stream" />
	</node>
	<node id="-774222" lat="70.124100002" lon="20.5414277542">
		<tag k="loc_name:se" v="Guhkesvuonjohka" />
		<tag k="name" v="Langfjordelva" />
		<tag k="name:no" v="Langfjordelva" />
		<tag k="ssr:stedsnr" v="808044" />
		<tag k="waterway" v="river" />
	</node>
	<node id="-772621" lat="69.8754749995" lon="20.6554305423">
		<tag k="name" v="Oksevannet" />
		<tag k="natural" v="water" />
		<tag k="ssr:stedsnr" v="323524" />
	</node>
	<node id="-774220" lat="70.1116305524" lon="20.8345027492">
		<tag k="name" v="Ytter-Kveitvikvannet" />
		<tag k="natural" v="water" />
		<tag k="ssr:stedsnr" v="808035" />
	</node>
	<node id="-774216" lat="70.1583166675" lon="20.4665166482">
		<tag k="name" v="Keilevannet" />
		<tag k="natural" v="water" />
		<tag k="ssr:stedsnr" v="808004" />
		<tag k="water" v="lake" />
	</node>
	<node id="-774215" lat="70.1525055534" lon="20.6384222095">
		<tag k="name" v="Øver-Laksvannet" />
		<tag k="natural" v="water" />
		<tag k="ssr:stedsnr" v="808001" />
	</node>
	<node id="-774241" lat="69.8512833367" lon="20.6168444182">
		<tag k="name" v="Blåtindvannet" />
		<tag k="natural" v="water" />
		<tag k="ssr:stedsnr" v="808513" />
	</node>
	<node id="-772676" lat="70.0308444474" lon="21.2416110884">
		<tag k="name" v="Skjellelva" />
		<tag k="ssr:stedsnr" v="352201" />
		<tag k="waterway" v="stream" />
	</node>
	<node id="-774210" lat="70.1310833302" lon="20.5583305486">
		<tag k="name" v="Kattdalselva" />
		<tag k="ssr:stedsnr" v="777957" />
		<tag k="waterway" v="stream" />
	</node>
	<node id="-772673" lat="70.1184472249" lon="20.8884444316">
		<tag k="name" v="Kveitvikelva" />
		<tag k="ssr:stedsnr" v="352178" />
		<tag k="waterway" v="stream" />
	</node>
	<node id="-773184" lat="70.1793666686" lon="20.794758303">
		<tag k="name" v="Teppsteinvannet" />
		<tag k="natural" v="water" />
		<tag k="ssr:stedsnr" v="109239" />
	</node>
	<node id="-773728" lat="70.1873444458" lon="20.6816388621">
		<tag k="fixme" v="multiple name tags, choose one and add the other to alt_name" />
		<tag k="name" v="Nedre Norddalsvannet;Norddalsvannet" />
		<tag k="natural" v="water" />
		<tag k="ssr:stedsnr" v="565016" />
	</node>
	<node id="-773301" lat="70.1094416719" lon="20.5285583107">
		<tag k="name" v="Laksebuktelva" />
		<tag k="ssr:stedsnr" v="169140" />
		<tag k="waterway" v="stream" />
	</node>
	<node id="-773692" lat="70.0421166718" lon="20.9937527503">
		<tag k="name" v="Engnesvannet" />
		<tag k="natural" v="water" />
		<tag k="ssr:stedsnr" v="534814" />
	</node>
	<node id="-773691" lat="70.0957361165" lon="20.5586888639">
		<tag k="name" v="Lyngneselva" />
		<tag k="ssr:stedsnr" v="534799" />
		<tag k="waterway" v="stream" />
	</node>
	<node id="-773494" lat="69.9795194444" lon="20.9688471927">
		<tag k="name" v="Skansevannet" />
		<tag k="natural" v="water" />
		<tag k="ssr:stedsnr" v="261616" />
	</node>
	<node id="-773471" lat="70.1177694468" lon="20.7492333244">
		<tag k="name" v="Solneselva" />
		<tag k="ssr:stedsnr" v="231206" />
		<tag k="waterway" v="stream" />
	</node>
	<node id="-772664" lat="70.07648056" lon="20.8883027583">
		<tag k="name" v="Ramnbergelva" />
		<tag k="ssr:stedsnr" v="352039" />
		<tag k="waterway" v="stream" />
	</node>
	<node id="-773173" lat="70.149408334" lon="20.7598277706">
		<tag k="name" v="Bekkvannet" />
		<tag k="natural" v="water" />
		<tag k="ssr:stedsnr" v="109146" />
	</node>
	<node id="-773170" lat="70.0508861142" lon="20.7793472028">
		<tag k="name" v="Vaskarelva" />
		<tag k="ssr:stedsnr" v="109104" />
		<tag k="waterway" v="stream" />
	</node>
	<node id="-772590" lat="70.0232833315" lon="20.7994166494">
		<tag k="name" v="Vittnesvannan" />
		<tag k="natural" v="water" />
		<tag k="ssr:stedsnr" v="322137" />
		<tag k="water" v="lake" />
	</node>
	<node id="-774188" lat="69.9920638917" lon="20.9985861014">
		<tag k="name" v="Holman" />
		<tag k="place" v="islet" />
		<tag k="ssr:stedsnr" v="777817" />
	</node>
	<node id="-772651" lat="70.1733277789" lon="20.4337916434">
		<tag k="name" v="Keileelva" />
		<tag k="ssr:stedsnr" v="351185" />
		<tag k="waterway" v="stream" />
	</node>
	<node id="-774186" lat="70.0464833308" lon="20.9951166427">
		<tag k="name" v="Svartvannet" />
		<tag k="natural" v="water" />
		<tag k="ssr:stedsnr" v="777804" />
	</node>
	<node id="-773639" lat="70.0567250042" lon="20.7947333067">
		<tag k="name" v="Hamneelva" />
		<tag k="ssr:stedsnr" v="533094" />
		<tag k="waterway" v="stream" />
	</node>
	<node id="-773160" lat="70.0721861116" lon="20.6087249905">
		<tag k="name" v="Øvre Sløkedalsvannet" />
		<tag k="natural" v="water" />
		<tag k="ssr:stedsnr" v="90441" />
	</node>
	<node id="-773670" lat="70.1545749985" lon="20.773386082">
		<tag k="name" v="Larsneselva" />
		<tag k="ssr:stedsnr" v="534227" />
		<tag k="waterway" v="stream" />
	</node>
	<node id="-774178" lat="69.9966249994" lon="20.9747499834">
		<tag k="name" v="Enesvannet" />
		<tag k="natural" v="water" />
		<tag k="ssr:stedsnr" v="777338" />
	</node>
	<node id="-774174" lat="70.044327783" lon="21.2444999661">
		<tag k="name" v="Småvannan" />
		<tag k="natural" v="water" />
		<tag k="ssr:stedsnr" v="777217" />
		<tag k="water" v="lake" />
	</node>
	<node id="-772698" lat="69.9677833311" lon="20.6451999813">
		<tag k="name" v="Djupdalsvannet" />
		<tag k="natural" v="water" />
		<tag k="ssr:stedsnr" v="352579" />
	</node>
	<node id="-774168" lat="70.1190666661" lon="20.7355971957">
		<tag k="name" v="Lillevannet" />
		<tag k="natural" v="water" />
		<tag k="ssr:stedsnr" v="777173" />
	</node>
	<node id="-773124" lat="70.190911114" lon="20.6234999956">
		<tag k="name" v="Lainevannet" />
		<tag k="natural" v="water" />
		<tag k="ssr:stedsnr" v="80021" />
	</node>
	<node id="-774165" lat="70.1619944429" lon="20.7759194299">
		<tag k="name" v="Skjærvannet" />
		<tag k="natural" v="water" />
		<tag k="ssr:stedsnr" v="777142" />
	</node>
	<node id="-772526" lat="70.1644277809" lon="20.5050166402">
		<tag k="name" v="Mosselva" />
		<tag k="ssr:stedsnr" v="291295" />
		<tag k="waterway" v="stream" />
	</node>
	<node id="-774161" lat="70.0460444408" lon="20.9895777585">
		<tag k="name" v="Geitvannet" />
		<tag k="natural" v="water" />
		<tag k="ssr:stedsnr" v="777123" />
	</node>
	<node id="-773133" lat="70.2210944419" lon="20.5877555336">
		<tag k="name" v="Rotvågelva" />
		<tag k="ssr:stedsnr" v="80099" />
		<tag k="waterway" v="stream" />
	</node>
	<node id="-774154" lat="69.8978750007" lon="20.5994805295">
		<tag k="name" v="Svartvannet" />
		<tag k="natural" v="water" />
		<tag k="ssr:stedsnr" v="776559" />
	</node>
	<node id="-774151" lat="69.9599194495" lon="20.6545888629">
		<tag k="name" v="Malenavannet" />
		<tag k="natural" v="water" />
		<tag k="ssr:stedsnr" v="776544" />
	</node>
	<node id="-772614" lat="70.1615722228" lon="20.6276305505">
		<tag k="name" v="Laksevannet" />
		<tag k="natural" v="water" />
		<tag k="ssr:stedsnr" v="323023" />
	</node>
	<node id="-774148" lat="70.0627277774" lon="20.4797416584">
		<tag k="name" v="Hamnelva" />
		<tag k="ssr:stedsnr" v="776116" />
		<tag k="waterway" v="stream" />
	</node>
</osm>
