<?xml version="1.0" encoding="UTF-8"?>
<osm version="0.6" generator="osmapis">
	<node id="274650932" lat="68.0154117" lon="15.3323268" version="3" timestamp="2022-07-14T05:47:07Z" changeset="123590402" uid="3497659" user="NKA">
		<tag k="alt_name" v="Skutvika" />
		<tag k="name" v="Skutvik" />
		<tag k="place" v="village" />
		<tag k="ssr:stedsnr" v="199859" />
	</node>
	<node id="568847250" lat="68.0447107" lon="16.0800251" version="6" timestamp="2022-07-14T05:47:07Z" changeset="123590402" uid="3497659" user="NKA">
		<tag k="name" v="Ájluokta - Drag" />
		<tag k="name:no" v="Drag" />
		<tag k="name:smj" v="Ájluokta" />
		<tag k="place" v="village" />
		<tag k="population" v="313" />
		<tag k="population:date" v="2021-01-01" />
		<tag k="ref:ssb_tettsted" v="7722" />
		<tag k="source:population" v="SSB - befolkning i tettstedet" />
		<tag k="ssr:stedsnr" v="502559" />
	</node>
	<node id="1693128809" lat="68.2237265" lon="16.0757563" version="3" timestamp="2022-07-14T05:47:07Z" changeset="123590402" uid="3497659" user="NKA">
		<tag k="name" v="Bognássje - Bognes" />
		<tag k="name:no" v="Bognes" />
		<tag k="name:smj" v="Bognássje" />
		<tag k="place" v="hamlet" />
		<tag k="ssr:stedsnr" v="975424" />
	</node>
	<node id="1721768276" lat="68.1155376" lon="15.8656124" version="3" timestamp="2022-07-14T05:47:07Z" changeset="123590402" uid="3497659" user="NKA">
		<tag k="alt_name:no" v="Ulsvåg" />
		<tag k="name" v="Ulsváhke - Ulvsvåg" />
		<tag k="name:no" v="Ulvsvåg" />
		<tag k="name:smj" v="Ulsváhke" />
		<tag k="place" v="village" />
		<tag k="ssr:stedsnr" v="260684" />
	</node>
	<node id="1721768315" lat="67.8980606" lon="15.8633779" version="2" timestamp="2022-07-14T05:47:07Z" changeset="123590402" uid="3497659" user="NKA">
		<tag k="loc_name:smj" v="Vuohppe" />
		<tag k="name" v="Tømmerneset" />
		<tag k="name:no" v="Tømmerneset" />
		<tag k="place" v="hamlet" />
		<tag k="ssr:stedsnr" v="207400" />
	</node>
	<node id="2525738309" lat="68.1834472" lon="15.6625385" version="3" timestamp="2022-07-14T05:47:07Z" changeset="123590402" uid="3497659" user="NKA">
		<tag k="alt_name" v="Tranøy" />
		<tag k="name" v="Tranøya" />
		<tag k="place" v="village" />
		<tag k="ssr:stedsnr" v="17819" />
	</node>
	<node id="2525749526" lat="68.1646053" lon="15.7066403" version="2" timestamp="2022-07-14T05:47:07Z" changeset="123590402" uid="3497659" user="NKA">
		<tag k="alt_name" v="Sommersel" />
		<tag k="name" v="Sommarsel" />
		<tag k="place" v="hamlet" />
		<tag k="ssr:stedsnr" v="17782" />
	</node>
	<node id="5909703848" lat="68.084992" lon="15.6130699" version="6" timestamp="2022-07-14T05:47:07Z" changeset="123590402" uid="3497659" user="NKA">
		<tag k="alt_name" v="Oppeide" />
		<tag k="name" v="Oppeid" />
		<tag k="place" v="village" />
		<tag k="population" v="532" />
		<tag k="population:date" v="2021-01-01" />
		<tag k="ref:ssb_tettsted" v="7711" />
		<tag k="source:population" v="SSB - befolkning i tettstedet" />
		<tag k="ssr:stedsnr" v="623987" />
		<tag k="wikipedia" v="no:Oppeid" />
	</node>
	<node id="6185383615" lat="68.2029416" lon="16.073588" version="2" timestamp="2022-07-14T05:47:07Z" changeset="123590402" uid="3497659" user="NKA">
		<tag k="alt_name:no" v="Stordjord;Storjord i Tysfjord" />
		<tag k="name" v="Stuorgiedde - Storjorda" />
		<tag k="name:no" v="Storjorda" />
		<tag k="name:smj" v="Stuorgiedde" />
		<tag k="place" v="hamlet" />
		<tag k="ssr:stedsnr" v="846253" />
	</node>
	<node id="6190805191" lat="68.1390069" lon="15.8833801" version="2" timestamp="2022-07-14T05:47:07Z" changeset="123590402" uid="3497659" user="NKA">
		<tag k="name" v="Solstad" />
		<tag k="place" v="farm" />
		<tag k="ssr:stedsnr" v="927690" />
	</node>
	<node id="6191047272" lat="68.2382036" lon="16.0626238" version="2" timestamp="2022-07-14T05:47:07Z" changeset="123590402" uid="3497659" user="NKA">
		<tag k="name" v="Leiknes" />
		<tag k="place" v="hamlet" />
		<tag k="ssr:stedsnr" v="632954" />
	</node>
	<node id="6205774436" lat="67.8909416" lon="16.2077561" version="2" timestamp="2022-07-14T05:47:07Z" changeset="123590402" uid="3497659" user="NKA">
		<tag k="name" v="Måsske - Musken" />
		<tag k="name:no" v="Musken" />
		<tag k="name:smj" v="Måsske" />
		<tag k="place" v="hamlet" />
		<tag k="ssr:stedsnr" v="81303" />
	</node>
	<node id="6205774460" lat="67.9633674" lon="15.9307907" version="3" timestamp="2022-07-14T05:47:07Z" changeset="123590402" uid="3497659" user="NKA">
		<tag k="name" v="Strávnjunnje - Innhavet" />
		<tag k="name:no" v="Innhavet" />
		<tag k="name:smj" v="Strávnjunnje" />
		<tag k="place" v="village" />
		<tag k="ssr:stedsnr" v="138654" />
	</node>
	<node id="6205774462" lat="68.084063" lon="15.6431349" version="3" timestamp="2022-07-14T05:47:07Z" changeset="123590402" uid="3497659" user="NKA">
		<tag k="alt_name" v="Hamarøy" />
		<tag k="name" v="Presteid" />
		<tag k="place" v="quarter" />
		<tag k="ssr:stedsnr" v="138635" />
	</node>
	<node id="6205774475" lat="68.1225765" lon="16.106302" version="2" timestamp="2022-07-14T05:47:07Z" changeset="123590402" uid="3497659" user="NKA">
		<tag k="alt_name" v="Nevervik" />
		<tag k="name" v="Biesseluokta - Nevervika" />
		<tag k="name:no" v="Nevervika" />
		<tag k="name:smj" v="Biesseluokta" />
		<tag k="place" v="hamlet" />
		<tag k="ssr:stedsnr" v="442736" />
	</node>
	<node id="9886493708" lat="68.1355222" lon="16.1114584" version="1" timestamp="2022-07-14T05:47:07Z" changeset="123590402" uid="3497659" user="NKA">
		<tag k="name" v="Rørvikgården" />
		<tag k="place" v="farm" />
		<tag k="ssr:stedsnr" v="932582" />
	</node>
	<node id="9886493709" lat="68.1680536" lon="15.7020918" version="1" timestamp="2022-07-14T05:47:07Z" changeset="123590402" uid="3497659" user="NKA">
		<tag k="name" v="Nesteigen" />
		<tag k="place" v="isolated_dwelling" />
		<tag k="ssr:stedsnr" v="654195" />
	</node>
	<node id="9886493710" lat="68.1944861" lon="16.1234278" version="1" timestamp="2022-07-14T05:47:07Z" changeset="123590402" uid="3497659" user="NKA">
		<tag k="name" v="Tjeldhamn" />
		<tag k="place" v="locality" />
		<tag k="ssr:stedsnr" v="138793" />
	</node>
	<node id="9886493711" lat="68.1631778" lon="15.6404779" version="1" timestamp="2022-07-14T05:47:07Z" changeset="123590402" uid="3497659" user="NKA">
		<tag k="name" v="Solvoll" />
		<tag k="place" v="farm" />
		<tag k="ssr:stedsnr" v="563783" />
	</node>
	<node id="9886493712" lat="67.9571774" lon="15.8104029" version="1" timestamp="2022-07-14T05:47:07Z" changeset="123590402" uid="3497659" user="NKA">
		<tag k="alt_name" v="Veggen" />
		<tag k="name" v="Fornesveggen" />
		<tag k="place" v="farm" />
		<tag k="ssr:stedsnr" v="381668" />
	</node>
	<node id="9886493713" lat="68.1972722" lon="16.0601027" version="1" timestamp="2022-07-14T05:47:07Z" changeset="123590402" uid="3497659" user="NKA">
		<tag k="name" v="Sjøvoll" />
		<tag k="place" v="farm" />
		<tag k="ssr:stedsnr" v="806832" />
	</node>
	<node id="9886493714" lat="68.0250002" lon="16.1558503" version="1" timestamp="2022-07-14T05:47:07Z" changeset="123590402" uid="3497659" user="NKA">
		<tag k="name" v="Ytter-Helland" />
		<tag k="place" v="farm" />
		<tag k="ssr:stedsnr" v="806575" />
	</node>
	<node id="9886493715" lat="67.8710484" lon="15.8421034" version="1" timestamp="2022-07-14T05:47:07Z" changeset="123590402" uid="3497659" user="NKA">
		<tag k="name" v="Rota" />
		<tag k="place" v="hamlet" />
		<tag k="ssr:stedsnr" v="320408" />
	</node>
	<node id="9886493716" lat="68.1773389" lon="16.030811" version="1" timestamp="2022-07-14T05:47:07Z" changeset="123590402" uid="3497659" user="NKA">
		<tag k="name" v="Myrvang" />
		<tag k="place" v="farm" />
		<tag k="ssr:stedsnr" v="749741" />
	</node>
	<node id="9886499217" lat="68.0437055" lon="16.3050416" version="1" timestamp="2022-07-14T05:47:07Z" changeset="123590402" uid="3497659" user="NKA">
		<tag k="name" v="Solhaug" />
		<tag k="place" v="farm" />
		<tag k="ssr:stedsnr" v="684511" />
	</node>
	<node id="9886499218" lat="68.0273417" lon="16.3367777" version="1" timestamp="2022-07-14T05:47:07Z" changeset="123590402" uid="3497659" user="NKA">
		<tag k="name" v="Tjårro - Tjårrnes" />
		<tag k="name:no" v="Tjårrnes" />
		<tag k="name:smj" v="Tjårro" />
		<tag k="place" v="hamlet" />
		<tag k="ssr:stedsnr" v="684513" />
	</node>
	<node id="9886499219" lat="68.1084473" lon="15.5891478" version="1" timestamp="2022-07-14T05:47:07Z" changeset="123590402" uid="3497659" user="NKA">
		<tag k="name" v="Nerkulen" />
		<tag k="place" v="farm" />
		<tag k="ssr:stedsnr" v="473403" />
	</node>
	<node id="9886499220" lat="68.0873611" lon="15.5886528" version="1" timestamp="2022-07-14T05:47:07Z" changeset="123590402" uid="3497659" user="NKA">
		<tag k="name" v="Brubrekka" />
		<tag k="place" v="isolated_dwelling" />
		<tag k="ssr:stedsnr" v="473024" />
	</node>
	<node id="9886499221" lat="68.0547" lon="16.3187943" version="1" timestamp="2022-07-14T05:47:07Z" changeset="123590402" uid="3497659" user="NKA">
		<tag k="name" v="Strand" />
		<tag k="place" v="farm" />
		<tag k="ssr:stedsnr" v="450600" />
	</node>
	<node id="9886499222" lat="68.1685889" lon="16.1289555" version="1" timestamp="2022-07-14T05:47:07Z" changeset="123590402" uid="3497659" user="NKA">
		<tag k="alt_name" v="Vikjord" />
		<tag k="name" v="Vikjorda" />
		<tag k="place" v="farm" />
		<tag k="ssr:stedsnr" v="745799" />
	</node>
	<node id="9886499223" lat="68.0445639" lon="16.29015" version="1" timestamp="2022-07-14T05:47:07Z" changeset="123590402" uid="3497659" user="NKA">
		<tag k="name" v="Såma" />
		<tag k="place" v="isolated_dwelling" />
		<tag k="ssr:stedsnr" v="502516" />
	</node>
	<node id="9886499224" lat="68.0782361" lon="16.0998584" version="1" timestamp="2022-07-14T05:47:07Z" changeset="123590402" uid="3497659" user="NKA">
		<tag k="name" v="Strummbo - Strumpvika" />
		<tag k="name:no" v="Strumpvika" />
		<tag k="name:smj" v="Strummbo" />
		<tag k="place" v="hamlet" />
		<tag k="ssr:stedsnr" v="688627" />
	</node>
	<node id="9886499225" lat="68.1081802" lon="15.5875498" version="1" timestamp="2022-07-14T05:47:07Z" changeset="123590402" uid="3497659" user="NKA">
		<tag k="name" v="Mellomkulen" />
		<tag k="place" v="farm" />
		<tag k="ssr:stedsnr" v="655362" />
	</node>
	<node id="9886499226" lat="68.0877194" lon="15.5807834" version="1" timestamp="2022-07-14T05:47:07Z" changeset="123590402" uid="3497659" user="NKA">
		<tag k="name" v="Skogstad" />
		<tag k="place" v="farm" />
		<tag k="ssr:stedsnr" v="655022" />
	</node>
	<node id="9886499227" lat="68.2507052" lon="16.0557553" version="1" timestamp="2022-07-14T05:47:07Z" changeset="123590402" uid="3497659" user="NKA">
		<tag k="name" v="Vika" />
		<tag k="place" v="farm" />
		<tag k="ssr:stedsnr" v="510238" />
	</node>
	<node id="9886499228" lat="68.1357111" lon="16.1140473" version="1" timestamp="2022-07-14T05:47:07Z" changeset="123590402" uid="3497659" user="NKA">
		<tag k="name" v="Ráluokta - Rørvika" />
		<tag k="name:no" v="Rørvika" />
		<tag k="name:smj" v="Ráluokta" />
		<tag k="place" v="hamlet" />
		<tag k="ssr:stedsnr" v="684675" />
	</node>
	<node id="9886499229" lat="68.0787378" lon="16.1010007" version="1" timestamp="2022-07-14T05:47:07Z" changeset="123590402" uid="3497659" user="NKA">
		<tag k="name" v="Strumpvika" />
		<tag k="place" v="farm" />
		<tag k="ssr:stedsnr" v="684626" />
	</node>
	<node id="9886499230" lat="67.8816646" lon="16.1985865" version="1" timestamp="2022-07-14T05:47:07Z" changeset="123590402" uid="3497659" user="NKA">
		<tag k="name" v="Hejdigiedde - Hedningjorda" />
		<tag k="name:no" v="Hedningjorda" />
		<tag k="name:smj" v="Hejdigiedde" />
		<tag k="place" v="locality" />
		<tag k="ssr:stedsnr" v="78432" />
	</node>
	<node id="9886499231" lat="68.1479369" lon="15.4690068" version="1" timestamp="2022-07-14T05:47:07Z" changeset="123590402" uid="3497659" user="NKA">
		<tag k="name" v="Buvåg" />
		<tag k="place" v="hamlet" />
		<tag k="ssr:stedsnr" v="137063" />
	</node>
	<node id="9886499232" lat="68.2517806" lon="16.0576944" version="1" timestamp="2022-07-14T05:47:07Z" changeset="123590402" uid="3497659" user="NKA">
		<tag k="name" v="Moa" />
		<tag k="place" v="farm" />
		<tag k="ssr:stedsnr" v="510236" />
	</node>
	<node id="9886499233" lat="68.1536189" lon="15.6584613" version="1" timestamp="2022-07-14T05:47:07Z" changeset="123590402" uid="3497659" user="NKA">
		<tag k="name" v="Leite" />
		<tag k="place" v="isolated_dwelling" />
		<tag k="ssr:stedsnr" v="413695" />
	</node>
	<node id="9886499234" lat="68.1387" lon="15.4664379" version="1" timestamp="2022-07-14T05:47:07Z" changeset="123590402" uid="3497659" user="NKA">
		<tag k="name" v="Nordgård" />
		<tag k="place" v="farm" />
		<tag k="ssr:stedsnr" v="593584" />
	</node>
	<node id="9886499235" lat="68.0833144" lon="16.3076109" version="1" timestamp="2022-07-14T05:47:07Z" changeset="123590402" uid="3497659" user="NKA">
		<tag k="name" v="Stáloluokta - Risvika" />
		<tag k="name:no" v="Risvika" />
		<tag k="name:smj" v="Stáloluokta" />
		<tag k="place" v="isolated_dwelling" />
		<tag k="ssr:stedsnr" v="198530" />
	</node>
	<node id="9886499236" lat="67.9109611" lon="16.1956667" version="1" timestamp="2022-07-14T05:47:07Z" changeset="123590402" uid="3497659" user="NKA">
		<tag k="name" v="Gábmásadje" />
		<tag k="name:smj" v="Gábmásadje" />
		<tag k="old_name:smj" v="Gápmasadji" />
		<tag k="place" v="isolated_dwelling" />
		<tag k="ssr:stedsnr" v="138397" />
	</node>
	<node id="9886499237" lat="68.0234417" lon="15.3031083" version="1" timestamp="2022-07-14T05:47:07Z" changeset="123590402" uid="3497659" user="NKA">
		<tag k="name" v="Utvåg" />
		<tag k="place" v="isolated_dwelling" />
		<tag k="ssr:stedsnr" v="867905" />
	</node>
	<node id="9886499238" lat="68.087151" lon="16.2976757" version="1" timestamp="2022-07-14T05:47:07Z" changeset="123590402" uid="3497659" user="NKA">
		<tag k="name" v="Sámeluokta - Lapplægran" />
		<tag k="name:no" v="Lapplægran" />
		<tag k="name:smj" v="Sámeluokta" />
		<tag k="place" v="isolated_dwelling" />
		<tag k="ssr:stedsnr" v="866511" />
	</node>
	<node id="9886499239" lat="68.0982341" lon="15.6195983" version="1" timestamp="2022-07-14T05:47:07Z" changeset="123590402" uid="3497659" user="NKA">
		<tag k="alt_name" v="Dypvik" />
		<tag k="name" v="Djupvika" />
		<tag k="place" v="farm" />
		<tag k="ssr:stedsnr" v="623700" />
	</node>
	<node id="9886499240" lat="68.0217212" lon="16.1576848" version="1" timestamp="2022-07-14T05:47:07Z" changeset="123590402" uid="3497659" user="NKA">
		<tag k="name" v="Ájládde - Helland" />
		<tag k="name:no" v="Helland" />
		<tag k="name:smj" v="Ájládde" />
		<tag k="place" v="hamlet" />
		<tag k="ssr:stedsnr" v="875937" />
	</node>
	<node id="9886499241" lat="68.0518025" lon="16.3179983" version="1" timestamp="2022-07-14T05:47:07Z" changeset="123590402" uid="3497659" user="NKA">
		<tag k="name" v="Lyngmoen" />
		<tag k="place" v="farm" />
		<tag k="ssr:stedsnr" v="199511" />
	</node>
	<node id="9886499242" lat="68.1328639" lon="15.4024528" version="1" timestamp="2022-07-14T05:47:07Z" changeset="123590402" uid="3497659" user="NKA">
		<tag k="name" v="Ramnevika" />
		<tag k="place" v="locality" />
		<tag k="ssr:stedsnr" v="716720" />
	</node>
	<node id="9886499243" lat="68.1396744" lon="15.4420176" version="1" timestamp="2022-07-14T05:47:07Z" changeset="123590402" uid="3497659" user="NKA">
		<tag k="alt_name" v="Fikke" />
		<tag k="name" v="Fitje" />
		<tag k="place" v="hamlet" />
		<tag k="ssr:stedsnr" v="866071" />
	</node>
	<node id="9886499244" lat="68.0446556" lon="16.3113559" version="1" timestamp="2022-07-14T05:47:07Z" changeset="123590402" uid="3497659" user="NKA">
		<tag k="alt_name" v="Hulløy" />
		<tag k="name" v="Hulløya" />
		<tag k="place" v="hamlet" />
		<tag k="ssr:stedsnr" v="199523" />
	</node>
	<node id="9886499245" lat="68.1041865" lon="15.590728" version="1" timestamp="2022-07-14T05:47:07Z" changeset="123590402" uid="3497659" user="NKA">
		<tag k="alt_name" v="Brutlen;Brulten" />
		<tag k="name" v="Brattli" />
		<tag k="place" v="farm" />
		<tag k="ssr:stedsnr" v="623054" />
	</node>
	<node id="9886499246" lat="67.9327861" lon="16.4039389" version="1" timestamp="2022-07-14T05:47:07Z" changeset="123590402" uid="3497659" user="NKA">
		<tag k="name" v="Stuorbealga" />
		<tag k="name:smj" v="Stuorbealga" />
		<tag k="place" v="locality" />
		<tag k="ssr:stedsnr" v="17369" />
	</node>
	<node id="9886499247" lat="67.8893356" lon="16.2133049" version="1" timestamp="2022-07-14T05:47:07Z" changeset="123590402" uid="3497659" user="NKA">
		<tag k="name" v="Sis-Måsske - Inner-Musken" />
		<tag k="name:no" v="Inner-Musken" />
		<tag k="name:smj" v="Sis-Måsske" />
		<tag k="place" v="farm" />
		<tag k="ssr:stedsnr" v="199420" />
	</node>
	<node id="9886499248" lat="68.1461088" lon="15.4617087" version="1" timestamp="2022-07-14T05:47:07Z" changeset="123590402" uid="3497659" user="NKA">
		<tag k="name" v="Einan" />
		<tag k="place" v="farm" />
		<tag k="ssr:stedsnr" v="594911" />
	</node>
	<node id="9886499249" lat="67.9021449" lon="16.1972517" version="1" timestamp="2022-07-14T05:47:07Z" changeset="123590402" uid="3497659" user="NKA">
		<tag k="name" v="Baddje-Smájlle" />
		<tag k="name:smj" v="Baddje-Smájlle" />
		<tag k="place" v="farm" />
		<tag k="ssr:stedsnr" v="204562" />
	</node>
	<node id="9886499250" lat="68.194163" lon="16.0259552" version="1" timestamp="2022-07-14T05:47:07Z" changeset="123590402" uid="3497659" user="NKA">
		<tag k="name" v="Skogvoll" />
		<tag k="place" v="hamlet" />
		<tag k="ssr:stedsnr" v="320822" />
	</node>
	<node id="9886499251" lat="68.1298512" lon="15.4090758" version="1" timestamp="2022-07-14T05:47:07Z" changeset="123590402" uid="3497659" user="NKA">
		<tag k="name" v="Bjørnvågen" />
		<tag k="place" v="farm" />
		<tag k="ssr:stedsnr" v="502102" />
	</node>
	<node id="9886499252" lat="68.1117583" lon="16.0326777" version="1" timestamp="2022-07-14T05:47:07Z" changeset="123590402" uid="3497659" user="NKA">
		<tag k="name" v="Kvannkjosen" />
		<tag k="place" v="locality" />
		<tag k="ssr:stedsnr" v="320669" />
	</node>
	<node id="9886499253" lat="67.9029266" lon="16.1983469" version="1" timestamp="2022-07-14T05:47:07Z" changeset="123590402" uid="3497659" user="NKA">
		<tag k="name" v="Smájlle - Leirelva" />
		<tag k="name:no" v="Leirelva" />
		<tag k="name:smj" v="Smájlle" />
		<tag k="place" v="hamlet" />
		<tag k="ssr:stedsnr" v="562368" />
	</node>
	<node id="9886499254" lat="68.1943965" lon="16.0401585" version="1" timestamp="2022-07-14T05:47:07Z" changeset="123590402" uid="3497659" user="NKA">
		<tag k="name" v="Sommarset" />
		<tag k="place" v="hamlet" />
		<tag k="ssr:stedsnr" v="204628" />
	</node>
	<node id="9886499255" lat="67.9813667" lon="16.4904251" version="1" timestamp="2022-07-14T05:47:07Z" changeset="123590402" uid="3497659" user="NKA">
		<tag k="name" v="Lávrra" />
		<tag k="name:smj" v="Lávrra" />
		<tag k="place" v="isolated_dwelling" />
		<tag k="ssr:stedsnr" v="927316" />
	</node>
	<node id="9886499256" lat="68.146957" lon="16.041886" version="1" timestamp="2022-07-14T05:47:07Z" changeset="123590402" uid="3497659" user="NKA">
		<tag k="name" v="Láŋásse - Langåsen" />
		<tag k="name:no" v="Langåsen" />
		<tag k="name:smj" v="Láŋásse" />
		<tag k="place" v="farm" />
		<tag k="ssr:stedsnr" v="259693" />
	</node>
	<node id="9886499257" lat="68.0873115" lon="16.1130339" version="1" timestamp="2022-07-14T05:47:07Z" changeset="123590402" uid="3497659" user="NKA">
		<tag k="name" v="Bjørkeneset" />
		<tag k="place" v="farm" />
		<tag k="ssr:stedsnr" v="82561" />
	</node>
	<node id="9886499258" lat="67.8602611" lon="16.4641832" version="1" timestamp="2022-07-14T05:47:07Z" changeset="123590402" uid="3497659" user="NKA">
		<tag k="name" v="Tjierrekluokta - Nordbukta" />
		<tag k="name:no" v="Nordbukta" />
		<tag k="name:smj" v="Tjierrekluokta" />
		<tag k="old_name:smj" v="Čierregluokta" />
		<tag k="place" v="hamlet" />
		<tag k="ssr:stedsnr" v="806356" />
	</node>
	<node id="9886499259" lat="68.1847833" lon="16.0251861" version="1" timestamp="2022-07-14T05:47:07Z" changeset="123590402" uid="3497659" user="NKA">
		<tag k="name" v="Vollan" />
		<tag k="place" v="farm" />
		<tag k="ssr:stedsnr" v="142662" />
	</node>
	<node id="9886499260" lat="68.1444667" lon="15.4500527" version="1" timestamp="2022-07-14T05:47:07Z" changeset="123590402" uid="3497659" user="NKA">
		<tag k="name" v="Stranda" />
		<tag k="place" v="neighbourhood" />
		<tag k="ssr:stedsnr" v="534920" />
	</node>
	<node id="9886499261" lat="68.1520483" lon="16.1101118" version="1" timestamp="2022-07-14T05:47:07Z" changeset="123590402" uid="3497659" user="NKA">
		<tag k="name" v="Lund" />
		<tag k="place" v="isolated_dwelling" />
		<tag k="ssr:stedsnr" v="77756" />
	</node>
	<node id="9886499262" lat="68.0852972" lon="16.2360501" version="1" timestamp="2022-07-14T05:47:07Z" changeset="123590402" uid="3497659" user="NKA">
		<tag k="name" v="Aspheim" />
		<tag k="place" v="isolated_dwelling" />
		<tag k="ssr:stedsnr" v="623557" />
	</node>
	<node id="9886499263" lat="68.1008722" lon="15.6279333" version="1" timestamp="2022-07-14T05:47:07Z" changeset="123590402" uid="3497659" user="NKA">
		<tag k="alt_name" v="Myrset" />
		<tag k="name" v="Myrneset" />
		<tag k="place" v="farm" />
		<tag k="ssr:stedsnr" v="260717" />
	</node>
	<node id="9886499264" lat="68.1792413" lon="16.1034437" version="1" timestamp="2022-07-14T05:47:07Z" changeset="123590402" uid="3497659" user="NKA">
		<tag k="name" v="Gálbbeluokta - Kalvika" />
		<tag k="name:no" v="Kalvika" />
		<tag k="name:smj" v="Gálbbeluokta" />
		<tag k="place" v="hamlet" />
		<tag k="ssr:stedsnr" v="981931" />
	</node>
	<node id="9886499265" lat="67.8900223" lon="16.304175" version="1" timestamp="2022-07-14T05:47:07Z" changeset="123590402" uid="3497659" user="NKA">
		<tag k="name" v="Nåråldahka" />
		<tag k="name:smj" v="Nåråldahka" />
		<tag k="old_name:smj" v="Noroldahka" />
		<tag k="place" v="locality" />
		<tag k="ssr:stedsnr" v="745347" />
	</node>
	<node id="9886499266" lat="68.2048649" lon="16.0775363" version="1" timestamp="2022-07-14T05:47:07Z" changeset="123590402" uid="3497659" user="NKA">
		<tag k="alt_name" v="Storjorda" />
		<tag k="name" v="Nordre Storjorda" />
		<tag k="place" v="farm" />
		<tag k="ssr:stedsnr" v="927805" />
	</node>
	<node id="9886499267" lat="68.0950417" lon="16.2767" version="1" timestamp="2022-07-14T05:47:07Z" changeset="123590402" uid="3497659" user="NKA">
		<tag k="name" v="Kårvik" />
		<tag k="place" v="locality" />
		<tag k="ssr:stedsnr" v="832338" />
	</node>
	<node id="9886499268" lat="67.8673778" lon="16.3163751" version="1" timestamp="2022-07-14T05:47:07Z" changeset="123590402" uid="3497659" user="NKA">
		<tag k="name" v="Davve-Vássjá - Ytre Vasja" />
		<tag k="name:no" v="Ytre Vasja" />
		<tag k="name:smj" v="Davve-Vássjá" />
		<tag k="old_name:smj" v="Davvevášša" />
		<tag k="place" v="isolated_dwelling" />
		<tag k="ssr:stedsnr" v="745398" />
	</node>
	<node id="9886499269" lat="68.0107389" lon="16.3390946" version="1" timestamp="2022-07-14T05:47:07Z" changeset="123590402" uid="3497659" user="NKA">
		<tag k="alt_name:no" v="Kjerrvika" />
		<tag k="name" v="Slihppe - Kjerr" />
		<tag k="name:no" v="Kjerr" />
		<tag k="name:smj" v="Slihppe" />
		<tag k="place" v="hamlet" />
		<tag k="ssr:stedsnr" v="684730" />
	</node>
	<node id="9886499270" lat="68.0798695" lon="16.2204083" version="1" timestamp="2022-07-14T05:47:07Z" changeset="123590402" uid="3497659" user="NKA">
		<tag k="name" v="Sommarset" />
		<tag k="place" v="isolated_dwelling" />
		<tag k="ssr:stedsnr" v="259521" />
	</node>
	<node id="9886499271" lat="67.9728416" lon="16.370714" version="1" timestamp="2022-07-14T05:47:07Z" changeset="123590402" uid="3497659" user="NKA">
		<tag k="name" v="Rávnno - Råna" />
		<tag k="name:no" v="Råna" />
		<tag k="name:smj" v="Rávnno" />
		<tag k="place" v="hamlet" />
		<tag k="ssr:stedsnr" v="745317" />
	</node>
	<node id="9886499272" lat="68.2237083" lon="16.0583138" version="1" timestamp="2022-07-14T05:47:07Z" changeset="123590402" uid="3497659" user="NKA">
		<tag k="name" v="Myra" />
		<tag k="place" v="farm" />
		<tag k="ssr:stedsnr" v="871677" />
	</node>
	<node id="9886499273" lat="68.1073527" lon="16.0985777" version="1" timestamp="2022-07-14T05:47:07Z" changeset="123590402" uid="3497659" user="NKA">
		<tag k="name" v="Gállá - Kjerr" />
		<tag k="name:no" v="Kjerr" />
		<tag k="name:smj" v="Gállá" />
		<tag k="place" v="farm" />
		<tag k="ssr:stedsnr" v="749708" />
	</node>
	<node id="9886499274" lat="68.1816806" lon="15.6084306" version="1" timestamp="2022-07-14T05:47:07Z" changeset="123590402" uid="3497659" user="NKA">
		<tag k="name" v="Fyrvika" />
		<tag k="place" v="locality" />
		<tag k="ssr:stedsnr" v="291063" />
	</node>
	<node id="9886499275" lat="68.0435933" lon="16.3050609" version="1" timestamp="2022-07-14T05:47:07Z" changeset="123590402" uid="3497659" user="NKA">
		<tag k="name" v="Vesterlid" />
		<tag k="place" v="farm" />
		<tag k="ssr:stedsnr" v="524192" />
	</node>
	<node id="9886499276" lat="68.1830047" lon="15.6633993" version="1" timestamp="2022-07-14T05:47:07Z" changeset="123590402" uid="3497659" user="NKA">
		<tag k="name" v="Vollen" />
		<tag k="place" v="farm" />
		<tag k="ssr:stedsnr" v="290090" />
	</node>
	<node id="9886499277" lat="68.0161703" lon="16.201471" version="1" timestamp="2022-07-14T05:47:07Z" changeset="123590402" uid="3497659" user="NKA">
		<tag k="name" v="Hestnes" />
		<tag k="place" v="isolated_dwelling" />
		<tag k="ssr:stedsnr" v="346903" />
	</node>
	<node id="9886499278" lat="68.0849083" lon="15.6397603" version="1" timestamp="2022-07-14T05:47:07Z" changeset="123590402" uid="3497659" user="NKA">
		<tag k="name" v="Prestegården" />
		<tag k="place" v="farm" />
		<tag k="ssr:stedsnr" v="230128" />
	</node>
	<node id="9886499279" lat="67.9655722" lon="16.3560167" version="1" timestamp="2022-07-14T05:47:07Z" changeset="123590402" uid="3497659" user="NKA">
		<tag k="name" v="Rásjvássjá - Grasvik" />
		<tag k="name:no" v="Grasvik" />
		<tag k="name:smj" v="Rásjvássjá" />
		<tag k="place" v="farm" />
		<tag k="ssr:stedsnr" v="562273" />
	</node>
	<node id="9886499280" lat="68.0445222" lon="16.2887001" version="1" timestamp="2022-07-14T05:47:07Z" changeset="123590402" uid="3497659" user="NKA">
		<tag k="name" v="Sommarset" />
		<tag k="place" v="isolated_dwelling" />
		<tag k="ssr:stedsnr" v="282202" />
	</node>
	<node id="9886499281" lat="67.9758256" lon="16.5406612" version="1" timestamp="2022-07-14T05:47:07Z" changeset="123590402" uid="3497659" user="NKA">
		<tag k="name" v="Spællábahta - Mannfjorden" />
		<tag k="name:no" v="Mannfjorden" />
		<tag k="name:smj" v="Spællábahta" />
		<tag k="place" v="hamlet" />
		<tag k="ssr:stedsnr" v="380293" />
	</node>
	<node id="9886499282" lat="67.863864" lon="15.9339654" version="1" timestamp="2022-07-14T05:47:07Z" changeset="123590402" uid="3497659" user="NKA">
		<tag k="name" v="Tjoalmme - Strinda" />
		<tag k="name:no" v="Strinda" />
		<tag k="name:smj" v="Tjoalmme" />
		<tag k="old_name:smj" v="Čoalmi" />
		<tag k="place" v="hamlet" />
		<tag k="ssr:stedsnr" v="745452" />
	</node>
	<node id="9886499283" lat="68.1037869" lon="15.5403211" version="1" timestamp="2022-07-14T05:47:07Z" changeset="123590402" uid="3497659" user="NKA">
		<tag k="name" v="Nordmark" />
		<tag k="place" v="farm" />
		<tag k="ssr:stedsnr" v="958481" />
	</node>
	<node id="9886499284" lat="68.1207667" lon="15.5617472" version="1" timestamp="2022-07-14T05:47:07Z" changeset="123590402" uid="3497659" user="NKA">
		<tag k="name" v="Kulvåg" />
		<tag k="place" v="locality" />
		<tag k="ssr:stedsnr" v="218435" />
	</node>
	<node id="9886499285" lat="68.0092917" lon="16.3398972" version="1" timestamp="2022-07-14T05:47:07Z" changeset="123590402" uid="3497659" user="NKA">
		<tag k="name" v="Osen" />
		<tag k="place" v="farm" />
		<tag k="ssr:stedsnr" v="325895" />
	</node>
	<node id="9886499286" lat="67.904425" lon="16.1961404" version="1" timestamp="2022-07-14T05:47:07Z" changeset="123590402" uid="3497659" user="NKA">
		<tag k="name" v="Vuolle-Smájlle" />
		<tag k="name:smj" v="Vuolle-Smájlle" />
		<tag k="place" v="farm" />
		<tag k="ssr:stedsnr" v="385614" />
	</node>
	<node id="9886499287" lat="67.8603805" lon="15.9366111" version="1" timestamp="2022-07-14T05:47:07Z" changeset="123590402" uid="3497659" user="NKA">
		<tag k="name" v="Litlsandnes" />
		<tag k="place" v="isolated_dwelling" />
		<tag k="ssr:stedsnr" v="259457" />
	</node>
	<node id="9886499288" lat="68.1328564" lon="15.7069779" version="1" timestamp="2022-07-14T05:47:07Z" changeset="123590402" uid="3497659" user="NKA">
		<tag k="alt_name" v="Leirvågen" />
		<tag k="name" v="Leirvåg" />
		<tag k="place" v="hamlet" />
		<tag k="ssr:stedsnr" v="78704" />
	</node>
	<node id="9886499289" lat="68.1210445" lon="15.4906472" version="1" timestamp="2022-07-14T05:47:07Z" changeset="123590402" uid="3497659" user="NKA">
		<tag k="alt_name" v="Børvika" />
		<tag k="name" v="Børvik" />
		<tag k="place" v="farm" />
		<tag k="ssr:stedsnr" v="806018" />
	</node>
	<node id="9886499290" lat="67.8478639" lon="16.3772556" version="1" timestamp="2022-07-14T05:47:07Z" changeset="123590402" uid="3497659" user="NKA">
		<tag k="name" v="Sis-Vássjá - Indre Vasja" />
		<tag k="name:no" v="Indre Vasja" />
		<tag k="name:smj" v="Sis-Vássjá" />
		<tag k="old_name:smj" v="Sisvášša" />
		<tag k="place" v="isolated_dwelling" />
		<tag k="ssr:stedsnr" v="259350" />
	</node>
	<node id="9886499291" lat="68.0514944" lon="16.3181973" version="1" timestamp="2022-07-14T05:47:07Z" changeset="123590402" uid="3497659" user="NKA">
		<tag k="name" v="Lyngmo" />
		<tag k="place" v="farm" />
		<tag k="ssr:stedsnr" v="39177" />
	</node>
	<node id="9886499292" lat="67.9164527" lon="16.4228111" version="1" timestamp="2022-07-14T05:47:07Z" changeset="123590402" uid="3497659" user="NKA">
		<tag k="name" v="Bealggaš, unna" />
		<tag k="name:smj" v="Bealggaš, unna" />
		<tag k="place" v="locality" />
		<tag k="ssr:stedsnr" v="78326" />
	</node>
	<node id="9886499293" lat="68.1773734" lon="15.6634673" version="1" timestamp="2022-07-14T05:47:07Z" changeset="123590402" uid="3497659" user="NKA">
		<tag k="name" v="Vikran" />
		<tag k="place" v="farm" />
		<tag k="ssr:stedsnr" v="109186" />
	</node>
	<node id="9886499294" lat="68.0748412" lon="16.3260445" version="1" timestamp="2022-07-14T05:47:07Z" changeset="123590402" uid="3497659" user="NKA">
		<tag k="name" v="Kongsnes" />
		<tag k="place" v="farm" />
		<tag k="ssr:stedsnr" v="82916" />
	</node>
	<node id="9886499295" lat="68.087101" lon="15.4778773" version="1" timestamp="2022-07-14T05:47:07Z" changeset="123590402" uid="3497659" user="NKA">
		<tag k="alt_name" v="Hansbakk" />
		<tag k="name" v="Hansbakkan" />
		<tag k="place" v="hamlet" />
		<tag k="ssr:stedsnr" v="805996" />
	</node>
	<node id="9886499296" lat="68.1057363" lon="15.5169101" version="1" timestamp="2022-07-14T05:47:07Z" changeset="123590402" uid="3497659" user="NKA">
		<tag k="name" v="Nystad" />
		<tag k="place" v="farm" />
		<tag k="ssr:stedsnr" v="898283" />
	</node>
	<node id="9886499297" lat="67.9170111" lon="16.4679666" version="1" timestamp="2022-07-14T05:47:07Z" changeset="123590402" uid="3497659" user="NKA">
		<tag k="name" v="Utsvuodna - Grunnfjordbotn" />
		<tag k="name:no" v="Grunnfjordbotn" />
		<tag k="name:smj" v="Utsvuodna" />
		<tag k="place" v="farm" />
		<tag k="ssr:stedsnr" v="381334" />
	</node>
	<node id="9886499298" lat="68.1444055" lon="15.4657388" version="1" timestamp="2022-07-14T05:47:07Z" changeset="123590402" uid="3497659" user="NKA">
		<tag k="name" v="Åsan" />
		<tag k="place" v="farm" />
		<tag k="ssr:stedsnr" v="805086" />
	</node>
	<node id="9886499299" lat="68.027178" lon="16.5152802" version="1" timestamp="2022-07-14T05:47:07Z" changeset="123590402" uid="3497659" user="NKA">
		<tag k="alt_name:no" v="Mosken" />
		<tag k="name" v="Spællámåsske - Musken" />
		<tag k="name:no" v="Musken" />
		<tag k="name:smj" v="Spællámåsske" />
		<tag k="old_name:smj" v="Moski;Måsske" />
		<tag k="place" v="farm" />
		<tag k="ssr:stedsnr" v="78732" />
	</node>
	<node id="9886499300" lat="68.1110695" lon="15.4907112" version="1" timestamp="2022-07-14T05:47:07Z" changeset="123590402" uid="3497659" user="NKA">
		<tag k="name" v="Heim" />
		<tag k="place" v="farm" />
		<tag k="ssr:stedsnr" v="776434" />
	</node>
	<node id="9886499301" lat="67.6652754" lon="16.3287719" version="1" timestamp="2022-07-14T05:47:07Z" changeset="123590402" uid="3497659" user="NKA">
		<tag k="name" v="Reinoksfjellet" />
		<tag k="place" v="locality" />
		<tag k="ssr:stedsnr" v="1076456" />
	</node>
	<node id="9886499302" lat="67.9503631" lon="16.454908" version="1" timestamp="2022-07-14T05:47:07Z" changeset="123590402" uid="3497659" user="NKA">
		<tag k="name" v="Vuohpenjárgga - Nes" />
		<tag k="name:no" v="Nes" />
		<tag k="name:smj" v="Vuohpenjárgga" />
		<tag k="place" v="farm" />
		<tag k="ssr:stedsnr" v="320344" />
	</node>
	<node id="9886499303" lat="67.9981516" lon="15.5183712" version="1" timestamp="2022-07-14T05:47:07Z" changeset="123590402" uid="3497659" user="NKA">
		<tag k="name" v="Bjørklund" />
		<tag k="place" v="farm" />
		<tag k="ssr:stedsnr" v="473686" />
	</node>
	<node id="9886499304" lat="67.9748028" lon="16.5334973" version="1" timestamp="2022-07-14T05:47:07Z" changeset="123590402" uid="3497659" user="NKA">
		<tag k="name" v="Storjorda" />
		<tag k="place" v="farm" />
		<tag k="ssr:stedsnr" v="932903" />
	</node>
	<node id="9886499305" lat="68.0887674" lon="15.5795233" version="1" timestamp="2022-07-14T05:47:07Z" changeset="123590402" uid="3497659" user="NKA">
		<tag k="name" v="Ytterstad" />
		<tag k="place" v="farm" />
		<tag k="ssr:stedsnr" v="109021" />
	</node>
	<node id="9886499306" lat="68.1073203" lon="15.5188524" version="1" timestamp="2022-07-14T05:47:07Z" changeset="123590402" uid="3497659" user="NKA">
		<tag k="name" v="Langmark" />
		<tag k="place" v="farm" />
		<tag k="ssr:stedsnr" v="776257" />
	</node>
	<node id="9886499307" lat="67.9630861" lon="16.3946028" version="1" timestamp="2022-07-14T05:47:07Z" changeset="123590402" uid="3497659" user="NKA">
		<tag k="name" v="Njoaskásj - Sommarset" />
		<tag k="name:no" v="Sommarset" />
		<tag k="name:smj" v="Njoaskásj" />
		<tag k="place" v="locality" />
		<tag k="ssr:stedsnr" v="138319" />
	</node>
	<node id="9886499308" lat="67.9942361" lon="16.3401166" version="1" timestamp="2022-07-14T05:47:07Z" changeset="123590402" uid="3497659" user="NKA">
		<tag k="name" v="Skarvbergvika" />
		<tag k="place" v="farm" />
		<tag k="ssr:stedsnr" v="77311" />
	</node>
	<node id="9886499309" lat="68.0749066" lon="15.3832755" version="1" timestamp="2022-07-14T05:47:07Z" changeset="123590402" uid="3497659" user="NKA">
		<tag k="name" v="Vasseng" />
		<tag k="place" v="farm" />
		<tag k="ssr:stedsnr" v="764183" />
	</node>
	<node id="9886499310" lat="67.9988666" lon="15.5294584" version="1" timestamp="2022-07-14T05:47:07Z" changeset="123590402" uid="3497659" user="NKA">
		<tag k="name" v="Einsletta" />
		<tag k="place" v="farm" />
		<tag k="ssr:stedsnr" v="745913" />
	</node>
	<node id="9886499311" lat="68.1509861" lon="15.6237888" version="1" timestamp="2022-07-14T05:47:07Z" changeset="123590402" uid="3497659" user="NKA">
		<tag k="name" v="Bennesvikskallen" />
		<tag k="place" v="farm" />
		<tag k="ssr:stedsnr" v="764255" />
	</node>
	<node id="9886499312" lat="67.9537439" lon="16.4515172" version="1" timestamp="2022-07-14T05:47:07Z" changeset="123590402" uid="3497659" user="NKA">
		<tag k="name" v="Grunnfjorden" />
		<tag k="place" v="isolated_dwelling" />
		<tag k="ssr:stedsnr" v="866260" />
	</node>
	<node id="9886499313" lat="68.1040133" lon="15.5128439" version="1" timestamp="2022-07-14T05:47:07Z" changeset="123590402" uid="3497659" user="NKA">
		<tag k="name" v="Åsen" />
		<tag k="place" v="farm" />
		<tag k="ssr:stedsnr" v="715316" />
	</node>
	<node id="9886499314" lat="68.1420516" lon="15.6772816" version="1" timestamp="2022-07-14T05:47:07Z" changeset="123590402" uid="3497659" user="NKA">
		<tag k="name" v="Hellandsåsen" />
		<tag k="place" v="farm" />
		<tag k="ssr:stedsnr" v="745792" />
	</node>
	<node id="9886499315" lat="68.1726582" lon="15.6650927" version="1" timestamp="2022-07-14T05:47:07Z" changeset="123590402" uid="3497659" user="NKA">
		<tag k="alt_name" v="Steinsos" />
		<tag k="name" v="Steinosen" />
		<tag k="place" v="farm" />
		<tag k="ssr:stedsnr" v="745814" />
	</node>
	<node id="9886499316" lat="68.1487084" lon="15.504131" version="1" timestamp="2022-07-14T05:47:07Z" changeset="123590402" uid="3497659" user="NKA">
		<tag k="alt_name" v="Kyllingmark" />
		<tag k="name" v="Kjukkelmarka" />
		<tag k="old_name" v="Kjakkelmarka;Kjyllingmark" />
		<tag k="place" v="hamlet" />
		<tag k="ssr:stedsnr" v="623110" />
	</node>
	<node id="9886499317" lat="68.1071916" lon="15.8162334" version="1" timestamp="2022-07-14T05:47:07Z" changeset="123590402" uid="3497659" user="NKA">
		<tag k="name" v="Gjertrudslottet" />
		<tag k="place" v="farm" />
		<tag k="ssr:stedsnr" v="806673" />
	</node>
	<node id="9886499318" lat="68.0937889" lon="15.6238556" version="1" timestamp="2022-07-14T05:47:07Z" changeset="123590402" uid="3497659" user="NKA">
		<tag k="alt_name" v="Moen" />
		<tag k="name" v="Moa" />
		<tag k="place" v="farm" />
		<tag k="ssr:stedsnr" v="138643" />
	</node>
	<node id="9886499319" lat="68.1010992" lon="15.5385407" version="1" timestamp="2022-07-14T05:47:07Z" changeset="123590402" uid="3497659" user="NKA">
		<tag k="alt_name" v="Slettbakk" />
		<tag k="loc_name" v="Slettbakkan" />
		<tag k="name" v="Slettbakken" />
		<tag k="place" v="farm" />
		<tag k="ssr:stedsnr" v="199049" />
	</node>
	<node id="9886499320" lat="67.9356278" lon="16.2616167" version="1" timestamp="2022-07-14T05:47:07Z" changeset="123590402" uid="3497659" user="NKA">
		<tag k="name" v="Tjielloabme - Kjelomi" />
		<tag k="name:no" v="Kjelomi" />
		<tag k="name:smj" v="Tjielloabme" />
		<tag k="old_name:smj" v="Čielloapmi" />
		<tag k="place" v="locality" />
		<tag k="ssr:stedsnr" v="806340" />
	</node>
	<node id="9886499321" lat="68.0553723" lon="16.2250582" version="1" timestamp="2022-07-14T05:47:07Z" changeset="123590402" uid="3497659" user="NKA">
		<tag k="name" v="Njallem - Jalmaus" />
		<tag k="name:no" v="Jalmaus" />
		<tag k="name:smj" v="Njallem" />
		<tag k="place" v="isolated_dwelling" />
		<tag k="ssr:stedsnr" v="745490" />
	</node>
	<node id="9886499322" lat="68.1137346" lon="15.4902925" version="1" timestamp="2022-07-14T05:47:07Z" changeset="123590402" uid="3497659" user="NKA">
		<tag k="name" v="Egedalen" />
		<tag k="place" v="hamlet" />
		<tag k="ssr:stedsnr" v="745024" />
	</node>
	<node id="9886499323" lat="68.1832028" lon="15.6591111" version="1" timestamp="2022-07-14T05:47:07Z" changeset="123590402" uid="3497659" user="NKA">
		<tag k="name" v="Loshågen" />
		<tag k="place" v="farm" />
		<tag k="ssr:stedsnr" v="716089" />
	</node>
	<node id="9886499324" lat="68.0791968" lon="15.5079032" version="1" timestamp="2022-07-14T05:47:07Z" changeset="123590402" uid="3497659" user="NKA">
		<tag k="name" v="Liland" />
		<tag k="place" v="hamlet" />
		<tag k="ssr:stedsnr" v="562972" />
	</node>
	<node id="9886499325" lat="68.0693" lon="16.3215416" version="1" timestamp="2022-07-14T05:47:07Z" changeset="123590402" uid="3497659" user="NKA">
		<tag k="name" v="Vássjá" />
		<tag k="name:smj" v="Vássjá" />
		<tag k="old_name:smj" v="Vášša" />
		<tag k="place" v="isolated_dwelling" />
		<tag k="ssr:stedsnr" v="502550" />
	</node>
	<node id="9886499326" lat="68.06585" lon="15.8626471" version="1" timestamp="2022-07-14T05:47:07Z" changeset="123590402" uid="3497659" user="NKA">
		<tag k="name" v="Strandbua" />
		<tag k="place" v="isolated_dwelling" />
		<tag k="ssr:stedsnr" v="898271" />
	</node>
	<node id="9886499327" lat="68.1651378" lon="15.6271496" version="1" timestamp="2022-07-14T05:47:07Z" changeset="123590402" uid="3497659" user="NKA">
		<tag k="alt_name" v="Hellevik" />
		<tag k="name" v="Hellevika" />
		<tag k="place" v="farm" />
		<tag k="ssr:stedsnr" v="806779" />
	</node>
	<node id="9886499328" lat="67.9509416" lon="16.4024806" version="1" timestamp="2022-07-14T05:47:07Z" changeset="123590402" uid="3497659" user="NKA">
		<tag k="name" v="Rudnavuotna - Grunnfjorden" />
		<tag k="name:no" v="Grunnfjorden" />
		<tag k="name:smj" v="Rudnavuotna" />
		<tag k="place" v="isolated_dwelling" />
		<tag k="ssr:stedsnr" v="562261" />
	</node>
	<node id="9886499329" lat="68.1310611" lon="15.7108389" version="1" timestamp="2022-07-14T05:47:07Z" changeset="123590402" uid="3497659" user="NKA">
		<tag k="name" v="Elveland" />
		<tag k="place" v="farm" />
		<tag k="ssr:stedsnr" v="473562" />
	</node>
	<node id="9886499330" lat="68.0915014" lon="15.5717727" version="1" timestamp="2022-07-14T05:47:07Z" changeset="123590402" uid="3497659" user="NKA">
		<tag k="alt_name" v="Langvollen" />
		<tag k="name" v="Langvoll" />
		<tag k="place" v="isolated_dwelling" />
		<tag k="ssr:stedsnr" v="684046" />
	</node>
	<node id="9886499331" lat="67.9541035" lon="16.4090403" version="1" timestamp="2022-07-14T05:47:07Z" changeset="123590402" uid="3497659" user="NKA">
		<tag k="alt_name:no" v="Vik" />
		<tag k="name" v="Luokta - Vika" />
		<tag k="name:no" v="Vika" />
		<tag k="name:smj" v="Luokta" />
		<tag k="place" v="isolated_dwelling" />
		<tag k="ssr:stedsnr" v="562265" />
	</node>
	<node id="9886499332" lat="67.9915277" lon="15.6111195" version="1" timestamp="2022-07-14T05:47:07Z" changeset="123590402" uid="3497659" user="NKA">
		<tag k="name" v="Myrland" />
		<tag k="place" v="farm" />
		<tag k="ssr:stedsnr" v="927914" />
	</node>
	<node id="9886499333" lat="68.0949722" lon="15.7309084" version="1" timestamp="2022-07-14T05:47:07Z" changeset="123590402" uid="3497659" user="NKA">
		<tag k="name" v="Nordheim" />
		<tag k="place" v="farm" />
		<tag k="ssr:stedsnr" v="502640" />
	</node>
	<node id="9886499334" lat="68.0031584" lon="15.5013528" version="1" timestamp="2022-07-14T05:47:07Z" changeset="123590402" uid="3497659" user="NKA">
		<tag k="name" v="Bringa" />
		<tag k="place" v="farm" />
		<tag k="ssr:stedsnr" v="413613" />
	</node>
	<node id="9886499335" lat="67.9917334" lon="16.3445666" version="1" timestamp="2022-07-14T05:47:07Z" changeset="123590402" uid="3497659" user="NKA">
		<tag k="name" v="Elvebakken" />
		<tag k="place" v="farm" />
		<tag k="ssr:stedsnr" v="264907" />
	</node>
	<node id="9886499336" lat="68.1047476" lon="15.5144891" version="1" timestamp="2022-07-14T05:47:07Z" changeset="123590402" uid="3497659" user="NKA">
		<tag k="name" v="Elvegård" />
		<tag k="place" v="farm" />
		<tag k="ssr:stedsnr" v="533290" />
	</node>
	<node id="9886499337" lat="68.1048794" lon="15.5167672" version="1" timestamp="2022-07-14T05:47:07Z" changeset="123590402" uid="3497659" user="NKA">
		<tag k="name" v="Hamsund" />
		<tag k="place" v="hamlet" />
		<tag k="ssr:stedsnr" v="623040" />
	</node>
	<node id="9886499338" lat="67.9774833" lon="16.5016833" version="1" timestamp="2022-07-14T05:47:07Z" changeset="123590402" uid="3497659" user="NKA">
		<tag k="name" v="Nábár - Navaren" />
		<tag k="name:no" v="Navaren" />
		<tag k="name:smj" v="Nábár" />
		<tag k="place" v="locality" />
		<tag k="ssr:stedsnr" v="264904" />
	</node>
	<node id="9886499339" lat="67.8935446" lon="16.2047813" version="1" timestamp="2022-07-14T05:47:07Z" changeset="123590402" uid="3497659" user="NKA">
		<tag k="name" v="Davve-Måsske - Ytter-Musken" />
		<tag k="name:no" v="Ytter-Musken" />
		<tag k="name:smj" v="Davve-Måsske" />
		<tag k="place" v="farm" />
		<tag k="ssr:stedsnr" v="441422" />
	</node>
	<node id="9886499340" lat="68.1022014" lon="15.5220112" version="1" timestamp="2022-07-14T05:47:07Z" changeset="123590402" uid="3497659" user="NKA">
		<tag k="name" v="Nyheim" />
		<tag k="place" v="farm" />
		<tag k="ssr:stedsnr" v="351452" />
	</node>
	<node id="9886499341" lat="68.1541971" lon="15.6384676" version="1" timestamp="2022-07-14T05:47:07Z" changeset="123590402" uid="3497659" user="NKA">
		<tag k="name" v="Sørvoll" />
		<tag k="place" v="farm" />
		<tag k="ssr:stedsnr" v="473644" />
	</node>
	<node id="9886499342" lat="67.9921334" lon="15.583814" version="1" timestamp="2022-07-14T05:47:07Z" changeset="123590402" uid="3497659" user="NKA">
		<tag k="alt_name" v="Austgård" />
		<tag k="name" v="Østgård" />
		<tag k="place" v="farm" />
		<tag k="ssr:stedsnr" v="17912" />
	</node>
	<node id="9886499343" lat="68.1619167" lon="15.6337473" version="1" timestamp="2022-07-14T05:47:07Z" changeset="123590402" uid="3497659" user="NKA">
		<tag k="name" v="Fredheim" />
		<tag k="place" v="farm" />
		<tag k="ssr:stedsnr" v="502772" />
	</node>
	<node id="9886499344" lat="68.0309648" lon="15.3021776" version="1" timestamp="2022-07-14T05:47:07Z" changeset="123590402" uid="3497659" user="NKA">
		<tag k="name" v="Utåker" />
		<tag k="place" v="farm" />
		<tag k="ssr:stedsnr" v="562898" />
	</node>
	<node id="9886499345" lat="68.0235892" lon="16.1578813" version="1" timestamp="2022-07-14T05:47:07Z" changeset="123590402" uid="3497659" user="NKA">
		<tag k="name" v="Vindheim" />
		<tag k="place" v="farm" />
		<tag k="ssr:stedsnr" v="264564" />
	</node>
	<node id="9886499346" lat="68.0895125" lon="15.4093872" version="1" timestamp="2022-07-14T05:47:07Z" changeset="123590402" uid="3497659" user="NKA">
		<tag k="alt_name" v="Kopparstraumen" />
		<tag k="name" v="Kobbestraumen" />
		<tag k="place" v="locality" />
		<tag k="ssr:stedsnr" v="502044" />
	</node>
	<node id="9886499347" lat="68.1110664" lon="15.5052705" version="1" timestamp="2022-07-14T05:47:07Z" changeset="123590402" uid="3497659" user="NKA">
		<tag k="name" v="Heim" />
		<tag k="place" v="farm" />
		<tag k="ssr:stedsnr" v="351457" />
	</node>
	<node id="9886499348" lat="68.0822334" lon="15.5146362" version="1" timestamp="2022-07-14T05:47:07Z" changeset="123590402" uid="3497659" user="NKA">
		<tag k="name" v="Hyttebo" />
		<tag k="place" v="isolated_dwelling" />
		<tag k="ssr:stedsnr" v="231039" />
	</node>
	<node id="9886499349" lat="68.0784222" lon="15.4880612" version="1" timestamp="2022-07-14T05:47:07Z" changeset="123590402" uid="3497659" user="NKA">
		<tag k="name" v="Dalland" />
		<tag k="place" v="farm" />
		<tag k="ssr:stedsnr" v="460986" />
	</node>
	<node id="9886499350" lat="67.9835389" lon="16.2875445" version="1" timestamp="2022-07-14T05:47:07Z" changeset="123590402" uid="3497659" user="NKA">
		<tag k="name" v="Ibboluokta - Tømmervika" />
		<tag k="name:no" v="Tømmervika" />
		<tag k="name:smj" v="Ibboluokta" />
		<tag k="place" v="farm" />
		<tag k="ssr:stedsnr" v="320297" />
	</node>
	<node id="9886499351" lat="68.013898" lon="16.1635498" version="1" timestamp="2022-07-14T05:47:07Z" changeset="123590402" uid="3497659" user="NKA">
		<tag k="name" v="Fredly" />
		<tag k="place" v="farm" />
		<tag k="ssr:stedsnr" v="260550" />
	</node>
	<node id="9886499352" lat="68.1042261" lon="15.5188341" version="1" timestamp="2022-07-14T05:47:07Z" changeset="123590402" uid="3497659" user="NKA">
		<tag k="alt_name" v="Steinseth" />
		<tag k="name" v="Steinset" />
		<tag k="place" v="farm" />
		<tag k="ssr:stedsnr" v="230278" />
	</node>
	<node id="9886499353" lat="68.1004921" lon="15.5372436" version="1" timestamp="2022-07-14T05:47:07Z" changeset="123590402" uid="3497659" user="NKA">
		<tag k="name" v="Brattheim" />
		<tag k="place" v="farm" />
		<tag k="ssr:stedsnr" v="230446" />
	</node>
	<node id="9886499354" lat="68.0185889" lon="16.1540084" version="1" timestamp="2022-07-14T05:47:07Z" changeset="123590402" uid="3497659" user="NKA">
		<tag k="alt_name" v="Helland, in" />
		<tag k="name" v="Indre Helland" />
		<tag k="place" v="farm" />
		<tag k="ssr:stedsnr" v="138597" />
	</node>
	<node id="9886499355" lat="68.0993417" lon="15.5222139" version="1" timestamp="2022-07-14T05:47:07Z" changeset="123590402" uid="3497659" user="NKA">
		<tag k="name" v="Solhaug" />
		<tag k="place" v="farm" />
		<tag k="ssr:stedsnr" v="230437" />
	</node>
	<node id="9886499356" lat="68.1040134" lon="15.5226726" version="1" timestamp="2022-07-14T05:47:07Z" changeset="123590402" uid="3497659" user="NKA">
		<tag k="name" v="Skarheim" />
		<tag k="place" v="farm" />
		<tag k="ssr:stedsnr" v="109421" />
	</node>
	<node id="9886499357" lat="68.1617199" lon="15.6319616" version="1" timestamp="2022-07-14T05:47:07Z" changeset="123590402" uid="3497659" user="NKA">
		<tag k="name" v="Skogvoll" />
		<tag k="place" v="hamlet" />
		<tag k="ssr:stedsnr" v="381788" />
	</node>
	<node id="9886499358" lat="68.1107993" lon="15.6445854" version="1" timestamp="2022-07-14T05:47:07Z" changeset="123590402" uid="3497659" user="NKA">
		<tag k="alt_name" v="Litl Tømmerås;Tømmerås" />
		<tag k="name" v="Lille Tømmerås" />
		<tag k="place" v="farm" />
		<tag k="ssr:stedsnr" v="442669" />
	</node>
	<node id="9886499359" lat="67.9185583" lon="16.2044529" version="1" timestamp="2022-07-14T05:47:07Z" changeset="123590402" uid="3497659" user="NKA">
		<tag k="name" v="Gidádibme - Josommarset" />
		<tag k="name:no" v="Josommarset" />
		<tag k="name:smj" v="Gidádibme" />
		<tag k="old_name:smj" v="Gidadipmi" />
		<tag k="place" v="farm" />
		<tag k="ssr:stedsnr" v="137385" />
	</node>
	<node id="9886499360" lat="68.0788493" lon="15.4972305" version="1" timestamp="2022-07-14T05:47:07Z" changeset="123590402" uid="3497659" user="NKA">
		<tag k="name" v="Løding" />
		<tag k="place" v="hamlet" />
		<tag k="ssr:stedsnr" v="138973" />
	</node>
	<node id="9886499361" lat="68.1733979" lon="15.6660937" version="1" timestamp="2022-07-14T05:47:07Z" changeset="123590402" uid="3497659" user="NKA">
		<tag k="name" v="Nordvoll" />
		<tag k="place" v="farm" />
		<tag k="ssr:stedsnr" v="320783" />
	</node>
	<node id="9886499362" lat="68.1245134" lon="15.4191609" version="1" timestamp="2022-07-14T05:47:07Z" changeset="123590402" uid="3497659" user="NKA">
		<tag k="alt_name" v="Bjørnvåg" />
		<tag k="name" v="Bjørnvågen" />
		<tag k="place" v="farm" />
		<tag k="ssr:stedsnr" v="381004" />
	</node>
	<node id="9886499363" lat="68.0875528" lon="15.5678666" version="1" timestamp="2022-07-14T05:47:07Z" changeset="123590402" uid="3497659" user="NKA">
		<tag k="alt_name" v="Vesterli" />
		<tag k="name" v="Reset" />
		<tag k="place" v="farm" />
		<tag k="ssr:stedsnr" v="380992" />
	</node>
	<node id="9886499364" lat="68.0085778" lon="15.4037361" version="1" timestamp="2022-07-14T05:47:07Z" changeset="123590402" uid="3497659" user="NKA">
		<tag k="name" v="Øvergården" />
		<tag k="place" v="farm" />
		<tag k="ssr:stedsnr" v="777081" />
	</node>
	<node id="9886499365" lat="68.1360506" lon="15.6240834" version="1" timestamp="2022-07-14T05:47:07Z" changeset="123590402" uid="3497659" user="NKA">
		<tag k="alt_name" v="Lunngård" />
		<tag k="name" v="Lundgård" />
		<tag k="place" v="farm" />
		<tag k="ssr:stedsnr" v="291554" />
	</node>
	<node id="9886499366" lat="67.8386528" lon="16.003589" version="1" timestamp="2022-07-14T05:47:07Z" changeset="123590402" uid="3497659" user="NKA">
		<tag k="alt_name" v="Falkelva" />
		<tag k="name" v="Falkelv" />
		<tag k="place" v="farm" />
		<tag k="ssr:stedsnr" v="259475" />
	</node>
	<node id="9886499367" lat="68.1560025" lon="15.632423" version="1" timestamp="2022-07-14T05:47:07Z" changeset="123590402" uid="3497659" user="NKA">
		<tag k="alt_name" v="Nokkvik" />
		<tag k="name" v="Nokkvika" />
		<tag k="place" v="farm" />
		<tag k="ssr:stedsnr" v="320738" />
	</node>
	<node id="9886499368" lat="68.113075" lon="15.4990473" version="1" timestamp="2022-07-14T05:47:07Z" changeset="123590402" uid="3497659" user="NKA">
		<tag k="name" v="Ura" />
		<tag k="place" v="farm" />
		<tag k="ssr:stedsnr" v="472426" />
	</node>
	<node id="9886499369" lat="67.8940528" lon="15.8608444" version="1" timestamp="2022-07-14T05:47:07Z" changeset="123590402" uid="3497659" user="NKA">
		<tag k="alt_name" v="Vassmo" />
		<tag k="name" v="Vassmoa" />
		<tag k="place" v="farm" />
		<tag k="ssr:stedsnr" v="866366" />
	</node>
	<node id="9886499370" lat="67.8082014" lon="15.9848822" version="1" timestamp="2022-07-14T05:47:07Z" changeset="123590402" uid="3497659" user="NKA">
		<tag k="name" v="Vestre Kråkmoa" />
		<tag k="place" v="farm" />
		<tag k="ssr:stedsnr" v="1085282" />
	</node>
	<node id="9886499371" lat="68.0178639" lon="16.2908446" version="1" timestamp="2022-07-14T05:47:07Z" changeset="123590402" uid="3497659" user="NKA">
		<tag k="name" v="Fagernesstrand" />
		<tag k="place" v="isolated_dwelling" />
		<tag k="ssr:stedsnr" v="867759" />
	</node>
	<node id="9886499372" lat="68.1078632" lon="15.5127441" version="1" timestamp="2022-07-14T05:47:07Z" changeset="123590402" uid="3497659" user="NKA">
		<tag k="name" v="Åsheim" />
		<tag k="place" v="farm" />
		<tag k="ssr:stedsnr" v="169264" />
	</node>
	<node id="9886499373" lat="68.068525" lon="15.8672685" version="1" timestamp="2022-07-14T05:47:07Z" changeset="123590402" uid="3497659" user="NKA">
		<tag k="name" v="Losbua" />
		<tag k="place" v="isolated_dwelling" />
		<tag k="ssr:stedsnr" v="837258" />
	</node>
	<node id="9886499374" lat="68.0273636" lon="15.3336777" version="1" timestamp="2022-07-14T05:47:07Z" changeset="123590402" uid="3497659" user="NKA">
		<tag k="name" v="Uthaug" />
		<tag k="place" v="farm" />
		<tag k="ssr:stedsnr" v="49099" />
	</node>
	<node id="9886499375" lat="68.1173461" lon="15.4922548" version="1" timestamp="2022-07-14T05:47:07Z" changeset="123590402" uid="3497659" user="NKA">
		<tag k="name" v="Åsli" />
		<tag k="place" v="farm" />
		<tag k="ssr:stedsnr" v="169517" />
	</node>
	<node id="9886499376" lat="68.1370306" lon="15.4653145" version="1" timestamp="2022-07-14T05:47:07Z" changeset="123590402" uid="3497659" user="NKA">
		<tag k="name" v="Hamnes" />
		<tag k="place" v="hamlet" />
		<tag k="ssr:stedsnr" v="138112" />
	</node>
	<node id="9886499377" lat="68.0790778" lon="15.4492333" version="1" timestamp="2022-07-14T05:47:07Z" changeset="123590402" uid="3497659" user="NKA">
		<tag k="alt_name" v="Pålan, nedre" />
		<tag k="name" v="Nedre Pålan" />
		<tag k="place" v="locality" />
		<tag k="ssr:stedsnr" v="199999" />
	</node>
	<node id="9886499378" lat="68.030325" lon="15.3412444" version="1" timestamp="2022-07-14T05:47:07Z" changeset="123590402" uid="3497659" user="NKA">
		<tag k="alt_name" v="Hjemgan" />
		<tag k="name" v="Hjelman" />
		<tag k="place" v="farm" />
		<tag k="ssr:stedsnr" v="745924" />
	</node>
	<node id="9886499379" lat="68.0553916" lon="15.7693278" version="1" timestamp="2022-07-14T05:47:07Z" changeset="123590402" uid="3497659" user="NKA">
		<tag k="name" v="Grunnvåg" />
		<tag k="place" v="farm" />
		<tag k="ssr:stedsnr" v="806587" />
	</node>
	<node id="9886499380" lat="68.0267294" lon="15.3320844" version="1" timestamp="2022-07-14T05:47:07Z" changeset="123590402" uid="3497659" user="NKA">
		<tag k="name" v="Øvereng" />
		<tag k="place" v="hamlet" />
		<tag k="ssr:stedsnr" v="866911" />
	</node>
	<node id="9886499381" lat="68.0501709" lon="15.4526143" version="1" timestamp="2022-07-14T05:47:07Z" changeset="123590402" uid="3497659" user="NKA">
		<tag k="name" v="Skottestad" />
		<tag k="place" v="hamlet" />
		<tag k="ssr:stedsnr" v="866932" />
	</node>
	<node id="9886499382" lat="68.0822651" lon="15.3297466" version="1" timestamp="2022-07-14T05:47:07Z" changeset="123590402" uid="3497659" user="NKA">
		<tag k="name" v="Nordland" />
		<tag k="place" v="farm" />
		<tag k="ssr:stedsnr" v="745081" />
	</node>
	<node id="9886499383" lat="68.0756889" lon="15.3545055" version="1" timestamp="2022-07-14T05:47:07Z" changeset="123590402" uid="3497659" user="NKA">
		<tag k="name" v="Dalsmælen" />
		<tag k="place" v="locality" />
		<tag k="ssr:stedsnr" v="866991" />
	</node>
	<node id="9886499384" lat="68.089126" lon="15.5591118" version="1" timestamp="2022-07-14T05:47:07Z" changeset="123590402" uid="3497659" user="NKA">
		<tag k="alt_name" v="Elsbakken" />
		<tag k="name" v="Elsbakk" />
		<tag k="place" v="farm" />
		<tag k="ssr:stedsnr" v="77045" />
	</node>
	<node id="9886499385" lat="68.0318712" lon="15.9995415" version="1" timestamp="2022-07-14T05:47:07Z" changeset="123590402" uid="3497659" user="NKA">
		<tag k="name" v="Sommarset" />
		<tag k="place" v="hamlet" />
		<tag k="ssr:stedsnr" v="745568" />
	</node>
	<node id="9886499386" lat="68.0436389" lon="15.7473251" version="1" timestamp="2022-07-14T05:47:07Z" changeset="123590402" uid="3497659" user="NKA">
		<tag k="alt_name" v="Brobakk;Kaldvåg, austre" />
		<tag k="name" v="Austre Kaldvåg" />
		<tag k="place" v="farm" />
		<tag k="ssr:stedsnr" v="745617" />
	</node>
	<node id="9886499387" lat="68.1498" lon="15.4905805" version="1" timestamp="2022-07-14T05:47:07Z" changeset="123590402" uid="3497659" user="NKA">
		<tag k="name" v="Moa" />
		<tag k="place" v="farm" />
		<tag k="ssr:stedsnr" v="77083" />
	</node>
	<node id="9886499388" lat="68.0301778" lon="15.7077556" version="1" timestamp="2022-07-14T05:47:07Z" changeset="123590402" uid="3497659" user="NKA">
		<tag k="alt_name" v="Nyheim" />
		<tag k="name" v="Heia" />
		<tag k="place" v="isolated_dwelling" />
		<tag k="ssr:stedsnr" v="745562" />
	</node>
	<node id="9886499389" lat="68.0842244" lon="15.5925267" version="1" timestamp="2022-07-14T05:47:07Z" changeset="123590402" uid="3497659" user="NKA">
		<tag k="name" v="Uteid" />
		<tag k="place" v="hamlet" />
		<tag k="ssr:stedsnr" v="17992" />
	</node>
	<node id="9886499390" lat="67.8104239" lon="15.989197" version="1" timestamp="2022-07-14T05:47:07Z" changeset="123590402" uid="3497659" user="NKA">
		<tag k="name" v="Skogly" />
		<tag k="place" v="farm" />
		<tag k="ssr:stedsnr" v="473512" />
	</node>
	<node id="9886499391" lat="68.0024148" lon="15.6964212" version="1" timestamp="2022-07-14T05:47:07Z" changeset="123590402" uid="3497659" user="NKA">
		<tag k="name" v="Håkonhals" />
		<tag k="place" v="hamlet" />
		<tag k="ssr:stedsnr" v="745531" />
	</node>
	<node id="9886499392" lat="68.1071671" lon="15.671904" version="1" timestamp="2022-07-14T05:47:07Z" changeset="123590402" uid="3497659" user="NKA">
		<tag k="name" v="Tømmeråsen" />
		<tag k="place" v="hamlet" />
		<tag k="ssr:stedsnr" v="1076441" />
	</node>
	<node id="9886499393" lat="68.1137028" lon="15.4955499" version="1" timestamp="2022-07-14T05:47:07Z" changeset="123590402" uid="3497659" user="NKA">
		<tag k="name" v="Nergården" />
		<tag k="place" v="farm" />
		<tag k="ssr:stedsnr" v="654460" />
	</node>
	<node id="9886499394" lat="67.9890084" lon="15.8334083" version="1" timestamp="2022-07-14T05:47:07Z" changeset="123590402" uid="3497659" user="NKA">
		<tag k="alt_name" v="Oterågan" />
		<tag k="name" v="Oteråga" />
		<tag k="place" v="locality" />
		<tag k="ssr:stedsnr" v="684670" />
	</node>
	<node id="9886499395" lat="68.0174852" lon="15.3232763" version="1" timestamp="2022-07-14T05:47:07Z" changeset="123590402" uid="3497659" user="NKA">
		<tag k="alt_name" v="Rørvik" />
		<tag k="name" v="Rørvika" />
		<tag k="place" v="farm" />
		<tag k="ssr:stedsnr" v="563920" />
	</node>
	<node id="9886499396" lat="68.0863987" lon="15.3982352" version="1" timestamp="2022-07-14T05:47:07Z" changeset="123590402" uid="3497659" user="NKA">
		<tag k="name" v="Sand" />
		<tag k="place" v="locality" />
		<tag k="ssr:stedsnr" v="745078" />
	</node>
	<node id="9886499397" lat="68.115995" lon="15.4943152" version="1" timestamp="2022-07-14T05:47:07Z" changeset="123590402" uid="3497659" user="NKA">
		<tag k="name" v="Strand" />
		<tag k="place" v="farm" />
		<tag k="ssr:stedsnr" v="654511" />
	</node>
	<node id="9886499398" lat="68.0566055" lon="15.7805445" version="1" timestamp="2022-07-14T05:47:07Z" changeset="123590402" uid="3497659" user="NKA">
		<tag k="name" v="Grunnvågen" />
		<tag k="place" v="locality" />
		<tag k="ssr:stedsnr" v="581137" />
	</node>
	<node id="9886499399" lat="67.8203472" lon="16.1085944" version="1" timestamp="2022-07-14T05:47:07Z" changeset="123590402" uid="3497659" user="NKA">
		<tag k="name" v="Rikandersjorda" />
		<tag k="place" v="locality" />
		<tag k="ssr:stedsnr" v="623480" />
	</node>
	<node id="9886499400" lat="67.99705" lon="15.9547388" version="1" timestamp="2022-07-14T05:47:07Z" changeset="123590402" uid="3497659" user="NKA">
		<tag k="name" v="Sommarset" />
		<tag k="place" v="farm" />
		<tag k="ssr:stedsnr" v="502671" />
	</node>
	<node id="9886499401" lat="68.0813611" lon="15.6254723" version="1" timestamp="2022-07-14T05:47:07Z" changeset="123590402" uid="3497659" user="NKA">
		<tag k="name" v="Herset" />
		<tag k="place" v="farm" />
		<tag k="ssr:stedsnr" v="885116" />
	</node>
	<node id="9886499402" lat="68.1003377" lon="15.7393629" version="1" timestamp="2022-07-14T05:47:07Z" changeset="123590402" uid="3497659" user="NKA">
		<tag k="name" v="Nygård" />
		<tag k="place" v="isolated_dwelling" />
		<tag k="ssr:stedsnr" v="806686" />
	</node>
	<node id="9886499403" lat="68.0101127" lon="15.419033" version="1" timestamp="2022-07-14T05:47:07Z" changeset="123590402" uid="3497659" user="NKA">
		<tag k="name" v="Kirknes" />
		<tag k="place" v="farm" />
		<tag k="ssr:stedsnr" v="838091" />
	</node>
	<node id="9886499404" lat="68.0239042" lon="15.3546468" version="1" timestamp="2022-07-14T05:47:07Z" changeset="123590402" uid="3497659" user="NKA">
		<tag k="name" v="Solheim" />
		<tag k="place" v="farm" />
		<tag k="ssr:stedsnr" v="838079" />
	</node>
	<node id="9886499405" lat="68.0047721" lon="15.3988019" version="1" timestamp="2022-07-14T05:47:07Z" changeset="123590402" uid="3497659" user="NKA">
		<tag k="name" v="Olstø" />
		<tag k="place" v="locality" />
		<tag k="ssr:stedsnr" v="655579" />
	</node>
	<node id="9886499406" lat="68.0515055" lon="15.4563001" version="1" timestamp="2022-07-14T05:47:07Z" changeset="123590402" uid="3497659" user="NKA">
		<tag k="name" v="Leite" />
		<tag k="place" v="farm" />
		<tag k="ssr:stedsnr" v="655287" />
	</node>
	<node id="9886499407" lat="68.1127842" lon="15.4952496" version="1" timestamp="2022-07-14T05:47:07Z" changeset="123590402" uid="3497659" user="NKA">
		<tag k="name" v="Elvegård" />
		<tag k="place" v="farm" />
		<tag k="ssr:stedsnr" v="837452" />
	</node>
	<node id="9886499408" lat="67.8062667" lon="15.9792501" version="1" timestamp="2022-07-14T05:47:07Z" changeset="123590402" uid="3497659" user="NKA">
		<tag k="name" v="Høgda" />
		<tag k="place" v="farm" />
		<tag k="ssr:stedsnr" v="351489" />
	</node>
	<node id="9886499409" lat="68.0631667" lon="16.6520444" version="1" timestamp="2022-07-14T05:47:07Z" changeset="123590402" uid="3497659" user="NKA">
		<tag k="name" v="Hågen" />
		<tag k="place" v="farm" />
		<tag k="ssr:stedsnr" v="325738" />
	</node>
	<node id="9886499410" lat="68.0075458" lon="15.4078477" version="1" timestamp="2022-07-14T05:47:07Z" changeset="123590402" uid="3497659" user="NKA">
		<tag k="name" v="Borg" />
		<tag k="place" v="farm" />
		<tag k="ssr:stedsnr" v="655086" />
	</node>
	<node id="9886499411" lat="68.000875" lon="15.7654916" version="1" timestamp="2022-07-14T05:47:07Z" changeset="123590402" uid="3497659" user="NKA">
		<tag k="name" v="Karlsøy" />
		<tag k="place" v="hamlet" />
		<tag k="ssr:stedsnr" v="381541" />
	</node>
	<node id="9886499412" lat="68.0696778" lon="15.8639501" version="1" timestamp="2022-07-14T05:47:07Z" changeset="123590402" uid="3497659" user="NKA">
		<tag k="name" v="Tverråsen" />
		<tag k="place" v="farm" />
		<tag k="ssr:stedsnr" v="320624" />
	</node>
	<node id="9886499413" lat="67.8240639" lon="15.9952888" version="1" timestamp="2022-07-14T05:47:07Z" changeset="123590402" uid="3497659" user="NKA">
		<tag k="name" v="Borkhøtta" />
		<tag k="place" v="locality" />
		<tag k="ssr:stedsnr" v="110254" />
	</node>
	<node id="9886499414" lat="68.0045139" lon="15.489981" version="1" timestamp="2022-07-14T05:47:07Z" changeset="123590402" uid="3497659" user="NKA">
		<tag k="name" v="Nordsjyen" />
		<tag k="place" v="locality" />
		<tag k="ssr:stedsnr" v="413598" />
	</node>
	<node id="9886499415" lat="67.8401098" lon="15.9919182" version="1" timestamp="2022-07-14T05:47:07Z" changeset="123590402" uid="3497659" user="NKA">
		<tag k="alt_name:no" v="Hofmannselva;Hofmandselv" />
		<tag k="name" v="Jåhkågasska - Hoffmannselva" />
		<tag k="name:no" v="Hoffmannselva" />
		<tag k="name:smj" v="Jåhkågasska" />
		<tag k="old_name:smj" v="Johkagaska" />
		<tag k="place" v="farm" />
		<tag k="ssr:stedsnr" v="138487" />
	</node>
	<node id="9886499416" lat="67.9905719" lon="15.6288233" version="1" timestamp="2022-07-14T05:47:07Z" changeset="123590402" uid="3497659" user="NKA">
		<tag k="alt_name" v="Fikkestad" />
		<tag k="name" v="Fitjestad" />
		<tag k="place" v="hamlet" />
		<tag k="ssr:stedsnr" v="259903" />
	</node>
	<node id="9886499417" lat="68.071397" lon="15.3960671" version="1" timestamp="2022-07-14T05:47:07Z" changeset="123590402" uid="3497659" user="NKA">
		<tag k="name" v="Halsen" />
		<tag k="place" v="farm" />
		<tag k="ssr:stedsnr" v="623983" />
	</node>
	<node id="9886499418" lat="68.0357164" lon="15.3475858" version="1" timestamp="2022-07-14T05:47:07Z" changeset="123590402" uid="3497659" user="NKA">
		<tag k="alt_name" v="Steinslandsfjellet" />
		<tag k="name" v="Steinslandsfjell" />
		<tag k="place" v="farm" />
		<tag k="ssr:stedsnr" v="623937" />
	</node>
	<node id="9886499419" lat="68.0244472" lon="16.5134389" version="1" timestamp="2022-07-14T05:47:07Z" changeset="123590402" uid="3497659" user="NKA">
		<tag k="name" v="Elvenes" />
		<tag k="place" v="isolated_dwelling" />
		<tag k="ssr:stedsnr" v="892219" />
	</node>
	<node id="9886499420" lat="68.0850028" lon="15.4842084" version="1" timestamp="2022-07-14T05:47:07Z" changeset="123590402" uid="3497659" user="NKA">
		<tag k="name" v="Moa" />
		<tag k="place" v="farm" />
		<tag k="ssr:stedsnr" v="623997" />
	</node>
	<node id="9886499421" lat="68.0405312" lon="15.3943103" version="1" timestamp="2022-07-14T05:47:07Z" changeset="123590402" uid="3497659" user="NKA">
		<tag k="name" v="Nordvåg" />
		<tag k="place" v="hamlet" />
		<tag k="ssr:stedsnr" v="380913" />
	</node>
	<node id="9886499422" lat="68.0364361" lon="15.8747443" version="1" timestamp="2022-07-14T05:47:07Z" changeset="123590402" uid="3497659" user="NKA">
		<tag k="alt_name" v="Kløtter" />
		<tag k="name" v="Kløtran" />
		<tag k="place" v="locality" />
		<tag k="ssr:stedsnr" v="521181" />
	</node>
	<node id="9886499423" lat="68.0664472" lon="15.4856027" version="1" timestamp="2022-07-14T05:47:07Z" changeset="123590402" uid="3497659" user="NKA">
		<tag k="name" v="Skogan" />
		<tag k="place" v="farm" />
		<tag k="ssr:stedsnr" v="623959" />
	</node>
	<node id="9886499424" lat="68.0578539" lon="15.5979671" version="1" timestamp="2022-07-14T05:47:07Z" changeset="123590402" uid="3497659" user="NKA">
		<tag k="name" v="Vollen" />
		<tag k="place" v="farm" />
		<tag k="ssr:stedsnr" v="170319" />
	</node>
	<node id="9886499425" lat="68.0518028" lon="16.0597805" version="1" timestamp="2022-07-14T05:47:07Z" changeset="123590402" uid="3497659" user="NKA">
		<tag k="name" v="Skoglund" />
		<tag k="place" v="farm" />
		<tag k="ssr:stedsnr" v="745613" />
	</node>
	<node id="9886499426" lat="68.1468334" lon="15.8984055" version="1" timestamp="2022-07-14T05:47:07Z" changeset="123590402" uid="3497659" user="NKA">
		<tag k="name" v="Formo" />
		<tag k="place" v="farm" />
		<tag k="ssr:stedsnr" v="502751" />
	</node>
	<node id="9886499427" lat="68.064382" lon="15.9465472" version="1" timestamp="2022-07-14T05:47:07Z" changeset="123590402" uid="3497659" user="NKA">
		<tag k="name" v="Vang" />
		<tag k="place" v="farm" />
		<tag k="ssr:stedsnr" v="524932" />
	</node>
	<node id="9886499428" lat="68.0481295" lon="15.4235361" version="1" timestamp="2022-07-14T05:47:07Z" changeset="123590402" uid="3497659" user="NKA">
		<tag k="name" v="Øldran" />
		<tag k="place" v="farm" />
		<tag k="ssr:stedsnr" v="413236" />
	</node>
	<node id="9886499429" lat="68.08873" lon="15.8643711" version="1" timestamp="2022-07-14T05:47:07Z" changeset="123590402" uid="3497659" user="NKA">
		<tag k="name" v="Fjellstad" />
		<tag k="place" v="farm" />
		<tag k="ssr:stedsnr" v="473950" />
	</node>
	<node id="9886499430" lat="68.0494815" lon="16.0574839" version="1" timestamp="2022-07-14T05:47:07Z" changeset="123590402" uid="3497659" user="NKA">
		<tag k="name" v="Drag" />
		<tag k="place" v="farm" />
		<tag k="ssr:stedsnr" v="684593" />
	</node>
	<node id="9886499431" lat="68.046925" lon="15.4207555" version="1" timestamp="2022-07-14T05:47:07Z" changeset="123590402" uid="3497659" user="NKA">
		<tag k="name" v="Bjørkheim" />
		<tag k="place" v="farm" />
		<tag k="ssr:stedsnr" v="413238" />
	</node>
	<node id="9886499432" lat="68.1114055" lon="15.8522027" version="1" timestamp="2022-07-14T05:47:07Z" changeset="123590402" uid="3497659" user="NKA">
		<tag k="name" v="Grimstad" />
		<tag k="place" v="farm" />
		<tag k="ssr:stedsnr" v="442674" />
	</node>
	<node id="9886499433" lat="68.0301522" lon="15.8233761" version="1" timestamp="2022-07-14T05:47:07Z" changeset="123590402" uid="3497659" user="NKA">
		<tag k="alt_name" v="Kallvågstraumen" />
		<tag k="name" v="Kaldvågstraumen" />
		<tag k="place" v="locality" />
		<tag k="ssr:stedsnr" v="867600" />
	</node>
	<node id="9886499434" lat="68.0815806" lon="15.4501777" version="1" timestamp="2022-07-14T05:47:07Z" changeset="123590402" uid="3497659" user="NKA">
		<tag k="alt_name" v="Pålan, øvre" />
		<tag k="name" v="Øvre Pålan" />
		<tag k="place" v="locality" />
		<tag k="ssr:stedsnr" v="321000" />
	</node>
	<node id="9886499435" lat="68.0448528" lon="15.7315666" version="1" timestamp="2022-07-14T05:47:07Z" changeset="123590402" uid="3497659" user="NKA">
		<tag k="alt_name" v="Rolfsbo;Kaldvåg, vestre" />
		<tag k="name" v="Vestre Kaldvåg" />
		<tag k="place" v="farm" />
		<tag k="ssr:stedsnr" v="17631" />
	</node>
	<node id="9886499436" lat="68.0268278" lon="16.0313361" version="1" timestamp="2022-07-14T05:47:07Z" changeset="123590402" uid="3497659" user="NKA">
		<tag k="name" v="Sommarset" />
		<tag k="place" v="isolated_dwelling" />
		<tag k="ssr:stedsnr" v="562582" />
	</node>
	<node id="9886499437" lat="68.0894942" lon="15.8531378" version="1" timestamp="2022-07-14T05:47:07Z" changeset="123590402" uid="3497659" user="NKA">
		<tag k="name" v="Heimdal" />
		<tag k="place" v="farm" />
		<tag k="ssr:stedsnr" v="49965" />
	</node>
	<node id="9886499438" lat="68.0439261" lon="15.9672246" version="1" timestamp="2022-07-14T05:47:07Z" changeset="123590402" uid="3497659" user="NKA">
		<tag k="name" v="Kvannlia" />
		<tag k="place" v="farm" />
		<tag k="ssr:stedsnr" v="324755" />
	</node>
	<node id="9886499439" lat="67.9840172" lon="15.8902539" version="1" timestamp="2022-07-14T05:47:07Z" changeset="123590402" uid="3497659" user="NKA">
		<tag k="alt_name" v="Rødtangen" />
		<tag k="name" v="Røttangan" />
		<tag k="place" v="hamlet" />
		<tag k="ssr:stedsnr" v="381688" />
	</node>
	<node id="9886499440" lat="68.1489167" lon="15.8845833" version="1" timestamp="2022-07-14T05:47:07Z" changeset="123590402" uid="3497659" user="NKA">
		<tag k="name" v="Frydenlund" />
		<tag k="place" v="farm" />
		<tag k="ssr:stedsnr" v="78736" />
	</node>
	<node id="9886499441" lat="68.1735961" lon="15.8944274" version="1" timestamp="2022-07-14T05:47:07Z" changeset="123590402" uid="3497659" user="NKA">
		<tag k="alt_name" v="Skardvika" />
		<tag k="name" v="Skarvika" />
		<tag k="place" v="farm" />
		<tag k="ssr:stedsnr" v="199795" />
	</node>
	<node id="9886499442" lat="68.1588472" lon="15.9004307" version="1" timestamp="2022-07-14T05:47:07Z" changeset="123590402" uid="3497659" user="NKA">
		<tag k="alt_name" v="Ytstedal" />
		<tag k="name" v="Skogly" />
		<tag k="place" v="farm" />
		<tag k="ssr:stedsnr" v="17786" />
	</node>
	<node id="9886499443" lat="68.0216174" lon="15.950608" version="1" timestamp="2022-07-14T05:47:07Z" changeset="123590402" uid="3497659" user="NKA">
		<tag k="name" v="Hillingspollen" />
		<tag k="place" v="locality" />
		<tag k="ssr:stedsnr" v="1076449" />
	</node>
	<node id="9886499444" lat="68.0887989" lon="15.8589379" version="1" timestamp="2022-07-14T05:47:07Z" changeset="123590402" uid="3497659" user="NKA">
		<tag k="name" v="Skogvang" />
		<tag k="place" v="farm" />
		<tag k="ssr:stedsnr" v="838958" />
	</node>
	<node id="9886499445" lat="68.0845008" lon="15.8871568" version="1" timestamp="2022-07-14T05:47:07Z" changeset="123590402" uid="3497659" user="NKA">
		<tag k="name" v="Karenjord" />
		<tag k="place" v="farm" />
		<tag k="ssr:stedsnr" v="595315" />
	</node>
	<node id="9886499446" lat="68.0047391" lon="15.4138659" version="1" timestamp="2022-07-14T05:47:07Z" changeset="123590402" uid="3497659" user="NKA">
		<tag k="name" v="Haugen" />
		<tag k="place" v="farm" />
		<tag k="ssr:stedsnr" v="291577" />
	</node>
	<node id="9886499447" lat="68.0059122" lon="15.4081801" version="1" timestamp="2022-07-14T05:47:07Z" changeset="123590402" uid="3497659" user="NKA">
		<tag k="name" v="Fredlund" />
		<tag k="place" v="farm" />
		<tag k="ssr:stedsnr" v="291576" />
	</node>
	<node id="9886499448" lat="68.0055127" lon="15.4127216" version="1" timestamp="2022-07-14T05:47:07Z" changeset="123590402" uid="3497659" user="NKA">
		<tag k="name" v="Solheim" />
		<tag k="place" v="farm" />
		<tag k="ssr:stedsnr" v="231651" />
	</node>
	<node id="9886499449" lat="68.047947" lon="15.4106874" version="1" timestamp="2022-07-14T05:47:07Z" changeset="123590402" uid="3497659" user="NKA">
		<tag k="name" v="Åsheim" />
		<tag k="place" v="farm" />
		<tag k="ssr:stedsnr" v="231257" />
	</node>
	<node id="9886499450" lat="68.0295639" lon="16.1146388" version="1" timestamp="2022-07-14T05:47:07Z" changeset="123590402" uid="3497659" user="NKA">
		<tag k="name" v="Bjørkvik" />
		<tag k="place" v="farm" />
		<tag k="ssr:stedsnr" v="567549" />
	</node>
	<node id="9886499451" lat="68.1107281" lon="15.4883329" version="1" timestamp="2022-07-14T05:47:07Z" changeset="123590402" uid="3497659" user="NKA">
		<tag k="name" v="Fjelli" />
		<tag k="place" v="farm" />
		<tag k="ssr:stedsnr" v="290406" />
	</node>
	<node id="9886499452" lat="68.0874748" lon="15.8632641" version="1" timestamp="2022-07-14T05:47:07Z" changeset="123590402" uid="3497659" user="NKA">
		<tag k="name" v="Fredheim" />
		<tag k="place" v="farm" />
		<tag k="ssr:stedsnr" v="413954" />
	</node>
	<node id="9886499453" lat="68.1375389" lon="15.8873805" version="1" timestamp="2022-07-14T05:47:07Z" changeset="123590402" uid="3497659" user="NKA">
		<tag k="name" v="Steinholt" />
		<tag k="place" v="farm" />
		<tag k="ssr:stedsnr" v="623709" />
	</node>
	<node id="9886499454" lat="68.0872833" lon="15.8734083" version="1" timestamp="2022-07-14T05:47:07Z" changeset="123590402" uid="3497659" user="NKA">
		<tag k="name" v="Gamhaugan" />
		<tag k="place" v="farm" />
		<tag k="ssr:stedsnr" v="655955" />
	</node>
	<node id="9886499455" lat="68.0809887" lon="15.4899124" version="1" timestamp="2022-07-14T05:47:07Z" changeset="123590402" uid="3497659" user="NKA">
		<tag k="name" v="Høgtun" />
		<tag k="place" v="farm" />
		<tag k="ssr:stedsnr" v="230214" />
	</node>
	<node id="9886499456" lat="68.0319722" lon="16.1069279" version="1" timestamp="2022-07-14T05:47:07Z" changeset="123590402" uid="3497659" user="NKA">
		<tag k="name" v="Veiland" />
		<tag k="place" v="farm" />
		<tag k="ssr:stedsnr" v="745563" />
	</node>
	<node id="9886499457" lat="68.0851729" lon="15.8852975" version="1" timestamp="2022-07-14T05:47:07Z" changeset="123590402" uid="3497659" user="NKA">
		<tag k="name" v="Skarvold" />
		<tag k="place" v="farm" />
		<tag k="ssr:stedsnr" v="534338" />
	</node>
	<node id="9886499458" lat="68.0523805" lon="16.06755" version="1" timestamp="2022-07-14T05:47:07Z" changeset="123590402" uid="3497659" user="NKA">
		<tag k="name" v="Nordnes" />
		<tag k="place" v="farm" />
		<tag k="ssr:stedsnr" v="623838" />
	</node>
	<node id="9886499459" lat="68.1144273" lon="15.4936616" version="1" timestamp="2022-07-14T05:47:07Z" changeset="123590402" uid="3497659" user="NKA">
		<tag k="name" v="Dalen" />
		<tag k="place" v="farm" />
		<tag k="ssr:stedsnr" v="108457" />
	</node>
	<node id="9886499460" lat="68.0366713" lon="16.0977102" version="1" timestamp="2022-07-14T05:47:07Z" changeset="123590402" uid="3497659" user="NKA">
		<tag k="name" v="Moa" />
		<tag k="place" v="hamlet" />
		<tag k="ssr:stedsnr" v="623590" />
	</node>
	<node id="9886499461" lat="67.991775" lon="15.9124194" version="1" timestamp="2022-07-14T05:47:07Z" changeset="123590402" uid="3497659" user="NKA">
		<tag k="name" v="Buktelva Hytteområde" />
		<tag k="place" v="neighbourhood" />
		<tag k="ssr:stedsnr" v="534725" />
	</node>
	<node id="9886499462" lat="68.0759719" lon="15.4835151" version="1" timestamp="2022-07-14T05:47:07Z" changeset="123590402" uid="3497659" user="NKA">
		<tag k="alt_name" v="Lilandsås" />
		<tag k="name" v="Lilandsåsen" />
		<tag k="place" v="hamlet" />
		<tag k="ssr:stedsnr" v="138975" />
	</node>
	<node id="9886499463" lat="68.0341435" lon="16.0089295" version="1" timestamp="2022-07-14T05:47:07Z" changeset="123590402" uid="3497659" user="NKA">
		<tag k="name" v="Forra" />
		<tag k="place" v="farm" />
		<tag k="ssr:stedsnr" v="324807" />
	</node>
	<node id="9886499464" lat="68.0351" lon="16.103461" version="1" timestamp="2022-07-14T05:47:07Z" changeset="123590402" uid="3497659" user="NKA">
		<tag k="name" v="Skogly" />
		<tag k="place" v="farm" />
		<tag k="ssr:stedsnr" v="381575" />
	</node>
	<node id="9886499465" lat="68.0359356" lon="15.3866698" version="1" timestamp="2022-07-14T05:47:07Z" changeset="123590402" uid="3497659" user="NKA">
		<tag k="name" v="Toftan" />
		<tag k="place" v="farm" />
		<tag k="ssr:stedsnr" v="594217" />
	</node>
	<node id="9886499466" lat="68.0869667" lon="15.8765966" version="1" timestamp="2022-07-14T05:47:07Z" changeset="123590402" uid="3497659" user="NKA">
		<tag k="name" v="Vestre Skilvassbakk" />
		<tag k="place" v="farm" />
		<tag k="ssr:stedsnr" v="230961" />
	</node>
	<node id="9886499467" lat="67.9926195" lon="15.6029027" version="1" timestamp="2022-07-14T05:47:07Z" changeset="123590402" uid="3497659" user="NKA">
		<tag k="name" v="Nygårdvoll" />
		<tag k="place" v="farm" />
		<tag k="ssr:stedsnr" v="320906" />
	</node>
	<node id="9886499468" lat="67.792625" lon="16.0878805" version="1" timestamp="2022-07-14T05:47:07Z" changeset="123590402" uid="3497659" user="NKA">
		<tag k="name" v="Bannetlægeret" />
		<tag k="place" v="locality" />
		<tag k="ssr:stedsnr" v="381299" />
	</node>
	<node id="9886499469" lat="68.1644139" lon="15.6550001" version="1" timestamp="2022-07-14T05:47:07Z" changeset="123590402" uid="3497659" user="NKA">
		<tag k="name" v="Varhaug" />
		<tag k="place" v="farm" />
		<tag k="ssr:stedsnr" v="502773" />
	</node>
	<node id="9886499470" lat="68.1102" lon="15.5979139" version="1" timestamp="2022-07-14T05:47:07Z" changeset="123590402" uid="3497659" user="NKA">
		<tag k="name" v="Risskaråsen" />
		<tag k="place" v="farm" />
		<tag k="ssr:stedsnr" v="170318" />
	</node>
	<node id="9886499471" lat="68.0442383" lon="16.060137" version="1" timestamp="2022-07-14T05:47:07Z" changeset="123590402" uid="3497659" user="NKA">
		<tag k="alt_name" v="Hamna" />
		<tag k="name" v="Hamn" />
		<tag k="place" v="farm" />
		<tag k="ssr:stedsnr" v="259550" />
	</node>
	<node id="9886499472" lat="68.1207237" lon="15.8810361" version="1" timestamp="2022-07-14T05:47:07Z" changeset="123590402" uid="3497659" user="NKA">
		<tag k="name" v="Ulvsvåg Hovedgård" />
		<tag k="place" v="farm" />
		<tag k="ssr:stedsnr" v="170404" />
	</node>
	<node id="9886499473" lat="68.0367973" lon="16.1030889" version="1" timestamp="2022-07-14T05:47:07Z" changeset="123590402" uid="3497659" user="NKA">
		<tag k="name" v="Sørås" />
		<tag k="place" v="farm" />
		<tag k="ssr:stedsnr" v="138582" />
	</node>
	<node id="9886499474" lat="67.9537888" lon="16.1222292" version="1" timestamp="2022-07-14T05:47:07Z" changeset="123590402" uid="3497659" user="NKA">
		<tag k="alt_name" v="Kilvatsskogen" />
		<tag k="name" v="Kilvasskogen" />
		<tag k="place" v="farm" />
		<tag k="ssr:stedsnr" v="1085128" />
	</node>
	<node id="9886499475" lat="68.1148889" lon="15.4065586" version="1" timestamp="2022-07-14T05:47:07Z" changeset="123590402" uid="3497659" user="NKA">
		<tag k="alt_name" v="Bjørndal" />
		<tag k="name" v="Bjørndalen" />
		<tag k="place" v="locality" />
		<tag k="ssr:stedsnr" v="1076443" />
	</node>
	<node id="9886499476" lat="67.9903472" lon="15.6500722" version="1" timestamp="2022-07-14T05:47:07Z" changeset="123590402" uid="3497659" user="NKA">
		<tag k="name" v="Stormyrvik" />
		<tag k="place" v="locality" />
		<tag k="ssr:stedsnr" v="521452" />
	</node>
	<node id="9886499477" lat="68.0518379" lon="15.4250079" version="1" timestamp="2022-07-14T05:47:07Z" changeset="123590402" uid="3497659" user="NKA">
		<tag k="name" v="Bjørshaug" />
		<tag k="place" v="farm" />
		<tag k="ssr:stedsnr" v="959273" />
	</node>
	<node id="9886499478" lat="68.0045654" lon="15.405205" version="1" timestamp="2022-07-14T05:47:07Z" changeset="123590402" uid="3497659" user="NKA">
		<tag k="name" v="Sjøvoll" />
		<tag k="place" v="farm" />
		<tag k="ssr:stedsnr" v="291579" />
	</node>
	<node id="9886499479" lat="68.0026222" lon="15.4210056" version="1" timestamp="2022-07-14T05:47:07Z" changeset="123590402" uid="3497659" user="NKA">
		<tag k="name" v="Nesberg" />
		<tag k="place" v="farm" />
		<tag k="ssr:stedsnr" v="502845" />
	</node>
	<node id="9886499480" lat="68.0661517" lon="15.81771" version="1" timestamp="2022-07-14T05:47:07Z" changeset="123590402" uid="3497659" user="NKA">
		<tag k="name" v="Glennbua" />
		<tag k="place" v="isolated_dwelling" />
		<tag k="ssr:stedsnr" v="473289" />
	</node>
	<node id="9886499481" lat="68.0473278" lon="16.0310473" version="1" timestamp="2022-07-14T05:47:07Z" changeset="123590402" uid="3497659" user="NKA">
		<tag k="name" v="Nordvoll" />
		<tag k="place" v="farm" />
		<tag k="ssr:stedsnr" v="17642" />
	</node>
	<node id="9886499482" lat="68.0594147" lon="15.4247747" version="1" timestamp="2022-07-14T05:47:07Z" changeset="123590402" uid="3497659" user="NKA">
		<tag k="alt_name" v="Langbakken" />
		<tag k="name" v="Langbakkan" />
		<tag k="place" v="hamlet" />
		<tag k="ssr:stedsnr" v="502950" />
	</node>
	<node id="9886499483" lat="68.0848606" lon="15.5875529" version="1" timestamp="2022-07-14T05:47:07Z" changeset="123590402" uid="3497659" user="NKA">
		<tag k="name" v="Nakken" />
		<tag k="place" v="farm" />
		<tag k="ssr:stedsnr" v="441994" />
	</node>
	<node id="9886499484" lat="68.0698611" lon="15.4046861" version="1" timestamp="2022-07-14T05:47:07Z" changeset="123590402" uid="3497659" user="NKA">
		<tag k="name" v="Fredhaug" />
		<tag k="place" v="farm" />
		<tag k="ssr:stedsnr" v="199967" />
	</node>
	<node id="9886499485" lat="67.9930695" lon="15.6095916" version="1" timestamp="2022-07-14T05:47:07Z" changeset="123590402" uid="3497659" user="NKA">
		<tag k="name" v="Grønning" />
		<tag k="place" v="farm" />
		<tag k="ssr:stedsnr" v="441907" />
	</node>
	<node id="9886499486" lat="68.0402778" lon="15.4084778" version="1" timestamp="2022-07-14T05:47:07Z" changeset="123590402" uid="3497659" user="NKA">
		<tag k="name" v="Gården" />
		<tag k="place" v="locality" />
		<tag k="ssr:stedsnr" v="473242" />
	</node>
	<node id="9886499487" lat="68.0797667" lon="15.4941667" version="1" timestamp="2022-07-14T05:47:07Z" changeset="123590402" uid="3497659" user="NKA">
		<tag k="name" v="Solbakk" />
		<tag k="place" v="farm" />
		<tag k="ssr:stedsnr" v="959183" />
	</node>
	<node id="9886499488" lat="68.1136223" lon="15.4937527" version="1" timestamp="2022-07-14T05:47:07Z" changeset="123590402" uid="3497659" user="NKA">
		<tag k="name" v="Haugen" />
		<tag k="place" v="farm" />
		<tag k="ssr:stedsnr" v="958472" />
	</node>
	<node id="9886499489" lat="68.0028427" lon="15.9299537" version="1" timestamp="2022-07-14T05:47:07Z" changeset="123590402" uid="3497659" user="NKA">
		<tag k="name" v="Sommarset" />
		<tag k="place" v="locality" />
		<tag k="ssr:stedsnr" v="867562" />
	</node>
	<node id="9886499490" lat="67.9942758" lon="15.5696781" version="1" timestamp="2022-07-14T05:47:07Z" changeset="123590402" uid="3497659" user="NKA">
		<tag k="name" v="Øverås" />
		<tag k="place" v="hamlet" />
		<tag k="ssr:stedsnr" v="866892" />
	</node>
	<node id="9886499491" lat="67.9936805" lon="15.6156278" version="1" timestamp="2022-07-14T05:47:07Z" changeset="123590402" uid="3497659" user="NKA">
		<tag k="name" v="Lynghaug" />
		<tag k="place" v="farm" />
		<tag k="ssr:stedsnr" v="17913" />
	</node>
	<node id="9886499492" lat="68.1334047" lon="15.7099424" version="1" timestamp="2022-07-14T05:47:07Z" changeset="123590402" uid="3497659" user="NKA">
		<tag k="name" v="Berg" />
		<tag k="place" v="farm" />
		<tag k="ssr:stedsnr" v="959553" />
	</node>
	<node id="9886499493" lat="67.9948167" lon="15.59435" version="1" timestamp="2022-07-14T05:47:07Z" changeset="123590402" uid="3497659" user="NKA">
		<tag k="name" v="Fagerheim" />
		<tag k="place" v="farm" />
		<tag k="ssr:stedsnr" v="199900" />
	</node>
	<node id="9886499494" lat="67.8068257" lon="15.9954413" version="1" timestamp="2022-07-14T05:47:07Z" changeset="123590402" uid="3497659" user="NKA">
		<tag k="name" v="Kråkmoa" />
		<tag k="old_name" v="Kraakmoen" />
		<tag k="place" v="farm" />
		<tag k="ssr:stedsnr" v="1085281" />
	</node>
	<node id="9886499495" lat="68.0002555" lon="15.6085972" version="1" timestamp="2022-07-14T05:47:07Z" changeset="123590402" uid="3497659" user="NKA">
		<tag k="name" v="Tronstad" />
		<tag k="place" v="farm" />
		<tag k="ssr:stedsnr" v="866829" />
	</node>
	<node id="9886499496" lat="67.814326" lon="15.9881169" version="1" timestamp="2022-07-14T05:47:07Z" changeset="123590402" uid="3497659" user="NKA">
		<tag k="name" v="Solvoll" />
		<tag k="place" v="isolated_dwelling" />
		<tag k="ssr:stedsnr" v="170516" />
	</node>
	<node id="9886499497" lat="68.1657028" lon="15.7008943" version="1" timestamp="2022-07-14T05:47:07Z" changeset="123590402" uid="3497659" user="NKA">
		<tag k="name" v="Sjømyr" />
		<tag k="place" v="farm" />
		<tag k="ssr:stedsnr" v="806780" />
	</node>
	<node id="9886499498" lat="68.0016916" lon="15.6965861" version="1" timestamp="2022-07-14T05:47:07Z" changeset="123590402" uid="3497659" user="NKA">
		<tag k="name" v="Klingenberg" />
		<tag k="place" v="farm" />
		<tag k="ssr:stedsnr" v="703607" />
	</node>
	<node id="9886499499" lat="68.0552861" lon="15.7693603" version="1" timestamp="2022-07-14T05:47:07Z" changeset="123590402" uid="3497659" user="NKA">
		<tag k="name" v="Solli" />
		<tag k="place" v="farm" />
		<tag k="ssr:stedsnr" v="866582" />
	</node>
	<node id="9886499500" lat="67.8084094" lon="15.9845115" version="1" timestamp="2022-07-14T05:47:07Z" changeset="123590402" uid="3497659" user="NKA">
		<tag k="name" v="Skilggá - Kråkmoa" />
		<tag k="name:no" v="Kråkmoa" />
		<tag k="name:smj" v="Skilggá" />
		<tag k="old_name:no" v="Kråkmoen" />
		<tag k="old_name:smj" v="Skilga" />
		<tag k="place" v="hamlet" />
		<tag k="ssr:stedsnr" v="199471" />
	</node>
	<node id="9886499501" lat="68.0628806" lon="15.5932361" version="1" timestamp="2022-07-14T05:47:07Z" changeset="123590402" uid="3497659" user="NKA">
		<tag k="name" v="Lendstø" />
		<tag k="place" v="locality" />
		<tag k="ssr:stedsnr" v="562951" />
	</node>
	<node id="9886499502" lat="68.0444309" lon="15.4013152" version="1" timestamp="2022-07-14T05:47:07Z" changeset="123590402" uid="3497659" user="NKA">
		<tag k="name" v="Stensrud" />
		<tag k="place" v="farm" />
		<tag k="ssr:stedsnr" v="806944" />
	</node>
	<node id="9886499503" lat="68.1068916" lon="15.5175389" version="1" timestamp="2022-07-14T05:47:07Z" changeset="123590402" uid="3497659" user="NKA">
		<tag k="name" v="Nordåsen" />
		<tag k="place" v="farm" />
		<tag k="ssr:stedsnr" v="958301" />
	</node>
	<node id="9886499504" lat="68.0019331" lon="15.4944633" version="1" timestamp="2022-07-14T05:47:07Z" changeset="123590402" uid="3497659" user="NKA">
		<tag k="alt_name" v="Finnøy" />
		<tag k="name" v="Finnøya" />
		<tag k="place" v="hamlet" />
		<tag k="ssr:stedsnr" v="927844" />
	</node>
	<node id="9886499505" lat="67.9933222" lon="15.5666529" version="1" timestamp="2022-07-14T05:47:07Z" changeset="123590402" uid="3497659" user="NKA">
		<tag k="name" v="Teinvoll" />
		<tag k="place" v="farm" />
		<tag k="ssr:stedsnr" v="776541" />
	</node>
	<node id="9886499506" lat="68.0905666" lon="16.0963139" version="1" timestamp="2022-07-14T05:47:07Z" changeset="123590402" uid="3497659" user="NKA">
		<tag k="name" v="Stuorluokta - Storvika" />
		<tag k="name:no" v="Storvika" />
		<tag k="name:smj" v="Stuorluokta" />
		<tag k="place" v="hamlet" />
		<tag k="ssr:stedsnr" v="81640" />
	</node>
	<node id="9886499507" lat="68.065247" lon="15.4736605" version="1" timestamp="2022-07-14T05:47:07Z" changeset="123590402" uid="3497659" user="NKA">
		<tag k="name" v="Haukås" />
		<tag k="place" v="hamlet" />
		<tag k="ssr:stedsnr" v="806961" />
	</node>
	<node id="9886499508" lat="68.0179146" lon="15.7294205" version="1" timestamp="2022-07-14T05:47:07Z" changeset="123590402" uid="3497659" user="NKA">
		<tag k="alt_name" v="Vestre Karlsøybotn;Karlsøybotn, yt" />
		<tag k="name" v="Ytre Karlsøybotn" />
		<tag k="place" v="farm" />
		<tag k="ssr:stedsnr" v="562590" />
	</node>
	<node id="9886499509" lat="68.0559167" lon="15.4304555" version="1" timestamp="2022-07-14T05:47:07Z" changeset="123590402" uid="3497659" user="NKA">
		<tag k="alt_name" v="Nævernesvoll" />
		<tag k="name" v="Vollan" />
		<tag k="place" v="farm" />
		<tag k="ssr:stedsnr" v="927968" />
	</node>
	<node id="9886499510" lat="68.0187206" lon="15.7270616" version="1" timestamp="2022-07-14T05:47:07Z" changeset="123590402" uid="3497659" user="NKA">
		<tag k="name" v="Karlsøybotn" />
		<tag k="place" v="hamlet" />
		<tag k="ssr:stedsnr" v="1076451" />
	</node>
	<node id="9886499511" lat="67.9965528" lon="15.5132861" version="1" timestamp="2022-07-14T05:47:07Z" changeset="123590402" uid="3497659" user="NKA">
		<tag k="alt_name" v="Dønshaugen" />
		<tag k="name" v="Dønshågen" />
		<tag k="place" v="farm" />
		<tag k="ssr:stedsnr" v="684898" />
	</node>
	<node id="9886499512" lat="68.0868628" lon="15.5699897" version="1" timestamp="2022-07-14T05:47:07Z" changeset="123590402" uid="3497659" user="NKA">
		<tag k="name" v="Brennmo" />
		<tag k="place" v="isolated_dwelling" />
		<tag k="ssr:stedsnr" v="170223" />
	</node>
	<node id="9886499513" lat="68.0621639" lon="16.652511" version="1" timestamp="2022-07-14T05:47:07Z" changeset="123590402" uid="3497659" user="NKA">
		<tag k="name" v="Brakka" />
		<tag k="place" v="farm" />
		<tag k="ssr:stedsnr" v="932728" />
	</node>
	<node id="9886499514" lat="68.0912175" lon="15.5562028" version="1" timestamp="2022-07-14T05:47:07Z" changeset="123590402" uid="3497659" user="NKA">
		<tag k="alt_name" v="Gurdal;Guradal" />
		<tag k="name" v="Guradalen" />
		<tag k="place" v="farm" />
		<tag k="ssr:stedsnr" v="684047" />
	</node>
	<node id="9886499515" lat="68.0571285" lon="15.5977188" version="1" timestamp="2022-07-14T05:47:07Z" changeset="123590402" uid="3497659" user="NKA">
		<tag k="name" v="Kallstad" />
		<tag k="place" v="farm" />
		<tag k="ssr:stedsnr" v="745953" />
	</node>
	<node id="9886499516" lat="68.0445897" lon="15.4152531" version="1" timestamp="2022-07-14T05:47:07Z" changeset="123590402" uid="3497659" user="NKA">
		<tag k="alt_name" v="Sletten" />
		<tag k="name" v="Sletta" />
		<tag k="place" v="farm" />
		<tag k="ssr:stedsnr" v="520047" />
	</node>
	<node id="9886499517" lat="68.0584818" lon="15.606565" version="1" timestamp="2022-07-14T05:47:07Z" changeset="123590402" uid="3497659" user="NKA">
		<tag k="name" v="Nordmark" />
		<tag k="place" v="farm" />
		<tag k="ssr:stedsnr" v="534278" />
	</node>
	<node id="9886499518" lat="68.0501461" lon="15.4279025" version="1" timestamp="2022-07-14T05:47:07Z" changeset="123590402" uid="3497659" user="NKA">
		<tag k="alt_name" v="Røsvik" />
		<tag k="name" v="Røssvika" />
		<tag k="place" v="hamlet" />
		<tag k="ssr:stedsnr" v="502937" />
	</node>
	<node id="9886499519" lat="68.0563946" lon="15.6029327" version="1" timestamp="2022-07-14T05:47:07Z" changeset="123590402" uid="3497659" user="NKA">
		<tag k="name" v="Mellomgarden" />
		<tag k="place" v="farm" />
		<tag k="ssr:stedsnr" v="534290" />
	</node>
	<node id="9886499520" lat="68.0840676" lon="15.6048673" version="1" timestamp="2022-07-14T05:47:07Z" changeset="123590402" uid="3497659" user="NKA">
		<tag k="name" v="Teigen" />
		<tag k="place" v="isolated_dwelling" />
		<tag k="ssr:stedsnr" v="399478" />
	</node>
	<node id="9886499521" lat="68.0470979" lon="15.4164586" version="1" timestamp="2022-07-14T05:47:07Z" changeset="123590402" uid="3497659" user="NKA">
		<tag k="name" v="Thune" />
		<tag k="place" v="farm" />
		<tag k="ssr:stedsnr" v="473234" />
	</node>
	<node id="9886499522" lat="68.0619595" lon="16.654689" version="1" timestamp="2022-07-14T05:47:07Z" changeset="123590402" uid="3497659" user="NKA">
		<tag k="name" v="Slahpa - Sørfjorden" />
		<tag k="name:no" v="Sørfjorden" />
		<tag k="name:smj" v="Slahpa" />
		<tag k="place" v="hamlet" />
		<tag k="ssr:stedsnr" v="441497" />
	</node>
	<node id="9886499523" lat="68.0613389" lon="16.6532612" version="1" timestamp="2022-07-14T05:47:07Z" changeset="123590402" uid="3497659" user="NKA">
		<tag k="name" v="Dalhaug" />
		<tag k="place" v="farm" />
		<tag k="ssr:stedsnr" v="325759" />
	</node>
	<node id="9886499524" lat="67.9860279" lon="15.4720379" version="1" timestamp="2022-07-14T05:47:07Z" changeset="123590402" uid="3497659" user="NKA">
		<tag k="name" v="Husøya" />
		<tag k="place" v="hamlet" />
		<tag k="ssr:stedsnr" v="502627" />
	</node>
	<node id="9886499525" lat="68.0716434" lon="15.3456064" version="1" timestamp="2022-07-14T05:47:07Z" changeset="123590402" uid="3497659" user="NKA">
		<tag k="name" v="Sørdal" />
		<tag k="place" v="farm" />
		<tag k="ssr:stedsnr" v="380985" />
	</node>
	<node id="9886499526" lat="68.0731797" lon="15.4043159" version="1" timestamp="2022-07-14T05:47:07Z" changeset="123590402" uid="3497659" user="NKA">
		<tag k="alt_name" v="Frulia" />
		<tag k="name" v="Fruli" />
		<tag k="place" v="farm" />
		<tag k="ssr:stedsnr" v="380980" />
	</node>
	<node id="9886499527" lat="68.009275" lon="15.4142417" version="1" timestamp="2022-07-14T05:47:07Z" changeset="123590402" uid="3497659" user="NKA">
		<tag k="name" v="Moa" />
		<tag k="place" v="farm" />
		<tag k="ssr:stedsnr" v="442894" />
	</node>
	<node id="9886499528" lat="68.0718683" lon="15.4514844" version="1" timestamp="2022-07-14T05:47:07Z" changeset="123590402" uid="3497659" user="NKA">
		<tag k="alt_name" v="Hestbakken" />
		<tag k="name" v="Hestbakkan" />
		<tag k="place" v="farm" />
		<tag k="ssr:stedsnr" v="441985" />
	</node>
	<node id="9886499529" lat="68.0109111" lon="16.3337583" version="1" timestamp="2022-07-14T05:47:07Z" changeset="123590402" uid="3497659" user="NKA">
		<tag k="name" v="Berg" />
		<tag k="place" v="farm" />
		<tag k="ssr:stedsnr" v="325887" />
	</node>
	<node id="9886499530" lat="67.9722389" lon="16.2172251" version="1" timestamp="2022-07-14T05:47:07Z" changeset="123590402" uid="3497659" user="NKA">
		<tag k="loc_name:smj" v="Svenjunnjá" />
		<tag k="name" v="Svienjunnjá - Pålsommarset" />
		<tag k="name:no" v="Pålsommarset" />
		<tag k="name:smj" v="Svienjunnjá" />
		<tag k="old_name:smj" v="Svenjunnja" />
		<tag k="place" v="farm" />
		<tag k="ssr:stedsnr" v="320622" />
	</node>
	<node id="9886499531" lat="68.0478978" lon="15.4500387" version="1" timestamp="2022-07-14T05:47:07Z" changeset="123590402" uid="3497659" user="NKA">
		<tag k="name" v="Haugen" />
		<tag k="place" v="farm" />
		<tag k="ssr:stedsnr" v="380922" />
	</node>
	<node id="9886499532" lat="68.1364" lon="16.1171779" version="1" timestamp="2022-07-14T05:47:07Z" changeset="123590402" uid="3497659" user="NKA">
		<tag k="name" v="Nergården" />
		<tag k="place" v="farm" />
		<tag k="ssr:stedsnr" v="325874" />
	</node>
	<node id="9886499533" lat="67.7641398" lon="16.0301553" version="1" timestamp="2022-07-14T05:47:07Z" changeset="123590402" uid="3497659" user="NKA">
		<tag k="name" v="Sjuendevasstua" />
		<tag k="place" v="locality" />
		<tag k="ssr:stedsnr" v="838843" />
	</node>
	<node id="9886499534" lat="67.8337944" lon="15.8446584" version="1" timestamp="2022-07-14T05:47:07Z" changeset="123590402" uid="3497659" user="NKA">
		<tag k="name" v="Makkvatnet" />
		<tag k="place" v="locality" />
		<tag k="ssr:stedsnr" v="78484" />
	</node>
	<node id="9886499535" lat="67.9948333" lon="15.5647251" version="1" timestamp="2022-07-14T05:47:07Z" changeset="123590402" uid="3497659" user="NKA">
		<tag k="name" v="Teinvollen" />
		<tag k="place" v="farm" />
		<tag k="ssr:stedsnr" v="320905" />
	</node>
	<node id="9886499536" lat="68.0451003" lon="16.2747375" version="1" timestamp="2022-07-14T05:47:07Z" changeset="123590402" uid="3497659" user="NKA">
		<tag k="name" v="Borg" />
		<tag k="place" v="farm" />
		<tag k="ssr:stedsnr" v="138531" />
	</node>
	<node id="9886499537" lat="68.0043861" lon="15.7017388" version="1" timestamp="2022-07-14T05:47:07Z" changeset="123590402" uid="3497659" user="NKA">
		<tag k="name" v="Litlneset" />
		<tag k="place" v="farm" />
		<tag k="ssr:stedsnr" v="278618" />
	</node>
	<node id="9886499538" lat="68.1126915" lon="15.5956355" version="1" timestamp="2022-07-14T05:47:07Z" changeset="123590402" uid="3497659" user="NKA">
		<tag k="name" v="Hopland" />
		<tag k="place" v="farm" />
		<tag k="ssr:stedsnr" v="777283" />
	</node>
	<node id="9886499539" lat="68.0500135" lon="15.4084072" version="1" timestamp="2022-07-14T05:47:07Z" changeset="123590402" uid="3497659" user="NKA">
		<tag k="alt_name" v="Rødli" />
		<tag k="name" v="Rødlia" />
		<tag k="place" v="farm" />
		<tag k="ssr:stedsnr" v="259937" />
	</node>
	<node id="9886499540" lat="68.0474" lon="15.7182278" version="1" timestamp="2022-07-14T05:47:07Z" changeset="123590402" uid="3497659" user="NKA">
		<tag k="name" v="Lysjord" />
		<tag k="place" v="farm" />
		<tag k="ssr:stedsnr" v="231152" />
	</node>
	<node id="9886499541" lat="68.0434649" lon="15.7422922" version="1" timestamp="2022-07-14T05:47:07Z" changeset="123590402" uid="3497659" user="NKA">
		<tag k="alt_name:no" v="Kaldvåg" />
		<tag k="loc_name:smj" v="Gálldaváhke" />
		<tag k="name" v="Kaldvågen" />
		<tag k="name:no" v="Kaldvågen" />
		<tag k="place" v="hamlet" />
		<tag k="ssr:stedsnr" v="146777" />
	</node>
	<node id="9886499542" lat="68.0436805" lon="15.3998278" version="1" timestamp="2022-07-14T05:47:07Z" changeset="123590402" uid="3497659" user="NKA">
		<tag k="name" v="Lilleås" />
		<tag k="place" v="locality" />
		<tag k="ssr:stedsnr" v="170253" />
	</node>
	<node id="9886499543" lat="68.0869901" lon="15.5848339" version="1" timestamp="2022-07-14T05:47:07Z" changeset="123590402" uid="3497659" user="NKA">
		<tag k="name" v="Hjelseng" />
		<tag k="place" v="farm" />
		<tag k="ssr:stedsnr" v="990139" />
	</node>
	<node id="9886499544" lat="68.0608444" lon="15.6614112" version="1" timestamp="2022-07-14T05:47:07Z" changeset="123590402" uid="3497659" user="NKA">
		<tag k="name" v="Tuva" />
		<tag k="place" v="isolated_dwelling" />
		<tag k="ssr:stedsnr" v="78594" />
	</node>
	<node id="9886499545" lat="68.1072345" lon="15.586033" version="1" timestamp="2022-07-14T05:47:07Z" changeset="123590402" uid="3497659" user="NKA">
		<tag k="alt_name" v="Kulveslett" />
		<tag k="name" v="Kulverslett" />
		<tag k="place" v="farm" />
		<tag k="ssr:stedsnr" v="684022" />
	</node>
	<node id="9886499546" lat="68.009805" lon="15.4158993" version="1" timestamp="2022-07-14T05:47:07Z" changeset="123590402" uid="3497659" user="NKA">
		<tag k="name" v="Vestre Moen" />
		<tag k="place" v="farm" />
		<tag k="ssr:stedsnr" v="170075" />
	</node>
	<node id="9886499547" lat="68.0072028" lon="15.400864" version="1" timestamp="2022-07-14T05:47:07Z" changeset="123590402" uid="3497659" user="NKA">
		<tag k="name" v="Ryen" />
		<tag k="place" v="farm" />
		<tag k="ssr:stedsnr" v="77829" />
	</node>
	<node id="9886499548" lat="68.0056739" lon="15.4145663" version="1" timestamp="2022-07-14T05:47:07Z" changeset="123590402" uid="3497659" user="NKA">
		<tag k="name" v="Nes" />
		<tag k="place" v="hamlet" />
		<tag k="ssr:stedsnr" v="684845" />
	</node>
	<node id="9886499549" lat="68.0727458" lon="15.456555" version="1" timestamp="2022-07-14T05:47:07Z" changeset="123590402" uid="3497659" user="NKA">
		<tag k="alt_name" v="Eideslia" />
		<tag k="name" v="Eidislia" />
		<tag k="place" v="farm" />
		<tag k="ssr:stedsnr" v="78980" />
	</node>
	<node id="9886499550" lat="68.0369493" lon="15.3884863" version="1" timestamp="2022-07-14T05:47:07Z" changeset="123590402" uid="3497659" user="NKA">
		<tag k="name" v="Sørvåg" />
		<tag k="place" v="hamlet" />
		<tag k="ssr:stedsnr" v="77924" />
	</node>
	<node id="9886499551" lat="67.9969194" lon="15.5490279" version="1" timestamp="2022-07-14T05:47:07Z" changeset="123590402" uid="3497659" user="NKA">
		<tag k="name" v="Nylenda" />
		<tag k="place" v="farm" />
		<tag k="ssr:stedsnr" v="866890" />
	</node>
	<node id="9886499552" lat="68.0528962" lon="15.5886615" version="1" timestamp="2022-07-14T05:47:07Z" changeset="123590402" uid="3497659" user="NKA">
		<tag k="alt_name" v="Nausthaugen" />
		<tag k="name" v="Nausthågen" />
		<tag k="place" v="farm" />
		<tag k="ssr:stedsnr" v="199948" />
	</node>
	<node id="9886499553" lat="68.0189011" lon="15.365255" version="1" timestamp="2022-07-14T05:47:07Z" changeset="123590402" uid="3497659" user="NKA">
		<tag k="name" v="Steinsland" />
		<tag k="place" v="farm" />
		<tag k="ssr:stedsnr" v="927909" />
	</node>
	<node id="9886499554" lat="67.9201357" lon="15.8779218" version="1" timestamp="2022-07-14T05:47:07Z" changeset="123590402" uid="3497659" user="NKA">
		<tag k="name" v="Tømmerneset" />
		<tag k="place" v="farm" />
		<tag k="ssr:stedsnr" v="985364" />
	</node>
	<node id="9886499555" lat="67.9725093" lon="15.9265215" version="1" timestamp="2022-07-14T05:47:07Z" changeset="123590402" uid="3497659" user="NKA">
		<tag k="alt_name" v="Strømsnes" />
		<tag k="name" v="Straumsnes" />
		<tag k="place" v="hamlet" />
		<tag k="ssr:stedsnr" v="927638" />
	</node>
	<node id="9886499556" lat="68.0476028" lon="15.4122529" version="1" timestamp="2022-07-14T05:47:07Z" changeset="123590402" uid="3497659" user="NKA">
		<tag k="name" v="Gammelgården" />
		<tag k="place" v="locality" />
		<tag k="ssr:stedsnr" v="959205" />
	</node>
	<node id="9886499557" lat="68.0160445" lon="15.7346973" version="1" timestamp="2022-07-14T05:47:07Z" changeset="123590402" uid="3497659" user="NKA">
		<tag k="alt_name" v="Indre Karlsøybotn;Karlsøybotn, in" />
		<tag k="name" v="Østre Karlsøybotn" />
		<tag k="place" v="farm" />
		<tag k="ssr:stedsnr" v="927595" />
	</node>
	<node id="9886499558" lat="68.2221528" lon="16.0475833" version="1" timestamp="2022-07-14T05:47:07Z" changeset="123590402" uid="3497659" user="NKA">
		<tag k="name" v="Bogen" />
		<tag k="place" v="hamlet" />
		<tag k="ssr:stedsnr" v="78824" />
	</node>
	<node id="9886499559" lat="67.9331916" lon="15.8761549" version="1" timestamp="2022-07-14T05:47:07Z" changeset="123590402" uid="3497659" user="NKA">
		<tag k="alt_name" v="Lagmannsvik" />
		<tag k="name" v="Lagmannsvika" />
		<tag k="place" v="farm" />
		<tag k="ssr:stedsnr" v="806382" />
	</node>
	<node id="9886499560" lat="67.9121771" lon="15.8663581" version="1" timestamp="2022-07-14T05:47:07Z" changeset="123590402" uid="3497659" user="NKA">
		<tag k="name" v="Elvenes" />
		<tag k="place" v="farm" />
		<tag k="ssr:stedsnr" v="898990" />
	</node>
	<node id="9886499561" lat="68.0791722" lon="15.9109584" version="1" timestamp="2022-07-14T05:47:07Z" changeset="123590402" uid="3497659" user="NKA">
		<tag k="name" v="Nyheim" />
		<tag k="place" v="farm" />
		<tag k="ssr:stedsnr" v="352336" />
	</node>
	<node id="9886499562" lat="67.858428" lon="15.9119787" version="1" timestamp="2022-07-14T05:47:07Z" changeset="123590402" uid="3497659" user="NKA">
		<tag k="alt_name:no" v="Strindnes" />
		<tag k="name" v="Gilda - Strindneset" />
		<tag k="name:no" v="Strindneset" />
		<tag k="name:smj" v="Gilda" />
		<tag k="place" v="farm" />
		<tag k="ssr:stedsnr" v="806449" />
	</node>
	<node id="9886499563" lat="68.1376548" lon="15.7098889" version="1" timestamp="2022-07-14T05:47:07Z" changeset="123590402" uid="3497659" user="NKA">
		<tag k="name" v="Nymoen" />
		<tag k="place" v="farm" />
		<tag k="ssr:stedsnr" v="777659" />
	</node>
	<node id="9886499564" lat="68.259592" lon="15.9542877" version="1" timestamp="2022-07-14T05:47:07Z" changeset="123590402" uid="3497659" user="NKA">
		<tag k="name" v="Diksná - Tysnes" />
		<tag k="name:no" v="Tysnes" />
		<tag k="name:smj" v="Diksná" />
		<tag k="place" v="hamlet" />
		<tag k="ssr:stedsnr" v="78386" />
	</node>
	<node id="9886499565" lat="68.1518028" lon="16.1141832" version="1" timestamp="2022-07-14T05:47:07Z" changeset="123590402" uid="3497659" user="NKA">
		<tag k="name" v="Fossum" />
		<tag k="place" v="farm" />
		<tag k="ssr:stedsnr" v="78750" />
	</node>
	<node id="9886499566" lat="67.9908631" lon="15.9515276" version="1" timestamp="2022-07-14T05:47:07Z" changeset="123590402" uid="3497659" user="NKA">
		<tag k="name" v="Hillingan" />
		<tag k="place" v="hamlet" />
		<tag k="ssr:stedsnr" v="806669" />
	</node>
	<node id="9886499567" lat="68.0811815" lon="15.9175473" version="1" timestamp="2022-07-14T05:47:07Z" changeset="123590402" uid="3497659" user="NKA">
		<tag k="name" v="Østgård" />
		<tag k="place" v="farm" />
		<tag k="ssr:stedsnr" v="110352" />
	</node>
	<node id="9886499568" lat="68.2016162" lon="15.9521899" version="1" timestamp="2022-07-14T05:47:07Z" changeset="123590402" uid="3497659" user="NKA">
		<tag k="name" v="Tiltvika" />
		<tag k="place" v="farm" />
		<tag k="ssr:stedsnr" v="17832" />
	</node>
	<node id="9886499569" lat="68.0496306" lon="15.4200305" version="1" timestamp="2022-07-14T05:47:07Z" changeset="123590402" uid="3497659" user="NKA">
		<tag k="name" v="Lian" />
		<tag k="place" v="farm" />
		<tag k="ssr:stedsnr" v="745943" />
	</node>
	<node id="9886499570" lat="68.1248985" lon="15.7115446" version="1" timestamp="2022-07-14T05:47:07Z" changeset="123590402" uid="3497659" user="NKA">
		<tag k="name" v="Hamlot" />
		<tag k="place" v="hamlet" />
		<tag k="ssr:stedsnr" v="745751" />
	</node>
	<node id="9886499571" lat="68.0866889" lon="16.2941528" version="1" timestamp="2022-07-14T05:47:07Z" changeset="123590402" uid="3497659" user="NKA">
		<tag k="name" v="Haugen" />
		<tag k="place" v="isolated_dwelling" />
		<tag k="ssr:stedsnr" v="953368" />
	</node>
	<node id="9886499572" lat="68.0062663" lon="15.4112037" version="1" timestamp="2022-07-14T05:47:07Z" changeset="123590402" uid="3497659" user="NKA">
		<tag k="name" v="Karlsberg" />
		<tag k="place" v="farm" />
		<tag k="ssr:stedsnr" v="745860" />
	</node>
	<node id="9886499573" lat="68.2186306" lon="16.0611639" version="1" timestamp="2022-07-14T05:47:07Z" changeset="123590402" uid="3497659" user="NKA">
		<tag k="name" v="Leiknesbø" />
		<tag k="place" v="farm" />
		<tag k="ssr:stedsnr" v="946079" />
	</node>
	<node id="9886499574" lat="68.1529722" lon="16.093964" version="1" timestamp="2022-07-14T05:47:07Z" changeset="123590402" uid="3497659" user="NKA">
		<tag k="name" v="Hustoften" />
		<tag k="place" v="isolated_dwelling" />
		<tag k="ssr:stedsnr" v="927756" />
	</node>
	<node id="9886499575" lat="67.8936861" lon="15.781161" version="1" timestamp="2022-07-14T05:47:07Z" changeset="123590402" uid="3497659" user="NKA">
		<tag k="alt_name" v="Lapplægeret" />
		<tag k="name" v="Lapplægret" />
		<tag k="place" v="locality" />
		<tag k="ssr:stedsnr" v="745430" />
	</node>
	<node id="9886499576" lat="68.0463611" lon="15.4188251" version="1" timestamp="2022-07-14T05:47:07Z" changeset="123590402" uid="3497659" user="NKA">
		<tag k="name" v="Ekra" />
		<tag k="place" v="farm" />
		<tag k="ssr:stedsnr" v="684938" />
	</node>
	<node id="9886499577" lat="68.1188806" lon="15.8634527" version="1" timestamp="2022-07-14T05:47:07Z" changeset="123590402" uid="3497659" user="NKA">
		<tag k="name" v="Stranda" />
		<tag k="place" v="farm" />
		<tag k="ssr:stedsnr" v="684642" />
	</node>
	<node id="9886499578" lat="68.1935195" lon="16.0555056" version="1" timestamp="2022-07-14T05:47:07Z" changeset="123590402" uid="3497659" user="NKA">
		<tag k="name" v="Fortun" />
		<tag k="place" v="isolated_dwelling" />
		<tag k="ssr:stedsnr" v="810655" />
	</node>
	<node id="9886499579" lat="67.8738477" lon="15.8863207" version="1" timestamp="2022-07-14T05:47:07Z" changeset="123590402" uid="3497659" user="NKA">
		<tag k="name" v="Strindberg" />
		<tag k="place" v="farm" />
		<tag k="ssr:stedsnr" v="684407" />
	</node>
	<node id="9886499580" lat="67.9638897" lon="16.359546" version="1" timestamp="2022-07-14T05:47:07Z" changeset="123590402" uid="3497659" user="NKA">
		<tag k="name" v="Lønes" />
		<tag k="place" v="farm" />
		<tag k="ssr:stedsnr" v="446900" />
	</node>
	<node id="9886499581" lat="67.8515611" lon="15.9612806" version="1" timestamp="2022-07-14T05:47:07Z" changeset="123590402" uid="3497659" user="NKA">
		<tag k="name" v="Sørsandøyra" />
		<tag k="place" v="farm" />
		<tag k="ssr:stedsnr" v="502464" />
	</node>
	<node id="9886499582" lat="68.1295278" lon="15.6120916" version="1" timestamp="2022-07-14T05:47:07Z" changeset="123590402" uid="3497659" user="NKA">
		<tag k="name" v="Formo" />
		<tag k="place" v="farm" />
		<tag k="ssr:stedsnr" v="684009" />
	</node>
	<node id="9886499583" lat="68.0874067" lon="15.8707723" version="1" timestamp="2022-07-14T05:47:07Z" changeset="123590402" uid="3497659" user="NKA">
		<tag k="name" v="Heggli" />
		<tag k="place" v="farm" />
		<tag k="ssr:stedsnr" v="594951" />
	</node>
	<node id="9886499584" lat="68.1349139" lon="15.4252554" version="1" timestamp="2022-07-14T05:47:07Z" changeset="123590402" uid="3497659" user="NKA">
		<tag k="alt_name" v="Trondhamn" />
		<tag k="name" v="Tronhamn" />
		<tag k="place" v="farm" />
		<tag k="ssr:stedsnr" v="684099" />
	</node>
	<node id="9886499585" lat="68.0779666" lon="15.5789473" version="1" timestamp="2022-07-14T05:47:07Z" changeset="123590402" uid="3497659" user="NKA">
		<tag k="name" v="Uteidsjøen" />
		<tag k="place" v="isolated_dwelling" />
		<tag k="ssr:stedsnr" v="581479" />
	</node>
	<node id="9886499586" lat="68.2451444" lon="16.0601195" version="1" timestamp="2022-07-14T05:47:07Z" changeset="123590402" uid="3497659" user="NKA">
		<tag k="name" v="Oldervika" />
		<tag k="place" v="farm" />
		<tag k="ssr:stedsnr" v="745864" />
	</node>
	<node id="9886499587" lat="68.0455363" lon="15.4079812" version="1" timestamp="2022-07-14T05:47:07Z" changeset="123590402" uid="3497659" user="NKA">
		<tag k="alt_name" v="Nordre Finset" />
		<tag k="name" v="Nordre Finnset" />
		<tag k="place" v="farm" />
		<tag k="ssr:stedsnr" v="520045" />
	</node>
	<node id="9886499588" lat="68.0947778" lon="15.625686" version="1" timestamp="2022-07-14T05:47:07Z" changeset="123590402" uid="3497659" user="NKA">
		<tag k="alt_name" v="Kleiva" />
		<tag k="name" v="Bakken" />
		<tag k="place" v="farm" />
		<tag k="ssr:stedsnr" v="441638" />
	</node>
	<node id="9886499589" lat="68.1728139" lon="15.6621667" version="1" timestamp="2022-07-14T05:47:07Z" changeset="123590402" uid="3497659" user="NKA">
		<tag k="name" v="Myrvoll" />
		<tag k="place" v="farm" />
		<tag k="ssr:stedsnr" v="381803" />
	</node>
	<node id="9886499590" lat="68.2312972" lon="16.0593527" version="1" timestamp="2022-07-14T05:47:07Z" changeset="123590402" uid="3497659" user="NKA">
		<tag k="name" v="Kleiva" />
		<tag k="place" v="farm" />
		<tag k="ssr:stedsnr" v="684827" />
	</node>
	<node id="9886499591" lat="68.1783143" lon="16.0295968" version="1" timestamp="2022-07-14T05:47:07Z" changeset="123590402" uid="3497659" user="NKA">
		<tag k="name" v="Båddnå - Botn" />
		<tag k="name:no" v="Botn" />
		<tag k="name:smj" v="Båddnå" />
		<tag k="place" v="hamlet" />
		<tag k="ssr:stedsnr" v="666306" />
	</node>
	<node id="9886499592" lat="68.1098528" lon="15.8416417" version="1" timestamp="2022-07-14T05:47:07Z" changeset="123590402" uid="3497659" user="NKA">
		<tag k="name" v="Grimsosen" />
		<tag k="place" v="farm" />
		<tag k="ssr:stedsnr" v="867673" />
	</node>
	<node id="9886499593" lat="68.141525" lon="15.9284055" version="1" timestamp="2022-07-14T05:47:07Z" changeset="123590402" uid="3497659" user="NKA">
		<tag k="name" v="Åsheim" />
		<tag k="place" v="locality" />
		<tag k="ssr:stedsnr" v="320742" />
	</node>
	<node id="9886499594" lat="68.1590687" lon="15.9212413" version="1" timestamp="2022-07-14T05:47:07Z" changeset="123590402" uid="3497659" user="NKA">
		<tag k="name" v="Nordkil" />
		<tag k="place" v="hamlet" />
		<tag k="ssr:stedsnr" v="745808" />
	</node>
	<node id="9886499595" lat="68.1784194" lon="16.0374361" version="1" timestamp="2022-07-14T05:47:07Z" changeset="123590402" uid="3497659" user="NKA">
		<tag k="name" v="Nerbotn" />
		<tag k="place" v="farm" />
		<tag k="ssr:stedsnr" v="320779" />
	</node>
	<node id="9886499596" lat="68.1181944" lon="16.03975" version="1" timestamp="2022-07-14T05:47:07Z" changeset="123590402" uid="3497659" user="NKA">
		<tag k="name" v="Akkasokka" />
		<tag k="place" v="isolated_dwelling" />
		<tag k="ssr:stedsnr" v="260675" />
	</node>
	<node id="9886499597" lat="67.851143" lon="15.9593489" version="1" timestamp="2022-07-14T05:47:07Z" changeset="123590402" uid="3497659" user="NKA">
		<tag k="name" v="Girkkovárre - Kjerkfjell" />
		<tag k="name:no" v="Kjerkfjell" />
		<tag k="name:smj" v="Girkkovárre" />
		<tag k="old_name:smj" v="Girkovárri" />
		<tag k="place" v="farm" />
		<tag k="ssr:stedsnr" v="77472" />
	</node>
	<node id="9886499598" lat="67.9119903" lon="15.8487088" version="1" timestamp="2022-07-14T05:47:07Z" changeset="123590402" uid="3497659" user="NKA">
		<tag k="name" v="Lia" />
		<tag k="place" v="hamlet" />
		<tag k="ssr:stedsnr" v="259395" />
	</node>
	<node id="9886499599" lat="68.1597666" lon="15.9116777" version="1" timestamp="2022-07-14T05:47:07Z" changeset="123590402" uid="3497659" user="NKA">
		<tag k="name" v="Vangen" />
		<tag k="place" v="farm" />
		<tag k="ssr:stedsnr" v="320769" />
	</node>
	<node id="9886499600" lat="68.099606" lon="15.8103651" version="1" timestamp="2022-07-14T05:47:07Z" changeset="123590402" uid="3497659" user="NKA">
		<tag k="alt_name" v="Jørenvik;Jørnvik" />
		<tag k="name" v="Jørenvika" />
		<tag k="place" v="hamlet" />
		<tag k="ssr:stedsnr" v="684652" />
	</node>
	<node id="9886499601" lat="68.2078574" lon="16.0924118" version="1" timestamp="2022-07-14T05:47:07Z" changeset="123590402" uid="3497659" user="NKA">
		<tag k="name" v="Østvika" />
		<tag k="place" v="farm" />
		<tag k="ssr:stedsnr" v="82691" />
	</node>
	<node id="9886499602" lat="68.1628166" lon="15.9539279" version="1" timestamp="2022-07-14T05:47:07Z" changeset="123590402" uid="3497659" user="NKA">
		<tag k="name" v="Åsgård" />
		<tag k="place" v="farm" />
		<tag k="ssr:stedsnr" v="49892" />
	</node>
	<node id="9886499603" lat="68.1579962" lon="15.817766" version="1" timestamp="2022-07-14T05:47:07Z" changeset="123590402" uid="3497659" user="NKA">
		<tag k="name" v="Tannøya" />
		<tag k="place" v="farm" />
		<tag k="ssr:stedsnr" v="259717" />
	</node>
	<node id="9886499604" lat="67.9080611" lon="15.801511" version="1" timestamp="2022-07-14T05:47:07Z" changeset="123590402" uid="3497659" user="NKA">
		<tag k="name" v="Gjetarhytta" />
		<tag k="place" v="locality" />
		<tag k="ssr:stedsnr" v="776857" />
	</node>
	<node id="9886499605" lat="67.9887028" lon="16.3480749" version="1" timestamp="2022-07-14T05:47:07Z" changeset="123590402" uid="3497659" user="NKA">
		<tag k="name" v="Lásluokta - Lossvika" />
		<tag k="name:no" v="Lossvika" />
		<tag k="name:smj" v="Lásluokta" />
		<tag k="place" v="hamlet" />
		<tag k="ssr:stedsnr" v="927321" />
	</node>
	<node id="9886499606" lat="68.2024808" lon="16.0681698" version="1" timestamp="2022-07-14T05:47:07Z" changeset="123590402" uid="3497659" user="NKA">
		<tag k="name" v="Søndre Storjorda" />
		<tag k="place" v="farm" />
		<tag k="ssr:stedsnr" v="1079923" />
	</node>
	<node id="9886499607" lat="67.9490599" lon="15.8961855" version="1" timestamp="2022-07-14T05:47:07Z" changeset="123590402" uid="3497659" user="NKA">
		<tag k="name" v="Steinbakken" />
		<tag k="place" v="hamlet" />
		<tag k="ssr:stedsnr" v="745629" />
	</node>
	<node id="9886499608" lat="68.1462834" lon="15.9117668" version="1" timestamp="2022-07-14T05:47:07Z" changeset="123590402" uid="3497659" user="NKA">
		<tag k="name" v="Skogvoll" />
		<tag k="place" v="farm" />
		<tag k="ssr:stedsnr" v="199755" />
	</node>
	<node id="9886499609" lat="67.9311944" lon="16.4109194" version="1" timestamp="2022-07-14T05:47:07Z" changeset="123590402" uid="3497659" user="NKA">
		<tag k="name" v="Davve-Bælgga - Ytter-Bælka" />
		<tag k="name:no" v="Ytter-Bælka" />
		<tag k="name:smj" v="Davve-Bælgga" />
		<tag k="place" v="locality" />
		<tag k="ssr:stedsnr" v="381343" />
	</node>
	<node id="9886499610" lat="68.0688778" lon="15.4526889" version="1" timestamp="2022-07-14T05:47:07Z" changeset="123590402" uid="3497659" user="NKA">
		<tag k="name" v="Bjørkli" />
		<tag k="place" v="farm" />
		<tag k="ssr:stedsnr" v="17970" />
	</node>
	<node id="9886499611" lat="67.8140583" lon="16.5161111" version="1" timestamp="2022-07-14T05:47:07Z" changeset="123590402" uid="3497659" user="NKA">
		<tag k="name" v="Vuodnabahta - Hellmobotn" />
		<tag k="name:no" v="Hellmobotn" />
		<tag k="name:smj" v="Vuodnabahta" />
		<tag k="place" v="hamlet" />
		<tag k="ssr:stedsnr" v="77135" />
	</node>
	<node id="9886499612" lat="68.0086889" lon="15.3989944" version="1" timestamp="2022-07-14T05:47:07Z" changeset="123590402" uid="3497659" user="NKA">
		<tag k="name" v="Frydenlund" />
		<tag k="place" v="farm" />
		<tag k="ssr:stedsnr" v="685873" />
	</node>
	<node id="9886499613" lat="68.1085604" lon="15.510142" version="1" timestamp="2022-07-14T05:47:07Z" changeset="123590402" uid="3497659" user="NKA">
		<tag k="name" v="Nålnes" />
		<tag k="place" v="farm" />
		<tag k="ssr:stedsnr" v="684026" />
	</node>
	<node id="9886499614" lat="68.1651889" lon="15.9594" version="1" timestamp="2022-07-14T05:47:07Z" changeset="123590402" uid="3497659" user="NKA">
		<tag k="name" v="Borterstua" />
		<tag k="place" v="farm" />
		<tag k="ssr:stedsnr" v="567697" />
	</node>
	<node id="9886499615" lat="68.190425" lon="16.0170555" version="1" timestamp="2022-07-14T05:47:07Z" changeset="123590402" uid="3497659" user="NKA">
		<tag k="name" v="Dalheim" />
		<tag k="place" v="farm" />
		<tag k="ssr:stedsnr" v="810660" />
	</node>
	<node id="9886499616" lat="68.1653165" lon="15.9538277" version="1" timestamp="2022-07-14T05:47:07Z" changeset="123590402" uid="3497659" user="NKA">
		<tag k="name" v="Ranheim" />
		<tag k="place" v="isolated_dwelling" />
		<tag k="ssr:stedsnr" v="777873" />
	</node>
	<node id="9886499617" lat="68.1430453" lon="15.5788917" version="1" timestamp="2022-07-14T05:47:07Z" changeset="123590402" uid="3497659" user="NKA">
		<tag k="alt_name" v="Røsnes" />
		<tag k="name" v="Røssnes" />
		<tag k="place" v="farm" />
		<tag k="ssr:stedsnr" v="805097" />
	</node>
	<node id="9886499618" lat="68.1046546" lon="15.5828653" version="1" timestamp="2022-07-14T05:47:07Z" changeset="123590402" uid="3497659" user="NKA">
		<tag k="alt_name" v="Urdahl" />
		<tag k="name" v="Urdal" />
		<tag k="place" v="farm" />
		<tag k="ssr:stedsnr" v="170383" />
	</node>
	<node id="9886499619" lat="68.1150278" lon="15.8682917" version="1" timestamp="2022-07-14T05:47:07Z" changeset="123590402" uid="3497659" user="NKA">
		<tag k="name" v="Solhaug" />
		<tag k="place" v="farm" />
		<tag k="ssr:stedsnr" v="745686" />
	</node>
	<node id="9886499620" lat="68.0350282" lon="15.9252847" version="1" timestamp="2022-07-14T05:47:07Z" changeset="123590402" uid="3497659" user="NKA">
		<tag k="alt_name" v="Korsvik" />
		<tag k="name" v="Korsvika" />
		<tag k="place" v="locality" />
		<tag k="ssr:stedsnr" v="745552" />
	</node>
	<node id="9886499621" lat="67.9928899" lon="15.6092735" version="1" timestamp="2022-07-14T05:47:07Z" changeset="123590402" uid="3497659" user="NKA">
		<tag k="alt_name" v="Troskog" />
		<tag k="name" v="Troskogen" />
		<tag k="place" v="farm" />
		<tag k="ssr:stedsnr" v="745916" />
	</node>
	<node id="9886499622" lat="68.0524" lon="16.3181528" version="1" timestamp="2022-07-14T05:47:07Z" changeset="123590402" uid="3497659" user="NKA">
		<tag k="name" v="Furuheim" />
		<tag k="place" v="farm" />
		<tag k="ssr:stedsnr" v="380544" />
	</node>
	<node id="9886499623" lat="68.115675" lon="15.8691888" version="1" timestamp="2022-07-14T05:47:07Z" changeset="123590402" uid="3497659" user="NKA">
		<tag k="name" v="Skogmo" />
		<tag k="place" v="farm" />
		<tag k="ssr:stedsnr" v="745683" />
	</node>
	<node id="9886499624" lat="68.1462472" lon="15.9076194" version="1" timestamp="2022-07-14T05:47:07Z" changeset="123590402" uid="3497659" user="NKA">
		<tag k="name" v="Veum" />
		<tag k="place" v="farm" />
		<tag k="ssr:stedsnr" v="562715" />
	</node>
	<node id="9886499625" lat="68.0863584" lon="15.9659389" version="1" timestamp="2022-07-14T05:47:07Z" changeset="123590402" uid="3497659" user="NKA">
		<tag k="name" v="Tørpelvatnet" />
		<tag k="place" v="isolated_dwelling" />
		<tag k="ssr:stedsnr" v="157023" />
	</node>
	<node id="9886499626" lat="68.1069075" lon="15.6843324" version="1" timestamp="2022-07-14T05:47:07Z" changeset="123590402" uid="3497659" user="NKA">
		<tag k="name" v="Store Tømmerås" />
		<tag k="place" v="farm" />
		<tag k="ssr:stedsnr" v="703027" />
	</node>
	<node id="9886499627" lat="68.2364833" lon="15.9644209" version="1" timestamp="2022-07-14T05:47:07Z" changeset="123590402" uid="3497659" user="NKA">
		<tag k="name" v="Molvika" />
		<tag k="place" v="hamlet" />
		<tag k="ssr:stedsnr" v="684849" />
	</node>
	<node id="9886499628" lat="68.0485501" lon="16.0515457" version="1" timestamp="2022-07-14T05:47:07Z" changeset="123590402" uid="3497659" user="NKA">
		<tag k="name" v="Øyvollen" />
		<tag k="place" v="farm" />
		<tag k="ssr:stedsnr" v="567652" />
	</node>
	<node id="9886499629" lat="68.0640166" lon="16.650261" version="1" timestamp="2022-07-14T05:47:07Z" changeset="123590402" uid="3497659" user="NKA">
		<tag k="name" v="Nygård" />
		<tag k="place" v="farm" />
		<tag k="ssr:stedsnr" v="810785" />
	</node>
	<node id="9886499630" lat="68.0402463" lon="15.4113341" version="1" timestamp="2022-07-14T05:47:07Z" changeset="123590402" uid="3497659" user="NKA">
		<tag k="alt_name" v="Søre Finnset;Finset" />
		<tag k="name" v="Finnset" />
		<tag k="place" v="farm" />
		<tag k="ssr:stedsnr" v="684934" />
	</node>
	<node id="9886499631" lat="68.0818465" lon="15.8938457" version="1" timestamp="2022-07-14T05:47:07Z" changeset="123590402" uid="3497659" user="NKA">
		<tag k="name" v="Skogheim" />
		<tag k="place" v="farm" />
		<tag k="ssr:stedsnr" v="595319" />
	</node>
	<node id="9886499632" lat="68.0722174" lon="15.4441187" version="1" timestamp="2022-07-14T05:47:07Z" changeset="123590402" uid="3497659" user="NKA">
		<tag k="alt_name" v="Fjell;Hoffmannsfjellet" />
		<tag k="name" v="Hoffmannsfjell" />
		<tag k="place" v="farm" />
		<tag k="ssr:stedsnr" v="684984" />
	</node>
	<node id="9886499633" lat="68.1608111" lon="15.9168612" version="1" timestamp="2022-07-14T05:47:07Z" changeset="123590402" uid="3497659" user="NKA">
		<tag k="name" v="Høgtun" />
		<tag k="place" v="farm" />
		<tag k="ssr:stedsnr" v="684765" />
	</node>
	<node id="9886499634" lat="68.0881008" lon="15.5831923" version="1" timestamp="2022-07-14T05:47:07Z" changeset="123590402" uid="3497659" user="NKA">
		<tag k="alt_name" v="Gjelseng" />
		<tag k="name" v="Hjelsenga" />
		<tag k="place" v="hamlet" />
		<tag k="ssr:stedsnr" v="502997" />
	</node>
	<node id="9886499635" lat="68.0977399" lon="15.6181692" version="1" timestamp="2022-07-14T05:47:07Z" changeset="123590402" uid="3497659" user="NKA">
		<tag k="name" v="Haugly" />
		<tag k="place" v="farm" />
		<tag k="ssr:stedsnr" v="838396" />
	</node>
	<node id="9886499636" lat="68.0715528" lon="15.4641668" version="1" timestamp="2022-07-14T05:47:07Z" changeset="123590402" uid="3497659" user="NKA">
		<tag k="name" v="Nymoen" />
		<tag k="place" v="farm" />
		<tag k="ssr:stedsnr" v="684980" />
	</node>
	<node id="9886499637" lat="68.0779038" lon="15.9135807" version="1" timestamp="2022-07-14T05:47:07Z" changeset="123590402" uid="3497659" user="NKA">
		<tag k="name" v="Solvang" />
		<tag k="place" v="farm" />
		<tag k="ssr:stedsnr" v="595322" />
	</node>
	<node id="9886499638" lat="68.1631593" lon="15.7069242" version="1" timestamp="2022-07-14T05:47:07Z" changeset="123590402" uid="3497659" user="NKA">
		<tag k="name" v="Fjøshågen" />
		<tag k="place" v="farm" />
		<tag k="ssr:stedsnr" v="898198" />
	</node>
	<node id="9886499639" lat="68.1480528" lon="15.8925278" version="1" timestamp="2022-07-14T05:47:07Z" changeset="123590402" uid="3497659" user="NKA">
		<tag k="name" v="Skoglund" />
		<tag k="place" v="farm" />
		<tag k="ssr:stedsnr" v="502760" />
	</node>
	<node id="9886499640" lat="68.1194674" lon="16.0132785" version="1" timestamp="2022-07-14T05:47:07Z" changeset="123590402" uid="3497659" user="NKA">
		<tag k="name" v="Åmo" />
		<tag k="place" v="locality" />
		<tag k="ssr:stedsnr" v="623679" />
	</node>
	<node id="9886499641" lat="68.0284058" lon="15.3373792" version="1" timestamp="2022-07-14T05:47:07Z" changeset="123590402" uid="3497659" user="NKA">
		<tag k="name" v="Haugen" />
		<tag k="place" v="farm" />
		<tag k="ssr:stedsnr" v="594228" />
	</node>
	<node id="9886499642" lat="68.2520584" lon="16.0565746" version="1" timestamp="2022-07-14T05:47:07Z" changeset="123590402" uid="3497659" user="NKA">
		<tag k="name" v="Hierenjárgga - Korsnes" />
		<tag k="name:no" v="Korsnes" />
		<tag k="name:smj" v="Hierenjárgga" />
		<tag k="place" v="village" />
		<tag k="ssr:stedsnr" v="356737" />
	</node>
	<node id="9886499643" lat="67.856425" lon="16.0086417" version="1" timestamp="2022-07-14T05:47:07Z" changeset="123590402" uid="3497659" user="NKA">
		<tag k="name" v="Lappjorda" />
		<tag k="place" v="farm" />
		<tag k="ssr:stedsnr" v="259440" />
	</node>
	<node id="9886499644" lat="68.1481312" lon="15.9803236" version="1" timestamp="2022-07-14T05:47:07Z" changeset="123590402" uid="3497659" user="NKA">
		<tag k="name" v="Lelljorda" />
		<tag k="place" v="locality" />
		<tag k="ssr:stedsnr" v="534699" />
	</node>
	<node id="9886499645" lat="68.1474584" lon="16.1174695" version="1" timestamp="2022-07-14T05:47:07Z" changeset="123590402" uid="3497659" user="NKA">
		<tag k="name" v="Tjukkskogen" />
		<tag k="place" v="locality" />
		<tag k="ssr:stedsnr" v="381723" />
	</node>
	<node id="9886499646" lat="68.1870644" lon="16.0185823" version="1" timestamp="2022-07-14T05:47:07Z" changeset="123590402" uid="3497659" user="NKA">
		<tag k="name" v="Litl Botn" />
		<tag k="place" v="farm" />
		<tag k="ssr:stedsnr" v="218207" />
	</node>
	<node id="9886499647" lat="68.1650002" lon="15.9563047" version="1" timestamp="2022-07-14T05:47:07Z" changeset="123590402" uid="3497659" user="NKA">
		<tag k="name" v="Nerstua" />
		<tag k="place" v="farm" />
		<tag k="ssr:stedsnr" v="230896" />
	</node>
	<node id="9886499648" lat="68.0472292" lon="15.4299217" version="1" timestamp="2022-07-14T05:47:07Z" changeset="123590402" uid="3497659" user="NKA">
		<tag k="name" v="Solstad" />
		<tag k="place" v="farm" />
		<tag k="ssr:stedsnr" v="473198" />
	</node>
	<node id="9886499649" lat="68.2251155" lon="16.0496097" version="1" timestamp="2022-07-14T05:47:07Z" changeset="123590402" uid="3497659" user="NKA">
		<tag k="name" v="Ytre Leiknesbø" />
		<tag k="place" v="farm" />
		<tag k="ssr:stedsnr" v="218094" />
	</node>
	<node id="9886499650" lat="68.1330316" lon="15.9921854" version="1" timestamp="2022-07-14T05:47:07Z" changeset="123590402" uid="3497659" user="NKA">
		<tag k="alt_name" v="Kilneset" />
		<tag k="name" v="Kilnes" />
		<tag k="place" v="farm" />
		<tag k="ssr:stedsnr" v="199708" />
	</node>
	<node id="9886499651" lat="68.1656894" lon="15.9583553" version="1" timestamp="2022-07-14T05:47:07Z" changeset="123590402" uid="3497659" user="NKA">
		<tag k="alt_name" v="Tortenås" />
		<tag k="name" v="Tortenåsen" />
		<tag k="place" v="hamlet" />
		<tag k="ssr:stedsnr" v="259766" />
	</node>
	<node id="9886499652" lat="68.0868666" lon="15.8798779" version="1" timestamp="2022-07-14T05:47:07Z" changeset="123590402" uid="3497659" user="NKA">
		<tag k="alt_name" v="Skilvassbakk" />
		<tag k="name" v="Østre Skilvassbakk" />
		<tag k="place" v="farm" />
		<tag k="ssr:stedsnr" v="259632" />
	</node>
	<node id="9886499653" lat="67.8587612" lon="15.9781573" version="1" timestamp="2022-07-14T05:47:07Z" changeset="123590402" uid="3497659" user="NKA">
		<tag k="name" v="Sáttonjárgga - Sandnes" />
		<tag k="name:no" v="Sandnes" />
		<tag k="name:smj" v="Sáttonjárgga" />
		<tag k="old_name:smj" v="Sáttonjárga" />
		<tag k="place" v="hamlet" />
		<tag k="ssr:stedsnr" v="502443" />
	</node>
	<node id="9886499654" lat="68.1759444" lon="16.0494167" version="1" timestamp="2022-07-14T05:47:07Z" changeset="123590402" uid="3497659" user="NKA">
		<tag k="name" v="Elvegård" />
		<tag k="place" v="farm" />
		<tag k="ssr:stedsnr" v="147945" />
	</node>
	<node id="9886499655" lat="67.9095111" lon="15.8651166" version="1" timestamp="2022-07-14T05:47:07Z" changeset="123590402" uid="3497659" user="NKA">
		<tag k="name" v="Sagmoa" />
		<tag k="place" v="farm" />
		<tag k="ssr:stedsnr" v="170980" />
	</node>
	<node id="9886499656" lat="67.9194378" lon="15.8865013" version="1" timestamp="2022-07-14T05:47:07Z" changeset="123590402" uid="3497659" user="NKA">
		<tag k="name" v="Vuohppe - Tømmerneset" />
		<tag k="name:no" v="Tømmerneset" />
		<tag k="name:smj" v="Vuohppe" />
		<tag k="old_name:smj" v="Vuohppi" />
		<tag k="place" v="farm" />
		<tag k="ssr:stedsnr" v="441390" />
	</node>
	<node id="9886499657" lat="68.1538548" lon="15.6664618" version="1" timestamp="2022-07-14T05:47:07Z" changeset="123590402" uid="3497659" user="NKA">
		<tag k="name" v="Ájládde - Helland" />
		<tag k="name:no" v="Helland" />
		<tag k="name:smj" v="Ájládde" />
		<tag k="place" v="hamlet" />
		<tag k="ssr:stedsnr" v="502744" />
	</node>
	<node id="9886499658" lat="67.8643339" lon="15.9426326" version="1" timestamp="2022-07-14T05:47:07Z" changeset="123590402" uid="3497659" user="NKA">
		<tag k="name" v="Sagvatnet" />
		<tag k="place" v="farm" />
		<tag k="ssr:stedsnr" v="1076455" />
	</node>
	<node id="9886499659" lat="68.2324166" lon="16.0606082" version="1" timestamp="2022-07-14T05:47:07Z" changeset="123590402" uid="3497659" user="NKA">
		<tag k="name" v="Stranda" />
		<tag k="place" v="hamlet" />
		<tag k="ssr:stedsnr" v="87944" />
	</node>
	<node id="9886499660" lat="67.8867217" lon="15.87295" version="1" timestamp="2022-07-14T05:47:07Z" changeset="123590402" uid="3497659" user="NKA">
		<tag k="name" v="Rotvatnet" />
		<tag k="place" v="locality" />
		<tag k="ssr:stedsnr" v="1076457" />
	</node>
	<node id="9886499661" lat="68.1608861" lon="15.9479278" version="1" timestamp="2022-07-14T05:47:07Z" changeset="123590402" uid="3497659" user="NKA">
		<tag k="name" v="Lundås" />
		<tag k="place" v="farm" />
		<tag k="ssr:stedsnr" v="137727" />
	</node>
	<node id="9886499662" lat="68.1796796" lon="16.1050297" version="1" timestamp="2022-07-14T05:47:07Z" changeset="123590402" uid="3497659" user="NKA">
		<tag k="name" v="Mellom-Kalvika" />
		<tag k="place" v="farm" />
		<tag k="ssr:stedsnr" v="981934" />
	</node>
	<node id="9886499663" lat="68.17826" lon="16.1007983" version="1" timestamp="2022-07-14T05:47:07Z" changeset="123590402" uid="3497659" user="NKA">
		<tag k="name" v="Øver-Kalvika" />
		<tag k="place" v="farm" />
		<tag k="ssr:stedsnr" v="981936" />
	</node>
	<node id="9886499664" lat="68.0865673" lon="15.6950333" version="1" timestamp="2022-07-14T05:47:07Z" changeset="123590402" uid="3497659" user="NKA">
		<tag k="alt_name" v="Finnvik" />
		<tag k="name" v="Finnvika" />
		<tag k="place" v="hamlet" />
		<tag k="ssr:stedsnr" v="866611" />
	</node>
	<node id="9886499665" lat="68.1305322" lon="15.7133219" version="1" timestamp="2022-07-14T05:47:07Z" changeset="123590402" uid="3497659" user="NKA">
		<tag k="name" v="Buneset" />
		<tag k="place" v="farm" />
		<tag k="ssr:stedsnr" v="716639" />
	</node>
	<node id="9886499666" lat="68.1067454" lon="15.6684904" version="1" timestamp="2022-07-14T05:47:07Z" changeset="123590402" uid="3497659" user="NKA">
		<tag k="name" v="Stranden" />
		<tag k="place" v="locality" />
		<tag k="ssr:stedsnr" v="716334" />
	</node>
	<node id="9886499667" lat="68.1535555" lon="16.1220889" version="1" timestamp="2022-07-14T05:47:07Z" changeset="123590402" uid="3497659" user="NKA">
		<tag k="name" v="Forsa" />
		<tag k="place" v="farm" />
		<tag k="ssr:stedsnr" v="866733" />
	</node>
	<node id="9886499668" lat="68.0802835" lon="15.6249611" version="1" timestamp="2022-07-14T05:47:07Z" changeset="123590402" uid="3497659" user="NKA">
		<tag k="name" v="Presteidskogen" />
		<tag k="place" v="neighbourhood" />
		<tag k="ssr:stedsnr" v="716131" />
	</node>
	<node id="9886499669" lat="68.0875035" lon="15.8752359" version="1" timestamp="2022-07-14T05:47:07Z" changeset="123590402" uid="3497659" user="NKA">
		<tag k="name" v="Skilvassbakk" />
		<tag k="place" v="hamlet" />
		<tag k="ssr:stedsnr" v="1076446" />
	</node>
	<node id="9886499670" lat="67.9241833" lon="15.890839" version="1" timestamp="2022-07-14T05:47:07Z" changeset="123590402" uid="3497659" user="NKA">
		<tag k="name" v="Storlagmannnsvika" />
		<tag k="place" v="farm" />
		<tag k="ssr:stedsnr" v="562389" />
	</node>
	<node id="9886499671" lat="68.1365187" lon="15.8952158" version="1" timestamp="2022-07-14T05:47:07Z" changeset="123590402" uid="3497659" user="NKA">
		<tag k="name" v="Sørkil" />
		<tag k="place" v="hamlet" />
		<tag k="ssr:stedsnr" v="745713" />
	</node>
	<node id="9886499672" lat="68.139217" lon="15.6306454" version="1" timestamp="2022-07-14T05:47:07Z" changeset="123590402" uid="3497659" user="NKA">
		<tag k="alt_name" v="Brennvik" />
		<tag k="name" v="Brennvika" />
		<tag k="place" v="hamlet" />
		<tag k="ssr:stedsnr" v="199716" />
	</node>
	<node id="9886499673" lat="68.089125" lon="16.0987806" version="1" timestamp="2022-07-14T05:47:07Z" changeset="123590402" uid="3497659" user="NKA">
		<tag k="name" v="Storvika" />
		<tag k="place" v="farm" />
		<tag k="ssr:stedsnr" v="745627" />
	</node>
	<node id="9886499674" lat="68.1154346" lon="15.6037877" version="1" timestamp="2022-07-14T05:47:07Z" changeset="123590402" uid="3497659" user="NKA">
		<tag k="alt_name" v="Hesskog" />
		<tag k="name" v="Hesskogen" />
		<tag k="place" v="farm" />
		<tag k="ssr:stedsnr" v="199032" />
	</node>
	<node id="9886499675" lat="68.1225817" lon="15.6693009" version="1" timestamp="2022-07-14T05:47:07Z" changeset="123590402" uid="3497659" user="NKA">
		<tag k="name" v="Vassbotn" />
		<tag k="place" v="hamlet" />
		<tag k="ssr:stedsnr" v="199735" />
	</node>
	<node id="9886499676" lat="68.1871419" lon="16.1044909" version="1" timestamp="2022-07-14T05:47:07Z" changeset="123590402" uid="3497659" user="NKA">
		<tag k="name" v="Ner-Kalvika" />
		<tag k="place" v="farm" />
		<tag k="ssr:stedsnr" v="981932" />
	</node>
	<node id="6511987745" lat="68.0837921" lon="15.6504783" version="1" timestamp="2019-05-30T18:43:39Z" changeset="70782912" uid="395141" user="Tractor" />
	<node id="6511987747" lat="68.0828335" lon="15.6513341" version="1" timestamp="2019-05-30T18:43:39Z" changeset="70782912" uid="395141" user="Tractor" />
	<node id="4225826274" lat="67.8080896" lon="16.528464" version="2" timestamp="2017-07-13T10:05:28Z" changeset="50253676" uid="5732597" user="ENTUR Johan Wiklund" />
	<node id="4225826277" lat="67.8082898" lon="16.528567" version="3" timestamp="2020-10-17T17:17:44Z" changeset="92636510" uid="32112" user="SverigeFan" />
	<way id="392174939" version="5" timestamp="2022-05-18T16:09:41Z" changeset="121155037" uid="3497659" user="NKA">
		<tag k="bridge" v="yes" />
		<tag k="bridge:description" v="Presteidstrømmen" />
		<tag k="bridge:structure" v="suspension" />
		<tag k="highway" v="primary" />
		<tag k="layer" v="1" />
		<tag k="maxspeed" v="50" />
		<tag k="name" v="Presteidbrua" />
		<tag k="ref" v="81" />
		<tag k="ssr:stedsnr" v="49156" />
		<nd ref="6511987747" />
		<nd ref="6511987745" />
	</way>
	<way id="507264793" version="2" timestamp="2022-01-24T06:56:00Z" changeset="116526664" uid="3497659" user="NKA">
		<tag k="bridge" v="yes" />
		<tag k="fixme" v="refine;resurvey" />
		<tag k="highway" v="path" />
		<tag k="layer" v="1" />
		<tag k="name" v="Stuorråvve" />
		<tag k="name:smj" v="Stuorråvve" />
		<tag k="ssr:stedsnr" v="143927" />
		<nd ref="4225826277" />
		<nd ref="4225826274" />
	</way>
</osm>
