<?xml version="1.0" encoding="UTF-8"?>
<osm version="0.6" generator="osmapis">
	<node id="135642422" lat="62.6751972" lon="8.5632934" version="12" timestamp="2022-08-03T05:34:06Z" changeset="124417792" uid="3497659" user="NKA">
		<tag k="name" v="Sunndalsøra" />
		<tag k="place" v="town" />
		<tag k="population" v="3930" />
		<tag k="population:date" v="2021-01-01" />
		<tag k="ref:ssb_tettsted" v="6283" />
		<tag k="source:population" v="SSB - befolkning i tettstedet" />
		<tag k="ssr:stedsnr" v="801046" />
	</node>
	<node id="191725639" lat="62.7180968" lon="8.4306569" version="3" timestamp="2022-08-03T05:34:06Z" changeset="124417792" uid="3497659" user="NKA">
		<tag k="name" v="Øksendal" />
		<tag k="place" v="village" />
		<tag k="ssr:stedsnr" v="142707" />
	</node>
	<node id="257422685" lat="62.8397991" lon="8.521274" version="6" timestamp="2022-08-03T05:34:06Z" changeset="124417792" uid="3497659" user="NKA">
		<tag k="alt_name" v="Ålvundfjord" />
		<tag k="name" v="Ålvund" />
		<tag k="place" v="village" />
		<tag k="ssr:stedsnr" v="862360" />
	</node>
	<node id="257422687" lat="62.76614" lon="8.5338267" version="5" timestamp="2022-08-03T05:34:06Z" changeset="124417792" uid="3497659" user="NKA">
		<tag k="name" v="Ålvundeidet" />
		<tag k="place" v="village" />
		<tag k="ssr:stedsnr" v="566207" />
	</node>
	<node id="383994618" lat="62.4997041" lon="8.970357" version="4" timestamp="2022-08-03T05:34:06Z" changeset="124417792" uid="3497659" user="NKA">
		<tag k="name" v="Røymoen" />
		<tag k="place" v="hamlet" />
		<tag k="ssr:stedsnr" v="263705" />
	</node>
	<node id="383994619" lat="62.4854143" lon="8.9462965" version="3" timestamp="2022-08-03T05:34:06Z" changeset="124417792" uid="3497659" user="NKA">
		<tag k="historic" v="shieling" />
		<tag k="name" v="Hallen" />
		<tag k="place" v="isolated_dwelling" />
		<tag k="ssr:stedsnr" v="72441" />
	</node>
	<node id="577347015" lat="62.7661944" lon="8.3275181" version="3" timestamp="2022-08-03T05:34:06Z" changeset="124417792" uid="3497659" user="NKA">
		<tag k="name" v="Jordalsgrenda" />
		<tag k="place" v="hamlet" />
		<tag k="ssr:stedsnr" v="679352" />
	</node>
	<node id="836897570" lat="62.6287041" lon="8.8652152" version="4" timestamp="2022-08-03T05:34:06Z" changeset="124417792" uid="3497659" user="NKA">
		<tag k="name" v="Fale" />
		<tag k="place" v="hamlet" />
		<tag k="ssr:stedsnr" v="496941" />
	</node>
	<node id="890444440" lat="62.4196491" lon="8.5948121" version="3" timestamp="2022-08-03T05:34:06Z" changeset="124417792" uid="3497659" user="NKA">
		<tag k="abandoned" v="yes" />
		<tag k="historic" v="shieling" />
		<tag k="name" v="Torbuvollen" />
		<tag k="place" v="farm" />
		<tag k="ssr:stedsnr" v="202786" />
	</node>
	<node id="2710942435" lat="62.5487118" lon="9.1125683" version="3" timestamp="2022-08-03T05:34:06Z" changeset="124417792" uid="3497659" user="NKA">
		<tag k="name" v="Gjøra" />
		<tag k="place" v="village" />
		<tag k="ssr:stedsnr" v="545224" />
	</node>
	<node id="2710942444" lat="62.6451441" lon="8.7253901" version="6" timestamp="2022-08-03T05:34:06Z" changeset="124417792" uid="3497659" user="NKA">
		<tag k="name" v="Grøa" />
		<tag k="place" v="village" />
		<tag k="population" v="402" />
		<tag k="population:date" v="2021-01-01" />
		<tag k="ref:ssb_tettsted" v="6281" />
		<tag k="source:population" v="SSB - befolkning i tettstedet" />
		<tag k="ssr:stedsnr" v="618941" />
	</node>
	<node id="2741920899" lat="62.6654102" lon="8.6182534" version="3" timestamp="2022-08-03T05:34:06Z" changeset="124417792" uid="3497659" user="NKA">
		<tag k="alt_name" v="Furugrenda" />
		<tag k="name" v="Furu" />
		<tag k="place" v="hamlet" />
		<tag k="ssr:stedsnr" v="375010" />
	</node>
	<node id="2872509851" lat="62.5810902" lon="9.1228663" version="5" timestamp="2022-08-03T05:34:06Z" changeset="124417792" uid="3497659" user="NKA">
		<tag k="historic" v="shieling" />
		<tag k="name" v="Langbakksetra" />
		<tag k="place" v="isolated_dwelling" />
		<tag k="ssr:stedsnr" v="497774" />
	</node>
	<node id="3054536897" lat="62.5081622" lon="9.0682762" version="2" timestamp="2022-08-03T05:34:06Z" changeset="124417792" uid="3497659" user="NKA">
		<tag k="name" v="Jenstad" />
		<tag k="place" v="hamlet" />
		<tag k="ssr:stedsnr" v="801792" />
	</node>
	<node id="3054536899" lat="62.4987521" lon="9.0638068" version="2" timestamp="2022-08-03T05:34:06Z" changeset="124417792" uid="3497659" user="NKA">
		<tag k="name" v="Lundlia" />
		<tag k="place" v="farm" />
		<tag k="ssr:stedsnr" v="800288" />
	</node>
	<node id="3054539112" lat="62.510797" lon="9.0509779" version="3" timestamp="2022-08-03T05:34:06Z" changeset="124417792" uid="3497659" user="NKA">
		<tag k="alt_name" v="Sveen;Gammel-Svøu" />
		<tag k="name" v="Svøu" />
		<tag k="place" v="farm" />
		<tag k="ssr:stedsnr" v="739832" />
	</node>
	<node id="3054539113" lat="62.513904" lon="9.0534023" version="3" timestamp="2022-08-03T05:34:06Z" changeset="124417792" uid="3497659" user="NKA">
		<tag k="name" v="Svisdalen" />
		<tag k="place" v="hamlet" />
		<tag k="ssr:stedsnr" v="801794" />
	</node>
	<node id="3721104153" lat="62.594438" lon="8.7680966" version="2" timestamp="2022-08-03T05:34:06Z" changeset="124417792" uid="3497659" user="NKA">
		<tag k="name" v="Krokstu" />
		<tag k="place" v="isolated_dwelling" />
		<tag k="ssr:stedsnr" v="632468" />
	</node>
	<node id="3721104154" lat="62.592125" lon="8.773183" version="2" timestamp="2022-08-03T05:34:06Z" changeset="124417792" uid="3497659" user="NKA">
		<tag k="historic" v="shieling" />
		<tag k="name" v="Prestsetra" />
		<tag k="place" v="isolated_dwelling" />
		<tag k="ssr:stedsnr" v="436973" />
	</node>
	<node id="3721104155" lat="62.5923386" lon="8.7698462" version="2" timestamp="2022-08-03T05:34:06Z" changeset="124417792" uid="3497659" user="NKA">
		<tag k="historic" v="shieling" />
		<tag k="name" v="Storsetra" />
		<tag k="place" v="hamlet" />
		<tag k="ssr:stedsnr" v="375964" />
	</node>
	<node id="3722039675" lat="62.6416162" lon="8.7256705" version="2" timestamp="2022-08-03T05:34:06Z" changeset="124417792" uid="3497659" user="NKA">
		<tag k="name" v="Bruhjellen" />
		<tag k="place" v="farm" />
		<tag k="ssr:stedsnr" v="263341" />
	</node>
	<node id="3722050169" lat="62.6255232" lon="8.8574805" version="2" timestamp="2022-08-03T05:34:06Z" changeset="124417792" uid="3497659" user="NKA">
		<tag k="name" v="Nisjalykkja" />
		<tag k="place" v="farm" />
		<tag k="ssr:stedsnr" v="132937" />
	</node>
	<node id="3722050170" lat="62.6263055" lon="8.8523796" version="2" timestamp="2022-08-03T05:34:06Z" changeset="124417792" uid="3497659" user="NKA">
		<tag k="name" v="Råa" />
		<tag k="place" v="hamlet" />
		<tag k="ssr:stedsnr" v="861943" />
	</node>
	<node id="3722081120" lat="62.5602323" lon="9.0717237" version="2" timestamp="2022-08-03T05:34:06Z" changeset="124417792" uid="3497659" user="NKA">
		<tag k="name" v="Hjelle" />
		<tag k="place" v="farm" />
		<tag k="ssr:stedsnr" v="254791" />
	</node>
	<node id="3725078997" lat="62.6334836" lon="8.3028646" version="2" timestamp="2022-08-03T05:34:06Z" changeset="124417792" uid="3497659" user="NKA">
		<tag k="name" v="Brandstad" />
		<tag k="place" v="hamlet" />
		<tag k="ssr:stedsnr" v="801098" />
	</node>
	<node id="3725078998" lat="62.6110717" lon="8.3076798" version="2" timestamp="2022-08-03T05:34:06Z" changeset="124417792" uid="3497659" user="NKA">
		<tag k="historic" v="shieling" />
		<tag k="name" v="Jønnstad" />
		<tag k="place" v="hamlet" />
		<tag k="ssr:stedsnr" v="194117" />
	</node>
	<node id="3729798913" lat="62.5675713" lon="9.1260364" version="3" timestamp="2022-08-03T05:34:06Z" changeset="124417792" uid="3497659" user="NKA">
		<tag k="name" v="Vollan" />
		<tag k="place" v="farm" />
		<tag k="ssr:stedsnr" v="740789" />
	</node>
	<node id="3734425366" lat="62.8770992" lon="8.4873847" version="2" timestamp="2022-08-03T05:34:06Z" changeset="124417792" uid="3497659" user="NKA">
		<tag k="name" v="Rykkjem" />
		<tag k="place" v="hamlet" />
		<tag k="ssr:stedsnr" v="680296" />
	</node>
	<node id="4636949762" lat="62.5366871" lon="8.9629937" version="2" timestamp="2022-08-03T05:34:06Z" changeset="124417792" uid="3497659" user="NKA">
		<tag k="historic" v="shieling" />
		<tag k="name" v="Vangan" />
		<tag k="place" v="hamlet" />
		<tag k="ssr:stedsnr" v="861791" />
	</node>
	<node id="4636949763" lat="62.6034623" lon="8.9388377" version="2" timestamp="2022-08-03T05:34:06Z" changeset="124417792" uid="3497659" user="NKA">
		<tag k="name" v="Romfo" />
		<tag k="place" v="hamlet" />
		<tag k="ssr:stedsnr" v="24478" />
	</node>
	<node id="4636949764" lat="62.5827541" lon="9.0315967" version="2" timestamp="2022-08-03T05:34:06Z" changeset="124417792" uid="3497659" user="NKA">
		<tag k="name" v="Ottem" />
		<tag k="place" v="hamlet" />
		<tag k="ssr:stedsnr" v="424051" />
	</node>
	<node id="4636955790" lat="62.6610083" lon="8.5368333" version="2" timestamp="2022-08-03T05:34:06Z" changeset="124417792" uid="3497659" user="NKA">
		<tag k="name" v="Tredalen" />
		<tag k="place" v="neighbourhood" />
		<tag k="ssr:stedsnr" v="861001" />
	</node>
	<node id="4636955791" lat="62.6681504" lon="8.5847658" version="2" timestamp="2022-08-03T05:34:06Z" changeset="124417792" uid="3497659" user="NKA">
		<tag k="name" v="Sande" />
		<tag k="place" v="quarter" />
		<tag k="ssr:stedsnr" v="566736" />
	</node>
	<node id="4636955792" lat="62.658162" lon="8.6377529" version="5" timestamp="2022-08-03T05:34:06Z" changeset="124417792" uid="3497659" user="NKA">
		<tag k="name" v="Holssanden" />
		<tag k="place" v="village" />
		<tag k="population" v="328" />
		<tag k="population:date" v="2021-01-01" />
		<tag k="ref:ssb_tettsted" v="6282" />
		<tag k="source:population" v="SSB - befolkning i tettstedet" />
		<tag k="ssr:stedsnr" v="72012" />
	</node>
	<node id="5604707944" lat="62.7432076" lon="8.5267817" version="2" timestamp="2022-01-26T07:34:57Z" changeset="116611763" uid="3497659" user="NKA">
		<tag k="junction" v="yes" />
		<tag k="name" v="Skrøo" />
		<tag k="ssr:stedsnr" v="207800" />
	</node>
	<node id="6778250600" lat="62.7300822" lon="8.3204701" version="2" timestamp="2022-08-03T05:34:06Z" changeset="124417792" uid="3497659" user="NKA">
		<tag k="name" v="Liasetrin" />
		<tag k="place" v="isolated_dwelling" />
		<tag k="ssr:stedsnr" v="11238" />
	</node>
	<node id="7950835545" lat="62.5800133" lon="8.844604" version="2" timestamp="2022-08-03T05:34:06Z" changeset="124417792" uid="3497659" user="NKA">
		<tag k="historic" v="shieling" />
		<tag k="name" v="Melssetrin" />
		<tag k="place" v="isolated_dwelling" />
		<tag k="ssr:stedsnr" v="861755" />
	</node>
	<node id="7950835573" lat="62.5825765" lon="8.8192633" version="2" timestamp="2022-08-03T05:34:06Z" changeset="124417792" uid="3497659" user="NKA">
		<tag k="historic" v="shieling" />
		<tag k="name" v="Åkerssetra" />
		<tag k="place" v="isolated_dwelling" />
		<tag k="ssr:stedsnr" v="618739" />
	</node>
	<node id="9103163399" lat="62.4445509" lon="8.8992199" version="2" timestamp="2022-08-03T05:34:06Z" changeset="124417792" uid="3497659" user="NKA">
		<tag k="historic" v="shieling" />
		<tag k="name" v="Gammelsetra" />
		<tag k="place" v="farm" />
		<tag k="ssr:stedsnr" v="678471" />
	</node>
	<node id="9928654302" lat="62.5521698" lon="9.1156601" version="1" timestamp="2022-08-03T05:34:06Z" changeset="124417792" uid="3497659" user="NKA">
		<tag k="name" v="Bortstu" />
		<tag k="place" v="farm" />
		<tag k="ssr:stedsnr" v="754289" />
	</node>
	<node id="9928654303" lat="62.8412" lon="8.548536" version="1" timestamp="2022-08-03T05:34:06Z" changeset="124417792" uid="3497659" user="NKA">
		<tag k="name" v="Øvre Setrin" />
		<tag k="place" v="isolated_dwelling" />
		<tag k="ssr:stedsnr" v="509402" />
	</node>
	<node id="9928654304" lat="62.7099607" lon="8.5048802" version="1" timestamp="2022-08-03T05:34:06Z" changeset="124417792" uid="3497659" user="NKA">
		<tag k="name" v="Vika" />
		<tag k="place" v="farm" />
		<tag k="ssr:stedsnr" v="181018" />
	</node>
	<node id="9928654305" lat="62.73943" lon="8.3492981" version="1" timestamp="2022-08-03T05:34:06Z" changeset="124417792" uid="3497659" user="NKA">
		<tag k="historic" v="shieling" />
		<tag k="name" v="Bjørkholsetra" />
		<tag k="place" v="isolated_dwelling" />
		<tag k="ssr:stedsnr" v="194223" />
	</node>
	<node id="9928654306" lat="62.8454" lon="8.5240168" version="1" timestamp="2022-08-03T05:34:06Z" changeset="124417792" uid="3497659" user="NKA">
		<tag k="name" v="Arnstad" />
		<tag k="place" v="farm" />
		<tag k="ssr:stedsnr" v="558357" />
	</node>
	<node id="9928654307" lat="62.665638" lon="8.5571494" version="1" timestamp="2022-08-03T05:34:06Z" changeset="124417792" uid="3497659" user="NKA">
		<tag k="name" v="Håshjellan" />
		<tag k="place" v="farm" />
		<tag k="ssr:stedsnr" v="85925" />
	</node>
	<node id="9928654308" lat="62.8644472" lon="8.5034862" version="1" timestamp="2022-08-03T05:34:06Z" changeset="124417792" uid="3497659" user="NKA">
		<tag k="name" v="Krokagrenda" />
		<tag k="place" v="hamlet" />
		<tag k="ssr:stedsnr" v="449103" />
	</node>
	<node id="9928654309" lat="62.5026" lon="8.90025" version="1" timestamp="2022-08-03T05:34:06Z" changeset="124417792" uid="3497659" user="NKA">
		<tag k="historic" v="shieling" />
		<tag k="name" v="Holsetra" />
		<tag k="place" v="isolated_dwelling" />
		<tag k="ssr:stedsnr" v="679851" />
	</node>
	<node id="9928654310" lat="62.5932077" lon="8.9798834" version="1" timestamp="2022-08-03T05:34:06Z" changeset="124417792" uid="3497659" user="NKA">
		<tag k="name" v="Østigard" />
		<tag k="place" v="farm" />
		<tag k="ssr:stedsnr" v="618965" />
	</node>
	<node id="9928654311" lat="62.5059653" lon="8.9617591" version="1" timestamp="2022-08-03T05:34:06Z" changeset="124417792" uid="3497659" user="NKA">
		<tag k="name" v="Hagaslættet" />
		<tag k="place" v="farm" />
		<tag k="ssr:stedsnr" v="497860" />
	</node>
	<node id="9928654312" lat="62.8504248" lon="8.5188855" version="1" timestamp="2022-08-03T05:34:06Z" changeset="124417792" uid="3497659" user="NKA">
		<tag k="name" v="Nerland" />
		<tag k="place" v="farm" />
		<tag k="ssr:stedsnr" v="619392" />
	</node>
	<node id="9928654313" lat="62.7649417" lon="8.5460528" version="1" timestamp="2022-08-03T05:34:06Z" changeset="124417792" uid="3497659" user="NKA">
		<tag k="name" v="Melen" />
		<tag k="place" v="farm" />
		<tag k="ssr:stedsnr" v="801478" />
	</node>
	<node id="9928654314" lat="62.7592734" lon="8.5413398" version="1" timestamp="2022-08-03T05:34:06Z" changeset="124417792" uid="3497659" user="NKA">
		<tag k="name" v="Trøa" />
		<tag k="place" v="farm" />
		<tag k="ssr:stedsnr" v="813783" />
	</node>
	<node id="9928654315" lat="62.8264615" lon="8.5314081" version="1" timestamp="2022-08-03T05:34:06Z" changeset="124417792" uid="3497659" user="NKA">
		<tag k="name" v="Engan" />
		<tag k="place" v="farm" />
		<tag k="ssr:stedsnr" v="110392" />
	</node>
	<node id="9928654316" lat="62.8491333" lon="8.5718805" version="1" timestamp="2022-08-03T05:34:06Z" changeset="124417792" uid="3497659" user="NKA">
		<tag k="historic" v="shieling" />
		<tag k="name" v="Drøppingsetra" />
		<tag k="place" v="isolated_dwelling" />
		<tag k="ssr:stedsnr" v="73360" />
	</node>
	<node id="9928694917" lat="62.5071068" lon="9.1922836" version="1" timestamp="2022-08-03T05:34:06Z" changeset="124417792" uid="3497659" user="NKA">
		<tag k="name" v="Hilderhjellen" />
		<tag k="place" v="isolated_dwelling" />
		<tag k="ssr:stedsnr" v="445326" />
	</node>
	<node id="9928694918" lat="62.7482305" lon="8.3382446" version="1" timestamp="2022-08-03T05:34:06Z" changeset="124417792" uid="3497659" user="NKA">
		<tag k="name" v="Stølan" />
		<tag k="place" v="locality" />
		<tag k="ssr:stedsnr" v="632957" />
	</node>
	<node id="9928694919" lat="62.6100306" lon="8.3111388" version="1" timestamp="2022-08-03T05:34:06Z" changeset="124417792" uid="3497659" user="NKA">
		<tag k="historic" v="shieling" />
		<tag k="name" v="Øyasetra" />
		<tag k="place" v="isolated_dwelling" />
		<tag k="ssr:stedsnr" v="570307" />
	</node>
	<node id="9928694920" lat="62.7737143" lon="8.5278054" version="1" timestamp="2022-08-03T05:34:06Z" changeset="124417792" uid="3497659" user="NKA">
		<tag k="name" v="Tollmo" />
		<tag k="place" v="farm" />
		<tag k="ssr:stedsnr" v="511648" />
	</node>
	<node id="9928694921" lat="62.5574584" lon="8.9480471" version="1" timestamp="2022-08-03T05:34:06Z" changeset="124417792" uid="3497659" user="NKA">
		<tag k="historic" v="shieling" />
		<tag k="name" v="Gammelsetra" />
		<tag k="place" v="isolated_dwelling" />
		<tag k="ssr:stedsnr" v="436803" />
	</node>
	<node id="9928694922" lat="62.8748766" lon="8.4926427" version="1" timestamp="2022-08-03T05:34:06Z" changeset="124417792" uid="3497659" user="NKA">
		<tag k="name" v="Innergarden" />
		<tag k="place" v="farm" />
		<tag k="ssr:stedsnr" v="85230" />
	</node>
	<node id="9928694923" lat="62.8313667" lon="8.5281499" version="1" timestamp="2022-08-03T05:34:06Z" changeset="124417792" uid="3497659" user="NKA">
		<tag k="name" v="Strand" />
		<tag k="place" v="farm" />
		<tag k="ssr:stedsnr" v="85229" />
	</node>
	<node id="9928694924" lat="62.6753611" lon="8.3869583" version="1" timestamp="2022-08-03T05:34:06Z" changeset="124417792" uid="3497659" user="NKA">
		<tag k="name" v="Børset" />
		<tag k="place" v="hamlet" />
		<tag k="ssr:stedsnr" v="557048" />
	</node>
	<node id="9928694925" lat="62.831989" lon="8.5267646" version="1" timestamp="2022-08-03T05:34:06Z" changeset="124417792" uid="3497659" user="NKA">
		<tag k="name" v="Brustad" />
		<tag k="place" v="farm" />
		<tag k="ssr:stedsnr" v="85213" />
	</node>
	<node id="9928694926" lat="62.8492639" lon="8.5720612" version="1" timestamp="2022-08-03T05:34:06Z" changeset="124417792" uid="3497659" user="NKA">
		<tag k="name" v="Innigardssetra" />
		<tag k="place" v="isolated_dwelling" />
		<tag k="ssr:stedsnr" v="85193" />
	</node>
	<node id="9928694927" lat="62.7787652" lon="8.5246828" version="1" timestamp="2022-08-03T05:34:06Z" changeset="124417792" uid="3497659" user="NKA">
		<tag k="name" v="Øvre Haugan" />
		<tag k="place" v="farm" />
		<tag k="ssr:stedsnr" v="451689" />
	</node>
	<node id="9928694928" lat="62.8603377" lon="8.5065328" version="1" timestamp="2022-08-03T05:34:06Z" changeset="124417792" uid="3497659" user="NKA">
		<tag k="name" v="Støve" />
		<tag k="place" v="farm" />
		<tag k="ssr:stedsnr" v="85084" />
	</node>
	<node id="9928694929" lat="62.8443667" lon="8.4878779" version="1" timestamp="2022-08-03T05:34:06Z" changeset="124417792" uid="3497659" user="NKA">
		<tag k="name" v="Karisetra" />
		<tag k="place" v="locality" />
		<tag k="ssr:stedsnr" v="85167" />
	</node>
	<node id="9928694930" lat="62.7911083" lon="8.3676806" version="1" timestamp="2022-08-03T05:34:06Z" changeset="124417792" uid="3497659" user="NKA">
		<tag k="historic" v="shieling" />
		<tag k="name" v="Almskårsetra" />
		<tag k="place" v="isolated_dwelling" />
		<tag k="ssr:stedsnr" v="411244" />
	</node>
	<node id="9928694931" lat="62.8635278" lon="8.5126001" version="1" timestamp="2022-08-03T05:34:06Z" changeset="124417792" uid="3497659" user="NKA">
		<tag k="name" v="Kroken" />
		<tag k="place" v="hamlet" />
		<tag k="ssr:stedsnr" v="85203" />
	</node>
	<node id="9928694932" lat="62.8554584" lon="8.4334584" version="1" timestamp="2022-08-03T05:34:06Z" changeset="124417792" uid="3497659" user="NKA">
		<tag k="name" v="Mulvika" />
		<tag k="place" v="hamlet" />
		<tag k="ssr:stedsnr" v="922330" />
	</node>
	<node id="9928694933" lat="62.6884334" lon="8.3922751" version="1" timestamp="2022-08-03T05:34:06Z" changeset="124417792" uid="3497659" user="NKA">
		<tag k="historic" v="shieling" />
		<tag k="name" v="Sjølsetsetra" />
		<tag k="place" v="isolated_dwelling" />
		<tag k="ssr:stedsnr" v="922042" />
	</node>
	<node id="9928694934" lat="62.7571" lon="8.3104055" version="1" timestamp="2022-08-03T05:34:06Z" changeset="124417792" uid="3497659" user="NKA">
		<tag k="name" v="Småskogan" />
		<tag k="place" v="farm" />
		<tag k="ssr:stedsnr" v="619531" />
	</node>
	<node id="9928694935" lat="62.6636732" lon="8.3655269" version="1" timestamp="2022-08-03T05:34:06Z" changeset="124417792" uid="3497659" user="NKA">
		<tag k="name" v="Mosbøen" />
		<tag k="place" v="farm" />
		<tag k="ssr:stedsnr" v="315009" />
	</node>
	<node id="9928694936" lat="62.56905" lon="8.9256306" version="1" timestamp="2022-08-03T05:34:06Z" changeset="124417792" uid="3497659" user="NKA">
		<tag k="name" v="Stortela" />
		<tag k="place" v="locality" />
		<tag k="ssr:stedsnr" v="133785" />
	</node>
	<node id="9928694937" lat="62.7572417" lon="8.5378473" version="1" timestamp="2022-08-03T05:34:06Z" changeset="124417792" uid="3497659" user="NKA">
		<tag k="name" v="Austistua" />
		<tag k="place" v="farm" />
		<tag k="ssr:stedsnr" v="85739" />
	</node>
	<node id="9928694938" lat="62.7639647" lon="8.5505283" version="1" timestamp="2022-08-03T05:34:06Z" changeset="124417792" uid="3497659" user="NKA">
		<tag k="name" v="Nygarden" />
		<tag k="place" v="farm" />
		<tag k="ssr:stedsnr" v="82595" />
	</node>
	<node id="9928694939" lat="62.7376728" lon="8.5208432" version="1" timestamp="2022-08-03T05:34:06Z" changeset="124417792" uid="3497659" user="NKA">
		<tag k="name" v="Oppdøl" />
		<tag k="place" v="hamlet" />
		<tag k="ssr:stedsnr" v="72232" />
	</node>
	<node id="9928694940" lat="62.7809639" lon="8.5321694" version="1" timestamp="2022-08-03T05:34:06Z" changeset="124417792" uid="3497659" user="NKA">
		<tag k="name" v="Valset" />
		<tag k="place" v="hamlet" />
		<tag k="ssr:stedsnr" v="12364" />
	</node>
	<node id="9928694941" lat="62.8337667" lon="8.5450223" version="1" timestamp="2022-08-03T05:34:06Z" changeset="124417792" uid="3497659" user="NKA">
		<tag k="name" v="Brekksetra" />
		<tag k="place" v="locality" />
		<tag k="ssr:stedsnr" v="934416" />
	</node>
	<node id="9928694942" lat="62.4309527" lon="8.8966194" version="1" timestamp="2022-08-03T05:34:06Z" changeset="124417792" uid="3497659" user="NKA">
		<tag k="historic" v="shieling" />
		<tag k="name" v="Storvollen" />
		<tag k="place" v="isolated_dwelling" />
		<tag k="ssr:stedsnr" v="132423" />
	</node>
	<node id="9928694943" lat="62.633175" lon="8.8534249" version="1" timestamp="2022-08-03T05:34:06Z" changeset="124417792" uid="3497659" user="NKA">
		<tag k="name" v="Almhjellen" />
		<tag k="place" v="farm" />
		<tag k="ssr:stedsnr" v="72934" />
	</node>
	<node id="9928694944" lat="62.6026801" lon="8.9400157" version="1" timestamp="2022-08-03T05:34:06Z" changeset="124417792" uid="3497659" user="NKA">
		<tag k="name" v="Nestu Romfo" />
		<tag k="place" v="farm" />
		<tag k="ssr:stedsnr" v="85385" />
	</node>
	<node id="9928694945" lat="62.8949611" lon="8.4290806" version="1" timestamp="2022-08-03T05:34:06Z" changeset="124417792" uid="3497659" user="NKA">
		<tag k="name" v="Nes" />
		<tag k="place" v="hamlet" />
		<tag k="ssr:stedsnr" v="801278" />
	</node>
	<node id="9928694946" lat="62.8293463" lon="8.5279066" version="1" timestamp="2022-08-03T05:34:06Z" changeset="124417792" uid="3497659" user="NKA">
		<tag k="name" v="Brekkan" />
		<tag k="place" v="farm" />
		<tag k="ssr:stedsnr" v="449269" />
	</node>
	<node id="9928694947" lat="62.8894334" lon="8.4452973" version="1" timestamp="2022-08-03T05:34:06Z" changeset="124417792" uid="3497659" user="NKA">
		<tag k="name" v="Mjølkplassen" />
		<tag k="place" v="isolated_dwelling" />
		<tag k="ssr:stedsnr" v="619316" />
	</node>
	<node id="9928694948" lat="62.5891657" lon="9.0115822" version="1" timestamp="2022-08-03T05:34:06Z" changeset="124417792" uid="3497659" user="NKA">
		<tag k="name" v="Nyheim" />
		<tag k="place" v="farm" />
		<tag k="ssr:stedsnr" v="27178" />
	</node>
	<node id="9928694949" lat="62.5067708" lon="8.9729525" version="1" timestamp="2022-08-03T05:34:06Z" changeset="124417792" uid="3497659" user="NKA">
		<tag k="name" v="Skåla" />
		<tag k="place" v="farm" />
		<tag k="ssr:stedsnr" v="24572" />
	</node>
	<node id="9928694950" lat="62.78265" lon="8.503275" version="1" timestamp="2022-08-03T05:34:06Z" changeset="124417792" uid="3497659" user="NKA">
		<tag k="name" v="Brennhaugen" />
		<tag k="place" v="farm" />
		<tag k="ssr:stedsnr" v="194343" />
	</node>
	<node id="9928694951" lat="62.8508683" lon="8.438905" version="1" timestamp="2022-08-03T05:34:06Z" changeset="124417792" uid="3497659" user="NKA">
		<tag k="name" v="Furulund" />
		<tag k="place" v="farm" />
		<tag k="ssr:stedsnr" v="388064" />
	</node>
	<node id="9928694952" lat="62.8506587" lon="8.441012" version="1" timestamp="2022-08-03T05:34:06Z" changeset="124417792" uid="3497659" user="NKA">
		<tag k="name" v="Hjellen" />
		<tag k="place" v="hamlet" />
		<tag k="ssr:stedsnr" v="376364" />
	</node>
	<node id="9928694953" lat="62.7705613" lon="8.5452536" version="1" timestamp="2022-08-03T05:34:06Z" changeset="124417792" uid="3497659" user="NKA">
		<tag k="name" v="Børsetlauvet" />
		<tag k="place" v="neighbourhood" />
		<tag k="ssr:stedsnr" v="626210" />
	</node>
	<node id="9928694954" lat="62.8426666" lon="8.5976195" version="1" timestamp="2022-08-03T05:34:06Z" changeset="124417792" uid="3497659" user="NKA">
		<tag k="historic" v="shieling" />
		<tag k="name" v="Rakanessetra" />
		<tag k="place" v="isolated_dwelling" />
		<tag k="ssr:stedsnr" v="376341" />
	</node>
	<node id="9928694955" lat="62.8755457" lon="8.4920159" version="1" timestamp="2022-08-03T05:34:06Z" changeset="124417792" uid="3497659" user="NKA">
		<tag k="name" v="Rykkjemsneset" />
		<tag k="place" v="farm" />
		<tag k="ssr:stedsnr" v="267246" />
	</node>
	<node id="9928694956" lat="62.723938" lon="8.4157207" version="1" timestamp="2022-08-03T05:34:06Z" changeset="124417792" uid="3497659" user="NKA">
		<tag k="name" v="Strandalykkja" />
		<tag k="place" v="farm" />
		<tag k="ssr:stedsnr" v="268023" />
	</node>
	<node id="9928694957" lat="62.7818437" lon="8.5616806" version="1" timestamp="2022-08-03T05:34:06Z" changeset="124417792" uid="3497659" user="NKA">
		<tag k="name" v="Skihytta" />
		<tag k="place" v="isolated_dwelling" />
		<tag k="ssr:stedsnr" v="632828" />
	</node>
	<node id="9928694958" lat="62.8303402" lon="8.511941" version="1" timestamp="2022-08-03T05:34:06Z" changeset="124417792" uid="3497659" user="NKA">
		<tag k="name" v="Seljebøsaga" />
		<tag k="place" v="locality" />
		<tag k="ssr:stedsnr" v="267238" />
	</node>
	<node id="9928694959" lat="62.8315592" lon="8.516861" version="1" timestamp="2022-08-03T05:34:06Z" changeset="124417792" uid="3497659" user="NKA">
		<tag k="name" v="Seljebøen" />
		<tag k="place" v="hamlet" />
		<tag k="ssr:stedsnr" v="133303" />
	</node>
	<node id="9928694960" lat="62.4980167" lon="8.8681056" version="1" timestamp="2022-08-03T05:34:06Z" changeset="124417792" uid="3497659" user="NKA">
		<tag k="historic" v="shieling" />
		<tag k="name" v="Løykjasetra" />
		<tag k="place" v="isolated_dwelling" />
		<tag k="ssr:stedsnr" v="11280" />
	</node>
	<node id="9928694961" lat="62.8350863" lon="8.4993796" version="1" timestamp="2022-08-03T05:34:06Z" changeset="124417792" uid="3497659" user="NKA">
		<tag k="name" v="Litlvågen" />
		<tag k="place" v="farm" />
		<tag k="ssr:stedsnr" v="24170" />
	</node>
	<node id="9928694962" lat="62.8609025" lon="8.5056162" version="1" timestamp="2022-08-03T05:34:06Z" changeset="124417792" uid="3497659" user="NKA">
		<tag k="name" v="Sollia" />
		<tag k="place" v="hamlet" />
		<tag k="ssr:stedsnr" v="73370" />
	</node>
	<node id="9928694963" lat="62.8390722" lon="8.540375" version="1" timestamp="2022-08-03T05:34:06Z" changeset="124417792" uid="3497659" user="NKA">
		<tag k="historic" v="shieling" />
		<tag k="name" v="Ålvundsetra" />
		<tag k="place" v="isolated_dwelling" />
		<tag k="ssr:stedsnr" v="923377" />
	</node>
	<node id="9928694964" lat="62.6331473" lon="8.8334019" version="1" timestamp="2022-08-03T05:34:06Z" changeset="124417792" uid="3497659" user="NKA">
		<tag k="name" v="Moen" />
		<tag k="place" v="hamlet" />
		<tag k="ssr:stedsnr" v="203325" />
	</node>
	<node id="9928694965" lat="62.7610808" lon="8.5465819" version="1" timestamp="2022-08-03T05:34:06Z" changeset="124417792" uid="3497659" user="NKA">
		<tag k="name" v="Petrøa" />
		<tag k="place" v="farm" />
		<tag k="ssr:stedsnr" v="619524" />
	</node>
	<node id="9928694966" lat="62.7413329" lon="8.5239538" version="1" timestamp="2022-08-03T05:34:06Z" changeset="124417792" uid="3497659" user="NKA">
		<tag k="name" v="Storlykkja" />
		<tag k="place" v="farm" />
		<tag k="ssr:stedsnr" v="451844" />
	</node>
	<node id="9928694967" lat="62.7630593" lon="8.5946803" version="1" timestamp="2022-08-03T05:34:06Z" changeset="124417792" uid="3497659" user="NKA">
		<tag k="name" v="Virom Nestua" />
		<tag k="place" v="farm" />
		<tag k="ssr:stedsnr" v="754842" />
	</node>
	<node id="9928694968" lat="62.7420468" lon="8.5262666" version="1" timestamp="2022-08-03T05:34:06Z" changeset="124417792" uid="3497659" user="NKA">
		<tag k="name" v="Skogstad" />
		<tag k="place" v="farm" />
		<tag k="ssr:stedsnr" v="147810" />
	</node>
	<node id="9928694969" lat="62.8490371" lon="8.519299" version="1" timestamp="2022-08-03T05:34:06Z" changeset="124417792" uid="3497659" user="NKA">
		<tag k="name" v="Nytrøa" />
		<tag k="place" v="farm" />
		<tag k="ssr:stedsnr" v="740346" />
	</node>
	<node id="9928694970" lat="62.7583972" lon="8.5331829" version="1" timestamp="2022-08-03T05:34:06Z" changeset="124417792" uid="3497659" user="NKA">
		<tag k="name" v="Mohjellen" />
		<tag k="place" v="farm" />
		<tag k="ssr:stedsnr" v="145773" />
	</node>
	<node id="9928694971" lat="62.8997389" lon="8.4212944" version="1" timestamp="2022-08-03T05:34:06Z" changeset="124417792" uid="3497659" user="NKA">
		<tag k="name" v="Utigard" />
		<tag k="place" v="farm" />
		<tag k="ssr:stedsnr" v="194261" />
	</node>
	<node id="9928694972" lat="62.63385" lon="8.8561612" version="1" timestamp="2022-08-03T05:34:06Z" changeset="124417792" uid="3497659" user="NKA">
		<tag k="name" v="Gammelheimen" />
		<tag k="place" v="locality" />
		<tag k="ssr:stedsnr" v="874286" />
	</node>
	<node id="9928694973" lat="62.898383" lon="8.4246401" version="1" timestamp="2022-08-03T05:34:06Z" changeset="124417792" uid="3497659" user="NKA">
		<tag k="name" v="Naustvollen" />
		<tag k="place" v="farm" />
		<tag k="ssr:stedsnr" v="861272" />
	</node>
	<node id="9928694974" lat="62.7706391" lon="8.4883477" version="1" timestamp="2022-08-03T05:34:06Z" changeset="124417792" uid="3497659" user="NKA">
		<tag k="name" v="Røsetsetra" />
		<tag k="place" v="isolated_dwelling" />
		<tag k="ssr:stedsnr" v="81635" />
	</node>
	<node id="9928694975" lat="62.7773528" lon="8.5238457" version="1" timestamp="2022-08-03T05:34:06Z" changeset="124417792" uid="3497659" user="NKA">
		<tag k="name" v="Hammaren" />
		<tag k="place" v="farm" />
		<tag k="ssr:stedsnr" v="87687" />
	</node>
	<node id="9928694976" lat="62.6260555" lon="8.8812917" version="1" timestamp="2022-08-03T05:34:06Z" changeset="124417792" uid="3497659" user="NKA">
		<tag k="name" v="Gammelheimen" />
		<tag k="place" v="locality" />
		<tag k="ssr:stedsnr" v="752658" />
	</node>
	<node id="9928694977" lat="62.7442139" lon="8.5282528" version="1" timestamp="2022-08-03T05:34:06Z" changeset="124417792" uid="3497659" user="NKA">
		<tag k="name" v="Hagan" />
		<tag k="place" v="farm" />
		<tag k="ssr:stedsnr" v="85775" />
	</node>
	<node id="9928694978" lat="62.5746583" lon="8.8895251" version="1" timestamp="2022-08-03T05:34:06Z" changeset="124417792" uid="3497659" user="NKA">
		<tag k="name" v="Tronget" />
		<tag k="place" v="locality" />
		<tag k="ssr:stedsnr" v="618728" />
	</node>
	<node id="9928694979" lat="62.8508882" lon="8.5205486" version="1" timestamp="2022-08-03T05:34:06Z" changeset="124417792" uid="3497659" user="NKA">
		<tag k="name" v="Øverland" />
		<tag k="place" v="farm" />
		<tag k="ssr:stedsnr" v="631322" />
	</node>
	<node id="9928694980" lat="62.8622555" lon="8.5142944" version="1" timestamp="2022-08-03T05:34:06Z" changeset="124417792" uid="3497659" user="NKA">
		<tag k="name" v="Langsvala" />
		<tag k="place" v="farm" />
		<tag k="ssr:stedsnr" v="752219" />
	</node>
	<node id="9928694981" lat="62.8573576" lon="8.5916017" version="1" timestamp="2022-08-03T05:34:06Z" changeset="124417792" uid="3497659" user="NKA">
		<tag k="alt_name" v="Drøppingan" />
		<tag k="name" v="Indre Drøppingan" />
		<tag k="place" v="hamlet" />
		<tag k="ssr:stedsnr" v="667061" />
	</node>
	<node id="9928694982" lat="62.5735482" lon="9.1395206" version="1" timestamp="2022-08-03T05:34:06Z" changeset="124417792" uid="3497659" user="NKA">
		<tag k="name" v="Vollaøya" />
		<tag k="place" v="farm" />
		<tag k="ssr:stedsnr" v="512046" />
	</node>
	<node id="9928694983" lat="62.8644749" lon="8.5866925" version="1" timestamp="2022-08-03T05:34:06Z" changeset="124417792" uid="3497659" user="NKA">
		<tag k="name" v="Drøppingan" />
		<tag k="place" v="farm" />
		<tag k="ssr:stedsnr" v="540811" />
	</node>
	<node id="9928694984" lat="62.6403556" lon="8.8104666" version="1" timestamp="2022-08-03T05:34:06Z" changeset="124417792" uid="3497659" user="NKA">
		<tag k="name" v="Ytter Røyhjellen" />
		<tag k="place" v="farm" />
		<tag k="ssr:stedsnr" v="511348" />
	</node>
	<node id="9928694985" lat="62.4803639" lon="8.9387111" version="1" timestamp="2022-08-03T05:34:06Z" changeset="124417792" uid="3497659" user="NKA">
		<tag k="historic" v="shieling" />
		<tag k="name" v="Myra" />
		<tag k="place" v="isolated_dwelling" />
		<tag k="ssr:stedsnr" v="496489" />
	</node>
	<node id="9928694986" lat="62.6915" lon="8.8648777" version="1" timestamp="2022-08-03T05:34:06Z" changeset="124417792" uid="3497659" user="NKA">
		<tag k="name" v="Falesetra" />
		<tag k="place" v="locality" />
		<tag k="ssr:stedsnr" v="496915" />
	</node>
	<node id="9928694987" lat="62.6189445" lon="8.8514251" version="1" timestamp="2022-08-03T05:34:06Z" changeset="124417792" uid="3497659" user="NKA">
		<tag k="name" v="Råsetra" />
		<tag k="place" v="locality" />
		<tag k="ssr:stedsnr" v="390716" />
	</node>
	<node id="9928694988" lat="62.8551021" lon="8.5170642" version="1" timestamp="2022-08-03T05:34:06Z" changeset="124417792" uid="3497659" user="NKA">
		<tag k="name" v="Vik" />
		<tag k="place" v="farm" />
		<tag k="ssr:stedsnr" v="145320" />
	</node>
	<node id="9928694989" lat="62.5579689" lon="9.0979835" version="1" timestamp="2022-08-03T05:34:06Z" changeset="124417792" uid="3497659" user="NKA">
		<tag k="name" v="Flurhytta" />
		<tag k="place" v="isolated_dwelling" />
		<tag k="ssr:stedsnr" v="512281" />
	</node>
	<node id="9928694990" lat="62.8600366" lon="8.510326" version="1" timestamp="2022-08-03T05:34:06Z" changeset="124417792" uid="3497659" user="NKA">
		<tag k="name" v="Levika" />
		<tag k="place" v="farm" />
		<tag k="ssr:stedsnr" v="255357" />
	</node>
	<node id="9928694991" lat="62.8464383" lon="8.4477862" version="1" timestamp="2022-08-03T05:34:06Z" changeset="124417792" uid="3497659" user="NKA">
		<tag k="name" v="Bakkan" />
		<tag k="place" v="farm" />
		<tag k="ssr:stedsnr" v="145168" />
	</node>
	<node id="9928694992" lat="62.5605939" lon="9.0802478" version="1" timestamp="2022-08-03T05:34:06Z" changeset="124417792" uid="3497659" user="NKA">
		<tag k="name" v="Negard Gravem" />
		<tag k="place" v="farm" />
		<tag k="ssr:stedsnr" v="512419" />
	</node>
	<node id="9928694993" lat="62.5596275" lon="9.080673" version="1" timestamp="2022-08-03T05:34:06Z" changeset="124417792" uid="3497659" user="NKA">
		<tag k="name" v="Gravem" />
		<tag k="place" v="hamlet" />
		<tag k="ssr:stedsnr" v="181242" />
	</node>
	<node id="9928694994" lat="62.5626556" lon="9.0757028" version="1" timestamp="2022-08-03T05:34:06Z" changeset="124417792" uid="3497659" user="NKA">
		<tag k="name" v="Gammelheimen" />
		<tag k="place" v="locality" />
		<tag k="ssr:stedsnr" v="86425" />
	</node>
	<node id="9928694995" lat="62.8536695" lon="8.4093417" version="1" timestamp="2022-08-03T05:34:06Z" changeset="124417792" uid="3497659" user="NKA">
		<tag k="historic" v="shieling" />
		<tag k="name" v="Mulvik Fellesbeite" />
		<tag k="place" v="isolated_dwelling" />
		<tag k="ssr:stedsnr" v="752107" />
	</node>
	<node id="9928694996" lat="62.8505694" lon="8.6016388" version="1" timestamp="2022-08-03T05:34:06Z" changeset="124417792" uid="3497659" user="NKA">
		<tag k="name" v="Vikatrøa" />
		<tag k="place" v="farm" />
		<tag k="ssr:stedsnr" v="889832" />
	</node>
	<node id="9928694997" lat="62.5908833" lon="9.0087806" version="1" timestamp="2022-08-03T05:34:06Z" changeset="124417792" uid="3497659" user="NKA">
		<tag k="name" v="Øyalykkja" />
		<tag k="place" v="farm" />
		<tag k="ssr:stedsnr" v="133751" />
	</node>
	<node id="9928694998" lat="62.8638272" lon="8.5855934" version="1" timestamp="2022-08-03T05:34:06Z" changeset="124417792" uid="3497659" user="NKA">
		<tag k="alt_name" v="Drøppingan" />
		<tag k="name" v="Ytre Drøppingan" />
		<tag k="place" v="hamlet" />
		<tag k="ssr:stedsnr" v="424050" />
	</node>
	<node id="9928694999" lat="62.5149148" lon="8.9774844" version="1" timestamp="2022-08-03T05:34:06Z" changeset="124417792" uid="3497659" user="NKA">
		<tag k="name" v="Bergset" />
		<tag k="place" v="farm" />
		<tag k="ssr:stedsnr" v="145506" />
	</node>
	<node id="9928695000" lat="62.8474306" lon="8.6091639" version="1" timestamp="2022-08-03T05:34:06Z" changeset="124417792" uid="3497659" user="NKA">
		<tag k="name" v="Rakaneset" />
		<tag k="place" v="farm" />
		<tag k="ssr:stedsnr" v="194310" />
	</node>
	<node id="9928695001" lat="62.7610375" lon="8.2841214" version="1" timestamp="2022-08-03T05:34:06Z" changeset="124417792" uid="3497659" user="NKA">
		<tag k="name" v="Jordalssetra" />
		<tag k="place" v="isolated_dwelling" />
		<tag k="ssr:stedsnr" v="511970" />
	</node>
	<node id="9928695002" lat="62.500725" lon="8.8832527" version="1" timestamp="2022-08-03T05:34:06Z" changeset="124417792" uid="3497659" user="NKA">
		<tag k="historic" v="shieling" />
		<tag k="name" v="Holbekksetra" />
		<tag k="place" v="isolated_dwelling" />
		<tag k="ssr:stedsnr" v="922797" />
	</node>
	<node id="9928695003" lat="62.7608531" lon="8.3117068" version="1" timestamp="2022-08-03T05:34:06Z" changeset="124417792" uid="3497659" user="NKA">
		<tag k="name" v="Jordal" />
		<tag k="place" v="hamlet" />
		<tag k="ssr:stedsnr" v="485032" />
	</node>
	<node id="9928695004" lat="62.6298389" lon="8.8556249" version="1" timestamp="2022-08-03T05:34:06Z" changeset="124417792" uid="3497659" user="NKA">
		<tag k="name" v="Faleøyan" />
		<tag k="place" v="farm" />
		<tag k="ssr:stedsnr" v="800938" />
	</node>
	<node id="9928695005" lat="62.7766779" lon="8.5234056" version="1" timestamp="2022-08-03T05:34:06Z" changeset="124417792" uid="3497659" user="NKA">
		<tag k="name" v="Nedre Haugan" />
		<tag k="place" v="farm" />
		<tag k="ssr:stedsnr" v="815665" />
	</node>
	<node id="9928695006" lat="62.6346696" lon="8.8040669" version="1" timestamp="2022-08-03T05:34:06Z" changeset="124417792" uid="3497659" user="NKA">
		<tag k="name" v="Sandahjellen" />
		<tag k="place" v="farm" />
		<tag k="ssr:stedsnr" v="86362" />
	</node>
	<node id="9928695007" lat="62.7723837" lon="8.5271716" version="1" timestamp="2022-08-03T05:34:06Z" changeset="124417792" uid="3497659" user="NKA">
		<tag k="name" v="Nybøen" />
		<tag k="place" v="farm" />
		<tag k="ssr:stedsnr" v="815669" />
	</node>
	<node id="9928695008" lat="62.5032389" lon="8.9035278" version="1" timestamp="2022-08-03T05:34:06Z" changeset="124417792" uid="3497659" user="NKA">
		<tag k="historic" v="shieling" />
		<tag k="name" v="Hafsåssætra" />
		<tag k="place" v="isolated_dwelling" />
		<tag k="ssr:stedsnr" v="72848" />
	</node>
	<node id="9928695009" lat="62.7665662" lon="8.3300648" version="1" timestamp="2022-08-03T05:34:06Z" changeset="124417792" uid="3497659" user="NKA">
		<tag k="name" v="Åfarplassen" />
		<tag k="place" v="farm" />
		<tag k="ssr:stedsnr" v="25986" />
	</node>
	<node id="9928695010" lat="62.7646536" lon="8.5477012" version="1" timestamp="2022-08-03T05:34:06Z" changeset="124417792" uid="3497659" user="NKA">
		<tag k="name" v="Bakketun" />
		<tag k="place" v="farm" />
		<tag k="ssr:stedsnr" v="693853" />
	</node>
	<node id="9928695011" lat="62.6473016" lon="8.7492961" version="1" timestamp="2022-08-03T05:34:06Z" changeset="124417792" uid="3497659" user="NKA">
		<tag k="name" v="Høgstad" />
		<tag k="place" v="farm" />
		<tag k="ssr:stedsnr" v="754461" />
	</node>
	<node id="9928695012" lat="62.5908902" lon="8.769568" version="1" timestamp="2022-08-03T05:34:06Z" changeset="124417792" uid="3497659" user="NKA">
		<tag k="name" v="Grynnstu" />
		<tag k="place" v="isolated_dwelling" />
		<tag k="ssr:stedsnr" v="389472" />
	</node>
	<node id="9928695013" lat="62.5895527" lon="9.01275" version="1" timestamp="2022-08-03T05:34:06Z" changeset="124417792" uid="3497659" user="NKA">
		<tag k="name" v="Ratet" />
		<tag k="place" v="hamlet" />
		<tag k="ssr:stedsnr" v="72755" />
	</node>
	<node id="9928695014" lat="62.6353722" lon="8.8698084" version="1" timestamp="2022-08-03T05:34:06Z" changeset="124417792" uid="3497659" user="NKA">
		<tag k="name" v="Heimsetra" />
		<tag k="place" v="locality" />
		<tag k="ssr:stedsnr" v="388244" />
	</node>
	<node id="9928695015" lat="62.61135" lon="8.9213999" version="1" timestamp="2022-08-03T05:34:06Z" changeset="124417792" uid="3497659" user="NKA">
		<tag k="name" v="Snøva" />
		<tag k="place" v="hamlet" />
		<tag k="ssr:stedsnr" v="375983" />
	</node>
	<node id="9928695016" lat="62.7642206" lon="8.3328629" version="1" timestamp="2022-08-03T05:34:06Z" changeset="124417792" uid="3497659" user="NKA">
		<tag k="name" v="Vika" />
		<tag k="place" v="farm" />
		<tag k="ssr:stedsnr" v="209000" />
	</node>
	<node id="9928695017" lat="62.5273106" lon="9.0800527" version="1" timestamp="2022-08-03T05:34:06Z" changeset="124417792" uid="3497659" user="NKA">
		<tag k="name" v="Svorundøya" />
		<tag k="place" v="farm" />
		<tag k="ssr:stedsnr" v="375819" />
	</node>
	<node id="9928695018" lat="62.7527972" lon="8.3362417" version="1" timestamp="2022-08-03T05:34:06Z" changeset="124417792" uid="3497659" user="NKA">
		<tag k="name" v="Gammelsetra" />
		<tag k="place" v="locality" />
		<tag k="ssr:stedsnr" v="572965" />
	</node>
	<node id="9928695019" lat="62.5090646" lon="9.0473177" version="1" timestamp="2022-08-03T05:34:06Z" changeset="124417792" uid="3497659" user="NKA">
		<tag k="name" v="Johanslia" />
		<tag k="place" v="farm" />
		<tag k="ssr:stedsnr" v="330713" />
	</node>
	<node id="9928695020" lat="62.60255" lon="8.9453222" version="1" timestamp="2022-08-03T05:34:06Z" changeset="124417792" uid="3497659" user="NKA">
		<tag k="name" v="Romfohjellen" />
		<tag k="place" v="farm" />
		<tag k="ssr:stedsnr" v="11984" />
	</node>
	<node id="9928695021" lat="62.5623704" lon="8.8372725" version="1" timestamp="2022-08-03T05:34:06Z" changeset="124417792" uid="3497659" user="NKA">
		<tag k="name" v="Olderbua" />
		<tag k="place" v="locality" />
		<tag k="ssr:stedsnr" v="12756" />
	</node>
	<node id="9928695022" lat="62.6454188" lon="8.7082338" version="1" timestamp="2022-08-03T05:34:06Z" changeset="124417792" uid="3497659" user="NKA">
		<tag k="alt_name" v="Utistu Grødal" />
		<tag k="name" v="Utistu Grødalen" />
		<tag k="place" v="farm" />
		<tag k="ssr:stedsnr" v="450374" />
	</node>
	<node id="9928695023" lat="62.6218237" lon="8.8850324" version="1" timestamp="2022-08-03T05:34:06Z" changeset="124417792" uid="3497659" user="NKA">
		<tag k="name" v="Nisja" />
		<tag k="place" v="farm" />
		<tag k="ssr:stedsnr" v="485179" />
	</node>
	<node id="9928695024" lat="62.6741972" lon="8.3963555" version="1" timestamp="2022-08-03T05:34:06Z" changeset="124417792" uid="3497659" user="NKA">
		<tag k="name" v="Holten" />
		<tag k="place" v="farm" />
		<tag k="ssr:stedsnr" v="315057" />
	</node>
	<node id="9928695025" lat="62.6455027" lon="8.7805083" version="1" timestamp="2022-08-03T05:34:06Z" changeset="124417792" uid="3497659" user="NKA">
		<tag k="name" v="Hoåslykkja" />
		<tag k="place" v="farm" />
		<tag k="ssr:stedsnr" v="436954" />
	</node>
	<node id="9928695026" lat="62.6419667" lon="8.7790818" version="1" timestamp="2022-08-03T05:34:06Z" changeset="124417792" uid="3497659" user="NKA">
		<tag k="name" v="Leitet" />
		<tag k="place" v="farm" />
		<tag k="ssr:stedsnr" v="874325" />
	</node>
	<node id="9928695027" lat="62.8516666" lon="8.5964973" version="1" timestamp="2022-08-03T05:34:06Z" changeset="124417792" uid="3497659" user="NKA">
		<tag k="alt_name" v="Kobbskjær;Kobbskjere" />
		<tag k="name" v="Kobbskjæret" />
		<tag k="old_name" v="Kobskjær" />
		<tag k="place" v="farm" />
		<tag k="ssr:stedsnr" v="161821" />
	</node>
	<node id="9928695028" lat="62.5235556" lon="9.0300056" version="1" timestamp="2022-08-03T05:34:06Z" changeset="124417792" uid="3497659" user="NKA">
		<tag k="name" v="Nylykkja" />
		<tag k="place" v="isolated_dwelling" />
		<tag k="ssr:stedsnr" v="739825" />
	</node>
	<node id="9928695029" lat="62.5469354" lon="9.0917191" version="1" timestamp="2022-08-03T05:34:06Z" changeset="124417792" uid="3497659" user="NKA">
		<tag k="name" v="Hjellmoen" />
		<tag k="place" v="hamlet" />
		<tag k="ssr:stedsnr" v="739788" />
	</node>
	<node id="9928695030" lat="62.7557" lon="8.4605167" version="1" timestamp="2022-08-03T05:34:06Z" changeset="124417792" uid="3497659" user="NKA">
		<tag k="name" v="Harvollan" />
		<tag k="place" v="farm" />
		<tag k="ssr:stedsnr" v="923542" />
	</node>
	<node id="9928695031" lat="62.8426361" lon="8.5398278" version="1" timestamp="2022-08-03T05:34:06Z" changeset="124417792" uid="3497659" user="NKA">
		<tag k="name" v="Bønasetra" />
		<tag k="place" v="locality" />
		<tag k="ssr:stedsnr" v="752394" />
	</node>
	<node id="9928695032" lat="62.7670027" lon="8.3216556" version="1" timestamp="2022-08-03T05:34:06Z" changeset="124417792" uid="3497659" user="NKA">
		<tag k="name" v="Nedre Jordal" />
		<tag k="place" v="farm" />
		<tag k="ssr:stedsnr" v="910041" />
	</node>
	<node id="9928695033" lat="62.6231862" lon="8.8872" version="1" timestamp="2022-08-03T05:34:06Z" changeset="124417792" uid="3497659" user="NKA">
		<tag k="name" v="Litlfale" />
		<tag k="place" v="farm" />
		<tag k="ssr:stedsnr" v="739996" />
	</node>
	<node id="9928695034" lat="62.649525" lon="8.7189278" version="1" timestamp="2022-08-03T05:34:06Z" changeset="124417792" uid="3497659" user="NKA">
		<tag k="name" v="Førjet" />
		<tag k="place" v="farm" />
		<tag k="ssr:stedsnr" v="375943" />
	</node>
	<node id="9928695035" lat="62.5340032" lon="8.9888155" version="1" timestamp="2022-08-03T05:34:06Z" changeset="124417792" uid="3497659" user="NKA">
		<tag k="historic" v="shieling" />
		<tag k="name" v="Gjerdavangen" />
		<tag k="place" v="isolated_dwelling" />
		<tag k="ssr:stedsnr" v="679821" />
	</node>
	<node id="9928695036" lat="62.7722166" lon="8.4967028" version="1" timestamp="2022-08-03T05:34:06Z" changeset="124417792" uid="3497659" user="NKA">
		<tag k="name" v="Gammelsetra" />
		<tag k="place" v="locality" />
		<tag k="ssr:stedsnr" v="207455" />
	</node>
	<node id="9928695037" lat="62.5167803" lon="8.9890671" version="1" timestamp="2022-08-03T05:34:06Z" changeset="124417792" uid="3497659" user="NKA">
		<tag k="name" v="Bortategjerdet" />
		<tag k="place" v="farm" />
		<tag k="ssr:stedsnr" v="509527" />
	</node>
	<node id="9928695038" lat="62.5550757" lon="8.944708" version="1" timestamp="2022-08-03T05:34:06Z" changeset="124417792" uid="3497659" user="NKA">
		<tag k="historic" v="shieling" />
		<tag k="name" v="Alfheim" />
		<tag k="place" v="isolated_dwelling" />
		<tag k="ssr:stedsnr" v="618776" />
	</node>
	<node id="9928695039" lat="62.6171833" lon="8.8994557" version="1" timestamp="2022-08-03T05:34:06Z" changeset="124417792" uid="3497659" user="NKA">
		<tag k="name" v="Vermøya" />
		<tag k="place" v="farm" />
		<tag k="ssr:stedsnr" v="618994" />
	</node>
	<node id="9928695040" lat="62.499825" lon="8.9499945" version="1" timestamp="2022-08-03T05:34:06Z" changeset="124417792" uid="3497659" user="NKA">
		<tag k="name" v="Leirgrovin" />
		<tag k="place" v="locality" />
		<tag k="ssr:stedsnr" v="449563" />
	</node>
	<node id="9928695041" lat="62.639268" lon="8.7897327" version="1" timestamp="2022-08-03T05:34:06Z" changeset="124417792" uid="3497659" user="NKA">
		<tag k="name" v="Utistu Tøftin" />
		<tag k="place" v="farm" />
		<tag k="ssr:stedsnr" v="207336" />
	</node>
	<node id="9928695042" lat="62.5118393" lon="9.0528117" version="1" timestamp="2022-08-03T05:34:06Z" changeset="124417792" uid="3497659" user="NKA">
		<tag k="name" v="Fjellgardan" />
		<tag k="place" v="hamlet" />
		<tag k="ssr:stedsnr" v="627706" />
	</node>
	<node id="9928695043" lat="62.5447556" lon="9.1030083" version="1" timestamp="2022-08-03T05:34:06Z" changeset="124417792" uid="3497659" user="NKA">
		<tag k="name" v="Nisja" />
		<tag k="place" v="farm" />
		<tag k="ssr:stedsnr" v="618755" />
	</node>
	<node id="9928695044" lat="62.5821238" lon="9.0326482" version="1" timestamp="2022-08-03T05:34:06Z" changeset="124417792" uid="3497659" user="NKA">
		<tag k="name" v="Øster-Ottem" />
		<tag k="place" v="farm" />
		<tag k="ssr:stedsnr" v="849279" />
	</node>
	<node id="9928695045" lat="62.5605111" lon="9.142625" version="1" timestamp="2022-08-03T05:34:06Z" changeset="124417792" uid="3497659" user="NKA">
		<tag k="historic" v="shieling" />
		<tag k="name" v="Lihjellsetra" />
		<tag k="place" v="isolated_dwelling" />
		<tag k="ssr:stedsnr" v="618749" />
	</node>
	<node id="9928695046" lat="62.5571976" lon="8.9472765" version="1" timestamp="2022-08-03T05:34:06Z" changeset="124417792" uid="3497659" user="NKA">
		<tag k="historic" v="shieling" />
		<tag k="name" v="Bjørbekksetra" />
		<tag k="place" v="isolated_dwelling" />
		<tag k="ssr:stedsnr" v="208118" />
	</node>
	<node id="9928695047" lat="62.5227333" lon="9.0747638" version="1" timestamp="2022-08-03T05:34:06Z" changeset="124417792" uid="3497659" user="NKA">
		<tag k="name" v="Bruvollen" />
		<tag k="place" v="farm" />
		<tag k="ssr:stedsnr" v="389679" />
	</node>
	<node id="9928695048" lat="62.5511232" lon="9.0916969" version="1" timestamp="2022-08-03T05:34:06Z" changeset="124417792" uid="3497659" user="NKA">
		<tag k="name" v="Gunnarstu" />
		<tag k="place" v="farm" />
		<tag k="ssr:stedsnr" v="633422" />
	</node>
	<node id="9928695049" lat="62.5446299" lon="9.1125277" version="1" timestamp="2022-08-03T05:34:06Z" changeset="124417792" uid="3497659" user="NKA">
		<tag k="name" v="Korntrøa" />
		<tag k="place" v="isolated_dwelling" />
		<tag k="ssr:stedsnr" v="269347" />
	</node>
	<node id="9928695050" lat="62.5163382" lon="8.9784" version="1" timestamp="2022-08-03T05:34:06Z" changeset="124417792" uid="3497659" user="NKA">
		<tag k="name" v="Øststu" />
		<tag k="place" v="farm" />
		<tag k="ssr:stedsnr" v="206484" />
	</node>
	<node id="9928695051" lat="62.608025" lon="8.7330695" version="1" timestamp="2022-08-03T05:34:06Z" changeset="124417792" uid="3497659" user="NKA">
		<tag k="name" v="Steinly" />
		<tag k="place" v="isolated_dwelling" />
		<tag k="ssr:stedsnr" v="26475" />
	</node>
	<node id="9928695052" lat="62.6519294" lon="8.7071837" version="1" timestamp="2022-08-03T05:34:06Z" changeset="124417792" uid="3497659" user="NKA">
		<tag k="name" v="Negard Torske" />
		<tag k="place" v="farm" />
		<tag k="ssr:stedsnr" v="935389" />
	</node>
	<node id="9928695053" lat="62.653425" lon="8.7028416" version="1" timestamp="2022-08-03T05:34:06Z" changeset="124417792" uid="3497659" user="NKA">
		<tag k="name" v="Løykjahagan" />
		<tag k="place" v="neighbourhood" />
		<tag k="ssr:stedsnr" v="936040" />
	</node>
	<node id="9928695054" lat="62.6531027" lon="8.6597805" version="1" timestamp="2022-08-03T05:34:06Z" changeset="124417792" uid="3497659" user="NKA">
		<tag k="name" v="Leangen" />
		<tag k="place" v="farm" />
		<tag k="ssr:stedsnr" v="12023" />
	</node>
	<node id="9928695055" lat="62.5353778" lon="8.9857861" version="1" timestamp="2022-08-03T05:34:06Z" changeset="124417792" uid="3497659" user="NKA">
		<tag k="name" v="Skardvangen" />
		<tag k="place" v="isolated_dwelling" />
		<tag k="ssr:stedsnr" v="11851" />
	</node>
	<node id="9928695056" lat="62.6411611" lon="8.7282971" version="1" timestamp="2022-08-03T05:34:06Z" changeset="124417792" uid="3497659" user="NKA">
		<tag k="name" v="Tjønnhjellen" />
		<tag k="place" v="farm" />
		<tag k="ssr:stedsnr" v="861951" />
	</node>
	<node id="9928695057" lat="62.7598528" lon="8.5366472" version="1" timestamp="2022-08-03T05:34:06Z" changeset="124417792" uid="3497659" user="NKA">
		<tag k="name" v="Jylland" />
		<tag k="place" v="farm" />
		<tag k="ssr:stedsnr" v="752757" />
	</node>
	<node id="9928695058" lat="62.645225" lon="8.7925583" version="1" timestamp="2022-08-03T05:34:06Z" changeset="124417792" uid="3497659" user="NKA">
		<tag k="name" v="Gammelheimen" />
		<tag k="place" v="locality" />
		<tag k="ssr:stedsnr" v="630308" />
	</node>
	<node id="9928695059" lat="62.749537" lon="8.5314463" version="1" timestamp="2022-08-03T05:34:06Z" changeset="124417792" uid="3497659" user="NKA">
		<tag k="name" v="Nytun" />
		<tag k="place" v="farm" />
		<tag k="ssr:stedsnr" v="691784" />
	</node>
	<node id="9928695060" lat="62.6630722" lon="8.3871388" version="1" timestamp="2022-08-03T05:34:06Z" changeset="124417792" uid="3497659" user="NKA">
		<tag k="historic" v="shieling" />
		<tag k="name" v="Hjellbøsetra" />
		<tag k="place" v="isolated_dwelling" />
		<tag k="ssr:stedsnr" v="688727" />
	</node>
	<node id="9928695061" lat="62.6557072" lon="8.7018306" version="1" timestamp="2022-08-03T05:34:06Z" changeset="124417792" uid="3497659" user="NKA">
		<tag k="name" v="Storlykkja" />
		<tag k="place" v="farm" />
		<tag k="ssr:stedsnr" v="861020" />
	</node>
	<node id="9928695062" lat="62.5325026" lon="8.9928736" version="1" timestamp="2022-08-03T05:34:06Z" changeset="124417792" uid="3497659" user="NKA">
		<tag k="name" v="Tøftvangen" />
		<tag k="place" v="hamlet" />
		<tag k="ssr:stedsnr" v="193848" />
	</node>
	<node id="9928695063" lat="62.790673" lon="8.3390552" version="1" timestamp="2022-08-03T05:34:06Z" changeset="124417792" uid="3497659" user="NKA">
		<tag k="name" v="Almskåra" />
		<tag k="place" v="farm" />
		<tag k="ssr:stedsnr" v="679358" />
	</node>
	<node id="9928695064" lat="62.6448306" lon="8.6890362" version="1" timestamp="2022-08-03T05:34:06Z" changeset="124417792" uid="3497659" user="NKA">
		<tag k="name" v="Hafellbakkan" />
		<tag k="place" v="locality" />
		<tag k="ssr:stedsnr" v="194089" />
	</node>
	<node id="9928695065" lat="62.6517" lon="8.7202139" version="1" timestamp="2022-08-03T05:34:06Z" changeset="124417792" uid="3497659" user="NKA">
		<tag k="name" v="Teskjalykkja" />
		<tag k="place" v="farm" />
		<tag k="ssr:stedsnr" v="194963" />
	</node>
	<node id="9928695066" lat="62.5364853" lon="9.0990484" version="1" timestamp="2022-08-03T05:34:06Z" changeset="124417792" uid="3497659" user="NKA">
		<tag k="name" v="Lunheim" />
		<tag k="place" v="farm" />
		<tag k="ssr:stedsnr" v="861841" />
	</node>
	<node id="9928695067" lat="62.5382495" lon="9.128157" version="1" timestamp="2022-08-03T05:34:06Z" changeset="124417792" uid="3497659" user="NKA">
		<tag k="historic" v="shieling" />
		<tag k="name" v="Storvangen" />
		<tag k="place" v="isolated_dwelling" />
		<tag k="ssr:stedsnr" v="861836" />
	</node>
	<node id="9928695068" lat="62.52407" lon="9.0781354" version="1" timestamp="2022-08-03T05:34:06Z" changeset="124417792" uid="3497659" user="NKA">
		<tag k="name" v="Myra" />
		<tag k="place" v="farm" />
		<tag k="ssr:stedsnr" v="861818" />
	</node>
	<node id="9928695069" lat="62.5132203" lon="9.0526753" version="1" timestamp="2022-08-03T05:34:06Z" changeset="124417792" uid="3497659" user="NKA">
		<tag k="name" v="Bortstu" />
		<tag k="place" v="farm" />
		<tag k="ssr:stedsnr" v="451652" />
	</node>
	<node id="9928695070" lat="62.7147584" lon="8.7000916" version="1" timestamp="2022-08-03T05:34:06Z" changeset="124417792" uid="3497659" user="NKA">
		<tag k="historic" v="shieling" />
		<tag k="name" v="Viromsetra" />
		<tag k="place" v="isolated_dwelling" />
		<tag k="ssr:stedsnr" v="861177" />
	</node>
	<node id="9928695071" lat="62.5901324" lon="9.0179908" version="1" timestamp="2022-08-03T05:34:06Z" changeset="124417792" uid="3497659" user="NKA">
		<tag k="name" v="Ytter-Ottem" />
		<tag k="place" v="farm" />
		<tag k="ssr:stedsnr" v="315763" />
	</node>
	<node id="9928695072" lat="62.5470861" lon="9.1083416" version="1" timestamp="2022-08-03T05:34:06Z" changeset="124417792" uid="3497659" user="NKA">
		<tag k="name" v="Storøya" />
		<tag k="place" v="farm" />
		<tag k="ssr:stedsnr" v="557772" />
	</node>
	<node id="9928695073" lat="62.6199027" lon="8.8962694" version="1" timestamp="2022-08-03T05:34:06Z" changeset="124417792" uid="3497659" user="NKA">
		<tag k="name" v="Myra" />
		<tag k="place" v="farm" />
		<tag k="ssr:stedsnr" v="315995" />
	</node>
	<node id="9928695074" lat="62.6399834" lon="8.7862443" version="1" timestamp="2022-08-03T05:34:06Z" changeset="124417792" uid="3497659" user="NKA">
		<tag k="name" v="Østigard Flatvad" />
		<tag k="place" v="farm" />
		<tag k="ssr:stedsnr" v="268344" />
	</node>
	<node id="9928695075" lat="62.6391292" lon="8.7917934" version="1" timestamp="2022-08-03T05:34:06Z" changeset="124417792" uid="3497659" user="NKA">
		<tag k="name" v="Østistu Tøftin" />
		<tag k="place" v="farm" />
		<tag k="ssr:stedsnr" v="268343" />
	</node>
	<node id="9928695076" lat="62.4453139" lon="8.9081944" version="1" timestamp="2022-08-03T05:34:06Z" changeset="124417792" uid="3497659" user="NKA">
		<tag k="historic" v="shieling" />
		<tag k="name" v="Flyan" />
		<tag k="place" v="isolated_dwelling" />
		<tag k="ssr:stedsnr" v="314502" />
	</node>
	<node id="9928695077" lat="62.5403667" lon="9.1047028" version="1" timestamp="2022-08-03T05:34:06Z" changeset="124417792" uid="3497659" user="NKA">
		<tag k="name" v="Sandlykkja" />
		<tag k="place" v="farm" />
		<tag k="ssr:stedsnr" v="193836" />
	</node>
	<node id="9928695078" lat="62.6487995" lon="8.6783613" version="1" timestamp="2022-08-03T05:34:06Z" changeset="124417792" uid="3497659" user="NKA">
		<tag k="name" v="Leangsøya" />
		<tag k="place" v="farm" />
		<tag k="ssr:stedsnr" v="632481" />
	</node>
	<node id="9928695079" lat="62.6135" lon="8.7232862" version="1" timestamp="2022-08-03T05:34:06Z" changeset="124417792" uid="3497659" user="NKA">
		<tag k="historic" v="shieling" />
		<tag k="name" v="Dalasetra" />
		<tag k="place" v="isolated_dwelling" />
		<tag k="ssr:stedsnr" v="557983" />
	</node>
	<node id="9928695080" lat="62.5430541" lon="9.1061558" version="1" timestamp="2022-08-03T05:34:06Z" changeset="124417792" uid="3497659" user="NKA">
		<tag k="name" v="Orheim" />
		<tag k="place" v="farm" />
		<tag k="ssr:stedsnr" v="330502" />
	</node>
	<node id="9928695081" lat="62.5268315" lon="9.0821118" version="1" timestamp="2022-08-03T05:34:06Z" changeset="124417792" uid="3497659" user="NKA">
		<tag k="name" v="Massinghaugen" />
		<tag k="place" v="isolated_dwelling" />
		<tag k="ssr:stedsnr" v="72813" />
	</node>
	<node id="9928695082" lat="62.6431537" lon="8.7231313" version="1" timestamp="2022-08-03T05:34:06Z" changeset="124417792" uid="3497659" user="NKA">
		<tag k="name" v="Fossestu" />
		<tag k="place" v="farm" />
		<tag k="ssr:stedsnr" v="631379" />
	</node>
	<node id="9928695083" lat="62.6478556" lon="8.7450278" version="1" timestamp="2022-08-03T05:34:06Z" changeset="124417792" uid="3497659" user="NKA">
		<tag k="name" v="Hoåsbrekka" />
		<tag k="place" v="farm" />
		<tag k="ssr:stedsnr" v="557946" />
	</node>
	<node id="9928695084" lat="62.6300867" lon="8.8403095" version="1" timestamp="2022-08-03T05:34:06Z" changeset="124417792" uid="3497659" user="NKA">
		<tag k="name" v="Molykkja" />
		<tag k="place" v="farm" />
		<tag k="ssr:stedsnr" v="193936" />
	</node>
	<node id="9928695085" lat="62.6530861" lon="8.6677416" version="1" timestamp="2022-08-03T05:34:06Z" changeset="124417792" uid="3497659" user="NKA">
		<tag k="name" v="Vinnavoll" />
		<tag k="place" v="farm" />
		<tag k="ssr:stedsnr" v="557013" />
	</node>
	<node id="9928695086" lat="62.6395072" lon="8.7912822" version="1" timestamp="2022-08-03T05:34:06Z" changeset="124417792" uid="3497659" user="NKA">
		<tag k="name" v="Tøftin" />
		<tag k="place" v="hamlet" />
		<tag k="ssr:stedsnr" v="193943" />
	</node>
	<node id="9928695087" lat="62.6424495" lon="8.7228595" version="1" timestamp="2022-08-03T05:34:06Z" changeset="124417792" uid="3497659" user="NKA">
		<tag k="name" v="Grødalen" />
		<tag k="place" v="locality" />
		<tag k="ssr:stedsnr" v="545236" />
	</node>
	<node id="9928695088" lat="62.5433468" lon="9.1095471" version="1" timestamp="2022-08-03T05:34:06Z" changeset="124417792" uid="3497659" user="NKA">
		<tag k="name" v="Nyheim" />
		<tag k="place" v="farm" />
		<tag k="ssr:stedsnr" v="72808" />
	</node>
	<node id="9928695089" lat="62.6417735" lon="8.7703311" version="1" timestamp="2022-08-03T05:34:06Z" changeset="124417792" uid="3497659" user="NKA">
		<tag k="name" v="Øyan" />
		<tag k="place" v="farm" />
		<tag k="ssr:stedsnr" v="630294" />
	</node>
	<node id="9928695090" lat="62.7586593" lon="8.5417606" version="1" timestamp="2022-08-03T05:34:06Z" changeset="124417792" uid="3497659" user="NKA">
		<tag k="name" v="Mo" />
		<tag k="place" v="farm" />
		<tag k="ssr:stedsnr" v="923543" />
	</node>
	<node id="9928695091" lat="62.6538889" lon="8.7061528" version="1" timestamp="2022-08-03T05:34:06Z" changeset="124417792" uid="3497659" user="NKA">
		<tag k="name" v="Torske" />
		<tag k="place" v="farm" />
		<tag k="ssr:stedsnr" v="922025" />
	</node>
	<node id="9928695092" lat="62.7623537" lon="8.5342427" version="1" timestamp="2022-08-03T05:34:06Z" changeset="124417792" uid="3497659" user="NKA">
		<tag k="name" v="Skauland" />
		<tag k="place" v="farm" />
		<tag k="ssr:stedsnr" v="936628" />
	</node>
	<node id="9928695093" lat="62.7427182" lon="8.515188" version="1" timestamp="2022-08-03T05:34:06Z" changeset="124417792" uid="3497659" user="NKA">
		<tag k="name" v="Hjellan" />
		<tag k="place" v="farm" />
		<tag k="ssr:stedsnr" v="436222" />
	</node>
	<node id="9928695094" lat="62.6576324" lon="8.6153247" version="1" timestamp="2022-08-03T05:34:06Z" changeset="124417792" uid="3497659" user="NKA">
		<tag k="name" v="Reina" />
		<tag k="place" v="farm" />
		<tag k="ssr:stedsnr" v="693181" />
	</node>
	<node id="9928695095" lat="62.7143389" lon="8.4311222" version="1" timestamp="2022-08-03T05:34:06Z" changeset="124417792" uid="3497659" user="NKA">
		<tag k="name" v="Husby" />
		<tag k="place" v="hamlet" />
		<tag k="ssr:stedsnr" v="436179" />
	</node>
	<node id="9928695096" lat="62.6942528" lon="8.5043472" version="1" timestamp="2022-08-03T05:34:06Z" changeset="124417792" uid="3497659" user="NKA">
		<tag k="name" v="Ura" />
		<tag k="place" v="farm" />
		<tag k="ssr:stedsnr" v="813718" />
	</node>
	<node id="9928695097" lat="62.6802583" lon="8.415489" version="1" timestamp="2022-08-03T05:34:06Z" changeset="124417792" uid="3497659" user="NKA">
		<tag k="name" v="Setran" />
		<tag k="place" v="hamlet" />
		<tag k="ssr:stedsnr" v="922048" />
	</node>
	<node id="9928695098" lat="62.7822559" lon="8.5255626" version="1" timestamp="2022-08-03T05:34:06Z" changeset="124417792" uid="3497659" user="NKA">
		<tag k="name" v="Øvre Viset" />
		<tag k="place" v="farm" />
		<tag k="ssr:stedsnr" v="815653" />
	</node>
	<node id="9928695099" lat="62.6517387" lon="8.7122635" version="1" timestamp="2022-08-03T05:34:06Z" changeset="124417792" uid="3497659" user="NKA">
		<tag k="name" v="Bortstu Torske" />
		<tag k="place" v="farm" />
		<tag k="ssr:stedsnr" v="146362" />
	</node>
	<node id="9928695100" lat="62.6590473" lon="8.6462084" version="1" timestamp="2022-08-03T05:34:06Z" changeset="124417792" uid="3497659" user="NKA">
		<tag k="name" v="Bjørkan" />
		<tag k="place" v="hamlet" />
		<tag k="ssr:stedsnr" v="510096" />
	</node>
	<node id="9928695101" lat="62.6662283" lon="8.5946575" version="1" timestamp="2022-08-03T05:34:06Z" changeset="124417792" uid="3497659" user="NKA">
		<tag k="name" v="Hagan" />
		<tag k="place" v="farm" />
		<tag k="ssr:stedsnr" v="557009" />
	</node>
	<node id="9928695102" lat="62.763325" lon="8.5958806" version="1" timestamp="2022-08-03T05:34:06Z" changeset="124417792" uid="3497659" user="NKA">
		<tag k="name" v="Virom" />
		<tag k="place" v="hamlet" />
		<tag k="ssr:stedsnr" v="558514" />
	</node>
	<node id="9928695103" lat="62.7473882" lon="8.5295281" version="1" timestamp="2022-08-03T05:34:06Z" changeset="124417792" uid="3497659" user="NKA">
		<tag k="name" v="Gjersvoll" />
		<tag k="place" v="farm" />
		<tag k="ssr:stedsnr" v="759920" />
	</node>
	<node id="9928695104" lat="62.6525921" lon="8.6360142" version="1" timestamp="2022-08-03T05:34:06Z" changeset="124417792" uid="3497659" user="NKA">
		<tag k="name" v="Høgset" />
		<tag k="place" v="farm" />
		<tag k="ssr:stedsnr" v="208464" />
	</node>
	<node id="9928695105" lat="62.7843166" lon="8.5126555" version="1" timestamp="2022-08-03T05:34:06Z" changeset="124417792" uid="3497659" user="NKA">
		<tag k="name" v="Årammen" />
		<tag k="place" v="hamlet" />
		<tag k="ssr:stedsnr" v="740366" />
	</node>
	<node id="9928695106" lat="62.7396025" lon="8.5266024" version="1" timestamp="2022-08-03T05:34:06Z" changeset="124417792" uid="3497659" user="NKA">
		<tag k="name" v="Oppdølstrøa" />
		<tag k="place" v="farm" />
		<tag k="ssr:stedsnr" v="678257" />
	</node>
	<node id="9928695107" lat="62.7818362" lon="8.5178419" version="1" timestamp="2022-08-03T05:34:06Z" changeset="124417792" uid="3497659" user="NKA">
		<tag k="name" v="Litlhaugen" />
		<tag k="place" v="farm" />
		<tag k="ssr:stedsnr" v="693677" />
	</node>
	<node id="9928695108" lat="62.7338639" lon="8.4128001" version="1" timestamp="2022-08-03T05:34:06Z" changeset="124417792" uid="3497659" user="NKA">
		<tag k="name" v="Henriktrøa" />
		<tag k="place" v="locality" />
		<tag k="ssr:stedsnr" v="389029" />
	</node>
	<node id="9928695109" lat="62.6658639" lon="8.5913361" version="1" timestamp="2022-08-03T05:34:06Z" changeset="124417792" uid="3497659" user="NKA">
		<tag k="name" v="Presthagan" />
		<tag k="place" v="neighbourhood" />
		<tag k="ssr:stedsnr" v="450067" />
	</node>
	<node id="9928695110" lat="62.6598306" lon="8.3584944" version="1" timestamp="2022-08-03T05:34:06Z" changeset="124417792" uid="3497659" user="NKA">
		<tag k="name" v="Vollen" />
		<tag k="place" v="farm" />
		<tag k="ssr:stedsnr" v="436006" />
	</node>
	<node id="9928695111" lat="62.4930944" lon="8.563075" version="1" timestamp="2022-08-03T05:34:06Z" changeset="124417792" uid="3497659" user="NKA">
		<tag k="name" v="Purkbua" />
		<tag k="place" v="isolated_dwelling" />
		<tag k="ssr:stedsnr" v="436150" />
	</node>
	<node id="9928695112" lat="62.6891084" lon="8.5092305" version="1" timestamp="2022-08-03T05:34:06Z" changeset="124417792" uid="3497659" user="NKA">
		<tag k="name" v="Mannvika" />
		<tag k="place" v="farm" />
		<tag k="ssr:stedsnr" v="315027" />
	</node>
	<node id="9928695113" lat="62.8050164" lon="8.4913013" version="1" timestamp="2022-08-03T05:34:06Z" changeset="124417792" uid="3497659" user="NKA">
		<tag k="name" v="Råa" />
		<tag k="place" v="farm" />
		<tag k="ssr:stedsnr" v="388564" />
	</node>
	<node id="9928695114" lat="62.747399" lon="8.5295518" version="1" timestamp="2022-08-03T05:34:06Z" changeset="124417792" uid="3497659" user="NKA">
		<tag k="name" v="Øvre Gjersvoll" />
		<tag k="place" v="farm" />
		<tag k="ssr:stedsnr" v="267812" />
	</node>
	<node id="9928695115" lat="62.6472664" lon="8.7406963" version="1" timestamp="2022-08-03T05:34:06Z" changeset="124417792" uid="3497659" user="NKA">
		<tag k="name" v="Hoås" />
		<tag k="place" v="hamlet" />
		<tag k="ssr:stedsnr" v="861968" />
	</node>
	<node id="9928695116" lat="62.6510341" lon="8.6928613" version="1" timestamp="2022-08-03T05:34:06Z" changeset="124417792" uid="3497659" user="NKA">
		<tag k="name" v="Elverhøy" />
		<tag k="place" v="farm" />
		<tag k="ssr:stedsnr" v="572505" />
	</node>
	<node id="9928695117" lat="62.8553473" lon="8.4108945" version="1" timestamp="2022-08-03T05:34:06Z" changeset="124417792" uid="3497659" user="NKA">
		<tag k="name" v="Litlsetra" />
		<tag k="place" v="locality" />
		<tag k="ssr:stedsnr" v="327122" />
	</node>
	<node id="9928695118" lat="62.4935617" lon="9.0845266" version="1" timestamp="2022-08-03T05:34:06Z" changeset="124417792" uid="3497659" user="NKA">
		<tag k="name" v="Hulderbua" />
		<tag k="place" v="locality" />
		<tag k="ssr:stedsnr" v="937750" />
	</node>
	<node id="9928695119" lat="62.838188" lon="8.4272674" version="1" timestamp="2022-08-03T05:34:06Z" changeset="124417792" uid="3497659" user="NKA">
		<tag k="name" v="Sessbøsetra" />
		<tag k="place" v="isolated_dwelling" />
		<tag k="ssr:stedsnr" v="266062" />
	</node>
	<node id="9928695120" lat="62.564243" lon="9.0673906" version="1" timestamp="2022-08-03T05:34:06Z" changeset="124417792" uid="3497659" user="NKA">
		<tag k="name" v="Utistu Gravem" />
		<tag k="place" v="farm" />
		<tag k="ssr:stedsnr" v="937474" />
	</node>
	<node id="9928695121" lat="62.6930195" lon="8.424086" version="1" timestamp="2022-08-03T05:34:06Z" changeset="124417792" uid="3497659" user="NKA">
		<tag k="name" v="Sjølsetøya" />
		<tag k="place" v="farm" />
		<tag k="ssr:stedsnr" v="315033" />
	</node>
	<node id="9928695122" lat="62.73635" lon="8.4106501" version="1" timestamp="2022-08-03T05:34:06Z" changeset="124417792" uid="3497659" user="NKA">
		<tag k="name" v="Tomastrøa" />
		<tag k="place" v="locality" />
		<tag k="ssr:stedsnr" v="268036" />
	</node>
	<node id="9928695123" lat="62.5599491" lon="9.0818734" version="1" timestamp="2022-08-03T05:34:06Z" changeset="124417792" uid="3497659" user="NKA">
		<tag k="name" v="Oppigard Gravem" />
		<tag k="place" v="farm" />
		<tag k="ssr:stedsnr" v="937433" />
	</node>
	<node id="9928695124" lat="62.5332083" lon="8.973419" version="1" timestamp="2022-08-03T05:34:06Z" changeset="124417792" uid="3497659" user="NKA">
		<tag k="name" v="Urabekken" />
		<tag k="place" v="isolated_dwelling" />
		<tag k="ssr:stedsnr" v="937141" />
	</node>
	<node id="9928695125" lat="62.7719809" lon="8.5591159" version="1" timestamp="2022-08-03T05:34:06Z" changeset="124417792" uid="3497659" user="NKA">
		<tag k="historic" v="shieling" />
		<tag k="name" v="Børsetsetra" />
		<tag k="place" v="isolated_dwelling" />
		<tag k="ssr:stedsnr" v="141197" />
	</node>
	<node id="9928695126" lat="62.6331805" lon="8.7027779" version="1" timestamp="2022-08-03T05:34:06Z" changeset="124417792" uid="3497659" user="NKA">
		<tag k="name" v="Langmyrstølen" />
		<tag k="place" v="locality" />
		<tag k="ssr:stedsnr" v="632420" />
	</node>
	<node id="9928695127" lat="62.9073857" lon="8.4063724" version="1" timestamp="2022-08-03T05:34:06Z" changeset="124417792" uid="3497659" user="NKA">
		<tag k="name" v="Solvang" />
		<tag k="place" v="farm" />
		<tag k="ssr:stedsnr" v="510240" />
	</node>
	<node id="9928695128" lat="62.685633" lon="8.4123342" version="1" timestamp="2022-08-03T05:34:06Z" changeset="124417792" uid="3497659" user="NKA">
		<tag k="name" v="Steinteigan" />
		<tag k="place" v="farm" />
		<tag k="ssr:stedsnr" v="1080834" />
	</node>
	<node id="9928695129" lat="62.59525" lon="8.9584001" version="1" timestamp="2022-08-03T05:34:06Z" changeset="124417792" uid="3497659" user="NKA">
		<tag k="name" v="Ørsund" />
		<tag k="place" v="farm" />
		<tag k="ssr:stedsnr" v="922966" />
	</node>
	<node id="9928695130" lat="62.9031028" lon="8.4111001" version="1" timestamp="2022-08-03T05:34:06Z" changeset="124417792" uid="3497659" user="NKA">
		<tag k="name" v="Sundet" />
		<tag k="place" v="farm" />
		<tag k="ssr:stedsnr" v="24237" />
	</node>
	<node id="9928695131" lat="62.594825" lon="8.9981055" version="1" timestamp="2022-08-03T05:34:06Z" changeset="124417792" uid="3497659" user="NKA">
		<tag k="name" v="Ottemslykkja" />
		<tag k="place" v="farm" />
		<tag k="ssr:stedsnr" v="922734" />
	</node>
	<node id="9928695132" lat="62.8819139" lon="8.4429333" version="1" timestamp="2022-08-03T05:34:06Z" changeset="124417792" uid="3497659" user="NKA">
		<tag k="name" v="Åsheim" />
		<tag k="place" v="isolated_dwelling" />
		<tag k="ssr:stedsnr" v="267172" />
	</node>
	<node id="9928695133" lat="62.7281055" lon="8.4040751" version="1" timestamp="2022-08-03T05:34:06Z" changeset="124417792" uid="3497659" user="NKA">
		<tag k="name" v="Grytnessetra" />
		<tag k="place" v="locality" />
		<tag k="ssr:stedsnr" v="935021" />
	</node>
	<node id="9928695134" lat="62.6401833" lon="8.6937084" version="1" timestamp="2022-08-03T05:34:06Z" changeset="124417792" uid="3497659" user="NKA">
		<tag k="name" v="Grødalssetrin" />
		<tag k="place" v="locality" />
		<tag k="ssr:stedsnr" v="451500" />
	</node>
	<node id="9928695135" lat="62.7051111" lon="8.4217027" version="1" timestamp="2022-08-03T05:34:06Z" changeset="124417792" uid="3497659" user="NKA">
		<tag k="name" v="Sandbrekka" />
		<tag k="place" v="farm" />
		<tag k="ssr:stedsnr" v="922190" />
	</node>
	<node id="9928695136" lat="62.8785496" lon="8.4451261" version="1" timestamp="2022-08-03T05:34:06Z" changeset="124417792" uid="3497659" user="NKA">
		<tag k="name" v="Ørsvikan" />
		<tag k="place" v="farm" />
		<tag k="ssr:stedsnr" v="923296" />
	</node>
	<node id="9928695137" lat="62.6708528" lon="8.5789473" version="1" timestamp="2022-08-03T05:34:06Z" changeset="124417792" uid="3497659" user="NKA">
		<tag k="name" v="Holten" />
		<tag k="place" v="quarter" />
		<tag k="ssr:stedsnr" v="688729" />
	</node>
	<node id="9928695138" lat="62.6708667" lon="8.4434945" version="1" timestamp="2022-08-03T05:34:06Z" changeset="124417792" uid="3497659" user="NKA">
		<tag k="historic" v="shieling" />
		<tag k="name" v="Husbysetran" />
		<tag k="place" v="isolated_dwelling" />
		<tag k="ssr:stedsnr" v="679062" />
	</node>
	<node id="9928695139" lat="62.5541084" lon="9.1168889" version="1" timestamp="2022-08-03T05:34:06Z" changeset="124417792" uid="3497659" user="NKA">
		<tag k="name" v="Gjøra" />
		<tag k="place" v="farm" />
		<tag k="ssr:stedsnr" v="800766" />
	</node>
	<node id="9928695140" lat="62.6985306" lon="8.4262112" version="1" timestamp="2022-08-03T05:34:06Z" changeset="124417792" uid="3497659" user="NKA">
		<tag k="name" v="Ingeborgtrøa" />
		<tag k="place" v="locality" />
		<tag k="ssr:stedsnr" v="754093" />
	</node>
	<node id="9928695141" lat="62.686225" lon="8.4238278" version="1" timestamp="2022-08-03T05:34:06Z" changeset="124417792" uid="3497659" user="NKA">
		<tag k="name" v="Smedstad" />
		<tag k="place" v="hamlet" />
		<tag k="ssr:stedsnr" v="436037" />
	</node>
	<node id="9928695142" lat="62.7611105" lon="8.3165349" version="1" timestamp="2022-08-03T05:34:06Z" changeset="124417792" uid="3497659" user="NKA">
		<tag k="name" v="Ekkerøya" />
		<tag k="place" v="farm" />
		<tag k="ssr:stedsnr" v="693961" />
	</node>
	<node id="9928695143" lat="62.6452629" lon="8.711939" version="1" timestamp="2022-08-03T05:34:06Z" changeset="124417792" uid="3497659" user="NKA">
		<tag k="name" v="Grødalen" />
		<tag k="place" v="hamlet" />
		<tag k="ssr:stedsnr" v="12104" />
	</node>
	<node id="9928695144" lat="62.5537627" lon="9.1153972" version="1" timestamp="2022-08-03T05:34:06Z" changeset="124417792" uid="3497659" user="NKA">
		<tag k="name" v="Øststu" />
		<tag k="place" v="farm" />
		<tag k="ssr:stedsnr" v="754264" />
	</node>
	<node id="9928695145" lat="62.8697583" lon="8.4747778" version="1" timestamp="2022-08-03T05:34:06Z" changeset="124417792" uid="3497659" user="NKA">
		<tag k="name" v="Gjengstøa" />
		<tag k="place" v="locality" />
		<tag k="ssr:stedsnr" v="692252" />
	</node>
	<node id="9928695146" lat="62.7632991" lon="8.5937169" version="1" timestamp="2022-08-03T05:34:06Z" changeset="124417792" uid="3497659" user="NKA">
		<tag k="name" v="Virom Oppistua" />
		<tag k="place" v="farm" />
		<tag k="ssr:stedsnr" v="511823" />
	</node>
	<node id="9928695147" lat="62.7369751" lon="8.7123511" version="1" timestamp="2022-08-03T05:34:06Z" changeset="124417792" uid="3497659" user="NKA">
		<tag k="name" v="Dalen" />
		<tag k="place" v="hamlet" />
		<tag k="ssr:stedsnr" v="314265" />
	</node>
	<node id="9928695148" lat="62.65645" lon="8.5264639" version="1" timestamp="2022-08-03T05:34:06Z" changeset="124417792" uid="3497659" user="NKA">
		<tag k="name" v="Sjølsenga" />
		<tag k="place" v="farm" />
		<tag k="ssr:stedsnr" v="254027" />
	</node>
	<node id="9928695149" lat="62.7609194" lon="8.5899527" version="1" timestamp="2022-08-03T05:34:06Z" changeset="124417792" uid="3497659" user="NKA">
		<tag k="name" v="Eikremtrøa" />
		<tag k="place" v="locality" />
		<tag k="ssr:stedsnr" v="267729" />
	</node>
	<node id="9928695150" lat="62.661516" lon="8.3503226" version="1" timestamp="2022-08-03T05:34:06Z" changeset="124417792" uid="3497659" user="NKA">
		<tag k="name" v="Bruset" />
		<tag k="place" v="hamlet" />
		<tag k="ssr:stedsnr" v="618003" />
	</node>
	<node id="9928695151" lat="62.5587553" lon="9.0829158" version="1" timestamp="2022-08-03T05:34:06Z" changeset="124417792" uid="3497659" user="NKA">
		<tag k="name" v="Larsstu Gravem" />
		<tag k="place" v="farm" />
		<tag k="ssr:stedsnr" v="694400" />
	</node>
	<node id="9928695152" lat="62.5751361" lon="9.0443806" version="1" timestamp="2022-08-03T05:34:06Z" changeset="124417792" uid="3497659" user="NKA">
		<tag k="name" v="Hagan" />
		<tag k="place" v="farm" />
		<tag k="ssr:stedsnr" v="618727" />
	</node>
	<node id="9928695153" lat="62.7548723" lon="8.6148336" version="1" timestamp="2022-08-03T05:34:06Z" changeset="124417792" uid="3497659" user="NKA">
		<tag k="name" v="Holtan" />
		<tag k="place" v="hamlet" />
		<tag k="ssr:stedsnr" v="255499" />
	</node>
	<node id="9928695154" lat="62.5678361" lon="9.0509667" version="1" timestamp="2022-08-03T05:34:06Z" changeset="124417792" uid="3497659" user="NKA">
		<tag k="name" v="Bjørbekkje" />
		<tag k="place" v="hamlet" />
		<tag k="ssr:stedsnr" v="618769" />
	</node>
	<node id="9928695155" lat="62.7055611" lon="8.4395445" version="1" timestamp="2022-08-03T05:34:06Z" changeset="124417792" uid="3497659" user="NKA">
		<tag k="name" v="Svatrøa" />
		<tag k="place" v="locality" />
		<tag k="ssr:stedsnr" v="511071" />
	</node>
	<node id="9928695156" lat="62.6797083" lon="8.5166418" version="1" timestamp="2022-08-03T05:34:06Z" changeset="124417792" uid="3497659" user="NKA">
		<tag k="name" v="Krokshamna" />
		<tag k="place" v="farm" />
		<tag k="ssr:stedsnr" v="72055" />
	</node>
	<node id="9928695157" lat="62.6676361" lon="8.5960528" version="1" timestamp="2022-08-03T05:34:06Z" changeset="124417792" uid="3497659" user="NKA">
		<tag k="name" v="Melan" />
		<tag k="place" v="farm" />
		<tag k="ssr:stedsnr" v="72015" />
	</node>
	<node id="9928695158" lat="62.8369195" lon="8.4773722" version="1" timestamp="2022-08-03T05:34:06Z" changeset="124417792" uid="3497659" user="NKA">
		<tag k="name" v="Vågasetra" />
		<tag k="place" v="isolated_dwelling" />
		<tag k="ssr:stedsnr" v="510192" />
	</node>
	<node id="9928695159" lat="62.5827223" lon="8.5023611" version="1" timestamp="2022-08-03T05:34:06Z" changeset="124417792" uid="3497659" user="NKA">
		<tag k="name" v="Synnhammarteigen" />
		<tag k="place" v="locality" />
		<tag k="ssr:stedsnr" v="25997" />
	</node>
	<node id="9928695160" lat="62.551654" lon="9.1168696" version="1" timestamp="2022-08-03T05:34:06Z" changeset="124417792" uid="3497659" user="NKA">
		<tag k="name" v="Nestu" />
		<tag k="place" v="farm" />
		<tag k="ssr:stedsnr" v="512249" />
	</node>
	<node id="9928695161" lat="62.55674" lon="9.0763821" version="1" timestamp="2022-08-03T05:34:06Z" changeset="124417792" uid="3497659" user="NKA">
		<tag k="name" v="Hjellrønningen" />
		<tag k="place" v="farm" />
		<tag k="ssr:stedsnr" v="633432" />
	</node>
	<node id="9928695162" lat="62.7616361" lon="8.3146888" version="1" timestamp="2022-08-03T05:34:06Z" changeset="124417792" uid="3497659" user="NKA">
		<tag k="name" v="Ekra" />
		<tag k="place" v="farm" />
		<tag k="ssr:stedsnr" v="497380" />
	</node>
	<node id="9928695163" lat="62.5551509" lon="9.0856189" version="1" timestamp="2022-08-03T05:34:06Z" changeset="124417792" uid="3497659" user="NKA">
		<tag k="name" v="Utigardshjellen" />
		<tag k="place" v="farm" />
		<tag k="ssr:stedsnr" v="26407" />
	</node>
	<node id="9928695164" lat="62.7550701" lon="8.3736362" version="1" timestamp="2022-08-03T05:34:06Z" changeset="124417792" uid="3497659" user="NKA">
		<tag k="name" v="Mjølkill" />
		<tag k="place" v="hamlet" />
		<tag k="ssr:stedsnr" v="497474" />
	</node>
	<node id="9928695165" lat="62.5539128" lon="9.0875257" version="1" timestamp="2022-08-03T05:34:06Z" changeset="124417792" uid="3497659" user="NKA">
		<tag k="name" v="Gravemshagan" />
		<tag k="place" v="farm" />
		<tag k="ssr:stedsnr" v="87375" />
	</node>
	<node id="9928695166" lat="62.5530586" lon="9.0879249" version="1" timestamp="2022-08-03T05:34:06Z" changeset="124417792" uid="3497659" user="NKA">
		<tag k="name" v="Steinarstu" />
		<tag k="place" v="farm" />
		<tag k="ssr:stedsnr" v="269392" />
	</node>
	<node id="9928695167" lat="62.7546889" lon="8.6212555" version="1" timestamp="2022-08-03T05:34:06Z" changeset="124417792" uid="3497659" user="NKA">
		<tag k="name" v="Sanden" />
		<tag k="place" v="farm" />
		<tag k="ssr:stedsnr" v="316563" />
	</node>
	<node id="9928695168" lat="62.661025" lon="8.3609279" version="1" timestamp="2022-08-03T05:34:06Z" changeset="124417792" uid="3497659" user="NKA">
		<tag k="name" v="Mosbøneset" />
		<tag k="place" v="farm" />
		<tag k="ssr:stedsnr" v="436003" />
	</node>
	<node id="9928695169" lat="62.7580805" lon="8.6047695" version="1" timestamp="2022-08-03T05:34:06Z" changeset="124417792" uid="3497659" user="NKA">
		<tag k="name" v="Gammelholtan" />
		<tag k="place" v="locality" />
		<tag k="ssr:stedsnr" v="146742" />
	</node>
	<node id="9928695170" lat="62.7403472" lon="8.6232445" version="1" timestamp="2022-08-03T05:34:06Z" changeset="124417792" uid="3497659" user="NKA">
		<tag k="name" v="Dalsbøsetra" />
		<tag k="place" v="isolated_dwelling" />
		<tag k="ssr:stedsnr" v="85692" />
	</node>
	<node id="9928695171" lat="62.7046805" lon="8.4761166" version="1" timestamp="2022-08-03T05:34:06Z" changeset="124417792" uid="3497659" user="NKA">
		<tag k="name" v="Storviksetra" />
		<tag k="place" v="locality" />
		<tag k="ssr:stedsnr" v="875097" />
	</node>
	<node id="9928695172" lat="62.5496355" lon="9.1029815" version="1" timestamp="2022-08-03T05:34:06Z" changeset="124417792" uid="3497659" user="NKA">
		<tag k="name" v="Drivøya" />
		<tag k="place" v="farm" />
		<tag k="ssr:stedsnr" v="451353" />
	</node>
	<node id="9928695173" lat="62.7131944" lon="8.421211" version="1" timestamp="2022-08-03T05:34:06Z" changeset="124417792" uid="3497659" user="NKA">
		<tag k="name" v="Erstad" />
		<tag k="place" v="farm" />
		<tag k="ssr:stedsnr" v="193211" />
	</node>
	<node id="9928695174" lat="62.6973861" lon="8.4971639" version="1" timestamp="2022-08-03T05:34:06Z" changeset="124417792" uid="3497659" user="NKA">
		<tag k="name" v="Innvikan" />
		<tag k="place" v="farm" />
		<tag k="ssr:stedsnr" v="375170" />
	</node>
	<node id="9928695175" lat="62.6488401" lon="8.6885092" version="1" timestamp="2022-08-03T05:34:06Z" changeset="124417792" uid="3497659" user="NKA">
		<tag k="name" v="Løykjaøyan" />
		<tag k="place" v="farm" />
		<tag k="ssr:stedsnr" v="936477" />
	</node>
	<node id="9928695176" lat="62.5483027" lon="9.123575" version="1" timestamp="2022-08-03T05:34:06Z" changeset="124417792" uid="3497659" user="NKA">
		<tag k="name" v="Grytlykkja" />
		<tag k="place" v="farm" />
		<tag k="ssr:stedsnr" v="254764" />
	</node>
	<node id="9928695177" lat="62.6564667" lon="8.5344444" version="1" timestamp="2022-08-03T05:34:06Z" changeset="124417792" uid="3497659" user="NKA">
		<tag k="name" v="Drihjellen" />
		<tag k="place" v="isolated_dwelling" />
		<tag k="ssr:stedsnr" v="861025" />
	</node>
	<node id="9928695178" lat="62.7761889" lon="8.5405473" version="1" timestamp="2022-08-03T05:34:06Z" changeset="124417792" uid="3497659" user="NKA">
		<tag k="name" v="Valsetlykkja" />
		<tag k="place" v="farm" />
		<tag k="ssr:stedsnr" v="922365" />
	</node>
	<node id="9928695179" lat="62.5544167" lon="9.1374083" version="1" timestamp="2022-08-03T05:34:06Z" changeset="124417792" uid="3497659" user="NKA">
		<tag k="historic" v="shieling" />
		<tag k="name" v="Gjørasætra" />
		<tag k="place" v="isolated_dwelling" />
		<tag k="ssr:stedsnr" v="800758" />
	</node>
	<node id="9928695180" lat="62.5712657" lon="9.1396109" version="1" timestamp="2022-08-03T05:34:06Z" changeset="124417792" uid="3497659" user="NKA">
		<tag k="name" v="Lihjell" />
		<tag k="place" v="farm" />
		<tag k="ssr:stedsnr" v="254785" />
	</node>
	<node id="9928695181" lat="62.5744306" lon="9.1421529" version="1" timestamp="2022-08-03T05:34:06Z" changeset="124417792" uid="3497659" user="NKA">
		<tag k="name" v="Krokbygda" />
		<tag k="place" v="hamlet" />
		<tag k="ssr:stedsnr" v="263749" />
	</node>
	<node id="9928695182" lat="62.5744861" lon="9.1415889" version="1" timestamp="2022-08-03T05:34:06Z" changeset="124417792" uid="3497659" user="NKA">
		<tag k="name" v="Småvollen" />
		<tag k="place" v="locality" />
		<tag k="ssr:stedsnr" v="861741" />
	</node>
	<node id="9928695183" lat="62.8114451" lon="8.5141642" version="1" timestamp="2022-08-03T05:34:06Z" changeset="124417792" uid="3497659" user="NKA">
		<tag k="name" v="Rennset" />
		<tag k="place" v="hamlet" />
		<tag k="ssr:stedsnr" v="801391" />
	</node>
	<node id="9928695184" lat="62.7486917" lon="8.5187668" version="1" timestamp="2022-08-03T05:34:06Z" changeset="124417792" uid="3497659" user="NKA">
		<tag k="historic" v="shieling" />
		<tag k="name" v="Gjersvollsetra" />
		<tag k="place" v="isolated_dwelling" />
		<tag k="ssr:stedsnr" v="754832" />
	</node>
	<node id="9928695185" lat="62.6309641" lon="8.843855" version="1" timestamp="2022-08-03T05:34:06Z" changeset="124417792" uid="3497659" user="NKA">
		<tag k="name" v="Falelykkja" />
		<tag k="place" v="farm" />
		<tag k="ssr:stedsnr" v="800939" />
	</node>
	<node id="9928695186" lat="62.6103077" lon="8.5251421" version="1" timestamp="2022-08-03T05:34:06Z" changeset="124417792" uid="3497659" user="NKA">
		<tag k="name" v="Litldalen" />
		<tag k="place" v="farm" />
		<tag k="ssr:stedsnr" v="970035" />
	</node>
	<node id="9928695187" lat="62.5315394" lon="8.999241" version="1" timestamp="2022-08-03T05:34:06Z" changeset="124417792" uid="3497659" user="NKA">
		<tag k="name" v="Dalabua" />
		<tag k="place" v="isolated_dwelling" />
		<tag k="ssr:stedsnr" v="388075" />
	</node>
	<node id="9928695188" lat="62.4267779" lon="8.6144128" version="1" timestamp="2022-08-03T05:34:06Z" changeset="124417792" uid="3497659" user="NKA">
		<tag k="name" v="Torbudalshytta" />
		<tag k="place" v="locality" />
		<tag k="ssr:stedsnr" v="982742" />
	</node>
	<node id="9928695189" lat="62.623912" lon="8.5317575" version="1" timestamp="2022-08-03T05:34:06Z" changeset="124417792" uid="3497659" user="NKA">
		<tag k="name" v="Øygarden" />
		<tag k="place" v="farm" />
		<tag k="ssr:stedsnr" v="922114" />
	</node>
	<node id="9928695190" lat="62.5408559" lon="9.130552" version="1" timestamp="2022-08-03T05:34:06Z" changeset="124417792" uid="3497659" user="NKA">
		<tag k="historic" v="shieling" />
		<tag k="name" v="Gravemssetrin" />
		<tag k="place" v="hamlet" />
		<tag k="ssr:stedsnr" v="922813" />
	</node>
	<node id="9928695191" lat="62.7563389" lon="8.267875" version="1" timestamp="2022-08-03T05:34:06Z" changeset="124417792" uid="3497659" user="NKA">
		<tag k="historic" v="shieling" />
		<tag k="name" v="Skrødalssetrin" />
		<tag k="place" v="isolated_dwelling" />
		<tag k="ssr:stedsnr" v="315475" />
	</node>
	<node id="9928695192" lat="62.7003778" lon="8.4971833" version="1" timestamp="2022-08-03T05:34:06Z" changeset="124417792" uid="3497659" user="NKA">
		<tag k="name" v="Skulhustomta" />
		<tag k="place" v="locality" />
		<tag k="ssr:stedsnr" v="208104" />
	</node>
	<node id="9928695193" lat="62.6476007" lon="8.7044227" version="1" timestamp="2022-08-03T05:34:06Z" changeset="124417792" uid="3497659" user="NKA">
		<tag k="alt_name" v="Nestu Grødal" />
		<tag k="name" v="Nestu Grødalen" />
		<tag k="place" v="farm" />
		<tag k="ssr:stedsnr" v="814414" />
	</node>
	<node id="9928695194" lat="62.8620336" lon="8.5001433" version="1" timestamp="2022-08-03T05:34:06Z" changeset="124417792" uid="3497659" user="NKA">
		<tag k="name" v="Steinsvoll" />
		<tag k="place" v="farm" />
		<tag k="ssr:stedsnr" v="679325" />
	</node>
	<node id="9928695195" lat="62.6741845" lon="8.5772454" version="1" timestamp="2022-08-03T05:34:06Z" changeset="124417792" uid="3497659" user="NKA">
		<tag k="name" v="Hov" />
		<tag k="old_name" v="Hof;Hofs prestegård" />
		<tag k="place" v="farm" />
		<tag k="ssr:stedsnr" v="436057" />
	</node>
	<node id="9928695196" lat="62.7071861" lon="8.5626055" version="1" timestamp="2022-08-03T05:34:06Z" changeset="124417792" uid="3497659" user="NKA">
		<tag k="name" v="Nersetra" />
		<tag k="place" v="isolated_dwelling" />
		<tag k="ssr:stedsnr" v="144427" />
	</node>
	<node id="9928695197" lat="62.6664119" lon="8.6111476" version="1" timestamp="2022-08-03T05:34:06Z" changeset="124417792" uid="3497659" user="NKA">
		<tag k="name" v="Stykket" />
		<tag k="place" v="farm" />
		<tag k="ssr:stedsnr" v="814142" />
	</node>
	<node id="9928695198" lat="62.7816723" lon="8.5216528" version="1" timestamp="2022-08-03T05:34:06Z" changeset="124417792" uid="3497659" user="NKA">
		<tag k="name" v="Viset" />
		<tag k="place" v="farm" />
		<tag k="ssr:stedsnr" v="922350" />
	</node>
	<node id="9928695199" lat="62.6536689" lon="8.7059669" version="1" timestamp="2022-08-03T05:34:06Z" changeset="124417792" uid="3497659" user="NKA">
		<tag k="name" v="Oppigard Torske" />
		<tag k="place" v="farm" />
		<tag k="ssr:stedsnr" v="754478" />
	</node>
	<node id="9928695200" lat="62.7704534" lon="8.5293138" version="1" timestamp="2022-08-03T05:34:06Z" changeset="124417792" uid="3497659" user="NKA">
		<tag k="name" v="Vollum" />
		<tag k="place" v="farm" />
		<tag k="ssr:stedsnr" v="754628" />
	</node>
	<node id="9928695201" lat="62.7451778" lon="8.7123695" version="1" timestamp="2022-08-03T05:34:06Z" changeset="124417792" uid="3497659" user="NKA">
		<tag k="historic" v="shieling" />
		<tag k="name" v="Nerdalssetra" />
		<tag k="place" v="isolated_dwelling" />
		<tag k="ssr:stedsnr" v="740238" />
	</node>
	<node id="9928695202" lat="62.6305389" lon="8.5192444" version="1" timestamp="2022-08-03T05:34:06Z" changeset="124417792" uid="3497659" user="NKA">
		<tag k="name" v="Heimsetra" />
		<tag k="place" v="locality" />
		<tag k="ssr:stedsnr" v="512860" />
	</node>
	<node id="9928695203" lat="62.7648647" lon="8.5287042" version="1" timestamp="2022-08-03T05:34:06Z" changeset="124417792" uid="3497659" user="NKA">
		<tag k="name" v="Liatun" />
		<tag k="place" v="farm" />
		<tag k="ssr:stedsnr" v="315472" />
	</node>
	<node id="9928695204" lat="62.7915894" lon="8.4879719" version="1" timestamp="2022-08-03T05:34:06Z" changeset="124417792" uid="3497659" user="NKA">
		<tag k="name" v="Overslættet" />
		<tag k="place" v="farm" />
		<tag k="ssr:stedsnr" v="450580" />
	</node>
	<node id="9928695205" lat="62.7407389" lon="8.5076973" version="1" timestamp="2022-08-03T05:34:06Z" changeset="124417792" uid="3497659" user="NKA">
		<tag k="name" v="Neset" />
		<tag k="place" v="farm" />
		<tag k="ssr:stedsnr" v="254209" />
	</node>
	<node id="9928695206" lat="62.6427434" lon="8.7946561" version="1" timestamp="2022-08-03T05:34:06Z" changeset="124417792" uid="3497659" user="NKA">
		<tag k="name" v="Leirvollen" />
		<tag k="place" v="farm" />
		<tag k="ssr:stedsnr" v="692287" />
	</node>
	<node id="9928695207" lat="62.6412939" lon="8.7782494" version="1" timestamp="2022-08-03T05:34:06Z" changeset="124417792" uid="3497659" user="NKA">
		<tag k="name" v="Bortstu Flatvad" />
		<tag k="place" v="farm" />
		<tag k="ssr:stedsnr" v="570267" />
	</node>
	<node id="9928695208" lat="62.7164861" lon="8.7724945" version="1" timestamp="2022-08-03T05:34:06Z" changeset="124417792" uid="3497659" user="NKA">
		<tag k="name" v="Giklingsetra" />
		<tag k="place" v="locality" />
		<tag k="ssr:stedsnr" v="679884" />
	</node>
	<node id="9928695209" lat="62.7575722" lon="8.4455028" version="1" timestamp="2022-08-03T05:34:06Z" changeset="124417792" uid="3497659" user="NKA">
		<tag k="name" v="Flå" />
		<tag k="place" v="hamlet" />
		<tag k="ssr:stedsnr" v="12481" />
	</node>
	<node id="9928695210" lat="62.7181527" lon="8.428715" version="1" timestamp="2022-08-03T05:34:06Z" changeset="124417792" uid="3497659" user="NKA">
		<tag k="name" v="Øksendalsøra" />
		<tag k="old_name" v="Øksendalsøren" />
		<tag k="place" v="locality" />
		<tag k="ssr:stedsnr" v="121046" />
	</node>
	<node id="9928695211" lat="62.6968056" lon="8.4190694" version="1" timestamp="2022-08-03T05:34:06Z" changeset="124417792" uid="3497659" user="NKA">
		<tag k="name" v="Øygarden" />
		<tag k="place" v="farm" />
		<tag k="ssr:stedsnr" v="922195" />
	</node>
	<node id="9928695212" lat="62.7536778" lon="8.383514" version="1" timestamp="2022-08-03T05:34:06Z" changeset="124417792" uid="3497659" user="NKA">
		<tag k="name" v="Litl-Mjølkill" />
		<tag k="place" v="farm" />
		<tag k="ssr:stedsnr" v="922448" />
	</node>
	<node id="9928695213" lat="62.8057167" lon="8.4981417" version="1" timestamp="2022-08-03T05:34:06Z" changeset="124417792" uid="3497659" user="NKA">
		<tag k="name" v="Smiset" />
		<tag k="place" v="hamlet" />
		<tag k="ssr:stedsnr" v="195428" />
	</node>
	<node id="9928695214" lat="62.7174194" lon="8.4172834" version="1" timestamp="2022-08-03T05:34:06Z" changeset="124417792" uid="3497659" user="NKA">
		<tag k="name" v="Erstadgeilen" />
		<tag k="place" v="locality" />
		<tag k="ssr:stedsnr" v="875095" />
	</node>
	<node id="9928695215" lat="62.858875" lon="8.4279555" version="1" timestamp="2022-08-03T05:34:06Z" changeset="124417792" uid="3497659" user="NKA">
		<tag k="name" v="Brattli" />
		<tag k="place" v="farm" />
		<tag k="ssr:stedsnr" v="740362" />
	</node>
	<node id="9928695216" lat="62.768014" lon="8.529714" version="1" timestamp="2022-08-03T05:34:06Z" changeset="124417792" uid="3497659" user="NKA">
		<tag k="name" v="Litlbråtten" />
		<tag k="place" v="farm" />
		<tag k="ssr:stedsnr" v="870608" />
	</node>
	<node id="9928695217" lat="62.7686472" lon="8.3241028" version="1" timestamp="2022-08-03T05:34:06Z" changeset="124417792" uid="3497659" user="NKA">
		<tag k="name" v="Jordalssjøen" />
		<tag k="place" v="farm" />
		<tag k="ssr:stedsnr" v="740376" />
	</node>
	<node id="9928695218" lat="62.6412544" lon="8.7816795" version="1" timestamp="2022-08-03T05:34:06Z" changeset="124417792" uid="3497659" user="NKA">
		<tag k="name" v="Flatvad" />
		<tag k="place" v="hamlet" />
		<tag k="ssr:stedsnr" v="861958" />
	</node>
	<node id="9928695219" lat="62.7220243" lon="8.4163409" version="1" timestamp="2022-08-03T05:34:06Z" changeset="124417792" uid="3497659" user="NKA">
		<tag k="name" v="Stranda" />
		<tag k="place" v="farm" />
		<tag k="ssr:stedsnr" v="753012" />
	</node>
	<node id="9928695220" lat="62.7604472" lon="8.3499251" version="1" timestamp="2022-08-03T05:34:06Z" changeset="124417792" uid="3497659" user="NKA">
		<tag k="name" v="Grova" />
		<tag k="place" v="farm" />
		<tag k="ssr:stedsnr" v="679443" />
	</node>
	<node id="9928695221" lat="62.7016667" lon="8.4221611" version="1" timestamp="2022-08-03T05:34:06Z" changeset="124417792" uid="3497659" user="NKA">
		<tag k="name" v="Sandbrekkøyan" />
		<tag k="place" v="farm" />
		<tag k="ssr:stedsnr" v="679187" />
	</node>
	<node id="9928695222" lat="62.6417032" lon="8.7991414" version="1" timestamp="2022-08-03T05:34:06Z" changeset="124417792" uid="3497659" user="NKA">
		<tag k="name" v="Bjørnhjellen" />
		<tag k="place" v="farm" />
		<tag k="ssr:stedsnr" v="193941" />
	</node>
	<node id="9928695223" lat="62.8272762" lon="8.5254805" version="1" timestamp="2022-08-03T05:34:06Z" changeset="124417792" uid="3497659" user="NKA">
		<tag k="name" v="Seljebøfossen" />
		<tag k="place" v="farm" />
		<tag k="ssr:stedsnr" v="631245" />
	</node>
	<node id="9928695224" lat="62.7430954" lon="8.5228979" version="1" timestamp="2022-08-03T05:34:06Z" changeset="124417792" uid="3497659" user="NKA">
		<tag k="name" v="Nedre Gjersvoll" />
		<tag k="place" v="farm" />
		<tag k="ssr:stedsnr" v="572842" />
	</node>
	<node id="9928695225" lat="62.6115866" lon="8.7218733" version="1" timestamp="2022-08-03T05:34:06Z" changeset="124417792" uid="3497659" user="NKA">
		<tag k="name" v="Grødalen" />
		<tag k="place" v="locality" />
		<tag k="ssr:stedsnr" v="545241" />
	</node>
	<node id="9928695226" lat="62.8074277" lon="8.4913611" version="1" timestamp="2022-08-03T05:34:06Z" changeset="124417792" uid="3497659" user="NKA">
		<tag k="name" v="Skogen" />
		<tag k="place" v="farm" />
		<tag k="ssr:stedsnr" v="570535" />
	</node>
	<node id="9928695227" lat="62.7743639" lon="8.5235724" version="1" timestamp="2022-08-03T05:34:06Z" changeset="124417792" uid="3497659" user="NKA">
		<tag k="name" v="Hjellen" />
		<tag k="place" v="farm" />
		<tag k="ssr:stedsnr" v="632649" />
	</node>
	<node id="9928695228" lat="62.8079417" lon="8.4722667" version="1" timestamp="2022-08-03T05:34:06Z" changeset="124417792" uid="3497659" user="NKA">
		<tag k="name" v="Setra" />
		<tag k="place" v="locality" />
		<tag k="ssr:stedsnr" v="510611" />
	</node>
	<node id="9928695229" lat="62.6928361" lon="8.4179251" version="1" timestamp="2022-08-03T05:34:06Z" changeset="124417792" uid="3497659" user="NKA">
		<tag k="name" v="Gammelgarden" />
		<tag k="place" v="locality" />
		<tag k="ssr:stedsnr" v="449711" />
	</node>
	<node id="9928695230" lat="62.7745874" lon="8.521146" version="1" timestamp="2022-08-03T05:34:06Z" changeset="124417792" uid="3497659" user="NKA">
		<tag k="name" v="Røsetbakkan" />
		<tag k="place" v="farm" />
		<tag k="ssr:stedsnr" v="632650" />
	</node>
	<node id="9928695231" lat="62.6409691" lon="8.7833657" version="1" timestamp="2022-08-03T05:34:06Z" changeset="124417792" uid="3497659" user="NKA">
		<tag k="name" v="Utigard Flatvad" />
		<tag k="place" v="farm" />
		<tag k="ssr:stedsnr" v="85257" />
	</node>
	<node id="9928695232" lat="62.7569672" lon="8.5073304" version="1" timestamp="2022-08-03T05:34:06Z" changeset="124417792" uid="3497659" user="NKA">
		<tag k="name" v="Skaudalssetra" />
		<tag k="place" v="isolated_dwelling" />
		<tag k="ssr:stedsnr" v="506611" />
	</node>
	<node id="9928695233" lat="62.7378353" lon="8.5154812" version="1" timestamp="2022-08-03T05:34:06Z" changeset="124417792" uid="3497659" user="NKA">
		<tag k="name" v="Naustbøen" />
		<tag k="place" v="farm" />
		<tag k="ssr:stedsnr" v="206379" />
	</node>
	<node id="9928695234" lat="62.7130861" lon="8.3955417" version="1" timestamp="2022-08-03T05:34:06Z" changeset="124417792" uid="3497659" user="NKA">
		<tag k="historic" v="shieling" />
		<tag k="name" v="Prestgardssetra" />
		<tag k="place" v="isolated_dwelling" />
		<tag k="ssr:stedsnr" v="314216" />
	</node>
	<node id="9928695235" lat="62.7513639" lon="8.5245056" version="1" timestamp="2022-08-03T05:34:06Z" changeset="124417792" uid="3497659" user="NKA">
		<tag k="name" v="Fæta" />
		<tag k="place" v="farm" />
		<tag k="ssr:stedsnr" v="630753" />
	</node>
	<node id="9928695236" lat="62.7677296" lon="8.5077545" version="1" timestamp="2022-08-03T05:34:06Z" changeset="124417792" uid="3497659" user="NKA">
		<tag k="name" v="Litlbråttasetra" />
		<tag k="place" v="isolated_dwelling" />
		<tag k="ssr:stedsnr" v="446607" />
	</node>
	<node id="9928695237" lat="62.7465467" lon="8.5309367" version="1" timestamp="2022-08-03T05:34:06Z" changeset="124417792" uid="3497659" user="NKA">
		<tag k="name" v="Jarbærøya" />
		<tag k="place" v="farm" />
		<tag k="ssr:stedsnr" v="328805" />
	</node>
	<node id="9928695238" lat="62.8061306" lon="8.5027805" version="1" timestamp="2022-08-03T05:34:06Z" changeset="124417792" uid="3497659" user="NKA">
		<tag k="alt_name" v="Tjønnhaugen" />
		<tag k="name" v="Tjørnhaugen" />
		<tag k="place" v="farm" />
		<tag k="ssr:stedsnr" v="255403" />
	</node>
	<node id="9928695239" lat="62.5044639" lon="9.1521999" version="1" timestamp="2022-08-03T05:34:06Z" changeset="124417792" uid="3497659" user="NKA">
		<tag k="historic" v="shieling" />
		<tag k="name" v="Nysetra" />
		<tag k="place" v="isolated_dwelling" />
		<tag k="ssr:stedsnr" v="679845" />
	</node>
	<node id="9928695240" lat="62.7816586" lon="8.5207126" version="1" timestamp="2022-08-03T05:34:06Z" changeset="124417792" uid="3497659" user="NKA">
		<tag k="name" v="Nedre Viset" />
		<tag k="place" v="farm" />
		<tag k="ssr:stedsnr" v="147646" />
	</node>
	<node id="9928695241" lat="62.5712354" lon="9.1658518" version="1" timestamp="2022-08-03T05:34:06Z" changeset="124417792" uid="3497659" user="NKA">
		<tag k="name" v="Grensa" />
		<tag k="place" v="hamlet" />
		<tag k="ssr:stedsnr" v="437799" />
	</node>
	<node id="9928695242" lat="62.6488694" lon="8.3298555" version="1" timestamp="2022-08-03T05:34:06Z" changeset="124417792" uid="3497659" user="NKA">
		<tag k="name" v="Skrondalsøyan" />
		<tag k="place" v="farm" />
		<tag k="ssr:stedsnr" v="254029" />
	</node>
	<node id="9928695243" lat="62.7669719" lon="8.3268036" version="1" timestamp="2022-08-03T05:34:06Z" changeset="124417792" uid="3497659" user="NKA">
		<tag k="name" v="Åfaret" />
		<tag k="place" v="farm" />
		<tag k="ssr:stedsnr" v="255385" />
	</node>
	<node id="9928695244" lat="62.5705389" lon="9.2042222" version="1" timestamp="2022-08-03T05:34:06Z" changeset="124417792" uid="3497659" user="NKA">
		<tag k="alt_name" v="Gråursetra" />
		<tag k="historic" v="shieling" />
		<tag k="name" v="Trettvollsætra" />
		<tag k="place" v="isolated_dwelling" />
		<tag k="ssr:stedsnr" v="194792" />
	</node>
	<node id="9928695245" lat="62.8473978" lon="8.4436732" version="1" timestamp="2022-08-03T05:34:06Z" changeset="124417792" uid="3497659" user="NKA">
		<tag k="name" v="Sessbøen" />
		<tag k="place" v="hamlet" />
		<tag k="ssr:stedsnr" v="121056" />
	</node>
	<node id="9928695246" lat="62.5714634" lon="9.2124432" version="1" timestamp="2022-08-03T05:34:06Z" changeset="124417792" uid="3497659" user="NKA">
		<tag k="historic" v="shieling" />
		<tag k="name" v="Grensasetra" />
		<tag k="place" v="isolated_dwelling" />
		<tag k="ssr:stedsnr" v="133749" />
	</node>
	<node id="9928695247" lat="62.6555072" lon="8.6298176" version="1" timestamp="2022-08-03T05:34:06Z" changeset="124417792" uid="3497659" user="NKA">
		<tag k="name" v="Hoven" />
		<tag k="place" v="hamlet" />
		<tag k="ssr:stedsnr" v="667011" />
	</node>
	<node id="9928695248" lat="62.6685054" lon="8.3699817" version="1" timestamp="2022-08-03T05:34:06Z" changeset="124417792" uid="3497659" user="NKA">
		<tag k="name" v="Simonhjellen" />
		<tag k="place" v="farm" />
		<tag k="ssr:stedsnr" v="133039" />
	</node>
	<node id="9928695249" lat="62.6645319" lon="8.6235145" version="1" timestamp="2022-08-03T05:34:06Z" changeset="124417792" uid="3497659" user="NKA">
		<tag k="name" v="Negard Furu" />
		<tag k="place" v="farm" />
		<tag k="ssr:stedsnr" v="450147" />
	</node>
	<node id="9928695250" lat="62.6637994" lon="8.6242289" version="1" timestamp="2022-08-03T05:34:06Z" changeset="124417792" uid="3497659" user="NKA">
		<tag k="name" v="Austigard Furu" />
		<tag k="place" v="farm" />
		<tag k="ssr:stedsnr" v="389173" />
	</node>
	<node id="9928695251" lat="62.7281485" lon="8.4146343" version="1" timestamp="2022-08-03T05:34:06Z" changeset="124417792" uid="3497659" user="NKA">
		<tag k="name" v="Grytneset" />
		<tag k="place" v="farm" />
		<tag k="ssr:stedsnr" v="25019" />
	</node>
	<node id="9928695252" lat="62.6916555" lon="8.4175111" version="1" timestamp="2022-08-03T05:34:06Z" changeset="124417792" uid="3497659" user="NKA">
		<tag k="name" v="Sjølset" />
		<tag k="place" v="farm" />
		<tag k="ssr:stedsnr" v="72037" />
	</node>
	<node id="9928695253" lat="62.7764889" lon="8.4243501" version="1" timestamp="2022-08-03T05:34:06Z" changeset="124417792" uid="3497659" user="NKA">
		<tag k="name" v="Flåsetra" />
		<tag k="place" v="isolated_dwelling" />
		<tag k="ssr:stedsnr" v="73392" />
	</node>
	<node id="9928695254" lat="62.5580114" lon="8.9496844" version="1" timestamp="2022-08-03T05:34:06Z" changeset="124417792" uid="3497659" user="NKA">
		<tag k="name" v="Bjørkaly" />
		<tag k="place" v="isolated_dwelling" />
		<tag k="ssr:stedsnr" v="26139" />
	</node>
	<node id="9928695255" lat="62.7555833" lon="8.4557223" version="1" timestamp="2022-08-03T05:34:06Z" changeset="124417792" uid="3497659" user="NKA">
		<tag k="alt_name" v="Hjelltrøa" />
		<tag k="name" v="Strandheim" />
		<tag k="place" v="farm" />
		<tag k="ssr:stedsnr" v="12482" />
	</node>
	<node id="9928695256" lat="62.5929257" lon="8.9745118" version="1" timestamp="2022-08-03T05:34:06Z" changeset="124417792" uid="3497659" user="NKA">
		<tag k="name" v="Hallvardstu" />
		<tag k="place" v="farm" />
		<tag k="ssr:stedsnr" v="922974" />
	</node>
	<node id="9928695257" lat="62.6829945" lon="8.3766223" version="1" timestamp="2022-08-03T05:34:06Z" changeset="124417792" uid="3497659" user="NKA">
		<tag k="name" v="Gammelsetra" />
		<tag k="place" v="locality" />
		<tag k="ssr:stedsnr" v="875190" />
	</node>
	<node id="9928695258" lat="62.6729275" lon="8.3599241" version="1" timestamp="2022-08-03T05:34:06Z" changeset="124417792" uid="3497659" user="NKA">
		<tag k="name" v="Simonhjellsetra" />
		<tag k="place" v="isolated_dwelling" />
		<tag k="ssr:stedsnr" v="875216" />
	</node>
	<node id="9928695259" lat="62.6456339" lon="8.7723607" version="1" timestamp="2022-08-03T05:34:06Z" changeset="124417792" uid="3497659" user="NKA">
		<tag k="name" v="Solheim" />
		<tag k="place" v="farm" />
		<tag k="ssr:stedsnr" v="931329" />
	</node>
	<node id="9928695260" lat="62.5938909" lon="8.9761834" version="1" timestamp="2022-08-03T05:34:06Z" changeset="124417792" uid="3497659" user="NKA">
		<tag k="name" v="Musgjerd" />
		<tag k="place" v="hamlet" />
		<tag k="ssr:stedsnr" v="910247" />
	</node>
	<node id="9928695261" lat="62.6675278" lon="8.611325" version="1" timestamp="2022-08-03T05:34:06Z" changeset="124417792" uid="3497659" user="NKA">
		<tag k="name" v="Oppigard" />
		<tag k="place" v="farm" />
		<tag k="ssr:stedsnr" v="146110" />
	</node>
	<node id="9928695262" lat="62.6241687" lon="8.8636136" version="1" timestamp="2022-08-03T05:34:06Z" changeset="124417792" uid="3497659" user="NKA">
		<tag k="name" v="Nisjareiten" />
		<tag k="place" v="farm" />
		<tag k="ssr:stedsnr" v="810288" />
	</node>
	<node id="9928695263" lat="62.7482963" lon="8.44972" version="1" timestamp="2022-08-03T05:34:06Z" changeset="124417792" uid="3497659" user="NKA">
		<tag k="name" v="Flåøya" />
		<tag k="place" v="farm" />
		<tag k="ssr:stedsnr" v="510713" />
	</node>
	<node id="9928695264" lat="62.8013722" lon="8.545363" version="1" timestamp="2022-08-03T05:34:06Z" changeset="124417792" uid="3497659" user="NKA">
		<tag k="name" v="Visetsetra" />
		<tag k="place" v="isolated_dwelling" />
		<tag k="ssr:stedsnr" v="752380" />
	</node>
	<node id="9928695265" lat="62.63775" lon="8.8123" version="1" timestamp="2022-08-03T05:34:06Z" changeset="124417792" uid="3497659" user="NKA">
		<tag k="name" v="Røyhjellen" />
		<tag k="place" v="farm" />
		<tag k="ssr:stedsnr" v="679934" />
	</node>
	<node id="9928695266" lat="62.7006194" lon="8.4235279" version="1" timestamp="2022-08-03T05:34:06Z" changeset="124417792" uid="3497659" user="NKA">
		<tag k="name" v="Bøen" />
		<tag k="place" v="farm" />
		<tag k="ssr:stedsnr" v="557210" />
	</node>
	<node id="9928695267" lat="62.5931693" lon="8.9763965" version="1" timestamp="2022-08-03T05:34:06Z" changeset="124417792" uid="3497659" user="NKA">
		<tag k="name" v="Nestu" />
		<tag k="place" v="farm" />
		<tag k="ssr:stedsnr" v="618966" />
	</node>
	<node id="9928695268" lat="62.7167837" lon="8.4202114" version="1" timestamp="2022-08-03T05:34:06Z" changeset="124417792" uid="3497659" user="NKA">
		<tag k="name" v="Erstadengan" />
		<tag k="place" v="neighbourhood" />
		<tag k="ssr:stedsnr" v="451102" />
	</node>
	<node id="9928695269" lat="62.664388" lon="8.6172287" version="1" timestamp="2022-08-03T05:34:06Z" changeset="124417792" uid="3497659" user="NKA">
		<tag k="name" v="Pestua" />
		<tag k="place" v="farm" />
		<tag k="ssr:stedsnr" v="571169" />
	</node>
	<node id="9928695270" lat="62.7502639" lon="8.6340167" version="1" timestamp="2022-08-03T05:34:06Z" changeset="124417792" uid="3497659" user="NKA">
		<tag k="name" v="Dalsbøen" />
		<tag k="place" v="hamlet" />
		<tag k="ssr:stedsnr" v="12484" />
	</node>
	<node id="9928695271" lat="62.6665355" lon="8.3728111" version="1" timestamp="2022-08-03T05:34:06Z" changeset="124417792" uid="3497659" user="NKA">
		<tag k="name" v="Hjellbøen" />
		<tag k="place" v="farm" />
		<tag k="ssr:stedsnr" v="194002" />
	</node>
	<node id="9928695272" lat="62.6445807" lon="8.7200919" version="1" timestamp="2022-08-03T05:34:06Z" changeset="124417792" uid="3497659" user="NKA">
		<tag k="name" v="Oppistu Grødal" />
		<tag k="place" v="farm" />
		<tag k="ssr:stedsnr" v="510387" />
	</node>
	<node id="9928695273" lat="62.7548635" lon="8.5375274" version="1" timestamp="2022-08-03T05:34:06Z" changeset="124417792" uid="3497659" user="NKA">
		<tag k="name" v="Skallen" />
		<tag k="place" v="farm" />
		<tag k="ssr:stedsnr" v="874803" />
	</node>
	<node id="9928695274" lat="62.7746616" lon="8.4028736" version="1" timestamp="2022-08-03T05:34:06Z" changeset="124417792" uid="3497659" user="NKA">
		<tag k="name" v="Lauvvika" />
		<tag k="place" v="locality" />
		<tag k="ssr:stedsnr" v="619436" />
	</node>
	<node id="9928695275" lat="62.7502073" lon="8.5345911" version="1" timestamp="2022-08-03T05:34:06Z" changeset="124417792" uid="3497659" user="NKA">
		<tag k="name" v="Nylykkja" />
		<tag k="place" v="hamlet" />
		<tag k="ssr:stedsnr" v="618207" />
	</node>
	<node id="9928695276" lat="62.7610804" lon="8.546581" version="1" timestamp="2022-08-03T05:34:06Z" changeset="124417792" uid="3497659" user="NKA">
		<tag k="name" v="Liabø" />
		<tag k="place" v="farm" />
		<tag k="ssr:stedsnr" v="571851" />
	</node>
	<node id="9928695277" lat="62.7725748" lon="8.5426674" version="1" timestamp="2022-08-03T05:34:06Z" changeset="124417792" uid="3497659" user="NKA">
		<tag k="name" v="Børset" />
		<tag k="place" v="hamlet" />
		<tag k="ssr:stedsnr" v="194349" />
	</node>
	<node id="9928695278" lat="62.7647504" lon="8.5416158" version="1" timestamp="2022-08-03T05:34:06Z" changeset="124417792" uid="3497659" user="NKA">
		<tag k="name" v="Storbråtten" />
		<tag k="place" v="farm" />
		<tag k="ssr:stedsnr" v="437509" />
	</node>
	<node id="9928695279" lat="62.6961078" lon="8.4190348" version="1" timestamp="2022-08-03T05:34:06Z" changeset="124417792" uid="3497659" user="NKA">
		<tag k="name" v="Sjølset" />
		<tag k="place" v="farm" />
		<tag k="ssr:stedsnr" v="145719" />
	</node>
	<node id="9928695280" lat="62.6087917" lon="9.0019944" version="1" timestamp="2022-08-03T05:34:06Z" changeset="124417792" uid="3497659" user="NKA">
		<tag k="name" v="Ottemssetra" />
		<tag k="place" v="locality" />
		<tag k="ssr:stedsnr" v="375981" />
	</node>
	<node id="9928695281" lat="62.7235632" lon="8.7654105" version="1" timestamp="2022-08-03T05:34:06Z" changeset="124417792" uid="3497659" user="NKA">
		<tag k="historic" v="shieling" />
		<tag k="name" v="Oppdølsetra" />
		<tag k="place" v="isolated_dwelling" />
		<tag k="ssr:stedsnr" v="222784" />
	</node>
	<node id="9928695282" lat="62.6282361" lon="8.8993528" version="1" timestamp="2022-08-03T05:34:06Z" changeset="124417792" uid="3497659" user="NKA">
		<tag k="name" v="Snøvassetrin" />
		<tag k="place" v="locality" />
		<tag k="ssr:stedsnr" v="329621" />
	</node>
	<node id="9928695283" lat="62.5757805" lon="8.859139" version="1" timestamp="2022-08-03T05:34:06Z" changeset="124417792" uid="3497659" user="NKA">
		<tag k="historic" v="shieling" />
		<tag k="name" v="Brandeinsetra" />
		<tag k="place" v="isolated_dwelling" />
		<tag k="ssr:stedsnr" v="376776" />
	</node>
	<node id="9928695284" lat="62.6360144" lon="8.8306599" version="1" timestamp="2022-08-03T05:34:06Z" changeset="124417792" uid="3497659" user="NKA">
		<tag k="name" v="Gikling" />
		<tag k="place" v="hamlet" />
		<tag k="ssr:stedsnr" v="314926" />
	</node>
	<node id="9928695285" lat="62.8935465" lon="8.434692" version="1" timestamp="2022-08-03T05:34:06Z" changeset="124417792" uid="3497659" user="NKA">
		<tag k="name" v="Trøa" />
		<tag k="place" v="farm" />
		<tag k="ssr:stedsnr" v="85273" />
	</node>
	<node id="9928695286" lat="62.7735" lon="8.429439" version="1" timestamp="2022-08-03T05:34:06Z" changeset="124417792" uid="3497659" user="NKA">
		<tag k="name" v="Gammelsetra" />
		<tag k="place" v="locality" />
		<tag k="ssr:stedsnr" v="25527" />
	</node>
	<node id="9928695287" lat="62.4997101" lon="8.9736702" version="1" timestamp="2022-08-03T05:34:06Z" changeset="124417792" uid="3497659" user="NKA">
		<tag k="name" v="Kristenstu" />
		<tag k="place" v="farm" />
		<tag k="ssr:stedsnr" v="509552" />
	</node>
	<node id="9928695288" lat="62.4939808" lon="9.0850178" version="1" timestamp="2022-08-03T05:34:06Z" changeset="124417792" uid="3497659" user="NKA">
		<tag k="historic" v="shieling" />
		<tag k="name" v="Olderbua" />
		<tag k="place" v="isolated_dwelling" />
		<tag k="ssr:stedsnr" v="512746" />
	</node>
	<node id="9928695289" lat="62.5151072" lon="9.0557962" version="1" timestamp="2022-08-03T05:34:06Z" changeset="124417792" uid="3497659" user="NKA">
		<tag k="name" v="Lykkjån" />
		<tag k="place" v="farm" />
		<tag k="ssr:stedsnr" v="512686" />
	</node>
	<node id="9928695290" lat="62.5821666" lon="9.017525" version="1" timestamp="2022-08-03T05:34:06Z" changeset="124417792" uid="3497659" user="NKA">
		<tag k="name" v="Nerstølen" />
		<tag k="place" v="locality" />
		<tag k="ssr:stedsnr" v="268154" />
	</node>
	<node id="9928695291" lat="62.6549095" lon="8.6956222" version="1" timestamp="2022-08-03T05:34:06Z" changeset="124417792" uid="3497659" user="NKA">
		<tag k="name" v="Løykja" />
		<tag k="place" v="farm" />
		<tag k="ssr:stedsnr" v="254019" />
	</node>
	<node id="9928695292" lat="62.8383417" lon="8.4306055" version="1" timestamp="2022-08-03T05:34:06Z" changeset="124417792" uid="3497659" user="NKA">
		<tag k="name" v="Innigardssetra" />
		<tag k="place" v="locality" />
		<tag k="ssr:stedsnr" v="23065" />
	</node>
	<node id="9928695293" lat="62.5124821" lon="9.0520388" version="1" timestamp="2022-08-03T05:34:06Z" changeset="124417792" uid="3497659" user="NKA">
		<tag k="name" v="Nedstu" />
		<tag k="place" v="farm" />
		<tag k="ssr:stedsnr" v="451651" />
	</node>
	<node id="9928695294" lat="62.7102333" lon="8.4253166" version="1" timestamp="2022-08-03T05:34:06Z" changeset="124417792" uid="3497659" user="NKA">
		<tag k="name" v="Inderøya" />
		<tag k="place" v="farm" />
		<tag k="ssr:stedsnr" v="11203" />
	</node>
	<node id="9928695295" lat="62.4900555" lon="8.9425166" version="1" timestamp="2022-08-03T05:34:06Z" changeset="124417792" uid="3497659" user="NKA">
		<tag k="name" v="Nosa" />
		<tag k="place" v="locality" />
		<tag k="ssr:stedsnr" v="375253" />
	</node>
	<node id="9928695296" lat="62.6107466" lon="8.307031" version="1" timestamp="2022-08-03T05:34:06Z" changeset="124417792" uid="3497659" user="NKA">
		<tag k="name" v="Mosbøsetra" />
		<tag k="place" v="isolated_dwelling" />
		<tag k="ssr:stedsnr" v="874320" />
	</node>
	<node id="9928695297" lat="62.506125" lon="9.16745" version="1" timestamp="2022-08-03T05:34:06Z" changeset="124417792" uid="3497659" user="NKA">
		<tag k="name" v="Bjerckeroa" />
		<tag k="place" v="isolated_dwelling" />
		<tag k="ssr:stedsnr" v="315855" />
	</node>
	<node id="9928695298" lat="62.638775" lon="8.3064861" version="1" timestamp="2022-08-03T05:34:06Z" changeset="124417792" uid="3497659" user="NKA">
		<tag k="name" v="Engan" />
		<tag k="place" v="hamlet" />
		<tag k="ssr:stedsnr" v="861096" />
	</node>
	<node id="9928695299" lat="62.5161417" lon="8.9770167" version="1" timestamp="2022-08-03T05:34:06Z" changeset="124417792" uid="3497659" user="NKA">
		<tag k="name" v="Hafsåsen" />
		<tag k="place" v="hamlet" />
		<tag k="ssr:stedsnr" v="254811" />
	</node>
	<node id="9928695300" lat="62.5885489" lon="9.0146332" version="1" timestamp="2022-08-03T05:34:06Z" changeset="124417792" uid="3497659" user="NKA">
		<tag k="name" v="Nyeng" />
		<tag k="place" v="farm" />
		<tag k="ssr:stedsnr" v="27179" />
	</node>
	<node id="9928695301" lat="62.4975306" lon="8.8683611" version="1" timestamp="2022-08-03T05:34:06Z" changeset="124417792" uid="3497659" user="NKA">
		<tag k="historic" v="shieling" />
		<tag k="name" v="Falesetra" />
		<tag k="place" v="isolated_dwelling" />
		<tag k="ssr:stedsnr" v="254270" />
	</node>
	<node id="9928695302" lat="62.6600667" lon="8.3553278" version="1" timestamp="2022-08-03T05:34:06Z" changeset="124417792" uid="3497659" user="NKA">
		<tag k="name" v="Forset" />
		<tag k="place" v="farm" />
		<tag k="ssr:stedsnr" v="254006" />
	</node>
	<node id="9928695303" lat="62.6563417" lon="8.3473084" version="1" timestamp="2022-08-03T05:34:06Z" changeset="124417792" uid="3497659" user="NKA">
		<tag k="name" v="Skrondal" />
		<tag k="place" v="farm" />
		<tag k="ssr:stedsnr" v="557004" />
	</node>
	<node id="9928695304" lat="62.6589695" lon="8.3221305" version="1" timestamp="2022-08-03T05:34:06Z" changeset="124417792" uid="3497659" user="NKA">
		<tag k="name" v="Brusetsetra" />
		<tag k="place" v="isolated_dwelling" />
		<tag k="ssr:stedsnr" v="72008" />
	</node>
	<node id="9928695305" lat="62.5778" lon="8.8627083" version="1" timestamp="2022-08-03T05:34:06Z" changeset="124417792" uid="3497659" user="NKA">
		<tag k="historic" v="shieling" />
		<tag k="name" v="Hovensetra" />
		<tag k="place" v="isolated_dwelling" />
		<tag k="ssr:stedsnr" v="12746" />
	</node>
	<node id="9928695306" lat="62.6575842" lon="8.6141115" version="1" timestamp="2022-08-03T05:34:06Z" changeset="124417792" uid="3497659" user="NKA">
		<tag k="name" v="Mele" />
		<tag k="place" v="hamlet" />
		<tag k="ssr:stedsnr" v="922027" />
	</node>
	<node id="9928695307" lat="62.5531084" lon="9.1168889" version="1" timestamp="2022-08-03T05:34:06Z" changeset="124417792" uid="3497659" user="NKA">
		<tag k="name" v="Nisja" />
		<tag k="place" v="farm" />
		<tag k="ssr:stedsnr" v="11995" />
	</node>
	<node id="9928695308" lat="62.5020667" lon="9.0583194" version="1" timestamp="2022-08-03T05:34:06Z" changeset="124417792" uid="3497659" user="NKA">
		<tag k="name" v="Sjurhaugen" />
		<tag k="place" v="locality" />
		<tag k="ssr:stedsnr" v="27686" />
	</node>
	<node id="9928695309" lat="62.4707816" lon="8.6645385" version="1" timestamp="2022-08-03T05:34:06Z" changeset="124417792" uid="3497659" user="NKA">
		<tag k="name" v="Håkodalshytta" />
		<tag k="place" v="locality" />
		<tag k="ssr:stedsnr" v="982734" />
	</node>
	<node id="9928695310" lat="62.5091055" lon="8.9755278" version="1" timestamp="2022-08-03T05:34:06Z" changeset="124417792" uid="3497659" user="NKA">
		<tag k="name" v="Skålvollen" />
		<tag k="place" v="farm" />
		<tag k="ssr:stedsnr" v="72800" />
	</node>
	<node id="9928695311" lat="62.6288446" lon="8.8466254" version="1" timestamp="2022-08-03T05:34:06Z" changeset="124417792" uid="3497659" user="NKA">
		<tag k="name" v="Slettbakkøya" />
		<tag k="place" v="isolated_dwelling" />
		<tag k="ssr:stedsnr" v="875714" />
	</node>
	<node id="9928695312" lat="62.5202694" lon="8.6153972" version="1" timestamp="2022-08-03T05:34:06Z" changeset="124417792" uid="3497659" user="NKA">
		<tag k="name" v="Karistøgu" />
		<tag k="place" v="isolated_dwelling" />
		<tag k="ssr:stedsnr" v="688801" />
	</node>
	<node id="9928695313" lat="62.5010916" lon="9.1171694" version="1" timestamp="2022-08-03T05:34:06Z" changeset="124417792" uid="3497659" user="NKA">
		<tag k="historic" v="shieling" />
		<tag k="name" v="Gammelsetra" />
		<tag k="place" v="isolated_dwelling" />
		<tag k="ssr:stedsnr" v="72843" />
	</node>
	<node id="9928695314" lat="62.4944332" lon="9.0857238" version="1" timestamp="2022-08-03T05:34:06Z" changeset="124417792" uid="3497659" user="NKA">
		<tag k="name" v="Hjellbua" />
		<tag k="place" v="locality" />
		<tag k="ssr:stedsnr" v="815712" />
	</node>
	<node id="9928695315" lat="62.4720945" lon="8.9304751" version="1" timestamp="2022-08-03T05:34:06Z" changeset="124417792" uid="3497659" user="NKA">
		<tag k="name" v="Kåsa" />
		<tag k="place" v="isolated_dwelling" />
		<tag k="ssr:stedsnr" v="11468" />
	</node>
	<node id="9928695316" lat="62.4996276" lon="8.9354358" version="1" timestamp="2022-08-03T05:34:06Z" changeset="124417792" uid="3497659" user="NKA">
		<tag k="historic" v="shieling" />
		<tag k="name" v="Myrabua" />
		<tag k="place" v="isolated_dwelling" />
		<tag k="ssr:stedsnr" v="813511" />
	</node>
	<node id="9928695317" lat="62.63265" lon="8.8442834" version="1" timestamp="2022-08-03T05:34:06Z" changeset="124417792" uid="3497659" user="NKA">
		<tag k="name" v="Brekkhaugen" />
		<tag k="place" v="farm" />
		<tag k="ssr:stedsnr" v="193940" />
	</node>
	<node id="9928695318" lat="62.4651083" lon="9.1066333" version="1" timestamp="2022-08-03T05:34:06Z" changeset="124417792" uid="3497659" user="NKA">
		<tag k="name" v="Gammelbua" />
		<tag k="place" v="isolated_dwelling" />
		<tag k="ssr:stedsnr" v="810287" />
	</node>
	<node id="9928695319" lat="62.4748861" lon="8.9337445" version="1" timestamp="2022-08-03T05:34:06Z" changeset="124417792" uid="3497659" user="NKA">
		<tag k="name" v="Styggmarka" />
		<tag k="place" v="locality" />
		<tag k="ssr:stedsnr" v="193480" />
	</node>
	<node id="9928695320" lat="62.6447528" lon="8.78955" version="1" timestamp="2022-08-03T05:34:06Z" changeset="124417792" uid="3497659" user="NKA">
		<tag k="name" v="Leirbrekka" />
		<tag k="place" v="farm" />
		<tag k="ssr:stedsnr" v="193950" />
	</node>
	<node id="9928695321" lat="62.6109891" lon="8.920409" version="1" timestamp="2022-08-03T05:34:06Z" changeset="124417792" uid="3497659" user="NKA">
		<tag k="name" v="Østistu Snøva" />
		<tag k="place" v="farm" />
		<tag k="ssr:stedsnr" v="571557" />
	</node>
	<node id="9928695322" lat="62.5089137" lon="9.0670141" version="1" timestamp="2022-08-03T05:34:06Z" changeset="124417792" uid="3497659" user="NKA">
		<tag k="name" v="Haugen" />
		<tag k="place" v="farm" />
		<tag k="ssr:stedsnr" v="633681" />
	</node>
	<node id="9928695323" lat="62.50765" lon="8.9820501" version="1" timestamp="2022-08-03T05:34:06Z" changeset="124417792" uid="3497659" user="NKA">
		<tag k="name" v="Skålvollykkja" />
		<tag k="place" v="locality" />
		<tag k="ssr:stedsnr" v="570425" />
	</node>
	<node id="9928695324" lat="62.5918031" lon="8.9959522" version="1" timestamp="2022-08-03T05:34:06Z" changeset="124417792" uid="3497659" user="NKA">
		<tag k="name" v="Freikstu" />
		<tag k="place" v="farm" />
		<tag k="ssr:stedsnr" v="506967" />
	</node>
	<node id="9928695325" lat="62.4561667" lon="9.0193777" version="1" timestamp="2022-08-03T05:34:06Z" changeset="124417792" uid="3497659" user="NKA">
		<tag k="name" v="Edvardbua" />
		<tag k="place" v="isolated_dwelling" />
		<tag k="ssr:stedsnr" v="567281" />
	</node>
	<node id="9928695326" lat="62.6030417" lon="8.9325084" version="1" timestamp="2022-08-03T05:34:06Z" changeset="124417792" uid="3497659" user="NKA">
		<tag k="name" v="Setran" />
		<tag k="place" v="locality" />
		<tag k="ssr:stedsnr" v="632538" />
	</node>
	<node id="9928695327" lat="62.4258861" lon="8.5701362" version="1" timestamp="2022-08-03T05:34:06Z" changeset="124417792" uid="3497659" user="NKA">
		<tag k="name" v="Torbua" />
		<tag k="place" v="isolated_dwelling" />
		<tag k="ssr:stedsnr" v="141747" />
	</node>
	<node id="9928695328" lat="62.49645" lon="8.5207501" version="1" timestamp="2022-08-03T05:34:06Z" changeset="124417792" uid="3497659" user="NKA">
		<tag k="historic" v="shieling" />
		<tag k="name" v="Øygardssetra" />
		<tag k="place" v="isolated_dwelling" />
		<tag k="ssr:stedsnr" v="72160" />
	</node>
	<node id="9928695329" lat="62.5926167" lon="9.0035362" version="1" timestamp="2022-08-03T05:34:06Z" changeset="124417792" uid="3497659" user="NKA">
		<tag k="name" v="Ottemsøyan" />
		<tag k="place" v="hamlet" />
		<tag k="ssr:stedsnr" v="254736" />
	</node>
	<node id="9928695330" lat="62.4927719" lon="9.0828146" version="1" timestamp="2022-08-03T05:34:06Z" changeset="124417792" uid="3497659" user="NKA">
		<tag k="historic" v="shieling" />
		<tag k="name" v="Landlaupsetra" />
		<tag k="place" v="isolated_dwelling" />
		<tag k="ssr:stedsnr" v="147691" />
	</node>
	<node id="9928695331" lat="62.5181" lon="8.9863973" version="1" timestamp="2022-08-03T05:34:06Z" changeset="124417792" uid="3497659" user="NKA">
		<tag k="name" v="Trøa" />
		<tag k="place" v="farm" />
		<tag k="ssr:stedsnr" v="141721" />
	</node>
	<node id="9928695332" lat="62.6097972" lon="8.5255111" version="1" timestamp="2022-08-03T05:34:06Z" changeset="124417792" uid="3497659" user="NKA">
		<tag k="name" v="Dalen" />
		<tag k="place" v="farm" />
		<tag k="ssr:stedsnr" v="194120" />
	</node>
	<node id="9928695333" lat="62.4996738" lon="8.9717719" version="1" timestamp="2022-08-03T05:34:06Z" changeset="124417792" uid="3497659" user="NKA">
		<tag k="name" v="Ivarstu" />
		<tag k="place" v="farm" />
		<tag k="ssr:stedsnr" v="85497" />
	</node>
	<node id="9928695334" lat="62.604232" lon="8.9383124" version="1" timestamp="2022-08-03T05:34:06Z" changeset="124417792" uid="3497659" user="NKA">
		<tag k="name" v="Bortstu Romfo" />
		<tag k="place" v="farm" />
		<tag k="ssr:stedsnr" v="85382" />
	</node>
	<node id="9928695335" lat="62.5722512" lon="9.1569233" version="1" timestamp="2022-08-03T05:34:06Z" changeset="124417792" uid="3497659" user="NKA">
		<tag k="name" v="Trettvollen" />
		<tag k="place" v="farm" />
		<tag k="ssr:stedsnr" v="936063" />
	</node>
	<node id="9928695336" lat="62.6270027" lon="9.0053555" version="1" timestamp="2022-08-03T05:34:06Z" changeset="124417792" uid="3497659" user="NKA">
		<tag k="name" v="Romfosetra" />
		<tag k="place" v="locality" />
		<tag k="ssr:stedsnr" v="21322" />
	</node>
	<node id="9928695337" lat="62.550375" lon="9.1069333" version="1" timestamp="2022-08-03T05:34:06Z" changeset="124417792" uid="3497659" user="NKA">
		<tag k="name" v="Klingøya" />
		<tag k="place" v="farm" />
		<tag k="ssr:stedsnr" v="931725" />
	</node>
	<node id="9928695338" lat="62.5310056" lon="9.113725" version="1" timestamp="2022-08-03T05:34:06Z" changeset="124417792" uid="3497659" user="NKA">
		<tag k="name" v="Husmannshusa" />
		<tag k="place" v="locality" />
		<tag k="ssr:stedsnr" v="755475" />
	</node>
	<node id="9928695339" lat="62.453999" lon="8.5610158" version="1" timestamp="2022-08-03T05:34:06Z" changeset="124417792" uid="3497659" user="NKA">
		<tag k="historic" v="shieling" />
		<tag k="name" v="Hårstadsætra" />
		<tag k="place" v="isolated_dwelling" />
		<tag k="ssr:stedsnr" v="193341" />
	</node>
	<node id="9928695340" lat="62.5718947" lon="9.159553" version="1" timestamp="2022-08-03T05:34:06Z" changeset="124417792" uid="3497659" user="NKA">
		<tag k="name" v="Grensabakkan" />
		<tag k="place" v="locality" />
		<tag k="ssr:stedsnr" v="269063" />
	</node>
	<node id="9928695341" lat="62.5086331" lon="9.0681684" version="1" timestamp="2022-08-03T05:34:06Z" changeset="124417792" uid="3497659" user="NKA">
		<tag k="name" v="Saga" />
		<tag k="place" v="locality" />
		<tag k="ssr:stedsnr" v="815584" />
	</node>
	<node id="9928695342" lat="62.5796312" lon="9.1246695" version="1" timestamp="2022-08-03T05:34:06Z" changeset="124417792" uid="3497659" user="NKA">
		<tag k="historic" v="shieling" />
		<tag k="name" v="Vollasetra" />
		<tag k="place" v="isolated_dwelling" />
		<tag k="ssr:stedsnr" v="315758" />
	</node>
	<node id="9928695343" lat="62.5326695" lon="9.0907209" version="1" timestamp="2022-08-03T05:34:06Z" changeset="124417792" uid="3497659" user="NKA">
		<tag k="name" v="Børstølen" />
		<tag k="place" v="farm" />
		<tag k="ssr:stedsnr" v="254823" />
	</node>
	<node id="9928695344" lat="62.6382484" lon="8.8116091" version="1" timestamp="2022-08-03T05:34:06Z" changeset="124417792" uid="3497659" user="NKA">
		<tag k="name" v="Øster Røyhjellen" />
		<tag k="place" v="farm" />
		<tag k="ssr:stedsnr" v="815355" />
	</node>
	<node id="9928695345" lat="62.6233377" lon="8.5283623" version="1" timestamp="2022-08-03T05:34:06Z" changeset="124417792" uid="3497659" user="NKA">
		<tag k="name" v="Linset" />
		<tag k="place" v="hamlet" />
		<tag k="ssr:stedsnr" v="922113" />
	</node>
	<node id="9928695346" lat="62.6499527" lon="8.5325194" version="1" timestamp="2022-08-03T05:34:06Z" changeset="124417792" uid="3497659" user="NKA">
		<tag k="name" v="Hovhjellen" />
		<tag k="place" v="isolated_dwelling" />
		<tag k="ssr:stedsnr" v="740024" />
	</node>
	<node id="9928695347" lat="62.4945745" lon="9.0834589" version="1" timestamp="2022-08-03T05:34:06Z" changeset="124417792" uid="3497659" user="NKA">
		<tag k="historic" v="shieling" />
		<tag k="name" v="Middagshjellan" />
		<tag k="place" v="locality" />
		<tag k="ssr:stedsnr" v="193281" />
	</node>
	<node id="9928695348" lat="62.5305195" lon="9.1110472" version="1" timestamp="2022-08-03T05:34:06Z" changeset="124417792" uid="3497659" user="NKA">
		<tag k="alt_name" v="Søsetra" />
		<tag k="historic" v="shieling" />
		<tag k="name" v="Nisjasetra" />
		<tag k="place" v="isolated_dwelling" />
		<tag k="ssr:stedsnr" v="861844" />
	</node>
	<node id="9928695349" lat="62.6559744" lon="8.6504742" version="1" timestamp="2022-08-03T05:34:06Z" changeset="124417792" uid="3497659" user="NKA">
		<tag k="loc_name" v="Hoel" />
		<tag k="name" v="Hol" />
		<tag k="place" v="hamlet" />
		<tag k="ssr:stedsnr" v="801018" />
	</node>
	<node id="9928695350" lat="62.8350769" lon="8.5063942" version="1" timestamp="2022-08-03T05:34:06Z" changeset="124417792" uid="3497659" user="NKA">
		<tag k="name" v="Fugelvåg" />
		<tag k="place" v="farm" />
		<tag k="ssr:stedsnr" v="974675" />
	</node>
	<node id="9928695351" lat="62.7949089" lon="8.5015104" version="1" timestamp="2022-08-03T05:34:06Z" changeset="124417792" uid="3497659" user="NKA">
		<tag k="name" v="Øytun" />
		<tag k="place" v="farm" />
		<tag k="ssr:stedsnr" v="922371" />
	</node>
	<node id="9928695352" lat="62.6674722" lon="8.4454306" version="1" timestamp="2022-08-03T05:34:06Z" changeset="124417792" uid="3497659" user="NKA">
		<tag k="historic" v="shieling" />
		<tag k="name" v="Setersetran" />
		<tag k="place" v="isolated_dwelling" />
		<tag k="ssr:stedsnr" v="557001" />
	</node>
	<node id="9928695353" lat="62.6775528" lon="8.4024249" version="1" timestamp="2022-08-03T05:34:06Z" changeset="124417792" uid="3497659" user="NKA">
		<tag k="name" v="Øya" />
		<tag k="place" v="farm" />
		<tag k="ssr:stedsnr" v="922050" />
	</node>
	<node id="9928695354" lat="62.6686187" lon="8.3461649" version="1" timestamp="2022-08-03T05:34:06Z" changeset="124417792" uid="3497659" user="NKA">
		<tag k="name" v="Rønningsetra" />
		<tag k="place" v="isolated_dwelling" />
		<tag k="ssr:stedsnr" v="753168" />
	</node>
	<node id="9928695355" lat="62.5656194" lon="9.1594558" version="1" timestamp="2022-08-03T05:34:06Z" changeset="124417792" uid="3497659" user="NKA">
		<tag k="name" v="Morka" />
		<tag k="place" v="farm" />
		<tag k="ssr:stedsnr" v="679772" />
	</node>
	<node id="9928695356" lat="62.5411403" lon="9.1312826" version="1" timestamp="2022-08-03T05:34:06Z" changeset="124417792" uid="3497659" user="NKA">
		<tag k="historic" v="shieling" />
		<tag k="name" v="Litlvangen" />
		<tag k="place" v="isolated_dwelling" />
		<tag k="ssr:stedsnr" v="557816" />
	</node>
	<node id="9928695357" lat="62.9067542" lon="8.4022058" version="1" timestamp="2022-08-03T05:34:06Z" changeset="124417792" uid="3497659" user="NKA">
		<tag k="name" v="Nesøya" />
		<tag k="place" v="farm" />
		<tag k="ssr:stedsnr" v="922287" />
	</node>
	<node id="9928695358" lat="62.4664" lon="9.1076306" version="1" timestamp="2022-08-03T05:34:06Z" changeset="124417792" uid="3497659" user="NKA">
		<tag k="name" v="Gammelbua" />
		<tag k="place" v="isolated_dwelling" />
		<tag k="ssr:stedsnr" v="506797" />
	</node>
	<node id="9928695359" lat="62.5660371" lon="9.0633718" version="1" timestamp="2022-08-03T05:34:06Z" changeset="124417792" uid="3497659" user="NKA">
		<tag k="name" v="Tøftin" />
		<tag k="place" v="farm" />
		<tag k="ssr:stedsnr" v="330171" />
	</node>
	<node id="9928695360" lat="62.5071687" lon="9.0698977" version="1" timestamp="2022-08-03T05:34:06Z" changeset="124417792" uid="3497659" user="NKA">
		<tag k="name" v="Oppistu" />
		<tag k="place" v="farm" />
		<tag k="ssr:stedsnr" v="450687" />
	</node>
	<node id="9928695361" lat="62.8447833" lon="8.4238834" version="1" timestamp="2022-08-03T05:34:06Z" changeset="124417792" uid="3497659" user="NKA">
		<tag k="name" v="Gammelsetra" />
		<tag k="place" v="locality" />
		<tag k="ssr:stedsnr" v="813029" />
	</node>
	<node id="9928695362" lat="62.6971642" lon="8.4881119" version="1" timestamp="2022-08-03T05:34:06Z" changeset="124417792" uid="3497659" user="NKA">
		<tag k="name" v="Børstølen" />
		<tag k="place" v="hamlet" />
		<tag k="ssr:stedsnr" v="315196" />
	</node>
	<node id="9928695363" lat="62.6660301" lon="8.5241145" version="1" timestamp="2022-08-03T05:34:06Z" changeset="124417792" uid="3497659" user="NKA">
		<tag k="name" v="Sjølsenga" />
		<tag k="place" v="neighbourhood" />
		<tag k="ssr:stedsnr" v="315001" />
	</node>
	<node id="9928695364" lat="62.5563827" lon="9.0765711" version="1" timestamp="2022-08-03T05:34:06Z" changeset="124417792" uid="3497659" user="NKA">
		<tag k="name" v="Rønningen" />
		<tag k="place" v="farm" />
		<tag k="ssr:stedsnr" v="132810" />
	</node>
	<node id="9928695365" lat="62.6701747" lon="8.5804323" version="1" timestamp="2022-08-03T05:34:06Z" changeset="124417792" uid="3497659" user="NKA">
		<tag k="name" v="Fagerhaugan" />
		<tag k="place" v="neighbourhood" />
		<tag k="ssr:stedsnr" v="254051" />
	</node>
	<node id="9928695366" lat="62.5209592" lon="9.0722268" version="1" timestamp="2022-08-03T05:34:06Z" changeset="124417792" uid="3497659" user="NKA">
		<tag k="name" v="Bruøya" />
		<tag k="place" v="farm" />
		<tag k="ssr:stedsnr" v="132813" />
	</node>
	<node id="9928695367" lat="62.6576928" lon="8.6125867" version="1" timestamp="2022-08-03T05:34:06Z" changeset="124417792" uid="3497659" user="NKA">
		<tag k="name" v="Østistu Mele" />
		<tag k="place" v="farm" />
		<tag k="ssr:stedsnr" v="753121" />
	</node>
	<node id="9928695368" lat="62.57388" lon="9.1395993" version="1" timestamp="2022-08-03T05:34:06Z" changeset="124417792" uid="3497659" user="NKA">
		<tag k="name" v="Øytun" />
		<tag k="place" v="farm" />
		<tag k="ssr:stedsnr" v="147045" />
	</node>
	<node id="9928695369" lat="62.6675833" lon="8.5727666" version="1" timestamp="2022-08-03T05:34:06Z" changeset="124417792" uid="3497659" user="NKA">
		<tag k="name" v="Skjøllønd" />
		<tag k="place" v="farm" />
		<tag k="ssr:stedsnr" v="728019" />
	</node>
	<node id="9928695370" lat="62.701992" lon="8.4963094" version="1" timestamp="2022-08-03T05:34:06Z" changeset="124417792" uid="3497659" user="NKA">
		<tag k="name" v="Storvikan" />
		<tag k="place" v="hamlet" />
		<tag k="ssr:stedsnr" v="133185" />
	</node>
	<node id="9928695371" lat="62.6748361" lon="8.444025" version="1" timestamp="2022-08-03T05:34:06Z" changeset="124417792" uid="3497659" user="NKA">
		<tag k="historic" v="shieling" />
		<tag k="name" v="Smedstadsetra" />
		<tag k="place" v="isolated_dwelling" />
		<tag k="ssr:stedsnr" v="72062" />
	</node>
	<node id="9928695372" lat="62.8413837" lon="8.5202502" version="1" timestamp="2022-08-03T05:34:06Z" changeset="124417792" uid="3497659" user="NKA">
		<tag k="alt_name" v="Bønan" />
		<tag k="name" v="Bøen" />
		<tag k="place" v="farm" />
		<tag k="ssr:stedsnr" v="935236" />
	</node>
	<node id="9928695373" lat="62.8351085" lon="8.5049844" version="1" timestamp="2022-08-03T05:34:06Z" changeset="124417792" uid="3497659" user="NKA">
		<tag k="name" v="Fuglvågen" />
		<tag k="place" v="farm" />
		<tag k="ssr:stedsnr" v="740328" />
	</node>
	<node id="9928695374" lat="62.7689439" lon="8.3231357" version="1" timestamp="2022-08-03T05:34:06Z" changeset="124417792" uid="3497659" user="NKA">
		<tag k="name" v="Jordalsøra" />
		<tag k="place" v="farm" />
		<tag k="ssr:stedsnr" v="813991" />
	</node>
	<node id="9928695375" lat="62.7973072" lon="8.4934168" version="1" timestamp="2022-08-03T05:34:06Z" changeset="124417792" uid="3497659" user="NKA">
		<tag k="name" v="Smisetfossen" />
		<tag k="place" v="farm" />
		<tag k="ssr:stedsnr" v="618373" />
	</node>
	<node id="9928695376" lat="62.8362602" lon="8.5156221" version="1" timestamp="2022-08-03T05:34:06Z" changeset="124417792" uid="3497659" user="NKA">
		<tag k="name" v="Ålvundsaga" />
		<tag k="place" v="locality" />
		<tag k="ssr:stedsnr" v="570385" />
	</node>
	<node id="9928695377" lat="62.8311797" lon="8.5318951" version="1" timestamp="2022-08-03T05:34:06Z" changeset="124417792" uid="3497659" user="NKA">
		<tag k="name" v="Alfheim" />
		<tag k="old_name" v="Brekkbakkan" />
		<tag k="place" v="farm" />
		<tag k="ssr:stedsnr" v="497314" />
	</node>
	<node id="9928695378" lat="62.7781195" lon="8.5064862" version="1" timestamp="2022-08-03T05:34:06Z" changeset="124417792" uid="3497659" user="NKA">
		<tag k="name" v="Røset" />
		<tag k="place" v="hamlet" />
		<tag k="ssr:stedsnr" v="679343" />
	</node>
	<node id="9928695379" lat="62.6430973" lon="8.5288723" version="1" timestamp="2022-08-03T05:34:06Z" changeset="124417792" uid="3497659" user="NKA">
		<tag k="name" v="Hårstad" />
		<tag k="place" v="hamlet" />
		<tag k="ssr:stedsnr" v="922030" />
	</node>
	<node id="9928695380" lat="62.6899611" lon="8.4149537" version="1" timestamp="2022-08-03T05:34:06Z" changeset="124417792" uid="3497659" user="NKA">
		<tag k="name" v="Bakkan" />
		<tag k="place" v="farm" />
		<tag k="ssr:stedsnr" v="679046" />
	</node>
	<node id="9928695381" lat="62.6658722" lon="8.4014834" version="1" timestamp="2022-08-03T05:34:06Z" changeset="124417792" uid="3497659" user="NKA">
		<tag k="historic" v="shieling" />
		<tag k="name" v="Hjellasetra" />
		<tag k="place" v="isolated_dwelling" />
		<tag k="ssr:stedsnr" v="679007" />
	</node>
	<node id="9928695382" lat="62.8526222" lon="8.539664" version="1" timestamp="2022-08-03T05:34:06Z" changeset="124417792" uid="3497659" user="NKA">
		<tag k="name" v="Leviksetra" />
		<tag k="place" v="locality" />
		<tag k="ssr:stedsnr" v="449242" />
	</node>
	<node id="9928695383" lat="62.758619" lon="8.3075303" version="1" timestamp="2022-08-03T05:34:06Z" changeset="124417792" uid="3497659" user="NKA">
		<tag k="name" v="Øvre Jordal" />
		<tag k="place" v="farm" />
		<tag k="ssr:stedsnr" v="667044" />
	</node>
	<node id="9928695384" lat="62.8341323" lon="8.5095077" version="1" timestamp="2022-08-03T05:34:06Z" changeset="124417792" uid="3497659" user="NKA">
		<tag k="name" v="Grinhaugen" />
		<tag k="place" v="farm" />
		<tag k="ssr:stedsnr" v="449186" />
	</node>
	<node id="9928695385" lat="62.6490584" lon="8.3149473" version="1" timestamp="2022-08-03T05:34:06Z" changeset="124417792" uid="3497659" user="NKA">
		<tag k="name" v="Forsetsetra" />
		<tag k="place" v="isolated_dwelling" />
		<tag k="ssr:stedsnr" v="375027" />
	</node>
	<node id="9928695386" lat="62.8513545" lon="8.5212912" version="1" timestamp="2022-08-03T05:34:06Z" changeset="124417792" uid="3497659" user="NKA">
		<tag k="name" v="Handlarstuhamran" />
		<tag k="place" v="quarter" />
		<tag k="ssr:stedsnr" v="324586" />
	</node>
	<node id="9928695387" lat="62.6729444" lon="8.3869333" version="1" timestamp="2022-08-03T05:34:06Z" changeset="124417792" uid="3497659" user="NKA">
		<tag k="name" v="Samueløya" />
		<tag k="place" v="farm" />
		<tag k="ssr:stedsnr" v="566720" />
	</node>
	<node id="9928695388" lat="62.8603889" lon="8.5239499" version="1" timestamp="2022-08-03T05:34:06Z" changeset="124417792" uid="3497659" user="NKA">
		<tag k="name" v="Hals" />
		<tag k="place" v="hamlet" />
		<tag k="ssr:stedsnr" v="315328" />
	</node>
	<node id="9928695389" lat="62.8390722" lon="8.5403778" version="1" timestamp="2022-08-03T05:34:06Z" changeset="124417792" uid="3497659" user="NKA">
		<tag k="name" v="Austistusetra" />
		<tag k="place" v="isolated_dwelling" />
		<tag k="ssr:stedsnr" v="327447" />
	</node>
	<node id="9928695390" lat="62.7666291" lon="8.3218587" version="1" timestamp="2022-08-03T05:34:06Z" changeset="124417792" uid="3497659" user="NKA">
		<tag k="name" v="Jordølo" />
		<tag k="place" v="farm" />
		<tag k="ssr:stedsnr" v="255380" />
	</node>
	<node id="9928695391" lat="62.8000221" lon="8.4889448" version="1" timestamp="2022-08-03T05:34:06Z" changeset="124417792" uid="3497659" user="NKA">
		<tag k="name" v="Smisethjellen" />
		<tag k="place" v="farm" />
		<tag k="ssr:stedsnr" v="315372" />
	</node>
	<node id="9928695392" lat="62.8295973" lon="8.4767806" version="1" timestamp="2022-08-03T05:34:06Z" changeset="124417792" uid="3497659" user="NKA">
		<tag k="historic" v="shieling" />
		<tag k="name" v="Seljebøsetra" />
		<tag k="place" v="isolated_dwelling" />
		<tag k="ssr:stedsnr" v="267123" />
	</node>
	<node id="9928695393" lat="62.6102561" lon="8.3090542" version="1" timestamp="2022-08-03T05:34:06Z" changeset="124417792" uid="3497659" user="NKA">
		<tag k="historic" v="shieling" />
		<tag k="name" v="Skrondalsetra" />
		<tag k="place" v="isolated_dwelling" />
		<tag k="ssr:stedsnr" v="509335" />
	</node>
	<node id="9928695394" lat="62.8623981" lon="8.3914125" version="1" timestamp="2022-08-03T05:34:06Z" changeset="124417792" uid="3497659" user="NKA">
		<tag k="historic" v="shieling" />
		<tag k="name" v="Skarsetra" />
		<tag k="place" v="isolated_dwelling" />
		<tag k="ssr:stedsnr" v="509221" />
	</node>
	<node id="9928695395" lat="62.7539833" lon="8.3210917" version="1" timestamp="2022-08-03T05:34:06Z" changeset="124417792" uid="3497659" user="NKA">
		<tag k="name" v="Lia" />
		<tag k="place" v="farm" />
		<tag k="ssr:stedsnr" v="497472" />
	</node>
	<node id="9928695396" lat="62.7328945" lon="8.3074112" version="1" timestamp="2022-08-03T05:34:06Z" changeset="124417792" uid="3497659" user="NKA">
		<tag k="historic" v="shieling" />
		<tag k="name" v="Oppigardssetra" />
		<tag k="place" v="isolated_dwelling" />
		<tag k="ssr:stedsnr" v="133227" />
	</node>
	<node id="9928695397" lat="62.7843228" lon="8.4979035" version="1" timestamp="2022-08-03T05:34:06Z" changeset="124417792" uid="3497659" user="NKA">
		<tag k="name" v="Ytterøya" />
		<tag k="place" v="farm" />
		<tag k="ssr:stedsnr" v="497379" />
	</node>
	<node id="9928695398" lat="62.6687624" lon="8.3836499" version="1" timestamp="2022-08-03T05:34:06Z" changeset="124417792" uid="3497659" user="NKA">
		<tag k="name" v="Hjellen" />
		<tag k="place" v="hamlet" />
		<tag k="ssr:stedsnr" v="497050" />
	</node>
	<node id="9928695399" lat="62.6849638" lon="8.3847862" version="1" timestamp="2022-08-03T05:34:06Z" changeset="124417792" uid="3497659" user="NKA">
		<tag k="historic" v="shieling" />
		<tag k="name" v="Børsetsetra" />
		<tag k="place" v="isolated_dwelling" />
		<tag k="ssr:stedsnr" v="133030" />
	</node>
	<node id="9928695400" lat="62.7975307" lon="8.557608" version="1" timestamp="2022-08-03T05:34:06Z" changeset="124417792" uid="3497659" user="NKA">
		<tag k="historic" v="shieling" />
		<tag k="name" v="Valsetsetra" />
		<tag k="place" v="isolated_dwelling" />
		<tag k="ssr:stedsnr" v="73399" />
	</node>
	<node id="9928695401" lat="62.7236667" lon="8.3542528" version="1" timestamp="2022-08-03T05:34:06Z" changeset="124417792" uid="3497659" user="NKA">
		<tag k="historic" v="shieling" />
		<tag k="name" v="Jamnhaugsetra" />
		<tag k="place" v="isolated_dwelling" />
		<tag k="ssr:stedsnr" v="72237" />
	</node>
	<node id="9928695402" lat="62.8385556" lon="8.4566139" version="1" timestamp="2022-08-03T05:34:06Z" changeset="124417792" uid="3497659" user="NKA">
		<tag k="name" v="Mariasetra" />
		<tag k="place" v="locality" />
		<tag k="ssr:stedsnr" v="449150" />
	</node>
	<node id="9928695403" lat="62.6791445" lon="8.4044417" version="1" timestamp="2022-08-03T05:34:06Z" changeset="124417792" uid="3497659" user="NKA">
		<tag k="name" v="Gammelgarden" />
		<tag k="place" v="locality" />
		<tag k="ssr:stedsnr" v="24711" />
	</node>
	<node id="9928695404" lat="62.8509028" lon="8.5526334" version="1" timestamp="2022-08-03T05:34:06Z" changeset="124417792" uid="3497659" user="NKA">
		<tag k="name" v="Høgfjellet" />
		<tag k="place" v="locality" />
		<tag k="ssr:stedsnr" v="813208" />
	</node>
	<node id="9928695405" lat="62.8041468" lon="8.5062682" version="1" timestamp="2022-08-03T05:34:06Z" changeset="124417792" uid="3497659" user="NKA">
		<tag k="name" v="Skogvoll" />
		<tag k="place" v="farm" />
		<tag k="ssr:stedsnr" v="874554" />
	</node>
	<node id="9928695406" lat="62.6586112" lon="8.3567445" version="1" timestamp="2022-08-03T05:34:06Z" changeset="124417792" uid="3497659" user="NKA">
		<tag k="name" v="Vollatrøa" />
		<tag k="place" v="farm" />
		<tag k="ssr:stedsnr" v="861007" />
	</node>
	<node id="9928695407" lat="62.6625824" lon="8.3549742" version="1" timestamp="2022-08-03T05:34:06Z" changeset="124417792" uid="3497659" user="NKA">
		<tag k="name" v="Rønningen" />
		<tag k="place" v="farm" />
		<tag k="ssr:stedsnr" v="12010" />
	</node>
	<node id="9928695408" lat="62.5444474" lon="9.1032974" version="1" timestamp="2022-08-03T05:34:06Z" changeset="124417792" uid="3497659" user="NKA">
		<tag k="name" v="Øver-Nisja" />
		<tag k="place" v="farm" />
		<tag k="ssr:stedsnr" v="910780" />
	</node>
	<node id="9928695409" lat="62.847791" lon="8.5219633" version="1" timestamp="2022-08-03T05:34:06Z" changeset="124417792" uid="3497659" user="NKA">
		<tag k="name" v="Buvang" />
		<tag k="place" v="farm" />
		<tag k="ssr:stedsnr" v="874350" />
	</node>
</osm>
