<?xml version="1.0" encoding="UTF-8"?>
<<<<<<< HEAD
<osm version="0.6" generator="osmapis">
	<node lat="59.04402058574283" lon="9.706212088897711" id="-19922">
		<tag k="name" v="Gjermundsholmen" />
		<tag k="old_name" v="Croftsholmen" />
=======
<osm generator="osmapis" version="0.6">
	<node id="-432126" lat="58.9400055527" lon="9.59977778541">
		<tag k="name" v="Håvøytangen" />
		<tag k="natural" v="cape" />
		<tag k="ssr:stedsnr" v="767002" />
	</node>
	<node id="-430584" lat="58.9305888901" lon="9.61403610299">
		<tag k="name" v="Leifsholmen" />
		<tag k="place" v="islet" />
		<tag k="ssr:stedsnr" v="282906" />
	</node>
	<node id="-432119" lat="59.115852778" lon="9.55794165939">
		<tag k="alt_name" v="Lillekilen" />
		<tag k="name" v="Langekilen" />
		<tag k="natural" v="bay" />
		<tag k="ssr:stedsnr" v="753196" />
	</node>
	<node id="-432117" lat="58.9295138927" lon="9.51801943941">
		<tag k="alt_name" v="Hue" />
		<tag k="name" v="Monsens Hue" />
		<tag k="natural" v="cape" />
		<tag k="ssr:stedsnr" v="752650" />
	</node>
	<node id="-432116" lat="58.9890305538" lon="9.73842222089">
		<tag k="name" v="Hesteklovbåen" />
		<tag k="place" v="locality" />
		<tag k="seamark:type" v="rock" />
		<tag k="ssr:stedsnr" v="752483" />
	</node>
	<node id="-432114" lat="59.0906888901" lon="9.60592778161">
		<tag k="name" v="Strømtangodden" />
		<tag k="natural" v="cape" />
		<tag k="ssr:stedsnr" v="655548" />
	</node>
	<node id="-431443" lat="58.990283329" lon="9.66797222651">
		<tag k="name" v="Saltholmen" />
		<tag k="place" v="islet" />
		<tag k="ssr:stedsnr" v="61552" />
	</node>
	<node id="-432112" lat="59.0788944477" lon="9.62728332525">
		<tag k="fixme" v="consider seamark:type=rock or natural=shoal" />
		<tag k="name" v="Sloskjæret" />
		<tag k="place" v="islet" />
		<tag k="ssr:stedsnr" v="655535" />
	</node>
	<node id="-430575" lat="58.9314055519" lon="9.56083610713">
		<tag k="name" v="Eikvika" />
		<tag k="natural" v="bay" />
		<tag k="ssr:stedsnr" v="282447" />
	</node>
	<node id="-430574" lat="58.9356083322" lon="9.61202499668">
		<tag k="name" v="Grunnsund" />
		<tag k="natural" v="strait" />
		<tag k="ssr:stedsnr" v="282332" />
	</node>
	<node id="-430573" lat="58.9457333307" lon="9.62463054689">
		<tag k="name" v="Ytre Kjønnøya" />
		<tag k="place" v="island" />
		<tag k="ssr:stedsnr" v="282324" />
	</node>
	<node id="-431084" lat="58.9451527798" lon="9.59184443687">
		<tag k="name" v="Brennevinsholmane" />
		<tag k="place" v="islet" />
		<tag k="ssr:stedsnr" v="889549" />
	</node>
	<node id="-431595" lat="58.9267611071" lon="9.61309999177">
		<tag k="name" v="Vittenskjul" />
		<tag k="place" v="islet" />
		<tag k="ssr:stedsnr" v="160813" />
	</node>
	<node id="-431081" lat="58.9557333369" lon="9.6191499914">
		<tag k="name" v="Brennevinstranda" />
		<tag k="natural" v="beach" />
		<tag k="place" v="locality" />
		<tag k="ssr:stedsnr" v="889424" />
	</node>
	<node id="-431079" lat="58.9390638856" lon="9.63959444217">
		<tag k="alt_name" v="Langholmen" />
		<tag k="name" v="Langskjær" />
		<tag k="place" v="islet" />
		<tag k="ssr:stedsnr" v="889348" />
	</node>
	<node id="-431589" lat="58.9482083365" lon="9.61742222517">
		<tag k="name" v="Indre Kjønnøya" />
		<tag k="place" v="island" />
		<tag k="ssr:stedsnr" v="160387" />
	</node>
	<node id="-431075" lat="58.9621777739" lon="9.68834999841">
		<tag k="name" v="Mejulbukta" />
		<tag k="natural" v="bay" />
		<tag k="ssr:stedsnr" v="888812" />
	</node>
	<node id="-431074" lat="58.9688694465" lon="9.6636000006">
		<tag k="name" v="Knipetangen" />
		<tag k="natural" v="cape" />
		<tag k="ssr:stedsnr" v="888809" />
	</node>
	<node id="-430757" lat="59.0633694408" lon="9.63391944099">
		<tag k="name" v="Garstadholmen" />
		<tag k="place" v="islet" />
		<tag k="ssr:stedsnr" v="487488" />
	</node>
	<node id="-431579" lat="58.943463891" lon="9.65474722753">
		<tag k="fixme" v="consider seamark:type=rock or natural=shoal" />
		<tag k="name" v="Bjørnøyskjær" />
		<tag k="place" v="islet" />
		<tag k="ssr:stedsnr" v="145482" />
	</node>
	<node id="-431183" lat="58.9716999963" lon="9.70190555818">
		<tag k="name" v="Såsteinsundet" />
		<tag k="natural" v="strait" />
		<tag k="ssr:stedsnr" v="911878" />
	</node>
	<node id="-432088" lat="58.9385666704" lon="9.46675277083">
		<tag k="bay" v="fjord" />
		<tag k="name" v="Fossingfjorden" />
		<tag k="natural" v="bay" />
		<tag k="ssr:stedsnr" v="646324" />
	</node>
	<node id="-431063" lat="59.0054250031" lon="9.75647777231">
		<tag k="name" v="Steinvika" />
		<tag k="natural" v="bay" />
		<tag k="ssr:stedsnr" v="662654" />
	</node>
	<node id="-430550" lat="59.0511000029" lon="9.67727499244">
		<tag k="name" v="Rokksund" />
		<tag k="natural" v="strait" />
		<tag k="ssr:stedsnr" v="160754" />
	</node>
	<node id="-432084" lat="58.9813555542" lon="9.69359445266">
		<tag k="name" v="Wiborgbukta" />
		<tag k="natural" v="bay" />
		<tag k="ssr:stedsnr" v="645809" />
	</node>
	<node id="-431057" lat="58.9336611126" lon="9.50330000659">
		<tag k="name" v="Apalbukta" />
		<tag k="natural" v="bay" />
		<tag k="ssr:stedsnr" v="647717" />
	</node>
	<node id="-431568" lat="58.9579249989" lon="9.66732499743">
		<tag k="fixme" v="consider seamark:type=rock or natural=shoal" />
		<tag k="name" v="Kalven" />
		<tag k="place" v="islet" />
		<tag k="ssr:stedsnr" v="122895" />
	</node>
	<node id="-431567" lat="58.9679888906" lon="9.69350000281">
		<tag k="alt_name" v="Øsa" />
		<tag k="name" v="Ausa" />
		<tag k="natural" v="bay" />
		<tag k="ssr:stedsnr" v="122879" />
	</node>
	<node id="-431566" lat="58.9513250021" lon="9.63757778632">
		<tag k="alt_name" v="Holmen, østre" />
		<tag k="name" v="Østre Holme" />
		<tag k="place" v="islet" />
		<tag k="ssr:stedsnr" v="122876" />
	</node>
	<node id="-430541" lat="58.9336499989" lon="9.62334167084">
		<tag k="name" v="Klokkersundet" />
		<tag k="natural" v="strait" />
		<tag k="ssr:stedsnr" v="145561" />
	</node>
	<node id="-430540" lat="58.9239638867" lon="9.59351944445">
		<tag k="fixme" v="consider seamark:type=rock or natural=shoal" />
		<tag k="name" v="Mileskjær" />
		<tag k="place" v="islet" />
		<tag k="ssr:stedsnr" v="145503" />
	</node>
	<node id="-430537" lat="58.9290749988" lon="9.54181111945">
		<tag k="name" v="Bikjeholmen" />
		<tag k="place" v="islet" />
		<tag k="ssr:stedsnr" v="267994" />
	</node>
	<node id="-432072" lat="59.0518138903" lon="9.64093055342">
		<tag k="name" v="Skjerkebukta" />
		<tag k="natural" v="bay" />
		<tag k="ssr:stedsnr" v="645721" />
	</node>
	<node id="-430534" lat="59.0127333315" lon="9.75085833804">
		<tag k="name" v="Langøyodden" />
		<tag k="natural" v="cape" />
		<tag k="ssr:stedsnr" v="116606" />
	</node>
	<node id="-432066" lat="59.1173861067" lon="9.55843610965">
		<tag k="name" v="Halvsundodden" />
		<tag k="natural" v="cape" />
		<tag k="ssr:stedsnr" v="631217" />
	</node>
	<node id="-432065" lat="58.9164611082" lon="9.56814444691">
		<tag k="name" v="Ytre Vågøybåe" />
		<tag k="place" v="locality" />
		<tag k="seamark:type" v="rock" />
		<tag k="ssr:stedsnr" v="630596" />
	</node>
	<node id="-431037" lat="59.0504194456" lon="9.67856943896">
		<tag k="name" v="Krabberødstranda" />
		<tag k="natural" v="beach" />
		<tag k="place" v="locality" />
		<tag k="ssr:stedsnr" v="730452" />
	</node>
	<node id="-431548" lat="58.9896444451" lon="9.69738611845">
		<tag k="name" v="Evensvika" />
		<tag k="natural" v="bay" />
		<tag k="ssr:stedsnr" v="118376" />
	</node>
	<node id="-431547" lat="58.9920111074" lon="9.67256665873">
		<tag k="name" v="Sauøysund" />
		<tag k="natural" v="strait" />
		<tag k="ssr:stedsnr" v="118375" />
	</node>
	<node id="-430520" lat="58.9386027759" lon="9.6238749968">
		<tag k="name" v="Hafsundtangen" />
		<tag k="natural" v="cape" />
		<tag k="ssr:stedsnr" v="99913" />
	</node>
	<node id="-432055" lat="59.00396389" lon="9.70348889716">
		<tag k="name" v="Varpet" />
		<tag k="natural" v="bay" />
		<tag k="ssr:stedsnr" v="608284" />
	</node>
	<node id="-432054" lat="58.9571250023" lon="9.66560278481">
		<tag k="fixme" v="consider seamark:type=rock or natural=shoal" />
		<tag k="name" v="Stutane" />
		<tag k="place" v="islet" />
		<tag k="ssr:stedsnr" v="607908" />
	</node>
	<node id="-431433" lat="59.0776000025" lon="9.63152778552">
		<tag k="name" v="Feskjæra" />
		<tag k="natural" v="cape" />
		<tag k="ssr:stedsnr" v="58896" />
	</node>
	<node id="-432052" lat="58.9708055571" lon="9.71547221404">
		<tag k="fixme" v="consider seamark:type=rock or natural=shoal" />
		<tag k="name" v="Såsteinbrotta" />
		<tag k="place" v="islet" />
		<tag k="ssr:stedsnr" v="607872" />
	</node>
	<node id="-431539" lat="59.1111666637" lon="9.55561110724">
		<tag k="alt_name" v="Tjerndalbukta" />
		<tag k="name" v="Tjenndalsbukta" />
		<tag k="natural" v="bay" />
		<tag k="ssr:stedsnr" v="109700" />
	</node>
	<node id="-431538" lat="59.1142361077" lon="9.56673333508">
		<tag k="name" v="Fisketangbåen" />
		<tag k="place" v="locality" />
		<tag k="seamark:type" v="rock" />
		<tag k="ssr:stedsnr" v="109691" />
	</node>
	<node id="-431025" lat="58.9333083331" lon="9.62217778162">
		<tag k="name" v="Bukkholmen" />
		<tag k="place" v="islet" />
		<tag k="ssr:stedsnr" v="728925" />
	</node>
	<node id="-431024" lat="59.0652388912" lon="9.63564722602">
		<tag k="fixme" v="consider seamark:type=rock or natural=shoal" />
		<tag k="name" v="Selskjæra" />
		<tag k="place" v="islet" />
		<tag k="ssr:stedsnr" v="632907" />
	</node>
	<node id="-430510" lat="59.048183334" lon="9.66067500209">
		<tag k="name" v="Omborsnes" />
		<tag k="natural" v="cape" />
		<tag k="ssr:stedsnr" v="244526" />
	</node>
	<node id="-430508" lat="59.0993138901" lon="9.61838332623">
		<tag k="alt_name" v="Frierfjorden" />
		<tag k="bay" v="fjord" />
		<tag k="name" v="Frier" />
		<tag k="natural" v="bay" />
		<tag k="ssr:stedsnr" v="244395" />
	</node>
	<node id="-430397" lat="58.9815055549" lon="9.6993388823">
		<tag k="name" v="Stangbukta" />
		<tag k="natural" v="bay" />
		<tag k="ssr:stedsnr" v="221796" />
	</node>
	<node id="-431017" lat="58.9921805567" lon="9.75745832661">
		<tag k="name" v="Langøytangen" />
		<tag k="natural" v="cape" />
		<tag k="ssr:stedsnr" v="723525" />
	</node>
	<node id="-431016" lat="58.987663891" lon="9.70171388381">
		<tag k="fixme" v="consider seamark:type=rock or natural=shoal" />
		<tag k="name" v="Havneskjæra" />
		<tag k="place" v="islet" />
		<tag k="ssr:stedsnr" v="723630" />
	</node>
	<node id="-431015" lat="59.0427805583" lon="9.70980832801">
		<tag k="name" v="Batteriodden" />
		<tag k="natural" v="cape" />
		<tag k="ssr:stedsnr" v="723131" />
	</node>
	<node id="-430502" lat="58.9390388896" lon="9.65506110965">
		<tag k="name" v="Bjørnøybrotta" />
		<tag k="natural" v="shoal" />
		<tag k="place" v="locality" />
		<tag k="ssr:stedsnr" v="243932" />
	</node>
	<node id="-432221" lat="59.0514055589" lon="9.67702222286">
		<tag k="name" v="Steinholmen" />
		<tag k="place" v="islet" />
		<tag k="ssr:stedsnr" v="875893" />
	</node>
	<node id="-431003" lat="59.0091416698" lon="9.75687222184">
		<tag k="name" v="Kuskjæret" />
		<tag k="natural" v="cape" />
		<tag k="ssr:stedsnr" v="601572" />
	</node>
	<node id="-431520" lat="58.9276888883" lon="9.5706444511">
		<tag k="name" v="Svalberg" />
		<tag k="natural" v="cape" />
		<tag k="ssr:stedsnr" v="101967" />
	</node>
	<node id="-432030" lat="59.0208166646" lon="9.73818055683">
		<tag k="name" v="Salenbukta" />
		<tag k="natural" v="bay" />
		<tag k="ssr:stedsnr" v="601325" />
	</node>
	<node id="-431005" lat="59.0739638925" lon="9.62956388348">
		<tag k="name" v="Asdalstranda" />
		<tag k="natural" v="beach" />
		<tag k="place" v="locality" />
		<tag k="ssr:stedsnr" v="607423" />
	</node>
	<node id="-432027" lat="59.0708666624" lon="9.62910556148">
		<tag k="name" v="Kastebukta" />
		<tag k="natural" v="bay" />
		<tag k="ssr:stedsnr" v="595535" />
	</node>
	<node id="-431002" lat="59.0057083314" lon="9.70796388108">
		<tag k="name" v="Skinnvika" />
		<tag k="natural" v="bay" />
		<tag k="ssr:stedsnr" v="601615" />
	</node>
	<node id="-430489" lat="59.0579583332" lon="9.64437777909">
		<tag k="name" v="Likkista" />
		<tag k="place" v="islet" />
		<tag k="ssr:stedsnr" v="240321" />
	</node>
	<node id="-431511" lat="58.9385666704" lon="9.46675277083">
		<tag k="name" v="Fossingbukta" />
		<tag k="natural" v="bay" />
		<tag k="ssr:stedsnr" v="101584" />
	</node>
	<node id="-430482" lat="58.987972219" lon="9.67918611513">
		<tag k="name" v="Marikova" />
		<tag k="natural" v="strait" />
		<tag k="ssr:stedsnr" v="238677" />
	</node>
	<node id="-430479" lat="59.0507583369" lon="9.68427777335">
		<tag k="name" v="Krabberødbåen" />
		<tag k="place" v="locality" />
		<tag k="seamark:type" v="rock" />
		<tag k="ssr:stedsnr" v="238125" />
	</node>
	<node id="-430829" lat="59.0473611149" lon="9.6895444418">
		<tag k="name" v="Møllebukta" />
		<tag k="natural" v="bay" />
		<tag k="ssr:stedsnr" v="662127" />
	</node>
	<node id="-432012" lat="58.9358638918" lon="9.49260277325">
		<tag k="name" v="Seterodden" />
		<tag k="natural" v="cape" />
		<tag k="ssr:stedsnr" v="586701" />
	</node>
	<node id="-432007" lat="58.9291277814" lon="9.52503610734">
		<tag k="name" v="Selskjæra" />
		<tag k="place" v="islet" />
		<tag k="ssr:stedsnr" v="586687" />
	</node>
	<node id="-430515" lat="58.9691111131" lon="9.65304166977">
		<tag k="name" v="Haralds øy" />
		<tag k="place" v="island" />
		<tag k="ssr:stedsnr" v="85424" />
	</node>
	<node id="-430827" lat="59.1091666668" lon="9.55720278118">
		<tag k="name" v="Siljanbukta" />
		<tag k="natural" v="bay" />
		<tag k="ssr:stedsnr" v="450236" />
	</node>
	<node id="-431478" lat="58.9970555539" lon="9.75921944982">
		<tag k="name" v="Gamle Langesund" />
		<tag k="natural" v="strait" />
		<tag k="ssr:stedsnr" v="86399" />
	</node>
	<node id="-430451" lat="58.9657583336" lon="9.70183610289">
		<tag k="name" v="Såsteinbråtta" />
		<tag k="place" v="islet" />
		<tag k="ssr:stedsnr" v="39804" />
	</node>
	<node id="-431474" lat="58.9310777805" lon="9.61462777156">
		<tag k="fixme" v="consider seamark:type=rock or natural=shoal" />
		<tag k="name" v="Mastskjær" />
		<tag k="place" v="islet" />
		<tag k="ssr:stedsnr" v="85484" />
	</node>
	<node id="-431984" lat="58.9852416711" lon="9.67734166117">
		<tag k="name" v="Kvernhalsen" />
		<tag k="natural" v="cape" />
		<tag k="ssr:stedsnr" v="584846" />
	</node>
	<node id="-431983" lat="58.9710805582" lon="9.67070833309">
		<tag k="name" v="Skarsvika" />
		<tag k="natural" v="bay" />
		<tag k="ssr:stedsnr" v="584838" />
	</node>
	<node id="-431981" lat="59.0686555584" lon="9.63320000423">
		<tag k="name" v="Jonsholmane" />
		<tag k="place" v="islet" />
		<tag k="ssr:stedsnr" v="572919" />
	</node>
	<node id="-431980" lat="59.0491499972" lon="9.69294444547">
		<tag k="name" v="Brevikstrømmen" />
		<tag k="natural" v="strait" />
		<tag k="ssr:stedsnr" v="571032" />
	</node>
	<node id="-431979" lat="58.9253250041" lon="9.58046665957">
		<tag k="name" v="Eksetangen" />
		<tag k="natural" v="cape" />
		<tag k="ssr:stedsnr" v="571000" />
	</node>
	<node id="-431978" lat="59.0075055518" lon="9.75096943611">
		<tag k="name" v="Haslebåen" />
		<tag k="place" v="locality" />
		<tag k="seamark:type" v="rock" />
		<tag k="ssr:stedsnr" v="570747" />
	</node>
	<node id="-431976" lat="59.0816194416" lon="9.62691389047">
		<tag k="name" v="Asdaltangen" />
		<tag k="natural" v="cape" />
		<tag k="ssr:stedsnr" v="570216" />
	</node>
	<node id="-431537" lat="59.089791666" lon="9.6211277751">
		<tag k="name" v="Ringsholmane" />
		<tag k="place" v="islet" />
		<tag k="ssr:stedsnr" v="108433" />
	</node>
	<node id="-431973" lat="58.9571888877" lon="9.62589722626">
		<tag k="name" v="Melbystranda" />
		<tag k="natural" v="beach" />
		<tag k="place" v="locality" />
		<tag k="ssr:stedsnr" v="547913" />
	</node>
	<node id="-431972" lat="58.9714805519" lon="9.68197499464">
		<tag k="alt_name" v="Prisgrunn" />
		<tag k="name" v="Prisgrunnbukta" />
		<tag k="natural" v="bay" />
		<tag k="ssr:stedsnr" v="547904" />
	</node>
	<node id="-430651" lat="58.9324750016" lon="9.62532500095">
		<tag k="name" v="Stangholmen" />
		<tag k="place" v="islet" />
		<tag k="ssr:stedsnr" v="243922" />
	</node>
	<node id="-430736" lat="58.9953305537" lon="9.75500277418">
		<tag k="name" v="Hvittingbukta" />
		<tag k="natural" v="bay" />
		<tag k="ssr:stedsnr" v="480633" />
	</node>
	<node id="-431674" lat="58.94528056" lon="9.60620833418">
		<tag k="bay" v="fjord" />
		<tag k="name" v="Trosbyfjorden" />
		<tag k="natural" v="bay" />
		<tag k="ssr:stedsnr" v="183906" />
	</node>
	<node id="-430938" lat="58.9677083343" lon="9.68551666496">
		<tag k="name" v="Iris" />
		<tag k="natural" v="cape" />
		<tag k="ssr:stedsnr" v="706826" />
	</node>
	<node id="-430937" lat="58.9729361104" lon="9.70049166948">
		<tag k="name" v="Halvorsodden" />
		<tag k="natural" v="cape" />
		<tag k="ssr:stedsnr" v="706821" />
	</node>
	<node id="-431446" lat="58.9735166636" lon="9.69602778024">
		<tag k="name" v="Lønnungen" />
		<tag k="natural" v="bay" />
		<tag k="ssr:stedsnr" v="61877" />
	</node>
	<node id="-431673" lat="58.9679694437" lon="9.70637500365">
		<tag k="alt_name" v="Såstein" />
		<tag k="name" v="Store Såstein" />
		<tag k="place" v="island" />
		<tag k="ssr:stedsnr" v="183900" />
	</node>
	<node id="-431444" lat="58.9776527778" lon="9.70225555811">
		<tag k="alt_name" v="Hvalbak" />
		<tag k="name" v="Hvalsbakk" />
		<tag k="natural" v="cape" />
		<tag k="ssr:stedsnr" v="61591" />
	</node>
	<node id="-430931" lat="58.9603583364" lon="9.64608055953">
		<tag k="name" v="Smørviktangen" />
		<tag k="natural" v="cape" />
		<tag k="ssr:stedsnr" v="706394" />
	</node>
	<node id="-431954" lat="59.0752722185" lon="9.62980556101">
		<tag k="name" v="Stotjenna" />
		<tag k="natural" v="bay" />
		<tag k="ssr:stedsnr" v="543872" />
	</node>
	<node id="-431441" lat="58.9932194426" lon="9.74564722315">
		<tag k="name" v="Steinvika" />
		<tag k="natural" v="bay" />
		<tag k="ssr:stedsnr" v="61542" />
	</node>
	<node id="-431440" lat="58.9886611136" lon="9.74993055514">
		<tag k="name" v="Langesundstangen" />
		<tag k="natural" v="cape" />
		<tag k="ssr:stedsnr" v="61541" />
	</node>
	<node id="-430927" lat="58.9290777787" lon="9.54988610715">
		<tag k="name" v="Isnestangen" />
		<tag k="natural" v="cape" />
		<tag k="ssr:stedsnr" v="692999" />
	</node>
	<node id="-430926" lat="58.9294416672" lon="9.53401665957">
		<tag k="name" v="Flatholmen" />
		<tag k="place" v="islet" />
		<tag k="ssr:stedsnr" v="692993" />
	</node>
	<node id="-430925" lat="58.9437444447" lon="9.68354722761">
		<tag k="name" v="Rødskjærbåen" />
		<tag k="place" v="locality" />
		<tag k="seamark:type" v="rock" />
		<tag k="ssr:stedsnr" v="692932" />
	</node>
	<node id="-431948" lat="58.9908388883" lon="9.65724445102">
		<tag k="name" v="Bellevy" />
		<tag k="natural" v="beach" />
		<tag k="place" v="locality" />
		<tag k="ssr:stedsnr" v="543228" />
	</node>
	<node id="-431435" lat="58.92591111" lon="9.54634999811">
		<tag k="alt_name" v="Furuholmane, l;Furuholmen" />
		<tag k="name" v="Lille Furuholmen" />
		<tag k="place" v="island" />
		<tag k="ssr:stedsnr" v="61265" />
	</node>
	<node id="-431945" lat="58.9892277769" lon="9.70659999147">
		<tag k="name" v="Merraholet" />
		<tag k="natural" v="bay" />
		<tag k="ssr:stedsnr" v="541659" />
	</node>
	<node id="-430817" lat="58.99436667" lon="9.67722499185">
		<tag k="name" v="Vinjekilen" />
		<tag k="natural" v="bay" />
		<tag k="ssr:stedsnr" v="509478" />
	</node>
	<node id="-431428" lat="59.0050527808" lon="9.71353055399">
		<tag k="name" v="Skinvika" />
		<tag k="natural" v="bay" />
		<tag k="ssr:stedsnr" v="58431" />
	</node>
	<node id="-431246" lat="58.9446388925" lon="9.6253388852">
		<tag k="name" v="Kjønnøya" />
		<tag k="old_name" v="Tjørnøya" />
		<tag k="place" v="island" />
		<tag k="ssr:stedsnr" v="851911" />
	</node>
	<node id="-431423" lat="58.9997416631" lon="9.7071111121">
		<tag k="name" v="Ormevika, yt" />
		<tag k="natural" v="bay" />
		<tag k="ssr:stedsnr" v="56640" />
	</node>
	<node id="-431422" lat="59.0480944408" lon="9.6934444417">
		<tag k="name" v="Mølletangen" />
		<tag k="natural" v="cape" />
		<tag k="ssr:stedsnr" v="56120" />
	</node>
	<node id="-431933" lat="58.9302444401" lon="9.52882499131">
		<tag k="name" v="Springereide" />
		<tag k="natural" v="cape" />
		<tag k="ssr:stedsnr" v="526695" />
	</node>
	<node id="-431419" lat="59.0337555577" lon="9.71936110933">
		<tag k="name" v="Eikstrand" />
		<tag k="natural" v="beach" />
		<tag k="place" v="locality" />
		<tag k="ssr:stedsnr" v="51298" />
	</node>
	<node id="-430905" lat="58.9567805591" lon="9.63441111319">
		<tag k="fixme" v="consider seamark:type=rock or natural=shoal" />
		<tag k="name" v="Emanuelskjær" />
		<tag k="place" v="islet" />
		<tag k="ssr:stedsnr" v="524381" />
	</node>
	<node id="-430644" lat="58.972063888" lon="9.65090554915">
		<tag k="name" v="Veitholmen" />
		<tag k="place" v="islet" />
		<tag k="ssr:stedsnr" v="221156" />
	</node>
	<node id="-430902" lat="58.9217749963" lon="9.57931110881">
		<tag k="fixme" v="consider seamark:type=rock or natural=shoal" />
		<tag k="name" v="Kuskjær" />
		<tag k="place" v="islet" />
		<tag k="ssr:stedsnr" v="692475" />
	</node>
	<node id="-430901" lat="58.9312222257" lon="9.5608833376">
		<tag k="name" v="Ekvik" />
		<tag k="natural" v="bay" />
		<tag k="ssr:stedsnr" v="510519" />
	</node>
	<node id="-430900" lat="58.9879166642" lon="9.67234722538">
		<tag k="name" v="Ankerholmane" />
		<tag k="place" v="islet" />
		<tag k="ssr:stedsnr" v="509475" />
	</node>
	<node id="-431411" lat="58.9228250013" lon="9.5634277856">
		<tag k="name" v="Vågøysundet" />
		<tag k="natural" v="strait" />
		<tag k="ssr:stedsnr" v="41976" />
	</node>
	<node id="-431410" lat="58.9299111077" lon="9.55911944788">
		<tag k="name" v="Halvdagsholmen" />
		<tag k="place" v="islet" />
		<tag k="ssr:stedsnr" v="41950" />
	</node>
	<node id="-430385" lat="58.9824611092" lon="9.74925833961">
		<tag k="fixme" v="consider seamark:type=rock or natural=shoal" />
		<tag k="name" v="Skjeregg" />
>>>>>>> e1d4bc35ff8a6074a6f2e91616a996b547c36f15
		<tag k="place" v="islet" />
		<tag k="ssr:stedsnr" v="1494" />
	</node>
<<<<<<< HEAD
	<node lat="59.00211666635565" lon="9.755377785401361" id="-19923">
=======
	<node id="-430384" lat="59.0021166664" lon="9.7553777854">
>>>>>>> e1d4bc35ff8a6074a6f2e91616a996b547c36f15
		<tag k="name" v="Langøya" />
		<tag k="place" v="island" />
		<tag k="ssr:stedsnr" v="1601" />
	</node>
<<<<<<< HEAD
	<node lat="58.98246110922873" lon="9.749258339611506" id="-19924">
		<tag k="fixme" v="consider seamark:type=rock or natural=shoal" />
		<tag k="name" v="Skjeregg" />
		<tag k="place" v="islet" />
		<tag k="ssr:stedsnr" v="1612" />
	</node>
	<node lat="58.94658611311528" lon="9.607324999850052" id="-19933">
=======
	<node id="-431901" lat="59.0466666649" lon="9.71494166715">
		<tag k="bay" v="fjord" />
		<tag k="name" v="Brevikfjorden" />
		<tag k="natural" v="bay" />
		<tag k="ssr:stedsnr" v="524173" />
	</node>
	<node id="-430491" lat="58.9877083325" lon="9.67431666804">
		<tag k="name" v="Kattholmen" />
		<tag k="place" v="islet" />
		<tag k="ssr:stedsnr" v="240443" />
	</node>
	<node id="-430868" lat="58.9501388867" lon="9.59801944393">
		<tag k="name" v="Sandvika" />
		<tag k="natural" v="bay" />
		<tag k="ssr:stedsnr" v="668902" />
	</node>
	<node id="-430867" lat="58.9623388863" lon="9.6914083403">
		<tag k="name" v="Medulen" />
		<tag k="old_name" v="Mejulen" />
		<tag k="place" v="islet" />
		<tag k="ssr:stedsnr" v="668897" />
	</node>
	<node id="-430866" lat="58.9532833319" lon="9.6254972292">
		<tag k="name" v="Kjøykroken" />
		<tag k="natural" v="cape" />
		<tag k="ssr:stedsnr" v="668892" />
	</node>
	<node id="-431377" lat="58.984041666" lon="9.68731111612">
		<tag k="name" v="Elvikodden" />
		<tag k="natural" v="cape" />
		<tag k="ssr:stedsnr" v="39799" />
	</node>
	<node id="-432400" lat="58.8808669241" lon="9.40503401313">
		<tag k="name" v="Kalstadkilen" />
		<tag k="natural" v="bay" />
		<tag k="ssr:stedsnr" v="1074475" />
	</node>
	<node id="-431887" lat="58.9976666673" lon="9.73479167454">
		<tag k="name" v="Kjerrvikodden" />
		<tag k="natural" v="cape" />
		<tag k="ssr:stedsnr" v="426569" />
	</node>
	<node id="-432397" lat="58.9702291915" lon="9.70935312043">
		<tag k="name" v="Såstein" />
		<tag k="place" v="island" />
		<tag k="ssr:stedsnr" v="989186" />
	</node>
	<node id="-432396" lat="58.9460102065" lon="9.63203861874">
		<tag k="fixme" v="consider seamark:type=rock or natural=shoal" />
		<tag k="name" v="Kjønnøyskjæret" />
		<tag k="place" v="islet" />
		<tag k="ssr:stedsnr" v="985849" />
	</node>
	<node id="-431875" lat="58.9832083317" lon="9.69109443791">
		<tag k="name" v="Ringholmen" />
		<tag k="place" v="islet" />
		<tag k="ssr:stedsnr" v="425578" />
	</node>
	<node id="-431362" lat="59.0377583363" lon="9.71355554854">
		<tag k="name" v="Kuskjær" />
		<tag k="natural" v="cape" />
		<tag k="ssr:stedsnr" v="26893" />
	</node>
	<node id="-431361" lat="58.9301861072" lon="9.51886388606">
		<tag k="alt_name" v="Hovbukta" />
		<tag k="name" v="Hovbukta" />
		<tag k="natural" v="bay" />
		<tag k="ssr:stedsnr" v="25686" />
	</node>
	<node id="-431358" lat="58.9465861131" lon="9.60732499985">
>>>>>>> e1d4bc35ff8a6074a6f2e91616a996b547c36f15
		<tag k="name" v="Byttingholmen" />
		<tag k="place" v="islet" />
		<tag k="ssr:stedsnr" v="24483" />
	</node>
<<<<<<< HEAD
	<node lat="58.93018610718325" lon="9.51886388605876" id="-19936">
		<tag k="alt_name" v="Hovbukta" />
		<tag k="name" v="Hovbukta" />
		<tag k="natural" v="bay" />
		<tag k="ssr:stedsnr" v="25686" />
	</node>
	<node lat="58.962977773402464" lon="9.682975002434356" id="-19951">
		<tag k="name" v="Presteskjæra" />
		<tag k="place" v="islet" />
		<tag k="ssr:stedsnr" v="39803" />
	</node>
	<node lat="58.96575833356305" lon="9.70183610289277" id="-19952">
		<tag k="name" v="Såsteinbråtta" />
		<tag k="place" v="islet" />
		<tag k="ssr:stedsnr" v="39804" />
	</node>
	<node lat="58.922825001268556" lon="9.563427785599757" id="-19972">
		<tag k="name" v="Vågøysundet" />
=======
	<node id="-432376" lat="58.9504181157" lon="9.60715264418">
		<tag k="name" v="Stranda" />
		<tag k="natural" v="beach" />
		<tag k="place" v="locality" />
		<tag k="ssr:stedsnr" v="982084" />
	</node>
	<node id="-430839" lat="58.930097223" lon="9.56641944923">
		<tag k="name" v="Langestrand" />
		<tag k="natural" v="beach" />
		<tag k="place" v="locality" />
		<tag k="ssr:stedsnr" v="464465" />
	</node>
	<node id="-430443" lat="58.9548833352" lon="9.62551388922">
		<tag k="name" v="Kjøykrokbukta" />
		<tag k="natural" v="bay" />
		<tag k="ssr:stedsnr" v="39371" />
	</node>
	<node id="-430835" lat="58.9307749963" lon="9.55708054776">
		<tag k="name" v="Tangen" />
		<tag k="natural" v="cape" />
		<tag k="ssr:stedsnr" v="464012" />
	</node>
	<node id="-430830" lat="59.0491499971" lon="9.65468333866">
		<tag k="name" v="Havråkerholmen" />
		<tag k="place" v="islet" />
		<tag k="ssr:stedsnr" v="662137" />
	</node>
	<node id="-431853" lat="59.1054277761" lon="9.57851389543">
		<tag k="name" v="Måkeskjærbåen" />
		<tag k="place" v="locality" />
		<tag k="seamark:type" v="rock" />
		<tag k="ssr:stedsnr" v="412639" />
	</node>
	<node id="-431340" lat="58.9224249979" lon="9.57050555001">
		<tag k="alt_name" v="Vågøya" />
		<tag k="name" v="Vågøy" />
		<tag k="place" v="island" />
		<tag k="ssr:stedsnr" v="1660" />
	</node>
	<node id="-431339" lat="59.0440205857" lon="9.7062120889">
		<tag k="name" v="Gjermundsholmen" />
		<tag k="old_name" v="Croftsholmen" />
		<tag k="place" v="islet" />
		<tag k="ssr:stedsnr" v="1494" />
	</node>
	<node id="-430826" lat="58.9569555532" lon="9.7838388848">
		<tag k="bay" v="fjord" />
		<tag k="name" v="Langesundsbukta" />
		<tag k="natural" v="bay" />
		<tag k="ssr:stedsnr" v="426918" />
	</node>
	<node id="-430821" lat="58.9691527759" lon="9.65212222794">
		<tag k="name" v="Haraldøya" />
		<tag k="place" v="island" />
		<tag k="ssr:stedsnr" v="420710" />
	</node>
	<node id="-430820" lat="59.0852333311" lon="9.61490556008">
		<tag k="name" v="Tveitanstranda" />
		<tag k="natural" v="beach" />
		<tag k="place" v="locality" />
		<tag k="ssr:stedsnr" v="511905" />
	</node>
	<node id="-431331" lat="58.933511111" lon="9.61736944308">
		<tag k="alt_name" v="Snekkstein, østre;Snikstein, østre" />
		<tag k="name" v="Østre Snekkstein" />
		<tag k="place" v="islet" />
		<tag k="ssr:stedsnr" v="934" />
	</node>
	<node id="-430818" lat="58.9339916658" lon="9.6246166661">
		<tag k="name" v="Bukkholmen" />
		<tag k="place" v="islet" />
		<tag k="ssr:stedsnr" v="509437" />
	</node>
	<node id="-431329" lat="58.9898249987" lon="9.68823055759">
		<tag k="name" v="Svana" />
		<tag k="natural" v="strait" />
		<tag k="ssr:stedsnr" v="567" />
	</node>
	<node id="-430544" lat="59.0754861141" lon="9.63226111982">
		<tag k="name" v="Bukkholmen" />
		<tag k="place" v="islet" />
		<tag k="ssr:stedsnr" v="147902" />
	</node>
	<node id="-432350" lat="59.0575027776" lon="9.63571666827">
		<tag k="name" v="Tjuvhullet" />
		<tag k="natural" v="bay" />
		<tag k="ssr:stedsnr" v="968280" />
	</node>
	<node id="-432345" lat="59.0886694485" lon="9.61152777847">
		<tag k="name" v="Kolaberget" />
		<tag k="natural" v="cape" />
		<tag k="ssr:stedsnr" v="959528" />
	</node>
	<node id="-432343" lat="59.123852781" lon="9.52418054783">
		<tag k="alt_name" v="Teintangen" />
		<tag k="name" v="Teinetangen" />
		<tag k="natural" v="cape" />
		<tag k="ssr:stedsnr" v="958717" />
	</node>
	<node id="-432342" lat="59.1228138889" lon="9.53036667286">
		<tag k="name" v="Gårdembukta" />
		<tag k="natural" v="bay" />
		<tag k="ssr:stedsnr" v="958716" />
	</node>
	<node id="-431316" lat="59.0051277807" lon="9.75835278575">
		<tag k="name" v="Lilleøya" />
		<tag k="place" v="islet" />
		<tag k="ssr:stedsnr" v="965614" />
	</node>
	<node id="-430542" lat="59.1219861082" lon="9.55204999632">
		<tag k="name" v="Skotland" />
		<tag k="place" v="islet" />
		<tag k="ssr:stedsnr" v="146224" />
	</node>
	<node id="-431157" lat="59.0088000041" lon="9.75994721589">
		<tag k="name" v="Kjælebåane" />
		<tag k="place" v="locality" />
		<tag k="seamark:type" v="rock" />
		<tag k="ssr:stedsnr" v="905592" />
	</node>
	<node id="-431822" lat="58.9393222219" lon="9.61043611545">
		<tag k="name" v="Tubukta" />
		<tag k="natural" v="bay" />
		<tag k="ssr:stedsnr" v="403335" />
	</node>
	<node id="-431818" lat="58.9487000011" lon="9.71573055781">
		<tag k="name" v="Såsteinflakket" />
		<tag k="natural" v="shoal" />
		<tag k="place" v="locality" />
		<tag k="ssr:stedsnr" v="388448" />
	</node>
	<node id="-431816" lat="58.9996361084" lon="9.70991111674">
		<tag k="alt_name" v="Selskjæra" />
		<tag k="fixme" v="consider seamark:type=rock or natural=shoal" />
		<tag k="name" v="Selskjæra" />
		<tag k="place" v="islet" />
		<tag k="ssr:stedsnr" v="388477" />
	</node>
	<node id="-431815" lat="58.9357027806" lon="9.62040832613">
		<tag k="name" v="Kjeiholmen" />
		<tag k="place" v="islet" />
		<tag k="ssr:stedsnr" v="388432" />
	</node>
	<node id="-430828" lat="59.0861472267" lon="9.62277222129">
		<tag k="name" v="Nedre Ringsholmen" />
		<tag k="place" v="islet" />
		<tag k="ssr:stedsnr" v="451916" />
	</node>
	<node id="-431813" lat="58.9548999956" lon="9.69719999773">
		<tag k="name" v="Ivarhausane" />
		<tag k="natural" v="shoal" />
		<tag k="place" v="locality" />
		<tag k="ssr:stedsnr" v="365923" />
	</node>
	<node id="-430786" lat="58.9385500005" lon="9.59616666642">
		<tag k="name" v="Sekkekilen" />
		<tag k="natural" v="bay" />
		<tag k="ssr:stedsnr" v="403028" />
	</node>
	<node id="-432320" lat="58.9244305557" lon="9.56782500075">
		<tag k="name" v="Vågøybåen" />
		<tag k="place" v="locality" />
		<tag k="seamark:type" v="rock" />
		<tag k="ssr:stedsnr" v="874990" />
	</node>
	<node id="-430783" lat="59.1145388934" lon="9.56059166018">
		<tag k="name" v="Flesketangen" />
		<tag k="natural" v="cape" />
		<tag k="ssr:stedsnr" v="388202" />
	</node>
	<node id="-432318" lat="58.9632027756" lon="9.6577944435">
		<tag k="alt_name" v="Alskjer;Askjær" />
		<tag k="fixme" v="consider seamark:type=rock or natural=shoal" />
		<tag k="name" v="Alskjær" />
		<tag k="place" v="islet" />
		<tag k="ssr:stedsnr" v="851894" />
	</node>
	<node id="-430781" lat="58.9819916695" lon="9.68735000305">
		<tag k="name" v="Elvikbukta" />
		<tag k="natural" v="bay" />
		<tag k="ssr:stedsnr" v="359669" />
	</node>
	<node id="-430779" lat="59.0293222208" lon="9.72681110452">
		<tag k="alt_name" v="Asvaldbukta" />
		<tag k="name" v="Asvallbukta" />
		<tag k="natural" v="bay" />
		<tag k="ssr:stedsnr" v="359159" />
	</node>
	<node id="-431289" lat="58.9426249984" lon="9.63324166652">
		<tag k="name" v="Lindholmane" />
		<tag k="place" v="islet" />
		<tag k="ssr:stedsnr" v="949309" />
	</node>
	<node id="-431286" lat="58.9288805551" lon="9.57496665997">
		<tag k="alt_name" v="Kullvikbukta" />
		<tag k="name" v="Kuvikbukta" />
		<tag k="natural" v="bay" />
		<tag k="ssr:stedsnr" v="935520" />
	</node>
	<node id="-430654" lat="59.0555499979" lon="9.64088889131">
		<tag k="name" v="Skjerkøya" />
		<tag k="natural" v="cape" />
		<tag k="ssr:stedsnr" v="244455" />
	</node>
	<node id="-430622" lat="58.9322277787" lon="9.50716389097">
		<tag k="name" v="Presteskottbukta" />
		<tag k="natural" v="bay" />
		<tag k="ssr:stedsnr" v="284730" />
	</node>
	<node id="-432305" lat="58.9357083367" lon="9.6904166634">
		<tag k="bay" v="fjord" />
		<tag k="name" v="Steinrenna" />
		<tag k="natural" v="bay" />
		<tag k="ssr:stedsnr" v="850917" />
	</node>
	<node id="-432304" lat="58.9761111123" lon="9.67661944312">
		<tag k="name" v="Ivarsand" />
		<tag k="natural" v="beach" />
		<tag k="place" v="locality" />
		<tag k="ssr:stedsnr" v="850885" />
	</node>
	<node id="-430450" lat="58.9629777734" lon="9.68297500243">
		<tag k="name" v="Presteskjæra" />
		<tag k="place" v="islet" />
		<tag k="ssr:stedsnr" v="39803" />
	</node>
	<node id="-431786" lat="58.9301249968" lon="9.61333333791">
		<tag k="alt_name" v="Snekkstein, vestre;Snikstein, vestre" />
		<tag k="name" v="Vestre Snekkstein" />
		<tag k="place" v="islet" />
		<tag k="ssr:stedsnr" v="364941" />
	</node>
	<node id="-431784" lat="58.9895500008" lon="9.68017221388">
		<tag k="name" v="Skokleøya" />
		<tag k="place" v="island" />
		<tag k="ssr:stedsnr" v="364591" />
	</node>
	<node id="-431269" lat="58.9272249971" lon="9.61289444764">
		<tag k="name" v="Hvittingskjul" />
		<tag k="place" v="islet" />
		<tag k="ssr:stedsnr" v="888906" />
	</node>
	<node id="-430661" lat="58.9644472216" lon="9.65020556152">
		<tag k="name" v="Smørvika" />
		<tag k="natural" v="bay" />
		<tag k="ssr:stedsnr" v="449461" />
	</node>
	<node id="-431778" lat="59.0793972229" lon="9.62861111653">
		<tag k="name" v="Midtstrandskjæra" />
		<tag k="place" v="islet" />
		<tag k="ssr:stedsnr" v="361897" />
	</node>
	<node id="-431265" lat="58.9516638918" lon="9.68544166847">
		<tag k="name" v="Norsholmbåen" />
		<tag k="place" v="locality" />
		<tag k="seamark:type" v="rock" />
		<tag k="ssr:stedsnr" v="874514" />
	</node>
	<node id="-431472" lat="58.9356416672" lon="9.65803889039">
		<tag k="name" v="Bjørnøybåen" />
		<tag k="place" v="locality" />
		<tag k="seamark:type" v="rock" />
		<tag k="ssr:stedsnr" v="85378" />
	</node>
	<node id="-430477" lat="58.9877361092" lon="9.70500278376">
		<tag k="name" v="Havneskjærodden" />
		<tag k="natural" v="cape" />
		<tag k="ssr:stedsnr" v="237646" />
	</node>
	<node id="-430746" lat="58.9384749956" lon="9.67544444286">
		<tag k="alt_name" v="Rødskjer" />
		<tag k="fixme" v="consider seamark:type=rock or natural=shoal" />
		<tag k="name" v="Rødskjær" />
		<tag k="place" v="islet" />
		<tag k="ssr:stedsnr" v="485943" />
	</node>
	<node id="-430745" lat="58.9932166667" lon="9.67449722329">
		<tag k="name" v="Sauøya" />
		<tag k="natural" v="cape" />
		<tag k="ssr:stedsnr" v="485533" />
	</node>
	<node id="-431766" lat="58.9879416623" lon="9.66787500457">
		<tag k="name" v="Fillebåen" />
		<tag k="place" v="locality" />
		<tag k="seamark:type" v="rock" />
		<tag k="ssr:stedsnr" v="359681" />
	</node>
	<node id="-431765" lat="59.0023749985" lon="9.71961110672">
		<tag k="alt_name" v="Jyplevik" />
		<tag k="name" v="Jyplevikodden" />
		<tag k="natural" v="cape" />
		<tag k="ssr:stedsnr" v="359650" />
	</node>
	<node id="-431726" lat="58.9744000041" lon="9.65817222483">
		<tag k="name" v="Kilen" />
		<tag k="natural" v="bay" />
		<tag k="ssr:stedsnr" v="342152" />
	</node>
	<node id="-430738" lat="59.0008305571" lon="9.70462778565">
		<tag k="name" v="Ormevika, in" />
		<tag k="natural" v="bay" />
		<tag k="ssr:stedsnr" v="480640" />
	</node>
	<node id="-430737" lat="59.001855552" lon="9.70605833773">
		<tag k="name" v="Ormevikbåen" />
		<tag k="place" v="locality" />
		<tag k="seamark:type" v="rock" />
		<tag k="ssr:stedsnr" v="480638" />
	</node>
	<node id="-431248" lat="58.9573333339" lon="9.67997222382">
		<tag k="alt_name" v="Nåsholmen" />
		<tag k="name" v="Norsholmen" />
		<tag k="place" v="islet" />
		<tag k="ssr:stedsnr" v="851915" />
	</node>
	<node id="-431247" lat="58.9418249979" lon="9.63727778364">
		<tag k="name" v="Danholmen" />
		<tag k="place" v="islet" />
		<tag k="ssr:stedsnr" v="851912" />
	</node>
	<node id="-432270" lat="58.9378916638" lon="9.46919999324">
		<tag k="name" v="Lintangen" />
		<tag k="natural" v="cape" />
		<tag k="ssr:stedsnr" v="830637" />
	</node>
	<node id="-431245" lat="58.9470305542" lon="9.64769999817">
		<tag k="name" v="Skarveset" />
		<tag k="place" v="islet" />
		<tag k="ssr:stedsnr" v="851909" />
	</node>
	<node id="-430732" lat="58.9446833373" lon="9.71260554742">
		<tag k="name" v="Geiteryggen" />
		<tag k="place" v="locality" />
		<tag k="ssr:stedsnr" v="327917" />
	</node>
	<node id="-430729" lat="58.9883194409" lon="9.76074999866">
		<tag k="name" v="Langøyskaten" />
		<tag k="place" v="locality" />
		<tag k="seamark:type" v="rock" />
		<tag k="ssr:stedsnr" v="327503" />
	</node>
	<node id="-431240" lat="59.0292833362" lon="9.73513611977">
		<tag k="bay" v="fjord" />
		<tag k="name" v="Langesundsfjorden" />
		<tag k="natural" v="bay" />
		<tag k="ssr:stedsnr" v="851459" />
	</node>
	<node id="-431468" lat="58.9708333372" lon="9.65605834098">
		<tag k="bay" v="fjord" />
		<tag k="name" v="Brevikstrandfjorden" />
		<tag k="natural" v="bay" />
		<tag k="ssr:stedsnr" v="62899" />
	</node>
	<node id="-430726" lat="59.1191999989" lon="9.55472778151">
		<tag k="alt_name" v="Persbukt" />
		<tag k="name" v="Persbukta" />
		<tag k="natural" v="bay" />
		<tag k="ssr:stedsnr" v="473727" />
	</node>
	<node id="-430725" lat="59.120549996" lon="9.55188611178">
		<tag k="name" v="Sibjørn" />
		<tag k="natural" v="cape" />
		<tag k="ssr:stedsnr" v="473720" />
	</node>
	<node id="-431236" lat="58.9377027818" lon="9.49145277866">
		<tag k="name" v="Trossvik" />
		<tag k="natural" v="bay" />
		<tag k="ssr:stedsnr" v="935693" />
	</node>
	<node id="-430723" lat="59.1045861112" lon="9.58146667117">
		<tag k="name" v="Lundsodden" />
		<tag k="natural" v="cape" />
		<tag k="ssr:stedsnr" v="472663" />
	</node>
	<node id="-431234" lat="58.9710284076" lon="9.71085707509">
		<tag k="name" v="Lille Såstein" />
		<tag k="place" v="island" />
		<tag k="ssr:stedsnr" v="934462" />
	</node>
	<node id="-431467" lat="58.9594583301" lon="9.63904722609">
		<tag k="name" v="Rakkestadstranda" />
		<tag k="natural" v="beach" />
		<tag k="place" v="locality" />
		<tag k="ssr:stedsnr" v="62897" />
	</node>
	<node id="-431229" lat="58.9806805563" lon="9.6997388835">
		<tag k="name" v="Stangodden" />
		<tag k="natural" v="cape" />
		<tag k="ssr:stedsnr" v="789590" />
	</node>
	<node id="-430442" lat="58.9319555532" lon="9.55835277239">
		<tag k="name" v="Rønningstrand" />
		<tag k="natural" v="beach" />
		<tag k="place" v="locality" />
		<tag k="ssr:stedsnr" v="39420" />
	</node>
	<node id="-430404" lat="59.1049361075" lon="9.5791083263">
		<tag k="name" v="Måkeskjær" />
		<tag k="natural" v="cape" />
		<tag k="ssr:stedsnr" v="221964" />
	</node>
	<node id="-431188" lat="58.9395999958" lon="9.61297778054">
		<tag k="name" v="Rødlandet" />
		<tag k="natural" v="cape" />
		<tag k="ssr:stedsnr" v="911927" />
	</node>
	<node id="-431732" lat="58.9502666658" lon="9.62456666342">
		<tag k="name" v="Strømsundet" />
>>>>>>> e1d4bc35ff8a6074a6f2e91616a996b547c36f15
		<tag k="natural" v="strait" />
		<tag k="ssr:stedsnr" v="41976" />
	</node>
<<<<<<< HEAD
	<node lat="58.987736109174115" lon="9.705002783755608" id="-19974">
		<tag k="name" v="Havneskjærodden" />
		<tag k="natural" v="cape" />
		<tag k="ssr:stedsnr" v="237646" />
	</node>
	<node lat="59.050758336853654" lon="9.684277773346745" id="-19975">
		<tag k="name" v="Krabberødbåen" />
		<tag k="place" v="locality" />
		<tag k="seamark:type" v="rock" />
		<tag k="ssr:stedsnr" v="238125" />
	</node>
	<node lat="58.98797221900227" lon="9.67918611513085" id="-19979">
		<tag k="name" v="Marikova" />
		<tag k="natural" v="strait" />
		<tag k="ssr:stedsnr" v="238677" />
	</node>
	<node lat="59.04809444083303" lon="9.693444441703743" id="-19983">
		<tag k="name" v="Mølletangen" />
=======
	<node id="-432243" lat="59.1048888931" lon="9.58018888874">
		<tag k="name" v="Havbukta" />
		<tag k="natural" v="bay" />
		<tag k="ssr:stedsnr" v="828979" />
	</node>
	<node id="-430706" lat="59.0497805568" lon="9.66453889024">
		<tag k="name" v="Omborsnesholmane" />
		<tag k="place" v="islet" />
		<tag k="ssr:stedsnr" v="299126" />
	</node>
	<node id="-431727" lat="58.9721027742" lon="9.65469999142">
		<tag k="name" v="Bjønnbukta" />
		<tag k="natural" v="bay" />
		<tag k="ssr:stedsnr" v="342173" />
	</node>
	<node id="-432238" lat="58.9329916654" lon="9.61150000152">
		<tag k="name" v="Skautangen" />
>>>>>>> e1d4bc35ff8a6074a6f2e91616a996b547c36f15
		<tag k="natural" v="cape" />
		<tag k="ssr:stedsnr" v="56120" />
	</node>
<<<<<<< HEAD
	<node lat="59.07760000254821" lon="9.631527785522627" id="-19990">
		<tag k="name" v="Feskjæra" />
		<tag k="natural" v="cape" />
		<tag k="ssr:stedsnr" v="58896" />
	</node>
	<node lat="58.987708332526005" lon="9.674316668041168" id="-19991">
		<tag k="name" v="Kattholmen" />
=======
	<node id="-431036" lat="58.9482111109" lon="9.60625000775">
		<tag k="name" v="Grosholmen" />
		<tag k="place" v="islet" />
		<tag k="ssr:stedsnr" v="729901" />
	</node>
	<node id="-431471" lat="58.9962305556" lon="9.71513333841">
		<tag k="name" v="Rognsbåen" />
		<tag k="place" v="locality" />
		<tag k="seamark:type" v="rock" />
		<tag k="ssr:stedsnr" v="85426" />
	</node>
	<node id="-431717" lat="58.93440556" lon="9.6414250058">
		<tag k="fixme" v="consider seamark:type=rock or natural=shoal" />
		<tag k="name" v="Anonskjær" />
>>>>>>> e1d4bc35ff8a6074a6f2e91616a996b547c36f15
		<tag k="place" v="islet" />
		<tag k="ssr:stedsnr" v="240443" />
	</node>
<<<<<<< HEAD
	<node lat="58.932475001633115" lon="9.625325000947798" id="-20011">
		<tag k="name" v="Stangholmen" />
		<tag k="place" v="islet" />
		<tag k="ssr:stedsnr" v="243922" />
	</node>
	<node lat="59.05554999793825" lon="9.640888891309128" id="-20014">
		<tag k="name" v="Skjerkøya" />
=======
	<node id="-431716" lat="58.9325999966" lon="9.54978611461">
		<tag k="alt_name" v="Prestvika" />
		<tag k="name" v="Prestvika" />
		<tag k="natural" v="bay" />
		<tag k="ssr:stedsnr" v="328486" />
	</node>
	<node id="-431715" lat="58.9661722189" lon="9.65370000693">
		<tag k="name" v="Braknestangen" />
>>>>>>> e1d4bc35ff8a6074a6f2e91616a996b547c36f15
		<tag k="natural" v="cape" />
		<tag k="ssr:stedsnr" v="244455" />
	</node>
<<<<<<< HEAD
	<node lat="58.96911111309107" lon="9.65304166976592" id="-20020">
		<tag k="name" v="Haralds øy" />
		<tag k="place" v="island" />
		<tag k="ssr:stedsnr" v="85424" />
	</node>
	<node lat="58.99623055562831" lon="9.71513333841222" id="-20021">
		<tag k="name" v="Rognsbåen" />
		<tag k="place" v="locality" />
		<tag k="seamark:type" v="rock" />
		<tag k="ssr:stedsnr" v="85426" />
	</node>
	<node lat="58.93107778050864" lon="9.614627771564352" id="-20022">
		<tag k="fixme" v="consider seamark:type=rock or natural=shoal" />
		<tag k="name" v="Mastskjær" />
=======
	<node id="-432225" lat="58.9402388865" lon="9.62836111828">
		<tag k="name" v="Jul" />
>>>>>>> e1d4bc35ff8a6074a6f2e91616a996b547c36f15
		<tag k="place" v="islet" />
		<tag k="ssr:stedsnr" v="85484" />
	</node>
<<<<<<< HEAD
	<node lat="58.93564166721392" lon="9.658038890391662" id="-20023">
		<tag k="name" v="Bjørnøybåen" />
		<tag k="place" v="locality" />
		<tag k="seamark:type" v="rock" />
		<tag k="ssr:stedsnr" v="85378" />
	</node>
	<node lat="58.92706944073427" lon="9.561700008422704" id="-20025">
		<tag k="bay" v="fjord" />
		<tag k="name" v="Vågøyfjord" />
		<tag k="natural" v="bay" />
		<tag k="ssr:stedsnr" v="85992" />
	</node>
	<node lat="58.93860277590323" lon="9.623874996801982" id="-20031">
		<tag k="name" v="Hafsundtangen" />
		<tag k="natural" v="cape" />
		<tag k="ssr:stedsnr" v="99913" />
	</node>
	<node lat="58.938566670424464" lon="9.466752770830226" id="-20048">
		<tag k="name" v="Fossingbukta" />
		<tag k="natural" v="bay" />
		<tag k="ssr:stedsnr" v="101584" />
	</node>
	<node lat="58.927688888284415" lon="9.570644451097266" id="-20054">
		<tag k="name" v="Svalberg" />
		<tag k="natural" v="cape" />
		<tag k="ssr:stedsnr" v="101967" />
	</node>
	<node lat="59.012733331490686" lon="9.75085833803816" id="-20065">
		<tag k="name" v="Langøyodden" />
		<tag k="natural" v="cape" />
		<tag k="ssr:stedsnr" v="116606" />
	</node>
	<node lat="58.99201110739833" lon="9.672566658726886" id="-20067">
		<tag k="name" v="Sauøysund" />
		<tag k="natural" v="strait" />
		<tag k="ssr:stedsnr" v="118375" />
	</node>
	<node lat="58.9896444451467" lon="9.69738611844523" id="-20068">
		<tag k="name" v="Evensvika" />
		<tag k="natural" v="bay" />
		<tag k="ssr:stedsnr" v="118376" />
	</node>
	<node lat="58.923963886737916" lon="9.59351944445061" id="-20079">
		<tag k="fixme" v="consider seamark:type=rock or natural=shoal" />
		<tag k="name" v="Mileskjær" />
=======
	<node id="-430685" lat="59.10443333" lon="9.57516389681">
		<tag k="name" v="Rafnesbukta" />
		<tag k="natural" v="bay" />
		<tag k="ssr:stedsnr" v="464973" />
	</node>
	<node id="-430681" lat="58.939538891" lon="9.62078055076">
		<tag k="name" v="Hafsund" />
		<tag k="natural" v="strait" />
		<tag k="ssr:stedsnr" v="464372" />
	</node>
	<node id="-431187" lat="58.9358777823" lon="9.62054166656">
		<tag k="alt_name" v="Kjeholmen" />
		<tag k="name" v="Kjeiholmen" />
		<tag k="place" v="islet" />
		<tag k="ssr:stedsnr" v="911926" />
	</node>
	<node id="-432213" lat="58.9487499976" lon="9.6329388911">
		<tag k="name" v="Havnholmen" />
		<tag k="old_name" v="Holmen" />
		<tag k="place" v="islet" />
		<tag k="ssr:stedsnr" v="790928" />
	</node>
	<node id="-432212" lat="58.9482249964" lon="9.64309722562">
		<tag k="name" v="Toner" />
>>>>>>> e1d4bc35ff8a6074a6f2e91616a996b547c36f15
		<tag k="place" v="islet" />
		<tag k="ssr:stedsnr" v="145503" />
	</node>
<<<<<<< HEAD
	<node lat="59.1219861082413" lon="9.55204999632277" id="-20080">
		<tag k="name" v="Skotland" />
		<tag k="place" v="islet" />
		<tag k="ssr:stedsnr" v="146224" />
	</node>
	<node lat="59.075486114149896" lon="9.632261119819432" id="-20083">
		<tag k="name" v="Bukkholmen" />
=======
	<node id="-432211" lat="58.9418666668" lon="9.61656389401">
		<tag k="name" v="Brentholmen" />
		<tag k="place" v="islet" />
		<tag k="ssr:stedsnr" v="790922" />
	</node>
	<node id="-431698" lat="58.9530499995" lon="9.65725555707">
		<tag k="name" v="Store Eggeløs" />
		<tag k="old_name" v="Eggløysa, store" />
		<tag k="place" v="islet" />
		<tag k="ssr:stedsnr" v="304899" />
	</node>
	<node id="-431697" lat="58.9586666679" lon="9.66413610667">
		<tag k="name" v="Harva" />
>>>>>>> e1d4bc35ff8a6074a6f2e91616a996b547c36f15
		<tag k="place" v="islet" />
		<tag k="ssr:stedsnr" v="147902" />
	</node>
<<<<<<< HEAD
	<node lat="59.1172055592489" lon="9.561174998003011" id="-20099">
		<tag k="name" v="Halvsundbukta" />
		<tag k="natural" v="bay" />
		<tag k="ssr:stedsnr" v="169722" />
	</node>
	<node lat="59.09188332999604" lon="9.604011103661897" id="-20100">
		<tag k="name" v="Tråkbukta" />
		<tag k="natural" v="bay" />
		<tag k="ssr:stedsnr" v="170559" />
	</node>
	<node lat="59.00775000291291" lon="9.705191661824081" id="-20105">
		<tag k="name" v="Rognstranda" />
		<tag k="natural" v="beach" />
		<tag k="ssr:stedsnr" v="179412" />
	</node>
	<node lat="58.987349997975535" lon="9.681724993283442" id="-20108">
		<tag k="bay" v="fjord" />
		<tag k="name" v="Åbyfjorden" />
=======
	<node id="-431695" lat="58.9916138917" lon="9.66881111824">
		<tag k="name" v="Brattholmen" />
		<tag k="place" v="islet" />
		<tag k="ssr:stedsnr" v="304592" />
	</node>
	<node id="-431694" lat="58.9927055567" lon="9.70967778344">
		<tag k="alt_name" v="Krokodden" />
		<tag k="name" v="Krukodden" />
		<tag k="natural" v="cape" />
		<tag k="ssr:stedsnr" v="304581" />
	</node>
	<node id="-430717" lat="58.9477416695" lon="9.67456665972">
		<tag k="alt_name" v="Rauen, østre;Østre Rauane" />
		<tag k="name" v="Østre Rauen" />
		<tag k="place" v="islet" />
		<tag k="ssr:stedsnr" v="304909" />
	</node>
	<node id="-430667" lat="59.1237166683" lon="9.51867499742">
		<tag k="name" v="Hytterødbukta" />
>>>>>>> e1d4bc35ff8a6074a6f2e91616a996b547c36f15
		<tag k="natural" v="bay" />
		<tag k="ssr:stedsnr" v="182596" />
	</node>
<<<<<<< HEAD
	<node lat="58.932455558285945" lon="9.609027769727502" id="-20109">
		<tag k="name" v="Klokkertangen" />
=======
	<node id="-430666" lat="59.1121305598" lon="9.558061109">
		<tag k="name" v="Oksodden" />
>>>>>>> e1d4bc35ff8a6074a6f2e91616a996b547c36f15
		<tag k="natural" v="cape" />
		<tag k="ssr:stedsnr" v="182912" />
	</node>
<<<<<<< HEAD
	<node lat="58.91373610978705" lon="9.578666670278741" id="-20117">
		<tag k="bay" v="fjord" />
		<tag k="name" v="Eksefjorden" />
=======
	<node id="-431177" lat="58.9849499985" lon="9.67212500357">
		<tag k="alt_name" v="Høvikbukta" />
		<tag k="name" v="Høvika" />
>>>>>>> e1d4bc35ff8a6074a6f2e91616a996b547c36f15
		<tag k="natural" v="bay" />
		<tag k="ssr:stedsnr" v="183637" />
	</node>
<<<<<<< HEAD
	<node lat="58.99849999814226" lon="9.706647224618987" id="-20124">
		<tag k="name" v="Ormevika" />
		<tag k="natural" v="bay" />
		<tag k="ssr:stedsnr" v="209489" />
	</node>
	<node lat="58.98150555493026" lon="9.699338882296573" id="-20132">
		<tag k="name" v="Stangbukta" />
		<tag k="natural" v="bay" />
		<tag k="ssr:stedsnr" v="221796" />
	</node>
	<node lat="58.96444722160432" lon="9.650205561521716" id="-20143">
		<tag k="name" v="Smørvika" />
=======
	<node id="-430663" lat="58.931302775" lon="9.53340277513">
		<tag k="name" v="Bakerovnbukta" />
		<tag k="natural" v="bay" />
		<tag k="ssr:stedsnr" v="449485" />
	</node>
	<node id="-432198" lat="58.9423250002" lon="9.64641388972">
		<tag k="alt_name" v="Bjønnøya" />
		<tag k="name" v="Bjørnøya" />
		<tag k="place" v="islet" />
		<tag k="ssr:stedsnr" v="789933" />
	</node>
	<node id="-431685" lat="58.9984999981" lon="9.70664722462">
		<tag k="name" v="Ormevika" />
>>>>>>> e1d4bc35ff8a6074a6f2e91616a996b547c36f15
		<tag k="natural" v="bay" />
		<tag k="ssr:stedsnr" v="209489" />
	</node>
<<<<<<< HEAD
	<node lat="59.05795833315427" lon="9.644377779088154" id="-20151">
		<tag k="name" v="Likkista" />
=======
	<node id="-430660" lat="58.9632527792" lon="9.67351110337">
		<tag k="name" v="Kråka" />
>>>>>>> e1d4bc35ff8a6074a6f2e91616a996b547c36f15
		<tag k="place" v="islet" />
		<tag k="ssr:stedsnr" v="240321" />
	</node>
<<<<<<< HEAD
	<node lat="58.93903888964371" lon="9.65506110964968" id="-20156">
		<tag k="name" v="Bjørnøybrotta" />
		<tag k="natural" v="shoal" />
		<tag k="place" v="locality" />
		<tag k="ssr:stedsnr" v="243932" />
	</node>
	<node lat="59.09931389014094" lon="9.618383326226644" id="-20162">
		<tag k="alt_name" v="Frierfjorden" />
		<tag k="bay" v="fjord" />
		<tag k="name" v="Frier" />
=======
	<node id="-431682" lat="58.9398527799" lon="9.47579444276">
		<tag k="name" v="Sagvikbukta" />
>>>>>>> e1d4bc35ff8a6074a6f2e91616a996b547c36f15
		<tag k="natural" v="bay" />
		<tag k="ssr:stedsnr" v="244395" />
	</node>
<<<<<<< HEAD
	<node lat="59.04818333404397" lon="9.660675002091756" id="-20163">
		<tag k="name" v="Omborsnes" />
		<tag k="natural" v="cape" />
		<tag k="ssr:stedsnr" v="244526" />
	</node>
	<node lat="58.96325277923469" lon="9.673511103365177" id="-20166">
		<tag k="name" v="Kråka" />
		<tag k="place" v="islet" />
		<tag k="ssr:stedsnr" v="244904" />
	</node>
	<node lat="58.96003055435856" lon="9.676474995143312" id="-20169">
=======
	<node id="-431442" lat="58.9926111112" lon="9.72450832925">
		<tag k="bay" v="fjord" />
		<tag k="name" v="Rognsfjorden" />
		<tag k="natural" v="bay" />
		<tag k="ssr:stedsnr" v="61547" />
	</node>
	<node id="-432192" lat="58.933825002" lon="9.48936111174">
>>>>>>> e1d4bc35ff8a6074a6f2e91616a996b547c36f15
		<tag k="bay" v="fjord" />
		<tag k="name" v="Lilleatlanteren" />
		<tag k="natural" v="bay" />
		<tag k="ssr:stedsnr" v="244924" />
	</node>
<<<<<<< HEAD
	<node lat="58.92907499883087" lon="9.541811119449976" id="-20170">
		<tag k="name" v="Bikjeholmen" />
=======
	<node id="-431678" lat="58.9359444462" lon="9.62220277126">
		<tag k="name" v="Snikholmen" />
>>>>>>> e1d4bc35ff8a6074a6f2e91616a996b547c36f15
		<tag k="place" v="islet" />
		<tag k="ssr:stedsnr" v="267994" />
	</node>
<<<<<<< HEAD
	<node lat="59.1237166682683" lon="9.518674997419168" id="-20172">
		<tag k="name" v="Hytterødbukta" />
		<tag k="natural" v="bay" />
		<tag k="ssr:stedsnr" v="268975" />
	</node>
	<node lat="58.96694721992052" lon="9.659166669152178" id="-20178">
		<tag k="name" v="Kårsholmen" />
		<tag k="place" v="islet" />
		<tag k="ssr:stedsnr" v="282174" />
	</node>
	<node lat="58.945733330733816" lon="9.624630546885529" id="-20180">
		<tag k="name" v="Ytre Kjønnøya" />
		<tag k="place" v="island" />
		<tag k="ssr:stedsnr" v="282324" />
	</node>
	<node lat="58.9305888900626" lon="9.61403610298786" id="-20185">
		<tag k="name" v="Leifsholmen" />
=======
	<node id="-431164" lat="58.9898222216" lon="9.70793333696">
		<tag k="name" v="Merraflerraodden" />
		<tag k="natural" v="cape" />
		<tag k="ssr:stedsnr" v="907363" />
	</node>
	<node id="-431675" lat="58.9451583374" lon="9.67010278494">
		<tag k="alt_name" v="Rauen, vestre;Vestre Rauane" />
		<tag k="name" v="Vestre Rauen" />
>>>>>>> e1d4bc35ff8a6074a6f2e91616a996b547c36f15
		<tag k="place" v="islet" />
		<tag k="ssr:stedsnr" v="282906" />
	</node>
<<<<<<< HEAD
	<node lat="58.93222777867144" lon="9.507163890969352" id="-20203">
		<tag k="name" v="Presteskottbukta" />
=======
	<node id="-432186" lat="58.9909500031" lon="9.71006388949">
		<tag k="name" v="Kruksholet" />
>>>>>>> e1d4bc35ff8a6074a6f2e91616a996b547c36f15
		<tag k="natural" v="bay" />
		<tag k="ssr:stedsnr" v="284730" />
	</node>
<<<<<<< HEAD
	<node lat="58.992705556740646" lon="9.709677783441158" id="-20218">
		<tag k="alt_name" v="Krokodden" />
		<tag k="name" v="Krukodden" />
		<tag k="natural" v="cape" />
		<tag k="ssr:stedsnr" v="304581" />
	</node>
	<node lat="58.99161389174697" lon="9.668811118237537" id="-20219">
		<tag k="name" v="Brattholmen" />
=======
	<node id="-431186" lat="58.9528333363" lon="9.66792499714">
		<tag k="name" v="Lille Eggeløs" />
		<tag k="old_name" v="Eggløysa, l" />
		<tag k="place" v="islet" />
		<tag k="ssr:stedsnr" v="911906" />
	</node>
	<node id="-432184" lat="58.992661107" lon="9.74575556405">
		<tag k="fixme" v="consider seamark:type=rock or natural=shoal" />
		<tag k="name" v="Hesteklova" />
>>>>>>> e1d4bc35ff8a6074a6f2e91616a996b547c36f15
		<tag k="place" v="islet" />
		<tag k="ssr:stedsnr" v="304592" />
	</node>
<<<<<<< HEAD
	<node lat="58.94774166947547" lon="9.674566659717282" id="-20220">
		<tag k="alt_name" v="Rauen, østre;Østre Rauane" />
		<tag k="name" v="Østre Rauen" />
		<tag k="place" v="islet" />
		<tag k="ssr:stedsnr" v="304909" />
	</node>
	<node lat="59.10443332995835" lon="9.575163896808693" id="-20237">
		<tag k="name" v="Rafnesbukta" />
		<tag k="natural" v="bay" />
		<tag k="ssr:stedsnr" v="464973" />
	</node>
	<node lat="58.96617221889717" lon="9.653700006932125" id="-20251">
		<tag k="name" v="Braknestangen" />
=======
	<node id="-431671" lat="58.9549638923" lon="9.63783332473">
		<tag k="bay" v="fjord" />
		<tag k="name" v="Melbyfjorden" />
		<tag k="natural" v="bay" />
		<tag k="ssr:stedsnr" v="183896" />
	</node>
	<node id="-431158" lat="58.9935416655" lon="9.75075277986">
		<tag k="name" v="Stranda" />
		<tag k="natural" v="beach" />
		<tag k="place" v="locality" />
		<tag k="ssr:stedsnr" v="905650" />
	</node>
	<node id="-432181" lat="59.068561107" lon="9.63260555291">
		<tag k="name" v="Holmen" />
>>>>>>> e1d4bc35ff8a6074a6f2e91616a996b547c36f15
		<tag k="natural" v="cape" />
		<tag k="ssr:stedsnr" v="327473" />
	</node>
	<node lat="58.93440556001232" lon="9.641425005801645" id="-20253">
		<tag k="fixme" v="consider seamark:type=rock or natural=shoal" />
		<tag k="name" v="Anonskjær" />
		<tag k="place" v="islet" />
		<tag k="ssr:stedsnr" v="328560" />
	</node>
<<<<<<< HEAD
	<node lat="58.94999722108717" lon="9.625566660340393" id="-20260">
		<tag k="name" v="De brente holmane" />
=======
	<node id="-432180" lat="59.068747219" lon="9.63478889449">
		<tag k="name" v="Jonsholmen" />
>>>>>>> e1d4bc35ff8a6074a6f2e91616a996b547c36f15
		<tag k="place" v="islet" />
		<tag k="ssr:stedsnr" v="342396" />
	</node>
<<<<<<< HEAD
	<node lat="58.95026666576148" lon="9.624566663421884" id="-20261">
		<tag k="name" v="Strømsundet" />
=======
	<node id="-430642" lat="58.985719446" lon="9.68415277031">
		<tag k="name" v="Linnarenna" />
>>>>>>> e1d4bc35ff8a6074a6f2e91616a996b547c36f15
		<tag k="natural" v="strait" />
		<tag k="ssr:stedsnr" v="342397" />
	</node>
	<node lat="59.104586111219156" lon="9.581466671168002" id="-20262">
		<tag k="name" v="Lundsodden" />
		<tag k="natural" v="cape" />
		<tag k="ssr:stedsnr" v="472663" />
	</node>
<<<<<<< HEAD
	<node lat="59.11919999892919" lon="9.55472778150729" id="-20286">
		<tag k="alt_name" v="Persbukt" />
		<tag k="name" v="Persbukta" />
=======
	<node id="-430641" lat="59.0064055569" lon="9.72131388916">
		<tag k="name" v="Sandvika" />
>>>>>>> e1d4bc35ff8a6074a6f2e91616a996b547c36f15
		<tag k="natural" v="bay" />
		<tag k="ssr:stedsnr" v="473727" />
	</node>
<<<<<<< HEAD
	<node lat="59.0293222207885" lon="9.726811104515082" id="-20288">
		<tag k="alt_name" v="Asvaldbukta" />
		<tag k="name" v="Asvallbukta" />
		<tag k="natural" v="bay" />
		<tag k="ssr:stedsnr" v="359159" />
	</node>
	<node lat="59.00237499852573" lon="9.71961110671695" id="-20290">
		<tag k="alt_name" v="Jyplevik" />
		<tag k="name" v="Jyplevikodden" />
		<tag k="natural" v="cape" />
		<tag k="ssr:stedsnr" v="359650" />
	</node>
	<node lat="58.99533055366156" lon="9.755002774179525" id="-20312">
		<tag k="name" v="Hvittingbukta" />
=======
	<node id="-432175" lat="58.9296916655" lon="9.55378055139">
		<tag k="alt_name" v="Tveitholmen" />
		<tag k="name" v="Tveitholmen" />
		<tag k="place" v="island" />
		<tag k="ssr:stedsnr" v="769966" />
	</node>
	<node id="-431662" lat="58.9137361098" lon="9.57866667028">
		<tag k="bay" v="fjord" />
		<tag k="name" v="Eksefjorden" />
>>>>>>> e1d4bc35ff8a6074a6f2e91616a996b547c36f15
		<tag k="natural" v="bay" />
		<tag k="ssr:stedsnr" v="480633" />
	</node>
	<node lat="59.00185555204378" lon="9.706058337725256" id="-20313">
		<tag k="name" v="Ormevikbåen" />
		<tag k="place" v="locality" />
		<tag k="seamark:type" v="rock" />
		<tag k="ssr:stedsnr" v="480638" />
	</node>
<<<<<<< HEAD
	<node lat="59.00083055708824" lon="9.704627785648348" id="-20314">
		<tag k="name" v="Ormevika, in" />
=======
	<node id="-431661" lat="58.9965750018" lon="9.73652777037">
		<tag k="name" v="Krokshavn" />
>>>>>>> e1d4bc35ff8a6074a6f2e91616a996b547c36f15
		<tag k="natural" v="bay" />
		<tag k="ssr:stedsnr" v="480640" />
	</node>
<<<<<<< HEAD
	<node lat="58.935702780644654" lon="9.620408326127148" id="-20319">
		<tag k="name" v="Kjeiholmen" />
		<tag k="place" v="islet" />
		<tag k="ssr:stedsnr" v="388432" />
	</node>
	<node lat="58.99963610837213" lon="9.70991111673958" id="-20320">
		<tag k="alt_name" v="Selskjæra" />
		<tag k="fixme" v="consider seamark:type=rock or natural=shoal" />
		<tag k="name" v="Selskjæra" />
		<tag k="place" v="islet" />
		<tag k="ssr:stedsnr" v="388477" />
	</node>
	<node lat="58.99321666673335" lon="9.674497223290661" id="-20327">
		<tag k="name" v="Sauøya" />
=======
	<node id="-430514" lat="58.9600305544" lon="9.67647499514">
		<tag k="bay" v="fjord" />
		<tag k="name" v="Lilleatlanteren" />
		<tag k="natural" v="bay" />
		<tag k="ssr:stedsnr" v="244924" />
	</node>
	<node id="-431731" lat="58.9499972211" lon="9.62556666034">
		<tag k="name" v="De brente holmane" />
		<tag k="place" v="islet" />
		<tag k="ssr:stedsnr" v="342396" />
	</node>
	<node id="-431543" lat="58.9727555573" lon="9.69998334201">
		<tag k="name" v="Halvorodden" />
		<tag k="natural" v="cape" />
		<tag k="ssr:stedsnr" v="116660" />
	</node>
	<node id="-431281" lat="58.9995361138" lon="9.76209444091">
		<tag k="name" v="Langøybåen" />
		<tag k="place" v="locality" />
		<tag k="seamark:type" v="rock" />
		<tag k="ssr:stedsnr" v="905607" />
	</node>
	<node id="-430628" lat="58.9324555583" lon="9.60902776973">
		<tag k="name" v="Klokkertangen" />
>>>>>>> e1d4bc35ff8a6074a6f2e91616a996b547c36f15
		<tag k="natural" v="cape" />
		<tag k="ssr:stedsnr" v="485533" />
	</node>
<<<<<<< HEAD
	<node lat="58.93847499562162" lon="9.67544444286443" id="-20340">
		<tag k="alt_name" v="Rødskjer" />
		<tag k="fixme" v="consider seamark:type=rock or natural=shoal" />
		<tag k="name" v="Rødskjær" />
		<tag k="place" v="islet" />
		<tag k="ssr:stedsnr" v="485943" />
	</node>
	<node lat="59.105427776089776" lon="9.578513895434533" id="-20365">
		<tag k="name" v="Måkeskjærbåen" />
		<tag k="place" v="locality" />
		<tag k="seamark:type" v="rock" />
		<tag k="ssr:stedsnr" v="412639" />
	</node>
	<node lat="58.969152775915106" lon="9.6521222279365" id="-20370">
		<tag k="name" v="Haraldøya" />
		<tag k="place" v="island" />
		<tag k="ssr:stedsnr" v="420710" />
=======
	<node id="-430627" lat="58.987349998" lon="9.68172499328">
		<tag k="bay" v="fjord" />
		<tag k="name" v="Åbyfjorden" />
		<tag k="natural" v="bay" />
		<tag k="ssr:stedsnr" v="182596" />
>>>>>>> e1d4bc35ff8a6074a6f2e91616a996b547c36f15
	</node>
	<node id="-431475" lat="58.9270694407" lon="9.56170000842">
		<tag k="bay" v="fjord" />
		<tag k="name" v="Vågøyfjord" />
		<tag k="natural" v="bay" />
		<tag k="ssr:stedsnr" v="85992" />
	</node>
	<node id="-431352" lat="58.9434749963" lon="9.59827778197">
		<tag k="alt_name" v="Hovøya" />
		<tag k="name" v="Håvøya" />
		<tag k="place" v="island" />
		<tag k="ssr:stedsnr" v="1903" />
	</node>
	<node id="-431646" lat="59.0077500029" lon="9.70519166182">
		<tag k="name" v="Rognstranda" />
		<tag k="natural" v="beach" />
		<tag k="place" v="locality" />
		<tag k="ssr:stedsnr" v="179412" />
	</node>
	<node id="-431185" lat="58.9536638897" lon="9.72304166091">
		<tag k="name" v="Såsteinbåen" />
		<tag k="natural" v="shoal" />
		<tag k="place" v="locality" />
		<tag k="ssr:stedsnr" v="911905" />
	</node>
	<node id="-431642" lat="59.0117388922" lon="9.75498055993">
		<tag k="name" v="Terneskjæret" />
		<tag k="natural" v="cape" />
		<tag k="ssr:stedsnr" v="177630" />
	</node>
	<node id="-431641" lat="59.052936107" lon="9.65628610533">
		<tag k="fixme" v="consider seamark:type=rock or natural=shoal" />
		<tag k="name" v="Midtfjordskjæret" />
		<tag k="place" v="islet" />
		<tag k="ssr:stedsnr" v="177139" />
	</node>
	<node id="-432217" lat="58.9582444483" lon="9.64793333395">
		<tag k="name" v="Brottane" />
		<tag k="natural" v="shoal" />
		<tag k="place" v="locality" />
		<tag k="ssr:stedsnr" v="813444" />
	</node>
	<node id="-430571" lat="58.9669472199" lon="9.65916666915">
		<tag k="name" v="Kårsholmen" />
		<tag k="place" v="islet" />
		<tag k="ssr:stedsnr" v="282174" />
	</node>
	<node id="-431633" lat="59.09188333" lon="9.60401110366">
		<tag k="name" v="Tråkbukta" />
		<tag k="natural" v="bay" />
		<tag k="ssr:stedsnr" v="170559" />
	</node>
	<node id="-431632" lat="59.077797224" lon="9.62804722418">
		<tag k="name" v="Slobukta" />
		<tag k="natural" v="bay" />
		<tag k="ssr:stedsnr" v="170552" />
	</node>
	<node id="-431631" lat="59.1212972212" lon="9.54899721369">
		<tag k="name" v="Sibjørnbukta" />
		<tag k="natural" v="bay" />
		<tag k="ssr:stedsnr" v="169726" />
	</node>
	<node id="-431630" lat="59.1172055592" lon="9.561174998">
		<tag k="name" v="Halvsundbukta" />
		<tag k="natural" v="bay" />
		<tag k="ssr:stedsnr" v="169722" />
	</node>
	<node id="-431628" lat="59.1048194422" lon="9.57595278183">
		<tag k="name" v="Berget" />
		<tag k="natural" v="cape" />
		<tag k="ssr:stedsnr" v="169677" />
	</node>
	<node id="-431627" lat="59.089791666" lon="9.6211277751">
		<tag k="name" v="Øvre Ringsholmen" />
		<tag k="place" v="islet" />
		<tag k="ssr:stedsnr" v="169191" />
	</node>
	<node id="-432133" lat="58.9447722206" lon="9.58846111535">
		<tag k="name" v="Finmarkstranda" />
		<tag k="natural" v="beach" />
		<tag k="place" v="locality" />
		<tag k="ssr:stedsnr" v="767564" />
	</node>
	<node id="-432132" lat="58.9702416653" lon="9.65721944422">
		<tag k="name" v="Olavtangskjæret" />
		<tag k="place" v="islet" />
		<tag k="ssr:stedsnr" v="767165" />
	</node>
</osm>
