<?xml version="1.0" encoding="UTF-8"?>
<osm version="0.6" generator="osmapis">
	<node lat="59.01049999765158" lon="9.674730562753968" id="-19942">
		<tag k="fixme" v="consider natural=peak for the most distinct mountains in the district" />
		<tag k="name" v="Risåsen" />
		<tag k="natural" v="hill" />
		<tag k="place" v="locality" />
		<tag k="ssr:stedsnr" v="39063" />
	</node>
	<node lat="58.98526666602108" lon="9.558205560770633" id="-19944">
		<tag k="name" v="Rønholtdalen" />
		<tag k="natural" v="valley" />
		<tag k="place" v="locality" />
		<tag k="ssr:stedsnr" v="39508" />
	</node>
	<node lat="59.052741664090505" lon="9.59795277244001" id="-19947">
		<tag k="name" v="Dypedal" />
		<tag k="natural" v="valley" />
		<tag k="place" v="locality" />
		<tag k="ssr:stedsnr" v="39612" />
	</node>
	<node lat="59.04479444504427" lon="9.617413882060001" id="-19950">
		<tag k="fixme" v="consider natural=peak for the most distinct mountains in the district" />
		<tag k="name" v="Solås" />
		<tag k="natural" v="hill" />
		<tag k="place" v="locality" />
		<tag k="ssr:stedsnr" v="39674" />
	</node>
	<node lat="59.03460000069662" lon="9.592697229095398" id="-19953">
		<tag k="fixme" v="consider natural=peak for the most distinct mountains in the district" />
		<tag k="name" v="Bestefarsåsen" />
		<tag k="natural" v="hill" />
		<tag k="place" v="locality" />
		<tag k="ssr:stedsnr" v="39868" />
	</node>
	<node lat="59.04905833288367" lon="9.49546388510855" id="-19955">
		<tag k="fixme" v="consider natural=peak for the most distinct mountains in the district" />
		<tag k="name" v="Viksheia" />
		<tag k="natural" v="hill" />
		<tag k="place" v="locality" />
		<tag k="ssr:stedsnr" v="40067" />
	</node>
	<node lat="58.971230554879035" lon="9.610502783066018" id="-19956">
		<tag k="fixme" v="consider natural=peak for the most distinct mountains in the district" />
		<tag k="name" v="Gulmyråsen" />
		<tag k="natural" v="hill" />
		<tag k="place" v="locality" />
		<tag k="ssr:stedsnr" v="39903" />
	</node>
	<node lat="58.96452500028656" lon="9.587111110352497" id="-19958">
		<tag k="fixme" v="consider natural=peak for the most distinct mountains in the district" />
		<tag k="name" v="Kalvehagheia" />
		<tag k="natural" v="hill" />
		<tag k="place" v="locality" />
		<tag k="ssr:stedsnr" v="39918" />
	</node>
	<node lat="58.98350833341668" lon="9.640138895935586" id="-19959">
		<tag k="fixme" v="consider natural=peak for the most distinct mountains in the district" />
		<tag k="name" v="Strammestasjonåsen" />
		<tag k="natural" v="hill" />
		<tag k="place" v="locality" />
		<tag k="ssr:stedsnr" v="39919" />
	</node>
	<node lat="58.99204722248186" lon="9.405844451239536" id="-19960">
		<tag k="name" v="Mosfjell" />
		<tag k="natural" v="hill" />
		<tag k="place" v="locality" />
		<tag k="ssr:stedsnr" v="39963" />
	</node>
	<node lat="59.024552778639496" lon="9.565563896711058" id="-19961">
		<tag k="fixme" v="consider natural=peak for the most distinct mountains in the district" />
		<tag k="name" v="Elises ås" />
		<tag k="natural" v="hill" />
		<tag k="place" v="locality" />
		<tag k="ssr:stedsnr" v="40382" />
	</node>
	<node lat="59.02190555507589" lon="9.58978056109662" id="-19962">
		<tag k="name" v="Dypedal" />
		<tag k="natural" v="valley" />
		<tag k="place" v="locality" />
		<tag k="ssr:stedsnr" v="40445" />
	</node>
	<node lat="58.99621110665088" lon="9.488283337884505" id="-19964">
		<tag k="fixme" v="consider natural=peak for the most distinct mountains in the district" />
		<tag k="name" v="Tråvannsheiane" />
		<tag k="natural" v="hill" />
		<tag k="place" v="locality" />
		<tag k="ssr:stedsnr" v="40504" />
	</node>
	<node lat="59.04488055256121" lon="9.452955548005452" id="-19965">
		<tag k="fixme" v="consider natural=peak for the most distinct mountains in the district" />
		<tag k="name" v="Fisketjennåsane" />
		<tag k="natural" v="hill" />
		<tag k="place" v="locality" />
		<tag k="ssr:stedsnr" v="41068" />
	</node>
	<node lat="59.009186110881906" lon="9.358819438363618" id="-19970">
		<tag k="fixme" v="consider natural=peak for the most distinct mountains in the district" />
		<tag k="name" v="Hullhei" />
		<tag k="natural" v="hill" />
		<tag k="place" v="locality" />
		<tag k="ssr:stedsnr" v="41822" />
	</node>
	<node lat="59.07418610995335" lon="9.61871944801117" id="-19980">
		<tag k="fixme" v="consider natural=peak for the most distinct mountains in the district" />
		<tag k="name" v="Rønningåsen" />
		<tag k="natural" v="hill" />
		<tag k="place" v="locality" />
		<tag k="ssr:stedsnr" v="49588" />
	</node>
	<node lat="58.99561666787155" lon="9.612180557621672" id="-19981">
		<tag k="fixme" v="consider natural=peak for the most distinct mountains in the district" />
		<tag k="name" v="Hansesås" />
		<tag k="natural" v="hill" />
		<tag k="place" v="locality" />
		<tag k="ssr:stedsnr" v="240254" />
	</node>
	<node lat="59.12042777455432" lon="9.520277772069086" id="-19984">
		<tag k="fixme" v="consider natural=peak for the most distinct mountains in the district" />
		<tag k="name" v="Holaåsen" />
		<tag k="natural" v="hill" />
		<tag k="place" v="locality" />
		<tag k="ssr:stedsnr" v="56782" />
	</node>
	<node lat="59.10442777444888" lon="9.539924998922027" id="-19993">
		<tag k="name" v="Løkkadalen" />
		<tag k="natural" v="valley" />
		<tag k="place" v="locality" />
		<tag k="ssr:stedsnr" v="240564" />
	</node>
	<node lat="59.02378610780236" lon="9.61100278071287" id="-19995">
		<tag k="fixme" v="consider natural=peak for the most distinct mountains in the district" />
		<tag k="name" v="Snaråsane" />
		<tag k="natural" v="hill" />
		<tag k="place" v="locality" />
		<tag k="ssr:stedsnr" v="62475" />
	</node>
	<node lat="59.00816388617297" lon="9.437383324612142" id="-19999">
		<tag k="fixme" v="consider natural=peak for the most distinct mountains in the district" />
		<tag k="name" v="Fjølbuheia" />
		<tag k="natural" v="hill" />
		<tag k="place" v="locality" />
		<tag k="ssr:stedsnr" v="62685" />
	</node>
	<node lat="59.10087777838581" lon="9.540138893298664" id="-20004">
		<tag k="fixme" v="consider natural=peak for the most distinct mountains in the district" />
		<tag k="name" v="Hellestvedtåsen" />
		<tag k="natural" v="hill" />
		<tag k="place" v="locality" />
		<tag k="ssr:stedsnr" v="240971" />
	</node>
	<node lat="59.052900001765295" lon="9.462061113687286" id="-20019">
		<tag k="alt_name" v="Seterhaugane" />
		<tag k="fixme" v="consider natural=peak for the most distinct mountains in the district" />
		<tag k="name" v="Sæterhaugane" />
		<tag k="natural" v="hill" />
		<tag k="place" v="locality" />
		<tag k="ssr:stedsnr" v="244867" />
	</node>
	<node lat="59.0415222208556" lon="9.562416670174743" id="-20024">
		<tag k="fixme" v="consider natural=peak for the most distinct mountains in the district" />
		<tag k="name" v="Svarttjennheia" />
		<tag k="natural" v="hill" />
		<tag k="place" v="locality" />
		<tag k="ssr:stedsnr" v="85878" />
	</node>
	<node lat="59.019491667888786" lon="9.396574999668584" id="-20028">
		<tag k="fixme" v="consider natural=peak for the most distinct mountains in the district" />
		<tag k="name" v="Brenthei" />
		<tag k="natural" v="hill" />
		<tag k="place" v="locality" />
		<tag k="ssr:stedsnr" v="100013" />
	</node>
	<node lat="59.030483334844945" lon="9.692769442087506" id="-20032">
		<tag k="fixme" v="consider natural=peak for the most distinct mountains in the district" />
		<tag k="name" v="Hekkelberget" />
		<tag k="natural" v="hill" />
		<tag k="place" v="locality" />
		<tag k="ssr:stedsnr" v="100120" />
	</node>
	<node lat="58.961966666662846" lon="9.61319999592622" id="-20033">
		<tag k="fixme" v="consider natural=peak for the most distinct mountains in the district" />
		<tag k="name" v="Vinterstøåsen" />
		<tag k="natural" v="hill" />
		<tag k="place" v="locality" />
		<tag k="ssr:stedsnr" v="100409" />
	</node>
	<node lat="58.97115833160736" lon="9.592294450930021" id="-20034">
		<tag k="fixme" v="consider natural=peak for the most distinct mountains in the district" />
		<tag k="name" v="Maurhaugane" />
		<tag k="natural" v="hill" />
		<tag k="place" v="locality" />
		<tag k="ssr:stedsnr" v="100412" />
	</node>
	<node lat="58.94986111362792" lon="9.585491671446203" id="-20036">
		<tag k="fixme" v="consider natural=peak for the most distinct mountains in the district" />
		<tag k="name" v="Skredderhaugen" />
		<tag k="natural" v="hill" />
		<tag k="place" v="locality" />
		<tag k="ssr:stedsnr" v="100624" />
	</node>
	<node lat="58.993933334933516" lon="9.356422225880571" id="-20037">
		<tag k="name" v="Stueheiliane" />
		<tag k="natural" v="slope" />
		<tag k="place" v="locality" />
		<tag k="ssr:stedsnr" v="100809" />
	</node>
	<node lat="58.9525194440159" lon="9.556094451147603" id="-20039">
		<tag k="name" v="Bjønndalen" />
		<tag k="natural" v="valley" />
		<tag k="place" v="locality" />
		<tag k="ssr:stedsnr" v="100721" />
	</node>
	<node lat="59.10023888993435" lon="9.553466671320164" id="-20041">
		<tag k="fixme" v="consider natural=peak for the most distinct mountains in the district" />
		<tag k="name" v="Trellebergåsen" />
		<tag k="natural" v="hill" />
		<tag k="place" v="locality" />
		<tag k="ssr:stedsnr" v="100970" />
	</node>
	<node lat="59.01391944786592" lon="9.599077772741285" id="-20042">
		<tag k="name" v="Høensdalen" />
		<tag k="natural" v="valley" />
		<tag k="place" v="locality" />
		<tag k="ssr:stedsnr" v="101407" />
	</node>
	<node lat="59.02178610732014" lon="9.489708330548465" id="-20044">
		<tag k="fixme" v="consider natural=peak for the most distinct mountains in the district" />
		<tag k="name" v="Ragnhildstjennkollen" />
		<tag k="natural" v="hill" />
		<tag k="place" v="locality" />
		<tag k="ssr:stedsnr" v="101452" />
	</node>
	<node lat="59.06179721820712" lon="9.491499995208546" id="-20045">
		<tag k="name" v="Dypedal" />
		<tag k="natural" v="valley" />
		<tag k="place" v="locality" />
		<tag k="ssr:stedsnr" v="101467" />
	</node>
	<node lat="59.053469439967" lon="9.46970833863159" id="-20047">
		<tag k="fixme" v="consider natural=peak for the most distinct mountains in the district" />
		<tag k="name" v="Ulaåsen" />
		<tag k="natural" v="hill" />
		<tag k="place" v="locality" />
		<tag k="ssr:stedsnr" v="101379" />
	</node>
	<node lat="59.00063611124022" lon="9.50551110499009" id="-20050">
		<tag k="fixme" v="consider natural=peak for the most distinct mountains in the district" />
		<tag k="name" v="Bjønnebitåsen" />
		<tag k="natural" v="hill" />
		<tag k="place" v="locality" />
		<tag k="ssr:stedsnr" v="101613" />
	</node>
	<node lat="59.00081944772185" lon="9.547891673321873" id="-20051">
		<tag k="name" v="Bamlebenkane" />
		<tag k="natural" v="slope" />
		<tag k="place" v="locality" />
		<tag k="ssr:stedsnr" v="101614" />
	</node>
	<node lat="59.03580000242431" lon="9.520275006825031" id="-20052">
		<tag k="fixme" v="consider natural=peak for the most distinct mountains in the district" />
		<tag k="name" v="Kvernkollen" />
		<tag k="natural" v="hill" />
		<tag k="place" v="locality" />
		<tag k="ssr:stedsnr" v="101768" />
	</node>
	<node lat="59.04798611525589" lon="9.546413887742336" id="-20053">
		<tag k="fixme" v="consider natural=peak for the most distinct mountains in the district" />
		<tag k="name" v="Dypmyrheia" />
		<tag k="natural" v="hill" />
		<tag k="place" v="locality" />
		<tag k="ssr:stedsnr" v="101779" />
	</node>
	<node lat="59.030888886056076" lon="9.485908339103908" id="-20055">
		<tag k="fixme" v="consider natural=peak for the most distinct mountains in the district" />
		<tag k="name" v="Bjønndamsåsen" />
		<tag k="natural" v="hill" />
		<tag k="place" v="locality" />
		<tag k="ssr:stedsnr" v="102004" />
	</node>
	<node lat="58.95795555578356" lon="9.45524444750306" id="-20060">
		<tag k="fixme" v="consider natural=peak for the most distinct mountains in the district" />
		<tag k="name" v="Grummestadheia" />
		<tag k="natural" v="hill" />
		<tag k="place" v="locality" />
		<tag k="ssr:stedsnr" v="102702" />
	</node>
	<node lat="58.93143888582028" lon="9.514499997199879" id="-20061">
		<tag k="fixme" v="consider natural=peak for the most distinct mountains in the district" />
		<tag k="name" v="Takfjell" />
		<tag k="natural" v="hill" />
		<tag k="place" v="locality" />
		<tag k="ssr:stedsnr" v="102732" />
	</node>
	<node lat="58.987569446183365" lon="9.41230556055217" id="-20062">
		<tag k="fixme" v="consider natural=peak for the most distinct mountains in the district" />
		<tag k="name" v="Brånen" />
		<tag k="natural" v="hill" />
		<tag k="place" v="locality" />
		<tag k="ssr:stedsnr" v="102733" />
	</node>
	<node lat="58.9538249956487" lon="9.533302779648398" id="-20064">
		<tag k="fixme" v="consider natural=peak for the most distinct mountains in the district" />
		<tag k="name" v="Ringsjøåsen" />
		<tag k="natural" v="hill" />
		<tag k="place" v="locality" />
		<tag k="ssr:stedsnr" v="102991" />
	</node>
	<node lat="59.04827777690722" lon="9.618338881352093" id="-20069">
		<tag k="name" v="Søtholtdalane" />
		<tag k="natural" v="valley" />
		<tag k="place" v="locality" />
		<tag k="ssr:stedsnr" v="119773" />
	</node>
	<node lat="58.981749999489054" lon="9.502886116401521" id="-20081">
		<tag k="name" v="Svintersdalen" />
		<tag k="natural" v="valley" />
		<tag k="place" v="locality" />
		<tag k="ssr:stedsnr" v="146718" />
	</node>
	<node lat="59.03646944082834" lon="9.556286118288234" id="-20082">
		<tag k="fixme" v="consider natural=peak for the most distinct mountains in the district" />
		<tag k="name" v="Stuleheia" />
		<tag k="natural" v="hill" />
		<tag k="place" v="locality" />
		<tag k="ssr:stedsnr" v="147861" />
	</node>
	<node lat="59.043766666417355" lon="9.478827770786598" id="-20085">
		<tag k="name" v="Musedalen" />
		<tag k="natural" v="valley" />
		<tag k="place" v="locality" />
		<tag k="ssr:stedsnr" v="162051" />
	</node>
	<node lat="59.023663885622256" lon="9.572324997625946" id="-20089">
		<tag k="name" v="Langmyrdalen" />
		<tag k="natural" v="valley" />
		<tag k="place" v="locality" />
		<tag k="ssr:stedsnr" v="162404" />
	</node>
	<node lat="58.97052221988812" lon="9.52850000051713" id="-20094">
		<tag k="fixme" v="consider natural=peak for the most distinct mountains in the district" />
		<tag k="name" v="Høymyråsen" />
		<tag k="natural" v="hill" />
		<tag k="place" v="locality" />
		<tag k="ssr:stedsnr" v="162702" />
	</node>
	<node lat="58.933186113821975" lon="9.592661107543499" id="-20096">
		<tag k="name" v="Trolldalsåsen" />
		<tag k="natural" v="hill" />
		<tag k="place" v="locality" />
		<tag k="ssr:stedsnr" v="162971" />
	</node>
	<node lat="58.955344441950565" lon="9.506413890609023" id="-20097">
		<tag k="fixme" v="consider natural=peak for the most distinct mountains in the district" />
		<tag k="name" v="Nordre Åsfjell" />
		<tag k="natural" v="hill" />
		<tag k="place" v="locality" />
		<tag k="ssr:stedsnr" v="162975" />
	</node>
	<node lat="59.08331388842546" lon="9.535572219982592" id="-20104">
		<tag k="fixme" v="consider natural=peak for the most distinct mountains in the district" />
		<tag k="name" v="Svarttjennheia" />
		<tag k="natural" v="hill" />
		<tag k="place" v="locality" />
		<tag k="ssr:stedsnr" v="179411" />
	</node>
	<node lat="59.08549444309027" lon="9.48893056194021" id="-20125">
		<tag k="fixme" v="consider natural=peak for the most distinct mountains in the district" />
		<tag k="name" v="Grøssåsheia" />
		<tag k="natural" v="hill" />
		<tag k="place" v="locality" />
		<tag k="ssr:stedsnr" v="210527" />
	</node>
	<node lat="58.967961110040044" lon="9.601119445746278" id="-20129">
		<tag k="fixme" v="consider natural=peak for the most distinct mountains in the district" />
		<tag k="name" v="Vardås" />
		<tag k="natural" v="hill" />
		<tag k="place" v="locality" />
		<tag k="ssr:stedsnr" v="221405" />
	</node>
	<node lat="58.9579111112976" lon="9.623380549091056" id="-20131">
		<tag k="fixme" v="consider natural=peak for the most distinct mountains in the district" />
		<tag k="name" v="Løkkås" />
		<tag k="natural" v="hill" />
		<tag k="place" v="locality" />
		<tag k="ssr:stedsnr" v="221396" />
	</node>
	<node lat="58.96528610808446" lon="9.42487499444641" id="-20140">
		<tag k="fixme" v="consider natural=peak for the most distinct mountains in the district" />
		<tag k="name" v="Vittersåsen" />
		<tag k="natural" v="hill" />
		<tag k="place" v="locality" />
		<tag k="ssr:stedsnr" v="223434" />
	</node>
	<node lat="58.99508611044454" lon="9.56746388908186" id="-20141">
		<tag k="name" v="Askedalane" />
		<tag k="natural" v="valley" />
		<tag k="place" v="locality" />
		<tag k="ssr:stedsnr" v="223376" />
	</node>
	<node lat="58.96300833593693" lon="9.52225556421247" id="-20142">
		<tag k="name" v="Steinartjenndalen" />
		<tag k="natural" v="valley" />
		<tag k="place" v="locality" />
		<tag k="ssr:stedsnr" v="223938" />
	</node>
	<node lat="59.11367500345534" lon="9.527474991717401" id="-20148">
		<tag k="fixme" v="consider natural=peak for the most distinct mountains in the district" />
		<tag k="name" v="Kvernkollen" />
		<tag k="natural" v="hill" />
		<tag k="place" v="locality" />
		<tag k="ssr:stedsnr" v="240241" />
	</node>
	<node lat="59.05783333362518" lon="9.63037776999438" id="-20149">
		<tag k="fixme" v="consider natural=peak for the most distinct mountains in the district" />
		<tag k="name" v="Skjerkeåsen" />
		<tag k="natural" v="hill" />
		<tag k="place" v="locality" />
		<tag k="ssr:stedsnr" v="240284" />
	</node>
	<node lat="59.079202778437875" lon="9.610344439801494" id="-20153">
		<tag k="fixme" v="consider natural=peak for the most distinct mountains in the district" />
		<tag k="name" v="Strandåsen" />
		<tag k="natural" v="hill" />
		<tag k="place" v="locality" />
		<tag k="ssr:stedsnr" v="240933" />
	</node>
	<node lat="58.97660277787573" lon="9.63532777580858" id="-20154">
		<tag k="name" v="Grødalen" />
		<tag k="natural" v="valley" />
		<tag k="place" v="locality" />
		<tag k="ssr:stedsnr" v="243605" />
	</node>
	<node lat="59.02092499568501" lon="9.45670277059997" id="-20164">
		<tag k="alt_name" v="Hermanns-ås, vestre;Vestre Hermannsås" />
		<tag k="fixme" v="consider natural=peak for the most distinct mountains in the district" />
		<tag k="name" v="Vestre Hermanns-ås" />
		<tag k="natural" v="hill" />
		<tag k="place" v="locality" />
		<tag k="ssr:stedsnr" v="244689" />
	</node>
	<node lat="59.03043888938584" lon="9.578658338646665" id="-20165">
		<tag k="alt_name" v="Tiurleikåsen" />
		<tag k="fixme" v="consider natural=peak for the most distinct mountains in the district" />
		<tag k="name" v="Tiurleiken" />
		<tag k="natural" v="hill" />
		<tag k="place" v="locality" />
		<tag k="ssr:stedsnr" v="244697" />
	</node>
	<node lat="58.995388887573895" lon="9.319475001765758" id="-20173">
		<tag k="fixme" v="consider natural=peak for the most distinct mountains in the district" />
		<tag k="name" v="Geiteryggen" />
		<tag k="natural" v="hill" />
		<tag k="place" v="locality" />
		<tag k="ssr:stedsnr" v="274426" />
	</node>
	<node lat="59.02391388855862" lon="9.38089444074292" id="-20176">
		<tag k="fixme" v="consider natural=peak for the most distinct mountains in the district" />
		<tag k="name" v="Stavåsen" />
		<tag k="natural" v="hill" />
		<tag k="place" v="locality" />
		<tag k="ssr:stedsnr" v="282109" />
	</node>
	<node lat="59.01116389194477" lon="9.368100004674288" id="-20177">
		<tag k="name" v="Langmyrliane" />
		<tag k="natural" v="slope" />
		<tag k="place" v="locality" />
		<tag k="ssr:stedsnr" v="282112" />
	</node>
	<node lat="58.94213055838382" lon="9.625805556393997" id="-20179">
		<tag k="fixme" v="consider natural=peak for the most distinct mountains in the district" />
		<tag k="name" v="Hønseberg" />
		<tag k="natural" v="hill" />
		<tag k="place" v="locality" />
		<tag k="ssr:stedsnr" v="282307" />
	</node>
	<node lat="59.028341671136026" lon="9.643244438920956" id="-20181">
		<tag k="fixme" v="consider natural=peak for the most distinct mountains in the district" />
		<tag k="name" v="Vingereidåsen" />
		<tag k="natural" v="hill" />
		<tag k="place" v="locality" />
		<tag k="ssr:stedsnr" v="282511" />
	</node>
	<node lat="59.06118889039809" lon="9.579683333895273" id="-20182">
		<tag k="fixme" v="consider natural=peak for the most distinct mountains in the district" />
		<tag k="name" v="Vardås" />
		<tag k="natural" v="hill" />
		<tag k="place" v="locality" />
		<tag k="ssr:stedsnr" v="282619" />
	</node>
	<node lat="58.99762777443405" lon="9.38191110557477" id="-20184">
		<tag k="fixme" v="consider natural=peak for the most distinct mountains in the district" />
		<tag k="name" v="Hestås" />
		<tag k="natural" v="hill" />
		<tag k="place" v="locality" />
		<tag k="ssr:stedsnr" v="282797" />
	</node>
	<node lat="58.961080551897425" lon="9.550505562362627" id="-20189">
		<tag k="fixme" v="consider natural=peak for the most distinct mountains in the district" />
		<tag k="name" v="Bokalåsen" />
		<tag k="natural" v="hill" />
		<tag k="place" v="locality" />
		<tag k="ssr:stedsnr" v="282987" />
	</node>
	<node lat="58.973077780732716" lon="9.41029443840746" id="-20195">
		<tag k="name" v="Ytre dalen" />
		<tag k="natural" v="valley" />
		<tag k="place" v="locality" />
		<tag k="ssr:stedsnr" v="284076" />
	</node>
	<node lat="58.94616666645898" lon="9.420861107334783" id="-20196">
		<tag k="fixme" v="consider natural=peak for the most distinct mountains in the district" />
		<tag k="name" v="Strykås" />
		<tag k="natural" v="hill" />
		<tag k="place" v="locality" />
		<tag k="ssr:stedsnr" v="284402" />
	</node>
	<node lat="58.99435833716959" lon="9.513016669387886" id="-20199">
		<tag k="name" v="Suggetjenndalen" />
		<tag k="natural" v="valley" />
		<tag k="place" v="locality" />
		<tag k="ssr:stedsnr" v="284616" />
	</node>
	<node lat="58.93672222529963" lon="9.423116658940373" id="-20201">
		<tag k="fixme" v="consider natural=peak for the most distinct mountains in the district" />
		<tag k="name" v="Beinmårknuten" />
		<tag k="natural" v="hill" />
		<tag k="place" v="locality" />
		<tag k="ssr:stedsnr" v="284628" />
	</node>
	<node lat="58.955019445956715" lon="9.550616660723886" id="-20206">
		<tag k="fixme" v="consider natural=peak for the most distinct mountains in the district" />
		<tag k="name" v="Bjønnås" />
		<tag k="natural" v="hill" />
		<tag k="place" v="locality" />
		<tag k="ssr:stedsnr" v="284990" />
	</node>
	<node lat="59.03636389142903" lon="9.625927770452272" id="-20210">
		<tag k="name" v="Brådalen" />
		<tag k="natural" v="valley" />
		<tag k="place" v="locality" />
		<tag k="ssr:stedsnr" v="301171" />
	</node>
	<node lat="59.017300004350936" lon="9.662308339768455" id="-20211">
		<tag k="fixme" v="consider natural=peak for the most distinct mountains in the district" />
		<tag k="name" v="Haukebergåsen" />
		<tag k="natural" v="hill" />
		<tag k="place" v="locality" />
		<tag k="ssr:stedsnr" v="464078" />
	</node>
	<node lat="59.01098333583042" lon="9.63975832870606" id="-20212">
		<tag k="fixme" v="consider natural=peak for the most distinct mountains in the district" />
		<tag k="name" v="De brente åsane" />
		<tag k="natural" v="hill" />
		<tag k="place" v="locality" />
		<tag k="ssr:stedsnr" v="464045" />
	</node>
	<node lat="58.996002780630505" lon="9.428113890374595" id="-20216">
		<tag k="alt_name" v="Leiken" />
		<tag k="fixme" v="consider natural=peak for the most distinct mountains in the district" />
		<tag k="name" v="Mosleiken" />
		<tag k="natural" v="hill" />
		<tag k="place" v="locality" />
		<tag k="ssr:stedsnr" v="304323" />
	</node>
	<node lat="59.088630556951486" lon="9.552497222989743" id="-20229">
		<tag k="fixme" v="consider natural=peak for the most distinct mountains in the district" />
		<tag k="name" v="Skoråsen" />
		<tag k="natural" v="hill" />
		<tag k="place" v="locality" />
		<tag k="ssr:stedsnr" v="464938" />
	</node>
	<node lat="59.07364722374602" lon="9.56613055635656" id="-20234">
		<tag k="fixme" v="consider natural=peak for the most distinct mountains in the district" />
		<tag k="name" v="Kristians hei" />
		<tag k="natural" v="hill" />
		<tag k="place" v="locality" />
		<tag k="ssr:stedsnr" v="464951" />
	</node>
	<node lat="59.03948889234859" lon="9.455783324696556" id="-20236">
		<tag k="fixme" v="consider natural=peak for the most distinct mountains in the district" />
		<tag k="name" v="Roligheten" />
		<tag k="natural" v="hill" />
		<tag k="place" v="locality" />
		<tag k="ssr:stedsnr" v="465039" />
	</node>
	<node lat="58.99898611494374" lon="9.323383329214064" id="-20240">
		<tag k="fixme" v="consider natural=peak for the most distinct mountains in the district" />
		<tag k="name" v="Jutmyrkollen" />
		<tag k="natural" v="hill" />
		<tag k="place" v="locality" />
		<tag k="ssr:stedsnr" v="465151" />
	</node>
	<node lat="58.990450003224986" lon="9.561897220156945" id="-20242">
		<tag k="name" v="Vissestadstoe" />
		<tag k="place" v="locality" />
		<tag k="ssr:stedsnr" v="465332" />
	</node>
	<node lat="58.97573333026225" lon="9.385177771003512" id="-20243">
		<tag k="fixme" v="consider natural=peak for the most distinct mountains in the district" />
		<tag k="name" v="Moesleiken" />
		<tag k="natural" v="hill" />
		<tag k="place" v="locality" />
		<tag k="ssr:stedsnr" v="465337" />
	</node>
	<node lat="58.979736112572176" lon="9.522872226993895" id="-20244">
		<tag k="name" v="Svadalen" />
		<tag k="natural" v="valley" />
		<tag k="place" v="locality" />
		<tag k="ssr:stedsnr" v="465688" />
	</node>
	<node lat="59.041830552190326" lon="9.50298332690494" id="-20246">
		<tag k="fixme" v="consider natural=peak for the most distinct mountains in the district" />
		<tag k="name" v="Grønnheia" />
		<tag k="natural" v="hill" />
		<tag k="place" v="locality" />
		<tag k="ssr:stedsnr" v="465783" />
	</node>
	<node lat="59.04918610989407" lon="9.51838333230318" id="-20247">
		<tag k="fixme" v="consider natural=peak for the most distinct mountains in the district" />
		<tag k="name" v="Hjellaråsen" />
		<tag k="natural" v="hill" />
		<tag k="place" v="locality" />
		<tag k="ssr:stedsnr" v="465788" />
	</node>
	<node lat="59.03801666333739" lon="9.691733338398933" id="-20263">
		<tag k="fixme" v="consider natural=peak for the most distinct mountains in the district" />
		<tag k="name" v="Falkås" />
		<tag k="natural" v="hill" />
		<tag k="place" v="locality" />
		<tag k="ssr:stedsnr" v="342697" />
	</node>
	<node lat="58.95203333122223" lon="9.574011103868825" id="-20264">
		<tag k="fixme" v="consider natural=peak for the most distinct mountains in the district" />
		<tag k="name" v="Ørnehei" />
		<tag k="natural" v="hill" />
		<tag k="place" v="locality" />
		<tag k="ssr:stedsnr" v="342817" />
	</node>
	<node lat="58.98998055747626" lon="9.395730550420502" id="-20265">
		<tag k="fixme" v="consider natural=peak for the most distinct mountains in the district" />
		<tag k="name" v="Fiskeroddheia" />
		<tag k="natural" v="hill" />
		<tag k="place" v="locality" />
		<tag k="ssr:stedsnr" v="342577" />
	</node>
	<node lat="58.98923333762867" lon="9.40162223075797" id="-20266">
		<tag k="fixme" v="consider natural=peak for the most distinct mountains in the district" />
		<tag k="name" v="Bufjell" />
		<tag k="natural" v="hill" />
		<tag k="place" v="locality" />
		<tag k="ssr:stedsnr" v="342580" />
	</node>
	<node lat="58.95140277450293" lon="9.598491660355098" id="-20267">
		<tag k="fixme" v="consider natural=peak for the most distinct mountains in the district" />
		<tag k="name" v="Fløyås" />
		<tag k="natural" v="hill" />
		<tag k="place" v="locality" />
		<tag k="ssr:stedsnr" v="342600" />
	</node>
	<node lat="59.064002773340526" lon="9.507538883044111" id="-20269">
		<tag k="fixme" v="consider natural=peak for the most distinct mountains in the district" />
		<tag k="name" v="Skrubbås" />
		<tag k="natural" v="hill" />
		<tag k="place" v="locality" />
		<tag k="ssr:stedsnr" v="344253" />
	</node>
	<node lat="59.00124444626246" lon="9.595083336490317" id="-20271">
		<tag k="fixme" v="consider natural=peak for the most distinct mountains in the district" />
		<tag k="name" v="Hølsåsen" />
		<tag k="natural" v="hill" />
		<tag k="place" v="locality" />
		<tag k="ssr:stedsnr" v="344310" />
	</node>
	<node lat="58.968111108626445" lon="9.448447227203818" id="-20273">
		<tag k="name" v="Bjønndalen" />
		<tag k="natural" v="valley" />
		<tag k="place" v="locality" />
		<tag k="ssr:stedsnr" v="344451" />
	</node>
	<node lat="58.967363890713855" lon="9.464105556891418" id="-20274">
		<tag k="fixme" v="consider natural=peak for the most distinct mountains in the district" />
		<tag k="name" v="Dørdalsheiane" />
		<tag k="natural" v="hill" />
		<tag k="place" v="locality" />
		<tag k="ssr:stedsnr" v="344453" />
	</node>
	<node lat="58.979469444694296" lon="9.471072214690032" id="-20276">
		<tag k="fixme" v="consider natural=peak for the most distinct mountains in the district" />
		<tag k="name" v="Lille Flygeren" />
		<tag k="natural" v="hill" />
		<tag k="place" v="locality" />
		<tag k="ssr:stedsnr" v="344461" />
	</node>
	<node lat="58.99297221893861" lon="9.467963883423677" id="-20277">
		<tag k="alt_name" v="Anundsås" />
		<tag k="fixme" v="consider natural=peak for the most distinct mountains in the district" />
		<tag k="name" v="Krokmyråsen" />
		<tag k="natural" v="hill" />
		<tag k="place" v="locality" />
		<tag k="ssr:stedsnr" v="344497" />
	</node>
	<node lat="59.0297472257334" lon="9.446861107966015" id="-20279">
		<tag k="fixme" v="consider natural=peak for the most distinct mountains in the district" />
		<tag k="name" v="Gruveheia" />
		<tag k="natural" v="hill" />
		<tag k="place" v="locality" />
		<tag k="ssr:stedsnr" v="344502" />
	</node>
	<node lat="58.98093610754478" lon="9.526319441653635" id="-20281">
		<tag k="fixme" v="consider natural=peak for the most distinct mountains in the district" />
		<tag k="name" v="Brann" />
		<tag k="natural" v="hill" />
		<tag k="place" v="locality" />
		<tag k="ssr:stedsnr" v="344702" />
	</node>
	<node lat="58.9785166670697" lon="9.53702222415613" id="-20283">
		<tag k="fixme" v="consider natural=peak for the most distinct mountains in the district" />
		<tag k="name" v="Vardås" />
		<tag k="natural" v="hill" />
		<tag k="place" v="locality" />
		<tag k="ssr:stedsnr" v="344701" />
	</node>
	<node lat="59.01455832944127" lon="9.39031111498977" id="-20299">
		<tag k="alt_name" v="Svarttjernskollane" />
		<tag k="fixme" v="consider natural=peak for the most distinct mountains in the district" />
		<tag k="name" v="Svarttjennhaugane" />
		<tag k="natural" v="hill" />
		<tag k="place" v="locality" />
		<tag k="ssr:stedsnr" v="365689" />
	</node>
	<node lat="59.00980277956656" lon="9.60530277999034" id="-20309">
		<tag k="fixme" v="consider natural=peak for the most distinct mountains in the district" />
		<tag k="name" v="Tjennliåsane" />
		<tag k="natural" v="hill" />
		<tag k="place" v="locality" />
		<tag k="ssr:stedsnr" v="370050" />
	</node>
	<node lat="59.028544444994445" lon="9.708572220522367" id="-20311">
		<tag k="fixme" v="consider natural=peak for the most distinct mountains in the district" />
		<tag k="name" v="Eikfjellet" />
		<tag k="natural" v="hill" />
		<tag k="place" v="locality" />
		<tag k="ssr:stedsnr" v="480139" />
	</node>
	<node lat="58.98725833691219" lon="9.62721110265678" id="-20317">
		<tag k="name" v="Åbydalen" />
		<tag k="natural" v="valley" />
		<tag k="place" v="locality" />
		<tag k="ssr:stedsnr" v="482879" />
	</node>
	<node lat="59.09311944297685" lon="9.511663886932281" id="-20323">
		<tag k="fixme" v="consider natural=peak for the most distinct mountains in the district" />
		<tag k="name" v="Midtbuktheia" />
		<tag k="natural" v="hill" />
		<tag k="place" v="locality" />
		<tag k="ssr:stedsnr" v="483549" />
	</node>
	<node lat="59.03519722476585" lon="9.428111106093624" id="-20325">
		<tag k="fixme" v="consider natural=peak for the most distinct mountains in the district" />
		<tag k="name" v="Høgenhei" />
		<tag k="natural" v="hill" />
		<tag k="place" v="locality" />
		<tag k="ssr:stedsnr" v="403102" />
	</node>
	<node lat="59.01308055367654" lon="9.381575004679538" id="-20326">
		<tag k="fixme" v="consider natural=peak for the most distinct mountains in the district" />
		<tag k="name" v="Mårfella" />
		<tag k="natural" v="hill" />
		<tag k="place" v="locality" />
		<tag k="ssr:stedsnr" v="403107" />
	</node>
	<node lat="59.01796388639087" lon="9.69504722151697" id="-20328">
		<tag k="fixme" v="consider natural=peak for the most distinct mountains in the district" />
		<tag k="name" v="Rognsheia" />
		<tag k="natural" v="hill" />
		<tag k="place" v="locality" />
		<tag k="ssr:stedsnr" v="403074" />
	</node>
	<node lat="58.94879722092548" lon="9.574402773330016" id="-20331">
		<tag k="fixme" v="consider natural=peak for the most distinct mountains in the district" />
		<tag k="name" v="Spanbakkåsen" />
		<tag k="natural" v="hill" />
		<tag k="place" v="locality" />
		<tag k="ssr:stedsnr" v="403624" />
	</node>
	<node lat="58.960177780095876" lon="9.599944437604112" id="-20332">
		<tag k="fixme" v="consider natural=peak for the most distinct mountains in the district" />
		<tag k="name" v="Moltemyråsen" />
		<tag k="natural" v="hill" />
		<tag k="place" v="locality" />
		<tag k="ssr:stedsnr" v="403835" />
	</node>
	<node lat="59.03120555771421" lon="9.598744445313347" id="-20333">
		<tag k="fixme" v="consider natural=peak for the most distinct mountains in the district" />
		<tag k="name" v="Karis ås" />
		<tag k="natural" v="hill" />
		<tag k="place" v="locality" />
		<tag k="ssr:stedsnr" v="403882" />
	</node>
	<node lat="58.985858336004526" lon="9.629977775244688" id="-20335">
		<tag k="fixme" v="consider natural=peak for the most distinct mountains in the district" />
		<tag k="name" v="Husekeråsen" />
		<tag k="natural" v="hill" />
		<tag k="place" v="locality" />
		<tag k="ssr:stedsnr" v="403901" />
	</node>
	<node lat="58.97512222655261" lon="9.410372221304431" id="-20338">
		<tag k="fixme" v="consider natural=peak for the most distinct mountains in the district" />
		<tag k="name" v="Dalheia" />
		<tag k="natural" v="hill" />
		<tag k="place" v="locality" />
		<tag k="ssr:stedsnr" v="405102" />
	</node>
	<node lat="59.06807221979916" lon="9.521741666632142" id="-20339">
		<tag k="name" v="Dropledalen" />
		<tag k="natural" v="valley" />
		<tag k="place" v="locality" />
		<tag k="ssr:stedsnr" v="405243" />
	</node>
	<node lat="59.00283611377011" lon="9.598427772813032" id="-20341">
		<tag k="fixme" v="consider natural=peak for the most distinct mountains in the district" />
		<tag k="name" v="Furuheia" />
		<tag k="natural" v="hill" />
		<tag k="place" v="locality" />
		<tag k="ssr:stedsnr" v="405317" />
	</node>
	<node lat="58.98921111340685" lon="9.564847219842365" id="-20343">
		<tag k="name" v="Seterlia" />
		<tag k="natural" v="slope" />
		<tag k="place" v="locality" />
		<tag k="ssr:stedsnr" v="405349" />
	</node>
	<node lat="58.934355555046885" lon="9.544174995171733" id="-20346">
		<tag k="fixme" v="consider natural=peak for the most distinct mountains in the district" />
		<tag k="name" v="Kvernåsen" />
		<tag k="natural" v="hill" />
		<tag k="place" v="locality" />
		<tag k="ssr:stedsnr" v="405750" />
	</node>
	<node lat="58.94950833780898" lon="9.517711108083615" id="-20350">
		<tag k="fixme" v="consider natural=peak for the most distinct mountains in the district" />
		<tag k="name" v="Storhei" />
		<tag k="natural" v="hill" />
		<tag k="place" v="locality" />
		<tag k="ssr:stedsnr" v="405994" />
	</node>
	<node lat="59.01983888492794" lon="9.728074993157342" id="-20354">
		<tag k="name" v="Vassdalåsen" />
		<tag k="natural" v="hill" />
		<tag k="place" v="locality" />
		<tag k="ssr:stedsnr" v="486257" />
	</node>
</osm>
