<?xml version="1.0" encoding="UTF-8"?>
<osm version="0.6" generator="osmapis">
	<node lat="58.96210833638958" lon="9.47212221552337" id="-23738">
		<tag k="name" v="Dørdal" />
		<tag k="place" v="farm" />
		<tag k="ssr:stedsnr" v="1301" />
	</node>
	<node lat="58.95348333487314" lon="9.588399995133692" id="-23739">
		<tag k="name" v="Kjørstad" />
		<tag k="place" v="farm" />
		<tag k="ssr:stedsnr" v="1312" />
	</node>
	<node lat="58.960827780695695" lon="9.442663885437941" id="-23740">
		<tag k="alt_name" v="Seteren" />
		<tag k="name" v="Sæteren" />
		<tag k="place" v="farm" />
		<tag k="ssr:stedsnr" v="1299" />
	</node>
	<node lat="59.04402058574283" lon="9.706212088897711" id="-23741">
		<tag k="name" v="Gjermundsholmen" />
		<tag k="old_name" v="Croftsholmen" />
		<tag k="place" v="islet" />
		<tag k="ssr:stedsnr" v="1494" />
	</node>
	<node lat="59.00211666635565" lon="9.755377785401361" id="-23742">
		<tag k="name" v="Langøya" />
		<tag k="place" v="island" />
		<tag k="ssr:stedsnr" v="1601" />
	</node>
	<node lat="58.98246110922873" lon="9.749258339611506" id="-23743">
		<tag k="fixme" v="consider seamark:type=rock or natural=shoal" />
		<tag k="name" v="Skjeregg" />
		<tag k="place" v="islet" />
		<tag k="ssr:stedsnr" v="1612" />
	</node>
	<node lat="58.973924996481514" lon="9.619797226608096" id="-23744">
		<tag k="fixme" v="consider place=hamlet" />
		<tag k="name" v="Dal" />
		<tag k="place" v="farm" />
		<tag k="ssr:stedsnr" v="1617" />
	</node>
	<node lat="59.005197149847696" lon="9.443028190660273" id="-23745">
		<tag k="alt_name" v="Lønnrøkkvannet" />
		<tag k="name" v="Lønnrikvannet" />
		<tag k="natural" v="water" />
		<tag k="ssr:stedsnr" v="1679" />
	</node>
	<node lat="59.04697777607535" lon="9.421255550737685" id="-23746">
		<tag k="alt_name" v="Rørholtlangen" />
		<tag k="name" v="Langen" />
		<tag k="natural" v="water" />
		<tag k="ssr:stedsnr" v="1836" />
		<tag k="water" v="lake" />
	</node>
	<node lat="58.955394443745355" lon="9.42990554726361" id="-23748">
		<tag k="bridge" v="yes" />
		<tag k="layer" v="1" />
		<tag k="name" v="Bakkevann" />
		<tag k="ssr:stedsnr" v="229954" />
	</node>
	<node lat="59.06626389319064" lon="9.593566672012894" id="-23749">
		<tag k="alt_name" v="Klepp" />
		<tag k="name" v="Klepp" />
		<tag k="place" v="farm" />
		<tag k="ssr:stedsnr" v="2276" />
	</node>
	<node lat="59.02388888885234" lon="9.705636119225051" id="-23750">
		<tag k="alt_name" v="Sundbykosa" />
		<tag k="name" v="Sundbykåsa" />
		<tag k="place" v="farm" />
		<tag k="ssr:stedsnr" v="2288" />
	</node>
	<node lat="59.02858889032881" lon="9.63230555172411" id="-23751">
		<tag k="alt_name" v="Vingereid" />
		<tag k="fixme" v="consider place=hamlet" />
		<tag k="name" v="Vingerei" />
		<tag k="place" v="farm" />
		<tag k="ssr:stedsnr" v="2499" />
	</node>
	<node lat="58.94658611311528" lon="9.607324999850052" id="-23752">
		<tag k="name" v="Byttingholmen" />
		<tag k="place" v="islet" />
		<tag k="ssr:stedsnr" v="24483" />
	</node>
	<node lat="58.95110277987629" lon="9.607422217078158" id="-23753">
		<tag k="name" v="Kjørstad" />
		<tag k="place" v="farm" />
		<tag k="ssr:stedsnr" v="24485" />
	</node>
	<node lat="59.05043888845541" lon="9.588652777904421" id="-23754">
		<tag k="name" v="Siljanmyr" />
		<tag k="natural" v="wetland" />
		<tag k="ssr:stedsnr" v="24906" />
	</node>
	<node lat="58.93018610718325" lon="9.51886388605876" id="-23755">
		<tag k="alt_name" v="Hovbukta" />
		<tag k="name" v="Hovbukta" />
		<tag k="natural" v="bay" />
		<tag k="ssr:stedsnr" v="25686" />
	</node>
	<node lat="58.942169445613914" lon="9.415775000579146" id="-23756">
		<tag k="name" v="Byttøya" />
		<tag k="place" v="islet" />
		<tag k="ssr:stedsnr" v="29502" />
	</node>
	<node lat="59.01740277714198" lon="9.730338893193782" id="-23757">
		<tag k="name" v="Skaugdammen" />
		<tag k="natural" v="water" />
		<tag k="ssr:stedsnr" v="235749" />
	</node>
	<node lat="59.04583611160631" lon="9.699069449992566" id="-23758">
		<tag k="name" v="Åsen" />
		<tag k="place" v="locality" />
		<tag k="ssr:stedsnr" v="38803" />
	</node>
	<node lat="59.03154166619675" lon="9.67844166559797" id="-23759">
		<tag k="name" v="Stokke" />
		<tag k="place" v="farm" />
		<tag k="ssr:stedsnr" v="38823" />
	</node>
	<node lat="59.05029334684299" lon="9.675262627199572" id="-23760">
		<tag k="fixme" v="consider place=hamlet" />
		<tag k="name" v="Nordre Rugtvedt" />
		<tag k="place" v="farm" />
		<tag k="ssr:stedsnr" v="38827" />
	</node>
	<node lat="59.01049999765158" lon="9.674730562753968" id="-23761">
		<tag k="fixme" v="consider natural=peak for the most distinct mountains in the district" />
		<tag k="name" v="Risåsen" />
		<tag k="natural" v="hill" />
		<tag k="place" v="locality" />
		<tag k="ssr:stedsnr" v="39063" />
	</node>
	<node lat="59.03355833562614" lon="9.38988333093487" id="-23762">
		<tag k="name" v="Ålekartjennkilen" />
		<tag k="natural" v="bay" />
		<tag k="ssr:stedsnr" v="39078" />
	</node>
	<node lat="58.98526666602108" lon="9.558205560770633" id="-23763">
		<tag k="name" v="Rønholtdalen" />
		<tag k="natural" v="valley" />
		<tag k="place" v="locality" />
		<tag k="ssr:stedsnr" v="39508" />
	</node>
	<node lat="58.98131666626301" lon="9.563272222673708" id="-23764">
		<tag k="name" v="Stormyra" />
		<tag k="natural" v="wetland" />
		<tag k="ssr:stedsnr" v="39511" />
	</node>
	<node lat="58.98508611482064" lon="9.585022218103438" id="-23765">
		<tag k="highway" v="path" />
		<tag k="name" v="Seterliveien" />
		<tag k="ssr:stedsnr" v="39543" />
	</node>
	<node lat="59.052741664090505" lon="9.59795277244001" id="-23766">
		<tag k="name" v="Dypedal" />
		<tag k="natural" v="valley" />
		<tag k="place" v="locality" />
		<tag k="ssr:stedsnr" v="39612" />
	</node>
	<node lat="59.06183888972626" lon="9.59970278507515" id="-23767">
		<tag k="name" v="Berg" />
		<tag k="place" v="farm" />
		<tag k="ssr:stedsnr" v="39620" />
	</node>
	<node lat="58.94828332904704" lon="9.466483339470868" id="-23768">
		<tag k="name" v="Svenstangen" />
		<tag k="natural" v="cape" />
		<tag k="ssr:stedsnr" v="39621" />
	</node>
	<node lat="59.04479444504427" lon="9.617413882060001" id="-23769">
		<tag k="fixme" v="consider natural=peak for the most distinct mountains in the district" />
		<tag k="name" v="Solås" />
		<tag k="natural" v="hill" />
		<tag k="place" v="locality" />
		<tag k="ssr:stedsnr" v="39674" />
	</node>
	<node lat="58.962977773402464" lon="9.682975002434356" id="-23770">
		<tag k="name" v="Presteskjæra" />
		<tag k="place" v="islet" />
		<tag k="ssr:stedsnr" v="39803" />
	</node>
	<node lat="58.96575833356305" lon="9.70183610289277" id="-23771">
		<tag k="name" v="Såsteinbråtta" />
		<tag k="place" v="islet" />
		<tag k="ssr:stedsnr" v="39804" />
	</node>
	<node lat="59.03460000069662" lon="9.592697229095398" id="-23772">
		<tag k="fixme" v="consider natural=peak for the most distinct mountains in the district" />
		<tag k="name" v="Bestefarsåsen" />
		<tag k="natural" v="hill" />
		<tag k="place" v="locality" />
		<tag k="ssr:stedsnr" v="39868" />
	</node>
	<node lat="59.03336944051588" lon="9.560605559301278" id="-23773">
		<tag k="name" v="Øvre Heivann" />
		<tag k="natural" v="water" />
		<tag k="ssr:stedsnr" v="39879" />
	</node>
	<node lat="59.04905833288367" lon="9.49546388510855" id="-23774">
		<tag k="fixme" v="consider natural=peak for the most distinct mountains in the district" />
		<tag k="name" v="Viksheia" />
		<tag k="natural" v="hill" />
		<tag k="place" v="locality" />
		<tag k="ssr:stedsnr" v="40067" />
	</node>
	<node lat="58.971230554879035" lon="9.610502783066018" id="-23775">
		<tag k="fixme" v="consider natural=peak for the most distinct mountains in the district" />
		<tag k="name" v="Gulmyråsen" />
		<tag k="natural" v="hill" />
		<tag k="place" v="locality" />
		<tag k="ssr:stedsnr" v="39903" />
	</node>
	<node lat="58.965322226546235" lon="9.576549998948675" id="-23776">
		<tag k="name" v="Tjennkåsa" />
		<tag k="place" v="farm" />
		<tag k="ssr:stedsnr" v="39908" />
	</node>
	<node lat="58.96452500028656" lon="9.587111110352497" id="-23777">
		<tag k="fixme" v="consider natural=peak for the most distinct mountains in the district" />
		<tag k="name" v="Kalvehagheia" />
		<tag k="natural" v="hill" />
		<tag k="place" v="locality" />
		<tag k="ssr:stedsnr" v="39918" />
	</node>
	<node lat="58.98350833341668" lon="9.640138895935586" id="-23778">
		<tag k="fixme" v="consider natural=peak for the most distinct mountains in the district" />
		<tag k="name" v="Strammestasjonåsen" />
		<tag k="natural" v="hill" />
		<tag k="place" v="locality" />
		<tag k="ssr:stedsnr" v="39919" />
	</node>
	<node lat="58.99204722248186" lon="9.405844451239536" id="-23779">
		<tag k="name" v="Mosfjell" />
		<tag k="natural" v="hill" />
		<tag k="place" v="locality" />
		<tag k="ssr:stedsnr" v="39963" />
	</node>
	<node lat="59.024552778639496" lon="9.565563896711058" id="-23780">
		<tag k="fixme" v="consider natural=peak for the most distinct mountains in the district" />
		<tag k="name" v="Elises ås" />
		<tag k="natural" v="hill" />
		<tag k="place" v="locality" />
		<tag k="ssr:stedsnr" v="40382" />
	</node>
	<node lat="59.02190555507589" lon="9.58978056109662" id="-23781">
		<tag k="name" v="Dypedal" />
		<tag k="natural" v="valley" />
		<tag k="place" v="locality" />
		<tag k="ssr:stedsnr" v="40445" />
	</node>
	<node lat="59.018202777715906" lon="9.583366662122494" id="-23782">
		<tag k="name" v="Hestemyra" />
		<tag k="natural" v="wetland" />
		<tag k="ssr:stedsnr" v="40447" />
	</node>
	<node lat="58.99621110665088" lon="9.488283337884505" id="-23783">
		<tag k="fixme" v="consider natural=peak for the most distinct mountains in the district" />
		<tag k="name" v="Tråvannsheiane" />
		<tag k="natural" v="hill" />
		<tag k="place" v="locality" />
		<tag k="ssr:stedsnr" v="40504" />
	</node>
	<node lat="59.04488055256121" lon="9.452955548005452" id="-23784">
		<tag k="fixme" v="consider natural=peak for the most distinct mountains in the district" />
		<tag k="name" v="Fisketjennåsane" />
		<tag k="natural" v="hill" />
		<tag k="place" v="locality" />
		<tag k="ssr:stedsnr" v="41068" />
	</node>
	<node lat="59.00313611436139" lon="9.581713890668142" id="-23785">
		<tag k="name" v="Øvre Stemmen" />
		<tag k="place" v="locality" />
		<tag k="ssr:stedsnr" v="41342" />
	</node>
	<node lat="58.95407499837129" lon="9.399619447173306" id="-23786">
		<tag k="name" v="Søndre Stormyr" />
		<tag k="natural" v="wetland" />
		<tag k="ssr:stedsnr" v="41404" />
	</node>
	<node lat="58.945727776370134" lon="9.426372224567762" id="-23787">
		<tag k="name" v="Lindrostjenn" />
		<tag k="natural" v="water" />
		<tag k="ssr:stedsnr" v="41406" />
	</node>
	<node lat="59.03683611288315" lon="9.529141675261153" id="-23788">
		<tag k="name" v="Kringlemyr" />
		<tag k="natural" v="wetland" />
		<tag k="ssr:stedsnr" v="41776" />
	</node>
	<node lat="59.009186110881906" lon="9.358819438363618" id="-23789">
		<tag k="fixme" v="consider natural=peak for the most distinct mountains in the district" />
		<tag k="name" v="Hullhei" />
		<tag k="natural" v="hill" />
		<tag k="place" v="locality" />
		<tag k="ssr:stedsnr" v="41822" />
	</node>
	<node lat="58.94134166468281" lon="9.506969444563476" id="-23790">
		<tag k="name" v="Grimsrødtjenn" />
		<tag k="natural" v="water" />
		<tag k="ssr:stedsnr" v="41855" />
	</node>
	<node lat="58.922825001268556" lon="9.563427785599757" id="-23791">
		<tag k="name" v="Vågøysundet" />
		<tag k="natural" v="strait" />
		<tag k="ssr:stedsnr" v="41976" />
	</node>
	<node lat="59.00771944509864" lon="9.725919448822351" id="-23792">
		<tag k="fixme" v="consider place=suburb, village or hamlet" />
		<tag k="name" v="Nustad eiendom" />
		<tag k="place" v="quarter" />
		<tag k="ssr:stedsnr" v="42874" />
	</node>
	<node lat="58.987736109174115" lon="9.705002783755608" id="-23793">
		<tag k="name" v="Havneskjærodden" />
		<tag k="natural" v="cape" />
		<tag k="ssr:stedsnr" v="237646" />
	</node>
	<node lat="59.050758336853654" lon="9.684277773346745" id="-23794">
		<tag k="name" v="Krabberødbåen" />
		<tag k="place" v="locality" />
		<tag k="seamark:type" v="rock" />
		<tag k="ssr:stedsnr" v="238125" />
	</node>
	<node lat="59.03031666516294" lon="9.660002785427956" id="-23795">
		<tag k="name" v="Gjerset" />
		<tag k="place" v="farm" />
		<tag k="ssr:stedsnr" v="238163" />
	</node>
	<node lat="59.00850277494282" lon="9.74150278298895" id="-23796">
		<tag k="name" v="Halen" />
		<tag k="place" v="farm" />
		<tag k="ssr:stedsnr" v="238572" />
	</node>
	<node lat="59.10983055985403" lon="9.553302781979994" id="-23797">
		<tag k="name" v="Siljan" />
		<tag k="place" v="farm" />
		<tag k="ssr:stedsnr" v="48710" />
	</node>
	<node lat="58.98797221900227" lon="9.67918611513085" id="-23798">
		<tag k="name" v="Marikova" />
		<tag k="natural" v="strait" />
		<tag k="ssr:stedsnr" v="238677" />
	</node>
	<node lat="59.07418610995335" lon="9.61871944801117" id="-23799">
		<tag k="fixme" v="consider natural=peak for the most distinct mountains in the district" />
		<tag k="name" v="Rønningåsen" />
		<tag k="natural" v="hill" />
		<tag k="place" v="locality" />
		<tag k="ssr:stedsnr" v="49588" />
	</node>
	<node lat="58.99561666787155" lon="9.612180557621672" id="-23800">
		<tag k="fixme" v="consider natural=peak for the most distinct mountains in the district" />
		<tag k="name" v="Hansesås" />
		<tag k="natural" v="hill" />
		<tag k="place" v="locality" />
		<tag k="ssr:stedsnr" v="240254" />
	</node>
	<node lat="59.0332833291378" lon="9.71726110650992" id="-23801">
		<tag k="highway" v="bus_stop" />
		<tag k="name" v="Doktorodden" />
		<tag k="ssr:stedsnr" v="53083" />
	</node>
	<node lat="59.04809444083303" lon="9.693444441703743" id="-23802">
		<tag k="name" v="Mølletangen" />
		<tag k="natural" v="cape" />
		<tag k="ssr:stedsnr" v="56120" />
	</node>
	<node lat="59.12042777455432" lon="9.520277772069086" id="-23803">
		<tag k="fixme" v="consider natural=peak for the most distinct mountains in the district" />
		<tag k="name" v="Holaåsen" />
		<tag k="natural" v="hill" />
		<tag k="place" v="locality" />
		<tag k="ssr:stedsnr" v="56782" />
	</node>
	<node lat="59.11658055788476" lon="9.531099995741872" id="-23804">
		<tag k="name" v="Siljanmyra" />
		<tag k="natural" v="wetland" />
		<tag k="ssr:stedsnr" v="240162" />
	</node>
	<node lat="59.03362500119346" lon="9.615499997173606" id="-23805">
		<tag k="name" v="Postmyr" />
		<tag k="natural" v="wetland" />
		<tag k="ssr:stedsnr" v="58209" />
	</node>
	<node lat="59.06442222523851" lon="9.616999997800438" id="-23806">
		<tag k="name" v="Larønningen" />
		<tag k="place" v="farm" />
		<tag k="ssr:stedsnr" v="58514" />
	</node>
	<node lat="59.09011111090473" lon="9.531313896501402" id="-23807">
		<tag k="name" v="Den farlige myra" />
		<tag k="natural" v="wetland" />
		<tag k="ssr:stedsnr" v="58525" />
	</node>
	<node lat="59.100811114706325" lon="9.54505833893912" id="-23808">
		<tag k="name" v="Lukashagen" />
		<tag k="place" v="quarter" />
		<tag k="ssr:stedsnr" v="58576" />
	</node>
	<node lat="59.07760000254821" lon="9.631527785522627" id="-23809">
		<tag k="name" v="Feskjæra" />
		<tag k="natural" v="cape" />
		<tag k="ssr:stedsnr" v="58896" />
	</node>
	<node lat="58.987708332526005" lon="9.674316668041168" id="-23810">
		<tag k="name" v="Kattholmen" />
		<tag k="place" v="islet" />
		<tag k="ssr:stedsnr" v="240443" />
	</node>
	<node lat="59.08030555203111" lon="9.52020832624938" id="-23811">
		<tag k="name" v="Tjærebrennerbukta" />
		<tag k="natural" v="bay" />
		<tag k="ssr:stedsnr" v="240445" />
	</node>
	<node lat="59.10442777444888" lon="9.539924998922027" id="-23812">
		<tag k="name" v="Løkkadalen" />
		<tag k="natural" v="valley" />
		<tag k="place" v="locality" />
		<tag k="ssr:stedsnr" v="240564" />
	</node>
	<node lat="59.095680556798925" lon="9.50939166133399" id="-23813">
		<tag k="name" v="Skarketjenn" />
		<tag k="natural" v="water" />
		<tag k="ssr:stedsnr" v="240573" />
	</node>
	<node lat="59.02378610780236" lon="9.61100278071287" id="-23814">
		<tag k="fixme" v="consider natural=peak for the most distinct mountains in the district" />
		<tag k="name" v="Snaråsane" />
		<tag k="natural" v="hill" />
		<tag k="place" v="locality" />
		<tag k="ssr:stedsnr" v="62475" />
	</node>
	<node lat="59.03799722373963" lon="9.650408329022198" id="-23815">
		<tag k="name" v="Rønningen" />
		<tag k="place" v="farm" />
		<tag k="ssr:stedsnr" v="62480" />
	</node>
	<node lat="59.03947222363558" lon="9.65390555893682" id="-23816">
		<tag k="fixme" v="consider place=hamlet" />
		<tag k="name" v="Roverød" />
		<tag k="place" v="farm" />
		<tag k="ssr:stedsnr" v="62481" />
	</node>
	<node lat="59.03242222403751" lon="9.52921388835412" id="-23817">
		<tag k="alt_name" v="Skogen, midtre" />
		<tag k="name" v="Midtre Skogen" />
		<tag k="place" v="farm" />
		<tag k="ssr:stedsnr" v="62668" />
	</node>
	<node lat="59.00816388617297" lon="9.437383324612142" id="-23818">
		<tag k="fixme" v="consider natural=peak for the most distinct mountains in the district" />
		<tag k="name" v="Fjølbuheia" />
		<tag k="natural" v="hill" />
		<tag k="place" v="locality" />
		<tag k="ssr:stedsnr" v="62685" />
	</node>
	<node lat="59.039724997390415" lon="9.52743055694306" id="-23819">
		<tag k="name" v="Langås" />
		<tag k="place" v="locality" />
		<tag k="ssr:stedsnr" v="62820" />
	</node>
	<node lat="59.06870000219012" lon="9.572747228642678" id="-23820">
		<tag k="alt_name" v="Kleppsæter" />
		<tag k="name" v="Kleppseter" />
		<tag k="place" v="farm" />
		<tag k="ssr:stedsnr" v="62874" />
	</node>
	<node lat="58.964788893384906" lon="9.59659999172907" id="-23821">
		<tag k="name" v="Rønningen" />
		<tag k="place" v="farm" />
		<tag k="ssr:stedsnr" v="62882" />
	</node>
	<node lat="58.967836114136105" lon="9.627919441821827" id="-23822">
		<tag k="fixme" v="consider place=hamlet" />
		<tag k="name" v="Rakkestad" />
		<tag k="place" v="farm" />
		<tag k="ssr:stedsnr" v="62883" />
	</node>
	<node lat="59.10087777838581" lon="9.540138893298664" id="-23823">
		<tag k="fixme" v="consider natural=peak for the most distinct mountains in the district" />
		<tag k="name" v="Hellestvedtåsen" />
		<tag k="natural" v="hill" />
		<tag k="place" v="locality" />
		<tag k="ssr:stedsnr" v="240971" />
	</node>
	<node lat="58.93900277777038" lon="9.591488887273721" id="-23824">
		<tag k="name" v="Sekkekilen" />
		<tag k="place" v="farm" />
		<tag k="ssr:stedsnr" v="243238" />
	</node>
	<node lat="58.92665277620669" lon="9.578847220459137" id="-23825">
		<tag k="alt_name" v="Breidsanden" />
		<tag k="name" v="Breisand" />
		<tag k="place" v="farm" />
		<tag k="ssr:stedsnr" v="243251" />
	</node>
	<node lat="58.9823805580225" lon="9.480486117543181" id="-23826">
		<tag k="alt_name" v="Gånge" />
		<tag k="fixme" v="consider place=hamlet" />
		<tag k="name" v="Gonge" />
		<tag k="place" v="farm" />
		<tag k="ssr:stedsnr" v="243306" />
	</node>
	<node lat="58.97956111311597" lon="9.466811117809877" id="-23827">
		<tag k="alt_name" v="Flattjern" />
		<tag k="name" v="Flattjenn" />
		<tag k="natural" v="water" />
		<tag k="ssr:stedsnr" v="243307" />
	</node>
	<node lat="58.977500002628815" lon="9.446288881506689" id="-23828">
		<tag k="name" v="Kåsa" />
		<tag k="place" v="locality" />
		<tag k="ssr:stedsnr" v="243328" />
	</node>
	<node lat="58.932475001633115" lon="9.625325000947798" id="-23830">
		<tag k="name" v="Stangholmen" />
		<tag k="place" v="islet" />
		<tag k="ssr:stedsnr" v="243922" />
	</node>
	<node lat="59.01567500397711" lon="9.745155557385583" id="-23831">
		<tag k="name" v="Fagerheim" />
		<tag k="place" v="farm" />
		<tag k="ssr:stedsnr" v="244252" />
	</node>
	<node lat="59.01378888958623" lon="9.704786106507145" id="-23832">
		<tag k="fixme" v="consider place=hamlet" />
		<tag k="name" v="Fjellstad" />
		<tag k="place" v="farm" />
		<tag k="ssr:stedsnr" v="244254" />
	</node>
	<node lat="59.05554999793825" lon="9.640888891309128" id="-23833">
		<tag k="name" v="Skjerkøya" />
		<tag k="natural" v="cape" />
		<tag k="ssr:stedsnr" v="244455" />
	</node>
	<node lat="59.04433610697455" lon="9.651024993293644" id="-23834">
		<tag k="alt_name" v="Finndal" />
		<tag k="name" v="Findal" />
		<tag k="place" v="farm" />
		<tag k="ssr:stedsnr" v="244524" />
	</node>
	<node lat="58.99847499615263" lon="9.681824993943865" id="-23835">
		<tag k="name" v="Kløvsgård" />
		<tag k="place" v="farm" />
		<tag k="ssr:stedsnr" v="244619" />
	</node>
	<node lat="59.04376944085747" lon="9.578413894415311" id="-23836">
		<tag k="alt_name" v="Lindtjern" />
		<tag k="name" v="Lindtjenn" />
		<tag k="natural" v="water" />
		<tag k="ssr:stedsnr" v="244854" />
	</node>
	<node lat="59.06081110694696" lon="9.515736102358975" id="-23837">
		<tag k="alt_name" v="Hovsteintjern" />
		<tag k="name" v="Hofsteintjenna" />
		<tag k="natural" v="water" />
		<tag k="ssr:stedsnr" v="244858" />
	</node>
	<node lat="59.052900001765295" lon="9.462061113687286" id="-23838">
		<tag k="alt_name" v="Seterhaugane" />
		<tag k="fixme" v="consider natural=peak for the most distinct mountains in the district" />
		<tag k="name" v="Sæterhaugane" />
		<tag k="natural" v="hill" />
		<tag k="place" v="locality" />
		<tag k="ssr:stedsnr" v="244867" />
	</node>
	<node lat="58.96911111309107" lon="9.65304166976592" id="-23839">
		<tag k="name" v="Haralds øy" />
		<tag k="place" v="island" />
		<tag k="ssr:stedsnr" v="85424" />
	</node>
	<node lat="58.99623055562831" lon="9.71513333841222" id="-23840">
		<tag k="name" v="Rognsbåen" />
		<tag k="place" v="locality" />
		<tag k="seamark:type" v="rock" />
		<tag k="ssr:stedsnr" v="85426" />
	</node>
	<node lat="58.93107778050864" lon="9.614627771564352" id="-23841">
		<tag k="fixme" v="consider seamark:type=rock or natural=shoal" />
		<tag k="name" v="Mastskjær" />
		<tag k="place" v="islet" />
		<tag k="ssr:stedsnr" v="85484" />
	</node>
	<node lat="58.93564166721392" lon="9.658038890391662" id="-23842">
		<tag k="name" v="Bjørnøybåen" />
		<tag k="place" v="locality" />
		<tag k="seamark:type" v="rock" />
		<tag k="ssr:stedsnr" v="85378" />
	</node>
	<node lat="59.0415222208556" lon="9.562416670174743" id="-23843">
		<tag k="fixme" v="consider natural=peak for the most distinct mountains in the district" />
		<tag k="name" v="Svarttjennheia" />
		<tag k="natural" v="hill" />
		<tag k="place" v="locality" />
		<tag k="ssr:stedsnr" v="85878" />
	</node>
	<node lat="58.92706944073427" lon="9.561700008422704" id="-23844">
		<tag k="bay" v="fjord" />
		<tag k="name" v="Vågøyfjord" />
		<tag k="natural" v="bay" />
		<tag k="ssr:stedsnr" v="85992" />
	</node>
	<node lat="58.92628610949225" lon="9.586266666187147" id="-23845">
		<tag k="name" v="Buktene" />
		<tag k="place" v="isolated_dwelling" />
		<tag k="ssr:stedsnr" v="86000" />
	</node>
	<node lat="59.0399611154363" lon="9.672294452714782" id="-23846">
		<tag k="amenity" v="school" />
		<tag k="name" v="Rugtvedt" />
		<tag k="ssr:stedsnr" v="99815" />
	</node>
	<node lat="59.019491667888786" lon="9.396574999668584" id="-23847">
		<tag k="fixme" v="consider natural=peak for the most distinct mountains in the district" />
		<tag k="name" v="Brenthei" />
		<tag k="natural" v="hill" />
		<tag k="place" v="locality" />
		<tag k="ssr:stedsnr" v="100013" />
	</node>
	<node lat="59.01307103046224" lon="9.397575551112963" id="-23848">
		<tag k="name" v="Småtjennane" />
		<tag k="natural" v="water" />
		<tag k="ssr:stedsnr" v="100019" />
	</node>
	<node lat="58.986149997033024" lon="9.637849998453062" id="-23849">
		<tag k="name" v="Jåtemyr" />
		<tag k="natural" v="wetland" />
		<tag k="ssr:stedsnr" v="99903" />
	</node>
	<node lat="58.93860277590323" lon="9.623874996801982" id="-23850">
		<tag k="name" v="Hafsundtangen" />
		<tag k="natural" v="cape" />
		<tag k="ssr:stedsnr" v="99913" />
	</node>
	<node lat="59.030483334844945" lon="9.692769442087506" id="-23851">
		<tag k="fixme" v="consider natural=peak for the most distinct mountains in the district" />
		<tag k="name" v="Hekkelberget" />
		<tag k="natural" v="hill" />
		<tag k="place" v="locality" />
		<tag k="ssr:stedsnr" v="100120" />
	</node>
	<node lat="58.961966666662846" lon="9.61319999592622" id="-23852">
		<tag k="fixme" v="consider natural=peak for the most distinct mountains in the district" />
		<tag k="name" v="Vinterstøåsen" />
		<tag k="natural" v="hill" />
		<tag k="place" v="locality" />
		<tag k="ssr:stedsnr" v="100409" />
	</node>
	<node lat="58.97115833160736" lon="9.592294450930021" id="-23853">
		<tag k="fixme" v="consider natural=peak for the most distinct mountains in the district" />
		<tag k="name" v="Maurhaugane" />
		<tag k="natural" v="hill" />
		<tag k="place" v="locality" />
		<tag k="ssr:stedsnr" v="100412" />
	</node>
	<node lat="58.99058333440114" lon="9.40006111979331" id="-23854">
		<tag k="name" v="Mo nedre" />
		<tag k="place" v="farm" />
		<tag k="ssr:stedsnr" v="100620" />
	</node>
	<node lat="58.94986111362792" lon="9.585491671446203" id="-23855">
		<tag k="fixme" v="consider natural=peak for the most distinct mountains in the district" />
		<tag k="name" v="Skredderhaugen" />
		<tag k="natural" v="hill" />
		<tag k="place" v="locality" />
		<tag k="ssr:stedsnr" v="100624" />
	</node>
	<node lat="58.993933334933516" lon="9.356422225880571" id="-23856">
		<tag k="name" v="Stueheiliane" />
		<tag k="natural" v="slope" />
		<tag k="place" v="locality" />
		<tag k="ssr:stedsnr" v="100809" />
	</node>
	<node lat="59.00172500189447" lon="9.373277785457073" id="-23857">
		<tag k="name" v="Rørholtstranda" />
		<tag k="natural" v="bay" />
		<tag k="ssr:stedsnr" v="100813" />
	</node>
	<node lat="58.9525194440159" lon="9.556094451147603" id="-23858">
		<tag k="name" v="Bjønndalen" />
		<tag k="natural" v="valley" />
		<tag k="place" v="locality" />
		<tag k="ssr:stedsnr" v="100721" />
	</node>
	<node lat="59.010333336987834" lon="9.448613895578353" id="-23859">
		<tag k="name" v="Fjølbusundet" />
		<tag k="natural" v="strait" />
		<tag k="ssr:stedsnr" v="101026" />
	</node>
	<node lat="59.10023888993435" lon="9.553466671320164" id="-23860">
		<tag k="fixme" v="consider natural=peak for the most distinct mountains in the district" />
		<tag k="name" v="Trellebergåsen" />
		<tag k="natural" v="hill" />
		<tag k="place" v="locality" />
		<tag k="ssr:stedsnr" v="100970" />
	</node>
	<node lat="59.01391944786592" lon="9.599077772741285" id="-23861">
		<tag k="name" v="Høensdalen" />
		<tag k="natural" v="valley" />
		<tag k="place" v="locality" />
		<tag k="ssr:stedsnr" v="101407" />
	</node>
	<node lat="59.02401389131547" lon="9.449747218162665" id="-23862">
		<tag k="name" v="Lommetjenn" />
		<tag k="natural" v="water" />
		<tag k="ssr:stedsnr" v="101447" />
	</node>
	<node lat="59.02178610732014" lon="9.489708330548465" id="-23863">
		<tag k="fixme" v="consider natural=peak for the most distinct mountains in the district" />
		<tag k="name" v="Ragnhildstjennkollen" />
		<tag k="natural" v="hill" />
		<tag k="place" v="locality" />
		<tag k="ssr:stedsnr" v="101452" />
	</node>
	<node lat="59.06179721820712" lon="9.491499995208546" id="-23864">
		<tag k="name" v="Dypedal" />
		<tag k="natural" v="valley" />
		<tag k="place" v="locality" />
		<tag k="ssr:stedsnr" v="101467" />
	</node>
	<node lat="59.028447220930104" lon="9.470574992206846" id="-23865">
		<tag k="name" v="Uletjenna" />
		<tag k="natural" v="water" />
		<tag k="ssr:stedsnr" v="101472" />
	</node>
	<node lat="59.053469439967" lon="9.46970833863159" id="-23866">
		<tag k="fixme" v="consider natural=peak for the most distinct mountains in the district" />
		<tag k="name" v="Ulaåsen" />
		<tag k="natural" v="hill" />
		<tag k="place" v="locality" />
		<tag k="ssr:stedsnr" v="101379" />
	</node>
	<node lat="58.938566670424464" lon="9.466752770830226" id="-23867">
		<tag k="name" v="Fossingbukta" />
		<tag k="natural" v="bay" />
		<tag k="ssr:stedsnr" v="101584" />
	</node>
	<node lat="58.993319445720985" lon="9.500091661222593" id="-23868">
		<tag k="name" v="Hørsfjellmyra" />
		<tag k="natural" v="wetland" />
		<tag k="ssr:stedsnr" v="101602" />
	</node>
	<node lat="59.00063611124022" lon="9.50551110499009" id="-23869">
		<tag k="fixme" v="consider natural=peak for the most distinct mountains in the district" />
		<tag k="name" v="Bjønnebitåsen" />
		<tag k="natural" v="hill" />
		<tag k="place" v="locality" />
		<tag k="ssr:stedsnr" v="101613" />
	</node>
	<node lat="59.00081944772185" lon="9.547891673321873" id="-23870">
		<tag k="name" v="Bamlebenkane" />
		<tag k="natural" v="slope" />
		<tag k="place" v="locality" />
		<tag k="ssr:stedsnr" v="101614" />
	</node>
	<node lat="59.03580000242431" lon="9.520275006825031" id="-23871">
		<tag k="fixme" v="consider natural=peak for the most distinct mountains in the district" />
		<tag k="name" v="Kvernkollen" />
		<tag k="natural" v="hill" />
		<tag k="place" v="locality" />
		<tag k="ssr:stedsnr" v="101768" />
	</node>
	<node lat="59.04798611525589" lon="9.546413887742336" id="-23872">
		<tag k="fixme" v="consider natural=peak for the most distinct mountains in the district" />
		<tag k="name" v="Dypmyrheia" />
		<tag k="natural" v="hill" />
		<tag k="place" v="locality" />
		<tag k="ssr:stedsnr" v="101779" />
	</node>
	<node lat="58.927688888284415" lon="9.570644451097266" id="-23873">
		<tag k="name" v="Svalberg" />
		<tag k="natural" v="cape" />
		<tag k="ssr:stedsnr" v="101967" />
	</node>
	<node lat="59.030888886056076" lon="9.485908339103908" id="-23874">
		<tag k="fixme" v="consider natural=peak for the most distinct mountains in the district" />
		<tag k="name" v="Bjønndamsåsen" />
		<tag k="natural" v="hill" />
		<tag k="place" v="locality" />
		<tag k="ssr:stedsnr" v="102004" />
	</node>
	<node lat="58.97758610812121" lon="9.439258334254996" id="-23875">
		<tag k="name" v="Moen" />
		<tag k="place" v="locality" />
		<tag k="ssr:stedsnr" v="102073" />
	</node>
	<node lat="59.002441663196024" lon="9.307241668336868" id="-23876">
		<tag k="name" v="Sandvannsbekken" />
		<tag k="ssr:stedsnr" v="102167" />
		<tag k="waterway" v="stream" />
	</node>
	<node lat="58.957786113302156" lon="9.437458330578563" id="-23877">
		<tag k="name" v="Bakkeøya" />
		<tag k="place" v="island" />
		<tag k="ssr:stedsnr" v="102503" />
	</node>
	<node lat="58.969058335607535" lon="9.48562777838782" id="-23878">
		<tag k="name" v="Lillejordmyra" />
		<tag k="natural" v="wetland" />
		<tag k="ssr:stedsnr" v="102505" />
	</node>
	<node lat="58.95795555578356" lon="9.45524444750306" id="-23879">
		<tag k="fixme" v="consider natural=peak for the most distinct mountains in the district" />
		<tag k="name" v="Grummestadheia" />
		<tag k="natural" v="hill" />
		<tag k="place" v="locality" />
		<tag k="ssr:stedsnr" v="102702" />
	</node>
	<node lat="58.93143888582028" lon="9.514499997199879" id="-23880">
		<tag k="fixme" v="consider natural=peak for the most distinct mountains in the district" />
		<tag k="name" v="Takfjell" />
		<tag k="natural" v="hill" />
		<tag k="place" v="locality" />
		<tag k="ssr:stedsnr" v="102732" />
	</node>
	<node lat="58.987569446183365" lon="9.41230556055217" id="-23881">
		<tag k="fixme" v="consider natural=peak for the most distinct mountains in the district" />
		<tag k="name" v="Brånen" />
		<tag k="natural" v="hill" />
		<tag k="place" v="locality" />
		<tag k="ssr:stedsnr" v="102733" />
	</node>
	<node lat="58.96073055464143" lon="9.515558335640517" id="-23882">
		<tag k="name" v="Langekjerr" />
		<tag k="place" v="locality" />
		<tag k="ssr:stedsnr" v="102926" />
	</node>
	<node lat="58.9538249956487" lon="9.533302779648398" id="-23883">
		<tag k="fixme" v="consider natural=peak for the most distinct mountains in the district" />
		<tag k="name" v="Ringsjøåsen" />
		<tag k="natural" v="hill" />
		<tag k="place" v="locality" />
		<tag k="ssr:stedsnr" v="102991" />
	</node>
	<node lat="59.012733331490686" lon="9.75085833803816" id="-23884">
		<tag k="name" v="Langøyodden" />
		<tag k="natural" v="cape" />
		<tag k="ssr:stedsnr" v="116606" />
	</node>
	<node lat="59.05852500166497" lon="9.62040832721684" id="-23885">
		<tag k="name" v="Garstad-rønningen" />
		<tag k="place" v="farm" />
		<tag k="ssr:stedsnr" v="117170" />
	</node>
	<node lat="58.99201110739833" lon="9.672566658726886" id="-23886">
		<tag k="name" v="Sauøysund" />
		<tag k="natural" v="strait" />
		<tag k="ssr:stedsnr" v="118375" />
	</node>
	<node lat="58.9896444451467" lon="9.69738611844523" id="-23887">
		<tag k="name" v="Evensvika" />
		<tag k="natural" v="bay" />
		<tag k="ssr:stedsnr" v="118376" />
	</node>
	<node lat="59.04827777690722" lon="9.618338881352093" id="-23888">
		<tag k="name" v="Søtholtdalane" />
		<tag k="natural" v="valley" />
		<tag k="place" v="locality" />
		<tag k="ssr:stedsnr" v="119773" />
	</node>
	<node lat="59.079219442560934" lon="9.62642499923789" id="-23890">
		<tag k="name" v="Islanddammen" />
		<tag k="place" v="locality" />
		<tag k="ssr:stedsnr" v="119959" />
	</node>
	<node lat="58.94501944394225" lon="9.423416670860018" id="-23891">
		<tag k="alt_name" v="Bjordam" />
		<tag k="name" v="Bjordammen" />
		<tag k="place" v="farm" />
		<tag k="ssr:stedsnr" v="122311" />
	</node>
	<node lat="59.000655554736404" lon="9.74873332975464" id="-23892">
		<tag k="name" v="Langesund" />
		<tag k="place" v="town" />
		<tag k="ssr:stedsnr" v="122583" />
	</node>
	<node lat="59.023919442485436" lon="9.660577771952545" id="-23893">
		<tag k="fixme" v="consider place=hamlet" />
		<tag k="name" v="Gjerstad" />
		<tag k="place" v="farm" />
		<tag k="ssr:stedsnr" v="123527" />
	</node>
	<node lat="59.00431666618378" lon="9.38436111448003" id="-23894">
		<tag k="name" v="Hesthagen" />
		<tag k="place" v="farm" />
		<tag k="ssr:stedsnr" v="123711" />
	</node>
	<node lat="59.088277775098994" lon="9.509499996281031" id="-23895">
		<tag k="alt_name" v="Hellestvedtvann" />
		<tag k="name" v="Hellestveitvann" />
		<tag k="natural" v="water" />
		<tag k="ssr:stedsnr" v="123778" />
		<tag k="water" v="lake" />
	</node>
	<node lat="59.06618333442531" lon="9.555766658708666" id="-23896">
		<tag k="name" v="Svarstadvann" />
		<tag k="natural" v="water" />
		<tag k="ssr:stedsnr" v="123859" />
	</node>
	<node lat="59.078000001874386" lon="9.496538892468623" id="-23897">
		<tag k="alt_name" v="Midtvann" />
		<tag k="name" v="Mevann" />
		<tag k="natural" v="water" />
		<tag k="ssr:stedsnr" v="123874" />
		<tag k="water" v="lake" />
	</node>
	<node lat="58.923963886737916" lon="9.59351944445061" id="-23898">
		<tag k="fixme" v="consider seamark:type=rock or natural=shoal" />
		<tag k="name" v="Mileskjær" />
		<tag k="place" v="islet" />
		<tag k="ssr:stedsnr" v="145503" />
	</node>
	<node lat="59.1219861082413" lon="9.55204999632277" id="-23899">
		<tag k="name" v="Skotland" />
		<tag k="place" v="islet" />
		<tag k="ssr:stedsnr" v="146224" />
	</node>
	<node lat="58.981749999489054" lon="9.502886116401521" id="-23900">
		<tag k="name" v="Svintersdalen" />
		<tag k="natural" v="valley" />
		<tag k="place" v="locality" />
		<tag k="ssr:stedsnr" v="146718" />
	</node>
	<node lat="59.03646944082834" lon="9.556286118288234" id="-23901">
		<tag k="fixme" v="consider natural=peak for the most distinct mountains in the district" />
		<tag k="name" v="Stuleheia" />
		<tag k="natural" v="hill" />
		<tag k="place" v="locality" />
		<tag k="ssr:stedsnr" v="147861" />
	</node>
	<node lat="59.075486114149896" lon="9.632261119819432" id="-23902">
		<tag k="name" v="Bukkholmen" />
		<tag k="place" v="islet" />
		<tag k="ssr:stedsnr" v="147902" />
	</node>
	<node lat="58.99953611142298" lon="9.39501667226215" id="-23903">
		<tag k="fixme" v="consider place=hamlet" />
		<tag k="name" v="Rørholt, søndre" />
		<tag k="place" v="farm" />
		<tag k="ssr:stedsnr" v="258986" />
	</node>
	<node lat="59.043766666417355" lon="9.478827770786598" id="-23904">
		<tag k="name" v="Musedalen" />
		<tag k="natural" v="valley" />
		<tag k="place" v="locality" />
		<tag k="ssr:stedsnr" v="162051" />
	</node>
	<node lat="58.971727780633145" lon="9.40378611194035" id="-23905">
		<tag k="name" v="Stutaue" />
		<tag k="natural" v="water" />
		<tag k="ssr:stedsnr" v="162062" />
		<tag k="water" v="pond" />
	</node>
	<node lat="58.97193611080526" lon="9.390822223565124" id="-23906">
		<tag k="name" v="Masterødtjenna" />
		<tag k="natural" v="water" />
		<tag k="ssr:stedsnr" v="162068" />
	</node>
	<node lat="59.066630552237605" lon="9.519219439208689" id="-23907">
		<tag k="name" v="Seterlemyra" />
		<tag k="natural" v="wetland" />
		<tag k="ssr:stedsnr" v="162221" />
	</node>
	<node lat="59.023663885622256" lon="9.572324997625946" id="-23908">
		<tag k="name" v="Langmyrdalen" />
		<tag k="natural" v="valley" />
		<tag k="place" v="locality" />
		<tag k="ssr:stedsnr" v="162404" />
	</node>
	<node lat="59.02072777450779" lon="9.582216664984077" id="-23909">
		<tag k="name" v="Hjellkjerrmyra" />
		<tag k="natural" v="wetland" />
		<tag k="ssr:stedsnr" v="162411" />
	</node>
	<node lat="59.01787777780941" lon="9.45699167184445" id="-23910">
		<tag k="name" v="Fjølbu" />
		<tag k="place" v="isolated_dwelling" />
		<tag k="ssr:stedsnr" v="162467" />
	</node>
	<node lat="59.02260555257989" lon="9.513799997558529" id="-23911">
		<tag k="name" v="Krokvannsøya" />
		<tag k="natural" v="cape" />
		<tag k="ssr:stedsnr" v="162612" />
	</node>
	<node lat="58.994463887939986" lon="9.492402770843663" id="-23912">
		<tag k="name" v="Lysvann" />
		<tag k="natural" v="water" />
		<tag k="ssr:stedsnr" v="162518" />
	</node>
	<node lat="58.97052221988812" lon="9.52850000051713" id="-23913">
		<tag k="fixme" v="consider natural=peak for the most distinct mountains in the district" />
		<tag k="name" v="Høymyråsen" />
		<tag k="natural" v="hill" />
		<tag k="place" v="locality" />
		<tag k="ssr:stedsnr" v="162702" />
	</node>
	<node lat="59.04238888655286" lon="9.515180547902146" id="-23914">
		<tag k="name" v="Rørholtdammen" />
		<tag k="natural" v="water" />
		<tag k="ssr:stedsnr" v="162807" />
	</node>
	<node lat="58.933186113821975" lon="9.592661107543499" id="-23915">
		<tag k="name" v="Trolldalsåsen" />
		<tag k="natural" v="hill" />
		<tag k="place" v="locality" />
		<tag k="ssr:stedsnr" v="162971" />
	</node>
	<node lat="58.955344441950565" lon="9.506413890609023" id="-23916">
		<tag k="fixme" v="consider natural=peak for the most distinct mountains in the district" />
		<tag k="name" v="Nordre Åsfjell" />
		<tag k="natural" v="hill" />
		<tag k="place" v="locality" />
		<tag k="ssr:stedsnr" v="162975" />
	</node>
	<node lat="58.95961666417446" lon="9.535388894792568" id="-23917">
		<tag k="name" v="Lund" />
		<tag k="place" v="isolated_dwelling" />
		<tag k="ssr:stedsnr" v="162976" />
	</node>
	<node lat="59.1172055592489" lon="9.561174998003011" id="-23918">
		<tag k="name" v="Halvsundbukta" />
		<tag k="natural" v="bay" />
		<tag k="ssr:stedsnr" v="169722" />
	</node>
	<node lat="59.09188332999604" lon="9.604011103661897" id="-23919">
		<tag k="name" v="Tråkbukta" />
		<tag k="natural" v="bay" />
		<tag k="ssr:stedsnr" v="170559" />
	</node>
	<node lat="59.00377778004955" lon="9.738494450773125" id="-23920">
		<tag k="highway" v="bus_stop" />
		<tag k="name" v="Gamle Bamblevei" />
		<tag k="ssr:stedsnr" v="173463" />
	</node>
	<node lat="59.00388611138819" lon="9.744694452429279" id="-23921">
		<tag k="highway" v="bus_stop" />
		<tag k="name" v="Parnemannsgate" />
		<tag k="ssr:stedsnr" v="174656" />
	</node>
	<node lat="59.01231111479259" lon="9.728875000938656" id="-23922">
		<tag k="highway" v="bus_stop" />
		<tag k="name" v="Gjømleåsen" />
		<tag k="ssr:stedsnr" v="174754" />
	</node>
	<node lat="59.08331388842546" lon="9.535572219982592" id="-23923">
		<tag k="fixme" v="consider natural=peak for the most distinct mountains in the district" />
		<tag k="name" v="Svarttjennheia" />
		<tag k="natural" v="hill" />
		<tag k="place" v="locality" />
		<tag k="ssr:stedsnr" v="179411" />
	</node>
	<node lat="59.00775000291291" lon="9.705191661824081" id="-23924">
		<tag k="name" v="Rognstranda" />
		<tag k="natural" v="beach" />
		<tag k="ssr:stedsnr" v="179412" />
	</node>
	<node lat="59.06860833609456" lon="9.629058340194149" id="-23925">
		<tag k="name" v="Frønseplassen" />
		<tag k="place" v="isolated_dwelling" />
		<tag k="ssr:stedsnr" v="179477" />
	</node>
	<node lat="59.099655551774916" lon="9.541283330151046" id="-23926">
		<tag k="name" v="Galane" />
		<tag k="place" v="quarter" />
		<tag k="ssr:stedsnr" v="179968" />
	</node>
	<node lat="58.987349997975535" lon="9.681724993283442" id="-23927">
		<tag k="bay" v="fjord" />
		<tag k="name" v="Åbyfjorden" />
		<tag k="natural" v="bay" />
		<tag k="ssr:stedsnr" v="182596" />
	</node>
	<node lat="58.932455558285945" lon="9.609027769727502" id="-23928">
		<tag k="name" v="Klokkertangen" />
		<tag k="natural" v="cape" />
		<tag k="ssr:stedsnr" v="182912" />
	</node>
	<node lat="58.94321389084333" lon="9.507300001980285" id="-23930">
		<tag k="alt_name" v="Østre Grimsrød" />
		<tag k="name" v="Grimsrød, østre" />
		<tag k="place" v="farm" />
		<tag k="ssr:stedsnr" v="183243" />
	</node>
	<node lat="58.93886111442078" lon="9.481513891651636" id="-23931">
		<tag k="name" v="Smørvika" />
		<tag k="place" v="farm" />
		<tag k="ssr:stedsnr" v="183244" />
	</node>
	<node lat="58.960980554398915" lon="9.429661109320369" id="-23932">
		<tag k="name" v="Bakke" />
		<tag k="place" v="farm" />
		<tag k="ssr:stedsnr" v="183306" />
	</node>
	<node lat="58.98578333252859" lon="9.399699999119793" id="-23933">
		<tag k="name" v="Mosvannet" />
		<tag k="natural" v="water" />
		<tag k="ssr:stedsnr" v="183294" />
		<tag k="water" v="lake" />
	</node>
	<node lat="58.9933222178568" lon="9.561244447524931" id="-23934">
		<tag k="name" v="Skogstadvannet" />
		<tag k="natural" v="water" />
		<tag k="ssr:stedsnr" v="183301" />
	</node>
	<node lat="59.05410555519535" lon="9.6352694464679" id="-23935">
		<tag k="name" v="Skjerke" />
		<tag k="place" v="farm" />
		<tag k="ssr:stedsnr" v="183403" />
	</node>
	<node lat="58.91373610978705" lon="9.578666670278741" id="-23936">
		<tag k="bay" v="fjord" />
		<tag k="name" v="Eksefjorden" />
		<tag k="natural" v="bay" />
		<tag k="ssr:stedsnr" v="183637" />
	</node>
	<node lat="59.09623055264586" lon="9.532513892087673" id="-23937">
		<tag k="name" v="Hamaren" />
		<tag k="place" v="isolated_dwelling" />
		<tag k="ssr:stedsnr" v="183798" />
	</node>
	<node lat="59.06773888674572" lon="9.589733340917379" id="-23938">
		<tag k="fixme" v="consider place=hamlet" />
		<tag k="name" v="Svarstad" />
		<tag k="place" v="farm" />
		<tag k="ssr:stedsnr" v="184841" />
	</node>
	<node lat="59.03538610797061" lon="9.713697226054684" id="-23939">
		<tag k="name" v="Eiksrønningen" />
		<tag k="place" v="village" />
		<tag k="ssr:stedsnr" v="267945" />
	</node>
	<node lat="59.03990277519016" lon="9.558788881891415" id="-23940">
		<tag k="name" v="Angersmyr" />
		<tag k="natural" v="wetland" />
		<tag k="ssr:stedsnr" v="206884" />
	</node>
	<node lat="59.045674997390904" lon="9.589391675122041" id="-23941">
		<tag k="name" v="Breimyr" />
		<tag k="natural" v="wetland" />
		<tag k="ssr:stedsnr" v="206893" />
	</node>
	<node lat="59.046019445740946" lon="9.41293332750399" id="-23942">
		<tag k="historic" v="boundary_stone" />
		<tag k="man_made" v="cairn" />
		<tag k="name" v="Kjerringrøysa" />
		<tag k="place" v="locality" />
		<tag k="ssr:stedsnr" v="208992" />
	</node>
	<node lat="58.99849999814226" lon="9.706647224618987" id="-23943">
		<tag k="name" v="Ormevika" />
		<tag k="natural" v="bay" />
		<tag k="ssr:stedsnr" v="209489" />
	</node>
	<node lat="59.08549444309027" lon="9.48893056194021" id="-23944">
		<tag k="fixme" v="consider natural=peak for the most distinct mountains in the district" />
		<tag k="name" v="Grøssåsheia" />
		<tag k="natural" v="hill" />
		<tag k="place" v="locality" />
		<tag k="ssr:stedsnr" v="210527" />
	</node>
	<node lat="59.1009638848807" lon="9.586205551750854" id="-23945">
		<tag k="building" v="industrial" />
		<tag k="industrial" v="factory" />
		<tag k="name" v="Rafnes" />
		<tag k="ssr:stedsnr" v="210710" />
	</node>
	<node lat="59.03744999555121" lon="9.410080553924686" id="-23946">
		<tag k="name" v="Moenstjenna" />
		<tag k="natural" v="water" />
		<tag k="ssr:stedsnr" v="221029" />
	</node>
	<node lat="59.01576944045409" lon="9.679225008565426" id="-23947">
		<tag k="leisure" v="pitch" />
		<tag k="name" v="Rissletta" />
		<tag k="ssr:stedsnr" v="221070" />
	</node>
	<node lat="58.967961110040044" lon="9.601119445746278" id="-23948">
		<tag k="fixme" v="consider natural=peak for the most distinct mountains in the district" />
		<tag k="name" v="Vardås" />
		<tag k="natural" v="hill" />
		<tag k="place" v="locality" />
		<tag k="ssr:stedsnr" v="221405" />
	</node>
	<node lat="58.96749999643182" lon="9.588952769250213" id="-23949">
		<tag k="name" v="Haukedalsmyra" />
		<tag k="natural" v="wetland" />
		<tag k="ssr:stedsnr" v="221406" />
	</node>
	<node lat="58.9579111112976" lon="9.623380549091056" id="-23950">
		<tag k="fixme" v="consider natural=peak for the most distinct mountains in the district" />
		<tag k="name" v="Løkkås" />
		<tag k="natural" v="hill" />
		<tag k="place" v="locality" />
		<tag k="ssr:stedsnr" v="221396" />
	</node>
	<node lat="58.98150555493026" lon="9.699338882296573" id="-23951">
		<tag k="name" v="Stangbukta" />
		<tag k="natural" v="bay" />
		<tag k="ssr:stedsnr" v="221796" />
	</node>
	<node lat="59.1033972266858" lon="9.559736107818049" id="-23952">
		<tag k="name" v="Herreelva" />
		<tag k="ssr:stedsnr" v="221914" />
		<tag k="waterway" v="river" />
	</node>
	<node lat="58.996405557327236" lon="9.33277777773135" id="-23953">
		<tag k="name" v="Lille Langkjerrtjenn" />
		<tag k="natural" v="water" />
		<tag k="ssr:stedsnr" v="221815" />
	</node>
	<node lat="58.99705555474255" lon="9.374327784741729" id="-23954">
		<tag k="man_made" v="quay" />
		<tag k="name" v="Rørholt brygge" />
		<tag k="place" v="locality" />
		<tag k="ssr:stedsnr" v="221820" />
	</node>
	<node lat="59.038225000247415" lon="9.594027779824934" id="-23955">
		<tag k="name" v="Harrys tjærebrenneri" />
		<tag k="place" v="locality" />
		<tag k="ssr:stedsnr" v="221876" />
	</node>
	<node lat="58.96530555116521" lon="9.572552780354743" id="-23956">
		<tag k="name" v="Ødegårdstjenna" />
		<tag k="natural" v="water" />
		<tag k="ssr:stedsnr" v="221886" />
	</node>
	<node lat="59.02313055639465" lon="9.47199166193191" id="-23957">
		<tag k="name" v="Brannbokken" />
		<tag k="place" v="locality" />
		<tag k="ssr:stedsnr" v="222408" />
	</node>
	<node lat="58.97945555840597" lon="9.422169437639955" id="-23958">
		<tag k="name" v="Vresttjenn" />
		<tag k="natural" v="water" />
		<tag k="ssr:stedsnr" v="223111" />
	</node>
	<node lat="58.96528610808446" lon="9.42487499444641" id="-23959">
		<tag k="fixme" v="consider natural=peak for the most distinct mountains in the district" />
		<tag k="name" v="Vittersåsen" />
		<tag k="natural" v="hill" />
		<tag k="place" v="locality" />
		<tag k="ssr:stedsnr" v="223434" />
	</node>
	<node lat="58.99508611044454" lon="9.56746388908186" id="-23960">
		<tag k="name" v="Askedalane" />
		<tag k="natural" v="valley" />
		<tag k="place" v="locality" />
		<tag k="ssr:stedsnr" v="223376" />
	</node>
	<node lat="58.96300833593693" lon="9.52225556421247" id="-23961">
		<tag k="name" v="Steinartjenndalen" />
		<tag k="natural" v="valley" />
		<tag k="place" v="locality" />
		<tag k="ssr:stedsnr" v="223938" />
	</node>
	<node lat="58.96444722160432" lon="9.650205561521716" id="-23962">
		<tag k="name" v="Smørvika" />
		<tag k="natural" v="bay" />
		<tag k="ssr:stedsnr" v="449461" />
	</node>
	<node lat="58.93788055560126" lon="9.666283338243705" id="-23963">
		<tag k="name" v="Rødskjærrenna" />
		<tag k="place" v="locality" />
		<tag k="ssr:stedsnr" v="449462" />
	</node>
	<node lat="58.992638889060366" lon="9.75641110449916" id="-23964">
		<tag k="name" v="Langøytangen radio" />
		<tag k="place" v="locality" />
		<tag k="ssr:stedsnr" v="449744" />
	</node>
	<node lat="59.02252777561459" lon="9.735777783533353" id="-23965">
		<tag k="highway" v="bus_stop" />
		<tag k="name" v="Salen" />
		<tag k="ssr:stedsnr" v="235383" />
	</node>
	<node lat="59.03755833509999" lon="9.604944439338714" id="-23966">
		<tag k="name" v="Bamlerønningen" />
		<tag k="place" v="locality" />
		<tag k="ssr:stedsnr" v="240204" />
	</node>
	<node lat="59.11367500345534" lon="9.527474991717401" id="-23967">
		<tag k="fixme" v="consider natural=peak for the most distinct mountains in the district" />
		<tag k="name" v="Kvernkollen" />
		<tag k="natural" v="hill" />
		<tag k="place" v="locality" />
		<tag k="ssr:stedsnr" v="240241" />
	</node>
	<node lat="59.05783333362518" lon="9.63037776999438" id="-23968">
		<tag k="fixme" v="consider natural=peak for the most distinct mountains in the district" />
		<tag k="name" v="Skjerkeåsen" />
		<tag k="natural" v="hill" />
		<tag k="place" v="locality" />
		<tag k="ssr:stedsnr" v="240284" />
	</node>
	<node lat="59.03669444876681" lon="9.605958333921619" id="-23969">
		<tag k="name" v="Eriks plass" />
		<tag k="place" v="locality" />
		<tag k="ssr:stedsnr" v="240199" />
	</node>
	<node lat="59.05795833315427" lon="9.644377779088154" id="-23970">
		<tag k="name" v="Likkista" />
		<tag k="place" v="islet" />
		<tag k="ssr:stedsnr" v="240321" />
	</node>
	<node lat="59.085202777417024" lon="9.52993055036579" id="-23971">
		<tag k="name" v="Rauskott" />
		<tag k="place" v="locality" />
		<tag k="ssr:stedsnr" v="240431" />
	</node>
	<node lat="59.079202778437875" lon="9.610344439801494" id="-23972">
		<tag k="fixme" v="consider natural=peak for the most distinct mountains in the district" />
		<tag k="name" v="Strandåsen" />
		<tag k="natural" v="hill" />
		<tag k="place" v="locality" />
		<tag k="ssr:stedsnr" v="240933" />
	</node>
	<node lat="58.97660277787573" lon="9.63532777580858" id="-23973">
		<tag k="name" v="Grødalen" />
		<tag k="natural" v="valley" />
		<tag k="place" v="locality" />
		<tag k="ssr:stedsnr" v="243605" />
	</node>
	<node lat="58.990880558788284" lon="9.655624992317996" id="-23974">
		<tag k="name" v="Arnesplass" />
		<tag k="place" v="farm" />
		<tag k="ssr:stedsnr" v="243584" />
	</node>
	<node lat="58.93903888964371" lon="9.65506110964968" id="-23975">
		<tag k="name" v="Bjørnøybrotta" />
		<tag k="natural" v="shoal" />
		<tag k="place" v="locality" />
		<tag k="ssr:stedsnr" v="243932" />
	</node>
	<node lat="58.95653055145787" lon="9.47494722131892" id="-23976">
		<tag k="alt_name" v="Myrland" />
		<tag k="name" v="Myrland" />
		<tag k="place" v="farm" />
		<tag k="ssr:stedsnr" v="244284" />
	</node>
	<node lat="59.00393055747396" lon="9.65793055341224" id="-23977">
		<tag k="name" v="Steinsmyra" />
		<tag k="old_name" v="Steinsmyr" />
		<tag k="place" v="farm" />
		<tag k="ssr:stedsnr" v="244285" />
	</node>
	<node lat="59.00310000323341" lon="9.696297227214897" id="-23978">
		<tag k="name" v="Rogn" />
		<tag k="place" v="farm" />
		<tag k="ssr:stedsnr" v="244287" />
	</node>
	<node lat="58.9668805540227" lon="9.550250006593012" id="-23979">
		<tag k="alt_name" v="Skjelbrei" />
		<tag k="name" v="Skjilbreia" />
		<tag k="place" v="farm" />
		<tag k="ssr:stedsnr" v="244290" />
	</node>
	<node lat="58.975602778218075" lon="9.590536104714943" id="-23980">
		<tag k="name" v="Hagane" />
		<tag k="place" v="farm" />
		<tag k="ssr:stedsnr" v="244332" />
	</node>
	<node lat="59.09931389014094" lon="9.618383326226644" id="-23981">
		<tag k="alt_name" v="Frierfjorden" />
		<tag k="bay" v="fjord" />
		<tag k="name" v="Frier" />
		<tag k="natural" v="bay" />
		<tag k="ssr:stedsnr" v="244395" />
	</node>
	<node lat="59.04818333404397" lon="9.660675002091756" id="-23982">
		<tag k="name" v="Omborsnes" />
		<tag k="natural" v="cape" />
		<tag k="ssr:stedsnr" v="244526" />
	</node>
	<node lat="59.02092499568501" lon="9.45670277059997" id="-23983">
		<tag k="alt_name" v="Hermanns-ås, vestre;Vestre Hermannsås" />
		<tag k="fixme" v="consider natural=peak for the most distinct mountains in the district" />
		<tag k="name" v="Vestre Hermanns-ås" />
		<tag k="natural" v="hill" />
		<tag k="place" v="locality" />
		<tag k="ssr:stedsnr" v="244689" />
	</node>
	<node lat="59.03043888938584" lon="9.578658338646665" id="-23984">
		<tag k="alt_name" v="Tiurleikåsen" />
		<tag k="fixme" v="consider natural=peak for the most distinct mountains in the district" />
		<tag k="name" v="Tiurleiken" />
		<tag k="natural" v="hill" />
		<tag k="place" v="locality" />
		<tag k="ssr:stedsnr" v="244697" />
	</node>
	<node lat="58.96325277923469" lon="9.673511103365177" id="-23985">
		<tag k="name" v="Kråka" />
		<tag k="place" v="islet" />
		<tag k="ssr:stedsnr" v="244904" />
	</node>
	<node lat="59.077705556914324" lon="9.584372218304031" id="-23986">
		<tag k="name" v="Nyland" />
		<tag k="place" v="farm" />
		<tag k="ssr:stedsnr" v="244876" />
	</node>
	<node lat="58.96488889267093" lon="9.603747222935064" id="-23987">
		<tag k="name" v="Haukedalsvannet" />
		<tag k="natural" v="water" />
		<tag k="old_name" v="Haukedalsvatnet" />
		<tag k="ssr:stedsnr" v="244883" />
		<tag k="water" v="lake" />
	</node>
	<node lat="58.96003055435856" lon="9.676474995143312" id="-23988">
		<tag k="bay" v="fjord" />
		<tag k="name" v="Lilleatlanteren" />
		<tag k="natural" v="bay" />
		<tag k="ssr:stedsnr" v="244924" />
	</node>
	<node lat="58.92907499883087" lon="9.541811119449976" id="-23989">
		<tag k="name" v="Bikjeholmen" />
		<tag k="place" v="islet" />
		<tag k="ssr:stedsnr" v="267994" />
	</node>
	<node lat="59.03838611327652" lon="9.571594449651023" id="-23990">
		<tag k="name" v="Fjellkjerringplassen" />
		<tag k="place" v="locality" />
		<tag k="ssr:stedsnr" v="268886" />
	</node>
	<node lat="59.1237166682683" lon="9.518674997419168" id="-23991">
		<tag k="name" v="Hytterødbukta" />
		<tag k="natural" v="bay" />
		<tag k="ssr:stedsnr" v="268975" />
	</node>
	<node lat="58.995388887573895" lon="9.319475001765758" id="-23992">
		<tag k="fixme" v="consider natural=peak for the most distinct mountains in the district" />
		<tag k="name" v="Geiteryggen" />
		<tag k="natural" v="hill" />
		<tag k="place" v="locality" />
		<tag k="ssr:stedsnr" v="274426" />
	</node>
	<node lat="59.00155000224563" lon="9.747916664047258" id="-23993">
		<tag k="landuse" v="harbour" />
		<tag k="name" v="Kongshavn" />
		<tag k="seamark:type" v="harbour" />
		<tag k="ssr:stedsnr" v="281187" />
	</node>
	<node lat="59.022045970736166" lon="9.373221418996625" id="-23994">
		<tag k="name" v="Svartputt" />
		<tag k="natural" v="water" />
		<tag k="ssr:stedsnr" v="282106" />
	</node>
	<node lat="59.02391388855862" lon="9.38089444074292" id="-23995">
		<tag k="fixme" v="consider natural=peak for the most distinct mountains in the district" />
		<tag k="name" v="Stavåsen" />
		<tag k="natural" v="hill" />
		<tag k="place" v="locality" />
		<tag k="ssr:stedsnr" v="282109" />
	</node>
	<node lat="59.01116389194477" lon="9.368100004674288" id="-23996">
		<tag k="name" v="Langmyrliane" />
		<tag k="natural" v="slope" />
		<tag k="place" v="locality" />
		<tag k="ssr:stedsnr" v="282112" />
	</node>
	<node lat="58.96694721992052" lon="9.659166669152178" id="-23997">
		<tag k="name" v="Kårsholmen" />
		<tag k="place" v="islet" />
		<tag k="ssr:stedsnr" v="282174" />
	</node>
	<node lat="58.94213055838382" lon="9.625805556393997" id="-23998">
		<tag k="fixme" v="consider natural=peak for the most distinct mountains in the district" />
		<tag k="name" v="Hønseberg" />
		<tag k="natural" v="hill" />
		<tag k="place" v="locality" />
		<tag k="ssr:stedsnr" v="282307" />
	</node>
	<node lat="58.945733330733816" lon="9.624630546885529" id="-23999">
		<tag k="name" v="Ytre Kjønnøya" />
		<tag k="place" v="island" />
		<tag k="ssr:stedsnr" v="282324" />
	</node>
	<node lat="59.028341671136026" lon="9.643244438920956" id="-24000">
		<tag k="fixme" v="consider natural=peak for the most distinct mountains in the district" />
		<tag k="name" v="Vingereidåsen" />
		<tag k="natural" v="hill" />
		<tag k="place" v="locality" />
		<tag k="ssr:stedsnr" v="282511" />
	</node>
	<node lat="59.06118889039809" lon="9.579683333895273" id="-24001">
		<tag k="fixme" v="consider natural=peak for the most distinct mountains in the district" />
		<tag k="name" v="Vardås" />
		<tag k="natural" v="hill" />
		<tag k="place" v="locality" />
		<tag k="ssr:stedsnr" v="282619" />
	</node>
	<node lat="58.990563891586056" lon="9.36868055812834" id="-24002">
		<tag k="name" v="Dalenestranda" />
		<tag k="natural" v="bay" />
		<tag k="ssr:stedsnr" v="282810" />
	</node>
	<node lat="58.99762777443405" lon="9.38191110557477" id="-24003">
		<tag k="fixme" v="consider natural=peak for the most distinct mountains in the district" />
		<tag k="name" v="Hestås" />
		<tag k="natural" v="hill" />
		<tag k="place" v="locality" />
		<tag k="ssr:stedsnr" v="282797" />
	</node>
	<node lat="58.9305888900626" lon="9.61403610298786" id="-24004">
		<tag k="name" v="Leifsholmen" />
		<tag k="place" v="islet" />
		<tag k="ssr:stedsnr" v="282906" />
	</node>
	<node lat="59.037055554870854" lon="9.59994444809008" id="-24005">
		<tag k="name" v="Langvannsbekken" />
		<tag k="ssr:stedsnr" v="282866" />
		<tag k="waterway" v="stream" />
	</node>
	<node lat="59.0418333302447" lon="9.470769452301441" id="-24006">
		<tag k="name" v="Plankestillingsmyrane" />
		<tag k="natural" v="wetland" />
		<tag k="ssr:stedsnr" v="283014" />
	</node>
	<node lat="59.10369167058216" lon="9.557722214949184" id="-24007">
		<tag k="name" v="Herrejordet" />
		<tag k="place" v="quarter" />
		<tag k="ssr:stedsnr" v="282977" />
	</node>
	<node lat="58.961080551897425" lon="9.550505562362627" id="-24008">
		<tag k="fixme" v="consider natural=peak for the most distinct mountains in the district" />
		<tag k="name" v="Bokalåsen" />
		<tag k="natural" v="hill" />
		<tag k="place" v="locality" />
		<tag k="ssr:stedsnr" v="282987" />
	</node>
	<node lat="58.94079999923569" lon="9.593724994204743" id="-24009">
		<tag k="name" v="Sperrtangen" />
		<tag k="natural" v="cape" />
		<tag k="ssr:stedsnr" v="283290" />
	</node>
	<node lat="59.004872220103465" lon="9.554555557371893" id="-24010">
		<tag k="name" v="Rønningsland" />
		<tag k="place" v="locality" />
		<tag k="ssr:stedsnr" v="283292" />
	</node>
	<node lat="59.05567500208119" lon="9.495449994685169" id="-24011">
		<tag k="name" v="Sandøya" />
		<tag k="place" v="island" />
		<tag k="ssr:stedsnr" v="283425" />
	</node>
	<node lat="59.021666665847995" lon="9.558100002963371" id="-24012">
		<tag k="name" v="Ålkartjenna" />
		<tag k="natural" v="water" />
		<tag k="ssr:stedsnr" v="283320" />
	</node>
	<node lat="59.04343888683434" lon="9.512077776206533" id="-24013">
		<tag k="name" v="Nensetelva" />
		<tag k="ssr:stedsnr" v="283773" />
		<tag k="waterway" v="river" />
	</node>
	<node lat="58.973077780732716" lon="9.41029443840746" id="-24014">
		<tag k="name" v="Ytre dalen" />
		<tag k="natural" v="valley" />
		<tag k="place" v="locality" />
		<tag k="ssr:stedsnr" v="284076" />
	</node>
	<node lat="58.94616666645898" lon="9.420861107334783" id="-24015">
		<tag k="fixme" v="consider natural=peak for the most distinct mountains in the district" />
		<tag k="name" v="Strykås" />
		<tag k="natural" v="hill" />
		<tag k="place" v="locality" />
		<tag k="ssr:stedsnr" v="284402" />
	</node>
	<node lat="58.96277500419341" lon="9.39469166328689" id="-24016">
		<tag k="name" v="Nordre Stormyr" />
		<tag k="natural" v="wetland" />
		<tag k="ssr:stedsnr" v="284428" />
	</node>
	<node lat="59.02436944471325" lon="9.48683055776927" id="-24017">
		<tag k="name" v="Ragnhildstjenn" />
		<tag k="natural" v="water" />
		<tag k="ssr:stedsnr" v="284472" />
	</node>
	<node lat="58.99435833716959" lon="9.513016669387886" id="-24018">
		<tag k="name" v="Suggetjenndalen" />
		<tag k="natural" v="valley" />
		<tag k="place" v="locality" />
		<tag k="ssr:stedsnr" v="284616" />
	</node>
	<node lat="58.93805832983188" lon="9.436913882780772" id="-24019">
		<tag k="name" v="Orrestoe" />
		<tag k="place" v="locality" />
		<tag k="ssr:stedsnr" v="284626" />
	</node>
	<node lat="58.93672222529963" lon="9.423116658940373" id="-24020">
		<tag k="fixme" v="consider natural=peak for the most distinct mountains in the district" />
		<tag k="name" v="Beinmårknuten" />
		<tag k="natural" v="hill" />
		<tag k="place" v="locality" />
		<tag k="ssr:stedsnr" v="284628" />
	</node>
	<node lat="58.94338333217721" lon="9.453266658140901" id="-24021">
		<tag k="name" v="Hasseleidkilen" />
		<tag k="natural" v="bay" />
		<tag k="ssr:stedsnr" v="284591" />
	</node>
	<node lat="58.93222777867144" lon="9.507163890969352" id="-24022">
		<tag k="name" v="Presteskottbukta" />
		<tag k="natural" v="bay" />
		<tag k="ssr:stedsnr" v="284730" />
	</node>
	<node lat="58.9566722234073" lon="9.450788890627456" id="-24023">
		<tag k="name" v="Tronskjær" />
		<tag k="place" v="isolated_dwelling" />
		<tag k="ssr:stedsnr" v="284676" />
	</node>
	<node lat="58.95870833715138" lon="9.507775008461854" id="-24024">
		<tag k="name" v="Svarttjenn" />
		<tag k="natural" v="water" />
		<tag k="ssr:stedsnr" v="284933" />
	</node>
	<node lat="58.955019445956715" lon="9.550616660723886" id="-24025">
		<tag k="fixme" v="consider natural=peak for the most distinct mountains in the district" />
		<tag k="name" v="Bjønnås" />
		<tag k="natural" v="hill" />
		<tag k="place" v="locality" />
		<tag k="ssr:stedsnr" v="284990" />
	</node>
	<node lat="59.03611944741462" lon="9.67674166671764" id="-24026">
		<tag k="bridge" v="yes" />
		<tag k="layer" v="1" />
		<tag k="name" v="Søndre Stokke" />
		<tag k="ssr:stedsnr" v="289333" />
	</node>
	<node lat="59.03533055127017" lon="9.713677779259271" id="-24027">
		<tag k="highway" v="bus_stop" />
		<tag k="name" v="Eikstrand" />
		<tag k="ssr:stedsnr" v="295085" />
	</node>
	<node lat="59.088169444557856" lon="9.503477778262692" id="-24028">
		<tag k="name" v="Bjørkebukta" />
		<tag k="natural" v="bay" />
		<tag k="ssr:stedsnr" v="300485" />
	</node>
	<node lat="59.03636389142903" lon="9.625927770452272" id="-24029">
		<tag k="name" v="Brådalen" />
		<tag k="natural" v="valley" />
		<tag k="place" v="locality" />
		<tag k="ssr:stedsnr" v="301171" />
	</node>
	<node lat="59.017300004350936" lon="9.662308339768455" id="-24030">
		<tag k="fixme" v="consider natural=peak for the most distinct mountains in the district" />
		<tag k="name" v="Haukebergåsen" />
		<tag k="natural" v="hill" />
		<tag k="place" v="locality" />
		<tag k="ssr:stedsnr" v="464078" />
	</node>
	<node lat="59.01098333583042" lon="9.63975832870606" id="-24031">
		<tag k="fixme" v="consider natural=peak for the most distinct mountains in the district" />
		<tag k="name" v="De brente åsane" />
		<tag k="natural" v="hill" />
		<tag k="place" v="locality" />
		<tag k="ssr:stedsnr" v="464045" />
	</node>
	<node lat="59.026338889455836" lon="9.354461116159992" id="-24032">
		<tag k="name" v="Skareelvkilen" />
		<tag k="natural" v="bay" />
		<tag k="ssr:stedsnr" v="464119" />
	</node>
	<node lat="58.96704166591392" lon="9.499941660740578" id="-24033">
		<tag k="name" v="Bråten" />
		<tag k="place" v="farm" />
		<tag k="ssr:stedsnr" v="304278" />
	</node>
	<node lat="58.96676666809426" lon="9.57876667491749" id="-24034">
		<tag k="name" v="Kåsa" />
		<tag k="place" v="farm" />
		<tag k="ssr:stedsnr" v="304284" />
	</node>
	<node lat="58.996002780630505" lon="9.428113890374595" id="-24035">
		<tag k="alt_name" v="Leiken" />
		<tag k="fixme" v="consider natural=peak for the most distinct mountains in the district" />
		<tag k="name" v="Mosleiken" />
		<tag k="natural" v="hill" />
		<tag k="place" v="locality" />
		<tag k="ssr:stedsnr" v="304323" />
	</node>
	<node lat="58.99316389109983" lon="9.627822214887631" id="-24036">
		<tag k="name" v="Nyhus" />
		<tag k="place" v="farm" />
		<tag k="ssr:stedsnr" v="304573" />
	</node>
	<node lat="58.992705556740646" lon="9.709677783441158" id="-24037">
		<tag k="alt_name" v="Krokodden" />
		<tag k="name" v="Krukodden" />
		<tag k="natural" v="cape" />
		<tag k="ssr:stedsnr" v="304581" />
	</node>
	<node lat="58.99161389174697" lon="9.668811118237537" id="-24038">
		<tag k="name" v="Brattholmen" />
		<tag k="place" v="islet" />
		<tag k="ssr:stedsnr" v="304592" />
	</node>
	<node lat="58.94774166947547" lon="9.674566659717282" id="-24039">
		<tag k="alt_name" v="Rauen, østre;Østre Rauane" />
		<tag k="name" v="Østre Rauen" />
		<tag k="place" v="islet" />
		<tag k="ssr:stedsnr" v="304909" />
	</node>
	<node lat="59.016483334763436" lon="9.450577772709918" id="-24040">
		<tag k="name" v="Roleisundet" />
		<tag k="natural" v="strait" />
		<tag k="ssr:stedsnr" v="465437" />
	</node>
	<node lat="59.03887500112693" lon="9.610588887756867" id="-24041">
		<tag k="alt_name" v="Herum" />
		<tag k="name" v="Herum" />
		<tag k="place" v="farm" />
		<tag k="ssr:stedsnr" v="305508" />
	</node>
	<node lat="59.03908610750896" lon="9.663047225627768" id="-24042">
		<tag k="alt_name" v="Kosa" />
		<tag k="name" v="Kåsa" />
		<tag k="place" v="farm" />
		<tag k="ssr:stedsnr" v="305512" />
	</node>
	<node lat="59.050583330859716" lon="9.640691674794073" id="-24043">
		<tag k="name" v="Burvall" />
		<tag k="place" v="farm" />
		<tag k="ssr:stedsnr" v="305476" />
	</node>
	<node lat="59.06651944566659" lon="9.60080833455151" id="-24044">
		<tag k="name" v="Surtedal" />
		<tag k="place" v="farm" />
		<tag k="ssr:stedsnr" v="305485" />
	</node>
	<node lat="59.01865555117268" lon="9.357369440620625" id="-24045">
		<tag k="name" v="Skare" />
		<tag k="place" v="farm" />
		<tag k="ssr:stedsnr" v="305683" />
	</node>
	<node lat="59.0180249969243" lon="9.444372224559048" id="-24046">
		<tag k="name" v="Fjølbuvannet" />
		<tag k="natural" v="water" />
		<tag k="ssr:stedsnr" v="305684" />
		<tag k="water" v="lake" />
	</node>
	<node lat="59.02409167037468" lon="9.414036112870399" id="-24047">
		<tag k="name" v="Steinsvann" />
		<tag k="natural" v="water" />
		<tag k="ssr:stedsnr" v="305685" />
	</node>
	<node lat="59.088630556951486" lon="9.552497222989743" id="-24048">
		<tag k="fixme" v="consider natural=peak for the most distinct mountains in the district" />
		<tag k="name" v="Skoråsen" />
		<tag k="natural" v="hill" />
		<tag k="place" v="locality" />
		<tag k="ssr:stedsnr" v="464938" />
	</node>
	<node lat="59.07765555914962" lon="9.57748332529307" id="-24049">
		<tag k="name" v="Dammyr" />
		<tag k="natural" v="wetland" />
		<tag k="ssr:stedsnr" v="464945" />
	</node>
	<node lat="59.012336110547146" lon="9.557330562081653" id="-24050">
		<tag k="alt_name" v="Bamble" />
		<tag k="fixme" v="consider place=hamlet" />
		<tag k="name" v="Bamle" />
		<tag k="place" v="farm" />
		<tag k="ssr:stedsnr" v="305708" />
	</node>
	<node lat="59.10800195731351" lon="9.515492963566691" id="-24051">
		<tag k="name" v="Gunnars" />
		<tag k="place" v="locality" />
		<tag k="ssr:stedsnr" v="305768" />
	</node>
	<node lat="59.1048000008295" lon="9.563377777036049" id="-24052">
		<tag k="name" v="Lakseberget" />
		<tag k="natural" v="beach" />
		<tag k="ssr:stedsnr" v="464963" />
	</node>
	<node lat="59.07364722374602" lon="9.56613055635656" id="-24053">
		<tag k="fixme" v="consider natural=peak for the most distinct mountains in the district" />
		<tag k="name" v="Kristians hei" />
		<tag k="natural" v="hill" />
		<tag k="place" v="locality" />
		<tag k="ssr:stedsnr" v="464951" />
	</node>
	<node lat="59.011613890050235" lon="9.456519438712036" id="-24054">
		<tag k="name" v="Lille Elgtjenn" />
		<tag k="natural" v="water" />
		<tag k="ssr:stedsnr" v="465026" />
	</node>
	<node lat="59.03948889234859" lon="9.455783324696556" id="-24055">
		<tag k="fixme" v="consider natural=peak for the most distinct mountains in the district" />
		<tag k="name" v="Roligheten" />
		<tag k="natural" v="hill" />
		<tag k="place" v="locality" />
		<tag k="ssr:stedsnr" v="465039" />
	</node>
	<node lat="59.10443332995835" lon="9.575163896808693" id="-24056">
		<tag k="name" v="Rafnesbukta" />
		<tag k="natural" v="bay" />
		<tag k="ssr:stedsnr" v="464973" />
	</node>
	<node lat="58.96225833027841" lon="9.565252775888352" id="-24057">
		<tag k="fixme" v="consider place=hamlet" />
		<tag k="name" v="Havredal" />
		<tag k="place" v="farm" />
		<tag k="ssr:stedsnr" v="464995" />
	</node>
	<node lat="59.00003888656559" lon="9.320594438145466" id="-24058">
		<tag k="name" v="Jutmyr" />
		<tag k="natural" v="wetland" />
		<tag k="ssr:stedsnr" v="465150" />
	</node>
	<node lat="58.99898611494374" lon="9.323383329214064" id="-24059">
		<tag k="fixme" v="consider natural=peak for the most distinct mountains in the district" />
		<tag k="name" v="Jutmyrkollen" />
		<tag k="natural" v="hill" />
		<tag k="place" v="locality" />
		<tag k="ssr:stedsnr" v="465151" />
	</node>
	<node lat="58.97840555987379" lon="9.378575003607473" id="-24060">
		<tag k="name" v="Einartjenn" />
		<tag k="natural" v="water" />
		<tag k="ssr:stedsnr" v="465331" />
	</node>
	<node lat="58.990450003224986" lon="9.561897220156945" id="-24061">
		<tag k="name" v="Vissestadstoe" />
		<tag k="place" v="locality" />
		<tag k="ssr:stedsnr" v="465332" />
	</node>
	<node lat="58.97573333026225" lon="9.385177771003512" id="-24062">
		<tag k="fixme" v="consider natural=peak for the most distinct mountains in the district" />
		<tag k="name" v="Moesleiken" />
		<tag k="natural" v="hill" />
		<tag k="place" v="locality" />
		<tag k="ssr:stedsnr" v="465337" />
	</node>
	<node lat="58.979736112572176" lon="9.522872226993895" id="-24063">
		<tag k="name" v="Svadalen" />
		<tag k="natural" v="valley" />
		<tag k="place" v="locality" />
		<tag k="ssr:stedsnr" v="465688" />
	</node>
	<node lat="59.03361111047212" lon="9.538474995004044" id="-24064">
		<tag k="name" v="Moltemyr" />
		<tag k="natural" v="wetland" />
		<tag k="ssr:stedsnr" v="465767" />
	</node>
	<node lat="59.041830552190326" lon="9.50298332690494" id="-24065">
		<tag k="fixme" v="consider natural=peak for the most distinct mountains in the district" />
		<tag k="name" v="Grønnheia" />
		<tag k="natural" v="hill" />
		<tag k="place" v="locality" />
		<tag k="ssr:stedsnr" v="465783" />
	</node>
	<node lat="59.04918610989407" lon="9.51838333230318" id="-24066">
		<tag k="fixme" v="consider natural=peak for the most distinct mountains in the district" />
		<tag k="name" v="Hjellaråsen" />
		<tag k="natural" v="hill" />
		<tag k="place" v="locality" />
		<tag k="ssr:stedsnr" v="465788" />
	</node>
	<node lat="59.044694443180234" lon="9.44605000310316" id="-24067">
		<tag k="name" v="Øvre Åletjenna" />
		<tag k="natural" v="water" />
		<tag k="ssr:stedsnr" v="466066" />
	</node>
	<node lat="59.02897777347583" lon="9.396958330504772" id="-24068">
		<tag k="name" v="Ålekartjenna" />
		<tag k="natural" v="water" />
		<tag k="ssr:stedsnr" v="466047" />
	</node>
	<node lat="58.95879444232623" lon="9.500841664756877" id="-24069">
		<tag k="name" v="Staksmyr" />
		<tag k="natural" v="wetland" />
		<tag k="ssr:stedsnr" v="466931" />
	</node>
	<node lat="58.96617221889717" lon="9.653700006932125" id="-24070">
		<tag k="name" v="Braknestangen" />
		<tag k="natural" v="cape" />
		<tag k="ssr:stedsnr" v="327473" />
	</node>
	<node lat="58.93440556001232" lon="9.641425005801645" id="-24072">
		<tag k="fixme" v="consider seamark:type=rock or natural=shoal" />
		<tag k="name" v="Anonskjær" />
		<tag k="place" v="islet" />
		<tag k="ssr:stedsnr" v="328560" />
	</node>
	<node lat="59.01326944615463" lon="9.728522225048046" id="-24073">
		<tag k="bridge" v="yes" />
		<tag k="layer" v="1" />
		<tag k="name" v="Nustad nord" />
		<tag k="ssr:stedsnr" v="471315" />
	</node>
	<node lat="58.96695277404446" lon="9.554572229357836" id="-24074">
		<tag k="bridge" v="yes" />
		<tag k="layer" v="1" />
		<tag k="name" v="Lushola" />
		<tag k="ssr:stedsnr" v="471318" />
	</node>
	<node lat="59.04179999968659" lon="9.69758333093864" id="-24075">
		<tag k="bridge" v="yes" />
		<tag k="layer" v="1" />
		<tag k="name" v="Kjellstad nord" />
		<tag k="ssr:stedsnr" v="471321" />
	</node>
	<node lat="58.96275000092472" lon="9.476877773902581" id="-24076">
		<tag k="bridge" v="yes" />
		<tag k="layer" v="1" />
		<tag k="name" v="Dørdal" />
		<tag k="ssr:stedsnr" v="471346" />
	</node>
	<node lat="59.0304194460745" lon="9.587674996843452" id="-24077">
		<tag k="name" v="Krokvann" />
		<tag k="natural" v="water" />
		<tag k="ssr:stedsnr" v="341927" />
	</node>
	<node lat="59.03042222097466" lon="9.706963884372971" id="-24078">
		<tag k="landuse" v="quarry" />
		<tag k="name" v="Nordre Synken" />
		<tag k="ssr:stedsnr" v="342108" />
	</node>
	<node lat="58.94999722108717" lon="9.625566660340393" id="-24079">
		<tag k="name" v="De brente holmane" />
		<tag k="place" v="islet" />
		<tag k="ssr:stedsnr" v="342396" />
	</node>
	<node lat="58.95026666576148" lon="9.624566663421884" id="-24080">
		<tag k="name" v="Strømsundet" />
		<tag k="natural" v="strait" />
		<tag k="ssr:stedsnr" v="342397" />
	</node>
	<node lat="59.104586111219156" lon="9.581466671168002" id="-24081">
		<tag k="name" v="Lundsodden" />
		<tag k="natural" v="cape" />
		<tag k="ssr:stedsnr" v="472663" />
	</node>
	<node lat="59.03801666333739" lon="9.691733338398933" id="-24082">
		<tag k="fixme" v="consider natural=peak for the most distinct mountains in the district" />
		<tag k="name" v="Falkås" />
		<tag k="natural" v="hill" />
		<tag k="place" v="locality" />
		<tag k="ssr:stedsnr" v="342697" />
	</node>
	<node lat="58.95203333122223" lon="9.574011103868825" id="-24083">
		<tag k="fixme" v="consider natural=peak for the most distinct mountains in the district" />
		<tag k="name" v="Ørnehei" />
		<tag k="natural" v="hill" />
		<tag k="place" v="locality" />
		<tag k="ssr:stedsnr" v="342817" />
	</node>
	<node lat="58.98998055747626" lon="9.395730550420502" id="-24084">
		<tag k="fixme" v="consider natural=peak for the most distinct mountains in the district" />
		<tag k="name" v="Fiskeroddheia" />
		<tag k="natural" v="hill" />
		<tag k="place" v="locality" />
		<tag k="ssr:stedsnr" v="342577" />
	</node>
	<node lat="58.98923333762867" lon="9.40162223075797" id="-24085">
		<tag k="fixme" v="consider natural=peak for the most distinct mountains in the district" />
		<tag k="name" v="Bufjell" />
		<tag k="natural" v="hill" />
		<tag k="place" v="locality" />
		<tag k="ssr:stedsnr" v="342580" />
	</node>
	<node lat="58.95140277450293" lon="9.598491660355098" id="-24086">
		<tag k="fixme" v="consider natural=peak for the most distinct mountains in the district" />
		<tag k="name" v="Fløyås" />
		<tag k="natural" v="hill" />
		<tag k="place" v="locality" />
		<tag k="ssr:stedsnr" v="342600" />
	</node>
	<node lat="59.0635638877547" lon="9.519866670552235" id="-24087">
		<tag k="name" v="Moltetjenn" />
		<tag k="natural" v="water" />
		<tag k="ssr:stedsnr" v="344251" />
	</node>
	<node lat="59.064002773340526" lon="9.507538883044111" id="-24088">
		<tag k="fixme" v="consider natural=peak for the most distinct mountains in the district" />
		<tag k="name" v="Skrubbås" />
		<tag k="natural" v="hill" />
		<tag k="place" v="locality" />
		<tag k="ssr:stedsnr" v="344253" />
	</node>
	<node lat="59.01120000166113" lon="9.421224995503707" id="-24089">
		<tag k="name" v="Damtjenn, øvre" />
		<tag k="natural" v="water" />
		<tag k="ssr:stedsnr" v="344259" />
	</node>
	<node lat="59.00124444626246" lon="9.595083336490317" id="-24090">
		<tag k="fixme" v="consider natural=peak for the most distinct mountains in the district" />
		<tag k="name" v="Hølsåsen" />
		<tag k="natural" v="hill" />
		<tag k="place" v="locality" />
		<tag k="ssr:stedsnr" v="344310" />
	</node>
	<node lat="58.9694916692703" lon="9.490613895670572" id="-24091">
		<tag k="name" v="Lillejorde" />
		<tag k="place" v="isolated_dwelling" />
		<tag k="ssr:stedsnr" v="344449" />
	</node>
	<node lat="58.968111108626445" lon="9.448447227203818" id="-24092">
		<tag k="name" v="Bjønndalen" />
		<tag k="natural" v="valley" />
		<tag k="place" v="locality" />
		<tag k="ssr:stedsnr" v="344451" />
	</node>
	<node lat="58.967363890713855" lon="9.464105556891418" id="-24093">
		<tag k="fixme" v="consider natural=peak for the most distinct mountains in the district" />
		<tag k="name" v="Dørdalsheiane" />
		<tag k="natural" v="hill" />
		<tag k="place" v="locality" />
		<tag k="ssr:stedsnr" v="344453" />
	</node>
	<node lat="58.957755551909024" lon="9.425552774236724" id="-24094">
		<tag k="name" v="Eie" />
		<tag k="place" v="locality" />
		<tag k="ssr:stedsnr" v="344458" />
	</node>
	<node lat="58.979469444694296" lon="9.471072214690032" id="-24095">
		<tag k="fixme" v="consider natural=peak for the most distinct mountains in the district" />
		<tag k="name" v="Lille Flygeren" />
		<tag k="natural" v="hill" />
		<tag k="place" v="locality" />
		<tag k="ssr:stedsnr" v="344461" />
	</node>
	<node lat="58.99297221893861" lon="9.467963883423677" id="-24096">
		<tag k="alt_name" v="Anundsås" />
		<tag k="fixme" v="consider natural=peak for the most distinct mountains in the district" />
		<tag k="name" v="Krokmyråsen" />
		<tag k="natural" v="hill" />
		<tag k="place" v="locality" />
		<tag k="ssr:stedsnr" v="344497" />
	</node>
	<node lat="58.9425305532788" lon="9.470752782661403" id="-24097">
		<tag k="name" v="Solberg" />
		<tag k="place" v="isolated_dwelling" />
		<tag k="ssr:stedsnr" v="344613" />
	</node>
	<node lat="59.0297472257334" lon="9.446861107966015" id="-24098">
		<tag k="fixme" v="consider natural=peak for the most distinct mountains in the district" />
		<tag k="name" v="Gruveheia" />
		<tag k="natural" v="hill" />
		<tag k="place" v="locality" />
		<tag k="ssr:stedsnr" v="344502" />
	</node>
	<node lat="59.06736388634572" lon="9.492619440794138" id="-24099">
		<tag k="name" v="Rundtjennmyra" />
		<tag k="natural" v="wetland" />
		<tag k="ssr:stedsnr" v="344518" />
	</node>
	<node lat="58.98093610754478" lon="9.526319441653635" id="-24100">
		<tag k="fixme" v="consider natural=peak for the most distinct mountains in the district" />
		<tag k="name" v="Brann" />
		<tag k="natural" v="hill" />
		<tag k="place" v="locality" />
		<tag k="ssr:stedsnr" v="344702" />
	</node>
	<node lat="58.974463885278986" lon="9.540627774657944" id="-24101">
		<tag k="name" v="Lilletjenn" />
		<tag k="natural" v="water" />
		<tag k="ssr:stedsnr" v="344711" />
	</node>
	<node lat="58.9785166670697" lon="9.53702222415613" id="-24102">
		<tag k="fixme" v="consider natural=peak for the most distinct mountains in the district" />
		<tag k="name" v="Vardås" />
		<tag k="natural" v="hill" />
		<tag k="place" v="locality" />
		<tag k="ssr:stedsnr" v="344701" />
	</node>
	<node lat="59.03744721855453" lon="9.521897225954222" id="-24103">
		<tag k="name" v="Hogsten" />
		<tag k="place" v="locality" />
		<tag k="ssr:stedsnr" v="344801" />
	</node>
	<node lat="59.07638055573711" lon="9.60445277460889" id="-24104">
		<tag k="fixme" v="consider place=hamlet" />
		<tag k="name" v="Nedre Asdal" />
		<tag k="place" v="farm" />
		<tag k="ssr:stedsnr" v="473550" />
	</node>
	<node lat="59.11919999892919" lon="9.55472778150729" id="-24105">
		<tag k="alt_name" v="Persbukt" />
		<tag k="name" v="Persbukta" />
		<tag k="natural" v="bay" />
		<tag k="ssr:stedsnr" v="473727" />
	</node>
	<node lat="58.97169166354722" lon="9.545108328654734" id="-24106">
		<tag k="bridge" v="yes" />
		<tag k="layer" v="1" />
		<tag k="name" v="Fønix" />
		<tag k="ssr:stedsnr" v="350307" />
	</node>
	<node lat="59.0293222207885" lon="9.726811104515082" id="-24107">
		<tag k="alt_name" v="Asvaldbukta" />
		<tag k="name" v="Asvallbukta" />
		<tag k="natural" v="bay" />
		<tag k="ssr:stedsnr" v="359159" />
	</node>
	<node lat="59.02969166616068" lon="9.715113886595253" id="-24108">
		<tag k="name" v="Grasmyr" />
		<tag k="place" v="farm" />
		<tag k="ssr:stedsnr" v="359162" />
	</node>
	<node lat="59.00237499852573" lon="9.71961110671695" id="-24109">
		<tag k="alt_name" v="Jyplevik" />
		<tag k="name" v="Jyplevikodden" />
		<tag k="natural" v="cape" />
		<tag k="ssr:stedsnr" v="359650" />
	</node>
	<node lat="59.001505558474136" lon="9.7463666686712" id="-24110">
		<tag k="highway" v="bus_stop" />
		<tag k="name" v="Rådhuset" />
		<tag k="ssr:stedsnr" v="477636" />
	</node>
	<node lat="59.00912500335736" lon="9.734236112032685" id="-24111">
		<tag k="alt_name" v="Slåttenes gård" />
		<tag k="name" v="Slåttnes" />
		<tag k="old_name" v="Slåttenes" />
		<tag k="place" v="locality" />
		<tag k="ssr:stedsnr" v="365309" />
	</node>
	<node lat="59.008092653410905" lon="9.733129852077559" id="-24112">
		<tag k="fixme" v="consider place=hamlet" />
		<tag k="name" v="Nustad" />
		<tag k="place" v="farm" />
		<tag k="ssr:stedsnr" v="365310" />
	</node>
	<node lat="59.012063890888555" lon="9.744975002252456" id="-24113">
		<tag k="alt_name" v="Barfod" />
		<tag k="name" v="Barfot" />
		<tag k="place" v="farm" />
		<tag k="ssr:stedsnr" v="365313" />
	</node>
	<node lat="58.94844999668344" lon="9.520911110996055" id="-24114">
		<tag k="alt_name" v="Thomasbu" />
		<tag k="fixme" v="consider place=hamlet" />
		<tag k="name" v="Tomasbu" />
		<tag k="place" v="farm" />
		<tag k="ssr:stedsnr" v="365315" />
	</node>
	<node lat="59.0027638895951" lon="9.635799995611615" id="-24115">
		<tag k="name" v="Smedplassen" />
		<tag k="place" v="farm" />
		<tag k="ssr:stedsnr" v="365298" />
	</node>
	<node lat="58.95426388804957" lon="9.510638882170072" id="-24116">
		<tag k="alt_name" v="Åsfjellrønningen" />
		<tag k="name" v="Rønningen" />
		<tag k="place" v="farm" />
		<tag k="ssr:stedsnr" v="365299" />
	</node>
	<node lat="59.002697220502036" lon="9.382222229980988" id="-24117">
		<tag k="name" v="Storrønningen" />
		<tag k="place" v="farm" />
		<tag k="ssr:stedsnr" v="365686" />
	</node>
	<node lat="59.01455832944127" lon="9.39031111498977" id="-24118">
		<tag k="alt_name" v="Svarttjernskollane" />
		<tag k="fixme" v="consider natural=peak for the most distinct mountains in the district" />
		<tag k="name" v="Svarttjennhaugane" />
		<tag k="natural" v="hill" />
		<tag k="place" v="locality" />
		<tag k="ssr:stedsnr" v="365689" />
	</node>
	<node lat="59.01175196506092" lon="9.46501413178674" id="-24119">
		<tag k="name" v="Krokvann" />
		<tag k="natural" v="water" />
		<tag k="ssr:stedsnr" v="365692" />
	</node>
	<node lat="59.00972499827476" lon="9.550033328073088" id="-24120">
		<tag k="name" v="Heistad" />
		<tag k="place" v="farm" />
		<tag k="ssr:stedsnr" v="365693" />
	</node>
	<node lat="59.033549999194946" lon="9.378075004097061" id="-24121">
		<tag k="name" v="Langsenden" />
		<tag k="natural" v="bay" />
		<tag k="ssr:stedsnr" v="365839" />
	</node>
	<node lat="59.103505553515156" lon="9.561947219014636" id="-24122">
		<tag k="name" v="Herre" />
		<tag k="place" v="village" />
		<tag k="ssr:stedsnr" v="365790" />
	</node>
	<node lat="59.100263884882665" lon="9.508838896535831" id="-24123">
		<tag k="alt_name" v="Svarttjern" />
		<tag k="name" v="Svarttjenn" />
		<tag k="natural" v="water" />
		<tag k="ssr:stedsnr" v="365800" />
	</node>
	<node lat="58.96966666294126" lon="9.638750003773707" id="-24124">
		<tag k="alt_name" v="Myrland" />
		<tag k="name" v="Myra" />
		<tag k="place" v="farm" />
		<tag k="ssr:stedsnr" v="365908" />
	</node>
	<node lat="58.97567499748973" lon="9.685952769672202" id="-24125">
		<tag k="name" v="Prisgrunn" />
		<tag k="place" v="isolated_dwelling" />
		<tag k="ssr:stedsnr" v="365909" />
	</node>
	<node lat="58.951008333524086" lon="9.599308329194061" id="-24126">
		<tag k="name" v="Kjerra" />
		<tag k="place" v="farm" />
		<tag k="ssr:stedsnr" v="365919" />
	</node>
	<node lat="59.007838892039466" lon="9.744536104979858" id="-24127">
		<tag k="highway" v="bus_stop" />
		<tag k="name" v="Halen gård" />
		<tag k="ssr:stedsnr" v="478647" />
	</node>
	<node lat="59.00980277956656" lon="9.60530277999034" id="-24128">
		<tag k="fixme" v="consider natural=peak for the most distinct mountains in the district" />
		<tag k="name" v="Tjennliåsane" />
		<tag k="natural" v="hill" />
		<tag k="place" v="locality" />
		<tag k="ssr:stedsnr" v="370050" />
	</node>
	<node lat="59.01754166236359" lon="9.71637778335196" id="-24129">
		<tag k="name" v="Veholt" />
		<tag k="place" v="farm" />
		<tag k="ssr:stedsnr" v="479871" />
	</node>
	<node lat="59.028544444994445" lon="9.708572220522367" id="-24130">
		<tag k="fixme" v="consider natural=peak for the most distinct mountains in the district" />
		<tag k="name" v="Eikfjellet" />
		<tag k="natural" v="hill" />
		<tag k="place" v="locality" />
		<tag k="ssr:stedsnr" v="480139" />
	</node>
	<node lat="58.99533055366156" lon="9.755002774179525" id="-24131">
		<tag k="name" v="Hvittingbukta" />
		<tag k="natural" v="bay" />
		<tag k="ssr:stedsnr" v="480633" />
	</node>
	<node lat="59.00185555204378" lon="9.706058337725256" id="-24132">
		<tag k="name" v="Ormevikbåen" />
		<tag k="place" v="locality" />
		<tag k="seamark:type" v="rock" />
		<tag k="ssr:stedsnr" v="480638" />
	</node>
	<node lat="59.00083055708824" lon="9.704627785648348" id="-24133">
		<tag k="name" v="Ormevika, in" />
		<tag k="natural" v="bay" />
		<tag k="ssr:stedsnr" v="480640" />
	</node>
	<node lat="59.10306388523311" lon="9.486752777074184" id="-24134">
		<tag k="name" v="Mebuktstua" />
		<tag k="place" v="locality" />
		<tag k="ssr:stedsnr" v="482538" />
	</node>
	<node lat="59.10186388991701" lon="9.548880562935382" id="-24135">
		<tag k="name" v="Hauane" />
		<tag k="place" v="quarter" />
		<tag k="ssr:stedsnr" v="482553" />
	</node>
	<node lat="58.98725833691219" lon="9.62721110265678" id="-24136">
		<tag k="name" v="Åbydalen" />
		<tag k="natural" v="valley" />
		<tag k="place" v="locality" />
		<tag k="ssr:stedsnr" v="482879" />
	</node>
	<node lat="59.102108334849" lon="9.53895833346258" id="-24137">
		<tag k="name" v="Bærtekåsa" />
		<tag k="place" v="locality" />
		<tag k="ssr:stedsnr" v="482964" />
	</node>
	<node lat="58.935702780644654" lon="9.620408326127148" id="-24138">
		<tag k="name" v="Kjeiholmen" />
		<tag k="place" v="islet" />
		<tag k="ssr:stedsnr" v="388432" />
	</node>
	<node lat="58.99963610837213" lon="9.70991111673958" id="-24139">
		<tag k="alt_name" v="Selskjæra" />
		<tag k="fixme" v="consider seamark:type=rock or natural=shoal" />
		<tag k="name" v="Selskjæra" />
		<tag k="place" v="islet" />
		<tag k="ssr:stedsnr" v="388477" />
	</node>
	<node lat="59.018119443210786" lon="9.618688892265151" id="-24140">
		<tag k="alt_name" v="Lillehønstjerna" />
		<tag k="name" v="Lille Høenstjenna" />
		<tag k="natural" v="water" />
		<tag k="ssr:stedsnr" v="388997" />
	</node>
	<node lat="59.06130555365574" lon="9.610683338308512" id="-24141">
		<tag k="name" v="Martes plass" />
		<tag k="place" v="farm" />
		<tag k="ssr:stedsnr" v="483534" />
	</node>
	<node lat="59.09311944297685" lon="9.511663886932281" id="-24142">
		<tag k="fixme" v="consider natural=peak for the most distinct mountains in the district" />
		<tag k="name" v="Midtbuktheia" />
		<tag k="natural" v="hill" />
		<tag k="place" v="locality" />
		<tag k="ssr:stedsnr" v="483549" />
	</node>
	<node lat="59.09427221848757" lon="9.506136104402277" id="-24143">
		<tag k="name" v="Nedre Midtbukttjenn" />
		<tag k="natural" v="water" />
		<tag k="ssr:stedsnr" v="483551" />
	</node>
	<node lat="59.03519722476585" lon="9.428111106093624" id="-24144">
		<tag k="fixme" v="consider natural=peak for the most distinct mountains in the district" />
		<tag k="name" v="Høgenhei" />
		<tag k="natural" v="hill" />
		<tag k="place" v="locality" />
		<tag k="ssr:stedsnr" v="403102" />
	</node>
	<node lat="59.01308055367654" lon="9.381575004679538" id="-24145">
		<tag k="fixme" v="consider natural=peak for the most distinct mountains in the district" />
		<tag k="name" v="Mårfella" />
		<tag k="natural" v="hill" />
		<tag k="place" v="locality" />
		<tag k="ssr:stedsnr" v="403107" />
	</node>
	<node lat="58.99321666673335" lon="9.674497223290661" id="-24146">
		<tag k="name" v="Sauøya" />
		<tag k="natural" v="cape" />
		<tag k="ssr:stedsnr" v="485533" />
	</node>
	<node lat="59.01796388639087" lon="9.69504722151697" id="-24147">
		<tag k="fixme" v="consider natural=peak for the most distinct mountains in the district" />
		<tag k="name" v="Rognsheia" />
		<tag k="natural" v="hill" />
		<tag k="place" v="locality" />
		<tag k="ssr:stedsnr" v="403074" />
	</node>
	<node lat="58.94423611351647" lon="9.583641666829445" id="-24148">
		<tag k="alt_name" v="Finmark" />
		<tag k="name" v="Finnmark" />
		<tag k="place" v="farm" />
		<tag k="ssr:stedsnr" v="486256" />
	</node>
	<node lat="58.97136111524915" lon="9.562474999780779" id="-24149">
		<tag k="fixme" v="consider place=suburb, village or hamlet" />
		<tag k="name" v="Botten" />
		<tag k="place" v="quarter" />
		<tag k="ssr:stedsnr" v="403410" />
	</node>
	<node lat="58.94879722092548" lon="9.574402773330016" id="-24150">
		<tag k="fixme" v="consider natural=peak for the most distinct mountains in the district" />
		<tag k="name" v="Spanbakkåsen" />
		<tag k="natural" v="hill" />
		<tag k="place" v="locality" />
		<tag k="ssr:stedsnr" v="403624" />
	</node>
	<node lat="58.960177780095876" lon="9.599944437604112" id="-24151">
		<tag k="fixme" v="consider natural=peak for the most distinct mountains in the district" />
		<tag k="name" v="Moltemyråsen" />
		<tag k="natural" v="hill" />
		<tag k="place" v="locality" />
		<tag k="ssr:stedsnr" v="403835" />
	</node>
	<node lat="59.03120555771421" lon="9.598744445313347" id="-24152">
		<tag k="fixme" v="consider natural=peak for the most distinct mountains in the district" />
		<tag k="name" v="Karis ås" />
		<tag k="natural" v="hill" />
		<tag k="place" v="locality" />
		<tag k="ssr:stedsnr" v="403882" />
	</node>
	<node lat="59.035977778434756" lon="9.592433334830563" id="-24153">
		<tag k="name" v="Moltemyr" />
		<tag k="natural" v="wetland" />
		<tag k="ssr:stedsnr" v="403895" />
	</node>
	<node lat="58.985858336004526" lon="9.629977775244688" id="-24154">
		<tag k="fixme" v="consider natural=peak for the most distinct mountains in the district" />
		<tag k="name" v="Husekeråsen" />
		<tag k="natural" v="hill" />
		<tag k="place" v="locality" />
		<tag k="ssr:stedsnr" v="403901" />
	</node>
	<node lat="59.03630000302068" lon="9.476536111007658" id="-24155">
		<tag k="name" v="Langtjennheia" />
		<tag k="natural" v="water" />
		<tag k="ssr:stedsnr" v="404016" />
	</node>
	<node lat="59.105216670906756" lon="9.571055556102923" id="-24156">
		<tag k="building" v="industrial" />
		<tag k="name" v="Livtangen" />
		<tag k="ssr:stedsnr" v="403979" />
	</node>
	<node lat="58.97512222655261" lon="9.410372221304431" id="-24157">
		<tag k="fixme" v="consider natural=peak for the most distinct mountains in the district" />
		<tag k="name" v="Dalheia" />
		<tag k="natural" v="hill" />
		<tag k="place" v="locality" />
		<tag k="ssr:stedsnr" v="405102" />
	</node>
	<node lat="59.06807221979916" lon="9.521741666632142" id="-24158">
		<tag k="name" v="Dropledalen" />
		<tag k="natural" v="valley" />
		<tag k="place" v="locality" />
		<tag k="ssr:stedsnr" v="405243" />
	</node>
	<node lat="58.93847499562162" lon="9.67544444286443" id="-24159">
		<tag k="alt_name" v="Rødskjer" />
		<tag k="fixme" v="consider seamark:type=rock or natural=shoal" />
		<tag k="name" v="Rødskjær" />
		<tag k="place" v="islet" />
		<tag k="ssr:stedsnr" v="485943" />
	</node>
	<node lat="59.00283611377011" lon="9.598427772813032" id="-24160">
		<tag k="fixme" v="consider natural=peak for the most distinct mountains in the district" />
		<tag k="name" v="Furuheia" />
		<tag k="natural" v="hill" />
		<tag k="place" v="locality" />
		<tag k="ssr:stedsnr" v="405317" />
	</node>
	<node lat="58.98200000203246" lon="9.388452781667496" id="-24161">
		<tag k="name" v="Øygårdstjenna" />
		<tag k="natural" v="water" />
		<tag k="ssr:stedsnr" v="405347" />
	</node>
	<node lat="58.98921111340685" lon="9.564847219842365" id="-24162">
		<tag k="name" v="Seterlia" />
		<tag k="natural" v="slope" />
		<tag k="place" v="locality" />
		<tag k="ssr:stedsnr" v="405349" />
	</node>
	<node lat="58.966044448923604" lon="9.43419721986669" id="-24163">
		<tag k="name" v="Boelsmyr" />
		<tag k="natural" v="wetland" />
		<tag k="ssr:stedsnr" v="405436" />
	</node>
	<node lat="58.9631472260759" lon="9.401136108621749" id="-24164">
		<tag k="name" v="Masterødtjenn, øvre" />
		<tag k="natural" v="water" />
		<tag k="ssr:stedsnr" v="405441" />
	</node>
	<node lat="58.934355555046885" lon="9.544174995171733" id="-24165">
		<tag k="fixme" v="consider natural=peak for the most distinct mountains in the district" />
		<tag k="name" v="Kvernåsen" />
		<tag k="natural" v="hill" />
		<tag k="place" v="locality" />
		<tag k="ssr:stedsnr" v="405750" />
	</node>
	<node lat="59.024949995562515" lon="9.712244452318455" id="-24166">
		<tag k="name" v="Eik næringsområde" />
		<tag k="place" v="quarter" />
		<tag k="ssr:stedsnr" v="405788" />
	</node>
	<node lat="59.04030555502059" lon="9.521555547112698" id="-24167">
		<tag k="name" v="Kvernstoe" />
		<tag k="place" v="locality" />
		<tag k="ssr:stedsnr" v="405806" />
	</node>
	<node lat="59.04708611024925" lon="9.550811113838202" id="-24168">
		<tag k="name" v="Flisemyrane" />
		<tag k="natural" v="wetland" />
		<tag k="ssr:stedsnr" v="405814" />
	</node>
	<node lat="58.94950833780898" lon="9.517711108083615" id="-24169">
		<tag k="fixme" v="consider natural=peak for the most distinct mountains in the district" />
		<tag k="name" v="Storhei" />
		<tag k="natural" v="hill" />
		<tag k="place" v="locality" />
		<tag k="ssr:stedsnr" v="405994" />
	</node>
	<node lat="58.97466872258404" lon="9.529965031603217" id="-24170">
		<tag k="fixme" v="consider place=hamlet" />
		<tag k="name" v="Rosland" />
		<tag k="place" v="farm" />
		<tag k="ssr:stedsnr" v="486363" />
	</node>
	<node lat="58.93900555874656" lon="9.468816660771607" id="-24171">
		<tag k="alt_name" v="Fossing, østre;Østre Fossum" />
		<tag k="fixme" v="consider place=hamlet" />
		<tag k="name" v="Østre Fossing" />
		<tag k="place" v="farm" />
		<tag k="ssr:stedsnr" v="486276" />
	</node>
	<node lat="58.93248055746631" lon="9.53818332966744" id="-24172">
		<tag k="name" v="Vallum" />
		<tag k="place" v="farm" />
		<tag k="ssr:stedsnr" v="486289" />
	</node>
	<node lat="59.01983888492794" lon="9.728074993157342" id="-24173">
		<tag k="name" v="Vassdalåsen" />
		<tag k="natural" v="hill" />
		<tag k="place" v="locality" />
		<tag k="ssr:stedsnr" v="486257" />
	</node>
	<node lat="58.94978888751021" lon="9.450813893282678" id="-24174">
		<tag k="alt_name" v="Hansesmyr" />
		<tag k="name" v="Hansemyra" />
		<tag k="place" v="farm" />
		<tag k="ssr:stedsnr" v="486319" />
	</node>
	<node lat="58.94695555988758" lon="9.491688885715584" id="-24175">
		<tag k="fixme" v="consider place=hamlet" />
		<tag k="name" v="Bleiklia" />
		<tag k="place" v="farm" />
		<tag k="ssr:stedsnr" v="486323" />
	</node>
	<node lat="58.952402773892274" lon="9.564200006419652" id="-24176">
		<tag k="alt_name" v="Bjørndalsvannet" />
		<tag k="name" v="Bjønndalsvannet" />
		<tag k="natural" v="water" />
		<tag k="ssr:stedsnr" v="486325" />
	</node>
	<node lat="59.00945018409223" lon="9.663958436418525" id="-24177">
		<tag k="amenity" v="place_of_worship" />
		<tag k="denomination" v="lutheran" />
		<tag k="name" v="Bamble kirke" />
		<tag k="religion" v="christian" />
		<tag k="ssr:stedsnr" v="486326" />
	</node>
	<node lat="58.96058115775782" lon="9.556394237776576" id="-24178">
		<tag k="alt_name" v="Ødegården verk" />
		<tag k="name" v="Ødegårdens Verk" />
		<tag k="place" v="locality" />
		<tag k="ssr:stedsnr" v="486297" />
	</node>
	<node lat="58.99233888647819" lon="9.45151110725524" id="-24179">
		<tag k="name" v="Grundetjørnane" />
		<tag k="natural" v="water" />
		<tag k="ssr:stedsnr" v="486393" />
	</node>
	<node lat="59.076261111669005" lon="9.601013895222627" id="-24180">
		<tag k="name" v="Asdal" />
		<tag k="place" v="farm" />
		<tag k="ssr:stedsnr" v="486444" />
	</node>
	<node lat="59.03382221871347" lon="9.527058339225915" id="-24181">
		<tag k="alt_name" v="Skogen, nordre;Skaugen øvre" />
		<tag k="name" v="Nordre Skogen" />
		<tag k="place" v="farm" />
		<tag k="ssr:stedsnr" v="486685" />
	</node>
	<node lat="59.06348888845969" lon="9.618361112224413" id="-24182">
		<tag k="bridge" v="yes" />
		<tag k="layer" v="1" />
		<tag k="name" v="Larønningen" />
		<tag k="ssr:stedsnr" v="410343" />
	</node>
	<node lat="59.03693333701766" lon="9.655144440930819" id="-24183">
		<tag k="alt_name" v="Skaugen" />
		<tag k="name" v="Skogen" />
		<tag k="place" v="farm" />
		<tag k="ssr:stedsnr" v="487519" />
	</node>
	<node lat="59.105427776089776" lon="9.578513895434533" id="-24184">
		<tag k="name" v="Måkeskjærbåen" />
		<tag k="place" v="locality" />
		<tag k="seamark:type" v="rock" />
		<tag k="ssr:stedsnr" v="412639" />
	</node>
	<node lat="59.04824722377818" lon="9.609413881974236" id="-24185">
		<tag k="name" v="Steinerød" />
		<tag k="place" v="farm" />
		<tag k="ssr:stedsnr" v="487537" />
	</node>
	<node lat="59.10278333290932" lon="9.578894443773544" id="-24186">
		<tag k="fixme" v="consider place=hamlet" />
		<tag k="name" v="Rafnes" />
		<tag k="place" v="farm" />
		<tag k="ssr:stedsnr" v="487774" />
	</node>
	<node lat="59.0973777793165" lon="9.499908328034442" id="-24187">
		<tag k="name" v="Mebukttjern" />
		<tag k="natural" v="water" />
		<tag k="ssr:stedsnr" v="487792" />
	</node>
	<node lat="59.04841388900998" lon="9.66509165926222" id="-24188">
		<tag k="name" v="Løkka" />
		<tag k="place" v="farm" />
		<tag k="ssr:stedsnr" v="420135" />
	</node>
	<node lat="58.969152775915106" lon="9.6521222279365" id="-24189">
		<tag k="name" v="Haraldøya" />
		<tag k="place" v="island" />
		<tag k="ssr:stedsnr" v="420710" />
	</node>
	<node lat="58.989688890060094" lon="9.643388888842999" id="-24190">
		<tag k="fixme" v="consider place=hamlet" />
		<tag k="name" v="Åby" />
		<tag k="place" v="farm" />
		<tag k="ssr:stedsnr" v="422199" />
	</node>
</osm>
