<?xml version="1.0" encoding="UTF-8"?>
<osm version="0.6" generator="osmapis">
	<node lat="58.955394443745355" lon="9.42990554726361" id="-24271">
		<tag k="bridge" v="yes" />
		<tag k="layer" v="1" />
		<tag k="name" v="Bakkevann" />
		<tag k="ssr:stedsnr" v="229954" />
	</node>
	<node lat="58.98508611482064" lon="9.585022218103438" id="-24288">
		<tag k="highway" v="path" />
		<tag k="name" v="Seterliveien" />
		<tag k="ssr:stedsnr" v="39543" />
	</node>
	<node lat="59.0332833291378" lon="9.71726110650992" id="-24324">
		<tag k="highway" v="bus_stop" />
		<tag k="name" v="Doktorodden" />
		<tag k="ssr:stedsnr" v="53083" />
	</node>
	<node lat="59.00377778004955" lon="9.738494450773125" id="-24443">
		<tag k="highway" v="bus_stop" />
		<tag k="name" v="Gamle Bamblevei" />
		<tag k="ssr:stedsnr" v="173463" />
	</node>
	<node lat="59.00388611138819" lon="9.744694452429279" id="-24444">
		<tag k="highway" v="bus_stop" />
		<tag k="name" v="Parnemannsgate" />
		<tag k="ssr:stedsnr" v="174656" />
	</node>
	<node lat="59.01231111479259" lon="9.728875000938656" id="-24445">
		<tag k="highway" v="bus_stop" />
		<tag k="name" v="Gjømleåsen" />
		<tag k="ssr:stedsnr" v="174754" />
	</node>
	<node lat="58.99705555474255" lon="9.374327784741729" id="-24477">
		<tag k="man_made" v="quay" />
		<tag k="name" v="Rørholt brygge" />
		<tag k="place" v="locality" />
		<tag k="ssr:stedsnr" v="221820" />
	</node>
	<node lat="58.93788055560126" lon="9.666283338243705" id="-24486">
		<tag k="name" v="Rødskjærrenna" />
		<tag k="place" v="locality" />
		<tag k="ssr:stedsnr" v="449462" />
	</node>
	<node lat="59.02252777561459" lon="9.735777783533353" id="-24488">
		<tag k="highway" v="bus_stop" />
		<tag k="name" v="Salen" />
		<tag k="ssr:stedsnr" v="235383" />
	</node>
	<node lat="59.00155000224563" lon="9.747916664047258" id="-24516">
		<tag k="landuse" v="harbour" />
		<tag k="name" v="Kongshavn" />
		<tag k="seamark:type" v="harbour" />
		<tag k="ssr:stedsnr" v="281187" />
	</node>
	<node lat="59.03611944741462" lon="9.67674166671764" id="-24549">
		<tag k="bridge" v="yes" />
		<tag k="layer" v="1" />
		<tag k="name" v="Søndre Stokke" />
		<tag k="ssr:stedsnr" v="289333" />
	</node>
	<node lat="59.03533055127017" lon="9.713677779259271" id="-24550">
		<tag k="highway" v="bus_stop" />
		<tag k="name" v="Eikstrand" />
		<tag k="ssr:stedsnr" v="295085" />
	</node>
	<node lat="59.01326944615463" lon="9.728522225048046" id="-24596">
		<tag k="bridge" v="yes" />
		<tag k="layer" v="1" />
		<tag k="name" v="Nustad nord" />
		<tag k="ssr:stedsnr" v="471315" />
	</node>
	<node lat="58.96695277404446" lon="9.554572229357836" id="-24597">
		<tag k="bridge" v="yes" />
		<tag k="layer" v="1" />
		<tag k="name" v="Lushola" />
		<tag k="ssr:stedsnr" v="471318" />
	</node>
	<node lat="59.04179999968659" lon="9.69758333093864" id="-24598">
		<tag k="bridge" v="yes" />
		<tag k="layer" v="1" />
		<tag k="name" v="Kjellstad nord" />
		<tag k="ssr:stedsnr" v="471321" />
	</node>
	<node lat="58.96275000092472" lon="9.476877773902581" id="-24599">
		<tag k="bridge" v="yes" />
		<tag k="layer" v="1" />
		<tag k="name" v="Dørdal" />
		<tag k="ssr:stedsnr" v="471346" />
	</node>
	<node lat="58.97169166354722" lon="9.545108328654734" id="-24629">
		<tag k="bridge" v="yes" />
		<tag k="layer" v="1" />
		<tag k="name" v="Fønix" />
		<tag k="ssr:stedsnr" v="350307" />
	</node>
	<node lat="59.001505558474136" lon="9.7463666686712" id="-24633">
		<tag k="highway" v="bus_stop" />
		<tag k="name" v="Rådhuset" />
		<tag k="ssr:stedsnr" v="477636" />
	</node>
	<node lat="59.007838892039466" lon="9.744536104979858" id="-24650">
		<tag k="highway" v="bus_stop" />
		<tag k="name" v="Halen gård" />
		<tag k="ssr:stedsnr" v="478647" />
	</node>
	<node lat="59.06348888845969" lon="9.618361112224413" id="-24705">
		<tag k="bridge" v="yes" />
		<tag k="layer" v="1" />
		<tag k="name" v="Larønningen" />
		<tag k="ssr:stedsnr" v="410343" />
	</node>
</osm>
