<?xml version="1.0" encoding="UTF-8"?>
<<<<<<< HEAD
<osm version="0.6" generator="osmapis">
	<node lat="59.04583611160631" lon="9.699069449992566" id="-19939">
		<tag k="name" v="Åsen" />
		<tag k="place" v="locality" />
		<tag k="ssr:stedsnr" v="38803" />
	</node>
	<node lat="59.079219442560934" lon="9.62642499923789" id="-20071">
		<tag k="name" v="Islanddammen" />
=======
<osm generator="osmapis" version="0.6">
	<node id="-430841" lat="59.0015166645" lon="9.37795277537">
		<tag k="name" v="Rørholt gravsted" />
>>>>>>> e1d4bc35ff8a6074a6f2e91616a996b547c36f15
		<tag k="place" v="locality" />
		<tag k="ssr:stedsnr" v="119959" />
	</node>
<<<<<<< HEAD
	<node lat="59.038225000247415" lon="9.594027779824934" id="-20136">
		<tag k="name" v="Harrys tjærebrenneri" />
=======
	<node id="-432248" lat="58.9820111138" lon="9.4202972174">
		<tag k="name" v="Bjørvannsslåtta" />
>>>>>>> e1d4bc35ff8a6074a6f2e91616a996b547c36f15
		<tag k="place" v="locality" />
		<tag k="ssr:stedsnr" v="221876" />
	</node>
<<<<<<< HEAD
	<node lat="59.02313055639465" lon="9.47199166193191" id="-20138">
		<tag k="name" v="Brannbokken" />
=======
	<node id="-431166" lat="59.0426305577" lon="9.63789443893">
		<tag k="name" v="Havreåkerskottet" />
>>>>>>> e1d4bc35ff8a6074a6f2e91616a996b547c36f15
		<tag k="place" v="locality" />
		<tag k="ssr:stedsnr" v="908183" />
	</node>
<<<<<<< HEAD
	<node lat="58.992638889060366" lon="9.75641110449916" id="-20145">
		<tag k="name" v="Langøytangen radio" />
=======
	<node id="-430569" lat="59.0389777748" lon="9.71143610478">
		<tag k="name" v="Bunes" />
>>>>>>> e1d4bc35ff8a6074a6f2e91616a996b547c36f15
		<tag k="place" v="locality" />
		<tag k="ssr:stedsnr" v="449744" />
	</node>
<<<<<<< HEAD
	<node lat="59.085202777417024" lon="9.52993055036579" id="-20152">
		<tag k="name" v="Rauskott" />
=======
	<node id="-431078" lat="59.0143249965" lon="9.64983889215">
		<tag k="name" v="Stillinga" />
>>>>>>> e1d4bc35ff8a6074a6f2e91616a996b547c36f15
		<tag k="place" v="locality" />
		<tag k="ssr:stedsnr" v="240431" />
	</node>
<<<<<<< HEAD
	<node lat="59.10800195731351" lon="9.515492963566691" id="-20232">
=======
	<node id="-430438" lat="59.0458361116" lon="9.69906944999">
		<tag k="name" v="Åsen" />
		<tag k="place" v="locality" />
		<tag k="ssr:stedsnr" v="38803" />
	</node>
	<node id="-431711" lat="59.1080019573" lon="9.51549296357">
>>>>>>> e1d4bc35ff8a6074a6f2e91616a996b547c36f15
		<tag k="name" v="Gunnars" />
		<tag k="place" v="locality" />
		<tag k="ssr:stedsnr" v="305768" />
	</node>
<<<<<<< HEAD
	<node lat="59.102108334849" lon="9.53895833346258" id="-20318">
		<tag k="name" v="Bærtekåsa" />
=======
	<node id="-431070" lat="58.9883416704" lon="9.7511249986">
		<tag k="name" v="Tangen fort" />
>>>>>>> e1d4bc35ff8a6074a6f2e91616a996b547c36f15
		<tag k="place" v="locality" />
		<tag k="ssr:stedsnr" v="482964" />
	</node>
<<<<<<< HEAD
	<node lat="59.04030555502059" lon="9.521555547112698" id="-20348">
=======
	<node id="-430813" lat="59.040305555" lon="9.52155554711">
>>>>>>> e1d4bc35ff8a6074a6f2e91616a996b547c36f15
		<tag k="name" v="Kvernstoe" />
		<tag k="place" v="locality" />
		<tag k="ssr:stedsnr" v="405806" />
	</node>
<<<<<<< HEAD
	<node lat="59.00945018409223" lon="9.663958436418525" id="-20358">
=======
	<node id="-430796" lat="59.0703277737" lon="9.55613055963">
		<tag k="name" v="Enkas bånn" />
		<tag k="place" v="locality" />
		<tag k="ssr:stedsnr" v="403961" />
	</node>
	<node id="-430410" lat="58.981958332" lon="9.41697499242">
		<tag k="name" v="Moland" />
		<tag k="place" v="locality" />
		<tag k="ssr:stedsnr" v="223098" />
	</node>
	<node id="-430664" lat="58.9926388891" lon="9.7564111045">
		<tag k="name" v="Langøytangen radio" />
		<tag k="place" v="locality" />
		<tag k="ssr:stedsnr" v="449744" />
	</node>
	<node id="-430917" lat="58.9840138919" lon="9.39731111474">
		<tag k="name" v="Krobbdalsskotte" />
		<tag k="place" v="locality" />
		<tag k="ssr:stedsnr" v="526035" />
	</node>
	<node id="-430915" lat="59.006872222" lon="9.31536666827">
		<tag k="name" v="Skotte" />
		<tag k="place" v="locality" />
		<tag k="ssr:stedsnr" v="526157" />
	</node>
	<node id="-430400" lat="59.0382250002" lon="9.59402777982">
		<tag k="name" v="Harrys tjærebrenneri" />
		<tag k="place" v="locality" />
		<tag k="ssr:stedsnr" v="221876" />
	</node>
	<node id="-431551" lat="59.0792194426" lon="9.62642499924">
		<tag k="name" v="Islanddammen" />
		<tag k="place" v="locality" />
		<tag k="ssr:stedsnr" v="119959" />
	</node>
	<node id="-432190" lat="59.0030305527" lon="9.69703889733">
		<tag k="name" v="Ødegården" />
		<tag k="ssr:stedsnr" v="786443" />
		<tag k="tourism" v="attraction" />
	</node>
	<node id="-432137" lat="58.9830083312" lon="9.58929721513">
		<tag k="name" v="Kolbund" />
		<tag k="place" v="locality" />
		<tag k="ssr:stedsnr" v="767595" />
	</node>
	<node id="-431919" lat="58.9749305576" lon="9.40405554697">
		<tag k="name" v="Kollbonn" />
		<tag k="place" v="locality" />
		<tag k="ssr:stedsnr" v="526073" />
	</node>
	<node id="-430894" lat="59.0094499982" lon="9.66396666827">
>>>>>>> e1d4bc35ff8a6074a6f2e91616a996b547c36f15
		<tag k="amenity" v="place_of_worship" />
		<tag k="denomination" v="lutheran" />
		<tag k="name" v="Bamble kirke" />
		<tag k="religion" v="christian" />
		<tag k="ssr:stedsnr" v="486326" />
	</node>
<<<<<<< HEAD
	<node lat="58.96058115775782" lon="9.556394237776576" id="-20359">
		<tag k="alt_name" v="Ødegården verk" />
		<tag k="name" v="Ødegårdens Verk" />
		<tag k="place" v="locality" />
		<tag k="ssr:stedsnr" v="486297" />
=======
	<node id="-430885" lat="59.1021083348" lon="9.53895833346">
		<tag k="name" v="Bærtekåsa" />
		<tag k="place" v="locality" />
		<tag k="ssr:stedsnr" v="482964" />
	</node>
	<node id="-431140" lat="58.9999222188" lon="9.73766111414">
		<tag k="name" v="Krogshavn leirplass" />
		<tag k="place" v="locality" />
		<tag k="ssr:stedsnr" v="892884" />
>>>>>>> e1d4bc35ff8a6074a6f2e91616a996b547c36f15
	</node>
	<node id="-431776" lat="59.098586112" lon="9.54651666131">
		<tag k="name" v="Smiskottet" />
		<tag k="place" v="locality" />
		<tag k="ssr:stedsnr" v="361576" />
	</node>
	<node id="-431774" lat="59.0739888851" lon="9.49044444461">
		<tag k="name" v="Tjærehjellstoe" />
		<tag k="place" v="locality" />
		<tag k="ssr:stedsnr" v="361636" />
	</node>
	<node id="-430405" lat="59.0231305564" lon="9.47199166193">
		<tag k="name" v="Brannbokken" />
		<tag k="place" v="locality" />
		<tag k="ssr:stedsnr" v="222408" />
	</node>
	<node id="-430748" lat="58.958888885" lon="9.55632777587">
		<tag k="alt_name" v="Ødegårdens Verk" />
		<tag k="name" v="Ødegården verk" />
		<tag k="place" v="locality" />
		<tag k="ssr:stedsnr" v="486297" />
	</node>
	<node id="-430875" lat="59.1029500023" lon="9.56271943995">
		<tag k="amenity" v="place_of_worship" />
		<tag k="denomination" v="lutheran" />
		<tag k="name" v="Herre" />
		<tag k="religion" v="christian" />
		<tag k="ssr:stedsnr" v="669748" />
	</node>
	<node id="-430490" lat="59.0852027774" lon="9.52993055037">
		<tag k="name" v="Rauskott" />
		<tag k="place" v="locality" />
		<tag k="ssr:stedsnr" v="240431" />
	</node>
	<node id="-431896" lat="58.9963944475" lon="9.73833888362">
		<tag k="name" v="Badeplass" />
		<tag k="place" v="locality" />
		<tag k="ssr:stedsnr" v="521873" />
	</node>
	<node id="-431637" lat="59.1092361081" lon="9.54623332646">
		<tag k="name" v="Gamlekåsa" />
		<tag k="place" v="locality" />
		<tag k="ssr:stedsnr" v="300535" />
	</node>
	<node id="-432011" lat="58.9296861087" lon="9.59076944764">
		<tag k="name" v="Trolldalen" />
		<tag k="place" v="locality" />
		<tag k="ssr:stedsnr" v="586968" />
	</node>
	<node id="-432265" lat="59.0232527747" lon="9.49278611907">
		<tag k="name" v="Teintangen" />
		<tag k="place" v="locality" />
		<tag k="ssr:stedsnr" v="830455" />
	</node>
	<node id="-431237" lat="59.041649998" lon="9.69957222615">
		<tag k="amenity" v="place_of_worship" />
		<tag k="denomination" v="lutheran" />
		<tag k="name" v="Stathelle kapell" />
		<tag k="religion" v="christian" />
		<tag k="ssr:stedsnr" v="842981" />
	</node>
</osm>
