<?xml version="1.0" encoding="UTF-8"?>
<osm version="0.6" generator="osmapis">
	<node lat="58.999558333747665" lon="9.435438885617444" id="-47482">
		<tag k="name" v="Fuglemyr" />
		<tag k="natural" v="wetland" />
		<tag k="ssr:stedsnr" v="221963" />
	</node>
	<node lat="59.05043888845541" lon="9.588652777904421" id="-47487">
		<tag k="name" v="Siljanmyr" />
		<tag k="natural" v="wetland" />
		<tag k="ssr:stedsnr" v="24906" />
	</node>
	<node lat="59.00387222636469" lon="9.532627772156488" id="-47502">
		<tag k="name" v="Langmyr" />
		<tag k="natural" v="wetland" />
		<tag k="ssr:stedsnr" v="223650" />
	</node>
	<node lat="58.98131666626301" lon="9.563272222673708" id="-47517">
		<tag k="name" v="Stormyra" />
		<tag k="natural" v="wetland" />
		<tag k="ssr:stedsnr" v="39511" />
	</node>
	<node lat="58.95407499837129" lon="9.399619447173306" id="-47536">
		<tag k="name" v="Søndre Stormyr" />
		<tag k="natural" v="wetland" />
		<tag k="ssr:stedsnr" v="41404" />
	</node>
	<node lat="58.99290277478123" lon="9.518294446808786" id="-47540">
		<tag k="name" v="Bjørkekloppmyra" />
		<tag k="natural" v="wetland" />
		<tag k="ssr:stedsnr" v="41635" />
	</node>
	<node lat="58.940350003101685" lon="9.43312500670918" id="-47541">
		<tag k="name" v="Brukjerr" />
		<tag k="natural" v="wetland" />
		<tag k="ssr:stedsnr" v="41639" />
	</node>
	<node lat="59.03683611288315" lon="9.529141675261153" id="-47545">
		<tag k="name" v="Kringlemyr" />
		<tag k="natural" v="wetland" />
		<tag k="ssr:stedsnr" v="41776" />
	</node>
	<node lat="59.03362500119346" lon="9.615499997173606" id="-47554">
		<tag k="name" v="Postmyr" />
		<tag k="natural" v="wetland" />
		<tag k="ssr:stedsnr" v="58209" />
	</node>
	<node lat="58.986149997033024" lon="9.637849998453062" id="-47575">
		<tag k="name" v="Jåtemyr" />
		<tag k="natural" v="wetland" />
		<tag k="ssr:stedsnr" v="99903" />
	</node>
	<node lat="58.99234999898605" lon="9.577288884613118" id="-47587">
		<tag k="name" v="Svartholt" />
		<tag k="place" v="locality" />
		<tag k="ssr:stedsnr" v="101277" />
	</node>
	<node lat="58.993319445720985" lon="9.500091661222593" id="-47593">
		<tag k="name" v="Hørsfjellmyra" />
		<tag k="natural" v="wetland" />
		<tag k="ssr:stedsnr" v="101602" />
	</node>
	<node lat="59.038622221563585" lon="9.537144441270398" id="-47596">
		<tag k="name" v="Store Skyttermyr" />
		<tag k="natural" v="wetland" />
		<tag k="ssr:stedsnr" v="101761" />
	</node>
	<node lat="58.969058335607535" lon="9.48562777838782" id="-47608">
		<tag k="name" v="Lillejordmyra" />
		<tag k="natural" v="wetland" />
		<tag k="ssr:stedsnr" v="102505" />
	</node>
	<node lat="59.047683334299656" lon="9.562052781580356" id="-47640">
		<tag k="name" v="Røymyr" />
		<tag k="natural" v="wetland" />
		<tag k="ssr:stedsnr" v="141878" />
	</node>
	<node lat="58.96333332921308" lon="9.609163897173802" id="-47660">
		<tag k="name" v="Søndre Kneggerød" />
		<tag k="place" v="locality" />
		<tag k="ssr:stedsnr" v="160149" />
	</node>
	<node lat="59.066630552237605" lon="9.519219439208689" id="-47676">
		<tag k="name" v="Seterlemyra" />
		<tag k="natural" v="wetland" />
		<tag k="ssr:stedsnr" v="162221" />
	</node>
	<node lat="59.0261805593646" lon="9.4450611137181" id="-47678">
		<tag k="name" v="Bjørkebuktmyra" />
		<tag k="natural" v="wetland" />
		<tag k="ssr:stedsnr" v="162498" />
	</node>
	<node lat="58.96749999643182" lon="9.588952769250213" id="-47716">
		<tag k="name" v="Haukedalsmyra" />
		<tag k="natural" v="wetland" />
		<tag k="ssr:stedsnr" v="221406" />
	</node>
	<node lat="58.97267777461567" lon="9.595861106686435" id="-47718">
		<tag k="name" v="Haganemyra" />
		<tag k="natural" v="wetland" />
		<tag k="ssr:stedsnr" v="221397" />
	</node>
	<node lat="59.00194444742638" lon="9.602730548193037" id="-47728">
		<tag k="name" v="Mørke kjærra" />
		<tag k="natural" v="wetland" />
		<tag k="ssr:stedsnr" v="223318" />
	</node>
	<node lat="59.02942222130507" lon="9.600352786123155" id="-47729">
		<tag k="name" v="Byttingsmyr" />
		<tag k="natural" v="wetland" />
		<tag k="ssr:stedsnr" v="223447" />
	</node>
	<node lat="59.03755833509999" lon="9.604944439338714" id="-47739">
		<tag k="name" v="Bamlerønningen" />
		<tag k="place" v="locality" />
		<tag k="ssr:stedsnr" v="240204" />
	</node>
	<node lat="59.11658055788476" lon="9.531099995741872" id="-47741">
		<tag k="name" v="Siljanmyra" />
		<tag k="natural" v="wetland" />
		<tag k="ssr:stedsnr" v="240162" />
	</node>
	<node lat="59.0418333302447" lon="9.470769452301441" id="-47772">
		<tag k="name" v="Plankestillingsmyrane" />
		<tag k="natural" v="wetland" />
		<tag k="ssr:stedsnr" v="283014" />
	</node>
	<node lat="59.019388889947244" lon="9.481380551931899" id="-47773">
		<tag k="name" v="Gottenborg" />
		<tag k="place" v="locality" />
		<tag k="ssr:stedsnr" v="283032" />
	</node>
	<node lat="59.02898055926261" lon="9.57108055090543" id="-47777">
		<tag k="name" v="Droplanemyr" />
		<tag k="natural" v="wetland" />
		<tag k="ssr:stedsnr" v="283340" />
	</node>
	<node lat="59.07175000284176" lon="9.526125006308805" id="-47817">
		<tag k="alt_name" v="Store Slåtta" />
		<tag k="name" v="Slåtta" />
		<tag k="natural" v="wetland" />
		<tag k="ssr:stedsnr" v="305875" />
	</node>
	<node lat="59.03042222097464" lon="9.706963884372971" id="-47826">
		<tag k="landuse" v="quarry" />
		<tag k="name" v="Nordre Synken" />
		<tag k="ssr:stedsnr" v="342108" />
	</node>
	<node lat="59.05336944244003" lon="9.574741672256287" id="-47830">
		<tag k="name" v="Langkjerr" />
		<tag k="natural" v="wetland" />
		<tag k="ssr:stedsnr" v="342617" />
	</node>
	<node lat="59.0621361127875" lon="9.559355558753577" id="-47831">
		<tag k="name" v="Dammyrane" />
		<tag k="natural" v="wetland" />
		<tag k="ssr:stedsnr" v="342621" />
	</node>
	<node lat="59.06736388634572" lon="9.492619440794138" id="-47839">
		<tag k="name" v="Rundtjennmyra" />
		<tag k="natural" v="wetland" />
		<tag k="ssr:stedsnr" v="344518" />
	</node>
	<node lat="59.07765555914962" lon="9.57748332529307" id="-47862">
		<tag k="name" v="Dammyr" />
		<tag k="natural" v="wetland" />
		<tag k="ssr:stedsnr" v="464945" />
	</node>
	<node lat="59.07147424811992" lon="9.566005496674226" id="-47864">
		<tag k="name" v="Bjelkemyr" />
		<tag k="natural" v="wetland" />
		<tag k="ssr:stedsnr" v="464954" />
	</node>
	<node lat="59.00003888656559" lon="9.320594438145466" id="-47869">
		<tag k="name" v="Jutmyr" />
		<tag k="natural" v="wetland" />
		<tag k="ssr:stedsnr" v="465150" />
	</node>
	<node lat="58.95879444232623" lon="9.500841664756877" id="-47896">
		<tag k="name" v="Staksmyr" />
		<tag k="natural" v="wetland" />
		<tag k="ssr:stedsnr" v="466931" />
	</node>
	<node lat="58.934169443132" lon="9.580502777854385" id="-47903">
		<tag k="name" v="Hestmyra" />
		<tag k="natural" v="wetland" />
		<tag k="ssr:stedsnr" v="403010" />
	</node>
	<node lat="59.035977778434756" lon="9.592433334830563" id="-47908">
		<tag k="name" v="Moltemyr" />
		<tag k="natural" v="wetland" />
		<tag k="ssr:stedsnr" v="403895" />
	</node>
	<node lat="58.942661113132274" lon="9.487016664702821" id="-47923">
		<tag k="name" v="Dalane" />
		<tag k="place" v="locality" />
		<tag k="ssr:stedsnr" v="405615" />
	</node>
	<node lat="58.99301944485964" lon="9.532736114535311" id="-47927">
		<tag k="name" v="Hestetjennmyra" />
		<tag k="natural" v="wetland" />
		<tag k="ssr:stedsnr" v="405657" />
	</node>
	<node lat="59.04708611024925" lon="9.550811113838202" id="-47929">
		<tag k="name" v="Flisemyrane" />
		<tag k="natural" v="wetland" />
		<tag k="ssr:stedsnr" v="405814" />
	</node>
	<node lat="58.95870833539711" lon="9.483597222641924" id="-47962">
		<tag k="name" v="Mansmyr" />
		<tag k="natural" v="wetland" />
		<tag k="ssr:stedsnr" v="463665" />
	</node>
	<node lat="59.041291667775006" lon="9.686561110415127" id="-47964">
		<tag k="name" v="Håve" />
		<tag k="place" v="locality" />
		<tag k="ssr:stedsnr" v="463763" />
	</node>
	<node lat="59.0071277760538" lon="9.461688888710865" id="-47977">
		<tag k="name" v="Fuglemyra" />
		<tag k="natural" v="wetland" />
		<tag k="ssr:stedsnr" v="465469" />
	</node>
	<node lat="58.999786112900395" lon="9.526922219868636" id="-47981">
		<tag k="name" v="Stormyr" />
		<tag k="natural" v="wetland" />
		<tag k="ssr:stedsnr" v="465588" />
	</node>
	<node lat="59.03361111047212" lon="9.538474995004044" id="-47984">
		<tag k="name" v="Moltemyr" />
		<tag k="natural" v="wetland" />
		<tag k="ssr:stedsnr" v="465767" />
	</node>
	<node lat="58.97877222416893" lon="9.42920833455823" id="-47987">
		<tag k="name" v="Staksmyr" />
		<tag k="natural" v="wetland" />
		<tag k="ssr:stedsnr" v="466074" />
	</node>
	<node lat="58.95444444732425" lon="9.573502774478056" id="-48039">
		<tag k="name" v="Fuglemyra" />
		<tag k="natural" v="wetland" />
		<tag k="ssr:stedsnr" v="524822" />
	</node>
	<node lat="59.00332500350732" lon="9.411122225628029" id="-48043">
		<tag k="name" v="Øvre Langbrukjerr" />
		<tag k="natural" v="wetland" />
		<tag k="ssr:stedsnr" v="525974" />
	</node>
	<node lat="59.06852222170303" lon="9.486988888213226" id="-48047">
		<tag k="name" v="Lamyr" />
		<tag k="natural" v="wetland" />
		<tag k="ssr:stedsnr" v="526503" />
	</node>
	<node lat="59.040800003361376" lon="9.594063891959244" id="-48083">
		<tag k="name" v="Kobbertjennmyra" />
		<tag k="natural" v="wetland" />
		<tag k="ssr:stedsnr" v="585896" />
	</node>
	<node lat="59.0563027777147" lon="9.530013890063008" id="-48084">
		<tag k="name" v="Breimyr" />
		<tag k="natural" v="wetland" />
		<tag k="ssr:stedsnr" v="586262" />
	</node>
	<node lat="58.99871944276304" lon="9.546027779428115" id="-48086">
		<tag k="name" v="Pelemyr" />
		<tag k="natural" v="wetland" />
		<tag k="ssr:stedsnr" v="586602" />
	</node>
	<node lat="59.04663055590275" lon="9.584947224457688" id="-48119">
		<tag k="name" v="Høymyr" />
		<tag k="natural" v="wetland" />
		<tag k="ssr:stedsnr" v="631917" />
	</node>
	<node lat="59.04318332952102" lon="9.538169449083318" id="-48141">
		<tag k="name" v="Stomyra" />
		<tag k="natural" v="wetland" />
		<tag k="ssr:stedsnr" v="647796" />
	</node>
	<node lat="59.08840833362242" lon="9.598086107302132" id="-48148">
		<tag k="alt_name" v="Strandmyrane" />
		<tag k="name" v="Strandmyra" />
		<tag k="natural" v="wetland" />
		<tag k="ssr:stedsnr" v="655547" />
	</node>
	<node lat="58.99300277676968" lon="9.409911117249402" id="-48187">
		<tag k="name" v="Mosfjellmyra" />
		<tag k="natural" v="wetland" />
		<tag k="ssr:stedsnr" v="707663" />
	</node>
	<node lat="59.02466944877832" lon="9.403674991412949" id="-48197">
		<tag k="name" v="Sneltvedtstykket" />
		<tag k="place" v="locality" />
		<tag k="ssr:stedsnr" v="708082" />
	</node>
	<node lat="59.01445833106619" lon="9.422452781745363" id="-48218">
		<tag k="name" v="Steinsvannsøktmyr" />
		<tag k="natural" v="wetland" />
		<tag k="ssr:stedsnr" v="889037" />
	</node>
	<node lat="58.94941944577425" lon="9.552269437374584" id="-48225">
		<tag k="name" v="Svinemyra" />
		<tag k="natural" v="wetland" />
		<tag k="ssr:stedsnr" v="889660" />
	</node>
	<node lat="59.045269448621426" lon="9.613511102901086" id="-48232">
		<tag k="name" v="Moltemyr" />
		<tag k="natural" v="wetland" />
		<tag k="ssr:stedsnr" v="889732" />
	</node>
	<node lat="59.00574722540443" lon="9.607091673349824" id="-48237">
		<tag k="name" v="Breimyr" />
		<tag k="natural" v="wetland" />
		<tag k="ssr:stedsnr" v="889784" />
	</node>
	<node lat="59.03268333273298" lon="9.575822229355564" id="-48239">
		<tag k="name" v="Hestevelta" />
		<tag k="natural" v="wetland" />
		<tag k="ssr:stedsnr" v="889869" />
	</node>
	<node lat="58.95879722627653" lon="9.558719446746402" id="-48241">
		<tag k="name" v="Svartkjerr" />
		<tag k="place" v="locality" />
		<tag k="ssr:stedsnr" v="889829" />
	</node>
	<node lat="58.98923055572587" lon="9.52767222432538" id="-48278">
		<tag k="name" v="Hestetjennmyra" />
		<tag k="natural" v="wetland" />
		<tag k="ssr:stedsnr" v="891644" />
	</node>
	<node lat="59.048902776074684" lon="9.39897222320934" id="-48287">
		<tag k="name" v="Eiklund" />
		<tag k="place" v="locality" />
		<tag k="ssr:stedsnr" v="767041" />
	</node>
	<node lat="59.01939166600165" lon="9.64199722500632" id="-48288">
		<tag k="name" v="Hellesmyr" />
		<tag k="natural" v="wetland" />
		<tag k="ssr:stedsnr" v="767043" />
	</node>
	<node lat="59.001197223482905" lon="9.608705549742718" id="-48298">
		<tag k="name" v="Bjønnmyr" />
		<tag k="natural" v="wetland" />
		<tag k="ssr:stedsnr" v="767845" />
	</node>
	<node lat="59.01148055351834" lon="9.492774997202718" id="-48301">
		<tag k="name" v="Rausandmarka" />
		<tag k="place" v="locality" />
		<tag k="ssr:stedsnr" v="768597" />
	</node>
	<node lat="58.98171666282241" lon="9.413227773766186" id="-48302">
		<tag k="name" v="Kartmyr" />
		<tag k="natural" v="wetland" />
		<tag k="ssr:stedsnr" v="769108" />
	</node>
	<node lat="59.00659722294955" lon="9.598749999293203" id="-48303">
		<tag k="name" v="Svalemyr" />
		<tag k="natural" v="wetland" />
		<tag k="ssr:stedsnr" v="769303" />
	</node>
	<node lat="59.02454722009355" lon="9.428241662008334" id="-48304">
		<tag k="name" v="Hyttekjerret" />
		<tag k="natural" v="wetland" />
		<tag k="ssr:stedsnr" v="769053" />
	</node>
	<node lat="59.02514722010576" lon="9.464724992377509" id="-48308">
		<tag k="name" v="Seterdukane" />
		<tag k="natural" v="wetland" />
		<tag k="ssr:stedsnr" v="769471" />
	</node>
	<node lat="59.00229166605972" lon="9.542825005047199" id="-48310">
		<tag k="name" v="Småmyrstykket" />
		<tag k="place" v="locality" />
		<tag k="ssr:stedsnr" v="769616" />
	</node>
	<node lat="59.003066664038656" lon="9.505677779969826" id="-48312">
		<tag k="name" v="Byttingsmyr" />
		<tag k="natural" v="wetland" />
		<tag k="ssr:stedsnr" v="769625" />
	</node>
	<node lat="58.999469444957725" lon="9.628988893559809" id="-48350">
		<tag k="name" v="Brekkemyra" />
		<tag k="natural" v="wetland" />
		<tag k="ssr:stedsnr" v="907200" />
	</node>
	<node lat="59.031608337422796" lon="9.61781388130326" id="-48352">
		<tag k="name" v="Langmyr" />
		<tag k="natural" v="wetland" />
		<tag k="ssr:stedsnr" v="908077" />
	</node>
	<node lat="59.08614444323211" lon="9.547230559261239" id="-48354">
		<tag k="name" v="Nordalsmyra" />
		<tag k="natural" v="wetland" />
		<tag k="ssr:stedsnr" v="908545" />
	</node>
	<node lat="59.003772226264736" lon="9.429424998840757" id="-48363">
		<tag k="name" v="Moldkleivmyra" />
		<tag k="natural" v="wetland" />
		<tag k="ssr:stedsnr" v="828966" />
	</node>
	<node lat="59.06113055128757" lon="9.532094443536186" id="-48367">
		<tag k="name" v="Klepp Langmyr" />
		<tag k="natural" v="wetland" />
		<tag k="ssr:stedsnr" v="830209" />
	</node>
	<node lat="59.0701583350731" lon="9.486833332155992" id="-48373">
		<tag k="name" v="Rasmuses myr" />
		<tag k="natural" v="wetland" />
		<tag k="ssr:stedsnr" v="830495" />
	</node>
	<node lat="59.022427778402985" lon="9.569044437028394" id="-48375">
		<tag k="name" v="Småmyrane" />
		<tag k="natural" v="wetland" />
		<tag k="ssr:stedsnr" v="830382" />
	</node>
	<node lat="58.99625833724258" lon="9.746599992642189" id="-48381">
		<tag k="name" v="Tangen" />
		<tag k="place" v="locality" />
		<tag k="ssr:stedsnr" v="831195" />
	</node>
	<node lat="59.063205554224204" lon="9.572205547749142" id="-48430">
		<tag k="name" v="Øvre Fuglemyra" />
		<tag k="natural" v="wetland" />
		<tag k="ssr:stedsnr" v="889863" />
	</node>
	<node lat="58.99816944394182" lon="9.448411112295142" id="-48438">
		<tag k="name" v="Grunntjennstykke" />
		<tag k="place" v="locality" />
		<tag k="ssr:stedsnr" v="890516" />
	</node>
	<node lat="59.067049996079334" lon="9.484050008310668" id="-48439">
		<tag k="name" v="Lyngmyr" />
		<tag k="natural" v="wetland" />
		<tag k="ssr:stedsnr" v="890519" />
	</node>
	<node lat="59.0213166676473" lon="9.447141666247756" id="-48443">
		<tag k="name" v="Bonnane" />
		<tag k="natural" v="wetland" />
		<tag k="ssr:stedsnr" v="890461" />
	</node>
	<node lat="58.997377781675894" lon="9.536344448918799" id="-48448">
		<tag k="name" v="Droplemyr" />
		<tag k="natural" v="wetland" />
		<tag k="ssr:stedsnr" v="891627" />
	</node>
	<node lat="58.97987499939617" lon="9.369313889971897" id="-48481">
		<tag k="name" v="Brukjerrmyra" />
		<tag k="natural" v="wetland" />
		<tag k="ssr:stedsnr" v="951342" />
	</node>
	<node lat="59.00068610758281" lon="9.597969452167229" id="-48482">
		<tag k="name" v="Tranbærmyra" />
		<tag k="natural" v="wetland" />
		<tag k="ssr:stedsnr" v="951298" />
	</node>
	<node lat="58.97182499645507" lon="9.536383336102205" id="-48483">
		<tag k="name" v="Høymyr" />
		<tag k="natural" v="wetland" />
		<tag k="ssr:stedsnr" v="951714" />
	</node>
	<node lat="59.04881388818631" lon="9.570124994868623" id="-48545">
		<tag k="name" v="Stormyr" />
		<tag k="natural" v="wetland" />
		<tag k="ssr:stedsnr" v="12924" />
	</node>
	<node lat="58.9602972245402" lon="9.562524999307131" id="-48558">
		<tag k="name" v="Rønningane" />
		<tag k="place" v="locality" />
		<tag k="ssr:stedsnr" v="39797" />
	</node>
	<node lat="59.05671944547923" lon="9.563719449741372" id="-48563">
		<tag k="name" v="Droplane" />
		<tag k="natural" v="wetland" />
		<tag k="ssr:stedsnr" v="39598" />
	</node>
	<node lat="59.03202499659642" lon="9.60222222241111" id="-48571">
		<tag k="name" v="Slåttemyr" />
		<tag k="natural" v="wetland" />
		<tag k="ssr:stedsnr" v="39854" />
	</node>
	<node lat="59.01160833745286" lon="9.47892223091802" id="-48572">
		<tag k="name" v="Fuglestein" />
		<tag k="place" v="locality" />
		<tag k="ssr:stedsnr" v="40042" />
	</node>
	<node lat="59.018202777715906" lon="9.583366662122494" id="-48576">
		<tag k="name" v="Hestemyra" />
		<tag k="natural" v="wetland" />
		<tag k="ssr:stedsnr" v="40447" />
	</node>
	<node lat="59.023258335840076" lon="9.47493889615274" id="-48582">
		<tag k="name" v="Bevermyr" />
		<tag k="natural" v="wetland" />
		<tag k="ssr:stedsnr" v="40465" />
	</node>
	<node lat="59.079786109009525" lon="9.544558324826866" id="-48606">
		<tag k="name" v="Tjærehjellmyra" />
		<tag k="natural" v="wetland" />
		<tag k="ssr:stedsnr" v="58456" />
	</node>
	<node lat="59.09011111090473" lon="9.531313896501402" id="-48607">
		<tag k="name" v="Den farlige myra" />
		<tag k="natural" v="wetland" />
		<tag k="ssr:stedsnr" v="58525" />
	</node>
	<node lat="59.05999999972014" lon="9.572147229823699" id="-48652">
		<tag k="name" v="Vardåskjerret" />
		<tag k="place" v="locality" />
		<tag k="ssr:stedsnr" v="100629" />
	</node>
	<node lat="59.03347222119976" lon="9.595322228543182" id="-48655">
		<tag k="name" v="Svarttjennkjerra" />
		<tag k="natural" v="wetland" />
		<tag k="ssr:stedsnr" v="100836" />
	</node>
	<node lat="59.076672219266676" lon="9.566216667062026" id="-48659">
		<tag k="name" v="Stormyr" />
		<tag k="natural" v="wetland" />
		<tag k="ssr:stedsnr" v="100941" />
	</node>
	<node lat="58.98604166343252" lon="9.546038882319392" id="-48663">
		<tag k="name" v="Kjerringmyr" />
		<tag k="natural" v="wetland" />
		<tag k="ssr:stedsnr" v="101336" />
	</node>
	<node lat="58.943552780807345" lon="9.418836112872079" id="-48666">
		<tag k="landuse" v="quarry" />
		<tag k="name" v="Adventuren fjellbrudd" />
		<tag k="ssr:stedsnr" v="101634" />
	</node>
	<node lat="59.02750833441384" lon="9.571202769733151" id="-48667">
		<tag k="name" v="Barlinddalsmyra" />
		<tag k="natural" v="wetland" />
		<tag k="ssr:stedsnr" v="101398" />
	</node>
	<node lat="59.03462777382326" lon="9.628947216295892" id="-48693">
		<tag k="name" v="Rundmyr" />
		<tag k="natural" v="wetland" />
		<tag k="ssr:stedsnr" v="119066" />
	</node>
	<node lat="58.98567499952189" lon="9.464600002615516" id="-48700">
		<tag k="name" v="Lamyra" />
		<tag k="natural" v="wetland" />
		<tag k="ssr:stedsnr" v="122334" />
	</node>
	<node lat="59.02980832966902" lon="9.374202785049302" id="-48720">
		<tag k="name" v="Kringlemyr" />
		<tag k="natural" v="wetland" />
		<tag k="ssr:stedsnr" v="160077" />
	</node>
	<node lat="59.02072777450779" lon="9.582216664984077" id="-48746">
		<tag k="name" v="Hjellkjerrmyra" />
		<tag k="natural" v="wetland" />
		<tag k="ssr:stedsnr" v="162411" />
	</node>
	<node lat="59.03224721882333" lon="9.626441663886128" id="-48775">
		<tag k="name" v="Spirmyr" />
		<tag k="natural" v="wetland" />
		<tag k="ssr:stedsnr" v="179082" />
	</node>
	<node lat="59.03611111532445" lon="9.619350003182875" id="-48776">
		<tag k="name" v="Hestemyr" />
		<tag k="natural" v="wetland" />
		<tag k="ssr:stedsnr" v="179184" />
	</node>
	<node lat="59.091411110504296" lon="9.543780547249279" id="-48779">
		<tag k="name" v="Johanneses myr" />
		<tag k="natural" v="wetland" />
		<tag k="ssr:stedsnr" v="179481" />
	</node>
	<node lat="59.03990277519016" lon="9.558788881891415" id="-48805">
		<tag k="name" v="Angersmyr" />
		<tag k="natural" v="wetland" />
		<tag k="ssr:stedsnr" v="206884" />
	</node>
	<node lat="59.045674997390904" lon="9.589391675122041" id="-48806">
		<tag k="name" v="Breimyr" />
		<tag k="natural" v="wetland" />
		<tag k="ssr:stedsnr" v="206893" />
	</node>
	<node lat="58.983422219178934" lon="9.571763893081949" id="-48818">
		<tag k="name" v="Fuglemyra" />
		<tag k="natural" v="wetland" />
		<tag k="ssr:stedsnr" v="282595" />
	</node>
	<node lat="59.023027781132264" lon="9.689527773017511" id="-48824">
		<tag k="name" v="Grindbakken" />
		<tag k="place" v="locality" />
		<tag k="ssr:stedsnr" v="282066" />
	</node>
	<node lat="58.96277500419341" lon="9.39469166328689" id="-48841">
		<tag k="name" v="Nordre Stormyr" />
		<tag k="natural" v="wetland" />
		<tag k="ssr:stedsnr" v="284428" />
	</node>
	<node lat="59.060138889246005" lon="9.545847225540939" id="-48844">
		<tag k="name" v="Igletjennmyra" />
		<tag k="natural" v="wetland" />
		<tag k="ssr:stedsnr" v="284268" />
	</node>
	<node lat="58.99100555921302" lon="9.517516668998523" id="-48847">
		<tag k="name" v="Brentemyr" />
		<tag k="natural" v="wetland" />
		<tag k="ssr:stedsnr" v="284640" />
	</node>
	<node lat="58.9388666638023" lon="9.490838880376481" id="-48848">
		<tag k="name" v="Kvernhushagen" />
		<tag k="place" v="locality" />
		<tag k="ssr:stedsnr" v="284644" />
	</node>
	<node lat="58.97608333314256" lon="9.646583336454926" id="-48887">
		<tag k="name" v="Østre Ødegården" />
		<tag k="place" v="locality" />
		<tag k="ssr:stedsnr" v="342136" />
	</node>
	<node lat="59.049422222971344" lon="9.53327222124782" id="-48921">
		<tag k="name" v="Øygardsmyra" />
		<tag k="natural" v="wetland" />
		<tag k="ssr:stedsnr" v="344793" />
	</node>
	<node lat="58.998249999216206" lon="9.518555552755643" id="-48923">
		<tag k="name" v="Sibirien" />
		<tag k="natural" v="wetland" />
		<tag k="ssr:stedsnr" v="344997" />
	</node>
	<node lat="59.03934166994506" lon="9.626938889577854" id="-48930">
		<tag k="name" v="Einarrønningen" />
		<tag k="place" v="locality" />
		<tag k="ssr:stedsnr" v="361195" />
	</node>
	<node lat="59.07599999689487" lon="9.527758336239552" id="-48935">
		<tag k="name" v="Lille slåtta" />
		<tag k="natural" v="wetland" />
		<tag k="ssr:stedsnr" v="361454" />
	</node>
	<node lat="59.10545000210621" lon="9.527602782587925" id="-48940">
		<tag k="name" v="Bjønnholmyra" />
		<tag k="natural" v="wetland" />
		<tag k="ssr:stedsnr" v="361986" />
	</node>
	<node lat="58.96787222307471" lon="9.538375004529463" id="-48962">
		<tag k="landuse" v="quarry" />
		<tag k="name" v="Meikjerr" />
		<tag k="ssr:stedsnr" v="388445" />
	</node>
	<node lat="59.076155557023775" lon="9.583516675358585" id="-48982">
		<tag k="name" v="Fremste myr" />
		<tag k="natural" v="wetland" />
		<tag k="ssr:stedsnr" v="403949" />
	</node>
	<node lat="58.977869442340555" lon="9.395725007650595" id="-48990">
		<tag k="name" v="Stormyr" />
		<tag k="natural" v="wetland" />
		<tag k="ssr:stedsnr" v="405089" />
	</node>
	<node lat="58.966044448923604" lon="9.43419721986669" id="-48997">
		<tag k="name" v="Boelsmyr" />
		<tag k="natural" v="wetland" />
		<tag k="ssr:stedsnr" v="405436" />
	</node>
	<node lat="59.0377555521089" lon="9.619163889184646" id="-49010">
		<tag k="name" v="Blaute kjerret" />
		<tag k="natural" v="wetland" />
		<tag k="ssr:stedsnr" v="422170" />
	</node>
	<node lat="59.09414166557098" lon="9.53755555341157" id="-49014">
		<tag k="name" v="Tranbærmyra" />
		<tag k="natural" v="wetland" />
		<tag k="ssr:stedsnr" v="422489" />
	</node>
	<node lat="59.04952499841311" lon="9.442300000121534" id="-49033">
		<tag k="name" v="Langsmarka" />
		<tag k="place" v="locality" />
		<tag k="ssr:stedsnr" v="426837" />
	</node>
	<node lat="59.031877774354314" lon="9.563705558879994" id="-49074">
		<tag k="name" v="Bjørkebumyra" />
		<tag k="natural" v="wetland" />
		<tag k="ssr:stedsnr" v="524839" />
	</node>
	<node lat="59.06861111157248" lon="9.594691672267889" id="-49077">
		<tag k="name" v="Kleppmyra" />
		<tag k="natural" v="wetland" />
		<tag k="ssr:stedsnr" v="524733" />
	</node>
	<node lat="59.030636113578105" lon="9.596216663535927" id="-49084">
		<tag k="name" v="Gunnars plassmyra" />
		<tag k="natural" v="wetland" />
		<tag k="ssr:stedsnr" v="524859" />
	</node>
	<node lat="59.086119440316075" lon="9.557155559032122" id="-49085">
		<tag k="name" v="Tråk Langmyr" />
		<tag k="natural" v="wetland" />
		<tag k="ssr:stedsnr" v="524934" />
	</node>
	<node lat="59.01874166515298" lon="9.40059444723443" id="-49093">
		<tag k="name" v="Rørholtbevermyr" />
		<tag k="natural" v="wetland" />
		<tag k="ssr:stedsnr" v="526230" />
	</node>
	<node lat="58.956441665303856" lon="9.410219437224287" id="-49098">
		<tag k="name" v="Skjellaugmyra" />
		<tag k="natural" v="wetland" />
		<tag k="ssr:stedsnr" v="526436" />
	</node>
	<node lat="59.037138886717436" lon="9.628394443072175" id="-49109">
		<tag k="name" v="Moltemyr" />
		<tag k="natural" v="wetland" />
		<tag k="ssr:stedsnr" v="543215" />
	</node>
	<node lat="59.064191665055915" lon="9.581166674851065" id="-49139">
		<tag k="name" v="Nedre Fuglemyra" />
		<tag k="natural" v="wetland" />
		<tag k="ssr:stedsnr" v="585628" />
	</node>
	<node lat="59.07593055213375" lon="9.561013894523716" id="-49148">
		<tag k="name" v="Vassmyr" />
		<tag k="natural" v="wetland" />
		<tag k="ssr:stedsnr" v="585937" />
	</node>
	<node lat="58.941563888215" lon="9.558383339281072" id="-49149">
		<tag k="name" v="Korskjerra" />
		<tag k="place" v="locality" />
		<tag k="ssr:stedsnr" v="585938" />
	</node>
	<node lat="59.03650555655383" lon="9.491574992207916" id="-49161">
		<tag k="name" v="Høymyrane" />
		<tag k="natural" v="wetland" />
		<tag k="ssr:stedsnr" v="587030" />
	</node>
	<node lat="59.01102221907685" lon="9.445361119138038" id="-49220">
		<tag k="name" v="Maurhaugane" />
		<tag k="place" v="locality" />
		<tag k="ssr:stedsnr" v="647047" />
	</node>
	<node lat="59.00769722205365" lon="9.560777773426292" id="-49233">
		<tag k="name" v="Strandskaugen" />
		<tag k="place" v="locality" />
		<tag k="ssr:stedsnr" v="647378" />
	</node>
	<node lat="59.04669999970814" lon="9.558688891326515" id="-49251">
		<tag k="name" v="Langemyr" />
		<tag k="natural" v="wetland" />
		<tag k="ssr:stedsnr" v="706933" />
	</node>
	<node lat="59.08088333272528" lon="9.558302770156342" id="-49252">
		<tag k="name" v="Munkemyra" />
		<tag k="natural" v="wetland" />
		<tag k="ssr:stedsnr" v="706946" />
	</node>
	<node lat="59.05544166519316" lon="9.519425003369346" id="-49256">
		<tag k="name" v="Trytetjennlona" />
		<tag k="natural" v="wetland" />
		<tag k="ssr:stedsnr" v="708249" />
	</node>
	<node lat="59.04971944053101" lon="9.544363895954726" id="-49260">
		<tag k="name" v="Dypmyr" />
		<tag k="natural" v="wetland" />
		<tag k="ssr:stedsnr" v="708778" />
	</node>
	<node lat="59.034424997647896" lon="9.511069437156312" id="-49267">
		<tag k="name" v="Lopptjennmyrane" />
		<tag k="natural" v="wetland" />
		<tag k="ssr:stedsnr" v="708768" />
	</node>
	<node lat="58.94370833471337" lon="9.624350000786215" id="-49299">
		<tag k="name" v="Myra" />
		<tag k="natural" v="wetland" />
		<tag k="ssr:stedsnr" v="767332" />
	</node>
	<node lat="59.03991389141516" lon="9.479244438664193" id="-49321">
		<tag k="name" v="Langemyrane" />
		<tag k="natural" v="wetland" />
		<tag k="ssr:stedsnr" v="768021" />
	</node>
	<node lat="59.02064721794262" lon="9.465000004918315" id="-49324">
		<tag k="name" v="Rørholtslåtta" />
		<tag k="natural" v="wetland" />
		<tag k="ssr:stedsnr" v="768424" />
	</node>
	<node lat="59.026513888467676" lon="9.59436389117135" id="-49336">
		<tag k="name" v="Stormyr" />
		<tag k="natural" v="wetland" />
		<tag k="ssr:stedsnr" v="769432" />
	</node>
	<node lat="59.10430277416766" lon="9.519397225062537" id="-49355">
		<tag k="name" v="Damdalsmyra" />
		<tag k="natural" v="wetland" />
		<tag k="ssr:stedsnr" v="786078" />
	</node>
	<node lat="59.04941944561879" lon="9.599925003448671" id="-49383">
		<tag k="name" v="Småmyrane" />
		<tag k="natural" v="wetland" />
		<tag k="ssr:stedsnr" v="813876" />
	</node>
	<node lat="58.976055558109316" lon="9.594708328961433" id="-49390">
		<tag k="name" v="Haralds hagen" />
		<tag k="place" v="locality" />
		<tag k="ssr:stedsnr" v="828408" />
	</node>
	<node lat="59.00573888972073" lon="9.563930556527488" id="-49401">
		<tag k="name" v="Hegnajordet" />
		<tag k="place" v="locality" />
		<tag k="ssr:stedsnr" v="830341" />
	</node>
	<node lat="59.02434722458997" lon="9.392347220264606" id="-49404">
		<tag k="name" v="Lilløyseterstykket" />
		<tag k="place" v="locality" />
		<tag k="ssr:stedsnr" v="830063" />
	</node>
	<node lat="58.98990555488129" lon="9.53961110864824" id="-49410">
		<tag k="name" v="Steindammyra" />
		<tag k="natural" v="wetland" />
		<tag k="ssr:stedsnr" v="830635" />
	</node>
	<node lat="58.95701666396015" lon="9.51324723039128" id="-49415">
		<tag k="name" v="Huskemyr" />
		<tag k="natural" v="wetland" />
		<tag k="ssr:stedsnr" v="830958" />
	</node>
	<node lat="59.02818333025476" lon="9.625111118080511" id="-49428">
		<tag k="name" v="Kjonemyr" />
		<tag k="natural" v="wetland" />
		<tag k="ssr:stedsnr" v="847838" />
	</node>
	<node lat="59.04788611503805" lon="9.587063883766978" id="-49456">
		<tag k="name" v="Rundmyr" />
		<tag k="natural" v="wetland" />
		<tag k="ssr:stedsnr" v="874891" />
	</node>
	<node lat="59.014033334158945" lon="9.431752777914543" id="-49463">
		<tag k="name" v="Fjølbumyra" />
		<tag k="natural" v="wetland" />
		<tag k="ssr:stedsnr" v="949022" />
	</node>
	<node lat="59.04890833781359" lon="9.439105550959885" id="-49484">
		<tag k="name" v="Himmyra" />
		<tag k="natural" v="wetland" />
		<tag k="ssr:stedsnr" v="950338" />
	</node>
	<node lat="59.05871944356014" lon="9.522374996093529" id="-49488">
		<tag k="name" v="Kromlemyr" />
		<tag k="natural" v="wetland" />
		<tag k="ssr:stedsnr" v="951245" />
	</node>
	<node lat="58.9955361120814" lon="9.47806665821724" id="-49495">
		<tag k="name" v="Kontemyra" />
		<tag k="natural" v="wetland" />
		<tag k="ssr:stedsnr" v="951515" />
	</node>
	<node lat="58.99588611266993" lon="9.468402783325047" id="-49496">
		<tag k="name" v="Krokmyra" />
		<tag k="natural" v="wetland" />
		<tag k="ssr:stedsnr" v="951517" />
	</node>
	<node lat="59.025013887646416" lon="9.551022216794628" id="-49497">
		<tag k="name" v="Jørgens myr" />
		<tag k="natural" v="wetland" />
		<tag k="ssr:stedsnr" v="951601" />
	</node>
	<node lat="58.994044440969155" lon="9.539436106611673" id="-49502">
		<tag k="name" v="Karismyr" />
		<tag k="natural" v="wetland" />
		<tag k="ssr:stedsnr" v="951652" />
	</node>
	<node lat="59.09513889235445" lon="9.530297228209783" id="-49524">
		<tag k="name" v="Flodstykket" />
		<tag k="place" v="locality" />
		<tag k="ssr:stedsnr" v="968556" />
	</node>
</osm>
