<?xml version="1.0" encoding="UTF-8"?>
<osm version="0.6" generator="osmapis">
	<node lat="58.96210833638958" lon="9.47212221552337" id="-34291">
		<tag k="name" v="Dørdal" />
		<tag k="place" v="farm" />
		<tag k="ssr:stedsnr" v="1301" />
	</node>
	<node lat="58.95348333487314" lon="9.588399995133692" id="-34292">
		<tag k="name" v="Kjørstad" />
		<tag k="place" v="farm" />
		<tag k="ssr:stedsnr" v="1312" />
	</node>
	<node lat="58.960827780695695" lon="9.442663885437941" id="-34293">
		<tag k="alt_name" v="Seteren" />
		<tag k="name" v="Sæteren" />
		<tag k="place" v="farm" />
		<tag k="ssr:stedsnr" v="1299" />
	</node>
	<node lat="58.973924996481514" lon="9.619797226608096" id="-34297">
		<tag k="fixme" v="consider place=hamlet" />
		<tag k="name" v="Dal" />
		<tag k="place" v="farm" />
		<tag k="ssr:stedsnr" v="1617" />
	</node>
	<node lat="59.06626389319064" lon="9.593566672012894" id="-34302">
		<tag k="alt_name" v="Klepp" />
		<tag k="name" v="Klepp" />
		<tag k="place" v="farm" />
		<tag k="ssr:stedsnr" v="2276" />
	</node>
	<node lat="59.02388888885234" lon="9.705636119225051" id="-34303">
		<tag k="alt_name" v="Sundbykosa" />
		<tag k="name" v="Sundbykåsa" />
		<tag k="place" v="farm" />
		<tag k="ssr:stedsnr" v="2288" />
	</node>
	<node lat="59.02858889032881" lon="9.63230555172411" id="-34304">
		<tag k="alt_name" v="Vingereid" />
		<tag k="fixme" v="consider place=hamlet" />
		<tag k="name" v="Vingerei" />
		<tag k="place" v="farm" />
		<tag k="ssr:stedsnr" v="2499" />
	</node>
	<node lat="58.95110277987629" lon="9.607422217078158" id="-34306">
		<tag k="name" v="Kjørstad" />
		<tag k="place" v="farm" />
		<tag k="ssr:stedsnr" v="24485" />
	</node>
	<node lat="59.03154166619675" lon="9.67844166559797" id="-34312">
		<tag k="name" v="Stokke" />
		<tag k="place" v="farm" />
		<tag k="ssr:stedsnr" v="38823" />
	</node>
	<node lat="59.05029334684299" lon="9.675262627199572" id="-34313">
		<tag k="fixme" v="consider place=hamlet" />
		<tag k="name" v="Nordre Rugtvedt" />
		<tag k="place" v="farm" />
		<tag k="ssr:stedsnr" v="38827" />
	</node>
	<node lat="59.06183888972626" lon="9.59970278507515" id="-34320">
		<tag k="name" v="Berg" />
		<tag k="place" v="farm" />
		<tag k="ssr:stedsnr" v="39620" />
	</node>
	<node lat="58.965322226546235" lon="9.576549998948675" id="-34329">
		<tag k="name" v="Tjennkåsa" />
		<tag k="place" v="farm" />
		<tag k="ssr:stedsnr" v="39908" />
	</node>
	<node lat="59.00771944509864" lon="9.725919448822351" id="-34345">
		<tag k="fixme" v="consider place=suburb, village or hamlet" />
		<tag k="name" v="Nustad eiendom" />
		<tag k="place" v="quarter" />
		<tag k="ssr:stedsnr" v="42874" />
	</node>
	<node lat="59.03031666516294" lon="9.660002785427956" id="-34348">
		<tag k="name" v="Gjerset" />
		<tag k="place" v="farm" />
		<tag k="ssr:stedsnr" v="238163" />
	</node>
	<node lat="59.00850277494282" lon="9.74150278298895" id="-34349">
		<tag k="name" v="Halen" />
		<tag k="place" v="farm" />
		<tag k="ssr:stedsnr" v="238572" />
	</node>
	<node lat="59.10983055985403" lon="9.553302781979994" id="-34350">
		<tag k="name" v="Siljan" />
		<tag k="place" v="farm" />
		<tag k="ssr:stedsnr" v="48710" />
	</node>
	<node lat="59.06442222523851" lon="9.616999997800438" id="-34359">
		<tag k="name" v="Larønningen" />
		<tag k="place" v="farm" />
		<tag k="ssr:stedsnr" v="58514" />
	</node>
	<node lat="59.100811114706325" lon="9.54505833893912" id="-34361">
		<tag k="name" v="Lukashagen" />
		<tag k="place" v="quarter" />
		<tag k="ssr:stedsnr" v="58576" />
	</node>
	<node lat="59.03799722373963" lon="9.650408329022198" id="-34368">
		<tag k="name" v="Rønningen" />
		<tag k="place" v="farm" />
		<tag k="ssr:stedsnr" v="62480" />
	</node>
	<node lat="59.03947222363558" lon="9.65390555893682" id="-34369">
		<tag k="fixme" v="consider place=hamlet" />
		<tag k="name" v="Roverød" />
		<tag k="place" v="farm" />
		<tag k="ssr:stedsnr" v="62481" />
	</node>
	<node lat="59.03242222403751" lon="9.52921388835412" id="-34370">
		<tag k="alt_name" v="Skogen, midtre" />
		<tag k="name" v="Midtre Skogen" />
		<tag k="place" v="farm" />
		<tag k="ssr:stedsnr" v="62668" />
	</node>
	<node lat="59.039724997390415" lon="9.52743055694306" id="-34372">
		<tag k="name" v="Langås" />
		<tag k="place" v="locality" />
		<tag k="ssr:stedsnr" v="62820" />
	</node>
	<node lat="59.06870000219012" lon="9.572747228642678" id="-34373">
		<tag k="alt_name" v="Kleppsæter" />
		<tag k="name" v="Kleppseter" />
		<tag k="place" v="farm" />
		<tag k="ssr:stedsnr" v="62874" />
	</node>
	<node lat="58.964788893384906" lon="9.59659999172907" id="-34374">
		<tag k="name" v="Rønningen" />
		<tag k="place" v="farm" />
		<tag k="ssr:stedsnr" v="62882" />
	</node>
	<node lat="58.967836114136105" lon="9.627919441821827" id="-34375">
		<tag k="fixme" v="consider place=hamlet" />
		<tag k="name" v="Rakkestad" />
		<tag k="place" v="farm" />
		<tag k="ssr:stedsnr" v="62883" />
	</node>
	<node lat="58.93900277777038" lon="9.591488887273721" id="-34377">
		<tag k="name" v="Sekkekilen" />
		<tag k="place" v="farm" />
		<tag k="ssr:stedsnr" v="243238" />
	</node>
	<node lat="58.92665277620669" lon="9.578847220459137" id="-34378">
		<tag k="alt_name" v="Breidsanden" />
		<tag k="name" v="Breisand" />
		<tag k="place" v="farm" />
		<tag k="ssr:stedsnr" v="243251" />
	</node>
	<node lat="58.9823805580225" lon="9.480486117543181" id="-34379">
		<tag k="alt_name" v="Gånge" />
		<tag k="fixme" v="consider place=hamlet" />
		<tag k="name" v="Gonge" />
		<tag k="place" v="farm" />
		<tag k="ssr:stedsnr" v="243306" />
	</node>
	<node lat="58.977500002628815" lon="9.446288881506689" id="-34381">
		<tag k="name" v="Kåsa" />
		<tag k="place" v="locality" />
		<tag k="ssr:stedsnr" v="243328" />
	</node>
	<node lat="59.01567500397711" lon="9.745155557385583" id="-34384">
		<tag k="name" v="Fagerheim" />
		<tag k="place" v="farm" />
		<tag k="ssr:stedsnr" v="244252" />
	</node>
	<node lat="59.01378888958623" lon="9.704786106507145" id="-34385">
		<tag k="fixme" v="consider place=hamlet" />
		<tag k="name" v="Fjellstad" />
		<tag k="place" v="farm" />
		<tag k="ssr:stedsnr" v="244254" />
	</node>
	<node lat="59.04433610697455" lon="9.651024993293644" id="-34387">
		<tag k="alt_name" v="Finndal" />
		<tag k="name" v="Findal" />
		<tag k="place" v="farm" />
		<tag k="ssr:stedsnr" v="244524" />
	</node>
	<node lat="58.99847499615263" lon="9.681824993943865" id="-34388">
		<tag k="name" v="Kløvsgård" />
		<tag k="place" v="farm" />
		<tag k="ssr:stedsnr" v="244619" />
	</node>
	<node lat="58.92628610949225" lon="9.586266666187147" id="-34398">
		<tag k="name" v="Buktene" />
		<tag k="place" v="isolated_dwelling" />
		<tag k="ssr:stedsnr" v="86000" />
	</node>
	<node lat="59.0399611154363" lon="9.672294452714782" id="-34399">
		<tag k="amenity" v="school" />
		<tag k="name" v="Rugtvedt" />
		<tag k="ssr:stedsnr" v="99815" />
	</node>
	<node lat="58.99058333440114" lon="9.40006111979331" id="-34407">
		<tag k="name" v="Mo nedre" />
		<tag k="place" v="farm" />
		<tag k="ssr:stedsnr" v="100620" />
	</node>
	<node lat="58.97758610812121" lon="9.439258334254996" id="-34428">
		<tag k="name" v="Moen" />
		<tag k="place" v="locality" />
		<tag k="ssr:stedsnr" v="102073" />
	</node>
	<node lat="58.96073055464143" lon="9.515558335640517" id="-34435">
		<tag k="name" v="Langekjerr" />
		<tag k="place" v="locality" />
		<tag k="ssr:stedsnr" v="102926" />
	</node>
	<node lat="59.05852500166497" lon="9.62040832721684" id="-34438">
		<tag k="name" v="Garstad-rønningen" />
		<tag k="place" v="farm" />
		<tag k="ssr:stedsnr" v="117170" />
	</node>
	<node lat="58.94501944394225" lon="9.423416670860018" id="-34444">
		<tag k="alt_name" v="Bjordam" />
		<tag k="name" v="Bjordammen" />
		<tag k="place" v="farm" />
		<tag k="ssr:stedsnr" v="122311" />
	</node>
	<node lat="59.000655554736404" lon="9.74873332975464" id="-34445">
		<tag k="name" v="Langesund" />
		<tag k="place" v="town" />
		<tag k="ssr:stedsnr" v="122583" />
	</node>
	<node lat="59.023919442485436" lon="9.660577771952545" id="-34446">
		<tag k="fixme" v="consider place=hamlet" />
		<tag k="name" v="Gjerstad" />
		<tag k="place" v="farm" />
		<tag k="ssr:stedsnr" v="123527" />
	</node>
	<node lat="59.00431666618378" lon="9.38436111448003" id="-34447">
		<tag k="name" v="Hesthagen" />
		<tag k="place" v="farm" />
		<tag k="ssr:stedsnr" v="123711" />
	</node>
	<node lat="58.99953611142298" lon="9.39501667226215" id="-34456">
		<tag k="fixme" v="consider place=hamlet" />
		<tag k="name" v="Rørholt, søndre" />
		<tag k="place" v="farm" />
		<tag k="ssr:stedsnr" v="258986" />
	</node>
	<node lat="59.01787777780941" lon="9.45699167184445" id="-34463">
		<tag k="name" v="Fjølbu" />
		<tag k="place" v="isolated_dwelling" />
		<tag k="ssr:stedsnr" v="162467" />
	</node>
	<node lat="58.95961666417446" lon="9.535388894792568" id="-34470">
		<tag k="name" v="Lund" />
		<tag k="place" v="isolated_dwelling" />
		<tag k="ssr:stedsnr" v="162976" />
	</node>
	<node lat="59.06860833609456" lon="9.629058340194149" id="-34478">
		<tag k="name" v="Frønseplassen" />
		<tag k="place" v="isolated_dwelling" />
		<tag k="ssr:stedsnr" v="179477" />
	</node>
	<node lat="59.099655551774916" lon="9.541283330151046" id="-34479">
		<tag k="name" v="Galane" />
		<tag k="place" v="quarter" />
		<tag k="ssr:stedsnr" v="179968" />
	</node>
	<node lat="58.94321389084333" lon="9.507300001980285" id="-34483">
		<tag k="alt_name" v="Østre Grimsrød" />
		<tag k="name" v="Grimsrød, østre" />
		<tag k="place" v="farm" />
		<tag k="ssr:stedsnr" v="183243" />
	</node>
	<node lat="58.93886111442078" lon="9.481513891651636" id="-34484">
		<tag k="name" v="Smørvika" />
		<tag k="place" v="farm" />
		<tag k="ssr:stedsnr" v="183244" />
	</node>
	<node lat="58.960980554398915" lon="9.429661109320369" id="-34485">
		<tag k="name" v="Bakke" />
		<tag k="place" v="farm" />
		<tag k="ssr:stedsnr" v="183306" />
	</node>
	<node lat="59.05410555519535" lon="9.6352694464679" id="-34488">
		<tag k="name" v="Skjerke" />
		<tag k="place" v="farm" />
		<tag k="ssr:stedsnr" v="183403" />
	</node>
	<node lat="59.09623055264586" lon="9.532513892087673" id="-34490">
		<tag k="name" v="Hamaren" />
		<tag k="place" v="isolated_dwelling" />
		<tag k="ssr:stedsnr" v="183798" />
	</node>
	<node lat="59.06773888674572" lon="9.589733340917379" id="-34491">
		<tag k="fixme" v="consider place=hamlet" />
		<tag k="name" v="Svarstad" />
		<tag k="place" v="farm" />
		<tag k="ssr:stedsnr" v="184841" />
	</node>
	<node lat="59.03538610797061" lon="9.713697226054684" id="-34492">
		<tag k="name" v="Eiksrønningen" />
		<tag k="place" v="village" />
		<tag k="ssr:stedsnr" v="267945" />
	</node>
	<node lat="59.1009638848807" lon="9.586205551750854" id="-34498">
		<tag k="building" v="industrial" />
		<tag k="industrial" v="factory" />
		<tag k="name" v="Rafnes" />
		<tag k="ssr:stedsnr" v="210710" />
	</node>
	<node lat="59.01576944045409" lon="9.679225008565426" id="-34500">
		<tag k="leisure" v="pitch" />
		<tag k="name" v="Rissletta" />
		<tag k="ssr:stedsnr" v="221070" />
	</node>
	<node lat="59.03669444876681" lon="9.605958333921619" id="-34522">
		<tag k="name" v="Eriks plass" />
		<tag k="place" v="locality" />
		<tag k="ssr:stedsnr" v="240199" />
	</node>
	<node lat="58.990880558788284" lon="9.655624992317996" id="-34527">
		<tag k="name" v="Arnesplass" />
		<tag k="place" v="farm" />
		<tag k="ssr:stedsnr" v="243584" />
	</node>
	<node lat="58.95653055145787" lon="9.47494722131892" id="-34529">
		<tag k="alt_name" v="Myrland" />
		<tag k="name" v="Myrland" />
		<tag k="place" v="farm" />
		<tag k="ssr:stedsnr" v="244284" />
	</node>
	<node lat="59.00393055747396" lon="9.65793055341224" id="-34530">
		<tag k="name" v="Steinsmyra" />
		<tag k="old_name" v="Steinsmyr" />
		<tag k="place" v="farm" />
		<tag k="ssr:stedsnr" v="244285" />
	</node>
	<node lat="59.00310000323341" lon="9.696297227214897" id="-34531">
		<tag k="name" v="Rogn" />
		<tag k="place" v="farm" />
		<tag k="ssr:stedsnr" v="244287" />
	</node>
	<node lat="58.9668805540227" lon="9.550250006593012" id="-34532">
		<tag k="alt_name" v="Skjelbrei" />
		<tag k="name" v="Skjilbreia" />
		<tag k="place" v="farm" />
		<tag k="ssr:stedsnr" v="244290" />
	</node>
	<node lat="58.975602778218075" lon="9.590536104714943" id="-34533">
		<tag k="name" v="Hagane" />
		<tag k="place" v="farm" />
		<tag k="ssr:stedsnr" v="244332" />
	</node>
	<node lat="59.077705556914324" lon="9.584372218304031" id="-34539">
		<tag k="name" v="Nyland" />
		<tag k="place" v="farm" />
		<tag k="ssr:stedsnr" v="244876" />
	</node>
	<node lat="59.03838611327652" lon="9.571594449651023" id="-34543">
		<tag k="name" v="Fjellkjerringplassen" />
		<tag k="place" v="locality" />
		<tag k="ssr:stedsnr" v="268886" />
	</node>
	<node lat="59.10369167058216" lon="9.557722214949184" id="-34560">
		<tag k="name" v="Herrejordet" />
		<tag k="place" v="quarter" />
		<tag k="ssr:stedsnr" v="282977" />
	</node>
	<node lat="59.004872220103465" lon="9.554555557371893" id="-34563">
		<tag k="name" v="Rønningsland" />
		<tag k="place" v="locality" />
		<tag k="ssr:stedsnr" v="283292" />
	</node>
	<node lat="58.93805832983188" lon="9.436913882780772" id="-34572">
		<tag k="name" v="Orrestoe" />
		<tag k="place" v="locality" />
		<tag k="ssr:stedsnr" v="284626" />
	</node>
	<node lat="58.9566722234073" lon="9.450788890627456" id="-34576">
		<tag k="name" v="Tronskjær" />
		<tag k="place" v="isolated_dwelling" />
		<tag k="ssr:stedsnr" v="284676" />
	</node>
	<node lat="58.96704166591392" lon="9.499941660740578" id="-34586">
		<tag k="name" v="Bråten" />
		<tag k="place" v="farm" />
		<tag k="ssr:stedsnr" v="304278" />
	</node>
	<node lat="58.96676666809426" lon="9.57876667491749" id="-34587">
		<tag k="name" v="Kåsa" />
		<tag k="place" v="farm" />
		<tag k="ssr:stedsnr" v="304284" />
	</node>
	<node lat="58.99316389109983" lon="9.627822214887631" id="-34589">
		<tag k="name" v="Nyhus" />
		<tag k="place" v="farm" />
		<tag k="ssr:stedsnr" v="304573" />
	</node>
	<node lat="59.03887500112693" lon="9.610588887756867" id="-34594">
		<tag k="alt_name" v="Herum" />
		<tag k="name" v="Herum" />
		<tag k="place" v="farm" />
		<tag k="ssr:stedsnr" v="305508" />
	</node>
	<node lat="59.03908610750896" lon="9.663047225627768" id="-34595">
		<tag k="alt_name" v="Kosa" />
		<tag k="name" v="Kåsa" />
		<tag k="place" v="farm" />
		<tag k="ssr:stedsnr" v="305512" />
	</node>
	<node lat="59.050583330859716" lon="9.640691674794073" id="-34596">
		<tag k="name" v="Burvall" />
		<tag k="place" v="farm" />
		<tag k="ssr:stedsnr" v="305476" />
	</node>
	<node lat="59.06651944566659" lon="9.60080833455151" id="-34597">
		<tag k="name" v="Surtedal" />
		<tag k="place" v="farm" />
		<tag k="ssr:stedsnr" v="305485" />
	</node>
	<node lat="59.01865555117268" lon="9.357369440620625" id="-34598">
		<tag k="name" v="Skare" />
		<tag k="place" v="farm" />
		<tag k="ssr:stedsnr" v="305683" />
	</node>
	<node lat="59.012336110547146" lon="9.557330562081653" id="-34603">
		<tag k="alt_name" v="Bamble" />
		<tag k="fixme" v="consider place=hamlet" />
		<tag k="name" v="Bamle" />
		<tag k="place" v="farm" />
		<tag k="ssr:stedsnr" v="305708" />
	</node>
	<node lat="58.96225833027841" lon="9.565252775888352" id="-34610">
		<tag k="fixme" v="consider place=hamlet" />
		<tag k="name" v="Havredal" />
		<tag k="place" v="farm" />
		<tag k="ssr:stedsnr" v="464995" />
	</node>
	<node lat="58.9694916692703" lon="9.490613895670572" id="-34644">
		<tag k="name" v="Lillejorde" />
		<tag k="place" v="isolated_dwelling" />
		<tag k="ssr:stedsnr" v="344449" />
	</node>
	<node lat="58.957755551909024" lon="9.425552774236724" id="-34647">
		<tag k="name" v="Eie" />
		<tag k="place" v="locality" />
		<tag k="ssr:stedsnr" v="344458" />
	</node>
	<node lat="58.9425305532788" lon="9.470752782661403" id="-34650">
		<tag k="name" v="Solberg" />
		<tag k="place" v="isolated_dwelling" />
		<tag k="ssr:stedsnr" v="344613" />
	</node>
	<node lat="59.03744721855453" lon="9.521897225954222" id="-34656">
		<tag k="name" v="Hogsten" />
		<tag k="place" v="locality" />
		<tag k="ssr:stedsnr" v="344801" />
	</node>
	<node lat="59.07638055573711" lon="9.60445277460889" id="-34657">
		<tag k="fixme" v="consider place=hamlet" />
		<tag k="name" v="Nedre Asdal" />
		<tag k="place" v="farm" />
		<tag k="ssr:stedsnr" v="473550" />
	</node>
	<node lat="59.02969166616068" lon="9.715113886595253" id="-34661">
		<tag k="name" v="Grasmyr" />
		<tag k="place" v="farm" />
		<tag k="ssr:stedsnr" v="359162" />
	</node>
	<node lat="59.00912500335736" lon="9.734236112032685" id="-34664">
		<tag k="alt_name" v="Slåttenes gård" />
		<tag k="name" v="Slåttnes" />
		<tag k="old_name" v="Slåttenes" />
		<tag k="place" v="locality" />
		<tag k="ssr:stedsnr" v="365309" />
	</node>
	<node lat="59.008092653410905" lon="9.733129852077559" id="-34665">
		<tag k="fixme" v="consider place=hamlet" />
		<tag k="name" v="Nustad" />
		<tag k="place" v="farm" />
		<tag k="ssr:stedsnr" v="365310" />
	</node>
	<node lat="59.012063890888555" lon="9.744975002252456" id="-34666">
		<tag k="alt_name" v="Barfod" />
		<tag k="name" v="Barfot" />
		<tag k="place" v="farm" />
		<tag k="ssr:stedsnr" v="365313" />
	</node>
	<node lat="58.94844999668344" lon="9.520911110996055" id="-34667">
		<tag k="alt_name" v="Thomasbu" />
		<tag k="fixme" v="consider place=hamlet" />
		<tag k="name" v="Tomasbu" />
		<tag k="place" v="farm" />
		<tag k="ssr:stedsnr" v="365315" />
	</node>
	<node lat="59.0027638895951" lon="9.635799995611615" id="-34668">
		<tag k="name" v="Smedplassen" />
		<tag k="place" v="farm" />
		<tag k="ssr:stedsnr" v="365298" />
	</node>
	<node lat="58.95426388804957" lon="9.510638882170072" id="-34669">
		<tag k="alt_name" v="Åsfjellrønningen" />
		<tag k="name" v="Rønningen" />
		<tag k="place" v="farm" />
		<tag k="ssr:stedsnr" v="365299" />
	</node>
	<node lat="59.002697220502036" lon="9.382222229980988" id="-34670">
		<tag k="name" v="Storrønningen" />
		<tag k="place" v="farm" />
		<tag k="ssr:stedsnr" v="365686" />
	</node>
	<node lat="59.00972499827476" lon="9.550033328073088" id="-34673">
		<tag k="name" v="Heistad" />
		<tag k="place" v="farm" />
		<tag k="ssr:stedsnr" v="365693" />
	</node>
	<node lat="59.103505553515156" lon="9.561947219014636" id="-34675">
		<tag k="name" v="Herre" />
		<tag k="place" v="village" />
		<tag k="ssr:stedsnr" v="365790" />
	</node>
	<node lat="58.96966666294126" lon="9.638750003773707" id="-34677">
		<tag k="alt_name" v="Myrland" />
		<tag k="name" v="Myra" />
		<tag k="place" v="farm" />
		<tag k="ssr:stedsnr" v="365908" />
	</node>
	<node lat="58.97567499748973" lon="9.685952769672202" id="-34678">
		<tag k="name" v="Prisgrunn" />
		<tag k="place" v="isolated_dwelling" />
		<tag k="ssr:stedsnr" v="365909" />
	</node>
	<node lat="58.951008333524086" lon="9.599308329194061" id="-34679">
		<tag k="name" v="Kjerra" />
		<tag k="place" v="farm" />
		<tag k="ssr:stedsnr" v="365919" />
	</node>
	<node lat="59.01754166236359" lon="9.71637778335196" id="-34682">
		<tag k="name" v="Veholt" />
		<tag k="place" v="farm" />
		<tag k="ssr:stedsnr" v="479871" />
	</node>
	<node lat="59.10306388523311" lon="9.486752777074184" id="-34687">
		<tag k="name" v="Mebuktstua" />
		<tag k="place" v="locality" />
		<tag k="ssr:stedsnr" v="482538" />
	</node>
	<node lat="59.10186388991701" lon="9.548880562935382" id="-34688">
		<tag k="name" v="Hauane" />
		<tag k="place" v="quarter" />
		<tag k="ssr:stedsnr" v="482553" />
	</node>
	<node lat="59.06130555365574" lon="9.610683338308512" id="-34694">
		<tag k="name" v="Martes plass" />
		<tag k="place" v="farm" />
		<tag k="ssr:stedsnr" v="483534" />
	</node>
	<node lat="58.94423611351647" lon="9.583641666829445" id="-34701">
		<tag k="alt_name" v="Finmark" />
		<tag k="name" v="Finnmark" />
		<tag k="place" v="farm" />
		<tag k="ssr:stedsnr" v="486256" />
	</node>
	<node lat="58.97136111524915" lon="9.562474999780779" id="-34702">
		<tag k="fixme" v="consider place=suburb, village or hamlet" />
		<tag k="name" v="Botten" />
		<tag k="place" v="quarter" />
		<tag k="ssr:stedsnr" v="403410" />
	</node>
	<node lat="59.105216670906756" lon="9.571055556102923" id="-34709">
		<tag k="building" v="industrial" />
		<tag k="name" v="Livtangen" />
		<tag k="ssr:stedsnr" v="403979" />
	</node>
	<node lat="59.024949995562515" lon="9.712244452318455" id="-34719">
		<tag k="name" v="Eik næringsområde" />
		<tag k="place" v="quarter" />
		<tag k="ssr:stedsnr" v="405788" />
	</node>
	<node lat="58.97466872258404" lon="9.529965031603217" id="-34723">
		<tag k="fixme" v="consider place=hamlet" />
		<tag k="name" v="Rosland" />
		<tag k="place" v="farm" />
		<tag k="ssr:stedsnr" v="486363" />
	</node>
	<node lat="58.93900555874656" lon="9.468816660771607" id="-34724">
		<tag k="alt_name" v="Fossing, østre;Østre Fossum" />
		<tag k="fixme" v="consider place=hamlet" />
		<tag k="name" v="Østre Fossing" />
		<tag k="place" v="farm" />
		<tag k="ssr:stedsnr" v="486276" />
	</node>
	<node lat="58.93248055746631" lon="9.53818332966744" id="-34725">
		<tag k="name" v="Vallum" />
		<tag k="place" v="farm" />
		<tag k="ssr:stedsnr" v="486289" />
	</node>
	<node lat="58.94978888751021" lon="9.450813893282678" id="-34727">
		<tag k="alt_name" v="Hansesmyr" />
		<tag k="name" v="Hansemyra" />
		<tag k="place" v="farm" />
		<tag k="ssr:stedsnr" v="486319" />
	</node>
	<node lat="58.94695555988758" lon="9.491688885715584" id="-34728">
		<tag k="fixme" v="consider place=hamlet" />
		<tag k="name" v="Bleiklia" />
		<tag k="place" v="farm" />
		<tag k="ssr:stedsnr" v="486323" />
	</node>
	<node lat="59.076261111669005" lon="9.601013895222627" id="-34733">
		<tag k="name" v="Asdal" />
		<tag k="place" v="farm" />
		<tag k="ssr:stedsnr" v="486444" />
	</node>
	<node lat="59.03382221871347" lon="9.527058339225915" id="-34734">
		<tag k="alt_name" v="Skogen, nordre;Skaugen øvre" />
		<tag k="name" v="Nordre Skogen" />
		<tag k="place" v="farm" />
		<tag k="ssr:stedsnr" v="486685" />
	</node>
	<node lat="59.03693333701766" lon="9.655144440930819" id="-34736">
		<tag k="alt_name" v="Skaugen" />
		<tag k="name" v="Skogen" />
		<tag k="place" v="farm" />
		<tag k="ssr:stedsnr" v="487519" />
	</node>
	<node lat="59.04824722377818" lon="9.609413881974236" id="-34738">
		<tag k="name" v="Steinerød" />
		<tag k="place" v="farm" />
		<tag k="ssr:stedsnr" v="487537" />
	</node>
	<node lat="59.10278333290932" lon="9.578894443773544" id="-34739">
		<tag k="fixme" v="consider place=hamlet" />
		<tag k="name" v="Rafnes" />
		<tag k="place" v="farm" />
		<tag k="ssr:stedsnr" v="487774" />
	</node>
	<node lat="59.04841388900998" lon="9.66509165926222" id="-34741">
		<tag k="name" v="Løkka" />
		<tag k="place" v="farm" />
		<tag k="ssr:stedsnr" v="420135" />
	</node>
	<node lat="58.989688890060094" lon="9.643388888842999" id="-34743">
		<tag k="fixme" v="consider place=hamlet" />
		<tag k="name" v="Åby" />
		<tag k="place" v="farm" />
		<tag k="ssr:stedsnr" v="422199" />
	</node>
	<node lat="59.06145555337003" lon="9.625975008260466" id="-34744">
		<tag k="name" v="Surtebogen" />
		<tag k="place" v="farm" />
		<tag k="ssr:stedsnr" v="422244" />
	</node>
	<node lat="58.99066111472107" lon="9.700191662330232" id="-34749">
		<tag k="name" v="Hydrostranda" />
		<tag k="place" v="neighbourhood" />
		<tag k="ssr:stedsnr" v="425549" />
	</node>
	<node lat="58.993483336233574" lon="9.687838883464767" id="-34750">
		<tag k="alt_name" v="Hvalvika" />
		<tag k="name" v="Hvalvik" />
		<tag k="place" v="farm" />
		<tag k="ssr:stedsnr" v="425554" />
	</node>
	<node lat="58.98101666649833" lon="9.675527782193837" id="-34751">
		<tag k="fixme" v="consider place=hamlet" />
		<tag k="name" v="Høvik" />
		<tag k="place" v="farm" />
		<tag k="ssr:stedsnr" v="425606" />
	</node>
	<node lat="58.99535555490127" lon="9.55516111077618" id="-34752">
		<tag k="fixme" v="consider place=hamlet" />
		<tag k="name" v="Skogstad" />
		<tag k="place" v="farm" />
		<tag k="ssr:stedsnr" v="426317" />
	</node>
	<node lat="59.01201388537457" lon="9.621605559310597" id="-34754">
		<tag k="name" v="Tveitan" />
		<tag k="place" v="farm" />
		<tag k="ssr:stedsnr" v="426298" />
	</node>
	<node lat="59.0013749991235" lon="9.35461666377604" id="-34755">
		<tag k="name" v="Storøy" />
		<tag k="place" v="farm" />
		<tag k="ssr:stedsnr" v="426676" />
	</node>
	<node lat="59.02794444238909" lon="9.656524994373125" id="-34761">
		<tag k="alt_name" v="Gjersetdalane" />
		<tag k="name" v="Dalane" />
		<tag k="old_name" v="Dalen" />
		<tag k="place" v="farm" />
		<tag k="ssr:stedsnr" v="427482" />
	</node>
	<node lat="59.006924998389884" lon="9.583586105201865" id="-34784">
		<tag k="name" v="Kalvvika" />
		<tag k="place" v="locality" />
		<tag k="ssr:stedsnr" v="465358" />
	</node>
	<node lat="59.04655833497291" lon="9.685449998824655" id="-34791">
		<tag k="name" v="Tande" />
		<tag k="place" v="quarter" />
		<tag k="ssr:stedsnr" v="480115" />
	</node>
	<node lat="58.99144444366954" lon="9.639091662260142" id="-34793">
		<tag k="fixme" v="consider place=suburb, village or hamlet" />
		<tag k="name" v="Åby" />
		<tag k="place" v="quarter" />
		<tag k="ssr:stedsnr" v="485507" />
	</node>
	<node lat="59.12234166422294" lon="9.52368333171471" id="-34796">
		<tag k="name" v="Hytterød" />
		<tag k="place" v="farm" />
		<tag k="ssr:stedsnr" v="486812" />
	</node>
	<node lat="58.99859166577787" lon="9.74284444725186" id="-34804">
		<tag k="name" v="Langesund Bad" />
		<tag k="ssr:stedsnr" v="521875" />
		<tag k="tourism" v="hotel" />
	</node>
	<node lat="58.978136112328926" lon="9.408444443687953" id="-34814">
		<tag k="name" v="Kroktvett" />
		<tag k="place" v="locality" />
		<tag k="ssr:stedsnr" v="526121" />
	</node>
	<node lat="59.04574166899635" lon="9.642294442007218" id="-34828">
		<tag k="name" v="Havreåker" />
		<tag k="place" v="farm" />
		<tag k="ssr:stedsnr" v="543221" />
	</node>
	<node lat="59.06345000336427" lon="9.617538894438349" id="-34829">
		<tag k="name" v="Hestekåsa" />
		<tag k="place" v="isolated_dwelling" />
		<tag k="ssr:stedsnr" v="543468" />
	</node>
	<node lat="58.987600003283816" lon="9.64878888252993" id="-34832">
		<tag k="fixme" v="consider place=hamlet" />
		<tag k="name" v="Åstad" />
		<tag k="place" v="farm" />
		<tag k="ssr:stedsnr" v="546518" />
	</node>
	<node lat="58.9606722219972" lon="9.409574998608733" id="-34833">
		<tag k="name" v="Masterød" />
		<tag k="place" v="farm" />
		<tag k="ssr:stedsnr" v="547313" />
	</node>
	<node lat="58.96570000342409" lon="9.556161117475035" id="-34835">
		<tag k="fixme" v="consider place=hamlet" />
		<tag k="name" v="Feset" />
		<tag k="place" v="farm" />
		<tag k="ssr:stedsnr" v="547322" />
	</node>
	<node lat="58.96355833612918" lon="9.582816671036488" id="-34836">
		<tag k="alt_name" v="Haukedal" />
		<tag k="fixme" v="consider place=hamlet" />
		<tag k="name" v="Haukedalen" />
		<tag k="place" v="farm" />
		<tag k="ssr:stedsnr" v="547325" />
	</node>
	<node lat="58.9774416706442" lon="9.54393054921144" id="-34837">
		<tag k="name" v="Dalkåsa" />
		<tag k="place" v="isolated_dwelling" />
		<tag k="ssr:stedsnr" v="547365" />
	</node>
	<node lat="59.01594444208864" lon="9.659969439700854" id="-34838">
		<tag k="name" v="Bergsland" />
		<tag k="place" v="farm" />
		<tag k="ssr:stedsnr" v="547284" />
	</node>
	<node lat="58.998786107893096" lon="9.702652776600116" id="-34840">
		<tag k="name" v="Ormvika" />
		<tag k="place" v="neighbourhood" />
		<tag k="ssr:stedsnr" v="547627" />
	</node>
	<node lat="59.08337500091422" lon="9.61661666874404" id="-34848">
		<tag k="name" v="Asdalkås" />
		<tag k="place" v="farm" />
		<tag k="ssr:stedsnr" v="572910" />
	</node>
	<node lat="58.95726944689999" lon="9.586269445057212" id="-34854">
		<tag k="name" v="Kilen" />
		<tag k="place" v="farm" />
		<tag k="ssr:stedsnr" v="585829" />
	</node>
	<node lat="58.962822224483205" lon="9.557744443871947" id="-34858">
		<tag k="name" v="Knatten" />
		<tag k="place" v="quarter" />
		<tag k="ssr:stedsnr" v="585989" />
	</node>
	<node lat="58.934033332421315" lon="9.552466662814872" id="-34874">
		<tag k="name" v="Valle" />
		<tag k="place" v="village" />
		<tag k="ssr:stedsnr" v="607258" />
	</node>
	<node lat="58.94578611458335" lon="9.45559166943426" id="-34876">
		<tag k="alt_name" v="Mollefjell" />
		<tag k="name" v="Moldfjell" />
		<tag k="place" v="farm" />
		<tag k="ssr:stedsnr" v="607315" />
	</node>
	<node lat="59.007847223633306" lon="9.634658327800596" id="-34878">
		<tag k="alt_name" v="Skaugen" />
		<tag k="name" v="Skogen" />
		<tag k="place" v="farm" />
		<tag k="ssr:stedsnr" v="607318" />
	</node>
	<node lat="59.01402500308728" lon="9.658105554889293" id="-34879">
		<tag k="alt_name" v="Lønnrygg" />
		<tag k="name" v="Lønnrik" />
		<tag k="place" v="farm" />
		<tag k="ssr:stedsnr" v="607319" />
	</node>
	<node lat="59.03572777511209" lon="9.418655553678464" id="-34883">
		<tag k="alt_name" v="Hundkilen" />
		<tag k="name" v="Lille Hundkilen" />
		<tag k="place" v="locality" />
		<tag k="ssr:stedsnr" v="607802" />
	</node>
	<node lat="58.944942653540004" lon="9.623608478681751" id="-34884">
		<tag k="fixme" v="consider place=hamlet" />
		<tag k="name" v="Kjønnøya" />
		<tag k="old_name" v="Tjørnøya" />
		<tag k="place" v="farm" />
		<tag k="ssr:stedsnr" v="607898" />
	</node>
	<node lat="59.02270000307698" lon="9.538836105211713" id="-34886">
		<tag k="alt_name" v="Røyrmyr" />
		<tag k="name" v="Røymyr" />
		<tag k="place" v="farm" />
		<tag k="ssr:stedsnr" v="608694" />
	</node>
	<node lat="59.02777222016863" lon="9.559752774416344" id="-34887">
		<tag k="alt_name" v="Heivatn;Heivannet" />
		<tag k="name" v="Heivann" />
		<tag k="place" v="farm" />
		<tag k="ssr:stedsnr" v="608697" />
	</node>
	<node lat="58.936230555898554" lon="9.571788895257153" id="-34890">
		<tag k="name" v="Våg" />
		<tag k="place" v="isolated_dwelling" />
		<tag k="ssr:stedsnr" v="631495" />
	</node>
	<node lat="59.08270833502073" lon="9.620552774207413" id="-34891">
		<tag k="building" v="industrial" />
		<tag k="industrial" v="factory" />
		<tag k="name" v="Rønningen" />
		<tag k="ssr:stedsnr" v="631804" />
	</node>
	<node lat="59.0222749982891" lon="9.393105551705947" id="-34896">
		<tag k="name" v="Lilløyseter" />
		<tag k="place" v="locality" />
		<tag k="ssr:stedsnr" v="645007" />
	</node>
	<node lat="58.98468055585352" lon="9.590938885902785" id="-34901">
		<tag k="name" v="Plassen" />
		<tag k="place" v="locality" />
		<tag k="ssr:stedsnr" v="645575" />
	</node>
	<node lat="58.97316388866606" lon="9.541366672600995" id="-34920">
		<tag k="building" v="industrial" />
		<tag k="name" v="Nylende" />
		<tag k="ssr:stedsnr" v="647706" />
	</node>
	<node lat="59.029194446992456" lon="9.368891664419346" id="-34926">
		<tag k="name" v="Liane" />
		<tag k="place" v="locality" />
		<tag k="ssr:stedsnr" v="707117" />
	</node>
	<node lat="59.04281666972592" lon="9.456044439367899" id="-34934">
		<tag k="name" v="Fisketjenneide" />
		<tag k="place" v="locality" />
		<tag k="ssr:stedsnr" v="708076" />
	</node>
	<node lat="58.97137500208241" lon="9.422380547197685" id="-34935">
		<tag k="name" v="Røsla" />
		<tag k="place" v="locality" />
		<tag k="ssr:stedsnr" v="708040" />
	</node>
	<node lat="59.006380559337835" lon="9.358236108629375" id="-34954">
		<tag k="name" v="Kåsa" />
		<tag k="place" v="farm" />
		<tag k="ssr:stedsnr" v="708824" />
	</node>
	<node lat="58.94006944064509" lon="9.451063897335988" id="-34960">
		<tag k="alt_name" v="Hasleidet" />
		<tag k="name" v="Hasseleidet" />
		<tag k="place" v="farm" />
		<tag k="ssr:stedsnr" v="668285" />
	</node>
	<node lat="59.015444443756884" lon="9.606638895995495" id="-34961">
		<tag k="alt_name" v="Høn" />
		<tag k="name" v="Høen" />
		<tag k="place" v="farm" />
		<tag k="ssr:stedsnr" v="668300" />
	</node>
	<node lat="58.99207500055475" lon="9.612869448469185" id="-34962">
		<tag k="alt_name" v="Bjørkeset, øvre;Bjerkeseth" />
		<tag k="name" v="Øvre Bjørkeset" />
		<tag k="place" v="farm" />
		<tag k="ssr:stedsnr" v="668581" />
	</node>
	<node lat="58.99285555874898" lon="9.617997228362235" id="-34963">
		<tag k="alt_name" v="Bjørkeset, midtre;Bjerkeseth" />
		<tag k="name" v="Midtre Bjørkeset" />
		<tag k="place" v="farm" />
		<tag k="ssr:stedsnr" v="668582" />
	</node>
	<node lat="58.99722500077433" lon="9.660286103563164" id="-34964">
		<tag k="fixme" v="consider place=hamlet" />
		<tag k="name" v="Vinje" />
		<tag k="place" v="farm" />
		<tag k="ssr:stedsnr" v="668594" />
	</node>
	<node lat="59.04268055495163" lon="9.553627771319041" id="-34965">
		<tag k="name" v="Eiklund" />
		<tag k="place" v="locality" />
		<tag k="ssr:stedsnr" v="668844" />
	</node>
	<node lat="59.03490555654203" lon="9.561708328728445" id="-34968">
		<tag k="name" v="Stulen" />
		<tag k="place" v="locality" />
		<tag k="ssr:stedsnr" v="669809" />
	</node>
	<node lat="59.01567777791135" lon="9.564894441312973" id="-34974">
		<tag k="name" v="Vallekåsa" />
		<tag k="place" v="farm" />
		<tag k="ssr:stedsnr" v="890435" />
	</node>
	<node lat="59.02391110732124" lon="9.397594446782389" id="-34980">
		<tag k="name" v="Sneltvedt" />
		<tag k="place" v="locality" />
		<tag k="ssr:stedsnr" v="891079" />
	</node>
	<node lat="58.96860833369937" lon="9.552794436037635" id="-34991">
		<tag k="fixme" v="consider place=suburb, village or hamlet" />
		<tag k="name" v="Feset" />
		<tag k="place" v="quarter" />
		<tag k="ssr:stedsnr" v="689929" />
	</node>
	<node lat="59.04165833226996" lon="9.426077769244767" id="-34997">
		<tag k="name" v="Tangane" />
		<tag k="place" v="locality" />
		<tag k="ssr:stedsnr" v="706021" />
	</node>
	<node lat="59.04107499793366" lon="9.393186105951047" id="-34998">
		<tag k="name" v="Slåtta" />
		<tag k="place" v="locality" />
		<tag k="ssr:stedsnr" v="706023" />
	</node>
	<node lat="58.970202780189" lon="9.567102774522143" id="-35000">
		<tag k="name" v="Bilett" />
		<tag k="place" v="locality" />
		<tag k="ssr:stedsnr" v="706414" />
	</node>
	<node lat="59.102427773618075" lon="9.558158341137077" id="-35006">
		<tag k="name" v="Heia" />
		<tag k="place" v="quarter" />
		<tag k="ssr:stedsnr" v="706975" />
	</node>
	<node lat="58.99676666926116" lon="9.602322223131821" id="-35015">
		<tag k="name" v="Kristens plass" />
		<tag k="place" v="locality" />
		<tag k="ssr:stedsnr" v="708327" />
	</node>
	<node lat="59.10810833033197" lon="9.556469449702423" id="-35025">
		<tag k="name" v="Sondre" />
		<tag k="place" v="isolated_dwelling" />
		<tag k="ssr:stedsnr" v="898736" />
	</node>
	<node lat="59.01156389187524" lon="9.738555560259593" id="-35028">
		<tag k="alt_name" v="Ødegården" />
		<tag k="fixme" v="consider place=hamlet" />
		<tag k="name" v="Ødegård" />
		<tag k="place" v="farm" />
		<tag k="ssr:stedsnr" v="723526" />
	</node>
	<node lat="59.11272222546673" lon="9.550888882422104" id="-35029">
		<tag k="name" v="Stranddalen" />
		<tag k="place" v="farm" />
		<tag k="ssr:stedsnr" v="725203" />
	</node>
	<node lat="59.04301388985837" lon="9.653225007254749" id="-35030">
		<tag k="name" v="Findalplassen" />
		<tag k="place" v="farm" />
		<tag k="ssr:stedsnr" v="726211" />
	</node>
	<node lat="58.939308330067796" lon="9.545294445226846" id="-35032">
		<tag k="alt_name" v="Teigdal" />
		<tag k="name" v="Tegdal" />
		<tag k="place" v="farm" />
		<tag k="ssr:stedsnr" v="729278" />
	</node>
	<node lat="59.03190277631333" lon="9.696688880348107" id="-35035">
		<tag k="fixme" v="consider place=hamlet" />
		<tag k="name" v="Grasmyr" />
		<tag k="place" v="farm" />
		<tag k="ssr:stedsnr" v="730510" />
	</node>
	<node lat="59.012786109792025" lon="9.563333340044792" id="-35036">
		<tag k="name" v="Valle" />
		<tag k="place" v="farm" />
		<tag k="ssr:stedsnr" v="730713" />
	</node>
	<node lat="59.0417499975919" lon="9.696088890131984" id="-35042">
		<tag k="name" v="Kjellestad" />
		<tag k="place" v="locality" />
		<tag k="ssr:stedsnr" v="905146" />
	</node>
	<node lat="58.9994416694941" lon="9.733475000014373" id="-35043">
		<tag k="name" v="Kjerrvika" />
		<tag k="place" v="neighbourhood" />
		<tag k="ssr:stedsnr" v="905548" />
	</node>
	<node lat="59.02783055505291" lon="9.668949994553897" id="-35046">
		<tag k="fixme" v="consider place=hamlet" />
		<tag k="name" v="Midtgården" />
		<tag k="place" v="farm" />
		<tag k="ssr:stedsnr" v="767109" />
	</node>
	<node lat="59.013036106729416" lon="9.374383341434187" id="-35049">
		<tag k="name" v="Myrane" />
		<tag k="place" v="locality" />
		<tag k="ssr:stedsnr" v="767101" />
	</node>
	<node lat="59.04051111548237" lon="9.650083336434154" id="-35088">
		<tag k="name" v="Linnakåsa" />
		<tag k="place" v="isolated_dwelling" />
		<tag k="ssr:stedsnr" v="786167" />
	</node>
	<node lat="58.93272221843496" lon="9.570361113050794" id="-35089">
		<tag k="alt_name" v="Våg" />
		<tag k="fixme" v="consider place=hamlet" />
		<tag k="name" v="Vestre Våg" />
		<tag k="place" v="farm" />
		<tag k="ssr:stedsnr" v="911284" />
	</node>
	<node lat="58.96994611978871" lon="9.480437313905876" id="-35091">
		<tag k="alt_name" v="Fosstveit" />
		<tag k="fixme" v="consider place=hamlet" />
		<tag k="name" v="Fostvedt" />
		<tag k="place" v="farm" />
		<tag k="ssr:stedsnr" v="789304" />
	</node>
	<node lat="58.98905278085884" lon="9.594750003780947" id="-35092">
		<tag k="alt_name" v="Nystein, vestre" />
		<tag k="name" v="Vestre Nystein" />
		<tag k="place" v="farm" />
		<tag k="ssr:stedsnr" v="911580" />
	</node>
	<node lat="59.01675277792273" lon="9.736838889759643" id="-35094">
		<tag k="fixme" v="consider place=suburb, village or hamlet" />
		<tag k="name" v="Hydal" />
		<tag k="place" v="quarter" />
		<tag k="ssr:stedsnr" v="790220" />
	</node>
	<node lat="59.02491667008148" lon="9.670786117598201" id="-35095">
		<tag k="name" v="Hegna" />
		<tag k="place" v="farm" />
		<tag k="ssr:stedsnr" v="790247" />
	</node>
	<node lat="59.09997499886577" lon="9.540866661425776" id="-35096">
		<tag k="alt_name" v="Hellestvedt" />
		<tag k="fixme" v="consider place=hamlet" />
		<tag k="name" v="Hellestveit" />
		<tag k="place" v="farm" />
		<tag k="ssr:stedsnr" v="790801" />
	</node>
	<node lat="59.027733334683084" lon="9.539747216610909" id="-35100">
		<tag k="name" v="Stormyr" />
		<tag k="place" v="farm" />
		<tag k="ssr:stedsnr" v="790702" />
	</node>
	<node lat="58.97869999605788" lon="9.632861113542488" id="-35101">
		<tag k="alt_name" v="Grobstok" />
		<tag k="fixme" v="consider place=hamlet" />
		<tag k="name" v="Grostokk" />
		<tag k="place" v="farm" />
		<tag k="ssr:stedsnr" v="911629" />
	</node>
	<node lat="58.97220000083231" lon="9.629577777321082" id="-35104">
		<tag k="name" v="Moland" />
		<tag k="place" v="isolated_dwelling" />
		<tag k="ssr:stedsnr" v="911869" />
	</node>
	<node lat="58.973099999194446" lon="9.64570276953822" id="-35105">
		<tag k="fixme" v="consider place=hamlet" />
		<tag k="name" v="Brevik vestre" />
		<tag k="place" v="farm" />
		<tag k="ssr:stedsnr" v="911870" />
	</node>
	<node lat="58.975755551361715" lon="9.658925002353195" id="-35106">
		<tag k="name" v="Brevikstranda" />
		<tag k="place" v="hamlet" />
		<tag k="ssr:stedsnr" v="911874" />
	</node>
	<node lat="59.025269447516585" lon="9.35345277324688" id="-35112">
		<tag k="alt_name" v="Skardelva" />
		<tag k="name" v="Skareelva" />
		<tag k="place" v="locality" />
		<tag k="ssr:stedsnr" v="912271" />
	</node>
	<node lat="59.02727777826624" lon="9.71783055169246" id="-35113">
		<tag k="fixme" v="consider place=hamlet" />
		<tag k="name" v="Eik" />
		<tag k="place" v="farm" />
		<tag k="ssr:stedsnr" v="912285" />
	</node>
	<node lat="59.0047972262473" lon="9.569158335735645" id="-35114">
		<tag k="name" v="Kil" />
		<tag k="place" v="farm" />
		<tag k="ssr:stedsnr" v="912694" />
	</node>
	<node lat="59.016483329168494" lon="9.578425001105964" id="-35116">
		<tag k="name" v="Kjellemyr" />
		<tag k="place" v="farm" />
		<tag k="ssr:stedsnr" v="912679" />
	</node>
	<node lat="59.042749995637465" lon="9.671638880844029" id="-35118">
		<tag k="fixme" v="consider place=suburb, village or hamlet" />
		<tag k="name" v="Rugtvedtmyra" />
		<tag k="place" v="quarter" />
		<tag k="ssr:stedsnr" v="810937" />
	</node>
	<node lat="58.974513891732336" lon="9.457127775410795" id="-35133">
		<tag k="name" v="Tverråen" />
		<tag k="place" v="locality" />
		<tag k="ssr:stedsnr" v="830421" />
	</node>
	<node lat="59.005238889954164" lon="9.651611116632772" id="-35145">
		<tag k="name" v="Steinsrønningen" />
		<tag k="place" v="locality" />
		<tag k="ssr:stedsnr" v="847822" />
	</node>
	<node lat="59.08751666921752" lon="9.61196389356711" id="-35147">
		<tag k="name" v="Kolaberget" />
		<tag k="place" v="locality" />
		<tag k="ssr:stedsnr" v="847928" />
	</node>
	<node lat="59.069969442682" lon="9.610183341104323" id="-35152">
		<tag k="alt_name" v="Kosa" />
		<tag k="name" v="Kåsa" />
		<tag k="place" v="farm" />
		<tag k="ssr:stedsnr" v="851388" />
	</node>
	<node lat="58.95136111501934" lon="9.416555562149835" id="-35153">
		<tag k="name" v="Plassen" />
		<tag k="place" v="isolated_dwelling" />
		<tag k="ssr:stedsnr" v="851275" />
	</node>
	<node lat="59.054433328948335" lon="9.607972227422058" id="-35154">
		<tag k="fixme" v="consider place=hamlet" />
		<tag k="name" v="Garstad" />
		<tag k="place" v="farm" />
		<tag k="ssr:stedsnr" v="851419" />
	</node>
	<node lat="59.11379166721572" lon="9.537191659200934" id="-35155">
		<tag k="fixme" v="consider place=hamlet" />
		<tag k="name" v="Siljan" />
		<tag k="place" v="farm" />
		<tag k="ssr:stedsnr" v="851788" />
	</node>
	<node lat="59.00230277838426" lon="9.39499443639791" id="-35161">
		<tag k="name" v="Rørholt" />
		<tag k="place" v="farm" />
		<tag k="ssr:stedsnr" v="851669" />
	</node>
	<node lat="59.123394443188374" lon="9.532083326194273" id="-35163">
		<tag k="name" v="Gårdem" />
		<tag k="place" v="farm" />
		<tag k="ssr:stedsnr" v="851810" />
	</node>
	<node lat="59.076658336810404" lon="9.627486113132392" id="-35170">
		<tag k="alt_name" v="Stoe;Sloet" />
		<tag k="name" v="Stoet" />
		<tag k="place" v="isolated_dwelling" />
		<tag k="ssr:stedsnr" v="935230" />
	</node>
	<node lat="59.01201389184323" lon="9.622180547997846" id="-35174">
		<tag k="name" v="Østre Tveten" />
		<tag k="place" v="farm" />
		<tag k="ssr:stedsnr" v="889050" />
	</node>
	<node lat="58.990369446751096" lon="9.388086108493471" id="-35176">
		<tag k="name" v="Velta" />
		<tag k="place" v="locality" />
		<tag k="ssr:stedsnr" v="889633" />
	</node>
	<node lat="58.9435277788668" lon="9.581138888748741" id="-35179">
		<tag k="fixme" v="consider place=hamlet" />
		<tag k="name" v="Finmark" />
		<tag k="place" v="farm" />
		<tag k="ssr:stedsnr" v="889941" />
	</node>
	<node lat="58.93654444599225" lon="9.493736103774484" id="-35192">
		<tag k="name" v="Seteren" />
		<tag k="place" v="locality" />
		<tag k="ssr:stedsnr" v="891661" />
	</node>
	<node lat="59.12268055240997" lon="9.53651388196685" id="-35193">
		<tag k="name" v="Svarthol" />
		<tag k="place" v="isolated_dwelling" />
		<tag k="ssr:stedsnr" v="898721" />
	</node>
	<node lat="58.99057500263373" lon="9.402400003539531" id="-35203">
		<tag k="fixme" v="consider place=hamlet" />
		<tag k="name" v="Mo" />
		<tag k="place" v="farm" />
		<tag k="ssr:stedsnr" v="911341" />
	</node>
	<node lat="58.972400001866525" lon="9.508055548868864" id="-35204">
		<tag k="name" v="Langrønningen" />
		<tag k="place" v="farm" />
		<tag k="ssr:stedsnr" v="911344" />
	</node>
	<node lat="59.01927500059599" lon="9.688127771094583" id="-35206">
		<tag k="name" v="Tangvall" />
		<tag k="old_name" v="Tangval" />
		<tag k="place" v="farm" />
		<tag k="ssr:stedsnr" v="911274" />
	</node>
	<node lat="59.05992500216573" lon="9.509408341138643" id="-35207">
		<tag k="alt_name" v="Hovstein, store;Hofstein" />
		<tag k="loc_name" v="Hovstein" />
		<tag k="name" v="Store Hovstein" />
		<tag k="place" v="farm" />
		<tag k="ssr:stedsnr" v="911842" />
	</node>
	<node lat="59.03514166534339" lon="9.714024996061683" id="-35208">
		<tag k="alt_name" v="Eikstranda;Eikstranden" />
		<tag k="loc_name" v="Eiksstrand" />
		<tag k="name" v="Eikstrand" />
		<tag k="place" v="village" />
		<tag k="ssr:stedsnr" v="912503" />
	</node>
	<node lat="59.005288891124806" lon="9.374188884673812" id="-35209">
		<tag k="name" v="Modalen" />
		<tag k="place" v="farm" />
		<tag k="ssr:stedsnr" v="912692" />
	</node>
	<node lat="58.935408331953255" lon="9.560866668192073" id="-35212">
		<tag k="name" v="Kjerra" />
		<tag k="place" v="isolated_dwelling" />
		<tag k="ssr:stedsnr" v="949005" />
	</node>
	<node lat="58.96615277941308" lon="9.559472227224653" id="-35216">
		<tag k="name" v="Feset" />
		<tag k="place" v="farm" />
		<tag k="ssr:stedsnr" v="949378" />
	</node>
	<node lat="58.99303888866738" lon="9.459824996649612" id="-35223">
		<tag k="name" v="Svippeslåtta" />
		<tag k="place" v="locality" />
		<tag k="ssr:stedsnr" v="951514" />
	</node>
	<node lat="58.974488893230635" lon="9.535619436092894" id="-35231">
		<tag k="name" v="Østre Rosland" />
		<tag k="place" v="farm" />
		<tag k="ssr:stedsnr" v="951698" />
	</node>
	<node lat="58.97456666630736" lon="9.528822223283905" id="-35232">
		<tag k="name" v="Vestre Rosland" />
		<tag k="place" v="farm" />
		<tag k="ssr:stedsnr" v="951700" />
	</node>
	<node lat="58.960469262814506" lon="9.430038442050028" id="-35241">
		<tag k="fixme" v="consider place=hamlet" />
		<tag k="name" v="Dørdal" />
		<tag k="place" v="farm" />
		<tag k="ssr:stedsnr" v="980435" />
	</node>
	<node lat="58.963668839474884" lon="9.564172864462881" id="-35242">
		<tag k="fixme" v="consider place=hamlet" />
		<tag k="name" v="Utjord" />
		<tag k="place" v="farm" />
		<tag k="ssr:stedsnr" v="980436" />
	</node>
	<node lat="58.94613073736571" lon="9.570956705678373" id="-35243">
		<tag k="fixme" v="consider place=hamlet" />
		<tag k="name" v="Vestre Tveitan" />
		<tag k="place" v="farm" />
		<tag k="ssr:stedsnr" v="980437" />
	</node>
	<node lat="58.924864280393905" lon="9.556516459258349" id="-35244">
		<tag k="fixme" v="consider place=hamlet" />
		<tag k="name" v="Vågøya" />
		<tag k="place" v="farm" />
		<tag k="ssr:stedsnr" v="980440" />
	</node>
	<node lat="58.9355781759726" lon="9.572894349631786" id="-35245">
		<tag k="fixme" v="consider place=hamlet" />
		<tag k="name" v="Østre Våg" />
		<tag k="place" v="farm" />
		<tag k="ssr:stedsnr" v="980441" />
	</node>
	<node lat="58.93410400536864" lon="9.573782561247615" id="-35246">
		<tag k="name" v="Våg" />
		<tag k="place" v="hamlet" />
		<tag k="ssr:stedsnr" v="980442" />
	</node>
	<node lat="58.94656329506181" lon="9.641206541884952" id="-35247">
		<tag k="fixme" v="consider place=hamlet" />
		<tag k="name" v="Toner" />
		<tag k="place" v="farm" />
		<tag k="ssr:stedsnr" v="980443" />
	</node>
	<node lat="58.97373024926487" lon="9.653535606387598" id="-35248">
		<tag k="fixme" v="consider place=hamlet" />
		<tag k="name" v="Brevik  østre" />
		<tag k="place" v="farm" />
		<tag k="ssr:stedsnr" v="980444" />
	</node>
	<node lat="58.97331556348718" lon="9.649374526640248" id="-35249">
		<tag k="name" v="Brevik" />
		<tag k="place" v="hamlet" />
		<tag k="ssr:stedsnr" v="980445" />
	</node>
	<node lat="58.98954658949458" lon="9.59545486574102" id="-35250">
		<tag k="fixme" v="consider place=hamlet" />
		<tag k="name" v="Nystein" />
		<tag k="place" v="farm" />
		<tag k="ssr:stedsnr" v="980446" />
	</node>
	<node lat="58.98615387865747" lon="9.619490437048661" id="-35251">
		<tag k="fixme" v="consider place=hamlet" />
		<tag k="name" v="Vestre Stokke" />
		<tag k="place" v="farm" />
		<tag k="ssr:stedsnr" v="980447" />
	</node>
	<node lat="58.95415674143605" lon="9.593154261101956" id="-35252">
		<tag k="name" v="Kjørstad" />
		<tag k="place" v="hamlet" />
		<tag k="ssr:stedsnr" v="980450" />
	</node>
	<node lat="58.94209770553627" lon="9.49832128178061" id="-35253">
		<tag k="fixme" v="consider place=hamlet" />
		<tag k="name" v="Grimsrød" />
		<tag k="place" v="farm" />
		<tag k="ssr:stedsnr" v="980433" />
	</node>
	<node lat="58.93033333431298" lon="9.595072225245229" id="-35256">
		<tag k="name" v="Trolldalen" />
		<tag k="place" v="locality" />
		<tag k="ssr:stedsnr" v="927" />
	</node>
	<node lat="58.942225003390426" lon="9.478625005343087" id="-35259">
		<tag k="name" v="Myra" />
		<tag k="place" v="farm" />
		<tag k="ssr:stedsnr" v="1277" />
	</node>
	<node lat="59.01576111383654" lon="9.349649992783814" id="-35262">
		<tag k="alt_name" v="Olashol, øvre" />
		<tag k="name" v="Olavs hull" />
		<tag k="place" v="locality" />
		<tag k="ssr:stedsnr" v="1664" />
	</node>
	<node lat="59.030133335424445" lon="9.535344440437495" id="-35263">
		<tag k="alt_name" v="Skogen, s;Skaugen" />
		<tag k="name" v="Søndre Skogen" />
		<tag k="place" v="farm" />
		<tag k="ssr:stedsnr" v="1668" />
	</node>
	<node lat="59.093566667754715" lon="9.59223332477366" id="-35266">
		<tag k="name" v="Tråk" />
		<tag k="place" v="locality" />
		<tag k="ssr:stedsnr" v="1759" />
	</node>
	<node lat="59.032408334719804" lon="9.433241661729353" id="-35268">
		<tag k="alt_name" v="Hundkilen, store" />
		<tag k="name" v="Store Hundkilen" />
		<tag k="place" v="locality" />
		<tag k="ssr:stedsnr" v="1826" />
	</node>
	<node lat="59.03338889109709" lon="9.673722221498107" id="-35271">
		<tag k="name" v="Polland" />
		<tag k="place" v="farm" />
		<tag k="ssr:stedsnr" v="2506" />
	</node>
	<node lat="59.01378332938822" lon="9.563077784760528" id="-35275">
		<tag k="fixme" v="consider place=hamlet" />
		<tag k="name" v="Bamle" />
		<tag k="place" v="village" />
		<tag k="ssr:stedsnr" v="21927" />
	</node>
	<node lat="59.06484444285347" lon="9.628525000677634" id="-35278">
		<tag k="alt_name" v="Silleberget" />
		<tag k="name" v="Sildeberget" />
		<tag k="place" v="isolated_dwelling" />
		<tag k="ssr:stedsnr" v="26898" />
	</node>
	<node lat="58.96880000393677" lon="9.564397230547632" id="-35280">
		<tag k="name" v="Østmarka" />
		<tag k="place" v="isolated_dwelling" />
		<tag k="ssr:stedsnr" v="39387" />
	</node>
	<node lat="59.020461108241285" lon="9.622308329832718" id="-35281">
		<tag k="name" v="Fagerli" />
		<tag k="place" v="isolated_dwelling" />
		<tag k="ssr:stedsnr" v="39025" />
	</node>
	<node lat="58.99312499863869" lon="9.33688056136763" id="-35290">
		<tag k="name" v="Kilseter" />
		<tag k="place" v="locality" />
		<tag k="ssr:stedsnr" v="39791" />
	</node>
	<node lat="59.05810555809004" lon="9.454044448983355" id="-35306">
		<tag k="name" v="Lund" />
		<tag k="place" v="locality" />
		<tag k="ssr:stedsnr" v="40489" />
	</node>
	<node lat="59.07023888659299" lon="9.541899995686038" id="-35314">
		<tag k="name" v="Asdalsetre" />
		<tag k="place" v="locality" />
		<tag k="ssr:stedsnr" v="41262" />
	</node>
	<node lat="58.97048055182599" lon="9.505322229329128" id="-35321">
		<tag k="name" v="Bråtedalen" />
		<tag k="place" v="locality" />
		<tag k="ssr:stedsnr" v="41683" />
	</node>
	<node lat="58.950308332150485" lon="9.535236115731795" id="-35329">
		<tag k="name" v="Ringsjødalane" />
		<tag k="place" v="farm" />
		<tag k="ssr:stedsnr" v="41998" />
	</node>
	<node lat="59.10735000277238" lon="9.557680549420516" id="-35331">
		<tag k="name" v="Bakken" />
		<tag k="place" v="farm" />
		<tag k="ssr:stedsnr" v="48659" />
	</node>
	<node lat="59.03578055156455" lon="9.705411118952316" id="-35333">
		<tag k="amenity" v="school" />
		<tag k="name" v="Stathelle barneskole" />
		<tag k="ssr:stedsnr" v="53998" />
	</node>
	<node lat="59.045788888691646" lon="9.639194441277224" id="-35334">
		<tag k="fixme" v="consider place=hamlet" />
		<tag k="name" v="Havreåker" />
		<tag k="place" v="farm" />
		<tag k="ssr:stedsnr" v="58219" />
	</node>
	<node lat="59.05970000073305" lon="9.60935277714579" id="-35337">
		<tag k="name" v="Bjønnplassen" />
		<tag k="place" v="locality" />
		<tag k="ssr:stedsnr" v="58296" />
	</node>
	<node lat="58.97682777605468" lon="9.61552499703036" id="-35346">
		<tag k="fixme" v="consider place=hamlet" />
		<tag k="name" v="Busterød" />
		<tag k="place" v="farm" />
		<tag k="ssr:stedsnr" v="61593" />
	</node>
	<node lat="58.97655000066889" lon="9.41446110739374" id="-35347">
		<tag k="name" v="Dalen" />
		<tag k="place" v="locality" />
		<tag k="ssr:stedsnr" v="61333" />
	</node>
	<node lat="58.99642499666892" lon="9.374530556780819" id="-35348">
		<tag k="name" v="Kåsene" />
		<tag k="place" v="farm" />
		<tag k="ssr:stedsnr" v="61352" />
	</node>
	<node lat="58.99063333556641" lon="9.388652771439284" id="-35349">
		<tag k="alt_name" v="Svarvekjerret" />
		<tag k="name" v="Svarvekjær" />
		<tag k="place" v="farm" />
		<tag k="ssr:stedsnr" v="61354" />
	</node>
	<node lat="59.1026916676004" lon="9.550672215950565" id="-35355">
		<tag k="building" v="industrial" />
		<tag k="industrial" v="factory" />
		<tag k="name" v="Bamble cellulose" />
		<tag k="ssr:stedsnr" v="62785" />
	</node>
	<node lat="58.93369166781683" lon="9.54148610865349" id="-35356">
		<tag k="alt_name" v="Vallekjerr" />
		<tag k="name" v="Vallekjær" />
		<tag k="place" v="farm" />
		<tag k="ssr:stedsnr" v="62248" />
	</node>
	<node lat="59.020108332547764" lon="9.65602778260854" id="-35357">
		<tag k="fixme" v="consider place=hamlet" />
		<tag k="name" v="Hydal" />
		<tag k="place" v="farm" />
		<tag k="ssr:stedsnr" v="62251" />
	</node>
	<node lat="59.01567777349427" lon="9.63027222345564" id="-35358">
		<tag k="name" v="Langmyr" />
		<tag k="place" v="farm" />
		<tag k="ssr:stedsnr" v="62260" />
	</node>
	<node lat="59.040475004480996" lon="9.413066662058828" id="-35361">
		<tag k="name" v="Moen" />
		<tag k="place" v="locality" />
		<tag k="ssr:stedsnr" v="62826" />
	</node>
	<node lat="59.05800277744262" lon="9.446683327856766" id="-35364">
		<tag k="alt_name" v="Langseidet, øvre" />
		<tag k="name" v="Øvre Langseidet" />
		<tag k="place" v="locality" />
		<tag k="ssr:stedsnr" v="62855" />
	</node>
	<node lat="59.05606944192659" lon="9.508638893042463" id="-35365">
		<tag k="alt_name" v="Hovstein, l;Lille Hofstein" />
		<tag k="name" v="Lille Hovstein" />
		<tag k="place" v="farm" />
		<tag k="ssr:stedsnr" v="62859" />
	</node>
	<node lat="59.0811527741485" lon="9.618894453075196" id="-35366">
		<tag k="name" v="Rønningen" />
		<tag k="place" v="farm" />
		<tag k="ssr:stedsnr" v="63445" />
	</node>
	<node lat="58.96782500036627" lon="9.538366668906146" id="-35368">
		<tag k="name" v="Feset" />
		<tag k="place" v="farm" />
		<tag k="ssr:stedsnr" v="85400" />
	</node>
	<node lat="59.029522222914885" lon="9.72462222526381" id="-35369">
		<tag k="alt_name" v="Asvald" />
		<tag k="name" v="Asvall" />
		<tag k="place" v="locality" />
		<tag k="ssr:stedsnr" v="85714" />
	</node>
	<node lat="58.94867777862651" lon="9.477250007319839" id="-35378">
		<tag k="name" v="Vasstranda" />
		<tag k="place" v="locality" />
		<tag k="ssr:stedsnr" v="100645" />
	</node>
	<node lat="58.99304721980466" lon="9.385433336299913" id="-35382">
		<tag k="name" v="Vassend" />
		<tag k="place" v="locality" />
		<tag k="ssr:stedsnr" v="100840" />
	</node>
	<node lat="58.95344166297131" lon="9.587666673809242" id="-35383">
		<tag k="fixme" v="consider place=hamlet" />
		<tag k="name" v="Vestre Kjørstad" />
		<tag k="place" v="farm" />
		<tag k="ssr:stedsnr" v="100850" />
	</node>
	<node lat="59.01529166482763" lon="9.474200007108777" id="-35385">
		<tag k="historic" v="shieling" />
		<tag k="name" v="Hermannseide" />
		<tag k="place" v="isolated_dwelling" />
		<tag k="ssr:stedsnr" v="101038" />
	</node>
	<node lat="58.981805556046815" lon="9.40208333628827" id="-35397">
		<tag k="name" v="Øygården" />
		<tag k="place" v="locality" />
		<tag k="ssr:stedsnr" v="102119" />
	</node>
	<node lat="58.934033332421315" lon="9.552466662814872" id="-35400">
		<tag k="fixme" v="consider place=hamlet" />
		<tag k="name" v="Valle" />
		<tag k="place" v="farm" />
		<tag k="ssr:stedsnr" v="102435" />
	</node>
	<node lat="59.036291663117794" lon="9.707183330496308" id="-35414">
		<tag k="name" v="Bunes" />
		<tag k="place" v="farm" />
		<tag k="ssr:stedsnr" v="117162" />
	</node>
	<node lat="58.93677500310385" lon="9.568655548265582" id="-35422">
		<tag k="name" v="Solli" />
		<tag k="place" v="farm" />
		<tag k="ssr:stedsnr" v="122267" />
	</node>
	<node lat="59.0188722227354" lon="9.707955560396025" id="-35423">
		<tag k="alt_name" v="Gjømlemyrane" />
		<tag k="name" v="Myrane" />
		<tag k="place" v="farm" />
		<tag k="ssr:stedsnr" v="122272" />
	</node>
	<node lat="58.99460277827406" lon="9.689527775289733" id="-35425">
		<tag k="name" v="Kåsene" />
		<tag k="place" v="farm" />
		<tag k="ssr:stedsnr" v="122562" />
	</node>
	<node lat="58.98210555231437" lon="9.683761103452468" id="-35427">
		<tag k="name" v="Elvik" />
		<tag k="place" v="farm" />
		<tag k="ssr:stedsnr" v="122594" />
	</node>
	<node lat="59.11435277425108" lon="9.5571083282369" id="-35428">
		<tag k="name" v="Stranda" />
		<tag k="place" v="farm" />
		<tag k="ssr:stedsnr" v="122788" />
	</node>
	<node lat="59.045105554599594" lon="9.698213884595338" id="-35434">
		<tag k="name" v="Stathelle" />
		<tag k="place" v="town" />
		<tag k="ssr:stedsnr" v="123549" />
	</node>
	<node lat="59.04129166681419" lon="9.689316664460504" id="-35435">
		<tag k="name" v="Krabberød" />
		<tag k="place" v="farm" />
		<tag k="ssr:stedsnr" v="123550" />
	</node>
	<node lat="59.01396111357825" lon="9.555813890558763" id="-35436">
		<tag k="alt_name" v="Solvang" />
		<tag k="name" v="Solvang" />
		<tag k="place" v="farm" />
		<tag k="ssr:stedsnr" v="123699" />
	</node>
	<node lat="59.040138892756744" lon="9.570416661370338" id="-35441">
		<tag k="name" v="Søtholtseteren" />
		<tag k="place" v="locality" />
		<tag k="ssr:stedsnr" v="146894" />
	</node>
	<node lat="59.01135555780925" lon="9.66509999841619" id="-35444">
		<tag k="name" v="Bjørklund" />
		<tag k="place" v="isolated_dwelling" />
		<tag k="ssr:stedsnr" v="160059" />
	</node>
	<node lat="58.99958888975306" lon="9.346577775761915" id="-35465">
		<tag k="name" v="Åsland" />
		<tag k="place" v="farm" />
		<tag k="ssr:stedsnr" v="160821" />
	</node>
	<node lat="58.9470361149479" lon="9.491916658616423" id="-35469">
		<tag k="name" v="Myrstad" />
		<tag k="place" v="isolated_dwelling" />
		<tag k="ssr:stedsnr" v="161674" />
	</node>
	<node lat="59.01387777591226" lon="9.575297230456687" id="-35476">
		<tag k="name" v="Tangen" />
		<tag k="place" v="farm" />
		<tag k="ssr:stedsnr" v="162427" />
	</node>
	<node lat="59.01726666342052" lon="9.571913892825409" id="-35479">
		<tag k="name" v="Kjelly" />
		<tag k="place" v="farm" />
		<tag k="ssr:stedsnr" v="162445" />
	</node>
	<node lat="59.0465555573445" lon="9.659880560867132" id="-35499">
		<tag k="alt_name" v="Kokkeplassen" />
		<tag k="name" v="Cocheplassen" />
		<tag k="place" v="quarter" />
		<tag k="ssr:stedsnr" v="177130" />
	</node>
	<node lat="59.037066668704476" lon="9.712966658217395" id="-35508">
		<tag k="building" v="industrial" />
		<tag k="name" v="Ekstrand båtbyggeri" />
		<tag k="ssr:stedsnr" v="180755" />
	</node>
	<node lat="58.95369999862456" lon="9.430266673192323" id="-35509">
		<tag k="alt_name" v="Skaugen" />
		<tag k="name" v="Skogen" />
		<tag k="place" v="farm" />
		<tag k="ssr:stedsnr" v="183256" />
	</node>
	<node lat="58.953283330515966" lon="9.537811102378052" id="-35510">
		<tag k="fixme" v="consider place=hamlet" />
		<tag k="name" v="Ringsjø" />
		<tag k="place" v="farm" />
		<tag k="ssr:stedsnr" v="183258" />
	</node>
	<node lat="58.95443611222767" lon="9.580600002794935" id="-35511">
		<tag k="name" v="Valsrød" />
		<tag k="place" v="farm" />
		<tag k="ssr:stedsnr" v="183262" />
	</node>
	<node lat="58.93009722476926" lon="9.539275000907981" id="-35512">
		<tag k="name" v="Isnes" />
		<tag k="place" v="isolated_dwelling" />
		<tag k="ssr:stedsnr" v="182265" />
	</node>
	<node lat="59.018605557641195" lon="9.67378055660941" id="-35513">
		<tag k="alt_name" v="Norheim" />
		<tag k="name" v="Nordheim" />
		<tag k="place" v="farm" />
		<tag k="ssr:stedsnr" v="183238" />
	</node>
	<node lat="59.0099888852295" lon="9.714580563137504" id="-35514">
		<tag k="name" v="Sandvika" />
		<tag k="place" v="farm" />
		<tag k="ssr:stedsnr" v="183272" />
	</node>
	<node lat="59.05255555254781" lon="9.487386118403732" id="-35521">
		<tag k="name" v="Vik" />
		<tag k="place" v="farm" />
		<tag k="ssr:stedsnr" v="183859" />
	</node>
	<node lat="58.95635000309929" lon="9.603211103186625" id="-35522">
		<tag k="name" v="Myrbakken" />
		<tag k="place" v="farm" />
		<tag k="ssr:stedsnr" v="183890" />
	</node>
	<node lat="58.95848055390916" lon="9.620272216267322" id="-35525">
		<tag k="fixme" v="consider place=hamlet" />
		<tag k="name" v="Trosby" />
		<tag k="place" v="farm" />
		<tag k="ssr:stedsnr" v="183897" />
	</node>
	<node lat="58.92963889230747" lon="9.535963882436183" id="-35531">
		<tag k="name" v="Hasalvika" />
		<tag k="place" v="locality" />
		<tag k="ssr:stedsnr" v="206997" />
	</node>
	<node lat="59.00805000251328" lon="9.745166658498885" id="-35533">
		<tag k="name" v="Halen gård" />
		<tag k="place" v="farm" />
		<tag k="ssr:stedsnr" v="207755" />
	</node>
	<node lat="59.03232777736351" lon="9.531427785638025" id="-35534">
		<tag k="fixme" v="consider place=hamlet" />
		<tag k="name" v="Skogen" />
		<tag k="place" v="farm" />
		<tag k="ssr:stedsnr" v="220052" />
	</node>
	<node lat="58.95691944657071" lon="9.624752772212508" id="-35538">
		<tag k="name" v="Sandvik" />
		<tag k="place" v="isolated_dwelling" />
		<tag k="ssr:stedsnr" v="221398" />
	</node>
	<node lat="58.993005558280494" lon="9.393486109878792" id="-35541">
		<tag k="name" v="Kolhogsten" />
		<tag k="place" v="locality" />
		<tag k="ssr:stedsnr" v="221947" />
	</node>
	<node lat="58.99779722043896" lon="9.598947222173901" id="-35555">
		<tag k="name" v="Høgeplass" />
		<tag k="place" v="locality" />
		<tag k="ssr:stedsnr" v="223338" />
	</node>
	<node lat="58.99814166582665" lon="9.594591658112265" id="-35556">
		<tag k="name" v="Plassen" />
		<tag k="place" v="locality" />
		<tag k="ssr:stedsnr" v="223339" />
	</node>
	<node lat="59.022244442726404" lon="9.62460000031825" id="-35570">
		<tag k="name" v="Elgstad" />
		<tag k="place" v="isolated_dwelling" />
		<tag k="ssr:stedsnr" v="282043" />
	</node>
	<node lat="59.09988611363105" lon="9.569788886946117" id="-35579">
		<tag k="name" v="Rafneskåsa" />
		<tag k="place" v="locality" />
		<tag k="ssr:stedsnr" v="282950" />
	</node>
	<node lat="59.110730554831136" lon="9.550244440341245" id="-35601">
		<tag k="name" v="Rønningen" />
		<tag k="place" v="farm" />
		<tag k="ssr:stedsnr" v="291739" />
	</node>
	<node lat="59.051891666514734" lon="9.624888893324682" id="-35606">
		<tag k="name" v="Søtholt, n" />
		<tag k="place" v="farm" />
		<tag k="ssr:stedsnr" v="299158" />
	</node>
	<node lat="59.063952780242055" lon="9.6203138861953" id="-35614">
		<tag k="name" v="Sagstua" />
		<tag k="place" v="isolated_dwelling" />
		<tag k="ssr:stedsnr" v="301482" />
	</node>
	<node lat="59.01607778163692" lon="9.718119437100789" id="-35616">
		<tag k="fixme" v="consider place=hamlet" />
		<tag k="name" v="Gjømle" />
		<tag k="place" v="farm" />
		<tag k="ssr:stedsnr" v="304240" />
	</node>
	<node lat="58.940611108009264" lon="9.55123888983825" id="-35617">
		<tag k="alt_name" v="Bjørkkholt" />
		<tag k="name" v="Bjørkeholtet" />
		<tag k="place" v="farm" />
		<tag k="ssr:stedsnr" v="304241" />
	</node>
	<node lat="59.020700001834776" lon="9.718755563216346" id="-35618">
		<tag k="fixme" v="consider place=hamlet" />
		<tag k="name" v="Sundby" />
		<tag k="place" v="farm" />
		<tag k="ssr:stedsnr" v="304242" />
	</node>
	<node lat="58.979950003239296" lon="9.672344450996437" id="-35619">
		<tag k="name" v="Høvikrønningen" />
		<tag k="place" v="farm" />
		<tag k="ssr:stedsnr" v="304634" />
	</node>
	<node lat="58.98556110756509" lon="9.618374997703922" id="-35621">
		<tag k="alt_name" v="Stokke, vestre" />
		<tag k="name" v="Stokke" />
		<tag k="place" v="farm" />
		<tag k="ssr:stedsnr" v="304638" />
	</node>
	<node lat="59.00089722523804" lon="9.653955558117868" id="-35627">
		<tag k="alt_name" v="Esse" />
		<tag k="fixme" v="consider place=hamlet" />
		<tag k="name" v="Esa" />
		<tag k="place" v="farm" />
		<tag k="ssr:stedsnr" v="305293" />
	</node>
	<node lat="59.044750001297686" lon="9.64366944835427" id="-35628">
		<tag k="alt_name" v="Havreåker" />
		<tag k="name" v="Havråker" />
		<tag k="place" v="farm" />
		<tag k="ssr:stedsnr" v="305543" />
	</node>
	<node lat="59.04009166800184" lon="9.700575008158214" id="-35638">
		<tag k="fixme" v="consider place=suburb, village or hamlet" />
		<tag k="name" v="Kjellestadjordene" />
		<tag k="place" v="quarter" />
		<tag k="ssr:stedsnr" v="341811" />
	</node>
	<node lat="59.0121361080299" lon="9.672683334795215" id="-35640">
		<tag k="name" v="Bergstad" />
		<tag k="place" v="isolated_dwelling" />
		<tag k="ssr:stedsnr" v="342062" />
	</node>
	<node lat="58.97213332966627" lon="9.599372225820396" id="-35648">
		<tag k="fixme" v="consider place=hamlet" />
		<tag k="name" v="Vestre Glittum" />
		<tag k="place" v="farm" />
		<tag k="ssr:stedsnr" v="342389" />
	</node>
	<node lat="58.996405559451496" lon="9.5968111052194" id="-35661">
		<tag k="name" v="Grønnli" />
		<tag k="place" v="locality" />
		<tag k="ssr:stedsnr" v="344331" />
	</node>
	<node lat="59.00165000054066" lon="9.745986103985562" id="-35676">
		<tag k="amenity" v="townhall" />
		<tag k="name" v="Rådhuset" />
		<tag k="ssr:stedsnr" v="355580" />
	</node>
	<node lat="59.04028610949832" lon="9.616538892743904" id="-35681">
		<tag k="name" v="Østre Herum" />
		<tag k="place" v="farm" />
		<tag k="ssr:stedsnr" v="361208" />
	</node>
	<node lat="59.041019440505565" lon="9.65146111040505" id="-35684">
		<tag k="name" v="Linnastranda" />
		<tag k="place" v="isolated_dwelling" />
		<tag k="ssr:stedsnr" v="361196" />
	</node>
	<node lat="59.1060916676756" lon="9.546597215027358" id="-35685">
		<tag k="name" v="Kåsa" />
		<tag k="place" v="locality" />
		<tag k="ssr:stedsnr" v="361232" />
	</node>
	<node lat="59.00820555238356" lon="9.66606388400777" id="-35687">
		<tag k="fixme" v="consider place=hamlet" />
		<tag k="name" v="Bamble prestegård" />
		<tag k="place" v="farm" />
		<tag k="ssr:stedsnr" v="361451" />
	</node>
	<node lat="59.065575001296914" lon="9.604436107303814" id="-35689">
		<tag k="alt_name" v="Nedre Sortedal" />
		<tag k="fixme" v="consider place=hamlet" />
		<tag k="name" v="Nedre Surtedal" />
		<tag k="place" v="farm" />
		<tag k="ssr:stedsnr" v="361489" />
	</node>
	<node lat="58.990561111889456" lon="9.597530563692105" id="-35697">
		<tag k="alt_name" v="Nystein, østre" />
		<tag k="name" v="Østre Nystein" />
		<tag k="place" v="farm" />
		<tag k="ssr:stedsnr" v="364582" />
	</node>
	<node lat="58.98268055354149" lon="9.643199996296081" id="-35699">
		<tag k="fixme" v="consider place=hamlet" />
		<tag k="name" v="Svinland" />
		<tag k="place" v="farm" />
		<tag k="ssr:stedsnr" v="364626" />
	</node>
	<node lat="58.978116662327295" lon="9.596949996926673" id="-35700">
		<tag k="name" v="Grindbakken" />
		<tag k="place" v="farm" />
		<tag k="ssr:stedsnr" v="365622" />
	</node>
	<node lat="58.948936107460334" lon="9.619925000428603" id="-35701">
		<tag k="name" v="Rødnes" />
		<tag k="place" v="farm" />
		<tag k="ssr:stedsnr" v="365921" />
	</node>
	<node lat="59.0150027749472" lon="9.691436112757712" id="-35704">
		<tag k="alt_name" v="Rogn, nordre" />
		<tag k="fixme" v="consider place=hamlet" />
		<tag k="name" v="Nordre Rogn" />
		<tag k="place" v="farm" />
		<tag k="ssr:stedsnr" v="365264" />
	</node>
	<node lat="58.97451666738518" lon="9.37137500647273" id="-35705">
		<tag k="name" v="Lauvåsen" />
		<tag k="place" v="locality" />
		<tag k="ssr:stedsnr" v="365346" />
	</node>
	<node lat="59.09888333349633" lon="9.537788881222122" id="-35715">
		<tag k="name" v="Hellestveit" />
		<tag k="place" v="hamlet" />
		<tag k="ssr:stedsnr" v="388880" />
	</node>
	<node lat="59.05022777684038" lon="9.606541673015197" id="-35723">
		<tag k="name" v="Tasseplass" />
		<tag k="place" v="locality" />
		<tag k="ssr:stedsnr" v="403609" />
	</node>
	<node lat="58.94696666778552" lon="9.460761110857197" id="-35726">
		<tag k="name" v="Mollefjelltangen" />
		<tag k="place" v="locality" />
		<tag k="ssr:stedsnr" v="403658" />
	</node>
	<node lat="59.041983337001355" lon="9.61837499398295" id="-35731">
		<tag k="name" v="Skomakerrønningen" />
		<tag k="place" v="locality" />
		<tag k="ssr:stedsnr" v="403723" />
	</node>
	<node lat="58.9947666636472" lon="9.598302774690367" id="-35744">
		<tag k="name" v="Myrane" />
		<tag k="place" v="locality" />
		<tag k="ssr:stedsnr" v="405362" />
	</node>
	<node lat="59.02771666637094" lon="9.552158333626748" id="-35747">
		<tag k="name" v="Heivannsplassen" />
		<tag k="place" v="locality" />
		<tag k="ssr:stedsnr" v="405428" />
	</node>
	<node lat="58.95628055209481" lon="9.526744444105251" id="-35754">
		<tag k="alt_name" v="Hartveit" />
		<tag k="name" v="Midtre Hartveit" />
		<tag k="place" v="farm" />
		<tag k="ssr:stedsnr" v="405967" />
	</node>
	<node lat="59.07189166621416" lon="9.626822220052246" id="-35757">
		<tag k="name" v="Kastet" />
		<tag k="place" v="isolated_dwelling" />
		<tag k="ssr:stedsnr" v="413571" />
	</node>
	<node lat="59.000716667199704" lon="9.748924999959684" id="-35759">
		<tag k="name" v="Torget" />
		<tag k="place" v="square" />
		<tag k="ssr:stedsnr" v="416574" />
	</node>
	<node lat="58.97289166359059" lon="9.674402771350396" id="-35762">
		<tag k="name" v="Ivarshavn" />
		<tag k="place" v="farm" />
		<tag k="ssr:stedsnr" v="420700" />
	</node>
	<node lat="59.07370277566516" lon="9.627938895697842" id="-35763">
		<tag k="name" v="Grenland industri" />
		<tag k="place" v="quarter" />
		<tag k="ssr:stedsnr" v="420729" />
	</node>
	<node lat="58.99260833433903" lon="9.642341670517876" id="-35770">
		<tag k="name" v="Brekke" />
		<tag k="place" v="farm" />
		<tag k="ssr:stedsnr" v="425537" />
	</node>
	<node lat="58.983086110676915" lon="9.609541672417647" id="-35772">
		<tag k="alt_name" v="Lillebrekke;Lille Brekke" />
		<tag k="fixme" v="consider place=hamlet" />
		<tag k="name" v="Lillebrekka" />
		<tag k="place" v="farm" />
		<tag k="ssr:stedsnr" v="425610" />
	</node>
	<node lat="58.95411389087502" lon="9.46524721709516" id="-35773">
		<tag k="fixme" v="consider place=hamlet" />
		<tag k="name" v="Grummestad" />
		<tag k="place" v="farm" />
		<tag k="ssr:stedsnr" v="426284" />
	</node>
	<node lat="58.97211666402378" lon="9.571325007578588" id="-35774">
		<tag k="fixme" v="consider place=hamlet" />
		<tag k="name" v="Rønholt" />
		<tag k="place" v="farm" />
		<tag k="ssr:stedsnr" v="426325" />
	</node>
	<node lat="59.013972217890384" lon="9.591550007287077" id="-35777">
		<tag k="alt_name" v="Thorsdal" />
		<tag k="fixme" v="consider place=hamlet" />
		<tag k="name" v="Torsdal" />
		<tag k="place" v="farm" />
		<tag k="ssr:stedsnr" v="426662" />
	</node>
	<node lat="59.04287222121433" lon="9.519394436806193" id="-35779">
		<tag k="alt_name" v="Nennset" />
		<tag k="fixme" v="consider place=hamlet" />
		<tag k="name" v="Nenset" />
		<tag k="place" v="farm" />
		<tag k="ssr:stedsnr" v="426853" />
	</node>
	<node lat="59.028616662497875" lon="9.679358331175091" id="-35782">
		<tag k="name" v="Stokke" />
		<tag k="place" v="farm" />
		<tag k="ssr:stedsnr" v="427298" />
	</node>
	<node lat="59.069974998948034" lon="9.518472226621947" id="-35783">
		<tag k="name" v="Mellomsæter" />
		<tag k="place" v="isolated_dwelling" />
		<tag k="ssr:stedsnr" v="427843" />
	</node>
	<node lat="59.005830556813834" lon="9.65768888830664" id="-35787">
		<tag k="amenity" v="school" />
		<tag k="name" v="Stein" />
		<tag k="ssr:stedsnr" v="510789" />
	</node>
	<node lat="58.958272218761635" lon="9.570069444688041" id="-35795">
		<tag k="name" v="Havredal" />
		<tag k="place" v="farm" />
		<tag k="ssr:stedsnr" v="524517" />
	</node>
	<node lat="58.9787083360042" lon="9.585322230383877" id="-35798">
		<tag k="fixme" v="consider place=hamlet" />
		<tag k="name" v="Vissestad" />
		<tag k="place" v="farm" />
		<tag k="ssr:stedsnr" v="524382" />
	</node>
	<node lat="59.066766667389494" lon="9.590147229166215" id="-35800">
		<tag k="name" v="Midtre Klepp" />
		<tag k="place" v="farm" />
		<tag k="ssr:stedsnr" v="524735" />
	</node>
	<node lat="59.03214999947374" lon="9.660575000170505" id="-35801">
		<tag k="name" v="Gjerset" />
		<tag k="place" v="farm" />
		<tag k="ssr:stedsnr" v="524748" />
	</node>
	<node lat="59.0025888915429" lon="9.382369443302482" id="-35804">
		<tag k="fixme" v="consider place=hamlet" />
		<tag k="name" v="Rørholt, nordre" />
		<tag k="place" v="farm" />
		<tag k="ssr:stedsnr" v="524847" />
	</node>
	<node lat="58.95425833751562" lon="9.59746111142241" id="-35805">
		<tag k="fixme" v="consider place=hamlet" />
		<tag k="name" v="Østre Kjørstad" />
		<tag k="place" v="farm" />
		<tag k="ssr:stedsnr" v="524848" />
	</node>
	<node lat="59.01511389291731" lon="9.405500001553879" id="-35810">
		<tag k="name" v="Bukktjennmyra" />
		<tag k="place" v="locality" />
		<tag k="ssr:stedsnr" v="525027" />
	</node>
	<node lat="58.993275000700145" lon="9.584922216711137" id="-35817">
		<tag k="name" v="Strømme" />
		<tag k="place" v="locality" />
		<tag k="ssr:stedsnr" v="526290" />
	</node>
	<node lat="58.95700833178312" lon="9.529705555471518" id="-35826">
		<tag k="name" v="Hartveit" />
		<tag k="place" v="farm" />
		<tag k="ssr:stedsnr" v="526988" />
	</node>
	<node lat="59.008686111907664" lon="9.739291671103128" id="-35827">
		<tag k="fixme" v="consider place=suburb, village or hamlet" />
		<tag k="name" v="Bratten" />
		<tag k="place" v="quarter" />
		<tag k="ssr:stedsnr" v="527897" />
	</node>
	<node lat="59.07460000411966" lon="9.611172230285721" id="-35829">
		<tag k="fixme" v="consider place=hamlet" />
		<tag k="name" v="Øvre Asdal" />
		<tag k="place" v="farm" />
		<tag k="ssr:stedsnr" v="534556" />
	</node>
	<node lat="59.02311388748725" lon="9.736722219932362" id="-35832">
		<tag k="building" v="industrial" />
		<tag k="name" v="Salen sagbruk" />
		<tag k="ssr:stedsnr" v="540743" />
	</node>
	<node lat="59.027619443942946" lon="9.717583334285525" id="-35833">
		<tag k="name" v="Ramstad" />
		<tag k="place" v="farm" />
		<tag k="ssr:stedsnr" v="540744" />
	</node>
	<node lat="58.93269166670976" lon="9.524077784663461" id="-35839">
		<tag k="name" v="Hovet" />
		<tag k="place" v="farm" />
		<tag k="ssr:stedsnr" v="546265" />
	</node>
	<node lat="58.93980833258799" lon="9.499113888165502" id="-35840">
		<tag k="alt_name" v="Grimsrød, vestre" />
		<tag k="name" v="Vestre Grimsrød" />
		<tag k="place" v="farm" />
		<tag k="ssr:stedsnr" v="547294" />
	</node>
	<node lat="59.060305555717534" lon="9.59871111122223" id="-35841">
		<tag k="fixme" v="consider place=hamlet" />
		<tag k="name" v="Berg" />
		<tag k="place" v="farm" />
		<tag k="ssr:stedsnr" v="547490" />
	</node>
	<node lat="59.01261666846282" lon="9.670249993754304" id="-35842">
		<tag k="fixme" v="consider place=hamlet" />
		<tag k="name" v="Ris" />
		<tag k="place" v="farm" />
		<tag k="ssr:stedsnr" v="547338" />
	</node>
	<node lat="59.047369445471254" lon="9.629616671523332" id="-35843">
		<tag k="fixme" v="consider place=hamlet" />
		<tag k="name" v="Søtholt" />
		<tag k="place" v="farm" />
		<tag k="ssr:stedsnr" v="547539" />
	</node>
	<node lat="58.971055554831345" lon="9.644291671446636" id="-35845">
		<tag k="alt_name" v="Øygården" />
		<tag k="name" v="Ødegården" />
		<tag k="place" v="farm" />
		<tag k="ssr:stedsnr" v="547901" />
	</node>
	<node lat="58.990199999553234" lon="9.374077773360131" id="-35863">
		<tag k="name" v="Plassen" />
		<tag k="place" v="locality" />
		<tag k="ssr:stedsnr" v="585857" />
	</node>
	<node lat="58.93451111468374" lon="9.522522220215587" id="-35874">
		<tag k="name" v="Hovet" />
		<tag k="place" v="farm" />
		<tag k="ssr:stedsnr" v="586658" />
	</node>
	<node lat="58.960522220053775" lon="9.46084999932551" id="-35884">
		<tag k="name" v="Grådalen" />
		<tag k="place" v="isolated_dwelling" />
		<tag k="ssr:stedsnr" v="587679" />
	</node>
	<node lat="59.10582500010007" lon="9.546830562614984" id="-35889">
		<tag k="name" v="Kåsa" />
		<tag k="place" v="isolated_dwelling" />
		<tag k="ssr:stedsnr" v="594717" />
	</node>
	<node lat="59.0826861154301" lon="9.618069442848444" id="-35894">
		<tag k="name" v="Asdaltangen petrokjemianlegg" />
		<tag k="place" v="quarter" />
		<tag k="ssr:stedsnr" v="601695" />
	</node>
	<node lat="58.97987777607517" lon="9.549266671957804" id="-35900">
		<tag k="alt_name" v="Roslandsdalen" />
		<tag k="name" v="Roslanddalen" />
		<tag k="place" v="farm" />
		<tag k="ssr:stedsnr" v="607328" />
	</node>
	<node lat="58.988916670915195" lon="9.587561112197907" id="-35901">
		<tag k="name" v="Hettemyr" />
		<tag k="place" v="isolated_dwelling" />
		<tag k="ssr:stedsnr" v="607337" />
	</node>
	<node lat="59.01966110692225" lon="9.618799994057897" id="-35903">
		<tag k="alt_name" v="Lillehøn" />
		<tag k="name" v="Lille Høen" />
		<tag k="old_name" v="Høn, l" />
		<tag k="place" v="farm" />
		<tag k="ssr:stedsnr" v="607280" />
	</node>
	<node lat="58.963450002843416" lon="9.626200008232788" id="-35905">
		<tag k="fixme" v="consider place=hamlet" />
		<tag k="name" v="Melby" />
		<tag k="place" v="farm" />
		<tag k="ssr:stedsnr" v="607866" />
	</node>
	<node lat="58.98138610894207" lon="9.604205551043863" id="-35907">
		<tag k="fixme" v="consider place=hamlet" />
		<tag k="name" v="Kjær" />
		<tag k="place" v="farm" />
		<tag k="ssr:stedsnr" v="607625" />
	</node>
	<node lat="59.05252500373846" lon="9.589775006452214" id="-35909">
		<tag k="alt_name" v="Bergsvatn" />
		<tag k="name" v="Bergsvann" />
		<tag k="place" v="farm" />
		<tag k="ssr:stedsnr" v="607824" />
	</node>
	<node lat="59.06199444543343" lon="9.625072217795674" id="-35912">
		<tag k="fixme" v="consider place=hamlet" />
		<tag k="name" v="Surtebogen" />
		<tag k="place" v="village" />
		<tag k="ssr:stedsnr" v="608473" />
	</node>
	<node lat="58.94105555968827" lon="9.6221555633499" id="-35916">
		<tag k="name" v="Kjønnøya" />
		<tag k="place" v="hamlet" />
		<tag k="ssr:stedsnr" v="628909" />
	</node>
	<node lat="58.93863888672673" lon="9.568897228980932" id="-35924">
		<tag k="name" v="Hagen" />
		<tag k="place" v="isolated_dwelling" />
		<tag k="ssr:stedsnr" v="645802" />
	</node>
	<node lat="59.0304583358272" lon="9.578619449431418" id="-35927">
		<tag k="name" v="Barlinddalen" />
		<tag k="place" v="locality" />
		<tag k="ssr:stedsnr" v="645858" />
	</node>
	<node lat="59.097383330221874" lon="9.591847213937607" id="-35928">
		<tag k="name" v="Lilletråk" />
		<tag k="place" v="locality" />
		<tag k="ssr:stedsnr" v="645939" />
	</node>
	<node lat="59.00194444558603" lon="9.393202781085582" id="-35929">
		<tag k="name" v="Rørholt" />
		<tag k="place" v="hamlet" />
		<tag k="ssr:stedsnr" v="645961" />
	</node>
	<node lat="59.10497499911546" lon="9.575794450459489" id="-35931">
		<tag k="name" v="Berget" />
		<tag k="place" v="isolated_dwelling" />
		<tag k="ssr:stedsnr" v="645971" />
	</node>
	<node lat="59.03263889222157" lon="9.52968055358789" id="-35953">
		<tag k="name" v="Mellom Skaugen" />
		<tag k="place" v="farm" />
		<tag k="ssr:stedsnr" v="655737" />
	</node>
	<node lat="59.063905551534646" lon="9.62423332480059" id="-35960">
		<tag k="name" v="Stranda" />
		<tag k="place" v="farm" />
		<tag k="ssr:stedsnr" v="665526" />
	</node>
	<node lat="58.97741111366045" lon="9.589222216234225" id="-35961">
		<tag k="name" v="Vissestad" />
		<tag k="place" v="quarter" />
		<tag k="ssr:stedsnr" v="668341" />
	</node>
	<node lat="58.988405557518384" lon="9.363008340591318" id="-35962">
		<tag k="name" v="Kil" />
		<tag k="place" v="farm" />
		<tag k="ssr:stedsnr" v="668352" />
	</node>
	<node lat="59.06947221972048" lon="9.600686113826052" id="-35963">
		<tag k="name" v="Klostret" />
		<tag k="place" v="farm" />
		<tag k="ssr:stedsnr" v="668438" />
	</node>
	<node lat="58.9379111134945" lon="9.619272227272319" id="-35967">
		<tag k="name" v="Hafsund" />
		<tag k="place" v="farm" />
		<tag k="ssr:stedsnr" v="668923" />
	</node>
	<node lat="58.93515833085229" lon="9.605116658123151" id="-35968">
		<tag k="name" v="Grunnsund" />
		<tag k="place" v="farm" />
		<tag k="ssr:stedsnr" v="668924" />
	</node>
	<node lat="59.0052833377621" lon="9.616905557232478" id="-35969">
		<tag k="alt_name" v="Tinderholt" />
		<tag k="name" v="Tinderholt" />
		<tag k="place" v="farm" />
		<tag k="ssr:stedsnr" v="668323" />
	</node>
	<node lat="58.94474444874072" lon="9.573447230063401" id="-35970">
		<tag k="alt_name" v="Tveitan" />
		<tag k="name" v="Tveten" />
		<tag k="place" v="farm" />
		<tag k="ssr:stedsnr" v="668325" />
	</node>
	<node lat="58.98418333115974" lon="9.63524166092434" id="-35972">
		<tag k="alt_name" v="Holtet" />
		<tag k="fixme" v="consider place=hamlet" />
		<tag k="name" v="Holte" />
		<tag k="place" v="farm" />
		<tag k="ssr:stedsnr" v="668642" />
	</node>
	<node lat="58.97670277362631" lon="9.605602780011278" id="-35973">
		<tag k="name" v="Kjærsdalen" />
		<tag k="place" v="farm" />
		<tag k="ssr:stedsnr" v="668622" />
	</node>
	<node lat="59.02166973098816" lon="9.735991913173471" id="-35977">
		<tag k="fixme" v="consider place=suburb, village or hamlet" />
		<tag k="name" v="Salen" />
		<tag k="place" v="quarter" />
		<tag k="ssr:stedsnr" v="669246" />
	</node>
	<node lat="59.00213888634411" lon="9.736799999865628" id="-35978">
		<tag k="name" v="Kjerrvik" />
		<tag k="place" v="farm" />
		<tag k="ssr:stedsnr" v="669263" />
	</node>
	<node lat="59.08265277868677" lon="9.49883888812033" id="-35980">
		<tag k="alt_name" v="Pestelenseidet" />
		<tag k="name" v="Pestilenseidet" />
		<tag k="place" v="locality" />
		<tag k="ssr:stedsnr" v="669855" />
	</node>
	<node lat="58.97334444415052" lon="9.60315278178234" id="-35982">
		<tag k="fixme" v="consider place=hamlet" />
		<tag k="name" v="Østre Glittum" />
		<tag k="place" v="farm" />
		<tag k="ssr:stedsnr" v="889442" />
	</node>
	<node lat="59.1224527820895" lon="9.541591671356246" id="-35983">
		<tag k="name" v="Støa" />
		<tag k="place" v="isolated_dwelling" />
		<tag k="ssr:stedsnr" v="715726" />
	</node>
	<node lat="59.11185555849265" lon="9.554452771568686" id="-35984">
		<tag k="name" v="Bleiklia" />
		<tag k="place" v="farm" />
		<tag k="ssr:stedsnr" v="715741" />
	</node>
	<node lat="59.06178889106667" lon="9.595272228972751" id="-35988">
		<tag k="name" v="Berg" />
		<tag k="place" v="farm" />
		<tag k="ssr:stedsnr" v="889664" />
	</node>
	<node lat="58.99126666695864" lon="9.637027782231122" id="-35998">
		<tag k="name" v="Åby" />
		<tag k="place" v="farm" />
		<tag k="ssr:stedsnr" v="725195" />
	</node>
	<node lat="59.00085000286164" lon="9.67727500337941" id="-36000">
		<tag k="name" v="Hasseldalen" />
		<tag k="place" v="locality" />
		<tag k="ssr:stedsnr" v="725379" />
	</node>
	<node lat="58.96409166726951" lon="9.564272223793726" id="-36003">
		<tag k="name" v="Øygarden" />
		<tag k="place" v="farm" />
		<tag k="ssr:stedsnr" v="729318" />
	</node>
	<node lat="58.959074996800595" lon="9.563841658683966" id="-36006">
		<tag k="alt_name" v="Nedre Havredal" />
		<tag k="name" v="Havredal, nedre" />
		<tag k="place" v="farm" />
		<tag k="ssr:stedsnr" v="729316" />
	</node>
	<node lat="58.97820833235169" lon="9.421858329541074" id="-36007">
		<tag k="alt_name" v="Kåsa" />
		<tag k="name" v="Bjorvannskåsa" />
		<tag k="place" v="locality" />
		<tag k="ssr:stedsnr" v="729359" />
	</node>
	<node lat="58.97055555121579" lon="9.661813888219935" id="-36009">
		<tag k="alt_name" v="Svensvika" />
		<tag k="name" v="Svensvik" />
		<tag k="place" v="farm" />
		<tag k="ssr:stedsnr" v="729885" />
	</node>
	<node lat="59.005902775937415" lon="9.70178888163883" id="-36012">
		<tag k="name" v="Rognstranda" />
		<tag k="place" v="neighbourhood" />
		<tag k="ssr:stedsnr" v="730295" />
	</node>
	<node lat="59.096725000811716" lon="9.578849992413689" id="-36013">
		<tag k="name" v="Slåttekåsa" />
		<tag k="place" v="locality" />
		<tag k="ssr:stedsnr" v="730791" />
	</node>
	<node lat="58.97410278142232" lon="9.573688880488543" id="-36028">
		<tag k="amenity" v="school" />
		<tag k="name" v="Rønholt skole" />
		<tag k="ssr:stedsnr" v="767425" />
	</node>
	<node lat="59.00693055954905" lon="9.617508332542346" id="-36032">
		<tag k="name" v="Tinderholt" />
		<tag k="place" v="farm" />
		<tag k="ssr:stedsnr" v="889788" />
	</node>
	<node lat="58.99578610828007" lon="9.435758329351513" id="-36036">
		<tag k="name" v="Grasdalen" />
		<tag k="place" v="locality" />
		<tag k="ssr:stedsnr" v="889955" />
	</node>
	<node lat="58.9890944475114" lon="9.389477773889913" id="-36044">
		<tag k="name" v="Morka" />
		<tag k="place" v="locality" />
		<tag k="ssr:stedsnr" v="767629" />
	</node>
	<node lat="58.96218889324215" lon="9.489113897504279" id="-36048">
		<tag k="name" v="Mellomplassen" />
		<tag k="place" v="locality" />
		<tag k="ssr:stedsnr" v="767661" />
	</node>
	<node lat="59.10328333061471" lon="9.565438887179205" id="-36054">
		<tag k="amenity" v="school" />
		<tag k="name" v="Herre skole" />
		<tag k="ssr:stedsnr" v="767982" />
	</node>
	<node lat="59.01144444548473" lon="9.59768611547698" id="-36064">
		<tag k="name" v="Høls-kåsa" />
		<tag k="place" v="locality" />
		<tag k="ssr:stedsnr" v="769435" />
	</node>
	<node lat="58.961105552215514" lon="9.45662777589105" id="-36075">
		<tag k="name" v="Kåsene" />
		<tag k="place" v="isolated_dwelling" />
		<tag k="ssr:stedsnr" v="769664" />
	</node>
	<node lat="59.04085555345639" lon="9.609294445362998" id="-36085">
		<tag k="fixme" v="consider place=hamlet" />
		<tag k="name" v="Herum" />
		<tag k="place" v="farm" />
		<tag k="ssr:stedsnr" v="786183" />
	</node>
	<node lat="58.9928055521187" lon="9.621080558310044" id="-36097">
		<tag k="alt_name" v="Bjørkeset, nedre;Bjerkeseth" />
		<tag k="name" v="Nedre Bjørkeset" />
		<tag k="place" v="farm" />
		<tag k="ssr:stedsnr" v="789563" />
	</node>
	<node lat="58.99486944568969" lon="9.667000000216078" id="-36098">
		<tag k="alt_name" v="Vinjestranda" />
		<tag k="name" v="Vinjastranda" />
		<tag k="place" v="neighbourhood" />
		<tag k="ssr:stedsnr" v="789575" />
	</node>
	<node lat="58.97075000426263" lon="9.599252784992865" id="-36100">
		<tag k="name" v="Glittum" />
		<tag k="place" v="farm" />
		<tag k="ssr:stedsnr" v="789596" />
	</node>
	<node lat="58.97642777568079" lon="9.658586119615912" id="-36101">
		<tag k="name" v="Brevik  østre" />
		<tag k="place" v="farm" />
		<tag k="ssr:stedsnr" v="789886" />
	</node>
	<node lat="58.959827775706025" lon="9.587536104655538" id="-36104">
		<tag k="name" v="Tangen" />
		<tag k="place" v="farm" />
		<tag k="ssr:stedsnr" v="790269" />
	</node>
	<node lat="58.94878611220625" lon="9.477688894085215" id="-36105">
		<tag k="name" v="Tangane" />
		<tag k="place" v="farm" />
		<tag k="ssr:stedsnr" v="790278" />
	</node>
	<node lat="58.94895277680463" lon="9.548938881984649" id="-36106">
		<tag k="name" v="Plassen" />
		<tag k="place" v="farm" />
		<tag k="ssr:stedsnr" v="790281" />
	</node>
	<node lat="59.01022499967838" lon="9.6773249915626" id="-36107">
		<tag k="alt_name" v="Rognkås;Rognkosa" />
		<tag k="name" v="Rognskåsa" />
		<tag k="place" v="farm" />
		<tag k="ssr:stedsnr" v="790282" />
	</node>
	<node lat="59.03075833526459" lon="9.670255546937556" id="-36109">
		<tag k="fixme" v="consider place=hamlet" />
		<tag k="name" v="Flåtten" />
		<tag k="place" v="farm" />
		<tag k="ssr:stedsnr" v="790490" />
	</node>
	<node lat="59.07917499935232" lon="9.598255551391011" id="-36111">
		<tag k="alt_name" v="Tveitan" />
		<tag k="fixme" v="consider place=hamlet" />
		<tag k="name" v="Tveten" />
		<tag k="place" v="farm" />
		<tag k="ssr:stedsnr" v="791401" />
	</node>
	<node lat="59.012977780156966" lon="9.622822229236395" id="-36117">
		<tag k="alt_name" v="Østre Tveitan" />
		<tag k="fixme" v="consider place=hamlet" />
		<tag k="name" v="Østre Tveten" />
		<tag k="place" v="farm" />
		<tag k="ssr:stedsnr" v="828030" />
	</node>
	<node lat="58.951141668039156" lon="9.450794450329719" id="-36121">
		<tag k="name" v="Myra" />
		<tag k="place" v="isolated_dwelling" />
		<tag k="ssr:stedsnr" v="828653" />
	</node>
	<node lat="59.10759166881122" lon="9.556633326537154" id="-36124">
		<tag k="name" v="Flittig" />
		<tag k="place" v="isolated_dwelling" />
		<tag k="ssr:stedsnr" v="828742" />
	</node>
	<node lat="59.00789722107458" lon="9.618883328922829" id="-36125">
		<tag k="name" v="Sørum" />
		<tag k="place" v="farm" />
		<tag k="ssr:stedsnr" v="828758" />
	</node>
	<node lat="58.937713884603376" lon="9.572061105128423" id="-36130">
		<tag k="name" v="Josefsborg" />
		<tag k="place" v="locality" />
		<tag k="ssr:stedsnr" v="828829" />
	</node>
	<node lat="58.955416665912" lon="9.518791672578077" id="-36152">
		<tag k="name" v="Vestre Hartveit" />
		<tag k="place" v="farm" />
		<tag k="ssr:stedsnr" v="830957" />
	</node>
	<node lat="59.04113055439102" lon="9.612699998013746" id="-36171">
		<tag k="name" v="Midtre Herum" />
		<tag k="place" v="farm" />
		<tag k="ssr:stedsnr" v="847217" />
	</node>
	<node lat="58.994366664808375" lon="9.632997215515054" id="-36172">
		<tag k="name" v="Grønnvoll" />
		<tag k="place" v="locality" />
		<tag k="ssr:stedsnr" v="847279" />
	</node>
	<node lat="58.99122500263177" lon="9.370508340208461" id="-36174">
		<tag k="alt_name" v="Dalane" />
		<tag k="name" v="Dalene" />
		<tag k="place" v="farm" />
		<tag k="ssr:stedsnr" v="850369" />
	</node>
	<node lat="59.03169722075852" lon="9.647972214108899" id="-36175">
		<tag k="alt_name" v="Lina" />
		<tag k="fixme" v="consider place=hamlet" />
		<tag k="name" v="Linna" />
		<tag k="place" v="farm" />
		<tag k="ssr:stedsnr" v="851449" />
	</node>
	<node lat="58.99235555868627" lon="9.644324996356758" id="-36178">
		<tag k="fixme" v="consider place=hamlet" />
		<tag k="name" v="Utgården" />
		<tag k="place" v="farm" />
		<tag k="ssr:stedsnr" v="850558" />
	</node>
	<node lat="58.945947224442214" lon="9.496924993005951" id="-36181">
		<tag k="name" v="Froste" />
		<tag k="place" v="farm" />
		<tag k="ssr:stedsnr" v="851286" />
	</node>
	<node lat="59.00938611203633" lon="9.69666944149776" id="-36182">
		<tag k="alt_name" v="Rogn, s" />
		<tag k="name" v="Rogn" />
		<tag k="place" v="farm" />
		<tag k="ssr:stedsnr" v="851242" />
	</node>
	<node lat="59.012327780331795" lon="9.690947226848353" id="-36183">
		<tag k="alt_name" v="Rogn, midtre;Midt-Rogn" />
		<tag k="fixme" v="consider place=hamlet" />
		<tag k="name" v="Midtre Rogn" />
		<tag k="place" v="farm" />
		<tag k="ssr:stedsnr" v="851243" />
	</node>
	<node lat="59.026963891771075" lon="9.667594444844234" id="-36184">
		<tag k="alt_name" v="Rugtveit" />
		<tag k="name" v="Rugtvedt" />
		<tag k="place" v="farm" />
		<tag k="ssr:stedsnr" v="851265" />
	</node>
	<node lat="59.10021944529594" lon="9.568874996021666" id="-36187">
		<tag k="name" v="Kåsa" />
		<tag k="place" v="isolated_dwelling" />
		<tag k="ssr:stedsnr" v="851740" />
	</node>
	<node lat="59.02324166488914" lon="9.703902774496557" id="-36218">
		<tag k="name" v="Klot" />
		<tag k="place" v="locality" />
		<tag k="ssr:stedsnr" v="949066" />
	</node>
	<node lat="58.93215833166022" lon="9.53671943672044" id="-36222">
		<tag k="fixme" v="consider place=hamlet" />
		<tag k="name" v="Bakerovnen" />
		<tag k="place" v="farm" />
		<tag k="ssr:stedsnr" v="951752" />
	</node>
	<node lat="59.02396388888651" lon="9.628666667962463" id="-36224">
		<tag k="name" v="Vingereidmyra" />
		<tag k="place" v="farm" />
		<tag k="ssr:stedsnr" v="949464" />
	</node>
	<node lat="58.97616666405909" lon="9.421566660157357" id="-36238">
		<tag k="name" v="Langvannskåsa" />
		<tag k="place" v="locality" />
		<tag k="ssr:stedsnr" v="951073" />
	</node>
	<node lat="59.102055554497326" lon="9.564875003531993" id="-36248">
		<tag k="name" v="Heia" />
		<tag k="place" v="farm" />
		<tag k="ssr:stedsnr" v="958713" />
	</node>
	<node lat="59.06907799219781" lon="9.600666321983894" id="-36253">
		<tag k="fixme" v="consider place=hamlet" />
		<tag k="name" v="Øvre Surtedal" />
		<tag k="place" v="farm" />
		<tag k="ssr:stedsnr" v="959534" />
	</node>
	<node lat="59.06073888837283" lon="9.623272214958488" id="-36255">
		<tag k="name" v="Skjerke" />
		<tag k="place" v="isolated_dwelling" />
		<tag k="ssr:stedsnr" v="966152" />
	</node>
	<node lat="58.991283337774036" lon="9.640925008171797" id="-36258">
		<tag k="name" v="Åby" />
		<tag k="place" v="farm" />
		<tag k="ssr:stedsnr" v="968231" />
	</node>
	<node lat="59.10567920113748" lon="9.558920046291483" id="-36268">
		<tag k="name" v="Lille Herre" />
		<tag k="place" v="locality" />
		<tag k="ssr:stedsnr" v="980407" />
	</node>
	<node lat="59.074990035783394" lon="9.605336733989636" id="-36269">
		<tag k="name" v="Asdal" />
		<tag k="place" v="hamlet" />
		<tag k="ssr:stedsnr" v="980408" />
	</node>
	<node lat="59.06754539394363" lon="9.604153005021667" id="-36270">
		<tag k="name" v="Surtedal" />
		<tag k="place" v="hamlet" />
		<tag k="ssr:stedsnr" v="980409" />
	</node>
	<node lat="59.030252095070196" lon="9.677161196532298" id="-36271">
		<tag k="fixme" v="consider place=hamlet" />
		<tag k="name" v="Østre Stokke" />
		<tag k="place" v="farm" />
		<tag k="ssr:stedsnr" v="980410" />
	</node>
	<node lat="59.00257198164866" lon="9.696384935738582" id="-36272">
		<tag k="fixme" v="consider place=hamlet" />
		<tag k="name" v="Søndre Rogn" />
		<tag k="place" v="farm" />
		<tag k="ssr:stedsnr" v="980411" />
	</node>
	<node lat="59.01109295475464" lon="9.696948974849287" id="-36273">
		<tag k="name" v="Rogn" />
		<tag k="place" v="hamlet" />
		<tag k="ssr:stedsnr" v="980412" />
	</node>
	<node lat="59.018097010898" lon="9.689789596488575" id="-36274">
		<tag k="fixme" v="consider place=hamlet" />
		<tag k="name" v="Nedre Tangvall" />
		<tag k="place" v="farm" />
		<tag k="ssr:stedsnr" v="980413" />
	</node>
	<node lat="58.99328017932824" lon="9.620416223257681" id="-36275">
		<tag k="fixme" v="consider place=hamlet" />
		<tag k="name" v="Bjørkeset" />
		<tag k="place" v="farm" />
		<tag k="ssr:stedsnr" v="980414" />
	</node>
	<node lat="58.99163330339091" lon="9.620896623491289" id="-36276">
		<tag k="fixme" v="consider place=hamlet" />
		<tag k="name" v="Bjørkeset Vannfall" />
		<tag k="place" v="farm" />
		<tag k="ssr:stedsnr" v="980415" />
	</node>
	<node lat="59.02125652173843" lon="9.618698330836336" id="-36277">
		<tag k="fixme" v="consider place=hamlet" />
		<tag k="name" v="Høen" />
		<tag k="place" v="farm" />
		<tag k="ssr:stedsnr" v="980416" />
	</node>
	<node lat="59.058218627237146" lon="9.50963927537082" id="-36278">
		<tag k="fixme" v="consider place=hamlet" />
		<tag k="name" v="Hofstein" />
		<tag k="place" v="farm" />
		<tag k="ssr:stedsnr" v="980419" />
	</node>
	<node lat="59.003009776433366" lon="9.391509712012962" id="-36279">
		<tag k="name" v="Rørholt" />
		<tag k="place" v="hamlet" />
		<tag k="ssr:stedsnr" v="980426" />
	</node>
	<node lat="58.97397379318602" lon="9.644198726809648" id="-36282">
		<tag k="name" v="Brevik vestre" />
		<tag k="place" v="farm" />
		<tag k="ssr:stedsnr" v="985806" />
	</node>
	<node lat="58.97102116852273" lon="9.640088670054604" id="-36283">
		<tag k="name" v="Brevik vestre" />
		<tag k="place" v="farm" />
		<tag k="ssr:stedsnr" v="985807" />
	</node>
	<node lat="58.975391973267136" lon="9.653554211515395" id="-36284">
		<tag k="name" v="Brevik østre" />
		<tag k="place" v="farm" />
		<tag k="ssr:stedsnr" v="985808" />
	</node>
	<node lat="58.97904234235858" lon="9.65244670250211" id="-36285">
		<tag k="name" v="Brevik østre" />
		<tag k="place" v="farm" />
		<tag k="ssr:stedsnr" v="985809" />
	</node>
	<node lat="58.97699762969243" lon="9.64567614522817" id="-36286">
		<tag k="name" v="Brevik  østre" />
		<tag k="place" v="farm" />
		<tag k="ssr:stedsnr" v="985810" />
	</node>
	<node lat="58.95317195714472" lon="9.667870790706282" id="-36287">
		<tag k="name" v="Brevik  østre" />
		<tag k="place" v="farm" />
		<tag k="ssr:stedsnr" v="985811" />
	</node>
	<node lat="58.97546939572078" lon="9.656820547770755" id="-36288">
		<tag k="name" v="Brevik  østre" />
		<tag k="place" v="farm" />
		<tag k="ssr:stedsnr" v="985812" />
	</node>
	<node lat="58.974885114622836" lon="9.662552802966728" id="-36289">
		<tag k="name" v="Brevik  østre" />
		<tag k="place" v="farm" />
		<tag k="ssr:stedsnr" v="985813" />
	</node>
	<node lat="58.97453243236507" lon="9.667252248721258" id="-36290">
		<tag k="name" v="Brevik østre" />
		<tag k="place" v="farm" />
		<tag k="ssr:stedsnr" v="985814" />
	</node>
	<node lat="58.9778257027314" lon="9.658579758554605" id="-36291">
		<tag k="name" v="Brevik  østre" />
		<tag k="place" v="farm" />
		<tag k="ssr:stedsnr" v="985815" />
	</node>
	<node lat="58.97505569692881" lon="9.668116603004027" id="-36292">
		<tag k="name" v="Brevik østre" />
		<tag k="place" v="farm" />
		<tag k="ssr:stedsnr" v="985816" />
	</node>
	<node lat="58.973824845458736" lon="9.649945710967138" id="-36293">
		<tag k="fixme" v="multiple name tags, choose one and add the other to alt_name" />
		<tag k="name" v="Breviksmyra;Brevik østre" />
		<tag k="place" v="farm" />
		<tag k="ssr:stedsnr" v="985825" />
	</node>
	<node lat="58.94607612137633" lon="9.628724645298295" id="-36294">
		<tag k="name" v="Kjønnøya" />
		<tag k="place" v="farm" />
		<tag k="ssr:stedsnr" v="985838" />
	</node>
	<node lat="58.941699283781375" lon="9.623975298254733" id="-36295">
		<tag k="name" v="Søndre Kjønnøya" />
		<tag k="place" v="farm" />
		<tag k="ssr:stedsnr" v="985840" />
	</node>
	<node lat="58.942136248451135" lon="9.622420952292751" id="-36296">
		<tag k="name" v="Nordre Kjønnøya" />
		<tag k="place" v="farm" />
		<tag k="ssr:stedsnr" v="985842" />
	</node>
	<node lat="58.9466043193286" lon="9.623881007733496" id="-36297">
		<tag k="name" v="Kjønnøya" />
		<tag k="place" v="farm" />
		<tag k="ssr:stedsnr" v="985845" />
	</node>
	<node lat="58.947661370556474" lon="9.618398151030526" id="-36298">
		<tag k="name" v="Kjønnøya" />
		<tag k="place" v="farm" />
		<tag k="ssr:stedsnr" v="985847" />
	</node>
	<node lat="59.01107229939205" lon="9.751253052390666" id="-36302">
		<tag k="name" v="Smietangen" />
		<tag k="place" v="farm" />
		<tag k="ssr:stedsnr" v="990322" />
	</node>
	<node lat="58.936423455265505" lon="9.598310351088728" id="-36310">
		<tag k="name" v="Tørragården" />
		<tag k="place" v="farm" />
		<tag k="ssr:stedsnr" v="1078749" />
	</node>
</osm>
