<?xml version="1.0" encoding="UTF-8"?>
<osm generator="osmapis" version="0.6">
	<node id="-366591" lat="58.9524027739" lon="9.56420000642">
		<tag k="alt_name" v="Bjørndalsvannet" />
		<tag k="name" v="Bjønndalsvannet" />
		<tag k="natural" v="water" />
		<tag k="ssr:stedsnr" v="486325" />
	</node>
	<node id="-366580" lat="59.0734583372" lon="9.55129722393">
		<tag k="name" v="Asdalsvann" />
		<tag k="natural" v="water" />
		<tag k="ssr:stedsnr" v="669866" />
	</node>
	<node id="-366578" lat="59.0668805587" lon="9.4677250005">
		<tag k="name" v="Nosa" />
		<tag k="natural" v="cape" />
		<tag k="ssr:stedsnr" v="669844" />
	</node>
	<node id="-366576" lat="59.0406518377" lon="9.57369407585">
		<tag k="name" v="Søtholttjerna" />
		<tag k="natural" v="water" />
		<tag k="ssr:stedsnr" v="669814" />
	</node>
	<node id="-366575" lat="59.0397277785" lon="9.49799166964">
		<tag k="alt_name" v="Store Rørholttjenna" />
		<tag k="name" v="Rørholttjern" />
		<tag k="natural" v="water" />
		<tag k="ssr:stedsnr" v="669811" />
	</node>
	<node id="-366562" lat="58.9693194754" lon="9.61890936343">
		<tag k="name" v="Dalsputten" />
		<tag k="natural" v="water" />
		<tag k="old_name" v="Dalstjernet" />
		<tag k="ssr:stedsnr" v="668875" />
	</node>
	<node id="-366551" lat="58.9543750004" lon="9.56550278169">
		<tag k="alt_name" v="Fugletjenn" />
		<tag k="name" v="Fugleputt" />
		<tag k="natural" v="water" />
		<tag k="ssr:stedsnr" v="668312" />
	</node>
	<node id="-366548" lat="58.9629083301" lon="9.48788610714">
		<tag k="name" v="Lindtjenn" />
		<tag k="natural" v="water" />
		<tag k="ssr:stedsnr" v="466671" />
	</node>
	<node id="-366542" lat="59.1048000008" lon="9.56337777704">
		<tag k="name" v="Lakseberget" />
		<tag k="natural" v="beach" />
		<tag k="ssr:stedsnr" v="464963" />
	</node>
	<node id="-366536" lat="58.9629583317" lon="9.60685555688">
		<tag k="name" v="Stotangen" />
		<tag k="natural" v="cape" />
		<tag k="ssr:stedsnr" v="464203" />
	</node>
	<node id="-366535" lat="59.0263388895" lon="9.35446111616">
		<tag k="name" v="Skareelvkilen" />
		<tag k="natural" v="bay" />
		<tag k="ssr:stedsnr" v="464119" />
	</node>
	<node id="-366531" lat="59.0774444448" lon="9.51666111914">
		<tag k="name" v="Trettebekk" />
		<tag k="natural" v="bay" />
		<tag k="ssr:stedsnr" v="664387" />
	</node>
	<node id="-366530" lat="59.0885861089" lon="9.51997777041">
		<tag k="name" v="Storøya" />
		<tag k="place" v="island" />
		<tag k="ssr:stedsnr" v="664473" />
	</node>
	<node id="-366497" lat="59.0692444404" lon="9.47595833005">
		<tag k="name" v="Damfjorden" />
		<tag k="natural" v="water" />
		<tag k="ssr:stedsnr" v="404469" />
	</node>
	<node id="-366495" lat="59.036300003" lon="9.47653611101">
		<tag k="name" v="Langtjennheia" />
		<tag k="natural" v="water" />
		<tag k="ssr:stedsnr" v="404016" />
	</node>
	<node id="-366473" lat="59.0973777793" lon="9.49990832803">
		<tag k="name" v="Mebukttjern" />
		<tag k="natural" v="water" />
		<tag k="ssr:stedsnr" v="487792" />
	</node>
	<node id="-366471" lat="59.0209166689" lon="9.51314999343">
		<tag k="name" v="Krokvann" />
		<tag k="natural" v="water" />
		<tag k="ssr:stedsnr" v="487708" />
		<tag k="water" v="lake" />
	</node>
	<node id="-366470" lat="58.9744638853" lon="9.54062777466">
		<tag k="name" v="Lilletjenn" />
		<tag k="natural" v="water" />
		<tag k="ssr:stedsnr" v="344711" />
	</node>
	<node id="-366458" lat="59.0112000017" lon="9.4212249955">
		<tag k="name" v="Damtjenn, øvre" />
		<tag k="natural" v="water" />
		<tag k="ssr:stedsnr" v="344259" />
	</node>
	<node id="-366456" lat="59.0635638878" lon="9.51986667055">
		<tag k="name" v="Moltetjenn" />
		<tag k="natural" v="water" />
		<tag k="ssr:stedsnr" v="344251" />
	</node>
	<node id="-366452" lat="59.0422138847" lon="9.43675555967">
		<tag k="alt_name" v="Hundekilen" />
		<tag k="name" v="Store Hundkilen" />
		<tag k="natural" v="bay" />
		<tag k="ssr:stedsnr" v="486821" />
	</node>
	<node id="-366451" lat="59.0331249968" lon="9.44681110958">
		<tag k="alt_name" v="Bjørkbukttjenna" />
		<tag k="name" v="Bjørkebutjernet" />
		<tag k="natural" v="water" />
		<tag k="ssr:stedsnr" v="486820" />
	</node>
	<node id="-366448" lat="58.9923388865" lon="9.45151110726">
		<tag k="name" v="Grundetjørnane" />
		<tag k="natural" v="water" />
		<tag k="ssr:stedsnr" v="486393" />
	</node>
	<node id="-366442" lat="59.0942722185" lon="9.5061361044">
		<tag k="name" v="Nedre Midtbukttjenn" />
		<tag k="natural" v="water" />
		<tag k="ssr:stedsnr" v="483551" />
	</node>
	<node id="-366437" lat="59.0929333324" lon="9.47665833163">
		<tag k="name" v="Bjortjenn" />
		<tag k="natural" v="water" />
		<tag k="ssr:stedsnr" v="482525" />
	</node>
	<node id="-366428" lat="59.0069416626" lon="9.63869722448">
		<tag k="alt_name" v="Skogtjerna" />
		<tag k="name" v="Skaugtjenna" />
		<tag k="natural" v="water" />
		<tag k="ssr:stedsnr" v="327837" />
	</node>
	<node id="-366412" lat="58.9786833306" lon="9.62049721572">
		<tag k="alt_name" v="Grobstokvannet" />
		<tag k="name" v="Grostokkvannet" />
		<tag k="natural" v="water" />
		<tag k="old_name" v="Grostokkvatnet" />
		<tag k="ssr:stedsnr" v="304637" />
	</node>
	<node id="-366407" lat="59.0919277798" lon="9.49883610687">
		<tag k="name" v="Langebukta" />
		<tag k="natural" v="bay" />
		<tag k="ssr:stedsnr" v="300525" />
	</node>
	<node id="-366406" lat="59.0741833359" lon="9.49714722764">
		<tag k="name" v="Midtvannsstoøya" />
		<tag k="place" v="islet" />
		<tag k="ssr:stedsnr" v="300614" />
	</node>
	<node id="-366402" lat="59.0289777735" lon="9.3969583305">
		<tag k="name" v="Ålekartjenna" />
		<tag k="natural" v="water" />
		<tag k="ssr:stedsnr" v="466047" />
	</node>
	<node id="-366400" lat="59.0446944432" lon="9.4460500031">
		<tag k="name" v="Øvre Åletjenna" />
		<tag k="natural" v="water" />
		<tag k="ssr:stedsnr" v="466066" />
	</node>
	<node id="-366395" lat="59.0164833348" lon="9.45057777271">
		<tag k="name" v="Roleisundet" />
		<tag k="natural" v="strait" />
		<tag k="ssr:stedsnr" v="465437" />
	</node>
	<node id="-366392" lat="58.9784055599" lon="9.37857500361">
		<tag k="name" v="Einartjenn" />
		<tag k="natural" v="water" />
		<tag k="ssr:stedsnr" v="465331" />
	</node>
	<node id="-366389" lat="59.0128194423" lon="9.52709166427">
		<tag k="name" v="Svarttjenn" />
		<tag k="natural" v="water" />
		<tag k="ssr:stedsnr" v="465586" />
	</node>
	<node id="-366385" lat="59.0116138901" lon="9.45651943871">
		<tag k="name" v="Lille Elgtjenn" />
		<tag k="natural" v="water" />
		<tag k="ssr:stedsnr" v="465026" />
	</node>
	<node id="-366374" lat="58.9523222204" lon="9.46766945057">
		<tag k="name" v="Grummestadøya" />
		<tag k="place" v="island" />
		<tag k="ssr:stedsnr" v="463664" />
	</node>
	<node id="-366368" lat="59.0220459707" lon="9.373221419">
		<tag k="name" v="Svartputt" />
		<tag k="natural" v="water" />
		<tag k="ssr:stedsnr" v="282106" />
	</node>
	<node id="-366363" lat="58.9448027767" lon="9.46418611152">
		<tag k="name" v="Byttingsøy" />
		<tag k="place" v="islet" />
		<tag k="ssr:stedsnr" v="454865" />
	</node>
	<node id="-366355" lat="59.0608111069" lon="9.51573610236">
		<tag k="alt_name" v="Hovsteintjern" />
		<tag k="name" v="Hofsteintjenna" />
		<tag k="natural" v="water" />
		<tag k="ssr:stedsnr" v="244858" />
	</node>
	<node id="-366354" lat="59.0437694409" lon="9.57841389442">
		<tag k="alt_name" v="Lindtjern" />
		<tag k="name" v="Lindtjenn" />
		<tag k="natural" v="water" />
		<tag k="ssr:stedsnr" v="244854" />
	</node>
	<node id="-366346" lat="58.9795611131" lon="9.46681111781">
		<tag k="alt_name" v="Flattjern" />
		<tag k="name" v="Flattjenn" />
		<tag k="natural" v="water" />
		<tag k="ssr:stedsnr" v="243307" />
	</node>
	<node id="-366343" lat="59.1033972267" lon="9.55973610782">
		<tag k="name" v="Herreelva" />
		<tag k="ssr:stedsnr" v="221914" />
		<tag k="waterway" v="river" />
	</node>
	<node id="-366332" lat="59.0111972218" lon="9.61015276909">
		<tag k="alt_name" v="Hønstjerna" />
		<tag k="name" v="Høenstjenna" />
		<tag k="natural" v="water" />
		<tag k="old_name" v="Hønstjern" />
		<tag k="ssr:stedsnr" v="183276" />
	</node>
	<node id="-366322" lat="58.9587083372" lon="9.50777500846">
		<tag k="name" v="Svarttjenn" />
		<tag k="natural" v="water" />
		<tag k="ssr:stedsnr" v="284933" />
	</node>
	<node id="-366321" lat="59.0526888911" lon="9.62722221948">
		<tag k="name" v="Søtholtbekken" />
		<tag k="ssr:stedsnr" v="177166" />
		<tag k="waterway" v="stream" />
	</node>
	<node id="-366312" lat="58.9952305596" lon="9.51174166632">
		<tag k="name" v="Suggetjenn" />
		<tag k="natural" v="water" />
		<tag k="ssr:stedsnr" v="284620" />
	</node>
	<node id="-366310" lat="58.9433833322" lon="9.45326665814">
		<tag k="name" v="Hasseleidkilen" />
		<tag k="natural" v="bay" />
		<tag k="ssr:stedsnr" v="284591" />
	</node>
	<node id="-366309" lat="59.0243694447" lon="9.48683055777">
		<tag k="name" v="Ragnhildstjenn" />
		<tag k="natural" v="water" />
		<tag k="ssr:stedsnr" v="284472" />
	</node>
	<node id="-366307" lat="58.9562833292" lon="9.42356111092">
		<tag k="name" v="Skaugtjenna" />
		<tag k="natural" v="water" />
		<tag k="ssr:stedsnr" v="284447" />
	</node>
	<node id="-366306" lat="58.9561944437" lon="9.43224722167">
		<tag k="name" v="Skaugøya" />
		<tag k="place" v="island" />
		<tag k="ssr:stedsnr" v="284433" />
	</node>
	<node id="-366300" lat="58.9675944483" lon="9.39488610694">
		<tag k="name" v="Midtre Masterødtjenna" />
		<tag k="natural" v="water" />
		<tag k="ssr:stedsnr" v="284031" />
	</node>
	<node id="-366299" lat="59.0434388868" lon="9.51207777621">
		<tag k="name" v="Nensetelva" />
		<tag k="ssr:stedsnr" v="283773" />
		<tag k="waterway" v="river" />
	</node>
	<node id="-366298" lat="59.0422749969" lon="9.52515833903">
		<tag k="name" v="Søtlanddammen" />
		<tag k="natural" v="water" />
		<tag k="ssr:stedsnr" v="283764" />
	</node>
	<node id="-366297" lat="59.0626388894" lon="9.48213056262">
		<tag k="name" v="Korpetangane" />
		<tag k="natural" v="cape" />
		<tag k="ssr:stedsnr" v="283448" />
	</node>
	<node id="-366296" lat="59.0556750021" lon="9.49544999469">
		<tag k="name" v="Sandøya" />
		<tag k="place" v="island" />
		<tag k="ssr:stedsnr" v="283425" />
	</node>
	<node id="-366294" lat="59.0216666658" lon="9.55810000296">
		<tag k="name" v="Ålkartjenna" />
		<tag k="natural" v="water" />
		<tag k="ssr:stedsnr" v="283320" />
	</node>
	<node id="-366291" lat="58.9407999992" lon="9.5937249942">
		<tag k="name" v="Sperrtangen" />
		<tag k="natural" v="cape" />
		<tag k="ssr:stedsnr" v="283290" />
	</node>
	<node id="-366281" lat="59.0370555549" lon="9.59994444809">
		<tag k="name" v="Langvannsbekken" />
		<tag k="ssr:stedsnr" v="282866" />
		<tag k="waterway" v="stream" />
	</node>
	<node id="-366279" lat="58.9905638916" lon="9.36868055813">
		<tag k="name" v="Dalenestranda" />
		<tag k="natural" v="bay" />
		<tag k="ssr:stedsnr" v="282810" />
	</node>
	<node id="-366263" lat="59.0423888866" lon="9.5151805479">
		<tag k="name" v="Rørholtdammen" />
		<tag k="natural" v="water" />
		<tag k="ssr:stedsnr" v="162807" />
	</node>
	<node id="-366262" lat="59.0443611139" lon="9.42401667527">
		<tag k="name" v="Lille Arnolds øy" />
		<tag k="place" v="island" />
		<tag k="ssr:stedsnr" v="162669" />
	</node>
	<node id="-366261" lat="59.0924305568" lon="9.51649166884">
		<tag k="name" v="Skarkebukta" />
		<tag k="natural" v="bay" />
		<tag k="ssr:stedsnr" v="162668" />
	</node>
	<node id="-366260" lat="59.0226055526" lon="9.51379999756">
		<tag k="name" v="Krokvannsøya" />
		<tag k="natural" v="cape" />
		<tag k="ssr:stedsnr" v="162612" />
	</node>
	<node id="-366258" lat="58.9944638879" lon="9.49240277084">
		<tag k="name" v="Lysvann" />
		<tag k="natural" v="water" />
		<tag k="ssr:stedsnr" v="162518" />
	</node>
	<node id="-366257" lat="59.0144111133" lon="9.57195556263">
		<tag k="name" v="Kjellemyrkilen" />
		<tag k="natural" v="bay" />
		<tag k="ssr:stedsnr" v="162426" />
	</node>
	<node id="-366254" lat="58.9719361108" lon="9.39082222357">
		<tag k="name" v="Masterødtjenna" />
		<tag k="natural" v="water" />
		<tag k="ssr:stedsnr" v="162068" />
	</node>
	<node id="-366253" lat="58.9717277806" lon="9.40378611194">
		<tag k="name" v="Stutaue" />
		<tag k="natural" v="water" />
		<tag k="ssr:stedsnr" v="162062" />
		<tag k="water" v="pond" />
	</node>
	<node id="-366252" lat="59.0483500016" lon="9.47095832975">
		<tag k="name" v="Lyngmyrtjenna" />
		<tag k="natural" v="water" />
		<tag k="ssr:stedsnr" v="162026" />
	</node>
	<node id="-366250" lat="59.0015694417" lon="9.38747221587">
		<tag k="name" v="Haretjenn" />
		<tag k="natural" v="water" />
		<tag k="ssr:stedsnr" v="160970" />
	</node>
	<node id="-366228" lat="59.0284472209" lon="9.47057499221">
		<tag k="name" v="Langtjenna" />
		<tag k="natural" v="water" />
		<tag k="ssr:stedsnr" v="102558" />
	</node>
	<node id="-366227" lat="59.0260305584" lon="9.47626111416">
		<tag k="name" v="Grytetjenn" />
		<tag k="natural" v="water" />
		<tag k="ssr:stedsnr" v="102542" />
	</node>
	<node id="-366225" lat="58.9577861133" lon="9.43745833058">
		<tag k="name" v="Bakkeøya" />
		<tag k="place" v="island" />
		<tag k="ssr:stedsnr" v="102503" />
	</node>
	<node id="-366221" lat="59.0130710305" lon="9.39757555111">
		<tag k="name" v="Småtjennane" />
		<tag k="natural" v="water" />
		<tag k="ssr:stedsnr" v="100019" />
	</node>
	<node id="-366211" lat="58.9648888927" lon="9.60374722294">
		<tag k="name" v="Haukedalsvannet" />
		<tag k="natural" v="water" />
		<tag k="old_name" v="Haukedalsvatnet" />
		<tag k="ssr:stedsnr" v="244883" />
		<tag k="water" v="lake" />
	</node>
	<node id="-366192" lat="59.0956805568" lon="9.50939166133">
		<tag k="name" v="Skarketjenn" />
		<tag k="natural" v="water" />
		<tag k="ssr:stedsnr" v="240573" />
	</node>
	<node id="-366190" lat="59.080305552" lon="9.52020832625">
		<tag k="name" v="Tjærebrennerbukta" />
		<tag k="natural" v="bay" />
		<tag k="ssr:stedsnr" v="240445" />
	</node>
	<node id="-366173" lat="59.0174027771" lon="9.73033889319">
		<tag k="name" v="Skaugdammen" />
		<tag k="natural" v="water" />
		<tag k="ssr:stedsnr" v="235749" />
	</node>
	<node id="-366171" lat="58.9873749999" lon="9.39798611802">
		<tag k="name" v="Fiskerodden" />
		<tag k="natural" v="cape" />
		<tag k="ssr:stedsnr" v="41703" />
	</node>
	<node id="-366170" lat="58.9413416647" lon="9.50696944456">
		<tag k="name" v="Grimsrødtjenn" />
		<tag k="natural" v="water" />
		<tag k="ssr:stedsnr" v="41855" />
	</node>
	<node id="-366168" lat="58.9839888847" lon="9.53158611739">
		<tag k="name" v="Pettershøl" />
		<tag k="natural" v="bay" />
		<tag k="ssr:stedsnr" v="41673" />
	</node>
	<node id="-366167" lat="58.9457277764" lon="9.42637222457">
		<tag k="name" v="Lindrostjenn" />
		<tag k="natural" v="water" />
		<tag k="ssr:stedsnr" v="41406" />
	</node>
	<node id="-366161" lat="59.0203916685" lon="9.44481388959">
		<tag k="name" v="Sanden" />
		<tag k="natural" v="beach" />
		<tag k="ssr:stedsnr" v="40462" />
	</node>
	<node id="-366151" lat="58.9949222265" lon="9.3705444488">
		<tag k="name" v="Lakåsbukta" />
		<tag k="natural" v="bay" />
		<tag k="ssr:stedsnr" v="39822" />
	</node>
	<node id="-366150" lat="59.0002777791" lon="9.36511111149">
		<tag k="name" v="Holsundøyane" />
		<tag k="place" v="islet" />
		<tag k="ssr:stedsnr" v="39816" />
	</node>
	<node id="-366146" lat="58.948283329" lon="9.46648333947">
		<tag k="name" v="Svenstangen" />
		<tag k="natural" v="cape" />
		<tag k="ssr:stedsnr" v="39621" />
	</node>
	<node id="-366131" lat="58.9522083319" lon="9.52715000858">
		<tag k="name" v="Bjordamkilen" />
		<tag k="natural" v="bay" />
		<tag k="ssr:stedsnr" v="224000" />
	</node>
	<node id="-366128" lat="59.0355444423" lon="9.51340555365">
		<tag k="name" v="Lopptjenn" />
		<tag k="natural" v="water" />
		<tag k="ssr:stedsnr" v="223799" />
	</node>
	<node id="-366127" lat="58.9766777814" lon="9.54395277916">
		<tag k="name" v="Åsmunds vann" />
		<tag k="natural" v="water" />
		<tag k="ssr:stedsnr" v="223725" />
	</node>
	<node id="-366119" lat="58.9927333293" lon="9.50683889386">
		<tag k="name" v="Heivann" />
		<tag k="natural" v="water" />
		<tag k="ssr:stedsnr" v="223646" />
	</node>
	<node id="-366118" lat="58.9922555594" lon="9.45123889217">
		<tag k="name" v="Nedre Grunntjenn" />
		<tag k="natural" v="water" />
		<tag k="ssr:stedsnr" v="223524" />
	</node>
	<node id="-366109" lat="58.9794555584" lon="9.42216943764">
		<tag k="name" v="Vresttjenn" />
		<tag k="natural" v="water" />
		<tag k="ssr:stedsnr" v="223111" />
	</node>
	<node id="-366105" lat="59.0282111097" lon="9.41456110685">
		<tag k="name" v="Hundkilstranda" />
		<tag k="natural" v="bay" />
		<tag k="ssr:stedsnr" v="223056" />
	</node>
	<node id="-366099" lat="58.9653055512" lon="9.57255278035">
		<tag k="name" v="Ødegårdstjenna" />
		<tag k="natural" v="water" />
		<tag k="ssr:stedsnr" v="221886" />
	</node>
	<node id="-366096" lat="58.9964055573" lon="9.33277777773">
		<tag k="name" v="Lille Langkjerrtjenn" />
		<tag k="natural" v="water" />
		<tag k="ssr:stedsnr" v="221815" />
	</node>
	<node id="-366091" lat="58.9761999971" lon="9.58109721974">
		<tag k="name" v="Vissestadtjenna" />
		<tag k="natural" v="water" />
		<tag k="ssr:stedsnr" v="221400" />
	</node>
	<node id="-366086" lat="59.0374499956" lon="9.41008055392">
		<tag k="name" v="Moenstjenna" />
		<tag k="natural" v="water" />
		<tag k="ssr:stedsnr" v="221029" />
	</node>
	<node id="-368075" lat="58.976530853" lon="9.60039732044">
		<tag k="name" v="Glittumtjenna" />
		<tag k="natural" v="water" />
		<tag k="ssr:stedsnr" v="984374" />
	</node>
	<node id="-368051" lat="59.0911916636" lon="9.51133889534">
		<tag k="name" v="Midtbukta" />
		<tag k="natural" v="bay" />
		<tag k="ssr:stedsnr" v="968552" />
	</node>
	<node id="-368038" lat="58.94473611" lon="9.5163055493">
		<tag k="name" v="Grimsrødkilen" />
		<tag k="natural" v="bay" />
		<tag k="ssr:stedsnr" v="951979" />
	</node>
	<node id="-368037" lat="58.9575055517" lon="9.54044444716">
		<tag k="name" v="Fesettjenna, ytre" />
		<tag k="natural" v="water" />
		<tag k="ssr:stedsnr" v="951959" />
	</node>
	<node id="-368027" lat="58.9985472232" lon="9.59156110389">
		<tag k="name" v="Nedre Stemmen" />
		<tag k="natural" v="strait" />
		<tag k="ssr:stedsnr" v="951343" />
	</node>
	<node id="-368022" lat="59.001013891" lon="9.58800832638">
		<tag k="name" v="Høl" />
		<tag k="natural" v="water" />
		<tag k="ssr:stedsnr" v="951326" />
	</node>
	<node id="-368019" lat="58.9864500018" lon="9.48113611195">
		<tag k="name" v="Tråvannsdammen" />
		<tag k="ssr:stedsnr" v="950690" />
		<tag k="waterway" v="dam" />
	</node>
	<node id="-368001" lat="58.9846416653" lon="9.63043332597">
		<tag k="alt_name" v="Holtetjernet" />
		<tag k="name" v="Holtetjenna" />
		<tag k="natural" v="water" />
		<tag k="ssr:stedsnr" v="850611" />
	</node>
	<node id="-368000" lat="58.9888777781" lon="9.65010278574">
		<tag k="name" v="Åbyelva" />
		<tag k="ssr:stedsnr" v="850608" />
		<tag k="waterway" v="stream" />
	</node>
	<node id="-367995" lat="59.0969055551" lon="9.52946388846">
		<tag k="name" v="Kongens dam" />
		<tag k="ssr:stedsnr" v="847562" />
		<tag k="waterway" v="dam" />
	</node>
	<node id="-367988" lat="59.1127277779" lon="9.51716667065">
		<tag k="alt_name" v="Siljantjern;Siljantjenna;Siljantjernet" />
		<tag k="name" v="Siljantjenn" />
		<tag k="natural" v="water" />
		<tag k="ssr:stedsnr" v="851790" />
	</node>
	<node id="-367985" lat="59.0208833338" lon="9.40393333641">
		<tag k="alt_name" v="Leangen, nedre;Lelangen, nedre" />
		<tag k="name" v="Nedre Lelangen" />
		<tag k="natural" v="water" />
		<tag k="ssr:stedsnr" v="851645" />
	</node>
	<node id="-367976" lat="58.951058329" lon="9.5120972265">
		<tag k="name" v="Rønningtjenna" />
		<tag k="natural" v="water" />
		<tag k="ssr:stedsnr" v="830991" />
	</node>
	<node id="-367972" lat="58.9766777814" lon="9.54395277916">
		<tag k="name" v="Daletjenn" />
		<tag k="natural" v="water" />
		<tag k="ssr:stedsnr" v="830700" />
	</node>
	<node id="-367964" lat="59.0057416672" lon="9.47711666509">
		<tag k="name" v="Tiurleiktjenna" />
		<tag k="natural" v="water" />
		<tag k="ssr:stedsnr" v="830494" />
	</node>
	<node id="-367962" lat="59.0236861078" lon="9.45792222252">
		<tag k="name" v="Langetjenn" />
		<tag k="natural" v="water" />
		<tag k="ssr:stedsnr" v="830442" />
	</node>
	<node id="-367959" lat="58.9659944462" lon="9.48401944879">
		<tag k="name" v="Sprangfoss" />
		<tag k="natural" v="waterfall" />
		<tag k="ssr:stedsnr" v="830415" />
	</node>
	<node id="-367958" lat="58.9556777815" lon="9.42722776925">
		<tag k="alt_name" v="Stidalsbekken;Stidalsbekken" />
		<tag k="name" v="Eiesbekken" />
		<tag k="ssr:stedsnr" v="830383" />
		<tag k="waterway" v="stream" />
	</node>
	<node id="-367952" lat="59.0107444422" lon="9.40169721965">
		<tag k="name" v="Stutaua" />
		<tag k="natural" v="water" />
		<tag k="ssr:stedsnr" v="830220" />
		<tag k="water" v="pond" />
	</node>
	<node id="-367949" lat="59.0270138899" lon="9.40358888615">
		<tag k="name" v="Blekkhølen" />
		<tag k="place" v="locality" />
		<tag k="ssr:stedsnr" v="830185" />
	</node>
	<node id="-367944" lat="59.0449500032" lon="9.45963056405">
		<tag k="name" v="Nedre Fisketjenna" />
		<tag k="natural" v="water" />
		<tag k="ssr:stedsnr" v="830057" />
	</node>
	<node id="-367942" lat="59.0409527755" lon="9.49013333573">
		<tag k="name" v="Svarttjenn" />
		<tag k="natural" v="water" />
		<tag k="ssr:stedsnr" v="830012" />
	</node>
	<node id="-367935" lat="59.0431222182" lon="9.56215833121">
		<tag k="name" v="Svarttjenn" />
		<tag k="natural" v="water" />
		<tag k="ssr:stedsnr" v="828871" />
	</node>
	<node id="-367933" lat="58.939780557" lon="9.58041945251">
		<tag k="name" v="Vågstjenna" />
		<tag k="natural" v="water" />
		<tag k="ssr:stedsnr" v="828826" />
	</node>
	<node id="-367920" lat="59.0200666661" lon="9.42969167218">
		<tag k="name" v="Fjølbutjenna" />
		<tag k="natural" v="water" />
		<tag k="ssr:stedsnr" v="828006" />
	</node>
	<node id="-367908" lat="59.0640749957" lon="9.5285138951">
		<tag k="alt_name" v="Trættebekktjern" />
		<tag k="name" v="Trettebekktjennane" />
		<tag k="natural" v="water" />
		<tag k="ssr:stedsnr" v="790869" />
	</node>
	<node id="-367907" lat="59.0030000041" lon="9.31209167225">
		<tag k="alt_name" v="Heggtjern" />
		<tag k="name" v="Heggtjenn" />
		<tag k="natural" v="water" />
		<tag k="ssr:stedsnr" v="790713" />
	</node>
	<node id="-367898" lat="58.9563361076" lon="9.43798334053">
		<tag k="name" v="Bakkevannet" />
		<tag k="natural" v="water" />
		<tag k="ssr:stedsnr" v="790264" />
		<tag k="water" v="lake" />
	</node>
	<node id="-367894" lat="58.9917305593" lon="9.41370556358">
		<tag k="alt_name" v="Dammtjern" />
		<tag k="name" v="Damtjenn" />
		<tag k="natural" v="water" />
		<tag k="ssr:stedsnr" v="789345" />
	</node>
	<node id="-367893" lat="58.9803444427" lon="9.41864722516">
		<tag k="name" v="Bjorvann" />
		<tag k="natural" v="water" />
		<tag k="ssr:stedsnr" v="789332" />
	</node>
	<node id="-367892" lat="58.9857277764" lon="9.49803889637">
		<tag k="name" v="Gångetjørnane" />
		<tag k="natural" v="water" />
		<tag k="ssr:stedsnr" v="789330" />
	</node>
	<node id="-367871" lat="58.9893250027" lon="9.52179444303">
		<tag k="name" v="Svarttjenn" />
		<tag k="natural" v="water" />
		<tag k="ssr:stedsnr" v="769620" />
	</node>
	<node id="-367864" lat="59.0114555561" lon="9.58675278062">
		<tag k="name" v="Thorsdalkilen" />
		<tag k="natural" v="bay" />
		<tag k="ssr:stedsnr" v="769433" />
	</node>
	<node id="-367862" lat="59.0104555568" lon="9.5734388882">
		<tag k="name" v="Vallesundet" />
		<tag k="natural" v="strait" />
		<tag k="ssr:stedsnr" v="769430" />
	</node>
	<node id="-367857" lat="59.007475003" lon="9.5714916666">
		<tag k="name" v="Matøya" />
		<tag k="place" v="island" />
		<tag k="ssr:stedsnr" v="769384" />
	</node>
	<node id="-367856" lat="59.0053722233" lon="9.57663889202">
		<tag k="name" v="Bjønnøya" />
		<tag k="place" v="island" />
		<tag k="ssr:stedsnr" v="769380" />
	</node>
	<node id="-367853" lat="59.0074138899" lon="9.32021945035">
		<tag k="name" v="Holbekk" />
		<tag k="natural" v="bay" />
		<tag k="ssr:stedsnr" v="769145" />
	</node>
	<node id="-367852" lat="59.0007666689" lon="9.33040832537">
		<tag k="name" v="Blomtjennane" />
		<tag k="natural" v="water" />
		<tag k="ssr:stedsnr" v="769141" />
	</node>
	<node id="-367850" lat="59.0168777749" lon="9.46154166219">
		<tag k="name" v="Lille Hermannstjenn" />
		<tag k="natural" v="water" />
		<tag k="ssr:stedsnr" v="768432" />
	</node>
	<node id="-367842" lat="58.9899444469" lon="9.36728888446">
		<tag k="name" v="Tangodden" />
		<tag k="natural" v="cape" />
		<tag k="ssr:stedsnr" v="767825" />
	</node>
	<node id="-367822" lat="59.0203888846" lon="9.36246110325">
		<tag k="name" v="Bjortjenn" />
		<tag k="natural" v="water" />
		<tag k="ssr:stedsnr" v="767099" />
	</node>
	<node id="-367819" lat="59.0385166622" lon="9.56804444086">
		<tag k="name" v="Lille Søtholtvann" />
		<tag k="natural" v="water" />
		<tag k="ssr:stedsnr" v="753882" />
	</node>
	<node id="-367802" lat="58.9878749956" lon="9.51717222659">
		<tag k="name" v="Krokvannsputtane" />
		<tag k="natural" v="water" />
		<tag k="ssr:stedsnr" v="647628" />
		<tag k="water" v="pond" />
	</node>
	<node id="-367801" lat="58.9904694473" lon="9.53369722521">
		<tag k="name" v="Paddehølen" />
		<tag k="natural" v="water" />
		<tag k="ssr:stedsnr" v="647626" />
	</node>
	<node id="-367788" lat="58.971100003" lon="9.41273889434">
		<tag k="name" v="Svarttjenn" />
		<tag k="natural" v="water" />
		<tag k="ssr:stedsnr" v="647038" />
	</node>
	<node id="-367787" lat="59.0359388922" lon="9.45929722948">
		<tag k="name" v="Sopptjenn" />
		<tag k="natural" v="water" />
		<tag k="ssr:stedsnr" v="647014" />
	</node>
	<node id="-367775" lat="59.026636109" lon="9.37719443929">
		<tag k="name" v="Gåstjenn" />
		<tag k="natural" v="water" />
		<tag k="ssr:stedsnr" v="645093" />
	</node>
	<node id="-367774" lat="59.0166138898" lon="9.41889722788">
		<tag k="name" v="Bukktjenna" />
		<tag k="natural" v="water" />
		<tag k="ssr:stedsnr" v="645010" />
	</node>
	<node id="-367772" lat="59.0369861149" lon="9.68167777775">
		<tag k="name" v="Lomholmen" />
		<tag k="place" v="islet" />
		<tag k="ssr:stedsnr" v="644788" />
	</node>
	<node id="-367760" lat="59.0663750034" lon="9.50338610625">
		<tag k="alt_name" v="Eiklivannet" />
		<tag k="name" v="Store Eikelivann" />
		<tag k="natural" v="water" />
		<tag k="ssr:stedsnr" v="608872" />
	</node>
	<node id="-367758" lat="59.0868027773" lon="9.47658054682">
		<tag k="alt_name" v="Rundtjenn" />
		<tag k="name" v="Rundtjern" />
		<tag k="natural" v="water" />
		<tag k="ssr:stedsnr" v="608792" />
	</node>
	<node id="-367747" lat="58.9762305571" lon="9.40516945254">
		<tag k="alt_name" v="Tegldalstjerna" />
		<tag k="name" v="Tegdalsvann" />
		<tag k="natural" v="water" />
		<tag k="ssr:stedsnr" v="607351" />
		<tag k="water" v="lake" />
	</node>
	<node id="-367746" lat="58.9724777756" lon="9.42679722791">
		<tag k="name" v="Langvann" />
		<tag k="natural" v="water" />
		<tag k="ssr:stedsnr" v="607347" />
		<tag k="water" v="lake" />
	</node>
	<node id="-367741" lat="58.9480249977" lon="9.52460556219">
		<tag k="alt_name" v="Ringsjøen" />
		<tag k="name" v="Ringsjøvannet" />
		<tag k="natural" v="water" />
		<tag k="ssr:stedsnr" v="607317" />
		<tag k="water" v="lake" />
	</node>
	<node id="-367740" lat="58.989994448" lon="9.34503889712">
		<tag k="name" v="Storfiskvann" />
		<tag k="natural" v="water" />
		<tag k="ssr:stedsnr" v="607380" />
		<tag k="water" v="lake" />
	</node>
	<node id="-367733" lat="59.1003888901" lon="9.54656110714">
		<tag k="name" v="Gyteelva" />
		<tag k="ssr:stedsnr" v="603527" />
		<tag k="waterway" v="river" />
	</node>
	<node id="-367731" lat="59.0805972227" lon="9.49343054904">
		<tag k="name" v="Asenhue" />
		<tag k="natural" v="cape" />
		<tag k="ssr:stedsnr" v="603520" />
	</node>
	<node id="-367721" lat="58.9506361075" lon="9.53349166841">
		<tag k="name" v="Ringsjøkilen" />
		<tag k="natural" v="bay" />
		<tag k="ssr:stedsnr" v="588000" />
	</node>
	<node id="-367717" lat="59.025472221" lon="9.46248889081">
		<tag k="name" v="Gurmtjennane" />
		<tag k="natural" v="water" />
		<tag k="ssr:stedsnr" v="587487" />
	</node>
	<node id="-367715" lat="59.0021222215" lon="9.32693055894">
		<tag k="name" v="Langkjerrtjenna" />
		<tag k="natural" v="water" />
		<tag k="ssr:stedsnr" v="587172" />
	</node>
	<node id="-367707" lat="59.0039972185" lon="9.51444443639">
		<tag k="name" v="Nybutjenn" />
		<tag k="natural" v="water" />
		<tag k="ssr:stedsnr" v="586615" />
	</node>
	<node id="-367700" lat="59.0626472231" lon="9.51173055433">
		<tag k="name" v="Vasketjenn" />
		<tag k="natural" v="water" />
		<tag k="ssr:stedsnr" v="586241" />
	</node>
	<node id="-367698" lat="58.9961611146" lon="9.56076666927">
		<tag k="name" v="Løken" />
		<tag k="natural" v="strait" />
		<tag k="ssr:stedsnr" v="586343" />
	</node>
	<node id="-367697" lat="59.0440861137" lon="9.49639999613">
		<tag k="name" v="Lille Sikletjenn" />
		<tag k="natural" v="water" />
		<tag k="ssr:stedsnr" v="586031" />
	</node>
	<node id="-367695" lat="59.0095083343" lon="9.41478611095">
		<tag k="name" v="Damtjenn, midtre" />
		<tag k="natural" v="water" />
		<tag k="ssr:stedsnr" v="585966" />
	</node>
	<node id="-367689" lat="58.9888138899" lon="9.36727222104">
		<tag k="name" v="Nedre Kil" />
		<tag k="natural" v="bay" />
		<tag k="ssr:stedsnr" v="585793" />
	</node>
	<node id="-367688" lat="58.9960944408" lon="9.37577777167">
		<tag k="name" v="Lille Toke" />
		<tag k="natural" v="water" />
		<tag k="ssr:stedsnr" v="585784" />
	</node>
	<node id="-367675" lat="59.047111115" lon="9.59609721606">
		<tag k="name" v="Trytetjenn" />
		<tag k="natural" v="water" />
		<tag k="ssr:stedsnr" v="570888" />
	</node>
	<node id="-367673" lat="59.0663499964" lon="9.51206666267">
		<tag k="alt_name" v="Skaretjenn" />
		<tag k="name" v="Skarktjern" />
		<tag k="natural" v="water" />
		<tag k="ssr:stedsnr" v="548840" />
	</node>
	<node id="-367672" lat="59.0323833326" lon="9.68418889542">
		<tag k="name" v="Stokkevannet" />
		<tag k="natural" v="water" />
		<tag k="old_name" v="Stokkevatnet" />
		<tag k="ssr:stedsnr" v="548491" />
	</node>
	<node id="-367668" lat="59.0837527785" lon="9.54961667353">
		<tag k="alt_name" v="Stulstjern" />
		<tag k="name" v="Stulstjenn" />
		<tag k="natural" v="water" />
		<tag k="ssr:stedsnr" v="547888" />
	</node>
	<node id="-367667" lat="59.0208936117" lon="9.3907773889">
		<tag k="alt_name" v="Leangen, øvre;Lelangen, øvre" />
		<tag k="name" v="Øvre Lelangen" />
		<tag k="natural" v="water" />
		<tag k="ssr:stedsnr" v="547690" />
	</node>
	<node id="-367659" lat="58.9588219145" lon="9.38567624842">
		<tag k="alt_name" v="Tortjern" />
		<tag k="name" v="Tortjenn" />
		<tag k="natural" v="water" />
		<tag k="ssr:stedsnr" v="547314" />
	</node>
	<node id="-367656" lat="58.9385250032" lon="9.40517499571">
		<tag k="name" v="Hullvann" />
		<tag k="natural" v="water" />
		<tag k="ssr:stedsnr" v="547288" />
		<tag k="water" v="lake" />
	</node>
	<node id="-367648" lat="59.0959055599" lon="9.52063888951">
		<tag k="name" v="Svarttjennbukta" />
		<tag k="natural" v="bay" />
		<tag k="ssr:stedsnr" v="543535" />
	</node>
	<node id="-367625" lat="59.0645194409" lon="9.48374165841">
		<tag k="name" v="Svartebukta" />
		<tag k="natural" v="bay" />
		<tag k="ssr:stedsnr" v="526502" />
	</node>
	<node id="-367623" lat="59.0085777741" lon="9.47076666342">
		<tag k="name" v="Svartputt" />
		<tag k="natural" v="water" />
		<tag k="ssr:stedsnr" v="526496" />
	</node>
	<node id="-367622" lat="59.0595527739" lon="9.47319444764">
		<tag k="name" v="Lilløy" />
		<tag k="place" v="island" />
		<tag k="ssr:stedsnr" v="526484" />
	</node>
	<node id="-367621" lat="58.98865" lon="9.47683888306">
		<tag k="name" v="Trytetjenna" />
		<tag k="natural" v="water" />
		<tag k="ssr:stedsnr" v="526475" />
	</node>
	<node id="-367616" lat="58.986454102" lon="9.4654854798">
		<tag k="name" v="Lamyrtjennane" />
		<tag k="natural" v="water" />
		<tag k="ssr:stedsnr" v="525701" />
	</node>
	<node id="-367611" lat="59.0485416638" lon="9.66619999256">
		<tag k="name" v="Skjerre" />
		<tag k="place" v="islet" />
		<tag k="ssr:stedsnr" v="524750" />
	</node>
	<node id="-367604" lat="59.0321583319" lon="9.59475555574">
		<tag k="name" v="Svarttjenn" />
		<tag k="natural" v="water" />
		<tag k="ssr:stedsnr" v="524856" />
	</node>
	<node id="-367600" lat="58.9888888913" lon="9.43151388593">
		<tag k="name" v="Søledalstjenn, nedre" />
		<tag k="natural" v="water" />
		<tag k="ssr:stedsnr" v="524601" />
	</node>
	<node id="-367598" lat="59.0470722225" lon="9.39435555315">
		<tag k="name" v="Svartflaukilen" />
		<tag k="natural" v="bay" />
		<tag k="ssr:stedsnr" v="524029" />
	</node>
	<node id="-367597" lat="59.0323972212" lon="9.37285000338">
		<tag k="name" v="Eietjenna" />
		<tag k="natural" v="water" />
		<tag k="ssr:stedsnr" v="524027" />
	</node>
	<node id="-367589" lat="59.0440861137" lon="9.49017776937">
		<tag k="name" v="Sikletjerna" />
		<tag k="natural" v="water" />
		<tag k="ssr:stedsnr" v="426849" />
	</node>
	<node id="-367587" lat="59.0398111145" lon="9.43733334023">
		<tag k="name" v="Helviksøy" />
		<tag k="place" v="islet" />
		<tag k="ssr:stedsnr" v="426826" />
	</node>
	<node id="-367584" lat="59.0171004002" lon="9.48804854978">
		<tag k="alt_name" v="Storfiskvann" />
		<tag k="name" v="Storfiskevannet" />
		<tag k="natural" v="water" />
		<tag k="ssr:stedsnr" v="426685" />
		<tag k="water" v="lake" />
	</node>
	<node id="-367583" lat="59.0126552445" lon="9.38890345836">
		<tag k="name" v="Svarttjern" />
		<tag k="natural" v="water" />
		<tag k="ssr:stedsnr" v="426682" />
	</node>
	<node id="-367579" lat="58.9710999975" lon="9.45283611114">
		<tag k="alt_name" v="Grasdalstjerna" />
		<tag k="name" v="Grasdalstjenn" />
		<tag k="natural" v="water" />
		<tag k="ssr:stedsnr" v="426326" />
	</node>
	<node id="-367575" lat="58.9646197378" lon="9.49779474953">
		<tag k="name" v="Isvann" />
		<tag k="natural" v="water" />
		<tag k="ssr:stedsnr" v="426291" />
	</node>
	<node id="-367566" lat="59.0851972178" lon="9.52548334063">
		<tag k="name" v="Ravnesbukta" />
		<tag k="natural" v="bay" />
		<tag k="ssr:stedsnr" v="422522" />
	</node>
	<node id="-367548" lat="58.9617222255" lon="9.5427750043">
		<tag k="name" v="Fesettjenna, indre" />
		<tag k="natural" v="water" />
		<tag k="ssr:stedsnr" v="405929" />
	</node>
	<node id="-367545" lat="58.9631472261" lon="9.40113610862">
		<tag k="name" v="Masterødtjenn, øvre" />
		<tag k="natural" v="water" />
		<tag k="ssr:stedsnr" v="405441" />
	</node>
	<node id="-367541" lat="58.982000002" lon="9.38845278167">
		<tag k="name" v="Øygårdstjenna" />
		<tag k="natural" v="water" />
		<tag k="ssr:stedsnr" v="405347" />
	</node>
	<node id="-367534" lat="59.0559611093" lon="9.47539722224">
		<tag k="name" v="Bjønnemyrbukta" />
		<tag k="natural" v="bay" />
		<tag k="ssr:stedsnr" v="404447" />
	</node>
	<node id="-367533" lat="59.0154555532" lon="9.46764167446">
		<tag k="name" v="Hermannstjenn" />
		<tag k="natural" v="water" />
		<tag k="ssr:stedsnr" v="404038" />
	</node>
	<node id="-367519" lat="59.0404527751" lon="9.5742972221">
		<tag k="name" v="Store Søtholtvann" />
		<tag k="natural" v="water" />
		<tag k="ssr:stedsnr" v="389881" />
	</node>
	<node id="-367518" lat="59.0181194432" lon="9.61868889227">
		<tag k="alt_name" v="Lillehønstjerna" />
		<tag k="name" v="Lille Høenstjenna" />
		<tag k="natural" v="water" />
		<tag k="ssr:stedsnr" v="388997" />
	</node>
	<node id="-367506" lat="59.0556027774" lon="9.54097222813">
		<tag k="name" v="Nenset-Heivann" />
		<tag k="natural" v="water" />
		<tag k="ssr:stedsnr" v="365874" />
	</node>
	<node id="-367505" lat="59.0583361087" lon="9.55353055683">
		<tag k="name" v="Bjorvann" />
		<tag k="natural" v="water" />
		<tag k="ssr:stedsnr" v="365873" />
	</node>
	<node id="-367504" lat="59.0482342804" lon="9.45920154904">
		<tag k="alt_name" v="Igletjern" />
		<tag k="name" v="Igletjenna" />
		<tag k="natural" v="water" />
		<tag k="ssr:stedsnr" v="365854" />
	</node>
	<node id="-367503" lat="59.0335499992" lon="9.3780750041">
		<tag k="name" v="Langsenden" />
		<tag k="natural" v="bay" />
		<tag k="ssr:stedsnr" v="365839" />
	</node>
	<node id="-367502" lat="59.1002638849" lon="9.50883889654">
		<tag k="alt_name" v="Svarttjern" />
		<tag k="name" v="Svarttjenn" />
		<tag k="natural" v="water" />
		<tag k="ssr:stedsnr" v="365800" />
	</node>
	<node id="-367499" lat="59.0117519651" lon="9.46501413179">
		<tag k="name" v="Krokvann" />
		<tag k="natural" v="water" />
		<tag k="ssr:stedsnr" v="365692" />
	</node>
	<node id="-367496" lat="59.0092085673" lon="9.56679716927">
		<tag k="name" v="Bamlevann" />
		<tag k="natural" v="water" />
		<tag k="ssr:stedsnr" v="365681" />
		<tag k="water" v="lake" />
	</node>
	<node id="-367480" lat="58.991213889" lon="9.6187527797">
		<tag k="name" v="Kverndammen" />
		<tag k="natural" v="water" />
		<tag k="ssr:stedsnr" v="364577" />
	</node>
	<node id="-367479" lat="58.9936305549" lon="9.34117499545">
		<tag k="name" v="Holmvann" />
		<tag k="natural" v="water" />
		<tag k="ssr:stedsnr" v="364376" />
	</node>
	<node id="-367478" lat="58.9853388921" lon="9.53115555714">
		<tag k="name" v="Østre Engvann" />
		<tag k="natural" v="water" />
		<tag k="ssr:stedsnr" v="364316" />
		<tag k="water" v="lake" />
	</node>
	<node id="-367470" lat="59.079480556" lon="9.51172222874">
		<tag k="name" v="Herreseterbukta" />
		<tag k="natural" v="bay" />
		<tag k="ssr:stedsnr" v="361449" />
	</node>
	<node id="-367462" lat="59.0158055582" lon="9.72863333525">
		<tag k="name" v="Nedre dam" />
		<tag k="natural" v="water" />
		<tag k="ssr:stedsnr" v="356723" />
	</node>
	<node id="-367454" lat="59.047125" lon="9.42643333676">
		<tag k="name" v="Store Arnolds øy" />
		<tag k="place" v="island" />
		<tag k="ssr:stedsnr" v="344651" />
	</node>
	<node id="-367452" lat="59.0184722192" lon="9.53053610846">
		<tag k="name" v="Lomtjenn" />
		<tag k="natural" v="water" />
		<tag k="ssr:stedsnr" v="344627" />
	</node>
	<node id="-367445" lat="59.0550416687" lon="9.48652500168">
		<tag k="name" v="Apalbukta" />
		<tag k="natural" v="bay" />
		<tag k="ssr:stedsnr" v="344423" />
	</node>
	<node id="-367442" lat="59.0112055553" lon="9.45262499857">
		<tag k="name" v="Store Elgtjenn" />
		<tag k="natural" v="water" />
		<tag k="ssr:stedsnr" v="344031" />
	</node>
	<node id="-367439" lat="59.0882055591" lon="9.56457223072">
		<tag k="name" v="Heitjenn" />
		<tag k="natural" v="water" />
		<tag k="ssr:stedsnr" v="342910" />
	</node>
	<node id="-367427" lat="58.9592888885" lon="9.60768334034">
		<tag k="name" v="Lona" />
		<tag k="natural" v="water" />
		<tag k="ssr:stedsnr" v="342382" />
		<tag k="water" v="lake" />
	</node>
	<node id="-367420" lat="59.0362055548" lon="9.41629722178">
		<tag k="name" v="Lille Hundkiltjenna" />
		<tag k="natural" v="water" />
		<tag k="ssr:stedsnr" v="342082" />
	</node>
	<node id="-367418" lat="59.0304194461" lon="9.58767499684">
		<tag k="name" v="Krokvann" />
		<tag k="natural" v="water" />
		<tag k="ssr:stedsnr" v="341927" />
	</node>
	<node id="-367412" lat="59.039994445" lon="9.556702781">
		<tag k="name" v="Angerstjenn" />
		<tag k="natural" v="water" />
		<tag k="ssr:stedsnr" v="307894" />
	</node>
	<node id="-367410" lat="59.0791250026" lon="9.53633333399">
		<tag k="name" v="Homme" />
		<tag k="natural" v="water" />
		<tag k="ssr:stedsnr" v="305873" />
	</node>
	<node id="-367407" lat="59.0240916704" lon="9.41403611287">
		<tag k="name" v="Steinsvann" />
		<tag k="natural" v="water" />
		<tag k="ssr:stedsnr" v="305685" />
	</node>
	<node id="-367406" lat="59.0180249969" lon="9.44437222456">
		<tag k="name" v="Fjølbuvannet" />
		<tag k="natural" v="water" />
		<tag k="ssr:stedsnr" v="305684" />
		<tag k="water" v="lake" />
	</node>
	<node id="-367394" lat="59.0446527791" lon="9.46022500591">
		<tag k="name" v="Fisketjerna" />
		<tag k="natural" v="water" />
		<tag k="ssr:stedsnr" v="304857" />
	</node>
	<node id="-367362" lat="59.0096897992" lon="9.41503009612">
		<tag k="name" v="Damtjerna" />
		<tag k="natural" v="water" />
		<tag k="ssr:stedsnr" v="183676" />
	</node>
	<node id="-367361" lat="59.015375001" lon="9.46857500481">
		<tag k="name" v="Hermannstjerna" />
		<tag k="natural" v="water" />
		<tag k="ssr:stedsnr" v="183657" />
	</node>
	<node id="-367358" lat="59.0881694446" lon="9.50347777826">
		<tag k="name" v="Bjørkebukta" />
		<tag k="natural" v="bay" />
		<tag k="ssr:stedsnr" v="300485" />
	</node>
	<node id="-367352" lat="58.9933222179" lon="9.56124444752">
		<tag k="name" v="Skogstadvannet" />
		<tag k="natural" v="water" />
		<tag k="ssr:stedsnr" v="183301" />
	</node>
	<node id="-367351" lat="58.9857833325" lon="9.39969999912">
		<tag k="name" v="Mosvannet" />
		<tag k="natural" v="water" />
		<tag k="ssr:stedsnr" v="183294" />
		<tag k="water" v="lake" />
	</node>
	<node id="-367334" lat="59.0977027818" lon="9.49951388432">
		<tag k="name" v="Øvre Midtbukttjenn" />
		<tag k="natural" v="water" />
		<tag k="ssr:stedsnr" v="300534" />
	</node>
	<node id="-367317" lat="59.0153111093" lon="9.50384721794">
		<tag k="name" v="Bamlekilen" />
		<tag k="natural" v="bay" />
		<tag k="ssr:stedsnr" v="162637" />
	</node>
	<node id="-367313" lat="58.9663527749" lon="9.39086943712">
		<tag k="name" v="Jensestjenn" />
		<tag k="natural" v="water" />
		<tag k="ssr:stedsnr" v="162435" />
		<tag k="water" v="pond" />
	</node>
	<node id="-367311" lat="58.9984111128" lon="9.55532777989">
		<tag k="name" v="Nedre Skogstadvann" />
		<tag k="natural" v="water" />
		<tag k="ssr:stedsnr" v="162392" />
	</node>
	<node id="-367309" lat="58.9923833315" lon="9.56049999935">
		<tag k="name" v="Øvre Skogstadvann" />
		<tag k="natural" v="water" />
		<tag k="ssr:stedsnr" v="162336" />
	</node>
	<node id="-367306" lat="59.0603361086" lon="9.48176110464">
		<tag k="name" v="Sundøya" />
		<tag k="place" v="island" />
		<tag k="ssr:stedsnr" v="162489" />
	</node>
	<node id="-367304" lat="59.0687499965" lon="9.5385361188">
		<tag k="name" v="Haretjenn" />
		<tag k="natural" v="water" />
		<tag k="ssr:stedsnr" v="162233" />
	</node>
	<node id="-367301" lat="59.0289444471" lon="9.40697222767">
		<tag k="name" v="Blanktjenna" />
		<tag k="natural" v="water" />
		<tag k="ssr:stedsnr" v="162033" />
	</node>
	<node id="-367296" lat="59.0449083303" lon="9.66594444363">
		<tag k="name" v="Dammene" />
		<tag k="natural" v="water" />
		<tag k="ssr:stedsnr" v="160750" />
	</node>
	<node id="-367291" lat="58.9913222253" lon="9.35125277053">
		<tag k="name" v="Åslandtjenna" />
		<tag k="natural" v="water" />
		<tag k="ssr:stedsnr" v="160804" />
	</node>
	<node id="-367288" lat="58.9588583312" lon="9.60186111216">
		<tag k="name" v="Smallången" />
		<tag k="natural" v="bay" />
		<tag k="ssr:stedsnr" v="160792" />
	</node>
	<node id="-367283" lat="59.0300833331" lon="9.36538333934">
		<tag k="name" v="Lianetjenn" />
		<tag k="natural" v="water" />
		<tag k="ssr:stedsnr" v="160080" />
	</node>
	<node id="-367280" lat="59.1238805553" lon="9.4701861168">
		<tag k="name" v="Bolvikelva" />
		<tag k="ssr:stedsnr" v="148249" />
		<tag k="waterway" v="river" />
	</node>
	<node id="-367276" lat="59.0780000019" lon="9.49653889247">
		<tag k="alt_name" v="Midtvann" />
		<tag k="name" v="Mevann" />
		<tag k="natural" v="water" />
		<tag k="ssr:stedsnr" v="123874" />
		<tag k="water" v="lake" />
	</node>
	<node id="-367275" lat="59.0661833344" lon="9.55576665871">
		<tag k="name" v="Svarstadvann" />
		<tag k="natural" v="water" />
		<tag k="ssr:stedsnr" v="123859" />
	</node>
	<node id="-367273" lat="59.0882777751" lon="9.50949999628">
		<tag k="alt_name" v="Hellestvedtvann" />
		<tag k="name" v="Hellestveitvann" />
		<tag k="natural" v="water" />
		<tag k="ssr:stedsnr" v="123778" />
		<tag k="water" v="lake" />
	</node>
	<node id="-367263" lat="59.0464111134" lon="9.53002500283">
		<tag k="alt_name" v="Øygardstjern" />
		<tag k="name" v="Øygardstjenna" />
		<tag k="natural" v="water" />
		<tag k="ssr:stedsnr" v="122827" />
	</node>
	<node id="-367262" lat="59.0296277819" lon="9.36576110456">
		<tag k="alt_name" v="Skardtjerna" />
		<tag k="name" v="Skaretjennane" />
		<tag k="natural" v="water" />
		<tag k="ssr:stedsnr" v="122814" />
	</node>
	<node id="-367257" lat="58.9927431012" lon="9.60395318877">
		<tag k="alt_name" v="Nysteintjernet" />
		<tag k="name" v="Nysteintjenna" />
		<tag k="natural" v="water" />
		<tag k="ssr:stedsnr" v="122556" />
	</node>
	<node id="-367256" lat="58.9906841116" lon="9.43315025529">
		<tag k="name" v="Saudalsvanna" />
		<tag k="natural" v="water" />
		<tag k="ssr:stedsnr" v="122340" />
	</node>
	<node id="-367255" lat="58.9913944443" lon="9.53094444752">
		<tag k="alt_name" v="Hesttjern" />
		<tag k="name" v="Hestetjenn" />
		<tag k="natural" v="water" />
		<tag k="ssr:stedsnr" v="122338" />
	</node>
	<node id="-367239" lat="59.0265166656" lon="9.70768333761">
		<tag k="name" v="Søndre Synken" />
		<tag k="natural" v="water" />
		<tag k="ssr:stedsnr" v="113865" />
	</node>
	<node id="-367226" lat="58.9655555576" lon="9.38453610645">
		<tag k="name" v="Kåstjenn" />
		<tag k="natural" v="water" />
		<tag k="ssr:stedsnr" v="102392" />
	</node>
	<node id="-367225" lat="58.985700002" lon="9.49772500329">
		<tag k="name" v="Nedre Gongetjenn" />
		<tag k="natural" v="water" />
		<tag k="ssr:stedsnr" v="102383" />
	</node>
	<node id="-367224" lat="59.0024416632" lon="9.30724166834">
		<tag k="name" v="Sandvannsbekken" />
		<tag k="ssr:stedsnr" v="102167" />
		<tag k="waterway" v="stream" />
	</node>
	<node id="-367222" lat="58.9832472215" lon="9.40146388934">
		<tag k="name" v="Beverodden" />
		<tag k="natural" v="cape" />
		<tag k="ssr:stedsnr" v="102118" />
	</node>
	<node id="-367220" lat="58.9683666696" lon="9.39831666141">
		<tag k="name" v="Byttingstjenn" />
		<tag k="natural" v="water" />
		<tag k="ssr:stedsnr" v="102040" />
	</node>
	<node id="-367207" lat="58.9999527811" lon="9.45415833944">
		<tag k="name" v="Øvre Grunntjenn" />
		<tag k="natural" v="water" />
		<tag k="ssr:stedsnr" v="101487" />
	</node>
	<node id="-367206" lat="59.0284472209" lon="9.47057499221">
		<tag k="name" v="Uletjenna" />
		<tag k="natural" v="water" />
		<tag k="ssr:stedsnr" v="101472" />
	</node>
	<node id="-367203" lat="59.0240138913" lon="9.44974721816">
		<tag k="name" v="Lommetjenn" />
		<tag k="natural" v="water" />
		<tag k="ssr:stedsnr" v="101447" />
	</node>
	<node id="-367195" lat="59.0142277786" lon="9.44869721418">
		<tag k="name" v="Elgtjenntangane" />
		<tag k="natural" v="cape" />
		<tag k="ssr:stedsnr" v="101035" />
	</node>
	<node id="-367194" lat="59.010333337" lon="9.44861389558">
		<tag k="name" v="Fjølbusundet" />
		<tag k="natural" v="strait" />
		<tag k="ssr:stedsnr" v="101026" />
	</node>
	<node id="-367187" lat="59.0017250019" lon="9.37327778546">
		<tag k="name" v="Rørholtstranda" />
		<tag k="natural" v="bay" />
		<tag k="ssr:stedsnr" v="100813" />
	</node>
	<node id="-367177" lat="59.0344611072" lon="9.3983388909">
		<tag k="name" v="Svarttjenn" />
		<tag k="natural" v="water" />
		<tag k="ssr:stedsnr" v="99024" />
	</node>
	<node id="-367159" lat="59.06403333" lon="9.53761389405">
		<tag k="name" v="Ambervann" />
		<tag k="natural" v="water" />
		<tag k="ssr:stedsnr" v="62850" />
	</node>
	<node id="-367158" lat="59.0306416706" lon="9.47660833321">
		<tag k="alt_name" v="Langetjern" />
		<tag k="name" v="Langtjenn" />
		<tag k="natural" v="water" />
		<tag k="ssr:stedsnr" v="62831" />
	</node>
	<node id="-367148" lat="59.023555558" lon="9.59835277273">
		<tag k="name" v="Hønsbekken" />
		<tag k="old_name" v="Hønsdalsbekken" />
		<tag k="ssr:stedsnr" v="62264" />
		<tag k="waterway" v="stream" />
	</node>
	<node id="-367134" lat="58.9899277796" lon="9.48314722836">
		<tag k="name" v="Tråvann" />
		<tag k="natural" v="water" />
		<tag k="ssr:stedsnr" v="61317" />
		<tag k="water" v="lake" />
	</node>
	<node id="-367105" lat="58.9803694428" lon="9.52870277585">
		<tag k="name" v="Lille Hesttjenn" />
		<tag k="natural" v="water" />
		<tag k="ssr:stedsnr" v="41687" />
	</node>
	<node id="-367095" lat="59.0031361144" lon="9.58171389067">
		<tag k="name" v="Øvre Stemmen" />
		<tag k="natural" v="strait" />
		<tag k="ssr:stedsnr" v="41342" />
	</node>
	<node id="-367083" lat="59.0902363859" lon="9.58749703319">
		<tag k="name" v="Dammane" />
		<tag k="natural" v="water" />
		<tag k="ssr:stedsnr" v="39934" />
	</node>
	<node id="-367077" lat="59.0333694405" lon="9.5606055593">
		<tag k="name" v="Øvre Heivann" />
		<tag k="natural" v="water" />
		<tag k="ssr:stedsnr" v="39879" />
	</node>
	<node id="-367066" lat="59.0171222253" lon="9.34922500732">
		<tag k="name" v="Skarekilen" />
		<tag k="natural" v="bay" />
		<tag k="ssr:stedsnr" v="39093" />
	</node>
	<node id="-367065" lat="59.0335583356" lon="9.38988333093">
		<tag k="name" v="Ålekartjennkilen" />
		<tag k="natural" v="bay" />
		<tag k="ssr:stedsnr" v="39078" />
	</node>
	<node id="-367062" lat="58.9421694456" lon="9.41577500058">
		<tag k="name" v="Byttøya" />
		<tag k="place" v="islet" />
		<tag k="ssr:stedsnr" v="29502" />
	</node>
	<node id="-367055" lat="59.0627166676" lon="9.46240278528">
		<tag k="alt_name" v="Flåtevatn" />
		<tag k="name" v="Flåte" />
		<tag k="natural" v="water" />
		<tag k="ssr:stedsnr" v="2835" />
		<tag k="water" v="lake" />
	</node>
	<node id="-367054" lat="59.0607361119" lon="9.56100000387">
		<tag k="name" v="Snik" />
		<tag k="natural" v="water" />
		<tag k="ssr:stedsnr" v="2830" />
	</node>
	<node id="-367047" lat="59.0469777761" lon="9.42125555074">
		<tag k="alt_name" v="Rørholtlangen" />
		<tag k="name" v="Langen" />
		<tag k="natural" v="water" />
		<tag k="ssr:stedsnr" v="1836" />
		<tag k="water" v="lake" />
	</node>
	<node id="-367046" lat="59.0305472185" lon="9.39817221963">
		<tag k="alt_name" v="Ålekartjenna" />
		<tag k="name" v="Ålekartjern" />
		<tag k="natural" v="water" />
		<tag k="ssr:stedsnr" v="1827" />
	</node>
	<node id="-367043" lat="59.0051971498" lon="9.44302819066">
		<tag k="alt_name" v="Lønnrøkkvannet" />
		<tag k="name" v="Lønnrikvannet" />
		<tag k="natural" v="water" />
		<tag k="ssr:stedsnr" v="1679" />
	</node>
	<node id="-367042" lat="59.0009472188" lon="9.30276389055">
		<tag k="name" v="Sandvann" />
		<tag k="natural" v="water" />
		<tag k="ssr:stedsnr" v="1677" />
		<tag k="water" v="lake" />
	</node>
	<node id="-367036" lat="59.0547222239" lon="9.59368055392">
		<tag k="name" v="Bergsvannet" />
		<tag k="natural" v="water" />
		<tag k="old_name" v="Bergsvatn" />
		<tag k="ssr:stedsnr" v="1455" />
	</node>
	<node id="-367031" lat="58.9368055512" lon="9.43843889543">
		<tag k="alt_name" v="Skjersjøen" />
		<tag k="name" v="Skjærsjø" />
		<tag k="natural" v="water" />
		<tag k="ssr:stedsnr" v="1270" />
		<tag k="water" v="lake" />
	</node>
	<node id="-367006" lat="59.0463416676" lon="9.50879166176">
		<tag k="name" v="Nensetsteane" />
		<tag k="natural" v="bay" />
		<tag k="ssr:stedsnr" v="951805" />
	</node>
	<node id="-367000" lat="58.9825472221" lon="9.4103472171">
		<tag k="name" v="Rødlandtjenn" />
		<tag k="natural" v="water" />
		<tag k="ssr:stedsnr" v="951112" />
		<tag k="water" v="pond" />
	</node>
	<node id="-366999" lat="59.0443444475" lon="9.49018888953">
		<tag k="name" v="Store Sikletjenn" />
		<tag k="natural" v="water" />
		<tag k="ssr:stedsnr" v="951047" />
	</node>
	<node id="-366998" lat="59.0473694462" lon="9.47432500273">
		<tag k="name" v="Tørrfisktjenna" />
		<tag k="natural" v="water" />
		<tag k="ssr:stedsnr" v="951032" />
	</node>
	<node id="-366997" lat="59.0364055546" lon="9.4681083364">
		<tag k="name" v="Guleråstjenna" />
		<tag k="natural" v="water" />
		<tag k="ssr:stedsnr" v="951016" />
	</node>
	<node id="-366996" lat="59.0309083337" lon="9.55756110578">
		<tag k="name" v="Nedre Heivann" />
		<tag k="natural" v="water" />
		<tag k="ssr:stedsnr" v="949867" />
	</node>
	<node id="-366981" lat="58.9688916644" lon="9.51869722319">
		<tag k="alt_name" v="Åsmundsvann" />
		<tag k="name" v="Osmundsvann" />
		<tag k="natural" v="water" />
		<tag k="ssr:stedsnr" v="911312" />
	</node>
	<node id="-366962" lat="59.0036777786" lon="9.41774444604">
		<tag k="name" v="Purktjenn" />
		<tag k="natural" v="water" />
		<tag k="ssr:stedsnr" v="949961" />
	</node>
	<node id="-366961" lat="58.996952776" lon="9.36889721802">
		<tag k="name" v="Lilløy" />
		<tag k="place" v="island" />
		<tag k="ssr:stedsnr" v="949828" />
	</node>
	<node id="-366960" lat="58.9973833341" lon="9.35003055804">
		<tag k="name" v="Åslandbukta" />
		<tag k="natural" v="bay" />
		<tag k="ssr:stedsnr" v="949820" />
	</node>
	<node id="-366953" lat="59.0164194472" lon="9.34453888721">
		<tag k="name" v="Skareodden" />
		<tag k="natural" v="cape" />
		<tag k="ssr:stedsnr" v="949095" />
	</node>
	<node id="-366952" lat="59.0357694453" lon="9.44070556266">
		<tag k="name" v="Hundkilbukta" />
		<tag k="natural" v="bay" />
		<tag k="ssr:stedsnr" v="949094" />
	</node>
	<node id="-366941" lat="59.0048277812" lon="9.46422500208">
		<tag k="name" v="Diplane" />
		<tag k="place" v="locality" />
		<tag k="ssr:stedsnr" v="851670" />
	</node>
	<node id="-366933" lat="59.0265166656" lon="9.70768333761">
		<tag k="name" v="Synken" />
		<tag k="natural" v="water" />
		<tag k="ssr:stedsnr" v="934990" />
	</node>
	<node id="-366917" lat="58.9873999995" lon="9.50273610393">
		<tag k="name" v="Øvre Gongetjenn" />
		<tag k="natural" v="water" />
		<tag k="ssr:stedsnr" v="769679" />
	</node>
	<node id="-366913" lat="59.043761111" lon="9.4491750053">
		<tag k="name" v="Nedre Åletjenna" />
		<tag k="natural" v="water" />
		<tag k="ssr:stedsnr" v="769057" />
	</node>
	<node id="-366909" lat="59.0634694443" lon="9.49643333585">
		<tag k="name" v="Lille Eiklivannet" />
		<tag k="natural" v="water" />
		<tag k="ssr:stedsnr" v="768464" />
		<tag k="water" v="lake" />
	</node>
	<node id="-366907" lat="59.057386114" lon="9.49707499732">
		<tag k="name" v="Hofsteinstranda" />
		<tag k="natural" v="beach" />
		<tag k="ssr:stedsnr" v="768454" />
	</node>
	<node id="-366903" lat="58.9458083366" lon="9.4845111176">
		<tag k="name" v="Bleikliakilen" />
		<tag k="natural" v="bay" />
		<tag k="ssr:stedsnr" v="767665" />
	</node>
	<node id="-366895" lat="59.0335749956" lon="9.48541389235">
		<tag k="alt_name" v="Bjørndalstjern" />
		<tag k="name" v="Bjønndalstjenna" />
		<tag k="natural" v="water" />
		<tag k="ssr:stedsnr" v="912829" />
	</node>
	<node id="-366894" lat="59.014275001" lon="9.3267194463">
		<tag k="name" v="Rørholtfjorden" />
		<tag k="natural" v="water" />
		<tag k="ssr:stedsnr" v="912697" />
		<tag k="water" v="lake" />
	</node>
	<node id="-366887" lat="59.0850500036" lon="9.53578332555">
		<tag k="alt_name" v="Svarttjern" />
		<tag k="name" v="Svarttjenn" />
		<tag k="natural" v="water" />
		<tag k="ssr:stedsnr" v="912266" />
	</node>
	<node id="-366874" lat="58.9967638898" lon="9.59427500564">
		<tag k="name" v="Blekketjernet" />
		<tag k="natural" v="water" />
		<tag k="ssr:stedsnr" v="911590" />
	</node>
	<node id="-366872" lat="58.9763083302" lon="9.49334444853">
		<tag k="name" v="Vestre Engvann" />
		<tag k="natural" v="water" />
		<tag k="ssr:stedsnr" v="911348" />
		<tag k="water" v="lake" />
	</node>
	<node id="-366867" lat="59.0848944421" lon="9.51688889269">
		<tag k="name" v="Ravnestangen" />
		<tag k="natural" v="cape" />
		<tag k="ssr:stedsnr" v="908546" />
	</node>
	<node id="-366833" lat="58.9942722238" lon="9.50327222317">
		<tag k="name" v="Grauttjenn" />
		<tag k="natural" v="water" />
		<tag k="ssr:stedsnr" v="891632" />
	</node>
	<node id="-366829" lat="59.0569888878" lon="9.51717500579">
		<tag k="name" v="Trytetjenn" />
		<tag k="natural" v="water" />
		<tag k="ssr:stedsnr" v="891288" />
	</node>
	<node id="-366826" lat="58.9726472183" lon="9.42356389133">
		<tag k="name" v="Byttingsøy" />
		<tag k="place" v="island" />
		<tag k="ssr:stedsnr" v="891039" />
	</node>
	<node id="-366823" lat="59.0567805582" lon="9.47744722207">
		<tag k="name" v="Mikkelsbærøya" />
		<tag k="place" v="island" />
		<tag k="ssr:stedsnr" v="890499" />
	</node>
	<node id="-366822" lat="59.0298555531" lon="9.45586666701">
		<tag k="name" v="Fisketjenna" />
		<tag k="natural" v="water" />
		<tag k="ssr:stedsnr" v="890490" />
	</node>
	<node id="-366821" lat="59.0158666674" lon="9.4557638917">
		<tag k="name" v="Hermannskilen" />
		<tag k="natural" v="bay" />
		<tag k="ssr:stedsnr" v="890465" />
	</node>
	<node id="-366818" lat="59.0527944474" lon="9.49209722867">
		<tag k="name" v="Viksodden" />
		<tag k="natural" v="cape" />
		<tag k="ssr:stedsnr" v="890401" />
	</node>
	<node id="-366816" lat="59.0216666658" lon="9.55810000296">
		<tag k="name" v="Ålkarbukta" />
		<tag k="natural" v="bay" />
		<tag k="ssr:stedsnr" v="890341" />
	</node>
	<node id="-366814" lat="59.0394388887" lon="9.47890000797">
		<tag k="name" v="Lille Stutaue" />
		<tag k="natural" v="water" />
		<tag k="ssr:stedsnr" v="890008" />
		<tag k="water" v="pond" />
	</node>
	<node id="-366813" lat="59.0081527743" lon="9.40586944565">
		<tag k="name" v="Damtjenn" />
		<tag k="natural" v="water" />
		<tag k="ssr:stedsnr" v="889989" />
	</node>
	<node id="-366811" lat="59.0027194423" lon="9.3967805511">
		<tag k="name" v="Tratjenn" />
		<tag k="natural" v="water" />
		<tag k="ssr:stedsnr" v="889972" />
	</node>
	<node id="-366810" lat="59.0018749992" lon="9.42526110409">
		<tag k="name" v="Tiurleiktjenna" />
		<tag k="natural" v="water" />
		<tag k="ssr:stedsnr" v="889966" />
	</node>
	<node id="-366808" lat="58.9957472209" lon="9.4393611102">
		<tag k="name" v="Søledalstjenn, øvre" />
		<tag k="natural" v="water" />
		<tag k="ssr:stedsnr" v="889958" />
	</node>
	<node id="-366801" lat="58.9568861098" lon="9.59094722987">
		<tag k="name" v="Kiletjenna" />
		<tag k="natural" v="water" />
		<tag k="ssr:stedsnr" v="889871" />
	</node>
	<node id="-366797" lat="58.9918583303" lon="9.36372222736">
		<tag k="name" v="Nordstrand" />
		<tag k="natural" v="beach" />
		<tag k="ssr:stedsnr" v="889835" />
	</node>
	<node id="-366796" lat="58.9922972178" lon="9.36982499277">
		<tag k="name" v="Sløkebukta" />
		<tag k="natural" v="bay" />
		<tag k="ssr:stedsnr" v="889830" />
	</node>
	<node id="-366789" lat="58.9457777756" lon="9.47208611108">
		<tag k="name" v="Kattsund" />
		<tag k="natural" v="strait" />
		<tag k="ssr:stedsnr" v="889676" />
	</node>
	<node id="-366783" lat="58.9347722191" lon="9.41901110505">
		<tag k="name" v="Tyttebærodden" />
		<tag k="natural" v="cape" />
		<tag k="ssr:stedsnr" v="696953" />
	</node>
	<node id="-366764" lat="59.0895944443" lon="9.51540555178">
		<tag k="name" v="Skysskafferen" />
		<tag k="place" v="island" />
		<tag k="ssr:stedsnr" v="664460" />
	</node>
	<node id="-366759" lat="59.1082833355" lon="9.53448889291">
		<tag k="name" v="Siljanelva" />
		<tag k="ssr:stedsnr" v="654691" />
		<tag k="waterway" v="river" />
	</node>
	<node id="-366752" lat="59.0206833324" lon="9.49289443603">
		<tag k="name" v="Buttelstoe" />
		<tag k="natural" v="beach" />
		<tag k="ssr:stedsnr" v="647461" />
	</node>
	<node id="-366749" lat="59.040441666" lon="9.45220833863">
		<tag k="name" v="Fisketjennkilen" />
		<tag k="natural" v="bay" />
		<tag k="ssr:stedsnr" v="647065" />
	</node>
	<node id="-366748" lat="59.0272638933" lon="9.39100555184">
		<tag k="name" v="Bjønnbettjenna" />
		<tag k="natural" v="water" />
		<tag k="ssr:stedsnr" v="647057" />
	</node>
	<node id="-366744" lat="59.0350500023" lon="9.58989166045">
		<tag k="name" v="Krokvannsløken" />
		<tag k="natural" v="water" />
		<tag k="ssr:stedsnr" v="645873" />
		<tag k="water" v="lake" />
	</node>
	<node id="-366741" lat="59.0076194402" lon="9.55439166146">
		<tag k="alt_name" v="Kverntjern" />
		<tag k="name" v="Kverntjenna" />
		<tag k="natural" v="water" />
		<tag k="ssr:stedsnr" v="730725" />
	</node>
	<node id="-366740" lat="59.010716352" lon="9.45273389113">
		<tag k="name" v="Elgtjerna" />
		<tag k="natural" v="water" />
		<tag k="ssr:stedsnr" v="730723" />
	</node>
	<node id="-366732" lat="59.0286777781" lon="9.49983611713">
		<tag k="alt_name" v="Eikelitjern" />
		<tag k="name" v="Eiklivann" />
		<tag k="natural" v="water" />
		<tag k="ssr:stedsnr" v="729832" />
	</node>
	<node id="-366731" lat="59.0361611092" lon="9.58671944048">
		<tag k="name" v="Langvann" />
		<tag k="natural" v="water" />
		<tag k="ssr:stedsnr" v="729828" />
	</node>
	<node id="-366730" lat="59.0325583304" lon="9.56011943867">
		<tag k="name" v="Heivannet" />
		<tag k="natural" v="water" />
		<tag k="ssr:stedsnr" v="729691" />
	</node>
	<node id="-366729" lat="58.990406846" lon="9.46098126961">
		<tag k="alt_name" v="Oksetjern" />
		<tag k="name" v="Okstjenna" />
		<tag k="natural" v="water" />
		<tag k="ssr:stedsnr" v="729346" />
	</node>
	<node id="-366728" lat="58.9459388862" lon="9.46414999855">
		<tag k="name" v="Grummestadvannet" />
		<tag k="natural" v="water" />
		<tag k="ssr:stedsnr" v="729324" />
		<tag k="water" v="lake" />
	</node>
	<node id="-366718" lat="59.1181000002" lon="9.54606111974">
		<tag k="alt_name" v="Sibjørntjern;Sibjørntjernet" />
		<tag k="name" v="Sigbjørndammen" />
		<tag k="natural" v="water" />
		<tag k="ssr:stedsnr" v="725150" />
	</node>
	<node id="-366711" lat="59.0168249989" lon="9.72781944347">
		<tag k="name" v="Øvre dam" />
		<tag k="natural" v="water" />
		<tag k="ssr:stedsnr" v="721693" />
	</node>
	<node id="-366707" lat="59.0448693561" lon="9.56251093225">
		<tag k="name" v="Jonsvann" />
		<tag k="natural" v="water" />
		<tag k="ssr:stedsnr" v="607834" />
	</node>
	<node id="-366693" lat="59.0116722185" lon="9.42404166613">
		<tag k="name" v="Putten" />
		<tag k="natural" v="water" />
		<tag k="ssr:stedsnr" v="587275" />
	</node>
	<node id="-366691" lat="59.057349999" lon="9.4703888832">
		<tag k="name" v="Storøy" />
		<tag k="place" v="island" />
		<tag k="ssr:stedsnr" v="586475" />
	</node>
	<node id="-366688" lat="58.9901916624" lon="9.37633888644">
		<tag k="name" v="Lønnfjelltjenn" />
		<tag k="natural" v="water" />
		<tag k="ssr:stedsnr" v="585858" />
	</node>
	<node id="-366686" lat="58.9441916648" lon="9.47902221427">
		<tag k="name" v="Sagviktjenna" />
		<tag k="natural" v="bay" />
		<tag k="ssr:stedsnr" v="585658" />
	</node>
	<node id="-366673" lat="59.0009277749" lon="9.52859722016">
		<tag k="name" v="Puttane" />
		<tag k="natural" v="water" />
		<tag k="ssr:stedsnr" v="708617" />
		<tag k="water" v="pond" />
	</node>
	<node id="-366670" lat="58.9946333319" lon="9.45273888574">
		<tag k="name" v="Vestre-elva" />
		<tag k="ssr:stedsnr" v="708511" />
		<tag k="waterway" v="river" />
	</node>
	<node id="-366669" lat="59.0585111097" lon="9.45043332893">
		<tag k="name" v="Lundsbukta" />
		<tag k="natural" v="bay" />
		<tag k="ssr:stedsnr" v="708500" />
	</node>
	<node id="-366668" lat="59.0581305551" lon="9.49184999301">
		<tag k="name" v="Rønningstranda" />
		<tag k="natural" v="beach" />
		<tag k="ssr:stedsnr" v="708495" />
	</node>
	<node id="-366666" lat="58.9645611148" lon="9.42012500169">
		<tag k="name" v="Vitterselva" />
		<tag k="ssr:stedsnr" v="708433" />
		<tag k="waterway" v="river" />
	</node>
	<node id="-366664" lat="59.0552111079" lon="9.46760278312">
		<tag k="name" v="Ulabukta" />
		<tag k="natural" v="bay" />
		<tag k="ssr:stedsnr" v="708404" />
	</node>
	<node id="-366663" lat="58.9589416647" lon="9.43771945282">
		<tag k="name" v="Setersundet" />
		<tag k="natural" v="strait" />
		<tag k="ssr:stedsnr" v="708397" />
	</node>
	<node id="-366656" lat="59.0459638879" lon="9.46741388332">
		<tag k="name" v="Øvre Fisketjenna" />
		<tag k="natural" v="water" />
		<tag k="ssr:stedsnr" v="708078" />
	</node>
	<node id="-366654" lat="59.0378222231" lon="9.45109722508">
		<tag k="name" v="Sopptjennkilen" />
		<tag k="natural" v="bay" />
		<tag k="ssr:stedsnr" v="708068" />
	</node>
	<node id="-366649" lat="58.9938944452" lon="9.38034444846">
		<tag k="name" v="Nonsåstjenna" />
		<tag k="natural" v="water" />
		<tag k="ssr:stedsnr" v="707866" />
	</node>
	<node id="-366638" lat="59.004097221" lon="9.36319999665">
		<tag k="name" v="Breibukt" />
		<tag k="natural" v="bay" />
		<tag k="ssr:stedsnr" v="706836" />
	</node>
	<node id="-366637" lat="58.9994638919" lon="9.35762221586">
		<tag k="name" v="Storøy" />
		<tag k="place" v="island" />
		<tag k="ssr:stedsnr" v="706834" />
	</node>
	<node id="-366633" lat="58.9523166643" lon="9.45646111013">
		<tag k="name" v="Teksttjenn" />
		<tag k="natural" v="water" />
		<tag k="ssr:stedsnr" v="706650" />
	</node>
	<node id="-366620" lat="59.0026833295" lon="9.34831666539">
		<tag k="name" v="Storøyhue" />
		<tag k="place" v="island" />
		<tag k="ssr:stedsnr" v="526843" />
	</node>
</osm>
