<?xml version="1.0" encoding="UTF-8"?>
<osm generator="osmapis" version="0.6">
	<node id="-745600" lat="68.6659277749" lon="20.2028222116">
		<tag k="historic" v="boundary_stone" />
		<tag k="man_made" v="cairn" />
		<tag k="name" v="Ravdukiolmarøysa" />
		<tag k="old_name" v="Raudekiolma Røset" />
		<tag k="place" v="locality" />
		<tag k="ssr:stedsnr" v="595220" />
	</node>
	<node id="-745855" lat="68.9447777777" lon="20.2632249734">
		<tag k="historic" v="boundary_stone" />
		<tag k="man_made" v="cairn" />
		<tag k="name" v="Måskanvarrirøysa" />
		<tag k="old_name" v="Moskonwara Røset" />
		<tag k="place" v="locality" />
		<tag k="ssr:stedsnr" v="656760" />
	</node>
	<node id="-745725" lat="69.1692083343" lon="18.5385055609">
		<tag k="name" v="Lamoallmeningen" />
		<tag k="place" v="locality" />
		<tag k="ssr:stedsnr" v="597486" />
	</node>
	<node id="-745599" lat="68.7402694455" lon="20.2738388781">
		<tag k="historic" v="boundary_stone" />
		<tag k="man_made" v="cairn" />
		<tag k="name" v="Jerbelerøysa" />
		<tag k="old_name" v="Jierbele Røset" />
		<tag k="place" v="locality" />
		<tag k="ssr:stedsnr" v="595219" />
	</node>
	<node id="-746098" lat="69.0146777769" lon="19.5026583182">
		<tag k="alt_name" v="Almenningen" />
		<tag k="name" v="Allmenningen" />
		<tag k="place" v="locality" />
		<tag k="ssr:stedsnr" v="686387" />
	</node>
	<node id="-744689" lat="69.0457611098" lon="20.0600527525">
		<tag k="fixme" v="multiple name tags, choose one and add the other to alt_name" />
		<tag k="historic" v="boundary_stone" />
		<tag k="man_made" v="cairn" />
		<tag k="name" v="Sikkarøysa;Tiorro Kaitzarøysa" />
		<tag k="old_name" v="Tiorro Kaitza Røset" />
		<tag k="place" v="locality" />
		<tag k="ssr:stedsnr" v="231777" />
	</node>
	<node id="-745964" lat="69.1668916656" lon="18.2407833322">
		<tag k="name" v="Reinvassallmenningen" />
		<tag k="place" v="locality" />
		<tag k="ssr:stedsnr" v="658299" />
	</node>
	<node id="-745056" lat="69.1754222229" lon="18.4848111122">
		<tag k="name" v="Allmenningen" />
		<tag k="place" v="locality" />
		<tag k="ssr:stedsnr" v="415799" />
	</node>
	<node id="-746586" lat="69.0191666664" lon="19.3716527615">
		<tag k="fixme" v="specify shooting=range, clay_pigeon etc" />
		<tag k="leisure" v="pitch" />
		<tag k="name" v="Råvatn skytebane" />
		<tag k="sport" v="shooting" />
		<tag k="ssr:stedsnr" v="808399" />
	</node>
	<node id="-744333" lat="69.0065611134" lon="19.5475666518">
		<tag k="name" v="Allmenningen" />
		<tag k="place" v="locality" />
		<tag k="ssr:stedsnr" v="112757" />
	</node>
	<node id="-743242" lat="69.1467749984" lon="18.3138666559">
		<tag k="name" v="Reinvassallmenningen" />
		<tag k="place" v="locality" />
		<tag k="ssr:stedsnr" v="294245" />
	</node>
	<node id="-744263" lat="69.1607805546" lon="18.3376277656">
		<tag k="name" v="Reinvassallmeningen" />
		<tag k="place" v="locality" />
		<tag k="ssr:stedsnr" v="111839" />
	</node>
	<node id="-745027" lat="69.1629694403" lon="18.285400005">
		<tag k="name" v="Reinvassallmenningen" />
		<tag k="place" v="locality" />
		<tag k="ssr:stedsnr" v="415502" />
	</node>
	<node id="-745400" lat="69.1811777799" lon="18.344949992">
		<tag k="name" v="Reinvassallmenningen" />
		<tag k="place" v="locality" />
		<tag k="ssr:stedsnr" v="536723" />
	</node>
	<node id="-747185" lat="69.1925083288" lon="18.6836055573">
		<tag k="name" v="Allmenningsjordet" />
		<tag k="place" v="locality" />
		<tag k="ssr:stedsnr" v="961311" />
	</node>
	<node id="-744455" lat="68.6734055555" lon="20.0058555361">
		<tag k="fixme" v="consider boundary=protected_area and relevant protect_class if not nature reserve" />
		<tag k="leisure" v="nature_reserve" />
		<tag k="name" v="Øvre Dividal nasjonalpark" />
		<tag k="old_name" v="Øvre Dividal" />
		<tag k="ssr:stedsnr" v="146349" />
	</node>
	<node id="-747176" lat="69.1810333325" lon="18.2232472207">
		<tag k="name" v="Reinvassallmenningen" />
		<tag k="place" v="locality" />
		<tag k="ssr:stedsnr" v="961261" />
	</node>
	<node id="-745892" lat="69.1713111064" lon="18.4969611166">
		<tag k="name" v="Allmeningen" />
		<tag k="place" v="locality" />
		<tag k="ssr:stedsnr" v="657509" />
	</node>
	<node id="-746399" lat="69.1774444469" lon="18.2795611209">
		<tag k="name" v="Reinvassallmenningen" />
		<tag k="place" v="locality" />
		<tag k="ssr:stedsnr" v="779264" />
	</node>
	<node id="-743318" lat="68.7952361083" lon="19.8722694362">
		<tag k="alt_name" v="Dividal nasjonalpark, øvre" />
		<tag k="fixme" v="consider boundary=protected_area and relevant protect_class if not nature reserve" />
		<tag k="leisure" v="nature_reserve" />
		<tag k="name" v="Øvre Dividal nasjonalpark" />
		<tag k="ssr:stedsnr" v="321092" />
	</node>
	<node id="-745109" lat="69.0199527813" lon="19.4771166517">
		<tag k="name" v="Rosta-Allmenningen" />
		<tag k="place" v="locality" />
		<tag k="ssr:stedsnr" v="416817" />
	</node>
	<node id="-744463" lat="68.9261444458" lon="20.3067361006">
		<tag k="historic" v="boundary_stone" />
		<tag k="man_made" v="cairn" />
		<tag k="name" v="Måskanmodkarøysa" />
		<tag k="old_name" v="Moskonmodka Røset" />
		<tag k="place" v="locality" />
		<tag k="ssr:stedsnr" v="171726" />
	</node>
	<node id="-746254" lat="69.1759666704" lon="18.3249249857">
		<tag k="name" v="Reinvassallmenningen" />
		<tag k="place" v="locality" />
		<tag k="ssr:stedsnr" v="719259" />
	</node>
	<node id="-743693" lat="68.8555666654" lon="20.3220110937">
		<tag k="historic" v="boundary_stone" />
		<tag k="man_made" v="cairn" />
		<tag k="name" v="Wejgiematorøysa" />
		<tag k="old_name" v="Wejgiematto Røset" />
		<tag k="place" v="locality" />
		<tag k="ssr:stedsnr" v="474713" />
	</node>
	<node id="-745356" lat="69.1438138883" lon="18.33289443">
		<tag k="name" v="Reinvassalmenningen" />
		<tag k="place" v="locality" />
		<tag k="ssr:stedsnr" v="536358" />
	</node>
	<node id="-743433" lat="68.5910694458" lon="20.0522360833">
		<tag k="historic" v="boundary_stone" />
		<tag k="man_made" v="cairn" />
		<tag k="name" v="Havgavuobmirøysa" />
		<tag k="old_name" v="Hauka vuosma Røset" />
		<tag k="place" v="locality" />
		<tag k="ssr:stedsnr" v="353276" />
	</node>
	<node id="-743432" lat="68.8022749977" lon="20.3360027699">
		<tag k="fixme" v="multiple name tags, choose one and add the other to alt_name" />
		<tag k="historic" v="boundary_stone" />
		<tag k="man_made" v="cairn" />
		<tag k="name" v="Rostajavrirøysa;Råstosundsrøysa" />
		<tag k="old_name" v="Røstosunds Røset" />
		<tag k="place" v="locality" />
		<tag k="ssr:stedsnr" v="353273" />
	</node>
	<node id="-743431" lat="69.0219277803" lon="20.1083555359">
		<tag k="historic" v="boundary_stone" />
		<tag k="man_made" v="cairn" />
		<tag k="name" v="Nordre Måskanvarrirøysa" />
		<tag k="old_name" v="Nordre Moskonwara Røset" />
		<tag k="place" v="locality" />
		<tag k="ssr:stedsnr" v="352715" />
	</node>
	<node id="-744965" lat="68.9560749967" lon="20.2378694299">
		<tag k="historic" v="boundary_stone" />
		<tag k="man_made" v="cairn" />
		<tag k="name" v="Moskángáisi" />
		<tag k="old_name" v="Moskonwara" />
		<tag k="place" v="locality" />
		<tag k="ssr:stedsnr" v="414709" />
	</node>
</osm>
