<?xml version="1.0" encoding="UTF-8"?>
<osm generator="osmapis" version="0.6">
	<node id="-744192" lat="69.0991805574" lon="18.5104138765">
		<tag k="highway" v="path" />
		<tag k="name" v="Sæterveien" />
		<tag k="ssr:stedsnr" v="97590" />
	</node>
	<node id="-743552" lat="69.0774250004" lon="18.60089443">
		<tag k="highway" v="path" />
		<tag k="name" v="Lensmannsveien" />
		<tag k="ssr:stedsnr" v="354866" />
	</node>
	<node id="-744724" lat="68.9814777811" lon="19.2070083206">
		<tag k="highway" v="path" />
		<tag k="name" v="Valdemarvegen" />
		<tag k="ssr:stedsnr" v="232793" />
	</node>
	<node id="-746876" lat="68.99384722" lon="18.7635805525">
		<tag k="highway" v="path" />
		<tag k="name" v="Snevegen" />
		<tag k="ssr:stedsnr" v="900102" />
	</node>
	<node id="-743551" lat="69.0694083324" lon="18.5657777701">
		<tag k="fixme" v="verify maritime location" />
		<tag k="mooring" v="yes" />
		<tag k="name" v="Andselvstøa" />
		<tag k="place" v="locality" />
		<tag k="ssr:stedsnr" v="354856" />
	</node>
	<node id="-746725" lat="69.2494722218" lon="18.3616333409">
		<tag k="ford" v="yes" />
		<tag k="name" v="Kildbekkvaet" />
		<tag k="place" v="locality" />
		<tag k="ssr:stedsnr" v="841084" />
	</node>
	<node id="-745428" lat="69.073041671" lon="18.5841027796">
		<tag k="highway" v="path" />
		<tag k="name" v="Kirkeveien" />
		<tag k="ssr:stedsnr" v="536863" />
	</node>
	<node id="-744745" lat="69.2468305541" lon="18.3890333344">
		<tag k="highway" v="path" />
		<tag k="name" v="Leirveien" />
		<tag k="ssr:stedsnr" v="233075" />
	</node>
	<node id="-746897" lat="69.0103222227" lon="18.9884583243">
		<tag k="highway" v="path" />
		<tag k="name" v="Gammelvegen" />
		<tag k="ssr:stedsnr" v="900562" />
	</node>
	<node id="-747243" lat="68.8428305569" lon="19.571749978">
		<tag k="highway" v="path" />
		<tag k="name" v="Storhaugveien" />
		<tag k="ssr:stedsnr" v="961765" />
	</node>
	<node id="-746600" lat="69.1971138892" lon="18.4908638871">
		<tag k="fixme" v="verify maritime location" />
		<tag k="mooring" v="yes" />
		<tag k="name" v="Nerstøa" />
		<tag k="place" v="locality" />
		<tag k="ssr:stedsnr" v="839556" />
	</node>
	<node id="-746599" lat="69.1975722193" lon="18.4689444459">
		<tag k="highway" v="path" />
		<tag k="name" v="Beritveien" />
		<tag k="ssr:stedsnr" v="839554" />
	</node>
	<node id="-746597" lat="69.153461108" lon="18.646505558">
		<tag k="highway" v="path" />
		<tag k="name" v="Fjellbuveien" />
		<tag k="ssr:stedsnr" v="839424" />
	</node>
	<node id="-746468" lat="69.1625749975" lon="18.3785000019">
		<tag k="highway" v="path" />
		<tag k="name" v="Liveien" />
		<tag k="ssr:stedsnr" v="779863" />
	</node>
	<node id="-743776" lat="69.2508388868" lon="18.359872213">
		<tag k="highway" v="path" />
		<tag k="name" v="Storgrubbveien" />
		<tag k="ssr:stedsnr" v="476093" />
	</node>
	<node id="-746719" lat="69.0832972232" lon="18.6089166619">
		<tag k="highway" v="path" />
		<tag k="name" v="Kirkeveien" />
		<tag k="ssr:stedsnr" v="840888" />
	</node>
	<node id="-747109" lat="69.056191669" lon="18.5365055593">
		<tag k="aeroway" v="aerodrome" />
		<tag k="fixme" v="multiple name tags, choose one and add the other to alt_name" />
		<tag k="loc_name:se" v="Beardogorži;Beardogoržži girdihámman" />
		<tag k="name" v="Bardufoss;Bardufoss lufthavn" />
		<tag k="name:no" v="Bardufoss;Bardufoss lufthavn" />
		<tag k="ssr:stedsnr" v="929909" />
	</node>
	<node id="-743516" lat="68.9953805561" lon="19.0058805553">
		<tag k="highway" v="path" />
		<tag k="name" v="Evenmovegen" />
		<tag k="ssr:stedsnr" v="354559" />
	</node>
	<node id="-745688" lat="69.2467777769" lon="18.3975166628">
		<tag k="highway" v="path" />
		<tag k="name" v="Sæterveien" />
		<tag k="ssr:stedsnr" v="597079" />
	</node>
	<node id="-745475" lat="68.8335583298" lon="19.5593638795">
		<tag k="highway" v="path" />
		<tag k="name" v="Bandfjellveien" />
		<tag k="ssr:stedsnr" v="537680" />
	</node>
	<node id="-746708" lat="69.2271972217" lon="18.4042333261">
		<tag k="ford" v="yes" />
		<tag k="name" v="Sætervaet" />
		<tag k="place" v="locality" />
		<tag k="ssr:stedsnr" v="840851" />
	</node>
	<node id="-747171" lat="69.1483444442" lon="18.6825999978">
		<tag k="highway" v="path" />
		<tag k="name" v="Buveien" />
		<tag k="ssr:stedsnr" v="961243" />
	</node>
	<node id="-745936" lat="69.0686527797" lon="18.5094388952">
		<tag k="highway" v="path" />
		<tag k="name" v="Mursteinveien" />
		<tag k="ssr:stedsnr" v="657821" />
	</node>
	<node id="-746616" lat="69.0563611133" lon="18.6105722278">
		<tag k="fixme" v="verify maritime location" />
		<tag k="mooring" v="yes" />
		<tag k="name" v="Hauglistøa" />
		<tag k="place" v="locality" />
		<tag k="ssr:stedsnr" v="839945" />
	</node>
	<node id="-746442" lat="69.0694416628" lon="18.6840416712">
		<tag k="highway" v="path" />
		<tag k="name" v="Gammelveien" />
		<tag k="ssr:stedsnr" v="779675" />
	</node>
	<node id="-747009" lat="68.8308333373" lon="19.6187833348">
		<tag k="ford" v="yes" />
		<tag k="name" v="Fossbruene" />
		<tag k="place" v="locality" />
		<tag k="ssr:stedsnr" v="901788" />
	</node>
	<node id="-744264" lat="69.0791138902" lon="18.5883555512">
		<tag k="fixme" v="verify maritime location" />
		<tag k="mooring" v="yes" />
		<tag k="name" v="Liastøa" />
		<tag k="place" v="locality" />
		<tag k="ssr:stedsnr" v="111841" />
	</node>
	<node id="-746689" lat="68.8600138892" lon="19.1200499921">
		<tag k="highway" v="path" />
		<tag k="name" v="Stenvegen" />
		<tag k="ssr:stedsnr" v="840602" />
	</node>
	<node id="-747232" lat="68.861419444" lon="19.1204777643">
		<tag k="highway" v="path" />
		<tag k="name" v="Kjørvegen" />
		<tag k="ssr:stedsnr" v="961620" />
	</node>
	<node id="-743995" lat="69.1124833339" lon="18.8216638816">
		<tag k="highway" v="path" />
		<tag k="name" v="Gammelveien" />
		<tag k="ssr:stedsnr" v="51262" />
	</node>
	<node id="-743167" lat="69.0430361084" lon="18.7491194434">
		<tag k="highway" v="path" />
		<tag k="name" v="Gammelveien" />
		<tag k="ssr:stedsnr" v="293183" />
	</node>
	<node id="-747147" lat="69.2375972228" lon="18.4298055517">
		<tag k="highway" v="path" />
		<tag k="name" v="Nyjordveien" />
		<tag k="ssr:stedsnr" v="961063" />
	</node>
	<node id="-746932" lat="69.0818888902" lon="18.5960361121">
		<tag k="fixme" v="verify maritime location" />
		<tag k="mooring" v="yes" />
		<tag k="name" v="Liastøa" />
		<tag k="place" v="locality" />
		<tag k="ssr:stedsnr" v="900915" />
	</node>
	<node id="-743218" lat="69.0724138922" lon="18.5884888787">
		<tag k="highway" v="path" />
		<tag k="name" v="Mettiveien" />
		<tag k="ssr:stedsnr" v="293875" />
	</node>
	<node id="-745391" lat="68.8602194447" lon="19.1045472208">
		<tag k="highway" v="path" />
		<tag k="name" v="Korsvegan" />
		<tag k="ssr:stedsnr" v="536596" />
	</node>
	<node id="-747153" lat="68.9927583364" lon="18.7484361073">
		<tag k="highway" v="path" />
		<tag k="name" v="Vintervegen" />
		<tag k="ssr:stedsnr" v="961106" />
	</node>
	<node id="-747180" lat="69.0071222199" lon="19.4253416625">
		<tag k="highway" v="path" />
		<tag k="name" v="Dalavegen" />
		<tag k="ssr:stedsnr" v="961275" />
	</node>
	<node id="-744489" lat="69.1861749973" lon="18.619936095">
		<tag k="highway" v="path" />
		<tag k="name" v="Sæterveien" />
		<tag k="ssr:stedsnr" v="172397" />
	</node>
	<node id="-744744" lat="69.1366555598" lon="18.6072888811">
		<tag k="fixme" v="verify maritime location" />
		<tag k="mooring" v="yes" />
		<tag k="name" v="Moastøa" />
		<tag k="place" v="locality" />
		<tag k="ssr:stedsnr" v="233048" />
	</node>
	<node id="-746405" lat="69.1721611106" lon="18.2807749885">
		<tag k="highway" v="path" />
		<tag k="name" v="Reisveien" />
		<tag k="ssr:stedsnr" v="779320" />
	</node>
	<node id="-745636" lat="69.0042166697" lon="19.0026277702">
		<tag k="fixme" v="verify maritime location" />
		<tag k="mooring" v="yes" />
		<tag k="name" v="Båtstøa" />
		<tag k="place" v="locality" />
		<tag k="ssr:stedsnr" v="596535" />
	</node>
	<node id="-743715" lat="68.979475003" lon="18.9164999829">
		<tag k="fixme" v="verify maritime location" />
		<tag k="mooring" v="yes" />
		<tag k="name" v="Båtstøa" />
		<tag k="place" v="locality" />
		<tag k="ssr:stedsnr" v="475471" />
	</node>
	<node id="-745887" lat="68.9781555532" lon="18.8893583286">
		<tag k="highway" v="path" />
		<tag k="name" v="Kvennbekkstillvegen" />
		<tag k="ssr:stedsnr" v="657422" />
	</node>
	<node id="-746398" lat="69.2003111069" lon="18.6833055555">
		<tag k="highway" v="path" />
		<tag k="name" v="Storskarheimveien" />
		<tag k="ssr:stedsnr" v="779259" />
	</node>
	<node id="-745861" lat="69.1470138917" lon="18.6992638882">
		<tag k="highway" v="path" />
		<tag k="name" v="Blåtindveien" />
		<tag k="ssr:stedsnr" v="657233" />
	</node>
	<node id="-745751" lat="69.0219694434" lon="19.4590277561">
		<tag k="fixme" v="verify maritime location" />
		<tag k="mooring" v="yes" />
		<tag k="name" v="Vinterveistøa" />
		<tag k="place" v="locality" />
		<tag k="ssr:stedsnr" v="597842" />
	</node>
	<node id="-744342" lat="68.9866083362" lon="19.4581777778">
		<tag k="highway" v="path" />
		<tag k="name" v="Gammelveien" />
		<tag k="ssr:stedsnr" v="112823" />
	</node>
	<node id="-745345" lat="69.0472416675" lon="18.6115916727">
		<tag k="fixme" v="verify maritime location" />
		<tag k="mooring" v="yes" />
		<tag k="name" v="Nerstøa" />
		<tag k="place" v="locality" />
		<tag k="ssr:stedsnr" v="535940" />
	</node>
	<node id="-744340" lat="68.7311277759" lon="19.7384583192">
		<tag k="highway" v="path" />
		<tag k="name" v="Finnbruene" />
		<tag k="ssr:stedsnr" v="112802" />
	</node>
	<node id="-743699" lat="69.1431888859" lon="18.6957138776">
		<tag k="highway" v="path" />
		<tag k="name" v="Blåtindveien" />
		<tag k="ssr:stedsnr" v="475167" />
	</node>
	<node id="-743186" lat="69.1273444489" lon="18.8381222206">
		<tag k="highway" v="path" />
		<tag k="name" v="Fjellveien" />
		<tag k="ssr:stedsnr" v="293408" />
	</node>
	<node id="-744209" lat="69.0461833303" lon="18.6142138822">
		<tag k="fixme" v="verify maritime location" />
		<tag k="mooring" v="yes" />
		<tag k="name" v="Øverstøa" />
		<tag k="place" v="locality" />
		<tag k="ssr:stedsnr" v="110944" />
	</node>
	<node id="-744720" lat="69.1704527756" lon="18.3444916697">
		<tag k="highway" v="path" />
		<tag k="name" v="Reisveien" />
		<tag k="ssr:stedsnr" v="232761" />
	</node>
	<node id="-747024" lat="69.0792999971" lon="18.5201333183">
		<tag k="ford" v="yes" />
		<tag k="name" v="Vaet" />
		<tag k="place" v="locality" />
		<tag k="ssr:stedsnr" v="901916" />
	</node>
	<node id="-747139" lat="69.0923972218" lon="18.6200055587">
		<tag k="fixme" v="verify maritime location" />
		<tag k="mooring" v="yes" />
		<tag k="name" v="Ottestøa" />
		<tag k="place" v="locality" />
		<tag k="ssr:stedsnr" v="960915" />
	</node>
	<node id="-745605" lat="69.0072722235" lon="18.798402778">
		<tag k="highway" v="path" />
		<tag k="name" v="Larsvegen" />
		<tag k="ssr:stedsnr" v="596091" />
	</node>
	<node id="-744836" lat="68.9036083291" lon="19.6752694363">
		<tag k="highway" v="path" />
		<tag k="name" v="Martinveien" />
		<tag k="ssr:stedsnr" v="233949" />
	</node>
	<node id="-745731" lat="69.2124111115" lon="18.4753055535">
		<tag k="fixme" v="verify maritime location" />
		<tag k="mooring" v="yes" />
		<tag k="name" v="Elvstøa" />
		<tag k="place" v="locality" />
		<tag k="ssr:stedsnr" v="597560" />
	</node>
	<node id="-743553" lat="69.1547861128" lon="18.4112638925">
		<tag k="ford" v="yes" />
		<tag k="name" v="Greinvaet" />
		<tag k="place" v="locality" />
		<tag k="ssr:stedsnr" v="354870" />
	</node>
</osm>
