<?xml version="1.0" encoding="UTF-8"?>
<osm generator="osmapis" version="0.6">
	<node id="-444351" lat="59.9793416674" lon="5.3836749911">
		<tag k="alt_name" v="Landrøypynten" />
		<tag k="name" v="Landrøypynten lykt" />
		<tag k="ssr:date" v="2016-05-10" />
		<tag k="ssr:gruppe" v="navigasjon" />
		<tag k="ssr:hovedgruppe" v="infrastruktur" />
		<tag k="ssr:stedsnr" v="307186" />
		<tag k="ssr:type" v="fyrlykt" />
	</node>
	<node id="-446110" lat="60.0218555595" lon="5.34035555556">
		<tag k="alt_name" v="Rommeledneset" />
		<tag k="name" v="Rommelines" />
		<tag k="old_name" v="Romelinneset" />
		<tag k="ssr:date" v="2016-05-11" />
		<tag k="ssr:gruppe" v="navigasjon" />
		<tag k="ssr:hovedgruppe" v="infrastruktur" />
		<tag k="ssr:stedsnr" v="793242" />
		<tag k="ssr:type" v="fyrlykt" />
	</node>
	<node id="-444412" lat="59.9081944405" lon="5.52757499711">
		<tag k="alt_name" v="Skor" />
		<tag k="name" v="Skor lykt" />
		<tag k="old_name" v="Skorslykta" />
		<tag k="ssr:date" v="2016-05-10" />
		<tag k="ssr:gruppe" v="navigasjon" />
		<tag k="ssr:hovedgruppe" v="infrastruktur" />
		<tag k="ssr:stedsnr" v="340763" />
		<tag k="ssr:type" v="fyrlykt" />
	</node>
	<node id="-446427" lat="60.8816104596" lon="6.30047518531">
		<tag k="name" v="Vestlandet" />
		<tag k="ssr:date" v="2019-01-06" />
		<tag k="ssr:gruppe" v="administrativeIndelinger" />
		<tag k="ssr:hovedgruppe" v="offentligAdministrasjon" />
		<tag k="ssr:stedsnr" v="974777" />
		<tag k="ssr:type" v="annenAdministrativInndeling" />
	</node>
	<node id="-444504" lat="60.0541249962" lon="5.53114721817">
		<tag k="alt_name" v="Presteskjer" />
		<tag k="name" v="Prestaskjeret lykt" />
		<tag k="old_name" v="Presteskjær" />
		<tag k="ssr:date" v="2016-05-10" />
		<tag k="ssr:gruppe" v="navigasjon" />
		<tag k="ssr:hovedgruppe" v="infrastruktur" />
		<tag k="ssr:stedsnr" v="369262" />
		<tag k="ssr:type" v="fyrlykt" />
	</node>
	<node id="-444439" lat="60.0528590705" lon="5.70530405591">
		<tag k="alt_name" v="Lokksund, nordre" />
		<tag k="name" v="Nordra Lukksundet lykt" />
		<tag k="ssr:date" v="2016-08-26" />
		<tag k="ssr:gruppe" v="navigasjon" />
		<tag k="ssr:hovedgruppe" v="infrastruktur" />
		<tag k="ssr:stedsnr" v="341242" />
		<tag k="ssr:type" v="fyrlykt" />
	</node>
	<node id="-445515" lat="60.0797527805" lon="5.68529167414">
		<tag k="name" v="Lykt" />
		<tag k="ssr:date" v="2016-05-10" />
		<tag k="ssr:gruppe" v="navigasjon" />
		<tag k="ssr:hovedgruppe" v="infrastruktur" />
		<tag k="ssr:stedsnr" v="522753" />
		<tag k="ssr:type" v="fyrlykt" />
	</node>
	<node id="-445706" lat="60.0057861151" lon="5.50019722269">
		<tag k="alt_name" v="Tysnes" />
		<tag k="name" v="Tysnes kommune" />
		<tag k="ssr:date" v="2019-02-26" />
		<tag k="ssr:gruppe" v="administrativeIndelinger" />
		<tag k="ssr:hovedgruppe" v="offentligAdministrasjon" />
		<tag k="ssr:stedsnr" v="602079" />
		<tag k="ssr:type" v="kommune" />
	</node>
	<node id="-444713" lat="60.0795333368" lon="5.68581389294">
		<tag k="alt_name" v="Malkenes" />
		<tag k="name" v="Malkenes lykt" />
		<tag k="ssr:date" v="2016-05-10" />
		<tag k="ssr:gruppe" v="navigasjon" />
		<tag k="ssr:hovedgruppe" v="infrastruktur" />
		<tag k="ssr:stedsnr" v="4447" />
		<tag k="ssr:type" v="fyrlykt" />
	</node>
	<node id="-446021" lat="59.9787138931" lon="5.38194165889">
		<tag k="name" v="Landråpyntlykta" />
		<tag k="ssr:date" v="2016-05-11" />
		<tag k="ssr:gruppe" v="navigasjon" />
		<tag k="ssr:hovedgruppe" v="infrastruktur" />
		<tag k="ssr:stedsnr" v="765209" />
		<tag k="ssr:type" v="fyrlykt" />
	</node>
</osm>
