<?xml version="1.0" encoding="UTF-8"?>
<osm generator="osmapis" version="0.6">
	<node id="-360640" lat="58.747747223" lon="7.59074721467">
		<tag k="ford" v="yes" />
		<tag k="name" v="Heimre Bergeva" />
		<tag k="place" v="locality" />
		<tag k="ssr:stedsnr" v="164364" />
	</node>
	<node id="-360061" lat="58.5939611103" lon="7.51287221577">
		<tag k="ford" v="yes" />
		<tag k="name" v="Geitevaet" />
		<tag k="place" v="locality" />
		<tag k="ssr:stedsnr" v="42185" />
	</node>
	<node id="-359932" lat="58.5913941592" lon="7.60070004709">
		<tag k="highway" v="path" />
		<tag k="name" v="Futevegen" />
		<tag k="ssr:stedsnr" v="1073469" />
	</node>
	<node id="-359931" lat="58.6865638894" lon="7.58777499712">
		<tag k="bridge" v="yes" />
		<tag k="layer" v="1" />
		<tag k="name" v="Staven" />
		<tag k="ssr:stedsnr" v="896016" />
	</node>
	<node id="-361466" lat="58.6099333373" lon="7.42271110251">
		<tag k="highway" v="path" />
		<tag k="name" v="Østebuveien" />
		<tag k="ssr:stedsnr" v="528364" />
	</node>
	<node id="-360057" lat="58.5977166656" lon="7.58042499273">
		<tag k="ford" v="yes" />
		<tag k="name" v="Sålivaet" />
		<tag k="place" v="locality" />
		<tag k="ssr:stedsnr" v="42166" />
	</node>
	<node id="-360182" lat="58.5251666691" lon="7.47610555439">
		<tag k="man_made" v="cairn" />
		<tag k="name" v="Varden" />
		<tag k="place" v="locality" />
		<tag k="ssr:stedsnr" v="43868" />
	</node>
	<node id="-360309" lat="58.5988805572" lon="7.58175555608">
		<tag k="ford" v="yes" />
		<tag k="name" v="Ulebergvaet" />
		<tag k="place" v="locality" />
		<tag k="ssr:stedsnr" v="103156" />
	</node>
	<node id="-362996" lat="58.7355194434" lon="7.38628610908">
		<tag k="ford" v="yes" />
		<tag k="name" v="Steinlaupet" />
		<tag k="place" v="locality" />
		<tag k="ssr:stedsnr" v="953166" />
	</node>
	<node id="-359666" lat="58.8126277772" lon="7.3068583403">
		<tag k="highway" v="path" />
		<tag k="name" v="Austårestien" />
		<tag k="ssr:stedsnr" v="407286" />
	</node>
	<node id="-362993" lat="58.5754666705" lon="7.35126110646">
		<tag k="fixme" v="verify maritime location" />
		<tag k="mooring" v="yes" />
		<tag k="name" v="Pråmstøa" />
		<tag k="place" v="locality" />
		<tag k="ssr:stedsnr" v="953157" />
	</node>
	<node id="-359403" lat="58.7074916697" lon="7.54975833697">
		<tag k="fixme" v="verify maritime location" />
		<tag k="mooring" v="yes" />
		<tag k="name" v="Langastøæ" />
		<tag k="place" v="locality" />
		<tag k="ssr:stedsnr" v="346231" />
	</node>
	<node id="-361447" lat="58.6565277748" lon="7.32005000797">
		<tag k="ford" v="yes" />
		<tag k="name" v="Voilevaet" />
		<tag k="place" v="locality" />
		<tag k="ssr:stedsnr" v="528310" />
	</node>
	<node id="-361958" lat="58.669122224" lon="7.40321943736">
		<tag k="highway" v="path" />
		<tag k="name" v="Slettekleiv" />
		<tag k="ssr:stedsnr" v="649360" />
	</node>
	<node id="-362083" lat="58.6714194485" lon="7.15880555502">
		<tag k="man_made" v="cairn" />
		<tag k="name" v="Knaberøysi" />
		<tag k="place" v="locality" />
		<tag k="ssr:stedsnr" v="668290" />
	</node>
	<node id="-363096" lat="58.5418166657" lon="7.42417222501">
		<tag k="bridge" v="yes" />
		<tag k="layer" v="1" />
		<tag k="name" v="Bubrua" />
		<tag k="ssr:stedsnr" v="953982" />
	</node>
	<node id="-360995" lat="58.5389499975" lon="7.41308888438">
		<tag k="bridge" v="yes" />
		<tag k="layer" v="1" />
		<tag k="name" v="Auklandsbrua" />
		<tag k="ssr:stedsnr" v="225990" />
	</node>
	<node id="-360860" lat="58.5613861127" lon="7.46533611501">
		<tag k="highway" v="path" />
		<tag k="name" v="Stien" />
		<tag k="ssr:stedsnr" v="225062" />
	</node>
	<node id="-359496" lat="58.5572472259" lon="7.46550277415">
		<tag k="bridge" v="yes" />
		<tag k="layer" v="1" />
		<tag k="name" v="Tveit" />
		<tag k="ssr:stedsnr" v="350012" />
	</node>
	<node id="-359623" lat="58.773438885" lon="7.33295278123">
		<tag k="ford" v="yes" />
		<tag k="name" v="Øygardsvaet" />
		<tag k="place" v="locality" />
		<tag k="ssr:stedsnr" v="406893" />
	</node>
	<node id="-359237" lat="58.7604333355" lon="7.53647777073">
		<tag k="bridge" v="yes" />
		<tag k="layer" v="1" />
		<tag k="name" v="Lognavatn" />
		<tag k="ssr:stedsnr" v="289010" />
	</node>
	<node id="-359236" lat="58.7256055516" lon="7.47513056102">
		<tag k="bridge" v="yes" />
		<tag k="layer" v="1" />
		<tag k="name" v="Eikild bru" />
		<tag k="ssr:stedsnr" v="289007" />
	</node>
	<node id="-359235" lat="58.8360222213" lon="7.489475004">
		<tag k="bridge" v="yes" />
		<tag k="layer" v="1" />
		<tag k="name" v="Helleren" />
		<tag k="ssr:stedsnr" v="289008" />
	</node>
	<node id="-361282" lat="58.5612277735" lon="7.3882666609">
		<tag k="bridge" v="yes" />
		<tag k="layer" v="1" />
		<tag k="name" v="Ørevatn bru" />
		<tag k="ssr:stedsnr" v="471013" />
	</node>
	<node id="-361537" lat="58.7529861124" lon="7.51051110439">
		<tag k="bridge" v="yes" />
		<tag k="layer" v="1" />
		<tag k="name" v="Nordgarden" />
		<tag k="ssr:stedsnr" v="532015" />
	</node>
	<node id="-361280" lat="58.5650166659" lon="7.4701944394">
		<tag k="bridge" v="yes" />
		<tag k="layer" v="1" />
		<tag k="name" v="Handeland" />
		<tag k="ssr:stedsnr" v="471007" />
	</node>
	<node id="-362045" lat="58.7247527808" lon="7.39365276988">
		<tag k="bridge" v="yes" />
		<tag k="layer" v="1" />
		<tag k="name" v="Vedhommen bru" />
		<tag k="ssr:stedsnr" v="653017" />
	</node>
	<node id="-361656" lat="58.798200003" lon="7.35602221466">
		<tag k="highway" v="path" />
		<tag k="name" v="Goplestien" />
		<tag k="ssr:stedsnr" v="588501" />
	</node>
	<node id="-360503" lat="58.5549277755" lon="7.37663611128">
		<tag k="alt_name" v="Skjerka kraftstasjon" />
		<tag k="landuse" v="industrial" />
		<tag k="name" v="Skjerka" />
		<tag k="power" v="plant" />
		<tag k="ssr:stedsnr" v="121795" />
	</node>
	<node id="-359733" lat="58.5392527754" lon="7.34867221405">
		<tag k="highway" v="path" />
		<tag k="name" v="Kløvjan" />
		<tag k="ssr:stedsnr" v="407952" />
	</node>
	<node id="-361281" lat="58.662055558" lon="7.45083888939">
		<tag k="bridge" v="yes" />
		<tag k="layer" v="1" />
		<tag k="name" v="Smedlandsbekk" />
		<tag k="ssr:stedsnr" v="471010" />
	</node>
	<node id="-362288" lat="58.5890777791" lon="7.26075000613">
		<tag k="man_made" v="cairn" />
		<tag k="name" v="Tindefjell" />
		<tag k="place" v="locality" />
		<tag k="ssr:stedsnr" v="717820" />
	</node>
	<node id="-362287" lat="58.7541027796" lon="7.54542500385">
		<tag k="bridge" v="yes" />
		<tag k="layer" v="1" />
		<tag k="name" v="Øvre Espelid" />
		<tag k="ssr:stedsnr" v="714024" />
	</node>
	<node id="-361646" lat="58.6576500034" lon="7.35292221892">
		<tag k="bridge" v="yes" />
		<tag k="layer" v="1" />
		<tag k="name" v="Lonebrunæ" />
		<tag k="ssr:stedsnr" v="588265" />
	</node>
	<node id="-360877" lat="58.7130277822" lon="7.50767500142">
		<tag k="highway" v="path" />
		<tag k="name" v="Manneveien" />
		<tag k="ssr:stedsnr" v="225134" />
	</node>
	<node id="-362796" lat="58.7300722226" lon="7.39347222047">
		<tag k="bridge" v="yes" />
		<tag k="layer" v="1" />
		<tag k="name" v="Lognevassbekk" />
		<tag k="ssr:stedsnr" v="836007" />
	</node>
	<node id="-362795" lat="58.6450722204" lon="7.43965000404">
		<tag k="bridge" v="yes" />
		<tag k="layer" v="1" />
		<tag k="name" v="Skorebekk" />
		<tag k="ssr:stedsnr" v="836008" />
	</node>
	<node id="-359495" lat="58.7993555544" lon="7.47708056273">
		<tag k="bridge" v="yes" />
		<tag k="layer" v="1" />
		<tag k="name" v="Bortelid" />
		<tag k="ssr:stedsnr" v="350007" />
	</node>
	<node id="-359720" lat="58.5281638885" lon="7.46210555">
		<tag k="highway" v="path" />
		<tag k="name" v="Brattestien" />
		<tag k="ssr:stedsnr" v="407879" />
	</node>
	<node id="-360999" lat="58.7946305559" lon="7.35614444656">
		<tag k="bridge" v="yes" />
		<tag k="layer" v="1" />
		<tag k="name" v="Øvregards bru" />
		<tag k="ssr:stedsnr" v="229024" />
	</node>
	<node id="-360998" lat="58.5382277772" lon="7.42292499987">
		<tag k="bridge" v="yes" />
		<tag k="layer" v="1" />
		<tag k="name" v="Kylland bru" />
		<tag k="ssr:stedsnr" v="228015" />
	</node>
	<node id="-360997" lat="58.5123694419" lon="7.43118611769">
		<tag k="bridge" v="yes" />
		<tag k="layer" v="1" />
		<tag k="name" v="Bjorbekk" />
		<tag k="ssr:stedsnr" v="228011" />
	</node>
	<node id="-362116" lat="58.816777781" lon="7.29535833628">
		<tag k="highway" v="path" />
		<tag k="name" v="Vestårstien" />
		<tag k="ssr:stedsnr" v="706124" />
	</node>
	<node id="-362531" lat="58.7915055512" lon="7.4889138831">
		<tag k="bridge" v="yes" />
		<tag k="layer" v="1" />
		<tag k="name" v="Tjaldal" />
		<tag k="ssr:stedsnr" v="775019" />
	</node>
	<node id="-362530" lat="58.7891111121" lon="7.3376805574">
		<tag k="bridge" v="yes" />
		<tag k="layer" v="1" />
		<tag k="name" v="Kvennevatn bru" />
		<tag k="ssr:stedsnr" v="775015" />
	</node>
	<node id="-359585" lat="58.7835194411" lon="7.46112499816">
		<tag k="highway" v="path" />
		<tag k="name" v="Øygardsveien" />
		<tag k="ssr:stedsnr" v="402743" />
	</node>
	<node id="-361776" lat="58.5220305537" lon="7.45940000358">
		<tag k="ford" v="yes" />
		<tag k="name" v="Vaet" />
		<tag k="place" v="locality" />
		<tag k="ssr:stedsnr" v="589900" />
	</node>
	<node id="-363013" lat="58.7048972189" lon="7.60553055092">
		<tag k="highway" v="path" />
		<tag k="name" v="Øygardsveien" />
		<tag k="ssr:stedsnr" v="953241" />
	</node>
	<node id="-360476" lat="58.740633332" lon="7.51002499833">
		<tag k="bridge" v="yes" />
		<tag k="layer" v="1" />
		<tag k="name" v="Røyneli bru" />
		<tag k="ssr:stedsnr" v="107015" />
	</node>
	<node id="-360731" lat="58.5763416654" lon="7.51653333992">
		<tag k="bridge" v="yes" />
		<tag k="layer" v="1" />
		<tag k="name" v="Eikså" />
		<tag k="ssr:stedsnr" v="168013" />
	</node>
	<node id="-362529" lat="58.7508500034" lon="7.38104722241">
		<tag k="bridge" v="yes" />
		<tag k="layer" v="1" />
		<tag k="name" v="Bliksåni" />
		<tag k="ssr:stedsnr" v="775008" />
	</node>
	<node id="-360475" lat="58.6958583318" lon="7.47148055327">
		<tag k="bridge" v="yes" />
		<tag k="layer" v="1" />
		<tag k="name" v="Kvernbekk" />
		<tag k="ssr:stedsnr" v="107012" />
	</node>
	<node id="-359364" lat="58.6997583372" lon="7.60207499712">
		<tag k="ford" v="yes" />
		<tag k="name" v="Vaet" />
		<tag k="place" v="locality" />
		<tag k="ssr:stedsnr" v="345212" />
	</node>
	<node id="-360598" lat="58.6751472205" lon="7.31458332889">
		<tag k="ford" v="yes" />
		<tag k="name" v="Vætingvaet" />
		<tag k="place" v="locality" />
		<tag k="ssr:stedsnr" v="164158" />
	</node>
	<node id="-360213" lat="58.572019442" lon="7.50296110464">
		<tag k="bridge" v="yes" />
		<tag k="layer" v="1" />
		<tag k="name" v="Neverå" />
		<tag k="ssr:stedsnr" v="46014" />
	</node>
	<node id="-361236" lat="58.7479611155" lon="7.59471665977">
		<tag k="ford" v="yes" />
		<tag k="name" v="Auståre Bergeva" />
		<tag k="place" v="locality" />
		<tag k="ssr:stedsnr" v="468288" />
	</node>
	<node id="-361574" lat="58.6176777736" lon="7.49378055808">
		<tag k="highway" v="path" />
		<tag k="name" v="Smalestigen" />
		<tag k="ssr:stedsnr" v="546825" />
	</node>
	<node id="-359824" lat="58.7893888902" lon="7.5910722184">
		<tag k="man_made" v="cairn" />
		<tag k="name" v="Prestvarden" />
		<tag k="place" v="locality" />
		<tag k="ssr:stedsnr" v="892848" />
	</node>
	<node id="-360730" lat="58.5435055549" lon="7.4047722195">
		<tag k="bridge" v="yes" />
		<tag k="layer" v="1" />
		<tag k="name" v="Geitskar" />
		<tag k="ssr:stedsnr" v="168011" />
	</node>
	<node id="-361997" lat="58.7839833356" lon="7.58644166289">
		<tag k="man_made" v="cairn" />
		<tag k="name" v="Pikvarden" />
		<tag k="place" v="locality" />
		<tag k="ssr:stedsnr" v="649867" />
	</node>
	<node id="-362797" lat="58.6776944456" lon="7.46084167237">
		<tag k="bridge" v="yes" />
		<tag k="layer" v="1" />
		<tag k="name" v="Småbekkjuvet" />
		<tag k="ssr:stedsnr" v="836009" />
	</node>
	<node id="-360071" lat="58.5823333351" lon="7.29377222135">
		<tag k="highway" v="path" />
		<tag k="name" v="Juskestien" />
		<tag k="ssr:stedsnr" v="42375" />
	</node>
	<node id="-359685" lat="58.6169111147" lon="7.41004165967">
		<tag k="alt_name" v="Forgard" />
		<tag k="bridge" v="yes" />
		<tag k="layer" v="1" />
		<tag k="name" v="Gardsbruna" />
		<tag k="ssr:stedsnr" v="407408" />
	</node>
	<node id="-362756" lat="58.5977249961" lon="7.24948055209">
		<tag k="ford" v="yes" />
		<tag k="name" v="Vonavaet" />
		<tag k="place" v="locality" />
		<tag k="ssr:stedsnr" v="832716" />
	</node>
	<node id="-360939" lat="58.6280750022" lon="7.41260555812">
		<tag k="highway" v="path" />
		<tag k="name" v="Stien" />
		<tag k="ssr:stedsnr" v="225516" />
	</node>
</osm>
