<?xml version="1.0" encoding="UTF-8"?>
<osm generator="osmapis" version="0.6">
	<node id="-359312" lat="58.7446944417" lon="7.49853333249">
		<tag k="historic" v="boundary_stone" />
		<tag k="man_made" v="cairn" />
		<tag k="name" v="Heddågrå" />
		<tag k="place" v="locality" />
		<tag k="ssr:stedsnr" v="888192" />
	</node>
	<node id="-360504" lat="58.6707277777" lon="7.15931388744">
		<tag k="historic" v="boundary_stone" />
		<tag k="man_made" v="cairn" />
		<tag k="name" v="Knaberøysa" />
		<tag k="place" v="locality" />
		<tag k="ssr:stedsnr" v="225699" />
	</node>
	<node id="-360214" lat="58.6421388853" lon="7.54672778046">
		<tag k="fixme" v="multiple name tags, choose one and add the other to alt_name" />
		<tag k="historic" v="boundary_stone" />
		<tag k="man_made" v="cairn" />
		<tag k="name" v="Kross-stein;Krosstein" />
		<tag k="place" v="locality" />
		<tag k="ssr:stedsnr" v="164535" />
	</node>
	<node id="-361781" lat="58.5333025592" lon="7.51981893534">
		<tag k="historic" v="boundary_stone" />
		<tag k="man_made" v="cairn" />
		<tag k="name" v="Kroksteinen" />
		<tag k="place" v="locality" />
		<tag k="ssr:stedsnr" v="710855" />
	</node>
</osm>
