<?xml version="1.0" encoding="UTF-8"?>
<osm generator="osmapis" version="0.6">
	<node id="-360447" lat="58.5482222231" lon="7.46599166481">
		<tag k="name" v="Småøygardan" />
		<tag k="natural" v="wetland" />
		<tag k="ssr:stedsnr" v="104881" />
	</node>
	<node id="-360436" lat="58.5241055559" lon="7.29433333374">
		<tag k="name" v="Tronshommen" />
		<tag k="natural" v="wetland" />
		<tag k="ssr:stedsnr" v="104711" />
	</node>
	<node id="-361470" lat="58.6018250008" lon="7.40149999351">
		<tag k="name" v="Setan" />
		<tag k="place" v="locality" />
		<tag k="ssr:stedsnr" v="528399" />
	</node>
	<node id="-360430" lat="58.654022222" lon="7.40552223074">
		<tag k="name" v="Hestneset" />
		<tag k="place" v="locality" />
		<tag k="ssr:stedsnr" v="104505" />
	</node>
	<node id="-362474" lat="58.6155305545" lon="7.48106389138">
		<tag k="name" v="Annlaugsmyran" />
		<tag k="natural" v="wetland" />
		<tag k="ssr:stedsnr" v="771364" />
	</node>
	<node id="-360424" lat="58.6639583305" lon="7.40784444396">
		<tag k="name" v="Mannestøl" />
		<tag k="natural" v="wetland" />
		<tag k="ssr:stedsnr" v="104484" />
	</node>
	<node id="-362465" lat="58.5862444419" lon="7.37762778289">
		<tag k="name" v="Kyrkjemyran" />
		<tag k="natural" v="wetland" />
		<tag k="ssr:stedsnr" v="771298" />
	</node>
	<node id="-362463" lat="58.739366665" lon="7.64229722305">
		<tag k="name" v="Knutslimyran" />
		<tag k="natural" v="wetland" />
		<tag k="ssr:stedsnr" v="771289" />
	</node>
	<node id="-360411" lat="58.6021611097" lon="7.44630277604">
		<tag k="name" v="Torkjelsslåtta" />
		<tag k="natural" v="wetland" />
		<tag k="ssr:stedsnr" v="104343" />
	</node>
	<node id="-360409" lat="58.6221416646" lon="7.46774445132">
		<tag k="name" v="Trugfora" />
		<tag k="natural" v="wetland" />
		<tag k="ssr:stedsnr" v="104335" />
	</node>
	<node id="-360408" lat="58.6173999965" lon="7.48796943921">
		<tag k="name" v="Moltemyr" />
		<tag k="natural" v="wetland" />
		<tag k="ssr:stedsnr" v="104332" />
	</node>
	<node id="-360406" lat="58.6678500003" lon="7.4107000001">
		<tag k="name" v="Bortedalsmyræ" />
		<tag k="natural" v="wetland" />
		<tag k="ssr:stedsnr" v="104324" />
	</node>
	<node id="-362445" lat="58.6758305516" lon="7.32123333718">
		<tag k="name" v="Vætingsmyran" />
		<tag k="natural" v="wetland" />
		<tag k="ssr:stedsnr" v="771161" />
	</node>
	<node id="-360388" lat="58.5976388915" lon="7.42215555495">
		<tag k="name" v="Langamyra" />
		<tag k="natural" v="wetland" />
		<tag k="ssr:stedsnr" v="104231" />
	</node>
	<node id="-362432" lat="58.5585222243" lon="7.45290277341">
		<tag k="name" v="Leirmyr" />
		<tag k="natural" v="wetland" />
		<tag k="ssr:stedsnr" v="771035" />
	</node>
	<node id="-362431" lat="58.5790527788" lon="7.53365000016">
		<tag k="name" v="Torvemyr" />
		<tag k="natural" v="wetland" />
		<tag k="ssr:stedsnr" v="771025" />
	</node>
	<node id="-360381" lat="58.7447333341" lon="7.40876945247">
		<tag k="name" v="Turtebakkstean" />
		<tag k="natural" v="wetland" />
		<tag k="ssr:stedsnr" v="104152" />
	</node>
	<node id="-362428" lat="58.7684416697" lon="7.59359166528">
		<tag k="name" v="Oddeslåttå" />
		<tag k="natural" v="wetland" />
		<tag k="ssr:stedsnr" v="771011" />
	</node>
	<node id="-362427" lat="58.5733138931" lon="7.55400278454">
		<tag k="name" v="Bjønndalsstean" />
		<tag k="natural" v="wetland" />
		<tag k="ssr:stedsnr" v="771009" />
	</node>
	<node id="-362426" lat="58.5646972188" lon="7.5135333298">
		<tag k="name" v="Hasteinsmyra" />
		<tag k="natural" v="wetland" />
		<tag k="ssr:stedsnr" v="771003" />
	</node>
	<node id="-362484" lat="58.6295694438" lon="7.34149722489">
		<tag k="name" v="Koddestøl" />
		<tag k="natural" v="wetland" />
		<tag k="ssr:stedsnr" v="771422" />
	</node>
	<node id="-360368" lat="58.5607666708" lon="7.45277500508">
		<tag k="name" v="Skarmyr" />
		<tag k="natural" v="wetland" />
		<tag k="ssr:stedsnr" v="104045" />
	</node>
	<node id="-360366" lat="58.7577333311" lon="7.55411388644">
		<tag k="name" v="Koddemyræ" />
		<tag k="natural" v="wetland" />
		<tag k="ssr:stedsnr" v="104025" />
	</node>
	<node id="-362412" lat="58.6323444475" lon="7.53048888508">
		<tag k="name" v="Bryningshommen" />
		<tag k="natural" v="wetland" />
		<tag k="ssr:stedsnr" v="770468" />
	</node>
	<node id="-362411" lat="58.6267749966" lon="7.46152778461">
		<tag k="name" v="Trugfurå" />
		<tag k="natural" v="wetland" />
		<tag k="ssr:stedsnr" v="770441" />
	</node>
	<node id="-360349" lat="58.7837666625" lon="7.56362222761">
		<tag k="name" v="Vorestedjan" />
		<tag k="natural" v="wetland" />
		<tag k="ssr:stedsnr" v="103843" />
	</node>
	<node id="-360347" lat="58.5076166677" lon="7.42504166779">
		<tag k="name" v="Lyngneset" />
		<tag k="place" v="locality" />
		<tag k="ssr:stedsnr" v="103775" />
	</node>
	<node id="-362392" lat="58.5929166672" lon="7.56698333204">
		<tag k="name" v="Myran" />
		<tag k="natural" v="wetland" />
		<tag k="ssr:stedsnr" v="770142" />
	</node>
	<node id="-360343" lat="58.8062249966" lon="7.34901944734">
		<tag k="name" v="Predikstolen" />
		<tag k="natural" v="stone" />
		<tag k="ssr:stedsnr" v="103541" />
	</node>
	<node id="-360342" lat="58.8120444434" lon="7.37075278519">
		<tag k="name" v="Pænningslåttå" />
		<tag k="natural" v="wetland" />
		<tag k="ssr:stedsnr" v="103539" />
	</node>
	<node id="-360337" lat="58.6019111095" lon="7.28688055085">
		<tag k="name" v="Glypemyran" />
		<tag k="natural" v="wetland" />
		<tag k="ssr:stedsnr" v="103448" />
	</node>
	<node id="-360331" lat="58.5591555579" lon="7.31978610945">
		<tag k="name" v="Lonemyran" />
		<tag k="natural" v="wetland" />
		<tag k="ssr:stedsnr" v="103368" />
	</node>
	<node id="-359660" lat="58.7476166696" lon="7.38220554712">
		<tag k="name" v="Storamyræ" />
		<tag k="natural" v="wetland" />
		<tag k="ssr:stedsnr" v="407210" />
	</node>
	<node id="-360328" lat="58.6123388923" lon="7.3713833251">
		<tag k="name" v="Reveura" />
		<tag k="natural" v="scree" />
		<tag k="ssr:stedsnr" v="103356" />
	</node>
	<node id="-362375" lat="58.8147583313" lon="7.45785000033">
		<tag k="name" v="Gråtarmyræ" />
		<tag k="natural" v="wetland" />
		<tag k="ssr:stedsnr" v="767343" />
	</node>
	<node id="-362373" lat="58.7745444407" lon="7.53163610325">
		<tag k="name" v="Listakkslåttun" />
		<tag k="natural" v="wetland" />
		<tag k="ssr:stedsnr" v="766470" />
	</node>
	<node id="-360300" lat="58.7899416684" lon="7.52205555438">
		<tag k="name" v="Øvre Listakkslåttå" />
		<tag k="natural" v="wetland" />
		<tag k="ssr:stedsnr" v="99728" />
	</node>
	<node id="-360286" lat="58.8217333317" lon="7.47029999266">
		<tag k="name" v="Samlagslåttå" />
		<tag k="natural" v="wetland" />
		<tag k="ssr:stedsnr" v="99509" />
	</node>
	<node id="-360284" lat="58.8120944411" lon="7.48493610626">
		<tag k="name" v="Storamyræ" />
		<tag k="natural" v="wetland" />
		<tag k="ssr:stedsnr" v="99373" />
	</node>
	<node id="-360274" lat="58.7790416698" lon="7.53299443774">
		<tag k="name" v="Bjorslåttå" />
		<tag k="natural" v="wetland" />
		<tag k="ssr:stedsnr" v="99056" />
	</node>
	<node id="-362272" lat="58.5610916657" lon="7.43699167292">
		<tag k="name" v="Kvennhusmyra" />
		<tag k="natural" v="wetland" />
		<tag k="ssr:stedsnr" v="711097" />
	</node>
	<node id="-362270" lat="58.5754861079" lon="7.45703888381">
		<tag k="name" v="Stehommen" />
		<tag k="natural" v="wetland" />
		<tag k="ssr:stedsnr" v="711088" />
	</node>
	<node id="-362268" lat="58.56909167" lon="7.49214722088">
		<tag k="name" v="Krokebekkstean" />
		<tag k="natural" v="wetland" />
		<tag k="ssr:stedsnr" v="711062" />
	</node>
	<node id="-362262" lat="58.5401388872" lon="7.42420000569">
		<tag k="name" v="Holtet" />
		<tag k="place" v="locality" />
		<tag k="ssr:stedsnr" v="710993" />
	</node>
	<node id="-360211" lat="58.5557444407" lon="7.46214999276">
		<tag k="name" v="Sletteflekken" />
		<tag k="place" v="locality" />
		<tag k="ssr:stedsnr" v="43998" />
	</node>
	<node id="-360210" lat="58.5509777754" lon="7.4534638868">
		<tag k="name" v="Torvmyr" />
		<tag k="natural" v="wetland" />
		<tag k="ssr:stedsnr" v="43993" />
	</node>
	<node id="-360209" lat="58.728519445" lon="7.42177500415">
		<tag k="name" v="Søtaholet" />
		<tag k="natural" v="wetland" />
		<tag k="ssr:stedsnr" v="43990" />
	</node>
	<node id="-362244" lat="58.5258583355" lon="7.36866945029">
		<tag k="name" v="Rullanholtet" />
		<tag k="place" v="locality" />
		<tag k="ssr:stedsnr" v="710897" />
	</node>
	<node id="-360194" lat="58.5229472187" lon="7.42786388514">
		<tag k="name" v="Åmlandsmyran" />
		<tag k="natural" v="wetland" />
		<tag k="ssr:stedsnr" v="43828" />
	</node>
	<node id="-362239" lat="58.5204305544" lon="7.39455277011">
		<tag k="name" v="Raunelimyra" />
		<tag k="natural" v="wetland" />
		<tag k="ssr:stedsnr" v="710887" />
	</node>
	<node id="-362238" lat="58.5473083297" lon="7.54780278022">
		<tag k="name" v="Osuvslåtta" />
		<tag k="natural" v="wetland" />
		<tag k="ssr:stedsnr" v="710886" />
	</node>
	<node id="-361770" lat="58.5193611123" lon="7.37047222065">
		<tag k="name" v="Utålmyra" />
		<tag k="natural" v="wetland" />
		<tag k="ssr:stedsnr" v="589813" />
	</node>
	<node id="-360186" lat="58.5132361123" lon="7.49420833173">
		<tag k="name" v="Gilmyran" />
		<tag k="natural" v="wetland" />
		<tag k="ssr:stedsnr" v="43804" />
	</node>
	<node id="-360185" lat="58.5378777751" lon="7.45865555743">
		<tag k="name" v="Storemohommen" />
		<tag k="natural" v="wetland" />
		<tag k="ssr:stedsnr" v="43897" />
	</node>
	<node id="-360167" lat="58.6305722202" lon="7.31578054767">
		<tag k="name" v="Gomoskjerret" />
		<tag k="natural" v="wetland" />
		<tag k="ssr:stedsnr" v="43425" />
	</node>
	<node id="-362211" lat="58.6442027766" lon="7.41077777391">
		<tag k="name" v="Løkemyræ" />
		<tag k="natural" v="wetland" />
		<tag k="ssr:stedsnr" v="710532" />
	</node>
	<node id="-360158" lat="58.6858249996" lon="7.35093333315">
		<tag k="name" v="Stean" />
		<tag k="natural" v="wetland" />
		<tag k="ssr:stedsnr" v="43353" />
	</node>
	<node id="-360140" lat="58.6167805511" lon="7.39626110916">
		<tag k="name" v="Åsestean" />
		<tag k="natural" v="wetland" />
		<tag k="ssr:stedsnr" v="43344" />
	</node>
	<node id="-362185" lat="58.6794055566" lon="7.49336943912">
		<tag k="name" v="Mæ Tjønnin" />
		<tag k="natural" v="wetland" />
		<tag k="ssr:stedsnr" v="710357" />
	</node>
	<node id="-362181" lat="58.6864749989" lon="7.54186665833">
		<tag k="name" v="Lokkslåttå" />
		<tag k="natural" v="wetland" />
		<tag k="ssr:stedsnr" v="710333" />
	</node>
	<node id="-362176" lat="58.66298056" lon="7.34373610309">
		<tag k="name" v="Grøæ" />
		<tag k="natural" v="wetland" />
		<tag k="ssr:stedsnr" v="710292" />
	</node>
	<node id="-360127" lat="58.5783444462" lon="7.41280277061">
		<tag k="name" v="Kjørra" />
		<tag k="natural" v="wetland" />
		<tag k="ssr:stedsnr" v="43098" />
	</node>
	<node id="-360125" lat="58.7549194438" lon="7.56338888434">
		<tag k="name" v="Fænmyr" />
		<tag k="natural" v="wetland" />
		<tag k="ssr:stedsnr" v="43096" />
	</node>
	<node id="-360124" lat="58.7283194484" lon="7.63554444128">
		<tag k="name" v="Lunsemyræ" />
		<tag k="natural" v="wetland" />
		<tag k="ssr:stedsnr" v="43088" />
	</node>
	<node id="-360120" lat="58.7099888876" lon="7.62201389239">
		<tag k="name" v="Øvre Kjeddin" />
		<tag k="natural" v="wetland" />
		<tag k="ssr:stedsnr" v="43082" />
	</node>
	<node id="-362165" lat="58.5856527758" lon="7.44265277381">
		<tag k="name" v="Åksla" />
		<tag k="natural" v="wetland" />
		<tag k="ssr:stedsnr" v="710228" />
	</node>
	<node id="-362159" lat="58.7476055525" lon="7.54561667167">
		<tag k="name" v="Myrdalen" />
		<tag k="natural" v="wetland" />
		<tag k="ssr:stedsnr" v="710215" />
	</node>
	<node id="-362152" lat="58.6803055553" lon="7.31299444966">
		<tag k="name" v="Stedjan" />
		<tag k="natural" v="wetland" />
		<tag k="ssr:stedsnr" v="710173" />
	</node>
	<node id="-362149" lat="58.5980444412" lon="7.56878889572">
		<tag k="name" v="Øvre Myran" />
		<tag k="natural" v="wetland" />
		<tag k="ssr:stedsnr" v="710162" />
	</node>
	<node id="-360090" lat="58.5687250041" lon="7.51190277814">
		<tag k="name" v="Fiskelausmyra" />
		<tag k="natural" v="wetland" />
		<tag k="ssr:stedsnr" v="43006" />
	</node>
	<node id="-360089" lat="58.5635305537" lon="7.51923333634">
		<tag k="name" v="Bjønnskvæven" />
		<tag k="natural" v="wetland" />
		<tag k="ssr:stedsnr" v="43004" />
	</node>
	<node id="-360086" lat="58.7749944451" lon="7.3351361131">
		<tag k="name" v="Hedderstakkslåtå" />
		<tag k="natural" v="wetland" />
		<tag k="ssr:stedsnr" v="42882" />
	</node>
	<node id="-362128" lat="58.7921944428" lon="7.47638888898">
		<tag k="name" v="Bæktarholå" />
		<tag k="natural" v="wetland" />
		<tag k="ssr:stedsnr" v="706738" />
	</node>
	<node id="-360072" lat="58.5600361082" lon="7.29221666699">
		<tag k="name" v="Halvorsslåttå" />
		<tag k="natural" v="wetland" />
		<tag k="ssr:stedsnr" v="42383" />
	</node>
	<node id="-360069" lat="58.6973611125" lon="7.51441944952">
		<tag k="name" v="Kileslåttå" />
		<tag k="natural" v="wetland" />
		<tag k="ssr:stedsnr" v="42241" />
	</node>
	<node id="-360068" lat="58.8251027791" lon="7.34087221978">
		<tag k="name" v="Hakkeslåtton" />
		<tag k="natural" v="wetland" />
		<tag k="ssr:stedsnr" v="42236" />
	</node>
	<node id="-362115" lat="58.8418666703" lon="7.35248888835">
		<tag k="name" v="Dyplemyran" />
		<tag k="natural" v="wetland" />
		<tag k="ssr:stedsnr" v="706113" />
	</node>
	<node id="-362113" lat="58.8347777802" lon="7.45887222989">
		<tag k="name" v="Strondeslåttå" />
		<tag k="natural" v="wetland" />
		<tag k="ssr:stedsnr" v="705644" />
	</node>
	<node id="-360063" lat="58.6987722263" lon="7.4961000059">
		<tag k="name" v="Viemyran" />
		<tag k="natural" v="wetland" />
		<tag k="ssr:stedsnr" v="42250" />
	</node>
	<node id="-362108" lat="58.8186000034" lon="7.42840833951">
		<tag k="name" v="Skrubbehomsteæ" />
		<tag k="natural" v="wetland" />
		<tag k="ssr:stedsnr" v="705201" />
	</node>
	<node id="-362106" lat="58.8264111119" lon="7.42242777499">
		<tag k="name" v="Storehommen" />
		<tag k="natural" v="wetland" />
		<tag k="ssr:stedsnr" v="705179" />
	</node>
	<node id="-361407" lat="58.5597611108" lon="7.34873333652">
		<tag k="name" v="Med Hytta" />
		<tag k="natural" v="wetland" />
		<tag k="ssr:stedsnr" v="528117" />
	</node>
	<node id="-362097" lat="58.7844750023" lon="7.56460834167">
		<tag k="alt_name" v="Skrubbestean" />
		<tag k="name" v="Skrubbemyrane" />
		<tag k="natural" v="wetland" />
		<tag k="ssr:stedsnr" v="668571" />
	</node>
	<node id="-360048" lat="58.776147221" lon="7.4848333325">
		<tag k="name" v="Stedjan" />
		<tag k="natural" v="wetland" />
		<tag k="ssr:stedsnr" v="38789" />
	</node>
	<node id="-362095" lat="58.8182749979" lon="7.45697499439">
		<tag k="historic" v="shieling" />
		<tag k="name" v="Berge" />
		<tag k="place" v="locality" />
		<tag k="ssr:stedsnr" v="668518" />
	</node>
	<node id="-360044" lat="58.8192694441" lon="7.50179999504">
		<tag k="name" v="Hattefurslåttun" />
		<tag k="natural" v="wetland" />
		<tag k="ssr:stedsnr" v="38726" />
	</node>
	<node id="-360035" lat="58.8093111088" lon="7.48755278339">
		<tag k="name" v="Viamyræ" />
		<tag k="natural" v="wetland" />
		<tag k="ssr:stedsnr" v="38379" />
	</node>
	<node id="-362061" lat="58.5316555538" lon="7.35373610682">
		<tag k="alt_name" v="Djupemyri" />
		<tag k="name" v="Djupmyr" />
		<tag k="natural" v="wetland" />
		<tag k="ssr:stedsnr" v="667969" />
	</node>
	<node id="-362043" lat="58.5079611114" lon="7.45464166291">
		<tag k="name" v="Takemyr" />
		<tag k="natural" v="wetland" />
		<tag k="ssr:stedsnr" v="650809" />
	</node>
	<node id="-362042" lat="58.5095694454" lon="7.45703611831">
		<tag k="name" v="Bjønnekjerran" />
		<tag k="natural" v="wetland" />
		<tag k="ssr:stedsnr" v="650808" />
	</node>
	<node id="-362038" lat="58.5878833325" lon="7.43961944898">
		<tag k="name" v="Staven" />
		<tag k="natural" v="wetland" />
		<tag k="ssr:stedsnr" v="650219" />
	</node>
	<node id="-359986" lat="58.7671833327" lon="7.55378333318">
		<tag k="alt_name" v="Voremyri" />
		<tag k="name" v="Voremyræ" />
		<tag k="natural" v="wetland" />
		<tag k="ssr:stedsnr" v="561" />
	</node>
	<node id="-362023" lat="58.7223055537" lon="7.55421945301">
		<tag k="name" v="Langevodd" />
		<tag k="place" v="locality" />
		<tag k="ssr:stedsnr" v="649924" />
	</node>
	<node id="-362020" lat="58.5232926774" lon="7.35430674863">
		<tag k="name" v="Urefita" />
		<tag k="natural" v="wetland" />
		<tag k="ssr:stedsnr" v="649910" />
	</node>
	<node id="-362017" lat="58.5298916686" lon="7.38271666658">
		<tag k="name" v="Krossmyr" />
		<tag k="natural" v="wetland" />
		<tag k="ssr:stedsnr" v="649902" />
	</node>
	<node id="-362012" lat="58.5384277795" lon="7.51903056179">
		<tag k="name" v="Gisleslåtta" />
		<tag k="natural" v="wetland" />
		<tag k="ssr:stedsnr" v="649894" />
	</node>
	<node id="-362010" lat="58.7234444424" lon="7.45954721567">
		<tag k="name" v="Tjorret" />
		<tag k="natural" v="wetland" />
		<tag k="ssr:stedsnr" v="649892" />
	</node>
	<node id="-362003" lat="58.5175111133" lon="7.48182777789">
		<tag k="name" v="Nordåsstean" />
		<tag k="natural" v="wetland" />
		<tag k="ssr:stedsnr" v="649881" />
	</node>
	<node id="-362001" lat="58.772963887" lon="7.31763611251">
		<tag k="name" v="Upsetjønnmyran" />
		<tag k="natural" v="wetland" />
		<tag k="ssr:stedsnr" v="649878" />
	</node>
	<node id="-361996" lat="58.5289749976" lon="7.48297500787">
		<tag k="name" v="Diplemyr" />
		<tag k="natural" v="wetland" />
		<tag k="ssr:stedsnr" v="649863" />
	</node>
	<node id="-361994" lat="58.515522219" lon="7.41971110888">
		<tag k="name" v="Stakksmyr" />
		<tag k="natural" v="wetland" />
		<tag k="ssr:stedsnr" v="649853" />
	</node>
	<node id="-361992" lat="58.5293250032" lon="7.29034166341">
		<tag k="name" v="Fuglemyran" />
		<tag k="natural" v="wetland" />
		<tag k="ssr:stedsnr" v="649805" />
	</node>
	<node id="-361990" lat="58.5155027748" lon="7.51180556028">
		<tag k="name" v="Possmyr" />
		<tag k="natural" v="wetland" />
		<tag k="ssr:stedsnr" v="649769" />
	</node>
	<node id="-361985" lat="58.8109055519" lon="7.36294722432">
		<tag k="name" v="Selesteinen" />
		<tag k="natural" v="stone" />
		<tag k="ssr:stedsnr" v="649564" />
	</node>
	<node id="-359929" lat="58.7152055574" lon="7.43646944401">
		<tag k="name" v="Granhomstean" />
		<tag k="natural" v="wetland" />
		<tag k="ssr:stedsnr" v="893997" />
	</node>
	<node id="-359926" lat="58.7627277773" lon="7.48656388468">
		<tag k="name" v="Gråneholet" />
		<tag k="natural" v="wetland" />
		<tag k="ssr:stedsnr" v="893985" />
	</node>
	<node id="-361971" lat="58.5663222242" lon="7.32881111048">
		<tag k="name" v="Brakemyran" />
		<tag k="natural" v="wetland" />
		<tag k="ssr:stedsnr" v="649450" />
	</node>
	<node id="-359917" lat="58.7291666677" lon="7.54490555608">
		<tag k="name" v="Langefit" />
		<tag k="natural" v="wetland" />
		<tag k="ssr:stedsnr" v="893927" />
	</node>
	<node id="-361961" lat="58.6726407218" lon="7.43963217107">
		<tag k="name" v="Kålvekjerret" />
		<tag k="natural" v="wetland" />
		<tag k="ssr:stedsnr" v="649378" />
	</node>
	<node id="-359907" lat="58.7129888917" lon="7.43400833781">
		<tag k="name" v="Urægrå" />
		<tag k="natural" v="scree" />
		<tag k="ssr:stedsnr" v="893892" />
	</node>
	<node id="-361948" lat="58.6032083311" lon="7.46923889411">
		<tag k="name" v="Konnåkren" />
		<tag k="natural" v="wetland" />
		<tag k="ssr:stedsnr" v="649315" />
	</node>
	<node id="-359894" lat="58.5016666701" lon="7.408530556">
		<tag k="name" v="Bjønnemyr" />
		<tag k="natural" v="wetland" />
		<tag k="ssr:stedsnr" v="893793" />
	</node>
	<node id="-361941" lat="58.6143583326" lon="7.54087499269">
		<tag k="name" v="Tjønneslåtten" />
		<tag k="natural" v="wetland" />
		<tag k="ssr:stedsnr" v="649277" />
	</node>
	<node id="-359890" lat="58.828088887" lon="7.17302499157">
		<tag k="name" v="Kaffisteinen" />
		<tag k="natural" v="stone" />
		<tag k="ssr:stedsnr" v="893644" />
	</node>
	<node id="-359888" lat="58.6331361118" lon="7.49539722735">
		<tag k="name" v="Venaslåttå" />
		<tag k="natural" v="wetland" />
		<tag k="ssr:stedsnr" v="893510" />
	</node>
	<node id="-359883" lat="58.6477249989" lon="7.37505834199">
		<tag k="name" v="Helgaslåttå" />
		<tag k="natural" v="wetland" />
		<tag k="ssr:stedsnr" v="893491" />
	</node>
	<node id="-359877" lat="58.635036115" lon="7.31290556071">
		<tag k="name" v="Kitelsmyræ" />
		<tag k="natural" v="wetland" />
		<tag k="ssr:stedsnr" v="893428" />
	</node>
	<node id="-359873" lat="58.5830388909" lon="7.32961388315">
		<tag k="name" v="Viemyran" />
		<tag k="natural" v="wetland" />
		<tag k="ssr:stedsnr" v="893397" />
	</node>
	<node id="-361919" lat="58.5837444442" lon="7.52218888538">
		<tag k="name" v="Egsåstøa" />
		<tag k="natural" v="wetland" />
		<tag k="ssr:stedsnr" v="649171" />
	</node>
	<node id="-359854" lat="58.74456667" lon="7.49171388085">
		<tag k="name" v="Kvistellmyræ" />
		<tag k="natural" v="wetland" />
		<tag k="ssr:stedsnr" v="893236" />
	</node>
	<node id="-359852" lat="58.7567805595" lon="7.65455554835">
		<tag k="name" v="Viemyræ" />
		<tag k="natural" v="wetland" />
		<tag k="ssr:stedsnr" v="893195" />
	</node>
	<node id="-361899" lat="58.6990499975" lon="7.2820555624">
		<tag k="name" v="Signesdalslegå" />
		<tag k="natural" v="wetland" />
		<tag k="ssr:stedsnr" v="649067" />
	</node>
	<node id="-359849" lat="58.7453777807" lon="7.42289722391">
		<tag k="name" v="Valbørslåttun" />
		<tag k="natural" v="wetland" />
		<tag k="ssr:stedsnr" v="893155" />
	</node>
	<node id="-361887" lat="58.5604888879" lon="7.51666388966">
		<tag k="name" v="Tverrmyran" />
		<tag k="natural" v="wetland" />
		<tag k="ssr:stedsnr" v="649002" />
	</node>
	<node id="-361883" lat="58.8643999983" lon="7.45943055613">
		<tag k="name" v="Finndalslønan" />
		<tag k="natural" v="wetland" />
		<tag k="ssr:stedsnr" v="645779" />
	</node>
	<node id="-361880" lat="58.7762861083" lon="7.49053334044">
		<tag k="name" v="Klovne steinen" />
		<tag k="natural" v="stone" />
		<tag k="ssr:stedsnr" v="645716" />
	</node>
	<node id="-359831" lat="58.561697218" lon="7.52694166595">
		<tag k="name" v="Munkesteinen" />
		<tag k="natural" v="stone" />
		<tag k="ssr:stedsnr" v="893007" />
	</node>
	<node id="-361878" lat="58.7776583371" lon="7.47495555793">
		<tag k="name" v="Bukseslåttå" />
		<tag k="natural" v="wetland" />
		<tag k="ssr:stedsnr" v="645670" />
	</node>
	<node id="-359826" lat="58.7770138904" lon="7.33291389666">
		<tag k="name" v="Øvraørnefjeddstakkslåttå" />
		<tag k="natural" v="wetland" />
		<tag k="ssr:stedsnr" v="892859" />
	</node>
	<node id="-361870" lat="58.8515000016" lon="7.51913332784">
		<tag k="name" v="Gamleøygard" />
		<tag k="natural" v="wetland" />
		<tag k="ssr:stedsnr" v="644765" />
	</node>
	<node id="-359821" lat="58.7851277749" lon="7.55613611861">
		<tag k="name" v="Synnemyræ" />
		<tag k="natural" v="wetland" />
		<tag k="ssr:stedsnr" v="892837" />
	</node>
	<node id="-361865" lat="58.8148388859" lon="7.41904444813">
		<tag k="name" v="Vene hommen" />
		<tag k="natural" v="wetland" />
		<tag k="ssr:stedsnr" v="644324" />
	</node>
	<node id="-359815" lat="58.8068361114" lon="7.36156389493">
		<tag k="name" v="Finnvodd" />
		<tag k="natural" v="wetland" />
		<tag k="ssr:stedsnr" v="892512" />
	</node>
	<node id="-361862" lat="58.8183444405" lon="7.42415834078">
		<tag k="name" v="Stora Steæ" />
		<tag k="natural" v="wetland" />
		<tag k="ssr:stedsnr" v="644179" />
	</node>
	<node id="-361861" lat="58.8574861107" lon="7.35772499191">
		<tag k="name" v="Storaslåttå" />
		<tag k="natural" v="wetland" />
		<tag k="ssr:stedsnr" v="645152" />
	</node>
	<node id="-359804" lat="58.557661114" lon="7.30325000069">
		<tag k="name" v="Heddersmyræ" />
		<tag k="natural" v="wetland" />
		<tag k="ssr:stedsnr" v="892343" />
	</node>
	<node id="-359794" lat="58.8228833378" lon="7.34173333484">
		<tag k="name" v="Byteslåttå" />
		<tag k="natural" v="wetland" />
		<tag k="ssr:stedsnr" v="892224" />
	</node>
	<node id="-359788" lat="58.7771916637" lon="7.59297778326">
		<tag k="name" v="Gunnarskjarret" />
		<tag k="natural" v="wetland" />
		<tag k="ssr:stedsnr" v="892168" />
	</node>
	<node id="-359779" lat="58.7873694474" lon="7.47995832806">
		<tag k="name" v="Stedjan" />
		<tag k="natural" v="wetland" />
		<tag k="ssr:stedsnr" v="888732" />
	</node>
	<node id="-359777" lat="58.7812027775" lon="7.537902781">
		<tag k="name" v="Røyrtjønnslåttå" />
		<tag k="natural" v="wetland" />
		<tag k="ssr:stedsnr" v="888685" />
	</node>
	<node id="-360187" lat="58.5503972192" lon="7.28001111133">
		<tag k="name" v="Heimre Knupen" />
		<tag k="natural" v="wetland" />
		<tag k="ssr:stedsnr" v="43803" />
	</node>
	<node id="-359765" lat="58.8204833345" lon="7.48409443644">
		<tag k="name" v="Hottemyræ" />
		<tag k="natural" v="wetland" />
		<tag k="ssr:stedsnr" v="888583" />
	</node>
	<node id="-359754" lat="58.837663891" lon="7.35219999919">
		<tag k="name" v="Møingen" />
		<tag k="natural" v="wetland" />
		<tag k="ssr:stedsnr" v="888100" />
	</node>
	<node id="-359744" lat="58.5912027809" lon="7.42008056368">
		<tag k="name" v="Johannamyra" />
		<tag k="natural" v="wetland" />
		<tag k="ssr:stedsnr" v="408243" />
	</node>
	<node id="-359737" lat="58.5481027752" lon="7.43502500623">
		<tag k="name" v="Tjønnemyr" />
		<tag k="natural" v="wetland" />
		<tag k="ssr:stedsnr" v="407971" />
	</node>
	<node id="-359736" lat="58.541380559" lon="7.44863611869">
		<tag k="name" v="Beinsmyr" />
		<tag k="natural" v="wetland" />
		<tag k="ssr:stedsnr" v="407969" />
	</node>
	<node id="-361780" lat="58.717336107" lon="7.45648055957">
		<tag k="name" v="Hareholrinnan" />
		<tag k="natural" v="wetland" />
		<tag k="ssr:stedsnr" v="589926" />
	</node>
	<node id="-361779" lat="58.7176444448" lon="7.46417222884">
		<tag k="name" v="Storasteæ" />
		<tag k="natural" v="wetland" />
		<tag k="ssr:stedsnr" v="589927" />
	</node>
	<node id="-361778" lat="58.7177555554" lon="7.49801388186">
		<tag k="name" v="Terekvæven" />
		<tag k="natural" v="wetland" />
		<tag k="ssr:stedsnr" v="589918" />
	</node>
	<node id="-361775" lat="58.5326166638" lon="7.4636361038">
		<tag k="name" v="Kringlemyr" />
		<tag k="natural" v="wetland" />
		<tag k="ssr:stedsnr" v="589889" />
	</node>
	<node id="-359725" lat="58.5531749991" lon="7.52939999982">
		<tag k="name" v="Finnan" />
		<tag k="natural" v="wetland" />
		<tag k="ssr:stedsnr" v="407898" />
	</node>
	<node id="-359722" lat="58.5402472256" lon="7.45697777268">
		<tag k="name" v="Tveitehomman" />
		<tag k="natural" v="wetland" />
		<tag k="ssr:stedsnr" v="407889" />
	</node>
	<node id="-359719" lat="58.5323333361" lon="7.51389444819">
		<tag k="name" v="Sløon" />
		<tag k="natural" v="wetland" />
		<tag k="ssr:stedsnr" v="407873" />
	</node>
	<node id="-361759" lat="58.6512277743" lon="7.40885833915">
		<tag k="name" v="Blodsteinen" />
		<tag k="natural" v="stone" />
		<tag k="ssr:stedsnr" v="589486" />
	</node>
	<node id="-361751" lat="58.6420666634" lon="7.43974999413">
		<tag k="name" v="Reinsfit" />
		<tag k="place" v="locality" />
		<tag k="ssr:stedsnr" v="589401" />
	</node>
	<node id="-359699" lat="58.807894443" lon="7.37269167371">
		<tag k="name" v="Stean" />
		<tag k="natural" v="wetland" />
		<tag k="ssr:stedsnr" v="407573" />
	</node>
	<node id="-359698" lat="58.7975222246" lon="7.34891666628">
		<tag k="name" v="Stakkslåttå" />
		<tag k="natural" v="wetland" />
		<tag k="ssr:stedsnr" v="407558" />
	</node>
	<node id="-361745" lat="58.677036111" lon="7.34107500192">
		<tag k="name" v="Drangedalstean" />
		<tag k="natural" v="wetland" />
		<tag k="ssr:stedsnr" v="589377" />
	</node>
	<node id="-359680" lat="58.6724194438" lon="7.48313889501">
		<tag k="name" v="Stormyræ" />
		<tag k="natural" v="wetland" />
		<tag k="ssr:stedsnr" v="407367" />
	</node>
	<node id="-359677" lat="58.6866722215" lon="7.59947222237">
		<tag k="name" v="Bjorstean" />
		<tag k="natural" v="wetland" />
		<tag k="ssr:stedsnr" v="407337" />
	</node>
	<node id="-361723" lat="58.7387111095" lon="7.61635833823">
		<tag k="name" v="Dekå" />
		<tag k="natural" v="wetland" />
		<tag k="ssr:stedsnr" v="589290" />
	</node>
	<node id="-361712" lat="58.5848194407" lon="7.36430834116">
		<tag k="name" v="Nedre Laurdagsholet" />
		<tag k="natural" v="wetland" />
		<tag k="ssr:stedsnr" v="589261" />
	</node>
	<node id="-361710" lat="58.5803277776" lon="7.40435832614">
		<tag k="name" v="Porsmyr" />
		<tag k="natural" v="wetland" />
		<tag k="ssr:stedsnr" v="589240" />
	</node>
	<node id="-361708" lat="58.746763889" lon="7.5071694522">
		<tag k="name" v="Åsemyran" />
		<tag k="natural" v="wetland" />
		<tag k="ssr:stedsnr" v="589232" />
	</node>
	<node id="-359659" lat="58.8049555588" lon="7.51861944115">
		<tag k="name" v="Bergeslåttun" />
		<tag k="natural" v="wetland" />
		<tag k="ssr:stedsnr" v="407204" />
	</node>
	<node id="-359653" lat="58.7203166631" lon="7.55754722625">
		<tag k="name" v="Veøy" />
		<tag k="place" v="locality" />
		<tag k="ssr:stedsnr" v="407133" />
	</node>
	<node id="-359648" lat="58.7547972255" lon="7.59091388677">
		<tag k="alt_name" v="Ausdalsøygard" />
		<tag k="name" v="Austdalsøygaard" />
		<tag k="natural" v="wetland" />
		<tag k="ssr:stedsnr" v="407112" />
	</node>
	<node id="-359647" lat="58.5637777772" lon="7.41676388827">
		<tag k="name" v="Markamyran" />
		<tag k="natural" v="wetland" />
		<tag k="ssr:stedsnr" v="407110" />
	</node>
	<node id="-361688" lat="58.5723194457" lon="7.49536667397">
		<tag k="name" v="Skogresmyr" />
		<tag k="natural" v="wetland" />
		<tag k="ssr:stedsnr" v="589077" />
	</node>
	<node id="-361686" lat="58.6900666666" lon="7.35603055778">
		<tag k="name" v="Persmannsslåttun" />
		<tag k="natural" v="wetland" />
		<tag k="ssr:stedsnr" v="589066" />
	</node>
	<node id="-359633" lat="58.5660000022" lon="7.51389722407">
		<tag k="name" v="Sløon" />
		<tag k="natural" v="wetland" />
		<tag k="ssr:stedsnr" v="407011" />
	</node>
	<node id="-361678" lat="58.5677027733" lon="7.53358332638">
		<tag k="name" v="Sollausmyra" />
		<tag k="natural" v="wetland" />
		<tag k="ssr:stedsnr" v="589012" />
	</node>
	<node id="-359627" lat="58.7711249958" lon="7.34645555075">
		<tag k="name" v="Urægrå" />
		<tag k="natural" v="scree" />
		<tag k="ssr:stedsnr" v="406924" />
	</node>
	<node id="-359617" lat="58.6307833375" lon="7.37520555235">
		<tag k="name" v="Gjyresteinen" />
		<tag k="natural" v="stone" />
		<tag k="ssr:stedsnr" v="406406" />
	</node>
	<node id="-359602" lat="58.5800472256" lon="7.48468333543">
		<tag k="name" v="Støylero" />
		<tag k="natural" v="wetland" />
		<tag k="ssr:stedsnr" v="406174" />
	</node>
	<node id="-359599" lat="58.5812694489" lon="7.57523332661">
		<tag k="name" v="Storestean" />
		<tag k="natural" v="wetland" />
		<tag k="ssr:stedsnr" v="406168" />
	</node>
	<node id="-361637" lat="58.8355638901" lon="7.36713888288">
		<tag k="name" v="Trættemyran" />
		<tag k="natural" v="wetland" />
		<tag k="ssr:stedsnr" v="588217" />
	</node>
	<node id="-361636" lat="58.8285999966" lon="7.3649527727">
		<tag k="name" v="Hedderskrønan" />
		<tag k="natural" v="wetland" />
		<tag k="ssr:stedsnr" v="588213" />
	</node>
	<node id="-359582" lat="58.8434611155" lon="7.45666666628">
		<tag k="name" v="Bergeslåttå" />
		<tag k="natural" v="wetland" />
		<tag k="ssr:stedsnr" v="402672" />
	</node>
	<node id="-359575" lat="58.8437972268" lon="7.33235555947">
		<tag k="name" v="Slækjå" />
		<tag k="natural" v="wetland" />
		<tag k="ssr:stedsnr" v="402175" />
	</node>
	<node id="-361665" lat="58.790458333" lon="7.43624166982">
		<tag k="name" v="Olavsslåttun" />
		<tag k="natural" v="wetland" />
		<tag k="ssr:stedsnr" v="588737" />
	</node>
	<node id="-360639" lat="58.7470833347" lon="7.56355834056">
		<tag k="name" v="Nosmannsholå" />
		<tag k="natural" v="wetland" />
		<tag k="ssr:stedsnr" v="164361" />
	</node>
	<node id="-359544" lat="58.7595083293" lon="7.58624444783">
		<tag k="alt_name" v="Skjevlhushommen" />
		<tag k="name" v="Skjevlushommen" />
		<tag k="natural" v="wetland" />
		<tag k="ssr:stedsnr" v="364605" />
	</node>
	<node id="-359493" lat="58.5875277819" lon="7.44765833231">
		<tag k="name" v="Bjønndalsmyra" />
		<tag k="natural" v="wetland" />
		<tag k="ssr:stedsnr" v="347226" />
	</node>
	<node id="-361540" lat="58.7184361111" lon="7.40386388518">
		<tag k="alt_name" v="Verurda" />
		<tag k="name" v="Verurfjellet" />
		<tag k="natural" v="scree" />
		<tag k="ssr:stedsnr" v="546016" />
	</node>
	<node id="-359489" lat="58.7260583351" lon="7.41352222481">
		<tag k="name" v="Rosselandsstean" />
		<tag k="natural" v="wetland" />
		<tag k="ssr:stedsnr" v="346985" />
	</node>
	<node id="-361533" lat="58.7635499987" lon="7.49108610771">
		<tag k="name" v="Via myræ" />
		<tag k="natural" v="wetland" />
		<tag k="ssr:stedsnr" v="528998" />
	</node>
	<node id="-361530" lat="58.5486083337" lon="7.44275832942">
		<tag k="name" v="Surtemyr" />
		<tag k="natural" v="wetland" />
		<tag k="ssr:stedsnr" v="528970" />
	</node>
	<node id="-361529" lat="58.537647219" lon="7.34318889355">
		<tag k="name" v="Storekleivmyra" />
		<tag k="natural" v="wetland" />
		<tag k="ssr:stedsnr" v="528956" />
	</node>
	<node id="-361526" lat="58.7655499971" lon="7.28606111415">
		<tag k="name" v="Stikebosslåttun" />
		<tag k="natural" v="wetland" />
		<tag k="ssr:stedsnr" v="528910" />
	</node>
	<node id="-359472" lat="58.5152555542" lon="7.46009444684">
		<tag k="name" v="Troddekjerran" />
		<tag k="natural" v="wetland" />
		<tag k="ssr:stedsnr" v="346872" />
	</node>
	<node id="-359470" lat="58.5342166658" lon="7.5125416661">
		<tag k="name" v="Tutreslåtta" />
		<tag k="natural" v="wetland" />
		<tag k="ssr:stedsnr" v="346862" />
	</node>
	<node id="-359469" lat="58.5346305566" lon="7.46016666874">
		<tag k="name" v="Fænmyran" />
		<tag k="natural" v="wetland" />
		<tag k="ssr:stedsnr" v="346859" />
	</node>
	<node id="-359460" lat="58.5280722241" lon="7.30694445156">
		<tag k="name" v="Soppekjerret" />
		<tag k="natural" v="wetland" />
		<tag k="ssr:stedsnr" v="346730" />
	</node>
	<node id="-361507" lat="58.5239777745" lon="7.4396444405">
		<tag k="name" v="Stimyr" />
		<tag k="natural" v="wetland" />
		<tag k="ssr:stedsnr" v="528806" />
	</node>
	<node id="-361505" lat="58.5116249955" lon="7.45346388803">
		<tag k="name" v="Krokstean" />
		<tag k="natural" v="wetland" />
		<tag k="ssr:stedsnr" v="528782" />
	</node>
	<node id="-359456" lat="58.7978250004" lon="7.5181388817">
		<tag k="name" v="Dyblemyran" />
		<tag k="natural" v="wetland" />
		<tag k="ssr:stedsnr" v="346693" />
	</node>
	<node id="-361497" lat="58.8237611123" lon="7.21777499587">
		<tag k="name" v="Ramnestein" />
		<tag k="natural" v="stone" />
		<tag k="ssr:stedsnr" v="528644" />
	</node>
	<node id="-361490" lat="58.664847218" lon="7.40526944333">
		<tag k="name" v="Kjeddingsteinen" />
		<tag k="natural" v="stone" />
		<tag k="ssr:stedsnr" v="528524" />
	</node>
	<node id="-359437" lat="58.6345500028" lon="7.3477361056">
		<tag k="name" v="Stedjan" />
		<tag k="natural" v="wetland" />
		<tag k="ssr:stedsnr" v="346415" />
	</node>
	<node id="-361472" lat="58.6773861096" lon="7.33765000869">
		<tag k="name" v="Smehomman" />
		<tag k="natural" v="wetland" />
		<tag k="ssr:stedsnr" v="528433" />
	</node>
	<node id="-359422" lat="58.6680944419" lon="7.46923889409">
		<tag k="name" v="Veihommen" />
		<tag k="natural" v="wetland" />
		<tag k="ssr:stedsnr" v="346308" />
	</node>
	<node id="-359416" lat="58.6033805588" lon="7.5304416593">
		<tag k="name" v="Buråsstean" />
		<tag k="natural" v="wetland" />
		<tag k="ssr:stedsnr" v="346278" />
	</node>
	<node id="-359415" lat="58.7976138884" lon="7.45592221979">
		<tag k="name" v="Holmeslåttun" />
		<tag k="natural" v="wetland" />
		<tag k="ssr:stedsnr" v="346276" />
	</node>
	<node id="-361460" lat="58.622825004" lon="7.54115277142">
		<tag k="name" v="Klovsteinen" />
		<tag k="natural" v="stone" />
		<tag k="ssr:stedsnr" v="528349" />
	</node>
	<node id="-361443" lat="58.7362138909" lon="7.58553889468">
		<tag k="name" v="Elgsskjelshomman" />
		<tag k="natural" v="wetland" />
		<tag k="ssr:stedsnr" v="528298" />
	</node>
	<node id="-361439" lat="58.8106666695" lon="7.28707222564">
		<tag k="name" v="Tonestorren" />
		<tag k="natural" v="wetland" />
		<tag k="ssr:stedsnr" v="528284" />
	</node>
	<node id="-359383" lat="58.5639555533" lon="7.40366666154">
		<tag k="name" v="Årogstein" />
		<tag k="natural" v="stone" />
		<tag k="ssr:stedsnr" v="346086" />
	</node>
	<node id="-359381" lat="58.7559555554" lon="7.62846667415">
		<tag k="name" v="Kjosevasskjarret" />
		<tag k="natural" v="wetland" />
		<tag k="ssr:stedsnr" v="346077" />
	</node>
	<node id="-361410" lat="58.5657722202" lon="7.36829999801">
		<tag k="name" v="Steinen" />
		<tag k="natural" v="stone" />
		<tag k="ssr:stedsnr" v="528158" />
	</node>
	<node id="-359359" lat="58.8361944436" lon="7.57728610779">
		<tag k="name" v="Vallhøyslåttå" />
		<tag k="natural" v="wetland" />
		<tag k="ssr:stedsnr" v="342671" />
	</node>
	<node id="-361402" lat="58.5584138878" lon="7.39878610932">
		<tag k="name" v="Torvemyr" />
		<tag k="natural" v="wetland" />
		<tag k="ssr:stedsnr" v="528088" />
	</node>
	<node id="-359350" lat="58.8024666655" lon="7.467988893">
		<tag k="name" v="Holman" />
		<tag k="place" v="locality" />
		<tag k="ssr:stedsnr" v="342346" />
	</node>
	<node id="-359330" lat="58.8357611101" lon="7.44095832919">
		<tag k="name" v="Piksteinen" />
		<tag k="natural" v="stone" />
		<tag k="ssr:stedsnr" v="341176" />
	</node>
	<node id="-361363" lat="58.8120611125" lon="7.4879138877">
		<tag k="name" v="Prestmyran" />
		<tag k="natural" v="wetland" />
		<tag k="ssr:stedsnr" v="524308" />
	</node>
	<node id="-361362" lat="58.8126277769" lon="7.45764722614">
		<tag k="name" v="Storemyr" />
		<tag k="natural" v="wetland" />
		<tag k="ssr:stedsnr" v="524302" />
	</node>
	<node id="-359308" lat="58.851888892" lon="7.47028334071">
		<tag k="alt_name" v="Hesthommen" />
		<tag k="name" v="Hestehommen" />
		<tag k="place" v="locality" />
		<tag k="ssr:stedsnr" v="304406" />
	</node>
	<node id="-361355" lat="58.7965250035" lon="7.43339445054">
		<tag k="name" v="Moltekjarrslåttå" />
		<tag k="natural" v="wetland" />
		<tag k="ssr:stedsnr" v="523384" />
	</node>
	<node id="-361351" lat="58.8189388881" lon="7.43180832625">
		<tag k="name" v="Stean" />
		<tag k="natural" v="wetland" />
		<tag k="ssr:stedsnr" v="523193" />
	</node>
	<node id="-361349" lat="58.8244916685" lon="7.45450832551">
		<tag k="name" v="Skinnarsmonen" />
		<tag k="natural" v="wetland" />
		<tag k="ssr:stedsnr" v="522533" />
	</node>
	<node id="-359291" lat="58.644952782" lon="7.4281861122">
		<tag k="name" v="Skorskog" />
		<tag k="place" v="locality" />
		<tag k="ssr:stedsnr" v="304162" />
	</node>
	<node id="-361327" lat="58.8614333365" lon="7.5021250016">
		<tag k="name" v="Storhommen" />
		<tag k="place" v="locality" />
		<tag k="ssr:stedsnr" v="486434" />
	</node>
	<node id="-359253" lat="58.5509222239" lon="7.39839722412">
		<tag k="name" v="Prestestean" />
		<tag k="natural" v="wetland" />
		<tag k="ssr:stedsnr" v="286974" />
	</node>
	<node id="-359250" lat="58.5705083336" lon="7.56731944971">
		<tag k="name" v="Bortemyr" />
		<tag k="natural" v="wetland" />
		<tag k="ssr:stedsnr" v="286956" />
	</node>
	<node id="-361955" lat="58.7408472261" lon="7.60308055451">
		<tag k="name" v="Krokstean" />
		<tag k="natural" v="wetland" />
		<tag k="ssr:stedsnr" v="649332" />
	</node>
	<node id="-359248" lat="58.5294745812" lon="7.43482625404">
		<tag k="name" v="Kjerret" />
		<tag k="natural" v="wetland" />
		<tag k="ssr:stedsnr" v="286948" />
	</node>
	<node id="-359245" lat="58.5240611103" lon="7.36844723052">
		<tag k="name" v="Rullanmyran" />
		<tag k="natural" v="wetland" />
		<tag k="ssr:stedsnr" v="286930" />
	</node>
	<node id="-361284" lat="58.7312222237" lon="7.53929444481">
		<tag k="alt_name" v="Karfit" />
		<tag k="name" v="Karfitmyræ" />
		<tag k="natural" v="wetland" />
		<tag k="ssr:stedsnr" v="485029" />
	</node>
	<node id="-359232" lat="58.6535972238" lon="7.40749999208">
		<tag k="name" v="Skaddøynan" />
		<tag k="place" v="locality" />
		<tag k="ssr:stedsnr" v="286513" />
	</node>
	<node id="-359220" lat="58.6343305529" lon="7.2961583331">
		<tag k="name" v="Med tjønnin" />
		<tag k="natural" v="wetland" />
		<tag k="ssr:stedsnr" v="286446" />
	</node>
	<node id="-359217" lat="58.6390222214" lon="7.43955832665">
		<tag k="name" v="Kjyddingmonen" />
		<tag k="place" v="locality" />
		<tag k="ssr:stedsnr" v="286416" />
	</node>
	<node id="-359213" lat="58.6715750006" lon="7.36998888668">
		<tag k="name" v="Saupkjarret" />
		<tag k="natural" v="wetland" />
		<tag k="ssr:stedsnr" v="286365" />
	</node>
	<node id="-359211" lat="58.6863561777" lon="7.4572678875">
		<tag k="name" v="Langaslåttå" />
		<tag k="natural" v="wetland" />
		<tag k="ssr:stedsnr" v="286350" />
	</node>
	<node id="-359210" lat="58.6214500018" lon="7.47024166289">
		<tag k="name" v="Nordre Holon" />
		<tag k="natural" v="wetland" />
		<tag k="ssr:stedsnr" v="286347" />
	</node>
	<node id="-359900" lat="58.524974998" lon="7.41333889364">
		<tag k="name" v="Setan" />
		<tag k="natural" v="wetland" />
		<tag k="ssr:stedsnr" v="893854" />
	</node>
	<node id="-361249" lat="58.5771388879" lon="7.26192500431">
		<tag k="name" v="Bjønnvassmyra" />
		<tag k="natural" v="wetland" />
		<tag k="ssr:stedsnr" v="468694" />
	</node>
	<node id="-359196" lat="58.7490999972" lon="7.62586944272">
		<tag k="name" v="Stasvassmyran" />
		<tag k="natural" v="wetland" />
		<tag k="ssr:stedsnr" v="286264" />
	</node>
	<node id="-359193" lat="58.5836055601" lon="7.35866945038">
		<tag k="name" v="Tvistakkslåtta" />
		<tag k="natural" v="wetland" />
		<tag k="ssr:stedsnr" v="286248" />
	</node>
	<node id="-359185" lat="58.7488888858" lon="7.37358333501">
		<tag k="name" v="Tjønnebu" />
		<tag k="natural" v="wetland" />
		<tag k="ssr:stedsnr" v="286184" />
	</node>
	<node id="-361232" lat="58.6712583378" lon="7.49780277907">
		<tag k="name" v="Væting" />
		<tag k="natural" v="wetland" />
		<tag k="ssr:stedsnr" v="468268" />
	</node>
	<node id="-359181" lat="58.7596055563" lon="7.57314444174">
		<tag k="name" v="Livskjarret" />
		<tag k="natural" v="wetland" />
		<tag k="ssr:stedsnr" v="286138" />
	</node>
	<node id="-359177" lat="58.5678611112" lon="7.44804722509">
		<tag k="name" v="Kjørren" />
		<tag k="natural" v="wetland" />
		<tag k="ssr:stedsnr" v="286116" />
	</node>
	<node id="-361220" lat="58.5949222254" lon="7.46701389526">
		<tag k="name" v="Vårslåtta" />
		<tag k="natural" v="wetland" />
		<tag k="ssr:stedsnr" v="468196" />
	</node>
	<node id="-361218" lat="58.5952083304" lon="7.47565832784">
		<tag k="name" v="Homman" />
		<tag k="natural" v="wetland" />
		<tag k="ssr:stedsnr" v="468191" />
	</node>
	<node id="-361258" lat="58.5513749983" lon="7.51015555719">
		<tag k="name" v="Myran" />
		<tag k="natural" v="wetland" />
		<tag k="ssr:stedsnr" v="468881" />
	</node>
	<node id="-359160" lat="58.5764305586" lon="7.545780554">
		<tag k="name" v="Storemyr" />
		<tag k="natural" v="wetland" />
		<tag k="ssr:stedsnr" v="286027" />
	</node>
	<node id="-359159" lat="58.7698861111" lon="7.53176666059">
		<tag k="name" v="Poddekjørr" />
		<tag k="natural" v="wetland" />
		<tag k="ssr:stedsnr" v="286024" />
	</node>
	<node id="-359156" lat="58.6875916669" lon="7.44549722465">
		<tag k="name" v="Byklumsøygard" />
		<tag k="natural" v="wetland" />
		<tag k="ssr:stedsnr" v="286014" />
	</node>
	<node id="-361203" lat="58.5745305543" lon="7.45046388554">
		<tag k="name" v="Linjord" />
		<tag k="natural" v="wetland" />
		<tag k="ssr:stedsnr" v="468077" />
	</node>
	<node id="-359149" lat="58.7913055519" lon="7.56589999356">
		<tag k="name" v="Ryseholet" />
		<tag k="natural" v="wetland" />
		<tag k="ssr:stedsnr" v="285844" />
	</node>
	<node id="-361196" lat="58.567297224" lon="7.49238333394">
		<tag k="name" v="Årlimyran" />
		<tag k="natural" v="wetland" />
		<tag k="ssr:stedsnr" v="468059" />
	</node>
	<node id="-359207" lat="58.6194166657" lon="7.44618333343">
		<tag k="name" v="Fæna" />
		<tag k="natural" v="wetland" />
		<tag k="ssr:stedsnr" v="286330" />
	</node>
	<node id="-361184" lat="58.757755552" lon="7.34718333955">
		<tag k="name" v="Pikstein" />
		<tag k="natural" v="stone" />
		<tag k="ssr:stedsnr" v="467928" />
	</node>
	<node id="-359133" lat="58.5573888864" lon="7.31251943861">
		<tag k="name" v="Hottemyræ" />
		<tag k="natural" v="wetland" />
		<tag k="ssr:stedsnr" v="285362" />
	</node>
	<node id="-361176" lat="58.6218833292" lon="7.47551389106">
		<tag k="name" v="Tjønneslåtton" />
		<tag k="natural" v="wetland" />
		<tag k="ssr:stedsnr" v="468307" />
	</node>
	<node id="-361172" lat="58.5006888874" lon="7.44835278363">
		<tag k="name" v="Langemyr" />
		<tag k="natural" v="wetland" />
		<tag k="ssr:stedsnr" v="467788" />
	</node>
	<node id="-359122" lat="58.5060833333" lon="7.40501111881">
		<tag k="name" v="Hønelandsmyr" />
		<tag k="natural" v="wetland" />
		<tag k="ssr:stedsnr" v="286803" />
	</node>
	<node id="-361169" lat="58.7798555515" lon="7.43030832954">
		<tag k="name" v="Stean" />
		<tag k="natural" v="wetland" />
		<tag k="ssr:stedsnr" v="467734" />
	</node>
	<node id="-361166" lat="58.8128277809" lon="7.56907500004">
		<tag k="name" v="Ålsvarstean" />
		<tag k="natural" v="wetland" />
		<tag k="ssr:stedsnr" v="467649" />
	</node>
	<node id="-359115" lat="58.8160722265" lon="7.34886388364">
		<tag k="name" v="Bliksteinan" />
		<tag k="natural" v="stone" />
		<tag k="ssr:stedsnr" v="285248" />
	</node>
	<node id="-361158" lat="58.7964999997" lon="7.4797194399">
		<tag k="name" v="Surtemyræ" />
		<tag k="natural" v="wetland" />
		<tag k="ssr:stedsnr" v="467286" />
	</node>
	<node id="-359105" lat="58.7776416693" lon="7.48825000015">
		<tag k="name" v="Bergeslåttå" />
		<tag k="natural" v="wetland" />
		<tag k="ssr:stedsnr" v="281775" />
	</node>
	<node id="-361137" lat="58.8741083304" lon="7.4613722147">
		<tag k="name" v="Hesteslåttun" />
		<tag k="natural" v="wetland" />
		<tag k="ssr:stedsnr" v="463805" />
	</node>
	<node id="-359088" lat="58.780119441" lon="7.51163333607">
		<tag k="name" v="Grå Uræ" />
		<tag k="natural" v="scree" />
		<tag k="ssr:stedsnr" v="281305" />
	</node>
	<node id="-361134" lat="58.7892472207" lon="7.48388610797">
		<tag k="name" v="Kalvemyran" />
		<tag k="natural" v="wetland" />
		<tag k="ssr:stedsnr" v="463757" />
	</node>
	<node id="-361128" lat="58.8500583354" lon="7.43433055103">
		<tag k="name" v="Myrslåttun" />
		<tag k="natural" v="wetland" />
		<tag k="ssr:stedsnr" v="463650" />
	</node>
	<node id="-361127" lat="58.8368638874" lon="7.46205556217">
		<tag k="name" v="Kleiveslåttå" />
		<tag k="natural" v="wetland" />
		<tag k="ssr:stedsnr" v="463547" />
	</node>
	<node id="-361255" lat="58.5283305536" lon="7.41335000671">
		<tag k="name" v="Kilan" />
		<tag k="place" v="locality" />
		<tag k="ssr:stedsnr" v="468849" />
	</node>
	<node id="-361123" lat="58.8036250008" lon="7.42738611412">
		<tag k="name" v="Skothommen" />
		<tag k="natural" v="wetland" />
		<tag k="ssr:stedsnr" v="463321" />
	</node>
	<node id="-361119" lat="58.7794361102" lon="7.53680556248">
		<tag k="name" v="Myran" />
		<tag k="natural" v="wetland" />
		<tag k="ssr:stedsnr" v="463213" />
	</node>
	<node id="-361925" lat="58.6947500025" lon="7.5185722182">
		<tag k="name" v="Myrslåttå" />
		<tag k="natural" v="wetland" />
		<tag k="ssr:stedsnr" v="649221" />
	</node>
	<node id="-362414" lat="58.7865055558" lon="7.32660833776">
		<tag k="name" v="Normannsteinan" />
		<tag k="natural" v="stone" />
		<tag k="ssr:stedsnr" v="770851" />
	</node>
	<node id="-359412" lat="58.7969222255" lon="7.44597777511">
		<tag k="name" v="Nygreholå" />
		<tag k="natural" v="wetland" />
		<tag k="ssr:stedsnr" v="346271" />
	</node>
	<node id="-363082" lat="58.5273444431" lon="7.41584999872">
		<tag k="name" v="Bjormyr" />
		<tag k="natural" v="wetland" />
		<tag k="ssr:stedsnr" v="953848" />
	</node>
	<node id="-363077" lat="58.503147226" lon="7.41186945103">
		<tag k="name" v="Sjulkemyran" />
		<tag k="natural" v="wetland" />
		<tag k="ssr:stedsnr" v="953783" />
	</node>
	<node id="-363073" lat="58.5237222253" lon="7.33448888431">
		<tag k="name" v="Romekvæven" />
		<tag k="natural" v="wetland" />
		<tag k="ssr:stedsnr" v="953731" />
	</node>
	<node id="-363065" lat="58.805627779" lon="7.36313889218">
		<tag k="name" v="Bergevassmyræ" />
		<tag k="natural" v="wetland" />
		<tag k="ssr:stedsnr" v="953594" />
	</node>
	<node id="-363055" lat="58.6370499979" lon="7.51869999767">
		<tag k="name" v="Kringlemonslåttå" />
		<tag k="natural" v="wetland" />
		<tag k="ssr:stedsnr" v="953515" />
	</node>
	<node id="-363053" lat="58.6270722179" lon="7.47560278539">
		<tag k="name" v="Finneslåttå" />
		<tag k="natural" v="wetland" />
		<tag k="ssr:stedsnr" v="953492" />
	</node>
	<node id="-363045" lat="58.6029999999" lon="7.42116388395">
		<tag k="name" v="Kosmyr" />
		<tag k="natural" v="wetland" />
		<tag k="ssr:stedsnr" v="953376" />
	</node>
	<node id="-363043" lat="58.6145944483" lon="7.45944165957">
		<tag k="name" v="Spangreidholun" />
		<tag k="natural" v="wetland" />
		<tag k="ssr:stedsnr" v="953369" />
	</node>
	<node id="-363042" lat="58.6172638893" lon="7.47258889157">
		<tag k="name" v="Storemyr" />
		<tag k="natural" v="wetland" />
		<tag k="ssr:stedsnr" v="953364" />
	</node>
	<node id="-363037" lat="58.7503472213" lon="7.58581667415">
		<tag k="name" v="Kleggleithommen" />
		<tag k="natural" v="wetland" />
		<tag k="ssr:stedsnr" v="953330" />
	</node>
	<node id="-363036" lat="58.6116138913" lon="7.55658333283">
		<tag k="name" v="Fjelkebu" />
		<tag k="natural" v="wetland" />
		<tag k="ssr:stedsnr" v="953328" />
	</node>
	<node id="-360987" lat="58.514809466" lon="7.35938322838">
		<tag k="name" v="Sæsåsmyran" />
		<tag k="natural" v="wetland" />
		<tag k="ssr:stedsnr" v="225917" />
	</node>
	<node id="-360985" lat="58.5224861117" lon="7.37724722339">
		<tag k="name" v="Bjønnesteinen" />
		<tag k="natural" v="stone" />
		<tag k="ssr:stedsnr" v="225906" />
	</node>
	<node id="-360981" lat="58.7177027819" lon="7.48634721544">
		<tag k="name" v="Skarvemyran" />
		<tag k="natural" v="wetland" />
		<tag k="ssr:stedsnr" v="225887" />
	</node>
	<node id="-360979" lat="58.5510583371" lon="7.51739444735">
		<tag k="name" v="Lislekrikken" />
		<tag k="natural" v="wetland" />
		<tag k="ssr:stedsnr" v="225873" />
	</node>
	<node id="-360964" lat="58.5050222252" lon="7.44909444612">
		<tag k="name" v="Berkjålskvæven" />
		<tag k="natural" v="wetland" />
		<tag k="ssr:stedsnr" v="225788" />
	</node>
	<node id="-360960" lat="58.5166944457" lon="7.51565556079">
		<tag k="name" v="Mjålandsmyran" />
		<tag k="natural" v="wetland" />
		<tag k="ssr:stedsnr" v="225774" />
	</node>
	<node id="-360958" lat="58.7944444479" lon="7.42665555016">
		<tag k="name" v="Fjeddeslåttå" />
		<tag k="natural" v="wetland" />
		<tag k="ssr:stedsnr" v="225747" />
	</node>
	<node id="-361931" lat="58.6949611128" lon="7.45005833819">
		<tag k="name" v="Kjeddarmyrslåttå" />
		<tag k="natural" v="wetland" />
		<tag k="ssr:stedsnr" v="649252" />
	</node>
	<node id="-362991" lat="58.5862749963" lon="7.5673444484">
		<tag k="name" v="Trogetjønnmonen" />
		<tag k="place" v="locality" />
		<tag k="ssr:stedsnr" v="953151" />
	</node>
	<node id="-360935" lat="58.660516668" lon="7.46447500133">
		<tag k="name" v="Varemyr" />
		<tag k="natural" v="wetland" />
		<tag k="ssr:stedsnr" v="225483" />
	</node>
	<node id="-362977" lat="58.5624694473" lon="7.4863388898">
		<tag k="name" v="Riskjerr" />
		<tag k="natural" v="wetland" />
		<tag k="ssr:stedsnr" v="953033" />
	</node>
	<node id="-360927" lat="58.5879249959" lon="7.32250277081">
		<tag k="name" v="Hestedalsmyran" />
		<tag k="natural" v="wetland" />
		<tag k="ssr:stedsnr" v="225420" />
	</node>
	<node id="-362974" lat="58.6897027813" lon="7.43947500221">
		<tag k="name" v="Storrslettå" />
		<tag k="natural" v="wetland" />
		<tag k="ssr:stedsnr" v="953012" />
	</node>
	<node id="-360921" lat="58.6764722219" lon="7.37148333664">
		<tag k="name" v="Storeslåtten" />
		<tag k="natural" v="wetland" />
		<tag k="ssr:stedsnr" v="225386" />
	</node>
	<node id="-360915" lat="58.6185972184" lon="7.47434167053">
		<tag k="name" v="Smalestean" />
		<tag k="natural" v="wetland" />
		<tag k="ssr:stedsnr" v="225353" />
	</node>
	<node id="-360901" lat="58.8082722179" lon="7.45238333569">
		<tag k="name" v="Midtslåttun" />
		<tag k="natural" v="wetland" />
		<tag k="ssr:stedsnr" v="225279" />
	</node>
	<node id="-360898" lat="58.5854499986" lon="7.36238054756">
		<tag k="name" v="Øvre Laurdagsholet" />
		<tag k="natural" v="wetland" />
		<tag k="ssr:stedsnr" v="225271" />
	</node>
	<node id="-362945" lat="58.8453083342" lon="7.42100000672">
		<tag k="name" v="Skrubbeslåttun" />
		<tag k="natural" v="wetland" />
		<tag k="ssr:stedsnr" v="949627" />
	</node>
	<node id="-360881" lat="58.5676416663" lon="7.35168055403">
		<tag k="name" v="Gumuskjerret" />
		<tag k="natural" v="wetland" />
		<tag k="ssr:stedsnr" v="225146" />
	</node>
	<node id="-360878" lat="58.730141671" lon="7.57336944433">
		<tag k="name" v="Støylsogøygard" />
		<tag k="natural" v="wetland" />
		<tag k="ssr:stedsnr" v="225138" />
	</node>
	<node id="-360876" lat="58.7552944465" lon="7.57716666508">
		<tag k="name" v="Follehommen" />
		<tag k="natural" v="wetland" />
		<tag k="ssr:stedsnr" v="225131" />
	</node>
	<node id="-360875" lat="58.5734555561" lon="7.4458527842">
		<tag k="name" v="Svartedypelen" />
		<tag k="natural" v="wetland" />
		<tag k="ssr:stedsnr" v="225128" />
	</node>
	<node id="-362916" lat="58.7759972259" lon="7.56000278461">
		<tag k="alt_name" v="Hestemyrane" />
		<tag k="name" v="Hestemyran" />
		<tag k="natural" v="wetland" />
		<tag k="ssr:stedsnr" v="911566" />
	</node>
	<node id="-360857" lat="58.7643583319" lon="7.50696666595">
		<tag k="name" v="Hesteneset" />
		<tag k="place" v="locality" />
		<tag k="ssr:stedsnr" v="225035" />
	</node>
	<node id="-361197" lat="58.6919416666" lon="7.35357778157">
		<tag k="name" v="Såslåttun" />
		<tag k="natural" v="wetland" />
		<tag k="ssr:stedsnr" v="468064" />
	</node>
	<node id="-360839" lat="58.5626416697" lon="7.50855000038">
		<tag k="name" v="Heddebekkslåtten" />
		<tag k="natural" v="wetland" />
		<tag k="ssr:stedsnr" v="225006" />
	</node>
	<node id="-360835" lat="58.7823444489" lon="7.35699445284">
		<tag k="name" v="Myran" />
		<tag k="natural" v="wetland" />
		<tag k="ssr:stedsnr" v="224908" />
	</node>
	<node id="-362878" lat="58.5710249958" lon="7.42809444256">
		<tag k="alt_name" v="Storemyri" />
		<tag k="name" v="Storemyra" />
		<tag k="natural" v="wetland" />
		<tag k="ssr:stedsnr" v="910766" />
	</node>
	<node id="-360829" lat="58.6299111087" lon="7.37615833605">
		<tag k="name" v="Langamyræ" />
		<tag k="natural" v="wetland" />
		<tag k="ssr:stedsnr" v="224377" />
	</node>
	<node id="-360820" lat="58.627575002" lon="7.48311110961">
		<tag k="name" v="Stylkemyrhommen" />
		<tag k="natural" v="wetland" />
		<tag k="ssr:stedsnr" v="224434" />
	</node>
	<node id="-360818" lat="58.6564249995" lon="7.54578333093">
		<tag k="name" v="Hommen" />
		<tag k="natural" v="wetland" />
		<tag k="ssr:stedsnr" v="224403" />
	</node>
	<node id="-359485" lat="58.7242138898" lon="7.36088889142">
		<tag k="name" v="Slåtehommen" />
		<tag k="natural" v="wetland" />
		<tag k="ssr:stedsnr" v="346956" />
	</node>
	<node id="-361874" lat="58.7773055526" lon="7.52306110335">
		<tag k="name" v="Foleslåtten" />
		<tag k="natural" v="wetland" />
		<tag k="ssr:stedsnr" v="645383" />
	</node>
	<node id="-362856" lat="58.8158333297" lon="7.47531944268">
		<tag k="name" v="Austare Stedjan" />
		<tag k="natural" v="wetland" />
		<tag k="ssr:stedsnr" v="869970" />
	</node>
	<node id="-362855" lat="58.8102777777" lon="7.4659527759">
		<tag k="alt_name" v="Vestare Stedjan" />
		<tag k="name" v="Stedjan" />
		<tag k="natural" v="wetland" />
		<tag k="ssr:stedsnr" v="869967" />
	</node>
	<node id="-360804" lat="58.7847666654" lon="7.51646111563">
		<tag k="name" v="Nygård" />
		<tag k="natural" v="wetland" />
		<tag k="ssr:stedsnr" v="221234" />
	</node>
	<node id="-362850" lat="58.7947611127" lon="7.50745833391">
		<tag k="name" v="Bjøddehommen" />
		<tag k="place" v="locality" />
		<tag k="ssr:stedsnr" v="851508" />
	</node>
	<node id="-362847" lat="58.8547249982" lon="7.36362499579">
		<tag k="name" v="Skothommen" />
		<tag k="natural" v="wetland" />
		<tag k="ssr:stedsnr" v="851389" />
	</node>
	<node id="-360796" lat="58.8564944465" lon="7.35820278284">
		<tag k="name" v="Fyljemyrå" />
		<tag k="natural" v="wetland" />
		<tag k="ssr:stedsnr" v="220218" />
	</node>
	<node id="-360795" lat="58.849738889" lon="7.36573334092">
		<tag k="name" v="Laurdagsslåttå" />
		<tag k="natural" v="wetland" />
		<tag k="ssr:stedsnr" v="220212" />
	</node>
	<node id="-362793" lat="58.5543694432" lon="7.46347499337">
		<tag k="name" v="Holtet" />
		<tag k="place" v="locality" />
		<tag k="ssr:stedsnr" v="833000" />
	</node>
	<node id="-362783" lat="58.544894447" lon="7.3862694507">
		<tag k="name" v="Kjerran" />
		<tag k="natural" v="wetland" />
		<tag k="ssr:stedsnr" v="832942" />
	</node>
	<node id="-362782" lat="58.717358335" lon="7.52784444441">
		<tag k="name" v="Hellistean" />
		<tag k="natural" v="wetland" />
		<tag k="ssr:stedsnr" v="832924" />
	</node>
	<node id="-362777" lat="58.5270915686" lon="7.34585149007">
		<tag k="name" v="Bukstjønn" />
		<tag k="natural" v="wetland" />
		<tag k="ssr:stedsnr" v="832908" />
	</node>
	<node id="-361378" lat="58.6510833378" lon="7.37995556341">
		<tag k="name" v="Stakkesteinan" />
		<tag k="natural" v="stone" />
		<tag k="ssr:stedsnr" v="527489" />
	</node>
	<node id="-362769" lat="58.533333335" lon="7.45331666175">
		<tag k="name" v="Stakksmyr" />
		<tag k="natural" v="wetland" />
		<tag k="ssr:stedsnr" v="832861" />
	</node>
	<node id="-362764" lat="58.5301583365" lon="7.3050444394">
		<tag k="name" v="Videmyran" />
		<tag k="natural" v="wetland" />
		<tag k="ssr:stedsnr" v="832793" />
	</node>
	<node id="-362763" lat="58.5066361094" lon="7.4588277791">
		<tag k="name" v="Bladkjerran" />
		<tag k="natural" v="wetland" />
		<tag k="ssr:stedsnr" v="832792" />
	</node>
	<node id="-360706" lat="58.5484250009" lon="7.54683056218">
		<tag k="name" v="Lisle Osuvslåtta" />
		<tag k="natural" v="wetland" />
		<tag k="ssr:stedsnr" v="164902" />
	</node>
	<node id="-360703" lat="58.5226444459" lon="7.47016388913">
		<tag k="name" v="Djupe myr" />
		<tag k="natural" v="wetland" />
		<tag k="ssr:stedsnr" v="164879" />
	</node>
	<node id="-360701" lat="58.5355333367" lon="7.51575277626">
		<tag k="name" v="Ubasen" />
		<tag k="natural" v="wetland" />
		<tag k="ssr:stedsnr" v="164869" />
	</node>
	<node id="-362747" lat="58.6553944432" lon="7.40768888201">
		<tag k="name" v="Diggremyræ" />
		<tag k="natural" v="wetland" />
		<tag k="ssr:stedsnr" v="832541" />
	</node>
	<node id="-362746" lat="58.6507777752" lon="7.44476944766">
		<tag k="name" v="Gåsefitæ" />
		<tag k="natural" v="wetland" />
		<tag k="ssr:stedsnr" v="832538" />
	</node>
	<node id="-361852" lat="58.5170111118" lon="7.47853889054">
		<tag k="name" v="Storemyran" />
		<tag k="natural" v="wetland" />
		<tag k="ssr:stedsnr" v="607992" />
	</node>
	<node id="-362723" lat="58.6222222251" lon="7.46894722629">
		<tag k="name" v="Botnen" />
		<tag k="natural" v="wetland" />
		<tag k="ssr:stedsnr" v="832383" />
	</node>
	<node id="-360672" lat="58.6552416633" lon="7.42333610473">
		<tag k="name" v="Ragnhildsmyræ" />
		<tag k="natural" v="wetland" />
		<tag k="ssr:stedsnr" v="164582" />
	</node>
	<node id="-362718" lat="58.7438694485" lon="7.58776111206">
		<tag k="name" v="Hestefjellstean" />
		<tag k="natural" v="wetland" />
		<tag k="ssr:stedsnr" v="832354" />
	</node>
	<node id="-362717" lat="58.6863805543" lon="7.58575278466">
		<tag k="name" v="Skavrøyskjarret" />
		<tag k="natural" v="wetland" />
		<tag k="ssr:stedsnr" v="832351" />
	</node>
	<node id="-362707" lat="58.6841805592" lon="7.53433611333">
		<tag k="name" v="Smelandsslåttå" />
		<tag k="natural" v="wetland" />
		<tag k="ssr:stedsnr" v="832326" />
	</node>
	<node id="-362700" lat="58.7410777813" lon="7.63098333791">
		<tag k="name" v="Vrålsbumyran" />
		<tag k="natural" v="wetland" />
		<tag k="ssr:stedsnr" v="832305" />
	</node>
	<node id="-360647" lat="58.6123916667" lon="7.40476388371">
		<tag k="name" v="Hundeset" />
		<tag k="place" v="locality" />
		<tag k="ssr:stedsnr" v="164412" />
	</node>
	<node id="-362693" lat="58.6968361073" lon="7.45230278025">
		<tag k="name" v="Løyningslåttå" />
		<tag k="natural" v="wetland" />
		<tag k="ssr:stedsnr" v="832278" />
	</node>
	<node id="-362687" lat="58.7451666711" lon="7.37871944025">
		<tag k="name" v="Fitjan" />
		<tag k="natural" v="wetland" />
		<tag k="ssr:stedsnr" v="832203" />
	</node>
	<node id="-360637" lat="58.6809555595" lon="7.60163610725">
		<tag k="name" v="Staveslåttun" />
		<tag k="natural" v="wetland" />
		<tag k="ssr:stedsnr" v="164358" />
	</node>
	<node id="-362681" lat="58.6704277779" lon="7.31934721447">
		<tag k="name" v="Stedjan" />
		<tag k="natural" v="wetland" />
		<tag k="ssr:stedsnr" v="832134" />
	</node>
	<node id="-362678" lat="58.5720055562" lon="7.43427222396">
		<tag k="name" v="Øygarden" />
		<tag k="natural" v="wetland" />
		<tag k="ssr:stedsnr" v="832112" />
	</node>
	<node id="-362666" lat="58.7061361088" lon="7.35115554924">
		<tag k="name" v="Hårekshommen" />
		<tag k="natural" v="wetland" />
		<tag k="ssr:stedsnr" v="832080" />
	</node>
	<node id="-362665" lat="58.7006416646" lon="7.34786944899">
		<tag k="name" v="Myran" />
		<tag k="natural" v="wetland" />
		<tag k="ssr:stedsnr" v="832079" />
	</node>
	<node id="-360612" lat="58.7015861135" lon="7.59559721385">
		<tag k="name" v="Tollstølhomen" />
		<tag k="natural" v="wetland" />
		<tag k="ssr:stedsnr" v="164236" />
	</node>
	<node id="-362658" lat="58.5759166693" lon="7.51041667293">
		<tag k="name" v="Skotestean" />
		<tag k="natural" v="wetland" />
		<tag k="ssr:stedsnr" v="832024" />
	</node>
	<node id="-360607" lat="58.5847444476" lon="7.50837500234">
		<tag k="name" v="Midtslåtta" />
		<tag k="natural" v="wetland" />
		<tag k="ssr:stedsnr" v="164208" />
	</node>
	<node id="-362653" lat="58.7672222219" lon="7.40267499825">
		<tag k="name" v="Fureslåtten" />
		<tag k="natural" v="wetland" />
		<tag k="ssr:stedsnr" v="831923" />
	</node>
	<node id="-362650" lat="58.7857250039" lon="7.35435277939">
		<tag k="name" v="Nesevodden" />
		<tag k="place" v="locality" />
		<tag k="ssr:stedsnr" v="831898" />
	</node>
	<node id="-362645" lat="58.7842583306" lon="7.32084999359">
		<tag k="name" v="Myrslåttå" />
		<tag k="natural" v="wetland" />
		<tag k="ssr:stedsnr" v="831835" />
	</node>
	<node id="-362641" lat="58.5892583362" lon="7.42403611882">
		<tag k="name" v="Dyplan" />
		<tag k="natural" v="wetland" />
		<tag k="ssr:stedsnr" v="833235" />
	</node>
	<node id="-360471" lat="58.5373777747" lon="7.39864167206">
		<tag k="name" v="Underlian" />
		<tag k="natural" v="wetland" />
		<tag k="ssr:stedsnr" v="104988" />
	</node>
	<node id="-360582" lat="58.5668194467" lon="7.49074444925">
		<tag k="name" v="Leiteslåtten" />
		<tag k="natural" v="wetland" />
		<tag k="ssr:stedsnr" v="164052" />
	</node>
	<node id="-362626" lat="58.5998638917" lon="7.52418056227">
		<tag k="name" v="Ånundslåtta" />
		<tag k="natural" v="wetland" />
		<tag k="ssr:stedsnr" v="831172" />
	</node>
	<node id="-362614" lat="58.8038083374" lon="7.39346943834">
		<tag k="name" v="Reinshonnsteinan" />
		<tag k="natural" v="stone" />
		<tag k="ssr:stedsnr" v="828335" />
	</node>
	<node id="-362613" lat="58.8158416687" lon="7.46611111331">
		<tag k="name" v="Stean" />
		<tag k="natural" v="wetland" />
		<tag k="ssr:stedsnr" v="828333" />
	</node>
	<node id="-362611" lat="58.7870611072" lon="7.52773055722">
		<tag k="name" v="Nedre Listakkslåttå" />
		<tag k="natural" v="wetland" />
		<tag k="ssr:stedsnr" v="828231" />
	</node>
	<node id="-360560" lat="58.6772194446" lon="7.44377777243">
		<tag k="name" v="Småbekkstean" />
		<tag k="natural" v="wetland" />
		<tag k="ssr:stedsnr" v="163342" />
	</node>
	<node id="-362607" lat="58.8248111076" lon="7.47665834173">
		<tag k="name" v="Kvitefossmyræ" />
		<tag k="natural" v="wetland" />
		<tag k="ssr:stedsnr" v="827603" />
	</node>
	<node id="-362603" lat="58.8574416694" lon="7.37470833683">
		<tag k="name" v="Stean" />
		<tag k="natural" v="wetland" />
		<tag k="ssr:stedsnr" v="827204" />
	</node>
	<node id="-362602" lat="58.853858336" lon="7.33651944317">
		<tag k="name" v="Romeslåttå" />
		<tag k="natural" v="wetland" />
		<tag k="ssr:stedsnr" v="827180" />
	</node>
	<node id="-360549" lat="58.7784583301" lon="7.50617499612">
		<tag k="name" v="Myran" />
		<tag k="place" v="locality" />
		<tag k="ssr:stedsnr" v="160192" />
	</node>
	<node id="-360545" lat="58.8452222195" lon="7.5322805497">
		<tag k="name" v="Bjordalsstean" />
		<tag k="natural" v="wetland" />
		<tag k="ssr:stedsnr" v="159777" />
	</node>
	<node id="-360542" lat="58.8170777772" lon="7.44954999343">
		<tag k="name" v="Kringlemyræ" />
		<tag k="natural" v="wetland" />
		<tag k="ssr:stedsnr" v="159599" />
	</node>
	<node id="-360538" lat="58.8235361135" lon="7.4197194386">
		<tag k="name" v="Stora Slåttå" />
		<tag k="natural" v="wetland" />
		<tag k="ssr:stedsnr" v="159166" />
	</node>
	<node id="-360537" lat="58.8418305517" lon="7.36599999762">
		<tag k="name" v="Storrhom" />
		<tag k="natural" v="wetland" />
		<tag k="ssr:stedsnr" v="159133" />
	</node>
	<node id="-360513" lat="58.7074472211" lon="7.39568334014">
		<tag k="alt_name" v="Nesland" />
		<tag k="name" v="Nessland" />
		<tag k="place" v="locality" />
		<tag k="ssr:stedsnr" v="122255" />
	</node>
	<node id="-362537" lat="58.5838000018" lon="7.28861389213">
		<tag k="name" v="Dyrevassmyran" />
		<tag k="natural" v="wetland" />
		<tag k="ssr:stedsnr" v="788411" />
	</node>
	<node id="-360472" lat="58.7288166657" lon="7.43658056223">
		<tag k="name" v="Svohomman" />
		<tag k="natural" v="wetland" />
		<tag k="ssr:stedsnr" v="104989" />
	</node>
	<node id="-362519" lat="58.5455999964" lon="7.43758333679">
		<tag k="name" v="Torvmyr" />
		<tag k="natural" v="wetland" />
		<tag k="ssr:stedsnr" v="771970" />
	</node>
	<node id="-360464" lat="58.5730694446" lon="7.58729999992">
		<tag k="name" v="Elgsholtet" />
		<tag k="place" v="locality" />
		<tag k="ssr:stedsnr" v="104937" />
	</node>
	<node id="-362510" lat="58.5312166691" lon="7.37668611103">
		<tag k="name" v="Torvmyra" />
		<tag k="natural" v="wetland" />
		<tag k="ssr:stedsnr" v="771906" />
	</node>
	<node id="-360458" lat="58.7131305525" lon="7.50018334132">
		<tag k="name" v="Dyplan" />
		<tag k="natural" v="wetland" />
		<tag k="ssr:stedsnr" v="104913" />
	</node>
	<node id="-360455" lat="58.5338999997" lon="7.37068611856">
		<tag k="name" v="Langemyr" />
		<tag k="natural" v="wetland" />
		<tag k="ssr:stedsnr" v="104904" />
	</node>
	<node id="-360453" lat="58.5298777755" lon="7.3730333305">
		<tag k="name" v="Bjønneholtet" />
		<tag k="place" v="locality" />
		<tag k="ssr:stedsnr" v="104901" />
	</node>
</osm>
