<?xml version="1.0" encoding="UTF-8"?>
<osm generator="osmapis" version="0.6">
	<node id="-315104" lat="58.8634777756" lon="7.71042777839">
		<tag k="name" v="Skåmekleiva" />
		<tag k="ssr:date" v="2019-05-31" />
		<tag k="ssr:gruppe" v="veg" />
		<tag k="ssr:hovedgruppe" v="infrastruktur" />
		<tag k="ssr:stedsnr" v="728502" />
		<tag k="ssr:type" v="adressenavn" />
	</node>
	<node id="-313469" lat="58.8313861103" lon="7.79716110905">
		<tag k="name" v="Bygland kommune" />
		<tag k="ssr:date" v="2016-05-10" />
		<tag k="ssr:gruppe" v="administrativeIndelinger" />
		<tag k="ssr:hovedgruppe" v="offentligAdministrasjon" />
		<tag k="ssr:stedsnr" v="145031" />
		<tag k="ssr:type" v="kommune" />
	</node>
	<node id="-312635" lat="58.7081809084" lon="7.792799778">
		<tag k="name" v="Sines" />
		<tag k="ssr:date" v="2019-05-31" />
		<tag k="ssr:gruppe" v="veg" />
		<tag k="ssr:hovedgruppe" v="infrastruktur" />
		<tag k="ssr:stedsnr" v="1054653" />
		<tag k="ssr:type" v="adressenavn" />
	</node>
	<node id="-312634" lat="58.7365531937" lon="7.80514341493">
		<tag k="name" v="Dalsøyan" />
		<tag k="ssr:date" v="2019-05-31" />
		<tag k="ssr:gruppe" v="veg" />
		<tag k="ssr:hovedgruppe" v="infrastruktur" />
		<tag k="ssr:stedsnr" v="1054651" />
		<tag k="ssr:type" v="adressenavn" />
	</node>
	<node id="-312633" lat="58.7241729313" lon="7.79729094308">
		<tag k="name" v="Ambogøyi" />
		<tag k="ssr:date" v="2019-05-31" />
		<tag k="ssr:gruppe" v="veg" />
		<tag k="ssr:hovedgruppe" v="infrastruktur" />
		<tag k="ssr:stedsnr" v="1054650" />
		<tag k="ssr:type" v="adressenavn" />
	</node>
	<node id="-316088" lat="58.87332577" lon="7.70434976432">
		<tag k="name" v="Gamlestog" />
		<tag k="ssr:date" v="2017-08-03" />
		<tag k="ssr:gruppe" v="veg" />
		<tag k="ssr:hovedgruppe" v="infrastruktur" />
		<tag k="ssr:stedsnr" v="977308" />
		<tag k="ssr:type" v="adressetilleggsnavn" />
	</node>
	<node id="-316087" lat="58.8707088147" lon="7.70504418733">
		<tag k="name" v="Bjørkevollen" />
		<tag k="ssr:date" v="2017-08-03" />
		<tag k="ssr:gruppe" v="veg" />
		<tag k="ssr:hovedgruppe" v="infrastruktur" />
		<tag k="ssr:stedsnr" v="977307" />
		<tag k="ssr:type" v="adressetilleggsnavn" />
	</node>
	<node id="-316086" lat="58.9796571246" lon="7.54539399203">
		<tag k="name" v="Fitjebakk" />
		<tag k="ssr:date" v="2017-08-03" />
		<tag k="ssr:gruppe" v="veg" />
		<tag k="ssr:hovedgruppe" v="infrastruktur" />
		<tag k="ssr:stedsnr" v="977303" />
		<tag k="ssr:type" v="adressetilleggsnavn" />
	</node>
	<node id="-316085" lat="58.8221406208" lon="7.80224324983">
		<tag k="name" v="Libakk" />
		<tag k="ssr:date" v="2017-08-03" />
		<tag k="ssr:gruppe" v="veg" />
		<tag k="ssr:hovedgruppe" v="infrastruktur" />
		<tag k="ssr:stedsnr" v="977306" />
		<tag k="ssr:type" v="adressetilleggsnavn" />
	</node>
	<node id="-316084" lat="58.9825612096" lon="7.5437868093">
		<tag k="name" v="Krokå" />
		<tag k="ssr:date" v="2017-08-03" />
		<tag k="ssr:gruppe" v="veg" />
		<tag k="ssr:hovedgruppe" v="infrastruktur" />
		<tag k="ssr:stedsnr" v="977301" />
		<tag k="ssr:type" v="adressetilleggsnavn" />
	</node>
	<node id="-316083" lat="58.8761652841" lon="7.70565906311">
		<tag k="name" v="Nordgarden" />
		<tag k="ssr:date" v="2017-08-03" />
		<tag k="ssr:gruppe" v="veg" />
		<tag k="ssr:hovedgruppe" v="infrastruktur" />
		<tag k="ssr:stedsnr" v="977300" />
		<tag k="ssr:type" v="adressetilleggsnavn" />
	</node>
	<node id="-316082" lat="58.9178145233" lon="7.74283931799">
		<tag k="name" v="Haugedal" />
		<tag k="ssr:date" v="2017-09-20" />
		<tag k="ssr:gruppe" v="veg" />
		<tag k="ssr:hovedgruppe" v="infrastruktur" />
		<tag k="ssr:stedsnr" v="974206" />
		<tag k="ssr:type" v="adressetilleggsnavn" />
	</node>
	<node id="-316081" lat="58.8329205003" lon="7.78115241938">
		<tag k="name" v="Nese" />
		<tag k="ssr:date" v="2017-09-20" />
		<tag k="ssr:gruppe" v="veg" />
		<tag k="ssr:hovedgruppe" v="infrastruktur" />
		<tag k="ssr:stedsnr" v="974193" />
		<tag k="ssr:type" v="adressetilleggsnavn" />
	</node>
	<node id="-316079" lat="58.8130512636" lon="7.76294033381">
		<tag k="name" v="Hamre" />
		<tag k="ssr:date" v="2017-01-27" />
		<tag k="ssr:gruppe" v="veg" />
		<tag k="ssr:hovedgruppe" v="infrastruktur" />
		<tag k="ssr:stedsnr" v="974191" />
		<tag k="ssr:type" v="adressetilleggsnavn" />
	</node>
	<node id="-316077" lat="58.6875559657" lon="7.77671324332">
		<tag k="name" v="Bø" />
		<tag k="ssr:date" v="2017-01-27" />
		<tag k="ssr:gruppe" v="veg" />
		<tag k="ssr:hovedgruppe" v="infrastruktur" />
		<tag k="ssr:stedsnr" v="974189" />
		<tag k="ssr:type" v="adressetilleggsnavn" />
	</node>
	<node id="-312556" lat="58.6790944421" lon="7.78407778017">
		<tag k="name" v="Ystejordet" />
		<tag k="ssr:date" v="2016-05-10" />
		<tag k="ssr:gruppe" v="veg" />
		<tag k="ssr:hovedgruppe" v="infrastruktur" />
		<tag k="ssr:stedsnr" v="363547" />
		<tag k="ssr:type" v="adressetilleggsnavn" />
	</node>
	<node id="-316073" lat="58.9379980016" lon="7.7886909166">
		<tag k="name" v="Haugetveit" />
		<tag k="ssr:date" v="2017-01-03" />
		<tag k="ssr:gruppe" v="veg" />
		<tag k="ssr:hovedgruppe" v="infrastruktur" />
		<tag k="ssr:stedsnr" v="973723" />
		<tag k="ssr:type" v="adressetilleggsnavn" />
	</node>
	<node id="-316072" lat="58.9385987191" lon="7.78817451054">
		<tag k="name" v="Haugetveit" />
		<tag k="ssr:date" v="2017-01-03" />
		<tag k="ssr:gruppe" v="veg" />
		<tag k="ssr:hovedgruppe" v="infrastruktur" />
		<tag k="ssr:stedsnr" v="973552" />
		<tag k="ssr:type" v="adressetilleggsnavn" />
	</node>
	<node id="-315094" lat="58.7063694462" lon="7.83439166189">
		<tag k="name" v="Greibrokk" />
		<tag k="ssr:date" v="2016-05-11" />
		<tag k="ssr:gruppe" v="veg" />
		<tag k="ssr:hovedgruppe" v="infrastruktur" />
		<tag k="ssr:stedsnr" v="727268" />
		<tag k="ssr:type" v="adressetilleggsnavn" />
	</node>
	<node id="-312632" lat="58.6817997057" lon="7.79988345374">
		<tag k="name" v="Storøyi" />
		<tag k="ssr:date" v="2019-05-31" />
		<tag k="ssr:gruppe" v="veg" />
		<tag k="ssr:hovedgruppe" v="infrastruktur" />
		<tag k="ssr:stedsnr" v="1054649" />
		<tag k="ssr:type" v="adressenavn" />
	</node>
	<node id="-315329" lat="58.9331694484" lon="7.68293332873">
		<tag k="name" v="Husevegen" />
		<tag k="ssr:date" v="2019-05-31" />
		<tag k="ssr:gruppe" v="veg" />
		<tag k="ssr:hovedgruppe" v="infrastruktur" />
		<tag k="ssr:stedsnr" v="788530" />
		<tag k="ssr:type" v="adressenavn" />
	</node>
</osm>
