<?xml version="1.0" encoding="UTF-8"?>
<osm generator="osmapis" version="0.6">
	<node id="-635006" lat="60.5011166681" lon="5.08859999128">
		<tag k="name" v="Kråkebergvegen" />
		<tag k="ssr:date" v="2019-12-27" />
		<tag k="ssr:gruppe" v="veg" />
		<tag k="ssr:hovedgruppe" v="infrastruktur" />
		<tag k="ssr:stedsnr" v="403151" />
		<tag k="ssr:type" v="adressenavn" />
	</node>
	<node id="-634486" lat="60.4740749994" lon="5.14184721422">
		<tag k="name" v="Herdlavegen" />
		<tag k="ssr:date" v="2019-12-27" />
		<tag k="ssr:gruppe" v="veg" />
		<tag k="ssr:hovedgruppe" v="infrastruktur" />
		<tag k="ssr:stedsnr" v="719791" />
		<tag k="ssr:type" v="adressenavn" />
	</node>
	<node id="-635134" lat="60.5016027814" lon="5.08553334172">
		<tag k="name" v="Kjerrgardsvika" />
		<tag k="ssr:date" v="2019-12-27" />
		<tag k="ssr:gruppe" v="veg" />
		<tag k="ssr:hovedgruppe" v="infrastruktur" />
		<tag k="ssr:stedsnr" v="585173" />
		<tag k="ssr:type" v="adressenavn" />
	</node>
	<node id="-634224" lat="60.5246805576" lon="5.09536666446">
		<tag k="alt_name" v="Hegernes" />
		<tag k="name" v="Hegernes lykt" />
		<tag k="ssr:date" v="2019-12-27" />
		<tag k="ssr:gruppe" v="navigasjon" />
		<tag k="ssr:hovedgruppe" v="infrastruktur" />
		<tag k="ssr:stedsnr" v="267412" />
		<tag k="ssr:type" v="fyrlykt" />
	</node>
	<node id="-635242" lat="60.5668055544" lon="4.98486110858">
		<tag k="alt_name" v="Parisholmen" />
		<tag k="name" v="Parisholmen lykt" />
		<tag k="ssr:date" v="2019-12-27" />
		<tag k="ssr:gruppe" v="navigasjon" />
		<tag k="ssr:hovedgruppe" v="infrastruktur" />
		<tag k="ssr:stedsnr" v="753554" />
		<tag k="ssr:type" v="fyrlykt" />
	</node>
	<node id="-634977" lat="60.5766805518" lon="4.98615554754">
		<tag k="name" v="Basholmen" />
		<tag k="ssr:date" v="2019-12-27" />
		<tag k="ssr:gruppe" v="navigasjon" />
		<tag k="ssr:hovedgruppe" v="infrastruktur" />
		<tag k="ssr:stedsnr" v="357221" />
		<tag k="ssr:type" v="lanterne" />
	</node>
	<node id="-634707" lat="60.4178506772" lon="5.08010989247">
		<tag k="name" v="Søra Rotøyna" />
		<tag k="ssr:date" v="2019-12-27" />
		<tag k="ssr:gruppe" v="veg" />
		<tag k="ssr:hovedgruppe" v="infrastruktur" />
		<tag k="ssr:stedsnr" v="982665" />
		<tag k="ssr:type" v="adressenavn" />
	</node>
	<node id="-634706" lat="60.4390419653" lon="5.08968787395">
		<tag k="name" v="Djupeskarsholmen" />
		<tag k="ssr:date" v="2019-12-27" />
		<tag k="ssr:gruppe" v="veg" />
		<tag k="ssr:hovedgruppe" v="infrastruktur" />
		<tag k="ssr:stedsnr" v="982664" />
		<tag k="ssr:type" v="adressenavn" />
	</node>
	<node id="-634705" lat="60.4540185646" lon="5.08571916553">
		<tag k="name" v="Steinsundet" />
		<tag k="ssr:date" v="2019-12-27" />
		<tag k="ssr:gruppe" v="veg" />
		<tag k="ssr:hovedgruppe" v="infrastruktur" />
		<tag k="ssr:stedsnr" v="982663" />
		<tag k="ssr:type" v="adressenavn" />
	</node>
	<node id="-634704" lat="60.5037812127" lon="5.17103017404">
		<tag k="name" v="Signalneset" />
		<tag k="ssr:date" v="2019-12-27" />
		<tag k="ssr:gruppe" v="veg" />
		<tag k="ssr:hovedgruppe" v="infrastruktur" />
		<tag k="ssr:stedsnr" v="982662" />
		<tag k="ssr:type" v="adressenavn" />
	</node>
	<node id="-634433" lat="60.3876361069" lon="5.17232500354">
		<tag k="name" v="Hjeltaskjeret" />
		<tag k="ssr:date" v="2019-12-27" />
		<tag k="ssr:gruppe" v="navigasjon" />
		<tag k="ssr:hovedgruppe" v="infrastruktur" />
		<tag k="ssr:stedsnr" v="703087" />
		<tag k="ssr:type" v="fyrlykt" />
	</node>
	<node id="-634681" lat="60.4248916688" lon="5.14017500093">
		<tag k="alt_name" v="Hauglandsosen" />
		<tag k="name" v="Hauglandsosen lykt" />
		<tag k="ssr:date" v="2019-12-27" />
		<tag k="ssr:gruppe" v="navigasjon" />
		<tag k="ssr:hovedgruppe" v="infrastruktur" />
		<tag k="ssr:stedsnr" v="946078" />
		<tag k="ssr:type" v="fyrlykt" />
	</node>
	<node id="-634739" lat="60.4890027813" lon="5.2188499979">
		<tag k="alt_name" v="Asknes" />
		<tag k="name" v="Asknes lykt" />
		<tag k="ssr:date" v="2019-12-27" />
		<tag k="ssr:gruppe" v="navigasjon" />
		<tag k="ssr:hovedgruppe" v="infrastruktur" />
		<tag k="ssr:stedsnr" v="36083" />
		<tag k="ssr:type" v="fyrlykt" />
	</node>
	<node id="-635298" lat="60.5514638875" lon="4.97898889401">
		<tag k="name" v="Mjølkevikvarden" />
		<tag k="ssr:date" v="2019-12-27" />
		<tag k="ssr:gruppe" v="veg" />
		<tag k="ssr:hovedgruppe" v="infrastruktur" />
		<tag k="ssr:stedsnr" v="828144" />
		<tag k="ssr:type" v="adressenavn" />
	</node>
	<node id="-634912" lat="60.5622611107" lon="4.96179443705">
		<tag k="name" v="Herdlesundet lykt" />
		<tag k="ssr:date" v="2019-12-27" />
		<tag k="ssr:gruppe" v="navigasjon" />
		<tag k="ssr:hovedgruppe" v="infrastruktur" />
		<tag k="ssr:stedsnr" v="188720" />
		<tag k="ssr:type" v="fyrlykt" />
	</node>
	<node id="-635423" lat="60.4506402717" lon="5.22649892025">
		<tag k="name" v="Øvre Skogvik" />
		<tag k="ssr:date" v="2020-03-31" />
		<tag k="ssr:gruppe" v="veg" />
		<tag k="ssr:hovedgruppe" v="infrastruktur" />
		<tag k="ssr:stedsnr" v="1076273" />
		<tag k="ssr:type" v="adressenavn" />
	</node>
	<node id="-635422" lat="60.3866658713" lon="5.33255753121">
		<tag k="name" v="Vestland fylke" />
		<tag k="ssr:date" v="2020-01-13" />
		<tag k="ssr:gruppe" v="administrativeIndelinger" />
		<tag k="ssr:hovedgruppe" v="offentligAdministrasjon" />
		<tag k="ssr:stedsnr" v="1074408" />
		<tag k="ssr:type" v="fylke" />
	</node>
	<node id="-635421" lat="60.4210140265" lon="5.20344831788">
		<tag k="name" v="Bjørkelivegen" />
		<tag k="ssr:date" v="2019-12-27" />
		<tag k="ssr:gruppe" v="veg" />
		<tag k="ssr:hovedgruppe" v="infrastruktur" />
		<tag k="ssr:stedsnr" v="1073875" />
		<tag k="ssr:type" v="adressenavn" />
	</node>
	<node id="-635420" lat="60.4955902831" lon="5.1166010057">
		<tag k="name" v="Kjerrgardsvegen" />
		<tag k="ssr:date" v="2019-12-27" />
		<tag k="ssr:gruppe" v="veg" />
		<tag k="ssr:hovedgruppe" v="infrastruktur" />
		<tag k="ssr:stedsnr" v="1073871" />
		<tag k="ssr:type" v="adressenavn" />
	</node>
	<node id="-635419" lat="60.5054904855" lon="5.0497184542">
		<tag k="name" v="Fauskangervegen" />
		<tag k="ssr:date" v="2019-12-27" />
		<tag k="ssr:gruppe" v="veg" />
		<tag k="ssr:hovedgruppe" v="infrastruktur" />
		<tag k="ssr:stedsnr" v="1073873" />
		<tag k="ssr:type" v="adressenavn" />
	</node>
	<node id="-635418" lat="60.439264465" lon="5.07434379394">
		<tag k="name" v="Hauglandsøyna" />
		<tag k="ssr:date" v="2019-12-27" />
		<tag k="ssr:gruppe" v="veg" />
		<tag k="ssr:hovedgruppe" v="infrastruktur" />
		<tag k="ssr:stedsnr" v="1073335" />
		<tag k="ssr:type" v="adressenavn" />
	</node>
	<node id="-635399" lat="60.4607549252" lon="5.10592738299">
		<tag k="name" v="Søre Fureneset" />
		<tag k="ssr:date" v="2019-12-27" />
		<tag k="ssr:gruppe" v="veg" />
		<tag k="ssr:hovedgruppe" v="infrastruktur" />
		<tag k="ssr:stedsnr" v="986165" />
		<tag k="ssr:type" v="adressenavn" />
	</node>
	<node id="-635398" lat="60.4133178749" lon="5.19049643118">
		<tag k="name" v="Gunnlafjellet" />
		<tag k="ssr:date" v="2019-12-27" />
		<tag k="ssr:gruppe" v="veg" />
		<tag k="ssr:hovedgruppe" v="infrastruktur" />
		<tag k="ssr:stedsnr" v="975680" />
		<tag k="ssr:type" v="adressenavn" />
	</node>
	<node id="-634114" lat="60.4091583302" lon="5.22602222093">
		<tag k="alt_name" v="Askøy" />
		<tag k="name" v="Askøy kommune" />
		<tag k="ssr:date" v="2019-12-27" />
		<tag k="ssr:gruppe" v="administrativeIndelinger" />
		<tag k="ssr:hovedgruppe" v="offentligAdministrasjon" />
		<tag k="ssr:stedsnr" v="146763" />
		<tag k="ssr:type" v="kommune" />
	</node>
</osm>
