<?xml version="1.0" encoding="UTF-8"?>
<osm version="0.6" generator="osmapis">
	<node lat="59.622016668388476" lon="10.691866661312515" id="-27434">
		<tag k="name" v="Frydenlund" />
		<tag k="place" v="farm" />
		<tag k="ssr:stedsnr" v="3618" />
	</node>
	<node lat="59.57440555857207" lon="10.705552772832919" id="-27435">
		<tag k="name" v="Erikstadbråten" />
		<tag k="place" v="farm" />
		<tag k="ssr:stedsnr" v="3687" />
	</node>
	<node lat="59.59360555993174" lon="10.67814445123674" id="-27436">
		<tag k="name" v="Brattås" />
		<tag k="place" v="farm" />
		<tag k="ssr:stedsnr" v="3735" />
	</node>
	<node lat="59.57137499739696" lon="10.749261104012916" id="-27437">
		<tag k="name" v="Todammen" />
		<tag k="place" v="isolated_dwelling" />
		<tag k="ssr:stedsnr" v="4174" />
	</node>
	<node lat="59.5365305535739" lon="10.741072216572599" id="-27438">
		<tag k="name" v="Bommen" />
		<tag k="place" v="farm" />
		<tag k="ssr:stedsnr" v="4021" />
	</node>
	<node lat="59.53811944126323" lon="10.779786114899723" id="-27439">
		<tag k="alt_name" v="Holm, søndre;Holm søndre" />
		<tag k="name" v="Søndre Holm" />
		<tag k="old_name" v="Nordre Holm" />
		<tag k="place" v="farm" />
		<tag k="ssr:stedsnr" v="4024" />
	</node>
	<node lat="59.537499997755646" lon="10.718305556941084" id="-27440">
		<tag k="name" v="Øgården" />
		<tag k="place" v="farm" />
		<tag k="ssr:stedsnr" v="22097" />
	</node>
	<node lat="59.54050158207547" lon="10.722486582484184" id="-27441">
		<tag k="alt_name" v="Gjølstad søndre" />
		<tag k="fixme" v="consider place=hamlet" />
		<tag k="name" v="Søndre Gjølstad" />
		<tag k="place" v="farm" />
		<tag k="ssr:stedsnr" v="22098" />
	</node>
	<node lat="59.57242777803997" lon="10.74351110804477" id="-27442">
		<tag k="fixme" v="consider natural=peak for the most distinct mountains in the district" />
		<tag k="name" v="Svingenås" />
		<tag k="natural" v="hill" />
		<tag k="place" v="locality" />
		<tag k="ssr:stedsnr" v="22185" />
	</node>
	<node lat="59.51386944188084" lon="10.67689445294657" id="-27444">
		<tag k="alt_name" v="Saueholmsundet" />
		<tag k="name" v="Sauholmsundet" />
		<tag k="natural" v="strait" />
		<tag k="ssr:stedsnr" v="28806" />
	</node>
	<node lat="59.49450555127578" lon="10.68539167309841" id="-27445">
		<tag k="fixme" v="consider natural=peak for the most distinct mountains in the district" />
		<tag k="name" v="Varden" />
		<tag k="natural" v="hill" />
		<tag k="place" v="locality" />
		<tag k="ssr:stedsnr" v="238626" />
	</node>
	<node lat="59.51981110783026" lon="10.70035556218375" id="-27446">
		<tag k="amenity" v="school" />
		<tag k="name" v="Son skole" />
		<tag k="ssr:stedsnr" v="239051" />
	</node>
	<node lat="59.604919442203105" lon="10.690119445274883" id="-27447">
		<tag k="alt_name" v="Ugjestrud nordre" />
		<tag k="name" v="Nordre Ugjestrud" />
		<tag k="place" v="farm" />
		<tag k="ssr:stedsnr" v="239148" />
	</node>
	<node lat="59.603011114256915" lon="10.665855557162025" id="-27448">
		<tag k="name" v="Grinda" />
		<tag k="place" v="farm" />
		<tag k="ssr:stedsnr" v="239154" />
	</node>
	<node lat="59.47195000350308" lon="10.726227785606394" id="-27449">
		<tag k="name" v="Tremannsdelet" />
		<tag k="place" v="locality" />
		<tag k="ssr:stedsnr" v="53892" />
	</node>
	<node lat="59.5698222193151" lon="10.656955551653839" id="-27450">
		<tag k="name" v="Langbråten" />
		<tag k="place" v="farm" />
		<tag k="ssr:stedsnr" v="56225" />
	</node>
	<node lat="59.5204444451693" lon="10.700616667531271" id="-27451">
		<tag k="name" v="Solhøy" />
		<tag k="place" v="farm" />
		<tag k="ssr:stedsnr" v="56409" />
	</node>
	<node lat="59.522880556034174" lon="10.66994444604453" id="-27452">
		<tag k="name" v="Blåstua" />
		<tag k="place" v="isolated_dwelling" />
		<tag k="ssr:stedsnr" v="56414" />
	</node>
	<node lat="59.59780277778543" lon="10.70983611540642" id="-27453">
		<tag k="amenity" v="sports_centre" />
		<tag k="name" v="Vestbyhallen" />
		<tag k="ssr:stedsnr" v="57107" />
	</node>
	<node lat="59.645141664532005" lon="10.685755552418323" id="-27462">
		<tag k="name" v="Nedre Linnestad" />
		<tag k="place" v="farm" />
		<tag k="ssr:stedsnr" v="240550" />
	</node>
	<node lat="59.572088889932594" lon="10.71936666306311" id="-27463">
		<tag k="name" v="Nordre Tømt" />
		<tag k="place" v="farm" />
		<tag k="ssr:stedsnr" v="240561" />
	</node>
	<node lat="59.60044722428406" lon="10.723538881537731" id="-27464">
		<tag k="name" v="Bjørlien" />
		<tag k="place" v="farm" />
		<tag k="ssr:stedsnr" v="64138" />
	</node>
	<node lat="59.594049995569236" lon="10.736344443877176" id="-27465">
		<tag k="alt_name" v="Rød;Rød nedre" />
		<tag k="name" v="Nedre Rød" />
		<tag k="place" v="farm" />
		<tag k="ssr:stedsnr" v="64028" />
	</node>
	<node lat="59.512377779095985" lon="10.744283336558754" id="-27466">
		<tag k="alt_name" v="Langerød, nordre;Langerud nordre" />
		<tag k="name" v="Nordre Langerud" />
		<tag k="place" v="farm" />
		<tag k="ssr:stedsnr" v="64034" />
	</node>
	<node lat="59.548891836230844" lon="10.737521508704507" id="-27467">
		<tag k="fixme" v="consider place=hamlet" />
		<tag k="name" v="Andbekk" />
		<tag k="place" v="farm" />
		<tag k="ssr:stedsnr" v="64218" />
	</node>
	<node lat="59.53269746127544" lon="10.685075374981583" id="-27468">
		<tag k="fixme" v="consider place=hamlet" />
		<tag k="name" v="Kolås" />
		<tag k="place" v="farm" />
		<tag k="ssr:stedsnr" v="64530" />
	</node>
	<node lat="59.530422513681884" lon="10.698585759233811" id="-27469">
		<tag k="name" v="Labu" />
		<tag k="place" v="hamlet" />
		<tag k="ssr:stedsnr" v="64533" />
	</node>
	<node lat="59.56394415266973" lon="10.654416068799163" id="-27471">
		<tag k="fixme" v="consider place=hamlet" />
		<tag k="name" v="Kroken" />
		<tag k="place" v="farm" />
		<tag k="ssr:stedsnr" v="64713" />
	</node>
	<node lat="59.62890555484966" lon="10.732561103113184" id="-27485">
		<tag k="name" v="Sørli" />
		<tag k="place" v="farm" />
		<tag k="ssr:stedsnr" v="83207" />
	</node>
	<node lat="59.55776111561833" lon="10.768227769543962" id="-27486">
		<tag k="fixme" v="consider natural=peak for the most distinct mountains in the district" />
		<tag k="name" v="Kølabonnåsen" />
		<tag k="natural" v="hill" />
		<tag k="place" v="locality" />
		<tag k="ssr:stedsnr" v="83185" />
	</node>
	<node lat="59.581263887478244" lon="10.807813893654055" id="-27487">
		<tag k="amenity" v="nursing_home" />
		<tag k="name" v="Gardarheim" />
		<tag k="ssr:stedsnr" v="83186" />
	</node>
	<node lat="59.508554609942244" lon="10.703438889817196" id="-27488">
		<tag k="name" v="Brevikbråten" />
		<tag k="place" v="farm" />
		<tag k="ssr:stedsnr" v="245508" />
	</node>
	<node lat="59.586800000626276" lon="10.655913885937656" id="-27489">
		<tag k="name" v="Holen" />
		<tag k="place" v="neighbourhood" />
		<tag k="ssr:stedsnr" v="87927" />
	</node>
	<node lat="59.583386114974836" lon="10.816588892466797" id="-27490">
		<tag k="alt_name" v="Hovum;Hovum nordre" />
		<tag k="name" v="Nordre Hovum" />
		<tag k="place" v="farm" />
		<tag k="ssr:stedsnr" v="246035" />
	</node>
	<node lat="59.50730400042948" lon="10.76905669965775" id="-27491">
		<tag k="alt_name" v="Raknerud" />
		<tag k="fixme" v="consider place=hamlet" />
		<tag k="name" v="Raknerød" />
		<tag k="place" v="farm" />
		<tag k="ssr:stedsnr" v="246044" />
	</node>
	<node lat="59.63122499687164" lon="10.762677778770533" id="-27492">
		<tag k="alt_name" v="Støttumtangen" />
		<tag k="name" v="Tangen" />
		<tag k="place" v="farm" />
		<tag k="ssr:stedsnr" v="246298" />
	</node>
	<node lat="59.56678055378764" lon="10.805508341696436" id="-27493">
		<tag k="name" v="Garderhagen" />
		<tag k="place" v="farm" />
		<tag k="ssr:stedsnr" v="246200" />
	</node>
	<node lat="59.55598055773874" lon="10.77226388257312" id="-27494">
		<tag k="fixme" v="multiple name tags, choose one and add the other to alt_name" />
		<tag k="name" v="Åmotbråten;Store Åmot" />
		<tag k="old_name" v="Aamot store" />
		<tag k="place" v="farm" />
		<tag k="ssr:stedsnr" v="246236" />
	</node>
	<node lat="59.608566401350565" lon="10.788129843946122" id="-27495">
		<tag k="fixme" v="consider place=hamlet" />
		<tag k="name" v="Kalføss" />
		<tag k="place" v="farm" />
		<tag k="ssr:stedsnr" v="246360" />
	</node>
	<node lat="59.60816421931829" lon="10.681599311665511" id="-27496">
		<tag k="fixme" v="consider place=hamlet" />
		<tag k="name" v="Knallstad" />
		<tag k="place" v="farm" />
		<tag k="ssr:stedsnr" v="246608" />
	</node>
	<node lat="59.559098981153355" lon="10.687488084472283" id="-27497">
		<tag k="fixme" v="consider place=hamlet" />
		<tag k="name" v="Jonstad" />
		<tag k="place" v="farm" />
		<tag k="ssr:stedsnr" v="246661" />
	</node>
	<node lat="59.567655868497006" lon="10.702364475031217" id="-27498">
		<tag k="fixme" v="consider place=hamlet" />
		<tag k="name" v="Dal" />
		<tag k="place" v="farm" />
		<tag k="ssr:stedsnr" v="246677" />
	</node>
	<node lat="59.6422168582493" lon="10.690278689858717" id="-27499">
		<tag k="fixme" v="consider place=hamlet" />
		<tag k="name" v="Linnestad" />
		<tag k="place" v="farm" />
		<tag k="ssr:stedsnr" v="246652" />
	</node>
	<node lat="59.58724999615513" lon="10.760624993878858" id="-27500">
		<tag k="name" v="Bjørnerud" />
		<tag k="place" v="farm" />
		<tag k="ssr:stedsnr" v="247179" />
	</node>
	<node lat="59.528880552830834" lon="10.693686118686918" id="-27501">
		<tag k="name" v="Verket" />
		<tag k="place" v="farm" />
		<tag k="ssr:stedsnr" v="117420" />
	</node>
	<node lat="59.49456111014959" lon="10.708075000648158" id="-27502">
		<tag k="alt_name" v="Rød søndre" />
		<tag k="name" v="Søndre Rød" />
		<tag k="place" v="farm" />
		<tag k="ssr:stedsnr" v="117628" />
	</node>
	<node lat="59.63031111397804" lon="10.712200007016579" id="-27503">
		<tag k="name" v="Hvitstenhytta" />
		<tag k="place" v="isolated_dwelling" />
		<tag k="ssr:stedsnr" v="119175" />
	</node>
	<node lat="59.62410922981886" lon="10.721229061343587" id="-27508">
		<tag k="fixme" v="consider place=hamlet" />
		<tag k="name" v="Smedsrud" />
		<tag k="place" v="farm" />
		<tag k="ssr:stedsnr" v="124260" />
	</node>
	<node lat="59.607086082498206" lon="10.654260451581836" id="-27509">
		<tag k="fixme" v="consider place=hamlet" />
		<tag k="name" v="Ramme" />
		<tag k="place" v="farm" />
		<tag k="ssr:stedsnr" v="124574" />
	</node>
	<node lat="59.48444882005601" lon="10.723446078108703" id="-27510">
		<tag k="fixme" v="consider place=hamlet" />
		<tag k="name" v="Mørk" />
		<tag k="place" v="farm" />
		<tag k="ssr:stedsnr" v="124627" />
	</node>
	<node lat="59.552616670049346" lon="10.717261106311899" id="-27511">
		<tag k="name" v="Kolåsbråten" />
		<tag k="place" v="farm" />
		<tag k="ssr:stedsnr" v="124628" />
	</node>
	<node lat="59.57876958475246" lon="10.732606639339792" id="-27512">
		<tag k="alt_name" v="Rustad" />
		<tag k="name" v="Søndre Rustad" />
		<tag k="place" v="farm" />
		<tag k="ssr:stedsnr" v="125194" />
	</node>
	<node lat="59.579599998960944" lon="10.729608329464487" id="-27513">
		<tag k="name" v="Rødsbråten" />
		<tag k="place" v="farm" />
		<tag k="ssr:stedsnr" v="125195" />
	</node>
	<node lat="59.569013892744344" lon="10.823108327729086" id="-27514">
		<tag k="alt_name" v="Florud nedre;Flårud" />
		<tag k="name" v="Nedre Florud" />
		<tag k="place" v="farm" />
		<tag k="ssr:stedsnr" v="143206" />
	</node>
	<node lat="59.56325278003106" lon="10.800672229752553" id="-27515">
		<tag k="alt_name" v="Oksa nedre" />
		<tag k="name" v="Nedre Oksa" />
		<tag k="place" v="farm" />
		<tag k="ssr:stedsnr" v="143213" />
	</node>
	<node lat="59.62051944542149" lon="10.739644443405957" id="-27516">
		<tag k="name" v="Verpet" />
		<tag k="place" v="village" />
		<tag k="ssr:stedsnr" v="143216" />
	</node>
	<node lat="59.58299166880525" lon="10.749644438538235" id="-27517">
		<tag k="alt_name" v="Røddal vestre" />
		<tag k="name" v="Vestre Røddal" />
		<tag k="place" v="farm" />
		<tag k="ssr:stedsnr" v="143132" />
	</node>
	<node lat="59.52071944390459" lon="10.684208335261356" id="-27518">
		<tag k="name" v="Stenløkka" />
		<tag k="place" v="hamlet" />
		<tag k="ssr:stedsnr" v="177412" />
	</node>
	<node lat="59.511815989332504" lon="10.73444389351124" id="-27523">
		<tag k="fixme" v="consider place=hamlet" />
		<tag k="name" v="Tegneby" />
		<tag k="place" v="farm" />
		<tag k="ssr:stedsnr" v="185039" />
	</node>
	<node lat="59.57788889251946" lon="10.736741675266346" id="-27524">
		<tag k="name" v="Vestli" />
		<tag k="place" v="isolated_dwelling" />
		<tag k="ssr:stedsnr" v="265177" />
	</node>
	<node lat="59.54222499669944" lon="10.722780561974082" id="-27525">
		<tag k="alt_name" v="Gjølstad nordre" />
		<tag k="name" v="Nordre Gjølstad" />
		<tag k="place" v="farm" />
		<tag k="ssr:stedsnr" v="267072" />
	</node>
	<node lat="59.56660973860321" lon="10.749752183455286" id="-27527">
		<tag k="name" v="Nedre Langli" />
		<tag k="place" v="farm" />
		<tag k="ssr:stedsnr" v="204145" />
	</node>
	<node lat="59.57109166905656" lon="10.796047225664804" id="-27528">
		<tag k="alt_name" v="Jordebru søndre" />
		<tag k="name" v="Søndre Jordebru" />
		<tag k="place" v="farm" />
		<tag k="ssr:stedsnr" v="204203" />
	</node>
	<node lat="59.593209610215176" lon="10.821467983610125" id="-27529">
		<tag k="fixme" v="consider place=hamlet" />
		<tag k="name" v="Haug" />
		<tag k="place" v="farm" />
		<tag k="ssr:stedsnr" v="204819" />
	</node>
	<node lat="59.60457499859631" lon="10.655174998824785" id="-27530">
		<tag k="name" v="Rammebråten" />
		<tag k="place" v="farm" />
		<tag k="ssr:stedsnr" v="207006" />
	</node>
	<node lat="59.566194442190515" lon="10.652238883798523" id="-27531">
		<tag k="alt_name" v="Ingerløkka" />
		<tag k="name" v="Ingersløkka" />
		<tag k="place" v="farm" />
		<tag k="ssr:stedsnr" v="210883" />
	</node>
	<node lat="59.530749998679944" lon="10.688033341523363" id="-27532">
		<tag k="alt_name" v="Kålås nedre;Nedre Kålås" />
		<tag k="name" v="Nedre Kolås" />
		<tag k="place" v="farm" />
		<tag k="ssr:stedsnr" v="238407" />
	</node>
	<node lat="59.520438893041806" lon="10.682355560388899" id="-27533">
		<tag k="name" v="Pjåken" />
		<tag k="natural" v="bay" />
		<tag k="ssr:stedsnr" v="238432" />
	</node>
	<node lat="59.52585555967033" lon="10.69632777491093" id="-27534">
		<tag k="amenity" v="place_of_worship" />
		<tag k="denomination" v="lutheran" />
		<tag k="name" v="Strømbråten kapell" />
		<tag k="religion" v="christian" />
		<tag k="ssr:stedsnr" v="238439" />
	</node>
	<node lat="59.49188333770411" lon="10.702747219085923" id="-27535">
		<tag k="name" v="Rødkind" />
		<tag k="place" v="isolated_dwelling" />
		<tag k="ssr:stedsnr" v="238630" />
	</node>
	<node lat="59.635902779881754" lon="10.700830548269087" id="-27536">
		<tag k="alt_name" v="Vastad søndre" />
		<tag k="name" v="Søndre Vastad" />
		<tag k="place" v="farm" />
		<tag k="ssr:stedsnr" v="240178" />
	</node>
	<node lat="59.49895973068931" lon="10.707014394213262" id="-27538">
		<tag k="fixme" v="consider place=hamlet" />
		<tag k="name" v="Rød" />
		<tag k="place" v="farm" />
		<tag k="ssr:stedsnr" v="245914" />
	</node>
	<node lat="59.595012664711454" lon="10.749861279776784" id="-27539">
		<tag k="alt_name" v="Sundby" />
		<tag k="fixme" v="consider place=hamlet" />
		<tag k="name" v="Nordre Sundby" />
		<tag k="place" v="farm" />
		<tag k="ssr:stedsnr" v="246132" />
	</node>
	<node lat="59.5989416640096" lon="10.753177775100992" id="-27540">
		<tag k="alt_name" v="Follo Folkehøgskole" />
		<tag k="amenity" v="school" />
		<tag k="name" v="Follo folkehøgskole" />
		<tag k="ssr:stedsnr" v="246143" />
	</node>
	<node lat="59.556174997937006" lon="10.78172500098356" id="-27541">
		<tag k="name" v="Oksane" />
		<tag k="place" v="farm" />
		<tag k="ssr:stedsnr" v="246203" />
	</node>
	<node lat="59.55699999861166" lon="10.77842222435464" id="-27542">
		<tag k="name" v="Blådike" />
		<tag k="place" v="farm" />
		<tag k="ssr:stedsnr" v="246205" />
	</node>
	<node lat="59.5644304948709" lon="10.75146244132963" id="-27543">
		<tag k="alt_name" v="Bylterud, østre;Bylterød østre;Bylterud østre" />
		<tag k="fixme" v="consider place=hamlet" />
		<tag k="name" v="Østre Bylterud" />
		<tag k="place" v="farm" />
		<tag k="ssr:stedsnr" v="246209" />
	</node>
	<node lat="59.52642777379237" lon="10.701199998433376" id="-27544">
		<tag k="name" v="Strømbråten" />
		<tag k="place" v="village" />
		<tag k="ssr:stedsnr" v="246509" />
	</node>
	<node lat="59.622833337486966" lon="10.714816660881922" id="-27545">
		<tag k="name" v="Slutningen" />
		<tag k="place" v="farm" />
		<tag k="ssr:stedsnr" v="246629" />
	</node>
	<node lat="59.52417500033314" lon="10.777541665910435" id="-27546">
		<tag k="name" v="Damnes" />
		<tag k="place" v="farm" />
		<tag k="ssr:stedsnr" v="247004" />
	</node>
	<node lat="59.54726389030354" lon="10.777108328143527" id="-27547">
		<tag k="fixme" v="consider natural=peak for the most distinct mountains in the district" />
		<tag k="name" v="Vinesås" />
		<tag k="natural" v="hill" />
		<tag k="place" v="locality" />
		<tag k="ssr:stedsnr" v="265142" />
	</node>
	<node lat="59.56799444213365" lon="10.766624995799784" id="-27548">
		<tag k="name" v="Grønlundbekken" />
		<tag k="ssr:stedsnr" v="265205" />
		<tag k="waterway" v="stream" />
	</node>
	<node lat="59.61535278045013" lon="10.745350003991872" id="-27550">
		<tag k="name" v="Randem skog" />
		<tag k="place" v="quarter" />
		<tag k="ssr:stedsnr" v="265809" />
	</node>
	<node lat="59.592149998272944" lon="10.752755549820307" id="-27551">
		<tag k="name" v="Furulund" />
		<tag k="place" v="hamlet" />
		<tag k="ssr:stedsnr" v="266147" />
	</node>
	<node lat="59.56617499885129" lon="10.7359888923972" id="-27552">
		<tag k="name" v="Kjenn" />
		<tag k="place" v="hamlet" />
		<tag k="ssr:stedsnr" v="267712" />
	</node>
	<node lat="59.54639981950595" lon="10.699145839090574" id="-27553">
		<tag k="name" v="Mørk" />
		<tag k="place" v="hamlet" />
		<tag k="ssr:stedsnr" v="299297" />
	</node>
	<node lat="59.62035487237201" lon="10.711677121379308" id="-27559">
		<tag k="alt_name" v="Skau" />
		<tag k="fixme" v="consider place=hamlet" />
		<tag k="name" v="Skog" />
		<tag k="place" v="farm" />
		<tag k="ssr:stedsnr" v="306610" />
	</node>
	<node lat="59.61524998977869" lon="10.696559772568214" id="-27560">
		<tag k="fixme" v="consider place=hamlet" />
		<tag k="name" v="Grønberg" />
		<tag k="place" v="farm" />
		<tag k="ssr:stedsnr" v="306611" />
	</node>
	<node lat="59.588216663243" lon="10.725941670909739" id="-27561">
		<tag k="name" v="Lybekk" />
		<tag k="place" v="farm" />
		<tag k="ssr:stedsnr" v="307194" />
	</node>
	<node lat="59.567650360897076" lon="10.772650855476138" id="-27562">
		<tag k="alt_name" v="Rogsti, søndre" />
		<tag k="name" v="Søndre Rogsti" />
		<tag k="place" v="farm" />
		<tag k="ssr:stedsnr" v="307225" />
	</node>
	<node lat="59.53108055674692" lon="10.729844452299306" id="-27563">
		<tag k="alt_name" v="Stavengås" />
		<tag k="fixme" v="consider natural=peak for the most distinct mountains in the district" />
		<tag k="name" v="Stavengåsen" />
		<tag k="natural" v="hill" />
		<tag k="place" v="locality" />
		<tag k="ssr:stedsnr" v="326105" />
	</node>
	<node lat="59.54583611019395" lon="10.740722229030482" id="-27564">
		<tag k="name" v="Muggestadfossen" />
		<tag k="natural" v="waterfall" />
		<tag k="ssr:stedsnr" v="326107" />
	</node>
	<node lat="59.52656666489691" lon="10.724869448572615" id="-27565">
		<tag k="name" v="Mortenshytta" />
		<tag k="place" v="isolated_dwelling" />
		<tag k="ssr:stedsnr" v="326111" />
	</node>
	<node lat="59.588191670707225" lon="10.764347215308554" id="-27566">
		<tag k="fixme" v="consider natural=peak for the most distinct mountains in the district" />
		<tag k="name" v="Bjørnerudåsen" />
		<tag k="natural" v="hill" />
		<tag k="place" v="locality" />
		<tag k="ssr:stedsnr" v="326120" />
	</node>
	<node lat="59.58046110975682" lon="10.748977785886503" id="-27567">
		<tag k="name" v="Lureklomåsan" />
		<tag k="natural" v="wetland" />
		<tag k="ssr:stedsnr" v="326121" />
	</node>
	<node lat="59.59158333411387" lon="10.723316659291141" id="-27568">
		<tag k="name" v="Røed naturminne" />
		<tag k="ssr:stedsnr" v="326175" />
		<tag k="tourism" v="attraction" />
	</node>
	<node lat="59.554380551344885" lon="10.740527779450215" id="-27569">
		<tag k="name" v="Bruerløkka" />
		<tag k="place" v="farm" />
		<tag k="ssr:stedsnr" v="326185" />
	</node>
	<node lat="59.58743611109114" lon="10.846097219476949" id="-27570">
		<tag k="name" v="Hallehytta" />
		<tag k="place" v="farm" />
		<tag k="ssr:stedsnr" v="326769" />
	</node>
	<node lat="59.60037339751115" lon="10.749564651235193" id="-27571">
		<tag k="fixme" v="consider place=hamlet" />
		<tag k="name" v="Nordby" />
		<tag k="place" v="farm" />
		<tag k="ssr:stedsnr" v="326802" />
	</node>
	<node lat="59.51559167014306" lon="10.72648333700208" id="-27572">
		<tag k="bridge" v="yes" />
		<tag k="layer" v="1" />
		<tag k="name" v="Sonsveien holdeplass" />
		<tag k="ssr:stedsnr" v="470535" />
	</node>
	<node lat="59.57858888565355" lon="10.745994441039928" id="-27573">
		<tag k="name" v="Vestby næringspark øst" />
		<tag k="place" v="quarter" />
		<tag k="ssr:stedsnr" v="359956" />
	</node>
	<node lat="59.60507222006138" lon="10.712919446568291" id="-27574">
		<tag k="name" v="Skogmo" />
		<tag k="place" v="isolated_dwelling" />
		<tag k="ssr:stedsnr" v="360099" />
	</node>
	<node lat="59.540425002991796" lon="10.682308339891938" id="-27575">
		<tag k="name" v="Stamnesbekken" />
		<tag k="ssr:stedsnr" v="360267" />
		<tag k="waterway" v="stream" />
	</node>
	<node lat="59.51627587960484" lon="10.715866786189235" id="-27583">
		<tag k="alt_name" v="Grimsrud" />
		<tag k="fixme" v="consider place=hamlet" />
		<tag k="name" v="Grimsrød" />
		<tag k="place" v="farm" />
		<tag k="ssr:stedsnr" v="367025" />
	</node>
	<node lat="59.55313333333985" lon="10.743522221367188" id="-27584">
		<tag k="name" v="Elvestad" />
		<tag k="place" v="farm" />
		<tag k="ssr:stedsnr" v="367190" />
	</node>
	<node lat="59.598519444313" lon="10.671566664188358" id="-27586">
		<tag k="fixme" v="consider place=hamlet" />
		<tag k="name" v="Sekkebekk" />
		<tag k="place" v="farm" />
		<tag k="ssr:stedsnr" v="367604" />
	</node>
	<node lat="59.55852777633657" lon="10.682538890959256" id="-27587">
		<tag k="alt_name" v="Karterød" />
		<tag k="fixme" v="consider place=hamlet" />
		<tag k="name" v="Karterud" />
		<tag k="place" v="farm" />
		<tag k="ssr:stedsnr" v="367670" />
	</node>
	<node lat="59.557633036405775" lon="10.695284189935322" id="-27588">
		<tag k="name" v="Erikstad" />
		<tag k="place" v="hamlet" />
		<tag k="ssr:stedsnr" v="367677" />
	</node>
	<node lat="59.539836107507554" lon="10.739188884944317" id="-27589">
		<tag k="name" v="Hølen" />
		<tag k="place" v="village" />
		<tag k="ssr:stedsnr" v="368022" />
	</node>
	<node lat="59.53265066179041" lon="10.752463967538779" id="-27590">
		<tag k="alt_name" v="Vines, søndre;Vines søndre" />
		<tag k="fixme" v="consider place=hamlet" />
		<tag k="name" v="Søndre Vines" />
		<tag k="place" v="farm" />
		<tag k="ssr:stedsnr" v="368025" />
	</node>
	<node lat="59.588533333215906" lon="10.833233332373316" id="-27591">
		<tag k="alt_name" v="Hestvet;Hestvet vestre" />
		<tag k="name" v="Vestre Hestvet" />
		<tag k="place" v="farm" />
		<tag k="ssr:stedsnr" v="368027" />
	</node>
	<node lat="59.59977222523082" lon="10.83382777101619" id="-27592">
		<tag k="alt_name" v="Topper, østre;Topper østre" />
		<tag k="name" v="Østre Topper" />
		<tag k="place" v="farm" />
		<tag k="ssr:stedsnr" v="368170" />
	</node>
	<node lat="59.57370277344252" lon="10.765652784647587" id="-27593">
		<tag k="name" v="Toødegården" />
		<tag k="place" v="farm" />
		<tag k="ssr:stedsnr" v="368188" />
	</node>
	<node lat="59.49753055356025" lon="10.708455561476592" id="-27594">
		<tag k="alt_name" v="Rød vestre" />
		<tag k="fixme" v="multiple name tags, choose one and add the other to alt_name" />
		<tag k="name" v="Opp-Rød;Vestre Rød" />
		<tag k="place" v="farm" />
		<tag k="ssr:stedsnr" v="480435" />
	</node>
	<node lat="59.600458336691496" lon="10.701041661149826" id="-27595">
		<tag k="name" v="Habbelen" />
		<tag k="place" v="locality" />
		<tag k="ssr:stedsnr" v="481153" />
	</node>
	<node lat="59.59610833728" lon="10.655077779577692" id="-27596">
		<tag k="name" v="Bollesund" />
		<tag k="natural" v="bay" />
		<tag k="ssr:stedsnr" v="481235" />
	</node>
	<node lat="59.52445277428864" lon="10.69556666922402" id="-27597">
		<tag k="name" v="Munkenes kapell" />
		<tag k="ssr:stedsnr" v="481440" />
		<tag k="tourism" v="attraction" />
	</node>
	<node lat="59.5152555590547" lon="10.681655555103797" id="-27598">
		<tag k="name" v="Villa Holland" />
		<tag k="place" v="isolated_dwelling" />
		<tag k="ssr:stedsnr" v="481448" />
	</node>
	<node lat="59.51805278000305" lon="10.696661109518281" id="-27599">
		<tag k="leisure" v="pitch" />
		<tag k="name" v="Grevlingen" />
		<tag k="ssr:stedsnr" v="481450" />
	</node>
	<node lat="59.53902778232597" lon="10.773027770858604" id="-27600">
		<tag k="name" v="Gjestvang" />
		<tag k="place" v="isolated_dwelling" />
		<tag k="ssr:stedsnr" v="386107" />
	</node>
	<node lat="59.547805556527884" lon="10.773655558475783" id="-27601">
		<tag k="name" v="Slottebråten" />
		<tag k="place" v="farm" />
		<tag k="ssr:stedsnr" v="386124" />
	</node>
	<node lat="59.57943333510175" lon="10.810291669120602" id="-27602">
		<tag k="name" v="Enerås" />
		<tag k="place" v="isolated_dwelling" />
		<tag k="ssr:stedsnr" v="386209" />
	</node>
	<node lat="59.579069251024585" lon="10.67336084481263" id="-27603">
		<tag k="fixme" v="consider place=hamlet" />
		<tag k="name" v="Torp" />
		<tag k="place" v="farm" />
		<tag k="ssr:stedsnr" v="483738" />
	</node>
	<node lat="59.58032500265797" lon="10.670133327148331" id="-27604">
		<tag k="name" v="Vestre Torp" />
		<tag k="place" v="farm" />
		<tag k="ssr:stedsnr" v="483798" />
	</node>
	<node lat="59.527891663303336" lon="10.68978610557146" id="-27618">
		<tag k="bridge" v="yes" />
		<tag k="layer" v="1" />
		<tag k="name" v="Son" />
		<tag k="ssr:stedsnr" v="410146" />
	</node>
	<node lat="59.627903489104234" lon="10.737981041405897" id="-27619">
		<tag k="alt_name" v="Rød" />
		<tag k="fixme" v="consider place=hamlet" />
		<tag k="name" v="Nordre Rød" />
		<tag k="place" v="farm" />
		<tag k="ssr:stedsnr" v="488285" />
	</node>
	<node lat="59.609707049953585" lon="10.736983006759534" id="-27620">
		<tag k="fixme" v="consider place=hamlet" />
		<tag k="name" v="Kleiver" />
		<tag k="place" v="farm" />
		<tag k="ssr:stedsnr" v="488339" />
	</node>
	<node lat="59.53915304088357" lon="10.760670183761519" id="-27622">
		<tag k="alt_name" v="Auerød" />
		<tag k="name" v="Søndre Auerud" />
		<tag k="place" v="farm" />
		<tag k="ssr:stedsnr" v="418022" />
	</node>
	<node lat="59.49945555340796" lon="10.710124997626304" id="-27623">
		<tag k="alt_name" v="Rød, nordre;Rød nordre" />
		<tag k="name" v="Nordre Rød" />
		<tag k="place" v="farm" />
		<tag k="ssr:stedsnr" v="488473" />
	</node>
	<node lat="59.61972499806298" lon="10.685705556085328" id="-27624">
		<tag k="alt_name" v="Toverød" />
		<tag k="name" v="Øvre Toverud" />
		<tag k="place" v="farm" />
		<tag k="ssr:stedsnr" v="488629" />
	</node>
	<node lat="59.59184166655527" lon="10.701280550747368" id="-27625">
		<tag k="alt_name" v="Bjørnstad" />
		<tag k="fixme" v="consider place=hamlet" />
		<tag k="name" v="Bjørnestad" />
		<tag k="place" v="farm" />
		<tag k="ssr:stedsnr" v="488729" />
	</node>
	<node lat="59.551332939429024" lon="10.685025088053848" id="-27626">
		<tag k="fixme" v="consider place=hamlet" />
		<tag k="name" v="Arnestad" />
		<tag k="place" v="farm" />
		<tag k="ssr:stedsnr" v="488675" />
	</node>
	<node lat="59.56177777513018" lon="10.717194443344797" id="-27627">
		<tag k="name" v="Tømtbråten" />
		<tag k="place" v="farm" />
		<tag k="ssr:stedsnr" v="488681" />
	</node>
	<node lat="59.60670833771012" lon="10.769661104504834" id="-27628">
		<tag k="alt_name" v="Ålerød, nordre;Ålerud nordre" />
		<tag k="name" v="Nordre Ålerød" />
		<tag k="place" v="farm" />
		<tag k="ssr:stedsnr" v="489160" />
	</node>
	<node lat="59.5967583341679" lon="10.756841663856708" id="-27629">
		<tag k="amenity" v="school" />
		<tag k="name" v="Vestby skole" />
		<tag k="ssr:stedsnr" v="422050" />
	</node>
	<node lat="59.62991333748926" lon="10.787084038984473" id="-27630">
		<tag k="alt_name" v="Tveiter" />
		<tag k="fixme" v="consider place=hamlet" />
		<tag k="name" v="Tveter" />
		<tag k="place" v="farm" />
		<tag k="ssr:stedsnr" v="422210" />
	</node>
	<node lat="59.58920277710903" lon="10.692874997832455" id="-27631">
		<tag k="name" v="Nordre Rønjul" />
		<tag k="place" v="farm" />
		<tag k="ssr:stedsnr" v="422696" />
	</node>
	<node lat="59.59265555446046" lon="10.716713887930684" id="-27632">
		<tag k="name" v="Moradammen" />
		<tag k="natural" v="water" />
		<tag k="ssr:stedsnr" v="422700" />
	</node>
	<node lat="59.53338610761444" lon="10.676683340196579" id="-27640">
		<tag k="name" v="Stamnes" />
		<tag k="place" v="farm" />
		<tag k="ssr:stedsnr" v="428507" />
	</node>
	<node lat="59.52908888646123" lon="10.668252785596595" id="-27641">
		<tag k="alt_name" v="Vardåsen" />
		<tag k="fixme" v="consider natural=peak for the most distinct mountains in the district" />
		<tag k="name" v="Sonsåsen" />
		<tag k="natural" v="hill" />
		<tag k="place" v="locality" />
		<tag k="ssr:stedsnr" v="428512" />
	</node>
	<node lat="59.49962942653055" lon="10.746928396134079" id="-27642">
		<tag k="alt_name" v="Grefsrud" />
		<tag k="fixme" v="consider place=hamlet" />
		<tag k="name" v="Grefsrød" />
		<tag k="place" v="farm" />
		<tag k="ssr:stedsnr" v="428662" />
	</node>
	<node lat="59.5754694439209" lon="10.647761106186673" id="-27643">
		<tag k="name" v="Brenntangen" />
		<tag k="natural" v="cape" />
		<tag k="ssr:stedsnr" v="428706" />
	</node>
	<node lat="59.58641940828868" lon="10.678892127303087" id="-27645">
		<tag k="fixme" v="consider place=hamlet" />
		<tag k="name" v="Hauger" />
		<tag k="place" v="farm" />
		<tag k="ssr:stedsnr" v="428715" />
	</node>
	<node lat="59.59228611433832" lon="10.707638888010917" id="-27646">
		<tag k="name" v="Jonsrud" />
		<tag k="place" v="isolated_dwelling" />
		<tag k="ssr:stedsnr" v="428719" />
	</node>
	<node lat="59.581116662596756" lon="10.76053332993038" id="-27647">
		<tag k="alt_name" v="Vestre To" />
		<tag k="name" v="To" />
		<tag k="place" v="farm" />
		<tag k="ssr:stedsnr" v="429169" />
	</node>
	<node lat="59.53053888869747" lon="10.749224997902166" id="-27648">
		<tag k="junction" v="yes" />
		<tag k="name" v="Såner" />
		<tag k="place" v="locality" />
		<tag k="ssr:stedsnr" v="447123" />
	</node>
	<node lat="59.593469446409586" lon="10.748561102644326" id="-27649">
		<tag k="name" v="Balserud" />
		<tag k="place" v="locality" />
		<tag k="ssr:stedsnr" v="447148" />
	</node>
	<node lat="59.59460555874913" lon="10.768052775437015" id="-27650">
		<tag k="name" v="Børjaneset" />
		<tag k="place" v="locality" />
		<tag k="ssr:stedsnr" v="447149" />
	</node>
	<node lat="59.59348333775417" lon="10.82366665958206" id="-27651">
		<tag k="name" v="Bjørkelia" />
		<tag k="place" v="isolated_dwelling" />
		<tag k="ssr:stedsnr" v="447182" />
	</node>
	<node lat="59.57598055262998" lon="10.818625001968242" id="-27652">
		<tag k="name" v="Granlund" />
		<tag k="place" v="isolated_dwelling" />
		<tag k="ssr:stedsnr" v="447183" />
	</node>
	<node lat="59.54293888445437" lon="10.734447227040821" id="-27653">
		<tag k="name" v="Muggestad" />
		<tag k="place" v="farm" />
		<tag k="ssr:stedsnr" v="448116" />
	</node>
	<node lat="59.5210472191502" lon="10.77197499498658" id="-27654">
		<tag k="name" v="Pusset" />
		<tag k="place" v="farm" />
		<tag k="ssr:stedsnr" v="671055" />
	</node>
	<node lat="59.528229337450405" lon="10.761099349956622" id="-27655">
		<tag k="fixme" v="consider place=hamlet" />
		<tag k="name" v="Fosser" />
		<tag k="place" v="farm" />
		<tag k="ssr:stedsnr" v="671002" />
	</node>
	<node lat="59.58803610925285" lon="10.811786114419993" id="-27656">
		<tag k="name" v="Kjærstad" />
		<tag k="place" v="farm" />
		<tag k="ssr:stedsnr" v="671182" />
	</node>
	<node lat="59.59515555858078" lon="10.732202779249295" id="-27657">
		<tag k="alt_name" v="Rød;Rød øvre" />
		<tag k="name" v="Øvre Rød" />
		<tag k="place" v="farm" />
		<tag k="ssr:stedsnr" v="671134" />
	</node>
	<node lat="59.60511110760102" lon="10.752324992051019" id="-27658">
		<tag k="name" v="Vestby" />
		<tag k="place" v="village" />
		<tag k="ssr:stedsnr" v="671145" />
	</node>
	<node lat="59.566752846492804" lon="10.816396225119613" id="-27659">
		<tag k="fixme" v="consider place=hamlet" />
		<tag k="name" v="Gon" />
		<tag k="place" v="farm" />
		<tag k="ssr:stedsnr" v="671200" />
	</node>
	<node lat="59.57685555391324" lon="10.782288896955698" id="-27660">
		<tag k="alt_name" v="Rustad, østre;Rustad østre" />
		<tag k="name" v="Østre Rustad" />
		<tag k="place" v="farm" />
		<tag k="ssr:stedsnr" v="671161" />
	</node>
	<node lat="59.605313884605486" lon="10.697813895473933" id="-27661">
		<tag k="fixme" v="consider place=hamlet" />
		<tag k="name" v="Løktås" />
		<tag k="place" v="farm" />
		<tag k="ssr:stedsnr" v="671633" />
	</node>
	<node lat="59.61244444866824" lon="10.707280549834863" id="-27662">
		<tag k="fixme" v="consider place=hamlet" />
		<tag k="name" v="Ekerholt" />
		<tag k="place" v="farm" />
		<tag k="ssr:stedsnr" v="671647" />
	</node>
	<node lat="59.634351469556286" lon="10.689249908317787" id="-27663">
		<tag k="fixme" v="consider place=hamlet" />
		<tag k="name" v="Fuglegården" />
		<tag k="place" v="farm" />
		<tag k="ssr:stedsnr" v="671693" />
	</node>
	<node lat="59.51572777407676" lon="10.691783336056938" id="-27664">
		<tag k="bridge" v="yes" />
		<tag k="layer" v="1" />
		<tag k="name" v="Brevik" />
		<tag k="ssr:stedsnr" v="471182" />
	</node>
	<node lat="59.60623055328281" lon="10.741894444659192" id="-27665">
		<tag k="alt_name" v="Øvre Randem;Randum nordre med Østby-ødegården" />
		<tag k="name" v="Øvre Randum" />
		<tag k="old_name" v="Østre Randum;Randum, østre" />
		<tag k="place" v="farm" />
		<tag k="ssr:stedsnr" v="478123" />
	</node>
	<node lat="59.526336112781756" lon="10.696633331803787" id="-27666">
		<tag k="name" v="Labuhøgda" />
		<tag k="natural" v="hill" />
		<tag k="place" v="locality" />
		<tag k="ssr:stedsnr" v="480703" />
	</node>
	<node lat="59.52860538795264" lon="10.69955840502032" id="-27667">
		<tag k="alt_name" v="Labo søndre" />
		<tag k="fixme" v="consider place=hamlet" />
		<tag k="name" v="Søndre Labu" />
		<tag k="place" v="farm" />
		<tag k="ssr:stedsnr" v="481418" />
	</node>
	<node lat="59.53365555282068" lon="10.692422219060415" id="-27668">
		<tag k="alt_name" v="Kålåstjern" />
		<tag k="name" v="Kolåstjern" />
		<tag k="natural" v="water" />
		<tag k="ssr:stedsnr" v="481304" />
	</node>
	<node lat="59.53981944041928" lon="10.702741658502559" id="-27669">
		<tag k="name" v="Kinnemåsan" />
		<tag k="natural" v="wetland" />
		<tag k="ssr:stedsnr" v="481309" />
	</node>
	<node lat="59.62409166575909" lon="10.70147500107003" id="-27670">
		<tag k="name" v="Galbybråten" />
		<tag k="place" v="locality" />
		<tag k="ssr:stedsnr" v="483169" />
	</node>
	<node lat="59.619149997400356" lon="10.710744436553616" id="-27671">
		<tag k="alt_name" v="Skau vestre;Vestre Skog" />
		<tag k="name" v="Vestre Skau" />
		<tag k="place" v="farm" />
		<tag k="ssr:stedsnr" v="483176" />
	</node>
	<node lat="59.62197777347998" lon="10.694808335849398" id="-27672">
		<tag k="name" v="Vardåsen" />
		<tag k="natural" v="hill" />
		<tag k="place" v="locality" />
		<tag k="ssr:stedsnr" v="483178" />
	</node>
	<node lat="59.62538333255338" lon="10.679427785240417" id="-27673">
		<tag k="name" v="Haugenholtet" />
		<tag k="place" v="locality" />
		<tag k="ssr:stedsnr" v="483195" />
	</node>
	<node lat="59.57759999775025" lon="10.651883338035248" id="-27676">
		<tag k="name" v="Søndre Brånen" />
		<tag k="place" v="farm" />
		<tag k="ssr:stedsnr" v="483563" />
	</node>
	<node lat="59.61020675476585" lon="10.77018926307791" id="-27682">
		<tag k="name" v="Kjensli" />
		<tag k="place" v="farm" />
		<tag k="ssr:stedsnr" v="488349" />
	</node>
	<node lat="59.60806666974603" lon="10.805827777171908" id="-27683">
		<tag k="fixme" v="consider natural=peak for the most distinct mountains in the district" />
		<tag k="name" v="Tiuråsen" />
		<tag k="natural" v="hill" />
		<tag k="place" v="locality" />
		<tag k="ssr:stedsnr" v="488352" />
	</node>
	<node lat="59.63719695179597" lon="10.71147995470547" id="-27684">
		<tag k="alt_name" v="Rustad" />
		<tag k="fixme" v="consider place=hamlet" />
		<tag k="name" v="Nordre Rustad" />
		<tag k="place" v="farm" />
		<tag k="ssr:stedsnr" v="488660" />
	</node>
	<node lat="59.60251110988801" lon="10.7317583385328" id="-27685">
		<tag k="alt_name" v="Vestby" />
		<tag k="amenity" v="place_of_worship" />
		<tag k="denomination" v="lutheran" />
		<tag k="name" v="Vestby kirke" />
		<tag k="religion" v="christian" />
		<tag k="ssr:stedsnr" v="489154" />
	</node>
	<node lat="59.51091198736339" lon="10.727736125859499" id="-27686">
		<tag k="fixme" v="consider place=hamlet" />
		<tag k="name" v="Gate" />
		<tag k="place" v="farm" />
		<tag k="ssr:stedsnr" v="489046" />
	</node>
	<node lat="59.59038702135549" lon="10.839782387806755" id="-27687">
		<tag k="alt_name" v="Hestvet;Hestvet nordre" />
		<tag k="fixme" v="consider place=hamlet" />
		<tag k="name" v="Nordre Hestvet" />
		<tag k="place" v="farm" />
		<tag k="ssr:stedsnr" v="489202" />
	</node>
	<node lat="59.59527778119939" lon="10.822402780929696" id="-27688">
		<tag k="alt_name" v="Haug;Haug nordre" />
		<tag k="name" v="Nordre Haug" />
		<tag k="place" v="farm" />
		<tag k="ssr:stedsnr" v="489204" />
	</node>
	<node lat="59.54391944386723" lon="10.731758326604064" id="-27689">
		<tag k="fixme" v="consider natural=peak for the most distinct mountains in the district" />
		<tag k="name" v="Karderåsen" />
		<tag k="natural" v="hill" />
		<tag k="place" v="locality" />
		<tag k="ssr:stedsnr" v="508116" />
	</node>
	<node lat="59.6051944487869" lon="10.766358338842071" id="-27690">
		<tag k="name" v="Fallentinbekken" />
		<tag k="ssr:stedsnr" v="508790" />
		<tag k="waterway" v="stream" />
	</node>
	<node lat="59.60950277982827" lon="10.649177777195296" id="-27691">
		<tag k="name" v="Sandvik" />
		<tag k="natural" v="bay" />
		<tag k="ssr:stedsnr" v="511009" />
	</node>
	<node lat="59.53298254335597" lon="10.772954916528262" id="-27692">
		<tag k="alt_name" v="Fagerholt nordre" />
		<tag k="name" v="Nordre Fagerholt" />
		<tag k="old_name" v="Fagerli, nordre" />
		<tag k="place" v="farm" />
		<tag k="ssr:stedsnr" v="541025" />
	</node>
	<node lat="59.52162499923933" lon="10.675219442378056" id="-27693">
		<tag k="name" v="Ballastbåen" />
		<tag k="place" v="locality" />
		<tag k="seamark:type" v="rock" />
		<tag k="ssr:stedsnr" v="541711" />
	</node>
	<node lat="59.53458888464327" lon="10.672327776341696" id="-27694">
		<tag k="name" v="Stamnestjern" />
		<tag k="natural" v="water" />
		<tag k="ssr:stedsnr" v="542308" />
	</node>
	<node lat="59.54909722242324" lon="10.686669450990802" id="-27695">
		<tag k="name" v="Eikås" />
		<tag k="place" v="isolated_dwelling" />
		<tag k="ssr:stedsnr" v="542266" />
	</node>
	<node lat="59.52418888565349" lon="10.71523056369791" id="-27696">
		<tag k="name" v="Stensli" />
		<tag k="place" v="farm" />
		<tag k="ssr:stedsnr" v="542415" />
	</node>
	<node lat="59.51234999671679" lon="10.671577778723771" id="-27697">
		<tag k="name" v="Storholmen" />
		<tag k="place" v="islet" />
		<tag k="ssr:stedsnr" v="542420" />
	</node>
	<node lat="59.61254167114413" lon="10.678591666929854" id="-27698">
		<tag k="alt_name" v="Øgård" />
		<tag k="name" v="Knalstadødegården" />
		<tag k="place" v="farm" />
		<tag k="ssr:stedsnr" v="543177" />
	</node>
	<node lat="59.594902779660934" lon="10.701327771723033" id="-27699">
		<tag k="name" v="Solli" />
		<tag k="place" v="farm" />
		<tag k="ssr:stedsnr" v="543716" />
	</node>
	<node lat="59.606872218920316" lon="10.730886117037501" id="-27712">
		<tag k="name" v="Nordli" />
		<tag k="place" v="farm" />
		<tag k="ssr:stedsnr" v="549364" />
	</node>
	<node lat="59.6128299272239" lon="10.802252622648897" id="-27713">
		<tag k="fixme" v="consider place=hamlet" />
		<tag k="name" v="Auten" />
		<tag k="place" v="farm" />
		<tag k="ssr:stedsnr" v="549368" />
	</node>
	<node lat="59.61117500170868" lon="10.779072220188672" id="-27714">
		<tag k="name" v="Kjenslimoen" />
		<tag k="place" v="farm" />
		<tag k="ssr:stedsnr" v="549369" />
	</node>
	<node lat="59.51263611106656" lon="10.672049995792362" id="-27715">
		<tag k="alt_name" v="Saueholmane;Saueholmene" />
		<tag k="name" v="Sauholmane" />
		<tag k="old_name" v="Sau. Hl.;Sauhl-ne" />
		<tag k="place" v="island" />
		<tag k="ssr:stedsnr" v="549504" />
	</node>
	<node lat="59.5508999955394" lon="10.665027778128314" id="-27716">
		<tag k="name" v="Furubråten" />
		<tag k="place" v="isolated_dwelling" />
		<tag k="ssr:stedsnr" v="549526" />
	</node>
	<node lat="59.59175277538794" lon="10.812077778374585" id="-27717">
		<tag k="alt_name" v="Kjærstad;Kjærstad nordre" />
		<tag k="name" v="Nordre Kjærstad" />
		<tag k="place" v="farm" />
		<tag k="ssr:stedsnr" v="550029" />
	</node>
	<node lat="59.52180833617088" lon="10.763211112035712" id="-27718">
		<tag k="alt_name" v="Østerud, søndre" />
		<tag k="name" v="Søndre Østerud" />
		<tag k="place" v="farm" />
		<tag k="ssr:stedsnr" v="550051" />
	</node>
	<node lat="59.582272221258314" lon="10.72352777500629" id="-27720">
		<tag k="name" v="Sollibråten" />
		<tag k="place" v="farm" />
		<tag k="ssr:stedsnr" v="690135" />
	</node>
	<node lat="59.51035278053479" lon="10.752861103975512" id="-27722">
		<tag k="fixme" v="consider natural=peak for the most distinct mountains in the district" />
		<tag k="name" v="Skrieråsen" />
		<tag k="natural" v="hill" />
		<tag k="place" v="locality" />
		<tag k="ssr:stedsnr" v="690146" />
	</node>
	<node lat="59.58814444321304" lon="10.817088891792968" id="-27723">
		<tag k="name" v="Åsly" />
		<tag k="place" v="isolated_dwelling" />
		<tag k="ssr:stedsnr" v="690236" />
	</node>
	<node lat="59.558011109915725" lon="10.725538888829488" id="-27724">
		<tag k="name" v="Flåtorva" />
		<tag k="natural" v="wetland" />
		<tag k="ssr:stedsnr" v="690253" />
	</node>
	<node lat="59.60872777689958" lon="10.760808340072641" id="-27725">
		<tag k="name" v="Volden" />
		<tag k="place" v="farm" />
		<tag k="ssr:stedsnr" v="690824" />
	</node>
	<node lat="59.497600000599626" lon="10.760094448291163" id="-27727">
		<tag k="name" v="Vandråsmåsan" />
		<tag k="natural" v="wetland" />
		<tag k="ssr:stedsnr" v="568066" />
	</node>
	<node lat="59.513599999280125" lon="10.775172218744613" id="-27728">
		<tag k="name" v="Borgerudtjern" />
		<tag k="natural" v="water" />
		<tag k="ssr:stedsnr" v="568121" />
	</node>
	<node lat="59.51222777514334" lon="10.769011115471594" id="-27729">
		<tag k="name" v="Borgerudbråten" />
		<tag k="place" v="locality" />
		<tag k="ssr:stedsnr" v="568123" />
	</node>
	<node lat="59.58904166789149" lon="10.807133341213582" id="-27730">
		<tag k="alt_name" v="Tuft øvre;Tuft" />
		<tag k="name" v="Øvre Tuft" />
		<tag k="place" v="farm" />
		<tag k="ssr:stedsnr" v="568156" />
	</node>
	<node lat="59.58909454304879" lon="10.811848955753543" id="-27731">
		<tag k="alt_name" v="Kjærstad vestre" />
		<tag k="fixme" v="consider place=hamlet" />
		<tag k="name" v="Vestre Kjærstad" />
		<tag k="place" v="farm" />
		<tag k="ssr:stedsnr" v="568158" />
	</node>
	<node lat="59.57609166615592" lon="10.80136666784672" id="-27732">
		<tag k="name" v="Garderbråten" />
		<tag k="place" v="farm" />
		<tag k="ssr:stedsnr" v="568165" />
	</node>
	<node lat="59.58002499816411" lon="10.802794451379036" id="-27733">
		<tag k="name" v="Fjelltun" />
		<tag k="place" v="farm" />
		<tag k="ssr:stedsnr" v="568167" />
	</node>
	<node lat="59.5646861150776" lon="10.725930551308101" id="-27734">
		<tag k="loc_name" v="Opp-Kjenn;Oppkjenn" />
		<tag k="name" v="Øvre Kjenn" />
		<tag k="place" v="farm" />
		<tag k="ssr:stedsnr" v="568216" />
	</node>
	<node lat="59.60913333769971" lon="10.818849996855347" id="-27735">
		<tag k="name" v="Firemannsdelet" />
		<tag k="place" v="locality" />
		<tag k="ssr:stedsnr" v="568759" />
	</node>
	<node lat="59.61122291861402" lon="10.774537621229094" id="-27736">
		<tag k="fixme" v="consider place=hamlet" />
		<tag k="name" v="Kjensli" />
		<tag k="place" v="farm" />
		<tag k="ssr:stedsnr" v="568762" />
	</node>
	<node lat="59.62375833377047" lon="10.777425007309477" id="-27737">
		<tag k="name" v="Tveterengen" />
		<tag k="place" v="isolated_dwelling" />
		<tag k="ssr:stedsnr" v="568777" />
	</node>
	<node lat="59.59666110940043" lon="10.746583334137561" id="-27738">
		<tag k="bridge" v="yes" />
		<tag k="layer" v="1" />
		<tag k="name" v="Sundby" />
		<tag k="ssr:stedsnr" v="592158" />
	</node>
	<node lat="59.60268610909481" lon="10.664124994428121" id="-27739">
		<tag k="bridge" v="yes" />
		<tag k="layer" v="1" />
		<tag k="name" v="Knutehull" />
		<tag k="ssr:stedsnr" v="592166" />
	</node>
	<node lat="59.5453889558462" lon="10.761171726726753" id="-27740">
		<tag k="alt_name" v="Auerød" />
		<tag k="name" v="Nordre Auerud" />
		<tag k="place" v="farm" />
		<tag k="ssr:stedsnr" v="599207" />
	</node>
	<node lat="59.50446388902197" lon="10.691188893573653" id="-27741">
		<tag k="amenity" v="school" />
		<tag k="name" v="Brevik skole" />
		<tag k="ssr:stedsnr" v="602456" />
	</node>
	<node lat="59.61032221979415" lon="10.694716675062642" id="-27742">
		<tag k="name" v="Haugtun" />
		<tag k="place" v="isolated_dwelling" />
		<tag k="ssr:stedsnr" v="604162" />
	</node>
	<node lat="59.580594447750016" lon="10.652422220366285" id="-27743">
		<tag k="name" v="Nordre Brånen" />
		<tag k="place" v="farm" />
		<tag k="ssr:stedsnr" v="604549" />
	</node>
	<node lat="59.580002774372986" lon="10.677786119226555" id="-27744">
		<tag k="name" v="Østre Torp" />
		<tag k="place" v="farm" />
		<tag k="ssr:stedsnr" v="604771" />
	</node>
	<node lat="59.6204888848604" lon="10.737436102672365" id="-27753">
		<tag k="name" v="Verpet" />
		<tag k="place" v="farm" />
		<tag k="ssr:stedsnr" v="609337" />
	</node>
	<node lat="59.524786107771654" lon="10.67666667280412" id="-27754">
		<tag k="name" v="Laksa" />
		<tag k="place" v="farm" />
		<tag k="ssr:stedsnr" v="609485" />
	</node>
	<node lat="59.624277774147885" lon="10.689974999226854" id="-27755">
		<tag k="name" v="Vernhus" />
		<tag k="place" v="farm" />
		<tag k="ssr:stedsnr" v="609639" />
	</node>
	<node lat="59.582652778678764" lon="10.668497214122365" id="-27756">
		<tag k="fixme" v="consider natural=peak for the most distinct mountains in the district" />
		<tag k="name" v="Kikkeråsen" />
		<tag k="natural" v="hill" />
		<tag k="place" v="locality" />
		<tag k="ssr:stedsnr" v="609692" />
	</node>
	<node lat="59.532013232687646" lon="10.773399666906997" id="-27757">
		<tag k="fixme" v="consider place=hamlet" />
		<tag k="name" v="Fagerholt" />
		<tag k="place" v="farm" />
		<tag k="ssr:stedsnr" v="610002" />
	</node>
	<node lat="59.514490886616215" lon="10.746095029451787" id="-27758">
		<tag k="alt_name" v="Burud" />
		<tag k="fixme" v="consider place=hamlet" />
		<tag k="name" v="Burød" />
		<tag k="place" v="farm" />
		<tag k="ssr:stedsnr" v="610040" />
	</node>
	<node lat="59.5834087820179" lon="10.751119244349308" id="-27759">
		<tag k="fixme" v="consider place=hamlet" />
		<tag k="name" v="Røddal" />
		<tag k="place" v="farm" />
		<tag k="ssr:stedsnr" v="610219" />
	</node>
	<node lat="59.577787585616065" lon="10.760804287056198" id="-27760">
		<tag k="alt_name" v="Søndre To" />
		<tag k="fixme" v="consider place=hamlet" />
		<tag k="name" v="To" />
		<tag k="place" v="farm" />
		<tag k="ssr:stedsnr" v="610190" />
	</node>
	<node lat="59.581116665706695" lon="10.80935833531472" id="-27761">
		<tag k="alt_name" v="Garder" />
		<tag k="amenity" v="place_of_worship" />
		<tag k="denomination" v="lutheran" />
		<tag k="name" v="Garder kirke" />
		<tag k="religion" v="christian" />
		<tag k="ssr:stedsnr" v="610201" />
	</node>
	<node lat="59.54515833499933" lon="10.693336118577868" id="-27762">
		<tag k="name" v="Søndre Mørk" />
		<tag k="place" v="farm" />
		<tag k="ssr:stedsnr" v="610593" />
	</node>
	<node lat="59.59720833298488" lon="10.768055554151163" id="-27764">
		<tag k="name" v="Grøstaddalen" />
		<tag k="place" v="farm" />
		<tag k="ssr:stedsnr" v="629796" />
	</node>
	<node lat="59.61688611229149" lon="10.732555552602454" id="-27765">
		<tag k="alt_name" v="Jegstad" />
		<tag k="bridge" v="yes" />
		<tag k="layer" v="1" />
		<tag k="name" v="Gjekstad" />
		<tag k="ssr:stedsnr" v="652148" />
	</node>
	<node lat="59.50903332957874" lon="10.694794442535983" id="-27766">
		<tag k="name" v="Brevikmyra" />
		<tag k="place" v="quarter" />
		<tag k="ssr:stedsnr" v="663407" />
	</node>
	<node lat="59.587933335952144" lon="10.670652772700535" id="-27767">
		<tag k="name" v="Solbakken" />
		<tag k="place" v="isolated_dwelling" />
		<tag k="ssr:stedsnr" v="664683" />
	</node>
	<node lat="59.624270028139485" lon="10.78238581937094" id="-27775">
		<tag k="alt_name" v="Tveiter, søndre;Søndre Tveiter" />
		<tag k="name" v="Søndre Tveter" />
		<tag k="place" v="farm" />
		<tag k="ssr:stedsnr" v="670325" />
	</node>
	<node lat="59.627340297922096" lon="10.771482539222582" id="-27776">
		<tag k="fixme" v="consider place=hamlet" />
		<tag k="name" v="Støttum" />
		<tag k="place" v="farm" />
		<tag k="ssr:stedsnr" v="670330" />
	</node>
	<node lat="59.58129166249717" lon="10.654416660864216" id="-27777">
		<tag k="name" v="Emmerstad" />
		<tag k="place" v="farm" />
		<tag k="ssr:stedsnr" v="670717" />
	</node>
	<node lat="59.54077777929122" lon="10.744858334763196" id="-27778">
		<tag k="name" v="Riulfsborg" />
		<tag k="place" v="isolated_dwelling" />
		<tag k="ssr:stedsnr" v="690098" />
	</node>
	<node lat="59.57611111426345" lon="10.790049994324969" id="-27779">
		<tag k="name" v="Drømmerud" />
		<tag k="place" v="farm" />
		<tag k="ssr:stedsnr" v="690206" />
	</node>
	<node lat="59.61730833374675" lon="10.769841667268588" id="-27780">
		<tag k="name" v="Teipa" />
		<tag k="place" v="farm" />
		<tag k="ssr:stedsnr" v="690277" />
	</node>
	<node lat="59.550527777165456" lon="10.727594452783235" id="-27781">
		<tag k="name" v="Nordre Karder" />
		<tag k="place" v="farm" />
		<tag k="ssr:stedsnr" v="691130" />
	</node>
	<node lat="59.53265833548969" lon="10.746747215426485" id="-27782">
		<tag k="name" v="Vollebekk" />
		<tag k="place" v="farm" />
		<tag k="ssr:stedsnr" v="691141" />
	</node>
	<node lat="59.57921944089925" lon="10.651786104076248" id="-27783">
		<tag k="alt_name" v="Brånen" />
		<tag k="name" v="Brånan" />
		<tag k="old_name" v="Braanen" />
		<tag k="place" v="farm" />
		<tag k="ssr:stedsnr" v="692922" />
	</node>
	<node lat="59.59041666431911" lon="10.652052780850937" id="-27784">
		<tag k="name" v="Hestvika" />
		<tag k="natural" v="bay" />
		<tag k="ssr:stedsnr" v="692924" />
	</node>
	<node lat="59.62763333581857" lon="10.78239443934869" id="-27785">
		<tag k="alt_name" v="Tveiter mellem;Mellom Tveiter" />
		<tag k="name" v="Mellom-Tveter" />
		<tag k="place" v="farm" />
		<tag k="ssr:stedsnr" v="693307" />
	</node>
	<node lat="59.59271944446754" lon="10.71831388296863" id="-27786">
		<tag k="bridge" v="yes" />
		<tag k="layer" v="1" />
		<tag k="name" v="Jonsrud" />
		<tag k="ssr:stedsnr" v="896153" />
	</node>
	<node lat="59.53290278160523" lon="10.749391658238245" id="-27787">
		<tag k="bridge" v="yes" />
		<tag k="layer" v="1" />
		<tag k="name" v="Vines" />
		<tag k="ssr:stedsnr" v="713172" />
	</node>
	<node lat="59.52025278104513" lon="10.702213894803482" id="-27788">
		<tag k="name" v="Husjordet" />
		<tag k="place" v="farm" />
		<tag k="ssr:stedsnr" v="724386" />
	</node>
	<node lat="59.518586110550835" lon="10.681769437976676" id="-27789">
		<tag k="name" v="Langesand" />
		<tag k="natural" v="beach" />
		<tag k="ssr:stedsnr" v="724389" />
	</node>
	<node lat="59.513588885179566" lon="10.679416674262496" id="-27790">
		<tag k="name" v="Skutebaugen" />
		<tag k="natural" v="cape" />
		<tag k="ssr:stedsnr" v="724393" />
	</node>
	<node lat="59.61212437544894" lon="10.755178783814655" id="-27798">
		<tag k="fixme" v="consider place=hamlet" />
		<tag k="name" v="Krom" />
		<tag k="place" v="farm" />
		<tag k="ssr:stedsnr" v="731318" />
	</node>
	<node lat="59.58303888591932" lon="10.653952781460958" id="-27799">
		<tag k="name" v="Emmerstadbukta" />
		<tag k="natural" v="bay" />
		<tag k="ssr:stedsnr" v="731714" />
	</node>
	<node lat="59.58595079114257" lon="10.693338689490059" id="-27800">
		<tag k="fixme" v="consider place=hamlet" />
		<tag k="name" v="Rønjul" />
		<tag k="place" v="farm" />
		<tag k="ssr:stedsnr" v="731717" />
	</node>
	<node lat="59.590986109500925" lon="10.81994999893343" id="-27801">
		<tag k="name" v="Haug" />
		<tag k="place" v="farm" />
		<tag k="ssr:stedsnr" v="732025" />
	</node>
	<node lat="59.60127222095272" lon="10.828752778826646" id="-27802">
		<tag k="alt_name" v="Topper, vestre;Topper vestre" />
		<tag k="name" v="Vestre Topper" />
		<tag k="place" v="farm" />
		<tag k="ssr:stedsnr" v="732161" />
	</node>
	<node lat="59.55376388802703" lon="10.773836109465927" id="-27803">
		<tag k="alt_name" v="Åmot, nordre;Åmot store" />
		<tag k="fixme" v="multiple name tags, choose one and add the other to alt_name" />
		<tag k="name" v="Nordre Åmot;Store Åmot" />
		<tag k="place" v="farm" />
		<tag k="ssr:stedsnr" v="903226" />
	</node>
	<node lat="59.57464166328201" lon="10.799663880069975" id="-27805">
		<tag k="name" v="Bjerkelangen" />
		<tag k="place" v="isolated_dwelling" />
		<tag k="ssr:stedsnr" v="750128" />
	</node>
	<node lat="59.583674998589615" lon="10.752908334654707" id="-27806">
		<tag k="alt_name" v="Røddal østre" />
		<tag k="name" v="Østre Røddal" />
		<tag k="place" v="farm" />
		<tag k="ssr:stedsnr" v="750135" />
	</node>
	<node lat="59.58424444394864" lon="10.772286118913515" id="-27807">
		<tag k="alt_name" v="Grønlund nordre" />
		<tag k="name" v="Nordre Grønlund" />
		<tag k="place" v="farm" />
		<tag k="ssr:stedsnr" v="750137" />
	</node>
	<node lat="59.586113888370846" lon="10.810669448069847" id="-27808">
		<tag k="junction" v="yes" />
		<tag k="name" v="Kjærstad" />
		<tag k="place" v="locality" />
		<tag k="ssr:stedsnr" v="750163" />
	</node>
	<node lat="59.499800002161756" lon="10.680286108022372" id="-27809">
		<tag k="name" v="Skurvåsodden" />
		<tag k="natural" v="cape" />
		<tag k="ssr:stedsnr" v="756101" />
	</node>
	<node lat="59.60457927545126" lon="10.677379145648349" id="-27810">
		<tag k="alt_name" v="Søndre Knalstad" />
		<tag k="name" v="Søndre Knallstad" />
		<tag k="place" v="farm" />
		<tag k="ssr:stedsnr" v="906130" />
	</node>
	<node lat="59.545847225521975" lon="10.710174997550851" id="-27811">
		<tag k="alt_name" v="Tugelite" />
		<tag k="loc_name" v="Tugulite" />
		<tag k="name" v="Mørkbråten" />
		<tag k="place" v="farm" />
		<tag k="ssr:stedsnr" v="906279" />
	</node>
	<node lat="59.55256944520405" lon="10.656108338218676" id="-27812">
		<tag k="fixme" v="consider natural=peak for the most distinct mountains in the district" />
		<tag k="name" v="Stjernåsen" />
		<tag k="natural" v="hill" />
		<tag k="place" v="locality" />
		<tag k="ssr:stedsnr" v="906323" />
	</node>
	<node lat="59.51170833478864" lon="10.680930552438113" id="-27813">
		<tag k="fixme" v="consider natural=peak for the most distinct mountains in the district" />
		<tag k="name" v="Tønnesåsen" />
		<tag k="natural" v="hill" />
		<tag k="place" v="locality" />
		<tag k="ssr:stedsnr" v="906440" />
	</node>
	<node lat="59.49320000270989" lon="10.692658336099509" id="-27814">
		<tag k="alt_name" v="Brevik søndre" />
		<tag k="name" v="Søndre Brevik" />
		<tag k="place" v="farm" />
		<tag k="ssr:stedsnr" v="906639" />
	</node>
	<node lat="59.491763892698216" lon="10.693255559368279" id="-27815">
		<tag k="name" v="Haslebakke" />
		<tag k="place" v="isolated_dwelling" />
		<tag k="ssr:stedsnr" v="906642" />
	</node>
	<node lat="59.62615000323864" lon="10.704291668799456" id="-27817">
		<tag k="name" v="Moseby" />
		<tag k="place" v="locality" />
		<tag k="ssr:stedsnr" v="908181" />
	</node>
	<node lat="59.585336107318064" lon="10.69183055172339" id="-27819">
		<tag k="name" v="Søndre Rønjul" />
		<tag k="place" v="farm" />
		<tag k="ssr:stedsnr" v="908735" />
	</node>
	<node lat="59.5176944461668" lon="10.683366661750298" id="-27822">
		<tag k="name" v="Vestre Skog" />
		<tag k="place" v="isolated_dwelling" />
		<tag k="ssr:stedsnr" v="784714" />
	</node>
	<node lat="59.48388055541252" lon="10.713591674847008" id="-27823">
		<tag k="name" v="Langemyr" />
		<tag k="natural" v="wetland" />
		<tag k="ssr:stedsnr" v="784652" />
	</node>
	<node lat="59.61050555872244" lon="10.693644447874282" id="-27833">
		<tag k="name" v="Solheim" />
		<tag k="place" v="isolated_dwelling" />
		<tag k="ssr:stedsnr" v="786141" />
	</node>
	<node lat="59.55788055258594" lon="10.663005550279207" id="-27838">
		<tag k="name" v="Snellum" />
		<tag k="place" v="locality" />
		<tag k="ssr:stedsnr" v="786547" />
	</node>
	<node lat="59.556619442242436" lon="10.694000007630716" id="-27839">
		<tag k="name" v="Mellom-Erikstad" />
		<tag k="place" v="farm" />
		<tag k="ssr:stedsnr" v="786552" />
	</node>
	<node lat="59.58637777510244" lon="10.692625004120766" id="-27842">
		<tag k="alt_name" v="Rønjul mellom" />
		<tag k="name" v="Mellom-Rønjul" />
		<tag k="place" v="farm" />
		<tag k="ssr:stedsnr" v="786719" />
	</node>
	<node lat="59.581474999699054" lon="10.70826389229182" id="-27843">
		<tag k="name" v="Myra" />
		<tag k="place" v="isolated_dwelling" />
		<tag k="ssr:stedsnr" v="786759" />
	</node>
	<node lat="59.63423799423216" lon="10.731039812240239" id="-27850">
		<tag k="fixme" v="consider place=hamlet" />
		<tag k="name" v="Jord" />
		<tag k="place" v="farm" />
		<tag k="ssr:stedsnr" v="791288" />
	</node>
	<node lat="59.5573656512598" lon="10.730263455260985" id="-27851">
		<tag k="alt_name" v="Kjenn;Søndre Kjenn" />
		<tag k="fixme" v="consider place=hamlet" />
		<tag k="name" v="Søndre Kjenn" />
		<tag k="place" v="farm" />
		<tag k="ssr:stedsnr" v="792234" />
	</node>
	<node lat="59.518898642019245" lon="10.731612933505195" id="-27852">
		<tag k="fixme" v="consider place=hamlet" />
		<tag k="name" v="Ulfski" />
		<tag k="place" v="farm" />
		<tag k="ssr:stedsnr" v="793045" />
	</node>
	<node lat="59.57420550740668" lon="10.827480785388097" id="-27853">
		<tag k="alt_name" v="Tom, store" />
		<tag k="fixme" v="multiple name tags, choose one and add the other to alt_name" />
		<tag k="name" v="Tom;Store Tom" />
		<tag k="place" v="farm" />
		<tag k="ssr:stedsnr" v="793228" />
	</node>
	<node lat="59.60724722529408" lon="10.724080553203269" id="-27854">
		<tag k="name" v="Vestbybråten" />
		<tag k="place" v="farm" />
		<tag k="ssr:stedsnr" v="913353" />
	</node>
	<node lat="59.63186666520642" lon="10.788933331933322" id="-27855">
		<tag k="alt_name" v="Tveiter, nordre;Tveiter nordre;Nordre Tveiter" />
		<tag k="name" v="Nordre Tveter" />
		<tag k="place" v="farm" />
		<tag k="ssr:stedsnr" v="913313" />
	</node>
	<node lat="59.62387499576115" lon="10.752650001878177" id="-27856">
		<tag k="alt_name" v="Stubberud" />
		<tag k="name" v="Stubberød" />
		<tag k="place" v="farm" />
		<tag k="ssr:stedsnr" v="913316" />
	</node>
	<node lat="59.62178171728861" lon="10.77323890739153" id="-27857">
		<tag k="fixme" v="consider place=hamlet" />
		<tag k="name" v="Østereng" />
		<tag k="place" v="farm" />
		<tag k="ssr:stedsnr" v="913329" />
	</node>
	<node lat="59.558300002806746" lon="10.649752778449416" id="-27858">
		<tag k="name" v="Bølnes" />
		<tag k="place" v="farm" />
		<tag k="ssr:stedsnr" v="913657" />
	</node>
	<node lat="59.591079388336595" lon="10.66360774948996" id="-27859">
		<tag k="fixme" v="consider place=hamlet" />
		<tag k="name" v="Strand" />
		<tag k="place" v="farm" />
		<tag k="ssr:stedsnr" v="913723" />
	</node>
	<node lat="59.53023225249841" lon="10.737494853483962" id="-27860">
		<tag k="alt_name" v="Såner" />
		<tag k="name" v="Såner stasjon" />
		<tag k="railway" v="station" />
		<tag k="ssr:stedsnr" v="914001" />
		<tag k="train" v="yes" />
	</node>
	<node lat="59.52547500082219" lon="10.761669452409786" id="-27861">
		<tag k="alt_name" v="Østerud, nordre;Østerud nordre" />
		<tag k="name" v="Nordre Østerud" />
		<tag k="place" v="farm" />
		<tag k="ssr:stedsnr" v="914052" />
	</node>
	<node lat="59.56835976156491" lon="10.72815361563506" id="-27862">
		<tag k="fixme" v="consider place=hamlet" />
		<tag k="name" v="Skåka" />
		<tag k="place" v="farm" />
		<tag k="ssr:stedsnr" v="914223" />
	</node>
	<node lat="59.581866856996484" lon="10.813789533546256" id="-27863">
		<tag k="fixme" v="consider place=hamlet" />
		<tag k="name" v="Hovum" />
		<tag k="place" v="farm" />
		<tag k="ssr:stedsnr" v="914165" />
	</node>
	<node lat="59.548666667591114" lon="10.722041660552884" id="-27864">
		<tag k="alt_name" v="Håkonsbråten" />
		<tag k="name" v="Håkensbråten" />
		<tag k="place" v="farm" />
		<tag k="ssr:stedsnr" v="914245" />
	</node>
	<node lat="59.54746711913898" lon="10.727824861806472" id="-27865">
		<tag k="fixme" v="consider place=hamlet" />
		<tag k="name" v="Karder" />
		<tag k="place" v="farm" />
		<tag k="ssr:stedsnr" v="914250" />
	</node>
	<node lat="59.60921111278115" lon="10.668624995587479" id="-27866">
		<tag k="alt_name" v="Lysdal;Østre Lysdal" />
		<tag k="name" v="Østre Lysedal" />
		<tag k="place" v="farm" />
		<tag k="ssr:stedsnr" v="914666" />
	</node>
	<node lat="59.5871000004321" lon="10.753869448362424" id="-27867">
		<tag k="fixme" v="consider natural=peak for the most distinct mountains in the district" />
		<tag k="name" v="Røddalsåsen" />
		<tag k="natural" v="hill" />
		<tag k="place" v="locality" />
		<tag k="ssr:stedsnr" v="811132" />
	</node>
	<node lat="59.50612777511812" lon="10.762311109472297" id="-27868">
		<tag k="alt_name" v="Vandrås østre" />
		<tag k="name" v="Østre Vandrås" />
		<tag k="place" v="farm" />
		<tag k="ssr:stedsnr" v="811070" />
	</node>
	<node lat="59.53826666238074" lon="10.661758338018844" id="-27869">
		<tag k="name" v="Kjøvangbukta" />
		<tag k="natural" v="bay" />
		<tag k="ssr:stedsnr" v="817781" />
	</node>
	<node lat="59.51631187094146" lon="10.727089158507155" id="-27870">
		<tag k="bridge" v="yes" />
		<tag k="layer" v="1" />
		<tag k="name" v="Sonsveien bru" />
		<tag k="ssr:stedsnr" v="835162" />
	</node>
	<node lat="59.5994888862915" lon="10.692647223967647" id="-27871">
		<tag k="name" v="Kvernhusdalen" />
		<tag k="natural" v="valley" />
		<tag k="place" v="locality" />
		<tag k="ssr:stedsnr" v="846127" />
	</node>
	<node lat="59.53694444375226" lon="10.659286106458637" id="-27872">
		<tag k="man_made" v="quay" />
		<tag k="name" v="Kjøvangen brygge" />
		<tag k="place" v="locality" />
		<tag k="ssr:stedsnr" v="846286" />
	</node>
	<node lat="59.522541664365875" lon="10.669941670037042" id="-27875">
		<tag k="name" v="Sonstangen" />
		<tag k="natural" v="cape" />
		<tag k="ssr:stedsnr" v="852512" />
	</node>
	<node lat="59.597498494963084" lon="10.774317245910947" id="-27876">
		<tag k="alt_name" v="Borgen" />
		<tag k="fixme" v="consider place=hamlet" />
		<tag k="name" v="Borga" />
		<tag k="place" v="farm" />
		<tag k="ssr:stedsnr" v="853114" />
	</node>
	<node lat="59.5630773683659" lon="10.799173762043575" id="-27877">
		<tag k="name" v="Oksa" />
		<tag k="place" v="farm" />
		<tag k="ssr:stedsnr" v="853167" />
	</node>
	<node lat="59.577780559267765" lon="10.686491660805098" id="-27878">
		<tag k="name" v="Stokkholm" />
		<tag k="place" v="isolated_dwelling" />
		<tag k="ssr:stedsnr" v="853704" />
	</node>
	<node lat="59.57432500308552" lon="10.652216660202328" id="-27879">
		<tag k="fixme" v="consider natural=peak for the most distinct mountains in the district" />
		<tag k="name" v="Stjernåsen" />
		<tag k="natural" v="hill" />
		<tag k="place" v="locality" />
		<tag k="ssr:stedsnr" v="853719" />
	</node>
	<node lat="59.55056722876762" lon="10.764156104700154" id="-27880">
		<tag k="alt_name" v="Åmot, s;Åmot store" />
		<tag k="fixme" v="consider place=hamlet" />
		<tag k="name" v="Store Åmot" />
		<tag k="place" v="farm" />
		<tag k="ssr:stedsnr" v="854205" />
	</node>
	<node lat="59.574747597279874" lon="10.791476359620372" id="-27881">
		<tag k="alt_name" v="Drømmerød" />
		<tag k="fixme" v="consider place=hamlet" />
		<tag k="name" v="Drømmerud" />
		<tag k="place" v="farm" />
		<tag k="ssr:stedsnr" v="854157" />
	</node>
	<node lat="59.571424570504405" lon="10.796800609125478" id="-27882">
		<tag k="name" v="Jordebru" />
		<tag k="place" v="locality" />
		<tag k="ssr:stedsnr" v="854199" />
	</node>
	<node lat="59.62205833774781" lon="10.734011113961529" id="-27883">
		<tag k="junction" v="yes" />
		<tag k="name" v="Svartedal" />
		<tag k="place" v="locality" />
		<tag k="ssr:stedsnr" v="933226" />
	</node>
	<node lat="59.58998888721839" lon="10.77019722653071" id="-27884">
		<tag k="name" v="Stavenga" />
		<tag k="place" v="locality" />
		<tag k="ssr:stedsnr" v="933176" />
	</node>
	<node lat="59.524644441866386" lon="10.672380551855081" id="-27885">
		<tag k="name" v="Laksa" />
		<tag k="natural" v="cape" />
		<tag k="ssr:stedsnr" v="890014" />
	</node>
	<node lat="59.51627777818204" lon="10.73453611467453" id="-27886">
		<tag k="bridge" v="yes" />
		<tag k="layer" v="1" />
		<tag k="name" v="Tegnebyholtet" />
		<tag k="ssr:stedsnr" v="896165" />
	</node>
	<node lat="59.60290555238602" lon="10.746147215714577" id="-27887">
		<tag k="bridge" v="yes" />
		<tag k="layer" v="1" />
		<tag k="name" v="Vestby" />
		<tag k="ssr:stedsnr" v="896167" />
	</node>
	<node lat="59.51701389105953" lon="10.673505553306416" id="-27888">
		<tag k="alt_name" v="Saueholmbåen" />
		<tag k="name" v="Sauholmbåen" />
		<tag k="place" v="locality" />
		<tag k="seamark:type" v="rock" />
		<tag k="ssr:stedsnr" v="905714" />
	</node>
	<node lat="59.60097777502251" lon="10.65212778166106" id="-27889">
		<tag k="man_made" v="quay" />
		<tag k="name" v="Dampskipsbrygga" />
		<tag k="place" v="locality" />
		<tag k="ssr:stedsnr" v="906254" />
	</node>
	<node lat="59.533547225314365" lon="10.683469443372358" id="-27890">
		<tag k="alt_name" v="Kålås øvre;Øvre Kålås" />
		<tag k="name" v="Øvre Kolås" />
		<tag k="place" v="farm" />
		<tag k="ssr:stedsnr" v="906303" />
	</node>
	<node lat="59.504163888249714" lon="10.699072223088493" id="-27891">
		<tag k="fixme" v="consider natural=peak for the most distinct mountains in the district" />
		<tag k="name" v="Smørbekkåsen" />
		<tag k="natural" v="hill" />
		<tag k="place" v="locality" />
		<tag k="ssr:stedsnr" v="906462" />
	</node>
	<node lat="59.49849444174909" lon="10.710216669545991" id="-27892">
		<tag k="alt_name" v="Rød østre" />
		<tag k="name" v="Østre Rød" />
		<tag k="place" v="farm" />
		<tag k="ssr:stedsnr" v="906466" />
	</node>
	<node lat="59.594552778090076" lon="10.681202771240285" id="-27893">
		<tag k="fixme" v="consider natural=peak for the most distinct mountains in the district" />
		<tag k="name" v="Brattåsen" />
		<tag k="natural" v="hill" />
		<tag k="place" v="locality" />
		<tag k="ssr:stedsnr" v="908758" />
	</node>
	<node lat="59.588361114629905" lon="10.652500007276686" id="-27894">
		<tag k="name" v="Bråtebukta" />
		<tag k="natural" v="bay" />
		<tag k="ssr:stedsnr" v="908773" />
	</node>
	<node lat="59.62053567987758" lon="10.80447880920683" id="-27896">
		<tag k="alt_name" v="Tannum" />
		<tag k="fixme" v="consider place=hamlet" />
		<tag k="name" v="Nordre Tannum" />
		<tag k="place" v="farm" />
		<tag k="ssr:stedsnr" v="913340" />
	</node>
	<node lat="59.52116944271403" lon="10.67905000160231" id="-27897">
		<tag k="alt_name" v="Sonskilen" />
		<tag k="name" v="Sonsbukta" />
		<tag k="natural" v="bay" />
		<tag k="ssr:stedsnr" v="913483" />
	</node>
	<node lat="59.50942499884518" lon="10.680955561747501" id="-27898">
		<tag k="name" v="Tønnesodden" />
		<tag k="natural" v="cape" />
		<tag k="ssr:stedsnr" v="913494" />
	</node>
	<node lat="59.632169442983844" lon="10.709930547680214" id="-27899">
		<tag k="name" v="Ødegården" />
		<tag k="place" v="farm" />
		<tag k="ssr:stedsnr" v="913644" />
	</node>
	<node lat="59.57408055618192" lon="10.6748833298176" id="-27900">
		<tag k="alt_name" v="Haugertjern" />
		<tag k="name" v="Haugertjernet" />
		<tag k="natural" v="water" />
		<tag k="ssr:stedsnr" v="913706" />
	</node>
	<node lat="59.58508888993148" lon="10.661033342152333" id="-27901">
		<tag k="name" v="Sagstua" />
		<tag k="place" v="locality" />
		<tag k="ssr:stedsnr" v="913711" />
	</node>
	<node lat="59.532880158653334" lon="10.759585089435017" id="-27903">
		<tag k="fixme" v="consider place=hamlet" />
		<tag k="name" v="Presterud" />
		<tag k="place" v="farm" />
		<tag k="ssr:stedsnr" v="914003" />
	</node>
	<node lat="59.58606110989327" lon="10.791388881874516" id="-27904">
		<tag k="alt_name" v="Tuft;Tuft vestre" />
		<tag k="name" v="Vestre Tuft" />
		<tag k="place" v="farm" />
		<tag k="ssr:stedsnr" v="914183" />
	</node>
	<node lat="59.570286399656396" lon="10.77246384658132" id="-27905">
		<tag k="alt_name" v="Rogsti, nordre" />
		<tag k="name" v="Nordre Rogsti" />
		<tag k="place" v="farm" />
		<tag k="ssr:stedsnr" v="914215" />
	</node>
	<node lat="59.56819087638977" lon="10.75314748178319" id="-27906">
		<tag k="name" v="Øvre Langli" />
		<tag k="place" v="farm" />
		<tag k="ssr:stedsnr" v="933209" />
	</node>
	<node lat="59.61714722206128" lon="10.73153888609707" id="-27907">
		<tag k="name" v="Libråten" />
		<tag k="place" v="farm" />
		<tag k="ssr:stedsnr" v="933217" />
	</node>
	<node lat="59.56286111041282" lon="10.797800003439683" id="-27908">
		<tag k="alt_name" v="Oksa øvre" />
		<tag k="name" v="Øvre Oksa" />
		<tag k="place" v="farm" />
		<tag k="ssr:stedsnr" v="933237" />
	</node>
	<node lat="59.55930278084318" lon="10.791294437821547" id="-27909">
		<tag k="name" v="Garderbekken" />
		<tag k="ssr:stedsnr" v="933898" />
		<tag k="waterway" v="stream" />
	</node>
	<node lat="59.518905555380265" lon="10.67015833184691" id="-27910">
		<tag k="name" v="Middelgrunnen" />
		<tag k="natural" v="shoal" />
		<tag k="place" v="locality" />
		<tag k="ssr:stedsnr" v="938104" />
	</node>
	<node lat="59.52168837220106" lon="10.691097126201965" id="-27911">
		<tag k="name" v="Alicenborg" />
		<tag k="old_name" v="Bråten" />
		<tag k="place" v="farm" />
		<tag k="ssr:stedsnr" v="966436" />
	</node>
	<node lat="59.52291389252558" lon="10.693811115375148" id="-27912">
		<tag k="name" v="Bernhoffløkka" />
		<tag k="place" v="farm" />
		<tag k="ssr:stedsnr" v="966439" />
	</node>
	<node lat="59.52390000387515" lon="10.707013895620593" id="-27913">
		<tag k="name" v="Vollehagen" />
		<tag k="place" v="hamlet" />
		<tag k="ssr:stedsnr" v="966444" />
	</node>
	<node lat="59.58662500184641" lon="10.700555549222042" id="-27914">
		<tag k="name" v="Sandås" />
		<tag k="place" v="farm" />
		<tag k="ssr:stedsnr" v="968740" />
	</node>
	<node lat="59.56108043823818" lon="10.775325978648002" id="-27923">
		<tag k="name" v="Mellom-Rogsti" />
		<tag k="place" v="farm" />
		<tag k="ssr:stedsnr" v="977559" />
	</node>
	<node lat="59.48585826489376" lon="10.723438654297688" id="-27924">
		<tag k="amenity" v="cafe" />
		<tag k="name" v="Ødemørk" />
		<tag k="ssr:stedsnr" v="988109" />
	</node>
	<node lat="59.508399560395524" lon="10.689608736091856" id="-27946">
		<tag k="name" v="Brevik" />
		<tag k="place" v="hamlet" />
		<tag k="ssr:stedsnr" v="2920" />
	</node>
	<node lat="59.56607373130016" lon="10.764031511724578" id="-27947">
		<tag k="fixme" v="consider place=hamlet" />
		<tag k="name" v="Rokker" />
		<tag k="place" v="farm" />
		<tag k="ssr:stedsnr" v="3174" />
	</node>
	<node lat="59.556383330383284" lon="10.749066668743598" id="-27948">
		<tag k="name" v="Bylterudmåsan" />
		<tag k="natural" v="wetland" />
		<tag k="ssr:stedsnr" v="3215" />
	</node>
	<node lat="59.501836068714326" lon="10.715693085837033" id="-27949">
		<tag k="fixme" v="consider place=hamlet" />
		<tag k="name" v="Smørbekk" />
		<tag k="place" v="farm" />
		<tag k="ssr:stedsnr" v="3455" />
	</node>
	<node lat="59.513857803497295" lon="10.686967865779147" id="-27950">
		<tag k="alt_name" v="Brevik, nordre" />
		<tag k="fixme" v="consider place=hamlet" />
		<tag k="name" v="Nordre Brevik" />
		<tag k="place" v="farm" />
		<tag k="ssr:stedsnr" v="3481" />
	</node>
	<node lat="59.62183231361249" lon="10.795451121515628" id="-27951">
		<tag k="fixme" v="consider place=hamlet" />
		<tag k="name" v="Hol" />
		<tag k="place" v="farm" />
		<tag k="ssr:stedsnr" v="3311" />
	</node>
	<node lat="59.617200003932126" lon="10.768202785446109" id="-27952">
		<tag k="name" v="Hamborg" />
		<tag k="place" v="isolated_dwelling" />
		<tag k="ssr:stedsnr" v="3312" />
	</node>
	<node lat="59.614724997165055" lon="10.79373056348897" id="-27953">
		<tag k="alt_name" v="Lesteberg, østre;Lesteberg østre" />
		<tag k="name" v="Østre Lesteberg" />
		<tag k="place" v="farm" />
		<tag k="ssr:stedsnr" v="3313" />
	</node>
	<node lat="59.48353333494823" lon="10.753088894838374" id="-27954">
		<tag k="fixme" v="consider natural=peak for the most distinct mountains in the district" />
		<tag k="name" v="Skaran" />
		<tag k="natural" v="hill" />
		<tag k="place" v="locality" />
		<tag k="ssr:stedsnr" v="3658" />
	</node>
	<node lat="59.52391666951397" lon="10.746066668055915" id="-27955">
		<tag k="alt_name" v="Ek;Ek nordre" />
		<tag k="name" v="Nordre Ek" />
		<tag k="place" v="farm" />
		<tag k="ssr:stedsnr" v="4046" />
	</node>
	<node lat="59.6040888872316" lon="10.768758332736473" id="-27956">
		<tag k="alt_name" v="Ålerød, søndre;Ålerud søndre" />
		<tag k="name" v="Søndre Ålerød" />
		<tag k="place" v="farm" />
		<tag k="ssr:stedsnr" v="4146" />
	</node>
	<node lat="59.58935855133805" lon="10.84898289286722" id="-27957">
		<tag k="fixme" v="consider place=hamlet" />
		<tag k="name" v="Halle" />
		<tag k="place" v="farm" />
		<tag k="ssr:stedsnr" v="4191" />
	</node>
	<node lat="59.573230552473056" lon="10.835658335854644" id="-27958">
		<tag k="alt_name" v="Tom, søndre;Tom søndre;Lille Tom;Tom lille" />
		<tag k="name" v="Søndre Tom" />
		<tag k="place" v="farm" />
		<tag k="ssr:stedsnr" v="4212" />
	</node>
	<node lat="59.52467222431727" lon="10.719541660336409" id="-27959">
		<tag k="name" v="Solvang" />
		<tag k="place" v="farm" />
		<tag k="ssr:stedsnr" v="22128" />
	</node>
	<node lat="59.57137500249783" lon="10.803966665117725" id="-27960">
		<tag k="name" v="Fjellberg" />
		<tag k="place" v="isolated_dwelling" />
		<tag k="ssr:stedsnr" v="22220" />
	</node>
	<node lat="59.551738893071814" lon="10.749894449870881" id="-27961">
		<tag k="name" v="Fjell" />
		<tag k="place" v="farm" />
		<tag k="ssr:stedsnr" v="23131" />
	</node>
	<node lat="59.5826277757795" lon="10.649244451691462" id="-27962">
		<tag k="alt_name" v="Brånensbåen" />
		<tag k="name" v="Brånansbåen" />
		<tag k="natural" v="shoal" />
		<tag k="place" v="locality" />
		<tag k="ssr:stedsnr" v="25940" />
	</node>
	<node lat="59.58456389126388" lon="10.656761117641036" id="-27963">
		<tag k="name" v="Mølen" />
		<tag k="place" v="farm" />
		<tag k="ssr:stedsnr" v="26927" />
	</node>
	<node lat="59.61145555656835" lon="10.732802772811096" id="-27964">
		<tag k="bridge" v="yes" />
		<tag k="layer" v="1" />
		<tag k="name" v="Støkken" />
		<tag k="ssr:stedsnr" v="46158" />
	</node>
	<node lat="59.59711388954546" lon="10.725683334919495" id="-27965">
		<tag k="bridge" v="yes" />
		<tag k="layer" v="1" />
		<tag k="name" v="Rød" />
		<tag k="ssr:stedsnr" v="46163" />
	</node>
	<node lat="59.49716526618264" lon="10.684751612934036" id="-27966">
		<tag k="alt_name" v="Brevik vestre" />
		<tag k="name" v="Vestre Brevik" />
		<tag k="place" v="farm" />
		<tag k="ssr:stedsnr" v="56458" />
	</node>
	<node lat="59.54741389265562" lon="10.69815277120855" id="-27967">
		<tag k="name" v="Villa Granholt" />
		<tag k="place" v="isolated_dwelling" />
		<tag k="ssr:stedsnr" v="56262" />
	</node>
	<node lat="59.51939444635522" lon="10.688877784210632" id="-27968">
		<tag k="name" v="Midtskogen" />
		<tag k="place" v="isolated_dwelling" />
		<tag k="ssr:stedsnr" v="56725" />
	</node>
	<node lat="59.584566668615665" lon="10.653697214408494" id="-27969">
		<tag k="name" v="Toppen" />
		<tag k="place" v="locality" />
		<tag k="ssr:stedsnr" v="56960" />
	</node>
	<node lat="59.60853611169521" lon="10.68069721438265" id="-27970">
		<tag k="name" v="Nordre Knalstad" />
		<tag k="place" v="farm" />
		<tag k="ssr:stedsnr" v="57127" />
	</node>
	<node lat="59.61534444426754" lon="10.712555558205654" id="-27971">
		<tag k="name" v="Tømmerås" />
		<tag k="place" v="locality" />
		<tag k="ssr:stedsnr" v="58166" />
	</node>
	<node lat="59.63954722595998" lon="10.693441675201944" id="-27972">
		<tag k="name" v="Toje" />
		<tag k="place" v="isolated_dwelling" />
		<tag k="ssr:stedsnr" v="58548" />
	</node>
	<node lat="59.56114722237814" lon="10.693216674998203" id="-27973">
		<tag k="name" v="Nordre Erikstad" />
		<tag k="place" v="farm" />
		<tag k="ssr:stedsnr" v="58558" />
	</node>
	<node lat="59.55754166587892" lon="10.714183330958232" id="-27974">
		<tag k="name" v="Nordre Klokkerud" />
		<tag k="place" v="farm" />
		<tag k="ssr:stedsnr" v="58560" />
	</node>
	<node lat="59.55549166867401" lon="10.712469449089161" id="-27975">
		<tag k="name" v="Søndre Klokkerud" />
		<tag k="place" v="farm" />
		<tag k="ssr:stedsnr" v="58561" />
	</node>
	<node lat="59.583155554257736" lon="10.65649722368922" id="-27976">
		<tag k="name" v="Bråten" />
		<tag k="place" v="farm" />
		<tag k="ssr:stedsnr" v="58562" />
	</node>
	<node lat="59.59241944548553" lon="10.676011117965743" id="-27977">
		<tag k="fixme" v="consider natural=peak for the most distinct mountains in the district" />
		<tag k="name" v="Vardeåsen" />
		<tag k="natural" v="hill" />
		<tag k="place" v="locality" />
		<tag k="ssr:stedsnr" v="58716" />
	</node>
	<node lat="59.59258889009778" lon="10.652833337207905" id="-27986">
		<tag k="name" v="Katten" />
		<tag k="place" v="isolated_dwelling" />
		<tag k="ssr:stedsnr" v="63737" />
	</node>
	<node lat="59.59905888227393" lon="10.658696524759552" id="-27987">
		<tag k="fixme" v="consider place=suburb, village or hamlet" />
		<tag k="name" v="Hvitsten" />
		<tag k="place" v="quarter" />
		<tag k="ssr:stedsnr" v="63738" />
	</node>
	<node lat="59.568016230360186" lon="10.753216712140262" id="-27988">
		<tag k="alt_name" v="Langeli" />
		<tag k="fixme" v="consider place=hamlet" />
		<tag k="name" v="Langli" />
		<tag k="place" v="farm" />
		<tag k="ssr:stedsnr" v="64190" />
	</node>
	<node lat="59.606530555925666" lon="10.70379443806016" id="-27989">
		<tag k="fixme" v="consider place=hamlet" />
		<tag k="name" v="Pepperstad" />
		<tag k="place" v="farm" />
		<tag k="ssr:stedsnr" v="64618" />
	</node>
	<node lat="59.62034148563838" lon="10.680896852587987" id="-27990">
		<tag k="fixme" v="consider place=hamlet" />
		<tag k="name" v="Ørebekk" />
		<tag k="place" v="farm" />
		<tag k="ssr:stedsnr" v="64659" />
	</node>
	<node lat="59.6385694462079" lon="10.706230546807793" id="-27991">
		<tag k="alt_name" v="Vastadtjern" />
		<tag k="name" v="Vastadtjernet" />
		<tag k="natural" v="water" />
		<tag k="ssr:stedsnr" v="64680" />
	</node>
	<node lat="59.63692393812488" lon="10.700066563588884" id="-27992">
		<tag k="fixme" v="consider place=hamlet" />
		<tag k="name" v="Vastad" />
		<tag k="place" v="farm" />
		<tag k="ssr:stedsnr" v="64688" />
	</node>
	<node lat="59.53693139707634" lon="10.748812334946734" id="-27993">
		<tag k="alt_name" v="Vines, nordre;Vines nordre" />
		<tag k="fixme" v="consider place=hamlet" />
		<tag k="name" v="Nordre Vines" />
		<tag k="place" v="farm" />
		<tag k="ssr:stedsnr" v="65015" />
	</node>
	<node lat="59.58372777751497" lon="10.83218611650899" id="-27994">
		<tag k="name" v="Grønlia" />
		<tag k="place" v="farm" />
		<tag k="ssr:stedsnr" v="65165" />
	</node>
	<node lat="59.54130000252078" lon="10.730108324874852" id="-27995">
		<tag k="name" v="Gjølstadbakken" />
		<tag k="natural" v="slope" />
		<tag k="place" v="locality" />
		<tag k="ssr:stedsnr" v="83098" />
	</node>
	<node lat="59.55967222610057" lon="10.775491671597567" id="-27996">
		<tag k="name" v="Bergli" />
		<tag k="place" v="hamlet" />
		<tag k="ssr:stedsnr" v="83176" />
	</node>
	<node lat="59.57763333037873" lon="10.774366657996023" id="-27998">
		<tag k="name" v="Vestre Rustad" />
		<tag k="place" v="farm" />
		<tag k="ssr:stedsnr" v="102588" />
	</node>
	<node lat="59.48950000243902" lon="10.685530560366995" id="-27999">
		<tag k="name" v="Brevikbukta" />
		<tag k="natural" v="bay" />
		<tag k="ssr:stedsnr" v="117617" />
	</node>
	<node lat="59.52313333021339" lon="10.68591944083662" id="-28005">
		<tag k="name" v="Son" />
		<tag k="place" v="village" />
		<tag k="ssr:stedsnr" v="124460" />
	</node>
	<node lat="59.54073611097228" lon="10.70950833810375" id="-28006">
		<tag k="name" v="Finstad" />
		<tag k="place" v="farm" />
		<tag k="ssr:stedsnr" v="124476" />
	</node>
	<node lat="59.55029166801885" lon="10.716522218249818" id="-28007">
		<tag k="name" v="Dyrendal" />
		<tag k="place" v="farm" />
		<tag k="ssr:stedsnr" v="124498" />
	</node>
	<node lat="59.618331873385316" lon="10.72521551518217" id="-28008">
		<tag k="fixme" v="consider place=hamlet" />
		<tag k="loc_name" v="Jegstad" />
		<tag k="name" v="Gjekstad" />
		<tag k="place" v="farm" />
		<tag k="ssr:stedsnr" v="124287" />
	</node>
	<node lat="59.6205027734249" lon="10.818391659210576" id="-28009">
		<tag k="name" v="Teigen" />
		<tag k="place" v="farm" />
		<tag k="ssr:stedsnr" v="124296" />
	</node>
	<node lat="59.59277221979575" lon="10.684799992691275" id="-28010">
		<tag k="name" v="Solberg" />
		<tag k="place" v="farm" />
		<tag k="ssr:stedsnr" v="124696" />
	</node>
	<node lat="59.50458799175058" lon="10.761753761839424" id="-28011">
		<tag k="fixme" v="consider place=hamlet" />
		<tag k="name" v="Vandrås" />
		<tag k="place" v="farm" />
		<tag k="ssr:stedsnr" v="125094" />
	</node>
	<node lat="59.59188611188891" lon="10.746608341054747" id="-28012">
		<tag k="name" v="Sønsteby" />
		<tag k="place" v="farm" />
		<tag k="ssr:stedsnr" v="125134" />
	</node>
	<node lat="59.59841111467163" lon="10.840763883887464" id="-28013">
		<tag k="name" v="Hestvetødegården" />
		<tag k="place" v="farm" />
		<tag k="ssr:stedsnr" v="125138" />
	</node>
	<node lat="59.56187778111913" lon="10.742936112570149" id="-28014">
		<tag k="alt_name" v="Bylterud, søndre;Bylterød søndre" />
		<tag k="name" v="Søndre Bylterud" />
		<tag k="place" v="farm" />
		<tag k="ssr:stedsnr" v="125223" />
	</node>
	<node lat="59.58283333617091" lon="10.791813897198038" id="-28015">
		<tag k="alt_name" v="Bjørkeskog;Bjerkeskog" />
		<tag k="name" v="Bjerkeskau" />
		<tag k="place" v="farm" />
		<tag k="ssr:stedsnr" v="125178" />
	</node>
	<node lat="59.503091667295315" lon="10.690361106446753" id="-28016">
		<tag k="alt_name" v="Breviktjern" />
		<tag k="name" v="Breviktjernet" />
		<tag k="natural" v="water" />
		<tag k="ssr:stedsnr" v="141980" />
	</node>
	<node lat="59.54286944234041" lon="10.740130556297418" id="-28017">
		<tag k="name" v="Molvikdammen" />
		<tag k="ssr:stedsnr" v="143084" />
		<tag k="waterway" v="dam" />
	</node>
	<node lat="59.48330277390332" lon="10.738208338358438" id="-28018">
		<tag k="fixme" v="consider boundary=protected_area and relevant protect_class if not nature reserve" />
		<tag k="leisure" v="nature_reserve" />
		<tag k="name" v="Ishavet naturreservat" />
		<tag k="ssr:stedsnr" v="143108" />
	</node>
	<node lat="59.5602555580644" lon="10.783822217512226" id="-28019">
		<tag k="name" v="Kullebunn" />
		<tag k="place" v="farm" />
		<tag k="ssr:stedsnr" v="143161" />
	</node>
	<node lat="59.627025000595815" lon="10.72888056423892" id="-28020">
		<tag k="name" v="Gyldendal" />
		<tag k="place" v="isolated_dwelling" />
		<tag k="ssr:stedsnr" v="143187" />
	</node>
	<node lat="59.61477221833944" lon="10.650058333001995" id="-28021">
		<tag k="fixme" v="consider seamark:type=rock or natural=shoal" />
		<tag k="name" v="Elveskjæret" />
		<tag k="place" v="islet" />
		<tag k="ssr:stedsnr" v="146006" />
	</node>
	<node lat="59.58540833079629" lon="10.650902784823195" id="-28022">
		<tag k="name" v="Emmerstadbåen" />
		<tag k="natural" v="shoal" />
		<tag k="place" v="locality" />
		<tag k="ssr:stedsnr" v="147932" />
	</node>
	<node lat="59.56350555736664" lon="10.73673611274865" id="-28023">
		<tag k="name" v="Fløyta" />
		<tag k="old_name" v="Fløiten;Flöjta" />
		<tag k="place" v="farm" />
		<tag k="ssr:stedsnr" v="176234" />
	</node>
	<node lat="59.55073055881642" lon="10.681866670189267" id="-28024">
		<tag k="fixme" v="consider natural=peak for the most distinct mountains in the district" />
		<tag k="name" v="Kikkutåsen" />
		<tag k="natural" v="hill" />
		<tag k="place" v="locality" />
		<tag k="ssr:stedsnr" v="178264" />
	</node>
	<node lat="59.53406667079128" lon="10.705863881483515" id="-28025">
		<tag k="name" v="Århus" />
		<tag k="place" v="hamlet" />
		<tag k="ssr:stedsnr" v="178272" />
	</node>
	<node lat="59.504519442959456" lon="10.683966664152873" id="-28026">
		<tag k="name" v="Sollia" />
		<tag k="place" v="hamlet" />
		<tag k="ssr:stedsnr" v="177454" />
	</node>
	<node lat="59.51330833140531" lon="10.687886116233932" id="-28027">
		<tag k="name" v="Brevikbekken" />
		<tag k="ssr:stedsnr" v="177737" />
		<tag k="waterway" v="stream" />
	</node>
	<node lat="59.48638889273289" lon="10.716880553119685" id="-28028">
		<tag k="name" v="Vestjordet" />
		<tag k="place" v="locality" />
		<tag k="ssr:stedsnr" v="178601" />
	</node>
	<node lat="59.59753851967835" lon="10.706874917658658" id="-28029">
		<tag k="amenity" v="school" />
		<tag k="name" v="Bjørlien barneskole" />
		<tag k="ssr:stedsnr" v="178124" />
	</node>
	<node lat="59.53775832950667" lon="10.666080561980415" id="-28039">
		<tag k="name" v="Kjøvangen" />
		<tag k="place" v="hamlet" />
		<tag k="ssr:stedsnr" v="185486" />
	</node>
	<node lat="59.547678995128784" lon="10.684024301015974" id="-28040">
		<tag k="fixme" v="consider place=hamlet" />
		<tag k="name" v="Roastad" />
		<tag k="place" v="farm" />
		<tag k="ssr:stedsnr" v="185501" />
	</node>
	<node lat="59.6332487345332" lon="10.694095045315407" id="-28041">
		<tag k="fixme" v="consider place=hamlet" />
		<tag k="name" v="Haugen" />
		<tag k="place" v="farm" />
		<tag k="ssr:stedsnr" v="185627" />
	</node>
	<node lat="59.607988892100494" lon="10.72761110476934" id="-28042">
		<tag k="name" v="Hagen" />
		<tag k="place" v="farm" />
		<tag k="ssr:stedsnr" v="185349" />
	</node>
	<node lat="59.565602778921324" lon="10.692305559481172" id="-28043">
		<tag k="alt_name" v="Nygård" />
		<tag k="name" v="Nygard" />
		<tag k="place" v="farm" />
		<tag k="ssr:stedsnr" v="185675" />
	</node>
	<node lat="59.598323780973836" lon="10.793249935641335" id="-28044">
		<tag k="alt_name" v="Jeksrud;Gjeksrud" />
		<tag k="fixme" v="consider place=hamlet" />
		<tag k="name" v="Gjeksrød" />
		<tag k="place" v="farm" />
		<tag k="ssr:stedsnr" v="186144" />
	</node>
	<node lat="59.57636944182412" lon="10.775730547755941" id="-28045">
		<tag k="alt_name" v="Rustad, midtre" />
		<tag k="name" v="Midtre Rustad" />
		<tag k="place" v="farm" />
		<tag k="ssr:stedsnr" v="186154" />
	</node>
	<node lat="59.59524166808554" lon="10.74741667481754" id="-28046">
		<tag k="amenity" v="kindergarten" />
		<tag k="name" v="Søndre Sundby" />
		<tag k="ssr:stedsnr" v="204126" />
	</node>
	<node lat="59.6036741034689" lon="10.74868121013681" id="-28047">
		<tag k="alt_name" v="Vestby" />
		<tag k="name" v="Vestby stasjon" />
		<tag k="railway" v="station" />
		<tag k="ssr:stedsnr" v="204728" />
		<tag k="train" v="yes" />
	</node>
	<node lat="59.53553610983139" lon="10.762811117361506" id="-28048">
		<tag k="name" v="Presterudkollen" />
		<tag k="natural" v="hill" />
		<tag k="place" v="locality" />
		<tag k="ssr:stedsnr" v="205135" />
	</node>
	<node lat="59.50853610886587" lon="10.720436105337797" id="-28049">
		<tag k="name" v="Tegnebyengen" />
		<tag k="place" v="farm" />
		<tag k="ssr:stedsnr" v="205071" />
	</node>
	<node lat="59.54628611416333" lon="10.69503611662378" id="-28050">
		<tag k="name" v="Mellom-Mørk" />
		<tag k="place" v="farm" />
		<tag k="ssr:stedsnr" v="207178" />
	</node>
	<node lat="59.57327221904301" lon="10.69080000809469" id="-28051">
		<tag k="fixme" v="consider natural=peak for the most distinct mountains in the district" />
		<tag k="name" v="Høyåsen" />
		<tag k="natural" v="hill" />
		<tag k="place" v="locality" />
		<tag k="ssr:stedsnr" v="210847" />
	</node>
	<node lat="59.58698332993434" lon="10.666302782224253" id="-28052">
		<tag k="name" v="Tolvstua" />
		<tag k="place" v="isolated_dwelling" />
		<tag k="ssr:stedsnr" v="208942" />
	</node>
	<node lat="59.56506944494567" lon="10.650508339420508" id="-28053">
		<tag k="name" v="Krokbukta" />
		<tag k="natural" v="bay" />
		<tag k="ssr:stedsnr" v="210785" />
	</node>
	<node lat="59.53532748749091" lon="10.7281394031567" id="-28054">
		<tag k="layer" v="-1" />
		<tag k="name" v="Follotunnelen" />
		<tag k="ssr:stedsnr" v="226457" />
		<tag k="tunnel" v="yes" />
	</node>
	<node lat="59.59939023439689" lon="10.657262828379245" id="-28055">
		<tag k="bridge" v="yes" />
		<tag k="layer" v="1" />
		<tag k="name" v="Hvitsten" />
		<tag k="ssr:stedsnr" v="228176" />
	</node>
	<node lat="59.624408335945176" lon="10.732736103523196" id="-28057">
		<tag k="bridge" v="yes" />
		<tag k="layer" v="1" />
		<tag k="name" v="Verpet" />
		<tag k="ssr:stedsnr" v="289152" />
	</node>
	<node lat="59.58321666910413" lon="10.796011105858723" id="-28058">
		<tag k="bridge" v="yes" />
		<tag k="layer" v="1" />
		<tag k="name" v="Bjerkeskog" />
		<tag k="ssr:stedsnr" v="289175" />
	</node>
	<node lat="59.551241671091155" lon="10.675716664336777" id="-28059">
		<tag k="name" v="Klepper" />
		<tag k="place" v="locality" />
		<tag k="ssr:stedsnr" v="299305" />
	</node>
	<node lat="59.61468888522505" lon="10.652341674496336" id="-28060">
		<tag k="name" v="Elven" />
		<tag k="place" v="farm" />
		<tag k="ssr:stedsnr" v="299255" />
	</node>
	<node lat="59.574893241648134" lon="10.83154073482158" id="-28061">
		<tag k="fixme" v="consider place=hamlet" />
		<tag k="name" v="Tom" />
		<tag k="place" v="farm" />
		<tag k="ssr:stedsnr" v="299320" />
	</node>
	<node lat="59.49609444529553" lon="10.692361115301773" id="-28062">
		<tag k="name" v="Lundeåsen" />
		<tag k="place" v="quarter" />
		<tag k="ssr:stedsnr" v="299465" />
	</node>
	<node lat="59.52313889121719" lon="10.676266673700653" id="-28063">
		<tag k="name" v="Maritangen" />
		<tag k="natural" v="cape" />
		<tag k="ssr:stedsnr" v="300942" />
	</node>
	<node lat="59.60734999634301" lon="10.714575001063126" id="-28064">
		<tag k="name" v="Risilhøgda" />
		<tag k="natural" v="hill" />
		<tag k="place" v="locality" />
		<tag k="ssr:stedsnr" v="301142" />
	</node>
	<node lat="59.59117500391515" lon="10.713097231274004" id="-28067">
		<tag k="name" v="Mora" />
		<tag k="place" v="quarter" />
		<tag k="ssr:stedsnr" v="301698" />
	</node>
	<node lat="59.58166666644441" lon="10.678327771839788" id="-28068">
		<tag k="name" v="Nyheim" />
		<tag k="place" v="farm" />
		<tag k="ssr:stedsnr" v="301702" />
	</node>
	<node lat="59.60337254001132" lon="10.744833654037182" id="-28078">
		<tag k="alt_name" v="Søndre Randem;Randum, søndre" />
		<tag k="name" v="Søndre Randum" />
		<tag k="place" v="farm" />
		<tag k="ssr:stedsnr" v="307153" />
	</node>
	<node lat="59.58194813561483" lon="10.7884298936355" id="-28079">
		<tag k="fixme" v="consider place=hamlet" />
		<tag k="name" v="Rustad" />
		<tag k="place" v="farm" />
		<tag k="ssr:stedsnr" v="307181" />
	</node>
	<node lat="59.629422011838734" lon="10.754766055519704" id="-28080">
		<tag k="fixme" v="consider place=hamlet" />
		<tag k="name" v="Nes" />
		<tag k="place" v="farm" />
		<tag k="ssr:stedsnr" v="306307" />
	</node>
	<node lat="59.62743412869186" lon="10.764191149218624" id="-28081">
		<tag k="fixme" v="consider place=hamlet" />
		<tag k="name" v="Øynes" />
		<tag k="place" v="farm" />
		<tag k="ssr:stedsnr" v="306314" />
	</node>
	<node lat="59.51973333482872" lon="10.713094445536514" id="-28084">
		<tag k="name" v="Liabråten" />
		<tag k="place" v="farm" />
		<tag k="ssr:stedsnr" v="306487" />
	</node>
	<node lat="59.588933330135596" lon="10.708041666334628" id="-28085">
		<tag k="name" v="Trollerud" />
		<tag k="place" v="farm" />
		<tag k="ssr:stedsnr" v="306725" />
	</node>
	<node lat="59.501036106788334" lon="10.769047223548803" id="-28086">
		<tag k="alt_name" v="Stubberud" />
		<tag k="name" v="Stubberød" />
		<tag k="place" v="farm" />
		<tag k="ssr:stedsnr" v="307083" />
	</node>
	<node lat="59.521077777403114" lon="10.744630554474876" id="-28087">
		<tag k="alt_name" v="Ek;Ek søndre" />
		<tag k="name" v="Søndre Ek" />
		<tag k="place" v="farm" />
		<tag k="ssr:stedsnr" v="307039" />
	</node>
	<node lat="59.54190833016744" lon="10.722280547966793" id="-28088">
		<tag k="name" v="Gjølstad" />
		<tag k="place" v="farm" />
		<tag k="ssr:stedsnr" v="307041" />
	</node>
	<node lat="59.59428374945243" lon="10.742534026120689" id="-28089">
		<tag k="fixme" v="consider place=hamlet" />
		<tag k="name" v="Deli" />
		<tag k="place" v="farm" />
		<tag k="ssr:stedsnr" v="307138" />
	</node>
	<node lat="59.5871000038871" lon="10.792249997923026" id="-28090">
		<tag k="name" v="Tuftebråten" />
		<tag k="place" v="farm" />
		<tag k="ssr:stedsnr" v="307140" />
	</node>
	<node lat="59.591691670226304" lon="10.780999996458124" id="-28091">
		<tag k="name" v="Engene" />
		<tag k="place" v="farm" />
		<tag k="ssr:stedsnr" v="307141" />
	</node>
	<node lat="59.57652500130305" lon="10.833550004618564" id="-28092">
		<tag k="alt_name" v="Tom, nordre;Tom nordre;Tom;Tom lille;Lille Tom" />
		<tag k="name" v="Nordre Tom" />
		<tag k="place" v="farm" />
		<tag k="ssr:stedsnr" v="307244" />
	</node>
	<node lat="59.495316666584614" lon="10.767388895722187" id="-28093">
		<tag k="fixme" v="consider natural=peak for the most distinct mountains in the district" />
		<tag k="name" v="Kolsrudåsen" />
		<tag k="natural" v="hill" />
		<tag k="place" v="locality" />
		<tag k="ssr:stedsnr" v="326060" />
	</node>
	<node lat="59.547455554350364" lon="10.741599991634654" id="-28094">
		<tag k="name" v="Kløfta" />
		<tag k="place" v="locality" />
		<tag k="ssr:stedsnr" v="326082" />
	</node>
	<node lat="59.53380278110761" lon="10.77952778547238" id="-28095">
		<tag k="fixme" v="consider natural=peak for the most distinct mountains in the district" />
		<tag k="name" v="Finsrudåsen" />
		<tag k="natural" v="hill" />
		<tag k="place" v="locality" />
		<tag k="ssr:stedsnr" v="326131" />
	</node>
	<node lat="59.528741880378355" lon="10.742334657311542" id="-28096">
		<tag k="alt_name" v="Skøyen søndre;Skøyen" />
		<tag k="fixme" v="consider place=hamlet" />
		<tag k="name" v="Søndre Skøyen" />
		<tag k="place" v="farm" />
		<tag k="ssr:stedsnr" v="326142" />
	</node>
	<node lat="59.530770636489244" lon="10.744111609230973" id="-28097">
		<tag k="alt_name" v="Skøyen nordre" />
		<tag k="fixme" v="consider place=hamlet" />
		<tag k="name" v="Nordre Skøyen" />
		<tag k="place" v="farm" />
		<tag k="ssr:stedsnr" v="326143" />
	</node>
	<node lat="59.587238614743846" lon="10.817904409155675" id="-28098">
		<tag k="alt_name" v="Kjærstad østre" />
		<tag k="fixme" v="consider place=hamlet" />
		<tag k="name" v="Østre Kjærstad" />
		<tag k="place" v="farm" />
		<tag k="ssr:stedsnr" v="326149" />
	</node>
	<node lat="59.57860277782085" lon="10.804591670522345" id="-28099">
		<tag k="alt_name" v="Garder søndre" />
		<tag k="name" v="Søndre Garder" />
		<tag k="place" v="farm" />
		<tag k="ssr:stedsnr" v="326153" />
	</node>
	<node lat="59.57752777471442" lon="10.811372225268068" id="-28100">
		<tag k="name" v="Solli" />
		<tag k="place" v="farm" />
		<tag k="ssr:stedsnr" v="326161" />
	</node>
	<node lat="59.55875555364752" lon="10.77625833104753" id="-28101">
		<tag k="name" v="Bakketun" />
		<tag k="place" v="farm" />
		<tag k="ssr:stedsnr" v="326191" />
	</node>
	<node lat="59.60901388578651" lon="10.779149999356521" id="-28102">
		<tag k="name" v="Juskerud" />
		<tag k="place" v="farm" />
		<tag k="ssr:stedsnr" v="326780" />
	</node>
	<node lat="59.550575002699496" lon="10.692641665120522" id="-28103">
		<tag k="bridge" v="yes" />
		<tag k="layer" v="1" />
		<tag k="name" v="Mørk" />
		<tag k="ssr:stedsnr" v="349184" />
	</node>
	<node lat="59.53114764681071" lon="10.70220676604114" id="-28104">
		<tag k="alt_name" v="Labo nordre;Nordre Labo" />
		<tag k="fixme" v="consider place=hamlet" />
		<tag k="name" v="Nordre Labu" />
		<tag k="place" v="farm" />
		<tag k="ssr:stedsnr" v="359401" />
	</node>
	<node lat="59.622633336232575" lon="10.673138893417622" id="-28105">
		<tag k="alt_name" v="Langebakk" />
		<tag k="name" v="Langbakke" />
		<tag k="place" v="locality" />
		<tag k="ssr:stedsnr" v="361175" />
	</node>
	<node lat="59.55426388628034" lon="10.66332223078112" id="-28106">
		<tag k="name" v="Furubråten" />
		<tag k="place" v="locality" />
		<tag k="ssr:stedsnr" v="361556" />
	</node>
	<node lat="59.55538610738078" lon="10.69418610641979" id="-28107">
		<tag k="name" v="Søndre Erikstad" />
		<tag k="place" v="farm" />
		<tag k="ssr:stedsnr" v="361561" />
	</node>
	<node lat="59.58744721799602" lon="10.69321110335313" id="-28108">
		<tag k="alt_name" v="Rønjul nedre" />
		<tag k="name" v="Nedre Rønjul" />
		<tag k="place" v="farm" />
		<tag k="ssr:stedsnr" v="361716" />
	</node>
	<node lat="59.214972223183594" lon="10.636341670814504" id="-28115">
		<tag k="bay" v="fjord" />
		<tag k="name" v="Oslofjorden" />
		<tag k="natural" v="bay" />
		<tag k="ssr:stedsnr" v="365030" />
	</node>
	<node lat="59.50263333158755" lon="10.669700003369773" id="-28116">
		<tag k="name" v="Gjøva" />
		<tag k="old_name" v="Jøva" />
		<tag k="place" v="islet" />
		<tag k="ssr:stedsnr" v="367437" />
	</node>
	<node lat="59.53078611072786" lon="10.77218610637085" id="-28117">
		<tag k="alt_name" v="Fagerholt søndre" />
		<tag k="name" v="Søndre Fagerholt" />
		<tag k="old_name" v="Fagerli, søndre" />
		<tag k="place" v="farm" />
		<tag k="ssr:stedsnr" v="368003" />
	</node>
	<node lat="59.51005694944022" lon="10.695834122476027" id="-28118">
		<tag k="name" v="Brevikmyra" />
		<tag k="place" v="farm" />
		<tag k="ssr:stedsnr" v="367463" />
	</node>
	<node lat="59.53785555814567" lon="10.722675004516912" id="-28119">
		<tag k="alt_name" v="Hølenelva" />
		<tag k="name" v="Såna" />
		<tag k="ssr:stedsnr" v="367465" />
		<tag k="waterway" v="river" />
	</node>
	<node lat="59.56141925673013" lon="10.664361733169194" id="-28120">
		<tag k="fixme" v="consider place=hamlet" />
		<tag k="name" v="Tørfest" />
		<tag k="place" v="farm" />
		<tag k="ssr:stedsnr" v="367696" />
	</node>
	<node lat="59.58393888661039" lon="10.703377769012608" id="-28121">
		<tag k="name" v="Berg" />
		<tag k="place" v="farm" />
		<tag k="ssr:stedsnr" v="367719" />
	</node>
	<node lat="59.59881075611998" lon="10.733681484668443" id="-28122">
		<tag k="fixme" v="consider place=hamlet" />
		<tag k="name" v="Revhaug" />
		<tag k="place" v="farm" />
		<tag k="ssr:stedsnr" v="368167" />
	</node>
	<node lat="59.54350277593709" lon="10.76651388213278" id="-28123">
		<tag k="name" v="Slottet" />
		<tag k="place" v="farm" />
		<tag k="ssr:stedsnr" v="368240" />
	</node>
	<node lat="59.549448363332345" lon="10.7551637299491" id="-28124">
		<tag k="fixme" v="consider place=hamlet" />
		<tag k="name" v="Grorud" />
		<tag k="place" v="farm" />
		<tag k="ssr:stedsnr" v="368242" />
	</node>
	<node lat="59.502694440464566" lon="10.772630562052816" id="-28125">
		<tag k="name" v="Stubberudmåsan" />
		<tag k="natural" v="wetland" />
		<tag k="ssr:stedsnr" v="386069" />
	</node>
	<node lat="59.58265277381624" lon="10.813466668579563" id="-28126">
		<tag k="name" v="Hov" />
		<tag k="place" v="farm" />
		<tag k="ssr:stedsnr" v="386168" />
	</node>
	<node lat="59.526030553957234" lon="10.752344449233615" id="-28127">
		<tag k="alt_name" v="Såner ungd.skole" />
		<tag k="amenity" v="school" />
		<tag k="name" v="Såner ungdomsskole" />
		<tag k="ssr:stedsnr" v="386133" />
	</node>
	<node lat="59.571941668135544" lon="10.82625555765161" id="-28128">
		<tag k="alt_name" v="Tom lille" />
		<tag k="name" v="Lille Tom" />
		<tag k="place" v="farm" />
		<tag k="ssr:stedsnr" v="386235" />
	</node>
	<node lat="59.572216665679264" lon="10.797627772949978" id="-28129">
		<tag k="alt_name" v="Jordebru nordre" />
		<tag k="name" v="Nordre Jordebru" />
		<tag k="place" v="farm" />
		<tag k="ssr:stedsnr" v="386240" />
	</node>
	<node lat="59.55160833332339" lon="10.747599995032388" id="-28130">
		<tag k="name" v="Bylterudmyra" />
		<tag k="place" v="farm" />
		<tag k="ssr:stedsnr" v="387137" />
	</node>
	<node lat="59.607269445548944" lon="10.766174999970742" id="-28132">
		<tag k="bridge" v="yes" />
		<tag k="layer" v="1" />
		<tag k="name" v="Falentin" />
		<tag k="ssr:stedsnr" v="410172" />
	</node>
	<node lat="59.50703333666619" lon="10.682766674236358" id="-28133">
		<tag k="name" v="Bjerkebukta" />
		<tag k="place" v="farm" />
		<tag k="ssr:stedsnr" v="420458" />
	</node>
	<node lat="59.525455556391954" lon="10.705499996599407" id="-28134">
		<tag k="name" v="Deør skog" />
		<tag k="place" v="quarter" />
		<tag k="ssr:stedsnr" v="420424" />
	</node>
	<node lat="59.6064694485565" lon="10.651688890846929" id="-28135">
		<tag k="name" v="Nedre Ramme" />
		<tag k="place" v="farm" />
		<tag k="ssr:stedsnr" v="421217" />
	</node>
	<node lat="59.566733333139595" lon="10.651191660613016" id="-28136">
		<tag k="name" v="Svartåsen" />
		<tag k="place" v="isolated_dwelling" />
		<tag k="ssr:stedsnr" v="421267" />
	</node>
	<node lat="59.53602778128022" lon="10.715833338424755" id="-28137">
		<tag k="name" v="Stavsenga" />
		<tag k="place" v="locality" />
		<tag k="ssr:stedsnr" v="421274" />
	</node>
	<node lat="59.53399444139611" lon="10.674419440007856" id="-28138">
		<tag k="name" v="Stamneshøgda" />
		<tag k="natural" v="hill" />
		<tag k="place" v="locality" />
		<tag k="ssr:stedsnr" v="421276" />
	</node>
	<node lat="59.537055559753" lon="10.675350007390962" id="-28139">
		<tag k="fixme" v="consider natural=peak for the most distinct mountains in the district" />
		<tag k="name" v="Stamnesåsen" />
		<tag k="natural" v="hill" />
		<tag k="place" v="locality" />
		<tag k="ssr:stedsnr" v="421281" />
	</node>
	<node lat="59.6247222255453" lon="10.703599994621149" id="-28140">
		<tag k="name" v="Galbymåsan" />
		<tag k="natural" v="wetland" />
		<tag k="ssr:stedsnr" v="422133" />
	</node>
	<node lat="59.59718333189188" lon="10.754613880928595" id="-28141">
		<tag k="amenity" v="school" />
		<tag k="name" v="Vestby arena" />
		<tag k="ssr:stedsnr" v="422066" />
	</node>
	<node lat="59.5593222259269" lon="10.762191674788559" id="-28153">
		<tag k="alt_name" v="Krafoss (nedl.)" />
		<tag k="name" v="Krafoss" />
		<tag k="place" v="locality" />
		<tag k="ssr:stedsnr" v="428175" />
	</node>
	<node lat="59.563432664442345" lon="10.744619029451318" id="-28154">
		<tag k="alt_name" v="Bylterud, m;Bylterød vestre" />
		<tag k="fixme" v="consider place=hamlet" />
		<tag k="name" v="Vestre Bylterud" />
		<tag k="place" v="farm" />
		<tag k="ssr:stedsnr" v="428180" />
	</node>
	<node lat="59.53660555156445" lon="10.712819449219046" id="-28155">
		<tag k="name" v="Dypendal" />
		<tag k="place" v="isolated_dwelling" />
		<tag k="ssr:stedsnr" v="428495" />
	</node>
	<node lat="59.6292420517896" lon="10.68915882607913" id="-28156">
		<tag k="fixme" v="consider place=hamlet" />
		<tag k="name" v="Pytt" />
		<tag k="place" v="farm" />
		<tag k="ssr:stedsnr" v="428642" />
	</node>
	<node lat="59.591347226071626" lon="10.679111103938034" id="-28158">
		<tag k="name" v="Strandsødegarden" />
		<tag k="place" v="farm" />
		<tag k="ssr:stedsnr" v="428733" />
	</node>
	<node lat="59.599322219323774" lon="10.658744439865737" id="-28159">
		<tag k="alt_name" v="Hvitsten" />
		<tag k="amenity" v="place_of_worship" />
		<tag k="denomination" v="lutheran" />
		<tag k="name" v="Hvitsten kirke" />
		<tag k="religion" v="christian" />
		<tag k="ssr:stedsnr" v="428591" />
	</node>
	<node lat="59.603727256109295" lon="10.691412497806333" id="-28160">
		<tag k="alt_name" v="Ugjestrød" />
		<tag k="fixme" v="consider place=hamlet" />
		<tag k="name" v="Ugjestrud" />
		<tag k="place" v="farm" />
		<tag k="ssr:stedsnr" v="428593" />
	</node>
	<node lat="59.57037120931195" lon="10.836368730191808" id="-28161">
		<tag k="fixme" v="consider place=hamlet" />
		<tag k="name" v="Pung" />
		<tag k="place" v="farm" />
		<tag k="ssr:stedsnr" v="429210" />
	</node>
	<node lat="59.500350002420426" lon="10.758458341306591" id="-28162">
		<tag k="name" v="Hansbråten" />
		<tag k="place" v="locality" />
		<tag k="ssr:stedsnr" v="447063" />
	</node>
	<node lat="59.56195833107127" lon="10.777150006890132" id="-28163">
		<tag k="name" v="Fjell" />
		<tag k="place" v="hamlet" />
		<tag k="ssr:stedsnr" v="447168" />
	</node>
	<node lat="59.540663889995926" lon="10.734969449922131" id="-28164">
		<tag k="name" v="Elverhøy" />
		<tag k="place" v="farm" />
		<tag k="ssr:stedsnr" v="447097" />
	</node>
	<node lat="59.6269888855744" lon="10.73678611908746" id="-28165">
		<tag k="alt_name" v="Rød søndre" />
		<tag k="name" v="Søndre Rød" />
		<tag k="place" v="farm" />
		<tag k="ssr:stedsnr" v="447198" />
	</node>
	<node lat="59.584519445646905" lon="10.840022213636114" id="-28166">
		<tag k="name" v="Loskabekken" />
		<tag k="ssr:stedsnr" v="447739" />
		<tag k="waterway" v="stream" />
	</node>
	<node lat="59.591930552373235" lon="10.72877778325199" id="-28168">
		<tag k="name" v="Sorgenfri" />
		<tag k="place" v="hamlet" />
		<tag k="ssr:stedsnr" v="448144" />
	</node>
	<node lat="59.63225461690615" lon="10.68499696103235" id="-28169">
		<tag k="alt_name" v="Galby, vestre" />
		<tag k="fixme" v="consider place=hamlet" />
		<tag k="name" v="Vestre Galby" />
		<tag k="place" v="farm" />
		<tag k="ssr:stedsnr" v="670653" />
	</node>
	<node lat="59.62979902130986" lon="10.699309135321641" id="-28170">
		<tag k="alt_name" v="Galby;Galby østre" />
		<tag k="fixme" v="consider place=hamlet" />
		<tag k="name" v="Østre Galby" />
		<tag k="place" v="farm" />
		<tag k="ssr:stedsnr" v="670658" />
	</node>
	<node lat="59.58161944729765" lon="10.808063889509276" id="-28171">
		<tag k="alt_name" v="Garder vestre" />
		<tag k="name" v="Vestre Garder" />
		<tag k="place" v="farm" />
		<tag k="ssr:stedsnr" v="508158" />
	</node>
	<node lat="59.575261106823305" lon="10.800294440798224" id="-28172">
		<tag k="name" v="Skogheim" />
		<tag k="place" v="isolated_dwelling" />
		<tag k="ssr:stedsnr" v="508162" />
	</node>
	<node lat="59.578475003400555" lon="10.808680552989703" id="-28173">
		<tag k="name" v="Gardås" />
		<tag k="place" v="isolated_dwelling" />
		<tag k="ssr:stedsnr" v="508165" />
	</node>
	<node lat="59.57689166451422" lon="10.802022225458039" id="-28174">
		<tag k="name" v="Vesterbøl" />
		<tag k="place" v="isolated_dwelling" />
		<tag k="ssr:stedsnr" v="508166" />
	</node>
	<node lat="59.575831791128806" lon="10.736968256973885" id="-28175">
		<tag k="name" v="Bråten" />
		<tag k="place" v="farm" />
		<tag k="ssr:stedsnr" v="508167" />
	</node>
	<node lat="59.582577779008524" lon="10.7866500007511" id="-28176">
		<tag k="name" v="Glenne" />
		<tag k="place" v="hamlet" />
		<tag k="ssr:stedsnr" v="508180" />
	</node>
	<node lat="59.51950555675404" lon="10.737177785824544" id="-28177">
		<tag k="alt_name" v="Ulfski østre" />
		<tag k="name" v="Østre Ulfski" />
		<tag k="place" v="farm" />
		<tag k="ssr:stedsnr" v="508140" />
	</node>
	<node lat="59.52874939588873" lon="10.755292060294023" id="-28178">
		<tag k="fixme" v="consider place=hamlet" />
		<tag k="name" v="Såner" />
		<tag k="place" v="farm" />
		<tag k="ssr:stedsnr" v="508146" />
	</node>
	<node lat="59.5960027821488" lon="10.809372229430839" id="-28179">
		<tag k="name" v="Kjærstadgrinda" />
		<tag k="place" v="locality" />
		<tag k="ssr:stedsnr" v="508773" />
	</node>
	<node lat="59.614683334934696" lon="10.740813894894652" id="-28180">
		<tag k="name" v="Høgda" />
		<tag k="place" v="quarter" />
		<tag k="ssr:stedsnr" v="508783" />
	</node>
	<node lat="59.51874166501265" lon="10.677169448757601" id="-28181">
		<tag k="name" v="Bentsebåen" />
		<tag k="place" v="locality" />
		<tag k="seamark:type" v="rock" />
		<tag k="ssr:stedsnr" v="513115" />
	</node>
	<node lat="59.508944448035834" lon="10.682441662540716" id="-28182">
		<tag k="name" v="Brevikbukta" />
		<tag k="natural" v="bay" />
		<tag k="ssr:stedsnr" v="513900" />
	</node>
	<node lat="59.58334958724415" lon="10.772640228117295" id="-28183">
		<tag k="fixme" v="consider place=hamlet" />
		<tag k="name" v="Grønlund" />
		<tag k="place" v="farm" />
		<tag k="ssr:stedsnr" v="531177" />
	</node>
	<node lat="59.53190000198995" lon="10.749288883614044" id="-28184">
		<tag k="bridge" v="yes" />
		<tag k="layer" v="1" />
		<tag k="name" v="Såner" />
		<tag k="ssr:stedsnr" v="531157" />
	</node>
	<node lat="59.60146111310314" lon="10.741788889232227" id="-28185">
		<tag k="bridge" v="yes" />
		<tag k="layer" v="1" />
		<tag k="name" v="Nordby" />
		<tag k="ssr:stedsnr" v="531159" />
	</node>
	<node lat="59.531388884982604" lon="10.753494447249201" id="-28186">
		<tag k="bridge" v="yes" />
		<tag k="layer" v="1" />
		<tag k="name" v="Vines" />
		<tag k="ssr:stedsnr" v="531165" />
	</node>
	<node lat="59.60239677752736" lon="10.73881646330423" id="-28187">
		<tag k="bridge" v="yes" />
		<tag k="layer" v="1" />
		<tag k="name" v="Vestbybrua" />
		<tag k="ssr:stedsnr" v="531167" />
	</node>
	<node lat="59.60148611225845" lon="10.732330559071068" id="-28188">
		<tag k="bridge" v="yes" />
		<tag k="layer" v="1" />
		<tag k="name" v="Vestby kirke" />
		<tag k="ssr:stedsnr" v="531169" />
	</node>
	<node lat="59.59865555708439" lon="10.655344446008865" id="-28189">
		<tag k="name" v="Torvet" />
		<tag k="place" v="square" />
		<tag k="ssr:stedsnr" v="542232" />
	</node>
	<node lat="59.52791111483638" lon="10.685113884241227" id="-28190">
		<tag k="name" v="Saltbua" />
		<tag k="place" v="locality" />
		<tag k="ssr:stedsnr" v="542461" />
	</node>
	<node lat="59.589766666760134" lon="10.683938885013413" id="-28191">
		<tag k="name" v="Krambuåsen" />
		<tag k="natural" v="hill" />
		<tag k="place" v="locality" />
		<tag k="ssr:stedsnr" v="543684" />
	</node>
	<node lat="59.588083334306255" lon="10.658297216247835" id="-28192">
		<tag k="name" v="Utsikten" />
		<tag k="place" v="hamlet" />
		<tag k="ssr:stedsnr" v="543729" />
	</node>
	<node lat="59.585891667241675" lon="10.655975001026267" id="-28193">
		<tag k="name" v="Okseryggen" />
		<tag k="place" v="hamlet" />
		<tag k="ssr:stedsnr" v="543733" />
	</node>
	<node lat="59.58203888817835" lon="10.699597230052158" id="-28194">
		<tag k="name" v="Mogholt" />
		<tag k="place" v="farm" />
		<tag k="ssr:stedsnr" v="543752" />
	</node>
	<node lat="59.574708333217124" lon="10.711994449201578" id="-28195">
		<tag k="name" v="Svartedal" />
		<tag k="place" v="farm" />
		<tag k="ssr:stedsnr" v="543754" />
	</node>
	<node lat="59.51529722460746" lon="10.731280561543723" id="-28199">
		<tag k="junction" v="yes" />
		<tag k="name" v="Tegnebyholtet" />
		<tag k="place" v="locality" />
		<tag k="ssr:stedsnr" v="549049" />
	</node>
	<node lat="59.563630552405215" lon="10.79415277558729" id="-28200">
		<tag k="name" v="Flisebru" />
		<tag k="place" v="farm" />
		<tag k="ssr:stedsnr" v="549197" />
	</node>
	<node lat="59.55662319066376" lon="10.71211921268109" id="-28201">
		<tag k="fixme" v="consider place=hamlet" />
		<tag k="name" v="Klokkerud" />
		<tag k="place" v="farm" />
		<tag k="ssr:stedsnr" v="549677" />
	</node>
	<node lat="59.566052781649425" lon="10.688313888408775" id="-28202">
		<tag k="alt_name" v="Nubsrud" />
		<tag k="fixme" v="consider place=hamlet" />
		<tag k="name" v="Nubsrød" />
		<tag k="place" v="farm" />
		<tag k="ssr:stedsnr" v="549693" />
	</node>
	<node lat="59.60882222250127" lon="10.648225002283692" id="-28203">
		<tag k="name" v="Rammebåen" />
		<tag k="natural" v="shoal" />
		<tag k="place" v="locality" />
		<tag k="ssr:stedsnr" v="549619" />
	</node>
	<node lat="59.6032213228729" lon="10.838686126273359" id="-28204">
		<tag k="alt_name" v="Topper, nordre;Topper nordre" />
		<tag k="name" v="Nordre Topper" />
		<tag k="place" v="farm" />
		<tag k="ssr:stedsnr" v="550144" />
	</node>
	<node lat="59.57759440706261" lon="10.773986469535522" id="-28205">
		<tag k="alt_name" v="Rustad, nordre" />
		<tag k="name" v="Nordre Rustad" />
		<tag k="place" v="farm" />
		<tag k="ssr:stedsnr" v="550174" />
	</node>
	<node lat="59.52729444441407" lon="10.664611102326086" id="-28206">
		<tag k="name" v="Paradislandet" />
		<tag k="place" v="locality" />
		<tag k="ssr:stedsnr" v="550434" />
	</node>
	<node lat="59.51247777408767" lon="10.725158327263168" id="-28207">
		<tag k="name" v="Gateengen" />
		<tag k="place" v="farm" />
		<tag k="ssr:stedsnr" v="568144" />
	</node>
	<node lat="59.55901666821935" lon="10.774052783423052" id="-28208">
		<tag k="name" v="Slettebakke" />
		<tag k="place" v="farm" />
		<tag k="ssr:stedsnr" v="568195" />
	</node>
	<node lat="59.5647027779886" lon="10.805391672918775" id="-28209">
		<tag k="name" v="Bru" />
		<tag k="place" v="locality" />
		<tag k="ssr:stedsnr" v="568248" />
	</node>
	<node lat="59.58414999923703" lon="10.745613884066008" id="-28210">
		<tag k="name" v="Lureklo" />
		<tag k="place" v="farm" />
		<tag k="ssr:stedsnr" v="569185" />
	</node>
	<node lat="59.517733328979574" lon="10.693722222477442" id="-28211">
		<tag k="bridge" v="yes" />
		<tag k="layer" v="1" />
		<tag k="name" v="Grevlingen" />
		<tag k="ssr:stedsnr" v="592185" />
	</node>
	<node lat="59.50670277816673" lon="10.68808610549471" id="-28212">
		<tag k="name" v="Solåsen" />
		<tag k="place" v="farm" />
		<tag k="ssr:stedsnr" v="593277" />
	</node>
	<node lat="59.551473581382666" lon="10.766646400756201" id="-28213">
		<tag k="fixme" v="consider place=hamlet" />
		<tag k="name" v="Åmot" />
		<tag k="place" v="farm" />
		<tag k="ssr:stedsnr" v="599376" />
	</node>
	<node lat="59.60618888902063" lon="10.658338880282267" id="-28214">
		<tag k="name" v="Rugbråten" />
		<tag k="place" v="locality" />
		<tag k="ssr:stedsnr" v="602237" />
	</node>
	<node lat="59.60041111237269" lon="10.655749992782324" id="-28215">
		<tag k="fixme" v="consider natural=peak for the most distinct mountains in the district" />
		<tag k="name" v="Høyåsen" />
		<tag k="natural" v="hill" />
		<tag k="place" v="locality" />
		<tag k="ssr:stedsnr" v="602246" />
	</node>
	<node lat="59.52420277565849" lon="10.675399995993466" id="-28216">
		<tag k="name" v="Stamnes" />
		<tag k="place" v="farm" />
		<tag k="ssr:stedsnr" v="602426" />
	</node>
	<node lat="59.51367777593028" lon="10.672988895905613" id="-28217">
		<tag k="name" v="Skjærsund" />
		<tag k="natural" v="strait" />
		<tag k="ssr:stedsnr" v="602437" />
	</node>
	<node lat="59.54863333492012" lon="10.68241666028192" id="-28218">
		<tag k="alt_name" v="Roastad øvre" />
		<tag k="name" v="Øvre Roastad" />
		<tag k="place" v="farm" />
		<tag k="ssr:stedsnr" v="602292" />
	</node>
	<node lat="59.49860832975558" lon="10.697005551997018" id="-28220">
		<tag k="name" v="Damåstjern" />
		<tag k="natural" v="water" />
		<tag k="ssr:stedsnr" v="602915" />
	</node>
	<node lat="59.57696111184187" lon="10.699147223458205" id="-28221">
		<tag k="name" v="Nedre Stubberud" />
		<tag k="place" v="farm" />
		<tag k="ssr:stedsnr" v="604778" />
	</node>
	<node lat="59.57829444860755" lon="10.702152777633652" id="-28222">
		<tag k="name" v="Øvre Stubberud" />
		<tag k="place" v="farm" />
		<tag k="ssr:stedsnr" v="604779" />
	</node>
	<node lat="59.62837499727155" lon="10.768311115879012" id="-28233">
		<tag k="name" v="Støttumtangen" />
		<tag k="place" v="farm" />
		<tag k="ssr:stedsnr" v="609323" />
	</node>
	<node lat="59.51825000294447" lon="10.705650007126254" id="-28234">
		<tag k="name" v="Sletta" />
		<tag k="place" v="farm" />
		<tag k="ssr:stedsnr" v="609481" />
	</node>
	<node lat="59.564213890517436" lon="10.651494449822504" id="-28235">
		<tag k="name" v="Krokstrand" />
		<tag k="place" v="isolated_dwelling" />
		<tag k="ssr:stedsnr" v="609677" />
	</node>
	<node lat="59.517777787871154" lon="10.770940308637783" id="-28236">
		<tag k="alt_name" v="Borgerud" />
		<tag k="fixme" v="consider place=hamlet" />
		<tag k="name" v="Borgerød" />
		<tag k="place" v="farm" />
		<tag k="ssr:stedsnr" v="610056" />
	</node>
	<node lat="59.54105000132144" lon="10.779038880185826" id="-28237">
		<tag k="alt_name" v="Holm, nordre;Holm nordre" />
		<tag k="name" v="Nordre Holm" />
		<tag k="place" v="farm" />
		<tag k="ssr:stedsnr" v="610026" />
	</node>
	<node lat="59.54509148725126" lon="10.751740297017799" id="-28238">
		<tag k="fixme" v="consider place=hamlet" />
		<tag k="name" v="Brandstad" />
		<tag k="place" v="farm" />
		<tag k="ssr:stedsnr" v="610268" />
	</node>
	<node lat="59.5401540197523" lon="10.689930204504384" id="-28239">
		<tag k="fixme" v="consider place=hamlet" />
		<tag k="name" v="Kinne" />
		<tag k="old_name" v="Øvre Kinne" />
		<tag k="place" v="farm" />
		<tag k="ssr:stedsnr" v="610577" />
	</node>
	<node lat="59.56398792818898" lon="10.730307834772844" id="-28240">
		<tag k="alt_name" v="Nordre Kjenn" />
		<tag k="fixme" v="consider place=hamlet" />
		<tag k="name" v="Kjenn" />
		<tag k="place" v="farm" />
		<tag k="ssr:stedsnr" v="611200" />
	</node>
	<node lat="59.56848333358383" lon="10.819930548881985" id="-28241">
		<tag k="alt_name" v="Florud øvre" />
		<tag k="name" v="Øvre Florud" />
		<tag k="place" v="farm" />
		<tag k="ssr:stedsnr" v="629225" />
	</node>
	<node lat="59.58095277382994" lon="10.81194166401952" id="-28242">
		<tag k="alt_name" v="Hovum vestre" />
		<tag k="name" v="Vestre Hovum" />
		<tag k="place" v="farm" />
		<tag k="ssr:stedsnr" v="629161" />
	</node>
	<node lat="59.58268889082314" lon="10.817508330811245" id="-28243">
		<tag k="name" v="Hovtun" />
		<tag k="place" v="farm" />
		<tag k="ssr:stedsnr" v="629164" />
	</node>
	<node lat="59.580594446686355" lon="10.813216672752601" id="-28244">
		<tag k="alt_name" v="Hovum østre" />
		<tag k="name" v="Østre Hovum" />
		<tag k="place" v="farm" />
		<tag k="ssr:stedsnr" v="629166" />
	</node>
	<node lat="59.585097225868346" lon="10.803288896263453" id="-28245">
		<tag k="name" v="Haga" />
		<tag k="place" v="farm" />
		<tag k="ssr:stedsnr" v="629168" />
	</node>
	<node lat="59.58306388935759" lon="10.770949992586596" id="-28246">
		<tag k="alt_name" v="Grønlund søndre;Grønlund" />
		<tag k="name" v="Søndre Grønlund" />
		<tag k="place" v="farm" />
		<tag k="ssr:stedsnr" v="629174" />
	</node>
	<node lat="59.58169721982909" lon="10.783811116772016" id="-28247">
		<tag k="name" v="Rustadbråten" />
		<tag k="place" v="farm" />
		<tag k="ssr:stedsnr" v="629185" />
	</node>
	<node lat="59.5984916687063" lon="10.725730554303189" id="-28248">
		<tag k="name" v="Krusebyen" />
		<tag k="place" v="hamlet" />
		<tag k="ssr:stedsnr" v="629769" />
	</node>
	<node lat="59.60351111232537" lon="10.733566673797254" id="-28249">
		<tag k="name" v="Prestegården" />
		<tag k="place" v="farm" />
		<tag k="ssr:stedsnr" v="629772" />
	</node>
	<node lat="59.632041663681065" lon="10.78830833337807" id="-28250">
		<tag k="alt_name" v="Tveter nordre" />
		<tag k="name" v="Nordre Tveter" />
		<tag k="place" v="farm" />
		<tag k="ssr:stedsnr" v="629781" />
	</node>
	<node lat="59.60707777613538" lon="10.839463881327184" id="-28251">
		<tag k="name" v="Villumstad" />
		<tag k="place" v="farm" />
		<tag k="ssr:stedsnr" v="629867" />
	</node>
	<node lat="59.50395277716951" lon="10.714922220768793" id="-28254">
		<tag k="bridge" v="yes" />
		<tag k="layer" v="1" />
		<tag k="name" v="Smørbekk" />
		<tag k="ssr:stedsnr" v="652132" />
	</node>
	<node lat="59.60771110949228" lon="10.65430278341501" id="-28255">
		<tag k="name" v="Øvre Ramme" />
		<tag k="place" v="farm" />
		<tag k="ssr:stedsnr" v="663230" />
	</node>
	<node lat="59.53952499881404" lon="10.692805563923317" id="-28256">
		<tag k="fixme" v="consider natural=peak for the most distinct mountains in the district" />
		<tag k="name" v="Revlingåsen" />
		<tag k="natural" v="hill" />
		<tag k="place" v="locality" />
		<tag k="ssr:stedsnr" v="663271" />
	</node>
	<node lat="59.53690000343709" lon="10.693027781992232" id="-28257">
		<tag k="fixme" v="consider boundary=protected_area and relevant protect_class if not nature reserve" />
		<tag k="leisure" v="nature_reserve" />
		<tag k="name" v="Kolås naturreservat" />
		<tag k="ssr:stedsnr" v="663280" />
	</node>
	<node lat="59.52697777605513" lon="10.693413896187469" id="-28258">
		<tag k="fixme" v="consider natural=peak for the most distinct mountains in the district" />
		<tag k="name" v="Mølleråsen" />
		<tag k="natural" v="hill" />
		<tag k="place" v="locality" />
		<tag k="ssr:stedsnr" v="663385" />
	</node>
	<node lat="59.50271388616892" lon="10.713011113138847" id="-28259">
		<tag k="name" v="Smørbekk" />
		<tag k="place" v="hamlet" />
		<tag k="ssr:stedsnr" v="663420" />
	</node>
	<node lat="59.64002777397311" lon="10.695202772865187" id="-28260">
		<tag k="name" v="Øvre Linnestad" />
		<tag k="place" v="farm" />
		<tag k="ssr:stedsnr" v="665565" />
	</node>
	<node lat="59.62823611020046" lon="10.700530554519819" id="-28261">
		<tag k="name" v="Evensgalby" />
		<tag k="place" v="locality" />
		<tag k="ssr:stedsnr" v="665169" />
	</node>
	<node lat="59.616324998032894" lon="10.78833611107541" id="-28274">
		<tag k="alt_name" v="Lesteberg, vestre;Lesteberg vestre" />
		<tag k="name" v="Vestre Lesteberg" />
		<tag k="place" v="farm" />
		<tag k="ssr:stedsnr" v="670358" />
	</node>
	<node lat="59.559667793865344" lon="10.656252740767798" id="-28275">
		<tag k="fixme" v="consider place=hamlet" />
		<tag k="name" v="Kjære" />
		<tag k="place" v="farm" />
		<tag k="ssr:stedsnr" v="670674" />
	</node>
	<node lat="59.48578611485879" lon="10.735577770053988" id="-28276">
		<tag k="name" v="Ishavet" />
		<tag k="natural" v="wetland" />
		<tag k="ssr:stedsnr" v="670676" />
	</node>
	<node lat="59.57052499960677" lon="10.653041675099796" id="-28277">
		<tag k="alt_name" v="Skjellvika" />
		<tag k="name" v="Skjelavika" />
		<tag k="place" v="isolated_dwelling" />
		<tag k="ssr:stedsnr" v="670693" />
	</node>
	<node lat="59.541980557333815" lon="10.664574992526825" id="-28278">
		<tag k="name" v="Sofienberg" />
		<tag k="place" v="isolated_dwelling" />
		<tag k="ssr:stedsnr" v="724237" />
	</node>
	<node lat="59.54900555599319" lon="10.697969448119947" id="-28287">
		<tag k="name" v="Nordre Mørk" />
		<tag k="place" v="farm" />
		<tag k="ssr:stedsnr" v="731517" />
	</node>
	<node lat="59.61616388739576" lon="10.729277776969823" id="-28288">
		<tag k="fixme" v="consider place=hamlet" />
		<tag k="name" v="Li" />
		<tag k="place" v="farm" />
		<tag k="ssr:stedsnr" v="731292" />
	</node>
	<node lat="59.62371311874955" lon="10.744348967827777" id="-28289">
		<tag k="fixme" v="consider place=hamlet" />
		<tag k="name" v="Revling" />
		<tag k="place" v="farm" />
		<tag k="ssr:stedsnr" v="731293" />
	</node>
	<node lat="59.57715621158028" lon="10.701439827098293" id="-28290">
		<tag k="fixme" v="consider place=hamlet" />
		<tag k="name" v="Stubberud" />
		<tag k="place" v="farm" />
		<tag k="ssr:stedsnr" v="731683" />
	</node>
	<node lat="59.53424167045948" lon="10.699277780695727" id="-28291">
		<tag k="alt_name" v="Kålås" />
		<tag k="fixme" v="consider natural=peak for the most distinct mountains in the district" />
		<tag k="name" v="Kolås" />
		<tag k="natural" v="hill" />
		<tag k="place" v="locality" />
		<tag k="ssr:stedsnr" v="731494" />
	</node>
	<node lat="59.61460833756126" lon="10.68821388910333" id="-28292">
		<tag k="alt_name" v="Toverud, nedre" />
		<tag k="name" v="Nedre Toverud" />
		<tag k="place" v="farm" />
		<tag k="ssr:stedsnr" v="731597" />
	</node>
	<node lat="59.57104929959851" lon="10.718058956845532" id="-28293">
		<tag k="fixme" v="consider place=hamlet" />
		<tag k="name" v="Tømt" />
		<tag k="place" v="farm" />
		<tag k="ssr:stedsnr" v="732176" />
	</node>
	<node lat="59.58271667075894" lon="10.835516663173127" id="-28294">
		<tag k="name" v="Jonsrud" />
		<tag k="place" v="farm" />
		<tag k="ssr:stedsnr" v="732183" />
	</node>
	<node lat="59.62559722517013" lon="10.673941659357093" id="-28295">
		<tag k="alt_name" v="Solbergelva" />
		<tag k="name" v="Solbergbekken" />
		<tag k="ssr:stedsnr" v="731632" />
		<tag k="waterway" v="stream" />
	</node>
	<node lat="59.508102777299975" lon="10.74480278520486" id="-28296">
		<tag k="alt_name" v="Langerød, søndre;Langerud søndre;Søndre Langerød" />
		<tag k="name" v="Søndre Langerud" />
		<tag k="place" v="farm" />
		<tag k="ssr:stedsnr" v="732042" />
	</node>
	<node lat="59.54650941900073" lon="10.763739391078033" id="-28297">
		<tag k="alt_name" v="Åmot lille" />
		<tag k="fixme" v="consider place=hamlet" />
		<tag k="name" v="Lille Åmot" />
		<tag k="place" v="farm" />
		<tag k="ssr:stedsnr" v="750092" />
	</node>
	<node lat="59.5634444441459" lon="10.765152772328712" id="-28298">
		<tag k="name" v="Bråten" />
		<tag k="place" v="farm" />
		<tag k="ssr:stedsnr" v="750156" />
	</node>
	<node lat="59.58925277500258" lon="10.856866674769552" id="-28300">
		<tag k="alt_name" v="Halle østre" />
		<tag k="name" v="Østre Halle" />
		<tag k="place" v="farm" />
		<tag k="ssr:stedsnr" v="750744" />
	</node>
	<node lat="59.61166944535216" lon="10.80743055117191" id="-28301">
		<tag k="name" v="Salsberg" />
		<tag k="place" v="locality" />
		<tag k="ssr:stedsnr" v="750757" />
	</node>
	<node lat="59.545922223525025" lon="10.729500008871222" id="-28302">
		<tag k="name" v="Søndre Karder" />
		<tag k="place" v="farm" />
		<tag k="ssr:stedsnr" v="751107" />
	</node>
	<node lat="59.55011388681626" lon="10.746974993689289" id="-28303">
		<tag k="name" v="Bylterudbråten" />
		<tag k="place" v="farm" />
		<tag k="ssr:stedsnr" v="751110" />
	</node>
	<node lat="59.56735555536698" lon="10.736569451038676" id="-28304">
		<tag k="bridge" v="yes" />
		<tag k="layer" v="1" />
		<tag k="name" v="Kjenn" />
		<tag k="ssr:stedsnr" v="774176" />
	</node>
	<node lat="59.60457560504181" lon="10.740875464290996" id="-28305">
		<tag k="fixme" v="consider place=hamlet" />
		<tag k="name" v="Randum" />
		<tag k="place" v="farm" />
		<tag k="ssr:stedsnr" v="782561" />
	</node>
	<node lat="59.541002774197395" lon="10.659572227441995" id="-28306">
		<tag k="name" v="Hansonstranda" />
		<tag k="natural" v="beach" />
		<tag k="ssr:stedsnr" v="784345" />
	</node>
	<node lat="59.54699444222047" lon="10.6853777766574" id="-28307">
		<tag k="alt_name" v="Roastad nedre" />
		<tag k="name" v="Nedre Roastad" />
		<tag k="place" v="farm" />
		<tag k="ssr:stedsnr" v="784288" />
	</node>
	<node lat="59.51541389023992" lon="10.67496388399152" id="-28308">
		<tag k="name" v="Sauholmen" />
		<tag k="place" v="islet" />
		<tag k="ssr:stedsnr" v="784455" />
	</node>
	<node lat="59.59386666430867" lon="10.67307223027647" id="-28309">
		<tag k="name" v="Gruveåsen" />
		<tag k="natural" v="ridge" />
		<tag k="place" v="locality" />
		<tag k="ssr:stedsnr" v="786742" />
	</node>
	<node lat="59.59434867578859" lon="10.691023681843769" id="-28310">
		<tag k="fixme" v="consider place=hamlet" />
		<tag k="name" v="Filtvet" />
		<tag k="place" v="farm" />
		<tag k="ssr:stedsnr" v="786744" />
	</node>
	<node lat="59.59376110816659" lon="10.708741666136484" id="-28317">
		<tag k="name" v="Filtvet" />
		<tag k="place" v="farm" />
		<tag k="ssr:stedsnr" v="791723" />
	</node>
	<node lat="59.507536559398126" lon="10.737918322350268" id="-28318">
		<tag k="alt_name" v="Tørbrekke" />
		<tag k="fixme" v="consider place=hamlet" />
		<tag k="loc_name" v="Torbrekka" />
		<tag k="name" v="Torbrekke" />
		<tag k="place" v="farm" />
		<tag k="ssr:stedsnr" v="792051" />
	</node>
	<node lat="59.56168611244971" lon="10.73315000370453" id="-28319">
		<tag k="name" v="Kjennstjernet" />
		<tag k="natural" v="water" />
		<tag k="ssr:stedsnr" v="792198" />
	</node>
	<node lat="59.54445000361042" lon="10.744327784602948" id="-28320">
		<tag k="name" v="Bruer" />
		<tag k="place" v="farm" />
		<tag k="ssr:stedsnr" v="792221" />
	</node>
	<node lat="59.556361111298635" lon="10.653511115822221" id="-28321">
		<tag k="name" v="Lunde" />
		<tag k="place" v="farm" />
		<tag k="ssr:stedsnr" v="792667" />
	</node>
	<node lat="59.60951944295437" lon="10.715213885193641" id="-28322">
		<tag k="alt_name" v="Hannastad" />
		<tag k="name" v="Hannestad" />
		<tag k="place" v="farm" />
		<tag k="ssr:stedsnr" v="792620" />
	</node>
	<node lat="59.52861257076838" lon="10.753144763393706" id="-28323">
		<tag k="alt_name" v="Såner" />
		<tag k="amenity" v="place_of_worship" />
		<tag k="denomination" v="lutheran" />
		<tag k="name" v="Såner kirke" />
		<tag k="religion" v="christian" />
		<tag k="ssr:stedsnr" v="793001" />
	</node>
	<node lat="59.57942494903704" lon="10.795620814469702" id="-28324">
		<tag k="fixme" v="consider place=hamlet" />
		<tag k="name" v="Presterud" />
		<tag k="place" v="farm" />
		<tag k="ssr:stedsnr" v="793170" />
	</node>
	<node lat="59.58272222016179" lon="10.730511117408708" id="-28325">
		<tag k="name" v="Rødshagen" />
		<tag k="place" v="farm" />
		<tag k="ssr:stedsnr" v="793188" />
	</node>
	<node lat="59.57105962216988" lon="10.729372011703" id="-28326">
		<tag k="alt_name" v="Glemme" />
		<tag k="fixme" v="consider place=hamlet" />
		<tag k="name" v="Glenne" />
		<tag k="place" v="farm" />
		<tag k="ssr:stedsnr" v="793219" />
	</node>
	<node lat="59.57305277657066" lon="10.739119439964618" id="-28327">
		<tag k="name" v="Svingen" />
		<tag k="place" v="farm" />
		<tag k="ssr:stedsnr" v="811181" />
	</node>
	<node lat="59.54338611452661" lon="10.782366661143993" id="-28328">
		<tag k="highway" v="bus_stop" />
		<tag k="name" v="Holm" />
		<tag k="ssr:stedsnr" v="811141" />
	</node>
	<node lat="59.51983055845503" lon="10.734347215429285" id="-28329">
		<tag k="alt_name" v="Ulfski midtre" />
		<tag k="name" v="Midtre Ulfski" />
		<tag k="place" v="farm" />
		<tag k="ssr:stedsnr" v="811146" />
	</node>
	<node lat="59.590752779700324" lon="10.78993611709561" id="-28330">
		<tag k="name" v="Kullebunn" />
		<tag k="place" v="farm" />
		<tag k="ssr:stedsnr" v="811155" />
	</node>
	<node lat="59.58171389041" lon="10.81015833652889" id="-28331">
		<tag k="alt_name" v="Garder østre" />
		<tag k="name" v="Østre Garder" />
		<tag k="place" v="farm" />
		<tag k="ssr:stedsnr" v="811162" />
	</node>
	<node lat="59.57706944281032" lon="10.812877785042987" id="-28332">
		<tag k="name" v="Bjerkås" />
		<tag k="place" v="isolated_dwelling" />
		<tag k="ssr:stedsnr" v="811199" />
	</node>
	<node lat="59.568286111656946" lon="10.734336112588984" id="-28333">
		<tag k="alt_name" v="Vestby-Ødegården" />
		<tag k="fixme" v="consider place=hamlet" />
		<tag k="name" v="Ødegården" />
		<tag k="place" v="farm" />
		<tag k="ssr:stedsnr" v="811202" />
	</node>
	<node lat="59.62837222579117" lon="10.737599997977101" id="-28334">
		<tag k="alt_name" v="Rød nordre" />
		<tag k="name" v="Nordre Rød" />
		<tag k="place" v="farm" />
		<tag k="ssr:stedsnr" v="811214" />
	</node>
	<node lat="59.53899444361026" lon="10.743063886522165" id="-28336">
		<tag k="name" v="Sandengen" />
		<tag k="place" v="farm" />
		<tag k="ssr:stedsnr" v="812124" />
	</node>
	<node lat="59.53738719344128" lon="10.731241954776943" id="-28337">
		<tag k="fixme" v="consider place=hamlet" />
		<tag k="name" v="Knapstad" />
		<tag k="place" v="farm" />
		<tag k="ssr:stedsnr" v="812127" />
	</node>
	<node lat="59.5779805580829" lon="10.74720278448219" id="-28338">
		<tag k="name" v="Stormåsan" />
		<tag k="natural" v="wetland" />
		<tag k="ssr:stedsnr" v="812153" />
	</node>
	<node lat="59.594049999672855" lon="10.704083338838274" id="-28339">
		<tag k="name" v="Pepperstad skog" />
		<tag k="place" v="village" />
		<tag k="ssr:stedsnr" v="815132" />
	</node>
	<node lat="59.52912499834061" lon="10.688516673401368" id="-28340">
		<tag k="name" v="Øra" />
		<tag k="place" v="farm" />
		<tag k="ssr:stedsnr" v="817884" />
	</node>
	<node lat="59.516063891785784" lon="10.72532499711738" id="-28341">
		<tag k="bridge" v="yes" />
		<tag k="layer" v="1" />
		<tag k="name" v="Sonsveien holdeplass" />
		<tag k="ssr:stedsnr" v="835574" />
	</node>
	<node lat="59.60356666668991" lon="10.759499993182299" id="-28342">
		<tag k="name" v="Sole skog" />
		<tag k="place" v="quarter" />
		<tag k="ssr:stedsnr" v="845957" />
	</node>
	<node lat="59.53667777553032" lon="10.67685000032495" id="-28343">
		<tag k="name" v="Stamneslund" />
		<tag k="place" v="farm" />
		<tag k="ssr:stedsnr" v="846271" />
	</node>
	<node lat="59.631677781540866" lon="10.702497220368835" id="-28344">
		<tag k="name" v="Hagen" />
		<tag k="place" v="locality" />
		<tag k="ssr:stedsnr" v="847183" />
	</node>
	<node lat="59.62455000109371" lon="10.698183329577438" id="-28345">
		<tag k="name" v="Steinbråten" />
		<tag k="place" v="locality" />
		<tag k="ssr:stedsnr" v="847193" />
	</node>
	<node lat="59.61915278227162" lon="10.711827775580291" id="-28346">
		<tag k="alt_name" v="Skau østre;Østre Skog" />
		<tag k="name" v="Østre Skau" />
		<tag k="place" v="farm" />
		<tag k="ssr:stedsnr" v="847159" />
	</node>
	<node lat="59.611000003056965" lon="10.691561115271869" id="-28347">
		<tag k="name" v="Skjeggerudhøgda" />
		<tag k="natural" v="ridge" />
		<tag k="place" v="locality" />
		<tag k="ssr:stedsnr" v="847165" />
	</node>
	<node lat="59.55347221909421" lon="10.654347218765773" id="-28350">
		<tag k="name" v="Stjernåsen" />
		<tag k="place" v="hamlet" />
		<tag k="ssr:stedsnr" v="847970" />
	</node>
	<node lat="59.52321785269307" lon="10.751231228024" id="-28361">
		<tag k="fixme" v="consider place=hamlet" />
		<tag k="name" v="Råer" />
		<tag k="place" v="farm" />
		<tag k="ssr:stedsnr" v="854034" />
	</node>
	<node lat="59.5425954114073" lon="10.717758477157053" id="-28362">
		<tag k="fixme" v="consider place=hamlet" />
		<tag k="name" v="Gjølstad" />
		<tag k="place" v="farm" />
		<tag k="ssr:stedsnr" v="853535" />
	</node>
	<node lat="59.594985645400484" lon="10.831721204413403" id="-28363">
		<tag k="alt_name" v="Tannum;Tønnum" />
		<tag k="fixme" v="consider place=hamlet" />
		<tag k="name" v="Søndre Tannum" />
		<tag k="place" v="farm" />
		<tag k="ssr:stedsnr" v="854171" />
	</node>
	<node lat="59.590836115102526" lon="10.787900001362681" id="-28364">
		<tag k="name" v="Knatten" />
		<tag k="place" v="isolated_dwelling" />
		<tag k="ssr:stedsnr" v="872168" />
	</node>
	<node lat="59.53445000178607" lon="10.74183333865026" id="-28366">
		<tag k="name" v="Sånersletta" />
		<tag k="place" v="locality" />
		<tag k="ssr:stedsnr" v="872114" />
	</node>
	<node lat="59.573750000193925" lon="10.77092500440914" id="-28367">
		<tag k="name" v="Grønlundødegården" />
		<tag k="place" v="locality" />
		<tag k="ssr:stedsnr" v="872178" />
	</node>
	<node lat="59.590274999795085" lon="10.80308055971845" id="-28368">
		<tag k="name" v="Solås" />
		<tag k="place" v="isolated_dwelling" />
		<tag k="ssr:stedsnr" v="872218" />
	</node>
	<node lat="59.5824083347051" lon="10.824961118262665" id="-28369">
		<tag k="name" v="Fjellvang" />
		<tag k="place" v="isolated_dwelling" />
		<tag k="ssr:stedsnr" v="872220" />
	</node>
	<node lat="59.57188983406109" lon="10.80384669320477" id="-28370">
		<tag k="name" v="Fjellbu" />
		<tag k="place" v="locality" />
		<tag k="ssr:stedsnr" v="872244" />
	</node>
	<node lat="59.60224722375056" lon="10.747861117117145" id="-28371">
		<tag k="amenity" v="townhall" />
		<tag k="name" v="Herredshus" />
		<tag k="ssr:stedsnr" v="872774" />
	</node>
	<node lat="59.606302774416406" lon="10.755347227093429" id="-28372">
		<tag k="alt_name" v="Vestby v.g. skole" />
		<tag k="amenity" v="school" />
		<tag k="name" v="Vestby videregående skole" />
		<tag k="ssr:stedsnr" v="872812" />
	</node>
	<node lat="59.58857500441073" lon="10.80707499919393" id="-28373">
		<tag k="alt_name" v="Tuft nedre" />
		<tag k="name" v="Nedre Tuft" />
		<tag k="place" v="farm" />
		<tag k="ssr:stedsnr" v="873173" />
	</node>
	<node lat="59.61139444050491" lon="10.653561112434552" id="-28374">
		<tag k="name" v="Pyttskog" />
		<tag k="place" v="neighbourhood" />
		<tag k="ssr:stedsnr" v="874548" />
	</node>
	<node lat="59.506849998359" lon="10.6933749967346" id="-28375">
		<tag k="fixme" v="consider place=suburb, village or hamlet" />
		<tag k="name" v="Store Brevik" />
		<tag k="place" v="quarter" />
		<tag k="ssr:stedsnr" v="875489" />
	</node>
	<node lat="59.5858027779329" lon="10.808472229837987" id="-28376">
		<tag k="bridge" v="yes" />
		<tag k="layer" v="1" />
		<tag k="name" v="Kjerstad" />
		<tag k="ssr:stedsnr" v="956168" />
	</node>
	<node lat="59.54909444447603" lon="10.759622224616116" id="-28377">
		<tag k="bridge" v="yes" />
		<tag k="layer" v="1" />
		<tag k="name" v="Åmot" />
		<tag k="ssr:stedsnr" v="956176" />
	</node>
	<node lat="59.56165277642966" lon="10.650802774291718" id="-28378">
		<tag k="name" v="Snippen" />
		<tag k="place" v="farm" />
		<tag k="ssr:stedsnr" v="966268" />
	</node>
	<node lat="59.533487380925" lon="10.706156431966605" id="-28379">
		<tag k="name" v="Presteøgården" />
		<tag k="place" v="farm" />
		<tag k="ssr:stedsnr" v="966289" />
	</node>
	<node lat="59.53633055711034" lon="10.6588138862671" id="-28380">
		<tag k="name" v="Lysterodden" />
		<tag k="natural" v="cape" />
		<tag k="ssr:stedsnr" v="966324" />
	</node>
	<node lat="59.52154167054141" lon="10.70880277964749" id="-28381">
		<tag k="name" v="Skoglundåsen" />
		<tag k="place" v="quarter" />
		<tag k="ssr:stedsnr" v="966433" />
	</node>
	<node lat="59.60231110962088" lon="10.688980551957888" id="-28382">
		<tag k="alt_name" v="Ugjestrud søndre" />
		<tag k="name" v="Søndre Ugjestrud" />
		<tag k="place" v="farm" />
		<tag k="ssr:stedsnr" v="967125" />
	</node>
	<node lat="59.60209444158571" lon="10.662388880403217" id="-28383">
		<tag k="name" v="Knutehullet" />
		<tag k="place" v="locality" />
		<tag k="ssr:stedsnr" v="967127" />
	</node>
	<node lat="59.63745555997444" lon="10.70172499986449" id="-28385">
		<tag k="alt_name" v="Vastad nordre" />
		<tag k="name" v="Nordre Vastad" />
		<tag k="place" v="farm" />
		<tag k="ssr:stedsnr" v="968172" />
	</node>
	<node lat="59.63975833100725" lon="10.686124995108592" id="-28386">
		<tag k="name" v="Linnestadlund" />
		<tag k="place" v="locality" />
		<tag k="ssr:stedsnr" v="968543" />
	</node>
	<node lat="59.570036109837616" lon="10.71551111072165" id="-28387">
		<tag k="name" v="Søndre Tømt" />
		<tag k="place" v="locality" />
		<tag k="ssr:stedsnr" v="968554" />
	</node>
	<node lat="59.59039999902809" lon="10.656905557296083" id="-28388">
		<tag k="name" v="Myra" />
		<tag k="place" v="farm" />
		<tag k="ssr:stedsnr" v="968758" />
	</node>
	<node lat="59.52248703284495" lon="10.744787618834312" id="-28396">
		<tag k="fixme" v="consider place=hamlet" />
		<tag k="name" v="Eik" />
		<tag k="place" v="farm" />
		<tag k="ssr:stedsnr" v="974194" />
	</node>
	<node lat="59.569742788279974" lon="10.772153760426326" id="-28398">
		<tag k="fixme" v="consider place=hamlet" />
		<tag k="name" v="Rogsti" />
		<tag k="place" v="farm" />
		<tag k="ssr:stedsnr" v="977383" />
	</node>
	<node lat="59.52388765878138" lon="10.685738877869335" id="-28399">
		<tag k="man_made" v="quay" />
		<tag k="name" v="Gamle rutebåtkaien" />
		<tag k="place" v="locality" />
		<tag k="ssr:stedsnr" v="987546" />
	</node>
	<node lat="59.5250765262342" lon="10.687780579063203" id="-28400">
		<tag k="man_made" v="quay" />
		<tag k="name" v="Gjestebrygga" />
		<tag k="place" v="locality" />
		<tag k="ssr:stedsnr" v="987547" />
	</node>
	<node lat="59.51589418403539" lon="10.68480594331193" id="-28401">
		<tag k="amenity" v="place_of_worship" />
		<tag k="denomination" v="lutheran" />
		<tag k="name" v="Son kulturkirke" />
		<tag k="religion" v="christian" />
		<tag k="ssr:stedsnr" v="991000" />
	</node>
	<node lat="59.60075467749082" lon="10.832622697599072" id="-28524">
		<tag k="fixme" v="consider place=hamlet" />
		<tag k="name" v="Topper" />
		<tag k="place" v="farm" />
		<tag k="ssr:stedsnr" v="1074837" />
	</node>
	<node lat="59.543834812952774" lon="10.758873417723798" id="-28527">
		<tag k="alt_name" v="Auerød" />
		<tag k="fixme" v="consider place=hamlet" />
		<tag k="name" v="Auerud" />
		<tag k="place" v="farm" />
		<tag k="ssr:stedsnr" v="1078429" />
	</node>
	<node lat="59.536316896672716" lon="10.75720057686464" id="-28528">
		<tag k="name" v="Øde-Auerød" />
		<tag k="place" v="locality" />
		<tag k="ssr:stedsnr" v="1078430" />
	</node>
	<node lat="59.539867105520635" lon="10.778451002150595" id="-28529">
		<tag k="fixme" v="consider place=hamlet" />
		<tag k="name" v="Holm" />
		<tag k="place" v="farm" />
		<tag k="ssr:stedsnr" v="1078431" />
	</node>
	<node lat="59.52325291680869" lon="10.761185608178675" id="-28530">
		<tag k="alt_name" v="Østerød" />
		<tag k="fixme" v="consider place=hamlet" />
		<tag k="name" v="Østerud" />
		<tag k="place" v="farm" />
		<tag k="ssr:stedsnr" v="1078432" />
	</node>
	<node lat="59.50239159387508" lon="10.688621958268344" id="-28531">
		<tag k="fixme" v="consider place=hamlet" />
		<tag k="name" v="Søndre Brevik" />
		<tag k="place" v="farm" />
		<tag k="ssr:stedsnr" v="1078444" />
	</node>
	<node lat="59.5199160640114" lon="10.710372890840379" id="-28532">
		<tag k="alt_name" v="Libråten" />
		<tag k="fixme" v="consider place=hamlet" />
		<tag k="name" v="Liabråten" />
		<tag k="place" v="farm" />
		<tag k="ssr:stedsnr" v="1078445" />
	</node>
	<node lat="59.59119282126128" lon="10.751662231662012" id="-28533">
		<tag k="fixme" v="consider place=hamlet" />
		<tag k="name" v="Søndre Sundby" />
		<tag k="place" v="farm" />
		<tag k="ssr:stedsnr" v="1078377" />
	</node>
	<node lat="59.59074445536547" lon="10.729676760009811" id="-28534">
		<tag k="fixme" v="consider place=hamlet" />
		<tag k="name" v="Søndre Rød" />
		<tag k="place" v="farm" />
		<tag k="ssr:stedsnr" v="1078378" />
	</node>
	<node lat="59.60294841813475" lon="10.722656663988417" id="-28535">
		<tag k="fixme" v="consider place=hamlet" />
		<tag k="name" v="Vestby prestegård" />
		<tag k="place" v="farm" />
		<tag k="ssr:stedsnr" v="1078380" />
	</node>
	<node lat="59.60146972826075" lon="10.756671693421174" id="-28536">
		<tag k="fixme" v="consider place=hamlet" />
		<tag k="name" v="Grøstad" />
		<tag k="place" v="farm" />
		<tag k="ssr:stedsnr" v="1078381" />
	</node>
	<node lat="59.58632656739159" lon="10.760584232688009" id="-28537">
		<tag k="fixme" v="consider place=hamlet" />
		<tag k="name" v="Østby" />
		<tag k="place" v="farm" />
		<tag k="ssr:stedsnr" v="1078382" />
	</node>
	<node lat="59.60531678422084" lon="10.769676223650793" id="-28538">
		<tag k="fixme" v="consider place=hamlet" />
		<tag k="name" v="Ålerød" />
		<tag k="place" v="farm" />
		<tag k="ssr:stedsnr" v="1078383" />
	</node>
	<node lat="59.613894603467415" lon="10.790018350291339" id="-28539">
		<tag k="fixme" v="consider place=hamlet" />
		<tag k="name" v="Lesteberg" />
		<tag k="place" v="farm" />
		<tag k="ssr:stedsnr" v="1078385" />
	</node>
	<node lat="59.62907351867395" lon="10.73687253350335" id="-28540">
		<tag k="fixme" v="consider place=hamlet" />
		<tag k="name" v="Nordre Rød" />
		<tag k="place" v="farm" />
		<tag k="ssr:stedsnr" v="1078390" />
	</node>
	<node lat="59.61873771043923" lon="10.734380039704922" id="-28541">
		<tag k="fixme" v="consider place=hamlet" />
		<tag k="name" v="Verpet" />
		<tag k="place" v="farm" />
		<tag k="ssr:stedsnr" v="1078391" />
	</node>
	<node lat="59.61575992832916" lon="10.68528002330086" id="-28542">
		<tag k="alt_name" v="Toverød" />
		<tag k="fixme" v="consider place=hamlet" />
		<tag k="name" v="Toverud" />
		<tag k="place" v="farm" />
		<tag k="ssr:stedsnr" v="1078394" />
	</node>
	<node lat="59.60654718916427" lon="10.667819318977942" id="-28543">
		<tag k="fixme" v="consider place=hamlet" />
		<tag k="name" v="Lysedal" />
		<tag k="place" v="farm" />
		<tag k="ssr:stedsnr" v="1078395" />
	</node>
	<node lat="59.57635812885126" lon="10.733019445247422" id="-28544">
		<tag k="fixme" v="consider place=hamlet" />
		<tag k="name" v="Søndre Rustad" />
		<tag k="place" v="farm" />
		<tag k="ssr:stedsnr" v="1078403" />
	</node>
	<node lat="59.58884969587548" lon="10.795940077050368" id="-28545">
		<tag k="fixme" v="consider place=hamlet" />
		<tag k="name" v="Tuft" />
		<tag k="place" v="farm" />
		<tag k="ssr:stedsnr" v="1078404" />
	</node>
	<node lat="59.56760036562855" lon="10.82377715289524" id="-28546">
		<tag k="alt_name" v="Florød" />
		<tag k="fixme" v="consider place=hamlet" />
		<tag k="name" v="Florud" />
		<tag k="place" v="farm" />
		<tag k="ssr:stedsnr" v="1078415" />
	</node>
	<node lat="59.5802985177962" lon="10.805209519707985" id="-28547">
		<tag k="fixme" v="consider place=hamlet" />
		<tag k="name" v="Garder" />
		<tag k="place" v="farm" />
		<tag k="ssr:stedsnr" v="1078416" />
	</node>
	<node lat="59.54054595837782" lon="10.746537962002359" id="-28548">
		<tag k="fixme" v="consider place=hamlet" />
		<tag k="name" v="Søndre Bruer" />
		<tag k="place" v="farm" />
		<tag k="ssr:stedsnr" v="1078446" />
	</node>
	<node lat="59.5444806586847" lon="10.741618842243975" id="-28549">
		<tag k="fixme" v="consider place=hamlet" />
		<tag k="name" v="Nordre Bruer" />
		<tag k="place" v="farm" />
		<tag k="ssr:stedsnr" v="1078447" />
	</node>
	<node lat="59.533926937573085" lon="10.70735492259815" id="-28550">
		<tag k="name" v="Årud" />
		<tag k="place" v="locality" />
		<tag k="ssr:stedsnr" v="1078449" />
	</node>
	<node lat="59.52675931404246" lon="10.67125482382369" id="-28551">
		<tag k="fixme" v="consider place=hamlet" />
		<tag k="name" v="Stamnes" />
		<tag k="place" v="farm" />
		<tag k="ssr:stedsnr" v="1078451" />
	</node>
	<node lat="59.53652627739898" lon="10.666818192381879" id="-28552">
		<tag k="fixme" v="consider place=hamlet" />
		<tag k="name" v="Ås" />
		<tag k="place" v="farm" />
		<tag k="ssr:stedsnr" v="1078452" />
	</node>
	<node lat="59.5985846779207" lon="10.70757317781223" id="-28555">
		<tag k="amenity" v="community_centre" />
		<tag k="name" v="Risil grendesenter" />
		<tag k="ssr:stedsnr" v="1082867" />
	</node>
</osm>
