<?xml version="1.0" encoding="UTF-8"?>
<<<<<<< HEAD
<osm version="0.6" generator="osmapis">
	<node lat="59.57242777803997" lon="10.74351110804477" id="-12031">
		<tag k="fixme" v="consider natural=peak for the most distinct mountains in the district" />
		<tag k="name" v="Svingenås" />
		<tag k="natural" v="hill" />
		<tag k="place" v="locality" />
		<tag k="ssr:stedsnr" v="22185" />
	</node>
	<node lat="59.49450555127578" lon="10.68539167309841" id="-12034">
		<tag k="fixme" v="consider natural=peak for the most distinct mountains in the district" />
		<tag k="name" v="Varden" />
		<tag k="natural" v="hill" />
		<tag k="place" v="locality" />
		<tag k="ssr:stedsnr" v="238626" />
	</node>
	<node lat="59.55776111561833" lon="10.768227769543962" id="-12054">
		<tag k="fixme" v="consider natural=peak for the most distinct mountains in the district" />
		<tag k="name" v="Kølabonnåsen" />
		<tag k="natural" v="hill" />
		<tag k="place" v="locality" />
		<tag k="ssr:stedsnr" v="83185" />
	</node>
	<node lat="59.54726389030354" lon="10.777108328143527" id="-12107">
		<tag k="fixme" v="consider natural=peak for the most distinct mountains in the district" />
		<tag k="name" v="Vinesås" />
		<tag k="natural" v="hill" />
		<tag k="place" v="locality" />
		<tag k="ssr:stedsnr" v="265142" />
	</node>
	<node lat="59.53108055674692" lon="10.729844452299306" id="-12118">
		<tag k="alt_name" v="Stavengås" />
		<tag k="fixme" v="consider natural=peak for the most distinct mountains in the district" />
		<tag k="name" v="Stavengåsen" />
		<tag k="natural" v="hill" />
		<tag k="place" v="locality" />
		<tag k="ssr:stedsnr" v="326105" />
	</node>
	<node lat="59.588191670707225" lon="10.764347215308554" id="-12121">
		<tag k="fixme" v="consider natural=peak for the most distinct mountains in the district" />
		<tag k="name" v="Bjørnerudåsen" />
		<tag k="natural" v="hill" />
		<tag k="place" v="locality" />
		<tag k="ssr:stedsnr" v="326120" />
	</node>
	<node lat="59.52908888646123" lon="10.668252785596595" id="-12169">
		<tag k="alt_name" v="Vardåsen" />
		<tag k="fixme" v="consider natural=peak for the most distinct mountains in the district" />
		<tag k="name" v="Sonsåsen" />
		<tag k="natural" v="hill" />
		<tag k="place" v="locality" />
		<tag k="ssr:stedsnr" v="428512" />
	</node>
	<node lat="59.526336112781756" lon="10.696633331803787" id="-12194">
		<tag k="name" v="Labuhøgda" />
		<tag k="natural" v="hill" />
		<tag k="place" v="locality" />
		<tag k="ssr:stedsnr" v="480703" />
	</node>
	<node lat="59.62197777347998" lon="10.694808335849398" id="-12200">
		<tag k="name" v="Vardåsen" />
		<tag k="natural" v="hill" />
		<tag k="place" v="locality" />
		<tag k="ssr:stedsnr" v="483178" />
	</node>
	<node lat="59.60806666974603" lon="10.805827777171908" id="-12204">
		<tag k="fixme" v="consider natural=peak for the most distinct mountains in the district" />
		<tag k="name" v="Tiuråsen" />
		<tag k="natural" v="hill" />
		<tag k="place" v="locality" />
		<tag k="ssr:stedsnr" v="488352" />
	</node>
	<node lat="59.54391944386723" lon="10.731758326604064" id="-12210">
=======
<osm generator="osmapis" version="0.6">
	<node id="-243968" lat="59.5881916707" lon="10.7643472153">
		<tag k="fixme" v="consider natural=peak for the most distinct mountains in the district" />
		<tag k="name" v="Bjørnerudåsen" />
		<tag k="natural" v="hill" />
		<tag k="place" v="locality" />
		<tag k="ssr:stedsnr" v="326120" />
	</node>
	<node id="-244416" lat="59.5290888865" lon="10.6682527856">
		<tag k="alt_name" v="Vardåsen" />
		<tag k="fixme" v="consider natural=peak for the most distinct mountains in the district" />
		<tag k="name" v="Sonsåsen" />
		<tag k="natural" v="hill" />
		<tag k="place" v="locality" />
		<tag k="ssr:stedsnr" v="428512" />
	</node>
	<node id="-244477" lat="59.5826527787" lon="10.6684972141">
		<tag k="fixme" v="consider natural=peak for the most distinct mountains in the district" />
		<tag k="name" v="Kikkeråsen" />
		<tag k="natural" v="hill" />
		<tag k="place" v="locality" />
		<tag k="ssr:stedsnr" v="609692" />
	</node>
	<node id="-244343" lat="59.6073499963" lon="10.7145750011">
		<tag k="name" v="Risilhøgda" />
		<tag k="natural" v="hill" />
		<tag k="place" v="locality" />
		<tag k="ssr:stedsnr" v="301142" />
	</node>
	<node id="-244211" lat="59.5041638882" lon="10.6990722231">
		<tag k="fixme" v="consider natural=peak for the most distinct mountains in the district" />
		<tag k="name" v="Smørbekkåsen" />
		<tag k="natural" v="hill" />
		<tag k="place" v="locality" />
		<tag k="ssr:stedsnr" v="906462" />
	</node>
	<node id="-244209" lat="59.5525694452" lon="10.6561083382">
		<tag k="fixme" v="consider natural=peak for the most distinct mountains in the district" />
		<tag k="name" v="Stjernåsen" />
		<tag k="natural" v="hill" />
		<tag k="place" v="locality" />
		<tag k="ssr:stedsnr" v="906323" />
	</node>
	<node id="-244336" lat="59.5355361098" lon="10.7628111174">
		<tag k="name" v="Presterudkollen" />
		<tag k="natural" v="hill" />
		<tag k="place" v="locality" />
		<tag k="ssr:stedsnr" v="205135" />
	</node>
	<node id="-244463" lat="59.6004111124" lon="10.6557499928">
		<tag k="fixme" v="consider natural=peak for the most distinct mountains in the district" />
		<tag k="name" v="Høyåsen" />
		<tag k="natural" v="hill" />
		<tag k="place" v="locality" />
		<tag k="ssr:stedsnr" v="602246" />
	</node>
	<node id="-244078" lat="59.5103527805" lon="10.752861104">
		<tag k="fixme" v="consider natural=peak for the most distinct mountains in the district" />
		<tag k="name" v="Skrieråsen" />
		<tag k="natural" v="hill" />
		<tag k="place" v="locality" />
		<tag k="ssr:stedsnr" v="690146" />
	</node>
	<node id="-243965" lat="59.5310805567" lon="10.7298444523">
		<tag k="alt_name" v="Stavengås" />
		<tag k="fixme" v="consider natural=peak for the most distinct mountains in the district" />
		<tag k="name" v="Stavengåsen" />
		<tag k="natural" v="hill" />
		<tag k="place" v="locality" />
		<tag k="ssr:stedsnr" v="326105" />
	</node>
	<node id="-244156" lat="59.5945527781" lon="10.6812027712">
		<tag k="fixme" v="consider natural=peak for the most distinct mountains in the district" />
		<tag k="name" v="Brattåsen" />
		<tag k="natural" v="hill" />
		<tag k="place" v="locality" />
		<tag k="ssr:stedsnr" v="908758" />
	</node>
	<node id="-244317" lat="59.5507305588" lon="10.6818666702">
>>>>>>> e1d4bc35ff8a6074a6f2e91616a996b547c36f15
		<tag k="fixme" v="consider natural=peak for the most distinct mountains in the district" />
		<tag k="name" v="Kikkutåsen" />
		<tag k="natural" v="hill" />
		<tag k="place" v="locality" />
		<tag k="ssr:stedsnr" v="178264" />
	</node>
<<<<<<< HEAD
	<node lat="59.51035278053479" lon="10.752861103975512" id="-12230">
		<tag k="fixme" v="consider natural=peak for the most distinct mountains in the district" />
		<tag k="name" v="Skrieråsen" />
		<tag k="natural" v="hill" />
		<tag k="place" v="locality" />
		<tag k="ssr:stedsnr" v="690146" />
	</node>
	<node lat="59.582652778678764" lon="10.668497214122365" id="-12256">
		<tag k="fixme" v="consider natural=peak for the most distinct mountains in the district" />
		<tag k="name" v="Kikkeråsen" />
		<tag k="natural" v="hill" />
		<tag k="place" v="locality" />
		<tag k="ssr:stedsnr" v="609692" />
	</node>
	<node lat="59.55256944520405" lon="10.656108338218676" id="-12297">
=======
	<node id="-243922" lat="59.5472638903" lon="10.7771083281">
		<tag k="fixme" v="consider natural=peak for the most distinct mountains in the district" />
		<tag k="name" v="Vinesås" />
		<tag k="natural" v="hill" />
		<tag k="place" v="locality" />
		<tag k="ssr:stedsnr" v="265142" />
	</node>
	<node id="-244428" lat="59.5897666668" lon="10.683938885">
		<tag k="name" v="Krambuåsen" />
		<tag k="natural" v="hill" />
		<tag k="place" v="locality" />
		<tag k="ssr:stedsnr" v="543684" />
	</node>
	<node id="-244551" lat="59.5743250031" lon="10.6522166602">
>>>>>>> e1d4bc35ff8a6074a6f2e91616a996b547c36f15
		<tag k="fixme" v="consider natural=peak for the most distinct mountains in the district" />
		<tag k="name" v="Stjernåsen" />
		<tag k="natural" v="hill" />
		<tag k="place" v="locality" />
<<<<<<< HEAD
		<tag k="ssr:stedsnr" v="906323" />
	</node>
	<node lat="59.51170833478864" lon="10.680930552438113" id="-12298">
		<tag k="fixme" v="consider natural=peak for the most distinct mountains in the district" />
		<tag k="name" v="Tønnesåsen" />
		<tag k="natural" v="hill" />
		<tag k="place" v="locality" />
		<tag k="ssr:stedsnr" v="906440" />
	</node>
	<node lat="59.5871000004321" lon="10.753869448362424" id="-12328">
		<tag k="fixme" v="consider natural=peak for the most distinct mountains in the district" />
		<tag k="name" v="Røddalsåsen" />
		<tag k="natural" v="hill" />
		<tag k="place" v="locality" />
		<tag k="ssr:stedsnr" v="811132" />
	</node>
	<node lat="59.5994888862915" lon="10.692647223967647" id="-12331">
=======
		<tag k="ssr:stedsnr" v="853719" />
	</node>
	<node id="-244544" lat="59.6110000031" lon="10.6915611153">
		<tag k="name" v="Skjeggerudhøgda" />
		<tag k="natural" v="ridge" />
		<tag k="place" v="locality" />
		<tag k="ssr:stedsnr" v="847165" />
	</node>
	<node id="-244540" lat="59.5994888863" lon="10.692647224">
>>>>>>> e1d4bc35ff8a6074a6f2e91616a996b547c36f15
		<tag k="name" v="Kvernhusdalen" />
		<tag k="natural" v="valley" />
		<tag k="place" v="locality" />
		<tag k="ssr:stedsnr" v="846127" />
	</node>
<<<<<<< HEAD
	<node lat="59.57432500308552" lon="10.652216660202328" id="-12337">
		<tag k="fixme" v="consider natural=peak for the most distinct mountains in the district" />
		<tag k="name" v="Stjernåsen" />
		<tag k="natural" v="hill" />
		<tag k="place" v="locality" />
		<tag k="ssr:stedsnr" v="853719" />
	</node>
	<node lat="59.504163888249714" lon="10.699072223088493" id="-12349">
		<tag k="fixme" v="consider natural=peak for the most distinct mountains in the district" />
		<tag k="name" v="Smørbekkåsen" />
		<tag k="natural" v="hill" />
		<tag k="place" v="locality" />
		<tag k="ssr:stedsnr" v="906462" />
	</node>
	<node lat="59.594552778090076" lon="10.681202771240285" id="-12351">
		<tag k="fixme" v="consider natural=peak for the most distinct mountains in the district" />
		<tag k="name" v="Brattåsen" />
		<tag k="natural" v="hill" />
		<tag k="place" v="locality" />
		<tag k="ssr:stedsnr" v="908758" />
	</node>
	<node lat="59.48353333494823" lon="10.753088894838374" id="-12383">
		<tag k="fixme" v="consider natural=peak for the most distinct mountains in the district" />
		<tag k="name" v="Skaran" />
		<tag k="natural" v="hill" />
		<tag k="place" v="locality" />
		<tag k="ssr:stedsnr" v="3658" />
	</node>
	<node lat="59.59241944548553" lon="10.676011117965743" id="-12406">
		<tag k="fixme" v="consider natural=peak for the most distinct mountains in the district" />
		<tag k="name" v="Vardeåsen" />
		<tag k="natural" v="hill" />
		<tag k="place" v="locality" />
		<tag k="ssr:stedsnr" v="58716" />
	</node>
	<node lat="59.54130000252078" lon="10.730108324874852" id="-12417">
		<tag k="name" v="Gjølstadbakken" />
		<tag k="natural" v="slope" />
		<tag k="place" v="locality" />
		<tag k="ssr:stedsnr" v="83098" />
	</node>
	<node lat="59.55073055881642" lon="10.681866670189267" id="-12441">
		<tag k="fixme" v="consider natural=peak for the most distinct mountains in the district" />
		<tag k="name" v="Kikkutåsen" />
		<tag k="natural" v="hill" />
		<tag k="place" v="locality" />
		<tag k="ssr:stedsnr" v="178264" />
	</node>
	<node lat="59.53553610983139" lon="10.762811117361506" id="-12457">
		<tag k="name" v="Presterudkollen" />
		<tag k="natural" v="hill" />
		<tag k="place" v="locality" />
		<tag k="ssr:stedsnr" v="205135" />
	</node>
	<node lat="59.57327221904301" lon="10.69080000809469" id="-12460">
		<tag k="fixme" v="consider natural=peak for the most distinct mountains in the district" />
		<tag k="name" v="Høyåsen" />
		<tag k="natural" v="hill" />
		<tag k="place" v="locality" />
		<tag k="ssr:stedsnr" v="210847" />
	</node>
	<node lat="59.60734999634301" lon="10.714575001063126" id="-12471">
		<tag k="name" v="Risilhøgda" />
		<tag k="natural" v="hill" />
		<tag k="place" v="locality" />
		<tag k="ssr:stedsnr" v="301142" />
	</node>
	<node lat="59.495316666584614" lon="10.767388895722187" id="-12489">
		<tag k="fixme" v="consider natural=peak for the most distinct mountains in the district" />
		<tag k="name" v="Kolsrudåsen" />
		<tag k="natural" v="hill" />
		<tag k="place" v="locality" />
		<tag k="ssr:stedsnr" v="326060" />
	</node>
	<node lat="59.547455554350364" lon="10.741599991634654" id="-12490">
		<tag k="name" v="Kløfta" />
		<tag k="place" v="locality" />
		<tag k="ssr:stedsnr" v="326082" />
	</node>
	<node lat="59.53380278110761" lon="10.77952778547238" id="-12491">
		<tag k="fixme" v="consider natural=peak for the most distinct mountains in the district" />
		<tag k="name" v="Finsrudåsen" />
		<tag k="natural" v="hill" />
		<tag k="place" v="locality" />
		<tag k="ssr:stedsnr" v="326131" />
	</node>
	<node lat="59.53399444139611" lon="10.674419440007856" id="-12527">
		<tag k="name" v="Stamneshøgda" />
		<tag k="natural" v="hill" />
		<tag k="place" v="locality" />
		<tag k="ssr:stedsnr" v="421276" />
	</node>
	<node lat="59.537055559753" lon="10.675350007390962" id="-12528">
		<tag k="fixme" v="consider natural=peak for the most distinct mountains in the district" />
		<tag k="name" v="Stamnesåsen" />
		<tag k="natural" v="hill" />
		<tag k="place" v="locality" />
		<tag k="ssr:stedsnr" v="421281" />
	</node>
	<node lat="59.589766666760134" lon="10.683938885013413" id="-12568">
		<tag k="name" v="Krambuåsen" />
		<tag k="natural" v="hill" />
		<tag k="place" v="locality" />
		<tag k="ssr:stedsnr" v="543684" />
	</node>
	<node lat="59.60041111237269" lon="10.655749992782324" id="-12589">
=======
	<node id="-244280" lat="59.5577611156" lon="10.7682277695">
		<tag k="fixme" v="consider natural=peak for the most distinct mountains in the district" />
		<tag k="name" v="Kølabonnåsen" />
		<tag k="natural" v="hill" />
		<tag k="place" v="locality" />
		<tag k="ssr:stedsnr" v="83185" />
	</node>
	<node id="-244278" lat="59.5413000025" lon="10.7301083249">
		<tag k="name" v="Gjølstadbakken" />
		<tag k="natural" v="slope" />
		<tag k="place" v="locality" />
		<tag k="ssr:stedsnr" v="83098" />
	</node>
	<node id="-243891" lat="59.4945055513" lon="10.6853916731">
		<tag k="fixme" v="consider natural=peak for the most distinct mountains in the district" />
		<tag k="name" v="Varden" />
		<tag k="natural" v="hill" />
		<tag k="place" v="locality" />
		<tag k="ssr:stedsnr" v="238626" />
	</node>
	<node id="-244402" lat="59.5370555598" lon="10.6753500074">
		<tag k="fixme" v="consider natural=peak for the most distinct mountains in the district" />
		<tag k="name" v="Stamnesåsen" />
		<tag k="natural" v="hill" />
		<tag k="place" v="locality" />
		<tag k="ssr:stedsnr" v="421281" />
	</node>
	<node id="-244147" lat="59.5117083348" lon="10.6809305524">
		<tag k="fixme" v="consider natural=peak for the most distinct mountains in the district" />
		<tag k="name" v="Tønnesåsen" />
		<tag k="natural" v="hill" />
		<tag k="place" v="locality" />
		<tag k="ssr:stedsnr" v="906440" />
	</node>
	<node id="-243933" lat="59.573272219" lon="10.6908000081">
		<tag k="fixme" v="consider natural=peak for the most distinct mountains in the district" />
		<tag k="name" v="Høyåsen" />
		<tag k="natural" v="hill" />
		<tag k="place" v="locality" />
		<tag k="ssr:stedsnr" v="210847" />
	</node>
	<node id="-244524" lat="59.5871000004" lon="10.7538694484">
		<tag k="fixme" v="consider natural=peak for the most distinct mountains in the district" />
		<tag k="name" v="Røddalsåsen" />
		<tag k="natural" v="hill" />
		<tag k="place" v="locality" />
		<tag k="ssr:stedsnr" v="811132" />
	</node>
	<node id="-244011" lat="59.5439194439" lon="10.7317583266">
		<tag k="fixme" v="consider natural=peak for the most distinct mountains in the district" />
		<tag k="name" v="Karderåsen" />
		<tag k="natural" v="hill" />
		<tag k="place" v="locality" />
		<tag k="ssr:stedsnr" v="508116" />
	</node>
	<node id="-243882" lat="59.4835333349" lon="10.7530888948">
		<tag k="fixme" v="consider natural=peak for the most distinct mountains in the district" />
		<tag k="name" v="Skaran" />
		<tag k="natural" v="hill" />
		<tag k="place" v="locality" />
		<tag k="ssr:stedsnr" v="3658" />
	</node>
	<node id="-244039" lat="59.5269777761" lon="10.6934138962">
		<tag k="fixme" v="consider natural=peak for the most distinct mountains in the district" />
		<tag k="name" v="Mølleråsen" />
		<tag k="natural" v="hill" />
		<tag k="place" v="locality" />
		<tag k="ssr:stedsnr" v="663385" />
	</node>
	<node id="-244263" lat="59.5924194455" lon="10.676011118">
		<tag k="fixme" v="consider natural=peak for the most distinct mountains in the district" />
		<tag k="name" v="Vardeåsen" />
		<tag k="natural" v="hill" />
		<tag k="place" v="locality" />
		<tag k="ssr:stedsnr" v="58716" />
	</node>
	<node id="-244401" lat="59.5339944414" lon="10.67441944">
		<tag k="name" v="Stamneshøgda" />
		<tag k="natural" v="hill" />
		<tag k="place" v="locality" />
		<tag k="ssr:stedsnr" v="421276" />
	</node>
	<node id="-244512" lat="59.5938666643" lon="10.6730722303">
		<tag k="name" v="Gruveåsen" />
		<tag k="natural" v="ridge" />
		<tag k="place" v="locality" />
		<tag k="ssr:stedsnr" v="786742" />
	</node>
	<node id="-244124" lat="59.5395249988" lon="10.6928055639">
		<tag k="fixme" v="consider natural=peak for the most distinct mountains in the district" />
		<tag k="name" v="Revlingåsen" />
		<tag k="natural" v="hill" />
		<tag k="place" v="locality" />
		<tag k="ssr:stedsnr" v="663271" />
	</node>
	<node id="-244117" lat="59.5342416705" lon="10.6992777807">
		<tag k="alt_name" v="Kålås" />
		<tag k="fixme" v="consider natural=peak for the most distinct mountains in the district" />
		<tag k="name" v="Kolås" />
		<tag k="natural" v="hill" />
		<tag k="place" v="locality" />
		<tag k="ssr:stedsnr" v="731494" />
	</node>
	<node id="-243987" lat="59.6080666697" lon="10.8058277772">
>>>>>>> e1d4bc35ff8a6074a6f2e91616a996b547c36f15
		<tag k="fixme" v="consider natural=peak for the most distinct mountains in the district" />
		<tag k="name" v="Tiuråsen" />
		<tag k="natural" v="hill" />
		<tag k="place" v="locality" />
		<tag k="ssr:stedsnr" v="488352" />
	</node>
<<<<<<< HEAD
	<node lat="59.53952499881404" lon="10.692805563923317" id="-12619">
		<tag k="fixme" v="consider natural=peak for the most distinct mountains in the district" />
		<tag k="name" v="Revlingåsen" />
		<tag k="natural" v="hill" />
		<tag k="place" v="locality" />
		<tag k="ssr:stedsnr" v="663271" />
	</node>
	<node lat="59.52697777605513" lon="10.693413896187469" id="-12621">
		<tag k="fixme" v="consider natural=peak for the most distinct mountains in the district" />
		<tag k="name" v="Mølleråsen" />
		<tag k="natural" v="hill" />
		<tag k="place" v="locality" />
		<tag k="ssr:stedsnr" v="663385" />
	</node>
	<node lat="59.53424167045948" lon="10.699277780695727" id="-12634">
		<tag k="alt_name" v="Kålås" />
		<tag k="fixme" v="consider natural=peak for the most distinct mountains in the district" />
		<tag k="name" v="Kolås" />
		<tag k="natural" v="hill" />
		<tag k="place" v="locality" />
		<tag k="ssr:stedsnr" v="731494" />
	</node>
	<node lat="59.59386666430867" lon="10.67307223027647" id="-12651">
		<tag k="name" v="Gruveåsen" />
		<tag k="natural" v="ridge" />
		<tag k="place" v="locality" />
		<tag k="ssr:stedsnr" v="786742" />
	</node>
	<node lat="59.611000003056965" lon="10.691561115271869" id="-12682">
		<tag k="name" v="Skjeggerudhøgda" />
		<tag k="natural" v="ridge" />
		<tag k="place" v="locality" />
		<tag k="ssr:stedsnr" v="847165" />
=======
	<node id="-244239" lat="59.572427778" lon="10.743511108">
		<tag k="fixme" v="consider natural=peak for the most distinct mountains in the district" />
		<tag k="name" v="Svingenås" />
		<tag k="natural" v="hill" />
		<tag k="place" v="locality" />
		<tag k="ssr:stedsnr" v="22185" />
	</node>
	<node id="-243980" lat="59.6219777735" lon="10.6948083358">
		<tag k="name" v="Vardåsen" />
		<tag k="natural" v="hill" />
		<tag k="place" v="locality" />
		<tag k="ssr:stedsnr" v="483178" />
	</node>
	<node id="-244362" lat="59.5474555544" lon="10.7415999916">
		<tag k="name" v="Kløfta" />
		<tag k="place" v="locality" />
		<tag k="ssr:stedsnr" v="326082" />
	</node>
	<node id="-244361" lat="59.4953166666" lon="10.7673888957">
		<tag k="fixme" v="consider natural=peak for the most distinct mountains in the district" />
		<tag k="name" v="Kolsrudåsen" />
		<tag k="natural" v="hill" />
		<tag k="place" v="locality" />
		<tag k="ssr:stedsnr" v="326060" />
	</node>
	<node id="-243973" lat="59.5263361128" lon="10.6966333318">
		<tag k="name" v="Labuhøgda" />
		<tag k="natural" v="hill" />
		<tag k="place" v="locality" />
		<tag k="ssr:stedsnr" v="480703" />
	</node>
	<node id="-243970" lat="59.5338027811" lon="10.7795277855">
		<tag k="fixme" v="consider natural=peak for the most distinct mountains in the district" />
		<tag k="name" v="Finsrudåsen" />
		<tag k="natural" v="hill" />
		<tag k="place" v="locality" />
		<tag k="ssr:stedsnr" v="326131" />
>>>>>>> e1d4bc35ff8a6074a6f2e91616a996b547c36f15
	</node>
</osm>
