<?xml version="1.0" encoding="UTF-8"?>
<osm generator="osmapis" version="0.6">
	<node id="-226335" lat="59.4986083298" lon="10.697005552">
		<tag k="name" v="Damåstjern" />
		<tag k="natural" v="water" />
		<tag k="ssr:stedsnr" v="602915" />
	</node>
	<node id="-225833" lat="59.5458361102" lon="10.740722229">
		<tag k="name" v="Muggestadfossen" />
		<tag k="natural" v="waterfall" />
		<tag k="ssr:stedsnr" v="326107" />
	</node>
	<node id="-226141" lat="59.6385694462" lon="10.7062305468">
		<tag k="alt_name" v="Vastadtjern" />
		<tag k="name" v="Vastadtjernet" />
		<tag k="natural" v="water" />
		<tag k="ssr:stedsnr" v="64680" />
	</node>
	<node id="-226171" lat="59.5428694423" lon="10.7401305563">
		<tag k="name" v="Molvikdammen" />
		<tag k="ssr:stedsnr" v="143084" />
		<tag k="waterway" v="dam" />
	</node>
	<node id="-226170" lat="59.5030916673" lon="10.6903611064">
		<tag k="alt_name" v="Breviktjern" />
		<tag k="name" v="Breviktjernet" />
		<tag k="natural" v="water" />
		<tag k="ssr:stedsnr" v="141980" />
	</node>
	<node id="-225791" lat="59.5679944421" lon="10.7666249958">
		<tag k="name" v="Grønlundbekken" />
		<tag k="ssr:stedsnr" v="265205" />
		<tag k="waterway" v="stream" />
	</node>
	<node id="-226007" lat="59.6255972252" lon="10.6739416594">
		<tag k="alt_name" v="Solbergelva" />
		<tag k="name" v="Solbergbekken" />
		<tag k="ssr:stedsnr" v="731632" />
		<tag k="waterway" v="stream" />
	</node>
	<node id="-225929" lat="59.5336555528" lon="10.6924222191">
		<tag k="alt_name" v="Kålåstjern" />
		<tag k="name" v="Kolåstjern" />
		<tag k="natural" v="water" />
		<tag k="ssr:stedsnr" v="481304" />
	</node>
	<node id="-226275" lat="59.5926555545" lon="10.7167138879">
		<tag k="name" v="Moradammen" />
		<tag k="natural" v="water" />
		<tag k="ssr:stedsnr" v="422700" />
	</node>
	<node id="-226290" lat="59.5345888846" lon="10.6723277763">
		<tag k="name" v="Stamnestjern" />
		<tag k="natural" v="water" />
		<tag k="ssr:stedsnr" v="542308" />
	</node>
	<node id="-225809" lat="59.5845194456" lon="10.8400222136">
		<tag k="name" v="Loskabekken" />
		<tag k="ssr:stedsnr" v="447739" />
		<tag k="waterway" v="stream" />
	</node>
	<node id="-226383" lat="59.5616861124" lon="10.7331500037">
		<tag k="name" v="Kjennstjernet" />
		<tag k="natural" v="water" />
		<tag k="ssr:stedsnr" v="792198" />
	</node>
	<node id="-226060" lat="59.5593027808" lon="10.7912944378">
		<tag k="name" v="Garderbekken" />
		<tag k="ssr:stedsnr" v="933898" />
		<tag k="waterway" v="stream" />
	</node>
	<node id="-226034" lat="59.5740805562" lon="10.6748833298">
		<tag k="alt_name" v="Haugertjern" />
		<tag k="name" v="Haugertjernet" />
		<tag k="natural" v="water" />
		<tag k="ssr:stedsnr" v="913706" />
	</node>
	<node id="-225865" lat="59.540425003" lon="10.6823083399">
		<tag k="name" v="Stamnesbekken" />
		<tag k="ssr:stedsnr" v="360267" />
		<tag k="waterway" v="stream" />
	</node>
	<node id="-226312" lat="59.5135999993" lon="10.7751722187">
		<tag k="name" v="Borgerudtjern" />
		<tag k="natural" v="water" />
		<tag k="ssr:stedsnr" v="568121" />
	</node>
	<node id="-226182" lat="59.5133083314" lon="10.6878861162">
		<tag k="name" v="Brevikbekken" />
		<tag k="ssr:stedsnr" v="177737" />
		<tag k="waterway" v="stream" />
	</node>
	<node id="-226243" lat="59.5378555581" lon="10.7226750045">
		<tag k="alt_name" v="Hølenelva" />
		<tag k="name" v="Såna" />
		<tag k="ssr:stedsnr" v="367465" />
		<tag k="waterway" v="river" />
	</node>
	<node id="-225890" lat="59.6051944488" lon="10.7663583388">
		<tag k="name" v="Fallentinbekken" />
		<tag k="ssr:stedsnr" v="508790" />
		<tag k="waterway" v="stream" />
	</node>
</osm>
