<?xml version="1.0" encoding="UTF-8"?>
<<<<<<< HEAD
<osm version="0.6" generator="osmapis">
	<node lat="59.58046110975682" lon="10.748977785886503" id="-12122">
		<tag k="name" v="Lureklomåsan" />
		<tag k="natural" v="wetland" />
		<tag k="ssr:stedsnr" v="326121" />
	</node>
	<node lat="59.571325002790424" lon="10.668058339256604" id="-12172">
		<tag k="name" v="Breimåsan" />
		<tag k="natural" v="wetland" />
		<tag k="ssr:stedsnr" v="428708" />
	</node>
	<node lat="59.53981944041928" lon="10.702741658502559" id="-12197">
		<tag k="name" v="Kinnemåsan" />
		<tag k="natural" v="wetland" />
		<tag k="ssr:stedsnr" v="481309" />
	</node>
	<node lat="59.558011109915725" lon="10.725538888829488" id="-12232">
		<tag k="name" v="Flåtorva" />
		<tag k="natural" v="wetland" />
		<tag k="ssr:stedsnr" v="690253" />
	</node>
	<node lat="59.497600000599626" lon="10.760094448291163" id="-12235">
		<tag k="name" v="Vandråsmåsan" />
=======
<osm generator="osmapis" version="0.6">
	<node id="-244224" lat="59.5563833304" lon="10.7490666687">
		<tag k="name" v="Bylterudmåsan" />
>>>>>>> e1d4bc35ff8a6074a6f2e91616a996b547c36f15
		<tag k="natural" v="wetland" />
		<tag k="ssr:stedsnr" v="3215" />
	</node>
<<<<<<< HEAD
	<node lat="59.48388055541252" lon="10.713591674847008" id="-12304">
=======
	<node id="-244031" lat="59.5713250028" lon="10.6680583393">
		<tag k="name" v="Breimåsan" />
		<tag k="natural" v="wetland" />
		<tag k="ssr:stedsnr" v="428708" />
	</node>
	<node id="-244412" lat="59.4943027737" lon="10.7400138915">
		<tag k="name" v="Breimåsan" />
		<tag k="natural" v="wetland" />
		<tag k="ssr:stedsnr" v="428653" />
	</node>
	<node id="-244443" lat="59.5272944444" lon="10.6646111023">
		<tag k="name" v="Paradislandet" />
		<tag k="place" v="locality" />
		<tag k="ssr:stedsnr" v="550434" />
	</node>
	<node id="-244506" lat="59.4838805554" lon="10.7135916748">
>>>>>>> e1d4bc35ff8a6074a6f2e91616a996b547c36f15
		<tag k="name" v="Langemyr" />
		<tag k="natural" v="wetland" />
		<tag k="ssr:stedsnr" v="784652" />
	</node>
<<<<<<< HEAD
	<node lat="59.556383330383284" lon="10.749066668743598" id="-12377">
		<tag k="name" v="Bylterudmåsan" />
		<tag k="natural" v="wetland" />
		<tag k="ssr:stedsnr" v="3215" />
	</node>
	<node lat="59.551241671091155" lon="10.675716664336777" id="-12466">
		<tag k="name" v="Klepper" />
		<tag k="place" v="locality" />
		<tag k="ssr:stedsnr" v="299305" />
	</node>
	<node lat="59.502694440464566" lon="10.772630562052816" id="-12515">
		<tag k="name" v="Stubberudmåsan" />
=======
	<node id="-244535" lat="59.5779805581" lon="10.7472027845">
		<tag k="name" v="Stormåsan" />
>>>>>>> e1d4bc35ff8a6074a6f2e91616a996b547c36f15
		<tag k="natural" v="wetland" />
		<tag k="ssr:stedsnr" v="386069" />
	</node>
<<<<<<< HEAD
	<node lat="59.6247222255453" lon="10.703599994621149" id="-12529">
=======
	<node id="-244406" lat="59.6247222255" lon="10.7035999946">
>>>>>>> e1d4bc35ff8a6074a6f2e91616a996b547c36f15
		<tag k="name" v="Galbymåsan" />
		<tag k="natural" v="wetland" />
		<tag k="ssr:stedsnr" v="422133" />
	</node>
<<<<<<< HEAD
	<node lat="59.494302773668515" lon="10.740013891492602" id="-12535">
		<tag k="name" v="Breimåsan" />
		<tag k="natural" v="wetland" />
		<tag k="ssr:stedsnr" v="428653" />
	</node>
	<node lat="59.52729444441407" lon="10.664611102326086" id="-12580">
		<tag k="name" v="Paradislandet" />
		<tag k="place" v="locality" />
		<tag k="ssr:stedsnr" v="550434" />
	</node>
	<node lat="59.48578611485879" lon="10.735577770053988" id="-12627">
=======
	<node id="-244497" lat="59.6116694454" lon="10.8074305512">
		<tag k="name" v="Salsberg" />
		<tag k="place" v="locality" />
		<tag k="ssr:stedsnr" v="750757" />
	</node>
	<node id="-244048" lat="59.4857861149" lon="10.7355777701">
>>>>>>> e1d4bc35ff8a6074a6f2e91616a996b547c36f15
		<tag k="name" v="Ishavet" />
		<tag k="natural" v="wetland" />
		<tag k="ssr:stedsnr" v="670676" />
	</node>
<<<<<<< HEAD
	<node lat="59.61166944535216" lon="10.80743055117191" id="-12643">
		<tag k="name" v="Salsberg" />
		<tag k="place" v="locality" />
		<tag k="ssr:stedsnr" v="750757" />
	</node>
	<node lat="59.5779805580829" lon="10.74720278448219" id="-12673">
		<tag k="name" v="Stormåsan" />
		<tag k="natural" v="wetland" />
		<tag k="ssr:stedsnr" v="812153" />
	</node>
	<node lat="59.53445000178607" lon="10.74183333865026" id="-12689">
=======
	<node id="-244202" lat="59.5344500018" lon="10.7418333387">
>>>>>>> e1d4bc35ff8a6074a6f2e91616a996b547c36f15
		<tag k="name" v="Sånersletta" />
		<tag k="place" v="locality" />
		<tag k="ssr:stedsnr" v="872114" />
	</node>
<<<<<<< HEAD
=======
	<node id="-243975" lat="59.5398194404" lon="10.7027416585">
		<tag k="name" v="Kinnemåsan" />
		<tag k="natural" v="wetland" />
		<tag k="ssr:stedsnr" v="481309" />
	</node>
	<node id="-244444" lat="59.4976000006" lon="10.7600944483">
		<tag k="name" v="Vandråsmåsan" />
		<tag k="natural" v="wetland" />
		<tag k="ssr:stedsnr" v="568066" />
	</node>
	<node id="-243953" lat="59.5512416711" lon="10.6757166643">
		<tag k="name" v="Klepper" />
		<tag k="place" v="locality" />
		<tag k="ssr:stedsnr" v="299305" />
	</node>
	<node id="-244388" lat="59.5026944405" lon="10.7726305621">
		<tag k="name" v="Stubberudmåsan" />
		<tag k="natural" v="wetland" />
		<tag k="ssr:stedsnr" v="386069" />
	</node>
	<node id="-244081" lat="59.5580111099" lon="10.7255388888">
		<tag k="name" v="Flåtorva" />
		<tag k="natural" v="wetland" />
		<tag k="ssr:stedsnr" v="690253" />
	</node>
	<node id="-243969" lat="59.5804611098" lon="10.7489777859">
		<tag k="name" v="Lureklomåsan" />
		<tag k="natural" v="wetland" />
		<tag k="ssr:stedsnr" v="326121" />
	</node>
>>>>>>> e1d4bc35ff8a6074a6f2e91616a996b547c36f15
</osm>
