<?xml version="1.0" encoding="UTF-8"?>
<<<<<<< HEAD
<osm version="0.6" generator="osmapis">
	<node lat="59.51559167014306" lon="10.72648333700208" id="-12127">
		<tag k="bridge" v="yes" />
		<tag k="layer" v="1" />
		<tag k="name" v="Sonsveien holdeplass" />
		<tag k="ssr:stedsnr" v="470535" />
	</node>
	<node lat="59.527891663303336" lon="10.68978610557146" id="-12153">
		<tag k="bridge" v="yes" />
		<tag k="layer" v="1" />
		<tag k="name" v="Son" />
		<tag k="ssr:stedsnr" v="410146" />
	</node>
	<node lat="59.53053888869747" lon="10.749224997902166" id="-12176">
=======
<osm generator="osmapis" version="0.6">
	<node id="-244096" lat="59.5152972246" lon="10.7312805615">
		<tag k="junction" v="yes" />
		<tag k="name" v="Tegnebyholtet" />
		<tag k="place" v="locality" />
		<tag k="ssr:stedsnr" v="549049" />
	</node>
	<node id="-244074" lat="59.6014861123" lon="10.7323305591">
		<tag k="bridge" v="yes" />
		<tag k="layer" v="1" />
		<tag k="name" v="Vestby kirke" />
		<tag k="ssr:stedsnr" v="531169" />
	</node>
	<node id="-243960" lat="59.5157277741" lon="10.6917833361">
		<tag k="bridge" v="yes" />
		<tag k="layer" v="1" />
		<tag k="name" v="Brevik" />
		<tag k="ssr:stedsnr" v="471182" />
	</node>
	<node id="-243956" lat="59.5155916701" lon="10.726483337">
		<tag k="bridge" v="yes" />
		<tag k="layer" v="1" />
		<tag k="name" v="Sonsveien holdeplass" />
		<tag k="ssr:stedsnr" v="470535" />
	</node>
	<node id="-244210" lat="59.600977775" lon="10.6521277817">
		<tag k="man_made" v="quay" />
		<tag k="name" v="Dampskipsbrygga" />
		<tag k="place" v="locality" />
		<tag k="ssr:stedsnr" v="906254" />
	</node>
	<node id="-243952" lat="59.6244083359" lon="10.7327361035">
		<tag k="bridge" v="yes" />
		<tag k="layer" v="1" />
		<tag k="name" v="Verpet" />
		<tag k="ssr:stedsnr" v="289152" />
	</node>
	<node id="-244334" lat="59.6036741035" lon="10.7486812101">
		<tag k="alt_name" v="Vestby" />
		<tag k="name" v="Vestby stasjon" />
		<tag k="railway" v="station" />
		<tag k="ssr:stedsnr" v="204728" />
		<tag k="train" v="yes" />
	</node>
	<node id="-244460" lat="59.517733329" lon="10.6937222225">
		<tag k="bridge" v="yes" />
		<tag k="layer" v="1" />
		<tag k="name" v="Grevlingen" />
		<tag k="ssr:stedsnr" v="592185" />
	</node>
	<node id="-244459" lat="59.6026861091" lon="10.6641249944">
		<tag k="bridge" v="yes" />
		<tag k="layer" v="1" />
		<tag k="name" v="Knutehull" />
		<tag k="ssr:stedsnr" v="592166" />
	</node>
	<node id="-244458" lat="59.5966611094" lon="10.7465833341">
		<tag k="bridge" v="yes" />
		<tag k="layer" v="1" />
		<tag k="name" v="Sundby" />
		<tag k="ssr:stedsnr" v="592158" />
	</node>
	<node id="-244073" lat="59.531388885" lon="10.7534944472">
		<tag k="bridge" v="yes" />
		<tag k="layer" v="1" />
		<tag k="name" v="Vines" />
		<tag k="ssr:stedsnr" v="531165" />
	</node>
	<node id="-244072" lat="59.6014611131" lon="10.7417888892">
		<tag k="bridge" v="yes" />
		<tag k="layer" v="1" />
		<tag k="name" v="Nordby" />
		<tag k="ssr:stedsnr" v="531159" />
	</node>
	<node id="-244455" lat="59.6104944465" lon="10.7755583355">
		<tag k="junction" v="yes" />
		<tag k="name" v="Kjensli" />
		<tag k="place" v="locality" />
		<tag k="ssr:stedsnr" v="568762" />
	</node>
	<node id="-244194" lat="59.5160638918" lon="10.7253249971">
		<tag k="bridge" v="yes" />
		<tag k="layer" v="1" />
		<tag k="name" v="Sonsveien holdeplass" />
		<tag k="ssr:stedsnr" v="835574" />
	</node>
	<node id="-244574" lat="59.5250765262" lon="10.6877805791">
		<tag k="man_made" v="quay" />
		<tag k="name" v="Gjestebrygga" />
		<tag k="place" v="locality" />
		<tag k="ssr:stedsnr" v="987547" />
	</node>
	<node id="-244573" lat="59.5238876588" lon="10.6857388779">
		<tag k="man_made" v="quay" />
		<tag k="name" v="Gamle rutebåtkaien" />
		<tag k="place" v="locality" />
		<tag k="ssr:stedsnr" v="987546" />
	</node>
	<node id="-243932" lat="59.5832166691" lon="10.7960111059">
		<tag k="bridge" v="yes" />
		<tag k="layer" v="1" />
		<tag k="name" v="Bjerkeskog" />
		<tag k="ssr:stedsnr" v="289175" />
	</node>
	<node id="-244440" lat="59.5150402144" lon="10.7254217379">
		<tag k="name" v="Sonsveien holdeplass" />
		<tag k="railway" v="halt" />
		<tag k="ssr:stedsnr" v="550053" />
		<tag k="train" v="yes" />
	</node>
	<node id="-244075" lat="59.5860500013" lon="10.7701055617">
		<tag k="bridge" v="yes" />
		<tag k="layer" v="1" />
		<tag k="name" v="Grønlund" />
		<tag k="ssr:stedsnr" v="531177" />
	</node>
	<node id="-244559" lat="59.5490944445" lon="10.7596222246">
		<tag k="bridge" v="yes" />
		<tag k="layer" v="1" />
		<tag k="name" v="Åmot" />
		<tag k="ssr:stedsnr" v="956176" />
	</node>
	<node id="-244558" lat="59.5858027779" lon="10.8084722298">
		<tag k="bridge" v="yes" />
		<tag k="layer" v="1" />
		<tag k="name" v="Kjerstad" />
		<tag k="ssr:stedsnr" v="956168" />
	</node>
	<node id="-244170" lat="59.5302322525" lon="10.7374948535">
		<tag k="alt_name" v="Såner" />
		<tag k="name" v="Såner stasjon" />
		<tag k="railway" v="station" />
		<tag k="ssr:stedsnr" v="914001" />
		<tag k="train" v="yes" />
	</node>
	<node id="-244036" lat="59.5305388887" lon="10.7492249979">
>>>>>>> e1d4bc35ff8a6074a6f2e91616a996b547c36f15
		<tag k="junction" v="yes" />
		<tag k="name" v="Såner" />
		<tag k="place" v="locality" />
		<tag k="ssr:stedsnr" v="447123" />
	</node>
<<<<<<< HEAD
	<node lat="59.51572777407676" lon="10.691783336056938" id="-12192">
		<tag k="bridge" v="yes" />
		<tag k="layer" v="1" />
		<tag k="name" v="Brevik" />
		<tag k="ssr:stedsnr" v="471182" />
	</node>
	<node lat="59.51504021440361" lon="10.72542173790757" id="-12228">
		<tag k="name" v="Sonsveien holdeplass" />
		<tag k="railway" v="halt" />
		<tag k="ssr:stedsnr" v="550053" />
		<tag k="train" v="yes" />
	</node>
	<node lat="59.59666110940043" lon="10.746583334137561" id="-12246">
		<tag k="bridge" v="yes" />
		<tag k="layer" v="1" />
		<tag k="name" v="Sundby" />
		<tag k="ssr:stedsnr" v="592158" />
	</node>
	<node lat="59.60268610909481" lon="10.664124994428121" id="-12247">
		<tag k="bridge" v="yes" />
		<tag k="layer" v="1" />
		<tag k="name" v="Knutehull" />
		<tag k="ssr:stedsnr" v="592166" />
	</node>
	<node lat="59.61688611229149" lon="10.732555552602454" id="-12264">
		<tag k="alt_name" v="Jegstad" />
=======
	<node id="-244542" lat="59.5369444438" lon="10.6592861065">
		<tag k="man_made" v="quay" />
		<tag k="name" v="Kjøvangen brygge" />
		<tag k="place" v="locality" />
		<tag k="ssr:stedsnr" v="846286" />
	</node>
	<node id="-244021" lat="59.5960027821" lon="10.8093722294">
		<tag k="name" v="Kjærstadgrinda" />
		<tag k="place" v="locality" />
		<tag k="ssr:stedsnr" v="508773" />
	</node>
	<node id="-244190" lat="59.6220583377" lon="10.734011114">
		<tag k="junction" v="yes" />
		<tag k="name" v="Svartedal" />
		<tag k="place" v="locality" />
		<tag k="ssr:stedsnr" v="933226" />
	</node>
	<node id="-243886" lat="59.5993138896" lon="10.6570555592">
		<tag k="bridge" v="yes" />
		<tag k="layer" v="1" />
		<tag k="name" v="Hvitsten" />
		<tag k="ssr:stedsnr" v="228176" />
	</node>
	<node id="-244525" lat="59.5433861145" lon="10.7823666611">
		<tag k="highway" v="bus_stop" />
		<tag k="name" v="Holm" />
		<tag k="ssr:stedsnr" v="811141" />
	</node>
	<node id="-244395" lat="59.6072694455" lon="10.766175">
>>>>>>> e1d4bc35ff8a6074a6f2e91616a996b547c36f15
		<tag k="bridge" v="yes" />
		<tag k="layer" v="1" />
		<tag k="name" v="Gjekstad" />
		<tag k="ssr:stedsnr" v="652148" />
	</node>
<<<<<<< HEAD
	<node lat="59.59271944446754" lon="10.71831388296863" id="-12278">
=======
	<node id="-244394" lat="59.5278916633" lon="10.6897861056">
>>>>>>> e1d4bc35ff8a6074a6f2e91616a996b547c36f15
		<tag k="bridge" v="yes" />
		<tag k="layer" v="1" />
		<tag k="name" v="Jonsrud" />
		<tag k="ssr:stedsnr" v="896153" />
	</node>
<<<<<<< HEAD
	<node lat="59.53290278160523" lon="10.749391658238245" id="-12279">
=======
	<node id="-244071" lat="59.531900002" lon="10.7492888836">
		<tag k="bridge" v="yes" />
		<tag k="layer" v="1" />
		<tag k="name" v="Såner" />
		<tag k="ssr:stedsnr" v="531157" />
	</node>
	<node id="-244132" lat="59.6029055524" lon="10.7461472157">
>>>>>>> e1d4bc35ff8a6074a6f2e91616a996b547c36f15
		<tag k="bridge" v="yes" />
		<tag k="layer" v="1" />
		<tag k="name" v="Vines" />
		<tag k="ssr:stedsnr" v="713172" />
	</node>
<<<<<<< HEAD
	<node lat="59.586113888370846" lon="10.810669448069847" id="-12293">
		<tag k="junction" v="yes" />
		<tag k="name" v="Kjærstad" />
		<tag k="place" v="locality" />
		<tag k="ssr:stedsnr" v="750163" />
	</node>
	<node lat="59.53023225249841" lon="10.737494853483962" id="-12321">
		<tag k="alt_name" v="Såner" />
		<tag k="name" v="Såner stasjon" />
		<tag k="railway" v="station" />
		<tag k="ssr:stedsnr" v="914001" />
		<tag k="train" v="yes" />
	</node>
	<node lat="59.53694444375226" lon="10.659286106458637" id="-12332">
		<tag k="man_made" v="quay" />
		<tag k="name" v="Kjøvangen brygge" />
		<tag k="place" v="locality" />
		<tag k="ssr:stedsnr" v="846286" />
	</node>
	<node lat="59.62205833774781" lon="10.734011113961529" id="-12341">
		<tag k="junction" v="yes" />
		<tag k="name" v="Svartedal" />
		<tag k="place" v="locality" />
		<tag k="ssr:stedsnr" v="933226" />
	</node>
	<node lat="59.51627777818204" lon="10.73453611467453" id="-12344">
		<tag k="bridge" v="yes" />
		<tag k="layer" v="1" />
		<tag k="name" v="Tegnebyholtet" />
		<tag k="ssr:stedsnr" v="896165" />
	</node>
	<node lat="59.60290555238602" lon="10.746147215714577" id="-12345">
=======
	<node id="-244131" lat="59.5162777782" lon="10.7345361147">
		<tag k="bridge" v="yes" />
		<tag k="layer" v="1" />
		<tag k="name" v="Tegnebyholtet" />
		<tag k="ssr:stedsnr" v="896165" />
	</node>
	<node id="-244130" lat="59.5927194445" lon="10.718313883">
		<tag k="bridge" v="yes" />
		<tag k="layer" v="1" />
		<tag k="name" v="Jonsrud" />
		<tag k="ssr:stedsnr" v="896153" />
	</node>
	<node id="-244247" lat="59.5971138895" lon="10.7256833349">
>>>>>>> e1d4bc35ff8a6074a6f2e91616a996b547c36f15
		<tag k="bridge" v="yes" />
		<tag k="layer" v="1" />
		<tag k="name" v="Vestby" />
		<tag k="ssr:stedsnr" v="896167" />
	</node>
	<node lat="59.60097777502251" lon="10.65212778166106" id="-12347">
		<tag k="man_made" v="quay" />
		<tag k="name" v="Dampskipsbrygga" />
		<tag k="place" v="locality" />
		<tag k="ssr:stedsnr" v="906254" />
	</node>
<<<<<<< HEAD
	<node lat="59.61145555656835" lon="10.732802772811096" id="-12393">
=======
	<node id="-244246" lat="59.6114555566" lon="10.7328027728">
>>>>>>> e1d4bc35ff8a6074a6f2e91616a996b547c36f15
		<tag k="bridge" v="yes" />
		<tag k="layer" v="1" />
		<tag k="name" v="Støkken" />
		<tag k="ssr:stedsnr" v="46158" />
	</node>
<<<<<<< HEAD
	<node lat="59.59711388954546" lon="10.725683334919495" id="-12394">
=======
	<node id="-244501" lat="59.5673555554" lon="10.736569451">
		<tag k="bridge" v="yes" />
		<tag k="layer" v="1" />
		<tag k="name" v="Kjenn" />
		<tag k="ssr:stedsnr" v="774176" />
	</node>
	<node id="-244370" lat="59.5505750027" lon="10.6926416651">
>>>>>>> e1d4bc35ff8a6074a6f2e91616a996b547c36f15
		<tag k="bridge" v="yes" />
		<tag k="layer" v="1" />
		<tag k="name" v="Rød" />
		<tag k="ssr:stedsnr" v="46163" />
	</node>
<<<<<<< HEAD
	<node lat="59.6036741034689" lon="10.74868121013681" id="-12456">
		<tag k="alt_name" v="Vestby" />
		<tag k="name" v="Vestby stasjon" />
		<tag k="railway" v="station" />
		<tag k="ssr:stedsnr" v="204728" />
		<tag k="train" v="yes" />
	</node>
	<node lat="59.59931388956045" lon="10.657055559244418" id="-12463">
=======
	<node id="-244495" lat="59.5861138884" lon="10.8106694481">
		<tag k="junction" v="yes" />
		<tag k="name" v="Kjærstad" />
		<tag k="place" v="locality" />
		<tag k="ssr:stedsnr" v="750163" />
	</node>
	<node id="-244492" lat="59.6168861123" lon="10.7325555526">
>>>>>>> e1d4bc35ff8a6074a6f2e91616a996b547c36f15
		<tag k="bridge" v="yes" />
		<tag k="layer" v="1" />
		<tag k="name" v="Hvitsten" />
		<tag k="ssr:stedsnr" v="228176" />
	</node>
<<<<<<< HEAD
	<node lat="59.624408335945176" lon="10.732736103523196" id="-12464">
=======
	<node id="-244491" lat="59.5039527772" lon="10.7149222208">
>>>>>>> e1d4bc35ff8a6074a6f2e91616a996b547c36f15
		<tag k="bridge" v="yes" />
		<tag k="layer" v="1" />
		<tag k="name" v="Verpet" />
		<tag k="ssr:stedsnr" v="289152" />
	</node>
<<<<<<< HEAD
	<node lat="59.58321666910413" lon="10.796011105858723" id="-12465">
		<tag k="bridge" v="yes" />
		<tag k="layer" v="1" />
		<tag k="name" v="Bjerkeskog" />
		<tag k="ssr:stedsnr" v="289175" />
	</node>
	<node lat="59.550575002699496" lon="10.692641665120522" id="-12499">
		<tag k="bridge" v="yes" />
		<tag k="layer" v="1" />
		<tag k="name" v="Mørk" />
		<tag k="ssr:stedsnr" v="349184" />
	</node>
	<node lat="59.607269445548944" lon="10.766174999970742" id="-12521">
		<tag k="bridge" v="yes" />
		<tag k="layer" v="1" />
		<tag k="name" v="Falentin" />
		<tag k="ssr:stedsnr" v="410172" />
	</node>
	<node lat="59.5960027821488" lon="10.809372229430839" id="-12557">
		<tag k="name" v="Kjærstadgrinda" />
		<tag k="place" v="locality" />
		<tag k="ssr:stedsnr" v="508773" />
	</node>
	<node lat="59.53190000198995" lon="10.749288883614044" id="-12562">
		<tag k="bridge" v="yes" />
		<tag k="layer" v="1" />
		<tag k="name" v="Såner" />
		<tag k="ssr:stedsnr" v="531157" />
	</node>
	<node lat="59.60146111310314" lon="10.741788889232227" id="-12563">
		<tag k="bridge" v="yes" />
		<tag k="layer" v="1" />
		<tag k="name" v="Nordby" />
		<tag k="ssr:stedsnr" v="531159" />
	</node>
	<node lat="59.531388884982604" lon="10.753494447249201" id="-12564">
		<tag k="bridge" v="yes" />
		<tag k="layer" v="1" />
		<tag k="name" v="Vines" />
		<tag k="ssr:stedsnr" v="531165" />
	</node>
	<node lat="59.60148611225845" lon="10.732330559071068" id="-12565">
		<tag k="bridge" v="yes" />
		<tag k="layer" v="1" />
		<tag k="name" v="Vestby kirke" />
		<tag k="ssr:stedsnr" v="531169" />
	</node>
	<node lat="59.51529722460746" lon="10.731280561543723" id="-12573">
		<tag k="junction" v="yes" />
		<tag k="name" v="Tegnebyholtet" />
		<tag k="place" v="locality" />
		<tag k="ssr:stedsnr" v="549049" />
	</node>
	<node lat="59.517733328979574" lon="10.693722222477442" id="-12585">
		<tag k="bridge" v="yes" />
		<tag k="layer" v="1" />
		<tag k="name" v="Grevlingen" />
		<tag k="ssr:stedsnr" v="592185" />
	</node>
	<node lat="59.50395277716951" lon="10.714922220768793" id="-12617">
		<tag k="bridge" v="yes" />
		<tag k="layer" v="1" />
		<tag k="name" v="Smørbekk" />
		<tag k="ssr:stedsnr" v="652132" />
	</node>
	<node lat="59.56735555536698" lon="10.736569451038676" id="-12646">
		<tag k="bridge" v="yes" />
		<tag k="layer" v="1" />
		<tag k="name" v="Kjenn" />
		<tag k="ssr:stedsnr" v="774176" />
	</node>
	<node lat="59.54338611452661" lon="10.782366661143993" id="-12664">
		<tag k="highway" v="bus_stop" />
		<tag k="name" v="Holm" />
		<tag k="ssr:stedsnr" v="811141" />
	</node>
	<node lat="59.516063891785784" lon="10.72532499711738" id="-12676">
		<tag k="bridge" v="yes" />
		<tag k="layer" v="1" />
		<tag k="name" v="Sonsveien holdeplass" />
		<tag k="ssr:stedsnr" v="835574" />
	</node>
	<node lat="59.5858027779329" lon="10.808472229837987" id="-12699">
		<tag k="bridge" v="yes" />
		<tag k="layer" v="1" />
		<tag k="name" v="Kjerstad" />
		<tag k="ssr:stedsnr" v="956168" />
	</node>
	<node lat="59.54909444447603" lon="10.759622224616116" id="-12700">
		<tag k="bridge" v="yes" />
		<tag k="layer" v="1" />
		<tag k="name" v="Åmot" />
		<tag k="ssr:stedsnr" v="956176" />
	</node>
	<node lat="59.52388765878138" lon="10.685738877869335" id="-12715">
		<tag k="man_made" v="quay" />
		<tag k="name" v="Gamle rutebåtkaien" />
		<tag k="place" v="locality" />
		<tag k="ssr:stedsnr" v="987546" />
	</node>
	<node lat="59.5250765262342" lon="10.687780579063203" id="-12716">
		<tag k="man_made" v="quay" />
		<tag k="name" v="Gjestebrygga" />
		<tag k="place" v="locality" />
		<tag k="ssr:stedsnr" v="987547" />
=======
	<node id="-244097" lat="59.5329027816" lon="10.7493916582">
		<tag k="bridge" v="yes" />
		<tag k="layer" v="1" />
		<tag k="name" v="Vines" />
		<tag k="ssr:stedsnr" v="713172" />
>>>>>>> e1d4bc35ff8a6074a6f2e91616a996b547c36f15
	</node>
</osm>
