<?xml version="1.0" encoding="UTF-8"?>
<osm version="0.6" generator="osmapis">
	<node lat="59.508399560395524" lon="10.689608736091856" id="-27876">
		<tag k="name" v="Brevik" />
		<tag k="place" v="hamlet" />
		<tag k="ssr:stedsnr" v="2920" />
	</node>
	<node lat="59.56607373130016" lon="10.764031511724578" id="-27878">
		<tag k="fixme" v="consider place=hamlet" />
		<tag k="name" v="Rokker" />
		<tag k="place" v="farm" />
		<tag k="ssr:stedsnr" v="3174" />
	</node>
	<node lat="59.62183231361249" lon="10.795451121515628" id="-27879">
		<tag k="fixme" v="consider place=hamlet" />
		<tag k="name" v="Hol" />
		<tag k="place" v="farm" />
		<tag k="ssr:stedsnr" v="3311" />
	</node>
	<node lat="59.617200003932126" lon="10.768202785446109" id="-27880">
		<tag k="name" v="Hamborg" />
		<tag k="place" v="isolated_dwelling" />
		<tag k="ssr:stedsnr" v="3312" />
	</node>
	<node lat="59.614724997165055" lon="10.79373056348897" id="-27881">
		<tag k="alt_name" v="Lesteberg, østre;Lesteberg østre" />
		<tag k="name" v="Østre Lesteberg" />
		<tag k="place" v="farm" />
		<tag k="ssr:stedsnr" v="3313" />
	</node>
	<node lat="59.513857803497295" lon="10.686967865779147" id="-27882">
		<tag k="alt_name" v="Brevik, nordre" />
		<tag k="fixme" v="consider place=hamlet" />
		<tag k="name" v="Nordre Brevik" />
		<tag k="place" v="farm" />
		<tag k="ssr:stedsnr" v="3481" />
	</node>
	<node lat="59.622016668388476" lon="10.691866661312515" id="-27883">
		<tag k="name" v="Frydenlund" />
		<tag k="place" v="farm" />
		<tag k="ssr:stedsnr" v="3618" />
	</node>
	<node lat="59.57440555857207" lon="10.705552772832919" id="-27884">
		<tag k="name" v="Erikstadbråten" />
		<tag k="place" v="farm" />
		<tag k="ssr:stedsnr" v="3687" />
	</node>
	<node lat="59.57137499739696" lon="10.749261104012916" id="-27885">
		<tag k="name" v="Todammen" />
		<tag k="place" v="isolated_dwelling" />
		<tag k="ssr:stedsnr" v="4174" />
	</node>
	<node lat="59.58935855133805" lon="10.84898289286722" id="-27886">
		<tag k="fixme" v="consider place=hamlet" />
		<tag k="name" v="Halle" />
		<tag k="place" v="farm" />
		<tag k="ssr:stedsnr" v="4191" />
	</node>
	<node lat="59.537499997755646" lon="10.718305556941084" id="-27887">
		<tag k="name" v="Øgården" />
		<tag k="place" v="farm" />
		<tag k="ssr:stedsnr" v="22097" />
	</node>
	<node lat="59.54050158207547" lon="10.722486582484184" id="-27888">
		<tag k="alt_name" v="Gjølstad søndre" />
		<tag k="fixme" v="consider place=hamlet" />
		<tag k="name" v="Søndre Gjølstad" />
		<tag k="place" v="farm" />
		<tag k="ssr:stedsnr" v="22098" />
	</node>
	<node lat="59.551738893071814" lon="10.749894449870881" id="-27891">
		<tag k="name" v="Fjell" />
		<tag k="place" v="farm" />
		<tag k="ssr:stedsnr" v="23131" />
	</node>
	<node lat="59.58456389126388" lon="10.656761117641036" id="-27892">
		<tag k="name" v="Mølen" />
		<tag k="place" v="farm" />
		<tag k="ssr:stedsnr" v="26927" />
	</node>
	<node lat="59.5204444451693" lon="10.700616667531271" id="-27894">
		<tag k="name" v="Solhøy" />
		<tag k="place" v="farm" />
		<tag k="ssr:stedsnr" v="56409" />
	</node>
	<node lat="59.522880556034174" lon="10.66994444604453" id="-27895">
		<tag k="name" v="Blåstua" />
		<tag k="place" v="isolated_dwelling" />
		<tag k="ssr:stedsnr" v="56414" />
	</node>
	<node lat="59.59780277778543" lon="10.70983611540642" id="-27896">
		<tag k="amenity" v="sports_centre" />
		<tag k="name" v="Vestbyhallen" />
		<tag k="ssr:stedsnr" v="57107" />
	</node>
	<node lat="59.548891836230844" lon="10.737521508704507" id="-27908">
		<tag k="fixme" v="consider place=hamlet" />
		<tag k="name" v="Andbekk" />
		<tag k="place" v="farm" />
		<tag k="ssr:stedsnr" v="64218" />
	</node>
	<node lat="59.630882245983" lon="10.71949131479684" id="-27909">
		<tag k="fixme" v="consider place=hamlet" />
		<tag k="name" v="Hvitsten" />
		<tag k="place" v="farm" />
		<tag k="ssr:stedsnr" v="64316" />
	</node>
	<node lat="59.56394415266973" lon="10.654416068799163" id="-27910">
		<tag k="fixme" v="consider place=hamlet" />
		<tag k="name" v="Kroken" />
		<tag k="place" v="farm" />
		<tag k="ssr:stedsnr" v="64713" />
	</node>
	<node lat="59.62034148563838" lon="10.680896852587987" id="-27911">
		<tag k="fixme" v="consider place=hamlet" />
		<tag k="name" v="Ørebekk" />
		<tag k="place" v="farm" />
		<tag k="ssr:stedsnr" v="64659" />
	</node>
	<node lat="59.581263887478244" lon="10.807813893654055" id="-27913">
		<tag k="amenity" v="nursing_home" />
		<tag k="name" v="Gardarheim" />
		<tag k="ssr:stedsnr" v="83186" />
	</node>
	<node lat="59.62890555484966" lon="10.732561103113184" id="-27914">
		<tag k="name" v="Sørli" />
		<tag k="place" v="farm" />
		<tag k="ssr:stedsnr" v="83207" />
	</node>
	<node lat="59.57159444478712" lon="10.779127779938305" id="-27915">
		<tag k="name" v="Øvre Svinskau" />
		<tag k="place" v="farm" />
		<tag k="ssr:stedsnr" v="83230" />
	</node>
	<node lat="59.586800000626276" lon="10.655913885937656" id="-27916">
		<tag k="name" v="Holen" />
		<tag k="place" v="neighbourhood" />
		<tag k="ssr:stedsnr" v="87927" />
	</node>
	<node lat="59.57763333037873" lon="10.774366657996023" id="-27917">
		<tag k="name" v="Vestre Rustad" />
		<tag k="place" v="farm" />
		<tag k="ssr:stedsnr" v="102588" />
	</node>
	<node lat="59.528880552830834" lon="10.693686118686918" id="-27918">
		<tag k="name" v="Verket" />
		<tag k="place" v="farm" />
		<tag k="ssr:stedsnr" v="117420" />
	</node>
	<node lat="59.63031111397804" lon="10.712200007016579" id="-27920">
		<tag k="name" v="Hvitstenhytta" />
		<tag k="place" v="isolated_dwelling" />
		<tag k="ssr:stedsnr" v="119175" />
	</node>
	<node lat="59.62410922981886" lon="10.721229061343587" id="-27926">
		<tag k="fixme" v="consider place=hamlet" />
		<tag k="name" v="Smedsrud" />
		<tag k="place" v="farm" />
		<tag k="ssr:stedsnr" v="124260" />
	</node>
	<node lat="59.52313333021339" lon="10.68591944083662" id="-27927">
		<tag k="name" v="Son" />
		<tag k="place" v="village" />
		<tag k="ssr:stedsnr" v="124460" />
	</node>
	<node lat="59.56187778111913" lon="10.742936112570149" id="-27928">
		<tag k="alt_name" v="Bylterud, søndre;Bylterød søndre" />
		<tag k="name" v="Søndre Bylterud" />
		<tag k="place" v="farm" />
		<tag k="ssr:stedsnr" v="125223" />
	</node>
	<node lat="59.49188333770411" lon="10.702747219085923" id="-27932">
		<tag k="name" v="Rødkind" />
		<tag k="place" v="isolated_dwelling" />
		<tag k="ssr:stedsnr" v="238630" />
	</node>
	<node lat="59.635902779881754" lon="10.700830548269087" id="-27933">
		<tag k="alt_name" v="Vastad søndre" />
		<tag k="name" v="Søndre Vastad" />
		<tag k="place" v="farm" />
		<tag k="ssr:stedsnr" v="240178" />
	</node>
	<node lat="59.569013892744344" lon="10.823108327729086" id="-27936">
		<tag k="alt_name" v="Florud nedre;Flårud" />
		<tag k="name" v="Nedre Florud" />
		<tag k="place" v="farm" />
		<tag k="ssr:stedsnr" v="143206" />
	</node>
	<node lat="59.56325278003106" lon="10.800672229752553" id="-27937">
		<tag k="alt_name" v="Oksa nedre" />
		<tag k="name" v="Nedre Oksa" />
		<tag k="place" v="farm" />
		<tag k="ssr:stedsnr" v="143213" />
	</node>
	<node lat="59.58299166880525" lon="10.749644438538235" id="-27938">
		<tag k="alt_name" v="Røddal vestre" />
		<tag k="name" v="Vestre Røddal" />
		<tag k="place" v="farm" />
		<tag k="ssr:stedsnr" v="143132" />
	</node>
	<node lat="59.627025000595815" lon="10.72888056423892" id="-27939">
		<tag k="name" v="Gyldendal" />
		<tag k="place" v="isolated_dwelling" />
		<tag k="ssr:stedsnr" v="143187" />
	</node>
	<node lat="59.571193818759625" lon="10.77749196209012" id="-27948">
		<tag k="fixme" v="consider place=hamlet" />
		<tag k="name" v="Svinskau" />
		<tag k="place" v="farm" />
		<tag k="ssr:stedsnr" v="242786" />
	</node>
	<node lat="59.50730400042948" lon="10.76905669965775" id="-27949">
		<tag k="alt_name" v="Raknerud" />
		<tag k="fixme" v="consider place=hamlet" />
		<tag k="name" v="Raknerød" />
		<tag k="place" v="farm" />
		<tag k="ssr:stedsnr" v="246044" />
	</node>
	<node lat="59.5989416640096" lon="10.753177775100992" id="-27950">
		<tag k="alt_name" v="Follo Folkehøgskole" />
		<tag k="amenity" v="school" />
		<tag k="name" v="Follo folkehøgskole" />
		<tag k="ssr:stedsnr" v="246143" />
	</node>
	<node lat="59.5644304948709" lon="10.75146244132963" id="-27951">
		<tag k="alt_name" v="Bylterud, østre;Bylterød østre;Bylterud østre" />
		<tag k="fixme" v="consider place=hamlet" />
		<tag k="name" v="Østre Bylterud" />
		<tag k="place" v="farm" />
		<tag k="ssr:stedsnr" v="246209" />
	</node>
	<node lat="59.608566401350565" lon="10.788129843946122" id="-27952">
		<tag k="fixme" v="consider place=hamlet" />
		<tag k="name" v="Kalføss" />
		<tag k="place" v="farm" />
		<tag k="ssr:stedsnr" v="246360" />
	</node>
	<node lat="59.60816421931829" lon="10.681599311665511" id="-27953">
		<tag k="fixme" v="consider place=hamlet" />
		<tag k="name" v="Knallstad" />
		<tag k="place" v="farm" />
		<tag k="ssr:stedsnr" v="246608" />
	</node>
	<node lat="59.6422168582493" lon="10.690278689858717" id="-27954">
		<tag k="fixme" v="consider place=hamlet" />
		<tag k="name" v="Linnestad" />
		<tag k="place" v="farm" />
		<tag k="ssr:stedsnr" v="246652" />
	</node>
	<node lat="59.52071944390459" lon="10.684208335261356" id="-27955">
		<tag k="name" v="Stenløkka" />
		<tag k="place" v="hamlet" />
		<tag k="ssr:stedsnr" v="177412" />
	</node>
	<node lat="59.504519442959456" lon="10.683966664152873" id="-27956">
		<tag k="name" v="Sollia" />
		<tag k="place" v="hamlet" />
		<tag k="ssr:stedsnr" v="177454" />
	</node>
	<node lat="59.54519444154352" lon="10.656861110003737" id="-27958">
		<tag k="fixme" v="consider natural=beach + surface=sand" />
		<tag k="leisure" v="swimming_area" />
		<tag k="name" v="Holvik" />
		<tag k="place" v="locality" />
		<tag k="ssr:stedsnr" v="179975" />
	</node>
	<node lat="59.511815989332504" lon="10.73444389351124" id="-27961">
		<tag k="fixme" v="consider place=hamlet" />
		<tag k="name" v="Tegneby" />
		<tag k="place" v="farm" />
		<tag k="ssr:stedsnr" v="185039" />
	</node>
	<node lat="59.53775832950667" lon="10.666080561980415" id="-27962">
		<tag k="name" v="Kjøvangen" />
		<tag k="place" v="hamlet" />
		<tag k="ssr:stedsnr" v="185486" />
	</node>
	<node lat="59.6332487345332" lon="10.694095045315407" id="-27963">
		<tag k="fixme" v="consider place=hamlet" />
		<tag k="name" v="Haugen" />
		<tag k="place" v="farm" />
		<tag k="ssr:stedsnr" v="185627" />
	</node>
	<node lat="59.565602778921324" lon="10.692305559481172" id="-27964">
		<tag k="alt_name" v="Nygård" />
		<tag k="name" v="Nygard" />
		<tag k="place" v="farm" />
		<tag k="ssr:stedsnr" v="185675" />
	</node>
	<node lat="59.57109166905656" lon="10.796047225664804" id="-27965">
		<tag k="alt_name" v="Jordebru søndre" />
		<tag k="name" v="Søndre Jordebru" />
		<tag k="place" v="farm" />
		<tag k="ssr:stedsnr" v="204203" />
	</node>
	<node lat="59.59524166808554" lon="10.74741667481754" id="-27966">
		<tag k="amenity" v="kindergarten" />
		<tag k="name" v="Søndre Sundby" />
		<tag k="ssr:stedsnr" v="204126" />
	</node>
	<node lat="59.593209610215176" lon="10.821467983610125" id="-27967">
		<tag k="fixme" v="consider place=hamlet" />
		<tag k="name" v="Haug" />
		<tag k="place" v="farm" />
		<tag k="ssr:stedsnr" v="204819" />
	</node>
	<node lat="59.530749998679944" lon="10.688033341523363" id="-27970">
		<tag k="alt_name" v="Kålås nedre;Nedre Kålås" />
		<tag k="name" v="Nedre Kolås" />
		<tag k="place" v="farm" />
		<tag k="ssr:stedsnr" v="238407" />
	</node>
	<node lat="59.51981110783026" lon="10.70035556218375" id="-27971">
		<tag k="amenity" v="school" />
		<tag k="name" v="Son skole" />
		<tag k="ssr:stedsnr" v="239051" />
	</node>
	<node lat="59.604919442203105" lon="10.690119445274883" id="-27972">
		<tag k="alt_name" v="Ugjestrud nordre" />
		<tag k="name" v="Nordre Ugjestrud" />
		<tag k="place" v="farm" />
		<tag k="ssr:stedsnr" v="239148" />
	</node>
	<node lat="59.603011114256915" lon="10.665855557162025" id="-27973">
		<tag k="name" v="Grinda" />
		<tag k="place" v="farm" />
		<tag k="ssr:stedsnr" v="239154" />
	</node>
	<node lat="59.645141664532005" lon="10.685755552418323" id="-27974">
		<tag k="name" v="Nedre Linnestad" />
		<tag k="place" v="farm" />
		<tag k="ssr:stedsnr" v="240550" />
	</node>
	<node lat="59.572088889932594" lon="10.71936666306311" id="-27975">
		<tag k="name" v="Nordre Tømt" />
		<tag k="place" v="farm" />
		<tag k="ssr:stedsnr" v="240561" />
	</node>
	<node lat="59.508554609942244" lon="10.703438889817196" id="-27984">
		<tag k="name" v="Brevikbråten" />
		<tag k="place" v="farm" />
		<tag k="ssr:stedsnr" v="245508" />
	</node>
	<node lat="59.49895973068931" lon="10.707014394213262" id="-27985">
		<tag k="fixme" v="consider place=hamlet" />
		<tag k="name" v="Rød" />
		<tag k="place" v="farm" />
		<tag k="ssr:stedsnr" v="245914" />
	</node>
	<node lat="59.583386114974836" lon="10.816588892466797" id="-27986">
		<tag k="alt_name" v="Hovum;Hovum nordre" />
		<tag k="name" v="Nordre Hovum" />
		<tag k="place" v="farm" />
		<tag k="ssr:stedsnr" v="246035" />
	</node>
	<node lat="59.556174997937006" lon="10.78172500098356" id="-27987">
		<tag k="name" v="Oksane" />
		<tag k="place" v="farm" />
		<tag k="ssr:stedsnr" v="246203" />
	</node>
	<node lat="59.55699999861166" lon="10.77842222435464" id="-27988">
		<tag k="name" v="Blådike" />
		<tag k="place" v="farm" />
		<tag k="ssr:stedsnr" v="246205" />
	</node>
	<node lat="59.595012664711454" lon="10.749861279776784" id="-27989">
		<tag k="alt_name" v="Sundby" />
		<tag k="fixme" v="consider place=hamlet" />
		<tag k="name" v="Nordre Sundby" />
		<tag k="place" v="farm" />
		<tag k="ssr:stedsnr" v="246132" />
	</node>
	<node lat="59.56678055378764" lon="10.805508341696436" id="-27990">
		<tag k="name" v="Garderhagen" />
		<tag k="place" v="farm" />
		<tag k="ssr:stedsnr" v="246200" />
	</node>
	<node lat="59.55598055773874" lon="10.77226388257312" id="-27991">
		<tag k="fixme" v="multiple name tags, choose one and add the other to alt_name" />
		<tag k="name" v="Åmotbråten;Store Åmot" />
		<tag k="old_name" v="Aamot store" />
		<tag k="place" v="farm" />
		<tag k="ssr:stedsnr" v="246236" />
	</node>
	<node lat="59.63122499687164" lon="10.762677778770533" id="-27992">
		<tag k="alt_name" v="Støttumtangen" />
		<tag k="name" v="Tangen" />
		<tag k="place" v="farm" />
		<tag k="ssr:stedsnr" v="246298" />
	</node>
	<node lat="59.52642777379237" lon="10.701199998433376" id="-27993">
		<tag k="name" v="Strømbråten" />
		<tag k="place" v="village" />
		<tag k="ssr:stedsnr" v="246509" />
	</node>
	<node lat="59.622833337486966" lon="10.714816660881922" id="-27994">
		<tag k="name" v="Slutningen" />
		<tag k="place" v="farm" />
		<tag k="ssr:stedsnr" v="246629" />
	</node>
	<node lat="59.559098981153355" lon="10.687488084472283" id="-27995">
		<tag k="fixme" v="consider place=hamlet" />
		<tag k="name" v="Jonstad" />
		<tag k="place" v="farm" />
		<tag k="ssr:stedsnr" v="246661" />
	</node>
	<node lat="59.567655868497006" lon="10.702364475031217" id="-27996">
		<tag k="fixme" v="consider place=hamlet" />
		<tag k="name" v="Dal" />
		<tag k="place" v="farm" />
		<tag k="ssr:stedsnr" v="246677" />
	</node>
	<node lat="59.52417500033314" lon="10.777541665910435" id="-27997">
		<tag k="name" v="Damnes" />
		<tag k="place" v="farm" />
		<tag k="ssr:stedsnr" v="247004" />
	</node>
	<node lat="59.58724999615513" lon="10.760624993878858" id="-27998">
		<tag k="name" v="Bjørnerud" />
		<tag k="place" v="farm" />
		<tag k="ssr:stedsnr" v="247179" />
	</node>
	<node lat="59.500350002420426" lon="10.758458341306591" id="-28000">
		<tag k="name" v="Hansbråten" />
		<tag k="place" v="locality" />
		<tag k="ssr:stedsnr" v="447063" />
	</node>
	<node lat="59.593469446409586" lon="10.748561102644326" id="-28001">
		<tag k="name" v="Balserud" />
		<tag k="place" v="locality" />
		<tag k="ssr:stedsnr" v="447148" />
	</node>
	<node lat="59.59460555874913" lon="10.768052775437015" id="-28002">
		<tag k="name" v="Børjaneset" />
		<tag k="place" v="locality" />
		<tag k="ssr:stedsnr" v="447149" />
	</node>
	<node lat="59.56195833107127" lon="10.777150006890132" id="-28003">
		<tag k="name" v="Fjell" />
		<tag k="place" v="hamlet" />
		<tag k="ssr:stedsnr" v="447168" />
	</node>
	<node lat="59.591930552373235" lon="10.72877778325199" id="-28006">
		<tag k="name" v="Sorgenfri" />
		<tag k="place" v="hamlet" />
		<tag k="ssr:stedsnr" v="448144" />
	</node>
	<node lat="59.57053876699347" lon="10.775844282376058" id="-28007">
		<tag k="name" v="Nedre Svinskau" />
		<tag k="place" v="farm" />
		<tag k="ssr:stedsnr" v="265251" />
	</node>
	<node lat="59.61535278045013" lon="10.745350003991872" id="-28008">
		<tag k="name" v="Randem skog" />
		<tag k="place" v="quarter" />
		<tag k="ssr:stedsnr" v="265809" />
	</node>
	<node lat="59.592149998272944" lon="10.752755549820307" id="-28009">
		<tag k="name" v="Furulund" />
		<tag k="place" v="hamlet" />
		<tag k="ssr:stedsnr" v="266147" />
	</node>
	<node lat="59.56617499885129" lon="10.7359888923972" id="-28010">
		<tag k="name" v="Kjenn" />
		<tag k="place" v="hamlet" />
		<tag k="ssr:stedsnr" v="267712" />
	</node>
	<node lat="59.54639981950595" lon="10.699145839090574" id="-28013">
		<tag k="name" v="Mørk" />
		<tag k="place" v="hamlet" />
		<tag k="ssr:stedsnr" v="299297" />
	</node>
	<node lat="59.59117500391515" lon="10.713097231274004" id="-28016">
		<tag k="name" v="Mora" />
		<tag k="place" v="quarter" />
		<tag k="ssr:stedsnr" v="301698" />
	</node>
	<node lat="59.58166666644441" lon="10.678327771839788" id="-28017">
		<tag k="name" v="Nyheim" />
		<tag k="place" v="farm" />
		<tag k="ssr:stedsnr" v="301702" />
	</node>
	<node lat="59.629422011838734" lon="10.754766055519704" id="-28028">
		<tag k="fixme" v="consider place=hamlet" />
		<tag k="name" v="Nes" />
		<tag k="place" v="farm" />
		<tag k="ssr:stedsnr" v="306307" />
	</node>
	<node lat="59.62743412869186" lon="10.764191149218624" id="-28029">
		<tag k="fixme" v="consider place=hamlet" />
		<tag k="name" v="Øynes" />
		<tag k="place" v="farm" />
		<tag k="ssr:stedsnr" v="306314" />
	</node>
	<node lat="59.50135534746138" lon="10.688378726644995" id="-28031">
		<tag k="alt_name" v="Søndre Brevik" />
		<tag k="fixme" v="consider place=hamlet" />
		<tag k="name" v="Store Brevik" />
		<tag k="place" v="farm" />
		<tag k="ssr:stedsnr" v="306477" />
	</node>
	<node lat="59.51973333482872" lon="10.713094445536514" id="-28032">
		<tag k="name" v="Liabråten" />
		<tag k="place" v="farm" />
		<tag k="ssr:stedsnr" v="306487" />
	</node>
	<node lat="59.501036106788334" lon="10.769047223548803" id="-28033">
		<tag k="alt_name" v="Stubberud" />
		<tag k="name" v="Stubberød" />
		<tag k="place" v="farm" />
		<tag k="ssr:stedsnr" v="307083" />
	</node>
	<node lat="59.58194813561483" lon="10.7884298936355" id="-28034">
		<tag k="fixme" v="consider place=hamlet" />
		<tag k="name" v="Rustad" />
		<tag k="place" v="farm" />
		<tag k="ssr:stedsnr" v="307181" />
	</node>
	<node lat="59.528741880378355" lon="10.742334657311542" id="-28036">
		<tag k="alt_name" v="Skøyen søndre;Skøyen" />
		<tag k="fixme" v="consider place=hamlet" />
		<tag k="name" v="Søndre Skøyen" />
		<tag k="place" v="farm" />
		<tag k="ssr:stedsnr" v="326142" />
	</node>
	<node lat="59.530770636489244" lon="10.744111609230973" id="-28037">
		<tag k="alt_name" v="Skøyen nordre" />
		<tag k="fixme" v="consider place=hamlet" />
		<tag k="name" v="Nordre Skøyen" />
		<tag k="place" v="farm" />
		<tag k="ssr:stedsnr" v="326143" />
	</node>
	<node lat="59.60037339751115" lon="10.749564651235193" id="-28038">
		<tag k="fixme" v="consider place=hamlet" />
		<tag k="name" v="Nordby" />
		<tag k="place" v="farm" />
		<tag k="ssr:stedsnr" v="326802" />
	</node>
	<node lat="59.622633336232575" lon="10.673138893417622" id="-28040">
		<tag k="alt_name" v="Langebakk" />
		<tag k="name" v="Langbakke" />
		<tag k="place" v="locality" />
		<tag k="ssr:stedsnr" v="361175" />
	</node>
	<node lat="59.55538610738078" lon="10.69418610641979" id="-28041">
		<tag k="name" v="Søndre Erikstad" />
		<tag k="place" v="farm" />
		<tag k="ssr:stedsnr" v="361561" />
	</node>
	<node lat="59.55313333333985" lon="10.743522221367188" id="-28046">
		<tag k="name" v="Elvestad" />
		<tag k="place" v="farm" />
		<tag k="ssr:stedsnr" v="367190" />
	</node>
	<node lat="59.54554722122231" lon="10.654525005521368" id="-28048">
		<tag k="name" v="Holvik" />
		<tag k="place" v="isolated_dwelling" />
		<tag k="ssr:stedsnr" v="367487" />
	</node>
	<node lat="59.598519444313" lon="10.671566664188358" id="-28049">
		<tag k="fixme" v="consider place=hamlet" />
		<tag k="name" v="Sekkebekk" />
		<tag k="place" v="farm" />
		<tag k="ssr:stedsnr" v="367604" />
	</node>
	<node lat="59.56141925673013" lon="10.664361733169194" id="-28050">
		<tag k="fixme" v="consider place=hamlet" />
		<tag k="name" v="Tørfest" />
		<tag k="place" v="farm" />
		<tag k="ssr:stedsnr" v="367696" />
	</node>
	<node lat="59.53078611072786" lon="10.77218610637085" id="-28051">
		<tag k="alt_name" v="Fagerholt søndre" />
		<tag k="name" v="Søndre Fagerholt" />
		<tag k="old_name" v="Fagerli, søndre" />
		<tag k="place" v="farm" />
		<tag k="ssr:stedsnr" v="368003" />
	</node>
	<node lat="59.57370277344252" lon="10.765652784647587" id="-28052">
		<tag k="name" v="Toødegården" />
		<tag k="place" v="farm" />
		<tag k="ssr:stedsnr" v="368188" />
	</node>
	<node lat="59.54350277593709" lon="10.76651388213278" id="-28053">
		<tag k="name" v="Slottet" />
		<tag k="place" v="farm" />
		<tag k="ssr:stedsnr" v="368240" />
	</node>
	<node lat="59.549448363332345" lon="10.7551637299491" id="-28054">
		<tag k="fixme" v="consider place=hamlet" />
		<tag k="name" v="Grorud" />
		<tag k="place" v="farm" />
		<tag k="ssr:stedsnr" v="368242" />
	</node>
	<node lat="59.50703333666619" lon="10.682766674236358" id="-28057">
		<tag k="name" v="Bjerkebukta" />
		<tag k="place" v="farm" />
		<tag k="ssr:stedsnr" v="420458" />
	</node>
	<node lat="59.6064694485565" lon="10.651688890846929" id="-28058">
		<tag k="name" v="Nedre Ramme" />
		<tag k="place" v="farm" />
		<tag k="ssr:stedsnr" v="421217" />
	</node>
	<node lat="59.566733333139595" lon="10.651191660613016" id="-28059">
		<tag k="name" v="Svartåsen" />
		<tag k="place" v="isolated_dwelling" />
		<tag k="ssr:stedsnr" v="421267" />
	</node>
	<node lat="59.5967583341679" lon="10.756841663856708" id="-28060">
		<tag k="amenity" v="school" />
		<tag k="name" v="Vestby skole" />
		<tag k="ssr:stedsnr" v="422050" />
	</node>
	<node lat="59.62991333748926" lon="10.787084038984473" id="-28061">
		<tag k="alt_name" v="Tveiter" />
		<tag k="fixme" v="consider place=hamlet" />
		<tag k="name" v="Tveter" />
		<tag k="place" v="farm" />
		<tag k="ssr:stedsnr" v="422210" />
	</node>
	<node lat="59.5593222259269" lon="10.762191674788559" id="-28067">
		<tag k="alt_name" v="Krafoss (nedl.)" />
		<tag k="name" v="Krafoss" />
		<tag k="place" v="locality" />
		<tag k="ssr:stedsnr" v="428175" />
	</node>
	<node lat="59.563432664442345" lon="10.744619029451318" id="-28068">
		<tag k="alt_name" v="Bylterud, m;Bylterød vestre" />
		<tag k="fixme" v="consider place=hamlet" />
		<tag k="name" v="Vestre Bylterud" />
		<tag k="place" v="farm" />
		<tag k="ssr:stedsnr" v="428180" />
	</node>
	<node lat="59.53660555156445" lon="10.712819449219046" id="-28069">
		<tag k="name" v="Dypendal" />
		<tag k="place" v="isolated_dwelling" />
		<tag k="ssr:stedsnr" v="428495" />
	</node>
	<node lat="59.53338610761444" lon="10.676683340196579" id="-28070">
		<tag k="name" v="Stamnes" />
		<tag k="place" v="farm" />
		<tag k="ssr:stedsnr" v="428507" />
	</node>
	<node lat="59.603727256109295" lon="10.691412497806333" id="-28072">
		<tag k="alt_name" v="Ugjestrød" />
		<tag k="fixme" v="consider place=hamlet" />
		<tag k="name" v="Ugjestrud" />
		<tag k="place" v="farm" />
		<tag k="ssr:stedsnr" v="428593" />
	</node>
	<node lat="59.58641940828868" lon="10.678892127303087" id="-28075">
		<tag k="fixme" v="consider place=hamlet" />
		<tag k="name" v="Hauger" />
		<tag k="place" v="farm" />
		<tag k="ssr:stedsnr" v="428715" />
	</node>
	<node lat="59.59228611433832" lon="10.707638888010917" id="-28076">
		<tag k="name" v="Jonsrud" />
		<tag k="place" v="isolated_dwelling" />
		<tag k="ssr:stedsnr" v="428719" />
	</node>
	<node lat="59.57037120931195" lon="10.836368730191808" id="-28077">
		<tag k="fixme" v="consider place=hamlet" />
		<tag k="name" v="Pung" />
		<tag k="place" v="farm" />
		<tag k="ssr:stedsnr" v="429210" />
	</node>
	<node lat="59.581116662596756" lon="10.76053332993038" id="-28078">
		<tag k="alt_name" v="Vestre To" />
		<tag k="name" v="To" />
		<tag k="place" v="farm" />
		<tag k="ssr:stedsnr" v="429169" />
	</node>
	<node lat="59.60623055328281" lon="10.741894444659192" id="-28079">
		<tag k="alt_name" v="Øvre Randem;Randum nordre med Østby-ødegården" />
		<tag k="name" v="Øvre Randum" />
		<tag k="old_name" v="Østre Randum;Randum, østre" />
		<tag k="place" v="farm" />
		<tag k="ssr:stedsnr" v="478123" />
	</node>
	<node lat="59.540663889995926" lon="10.734969449922131" id="-28080">
		<tag k="name" v="Elverhøy" />
		<tag k="place" v="farm" />
		<tag k="ssr:stedsnr" v="447097" />
	</node>
	<node lat="59.59348333775417" lon="10.82366665958206" id="-28081">
		<tag k="name" v="Bjørkelia" />
		<tag k="place" v="isolated_dwelling" />
		<tag k="ssr:stedsnr" v="447182" />
	</node>
	<node lat="59.57598055262998" lon="10.818625001968242" id="-28082">
		<tag k="name" v="Granlund" />
		<tag k="place" v="isolated_dwelling" />
		<tag k="ssr:stedsnr" v="447183" />
	</node>
	<node lat="59.6269888855744" lon="10.73678611908746" id="-28083">
		<tag k="alt_name" v="Rød søndre" />
		<tag k="name" v="Søndre Rød" />
		<tag k="place" v="farm" />
		<tag k="ssr:stedsnr" v="447198" />
	</node>
	<node lat="59.54293888445437" lon="10.734447227040821" id="-28085">
		<tag k="name" v="Muggestad" />
		<tag k="place" v="farm" />
		<tag k="ssr:stedsnr" v="448116" />
	</node>
	<node lat="59.60771110949228" lon="10.65430278341501" id="-28086">
		<tag k="name" v="Øvre Ramme" />
		<tag k="place" v="farm" />
		<tag k="ssr:stedsnr" v="663230" />
	</node>
	<node lat="59.587933335952144" lon="10.670652772700535" id="-28090">
		<tag k="name" v="Solbakken" />
		<tag k="place" v="isolated_dwelling" />
		<tag k="ssr:stedsnr" v="664683" />
	</node>
	<node lat="59.62823611020046" lon="10.700530554519819" id="-28091">
		<tag k="name" v="Evensgalby" />
		<tag k="place" v="locality" />
		<tag k="ssr:stedsnr" v="665169" />
	</node>
	<node lat="59.64002777397311" lon="10.695202772865187" id="-28092">
		<tag k="name" v="Øvre Linnestad" />
		<tag k="place" v="farm" />
		<tag k="ssr:stedsnr" v="665565" />
	</node>
	<node lat="59.52860538795264" lon="10.69955840502032" id="-28103">
		<tag k="alt_name" v="Labo søndre" />
		<tag k="fixme" v="consider place=hamlet" />
		<tag k="name" v="Søndre Labu" />
		<tag k="place" v="farm" />
		<tag k="ssr:stedsnr" v="481418" />
	</node>
	<node lat="59.49945555340796" lon="10.710124997626304" id="-28114">
		<tag k="alt_name" v="Rød, nordre;Rød nordre" />
		<tag k="name" v="Nordre Rød" />
		<tag k="place" v="farm" />
		<tag k="ssr:stedsnr" v="488473" />
	</node>
	<node lat="59.61972499806298" lon="10.685705556085328" id="-28115">
		<tag k="alt_name" v="Toverød" />
		<tag k="name" v="Øvre Toverud" />
		<tag k="place" v="farm" />
		<tag k="ssr:stedsnr" v="488629" />
	</node>
	<node lat="59.63719695179597" lon="10.71147995470547" id="-28116">
		<tag k="alt_name" v="Rustad" />
		<tag k="fixme" v="consider place=hamlet" />
		<tag k="name" v="Nordre Rustad" />
		<tag k="place" v="farm" />
		<tag k="ssr:stedsnr" v="488660" />
	</node>
	<node lat="59.59038702135549" lon="10.839782387806755" id="-28118">
		<tag k="alt_name" v="Hestvet;Hestvet nordre" />
		<tag k="fixme" v="consider place=hamlet" />
		<tag k="name" v="Nordre Hestvet" />
		<tag k="place" v="farm" />
		<tag k="ssr:stedsnr" v="489202" />
	</node>
	<node lat="59.59527778119939" lon="10.822402780929696" id="-28119">
		<tag k="alt_name" v="Haug;Haug nordre" />
		<tag k="name" v="Nordre Haug" />
		<tag k="place" v="farm" />
		<tag k="ssr:stedsnr" v="489204" />
	</node>
	<node lat="59.627340297922096" lon="10.771482539222582" id="-28121">
		<tag k="fixme" v="consider place=hamlet" />
		<tag k="name" v="Støttum" />
		<tag k="place" v="farm" />
		<tag k="ssr:stedsnr" v="670330" />
	</node>
	<node lat="59.624270028139485" lon="10.78238581937094" id="-28122">
		<tag k="alt_name" v="Tveiter, søndre;Søndre Tveiter" />
		<tag k="name" v="Søndre Tveter" />
		<tag k="place" v="farm" />
		<tag k="ssr:stedsnr" v="670325" />
	</node>
	<node lat="59.616324998032894" lon="10.78833611107541" id="-28123">
		<tag k="alt_name" v="Lesteberg, vestre;Lesteberg vestre" />
		<tag k="name" v="Vestre Lesteberg" />
		<tag k="place" v="farm" />
		<tag k="ssr:stedsnr" v="670358" />
	</node>
	<node lat="59.63225461690615" lon="10.68499696103235" id="-28124">
		<tag k="alt_name" v="Galby, vestre" />
		<tag k="fixme" v="consider place=hamlet" />
		<tag k="name" v="Vestre Galby" />
		<tag k="place" v="farm" />
		<tag k="ssr:stedsnr" v="670653" />
	</node>
	<node lat="59.62979902130986" lon="10.699309135321641" id="-28125">
		<tag k="alt_name" v="Galby;Galby østre" />
		<tag k="fixme" v="consider place=hamlet" />
		<tag k="name" v="Østre Galby" />
		<tag k="place" v="farm" />
		<tag k="ssr:stedsnr" v="670658" />
	</node>
	<node lat="59.528229337450405" lon="10.761099349956622" id="-28126">
		<tag k="fixme" v="consider place=hamlet" />
		<tag k="name" v="Fosser" />
		<tag k="place" v="farm" />
		<tag k="ssr:stedsnr" v="671002" />
	</node>
	<node lat="59.5210472191502" lon="10.77197499498658" id="-28127">
		<tag k="name" v="Pusset" />
		<tag k="place" v="farm" />
		<tag k="ssr:stedsnr" v="671055" />
	</node>
	<node lat="59.566752846492804" lon="10.816396225119613" id="-28128">
		<tag k="fixme" v="consider place=hamlet" />
		<tag k="name" v="Gon" />
		<tag k="place" v="farm" />
		<tag k="ssr:stedsnr" v="671200" />
	</node>
	<node lat="59.59515555858078" lon="10.732202779249295" id="-28129">
		<tag k="alt_name" v="Rød;Rød øvre" />
		<tag k="name" v="Øvre Rød" />
		<tag k="place" v="farm" />
		<tag k="ssr:stedsnr" v="671134" />
	</node>
	<node lat="59.60511110760102" lon="10.752324992051019" id="-28130">
		<tag k="name" v="Vestby" />
		<tag k="place" v="village" />
		<tag k="ssr:stedsnr" v="671145" />
	</node>
	<node lat="59.57685555391324" lon="10.782288896955698" id="-28131">
		<tag k="alt_name" v="Rustad, østre;Rustad østre" />
		<tag k="name" v="Østre Rustad" />
		<tag k="place" v="farm" />
		<tag k="ssr:stedsnr" v="671161" />
	</node>
	<node lat="59.605313884605486" lon="10.697813895473933" id="-28132">
		<tag k="fixme" v="consider place=hamlet" />
		<tag k="name" v="Løktås" />
		<tag k="place" v="farm" />
		<tag k="ssr:stedsnr" v="671633" />
	</node>
	<node lat="59.61244444866824" lon="10.707280549834863" id="-28133">
		<tag k="fixme" v="consider place=hamlet" />
		<tag k="name" v="Ekerholt" />
		<tag k="place" v="farm" />
		<tag k="ssr:stedsnr" v="671647" />
	</node>
	<node lat="59.634351469556286" lon="10.689249908317787" id="-28134">
		<tag k="fixme" v="consider place=hamlet" />
		<tag k="name" v="Fuglegården" />
		<tag k="place" v="farm" />
		<tag k="ssr:stedsnr" v="671693" />
	</node>
	<node lat="59.582577779008524" lon="10.7866500007511" id="-28136">
		<tag k="name" v="Glenne" />
		<tag k="place" v="hamlet" />
		<tag k="ssr:stedsnr" v="508180" />
	</node>
	<node lat="59.614683334934696" lon="10.740813894894652" id="-28138">
		<tag k="name" v="Høgda" />
		<tag k="place" v="quarter" />
		<tag k="ssr:stedsnr" v="508783" />
	</node>
	<node lat="59.53298254335597" lon="10.772954916528262" id="-28141">
		<tag k="alt_name" v="Fagerholt nordre" />
		<tag k="name" v="Nordre Fagerholt" />
		<tag k="old_name" v="Fagerli, nordre" />
		<tag k="place" v="farm" />
		<tag k="ssr:stedsnr" v="541025" />
	</node>
	<node lat="59.59865555708439" lon="10.655344446008865" id="-28144">
		<tag k="name" v="Torvet" />
		<tag k="place" v="square" />
		<tag k="ssr:stedsnr" v="542232" />
	</node>
	<node lat="59.52418888565349" lon="10.71523056369791" id="-28145">
		<tag k="name" v="Stensli" />
		<tag k="place" v="farm" />
		<tag k="ssr:stedsnr" v="542415" />
	</node>
	<node lat="59.61254167114413" lon="10.678591666929854" id="-28146">
		<tag k="alt_name" v="Øgård" />
		<tag k="name" v="Knalstadødegården" />
		<tag k="place" v="farm" />
		<tag k="ssr:stedsnr" v="543177" />
	</node>
	<node lat="59.594902779660934" lon="10.701327771723033" id="-28147">
		<tag k="name" v="Solli" />
		<tag k="place" v="farm" />
		<tag k="ssr:stedsnr" v="543716" />
	</node>
	<node lat="59.585891667241675" lon="10.655975001026267" id="-28148">
		<tag k="name" v="Okseryggen" />
		<tag k="place" v="hamlet" />
		<tag k="ssr:stedsnr" v="543733" />
	</node>
	<node lat="59.606872218920316" lon="10.730886117037501" id="-28159">
		<tag k="name" v="Nordli" />
		<tag k="place" v="farm" />
		<tag k="ssr:stedsnr" v="549364" />
	</node>
	<node lat="59.6128299272239" lon="10.802252622648897" id="-28160">
		<tag k="fixme" v="consider place=hamlet" />
		<tag k="name" v="Auten" />
		<tag k="place" v="farm" />
		<tag k="ssr:stedsnr" v="549368" />
	</node>
	<node lat="59.5508999955394" lon="10.665027778128314" id="-28162">
		<tag k="name" v="Furubråten" />
		<tag k="place" v="isolated_dwelling" />
		<tag k="ssr:stedsnr" v="549526" />
	</node>
	<node lat="59.55662319066376" lon="10.71211921268109" id="-28164">
		<tag k="fixme" v="consider place=hamlet" />
		<tag k="name" v="Klokkerud" />
		<tag k="place" v="farm" />
		<tag k="ssr:stedsnr" v="549677" />
	</node>
	<node lat="59.59175277538794" lon="10.812077778374585" id="-28165">
		<tag k="alt_name" v="Kjærstad;Kjærstad nordre" />
		<tag k="name" v="Nordre Kjærstad" />
		<tag k="place" v="farm" />
		<tag k="ssr:stedsnr" v="550029" />
	</node>
	<node lat="59.57759440706261" lon="10.773986469535522" id="-28166">
		<tag k="alt_name" v="Rustad, nordre" />
		<tag k="name" v="Nordre Rustad" />
		<tag k="place" v="farm" />
		<tag k="ssr:stedsnr" v="550174" />
	</node>
	<node lat="59.5646861150776" lon="10.725930551308101" id="-28167">
		<tag k="loc_name" v="Opp-Kjenn;Oppkjenn" />
		<tag k="name" v="Øvre Kjenn" />
		<tag k="place" v="farm" />
		<tag k="ssr:stedsnr" v="568216" />
	</node>
	<node lat="59.51222777514334" lon="10.769011115471594" id="-28169">
		<tag k="name" v="Borgerudbråten" />
		<tag k="place" v="locality" />
		<tag k="ssr:stedsnr" v="568123" />
	</node>
	<node lat="59.51247777408767" lon="10.725158327263168" id="-28170">
		<tag k="name" v="Gateengen" />
		<tag k="place" v="farm" />
		<tag k="ssr:stedsnr" v="568144" />
	</node>
	<node lat="59.58904166789149" lon="10.807133341213582" id="-28171">
		<tag k="alt_name" v="Tuft øvre;Tuft" />
		<tag k="name" v="Øvre Tuft" />
		<tag k="place" v="farm" />
		<tag k="ssr:stedsnr" v="568156" />
	</node>
	<node lat="59.57609166615592" lon="10.80136666784672" id="-28172">
		<tag k="name" v="Garderbråten" />
		<tag k="place" v="farm" />
		<tag k="ssr:stedsnr" v="568165" />
	</node>
	<node lat="59.58002499816411" lon="10.802794451379036" id="-28173">
		<tag k="name" v="Fjelltun" />
		<tag k="place" v="farm" />
		<tag k="ssr:stedsnr" v="568167" />
	</node>
	<node lat="59.61122291861402" lon="10.774537621229094" id="-28174">
		<tag k="fixme" v="consider place=hamlet" />
		<tag k="name" v="Kjensli" />
		<tag k="place" v="farm" />
		<tag k="ssr:stedsnr" v="568762" />
	</node>
	<node lat="59.62375833377047" lon="10.777425007309477" id="-28175">
		<tag k="name" v="Tveterengen" />
		<tag k="place" v="isolated_dwelling" />
		<tag k="ssr:stedsnr" v="568777" />
	</node>
	<node lat="59.58414999923703" lon="10.745613884066008" id="-28176">
		<tag k="name" v="Lureklo" />
		<tag k="place" v="farm" />
		<tag k="ssr:stedsnr" v="569185" />
	</node>
	<node lat="59.50670277816673" lon="10.68808610549471" id="-28177">
		<tag k="name" v="Solåsen" />
		<tag k="place" v="farm" />
		<tag k="ssr:stedsnr" v="593277" />
	</node>
	<node lat="59.50446388902197" lon="10.691188893573653" id="-28178">
		<tag k="amenity" v="school" />
		<tag k="name" v="Brevik skole" />
		<tag k="ssr:stedsnr" v="602456" />
	</node>
	<node lat="59.580002774372986" lon="10.677786119226555" id="-28180">
		<tag k="name" v="Østre Torp" />
		<tag k="place" v="farm" />
		<tag k="ssr:stedsnr" v="604771" />
	</node>
	<node lat="59.57696111184187" lon="10.699147223458205" id="-28181">
		<tag k="name" v="Nedre Stubberud" />
		<tag k="place" v="farm" />
		<tag k="ssr:stedsnr" v="604778" />
	</node>
	<node lat="59.57829444860755" lon="10.702152777633652" id="-28182">
		<tag k="name" v="Øvre Stubberud" />
		<tag k="place" v="farm" />
		<tag k="ssr:stedsnr" v="604779" />
	</node>
	<node lat="59.624277774147885" lon="10.689974999226854" id="-28188">
		<tag k="name" v="Vernhus" />
		<tag k="place" v="farm" />
		<tag k="ssr:stedsnr" v="609639" />
	</node>
	<node lat="59.532013232687646" lon="10.773399666906997" id="-28190">
		<tag k="fixme" v="consider place=hamlet" />
		<tag k="name" v="Fagerholt" />
		<tag k="place" v="farm" />
		<tag k="ssr:stedsnr" v="610002" />
	</node>
	<node lat="59.514490886616215" lon="10.746095029451787" id="-28191">
		<tag k="alt_name" v="Burud" />
		<tag k="fixme" v="consider place=hamlet" />
		<tag k="name" v="Burød" />
		<tag k="place" v="farm" />
		<tag k="ssr:stedsnr" v="610040" />
	</node>
	<node lat="59.5834087820179" lon="10.751119244349308" id="-28192">
		<tag k="fixme" v="consider place=hamlet" />
		<tag k="name" v="Røddal" />
		<tag k="place" v="farm" />
		<tag k="ssr:stedsnr" v="610219" />
	</node>
	<node lat="59.577787585616065" lon="10.760804287056198" id="-28193">
		<tag k="alt_name" v="Søndre To" />
		<tag k="fixme" v="consider place=hamlet" />
		<tag k="name" v="To" />
		<tag k="place" v="farm" />
		<tag k="ssr:stedsnr" v="610190" />
	</node>
	<node lat="59.54515833499933" lon="10.693336118577868" id="-28195">
		<tag k="name" v="Søndre Mørk" />
		<tag k="place" v="farm" />
		<tag k="ssr:stedsnr" v="610593" />
	</node>
	<node lat="59.56398792818898" lon="10.730307834772844" id="-28196">
		<tag k="alt_name" v="Nordre Kjenn" />
		<tag k="fixme" v="consider place=hamlet" />
		<tag k="name" v="Kjenn" />
		<tag k="place" v="farm" />
		<tag k="ssr:stedsnr" v="611200" />
	</node>
	<node lat="59.58814444321304" lon="10.817088891792968" id="-28197">
		<tag k="name" v="Åsly" />
		<tag k="place" v="isolated_dwelling" />
		<tag k="ssr:stedsnr" v="690236" />
	</node>
	<node lat="59.61730833374675" lon="10.769841667268588" id="-28199">
		<tag k="name" v="Teipa" />
		<tag k="place" v="farm" />
		<tag k="ssr:stedsnr" v="690277" />
	</node>
	<node lat="59.60872777689958" lon="10.760808340072641" id="-28200">
		<tag k="name" v="Volden" />
		<tag k="place" v="farm" />
		<tag k="ssr:stedsnr" v="690824" />
	</node>
	<node lat="59.56848333358383" lon="10.819930548881985" id="-28201">
		<tag k="alt_name" v="Florud øvre" />
		<tag k="name" v="Øvre Florud" />
		<tag k="place" v="farm" />
		<tag k="ssr:stedsnr" v="629225" />
	</node>
	<node lat="59.5984916687063" lon="10.725730554303189" id="-28203">
		<tag k="name" v="Krusebyen" />
		<tag k="place" v="hamlet" />
		<tag k="ssr:stedsnr" v="629769" />
	</node>
	<node lat="59.59720833298488" lon="10.768055554151163" id="-28204">
		<tag k="name" v="Grøstaddalen" />
		<tag k="place" v="farm" />
		<tag k="ssr:stedsnr" v="629796" />
	</node>
	<node lat="59.60707777613538" lon="10.839463881327184" id="-28205">
		<tag k="name" v="Villumstad" />
		<tag k="place" v="farm" />
		<tag k="ssr:stedsnr" v="629867" />
	</node>
	<node lat="59.57921944089925" lon="10.651786104076248" id="-28207">
		<tag k="alt_name" v="Brånen" />
		<tag k="name" v="Brånan" />
		<tag k="old_name" v="Braanen" />
		<tag k="place" v="farm" />
		<tag k="ssr:stedsnr" v="692922" />
	</node>
	<node lat="59.50903332957874" lon="10.694794442535983" id="-28210">
		<tag k="name" v="Brevikmyra" />
		<tag k="place" v="quarter" />
		<tag k="ssr:stedsnr" v="663407" />
	</node>
	<node lat="59.50271388616892" lon="10.713011113138847" id="-28211">
		<tag k="name" v="Smørbekk" />
		<tag k="place" v="hamlet" />
		<tag k="ssr:stedsnr" v="663420" />
	</node>
	<node lat="59.58129166249717" lon="10.654416660864216" id="-28218">
		<tag k="name" v="Emmerstad" />
		<tag k="place" v="farm" />
		<tag k="ssr:stedsnr" v="670717" />
	</node>
	<node lat="59.559667793865344" lon="10.656252740767798" id="-28219">
		<tag k="fixme" v="consider place=hamlet" />
		<tag k="name" v="Kjære" />
		<tag k="place" v="farm" />
		<tag k="ssr:stedsnr" v="670674" />
	</node>
	<node lat="59.57052499960677" lon="10.653041675099796" id="-28221">
		<tag k="alt_name" v="Skjellvika" />
		<tag k="name" v="Skjelavika" />
		<tag k="place" v="isolated_dwelling" />
		<tag k="ssr:stedsnr" v="670693" />
	</node>
	<node lat="59.58803610925285" lon="10.811786114419993" id="-28222">
		<tag k="name" v="Kjærstad" />
		<tag k="place" v="farm" />
		<tag k="ssr:stedsnr" v="671182" />
	</node>
	<node lat="59.582272221258314" lon="10.72352777500629" id="-28224">
		<tag k="name" v="Sollibråten" />
		<tag k="place" v="farm" />
		<tag k="ssr:stedsnr" v="690135" />
	</node>
	<node lat="59.54077777929122" lon="10.744858334763196" id="-28226">
		<tag k="name" v="Riulfsborg" />
		<tag k="place" v="isolated_dwelling" />
		<tag k="ssr:stedsnr" v="690098" />
	</node>
	<node lat="59.57611111426345" lon="10.790049994324969" id="-28227">
		<tag k="name" v="Drømmerud" />
		<tag k="place" v="farm" />
		<tag k="ssr:stedsnr" v="690206" />
	</node>
	<node lat="59.550527777165456" lon="10.727594452783235" id="-28228">
		<tag k="name" v="Nordre Karder" />
		<tag k="place" v="farm" />
		<tag k="ssr:stedsnr" v="691130" />
	</node>
	<node lat="59.53265833548969" lon="10.746747215426485" id="-28229">
		<tag k="name" v="Vollebekk" />
		<tag k="place" v="farm" />
		<tag k="ssr:stedsnr" v="691141" />
	</node>
	<node lat="59.62763333581857" lon="10.78239443934869" id="-28230">
		<tag k="alt_name" v="Tveiter mellem;Mellom Tveiter" />
		<tag k="name" v="Mellom-Tveter" />
		<tag k="place" v="farm" />
		<tag k="ssr:stedsnr" v="693307" />
	</node>
	<node lat="59.52025278104513" lon="10.702213894803482" id="-28231">
		<tag k="name" v="Husjordet" />
		<tag k="place" v="farm" />
		<tag k="ssr:stedsnr" v="724386" />
	</node>
	<node lat="59.61212437544894" lon="10.755178783814655" id="-28241">
		<tag k="fixme" v="consider place=hamlet" />
		<tag k="name" v="Krom" />
		<tag k="place" v="farm" />
		<tag k="ssr:stedsnr" v="731318" />
	</node>
	<node lat="59.54900555599319" lon="10.697969448119947" id="-28242">
		<tag k="name" v="Nordre Mørk" />
		<tag k="place" v="farm" />
		<tag k="ssr:stedsnr" v="731517" />
	</node>
	<node lat="59.58595079114257" lon="10.693338689490059" id="-28244">
		<tag k="fixme" v="consider place=hamlet" />
		<tag k="name" v="Rønjul" />
		<tag k="place" v="farm" />
		<tag k="ssr:stedsnr" v="731717" />
	</node>
	<node lat="59.57715621158028" lon="10.701439827098293" id="-28245">
		<tag k="fixme" v="consider place=hamlet" />
		<tag k="name" v="Stubberud" />
		<tag k="place" v="farm" />
		<tag k="ssr:stedsnr" v="731683" />
	</node>
	<node lat="59.590986109500925" lon="10.81994999893343" id="-28246">
		<tag k="name" v="Haug" />
		<tag k="place" v="farm" />
		<tag k="ssr:stedsnr" v="732025" />
	</node>
	<node lat="59.60127222095272" lon="10.828752778826646" id="-28247">
		<tag k="alt_name" v="Topper, vestre;Topper vestre" />
		<tag k="name" v="Vestre Topper" />
		<tag k="place" v="farm" />
		<tag k="ssr:stedsnr" v="732161" />
	</node>
	<node lat="59.57104929959851" lon="10.718058956845532" id="-28248">
		<tag k="fixme" v="consider place=hamlet" />
		<tag k="name" v="Tømt" />
		<tag k="place" v="farm" />
		<tag k="ssr:stedsnr" v="732176" />
	</node>
	<node lat="59.57464166328201" lon="10.799663880069975" id="-28250">
		<tag k="name" v="Bjerkelangen" />
		<tag k="place" v="isolated_dwelling" />
		<tag k="ssr:stedsnr" v="750128" />
	</node>
	<node lat="59.545922223525025" lon="10.729500008871222" id="-28252">
		<tag k="name" v="Søndre Karder" />
		<tag k="place" v="farm" />
		<tag k="ssr:stedsnr" v="751107" />
	</node>
	<node lat="59.55011388681626" lon="10.746974993689289" id="-28253">
		<tag k="name" v="Bylterudbråten" />
		<tag k="place" v="farm" />
		<tag k="ssr:stedsnr" v="751110" />
	</node>
	<node lat="59.5176944461668" lon="10.683366661750298" id="-28257">
		<tag k="name" v="Vestre Skog" />
		<tag k="place" v="isolated_dwelling" />
		<tag k="ssr:stedsnr" v="784714" />
	</node>
	<node lat="59.556619442242436" lon="10.694000007630716" id="-28258">
		<tag k="name" v="Mellom-Erikstad" />
		<tag k="place" v="farm" />
		<tag k="ssr:stedsnr" v="786552" />
	</node>
	<node lat="59.58637777510244" lon="10.692625004120766" id="-28259">
		<tag k="alt_name" v="Rønjul mellom" />
		<tag k="name" v="Mellom-Rønjul" />
		<tag k="place" v="farm" />
		<tag k="ssr:stedsnr" v="786719" />
	</node>
	<node lat="59.581474999699054" lon="10.70826389229182" id="-28260">
		<tag k="name" v="Myra" />
		<tag k="place" v="isolated_dwelling" />
		<tag k="ssr:stedsnr" v="786759" />
	</node>
	<node lat="59.59376110816659" lon="10.708741666136484" id="-28267">
		<tag k="name" v="Filtvet" />
		<tag k="place" v="farm" />
		<tag k="ssr:stedsnr" v="791723" />
	</node>
	<node lat="59.507536559398126" lon="10.737918322350268" id="-28268">
		<tag k="alt_name" v="Tørbrekke" />
		<tag k="fixme" v="consider place=hamlet" />
		<tag k="loc_name" v="Torbrekka" />
		<tag k="name" v="Torbrekke" />
		<tag k="place" v="farm" />
		<tag k="ssr:stedsnr" v="792051" />
	</node>
	<node lat="59.54445000361042" lon="10.744327784602948" id="-28269">
		<tag k="name" v="Bruer" />
		<tag k="place" v="farm" />
		<tag k="ssr:stedsnr" v="792221" />
	</node>
	<node lat="59.5573656512598" lon="10.730263455260985" id="-28270">
		<tag k="alt_name" v="Kjenn;Søndre Kjenn" />
		<tag k="fixme" v="consider place=hamlet" />
		<tag k="name" v="Søndre Kjenn" />
		<tag k="place" v="farm" />
		<tag k="ssr:stedsnr" v="792234" />
	</node>
	<node lat="59.58272222016179" lon="10.730511117408708" id="-28271">
		<tag k="name" v="Rødshagen" />
		<tag k="place" v="farm" />
		<tag k="ssr:stedsnr" v="793188" />
	</node>
	<node lat="59.57420550740668" lon="10.827480785388097" id="-28272">
		<tag k="alt_name" v="Tom, store" />
		<tag k="fixme" v="multiple name tags, choose one and add the other to alt_name" />
		<tag k="name" v="Tom;Store Tom" />
		<tag k="place" v="farm" />
		<tag k="ssr:stedsnr" v="793228" />
	</node>
	<node lat="59.55376388802703" lon="10.773836109465927" id="-28273">
		<tag k="alt_name" v="Åmot, nordre;Åmot store" />
		<tag k="fixme" v="multiple name tags, choose one and add the other to alt_name" />
		<tag k="name" v="Nordre Åmot;Store Åmot" />
		<tag k="place" v="farm" />
		<tag k="ssr:stedsnr" v="903226" />
	</node>
	<node lat="59.60457927545126" lon="10.677379145648349" id="-28275">
		<tag k="alt_name" v="Søndre Knalstad" />
		<tag k="name" v="Søndre Knallstad" />
		<tag k="place" v="farm" />
		<tag k="ssr:stedsnr" v="906130" />
	</node>
	<node lat="59.545847225521975" lon="10.710174997550851" id="-28276">
		<tag k="alt_name" v="Tugelite" />
		<tag k="loc_name" v="Tugulite" />
		<tag k="name" v="Mørkbråten" />
		<tag k="place" v="farm" />
		<tag k="ssr:stedsnr" v="906279" />
	</node>
	<node lat="59.49320000270989" lon="10.692658336099509" id="-28278">
		<tag k="alt_name" v="Brevik søndre" />
		<tag k="name" v="Søndre Brevik" />
		<tag k="place" v="farm" />
		<tag k="ssr:stedsnr" v="906639" />
	</node>
	<node lat="59.491763892698216" lon="10.693255559368279" id="-28279">
		<tag k="name" v="Haslebakke" />
		<tag k="place" v="isolated_dwelling" />
		<tag k="ssr:stedsnr" v="906642" />
	</node>
	<node lat="59.52912499834061" lon="10.688516673401368" id="-28280">
		<tag k="name" v="Øra" />
		<tag k="place" v="farm" />
		<tag k="ssr:stedsnr" v="817884" />
	</node>
	<node lat="59.62615000323864" lon="10.704291668799456" id="-28282">
		<tag k="name" v="Moseby" />
		<tag k="place" v="locality" />
		<tag k="ssr:stedsnr" v="908181" />
	</node>
	<node lat="59.585336107318064" lon="10.69183055172339" id="-28283">
		<tag k="name" v="Søndre Rønjul" />
		<tag k="place" v="farm" />
		<tag k="ssr:stedsnr" v="908735" />
	</node>
	<node lat="59.631677781540866" lon="10.702497220368835" id="-28294">
		<tag k="name" v="Hagen" />
		<tag k="place" v="locality" />
		<tag k="ssr:stedsnr" v="847183" />
	</node>
	<node lat="59.62455000109371" lon="10.698183329577438" id="-28295">
		<tag k="name" v="Steinbråten" />
		<tag k="place" v="locality" />
		<tag k="ssr:stedsnr" v="847193" />
	</node>
	<node lat="59.63186666520642" lon="10.788933331933322" id="-28301">
		<tag k="alt_name" v="Tveiter, nordre;Tveiter nordre;Nordre Tveiter" />
		<tag k="name" v="Nordre Tveter" />
		<tag k="place" v="farm" />
		<tag k="ssr:stedsnr" v="913313" />
	</node>
	<node lat="59.62387499576115" lon="10.752650001878177" id="-28302">
		<tag k="alt_name" v="Stubberud" />
		<tag k="name" v="Stubberød" />
		<tag k="place" v="farm" />
		<tag k="ssr:stedsnr" v="913316" />
	</node>
	<node lat="59.597498494963084" lon="10.774317245910947" id="-28304">
		<tag k="alt_name" v="Borgen" />
		<tag k="fixme" v="consider place=hamlet" />
		<tag k="name" v="Borga" />
		<tag k="place" v="farm" />
		<tag k="ssr:stedsnr" v="853114" />
	</node>
	<node lat="59.5630773683659" lon="10.799173762043575" id="-28305">
		<tag k="name" v="Oksa" />
		<tag k="place" v="farm" />
		<tag k="ssr:stedsnr" v="853167" />
	</node>
	<node lat="59.60724722529408" lon="10.724080553203269" id="-28306">
		<tag k="name" v="Vestbybråten" />
		<tag k="place" v="farm" />
		<tag k="ssr:stedsnr" v="913353" />
	</node>
	<node lat="59.577780559267765" lon="10.686491660805098" id="-28307">
		<tag k="name" v="Stokkholm" />
		<tag k="place" v="isolated_dwelling" />
		<tag k="ssr:stedsnr" v="853704" />
	</node>
	<node lat="59.62178171728861" lon="10.77323890739153" id="-28308">
		<tag k="fixme" v="consider place=hamlet" />
		<tag k="name" v="Østereng" />
		<tag k="place" v="farm" />
		<tag k="ssr:stedsnr" v="913329" />
	</node>
	<node lat="59.574747597279874" lon="10.791476359620372" id="-28309">
		<tag k="alt_name" v="Drømmerød" />
		<tag k="fixme" v="consider place=hamlet" />
		<tag k="name" v="Drømmerud" />
		<tag k="place" v="farm" />
		<tag k="ssr:stedsnr" v="854157" />
	</node>
	<node lat="59.594985645400484" lon="10.831721204413403" id="-28310">
		<tag k="alt_name" v="Tannum;Tønnum" />
		<tag k="fixme" v="consider place=hamlet" />
		<tag k="name" v="Søndre Tannum" />
		<tag k="place" v="farm" />
		<tag k="ssr:stedsnr" v="854171" />
	</node>
	<node lat="59.55056722876762" lon="10.764156104700154" id="-28311">
		<tag k="alt_name" v="Åmot, s;Åmot store" />
		<tag k="fixme" v="consider place=hamlet" />
		<tag k="name" v="Store Åmot" />
		<tag k="place" v="farm" />
		<tag k="ssr:stedsnr" v="854205" />
	</node>
	<node lat="59.558300002806746" lon="10.649752778449416" id="-28312">
		<tag k="name" v="Bølnes" />
		<tag k="place" v="farm" />
		<tag k="ssr:stedsnr" v="913657" />
	</node>
	<node lat="59.58508888993148" lon="10.661033342152333" id="-28313">
		<tag k="name" v="Sagstua" />
		<tag k="place" v="locality" />
		<tag k="ssr:stedsnr" v="913711" />
	</node>
	<node lat="59.591079388336595" lon="10.66360774948996" id="-28314">
		<tag k="fixme" v="consider place=hamlet" />
		<tag k="name" v="Strand" />
		<tag k="place" v="farm" />
		<tag k="ssr:stedsnr" v="913723" />
	</node>
	<node lat="59.581866856996484" lon="10.813789533546256" id="-28317">
		<tag k="fixme" v="consider place=hamlet" />
		<tag k="name" v="Hovum" />
		<tag k="place" v="farm" />
		<tag k="ssr:stedsnr" v="914165" />
	</node>
	<node lat="59.548666667591114" lon="10.722041660552884" id="-28318">
		<tag k="alt_name" v="Håkonsbråten" />
		<tag k="name" v="Håkensbråten" />
		<tag k="place" v="farm" />
		<tag k="ssr:stedsnr" v="914245" />
	</node>
	<node lat="59.54746711913898" lon="10.727824861806472" id="-28319">
		<tag k="fixme" v="consider place=hamlet" />
		<tag k="name" v="Karder" />
		<tag k="place" v="farm" />
		<tag k="ssr:stedsnr" v="914250" />
	</node>
	<node lat="59.56835976156491" lon="10.72815361563506" id="-28320">
		<tag k="fixme" v="consider place=hamlet" />
		<tag k="name" v="Skåka" />
		<tag k="place" v="farm" />
		<tag k="ssr:stedsnr" v="914223" />
	</node>
	<node lat="59.60921111278115" lon="10.668624995587479" id="-28321">
		<tag k="alt_name" v="Lysdal;Østre Lysdal" />
		<tag k="name" v="Østre Lysedal" />
		<tag k="place" v="farm" />
		<tag k="ssr:stedsnr" v="914666" />
	</node>
	<node lat="59.590274999795085" lon="10.80308055971845" id="-28322">
		<tag k="name" v="Solås" />
		<tag k="place" v="isolated_dwelling" />
		<tag k="ssr:stedsnr" v="872218" />
	</node>
	<node lat="59.5824083347051" lon="10.824961118262665" id="-28323">
		<tag k="name" v="Fjellvang" />
		<tag k="place" v="isolated_dwelling" />
		<tag k="ssr:stedsnr" v="872220" />
	</node>
	<node lat="59.57188983406109" lon="10.80384669320477" id="-28324">
		<tag k="name" v="Fjellbu" />
		<tag k="place" v="locality" />
		<tag k="ssr:stedsnr" v="872244" />
	</node>
	<node lat="59.590836115102526" lon="10.787900001362681" id="-28326">
		<tag k="name" v="Knatten" />
		<tag k="place" v="isolated_dwelling" />
		<tag k="ssr:stedsnr" v="872168" />
	</node>
	<node lat="59.573750000193925" lon="10.77092500440914" id="-28327">
		<tag k="name" v="Grønlundødegården" />
		<tag k="place" v="locality" />
		<tag k="ssr:stedsnr" v="872178" />
	</node>
	<node lat="59.58857500441073" lon="10.80707499919393" id="-28328">
		<tag k="alt_name" v="Tuft nedre" />
		<tag k="name" v="Nedre Tuft" />
		<tag k="place" v="farm" />
		<tag k="ssr:stedsnr" v="873173" />
	</node>
	<node lat="59.533547225314365" lon="10.683469443372358" id="-28332">
		<tag k="alt_name" v="Kålås øvre;Øvre Kålås" />
		<tag k="name" v="Øvre Kolås" />
		<tag k="place" v="farm" />
		<tag k="ssr:stedsnr" v="906303" />
	</node>
	<node lat="59.49849444174909" lon="10.710216669545991" id="-28335">
		<tag k="alt_name" v="Rød østre" />
		<tag k="name" v="Østre Rød" />
		<tag k="place" v="farm" />
		<tag k="ssr:stedsnr" v="906466" />
	</node>
	<node lat="59.632169442983844" lon="10.709930547680214" id="-28349">
		<tag k="name" v="Ødegården" />
		<tag k="place" v="farm" />
		<tag k="ssr:stedsnr" v="913644" />
	</node>
	<node lat="59.62053567987758" lon="10.80447880920683" id="-28350">
		<tag k="alt_name" v="Tannum" />
		<tag k="fixme" v="consider place=hamlet" />
		<tag k="name" v="Nordre Tannum" />
		<tag k="place" v="farm" />
		<tag k="ssr:stedsnr" v="913340" />
	</node>
	<node lat="59.532880158653334" lon="10.759585089435017" id="-28352">
		<tag k="fixme" v="consider place=hamlet" />
		<tag k="name" v="Presterud" />
		<tag k="place" v="farm" />
		<tag k="ssr:stedsnr" v="914003" />
	</node>
	<node lat="59.52547500082219" lon="10.761669452409786" id="-28353">
		<tag k="alt_name" v="Østerud, nordre;Østerud nordre" />
		<tag k="name" v="Nordre Østerud" />
		<tag k="place" v="farm" />
		<tag k="ssr:stedsnr" v="914052" />
	</node>
	<node lat="59.58606110989327" lon="10.791388881874516" id="-28354">
		<tag k="alt_name" v="Tuft;Tuft vestre" />
		<tag k="name" v="Vestre Tuft" />
		<tag k="place" v="farm" />
		<tag k="ssr:stedsnr" v="914183" />
	</node>
	<node lat="59.570286399656396" lon="10.77246384658132" id="-28355">
		<tag k="alt_name" v="Rogsti, nordre" />
		<tag k="name" v="Nordre Rogsti" />
		<tag k="place" v="farm" />
		<tag k="ssr:stedsnr" v="914215" />
	</node>
	<node lat="59.56819087638977" lon="10.75314748178319" id="-28356">
		<tag k="name" v="Øvre Langli" />
		<tag k="place" v="farm" />
		<tag k="ssr:stedsnr" v="933209" />
	</node>
	<node lat="59.61714722206128" lon="10.73153888609707" id="-28357">
		<tag k="name" v="Libråten" />
		<tag k="place" v="farm" />
		<tag k="ssr:stedsnr" v="933217" />
	</node>
	<node lat="59.533487380925" lon="10.706156431966605" id="-28360">
		<tag k="name" v="Presteøgården" />
		<tag k="place" v="farm" />
		<tag k="ssr:stedsnr" v="966289" />
	</node>
	<node lat="59.52291389252558" lon="10.693811115375148" id="-28361">
		<tag k="name" v="Bernhoffløkka" />
		<tag k="place" v="farm" />
		<tag k="ssr:stedsnr" v="966439" />
	</node>
	<node lat="59.52390000387515" lon="10.707013895620593" id="-28362">
		<tag k="name" v="Vollehagen" />
		<tag k="place" v="hamlet" />
		<tag k="ssr:stedsnr" v="966444" />
	</node>
	<node lat="59.63975833100725" lon="10.686124995108592" id="-28364">
		<tag k="name" v="Linnestadlund" />
		<tag k="place" v="locality" />
		<tag k="ssr:stedsnr" v="968543" />
	</node>
	<node lat="59.58662500184641" lon="10.700555549222042" id="-28365">
		<tag k="name" v="Sandås" />
		<tag k="place" v="farm" />
		<tag k="ssr:stedsnr" v="968740" />
	</node>
	<node lat="59.52248703284495" lon="10.744787618834312" id="-28370">
		<tag k="fixme" v="consider place=hamlet" />
		<tag k="name" v="Eik" />
		<tag k="place" v="farm" />
		<tag k="ssr:stedsnr" v="974194" />
	</node>
	<node lat="59.56108043823818" lon="10.775325978648002" id="-28372">
		<tag k="name" v="Mellom-Rogsti" />
		<tag k="place" v="farm" />
		<tag k="ssr:stedsnr" v="977559" />
	</node>
	<node lat="59.48585826489376" lon="10.723438654297688" id="-28373">
		<tag k="amenity" v="cafe" />
		<tag k="name" v="Ødemørk" />
		<tag k="ssr:stedsnr" v="988109" />
	</node>
	<node lat="59.501836068714326" lon="10.715693085837033" id="-28401">
		<tag k="fixme" v="consider place=hamlet" />
		<tag k="name" v="Smørbekk" />
		<tag k="place" v="farm" />
		<tag k="ssr:stedsnr" v="3455" />
	</node>
	<node lat="59.59360555993174" lon="10.67814445123674" id="-28403">
		<tag k="name" v="Brattås" />
		<tag k="place" v="farm" />
		<tag k="ssr:stedsnr" v="3735" />
	</node>
	<node lat="59.6040888872316" lon="10.768758332736473" id="-28404">
		<tag k="alt_name" v="Ålerød, søndre;Ålerud søndre" />
		<tag k="name" v="Søndre Ålerød" />
		<tag k="place" v="farm" />
		<tag k="ssr:stedsnr" v="4146" />
	</node>
	<node lat="59.5365305535739" lon="10.741072216572599" id="-28405">
		<tag k="name" v="Bommen" />
		<tag k="place" v="farm" />
		<tag k="ssr:stedsnr" v="4021" />
	</node>
	<node lat="59.53811944126323" lon="10.779786114899723" id="-28406">
		<tag k="alt_name" v="Holm, søndre;Holm søndre" />
		<tag k="name" v="Søndre Holm" />
		<tag k="old_name" v="Nordre Holm" />
		<tag k="place" v="farm" />
		<tag k="ssr:stedsnr" v="4024" />
	</node>
	<node lat="59.52391666951397" lon="10.746066668055915" id="-28407">
		<tag k="alt_name" v="Ek;Ek nordre" />
		<tag k="name" v="Nordre Ek" />
		<tag k="place" v="farm" />
		<tag k="ssr:stedsnr" v="4046" />
	</node>
	<node lat="59.573230552473056" lon="10.835658335854644" id="-28408">
		<tag k="alt_name" v="Tom, søndre;Tom søndre;Lille Tom;Tom lille" />
		<tag k="name" v="Søndre Tom" />
		<tag k="place" v="farm" />
		<tag k="ssr:stedsnr" v="4212" />
	</node>
	<node lat="59.52467222431727" lon="10.719541660336409" id="-28409">
		<tag k="name" v="Solvang" />
		<tag k="place" v="farm" />
		<tag k="ssr:stedsnr" v="22128" />
	</node>
	<node lat="59.57137500249783" lon="10.803966665117725" id="-28410">
		<tag k="name" v="Fjellberg" />
		<tag k="place" v="isolated_dwelling" />
		<tag k="ssr:stedsnr" v="22220" />
	</node>
	<node lat="59.5698222193151" lon="10.656955551653839" id="-28415">
		<tag k="name" v="Langbråten" />
		<tag k="place" v="farm" />
		<tag k="ssr:stedsnr" v="56225" />
	</node>
	<node lat="59.54741389265562" lon="10.69815277120855" id="-28416">
		<tag k="name" v="Villa Granholt" />
		<tag k="place" v="isolated_dwelling" />
		<tag k="ssr:stedsnr" v="56262" />
	</node>
	<node lat="59.49716526618264" lon="10.684751612934036" id="-28417">
		<tag k="alt_name" v="Brevik vestre" />
		<tag k="name" v="Vestre Brevik" />
		<tag k="place" v="farm" />
		<tag k="ssr:stedsnr" v="56458" />
	</node>
	<node lat="59.51939444635522" lon="10.688877784210632" id="-28418">
		<tag k="name" v="Midtskogen" />
		<tag k="place" v="isolated_dwelling" />
		<tag k="ssr:stedsnr" v="56725" />
	</node>
	<node lat="59.60853611169521" lon="10.68069721438265" id="-28420">
		<tag k="name" v="Nordre Knalstad" />
		<tag k="place" v="farm" />
		<tag k="ssr:stedsnr" v="57127" />
	</node>
	<node lat="59.63954722595998" lon="10.693441675201944" id="-28421">
		<tag k="name" v="Toje" />
		<tag k="place" v="isolated_dwelling" />
		<tag k="ssr:stedsnr" v="58548" />
	</node>
	<node lat="59.61534444426754" lon="10.712555558205654" id="-28422">
		<tag k="name" v="Tømmerås" />
		<tag k="place" v="locality" />
		<tag k="ssr:stedsnr" v="58166" />
	</node>
	<node lat="59.56114722237814" lon="10.693216674998203" id="-28423">
		<tag k="name" v="Nordre Erikstad" />
		<tag k="place" v="farm" />
		<tag k="ssr:stedsnr" v="58558" />
	</node>
	<node lat="59.55754166587892" lon="10.714183330958232" id="-28424">
		<tag k="name" v="Nordre Klokkerud" />
		<tag k="place" v="farm" />
		<tag k="ssr:stedsnr" v="58560" />
	</node>
	<node lat="59.55549166867401" lon="10.712469449089161" id="-28425">
		<tag k="name" v="Søndre Klokkerud" />
		<tag k="place" v="farm" />
		<tag k="ssr:stedsnr" v="58561" />
	</node>
	<node lat="59.583155554257736" lon="10.65649722368922" id="-28426">
		<tag k="name" v="Bråten" />
		<tag k="place" v="farm" />
		<tag k="ssr:stedsnr" v="58562" />
	</node>
	<node lat="59.59258889009778" lon="10.652833337207905" id="-28433">
		<tag k="name" v="Katten" />
		<tag k="place" v="isolated_dwelling" />
		<tag k="ssr:stedsnr" v="63737" />
	</node>
	<node lat="59.59905888227393" lon="10.658696524759552" id="-28434">
		<tag k="fixme" v="consider place=suburb, village or hamlet" />
		<tag k="name" v="Hvitsten" />
		<tag k="place" v="quarter" />
		<tag k="ssr:stedsnr" v="63738" />
	</node>
	<node lat="59.60044722428406" lon="10.723538881537731" id="-28435">
		<tag k="name" v="Bjørlien" />
		<tag k="place" v="farm" />
		<tag k="ssr:stedsnr" v="64138" />
	</node>
	<node lat="59.568016230360186" lon="10.753216712140262" id="-28436">
		<tag k="alt_name" v="Langeli" />
		<tag k="fixme" v="consider place=hamlet" />
		<tag k="name" v="Langli" />
		<tag k="place" v="farm" />
		<tag k="ssr:stedsnr" v="64190" />
	</node>
	<node lat="59.594049995569236" lon="10.736344443877176" id="-28437">
		<tag k="alt_name" v="Rød;Rød nedre" />
		<tag k="name" v="Nedre Rød" />
		<tag k="place" v="farm" />
		<tag k="ssr:stedsnr" v="64028" />
	</node>
	<node lat="59.512377779095985" lon="10.744283336558754" id="-28438">
		<tag k="alt_name" v="Langerød, nordre;Langerud nordre" />
		<tag k="name" v="Nordre Langerud" />
		<tag k="place" v="farm" />
		<tag k="ssr:stedsnr" v="64034" />
	</node>
	<node lat="59.53269746127544" lon="10.685075374981583" id="-28439">
		<tag k="fixme" v="consider place=hamlet" />
		<tag k="name" v="Kolås" />
		<tag k="place" v="farm" />
		<tag k="ssr:stedsnr" v="64530" />
	</node>
	<node lat="59.530422513681884" lon="10.698585759233811" id="-28440">
		<tag k="name" v="Labu" />
		<tag k="place" v="hamlet" />
		<tag k="ssr:stedsnr" v="64533" />
	</node>
	<node lat="59.606530555925666" lon="10.70379443806016" id="-28441">
		<tag k="fixme" v="consider place=hamlet" />
		<tag k="name" v="Pepperstad" />
		<tag k="place" v="farm" />
		<tag k="ssr:stedsnr" v="64618" />
	</node>
	<node lat="59.63692393812488" lon="10.700066563588884" id="-28443">
		<tag k="fixme" v="consider place=hamlet" />
		<tag k="name" v="Vastad" />
		<tag k="place" v="farm" />
		<tag k="ssr:stedsnr" v="64688" />
	</node>
	<node lat="59.53693139707634" lon="10.748812334946734" id="-28444">
		<tag k="alt_name" v="Vines, nordre;Vines nordre" />
		<tag k="fixme" v="consider place=hamlet" />
		<tag k="name" v="Nordre Vines" />
		<tag k="place" v="farm" />
		<tag k="ssr:stedsnr" v="65015" />
	</node>
	<node lat="59.58372777751497" lon="10.83218611650899" id="-28445">
		<tag k="name" v="Grønlia" />
		<tag k="place" v="farm" />
		<tag k="ssr:stedsnr" v="65165" />
	</node>
	<node lat="59.55967222610057" lon="10.775491671597567" id="-28447">
		<tag k="name" v="Bergli" />
		<tag k="place" v="hamlet" />
		<tag k="ssr:stedsnr" v="83176" />
	</node>
	<node lat="59.49456111014959" lon="10.708075000648158" id="-28448">
		<tag k="alt_name" v="Rød søndre" />
		<tag k="name" v="Søndre Rød" />
		<tag k="place" v="farm" />
		<tag k="ssr:stedsnr" v="117628" />
	</node>
	<node lat="59.618331873385316" lon="10.72521551518217" id="-28453">
		<tag k="fixme" v="consider place=hamlet" />
		<tag k="loc_name" v="Jegstad" />
		<tag k="name" v="Gjekstad" />
		<tag k="place" v="farm" />
		<tag k="ssr:stedsnr" v="124287" />
	</node>
	<node lat="59.6205027734249" lon="10.818391659210576" id="-28454">
		<tag k="name" v="Teigen" />
		<tag k="place" v="farm" />
		<tag k="ssr:stedsnr" v="124296" />
	</node>
	<node lat="59.55029166801885" lon="10.716522218249818" id="-28455">
		<tag k="name" v="Dyrendal" />
		<tag k="place" v="farm" />
		<tag k="ssr:stedsnr" v="124498" />
	</node>
	<node lat="59.54073611097228" lon="10.70950833810375" id="-28456">
		<tag k="name" v="Finstad" />
		<tag k="place" v="farm" />
		<tag k="ssr:stedsnr" v="124476" />
	</node>
	<node lat="59.607086082498206" lon="10.654260451581836" id="-28457">
		<tag k="fixme" v="consider place=hamlet" />
		<tag k="name" v="Ramme" />
		<tag k="place" v="farm" />
		<tag k="ssr:stedsnr" v="124574" />
	</node>
	<node lat="59.48444882005601" lon="10.723446078108703" id="-28458">
		<tag k="fixme" v="consider place=hamlet" />
		<tag k="name" v="Mørk" />
		<tag k="place" v="farm" />
		<tag k="ssr:stedsnr" v="124627" />
	</node>
	<node lat="59.552616670049346" lon="10.717261106311899" id="-28459">
		<tag k="name" v="Kolåsbråten" />
		<tag k="place" v="farm" />
		<tag k="ssr:stedsnr" v="124628" />
	</node>
	<node lat="59.50458799175058" lon="10.761753761839424" id="-28460">
		<tag k="fixme" v="consider place=hamlet" />
		<tag k="name" v="Vandrås" />
		<tag k="place" v="farm" />
		<tag k="ssr:stedsnr" v="125094" />
	</node>
	<node lat="59.59277221979575" lon="10.684799992691275" id="-28461">
		<tag k="name" v="Solberg" />
		<tag k="place" v="farm" />
		<tag k="ssr:stedsnr" v="124696" />
	</node>
	<node lat="59.59188611188891" lon="10.746608341054747" id="-28462">
		<tag k="name" v="Sønsteby" />
		<tag k="place" v="farm" />
		<tag k="ssr:stedsnr" v="125134" />
	</node>
	<node lat="59.59841111467163" lon="10.840763883887464" id="-28463">
		<tag k="name" v="Hestvetødegården" />
		<tag k="place" v="farm" />
		<tag k="ssr:stedsnr" v="125138" />
	</node>
	<node lat="59.58283333617091" lon="10.791813897198038" id="-28464">
		<tag k="alt_name" v="Bjørkeskog;Bjerkeskog" />
		<tag k="name" v="Bjerkeskau" />
		<tag k="place" v="farm" />
		<tag k="ssr:stedsnr" v="125178" />
	</node>
	<node lat="59.57876958475246" lon="10.732606639339792" id="-28465">
		<tag k="alt_name" v="Rustad" />
		<tag k="name" v="Søndre Rustad" />
		<tag k="place" v="farm" />
		<tag k="ssr:stedsnr" v="125194" />
	</node>
	<node lat="59.579599998960944" lon="10.729608329464487" id="-28466">
		<tag k="name" v="Rødsbråten" />
		<tag k="place" v="farm" />
		<tag k="ssr:stedsnr" v="125195" />
	</node>
	<node lat="59.62051944542149" lon="10.739644443405957" id="-28468">
		<tag k="name" v="Verpet" />
		<tag k="place" v="village" />
		<tag k="ssr:stedsnr" v="143216" />
	</node>
	<node lat="59.5602555580644" lon="10.783822217512226" id="-28470">
		<tag k="name" v="Kullebunn" />
		<tag k="place" v="farm" />
		<tag k="ssr:stedsnr" v="143161" />
	</node>
	<node lat="59.56350555736664" lon="10.73673611274865" id="-28472">
		<tag k="name" v="Fløyta" />
		<tag k="old_name" v="Fløiten;Flöjta" />
		<tag k="place" v="farm" />
		<tag k="ssr:stedsnr" v="176234" />
	</node>
	<node lat="59.59753851967835" lon="10.706874917658658" id="-28474">
		<tag k="amenity" v="school" />
		<tag k="name" v="Bjørlien barneskole" />
		<tag k="ssr:stedsnr" v="178124" />
	</node>
	<node lat="59.53406667079128" lon="10.705863881483515" id="-28476">
		<tag k="name" v="Århus" />
		<tag k="place" v="hamlet" />
		<tag k="ssr:stedsnr" v="178272" />
	</node>
	<node lat="59.48638889273289" lon="10.716880553119685" id="-28477">
		<tag k="name" v="Vestjordet" />
		<tag k="place" v="locality" />
		<tag k="ssr:stedsnr" v="178601" />
	</node>
	<node lat="59.607988892100494" lon="10.72761110476934" id="-28487">
		<tag k="name" v="Hagen" />
		<tag k="place" v="farm" />
		<tag k="ssr:stedsnr" v="185349" />
	</node>
	<node lat="59.547678995128784" lon="10.684024301015974" id="-28488">
		<tag k="fixme" v="consider place=hamlet" />
		<tag k="name" v="Roastad" />
		<tag k="place" v="farm" />
		<tag k="ssr:stedsnr" v="185501" />
	</node>
	<node lat="59.598323780973836" lon="10.793249935641335" id="-28489">
		<tag k="alt_name" v="Jeksrud;Gjeksrud" />
		<tag k="fixme" v="consider place=hamlet" />
		<tag k="name" v="Gjeksrød" />
		<tag k="place" v="farm" />
		<tag k="ssr:stedsnr" v="186144" />
	</node>
	<node lat="59.57636944182412" lon="10.775730547755941" id="-28490">
		<tag k="alt_name" v="Rustad, midtre" />
		<tag k="name" v="Midtre Rustad" />
		<tag k="place" v="farm" />
		<tag k="ssr:stedsnr" v="186154" />
	</node>
	<node lat="59.56660973860321" lon="10.749752183455286" id="-28491">
		<tag k="name" v="Nedre Langli" />
		<tag k="place" v="farm" />
		<tag k="ssr:stedsnr" v="204145" />
	</node>
	<node lat="59.50853610886587" lon="10.720436105337797" id="-28494">
		<tag k="name" v="Tegnebyengen" />
		<tag k="place" v="farm" />
		<tag k="ssr:stedsnr" v="205071" />
	</node>
	<node lat="59.54628611416333" lon="10.69503611662378" id="-28495">
		<tag k="name" v="Mellom-Mørk" />
		<tag k="place" v="farm" />
		<tag k="ssr:stedsnr" v="207178" />
	</node>
	<node lat="59.60457499859631" lon="10.655174998824785" id="-28496">
		<tag k="name" v="Rammebråten" />
		<tag k="place" v="farm" />
		<tag k="ssr:stedsnr" v="207006" />
	</node>
	<node lat="59.58698332993434" lon="10.666302782224253" id="-28497">
		<tag k="name" v="Tolvstua" />
		<tag k="place" v="isolated_dwelling" />
		<tag k="ssr:stedsnr" v="208942" />
	</node>
	<node lat="59.566194442190515" lon="10.652238883798523" id="-28499">
		<tag k="alt_name" v="Ingerløkka" />
		<tag k="name" v="Ingersløkka" />
		<tag k="place" v="farm" />
		<tag k="ssr:stedsnr" v="210883" />
	</node>
	<node lat="59.57788889251946" lon="10.736741675266346" id="-28501">
		<tag k="name" v="Vestli" />
		<tag k="place" v="isolated_dwelling" />
		<tag k="ssr:stedsnr" v="265177" />
	</node>
	<node lat="59.54222499669944" lon="10.722780561974082" id="-28502">
		<tag k="alt_name" v="Gjølstad nordre" />
		<tag k="name" v="Nordre Gjølstad" />
		<tag k="place" v="farm" />
		<tag k="ssr:stedsnr" v="267072" />
	</node>
	<node lat="59.61468888522505" lon="10.652341674496336" id="-28506">
		<tag k="name" v="Elven" />
		<tag k="place" v="farm" />
		<tag k="ssr:stedsnr" v="299255" />
	</node>
	<node lat="59.574893241648134" lon="10.83154073482158" id="-28507">
		<tag k="fixme" v="consider place=hamlet" />
		<tag k="name" v="Tom" />
		<tag k="place" v="farm" />
		<tag k="ssr:stedsnr" v="299320" />
	</node>
	<node lat="59.49609444529553" lon="10.692361115301773" id="-28508">
		<tag k="name" v="Lundeåsen" />
		<tag k="place" v="quarter" />
		<tag k="ssr:stedsnr" v="299465" />
	</node>
	<node lat="59.62035487237201" lon="10.711677121379308" id="-28515">
		<tag k="alt_name" v="Skau" />
		<tag k="fixme" v="consider place=hamlet" />
		<tag k="name" v="Skog" />
		<tag k="place" v="farm" />
		<tag k="ssr:stedsnr" v="306610" />
	</node>
	<node lat="59.61524998977869" lon="10.696559772568214" id="-28516">
		<tag k="fixme" v="consider place=hamlet" />
		<tag k="name" v="Grønberg" />
		<tag k="place" v="farm" />
		<tag k="ssr:stedsnr" v="306611" />
	</node>
	<node lat="59.588216663243" lon="10.725941670909739" id="-28517">
		<tag k="name" v="Lybekk" />
		<tag k="place" v="farm" />
		<tag k="ssr:stedsnr" v="307194" />
	</node>
	<node lat="59.588933330135596" lon="10.708041666334628" id="-28518">
		<tag k="name" v="Trollerud" />
		<tag k="place" v="farm" />
		<tag k="ssr:stedsnr" v="306725" />
	</node>
	<node lat="59.521077777403114" lon="10.744630554474876" id="-28519">
		<tag k="alt_name" v="Ek;Ek søndre" />
		<tag k="name" v="Søndre Ek" />
		<tag k="place" v="farm" />
		<tag k="ssr:stedsnr" v="307039" />
	</node>
	<node lat="59.54190833016744" lon="10.722280547966793" id="-28520">
		<tag k="name" v="Gjølstad" />
		<tag k="place" v="farm" />
		<tag k="ssr:stedsnr" v="307041" />
	</node>
	<node lat="59.59428374945243" lon="10.742534026120689" id="-28521">
		<tag k="fixme" v="consider place=hamlet" />
		<tag k="name" v="Deli" />
		<tag k="place" v="farm" />
		<tag k="ssr:stedsnr" v="307138" />
	</node>
	<node lat="59.5871000038871" lon="10.792249997923026" id="-28522">
		<tag k="name" v="Tuftebråten" />
		<tag k="place" v="farm" />
		<tag k="ssr:stedsnr" v="307140" />
	</node>
	<node lat="59.591691670226304" lon="10.780999996458124" id="-28523">
		<tag k="name" v="Engene" />
		<tag k="place" v="farm" />
		<tag k="ssr:stedsnr" v="307141" />
	</node>
	<node lat="59.60337254001132" lon="10.744833654037182" id="-28524">
		<tag k="alt_name" v="Søndre Randem;Randum, søndre" />
		<tag k="name" v="Søndre Randum" />
		<tag k="place" v="farm" />
		<tag k="ssr:stedsnr" v="307153" />
	</node>
	<node lat="59.567650360897076" lon="10.772650855476138" id="-28525">
		<tag k="alt_name" v="Rogsti, søndre" />
		<tag k="name" v="Søndre Rogsti" />
		<tag k="place" v="farm" />
		<tag k="ssr:stedsnr" v="307225" />
	</node>
	<node lat="59.57652500130305" lon="10.833550004618564" id="-28526">
		<tag k="alt_name" v="Tom, nordre;Tom nordre;Tom;Tom lille;Lille Tom" />
		<tag k="name" v="Nordre Tom" />
		<tag k="place" v="farm" />
		<tag k="ssr:stedsnr" v="307244" />
	</node>
	<node lat="59.52656666489691" lon="10.724869448572615" id="-28530">
		<tag k="name" v="Mortenshytta" />
		<tag k="place" v="isolated_dwelling" />
		<tag k="ssr:stedsnr" v="326111" />
	</node>
	<node lat="59.587238614743846" lon="10.817904409155675" id="-28532">
		<tag k="alt_name" v="Kjærstad østre" />
		<tag k="fixme" v="consider place=hamlet" />
		<tag k="name" v="Østre Kjærstad" />
		<tag k="place" v="farm" />
		<tag k="ssr:stedsnr" v="326149" />
	</node>
	<node lat="59.57860277782085" lon="10.804591670522345" id="-28533">
		<tag k="alt_name" v="Garder søndre" />
		<tag k="name" v="Søndre Garder" />
		<tag k="place" v="farm" />
		<tag k="ssr:stedsnr" v="326153" />
	</node>
	<node lat="59.57752777471442" lon="10.811372225268068" id="-28534">
		<tag k="name" v="Solli" />
		<tag k="place" v="farm" />
		<tag k="ssr:stedsnr" v="326161" />
	</node>
	<node lat="59.554380551344885" lon="10.740527779450215" id="-28536">
		<tag k="name" v="Bruerløkka" />
		<tag k="place" v="farm" />
		<tag k="ssr:stedsnr" v="326185" />
	</node>
	<node lat="59.55875555364752" lon="10.77625833104753" id="-28537">
		<tag k="name" v="Bakketun" />
		<tag k="place" v="farm" />
		<tag k="ssr:stedsnr" v="326191" />
	</node>
	<node lat="59.60901388578651" lon="10.779149999356521" id="-28538">
		<tag k="name" v="Juskerud" />
		<tag k="place" v="farm" />
		<tag k="ssr:stedsnr" v="326780" />
	</node>
	<node lat="59.58743611109114" lon="10.846097219476949" id="-28539">
		<tag k="name" v="Hallehytta" />
		<tag k="place" v="farm" />
		<tag k="ssr:stedsnr" v="326769" />
	</node>
	<node lat="59.53114764681071" lon="10.70220676604114" id="-28541">
		<tag k="alt_name" v="Labo nordre;Nordre Labo" />
		<tag k="fixme" v="consider place=hamlet" />
		<tag k="name" v="Nordre Labu" />
		<tag k="place" v="farm" />
		<tag k="ssr:stedsnr" v="359401" />
	</node>
	<node lat="59.60507222006138" lon="10.712919446568291" id="-28542">
		<tag k="name" v="Skogmo" />
		<tag k="place" v="isolated_dwelling" />
		<tag k="ssr:stedsnr" v="360099" />
	</node>
	<node lat="59.57858888565355" lon="10.745994441039928" id="-28543">
		<tag k="name" v="Vestby næringspark øst" />
		<tag k="place" v="quarter" />
		<tag k="ssr:stedsnr" v="359956" />
	</node>
	<node lat="59.55426388628034" lon="10.66332223078112" id="-28544">
		<tag k="name" v="Furubråten" />
		<tag k="place" v="locality" />
		<tag k="ssr:stedsnr" v="361556" />
	</node>
	<node lat="59.58744721799602" lon="10.69321110335313" id="-28545">
		<tag k="alt_name" v="Rønjul nedre" />
		<tag k="name" v="Nedre Rønjul" />
		<tag k="place" v="farm" />
		<tag k="ssr:stedsnr" v="361716" />
	</node>
	<node lat="59.51627587960484" lon="10.715866786189235" id="-28556">
		<tag k="alt_name" v="Grimsrud" />
		<tag k="fixme" v="consider place=hamlet" />
		<tag k="name" v="Grimsrød" />
		<tag k="place" v="farm" />
		<tag k="ssr:stedsnr" v="367025" />
	</node>
	<node lat="59.51005694944022" lon="10.695834122476027" id="-28557">
		<tag k="name" v="Brevikmyra" />
		<tag k="place" v="farm" />
		<tag k="ssr:stedsnr" v="367463" />
	</node>
	<node lat="59.55852777633657" lon="10.682538890959256" id="-28559">
		<tag k="alt_name" v="Karterød" />
		<tag k="fixme" v="consider place=hamlet" />
		<tag k="name" v="Karterud" />
		<tag k="place" v="farm" />
		<tag k="ssr:stedsnr" v="367670" />
	</node>
	<node lat="59.557633036405775" lon="10.695284189935322" id="-28560">
		<tag k="name" v="Erikstad" />
		<tag k="place" v="hamlet" />
		<tag k="ssr:stedsnr" v="367677" />
	</node>
	<node lat="59.58393888661039" lon="10.703377769012608" id="-28561">
		<tag k="name" v="Berg" />
		<tag k="place" v="farm" />
		<tag k="ssr:stedsnr" v="367719" />
	</node>
	<node lat="59.539836107507554" lon="10.739188884944317" id="-28562">
		<tag k="name" v="Hølen" />
		<tag k="place" v="village" />
		<tag k="ssr:stedsnr" v="368022" />
	</node>
	<node lat="59.53265066179041" lon="10.752463967538779" id="-28563">
		<tag k="alt_name" v="Vines, søndre;Vines søndre" />
		<tag k="fixme" v="consider place=hamlet" />
		<tag k="name" v="Søndre Vines" />
		<tag k="place" v="farm" />
		<tag k="ssr:stedsnr" v="368025" />
	</node>
	<node lat="59.588533333215906" lon="10.833233332373316" id="-28564">
		<tag k="alt_name" v="Hestvet;Hestvet vestre" />
		<tag k="name" v="Vestre Hestvet" />
		<tag k="place" v="farm" />
		<tag k="ssr:stedsnr" v="368027" />
	</node>
	<node lat="59.59881075611998" lon="10.733681484668443" id="-28565">
		<tag k="fixme" v="consider place=hamlet" />
		<tag k="name" v="Revhaug" />
		<tag k="place" v="farm" />
		<tag k="ssr:stedsnr" v="368167" />
	</node>
	<node lat="59.59977222523082" lon="10.83382777101619" id="-28566">
		<tag k="alt_name" v="Topper, østre;Topper østre" />
		<tag k="name" v="Østre Topper" />
		<tag k="place" v="farm" />
		<tag k="ssr:stedsnr" v="368170" />
	</node>
	<node lat="59.58265277381624" lon="10.813466668579563" id="-28568">
		<tag k="name" v="Hov" />
		<tag k="place" v="farm" />
		<tag k="ssr:stedsnr" v="386168" />
	</node>
	<node lat="59.53902778232597" lon="10.773027770858604" id="-28569">
		<tag k="name" v="Gjestvang" />
		<tag k="place" v="isolated_dwelling" />
		<tag k="ssr:stedsnr" v="386107" />
	</node>
	<node lat="59.547805556527884" lon="10.773655558475783" id="-28570">
		<tag k="name" v="Slottebråten" />
		<tag k="place" v="farm" />
		<tag k="ssr:stedsnr" v="386124" />
	</node>
	<node lat="59.526030553957234" lon="10.752344449233615" id="-28571">
		<tag k="alt_name" v="Såner ungd.skole" />
		<tag k="amenity" v="school" />
		<tag k="name" v="Såner ungdomsskole" />
		<tag k="ssr:stedsnr" v="386133" />
	</node>
	<node lat="59.57943333510175" lon="10.810291669120602" id="-28572">
		<tag k="name" v="Enerås" />
		<tag k="place" v="isolated_dwelling" />
		<tag k="ssr:stedsnr" v="386209" />
	</node>
	<node lat="59.571941668135544" lon="10.82625555765161" id="-28573">
		<tag k="alt_name" v="Tom lille" />
		<tag k="name" v="Lille Tom" />
		<tag k="place" v="farm" />
		<tag k="ssr:stedsnr" v="386235" />
	</node>
	<node lat="59.572216665679264" lon="10.797627772949978" id="-28574">
		<tag k="alt_name" v="Jordebru nordre" />
		<tag k="name" v="Nordre Jordebru" />
		<tag k="place" v="farm" />
		<tag k="ssr:stedsnr" v="386240" />
	</node>
	<node lat="59.55160833332339" lon="10.747599995032388" id="-28575">
		<tag k="name" v="Bylterudmyra" />
		<tag k="place" v="farm" />
		<tag k="ssr:stedsnr" v="387137" />
	</node>
	<node lat="59.53915304088357" lon="10.760670183761519" id="-28579">
		<tag k="alt_name" v="Auerød" />
		<tag k="name" v="Søndre Auerud" />
		<tag k="place" v="farm" />
		<tag k="ssr:stedsnr" v="418022" />
	</node>
	<node lat="59.525455556391954" lon="10.705499996599407" id="-28580">
		<tag k="name" v="Deør skog" />
		<tag k="place" v="quarter" />
		<tag k="ssr:stedsnr" v="420424" />
	</node>
	<node lat="59.53602778128022" lon="10.715833338424755" id="-28581">
		<tag k="name" v="Stavsenga" />
		<tag k="place" v="locality" />
		<tag k="ssr:stedsnr" v="421274" />
	</node>
	<node lat="59.59718333189188" lon="10.754613880928595" id="-28585">
		<tag k="amenity" v="school" />
		<tag k="name" v="Vestby arena" />
		<tag k="ssr:stedsnr" v="422066" />
	</node>
	<node lat="59.58920277710903" lon="10.692874997832455" id="-28586">
		<tag k="name" v="Nordre Rønjul" />
		<tag k="place" v="farm" />
		<tag k="ssr:stedsnr" v="422696" />
	</node>
	<node lat="59.6292420517896" lon="10.68915882607913" id="-28602">
		<tag k="fixme" v="consider place=hamlet" />
		<tag k="name" v="Pytt" />
		<tag k="place" v="farm" />
		<tag k="ssr:stedsnr" v="428642" />
	</node>
	<node lat="59.591347226071626" lon="10.679111103938034" id="-28603">
		<tag k="name" v="Strandsødegarden" />
		<tag k="place" v="farm" />
		<tag k="ssr:stedsnr" v="428733" />
	</node>
	<node lat="59.49962942653055" lon="10.746928396134079" id="-28605">
		<tag k="alt_name" v="Grefsrud" />
		<tag k="fixme" v="consider place=hamlet" />
		<tag k="name" v="Grefsrød" />
		<tag k="place" v="farm" />
		<tag k="ssr:stedsnr" v="428662" />
	</node>
	<node lat="59.49753055356025" lon="10.708455561476592" id="-28606">
		<tag k="alt_name" v="Rød vestre" />
		<tag k="fixme" v="multiple name tags, choose one and add the other to alt_name" />
		<tag k="name" v="Opp-Rød;Vestre Rød" />
		<tag k="place" v="farm" />
		<tag k="ssr:stedsnr" v="480435" />
	</node>
	<node lat="59.600458336691496" lon="10.701041661149826" id="-28608">
		<tag k="name" v="Habbelen" />
		<tag k="place" v="locality" />
		<tag k="ssr:stedsnr" v="481153" />
	</node>
	<node lat="59.5152555590547" lon="10.681655555103797" id="-28611">
		<tag k="name" v="Villa Holland" />
		<tag k="place" v="isolated_dwelling" />
		<tag k="ssr:stedsnr" v="481448" />
	</node>
	<node lat="59.51805278000305" lon="10.696661109518281" id="-28612">
		<tag k="leisure" v="pitch" />
		<tag k="name" v="Grevlingen" />
		<tag k="ssr:stedsnr" v="481450" />
	</node>
	<node lat="59.62409166575909" lon="10.70147500107003" id="-28614">
		<tag k="name" v="Galbybråten" />
		<tag k="place" v="locality" />
		<tag k="ssr:stedsnr" v="483169" />
	</node>
	<node lat="59.619149997400356" lon="10.710744436553616" id="-28615">
		<tag k="alt_name" v="Skau vestre;Vestre Skog" />
		<tag k="name" v="Vestre Skau" />
		<tag k="place" v="farm" />
		<tag k="ssr:stedsnr" v="483176" />
	</node>
	<node lat="59.579069251024585" lon="10.67336084481263" id="-28619">
		<tag k="fixme" v="consider place=hamlet" />
		<tag k="name" v="Torp" />
		<tag k="place" v="farm" />
		<tag k="ssr:stedsnr" v="483738" />
	</node>
	<node lat="59.57759999775025" lon="10.651883338035248" id="-28620">
		<tag k="name" v="Søndre Brånen" />
		<tag k="place" v="farm" />
		<tag k="ssr:stedsnr" v="483563" />
	</node>
	<node lat="59.58032500265797" lon="10.670133327148331" id="-28621">
		<tag k="name" v="Vestre Torp" />
		<tag k="place" v="farm" />
		<tag k="ssr:stedsnr" v="483798" />
	</node>
	<node lat="59.627903489104234" lon="10.737981041405897" id="-28635">
		<tag k="alt_name" v="Rød" />
		<tag k="fixme" v="consider place=hamlet" />
		<tag k="name" v="Nordre Rød" />
		<tag k="place" v="farm" />
		<tag k="ssr:stedsnr" v="488285" />
	</node>
	<node lat="59.609707049953585" lon="10.736983006759534" id="-28636">
		<tag k="fixme" v="consider place=hamlet" />
		<tag k="name" v="Kleiver" />
		<tag k="place" v="farm" />
		<tag k="ssr:stedsnr" v="488339" />
	</node>
	<node lat="59.61020675476585" lon="10.77018926307791" id="-28637">
		<tag k="name" v="Kjensli" />
		<tag k="place" v="farm" />
		<tag k="ssr:stedsnr" v="488349" />
	</node>
	<node lat="59.59184166655527" lon="10.701280550747368" id="-28639">
		<tag k="alt_name" v="Bjørnstad" />
		<tag k="fixme" v="consider place=hamlet" />
		<tag k="name" v="Bjørnestad" />
		<tag k="place" v="farm" />
		<tag k="ssr:stedsnr" v="488729" />
	</node>
	<node lat="59.551332939429024" lon="10.685025088053848" id="-28640">
		<tag k="fixme" v="consider place=hamlet" />
		<tag k="name" v="Arnestad" />
		<tag k="place" v="farm" />
		<tag k="ssr:stedsnr" v="488675" />
	</node>
	<node lat="59.56177777513018" lon="10.717194443344797" id="-28641">
		<tag k="name" v="Tømtbråten" />
		<tag k="place" v="farm" />
		<tag k="ssr:stedsnr" v="488681" />
	</node>
	<node lat="59.51091198736339" lon="10.727736125859499" id="-28642">
		<tag k="fixme" v="consider place=hamlet" />
		<tag k="name" v="Gate" />
		<tag k="place" v="farm" />
		<tag k="ssr:stedsnr" v="489046" />
	</node>
	<node lat="59.60670833771012" lon="10.769661104504834" id="-28643">
		<tag k="alt_name" v="Ålerød, nordre;Ålerud nordre" />
		<tag k="name" v="Nordre Ålerød" />
		<tag k="place" v="farm" />
		<tag k="ssr:stedsnr" v="489160" />
	</node>
	<node lat="59.51950555675404" lon="10.737177785824544" id="-28644">
		<tag k="alt_name" v="Ulfski østre" />
		<tag k="name" v="Østre Ulfski" />
		<tag k="place" v="farm" />
		<tag k="ssr:stedsnr" v="508140" />
	</node>
	<node lat="59.52874939588873" lon="10.755292060294023" id="-28645">
		<tag k="fixme" v="consider place=hamlet" />
		<tag k="name" v="Såner" />
		<tag k="place" v="farm" />
		<tag k="ssr:stedsnr" v="508146" />
	</node>
	<node lat="59.58161944729765" lon="10.808063889509276" id="-28646">
		<tag k="alt_name" v="Garder vestre" />
		<tag k="name" v="Vestre Garder" />
		<tag k="place" v="farm" />
		<tag k="ssr:stedsnr" v="508158" />
	</node>
	<node lat="59.575261106823305" lon="10.800294440798224" id="-28647">
		<tag k="name" v="Skogheim" />
		<tag k="place" v="isolated_dwelling" />
		<tag k="ssr:stedsnr" v="508162" />
	</node>
	<node lat="59.578475003400555" lon="10.808680552989703" id="-28648">
		<tag k="name" v="Gardås" />
		<tag k="place" v="isolated_dwelling" />
		<tag k="ssr:stedsnr" v="508165" />
	</node>
	<node lat="59.57689166451422" lon="10.802022225458039" id="-28649">
		<tag k="name" v="Vesterbøl" />
		<tag k="place" v="isolated_dwelling" />
		<tag k="ssr:stedsnr" v="508166" />
	</node>
	<node lat="59.575831791128806" lon="10.736968256973885" id="-28650">
		<tag k="name" v="Bråten" />
		<tag k="place" v="farm" />
		<tag k="ssr:stedsnr" v="508167" />
	</node>
	<node lat="59.58334958724415" lon="10.772640228117295" id="-28658">
		<tag k="fixme" v="consider place=hamlet" />
		<tag k="name" v="Grønlund" />
		<tag k="place" v="farm" />
		<tag k="ssr:stedsnr" v="531177" />
	</node>
	<node lat="59.54909722242324" lon="10.686669450990802" id="-28659">
		<tag k="name" v="Eikås" />
		<tag k="place" v="isolated_dwelling" />
		<tag k="ssr:stedsnr" v="542266" />
	</node>
	<node lat="59.588083334306255" lon="10.658297216247835" id="-28662">
		<tag k="name" v="Utsikten" />
		<tag k="place" v="hamlet" />
		<tag k="ssr:stedsnr" v="543729" />
	</node>
	<node lat="59.58203888817835" lon="10.699597230052158" id="-28663">
		<tag k="name" v="Mogholt" />
		<tag k="place" v="farm" />
		<tag k="ssr:stedsnr" v="543752" />
	</node>
	<node lat="59.574708333217124" lon="10.711994449201578" id="-28664">
		<tag k="name" v="Svartedal" />
		<tag k="place" v="farm" />
		<tag k="ssr:stedsnr" v="543754" />
	</node>
	<node lat="59.563630552405215" lon="10.79415277558729" id="-28672">
		<tag k="name" v="Flisebru" />
		<tag k="place" v="farm" />
		<tag k="ssr:stedsnr" v="549197" />
	</node>
	<node lat="59.61117500170868" lon="10.779072220188672" id="-28673">
		<tag k="name" v="Kjenslimoen" />
		<tag k="place" v="farm" />
		<tag k="ssr:stedsnr" v="549369" />
	</node>
	<node lat="59.566052781649425" lon="10.688313888408775" id="-28674">
		<tag k="alt_name" v="Nubsrud" />
		<tag k="fixme" v="consider place=hamlet" />
		<tag k="name" v="Nubsrød" />
		<tag k="place" v="farm" />
		<tag k="ssr:stedsnr" v="549693" />
	</node>
	<node lat="59.52180833617088" lon="10.763211112035712" id="-28675">
		<tag k="alt_name" v="Østerud, søndre" />
		<tag k="name" v="Søndre Østerud" />
		<tag k="place" v="farm" />
		<tag k="ssr:stedsnr" v="550051" />
	</node>
	<node lat="59.6032213228729" lon="10.838686126273359" id="-28677">
		<tag k="alt_name" v="Topper, nordre;Topper nordre" />
		<tag k="name" v="Nordre Topper" />
		<tag k="place" v="farm" />
		<tag k="ssr:stedsnr" v="550144" />
	</node>
	<node lat="59.58909454304879" lon="10.811848955753543" id="-28680">
		<tag k="alt_name" v="Kjærstad vestre" />
		<tag k="fixme" v="consider place=hamlet" />
		<tag k="name" v="Vestre Kjærstad" />
		<tag k="place" v="farm" />
		<tag k="ssr:stedsnr" v="568158" />
	</node>
	<node lat="59.55901666821935" lon="10.774052783423052" id="-28681">
		<tag k="name" v="Slettebakke" />
		<tag k="place" v="farm" />
		<tag k="ssr:stedsnr" v="568195" />
	</node>
	<node lat="59.5647027779886" lon="10.805391672918775" id="-28682">
		<tag k="name" v="Bru" />
		<tag k="place" v="locality" />
		<tag k="ssr:stedsnr" v="568248" />
	</node>
	<node lat="59.60913333769971" lon="10.818849996855347" id="-28683">
		<tag k="name" v="Firemannsdelet" />
		<tag k="place" v="locality" />
		<tag k="ssr:stedsnr" v="568759" />
	</node>
	<node lat="59.551473581382666" lon="10.766646400756201" id="-28687">
		<tag k="fixme" v="consider place=hamlet" />
		<tag k="name" v="Åmot" />
		<tag k="place" v="farm" />
		<tag k="ssr:stedsnr" v="599376" />
	</node>
	<node lat="59.5453889558462" lon="10.761171726726753" id="-28688">
		<tag k="alt_name" v="Auerød" />
		<tag k="name" v="Nordre Auerud" />
		<tag k="place" v="farm" />
		<tag k="ssr:stedsnr" v="599207" />
	</node>
	<node lat="59.54863333492012" lon="10.68241666028192" id="-28689">
		<tag k="alt_name" v="Roastad øvre" />
		<tag k="name" v="Øvre Roastad" />
		<tag k="place" v="farm" />
		<tag k="ssr:stedsnr" v="602292" />
	</node>
	<node lat="59.60618888902063" lon="10.658338880282267" id="-28690">
		<tag k="name" v="Rugbråten" />
		<tag k="place" v="locality" />
		<tag k="ssr:stedsnr" v="602237" />
	</node>
	<node lat="59.52420277565849" lon="10.675399995993466" id="-28692">
		<tag k="name" v="Stamnes" />
		<tag k="place" v="farm" />
		<tag k="ssr:stedsnr" v="602426" />
	</node>
	<node lat="59.61032221979415" lon="10.694716675062642" id="-28695">
		<tag k="name" v="Haugtun" />
		<tag k="place" v="isolated_dwelling" />
		<tag k="ssr:stedsnr" v="604162" />
	</node>
	<node lat="59.580594447750016" lon="10.652422220366285" id="-28696">
		<tag k="name" v="Nordre Brånen" />
		<tag k="place" v="farm" />
		<tag k="ssr:stedsnr" v="604549" />
	</node>
	<node lat="59.62837499727155" lon="10.768311115879012" id="-28710">
		<tag k="name" v="Støttumtangen" />
		<tag k="place" v="farm" />
		<tag k="ssr:stedsnr" v="609323" />
	</node>
	<node lat="59.6204888848604" lon="10.737436102672365" id="-28711">
		<tag k="name" v="Verpet" />
		<tag k="place" v="farm" />
		<tag k="ssr:stedsnr" v="609337" />
	</node>
	<node lat="59.51825000294447" lon="10.705650007126254" id="-28712">
		<tag k="name" v="Sletta" />
		<tag k="place" v="farm" />
		<tag k="ssr:stedsnr" v="609481" />
	</node>
	<node lat="59.524786107771654" lon="10.67666667280412" id="-28713">
		<tag k="name" v="Laksa" />
		<tag k="place" v="farm" />
		<tag k="ssr:stedsnr" v="609485" />
	</node>
	<node lat="59.564213890517436" lon="10.651494449822504" id="-28714">
		<tag k="name" v="Krokstrand" />
		<tag k="place" v="isolated_dwelling" />
		<tag k="ssr:stedsnr" v="609677" />
	</node>
	<node lat="59.517777787871154" lon="10.770940308637783" id="-28715">
		<tag k="alt_name" v="Borgerud" />
		<tag k="fixme" v="consider place=hamlet" />
		<tag k="name" v="Borgerød" />
		<tag k="place" v="farm" />
		<tag k="ssr:stedsnr" v="610056" />
	</node>
	<node lat="59.54105000132144" lon="10.779038880185826" id="-28716">
		<tag k="alt_name" v="Holm, nordre;Holm nordre" />
		<tag k="name" v="Nordre Holm" />
		<tag k="place" v="farm" />
		<tag k="ssr:stedsnr" v="610026" />
	</node>
	<node lat="59.54509148725126" lon="10.751740297017799" id="-28717">
		<tag k="fixme" v="consider place=hamlet" />
		<tag k="name" v="Brandstad" />
		<tag k="place" v="farm" />
		<tag k="ssr:stedsnr" v="610268" />
	</node>
	<node lat="59.5401540197523" lon="10.689930204504384" id="-28718">
		<tag k="fixme" v="consider place=hamlet" />
		<tag k="name" v="Kinne" />
		<tag k="old_name" v="Øvre Kinne" />
		<tag k="place" v="farm" />
		<tag k="ssr:stedsnr" v="610577" />
	</node>
	<node lat="59.58095277382994" lon="10.81194166401952" id="-28719">
		<tag k="alt_name" v="Hovum vestre" />
		<tag k="name" v="Vestre Hovum" />
		<tag k="place" v="farm" />
		<tag k="ssr:stedsnr" v="629161" />
	</node>
	<node lat="59.58268889082314" lon="10.817508330811245" id="-28720">
		<tag k="name" v="Hovtun" />
		<tag k="place" v="farm" />
		<tag k="ssr:stedsnr" v="629164" />
	</node>
	<node lat="59.580594446686355" lon="10.813216672752601" id="-28721">
		<tag k="alt_name" v="Hovum østre" />
		<tag k="name" v="Østre Hovum" />
		<tag k="place" v="farm" />
		<tag k="ssr:stedsnr" v="629166" />
	</node>
	<node lat="59.585097225868346" lon="10.803288896263453" id="-28722">
		<tag k="name" v="Haga" />
		<tag k="place" v="farm" />
		<tag k="ssr:stedsnr" v="629168" />
	</node>
	<node lat="59.58306388935759" lon="10.770949992586596" id="-28723">
		<tag k="alt_name" v="Grønlund søndre;Grønlund" />
		<tag k="name" v="Søndre Grønlund" />
		<tag k="place" v="farm" />
		<tag k="ssr:stedsnr" v="629174" />
	</node>
	<node lat="59.58169721982909" lon="10.783811116772016" id="-28724">
		<tag k="name" v="Rustadbråten" />
		<tag k="place" v="farm" />
		<tag k="ssr:stedsnr" v="629185" />
	</node>
	<node lat="59.60351111232537" lon="10.733566673797254" id="-28725">
		<tag k="name" v="Prestegården" />
		<tag k="place" v="farm" />
		<tag k="ssr:stedsnr" v="629772" />
	</node>
	<node lat="59.632041663681065" lon="10.78830833337807" id="-28726">
		<tag k="alt_name" v="Tveter nordre" />
		<tag k="name" v="Nordre Tveter" />
		<tag k="place" v="farm" />
		<tag k="ssr:stedsnr" v="629781" />
	</node>
	<node lat="59.541980557333815" lon="10.664574992526825" id="-28731">
		<tag k="name" v="Sofienberg" />
		<tag k="place" v="isolated_dwelling" />
		<tag k="ssr:stedsnr" v="724237" />
	</node>
	<node lat="59.61616388739576" lon="10.729277776969823" id="-28741">
		<tag k="fixme" v="consider place=hamlet" />
		<tag k="name" v="Li" />
		<tag k="place" v="farm" />
		<tag k="ssr:stedsnr" v="731292" />
	</node>
	<node lat="59.62371311874955" lon="10.744348967827777" id="-28742">
		<tag k="fixme" v="consider place=hamlet" />
		<tag k="name" v="Revling" />
		<tag k="place" v="farm" />
		<tag k="ssr:stedsnr" v="731293" />
	</node>
	<node lat="59.61460833756126" lon="10.68821388910333" id="-28745">
		<tag k="alt_name" v="Toverud, nedre" />
		<tag k="name" v="Nedre Toverud" />
		<tag k="place" v="farm" />
		<tag k="ssr:stedsnr" v="731597" />
	</node>
	<node lat="59.58271667075894" lon="10.835516663173127" id="-28746">
		<tag k="name" v="Jonsrud" />
		<tag k="place" v="farm" />
		<tag k="ssr:stedsnr" v="732183" />
	</node>
	<node lat="59.508102777299975" lon="10.74480278520486" id="-28747">
		<tag k="alt_name" v="Langerød, søndre;Langerud søndre;Søndre Langerød" />
		<tag k="name" v="Søndre Langerud" />
		<tag k="place" v="farm" />
		<tag k="ssr:stedsnr" v="732042" />
	</node>
	<node lat="59.583674998589615" lon="10.752908334654707" id="-28748">
		<tag k="alt_name" v="Røddal østre" />
		<tag k="name" v="Østre Røddal" />
		<tag k="place" v="farm" />
		<tag k="ssr:stedsnr" v="750135" />
	</node>
	<node lat="59.58424444394864" lon="10.772286118913515" id="-28749">
		<tag k="alt_name" v="Grønlund nordre" />
		<tag k="name" v="Nordre Grønlund" />
		<tag k="place" v="farm" />
		<tag k="ssr:stedsnr" v="750137" />
	</node>
	<node lat="59.5634444441459" lon="10.765152772328712" id="-28750">
		<tag k="name" v="Bråten" />
		<tag k="place" v="farm" />
		<tag k="ssr:stedsnr" v="750156" />
	</node>
	<node lat="59.54650941900073" lon="10.763739391078033" id="-28751">
		<tag k="alt_name" v="Åmot lille" />
		<tag k="fixme" v="consider place=hamlet" />
		<tag k="name" v="Lille Åmot" />
		<tag k="place" v="farm" />
		<tag k="ssr:stedsnr" v="750092" />
	</node>
	<node lat="59.58925277500258" lon="10.856866674769552" id="-28753">
		<tag k="alt_name" v="Halle østre" />
		<tag k="name" v="Østre Halle" />
		<tag k="place" v="farm" />
		<tag k="ssr:stedsnr" v="750744" />
	</node>
	<node lat="59.60457560504181" lon="10.740875464290996" id="-28757">
		<tag k="fixme" v="consider place=hamlet" />
		<tag k="name" v="Randum" />
		<tag k="place" v="farm" />
		<tag k="ssr:stedsnr" v="782561" />
	</node>
	<node lat="59.54699444222047" lon="10.6853777766574" id="-28760">
		<tag k="alt_name" v="Roastad nedre" />
		<tag k="name" v="Nedre Roastad" />
		<tag k="place" v="farm" />
		<tag k="ssr:stedsnr" v="784288" />
	</node>
	<node lat="59.61050555872244" lon="10.693644447874282" id="-28761">
		<tag k="name" v="Solheim" />
		<tag k="place" v="isolated_dwelling" />
		<tag k="ssr:stedsnr" v="786141" />
	</node>
	<node lat="59.55788055258594" lon="10.663005550279207" id="-28762">
		<tag k="name" v="Snellum" />
		<tag k="place" v="locality" />
		<tag k="ssr:stedsnr" v="786547" />
	</node>
	<node lat="59.59434867578859" lon="10.691023681843769" id="-28764">
		<tag k="fixme" v="consider place=hamlet" />
		<tag k="name" v="Filtvet" />
		<tag k="place" v="farm" />
		<tag k="ssr:stedsnr" v="786744" />
	</node>
	<node lat="59.63423799423216" lon="10.731039812240239" id="-28771">
		<tag k="fixme" v="consider place=hamlet" />
		<tag k="name" v="Jord" />
		<tag k="place" v="farm" />
		<tag k="ssr:stedsnr" v="791288" />
	</node>
	<node lat="59.60951944295437" lon="10.715213885193641" id="-28773">
		<tag k="alt_name" v="Hannastad" />
		<tag k="name" v="Hannestad" />
		<tag k="place" v="farm" />
		<tag k="ssr:stedsnr" v="792620" />
	</node>
	<node lat="59.556361111298635" lon="10.653511115822221" id="-28774">
		<tag k="name" v="Lunde" />
		<tag k="place" v="farm" />
		<tag k="ssr:stedsnr" v="792667" />
	</node>
	<node lat="59.518898642019245" lon="10.731612933505195" id="-28775">
		<tag k="fixme" v="consider place=hamlet" />
		<tag k="name" v="Ulfski" />
		<tag k="place" v="farm" />
		<tag k="ssr:stedsnr" v="793045" />
	</node>
	<node lat="59.57105962216988" lon="10.729372011703" id="-28777">
		<tag k="alt_name" v="Glemme" />
		<tag k="fixme" v="consider place=hamlet" />
		<tag k="name" v="Glenne" />
		<tag k="place" v="farm" />
		<tag k="ssr:stedsnr" v="793219" />
	</node>
	<node lat="59.57942494903704" lon="10.795620814469702" id="-28778">
		<tag k="fixme" v="consider place=hamlet" />
		<tag k="name" v="Presterud" />
		<tag k="place" v="farm" />
		<tag k="ssr:stedsnr" v="793170" />
	</node>
	<node lat="59.50612777511812" lon="10.762311109472297" id="-28779">
		<tag k="alt_name" v="Vandrås østre" />
		<tag k="name" v="Østre Vandrås" />
		<tag k="place" v="farm" />
		<tag k="ssr:stedsnr" v="811070" />
	</node>
	<node lat="59.51983055845503" lon="10.734347215429285" id="-28781">
		<tag k="alt_name" v="Ulfski midtre" />
		<tag k="name" v="Midtre Ulfski" />
		<tag k="place" v="farm" />
		<tag k="ssr:stedsnr" v="811146" />
	</node>
	<node lat="59.590752779700324" lon="10.78993611709561" id="-28782">
		<tag k="name" v="Kullebunn" />
		<tag k="place" v="farm" />
		<tag k="ssr:stedsnr" v="811155" />
	</node>
	<node lat="59.58171389041" lon="10.81015833652889" id="-28783">
		<tag k="alt_name" v="Garder østre" />
		<tag k="name" v="Østre Garder" />
		<tag k="place" v="farm" />
		<tag k="ssr:stedsnr" v="811162" />
	</node>
	<node lat="59.57305277657066" lon="10.739119439964618" id="-28784">
		<tag k="name" v="Svingen" />
		<tag k="place" v="farm" />
		<tag k="ssr:stedsnr" v="811181" />
	</node>
	<node lat="59.57706944281032" lon="10.812877785042987" id="-28786">
		<tag k="name" v="Bjerkås" />
		<tag k="place" v="isolated_dwelling" />
		<tag k="ssr:stedsnr" v="811199" />
	</node>
	<node lat="59.568286111656946" lon="10.734336112588984" id="-28787">
		<tag k="alt_name" v="Vestby-Ødegården" />
		<tag k="fixme" v="consider place=hamlet" />
		<tag k="name" v="Ødegården" />
		<tag k="place" v="farm" />
		<tag k="ssr:stedsnr" v="811202" />
	</node>
	<node lat="59.62837222579117" lon="10.737599997977101" id="-28788">
		<tag k="alt_name" v="Rød nordre" />
		<tag k="name" v="Nordre Rød" />
		<tag k="place" v="farm" />
		<tag k="ssr:stedsnr" v="811214" />
	</node>
	<node lat="59.53899444361026" lon="10.743063886522165" id="-28790">
		<tag k="name" v="Sandengen" />
		<tag k="place" v="farm" />
		<tag k="ssr:stedsnr" v="812124" />
	</node>
	<node lat="59.53738719344128" lon="10.731241954776943" id="-28791">
		<tag k="fixme" v="consider place=hamlet" />
		<tag k="name" v="Knapstad" />
		<tag k="place" v="farm" />
		<tag k="ssr:stedsnr" v="812127" />
	</node>
	<node lat="59.594049999672855" lon="10.704083338838274" id="-28793">
		<tag k="name" v="Pepperstad skog" />
		<tag k="place" v="village" />
		<tag k="ssr:stedsnr" v="815132" />
	</node>
	<node lat="59.60356666668991" lon="10.759499993182299" id="-28798">
		<tag k="name" v="Sole skog" />
		<tag k="place" v="quarter" />
		<tag k="ssr:stedsnr" v="845957" />
	</node>
	<node lat="59.53667777553032" lon="10.67685000032495" id="-28799">
		<tag k="name" v="Stamneslund" />
		<tag k="place" v="farm" />
		<tag k="ssr:stedsnr" v="846271" />
	</node>
	<node lat="59.61915278227162" lon="10.711827775580291" id="-28800">
		<tag k="alt_name" v="Skau østre;Østre Skog" />
		<tag k="name" v="Østre Skau" />
		<tag k="place" v="farm" />
		<tag k="ssr:stedsnr" v="847159" />
	</node>
	<node lat="59.55347221909421" lon="10.654347218765773" id="-28802">
		<tag k="name" v="Stjernåsen" />
		<tag k="place" v="hamlet" />
		<tag k="ssr:stedsnr" v="847970" />
	</node>
	<node lat="59.5425954114073" lon="10.717758477157053" id="-28813">
		<tag k="fixme" v="consider place=hamlet" />
		<tag k="name" v="Gjølstad" />
		<tag k="place" v="farm" />
		<tag k="ssr:stedsnr" v="853535" />
	</node>
	<node lat="59.52321785269307" lon="10.751231228024" id="-28814">
		<tag k="fixme" v="consider place=hamlet" />
		<tag k="name" v="Råer" />
		<tag k="place" v="farm" />
		<tag k="ssr:stedsnr" v="854034" />
	</node>
	<node lat="59.571424570504405" lon="10.796800609125478" id="-28815">
		<tag k="name" v="Jordebru" />
		<tag k="place" v="locality" />
		<tag k="ssr:stedsnr" v="854199" />
	</node>
	<node lat="59.4867864420139" lon="10.722454505609209" id="-28816">
		<tag k="name" v="Ødemørk" />
		<tag k="place" v="farm" />
		<tag k="ssr:stedsnr" v="872051" />
	</node>
	<node lat="59.60224722375056" lon="10.747861117117145" id="-28817">
		<tag k="amenity" v="townhall" />
		<tag k="name" v="Herredshus" />
		<tag k="ssr:stedsnr" v="872774" />
	</node>
	<node lat="59.606302774416406" lon="10.755347227093429" id="-28818">
		<tag k="alt_name" v="Vestby v.g. skole" />
		<tag k="amenity" v="school" />
		<tag k="name" v="Vestby videregående skole" />
		<tag k="ssr:stedsnr" v="872812" />
	</node>
	<node lat="59.61139444050491" lon="10.653561112434552" id="-28819">
		<tag k="name" v="Pyttskog" />
		<tag k="place" v="neighbourhood" />
		<tag k="ssr:stedsnr" v="874548" />
	</node>
	<node lat="59.506849998359" lon="10.6933749967346" id="-28820">
		<tag k="fixme" v="consider place=suburb, village or hamlet" />
		<tag k="name" v="Store Brevik" />
		<tag k="place" v="quarter" />
		<tag k="ssr:stedsnr" v="875489" />
	</node>
	<node lat="59.58998888721839" lon="10.77019722653071" id="-28821">
		<tag k="name" v="Stavenga" />
		<tag k="place" v="locality" />
		<tag k="ssr:stedsnr" v="933176" />
	</node>
	<node lat="59.56286111041282" lon="10.797800003439683" id="-28823">
		<tag k="alt_name" v="Oksa øvre" />
		<tag k="name" v="Øvre Oksa" />
		<tag k="place" v="farm" />
		<tag k="ssr:stedsnr" v="933237" />
	</node>
	<node lat="59.52168837220106" lon="10.691097126201965" id="-28826">
		<tag k="name" v="Alicenborg" />
		<tag k="old_name" v="Bråten" />
		<tag k="place" v="farm" />
		<tag k="ssr:stedsnr" v="966436" />
	</node>
	<node lat="59.52154167054141" lon="10.70880277964749" id="-28828">
		<tag k="name" v="Skoglundåsen" />
		<tag k="place" v="quarter" />
		<tag k="ssr:stedsnr" v="966433" />
	</node>
	<node lat="59.56165277642966" lon="10.650802774291718" id="-28829">
		<tag k="name" v="Snippen" />
		<tag k="place" v="farm" />
		<tag k="ssr:stedsnr" v="966268" />
	</node>
	<node lat="59.60231110962088" lon="10.688980551957888" id="-28830">
		<tag k="alt_name" v="Ugjestrud søndre" />
		<tag k="name" v="Søndre Ugjestrud" />
		<tag k="place" v="farm" />
		<tag k="ssr:stedsnr" v="967125" />
	</node>
	<node lat="59.60209444158571" lon="10.662388880403217" id="-28831">
		<tag k="name" v="Knutehullet" />
		<tag k="place" v="locality" />
		<tag k="ssr:stedsnr" v="967127" />
	</node>
	<node lat="59.63745555997444" lon="10.70172499986449" id="-28832">
		<tag k="alt_name" v="Vastad nordre" />
		<tag k="name" v="Nordre Vastad" />
		<tag k="place" v="farm" />
		<tag k="ssr:stedsnr" v="968172" />
	</node>
	<node lat="59.570036109837616" lon="10.71551111072165" id="-28833">
		<tag k="name" v="Søndre Tømt" />
		<tag k="place" v="locality" />
		<tag k="ssr:stedsnr" v="968554" />
	</node>
	<node lat="59.59039999902809" lon="10.656905557296083" id="-28834">
		<tag k="name" v="Myra" />
		<tag k="place" v="farm" />
		<tag k="ssr:stedsnr" v="968758" />
	</node>
	<node lat="59.569742788279974" lon="10.772153760426326" id="-28846">
		<tag k="fixme" v="consider place=hamlet" />
		<tag k="name" v="Rogsti" />
		<tag k="place" v="farm" />
		<tag k="ssr:stedsnr" v="977383" />
	</node>
	<node lat="59.60075467749082" lon="10.832622697599072" id="-28966">
		<tag k="fixme" v="consider place=hamlet" />
		<tag k="name" v="Topper" />
		<tag k="place" v="farm" />
		<tag k="ssr:stedsnr" v="1074837" />
	</node>
	<node lat="59.56760036562855" lon="10.82377715289524" id="-28969">
		<tag k="alt_name" v="Florød" />
		<tag k="fixme" v="consider place=hamlet" />
		<tag k="name" v="Florud" />
		<tag k="place" v="farm" />
		<tag k="ssr:stedsnr" v="1078415" />
	</node>
	<node lat="59.5802985177962" lon="10.805209519707985" id="-28970">
		<tag k="fixme" v="consider place=hamlet" />
		<tag k="name" v="Garder" />
		<tag k="place" v="farm" />
		<tag k="ssr:stedsnr" v="1078416" />
	</node>
	<node lat="59.543834812952774" lon="10.758873417723798" id="-28971">
		<tag k="alt_name" v="Auerød" />
		<tag k="fixme" v="consider place=hamlet" />
		<tag k="name" v="Auerud" />
		<tag k="place" v="farm" />
		<tag k="ssr:stedsnr" v="1078429" />
	</node>
	<node lat="59.536316896672716" lon="10.75720057686464" id="-28972">
		<tag k="name" v="Øde-Auerød" />
		<tag k="place" v="locality" />
		<tag k="ssr:stedsnr" v="1078430" />
	</node>
	<node lat="59.539867105520635" lon="10.778451002150595" id="-28973">
		<tag k="fixme" v="consider place=hamlet" />
		<tag k="name" v="Holm" />
		<tag k="place" v="farm" />
		<tag k="ssr:stedsnr" v="1078431" />
	</node>
	<node lat="59.52325291680869" lon="10.761185608178675" id="-28974">
		<tag k="alt_name" v="Østerød" />
		<tag k="fixme" v="consider place=hamlet" />
		<tag k="name" v="Østerud" />
		<tag k="place" v="farm" />
		<tag k="ssr:stedsnr" v="1078432" />
	</node>
	<node lat="59.50239159387508" lon="10.688621958268344" id="-28975">
		<tag k="fixme" v="consider place=hamlet" />
		<tag k="name" v="Søndre Brevik" />
		<tag k="place" v="farm" />
		<tag k="ssr:stedsnr" v="1078444" />
	</node>
	<node lat="59.5199160640114" lon="10.710372890840379" id="-28976">
		<tag k="alt_name" v="Libråten" />
		<tag k="fixme" v="consider place=hamlet" />
		<tag k="name" v="Liabråten" />
		<tag k="place" v="farm" />
		<tag k="ssr:stedsnr" v="1078445" />
	</node>
	<node lat="59.54054595837782" lon="10.746537962002359" id="-28977">
		<tag k="fixme" v="consider place=hamlet" />
		<tag k="name" v="Søndre Bruer" />
		<tag k="place" v="farm" />
		<tag k="ssr:stedsnr" v="1078446" />
	</node>
	<node lat="59.5444806586847" lon="10.741618842243975" id="-28978">
		<tag k="fixme" v="consider place=hamlet" />
		<tag k="name" v="Nordre Bruer" />
		<tag k="place" v="farm" />
		<tag k="ssr:stedsnr" v="1078447" />
	</node>
	<node lat="59.533926937573085" lon="10.70735492259815" id="-28979">
		<tag k="name" v="Årud" />
		<tag k="place" v="locality" />
		<tag k="ssr:stedsnr" v="1078449" />
	</node>
	<node lat="59.52675931404246" lon="10.67125482382369" id="-28980">
		<tag k="fixme" v="consider place=hamlet" />
		<tag k="name" v="Stamnes" />
		<tag k="place" v="farm" />
		<tag k="ssr:stedsnr" v="1078451" />
	</node>
	<node lat="59.53652627739898" lon="10.666818192381879" id="-28981">
		<tag k="fixme" v="consider place=hamlet" />
		<tag k="name" v="Ås" />
		<tag k="place" v="farm" />
		<tag k="ssr:stedsnr" v="1078452" />
	</node>
	<node lat="59.59119282126128" lon="10.751662231662012" id="-28982">
		<tag k="fixme" v="consider place=hamlet" />
		<tag k="name" v="Søndre Sundby" />
		<tag k="place" v="farm" />
		<tag k="ssr:stedsnr" v="1078377" />
	</node>
	<node lat="59.59074445536547" lon="10.729676760009811" id="-28983">
		<tag k="fixme" v="consider place=hamlet" />
		<tag k="name" v="Søndre Rød" />
		<tag k="place" v="farm" />
		<tag k="ssr:stedsnr" v="1078378" />
	</node>
	<node lat="59.60294841813475" lon="10.722656663988417" id="-28984">
		<tag k="fixme" v="consider place=hamlet" />
		<tag k="name" v="Vestby prestegård" />
		<tag k="place" v="farm" />
		<tag k="ssr:stedsnr" v="1078380" />
	</node>
	<node lat="59.60146972826075" lon="10.756671693421174" id="-28985">
		<tag k="fixme" v="consider place=hamlet" />
		<tag k="name" v="Grøstad" />
		<tag k="place" v="farm" />
		<tag k="ssr:stedsnr" v="1078381" />
	</node>
	<node lat="59.58632656739159" lon="10.760584232688009" id="-28986">
		<tag k="fixme" v="consider place=hamlet" />
		<tag k="name" v="Østby" />
		<tag k="place" v="farm" />
		<tag k="ssr:stedsnr" v="1078382" />
	</node>
	<node lat="59.60531678422084" lon="10.769676223650793" id="-28987">
		<tag k="fixme" v="consider place=hamlet" />
		<tag k="name" v="Ålerød" />
		<tag k="place" v="farm" />
		<tag k="ssr:stedsnr" v="1078383" />
	</node>
	<node lat="59.613894603467415" lon="10.790018350291339" id="-28988">
		<tag k="fixme" v="consider place=hamlet" />
		<tag k="name" v="Lesteberg" />
		<tag k="place" v="farm" />
		<tag k="ssr:stedsnr" v="1078385" />
	</node>
	<node lat="59.62907351867395" lon="10.73687253350335" id="-28989">
		<tag k="fixme" v="consider place=hamlet" />
		<tag k="name" v="Nordre Rød" />
		<tag k="place" v="farm" />
		<tag k="ssr:stedsnr" v="1078390" />
	</node>
	<node lat="59.61873771043923" lon="10.734380039704922" id="-28990">
		<tag k="fixme" v="consider place=hamlet" />
		<tag k="name" v="Verpet" />
		<tag k="place" v="farm" />
		<tag k="ssr:stedsnr" v="1078391" />
	</node>
	<node lat="59.61575992832916" lon="10.68528002330086" id="-28991">
		<tag k="alt_name" v="Toverød" />
		<tag k="fixme" v="consider place=hamlet" />
		<tag k="name" v="Toverud" />
		<tag k="place" v="farm" />
		<tag k="ssr:stedsnr" v="1078394" />
	</node>
	<node lat="59.60654718916427" lon="10.667819318977942" id="-28992">
		<tag k="fixme" v="consider place=hamlet" />
		<tag k="name" v="Lysedal" />
		<tag k="place" v="farm" />
		<tag k="ssr:stedsnr" v="1078395" />
	</node>
	<node lat="59.57635812885126" lon="10.733019445247422" id="-28993">
		<tag k="fixme" v="consider place=hamlet" />
		<tag k="name" v="Søndre Rustad" />
		<tag k="place" v="farm" />
		<tag k="ssr:stedsnr" v="1078403" />
	</node>
	<node lat="59.58884969587548" lon="10.795940077050368" id="-28994">
		<tag k="fixme" v="consider place=hamlet" />
		<tag k="name" v="Tuft" />
		<tag k="place" v="farm" />
		<tag k="ssr:stedsnr" v="1078404" />
	</node>
</osm>
