<?xml version="1.0" encoding="UTF-8"?>
<osm generator="osmapis" version="0.6">
	<node id="-626236" lat="65.3457611104" lon="12.0264944516">
		<tag k="name" v="Hellbergsøya" />
		<tag k="ssr:date" v="2016-05-10" />
		<tag k="ssr:gruppe" v="navigasjon" />
		<tag k="ssr:hovedgruppe" v="infrastruktur" />
		<tag k="ssr:stedsnr" v="136153" />
		<tag k="ssr:type" v="fyrlykt" />
	</node>
	<node id="-626745" lat="65.3166333376" lon="12.1664194399">
		<tag k="name" v="Sømna" />
		<tag k="ssr:date" v="2016-05-10" />
		<tag k="ssr:gruppe" v="administrativeIndelinger" />
		<tag k="ssr:hovedgruppe" v="offentligAdministrasjon" />
		<tag k="ssr:stedsnr" v="627846" />
		<tag k="ssr:type" v="poststed" />
	</node>
	<node id="-626840" lat="65.3137916665" lon="12.1673000093">
		<tag k="name" v="Sømna kommune" />
		<tag k="ssr:date" v="2016-05-11" />
		<tag k="ssr:gruppe" v="administrativeIndelinger" />
		<tag k="ssr:hovedgruppe" v="offentligAdministrasjon" />
		<tag k="ssr:stedsnr" v="693055" />
		<tag k="ssr:type" v="kommune" />
	</node>
	<node id="-626998" lat="65.2069333345" lon="12.0382611085">
		<tag k="alt_name" v="Vennesund, s" />
		<tag k="name" v="Søre Vennesund" />
		<tag k="old_name" v="Arvikodden" />
		<tag k="ssr:date" v="2016-05-11" />
		<tag k="ssr:gruppe" v="navigasjon" />
		<tag k="ssr:hovedgruppe" v="infrastruktur" />
		<tag k="ssr:stedsnr" v="803923" />
		<tag k="ssr:type" v="fyrlykt" />
	</node>
	<node id="-626066" lat="65.2717638852" lon="11.9318666615">
		<tag k="name" v="Grønstabben" />
		<tag k="ssr:date" v="2016-05-10" />
		<tag k="ssr:gruppe" v="navigasjon" />
		<tag k="ssr:hovedgruppe" v="infrastruktur" />
		<tag k="ssr:stedsnr" v="15363" />
		<tag k="ssr:type" v="lanterne" />
	</node>
	<node id="-626033" lat="65.2198621266" lon="12.0532629317">
		<tag k="name" v="Skårhammarveien" />
		<tag k="ssr:date" v="2019-05-30" />
		<tag k="ssr:gruppe" v="veg" />
		<tag k="ssr:hovedgruppe" v="infrastruktur" />
		<tag k="ssr:stedsnr" v="999043" />
		<tag k="ssr:type" v="adressenavn" />
	</node>
	<node id="-626032" lat="65.3424277771" lon="12.3779143566">
		<tag k="name" v="Teisdalsveien" />
		<tag k="ssr:date" v="2019-05-30" />
		<tag k="ssr:gruppe" v="veg" />
		<tag k="ssr:hovedgruppe" v="infrastruktur" />
		<tag k="ssr:stedsnr" v="998991" />
		<tag k="ssr:type" v="adressenavn" />
	</node>
	<node id="-626710" lat="65.3316027781" lon="11.8084722278">
		<tag k="name" v="Lyran" />
		<tag k="ssr:date" v="2016-05-10" />
		<tag k="ssr:gruppe" v="navigasjon" />
		<tag k="ssr:hovedgruppe" v="infrastruktur" />
		<tag k="ssr:stedsnr" v="621144" />
		<tag k="ssr:type" v="fyrlykt" />
	</node>
	<node id="-626924" lat="65.284527777" lon="11.6747277859">
		<tag k="name" v="Krabskjær" />
		<tag k="old_name" v="Krabbskjeret" />
		<tag k="ssr:date" v="2016-05-11" />
		<tag k="ssr:gruppe" v="navigasjon" />
		<tag k="ssr:hovedgruppe" v="infrastruktur" />
		<tag k="ssr:stedsnr" v="743901" />
		<tag k="ssr:type" v="fyrlykt" />
	</node>
	<node id="-626410" lat="65.2166833362" lon="11.8862777772">
		<tag k="name" v="Helgelandsflesa" />
		<tag k="ssr:date" v="2016-05-10" />
		<tag k="ssr:gruppe" v="navigasjon" />
		<tag k="ssr:hovedgruppe" v="infrastruktur" />
		<tag k="ssr:stedsnr" v="257949" />
		<tag k="ssr:type" v="fyrlykt" />
	</node>
	<node id="-626031" lat="65.2842224826" lon="12.1133856185">
		<tag k="name" v="Krokvikveien" />
		<tag k="ssr:date" v="2019-05-30" />
		<tag k="ssr:gruppe" v="veg" />
		<tag k="ssr:hovedgruppe" v="infrastruktur" />
		<tag k="ssr:stedsnr" v="998850" />
		<tag k="ssr:type" v="adressenavn" />
	</node>
	<node id="-626572" lat="65.2719527777" lon="12.0430694433">
		<tag k="name" v="Lyngværgalten" />
		<tag k="ssr:date" v="2016-05-10" />
		<tag k="ssr:gruppe" v="navigasjon" />
		<tag k="ssr:hovedgruppe" v="infrastruktur" />
		<tag k="ssr:stedsnr" v="500428" />
		<tag k="ssr:type" v="fyrlykt" />
	</node>
	<node id="-627205" lat="65.3306333311" lon="12.3630361117">
		<tag k="name" v="Hombornes" />
		<tag k="ssr:date" v="2016-05-11" />
		<tag k="ssr:gruppe" v="navigasjon" />
		<tag k="ssr:hovedgruppe" v="infrastruktur" />
		<tag k="ssr:stedsnr" v="965897" />
		<tag k="ssr:type" v="fyrlykt" />
	</node>
	<node id="-627235" lat="68.4849327361" lon="16.2297866207">
		<tag k="fixme" v="multiple name tags, choose one and add the other to alt_name" />
		<tag k="name" v="Nord-Noreg;Nord-Norge" />
		<tag k="ssr:date" v="2017-05-18" />
		<tag k="ssr:gruppe" v="administrativeIndelinger" />
		<tag k="ssr:hovedgruppe" v="offentligAdministrasjon" />
		<tag k="ssr:stedsnr" v="976106" />
		<tag k="ssr:type" v="annenAdministrativInndeling" />
	</node>
</osm>
