<?xml version="1.0" encoding="UTF-8"?>
<osm generator="osmapis" version="0.6">
	<node changeset="58739156" id="5600734208" lat="58.3745083" lon="7.4384778" timestamp="2018-05-06T19:52:21Z" uid="3842253" user="NKA_import" version="1">
		<tag k="name" v="Skaddan" />
		<tag k="place" v="locality" />
		<tag k="ssr:stedsnr" v="932156" />
		<tag k="ssr:type" v="gammelBosettingsplass" />
	</node>
	<node changeset="58739156" id="5600734209" lat="58.1590528" lon="7.4851361" timestamp="2018-05-06T19:52:21Z" uid="3842253" user="NKA_import" version="1">
		<tag k="name" v="Høyland" />
		<tag k="place" v="farm" />
		<tag k="ssr:stedsnr" v="364817" />
		<tag k="ssr:type" v="gard" />
	</node>
	<node changeset="58739156" id="5600735234" lat="58.2963" lon="7.411" timestamp="2018-05-06T19:52:24Z" uid="3842253" user="NKA_import" version="1">
		<tag k="alt_name" v="Hunsdal øvre" />
		<tag k="name" v="Hundsdal" />
		<tag k="place" v="farm" />
		<tag k="ssr:stedsnr" v="667825" />
		<tag k="ssr:type" v="gard" />
	</node>
	<node changeset="58739156" id="5600734211" lat="58.2042361" lon="7.6844917" timestamp="2018-05-06T19:52:22Z" uid="3842253" user="NKA_import" version="1">
		<tag k="name" v="Kvimyr" />
		<tag k="place" v="farm" />
		<tag k="ssr:stedsnr" v="667649" />
		<tag k="ssr:type" v="bruk" />
	</node>
	<node changeset="58739156" id="5600734212" lat="58.2174361" lon="7.6978778" timestamp="2018-05-06T19:52:22Z" uid="3842253" user="NKA_import" version="1">
		<tag k="name" v="Nygård" />
		<tag k="place" v="farm" />
		<tag k="ssr:stedsnr" v="667654" />
		<tag k="ssr:type" v="bruk" />
	</node>
	<node changeset="58739156" id="5600734213" lat="58.2303278" lon="7.5899306" timestamp="2018-05-06T19:52:22Z" uid="3842253" user="NKA_import" version="1">
		<tag k="name" v="Fidjestøl" />
		<tag k="place" v="farm" />
		<tag k="ssr:stedsnr" v="667669" />
		<tag k="ssr:type" v="gard" />
	</node>
	<node changeset="58739156" id="5600734214" lat="58.2100556" lon="7.6915111" timestamp="2018-05-06T19:52:22Z" uid="3842253" user="NKA_import" version="1">
		<tag k="name" v="Berge" />
		<tag k="place" v="locality" />
		<tag k="ssr:stedsnr" v="751691" />
		<tag k="ssr:type" v="gammelBosettingsplass" />
	</node>
	<node changeset="58739156" id="5600734215" lat="58.2770028" lon="7.5249555" timestamp="2018-05-06T19:52:22Z" uid="3842253" user="NKA_import" version="1">
		<tag k="name" v="Skåleneset" />
		<tag k="place" v="farm" />
		<tag k="ssr:stedsnr" v="364844" />
		<tag k="ssr:type" v="gard" />
	</node>
	<node changeset="58739156" id="5600734216" lat="58.2260222" lon="7.4380111" timestamp="2018-05-06T19:52:22Z" uid="3842253" user="NKA_import" version="1">
		<tag k="name" v="Stokkeland" />
		<tag k="place" v="farm" />
		<tag k="ssr:stedsnr" v="667683" />
		<tag k="ssr:type" v="gard" />
	</node>
	<node changeset="58739156" id="5600734217" lat="58.3069167" lon="7.534325" timestamp="2018-05-06T19:52:22Z" uid="3842253" user="NKA_import" version="1">
		<tag k="name" v="Folldalen" />
		<tag k="place" v="farm" />
		<tag k="ssr:stedsnr" v="364865" />
		<tag k="ssr:type" v="gard" />
	</node>
	<node changeset="58739156" id="5600734218" lat="58.2128417" lon="7.5368778" timestamp="2018-05-06T19:52:22Z" uid="3842253" user="NKA_import" version="1">
		<tag k="alt_name" v="Finnsdal" />
		<tag k="name" v="Finsdal" />
		<tag k="place" v="hamlet" />
		<tag k="ssr:stedsnr" v="667691" />
		<tag k="ssr:type" v="grend" />
	</node>
	<node changeset="58739156" id="5600735243" lat="58.4376" lon="7.5299139" timestamp="2018-05-06T19:52:25Z" uid="3842253" user="NKA_import" version="1">
		<tag k="name" v="Stedjan" />
		<tag k="place" v="farm" />
		<tag k="ssr:stedsnr" v="667923" />
		<tag k="ssr:type" v="bruk" />
	</node>
	<node changeset="58739156" id="5600734220" lat="58.3716139" lon="7.4435333" timestamp="2018-05-06T19:52:22Z" uid="3842253" user="NKA_import" version="1">
		<tag k="name" v="Tupten" />
		<tag k="place" v="locality" />
		<tag k="ssr:stedsnr" v="507141" />
		<tag k="ssr:type" v="gammelBosettingsplass" />
	</node>
	<node changeset="58739156" id="5600735245" lat="58.296732" lon="7.5076524" timestamp="2018-05-06T19:52:25Z" uid="3842253" user="NKA_import" version="1">
		<tag k="name" v="Ågset" />
		<tag k="place" v="hamlet" />
		<tag k="ssr:stedsnr" v="849853" />
		<tag k="ssr:type" v="gard" />
	</node>
	<node changeset="58739156" id="5600735246" lat="58.3886306" lon="7.5259694" timestamp="2018-05-06T19:52:25Z" uid="3842253" user="NKA_import" version="1">
		<tag k="name" v="Bergan" />
		<tag k="place" v="farm" />
		<tag k="ssr:stedsnr" v="667995" />
		<tag k="ssr:type" v="bruk" />
	</node>
	<node changeset="58739156" id="5600735247" lat="58.3304139" lon="7.51455" timestamp="2018-05-06T19:52:25Z" uid="3842253" user="NKA_import" version="1">
		<tag k="alt_name" v="Bronneset" />
		<tag k="name" v="Bråneset" />
		<tag k="place" v="farm" />
		<tag k="ssr:stedsnr" v="425772" />
		<tag k="ssr:type" v="bruk" />
	</node>
	<node changeset="58739156" id="5600735248" lat="58.3075667" lon="7.5151333" timestamp="2018-05-06T19:52:25Z" uid="3842253" user="NKA_import" version="1">
		<tag k="name" v="Granli" />
		<tag k="place" v="farm" />
		<tag k="ssr:stedsnr" v="425777" />
		<tag k="ssr:type" v="bruk" />
	</node>
	<node changeset="58739156" id="5600735249" lat="58.1961167" lon="7.6256889" timestamp="2018-05-06T19:52:25Z" uid="3842253" user="NKA_import" version="1">
		<tag k="alt_name" v="Skoddan" />
		<tag k="name" v="Skolland" />
		<tag k="place" v="farm" />
		<tag k="ssr:stedsnr" v="850698" />
		<tag k="ssr:type" v="gard" />
	</node>
	<node changeset="58739156" id="5600735250" lat="58.22905" lon="7.4874" timestamp="2018-05-06T19:52:25Z" uid="3842253" user="NKA_import" version="1">
		<tag k="name" v="Aukland" />
		<tag k="place" v="farm" />
		<tag k="ssr:stedsnr" v="850717" />
		<tag k="ssr:type" v="gard" />
	</node>
	<node changeset="58739156" id="5600735251" lat="58.2256389" lon="7.6781611" timestamp="2018-05-06T19:52:25Z" uid="3842253" user="NKA_import" version="1">
		<tag k="alt_name" v="Bjørnstøl" />
		<tag k="name" v="Bjørnestøl" />
		<tag k="place" v="farm" />
		<tag k="ssr:stedsnr" v="850720" />
		<tag k="ssr:type" v="gard" />
	</node>
	<node changeset="58739156" id="5600735252" lat="58.4235639" lon="7.6081278" timestamp="2018-05-06T19:52:25Z" uid="3842253" user="NKA_import" version="1">
		<tag k="name" v="Myran" />
		<tag k="place" v="farm" />
		<tag k="ssr:stedsnr" v="425894" />
		<tag k="ssr:type" v="bruk" />
	</node>
	<node changeset="58739156" id="5600735253" lat="58.3320333" lon="7.5283" timestamp="2018-05-06T19:52:25Z" uid="3842253" user="NKA_import" version="1">
		<tag k="name" v="Grovan" />
		<tag k="place" v="locality" />
		<tag k="ssr:stedsnr" v="850753" />
		<tag k="ssr:type" v="gammelBosettingsplass" />
	</node>
	<node changeset="58739156" id="5600735254" lat="58.1622725" lon="7.6872852" timestamp="2018-05-06T19:52:26Z" uid="3842253" user="NKA_import" version="1">
		<tag k="name" v="Ausland" />
		<tag k="place" v="farm" />
		<tag k="ssr:stedsnr" v="850765" />
		<tag k="ssr:type" v="gard" />
	</node>
	<node changeset="58739156" id="5600735255" lat="58.4210528" lon="7.5673361" timestamp="2018-05-06T19:52:26Z" uid="3842253" user="NKA_import" version="1">
		<tag k="building" v="farm_auxiliary" />
		<tag k="name" v="Holtan" />
		<tag k="place" v="locality" />
		<tag k="ssr:stedsnr" v="425896" />
		<tag k="ssr:type" v="byggForJordbrukFiskeOgFangst" />
	</node>
	<node changeset="58739156" id="5600735256" lat="58.4401361" lon="7.5283472" timestamp="2018-05-06T19:52:26Z" uid="3842253" user="NKA_import" version="1">
		<tag k="alt_name" v="Breilid;Breilien" />
		<tag k="name" v="Breidli" />
		<tag k="place" v="farm" />
		<tag k="ssr:stedsnr" v="425927" />
		<tag k="ssr:type" v="gard" />
	</node>
	<node changeset="58739156" id="5600735236" lat="58.3761389" lon="7.4781722" timestamp="2018-05-06T19:52:24Z" uid="3842253" user="NKA_import" version="1">
		<tag k="alt_name" v="Bjærland" />
		<tag k="name" v="Bjerland" />
		<tag k="place" v="farm" />
		<tag k="ssr:stedsnr" v="364957" />
		<tag k="ssr:type" v="gard" />
	</node>
	<node changeset="58739156" id="5600735258" lat="58.2769944" lon="7.52175" timestamp="2018-05-06T19:52:26Z" uid="3842253" user="NKA_import" version="1">
		<tag k="name" v="Lislestræde" />
		<tag k="place" v="farm" />
		<tag k="ssr:stedsnr" v="850808" />
		<tag k="ssr:type" v="bruk" />
	</node>
	<node changeset="58739156" id="5600735259" lat="58.3682833" lon="7.6013306" timestamp="2018-05-06T19:52:26Z" uid="3842253" user="NKA_import" version="1">
		<tag k="name" v="Sundbø" />
		<tag k="place" v="farm" />
		<tag k="ssr:stedsnr" v="425965" />
		<tag k="ssr:type" v="gard" />
	</node>
	<node changeset="58739156" id="5600735260" lat="58.398925" lon="7.5866667" timestamp="2018-05-06T19:52:26Z" uid="3842253" user="NKA_import" version="1">
		<tag k="name" v="Bunken" />
		<tag k="place" v="isolated_dwelling" />
		<tag k="ssr:stedsnr" v="425973" />
		<tag k="ssr:type" v="eneboligMindreBoligbygg" />
	</node>
	<node changeset="58739156" id="5600735261" lat="58.3985083" lon="7.5501944" timestamp="2018-05-06T19:52:26Z" uid="3842253" user="NKA_import" version="1">
		<tag k="building" v="farm_auxiliary" />
		<tag k="name" v="Lian" />
		<tag k="place" v="locality" />
		<tag k="ssr:stedsnr" v="425976" />
		<tag k="ssr:type" v="byggForJordbrukFiskeOgFangst" />
	</node>
	<node changeset="58739156" id="5600735262" lat="58.4398806" lon="7.6064028" timestamp="2018-05-06T19:52:26Z" uid="3842253" user="NKA_import" version="1">
		<tag k="alt_name" v="Valebrokken" />
		<tag k="name" v="Valebrokk" />
		<tag k="place" v="farm" />
		<tag k="ssr:stedsnr" v="850920" />
		<tag k="ssr:type" v="gard" />
	</node>
	<node changeset="58739156" id="5600735237" lat="58.278125" lon="7.465275" timestamp="2018-05-06T19:52:24Z" uid="3842253" user="NKA_import" version="1">
		<tag k="alt_name" v="Indre Aukland" />
		<tag k="name" v="Aukland" />
		<tag k="place" v="farm" />
		<tag k="ssr:stedsnr" v="667837" />
		<tag k="ssr:type" v="bruk" />
	</node>
	<node changeset="58739156" id="5600735264" lat="58.1977389" lon="7.6516639" timestamp="2018-05-06T19:52:26Z" uid="3842253" user="NKA_import" version="1">
		<tag k="name" v="Timra" />
		<tag k="place" v="locality" />
		<tag k="ssr:stedsnr" v="23708" />
		<tag k="ssr:type" v="gammelBosettingsplass" />
	</node>
	<node changeset="58739156" id="5600735265" lat="58.2015472" lon="7.5636917" timestamp="2018-05-06T19:52:27Z" uid="3842253" user="NKA_import" version="1">
		<tag k="name" v="Øygarden" />
		<tag k="place" v="locality" />
		<tag k="ssr:stedsnr" v="568963" />
		<tag k="ssr:type" v="gammelBosettingsplass" />
	</node>
	<node changeset="58739156" id="5600735266" lat="58.25485" lon="7.5491028" timestamp="2018-05-06T19:52:27Z" uid="3842253" user="NKA_import" version="1">
		<tag k="name" v="Apesland" />
		<tag k="place" v="farm" />
		<tag k="ssr:stedsnr" v="303221" />
		<tag k="ssr:type" v="gard" />
	</node>
	<node changeset="58739156" id="5600735267" lat="58.2079749" lon="7.64485" timestamp="2018-05-06T19:52:27Z" uid="3842253" user="NKA_import" version="1">
		<tag k="alt_name" v="Fossestøl" />
		<tag k="name" v="Fosstøl" />
		<tag k="place" v="hamlet" />
		<tag k="ssr:stedsnr" v="61679" />
		<tag k="ssr:type" v="gard" />
	</node>
	<node changeset="58739156" id="5600735268" lat="58.3793083" lon="7.6260972" timestamp="2018-05-06T19:52:27Z" uid="3842253" user="NKA_import" version="1">
		<tag k="name" v="Øygarden" />
		<tag k="place" v="locality" />
		<tag k="ssr:stedsnr" v="447071" />
		<tag k="ssr:type" v="gammelBosettingsplass" />
	</node>
	<node changeset="58739156" id="5600735238" lat="58.175225" lon="7.4607944" timestamp="2018-05-06T19:52:24Z" uid="3842253" user="NKA_import" version="1">
		<tag k="historic" v="shieling" />
		<tag k="name" v="Goåsløa" />
		<tag k="place" v="locality" />
		<tag k="ssr:stedsnr" v="568766" />
		<tag k="ssr:type" v="seterStøl" />
	</node>
	<node changeset="58739156" id="5600735270" lat="58.2330667" lon="7.5077667" timestamp="2018-05-06T19:52:27Z" uid="3842253" user="NKA_import" version="1">
		<tag k="alt_name" v="Kåland" />
		<tag k="name" v="Koland" />
		<tag k="place" v="farm" />
		<tag k="ssr:stedsnr" v="61726" />
		<tag k="ssr:type" v="bruk" />
	</node>
	<node changeset="58739156" id="5600735271" lat="58.2214705" lon="7.5179529" timestamp="2018-05-06T19:52:27Z" uid="3842253" user="NKA_import" version="1">
		<tag k="alt_name" v="Fuglestveit" />
		<tag k="name" v="Fyglestveit" />
		<tag k="place" v="hamlet" />
		<tag k="ssr:stedsnr" v="303734" />
		<tag k="ssr:type" v="grend" />
	</node>
	<node changeset="58739156" id="5600735272" lat="58.2140389" lon="7.5230917" timestamp="2018-05-06T19:52:27Z" uid="3842253" user="NKA_import" version="1">
		<tag k="name" v="Kroken" />
		<tag k="place" v="farm" />
		<tag k="ssr:stedsnr" v="61738" />
		<tag k="ssr:type" v="bruk" />
	</node>
	<node changeset="58739156" id="5600735273" lat="58.2019" lon="7.6158861" timestamp="2018-05-06T19:52:27Z" uid="3842253" user="NKA_import" version="1">
		<tag k="name" v="Støa" />
		<tag k="place" v="farm" />
		<tag k="ssr:stedsnr" v="606685" />
		<tag k="ssr:type" v="bruk" />
	</node>
	<node changeset="58739156" id="5600735274" lat="58.3312694" lon="7.4415389" timestamp="2018-05-06T19:52:27Z" uid="3842253" user="NKA_import" version="1">
		<tag k="name" v="Kråkeland" />
		<tag k="place" v="farm" />
		<tag k="ssr:stedsnr" v="303748" />
		<tag k="ssr:type" v="gard" />
	</node>
	<node changeset="58739156" id="5600735239" lat="58.38" lon="7.4792306" timestamp="2018-05-06T19:52:24Z" uid="3842253" user="NKA_import" version="1">
		<tag k="alt_name" v="Nordgard" />
		<tag k="name" v="Nordgarden" />
		<tag k="place" v="farm" />
		<tag k="ssr:stedsnr" v="121995" />
		<tag k="ssr:type" v="bruk" />
	</node>
	<node changeset="58739156" id="5600735276" lat="58.1666278" lon="7.6318417" timestamp="2018-05-06T19:52:27Z" uid="3842253" user="NKA_import" version="1">
		<tag k="name" v="Birkeland" />
		<tag k="place" v="farm" />
		<tag k="ssr:stedsnr" v="303773" />
		<tag k="ssr:type" v="gard" />
	</node>
	<node changeset="58739156" id="5600735277" lat="58.3302" lon="7.4846583" timestamp="2018-05-06T19:52:28Z" uid="3842253" user="NKA_import" version="1">
		<tag k="alt_name" v="Haraldstad, øvre;Haraldstad øvre" />
		<tag k="name" v="Øvre Haraldstad" />
		<tag k="place" v="farm" />
		<tag k="ssr:stedsnr" v="61749" />
		<tag k="ssr:type" v="gard" />
	</node>
	<node changeset="58739156" id="5600735278" lat="58.1646" lon="7.67185" timestamp="2018-05-06T19:52:28Z" uid="3842253" user="NKA_import" version="1">
		<tag k="name" v="Øygarden" />
		<tag k="place" v="farm" />
		<tag k="ssr:stedsnr" v="61759" />
		<tag k="ssr:type" v="bruk" />
	</node>
	<node changeset="58739156" id="5600735279" lat="58.2094583" lon="7.5147972" timestamp="2018-05-06T19:52:28Z" uid="3842253" user="NKA_import" version="1">
		<tag k="name" v="Bue" />
		<tag k="place" v="farm" />
		<tag k="ssr:stedsnr" v="606724" />
		<tag k="ssr:type" v="gard" />
	</node>
	<node changeset="58739156" id="5600735280" lat="58.3391528" lon="7.4742083" timestamp="2018-05-06T19:52:28Z" uid="3842253" user="NKA_import" version="1">
		<tag k="alt_name" v="Heddåsen" />
		<tag k="name" v="Hellåsen" />
		<tag k="place" v="farm" />
		<tag k="ssr:stedsnr" v="303791" />
		<tag k="ssr:type" v="gard" />
	</node>
	<node changeset="58739156" id="5600735240" lat="58.4511472" lon="7.5163889" timestamp="2018-05-06T19:52:24Z" uid="3842253" user="NKA_import" version="1">
		<tag k="name" v="Øvrebø" />
		<tag k="place" v="farm" />
		<tag k="ssr:stedsnr" v="667895" />
		<tag k="ssr:type" v="gard" />
	</node>
	<node changeset="58739156" id="5600735282" lat="58.3440861" lon="7.4704278" timestamp="2018-05-06T19:52:28Z" uid="3842253" user="NKA_import" version="1">
		<tag k="name" v="Moland" />
		<tag k="place" v="farm" />
		<tag k="ssr:stedsnr" v="61774" />
		<tag k="ssr:type" v="bruk" />
	</node>
	<node changeset="58739156" id="5600735283" lat="58.2237861" lon="7.4897361" timestamp="2018-05-06T19:52:28Z" uid="3842253" user="NKA_import" version="1">
		<tag k="name" v="Sangesland" />
		<tag k="place" v="farm" />
		<tag k="ssr:stedsnr" v="606731" />
		<tag k="ssr:type" v="gard" />
	</node>
	<node changeset="58739156" id="5600735284" lat="58.2228167" lon="7.4618083" timestamp="2018-05-06T19:52:28Z" uid="3842253" user="NKA_import" version="1">
		<tag k="name" v="Høneland" />
		<tag k="place" v="farm" />
		<tag k="ssr:stedsnr" v="606732" />
		<tag k="ssr:type" v="gard" />
	</node>
	<node changeset="58739156" id="5600735285" lat="58.3324472" lon="7.5311167" timestamp="2018-05-06T19:52:28Z" uid="3842253" user="NKA_import" version="1">
		<tag k="alt_name" v="Stronnen" />
		<tag k="name" v="Stronda" />
		<tag k="place" v="locality" />
		<tag k="ssr:stedsnr" v="606750" />
		<tag k="ssr:type" v="gammelBosettingsplass" />
	</node>
	<node changeset="58739156" id="5600735286" lat="58.1611784" lon="7.5022663" timestamp="2018-05-06T19:52:28Z" uid="3842253" user="NKA_import" version="1">
		<tag k="name" v="Øygarden" />
		<tag k="place" v="farm" />
		<tag k="ssr:stedsnr" v="61783" />
		<tag k="ssr:type" v="bruk" />
	</node>
	<node changeset="58739156" id="5600735241" lat="58.2098" lon="7.6808" timestamp="2018-05-06T19:52:24Z" uid="3842253" user="NKA_import" version="1">
		<tag k="alt_name" v="Villehei" />
		<tag k="name" v="Villeheia" />
		<tag k="place" v="farm" />
		<tag k="ssr:stedsnr" v="425704" />
		<tag k="ssr:type" v="gard" />
	</node>
	<node changeset="58739156" id="5600735288" lat="58.176275" lon="7.4730278" timestamp="2018-05-06T19:52:28Z" uid="3842253" user="NKA_import" version="1">
		<tag k="alt_name" v="Manneråg" />
		<tag k="name" v="Manneråk" />
		<tag k="place" v="hamlet" />
		<tag k="ssr:stedsnr" v="61789" />
		<tag k="ssr:type" v="gard" />
	</node>
	<node changeset="58739156" id="5600735289" lat="58.1629278" lon="7.6267639" timestamp="2018-05-06T19:52:29Z" uid="3842253" user="NKA_import" version="1">
		<tag k="alt_name" v="Røkking" />
		<tag k="name" v="Røkkinga" />
		<tag k="place" v="farm" />
		<tag k="ssr:stedsnr" v="606777" />
		<tag k="ssr:type" v="gard" />
	</node>
	<node changeset="58739156" id="5600735290" lat="58.3891278" lon="7.5704472" timestamp="2018-05-06T19:52:29Z" uid="3842253" user="NKA_import" version="1">
		<tag k="alt_name" v="Øvregården" />
		<tag k="name" v="Øvergarden" />
		<tag k="place" v="farm" />
		<tag k="ssr:stedsnr" v="303987" />
		<tag k="ssr:type" v="bruk" />
	</node>
	<node changeset="58739156" id="5600735291" lat="58.2663278" lon="7.4598389" timestamp="2018-05-06T19:52:29Z" uid="3842253" user="NKA_import" version="1">
		<tag k="name" v="Lian" />
		<tag k="place" v="farm" />
		<tag k="ssr:stedsnr" v="143335" />
		<tag k="ssr:type" v="bruk" />
	</node>
	<node changeset="58739156" id="5600735292" lat="58.4093981" lon="7.5302677" timestamp="2018-05-06T19:52:29Z" uid="3842253" user="NKA_import" version="1">
		<tag k="alt_name" v="Sundet;Lille Sundet" />
		<tag k="name" v="Sunde" />
		<tag k="place" v="hamlet" />
		<tag k="ssr:stedsnr" v="61894" />
		<tag k="ssr:type" v="gard" />
	</node>
	<node changeset="58739156" id="5600735242" lat="58.20515" lon="7.4800417" timestamp="2018-05-06T19:52:25Z" uid="3842253" user="NKA_import" version="1">
		<tag k="name" v="Bosoll" />
		<tag k="place" v="farm" />
		<tag k="ssr:stedsnr" v="425709" />
		<tag k="ssr:type" v="gard" />
	</node>
	<node changeset="58739156" id="5600735294" lat="58.3697528" lon="7.4377917" timestamp="2018-05-06T19:52:29Z" uid="3842253" user="NKA_import" version="1">
		<tag k="name" v="Vollen" />
		<tag k="place" v="farm" />
		<tag k="ssr:stedsnr" v="606945" />
		<tag k="ssr:type" v="bruk" />
	</node>
	<node changeset="58739156" id="5600735295" lat="58.2033972" lon="7.7108528" timestamp="2018-05-06T19:52:29Z" uid="3842253" user="NKA_import" version="1">
		<tag k="alt_name" v="Skor" />
		<tag k="name" v="Skår" />
		<tag k="place" v="farm" />
		<tag k="ssr:stedsnr" v="304706" />
		<tag k="ssr:type" v="gard" />
	</node>
	<node changeset="58739156" id="5600735296" lat="58.2599111" lon="7.4936222" timestamp="2018-05-06T19:52:29Z" uid="3842253" user="NKA_import" version="1">
		<tag k="name" v="Sveinall" />
		<tag k="place" v="farm" />
		<tag k="ssr:stedsnr" v="242206" />
		<tag k="ssr:type" v="gard" />
	</node>
	<node changeset="58739156" id="5600735297" lat="58.4041556" lon="7.4787611" timestamp="2018-05-06T19:52:29Z" uid="3842253" user="NKA_import" version="1">
		<tag k="name" v="Røynesdal" />
		<tag k="place" v="farm" />
		<tag k="ssr:stedsnr" v="61962" />
		<tag k="ssr:type" v="gard" />
	</node>
	<node changeset="58739156" id="5600735298" lat="58.1799722" lon="7.4502222" timestamp="2018-05-06T19:52:29Z" uid="3842253" user="NKA_import" version="1">
		<tag k="name" v="Grimestad" />
		<tag k="place" v="hamlet" />
		<tag k="ssr:stedsnr" v="304816" />
		<tag k="ssr:type" v="gard" />
	</node>
	<node changeset="58739156" id="5600734219" lat="58.2699" lon="7.4378944" timestamp="2018-05-06T19:52:22Z" uid="3842253" user="NKA_import" version="1">
		<tag k="alt_name" v="Fidje" />
		<tag k="name" v="Fidja" />
		<tag k="place" v="farm" />
		<tag k="ssr:stedsnr" v="121824" />
		<tag k="ssr:type" v="gard" />
	</node>
	<node changeset="58739156" id="5600735300" lat="58.2860417" lon="7.4322" timestamp="2018-05-06T19:52:30Z" uid="3842253" user="NKA_import" version="1">
		<tag k="name" v="Tisland" />
		<tag k="place" v="hamlet" />
		<tag k="ssr:stedsnr" v="242843" />
		<tag k="ssr:type" v="gard" />
	</node>
	<node changeset="58739156" id="5600735301" lat="58.3851762" lon="7.570855" timestamp="2018-05-06T19:52:30Z" uid="3842253" user="NKA_import" version="1">
		<tag k="name" v="Tønnesland" />
		<tag k="place" v="hamlet" />
		<tag k="ssr:stedsnr" v="606998" />
		<tag k="ssr:type" v="gard" />
	</node>
	<node changeset="58739156" id="5600735302" lat="58.3806028" lon="7.532725" timestamp="2018-05-06T19:52:30Z" uid="3842253" user="NKA_import" version="1">
		<tag k="name" v="Skjeggestad" />
		<tag k="old_name" v="Skjeggestøl" />
		<tag k="place" v="hamlet" />
		<tag k="ssr:stedsnr" v="607000" />
		<tag k="ssr:type" v="gard" />
	</node>
	<node changeset="58739156" id="5600735303" lat="58.2905722" lon="7.5103167" timestamp="2018-05-06T19:52:30Z" uid="3842253" user="NKA_import" version="1">
		<tag k="name" v="Snøskar" />
		<tag k="place" v="farm" />
		<tag k="ssr:stedsnr" v="751361" />
		<tag k="ssr:type" v="bruk" />
	</node>
	<node changeset="58739156" id="5600735304" lat="58.3540194" lon="7.451425" timestamp="2018-05-06T19:52:30Z" uid="3842253" user="NKA_import" version="1">
		<tag k="name" v="Øvre Abelset" />
		<tag k="place" v="farm" />
		<tag k="ssr:stedsnr" v="242859" />
		<tag k="ssr:type" v="gard" />
	</node>
	<node changeset="58739156" id="5600735244" lat="58.3756444" lon="7.5140694" timestamp="2018-05-06T19:52:25Z" uid="3842253" user="NKA_import" version="1">
		<tag k="alt_name" v="Hefteli" />
		<tag k="name" v="Heptelii" />
		<tag k="place" v="farm" />
		<tag k="ssr:stedsnr" v="667946" />
		<tag k="ssr:type" v="bruk" />
	</node>
	<node changeset="58739156" id="5600735306" lat="58.2103667" lon="7.5258806" timestamp="2018-05-06T19:52:30Z" uid="3842253" user="NKA_import" version="1">
		<tag k="alt_name" v="Madland" />
		<tag k="name" v="Maddan" />
		<tag k="place" v="farm" />
		<tag k="ssr:stedsnr" v="243752" />
		<tag k="ssr:type" v="bruk" />
	</node>
	<node changeset="58739156" id="5600735307" lat="58.2237083" lon="7.6490945" timestamp="2018-05-06T19:52:30Z" uid="3842253" user="NKA_import" version="1">
		<tag k="alt_name" v="Bjelland" />
		<tag k="name" v="Bjeddan" />
		<tag k="place" v="farm" />
		<tag k="ssr:stedsnr" v="243760" />
		<tag k="ssr:type" v="gard" />
	</node>
	<node changeset="58739156" id="5600735308" lat="58.3223222" lon="7.4855917" timestamp="2018-05-06T19:52:30Z" uid="3842253" user="NKA_import" version="1">
		<tag k="alt_name" v="Haraldstad, nedre;Haraldstad nedre" />
		<tag k="name" v="Nedre Haraldstad" />
		<tag k="place" v="farm" />
		<tag k="ssr:stedsnr" v="243779" />
		<tag k="ssr:type" v="gard" />
	</node>
	<node changeset="58739156" id="5600735309" lat="58.1458667" lon="7.6762667" timestamp="2018-05-06T19:52:30Z" uid="3842253" user="NKA_import" version="1">
		<tag k="name" v="Bakken" />
		<tag k="place" v="farm" />
		<tag k="ssr:stedsnr" v="628068" />
		<tag k="ssr:type" v="bruk" />
	</node>
	<node changeset="58739156" id="5600735310" lat="58.1994639" lon="7.5234417" timestamp="2018-05-06T19:52:30Z" uid="3842253" user="NKA_import" version="1">
		<tag k="name" v="Timberåsen" />
		<tag k="place" v="neighbourhood" />
		<tag k="ssr:stedsnr" v="785020" />
		<tag k="ssr:type" v="boligfelt" />
	</node>
	<node changeset="58739156" id="5600735311" lat="58.3560278" lon="7.5251139" timestamp="2018-05-06T19:52:30Z" uid="3842253" user="NKA_import" version="1">
		<tag k="name" v="Hesså" />
		<tag k="place" v="farm" />
		<tag k="ssr:stedsnr" v="243792" />
		<tag k="ssr:type" v="gard" />
	</node>
	<node changeset="58739156" id="5600735312" lat="58.2104694" lon="7.5322111" timestamp="2018-05-06T19:52:31Z" uid="3842253" user="NKA_import" version="1">
		<tag k="name" v="Vollan" />
		<tag k="place" v="farm" />
		<tag k="ssr:stedsnr" v="507959" />
		<tag k="ssr:type" v="bruk" />
	</node>
	<node changeset="58739156" id="5600735313" lat="58.1983278" lon="7.5284083" timestamp="2018-05-06T19:52:31Z" uid="3842253" user="NKA_import" version="1">
		<tag k="name" v="Regeviksmonen" />
		<tag k="place" v="farm" />
		<tag k="ssr:stedsnr" v="788388" />
		<tag k="ssr:type" v="bruk" />
	</node>
	<node changeset="58739156" id="5600735314" lat="58.3368972" lon="7.518175" timestamp="2018-05-06T19:52:31Z" uid="3842253" user="NKA_import" version="1">
		<tag k="alt_name" v="Homme;Homme ytre" />
		<tag k="name" v="Ytre Homme" />
		<tag k="place" v="farm" />
		<tag k="ssr:stedsnr" v="243799" />
		<tag k="ssr:type" v="gard" />
	</node>
	<node changeset="58739156" id="5600735315" lat="58.2872306" lon="7.509625" timestamp="2018-05-06T19:52:31Z" uid="3842253" user="NKA_import" version="1">
		<tag k="alt_name" v="Øygard;Ødegård;Ågset" />
		<tag k="name" v="Øygarden" />
		<tag k="place" v="hamlet" />
		<tag k="ssr:stedsnr" v="788809" />
		<tag k="ssr:type" v="grend" />
	</node>
	<node changeset="58739156" id="5600735316" lat="58.1695028" lon="7.5028472" timestamp="2018-05-06T19:52:31Z" uid="3842253" user="NKA_import" version="1">
		<tag k="name" v="Gangså" />
		<tag k="place" v="hamlet" />
		<tag k="ssr:stedsnr" v="243801" />
		<tag k="ssr:type" v="gard" />
	</node>
	<node changeset="58739156" id="5600735317" lat="58.3951738" lon="7.5239376" timestamp="2018-05-06T19:52:31Z" uid="3842253" user="NKA_import" version="1">
		<tag k="name" v="Monan" />
		<tag k="place" v="hamlet" />
		<tag k="ssr:stedsnr" v="143484" />
		<tag k="ssr:type" v="grend" />
	</node>
	<node changeset="58739156" id="5600735318" lat="58.16135" lon="7.5564333" timestamp="2018-05-06T19:52:31Z" uid="3842253" user="NKA_import" version="1">
		<tag k="name" v="Skaue" />
		<tag k="place" v="hamlet" />
		<tag k="ssr:stedsnr" v="932975" />
		<tag k="ssr:type" v="grend" />
	</node>
	<node changeset="58739156" id="5600735319" lat="58.1538694" lon="7.6058611" timestamp="2018-05-06T19:52:31Z" uid="3842253" user="NKA_import" version="1">
		<tag k="name" v="Skoland" />
		<tag k="place" v="farm" />
		<tag k="ssr:stedsnr" v="788926" />
		<tag k="ssr:type" v="bruk" />
	</node>
	<node changeset="58739156" id="5600735320" lat="58.3799139" lon="7.5392528" timestamp="2018-05-06T19:52:31Z" uid="3842253" user="NKA_import" version="1">
		<tag k="name" v="Askedalen" />
		<tag k="place" v="farm" />
		<tag k="ssr:stedsnr" v="788997" />
		<tag k="ssr:type" v="bruk" />
	</node>
	<node changeset="58739156" id="5181403242" lat="58.2319143" lon="7.420582" timestamp="2018-05-06T19:52:39Z" uid="3842253" user="NKA_import" version="2">
		<tag k="alt_name" v="Kallan" />
		<tag k="name" v="Kaddan" />
		<tag k="place" v="hamlet" />
		<tag k="ssr:stedsnr" v="728691" />
		<tag k="ssr:type" v="grend" />
	</node>
	<node changeset="58739156" id="5181403243" lat="58.2203306" lon="7.4134889" timestamp="2018-05-06T19:52:39Z" uid="3842253" user="NKA_import" version="2">
		<tag k="alt_name" v="Kallåsen" />
		<tag k="name" v="Kaddåsen" />
		<tag k="place" v="farm" />
		<tag k="ssr:stedsnr" v="667677" />
		<tag k="ssr:type" v="gard" />
	</node>
	<node changeset="58739156" id="5600735235" lat="58.2451111" lon="7.5343" timestamp="2018-05-06T19:52:24Z" uid="3842253" user="NKA_import" version="1">
		<tag k="alt_name" v="Bjørnestøl" />
		<tag k="name" v="Bjørnstøl" />
		<tag k="place" v="farm" />
		<tag k="ssr:stedsnr" v="425616" />
		<tag k="ssr:type" v="gard" />
	</node>
	<node changeset="58739156" id="5600734184" lat="58.2441917" lon="7.4178528" timestamp="2018-05-06T19:52:19Z" uid="3842253" user="NKA_import" version="1">
		<tag k="name" v="Heia" />
		<tag k="place" v="locality" />
		<tag k="ssr:stedsnr" v="265494" />
		<tag k="ssr:type" v="gammelBosettingsplass" />
	</node>
	<node changeset="58739156" id="5600735257" lat="58.3588333" lon="7.5503611" timestamp="2018-05-06T19:52:26Z" uid="3842253" user="NKA_import" version="1">
		<tag k="name" v="Tjelland" />
		<tag k="place" v="farm" />
		<tag k="ssr:stedsnr" v="850786" />
		<tag k="ssr:type" v="gard" />
	</node>
	<node changeset="58739156" id="5600735293" lat="58.3856361" lon="7.6303028" timestamp="2018-05-06T19:52:29Z" uid="3842253" user="NKA_import" version="1">
		<tag k="alt_name" v="Ødegården" />
		<tag k="name" v="Øygarden" />
		<tag k="place" v="farm" />
		<tag k="ssr:stedsnr" v="606932" />
		<tag k="ssr:type" v="gard" />
	</node>
	<node changeset="58739156" id="5600735263" lat="58.2140417" lon="7.7031917" timestamp="2018-05-06T19:52:26Z" uid="3842253" user="NKA_import" version="1">
		<tag k="name" v="Godåsen" />
		<tag k="place" v="locality" />
		<tag k="ssr:stedsnr" v="23691" />
		<tag k="ssr:type" v="gammelBosettingsplass" />
	</node>
	<node changeset="58739156" id="5600735421" lat="58.4476417" lon="7.5093556" timestamp="2018-05-06T19:52:31Z" uid="3842253" user="NKA_import" version="1">
		<tag k="alt_name" v="Øvre Homme" />
		<tag k="name" v="Homme" />
		<tag k="place" v="hamlet" />
		<tag k="ssr:stedsnr" v="243925" />
		<tag k="ssr:type" v="gard" />
	</node>
	<node changeset="58739156" id="5600735422" lat="58.2328344" lon="7.4874793" timestamp="2018-05-06T19:52:31Z" uid="3842253" user="NKA_import" version="1">
		<tag k="alt_name" v="Glomså" />
		<tag k="name" v="Glomsåg" />
		<tag k="place" v="hamlet" />
		<tag k="ssr:stedsnr" v="789739" />
		<tag k="ssr:type" v="gard" />
	</node>
	<node changeset="58739156" id="5600735423" lat="58.4007694" lon="7.5845222" timestamp="2018-05-06T19:52:31Z" uid="3842253" user="NKA_import" version="1">
		<tag k="name" v="Huset" />
		<tag k="place" v="farm" />
		<tag k="ssr:stedsnr" v="243980" />
		<tag k="ssr:type" v="bruk" />
	</node>
	<node changeset="58739156" id="5600735424" lat="58.1708556" lon="7.5535639" timestamp="2018-05-06T19:52:32Z" uid="3842253" user="NKA_import" version="1">
		<tag k="name" v="Matkrogen" />
		<tag k="place" v="neighbourhood" />
		<tag k="ssr:stedsnr" v="143619" />
		<tag k="ssr:type" v="boligfelt" />
	</node>
	<node changeset="58739156" id="5600735425" lat="58.2253306" lon="7.5072028" timestamp="2018-05-06T19:52:32Z" uid="3842253" user="NKA_import" version="1">
		<tag k="alt_name" v="Voan" />
		<tag k="name" v="Vodan" />
		<tag k="place" v="hamlet" />
		<tag k="ssr:stedsnr" v="789744" />
		<tag k="ssr:type" v="grend" />
	</node>
	<node changeset="58739156" id="5600735426" lat="58.2299056" lon="7.6505444" timestamp="2018-05-06T19:52:32Z" uid="3842253" user="NKA_import" version="1">
		<tag k="name" v="Stien" />
		<tag k="place" v="locality" />
		<tag k="ssr:stedsnr" v="143629" />
		<tag k="ssr:type" v="gammelBosettingsplass" />
	</node>
	<node changeset="58739156" id="5600735427" lat="58.1582917" lon="7.6961306" timestamp="2018-05-06T19:52:32Z" uid="3842253" user="NKA_import" version="1">
		<tag k="alt_name" v="Vigemyr" />
		<tag k="name" v="Vikemyr" />
		<tag k="place" v="farm" />
		<tag k="ssr:stedsnr" v="789777" />
		<tag k="ssr:type" v="bruk" />
	</node>
	<node changeset="58739156" id="5600735428" lat="58.2895222" lon="7.5106167" timestamp="2018-05-06T19:52:32Z" uid="3842253" user="NKA_import" version="1">
		<tag k="name" v="Stykket" />
		<tag k="place" v="locality" />
		<tag k="ssr:stedsnr" v="933372" />
		<tag k="ssr:type" v="gammelBosettingsplass" />
	</node>
	<node changeset="58739156" id="5600735429" lat="58.3519778" lon="7.5588444" timestamp="2018-05-06T19:52:32Z" uid="3842253" user="NKA_import" version="1">
		<tag k="alt_name" v="Eldhusdalen" />
		<tag k="name" v="Eldhusdal" />
		<tag k="place" v="farm" />
		<tag k="ssr:stedsnr" v="690337" />
		<tag k="ssr:type" v="gard" />
	</node>
	<node changeset="58739156" id="5600735430" lat="58.3651306" lon="7.5821361" timestamp="2018-05-06T19:52:32Z" uid="3842253" user="NKA_import" version="1">
		<tag k="name" v="Li" />
		<tag k="place" v="farm" />
		<tag k="ssr:stedsnr" v="509094" />
		<tag k="ssr:type" v="gard" />
	</node>
	<node changeset="58739156" id="5600735431" lat="58.1551278" lon="7.5066139" timestamp="2018-05-06T19:52:32Z" uid="3842253" user="NKA_import" version="1">
		<tag k="alt_name" v="Klev" />
		<tag k="name" v="Kleiv" />
		<tag k="place" v="farm" />
		<tag k="ssr:stedsnr" v="509668" />
		<tag k="ssr:type" v="gard" />
	</node>
	<node changeset="58739156" id="5600735432" lat="58.2026" lon="7.6753917" timestamp="2018-05-06T19:52:32Z" uid="3842253" user="NKA_import" version="1">
		<tag k="name" v="Kvitveisholtet" />
		<tag k="place" v="locality" />
		<tag k="ssr:stedsnr" v="933729" />
		<tag k="ssr:type" v="gammelBosettingsplass" />
	</node>
	<node changeset="58739156" id="5600735433" lat="58.2133778" lon="7.7122944" timestamp="2018-05-06T19:52:32Z" uid="3842253" user="NKA_import" version="1">
		<tag k="name" v="Øygarden" />
		<tag k="place" v="locality" />
		<tag k="ssr:stedsnr" v="386657" />
		<tag k="ssr:type" v="gammelBosettingsplass" />
	</node>
	<node changeset="58739156" id="5600735434" lat="58.2031111" lon="7.5211806" timestamp="2018-05-06T19:52:32Z" uid="3842253" user="NKA_import" version="1">
		<tag k="name" v="Manneskaret" />
		<tag k="place" v="neighbourhood" />
		<tag k="ssr:stedsnr" v="544014" />
		<tag k="ssr:type" v="boligfelt" />
	</node>
	<node changeset="58739156" id="5600735435" lat="58.216975" lon="7.4264" timestamp="2018-05-06T19:52:33Z" uid="3842253" user="NKA_import" version="1">
		<tag k="alt_name" v="Buksholtet" />
		<tag k="name" v="Buksholt" />
		<tag k="place" v="farm" />
		<tag k="ssr:stedsnr" v="83248" />
		<tag k="ssr:type" v="gard" />
	</node>
	<node changeset="58739156" id="5600735436" lat="58.243275" lon="7.5932167" timestamp="2018-05-06T19:52:33Z" uid="3842253" user="NKA_import" version="1">
		<tag k="name" v="Skogen" />
		<tag k="place" v="farm" />
		<tag k="ssr:stedsnr" v="546604" />
		<tag k="ssr:type" v="gard" />
	</node>
	<node changeset="58739156" id="5600735437" lat="58.2820444" lon="7.4331222" timestamp="2018-05-06T19:52:33Z" uid="3842253" user="NKA_import" version="1">
		<tag k="name" v="Fodnestøl" />
		<tag k="place" v="locality" />
		<tag k="ssr:stedsnr" v="325313" />
		<tag k="ssr:type" v="gammelBosettingsplass" />
	</node>
	<node changeset="58739156" id="5600735438" lat="58.2289583" lon="7.515675" timestamp="2018-05-06T19:52:33Z" uid="3842253" user="NKA_import" version="1">
		<tag k="alt_name" v="Kolvekleiv" />
		<tag k="name" v="Kalvekleiv" />
		<tag k="place" v="farm" />
		<tag k="ssr:stedsnr" v="546692" />
		<tag k="ssr:type" v="bruk" />
	</node>
	<node changeset="58739156" id="5600735439" lat="58.4150722" lon="7.5350694" timestamp="2018-05-06T19:52:33Z" uid="3842253" user="NKA_import" version="1">
		<tag k="name" v="Lille-Sundet" />
		<tag k="place" v="locality" />
		<tag k="ssr:stedsnr" v="447422" />
		<tag k="ssr:type" v="gammelBosettingsplass" />
	</node>
	<node changeset="58739156" id="5600735440" lat="58.4425472" lon="7.6244222" timestamp="2018-05-06T19:52:33Z" uid="3842253" user="NKA_import" version="1">
		<tag k="name" v="Kniben" />
		<tag k="place" v="locality" />
		<tag k="ssr:stedsnr" v="265119" />
		<tag k="ssr:type" v="gammelBosettingsplass" />
	</node>
	<node changeset="58739156" id="5600735441" lat="58.2189806" lon="7.4915055" timestamp="2018-05-06T19:52:33Z" uid="3842253" user="NKA_import" version="1">
		<tag k="name" v="Klamdalen" />
		<tag k="place" v="farm" />
		<tag k="ssr:stedsnr" v="546704" />
		<tag k="ssr:type" v="gard" />
	</node>
	<node changeset="58739156" id="5600735442" lat="58.3150944" lon="7.4288972" timestamp="2018-05-06T19:52:33Z" uid="3842253" user="NKA_import" version="1">
		<tag k="alt_name" v="Bjørkeli;Birkelien" />
		<tag k="name" v="Birkjeli" />
		<tag k="place" v="farm" />
		<tag k="ssr:stedsnr" v="546737" />
		<tag k="ssr:type" v="gard" />
	</node>
	<node changeset="58739156" id="5600735443" lat="58.3791472" lon="7.4834417" timestamp="2018-05-06T19:52:33Z" uid="3842253" user="NKA_import" version="1">
		<tag k="name" v="Voddan" />
		<tag k="place" v="farm" />
		<tag k="ssr:stedsnr" v="265170" />
		<tag k="ssr:type" v="bruk" />
	</node>
	<node changeset="58739156" id="5600735444" lat="58.2185" lon="7.6165944" timestamp="2018-05-06T19:52:33Z" uid="3842253" user="NKA_import" version="1">
		<tag k="name" v="Vollan" />
		<tag k="place" v="farm" />
		<tag k="ssr:stedsnr" v="872556" />
		<tag k="ssr:type" v="bruk" />
	</node>
	<node changeset="58739156" id="5600735445" lat="58.2772444" lon="7.4389917" timestamp="2018-05-06T19:52:33Z" uid="3842253" user="NKA_import" version="1">
		<tag k="name" v="Kleiven" />
		<tag k="place" v="farm" />
		<tag k="ssr:stedsnr" v="546784" />
		<tag k="ssr:type" v="gard" />
	</node>
	<node changeset="58739156" id="5600735446" lat="58.2722917" lon="7.4303194" timestamp="2018-05-06T19:52:33Z" uid="3842253" user="NKA_import" version="1">
		<tag k="alt_name" v="Vestre Lian" />
		<tag k="name" v="Lian" />
		<tag k="place" v="farm" />
		<tag k="ssr:stedsnr" v="546785" />
		<tag k="ssr:type" v="bruk" />
	</node>
	<node changeset="58739156" id="5600735447" lat="58.3662556" lon="7.4493" timestamp="2018-05-06T19:52:34Z" uid="3842253" user="NKA_import" version="1">
		<tag k="name" v="Runnan" />
		<tag k="place" v="locality" />
		<tag k="ssr:stedsnr" v="811161" />
		<tag k="ssr:type" v="gammelBosettingsplass" />
	</node>
	<node changeset="58739156" id="5600735448" lat="58.4110944" lon="7.6004472" timestamp="2018-05-06T19:52:34Z" uid="3842253" user="NKA_import" version="1">
		<tag k="alt_name" v="Bjønnevollen" />
		<tag k="name" v="Bjørnevollen" />
		<tag k="place" v="farm" />
		<tag k="ssr:stedsnr" v="546955" />
		<tag k="ssr:type" v="bruk" />
	</node>
	<node changeset="58739156" id="5600735449" lat="58.4147694" lon="7.6455889" timestamp="2018-05-06T19:52:34Z" uid="3842253" user="NKA_import" version="1">
		<tag k="alt_name" v="Eivenstad" />
		<tag k="name" v="Eivindstad" />
		<tag k="place" v="farm" />
		<tag k="ssr:stedsnr" v="546958" />
		<tag k="ssr:type" v="gard" />
	</node>
	<node changeset="58739156" id="5600735450" lat="58.4058667" lon="7.5945083" timestamp="2018-05-06T19:52:34Z" uid="3842253" user="NKA_import" version="1">
		<tag k="name" v="Haugland" />
		<tag k="place" v="hamlet" />
		<tag k="ssr:stedsnr" v="546971" />
		<tag k="ssr:type" v="gard" />
	</node>
	<node changeset="58739156" id="5600735451" lat="58.1735528" lon="7.5568889" timestamp="2018-05-06T19:52:34Z" uid="3842253" user="NKA_import" version="1">
		<tag k="name" v="Nesan" />
		<tag k="place" v="neighbourhood" />
		<tag k="ssr:stedsnr" v="325609" />
		<tag k="ssr:type" v="boligfelt" />
	</node>
	<node changeset="58739156" id="5600735452" lat="58.3526101" lon="7.4530571" timestamp="2018-05-06T19:52:34Z" uid="3842253" user="NKA_import" version="1">
		<tag k="alt_name" v="Abelsæth;Åpåse" />
		<tag k="name" v="Abelset" />
		<tag k="place" v="hamlet" />
		<tag k="ssr:stedsnr" v="977514" />
		<tag k="ssr:type" v="navnegard" />
	</node>
	<node changeset="58739156" id="5600735453" lat="58.3503666" lon="7.455875" timestamp="2018-05-06T19:52:34Z" uid="3842253" user="NKA_import" version="1">
		<tag k="name" v="Nedre Abelset" />
		<tag k="place" v="farm" />
		<tag k="ssr:stedsnr" v="977522" />
		<tag k="ssr:type" v="bruk" />
	</node>
	<node changeset="58739156" id="5600735454" lat="58.3925907" lon="7.611945" timestamp="2018-05-06T19:52:34Z" uid="3842253" user="NKA_import" version="1">
		<tag k="name" v="Koland" />
		<tag k="place" v="farm" />
		<tag k="ssr:stedsnr" v="977526" />
		<tag k="ssr:type" v="bruk" />
	</node>
	<node changeset="58739156" id="5600735269" lat="58.238375" lon="7.4613306" timestamp="2018-05-06T19:52:27Z" uid="3842253" user="NKA_import" version="1">
		<tag k="name" v="Åsen" />
		<tag k="place" v="farm" />
		<tag k="ssr:stedsnr" v="303651" />
		<tag k="ssr:type" v="bruk" />
	</node>
	<node changeset="58739156" id="5600735456" lat="58.2429361" lon="7.4448222" timestamp="2018-05-06T19:52:34Z" uid="3842253" user="NKA_import" version="1">
		<tag k="name" v="Møldal" />
		<tag k="place" v="locality" />
		<tag k="ssr:stedsnr" v="628462" />
		<tag k="ssr:type" v="gammelBosettingsplass" />
	</node>
	<node changeset="58739156" id="5600735457" lat="58.1530139" lon="7.4956917" timestamp="2018-05-06T19:52:34Z" uid="3842253" user="NKA_import" version="1">
		<tag k="name" v="Listad" />
		<tag k="place" v="farm" />
		<tag k="ssr:stedsnr" v="797" />
		<tag k="ssr:type" v="gard" />
	</node>
	<node changeset="58739156" id="5600735458" lat="58.2574361" lon="7.5262111" timestamp="2018-05-06T19:52:34Z" uid="3842253" user="NKA_import" version="1">
		<tag k="name" v="Kimestad" />
		<tag k="place" v="farm" />
		<tag k="ssr:stedsnr" v="182205" />
		<tag k="ssr:type" v="gard" />
	</node>
	<node changeset="58739156" id="5600735459" lat="58.3404389" lon="7.4637111" timestamp="2018-05-06T19:52:35Z" uid="3842253" user="NKA_import" version="1">
		<tag k="alt_name" v="Hjemlestad" />
		<tag k="name" v="Gjemlestad" />
		<tag k="place" v="farm" />
		<tag k="ssr:stedsnr" v="809" />
		<tag k="ssr:type" v="gard" />
	</node>
	<node changeset="58739156" id="5600735460" lat="58.2485639" lon="7.4622361" timestamp="2018-05-06T19:52:35Z" uid="3842253" user="NKA_import" version="1">
		<tag k="name" v="Ugland" />
		<tag k="place" v="farm" />
		<tag k="ssr:stedsnr" v="182629" />
		<tag k="ssr:type" v="gard" />
	</node>
	<node changeset="58739156" id="5600735461" lat="58.2083889" lon="7.60025" timestamp="2018-05-06T19:52:35Z" uid="3842253" user="NKA_import" version="1">
		<tag k="name" v="Murtestean" />
		<tag k="place" v="farm" />
		<tag k="ssr:stedsnr" v="182685" />
		<tag k="ssr:type" v="bruk" />
	</node>
	<node changeset="58739156" id="5600735462" lat="58.1787" lon="7.6405417" timestamp="2018-05-06T19:52:35Z" uid="3842253" user="NKA_import" version="1">
		<tag k="name" v="Flatåsen" />
		<tag k="place" v="farm" />
		<tag k="ssr:stedsnr" v="812" />
		<tag k="ssr:type" v="gard" />
	</node>
	<node changeset="58739156" id="5600735463" lat="58.2459167" lon="7.5117778" timestamp="2018-05-06T19:52:35Z" uid="3842253" user="NKA_import" version="1">
		<tag k="name" v="Storehagen" />
		<tag k="place" v="farm" />
		<tag k="ssr:stedsnr" v="728606" />
		<tag k="ssr:type" v="bruk" />
	</node>
	<node changeset="58739156" id="5600735464" lat="58.2623417" lon="7.4703389" timestamp="2018-05-06T19:52:35Z" uid="3842253" user="NKA_import" version="1">
		<tag k="alt_name" v="Fjellestad" />
		<tag k="name" v="Fjelestad" />
		<tag k="place" v="hamlet" />
		<tag k="ssr:stedsnr" v="826" />
		<tag k="ssr:type" v="grend" />
	</node>
	<node changeset="58739156" id="5600735465" lat="58.2468333" lon="7.4294694" timestamp="2018-05-06T19:52:35Z" uid="3842253" user="NKA_import" version="1">
		<tag k="name" v="Leineland" />
		<tag k="place" v="farm" />
		<tag k="ssr:stedsnr" v="728609" />
		<tag k="ssr:type" v="gard" />
	</node>
	<node changeset="58739156" id="5600735466" lat="58.2928194" lon="7.4207944" timestamp="2018-05-06T19:52:35Z" uid="3842253" user="NKA_import" version="1">
		<tag k="alt_name" v="Birkeland" />
		<tag k="name" v="Birkjeland" />
		<tag k="place" v="farm" />
		<tag k="ssr:stedsnr" v="867" />
		<tag k="ssr:type" v="gard" />
	</node>
	<node changeset="58739156" id="5600735467" lat="58.2022861" lon="7.6919417" timestamp="2018-05-06T19:52:35Z" uid="3842253" user="NKA_import" version="1">
		<tag k="alt_name" v="Fladeli;Flatelien" />
		<tag k="name" v="Flateli" />
		<tag k="place" v="farm" />
		<tag k="ssr:stedsnr" v="728657" />
		<tag k="ssr:type" v="gard" />
	</node>
	<node changeset="58739156" id="5600735468" lat="58.4262194" lon="7.5196444" timestamp="2018-05-06T19:52:35Z" uid="3842253" user="NKA_import" version="1">
		<tag k="name" v="Lunnan" />
		<tag k="place" v="farm" />
		<tag k="ssr:stedsnr" v="83442" />
		<tag k="ssr:type" v="bruk" />
	</node>
	<node changeset="58739156" id="5600735469" lat="58.1753417" lon="7.4845972" timestamp="2018-05-06T19:52:36Z" uid="3842253" user="NKA_import" version="1">
		<tag k="name" v="Myran" />
		<tag k="place" v="farm" />
		<tag k="ssr:stedsnr" v="447804" />
		<tag k="ssr:type" v="bruk" />
	</node>
	<node changeset="58739156" id="5600735470" lat="58.2292306" lon="7.5996306" timestamp="2018-05-06T19:52:36Z" uid="3842253" user="NKA_import" version="1">
		<tag k="name" v="Øygarden" />
		<tag k="place" v="locality" />
		<tag k="ssr:stedsnr" v="628535" />
		<tag k="ssr:type" v="gammelBosettingsplass" />
	</node>
	<node changeset="58739156" id="5600735471" lat="58.3148234" lon="7.4658471" timestamp="2018-05-06T19:52:36Z" uid="3842253" user="NKA_import" version="1">
		<tag k="alt_name" v="Brauskeland" />
		<tag k="name" v="Bruskeland" />
		<tag k="place" v="hamlet" />
		<tag k="ssr:stedsnr" v="728715" />
		<tag k="ssr:type" v="gard" />
	</node>
	<node changeset="58739156" id="5600735472" lat="58.3839389" lon="7.5594361" timestamp="2018-05-06T19:52:36Z" uid="3842253" user="NKA_import" version="1">
		<tag k="alt_name" v="Sølvskar;Sølvskaret" />
		<tag k="name" v="Sylvskardet" />
		<tag k="place" v="farm" />
		<tag k="ssr:stedsnr" v="998" />
		<tag k="ssr:type" v="gard" />
	</node>
	<node changeset="58739156" id="5600735473" lat="58.172609" lon="7.5654185" timestamp="2018-05-06T19:52:36Z" uid="3842253" user="NKA_import" version="1">
		<tag k="alt_name" v="Skjævesland" />
		<tag k="name" v="Sjævesland" />
		<tag k="place" v="hamlet" />
		<tag k="ssr:stedsnr" v="182782" />
		<tag k="ssr:type" v="tettsted" />
	</node>
	<node changeset="58739156" id="5600735474" lat="58.179925" lon="7.5433611" timestamp="2018-05-06T19:52:36Z" uid="3842253" user="NKA_import" version="1">
		<tag k="name" v="Usland" />
		<tag k="place" v="farm" />
		<tag k="ssr:stedsnr" v="182785" />
		<tag k="ssr:type" v="gard" />
	</node>
	<node changeset="58739156" id="5600735475" lat="58.3132389" lon="7.5201861" timestamp="2018-05-06T19:52:36Z" uid="3842253" user="NKA_import" version="1">
		<tag k="name" v="Neset" />
		<tag k="place" v="farm" />
		<tag k="ssr:stedsnr" v="728739" />
		<tag k="ssr:type" v="bruk" />
	</node>
	<node changeset="58739156" id="5600735476" lat="58.2396993" lon="7.4595458" timestamp="2018-05-06T19:52:36Z" uid="3842253" user="NKA_import" version="1">
		<tag k="name" v="Tørresås" />
		<tag k="place" v="farm" />
		<tag k="ssr:stedsnr" v="978904" />
		<tag k="ssr:type" v="gard" />
	</node>
	<node changeset="58739156" id="5600735477" lat="58.3071611" lon="7.457975" timestamp="2018-05-06T19:52:36Z" uid="3842253" user="NKA_import" version="1">
		<tag k="alt_name" v="Tjønnåsen" />
		<tag k="name" v="Tjørnåsen" />
		<tag k="place" v="farm" />
		<tag k="ssr:stedsnr" v="728744" />
		<tag k="ssr:type" v="gard" />
	</node>
	<node changeset="58739156" id="5600735478" lat="58.2420861" lon="7.4452245" timestamp="2018-05-06T19:52:36Z" uid="3842253" user="NKA_import" version="1">
		<tag k="name" v="Mølldal" />
		<tag k="place" v="farm" />
		<tag k="ssr:stedsnr" v="978905" />
		<tag k="ssr:type" v="gard" />
	</node>
	<node changeset="58739156" id="5600735479" lat="58.3712389" lon="7.4414111" timestamp="2018-05-06T19:52:36Z" uid="3842253" user="NKA_import" version="1">
		<tag k="name" v="Rosseland" />
		<tag k="place" v="farm" />
		<tag k="ssr:stedsnr" v="182934" />
		<tag k="ssr:type" v="bruk" />
	</node>
	<node changeset="58739156" id="5600735480" lat="58.2179986" lon="7.5010204" timestamp="2018-05-06T19:52:36Z" uid="3842253" user="NKA_import" version="1">
		<tag k="name" v="Støbakken" />
		<tag k="place" v="farm" />
		<tag k="ssr:stedsnr" v="978906" />
		<tag k="ssr:type" v="gard" />
	</node>
	<node changeset="58739156" id="5600735481" lat="58.2251648" lon="7.4793146" timestamp="2018-05-06T19:52:37Z" uid="3842253" user="NKA_import" version="1">
		<tag k="name" v="Mønnsås" />
		<tag k="place" v="farm" />
		<tag k="ssr:stedsnr" v="978910" />
		<tag k="ssr:type" v="gard" />
	</node>
	<node changeset="58739156" id="5600735482" lat="58.248168" lon="7.5051007" timestamp="2018-05-06T19:52:37Z" uid="3842253" user="NKA_import" version="1">
		<tag k="name" v="Nedre Laudal" />
		<tag k="place" v="farm" />
		<tag k="ssr:stedsnr" v="978925" />
		<tag k="ssr:type" v="gard" />
	</node>
	<node changeset="58739156" id="5600735483" lat="58.1538627" lon="7.6856968" timestamp="2018-05-06T19:52:37Z" uid="3842253" user="NKA_import" version="1">
		<tag k="name" v="Store Solås" />
		<tag k="place" v="farm" />
		<tag k="ssr:stedsnr" v="979095" />
		<tag k="ssr:type" v="gard" />
	</node>
	<node changeset="58739156" id="5600735484" lat="58.1475946" lon="7.6739287" timestamp="2018-05-06T19:52:37Z" uid="3842253" user="NKA_import" version="1">
		<tag k="name" v="Lille Solås" />
		<tag k="place" v="farm" />
		<tag k="ssr:stedsnr" v="979096" />
		<tag k="ssr:type" v="gard" />
	</node>
	<node changeset="58739156" id="5600735485" lat="58.1802167" lon="7.6733055" timestamp="2018-05-06T19:52:37Z" uid="3842253" user="NKA_import" version="1">
		<tag k="name" v="Sløgedal" />
		<tag k="place" v="farm" />
		<tag k="ssr:stedsnr" v="728792" />
		<tag k="ssr:type" v="gard" />
	</node>
	<node changeset="58739156" id="5600735486" lat="58.2866556" lon="7.4004972" timestamp="2018-05-06T19:52:37Z" uid="3842253" user="NKA_import" version="1">
		<tag k="alt_name" v="Birketveit" />
		<tag k="name" v="Birkjetveit" />
		<tag k="place" v="farm" />
		<tag k="ssr:stedsnr" v="728854" />
		<tag k="ssr:type" v="gard" />
	</node>
	<node changeset="58739156" id="5600735487" lat="58.293" lon="7.5263889" timestamp="2018-05-06T19:52:37Z" uid="3842253" user="NKA_import" version="1">
		<tag k="alt_name" v="Strædet" />
		<tag k="name" v="Stræde" />
		<tag k="place" v="farm" />
		<tag k="ssr:stedsnr" v="728864" />
		<tag k="ssr:type" v="gard" />
	</node>
	<node changeset="58739156" id="5600735488" lat="58.1686028" lon="7.578425" timestamp="2018-05-06T19:52:37Z" uid="3842253" user="NKA_import" version="1">
		<tag k="name" v="Brendebakke" />
		<tag k="place" v="neighbourhood" />
		<tag k="ssr:stedsnr" v="907101" />
		<tag k="ssr:type" v="boligfelt" />
	</node>
	<node changeset="58739156" id="5600735489" lat="58.2199006" lon="7.5236358" timestamp="2018-05-06T19:52:37Z" uid="3842253" user="NKA_import" version="1">
		<tag k="name" v="Fuglestveit" />
		<tag k="place" v="farm" />
		<tag k="ssr:stedsnr" v="979125" />
		<tag k="ssr:type" v="gard" />
	</node>
	<node changeset="58739156" id="5600735490" lat="58.4238833" lon="7.5195389" timestamp="2018-05-06T19:52:37Z" uid="3842253" user="NKA_import" version="1">
		<tag k="name" v="Foss" />
		<tag k="place" v="farm" />
		<tag k="ssr:stedsnr" v="728866" />
		<tag k="ssr:type" v="gard" />
	</node>
	<node changeset="58739156" id="5600735275" lat="58.2018896" lon="7.70622" timestamp="2018-05-06T19:52:27Z" uid="3842253" user="NKA_import" version="1">
		<tag k="alt_name" v="Bredland" />
		<tag k="name" v="Breland" />
		<tag k="place" v="hamlet" />
		<tag k="ssr:stedsnr" v="606687" />
		<tag k="ssr:type" v="grend" />
	</node>
	<node changeset="58739156" id="5600735492" lat="58.3431551" lon="7.4718474" timestamp="2018-05-06T19:52:37Z" uid="3842253" user="NKA_import" version="1">
		<tag k="name" v="Øvre Moland" />
		<tag k="place" v="farm" />
		<tag k="ssr:stedsnr" v="979138" />
		<tag k="ssr:type" v="gard" />
	</node>
	<node changeset="58739156" id="5600735493" lat="58.2424639" lon="7.4643056" timestamp="2018-05-06T19:52:38Z" uid="3842253" user="NKA_import" version="1">
		<tag k="alt_name" v="Hallingskår" />
		<tag k="name" v="Haddingskor" />
		<tag k="place" v="farm" />
		<tag k="ssr:stedsnr" v="910646" />
		<tag k="ssr:type" v="gard" />
	</node>
	<node changeset="58739156" id="5600735494" lat="58.4038694" lon="7.5878472" timestamp="2018-05-06T19:52:38Z" uid="3842253" user="NKA_import" version="1">
		<tag k="name" v="Under Fjellan" />
		<tag k="place" v="farm" />
		<tag k="ssr:stedsnr" v="811469" />
		<tag k="ssr:type" v="bruk" />
	</node>
	<node changeset="58739156" id="5600735495" lat="58.3258399" lon="7.4839915" timestamp="2018-05-06T19:52:38Z" uid="3842253" user="NKA_import" version="1">
		<tag k="name" v="Haraldstad" />
		<tag k="place" v="hamlet" />
		<tag k="ssr:stedsnr" v="979140" />
		<tag k="ssr:type" v="navnegard" />
	</node>
	<node changeset="58739156" id="5600735496" lat="58.454725" lon="7.4776083" timestamp="2018-05-06T19:52:38Z" uid="3842253" user="NKA_import" version="1">
		<tag k="name" v="Hommen" />
		<tag k="place" v="farm" />
		<tag k="ssr:stedsnr" v="728900" />
		<tag k="ssr:type" v="bruk" />
	</node>
	<node changeset="58739156" id="5600735497" lat="58.3814121" lon="7.5258727" timestamp="2018-05-06T19:52:38Z" uid="3842253" user="NKA_import" version="1">
		<tag k="name" v="Bjelland prestegård" />
		<tag k="place" v="farm" />
		<tag k="ssr:stedsnr" v="979141" />
		<tag k="ssr:type" v="gard" />
	</node>
	<node changeset="58739156" id="5600734205" lat="58.2174333" lon="7.619025" timestamp="2018-05-06T19:52:21Z" uid="3842253" user="NKA_import" version="1">
		<tag k="name" v="Høye" />
		<tag k="place" v="farm" />
		<tag k="ssr:stedsnr" v="121697" />
		<tag k="ssr:type" v="gard" />
	</node>
	<node changeset="58739156" id="5600735228" lat="58.3414167" lon="7.5044194" timestamp="2018-05-06T19:52:23Z" uid="3842253" user="NKA_import" version="1">
		<tag k="name" v="Pytten" />
		<tag k="place" v="isolated_dwelling" />
		<tag k="ssr:stedsnr" v="667766" />
		<tag k="ssr:type" v="eneboligMindreBoligbygg" />
	</node>
	<node changeset="58739156" id="5600734203" lat="58.2433566" lon="7.5097303" timestamp="2018-05-06T19:52:21Z" uid="3842253" user="NKA_import" version="1">
		<tag k="name" v="Kjerrvaneset" />
		<tag k="place" v="neighbourhood" />
		<tag k="ssr:stedsnr" v="265813" />
		<tag k="ssr:type" v="boligfelt" />
	</node>
	<node changeset="58739156" id="5600735281" lat="58.3023278" lon="7.4152861" timestamp="2018-05-06T19:52:28Z" uid="3842253" user="NKA_import" version="1">
		<tag k="alt_name" v="Rustad" />
		<tag k="name" v="Rusta" />
		<tag k="place" v="farm" />
		<tag k="ssr:stedsnr" v="303842" />
		<tag k="ssr:type" v="gard" />
	</node>
	<node changeset="58739156" id="5600735455" lat="58.2403306" lon="7.5678917" timestamp="2018-05-06T19:52:34Z" uid="3842253" user="NKA_import" version="1">
		<tag k="alt_name" v="Finnsådal" />
		<tag k="name" v="Finsådal" />
		<tag k="place" v="hamlet" />
		<tag k="ssr:stedsnr" v="630" />
		<tag k="ssr:type" v="grend" />
	</node>
	<node changeset="58739156" id="897847043" lat="58.2460902" lon="7.5050173" timestamp="2018-05-06T19:52:38Z" uid="3842253" user="NKA_import" version="2">
		<tag k="name" v="Laudal" />
		<tag k="place" v="village" />
		<tag k="ssr:stedsnr" v="546588" />
		<tag k="ssr:type" v="bruk" />
	</node>
	<node changeset="58739156" id="2517210439" lat="58.1599153" lon="7.649868" timestamp="2018-05-06T19:52:39Z" uid="3842253" user="NKA_import" version="2">
		<tag k="alt_name" v="Rødland" />
		<tag k="name" v="Rødlend" />
		<tag k="place" v="farm" />
		<tag k="ssr:stedsnr" v="667740" />
		<tag k="ssr:type" v="gard" />
	</node>
	<node changeset="58739156" id="5600735230" lat="58.16035" lon="7.6922111" timestamp="2018-05-06T19:52:23Z" uid="3842253" user="NKA_import" version="1">
		<tag k="name" v="Porskjær" />
		<tag k="place" v="farm" />
		<tag k="ssr:stedsnr" v="22700" />
		<tag k="ssr:type" v="bruk" />
	</node>
	<node changeset="58739156" id="2517210442" lat="58.1711569" lon="7.6594706" timestamp="2018-05-06T19:52:39Z" uid="3842253" user="NKA_import" version="2">
		<tag k="name" v="Eikså" />
		<tag k="place" v="hamlet" />
		<tag k="ssr:stedsnr" v="789" />
		<tag k="ssr:type" v="gard" />
	</node>
	<node changeset="58739156" id="5600735287" lat="58.3139111" lon="7.4472" timestamp="2018-05-06T19:52:28Z" uid="3842253" user="NKA_import" version="1">
		<tag k="name" v="Fjellheim" />
		<tag k="place" v="farm" />
		<tag k="ssr:stedsnr" v="606760" />
		<tag k="ssr:type" v="bruk" />
	</node>
	<node changeset="37001753" id="3988352924" lat="58.1557353" lon="7.5268404" timestamp="2016-02-04T16:21:17Z" uid="525288" user="musken" version="1" />
	<node changeset="58739156" id="5600735232" lat="58.2981639" lon="7.4900528" timestamp="2018-05-06T19:52:23Z" uid="3842253" user="NKA_import" version="1">
		<tag k="name" v="Solbakken" />
		<tag k="place" v="farm" />
		<tag k="ssr:stedsnr" v="667811" />
		<tag k="ssr:type" v="bruk" />
	</node>
	<node changeset="58739156" id="2517210451" lat="58.1567096" lon="7.6815544" timestamp="2018-05-06T19:52:39Z" uid="3842253" user="NKA_import" version="2">
		<tag k="name" v="Solås" />
		<tag k="place" v="hamlet" />
		<tag k="ssr:stedsnr" v="606759" />
		<tag k="ssr:type" v="bruk" />
	</node>
	<node changeset="58739156" id="823371097" lat="58.1930204" lon="7.5258291" timestamp="2018-05-06T19:52:38Z" uid="3842253" user="NKA_import" version="2">
		<tag k="alt_name" v="Helland" />
		<tag k="name" v="Heddeland" />
		<tag k="place" v="neighbourhood" />
		<tag k="ssr:stedsnr" v="364729" />
		<tag k="ssr:type" v="grend" />
	</node>
	<node changeset="58739156" id="5600735299" lat="58.3039194" lon="7.4321778" timestamp="2018-05-06T19:52:29Z" uid="3842253" user="NKA_import" version="1">
		<tag k="alt_name" v="Bjørnhom" />
		<tag k="name" v="Bjørnhommen" />
		<tag k="place" v="farm" />
		<tag k="ssr:stedsnr" v="242834" />
		<tag k="ssr:type" v="gard" />
	</node>
	<node changeset="37001753" id="3988352869" lat="58.1549314" lon="7.5261537" timestamp="2016-02-04T16:21:16Z" uid="525288" user="musken" version="1" />
	<node changeset="37001753" id="3988352870" lat="58.154671" lon="7.5246302" timestamp="2016-02-04T16:21:16Z" uid="525288" user="musken" version="1" />
	<node changeset="37001753" id="3988352871" lat="58.1541389" lon="7.5240294" timestamp="2016-02-04T16:21:16Z" uid="525288" user="musken" version="1" />
	<node changeset="37001753" id="3988352872" lat="58.1531879" lon="7.5234071" timestamp="2016-02-04T16:21:16Z" uid="525288" user="musken" version="1" />
	<node changeset="37001753" id="3988352873" lat="58.1527803" lon="7.5231067" timestamp="2016-02-04T16:21:16Z" uid="525288" user="musken" version="1" />
	<node changeset="37001753" id="3988352874" lat="58.1523274" lon="7.5231926" timestamp="2016-02-04T16:21:16Z" uid="525288" user="musken" version="1" />
	<node changeset="37001753" id="3988352875" lat="58.1520556" lon="7.5230209" timestamp="2016-02-04T16:21:16Z" uid="525288" user="musken" version="1" />
	<node changeset="37001753" id="3988352876" lat="58.1516933" lon="7.523214" timestamp="2016-02-04T16:21:16Z" uid="525288" user="musken" version="1" />
	<node changeset="37001753" id="3988352877" lat="58.1514103" lon="7.5227634" timestamp="2016-02-04T16:21:16Z" uid="525288" user="musken" version="1" />
	<node changeset="37001753" id="3988352878" lat="58.151716" lon="7.5221411" timestamp="2016-02-04T16:21:16Z" uid="525288" user="musken" version="1" />
	<node changeset="37001753" id="3988352879" lat="58.1520217" lon="7.5223986" timestamp="2016-02-04T16:21:16Z" uid="525288" user="musken" version="1" />
	<node changeset="37001753" id="3988352880" lat="58.1524406" lon="7.5220338" timestamp="2016-02-04T16:21:16Z" uid="525288" user="musken" version="1" />
	<node changeset="37001753" id="3988352881" lat="58.1532785" lon="7.520961" timestamp="2016-02-04T16:21:16Z" uid="525288" user="musken" version="1" />
	<node changeset="37001753" id="3988352882" lat="58.1535162" lon="7.5198452" timestamp="2016-02-04T16:21:16Z" uid="525288" user="musken" version="1" />
	<node changeset="37001753" id="3988352883" lat="58.1539578" lon="7.5196306" timestamp="2016-02-04T16:21:16Z" uid="525288" user="musken" version="1" />
	<node changeset="37001753" id="3988352884" lat="58.1542748" lon="7.519695" timestamp="2016-02-04T16:21:16Z" uid="525288" user="musken" version="1" />
	<node changeset="37001753" id="3988352885" lat="58.1546484" lon="7.5204674" timestamp="2016-02-04T16:21:16Z" uid="525288" user="musken" version="1" />
	<node changeset="37001753" id="3988352886" lat="58.1547956" lon="7.5210897" timestamp="2016-02-04T16:21:16Z" uid="525288" user="musken" version="1" />
	<node changeset="37001753" id="3988352887" lat="58.1558938" lon="7.5218836" timestamp="2016-02-04T16:21:16Z" uid="525288" user="musken" version="1" />
	<node changeset="37001753" id="3988352888" lat="58.1567881" lon="7.5216691" timestamp="2016-02-04T16:21:16Z" uid="525288" user="musken" version="1" />
	<node changeset="37001753" id="3988352889" lat="58.1579768" lon="7.5203172" timestamp="2016-02-04T16:21:16Z" uid="525288" user="musken" version="1" />
	<node changeset="37001753" id="3988352890" lat="58.1584636" lon="7.5196091" timestamp="2016-02-04T16:21:16Z" uid="525288" user="musken" version="1" />
	<node changeset="37001753" id="3988352891" lat="58.1588032" lon="7.520167" timestamp="2016-02-04T16:21:16Z" uid="525288" user="musken" version="1" />
	<node changeset="37001753" id="3988352892" lat="58.1599805" lon="7.5185577" timestamp="2016-02-04T16:21:16Z" uid="525288" user="musken" version="1" />
	<node changeset="37001753" id="3988352893" lat="58.1609993" lon="7.519695" timestamp="2016-02-04T16:21:16Z" uid="525288" user="musken" version="1" />
	<node changeset="37001753" id="3988352894" lat="58.1606484" lon="7.5207678" timestamp="2016-02-04T16:21:16Z" uid="525288" user="musken" version="1" />
	<node changeset="37001753" id="3988352895" lat="58.1605012" lon="7.5203601" timestamp="2016-02-04T16:21:16Z" uid="525288" user="musken" version="1" />
	<node changeset="37001753" id="3988352896" lat="58.1600145" lon="7.5205318" timestamp="2016-02-04T16:21:16Z" uid="525288" user="musken" version="1" />
	<node changeset="37001753" id="3988352897" lat="58.1595617" lon="7.5208322" timestamp="2016-02-04T16:21:16Z" uid="525288" user="musken" version="1" />
	<node changeset="37001753" id="3988352898" lat="58.1593239" lon="7.5216691" timestamp="2016-02-04T16:21:16Z" uid="525288" user="musken" version="1" />
	<node changeset="37001753" id="3988352899" lat="58.1585542" lon="7.5225274" timestamp="2016-02-04T16:21:16Z" uid="525288" user="musken" version="1" />
	<node changeset="37001753" id="3988352900" lat="58.1584976" lon="7.5231711" timestamp="2016-02-04T16:21:16Z" uid="525288" user="musken" version="1" />
	<node changeset="37001753" id="3988352901" lat="58.1580447" lon="7.5234501" timestamp="2016-02-04T16:21:16Z" uid="525288" user="musken" version="1" />
	<node changeset="37001753" id="3988352902" lat="58.1579655" lon="7.5239865" timestamp="2016-02-04T16:21:16Z" uid="525288" user="musken" version="1" />
	<node changeset="37001753" id="3988352903" lat="58.1580221" lon="7.5241796" timestamp="2016-02-04T16:21:16Z" uid="525288" user="musken" version="1" />
	<node changeset="37001753" id="3988352904" lat="58.1584862" lon="7.5243298" timestamp="2016-02-04T16:21:16Z" uid="525288" user="musken" version="1" />
	<node changeset="37001753" id="3988352905" lat="58.1586561" lon="7.5243942" timestamp="2016-02-04T16:21:16Z" uid="525288" user="musken" version="1" />
	<node changeset="37001753" id="3988352906" lat="58.158973" lon="7.5243513" timestamp="2016-02-04T16:21:16Z" uid="525288" user="musken" version="1" />
	<node changeset="37001753" id="3988352907" lat="58.1592447" lon="7.5245659" timestamp="2016-02-04T16:21:16Z" uid="525288" user="musken" version="1" />
	<node changeset="37001753" id="3988352908" lat="58.159573" lon="7.5245015" timestamp="2016-02-04T16:21:16Z" uid="525288" user="musken" version="1" />
	<node changeset="37001753" id="3988352909" lat="58.1597994" lon="7.5248663" timestamp="2016-02-04T16:21:16Z" uid="525288" user="musken" version="1" />
	<node changeset="37001753" id="3988352910" lat="58.1606144" lon="7.5250808" timestamp="2016-02-04T16:21:16Z" uid="525288" user="musken" version="1" />
	<node changeset="37001753" id="3988352911" lat="58.1608182" lon="7.5253812" timestamp="2016-02-04T16:21:16Z" uid="525288" user="musken" version="1" />
	<node changeset="37001753" id="3988352912" lat="58.1606597" lon="7.5257675" timestamp="2016-02-04T16:21:16Z" uid="525288" user="musken" version="1" />
	<node changeset="37001753" id="3988352913" lat="58.1609201" lon="7.5260893" timestamp="2016-02-04T16:21:16Z" uid="525288" user="musken" version="1" />
	<node changeset="37001753" id="3988352914" lat="58.1604446" lon="7.5268618" timestamp="2016-02-04T16:21:16Z" uid="525288" user="musken" version="1" />
	<node changeset="37001753" id="3988352915" lat="58.1603314" lon="7.5261537" timestamp="2016-02-04T16:21:16Z" uid="525288" user="musken" version="1" />
	<node changeset="37001753" id="3988352916" lat="58.160173" lon="7.527291" timestamp="2016-02-04T16:21:16Z" uid="525288" user="musken" version="1" />
	<node changeset="37001753" id="3988352917" lat="58.159822" lon="7.5276772" timestamp="2016-02-04T16:21:16Z" uid="525288" user="musken" version="1" />
	<node changeset="37001753" id="3988352918" lat="58.1592787" lon="7.5271193" timestamp="2016-02-04T16:21:16Z" uid="525288" user="musken" version="1" />
	<node changeset="37001753" id="3988352919" lat="58.1585428" lon="7.5268189" timestamp="2016-02-04T16:21:17Z" uid="525288" user="musken" version="1" />
	<node changeset="37001753" id="3988352920" lat="58.1580674" lon="7.5269477" timestamp="2016-02-04T16:21:17Z" uid="525288" user="musken" version="1" />
	<node changeset="37001753" id="3988352921" lat="58.1576032" lon="7.5272695" timestamp="2016-02-04T16:21:17Z" uid="525288" user="musken" version="1" />
	<node changeset="37001753" id="3988352922" lat="58.1564032" lon="7.5269262" timestamp="2016-02-04T16:21:17Z" uid="525288" user="musken" version="1" />
	<node changeset="37001753" id="3988352923" lat="58.1558485" lon="7.5271408" timestamp="2016-02-04T16:21:17Z" uid="525288" user="musken" version="1" />
	<node changeset="58739156" id="1471137692" lat="58.3839795" lon="7.5268354" timestamp="2018-05-06T19:52:38Z" uid="3842253" user="NKA_import" version="2">
		<tag k="name" v="Bjelland" />
		<tag k="place" v="village" />
		<tag k="ssr:stedsnr" v="386278" />
		<tag k="ssr:type" v="tettbebyggelse" />
	</node>
	<node changeset="37001753" id="3988352925" lat="58.1553617" lon="7.5267975" timestamp="2016-02-04T16:21:17Z" uid="525288" user="musken" version="1" />
	<node changeset="37001753" id="3988352926" lat="58.1552371" lon="7.5262825" timestamp="2016-02-04T16:21:17Z" uid="525288" user="musken" version="1" />
	<node changeset="58739156" id="5600735231" lat="58.2638074" lon="7.5214457" timestamp="2018-05-06T19:52:23Z" uid="3842253" user="NKA_import" version="1">
		<tag k="alt_name" v="Kleveland;Kleveland nedre" />
		<tag k="name" v="Nedre Kleveland" />
		<tag k="place" v="hamlet" />
		<tag k="ssr:stedsnr" v="667798" />
		<tag k="ssr:type" v="gard" />
	</node>
	<node changeset="58739156" id="2744860067" lat="58.1482821" lon="7.7037451" timestamp="2018-05-06T19:52:39Z" uid="3842253" user="NKA_import" version="3">
		<tag k="name" v="Folåsen" />
		<tag k="place" v="isolated_dwelling" />
		<tag k="ssr:stedsnr" v="485731" />
		<tag k="ssr:type" v="bruk" />
	</node>
	<node changeset="58739156" id="5600735233" lat="58.4478444" lon="7.529325" timestamp="2018-05-06T19:52:23Z" uid="3842253" user="NKA_import" version="1">
		<tag k="alt_name" v="Urdal;Uredalen" />
		<tag k="name" v="Urddal" />
		<tag k="place" v="farm" />
		<tag k="ssr:stedsnr" v="364940" />
		<tag k="ssr:type" v="gard" />
	</node>
	<node changeset="58739156" id="1471137705" lat="58.1673342" lon="7.5521619" timestamp="2018-05-06T19:52:39Z" uid="3842253" user="NKA_import" version="2">
		<tag k="name" v="Øyslebø" />
		<tag k="place" v="village" />
		<tag k="ssr:stedsnr" v="606776" />
		<tag k="ssr:type" v="tettsted" />
	</node>
	<node changeset="58739156" id="5600735221" lat="58.2384417" lon="7.5154278" timestamp="2018-05-06T19:52:22Z" uid="3842253" user="NKA_import" version="1">
		<tag k="name" v="Mjåland" />
		<tag k="place" v="farm" />
		<tag k="ssr:stedsnr" v="364660" />
		<tag k="ssr:type" v="gard" />
	</node>
	<node changeset="58739156" id="5600735305" lat="58.3640031" lon="7.5244516" timestamp="2018-05-06T19:52:30Z" uid="3842253" user="NKA_import" version="1">
		<tag k="name" v="Trygsland" />
		<tag k="place" v="hamlet" />
		<tag k="ssr:stedsnr" v="243965" />
		<tag k="ssr:type" v="gard" />
	</node>
	<node changeset="58739156" id="2580479935" lat="58.4393855" lon="7.620756" timestamp="2018-05-06T19:52:39Z" uid="3842253" user="NKA_import" version="2">
		<tag k="name" v="Roland" />
		<tag k="place" v="hamlet" />
		<tag k="ssr:stedsnr" v="937" />
		<tag k="ssr:type" v="gard" />
	</node>
	<node changeset="58739156" id="5600735222" lat="58.2680889" lon="7.4506667" timestamp="2018-05-06T19:52:23Z" uid="3842253" user="NKA_import" version="1">
		<tag k="name" v="Leivoll" />
		<tag k="place" v="farm" />
		<tag k="ssr:stedsnr" v="121826" />
		<tag k="ssr:type" v="bruk" />
	</node>
	<node changeset="58739156" id="5600735227" lat="58.3717778" lon="7.4798639" timestamp="2018-05-06T19:52:23Z" uid="3842253" user="NKA_import" version="1">
		<tag k="name" v="Mindrebø" />
		<tag k="place" v="farm" />
		<tag k="ssr:stedsnr" v="121945" />
		<tag k="ssr:type" v="gard" />
	</node>
	<node changeset="58739156" id="1471137689" lat="58.2132998" lon="7.5135914" timestamp="2018-05-06T19:52:38Z" uid="3842253" user="NKA_import" version="2">
		<tag k="name" v="Marnardal" />
		<tag k="place" v="village" />
		<tag k="ssr:stedsnr" v="61737" />
		<tag k="ssr:type" v="bygdelagBygd" />
	</node>
	<node changeset="58739156" id="5600735223" lat="58.4192194" lon="7.5976833" timestamp="2018-05-06T19:52:23Z" uid="3842253" user="NKA_import" version="1">
		<tag k="name" v="Lisletta" />
		<tag k="place" v="farm" />
		<tag k="ssr:stedsnr" v="121891" />
		<tag k="ssr:type" v="gard" />
	</node>
	<node changeset="58739156" id="5600735224" lat="58.2252194" lon="7.4826472" timestamp="2018-05-06T19:52:23Z" uid="3842253" user="NKA_import" version="1">
		<tag k="name" v="Mjunåsen" />
		<tag k="place" v="farm" />
		<tag k="ssr:stedsnr" v="364741" />
		<tag k="ssr:type" v="bruk" />
	</node>
	<node changeset="58739156" id="1471137686" lat="58.3842819" lon="7.602452" timestamp="2018-05-06T19:52:38Z" uid="3842253" user="NKA_import" version="3">
		<tag k="name" v="Koland" />
		<tag k="place" v="hamlet" />
		<tag k="ssr:stedsnr" v="303999" />
		<tag k="ssr:type" v="gard" />
	</node>
	<node changeset="58739156" id="5600735225" lat="58.2273028" lon="7.4698583" timestamp="2018-05-06T19:52:23Z" uid="3842253" user="NKA_import" version="1">
		<tag k="name" v="Tjomsland" />
		<tag k="place" v="farm" />
		<tag k="ssr:stedsnr" v="364742" />
		<tag k="ssr:type" v="gard" />
	</node>
	<node changeset="58739156" id="4621924312" lat="58.1499051" lon="7.5680103" timestamp="2018-05-06T19:52:39Z" uid="3842253" user="NKA_import" version="2">
		<tag k="name" v="Nome" />
		<tag k="place" v="hamlet" />
		<tag k="ssr:stedsnr" v="182765" />
		<tag k="ssr:type" v="gard" />
	</node>
	<node changeset="58739156" id="5600735226" lat="58.3884611" lon="7.6041056" timestamp="2018-05-06T19:52:23Z" uid="3842253" user="NKA_import" version="1">
		<tag k="name" v="Hauglandskaret" />
		<tag k="place" v="locality" />
		<tag k="ssr:stedsnr" v="750354" />
		<tag k="ssr:type" v="gammelBosettingsplass" />
	</node>
	<node changeset="58739156" id="5600734175" lat="58.1917847" lon="7.5197768" timestamp="2018-05-06T19:52:19Z" uid="3842253" user="NKA_import" version="1" />
	<node changeset="58739156" id="5600734176" lat="58.192746" lon="7.5205171" timestamp="2018-05-06T19:52:19Z" uid="3842253" user="NKA_import" version="1" />
	<node changeset="58739156" id="5600734177" lat="58.1933002" lon="7.5196373" timestamp="2018-05-06T19:52:19Z" uid="3842253" user="NKA_import" version="1" />
	<node changeset="58739156" id="5600734178" lat="58.1944226" lon="7.5199056" timestamp="2018-05-06T19:52:19Z" uid="3842253" user="NKA_import" version="1" />
	<node changeset="58739156" id="5600734179" lat="58.1909986" lon="7.5201362" timestamp="2018-05-06T19:52:19Z" uid="3842253" user="NKA_import" version="1" />
	<node changeset="58739156" id="5600734180" lat="58.1901023" lon="7.5227541" timestamp="2018-05-06T19:52:19Z" uid="3842253" user="NKA_import" version="1" />
	<node changeset="58739156" id="5600734181" lat="58.1900881" lon="7.5242829" timestamp="2018-05-06T19:52:19Z" uid="3842253" user="NKA_import" version="1" />
	<node changeset="58739156" id="5600734182" lat="58.1951209" lon="7.5239825" timestamp="2018-05-06T19:52:19Z" uid="3842253" user="NKA_import" version="1" />
	<node changeset="58739156" id="5600734183" lat="58.1952566" lon="7.519353" timestamp="2018-05-06T19:52:19Z" uid="3842253" user="NKA_import" version="1" />
	<node changeset="58739156" id="5600735491" lat="58.1601331" lon="7.5129065" timestamp="2018-05-06T19:52:37Z" uid="3842253" user="NKA_import" version="1">
		<tag k="name" v="Sagåsen" />
		<tag k="place" v="farm" />
		<tag k="ssr:stedsnr" v="979126" />
		<tag k="ssr:type" v="gard" />
	</node>
	<node changeset="58739156" id="5600734185" lat="58.1653" lon="7.6150778" timestamp="2018-05-06T19:52:19Z" uid="3842253" user="NKA_import" version="1">
		<tag k="name" v="Trælkilen" />
		<tag k="place" v="farm" />
		<tag k="ssr:stedsnr" v="448000" />
		<tag k="ssr:type" v="bruk" />
	</node>
	<node changeset="58739156" id="5600734186" lat="58.1982556" lon="7.5879861" timestamp="2018-05-06T19:52:19Z" uid="3842253" user="NKA_import" version="1">
		<tag k="name" v="Surteland" />
		<tag k="place" v="farm" />
		<tag k="ssr:stedsnr" v="910705" />
		<tag k="ssr:type" v="gard" />
	</node>
	<node changeset="58739156" id="5600734187" lat="58.3753833" lon="7.4427333" timestamp="2018-05-06T19:52:19Z" uid="3842253" user="NKA_import" version="1">
		<tag k="name" v="Myra" />
		<tag k="place" v="locality" />
		<tag k="ssr:stedsnr" v="22131" />
		<tag k="ssr:type" v="gammelBosettingsplass" />
	</node>
	<node changeset="58739156" id="5600734188" lat="58.3119083" lon="7.4974222" timestamp="2018-05-06T19:52:20Z" uid="3842253" user="NKA_import" version="1">
		<tag k="name" v="Skogen" />
		<tag k="place" v="farm" />
		<tag k="ssr:stedsnr" v="910757" />
		<tag k="ssr:type" v="gard" />
	</node>
	<node changeset="58739156" id="5600734189" lat="58.3210472" lon="7.5187861" timestamp="2018-05-06T19:52:20Z" uid="3842253" user="NKA_import" version="1">
		<tag k="alt_name" v="Haugeneset;Haukenes" />
		<tag k="name" v="Haukeneset" />
		<tag k="place" v="farm" />
		<tag k="ssr:stedsnr" v="910776" />
		<tag k="ssr:type" v="gard" />
	</node>
	<node changeset="58739156" id="5600734190" lat="58.300724" lon="7.4853808" timestamp="2018-05-06T19:52:20Z" uid="3842253" user="NKA_import" version="1">
		<tag k="name" v="Skuland" />
		<tag k="place" v="hamlet" />
		<tag k="ssr:stedsnr" v="910838" />
		<tag k="ssr:type" v="gard" />
	</node>
	<node changeset="58739156" id="5600734191" lat="58.4276306" lon="7.6102444" timestamp="2018-05-06T19:52:20Z" uid="3842253" user="NKA_import" version="1">
		<tag k="alt_name" v="Myra" />
		<tag k="name" v="Myri" />
		<tag k="place" v="farm" />
		<tag k="ssr:stedsnr" v="910894" />
		<tag k="ssr:type" v="bruk" />
	</node>
	<node changeset="58739156" id="5600734192" lat="58.4475222" lon="7.5199667" timestamp="2018-05-06T19:52:20Z" uid="3842253" user="NKA_import" version="1">
		<tag k="alt_name" v="Åsand" />
		<tag k="name" v="Åsan" />
		<tag k="place" v="farm" />
		<tag k="ssr:stedsnr" v="485932" />
		<tag k="ssr:type" v="gard" />
	</node>
	<node changeset="58739156" id="5600734193" lat="58.3683111" lon="7.5536667" timestamp="2018-05-06T19:52:20Z" uid="3842253" user="NKA_import" version="1">
		<tag k="alt_name" v="Tversland" />
		<tag k="name" v="Tvørsland" />
		<tag k="place" v="hamlet" />
		<tag k="ssr:stedsnr" v="485971" />
		<tag k="ssr:type" v="grend" />
	</node>
	<node changeset="58739156" id="5600734194" lat="58.3714389" lon="7.4581667" timestamp="2018-05-06T19:52:20Z" uid="3842253" user="NKA_import" version="1">
		<tag k="alt_name" v="Rydlende" />
		<tag k="name" v="Rydlendet" />
		<tag k="place" v="hamlet" />
		<tag k="ssr:stedsnr" v="910949" />
		<tag k="ssr:type" v="grend" />
	</node>
	<node changeset="58739156" id="5600734195" lat="58.2373639" lon="7.5506806" timestamp="2018-05-06T19:52:20Z" uid="3842253" user="NKA_import" version="1">
		<tag k="alt_name" v="Kvasshammer" />
		<tag k="name" v="Kvasshamar" />
		<tag k="place" v="farm" />
		<tag k="ssr:stedsnr" v="485602" />
		<tag k="ssr:type" v="gard" />
	</node>
	<node changeset="58739156" id="5600734196" lat="58.2074111" lon="7.6666056" timestamp="2018-05-06T19:52:20Z" uid="3842253" user="NKA_import" version="1">
		<tag k="name" v="Krossen" />
		<tag k="place" v="farm" />
		<tag k="ssr:stedsnr" v="485637" />
		<tag k="ssr:type" v="gard" />
	</node>
	<node changeset="58739156" id="5600734197" lat="58.3740889" lon="7.60445" timestamp="2018-05-06T19:52:20Z" uid="3842253" user="NKA_import" version="1">
		<tag k="name" v="Ask" />
		<tag k="place" v="farm" />
		<tag k="ssr:stedsnr" v="910956" />
		<tag k="ssr:type" v="gard" />
	</node>
	<node changeset="58739156" id="5600734198" lat="58.3137667" lon="7.5332222" timestamp="2018-05-06T19:52:20Z" uid="3842253" user="NKA_import" version="1">
		<tag k="alt_name" v="Rekevik" />
		<tag k="name" v="Regevik" />
		<tag k="place" v="farm" />
		<tag k="ssr:stedsnr" v="485721" />
		<tag k="ssr:type" v="gard" />
	</node>
	<node changeset="58739156" id="5600734199" lat="58.4205389" lon="7.4995583" timestamp="2018-05-06T19:52:21Z" uid="3842253" user="NKA_import" version="1">
		<tag k="building" v="cabin" />
		<tag k="name" v="Bua" />
		<tag k="place" v="isolated_dwelling" />
		<tag k="ssr:stedsnr" v="204192" />
		<tag k="ssr:type" v="fritidsbolig" />
	</node>
	<node changeset="58739156" id="5600734200" lat="58.2682389" lon="7.4551167" timestamp="2018-05-06T19:52:21Z" uid="3842253" user="NKA_import" version="1">
		<tag k="alt_name" v="Laudal, øvre;Laudal øvre" />
		<tag k="name" v="Øvre Laudal" />
		<tag k="place" v="hamlet" />
		<tag k="ssr:stedsnr" v="485802" />
		<tag k="ssr:type" v="grend" />
	</node>
	<node changeset="58739156" id="5600734201" lat="58.2889" lon="7.5289472" timestamp="2018-05-06T19:52:21Z" uid="3842253" user="NKA_import" version="1">
		<tag k="alt_name" v="Solkroen" />
		<tag k="name" v="Solkrona" />
		<tag k="place" v="farm" />
		<tag k="ssr:stedsnr" v="485860" />
		<tag k="ssr:type" v="gard" />
	</node>
	<node changeset="58739156" id="5600734202" lat="58.2943833" lon="7.5322945" timestamp="2018-05-06T19:52:21Z" uid="3842253" user="NKA_import" version="1">
		<tag k="alt_name" v="Haukedal" />
		<tag k="name" v="Haugedal" />
		<tag k="place" v="farm" />
		<tag k="ssr:stedsnr" v="485862" />
		<tag k="ssr:type" v="gard" />
	</node>
	<node changeset="58739156" id="4963949051" lat="58.3245265" lon="7.5330857" timestamp="2018-05-06T19:52:39Z" uid="3842253" user="NKA_import" version="2">
		<tag k="alt_name" v="Manflå" />
		<tag k="name" v="Mannflå" />
		<tag k="place" v="hamlet" />
		<tag k="ssr:stedsnr" v="61768" />
		<tag k="ssr:type" v="gard" />
	</node>
	<node changeset="58739156" id="5600734204" lat="58.2877222" lon="7.4453639" timestamp="2018-05-06T19:52:21Z" uid="3842253" user="NKA_import" version="1">
		<tag k="name" v="Nordheim" />
		<tag k="place" v="farm" />
		<tag k="ssr:stedsnr" v="121865" />
		<tag k="ssr:type" v="bruk" />
	</node>
	<node changeset="58739156" id="5600735229" lat="58.3731861" lon="7.5559111" timestamp="2018-05-06T19:52:23Z" uid="3842253" user="NKA_import" version="1">
		<tag k="alt_name" v="Fyllestean" />
		<tag k="name" v="Fyllstean" />
		<tag k="place" v="locality" />
		<tag k="ssr:stedsnr" v="121950" />
		<tag k="ssr:type" v="gammelBosettingsplass" />
	</node>
	<node changeset="58739156" id="5600734206" lat="58.2019417" lon="7.4536" timestamp="2018-05-06T19:52:21Z" uid="3842253" user="NKA_import" version="1">
		<tag k="name" v="Homestad" />
		<tag k="place" v="farm" />
		<tag k="ssr:stedsnr" v="121702" />
		<tag k="ssr:type" v="gard" />
	</node>
	<node changeset="58739156" id="5600734207" lat="58.4007417" lon="7.4832694" timestamp="2018-05-06T19:52:21Z" uid="3842253" user="NKA_import" version="1">
		<tag k="name" v="Bjenndal" />
		<tag k="place" v="locality" />
		<tag k="ssr:stedsnr" v="204310" />
		<tag k="ssr:type" v="gammelBosettingsplass" />
	</node>
	<way changeset="58292791" id="396038941" timestamp="2018-04-21T15:33:49Z" uid="3842253" user="NKA_import" version="2">
		<tag k="loc_name" v="Åsevatnet" />
		<tag k="name" v="Indre Åsevann" />
		<tag k="natural" v="water" />
		<tag k="ssr:stedsnr" v="752986" />
		<tag k="ssr:type" v="vann" />
		<tag k="water" v="lake" />
		<nd ref="3988352869" />
		<nd ref="3988352870" />
		<nd ref="3988352871" />
		<nd ref="3988352872" />
		<nd ref="3988352873" />
		<nd ref="3988352874" />
		<nd ref="3988352875" />
		<nd ref="3988352876" />
		<nd ref="3988352877" />
		<nd ref="3988352878" />
		<nd ref="3988352879" />
		<nd ref="3988352880" />
		<nd ref="3988352881" />
		<nd ref="3988352882" />
		<nd ref="3988352883" />
		<nd ref="3988352884" />
		<nd ref="3988352885" />
		<nd ref="3988352886" />
		<nd ref="3988352887" />
		<nd ref="3988352888" />
		<nd ref="3988352889" />
		<nd ref="3988352890" />
		<nd ref="3988352891" />
		<nd ref="3988352892" />
		<nd ref="3988352893" />
		<nd ref="3988352894" />
		<nd ref="3988352895" />
		<nd ref="3988352896" />
		<nd ref="3988352897" />
		<nd ref="3988352898" />
		<nd ref="3988352899" />
		<nd ref="3988352900" />
		<nd ref="3988352901" />
		<nd ref="3988352902" />
		<nd ref="3988352903" />
		<nd ref="3988352904" />
		<nd ref="3988352905" />
		<nd ref="3988352906" />
		<nd ref="3988352907" />
		<nd ref="3988352908" />
		<nd ref="3988352909" />
		<nd ref="3988352910" />
		<nd ref="3988352911" />
		<nd ref="3988352912" />
		<nd ref="3988352913" />
		<nd ref="3988352914" />
		<nd ref="3988352915" />
		<nd ref="3988352916" />
		<nd ref="3988352917" />
		<nd ref="3988352918" />
		<nd ref="3988352919" />
		<nd ref="3988352920" />
		<nd ref="3988352921" />
		<nd ref="3988352922" />
		<nd ref="3988352923" />
		<nd ref="3988352924" />
		<nd ref="3988352925" />
		<nd ref="3988352926" />
		<nd ref="3988352869" />
	</way>
	<way changeset="58739156" id="586113493" timestamp="2018-05-06T19:52:38Z" uid="3842253" user="NKA_import" version="1">
		<tag k="landuse" v="industrial" />
		<tag k="name" v="Heddeland" />
		<tag k="ssr:stedsnr" v="544017" />
		<tag k="ssr:type" v="industriområde" />
		<nd ref="5600734183" />
		<nd ref="5600734182" />
		<nd ref="5600734181" />
		<nd ref="5600734180" />
		<nd ref="5600734179" />
		<nd ref="5600734175" />
		<nd ref="5600734176" />
		<nd ref="5600734177" />
		<nd ref="5600734178" />
		<nd ref="5600734183" />
	</way>
</osm>
