<?xml version="1.0" encoding="UTF-8"?>
<osm version="0.6" generator="osmapis">
	<node lat="58.63916235625433" lon="7.978645603317956" id="-59802">
		<tag k="name" v="Øygardsvegen" />
		<tag k="ssr:date" v="2019-12-27" />
		<tag k="ssr:gruppe" v="veg" />
		<tag k="ssr:hovedgruppe" v="infrastruktur" />
		<tag k="ssr:stedsnr" v="222080" />
		<tag k="ssr:type" v="adressenavn" />
	</node>
	<node lat="58.507758698960465" lon="7.5703284760098" id="-59803">
		<tag k="name" v="Bjørndalen" />
		<tag k="ssr:date" v="2019-12-27" />
		<tag k="ssr:gruppe" v="veg" />
		<tag k="ssr:hovedgruppe" v="infrastruktur" />
		<tag k="ssr:stedsnr" v="222220" />
		<tag k="ssr:type" v="adressenavn" />
	</node>
	<node lat="58.618680572563484" lon="7.971558947489491" id="-59804">
		<tag k="name" v="Høgåsvegen" />
		<tag k="ssr:date" v="2019-12-27" />
		<tag k="ssr:gruppe" v="veg" />
		<tag k="ssr:hovedgruppe" v="infrastruktur" />
		<tag k="ssr:stedsnr" v="222958" />
		<tag k="ssr:type" v="adressenavn" />
	</node>
	<node lat="58.65331409706484" lon="7.9524017999902465" id="-59866">
		<tag k="name" v="Tjønnhomlia" />
		<tag k="ssr:date" v="2019-12-27" />
		<tag k="ssr:gruppe" v="veg" />
		<tag k="ssr:hovedgruppe" v="infrastruktur" />
		<tag k="ssr:stedsnr" v="40072" />
		<tag k="ssr:type" v="adressenavn" />
	</node>
	<node lat="58.50425065503538" lon="7.740272596510333" id="-59867">
		<tag k="name" v="Fjelestadvegen" />
		<tag k="ssr:date" v="2019-12-27" />
		<tag k="ssr:gruppe" v="veg" />
		<tag k="ssr:hovedgruppe" v="infrastruktur" />
		<tag k="ssr:stedsnr" v="40261" />
		<tag k="ssr:type" v="adressenavn" />
	</node>
	<node lat="58.6376897803624" lon="7.983004771730957" id="-59868">
		<tag k="name" v="Stuverødvegen" />
		<tag k="ssr:date" v="2019-12-27" />
		<tag k="ssr:gruppe" v="veg" />
		<tag k="ssr:hovedgruppe" v="infrastruktur" />
		<tag k="ssr:stedsnr" v="40105" />
		<tag k="ssr:type" v="adressenavn" />
	</node>
	<node lat="58.503149015637476" lon="7.524411802396003" id="-59877">
		<tag k="name" v="Sveindalsvegen" />
		<tag k="ssr:date" v="2019-12-27" />
		<tag k="ssr:gruppe" v="veg" />
		<tag k="ssr:hovedgruppe" v="infrastruktur" />
		<tag k="ssr:stedsnr" v="59276" />
		<tag k="ssr:type" v="adressenavn" />
	</node>
	<node lat="58.65487362666078" lon="7.967787110685712" id="-59953">
		<tag k="name" v="Botneheia" />
		<tag k="ssr:date" v="2019-12-27" />
		<tag k="ssr:gruppe" v="veg" />
		<tag k="ssr:hovedgruppe" v="infrastruktur" />
		<tag k="ssr:stedsnr" v="101062" />
		<tag k="ssr:type" v="adressenavn" />
	</node>
	<node lat="58.51801847870597" lon="7.696144110145681" id="-59958">
		<tag k="name" v="Rebbåslia" />
		<tag k="ssr:date" v="2019-12-27" />
		<tag k="ssr:gruppe" v="veg" />
		<tag k="ssr:hovedgruppe" v="infrastruktur" />
		<tag k="ssr:stedsnr" v="118208" />
		<tag k="ssr:type" v="adressenavn" />
	</node>
	<node lat="58.5166066548429" lon="7.691804055499419" id="-59959">
		<tag k="name" v="Grastjønnlia" />
		<tag k="ssr:date" v="2019-12-27" />
		<tag k="ssr:gruppe" v="veg" />
		<tag k="ssr:hovedgruppe" v="infrastruktur" />
		<tag k="ssr:stedsnr" v="118210" />
		<tag k="ssr:type" v="adressenavn" />
	</node>
	<node lat="58.649270242802814" lon="7.9436617985721" id="-60071">
		<tag k="name" v="Sandkilvegen" />
		<tag k="ssr:date" v="2019-12-27" />
		<tag k="ssr:gruppe" v="veg" />
		<tag k="ssr:hovedgruppe" v="infrastruktur" />
		<tag k="ssr:stedsnr" v="161107" />
		<tag k="ssr:type" v="adressenavn" />
	</node>
	<node lat="58.5313416682198" lon="7.658872229993768" id="-60079">
		<tag k="name" v="Solbakkvegen" />
		<tag k="ssr:date" v="2019-12-27" />
		<tag k="ssr:gruppe" v="veg" />
		<tag k="ssr:hovedgruppe" v="infrastruktur" />
		<tag k="ssr:stedsnr" v="161244" />
		<tag k="ssr:type" v="adressenavn" />
	</node>
	<node lat="58.47540606539312" lon="7.687799767473388" id="-60088">
		<tag k="name" v="Stusstjønnvegen" />
		<tag k="ssr:date" v="2019-12-27" />
		<tag k="ssr:gruppe" v="veg" />
		<tag k="ssr:hovedgruppe" v="infrastruktur" />
		<tag k="ssr:stedsnr" v="181060" />
		<tag k="ssr:type" v="adressenavn" />
	</node>
	<node lat="58.480872360320475" lon="7.685020364742032" id="-60089">
		<tag k="name" v="Oksebringa" />
		<tag k="ssr:date" v="2019-12-27" />
		<tag k="ssr:gruppe" v="veg" />
		<tag k="ssr:hovedgruppe" v="infrastruktur" />
		<tag k="ssr:stedsnr" v="181066" />
		<tag k="ssr:type" v="adressenavn" />
	</node>
	<node lat="58.65172391948451" lon="7.953220916864101" id="-60173">
		<tag k="name" v="Nipelivegen" />
		<tag k="ssr:date" v="2019-12-27" />
		<tag k="ssr:gruppe" v="veg" />
		<tag k="ssr:hovedgruppe" v="infrastruktur" />
		<tag k="ssr:stedsnr" v="222087" />
		<tag k="ssr:type" v="adressenavn" />
	</node>
	<node lat="58.65199536376895" lon="7.806612478236107" id="-60174">
		<tag k="name" v="Damvegen" />
		<tag k="ssr:date" v="2019-12-27" />
		<tag k="ssr:gruppe" v="veg" />
		<tag k="ssr:hovedgruppe" v="infrastruktur" />
		<tag k="ssr:stedsnr" v="222339" />
		<tag k="ssr:type" v="adressenavn" />
	</node>
	<node lat="58.57970909755667" lon="7.861175107659411" id="-60175">
		<tag k="name" v="Haugen" />
		<tag k="ssr:date" v="2019-12-27" />
		<tag k="ssr:gruppe" v="veg" />
		<tag k="ssr:hovedgruppe" v="infrastruktur" />
		<tag k="ssr:stedsnr" v="222939" />
		<tag k="ssr:type" v="adressenavn" />
	</node>
	<node lat="58.59860720943152" lon="7.833668757040575" id="-60176">
		<tag k="name" v="Kyrkjeåsen" />
		<tag k="ssr:date" v="2019-12-27" />
		<tag k="ssr:gruppe" v="veg" />
		<tag k="ssr:hovedgruppe" v="infrastruktur" />
		<tag k="ssr:stedsnr" v="222944" />
		<tag k="ssr:type" v="adressenavn" />
	</node>
	<node lat="58.473361561895935" lon="7.774840673003514" id="-60177">
		<tag k="name" v="Eikåsvegen" />
		<tag k="ssr:date" v="2019-12-27" />
		<tag k="ssr:gruppe" v="veg" />
		<tag k="ssr:hovedgruppe" v="infrastruktur" />
		<tag k="ssr:stedsnr" v="224926" />
		<tag k="ssr:type" v="adressenavn" />
	</node>
	<node lat="58.48065087665238" lon="7.684065926160489" id="-60182">
		<tag k="name" v="Vegbotn" />
		<tag k="ssr:date" v="2019-12-27" />
		<tag k="ssr:gruppe" v="veg" />
		<tag k="ssr:hovedgruppe" v="infrastruktur" />
		<tag k="ssr:stedsnr" v="241054" />
		<tag k="ssr:type" v="adressenavn" />
	</node>
	<node lat="58.5181184193834" lon="7.689062794868572" id="-60276">
		<tag k="name" v="Nutevegen" />
		<tag k="ssr:date" v="2019-12-27" />
		<tag k="ssr:gruppe" v="veg" />
		<tag k="ssr:hovedgruppe" v="infrastruktur" />
		<tag k="ssr:stedsnr" v="300234" />
		<tag k="ssr:type" v="adressenavn" />
	</node>
	<node lat="58.48068201145005" lon="7.681168608606827" id="-60277">
		<tag k="name" v="Vingmyrstien" />
		<tag k="ssr:date" v="2019-12-27" />
		<tag k="ssr:gruppe" v="veg" />
		<tag k="ssr:hovedgruppe" v="infrastruktur" />
		<tag k="ssr:stedsnr" v="302088" />
		<tag k="ssr:type" v="adressenavn" />
	</node>
	<node lat="58.457798310387005" lon="7.792417336338513" id="-60451">
		<tag k="name" v="Setesdalsvegen" />
		<tag k="ssr:date" v="2019-12-27" />
		<tag k="ssr:gruppe" v="veg" />
		<tag k="ssr:hovedgruppe" v="infrastruktur" />
		<tag k="ssr:stedsnr" v="343316" />
		<tag k="ssr:type" v="adressenavn" />
	</node>
	<node lat="58.57730099709086" lon="7.909671687478074" id="-60452">
		<tag k="name" v="Undeland" />
		<tag k="ssr:date" v="2019-12-27" />
		<tag k="ssr:gruppe" v="veg" />
		<tag k="ssr:hovedgruppe" v="infrastruktur" />
		<tag k="ssr:stedsnr" v="343966" />
		<tag k="ssr:type" v="adressenavn" />
	</node>
	<node lat="58.6083014330426" lon="7.865851613029715" id="-60453">
		<tag k="name" v="Stafossvegen" />
		<tag k="ssr:date" v="2019-12-27" />
		<tag k="ssr:gruppe" v="veg" />
		<tag k="ssr:hovedgruppe" v="infrastruktur" />
		<tag k="ssr:stedsnr" v="343969" />
		<tag k="ssr:type" v="adressenavn" />
	</node>
	<node lat="58.46588891537799" lon="7.677873350114228" id="-60463">
		<tag k="name" v="Bispevegen" />
		<tag k="ssr:date" v="2019-12-27" />
		<tag k="ssr:gruppe" v="veg" />
		<tag k="ssr:hovedgruppe" v="infrastruktur" />
		<tag k="ssr:stedsnr" v="362066" />
		<tag k="ssr:type" v="adressenavn" />
	</node>
	<node lat="58.568767507295476" lon="7.867236808383984" id="-60485">
		<tag k="name" v="Åmland" />
		<tag k="ssr:date" v="2019-12-27" />
		<tag k="ssr:gruppe" v="veg" />
		<tag k="ssr:hovedgruppe" v="infrastruktur" />
		<tag k="ssr:stedsnr" v="465940" />
		<tag k="ssr:type" v="adressenavn" />
	</node>
	<node lat="58.59915965148097" lon="7.829494503822668" id="-60486">
		<tag k="name" v="Evjekilen" />
		<tag k="ssr:date" v="2019-12-27" />
		<tag k="ssr:gruppe" v="veg" />
		<tag k="ssr:hovedgruppe" v="infrastruktur" />
		<tag k="ssr:stedsnr" v="465952" />
		<tag k="ssr:type" v="adressenavn" />
	</node>
	<node lat="58.537176823631796" lon="7.845117797683064" id="-60487">
		<tag k="name" v="Lauvlandsvegen" />
		<tag k="ssr:date" v="2019-12-27" />
		<tag k="ssr:gruppe" v="veg" />
		<tag k="ssr:hovedgruppe" v="infrastruktur" />
		<tag k="ssr:stedsnr" v="465994" />
		<tag k="ssr:type" v="adressenavn" />
	</node>
	<node lat="58.51861346229021" lon="7.6923523921811645" id="-60566">
		<tag k="name" v="Lislåttane" />
		<tag k="ssr:date" v="2019-12-27" />
		<tag k="ssr:gruppe" v="veg" />
		<tag k="ssr:hovedgruppe" v="infrastruktur" />
		<tag k="ssr:stedsnr" v="422220" />
		<tag k="ssr:type" v="adressenavn" />
	</node>
	<node lat="58.48133164903049" lon="7.697338575460378" id="-60678">
		<tag k="name" v="Oksebringstien" />
		<tag k="ssr:date" v="2019-12-27" />
		<tag k="ssr:gruppe" v="veg" />
		<tag k="ssr:hovedgruppe" v="infrastruktur" />
		<tag k="ssr:stedsnr" v="666063" />
		<tag k="ssr:type" v="adressenavn" />
	</node>
	<node lat="58.65007590952149" lon="7.954595835517561" id="-60796">
		<tag k="name" v="Kalvehagen" />
		<tag k="ssr:date" v="2019-12-27" />
		<tag k="ssr:gruppe" v="veg" />
		<tag k="ssr:hovedgruppe" v="infrastruktur" />
		<tag k="ssr:stedsnr" v="525106" />
		<tag k="ssr:type" v="adressenavn" />
	</node>
	<node lat="58.65805444348421" lon="7.968415042577145" id="-60797">
		<tag k="name" v="Snarehei" />
		<tag k="ssr:date" v="2019-12-27" />
		<tag k="ssr:gruppe" v="veg" />
		<tag k="ssr:hovedgruppe" v="infrastruktur" />
		<tag k="ssr:stedsnr" v="525071" />
		<tag k="ssr:type" v="adressenavn" />
	</node>
	<node lat="58.47218686287285" lon="7.607216632623282" id="-60798">
		<tag k="name" v="Abusdalsvegen" />
		<tag k="ssr:date" v="2019-12-27" />
		<tag k="ssr:gruppe" v="veg" />
		<tag k="ssr:hovedgruppe" v="infrastruktur" />
		<tag k="ssr:stedsnr" v="525267" />
		<tag k="ssr:type" v="adressenavn" />
	</node>
	<node lat="58.59163333738955" lon="7.832413881679486" id="-60804">
		<tag k="name" v="Thorittvegen" />
		<tag k="ssr:date" v="2019-12-27" />
		<tag k="ssr:gruppe" v="veg" />
		<tag k="ssr:hovedgruppe" v="infrastruktur" />
		<tag k="ssr:stedsnr" v="540582" />
		<tag k="ssr:type" v="adressenavn" />
	</node>
	<node lat="58.524299804670754" lon="7.666851922832789" id="-60886">
		<tag k="name" v="Stangeråsvegen" />
		<tag k="ssr:date" v="2019-12-27" />
		<tag k="ssr:gruppe" v="veg" />
		<tag k="ssr:hovedgruppe" v="infrastruktur" />
		<tag k="ssr:stedsnr" v="585205" />
		<tag k="ssr:type" v="adressenavn" />
	</node>
	<node lat="58.59059284678427" lon="7.8276162390696085" id="-60892">
		<tag k="name" v="Beryllvegen" />
		<tag k="ssr:date" v="2019-12-27" />
		<tag k="ssr:gruppe" v="veg" />
		<tag k="ssr:hovedgruppe" v="infrastruktur" />
		<tag k="ssr:stedsnr" v="601555" />
		<tag k="ssr:type" v="adressenavn" />
	</node>
	<node lat="58.50909679915311" lon="7.55408829980576" id="-60970">
		<tag k="name" v="Sollivegen" />
		<tag k="ssr:date" v="2019-12-27" />
		<tag k="ssr:gruppe" v="veg" />
		<tag k="ssr:hovedgruppe" v="infrastruktur" />
		<tag k="ssr:stedsnr" v="646240" />
		<tag k="ssr:type" v="adressenavn" />
	</node>
	<node lat="58.59092777410477" lon="7.829838895023217" id="-60982">
		<tag k="name" v="Biotittvegen" />
		<tag k="ssr:date" v="2019-12-27" />
		<tag k="ssr:gruppe" v="veg" />
		<tag k="ssr:hovedgruppe" v="infrastruktur" />
		<tag k="ssr:stedsnr" v="662602" />
		<tag k="ssr:type" v="adressenavn" />
	</node>
	<node lat="58.64402953556122" lon="7.968324883158761" id="-61143">
		<tag k="name" v="Lauvås" />
		<tag k="ssr:date" v="2019-12-27" />
		<tag k="ssr:gruppe" v="veg" />
		<tag k="ssr:hovedgruppe" v="infrastruktur" />
		<tag k="ssr:stedsnr" v="707107" />
		<tag k="ssr:type" v="adressenavn" />
	</node>
	<node lat="58.63485250587008" lon="7.812843860477957" id="-61144">
		<tag k="name" v="Syrtveit" />
		<tag k="ssr:date" v="2019-12-27" />
		<tag k="ssr:gruppe" v="veg" />
		<tag k="ssr:hovedgruppe" v="infrastruktur" />
		<tag k="ssr:stedsnr" v="707373" />
		<tag k="ssr:type" v="adressenavn" />
	</node>
	<node lat="58.65996318753107" lon="7.798842325607136" id="-61145">
		<tag k="name" v="Finnholvegen" />
		<tag k="ssr:date" v="2019-12-27" />
		<tag k="ssr:gruppe" v="veg" />
		<tag k="ssr:hovedgruppe" v="infrastruktur" />
		<tag k="ssr:stedsnr" v="707378" />
		<tag k="ssr:type" v="adressenavn" />
	</node>
	<node lat="58.507363849848936" lon="7.548821062916122" id="-61146">
		<tag k="name" v="Bjørnekrovegen" />
		<tag k="ssr:date" v="2019-12-27" />
		<tag k="ssr:gruppe" v="veg" />
		<tag k="ssr:hovedgruppe" v="infrastruktur" />
		<tag k="ssr:stedsnr" v="889244" />
		<tag k="ssr:type" v="adressenavn" />
	</node>
	<node lat="58.651855468894006" lon="7.949606073607846" id="-61147">
		<tag k="name" v="Guddalsvegen" />
		<tag k="ssr:date" v="2019-12-27" />
		<tag k="ssr:gruppe" v="veg" />
		<tag k="ssr:hovedgruppe" v="infrastruktur" />
		<tag k="ssr:stedsnr" v="890072" />
		<tag k="ssr:type" v="adressenavn" />
	</node>
	<node lat="58.65126936886148" lon="7.952157006444943" id="-61148">
		<tag k="name" v="Trengslemyrvegen" />
		<tag k="ssr:date" v="2019-12-27" />
		<tag k="ssr:gruppe" v="veg" />
		<tag k="ssr:hovedgruppe" v="infrastruktur" />
		<tag k="ssr:stedsnr" v="890093" />
		<tag k="ssr:type" v="adressenavn" />
	</node>
	<node lat="58.46506388888703" lon="7.64559166975318" id="-61149">
		<tag k="name" v="Mjunelivegen" />
		<tag k="ssr:date" v="2019-12-27" />
		<tag k="ssr:gruppe" v="veg" />
		<tag k="ssr:hovedgruppe" v="infrastruktur" />
		<tag k="ssr:stedsnr" v="890560" />
		<tag k="ssr:type" v="adressenavn" />
	</node>
	<node lat="58.576256023772494" lon="7.840646520107363" id="-61225">
		<tag k="name" v="Åslandsvegen" />
		<tag k="ssr:date" v="2019-12-27" />
		<tag k="ssr:gruppe" v="veg" />
		<tag k="ssr:hovedgruppe" v="infrastruktur" />
		<tag k="ssr:stedsnr" v="768951" />
		<tag k="ssr:type" v="adressenavn" />
	</node>
	<node lat="58.48768413081618" lon="7.7066749349910815" id="-61237">
		<tag k="name" v="Espetveit" />
		<tag k="ssr:date" v="2019-12-27" />
		<tag k="ssr:gruppe" v="veg" />
		<tag k="ssr:hovedgruppe" v="infrastruktur" />
		<tag k="ssr:stedsnr" v="787053" />
		<tag k="ssr:type" v="adressenavn" />
	</node>
	<node lat="58.6029572446606" lon="7.808098932652317" id="-61238">
		<tag k="name" v="Åsvegen" />
		<tag k="ssr:date" v="2019-12-27" />
		<tag k="ssr:gruppe" v="veg" />
		<tag k="ssr:hovedgruppe" v="infrastruktur" />
		<tag k="ssr:stedsnr" v="787338" />
		<tag k="ssr:type" v="adressenavn" />
	</node>
	<node lat="58.48413294208856" lon="7.607172987870148" id="-61253">
		<tag k="name" v="Vasslandsgrenda" />
		<tag k="ssr:date" v="2019-12-27" />
		<tag k="ssr:gruppe" v="veg" />
		<tag k="ssr:hovedgruppe" v="infrastruktur" />
		<tag k="ssr:stedsnr" v="905199" />
		<tag k="ssr:type" v="adressenavn" />
	</node>
	<node lat="58.58776696231698" lon="7.7081056480685906" id="-61315">
		<tag k="name" v="Slettheivegen" />
		<tag k="ssr:date" v="2019-12-27" />
		<tag k="ssr:gruppe" v="veg" />
		<tag k="ssr:hovedgruppe" v="infrastruktur" />
		<tag k="ssr:stedsnr" v="908346" />
		<tag k="ssr:type" v="adressenavn" />
	</node>
	<node lat="58.60154035917206" lon="7.668033432684749" id="-61356">
		<tag k="name" v="Skjerkevegen" />
		<tag k="ssr:date" v="2019-12-27" />
		<tag k="ssr:gruppe" v="veg" />
		<tag k="ssr:hovedgruppe" v="infrastruktur" />
		<tag k="ssr:stedsnr" v="848305" />
		<tag k="ssr:type" v="adressenavn" />
	</node>
	<node lat="58.68027453722714" lon="7.605564589362089" id="-61357">
		<tag k="name" v="Yksenskårvegen" />
		<tag k="ssr:date" v="2019-12-27" />
		<tag k="ssr:gruppe" v="veg" />
		<tag k="ssr:hovedgruppe" v="infrastruktur" />
		<tag k="ssr:stedsnr" v="848306" />
		<tag k="ssr:type" v="adressenavn" />
	</node>
	<node lat="58.59928081367875" lon="7.942373188553678" id="-61451">
		<tag k="name" v="Einarkilvegen" />
		<tag k="ssr:date" v="2019-12-27" />
		<tag k="ssr:gruppe" v="veg" />
		<tag k="ssr:hovedgruppe" v="infrastruktur" />
		<tag k="ssr:stedsnr" v="890963" />
		<tag k="ssr:type" v="adressenavn" />
	</node>
	<node lat="58.600101205872264" lon="7.940581917938665" id="-61452">
		<tag k="name" v="Sundskilen" />
		<tag k="ssr:date" v="2019-12-27" />
		<tag k="ssr:gruppe" v="veg" />
		<tag k="ssr:hovedgruppe" v="infrastruktur" />
		<tag k="ssr:stedsnr" v="890964" />
		<tag k="ssr:type" v="adressenavn" />
	</node>
	<node lat="58.60830337677586" lon="7.947836565570002" id="-61453">
		<tag k="name" v="Vikstølvegen" />
		<tag k="ssr:date" v="2019-12-27" />
		<tag k="ssr:gruppe" v="veg" />
		<tag k="ssr:hovedgruppe" v="infrastruktur" />
		<tag k="ssr:stedsnr" v="890966" />
		<tag k="ssr:type" v="adressenavn" />
	</node>
	<node lat="58.46581997631286" lon="7.730634350357876" id="-61458">
		<tag k="name" v="Skranevannsvegen" />
		<tag k="ssr:date" v="2019-12-27" />
		<tag k="ssr:gruppe" v="veg" />
		<tag k="ssr:hovedgruppe" v="infrastruktur" />
		<tag k="ssr:stedsnr" v="909056" />
		<tag k="ssr:type" v="adressenavn" />
	</node>
	<node lat="58.48063304224709" lon="7.678310925585825" id="-61459">
		<tag k="name" v="Vingmyrvegen" />
		<tag k="ssr:date" v="2019-12-27" />
		<tag k="ssr:gruppe" v="veg" />
		<tag k="ssr:hovedgruppe" v="infrastruktur" />
		<tag k="ssr:stedsnr" v="909072" />
		<tag k="ssr:type" v="adressenavn" />
	</node>
	<node lat="58.64273055302322" lon="7.9743277730188105" id="-61545">
		<tag k="name" v="Steinbrubekken" />
		<tag k="ssr:date" v="2019-12-27" />
		<tag k="ssr:gruppe" v="veg" />
		<tag k="ssr:hovedgruppe" v="infrastruktur" />
		<tag k="ssr:stedsnr" v="950104" />
		<tag k="ssr:type" v="adressenavn" />
	</node>
	<node lat="58.593911112421246" lon="7.932075003614118" id="-61546">
		<tag k="name" v="Ånestølkilen" />
		<tag k="ssr:date" v="2019-12-27" />
		<tag k="ssr:gruppe" v="veg" />
		<tag k="ssr:hovedgruppe" v="infrastruktur" />
		<tag k="ssr:stedsnr" v="950947" />
		<tag k="ssr:type" v="adressenavn" />
	</node>
	<node lat="58.617420396199144" lon="7.987654246862045" id="-61547">
		<tag k="name" v="Slettemyr" />
		<tag k="ssr:date" v="2019-12-27" />
		<tag k="ssr:gruppe" v="veg" />
		<tag k="ssr:hovedgruppe" v="infrastruktur" />
		<tag k="ssr:stedsnr" v="950956" />
		<tag k="ssr:type" v="adressenavn" />
	</node>
	<node lat="58.62117500186914" lon="7.98906111049721" id="-61548">
		<tag k="name" v="Takåsen" />
		<tag k="ssr:date" v="2019-12-27" />
		<tag k="ssr:gruppe" v="veg" />
		<tag k="ssr:hovedgruppe" v="infrastruktur" />
		<tag k="ssr:stedsnr" v="950957" />
		<tag k="ssr:type" v="adressenavn" />
	</node>
	<node lat="58.619210922357354" lon="7.986401891044226" id="-61549">
		<tag k="name" v="Risdalslia" />
		<tag k="ssr:date" v="2019-12-27" />
		<tag k="ssr:gruppe" v="veg" />
		<tag k="ssr:hovedgruppe" v="infrastruktur" />
		<tag k="ssr:stedsnr" v="950959" />
		<tag k="ssr:type" v="adressenavn" />
	</node>
	<node lat="58.51578629535054" lon="7.70274667343518" id="-61567">
		<tag k="name" v="Rebbåsvegen" />
		<tag k="ssr:date" v="2019-12-27" />
		<tag k="ssr:gruppe" v="veg" />
		<tag k="ssr:hovedgruppe" v="infrastruktur" />
		<tag k="ssr:stedsnr" v="978639" />
		<tag k="ssr:type" v="adressenavn" />
	</node>
	<node lat="58.57009898340098" lon="7.782359552735688" id="-61568">
		<tag k="name" v="Regimentsgata" />
		<tag k="ssr:date" v="2019-12-27" />
		<tag k="ssr:gruppe" v="veg" />
		<tag k="ssr:hovedgruppe" v="infrastruktur" />
		<tag k="ssr:stedsnr" v="978640" />
		<tag k="ssr:type" v="adressenavn" />
	</node>
	<node lat="58.58222566411287" lon="7.7946119632493565" id="-61569">
		<tag k="name" v="Malmvegen" />
		<tag k="ssr:date" v="2019-12-27" />
		<tag k="ssr:gruppe" v="veg" />
		<tag k="ssr:hovedgruppe" v="infrastruktur" />
		<tag k="ssr:stedsnr" v="978641" />
		<tag k="ssr:type" v="adressenavn" />
	</node>
	<node lat="58.55721349365837" lon="7.764391745073839" id="-61570">
		<tag k="name" v="Rådyrvegen" />
		<tag k="ssr:date" v="2019-12-27" />
		<tag k="ssr:gruppe" v="veg" />
		<tag k="ssr:hovedgruppe" v="infrastruktur" />
		<tag k="ssr:stedsnr" v="978675" />
		<tag k="ssr:type" v="adressenavn" />
	</node>
	<node lat="58.56912410352837" lon="7.7833174462272945" id="-61571">
		<tag k="name" v="Sambandsvegen" />
		<tag k="ssr:date" v="2019-12-27" />
		<tag k="ssr:gruppe" v="veg" />
		<tag k="ssr:hovedgruppe" v="infrastruktur" />
		<tag k="ssr:stedsnr" v="978676" />
		<tag k="ssr:type" v="adressenavn" />
	</node>
	<node lat="58.49199659470039" lon="7.778333423892894" id="-61572">
		<tag k="name" v="Sandbekk" />
		<tag k="ssr:date" v="2019-12-27" />
		<tag k="ssr:gruppe" v="veg" />
		<tag k="ssr:hovedgruppe" v="infrastruktur" />
		<tag k="ssr:stedsnr" v="978677" />
		<tag k="ssr:type" v="adressenavn" />
	</node>
	<node lat="58.58185047301135" lon="7.796233938973561" id="-61573">
		<tag k="name" v="Fosvikgata" />
		<tag k="ssr:date" v="2019-12-27" />
		<tag k="ssr:gruppe" v="veg" />
		<tag k="ssr:hovedgruppe" v="infrastruktur" />
		<tag k="ssr:stedsnr" v="978575" />
		<tag k="ssr:type" v="adressenavn" />
	</node>
	<node lat="58.5712966175221" lon="7.770256922401145" id="-61574">
		<tag k="name" v="Furuvegen" />
		<tag k="ssr:date" v="2019-12-27" />
		<tag k="ssr:gruppe" v="veg" />
		<tag k="ssr:hovedgruppe" v="infrastruktur" />
		<tag k="ssr:stedsnr" v="978576" />
		<tag k="ssr:type" v="adressenavn" />
	</node>
	<node lat="58.55652276687842" lon="7.7549668299260635" id="-61575">
		<tag k="name" v="Gaupevegen" />
		<tag k="ssr:date" v="2019-12-27" />
		<tag k="ssr:gruppe" v="veg" />
		<tag k="ssr:hovedgruppe" v="infrastruktur" />
		<tag k="ssr:stedsnr" v="978577" />
		<tag k="ssr:type" v="adressenavn" />
	</node>
	<node lat="58.588108665474806" lon="7.817862784252232" id="-61576">
		<tag k="name" v="Grenjåvegen" />
		<tag k="ssr:date" v="2019-12-27" />
		<tag k="ssr:gruppe" v="veg" />
		<tag k="ssr:hovedgruppe" v="infrastruktur" />
		<tag k="ssr:stedsnr" v="978578" />
		<tag k="ssr:type" v="adressenavn" />
	</node>
	<node lat="58.565702256156875" lon="7.772553064493131" id="-61577">
		<tag k="name" v="Gymnasvegen" />
		<tag k="ssr:date" v="2019-12-27" />
		<tag k="ssr:gruppe" v="veg" />
		<tag k="ssr:hovedgruppe" v="infrastruktur" />
		<tag k="ssr:stedsnr" v="978579" />
		<tag k="ssr:type" v="adressenavn" />
	</node>
	<node lat="58.57153889476043" lon="7.771613236060707" id="-61578">
		<tag k="name" v="Lyngvegen" />
		<tag k="ssr:date" v="2019-12-27" />
		<tag k="ssr:gruppe" v="veg" />
		<tag k="ssr:hovedgruppe" v="infrastruktur" />
		<tag k="ssr:stedsnr" v="978636" />
		<tag k="ssr:type" v="adressenavn" />
	</node>
	<node lat="58.59135465267923" lon="7.826874774605311" id="-61579">
		<tag k="name" v="Oddeskogen" />
		<tag k="ssr:date" v="2019-12-27" />
		<tag k="ssr:gruppe" v="veg" />
		<tag k="ssr:hovedgruppe" v="infrastruktur" />
		<tag k="ssr:stedsnr" v="978638" />
		<tag k="ssr:type" v="adressenavn" />
	</node>
	<node lat="58.575890121695785" lon="7.785776786486399" id="-61580">
		<tag k="name" v="General Holms veg" />
		<tag k="ssr:date" v="2019-12-27" />
		<tag k="ssr:gruppe" v="veg" />
		<tag k="ssr:hovedgruppe" v="infrastruktur" />
		<tag k="ssr:stedsnr" v="978824" />
		<tag k="ssr:type" v="adressenavn" />
	</node>
	<node lat="58.58538550937398" lon="7.803793302613458" id="-61581">
		<tag k="name" v="Alfred Uglands veg" />
		<tag k="ssr:date" v="2019-12-27" />
		<tag k="ssr:gruppe" v="veg" />
		<tag k="ssr:hovedgruppe" v="infrastruktur" />
		<tag k="ssr:stedsnr" v="978817" />
		<tag k="ssr:type" v="adressenavn" />
	</node>
	<node lat="58.55725202518947" lon="7.765303454870676" id="-61582">
		<tag k="name" v="Elgfaret" />
		<tag k="ssr:date" v="2019-12-27" />
		<tag k="ssr:gruppe" v="veg" />
		<tag k="ssr:hovedgruppe" v="infrastruktur" />
		<tag k="ssr:stedsnr" v="978818" />
		<tag k="ssr:type" v="adressenavn" />
	</node>
	<node lat="58.58393307837248" lon="7.807316370766574" id="-61583">
		<tag k="name" v="Myrvegen" />
		<tag k="ssr:date" v="2019-12-27" />
		<tag k="ssr:gruppe" v="veg" />
		<tag k="ssr:hovedgruppe" v="infrastruktur" />
		<tag k="ssr:stedsnr" v="978819" />
		<tag k="ssr:type" v="adressenavn" />
	</node>
	<node lat="58.58836366750316" lon="7.796447794266713" id="-61584">
		<tag k="name" v="Senumsvegen" />
		<tag k="ssr:date" v="2019-12-27" />
		<tag k="ssr:gruppe" v="veg" />
		<tag k="ssr:hovedgruppe" v="infrastruktur" />
		<tag k="ssr:stedsnr" v="978820" />
		<tag k="ssr:type" v="adressenavn" />
	</node>
	<node lat="58.5907185195592" lon="7.818654187458578" id="-61585">
		<tag k="name" v="Sindrevegen" />
		<tag k="ssr:date" v="2019-12-27" />
		<tag k="ssr:gruppe" v="veg" />
		<tag k="ssr:hovedgruppe" v="infrastruktur" />
		<tag k="ssr:stedsnr" v="978821" />
		<tag k="ssr:type" v="adressenavn" />
	</node>
	<node lat="58.554641090748184" lon="7.773084611220352" id="-61586">
		<tag k="name" v="Stasjonsvegen" />
		<tag k="ssr:date" v="2019-12-27" />
		<tag k="ssr:gruppe" v="veg" />
		<tag k="ssr:hovedgruppe" v="infrastruktur" />
		<tag k="ssr:stedsnr" v="978822" />
		<tag k="ssr:type" v="adressenavn" />
	</node>
	<node lat="58.585830329853906" lon="7.817730953360064" id="-61587">
		<tag k="name" v="Øvre Tingveg" />
		<tag k="ssr:date" v="2019-12-27" />
		<tag k="ssr:gruppe" v="veg" />
		<tag k="ssr:hovedgruppe" v="infrastruktur" />
		<tag k="ssr:stedsnr" v="978823" />
		<tag k="ssr:type" v="adressenavn" />
	</node>
	<node lat="58.58548364166449" lon="7.81373666996065" id="-61588">
		<tag k="name" v="Nedre Tingvei" />
		<tag k="ssr:date" v="2019-12-27" />
		<tag k="ssr:gruppe" v="veg" />
		<tag k="ssr:hovedgruppe" v="infrastruktur" />
		<tag k="ssr:stedsnr" v="978825" />
		<tag k="ssr:type" v="adressenavn" />
	</node>
	<node lat="58.607741071587625" lon="7.96580024493893" id="-61589">
		<tag k="name" v="Åsenvegen" />
		<tag k="ssr:date" v="2019-12-27" />
		<tag k="ssr:gruppe" v="veg" />
		<tag k="ssr:hovedgruppe" v="infrastruktur" />
		<tag k="ssr:stedsnr" v="978826" />
		<tag k="ssr:type" v="adressenavn" />
	</node>
	<node lat="58.55615017068577" lon="7.753333298697451" id="-61590">
		<tag k="name" v="Ørnevegen" />
		<tag k="ssr:date" v="2019-12-27" />
		<tag k="ssr:gruppe" v="veg" />
		<tag k="ssr:hovedgruppe" v="infrastruktur" />
		<tag k="ssr:stedsnr" v="978828" />
		<tag k="ssr:type" v="adressenavn" />
	</node>
	<node lat="58.568511242685645" lon="7.773538456164207" id="-61591">
		<tag k="name" v="Skulevegen" />
		<tag k="ssr:date" v="2019-12-27" />
		<tag k="ssr:gruppe" v="veg" />
		<tag k="ssr:hovedgruppe" v="infrastruktur" />
		<tag k="ssr:stedsnr" v="978829" />
		<tag k="ssr:type" v="adressenavn" />
	</node>
	<node lat="58.58578944000104" lon="8.08467565299209" id="-61593">
		<tag k="name" v="Tveit" />
		<tag k="old_name" v="Tveitveien" />
		<tag k="ssr:date" v="2019-12-27" />
		<tag k="ssr:gruppe" v="veg" />
		<tag k="ssr:hovedgruppe" v="infrastruktur" />
		<tag k="ssr:stedsnr" v="984133" />
		<tag k="ssr:type" v="adressenavn" />
	</node>
	<node lat="58.498463892551605" lon="7.774627781233617" id="-61703">
		<tag k="name" v="Eventyrvegen" />
		<tag k="ssr:date" v="2019-12-27" />
		<tag k="ssr:gruppe" v="veg" />
		<tag k="ssr:hovedgruppe" v="infrastruktur" />
		<tag k="ssr:stedsnr" v="39749" />
		<tag k="ssr:type" v="adressenavn" />
	</node>
	<node lat="58.65752413059056" lon="7.971715272347091" id="-61704">
		<tag k="name" v="Tonestjønnvegen" />
		<tag k="ssr:date" v="2019-12-27" />
		<tag k="ssr:gruppe" v="veg" />
		<tag k="ssr:hovedgruppe" v="infrastruktur" />
		<tag k="ssr:stedsnr" v="40080" />
		<tag k="ssr:type" v="adressenavn" />
	</node>
	<node lat="58.60742502966081" lon="7.94469924069944" id="-61705">
		<tag k="name" v="Bjorhuskilen" />
		<tag k="ssr:date" v="2019-12-27" />
		<tag k="ssr:gruppe" v="veg" />
		<tag k="ssr:hovedgruppe" v="infrastruktur" />
		<tag k="ssr:stedsnr" v="40970" />
		<tag k="ssr:type" v="adressenavn" />
	</node>
	<node lat="58.65870304701858" lon="7.971705514132023" id="-61826">
		<tag k="name" v="Fjellenden" />
		<tag k="ssr:date" v="2019-12-27" />
		<tag k="ssr:gruppe" v="veg" />
		<tag k="ssr:hovedgruppe" v="infrastruktur" />
		<tag k="ssr:stedsnr" v="101065" />
		<tag k="ssr:type" v="adressenavn" />
	</node>
	<node lat="58.549889865387925" lon="7.807902241106655" id="-61827">
		<tag k="name" v="Bjoråvegen" />
		<tag k="ssr:date" v="2019-12-27" />
		<tag k="ssr:gruppe" v="veg" />
		<tag k="ssr:hovedgruppe" v="infrastruktur" />
		<tag k="ssr:stedsnr" v="101534" />
		<tag k="ssr:type" v="adressenavn" />
	</node>
	<node lat="58.46540676946385" lon="7.797042167566794" id="-61828">
		<tag k="name" v="Eldsnesvegen" />
		<tag k="ssr:date" v="2019-12-27" />
		<tag k="ssr:gruppe" v="veg" />
		<tag k="ssr:hovedgruppe" v="infrastruktur" />
		<tag k="ssr:stedsnr" v="103918" />
		<tag k="ssr:type" v="adressenavn" />
	</node>
	<node lat="58.591108330108156" lon="7.831708329139986" id="-61837">
		<tag k="name" v="Muskovittvegen" />
		<tag k="ssr:date" v="2019-12-27" />
		<tag k="ssr:gruppe" v="veg" />
		<tag k="ssr:hovedgruppe" v="infrastruktur" />
		<tag k="ssr:stedsnr" v="116581" />
		<tag k="ssr:type" v="adressenavn" />
	</node>
	<node lat="58.65660765412403" lon="7.965642401971975" id="-62160">
		<tag k="name" v="Tjønnhomvegen" />
		<tag k="ssr:date" v="2019-12-27" />
		<tag k="ssr:gruppe" v="veg" />
		<tag k="ssr:hovedgruppe" v="infrastruktur" />
		<tag k="ssr:stedsnr" v="283051" />
		<tag k="ssr:type" v="adressenavn" />
	</node>
	<node lat="58.519698484655784" lon="7.6214244883547195" id="-62161">
		<tag k="name" v="Stålevannsvegen" />
		<tag k="ssr:date" v="2019-12-27" />
		<tag k="ssr:gruppe" v="veg" />
		<tag k="ssr:hovedgruppe" v="infrastruktur" />
		<tag k="ssr:stedsnr" v="283472" />
		<tag k="ssr:type" v="adressenavn" />
	</node>
	<node lat="58.57541169131865" lon="7.849662611635572" id="-62162">
		<tag k="name" v="Åneland" />
		<tag k="ssr:date" v="2019-12-27" />
		<tag k="ssr:gruppe" v="veg" />
		<tag k="ssr:hovedgruppe" v="infrastruktur" />
		<tag k="ssr:stedsnr" v="283953" />
		<tag k="ssr:type" v="adressenavn" />
	</node>
	<node lat="58.60199330274764" lon="7.905939692414827" id="-62163">
		<tag k="name" v="Gautestadvegen" />
		<tag k="ssr:date" v="2019-12-27" />
		<tag k="ssr:gruppe" v="veg" />
		<tag k="ssr:hovedgruppe" v="infrastruktur" />
		<tag k="ssr:stedsnr" v="283965" />
		<tag k="ssr:type" v="adressenavn" />
	</node>
	<node lat="58.54124096253269" lon="7.765778186938108" id="-62177">
		<tag k="name" v="Kjetsåvegen" />
		<tag k="ssr:date" v="2019-12-27" />
		<tag k="ssr:gruppe" v="veg" />
		<tag k="ssr:hovedgruppe" v="infrastruktur" />
		<tag k="ssr:stedsnr" v="301253" />
		<tag k="ssr:type" v="adressenavn" />
	</node>
	<node lat="58.58711944339963" lon="7.810488897432691" id="-62200">
		<tag k="name" v="Evje og Hornnes kommune" />
		<tag k="ssr:date" v="2019-12-27" />
		<tag k="ssr:gruppe" v="administrativeIndelinger" />
		<tag k="ssr:hovedgruppe" v="offentligAdministrasjon" />
		<tag k="ssr:stedsnr" v="328992" />
		<tag k="ssr:type" v="kommune" />
	</node>
	<node lat="58.64926739804115" lon="7.958853585126417" id="-62304">
		<tag k="name" v="Kvåva" />
		<tag k="ssr:date" v="2019-12-27" />
		<tag k="ssr:gruppe" v="veg" />
		<tag k="ssr:hovedgruppe" v="infrastruktur" />
		<tag k="ssr:stedsnr" v="343093" />
		<tag k="ssr:type" v="adressenavn" />
	</node>
	<node lat="58.51647500046892" lon="7.701827777884149" id="-62317">
		<tag k="name" v="Bekkelia" />
		<tag k="ssr:date" v="2019-12-27" />
		<tag k="ssr:gruppe" v="veg" />
		<tag k="ssr:hovedgruppe" v="infrastruktur" />
		<tag k="ssr:stedsnr" v="361256" />
		<tag k="ssr:type" v="adressenavn" />
	</node>
	<node lat="58.47706216226033" lon="7.70481655788724" id="-62318">
		<tag k="name" v="Juvvannsvegen" />
		<tag k="ssr:date" v="2019-12-27" />
		<tag k="ssr:gruppe" v="veg" />
		<tag k="ssr:hovedgruppe" v="infrastruktur" />
		<tag k="ssr:stedsnr" v="362059" />
		<tag k="ssr:type" v="adressenavn" />
	</node>
	<node lat="58.64870912547269" lon="7.961895968043986" id="-62451">
		<tag k="name" v="Botnemyr" />
		<tag k="ssr:date" v="2019-12-27" />
		<tag k="ssr:gruppe" v="veg" />
		<tag k="ssr:hovedgruppe" v="infrastruktur" />
		<tag k="ssr:stedsnr" v="404089" />
		<tag k="ssr:type" v="adressenavn" />
	</node>
	<node lat="58.60496740260025" lon="7.878577067253099" id="-62452">
		<tag k="name" v="Dølavegen" />
		<tag k="ssr:date" v="2019-12-27" />
		<tag k="ssr:gruppe" v="veg" />
		<tag k="ssr:hovedgruppe" v="infrastruktur" />
		<tag k="ssr:stedsnr" v="404949" />
		<tag k="ssr:type" v="adressenavn" />
	</node>
	<node lat="58.598873410789544" lon="7.869962207022619" id="-62453">
		<tag k="name" v="Gruvevegen" />
		<tag k="ssr:date" v="2019-12-27" />
		<tag k="ssr:gruppe" v="veg" />
		<tag k="ssr:hovedgruppe" v="infrastruktur" />
		<tag k="ssr:stedsnr" v="404952" />
		<tag k="ssr:type" v="adressenavn" />
	</node>
	<node lat="58.59835791665874" lon="7.850882632605782" id="-62454">
		<tag k="name" v="Allmannavegen" />
		<tag k="ssr:date" v="2019-12-27" />
		<tag k="ssr:gruppe" v="veg" />
		<tag k="ssr:hovedgruppe" v="infrastruktur" />
		<tag k="ssr:stedsnr" v="404953" />
		<tag k="ssr:type" v="adressenavn" />
	</node>
	<node lat="58.60603524684058" lon="7.878678362693556" id="-62455">
		<tag k="name" v="Nordbøvegen" />
		<tag k="ssr:date" v="2019-12-27" />
		<tag k="ssr:gruppe" v="veg" />
		<tag k="ssr:hovedgruppe" v="infrastruktur" />
		<tag k="ssr:stedsnr" v="404956" />
		<tag k="ssr:type" v="adressenavn" />
	</node>
	<node lat="58.51148827036078" lon="7.692712885791128" id="-62463">
		<tag k="name" v="Grastjønnvegen" />
		<tag k="ssr:date" v="2019-12-27" />
		<tag k="ssr:gruppe" v="veg" />
		<tag k="ssr:hovedgruppe" v="infrastruktur" />
		<tag k="ssr:stedsnr" v="419208" />
		<tag k="ssr:type" v="adressenavn" />
	</node>
	<node lat="58.52665097599838" lon="7.657813238953174" id="-62464">
		<tag k="name" v="Murtetjønnvegen" />
		<tag k="ssr:date" v="2019-12-27" />
		<tag k="ssr:gruppe" v="veg" />
		<tag k="ssr:hovedgruppe" v="infrastruktur" />
		<tag k="ssr:stedsnr" v="423294" />
		<tag k="ssr:type" v="adressenavn" />
	</node>
	<node lat="58.51523401374825" lon="7.692903146045249" id="-62489">
		<tag k="name" v="Grastjønntoppen" />
		<tag k="ssr:date" v="2019-12-27" />
		<tag k="ssr:gruppe" v="veg" />
		<tag k="ssr:hovedgruppe" v="infrastruktur" />
		<tag k="ssr:stedsnr" v="480165" />
		<tag k="ssr:type" v="adressenavn" />
	</node>
	<node lat="58.53551491000489" lon="7.684414574641376" id="-62490">
		<tag k="name" v="Tveitvegen" />
		<tag k="ssr:date" v="2019-12-27" />
		<tag k="ssr:gruppe" v="veg" />
		<tag k="ssr:hovedgruppe" v="infrastruktur" />
		<tag k="ssr:stedsnr" v="483298" />
		<tag k="ssr:type" v="adressenavn" />
	</node>
	<node lat="58.628477907391854" lon="7.975648417016297" id="-62615">
		<tag k="name" v="Terenesvegen" />
		<tag k="ssr:date" v="2019-12-27" />
		<tag k="ssr:gruppe" v="veg" />
		<tag k="ssr:hovedgruppe" v="infrastruktur" />
		<tag k="ssr:stedsnr" v="525957" />
		<tag k="ssr:type" v="adressenavn" />
	</node>
	<node lat="58.51942802644702" lon="7.8555380398303" id="-62616">
		<tag k="name" v="Livegen" />
		<tag k="ssr:date" v="2019-12-27" />
		<tag k="ssr:gruppe" v="veg" />
		<tag k="ssr:hovedgruppe" v="infrastruktur" />
		<tag k="ssr:stedsnr" v="527929" />
		<tag k="ssr:type" v="adressenavn" />
	</node>
	<node lat="58.65948439231129" lon="7.797592677987534" id="-62727">
		<tag k="name" v="Furumoen" />
		<tag k="ssr:date" v="2019-12-27" />
		<tag k="ssr:gruppe" v="veg" />
		<tag k="ssr:hovedgruppe" v="infrastruktur" />
		<tag k="ssr:stedsnr" v="585280" />
		<tag k="ssr:type" v="adressenavn" />
	</node>
	<node lat="58.65654880663184" lon="7.948379951169142" id="-62848">
		<tag k="name" v="Tvitjønnåsen" />
		<tag k="ssr:date" v="2019-12-27" />
		<tag k="ssr:gruppe" v="veg" />
		<tag k="ssr:hovedgruppe" v="infrastruktur" />
		<tag k="ssr:stedsnr" v="646060" />
		<tag k="ssr:type" v="adressenavn" />
	</node>
	<node lat="58.58650149844582" lon="7.806132197098705" id="-62849">
		<tag k="name" v="Smievegen" />
		<tag k="ssr:date" v="2019-12-27" />
		<tag k="ssr:gruppe" v="veg" />
		<tag k="ssr:hovedgruppe" v="infrastruktur" />
		<tag k="ssr:stedsnr" v="647544" />
		<tag k="ssr:type" v="adressenavn" />
	</node>
	<node lat="58.619369443632934" lon="7.986997222640472" id="-62948">
		<tag k="name" v="Dyplemyr" />
		<tag k="ssr:date" v="2019-12-27" />
		<tag k="ssr:gruppe" v="veg" />
		<tag k="ssr:hovedgruppe" v="infrastruktur" />
		<tag k="ssr:stedsnr" v="707951" />
		<tag k="ssr:type" v="adressenavn" />
	</node>
	<node lat="58.50354712668811" lon="7.784351424185384" id="-62949">
		<tag k="name" v="Klepp skrivargard" />
		<tag k="ssr:date" v="2019-12-27" />
		<tag k="ssr:gruppe" v="veg" />
		<tag k="ssr:hovedgruppe" v="infrastruktur" />
		<tag k="ssr:stedsnr" v="709929" />
		<tag k="ssr:type" v="adressenavn" />
	</node>
	<node lat="58.59143611205149" lon="7.832452779074928" id="-62961">
		<tag k="name" v="Magnetittvegen" />
		<tag k="ssr:date" v="2019-12-27" />
		<tag k="ssr:gruppe" v="veg" />
		<tag k="ssr:hovedgruppe" v="infrastruktur" />
		<tag k="ssr:stedsnr" v="723576" />
		<tag k="ssr:type" v="adressenavn" />
	</node>
	<node lat="58.51865071943782" lon="7.692469522073884" id="-62962">
		<tag k="name" v="Bruvegen" />
		<tag k="ssr:date" v="2019-12-27" />
		<tag k="ssr:gruppe" v="veg" />
		<tag k="ssr:hovedgruppe" v="infrastruktur" />
		<tag k="ssr:stedsnr" v="725216" />
		<tag k="ssr:type" v="adressenavn" />
	</node>
	<node lat="58.511411050151985" lon="7.744535726986931" id="-62963">
		<tag k="name" v="Hannåsfeltet" />
		<tag k="ssr:date" v="2019-12-27" />
		<tag k="ssr:gruppe" v="veg" />
		<tag k="ssr:hovedgruppe" v="infrastruktur" />
		<tag k="ssr:stedsnr" v="726299" />
		<tag k="ssr:type" v="adressenavn" />
	</node>
	<node lat="58.48207110208478" lon="7.701177160879773" id="-62964">
		<tag k="name" v="Kattåsen" />
		<tag k="ssr:date" v="2019-12-27" />
		<tag k="ssr:gruppe" v="veg" />
		<tag k="ssr:hovedgruppe" v="infrastruktur" />
		<tag k="ssr:stedsnr" v="727063" />
		<tag k="ssr:type" v="adressenavn" />
	</node>
	<node lat="58.483249063349774" lon="7.6768142781333975" id="-62965">
		<tag k="name" v="Olavsvegen" />
		<tag k="ssr:date" v="2019-12-27" />
		<tag k="ssr:gruppe" v="veg" />
		<tag k="ssr:hovedgruppe" v="infrastruktur" />
		<tag k="ssr:stedsnr" v="727074" />
		<tag k="ssr:type" v="adressenavn" />
	</node>
	<node lat="58.57749159295428" lon="7.952389571331579" id="-63092">
		<tag k="name" v="Kleveland" />
		<tag k="ssr:date" v="2019-12-27" />
		<tag k="ssr:gruppe" v="veg" />
		<tag k="ssr:hovedgruppe" v="infrastruktur" />
		<tag k="ssr:stedsnr" v="768954" />
		<tag k="ssr:type" v="adressenavn" />
	</node>
	<node lat="58.51047133600545" lon="7.551774738742753" id="-63221">
		<tag k="name" v="Mathølvegen" />
		<tag k="ssr:date" v="2019-12-27" />
		<tag k="ssr:gruppe" v="veg" />
		<tag k="ssr:hovedgruppe" v="infrastruktur" />
		<tag k="ssr:stedsnr" v="829241" />
		<tag k="ssr:type" v="adressenavn" />
	</node>
	<node lat="58.51015623490314" lon="7.566692999010904" id="-63222">
		<tag k="name" v="Matkronvegen" />
		<tag k="ssr:date" v="2019-12-27" />
		<tag k="ssr:gruppe" v="veg" />
		<tag k="ssr:hovedgruppe" v="infrastruktur" />
		<tag k="ssr:stedsnr" v="829244" />
		<tag k="ssr:type" v="adressenavn" />
	</node>
	<node lat="58.60046810283801" lon="7.844031352328896" id="-63223">
		<tag k="name" v="Oddestemmen" />
		<tag k="ssr:date" v="2019-12-27" />
		<tag k="ssr:gruppe" v="veg" />
		<tag k="ssr:hovedgruppe" v="infrastruktur" />
		<tag k="ssr:stedsnr" v="829960" />
		<tag k="ssr:type" v="adressenavn" />
	</node>
	<node lat="58.603700868855526" lon="7.916842693663101" id="-63224">
		<tag k="name" v="Møybergtoppen" />
		<tag k="ssr:date" v="2019-12-27" />
		<tag k="ssr:gruppe" v="veg" />
		<tag k="ssr:hovedgruppe" v="infrastruktur" />
		<tag k="ssr:stedsnr" v="829962" />
		<tag k="ssr:type" v="adressenavn" />
	</node>
	<node lat="58.480638028889146" lon="7.678457561946438" id="-63232">
		<tag k="name" v="Tolleivsmyr" />
		<tag k="ssr:date" v="2019-12-27" />
		<tag k="ssr:gruppe" v="veg" />
		<tag k="ssr:hovedgruppe" v="infrastruktur" />
		<tag k="ssr:stedsnr" v="848063" />
		<tag k="ssr:type" v="adressenavn" />
	</node>
	<node lat="58.478488442907036" lon="7.6557487841119585" id="-63233">
		<tag k="name" v="Koselivegen" />
		<tag k="ssr:date" v="2019-12-27" />
		<tag k="ssr:gruppe" v="veg" />
		<tag k="ssr:hovedgruppe" v="infrastruktur" />
		<tag k="ssr:stedsnr" v="848067" />
		<tag k="ssr:type" v="adressenavn" />
	</node>
	<node lat="58.513366198750205" lon="7.695390856973961" id="-63355">
		<tag k="name" v="Grasmyrvegen" />
		<tag k="ssr:date" v="2019-12-27" />
		<tag k="ssr:gruppe" v="veg" />
		<tag k="ssr:hovedgruppe" v="infrastruktur" />
		<tag k="ssr:stedsnr" v="951566" />
		<tag k="ssr:type" v="adressenavn" />
	</node>
	<node lat="58.51251800614809" lon="7.837978339421932" id="-63356">
		<tag k="name" v="Landsverkgarden" />
		<tag k="ssr:date" v="2019-12-27" />
		<tag k="ssr:gruppe" v="veg" />
		<tag k="ssr:hovedgruppe" v="infrastruktur" />
		<tag k="ssr:stedsnr" v="952930" />
		<tag k="ssr:type" v="adressenavn" />
	</node>
	<node lat="58.50426876728824" lon="7.821314996367286" id="-63357">
		<tag k="name" v="Vånnevegen" />
		<tag k="ssr:date" v="2019-12-27" />
		<tag k="ssr:gruppe" v="veg" />
		<tag k="ssr:hovedgruppe" v="infrastruktur" />
		<tag k="ssr:stedsnr" v="952932" />
		<tag k="ssr:type" v="adressenavn" />
	</node>
	<node lat="58.46683297191261" lon="7.795121685396363" id="-63358">
		<tag k="name" v="Ivelandsvegen" />
		<tag k="ssr:date" v="2019-12-27" />
		<tag k="ssr:gruppe" v="veg" />
		<tag k="ssr:hovedgruppe" v="infrastruktur" />
		<tag k="ssr:stedsnr" v="952937" />
		<tag k="ssr:type" v="adressenavn" />
	</node>
	<node lat="58.66450117920817" lon="7.65085806674584" id="-63364">
		<tag k="name" v="Vetrhusvegen" />
		<tag k="ssr:date" v="2019-12-27" />
		<tag k="ssr:gruppe" v="veg" />
		<tag k="ssr:hovedgruppe" v="infrastruktur" />
		<tag k="ssr:stedsnr" v="969279" />
		<tag k="ssr:type" v="adressenavn" />
	</node>
	<node lat="58.57759029008003" lon="7.962723079527831" id="-63381">
		<tag k="name" v="Arendalsvegen" />
		<tag k="ssr:date" v="2019-12-27" />
		<tag k="ssr:gruppe" v="veg" />
		<tag k="ssr:hovedgruppe" v="infrastruktur" />
		<tag k="ssr:stedsnr" v="978558" />
		<tag k="ssr:type" v="adressenavn" />
	</node>
	<node lat="58.56660739449407" lon="7.780174380676863" id="-63382">
		<tag k="name" v="Artillerivegen" />
		<tag k="ssr:date" v="2019-12-27" />
		<tag k="ssr:gruppe" v="veg" />
		<tag k="ssr:hovedgruppe" v="infrastruktur" />
		<tag k="ssr:stedsnr" v="978559" />
		<tag k="ssr:type" v="adressenavn" />
	</node>
	<node lat="58.59593999050998" lon="7.827734256148841" id="-63383">
		<tag k="name" v="Austrevegen" />
		<tag k="ssr:date" v="2019-12-27" />
		<tag k="ssr:gruppe" v="veg" />
		<tag k="ssr:hovedgruppe" v="infrastruktur" />
		<tag k="ssr:stedsnr" v="978560" />
		<tag k="ssr:type" v="adressenavn" />
	</node>
	<node lat="58.4780334416864" lon="7.785452110896043" id="-63384">
		<tag k="name" v="Hodnekilen" />
		<tag k="ssr:date" v="2019-12-27" />
		<tag k="ssr:gruppe" v="veg" />
		<tag k="ssr:hovedgruppe" v="infrastruktur" />
		<tag k="ssr:stedsnr" v="978456" />
		<tag k="ssr:type" v="adressenavn" />
	</node>
	<node lat="58.639004621323735" lon="7.980479788817099" id="-63385">
		<tag k="name" v="Raudstølvegen" />
		<tag k="ssr:date" v="2019-12-27" />
		<tag k="ssr:gruppe" v="veg" />
		<tag k="ssr:hovedgruppe" v="infrastruktur" />
		<tag k="ssr:stedsnr" v="978457" />
		<tag k="ssr:type" v="adressenavn" />
	</node>
	<node lat="58.63510831508269" lon="7.982457642837575" id="-63386">
		<tag k="name" v="Raudstølflaten" />
		<tag k="ssr:date" v="2019-12-27" />
		<tag k="ssr:gruppe" v="veg" />
		<tag k="ssr:hovedgruppe" v="infrastruktur" />
		<tag k="ssr:stedsnr" v="978458" />
		<tag k="ssr:type" v="adressenavn" />
	</node>
	<node lat="58.580409873025694" lon="7.983979300382355" id="-63387">
		<tag k="name" v="Lislevann" />
		<tag k="ssr:date" v="2019-12-27" />
		<tag k="ssr:gruppe" v="veg" />
		<tag k="ssr:hovedgruppe" v="infrastruktur" />
		<tag k="ssr:stedsnr" v="978459" />
		<tag k="ssr:type" v="adressenavn" />
	</node>
	<node lat="58.45918788433941" lon="7.791628812335831" id="-63388">
		<tag k="name" v="Eldsnestoppen" />
		<tag k="ssr:date" v="2019-12-27" />
		<tag k="ssr:gruppe" v="veg" />
		<tag k="ssr:hovedgruppe" v="infrastruktur" />
		<tag k="ssr:stedsnr" v="978460" />
		<tag k="ssr:type" v="adressenavn" />
	</node>
	<node lat="58.53589358613202" lon="7.778683280132237" id="-63389">
		<tag k="name" v="Hestvåg" />
		<tag k="ssr:date" v="2019-12-27" />
		<tag k="ssr:gruppe" v="veg" />
		<tag k="ssr:hovedgruppe" v="infrastruktur" />
		<tag k="ssr:stedsnr" v="978461" />
		<tag k="ssr:type" v="adressenavn" />
	</node>
	<node lat="58.52462006601061" lon="7.781130622978241" id="-63390">
		<tag k="name" v="Strømstad" />
		<tag k="ssr:date" v="2019-12-27" />
		<tag k="ssr:gruppe" v="veg" />
		<tag k="ssr:hovedgruppe" v="infrastruktur" />
		<tag k="ssr:stedsnr" v="978462" />
		<tag k="ssr:type" v="adressenavn" />
	</node>
	<node lat="58.5188411851072" lon="7.780765947185348" id="-63391">
		<tag k="name" v="Strauman" />
		<tag k="ssr:date" v="2019-12-27" />
		<tag k="ssr:gruppe" v="veg" />
		<tag k="ssr:hovedgruppe" v="infrastruktur" />
		<tag k="ssr:stedsnr" v="978463" />
		<tag k="ssr:type" v="adressenavn" />
	</node>
	<node lat="58.471828743776484" lon="7.7849638979873825" id="-63392">
		<tag k="name" v="Hodnevegen" />
		<tag k="ssr:date" v="2019-12-27" />
		<tag k="ssr:gruppe" v="veg" />
		<tag k="ssr:hovedgruppe" v="infrastruktur" />
		<tag k="ssr:stedsnr" v="978464" />
		<tag k="ssr:type" v="adressenavn" />
	</node>
	<node lat="58.45986125770706" lon="7.799316524539604" id="-63393">
		<tag k="name" v="Eldsnesheia" />
		<tag k="ssr:date" v="2019-12-27" />
		<tag k="ssr:gruppe" v="veg" />
		<tag k="ssr:hovedgruppe" v="infrastruktur" />
		<tag k="ssr:stedsnr" v="978465" />
		<tag k="ssr:type" v="adressenavn" />
	</node>
	<node lat="58.553058656495814" lon="7.771656453808661" id="-63394">
		<tag k="name" v="Hornnesvegen" />
		<tag k="ssr:date" v="2019-12-27" />
		<tag k="ssr:gruppe" v="veg" />
		<tag k="ssr:hovedgruppe" v="infrastruktur" />
		<tag k="ssr:stedsnr" v="978621" />
		<tag k="ssr:type" v="adressenavn" />
	</node>
	<node lat="58.55743124672549" lon="7.765966277101234" id="-63395">
		<tag k="name" v="Hornåsvegen" />
		<tag k="ssr:date" v="2019-12-27" />
		<tag k="ssr:gruppe" v="veg" />
		<tag k="ssr:hovedgruppe" v="infrastruktur" />
		<tag k="ssr:stedsnr" v="978622" />
		<tag k="ssr:type" v="adressenavn" />
	</node>
	<node lat="58.58718626928328" lon="7.808933718394303" id="-63396">
		<tag k="name" v="Hovslagervegen" />
		<tag k="ssr:date" v="2019-12-27" />
		<tag k="ssr:gruppe" v="veg" />
		<tag k="ssr:hovedgruppe" v="infrastruktur" />
		<tag k="ssr:stedsnr" v="978623" />
		<tag k="ssr:type" v="adressenavn" />
	</node>
	<node lat="58.582189990656055" lon="7.796932606758153" id="-63397">
		<tag k="name" v="Hussey Vivians veg" />
		<tag k="ssr:date" v="2019-12-27" />
		<tag k="ssr:gruppe" v="veg" />
		<tag k="ssr:hovedgruppe" v="infrastruktur" />
		<tag k="ssr:stedsnr" v="978624" />
		<tag k="ssr:type" v="adressenavn" />
	</node>
	<node lat="58.56283336322366" lon="7.782480947755077" id="-63398">
		<tag k="name" v="Infanterivegen" />
		<tag k="ssr:date" v="2019-12-27" />
		<tag k="ssr:gruppe" v="veg" />
		<tag k="ssr:hovedgruppe" v="infrastruktur" />
		<tag k="ssr:stedsnr" v="978625" />
		<tag k="ssr:type" v="adressenavn" />
	</node>
	<node lat="58.58538550937398" lon="7.803793302613458" id="-63399">
		<tag k="name" v="Jernbanegata" />
		<tag k="ssr:date" v="2019-12-27" />
		<tag k="ssr:gruppe" v="veg" />
		<tag k="ssr:hovedgruppe" v="infrastruktur" />
		<tag k="ssr:stedsnr" v="978626" />
		<tag k="ssr:type" v="adressenavn" />
	</node>
	<node lat="58.55761633661211" lon="7.781916831468335" id="-63400">
		<tag k="name" v="Jørgen Løvlands veg" />
		<tag k="ssr:date" v="2019-12-27" />
		<tag k="ssr:gruppe" v="veg" />
		<tag k="ssr:hovedgruppe" v="infrastruktur" />
		<tag k="ssr:stedsnr" v="978627" />
		<tag k="ssr:type" v="adressenavn" />
	</node>
	<node lat="58.56283336322366" lon="7.782480947755077" id="-63401">
		<tag k="name" v="Kasernevegen" />
		<tag k="ssr:date" v="2019-12-27" />
		<tag k="ssr:gruppe" v="veg" />
		<tag k="ssr:hovedgruppe" v="infrastruktur" />
		<tag k="ssr:stedsnr" v="978628" />
		<tag k="ssr:type" v="adressenavn" />
	</node>
	<node lat="58.586802797751986" lon="7.804336866061748" id="-63402">
		<tag k="name" v="Kinovegen" />
		<tag k="ssr:date" v="2019-12-27" />
		<tag k="ssr:gruppe" v="veg" />
		<tag k="ssr:hovedgruppe" v="infrastruktur" />
		<tag k="ssr:stedsnr" v="978629" />
		<tag k="ssr:type" v="adressenavn" />
	</node>
	<node lat="58.58325959496956" lon="7.8059932745010325" id="-63403">
		<tag k="name" v="Kjersti park" />
		<tag k="ssr:date" v="2019-12-27" />
		<tag k="ssr:gruppe" v="veg" />
		<tag k="ssr:hovedgruppe" v="infrastruktur" />
		<tag k="ssr:stedsnr" v="978630" />
		<tag k="ssr:type" v="adressenavn" />
	</node>
	<node lat="58.583259976803845" lon="7.799151457308221" id="-63404">
		<tag k="name" v="Kobbervegen" />
		<tag k="ssr:date" v="2019-12-27" />
		<tag k="ssr:gruppe" v="veg" />
		<tag k="ssr:hovedgruppe" v="infrastruktur" />
		<tag k="ssr:stedsnr" v="978631" />
		<tag k="ssr:type" v="adressenavn" />
	</node>
	<node lat="58.585033474110844" lon="7.810570418108466" id="-63405">
		<tag k="name" v="Lianvegen" />
		<tag k="ssr:date" v="2019-12-27" />
		<tag k="ssr:gruppe" v="veg" />
		<tag k="ssr:hovedgruppe" v="infrastruktur" />
		<tag k="ssr:stedsnr" v="978632" />
		<tag k="ssr:type" v="adressenavn" />
	</node>
	<node lat="58.58815178496847" lon="7.789482042505832" id="-63406">
		<tag k="name" v="Liavegen" />
		<tag k="ssr:date" v="2019-12-27" />
		<tag k="ssr:gruppe" v="veg" />
		<tag k="ssr:hovedgruppe" v="infrastruktur" />
		<tag k="ssr:stedsnr" v="978633" />
		<tag k="ssr:type" v="adressenavn" />
	</node>
	<node lat="58.58984212300329" lon="7.80795265467636" id="-63407">
		<tag k="name" v="Bakkemoen" />
		<tag k="ssr:date" v="2019-12-27" />
		<tag k="ssr:gruppe" v="veg" />
		<tag k="ssr:hovedgruppe" v="infrastruktur" />
		<tag k="ssr:stedsnr" v="978561" />
		<tag k="ssr:type" v="adressenavn" />
	</node>
	<node lat="58.58979705638114" lon="7.800372949553207" id="-63408">
		<tag k="name" v="Bakken" />
		<tag k="ssr:date" v="2019-12-27" />
		<tag k="ssr:gruppe" v="veg" />
		<tag k="ssr:hovedgruppe" v="infrastruktur" />
		<tag k="ssr:stedsnr" v="978562" />
		<tag k="ssr:type" v="adressenavn" />
	</node>
	<node lat="58.588466098262366" lon="7.819433489011446" id="-63409">
		<tag k="name" v="Bassengvegen" />
		<tag k="ssr:date" v="2019-12-27" />
		<tag k="ssr:gruppe" v="veg" />
		<tag k="ssr:hovedgruppe" v="infrastruktur" />
		<tag k="ssr:stedsnr" v="978563" />
		<tag k="ssr:type" v="adressenavn" />
	</node>
	<node lat="58.59430275267398" lon="7.82654340683223" id="-63410">
		<tag k="name" v="Beinsbruvegen" />
		<tag k="ssr:date" v="2019-12-27" />
		<tag k="ssr:gruppe" v="veg" />
		<tag k="ssr:hovedgruppe" v="infrastruktur" />
		<tag k="ssr:stedsnr" v="978564" />
		<tag k="ssr:type" v="adressenavn" />
	</node>
	<node lat="58.59100282949225" lon="7.8279674684917016" id="-63411">
		<tag k="name" v="Bergvavegen" />
		<tag k="ssr:date" v="2019-12-27" />
		<tag k="ssr:gruppe" v="veg" />
		<tag k="ssr:hovedgruppe" v="infrastruktur" />
		<tag k="ssr:stedsnr" v="978565" />
		<tag k="ssr:type" v="adressenavn" />
	</node>
	<node lat="58.55676902594866" lon="7.75747973698619" id="-63412">
		<tag k="name" v="Bevervegen" />
		<tag k="ssr:date" v="2019-12-27" />
		<tag k="ssr:gruppe" v="veg" />
		<tag k="ssr:hovedgruppe" v="infrastruktur" />
		<tag k="ssr:stedsnr" v="978566" />
		<tag k="ssr:type" v="adressenavn" />
	</node>
	<node lat="58.55767473599199" lon="7.782023601883845" id="-63413">
		<tag k="name" v="Bjoråvika" />
		<tag k="ssr:date" v="2019-12-27" />
		<tag k="ssr:gruppe" v="veg" />
		<tag k="ssr:hovedgruppe" v="infrastruktur" />
		<tag k="ssr:stedsnr" v="978567" />
		<tag k="ssr:type" v="adressenavn" />
	</node>
	<node lat="58.57083601795586" lon="7.774458957380947" id="-63414">
		<tag k="name" v="Bjørkevegen" />
		<tag k="ssr:date" v="2019-12-27" />
		<tag k="ssr:gruppe" v="veg" />
		<tag k="ssr:hovedgruppe" v="infrastruktur" />
		<tag k="ssr:stedsnr" v="978568" />
		<tag k="ssr:type" v="adressenavn" />
	</node>
	<node lat="58.56285473982966" lon="7.771100331500509" id="-63415">
		<tag k="name" v="Dåsnesvegen" />
		<tag k="ssr:date" v="2019-12-27" />
		<tag k="ssr:gruppe" v="veg" />
		<tag k="ssr:hovedgruppe" v="infrastruktur" />
		<tag k="ssr:stedsnr" v="978569" />
		<tag k="ssr:type" v="adressenavn" />
	</node>
	<node lat="58.562247793841706" lon="7.771818950510051" id="-63416">
		<tag k="name" v="Dåsvannsdalen" />
		<tag k="ssr:date" v="2019-12-27" />
		<tag k="ssr:gruppe" v="veg" />
		<tag k="ssr:hovedgruppe" v="infrastruktur" />
		<tag k="ssr:stedsnr" v="978570" />
		<tag k="ssr:type" v="adressenavn" />
	</node>
	<node lat="58.56998636799619" lon="7.774086210970297" id="-63417">
		<tag k="name" v="Einervegen" />
		<tag k="ssr:date" v="2019-12-27" />
		<tag k="ssr:gruppe" v="veg" />
		<tag k="ssr:hovedgruppe" v="infrastruktur" />
		<tag k="ssr:stedsnr" v="978571" />
		<tag k="ssr:type" v="adressenavn" />
	</node>
	<node lat="58.58912302382842" lon="7.813031668096168" id="-63418">
		<tag k="name" v="Evjevegen" />
		<tag k="ssr:date" v="2019-12-27" />
		<tag k="ssr:gruppe" v="veg" />
		<tag k="ssr:hovedgruppe" v="infrastruktur" />
		<tag k="ssr:stedsnr" v="978572" />
		<tag k="ssr:type" v="adressenavn" />
	</node>
	<node lat="58.57511933752276" lon="7.776401505248476" id="-63419">
		<tag k="name" v="Fennefossvegen" />
		<tag k="ssr:date" v="2019-12-27" />
		<tag k="ssr:gruppe" v="veg" />
		<tag k="ssr:hovedgruppe" v="infrastruktur" />
		<tag k="ssr:stedsnr" v="978573" />
		<tag k="ssr:type" v="adressenavn" />
	</node>
	<node lat="58.60627553410127" lon="7.934633151037845" id="-63420">
		<tag k="name" v="Flåtvegen" />
		<tag k="ssr:date" v="2019-12-27" />
		<tag k="ssr:gruppe" v="veg" />
		<tag k="ssr:hovedgruppe" v="infrastruktur" />
		<tag k="ssr:stedsnr" v="978574" />
		<tag k="ssr:type" v="adressenavn" />
	</node>
	<node lat="58.57414113714101" lon="7.784438322455852" id="-63421">
		<tag k="name" v="Sanitetstien" />
		<tag k="ssr:date" v="2019-12-27" />
		<tag k="ssr:gruppe" v="veg" />
		<tag k="ssr:hovedgruppe" v="infrastruktur" />
		<tag k="ssr:stedsnr" v="978678" />
		<tag k="ssr:type" v="adressenavn" />
	</node>
	<node lat="58.5027907623155" lon="7.771721795667869" id="-63422">
		<tag k="name" v="Skrivarvegen" />
		<tag k="ssr:date" v="2019-12-27" />
		<tag k="ssr:gruppe" v="veg" />
		<tag k="ssr:hovedgruppe" v="infrastruktur" />
		<tag k="ssr:stedsnr" v="978679" />
		<tag k="ssr:type" v="adressenavn" />
	</node>
	<node lat="58.59415799227995" lon="7.82079477231804" id="-63423">
		<tag k="name" v="Sladdhaugen" />
		<tag k="ssr:date" v="2019-12-27" />
		<tag k="ssr:gruppe" v="veg" />
		<tag k="ssr:hovedgruppe" v="infrastruktur" />
		<tag k="ssr:stedsnr" v="978680" />
		<tag k="ssr:type" v="adressenavn" />
	</node>
	<node lat="58.5905148751015" lon="7.816531708661418" id="-63424">
		<tag k="name" v="Solstad" />
		<tag k="ssr:date" v="2019-12-27" />
		<tag k="ssr:gruppe" v="veg" />
		<tag k="ssr:hovedgruppe" v="infrastruktur" />
		<tag k="ssr:stedsnr" v="978681" />
		<tag k="ssr:type" v="adressenavn" />
	</node>
	<node lat="58.51019872066108" lon="7.777974927125832" id="-63425">
		<tag k="name" v="Stemhei" />
		<tag k="ssr:date" v="2019-12-27" />
		<tag k="ssr:gruppe" v="veg" />
		<tag k="ssr:hovedgruppe" v="infrastruktur" />
		<tag k="ssr:stedsnr" v="978682" />
		<tag k="ssr:type" v="adressenavn" />
	</node>
	<node lat="58.58229754018424" lon="7.804277356083068" id="-63426">
		<tag k="name" v="Stjernebyen" />
		<tag k="ssr:date" v="2019-12-27" />
		<tag k="ssr:gruppe" v="veg" />
		<tag k="ssr:hovedgruppe" v="infrastruktur" />
		<tag k="ssr:stedsnr" v="978684" />
		<tag k="ssr:type" v="adressenavn" />
	</node>
	<node lat="58.58532453462695" lon="7.806811201639687" id="-63427">
		<tag k="name" v="Taubanegata" />
		<tag k="ssr:date" v="2019-12-27" />
		<tag k="ssr:gruppe" v="veg" />
		<tag k="ssr:hovedgruppe" v="infrastruktur" />
		<tag k="ssr:stedsnr" v="978685" />
		<tag k="ssr:type" v="adressenavn" />
	</node>
	<node lat="58.5876663882662" lon="7.817837516873961" id="-63428">
		<tag k="name" v="Tingberget" />
		<tag k="ssr:date" v="2019-12-27" />
		<tag k="ssr:gruppe" v="veg" />
		<tag k="ssr:hovedgruppe" v="infrastruktur" />
		<tag k="ssr:stedsnr" v="978686" />
		<tag k="ssr:type" v="adressenavn" />
	</node>
	<node lat="58.589272526167306" lon="7.814648161362933" id="-63429">
		<tag k="name" v="Svartevegen" />
		<tag k="ssr:date" v="2019-12-27" />
		<tag k="ssr:gruppe" v="veg" />
		<tag k="ssr:hovedgruppe" v="infrastruktur" />
		<tag k="ssr:stedsnr" v="978687" />
		<tag k="ssr:type" v="adressenavn" />
	</node>
	<node lat="58.58706545895322" lon="7.821847098942287" id="-63430">
		<tag k="name" v="Tingbergvegen" />
		<tag k="ssr:date" v="2019-12-27" />
		<tag k="ssr:gruppe" v="veg" />
		<tag k="ssr:hovedgruppe" v="infrastruktur" />
		<tag k="ssr:stedsnr" v="978688" />
		<tag k="ssr:type" v="adressenavn" />
	</node>
	<node lat="58.586802797751986" lon="7.804336866061748" id="-63431">
		<tag k="name" v="Torvald Haavardstads veg" />
		<tag k="ssr:date" v="2019-12-27" />
		<tag k="ssr:gruppe" v="veg" />
		<tag k="ssr:hovedgruppe" v="infrastruktur" />
		<tag k="ssr:stedsnr" v="978689" />
		<tag k="ssr:type" v="adressenavn" />
	</node>
	<node lat="58.562915558859025" lon="7.779251600404842" id="-63432">
		<tag k="name" v="Transportvegen" />
		<tag k="ssr:date" v="2019-12-27" />
		<tag k="ssr:gruppe" v="veg" />
		<tag k="ssr:hovedgruppe" v="infrastruktur" />
		<tag k="ssr:stedsnr" v="978690" />
		<tag k="ssr:type" v="adressenavn" />
	</node>
	<node lat="58.55927905234219" lon="7.7607290786952765" id="-63433">
		<tag k="name" v="Valhallvegen" />
		<tag k="ssr:date" v="2019-12-27" />
		<tag k="ssr:gruppe" v="veg" />
		<tag k="ssr:hovedgruppe" v="infrastruktur" />
		<tag k="ssr:stedsnr" v="978691" />
		<tag k="ssr:type" v="adressenavn" />
	</node>
	<node lat="58.57844389773439" lon="7.783212761009494" id="-63434">
		<tag k="name" v="Verksvegen" />
		<tag k="ssr:date" v="2019-12-27" />
		<tag k="ssr:gruppe" v="veg" />
		<tag k="ssr:hovedgruppe" v="infrastruktur" />
		<tag k="ssr:stedsnr" v="978692" />
		<tag k="ssr:type" v="adressenavn" />
	</node>
	<node lat="58.59567004429567" lon="7.824765870913688" id="-63435">
		<tag k="name" v="Vestrevegen" />
		<tag k="ssr:date" v="2019-12-27" />
		<tag k="ssr:gruppe" v="veg" />
		<tag k="ssr:hovedgruppe" v="infrastruktur" />
		<tag k="ssr:stedsnr" v="978693" />
		<tag k="ssr:type" v="adressenavn" />
	</node>
	<node lat="58.58254015838758" lon="7.797669811334098" id="-63436">
		<tag k="name" v="Alfred Merrys veg" />
		<tag k="ssr:date" v="2019-12-27" />
		<tag k="ssr:gruppe" v="veg" />
		<tag k="ssr:hovedgruppe" v="infrastruktur" />
		<tag k="ssr:stedsnr" v="978815" />
		<tag k="ssr:type" v="adressenavn" />
	</node>
	<node lat="58.589414672332765" lon="7.8061685397668725" id="-63437">
		<tag k="name" v="Alfred Skaiåsveg" />
		<tag k="ssr:date" v="2019-12-27" />
		<tag k="ssr:gruppe" v="veg" />
		<tag k="ssr:hovedgruppe" v="infrastruktur" />
		<tag k="ssr:stedsnr" v="978816" />
		<tag k="ssr:type" v="adressenavn" />
	</node>
	<node lat="58.587646932746054" lon="7.808008014058845" id="-63438">
		<tag k="name" v="Ljosheimvegen" />
		<tag k="ssr:date" v="2019-12-27" />
		<tag k="ssr:gruppe" v="veg" />
		<tag k="ssr:hovedgruppe" v="infrastruktur" />
		<tag k="ssr:stedsnr" v="978634" />
		<tag k="ssr:type" v="adressenavn" />
	</node>
	<node lat="58.59063403297428" lon="7.816489905472353" id="-63439">
		<tag k="name" v="Lyngmovegen" />
		<tag k="ssr:date" v="2019-12-27" />
		<tag k="ssr:gruppe" v="veg" />
		<tag k="ssr:hovedgruppe" v="infrastruktur" />
		<tag k="ssr:stedsnr" v="978635" />
		<tag k="ssr:type" v="adressenavn" />
	</node>
	<node lat="58.49354436749478" lon="7.779383132228208" id="-63440">
		<tag k="name" v="Moisund Elvebredd" />
		<tag k="ssr:date" v="2019-12-27" />
		<tag k="ssr:gruppe" v="veg" />
		<tag k="ssr:hovedgruppe" v="infrastruktur" />
		<tag k="ssr:stedsnr" v="978955" />
		<tag k="ssr:type" v="adressenavn" />
	</node>
	<node lat="58.54963381017366" lon="7.775085422198253" id="-63441">
		<tag k="name" v="Mineralvegen" />
		<tag k="ssr:date" v="2019-12-27" />
		<tag k="ssr:gruppe" v="veg" />
		<tag k="ssr:hovedgruppe" v="infrastruktur" />
		<tag k="ssr:stedsnr" v="978954" />
		<tag k="ssr:type" v="adressenavn" />
	</node>
	<node lat="58.638719030632735" lon="7.780111417137235" id="-63442">
		<tag k="name" v="Moseidvegen" />
		<tag k="ssr:date" v="2019-12-27" />
		<tag k="ssr:gruppe" v="veg" />
		<tag k="ssr:hovedgruppe" v="infrastruktur" />
		<tag k="ssr:stedsnr" v="978958" />
		<tag k="ssr:type" v="adressenavn" />
	</node>
	<node lat="58.49849992387245" lon="7.775419635672598" id="-63443">
		<tag k="name" v="Moivegen" />
		<tag k="ssr:date" v="2019-12-27" />
		<tag k="ssr:gruppe" v="veg" />
		<tag k="ssr:hovedgruppe" v="infrastruktur" />
		<tag k="ssr:stedsnr" v="978956" />
		<tag k="ssr:type" v="adressenavn" />
	</node>
	<node lat="58.587149028322045" lon="7.802047991076205" id="-63444">
		<tag k="name" v="Snarvegen" />
		<tag k="ssr:date" v="2019-12-27" />
		<tag k="ssr:gruppe" v="veg" />
		<tag k="ssr:hovedgruppe" v="infrastruktur" />
		<tag k="ssr:stedsnr" v="978959" />
		<tag k="ssr:type" v="adressenavn" />
	</node>
	<node lat="58.58361874395977" lon="7.799886588509289" id="-63445">
		<tag k="name" v="Nikkelvegen" />
		<tag k="ssr:date" v="2019-12-27" />
		<tag k="ssr:gruppe" v="veg" />
		<tag k="ssr:hovedgruppe" v="infrastruktur" />
		<tag k="ssr:stedsnr" v="978960" />
		<tag k="ssr:type" v="adressenavn" />
	</node>
	<node lat="58.585579495706654" lon="7.80404810693035" id="-63446">
		<tag k="name" v="Nils Heglands veg" />
		<tag k="ssr:date" v="2019-12-27" />
		<tag k="ssr:gruppe" v="veg" />
		<tag k="ssr:hovedgruppe" v="infrastruktur" />
		<tag k="ssr:stedsnr" v="978961" />
		<tag k="ssr:type" v="adressenavn" />
	</node>
	<node lat="58.55737380625297" lon="7.763099528273006" id="-63448">
		<tag k="name" v="Harevegen" />
		<tag k="ssr:date" v="2019-12-27" />
		<tag k="ssr:gruppe" v="veg" />
		<tag k="ssr:hovedgruppe" v="infrastruktur" />
		<tag k="ssr:stedsnr" v="1054887" />
		<tag k="ssr:type" v="adressenavn" />
	</node>
	<node lat="58.58781756044632" lon="7.798247764615654" id="-63449">
		<tag k="name" v="Olstadvegen" />
		<tag k="ssr:date" v="2019-12-27" />
		<tag k="ssr:gruppe" v="veg" />
		<tag k="ssr:hovedgruppe" v="infrastruktur" />
		<tag k="ssr:stedsnr" v="1054889" />
		<tag k="ssr:type" v="adressenavn" />
	</node>
	<node lat="58.58341257387298" lon="7.801620218017925" id="-63450">
		<tag k="name" v="Gudvangen" />
		<tag k="ssr:date" v="2019-12-27" />
		<tag k="ssr:gruppe" v="veg" />
		<tag k="ssr:hovedgruppe" v="infrastruktur" />
		<tag k="ssr:stedsnr" v="1054894" />
		<tag k="ssr:type" v="adressenavn" />
	</node>
	<node lat="58.58290444504786" lon="7.79842274889665" id="-63451">
		<tag k="name" v="Henriksens veg" />
		<tag k="ssr:date" v="2019-12-27" />
		<tag k="ssr:gruppe" v="veg" />
		<tag k="ssr:hovedgruppe" v="infrastruktur" />
		<tag k="ssr:stedsnr" v="1054895" />
		<tag k="ssr:type" v="adressenavn" />
	</node>
	<node lat="58.61553982021517" lon="8.080433498494774" id="-63452">
		<tag k="name" v="Kjetevannsveien" />
		<tag k="ssr:date" v="2019-12-27" />
		<tag k="ssr:gruppe" v="veg" />
		<tag k="ssr:hovedgruppe" v="infrastruktur" />
		<tag k="ssr:stedsnr" v="1054906" />
		<tag k="ssr:type" v="adressenavn" />
	</node>
	<node lat="58.55563720262374" lon="7.758328066518134" id="-63453">
		<tag k="name" v="Hjortevegen" />
		<tag k="ssr:date" v="2019-12-27" />
		<tag k="ssr:gruppe" v="veg" />
		<tag k="ssr:hovedgruppe" v="infrastruktur" />
		<tag k="ssr:stedsnr" v="1054908" />
		<tag k="ssr:type" v="adressenavn" />
	</node>
	<node lat="58.151103984505276" lon="7.994091394755376" id="-63454">
		<tag k="name" v="Agder fylke" />
		<tag k="ssr:date" v="2021-06-08" />
		<tag k="ssr:gruppe" v="administrativeIndelinger" />
		<tag k="ssr:hovedgruppe" v="offentligAdministrasjon" />
		<tag k="ssr:stedsnr" v="1073974" />
		<tag k="ssr:type" v="fylke" />
	</node>
	<node lat="58.67284520069237" lon="7.80031462788667" id="-63455">
		<tag k="name" v="Runebergodden" />
		<tag k="ssr:date" v="2019-12-27" />
		<tag k="ssr:gruppe" v="veg" />
		<tag k="ssr:hovedgruppe" v="infrastruktur" />
		<tag k="ssr:stedsnr" v="1074315" />
		<tag k="ssr:type" v="adressenavn" />
	</node>
</osm>
