<?xml version="1.0" encoding="UTF-8"?>
<osm generator="osmapis" version="0.6">
	<node id="-444414" lat="59.9090916655" lon="5.62731667092">
		<tag k="name" v="Hillurdevika" />
		<tag k="natural" v="bay" />
		<tag k="ssr:stedsnr" v="340791" />
	</node>
	<node id="-444413" lat="59.9208861073" lon="5.61251389171">
		<tag k="name" v="Skjellandsholmen" />
		<tag k="place" v="islet" />
		<tag k="ssr:stedsnr" v="340768" />
	</node>
	<node id="-444410" lat="59.937413886" lon="5.63461111082">
		<tag k="name" v="Skåtevika" />
		<tag k="natural" v="bay" />
		<tag k="ssr:stedsnr" v="340691" />
	</node>
	<node id="-444409" lat="60.0503972188" lon="5.53603888433">
		<tag k="alt_name" v="Todneset" />
		<tag k="name" v="Tonneset" />
		<tag k="natural" v="cape" />
		<tag k="ssr:stedsnr" v="340673" />
	</node>
	<node id="-444404" lat="60.0050305529" lon="5.38009722027">
		<tag k="name" v="Bjørnavikneset" />
		<tag k="natural" v="cape" />
		<tag k="ssr:stedsnr" v="340462" />
	</node>
	<node id="-444403" lat="60.0190638917" lon="5.46595833516">
		<tag k="name" v="Hamnen" />
		<tag k="natural" v="bay" />
		<tag k="ssr:stedsnr" v="340449" />
	</node>
	<node id="-444402" lat="60.0168833379" lon="5.4666888968">
		<tag k="name" v="Grunnasundsholmen" />
		<tag k="place" v="islet" />
		<tag k="ssr:stedsnr" v="340444" />
	</node>
	<node id="-444401" lat="60.0067305543" lon="5.40211110695">
		<tag k="name" v="Marøysundet" />
		<tag k="natural" v="strait" />
		<tag k="ssr:stedsnr" v="340439" />
	</node>
	<node id="-444400" lat="60.0230750007" lon="5.44418611072">
		<tag k="name" v="Raudholmen" />
		<tag k="place" v="islet" />
		<tag k="ssr:stedsnr" v="340438" />
	</node>
	<node id="-444399" lat="60.0542333304" lon="5.43272777491">
		<tag k="name" v="Nordavika" />
		<tag k="natural" v="bay" />
		<tag k="ssr:stedsnr" v="340397" />
	</node>
	<node id="-444398" lat="60.0625111106" lon="5.42645556411">
		<tag k="name" v="Tanganeset" />
		<tag k="natural" v="cape" />
		<tag k="ssr:stedsnr" v="340391" />
	</node>
	<node id="-444397" lat="60.0816305551" lon="5.42641666306">
		<tag k="name" v="Bøvika" />
		<tag k="natural" v="bay" />
		<tag k="ssr:stedsnr" v="340377" />
	</node>
	<node id="-444396" lat="60.0849111121" lon="5.3671166664">
		<tag k="name" v="Sundet" />
		<tag k="natural" v="strait" />
		<tag k="ssr:stedsnr" v="340373" />
	</node>
	<node id="-444388" lat="60.0647305583" lon="5.58136944483">
		<tag k="name" v="Småsundet" />
		<tag k="natural" v="strait" />
		<tag k="ssr:stedsnr" v="329332" />
	</node>
	<node id="-444387" lat="59.8941555518" lon="5.53712778667">
		<tag k="name" v="Grovaneset" />
		<tag k="natural" v="cape" />
		<tag k="ssr:stedsnr" v="328764" />
	</node>
	<node id="-444386" lat="60.0678305525" lon="5.63626666256">
		<tag k="name" v="Selvågen" />
		<tag k="natural" v="strait" />
		<tag k="ssr:stedsnr" v="328290" />
	</node>
	<node id="-444385" lat="59.9724250046" lon="5.4036888967">
		<tag k="name" v="Rimsaks" />
		<tag k="natural" v="cape" />
		<tag k="ssr:stedsnr" v="328218" />
	</node>
	<node id="-444378" lat="60.0451863418" lon="5.56420139941">
		<tag k="name" v="Kvernavika" />
		<tag k="natural" v="bay" />
		<tag k="ssr:stedsnr" v="308344" />
	</node>
	<node id="-444374" lat="60.0389666704" lon="5.70430554625">
		<tag k="name" v="Børevika" />
		<tag k="natural" v="bay" />
		<tag k="ssr:stedsnr" v="308312" />
	</node>
	<node id="-444373" lat="60.0035472212" lon="5.36359999861">
		<tag k="name" v="Skaget" />
		<tag k="natural" v="cape" />
		<tag k="ssr:stedsnr" v="308187" />
	</node>
	<node id="-444372" lat="60.00382222" lon="5.4246833353">
		<tag k="alt_name" v="Bjørnarøya, l" />
		<tag k="name" v="Vesla Bjørnøy" />
		<tag k="place" v="islet" />
		<tag k="ssr:stedsnr" v="308184" />
	</node>
	<node id="-444371" lat="60.0757111113" lon="5.44009999781">
		<tag k="name" v="Toneset" />
		<tag k="natural" v="cape" />
		<tag k="ssr:stedsnr" v="308160" />
	</node>
	<node id="-444369" lat="59.9374472214" lon="5.63704444803">
		<tag k="name" v="Elsåkerneset" />
		<tag k="natural" v="cape" />
		<tag k="ssr:stedsnr" v="307741" />
	</node>
	<node id="-446416" lat="60.0776611091" lon="5.4251805474">
		<tag k="name" v="Straumen" />
		<tag k="natural" v="bay" />
		<tag k="ssr:stedsnr" v="948909" />
	</node>
	<node id="-446415" lat="60.0142972208" lon="5.37791665969">
		<tag k="name" v="Kjeaviksholmen" />
		<tag k="place" v="islet" />
		<tag k="ssr:stedsnr" v="948907" />
	</node>
	<node id="-446414" lat="60.0049055533" lon="5.43617223009">
		<tag k="name" v="Høgseto" />
		<tag k="place" v="islet" />
		<tag k="ssr:stedsnr" v="948895" />
	</node>
	<node id="-446413" lat="60.0721805586" lon="5.35258889661">
		<tag k="name" v="Hellemannen" />
		<tag k="natural" v="cape" />
		<tag k="ssr:stedsnr" v="948885" />
	</node>
	<node id="-446412" lat="59.9630083315" lon="5.43627777337">
		<tag k="name" v="Skjervika" />
		<tag k="natural" v="bay" />
		<tag k="ssr:stedsnr" v="948883" />
	</node>
	<node id="-446411" lat="59.910547218" lon="5.59325833273">
		<tag k="name" v="Klubben" />
		<tag k="natural" v="cape" />
		<tag k="ssr:stedsnr" v="948848" />
	</node>
	<node id="-446410" lat="59.8972638849" lon="5.58279444584">
		<tag k="fixme" v="consider seamark:type=rock or natural=shoal" />
		<tag k="name" v="Tretteskjeret" />
		<tag k="place" v="islet" />
		<tag k="ssr:stedsnr" v="948846" />
	</node>
	<node id="-446409" lat="59.9301416695" lon="5.60896388037">
		<tag k="name" v="Stakaneset" />
		<tag k="natural" v="cape" />
		<tag k="ssr:stedsnr" v="948837" />
	</node>
	<node id="-446408" lat="59.9296277786" lon="5.6095916661">
		<tag k="name" v="Flakkaholmen" />
		<tag k="place" v="islet" />
		<tag k="ssr:stedsnr" v="948838" />
	</node>
	<node id="-446407" lat="60.016063885" lon="5.70333056057">
		<tag k="name" v="Glasvik" />
		<tag k="natural" v="bay" />
		<tag k="ssr:stedsnr" v="948820" />
	</node>
	<node id="-446406" lat="59.9744833328" lon="5.66106943873">
		<tag k="name" v="Midtvågeholmen" />
		<tag k="place" v="islet" />
		<tag k="ssr:stedsnr" v="948809" />
	</node>
	<node id="-446405" lat="60.0767861094" lon="5.58506944239">
		<tag k="name" v="Høgeholmen" />
		<tag k="place" v="islet" />
		<tag k="ssr:stedsnr" v="948749" />
	</node>
	<node id="-444355" lat="60.053733335" lon="5.51970277074">
		<tag k="name" v="Gjerslingane" />
		<tag k="place" v="islet" />
		<tag k="ssr:stedsnr" v="308249" />
	</node>
	<node id="-444353" lat="60.0592333319" lon="5.61184999574">
		<tag k="name" v="Humlevika" />
		<tag k="natural" v="bay" />
		<tag k="ssr:stedsnr" v="308233" />
	</node>
	<node id="-444352" lat="60.023666664" lon="5.44994443935">
		<tag k="bay" v="fjord" />
		<tag k="name" v="Søreidsvika" />
		<tag k="natural" v="bay" />
		<tag k="ssr:stedsnr" v="308211" />
	</node>
	<node id="-444350" lat="59.9905127134" lon="5.43867103456">
		<tag k="alt_name" v="Fjelevika" />
		<tag k="name" v="Fjelavika" />
		<tag k="natural" v="bay" />
		<tag k="ssr:stedsnr" v="307162" />
	</node>
	<node id="-446397" lat="59.9210138878" lon="5.72309443627">
		<tag k="fixme" v="consider seamark:type=rock or natural=shoal" />
		<tag k="name" v="Eidaskjera" />
		<tag k="place" v="islet" />
		<tag k="ssr:stedsnr" v="948596" />
	</node>
	<node id="-444348" lat="60.0363111079" lon="5.3506361136">
		<tag k="name" v="Sætravika" />
		<tag k="natural" v="bay" />
		<tag k="ssr:stedsnr" v="307148" />
	</node>
	<node id="-444346" lat="59.8763277764" lon="5.60058056188">
		<tag k="name" v="Kjeringreva" />
		<tag k="natural" v="cape" />
		<tag k="ssr:stedsnr" v="281815" />
	</node>
	<node id="-444345" lat="60.0760027807" lon="5.58673889714">
		<tag k="name" v="Pettersholmen" />
		<tag k="place" v="islet" />
		<tag k="ssr:stedsnr" v="281696" />
	</node>
	<node id="-446392" lat="60.014308335" lon="5.40152778467">
		<tag k="name" v="Mjåvågen" />
		<tag k="natural" v="bay" />
		<tag k="ssr:stedsnr" v="948534" />
	</node>
	<node id="-446391" lat="60.0186583332" lon="5.4410833283">
		<tag k="name" v="Lambavikane" />
		<tag k="natural" v="bay" />
		<tag k="ssr:stedsnr" v="948519" />
	</node>
	<node id="-446390" lat="59.9988194455" lon="5.41581111824">
		<tag k="name" v="Veslestraumen" />
		<tag k="natural" v="strait" />
		<tag k="ssr:stedsnr" v="948479" />
	</node>
	<node id="-444327" lat="59.9870999966" lon="5.3746861146">
		<tag k="name" v="Sørboneset" />
		<tag k="natural" v="cape" />
		<tag k="ssr:stedsnr" v="280880" />
	</node>
	<node id="-444326" lat="60.0574138898" lon="5.43184999874">
		<tag k="name" v="Lindeneset" />
		<tag k="natural" v="cape" />
		<tag k="ssr:stedsnr" v="280873" />
	</node>
	<node id="-444325" lat="60.0091090901" lon="5.3956065566">
		<tag k="name" v="Nesodden" />
		<tag k="natural" v="cape" />
		<tag k="ssr:stedsnr" v="280860" />
	</node>
	<node id="-446372" lat="59.999254234" lon="5.4785528043">
		<tag k="name" v="Kjevikneset" />
		<tag k="natural" v="cape" />
		<tag k="ssr:stedsnr" v="948202" />
	</node>
	<node id="-444323" lat="60.0827138902" lon="5.35683888724">
		<tag k="name" v="Veravikane" />
		<tag k="natural" v="bay" />
		<tag k="ssr:stedsnr" v="280843" />
	</node>
	<node id="-446370" lat="60.0691777813" lon="5.42951110954">
		<tag k="name" v="Holmen" />
		<tag k="place" v="islet" />
		<tag k="ssr:stedsnr" v="948193" />
	</node>
	<node id="-446368" lat="60.0760305514" lon="5.57342499226">
		<tag k="name" v="Larsaholmen" />
		<tag k="place" v="islet" />
		<tag k="ssr:stedsnr" v="948178" />
	</node>
	<node id="-446367" lat="60.050688887" lon="5.56278888184">
		<tag k="name" v="Instavika" />
		<tag k="natural" v="bay" />
		<tag k="ssr:stedsnr" v="948168" />
	</node>
	<node id="-446366" lat="60.0725722226" lon="5.52311111118">
		<tag k="name" v="Stora Vesøya" />
		<tag k="place" v="island" />
		<tag k="ssr:stedsnr" v="948166" />
	</node>
	<node id="-444317" lat="59.9241750042" lon="5.60248887962">
		<tag k="name" v="Hamnaklubben" />
		<tag k="natural" v="cape" />
		<tag k="ssr:stedsnr" v="280779" />
	</node>
	<node id="-446364" lat="60.0068527752" lon="5.35964445139">
		<tag k="name" v="Tangen" />
		<tag k="natural" v="cape" />
		<tag k="ssr:stedsnr" v="948146" />
	</node>
	<node id="-444315" lat="60.0587916702" lon="5.69898055866">
		<tag k="name" v="Djupevika" />
		<tag k="natural" v="bay" />
		<tag k="ssr:stedsnr" v="280747" />
	</node>
	<node id="-444314" lat="60.0626944469" lon="5.60191944314">
		<tag k="name" v="Salpevika" />
		<tag k="natural" v="bay" />
		<tag k="ssr:stedsnr" v="280744" />
	</node>
	<node id="-444313" lat="60.0610722201" lon="5.54931110256">
		<tag k="name" v="Dukaneset" />
		<tag k="natural" v="cape" />
		<tag k="ssr:stedsnr" v="280695" />
	</node>
	<node id="-444312" lat="59.9254574222" lon="5.51698629453">
		<tag k="name" v="Sponhammaren" />
		<tag k="natural" v="cape" />
		<tag k="ssr:stedsnr" v="280663" />
	</node>
	<node id="-444311" lat="59.9276055519" lon="5.51729445151">
		<tag k="name" v="Djupevika" />
		<tag k="natural" v="bay" />
		<tag k="ssr:stedsnr" v="280664" />
	</node>
	<node id="-446357" lat="59.9390361131" lon="5.72373333008">
		<tag k="name" v="Krabbahopen" />
		<tag k="natural" v="bay" />
		<tag k="ssr:stedsnr" v="947802" />
	</node>
	<node id="-446355" lat="59.9027861156" lon="5.66190277743">
		<tag k="name" v="Kolavika" />
		<tag k="natural" v="bay" />
		<tag k="ssr:stedsnr" v="947779" />
	</node>
	<node id="-446354" lat="59.9094499971" lon="5.64530277568">
		<tag k="fixme" v="consider seamark:type=rock or natural=shoal" />
		<tag k="name" v="Bleika" />
		<tag k="place" v="islet" />
		<tag k="ssr:stedsnr" v="947775" />
	</node>
	<node id="-446353" lat="59.9093388929" lon="5.52681388239">
		<tag k="name" v="Kjøtbogen" />
		<tag k="natural" v="cape" />
		<tag k="ssr:stedsnr" v="947773" />
	</node>
	<node id="-446352" lat="59.9274666663" lon="5.51852777215">
		<tag k="name" v="Djupevikneset" />
		<tag k="natural" v="cape" />
		<tag k="ssr:stedsnr" v="947766" />
	</node>
	<node id="-446351" lat="59.9219444435" lon="5.52016389267">
		<tag k="alt_name" v="Gongstøneset" />
		<tag k="name" v="Gangstøneset" />
		<tag k="natural" v="cape" />
		<tag k="ssr:stedsnr" v="947764" />
	</node>
	<node id="-444302" lat="60.0147163892" lon="5.40225770653">
		<tag k="name" v="Tjøreneset" />
		<tag k="natural" v="cape" />
		<tag k="ssr:stedsnr" v="280484" />
	</node>
	<node id="-444301" lat="60.0160138871" lon="5.43701388879">
		<tag k="name" v="Vågsholmen" />
		<tag k="place" v="islet" />
		<tag k="ssr:stedsnr" v="280471" />
	</node>
	<node id="-444300" lat="60.0140277822" lon="5.42293611014">
		<tag k="name" v="Pollen" />
		<tag k="natural" v="bay" />
		<tag k="ssr:stedsnr" v="280454" />
	</node>
	<node id="-444299" lat="59.9941555514" lon="5.4171333364">
		<tag k="name" v="Askilsholmen" />
		<tag k="place" v="islet" />
		<tag k="ssr:stedsnr" v="280432" />
	</node>
	<node id="-444298" lat="60.0671194427" lon="5.42414445358">
		<tag k="name" v="Storholmen" />
		<tag k="place" v="islet" />
		<tag k="ssr:stedsnr" v="280387" />
	</node>
	<node id="-446345" lat="59.9297027757" lon="5.63321388342">
		<tag k="name" v="Veslevågen" />
		<tag k="natural" v="bay" />
		<tag k="ssr:stedsnr" v="947668" />
	</node>
	<node id="-446344" lat="60.0648861102" lon="5.57231388138">
		<tag k="name" v="Gardavika" />
		<tag k="natural" v="bay" />
		<tag k="ssr:stedsnr" v="947637" />
	</node>
	<node id="-446343" lat="59.9097805528" lon="5.52561111596">
		<tag k="name" v="Fløytet" />
		<tag k="natural" v="bay" />
		<tag k="ssr:stedsnr" v="947634" />
	</node>
	<node id="-446342" lat="60.0609694474" lon="5.43461110961">
		<tag k="name" v="Vestraneset" />
		<tag k="natural" v="cape" />
		<tag k="ssr:stedsnr" v="947390" />
	</node>
	<node id="-446334" lat="59.9187432957" lon="5.61119296396">
		<tag k="name" v="Flatholmen" />
		<tag k="place" v="islet" />
		<tag k="ssr:stedsnr" v="936130" />
	</node>
	<node id="-446332" lat="59.990225001" lon="5.46876388381">
		<tag k="name" v="Beltestadvågen" />
		<tag k="natural" v="bay" />
		<tag k="ssr:stedsnr" v="936114" />
	</node>
	<node id="-446331" lat="59.9863290304" lon="5.47700022344">
		<tag k="name" v="Langedalsvika" />
		<tag k="natural" v="bay" />
		<tag k="ssr:stedsnr" v="935377" />
	</node>
	<node id="-446330" lat="60.0566861137" lon="5.44648611218">
		<tag k="name" v="Skorastallen" />
		<tag k="natural" v="shoal" />
		<tag k="place" v="locality" />
		<tag k="ssr:stedsnr" v="935317" />
	</node>
	<node id="-446329" lat="60.0017888862" lon="5.71143611706">
		<tag k="name" v="Sandsøya" />
		<tag k="place" v="island" />
		<tag k="ssr:stedsnr" v="915694" />
	</node>
	<node id="-446328" lat="60.0055194474" lon="5.71117500513">
		<tag k="fixme" v="multiple name tags, choose one and add the other to alt_name" />
		<tag k="name" v="Plassholmen;Sauholmen" />
		<tag k="place" v="islet" />
		<tag k="ssr:stedsnr" v="915690" />
	</node>
	<node id="-444279" lat="59.9774138902" lon="5.6719888851">
		<tag k="name" v="Tangen" />
		<tag k="natural" v="cape" />
		<tag k="ssr:stedsnr" v="280121" />
	</node>
	<node id="-444278" lat="60.0510888906" lon="5.55580278424">
		<tag k="name" v="Sætravika" />
		<tag k="natural" v="bay" />
		<tag k="ssr:stedsnr" v="280117" />
	</node>
	<node id="-446321" lat="60.0944916678" lon="5.55814165799">
		<tag k="name" v="Seiafluene" />
		<tag k="natural" v="shoal" />
		<tag k="place" v="locality" />
		<tag k="ssr:stedsnr" v="915417" />
	</node>
	<node id="-446320" lat="60.0865833371" lon="5.53203332901">
		<tag k="fixme" v="consider seamark:type=rock or natural=shoal" />
		<tag k="name" v="Fluøyskjeret" />
		<tag k="place" v="islet" />
		<tag k="ssr:stedsnr" v="915416" />
	</node>
	<node id="-446315" lat="60.0596888909" lon="5.50293055523">
		<tag k="alt_name" v="Teglandsflua" />
		<tag k="name" v="Teiglandsflua" />
		<tag k="natural" v="shoal" />
		<tag k="place" v="locality" />
		<tag k="ssr:stedsnr" v="915291" />
	</node>
	<node id="-446313" lat="60.047175003" lon="5.52626944486">
		<tag k="name" v="Tysnesvika" />
		<tag k="natural" v="bay" />
		<tag k="ssr:stedsnr" v="915266" />
	</node>
	<node id="-446310" lat="60.0668888928" lon="5.63331944436">
		<tag k="name" v="Korssundet" />
		<tag k="natural" v="strait" />
		<tag k="ssr:stedsnr" v="915243" />
	</node>
	<node id="-446308" lat="60.0662250009" lon="5.62488332906">
		<tag k="name" v="Flatøya" />
		<tag k="place" v="island" />
		<tag k="ssr:stedsnr" v="915240" />
	</node>
	<node id="-446307" lat="60.0646277799" lon="5.58409167434">
		<tag k="alt_name" v="Godøy, vle;Godøy, vetle" />
		<tag k="name" v="Vetle Godøy" />
		<tag k="place" v="islet" />
		<tag k="ssr:stedsnr" v="915236" />
	</node>
	<node id="-446302" lat="60.0193111134" lon="5.46310554763">
		<tag k="name" v="Fortøya" />
		<tag k="place" v="islet" />
		<tag k="ssr:stedsnr" v="915193" />
	</node>
	<node id="-446301" lat="59.9294138928" lon="5.71438611756">
		<tag k="alt_name" v="Bekkjavik" />
		<tag k="name" v="Bekkjarvik" />
		<tag k="natural" v="bay" />
		<tag k="ssr:stedsnr" v="914751" />
	</node>
	<node id="-446300" lat="59.9279083335" lon="5.64365000204">
		<tag k="fixme" v="multiple name tags, choose one and add the other to alt_name" />
		<tag k="name" v="Blekavågen;Vikane" />
		<tag k="natural" v="bay" />
		<tag k="ssr:stedsnr" v="914747" />
	</node>
	<node id="-446298" lat="59.9325777761" lon="5.5034972238">
		<tag k="name" v="Flatholmen" />
		<tag k="place" v="islet" />
		<tag k="ssr:stedsnr" v="914738" />
	</node>
	<node id="-446296" lat="59.902374997" lon="5.66129444571">
		<tag k="name" v="Skallebuvika" />
		<tag k="natural" v="bay" />
		<tag k="ssr:stedsnr" v="914730" />
	</node>
	<node id="-446295" lat="59.9242316129" lon="5.65480852877">
		<tag k="alt_name" v="Espevika, nordre" />
		<tag k="name" v="Nordra Espevika" />
		<tag k="natural" v="bay" />
		<tag k="ssr:stedsnr" v="914706" />
	</node>
	<node id="-446289" lat="59.9502722189" lon="5.66713333299">
		<tag k="alt_name" v="Onareimsfjorden" />
		<tag k="bay" v="fjord" />
		<tag k="name" v="Onarheimsfjorden" />
		<tag k="natural" v="bay" />
		<tag k="ssr:stedsnr" v="914675" />
	</node>
	<node id="-446285" lat="59.8790166704" lon="5.66787777457">
		<tag k="bay" v="fjord" />
		<tag k="name" v="Husnesfjorden" />
		<tag k="natural" v="bay" />
		<tag k="ssr:stedsnr" v="914275" />
	</node>
	<node id="-446282" lat="59.9985361131" lon="5.44768333747">
		<tag k="name" v="Brattholmen" />
		<tag k="place" v="islet" />
		<tag k="ssr:stedsnr" v="914142" />
	</node>
	<node id="-446281" lat="60.0055888848" lon="5.40250277564">
		<tag k="alt_name" v="Marøya, store" />
		<tag k="name" v="Stora Marøya" />
		<tag k="place" v="islet" />
		<tag k="ssr:stedsnr" v="915187" />
	</node>
	<node id="-446276" lat="59.9431055581" lon="5.47186388675">
		<tag k="name" v="Straumsneset" />
		<tag k="natural" v="cape" />
		<tag k="ssr:stedsnr" v="875760" />
	</node>
	<node id="-446275" lat="60.0849194401" lon="5.44520555384">
		<tag k="name" v="Bergsholmen" />
		<tag k="place" v="islet" />
		<tag k="ssr:stedsnr" v="875365" />
	</node>
	<node id="-446274" lat="60.0155944447" lon="5.44246389606">
		<tag k="name" v="Ersværfluene" />
		<tag k="natural" v="shoal" />
		<tag k="place" v="locality" />
		<tag k="ssr:stedsnr" v="874333" />
	</node>
	<node id="-446273" lat="60.0771805591" lon="5.52700000246">
		<tag k="name" v="Ryngelsfluene" />
		<tag k="natural" v="shoal" />
		<tag k="place" v="locality" />
		<tag k="ssr:stedsnr" v="874327" />
	</node>
	<node id="-446271" lat="60.0550638857" lon="5.61764999172">
		<tag k="name" v="Neset" />
		<tag k="natural" v="cape" />
		<tag k="ssr:stedsnr" v="855600" />
	</node>
	<node id="-446269" lat="60.0539055557" lon="5.51085833981">
		<tag k="name" v="Storeholmen" />
		<tag k="place" v="islet" />
		<tag k="ssr:stedsnr" v="855291" />
	</node>
	<node id="-446268" lat="60.0837916678" lon="5.37794722779">
		<tag k="name" v="Gangstøa" />
		<tag k="natural" v="bay" />
		<tag k="ssr:stedsnr" v="854908" />
	</node>
	<node id="-446267" lat="60.0856555577" lon="5.3685861179">
		<tag k="alt_name" v="Svarvahelleholmen" />
		<tag k="name" v="Svarvhelleholmen" />
		<tag k="place" v="islet" />
		<tag k="ssr:stedsnr" v="854906" />
	</node>
	<node id="-446266" lat="59.9293333344" lon="5.70074999991">
		<tag k="alt_name" v="Urdholmen" />
		<tag k="name" v="Urholmen" />
		<tag k="place" v="islet" />
		<tag k="ssr:stedsnr" v="854725" />
	</node>
	<node id="-446265" lat="59.9202333333" lon="5.69404722331">
		<tag k="name" v="Midtøysundet" />
		<tag k="natural" v="strait" />
		<tag k="ssr:stedsnr" v="854721" />
	</node>
	<node id="-446252" lat="60.0456833351" lon="5.54493888289">
		<tag k="alt_name" v="Gjersvika" />
		<tag k="name" v="Gjerdsvika" />
		<tag k="natural" v="bay" />
		<tag k="ssr:stedsnr" v="854349" />
	</node>
	<node id="-446247" lat="60.0637444416" lon="5.63303055284">
		<tag k="name" v="Lundaneset" />
		<tag k="natural" v="cape" />
		<tag k="ssr:stedsnr" v="854233" />
	</node>
	<node id="-446245" lat="60.0274333305" lon="5.46638611601">
		<tag k="alt_name" v="Børsvika" />
		<tag k="name" v="Bårevika" />
		<tag k="natural" v="bay" />
		<tag k="ssr:stedsnr" v="854207" />
	</node>
	<node id="-446242" lat="59.9494000004" lon="5.46366388615">
		<tag k="name" v="Sætravika" />
		<tag k="natural" v="bay" />
		<tag k="ssr:stedsnr" v="853792" />
	</node>
	<node id="-446237" lat="59.8841388866" lon="5.58587777817">
		<tag k="name" v="Paddeborgsvika" />
		<tag k="natural" v="bay" />
		<tag k="ssr:stedsnr" v="853255" />
	</node>
	<node id="-446234" lat="59.8862166666" lon="5.62325555251">
		<tag k="alt_name" v="Stykkjenes" />
		<tag k="name" v="Stykkeneset" />
		<tag k="natural" v="cape" />
		<tag k="ssr:stedsnr" v="853236" />
	</node>
	<node id="-446230" lat="60.0542444423" lon="5.53175000164">
		<tag k="alt_name" v="Presteskjær;Presteskjer" />
		<tag k="fixme" v="consider seamark:type=rock or natural=shoal" />
		<tag k="name" v="Prestaskjeret" />
		<tag k="place" v="islet" />
		<tag k="ssr:stedsnr" v="843390" />
	</node>
	<node id="-446227" lat="59.9983944439" lon="5.38807777991">
		<tag k="name" v="Årabladholmen" />
		<tag k="place" v="islet" />
		<tag k="ssr:stedsnr" v="827898" />
	</node>
	<node id="-446226" lat="59.9921444437" lon="5.38467500576">
		<tag k="name" v="Skipavikålen" />
		<tag k="natural" v="bay" />
		<tag k="ssr:stedsnr" v="827897" />
	</node>
	<node id="-446225" lat="60.0093527781" lon="5.47128889197">
		<tag k="alt_name" v="Hånes" />
		<tag k="name" v="Håneset" />
		<tag k="natural" v="cape" />
		<tag k="ssr:stedsnr" v="827875" />
	</node>
	<node id="-446224" lat="59.9968166633" lon="5.70191389155">
		<tag k="name" v="Kvalvågsneset" />
		<tag k="natural" v="cape" />
		<tag k="ssr:stedsnr" v="827801" />
	</node>
	<node id="-446223" lat="59.908349998" lon="5.66797221963">
		<tag k="alt_name" v="Frueid" />
		<tag k="name" v="Frueidet" />
		<tag k="place" v="locality" />
		<tag k="ssr:stedsnr" v="827796" />
	</node>
	<node id="-446222" lat="59.9798194411" lon="5.66310277936">
		<tag k="alt_name" v="Sørvik" />
		<tag k="name" v="Sørevika" />
		<tag k="natural" v="bay" />
		<tag k="ssr:stedsnr" v="827794" />
	</node>
	<node id="-446221" lat="59.8720611105" lon="5.62467223037">
		<tag k="name" v="Klubbholmen" />
		<tag k="place" v="islet" />
		<tag k="ssr:stedsnr" v="827767" />
	</node>
	<node id="-446220" lat="60.0777166655" lon="5.56336943662">
		<tag k="name" v="Farmavika" />
		<tag k="natural" v="bay" />
		<tag k="ssr:stedsnr" v="827759" />
	</node>
	<node id="-446219" lat="60.0736749993" lon="5.57183333756">
		<tag k="name" v="Straumskjera" />
		<tag k="natural" v="bay" />
		<tag k="ssr:stedsnr" v="827758" />
	</node>
	<node id="-446217" lat="59.9132527758" lon="5.71525277534">
		<tag k="name" v="Lyngneset" />
		<tag k="natural" v="cape" />
		<tag k="ssr:stedsnr" v="827568" />
	</node>
	<node id="-446209" lat="60.0032638645" lon="5.43389495101">
		<tag k="name" v="Trettholmen" />
		<tag k="place" v="islet" />
		<tag k="ssr:stedsnr" v="827263" />
	</node>
	<node id="-446203" lat="60.0577222251" lon="5.54076389104">
		<tag k="name" v="Gjerdeneset" />
		<tag k="natural" v="cape" />
		<tag k="ssr:stedsnr" v="827193" />
	</node>
	<node id="-446193" lat="60.0581805531" lon="5.3562444435">
		<tag k="name" v="Nordra Vika" />
		<tag k="natural" v="bay" />
		<tag k="ssr:stedsnr" v="826832" />
	</node>
	<node id="-446190" lat="59.9201444422" lon="5.60719166864">
		<tag k="name" v="Rundholmen" />
		<tag k="place" v="islet" />
		<tag k="ssr:stedsnr" v="826791" />
	</node>
	<node id="-446189" lat="59.9299555535" lon="5.51670278296">
		<tag k="name" v="Skiftesholmen" />
		<tag k="place" v="islet" />
		<tag k="ssr:stedsnr" v="826779" />
	</node>
	<node id="-446185" lat="59.9259138911" lon="5.64511389389">
		<tag k="name" v="Grønevika" />
		<tag k="natural" v="bay" />
		<tag k="ssr:stedsnr" v="826712" />
	</node>
	<node id="-446184" lat="59.9284416683" lon="5.68679444155">
		<tag k="name" v="Krabbavågen" />
		<tag k="natural" v="bay" />
		<tag k="ssr:stedsnr" v="826692" />
	</node>
	<node id="-446183" lat="59.9141361121" lon="5.61609721352">
		<tag k="alt_name" v="Digraneset" />
		<tag k="name" v="Digerneset" />
		<tag k="natural" v="cape" />
		<tag k="ssr:stedsnr" v="826686" />
	</node>
	<node id="-446182" lat="59.9344500018" lon="5.50090555901">
		<tag k="name" v="Storeholmen" />
		<tag k="place" v="islet" />
		<tag k="ssr:stedsnr" v="826650" />
	</node>
	<node id="-444368" lat="59.9070805545" lon="5.67889444024">
		<tag k="name" v="Hestholmen" />
		<tag k="place" v="islet" />
		<tag k="ssr:stedsnr" v="307724" />
	</node>
	<node id="-446171" lat="60.0146638876" lon="5.39794443836">
		<tag k="name" v="Revholmen" />
		<tag k="place" v="islet" />
		<tag k="ssr:stedsnr" v="826478" />
	</node>
	<node id="-446170" lat="60.013463888" lon="5.42271945156">
		<tag k="name" v="Lortepollneset" />
		<tag k="natural" v="cape" />
		<tag k="ssr:stedsnr" v="826463" />
	</node>
	<node id="-446169" lat="59.9903138904" lon="5.37358888792">
		<tag k="fixme" v="consider seamark:type=rock or natural=shoal" />
		<tag k="name" v="Sørboskjeret" />
		<tag k="place" v="islet" />
		<tag k="ssr:stedsnr" v="826451" />
	</node>
	<node id="-446168" lat="59.9996805535" lon="5.3958666613">
		<tag k="name" v="Nordneset" />
		<tag k="natural" v="cape" />
		<tag k="ssr:stedsnr" v="826441" />
	</node>
	<node id="-446167" lat="60.0021722264" lon="5.41649999442">
		<tag k="name" v="Rundeholmen" />
		<tag k="place" v="islet" />
		<tag k="ssr:stedsnr" v="826436" />
	</node>
	<node id="-446166" lat="59.9896777742" lon="5.46507778663">
		<tag k="name" v="Beltestadvika" />
		<tag k="natural" v="bay" />
		<tag k="ssr:stedsnr" v="826432" />
	</node>
	<node id="-446165" lat="59.9959749984" lon="5.43341667335">
		<tag k="name" v="Store Hånesholmen" />
		<tag k="place" v="islet" />
		<tag k="ssr:stedsnr" v="826429" />
	</node>
	<node id="-446164" lat="60.0441027788" lon="5.43831389303">
		<tag k="name" v="Laksavågen" />
		<tag k="natural" v="bay" />
		<tag k="ssr:stedsnr" v="826415" />
	</node>
	<node id="-446163" lat="60.0535249995" lon="5.43406666762">
		<tag k="name" v="Skoraneset" />
		<tag k="natural" v="cape" />
		<tag k="ssr:stedsnr" v="826409" />
	</node>
	<node id="-446162" lat="60.0652555589" lon="5.42163333677">
		<tag k="name" v="Bøneset" />
		<tag k="natural" v="cape" />
		<tag k="ssr:stedsnr" v="826406" />
	</node>
	<node id="-446161" lat="59.9975944403" lon="5.4247277808">
		<tag k="name" v="Storestraumen" />
		<tag k="natural" v="strait" />
		<tag k="ssr:stedsnr" v="826404" />
	</node>
	<node id="-446160" lat="59.9904166622" lon="5.44874721486">
		<tag k="name" v="Hovdanesvågen" />
		<tag k="natural" v="bay" />
		<tag k="ssr:stedsnr" v="826405" />
	</node>
	<node id="-446159" lat="60.0742083323" lon="5.43308610254">
		<tag k="name" v="Liljeneset" />
		<tag k="natural" v="cape" />
		<tag k="ssr:stedsnr" v="826401" />
	</node>
	<node id="-446158" lat="60.0741416651" lon="5.42355833681">
		<tag k="name" v="Sandholmen" />
		<tag k="place" v="islet" />
		<tag k="ssr:stedsnr" v="826397" />
	</node>
	<node id="-444365" lat="59.9142638867" lon="5.67508055935">
		<tag k="name" v="Flatøya" />
		<tag k="place" v="islet" />
		<tag k="ssr:stedsnr" v="307714" />
	</node>
	<node id="-446148" lat="59.9276444406" lon="5.5187916599">
		<tag k="name" v="Djupvik" />
		<tag k="natural" v="bay" />
		<tag k="ssr:stedsnr" v="814798" />
	</node>
	<node id="-446145" lat="60.021329126" lon="5.44162452981">
		<tag k="name" v="Rolvsvågen" />
		<tag k="natural" v="bay" />
		<tag k="ssr:stedsnr" v="814060" />
	</node>
	<node id="-446144" lat="60.0795833291" lon="5.35561944662">
		<tag k="name" v="Neset" />
		<tag k="natural" v="cape" />
		<tag k="ssr:stedsnr" v="813337" />
	</node>
	<node id="-446143" lat="59.9874770703" lon="5.48179459498">
		<tag k="name" v="Kastevika" />
		<tag k="natural" v="bay" />
		<tag k="ssr:stedsnr" v="813331" />
	</node>
	<node id="-446142" lat="60.0342886443" lon="5.43410768841">
		<tag k="name" v="Stokksvågen" />
		<tag k="natural" v="bay" />
		<tag k="ssr:stedsnr" v="794604" />
	</node>
	<node id="-444362" lat="59.9539861152" lon="5.49335555159">
		<tag k="alt_name" v="Knatten" />
		<tag k="name" v="Indra Knappen" />
		<tag k="natural" v="cape" />
		<tag k="ssr:stedsnr" v="307658" />
	</node>
	<node id="-446138" lat="60.0458333316" lon="5.54093055423">
		<tag k="name" v="Gjerstadneset" />
		<tag k="natural" v="cape" />
		<tag k="ssr:stedsnr" v="794261" />
	</node>
	<node id="-446137" lat="60.0012555581" lon="5.36722778106">
		<tag k="name" v="Bordestadvika" />
		<tag k="natural" v="bay" />
		<tag k="ssr:stedsnr" v="794195" />
	</node>
	<node id="-446136" lat="60.0036916623" lon="5.40364443893">
		<tag k="name" v="Leiasundet" />
		<tag k="natural" v="strait" />
		<tag k="ssr:stedsnr" v="794193" />
	</node>
	<node id="-446134" lat="59.9379972219" lon="5.72596388607">
		<tag k="alt_name" v="Ånugletangen, nordre" />
		<tag k="name" v="Nordre Ånugletangen" />
		<tag k="natural" v="cape" />
		<tag k="ssr:stedsnr" v="793758" />
	</node>
	<node id="-444359" lat="59.9949472206" lon="5.46956666072">
		<tag k="name" v="Kattholmen" />
		<tag k="place" v="islet" />
		<tag k="ssr:stedsnr" v="307606" />
	</node>
	<node id="-446117" lat="60.0728944464" lon="5.61693610498">
		<tag k="name" v="Kjeholmen" />
		<tag k="place" v="islet" />
		<tag k="ssr:stedsnr" v="793309" />
	</node>
	<node id="-446116" lat="60.0717305582" lon="5.63861667399">
		<tag k="name" v="Koløysundet" />
		<tag k="natural" v="strait" />
		<tag k="ssr:stedsnr" v="793307" />
	</node>
	<node id="-446115" lat="60.0726500032" lon="5.56103055808">
		<tag k="name" v="Godøyvika" />
		<tag k="natural" v="bay" />
		<tag k="ssr:stedsnr" v="793299" />
	</node>
	<node id="-446114" lat="60.0738555558" lon="5.52989999806">
		<tag k="fixme" v="consider seamark:type=rock or natural=shoal" />
		<tag k="name" v="Terneskjeret" />
		<tag k="place" v="islet" />
		<tag k="ssr:stedsnr" v="793296" />
	</node>
	<node id="-446113" lat="60.0738583353" lon="5.50236389739">
		<tag k="name" v="Lyngøyskaget" />
		<tag k="natural" v="shoal" />
		<tag k="place" v="locality" />
		<tag k="ssr:stedsnr" v="793292" />
	</node>
	<node id="-446112" lat="60.0565833308" lon="5.54192500847">
		<tag k="name" v="Gunnarsvika" />
		<tag k="natural" v="bay" />
		<tag k="ssr:stedsnr" v="793261" />
	</node>
	<node id="-446111" lat="60.0318655927" lon="5.4424261661">
		<tag k="name" v="Gjellandsvika" />
		<tag k="natural" v="bay" />
		<tag k="ssr:stedsnr" v="793251" />
	</node>
	<node id="-444357" lat="60.078291671" lon="5.58848611428">
		<tag k="name" v="Jonaholmen" />
		<tag k="place" v="islet" />
		<tag k="ssr:stedsnr" v="307473" />
	</node>
	<node id="-446108" lat="59.9895749961" lon="5.39290554723">
		<tag k="name" v="Landrøyvågen" />
		<tag k="natural" v="bay" />
		<tag k="ssr:stedsnr" v="793142" />
	</node>
	<node id="-446107" lat="59.9981416671" lon="5.37571389239">
		<tag k="name" v="Mjelkevika" />
		<tag k="natural" v="bay" />
		<tag k="ssr:stedsnr" v="793139" />
	</node>
	<node id="-446106" lat="59.9983388848" lon="5.4270000041">
		<tag k="name" v="Håneset" />
		<tag k="natural" v="cape" />
		<tag k="ssr:stedsnr" v="793131" />
	</node>
	<node id="-446100" lat="59.8776666302" lon="5.62532454071">
		<tag k="alt_name" v="Bleika" />
		<tag k="name" v="Bleikjo" />
		<tag k="place" v="islet" />
		<tag k="ssr:stedsnr" v="792241" />
	</node>
	<node id="-446097" lat="59.9902500002" lon="5.39480834118">
		<tag k="name" v="Breidavika" />
		<tag k="natural" v="bay" />
		<tag k="ssr:stedsnr" v="766880" />
	</node>
	<node id="-446096" lat="59.9937444428" lon="5.44758888667">
		<tag k="name" v="Kyrkjeholmen" />
		<tag k="place" v="islet" />
		<tag k="ssr:stedsnr" v="766873" />
	</node>
	<node id="-446095" lat="60.003122218" lon="5.41772221392">
		<tag k="name" v="Midtholmen" />
		<tag k="place" v="islet" />
		<tag k="ssr:stedsnr" v="766861" />
	</node>
	<node id="-446094" lat="60.0083444449" lon="5.42407223111">
		<tag k="name" v="Lauvholmen" />
		<tag k="place" v="islet" />
		<tag k="ssr:stedsnr" v="766858" />
	</node>
	<node id="-446093" lat="60.0384777777" lon="5.35011944963">
		<tag k="name" v="Slåttevika" />
		<tag k="natural" v="bay" />
		<tag k="ssr:stedsnr" v="766842" />
	</node>
	<node id="-446092" lat="59.874619444" lon="5.62100833771">
		<tag k="name" v="Limbuneset" />
		<tag k="natural" v="cape" />
		<tag k="ssr:stedsnr" v="766742" />
	</node>
	<node id="-446091" lat="59.8713750011" lon="5.62475277876">
		<tag k="fixme" v="consider seamark:type=rock or natural=shoal" />
		<tag k="name" v="Klungerskjeret" />
		<tag k="place" v="islet" />
		<tag k="ssr:stedsnr" v="766740" />
	</node>
	<node id="-446090" lat="60.053083333" lon="5.51526388611">
		<tag k="name" v="Notaneset" />
		<tag k="natural" v="cape" />
		<tag k="ssr:stedsnr" v="766702" />
	</node>
	<node id="-446089" lat="60.0751262268" lon="5.58693413832">
		<tag k="name" v="Klubben" />
		<tag k="natural" v="cape" />
		<tag k="ssr:stedsnr" v="766697" />
	</node>
	<node id="-446088" lat="59.9397222185" lon="5.51406389662">
		<tag k="name" v="Ølversvika" />
		<tag k="natural" v="bay" />
		<tag k="ssr:stedsnr" v="766661" />
	</node>
	<node id="-446065" lat="59.9267861116" lon="5.64391667439">
		<tag k="name" v="Grøneviksholmen" />
		<tag k="place" v="islet" />
		<tag k="ssr:stedsnr" v="765791" />
	</node>
	<node id="-446063" lat="59.9483027806" lon="5.62990555528">
		<tag k="name" v="Kyrkjevika" />
		<tag k="natural" v="bay" />
		<tag k="ssr:stedsnr" v="765749" />
	</node>
	<node id="-446062" lat="60.0573444434" lon="5.70327222133">
		<tag k="alt_name" v="Einingavik;Fagervika" />
		<tag k="name" v="Einingevika" />
		<tag k="natural" v="bay" />
		<tag k="ssr:stedsnr" v="765732" />
	</node>
	<node id="-446061" lat="59.9245694409" lon="5.60067499351">
		<tag k="name" v="Pollen" />
		<tag k="natural" v="bay" />
		<tag k="ssr:stedsnr" v="765715" />
	</node>
	<node id="-446060" lat="60.0558638874" lon="5.53551111878">
		<tag k="name" v="Rataneset" />
		<tag k="natural" v="cape" />
		<tag k="ssr:stedsnr" v="765674" />
	</node>
	<node id="-446059" lat="60.0498111117" lon="5.54895277035">
		<tag k="name" v="Fureneset" />
		<tag k="natural" v="cape" />
		<tag k="ssr:stedsnr" v="765672" />
	</node>
	<node id="-446058" lat="60.0640666624" lon="5.56613611519">
		<tag k="name" v="Vesle Godøyvågen" />
		<tag k="natural" v="bay" />
		<tag k="ssr:stedsnr" v="765667" />
	</node>
	<node id="-446057" lat="59.9509138873" lon="5.48610556255">
		<tag k="name" v="Vestrevågen" />
		<tag k="natural" v="bay" />
		<tag k="ssr:stedsnr" v="765618" />
	</node>
	<node id="-446056" lat="59.9505083355" lon="5.5030916673">
		<tag k="name" v="Gunnarssponen" />
		<tag k="natural" v="cape" />
		<tag k="ssr:stedsnr" v="765619" />
	</node>
	<node id="-446055" lat="59.9578222184" lon="5.49013889791">
		<tag k="name" v="Drangevågen" />
		<tag k="natural" v="bay" />
		<tag k="ssr:stedsnr" v="765616" />
	</node>
	<node id="-446054" lat="59.975094444" lon="5.50254721878">
		<tag k="name" v="Kalvavika" />
		<tag k="natural" v="bay" />
		<tag k="ssr:stedsnr" v="765613" />
	</node>
	<node id="-446046" lat="60.0797777743" lon="5.67673333998">
		<tag k="loc_name" v="Nordra Rabbalsvika" />
		<tag k="name" v="Nordra Rabbasvik" />
		<tag k="natural" v="bay" />
		<tag k="ssr:stedsnr" v="765509" />
	</node>
	<node id="-446043" lat="60.0176777796" lon="5.43834443922">
		<tag k="name" v="Storklubben" />
		<tag k="natural" v="cape" />
		<tag k="ssr:stedsnr" v="765439" />
	</node>
	<node id="-446042" lat="59.998144444" lon="5.39429722782">
		<tag k="name" v="Lassavågen" />
		<tag k="natural" v="bay" />
		<tag k="ssr:stedsnr" v="765427" />
	</node>
	<node id="-446041" lat="59.9916805553" lon="5.37345278631">
		<tag k="name" v="Sundatåa" />
		<tag k="natural" v="cape" />
		<tag k="ssr:stedsnr" v="765425" />
	</node>
	<node id="-446040" lat="59.9924975267" lon="5.43214163699">
		<tag k="name" v="Vesla Mjølkevika" />
		<tag k="natural" v="bay" />
		<tag k="ssr:stedsnr" v="765409" />
	</node>
	<node id="-446039" lat="60.0393305525" lon="5.43577222207">
		<tag k="name" v="Likvika" />
		<tag k="natural" v="bay" />
		<tag k="ssr:stedsnr" v="765399" />
	</node>
	<node id="-446038" lat="59.999950004" lon="5.42796388512">
		<tag k="name" v="Nordra Hånesvika" />
		<tag k="natural" v="bay" />
		<tag k="ssr:stedsnr" v="765377" />
	</node>
	<node id="-444344" lat="60.0414777781" lon="5.5279249973">
		<tag k="name" v="Kuholmen" />
		<tag k="place" v="islet" />
		<tag k="ssr:stedsnr" v="281683" />
	</node>
	<node id="-446022" lat="59.9957916654" lon="5.41823610748">
		<tag k="name" v="Bjørnavågen" />
		<tag k="natural" v="bay" />
		<tag k="ssr:stedsnr" v="765216" />
	</node>
	<node id="-446020" lat="60.0678833336" lon="5.42373054937">
		<tag k="name" v="Storholmen" />
		<tag k="place" v="islet" />
		<tag k="ssr:stedsnr" v="765194" />
	</node>
	<node id="-446019" lat="59.9997277747" lon="5.7050138915">
		<tag k="name" v="Ølfarsundet" />
		<tag k="natural" v="strait" />
		<tag k="ssr:stedsnr" v="765149" />
	</node>
	<node id="-446017" lat="60.0461805545" lon="5.70253610306">
		<tag k="name" v="Monsneset" />
		<tag k="natural" v="cape" />
		<tag k="ssr:stedsnr" v="765143" />
	</node>
	<node id="-446014" lat="59.9481111085" lon="5.49001944503">
		<tag k="name" v="Knappsflua" />
		<tag k="natural" v="shoal" />
		<tag k="place" v="locality" />
		<tag k="ssr:stedsnr" v="753742" />
	</node>
	<node id="-446013" lat="60.0049805522" lon="5.45326111814">
		<tag k="name" v="Uggdalstallen" />
		<tag k="natural" v="shoal" />
		<tag k="place" v="locality" />
		<tag k="ssr:stedsnr" v="753286" />
	</node>
	<node id="-446012" lat="59.9988519512" lon="5.48255796347">
		<tag k="name" v="Hallgjerdsvika" />
		<tag k="natural" v="bay" />
		<tag k="ssr:stedsnr" v="753040" />
	</node>
	<node id="-446011" lat="60.0303166635" lon="5.44314166377">
		<tag k="name" v="Dyna" />
		<tag k="natural" v="cape" />
		<tag k="ssr:stedsnr" v="753020" />
	</node>
	<node id="-446010" lat="60.0084687422" lon="5.38467464376">
		<tag k="name" v="Brattholmen" />
		<tag k="place" v="islet" />
		<tag k="ssr:stedsnr" v="751484" />
	</node>
	<node id="-445998" lat="60.0766361125" lon="5.68656945286">
		<tag k="name" v="Ingeviksneset" />
		<tag k="natural" v="cape" />
		<tag k="ssr:stedsnr" v="733278" />
	</node>
	<node id="-445997" lat="60.0759277775" lon="5.65345832906">
		<tag k="name" v="Sildaknappen" />
		<tag k="natural" v="cape" />
		<tag k="ssr:stedsnr" v="733274" />
	</node>
	<node id="-445996" lat="60.0198100731" lon="5.3475449809">
		<tag k="name" v="Ramnagjo" />
		<tag k="natural" v="bay" />
		<tag k="ssr:stedsnr" v="733224" />
	</node>
	<node id="-445994" lat="60.0120972209" lon="5.42422221732">
		<tag k="name" v="Svinevågen" />
		<tag k="natural" v="bay" />
		<tag k="ssr:stedsnr" v="733207" />
	</node>
	<node id="-445993" lat="60.0066972179" lon="5.43901666727">
		<tag k="alt_name" v="Stora Brunøy;Brunøya, store" />
		<tag k="name" v="Stora Brunøya" />
		<tag k="place" v="islet" />
		<tag k="ssr:stedsnr" v="733202" />
	</node>
	<node id="-445989" lat="59.9004666646" lon="5.64386388378">
		<tag k="name" v="Naustvika" />
		<tag k="natural" v="bay" />
		<tag k="ssr:stedsnr" v="732732" />
	</node>
	<node id="-445987" lat="59.9143333313" lon="5.71507223123">
		<tag k="alt_name" v="Ånugletangen, s" />
		<tag k="name" v="Søre Ånugletangen" />
		<tag k="natural" v="cape" />
		<tag k="ssr:stedsnr" v="732724" />
	</node>
	<node id="-445985" lat="59.979391666" lon="5.6715027689">
		<tag k="alt_name" v="Vågen, nordre" />
		<tag k="name" v="Nordre Vågen" />
		<tag k="natural" v="bay" />
		<tag k="ssr:stedsnr" v="732699" />
	</node>
	<node id="-445984" lat="59.9851972226" lon="5.67969167056">
		<tag k="alt_name" v="Korsvika" />
		<tag k="name" v="Krossavika" />
		<tag k="natural" v="bay" />
		<tag k="ssr:stedsnr" v="732698" />
	</node>
	<node id="-445983" lat="59.9979527823" lon="5.70139444992">
		<tag k="alt_name" v="Ølfarneset;Ølfarnes" />
		<tag k="name" v="Ølfernes" />
		<tag k="natural" v="cape" />
		<tag k="ssr:stedsnr" v="732691" />
	</node>
	<node id="-445976" lat="59.9919499987" lon="5.47476666385">
		<tag k="alt_name" v="Søreidsvågen, nordre" />
		<tag k="name" v="Nordre Søreidsvågen" />
		<tag k="natural" v="bay" />
		<tag k="ssr:stedsnr" v="732613" />
	</node>
	<node id="-445975" lat="60.074750004" lon="5.5437638805">
		<tag k="alt_name" v="Fjæraskjera" />
		<tag k="fixme" v="consider seamark:type=rock or natural=shoal" />
		<tag k="name" v="Fjæreskjera" />
		<tag k="place" v="islet" />
		<tag k="ssr:stedsnr" v="732481" />
	</node>
	<node id="-445970" lat="59.9984361082" lon="5.41939444366">
		<tag k="alt_name" v="Bjørnarøya, store;Stora Bjørnarøya" />
		<tag k="name" v="Stora Bjørnøy" />
		<tag k="place" v="islet" />
		<tag k="ssr:stedsnr" v="732143" />
	</node>
	<node id="-445966" lat="59.9156388899" lon="5.66574444494">
		<tag k="name" v="Skiftesvik" />
		<tag k="natural" v="bay" />
		<tag k="ssr:stedsnr" v="712467" />
	</node>
	<node id="-445965" lat="59.9078527806" lon="5.63179443638">
		<tag k="name" v="Barmaneset" />
		<tag k="natural" v="cape" />
		<tag k="ssr:stedsnr" v="712445" />
	</node>
	<node id="-445957" lat="60.0654177582" lon="5.42744234891">
		<tag k="alt_name" v="Træsnes" />
		<tag k="name" v="Trædsneset" />
		<tag k="natural" v="cape" />
		<tag k="ssr:stedsnr" v="705882" />
	</node>
	<node id="-445956" lat="60.0122833338" lon="5.3961888946">
		<tag k="name" v="Vågsholmen" />
		<tag k="place" v="islet" />
		<tag k="ssr:stedsnr" v="705875" />
	</node>
	<node id="-445955" lat="60.0175749959" lon="5.46989444575">
		<tag k="name" v="Ramnavika" />
		<tag k="natural" v="bay" />
		<tag k="ssr:stedsnr" v="705871" />
	</node>
	<node id="-445954" lat="59.9453222183" lon="5.46811389794">
		<tag k="name" v="Sandvika" />
		<tag k="natural" v="bay" />
		<tag k="ssr:stedsnr" v="705858" />
	</node>
	<node id="-445953" lat="59.9204611156" lon="5.60516667366">
		<tag k="name" v="Nestangen" />
		<tag k="natural" v="cape" />
		<tag k="ssr:stedsnr" v="705834" />
	</node>
	<node id="-445952" lat="59.9292527745" lon="5.71428611403">
		<tag k="name" v="Bekkjarvika" />
		<tag k="natural" v="bay" />
		<tag k="ssr:stedsnr" v="705830" />
	</node>
	<node id="-445951" lat="59.916830553" lon="5.52423611607">
		<tag k="name" v="Korsvikneset" />
		<tag k="natural" v="cape" />
		<tag k="ssr:stedsnr" v="705816" />
	</node>
	<node id="-445950" lat="59.9849972205" lon="5.68266666093">
		<tag k="name" v="Korsaneset" />
		<tag k="natural" v="cape" />
		<tag k="ssr:stedsnr" v="705782" />
	</node>
	<node id="-445949" lat="60.0688277746" lon="5.57787778321">
		<tag k="name" v="Mjelkevika" />
		<tag k="natural" v="bay" />
		<tag k="ssr:stedsnr" v="705767" />
	</node>
	<node id="-445948" lat="60.0526305565" lon="5.51985277887">
		<tag k="fixme" v="consider seamark:type=rock or natural=shoal" />
		<tag k="name" v="Horso" />
		<tag k="place" v="islet" />
		<tag k="ssr:stedsnr" v="705740" />
	</node>
	<node id="-445947" lat="59.9354777736" lon="5.51954999452">
		<tag k="name" v="Hamnen" />
		<tag k="natural" v="bay" />
		<tag k="ssr:stedsnr" v="705726" />
	</node>
	<node id="-445942" lat="60.0755666664" lon="5.65406943931">
		<tag k="name" v="Pålsvika" />
		<tag k="natural" v="bay" />
		<tag k="ssr:stedsnr" v="705605" />
	</node>
	<node id="-445941" lat="59.9209" lon="5.72016388047">
		<tag k="name" v="Eidet" />
		<tag k="place" v="locality" />
		<tag k="ssr:stedsnr" v="705596" />
	</node>
	<node id="-445939" lat="59.9950583378" lon="5.41196945187">
		<tag k="name" v="Bekkjarvika" />
		<tag k="natural" v="bay" />
		<tag k="ssr:stedsnr" v="705501" />
	</node>
	<node id="-445938" lat="59.997380555" lon="5.43287777008">
		<tag k="name" v="Søra Hånesvika" />
		<tag k="natural" v="bay" />
		<tag k="ssr:stedsnr" v="705478" />
	</node>
	<node id="-445937" lat="60.0807583321" lon="5.44722499633">
		<tag k="name" v="Litlavernøya" />
		<tag k="place" v="island" />
		<tag k="ssr:stedsnr" v="705450" />
	</node>
	<node id="-445936" lat="60.0809027754" lon="5.40024721764">
		<tag k="name" v="Eldholmsvågen" />
		<tag k="natural" v="bay" />
		<tag k="ssr:stedsnr" v="705443" />
	</node>
	<node id="-445921" lat="60.0813694484" lon="5.43481389383">
		<tag k="name" v="Nyhamnen" />
		<tag k="natural" v="bay" />
		<tag k="ssr:stedsnr" v="705197" />
	</node>
	<node id="-445919" lat="59.9609083371" lon="5.50616110222">
		<tag k="name" v="Tveitaneset" />
		<tag k="natural" v="cape" />
		<tag k="ssr:stedsnr" v="705193" />
	</node>
	<node id="-445917" lat="60.068763601" lon="5.56639157921">
		<tag k="name" v="Hamnaholmen" />
		<tag k="place" v="islet" />
		<tag k="ssr:stedsnr" v="705189" />
	</node>
	<node id="-445916" lat="60.0740194434" lon="5.58337777957">
		<tag k="name" v="Øyatangen" />
		<tag k="natural" v="cape" />
		<tag k="ssr:stedsnr" v="705183" />
	</node>
	<node id="-445911" lat="60.0438277765" lon="5.54896388664">
		<tag k="name" v="Veslevågen" />
		<tag k="natural" v="bay" />
		<tag k="ssr:stedsnr" v="705159" />
	</node>
	<node id="-445909" lat="60.0695083363" lon="5.66344444726">
		<tag k="fixme" v="consider seamark:type=rock or natural=shoal" />
		<tag k="name" v="Storaskjeret" />
		<tag k="place" v="islet" />
		<tag k="ssr:stedsnr" v="705155" />
	</node>
	<node id="-445908" lat="60.0083722231" lon="5.70648332499">
		<tag k="name" v="Alholmen" />
		<tag k="place" v="islet" />
		<tag k="ssr:stedsnr" v="705154" />
	</node>
	<node id="-445905" lat="59.9010944487" lon="5.65458056211">
		<tag k="name" v="Håvågen" />
		<tag k="natural" v="bay" />
		<tag k="ssr:stedsnr" v="704723" />
	</node>
	<node id="-445900" lat="59.9780388875" lon="5.38969999963">
		<tag k="name" v="Gangstøa" />
		<tag k="natural" v="bay" />
		<tag k="ssr:stedsnr" v="705530" />
	</node>
	<node id="-445899" lat="60.0217222265" lon="5.44292777368">
		<tag k="name" v="Furenestangen" />
		<tag k="natural" v="cape" />
		<tag k="ssr:stedsnr" v="705519" />
	</node>
	<node id="-445898" lat="60.020177776" lon="5.46118610692">
		<tag k="name" v="Sandvika" />
		<tag k="natural" v="bay" />
		<tag k="ssr:stedsnr" v="705518" />
	</node>
	<node id="-445897" lat="59.9936027811" lon="5.38853610733">
		<tag k="name" v="Grunnasundet" />
		<tag k="natural" v="strait" />
		<tag k="ssr:stedsnr" v="705511" />
	</node>
	<node id="-445896" lat="59.9505416672" lon="5.50578054707">
		<tag k="name" v="Sponhamar" />
		<tag k="natural" v="cape" />
		<tag k="ssr:stedsnr" v="693766" />
	</node>
	<node id="-445895" lat="59.9190083361" lon="5.66859166252">
		<tag k="name" v="Steinavika" />
		<tag k="natural" v="bay" />
		<tag k="ssr:stedsnr" v="693381" />
	</node>
	<node id="-445892" lat="59.888177777" lon="5.54978610318">
		<tag k="name" v="Storneset" />
		<tag k="natural" v="cape" />
		<tag k="ssr:stedsnr" v="692764" />
	</node>
	<node id="-445891" lat="59.9157138899" lon="5.59561110966">
		<tag k="name" v="Trongsundet" />
		<tag k="natural" v="strait" />
		<tag k="ssr:stedsnr" v="692760" />
	</node>
	<node id="-445890" lat="59.9473476689" lon="5.46656858286">
		<tag k="name" v="Sætravikneset" />
		<tag k="natural" v="cape" />
		<tag k="ssr:stedsnr" v="692756" />
	</node>
	<node id="-445889" lat="59.9883750002" lon="5.48322221455">
		<tag k="name" v="Steinavika" />
		<tag k="natural" v="bay" />
		<tag k="ssr:stedsnr" v="692352" />
	</node>
	<node id="-445888" lat="60.061847223" lon="5.44925556097">
		<tag k="name" v="Vernaflua" />
		<tag k="natural" v="shoal" />
		<tag k="place" v="locality" />
		<tag k="ssr:stedsnr" v="692286" />
	</node>
	<node id="-445887" lat="60.0594472205" lon="5.55405277306">
		<tag k="name" v="Leirvika" />
		<tag k="natural" v="bay" />
		<tag k="ssr:stedsnr" v="692094" />
	</node>
	<node id="-445886" lat="60.0604255836" lon="5.43691754531">
		<tag k="name" v="Kyrkjeholmen" />
		<tag k="place" v="islet" />
		<tag k="ssr:stedsnr" v="692090" />
	</node>
	<node id="-445885" lat="60.0066833307" lon="5.36417222163">
		<tag k="name" v="Tjørnavika" />
		<tag k="natural" v="bay" />
		<tag k="ssr:stedsnr" v="691468" />
	</node>
	<node id="-445884" lat="60.0989277746" lon="5.38506944273">
		<tag k="bay" v="fjord" />
		<tag k="name" v="Bjørnafjorden" />
		<tag k="natural" v="bay" />
		<tag k="ssr:stedsnr" v="672894" />
	</node>
	<node id="-445879" lat="60.0173277742" lon="5.47112500764">
		<tag k="name" v="Vollavika" />
		<tag k="natural" v="bay" />
		<tag k="ssr:stedsnr" v="672606" />
	</node>
	<node id="-445877" lat="59.9118805525" lon="5.70106943601">
		<tag k="name" v="Flatøya" />
		<tag k="place" v="islet" />
		<tag k="ssr:stedsnr" v="672532" />
	</node>
	<node id="-444318" lat="59.9108111123" lon="5.68193054763">
		<tag k="name" v="Flintaneset" />
		<tag k="natural" v="cape" />
		<tag k="ssr:stedsnr" v="280793" />
	</node>
	<node id="-445869" lat="60.0690888921" lon="5.58454722982">
		<tag k="alt_name" v="Godøya, vle;Godøya, vetle;Vesla Godøya" />
		<tag k="name" v="Vetla Godøya" />
		<tag k="place" v="island" />
		<tag k="ssr:stedsnr" v="672261" />
	</node>
	<node id="-445867" lat="60.0607333365" lon="5.55326666533">
		<tag k="name" v="Tytebærholmen" />
		<tag k="place" v="islet" />
		<tag k="ssr:stedsnr" v="672230" />
	</node>
	<node id="-445866" lat="60.0640750032" lon="5.55129999771">
		<tag k="name" v="Maurholmen" />
		<tag k="place" v="islet" />
		<tag k="ssr:stedsnr" v="672228" />
	</node>
	<node id="-445864" lat="60.0118154531" lon="5.35043069823">
		<tag k="name" v="Gardsenden" />
		<tag k="natural" v="cape" />
		<tag k="ssr:stedsnr" v="672200" />
	</node>
	<node id="-445859" lat="59.9217833315" lon="5.60177222667">
		<tag k="name" v="Skateneset" />
		<tag k="natural" v="cape" />
		<tag k="ssr:stedsnr" v="671742" />
	</node>
	<node id="-445858" lat="59.9007083304" lon="5.62861667055">
		<tag k="name" v="Skorpeneset" />
		<tag k="natural" v="cape" />
		<tag k="ssr:stedsnr" v="671721" />
	</node>
	<node id="-445855" lat="59.9864833324" lon="5.68336389217">
		<tag k="name" v="Årbakkavika" />
		<tag k="natural" v="bay" />
		<tag k="ssr:stedsnr" v="671689" />
	</node>
	<node id="-445852" lat="59.9749679812" lon="5.66088812992">
		<tag k="fixme" v="multiple name tags, choose one and add the other to alt_name" />
		<tag k="name" v="Langholmen;Midtvågeholmen;Nedrevågsholmen" />
		<tag k="place" v="islet" />
		<tag k="ssr:stedsnr" v="671628" />
	</node>
	<node id="-445850" lat="59.8672638848" lon="5.62330277779">
		<tag k="name" v="Kråka" />
		<tag k="place" v="islet" />
		<tag k="ssr:stedsnr" v="671310" />
	</node>
	<node id="-445849" lat="59.8904289753" lon="5.54760568149">
		<tag k="fixme" v="multiple name tags, choose one and add the other to alt_name" />
		<tag k="name" v="Hodnanesvika;Stornesvika" />
		<tag k="natural" v="bay" />
		<tag k="ssr:stedsnr" v="671278" />
	</node>
	<node id="-445845" lat="59.9916083336" lon="5.37523056211">
		<tag k="alt_name" v="Bårdsund" />
		<tag k="name" v="Bårdsundet" />
		<tag k="natural" v="strait" />
		<tag k="ssr:stedsnr" v="671136" />
	</node>
	<node id="-445835" lat="59.9872772603" lon="5.4413158377">
		<tag k="name" v="Notholmen" />
		<tag k="place" v="islet" />
		<tag k="ssr:stedsnr" v="644889" />
	</node>
	<node id="-445834" lat="60.0770388857" lon="5.41273054949">
		<tag k="name" v="Kvernavikholmen" />
		<tag k="place" v="islet" />
		<tag k="ssr:stedsnr" v="644884" />
	</node>
	<node id="-445833" lat="60.0134638896" lon="5.38320278264">
		<tag k="name" v="Staurvika" />
		<tag k="natural" v="bay" />
		<tag k="ssr:stedsnr" v="644880" />
	</node>
	<node id="-445832" lat="60.003211112" lon="5.41293889553">
		<tag k="name" v="Trædsholmen" />
		<tag k="place" v="islet" />
		<tag k="ssr:stedsnr" v="644874" />
	</node>
	<node id="-445831" lat="60.0125333339" lon="5.40108055964">
		<tag k="name" v="Mjølkevika" />
		<tag k="natural" v="bay" />
		<tag k="ssr:stedsnr" v="644873" />
	</node>
	<node id="-445830" lat="59.9980944486" lon="5.38227777162">
		<tag k="name" v="Sundaholmen" />
		<tag k="place" v="islet" />
		<tag k="ssr:stedsnr" v="644866" />
	</node>
	<node id="-445829" lat="60.0413888919" lon="5.35407500477">
		<tag k="name" v="Skotneset" />
		<tag k="natural" v="cape" />
		<tag k="ssr:stedsnr" v="644853" />
	</node>
	<node id="-445828" lat="59.9306083311" lon="5.61055278172">
		<tag k="name" v="Felsvika" />
		<tag k="natural" v="bay" />
		<tag k="ssr:stedsnr" v="644800" />
	</node>
	<node id="-445827" lat="59.9010111081" lon="5.65064444735">
		<tag k="name" v="Munkavågen" />
		<tag k="natural" v="bay" />
		<tag k="ssr:stedsnr" v="644766" />
	</node>
	<node id="-445826" lat="59.9909472247" lon="5.69527500584">
		<tag k="name" v="Oterhola" />
		<tag k="place" v="locality" />
		<tag k="ssr:stedsnr" v="644750" />
	</node>
	<node id="-445825" lat="60.0514583299" lon="5.51917500288">
		<tag k="name" v="Torskanes" />
		<tag k="natural" v="cape" />
		<tag k="ssr:stedsnr" v="644714" />
	</node>
	<node id="-445824" lat="60.049161111" lon="5.48061667156">
		<tag k="name" v="Indre Andlavågen" />
		<tag k="natural" v="bay" />
		<tag k="ssr:stedsnr" v="644711" />
	</node>
	<node id="-445823" lat="60.0433138895" lon="5.54380832639">
		<tag k="name" v="Litleholmen" />
		<tag k="place" v="islet" />
		<tag k="ssr:stedsnr" v="644696" />
	</node>
	<node id="-445822" lat="60.0814416682" lon="5.43229167443">
		<tag k="name" v="Løsundet" />
		<tag k="natural" v="strait" />
		<tag k="ssr:stedsnr" v="644683" />
	</node>
	<node id="-445814" lat="60.0751250015" lon="5.65660832889">
		<tag k="name" v="Steinevika" />
		<tag k="natural" v="bay" />
		<tag k="ssr:stedsnr" v="644575" />
	</node>
	<node id="-445813" lat="60.0033250024" lon="5.36038611312">
		<tag k="name" v="Grasvikskaget" />
		<tag k="natural" v="cape" />
		<tag k="ssr:stedsnr" v="644570" />
	</node>
	<node id="-445810" lat="59.9913722204" lon="5.4099916659">
		<tag k="name" v="Mørkevågen" />
		<tag k="natural" v="bay" />
		<tag k="ssr:stedsnr" v="644440" />
	</node>
	<node id="-445788" lat="59.9759083339" lon="5.50241111593">
		<tag k="name" v="Skiftesvika" />
		<tag k="natural" v="bay" />
		<tag k="ssr:stedsnr" v="644160" />
	</node>
	<node id="-445787" lat="59.9518944408" lon="5.63837499444">
		<tag k="name" v="Nesjaholmen" />
		<tag k="place" v="islet" />
		<tag k="ssr:stedsnr" v="644154" />
	</node>
	<node id="-445783" lat="60.0703249999" lon="5.66210278376">
		<tag k="name" v="Synningeneset" />
		<tag k="natural" v="cape" />
		<tag k="ssr:stedsnr" v="644134" />
	</node>
	<node id="-445781" lat="60.0568861116" lon="5.62110555307">
		<tag k="name" v="Ariholmen" />
		<tag k="place" v="islet" />
		<tag k="ssr:stedsnr" v="644128" />
	</node>
	<node id="-446350" lat="59.9136166696" lon="5.52544721736">
		<tag k="name" v="Lindeskora" />
		<tag k="natural" v="cape" />
		<tag k="ssr:stedsnr" v="947762" />
	</node>
	<node id="-445770" lat="59.9181250008" lon="5.71968332539">
		<tag k="name" v="Langaneset" />
		<tag k="natural" v="cape" />
		<tag k="ssr:stedsnr" v="643784" />
	</node>
	<node id="-445769" lat="59.9309611124" lon="5.71118055133">
		<tag k="name" v="Svinaneset" />
		<tag k="natural" v="cape" />
		<tag k="ssr:stedsnr" v="643781" />
	</node>
	<node id="-445767" lat="59.9338500003" lon="5.6813555488">
		<tag k="name" v="Tjuvadal" />
		<tag k="natural" v="bay" />
		<tag k="ssr:stedsnr" v="643758" />
	</node>
	<node id="-445765" lat="59.9148194441" lon="5.68602778315">
		<tag k="name" v="Seløyvika" />
		<tag k="natural" v="bay" />
		<tag k="ssr:stedsnr" v="643688" />
	</node>
	<node id="-445764" lat="59.9085083334" lon="5.62400000638">
		<tag k="name" v="Straumsneset" />
		<tag k="natural" v="cape" />
		<tag k="ssr:stedsnr" v="643683" />
	</node>
	<node id="-445763" lat="60.0637027774" lon="5.5727694378">
		<tag k="name" v="Påskeholmen" />
		<tag k="place" v="islet" />
		<tag k="ssr:stedsnr" v="643676" />
	</node>
	<node id="-445762" lat="59.9173694473" lon="5.5235222175">
		<tag k="name" v="Korsvika" />
		<tag k="natural" v="bay" />
		<tag k="ssr:stedsnr" v="643653" />
	</node>
	<node id="-445761" lat="59.9539722197" lon="5.50357500232">
		<tag k="name" v="Skotvika" />
		<tag k="natural" v="bay" />
		<tag k="ssr:stedsnr" v="643628" />
	</node>
	<node id="-445760" lat="60.0672416701" lon="5.43556388723">
		<tag k="name" v="Søra Slåttavika" />
		<tag k="natural" v="bay" />
		<tag k="ssr:stedsnr" v="643379" />
	</node>
	<node id="-445759" lat="60.0762527749" lon="5.4218194426">
		<tag k="fixme" v="consider seamark:type=rock or natural=shoal" />
		<tag k="name" v="Flataviksskjeret" />
		<tag k="place" v="islet" />
		<tag k="ssr:stedsnr" v="643368" />
	</node>
	<node id="-445751" lat="59.91393333" lon="5.59633055767">
		<tag k="name" v="Mækjersvik" />
		<tag k="natural" v="bay" />
		<tag k="ssr:stedsnr" v="631785" />
	</node>
	<node id="-445750" lat="59.9242944467" lon="5.70587222645">
		<tag k="name" v="Mortholmen" />
		<tag k="place" v="islet" />
		<tag k="ssr:stedsnr" v="631142" />
	</node>
	<node id="-444297" lat="60.0794472255" lon="5.40724166991">
		<tag k="name" v="Bukkholmen" />
		<tag k="place" v="islet" />
		<tag k="ssr:stedsnr" v="280370" />
	</node>
	<node id="-445748" lat="60.0554861133" lon="5.61388888474">
		<tag k="name" v="Timbervika" />
		<tag k="natural" v="bay" />
		<tag k="ssr:stedsnr" v="631093" />
	</node>
	<node id="-445747" lat="60.0009972249" lon="5.39250832732">
		<tag k="name" v="Lassaboen" />
		<tag k="natural" v="shoal" />
		<tag k="place" v="locality" />
		<tag k="ssr:stedsnr" v="630424" />
	</node>
	<node id="-444296" lat="60.0446166627" lon="5.47178055694">
		<tag k="name" v="Djupevika" />
		<tag k="natural" v="bay" />
		<tag k="ssr:stedsnr" v="280362" />
	</node>
	<node id="-445738" lat="60.0750249999" lon="5.6458527859">
		<tag k="name" v="Kattaneset" />
		<tag k="natural" v="cape" />
		<tag k="ssr:stedsnr" v="611292" />
	</node>
	<node id="-445737" lat="60.0688555573" lon="5.61012500253">
		<tag k="name" v="Øskja" />
		<tag k="place" v="islet" />
		<tag k="ssr:stedsnr" v="611287" />
	</node>
	<node id="-445735" lat="60.0042416665" lon="5.36727500239">
		<tag k="name" v="Grasvika" />
		<tag k="natural" v="bay" />
		<tag k="ssr:stedsnr" v="611204" />
	</node>
	<node id="-445734" lat="60.0071722225" lon="5.39660555415">
		<tag k="alt_name" v="Marøya, l" />
		<tag k="name" v="Litla Marøya" />
		<tag k="place" v="islet" />
		<tag k="ssr:stedsnr" v="611199" />
	</node>
	<node id="-445733" lat="60.0079083316" lon="5.43251666081">
		<tag k="alt_name" v="Brunøya, l" />
		<tag k="name" v="Litla Brunøya" />
		<tag k="place" v="islet" />
		<tag k="ssr:stedsnr" v="611197" />
	</node>
	<node id="-445731" lat="60.0345444463" lon="5.34531388924">
		<tag k="name" v="Djupvikneset" />
		<tag k="natural" v="cape" />
		<tag k="ssr:stedsnr" v="611131" />
	</node>
	<node id="-445729" lat="59.9288138918" lon="5.66085555474">
		<tag k="alt_name" v="Ytrenes;Ytsterneset" />
		<tag k="name" v="Ytreneset" />
		<tag k="natural" v="cape" />
		<tag k="ssr:stedsnr" v="610758" />
	</node>
	<node id="-445728" lat="59.9345083375" lon="5.51631389436">
		<tag k="alt_name" v="Skipaholmen;Skipaholmane" />
		<tag k="name" v="Skipaholmane" />
		<tag k="place" v="islet" />
		<tag k="ssr:stedsnr" v="610748" />
	</node>
	<node id="-445727" lat="59.9376916668" lon="5.49736944241">
		<tag k="fixme" v="multiple name tags, choose one and add the other to alt_name" />
		<tag k="name" v="Nonsholmen;Rundholmen" />
		<tag k="place" v="islet" />
		<tag k="ssr:stedsnr" v="610744" />
	</node>
	<node id="-445726" lat="59.9122206723" lon="5.64699278131">
		<tag k="alt_name" v="Espevika, s" />
		<tag k="name" v="Søra Espevika" />
		<tag k="natural" v="bay" />
		<tag k="ssr:stedsnr" v="610728" />
	</node>
	<node id="-445724" lat="59.9196555528" lon="5.67425555562">
		<tag k="name" v="Seløysundet" />
		<tag k="natural" v="strait" />
		<tag k="ssr:stedsnr" v="610711" />
	</node>
	<node id="-445719" lat="59.9784944458" lon="5.67299167171">
		<tag k="alt_name" v="Vågsneset;Nedrevågsneset" />
		<tag k="name" v="Vågsnes" />
		<tag k="natural" v="cape" />
		<tag k="ssr:stedsnr" v="610665" />
	</node>
	<node id="-445718" lat="59.9633555559" lon="5.48270277729">
		<tag k="name" v="Drangsvågen" />
		<tag k="natural" v="bay" />
		<tag k="ssr:stedsnr" v="610663" />
	</node>
	<node id="-445713" lat="59.8888472206" lon="5.55787222147">
		<tag k="alt_name" v="Storvåg;Storevågen" />
		<tag k="name" v="Storvågen" />
		<tag k="natural" v="bay" />
		<tag k="ssr:stedsnr" v="610313" />
	</node>
	<node id="-445711" lat="59.9826027753" lon="5.37902777272">
		<tag k="name" v="Vardaneset" />
		<tag k="natural" v="cape" />
		<tag k="ssr:stedsnr" v="610177" />
	</node>
	<node id="-445710" lat="59.9861833856" lon="5.43813091719">
		<tag k="name" v="Sørvågen" />
		<tag k="natural" v="bay" />
		<tag k="ssr:stedsnr" v="610172" />
	</node>
	<node id="-445709" lat="59.9901100607" lon="5.43213449971">
		<tag k="name" v="Nordvågen" />
		<tag k="natural" v="bay" />
		<tag k="ssr:stedsnr" v="610155" />
	</node>
	<node id="-445702" lat="59.9276249972" lon="5.61230833863">
		<tag k="name" v="Fureneset" />
		<tag k="natural" v="cape" />
		<tag k="ssr:stedsnr" v="584791" />
	</node>
	<node id="-445701" lat="59.882524999" lon="5.62328055575">
		<tag k="fixme" v="consider seamark:type=rock or natural=shoal" />
		<tag k="name" v="Skjeret" />
		<tag k="place" v="islet" />
		<tag k="ssr:stedsnr" v="584725" />
	</node>
	<node id="-445700" lat="59.8957083299" lon="5.64670278008">
		<tag k="fixme" v="multiple name tags, choose one and add the other to alt_name" />
		<tag k="name" v="Asalholmene;Henriksholmen" />
		<tag k="place" v="islet" />
		<tag k="ssr:stedsnr" v="584723" />
	</node>
	<node id="-445699" lat="60.0780333304" lon="5.57101388208">
		<tag k="name" v="Torskaneset" />
		<tag k="natural" v="cape" />
		<tag k="ssr:stedsnr" v="584687" />
	</node>
	<node id="-445698" lat="59.9150444461" lon="5.61395277718">
		<tag k="name" v="Træet" />
		<tag k="natural" v="cape" />
		<tag k="ssr:stedsnr" v="584471" />
	</node>
	<node id="-445683" lat="60.0640548912" lon="5.43910545408">
		<tag k="name" v="Kobbavågen" />
		<tag k="natural" v="bay" />
		<tag k="ssr:stedsnr" v="583879" />
	</node>
	<node id="-445682" lat="60.0117833308" lon="5.38623611314">
		<tag k="name" v="Apalvika" />
		<tag k="natural" v="bay" />
		<tag k="ssr:stedsnr" v="583871" />
	</node>
	<node id="-445681" lat="60.013622219" lon="5.46776111505">
		<tag k="name" v="Heianeset" />
		<tag k="natural" v="cape" />
		<tag k="ssr:stedsnr" v="583859" />
	</node>
	<node id="-445680" lat="60.006697223" lon="5.43496389069">
		<tag k="name" v="Brunøyholmen" />
		<tag k="place" v="islet" />
		<tag k="ssr:stedsnr" v="583850" />
	</node>
	<node id="-445679" lat="60.0536222221" lon="5.35595556431">
		<tag k="name" v="Raunestøa" />
		<tag k="place" v="locality" />
		<tag k="ssr:stedsnr" v="583847" />
	</node>
	<node id="-445678" lat="60.0733333327" lon="5.3544999992">
		<tag k="name" v="Skageneset" />
		<tag k="natural" v="cape" />
		<tag k="ssr:stedsnr" v="583845" />
	</node>
	<node id="-445672" lat="59.9798916697" lon="5.67122221928">
		<tag k="name" v="Nedrevågen" />
		<tag k="natural" v="bay" />
		<tag k="ssr:stedsnr" v="583739" />
	</node>
	<node id="-445671" lat="60.0669749992" lon="5.6595333249">
		<tag k="name" v="Gripnesvågen" />
		<tag k="natural" v="bay" />
		<tag k="ssr:stedsnr" v="583718" />
	</node>
	<node id="-445670" lat="60.0489694419" lon="5.55104721384">
		<tag k="name" v="Furenestangen" />
		<tag k="natural" v="cape" />
		<tag k="ssr:stedsnr" v="583680" />
	</node>
	<node id="-445669" lat="59.9056472257" lon="5.58003889706">
		<tag k="name" v="Skjelevika" />
		<tag k="natural" v="bay" />
		<tag k="old_name" v="Skjeljavika" />
		<tag k="ssr:stedsnr" v="583647" />
	</node>
	<node id="-445668" lat="59.8897888891" lon="5.56387777154">
		<tag k="name" v="Litlevågen" />
		<tag k="natural" v="bay" />
		<tag k="ssr:stedsnr" v="583639" />
	</node>
	<node id="-445667" lat="59.976136115" lon="5.4985305464">
		<tag k="name" v="Vedaneset" />
		<tag k="natural" v="cape" />
		<tag k="ssr:stedsnr" v="583617" />
	</node>
	<node id="-445661" lat="60.0142111066" lon="5.42286665904">
		<tag k="name" v="Lorta-" />
		<tag k="natural" v="bay" />
		<tag k="ssr:stedsnr" v="583461" />
	</node>
	<node id="-445660" lat="59.9913710515" lon="5.4315993345">
		<tag k="alt_name" v="Mjelkevik" />
		<tag k="name" v="Stora Mjølkevika" />
		<tag k="natural" v="bay" />
		<tag k="ssr:stedsnr" v="583428" />
	</node>
	<node id="-445659" lat="59.9919893047" lon="5.43217567284">
		<tag k="name" v="Mjølkeviksklubben" />
		<tag k="natural" v="cape" />
		<tag k="ssr:stedsnr" v="583427" />
	</node>
	<node id="-445658" lat="59.9965361123" lon="5.4362249941">
		<tag k="name" v="Rokken" />
		<tag k="place" v="islet" />
		<tag k="ssr:stedsnr" v="583421" />
	</node>
	<node id="-445657" lat="60.0347888888" lon="5.44201388239">
		<tag k="name" v="Storaneset" />
		<tag k="natural" v="cape" />
		<tag k="ssr:stedsnr" v="583413" />
	</node>
	<node id="-445656" lat="60.0377027788" lon="5.43853610491">
		<tag k="name" v="Sørvågsholmen" />
		<tag k="place" v="islet" />
		<tag k="ssr:stedsnr" v="583410" />
	</node>
	<node id="-445655" lat="60.0615555562" lon="5.43889444661">
		<tag k="name" v="Midtneset" />
		<tag k="natural" v="cape" />
		<tag k="ssr:stedsnr" v="583397" />
	</node>
	<node id="-445654" lat="60.0764222197" lon="5.40755834178">
		<tag k="name" v="Saltkjelen" />
		<tag k="natural" v="bay" />
		<tag k="ssr:stedsnr" v="583377" />
	</node>
	<node id="-444280" lat="59.9638321794" lon="5.50712390031">
		<tag k="name" v="Eplandsvika" />
		<tag k="natural" v="bay" />
		<tag k="ssr:stedsnr" v="280126" />
	</node>
	<node id="-445628" lat="60.0493750027" lon="5.54495554978">
		<tag k="name" v="Slåtteneset" />
		<tag k="natural" v="cape" />
		<tag k="ssr:stedsnr" v="583170" />
	</node>
	<node id="-445627" lat="60.0714722183" lon="5.42716111753">
		<tag k="name" v="Nordvågsneset" />
		<tag k="natural" v="cape" />
		<tag k="ssr:stedsnr" v="583164" />
	</node>
	<node id="-445624" lat="60.0013555554" lon="5.69751666474">
		<tag k="name" v="Jektavika" />
		<tag k="natural" v="bay" />
		<tag k="ssr:stedsnr" v="583135" />
	</node>
	<node id="-445619" lat="59.8731499992" lon="5.60774166825">
		<tag k="name" v="Laukhammarsundet" />
		<tag k="natural" v="strait" />
		<tag k="ssr:stedsnr" v="582741" />
	</node>
	<node id="-445613" lat="60.0688694411" lon="5.6967222242">
		<tag k="name" v="Haukavika" />
		<tag k="natural" v="bay" />
		<tag k="ssr:stedsnr" v="571300" />
	</node>
	<node id="-445612" lat="60.0312277747" lon="5.70913888713">
		<tag k="name" v="Saltkjelen" />
		<tag k="natural" v="bay" />
		<tag k="ssr:stedsnr" v="571155" />
	</node>
	<node id="-445610" lat="60.0299638852" lon="5.3408305589">
		<tag k="name" v="Ersvikklubben" />
		<tag k="natural" v="cape" />
		<tag k="ssr:stedsnr" v="570323" />
	</node>
	<node id="-445609" lat="60.0658366699" lon="5.42115233099">
		<tag k="name" v="Hamravika" />
		<tag k="natural" v="bay" />
		<tag k="ssr:stedsnr" v="570314" />
	</node>
	<node id="-445608" lat="60.001122222" lon="5.46214444101">
		<tag k="name" v="Knappstallen" />
		<tag k="natural" v="shoal" />
		<tag k="place" v="locality" />
		<tag k="ssr:stedsnr" v="570149" />
	</node>
	<node id="-445607" lat="60.008736107" lon="5.41988332989">
		<tag k="name" v="Kjøkkelvågen" />
		<tag k="natural" v="bay" />
		<tag k="ssr:stedsnr" v="569471" />
	</node>
	<node id="-445603" lat="60.0524138889" lon="5.48950277616">
		<tag k="name" v="Gardvika" />
		<tag k="natural" v="bay" />
		<tag k="ssr:stedsnr" v="551292" />
	</node>
	<node id="-445602" lat="60.04905767" lon="5.47827044126">
		<tag k="alt_name" v="Andlavågen" />
		<tag k="name" v="Ytra Onglavågen" />
		<tag k="natural" v="bay" />
		<tag k="ssr:stedsnr" v="551289" />
	</node>
	<node id="-445600" lat="60.0652261398" lon="5.43349359586">
		<tag k="loc_name" v="Vernøyna" />
		<tag k="name" v="Vernøya" />
		<tag k="place" v="island" />
		<tag k="ssr:stedsnr" v="551190" />
	</node>
	<node id="-445599" lat="60.0630956185" lon="5.42903474535">
		<tag k="name" v="Tangålen" />
		<tag k="natural" v="strait" />
		<tag k="ssr:stedsnr" v="551191" />
	</node>
	<node id="-445598" lat="60.0801194418" lon="5.35649443661">
		<tag k="name" v="Svarvhella" />
		<tag k="natural" v="cape" />
		<tag k="ssr:stedsnr" v="550915" />
	</node>
	<node id="-445597" lat="59.9327333355" lon="5.68402777964">
		<tag k="alt_name" v="Seløyhovudet" />
		<tag k="name" v="Seløytangen" />
		<tag k="natural" v="cape" />
		<tag k="ssr:stedsnr" v="550727" />
	</node>
	<node id="-445596" lat="59.9293222238" lon="5.69383888292">
		<tag k="name" v="Midtøya" />
		<tag k="place" v="island" />
		<tag k="ssr:stedsnr" v="550726" />
	</node>
	<node id="-445595" lat="59.9389444466" lon="5.6221888933">
		<tag k="name" v="Elsåkervågen" />
		<tag k="natural" v="bay" />
		<tag k="ssr:stedsnr" v="550715" />
	</node>
	<node id="-445594" lat="59.9066694449" lon="5.59031111859">
		<tag k="name" v="Skjeleviksundet" />
		<tag k="natural" v="strait" />
		<tag k="old_name" v="Skjeljaviksundet" />
		<tag k="ssr:stedsnr" v="550693" />
	</node>
	<node id="-445581" lat="60.0636638863" lon="5.60743610796">
		<tag k="alt_name" v="Svidneset" />
		<tag k="name" v="Sveneset" />
		<tag k="natural" v="cape" />
		<tag k="ssr:stedsnr" v="550252" />
	</node>
	<node id="-445580" lat="60.0633694438" lon="5.56286666689">
		<tag k="name" v="Gåsavika" />
		<tag k="natural" v="bay" />
		<tag k="ssr:stedsnr" v="550251" />
	</node>
	<node id="-445578" lat="60.0207481396" lon="5.44295096828">
		<tag k="name" v="Fureneset" />
		<tag k="natural" v="cape" />
		<tag k="ssr:stedsnr" v="550231" />
	</node>
	<node id="-445577" lat="60.0184572599" lon="5.43110782091">
		<tag k="name" v="Ersværvågen" />
		<tag k="natural" v="bay" />
		<tag k="ssr:stedsnr" v="550230" />
	</node>
	<node id="-445573" lat="59.8999805545" lon="5.57366110283">
		<tag k="name" v="Selvågen" />
		<tag k="natural" v="bay" />
		<tag k="ssr:stedsnr" v="549695" />
	</node>
	<node id="-445570" lat="59.8751444424" lon="5.62671943673">
		<tag k="name" v="Langøya" />
		<tag k="place" v="islet" />
		<tag k="ssr:stedsnr" v="549251" />
	</node>
	<node id="-445569" lat="59.9613138928" lon="5.44127778115">
		<tag k="alt_name" v="Røytingevik" />
		<tag k="name" v="Røytingevika" />
		<tag k="natural" v="bay" />
		<tag k="ssr:stedsnr" v="549176" />
	</node>
	<node id="-445566" lat="59.9108611133" lon="5.66702778527">
		<tag k="fixme" v="consider seamark:type=rock or natural=shoal" />
		<tag k="name" v="Svarteskjeret" />
		<tag k="place" v="islet" />
		<tag k="ssr:stedsnr" v="530508" />
	</node>
	<node id="-445558" lat="60.0790777754" lon="5.42315834187">
		<tag k="fixme" v="consider seamark:type=rock or natural=shoal" />
		<tag k="name" v="Grautaviksskjeret" />
		<tag k="place" v="islet" />
		<tag k="ssr:stedsnr" v="523874" />
	</node>
	<node id="-445557" lat="60.0194138896" lon="5.43003888286">
		<tag k="name" v="Notaholmen" />
		<tag k="place" v="islet" />
		<tag k="ssr:stedsnr" v="523869" />
	</node>
	<node id="-445556" lat="60.0347249958" lon="5.34516388642">
		<tag k="name" v="Djupevikneset" />
		<tag k="natural" v="cape" />
		<tag k="ssr:stedsnr" v="523851" />
	</node>
	<node id="-445555" lat="59.9638388861" lon="5.64266945241">
		<tag k="name" v="Vattarøysund" />
		<tag k="natural" v="strait" />
		<tag k="ssr:stedsnr" v="523795" />
	</node>
	<node id="-445554" lat="59.9788388925" lon="5.6674527764">
		<tag k="name" v="Brakaneset" />
		<tag k="natural" v="cape" />
		<tag k="ssr:stedsnr" v="523793" />
	</node>
	<node id="-445553" lat="59.9445833329" lon="5.48705000144">
		<tag k="name" v="Svinasteinen" />
		<tag k="place" v="islet" />
		<tag k="ssr:stedsnr" v="523719" />
	</node>
	<node id="-445551" lat="60.077808335" lon="5.68841110837">
		<tag k="name" v="Engjarvikneset" />
		<tag k="natural" v="cape" />
		<tag k="ssr:stedsnr" v="523612" />
	</node>
	<node id="-445548" lat="59.9920583373" lon="5.38783889612">
		<tag k="name" v="Grunnasundholmen" />
		<tag k="place" v="islet" />
		<tag k="ssr:stedsnr" v="523493" />
	</node>
	<node id="-445529" lat="59.9437805591" lon="5.53223332591">
		<tag k="name" v="Måsholmen" />
		<tag k="place" v="islet" />
		<tag k="ssr:stedsnr" v="523201" />
	</node>
	<node id="-445527" lat="60.0750416676" lon="5.43779999313">
		<tag k="name" v="Ørnavika" />
		<tag k="natural" v="bay" />
		<tag k="ssr:stedsnr" v="523192" />
	</node>
	<node id="-445526" lat="59.9724861143" lon="5.50128889641">
		<tag k="name" v="Holmavika" />
		<tag k="natural" v="bay" />
		<tag k="ssr:stedsnr" v="523181" />
	</node>
	<node id="-445525" lat="60.0684750007" lon="5.57404999203">
		<tag k="name" v="Margreteneset" />
		<tag k="natural" v="cape" />
		<tag k="ssr:stedsnr" v="523170" />
	</node>
	<node id="-445524" lat="60.0453027791" lon="5.5279055467">
		<tag k="name" v="Vågsholmen" />
		<tag k="place" v="islet" />
		<tag k="ssr:stedsnr" v="523169" />
	</node>
	<node id="-445517" lat="60.0560307539" lon="5.35521472654">
		<tag k="name" v="Søra Vika" />
		<tag k="natural" v="bay" />
		<tag k="ssr:stedsnr" v="522818" />
	</node>
	<node id="-445512" lat="59.900919446" lon="5.64238055442">
		<tag k="name" v="Knappavika" />
		<tag k="natural" v="bay" />
		<tag k="ssr:stedsnr" v="522695" />
	</node>
	<node id="-445511" lat="59.9171388885" lon="5.59599167337">
		<tag k="name" v="Mjelkevika" />
		<tag k="natural" v="bay" />
		<tag k="ssr:stedsnr" v="522693" />
	</node>
	<node id="-445510" lat="59.9029138863" lon="5.63022499859">
		<tag k="name" v="Tjeldeneset" />
		<tag k="natural" v="cape" />
		<tag k="ssr:stedsnr" v="522690" />
	</node>
	<node id="-445509" lat="59.935202778" lon="5.63764999664">
		<tag k="name" v="Bekkjastøda" />
		<tag k="natural" v="beach" />
		<tag k="place" v="locality" />
		<tag k="ssr:stedsnr" v="522677" />
	</node>
	<node id="-445508" lat="60.0680194431" lon="5.43487222897">
		<tag k="name" v="Slåttevika" />
		<tag k="natural" v="bay" />
		<tag k="ssr:stedsnr" v="522631" />
	</node>
	<node id="-445507" lat="59.9971906576" lon="5.4556216763">
		<tag k="name" v="Vestre Knappsvågen" />
		<tag k="natural" v="bay" />
		<tag k="ssr:stedsnr" v="522411" />
	</node>
	<node id="-445506" lat="60.0429694413" lon="5.44156389459">
		<tag k="name" v="Sveinaholmen" />
		<tag k="place" v="islet" />
		<tag k="ssr:stedsnr" v="522393" />
	</node>
	<node id="-445492" lat="59.985405555" lon="5.68223611151">
		<tag k="name" v="Krossaneset" />
		<tag k="natural" v="cape" />
		<tag k="ssr:stedsnr" v="511365" />
	</node>
	<node id="-445491" lat="60.037911111" lon="5.70463056196">
		<tag k="name" v="Børevikneset" />
		<tag k="natural" v="cape" />
		<tag k="ssr:stedsnr" v="511356" />
	</node>
	<node id="-445490" lat="60.004827775" lon="5.69486111618">
		<tag k="name" v="Tveitvika" />
		<tag k="natural" v="bay" />
		<tag k="ssr:stedsnr" v="511355" />
	</node>
	<node id="-445489" lat="59.9519805569" lon="5.63851111198">
		<tag k="name" v="Nesaholmen" />
		<tag k="place" v="islet" />
		<tag k="ssr:stedsnr" v="511141" />
	</node>
	<node id="-445488" lat="59.926694441" lon="5.61233611157">
		<tag k="name" v="Kuneset" />
		<tag k="natural" v="cape" />
		<tag k="ssr:stedsnr" v="511142" />
	</node>
	<node id="-445487" lat="59.937841666" lon="5.63491111404">
		<tag k="name" v="Skottevika" />
		<tag k="natural" v="bay" />
		<tag k="ssr:stedsnr" v="511139" />
	</node>
	<node id="-445485" lat="59.9783805569" lon="5.39077499475">
		<tag k="name" v="Gongstøa" />
		<tag k="natural" v="bay" />
		<tag k="ssr:stedsnr" v="510777" />
	</node>
	<node id="-445484" lat="60.0496500024" lon="5.48108332643">
		<tag k="name" v="Indra Onglavågen" />
		<tag k="natural" v="bay" />
		<tag k="ssr:stedsnr" v="510072" />
	</node>
	<node id="-445483" lat="60.0142788513" lon="5.39665940698">
		<tag k="name" v="Åsvågen" />
		<tag k="natural" v="bay" />
		<tag k="ssr:stedsnr" v="509419" />
	</node>
	<node id="-445481" lat="60.0749842103" lon="5.57996065869">
		<tag k="name" v="Selvågen" />
		<tag k="natural" v="bay" />
		<tag k="ssr:stedsnr" v="491610" />
	</node>
	<node id="-445479" lat="60.0024999983" lon="5.69664999458">
		<tag k="name" v="Gardvika" />
		<tag k="natural" v="bay" />
		<tag k="ssr:stedsnr" v="490712" />
	</node>
	<node id="-445475" lat="60.0239250015" lon="5.70718610219">
		<tag k="name" v="Tittelivika" />
		<tag k="natural" v="bay" />
		<tag k="ssr:stedsnr" v="490681" />
	</node>
	<node id="-445469" lat="60.0721250032" lon="5.6367250033">
		<tag k="name" v="Koløya" />
		<tag k="place" v="islet" />
		<tag k="ssr:stedsnr" v="490275" />
	</node>
	<node id="-445468" lat="60.0588745837" lon="5.52203156118">
		<tag k="alt_name" v="Helgasteinen" />
		<tag k="name" v="Helgestein" />
		<tag k="place" v="islet" />
		<tag k="ssr:stedsnr" v="490239" />
	</node>
	<node id="-445467" lat="60.0294138889" lon="5.34150000591">
		<tag k="name" v="Ersvika" />
		<tag k="natural" v="bay" />
		<tag k="ssr:stedsnr" v="490234" />
	</node>
	<node id="-445466" lat="60.0234638876" lon="5.46384722375">
		<tag k="name" v="Øklandsklubben" />
		<tag k="natural" v="cape" />
		<tag k="ssr:stedsnr" v="490215" />
	</node>
	<node id="-445465" lat="60.0081499975" lon="5.35973888136">
		<tag k="name" v="Smørkjellaren" />
		<tag k="natural" v="bay" />
		<tag k="ssr:stedsnr" v="490209" />
	</node>
	<node id="-445464" lat="60.0145043255" lon="5.40008291211">
		<tag k="name" v="Haukafærvågen" />
		<tag k="natural" v="bay" />
		<tag k="ssr:stedsnr" v="490206" />
	</node>
	<node id="-445463" lat="60.0125944452" lon="5.4312944457">
		<tag k="name" v="Hovaneset" />
		<tag k="natural" v="cape" />
		<tag k="ssr:stedsnr" v="490203" />
	</node>
	<node id="-445462" lat="60.0031666696" lon="5.37956389253">
		<tag k="name" v="Selvågen" />
		<tag k="natural" v="bay" />
		<tag k="ssr:stedsnr" v="490200" />
	</node>
	<node id="-445461" lat="60.072797224" lon="5.4263500065">
		<tag k="alt_name" v="Hopesundet;Hopsundet" />
		<tag k="name" v="Hopssundet" />
		<tag k="natural" v="strait" />
		<tag k="ssr:stedsnr" v="490175" />
	</node>
	<node id="-445457" lat="59.9349638887" lon="5.70097778108">
		<tag k="name" v="Teistholmen" />
		<tag k="place" v="islet" />
		<tag k="ssr:stedsnr" v="489751" />
	</node>
	<node id="-445455" lat="59.9069305578" lon="5.68647778127">
		<tag k="alt_name" v="Seløytangen" />
		<tag k="name" v="Seløytunga" />
		<tag k="natural" v="cape" />
		<tag k="ssr:stedsnr" v="489739" />
	</node>
	<node id="-445454" lat="59.9180888892" lon="5.7153999991">
		<tag k="name" v="Skipavågen" />
		<tag k="natural" v="bay" />
		<tag k="ssr:stedsnr" v="489733" />
	</node>
	<node id="-445453" lat="59.9129249974" lon="5.61615555176">
		<tag k="name" v="Skorpesundet" />
		<tag k="natural" v="strait" />
		<tag k="ssr:stedsnr" v="489729" />
	</node>
	<node id="-445446" lat="59.9629472259" lon="5.64849167035">
		<tag k="name" v="Vattarøya" />
		<tag k="place" v="island" />
		<tag k="ssr:stedsnr" v="489679" />
	</node>
	<node id="-445444" lat="60.0756777735" lon="5.57357499188">
		<tag k="name" v="Straumen" />
		<tag k="natural" v="bay" />
		<tag k="ssr:stedsnr" v="489485" />
	</node>
	<node id="-445443" lat="60.078858337" lon="5.68805554789">
		<tag k="name" v="Jektaneset" />
		<tag k="natural" v="cape" />
		<tag k="ssr:stedsnr" v="489478" />
	</node>
	<node id="-445441" lat="59.8722698949" lon="5.62467060265">
		<tag k="alt_name" v="Kulholmen" />
		<tag k="name" v="Kubbholmen" />
		<tag k="place" v="islet" />
		<tag k="ssr:stedsnr" v="489284" />
	</node>
	<node id="-445437" lat="59.9973055534" lon="5.38651667191">
		<tag k="name" v="Klinkholmen" />
		<tag k="place" v="islet" />
		<tag k="ssr:stedsnr" v="489143" />
	</node>
	<node id="-445434" lat="60.0432194445" lon="5.52497778424">
		<tag k="name" v="Vågsneset" />
		<tag k="natural" v="cape" />
		<tag k="ssr:stedsnr" v="463637" />
	</node>
	<node id="-445433" lat="60.0748416698" lon="5.43108889017">
		<tag k="name" v="Liljevågen" />
		<tag k="natural" v="bay" />
		<tag k="ssr:stedsnr" v="463625" />
	</node>
	<node id="-445432" lat="59.9869861116" lon="5.47981111706">
		<tag k="name" v="Tjøreneset" />
		<tag k="natural" v="cape" />
		<tag k="ssr:stedsnr" v="463619" />
	</node>
	<node id="-445423" lat="59.9953111074" lon="5.38079444028">
		<tag k="name" v="Hamnavikneset" />
		<tag k="natural" v="cape" />
		<tag k="ssr:stedsnr" v="462856" />
	</node>
	<node id="-445422" lat="60.0588888872" lon="5.35692222032">
		<tag k="name" v="Vågsneset" />
		<tag k="natural" v="cape" />
		<tag k="ssr:stedsnr" v="462851" />
	</node>
	<node id="-445419" lat="59.890741668" lon="5.54507222962">
		<tag k="name" v="Ekreneset" />
		<tag k="natural" v="cape" />
		<tag k="ssr:stedsnr" v="462746" />
	</node>
	<node id="-445418" lat="59.9797555578" lon="5.66784166767">
		<tag k="name" v="Melkevika" />
		<tag k="natural" v="bay" />
		<tag k="ssr:stedsnr" v="462723" />
	</node>
	<node id="-445417" lat="60.0545444427" lon="5.70485833342">
		<tag k="name" v="Storatorva" />
		<tag k="natural" v="cape" />
		<tag k="ssr:stedsnr" v="462720" />
	</node>
	<node id="-445416" lat="60.0524527789" lon="5.70481388126">
		<tag k="name" v="Veslatorva" />
		<tag k="natural" v="cape" />
		<tag k="ssr:stedsnr" v="462718" />
	</node>
	<node id="-445415" lat="59.9380493314" lon="5.63693119563">
		<tag k="name" v="Alsakerneset" />
		<tag k="natural" v="cape" />
		<tag k="ssr:stedsnr" v="462707" />
	</node>
	<node id="-445414" lat="59.907405769" lon="5.67386880596">
		<tag k="name" v="Nilsholmen" />
		<tag k="place" v="islet" />
		<tag k="ssr:stedsnr" v="462699" />
	</node>
	<node id="-445413" lat="59.9244222192" lon="5.70211111455">
		<tag k="name" v="Straumaneset" />
		<tag k="natural" v="cape" />
		<tag k="ssr:stedsnr" v="462688" />
	</node>
	<node id="-445412" lat="59.9270750034" lon="5.68836943875">
		<tag k="name" v="Storavika" />
		<tag k="natural" v="bay" />
		<tag k="ssr:stedsnr" v="462685" />
	</node>
	<node id="-445411" lat="60.067283329" lon="5.56062221826">
		<tag k="name" v="Olderholmen" />
		<tag k="place" v="islet" />
		<tag k="ssr:stedsnr" v="462678" />
	</node>
	<node id="-445403" lat="60.0063361124" lon="5.378872217">
		<tag k="name" v="Sponavika" />
		<tag k="natural" v="bay" />
		<tag k="ssr:stedsnr" v="462473" />
	</node>
	<node id="-445402" lat="60.0099083378" lon="5.3763277746">
		<tag k="name" v="Breidvika" />
		<tag k="natural" v="bay" />
		<tag k="ssr:stedsnr" v="462471" />
	</node>
	<node id="-445401" lat="60.0112472185" lon="5.37451110847">
		<tag k="name" v="Ervika" />
		<tag k="natural" v="bay" />
		<tag k="ssr:stedsnr" v="462469" />
	</node>
	<node id="-445400" lat="59.9858916634" lon="5.39558055512">
		<tag k="name" v="Rasmusholmen" />
		<tag k="place" v="islet" />
		<tag k="ssr:stedsnr" v="462430" />
	</node>
	<node id="-445399" lat="59.9887722237" lon="5.39031666429">
		<tag k="name" v="Bua-" />
		<tag k="natural" v="bay" />
		<tag k="ssr:stedsnr" v="462423" />
	</node>
	<node id="-445398" lat="59.9910027767" lon="5.44262777082">
		<tag k="name" v="Vesle Fureholmen" />
		<tag k="place" v="islet" />
		<tag k="ssr:stedsnr" v="462412" />
	</node>
	<node id="-445397" lat="60.0496027773" lon="5.43989445163">
		<tag k="name" v="Raftaneset" />
		<tag k="natural" v="cape" />
		<tag k="ssr:stedsnr" v="462395" />
	</node>
	<node id="-445396" lat="59.9866000019" lon="5.47595556206">
		<tag k="name" v="Langedals-" />
		<tag k="natural" v="bay" />
		<tag k="ssr:stedsnr" v="462381" />
	</node>
	<node id="-445395" lat="60.0749638863" lon="5.43367222044">
		<tag k="fixme" v="consider seamark:type=rock or natural=shoal" />
		<tag k="name" v="Kuvågsskjeret" />
		<tag k="place" v="islet" />
		<tag k="ssr:stedsnr" v="462379" />
	</node>
	<node id="-445394" lat="60.0786472208" lon="5.43756389491">
		<tag k="name" v="Klumpen" />
		<tag k="natural" v="cape" />
		<tag k="ssr:stedsnr" v="462374" />
	</node>
	<node id="-445393" lat="60.0251027735" lon="5.44227500748">
		<tag k="name" v="Sætrasjøen" />
		<tag k="natural" v="bay" />
		<tag k="ssr:stedsnr" v="462362" />
	</node>
	<node id="-445370" lat="59.9478388272" lon="5.50779590545">
		<tag k="name" v="Trædsvika" />
		<tag k="natural" v="bay" />
		<tag k="ssr:stedsnr" v="462160" />
	</node>
	<node id="-445369" lat="59.9411805593" lon="5.50947778319">
		<tag k="name" v="Sagneset" />
		<tag k="natural" v="cape" />
		<tag k="ssr:stedsnr" v="462157" />
	</node>
	<node id="-445368" lat="60.0542000018" lon="5.51216111037">
		<tag k="name" v="Refsneset" />
		<tag k="natural" v="cape" />
		<tag k="ssr:stedsnr" v="462154" />
	</node>
	<node id="-445367" lat="60.051761111" lon="5.48816388495">
		<tag k="name" v="Slettevika" />
		<tag k="natural" v="bay" />
		<tag k="ssr:stedsnr" v="462153" />
	</node>
	<node id="-445366" lat="60.0699166658" lon="5.42770556355">
		<tag k="name" v="Andholmen" />
		<tag k="place" v="islet" />
		<tag k="ssr:stedsnr" v="462151" />
	</node>
	<node id="-445365" lat="60.0731277761" lon="5.55899722594">
		<tag k="name" v="Kuholmen" />
		<tag k="place" v="islet" />
		<tag k="ssr:stedsnr" v="462144" />
	</node>
	<node id="-445363" lat="60.0465833346" lon="5.56096389394">
		<tag k="name" v="Seljavikneset" />
		<tag k="natural" v="cape" />
		<tag k="ssr:stedsnr" v="462132" />
	</node>
	<node id="-445360" lat="60.0666916643" lon="5.66639721892">
		<tag k="name" v="Slettavika" />
		<tag k="natural" v="bay" />
		<tag k="ssr:stedsnr" v="462122" />
	</node>
	<node id="-445359" lat="60.0660333298" lon="5.66256666138">
		<tag k="name" v="Gripnesholmen" />
		<tag k="place" v="islet" />
		<tag k="ssr:stedsnr" v="462121" />
	</node>
	<node id="-445346" lat="59.8884694453" lon="5.58025000859">
		<tag k="name" v="Varmehola" />
		<tag k="natural" v="bay" />
		<tag k="ssr:stedsnr" v="450783" />
	</node>
	<node id="-445345" lat="59.8935999954" lon="5.57052776959">
		<tag k="name" v="Bakkaholmen" />
		<tag k="place" v="islet" />
		<tag k="ssr:stedsnr" v="450773" />
	</node>
	<node id="-445344" lat="59.9583916625" lon="5.4474027743">
		<tag k="name" v="Hestabyneset" />
		<tag k="natural" v="cape" />
		<tag k="ssr:stedsnr" v="450757" />
	</node>
	<node id="-445343" lat="60.0550194424" lon="5.44799444336">
		<tag k="name" v="Djupestallen" />
		<tag k="natural" v="shoal" />
		<tag k="place" v="locality" />
		<tag k="ssr:stedsnr" v="449177" />
	</node>
	<node id="-445335" lat="60.0822916653" lon="5.45926944118">
		<tag k="name" v="Instøy" />
		<tag k="place" v="islet" />
		<tag k="ssr:stedsnr" v="429925" />
	</node>
	<node id="-445334" lat="60.0822638858" lon="5.42080832923">
		<tag k="alt_name" v="Lambøya" />
		<tag k="name" v="Lamøya" />
		<tag k="place" v="islet" />
		<tag k="ssr:stedsnr" v="429921" />
	</node>
	<node id="-445332" lat="59.9258861122" lon="5.6048250026">
		<tag k="name" v="Flakkavågen" />
		<tag k="natural" v="bay" />
		<tag k="ssr:stedsnr" v="429730" />
	</node>
	<node id="-445331" lat="59.9354611127" lon="5.64236944429">
		<tag k="name" v="Kloholmen" />
		<tag k="place" v="islet" />
		<tag k="ssr:stedsnr" v="429724" />
	</node>
	<node id="-445321" lat="60.0067166671" lon="5.69612499703">
		<tag k="alt_name" v="Tveiteneset" />
		<tag k="name" v="Tveitneset" />
		<tag k="natural" v="cape" />
		<tag k="ssr:stedsnr" v="430622" />
	</node>
	<node id="-445318" lat="60.0709583338" lon="5.59337778602">
		<tag k="name" v="Sjursvika" />
		<tag k="natural" v="bay" />
		<tag k="ssr:stedsnr" v="429269" />
	</node>
	<node id="-445317" lat="60.0685694468" lon="5.56705000366">
		<tag k="name" v="Godøysundet" />
		<tag k="natural" v="strait" />
		<tag k="ssr:stedsnr" v="429261" />
	</node>
	<node id="-445316" lat="60.0681055585" lon="5.51331388506">
		<tag k="alt_name" v="Rundaskjeret" />
		<tag k="fixme" v="consider seamark:type=rock or natural=shoal" />
		<tag k="name" v="Rundeskjeret" />
		<tag k="place" v="islet" />
		<tag k="ssr:stedsnr" v="429260" />
	</node>
	<node id="-445315" lat="60.0774388854" lon="5.62071388279">
		<tag k="alt_name" v="Bakkholmane" />
		<tag k="name" v="Bakkaholmane" />
		<tag k="place" v="islet" />
		<tag k="ssr:stedsnr" v="429445" />
	</node>
	<node id="-445314" lat="60.0805778115" lon="5.42907795861">
		<tag k="name" v="Enes" />
		<tag k="natural" v="cape" />
		<tag k="ssr:stedsnr" v="429173" />
	</node>
	<node id="-445312" lat="60.0441416636" lon="5.44195556079">
		<tag k="alt_name" v="Raftholmen" />
		<tag k="name" v="Raftaholmen" />
		<tag k="place" v="islet" />
		<tag k="ssr:stedsnr" v="429131" />
	</node>
	<node id="-445310" lat="59.9078166695" lon="5.62479999793">
		<tag k="alt_name" v="Gullholmen" />
		<tag k="name" v="Gulholmen" />
		<tag k="place" v="islet" />
		<tag k="ssr:stedsnr" v="428684" />
	</node>
	<node id="-445307" lat="59.8892944459" lon="5.57919721691">
		<tag k="alt_name" v="Kvitesalen" />
		<tag k="name" v="Kvitesaltåa" />
		<tag k="natural" v="cape" />
		<tag k="ssr:stedsnr" v="428257" />
	</node>
	<node id="-445301" lat="60.0095368927" lon="5.39257489534">
		<tag k="name" v="Smievollosen" />
		<tag k="natural" v="strait" />
		<tag k="ssr:stedsnr" v="429204" />
	</node>
	<node id="-445299" lat="59.9443138902" lon="5.49387778553">
		<tag k="name" v="Osen" />
		<tag k="natural" v="bay" />
		<tag k="ssr:stedsnr" v="268760" />
	</node>
	<node id="-445297" lat="59.9976614186" lon="5.4598031879">
		<tag k="name" v="Beltestadknappen" />
		<tag k="natural" v="cape" />
		<tag k="ssr:stedsnr" v="268029" />
	</node>
	<node id="-444324" lat="60.03800556" lon="5.34998888893">
		<tag k="name" v="Slåttevikneset" />
		<tag k="natural" v="cape" />
		<tag k="ssr:stedsnr" v="280845" />
	</node>
	<node id="-445295" lat="59.9866499956" lon="5.4734666611">
		<tag k="name" v="Mjelkevika" />
		<tag k="natural" v="bay" />
		<tag k="ssr:stedsnr" v="267337" />
	</node>
	<node id="-445294" lat="60.0523000033" lon="5.48439721586">
		<tag k="name" v="Vedanesflua" />
		<tag k="natural" v="shoal" />
		<tag k="place" v="locality" />
		<tag k="ssr:stedsnr" v="267019" />
	</node>
	<node id="-445293" lat="60.0848694411" lon="5.51987500643">
		<tag k="name" v="Fluøyane" />
		<tag k="place" v="island" />
		<tag k="ssr:stedsnr" v="248425" />
	</node>
	<node id="-445292" lat="60.0594638903" lon="5.69994166372">
		<tag k="name" v="Djupevika" />
		<tag k="natural" v="bay" />
		<tag k="ssr:stedsnr" v="248334" />
	</node>
	<node id="-445289" lat="60.076088888" lon="5.41223332481">
		<tag k="alt_name" v="Kvernavika" />
		<tag k="name" v="Kvernvika" />
		<tag k="natural" v="bay" />
		<tag k="ssr:stedsnr" v="247912" />
	</node>
	<node id="-445285" lat="59.924130553" lon="5.72634722028">
		<tag k="name" v="Vedavika" />
		<tag k="natural" v="bay" />
		<tag k="ssr:stedsnr" v="247672" />
	</node>
	<node id="-445275" lat="59.890552774" lon="5.59961666461">
		<tag k="name" v="Skorpo" />
		<tag k="place" v="island" />
		<tag k="ssr:stedsnr" v="247543" />
	</node>
	<node id="-445270" lat="60.0720277795" lon="5.64633611423">
		<tag k="alt_name" v="Koløyhamnen" />
		<tag k="name" v="Koløyhamn" />
		<tag k="natural" v="bay" />
		<tag k="ssr:stedsnr" v="247277" />
	</node>
	<node id="-445267" lat="60.0620527742" lon="5.35782222104">
		<tag k="name" v="Håkrevika" />
		<tag k="natural" v="bay" />
		<tag k="ssr:stedsnr" v="247175" />
	</node>
	<node id="-445266" lat="60.0645722193" lon="5.44169722039">
		<tag k="alt_name" v="Vernøyneset" />
		<tag k="name" v="Vernaneset" />
		<tag k="natural" v="cape" />
		<tag k="ssr:stedsnr" v="247167" />
	</node>
	<node id="-445261" lat="60.038427776" lon="5.39285277727">
		<tag k="name" v="Reksteren" />
		<tag k="place" v="island" />
		<tag k="ssr:stedsnr" v="247128" />
	</node>
	<node id="-445259" lat="59.9913111117" lon="5.41217223077">
		<tag k="name" v="Bjørnavågen" />
		<tag k="natural" v="bay" />
		<tag k="ssr:stedsnr" v="247124" />
	</node>
	<node id="-445258" lat="60.0325500019" lon="5.34630834121">
		<tag k="name" v="Djupvika" />
		<tag k="natural" v="bay" />
		<tag k="ssr:stedsnr" v="247123" />
	</node>
	<node id="-445246" lat="60.0326861096" lon="5.34540554907">
		<tag k="name" v="Djupevika" />
		<tag k="natural" v="bay" />
		<tag k="ssr:stedsnr" v="220863" />
	</node>
	<node id="-445245" lat="59.9679527767" lon="5.42349165821">
		<tag k="name" v="Djupavikneset" />
		<tag k="natural" v="cape" />
		<tag k="ssr:stedsnr" v="220861" />
	</node>
	<node id="-445244" lat="59.9581861093" lon="5.44705833362">
		<tag k="name" v="Hestamyrdalsneset" />
		<tag k="natural" v="cape" />
		<tag k="ssr:stedsnr" v="220859" />
	</node>
	<node id="-445243" lat="59.9512027794" lon="5.6340250007">
		<tag k="name" v="Tjørebrædneset" />
		<tag k="natural" v="cape" />
		<tag k="ssr:stedsnr" v="220814" />
	</node>
	<node id="-445242" lat="59.9614972193" lon="5.63943610334">
		<tag k="name" v="Basthammervik" />
		<tag k="natural" v="bay" />
		<tag k="ssr:stedsnr" v="220804" />
	</node>
	<node id="-445241" lat="60.0670194458" lon="5.6218694459">
		<tag k="name" v="Øyasundet" />
		<tag k="natural" v="strait" />
		<tag k="ssr:stedsnr" v="220799" />
	</node>
	<node id="-445240" lat="60.0660861079" lon="5.65813054738">
		<tag k="name" v="Kattalandsstøda" />
		<tag k="natural" v="cape" />
		<tag k="ssr:stedsnr" v="220793" />
	</node>
	<node id="-445239" lat="60.0587111105" lon="5.60865833193">
		<tag k="name" v="Galanteholmen" />
		<tag k="place" v="islet" />
		<tag k="ssr:stedsnr" v="220780" />
	</node>
	<node id="-445238" lat="59.8929861154" lon="5.62547778074">
		<tag k="name" v="Storleitet" />
		<tag k="place" v="locality" />
		<tag k="ssr:stedsnr" v="220769" />
	</node>
	<node id="-445237" lat="60.051072219" lon="5.49714722378">
		<tag k="name" v="Indra-" />
		<tag k="natural" v="bay" />
		<tag k="ssr:stedsnr" v="220737" />
	</node>
	<node id="-445236" lat="60.0427833329" lon="5.54098333938">
		<tag k="name" v="Kalvatrædneset" />
		<tag k="natural" v="cape" />
		<tag k="ssr:stedsnr" v="220727" />
	</node>
	<node id="-445235" lat="59.888538587" lon="5.56037043634">
		<tag k="name" v="Storevågsneset" />
		<tag k="natural" v="cape" />
		<tag k="ssr:stedsnr" v="220709" />
	</node>
	<node id="-445234" lat="59.9423194427" lon="5.4874249918">
		<tag k="name" v="Løvika" />
		<tag k="natural" v="bay" />
		<tag k="ssr:stedsnr" v="220703" />
	</node>
	<node id="-445233" lat="59.9334027772" lon="5.71703610388">
		<tag k="name" v="Djupavika" />
		<tag k="natural" v="bay" />
		<tag k="ssr:stedsnr" v="220580" />
	</node>
	<node id="-445214" lat="60.0755638929" lon="5.66008054776">
		<tag k="name" v="Geitaskora" />
		<tag k="natural" v="bay" />
		<tag k="ssr:stedsnr" v="220261" />
	</node>
	<node id="-445210" lat="59.9964834236" lon="5.48774013587">
		<tag k="name" v="Eidaneset" />
		<tag k="natural" v="cape" />
		<tag k="ssr:stedsnr" v="220225" />
	</node>
	<node id="-445206" lat="60.0131888904" lon="5.69839721354">
		<tag k="name" v="Ladhammaren" />
		<tag k="natural" v="cape" />
		<tag k="ssr:stedsnr" v="220194" />
	</node>
	<node id="-445205" lat="60.0652972265" lon="5.66582777671">
		<tag k="fixme" v="consider seamark:type=rock or natural=shoal" />
		<tag k="name" v="Sjuraskjeret" />
		<tag k="place" v="islet" />
		<tag k="ssr:stedsnr" v="220164" />
	</node>
	<node id="-445192" lat="59.9098472217" lon="5.63951944434">
		<tag k="name" v="Ingeberneset" />
		<tag k="natural" v="cape" />
		<tag k="ssr:stedsnr" v="219813" />
	</node>
	<node id="-445189" lat="59.9027138928" lon="5.66432500709">
		<tag k="alt_name" v="Skollbuneset" />
		<tag k="name" v="Skollebuneset" />
		<tag k="natural" v="cape" />
		<tag k="ssr:stedsnr" v="219763" />
	</node>
	<node id="-445188" lat="59.9302166628" lon="5.67716666398">
		<tag k="name" v="Vestravika" />
		<tag k="natural" v="bay" />
		<tag k="ssr:stedsnr" v="219709" />
	</node>
	<node id="-445187" lat="59.9231666665" lon="5.51873610436">
		<tag k="name" v="Anderssjøen" />
		<tag k="natural" v="bay" />
		<tag k="ssr:stedsnr" v="219677" />
	</node>
	<node id="-445186" lat="59.9526388923" lon="5.49214166986">
		<tag k="name" v="Austrevågen" />
		<tag k="natural" v="bay" />
		<tag k="ssr:stedsnr" v="219660" />
	</node>
	<node id="-445185" lat="59.9609916679" lon="5.49774166447">
		<tag k="name" v="Mylnevika" />
		<tag k="natural" v="bay" />
		<tag k="ssr:stedsnr" v="219655" />
	</node>
	<node id="-445178" lat="59.9916500014" lon="5.3926611073">
		<tag k="name" v="Svinaneset" />
		<tag k="natural" v="cape" />
		<tag k="ssr:stedsnr" v="219430" />
	</node>
	<node id="-445177" lat="60.0011277786" lon="5.39972777882">
		<tag k="name" v="Vierevika" />
		<tag k="natural" v="bay" />
		<tag k="ssr:stedsnr" v="219421" />
	</node>
	<node id="-445176" lat="59.9879539575" lon="5.44348288935">
		<tag k="name" v="Skotahola" />
		<tag k="natural" v="bay" />
		<tag k="ssr:stedsnr" v="219416" />
	</node>
	<node id="-445175" lat="59.9941000021" lon="5.44943054969">
		<tag k="name" v="Hestvika" />
		<tag k="natural" v="bay" />
		<tag k="ssr:stedsnr" v="219412" />
	</node>
	<node id="-445174" lat="59.9952346274" lon="5.4306694025">
		<tag k="name" v="Kinningevika" />
		<tag k="natural" v="bay" />
		<tag k="ssr:stedsnr" v="219408" />
	</node>
	<node id="-445173" lat="60.0641944461" lon="5.42380555252">
		<tag k="name" v="Toneset" />
		<tag k="natural" v="cape" />
		<tag k="ssr:stedsnr" v="219383" />
	</node>
	<node id="-445160" lat="59.9570805589" lon="5.45145000315">
		<tag k="name" v="Skarven" />
		<tag k="natural" v="cape" />
		<tag k="ssr:stedsnr" v="207763" />
	</node>
	<node id="-445159" lat="59.9620055561" lon="5.43970277601">
		<tag k="name" v="Hellesvikneset" />
		<tag k="natural" v="cape" />
		<tag k="ssr:stedsnr" v="207740" />
	</node>
	<node id="-445158" lat="59.9624161215" lon="5.50742312293">
		<tag k="alt_name" v="Russevika" />
		<tag k="name" v="Russevik" />
		<tag k="natural" v="bay" />
		<tag k="ssr:stedsnr" v="207726" />
	</node>
	<node id="-445157" lat="59.9477611089" lon="5.5069499997">
		<tag k="name" v="Gurihola" />
		<tag k="natural" v="bay" />
		<tag k="ssr:stedsnr" v="207722" />
	</node>
	<node id="-445155" lat="60.0031361145" lon="5.43376944734">
		<tag k="name" v="Frukla" />
		<tag k="place" v="islet" />
		<tag k="ssr:stedsnr" v="207256" />
	</node>
	<node id="-445154" lat="59.8780388868" lon="5.59841389422">
		<tag k="name" v="Skipavik" />
		<tag k="natural" v="bay" />
		<tag k="ssr:stedsnr" v="207131" />
	</node>
	<node id="-445153" lat="60.0419000037" lon="5.52684722027">
		<tag k="name" v="Svevågen" />
		<tag k="natural" v="bay" />
		<tag k="ssr:stedsnr" v="207073" />
	</node>
	<node id="-445152" lat="60.001622225" lon="5.47881666092">
		<tag k="name" v="Dunshilleren" />
		<tag k="natural" v="cape" />
		<tag k="ssr:stedsnr" v="207015" />
	</node>
	<node id="-445151" lat="60.055575002" lon="5.35494444185">
		<tag k="name" v="Klubben" />
		<tag k="natural" v="cape" />
		<tag k="ssr:stedsnr" v="206358" />
	</node>
	<node id="-445144" lat="60.0615555535" lon="5.63005278343">
		<tag k="name" v="Kråka" />
		<tag k="place" v="islet" />
		<tag k="ssr:stedsnr" v="187246" />
	</node>
	<node id="-445143" lat="60.0224138905" lon="5.34344165858">
		<tag k="alt_name" v="Rommelivika" />
		<tag k="name" v="Romelinvika" />
		<tag k="natural" v="bay" />
		<tag k="ssr:stedsnr" v="187222" />
	</node>
	<node id="-445141" lat="60.0102000001" lon="5.35484444124">
		<tag k="name" v="Stølsvika" />
		<tag k="natural" v="bay" />
		<tag k="ssr:stedsnr" v="187213" />
	</node>
	<node id="-445139" lat="59.9321527798" lon="5.72444722038">
		<tag k="name" v="Ånuglo" />
		<tag k="place" v="island" />
		<tag k="ssr:stedsnr" v="186764" />
	</node>
	<node id="-445137" lat="59.9342805591" lon="5.50131111355">
		<tag k="name" v="Storholmen" />
		<tag k="place" v="islet" />
		<tag k="ssr:stedsnr" v="186749" />
	</node>
	<node id="-445130" lat="59.9499906246" lon="5.49172714983">
		<tag k="alt_name" v="Klubben" />
		<tag k="name" v="Ytra Knappen" />
		<tag k="natural" v="cape" />
		<tag k="ssr:stedsnr" v="186679" />
	</node>
	<node id="-445129" lat="59.9630971481" lon="5.50253603346">
		<tag k="name" v="Søreidsvågen" />
		<tag k="natural" v="bay" />
		<tag k="ssr:stedsnr" v="186675" />
	</node>
	<node id="-445126" lat="60.0768687027" lon="5.59315713039">
		<tag k="alt_name" v="Skatatangen" />
		<tag k="name" v="Skatetangen" />
		<tag k="place" v="island" />
		<tag k="ssr:stedsnr" v="186287" />
	</node>
	<node id="-445122" lat="60.0739987393" lon="5.69732391475">
		<tag k="alt_name" v="Krossnes" />
		<tag k="name" v="Korsneset" />
		<tag k="natural" v="cape" />
		<tag k="ssr:stedsnr" v="186309" />
	</node>
	<node id="-445121" lat="59.9758638908" lon="5.44574165934">
		<tag k="name" v="Tysnesøya" />
		<tag k="place" v="island" />
		<tag k="ssr:stedsnr" v="186143" />
	</node>
	<node id="-445118" lat="59.9974555574" lon="5.43947778543">
		<tag k="name" v="Laukholmen" />
		<tag k="place" v="islet" />
		<tag k="ssr:stedsnr" v="186126" />
	</node>
	<node id="-445114" lat="59.9048555582" lon="5.667255549">
		<tag k="name" v="Frueøyvika" />
		<tag k="natural" v="bay" />
		<tag k="ssr:stedsnr" v="185686" />
	</node>
	<node id="-445113" lat="59.9088777814" lon="5.66037221588">
		<tag k="name" v="Flornes" />
		<tag k="natural" v="cape" />
		<tag k="ssr:stedsnr" v="185669" />
	</node>
	<node id="-445108" lat="59.911163887" lon="5.62097222552">
		<tag k="fixme" v="consider seamark:type=rock or natural=shoal" />
		<tag k="name" v="Småskjeret" />
		<tag k="place" v="islet" />
		<tag k="ssr:stedsnr" v="165476" />
	</node>
	<node id="-445104" lat="59.9876472252" lon="5.39433334043">
		<tag k="name" v="Geitholmen" />
		<tag k="place" v="islet" />
		<tag k="ssr:stedsnr" v="159892" />
	</node>
	<node id="-445103" lat="59.988533787" lon="5.44417759227">
		<tag k="name" v="Langaneset" />
		<tag k="natural" v="cape" />
		<tag k="ssr:stedsnr" v="159888" />
	</node>
	<node id="-445102" lat="60.0125138902" lon="5.38255555004">
		<tag k="name" v="Staurvikholmen" />
		<tag k="place" v="islet" />
		<tag k="ssr:stedsnr" v="159881" />
	</node>
	<node id="-445101" lat="60.0147666706" lon="5.37318055336">
		<tag k="name" v="Årvika" />
		<tag k="natural" v="bay" />
		<tag k="ssr:stedsnr" v="159878" />
	</node>
	<node id="-445100" lat="60.0565999966" lon="5.61716110608">
		<tag k="name" v="Nesjaholmen" />
		<tag k="place" v="islet" />
		<tag k="ssr:stedsnr" v="159788" />
	</node>
	<node id="-445099" lat="59.9887055538" lon="5.69127221412">
		<tag k="name" v="Vardavika" />
		<tag k="natural" v="bay" />
		<tag k="ssr:stedsnr" v="159780" />
	</node>
	<node id="-445098" lat="60.060227777" lon="5.63006110543">
		<tag k="name" v="Gitlevika" />
		<tag k="natural" v="bay" />
		<tag k="ssr:stedsnr" v="159774" />
	</node>
	<node id="-445097" lat="60.0486722241" lon="5.47840833588">
		<tag k="name" v="Ytre Andlavågen" />
		<tag k="natural" v="bay" />
		<tag k="ssr:stedsnr" v="159731" />
	</node>
	<node id="-445096" lat="60.0795638923" lon="5.58691943703">
		<tag k="name" v="Rumpetangen" />
		<tag k="natural" v="cape" />
		<tag k="ssr:stedsnr" v="159722" />
	</node>
	<node id="-445074" lat="59.9918618469" lon="5.43735919206">
		<tag k="name" v="Nordvågsneset" />
		<tag k="natural" v="cape" />
		<tag k="ssr:stedsnr" v="159232" />
	</node>
	<node id="-445070" lat="59.9398361097" lon="5.51196388406">
		<tag k="name" v="Ølversneset" />
		<tag k="natural" v="cape" />
		<tag k="ssr:stedsnr" v="159194" />
	</node>
	<node id="-445068" lat="60.0511249957" lon="5.55840277606">
		<tag k="name" v="Midtvika" />
		<tag k="natural" v="bay" />
		<tag k="ssr:stedsnr" v="159192" />
	</node>
	<node id="-445066" lat="60.0797031705" lon="5.42672703805">
		<tag k="name" v="Sandvika" />
		<tag k="natural" v="bay" />
		<tag k="ssr:stedsnr" v="159697" />
	</node>
	<node id="-445056" lat="60.0696111103" lon="5.66610833827">
		<tag k="name" v="Dalavika" />
		<tag k="natural" v="bay" />
		<tag k="ssr:stedsnr" v="159153" />
	</node>
	<node id="-445055" lat="60.0562277799" lon="5.62510278258">
		<tag k="fixme" v="consider seamark:type=rock or natural=shoal" />
		<tag k="name" v="Grimslandsskjeret" />
		<tag k="place" v="islet" />
		<tag k="ssr:stedsnr" v="159148" />
	</node>
	<node id="-445049" lat="59.8972749969" lon="5.5356083344">
		<tag k="name" v="Tømmervikneset" />
		<tag k="natural" v="cape" />
		<tag k="ssr:stedsnr" v="158794" />
	</node>
	<node id="-445048" lat="59.9140361105" lon="5.59270277751">
		<tag k="alt_name" v="Skiftesvik" />
		<tag k="name" v="Skiftesvika" />
		<tag k="natural" v="bay" />
		<tag k="ssr:stedsnr" v="158791" />
	</node>
	<node id="-445046" lat="59.9291000043" lon="5.63288054958">
		<tag k="name" v="Storevågen" />
		<tag k="natural" v="bay" />
		<tag k="ssr:stedsnr" v="158713" />
	</node>
	<node id="-445045" lat="59.9046333367" lon="5.66653611053">
		<tag k="alt_name" v="Skollbuvik" />
		<tag k="name" v="Skollebuvika" />
		<tag k="natural" v="bay" />
		<tag k="ssr:stedsnr" v="158697" />
	</node>
	<node id="-445044" lat="60.0513000029" lon="5.53550832499">
		<tag k="name" v="Likvika" />
		<tag k="natural" v="bay" />
		<tag k="ssr:stedsnr" v="158679" />
	</node>
	<node id="-445043" lat="59.9003111106" lon="5.53401945185">
		<tag k="name" v="Slettasandvika" />
		<tag k="natural" v="bay" />
		<tag k="ssr:stedsnr" v="158664" />
	</node>
	<node id="-445039" lat="60.017980558" lon="5.46576944589">
		<tag k="name" v="Vardaneset" />
		<tag k="natural" v="cape" />
		<tag k="ssr:stedsnr" v="158453" />
	</node>
	<node id="-445038" lat="60.009919447" lon="5.4212972152">
		<tag k="name" v="Kjøkkelneset" />
		<tag k="natural" v="cape" />
		<tag k="ssr:stedsnr" v="158449" />
	</node>
	<node id="-445037" lat="60.0069111139" lon="5.41554167155">
		<tag k="name" v="Kostavikneset" />
		<tag k="natural" v="cape" />
		<tag k="ssr:stedsnr" v="158446" />
	</node>
	<node id="-445036" lat="60.0043777774" lon="5.41707778289">
		<tag k="name" v="Kommandøren" />
		<tag k="place" v="islet" />
		<tag k="ssr:stedsnr" v="158445" />
	</node>
	<node id="-445035" lat="60.0001166693" lon="5.39859444233">
		<tag k="name" v="Bjørnavika" />
		<tag k="natural" v="bay" />
		<tag k="ssr:stedsnr" v="158433" />
	</node>
	<node id="-445034" lat="59.9957444448" lon="5.45163611333">
		<tag k="name" v="Ospevika" />
		<tag k="natural" v="bay" />
		<tag k="ssr:stedsnr" v="158421" />
	</node>
	<node id="-445033" lat="60.0612999974" lon="5.43549167354">
		<tag k="name" v="Kyrkjeholmsvika" />
		<tag k="natural" v="bay" />
		<tag k="ssr:stedsnr" v="158409" />
	</node>
	<node id="-445031" lat="59.9872416693" lon="5.37497221631">
		<tag k="name" v="Søboneset" />
		<tag k="natural" v="cape" />
		<tag k="ssr:stedsnr" v="147593" />
	</node>
	<node id="-445030" lat="60.0248666636" lon="5.70804999155">
		<tag k="name" v="Vikaneset" />
		<tag k="natural" v="cape" />
		<tag k="ssr:stedsnr" v="146323" />
	</node>
	<node id="-445029" lat="60.0715666625" lon="5.45141111575">
		<tag k="name" v="Midtflua" />
		<tag k="natural" v="shoal" />
		<tag k="place" v="locality" />
		<tag k="ssr:stedsnr" v="146303" />
	</node>
	<node id="-445028" lat="59.9234972266" lon="5.67583888922">
		<tag k="name" v="Seløyskjeret" />
		<tag k="natural" v="shoal" />
		<tag k="place" v="locality" />
		<tag k="ssr:stedsnr" v="146143" />
	</node>
	<node id="-445027" lat="59.9250000024" lon="5.64937221353">
		<tag k="name" v="Knappen" />
		<tag k="natural" v="cape" />
		<tag k="ssr:stedsnr" v="146112" />
	</node>
	<node id="-445025" lat="60.0158972262" lon="5.38188610178">
		<tag k="name" v="Pollen" />
		<tag k="natural" v="bay" />
		<tag k="ssr:stedsnr" v="144489" />
	</node>
	<node id="-445024" lat="60.0011249985" lon="5.70066388736">
		<tag k="name" v="Oterneset" />
		<tag k="natural" v="cape" />
		<tag k="ssr:stedsnr" v="126685" />
	</node>
	<node id="-445023" lat="60.0055250035" lon="5.70419166581">
		<tag k="fixme" v="multiple name tags, choose one and add the other to alt_name" />
		<tag k="name" v="Petersholmen;Sommarøya" />
		<tag k="place" v="islet" />
		<tag k="ssr:stedsnr" v="126683" />
	</node>
	<node id="-445013" lat="60.0138694443" lon="5.37557222413">
		<tag k="name" v="Flygansværvågen" />
		<tag k="natural" v="bay" />
		<tag k="ssr:stedsnr" v="126206" />
	</node>
	<node id="-445012" lat="60.0732457755" lon="5.66054495838">
		<tag k="name" v="Synninga" />
		<tag k="natural" v="strait" />
		<tag k="ssr:stedsnr" v="126285" />
	</node>
	<node id="-445011" lat="60.0689332519" lon="5.6255092656">
		<tag k="name" v="Teistøya" />
		<tag k="place" v="islet" />
		<tag k="ssr:stedsnr" v="126279" />
	</node>
	<node id="-445010" lat="60.0728027761" lon="5.58890833012">
		<tag k="name" v="Solstråleøya" />
		<tag k="place" v="islet" />
		<tag k="ssr:stedsnr" v="126276" />
	</node>
	<node id="-445008" lat="60.0810472204" lon="5.44848055607">
		<tag k="alt_name" v="Vernøya, litla" />
		<tag k="name" v="Litla Vernøya" />
		<tag k="place" v="island" />
		<tag k="ssr:stedsnr" v="126172" />
	</node>
	<node id="-445003" lat="59.9437472226" lon="5.48655555515">
		<tag k="name" v="Neset" />
		<tag k="natural" v="cape" />
		<tag k="ssr:stedsnr" v="125664" />
	</node>
	<node id="-445002" lat="59.9704027766" lon="5.65758055761">
		<tag k="name" v="Bålholmen" />
		<tag k="place" v="islet" />
		<tag k="ssr:stedsnr" v="125658" />
	</node>
	<node id="-445001" lat="59.9278000016" lon="5.67368889103">
		<tag k="alt_name" v="Svidholmen" />
		<tag k="name" v="Sveholmen" />
		<tag k="place" v="islet" />
		<tag k="ssr:stedsnr" v="125755" />
	</node>
	<node id="-444999" lat="60.0789777781" lon="5.55907778276">
		<tag k="name" v="Godøyskautet" />
		<tag k="natural" v="cape" />
		<tag k="ssr:stedsnr" v="125485" />
	</node>
	<node id="-444998" lat="60.0467500012" lon="5.54538055935">
		<tag k="name" v="Gjersvikvågen" />
		<tag k="natural" v="bay" />
		<tag k="ssr:stedsnr" v="125389" />
	</node>
	<node id="-444996" lat="59.8817972202" lon="5.59368333648">
		<tag k="alt_name" v="Løypet" />
		<tag k="name" v="Løype" />
		<tag k="natural" v="bay" />
		<tag k="ssr:stedsnr" v="125287" />
	</node>
	<node id="-444994" lat="60.0329388853" lon="5.46755833352">
		<tag k="alt_name" v="Siglevik" />
		<tag k="name" v="Siglevika" />
		<tag k="natural" v="bay" />
		<tag k="ssr:stedsnr" v="125268" />
	</node>
	<node id="-444993" lat="60.0501194403" lon="5.43667500271">
		<tag k="alt_name" v="Skåraholmen" />
		<tag k="name" v="Skoraholmen" />
		<tag k="place" v="islet" />
		<tag k="ssr:stedsnr" v="125149" />
	</node>
	<node id="-444992" lat="60.0488500015" lon="5.44133889441">
		<tag k="alt_name" v="Verahornet" />
		<tag k="name" v="Raftodden" />
		<tag k="natural" v="cape" />
		<tag k="ssr:stedsnr" v="125147" />
	</node>
	<node id="-444991" lat="59.9050388907" lon="5.66997222547">
		<tag k="name" v="Frueøyneset" />
		<tag k="natural" v="cape" />
		<tag k="ssr:stedsnr" v="124666" />
	</node>
	<node id="-444985" lat="59.8701388924" lon="5.62844443973">
		<tag k="name" v="Flatøya" />
		<tag k="place" v="islet" />
		<tag k="ssr:stedsnr" v="125325" />
	</node>
	<node id="-444982" lat="60.0718222215" lon="5.58421666576">
		<tag k="name" v="Erleholmen" />
		<tag k="place" v="islet" />
		<tag k="ssr:stedsnr" v="99745" />
	</node>
	<node id="-444981" lat="60.0775854873" lon="5.58323070008">
		<tag k="name" v="Geitanesholmen" />
		<tag k="place" v="islet" />
		<tag k="ssr:stedsnr" v="99699" />
	</node>
	<node id="-444980" lat="60.0736416649" lon="5.42373332854">
		<tag k="name" v="Slepet" />
		<tag k="natural" v="bay" />
		<tag k="ssr:stedsnr" v="99674" />
	</node>
	<node id="-444979" lat="59.9464083328" lon="5.48637500214">
		<tag k="name" v="Trædsneset" />
		<tag k="natural" v="cape" />
		<tag k="ssr:stedsnr" v="99662" />
	</node>
	<node id="-444963" lat="60.0241638925" lon="5.44233055379">
		<tag k="name" v="Sætresjøen" />
		<tag k="natural" v="bay" />
		<tag k="ssr:stedsnr" v="98863" />
	</node>
	<node id="-444959" lat="59.9221589951" lon="5.65769384144">
		<tag k="name" v="Storevågen" />
		<tag k="natural" v="bay" />
		<tag k="ssr:stedsnr" v="98800" />
	</node>
	<node id="-444958" lat="59.9323416653" lon="5.69701666542">
		<tag k="name" v="Gulholmen" />
		<tag k="place" v="islet" />
		<tag k="ssr:stedsnr" v="98798" />
	</node>
	<node id="-444957" lat="59.9129444431" lon="5.52559445222">
		<tag k="name" v="Skoldebua" />
		<tag k="natural" v="cape" />
		<tag k="ssr:stedsnr" v="98778" />
	</node>
	<node id="-444956" lat="59.9787055554" lon="5.6757277855">
		<tag k="name" v="Klubben" />
		<tag k="natural" v="cape" />
		<tag k="ssr:stedsnr" v="98742" />
	</node>
	<node id="-444955" lat="59.9843833358" lon="5.67901110301">
		<tag k="name" v="Korsasjøen" />
		<tag k="natural" v="bay" />
		<tag k="ssr:stedsnr" v="98735" />
	</node>
	<node id="-444954" lat="59.9563500024" lon="5.49595555264">
		<tag k="name" v="Grønevika" />
		<tag k="natural" v="bay" />
		<tag k="ssr:stedsnr" v="98635" />
	</node>
	<node id="-444945" lat="59.968588891" lon="5.42179445238">
		<tag k="name" v="Djupavika" />
		<tag k="natural" v="bay" />
		<tag k="ssr:stedsnr" v="98477" />
	</node>
	<node id="-444944" lat="60.0079472189" lon="5.41557500201">
		<tag k="name" v="Kostavika" />
		<tag k="natural" v="bay" />
		<tag k="ssr:stedsnr" v="98470" />
	</node>
	<node id="-444935" lat="60.0022972182" lon="5.4011944533">
		<tag k="name" v="Viereneset" />
		<tag k="natural" v="cape" />
		<tag k="ssr:stedsnr" v="98450" />
	</node>
	<node id="-444934" lat="59.9903000937" lon="5.44648707581">
		<tag k="name" v="Nesjatangen" />
		<tag k="natural" v="cape" />
		<tag k="ssr:stedsnr" v="98448" />
	</node>
	<node id="-444933" lat="59.9955542735" lon="5.46104500201">
		<tag k="name" v="Austre Knappsvågen" />
		<tag k="natural" v="bay" />
		<tag k="ssr:stedsnr" v="98438" />
	</node>
	<node id="-444932" lat="60.0337600766" lon="5.44202178544">
		<tag k="name" v="Hardingakrokvika" />
		<tag k="natural" v="bay" />
		<tag k="ssr:stedsnr" v="98420" />
	</node>
	<node id="-444931" lat="60.0473611137" lon="5.43892778477">
		<tag k="name" v="Snurpehola" />
		<tag k="natural" v="bay" />
		<tag k="ssr:stedsnr" v="98415" />
	</node>
	<node id="-444930" lat="60.0703111114" lon="5.42456944638">
		<tag k="name" v="Sundaneset" />
		<tag k="natural" v="cape" />
		<tag k="ssr:stedsnr" v="98392" />
	</node>
	<node id="-444922" lat="59.9934277793" lon="5.39305833754">
		<tag k="name" v="Trumbevågen" />
		<tag k="natural" v="bay" />
		<tag k="ssr:stedsnr" v="98454" />
	</node>
	<node id="-444909" lat="60.0621138846" lon="5.42354166382">
		<tag k="name" v="Sagvågen" />
		<tag k="natural" v="bay" />
		<tag k="ssr:stedsnr" v="98175" />
	</node>
	<node id="-444907" lat="60.0504444404" lon="5.56191389333">
		<tag k="name" v="Terneneset" />
		<tag k="natural" v="cape" />
		<tag k="ssr:stedsnr" v="98148" />
	</node>
	<node id="-444906" lat="60.0443166626" lon="5.54369445138">
		<tag k="name" v="Storeholmen" />
		<tag k="place" v="islet" />
		<tag k="ssr:stedsnr" v="98143" />
	</node>
	<node id="-444904" lat="60.0066666698" lon="5.70533889564">
		<tag k="name" v="Langholmen" />
		<tag k="place" v="islet" />
		<tag k="ssr:stedsnr" v="98138" />
	</node>
	<node id="-444903" lat="59.9979638921" lon="5.70241666964">
		<tag k="name" v="Klubbavika" />
		<tag k="natural" v="bay" />
		<tag k="ssr:stedsnr" v="98136" />
	</node>
	<node id="-444901" lat="59.9288666645" lon="5.61423888197">
		<tag k="name" v="Straumen" />
		<tag k="natural" v="bay" />
		<tag k="ssr:stedsnr" v="97727" />
	</node>
	<node id="-444893" lat="59.9114194486" lon="5.59496111177">
		<tag k="alt_name" v="Fløytet" />
		<tag k="name" v="Fløyter" />
		<tag k="natural" v="cape" />
		<tag k="ssr:stedsnr" v="86781" />
	</node>
	<node id="-444892" lat="59.92563056" lon="5.51769444786">
		<tag k="name" v="Ytra Sponhamar" />
		<tag k="natural" v="cape" />
		<tag k="ssr:stedsnr" v="86776" />
	</node>
	<node id="-444891" lat="60.0175222242" lon="5.4720972156">
		<tag k="name" v="Øklandsvika" />
		<tag k="natural" v="bay" />
		<tag k="ssr:stedsnr" v="86459" />
	</node>
	<node id="-444890" lat="60.0492583335" lon="5.70243888835">
		<tag k="name" v="Veslehaugneset" />
		<tag k="natural" v="cape" />
		<tag k="ssr:stedsnr" v="86361" />
	</node>
	<node id="-444889" lat="60.0684055547" lon="5.53883889301">
		<tag k="name" v="Storeflu" />
		<tag k="natural" v="shoal" />
		<tag k="place" v="locality" />
		<tag k="ssr:stedsnr" v="86352" />
	</node>
	<node id="-444886" lat="60.0756999966" lon="5.4342749993">
		<tag k="name" v="Kuvågen" />
		<tag k="natural" v="bay" />
		<tag k="ssr:stedsnr" v="86113" />
	</node>
	<node id="-444884" lat="59.9906416683" lon="5.48638889724">
		<tag k="name" v="Hamna" />
		<tag k="natural" v="bay" />
		<tag k="ssr:stedsnr" v="85298" />
	</node>
	<node id="-444880" lat="60.0798166693" lon="5.40382222453">
		<tag k="alt_name" v="Eldsholmsholmen" />
		<tag k="name" v="Storholmen" />
		<tag k="place" v="islet" />
		<tag k="ssr:stedsnr" v="65933" />
	</node>
	<node id="-444879" lat="59.927911109" lon="5.63521944742">
		<tag k="name" v="Dragvika" />
		<tag k="natural" v="bay" />
		<tag k="ssr:stedsnr" v="65744" />
	</node>
	<node id="-444859" lat="60.061478044" lon="5.59832241176">
		<tag k="loc_name" v="Skipavika" />
		<tag k="name" v="Skiparvika" />
		<tag k="natural" v="bay" />
		<tag k="ssr:stedsnr" v="65243" />
	</node>
	<node id="-444857" lat="60.0779583306" lon="5.41555555687">
		<tag k="alt_name" v="Hopneset" />
		<tag k="name" v="Hopsneset" />
		<tag k="natural" v="cape" />
		<tag k="ssr:stedsnr" v="65180" />
	</node>
	<node id="-444856" lat="59.9734777748" lon="5.39930276921">
		<tag k="name" v="Jarnetevika" />
		<tag k="natural" v="bay" />
		<tag k="ssr:stedsnr" v="65167" />
	</node>
	<node id="-444854" lat="60.0481055526" lon="5.35758055511">
		<tag k="name" v="Uførene" />
		<tag k="natural" v="cape" />
		<tag k="ssr:stedsnr" v="65139" />
	</node>
	<node id="-444322" lat="60.0748555586" lon="5.35599167194">
		<tag k="name" v="Kaldafossvika" />
		<tag k="natural" v="bay" />
		<tag k="ssr:stedsnr" v="280842" />
	</node>
	<node id="-444848" lat="59.9713861089" lon="5.65481110496">
		<tag k="alt_name" v="Ingjelsholmen" />
		<tag k="name" v="Ingelsholmen" />
		<tag k="place" v="islet" />
		<tag k="ssr:stedsnr" v="64632" />
	</node>
	<node id="-444846" lat="59.8928277798" lon="5.57817222729">
		<tag k="alt_name" v="Annarøya;Andarøya" />
		<tag k="name" v="Anderøy" />
		<tag k="place" v="islet" />
		<tag k="ssr:stedsnr" v="64285" />
	</node>
	<node id="-444845" lat="59.8941111149" lon="5.64236111633">
		<tag k="name" v="Gåsholmane" />
		<tag k="place" v="islet" />
		<tag k="ssr:stedsnr" v="64266" />
	</node>
	<node id="-444844" lat="59.8730821034" lon="5.61464298421">
		<tag k="name" v="Lyngneset" />
		<tag k="natural" v="cape" />
		<tag k="ssr:stedsnr" v="64246" />
	</node>
	<node id="-444843" lat="59.9654055589" lon="5.43467499443">
		<tag k="alt_name" v="Naustvik" />
		<tag k="name" v="Naustvika" />
		<tag k="natural" v="bay" />
		<tag k="ssr:stedsnr" v="64168" />
	</node>
	<node id="-444835" lat="60.073274998" lon="5.69192500486">
		<tag k="alt_name" v="Solsvik" />
		<tag k="name" v="Solsvika" />
		<tag k="natural" v="bay" />
		<tag k="ssr:stedsnr" v="65285" />
	</node>
	<node id="-444833" lat="60.0720611117" lon="5.52352500522">
		<tag k="name" v="Vesøyane" />
		<tag k="place" v="island" />
		<tag k="ssr:stedsnr" v="65264" />
	</node>
	<node id="-444829" lat="60.0189499965" lon="5.43202221907">
		<tag k="name" v="Tjøreholmen" />
		<tag k="place" v="islet" />
		<tag k="ssr:stedsnr" v="38882" />
	</node>
	<node id="-444828" lat="59.9774527791" lon="5.39122499793">
		<tag k="name" v="Gangstøneset" />
		<tag k="natural" v="cape" />
		<tag k="ssr:stedsnr" v="38862" />
	</node>
	<node id="-444827" lat="59.9250111138" lon="5.6114111085">
		<tag k="name" v="Lykkeneset" />
		<tag k="natural" v="cape" />
		<tag k="ssr:stedsnr" v="38818" />
	</node>
	<node id="-444826" lat="59.8767972179" lon="5.62243888654">
		<tag k="name" v="Langøyhamnen" />
		<tag k="natural" v="strait" />
		<tag k="ssr:stedsnr" v="38737" />
	</node>
	<node id="-444825" lat="60.0517611111" lon="5.49227500794">
		<tag k="name" v="Steinaneset" />
		<tag k="natural" v="cape" />
		<tag k="ssr:stedsnr" v="38699" />
	</node>
	<node id="-444824" lat="60.0546194481" lon="5.50644721753">
		<tag k="name" v="Vesleholmen" />
		<tag k="place" v="islet" />
		<tag k="ssr:stedsnr" v="38695" />
	</node>
	<node id="-444823" lat="60.0436694456" lon="5.54613610853">
		<tag k="name" v="Lisbetneset" />
		<tag k="natural" v="cape" />
		<tag k="ssr:stedsnr" v="38674" />
	</node>
	<node id="-444803" lat="59.9915361081" lon="5.44356388988">
		<tag k="name" v="Fureholmssundet" />
		<tag k="natural" v="strait" />
		<tag k="ssr:stedsnr" v="37884" />
	</node>
	<node id="-444802" lat="59.9951750016" lon="5.4498249943">
		<tag k="fixme" v="consider seamark:type=rock or natural=shoal" />
		<tag k="name" v="Måsaskjeret" />
		<tag k="place" v="islet" />
		<tag k="ssr:stedsnr" v="37883" />
	</node>
	<node id="-444801" lat="60.0309138884" lon="5.71461666708">
		<tag k="name" v="Akslaneset" />
		<tag k="natural" v="cape" />
		<tag k="ssr:stedsnr" v="37858" />
	</node>
	<node id="-444795" lat="59.920063888" lon="5.69917221648">
		<tag k="name" v="Breidneset" />
		<tag k="natural" v="cape" />
		<tag k="ssr:stedsnr" v="37807" />
	</node>
	<node id="-444794" lat="59.8991166703" lon="5.53605834044">
		<tag k="name" v="Slåtteskorneset" />
		<tag k="natural" v="cape" />
		<tag k="ssr:stedsnr" v="37793" />
	</node>
	<node id="-444792" lat="59.9721805533" lon="5.65677500486">
		<tag k="fixme" v="consider seamark:type=rock or natural=shoal" />
		<tag k="name" v="Kvannrotskjera" />
		<tag k="place" v="islet" />
		<tag k="ssr:stedsnr" v="37762" />
	</node>
	<node id="-444791" lat="59.9522805573" lon="5.63543888048">
		<tag k="name" v="Nesjavika" />
		<tag k="natural" v="bay" />
		<tag k="ssr:stedsnr" v="37757" />
	</node>
	<node id="-444790" lat="60.0232638883" lon="5.70692777892">
		<tag k="name" v="Titlevika" />
		<tag k="natural" v="bay" />
		<tag k="ssr:stedsnr" v="37753" />
	</node>
	<node id="-444789" lat="60.0578361144" lon="5.63196111449">
		<tag k="name" v="Apalvika" />
		<tag k="natural" v="bay" />
		<tag k="ssr:stedsnr" v="37741" />
	</node>
	<node id="-444788" lat="60.0510527737" lon="5.70341389115">
		<tag k="name" v="Sundavika" />
		<tag k="natural" v="bay" />
		<tag k="ssr:stedsnr" v="37740" />
	</node>
	<node id="-444787" lat="60.0632861146" lon="5.54715277993">
		<tag k="name" v="Verdens Ende" />
		<tag k="natural" v="cape" />
		<tag k="ssr:stedsnr" v="37687" />
	</node>
	<node id="-444786" lat="59.9312111072" lon="5.51736944939">
		<tag k="alt_name" v="Årvikneset" />
		<tag k="name" v="Årvikeneset" />
		<tag k="natural" v="cape" />
		<tag k="ssr:stedsnr" v="37663" />
	</node>
	<node id="-444785" lat="60.0690944417" lon="5.43413056333">
		<tag k="name" v="Naustvika" />
		<tag k="natural" v="bay" />
		<tag k="ssr:stedsnr" v="37654" />
	</node>
	<node id="-444784" lat="59.952244448" lon="5.50396944455">
		<tag k="name" v="Gryta" />
		<tag k="place" v="locality" />
		<tag k="ssr:stedsnr" v="37648" />
	</node>
	<node id="-444777" lat="60.0794138886" lon="5.68103610857">
		<tag k="loc_name" v="Søra Rabbalsvika" />
		<tag k="name" v="Søra Rabbasvik" />
		<tag k="natural" v="bay" />
		<tag k="ssr:stedsnr" v="37559" />
	</node>
	<node id="-444776" lat="59.9039749983" lon="5.73117777484">
		<tag k="bay" v="fjord" />
		<tag k="name" v="Hardangerfjorden" />
		<tag k="natural" v="bay" />
		<tag k="ssr:stedsnr" v="37548" />
	</node>
	<node id="-444772" lat="60.0042833376" lon="5.37846666172">
		<tag k="name" v="Bjørnavika" />
		<tag k="natural" v="bay" />
		<tag k="ssr:stedsnr" v="37491" />
	</node>
	<node id="-444771" lat="60.0047166662" lon="5.4123861154">
		<tag k="name" v="Seiaholmane" />
		<tag k="place" v="islet" />
		<tag k="ssr:stedsnr" v="37475" />
	</node>
	<node id="-444770" lat="60.0133757948" lon="5.40156321405">
		<tag k="name" v="Mjåneset" />
		<tag k="natural" v="cape" />
		<tag k="ssr:stedsnr" v="37472" />
	</node>
	<node id="-444769" lat="59.9979194463" lon="5.38849444392">
		<tag k="name" v="Årabladsundet" />
		<tag k="natural" v="strait" />
		<tag k="ssr:stedsnr" v="37460" />
	</node>
	<node id="-444768" lat="60.0009055583" lon="5.41567222496">
		<tag k="name" v="Kubbervik" />
		<tag k="natural" v="bay" />
		<tag k="ssr:stedsnr" v="37456" />
	</node>
	<node id="-444767" lat="59.9995749993" lon="5.37886388225">
		<tag k="name" v="Instebøvika" />
		<tag k="natural" v="bay" />
		<tag k="ssr:stedsnr" v="37448" />
	</node>
	<node id="-444766" lat="60.002158334" lon="5.42574722293">
		<tag k="name" v="Tjuvholmen" />
		<tag k="place" v="islet" />
		<tag k="ssr:stedsnr" v="37431" />
	</node>
	<node id="-444765" lat="60.0821944413" lon="5.4246416642">
		<tag k="name" v="Klungerholmen" />
		<tag k="place" v="islet" />
		<tag k="ssr:stedsnr" v="37395" />
	</node>
	<node id="-444754" lat="59.9878333939" lon="5.48256241112">
		<tag k="name" v="Svinaneset" />
		<tag k="natural" v="cape" />
		<tag k="ssr:stedsnr" v="37198" />
	</node>
	<node id="-444753" lat="59.9721083301" lon="5.50144721798">
		<tag k="name" v="Holmen" />
		<tag k="place" v="islet" />
		<tag k="ssr:stedsnr" v="37189" />
	</node>
	<node id="-444752" lat="60.0448166681" lon="5.54105278486">
		<tag k="name" v="Hønsaholmen" />
		<tag k="place" v="islet" />
		<tag k="ssr:stedsnr" v="37183" />
	</node>
	<node id="-444751" lat="60.0762361137" lon="5.51916388989">
		<tag k="fixme" v="consider seamark:type=rock or natural=shoal" />
		<tag k="name" v="Gullstoveskjeret" />
		<tag k="place" v="islet" />
		<tag k="ssr:stedsnr" v="37180" />
	</node>
	<node id="-444745" lat="59.9674888889" lon="5.71280000732">
		<tag k="name" v="Fjæreflua" />
		<tag k="natural" v="shoal" />
		<tag k="place" v="locality" />
		<tag k="ssr:stedsnr" v="25345" />
	</node>
	<node id="-444744" lat="59.9990333343" lon="5.70568610822">
		<tag k="name" v="Ølfersundet" />
		<tag k="natural" v="strait" />
		<tag k="ssr:stedsnr" v="25298" />
	</node>
	<node id="-444743" lat="59.9718611128" lon="5.40647500759">
		<tag k="name" v="Hålandsstøa" />
		<tag k="natural" v="bay" />
		<tag k="ssr:stedsnr" v="25164" />
	</node>
	<node id="-444742" lat="60.0485388912" lon="5.43763888607">
		<tag k="name" v="Holmasundet" />
		<tag k="natural" v="strait" />
		<tag k="ssr:stedsnr" v="25067" />
	</node>
	<node id="-444741" lat="60.0588555589" lon="5.35846388467">
		<tag k="name" v="Vågen" />
		<tag k="natural" v="bay" />
		<tag k="ssr:stedsnr" v="24358" />
	</node>
	<node id="-444739" lat="59.9230444476" lon="5.72957221759">
		<tag k="name" v="Nevraneset" />
		<tag k="natural" v="cape" />
		<tag k="ssr:stedsnr" v="24303" />
	</node>
	<node id="-444738" lat="60.0824166649" lon="5.43591944928">
		<tag k="alt_name" v="Russøy;Russøya" />
		<tag k="name" v="Rusøya" />
		<tag k="place" v="islet" />
		<tag k="ssr:stedsnr" v="5903" />
	</node>
	<node id="-444730" lat="60.0873666652" lon="5.50686944891">
		<tag k="name" v="Hjeltaflua" />
		<tag k="natural" v="shoal" />
		<tag k="place" v="locality" />
		<tag k="ssr:stedsnr" v="5419" />
	</node>
	<node id="-444728" lat="60.0658611095" lon="5.66593055023">
		<tag k="name" v="Gripnesvågen" />
		<tag k="natural" v="bay" />
		<tag k="old_name" v="Grippesvågen" />
		<tag k="ssr:stedsnr" v="5262" />
	</node>
	<node id="-444727" lat="60.0620916643" lon="5.63269444664">
		<tag k="alt_name" v="Lundavågen" />
		<tag k="name" v="Lundevågen" />
		<tag k="natural" v="bay" />
		<tag k="ssr:stedsnr" v="5260" />
	</node>
	<node id="-444723" lat="60.0687305547" lon="5.35647499132">
		<tag k="alt_name" v="Kvernavika" />
		<tag k="name" v="Rasmusvika" />
		<tag k="natural" v="bay" />
		<tag k="ssr:stedsnr" v="5179" />
	</node>
	<node id="-444720" lat="59.9214138886" lon="5.68240278045">
		<tag k="name" v="Seløya" />
		<tag k="place" v="island" />
		<tag k="ssr:stedsnr" v="4700" />
	</node>
	<node id="-444709" lat="60.0705555598" lon="5.57394444027">
		<tag k="alt_name" v="Godøya, store;Store Godøya;Godøy, store" />
		<tag k="name" v="Stora Godøya" />
		<tag k="place" v="island" />
		<tag k="ssr:stedsnr" v="4284" />
	</node>
	<node id="-444708" lat="60.0668027819" lon="5.54891110916">
		<tag k="alt_name" v="Bleika" />
		<tag k="fixme" v="consider seamark:type=rock or natural=shoal" />
		<tag k="name" v="Bleikja" />
		<tag k="place" v="islet" />
		<tag k="ssr:stedsnr" v="4278" />
	</node>
	<node id="-444707" lat="60.0696777762" lon="5.55055277848">
		<tag k="name" v="Lindholmen" />
		<tag k="place" v="islet" />
		<tag k="ssr:stedsnr" v="4277" />
	</node>
	<node id="-444706" lat="60.0691805597" lon="5.53055278261">
		<tag k="fixme" v="consider seamark:type=rock or natural=shoal" />
		<tag k="name" v="Flataskjeret" />
		<tag k="place" v="islet" />
		<tag k="ssr:stedsnr" v="4276" />
	</node>
	<node id="-444702" lat="59.9927944469" lon="5.44446111791">
		<tag k="name" v="Fureholmen" />
		<tag k="place" v="islet" />
		<tag k="ssr:stedsnr" v="4121" />
	</node>
	<node id="-444701" lat="59.9875333358" lon="5.68935832996">
		<tag k="name" v="Årbakkaholmen" />
		<tag k="place" v="islet" />
		<tag k="ssr:stedsnr" v="3649" />
	</node>
	<node id="-444691" lat="60.0699318758" lon="5.56830562783">
		<tag k="name" v="Hamnavika" />
		<tag k="natural" v="bay" />
		<tag k="ssr:stedsnr" v="990973" />
	</node>
	<node id="-444690" lat="60.0741221481" lon="5.57730048121">
		<tag k="name" v="Selvågbukta" />
		<tag k="natural" v="bay" />
		<tag k="ssr:stedsnr" v="990972" />
	</node>
	<node id="-444688" lat="60.0684421938" lon="5.55771122806">
		<tag k="name" v="Tuftenesvika" />
		<tag k="natural" v="bay" />
		<tag k="ssr:stedsnr" v="990969" />
	</node>
	<node id="-444687" lat="60.0677889866" lon="5.55473841268">
		<tag k="name" v="Tufteneset" />
		<tag k="natural" v="cape" />
		<tag k="ssr:stedsnr" v="990968" />
	</node>
	<node id="-444686" lat="60.0184586528" lon="5.46495655452">
		<tag k="name" v="Fortøysundet" />
		<tag k="natural" v="strait" />
		<tag k="ssr:stedsnr" v="990966" />
	</node>
	<node id="-444685" lat="60.037383827" lon="5.43726597259">
		<tag k="name" v="Bruntveitbukta" />
		<tag k="natural" v="bay" />
		<tag k="ssr:stedsnr" v="990949" />
	</node>
	<node id="-444684" lat="59.8290138873" lon="5.54604167229">
		<tag k="bay" v="fjord" />
		<tag k="name" v="Langenuen" />
		<tag k="natural" v="bay" />
		<tag k="ssr:stedsnr" v="489190" />
	</node>
	<node id="-444670" lat="59.9111694466" lon="5.6773777865">
		<tag k="fixme" v="consider seamark:type=rock or natural=shoal" />
		<tag k="name" v="Skarvaskjeret" />
		<tag k="place" v="islet" />
		<tag k="ssr:stedsnr" v="894527" />
	</node>
	<node id="-444669" lat="59.8696416638" lon="5.62553610339">
		<tag k="fixme" v="consider seamark:type=rock or natural=shoal" />
		<tag k="name" v="Flataskjeret" />
		<tag k="place" v="islet" />
		<tag k="ssr:stedsnr" v="888756" />
	</node>
	<node id="-444668" lat="60.0763027751" lon="5.57468334016">
		<tag k="name" v="Austvågen" />
		<tag k="natural" v="bay" />
		<tag k="ssr:stedsnr" v="888684" />
	</node>
	<node id="-444662" lat="60.059691663" lon="5.35673334017">
		<tag k="name" v="Hundavika" />
		<tag k="natural" v="bay" />
		<tag k="ssr:stedsnr" v="887850" />
	</node>
	<node id="-444661" lat="59.9690138863" lon="5.4131472253">
		<tag k="name" v="Amlandsneset" />
		<tag k="natural" v="cape" />
		<tag k="ssr:stedsnr" v="887841" />
	</node>
	<node id="-444655" lat="59.8994277734" lon="5.63873333294">
		<tag k="fixme" v="consider seamark:type=rock or natural=shoal" />
		<tag k="name" v="Knappaskjera" />
		<tag k="place" v="islet" />
		<tag k="ssr:stedsnr" v="887788" />
	</node>
	<node id="-444654" lat="59.9285250022" lon="5.51829166651">
		<tag k="name" v="Apalvika" />
		<tag k="natural" v="bay" />
		<tag k="ssr:stedsnr" v="887776" />
	</node>
	<node id="-444651" lat="59.9650410218" lon="5.49929601919">
		<tag k="name" v="Håviskelandsvika" />
		<tag k="natural" v="bay" />
		<tag k="ssr:stedsnr" v="887642" />
	</node>
	<node id="-444648" lat="59.9665805595" lon="5.42840832789">
		<tag k="name" v="Breidavika" />
		<tag k="natural" v="bay" />
		<tag k="ssr:stedsnr" v="887481" />
	</node>
	<node id="-444647" lat="60.017680552" lon="5.43519444282">
		<tag k="name" v="Litleklubben" />
		<tag k="natural" v="cape" />
		<tag k="ssr:stedsnr" v="887474" />
	</node>
	<node id="-444646" lat="60.0048083353" lon="5.43900555413">
		<tag k="name" v="Kyrkjeholmen" />
		<tag k="place" v="islet" />
		<tag k="ssr:stedsnr" v="887473" />
	</node>
	<node id="-444645" lat="59.9943638884" lon="5.38209444731">
		<tag k="name" v="Hamnavika" />
		<tag k="natural" v="bay" />
		<tag k="ssr:stedsnr" v="887451" />
	</node>
	<node id="-444644" lat="59.9903277745" lon="5.38803056126">
		<tag k="name" v="Skipavika" />
		<tag k="natural" v="bay" />
		<tag k="ssr:stedsnr" v="887446" />
	</node>
	<node id="-444643" lat="60.0013444475" lon="5.36486388168">
		<tag k="name" v="Grasvikane" />
		<tag k="natural" v="bay" />
		<tag k="ssr:stedsnr" v="887439" />
	</node>
	<node id="-444642" lat="59.9978000017" lon="5.37536111166">
		<tag k="name" v="Sundavågen" />
		<tag k="natural" v="bay" />
		<tag k="ssr:stedsnr" v="887434" />
	</node>
	<node id="-444641" lat="60.0825055577" lon="5.411694453">
		<tag k="fixme" v="consider seamark:type=rock or natural=shoal" />
		<tag k="name" v="Svartaskjeret" />
		<tag k="place" v="islet" />
		<tag k="ssr:stedsnr" v="887388" />
	</node>
	<node id="-444640" lat="60.0383750034" lon="5.43596110747">
		<tag k="name" v="Sørvågen" />
		<tag k="natural" v="bay" />
		<tag k="ssr:stedsnr" v="887382" />
	</node>
	<node id="-444620" lat="60.0166749991" lon="5.70408055425">
		<tag k="name" v="Glasvikeneset" />
		<tag k="natural" v="cape" />
		<tag k="ssr:stedsnr" v="887172" />
	</node>
	<node id="-444619" lat="59.9563611136" lon="5.6384805613">
		<tag k="name" v="Sandvika" />
		<tag k="natural" v="bay" />
		<tag k="ssr:stedsnr" v="887170" />
	</node>
	<node id="-444617" lat="60.0453305572" lon="5.55702776987">
		<tag k="name" v="Jektavika" />
		<tag k="natural" v="bay" />
		<tag k="ssr:stedsnr" v="887162" />
	</node>
	<node id="-444610" lat="59.9013111099" lon="5.66205277384">
		<tag k="name" v="Mattisholmen" />
		<tag k="place" v="islet" />
		<tag k="ssr:stedsnr" v="886760" />
	</node>
	<node id="-444609" lat="59.8992999964" lon="5.65211111756">
		<tag k="name" v="Fureholmen" />
		<tag k="place" v="islet" />
		<tag k="ssr:stedsnr" v="886761" />
	</node>
	<node id="-444608" lat="59.9389888934" lon="5.62501944564">
		<tag k="name" v="Tømmervika" />
		<tag k="natural" v="bay" />
		<tag k="ssr:stedsnr" v="886725" />
	</node>
	<node id="-444607" lat="59.9226250035" lon="5.65205277278">
		<tag k="name" v="Klenevågsvågen" />
		<tag k="natural" v="bay" />
		<tag k="ssr:stedsnr" v="886701" />
	</node>
	<node id="-444603" lat="59.915772226" lon="5.65159166904">
		<tag k="name" v="Djupevåg" />
		<tag k="natural" v="bay" />
		<tag k="ssr:stedsnr" v="408517" />
	</node>
	<node id="-444601" lat="60.0105805596" lon="5.38968610859">
		<tag k="name" v="Åsneset" />
		<tag k="natural" v="cape" />
		<tag k="ssr:stedsnr" v="402889" />
	</node>
	<node id="-444600" lat="60.007538887" lon="5.43173610376">
		<tag k="alt_name" v="Litla Brunøya" />
		<tag k="name" v="Litla Brunøy" />
		<tag k="place" v="island" />
		<tag k="ssr:stedsnr" v="402880" />
	</node>
	<node id="-444599" lat="60.0751777775" lon="5.54272777907">
		<tag k="fixme" v="consider seamark:type=rock or natural=shoal" />
		<tag k="name" v="Fjeraskjera" />
		<tag k="place" v="islet" />
		<tag k="ssr:stedsnr" v="402712" />
	</node>
	<node id="-444598" lat="60.0711277736" lon="5.5275361127">
		<tag k="name" v="Litla Vesøya" />
		<tag k="place" v="island" />
		<tag k="ssr:stedsnr" v="402709" />
	</node>
	<node id="-444597" lat="60.0449055554" lon="5.52413611402">
		<tag k="name" v="Vågsvika" />
		<tag k="natural" v="bay" />
		<tag k="ssr:stedsnr" v="402702" />
	</node>
	<node id="-444596" lat="59.8947749969" lon="5.56943888597">
		<tag k="name" v="Litla Kalvavika" />
		<tag k="natural" v="bay" />
		<tag k="ssr:stedsnr" v="402688" />
	</node>
	<node id="-444595" lat="59.9408055534" lon="5.47986666695">
		<tag k="name" v="Neshamnen" />
		<tag k="natural" v="strait" />
		<tag k="ssr:stedsnr" v="402677" />
	</node>
	<node id="-444589" lat="60.0766638904" lon="5.42454721602">
		<tag k="name" v="Fatavika" />
		<tag k="natural" v="bay" />
		<tag k="ssr:stedsnr" v="402178" />
	</node>
	<node id="-444573" lat="60.0028194473" lon="5.47466944254">
		<tag k="name" v="Skotvika" />
		<tag k="natural" v="bay" />
		<tag k="ssr:stedsnr" v="401838" />
	</node>
	<node id="-444570" lat="59.9212055598" lon="5.70864722571">
		<tag k="name" v="Ånuglevika" />
		<tag k="natural" v="bay" />
		<tag k="ssr:stedsnr" v="401762" />
	</node>
	<node id="-444569" lat="59.9238611073" lon="5.61171944183">
		<tag k="name" v="Håkonneset" />
		<tag k="natural" v="cape" />
		<tag k="ssr:stedsnr" v="401755" />
	</node>
	<node id="-444567" lat="60.0516333301" lon="5.53543333297">
		<tag k="name" v="Hardingevika" />
		<tag k="natural" v="bay" />
		<tag k="ssr:stedsnr" v="401652" />
	</node>
	<node id="-444566" lat="59.9264472191" lon="5.51485000611">
		<tag k="name" v="Sponhammarvika" />
		<tag k="natural" v="bay" />
		<tag k="ssr:stedsnr" v="401645" />
	</node>
	<node id="-444565" lat="60.0711527739" lon="5.4279750094">
		<tag k="name" v="Nordvågen" />
		<tag k="natural" v="bay" />
		<tag k="ssr:stedsnr" v="401632" />
	</node>
	<node id="-444564" lat="59.9576027765" lon="5.50318888765">
		<tag k="name" v="Tveitevika" />
		<tag k="natural" v="bay" />
		<tag k="ssr:stedsnr" v="401628" />
	</node>
	<node id="-444553" lat="60.0092583369" lon="5.37709999641">
		<tag k="name" v="Tøavika" />
		<tag k="natural" v="bay" />
		<tag k="ssr:stedsnr" v="401482" />
	</node>
	<node id="-444552" lat="60.0112861099" lon="5.37751110942">
		<tag k="name" v="Bleika" />
		<tag k="place" v="islet" />
		<tag k="ssr:stedsnr" v="401477" />
	</node>
	<node id="-444551" lat="59.949838885" lon="5.46146945305">
		<tag k="alt_name" v="Veatåni" />
		<tag k="name" v="Vedatåa" />
		<tag k="natural" v="cape" />
		<tag k="ssr:stedsnr" v="401466" />
	</node>
	<node id="-444550" lat="60.0067083291" lon="5.3956888969">
		<tag k="name" v="Litlamarøya" />
		<tag k="place" v="island" />
		<tag k="ssr:stedsnr" v="401457" />
	</node>
	<node id="-444549" lat="60.0053194409" lon="5.40147222655">
		<tag k="name" v="Storamarøya" />
		<tag k="place" v="island" />
		<tag k="ssr:stedsnr" v="401453" />
	</node>
	<node id="-444548" lat="59.9913555559" lon="5.38533055559">
		<tag k="name" v="Skjervika" />
		<tag k="natural" v="bay" />
		<tag k="ssr:stedsnr" v="401443" />
	</node>
	<node id="-444547" lat="59.9909083307" lon="5.37038332527">
		<tag k="fixme" v="consider seamark:type=rock or natural=shoal" />
		<tag k="name" v="Nordskjeret" />
		<tag k="place" v="islet" />
		<tag k="ssr:stedsnr" v="401444" />
	</node>
	<node id="-444546" lat="59.9894362011" lon="5.44778270421">
		<tag k="name" v="Trondaneset" />
		<tag k="natural" v="cape" />
		<tag k="ssr:stedsnr" v="401434" />
	</node>
	<node id="-444545" lat="59.9866277747" lon="5.47286388671">
		<tag k="name" v="Mjelke-" />
		<tag k="natural" v="bay" />
		<tag k="ssr:stedsnr" v="401430" />
	</node>
	<node id="-444544" lat="59.9936481627" lon="5.43963528207">
		<tag k="name" v="Småholmane" />
		<tag k="place" v="islet" />
		<tag k="ssr:stedsnr" v="401423" />
	</node>
	<node id="-444543" lat="59.9969694461" lon="5.45216665924">
		<tag k="name" v="Juladagen" />
		<tag k="natural" v="cape" />
		<tag k="ssr:stedsnr" v="401416" />
	</node>
	<node id="-444542" lat="60.0842777778" lon="5.38101665874">
		<tag k="name" v="Tømmervika" />
		<tag k="natural" v="bay" />
		<tag k="ssr:stedsnr" v="401380" />
	</node>
	<node id="-444541" lat="60.0785250029" lon="5.41097777057">
		<tag k="fixme" v="consider seamark:type=rock or natural=shoal" />
		<tag k="name" v="Tretteskjeret" />
		<tag k="place" v="islet" />
		<tag k="ssr:stedsnr" v="401377" />
	</node>
	<node id="-444540" lat="60.0784083354" lon="5.40355556137">
		<tag k="fixme" v="consider seamark:type=rock or natural=shoal" />
		<tag k="name" v="Notaskjeret" />
		<tag k="place" v="islet" />
		<tag k="ssr:stedsnr" v="401372" />
	</node>
	<node id="-444367" lat="59.8989361078" lon="5.62546943784">
		<tag k="name" v="Skorpevågen" />
		<tag k="natural" v="bay" />
		<tag k="ssr:stedsnr" v="307720" />
	</node>
	<node id="-444523" lat="60.0617388891" lon="5.55425277314">
		<tag k="fixme" v="consider seamark:type=rock or natural=shoal" />
		<tag k="name" v="Leirvikeskjeret" />
		<tag k="place" v="islet" />
		<tag k="ssr:stedsnr" v="401185" />
	</node>
	<node id="-444521" lat="60.008611107" lon="5.3547444468">
		<tag k="name" v="Stølsvikneset" />
		<tag k="natural" v="cape" />
		<tag k="ssr:stedsnr" v="401161" />
	</node>
	<node id="-444513" lat="59.9041027786" lon="5.5858861134">
		<tag k="loc_name" v="Tolløya" />
		<tag k="name" v="Tolløy" />
		<tag k="place" v="island" />
		<tag k="ssr:stedsnr" v="389776" />
	</node>
	<node id="-444512" lat="59.9103194418" lon="5.59281667441">
		<tag k="name" v="Hetleliholmen" />
		<tag k="place" v="islet" />
		<tag k="ssr:stedsnr" v="389774" />
	</node>
	<node id="-444511" lat="59.9404611081" lon="5.733211109">
		<tag k="name" v="Tangeflua" />
		<tag k="natural" v="shoal" />
		<tag k="place" v="locality" />
		<tag k="ssr:stedsnr" v="389361" />
	</node>
	<node id="-444366" lat="59.9088083344" lon="5.63545278356">
		<tag k="name" v="Sydnes" />
		<tag k="natural" v="cape" />
		<tag k="ssr:stedsnr" v="307715" />
	</node>
	<node id="-444507" lat="60.0500871916" lon="5.43251135017">
		<tag k="alt_name" v="Skåravågen" />
		<tag k="name" v="Skoravågen" />
		<tag k="natural" v="bay" />
		<tag k="ssr:stedsnr" v="388154" />
	</node>
	<node id="-444506" lat="60.0578305562" lon="5.6190194483">
		<tag k="name" v="Ospholmen" />
		<tag k="place" v="islet" />
		<tag k="ssr:stedsnr" v="369320" />
	</node>
	<node id="-444503" lat="60.0531249971" lon="5.50243889407">
		<tag k="alt_name" v="Gangstødneset" />
		<tag k="name" v="Gangstøneset" />
		<tag k="natural" v="cape" />
		<tag k="ssr:stedsnr" v="369260" />
	</node>
	<node id="-444502" lat="60.0512666627" lon="5.48658610929">
		<tag k="name" v="Vedaneset" />
		<tag k="natural" v="cape" />
		<tag k="ssr:stedsnr" v="369258" />
	</node>
	<node id="-444501" lat="60.059736107" lon="5.54085833517">
		<tag k="name" v="Ratholmen" />
		<tag k="place" v="islet" />
		<tag k="ssr:stedsnr" v="369237" />
	</node>
	<node id="-444498" lat="59.9315166697" lon="5.70536667526">
		<tag k="name" v="Kjeholmen" />
		<tag k="place" v="islet" />
		<tag k="ssr:stedsnr" v="368777" />
	</node>
	<node id="-444497" lat="59.9287305574" lon="5.70967222261">
		<tag k="alt_name" v="Hardingvika" />
		<tag k="name" v="Hardingavågen" />
		<tag k="natural" v="bay" />
		<tag k="ssr:stedsnr" v="368775" />
	</node>
	<node id="-444492" lat="59.919891668" lon="5.70700555587">
		<tag k="alt_name" v="Ånuglosundet" />
		<tag k="name" v="Ånuglesundet" />
		<tag k="natural" v="strait" />
		<tag k="ssr:stedsnr" v="368731" />
	</node>
	<node id="-444485" lat="60.0772611098" lon="5.65997777522">
		<tag k="alt_name" v="Malkenestangen" />
		<tag k="name" v="Tangen" />
		<tag k="natural" v="cape" />
		<tag k="ssr:stedsnr" v="368500" />
	</node>
	<node id="-444484" lat="60.0765166657" lon="5.63521667006">
		<tag k="name" v="Lindarholmen" />
		<tag k="place" v="islet" />
		<tag k="ssr:stedsnr" v="368499" />
	</node>
	<node id="-444483" lat="60.0758583375" lon="5.51447499982">
		<tag k="name" v="Lyngøya" />
		<tag k="place" v="islet" />
		<tag k="ssr:stedsnr" v="368495" />
	</node>
	<node id="-444477" lat="60.0418666672" lon="5.35462221399">
		<tag k="name" v="Skotet" />
		<tag k="natural" v="bay" />
		<tag k="ssr:stedsnr" v="368157" />
	</node>
	<node id="-444476" lat="59.9008000009" lon="5.58794167416">
		<tag k="name" v="Båtaholneset" />
		<tag k="natural" v="cape" />
		<tag k="ssr:stedsnr" v="367701" />
	</node>
	<node id="-444473" lat="59.9530756026" lon="5.63788497155">
		<tag k="alt_name" v="Kvitavollneset" />
		<tag k="name" v="Kvitevollsnes" />
		<tag k="natural" v="cape" />
		<tag k="ssr:stedsnr" v="367628" />
	</node>
	<node id="-444469" lat="59.9091722183" lon="5.62398333952">
		<tag k="name" v="Tåneset" />
		<tag k="natural" v="cape" />
		<tag k="ssr:stedsnr" v="347475" />
	</node>
	<node id="-444468" lat="60.07981111" lon="5.4178694522">
		<tag k="name" v="Kjeholmen" />
		<tag k="place" v="islet" />
		<tag k="ssr:stedsnr" v="341890" />
	</node>
	<node id="-444467" lat="60.0370305579" lon="5.4661055622">
		<tag k="name" v="Vikane" />
		<tag k="natural" v="bay" />
		<tag k="ssr:stedsnr" v="341888" />
	</node>
	<node id="-444466" lat="60.0782083374" lon="5.40158056212">
		<tag k="name" v="Pollaneset" />
		<tag k="natural" v="cape" />
		<tag k="ssr:stedsnr" v="341885" />
	</node>
	<node id="-444465" lat="60.0127888865" lon="5.46792222193">
		<tag k="name" v="Heiavika" />
		<tag k="natural" v="bay" />
		<tag k="ssr:stedsnr" v="341880" />
	</node>
	<node id="-444464" lat="60.0115388878" lon="5.46816389251">
		<tag k="name" v="Raudesteinsvika" />
		<tag k="natural" v="bay" />
		<tag k="ssr:stedsnr" v="341878" />
	</node>
	<node id="-444463" lat="59.9050611132" lon="5.5806527861">
		<tag k="name" v="Skjelevikholmen" />
		<tag k="old_name" v="Skjeljavikholmen" />
		<tag k="place" v="islet" />
		<tag k="ssr:stedsnr" v="341824" />
	</node>
	<node id="-444462" lat="59.9858416668" lon="5.68282499481">
		<tag k="name" v="Årvika" />
		<tag k="natural" v="bay" />
		<tag k="ssr:stedsnr" v="341786" />
	</node>
	<node id="-444461" lat="60.0680527781" lon="5.56021110355">
		<tag k="name" v="Snikkarneset" />
		<tag k="natural" v="cape" />
		<tag k="ssr:stedsnr" v="341760" />
	</node>
	<node id="-444460" lat="60.0449694489" lon="5.54931111637">
		<tag k="name" v="Bøneset" />
		<tag k="natural" v="cape" />
		<tag k="ssr:stedsnr" v="341736" />
	</node>
	<node id="-444459" lat="59.999641671" lon="5.47910277907">
		<tag k="name" v="Kjevika" />
		<tag k="natural" v="bay" />
		<tag k="ssr:stedsnr" v="341709" />
	</node>
	<node id="-444450" lat="59.9349083334" lon="5.72926389274">
		<tag k="name" v="Søravika" />
		<tag k="natural" v="bay" />
		<tag k="ssr:stedsnr" v="341589" />
	</node>
	<node id="-444434" lat="60.0700361086" lon="5.43244445126">
		<tag k="name" v="Klubbastøa" />
		<tag k="natural" v="cape" />
		<tag k="ssr:stedsnr" v="341172" />
	</node>
	<node id="-444433" lat="59.9773055533" lon="5.50151111011">
		<tag k="name" v="Stigavika" />
		<tag k="natural" v="bay" />
		<tag k="ssr:stedsnr" v="341171" />
	</node>
	<node id="-444432" lat="60.0774722219" lon="5.58001111193">
		<tag k="name" v="Geitaneset" />
		<tag k="natural" v="cape" />
		<tag k="ssr:stedsnr" v="341168" />
	</node>
	<node id="-444428" lat="60.073133337" lon="5.61662500708">
		<tag k="name" v="Kyrholmen" />
		<tag k="place" v="islet" />
		<tag k="ssr:stedsnr" v="341139" />
	</node>
	<node id="-444363" lat="59.9401305595" lon="5.48538054738">
		<tag k="alt_name" v="Nesøy" />
		<tag k="name" v="Nesøya" />
		<tag k="place" v="island" />
		<tag k="ssr:stedsnr" v="307663" />
	</node>
</osm>
