<?xml version="1.0" encoding="UTF-8"?>
<osm generator="osmapis" version="0.6">
	<node id="-444406" lat="59.9695854768" lon="5.47329817597">
		<tag k="name" v="Drange" />
		<tag k="place" v="hamlet" />
		<tag k="ssr:stedsnr" v="145715" />
	</node>
	<node id="-444401" lat="60.0077442975" lon="5.51373575961">
		<tag k="fixme" v="consider place=hamlet" />
		<tag k="name" v="Rolse" />
		<tag k="place" v="farm" />
		<tag k="ssr:stedsnr" v="126652" />
	</node>
	<node id="-444394" lat="60.0168742003" lon="5.3795821694">
		<tag k="alt_name" v="Smidjevoll" />
		<tag k="fixme" v="consider place=hamlet" />
		<tag k="name" v="Smievoll" />
		<tag k="place" v="farm" />
		<tag k="ssr:stedsnr" v="126208" />
	</node>
	<node id="-444389" lat="60.0505916653" lon="5.54519443894">
		<tag k="name" v="Midtbø" />
		<tag k="place" v="farm" />
		<tag k="ssr:stedsnr" v="126258" />
	</node>
	<node id="-444387" lat="60.0662472206" lon="5.43142777556">
		<tag k="name" v="Liland" />
		<tag k="place" v="isolated_dwelling" />
		<tag k="ssr:stedsnr" v="126166" />
	</node>
	<node id="-444377" lat="59.8927226768" lon="5.54564743117">
		<tag k="fixme" v="consider place=hamlet" />
		<tag k="name" v="Hodnaneset" />
		<tag k="old_name" v="Hodnanes;Hornanes" />
		<tag k="place" v="farm" />
		<tag k="ssr:stedsnr" v="125300" />
	</node>
	<node id="-444370" lat="59.906490293" lon="5.60022354312">
		<tag k="fixme" v="consider place=hamlet" />
		<tag k="name" v="Hetleli" />
		<tag k="place" v="farm" />
		<tag k="ssr:stedsnr" v="124646" />
	</node>
	<node id="-444352" lat="59.9915333339" lon="5.59542499477">
		<tag k="name" v="Brekke" />
		<tag k="place" v="farm" />
		<tag k="ssr:stedsnr" v="98986" />
	</node>
	<node id="-444351" lat="59.989872222" lon="5.6732722186">
		<tag k="name" v="Øvrevåge" />
		<tag k="place" v="farm" />
		<tag k="ssr:stedsnr" v="98982" />
	</node>
	<node id="-444350" lat="59.9538916666" lon="5.63375832657">
		<tag k="name" v="Solhaug" />
		<tag k="place" v="farm" />
		<tag k="ssr:stedsnr" v="98973" />
	</node>
	<node id="-444349" lat="60.0222749964" lon="5.6421388834">
		<tag k="name" v="Ådnastigen" />
		<tag k="place" v="farm" />
		<tag k="ssr:stedsnr" v="98967" />
	</node>
	<node id="-444348" lat="60.0533138919" lon="5.50414721559">
		<tag k="name" v="Spannsstigen" />
		<tag k="place" v="farm" />
		<tag k="ssr:stedsnr" v="98931" />
	</node>
	<node id="-444347" lat="59.969313886" lon="5.49751666218">
		<tag k="name" v="Kyrhagen" />
		<tag k="place" v="farm" />
		<tag k="ssr:stedsnr" v="98904" />
	</node>
	<node id="-444346" lat="60.0218833332" lon="5.42390000539">
		<tag k="name" v="Stora Brottetveit" />
		<tag k="place" v="farm" />
		<tag k="ssr:stedsnr" v="98889" />
	</node>
	<node id="-445763" lat="60.0197050759" lon="5.39334368824">
		<tag k="name" v="Nedra Haukafær" />
		<tag k="place" v="farm" />
		<tag k="ssr:stedsnr" v="948250" />
	</node>
	<node id="-444290" lat="60.0709388881" lon="5.65732221571">
		<tag k="name" v="Hagen" />
		<tag k="place" v="farm" />
		<tag k="ssr:stedsnr" v="98188" />
	</node>
	<node id="-444277" lat="60.062738892" lon="5.64284166679">
		<tag k="name" v="Øvra Lunde" />
		<tag k="place" v="farm" />
		<tag k="ssr:stedsnr" v="91056" />
	</node>
	<node id="-444276" lat="59.9905972198" lon="5.45478333568">
		<tag k="name" v="Hovden" />
		<tag k="place" v="farm" />
		<tag k="ssr:stedsnr" v="87561" />
	</node>
	<node id="-444275" lat="59.9337750035" lon="5.52629722064">
		<tag k="name" v="Øyjord" />
		<tag k="place" v="isolated_dwelling" />
		<tag k="ssr:stedsnr" v="86799" />
	</node>
	<node id="-444274" lat="59.9332583302" lon="5.60503888323">
		<tag k="name" v="Hagane" />
		<tag k="place" v="farm" />
		<tag k="ssr:stedsnr" v="86785" />
	</node>
	<node id="-444268" lat="59.9280944413" lon="5.63502222622">
		<tag k="name" v="Dragvik" />
		<tag k="place" v="farm" />
		<tag k="ssr:stedsnr" v="86347" />
	</node>
	<node id="-444267" lat="59.9424999977" lon="5.62233055934">
		<tag k="name" v="Storhaugen" />
		<tag k="place" v="farm" />
		<tag k="ssr:stedsnr" v="86131" />
	</node>
	<node id="-444265" lat="60.0571805573" lon="5.36195834132">
		<tag k="name" v="Gjøvåg" />
		<tag k="place" v="hamlet" />
		<tag k="ssr:stedsnr" v="85303" />
	</node>
	<node id="-444263" lat="60.0517972187" lon="5.55603610461">
		<tag k="name" v="Setravik" />
		<tag k="place" v="farm" />
		<tag k="ssr:stedsnr" v="268108" />
	</node>
	<node id="-444261" lat="60.0513607193" lon="5.62229023156">
		<tag k="name" v="Humlevik" />
		<tag k="place" v="hamlet" />
		<tag k="ssr:stedsnr" v="66338" />
	</node>
	<node id="-444257" lat="59.9470222188" lon="5.62803054999">
		<tag k="fixme" v="consider place=hamlet" />
		<tag k="name" v="Onarheim" />
		<tag k="place" v="village" />
		<tag k="ssr:stedsnr" v="65721" />
	</node>
	<node id="-444255" lat="60.0116281559" lon="5.5051932647">
		<tag k="fixme" v="consider place=hamlet" />
		<tag k="name" v="Reisa" />
		<tag k="place" v="farm" />
		<tag k="ssr:stedsnr" v="65650" />
	</node>
	<node id="-444252" lat="59.9897512642" lon="5.59711755718">
		<tag k="fixme" v="consider place=hamlet" />
		<tag k="name" v="Kletta" />
		<tag k="place" v="farm" />
		<tag k="ssr:stedsnr" v="65643" />
	</node>
	<node id="-444250" lat="59.9947122203" lon="5.68577300928">
		<tag k="fixme" v="consider place=hamlet" />
		<tag k="name" v="Li" />
		<tag k="place" v="farm" />
		<tag k="ssr:stedsnr" v="65638" />
	</node>
	<node id="-444248" lat="60.0145833292" lon="5.69020277127">
		<tag k="name" v="Høgastøl" />
		<tag k="place" v="farm" />
		<tag k="ssr:stedsnr" v="65635" />
	</node>
	<node id="-444247" lat="60.0205627442" lon="5.47417960055">
		<tag k="fixme" v="consider place=hamlet" />
		<tag k="name" v="Økland" />
		<tag k="place" v="farm" />
		<tag k="ssr:stedsnr" v="65630" />
	</node>
	<node id="-444244" lat="60.0181232659" lon="5.48280701612">
		<tag k="name" v="Heie" />
		<tag k="place" v="hamlet" />
		<tag k="ssr:stedsnr" v="65613" />
	</node>
	<node id="-444240" lat="60.0418044597" lon="5.53365715294">
		<tag k="name" v="Gjerstad" />
		<tag k="place" v="hamlet" />
		<tag k="ssr:stedsnr" v="65359" />
	</node>
	<node id="-444231" lat="59.9552944086" lon="5.60677815483">
		<tag k="fixme" v="consider place=hamlet" />
		<tag k="name" v="Storsætre" />
		<tag k="place" v="farm" />
		<tag k="ssr:stedsnr" v="64657" />
	</node>
	<node id="-444230" lat="59.9456750036" lon="5.47388055336">
		<tag k="name" v="Øvrebø" />
		<tag k="place" v="farm" />
		<tag k="ssr:stedsnr" v="64650" />
	</node>
	<node id="-444227" lat="59.8942833363" lon="5.56786110307">
		<tag k="name" v="Bakkane" />
		<tag k="place" v="farm" />
		<tag k="ssr:stedsnr" v="64287" />
	</node>
	<node id="-444222" lat="59.9670128614" lon="5.43684881024">
		<tag k="alt_name" v="Hellesvik" />
		<tag k="fixme" v="consider place=hamlet" />
		<tag k="name" v="Hillesvik" />
		<tag k="place" v="farm" />
		<tag k="ssr:stedsnr" v="64167" />
	</node>
	<node id="-444218" lat="60.0403929235" lon="5.67903113892">
		<tag k="alt_name" v="Vevatn" />
		<tag k="fixme" v="consider place=hamlet" />
		<tag k="name" v="Vevatna" />
		<tag k="place" v="farm" />
		<tag k="ssr:stedsnr" v="65323" />
	</node>
	<node id="-444214" lat="60.0668388857" lon="5.56296666093">
		<tag k="name" v="Godøysund Fjordhotell" />
		<tag k="ssr:stedsnr" v="65272" />
		<tag k="tourism" v="hotel" />
	</node>
	<node id="-444211" lat="60.0620194462" lon="5.55898055329">
		<tag k="name" v="Gåsavika" />
		<tag k="place" v="neighbourhood" />
		<tag k="ssr:stedsnr" v="39397" />
	</node>
	<node id="-444210" lat="60.0597944478" lon="5.64966943672">
		<tag k="name" v="Kattaland" />
		<tag k="place" v="quarter" />
		<tag k="ssr:stedsnr" v="39389" />
	</node>
	<node id="-444192" lat="60.0626694418" lon="5.65172499541">
		<tag k="name" v="Økland" />
		<tag k="place" v="farm" />
		<tag k="ssr:stedsnr" v="37998" />
	</node>
	<node id="-444191" lat="60.0748972253" lon="5.67621110877">
		<tag k="name" v="Skogstad" />
		<tag k="place" v="farm" />
		<tag k="ssr:stedsnr" v="37995" />
	</node>
	<node id="-444190" lat="59.9943388898" lon="5.68612500167">
		<tag k="alt_name" v="Myklebost" />
		<tag k="name" v="Myklebust" />
		<tag k="place" v="farm" />
		<tag k="ssr:stedsnr" v="37980" />
	</node>
	<node id="-444189" lat="59.9547944415" lon="5.60083333108">
		<tag k="historic" v="shieling" />
		<tag k="name" v="Storasæternova" />
		<tag k="place" v="locality" />
		<tag k="ssr:stedsnr" v="37977" />
	</node>
	<node id="-444188" lat="59.9222972184" lon="5.60150000553">
		<tag k="name" v="Plasset" />
		<tag k="place" v="farm" />
		<tag k="ssr:stedsnr" v="37972" />
	</node>
	<node id="-444187" lat="59.9708222227" lon="5.63306389513">
		<tag k="name" v="Tveita" />
		<tag k="place" v="farm" />
		<tag k="ssr:stedsnr" v="37968" />
	</node>
	<node id="-444186" lat="60.07586389" lon="5.39554722821">
		<tag k="name" v="Olderhaugen" />
		<tag k="place" v="farm" />
		<tag k="ssr:stedsnr" v="37919" />
	</node>
	<node id="-444185" lat="60.0764583292" lon="5.3841638842">
		<tag k="name" v="Spannsteigen" />
		<tag k="place" v="farm" />
		<tag k="ssr:stedsnr" v="37920" />
	</node>
	<node id="-444184" lat="59.9872333316" lon="5.43155555838">
		<tag k="name" v="Askvollen" />
		<tag k="place" v="farm" />
		<tag k="ssr:stedsnr" v="37910" />
	</node>
	<node id="-444136" lat="59.9654888892" lon="5.63607777498">
		<tag k="name" v="Nedsthus" />
		<tag k="place" v="farm" />
		<tag k="ssr:stedsnr" v="37234" />
	</node>
	<node id="-444135" lat="60.0568055591" lon="5.35383611199">
		<tag k="name" v="Nedigardssjøen" />
		<tag k="place" v="farm" />
		<tag k="ssr:stedsnr" v="37231" />
	</node>
	<node id="-444127" lat="60.0617611095" lon="5.64035832919">
		<tag k="name" v="Nedra Lunde" />
		<tag k="place" v="farm" />
		<tag k="ssr:stedsnr" v="31066" />
	</node>
	<node id="-444126" lat="59.9670726679" lon="5.47116298306">
		<tag k="fixme" v="consider place=hamlet" />
		<tag k="name" v="Leitet" />
		<tag k="place" v="farm" />
		<tag k="ssr:stedsnr" v="25755" />
	</node>
	<node id="-444120" lat="60.0621722225" lon="5.42298888827">
		<tag k="name" v="Sagvågen" />
		<tag k="place" v="isolated_dwelling" />
		<tag k="ssr:stedsnr" v="24350" />
	</node>
	<node id="-444117" lat="60.0155576846" lon="5.58519429098">
		<tag k="name" v="Gjerstadstølen" />
		<tag k="place" v="isolated_dwelling" />
		<tag k="ssr:stedsnr" v="5666" />
	</node>
	<node id="-444112" lat="60.0169029671" lon="5.5508479129">
		<tag k="fixme" v="consider place=hamlet" />
		<tag k="name" v="Dalen" />
		<tag k="place" v="farm" />
		<tag k="ssr:stedsnr" v="5607" />
	</node>
	<node id="-444111" lat="60.0167587382" lon="5.53614209738">
		<tag k="alt_name" v="Håeim" />
		<tag k="fixme" v="consider place=hamlet" />
		<tag k="name" v="Håheim" />
		<tag k="place" v="farm" />
		<tag k="ssr:stedsnr" v="5604" />
	</node>
	<node id="-444106" lat="60.0199521728" lon="5.39168459205">
		<tag k="name" v="Haukafær" />
		<tag k="place" v="hamlet" />
		<tag k="ssr:stedsnr" v="5235" />
	</node>
	<node id="-444104" lat="60.0163273647" lon="5.35277596195">
		<tag k="name" v="Flygansvær" />
		<tag k="place" v="hamlet" />
		<tag k="ssr:stedsnr" v="5222" />
	</node>
	<node id="-444102" lat="59.9262805518" lon="5.6422055646">
		<tag k="name" v="Nyborg" />
		<tag k="place" v="farm" />
		<tag k="ssr:stedsnr" v="4761" />
	</node>
	<node id="-444099" lat="59.9193361096" lon="5.61732777663">
		<tag k="name" v="Skjelland" />
		<tag k="place" v="isolated_dwelling" />
		<tag k="ssr:stedsnr" v="4695" />
	</node>
	<node id="-444098" lat="59.9919884645" lon="5.59628490579">
		<tag k="fixme" v="consider place=hamlet" />
		<tag k="name" v="Brekke" />
		<tag k="place" v="farm" />
		<tag k="ssr:stedsnr" v="4663" />
	</node>
	<node id="-444096" lat="59.940808332" lon="5.4865805551">
		<tag k="name" v="Neshamn" />
		<tag k="place" v="farm" />
		<tag k="ssr:stedsnr" v="4642" />
	</node>
	<node id="-444094" lat="59.9877718915" lon="5.49885859914">
		<tag k="name" v="Støle" />
		<tag k="place" v="hamlet" />
		<tag k="ssr:stedsnr" v="4580" />
	</node>
	<node id="-444090" lat="60.074678435" lon="5.67115673187">
		<tag k="fixme" v="consider place=hamlet" />
		<tag k="name" v="Malkenes" />
		<tag k="place" v="farm" />
		<tag k="ssr:stedsnr" v="4294" />
	</node>
	<node id="-444084" lat="59.9768669377" lon="5.42876199822">
		<tag k="fixme" v="consider place=hamlet" />
		<tag k="name" v="Li" />
		<tag k="place" v="farm" />
		<tag k="ssr:stedsnr" v="4172" />
	</node>
	<node id="-444075" lat="59.9641778716" lon="5.54358460364">
		<tag k="fixme" v="consider place=hamlet" />
		<tag k="name" v="Nordbustad" />
		<tag k="place" v="farm" />
		<tag k="ssr:stedsnr" v="3591" />
	</node>
	<node id="-444063" lat="59.954047502" lon="5.63824104717">
		<tag k="fixme" v="consider place=hamlet" />
		<tag k="name" v="Kvitevollsnes" />
		<tag k="place" v="farm" />
		<tag k="ssr:stedsnr" v="990415" />
	</node>
	<node id="-444062" lat="59.974126499" lon="5.63229268759">
		<tag k="fixme" v="consider place=hamlet" />
		<tag k="name" v="Medalen" />
		<tag k="place" v="farm" />
		<tag k="ssr:stedsnr" v="990412" />
	</node>
	<node id="-444061" lat="59.9624914139" lon="5.6474573365">
		<tag k="fixme" v="consider place=hamlet" />
		<tag k="name" v="Vattarøya" />
		<tag k="place" v="farm" />
		<tag k="ssr:stedsnr" v="990411" />
	</node>
	<node id="-444060" lat="59.9869171191" lon="5.67634710247">
		<tag k="name" v="Våge" />
		<tag k="place" v="hamlet" />
		<tag k="ssr:stedsnr" v="990409" />
	</node>
	<node id="-444059" lat="60.0731791704" lon="5.69759779706">
		<tag k="fixme" v="consider place=hamlet" />
		<tag k="name" v="Korsnes" />
		<tag k="place" v="farm" />
		<tag k="ssr:stedsnr" v="990408" />
	</node>
	<node id="-444058" lat="60.0658442132" lon="5.6241140585">
		<tag k="fixme" v="consider place=hamlet" />
		<tag k="name" v="Hommervik" />
		<tag k="place" v="farm" />
		<tag k="ssr:stedsnr" v="990407" />
	</node>
	<node id="-444057" lat="60.0707902302" lon="5.56504509725">
		<tag k="name" v="Godøya" />
		<tag k="place" v="hamlet" />
		<tag k="ssr:stedsnr" v="990406" />
	</node>
	<node id="-444056" lat="60.0693589358" lon="5.43160230133">
		<tag k="fixme" v="consider place=hamlet" />
		<tag k="name" v="Vernøya" />
		<tag k="place" v="farm" />
		<tag k="ssr:stedsnr" v="990404" />
	</node>
	<node id="-444055" lat="60.0011486473" lon="5.41412655945">
		<tag k="fixme" v="consider place=hamlet" />
		<tag k="name" v="Kubbervik" />
		<tag k="place" v="farm" />
		<tag k="ssr:stedsnr" v="990403" />
	</node>
	<node id="-444054" lat="59.9980244396" lon="5.43086548393">
		<tag k="fixme" v="consider place=hamlet" />
		<tag k="name" v="Håneset" />
		<tag k="place" v="farm" />
		<tag k="ssr:stedsnr" v="990394" />
	</node>
	<node id="-444053" lat="59.9490789067" lon="5.48635794724">
		<tag k="fixme" v="consider place=hamlet" />
		<tag k="name" v="Klubben" />
		<tag k="place" v="farm" />
		<tag k="ssr:stedsnr" v="990393" />
	</node>
	<node id="-444045" lat="60.0695694403" lon="5.65774444324">
		<tag k="name" v="Sjøli" />
		<tag k="place" v="farm" />
		<tag k="ssr:stedsnr" v="887995" />
	</node>
	<node id="-444044" lat="60.0559083312" lon="5.61707777749">
		<tag k="name" v="Nes" />
		<tag k="place" v="farm" />
		<tag k="ssr:stedsnr" v="887991" />
	</node>
	<node id="-444043" lat="59.9220722203" lon="5.61982499229">
		<tag k="name" v="Sletteskog" />
		<tag k="place" v="farm" />
		<tag k="ssr:stedsnr" v="887979" />
	</node>
	<node id="-444006" lat="60.0667527773" lon="5.42826944361">
		<tag k="name" v="Liland" />
		<tag k="place" v="farm" />
		<tag k="ssr:stedsnr" v="887225" />
	</node>
	<node id="-444004" lat="60.0697138928" lon="5.66770833567">
		<tag k="name" v="Dalheim" />
		<tag k="place" v="farm" />
		<tag k="ssr:stedsnr" v="887211" />
	</node>
	<node id="-443982" lat="60.039880559" lon="5.52486666791">
		<tag k="name" v="Vågsmarka" />
		<tag k="place" v="quarter" />
		<tag k="ssr:stedsnr" v="403424" />
	</node>
	<node id="-443661" lat="60.0505722216" lon="5.50492221411">
		<tag k="name" v="Indre Teigland" />
		<tag k="place" v="farm" />
		<tag k="ssr:stedsnr" v="280174" />
	</node>
	<node id="-443964" lat="60.0742333316" lon="5.6645666634">
		<tag k="name" v="Småget" />
		<tag k="place" v="farm" />
		<tag k="ssr:stedsnr" v="401995" />
	</node>
	<node id="-443963" lat="60.0753222192" lon="5.67536945123">
		<tag k="name" v="Nygård" />
		<tag k="place" v="farm" />
		<tag k="ssr:stedsnr" v="401993" />
	</node>
	<node id="-443962" lat="60.0017194422" lon="5.66754167528">
		<tag k="historic" v="shieling" />
		<tag k="name" v="Svodstølen" />
		<tag k="place" v="locality" />
		<tag k="ssr:stedsnr" v="401984" />
	</node>
	<node id="-443961" lat="59.9798833343" lon="5.60917500814">
		<tag k="name" v="Haugen" />
		<tag k="place" v="farm" />
		<tag k="ssr:stedsnr" v="401961" />
	</node>
	<node id="-443960" lat="59.8763444419" lon="5.62203611085">
		<tag k="name" v="Gamlastøda" />
		<tag k="place" v="farm" />
		<tag k="ssr:stedsnr" v="401957" />
	</node>
	<node id="-443959" lat="60.0366166669" lon="5.52050000096">
		<tag k="name" v="Træd" />
		<tag k="place" v="farm" />
		<tag k="ssr:stedsnr" v="401945" />
	</node>
	<node id="-443958" lat="60.0440333328" lon="5.5558166584">
		<tag k="name" v="Store Gjersvik" />
		<tag k="place" v="farm" />
		<tag k="ssr:stedsnr" v="401939" />
	</node>
	<node id="-443957" lat="60.0103611082" lon="5.50126666576">
		<tag k="name" v="Stamparebrekka" />
		<tag k="place" v="farm" />
		<tag k="ssr:stedsnr" v="401919" />
	</node>
	<node id="-443956" lat="59.9334666628" lon="5.58143889295">
		<tag k="historic" v="shieling" />
		<tag k="name" v="Gamlaselet" />
		<tag k="place" v="locality" />
		<tag k="ssr:stedsnr" v="401888" />
	</node>
	<node id="-443955" lat="59.9688027789" lon="5.42769445007">
		<tag k="name" v="Fagertun" />
		<tag k="place" v="farm" />
		<tag k="ssr:stedsnr" v="401861" />
	</node>
	<node id="-443907" lat="60.0202361077" lon="5.70439443664">
		<tag k="name" v="Nymark" />
		<tag k="place" v="farm" />
		<tag k="ssr:stedsnr" v="401235" />
	</node>
	<node id="-443890" lat="60.0599694416" lon="5.64238889573">
		<tag k="loc_name" v="Lunde" />
		<tag k="name" v="Lundegrend" />
		<tag k="place" v="hamlet" />
		<tag k="ssr:stedsnr" v="388754" />
	</node>
	<node id="-443889" lat="60.0211167125" lon="5.4010282062">
		<tag k="fixme" v="consider place=hamlet" />
		<tag k="name" v="Åse" />
		<tag k="place" v="farm" />
		<tag k="ssr:stedsnr" v="388339" />
	</node>
	<node id="-443888" lat="59.9384861086" lon="5.62531666225">
		<tag k="name" v="Skor" />
		<tag k="place" v="farm" />
		<tag k="ssr:stedsnr" v="388288" />
	</node>
	<node id="-443880" lat="60.0002094462" lon="5.37405694883">
		<tag k="fixme" v="consider place=hamlet" />
		<tag k="name" v="Sunde" />
		<tag k="place" v="farm" />
		<tag k="ssr:stedsnr" v="369194" />
	</node>
	<node id="-443876" lat="59.930999998" lon="5.52332777026">
		<tag k="alt_name" v="Årvik" />
		<tag k="name" v="Årvika" />
		<tag k="place" v="isolated_dwelling" />
		<tag k="ssr:stedsnr" v="368763" />
	</node>
	<node id="-443874" lat="59.9452621326" lon="5.62467549636">
		<tag k="fixme" v="consider place=hamlet" />
		<tag k="name" v="Elsåker" />
		<tag k="place" v="farm" />
		<tag k="ssr:stedsnr" v="368757" />
	</node>
	<node id="-443870" lat="59.9942143335" lon="5.68762698954">
		<tag k="fixme" v="consider place=hamlet" />
		<tag k="name" v="Myklebostad" />
		<tag k="place" v="farm" />
		<tag k="ssr:stedsnr" v="368703" />
	</node>
	<node id="-443867" lat="60.0210694474" lon="5.55722500718">
		<tag k="name" v="Buldo" />
		<tag k="place" v="isolated_dwelling" />
		<tag k="ssr:stedsnr" v="368667" />
	</node>
	<node id="-443866" lat="59.9566944484" lon="5.56032776991">
		<tag k="name" v="Mevatnet" />
		<tag k="place" v="farm" />
		<tag k="ssr:stedsnr" v="368603" />
	</node>
	<node id="-443854" lat="59.9801583324" lon="5.60885832803">
		<tag k="name" v="Solheimshaugen" />
		<tag k="place" v="isolated_dwelling" />
		<tag k="ssr:stedsnr" v="367655" />
	</node>
	<node id="-443851" lat="59.9692431995" lon="5.53125017355">
		<tag k="fixme" v="consider place=hamlet" />
		<tag k="name" v="Botnen" />
		<tag k="place" v="farm" />
		<tag k="ssr:stedsnr" v="367596" />
	</node>
	<node id="-443822" lat="60.0486111099" lon="5.5184916709">
		<tag k="fixme" v="consider place=hamlet" />
		<tag k="name" v="Indre Ve" />
		<tag k="place" v="farm" />
		<tag k="ssr:stedsnr" v="341264" />
	</node>
	<node id="-443806" lat="60.0497416663" lon="5.69313888611">
		<tag k="historic" v="shieling" />
		<tag k="name" v="Sundastølen" />
		<tag k="place" v="locality" />
		<tag k="ssr:stedsnr" v="340999" />
	</node>
	<node id="-443805" lat="59.9955722251" lon="5.68531388279">
		<tag k="name" v="Lie" />
		<tag k="place" v="farm" />
		<tag k="ssr:stedsnr" v="340986" />
	</node>
	<node id="-443804" lat="59.9234194457" lon="5.62313334077">
		<tag k="name" v="Helldal" />
		<tag k="place" v="farm" />
		<tag k="ssr:stedsnr" v="340975" />
	</node>
	<node id="-443803" lat="59.9268638862" lon="5.6128555581">
		<tag k="name" v="Skogland" />
		<tag k="place" v="farm" />
		<tag k="ssr:stedsnr" v="340958" />
	</node>
	<node id="-443802" lat="59.9651888935" lon="5.53355834005">
		<tag k="name" v="Nordbustad" />
		<tag k="place" v="farm" />
		<tag k="ssr:stedsnr" v="340925" />
	</node>
	<node id="-443801" lat="59.9156749997" lon="5.57803333714">
		<tag k="historic" v="shieling" />
		<tag k="name" v="Indra-" />
		<tag k="place" v="locality" />
		<tag k="ssr:stedsnr" v="340915" />
	</node>
	<node id="-443800" lat="60.0196583364" lon="5.47370000569">
		<tag k="name" v="Setehaugen" />
		<tag k="place" v="farm" />
		<tag k="ssr:stedsnr" v="340903" />
	</node>
	<node id="-443799" lat="60.0730805526" lon="5.35437778035">
		<tag k="name" v="Skaget" />
		<tag k="place" v="farm" />
		<tag k="ssr:stedsnr" v="340893" />
	</node>
	<node id="-443772" lat="60.0573166684" lon="5.7017555517">
		<tag k="alt_name" v="Fagervik" />
		<tag k="name" v="Einingevik" />
		<tag k="place" v="farm" />
		<tag k="ssr:stedsnr" v="126357" />
	</node>
	<node id="-443771" lat="60.0429232379" lon="5.70253825158">
		<tag k="fixme" v="consider place=hamlet" />
		<tag k="name" v="Rød" />
		<tag k="place" v="farm" />
		<tag k="ssr:stedsnr" v="126342" />
	</node>
	<node id="-445811" lat="59.9771888877" lon="5.40935833012">
		<tag k="fixme" v="consider place=hamlet" />
		<tag k="name" v="Hålandsneset" />
		<tag k="place" v="village" />
		<tag k="ssr:stedsnr" v="969884" />
	</node>
	<node id="-445808" lat="60.0636388865" lon="5.57721389002">
		<tag k="alt_name" v="Natavik" />
		<tag k="name" v="Natavika" />
		<tag k="place" v="farm" />
		<tag k="ssr:stedsnr" v="948952" />
	</node>
	<node id="-445807" lat="59.9709000025" lon="5.50966944823">
		<tag k="historic" v="shieling" />
		<tag k="name" v="Holsætret" />
		<tag k="place" v="locality" />
		<tag k="ssr:stedsnr" v="948940" />
	</node>
	<node id="-445806" lat="60.0273583302" lon="5.43425555902">
		<tag k="name" v="Nedra Gjelland" />
		<tag k="place" v="farm" />
		<tag k="ssr:stedsnr" v="948931" />
	</node>
	<node id="-445805" lat="59.9631527824" lon="5.4722305632">
		<tag k="name" v="Litla Leitet" />
		<tag k="place" v="farm" />
		<tag k="ssr:stedsnr" v="948924" />
	</node>
	<node id="-443754" lat="60.0587666645" lon="5.64088888041">
		<tag k="name" v="Haugen" />
		<tag k="place" v="farm" />
		<tag k="ssr:stedsnr" v="308313" />
	</node>
	<node id="-443740" lat="59.9700984277" lon="5.50637918562">
		<tag k="name" v="Holma" />
		<tag k="place" v="hamlet" />
		<tag k="ssr:stedsnr" v="307643" />
	</node>
	<node id="-443739" lat="59.9705520508" lon="5.63279593137">
		<tag k="fixme" v="consider place=hamlet" />
		<tag k="name" v="Vattedal" />
		<tag k="place" v="farm" />
		<tag k="ssr:stedsnr" v="307640" />
	</node>
	<node id="-443735" lat="60.0491915298" lon="5.51594098641">
		<tag k="loc_name" v="Vee" />
		<tag k="name" v="Ve" />
		<tag k="place" v="hamlet" />
		<tag k="ssr:stedsnr" v="308250" />
	</node>
	<node id="-443726" lat="59.9944750023" lon="5.39170833139">
		<tag k="name" v="Skjeljavik" />
		<tag k="place" v="farm" />
		<tag k="ssr:stedsnr" v="307145" />
	</node>
	<node id="-445765" lat="60.042572223" lon="5.54654722806">
		<tag k="name" v="Litle Gjersvik" />
		<tag k="place" v="farm" />
		<tag k="ssr:stedsnr" v="948259" />
	</node>
	<node id="-445764" lat="59.9903361149" lon="5.48592777926">
		<tag k="name" v="Hamnen" />
		<tag k="place" v="farm" />
		<tag k="ssr:stedsnr" v="948253" />
	</node>
	<node id="-443715" lat="59.9934972192" lon="5.60142777134">
		<tag k="name" v="Skjolda" />
		<tag k="place" v="farm" />
		<tag k="ssr:stedsnr" v="280990" />
	</node>
	<node id="-443714" lat="59.95586111" lon="5.6057611066">
		<tag k="historic" v="shieling" />
		<tag k="name" v="Storasæteret" />
		<tag k="place" v="locality" />
		<tag k="ssr:stedsnr" v="280981" />
	</node>
	<node id="-443713" lat="60.0069583339" lon="5.693258327">
		<tag k="name" v="Tveit" />
		<tag k="place" v="farm" />
		<tag k="ssr:stedsnr" v="280973" />
	</node>
	<node id="-443712" lat="59.8988833345" lon="5.64148333801">
		<tag k="name" v="Knappen" />
		<tag k="place" v="isolated_dwelling" />
		<tag k="ssr:stedsnr" v="280967" />
	</node>
	<node id="-443711" lat="60.010202778" lon="5.51056388251">
		<tag k="name" v="Horshammaren" />
		<tag k="place" v="farm" />
		<tag k="ssr:stedsnr" v="280934" />
	</node>
	<node id="-443710" lat="60.0120055532" lon="5.50486945224">
		<tag k="name" v="Reiso" />
		<tag k="place" v="farm" />
		<tag k="ssr:stedsnr" v="280930" />
	</node>
	<node id="-443709" lat="59.9155027757" lon="5.57804166895">
		<tag k="historic" v="shieling" />
		<tag k="name" v="Indra Sætra" />
		<tag k="place" v="locality" />
		<tag k="ssr:stedsnr" v="280915" />
	</node>
	<node id="-443708" lat="60.0223388874" lon="5.42054443853">
		<tag k="name" v="Litla Brottetveit" />
		<tag k="place" v="farm" />
		<tag k="ssr:stedsnr" v="280899" />
	</node>
	<node id="-443707" lat="59.9698583297" lon="5.46321666254">
		<tag k="name" v="Øvra Kleppa" />
		<tag k="place" v="farm" />
		<tag k="ssr:stedsnr" v="280894" />
	</node>
	<node id="-445750" lat="60.0561055599" lon="5.63206388982">
		<tag k="name" v="Myre" />
		<tag k="place" v="farm" />
		<tag k="ssr:stedsnr" v="947985" />
	</node>
	<node id="-445749" lat="60.0122638874" lon="5.51321110312">
		<tag k="historic" v="shieling" />
		<tag k="name" v="Sørstølen" />
		<tag k="place" v="locality" />
		<tag k="ssr:stedsnr" v="947926" />
	</node>
	<node id="-445722" lat="60.0270388855" lon="5.70838889697">
		<tag k="name" v="Krokavik" />
		<tag k="place" v="farm" />
		<tag k="ssr:stedsnr" v="936358" />
	</node>
	<node id="-445720" lat="59.9570499969" lon="5.63848055295">
		<tag k="name" v="Sandvik" />
		<tag k="place" v="farm" />
		<tag k="ssr:stedsnr" v="936119" />
	</node>
	<node id="-445713" lat="60.010190064" lon="5.49578319754">
		<tag k="fixme" v="consider place=hamlet" />
		<tag k="name" v="Myklestad" />
		<tag k="place" v="farm" />
		<tag k="ssr:stedsnr" v="915650" />
	</node>
	<node id="-445709" lat="60.016220135" lon="5.52919340332">
		<tag k="fixme" v="consider place=hamlet" />
		<tag k="name" v="Borga" />
		<tag k="place" v="farm" />
		<tag k="ssr:stedsnr" v="915607" />
	</node>
	<node id="-445706" lat="60.0471300514" lon="5.59170329599">
		<tag k="fixme" v="consider place=hamlet" />
		<tag k="name" v="Heggland" />
		<tag k="place" v="farm" />
		<tag k="ssr:stedsnr" v="915346" />
	</node>
	<node id="-445704" lat="60.0513555536" lon="5.54998055805">
		<tag k="alt_name" v="Instebøen" />
		<tag k="name" v="Instebø" />
		<tag k="place" v="farm" />
		<tag k="ssr:stedsnr" v="915329" />
	</node>
	<node id="-445698" lat="60.0636014759" lon="5.65326876641">
		<tag k="fixme" v="consider place=hamlet" />
		<tag k="name" v="Økland" />
		<tag k="place" v="farm" />
		<tag k="ssr:stedsnr" v="915246" />
	</node>
	<node id="-445696" lat="60.0620889452" lon="5.64247940888">
		<tag k="name" v="Lunde" />
		<tag k="place" v="hamlet" />
		<tag k="ssr:stedsnr" v="915244" />
	</node>
	<node id="-445692" lat="60.0278381637" lon="5.37913368199">
		<tag k="alt_name" v="Frøkedal" />
		<tag k="fixme" v="consider place=hamlet" />
		<tag k="name" v="Frøkjedal" />
		<tag k="place" v="farm" />
		<tag k="ssr:stedsnr" v="915229" />
	</node>
	<node id="-445684" lat="59.9026851193" lon="5.65272756523">
		<tag k="fixme" v="consider place=hamlet" />
		<tag k="name" v="Flornes" />
		<tag k="place" v="farm" />
		<tag k="ssr:stedsnr" v="914732" />
	</node>
	<node id="-445680" lat="59.9803807791" lon="5.59758044326">
		<tag k="fixme" v="consider place=hamlet" />
		<tag k="name" v="Skartveit" />
		<tag k="place" v="farm" />
		<tag k="ssr:stedsnr" v="914692" />
	</node>
	<node id="-445677" lat="59.9587000029" lon="5.63316944506">
		<tag k="name" v="Norddal" />
		<tag k="place" v="farm" />
		<tag k="ssr:stedsnr" v="914677" />
	</node>
	<node id="-445675" lat="59.9681777809" lon="5.47647223053">
		<tag k="alt_name" v="Drange, nedre" />
		<tag k="name" v="Nedre Drange" />
		<tag k="place" v="farm" />
		<tag k="ssr:stedsnr" v="914651" />
	</node>
	<node id="-445674" lat="59.9965472191" lon="5.49692222302">
		<tag k="name" v="Fosse" />
		<tag k="place" v="farm" />
		<tag k="ssr:stedsnr" v="914591" />
	</node>
	<node id="-445671" lat="59.9783229409" lon="5.41726519305">
		<tag k="fixme" v="consider place=hamlet" />
		<tag k="name" v="Tveit" />
		<tag k="place" v="farm" />
		<tag k="ssr:stedsnr" v="914168" />
	</node>
	<node id="-445670" lat="59.9881734362" lon="5.43565387757">
		<tag k="fixme" v="consider place=hamlet" />
		<tag k="name" v="Færavåg" />
		<tag k="place" v="farm" />
		<tag k="ssr:stedsnr" v="914148" />
	</node>
	<node id="-445665" lat="60.0608194479" lon="5.64299166621">
		<tag k="name" v="Øvra Lunde" />
		<tag k="place" v="farm" />
		<tag k="ssr:stedsnr" v="881065" />
	</node>
	<node id="-445664" lat="59.9354551473" lon="5.6130986128">
		<tag k="fixme" v="consider place=hamlet" />
		<tag k="name" v="Langeland" />
		<tag k="place" v="farm" />
		<tag k="ssr:stedsnr" v="875831" />
	</node>
	<node id="-445651" lat="59.9396027754" lon="5.61809166069">
		<tag k="name" v="Øyjorda" />
		<tag k="place" v="farm" />
		<tag k="ssr:stedsnr" v="854711" />
	</node>
	<node id="-445646" lat="59.9926305566" lon="5.54602777446">
		<tag k="name" v="Øyjorda" />
		<tag k="place" v="farm" />
		<tag k="ssr:stedsnr" v="854630" />
	</node>
	<node id="-445641" lat="59.9912044936" lon="5.4942109697">
		<tag k="fixme" v="consider place=hamlet" />
		<tag k="name" v="Sæ" />
		<tag k="place" v="farm" />
		<tag k="ssr:stedsnr" v="854568" />
	</node>
	<node id="-445640" lat="60.0434916627" lon="5.5227444365">
		<tag k="name" v="Våge" />
		<tag k="place" v="village" />
		<tag k="ssr:stedsnr" v="854354" />
	</node>
	<node id="-445638" lat="60.0449149465" lon="5.51450888546">
		<tag k="fixme" v="consider place=hamlet" />
		<tag k="name" v="Lande" />
		<tag k="place" v="farm" />
		<tag k="ssr:stedsnr" v="854335" />
	</node>
	<node id="-445636" lat="60.0353223203" lon="5.4712200686">
		<tag k="fixme" v="consider place=hamlet" />
		<tag k="name" v="Siglevik" />
		<tag k="place" v="farm" />
		<tag k="ssr:stedsnr" v="854293" />
	</node>
	<node id="-445630" lat="60.0528929043" lon="5.43092067537">
		<tag k="alt_name" v="Skår" />
		<tag k="fixme" v="consider place=hamlet" />
		<tag k="name" v="Skor" />
		<tag k="place" v="farm" />
		<tag k="ssr:stedsnr" v="854133" />
	</node>
	<node id="-445626" lat="59.9111599082" lon="5.6373883329">
		<tag k="alt_name" v="Barma" />
		<tag k="fixme" v="consider place=hamlet" />
		<tag k="name" v="Barmen" />
		<tag k="place" v="farm" />
		<tag k="ssr:stedsnr" v="853695" />
	</node>
	<node id="-445625" lat="59.9615790931" lon="5.5132222791">
		<tag k="fixme" v="consider place=hamlet" />
		<tag k="name" v="Epland" />
		<tag k="place" v="farm" />
		<tag k="ssr:stedsnr" v="853616" />
	</node>
	<node id="-445620" lat="59.8754819788" lon="5.61951806195">
		<tag k="name" v="Laukhammar" />
		<tag k="place" v="hamlet" />
		<tag k="ssr:stedsnr" v="853224" />
	</node>
	<node id="-445598" lat="59.9647777782" lon="5.54121110955">
		<tag k="name" v="Nordbustad" />
		<tag k="place" v="farm" />
		<tag k="ssr:stedsnr" v="827273" />
	</node>
	<node id="-445597" lat="60.0192361142" lon="5.40230277824">
		<tag k="name" v="Øvra Haukafær" />
		<tag k="place" v="farm" />
		<tag k="ssr:stedsnr" v="827270" />
	</node>
	<node id="-445588" lat="60.0586638905" lon="5.63976944108">
		<tag k="name" v="Haugen" />
		<tag k="place" v="farm" />
		<tag k="ssr:stedsnr" v="826994" />
	</node>
	<node id="-445587" lat="59.9198749974" lon="5.61364443635">
		<tag k="name" v="Hola" />
		<tag k="place" v="farm" />
		<tag k="ssr:stedsnr" v="826973" />
	</node>
	<node id="-445586" lat="59.9931965947" lon="5.54291206195">
		<tag k="fixme" v="consider place=hamlet" />
		<tag k="name" v="Gjellefall" />
		<tag k="place" v="farm" />
		<tag k="ssr:stedsnr" v="826952" />
	</node>
	<node id="-445585" lat="59.9600666627" lon="5.55020555563">
		<tag k="name" v="Medvatne" />
		<tag k="place" v="farm" />
		<tag k="ssr:stedsnr" v="826935" />
	</node>
	<node id="-445584" lat="59.9507611124" lon="5.49184721641">
		<tag k="name" v="Knappen" />
		<tag k="place" v="farm" />
		<tag k="ssr:stedsnr" v="826933" />
	</node>
	<node id="-445583" lat="59.9658416656" lon="5.47920000009">
		<tag k="name" v="Kalvahagen" />
		<tag k="place" v="farm" />
		<tag k="ssr:stedsnr" v="826924" />
	</node>
	<node id="-445582" lat="60.0277361116" lon="5.43057221518">
		<tag k="name" v="Øvra Gjelland" />
		<tag k="place" v="farm" />
		<tag k="ssr:stedsnr" v="826908" />
	</node>
	<node id="-445581" lat="60.0565805531" lon="5.35801944105">
		<tag k="name" v="Nedigard" />
		<tag k="place" v="farm" />
		<tag k="ssr:stedsnr" v="826893" />
	</node>
	<node id="-445580" lat="60.0014055592" lon="5.70771110357">
		<tag k="name" v="Biskopshamn" />
		<tag k="place" v="farm" />
		<tag k="ssr:stedsnr" v="826881" />
	</node>
	<node id="-445533" lat="59.9444111131" lon="5.50875555326">
		<tag k="name" v="Træet" />
		<tag k="place" v="isolated_dwelling" />
		<tag k="ssr:stedsnr" v="814795" />
	</node>
	<node id="-445532" lat="59.9658638852" lon="5.47899443947">
		<tag k="name" v="Kalvhagen" />
		<tag k="place" v="isolated_dwelling" />
		<tag k="ssr:stedsnr" v="814773" />
	</node>
	<node id="-445521" lat="60.0769433403" lon="5.38403814105">
		<tag k="fixme" v="consider place=hamlet" />
		<tag k="name" v="Eldholm" />
		<tag k="place" v="farm" />
		<tag k="ssr:stedsnr" v="793919" />
	</node>
	<node id="-445518" lat="59.9216194856" lon="5.71460567027">
		<tag k="fixme" v="consider place=hamlet" />
		<tag k="name" v="Ånuglo" />
		<tag k="place" v="farm" />
		<tag k="ssr:stedsnr" v="793716" />
	</node>
	<node id="-445516" lat="59.9880521615" lon="5.58661933495">
		<tag k="fixme" v="consider place=hamlet" />
		<tag k="name" v="Singelsæter" />
		<tag k="place" v="farm" />
		<tag k="ssr:stedsnr" v="793682" />
	</node>
	<node id="-445515" lat="59.9882256018" lon="5.59144980333">
		<tag k="fixme" v="consider place=hamlet" />
		<tag k="name" v="Singelstad" />
		<tag k="place" v="farm" />
		<tag k="ssr:stedsnr" v="793679" />
	</node>
	<node id="-445514" lat="60.0097111108" lon="5.69336389324">
		<tag k="name" v="Sande" />
		<tag k="place" v="farm" />
		<tag k="ssr:stedsnr" v="793678" />
	</node>
	<node id="-445511" lat="60.0131388873" lon="5.57127777993">
		<tag k="alt_name" v="Vesstølen" />
		<tag k="historic" v="shieling" />
		<tag k="name" v="Vestølen" />
		<tag k="place" v="locality" />
		<tag k="ssr:stedsnr" v="793655" />
	</node>
	<node id="-445510" lat="60.0211694437" lon="5.57628056148">
		<tag k="name" v="Huldastølen" />
		<tag k="place" v="isolated_dwelling" />
		<tag k="ssr:stedsnr" v="793653" />
	</node>
	<node id="-445509" lat="60.0453027802" lon="5.62355277286">
		<tag k="name" v="Hagen" />
		<tag k="place" v="farm" />
		<tag k="ssr:stedsnr" v="793384" />
	</node>
	<node id="-445491" lat="59.9908609044" lon="5.45418507282">
		<tag k="fixme" v="consider place=hamlet" />
		<tag k="name" v="Hovdanes" />
		<tag k="place" v="farm" />
		<tag k="ssr:stedsnr" v="793126" />
	</node>
	<node id="-445484" lat="59.9953361142" lon="5.49692499687">
		<tag k="name" v="Jensvoll" />
		<tag k="place" v="quarter" />
		<tag k="ssr:stedsnr" v="767447" />
	</node>
	<node id="-445465" lat="60.0476222198" lon="5.66974166589">
		<tag k="historic" v="shieling" />
		<tag k="name" v="Gripnestølen" />
		<tag k="place" v="locality" />
		<tag k="ssr:stedsnr" v="765999" />
	</node>
	<node id="-445464" lat="59.9552833294" lon="5.63276944347">
		<tag k="name" v="Hagariset" />
		<tag k="place" v="farm" />
		<tag k="ssr:stedsnr" v="765984" />
	</node>
	<node id="-445463" lat="60.0451777814" lon="5.52104167433">
		<tag k="fixme" v="consider place=hamlet" />
		<tag k="name" v="Våge" />
		<tag k="place" v="farm" />
		<tag k="ssr:stedsnr" v="765962" />
	</node>
	<node id="-445462" lat="60.0285421276" lon="5.41341361299">
		<tag k="alt_name" v="Dalsgård" />
		<tag k="fixme" v="consider place=hamlet" />
		<tag k="loc_name" v="Dalsgard" />
		<tag k="name" v="Dalen" />
		<tag k="place" v="farm" />
		<tag k="ssr:stedsnr" v="765893" />
	</node>
	<node id="-445461" lat="60.0620833364" lon="5.4056138903">
		<tag k="historic" v="shieling" />
		<tag k="name" v="Hopsstølen" />
		<tag k="place" v="locality" />
		<tag k="ssr:stedsnr" v="765892" />
	</node>
	<node id="-445460" lat="59.9841750018" lon="5.39798332785">
		<tag k="name" v="Vesle Nausthaugen" />
		<tag k="place" v="farm" />
		<tag k="ssr:stedsnr" v="765891" />
	</node>
	<node id="-445402" lat="60.0626972222" lon="5.64639722035">
		<tag k="name" v="Øvra Lunde" />
		<tag k="place" v="farm" />
		<tag k="ssr:stedsnr" v="759075" />
	</node>
	<node id="-445392" lat="60.0137097326" lon="5.69328854096">
		<tag k="fixme" v="consider place=hamlet" />
		<tag k="name" v="Hovland" />
		<tag k="place" v="farm" />
		<tag k="ssr:stedsnr" v="733626" />
	</node>
	<node id="-445387" lat="60.0518065375" lon="5.70085430254">
		<tag k="fixme" v="consider place=hamlet" />
		<tag k="name" v="Sunde" />
		<tag k="place" v="farm" />
		<tag k="ssr:stedsnr" v="733340" />
	</node>
	<node id="-445374" lat="59.9020147465" lon="5.62465312326">
		<tag k="fixme" v="consider place=hamlet" />
		<tag k="name" v="Skorpo" />
		<tag k="place" v="farm" />
		<tag k="ssr:stedsnr" v="732727" />
	</node>
	<node id="-445372" lat="59.908769446" lon="5.58678332891">
		<tag k="alt_name" v="Gongstø" />
		<tag k="name" v="Gangstø" />
		<tag k="place" v="isolated_dwelling" />
		<tag k="ssr:stedsnr" v="732715" />
	</node>
	<node id="-445367" lat="59.966072773" lon="5.63671842747">
		<tag k="fixme" v="consider place=hamlet" />
		<tag k="name" v="Nesthus" />
		<tag k="place" v="farm" />
		<tag k="ssr:stedsnr" v="732675" />
	</node>
	<node id="-445366" lat="59.9528182178" lon="5.48765311732">
		<tag k="alt_name" v="Kongsvika" />
		<tag k="name" v="Kongsvik" />
		<tag k="place" v="hamlet" />
		<tag k="ssr:stedsnr" v="732673" />
	</node>
	<node id="-445365" lat="59.9708861098" lon="5.47521666485">
		<tag k="alt_name" v="Drange, øvre;Drangje" />
		<tag k="name" v="Øvre Drange" />
		<tag k="place" v="farm" />
		<tag k="ssr:stedsnr" v="732657" />
	</node>
	<node id="-445363" lat="59.9833149757" lon="5.49475754573">
		<tag k="alt_name" v="Søreide" />
		<tag k="fixme" v="consider place=hamlet" />
		<tag k="name" v="Søreid" />
		<tag k="place" v="farm" />
		<tag k="ssr:stedsnr" v="732615" />
	</node>
	<node id="-445350" lat="59.9027722239" lon="5.62878333657">
		<tag k="name" v="Heii" />
		<tag k="place" v="isolated_dwelling" />
		<tag k="ssr:stedsnr" v="712442" />
	</node>
	<node id="-445349" lat="59.9920416666" lon="5.68707778479">
		<tag k="name" v="Årbakkahagen" />
		<tag k="place" v="quarter" />
		<tag k="ssr:stedsnr" v="707442" />
	</node>
	<node id="-445348" lat="59.9260249998" lon="5.63741667034">
		<tag k="name" v="Nyborg" />
		<tag k="place" v="neighbourhood" />
		<tag k="ssr:stedsnr" v="707416" />
	</node>
	<node id="-445347" lat="60.0617361091" lon="5.66017777609">
		<tag k="name" v="Gripne" />
		<tag k="place" v="farm" />
		<tag k="ssr:stedsnr" v="705997" />
	</node>
	<node id="-445346" lat="59.9686027739" lon="5.63188056061">
		<tag k="name" v="Korsadal" />
		<tag k="place" v="farm" />
		<tag k="ssr:stedsnr" v="705977" />
	</node>
	<node id="-445345" lat="60.0529333332" lon="5.50953610255">
		<tag k="name" v="Sundet" />
		<tag k="place" v="farm" />
		<tag k="ssr:stedsnr" v="705940" />
	</node>
	<node id="-445344" lat="60.0587250007" lon="5.36806665913">
		<tag k="historic" v="shieling" />
		<tag k="name" v="Sauastølen" />
		<tag k="place" v="locality" />
		<tag k="ssr:stedsnr" v="705910" />
	</node>
	<node id="-445316" lat="60.0520944428" lon="5.62529999905">
		<tag k="name" v="Nedra Humlevika" />
		<tag k="place" v="farm" />
		<tag k="ssr:stedsnr" v="705277" />
	</node>
	<node id="-445315" lat="60.0107361122" lon="5.69433611488">
		<tag k="name" v="Sande" />
		<tag k="place" v="farm" />
		<tag k="ssr:stedsnr" v="705275" />
	</node>
	<node id="-445311" lat="60.0145833344" lon="5.35066666882">
		<tag k="name" v="Øvra Flygansvær" />
		<tag k="place" v="farm" />
		<tag k="ssr:stedsnr" v="705244" />
	</node>
	<node id="-445280" lat="59.9418194485" lon="5.62204167227">
		<tag k="alt_name" v="Dørsvika" />
		<tag k="name" v="Dørsvik" />
		<tag k="place" v="farm" />
		<tag k="ssr:stedsnr" v="693154" />
	</node>
	<node id="-445279" lat="59.9307027797" lon="5.60526666689">
		<tag k="fixme" v="consider place=hamlet" />
		<tag k="name" v="Flakka" />
		<tag k="place" v="farm" />
		<tag k="ssr:stedsnr" v="692776" />
	</node>
	<node id="-445269" lat="60.0181231034" lon="5.69973854545">
		<tag k="fixme" v="consider place=hamlet" />
		<tag k="name" v="Nymark" />
		<tag k="place" v="farm" />
		<tag k="ssr:stedsnr" v="672660" />
	</node>
	<node id="-445262" lat="60.0388517783" lon="5.51600732511">
		<tag k="name" v="Dalland" />
		<tag k="place" v="hamlet" />
		<tag k="ssr:stedsnr" v="672344" />
	</node>
	<node id="-445261" lat="60.041611759" lon="5.54818958601">
		<tag k="alt_name" v="Gjersvik" />
		<tag k="name" v="Gjerdsvik" />
		<tag k="place" v="hamlet" />
		<tag k="ssr:stedsnr" v="672339" />
	</node>
	<node id="-445259" lat="60.056227775" lon="5.60658332626">
		<tag k="name" v="Galanten" />
		<tag k="place" v="farm" />
		<tag k="ssr:stedsnr" v="672307" />
	</node>
	<node id="-445256" lat="60.06871834" lon="5.65203638168">
		<tag k="fixme" v="consider place=hamlet" />
		<tag k="name" v="Kattanes" />
		<tag k="place" v="farm" />
		<tag k="ssr:stedsnr" v="672264" />
	</node>
	<node id="-445254" lat="60.0539666659" lon="5.54189445196">
		<tag k="name" v="Kyrkjestølen" />
		<tag k="place" v="farm" />
		<tag k="ssr:stedsnr" v="672251" />
	</node>
	<node id="-445251" lat="60.0223410005" lon="5.42378549563">
		<tag k="name" v="Brattetveit" />
		<tag k="place" v="hamlet" />
		<tag k="ssr:stedsnr" v="672213" />
	</node>
	<node id="-445249" lat="60.0639069176" lon="5.41525785098">
		<tag k="name" v="Nordbø" />
		<tag k="place" v="farm" />
		<tag k="ssr:stedsnr" v="672166" />
	</node>
	<node id="-445243" lat="59.9031972196" lon="5.53518333611">
		<tag k="alt_name" v="Skår" />
		<tag k="name" v="Skor" />
		<tag k="place" v="farm" />
		<tag k="ssr:stedsnr" v="671719" />
	</node>
	<node id="-445242" lat="59.9073467768" lon="5.58141541335">
		<tag k="fixme" v="consider place=hamlet" />
		<tag k="name" v="Skjelevika" />
		<tag k="old_name" v="Skjeljavik" />
		<tag k="place" v="farm" />
		<tag k="ssr:stedsnr" v="671709" />
	</node>
	<node id="-445240" lat="59.9936999974" lon="5.60142500239">
		<tag k="fixme" v="consider place=hamlet" />
		<tag k="name" v="Skjolda" />
		<tag k="place" v="farm" />
		<tag k="ssr:stedsnr" v="671671" />
	</node>
	<node id="-445237" lat="59.9701180718" lon="5.63737526601">
		<tag k="fixme" v="consider place=hamlet" />
		<tag k="name" v="Berge" />
		<tag k="place" v="farm" />
		<tag k="ssr:stedsnr" v="671627" />
	</node>
	<node id="-445226" lat="59.9541472205" lon="5.56640278328">
		<tag k="name" v="Øvrehelland" />
		<tag k="place" v="farm" />
		<tag k="ssr:stedsnr" v="644939" />
	</node>
	<node id="-445225" lat="60.0409833335" lon="5.42104444207">
		<tag k="historic" v="shieling" />
		<tag k="name" v="Brakastølen" />
		<tag k="place" v="locality" />
		<tag k="ssr:stedsnr" v="644919" />
	</node>
	<node id="-445224" lat="59.9998111138" lon="5.37530833845">
		<tag k="name" v="Sunda" />
		<tag k="place" v="farm" />
		<tag k="ssr:stedsnr" v="644914" />
	</node>
	<node id="-445223" lat="59.9695388866" lon="5.42552221996">
		<tag k="name" v="Fredly" />
		<tag k="place" v="farm" />
		<tag k="ssr:stedsnr" v="644910" />
	</node>
	<node id="-445222" lat="60.055016664" lon="5.35826110293">
		<tag k="name" v="Søre Gjøvåg" />
		<tag k="place" v="farm" />
		<tag k="ssr:stedsnr" v="644906" />
	</node>
	<node id="-445181" lat="60.0465249985" lon="5.70074165791">
		<tag k="name" v="Kroken" />
		<tag k="place" v="farm" />
		<tag k="ssr:stedsnr" v="644228" />
	</node>
	<node id="-445164" lat="60.0610083355" lon="5.64462777202">
		<tag k="fixme" v="consider place=hamlet" />
		<tag k="name" v="Bakka" />
		<tag k="place" v="farm" />
		<tag k="ssr:stedsnr" v="643987" />
	</node>
	<node id="-445163" lat="60.0100472246" lon="5.69275278298">
		<tag k="name" v="Hovland" />
		<tag k="place" v="farm" />
		<tag k="ssr:stedsnr" v="643984" />
	</node>
	<node id="-445162" lat="59.9506638934" lon="5.62200834044">
		<tag k="name" v="Krabbakleiva" />
		<tag k="place" v="farm" />
		<tag k="ssr:stedsnr" v="643975" />
	</node>
	<node id="-445161" lat="59.8997638885" lon="5.64758610963">
		<tag k="name" v="Flornes" />
		<tag k="place" v="farm" />
		<tag k="ssr:stedsnr" v="643967" />
	</node>
	<node id="-445160" lat="59.8759333374" lon="5.61852777035">
		<tag k="name" v="Nedre Laukhammar" />
		<tag k="place" v="farm" />
		<tag k="ssr:stedsnr" v="643963" />
	</node>
	<node id="-445159" lat="60.0421972256" lon="5.56201111279">
		<tag k="name" v="Skarpatrædet" />
		<tag k="place" v="farm" />
		<tag k="ssr:stedsnr" v="643964" />
	</node>
	<node id="-445158" lat="60.0372500023" lon="5.51835834175">
		<tag k="name" v="Øvre Dalland" />
		<tag k="place" v="farm" />
		<tag k="ssr:stedsnr" v="643952" />
	</node>
	<node id="-445157" lat="59.9928722203" lon="5.49375000185">
		<tag k="name" v="Jensvoll" />
		<tag k="place" v="farm" />
		<tag k="ssr:stedsnr" v="643949" />
	</node>
	<node id="-445139" lat="60.0457416641" lon="5.56041110633">
		<tag k="name" v="Sæberg" />
		<tag k="place" v="farm" />
		<tag k="ssr:stedsnr" v="637078" />
	</node>
	<node id="-445138" lat="59.9840736637" lon="5.6692738185">
		<tag k="alt_name" v="Nedrevåge" />
		<tag k="name" v="Nedrevågen" />
		<tag k="place" v="farm" />
		<tag k="ssr:stedsnr" v="632380" />
	</node>
	<node id="-445129" lat="60.0222305535" lon="5.64418888446">
		<tag k="name" v="Ådnastegen" />
		<tag k="place" v="isolated_dwelling" />
		<tag k="ssr:stedsnr" v="611688" />
	</node>
	<node id="-445128" lat="60.0162000033" lon="5.47619999979">
		<tag k="name" v="Vollen" />
		<tag k="place" v="farm" />
		<tag k="ssr:stedsnr" v="611650" />
	</node>
	<node id="-445126" lat="60.0484025813" lon="5.62737877543">
		<tag k="fixme" v="consider place=hamlet" />
		<tag k="name" v="Belt" />
		<tag k="place" v="farm" />
		<tag k="ssr:stedsnr" v="611384" />
	</node>
	<node id="-445124" lat="60.034215976" lon="5.62307330602">
		<tag k="fixme" v="consider place=hamlet" />
		<tag k="name" v="Myrdal" />
		<tag k="place" v="farm" />
		<tag k="ssr:stedsnr" v="611331" />
	</node>
	<node id="-445121" lat="60.0607225797" lon="5.59820631251">
		<tag k="alt_name" v="Kjerafjorden" />
		<tag k="fixme" v="consider place=hamlet" />
		<tag k="name" v="Kjerafjord" />
		<tag k="place" v="farm" />
		<tag k="ssr:stedsnr" v="611254" />
	</node>
	<node id="-445110" lat="59.984087584" lon="5.67198047283">
		<tag k="alt_name" v="Våge, nedre" />
		<tag k="name" v="Nedre Våge" />
		<tag k="place" v="farm" />
		<tag k="ssr:stedsnr" v="610710" />
	</node>
	<node id="-445105" lat="59.9543907527" lon="5.56633486124">
		<tag k="name" v="Helland" />
		<tag k="place" v="hamlet" />
		<tag k="ssr:stedsnr" v="610667" />
	</node>
	<node id="-445101" lat="59.9672757733" lon="5.4958386105">
		<tag k="fixme" v="consider place=hamlet" />
		<tag k="name" v="Håviskeland" />
		<tag k="place" v="farm" />
		<tag k="ssr:stedsnr" v="610652" />
	</node>
	<node id="-445090" lat="59.9215658835" lon="5.52501189225">
		<tag k="alt_name" v="Torsnes" />
		<tag k="fixme" v="consider place=hamlet" />
		<tag k="name" v="Tornes" />
		<tag k="place" v="farm" />
		<tag k="ssr:stedsnr" v="601738" />
	</node>
	<node id="-445075" lat="59.9874055566" lon="5.67662222981">
		<tag k="name" v="Midtvåge" />
		<tag k="place" v="farm" />
		<tag k="ssr:stedsnr" v="583990" />
	</node>
	<node id="-445074" lat="60.0537777806" lon="5.61363054864">
		<tag k="name" v="Lønshaugen" />
		<tag k="place" v="farm" />
		<tag k="ssr:stedsnr" v="583989" />
	</node>
	<node id="-445073" lat="60.0628666661" lon="5.64651388903">
		<tag k="historic" v="shieling" />
		<tag k="name" v="Stølane" />
		<tag k="place" v="locality" />
		<tag k="ssr:stedsnr" v="583983" />
	</node>
	<node id="-445072" lat="59.9895277758" lon="5.59577777557">
		<tag k="name" v="Kletta" />
		<tag k="place" v="farm" />
		<tag k="ssr:stedsnr" v="583982" />
	</node>
	<node id="-445071" lat="59.9949138855" lon="5.68189444412">
		<tag k="name" v="Lie" />
		<tag k="place" v="farm" />
		<tag k="ssr:stedsnr" v="583975" />
	</node>
	<node id="-445070" lat="60.0059666661" lon="5.52685832614">
		<tag k="name" v="Opdal" />
		<tag k="place" v="farm" />
		<tag k="ssr:stedsnr" v="583933" />
	</node>
	<node id="-445069" lat="60.0143" lon="5.50775000633">
		<tag k="name" v="Raunebakken" />
		<tag k="place" v="farm" />
		<tag k="ssr:stedsnr" v="583927" />
	</node>
	<node id="-445017" lat="60.0513000036" lon="5.50005833727">
		<tag k="name" v="Ytre Teigland" />
		<tag k="place" v="farm" />
		<tag k="ssr:stedsnr" v="583213" />
	</node>
	<node id="-445014" lat="60.0715527751" lon="5.67020000907">
		<tag k="name" v="Dalen" />
		<tag k="place" v="farm" />
		<tag k="ssr:stedsnr" v="583199" />
	</node>
	<node id="-445013" lat="60.0368194437" lon="5.62031112016">
		<tag k="name" v="Storåkerhølen" />
		<tag k="place" v="farm" />
		<tag k="ssr:stedsnr" v="583198" />
	</node>
	<node id="-445000" lat="59.9181256376" lon="5.60766566635">
		<tag k="fixme" v="consider place=hamlet" />
		<tag k="name" v="Skorpetveit" />
		<tag k="place" v="farm" />
		<tag k="ssr:stedsnr" v="571766" />
	</node>
	<node id="-444998" lat="60.0716416703" lon="5.66824722745">
		<tag k="name" v="Synningeneset" />
		<tag k="place" v="farm" />
		<tag k="ssr:stedsnr" v="571301" />
	</node>
	<node id="-444990" lat="59.9767210619" lon="5.42014741811">
		<tag k="name" v="Amland" />
		<tag k="place" v="hamlet" />
		<tag k="ssr:stedsnr" v="610196" />
	</node>
	<node id="-444989" lat="59.9784242791" lon="5.41146168079">
		<tag k="fixme" v="consider place=hamlet" />
		<tag k="name" v="Håland" />
		<tag k="place" v="farm" />
		<tag k="ssr:stedsnr" v="610194" />
	</node>
	<node id="-444977" lat="59.9225394486" lon="5.62066062034">
		<tag k="fixme" v="consider place=hamlet" />
		<tag k="name" v="Sletteskogen" />
		<tag k="place" v="farm" />
		<tag k="ssr:stedsnr" v="550673" />
	</node>
	<node id="-444975" lat="60.0065308285" lon="5.52685926747">
		<tag k="fixme" v="consider place=hamlet" />
		<tag k="name" v="Uggdal" />
		<tag k="place" v="farm" />
		<tag k="ssr:stedsnr" v="550640" />
	</node>
	<node id="-444974" lat="60.0116583313" lon="5.64545832937">
		<tag k="name" v="Grostølen" />
		<tag k="place" v="isolated_dwelling" />
		<tag k="ssr:stedsnr" v="550634" />
	</node>
	<node id="-444971" lat="60.0248211548" lon="5.52714811176">
		<tag k="fixme" v="consider place=hamlet" />
		<tag k="name" v="Andersland" />
		<tag k="place" v="farm" />
		<tag k="ssr:stedsnr" v="550626" />
	</node>
	<node id="-444963" lat="60.0290349825" lon="5.43468963553">
		<tag k="name" v="Gjelland" />
		<tag k="place" v="hamlet" />
		<tag k="ssr:stedsnr" v="550244" />
	</node>
	<node id="-444958" lat="59.9967196215" lon="5.39791649837">
		<tag k="fixme" v="consider place=hamlet" />
		<tag k="name" v="Eversvik" />
		<tag k="place" v="farm" />
		<tag k="ssr:stedsnr" v="550139" />
	</node>
	<node id="-444956" lat="59.960035643" lon="5.5516667249">
		<tag k="fixme" v="consider place=hamlet" />
		<tag k="name" v="Mevatnet" />
		<tag k="place" v="farm" />
		<tag k="ssr:stedsnr" v="549609" />
	</node>
	<node id="-444948" lat="59.9890500001" lon="5.58961943562">
		<tag k="name" v="Singelstad" />
		<tag k="place" v="farm" />
		<tag k="ssr:stedsnr" v="523949" />
	</node>
	<node id="-444947" lat="59.953652775" lon="5.56091389172">
		<tag k="name" v="Kåstad" />
		<tag k="place" v="farm" />
		<tag k="ssr:stedsnr" v="523929" />
	</node>
	<node id="-444946" lat="59.9684555579" lon="5.58773333014">
		<tag k="historic" v="shieling" />
		<tag k="name" v="Saraselet" />
		<tag k="place" v="locality" />
		<tag k="ssr:stedsnr" v="523924" />
	</node>
	<node id="-444945" lat="59.9779217524" lon="5.56737769834">
		<tag k="fixme" v="consider place=hamlet" />
		<tag k="name" v="Vermedal" />
		<tag k="place" v="farm" />
		<tag k="ssr:stedsnr" v="523922" />
	</node>
	<node id="-444944" lat="60.0629527802" lon="5.41118889104">
		<tag k="fixme" v="consider place=hamlet" />
		<tag k="name" v="Øvra Hope" />
		<tag k="place" v="farm" />
		<tag k="ssr:stedsnr" v="523909" />
	</node>
	<node id="-444943" lat="59.9665944468" lon="5.4334">
		<tag k="name" v="Hillesvik" />
		<tag k="place" v="farm" />
		<tag k="ssr:stedsnr" v="523899" />
	</node>
	<node id="-444921" lat="60.0611972257" lon="5.64659722374">
		<tag k="fixme" v="consider place=hamlet" />
		<tag k="name" v="Kattaland" />
		<tag k="place" v="farm" />
		<tag k="ssr:stedsnr" v="523259" />
	</node>
	<node id="-444920" lat="60.0099027815" lon="5.47553889378">
		<tag k="name" v="Uggdalsstøa" />
		<tag k="place" v="farm" />
		<tag k="ssr:stedsnr" v="523247" />
	</node>
	<node id="-444904" lat="60.0713361142" lon="5.66802499182">
		<tag k="name" v="Svidene" />
		<tag k="place" v="farm" />
		<tag k="ssr:stedsnr" v="522992" />
	</node>
	<node id="-444903" lat="59.9751916696" lon="5.65386388018">
		<tag k="name" v="Teigen" />
		<tag k="place" v="farm" />
		<tag k="ssr:stedsnr" v="522968" />
	</node>
	<node id="-444879" lat="60.0628250044" lon="5.64197777379">
		<tag k="name" v="Øvra Lunde" />
		<tag k="place" v="farm" />
		<tag k="ssr:stedsnr" v="516075" />
	</node>
	<node id="-444878" lat="60.0057194464" lon="5.50642777526">
		<tag k="name" v="To" />
		<tag k="place" v="farm" />
		<tag k="ssr:stedsnr" v="516058" />
	</node>
	<node id="-444877" lat="59.9876083373" lon="5.43558610849">
		<tag k="name" v="Færavåg" />
		<tag k="place" v="farm" />
		<tag k="ssr:stedsnr" v="516055" />
	</node>
	<node id="-444870" lat="59.9614166639" lon="5.6388277772">
		<tag k="name" v="Grønlund" />
		<tag k="place" v="farm" />
		<tag k="ssr:stedsnr" v="511136" />
	</node>
	<node id="-444834" lat="59.991784768" lon="5.6832546123">
		<tag k="fixme" v="consider place=hamlet" />
		<tag k="name" v="Årbakka" />
		<tag k="place" v="farm" />
		<tag k="ssr:stedsnr" v="489701" />
	</node>
	<node id="-444833" lat="59.9919212905" lon="5.67861997554">
		<tag k="alt_name" v="Meland" />
		<tag k="fixme" v="consider place=hamlet" />
		<tag k="name" v="Mæland" />
		<tag k="place" v="farm" />
		<tag k="ssr:stedsnr" v="489692" />
	</node>
	<node id="-444832" lat="59.9562777773" lon="5.63045833983">
		<tag k="name" v="Liland" />
		<tag k="place" v="farm" />
		<tag k="ssr:stedsnr" v="489689" />
	</node>
	<node id="-444824" lat="59.9711446553" lon="5.46460350671">
		<tag k="name" v="Kleppa" />
		<tag k="place" v="hamlet" />
		<tag k="ssr:stedsnr" v="489200" />
	</node>
	<node id="-444823" lat="59.9768182172" lon="5.40126242337">
		<tag k="alt_name" v="Landrøy" />
		<tag k="fixme" v="consider place=hamlet" />
		<tag k="name" v="Landrøyo" />
		<tag k="place" v="farm" />
		<tag k="ssr:stedsnr" v="489188" />
	</node>
	<node id="-444820" lat="60.0511071539" lon="5.50184156892">
		<tag k="alt_name" v="Tegland" />
		<tag k="fixme" v="consider place=hamlet" />
		<tag k="name" v="Teigland" />
		<tag k="place" v="farm" />
		<tag k="ssr:stedsnr" v="481296" />
	</node>
	<node id="-444808" lat="59.9783305519" lon="5.39975555909">
		<tag k="name" v="Landråa" />
		<tag k="place" v="farm" />
		<tag k="ssr:stedsnr" v="462895" />
	</node>
	<node id="-444792" lat="59.949257723" lon="5.62477732633">
		<tag k="fixme" v="consider place=hamlet" />
		<tag k="name" v="Onarheim" />
		<tag k="place" v="farm" />
		<tag k="ssr:stedsnr" v="462974" />
	</node>
	<node id="-444791" lat="60.0523638856" lon="5.51129999141">
		<tag k="name" v="Myra" />
		<tag k="place" v="farm" />
		<tag k="ssr:stedsnr" v="462939" />
	</node>
	<node id="-444755" lat="60.0609411096" lon="5.4098630848">
		<tag k="alt_name" v="Nedre Hope" />
		<tag k="fixme" v="consider place=hamlet" />
		<tag k="name" v="Nedra Hope" />
		<tag k="place" v="farm" />
		<tag k="ssr:stedsnr" v="462189" />
	</node>
	<node id="-444724" lat="60.0618013183" lon="5.66514128434">
		<tag k="fixme" v="consider place=hamlet" />
		<tag k="name" v="Gripne" />
		<tag k="place" v="farm" />
		<tag k="ssr:stedsnr" v="430264" />
	</node>
	<node id="-444722" lat="60.0620831829" lon="5.5959442711">
		<tag k="fixme" v="consider place=hamlet" />
		<tag k="loc_name" v="Skipavika" />
		<tag k="name" v="Skiparvik" />
		<tag k="place" v="farm" />
		<tag k="ssr:stedsnr" v="430248" />
	</node>
	<node id="-444713" lat="59.9085981824" lon="5.5299362461">
		<tag k="alt_name" v="Skår" />
		<tag k="fixme" v="consider place=hamlet" />
		<tag k="name" v="Skor" />
		<tag k="place" v="farm" />
		<tag k="ssr:stedsnr" v="429689" />
	</node>
	<node id="-444711" lat="59.9195046893" lon="5.64690329968">
		<tag k="fixme" v="consider place=hamlet" />
		<tag k="name" v="Espevik" />
		<tag k="place" v="farm" />
		<tag k="ssr:stedsnr" v="429673" />
	</node>
	<node id="-444703" lat="60.0455083354" lon="5.62845555873">
		<tag k="name" v="Hagestad" />
		<tag k="place" v="farm" />
		<tag k="ssr:stedsnr" v="429349" />
	</node>
	<node id="-444692" lat="59.9614333287" lon="5.48313888096">
		<tag k="alt_name" v="Leitesvik" />
		<tag k="name" v="Leitesvika" />
		<tag k="place" v="isolated_dwelling" />
		<tag k="ssr:stedsnr" v="428603" />
	</node>
	<node id="-444691" lat="59.9592560896" lon="5.50868933452">
		<tag k="fixme" v="consider place=hamlet" />
		<tag k="name" v="Tveit" />
		<tag k="place" v="farm" />
		<tag k="ssr:stedsnr" v="428599" />
	</node>
	<node id="-444688" lat="59.9721385861" lon="5.4410547061">
		<tag k="fixme" v="consider place=hamlet" />
		<tag k="name" v="Raunebakken" />
		<tag k="place" v="farm" />
		<tag k="ssr:stedsnr" v="428155" />
	</node>
	<node id="-444686" lat="59.9456543592" lon="5.51383031411">
		<tag k="fixme" v="consider place=hamlet" />
		<tag k="name" v="Flatråker" />
		<tag k="place" v="farm" />
		<tag k="ssr:stedsnr" v="421744" />
	</node>
	<node id="-444683" lat="59.9247472253" lon="5.52210278527">
		<tag k="historic" v="shieling" />
		<tag k="name" v="Nordstølen" />
		<tag k="place" v="locality" />
		<tag k="ssr:stedsnr" v="268771" />
	</node>
	<node id="-444681" lat="60.0256694483" lon="5.70680278401">
		<tag k="name" v="Nordvik" />
		<tag k="place" v="farm" />
		<tag k="ssr:stedsnr" v="268348" />
	</node>
	<node id="-444674" lat="60.0529121788" lon="5.63090657343">
		<tag k="fixme" v="consider place=hamlet" />
		<tag k="name" v="Grimsland" />
		<tag k="place" v="farm" />
		<tag k="ssr:stedsnr" v="248326" />
	</node>
	<node id="-444673" lat="60.0510671023" lon="5.53910079486">
		<tag k="fixme" v="consider place=hamlet" />
		<tag k="name" v="Tysnes" />
		<tag k="place" v="farm" />
		<tag k="ssr:stedsnr" v="248270" />
	</node>
	<node id="-444671" lat="60.0733527421" lon="5.36182296644">
		<tag k="fixme" v="consider place=hamlet" />
		<tag k="name" v="Kaldafoss" />
		<tag k="place" v="farm" />
		<tag k="ssr:stedsnr" v="247908" />
	</node>
	<node id="-444670" lat="59.9260320122" lon="5.60096779412">
		<tag k="fixme" v="consider place=hamlet" />
		<tag k="name" v="Skata" />
		<tag k="place" v="farm" />
		<tag k="ssr:stedsnr" v="247731" />
	</node>
	<node id="-444665" lat="59.9980916668" lon="5.69680555139">
		<tag k="name" v="Kvalvågen" />
		<tag k="place" v="farm" />
		<tag k="ssr:stedsnr" v="247648" />
	</node>
	<node id="-444664" lat="59.9912320131" lon="5.60245994448">
		<tag k="fixme" v="consider place=hamlet" />
		<tag k="name" v="Solheim" />
		<tag k="place" v="farm" />
		<tag k="ssr:stedsnr" v="247641" />
	</node>
	<node id="-444663" lat="59.9850027823" lon="5.67303333559">
		<tag k="alt_name" v="Våge, øvre;Våge" />
		<tag k="name" v="Øvre Våge" />
		<tag k="place" v="farm" />
		<tag k="ssr:stedsnr" v="247638" />
	</node>
	<node id="-444661" lat="59.9430242286" lon="5.47878816204">
		<tag k="alt_name" v="Neset" />
		<tag k="fixme" v="consider place=hamlet" />
		<tag k="name" v="Nese" />
		<tag k="place" v="farm" />
		<tag k="ssr:stedsnr" v="247630" />
	</node>
	<node id="-444660" lat="60.0238706701" lon="5.51382037182">
		<tag k="fixme" v="consider place=hamlet" />
		<tag k="name" v="Hollekje" />
		<tag k="place" v="farm" />
		<tag k="ssr:stedsnr" v="247628" />
	</node>
	<node id="-444659" lat="59.9889172511" lon="5.46621922301">
		<tag k="name" v="Beltestad" />
		<tag k="place" v="hamlet" />
		<tag k="ssr:stedsnr" v="247556" />
	</node>
	<node id="-444657" lat="60.0450884616" lon="5.57956974974">
		<tag k="fixme" v="consider place=hamlet" />
		<tag k="name" v="Valla" />
		<tag k="place" v="farm" />
		<tag k="ssr:stedsnr" v="247356" />
	</node>
	<node id="-444654" lat="60.046000001" lon="5.70150277003">
		<tag k="name" v="Kroken" />
		<tag k="place" v="farm" />
		<tag k="ssr:stedsnr" v="247291" />
	</node>
	<node id="-444647" lat="60.0620515756" lon="5.41192662485">
		<tag k="name" v="Hope" />
		<tag k="place" v="hamlet" />
		<tag k="ssr:stedsnr" v="247155" />
	</node>
	<node id="-444645" lat="60.0433323443" lon="5.42482323154">
		<tag k="name" v="Bruntveit" />
		<tag k="place" v="hamlet" />
		<tag k="ssr:stedsnr" v="247131" />
	</node>
	<node id="-444639" lat="59.9123509225" lon="5.68651389646">
		<tag k="fixme" v="consider place=hamlet" />
		<tag k="name" v="Seløya" />
		<tag k="place" v="farm" />
		<tag k="ssr:stedsnr" v="246669" />
	</node>
	<node id="-444638" lat="59.9538515577" lon="5.56099826428">
		<tag k="fixme" v="consider place=hamlet" />
		<tag k="name" v="Koste" />
		<tag k="place" v="farm" />
		<tag k="ssr:stedsnr" v="246610" />
	</node>
	<node id="-444637" lat="59.9739305539" lon="5.65175555977">
		<tag k="name" v="Teigen" />
		<tag k="place" v="locality" />
		<tag k="ssr:stedsnr" v="246592" />
	</node>
	<node id="-444631" lat="60.007336111" lon="5.47535555466">
		<tag k="name" v="Hårstøa" />
		<tag k="place" v="farm" />
		<tag k="ssr:stedsnr" v="236365" />
	</node>
	<node id="-444598" lat="60.0496888857" lon="5.51485554905">
		<tag k="fixme" v="consider place=hamlet" />
		<tag k="name" v="Ytre Ve" />
		<tag k="place" v="farm" />
		<tag k="ssr:stedsnr" v="220290" />
	</node>
	<node id="-444585" lat="59.9220111153" lon="5.71447222395">
		<tag k="name" v="Ånuglo" />
		<tag k="place" v="farm" />
		<tag k="ssr:stedsnr" v="219997" />
	</node>
	<node id="-444584" lat="60.0144527768" lon="5.69029444195">
		<tag k="name" v="Høgestøl" />
		<tag k="place" v="farm" />
		<tag k="ssr:stedsnr" v="219985" />
	</node>
	<node id="-444583" lat="60.0158138906" lon="5.69463056115">
		<tag k="name" v="Indra Hovland" />
		<tag k="place" v="farm" />
		<tag k="ssr:stedsnr" v="219984" />
	</node>
	<node id="-444582" lat="59.8754138847" lon="5.61662222254">
		<tag k="name" v="Øvre Laukhammar" />
		<tag k="place" v="farm" />
		<tag k="ssr:stedsnr" v="219964" />
	</node>
	<node id="-444581" lat="60.0421416634" lon="5.53199444378">
		<tag k="name" v="Nedre Gjerstad" />
		<tag k="place" v="farm" />
		<tag k="ssr:stedsnr" v="219960" />
	</node>
	<node id="-444580" lat="59.9612222204" lon="5.48372499692">
		<tag k="name" v="Leitesvika" />
		<tag k="place" v="farm" />
		<tag k="ssr:stedsnr" v="219931" />
	</node>
	<node id="-444579" lat="59.9144861081" lon="5.57513610984">
		<tag k="building" v="commercial" />
		<tag k="name" v="Ytrasætra" />
		<tag k="ssr:stedsnr" v="219924" />
	</node>
	<node id="-444578" lat="60.0452388904" lon="5.44182222591">
		<tag k="name" v="Rafto" />
		<tag k="place" v="farm" />
		<tag k="ssr:stedsnr" v="219912" />
	</node>
	<node id="-443759" lat="60.0288166685" lon="5.59747499836">
		<tag k="historic" v="shieling" />
		<tag k="name" v="Prestesætra" />
		<tag k="place" v="locality" />
		<tag k="ssr:stedsnr" v="308618" />
	</node>
	<node id="-444545" lat="60.0065277739" lon="5.50430000204">
		<tag k="name" v="To" />
		<tag k="place" v="farm" />
		<tag k="ssr:stedsnr" v="213066" />
	</node>
	<node id="-444544" lat="59.9095055596" lon="5.59295555996">
		<tag k="name" v="Hauge" />
		<tag k="place" v="isolated_dwelling" />
		<tag k="ssr:stedsnr" v="207772" />
	</node>
	<node id="-444543" lat="59.9033916694" lon="5.57789167194">
		<tag k="alt_name" v="Kalvavika" />
		<tag k="name" v="Kalvavik" />
		<tag k="place" v="isolated_dwelling" />
		<tag k="ssr:stedsnr" v="207765" />
	</node>
	<node id="-444538" lat="59.9421805515" lon="5.51214167041">
		<tag k="name" v="Utlebøen" />
		<tag k="place" v="farm" />
		<tag k="ssr:stedsnr" v="207723" />
	</node>
	<node id="-444530" lat="60.005132564" lon="5.50163841114">
		<tag k="fixme" v="consider place=hamlet" />
		<tag k="name" v="To" />
		<tag k="place" v="farm" />
		<tag k="ssr:stedsnr" v="187632" />
	</node>
	<node id="-444528" lat="60.0040165219" lon="5.69246222252">
		<tag k="fixme" v="consider place=hamlet" />
		<tag k="name" v="Tveit" />
		<tag k="place" v="farm" />
		<tag k="ssr:stedsnr" v="187672" />
	</node>
	<node id="-444524" lat="60.0217382001" lon="5.43097015838">
		<tag k="fixme" v="consider place=hamlet" />
		<tag k="name" v="Ersvær" />
		<tag k="place" v="farm" />
		<tag k="ssr:stedsnr" v="187221" />
	</node>
	<node id="-444522" lat="60.0558982084" lon="5.36026464141">
		<tag k="name" v="Gjøvåg" />
		<tag k="place" v="hamlet" />
		<tag k="ssr:stedsnr" v="187169" />
	</node>
	<node id="-444520" lat="59.9339594112" lon="5.52385008939">
		<tag k="fixme" v="consider place=hamlet" />
		<tag k="name" v="Økland" />
		<tag k="old_name" v="Okland" />
		<tag k="place" v="farm" />
		<tag k="ssr:stedsnr" v="186750" />
	</node>
	<node id="-444514" lat="59.9973555599" lon="5.49446944836">
		<tag k="name" v="Uggdalseidet" />
		<tag k="place" v="hamlet" />
		<tag k="ssr:stedsnr" v="186631" />
	</node>
	<node id="-444509" lat="60.0452388852" lon="5.47463056165">
		<tag k="name" v="Bratto" />
		<tag k="place" v="farm" />
		<tag k="ssr:stedsnr" v="186372" />
	</node>
	<node id="-444508" lat="60.042074954" lon="5.47298597147">
		<tag k="name" v="Grøteid" />
		<tag k="place" v="hamlet" />
		<tag k="ssr:stedsnr" v="186371" />
	</node>
	<node id="-444497" lat="59.9784472186" lon="5.39948333124">
		<tag k="name" v="Gangstøa" />
		<tag k="place" v="farm" />
		<tag k="ssr:stedsnr" v="186161" />
	</node>
	<node id="-444496" lat="59.9769376139" lon="5.44218901057">
		<tag k="fixme" v="consider place=hamlet" />
		<tag k="name" v="Sætre" />
		<tag k="place" v="farm" />
		<tag k="ssr:stedsnr" v="186159" />
	</node>
	<node id="-444487" lat="60.0165388911" lon="5.48898056308">
		<tag k="name" v="Litleheie" />
		<tag k="place" v="farm" />
		<tag k="ssr:stedsnr" v="159941" />
	</node>
	<node id="-444486" lat="59.9775844931" lon="5.41071234286">
		<tag k="name" v="Håland" />
		<tag k="place" v="farm" />
		<tag k="ssr:stedsnr" v="159903" />
	</node>
	<node id="-444458" lat="60.0694840884" lon="5.56384497914">
		<tag k="name" v="Hamnen" />
		<tag k="place" v="farm" />
		<tag k="ssr:stedsnr" v="159263" />
	</node>
	<node id="-444434" lat="60.016988885" lon="5.35110000049">
		<tag k="name" v="Nedra" />
		<tag k="place" v="farm" />
		<tag k="ssr:stedsnr" v="158996" />
	</node>
	<node id="-444422" lat="60.040841664" lon="5.54165278303">
		<tag k="name" v="Øvre Gjerstad" />
		<tag k="place" v="farm" />
		<tag k="ssr:stedsnr" v="158974" />
	</node>
	<node id="-444421" lat="59.926291669" lon="5.60210277912">
		<tag k="name" v="Skato" />
		<tag k="place" v="farm" />
		<tag k="ssr:stedsnr" v="158971" />
	</node>
	<node id="-444420" lat="59.9026749967" lon="5.53353056472">
		<tag k="name" v="Slettene" />
		<tag k="place" v="farm" />
		<tag k="ssr:stedsnr" v="158918" />
	</node>
</osm>
