<?xml version="1.0" encoding="UTF-8"?>
<osm version="0.6" generator="osmapis">
	<node lat="58.89817222314307" lon="8.5380666582797" id="-25876">
		<tag k="name" v="Tjønnveien" />
		<tag k="ssr:date" v="2019-12-27" />
		<tag k="ssr:gruppe" v="veg" />
		<tag k="ssr:hovedgruppe" v="infrastruktur" />
		<tag k="ssr:stedsnr" v="577045" />
		<tag k="ssr:type" v="vegstrekning" />
	</node>
	<node lat="58.73559999980456" lon="8.215850003790907" id="-25939">
		<tag k="name" v="Vågsdalsvegen" />
		<tag k="ssr:date" v="2019-12-27" />
		<tag k="ssr:gruppe" v="veg" />
		<tag k="ssr:hovedgruppe" v="infrastruktur" />
		<tag k="ssr:stedsnr" v="597013" />
		<tag k="ssr:type" v="vegstrekning" />
	</node>
	<node lat="58.708649998251424" lon="8.350677778394315" id="-26259">
		<tag k="name" v="Krokstevegen" />
		<tag k="ssr:date" v="2019-12-27" />
		<tag k="ssr:gruppe" v="veg" />
		<tag k="ssr:hovedgruppe" v="infrastruktur" />
		<tag k="ssr:stedsnr" v="700426" />
		<tag k="ssr:type" v="vegstrekning" />
	</node>
	<node lat="58.76011666529262" lon="8.509661110349086" id="-27065">
		<tag k="name" v="Fjellvegen" />
		<tag k="ssr:date" v="2019-12-27" />
		<tag k="ssr:gruppe" v="veg" />
		<tag k="ssr:hovedgruppe" v="infrastruktur" />
		<tag k="ssr:stedsnr" v="31231" />
		<tag k="ssr:type" v="vegstrekning" />
	</node>
	<node lat="58.70886666691769" lon="8.311583337108244" id="-27342">
		<tag k="name" v="Øykilvegen" />
		<tag k="ssr:date" v="2019-12-27" />
		<tag k="ssr:gruppe" v="veg" />
		<tag k="ssr:hovedgruppe" v="infrastruktur" />
		<tag k="ssr:stedsnr" v="112589" />
		<tag k="ssr:type" v="vegstrekning" />
	</node>
</osm>
