<?xml version="1.0" encoding="UTF-8"?>
<osm generator="osmapis" version="0.6">
	<node id="-51872" lat="60.0156083313" lon="12.395636112">
		<tag k="historic" v="boundary_stone" />
		<tag k="man_made" v="cairn" />
		<tag k="name" v="Storøyrøysa" />
		<tag k="old_name" v="Storøens Røset" />
		<tag k="place" v="locality" />
		<tag k="ssr:stedsnr" v="960366" />
	</node>
	<node id="-49408" lat="60.3431944472" lon="12.303530559">
		<tag k="fixme" v="specify shooting=range, clay_pigeon etc" />
		<tag k="leisure" v="pitch" />
		<tag k="name" v="Holajordet" />
		<tag k="sport" v="shooting" />
		<tag k="ssr:stedsnr" v="163067" />
	</node>
	<node id="-51642" lat="60.1030499963" lon="12.5023583255">
		<tag k="historic" v="boundary_stone" />
		<tag k="man_made" v="cairn" />
		<tag k="name" v="Østre Varaldsrøysa" />
		<tag k="old_name" v="Østre Varalds Røset" />
		<tag k="place" v="locality" />
		<tag k="ssr:stedsnr" v="899426" />
	</node>
	<node id="-49049" lat="60.3537611091" lon="12.0647305642">
		<tag k="fixme" v="consider boundary=protected_area and relevant protect_class if not nature reserve" />
		<tag k="leisure" v="nature_reserve" />
		<tag k="name" v="Vålerberget naturreservat" />
		<tag k="ssr:stedsnr" v="59489" />
	</node>
	<node id="-50776" lat="60.1363250025" lon="12.5166944494">
		<tag k="historic" v="boundary_stone" />
		<tag k="man_made" v="cairn" />
		<tag k="name" v="Smaltjennsrøysa" />
		<tag k="old_name" v="Smalkiærns Røset" />
		<tag k="place" v="locality" />
		<tag k="ssr:stedsnr" v="656425" />
	</node>
	<node id="-48918" lat="60.3178749962" lon="11.888169451">
		<tag k="historic" v="boundary_stone" />
		<tag k="man_made" v="cairn" />
		<tag k="name" v="Furukongen" />
		<tag k="place" v="locality" />
		<tag k="ssr:stedsnr" v="21018" />
	</node>
	<node id="-51221" lat="60.0391805544" lon="12.4485166635">
		<tag k="historic" v="boundary_stone" />
		<tag k="man_made" v="cairn" />
		<tag k="name" v="Lystjennsrøysa" />
		<tag k="old_name" v="Lyskiærns Røset" />
		<tag k="place" v="locality" />
		<tag k="ssr:stedsnr" v="777400" />
	</node>
	<node id="-51220" lat="60.026555552" lon="12.4248055522">
		<tag k="historic" v="boundary_stone" />
		<tag k="man_made" v="cairn" />
		<tag k="name" v="Raumyrrøysa" />
		<tag k="old_name" v="Rødmyyrens Røse" />
		<tag k="place" v="locality" />
		<tag k="ssr:stedsnr" v="777366" />
	</node>
	<node id="-49433" lat="60.0730444434" lon="12.4805500081">
		<tag k="historic" v="boundary_stone" />
		<tag k="man_made" v="cairn" />
		<tag k="name" v="Skålsjørøysa" />
		<tag k="old_name" v="Skaalsiøe Røset" />
		<tag k="place" v="locality" />
		<tag k="ssr:stedsnr" v="170432" />
	</node>
	<node id="-49199" lat="60.0948972254" lon="12.4974194492">
		<tag k="historic" v="boundary_stone" />
		<tag k="man_made" v="cairn" />
		<tag k="name" v="Vestre Varaldsrøysa" />
		<tag k="old_name" v="Vestre Varalds Røset" />
		<tag k="place" v="locality" />
		<tag k="ssr:stedsnr" v="110436" />
	</node>
	<node id="-49675" lat="60.0990722195" lon="12.5006444438">
		<tag k="historic" v="boundary_stone" />
		<tag k="man_made" v="cairn" />
		<tag k="name" v="Staken" />
		<tag k="old_name" v="Staken i Warallen" />
		<tag k="place" v="locality" />
		<tag k="ssr:stedsnr" v="231461" />
	</node>
	<node id="-49674" lat="60.2236361102" lon="12.5250250006">
		<tag k="historic" v="boundary_stone" />
		<tag k="man_made" v="cairn" />
		<tag k="name" v="Kvernrøysa" />
		<tag k="old_name" v="Qverns Røset" />
		<tag k="place" v="locality" />
		<tag k="ssr:stedsnr" v="231454" />
	</node>
	<node id="-49929" lat="60.1333333357" lon="12.4319861097">
		<tag k="fixme" v="consider boundary=protected_area and relevant protect_class if not nature reserve" />
		<tag k="leisure" v="nature_reserve" />
		<tag k="name" v="Holmby naturreservat" />
		<tag k="ssr:stedsnr" v="424444" />
	</node>
</osm>
