<?xml version="1.0" encoding="UTF-8"?>
<osm generator="osmapis" version="0.6">
	<node id="-51200" lat="60.0953694452" lon="12.3208583307">
		<tag k="name" v="Sagåa" />
		<tag k="ssr:stedsnr" v="783758" />
		<tag k="waterway" v="river" />
	</node>
	<node id="-49148" lat="60.3069833305" lon="11.9107444523">
		<tag k="name" v="Tutjenna" />
		<tag k="natural" v="water" />
		<tag k="ssr:stedsnr" v="103256" />
		<tag k="water" v="lake" />
	</node>
	<node id="-51192" lat="60.2201861078" lon="12.2237972157">
		<tag k="name" v="Mengebergsbekken" />
		<tag k="ssr:stedsnr" v="783400" />
		<tag k="waterway" v="stream" />
	</node>
	<node id="-51190" lat="60.2270166682" lon="12.2107583336">
		<tag k="name" v="Erikstjennet" />
		<tag k="natural" v="water" />
		<tag k="ssr:stedsnr" v="783395" />
	</node>
	<node id="-51187" lat="60.1615305592" lon="12.4621888911">
		<tag k="name" v="Otertjennet" />
		<tag k="natural" v="water" />
		<tag k="ssr:stedsnr" v="783168" />
	</node>
	<node id="-51183" lat="60.3618277748" lon="12.3408222146">
		<tag k="name" v="Orrnabben" />
		<tag k="natural" v="cape" />
		<tag k="ssr:stedsnr" v="783025" />
	</node>
	<node id="-51182" lat="60.367922223" lon="12.3434666661">
		<tag k="name" v="Kvalosholmen" />
		<tag k="place" v="islet" />
		<tag k="ssr:stedsnr" v="783022" />
	</node>
	<node id="-49132" lat="60.1961472233" lon="12.5394166721">
		<tag k="name" v="Råbergstjennet" />
		<tag k="natural" v="water" />
		<tag k="ssr:stedsnr" v="102407" />
	</node>
	<node id="-51173" lat="60.1800027745" lon="12.3165249937">
		<tag k="name" v="Mengetjennet" />
		<tag k="natural" v="water" />
		<tag k="ssr:stedsnr" v="770954" />
	</node>
	<node id="-51170" lat="60.1087277776" lon="11.9387666668">
		<tag k="name" v="Dolpebekken" />
		<tag k="ssr:stedsnr" v="770705" />
		<tag k="waterway" v="stream" />
	</node>
	<node id="-51169" lat="60.0843222192" lon="11.9453777818">
		<tag k="name" v="Furukollbekken" />
		<tag k="ssr:stedsnr" v="770694" />
		<tag k="waterway" v="stream" />
	</node>
	<node id="-51164" lat="60.3928888866" lon="12.299080563">
		<tag k="name" v="Kuphaugen" />
		<tag k="place" v="islet" />
		<tag k="ssr:stedsnr" v="770391" />
	</node>
	<node id="-49112" lat="60.2636861133" lon="12.0612972236">
		<tag k="name" v="Gjølstadsætertjennet" />
		<tag k="natural" v="water" />
		<tag k="ssr:stedsnr" v="82014" />
	</node>
	<node id="-49111" lat="60.3012249959" lon="11.92556667">
		<tag k="name" v="Ringshelletjennet" />
		<tag k="natural" v="water" />
		<tag k="ssr:stedsnr" v="67535" />
	</node>
	<node id="-49098" lat="60.2753722188" lon="12.0982750007">
		<tag k="name" v="Skasåa" />
		<tag k="ssr:stedsnr" v="67404" />
		<tag k="waterway" v="river" />
	</node>
	<node id="-49095" lat="60.3222888913" lon="11.9387027694">
		<tag k="name" v="Rudsætertjennet" />
		<tag k="natural" v="water" />
		<tag k="ssr:stedsnr" v="67314" />
	</node>
	<node id="-51141" lat="60.2794083306" lon="12.1927833394">
		<tag k="name" v="Smellopp" />
		<tag k="natural" v="cape" />
		<tag k="ssr:stedsnr" v="767553" />
	</node>
	<node id="-51140" lat="60.2714194482" lon="12.1790500036">
		<tag k="name" v="Veslejelltjennet" />
		<tag k="natural" v="water" />
		<tag k="ssr:stedsnr" v="767551" />
	</node>
	<node id="-49091" lat="60.2722249969" lon="12.4766444474">
		<tag k="name" v="Paskobekken" />
		<tag k="ssr:stedsnr" v="67201" />
		<tag k="waterway" v="stream" />
	</node>
	<node id="-49090" lat="60.2740916667" lon="12.5080916687">
		<tag k="name" v="Ingervadsjøen" />
		<tag k="natural" v="water" />
		<tag k="ssr:stedsnr" v="67202" />
	</node>
	<node id="-49086" lat="60.2967249959" lon="12.4041222149">
		<tag k="name" v="Midtre Blekketjennet" />
		<tag k="natural" v="water" />
		<tag k="ssr:stedsnr" v="67162" />
	</node>
	<node id="-51132" lat="60.1623166689" lon="11.9346583317">
		<tag k="name" v="Gørtjennet" />
		<tag k="natural" v="water" />
		<tag k="ssr:stedsnr" v="751188" />
	</node>
	<node id="-51126" lat="60.1308805522" lon="12.3106499909">
		<tag k="name" v="Åbbortjenn" />
		<tag k="natural" v="water" />
		<tag k="ssr:stedsnr" v="734973" />
	</node>
	<node id="-51125" lat="60.1462583319" lon="12.4694916731">
		<tag k="name" v="Nøkketjennet" />
		<tag k="natural" v="water" />
		<tag k="ssr:stedsnr" v="734961" />
	</node>
	<node id="-51123" lat="60.2141055541" lon="12.3842611064">
		<tag k="name" v="Stampetjenn" />
		<tag k="natural" v="water" />
		<tag k="ssr:stedsnr" v="734798" />
	</node>
	<node id="-51120" lat="60.1061250019" lon="12.3810499934">
		<tag k="name" v="Åbbortjenn" />
		<tag k="natural" v="water" />
		<tag k="ssr:stedsnr" v="734650" />
	</node>
	<node id="-51119" lat="60.1041113273" lon="11.910653571">
		<tag k="name" v="Svartbørja" />
		<tag k="natural" v="water" />
		<tag k="ssr:stedsnr" v="734574" />
		<tag k="water" v="lake" />
	</node>
	<node id="-51118" lat="60.2977583357" lon="12.0460416687">
		<tag k="name" v="Rya" />
		<tag k="ssr:stedsnr" v="734547" />
		<tag k="waterway" v="stream" />
	</node>
	<node id="-49068" lat="60.1926600333" lon="12.5256356737">
		<tag k="name" v="Særgilamp" />
		<tag k="natural" v="water" />
		<tag k="ssr:stedsnr" v="66767" />
		<tag k="water" v="lake" />
	</node>
	<node id="-49067" lat="60.1857138877" lon="12.5097499989">
		<tag k="name" v="Smaltjennet" />
		<tag k="natural" v="water" />
		<tag k="ssr:stedsnr" v="66747" />
	</node>
	<node id="-51114" lat="60.3199361131" lon="11.934705557">
		<tag k="name" v="Langgardstjennet" />
		<tag k="natural" v="water" />
		<tag k="ssr:stedsnr" v="734502" />
	</node>
	<node id="-51112" lat="60.2866972245" lon="12.1750722281">
		<tag k="alt_name" v="Åfloen, l" />
		<tag k="name" v="Vesle Åfloen" />
		<tag k="place" v="locality" />
		<tag k="ssr:stedsnr" v="734433" />
	</node>
	<node id="-49063" lat="60.1419861122" lon="11.9913861198">
		<tag k="name" v="Holerfløyta" />
		<tag k="natural" v="water" />
		<tag k="ssr:stedsnr" v="66573" />
	</node>
	<node id="-49061" lat="60.1688555596" lon="12.1827250088">
		<tag k="name" v="Ringhavet" />
		<tag k="natural" v="water" />
		<tag k="ssr:stedsnr" v="66551" />
	</node>
	<node id="-49059" lat="60.1304555521" lon="12.0501638883">
		<tag k="alt_name" v="Berimellomfløyta;Lierfløyta" />
		<tag k="name" v="Fløyta" />
		<tag k="natural" v="water" />
		<tag k="ssr:stedsnr" v="66535" />
	</node>
	<node id="-49057" lat="60.1397527745" lon="11.9198500015">
		<tag k="name" v="Blokka" />
		<tag k="natural" v="water" />
		<tag k="ssr:stedsnr" v="66520" />
	</node>
	<node id="-49052" lat="60.3631388862" lon="12.323419444">
		<tag k="name" v="Storholmen" />
		<tag k="place" v="islet" />
		<tag k="ssr:stedsnr" v="66188" />
	</node>
	<node id="-50842" lat="60.1250194426" lon="12.4979500009">
		<tag k="name" v="Abbortjenn" />
		<tag k="natural" v="water" />
		<tag k="ssr:stedsnr" v="672939" />
	</node>
	<node id="-49050" lat="60.2662083326" lon="12.3977500005">
		<tag k="name" v="Sanatjenna" />
		<tag k="natural" v="water" />
		<tag k="ssr:stedsnr" v="66165" />
		<tag k="water" v="lake" />
	</node>
	<node id="-51096" lat="60.2991805523" lon="12.3994527785">
		<tag k="name" v="Nordre Blekketjennet" />
		<tag k="natural" v="water" />
		<tag k="ssr:stedsnr" v="734152" />
	</node>
	<node id="-49047" lat="60.0634416677" lon="12.3207666608">
		<tag k="name" v="Svintjenn" />
		<tag k="natural" v="water" />
		<tag k="ssr:stedsnr" v="66104" />
	</node>
	<node id="-49044" lat="60.07993333" lon="12.4391277692">
		<tag k="name" v="Stormyrtjenn" />
		<tag k="natural" v="water" />
		<tag k="ssr:stedsnr" v="66096" />
	</node>
	<node id="-51088" lat="60.1365249964" lon="12.3978749933">
		<tag k="name" v="Kåtjennet" />
		<tag k="natural" v="water" />
		<tag k="ssr:stedsnr" v="733955" />
	</node>
	<node id="-50840" lat="60.1023999992" lon="12.3717500008">
		<tag k="name" v="Sunda" />
		<tag k="natural" v="strait" />
		<tag k="ssr:stedsnr" v="672913" />
	</node>
	<node id="-51086" lat="60.1365500002" lon="12.4297999934">
		<tag k="name" v="Kappusholmen" />
		<tag k="place" v="islet" />
		<tag k="ssr:stedsnr" v="733927" />
	</node>
	<node id="-49037" lat="60.2053250025" lon="12.1195777701">
		<tag k="name" v="Sagbekken" />
		<tag k="ssr:stedsnr" v="66065" />
		<tag k="waterway" v="stream" />
	</node>
	<node id="-49030" lat="60.1593448488" lon="12.5264145019">
		<tag k="fixme" v="multiple name tags, choose one and add the other to alt_name" />
		<tag k="name" v="Kissalampi;Kattjennet" />
		<tag k="natural" v="water" />
		<tag k="ssr:stedsnr" v="66971" />
	</node>
	<node id="-49029" lat="60.1496027773" lon="12.4054916748">
		<tag k="name" v="Merratjenn" />
		<tag k="natural" v="water" />
		<tag k="ssr:stedsnr" v="66966" />
	</node>
	<node id="-51076" lat="60.2464999959" lon="12.3697250041">
		<tag k="fixme" v="multiple name tags, choose one and add the other to alt_name" />
		<tag k="name" v="Koimyrbekken;Pjøsambekken" />
		<tag k="ssr:stedsnr" v="733818" />
		<tag k="waterway" v="stream" />
	</node>
	<node id="-49027" lat="60.2291472257" lon="12.3469111124">
		<tag k="name" v="Øvre Aurtjennet" />
		<tag k="natural" v="water" />
		<tag k="ssr:stedsnr" v="66821" />
	</node>
	<node id="-49026" lat="60.2342777814" lon="12.3211944485">
		<tag k="name" v="Øltjennet" />
		<tag k="natural" v="water" />
		<tag k="ssr:stedsnr" v="66818" />
	</node>
	<node id="-49025" lat="60.2311877576" lon="12.3726558312">
		<tag k="name" v="Fensjøen" />
		<tag k="natural" v="water" />
		<tag k="ssr:stedsnr" v="66816" />
		<tag k="water" v="lake" />
	</node>
	<node id="-51071" lat="60.1804583343" lon="12.497008327">
		<tag k="name" v="Snustjennet" />
		<tag k="natural" v="water" />
		<tag k="ssr:stedsnr" v="733746" />
	</node>
	<node id="-49014" lat="60.0141111146" lon="12.3835833344">
		<tag k="name" v="Tangevika" />
		<tag k="natural" v="bay" />
		<tag k="ssr:stedsnr" v="59716" />
	</node>
	<node id="-49011" lat="60.186097218" lon="11.9778666708">
		<tag k="name" v="Hyttebakkdammen" />
		<tag k="natural" v="water" />
		<tag k="ssr:stedsnr" v="59617" />
	</node>
	<node id="-51056" lat="60.0461861084" lon="12.4453888817">
		<tag k="name" v="Lystjenn" />
		<tag k="natural" v="water" />
		<tag k="ssr:stedsnr" v="733036" />
	</node>
	<node id="-49007" lat="60.2937777807" lon="12.4148027812">
		<tag k="name" v="Damtjenna" />
		<tag k="natural" v="water" />
		<tag k="ssr:stedsnr" v="59330" />
		<tag k="water" v="lake" />
	</node>
	<node id="-49006" lat="60.2928444427" lon="12.4266527736">
		<tag k="name" v="Halvvegastjennet" />
		<tag k="natural" v="water" />
		<tag k="ssr:stedsnr" v="59329" />
	</node>
	<node id="-49005" lat="60.1090194403" lon="12.4194361194">
		<tag k="name" v="Sætervangen" />
		<tag k="natural" v="bay" />
		<tag k="ssr:stedsnr" v="59251" />
	</node>
	<node id="-49004" lat="60.1337361147" lon="12.5151583249">
		<tag k="name" v="Langtjennet" />
		<tag k="natural" v="water" />
		<tag k="ssr:stedsnr" v="59229" />
	</node>
	<node id="-49000" lat="60.2668333318" lon="12.4331194404">
		<tag k="name" v="Kårplamp" />
		<tag k="natural" v="water" />
		<tag k="ssr:stedsnr" v="58358" />
	</node>
	<node id="-48999" lat="60.3124055519" lon="12.1356916607">
		<tag k="name" v="Rafjellbekken" />
		<tag k="ssr:stedsnr" v="58227" />
		<tag k="waterway" v="stream" />
	</node>
	<node id="-48998" lat="60.2561027791" lon="11.9545083352">
		<tag k="name" v="Lysbekken" />
		<tag k="ssr:stedsnr" v="58183" />
		<tag k="waterway" v="stream" />
	</node>
	<node id="-48995" lat="60.3099777815" lon="11.9958805616">
		<tag k="name" v="Skredbekken" />
		<tag k="ssr:stedsnr" v="57968" />
		<tag k="waterway" v="stream" />
	</node>
	<node id="-48991" lat="60.1718583316" lon="12.1644777835">
		<tag k="name" v="Øyungsdammen" />
		<tag k="ssr:stedsnr" v="57851" />
		<tag k="waterway" v="dam" />
	</node>
	<node id="-48987" lat="60.1164555558" lon="12.3737166613">
		<tag k="name" v="Langtangen" />
		<tag k="natural" v="cape" />
		<tag k="ssr:stedsnr" v="57778" />
	</node>
	<node id="-48986" lat="60.1184388912" lon="12.3558777699">
		<tag k="alt_name" v="Vesle Stuphulltjernet" />
		<tag k="name" v="Vesle Stupholtjennet" />
		<tag k="natural" v="water" />
		<tag k="ssr:stedsnr" v="57776" />
	</node>
	<node id="-49807" lat="60.0457861132" lon="12.4545499959">
		<tag k="name" v="Linnetjennet" />
		<tag k="natural" v="water" />
		<tag k="ssr:stedsnr" v="419021" />
	</node>
	<node id="-51031" lat="60.1347916633" lon="12.5058333332">
		<tag k="name" v="Paskalampi" />
		<tag k="natural" v="water" />
		<tag k="ssr:stedsnr" v="726249" />
	</node>
	<node id="-48981" lat="60.1351805557" lon="12.060486103">
		<tag k="name" v="Lierdammen" />
		<tag k="ssr:stedsnr" v="57574" />
		<tag k="waterway" v="dam" />
	</node>
	<node id="-51028" lat="60.2308944415" lon="12.5056333305">
		<tag k="name" v="Mosevannsbekken" />
		<tag k="ssr:stedsnr" v="726129" />
		<tag k="waterway" v="stream" />
	</node>
	<node id="-48979" lat="60.111799997" lon="12.0638638949">
		<tag k="name" v="Strengelsrudtjennet" />
		<tag k="natural" v="water" />
		<tag k="ssr:stedsnr" v="57560" />
	</node>
	<node id="-51025" lat="60.1630944411" lon="12.1430194398">
		<tag k="name" v="Frauvikholmen" />
		<tag k="place" v="islet" />
		<tag k="ssr:stedsnr" v="725762" />
	</node>
	<node id="-48976" lat="60.2839416696" lon="12.1896055549">
		<tag k="name" v="Bureisdammen" />
		<tag k="ssr:stedsnr" v="57694" />
		<tag k="waterway" v="dam" />
	</node>
	<node id="-50487" lat="60.112069445" lon="12.5016861168">
		<tag k="name" v="Larbekktjennet" />
		<tag k="natural" v="water" />
		<tag k="ssr:stedsnr" v="588202" />
	</node>
	<node id="-48968" lat="60.2672499977" lon="12.0495388836">
		<tag k="name" v="Karrustjennet" />
		<tag k="natural" v="water" />
		<tag k="ssr:stedsnr" v="55937" />
	</node>
	<node id="-48967" lat="60.2852472212" lon="12.3169250015">
		<tag k="name" v="Svarttjennbekken" />
		<tag k="ssr:stedsnr" v="55927" />
		<tag k="waterway" v="stream" />
	</node>
	<node id="-51012" lat="60.3289694455" lon="12.0003833326">
		<tag k="name" v="Brudalsbekken" />
		<tag k="ssr:stedsnr" v="724777" />
		<tag k="waterway" v="stream" />
	</node>
	<node id="-48959" lat="60.0936111101" lon="12.330288892">
		<tag k="name" v="Kattjennet" />
		<tag k="natural" v="water" />
		<tag k="ssr:stedsnr" v="55841" />
	</node>
	<node id="-48958" lat="60.1090055531" lon="12.3234000061">
		<tag k="name" v="Skullerudvika" />
		<tag k="natural" v="bay" />
		<tag k="ssr:stedsnr" v="55729" />
	</node>
	<node id="-48949" lat="60.3267055538" lon="12.2654555519">
		<tag k="name" v="Bergevika" />
		<tag k="natural" v="bay" />
		<tag k="ssr:stedsnr" v="55609" />
	</node>
	<node id="-48947" lat="60.1627999981" lon="12.0522722172">
		<tag k="name" v="Fiskegarden" />
		<tag k="natural" v="strait" />
		<tag k="ssr:stedsnr" v="55567" />
	</node>
	<node id="-50993" lat="60.166713893" lon="12.3549305526">
		<tag k="name" v="Veavika" />
		<tag k="natural" v="bay" />
		<tag k="ssr:stedsnr" v="722962" />
	</node>
	<node id="-50992" lat="60.169149999" lon="12.3322611131">
		<tag k="name" v="Nordre Skreddartjennet" />
		<tag k="natural" v="water" />
		<tag k="ssr:stedsnr" v="722957" />
	</node>
	<node id="-48941" lat="60.1739527798" lon="12.5228888944">
		<tag k="name" v="Langmyrtjennet" />
		<tag k="natural" v="water" />
		<tag k="ssr:stedsnr" v="55172" />
	</node>
	<node id="-48939" lat="60.1802944477" lon="12.4291944372">
		<tag k="name" v="Keigle" />
		<tag k="natural" v="water" />
		<tag k="ssr:stedsnr" v="55160" />
	</node>
	<node id="-48938" lat="60.3465583367" lon="12.3112055562">
		<tag k="name" v="Kålhagafløyta" />
		<tag k="natural" v="water" />
		<tag k="ssr:stedsnr" v="55047" />
		<tag k="water" v="lake" />
	</node>
	<node id="-48936" lat="60.108725001" lon="12.4908083251">
		<tag k="name" v="Sandodden" />
		<tag k="natural" v="cape" />
		<tag k="ssr:stedsnr" v="55008" />
	</node>
	<node id="-48934" lat="60.2984277795" lon="12.3265972258">
		<tag k="name" v="Grautåa" />
		<tag k="ssr:stedsnr" v="55132" />
		<tag k="waterway" v="stream" />
	</node>
	<node id="-50977" lat="60.1890611121" lon="12.4439083347">
		<tag k="name" v="Brattfossen" />
		<tag k="natural" v="waterfall" />
		<tag k="ssr:stedsnr" v="722196" />
	</node>
	<node id="-48923" lat="60.0754166695" lon="12.3421499995">
		<tag k="name" v="Stortangen" />
		<tag k="natural" v="cape" />
		<tag k="ssr:stedsnr" v="42791" />
	</node>
	<node id="-50969" lat="60.0867833319" lon="12.4056027706">
		<tag k="name" v="Bukkholmen" />
		<tag k="place" v="islet" />
		<tag k="ssr:stedsnr" v="709805" />
	</node>
	<node id="-50966" lat="60.0786611098" lon="12.3872277768">
		<tag k="name" v="Båthusvika" />
		<tag k="natural" v="bay" />
		<tag k="ssr:stedsnr" v="709801" />
	</node>
	<node id="-48917" lat="60.0686833345" lon="12.2694861169">
		<tag k="name" v="Gåsbekken" />
		<tag k="ssr:stedsnr" v="42673" />
		<tag k="waterway" v="stream" />
	</node>
	<node id="-48915" lat="60.3864027744" lon="12.3076083384">
		<tag k="name" v="Klomma" />
		<tag k="natural" v="shoal" />
		<tag k="place" v="locality" />
		<tag k="ssr:stedsnr" v="42471" />
	</node>
	<node id="-50960" lat="60.0966166691" lon="11.9351194433">
		<tag k="name" v="Østre Furukolltjennet" />
		<tag k="natural" v="water" />
		<tag k="ssr:stedsnr" v="709704" />
	</node>
	<node id="-48910" lat="60.3455055555" lon="12.2977416626">
		<tag k="name" v="Storholmen" />
		<tag k="place" v="islet" />
		<tag k="ssr:stedsnr" v="42072" />
	</node>
	<node id="-50955" lat="60.2445194452" lon="12.2725666749">
		<tag k="name" v="Finnvika" />
		<tag k="natural" v="bay" />
		<tag k="ssr:stedsnr" v="709464" />
	</node>
	<node id="-48906" lat="60.190172224" lon="12.0475666644">
		<tag k="name" v="Norstangen" />
		<tag k="natural" v="cape" />
		<tag k="ssr:stedsnr" v="42113" />
	</node>
	<node id="-48905" lat="60.0949583305" lon="12.3077666673">
		<tag k="name" v="Bakkebekken" />
		<tag k="ssr:stedsnr" v="41775" />
		<tag k="waterway" v="stream" />
	</node>
	<node id="-50952" lat="60.2541833304" lon="12.2267361044">
		<tag k="name" v="Homsjøbekken" />
		<tag k="ssr:stedsnr" v="709453" />
		<tag k="waterway" v="stream" />
	</node>
	<node id="-50951" lat="60.3951055557" lon="12.3018305528">
		<tag k="name" v="Nødens Tilflukt" />
		<tag k="place" v="islet" />
		<tag k="ssr:stedsnr" v="709413" />
	</node>
	<node id="-48899" lat="60.1922277795" lon="12.5348305514">
		<tag k="name" v="Bukkilampi" />
		<tag k="natural" v="water" />
		<tag k="ssr:stedsnr" v="41348" />
	</node>
	<node id="-50944" lat="60.1849694462" lon="12.0429944455">
		<tag k="name" v="Norsengneset" />
		<tag k="natural" v="cape" />
		<tag k="ssr:stedsnr" v="709115" />
	</node>
	<node id="-48895" lat="60.3214333295" lon="12.279961112">
		<tag k="name" v="Jersjøvika" />
		<tag k="natural" v="bay" />
		<tag k="ssr:stedsnr" v="40684" />
	</node>
	<node id="-50941" lat="60.2146055584" lon="12.3794111057">
		<tag k="name" v="Stampetjennsbekken" />
		<tag k="ssr:stedsnr" v="707967" />
		<tag k="waterway" v="stream" />
	</node>
	<node id="-48892" lat="60.3290333359" lon="12.4479638862">
		<tag k="name" v="Svartholet" />
		<tag k="place" v="locality" />
		<tag k="ssr:stedsnr" v="40227" />
	</node>
	<node id="-50933" lat="60.272900003" lon="12.1975083341">
		<tag k="name" v="Nordre Sundnæbben" />
		<tag k="natural" v="cape" />
		<tag k="ssr:stedsnr" v="707580" />
	</node>
	<node id="-48884" lat="60.274266663" lon="12.2095361174">
		<tag k="name" v="Rundgrava" />
		<tag k="natural" v="cape" />
		<tag k="ssr:stedsnr" v="39544" />
	</node>
	<node id="-48877" lat="60.3523083121" lon="11.84124972">
		<tag k="name" v="Balsjøen" />
		<tag k="natural" v="water" />
		<tag k="ssr:stedsnr" v="6889" />
		<tag k="water" v="lake" />
	</node>
	<node id="-48867" lat="60.2691694456" lon="12.2057000062">
		<tag k="name" v="Lepengneset" />
		<tag k="natural" v="cape" />
		<tag k="ssr:stedsnr" v="6459" />
	</node>
	<node id="-50913" lat="60.3092444427" lon="12.2562166743">
		<tag k="name" v="Østre Nysætertjennet" />
		<tag k="natural" v="water" />
		<tag k="ssr:stedsnr" v="674132" />
	</node>
	<node id="-48862" lat="60.2814305532" lon="12.1610805638">
		<tag k="alt_name" v="Åfloen" />
		<tag k="name" v="Store Åfloen" />
		<tag k="natural" v="water" />
		<tag k="ssr:stedsnr" v="6426" />
	</node>
	<node id="-50469" lat="60.25544722" lon="12.1571972162">
		<tag k="name" v="Mellemsjøen" />
		<tag k="natural" v="water" />
		<tag k="ssr:stedsnr" v="587158" />
	</node>
	<node id="-50906" lat="60.1452527732" lon="12.283152784">
		<tag k="name" v="Ramtjenna" />
		<tag k="natural" v="water" />
		<tag k="ssr:stedsnr" v="673981" />
	</node>
	<node id="-50905" lat="60.1382888919" lon="12.2885666692">
		<tag k="name" v="Ramtjennbekken" />
		<tag k="ssr:stedsnr" v="673978" />
		<tag k="waterway" v="stream" />
	</node>
	<node id="-50904" lat="60.1448972265" lon="12.4948861072">
		<tag k="name" v="Holmtjenn" />
		<tag k="natural" v="water" />
		<tag k="ssr:stedsnr" v="673962" />
	</node>
	<node id="-48851" lat="60.3541555585" lon="12.403908337">
		<tag k="name" v="Kalvbekken" />
		<tag k="ssr:stedsnr" v="6221" />
		<tag k="waterway" v="stream" />
	</node>
	<node id="-48850" lat="60.3742944409" lon="12.4277361124">
		<tag k="name" v="Merraskjulfløyta" />
		<tag k="place" v="locality" />
		<tag k="ssr:stedsnr" v="6211" />
	</node>
	<node id="-48848" lat="60.264888889" lon="12.26190833">
		<tag k="name" v="Fjellsjøbekken" />
		<tag k="ssr:stedsnr" v="6199" />
		<tag k="waterway" v="stream" />
	</node>
	<node id="-50523" lat="60.2637833308" lon="12.4226777717">
		<tag k="name" v="Laddolamp" />
		<tag k="natural" v="water" />
		<tag k="ssr:stedsnr" v="601278" />
	</node>
	<node id="-48846" lat="60.273455554" lon="12.2908805597">
		<tag k="name" v="Vebjørnstjennet" />
		<tag k="natural" v="water" />
		<tag k="ssr:stedsnr" v="6169" />
	</node>
	<node id="-48843" lat="60.1912111124" lon="12.1732750015">
		<tag k="name" v="Langtjennet" />
		<tag k="natural" v="water" />
		<tag k="ssr:stedsnr" v="6098" />
	</node>
	<node id="-48838" lat="60.1613749982" lon="12.2636333375">
		<tag k="name" v="Delbekken" />
		<tag k="ssr:stedsnr" v="5986" />
		<tag k="waterway" v="stream" />
	</node>
	<node id="-48837" lat="60.1686749982" lon="12.5179277715">
		<tag k="name" v="Ridalampi" />
		<tag k="natural" v="water" />
		<tag k="ssr:stedsnr" v="5984" />
	</node>
	<node id="-48836" lat="60.1456277741" lon="12.319350003">
		<tag k="name" v="Sæterholmen" />
		<tag k="place" v="islet" />
		<tag k="ssr:stedsnr" v="5981" />
	</node>
	<node id="-48834" lat="60.149530558" lon="12.484222228">
		<tag k="name" v="Bjørntjennet" />
		<tag k="natural" v="water" />
		<tag k="ssr:stedsnr" v="5948" />
	</node>
	<node id="-50880" lat="60.2794027818" lon="12.1912277802">
		<tag k="name" v="Damvika" />
		<tag k="natural" v="bay" />
		<tag k="ssr:stedsnr" v="673403" />
	</node>
	<node id="-48831" lat="60.1221333311" lon="12.3579527773">
		<tag k="name" v="Stupholtjennet" />
		<tag k="natural" v="water" />
		<tag k="ssr:stedsnr" v="5934" />
	</node>
	<node id="-48829" lat="60.1081555534" lon="12.3785833285">
		<tag k="name" v="Sauholmen" />
		<tag k="place" v="islet" />
		<tag k="ssr:stedsnr" v="5908" />
	</node>
	<node id="-51146" lat="60.3164000001" lon="12.2728499955">
		<tag k="name" v="Finnsætertjennet" />
		<tag k="natural" v="water" />
		<tag k="ssr:stedsnr" v="768669" />
	</node>
	<node id="-48826" lat="60.0891570059" lon="12.4005047773">
		<tag k="alt_name" v="Hærsjøen, s;Hærsjøen" />
		<tag k="name" v="Søndre Hærsjøen" />
		<tag k="natural" v="water" />
		<tag k="ssr:stedsnr" v="5866" />
		<tag k="water" v="lake" />
	</node>
	<node id="-48825" lat="60.2420750024" lon="12.3558500086">
		<tag k="name" v="Kvernbekken" />
		<tag k="ssr:stedsnr" v="5814" />
		<tag k="waterway" v="stream" />
	</node>
	<node id="-50871" lat="60.3257805595" lon="12.3590555648">
		<tag k="name" v="Grevlingtjenna" />
		<tag k="natural" v="water" />
		<tag k="ssr:stedsnr" v="673255" />
		<tag k="water" v="lake" />
	</node>
	<node id="-50870" lat="60.3416083337" lon="12.2654027824">
		<tag k="name" v="Umundstjennet" />
		<tag k="natural" v="water" />
		<tag k="ssr:stedsnr" v="673249" />
	</node>
	<node id="-48820" lat="60.2230472265" lon="12.3602333415">
		<tag k="name" v="Nedre Aurtjennet" />
		<tag k="natural" v="water" />
		<tag k="ssr:stedsnr" v="5784" />
	</node>
	<node id="-48819" lat="60.2133250038" lon="12.526475004">
		<tag k="name" v="Søndre Mosevatnet" />
		<tag k="natural" v="water" />
		<tag k="ssr:stedsnr" v="5769" />
		<tag k="water" v="lake" />
	</node>
	<node id="-48818" lat="60.1997249974" lon="12.4502749952">
		<tag k="name" v="Vikeråa" />
		<tag k="ssr:stedsnr" v="5764" />
		<tag k="waterway" v="river" />
	</node>
	<node id="-48816" lat="60.187399999" lon="12.377725">
		<tag k="alt_name" v="Nordre Sandvika" />
		<tag k="name" v="Sandvika" />
		<tag k="natural" v="bay" />
		<tag k="ssr:stedsnr" v="5758" />
	</node>
	<node id="-50862" lat="60.3167999972" lon="12.3568416689">
		<tag k="name" v="Eikebekken" />
		<tag k="ssr:stedsnr" v="673143" />
		<tag k="waterway" v="stream" />
	</node>
	<node id="-48813" lat="60.1808750043" lon="12.3522083268">
		<tag k="name" v="Langtangen" />
		<tag k="natural" v="cape" />
		<tag k="ssr:stedsnr" v="5752" />
	</node>
	<node id="-50860" lat="60.0602250037" lon="12.3143138822">
		<tag k="name" v="Hanatjenn" />
		<tag k="natural" v="water" />
		<tag k="ssr:stedsnr" v="673115" />
	</node>
	<node id="-50859" lat="60.0615249988" lon="12.3843749929">
		<tag k="name" v="Aurtjennet" />
		<tag k="natural" v="water" />
		<tag k="ssr:stedsnr" v="673113" />
	</node>
	<node id="-50858" lat="60.0623999971" lon="12.3630527842">
		<tag k="name" v="Karterudtjennet" />
		<tag k="natural" v="water" />
		<tag k="ssr:stedsnr" v="673112" />
	</node>
	<node id="-49226" lat="60.1677611139" lon="12.1395722218">
		<tag k="name" v="Digerdammen" />
		<tag k="ssr:stedsnr" v="118781" />
		<tag k="waterway" v="dam" />
	</node>
	<node id="-48808" lat="60.1587694432" lon="12.0514111173">
		<tag k="alt_name" v="Vingersjøen, vesle" />
		<tag k="name" v="Vesle Vingersjøen" />
		<tag k="natural" v="water" />
		<tag k="ssr:stedsnr" v="5563" />
	</node>
	<node id="-48805" lat="60.1341000024" lon="11.9143222223">
		<tag k="name" v="Stubbekjølen" />
		<tag k="natural" v="water" />
		<tag k="ssr:stedsnr" v="5533" />
	</node>
	<node id="-48804" lat="60.1433472225" lon="12.2148000009">
		<tag k="name" v="Kalvbergtjennet" />
		<tag k="natural" v="water" />
		<tag k="ssr:stedsnr" v="5513" />
	</node>
	<node id="-50851" lat="60.2456333373" lon="11.9532472208">
		<tag k="name" v="Steinbitbergtjennet" />
		<tag k="natural" v="water" />
		<tag k="ssr:stedsnr" v="673036" />
	</node>
	<node id="-50845" lat="60.1377416709" lon="12.3915083324">
		<tag k="name" v="Dolpene" />
		<tag k="natural" v="water" />
		<tag k="ssr:stedsnr" v="672968" />
	</node>
	<node id="-48796" lat="60.2243888858" lon="12.2026027857">
		<tag k="name" v="Svarttjennet" />
		<tag k="natural" v="water" />
		<tag k="ssr:stedsnr" v="5092" />
	</node>
	<node id="-48794" lat="60.2191166696" lon="12.1602222311">
		<tag k="name" v="Blokktjennet" />
		<tag k="natural" v="water" />
		<tag k="ssr:stedsnr" v="5087" />
	</node>
	<node id="-48792" lat="60.0737249985" lon="12.3127500022">
		<tag k="alt_name" v="Fuglemyrtjennet" />
		<tag k="name" v="Fuglemyrdolpa" />
		<tag k="natural" v="water" />
		<tag k="ssr:stedsnr" v="5075" />
	</node>
	<node id="-48789" lat="60.0804277792" lon="12.2474250081">
		<tag k="fixme" v="multiple name tags, choose one and add the other to alt_name" />
		<tag k="name" v="Gunnarsengbekken;Kjellerhullbekken" />
		<tag k="ssr:stedsnr" v="5061" />
		<tag k="waterway" v="stream" />
	</node>
	<node id="-50835" lat="60.2159000029" lon="12.4452499936">
		<tag k="alt_name" v="Øyersjøen, s" />
		<tag k="name" v="Søndre Øyersjøen" />
		<tag k="natural" v="water" />
		<tag k="ssr:stedsnr" v="672805" />
		<tag k="water" v="lake" />
	</node>
	<node id="-50834" lat="60.2054750033" lon="12.327600003">
		<tag k="name" v="Oppkjølbekken" />
		<tag k="ssr:stedsnr" v="672799" />
		<tag k="waterway" v="stream" />
	</node>
	<node id="-50833" lat="60.2067222198" lon="12.3341138972">
		<tag k="name" v="Oppkjøltjennet" />
		<tag k="natural" v="water" />
		<tag k="ssr:stedsnr" v="672790" />
	</node>
	<node id="-50828" lat="60.1620166706" lon="11.973427779">
		<tag k="name" v="Holtvika" />
		<tag k="natural" v="bay" />
		<tag k="ssr:stedsnr" v="672588" />
	</node>
	<node id="-50823" lat="60.0956750015" lon="12.4692583397">
		<tag k="name" v="Sautjenn" />
		<tag k="natural" v="water" />
		<tag k="ssr:stedsnr" v="672080" />
	</node>
	<node id="-48772" lat="60.3457583312" lon="12.2775222195">
		<tag k="name" v="Rundtjennet" />
		<tag k="natural" v="water" />
		<tag k="ssr:stedsnr" v="892642" />
	</node>
	<node id="-50819" lat="60.2742944461" lon="12.3569500088">
		<tag k="name" v="Posalamp" />
		<tag k="natural" v="water" />
		<tag k="ssr:stedsnr" v="666919" />
	</node>
	<node id="-48770" lat="60.3044472237" lon="12.2253722295">
		<tag k="name" v="Lonkans kjelder" />
		<tag k="natural" v="spring" />
		<tag k="ssr:stedsnr" v="892609" />
	</node>
	<node id="-48769" lat="60.3799138914" lon="12.3168361146">
		<tag k="name" v="Stor-Per Ørda" />
		<tag k="natural" v="shoal" />
		<tag k="place" v="locality" />
		<tag k="ssr:stedsnr" v="892475" />
	</node>
	<node id="-48761" lat="60.1305888924" lon="12.4652777709">
		<tag k="name" v="Sleppvika" />
		<tag k="natural" v="bay" />
		<tag k="ssr:stedsnr" v="892228" />
	</node>
	<node id="-50807" lat="60.1028694448" lon="12.4206111061">
		<tag k="name" v="Strandsætervika" />
		<tag k="natural" v="bay" />
		<tag k="ssr:stedsnr" v="665282" />
	</node>
	<node id="-48758" lat="60.106666671" lon="12.3673000023">
		<tag k="name" v="Sundammen" />
		<tag k="ssr:stedsnr" v="891853" />
		<tag k="waterway" v="dam" />
	</node>
	<node id="-48757" lat="60.1022472185" lon="12.3684555624">
		<tag k="name" v="Sundkroken" />
		<tag k="natural" v="water" />
		<tag k="ssr:stedsnr" v="891854" />
		<tag k="water" v="lake" />
	</node>
	<node id="-48755" lat="60.1021638848" lon="12.386308328">
		<tag k="name" v="Vestre Sandvika" />
		<tag k="natural" v="bay" />
		<tag k="ssr:stedsnr" v="891850" />
	</node>
	<node id="-50451" lat="60.1406666687" lon="12.3294472211">
		<tag k="name" v="Fiskevika" />
		<tag k="natural" v="bay" />
		<tag k="ssr:stedsnr" v="585922" />
	</node>
	<node id="-48746" lat="60.2444527746" lon="12.227827775">
		<tag k="name" v="Homsjøholmen" />
		<tag k="place" v="islet" />
		<tag k="ssr:stedsnr" v="891495" />
	</node>
	<node id="-50791" lat="60.3325722204" lon="11.9853472233">
		<tag k="name" v="Rolighaugbekken" />
		<tag k="ssr:stedsnr" v="664782" />
		<tag k="waterway" v="stream" />
	</node>
	<node id="-50790" lat="60.0425083361" lon="12.3580638864">
		<tag k="name" v="Brødbøldammen" />
		<tag k="ssr:stedsnr" v="664737" />
		<tag k="waterway" v="dam" />
	</node>
	<node id="-50449" lat="60.2760444457" lon="12.2261083337">
		<tag k="name" v="Olderbråtåvika" />
		<tag k="natural" v="bay" />
		<tag k="ssr:stedsnr" v="585580" />
	</node>
	<node id="-48740" lat="60.2779666686" lon="12.1502638967">
		<tag k="name" v="Åflodammen" />
		<tag k="ssr:stedsnr" v="891167" />
		<tag k="waterway" v="dam" />
	</node>
	<node id="-50787" lat="60.2816194471" lon="12.4140916652">
		<tag k="name" v="Okseauget" />
		<tag k="natural" v="water" />
		<tag k="ssr:stedsnr" v="664319" />
	</node>
	<node id="-50786" lat="60.1449694419" lon="12.4178583266">
		<tag k="name" v="Kutjennet" />
		<tag k="natural" v="water" />
		<tag k="ssr:stedsnr" v="664183" />
	</node>
	<node id="-50785" lat="60.329027775" lon="12.1354305494">
		<tag k="name" v="Nordre Rafjelltjennet" />
		<tag k="natural" v="water" />
		<tag k="ssr:stedsnr" v="664172" />
	</node>
	<node id="-50784" lat="60.239899999" lon="11.9369472243">
		<tag k="name" v="Tomilsbekken" />
		<tag k="ssr:stedsnr" v="664140" />
		<tag k="waterway" v="stream" />
	</node>
	<node id="-48735" lat="60.3305083324" lon="12.3482916717">
		<tag k="name" v="Merratjennet" />
		<tag k="natural" v="water" />
		<tag k="ssr:stedsnr" v="891096" />
	</node>
	<node id="-49398" lat="60.3587111127" lon="12.3245083417">
		<tag k="name" v="Sæternabben" />
		<tag k="natural" v="cape" />
		<tag k="ssr:stedsnr" v="176026" />
	</node>
	<node id="-50789" lat="60.1186527759" lon="12.0410666587">
		<tag k="name" v="Tangen" />
		<tag k="natural" v="cape" />
		<tag k="ssr:stedsnr" v="664558" />
	</node>
	<node id="-48732" lat="60.3434111103" lon="12.2946138969">
		<tag k="name" v="Gravsjødammen" />
		<tag k="ssr:stedsnr" v="891089" />
		<tag k="waterway" v="dam" />
	</node>
	<node id="-48726" lat="60.0954694443" lon="11.915252778">
		<tag k="name" v="Kanalen" />
		<tag k="ssr:stedsnr" v="890268" />
		<tag k="waterway" v="drain" />
	</node>
	<node id="-50772" lat="60.1558444467" lon="12.388369444">
		<tag k="name" v="Possvika" />
		<tag k="natural" v="bay" />
		<tag k="ssr:stedsnr" v="662939" />
	</node>
	<node id="-48723" lat="60.283836111" lon="12.1043527749">
		<tag k="name" v="Botnerbekken" />
		<tag k="ssr:stedsnr" v="890242" />
		<tag k="waterway" v="stream" />
	</node>
	<node id="-50770" lat="60.1619472218" lon="12.3698444396">
		<tag k="name" v="Grunnvika" />
		<tag k="natural" v="bay" />
		<tag k="ssr:stedsnr" v="662937" />
	</node>
	<node id="-48718" lat="60.1199083301" lon="12.3404611105">
		<tag k="name" v="Raudfjelldulpa" />
		<tag k="natural" v="water" />
		<tag k="ssr:stedsnr" v="889742" />
		<tag k="water" v="pond" />
	</node>
	<node id="-48717" lat="60.3180166651" lon="12.2716444401">
		<tag k="name" v="Jersjøtrangen" />
		<tag k="natural" v="strait" />
		<tag k="ssr:stedsnr" v="889631" />
	</node>
	<node id="-48714" lat="60.2710666695" lon="12.2205694377">
		<tag k="name" v="Orrenabben" />
		<tag k="natural" v="cape" />
		<tag k="ssr:stedsnr" v="889543" />
	</node>
	<node id="-48713" lat="60.3154888885" lon="12.4234777732">
		<tag k="name" v="Rådelsbekken" />
		<tag k="ssr:stedsnr" v="479205" />
		<tag k="waterway" v="stream" />
	</node>
	<node id="-50756" lat="60.1538333309" lon="12.3249861048">
		<tag k="name" v="Kattesundet" />
		<tag k="natural" v="strait" />
		<tag k="ssr:stedsnr" v="661946" />
	</node>
	<node id="-48707" lat="60.347238887" lon="12.2964416722">
		<tag k="name" v="Morttjennsbekken" />
		<tag k="ssr:stedsnr" v="479029" />
		<tag k="waterway" v="stream" />
	</node>
	<node id="-48706" lat="60.3653583328" lon="12.3438250067">
		<tag k="name" v="Gøsiholmen" />
		<tag k="place" v="islet" />
		<tag k="ssr:stedsnr" v="479023" />
	</node>
	<node id="-48701" lat="60.2592970308" lon="12.4138897472">
		<tag k="name" v="Øvre Kjerketjennet" />
		<tag k="natural" v="water" />
		<tag k="ssr:stedsnr" v="411880" />
	</node>
	<node id="-50746" lat="60.3178166642" lon="12.4135777788">
		<tag k="name" v="Rådelsbekken" />
		<tag k="ssr:stedsnr" v="661185" />
		<tag k="waterway" v="stream" />
	</node>
	<node id="-50783" lat="60.2474611074" lon="11.9551583361">
		<tag k="name" v="Vesletjennet" />
		<tag k="natural" v="water" />
		<tag k="ssr:stedsnr" v="664138" />
	</node>
	<node id="-50744" lat="60.204063888" lon="12.4266194397">
		<tag k="name" v="Ligolamp" />
		<tag k="natural" v="water" />
		<tag k="ssr:stedsnr" v="661154" />
	</node>
	<node id="-50743" lat="60.1987583372" lon="12.4115861154">
		<tag k="name" v="Stormyrtjennet" />
		<tag k="natural" v="water" />
		<tag k="ssr:stedsnr" v="661148" />
	</node>
	<node id="-50441" lat="60.2944472224" lon="12.0568888882">
		<tag k="name" v="Nordre Rytjennet" />
		<tag k="natural" v="water" />
		<tag k="ssr:stedsnr" v="552554" />
	</node>
	<node id="-50737" lat="60.1048583379" lon="12.4863472183">
		<tag k="name" v="Korrisovika" />
		<tag k="natural" v="bay" />
		<tag k="ssr:stedsnr" v="661003" />
	</node>
	<node id="-48733" lat="60.3452250001" lon="12.3355472237">
		<tag k="name" v="Litjenndammen" />
		<tag k="ssr:stedsnr" v="891092" />
		<tag k="waterway" v="dam" />
	</node>
	<node id="-50730" lat="60.0819694403" lon="12.3967388843">
		<tag k="name" v="Hagaholmen" />
		<tag k="place" v="islet" />
		<tag k="ssr:stedsnr" v="648799" />
	</node>
	<node id="-48680" lat="60.1163222238" lon="12.4628555573">
		<tag k="name" v="Rintholmen" />
		<tag k="place" v="islet" />
		<tag k="ssr:stedsnr" v="406281" />
	</node>
	<node id="-50727" lat="60.0947499998" lon="12.3166333326">
		<tag k="name" v="Holmenvika" />
		<tag k="natural" v="bay" />
		<tag k="ssr:stedsnr" v="648749" />
	</node>
	<node id="-50722" lat="60.3820722204" lon="12.3013999936">
		<tag k="name" v="Langholmbekken" />
		<tag k="ssr:stedsnr" v="648463" />
		<tag k="waterway" v="stream" />
	</node>
	<node id="-48669" lat="60.2975249975" lon="12.0978638938">
		<tag k="name" v="Nordstøa" />
		<tag k="natural" v="bay" />
		<tag k="ssr:stedsnr" v="404240" />
	</node>
	<node id="-50716" lat="60.2479083331" lon="12.1627499922">
		<tag k="name" v="Grautbekken" />
		<tag k="ssr:stedsnr" v="648171" />
		<tag k="waterway" v="stream" />
	</node>
	<node id="-50714" lat="60.192497225" lon="12.0375333339">
		<tag k="name" v="Kanalen" />
		<tag k="natural" v="strait" />
		<tag k="ssr:stedsnr" v="648144" />
	</node>
	<node id="-49411" lat="60.2978749978" lon="11.9624111192">
		<tag k="name" v="Kvernbekken" />
		<tag k="ssr:stedsnr" v="176498" />
		<tag k="waterway" v="stream" />
	</node>
	<node id="-48656" lat="60.2842861133" lon="12.4007944399">
		<tag k="name" v="Bikkjedulpa" />
		<tag k="natural" v="water" />
		<tag k="ssr:stedsnr" v="241103" />
		<tag k="water" v="pond" />
	</node>
	<node id="-50696" lat="60.2706555547" lon="12.2007388815">
		<tag k="name" v="Søndre Sundnæbben" />
		<tag k="natural" v="cape" />
		<tag k="ssr:stedsnr" v="646570" />
	</node>
	<node id="-50774" lat="60.1870388851" lon="12.3859916682">
		<tag k="name" v="Østre Sandvika" />
		<tag k="natural" v="bay" />
		<tag k="ssr:stedsnr" v="662948" />
	</node>
	<node id="-50682" lat="60.1630750023" lon="12.4331749985">
		<tag k="name" v="Kirkåsildå" />
		<tag k="natural" v="bay" />
		<tag k="ssr:stedsnr" v="612995" />
	</node>
	<node id="-48633" lat="60.2646944469" lon="12.2166000073">
		<tag k="name" v="Bureistjennet" />
		<tag k="natural" v="water" />
		<tag k="ssr:stedsnr" v="370467" />
	</node>
	<node id="-48628" lat="60.273675" lon="12.0914222234">
		<tag k="name" v="Årbogan" />
		<tag k="place" v="locality" />
		<tag k="ssr:stedsnr" v="370434" />
	</node>
	<node id="-48627" lat="60.2727333498" lon="12.211501802">
		<tag k="name" v="Bureien" />
		<tag k="natural" v="water" />
		<tag k="ssr:stedsnr" v="370425" />
		<tag k="water" v="lake" />
	</node>
	<node id="-48626" lat="60.4079000027" lon="12.0588833386">
		<tag k="alt_name" v="Hvebergåa;Koksåa" />
		<tag k="name" v="Kveia" />
		<tag k="ssr:stedsnr" v="370392" />
		<tag k="waterway" v="river" />
	</node>
	<node id="-50771" lat="60.1712694428" lon="12.3336277827">
		<tag k="name" v="Sandvika" />
		<tag k="natural" v="bay" />
		<tag k="ssr:stedsnr" v="662938" />
	</node>
	<node id="-49064" lat="60.1822361134" lon="11.9766444478">
		<tag k="name" v="Bjørnmyrdammen" />
		<tag k="natural" v="water" />
		<tag k="ssr:stedsnr" v="66578" />
	</node>
	<node id="-48622" lat="60.3251999984" lon="12.2735111067">
		<tag k="name" v="Jersjøen" />
		<tag k="natural" v="water" />
		<tag k="ssr:stedsnr" v="370293" />
		<tag k="water" v="lake" />
	</node>
	<node id="-50668" lat="60.2299853214" lon="12.5173291086">
		<tag k="alt_name" v="Mosevatnet, nordre" />
		<tag k="name" v="Nordre Mosevatnet" />
		<tag k="natural" v="water" />
		<tag k="ssr:stedsnr" v="612800" />
		<tag k="water" v="lake" />
	</node>
	<node id="-51111" lat="60.327611109" lon="12.1332722299">
		<tag k="name" v="Rafjelltjenna" />
		<tag k="natural" v="water" />
		<tag k="ssr:stedsnr" v="734335" />
		<tag k="water" v="lake" />
	</node>
	<node id="-48610" lat="60.3011000022" lon="12.4586638857">
		<tag k="name" v="Svullbekken" />
		<tag k="ssr:stedsnr" v="370183" />
		<tag k="waterway" v="stream" />
	</node>
	<node id="-48609" lat="60.2856000038" lon="12.2397194524">
		<tag k="name" v="Steinvika" />
		<tag k="natural" v="bay" />
		<tag k="ssr:stedsnr" v="370182" />
	</node>
	<node id="-48608" lat="60.3039194472" lon="12.3175777784">
		<tag k="name" v="Skjuldalsbekken" />
		<tag k="ssr:stedsnr" v="370173" />
		<tag k="waterway" v="stream" />
	</node>
	<node id="-50655" lat="60.2641277771" lon="12.1975166743">
		<tag k="name" v="Baldrusvika" />
		<tag k="natural" v="bay" />
		<tag k="ssr:stedsnr" v="612449" />
	</node>
	<node id="-48605" lat="60.3104500035" lon="11.9228638911">
		<tag k="fixme" v="multiple name tags, choose one and add the other to alt_name" />
		<tag k="name" v="Bjørnstadsætertjennet;Heimsætertjernet" />
		<tag k="natural" v="water" />
		<tag k="ssr:stedsnr" v="370024" />
	</node>
	<node id="-50652" lat="60.2844750037" lon="12.1127250071">
		<tag k="name" v="Tussen" />
		<tag k="natural" v="water" />
		<tag k="ssr:stedsnr" v="612422" />
	</node>
	<node id="-50649" lat="60.2714138905" lon="12.1715833362">
		<tag k="name" v="Geittjennet" />
		<tag k="natural" v="water" />
		<tag k="ssr:stedsnr" v="612396" />
	</node>
	<node id="-48599" lat="60.2458677455" lon="12.2309291593">
		<tag k="name" v="Homsjøen" />
		<tag k="natural" v="water" />
		<tag k="ssr:stedsnr" v="369824" />
		<tag k="water" v="lake" />
	</node>
	<node id="-48597" lat="60.2169500003" lon="12.2515333267">
		<tag k="name" v="Eggeltjennet" />
		<tag k="natural" v="water" />
		<tag k="ssr:stedsnr" v="369786" />
	</node>
	<node id="-48593" lat="60.0958777775" lon="11.9293916723">
		<tag k="name" v="Furukolltjenna" />
		<tag k="natural" v="water" />
		<tag k="ssr:stedsnr" v="369682" />
		<tag k="water" v="lake" />
	</node>
	<node id="-48592" lat="60.1030027779" lon="12.07626667">
		<tag k="name" v="Grimtjennet" />
		<tag k="natural" v="water" />
		<tag k="ssr:stedsnr" v="369679" />
	</node>
	<node id="-48591" lat="60.1606277769" lon="12.2020083392">
		<tag k="name" v="Veslevatnet" />
		<tag k="natural" v="water" />
		<tag k="ssr:stedsnr" v="369535" />
	</node>
	<node id="-48590" lat="60.1597715465" lon="12.1630283445">
		<tag k="name" v="Digeren" />
		<tag k="natural" v="water" />
		<tag k="ssr:stedsnr" v="369534" />
		<tag k="water" v="lake" />
	</node>
	<node id="-50636" lat="60.0685750028" lon="12.4391305623">
		<tag k="name" v="Hetjenn" />
		<tag k="natural" v="water" />
		<tag k="ssr:stedsnr" v="612148" />
	</node>
	<node id="-48587" lat="60.1683388893" lon="12.1242250062">
		<tag k="name" v="Skinnarbølåa" />
		<tag k="ssr:stedsnr" v="369514" />
		<tag k="waterway" v="stream" />
	</node>
	<node id="-48586" lat="60.1503055546" lon="12.028575003">
		<tag k="name" v="Føskersjøen" />
		<tag k="natural" v="water" />
		<tag k="old_name" v="Frøkensjøen" />
		<tag k="ssr:stedsnr" v="369509" />
		<tag k="water" v="lake" />
	</node>
	<node id="-48585" lat="60.1265944428" lon="11.9316194369">
		<tag k="name" v="Opptjennet" />
		<tag k="natural" v="water" />
		<tag k="ssr:stedsnr" v="369503" />
	</node>
	<node id="-50632" lat="60.0566166625" lon="12.3523111055">
		<tag k="name" v="Gylterudsjøen" />
		<tag k="natural" v="water" />
		<tag k="ssr:stedsnr" v="612132" />
	</node>
	<node id="-51105" lat="60.3475722233" lon="12.0885722243">
		<tag k="name" v="Velttjennbekken" />
		<tag k="ssr:stedsnr" v="734291" />
		<tag k="waterway" v="stream" />
	</node>
	<node id="-50627" lat="60.1942138875" lon="12.1002527812">
		<tag k="name" v="Smestadtjennet" />
		<tag k="natural" v="water" />
		<tag k="ssr:stedsnr" v="612094" />
	</node>
	<node id="-48576" lat="60.0583944425" lon="12.317827782">
		<tag k="name" v="Hundetjenn" />
		<tag k="natural" v="water" />
		<tag k="ssr:stedsnr" v="369089" />
	</node>
	<node id="-48573" lat="60.0709722193" lon="12.3110944391">
		<tag k="name" v="Elgemyrtjennet" />
		<tag k="natural" v="water" />
		<tag k="ssr:stedsnr" v="369072" />
	</node>
	<node id="-48566" lat="60.1604555548" lon="12.4922555595">
		<tag k="name" v="Larbekken" />
		<tag k="ssr:stedsnr" v="369974" />
		<tag k="waterway" v="stream" />
	</node>
	<node id="-48565" lat="60.1358583334" lon="12.3631750027">
		<tag k="name" v="Engetjennet" />
		<tag k="natural" v="water" />
		<tag k="ssr:stedsnr" v="369959" />
	</node>
	<node id="-48564" lat="60.1404972187" lon="12.4326250047">
		<tag k="loc_name" v="Varalden" />
		<tag k="name" v="Varaldsjøen" />
		<tag k="natural" v="water" />
		<tag k="ssr:stedsnr" v="369943" />
		<tag k="water" v="lake" />
	</node>
	<node id="-50609" lat="60.1141938033" lon="12.3793203519">
		<tag k="alt_name" v="Hærsjøen, nordre" />
		<tag k="name" v="Nordre Hærsjøen" />
		<tag k="natural" v="water" />
		<tag k="ssr:stedsnr" v="611941" />
		<tag k="water" v="lake" />
	</node>
	<node id="-50608" lat="60.1038177069" lon="12.2830105321">
		<tag k="name" v="Østre Holvatnet" />
		<tag k="natural" v="water" />
		<tag k="ssr:stedsnr" v="611929" />
		<tag k="water" v="lake" />
	</node>
	<node id="-50607" lat="60.1009027772" lon="12.2948499946">
		<tag k="name" v="Holvassbekken" />
		<tag k="ssr:stedsnr" v="611927" />
		<tag k="waterway" v="stream" />
	</node>
	<node id="-48557" lat="60.2633638866" lon="12.4038111098">
		<tag k="name" v="Riatjenna" />
		<tag k="natural" v="water" />
		<tag k="ssr:stedsnr" v="362910" />
		<tag k="water" v="lake" />
	</node>
	<node id="-50603" lat="60.1576692127" lon="11.9684468251">
		<tag k="name" v="Bæreia" />
		<tag k="natural" v="water" />
		<tag k="ssr:stedsnr" v="611567" />
		<tag k="water" v="lake" />
	</node>
	<node id="-51100" lat="60.2765861108" lon="12.4013416707">
		<tag k="name" v="Gubbetjennet" />
		<tag k="natural" v="water" />
		<tag k="ssr:stedsnr" v="734180" />
	</node>
	<node id="-48550" lat="60.0532916683" lon="12.3505138978">
		<tag k="name" v="Øktartangen" />
		<tag k="natural" v="cape" />
		<tag k="ssr:stedsnr" v="362680" />
	</node>
	<node id="-50596" lat="60.0637194486" lon="12.3448499921">
		<tag k="alt_name" v="Ferjegaren" />
		<tag k="name" v="Ferjegarden" />
		<tag k="natural" v="water" />
		<tag k="ssr:stedsnr" v="605659" />
		<tag k="water" v="lake" />
	</node>
	<node id="-48545" lat="60.2190555573" lon="12.4407083304">
		<tag k="name" v="Furuholmen" />
		<tag k="place" v="islet" />
		<tag k="ssr:stedsnr" v="362399" />
	</node>
	<node id="-50587" lat="60.2855249972" lon="12.417177778">
		<tag k="name" v="Igletjennet" />
		<tag k="natural" v="water" />
		<tag k="ssr:stedsnr" v="604341" />
	</node>
	<node id="-48538" lat="60.2737472192" lon="12.4257055508">
		<tag k="name" v="Påiganlamp" />
		<tag k="natural" v="water" />
		<tag k="ssr:stedsnr" v="361380" />
	</node>
	<node id="-50585" lat="60.1308222214" lon="12.492425001">
		<tag k="name" v="Kilbonen" />
		<tag k="natural" v="water" />
		<tag k="ssr:stedsnr" v="604236" />
	</node>
	<node id="-50582" lat="60.2252472229" lon="12.4810722275">
		<tag k="name" v="Entbekken" />
		<tag k="ssr:stedsnr" v="604146" />
		<tag k="waterway" v="stream" />
	</node>
	<node id="-50414" lat="60.2952166699" lon="12.2452749942">
		<tag k="name" v="Nordre Orrenabben" />
		<tag k="natural" v="cape" />
		<tag k="ssr:stedsnr" v="552165" />
	</node>
	<node id="-50574" lat="60.247422218" lon="12.3780805576">
		<tag k="name" v="Kavalastjennet" />
		<tag k="natural" v="water" />
		<tag k="ssr:stedsnr" v="603920" />
	</node>
	<node id="-49730" lat="59.9940944469" lon="12.3466027692">
		<tag k="name" v="Sætertjennet" />
		<tag k="natural" v="water" />
		<tag k="ssr:stedsnr" v="248243" />
	</node>
	<node id="-48522" lat="60.1409250008" lon="12.0192277809">
		<tag k="name" v="Myrvollbekken" />
		<tag k="ssr:stedsnr" v="360579" />
		<tag k="waterway" v="stream" />
	</node>
	<node id="-50569" lat="60.1666888903" lon="12.1794694452">
		<tag k="name" v="Stenmyrbekken" />
		<tag k="ssr:stedsnr" v="603762" />
		<tag k="waterway" v="stream" />
	</node>
	<node id="-50568" lat="60.1656250007" lon="12.1641027764">
		<tag k="name" v="Mortåa" />
		<tag k="ssr:stedsnr" v="603760" />
		<tag k="waterway" v="stream" />
	</node>
	<node id="-50567" lat="60.1403611109" lon="12.1737500074">
		<tag k="name" v="Gåsviksundet" />
		<tag k="natural" v="bay" />
		<tag k="ssr:stedsnr" v="603758" />
	</node>
	<node id="-48517" lat="60.3529305532" lon="12.1028222137">
		<tag k="name" v="Velttjennet" />
		<tag k="natural" v="water" />
		<tag k="ssr:stedsnr" v="360041" />
	</node>
	<node id="-48516" lat="60.3434000027" lon="12.3981833354">
		<tag k="name" v="Tjennbekken" />
		<tag k="ssr:stedsnr" v="360037" />
		<tag k="waterway" v="stream" />
	</node>
	<node id="-48512" lat="60.1817805574" lon="12.3391472188">
		<tag k="name" v="Buvika" />
		<tag k="natural" v="bay" />
		<tag k="ssr:stedsnr" v="358947" />
	</node>
	<node id="-50559" lat="60.2960055592" lon="12.1565638839">
		<tag k="name" v="Borketjennsbekken" />
		<tag k="ssr:stedsnr" v="603203" />
		<tag k="waterway" v="stream" />
	</node>
	<node id="-50557" lat="60.3259111123" lon="12.1298138897">
		<tag k="name" v="Søndre Rafjelltjennet" />
		<tag k="natural" v="water" />
		<tag k="ssr:stedsnr" v="603177" />
	</node>
	<node id="-50556" lat="60.14343333" lon="12.4147833411">
		<tag k="name" v="Varalddammen" />
		<tag k="ssr:stedsnr" v="603175" />
		<tag k="waterway" v="dam" />
	</node>
	<node id="-50554" lat="60.2676861072" lon="11.9645916588">
		<tag k="name" v="Grisbekken" />
		<tag k="ssr:stedsnr" v="603135" />
		<tag k="waterway" v="stream" />
	</node>
	<node id="-50551" lat="60.2381388885" lon="11.9528222274">
		<tag k="name" v="Hestebråtetjennet" />
		<tag k="natural" v="water" />
		<tag k="ssr:stedsnr" v="603127" />
	</node>
	<node id="-48496" lat="60.296325004" lon="11.9565083321">
		<tag k="name" v="Ligørtjennet" />
		<tag k="natural" v="water" />
		<tag k="ssr:stedsnr" v="358532" />
	</node>
	<node id="-50539" lat="60.1573861092" lon="12.320727774">
		<tag k="name" v="Vestre Tangevika" />
		<tag k="natural" v="bay" />
		<tag k="ssr:stedsnr" v="601935" />
	</node>
	<node id="-50538" lat="60.1618222241" lon="12.3437138854">
		<tag k="name" v="Fjørsundet" />
		<tag k="natural" v="strait" />
		<tag k="ssr:stedsnr" v="601932" />
	</node>
	<node id="-48489" lat="60.2177222229" lon="12.2064638841">
		<tag k="name" v="Mengebergsdulpa" />
		<tag k="natural" v="water" />
		<tag k="ssr:stedsnr" v="358378" />
		<tag k="water" v="pond" />
	</node>
	<node id="-48488" lat="60.2159277794" lon="12.2912333342">
		<tag k="name" v="Kalvdolpene" />
		<tag k="natural" v="water" />
		<tag k="ssr:stedsnr" v="358376" />
		<tag k="water" v="pond" />
	</node>
	<node id="-50534" lat="60.3476361084" lon="11.9758277767">
		<tag k="name" v="Tangen" />
		<tag k="natural" v="cape" />
		<tag k="ssr:stedsnr" v="601875" />
	</node>
	<node id="-48483" lat="60.2089944454" lon="12.4483222276">
		<tag k="name" v="Vikerdammen" />
		<tag k="ssr:stedsnr" v="358153" />
		<tag k="waterway" v="dam" />
	</node>
	<node id="-48480" lat="60.3083833341" lon="12.3347916684">
		<tag k="name" v="Grautsjødammen" />
		<tag k="ssr:stedsnr" v="358109" />
		<tag k="waterway" v="dam" />
	</node>
	<node id="-48477" lat="60.3467999968" lon="12.3047138865">
		<tag k="name" v="Ørda" />
		<tag k="natural" v="cape" />
		<tag k="ssr:stedsnr" v="358047" />
	</node>
	<node id="-48476" lat="60.3621166671" lon="12.3464500052">
		<tag k="name" v="Bredevika" />
		<tag k="natural" v="bay" />
		<tag k="ssr:stedsnr" v="358042" />
	</node>
	<node id="-48475" lat="60.3667861155" lon="12.3441861082">
		<tag k="name" v="Hammarholmen" />
		<tag k="place" v="islet" />
		<tag k="ssr:stedsnr" v="358038" />
	</node>
	<node id="-48474" lat="60.0567694471" lon="12.4430388842">
		<tag k="name" v="Vesle Sætertjennet" />
		<tag k="natural" v="water" />
		<tag k="ssr:stedsnr" v="358023" />
	</node>
	<node id="-48469" lat="60.2743916652" lon="11.999327784">
		<tag k="name" v="Delbekken" />
		<tag k="ssr:stedsnr" v="345976" />
		<tag k="waterway" v="stream" />
	</node>
	<node id="-50516" lat="60.1639222183" lon="12.4903388948">
		<tag k="name" v="Hammerstjennet" />
		<tag k="natural" v="water" />
		<tag k="ssr:stedsnr" v="601146" />
	</node>
	<node id="-50513" lat="60.1849277738" lon="12.2429083409">
		<tag k="name" v="Vaisbekken" />
		<tag k="ssr:stedsnr" v="601084" />
		<tag k="waterway" v="stream" />
	</node>
	<node id="-50510" lat="60.1070944421" lon="12.4801833261">
		<tag k="name" v="Delvika" />
		<tag k="natural" v="bay" />
		<tag k="ssr:stedsnr" v="601007" />
	</node>
	<node id="-48458" lat="60.0971944468" lon="11.9298916675">
		<tag k="name" v="Vestre Furukolltjennet" />
		<tag k="natural" v="water" />
		<tag k="ssr:stedsnr" v="345698" />
	</node>
	<node id="-48457" lat="60.0846777756" lon="11.9311944492">
		<tag k="name" v="Vestre Pulltjennet" />
		<tag k="natural" v="water" />
		<tag k="ssr:stedsnr" v="345687" />
	</node>
	<node id="-48456" lat="60.3146249978" lon="12.2073638944">
		<tag k="name" v="Skåltjennet" />
		<tag k="natural" v="water" />
		<tag k="ssr:stedsnr" v="345610" />
	</node>
	<node id="-48453" lat="60.3888972201" lon="12.3032027808">
		<tag k="name" v="Matteslåtthaugen" />
		<tag k="natural" v="cape" />
		<tag k="ssr:stedsnr" v="345455" />
	</node>
	<node id="-48452" lat="60.3904583357" lon="12.3044111043">
		<tag k="name" v="Dusken" />
		<tag k="place" v="islet" />
		<tag k="ssr:stedsnr" v="345394" />
	</node>
	<node id="-48451" lat="60.3943861086" lon="12.2988027699">
		<tag k="name" v="Langneset" />
		<tag k="natural" v="cape" />
		<tag k="ssr:stedsnr" v="345393" />
	</node>
	<node id="-48449" lat="60.234858334" lon="12.0974833283">
		<tag k="name" v="Skjæråa" />
		<tag k="ssr:stedsnr" v="345195" />
		<tag k="waterway" v="stream" />
	</node>
	<node id="-48448" lat="60.2595444415" lon="12.1421416682">
		<tag k="name" v="Moabekken" />
		<tag k="ssr:stedsnr" v="345170" />
		<tag k="waterway" v="stream" />
	</node>
	<node id="-50493" lat="60.0793027808" lon="12.3992666604">
		<tag k="name" v="Nesbekkvika" />
		<tag k="natural" v="bay" />
		<tag k="ssr:stedsnr" v="588843" />
	</node>
	<node id="-48444" lat="60.1930277819" lon="12.0527111032">
		<tag k="name" v="Nestebyvika" />
		<tag k="natural" v="bay" />
		<tag k="ssr:stedsnr" v="345117" />
	</node>
	<node id="-48443" lat="60.3458138898" lon="12.3351333285">
		<tag k="name" v="Libekken" />
		<tag k="ssr:stedsnr" v="345089" />
		<tag k="waterway" v="stream" />
	</node>
	<node id="-50490" lat="60.383002775" lon="12.3091166633">
		<tag k="name" v="Kutangen" />
		<tag k="natural" v="cape" />
		<tag k="ssr:stedsnr" v="588467" />
	</node>
	<node id="-50489" lat="60.3707472233" lon="12.3569666636">
		<tag k="name" v="Stallvika" />
		<tag k="natural" v="bay" />
		<tag k="ssr:stedsnr" v="588460" />
	</node>
	<node id="-48439" lat="60.1438666699" lon="12.1222111098">
		<tag k="name" v="Deilbekken" />
		<tag k="ssr:stedsnr" v="343833" />
		<tag k="waterway" v="stream" />
	</node>
	<node id="-48436" lat="60.2545861083" lon="12.4600000034">
		<tag k="name" v="Østjordbekken" />
		<tag k="ssr:stedsnr" v="343309" />
		<tag k="waterway" v="stream" />
	</node>
	<node id="-50481" lat="60.1742944482" lon="12.3257611045">
		<tag k="name" v="Petolamp" />
		<tag k="natural" v="water" />
		<tag k="ssr:stedsnr" v="587964" />
	</node>
	<node id="-50479" lat="60.1031833291" lon="12.3827777739">
		<tag k="name" v="Lomvika" />
		<tag k="natural" v="bay" />
		<tag k="ssr:stedsnr" v="587853" />
	</node>
	<node id="-48430" lat="60.1303555553" lon="12.3215388871">
		<tag k="name" v="Kvitsandtangen" />
		<tag k="natural" v="cape" />
		<tag k="ssr:stedsnr" v="342728" />
	</node>
	<node id="-48429" lat="60.2854166627" lon="12.2542777752">
		<tag k="name" v="Baståstjennet" />
		<tag k="natural" v="water" />
		<tag k="ssr:stedsnr" v="342452" />
	</node>
	<node id="-50476" lat="60.1520694446" lon="11.9741666626">
		<tag k="name" v="Råliholmen" />
		<tag k="place" v="islet" />
		<tag k="ssr:stedsnr" v="587654" />
	</node>
	<node id="-50474" lat="60.2511083307" lon="12.2213027858">
		<tag k="name" v="Baldrudtjennet" />
		<tag k="natural" v="water" />
		<tag k="ssr:stedsnr" v="587507" />
	</node>
	<node id="-50473" lat="60.2384805575" lon="12.1943944518">
		<tag k="name" v="Øveråsbergsdulpa" />
		<tag k="natural" v="water" />
		<tag k="ssr:stedsnr" v="587494" />
		<tag k="water" v="pond" />
	</node>
	<node id="-48421" lat="60.2902194418" lon="12.4097111034">
		<tag k="name" v="Kontetjennet" />
		<tag k="natural" v="water" />
		<tag k="ssr:stedsnr" v="310153" />
	</node>
	<node id="-50468" lat="60.1924499969" lon="12.0281777724">
		<tag k="name" v="Nor skanse" />
		<tag k="natural" v="cape" />
		<tag k="ssr:stedsnr" v="587130" />
	</node>
	<node id="-51078" lat="60.2471777782" lon="12.2677777772">
		<tag k="name" v="Fjellsjøen" />
		<tag k="natural" v="water" />
		<tag k="ssr:stedsnr" v="733829" />
		<tag k="water" v="lake" />
	</node>
	<node id="-50466" lat="60.1814694444" lon="12.0623138811">
		<tag k="name" v="Madstangen" />
		<tag k="natural" v="cape" />
		<tag k="ssr:stedsnr" v="587111" />
	</node>
	<node id="-48417" lat="60.1732194482" lon="12.4907361088">
		<tag k="name" v="Svarttjennet" />
		<tag k="natural" v="water" />
		<tag k="ssr:stedsnr" v="309992" />
	</node>
	<node id="-48416" lat="60.1489250045" lon="12.3288499967">
		<tag k="name" v="Brunsholmen" />
		<tag k="place" v="islet" />
		<tag k="ssr:stedsnr" v="309973" />
	</node>
	<node id="-48414" lat="60.1344444458" lon="12.2528166665">
		<tag k="name" v="Sørlitjenn" />
		<tag k="natural" v="water" />
		<tag k="ssr:stedsnr" v="309961" />
	</node>
	<node id="-48410" lat="60.2276027803" lon="12.2283388966">
		<tag k="name" v="Mellomtjennet" />
		<tag k="natural" v="water" />
		<tag k="ssr:stedsnr" v="309824" />
	</node>
	<node id="-50456" lat="60.2910583338" lon="12.1168194459">
		<tag k="name" v="Hellbekken" />
		<tag k="ssr:stedsnr" v="586246" />
		<tag k="waterway" v="stream" />
	</node>
	<node id="-48404" lat="60.1707333324" lon="12.370425">
		<tag k="name" v="Møkeren" />
		<tag k="natural" v="water" />
		<tag k="ssr:stedsnr" v="309744" />
		<tag k="water" v="lake" />
	</node>
	<node id="-48403" lat="60.1747250005" lon="12.3915750038">
		<tag k="name" v="Tråssholma" />
		<tag k="place" v="islet" />
		<tag k="ssr:stedsnr" v="309743" />
	</node>
	<node id="-51075" lat="60.2489305596" lon="12.4036749998">
		<tag k="name" v="Sammakolamp" />
		<tag k="natural" v="water" />
		<tag k="ssr:stedsnr" v="733817" />
	</node>
	<node id="-50446" lat="60.041869446" lon="12.4451722294">
		<tag k="name" v="Lystjenn" />
		<tag k="natural" v="water" />
		<tag k="ssr:stedsnr" v="552633" />
	</node>
	<node id="-48393" lat="60.2762083343" lon="12.1992916749">
		<tag k="name" v="Kakneset" />
		<tag k="natural" v="cape" />
		<tag k="ssr:stedsnr" v="309410" />
	</node>
	<node id="-48392" lat="60.3496833304" lon="12.1604722143">
		<tag k="name" v="Kroktjennet" />
		<tag k="natural" v="water" />
		<tag k="ssr:stedsnr" v="309346" />
	</node>
	<node id="-50438" lat="60.3281194459" lon="12.1914194474">
		<tag k="name" v="Steinbekken" />
		<tag k="ssr:stedsnr" v="552536" />
		<tag k="waterway" v="stream" />
	</node>
	<node id="-51073" lat="60.1944138912" lon="12.3400833336">
		<tag k="name" v="Kverntjennet" />
		<tag k="natural" v="water" />
		<tag k="ssr:stedsnr" v="733761" />
	</node>
	<node id="-48388" lat="60.3482777748" lon="11.9735583258">
		<tag k="name" v="Bingsfløyta" />
		<tag k="natural" v="water" />
		<tag k="ssr:stedsnr" v="309286" />
	</node>
	<node id="-48387" lat="60.3304944433" lon="12.4512888889">
		<tag k="name" v="Årasfossen" />
		<tag k="natural" v="waterfall" />
		<tag k="ssr:stedsnr" v="309274" />
	</node>
	<node id="-49707" lat="60.1975638919" lon="12.1564750022">
		<tag k="name" v="Mariholmen" />
		<tag k="place" v="islet" />
		<tag k="ssr:stedsnr" v="241835" />
	</node>
	<node id="-48383" lat="60.2867833314" lon="12.4923638953">
		<tag k="name" v="Pøndønen" />
		<tag k="natural" v="water" />
		<tag k="ssr:stedsnr" v="309201" />
	</node>
	<node id="-50430" lat="60.2736833323" lon="11.9431333399">
		<tag k="name" v="Sølvtjennet" />
		<tag k="natural" v="water" />
		<tag k="ssr:stedsnr" v="552432" />
	</node>
	<node id="-48380" lat="60.2810500025" lon="12.3455555607">
		<tag k="name" v="Tullreisbekken" />
		<tag k="ssr:stedsnr" v="309194" />
		<tag k="waterway" v="stream" />
	</node>
	<node id="-48379" lat="60.3044611079" lon="12.3861833377">
		<tag k="name" v="Tutjenna" />
		<tag k="natural" v="water" />
		<tag k="ssr:stedsnr" v="309181" />
	</node>
	<node id="-48378" lat="60.2935000007" lon="12.4029416625">
		<tag k="name" v="Søndre Blekketjennet" />
		<tag k="natural" v="water" />
		<tag k="ssr:stedsnr" v="309175" />
	</node>
	<node id="-48376" lat="60.2923500037" lon="12.2878388937">
		<tag k="name" v="Tullreisåa" />
		<tag k="ssr:stedsnr" v="309166" />
		<tag k="waterway" v="stream" />
	</node>
	<node id="-48375" lat="60.3151017316" lon="12.2693890252">
		<tag k="alt_name" v="Digernessjøen, øvre" />
		<tag k="name" v="Øvre Digernessjøen" />
		<tag k="natural" v="water" />
		<tag k="ssr:stedsnr" v="309161" />
		<tag k="water" v="lake" />
	</node>
	<node id="-48374" lat="60.3211833369" lon="12.4240999925">
		<tag k="name" v="Ormbergsbekken" />
		<tag k="ssr:stedsnr" v="309155" />
		<tag k="waterway" v="stream" />
	</node>
	<node id="-50418" lat="60.3415416669" lon="12.2817666631">
		<tag k="name" v="Gardsjøen" />
		<tag k="natural" v="water" />
		<tag k="ssr:stedsnr" v="552251" />
	</node>
	<node id="-50728" lat="60.0981916666" lon="12.3424777767">
		<tag k="name" v="Vesledamtjennet" />
		<tag k="natural" v="water" />
		<tag k="ssr:stedsnr" v="648751" />
	</node>
	<node id="-48366" lat="60.2006629473" lon="12.1431700902">
		<tag k="name" v="Lysen" />
		<tag k="natural" v="water" />
		<tag k="ssr:stedsnr" v="309060" />
		<tag k="water" v="lake" />
	</node>
	<node id="-48365" lat="60.3820000032" lon="12.3142138876">
		<tag k="name" v="Nattneset" />
		<tag k="natural" v="cape" />
		<tag k="ssr:stedsnr" v="309052" />
	</node>
	<node id="-48362" lat="60.0475194437" lon="12.4532027757">
		<tag k="name" v="Åstjenn" />
		<tag k="natural" v="water" />
		<tag k="ssr:stedsnr" v="309026" />
	</node>
	<node id="-48353" lat="60.305788888" lon="12.2180527704">
		<tag k="name" v="Skriktjennet" />
		<tag k="natural" v="water" />
		<tag k="ssr:stedsnr" v="309524" />
	</node>
	<node id="-48352" lat="60.29578333" lon="12.1447416667">
		<tag k="name" v="Borketjennet" />
		<tag k="natural" v="water" />
		<tag k="ssr:stedsnr" v="309507" />
	</node>
	<node id="-50398" lat="60.192327777" lon="12.3559055611">
		<tag k="name" v="Femovika" />
		<tag k="natural" v="bay" />
		<tag k="ssr:stedsnr" v="551796" />
	</node>
	<node id="-48349" lat="60.1130499978" lon="12.3565777697">
		<tag k="name" v="Åbbortjennet" />
		<tag k="natural" v="water" />
		<tag k="ssr:stedsnr" v="308924" />
	</node>
	<node id="-50395" lat="60.1756750025" lon="12.3429666699">
		<tag k="alt_name" v="Hjerpholmen" />
		<tag k="name" v="Jerpholmen" />
		<tag k="place" v="islet" />
		<tag k="ssr:stedsnr" v="551777" />
	</node>
	<node id="-50393" lat="60.1757750043" lon="12.4561055483">
		<tag k="name" v="Abbortjennet" />
		<tag k="natural" v="water" />
		<tag k="ssr:stedsnr" v="551757" />
	</node>
	<node id="-50392" lat="60.0815833294" lon="11.9378805484">
		<tag k="name" v="Fløytene" />
		<tag k="natural" v="water" />
		<tag k="ssr:stedsnr" v="551747" />
	</node>
	<node id="-50389" lat="60.1728472212" lon="11.9147555629">
		<tag k="alt_name" v="Skurudbekken" />
		<tag k="name" v="Skyrudbekken" />
		<tag k="ssr:stedsnr" v="551592" />
		<tag k="waterway" v="stream" />
	</node>
	<node id="-50377" lat="60.0644944452" lon="12.469649997">
		<tag k="name" v="Huktjenn" />
		<tag k="natural" v="water" />
		<tag k="ssr:stedsnr" v="551129" />
	</node>
	<node id="-50374" lat="60.2110833375" lon="12.1024444381">
		<tag k="name" v="Mellomtjennet" />
		<tag k="natural" v="water" />
		<tag k="ssr:stedsnr" v="551117" />
	</node>
	<node id="-48324" lat="60.2023416647" lon="12.1390638817">
		<tag k="name" v="Mortholmen" />
		<tag k="place" v="islet" />
		<tag k="ssr:stedsnr" v="301858" />
	</node>
	<node id="-50370" lat="60.2206305579" lon="12.1994000089">
		<tag k="name" v="Surtjennet" />
		<tag k="natural" v="water" />
		<tag k="ssr:stedsnr" v="551104" />
	</node>
	<node id="-48314" lat="60.1324250025" lon="12.4852277814">
		<tag k="name" v="Kerrolampi" />
		<tag k="natural" v="water" />
		<tag k="ssr:stedsnr" v="301212" />
	</node>
	<node id="-48312" lat="60.2302388891" lon="12.5092583413">
		<tag k="name" v="Kosk" />
		<tag k="natural" v="waterfall" />
		<tag k="ssr:stedsnr" v="301126" />
	</node>
	<node id="-50358" lat="60.0161333366" lon="12.3952000065">
		<tag k="name" v="Storøya" />
		<tag k="place" v="islet" />
		<tag k="ssr:stedsnr" v="551047" />
	</node>
	<node id="-50505" lat="60.0506000006" lon="12.4474388938">
		<tag k="name" v="Snekkertjennet" />
		<tag k="natural" v="water" />
		<tag k="ssr:stedsnr" v="600017" />
	</node>
	<node id="-51059" lat="60.0220118104" lon="12.3842422471">
		<tag k="alt_name" v="Utgårdsjøen" />
		<tag k="name" v="Utgardsjøen" />
		<tag k="natural" v="water" />
		<tag k="ssr:stedsnr" v="733061" />
		<tag k="water" v="lake" />
	</node>
	<node id="-48303" lat="60.2896472214" lon="12.2266361026">
		<tag k="name" v="Steinreisdammen" />
		<tag k="ssr:stedsnr" v="300713" />
		<tag k="waterway" v="dam" />
	</node>
	<node id="-50717" lat="60.1517194425" lon="12.5060222303">
		<tag k="name" v="Kverndambekken" />
		<tag k="ssr:stedsnr" v="648247" />
		<tag k="waterway" v="stream" />
	</node>
	<node id="-48300" lat="60.1228944402" lon="12.0494972144">
		<tag k="name" v="Strengelsruddammen" />
		<tag k="ssr:stedsnr" v="300588" />
		<tag k="waterway" v="dam" />
	</node>
	<node id="-48297" lat="60.1525555574" lon="12.4380916663">
		<tag k="name" v="Osvika" />
		<tag k="natural" v="bay" />
		<tag k="ssr:stedsnr" v="300207" />
	</node>
	<node id="-50344" lat="60.2326750046" lon="11.9512833266">
		<tag k="name" v="Aurvika" />
		<tag k="natural" v="bay" />
		<tag k="ssr:stedsnr" v="544749" />
	</node>
	<node id="-50338" lat="60.0654944478" lon="12.3347666664">
		<tag k="name" v="Delbekken" />
		<tag k="ssr:stedsnr" v="544649" />
		<tag k="waterway" v="stream" />
	</node>
	<node id="-50335" lat="60.0587638907" lon="12.3734027854">
		<tag k="name" v="Mobekken" />
		<tag k="ssr:stedsnr" v="544643" />
		<tag k="waterway" v="stream" />
	</node>
	<node id="-48282" lat="60.2323833338" lon="11.9954972218">
		<tag k="name" v="Steinbekken" />
		<tag k="ssr:stedsnr" v="298898" />
		<tag k="waterway" v="stream" />
	</node>
	<node id="-50326" lat="60.3460999995" lon="11.8636222241">
		<tag k="name" v="Aurdulpen" />
		<tag k="natural" v="water" />
		<tag k="ssr:stedsnr" v="544313" />
	</node>
	<node id="-48277" lat="60.2010944475" lon="12.0373472148">
		<tag k="name" v="Evja" />
		<tag k="ssr:stedsnr" v="298850" />
		<tag k="waterway" v="stream" />
	</node>
	<node id="-48274" lat="60.3289944458" lon="12.2679777702">
		<tag k="name" v="Åsaholmen" />
		<tag k="place" v="islet" />
		<tag k="ssr:stedsnr" v="298630" />
	</node>
	<node id="-50321" lat="60.2766722237" lon="11.9432611088">
		<tag k="name" v="Nordre Sølvtjennet" />
		<tag k="natural" v="water" />
		<tag k="ssr:stedsnr" v="544135" />
	</node>
	<node id="-50320" lat="60.2324749958" lon="12.497477785">
		<tag k="name" v="Nordre Veneren" />
		<tag k="natural" v="water" />
		<tag k="ssr:stedsnr" v="544122" />
	</node>
	<node id="-49346" lat="60.1259166672" lon="12.1071138846">
		<tag k="name" v="Langtjennet" />
		<tag k="natural" v="water" />
		<tag k="ssr:stedsnr" v="144200" />
	</node>
	<node id="-48265" lat="60.2061055596" lon="12.4800055556">
		<tag k="name" v="Okseøyet" />
		<tag k="natural" v="water" />
		<tag k="ssr:stedsnr" v="298159" />
		<tag k="water" v="pond" />
	</node>
	<node id="-48259" lat="60.3674027777" lon="12.3208805484">
		<tag k="name" v="Vesleholmen" />
		<tag k="place" v="islet" />
		<tag k="ssr:stedsnr" v="298037" />
	</node>
	<node id="-48258" lat="60.0501694405" lon="12.4413638898">
		<tag k="name" v="Tempeltjennet" />
		<tag k="natural" v="water" />
		<tag k="ssr:stedsnr" v="298027" />
	</node>
	<node id="-50304" lat="60.2950805524" lon="12.188349998">
		<tag k="name" v="Kakknesbekken" />
		<tag k="ssr:stedsnr" v="543704" />
		<tag k="waterway" v="stream" />
	</node>
	<node id="-49480" lat="60.2277805579" lon="12.1050499983">
		<tag k="name" v="Motjennet" />
		<tag k="natural" v="water" />
		<tag k="ssr:stedsnr" v="187014" />
	</node>
	<node id="-50291" lat="60.3329222205" lon="12.3947361113">
		<tag k="name" v="Kvernbekken" />
		<tag k="ssr:stedsnr" v="543052" />
		<tag k="waterway" v="stream" />
	</node>
	<node id="-48240" lat="60.2850027812" lon="11.9849388933">
		<tag k="name" v="Dambråtebekken" />
		<tag k="ssr:stedsnr" v="284998" />
		<tag k="waterway" v="stream" />
	</node>
	<node id="-51048" lat="60.0548944416" lon="12.3554416668">
		<tag k="name" v="Dortevika" />
		<tag k="natural" v="bay" />
		<tag k="ssr:stedsnr" v="727663" />
	</node>
	<node id="-50286" lat="60.1519388859" lon="11.919369446">
		<tag k="name" v="Klomtjennet" />
		<tag k="natural" v="water" />
		<tag k="ssr:stedsnr" v="542327" />
	</node>
	<node id="-49341" lat="60.1463416674" lon="12.4059972281">
		<tag k="fixme" v="multiple name tags, choose one and add the other to alt_name" />
		<tag k="name" v="Damfløyta;Frautjennet" />
		<tag k="natural" v="water" />
		<tag k="ssr:stedsnr" v="127960" />
	</node>
	<node id="-51047" lat="60.0594694474" lon="12.3534750066">
		<tag k="name" v="Ropartangen" />
		<tag k="natural" v="cape" />
		<tag k="ssr:stedsnr" v="727661" />
	</node>
	<node id="-48230" lat="60.2816805596" lon="11.9441166732">
		<tag k="name" v="Grasbergtjennet" />
		<tag k="natural" v="water" />
		<tag k="ssr:stedsnr" v="284531" />
	</node>
	<node id="-49681" lat="60.2629611127" lon="12.4491111195">
		<tag k="name" v="Vestjordbekken" />
		<tag k="ssr:stedsnr" v="239324" />
		<tag k="waterway" v="stream" />
	</node>
	<node id="-50276" lat="60.2719361154" lon="12.1349916674">
		<tag k="name" v="Tørrmobekken" />
		<tag k="ssr:stedsnr" v="541142" />
		<tag k="waterway" v="stream" />
	</node>
	<node id="-48219" lat="60.2715333317" lon="12.231413894">
		<tag k="name" v="Kamphaugsætervika" />
		<tag k="natural" v="bay" />
		<tag k="ssr:stedsnr" v="282559" />
	</node>
	<node id="-50265" lat="60.1625194446" lon="12.3353027856">
		<tag k="name" v="Østre Tangevika" />
		<tag k="natural" v="bay" />
		<tag k="ssr:stedsnr" v="540935" />
	</node>
	<node id="-48216" lat="60.3648305567" lon="12.3483694423">
		<tag k="name" v="Sagavika" />
		<tag k="natural" v="bay" />
		<tag k="ssr:stedsnr" v="282052" />
	</node>
	<node id="-50260" lat="60.185519446" lon="12.1780083409">
		<tag k="name" v="Urstjennbekken" />
		<tag k="ssr:stedsnr" v="540825" />
		<tag k="waterway" v="stream" />
	</node>
	<node id="-50256" lat="60.2897638896" lon="11.9552305546">
		<tag k="name" v="Furderudsgørrtjennet" />
		<tag k="natural" v="water" />
		<tag k="ssr:stedsnr" v="540526" />
		<tag k="water" v="pond" />
	</node>
	<node id="-50360" lat="60.2054000009" lon="12.179958332">
		<tag k="name" v="Grasbekken" />
		<tag k="ssr:stedsnr" v="551058" />
		<tag k="waterway" v="stream" />
	</node>
	<node id="-50251" lat="60.2626027769" lon="12.4114361043">
		<tag k="name" v="Susarbekken" />
		<tag k="ssr:stedsnr" v="540310" />
		<tag k="waterway" v="stream" />
	</node>
	<node id="-50250" lat="60.2832722251" lon="12.4534027708">
		<tag k="name" v="Veslesjøen" />
		<tag k="natural" v="water" />
		<tag k="ssr:stedsnr" v="540305" />
	</node>
	<node id="-50248" lat="60.1639555548" lon="12.4365944425">
		<tag k="name" v="Låsa" />
		<tag k="natural" v="water" />
		<tag k="ssr:stedsnr" v="540204" />
		<tag k="water" v="lake" />
	</node>
	<node id="-50233" lat="60.35580278" lon="12.322902777">
		<tag k="name" v="Dammen" />
		<tag k="ssr:stedsnr" v="540037" />
		<tag k="waterway" v="dam" />
	</node>
	<node id="-50232" lat="60.0547027782" lon="12.4231611188">
		<tag k="name" v="Husletjennet" />
		<tag k="natural" v="water" />
		<tag k="ssr:stedsnr" v="540023" />
	</node>
	<node id="-50355" lat="60.2229361132" lon="11.9704833401">
		<tag k="name" v="Bogerfløyta" />
		<tag k="natural" v="water" />
		<tag k="ssr:stedsnr" v="551024" />
	</node>
	<node id="-49517" lat="60.1718305554" lon="12.4291750048">
		<tag k="name" v="Fjørsjøen" />
		<tag k="natural" v="water" />
		<tag k="ssr:stedsnr" v="187729" />
	</node>
	<node id="-50219" lat="60.0948638886" lon="11.9587638839">
		<tag k="name" v="Huldretjennet" />
		<tag k="natural" v="water" />
		<tag k="ssr:stedsnr" v="527711" />
	</node>
	<node id="-50218" lat="60.0881166652" lon="11.9272055579">
		<tag k="name" v="Pullåa" />
		<tag k="ssr:stedsnr" v="527712" />
		<tag k="waterway" v="stream" />
	</node>
	<node id="-50211" lat="60.2475694455" lon="12.2624388863">
		<tag k="name" v="Fjellsjøholmen" />
		<tag k="place" v="islet" />
		<tag k="ssr:stedsnr" v="527460" />
	</node>
	<node id="-49750" lat="60.1781513269" lon="12.0546116164">
		<tag k="name" v="Vingersjøen" />
		<tag k="natural" v="water" />
		<tag k="ssr:stedsnr" v="248623" />
		<tag k="water" v="lake" />
	</node>
	<node id="-50206" lat="60.1883388879" lon="12.5380305517">
		<tag k="name" v="Vesle Særkilampi" />
		<tag k="natural" v="water" />
		<tag k="ssr:stedsnr" v="527341" />
	</node>
	<node id="-50205" lat="60.230400003" lon="12.4284000028">
		<tag k="name" v="Abbortjennbekken" />
		<tag k="ssr:stedsnr" v="527301" />
		<tag k="waterway" v="stream" />
	</node>
	<node id="-50351" lat="60.0569333295" lon="12.4585194417">
		<tag k="name" v="Store Svarttjennet" />
		<tag k="natural" v="water" />
		<tag k="ssr:stedsnr" v="551010" />
	</node>
	<node id="-50198" lat="60.2056388932" lon="12.396283337">
		<tag k="name" v="Nydambekken" />
		<tag k="ssr:stedsnr" v="525959" />
		<tag k="waterway" v="stream" />
	</node>
	<node id="-50192" lat="60.1506666659" lon="12.1120277716">
		<tag k="name" v="Nordre Kabberudtjennet" />
		<tag k="ssr:stedsnr" v="525767" />
		<tag k="waterway" v="stream" />
	</node>
	<node id="-50183" lat="60.333116664" lon="12.4355750018">
		<tag k="name" v="Ormtjennsbekken" />
		<tag k="ssr:stedsnr" v="525217" />
		<tag k="waterway" v="stream" />
	</node>
	<node id="-50431" lat="60.2557916699" lon="12.1671194379">
		<tag k="name" v="Skrøvlingen" />
		<tag k="natural" v="water" />
		<tag k="ssr:stedsnr" v="552447" />
	</node>
	<node id="-50179" lat="60.3686916683" lon="12.081844447">
		<tag k="name" v="Ulvbergstjennet" />
		<tag k="natural" v="water" />
		<tag k="ssr:stedsnr" v="492337" />
	</node>
	<node id="-49323" lat="60.1364611135" lon="12.0734750055">
		<tag k="name" v="Flyginnsjøen" />
		<tag k="natural" v="water" />
		<tag k="ssr:stedsnr" v="127589" />
	</node>
	<node id="-50174" lat="60.3058000003" lon="11.9513805605">
		<tag k="name" v="Sagbekken" />
		<tag k="ssr:stedsnr" v="492421" />
		<tag k="waterway" v="stream" />
	</node>
	<node id="-50168" lat="60.156749997" lon="12.2555249943">
		<tag k="name" v="Svartbekken" />
		<tag k="ssr:stedsnr" v="491988" />
		<tag k="waterway" v="stream" />
	</node>
	<node id="-50165" lat="60.2435583373" lon="12.2896749917">
		<tag k="name" v="Abbortjennet" />
		<tag k="natural" v="water" />
		<tag k="ssr:stedsnr" v="491824" />
	</node>
	<node id="-50164" lat="60.2340750022" lon="12.3334249979">
		<tag k="fixme" v="multiple name tags, choose one and add the other to alt_name" />
		<tag k="name" v="Hundbekken;Leotjennbekken" />
		<tag k="ssr:stedsnr" v="491815" />
		<tag k="waterway" v="stream" />
	</node>
	<node id="-50163" lat="60.234574996" lon="12.3005861156">
		<tag k="name" v="Tretjenna" />
		<tag k="natural" v="water" />
		<tag k="ssr:stedsnr" v="491808" />
		<tag k="water" v="lake" />
	</node>
	<node id="-50162" lat="60.2274055589" lon="12.3328749943">
		<tag k="name" v="Svarttjennet" />
		<tag k="natural" v="water" />
		<tag k="ssr:stedsnr" v="491807" />
	</node>
	<node id="-49320" lat="60.2543499989" lon="12.1461500074">
		<tag k="name" v="Damsjøen" />
		<tag k="natural" v="water" />
		<tag k="ssr:stedsnr" v="127437" />
	</node>
	<node id="-50156" lat="60.0991249961" lon="12.414699992">
		<tag k="alt_name" v="Østre Sandvika" />
		<tag k="name" v="Sandvika" />
		<tag k="natural" v="bay" />
		<tag k="ssr:stedsnr" v="491595" />
	</node>
	<node id="-50154" lat="60.1048638932" lon="11.9391694401">
		<tag k="name" v="Steinbråtatjennet" />
		<tag k="natural" v="water" />
		<tag k="ssr:stedsnr" v="491545" />
	</node>
	<node id="-50143" lat="60.3151555602" lon="12.0717777701">
		<tag k="name" v="Nugguren" />
		<tag k="natural" v="water" />
		<tag k="ssr:stedsnr" v="491477" />
		<tag k="water" v="lake" />
	</node>
	<node id="-50138" lat="60.2698166692" lon="12.3750750013">
		<tag k="name" v="Svintjennet" />
		<tag k="natural" v="water" />
		<tag k="ssr:stedsnr" v="491192" />
	</node>
	<node id="-50137" lat="60.2947361129" lon="12.3381805625">
		<tag k="name" v="Bruntjennet" />
		<tag k="natural" v="water" />
		<tag k="ssr:stedsnr" v="491157" />
	</node>
	<node id="-50126" lat="60.1274305573" lon="12.3379000086">
		<tag k="name" v="Stupholbekken" />
		<tag k="ssr:stedsnr" v="490952" />
		<tag k="waterway" v="stream" />
	</node>
	<node id="-50123" lat="60.117600002" lon="12.4760749966">
		<tag k="name" v="Rakkaso" />
		<tag k="natural" v="bay" />
		<tag k="ssr:stedsnr" v="490925" />
	</node>
	<node id="-50121" lat="60.1051805575" lon="12.3512333363">
		<tag k="name" v="Lomtjenn" />
		<tag k="natural" v="water" />
		<tag k="ssr:stedsnr" v="490906" />
	</node>
	<node id="-50120" lat="60.0965055557" lon="12.3815083378">
		<tag k="name" v="Smørholmen" />
		<tag k="place" v="islet" />
		<tag k="ssr:stedsnr" v="490896" />
	</node>
	<node id="-50116" lat="60.2116999975" lon="12.4850499908">
		<tag k="alt_name" v="Emten, store" />
		<tag k="name" v="Store Emten" />
		<tag k="natural" v="water" />
		<tag k="ssr:stedsnr" v="490792" />
		<tag k="water" v="lake" />
	</node>
	<node id="-50115" lat="60.2088111151" lon="12.40713612">
		<tag k="name" v="Jossimyrtjennet" />
		<tag k="natural" v="water" />
		<tag k="ssr:stedsnr" v="490790" />
	</node>
	<node id="-50114" lat="60.2088083358" lon="12.3683333246">
		<tag k="fixme" v="multiple name tags, choose one and add the other to alt_name" />
		<tag k="name" v="Femoåa;Fensjøåa" />
		<tag k="ssr:stedsnr" v="490789" />
		<tag k="waterway" v="stream" />
	</node>
	<node id="-50111" lat="60.1993750018" lon="12.4965499915">
		<tag k="name" v="Aspetjennet" />
		<tag k="natural" v="water" />
		<tag k="ssr:stedsnr" v="490778" />
	</node>
	<node id="-50110" lat="60.1980499976" lon="12.4879833307">
		<tag k="alt_name" v="Emten, l" />
		<tag k="name" v="Lille Emten" />
		<tag k="natural" v="water" />
		<tag k="ssr:stedsnr" v="490777" />
	</node>
	<node id="-50103" lat="60.1657277803" lon="11.9466749925">
		<tag k="name" v="Aurtjennet" />
		<tag k="natural" v="water" />
		<tag k="ssr:stedsnr" v="490591" />
	</node>
	<node id="-50099" lat="60.3552750028" lon="12.1099361163">
		<tag k="name" v="Gardbutjennet" />
		<tag k="natural" v="water" />
		<tag k="ssr:stedsnr" v="491260" />
	</node>
	<node id="-50098" lat="60.3322462639" lon="12.3787410562">
		<tag k="name" v="Steinsvatnet" />
		<tag k="natural" v="water" />
		<tag k="ssr:stedsnr" v="491247" />
		<tag k="water" v="lake" />
	</node>
	<node id="-50095" lat="60.360527774" lon="12.3540500057">
		<tag k="name" v="Merratjennet" />
		<tag k="natural" v="water" />
		<tag k="ssr:stedsnr" v="491217" />
	</node>
	<node id="-50092" lat="60.0506222228" lon="12.3117527742">
		<tag k="name" v="Hanatjennbekken" />
		<tag k="ssr:stedsnr" v="490115" />
		<tag k="waterway" v="stream" />
	</node>
	<node id="-50086" lat="60.0922027802" lon="12.4638194423">
		<tag k="name" v="Nordre Morttjennet" />
		<tag k="natural" v="water" />
		<tag k="ssr:stedsnr" v="490079" />
	</node>
	<node id="-50082" lat="60.0736036757" lon="12.3451584927">
		<tag k="name" v="Kolbjørnsrudsjøen" />
		<tag k="natural" v="water" />
		<tag k="ssr:stedsnr" v="490069" />
		<tag k="water" v="lake" />
	</node>
	<node id="-49648" lat="60.3094972218" lon="12.4241499964">
		<tag k="name" v="Kvernbekken" />
		<tag k="ssr:stedsnr" v="237198" />
		<tag k="waterway" v="stream" />
	</node>
	<node id="-50077" lat="60.0511277819" lon="12.4549999936">
		<tag k="name" v="Holmtjenn" />
		<tag k="natural" v="water" />
		<tag k="ssr:stedsnr" v="490020" />
	</node>
	<node id="-50330" lat="60.2783861093" lon="12.4514027751">
		<tag k="name" v="Baskobekken" />
		<tag k="ssr:stedsnr" v="544386" />
		<tag k="waterway" v="stream" />
	</node>
	<node id="-50670" lat="60.2198750028" lon="12.2941416725">
		<tag k="name" v="Langtjennet" />
		<tag k="natural" v="water" />
		<tag k="ssr:stedsnr" v="612811" />
	</node>
	<node id="-50062" lat="60.2436777763" lon="11.9143722309">
		<tag k="name" v="Øysetfallet" />
		<tag k="natural" v="waterfall" />
		<tag k="ssr:stedsnr" v="483149" />
	</node>
	<node id="-50427" lat="60.3472777736" lon="12.1253694376">
		<tag k="name" v="Klemmettjennet" />
		<tag k="natural" v="water" />
		<tag k="ssr:stedsnr" v="552346" />
	</node>
	<node id="-50055" lat="60.152636113" lon="12.1786361166">
		<tag k="name" v="Ladderudtangen" />
		<tag k="natural" v="cape" />
		<tag k="ssr:stedsnr" v="482776" />
	</node>
	<node id="-50047" lat="60.2546277801" lon="12.3389194512">
		<tag k="name" v="Pottislampbekken" />
		<tag k="ssr:stedsnr" v="480997" />
		<tag k="waterway" v="stream" />
	</node>
	<node id="-50665" lat="60.1668500023" lon="12.3599583269">
		<tag k="alt_name" v="Dragalodden" />
		<tag k="name" v="Dragalen" />
		<tag k="natural" v="cape" />
		<tag k="ssr:stedsnr" v="612751" />
	</node>
	<node id="-50025" lat="60.3722305568" lon="12.355822231">
		<tag k="name" v="Kringla" />
		<tag k="natural" v="shoal" />
		<tag k="place" v="locality" />
		<tag k="ssr:stedsnr" v="467491" />
	</node>
	<node id="-50024" lat="60.3924249968" lon="12.3006916676">
		<tag k="name" v="Furua" />
		<tag k="place" v="islet" />
		<tag k="ssr:stedsnr" v="467430" />
	</node>
	<node id="-50022" lat="60.1804638927" lon="12.4757194515">
		<tag k="name" v="Thaursuotjennet" />
		<tag k="natural" v="water" />
		<tag k="ssr:stedsnr" v="467196" />
	</node>
	<node id="-50021" lat="60.2721611153" lon="11.9698277809">
		<tag k="name" v="Sølvtjennbekken" />
		<tag k="ssr:stedsnr" v="466999" />
		<tag k="waterway" v="stream" />
	</node>
	<node id="-50019" lat="60.28360833" lon="11.9980083351">
		<tag k="name" v="Unumsåa" />
		<tag k="ssr:stedsnr" v="466994" />
		<tag k="waterway" v="stream" />
	</node>
	<node id="-50015" lat="60.1796638888" lon="12.3219749947">
		<tag k="name" v="Smalsundet" />
		<tag k="natural" v="shoal" />
		<tag k="place" v="locality" />
		<tag k="ssr:stedsnr" v="466968" />
	</node>
	<node id="-50006" lat="60.2401500018" lon="12.2880749945">
		<tag k="name" v="Revtjennet" />
		<tag k="natural" v="water" />
		<tag k="ssr:stedsnr" v="466475" />
	</node>
	<node id="-50004" lat="60.1111861088" lon="12.4672888813">
		<tag k="name" v="Pynteodden" />
		<tag k="natural" v="cape" />
		<tag k="ssr:stedsnr" v="466292" />
	</node>
	<node id="-50002" lat="60.353475001" lon="12.4344138867">
		<tag k="name" v="Raiskroken" />
		<tag k="place" v="locality" />
		<tag k="ssr:stedsnr" v="466204" />
	</node>
	<node id="-49995" lat="60.1857972249" lon="12.0613499959">
		<tag k="name" v="Gullhammaren" />
		<tag k="natural" v="cape" />
		<tag k="ssr:stedsnr" v="466110" />
	</node>
	<node id="-49994" lat="60.3459777746" lon="12.3088305462">
		<tag k="name" v="Gravsjøfallet" />
		<tag k="natural" v="waterfall" />
		<tag k="ssr:stedsnr" v="466067" />
	</node>
	<node id="-49993" lat="60.2550555536" lon="12.419369438">
		<tag k="name" v="Kjerketjennsbekken" />
		<tag k="ssr:stedsnr" v="465343" />
		<tag k="waterway" v="stream" />
	</node>
	<node id="-49990" lat="60.1258805536" lon="12.3210138855">
		<tag k="name" v="Høgneset" />
		<tag k="natural" v="cape" />
		<tag k="ssr:stedsnr" v="464802" />
	</node>
	<node id="-49985" lat="60.2468277756" lon="12.449852782">
		<tag k="name" v="Kjerringbekken" />
		<tag k="ssr:stedsnr" v="464350" />
		<tag k="waterway" v="stream" />
	</node>
	<node id="-49982" lat="60.3567222257" lon="12.365872225">
		<tag k="name" v="Vibekken" />
		<tag k="ssr:stedsnr" v="464044" />
		<tag k="waterway" v="stream" />
	</node>
	<node id="-49980" lat="60.2412861131" lon="11.9084194519">
		<tag k="name" v="Småtjenna" />
		<tag k="natural" v="water" />
		<tag k="ssr:stedsnr" v="447029" />
	</node>
	<node id="-48607" lat="60.2995805551" lon="12.232994449">
		<tag k="name" v="Auråtjennet" />
		<tag k="natural" v="water" />
		<tag k="ssr:stedsnr" v="370168" />
	</node>
	<node id="-49968" lat="60.3257805532" lon="12.167525006">
		<tag k="name" v="Norsætertjennet" />
		<tag k="natural" v="water" />
		<tag k="ssr:stedsnr" v="431511" />
	</node>
	<node id="-49967" lat="60.3233277809" lon="12.1510027843">
		<tag k="name" v="Talatjennet" />
		<tag k="natural" v="water" />
		<tag k="ssr:stedsnr" v="431509" />
	</node>
	<node id="-49966" lat="60.3194888904" lon="12.1645944454">
		<tag k="name" v="Tekeltjennet" />
		<tag k="natural" v="water" />
		<tag k="ssr:stedsnr" v="431493" />
	</node>
	<node id="-49960" lat="60.2760805582" lon="12.0222250054">
		<tag k="name" v="Gjølstadfossen" />
		<tag k="natural" v="waterfall" />
		<tag k="ssr:stedsnr" v="431430" />
	</node>
	<node id="-49297" lat="60.1593750026" lon="12.3214749987">
		<tag k="name" v="Steintangen" />
		<tag k="natural" v="cape" />
		<tag k="ssr:stedsnr" v="126987" />
	</node>
	<node id="-49949" lat="60.2690805535" lon="12.3658805609">
		<tag k="name" v="Fisketjenna" />
		<tag k="natural" v="water" />
		<tag k="ssr:stedsnr" v="431211" />
		<tag k="water" v="lake" />
	</node>
	<node id="-49947" lat="60.2649749982" lon="12.4170999939">
		<tag k="name" v="Kæværæinen" />
		<tag k="natural" v="water" />
		<tag k="ssr:stedsnr" v="431194" />
	</node>
	<node id="-49946" lat="60.2783166657" lon="12.425916662">
		<tag k="name" v="Smaltjennet" />
		<tag k="natural" v="water" />
		<tag k="ssr:stedsnr" v="431188" />
	</node>
	<node id="-49944" lat="60.2986694403" lon="12.471600001">
		<tag k="alt_name" v="Viksensvando" />
		<tag k="name" v="Viksinsvando" />
		<tag k="place" v="locality" />
		<tag k="ssr:stedsnr" v="431167" />
	</node>
	<node id="-49938" lat="60.1548250042" lon="12.2974250054">
		<tag k="name" v="Lebekken" />
		<tag k="ssr:stedsnr" v="430999" />
		<tag k="waterway" v="stream" />
	</node>
	<node id="-49937" lat="60.1568500039" lon="12.3323500007">
		<tag k="name" v="Tangen" />
		<tag k="natural" v="cape" />
		<tag k="ssr:stedsnr" v="430995" />
	</node>
	<node id="-49933" lat="60.1339333315" lon="12.4432999912">
		<tag k="name" v="Rundholmen" />
		<tag k="place" v="islet" />
		<tag k="ssr:stedsnr" v="430939" />
	</node>
	<node id="-49932" lat="60.1129750006" lon="12.3746749988">
		<tag k="name" v="Storøya" />
		<tag k="place" v="islet" />
		<tag k="ssr:stedsnr" v="430935" />
	</node>
	<node id="-49931" lat="60.1123583295" lon="12.3168750031">
		<tag k="name" v="Fagernessjøen" />
		<tag k="natural" v="water" />
		<tag k="ssr:stedsnr" v="430930" />
	</node>
	<node id="-49927" lat="60.0915027775" lon="12.4096750068">
		<tag k="name" v="Fiskarholmen" />
		<tag k="place" v="islet" />
		<tag k="ssr:stedsnr" v="430876" />
	</node>
	<node id="-49926" lat="60.2311000019" lon="12.2724250039">
		<tag k="name" v="Trøsjøen" />
		<tag k="natural" v="water" />
		<tag k="ssr:stedsnr" v="430812" />
		<tag k="water" v="lake" />
	</node>
	<node id="-50645" lat="60.33962222" lon="12.0339027843">
		<tag k="name" v="Norsfossen" />
		<tag k="natural" v="waterfall" />
		<tag k="ssr:stedsnr" v="612306" />
	</node>
	<node id="-49911" lat="60.0615916711" lon="12.4686444395">
		<tag k="name" v="Kroktjenn" />
		<tag k="natural" v="water" />
		<tag k="ssr:stedsnr" v="430113" />
	</node>
	<node id="-49908" lat="60.0674999968" lon="12.3800499925">
		<tag k="name" v="Jerntjennet" />
		<tag k="natural" v="water" />
		<tag k="ssr:stedsnr" v="430099" />
	</node>
	<node id="-49276" lat="60.2470555579" lon="12.4898666726">
		<tag k="name" v="Vidtjennet" />
		<tag k="natural" v="water" />
		<tag k="ssr:stedsnr" v="126824" />
	</node>
	<node id="-49890" lat="60.1760976555" lon="12.1707221665">
		<tag k="alt_name" v="Øyungen, nordre" />
		<tag k="name" v="Nordre Øyungen" />
		<tag k="natural" v="water" />
		<tag k="ssr:stedsnr" v="430613" />
		<tag k="water" v="lake" />
	</node>
	<node id="-49275" lat="60.1998833291" lon="12.2653305501">
		<tag k="name" v="Mengåa" />
		<tag k="ssr:stedsnr" v="126764" />
		<tag k="waterway" v="river" />
	</node>
	<node id="-49883" lat="60.0583666626" lon="12.3508999985">
		<tag k="name" v="Gylterudholmen" />
		<tag k="place" v="islet" />
		<tag k="ssr:stedsnr" v="423698" />
	</node>
	<node id="-50639" lat="60.2537888894" lon="12.3069666627">
		<tag k="name" v="Huldertjennet" />
		<tag k="natural" v="water" />
		<tag k="ssr:stedsnr" v="612196" />
	</node>
	<node id="-49878" lat="60.3385777811" lon="11.8947972161">
		<tag k="name" v="Svarttjennsbekken" />
		<tag k="ssr:stedsnr" v="423586" />
		<tag k="waterway" v="stream" />
	</node>
	<node id="-51924" lat="60.2663500013" lon="12.3721722213">
		<tag k="name" v="Busktjennet" />
		<tag k="natural" v="water" />
		<tag k="ssr:stedsnr" v="969908" />
	</node>
	<node id="-49874" lat="60.0969805601" lon="12.4415861044">
		<tag k="name" v="Høymyrtjenna" />
		<tag k="natural" v="water" />
		<tag k="ssr:stedsnr" v="423265" />
		<tag k="water" v="lake" />
	</node>
	<node id="-51921" lat="60.0192111152" lon="12.4010277708">
		<tag k="name" v="Hunseneset" />
		<tag k="place" v="islet" />
		<tag k="ssr:stedsnr" v="969725" />
	</node>
	<node id="-51580" lat="60.3509638914" lon="11.9312777843">
		<tag k="name" v="Geittjennet" />
		<tag k="natural" v="water" />
		<tag k="ssr:stedsnr" v="856302" />
	</node>
	<node id="-51916" lat="60.3376166624" lon="11.9118555581">
		<tag k="name" v="Digerbekken" />
		<tag k="ssr:stedsnr" v="969557" />
		<tag k="waterway" v="stream" />
	</node>
	<node id="-49865" lat="60.1687083342" lon="12.1590305563">
		<tag k="name" v="Butjenna" />
		<tag k="natural" v="water" />
		<tag k="ssr:stedsnr" v="422800" />
	</node>
	<node id="-51911" lat="60.2246416676" lon="12.4424888931">
		<tag k="name" v="Rimbila" />
		<tag k="natural" v="bay" />
		<tag k="ssr:stedsnr" v="969394" />
	</node>
	<node id="-51909" lat="60.2973999989" lon="12.4397249994">
		<tag k="name" v="Elgetjennet" />
		<tag k="natural" v="water" />
		<tag k="ssr:stedsnr" v="969371" />
	</node>
	<node id="-49860" lat="60.1453027816" lon="12.0611555641">
		<tag k="name" v="Gropatjennet" />
		<tag k="natural" v="water" />
		<tag k="ssr:stedsnr" v="422608" />
	</node>
	<node id="-49270" lat="60.1471361087" lon="12.1193888878">
		<tag k="name" v="Kabberudtjennet" />
		<tag k="natural" v="water" />
		<tag k="ssr:stedsnr" v="126579" />
	</node>
	<node id="-51906" lat="60.345361109" lon="11.8722361106">
		<tag k="name" v="Aurdulpbekken" />
		<tag k="ssr:stedsnr" v="969302" />
		<tag k="waterway" v="stream" />
	</node>
	<node id="-51905" lat="60.122383333" lon="12.5032249948">
		<tag k="name" v="Kongotunen" />
		<tag k="natural" v="water" />
		<tag k="ssr:stedsnr" v="969241" />
	</node>
	<node id="-51897" lat="60.3247027765" lon="12.3612083413">
		<tag k="name" v="Søndre Grevlingtjennet" />
		<tag k="natural" v="water" />
		<tag k="ssr:stedsnr" v="969093" />
	</node>
	<node id="-51895" lat="60.2278916665" lon="12.2984750054">
		<tag k="name" v="Haretjennet" />
		<tag k="natural" v="water" />
		<tag k="ssr:stedsnr" v="967982" />
	</node>
	<node id="-49843" lat="60.1434972194" lon="12.431466667">
		<tag k="name" v="Ropartangen" />
		<tag k="natural" v="cape" />
		<tag k="ssr:stedsnr" v="421166" />
	</node>
	<node id="-51886" lat="60.2950305569" lon="12.1624722142">
		<tag k="name" v="Grimskjølbekken" />
		<tag k="ssr:stedsnr" v="967171" />
		<tag k="waterway" v="stream" />
	</node>
	<node id="-49832" lat="60.2053222215" lon="12.0213444533">
		<tag k="name" v="Gråsanden" />
		<tag k="place" v="islet" />
		<tag k="ssr:stedsnr" v="419861" />
	</node>
	<node id="-51878" lat="60.1772027808" lon="12.3327111169">
		<tag k="name" v="Likholmen" />
		<tag k="place" v="islet" />
		<tag k="ssr:stedsnr" v="965958" />
	</node>
	<node id="-51877" lat="60.1644222263" lon="12.3612083297">
		<tag k="name" v="Dragalvika" />
		<tag k="natural" v="bay" />
		<tag k="ssr:stedsnr" v="965955" />
	</node>
	<node id="-49818" lat="60.27288056" lon="12.4989138881">
		<tag k="name" v="Gjertrudsbekken" />
		<tag k="ssr:stedsnr" v="419358" />
		<tag k="waterway" v="stream" />
	</node>
	<node id="-49813" lat="60.2744944469" lon="12.136083336">
		<tag k="name" v="Mjølnerudfallet" />
		<tag k="natural" v="waterfall" />
		<tag k="ssr:stedsnr" v="419158" />
	</node>
	<node id="-51855" lat="60.2451055584" lon="12.4627111197">
		<tag k="fixme" v="multiple name tags, choose one and add the other to alt_name" />
		<tag k="name" v="Haraborro;Kvernåa" />
		<tag k="ssr:stedsnr" v="965366" />
		<tag k="waterway" v="stream" />
	</node>
	<node id="-51852" lat="60.2132472188" lon="12.4512916666">
		<tag k="name" v="Kampholmen" />
		<tag k="place" v="islet" />
		<tag k="ssr:stedsnr" v="965162" />
	</node>
	<node id="-49801" lat="60.1655777753" lon="12.3445333388">
		<tag k="name" v="Svartølen" />
		<tag k="natural" v="shoal" />
		<tag k="place" v="locality" />
		<tag k="ssr:stedsnr" v="479952" />
	</node>
	<node id="-51846" lat="60.1755222179" lon="12.4405694509">
		<tag k="name" v="Fløyta" />
		<tag k="natural" v="water" />
		<tag k="ssr:stedsnr" v="965151" />
	</node>
	<node id="-50965" lat="60.3376749982" lon="12.0511388868">
		<tag k="name" v="Dauvatnet" />
		<tag k="natural" v="water" />
		<tag k="ssr:stedsnr" v="709766" />
	</node>
	<node id="-49787" lat="60.2563249956" lon="12.0453555624">
		<tag k="name" v="Lysand" />
		<tag k="natural" v="cape" />
		<tag k="ssr:stedsnr" v="249429" />
	</node>
	<node id="-51834" lat="60.0595500041" lon="12.4580000027">
		<tag k="name" v="Vesle Svarttjennet" />
		<tag k="natural" v="water" />
		<tag k="ssr:stedsnr" v="965012" />
	</node>
	<node id="-51833" lat="60.1098888861" lon="12.4917555579">
		<tag k="name" v="Larbekkvika" />
		<tag k="natural" v="bay" />
		<tag k="ssr:stedsnr" v="965005" />
	</node>
	<node id="-51828" lat="60.1336722219" lon="11.9524999994">
		<tag k="name" v="Manmyrtjennet" />
		<tag k="natural" v="water" />
		<tag k="ssr:stedsnr" v="956025" />
	</node>
	<node id="-49777" lat="60.308422223" lon="12.2440027831">
		<tag k="name" v="Vestre Nysætertjennet" />
		<tag k="natural" v="water" />
		<tag k="ssr:stedsnr" v="249124" />
	</node>
	<node id="-50621" lat="60.0141500017" lon="12.3921333408">
		<tag k="name" v="Langvika" />
		<tag k="natural" v="bay" />
		<tag k="ssr:stedsnr" v="612061" />
	</node>
	<node id="-51817" lat="60.2404055524" lon="12.2660250029">
		<tag k="name" v="Tronbølsvika" />
		<tag k="natural" v="bay" />
		<tag k="ssr:stedsnr" v="952469" />
	</node>
	<node id="-49767" lat="60.0934638889" lon="12.2993166656">
		<tag k="name" v="Ampianstjenn" />
		<tag k="natural" v="water" />
		<tag k="ssr:stedsnr" v="248906" />
	</node>
	<node id="-49766" lat="60.2334916651" lon="12.2289361107">
		<tag k="name" v="Høgbergstjennet" />
		<tag k="natural" v="water" />
		<tag k="ssr:stedsnr" v="248850" />
	</node>
	<node id="-49765" lat="60.2408055531" lon="12.4538250038">
		<tag k="alt_name" v="Øyersjøen, nordre" />
		<tag k="name" v="Nordre Øyersjøen" />
		<tag k="natural" v="water" />
		<tag k="ssr:stedsnr" v="248842" />
		<tag k="water" v="lake" />
	</node>
	<node id="-51810" lat="60.1918916677" lon="12.0411222246">
		<tag k="name" v="Langerudvika" />
		<tag k="natural" v="bay" />
		<tag k="ssr:stedsnr" v="952122" />
	</node>
	<node id="-49761" lat="60.2153027777" lon="12.3745583335">
		<tag k="name" v="Fløyta" />
		<tag k="natural" v="water" />
		<tag k="ssr:stedsnr" v="248812" />
	</node>
	<node id="-49758" lat="60.1813749999" lon="12.2298777773">
		<tag k="name" v="Raustadbekken" />
		<tag k="ssr:stedsnr" v="248792" />
		<tag k="waterway" v="stream" />
	</node>
	<node id="-49757" lat="60.1738833327" lon="12.2602722236">
		<tag k="name" v="Svarttjenn" />
		<tag k="natural" v="water" />
		<tag k="ssr:stedsnr" v="248778" />
	</node>
	<node id="-49756" lat="60.183550002" lon="12.3416555594">
		<tag k="name" v="Kvernvika" />
		<tag k="natural" v="bay" />
		<tag k="ssr:stedsnr" v="248775" />
	</node>
	<node id="-49754" lat="60.1719722201" lon="12.3411388933">
		<tag k="name" v="Boksholmen" />
		<tag k="place" v="islet" />
		<tag k="ssr:stedsnr" v="248762" />
	</node>
	<node id="-51798" lat="60.271475004" lon="12.2036055502">
		<tag k="name" v="Sletthella" />
		<tag k="place" v="islet" />
		<tag k="ssr:stedsnr" v="950553" />
	</node>
	<node id="-51797" lat="60.2792222211" lon="12.1896277703">
		<tag k="name" v="Smelloppholmen" />
		<tag k="place" v="islet" />
		<tag k="ssr:stedsnr" v="950552" />
	</node>
	<node id="-49747" lat="60.1472972217" lon="11.9965722195">
		<tag k="name" v="Aurtjennet" />
		<tag k="natural" v="water" />
		<tag k="ssr:stedsnr" v="248591" />
	</node>
	<node id="-51788" lat="60.3499083321" lon="11.9526888971">
		<tag k="name" v="Geitåa" />
		<tag k="ssr:stedsnr" v="946370" />
		<tag k="waterway" v="river" />
	</node>
	<node id="-51787" lat="60.1902944465" lon="12.0332083293">
		<tag k="name" v="Noret" />
		<tag k="ssr:stedsnr" v="944493" />
		<tag k="waterway" v="river" />
	</node>
	<node id="-49737" lat="60.1178083319" lon="11.9626166745">
		<tag k="name" v="Speismarktjennet" />
		<tag k="natural" v="water" />
		<tag k="ssr:stedsnr" v="248510" />
	</node>
	<node id="-49736" lat="60.1191194469" lon="12.1082916753">
		<tag k="name" v="Holmtjennet" />
		<tag k="natural" v="water" />
		<tag k="ssr:stedsnr" v="248506" />
	</node>
	<node id="-49733" lat="60.3522249987" lon="12.0398083403">
		<tag k="name" v="Lauta" />
		<tag k="natural" v="cape" />
		<tag k="ssr:stedsnr" v="248254" />
	</node>
	<node id="-51778" lat="60.3070805532" lon="12.1255638873">
		<tag k="name" v="Aseltjennet" />
		<tag k="natural" v="water" />
		<tag k="ssr:stedsnr" v="917400" />
	</node>
	<node id="-49728" lat="60.3588944468" lon="12.3827916694">
		<tag k="name" v="Gjeddetjennet" />
		<tag k="natural" v="water" />
		<tag k="ssr:stedsnr" v="248212" />
	</node>
	<node id="-51774" lat="60.1725555601" lon="12.499324995">
		<tag k="name" v="Sarabodako" />
		<tag k="natural" v="water" />
		<tag k="ssr:stedsnr" v="916986" />
	</node>
	<node id="-49725" lat="60.0599138904" lon="12.4472361058">
		<tag k="name" v="Sætertjenn" />
		<tag k="natural" v="water" />
		<tag k="ssr:stedsnr" v="248125" />
	</node>
	<node id="-51769" lat="60.2406749958" lon="12.476702772">
		<tag k="name" v="Merratjennet" />
		<tag k="natural" v="water" />
		<tag k="ssr:stedsnr" v="916852" />
	</node>
	<node id="-51767" lat="60.2316166701" lon="12.250830564">
		<tag k="name" v="Sølvtjenn" />
		<tag k="natural" v="water" />
		<tag k="ssr:stedsnr" v="916837" />
	</node>
	<node id="-51766" lat="60.2096333355" lon="12.2690000048">
		<tag k="name" v="Trøsbekken" />
		<tag k="ssr:stedsnr" v="916813" />
		<tag k="waterway" v="stream" />
	</node>
	<node id="-51755" lat="60.2867333366" lon="11.9189722221">
		<tag k="name" v="Elgstjennet" />
		<tag k="natural" v="water" />
		<tag k="ssr:stedsnr" v="916506" />
	</node>
	<node id="-51753" lat="60.2872777808" lon="12.0700833399">
		<tag k="name" v="Søndre Rytjennet" />
		<tag k="natural" v="water" />
		<tag k="ssr:stedsnr" v="916499" />
	</node>
	<node id="-49697" lat="60.1503361154" lon="12.4908583338">
		<tag k="name" v="Sårsalampi" />
		<tag k="natural" v="water" />
		<tag k="ssr:stedsnr" v="241199" />
	</node>
	<node id="-51742" lat="60.3362333296" lon="12.3382666584">
		<tag k="name" v="Søndre Litjennet" />
		<tag k="natural" v="water" />
		<tag k="ssr:stedsnr" v="916239" />
	</node>
	<node id="-49688" lat="60.204494446" lon="11.9411388928">
		<tag k="name" v="Fjølabrubekken" />
		<tag k="ssr:stedsnr" v="239756" />
		<tag k="waterway" v="stream" />
	</node>
	<node id="-51735" lat="60.3698277769" lon="12.2975055618">
		<tag k="name" v="Morttjennet" />
		<tag k="natural" v="water" />
		<tag k="ssr:stedsnr" v="916209" />
	</node>
	<node id="-51733" lat="60.2794388924" lon="12.4595500006">
		<tag k="name" v="Fiskelaussjøen" />
		<tag k="natural" v="water" />
		<tag k="ssr:stedsnr" v="916195" />
	</node>
	<node id="-51729" lat="60.2934777818" lon="12.4759527869">
		<tag k="name" v="Vinterfløyta" />
		<tag k="natural" v="water" />
		<tag k="ssr:stedsnr" v="916175" />
	</node>
	<node id="-49676" lat="60.2493833295" lon="11.9616777688">
		<tag k="name" v="Kalvbekken" />
		<tag k="ssr:stedsnr" v="239149" />
		<tag k="waterway" v="stream" />
	</node>
	<node id="-49671" lat="60.2566583313" lon="12.0587333407">
		<tag k="name" v="Roverudåa" />
		<tag k="ssr:stedsnr" v="237960" />
		<tag k="waterway" v="river" />
	</node>
	<node id="-51716" lat="60.0149527735" lon="12.3737555591">
		<tag k="name" v="Vesleøya" />
		<tag k="place" v="islet" />
		<tag k="ssr:stedsnr" v="916053" />
	</node>
	<node id="-51715" lat="60.0386305594" lon="12.4214444365">
		<tag k="name" v="Svarttjenn" />
		<tag k="natural" v="water" />
		<tag k="ssr:stedsnr" v="916044" />
	</node>
	<node id="-51708" lat="60.1336348" lon="12.3807329987">
		<tag k="name" v="Morttjenna" />
		<tag k="natural" v="water" />
		<tag k="ssr:stedsnr" v="915968" />
	</node>
	<node id="-51703" lat="60.1211083377" lon="12.5008249932">
		<tag k="name" v="Kavalainen" />
		<tag k="natural" v="water" />
		<tag k="ssr:stedsnr" v="915930" />
	</node>
	<node id="-49651" lat="60.2310000019" lon="12.2924305564">
		<tag k="name" v="Einahodulpa" />
		<tag k="natural" v="water" />
		<tag k="ssr:stedsnr" v="237386" />
		<tag k="water" v="pond" />
	</node>
	<node id="-49595" lat="60.353302782" lon="12.3782972154">
		<tag k="name" v="Bilittdulpa" />
		<tag k="natural" v="water" />
		<tag k="ssr:stedsnr" v="221033" />
		<tag k="water" v="pond" />
	</node>
	<node id="-51697" lat="60.0869555593" lon="12.274650007">
		<tag k="name" v="Lorthola" />
		<tag k="natural" v="water" />
		<tag k="ssr:stedsnr" v="915880" />
	</node>
	<node id="-51696" lat="60.0825555532" lon="12.2729888864">
		<tag k="name" v="Gråtjenna" />
		<tag k="natural" v="water" />
		<tag k="ssr:stedsnr" v="915879" />
		<tag k="water" v="lake" />
	</node>
	<node id="-49576" lat="60.2900250009" lon="12.0636805615">
		<tag k="name" v="Midtre Rytjennet" />
		<tag k="natural" v="water" />
		<tag k="ssr:stedsnr" v="188527" />
	</node>
	<node id="-51692" lat="60.1666305545" lon="11.9224972211">
		<tag k="name" v="Skitjennet" />
		<tag k="natural" v="water" />
		<tag k="ssr:stedsnr" v="915592" />
	</node>
	<node id="-51691" lat="60.1779861093" lon="12.168883325">
		<tag k="name" v="Langholmen" />
		<tag k="place" v="islet" />
		<tag k="ssr:stedsnr" v="915587" />
	</node>
	<node id="-49639" lat="60.2051694435" lon="12.1390055645">
		<tag k="name" v="Åkervika" />
		<tag k="natural" v="bay" />
		<tag k="ssr:stedsnr" v="237157" />
	</node>
	<node id="-51683" lat="60.0761388874" lon="12.391538892">
		<tag k="name" v="Søndre Åkroktjenn" />
		<tag k="natural" v="water" />
		<tag k="ssr:stedsnr" v="915062" />
	</node>
	<node id="-51680" lat="60.064175" lon="12.4157305477">
		<tag k="name" v="Sandbakktjenn" />
		<tag k="natural" v="water" />
		<tag k="ssr:stedsnr" v="915120" />
	</node>
	<node id="-51678" lat="60.069549874" lon="12.4715537559">
		<tag k="alt_name" v="Skålseside" />
		<tag k="name" v="Skålsjøside" />
		<tag k="natural" v="water" />
		<tag k="ssr:stedsnr" v="915106" />
	</node>
	<node id="-49628" lat="60.0812083322" lon="12.3319722168">
		<tag k="name" v="Svensrudvika" />
		<tag k="natural" v="bay" />
		<tag k="ssr:stedsnr" v="224824" />
	</node>
	<node id="-49185" lat="60.217027775" lon="12.4482250021">
		<tag k="name" v="Løvskogholmen" />
		<tag k="place" v="islet" />
		<tag k="ssr:stedsnr" v="116150" />
	</node>
	<node id="-50958" lat="60.2431416684" lon="12.2252666603">
		<tag k="name" v="Mobrovika" />
		<tag k="natural" v="bay" />
		<tag k="ssr:stedsnr" v="709486" />
	</node>
	<node id="-49621" lat="60.3451833373" lon="12.2635555522">
		<tag k="name" v="Rotbekken" />
		<tag k="ssr:stedsnr" v="224632" />
		<tag k="waterway" v="stream" />
	</node>
	<node id="-49620" lat="60.1607111131" lon="11.972919446">
		<tag k="name" v="Holtnabben" />
		<tag k="natural" v="cape" />
		<tag k="ssr:stedsnr" v="224594" />
	</node>
	<node id="-49619" lat="60.368074998" lon="12.3433361116">
		<tag k="name" v="Dusken" />
		<tag k="natural" v="cape" />
		<tag k="ssr:stedsnr" v="224461" />
	</node>
	<node id="-49617" lat="60.1792500032" lon="12.3258972162">
		<tag k="name" v="Kjerringholmen" />
		<tag k="place" v="islet" />
		<tag k="ssr:stedsnr" v="224964" />
	</node>
	<node id="-49616" lat="60.1852166634" lon="12.3308527834">
		<tag k="name" v="Kålsengnabben" />
		<tag k="natural" v="cape" />
		<tag k="ssr:stedsnr" v="224961" />
	</node>
	<node id="-51663" lat="60.1376249979" lon="12.4841583406">
		<tag k="name" v="Mærrabekken" />
		<tag k="ssr:stedsnr" v="908237" />
		<tag k="waterway" v="stream" />
	</node>
	<node id="-51660" lat="60.1304333329" lon="12.48212222">
		<tag k="name" v="Kvakkolampi" />
		<tag k="natural" v="water" />
		<tag k="ssr:stedsnr" v="908214" />
	</node>
	<node id="-51659" lat="60.2295583341" lon="12.4929027789">
		<tag k="name" v="Gørrfoss" />
		<tag k="natural" v="waterfall" />
		<tag k="ssr:stedsnr" v="908144" />
	</node>
	<node id="-51656" lat="60.1609305563" lon="12.1375805467">
		<tag k="name" v="Frauviken" />
		<tag k="natural" v="bay" />
		<tag k="ssr:stedsnr" v="907744" />
	</node>
	<node id="-51647" lat="60.2888999997" lon="12.2251388826">
		<tag k="name" v="Steinreisåa" />
		<tag k="ssr:stedsnr" v="907663" />
		<tag k="waterway" v="river" />
	</node>
	<node id="-49597" lat="60.2753083361" lon="12.2117805586">
		<tag k="name" v="Rundgravvika" />
		<tag k="natural" v="bay" />
		<tag k="ssr:stedsnr" v="221571" />
	</node>
	<node id="-51643" lat="60.1084083355" lon="12.026761106">
		<tag k="name" v="Holenfloet" />
		<tag k="natural" v="water" />
		<tag k="ssr:stedsnr" v="907548" />
		<tag k="water" v="pond" />
	</node>
	<node id="-51642" lat="60.1197444442" lon="12.0366555585">
		<tag k="name" v="Nesitjennet" />
		<tag k="natural" v="bay" />
		<tag k="ssr:stedsnr" v="907543" />
	</node>
	<node id="-51641" lat="60.2802055563" lon="12.4400277775">
		<tag k="name" v="Vesle Aurtjennet" />
		<tag k="natural" v="water" />
		<tag k="ssr:stedsnr" v="907305" />
	</node>
	<node id="-49589" lat="60.230224998" lon="12.4973000061">
		<tag k="alt_name" v="Søndre Veneren" />
		<tag k="name" v="Venern" />
		<tag k="natural" v="water" />
		<tag k="ssr:stedsnr" v="188826" />
	</node>
	<node id="-51636" lat="60.1905555533" lon="12.3536722258">
		<tag k="name" v="Kjerringholmene" />
		<tag k="place" v="islet" />
		<tag k="ssr:stedsnr" v="905959" />
	</node>
	<node id="-51635" lat="60.1807444437" lon="12.3346138919">
		<tag k="name" v="Haukholmen" />
		<tag k="place" v="islet" />
		<tag k="ssr:stedsnr" v="905960" />
	</node>
	<node id="-51627" lat="60.3629888926" lon="12.2874416672">
		<tag k="name" v="Morttjennsbekken" />
		<tag k="ssr:stedsnr" v="905717" />
		<tag k="waterway" v="stream" />
	</node>
	<node id="-51624" lat="60.1745416655" lon="12.2368055533">
		<tag k="name" v="Lorttjennet" />
		<tag k="natural" v="water" />
		<tag k="ssr:stedsnr" v="905438" />
	</node>
	<node id="-49571" lat="60.2676027751" lon="11.9753944364">
		<tag k="name" v="Leira" />
		<tag k="ssr:stedsnr" v="188439" />
		<tag k="waterway" v="stream" />
	</node>
	<node id="-49569" lat="60.2593527757" lon="11.9482444412">
		<tag k="name" v="Lysen" />
		<tag k="natural" v="water" />
		<tag k="ssr:stedsnr" v="188422" />
	</node>
	<node id="-51616" lat="60.276069443" lon="12.1287999958">
		<tag k="name" v="Dalabekken" />
		<tag k="ssr:stedsnr" v="905150" />
		<tag k="waterway" v="stream" />
	</node>
	<node id="-51610" lat="60.0882083329" lon="12.4501305496">
		<tag k="name" v="Vestsætertjennet" />
		<tag k="natural" v="water" />
		<tag k="ssr:stedsnr" v="905012" />
	</node>
	<node id="-51608" lat="60.2895972256" lon="12.2994111089">
		<tag k="name" v="Veslsjøen" />
		<tag k="natural" v="water" />
		<tag k="ssr:stedsnr" v="904938" />
		<tag k="water" v="lake" />
	</node>
	<node id="-51607" lat="60.2890750027" lon="12.3043444432">
		<tag k="name" v="Dammen" />
		<tag k="ssr:stedsnr" v="904939" />
		<tag k="waterway" v="dam" />
	</node>
	<node id="-51024" lat="60.1547222218" lon="12.1758333296">
		<tag k="name" v="Pissutholmen" />
		<tag k="place" v="islet" />
		<tag k="ssr:stedsnr" v="725754" />
	</node>
	<node id="-51604" lat="60.321902779" lon="12.4549555568">
		<tag k="name" v="Storfossen" />
		<tag k="natural" v="waterfall" />
		<tag k="ssr:stedsnr" v="904205" />
	</node>
	<node id="-49554" lat="60.3385472189" lon="12.4225361038">
		<tag k="name" v="Ormtjennet" />
		<tag k="natural" v="water" />
		<tag k="ssr:stedsnr" v="188254" />
	</node>
	<node id="-49552" lat="60.3421388899" lon="12.3361305625">
		<tag k="name" v="Nordre Litjennet" />
		<tag k="natural" v="water" />
		<tag k="ssr:stedsnr" v="188252" />
	</node>
	<node id="-49551" lat="60.2928138867" lon="12.2806611048">
		<tag k="name" v="Hornet" />
		<tag k="place" v="locality" />
		<tag k="ssr:stedsnr" v="188190" />
	</node>
	<node id="-51598" lat="60.3010527761" lon="11.9463194492">
		<tag k="name" v="Gjeddetjennet" />
		<tag k="natural" v="water" />
		<tag k="ssr:stedsnr" v="856550" />
	</node>
	<node id="-49549" lat="60.3863888898" lon="12.322686103">
		<tag k="name" v="Skasen" />
		<tag k="natural" v="water" />
		<tag k="ssr:stedsnr" v="188045" />
		<tag k="water" v="lake" />
	</node>
	<node id="-51596" lat="60.3284527735" lon="12.2105555485">
		<tag k="name" v="Auråa" />
		<tag k="old_name" v="Åuråa" />
		<tag k="ssr:stedsnr" v="856526" />
		<tag k="waterway" v="stream" />
	</node>
	<node id="-49559" lat="60.3635472225" lon="12.1059722184">
		<tag k="name" v="Blakketjennet" />
		<tag k="natural" v="water" />
		<tag k="ssr:stedsnr" v="188298" />
	</node>
	<node id="-49539" lat="60.1520027746" lon="12.4041166637">
		<tag k="alt_name" v="Silkåa" />
		<tag k="name" v="Sikåa" />
		<tag k="ssr:stedsnr" v="187970" />
		<tag k="waterway" v="river" />
	</node>
	<node id="-49537" lat="60.1311555514" lon="12.3636499986">
		<tag k="name" v="Aurkyttjennet" />
		<tag k="natural" v="water" />
		<tag k="ssr:stedsnr" v="187961" />
	</node>
	<node id="-49534" lat="60.1019861156" lon="12.3400194439">
		<tag k="name" v="Damtjenn" />
		<tag k="natural" v="water" />
		<tag k="ssr:stedsnr" v="187905" />
	</node>
	<node id="-51581" lat="60.3347527796" lon="12.1111916597">
		<tag k="name" v="Damtjenn" />
		<tag k="natural" v="water" />
		<tag k="ssr:stedsnr" v="856304" />
	</node>
	<node id="-49532" lat="60.2344000038" lon="12.4301999957">
		<tag k="name" v="Abbortjenn" />
		<tag k="natural" v="water" />
		<tag k="ssr:stedsnr" v="187801" />
	</node>
	<node id="-49528" lat="60.1890083296" lon="12.2494250028">
		<tag k="name" v="Raiabekken" />
		<tag k="ssr:stedsnr" v="187766" />
		<tag k="waterway" v="stream" />
	</node>
	<node id="-49556" lat="60.3499805564" lon="12.0169361174">
		<tag k="name" v="Eidstjennet" />
		<tag k="natural" v="water" />
		<tag k="ssr:stedsnr" v="188277" />
	</node>
	<node id="-51574" lat="60.2977611108" lon="12.2645388937">
		<tag k="name" v="Lomtjennet" />
		<tag k="natural" v="water" />
		<tag k="ssr:stedsnr" v="856155" />
	</node>
	<node id="-49525" lat="60.1870999966" lon="12.3380499907">
		<tag k="name" v="Kvernholmen" />
		<tag k="place" v="islet" />
		<tag k="ssr:stedsnr" v="187758" />
	</node>
	<node id="-51572" lat="60.3051583372" lon="12.3691777838">
		<tag k="name" v="Karttjennet" />
		<tag k="natural" v="water" />
		<tag k="ssr:stedsnr" v="856153" />
	</node>
	<node id="-51570" lat="60.3071249957" lon="12.2703250036">
		<tag k="alt_name" v="Digernessjøen, nedre" />
		<tag k="name" v="Nedre Digernessjøen" />
		<tag k="natural" v="water" />
		<tag k="ssr:stedsnr" v="856140" />
	</node>
	<node id="-49519" lat="60.1661472212" lon="12.3295111076">
		<tag k="name" v="Skreddartjenn" />
		<tag k="natural" v="water" />
		<tag k="ssr:stedsnr" v="187737" />
	</node>
	<node id="-51566" lat="60.152619442" lon="12.472308328">
		<tag k="name" v="Heimtjennet" />
		<tag k="natural" v="water" />
		<tag k="ssr:stedsnr" v="855978" />
	</node>
	<node id="-51565" lat="60.1565750007" lon="12.3913805538">
		<tag k="name" v="Påssvikholmen" />
		<tag k="place" v="islet" />
		<tag k="ssr:stedsnr" v="855975" />
	</node>
	<node id="-51561" lat="60.1315027789" lon="12.4494944386">
		<tag k="name" v="Storholmen" />
		<tag k="place" v="islet" />
		<tag k="ssr:stedsnr" v="855951" />
	</node>
	<node id="-49512" lat="60.1480750017" lon="12.0523000076">
		<tag k="name" v="Tarven" />
		<tag k="natural" v="water" />
		<tag k="ssr:stedsnr" v="187544" />
	</node>
	<node id="-51558" lat="60.0883805564" lon="12.4084249924">
		<tag k="name" v="Storholmen" />
		<tag k="place" v="islet" />
		<tag k="ssr:stedsnr" v="855890" />
	</node>
	<node id="-51557" lat="60.0914749981" lon="12.4004805508">
		<tag k="name" v="Nesodden" />
		<tag k="natural" v="cape" />
		<tag k="ssr:stedsnr" v="855891" />
	</node>
	<node id="-51556" lat="60.2392750007" lon="12.3239833253">
		<tag k="fixme" v="multiple name tags, choose one and add the other to alt_name" />
		<tag k="name" v="Einahodølpa;Leo" />
		<tag k="natural" v="water" />
		<tag k="ssr:stedsnr" v="855861" />
	</node>
	<node id="-51600" lat="60.2551500023" lon="12.4175777718">
		<tag k="name" v="Kjerketjenna" />
		<tag k="natural" v="water" />
		<tag k="ssr:stedsnr" v="856877" />
	</node>
	<node id="-51546" lat="60.1843888871" lon="12.2808916622">
		<tag k="name" v="Nygardstjennet" />
		<tag k="natural" v="water" />
		<tag k="ssr:stedsnr" v="855803" />
	</node>
	<node id="-51545" lat="60.1839249992" lon="12.3704500008">
		<tag k="name" v="Orrholma" />
		<tag k="place" v="islet" />
		<tag k="ssr:stedsnr" v="855789" />
	</node>
	<node id="-51544" lat="60.1841888919" lon="12.4854777772">
		<tag k="name" v="Tobakktjennet" />
		<tag k="natural" v="water" />
		<tag k="ssr:stedsnr" v="855781" />
	</node>
	<node id="-51543" lat="60.092088886" lon="12.0246916624">
		<tag k="name" v="Butjennet" />
		<tag k="natural" v="water" />
		<tag k="ssr:stedsnr" v="855749" />
	</node>
	<node id="-51540" lat="60.1842416695" lon="12.1883888848">
		<tag k="name" v="Urstjennet" />
		<tag k="natural" v="water" />
		<tag k="ssr:stedsnr" v="855607" />
	</node>
	<node id="-51536" lat="60.1320500005" lon="12.091500007">
		<tag k="name" v="Stråtjennet" />
		<tag k="natural" v="water" />
		<tag k="ssr:stedsnr" v="855555" />
	</node>
	<node id="-51535" lat="60.1106444483" lon="12.0668444412">
		<tag k="name" v="Strengelsrudtjenna" />
		<tag k="natural" v="water" />
		<tag k="ssr:stedsnr" v="855516" />
		<tag k="water" v="lake" />
	</node>
	<node id="-49486" lat="60.0724083355" lon="12.368424999">
		<tag k="name" v="Eintjenn" />
		<tag k="natural" v="water" />
		<tag k="ssr:stedsnr" v="187104" />
	</node>
	<node id="-49481" lat="60.2305305522" lon="11.9555000059">
		<tag k="name" v="Bogersjøen" />
		<tag k="natural" v="water" />
		<tag k="ssr:stedsnr" v="187019" />
	</node>
	<node id="-51528" lat="60.369044443" lon="12.3557250047">
		<tag k="name" v="Stallviktjennet" />
		<tag k="natural" v="water" />
		<tag k="ssr:stedsnr" v="855194" />
	</node>
	<node id="-51525" lat="60.0584611071" lon="12.4191499938">
		<tag k="name" v="Aurlitjenn" />
		<tag k="natural" v="water" />
		<tag k="ssr:stedsnr" v="855124" />
	</node>
	<node id="-49474" lat="60.0065138845" lon="12.3790083331">
		<tag k="name" v="Sundstrandfossen" />
		<tag k="natural" v="waterfall" />
		<tag k="ssr:stedsnr" v="180724" />
	</node>
	<node id="-51517" lat="60.0753333337" lon="12.3823194528">
		<tag k="name" v="Hærsmyrtjenn" />
		<tag k="natural" v="water" />
		<tag k="ssr:stedsnr" v="855071" />
	</node>
	<node id="-49468" lat="60.2222055585" lon="12.4313250047">
		<tag k="name" v="Vesle Øyeren" />
		<tag k="natural" v="bay" />
		<tag k="ssr:stedsnr" v="180390" />
	</node>
	<node id="-51511" lat="60.2431083334" lon="12.1082166724">
		<tag k="name" v="Lystadtjennet" />
		<tag k="natural" v="water" />
		<tag k="ssr:stedsnr" v="855044" />
	</node>
	<node id="-49545" lat="60.3073111139" lon="12.2502472285">
		<tag k="name" v="Midtre Nysætertjennet" />
		<tag k="natural" v="water" />
		<tag k="ssr:stedsnr" v="188156" />
	</node>
	<node id="-51668" lat="60.2280499971" lon="11.9660694499">
		<tag k="name" v="Tomilbekken" />
		<tag k="ssr:stedsnr" v="908788" />
		<tag k="waterway" v="stream" />
	</node>
	<node id="-49456" lat="60.1160250032" lon="12.3711222258">
		<tag k="name" v="Engemyrvika" />
		<tag k="natural" v="bay" />
		<tag k="ssr:stedsnr" v="179778" />
	</node>
	<node id="-49455" lat="60.2061083319" lon="12.2860777713">
		<tag k="name" v="Søndre Morttjennet" />
		<tag k="natural" v="water" />
		<tag k="ssr:stedsnr" v="179775" />
	</node>
	<node id="-49454" lat="60.127147226" lon="12.3782805605">
		<tag k="name" v="Morttjennbekken" />
		<tag k="ssr:stedsnr" v="179773" />
		<tag k="waterway" v="stream" />
	</node>
	<node id="-49453" lat="60.1272722196" lon="12.3925805601">
		<tag k="name" v="Kappusbekken" />
		<tag k="ssr:stedsnr" v="179768" />
		<tag k="waterway" v="stream" />
	</node>
	<node id="-49448" lat="60.2232722185" lon="12.4221500015">
		<tag k="name" v="Løvtjennbekken" />
		<tag k="ssr:stedsnr" v="179370" />
		<tag k="waterway" v="stream" />
	</node>
	<node id="-49201" lat="60.2144833304" lon="12.1675972232">
		<tag k="name" v="Dulpa" />
		<tag k="natural" v="water" />
		<tag k="ssr:stedsnr" v="116833" />
		<tag k="water" v="pond" />
	</node>
	<node id="-51489" lat="60.2756555582" lon="11.9579000089">
		<tag k="name" v="Sølvtjennbekken" />
		<tag k="ssr:stedsnr" v="848156" />
		<tag k="waterway" v="stream" />
	</node>
	<node id="-49588" lat="60.211869445" lon="12.3751694395">
		<tag k="name" v="Knetjenn" />
		<tag k="natural" v="water" />
		<tag k="ssr:stedsnr" v="188822" />
	</node>
	<node id="-51485" lat="60.1273861096" lon="12.4862750075">
		<tag k="name" v="Bostakatjennet" />
		<tag k="natural" v="water" />
		<tag k="ssr:stedsnr" v="848239" />
	</node>
	<node id="-51481" lat="60.2957999986" lon="12.125736109">
		<tag k="name" v="Aseltjennsbekken" />
		<tag k="ssr:stedsnr" v="847256" />
		<tag k="waterway" v="stream" />
	</node>
	<node id="-49428" lat="60.2000555514" lon="12.2767">
		<tag k="name" v="Hokåssætertjennet" />
		<tag k="natural" v="water" />
		<tag k="ssr:stedsnr" v="177422" />
	</node>
	<node id="-49426" lat="60.2435138871" lon="11.9810888942">
		<tag k="name" v="Kabberudbekken" />
		<tag k="ssr:stedsnr" v="176942" />
		<tag k="waterway" v="stream" />
	</node>
	<node id="-51470" lat="60.2304305554" lon="12.3153694522">
		<tag k="name" v="Bukketjennet" />
		<tag k="natural" v="water" />
		<tag k="ssr:stedsnr" v="846980" />
	</node>
	<node id="-49421" lat="60.2901666636" lon="12.3234055614">
		<tag k="name" v="Djevelodden" />
		<tag k="natural" v="cape" />
		<tag k="ssr:stedsnr" v="176916" />
	</node>
	<node id="-51468" lat="60.2544222219" lon="12.3611583253">
		<tag k="name" v="Ligolamp" />
		<tag k="natural" v="water" />
		<tag k="ssr:stedsnr" v="846907" />
	</node>
	<node id="-51462" lat="60.2864388906" lon="12.2298777869">
		<tag k="name" v="Nydammen" />
		<tag k="natural" v="bay" />
		<tag k="ssr:stedsnr" v="846698" />
	</node>
	<node id="-51585" lat="60.340097218" lon="12.0545611126">
		<tag k="name" v="Noret" />
		<tag k="natural" v="strait" />
		<tag k="ssr:stedsnr" v="856334" />
	</node>
	<node id="-51459" lat="60.12056389" lon="11.9914944529">
		<tag k="name" v="Pustuttjennet" />
		<tag k="natural" v="water" />
		<tag k="ssr:stedsnr" v="846573" />
	</node>
	<node id="-49408" lat="60.2209138918" lon="12.2829194446">
		<tag k="name" v="Hanoatjennet" />
		<tag k="natural" v="water" />
		<tag k="ssr:stedsnr" v="176359" />
	</node>
	<node id="-49405" lat="60.2163583293" lon="12.4247361043">
		<tag k="name" v="Kosiaslamp" />
		<tag k="natural" v="water" />
		<tag k="ssr:stedsnr" v="176178" />
		<tag k="water" v="pond" />
	</node>
	<node id="-51452" lat="60.3416083351" lon="12.0605611027">
		<tag k="name" v="Hestbekken" />
		<tag k="ssr:stedsnr" v="846049" />
		<tag k="waterway" v="stream" />
	</node>
	<node id="-49400" lat="60.3244305594" lon="12.1124138958">
		<tag k="name" v="Blakktjenna" />
		<tag k="natural" v="water" />
		<tag k="ssr:stedsnr" v="176047" />
		<tag k="water" v="pond" />
	</node>
	<node id="-49399" lat="60.3484555565" lon="12.3223277784">
		<tag k="name" v="Libekken" />
		<tag k="ssr:stedsnr" v="176048" />
		<tag k="waterway" v="stream" />
	</node>
	<node id="-51446" lat="60.1598388885" lon="12.3359166669">
		<tag k="name" v="Haratangen" />
		<tag k="natural" v="cape" />
		<tag k="ssr:stedsnr" v="844944" />
	</node>
	<node id="-49397" lat="60.358552779" lon="12.3381555547">
		<tag k="name" v="Finnveltholmen" />
		<tag k="place" v="islet" />
		<tag k="ssr:stedsnr" v="176024" />
	</node>
	<node id="-49395" lat="60.1095333338" lon="12.4750222206">
		<tag k="name" v="Tobakkvika" />
		<tag k="natural" v="bay" />
		<tag k="ssr:stedsnr" v="176008" />
	</node>
	<node id="-51439" lat="60.2057527745" lon="12.0513555596">
		<tag k="name" v="Nordbybekken" />
		<tag k="ssr:stedsnr" v="844891" />
		<tag k="waterway" v="stream" />
	</node>
	<node id="-51438" lat="60.2122749996" lon="11.9693166593">
		<tag k="name" v="Bogerbekken" />
		<tag k="ssr:stedsnr" v="844877" />
		<tag k="waterway" v="stream" />
	</node>
	<node id="-51437" lat="60.0891055544" lon="12.3223416663">
		<tag k="name" v="Sunda" />
		<tag k="natural" v="bay" />
		<tag k="ssr:stedsnr" v="844853" />
	</node>
	<node id="-49388" lat="60.2735555519" lon="11.9991083278">
		<tag k="name" v="Bånerudbekken" />
		<tag k="ssr:stedsnr" v="163987" />
		<tag k="waterway" v="stream" />
	</node>
	<node id="-50898" lat="60.2374083324" lon="12.2488027829">
		<tag k="name" v="Egletjenn" />
		<tag k="natural" v="water" />
		<tag k="ssr:stedsnr" v="673846" />
	</node>
	<node id="-49386" lat="60.0956916694" lon="12.3819083421">
		<tag k="name" v="Smørholmvika" />
		<tag k="natural" v="bay" />
		<tag k="ssr:stedsnr" v="163818" />
	</node>
	<node id="-49385" lat="60.0997833324" lon="12.3178638805">
		<tag k="name" v="Bukkholmen" />
		<tag k="place" v="islet" />
		<tag k="ssr:stedsnr" v="163765" />
	</node>
	<node id="-48508" lat="60.2909777753" lon="12.3278861096">
		<tag k="name" v="Ormtjennet" />
		<tag k="natural" v="water" />
		<tag k="ssr:stedsnr" v="358916" />
	</node>
	<node id="-49382" lat="60.0119222258" lon="12.3713222254">
		<tag k="name" v="Halteigvika" />
		<tag k="natural" v="bay" />
		<tag k="ssr:stedsnr" v="163716" />
	</node>
	<node id="-49379" lat="60.3430277769" lon="12.2863305606">
		<tag k="name" v="Gravsjøåa" />
		<tag k="ssr:stedsnr" v="163650" />
		<tag k="waterway" v="stream" />
	</node>
	<node id="-49378" lat="60.3378388913" lon="12.2672666752">
		<tag k="name" v="Kjerringbekken" />
		<tag k="ssr:stedsnr" v="163633" />
		<tag k="waterway" v="stream" />
	</node>
	<node id="-49372" lat="60.2105305559" lon="12.526261109">
		<tag k="name" v="Norska Viken" />
		<tag k="natural" v="bay" />
		<tag k="ssr:stedsnr" v="163308" />
	</node>
	<node id="-51418" lat="60.1115861104" lon="12.465102776">
		<tag k="name" v="Pyntevika" />
		<tag k="natural" v="bay" />
		<tag k="ssr:stedsnr" v="844230" />
	</node>
	<node id="-51417" lat="60.1616805535" lon="12.4493638933">
		<tag k="name" v="Pekkaporro" />
		<tag k="ssr:stedsnr" v="844195" />
		<tag k="waterway" v="stream" />
	</node>
	<node id="-50894" lat="60.2172305557" lon="12.3404749928">
		<tag k="name" v="Revtjenn" />
		<tag k="natural" v="water" />
		<tag k="ssr:stedsnr" v="673794" />
	</node>
	<node id="-49362" lat="60.1174055599" lon="12.3194305546">
		<tag k="name" v="Solbergåa" />
		<tag k="ssr:stedsnr" v="161759" />
		<tag k="waterway" v="river" />
	</node>
	<node id="-51409" lat="60.3077472224" lon="12.3472194368">
		<tag k="name" v="Brattfossen" />
		<tag k="natural" v="waterfall" />
		<tag k="ssr:stedsnr" v="844105" />
	</node>
	<node id="-49360" lat="60.1306777781" lon="12.3201638954">
		<tag k="name" v="Lomvika" />
		<tag k="natural" v="bay" />
		<tag k="ssr:stedsnr" v="161754" />
	</node>
	<node id="-49359" lat="60.1318250035" lon="11.9327638871">
		<tag k="name" v="Opptjennsbrennene" />
		<tag k="ssr:stedsnr" v="161697" />
		<tag k="waterway" v="stream" />
	</node>
	<node id="-51448" lat="60.1679277816" lon="12.354936107">
		<tag k="name" v="Nisseølen" />
		<tag k="natural" v="shoal" />
		<tag k="place" v="locality" />
		<tag k="ssr:stedsnr" v="844953" />
	</node>
	<node id="-49355" lat="60.2482249956" lon="12.4556888862">
		<tag k="name" v="Langnabben" />
		<tag k="natural" v="cape" />
		<tag k="ssr:stedsnr" v="161344" />
	</node>
	<node id="-51397" lat="60.346919448" lon="12.0408111149">
		<tag k="name" v="Fosseidvika" />
		<tag k="natural" v="bay" />
		<tag k="ssr:stedsnr" v="831710" />
	</node>
	<node id="-51394" lat="60.2443333342" lon="12.2322166741">
		<tag k="name" v="Homsjønebben" />
		<tag k="natural" v="cape" />
		<tag k="ssr:stedsnr" v="831470" />
	</node>
	<node id="-51392" lat="60.3696361099" lon="12.3500888963">
		<tag k="name" v="Sandvika" />
		<tag k="natural" v="bay" />
		<tag k="ssr:stedsnr" v="831468" />
	</node>
	<node id="-51391" lat="60.3685777821" lon="12.3612277705">
		<tag k="name" v="Svarttjennet" />
		<tag k="natural" v="water" />
		<tag k="ssr:stedsnr" v="831461" />
	</node>
	<node id="-49342" lat="60.3945638885" lon="12.2599055538">
		<tag k="name" v="Rådelsbekken" />
		<tag k="ssr:stedsnr" v="128046" />
		<tag k="waterway" v="stream" />
	</node>
	<node id="-51573" lat="60.2909805549" lon="12.2494722179">
		<tag k="name" v="Søndre Orrenabben" />
		<tag k="natural" v="cape" />
		<tag k="ssr:stedsnr" v="856156" />
	</node>
	<node id="-49340" lat="60.2373722226" lon="12.440902783">
		<tag k="name" v="Svarttjenn" />
		<tag k="natural" v="water" />
		<tag k="ssr:stedsnr" v="127841" />
	</node>
	<node id="-49721" lat="60.0652805592" lon="12.325966663">
		<tag k="name" v="Finnlitjenn" />
		<tag k="natural" v="water" />
		<tag k="ssr:stedsnr" v="248096" />
	</node>
	<node id="-49337" lat="60.2168638928" lon="12.2356972166">
		<tag k="name" v="Mengetjennet" />
		<tag k="natural" v="water" />
		<tag k="ssr:stedsnr" v="127829" />
	</node>
	<node id="-51383" lat="60.1816277754" lon="12.5312305588">
		<tag k="name" v="Særkilampsbekken" />
		<tag k="ssr:stedsnr" v="831192" />
		<tag k="waterway" v="stream" />
	</node>
	<node id="-49334" lat="60.1206442062" lon="12.0422966778">
		<tag k="name" v="Sigernessjøen" />
		<tag k="natural" v="water" />
		<tag k="ssr:stedsnr" v="127604" />
		<tag k="water" v="lake" />
	</node>
	<node id="-49789" lat="60.262094447" lon="12.0409361094">
		<tag k="name" v="Øyersand" />
		<tag k="place" v="islet" />
		<tag k="ssr:stedsnr" v="249446" />
	</node>
	<node id="-51371" lat="60.0768000042" lon="12.2771027805">
		<tag k="name" v="Gomyrtjennet" />
		<tag k="natural" v="water" />
		<tag k="ssr:stedsnr" v="831676" />
	</node>
	<node id="-49863" lat="60.1133138909" lon="12.3880055475">
		<tag k="name" v="Lomholmen" />
		<tag k="place" v="islet" />
		<tag k="ssr:stedsnr" v="422773" />
	</node>
	<node id="-51368" lat="60.1150916627" lon="11.9153138856">
		<tag k="name" v="Opptjennsbekken" />
		<tag k="ssr:stedsnr" v="829257" />
		<tag k="waterway" v="stream" />
	</node>
	<node id="-51366" lat="60.2773166632" lon="12.2212083327">
		<tag k="name" v="Vålvika" />
		<tag k="natural" v="bay" />
		<tag k="ssr:stedsnr" v="828572" />
	</node>
	<node id="-49317" lat="60.2628611085" lon="11.9404777832">
		<tag k="name" v="Gjølstadsætertjenn" />
		<tag k="natural" v="water" />
		<tag k="ssr:stedsnr" v="127403" />
	</node>
	<node id="-51363" lat="60.3038055512" lon="12.1008666681">
		<tag k="name" v="Skårebekken" />
		<tag k="ssr:stedsnr" v="829242" />
		<tag k="waterway" v="stream" />
	</node>
	<node id="-49312" lat="60.3458555538" lon="12.302255562">
		<tag k="name" v="Gravsjøen" />
		<tag k="natural" v="water" />
		<tag k="ssr:stedsnr" v="127227" />
	</node>
	<node id="-49310" lat="60.2663944415" lon="12.3212666642">
		<tag k="name" v="Brennatjennet" />
		<tag k="natural" v="water" />
		<tag k="ssr:stedsnr" v="127203" />
	</node>
	<node id="-49308" lat="60.2780833358" lon="12.5031722275">
		<tag k="name" v="Lillfløyta" />
		<tag k="place" v="locality" />
		<tag k="ssr:stedsnr" v="127197" />
	</node>
	<node id="-49303" lat="60.3230638858" lon="12.3142861122">
		<tag k="fixme" v="multiple name tags, choose one and add the other to alt_name" />
		<tag k="name" v="Langåsdulpene;Oksauget" />
		<tag k="natural" v="water" />
		<tag k="ssr:stedsnr" v="127262" />
	</node>
	<node id="-51350" lat="60.3171499964" lon="11.9101638935">
		<tag k="name" v="Unumsætertjennet" />
		<tag k="natural" v="water" />
		<tag k="ssr:stedsnr" v="795519" />
	</node>
	<node id="-49301" lat="60.3084555523" lon="12.3392499972">
		<tag k="name" v="Grautsjøen" />
		<tag k="natural" v="water" />
		<tag k="ssr:stedsnr" v="127132" />
	</node>
	<node id="-51345" lat="60.252188887" lon="12.1293305601">
		<tag k="name" v="Ormtjennet" />
		<tag k="natural" v="water" />
		<tag k="ssr:stedsnr" v="795478" />
	</node>
	<node id="-49294" lat="60.2912944428" lon="12.2413194373">
		<tag k="name" v="Steinreien" />
		<tag k="natural" v="water" />
		<tag k="ssr:stedsnr" v="127167" />
		<tag k="water" v="lake" />
	</node>
	<node id="-50947" lat="60.2593222255" lon="12.1749166661">
		<tag k="name" v="Frautjennet" />
		<tag k="natural" v="water" />
		<tag k="ssr:stedsnr" v="709161" />
		<tag k="water" v="pond" />
	</node>
	<node id="-51340" lat="60.3417333359" lon="12.0978083273">
		<tag k="name" v="Damtjennbekken" />
		<tag k="ssr:stedsnr" v="795338" />
		<tag k="waterway" v="stream" />
	</node>
	<node id="-49858" lat="60.2651555524" lon="12.4421944398">
		<tag k="name" v="Kårplampbekken" />
		<tag k="ssr:stedsnr" v="422335" />
		<tag k="waterway" v="stream" />
	</node>
	<node id="-49290" lat="60.2521217571" lon="12.0779130812">
		<tag k="name" v="Prestegardstjennet" />
		<tag k="natural" v="water" />
		<tag k="ssr:stedsnr" v="127054" />
	</node>
	<node id="-49288" lat="60.0930472207" lon="12.2850416681">
		<tag k="name" v="Tryggtjennet" />
		<tag k="natural" v="water" />
		<tag k="ssr:stedsnr" v="126886" />
	</node>
	<node id="-51333" lat="60.3318694473" lon="12.2513777744">
		<tag k="name" v="Åsabekken" />
		<tag k="ssr:stedsnr" v="795285" />
		<tag k="waterway" v="stream" />
	</node>
	<node id="-51329" lat="60.3453416631" lon="12.3972444378">
		<tag k="name" v="Grasbergtjenna" />
		<tag k="natural" v="water" />
		<tag k="ssr:stedsnr" v="795265" />
		<tag k="water" v="lake" />
	</node>
	<node id="-49278" lat="60.095869441" lon="12.06780834">
		<tag k="name" v="Motjennet" />
		<tag k="natural" v="water" />
		<tag k="ssr:stedsnr" v="126702" />
	</node>
	<node id="-49277" lat="60.2436000043" lon="12.4659499978">
		<tag k="alt_name" v="Øyerfløyta" />
		<tag k="name" v="Fløyta" />
		<tag k="ssr:stedsnr" v="126828" />
		<tag k="waterway" v="stream" />
	</node>
	<node id="-51324" lat="60.290135382" lon="12.3191025556">
		<tag k="name" v="Tullreien" />
		<tag k="natural" v="water" />
		<tag k="ssr:stedsnr" v="795200" />
		<tag k="water" v="lake" />
	</node>
	<node id="-51323" lat="60.2751999986" lon="12.3094222199">
		<tag k="name" v="Svarttjennet" />
		<tag k="natural" v="water" />
		<tag k="ssr:stedsnr" v="795196" />
	</node>
	<node id="-49272" lat="60.1377749965" lon="12.0076027702">
		<tag k="name" v="Holeråa" />
		<tag k="ssr:stedsnr" v="126538" />
		<tag k="waterway" v="stream" />
	</node>
	<node id="-51319" lat="60.3114805517" lon="12.3954805629">
		<tag k="name" v="Norstjennet" />
		<tag k="natural" v="water" />
		<tag k="ssr:stedsnr" v="795162" />
	</node>
	<node id="-51318" lat="60.3725833328" lon="12.3520777766">
		<tag k="name" v="Grånåsen" />
		<tag k="natural" v="cape" />
		<tag k="ssr:stedsnr" v="795094" />
	</node>
	<node id="-51317" lat="60.2388944405" lon="11.9089277702">
		<tag k="name" v="Gututjennet" />
		<tag k="natural" v="water" />
		<tag k="ssr:stedsnr" v="795023" />
		<tag k="water" v="pond" />
	</node>
	<node id="-49265" lat="60.0720611108" lon="12.3006833254">
		<tag k="name" v="Sætertjennet" />
		<tag k="natural" v="water" />
		<tag k="ssr:stedsnr" v="126081" />
	</node>
	<node id="-51461" lat="60.103458332" lon="12.0066777707">
		<tag k="name" v="Svartbekken" />
		<tag k="ssr:stedsnr" v="846584" />
		<tag k="waterway" v="stream" />
	</node>
	<node id="-49259" lat="60.0613999962" lon="12.3961500058">
		<tag k="fixme" v="multiple name tags, choose one and add the other to alt_name" />
		<tag k="name" v="Karterudåa;Østgårdsåa" />
		<tag k="ssr:stedsnr" v="126120" />
		<tag k="waterway" v="stream" />
	</node>
	<node id="-49258" lat="60.2122222246" lon="12.206175007">
		<tag k="name" v="Lystadsætertjennet" />
		<tag k="natural" v="water" />
		<tag k="ssr:stedsnr" v="126114" />
	</node>
	<node id="-51304" lat="60.1059222246" lon="12.5012111128">
		<tag k="name" v="Lystjenn" />
		<tag k="natural" v="water" />
		<tag k="ssr:stedsnr" v="794917" />
	</node>
	<node id="-51300" lat="60.0978694451" lon="12.3595777849">
		<tag k="name" v="Igletjenn" />
		<tag k="natural" v="water" />
		<tag k="ssr:stedsnr" v="794890" />
	</node>
	<node id="-49251" lat="60.0548972214" lon="12.4491027743">
		<tag k="name" v="Høltjenn" />
		<tag k="natural" v="water" />
		<tag k="ssr:stedsnr" v="126009" />
	</node>
	<node id="-49249" lat="60.0528250033" lon="12.3954500093">
		<tag k="alt_name" v="Østgårdåa" />
		<tag k="name" v="Austgardsåa" />
		<tag k="ssr:stedsnr" v="126003" />
		<tag k="waterway" v="stream" />
	</node>
	<node id="-51293" lat="60.2413083375" lon="12.3039750028">
		<tag k="name" v="Navarskaftet" />
		<tag k="natural" v="water" />
		<tag k="ssr:stedsnr" v="794829" />
	</node>
	<node id="-51292" lat="60.2439638868" lon="12.3295472169">
		<tag k="name" v="Bråtåtjennet" />
		<tag k="natural" v="water" />
		<tag k="ssr:stedsnr" v="794828" />
	</node>
	<node id="-51290" lat="60.2213999997" lon="12.2986250019">
		<tag k="name" v="Skjærtjennet" />
		<tag k="natural" v="water" />
		<tag k="ssr:stedsnr" v="794809" />
	</node>
	<node id="-51289" lat="60.2279083321" lon="12.4173499986">
		<tag k="name" v="Lauvtjennet" />
		<tag k="natural" v="water" />
		<tag k="ssr:stedsnr" v="794805" />
	</node>
	<node id="-51288" lat="60.2272055543" lon="12.3521694374">
		<tag k="name" v="Aurtjennbekken" />
		<tag k="ssr:stedsnr" v="794804" />
		<tag k="waterway" v="stream" />
	</node>
	<node id="-49239" lat="60.282519447" lon="12.4218972231">
		<tag k="name" v="Bjørketjennet" />
		<tag k="natural" v="water" />
		<tag k="ssr:stedsnr" v="119346" />
	</node>
	<node id="-51286" lat="60.1690777753" lon="12.3377999955">
		<tag k="name" v="Fjørsundtangen" />
		<tag k="natural" v="cape" />
		<tag k="ssr:stedsnr" v="794752" />
	</node>
	<node id="-50873" lat="60.332902777" lon="12.3056249969">
		<tag k="name" v="Gammelvollbekken" />
		<tag k="ssr:stedsnr" v="673270" />
		<tag k="waterway" v="stream" />
	</node>
	<node id="-51283" lat="60.1448749967" lon="11.9267222247">
		<tag k="name" v="Lyssjøen" />
		<tag k="natural" v="water" />
		<tag k="ssr:stedsnr" v="794590" />
	</node>
	<node id="-49234" lat="60.311869449" lon="12.3504916599">
		<tag k="name" v="Kartnagatjenna" />
		<tag k="natural" v="water" />
		<tag k="ssr:stedsnr" v="119106" />
	</node>
	<node id="-49232" lat="60.227997226" lon="12.3258666671">
		<tag k="name" v="Hvitamækktjennet" />
		<tag k="natural" v="water" />
		<tag k="ssr:stedsnr" v="118976" />
	</node>
	<node id="-51277" lat="60.1368499988" lon="11.9286388971">
		<tag k="name" v="Letjenn" />
		<tag k="natural" v="water" />
		<tag k="ssr:stedsnr" v="794536" />
	</node>
	<node id="-49228" lat="60.25354444" lon="12.3683861189">
		<tag k="name" v="Baggetjennet" />
		<tag k="natural" v="water" />
		<tag k="ssr:stedsnr" v="118915" />
	</node>
	<node id="-51274" lat="60.1058138858" lon="12.0786861096">
		<tag k="name" v="Dulptjennet" />
		<tag k="natural" v="water" />
		<tag k="ssr:stedsnr" v="794516" />
	</node>
	<node id="-51272" lat="60.1114277749" lon="11.9790611126">
		<tag k="name" v="Hauksjøen" />
		<tag k="natural" v="water" />
		<tag k="ssr:stedsnr" v="794483" />
	</node>
	<node id="-51271" lat="60.2114500038" lon="11.9284555601">
		<tag k="name" v="Svartholmen" />
		<tag k="place" v="islet" />
		<tag k="ssr:stedsnr" v="794120" />
	</node>
	<node id="-51270" lat="60.0628472237" lon="12.4626250061">
		<tag k="name" v="Grastjenn" />
		<tag k="natural" v="water" />
		<tag k="ssr:stedsnr" v="794117" />
	</node>
	<node id="-49218" lat="60.2664249969" lon="12.4597972139">
		<tag k="name" v="Liabekken" />
		<tag k="ssr:stedsnr" v="118330" />
		<tag k="waterway" v="stream" />
	</node>
	<node id="-51265" lat="60.0680916621" lon="12.3127305593">
		<tag k="name" v="Oksauga" />
		<tag k="natural" v="water" />
		<tag k="ssr:stedsnr" v="794076" />
	</node>
	<node id="-51262" lat="60.0816166665" lon="12.2847138816">
		<tag k="name" v="Raudmyrtjenn" />
		<tag k="natural" v="water" />
		<tag k="ssr:stedsnr" v="794064" />
	</node>
	<node id="-51260" lat="60.0774388883" lon="12.393074997">
		<tag k="name" v="Nordre Åkroktjenn" />
		<tag k="natural" v="water" />
		<tag k="ssr:stedsnr" v="794053" />
	</node>
	<node id="-51551" lat="60.2291222214" lon="12.4828083409">
		<tag k="name" v="Bråtetjenn" />
		<tag k="natural" v="water" />
		<tag k="ssr:stedsnr" v="855834" />
	</node>
	<node id="-50868" lat="60.2643944402" lon="12.3324388911">
		<tag k="name" v="Pottislamp" />
		<tag k="natural" v="water" />
		<tag k="ssr:stedsnr" v="673201" />
	</node>
	<node id="-51254" lat="60.0547805581" lon="12.3749305629">
		<tag k="name" v="Motjennet" />
		<tag k="natural" v="water" />
		<tag k="ssr:stedsnr" v="794009" />
	</node>
	<node id="-51891" lat="60.1178972221" lon="12.3918472232">
		<tag k="name" v="Persvangen" />
		<tag k="ssr:stedsnr" v="967742" />
		<tag k="waterway" v="stream" />
	</node>
	<node id="-49200" lat="60.3264027753" lon="12.2769416611">
		<tag k="name" v="Nordre Lensenebben" />
		<tag k="natural" v="cape" />
		<tag k="ssr:stedsnr" v="116655" />
	</node>
	<node id="-50866" lat="60.2803527781" lon="12.4473222233">
		<tag k="name" v="Aurtjennet" />
		<tag k="natural" v="water" />
		<tag k="ssr:stedsnr" v="673184" />
	</node>
	<node id="-51241" lat="60.352125001" lon="11.852819449">
		<tag k="name" v="Balsjøbekken" />
		<tag k="ssr:stedsnr" v="787322" />
		<tag k="waterway" v="stream" />
	</node>
	<node id="-49192" lat="60.2236722213" lon="12.2856916752">
		<tag k="name" v="Rundvatjennet" />
		<tag k="natural" v="water" />
		<tag k="ssr:stedsnr" v="116370" />
	</node>
	<node id="-49191" lat="60.2592694429" lon="12.5080305526">
		<tag k="name" v="Maisobekken" />
		<tag k="ssr:stedsnr" v="116339" />
		<tag k="waterway" v="stream" />
	</node>
	<node id="-49187" lat="60.1950611156" lon="12.4807222216">
		<tag k="name" v="Kottermyrtjennet" />
		<tag k="natural" v="water" />
		<tag k="ssr:stedsnr" v="116159" />
	</node>
	<node id="-51233" lat="60.261447225" lon="12.4403666605">
		<tag k="name" v="Kattjennet" />
		<tag k="natural" v="water" />
		<tag k="ssr:stedsnr" v="786333" />
	</node>
	<node id="-51231" lat="60.313841664" lon="12.1679611143">
		<tag k="name" v="Brattbergtjennet" />
		<tag k="natural" v="water" />
		<tag k="ssr:stedsnr" v="786188" />
	</node>
	<node id="-50852" lat="60.2437249982" lon="12.1243277756">
		<tag k="name" v="Morttjennet" />
		<tag k="natural" v="water" />
		<tag k="ssr:stedsnr" v="673063" />
	</node>
	<node id="-51229" lat="60.2321555564" lon="12.3261861041">
		<tag k="name" v="Snekkertjennet" />
		<tag k="natural" v="water" />
		<tag k="ssr:stedsnr" v="785984" />
	</node>
	<node id="-49173" lat="60.239130554" lon="12.3066611167">
		<tag k="name" v="Navarskaftbekken" />
		<tag k="ssr:stedsnr" v="116980" />
		<tag k="waterway" v="stream" />
	</node>
	<node id="-51219" lat="60.1337111112" lon="12.3800638899">
		<tag k="name" v="Nordre Morttjennet" />
		<tag k="natural" v="water" />
		<tag k="ssr:stedsnr" v="785579" />
	</node>
	<node id="-49169" lat="60.1778277795" lon="12.3957222302">
		<tag k="name" v="Trosholmvika" />
		<tag k="natural" v="bay" />
		<tag k="ssr:stedsnr" v="116952" />
	</node>
	<node id="-49164" lat="60.1563944459" lon="12.3214055513">
		<tag k="name" v="Maurbakkholmen" />
		<tag k="place" v="islet" />
		<tag k="ssr:stedsnr" v="116932" />
	</node>
	<node id="-51210" lat="60.334236111" lon="12.3950472295">
		<tag k="name" v="Kverndammen" />
		<tag k="ssr:stedsnr" v="785052" />
		<tag k="waterway" v="dam" />
	</node>
	<node id="-49495" lat="60.0875888852" lon="12.4595388918">
		<tag k="name" v="Søndre Morttjennet" />
		<tag k="natural" v="water" />
		<tag k="ssr:stedsnr" v="187070" />
	</node>
	<node id="-50397" lat="60.1789749988" lon="12.2682333337">
		<tag k="name" v="Harpetjennet" />
		<tag k="natural" v="water" />
		<tag k="ssr:stedsnr" v="551789" />
	</node>
	<node id="-49158" lat="60.2528533656" lon="12.4224916564">
		<tag k="name" v="Nedre Kjerketjennet" />
		<tag k="natural" v="water" />
		<tag k="ssr:stedsnr" v="108856" />
	</node>
	<node id="-51205" lat="60.159844443" lon="12.376399998">
		<tag k="name" v="Sætervikene" />
		<tag k="natural" v="bay" />
		<tag k="ssr:stedsnr" v="783952" />
	</node>
	<node id="-51488" lat="60.2183583298" lon="12.4473638854">
		<tag k="name" v="Løvskogholmen" />
		<tag k="place" v="islet" />
		<tag k="ssr:stedsnr" v="848144" />
	</node>
</osm>
