<?xml version="1.0" encoding="UTF-8"?>
<osm generator="osmapis" version="0.6">
	<node id="-49150" lat="60.2385527789" lon="12.238169437">
		<tag k="name" v="Middagshaugen" />
		<tag k="natural" v="hill" />
		<tag k="place" v="locality" />
		<tag k="ssr:stedsnr" v="103466" />
	</node>
	<node id="-49149" lat="60.233127775" lon="12.4447055486">
		<tag k="fixme" v="consider natural=peak for the most distinct mountains in the district" />
		<tag k="name" v="Svarttjennsberget" />
		<tag k="natural" v="hill" />
		<tag k="place" v="locality" />
		<tag k="ssr:stedsnr" v="103376" />
	</node>
	<node id="-51191" lat="60.2282722245" lon="12.2222361149">
		<tag k="name" v="Spjuthaugen" />
		<tag k="natural" v="hill" />
		<tag k="place" v="locality" />
		<tag k="ssr:stedsnr" v="783397" />
	</node>
	<node id="-49142" lat="60.222286107" lon="12.3293055573">
		<tag k="name" v="Tørrmyrøktaren" />
		<tag k="place" v="locality" />
		<tag k="ssr:stedsnr" v="102988" />
	</node>
	<node id="-51189" lat="60.2575944456" lon="12.4987999941">
		<tag k="name" v="Nitusøktaren" />
		<tag k="place" v="locality" />
		<tag k="ssr:stedsnr" v="783342" />
	</node>
	<node id="-51198" lat="60.1130111135" lon="12.3225166669">
		<tag k="name" v="Tajehaugen" />
		<tag k="natural" v="hill" />
		<tag k="place" v="locality" />
		<tag k="ssr:stedsnr" v="783751" />
	</node>
	<node id="-49138" lat="60.3433222185" lon="12.0093916731">
		<tag k="fixme" v="consider natural=peak for the most distinct mountains in the district" />
		<tag k="name" v="Fossberget" />
		<tag k="natural" v="hill" />
		<tag k="place" v="locality" />
		<tag k="ssr:stedsnr" v="102807" />
	</node>
	<node id="-49133" lat="60.2798166694" lon="12.4726611124">
		<tag k="fixme" v="consider natural=peak for the most distinct mountains in the district" />
		<tag k="name" v="Midtholen" />
		<tag k="natural" v="hill" />
		<tag k="place" v="locality" />
		<tag k="ssr:stedsnr" v="102440" />
	</node>
	<node id="-49126" lat="60.2924722231" lon="12.0706777725">
		<tag k="fixme" v="consider natural=peak for the most distinct mountains in the district" />
		<tag k="name" v="Sanderberget" />
		<tag k="natural" v="hill" />
		<tag k="place" v="locality" />
		<tag k="ssr:stedsnr" v="101217" />
	</node>
	<node id="-49124" lat="60.283241664" lon="12.0998361136">
		<tag k="name" v="Stampen" />
		<tag k="natural" v="valley" />
		<tag k="place" v="locality" />
		<tag k="ssr:stedsnr" v="101205" />
	</node>
	<node id="-49123" lat="60.3444500018" lon="12.4304305592">
		<tag k="name" v="Djupdalen" />
		<tag k="natural" v="valley" />
		<tag k="place" v="locality" />
		<tag k="ssr:stedsnr" v="101182" />
	</node>
	<node id="-51168" lat="60.3421111151" lon="12.2847972315">
		<tag k="name" v="Sagajordet" />
		<tag k="place" v="locality" />
		<tag k="ssr:stedsnr" v="770646" />
	</node>
	<node id="-51167" lat="60.3209416661" lon="12.1885083257">
		<tag k="name" v="Brattfalltoppen" />
		<tag k="natural" v="hill" />
		<tag k="place" v="locality" />
		<tag k="ssr:stedsnr" v="770606" />
	</node>
	<node id="-49118" lat="60.3034638888" lon="12.2900111163">
		<tag k="name" v="Katthauga" />
		<tag k="natural" v="hill" />
		<tag k="place" v="locality" />
		<tag k="ssr:stedsnr" v="100618" />
	</node>
	<node id="-49115" lat="60.3005166623" lon="12.2557305582">
		<tag k="fixme" v="consider natural=peak for the most distinct mountains in the district" />
		<tag k="name" v="Steinreisberget" />
		<tag k="natural" v="hill" />
		<tag k="place" v="locality" />
		<tag k="ssr:stedsnr" v="100492" />
	</node>
	<node id="-49107" lat="60.3095277755" lon="11.9730499913">
		<tag k="name" v="Bjørnstadberget" />
		<tag k="natural" v="hill" />
		<tag k="place" v="locality" />
		<tag k="ssr:stedsnr" v="67473" />
	</node>
	<node id="-51150" lat="60.1267361092" lon="11.950227776">
		<tag k="fixme" v="consider natural=peak for the most distinct mountains in the district" />
		<tag k="name" v="Gørrtjennsberget" />
		<tag k="natural" v="hill" />
		<tag k="place" v="locality" />
		<tag k="ssr:stedsnr" v="768755" />
	</node>
	<node id="-51149" lat="60.1261305541" lon="11.9622583322">
		<tag k="name" v="Gobakka" />
		<tag k="natural" v="slope" />
		<tag k="place" v="locality" />
		<tag k="ssr:stedsnr" v="768752" />
	</node>
	<node id="-48802" lat="60.0990555536" lon="11.9937250054">
		<tag k="name" v="Høgda" />
		<tag k="natural" v="hill" />
		<tag k="place" v="locality" />
		<tag k="ssr:stedsnr" v="5496" />
	</node>
	<node id="-49483" lat="60.2509305584" lon="11.9280555529">
		<tag k="name" v="Steinbitberget" />
		<tag k="natural" v="hill" />
		<tag k="place" v="locality" />
		<tag k="ssr:stedsnr" v="187026" />
	</node>
	<node id="-51135" lat="60.3682361125" lon="12.0424055625">
		<tag k="name" v="Føttaskjæra" />
		<tag k="natural" v="hill" />
		<tag k="place" v="locality" />
		<tag k="ssr:stedsnr" v="754754" />
	</node>
	<node id="-49084" lat="60.1599361155" lon="12.4156499968">
		<tag k="name" v="Sikåberget" />
		<tag k="natural" v="hill" />
		<tag k="place" v="locality" />
		<tag k="ssr:stedsnr" v="66990" />
	</node>
	<node id="-49083" lat="60.1195000012" lon="12.2932750082">
		<tag k="name" v="Toppenso" />
		<tag k="natural" v="hill" />
		<tag k="place" v="locality" />
		<tag k="ssr:stedsnr" v="66920" />
	</node>
	<node id="-49078" lat="60.1036000003" lon="12.3783500086">
		<tag k="fixme" v="consider natural=peak for the most distinct mountains in the district" />
		<tag k="name" v="Høgåsen" />
		<tag k="natural" v="hill" />
		<tag k="place" v="locality" />
		<tag k="ssr:stedsnr" v="66897" />
	</node>
	<node id="-49076" lat="60.0879611133" lon="12.3370888976">
		<tag k="fixme" v="consider natural=peak for the most distinct mountains in the district" />
		<tag k="name" v="Åserudkollen" />
		<tag k="natural" v="hill" />
		<tag k="place" v="locality" />
		<tag k="ssr:stedsnr" v="66878" />
	</node>
	<node id="-49070" lat="60.2061083319" lon="12.2860777713">
		<tag k="name" v="Hokkåssæterberget" />
		<tag k="natural" v="hill" />
		<tag k="place" v="locality" />
		<tag k="ssr:stedsnr" v="66791" />
	</node>
	<node id="-49182" lat="60.3000888895" lon="12.3471527856">
		<tag k="fixme" v="consider natural=peak for the most distinct mountains in the district" />
		<tag k="name" v="Bruntjennsberget" />
		<tag k="natural" v="hill" />
		<tag k="place" v="locality" />
		<tag k="ssr:stedsnr" v="116128" />
	</node>
	<node id="-51110" lat="60.3367111117" lon="12.1794611202">
		<tag k="name" v="Østre Vassåsen" />
		<tag k="natural" v="hill" />
		<tag k="place" v="locality" />
		<tag k="ssr:stedsnr" v="734327" />
	</node>
	<node id="-51108" lat="60.3343305545" lon="12.1190749952">
		<tag k="name" v="Damtjennslia" />
		<tag k="natural" v="slope" />
		<tag k="place" v="locality" />
		<tag k="ssr:stedsnr" v="734322" />
	</node>
	<node id="-51104" lat="60.3244694449" lon="12.2445527778">
		<tag k="name" v="Smalmyrberget" />
		<tag k="natural" v="hill" />
		<tag k="place" v="locality" />
		<tag k="ssr:stedsnr" v="734268" />
	</node>
	<node id="-49051" lat="60.2654749963" lon="12.343186103">
		<tag k="name" v="Kolkiberget" />
		<tag k="natural" v="hill" />
		<tag k="place" v="locality" />
		<tag k="ssr:stedsnr" v="66181" />
	</node>
	<node id="-49046" lat="60.2162444473" lon="12.1861055562">
		<tag k="name" v="Lushaugen" />
		<tag k="natural" v="hill" />
		<tag k="place" v="locality" />
		<tag k="ssr:stedsnr" v="66100" />
	</node>
	<node id="-51091" lat="60.1634249998" lon="12.2857277818">
		<tag k="name" v="Sæterberget" />
		<tag k="natural" v="hill" />
		<tag k="place" v="locality" />
		<tag k="ssr:stedsnr" v="733983" />
	</node>
	<node id="-51087" lat="60.1274305586" lon="12.3078500022">
		<tag k="name" v="Jonsrudberget" />
		<tag k="natural" v="hill" />
		<tag k="place" v="locality" />
		<tag k="ssr:stedsnr" v="733932" />
	</node>
	<node id="-51082" lat="60.1009166635" lon="12.3557444488">
		<tag k="name" v="Heaberget" />
		<tag k="natural" v="hill" />
		<tag k="place" v="locality" />
		<tag k="ssr:stedsnr" v="733887" />
	</node>
	<node id="-49033" lat="60.046000002" lon="12.3142500002">
		<tag k="name" v="Krenkedalsberget" />
		<tag k="natural" v="hill" />
		<tag k="place" v="locality" />
		<tag k="ssr:stedsnr" v="66001" />
	</node>
	<node id="-51077" lat="60.2352777771" lon="12.2938249971">
		<tag k="alt_name" v="Einahohøgda" />
		<tag k="name" v="Einaho" />
		<tag k="natural" v="hill" />
		<tag k="place" v="locality" />
		<tag k="ssr:stedsnr" v="733827" />
	</node>
	<node id="-51074" lat="60.2461138913" lon="12.4040250002">
		<tag k="name" v="Åfallhaugen" />
		<tag k="natural" v="hill" />
		<tag k="place" v="locality" />
		<tag k="ssr:stedsnr" v="733814" />
	</node>
	<node id="-51067" lat="60.1668500007" lon="12.1706805533">
		<tag k="fixme" v="consider natural=peak for the most distinct mountains in the district" />
		<tag k="name" v="Vassåsen" />
		<tag k="natural" v="hill" />
		<tag k="place" v="locality" />
		<tag k="ssr:stedsnr" v="733544" />
	</node>
	<node id="-49018" lat="60.2702583318" lon="12.3410805624">
		<tag k="name" v="Brunhaugen" />
		<tag k="natural" v="hill" />
		<tag k="place" v="locality" />
		<tag k="ssr:stedsnr" v="59927" />
	</node>
	<node id="-49016" lat="60.2686527824" lon="12.3929277701">
		<tag k="name" v="Snøploga" />
		<tag k="place" v="locality" />
		<tag k="ssr:stedsnr" v="59911" />
	</node>
	<node id="-49013" lat="60.0833555521" lon="12.2791250047">
		<tag k="name" v="Østre Gråtjennberget" />
		<tag k="natural" v="hill" />
		<tag k="place" v="locality" />
		<tag k="ssr:stedsnr" v="59703" />
	</node>
	<node id="-49010" lat="60.2706944481" lon="12.2501611032">
		<tag k="name" v="Svingarberget" />
		<tag k="natural" v="hill" />
		<tag k="place" v="locality" />
		<tag k="ssr:stedsnr" v="59535" />
	</node>
	<node id="-49002" lat="60.3143666669" lon="12.3983555556">
		<tag k="fixme" v="consider natural=peak for the most distinct mountains in the district" />
		<tag k="name" v="Norsbråtatoppen" />
		<tag k="natural" v="hill" />
		<tag k="place" v="locality" />
		<tag k="ssr:stedsnr" v="59085" />
	</node>
	<node id="-51049" lat="60.0458861093" lon="12.3304444358">
		<tag k="name" v="Kjerkelia" />
		<tag k="natural" v="slope" />
		<tag k="place" v="locality" />
		<tag k="ssr:stedsnr" v="727669" />
	</node>
	<node id="-48997" lat="60.2466694467" lon="11.9445999969">
		<tag k="name" v="Skogerberget" />
		<tag k="natural" v="slope" />
		<tag k="place" v="locality" />
		<tag k="ssr:stedsnr" v="58172" />
	</node>
	<node id="-48994" lat="60.2227972201" lon="12.4090444527">
		<tag k="name" v="Løvhøyden" />
		<tag k="natural" v="hill" />
		<tag k="place" v="locality" />
		<tag k="ssr:stedsnr" v="57964" />
	</node>
	<node id="-51039" lat="60.3615222237" lon="12.0469861147">
		<tag k="name" v="Steggelsberget" />
		<tag k="natural" v="hill" />
		<tag k="place" v="locality" />
		<tag k="ssr:stedsnr" v="726831" />
	</node>
	<node id="-48988" lat="60.1294222239" lon="12.3568138818">
		<tag k="name" v="Djupdalen" />
		<tag k="natural" v="valley" />
		<tag k="place" v="locality" />
		<tag k="ssr:stedsnr" v="57781" />
	</node>
	<node id="-48983" lat="60.1564194475" lon="11.9494972204">
		<tag k="name" v="Gørtjenndalen" />
		<tag k="natural" v="valley" />
		<tag k="place" v="locality" />
		<tag k="ssr:stedsnr" v="57731" />
	</node>
	<node id="-48982" lat="60.2004444471" lon="11.9566944414">
		<tag k="name" v="Stømnerliene" />
		<tag k="natural" v="slope" />
		<tag k="place" v="locality" />
		<tag k="ssr:stedsnr" v="57724" />
	</node>
	<node id="-51023" lat="60.1214472189" lon="12.3980694489">
		<tag k="name" v="Vikaberget" />
		<tag k="natural" v="hill" />
		<tag k="place" v="locality" />
		<tag k="ssr:stedsnr" v="725743" />
	</node>
	<node id="-51021" lat="60.0446555599" lon="12.4123666622">
		<tag k="fixme" v="consider natural=peak for the most distinct mountains in the district" />
		<tag k="name" v="Merraberget" />
		<tag k="natural" v="hill" />
		<tag k="place" v="locality" />
		<tag k="ssr:stedsnr" v="725596" />
	</node>
	<node id="-48971" lat="60.3546999975" lon="12.0650777802">
		<tag k="fixme" v="consider natural=peak for the most distinct mountains in the district" />
		<tag k="name" v="Vålerberget" />
		<tag k="natural" v="hill" />
		<tag k="place" v="locality" />
		<tag k="ssr:stedsnr" v="57048" />
	</node>
	<node id="-51014" lat="60.1739805523" lon="12.1144305484">
		<tag k="fixme" v="consider natural=peak for the most distinct mountains in the district" />
		<tag k="name" v="Tørgardsberget" />
		<tag k="natural" v="hill" />
		<tag k="place" v="locality" />
		<tag k="ssr:stedsnr" v="724843" />
	</node>
	<node id="-48961" lat="60.2404666629" lon="12.3302555484">
		<tag k="name" v="Rønningsberget" />
		<tag k="natural" v="hill" />
		<tag k="place" v="locality" />
		<tag k="ssr:stedsnr" v="55985" />
	</node>
	<node id="-48960" lat="60.2505027796" lon="12.0364305604">
		<tag k="name" v="Sandermoen" />
		<tag k="place" v="locality" />
		<tag k="ssr:stedsnr" v="55961" />
	</node>
	<node id="-48957" lat="60.2123361084" lon="11.9854777735">
		<tag k="fixme" v="consider natural=peak for the most distinct mountains in the district" />
		<tag k="name" v="Gullbekkåsen" />
		<tag k="natural" v="hill" />
		<tag k="place" v="locality" />
		<tag k="ssr:stedsnr" v="55858" />
	</node>
	<node id="-48953" lat="60.1928055553" lon="12.2401694484">
		<tag k="name" v="Raiskyskjæret" />
		<tag k="natural" v="hill" />
		<tag k="place" v="locality" />
		<tag k="ssr:stedsnr" v="55391" />
	</node>
	<node id="-51000" lat="60.1893500037" lon="12.2338361034">
		<tag k="name" v="Vaisberget" />
		<tag k="natural" v="hill" />
		<tag k="place" v="locality" />
		<tag k="ssr:stedsnr" v="723415" />
	</node>
	<node id="-50999" lat="60.2123805533" lon="12.2180638859">
		<tag k="name" v="Aksvalldråga" />
		<tag k="natural" v="valley" />
		<tag k="place" v="locality" />
		<tag k="ssr:stedsnr" v="723403" />
	</node>
	<node id="-48950" lat="60.2616222202" lon="12.4673138838">
		<tag k="name" v="Låntahådalen" />
		<tag k="natural" v="valley" />
		<tag k="place" v="locality" />
		<tag k="ssr:stedsnr" v="55346" />
	</node>
	<node id="-48948" lat="60.1711277809" lon="12.0630916706">
		<tag k="name" v="Kvernbekkdalen" />
		<tag k="natural" v="valley" />
		<tag k="place" v="locality" />
		<tag k="ssr:stedsnr" v="55598" />
	</node>
	<node id="-50994" lat="60.247588892" lon="12.3174750022">
		<tag k="name" v="Kråo" />
		<tag k="natural" v="hill" />
		<tag k="place" v="locality" />
		<tag k="ssr:stedsnr" v="722985" />
	</node>
	<node id="-48944" lat="60.3240388849" lon="12.4257666662">
		<tag k="name" v="Slæppen" />
		<tag k="natural" v="slope" />
		<tag k="place" v="locality" />
		<tag k="ssr:stedsnr" v="55186" />
	</node>
	<node id="-48943" lat="60.1700055519" lon="12.4548055485">
		<tag k="fixme" v="consider natural=peak for the most distinct mountains in the district" />
		<tag k="name" v="Vatsuoberget" />
		<tag k="natural" v="hill" />
		<tag k="place" v="locality" />
		<tag k="ssr:stedsnr" v="55185" />
	</node>
	<node id="-48940" lat="60.2154305539" lon="12.1773444402">
		<tag k="name" v="Hesthaugen" />
		<tag k="natural" v="hill" />
		<tag k="place" v="locality" />
		<tag k="ssr:stedsnr" v="55162" />
	</node>
	<node id="-50986" lat="60.1059833371" lon="12.3332277695">
		<tag k="fixme" v="consider natural=peak for the most distinct mountains in the district" />
		<tag k="name" v="Skullerudberget" />
		<tag k="natural" v="hill" />
		<tag k="place" v="locality" />
		<tag k="ssr:stedsnr" v="722771" />
	</node>
	<node id="-48935" lat="60.2093194418" lon="12.5080333258">
		<tag k="fixme" v="consider natural=peak for the most distinct mountains in the district" />
		<tag k="name" v="Stormyråsen" />
		<tag k="natural" v="hill" />
		<tag k="place" v="locality" />
		<tag k="ssr:stedsnr" v="55147" />
	</node>
	<node id="-50982" lat="60.2867833303" lon="11.9564944393">
		<tag k="name" v="Leirdalen" />
		<tag k="natural" v="valley" />
		<tag k="place" v="locality" />
		<tag k="ssr:stedsnr" v="722540" />
	</node>
	<node id="-50981" lat="60.2679444448" lon="12.4906027838">
		<tag k="name" v="Kevalaisbråtan" />
		<tag k="place" v="locality" />
		<tag k="ssr:stedsnr" v="722369" />
	</node>
	<node id="-50979" lat="60.2698555521" lon="12.4682638873">
		<tag k="name" v="Keisarbakken" />
		<tag k="natural" v="slope" />
		<tag k="place" v="locality" />
		<tag k="ssr:stedsnr" v="722361" />
	</node>
	<node id="-50973" lat="60.0626500029" lon="12.4404222313">
		<tag k="name" v="Sæterlia" />
		<tag k="natural" v="slope" />
		<tag k="place" v="locality" />
		<tag k="ssr:stedsnr" v="722014" />
	</node>
	<node id="-50971" lat="60.1931777757" lon="12.3337027851">
		<tag k="fixme" v="consider natural=peak for the most distinct mountains in the district" />
		<tag k="name" v="Kvernberget" />
		<tag k="natural" v="hill" />
		<tag k="place" v="locality" />
		<tag k="ssr:stedsnr" v="709954" />
	</node>
	<node id="-50968" lat="60.0951194446" lon="12.3709611078">
		<tag k="name" v="Kletta" />
		<tag k="natural" v="hill" />
		<tag k="place" v="locality" />
		<tag k="ssr:stedsnr" v="709806" />
	</node>
	<node id="-50967" lat="60.0748583336" lon="12.3791333389">
		<tag k="name" v="Karterudberget" />
		<tag k="natural" v="hill" />
		<tag k="place" v="locality" />
		<tag k="ssr:stedsnr" v="709803" />
	</node>
	<node id="-50957" lat="60.3777583375" lon="12.2954500065">
		<tag k="fixme" v="consider natural=peak for the most distinct mountains in the district" />
		<tag k="name" v="Skasdamberget" />
		<tag k="natural" v="hill" />
		<tag k="place" v="locality" />
		<tag k="ssr:stedsnr" v="709478" />
	</node>
	<node id="-48908" lat="60.2409916697" lon="12.1553361039">
		<tag k="name" v="Firerberget" />
		<tag k="natural" v="hill" />
		<tag k="place" v="locality" />
		<tag k="ssr:stedsnr" v="42148" />
	</node>
	<node id="-50954" lat="60.2436638875" lon="12.2509805499">
		<tag k="name" v="Styggdalen" />
		<tag k="natural" v="valley" />
		<tag k="place" v="locality" />
		<tag k="ssr:stedsnr" v="709462" />
	</node>
	<node id="-48903" lat="59.9945277755" lon="12.3685611105">
		<tag k="name" v="Haugerkollen" />
		<tag k="natural" v="hill" />
		<tag k="place" v="locality" />
		<tag k="ssr:stedsnr" v="41766" />
	</node>
	<node id="-48900" lat="60.1689888856" lon="12.0038805495">
		<tag k="name" v="Klettaberget" />
		<tag k="natural" v="hill" />
		<tag k="place" v="locality" />
		<tag k="ssr:stedsnr" v="41632" />
	</node>
	<node id="-50946" lat="60.2551361121" lon="12.1540638814">
		<tag k="fixme" v="consider natural=peak for the most distinct mountains in the district" />
		<tag k="name" v="Melsåsberget" />
		<tag k="natural" v="hill" />
		<tag k="place" v="locality" />
		<tag k="ssr:stedsnr" v="709148" />
	</node>
	<node id="-50945" lat="60.253002775" lon="12.1355833377">
		<tag k="name" v="Mektordalen" />
		<tag k="natural" v="valley" />
		<tag k="place" v="locality" />
		<tag k="ssr:stedsnr" v="709141" />
	</node>
	<node id="-50942" lat="60.3442861121" lon="12.3803416614">
		<tag k="name" v="Golanhøyden" />
		<tag k="natural" v="hill" />
		<tag k="place" v="locality" />
		<tag k="ssr:stedsnr" v="709068" />
	</node>
	<node id="-50939" lat="60.19893333" lon="12.3878166607">
		<tag k="fixme" v="consider natural=peak for the most distinct mountains in the district" />
		<tag k="name" v="Merramyrberget" />
		<tag k="natural" v="hill" />
		<tag k="place" v="locality" />
		<tag k="ssr:stedsnr" v="707960" />
	</node>
	<node id="-50938" lat="60.2071250043" lon="12.3016027803">
		<tag k="fixme" v="consider natural=peak for the most distinct mountains in the district" />
		<tag k="name" v="Styggberget" />
		<tag k="natural" v="hill" />
		<tag k="place" v="locality" />
		<tag k="ssr:stedsnr" v="707958" />
	</node>
	<node id="-50937" lat="60.0081861105" lon="12.3764749945">
		<tag k="name" v="Sæteråsen" />
		<tag k="natural" v="hill" />
		<tag k="place" v="locality" />
		<tag k="ssr:stedsnr" v="707723" />
	</node>
	<node id="-50934" lat="60.2707499981" lon="12.2073333294">
		<tag k="name" v="Bratthella" />
		<tag k="natural" v="hill" />
		<tag k="place" v="locality" />
		<tag k="ssr:stedsnr" v="707582" />
	</node>
	<node id="-50929" lat="60.2932527795" lon="12.1001083297">
		<tag k="name" v="Okseskjær" />
		<tag k="natural" v="hill" />
		<tag k="place" v="locality" />
		<tag k="ssr:stedsnr" v="707254" />
	</node>
	<node id="-48875" lat="60.2609888926" lon="12.4002944417">
		<tag k="name" v="Raisberget" />
		<tag k="natural" v="hill" />
		<tag k="place" v="locality" />
		<tag k="ssr:stedsnr" v="6870" />
	</node>
	<node id="-48873" lat="60.0904083316" lon="11.9455305579">
		<tag k="name" v="Åberget" />
		<tag k="natural" v="hill" />
		<tag k="place" v="locality" />
		<tag k="ssr:stedsnr" v="6733" />
	</node>
	<node id="-48870" lat="60.2978499982" lon="12.0604611155">
		<tag k="fixme" v="multiple name tags, choose one and add the other to alt_name" />
		<tag k="name" v="Digernesberget;Melbyberget" />
		<tag k="natural" v="hill" />
		<tag k="place" v="locality" />
		<tag k="ssr:stedsnr" v="6538" />
	</node>
	<node id="-50917" lat="60.3269250029" lon="12.1038861118">
		<tag k="name" v="Tollberget" />
		<tag k="natural" v="hill" />
		<tag k="place" v="locality" />
		<tag k="ssr:stedsnr" v="674284" />
	</node>
	<node id="-50916" lat="60.363213885" lon="12.0913388826">
		<tag k="name" v="Ulvberget" />
		<tag k="natural" v="hill" />
		<tag k="place" v="locality" />
		<tag k="ssr:stedsnr" v="674261" />
	</node>
	<node id="-50907" lat="60.1429416704" lon="12.354208342">
		<tag k="fixme" v="consider natural=peak for the most distinct mountains in the district" />
		<tag k="name" v="Møkeråsen" />
		<tag k="natural" v="hill" />
		<tag k="place" v="locality" />
		<tag k="ssr:stedsnr" v="673984" />
	</node>
	<node id="-48857" lat="60.3476250021" lon="12.152524993">
		<tag k="name" v="Krokberget" />
		<tag k="natural" v="hill" />
		<tag k="place" v="locality" />
		<tag k="ssr:stedsnr" v="6327" />
	</node>
	<node id="-48856" lat="60.3377361083" lon="12.170369437">
		<tag k="name" v="Vestre Vassåsen" />
		<tag k="natural" v="hill" />
		<tag k="place" v="locality" />
		<tag k="ssr:stedsnr" v="6307" />
	</node>
	<node id="-48854" lat="60.3519138883" lon="12.1248861083">
		<tag k="fixme" v="consider natural=peak for the most distinct mountains in the district" />
		<tag k="name" v="Grasåsen" />
		<tag k="natural" v="hill" />
		<tag k="place" v="locality" />
		<tag k="ssr:stedsnr" v="6263" />
	</node>
	<node id="-50901" lat="60.2562305545" lon="12.4734888823">
		<tag k="name" v="Viberget" />
		<tag k="natural" v="hill" />
		<tag k="place" v="locality" />
		<tag k="ssr:stedsnr" v="673872" />
	</node>
	<node id="-48852" lat="60.3429694479" lon="12.2531555565">
		<tag k="name" v="Umundsberget" />
		<tag k="natural" v="hill" />
		<tag k="place" v="locality" />
		<tag k="ssr:stedsnr" v="6236" />
	</node>
	<node id="-48847" lat="60.2678361081" lon="12.4848999949">
		<tag k="name" v="Gårgiamænnike" />
		<tag k="natural" v="hill" />
		<tag k="place" v="locality" />
		<tag k="ssr:stedsnr" v="6188" />
	</node>
	<node id="-50888" lat="60.2942916654" lon="11.9511916609">
		<tag k="name" v="Fugleleikberget" />
		<tag k="natural" v="hill" />
		<tag k="place" v="locality" />
		<tag k="ssr:stedsnr" v="673498" />
	</node>
	<node id="-50886" lat="60.2574527761" lon="12.0974805626">
		<tag k="name" v="Tittfuruknappen" />
		<tag k="natural" v="hill" />
		<tag k="place" v="locality" />
		<tag k="ssr:stedsnr" v="673433" />
	</node>
	<node id="-50884" lat="60.2519861131" lon="12.2068500081">
		<tag k="name" v="Galtryggen" />
		<tag k="natural" v="hill" />
		<tag k="place" v="locality" />
		<tag k="ssr:stedsnr" v="673426" />
	</node>
	<node id="-48823" lat="60.233024997" lon="12.2435500021">
		<tag k="name" v="Høgberget" />
		<tag k="natural" v="hill" />
		<tag k="place" v="locality" />
		<tag k="ssr:stedsnr" v="5794" />
	</node>
	<node id="-50869" lat="60.3566555582" lon="12.3037500091">
		<tag k="name" v="Gravsjøberget" />
		<tag k="natural" v="hill" />
		<tag k="place" v="locality" />
		<tag k="ssr:stedsnr" v="673242" />
	</node>
	<node id="-49779" lat="60.3236611079" lon="12.344880557">
		<tag k="alt_name" v="Dreiergrasberget" />
		<tag k="name" v="Grasberget" />
		<tag k="natural" v="hill" />
		<tag k="place" v="locality" />
		<tag k="ssr:stedsnr" v="249218" />
	</node>
	<node id="-48815" lat="60.1903500039" lon="12.4079000085">
		<tag k="fixme" v="consider natural=peak for the most distinct mountains in the district" />
		<tag k="name" v="Storholtåsen" />
		<tag k="natural" v="hill" />
		<tag k="place" v="locality" />
		<tag k="ssr:stedsnr" v="5757" />
	</node>
	<node id="-48814" lat="60.171633336" lon="12.2384055647">
		<tag k="name" v="Lorttjennhøgda" />
		<tag k="natural" v="hill" />
		<tag k="place" v="locality" />
		<tag k="ssr:stedsnr" v="5755" />
	</node>
	<node id="-48812" lat="60.1773500022" lon="12.4191055511">
		<tag k="name" v="Fjørsjøberget" />
		<tag k="natural" v="hill" />
		<tag k="place" v="locality" />
		<tag k="ssr:stedsnr" v="5751" />
	</node>
	<node id="-50850" lat="60.0451583314" lon="12.4248583307">
		<tag k="fixme" v="consider natural=peak for the most distinct mountains in the district" />
		<tag k="name" v="Lauvkjølhøgda" />
		<tag k="natural" v="hill" />
		<tag k="place" v="locality" />
		<tag k="ssr:stedsnr" v="673028" />
	</node>
	<node id="-48801" lat="60.1151249976" lon="12.0078750063">
		<tag k="fixme" v="consider natural=peak for the most distinct mountains in the district" />
		<tag k="name" v="Holerlia" />
		<tag k="natural" v="hill" />
		<tag k="place" v="locality" />
		<tag k="ssr:stedsnr" v="5490" />
	</node>
	<node id="-48800" lat="60.1166611101" lon="12.0761805479">
		<tag k="name" v="Raudberget" />
		<tag k="natural" v="hill" />
		<tag k="place" v="locality" />
		<tag k="ssr:stedsnr" v="5483" />
	</node>
	<node id="-50846" lat="60.0464500042" lon="12.3837000076">
		<tag k="fixme" v="consider natural=peak for the most distinct mountains in the district" />
		<tag k="name" v="Svea" />
		<tag k="natural" v="hill" />
		<tag k="place" v="locality" />
		<tag k="ssr:stedsnr" v="673006" />
	</node>
	<node id="-48793" lat="60.2156527789" lon="12.1535500052">
		<tag k="name" v="Glåmberget" />
		<tag k="natural" v="hill" />
		<tag k="place" v="locality" />
		<tag k="ssr:stedsnr" v="5086" />
	</node>
	<node id="-48785" lat="60.0211000027" lon="12.3437249961">
		<tag k="name" v="Storfallhøgda" />
		<tag k="natural" v="hill" />
		<tag k="place" v="locality" />
		<tag k="ssr:stedsnr" v="5021" />
	</node>
	<node id="-50830" lat="60.0867499991" lon="11.9378249995">
		<tag k="name" v="Småhelvete" />
		<tag k="natural" v="hill" />
		<tag k="place" v="locality" />
		<tag k="ssr:stedsnr" v="672738" />
	</node>
	<node id="-50827" lat="60.1671083309" lon="12.2085527708">
		<tag k="name" v="Veslevassberget" />
		<tag k="natural" v="hill" />
		<tag k="place" v="locality" />
		<tag k="ssr:stedsnr" v="672539" />
	</node>
	<node id="-50826" lat="60.163061115" lon="12.0954749914">
		<tag k="alt_name" v="Kalpetterhøgda" />
		<tag k="name" v="Kalpetterhaugen" />
		<tag k="natural" v="hill" />
		<tag k="place" v="locality" />
		<tag k="ssr:stedsnr" v="672536" />
	</node>
	<node id="-48774" lat="60.1095722207" lon="11.9494611187">
		<tag k="name" v="Steinbråtadalen" />
		<tag k="natural" v="valley" />
		<tag k="place" v="locality" />
		<tag k="ssr:stedsnr" v="894046" />
	</node>
	<node id="-48768" lat="60.3734111074" lon="12.30276944">
		<tag k="name" v="Skaslibrenna" />
		<tag k="natural" v="slope" />
		<tag k="place" v="locality" />
		<tag k="ssr:stedsnr" v="892469" />
	</node>
	<node id="-50814" lat="60.2943083343" lon="12.0498166592">
		<tag k="fixme" v="consider natural=peak for the most distinct mountains in the district" />
		<tag k="name" v="Sømmerudberget" />
		<tag k="natural" v="hill" />
		<tag k="place" v="locality" />
		<tag k="ssr:stedsnr" v="665982" />
	</node>
	<node id="-48765" lat="60.2582416625" lon="12.2735611166">
		<tag k="fixme" v="consider natural=peak for the most distinct mountains in the district" />
		<tag k="name" v="Kubergstoppen" />
		<tag k="natural" v="hill" />
		<tag k="ssr:stedsnr" v="892450" />
	</node>
	<node id="-50812" lat="60.3363444487" lon="11.902738889">
		<tag k="name" v="Bjønnbakken" />
		<tag k="natural" v="slope" />
		<tag k="place" v="locality" />
		<tag k="ssr:stedsnr" v="665599" />
	</node>
	<node id="-50811" lat="60.2487222202" lon="12.5096500078">
		<tag k="name" v="Taramænnike" />
		<tag k="natural" v="hill" />
		<tag k="place" v="locality" />
		<tag k="ssr:stedsnr" v="665426" />
	</node>
	<node id="-50810" lat="60.2982166708" lon="12.4305722277">
		<tag k="name" v="Djupholtet" />
		<tag k="natural" v="valley" />
		<tag k="place" v="locality" />
		<tag k="ssr:stedsnr" v="665421" />
	</node>
	<node id="-50806" lat="60.1372194476" lon="12.4969083247">
		<tag k="fixme" v="consider natural=peak for the most distinct mountains in the district" />
		<tag k="name" v="Torstimæki" />
		<tag k="natural" v="hill" />
		<tag k="place" v="locality" />
		<tag k="ssr:stedsnr" v="665249" />
	</node>
	<node id="-50805" lat="60.2248999973" lon="12.4844527695">
		<tag k="name" v="Ormberget" />
		<tag k="natural" v="hill" />
		<tag k="place" v="locality" />
		<tag k="ssr:stedsnr" v="665132" />
	</node>
	<node id="-48756" lat="60.0998111084" lon="12.3976944484">
		<tag k="name" v="Gravlia" />
		<tag k="natural" v="slope" />
		<tag k="place" v="locality" />
		<tag k="ssr:stedsnr" v="891852" />
	</node>
	<node id="-50801" lat="60.2313805551" lon="12.3035027729">
		<tag k="name" v="Klonken" />
		<tag k="place" v="locality" />
		<tag k="ssr:stedsnr" v="664983" />
	</node>
	<node id="-50798" lat="60.1706944444" lon="12.1359805524">
		<tag k="name" v="Damlia" />
		<tag k="natural" v="slope" />
		<tag k="place" v="locality" />
		<tag k="ssr:stedsnr" v="664850" />
	</node>
	<node id="-48748" lat="60.1526083289" lon="11.9885861193">
		<tag k="name" v="Lundmyrberget" />
		<tag k="natural" v="hill" />
		<tag k="place" v="locality" />
		<tag k="ssr:stedsnr" v="891655" />
	</node>
	<node id="-48738" lat="60.3160388912" lon="12.3240527846">
		<tag k="fixme" v="consider natural=peak for the most distinct mountains in the district" />
		<tag k="name" v="Hagabråtaberget" />
		<tag k="natural" v="hill" />
		<tag k="place" v="locality" />
		<tag k="ssr:stedsnr" v="891126" />
	</node>
	<node id="-50782" lat="60.2603111109" lon="11.9429611135">
		<tag k="name" v="Pralerhaugen" />
		<tag k="natural" v="hill" />
		<tag k="place" v="locality" />
		<tag k="ssr:stedsnr" v="664134" />
	</node>
	<node id="-50778" lat="60.2558027752" lon="12.3202305577">
		<tag k="fixme" v="consider natural=peak for the most distinct mountains in the district" />
		<tag k="name" v="Brennåsen" />
		<tag k="natural" v="hill" />
		<tag k="place" v="locality" />
		<tag k="ssr:stedsnr" v="662989" />
	</node>
	<node id="-48729" lat="60.2596916622" lon="12.4412388947">
		<tag k="name" v="Storbråtåberget" />
		<tag k="natural" v="hill" />
		<tag k="place" v="locality" />
		<tag k="ssr:stedsnr" v="890350" />
	</node>
	<node id="-50776" lat="60.237747224" lon="12.0185138954">
		<tag k="fixme" v="consider natural=peak for the most distinct mountains in the district" />
		<tag k="name" v="Urmakerberget" />
		<tag k="natural" v="hill" />
		<tag k="place" v="locality" />
		<tag k="ssr:stedsnr" v="662963" />
	</node>
	<node id="-48715" lat="60.2791250002" lon="12.2205555537">
		<tag k="name" v="Ikornholen" />
		<tag k="natural" v="hill" />
		<tag k="place" v="locality" />
		<tag k="ssr:stedsnr" v="889585" />
	</node>
	<node id="-48712" lat="60.1896861122" lon="12.5106750015">
		<tag k="name" v="Smaltjennsberget" />
		<tag k="natural" v="hill" />
		<tag k="place" v="locality" />
		<tag k="ssr:stedsnr" v="479192" />
	</node>
	<node id="-50755" lat="60.2711916701" lon="12.3012111095">
		<tag k="name" v="Tørrgransletta" />
		<tag k="place" v="locality" />
		<tag k="ssr:stedsnr" v="661935" />
	</node>
	<node id="-50738" lat="60.0920500009" lon="12.467475007">
		<tag k="fixme" v="consider natural=peak for the most distinct mountains in the district" />
		<tag k="name" v="Morttjennsberget" />
		<tag k="natural" v="hill" />
		<tag k="place" v="locality" />
		<tag k="ssr:stedsnr" v="661004" />
	</node>
	<node id="-48686" lat="60.2457027807" lon="12.2031249991">
		<tag k="fixme" v="consider natural=peak for the most distinct mountains in the district" />
		<tag k="name" v="Vestlibråtåberget" />
		<tag k="natural" v="hill" />
		<tag k="place" v="locality" />
		<tag k="ssr:stedsnr" v="406511" />
	</node>
	<node id="-48685" lat="60.2401166662" lon="12.2157000015">
		<tag k="fixme" v="consider natural=peak for the most distinct mountains in the district" />
		<tag k="name" v="Slipsteindalsberget" />
		<tag k="natural" v="hill" />
		<tag k="place" v="locality" />
		<tag k="ssr:stedsnr" v="406505" />
	</node>
	<node id="-48684" lat="60.3739861143" lon="12.2978416636">
		<tag k="name" v="Lisbetbrenna" />
		<tag k="natural" v="slope" />
		<tag k="place" v="locality" />
		<tag k="ssr:stedsnr" v="406497" />
	</node>
	<node id="-49358" lat="60.2770138901" lon="12.2107166647">
		<tag k="name" v="Gråhestberget" />
		<tag k="natural" v="hill" />
		<tag k="place" v="locality" />
		<tag k="ssr:stedsnr" v="161595" />
	</node>
	<node id="-48676" lat="60.022900001" lon="12.3426333335">
		<tag k="name" v="Knappersberget" />
		<tag k="natural" v="hill" />
		<tag k="place" v="locality" />
		<tag k="ssr:stedsnr" v="405758" />
	</node>
	<node id="-48674" lat="60.364633336" lon="12.4254472295">
		<tag k="name" v="Festningen" />
		<tag k="natural" v="cliff" />
		<tag k="ssr:stedsnr" v="405120" />
	</node>
	<node id="-50718" lat="60.3209611138" lon="11.9135138871">
		<tag k="name" v="Hushaugene" />
		<tag k="natural" v="hill" />
		<tag k="place" v="locality" />
		<tag k="ssr:stedsnr" v="648289" />
	</node>
	<node id="-48665" lat="60.3329944457" lon="12.4078777775">
		<tag k="name" v="Rundhaugen" />
		<tag k="natural" v="hill" />
		<tag k="place" v="locality" />
		<tag k="ssr:stedsnr" v="404202" />
	</node>
	<node id="-50709" lat="60.3341777757" lon="12.3551472279">
		<tag k="name" v="Danielsposten" />
		<tag k="place" v="locality" />
		<tag k="ssr:stedsnr" v="648065" />
	</node>
	<node id="-48659" lat="60.1300166648" lon="12.301144449">
		<tag k="name" v="Nissefatberget" />
		<tag k="natural" v="hill" />
		<tag k="place" v="locality" />
		<tag k="ssr:stedsnr" v="403770" />
	</node>
	<node id="-50706" lat="60.1374999983" lon="12.3470444377">
		<tag k="name" v="Kistberget" />
		<tag k="natural" v="hill" />
		<tag k="place" v="locality" />
		<tag k="ssr:stedsnr" v="646926" />
	</node>
	<node id="-50704" lat="60.1401305594" lon="12.4046944476">
		<tag k="name" v="Stjernhullberget" />
		<tag k="natural" v="hill" />
		<tag k="place" v="locality" />
		<tag k="ssr:stedsnr" v="646784" />
	</node>
	<node id="-50697" lat="60.1113972236" lon="11.9615249914">
		<tag k="name" v="Olstadåsen" />
		<tag k="natural" v="hill" />
		<tag k="place" v="locality" />
		<tag k="ssr:stedsnr" v="646697" />
	</node>
	<node id="-48647" lat="60.2071555542" lon="12.2063027799">
		<tag k="fixme" v="consider natural=peak for the most distinct mountains in the district" />
		<tag k="name" v="Lystadberget" />
		<tag k="natural" v="hill" />
		<tag k="place" v="locality" />
		<tag k="ssr:stedsnr" v="237422" />
	</node>
	<node id="-50686" lat="60.3089666669" lon="12.2081555598">
		<tag k="name" v="Fuglknarten" />
		<tag k="natural" v="hill" />
		<tag k="place" v="locality" />
		<tag k="ssr:stedsnr" v="613445" />
	</node>
	<node id="-48637" lat="60.3057000025" lon="11.9249166745">
		<tag k="name" v="Ringshella" />
		<tag k="natural" v="hill" />
		<tag k="place" v="locality" />
		<tag k="ssr:stedsnr" v="370502" />
	</node>
	<node id="-48632" lat="60.2526250035" lon="12.11718334">
		<tag k="name" v="Mellomberget" />
		<tag k="natural" v="hill" />
		<tag k="place" v="locality" />
		<tag k="ssr:stedsnr" v="370463" />
	</node>
	<node id="-50677" lat="60.0888833344" lon="12.3783250037">
		<tag k="fixme" v="consider natural=peak for the most distinct mountains in the district" />
		<tag k="name" v="Berteåsberget" />
		<tag k="natural" v="hill" />
		<tag k="place" v="locality" />
		<tag k="ssr:stedsnr" v="612891" />
	</node>
	<node id="-50673" lat="60.2614055527" lon="12.4288611095">
		<tag k="fixme" v="consider natural=peak for the most distinct mountains in the district" />
		<tag k="name" v="Nopa" />
		<tag k="natural" v="hill" />
		<tag k="place" v="locality" />
		<tag k="ssr:stedsnr" v="612856" />
	</node>
	<node id="-48623" lat="60.3270416671" lon="11.9317361197">
		<tag k="name" v="Langholsberget" />
		<tag k="natural" v="hill" />
		<tag k="place" v="locality" />
		<tag k="ssr:stedsnr" v="370343" />
	</node>
	<node id="-48621" lat="60.3258305551" lon="12.3239749932">
		<tag k="name" v="Snauberget" />
		<tag k="natural" v="hill" />
		<tag k="place" v="locality" />
		<tag k="ssr:stedsnr" v="370286" />
	</node>
	<node id="-50666" lat="60.1693250023" lon="12.2999750024">
		<tag k="name" v="Tobakberget" />
		<tag k="natural" v="hill" />
		<tag k="place" v="locality" />
		<tag k="ssr:stedsnr" v="612755" />
	</node>
	<node id="-48615" lat="60.2726222232" lon="12.4365916715">
		<tag k="fixme" v="consider natural=peak for the most distinct mountains in the district" />
		<tag k="name" v="Detjennåsen" />
		<tag k="natural" v="hill" />
		<tag k="place" v="locality" />
		<tag k="ssr:stedsnr" v="370207" />
	</node>
	<node id="-48612" lat="60.2783444478" lon="12.4102277857">
		<tag k="name" v="Østre Gubbetjennsberget" />
		<tag k="natural" v="hill" />
		<tag k="place" v="locality" />
		<tag k="ssr:stedsnr" v="370193" />
	</node>
	<node id="-50659" lat="60.1538305578" lon="12.1335000041">
		<tag k="fixme" v="consider natural=peak for the most distinct mountains in the district" />
		<tag k="name" v="Langåsen" />
		<tag k="natural" v="hill" />
		<tag k="place" v="locality" />
		<tag k="ssr:stedsnr" v="612586" />
	</node>
	<node id="-50657" lat="60.3044999957" lon="12.1370305529">
		<tag k="fixme" v="consider natural=peak for the most distinct mountains in the district" />
		<tag k="name" v="Gaupåsen" />
		<tag k="natural" v="hill" />
		<tag k="place" v="locality" />
		<tag k="ssr:stedsnr" v="612517" />
	</node>
	<node id="-48604" lat="60.2344500024" lon="11.9642805509">
		<tag k="fixme" v="consider natural=peak for the most distinct mountains in the district" />
		<tag k="name" v="Bogersjøåsen" />
		<tag k="natural" v="hill" />
		<tag k="place" v="locality" />
		<tag k="ssr:stedsnr" v="370018" />
	</node>
	<node id="-49401" lat="60.1700861078" lon="12.2422333373">
		<tag k="name" v="Vollberget" />
		<tag k="natural" v="hill" />
		<tag k="place" v="locality" />
		<tag k="ssr:stedsnr" v="176096" />
	</node>
	<node id="-48596" lat="60.1807333349" lon="12.2612583421">
		<tag k="alt_name" v="Vastadberget" />
		<tag k="name" v="Vastaberget" />
		<tag k="natural" v="hill" />
		<tag k="place" v="locality" />
		<tag k="ssr:stedsnr" v="369763" />
	</node>
	<node id="-48595" lat="60.1681499956" lon="12.2502500052">
		<tag k="name" v="Svartberget" />
		<tag k="natural" v="hill" />
		<tag k="place" v="locality" />
		<tag k="ssr:stedsnr" v="369739" />
	</node>
	<node id="-50641" lat="60.3619583295" lon="12.365847215">
		<tag k="alt_name" v="Merrakleiva, nordre" />
		<tag k="fixme" v="consider natural=peak for the most distinct mountains in the district" />
		<tag k="name" v="Nordre Merrakleiva" />
		<tag k="natural" v="hill" />
		<tag k="place" v="locality" />
		<tag k="ssr:stedsnr" v="612235" />
	</node>
	<node id="-50638" lat="60.2894111091" lon="12.465852786">
		<tag k="name" v="Varpgangas" />
		<tag k="natural" v="hill" />
		<tag k="place" v="locality" />
		<tag k="ssr:stedsnr" v="612188" />
	</node>
	<node id="-48588" lat="60.1473249988" lon="12.154125008">
		<tag k="alt_name" v="Hellerudhøgda" />
		<tag k="name" v="Hellerudhaug" />
		<tag k="natural" v="hill" />
		<tag k="place" v="locality" />
		<tag k="ssr:stedsnr" v="369528" />
	</node>
	<node id="-50633" lat="60.0453277801" lon="12.3339416719">
		<tag k="name" v="Kuberget" />
		<tag k="natural" v="hill" />
		<tag k="place" v="locality" />
		<tag k="ssr:stedsnr" v="612137" />
	</node>
	<node id="-48583" lat="60.138866667" lon="12.2005333338">
		<tag k="name" v="Rælinghøgda" />
		<tag k="natural" v="hill" />
		<tag k="place" v="locality" />
		<tag k="ssr:stedsnr" v="369473" />
	</node>
	<node id="-50628" lat="60.1900333344" lon="12.1281472311">
		<tag k="name" v="Lyshøgda" />
		<tag k="natural" v="hill" />
		<tag k="place" v="locality" />
		<tag k="ssr:stedsnr" v="612098" />
	</node>
	<node id="-48567" lat="60.2318250044" lon="12.1589999935">
		<tag k="name" v="Svettliberget" />
		<tag k="natural" v="hill" />
		<tag k="place" v="locality" />
		<tag k="ssr:stedsnr" v="369013" />
	</node>
	<node id="-48556" lat="60.2646750003" lon="12.4023861169">
		<tag k="name" v="Vestria" />
		<tag k="place" v="locality" />
		<tag k="ssr:stedsnr" v="362911" />
	</node>
	<node id="-48553" lat="60.2210166648" lon="11.9656416663">
		<tag k="fixme" v="consider natural=peak for the most distinct mountains in the district" />
		<tag k="name" v="Greåkerberget" />
		<tag k="natural" v="hill" />
		<tag k="place" v="locality" />
		<tag k="ssr:stedsnr" v="362754" />
	</node>
	<node id="-50598" lat="60.225257539" lon="12.1963395803">
		<tag k="fixme" v="consider natural=peak for the most distinct mountains in the district" />
		<tag k="name" v="Furukongen" />
		<tag k="natural" v="hill" />
		<tag k="place" v="locality" />
		<tag k="ssr:stedsnr" v="611019" />
	</node>
	<node id="-50597" lat="60.2787527808" lon="12.390088895">
		<tag k="name" v="Kistmyrberget" />
		<tag k="natural" v="hill" />
		<tag k="place" v="locality" />
		<tag k="ssr:stedsnr" v="605932" />
	</node>
	<node id="-50595" lat="60.059505558" lon="12.3827555567">
		<tag k="name" v="Kloppmyrberget" />
		<tag k="natural" v="hill" />
		<tag k="place" v="locality" />
		<tag k="ssr:stedsnr" v="605648" />
	</node>
	<node id="-50583" lat="60.1322333326" lon="12.46691388">
		<tag k="name" v="Granaberget" />
		<tag k="natural" v="hill" />
		<tag k="place" v="locality" />
		<tag k="ssr:stedsnr" v="604207" />
	</node>
	<node id="-48533" lat="60.2361000002" lon="11.950797218">
		<tag k="name" v="Geitryggen" />
		<tag k="natural" v="hill" />
		<tag k="place" v="locality" />
		<tag k="ssr:stedsnr" v="361157" />
	</node>
	<node id="-50580" lat="60.2827611127" lon="12.3924249994">
		<tag k="fixme" v="consider natural=peak for the most distinct mountains in the district" />
		<tag k="name" v="Gubbetjennsåsen" />
		<tag k="natural" v="hill" />
		<tag k="place" v="locality" />
		<tag k="ssr:stedsnr" v="604115" />
	</node>
	<node id="-50579" lat="60.3075194402" lon="12.3565222192">
		<tag k="name" v="Fjørhanadalen" />
		<tag k="natural" v="valley" />
		<tag k="place" v="locality" />
		<tag k="ssr:stedsnr" v="604112" />
	</node>
	<node id="-50578" lat="60.3158833334" lon="12.3825194421">
		<tag k="name" v="Vinkelposten" />
		<tag k="place" v="locality" />
		<tag k="ssr:stedsnr" v="604107" />
	</node>
	<node id="-48529" lat="60.1278472237" lon="12.0960083421">
		<tag k="name" v="Snaremoen" />
		<tag k="place" v="locality" />
		<tag k="ssr:stedsnr" v="360810" />
	</node>
	<node id="-48526" lat="60.1527138871" lon="12.1658138972">
		<tag k="fixme" v="consider natural=peak for the most distinct mountains in the district" />
		<tag k="name" v="Vardebergtoppen" />
		<tag k="natural" v="hill" />
		<tag k="place" v="locality" />
		<tag k="ssr:stedsnr" v="360779" />
	</node>
	<node id="-50573" lat="60.1817138855" lon="12.0927250073">
		<tag k="name" v="Mobekk skanse" />
		<tag k="place" v="locality" />
		<tag k="ssr:stedsnr" v="603811" />
	</node>
	<node id="-50572" lat="60.1773583319" lon="12.117938891">
		<tag k="name" v="Fransbråtaberget" />
		<tag k="natural" v="slope" />
		<tag k="place" v="locality" />
		<tag k="ssr:stedsnr" v="603806" />
	</node>
	<node id="-48523" lat="60.1547249977" lon="12.0356138903">
		<tag k="fixme" v="consider natural=peak for the most distinct mountains in the district" />
		<tag k="name" v="Føskerberget" />
		<tag k="natural" v="hill" />
		<tag k="place" v="locality" />
		<tag k="ssr:stedsnr" v="360581" />
	</node>
	<node id="-50570" lat="60.1921166666" lon="12.1180555554">
		<tag k="fixme" v="consider natural=peak for the most distinct mountains in the district" />
		<tag k="name" v="Nytorpberget" />
		<tag k="natural" v="hill" />
		<tag k="place" v="locality" />
		<tag k="ssr:stedsnr" v="603795" />
	</node>
	<node id="-50565" lat="60.295438889" lon="12.1765472207">
		<tag k="fixme" v="consider natural=peak for the most distinct mountains in the district" />
		<tag k="name" v="Kjølaberget" />
		<tag k="natural" v="hill" />
		<tag k="place" v="locality" />
		<tag k="ssr:stedsnr" v="603679" />
	</node>
	<node id="-50563" lat="60.1255166688" lon="12.0051083318">
		<tag k="name" v="Nesilia" />
		<tag k="natural" v="slope" />
		<tag k="place" v="locality" />
		<tag k="ssr:stedsnr" v="603583" />
	</node>
	<node id="-50562" lat="60.1087805571" lon="12.0152194535">
		<tag k="name" v="Bjørndalen" />
		<tag k="natural" v="valley" />
		<tag k="place" v="locality" />
		<tag k="ssr:stedsnr" v="603575" />
	</node>
	<node id="-50558" lat="60.2817500009" lon="12.1320472268">
		<tag k="fixme" v="consider natural=peak for the most distinct mountains in the district" />
		<tag k="name" v="Helgebergåsen" />
		<tag k="natural" v="hill" />
		<tag k="place" v="locality" />
		<tag k="ssr:stedsnr" v="603196" />
	</node>
	<node id="-48509" lat="60.2694638902" lon="12.0052583246">
		<tag k="name" v="Kleiva" />
		<tag k="natural" v="hill" />
		<tag k="place" v="locality" />
		<tag k="ssr:stedsnr" v="358924" />
	</node>
	<node id="-48505" lat="60.2001138848" lon="12.0563722137">
		<tag k="fixme" v="consider natural=peak for the most distinct mountains in the district" />
		<tag k="name" v="Nordbyberget" />
		<tag k="natural" v="hill" />
		<tag k="place" v="locality" />
		<tag k="ssr:stedsnr" v="358870" />
	</node>
	<node id="-50552" lat="60.2702638915" lon="12.0770055535">
		<tag k="name" v="Hekla" />
		<tag k="natural" v="slope" />
		<tag k="place" v="locality" />
		<tag k="ssr:stedsnr" v="603130" />
	</node>
	<node id="-50546" lat="60.3376666667" lon="12.3913027726">
		<tag k="name" v="Noppi" />
		<tag k="natural" v="hill" />
		<tag k="place" v="locality" />
		<tag k="ssr:stedsnr" v="603034" />
	</node>
	<node id="-48493" lat="60.2326277767" lon="12.2188722279">
		<tag k="fixme" v="consider natural=peak for the most distinct mountains in the district" />
		<tag k="name" v="Langmyrberget" />
		<tag k="natural" v="hill" />
		<tag k="place" v="locality" />
		<tag k="ssr:stedsnr" v="358393" />
	</node>
	<node id="-48484" lat="60.2051277765" lon="12.418405555">
		<tag k="fixme" v="consider natural=peak for the most distinct mountains in the district" />
		<tag k="name" v="Loåsen" />
		<tag k="natural" v="hill" />
		<tag k="place" v="locality" />
		<tag k="ssr:stedsnr" v="358155" />
	</node>
	<node id="-50530" lat="60.17057222" lon="12.0480861196">
		<tag k="name" v="Skjønningsenglia" />
		<tag k="natural" v="slope" />
		<tag k="place" v="locality" />
		<tag k="ssr:stedsnr" v="601622" />
	</node>
	<node id="-48481" lat="60.2089194475" lon="12.4712666731">
		<tag k="fixme" v="consider natural=peak for the most distinct mountains in the district" />
		<tag k="name" v="Høgbråten" />
		<tag k="natural" v="hill" />
		<tag k="place" v="locality" />
		<tag k="ssr:stedsnr" v="358145" />
	</node>
	<node id="-48479" lat="60.1622805584" lon="12.18258056">
		<tag k="fixme" v="consider natural=peak for the most distinct mountains in the district" />
		<tag k="name" v="Tekstebakkåsen" />
		<tag k="natural" v="hill" />
		<tag k="place" v="locality" />
		<tag k="ssr:stedsnr" v="358101" />
	</node>
	<node id="-48471" lat="60.2771305521" lon="11.984730548">
		<tag k="name" v="Djupdalen" />
		<tag k="natural" v="valley" />
		<tag k="place" v="locality" />
		<tag k="ssr:stedsnr" v="345999" />
	</node>
	<node id="-50515" lat="60.1973944419" lon="12.5072083343">
		<tag k="name" v="Bekkekroken" />
		<tag k="place" v="locality" />
		<tag k="ssr:stedsnr" v="601142" />
	</node>
	<node id="-50514" lat="60.1820361116" lon="12.4357111118">
		<tag k="fixme" v="consider natural=peak for the most distinct mountains in the district" />
		<tag k="name" v="Kvernåsen" />
		<tag k="natural" v="hill" />
		<tag k="place" v="locality" />
		<tag k="ssr:stedsnr" v="601131" />
	</node>
	<node id="-48463" lat="60.3311499961" lon="12.0442944495">
		<tag k="fixme" v="consider natural=peak for the most distinct mountains in the district" />
		<tag k="name" v="Stollsnorberget" />
		<tag k="natural" v="hill" />
		<tag k="ssr:stedsnr" v="345758" />
	</node>
	<node id="-48460" lat="60.0126361087" lon="12.3460083254">
		<tag k="name" v="Geitberget" />
		<tag k="natural" v="hill" />
		<tag k="place" v="locality" />
		<tag k="ssr:stedsnr" v="345700" />
	</node>
	<node id="-48459" lat="60.145766665" lon="11.9648166606">
		<tag k="name" v="Rålia" />
		<tag k="natural" v="slope" />
		<tag k="place" v="locality" />
		<tag k="ssr:stedsnr" v="345699" />
	</node>
	<node id="-48455" lat="60.3171944453" lon="12.2110666734">
		<tag k="name" v="Skåltjennshaugen" />
		<tag k="natural" v="hill" />
		<tag k="place" v="locality" />
		<tag k="ssr:stedsnr" v="345609" />
	</node>
	<node id="-50496" lat="60.1461444451" lon="11.9482499998">
		<tag k="name" v="Rålimana" />
		<tag k="natural" v="hill" />
		<tag k="place" v="locality" />
		<tag k="ssr:stedsnr" v="591018" />
	</node>
	<node id="-48447" lat="60.2515194443" lon="12.1410166602">
		<tag k="fixme" v="consider natural=peak for the most distinct mountains in the district" />
		<tag k="name" v="Damsjøberget" />
		<tag k="natural" v="hill" />
		<tag k="place" v="locality" />
		<tag k="ssr:stedsnr" v="345149" />
	</node>
	<node id="-48441" lat="60.3650305583" lon="12.4229555551">
		<tag k="name" v="Ørneredet" />
		<tag k="place" v="locality" />
		<tag k="ssr:stedsnr" v="344128" />
	</node>
	<node id="-48440" lat="60.3631000035" lon="12.4200472195">
		<tag k="fixme" v="consider natural=peak for the most distinct mountains in the district" />
		<tag k="name" v="Nordberget" />
		<tag k="natural" v="hill" />
		<tag k="place" v="locality" />
		<tag k="ssr:stedsnr" v="344123" />
	</node>
	<node id="-49373" lat="60.2546111116" lon="12.2178027691">
		<tag k="name" v="Krakadalsberget" />
		<tag k="natural" v="hill" />
		<tag k="place" v="locality" />
		<tag k="ssr:stedsnr" v="163407" />
	</node>
	<node id="-48425" lat="60.230299997" lon="12.0507111097">
		<tag k="name" v="Glåmdalen" />
		<tag k="natural" v="valley" />
		<tag k="place" v="locality" />
		<tag k="ssr:stedsnr" v="331783" />
	</node>
	<node id="-50472" lat="60.227877779" lon="12.1565194387">
		<tag k="name" v="Svettlia" />
		<tag k="natural" v="slope" />
		<tag k="place" v="locality" />
		<tag k="ssr:stedsnr" v="587208" />
	</node>
	<node id="-50471" lat="60.2208555521" lon="12.1650666709">
		<tag k="name" v="Blokktjennshaugen" />
		<tag k="natural" v="hill" />
		<tag k="place" v="locality" />
		<tag k="ssr:stedsnr" v="587209" />
	</node>
	<node id="-50470" lat="60.220708334" lon="12.0760638938">
		<tag k="fixme" v="consider natural=peak for the most distinct mountains in the district" />
		<tag k="loc_name" v="Røysene" />
		<tag k="name" v="Reisenberget" />
		<tag k="natural" v="hill" />
		<tag k="place" v="locality" />
		<tag k="ssr:stedsnr" v="587200" />
	</node>
	<node id="-50467" lat="60.3097166656" lon="12.3142749923">
		<tag k="name" v="Skjuldalen" />
		<tag k="natural" v="valley" />
		<tag k="place" v="locality" />
		<tag k="ssr:stedsnr" v="587113" />
	</node>
	<node id="-50457" lat="60.3080111073" lon="12.0899055469">
		<tag k="name" v="Løeslåttskjæret" />
		<tag k="natural" v="hill" />
		<tag k="place" v="locality" />
		<tag k="ssr:stedsnr" v="586252" />
	</node>
	<node id="-48407" lat="60.2309027798" lon="12.4616500054">
		<tag k="fixme" v="consider natural=peak for the most distinct mountains in the district" />
		<tag k="name" v="Bolnesberget" />
		<tag k="natural" v="hill" />
		<tag k="place" v="locality" />
		<tag k="ssr:stedsnr" v="309811" />
	</node>
	<node id="-50453" lat="60.2051444405" lon="12.386216667">
		<tag k="fixme" v="consider natural=peak for the most distinct mountains in the district" />
		<tag k="name" v="Haukåsen" />
		<tag k="natural" v="hill" />
		<tag k="place" v="locality" />
		<tag k="ssr:stedsnr" v="585958" />
	</node>
	<node id="-50452" lat="60.2089722263" lon="12.3911694417">
		<tag k="fixme" v="consider natural=peak for the most distinct mountains in the district" />
		<tag k="name" v="Stampetjennberget" />
		<tag k="natural" v="hill" />
		<tag k="place" v="locality" />
		<tag k="ssr:stedsnr" v="585953" />
	</node>
	<node id="-50437" lat="60.3085333289" lon="12.1726250003">
		<tag k="name" v="Brattberget" />
		<tag k="natural" v="hill" />
		<tag k="place" v="locality" />
		<tag k="ssr:stedsnr" v="552501" />
	</node>
	<node id="-50434" lat="60.2582416685" lon="12.0080083339">
		<tag k="name" v="Merrabråtådalen" />
		<tag k="natural" v="valley" />
		<tag k="place" v="locality" />
		<tag k="ssr:stedsnr" v="552487" />
	</node>
	<node id="-48382" lat="60.2821638893" lon="12.4185000083">
		<tag k="name" v="Noppi" />
		<tag k="natural" v="hill" />
		<tag k="place" v="locality" />
		<tag k="ssr:stedsnr" v="309197" />
	</node>
	<node id="-48381" lat="60.2786388888" lon="12.3946416663">
		<tag k="name" v="Vestre Gubbetjennsberget" />
		<tag k="natural" v="hill" />
		<tag k="place" v="locality" />
		<tag k="ssr:stedsnr" v="309196" />
	</node>
	<node id="-50416" lat="60.294227782" lon="12.4323250071">
		<tag k="fixme" v="multiple name tags, choose one and add the other to alt_name" />
		<tag k="name" v="Aurbråteberget;Barkebråtaberget" />
		<tag k="natural" v="hill" />
		<tag k="place" v="locality" />
		<tag k="ssr:stedsnr" v="552182" />
	</node>
	<node id="-50412" lat="60.2527166642" lon="12.2613499948">
		<tag k="fixme" v="consider natural=peak for the most distinct mountains in the district" />
		<tag k="name" v="Furukongen" />
		<tag k="natural" v="hill" />
		<tag k="place" v="locality" />
		<tag k="ssr:stedsnr" v="552069" />
	</node>
	<node id="-50404" lat="60.2272305559" lon="12.4117972307">
		<tag k="name" v="Lauvtjennberget" />
		<tag k="natural" v="hill" />
		<tag k="place" v="locality" />
		<tag k="ssr:stedsnr" v="551829" />
	</node>
	<node id="-50402" lat="60.2187305572" lon="12.3548833266">
		<tag k="name" v="Naimaberget" />
		<tag k="natural" v="hill" />
		<tag k="place" v="locality" />
		<tag k="ssr:stedsnr" v="551820" />
	</node>
	<node id="-50401" lat="60.2062277792" lon="12.3203277723">
		<tag k="name" v="Oppkjølberget" />
		<tag k="natural" v="hill" />
		<tag k="place" v="locality" />
		<tag k="ssr:stedsnr" v="551819" />
	</node>
	<node id="-50390" lat="60.1731833332" lon="11.9801277732">
		<tag k="fixme" v="consider natural=peak for the most distinct mountains in the district" />
		<tag k="name" v="Kurudåsen" />
		<tag k="natural" v="hill" />
		<tag k="place" v="locality" />
		<tag k="ssr:stedsnr" v="551612" />
	</node>
	<node id="-48340" lat="60.1801249962" lon="12.4802250035">
		<tag k="name" v="Taursåberget" />
		<tag k="natural" v="hill" />
		<tag k="place" v="locality" />
		<tag k="ssr:stedsnr" v="308750" />
	</node>
	<node id="-48339" lat="60.1726749997" lon="12.2891249969">
		<tag k="name" v="Nygardssæterberget" />
		<tag k="natural" v="hill" />
		<tag k="place" v="locality" />
		<tag k="ssr:stedsnr" v="308743" />
	</node>
	<node id="-48327" lat="60.2214722241" lon="11.9100305571">
		<tag k="name" v="Høgda" />
		<tag k="natural" v="hill" />
		<tag k="place" v="locality" />
		<tag k="ssr:stedsnr" v="302217" />
	</node>
	<node id="-48325" lat="60.2873416669" lon="12.0578222295">
		<tag k="fixme" v="consider natural=peak for the most distinct mountains in the district" />
		<tag k="name" v="Eikeberget" />
		<tag k="natural" v="hill" />
		<tag k="place" v="locality" />
		<tag k="ssr:stedsnr" v="301987" />
	</node>
	<node id="-48320" lat="60.2223472218" lon="11.9549750002">
		<tag k="fixme" v="consider natural=peak for the most distinct mountains in the district" />
		<tag k="name" v="Nyhusberget" />
		<tag k="natural" v="hill" />
		<tag k="place" v="locality" />
		<tag k="ssr:stedsnr" v="301753" />
	</node>
	<node id="-48315" lat="60.0979722202" lon="12.4513055528">
		<tag k="name" v="Storteppa" />
		<tag k="natural" v="hill" />
		<tag k="place" v="locality" />
		<tag k="ssr:stedsnr" v="301231" />
	</node>
	<node id="-50361" lat="60.2025750004" lon="12.2125472179">
		<tag k="name" v="Poaho" />
		<tag k="natural" v="hill" />
		<tag k="place" v="locality" />
		<tag k="ssr:stedsnr" v="551066" />
	</node>
	<node id="-48306" lat="60.1649611099" lon="12.1365277848">
		<tag k="fixme" v="consider natural=peak for the most distinct mountains in the district" />
		<tag k="name" v="Frauvikberget" />
		<tag k="natural" v="hill" />
		<tag k="place" v="locality" />
		<tag k="ssr:stedsnr" v="300794" />
	</node>
	<node id="-48305" lat="60.195805553" lon="11.933333337">
		<tag k="name" v="Hestelia" />
		<tag k="natural" v="slope" />
		<tag k="place" v="locality" />
		<tag k="ssr:stedsnr" v="300749" />
	</node>
	<node id="-50348" lat="60.2684722266" lon="12.3882888877">
		<tag k="name" v="Blåskjæra" />
		<tag k="natural" v="hill" />
		<tag k="place" v="locality" />
		<tag k="ssr:stedsnr" v="544921" />
	</node>
	<node id="-48299" lat="60.2960861123" lon="12.1746111047">
		<tag k="fixme" v="consider natural=peak for the most distinct mountains in the district" />
		<tag k="name" v="Slettkjølberget" />
		<tag k="natural" v="hill" />
		<tag k="place" v="locality" />
		<tag k="ssr:stedsnr" v="300224" />
	</node>
	<node id="-50268" lat="60.2460333326" lon="12.0589472303">
		<tag k="fixme" v="consider natural=peak for the most distinct mountains in the district" />
		<tag k="name" v="Roverudsberget" />
		<tag k="natural" v="hill" />
		<tag k="place" v="locality" />
		<tag k="ssr:stedsnr" v="540954" />
	</node>
	<node id="-50340" lat="60.0647138869" lon="12.321891675">
		<tag k="fixme" v="consider natural=peak for the most distinct mountains in the district" />
		<tag k="name" v="Finnlifjellet" />
		<tag k="natural" v="hill" />
		<tag k="place" v="locality" />
		<tag k="ssr:stedsnr" v="544652" />
	</node>
	<node id="-48286" lat="60.1551027793" lon="12.3593805579">
		<tag k="name" v="Pengedråga" />
		<tag k="natural" v="valley" />
		<tag k="place" v="locality" />
		<tag k="ssr:stedsnr" v="298932" />
	</node>
	<node id="-48284" lat="60.2736194419" lon="12.3046305622">
		<tag k="name" v="Tusseskjæra" />
		<tag k="natural" v="hill" />
		<tag k="place" v="locality" />
		<tag k="ssr:stedsnr" v="298907" />
	</node>
	<node id="-50331" lat="60.3454722267" lon="12.0300472227">
		<tag k="name" v="Fosseidberget" />
		<tag k="natural" v="hill" />
		<tag k="place" v="locality" />
		<tag k="ssr:stedsnr" v="544426" />
	</node>
	<node id="-48281" lat="60.2309583348" lon="12.0036194517">
		<tag k="name" v="Høgfjellet" />
		<tag k="natural" v="hill" />
		<tag k="place" v="locality" />
		<tag k="ssr:stedsnr" v="298897" />
	</node>
	<node id="-48273" lat="60.3069722214" lon="11.9368833367">
		<tag k="name" v="Koiemyrberget" />
		<tag k="natural" v="hill" />
		<tag k="place" v="locality" />
		<tag k="ssr:stedsnr" v="298527" />
	</node>
	<node id="-50318" lat="60.2838166632" lon="12.3948388845">
		<tag k="name" v="Gubbetjennsdråga" />
		<tag k="natural" v="valley" />
		<tag k="place" v="locality" />
		<tag k="ssr:stedsnr" v="544100" />
	</node>
	<node id="-48266" lat="60.1745388855" lon="12.5064083361">
		<tag k="fixme" v="consider natural=peak for the most distinct mountains in the district" />
		<tag k="name" v="Ropsuoberget" />
		<tag k="natural" v="hill" />
		<tag k="place" v="locality" />
		<tag k="ssr:stedsnr" v="298169" />
	</node>
	<node id="-50313" lat="60.3247500002" lon="12.3533333315">
		<tag k="name" v="Grevlingtjennshaugen" />
		<tag k="natural" v="hill" />
		<tag k="place" v="locality" />
		<tag k="ssr:stedsnr" v="544088" />
	</node>
	<node id="-48263" lat="60.3061444444" lon="12.3397166754">
		<tag k="name" v="Maurhaugen" />
		<tag k="natural" v="hill" />
		<tag k="place" v="locality" />
		<tag k="ssr:stedsnr" v="298110" />
	</node>
	<node id="-50310" lat="60.2358222255" lon="12.3253638876">
		<tag k="name" v="Kroknesberget" />
		<tag k="natural" v="hill" />
		<tag k="place" v="locality" />
		<tag k="ssr:stedsnr" v="543979" />
	</node>
	<node id="-48261" lat="60.1687027815" lon="12.2278638924">
		<tag k="fixme" v="consider natural=peak for the most distinct mountains in the district" />
		<tag k="name" v="Knartberget" />
		<tag k="natural" v="hill" />
		<tag k="place" v="locality" />
		<tag k="ssr:stedsnr" v="298086" />
	</node>
	<node id="-50307" lat="60.170830552" lon="12.1427138962">
		<tag k="fixme" v="consider natural=peak for the most distinct mountains in the district" />
		<tag k="name" v="Tremannsåsen" />
		<tag k="natural" v="hill" />
		<tag k="place" v="locality" />
		<tag k="ssr:stedsnr" v="543830" />
	</node>
	<node id="-50303" lat="60.0437305518" lon="12.3890416738">
		<tag k="fixme" v="consider natural=peak for the most distinct mountains in the district" />
		<tag k="name" v="Kvernberget" />
		<tag k="natural" v="hill" />
		<tag k="place" v="locality" />
		<tag k="ssr:stedsnr" v="543637" />
	</node>
	<node id="-48661" lat="60.1355416697" lon="12.380208333">
		<tag k="name" v="Morttjennenga" />
		<tag k="natural" v="slope" />
		<tag k="place" v="locality" />
		<tag k="ssr:stedsnr" v="403800" />
	</node>
	<node id="-51050" lat="60.2678138868" lon="12.4038444406">
		<tag k="name" v="Vestriberget" />
		<tag k="natural" v="hill" />
		<tag k="place" v="locality" />
		<tag k="ssr:stedsnr" v="727915" />
	</node>
	<node id="-50297" lat="60.1177944436" lon="12.064713883">
		<tag k="name" v="Strengelsrudberget" />
		<tag k="natural" v="hill" />
		<tag k="place" v="locality" />
		<tag k="ssr:stedsnr" v="543576" />
	</node>
	<node id="-50294" lat="60.2643527763" lon="11.9650444496">
		<tag k="name" v="Grisbekkskjæret" />
		<tag k="natural" v="hill" />
		<tag k="place" v="locality" />
		<tag k="ssr:stedsnr" v="543180" />
	</node>
	<node id="-48244" lat="60.1742499976" lon="12.0639722307">
		<tag k="name" v="Tårnberget" />
		<tag k="natural" v="hill" />
		<tag k="place" v="locality" />
		<tag k="ssr:stedsnr" v="285114" />
	</node>
	<node id="-48243" lat="60.3198555524" lon="12.3149722237">
		<tag k="name" v="Dulpberget" />
		<tag k="natural" v="hill" />
		<tag k="place" v="locality" />
		<tag k="ssr:stedsnr" v="285104" />
	</node>
	<node id="-48242" lat="60.3379527741" lon="12.3193222199">
		<tag k="name" v="Bråtahaugen" />
		<tag k="natural" v="hill" />
		<tag k="place" v="locality" />
		<tag k="ssr:stedsnr" v="285072" />
	</node>
	<node id="-48241" lat="60.3283111073" lon="12.3528777843">
		<tag k="name" v="Mattismota" />
		<tag k="natural" v="slope" />
		<tag k="place" v="locality" />
		<tag k="ssr:stedsnr" v="285069" />
	</node>
	<node id="-48235" lat="60.2187166659" lon="12.1524527812">
		<tag k="name" v="Tullskjæret" />
		<tag k="natural" v="hill" />
		<tag k="place" v="locality" />
		<tag k="ssr:stedsnr" v="285217" />
	</node>
	<node id="-50282" lat="60.3245888849" lon="12.2679249998">
		<tag k="name" v="Jersjøberget" />
		<tag k="natural" v="hill" />
		<tag k="place" v="locality" />
		<tag k="ssr:stedsnr" v="541672" />
	</node>
	<node id="-48233" lat="60.111158329" lon="11.9477583326">
		<tag k="name" v="Nordsethåsen" />
		<tag k="natural" v="hill" />
		<tag k="place" v="locality" />
		<tag k="ssr:stedsnr" v="284766" />
	</node>
	<node id="-50280" lat="60.3811277743" lon="12.2758083377">
		<tag k="name" v="Bendiksberget" />
		<tag k="natural" v="hill" />
		<tag k="place" v="locality" />
		<tag k="ssr:stedsnr" v="541550" />
	</node>
	<node id="-48229" lat="60.3565527734" lon="12.4205361121">
		<tag k="name" v="Austbergskjæra" />
		<tag k="natural" v="cliff" />
		<tag k="ssr:stedsnr" v="284143" />
	</node>
	<node id="-48226" lat="60.3337333374" lon="12.1850083428">
		<tag k="name" v="Grytberget" />
		<tag k="natural" v="hill" />
		<tag k="place" v="locality" />
		<tag k="ssr:stedsnr" v="283667" />
	</node>
	<node id="-50273" lat="60.3433222254" lon="12.0960333262">
		<tag k="name" v="Harabrudalen" />
		<tag k="natural" v="valley" />
		<tag k="place" v="locality" />
		<tag k="ssr:stedsnr" v="541036" />
	</node>
	<node id="-48221" lat="60.1463833335" lon="12.3895972255">
		<tag k="name" v="Smalmyrberget" />
		<tag k="natural" v="hill" />
		<tag k="place" v="locality" />
		<tag k="ssr:stedsnr" v="282778" />
	</node>
	<node id="-48220" lat="60.3031777757" lon="12.2800527837">
		<tag k="name" v="Maurberget" />
		<tag k="natural" v="hill" />
		<tag k="place" v="locality" />
		<tag k="ssr:stedsnr" v="282615" />
	</node>
	<node id="-50262" lat="60.2641111135" lon="12.3143111057">
		<tag k="fixme" v="consider natural=peak for the most distinct mountains in the district" />
		<tag k="name" v="Ronkaberget" />
		<tag k="natural" v="hill" />
		<tag k="place" v="locality" />
		<tag k="ssr:stedsnr" v="540911" />
	</node>
	<node id="-50258" lat="60.0436388874" lon="12.312830564">
		<tag k="name" v="Kølabotten" />
		<tag k="natural" v="valley" />
		<tag k="place" v="locality" />
		<tag k="ssr:stedsnr" v="540637" />
	</node>
	<node id="-50257" lat="60.163072221" lon="12.0275138829">
		<tag k="name" v="Gaukåsen" />
		<tag k="natural" v="hill" />
		<tag k="place" v="locality" />
		<tag k="ssr:stedsnr" v="540596" />
	</node>
	<node id="-50254" lat="60.2928666622" lon="11.9537583384">
		<tag k="name" v="Kristigrav" />
		<tag k="natural" v="valley" />
		<tag k="place" v="locality" />
		<tag k="ssr:stedsnr" v="540521" />
	</node>
	<node id="-50252" lat="60.262930551" lon="12.4685861174">
		<tag k="name" v="Låntahå" />
		<tag k="place" v="locality" />
		<tag k="ssr:stedsnr" v="540350" />
	</node>
	<node id="-50245" lat="60.1639222254" lon="12.5131611082">
		<tag k="name" v="Lindaholmen" />
		<tag k="natural" v="hill" />
		<tag k="place" v="locality" />
		<tag k="ssr:stedsnr" v="540178" />
	</node>
	<node id="-50241" lat="60.2713805526" lon="12.1393111085">
		<tag k="name" v="Geitberget" />
		<tag k="natural" v="hill" />
		<tag k="place" v="locality" />
		<tag k="ssr:stedsnr" v="540169" />
	</node>
	<node id="-50236" lat="60.3001833309" lon="12.3289194397">
		<tag k="name" v="Stikkhøvelen" />
		<tag k="place" v="locality" />
		<tag k="ssr:stedsnr" v="540137" />
	</node>
	<node id="-50228" lat="60.1496083337" lon="12.2000500054">
		<tag k="name" v="Ladderudberget" />
		<tag k="natural" v="hill" />
		<tag k="place" v="locality" />
		<tag k="ssr:stedsnr" v="530610" />
	</node>
	<node id="-50227" lat="60.2826555542" lon="11.981522225">
		<tag k="name" v="Festningsdalen" />
		<tag k="natural" v="valley" />
		<tag k="place" v="locality" />
		<tag k="ssr:stedsnr" v="527999" />
	</node>
	<node id="-50217" lat="60.0977222232" lon="11.9580805509">
		<tag k="name" v="Slabørlia" />
		<tag k="natural" v="slope" />
		<tag k="place" v="locality" />
		<tag k="ssr:stedsnr" v="527708" />
	</node>
	<node id="-51036" lat="60.0300472265" lon="12.4060333353">
		<tag k="name" v="Bjørndalen" />
		<tag k="natural" v="valley" />
		<tag k="place" v="locality" />
		<tag k="ssr:stedsnr" v="726749" />
	</node>
	<node id="-50207" lat="60.2575388914" lon="12.2207277837">
		<tag k="name" v="Krakadalen" />
		<tag k="natural" v="valley" />
		<tag k="place" v="locality" />
		<tag k="ssr:stedsnr" v="527449" />
	</node>
	<node id="-49327" lat="60.3177611154" lon="12.1429638827">
		<tag k="name" v="Vesle Rafjellet" />
		<tag k="natural" v="hill" />
		<tag k="place" v="locality" />
		<tag k="ssr:stedsnr" v="127499" />
	</node>
	<node id="-50196" lat="60.1318861092" lon="12.380877776">
		<tag k="name" v="Mellomtjennåsen" />
		<tag k="natural" v="hill" />
		<tag k="place" v="locality" />
		<tag k="ssr:stedsnr" v="525793" />
	</node>
	<node id="-50193" lat="60.148627774" lon="12.3854194531">
		<tag k="name" v="Smalmyrdalen" />
		<tag k="natural" v="valley" />
		<tag k="place" v="locality" />
		<tag k="ssr:stedsnr" v="525779" />
	</node>
	<node id="-50184" lat="60.2861277749" lon="12.1088500068">
		<tag k="name" v="Elimorhaugen" />
		<tag k="natural" v="hill" />
		<tag k="place" v="locality" />
		<tag k="ssr:stedsnr" v="525253" />
	</node>
	<node id="-50181" lat="60.371077774" lon="12.0518555614">
		<tag k="name" v="Brattåsberget" />
		<tag k="natural" v="hill" />
		<tag k="place" v="locality" />
		<tag k="ssr:stedsnr" v="492339" />
	</node>
	<node id="-51030" lat="60.2306527813" lon="12.4623416751">
		<tag k="fixme" v="consider natural=peak for the most distinct mountains in the district" />
		<tag k="name" v="Festningen" />
		<tag k="natural" v="hill" />
		<tag k="ssr:stedsnr" v="726142" />
	</node>
	<node id="-50005" lat="60.257097226" lon="12.2369805615">
		<tag k="name" v="Ryaberget" />
		<tag k="natural" v="hill" />
		<tag k="place" v="locality" />
		<tag k="ssr:stedsnr" v="466466" />
	</node>
	<node id="-48638" lat="60.2807166673" lon="11.9471638887">
		<tag k="name" v="Grasberget" />
		<tag k="natural" v="hill" />
		<tag k="place" v="locality" />
		<tag k="ssr:stedsnr" v="370517" />
	</node>
	<node id="-50159" lat="60.2137749989" lon="12.3014777804">
		<tag k="fixme" v="consider natural=peak for the most distinct mountains in the district" />
		<tag k="name" v="Orremyråsen" />
		<tag k="natural" v="hill" />
		<tag k="place" v="locality" />
		<tag k="ssr:stedsnr" v="491792" />
	</node>
	<node id="-50144" lat="60.3174027735" lon="11.9656499967">
		<tag k="name" v="Solbergsberget" />
		<tag k="natural" v="hill" />
		<tag k="place" v="locality" />
		<tag k="ssr:stedsnr" v="491479" />
	</node>
	<node id="-50139" lat="60.267505557" lon="11.9582388885">
		<tag k="name" v="Lysberget" />
		<tag k="natural" v="hill" />
		<tag k="place" v="locality" />
		<tag k="ssr:stedsnr" v="491419" />
	</node>
	<node id="-50133" lat="60.0141000019" lon="12.3389249924">
		<tag k="fixme" v="consider natural=peak for the most distinct mountains in the district" />
		<tag k="name" v="Lannalåsen" />
		<tag k="natural" v="hill" />
		<tag k="place" v="locality" />
		<tag k="ssr:stedsnr" v="491052" />
	</node>
	<node id="-50131" lat="60.0284250023" lon="12.3499555608">
		<tag k="fixme" v="consider natural=peak for the most distinct mountains in the district" />
		<tag k="name" v="Eikåsen" />
		<tag k="natural" v="hill" />
		<tag k="place" v="locality" />
		<tag k="ssr:stedsnr" v="491034" />
	</node>
	<node id="-50107" lat="60.1709749977" lon="12.0406722151">
		<tag k="alt_name" v="Djupdalsberget" />
		<tag k="name" v="Rastaberget" />
		<tag k="natural" v="hill" />
		<tag k="place" v="locality" />
		<tag k="ssr:stedsnr" v="490612" />
	</node>
	<node id="-50104" lat="60.1611777746" lon="11.9501694386">
		<tag k="name" v="Gørtjennberget" />
		<tag k="natural" v="hill" />
		<tag k="place" v="locality" />
		<tag k="ssr:stedsnr" v="490593" />
	</node>
	<node id="-50102" lat="60.1754055597" lon="12.203680562">
		<tag k="name" v="Ursberget" />
		<tag k="natural" v="hill" />
		<tag k="place" v="locality" />
		<tag k="ssr:stedsnr" v="490584" />
	</node>
	<node id="-50101" lat="60.1581361136" lon="12.195155556">
		<tag k="fixme" v="consider natural=peak for the most distinct mountains in the district" />
		<tag k="name" v="Bukkåsen" />
		<tag k="natural" v="hill" />
		<tag k="place" v="locality" />
		<tag k="ssr:stedsnr" v="490569" />
	</node>
	<node id="-50096" lat="60.339066667" lon="12.3768444377">
		<tag k="name" v="Fautberget" />
		<tag k="natural" v="hill" />
		<tag k="place" v="locality" />
		<tag k="ssr:stedsnr" v="491229" />
	</node>
	<node id="-50094" lat="60.3623611083" lon="12.4210277685">
		<tag k="name" v="Nordbergskjæra" />
		<tag k="natural" v="cliff" />
		<tag k="ssr:stedsnr" v="491213" />
	</node>
	<node id="-50081" lat="60.231866663" lon="11.9997777739">
		<tag k="name" v="Djupdalen" />
		<tag k="natural" v="valley" />
		<tag k="place" v="locality" />
		<tag k="ssr:stedsnr" v="490037" />
	</node>
	<node id="-50078" lat="60.036474996" lon="12.3273833359">
		<tag k="name" v="Kaldbråtahøgda" />
		<tag k="natural" v="hill" />
		<tag k="place" v="locality" />
		<tag k="ssr:stedsnr" v="490026" />
	</node>
	<node id="-50074" lat="60.1091000003" lon="12.0011861077">
		<tag k="name" v="Haukberget" />
		<tag k="natural" v="hill" />
		<tag k="place" v="locality" />
		<tag k="ssr:stedsnr" v="490488" />
	</node>
	<node id="-50073" lat="60.2622888919" lon="12.343844452">
		<tag k="name" v="Noppi" />
		<tag k="natural" v="hill" />
		<tag k="place" v="locality" />
		<tag k="ssr:stedsnr" v="484918" />
	</node>
	<node id="-50070" lat="60.0277194449" lon="12.412458332">
		<tag k="fixme" v="consider natural=peak for the most distinct mountains in the district" />
		<tag k="name" v="Håkerudberget" />
		<tag k="natural" v="hill" />
		<tag k="place" v="locality" />
		<tag k="ssr:stedsnr" v="483771" />
	</node>
	<node id="-50068" lat="60.270947225" lon="12.4532583413">
		<tag k="fixme" v="consider natural=peak for the most distinct mountains in the district" />
		<tag k="name" v="Kivahå" />
		<tag k="natural" v="hill" />
		<tag k="place" v="locality" />
		<tag k="ssr:stedsnr" v="483430" />
	</node>
	<node id="-50063" lat="60.1457444425" lon="12.4722222133">
		<tag k="fixme" v="consider natural=peak for the most distinct mountains in the district" />
		<tag k="name" v="Nøkketjennsberget" />
		<tag k="natural" v="hill" />
		<tag k="place" v="locality" />
		<tag k="ssr:stedsnr" v="483227" />
	</node>
	<node id="-50038" lat="60.3587138882" lon="11.9904638823">
		<tag k="fixme" v="consider natural=peak for the most distinct mountains in the district" />
		<tag k="name" v="Kalvåsen" />
		<tag k="natural" v="hill" />
		<tag k="place" v="locality" />
		<tag k="ssr:stedsnr" v="480903" />
	</node>
	<node id="-50023" lat="60.2871611116" lon="12.4372944368">
		<tag k="name" v="Aurtjennsbråteberget" />
		<tag k="natural" v="hill" />
		<tag k="place" v="locality" />
		<tag k="ssr:stedsnr" v="467311" />
	</node>
	<node id="-50016" lat="60.2637111151" lon="11.9973972188">
		<tag k="name" v="Merkebråtedalen" />
		<tag k="natural" v="valley" />
		<tag k="place" v="locality" />
		<tag k="ssr:stedsnr" v="466986" />
	</node>
	<node id="-50009" lat="60.0030361123" lon="12.3451500052">
		<tag k="fixme" v="consider natural=peak for the most distinct mountains in the district" />
		<tag k="name" v="Sæteråsen" />
		<tag k="natural" v="hill" />
		<tag k="place" v="locality" />
		<tag k="ssr:stedsnr" v="466755" />
	</node>
	<node id="-51001" lat="60.2158027782" lon="12.1983861072">
		<tag k="fixme" v="consider natural=peak for the most distinct mountains in the district" />
		<tag k="name" v="Orrmyrfjellet" />
		<tag k="natural" v="hill" />
		<tag k="place" v="locality" />
		<tag k="ssr:stedsnr" v="723435" />
	</node>
	<node id="-49999" lat="60.3559555525" lon="12.4184833292">
		<tag k="fixme" v="consider natural=peak for the most distinct mountains in the district" />
		<tag k="name" v="Sæterberget" />
		<tag k="natural" v="hill" />
		<tag k="place" v="locality" />
		<tag k="ssr:stedsnr" v="466140" />
	</node>
	<node id="-49998" lat="60.2572638906" lon="12.1398861174">
		<tag k="name" v="Hestberget" />
		<tag k="natural" v="hill" />
		<tag k="place" v="locality" />
		<tag k="ssr:stedsnr" v="466134" />
	</node>
	<node id="-49987" lat="60.2827305556" lon="12.2828277709">
		<tag k="name" v="Dumhansberget" />
		<tag k="natural" v="hill" />
		<tag k="place" v="locality" />
		<tag k="ssr:stedsnr" v="464527" />
	</node>
	<node id="-49978" lat="60.1864250009" lon="12.4993555516">
		<tag k="name" v="Taroberget" />
		<tag k="natural" v="hill" />
		<tag k="place" v="locality" />
		<tag k="ssr:stedsnr" v="432532" />
	</node>
	<node id="-49970" lat="60.2930611106" lon="12.1490777789">
		<tag k="fixme" v="consider natural=peak for the most distinct mountains in the district" />
		<tag k="name" v="Brattåsen" />
		<tag k="natural" v="hill" />
		<tag k="place" v="locality" />
		<tag k="ssr:stedsnr" v="431520" />
	</node>
	<node id="-50311" lat="60.2298083295" lon="12.3306888842">
		<tag k="name" v="Bjørnklomma" />
		<tag k="natural" v="valley" />
		<tag k="place" v="locality" />
		<tag k="ssr:stedsnr" v="543978" />
	</node>
	<node id="-49958" lat="60.3252000007" lon="12.0427861116">
		<tag k="name" v="Lemberget" />
		<tag k="natural" v="hill" />
		<tag k="place" v="locality" />
		<tag k="ssr:stedsnr" v="431326" />
	</node>
	<node id="-48262" lat="60.1815638865" lon="12.2382694362">
		<tag k="name" v="Peisbakberget" />
		<tag k="natural" v="hill" />
		<tag k="place" v="locality" />
		<tag k="ssr:stedsnr" v="298092" />
	</node>
	<node id="-49951" lat="60.3216055518" lon="12.3779583241">
		<tag k="name" v="Hannakaberget" />
		<tag k="natural" v="hill" />
		<tag k="place" v="locality" />
		<tag k="ssr:stedsnr" v="431261" />
	</node>
	<node id="-50309" lat="60.2340138864" lon="12.3869444506">
		<tag k="fixme" v="consider natural=peak for the most distinct mountains in the district" />
		<tag k="name" v="Rokkiporro" />
		<tag k="natural" v="hill" />
		<tag k="place" v="locality" />
		<tag k="ssr:stedsnr" v="543973" />
	</node>
	<node id="-49929" lat="60.1113916624" lon="12.496913894">
		<tag k="fixme" v="consider natural=peak for the most distinct mountains in the district" />
		<tag k="name" v="Lystjennåsen" />
		<tag k="natural" v="hill" />
		<tag k="place" v="locality" />
		<tag k="ssr:stedsnr" v="430922" />
	</node>
	<node id="-49928" lat="60.0894805593" lon="12.3845750084">
		<tag k="name" v="Hærsjølia" />
		<tag k="natural" v="slope" />
		<tag k="place" v="locality" />
		<tag k="ssr:stedsnr" v="430879" />
	</node>
	<node id="-49906" lat="60.0621749975" lon="12.3154611106">
		<tag k="name" v="Hanatjennberget" />
		<tag k="natural" v="hill" />
		<tag k="place" v="locality" />
		<tag k="ssr:stedsnr" v="430093" />
	</node>
	<node id="-49898" lat="60.0259500027" lon="12.3532249963">
		<tag k="name" v="Høgberg" />
		<tag k="natural" v="hill" />
		<tag k="place" v="locality" />
		<tag k="ssr:stedsnr" v="430026" />
	</node>
	<node id="-50983" lat="60.0335222202" lon="12.3497249985">
		<tag k="name" v="Eikåsberget" />
		<tag k="natural" v="hill" />
		<tag k="place" v="locality" />
		<tag k="ssr:stedsnr" v="722656" />
	</node>
	<node id="-49895" lat="60.2260055526" lon="12.0669111181">
		<tag k="fixme" v="consider natural=peak for the most distinct mountains in the district" />
		<tag k="name" v="Fageråsen" />
		<tag k="natural" v="hill" />
		<tag k="place" v="locality" />
		<tag k="ssr:stedsnr" v="430017" />
	</node>
	<node id="-49892" lat="60.2331388864" lon="12.2000472305">
		<tag k="fixme" v="consider natural=peak for the most distinct mountains in the district" />
		<tag k="name" v="Tørrgransletta" />
		<tag k="natural" v="hill" />
		<tag k="place" v="locality" />
		<tag k="ssr:stedsnr" v="430010" />
	</node>
	<node id="-50299" lat="60.1379166639" lon="12.0449666732">
		<tag k="name" v="Liermoen" />
		<tag k="place" v="locality" />
		<tag k="ssr:stedsnr" v="543598" />
	</node>
	<node id="-49880" lat="60.0589416666" lon="12.3619250048">
		<tag k="name" v="Bjørndalen" />
		<tag k="natural" v="valley" />
		<tag k="place" v="locality" />
		<tag k="ssr:stedsnr" v="423670" />
	</node>
	<node id="-51926" lat="60.1514583347" lon="12.3510666598">
		<tag k="name" v="Ormrudsdråga" />
		<tag k="natural" v="valley" />
		<tag k="place" v="locality" />
		<tag k="ssr:stedsnr" v="969930" />
	</node>
	<node id="-49876" lat="60.2785805558" lon="12.2535944502">
		<tag k="name" v="Baståsknappen" />
		<tag k="natural" v="hill" />
		<tag k="place" v="locality" />
		<tag k="ssr:stedsnr" v="423577" />
	</node>
	<node id="-49955" lat="60.3231361107" lon="11.9026333409">
		<tag k="name" v="Breihøgda" />
		<tag k="natural" v="hill" />
		<tag k="place" v="locality" />
		<tag k="ssr:stedsnr" v="431316" />
	</node>
	<node id="-51920" lat="60.08793889" lon="12.2835777702">
		<tag k="name" v="Søren-Bråtaåsen" />
		<tag k="natural" v="hill" />
		<tag k="place" v="locality" />
		<tag k="ssr:stedsnr" v="969720" />
	</node>
	<node id="-51918" lat="60.0495611073" lon="12.3216777803">
		<tag k="name" v="Bjønnhiet" />
		<tag k="place" v="locality" />
		<tag k="ssr:stedsnr" v="969679" />
	</node>
	<node id="-49868" lat="60.2986250002" lon="12.3549861052">
		<tag k="name" v="Fallet" />
		<tag k="natural" v="slope" />
		<tag k="place" v="locality" />
		<tag k="ssr:stedsnr" v="423097" />
	</node>
	<node id="-49866" lat="60.1568916661" lon="12.0735694409">
		<tag k="name" v="Varddalen" />
		<tag k="natural" v="valley" />
		<tag k="place" v="locality" />
		<tag k="ssr:stedsnr" v="422854" />
	</node>
	<node id="-49859" lat="60.2644000018" lon="12.4649555499">
		<tag k="name" v="Kalvhagaberget" />
		<tag k="natural" v="hill" />
		<tag k="place" v="locality" />
		<tag k="ssr:stedsnr" v="422366" />
	</node>
	<node id="-49857" lat="60.3202222262" lon="12.1485361164">
		<tag k="name" v="Galtbergsdråget" />
		<tag k="natural" v="valley" />
		<tag k="place" v="locality" />
		<tag k="ssr:stedsnr" v="422184" />
	</node>
	<node id="-51903" lat="60.2389388857" lon="12.4673138968">
		<tag k="name" v="Fløytåsen" />
		<tag k="natural" v="hill" />
		<tag k="place" v="locality" />
		<tag k="ssr:stedsnr" v="969152" />
	</node>
	<node id="-51901" lat="60.2255722213" lon="12.4876499948">
		<tag k="name" v="Rissoberget" />
		<tag k="natural" v="hill" />
		<tag k="place" v="locality" />
		<tag k="ssr:stedsnr" v="969140" />
	</node>
	<node id="-51900" lat="60.2240305536" lon="12.4766416735">
		<tag k="fixme" v="consider natural=peak for the most distinct mountains in the district" />
		<tag k="name" v="Ljokosberget" />
		<tag k="natural" v="hill" />
		<tag k="place" v="locality" />
		<tag k="ssr:stedsnr" v="969137" />
	</node>
	<node id="-49850" lat="60.1419111071" lon="11.9829388827">
		<tag k="name" v="Fløytlia" />
		<tag k="natural" v="slope" />
		<tag k="place" v="locality" />
		<tag k="ssr:stedsnr" v="421603" />
	</node>
	<node id="-49849" lat="60.1244972197" lon="11.9937944453">
		<tag k="fixme" v="consider natural=peak for the most distinct mountains in the district" />
		<tag k="name" v="Hansbråtaberget" />
		<tag k="natural" v="hill" />
		<tag k="place" v="locality" />
		<tag k="ssr:stedsnr" v="421601" />
	</node>
	<node id="-49848" lat="60.1547249977" lon="12.0356138903">
		<tag k="name" v="Skanse" />
		<tag k="place" v="locality" />
		<tag k="ssr:stedsnr" v="421596" />
	</node>
	<node id="-51894" lat="60.2250944463" lon="12.3159138815">
		<tag k="name" v="Tørrmyrberget" />
		<tag k="natural" v="hill" />
		<tag k="place" v="locality" />
		<tag k="ssr:stedsnr" v="967969" />
	</node>
	<node id="-51890" lat="60.1450000011" lon="11.9938750008">
		<tag k="fixme" v="consider natural=peak for the most distinct mountains in the district" />
		<tag k="name" v="Fløytberget" />
		<tag k="natural" v="hill" />
		<tag k="place" v="locality" />
		<tag k="ssr:stedsnr" v="967575" />
	</node>
	<node id="-51889" lat="60.1273500024" lon="12.022941675">
		<tag k="name" v="Kallåsen" />
		<tag k="natural" v="hill" />
		<tag k="place" v="locality" />
		<tag k="ssr:stedsnr" v="967554" />
	</node>
	<node id="-51887" lat="60.2827694423" lon="12.1249611038">
		<tag k="name" v="Lunderdalen" />
		<tag k="natural" v="valley" />
		<tag k="place" v="locality" />
		<tag k="ssr:stedsnr" v="967173" />
	</node>
	<node id="-51880" lat="60.2394805581" lon="11.9932833324">
		<tag k="name" v="Koieberget" />
		<tag k="natural" v="hill" />
		<tag k="place" v="locality" />
		<tag k="ssr:stedsnr" v="965963" />
	</node>
	<node id="-49831" lat="60.1740638889" lon="12.1495972222">
		<tag k="fixme" v="consider natural=peak for the most distinct mountains in the district" />
		<tag k="name" v="Brakalsåsen" />
		<tag k="natural" v="hill" />
		<tag k="place" v="locality" />
		<tag k="ssr:stedsnr" v="419834" />
	</node>
	<node id="-51873" lat="60.2647583375" lon="12.3278972139">
		<tag k="fixme" v="consider natural=peak for the most distinct mountains in the district" />
		<tag k="name" v="Gårgamæg" />
		<tag k="natural" v="hill" />
		<tag k="place" v="locality" />
		<tag k="ssr:stedsnr" v="965926" />
	</node>
	<node id="-49822" lat="60.3788583298" lon="12.2811305511">
		<tag k="name" v="Skasdamberget" />
		<tag k="natural" v="hill" />
		<tag k="place" v="locality" />
		<tag k="ssr:stedsnr" v="419508" />
	</node>
	<node id="-49821" lat="60.1944694417" lon="12.2552277786">
		<tag k="name" v="Jupet" />
		<tag k="natural" v="slope" />
		<tag k="place" v="locality" />
		<tag k="ssr:stedsnr" v="419405" />
	</node>
	<node id="-49820" lat="60.2257805533" lon="12.1912194427">
		<tag k="fixme" v="consider natural=peak for the most distinct mountains in the district" />
		<tag k="name" v="Glomberget" />
		<tag k="natural" v="hill" />
		<tag k="ssr:stedsnr" v="419395" />
	</node>
	<node id="-49819" lat="60.2603833313" lon="12.4883694513">
		<tag k="name" v="Brennåsen" />
		<tag k="natural" v="hill" />
		<tag k="place" v="locality" />
		<tag k="ssr:stedsnr" v="419360" />
	</node>
	<node id="-49816" lat="60.2541750025" lon="12.4870111175">
		<tag k="name" v="Kiddosinkangas" />
		<tag k="natural" v="hill" />
		<tag k="place" v="locality" />
		<tag k="ssr:stedsnr" v="419341" />
	</node>
	<node id="-51861" lat="60.3022888907" lon="11.9483416677">
		<tag k="name" v="Gjeddetjennsberget" />
		<tag k="natural" v="hill" />
		<tag k="place" v="locality" />
		<tag k="ssr:stedsnr" v="965553" />
	</node>
	<node id="-51858" lat="60.1941555535" lon="12.1956361073">
		<tag k="fixme" v="consider natural=peak for the most distinct mountains in the district" />
		<tag k="name" v="Klomma" />
		<tag k="natural" v="hill" />
		<tag k="place" v="locality" />
		<tag k="ssr:stedsnr" v="965425" />
	</node>
	<node id="-49804" lat="60.1655194421" lon="12.1941138817">
		<tag k="fixme" v="consider natural=peak for the most distinct mountains in the district" />
		<tag k="name" v="Skolehusberget" />
		<tag k="natural" v="hill" />
		<tag k="place" v="locality" />
		<tag k="ssr:stedsnr" v="480082" />
	</node>
	<node id="-51851" lat="60.211316669" lon="12.146705557">
		<tag k="name" v="Løvdalen" />
		<tag k="natural" v="valley" />
		<tag k="place" v="locality" />
		<tag k="ssr:stedsnr" v="965157" />
	</node>
	<node id="-51849" lat="60.2062361131" lon="12.1500444499">
		<tag k="name" v="Rømmgrautdalen" />
		<tag k="natural" v="valley" />
		<tag k="place" v="locality" />
		<tag k="ssr:stedsnr" v="965155" />
	</node>
	<node id="-51848" lat="60.192386115" lon="12.4220527821">
		<tag k="fixme" v="consider natural=peak for the most distinct mountains in the district" />
		<tag k="name" v="Lodinberget" />
		<tag k="natural" v="hill" />
		<tag k="place" v="locality" />
		<tag k="ssr:stedsnr" v="965152" />
	</node>
	<node id="-51844" lat="60.3020583295" lon="12.2998000027">
		<tag k="fixme" v="consider natural=peak for the most distinct mountains in the district" />
		<tag k="name" v="Langåsen" />
		<tag k="natural" v="hill" />
		<tag k="place" v="locality" />
		<tag k="ssr:stedsnr" v="965125" />
	</node>
	<node id="-50283" lat="60.3548388911" lon="12.0950194462">
		<tag k="name" v="Nokkobekkdalen" />
		<tag k="natural" v="valley" />
		<tag k="place" v="locality" />
		<tag k="ssr:stedsnr" v="542055" />
	</node>
	<node id="-51839" lat="60.3649166703" lon="12.3038972272">
		<tag k="fixme" v="consider natural=peak for the most distinct mountains in the district" />
		<tag k="name" v="Kalvbergsskjæra" />
		<tag k="natural" v="hill" />
		<tag k="place" v="locality" />
		<tag k="ssr:stedsnr" v="965040" />
	</node>
	<node id="-51838" lat="60.0635000029" lon="12.4306527793">
		<tag k="fixme" v="consider natural=peak for the most distinct mountains in the district" />
		<tag k="name" v="Bjørnmyrhøgda" />
		<tag k="natural" v="hill" />
		<tag k="place" v="locality" />
		<tag k="ssr:stedsnr" v="965035" />
	</node>
	<node id="-51836" lat="60.049074999" lon="12.4396472269">
		<tag k="fixme" v="consider natural=peak for the most distinct mountains in the district" />
		<tag k="name" v="Tempelåsen" />
		<tag k="natural" v="hill" />
		<tag k="place" v="locality" />
		<tag k="ssr:stedsnr" v="965026" />
	</node>
	<node id="-49786" lat="60.2546749961" lon="11.9844305533">
		<tag k="fixme" v="consider natural=peak for the most distinct mountains in the district" />
		<tag k="name" v="Lauvåsen" />
		<tag k="natural" v="hill" />
		<tag k="place" v="locality" />
		<tag k="ssr:stedsnr" v="249427" />
	</node>
	<node id="-49781" lat="60.3282666678" lon="11.9196277865">
		<tag k="name" v="Pisshella" />
		<tag k="natural" v="cliff" />
		<tag k="ssr:stedsnr" v="249293" />
	</node>
	<node id="-51827" lat="60.1388833336" lon="12.2005583417">
		<tag k="name" v="Rælinghøgda" />
		<tag k="natural" v="hill" />
		<tag k="place" v="locality" />
		<tag k="ssr:stedsnr" v="955074" />
	</node>
	<node id="-51824" lat="60.0814972235" lon="12.3731972223">
		<tag k="name" v="Høgda" />
		<tag k="natural" v="hill" />
		<tag k="place" v="locality" />
		<tag k="ssr:stedsnr" v="952794" />
	</node>
	<node id="-50281" lat="60.3052527809" lon="12.2530777776">
		<tag k="name" v="Nysætertjennberget" />
		<tag k="natural" v="hill" />
		<tag k="place" v="locality" />
		<tag k="ssr:stedsnr" v="541661" />
	</node>
	<node id="-49769" lat="60.0912638882" lon="12.3715611182">
		<tag k="name" v="Risberget" />
		<tag k="natural" v="hill" />
		<tag k="place" v="locality" />
		<tag k="ssr:stedsnr" v="248917" />
	</node>
	<node id="-49764" lat="60.2316000008" lon="12.3634833291">
		<tag k="name" v="Fensjøberget" />
		<tag k="natural" v="hill" />
		<tag k="place" v="locality" />
		<tag k="ssr:stedsnr" v="248840" />
	</node>
	<node id="-49763" lat="60.2301777787" lon="12.2554833412">
		<tag k="name" v="Trøsberget" />
		<tag k="natural" v="hill" />
		<tag k="place" v="locality" />
		<tag k="ssr:stedsnr" v="248837" />
	</node>
	<node id="-51809" lat="60.3370722227" lon="12.2920583368">
		<tag k="name" v="Kølamiltomta" />
		<tag k="place" v="locality" />
		<tag k="ssr:stedsnr" v="952086" />
	</node>
	<node id="-51807" lat="60.344977781" lon="12.3254666586">
		<tag k="name" v="Steinaven" />
		<tag k="natural" v="valley" />
		<tag k="place" v="locality" />
		<tag k="ssr:stedsnr" v="952082" />
	</node>
	<node id="-51799" lat="60.3136333304" lon="12.2836249909">
		<tag k="name" v="Knappen" />
		<tag k="natural" v="hill" />
		<tag k="place" v="locality" />
		<tag k="ssr:stedsnr" v="950646" />
	</node>
	<node id="-51790" lat="60.329380552" lon="12.4232472307">
		<tag k="name" v="Hvelven" />
		<tag k="natural" v="valley" />
		<tag k="place" v="locality" />
		<tag k="ssr:stedsnr" v="950221" />
	</node>
	<node id="-50274" lat="60.1769611117" lon="12.2399027747">
		<tag k="fixme" v="consider natural=peak for the most distinct mountains in the district" />
		<tag k="name" v="Bendikstorpberget" />
		<tag k="natural" v="hill" />
		<tag k="place" v="locality" />
		<tag k="ssr:stedsnr" v="541073" />
	</node>
	<node id="-51782" lat="60.2972583365" lon="11.9277666754">
		<tag k="name" v="Elgstjennsberget" />
		<tag k="natural" v="hill" />
		<tag k="place" v="locality" />
		<tag k="ssr:stedsnr" v="917475" />
	</node>
	<node id="-51779" lat="60.3105249994" lon="12.1581888949">
		<tag k="alt_name" v="Grimkjølberget" />
		<tag k="name" v="Grimkjøl" />
		<tag k="natural" v="hill" />
		<tag k="place" v="locality" />
		<tag k="ssr:stedsnr" v="917406" />
	</node>
	<node id="-49729" lat="60.3458083365" lon="12.4227861105">
		<tag k="name" v="Barskjulberget" />
		<tag k="natural" v="hill" />
		<tag k="place" v="locality" />
		<tag k="ssr:stedsnr" v="248223" />
	</node>
	<node id="-49727" lat="60.2585444455" lon="12.2731777852">
		<tag k="name" v="Kuberget" />
		<tag k="natural" v="hill" />
		<tag k="place" v="locality" />
		<tag k="ssr:stedsnr" v="248170" />
	</node>
	<node id="-49723" lat="60.073074998" lon="12.427775003">
		<tag k="name" v="Aurliberget" />
		<tag k="natural" v="hill" />
		<tag k="place" v="locality" />
		<tag k="ssr:stedsnr" v="248105" />
	</node>
	<node id="-49715" lat="60.0768499998" lon="12.2622250047">
		<tag k="name" v="Liahøgda" />
		<tag k="natural" v="hill" />
		<tag k="place" v="locality" />
		<tag k="ssr:stedsnr" v="248064" />
	</node>
	<node id="-51759" lat="60.138336107" lon="11.9369055523">
		<tag k="name" v="Røysberget" />
		<tag k="natural" v="hill" />
		<tag k="place" v="locality" />
		<tag k="ssr:stedsnr" v="916562" />
	</node>
	<node id="-49709" lat="60.3194305513" lon="12.0435944427">
		<tag k="fixme" v="consider natural=peak for the most distinct mountains in the district" />
		<tag k="name" v="Skråkkarberget" />
		<tag k="natural" v="hill" />
		<tag k="place" v="locality" />
		<tag k="ssr:stedsnr" v="241981" />
	</node>
	<node id="-51756" lat="60.3027555602" lon="12.2170111073">
		<tag k="name" v="Gravvelberget" />
		<tag k="natural" v="hill" />
		<tag k="place" v="locality" />
		<tag k="ssr:stedsnr" v="916509" />
	</node>
	<node id="-49703" lat="60.2662777811" lon="12.2502916626">
		<tag k="name" v="Postmyrberget" />
		<tag k="natural" v="hill" />
		<tag k="place" v="locality" />
		<tag k="ssr:stedsnr" v="241522" />
	</node>
	<node id="-49699" lat="60.1035500033" lon="12.430716671">
		<tag k="name" v="Strandsæterberget" />
		<tag k="natural" v="hill" />
		<tag k="place" v="locality" />
		<tag k="ssr:stedsnr" v="241244" />
	</node>
	<node id="-49698" lat="60.1244611105" lon="12.4895611025">
		<tag k="fixme" v="consider natural=peak for the most distinct mountains in the district" />
		<tag k="name" v="Bostakaberget" />
		<tag k="natural" v="hill" />
		<tag k="place" v="locality" />
		<tag k="ssr:stedsnr" v="241203" />
	</node>
	<node id="-51743" lat="60.3545027786" lon="11.996099996">
		<tag k="fixme" v="consider natural=peak for the most distinct mountains in the district" />
		<tag k="name" v="Kollåsen" />
		<tag k="natural" v="hill" />
		<tag k="place" v="locality" />
		<tag k="ssr:stedsnr" v="916262" />
	</node>
	<node id="-49689" lat="60.1281166692" lon="12.0689222277">
		<tag k="fixme" v="consider natural=peak for the most distinct mountains in the district" />
		<tag k="name" v="Tollerudkollen" />
		<tag k="natural" v="hill" />
		<tag k="place" v="locality" />
		<tag k="ssr:stedsnr" v="239844" />
	</node>
	<node id="-49684" lat="60.1368083333" lon="12.0375000026">
		<tag k="fixme" v="consider natural=peak for the most distinct mountains in the district" />
		<tag k="name" v="Åsberghøgda" />
		<tag k="natural" v="hill" />
		<tag k="place" v="locality" />
		<tag k="ssr:stedsnr" v="239602" />
	</node>
	<node id="-49678" lat="60.2340416641" lon="11.9218194522">
		<tag k="name" v="Krokadalen" />
		<tag k="natural" v="valley" />
		<tag k="place" v="locality" />
		<tag k="ssr:stedsnr" v="239171" />
	</node>
	<node id="-49677" lat="60.2463305571" lon="11.9607861068">
		<tag k="name" v="Brennberget" />
		<tag k="natural" v="hill" />
		<tag k="place" v="locality" />
		<tag k="ssr:stedsnr" v="239157" />
	</node>
	<node id="-51723" lat="60.1893249967" lon="11.9251222141">
		<tag k="name" v="Krakelihøgda" />
		<tag k="natural" v="hill" />
		<tag k="place" v="locality" />
		<tag k="ssr:stedsnr" v="916096" />
	</node>
	<node id="-49674" lat="60.2710055577" lon="12.0722805489">
		<tag k="name" v="Hansbråtadalen" />
		<tag k="natural" v="valley" />
		<tag k="place" v="locality" />
		<tag k="ssr:stedsnr" v="239132" />
	</node>
	<node id="-51713" lat="60.2304499965" lon="11.9162722286">
		<tag k="name" v="Esperberget" />
		<tag k="natural" v="hill" />
		<tag k="place" v="locality" />
		<tag k="ssr:stedsnr" v="916028" />
	</node>
	<node id="-49800" lat="60.2715361119" lon="12.3265000019">
		<tag k="name" v="Lettgangas" />
		<tag k="natural" v="hill" />
		<tag k="place" v="locality" />
		<tag k="ssr:stedsnr" v="479938" />
	</node>
	<node id="-51709" lat="60.2434944455" lon="12.1517694423">
		<tag k="name" v="Vikraberget" />
		<tag k="natural" v="hill" />
		<tag k="place" v="locality" />
		<tag k="ssr:stedsnr" v="916003" />
	</node>
	<node id="-51704" lat="60.1239500005" lon="12.2815499974">
		<tag k="name" v="Skibakkberget" />
		<tag k="natural" v="hill" />
		<tag k="place" v="locality" />
		<tag k="ssr:stedsnr" v="915937" />
	</node>
	<node id="-49652" lat="60.3248305564" lon="12.2580361031">
		<tag k="name" v="Styggberget" />
		<tag k="natural" v="hill" />
		<tag k="place" v="locality" />
		<tag k="ssr:stedsnr" v="237651" />
	</node>
	<node id="-48894" lat="60.1229166657" lon="11.9065666641">
		<tag k="fixme" v="consider natural=peak for the most distinct mountains in the district" />
		<tag k="name" v="Rallerudåsen" />
		<tag k="natural" v="hill" />
		<tag k="place" v="locality" />
		<tag k="ssr:stedsnr" v="40273" />
	</node>
	<node id="-51694" lat="60.1908250016" lon="12.4731027748">
		<tag k="name" v="Grisberget" />
		<tag k="natural" v="hill" />
		<tag k="place" v="locality" />
		<tag k="ssr:stedsnr" v="915758" />
	</node>
	<node id="-51690" lat="60.1533138892" lon="12.0823194356">
		<tag k="fixme" v="consider natural=peak for the most distinct mountains in the district" />
		<tag k="name" v="Granlivarden" />
		<tag k="natural" v="hill" />
		<tag k="place" v="locality" />
		<tag k="ssr:stedsnr" v="915550" />
	</node>
	<node id="-49731" lat="60.3514499997" lon="12.0080388868">
		<tag k="fixme" v="consider natural=peak for the most distinct mountains in the district" />
		<tag k="name" v="Gruvåsen" />
		<tag k="natural" v="hill" />
		<tag k="place" v="locality" />
		<tag k="ssr:stedsnr" v="248250" />
	</node>
	<node id="-49629" lat="60.1024944424" lon="12.3622472227">
		<tag k="name" v="Barkåsen" />
		<tag k="natural" v="hill" />
		<tag k="place" v="locality" />
		<tag k="ssr:stedsnr" v="224837" />
	</node>
	<node id="-49623" lat="60.0013416622" lon="12.3444055603">
		<tag k="name" v="Helne" />
		<tag k="natural" v="slope" />
		<tag k="place" v="locality" />
		<tag k="ssr:stedsnr" v="224703" />
	</node>
	<node id="-49622" lat="60.0709277787" lon="12.2671055596">
		<tag k="fixme" v="consider natural=peak for the most distinct mountains in the district" />
		<tag k="name" v="Merraberget" />
		<tag k="natural" v="hill" />
		<tag k="place" v="locality" />
		<tag k="ssr:stedsnr" v="224701" />
	</node>
	<node id="-51665" lat="60.1314361096" lon="11.9223666657">
		<tag k="fixme" v="multiple name tags, choose one and add the other to alt_name; consider natural=peak for the most distinct mountains in the district" />
		<tag k="name" v="Opptjennberget;Stubbekjølberget" />
		<tag k="natural" v="hill" />
		<tag k="place" v="locality" />
		<tag k="ssr:stedsnr" v="908364" />
	</node>
	<node id="-49610" lat="60.2386388918" lon="12.1803249943">
		<tag k="name" v="Maurhaugen" />
		<tag k="natural" v="hill" />
		<tag k="place" v="locality" />
		<tag k="ssr:stedsnr" v="224452" />
	</node>
	<node id="-49606" lat="60.1467194414" lon="12.0683416587">
		<tag k="name" v="Dypdalen" />
		<tag k="natural" v="valley" />
		<tag k="place" v="locality" />
		<tag k="ssr:stedsnr" v="222778" />
	</node>
	<node id="-49227" lat="60.1896388865" lon="12.0937333372">
		<tag k="fixme" v="consider natural=peak for the most distinct mountains in the district" />
		<tag k="name" v="Kuberget" />
		<tag k="natural" v="hill" />
		<tag k="place" v="locality" />
		<tag k="ssr:stedsnr" v="118812" />
	</node>
	<node id="-49598" lat="60.1352500023" lon="12.3288027818">
		<tag k="name" v="Tjæreverket" />
		<tag k="place" v="locality" />
		<tag k="ssr:stedsnr" v="221765" />
	</node>
	<node id="-49596" lat="60.2640638926" lon="12.2335555538">
		<tag k="name" v="Røylia" />
		<tag k="natural" v="slope" />
		<tag k="place" v="locality" />
		<tag k="ssr:stedsnr" v="221531" />
	</node>
	<node id="-49594" lat="60.3514333347" lon="12.3882194428">
		<tag k="name" v="Migardalen" />
		<tag k="natural" v="valley" />
		<tag k="place" v="locality" />
		<tag k="ssr:stedsnr" v="221031" />
	</node>
	<node id="-51640" lat="60.3166472192" lon="12.1527777705">
		<tag k="name" v="Galtryggen" />
		<tag k="natural" v="ridge" />
		<tag k="place" v="locality" />
		<tag k="ssr:stedsnr" v="907172" />
	</node>
	<node id="-51637" lat="60.2504083292" lon="12.3484944412">
		<tag k="name" v="Lyskanokkå" />
		<tag k="natural" v="slope" />
		<tag k="place" v="locality" />
		<tag k="ssr:stedsnr" v="905988" />
	</node>
	<node id="-49584" lat="60.1846666699" lon="11.9445027703">
		<tag k="fixme" v="consider natural=peak for the most distinct mountains in the district" />
		<tag k="name" v="Marikollen" />
		<tag k="natural" v="hill" />
		<tag k="place" v="locality" />
		<tag k="ssr:stedsnr" v="188644" />
	</node>
	<node id="-49583" lat="60.1876583316" lon="12.123300003">
		<tag k="name" v="Merradalen" />
		<tag k="natural" v="valley" />
		<tag k="place" v="locality" />
		<tag k="ssr:stedsnr" v="188636" />
	</node>
	<node id="-49565" lat="60.3318694404" lon="11.9997111115">
		<tag k="name" v="Brudalen" />
		<tag k="natural" v="valley" />
		<tag k="place" v="locality" />
		<tag k="ssr:stedsnr" v="188335" />
	</node>
	<node id="-49580" lat="60.3127805536" lon="12.1192777798">
		<tag k="name" v="Persberget" />
		<tag k="natural" v="hill" />
		<tag k="place" v="locality" />
		<tag k="ssr:stedsnr" v="188489" />
	</node>
	<node id="-49577" lat="60.2984333293" lon="12.1057527769">
		<tag k="name" v="Skåreberget" />
		<tag k="natural" v="hill" />
		<tag k="place" v="locality" />
		<tag k="ssr:stedsnr" v="188550" />
	</node>
	<node id="-51623" lat="60.1913638863" lon="12.2189944497">
		<tag k="name" v="Leipikoberget" />
		<tag k="natural" v="hill" />
		<tag k="place" v="locality" />
		<tag k="ssr:stedsnr" v="905430" />
	</node>
	<node id="-51621" lat="60.2172888922" lon="12.1957250076">
		<tag k="name" v="Mengberget" />
		<tag k="natural" v="hill" />
		<tag k="place" v="locality" />
		<tag k="ssr:stedsnr" v="905405" />
	</node>
	<node id="-51614" lat="60.2076638914" lon="12.4808888931">
		<tag k="fixme" v="consider natural=peak for the most distinct mountains in the district" />
		<tag k="name" v="Emtberget" />
		<tag k="natural" v="hill" />
		<tag k="place" v="locality" />
		<tag k="ssr:stedsnr" v="905140" />
	</node>
	<node id="-51613" lat="60.2037972258" lon="12.5226861088">
		<tag k="fixme" v="consider natural=peak for the most distinct mountains in the district" />
		<tag k="name" v="Råberget" />
		<tag k="natural" v="hill" />
		<tag k="place" v="locality" />
		<tag k="ssr:stedsnr" v="905141" />
	</node>
	<node id="-49564" lat="60.3461861079" lon="12.0726277821">
		<tag k="name" v="Hettaberget" />
		<tag k="natural" v="hill" />
		<tag k="place" v="locality" />
		<tag k="ssr:stedsnr" v="188328" />
	</node>
	<node id="-49563" lat="60.3395777785" lon="12.1249194488">
		<tag k="name" v="Liaberget" />
		<tag k="natural" v="hill" />
		<tag k="place" v="locality" />
		<tag k="ssr:stedsnr" v="188323" />
	</node>
	<node id="-49560" lat="60.3290055532" lon="12.0463277763">
		<tag k="name" v="Bråteberget" />
		<tag k="natural" v="hill" />
		<tag k="place" v="locality" />
		<tag k="ssr:stedsnr" v="188306" />
	</node>
	<node id="-51603" lat="60.2237722227" lon="12.5000916721">
		<tag k="name" v="Silkisberget" />
		<tag k="natural" v="hill" />
		<tag k="place" v="locality" />
		<tag k="ssr:stedsnr" v="904165" />
	</node>
	<node id="-51595" lat="60.3241611114" lon="12.1382333333">
		<tag k="name" v="Rafjellet" />
		<tag k="natural" v="hill" />
		<tag k="place" v="locality" />
		<tag k="ssr:stedsnr" v="856524" />
	</node>
	<node id="-49546" lat="60.3220333351" lon="12.4375638952">
		<tag k="alt_name" v="Kolma" />
		<tag k="name" v="Ormbergskolma" />
		<tag k="natural" v="hill" />
		<tag k="place" v="locality" />
		<tag k="ssr:stedsnr" v="188160" />
	</node>
	<node id="-51592" lat="60.2697166644" lon="12.1649388883">
		<tag k="fixme" v="consider natural=peak for the most distinct mountains in the district" />
		<tag k="name" v="Bursåsen" />
		<tag k="natural" v="hill" />
		<tag k="place" v="locality" />
		<tag k="ssr:stedsnr" v="856482" />
	</node>
	<node id="-51591" lat="60.2523611107" lon="12.162877773">
		<tag k="name" v="Grautberget" />
		<tag k="natural" v="ridge" />
		<tag k="place" v="locality" />
		<tag k="ssr:stedsnr" v="856464" />
	</node>
	<node id="-51584" lat="60.3406083324" lon="11.9954583328">
		<tag k="fixme" v="consider natural=peak for the most distinct mountains in the district" />
		<tag k="name" v="Bræiåsen" />
		<tag k="natural" v="hill" />
		<tag k="place" v="locality" />
		<tag k="ssr:stedsnr" v="856330" />
	</node>
	<node id="-51583" lat="60.3311750036" lon="12.0950277718">
		<tag k="name" v="Hanestadberget" />
		<tag k="natural" v="hill" />
		<tag k="place" v="locality" />
		<tag k="ssr:stedsnr" v="856320" />
	</node>
	<node id="-49533" lat="60.1051250001" lon="12.398299995">
		<tag k="name" v="Heimvangberget" />
		<tag k="natural" v="hill" />
		<tag k="place" v="locality" />
		<tag k="ssr:stedsnr" v="187906" />
	</node>
	<node id="-49531" lat="60.227261108" lon="12.3918444475">
		<tag k="name" v="Nollaberget" />
		<tag k="natural" v="hill" />
		<tag k="place" v="locality" />
		<tag k="ssr:stedsnr" v="187789" />
	</node>
	<node id="-51576" lat="60.3351138934" lon="12.3171583301">
		<tag k="name" v="Sætaberget" />
		<tag k="natural" v="hill" />
		<tag k="place" v="locality" />
		<tag k="ssr:stedsnr" v="856237" />
	</node>
	<node id="-49524" lat="60.1893249955" lon="12.3684833413">
		<tag k="name" v="Orrholmnabben" />
		<tag k="natural" v="hill" />
		<tag k="place" v="locality" />
		<tag k="ssr:stedsnr" v="187756" />
	</node>
	<node id="-49555" lat="60.3209000031" lon="12.4075999976">
		<tag k="name" v="Kvernholen" />
		<tag k="natural" v="hill" />
		<tag k="place" v="locality" />
		<tag k="ssr:stedsnr" v="188266" />
	</node>
	<node id="-49518" lat="60.169899998" lon="12.3138805537">
		<tag k="name" v="Grasliberget" />
		<tag k="natural" v="hill" />
		<tag k="place" v="locality" />
		<tag k="ssr:stedsnr" v="187736" />
	</node>
	<node id="-51562" lat="60.1218295057" lon="12.4094316312">
		<tag k="fixme" v="multiple name tags, choose one and add the other to alt_name" />
		<tag k="name" v="Lemyråsen;Nysæterberget" />
		<tag k="natural" v="hill" />
		<tag k="place" v="locality" />
		<tag k="ssr:stedsnr" v="855956" />
	</node>
	<node id="-51555" lat="60.2444500029" lon="12.2595750014">
		<tag k="name" v="Styggberget" />
		<tag k="natural" v="hill" />
		<tag k="place" v="locality" />
		<tag k="ssr:stedsnr" v="855860" />
	</node>
	<node id="-49505" lat="60.1806111074" lon="12.1314527828">
		<tag k="name" v="Jørnsbråtahøgda" />
		<tag k="natural" v="hill" />
		<tag k="place" v="locality" />
		<tag k="ssr:stedsnr" v="187568" />
	</node>
	<node id="-51552" lat="60.2215305538" lon="12.3645749921">
		<tag k="name" v="Vangeberget" />
		<tag k="natural" v="hill" />
		<tag k="place" v="locality" />
		<tag k="ssr:stedsnr" v="855838" />
	</node>
	<node id="-48869" lat="60.3224749969" lon="12.1562416676">
		<tag k="name" v="Galtberget" />
		<tag k="natural" v="hill" />
		<tag k="place" v="locality" />
		<tag k="ssr:stedsnr" v="6497" />
	</node>
	<node id="-49496" lat="60.0893250003" lon="12.4369499942">
		<tag k="name" v="Tålloberget" />
		<tag k="natural" v="hill" />
		<tag k="place" v="locality" />
		<tag k="ssr:stedsnr" v="187072" />
	</node>
	<node id="-48868" lat="60.3195388893" lon="12.186577773">
		<tag k="name" v="Brattfallet" />
		<tag k="natural" v="hill" />
		<tag k="place" v="locality" />
		<tag k="ssr:stedsnr" v="6485" />
	</node>
	<node id="-51542" lat="60.1636194412" lon="11.9387777746">
		<tag k="fixme" v="consider natural=peak for the most distinct mountains in the district" />
		<tag k="name" v="Rimyrtangen" />
		<tag k="natural" v="hill" />
		<tag k="place" v="locality" />
		<tag k="ssr:stedsnr" v="855624" />
	</node>
	<node id="-51541" lat="60.1672972249" lon="11.9956222201">
		<tag k="name" v="Holtberget" />
		<tag k="natural" v="hill" />
		<tag k="place" v="locality" />
		<tag k="ssr:stedsnr" v="855621" />
	</node>
	<node id="-49492" lat="60.0174833303" lon="12.3347749952">
		<tag k="name" v="Flahøgda" />
		<tag k="natural" v="hill" />
		<tag k="place" v="locality" />
		<tag k="ssr:stedsnr" v="187054" />
	</node>
	<node id="-49490" lat="60.2124250041" lon="12.1231805562">
		<tag k="fixme" v="consider natural=peak for the most distinct mountains in the district" />
		<tag k="name" v="Lysåsen" />
		<tag k="natural" v="hill" />
		<tag k="place" v="locality" />
		<tag k="ssr:stedsnr" v="187115" />
	</node>
	<node id="-49489" lat="60.0507194474" lon="12.3660527806">
		<tag k="fixme" v="consider natural=peak for the most distinct mountains in the district" />
		<tag k="name" v="Brødbølåsen" />
		<tag k="natural" v="hill" />
		<tag k="place" v="locality" />
		<tag k="ssr:stedsnr" v="187116" />
	</node>
	<node id="-51531" lat="60.0045250013" lon="12.3439749972">
		<tag k="alt_name" v="Høgmyråsen" />
		<tag k="fixme" v="consider natural=peak for the most distinct mountains in the district" />
		<tag k="name" v="Høgmyråsane" />
		<tag k="natural" v="hill" />
		<tag k="place" v="locality" />
		<tag k="ssr:stedsnr" v="855203" />
	</node>
	<node id="-51529" lat="60.366036114" lon="12.295691659">
		<tag k="name" v="Godbakken" />
		<tag k="natural" v="hill" />
		<tag k="place" v="locality" />
		<tag k="ssr:stedsnr" v="855197" />
	</node>
	<node id="-49547" lat="60.2920055583" lon="12.3568499949">
		<tag k="name" v="Olderbrudalen" />
		<tag k="natural" v="valley" />
		<tag k="place" v="locality" />
		<tag k="ssr:stedsnr" v="188169" />
	</node>
	<node id="-51514" lat="60.0780111113" lon="12.3039805518">
		<tag k="name" v="Pengberget" />
		<tag k="natural" v="hill" />
		<tag k="place" v="locality" />
		<tag k="ssr:stedsnr" v="855061" />
	</node>
	<node id="-49465" lat="60.3508666708" lon="11.8688250059">
		<tag k="name" v="Stormyrberget" />
		<tag k="natural" v="hill" />
		<tag k="place" v="locality" />
		<tag k="ssr:stedsnr" v="180297" />
	</node>
	<node id="-49461" lat="60.2445611113" lon="11.9219166615">
		<tag k="loc_name" v="Tempelet" />
		<tag k="name" v="Templet" />
		<tag k="natural" v="hill" />
		<tag k="place" v="locality" />
		<tag k="ssr:stedsnr" v="180129" />
	</node>
	<node id="-49460" lat="60.3030888879" lon="12.3736972148">
		<tag k="name" v="Karttjennsbakken" />
		<tag k="natural" v="slope" />
		<tag k="place" v="locality" />
		<tag k="ssr:stedsnr" v="180103" />
	</node>
	<node id="-51502" lat="60.3104277751" lon="12.0466166611">
		<tag k="name" v="Lundermoen" />
		<tag k="place" v="locality" />
		<tag k="ssr:stedsnr" v="848962" />
	</node>
	<node id="-49451" lat="60.1002555537" lon="12.0147944506">
		<tag k="fixme" v="consider natural=peak for the most distinct mountains in the district" />
		<tag k="name" v="Buberget" />
		<tag k="natural" v="hill" />
		<tag k="place" v="locality" />
		<tag k="ssr:stedsnr" v="179590" />
	</node>
	<node id="-51497" lat="60.0279527772" lon="12.399274997">
		<tag k="name" v="Rønningsletta" />
		<tag k="place" v="locality" />
		<tag k="ssr:stedsnr" v="848737" />
	</node>
	<node id="-51495" lat="60.1820777799" lon="12.0049083305">
		<tag k="name" v="Puttara" />
		<tag k="place" v="locality" />
		<tag k="ssr:stedsnr" v="848630" />
	</node>
	<node id="-51494" lat="60.2624972251" lon="12.2586416646">
		<tag k="name" v="Tussberget" />
		<tag k="natural" v="hill" />
		<tag k="place" v="locality" />
		<tag k="ssr:stedsnr" v="848622" />
	</node>
	<node id="-51487" lat="60.0927833291" lon="12.4375527844">
		<tag k="name" v="Hærsjøberget" />
		<tag k="natural" v="hill" />
		<tag k="place" v="locality" />
		<tag k="ssr:stedsnr" v="848281" />
	</node>
	<node id="-49431" lat="60.3797388871" lon="12.2787305491">
		<tag k="fixme" v="consider natural=peak for the most distinct mountains in the district" />
		<tag k="name" v="Skasdamåsen" />
		<tag k="natural" v="hill" />
		<tag k="place" v="locality" />
		<tag k="ssr:stedsnr" v="177551" />
	</node>
	<node id="-51474" lat="60.273455551" lon="11.9648305585">
		<tag k="name" v="Bleigen" />
		<tag k="natural" v="valley" />
		<tag k="place" v="locality" />
		<tag k="ssr:stedsnr" v="847158" />
	</node>
	<node id="-49422" lat="60.2936361075" lon="12.3310138843">
		<tag k="name" v="Filifrostberget" />
		<tag k="natural" v="hill" />
		<tag k="place" v="locality" />
		<tag k="ssr:stedsnr" v="176918" />
	</node>
	<node id="-51467" lat="60.1222305516" lon="12.0899416744">
		<tag k="fixme" v="consider natural=peak for the most distinct mountains in the district" />
		<tag k="name" v="Snarekollen" />
		<tag k="natural" v="hill" />
		<tag k="place" v="locality" />
		<tag k="ssr:stedsnr" v="846819" />
	</node>
	<node id="-49417" lat="60.2140805541" lon="11.9840222304">
		<tag k="name" v="Astridfortet" />
		<tag k="natural" v="hill" />
		<tag k="place" v="locality" />
		<tag k="ssr:stedsnr" v="176852" />
	</node>
	<node id="-49196" lat="60.3709416654" lon="12.2833527795">
		<tag k="name" v="Grevlinghiet" />
		<tag k="place" v="locality" />
		<tag k="ssr:stedsnr" v="116525" />
	</node>
	<node id="-49413" lat="60.028463893" lon="12.3558666595">
		<tag k="name" v="Gruvberget" />
		<tag k="natural" v="hill" />
		<tag k="place" v="locality" />
		<tag k="ssr:stedsnr" v="176621" />
	</node>
	<node id="-49412" lat="60.1702499992" lon="12.0391444413">
		<tag k="name" v="Djupdalen" />
		<tag k="natural" v="valley" />
		<tag k="place" v="locality" />
		<tag k="ssr:stedsnr" v="176604" />
	</node>
	<node id="-49403" lat="60.2034611108" lon="12.5169583327">
		<tag k="fixme" v="consider natural=peak for the most distinct mountains in the district" />
		<tag k="name" v="Særkilampsberget" />
		<tag k="natural" v="hill" />
		<tag k="place" v="locality" />
		<tag k="ssr:stedsnr" v="176159" />
	</node>
	<node id="-51449" lat="60.248358332" lon="12.0107916692">
		<tag k="name" v="Djupdalen" />
		<tag k="natural" v="valley" />
		<tag k="place" v="locality" />
		<tag k="ssr:stedsnr" v="844976" />
	</node>
	<node id="-51445" lat="60.2609861072" lon="12.0606555524">
		<tag k="fixme" v="consider natural=peak for the most distinct mountains in the district" />
		<tag k="name" v="Tronbølsåsen" />
		<tag k="natural" v="hill" />
		<tag k="place" v="locality" />
		<tag k="ssr:stedsnr" v="844941" />
	</node>
	<node id="-49396" lat="60.062183335" lon="12.4179527765">
		<tag k="name" v="Nordre Aurlia" />
		<tag k="natural" v="slope" />
		<tag k="place" v="locality" />
		<tag k="ssr:stedsnr" v="176016" />
	</node>
	<node id="-51436" lat="60.1810166698" lon="12.1605611088">
		<tag k="name" v="Øyungsbråten" />
		<tag k="natural" v="slope" />
		<tag k="place" v="locality" />
		<tag k="ssr:stedsnr" v="844838" />
	</node>
	<node id="-51435" lat="60.0442027805" lon="12.3242111057">
		<tag k="alt_name" v="Kjerkelihøgda" />
		<tag k="fixme" v="consider natural=peak for the most distinct mountains in the district" />
		<tag k="name" v="Kirkelihøgda" />
		<tag k="natural" v="hill" />
		<tag k="place" v="locality" />
		<tag k="ssr:stedsnr" v="844677" />
	</node>
	<node id="-51430" lat="60.1632750026" lon="12.0421500055">
		<tag k="fixme" v="consider natural=peak for the most distinct mountains in the district" />
		<tag k="name" v="Strandberget" />
		<tag k="natural" v="hill" />
		<tag k="place" v="locality" />
		<tag k="ssr:stedsnr" v="844617" />
	</node>
	<node id="-51429" lat="60.3864833333" lon="12.2738750073">
		<tag k="name" v="Oksaven" />
		<tag k="natural" v="valley" />
		<tag k="place" v="locality" />
		<tag k="ssr:stedsnr" v="844509" />
	</node>
	<node id="-49380" lat="60.0757972261" lon="12.2429305588">
		<tag k="fixme" v="consider natural=peak for the most distinct mountains in the district" />
		<tag k="name" v="Knarten" />
		<tag k="natural" v="hill" />
		<tag k="place" v="locality" />
		<tag k="ssr:stedsnr" v="163704" />
	</node>
	<node id="-51427" lat="60.2028583312" lon="12.186977781">
		<tag k="name" v="Grasberglia" />
		<tag k="natural" v="slope" />
		<tag k="place" v="locality" />
		<tag k="ssr:stedsnr" v="844412" />
	</node>
	<node id="-51426" lat="60.2052500033" lon="12.23070833">
		<tag k="name" v="Menglandslia" />
		<tag k="natural" v="slope" />
		<tag k="place" v="locality" />
		<tag k="ssr:stedsnr" v="844413" />
	</node>
	<node id="-49374" lat="60.2582361152" lon="12.2515055553">
		<tag k="name" v="Styggdalen" />
		<tag k="natural" v="valley" />
		<tag k="place" v="locality" />
		<tag k="ssr:stedsnr" v="163411" />
	</node>
	<node id="-51421" lat="60.2645388873" lon="12.470499997">
		<tag k="name" v="Gråtarbakken" />
		<tag k="natural" v="slope" />
		<tag k="place" v="locality" />
		<tag k="ssr:stedsnr" v="844340" />
	</node>
	<node id="-51419" lat="60.2732138913" lon="12.4809277717">
		<tag k="name" v="Kebboåsen" />
		<tag k="natural" v="hill" />
		<tag k="place" v="locality" />
		<tag k="ssr:stedsnr" v="844335" />
	</node>
	<node id="-49369" lat="60.3196861092" lon="12.3085500011">
		<tag k="fixme" v="consider natural=peak for the most distinct mountains in the district" />
		<tag k="name" v="Langåsen" />
		<tag k="natural" v="hill" />
		<tag k="place" v="locality" />
		<tag k="ssr:stedsnr" v="163092" />
	</node>
	<node id="-49367" lat="60.3284499978" lon="12.3616888822">
		<tag k="name" v="Grevlingtjennsberget" />
		<tag k="natural" v="slope" />
		<tag k="place" v="locality" />
		<tag k="ssr:stedsnr" v="163062" />
	</node>
	<node id="-51414" lat="60.1733722237" lon="12.4738611166">
		<tag k="fixme" v="consider natural=peak for the most distinct mountains in the district" />
		<tag k="name" v="Tukjaberget" />
		<tag k="natural" v="hill" />
		<tag k="place" v="locality" />
		<tag k="ssr:stedsnr" v="844169" />
	</node>
	<node id="-51412" lat="60.2092277822" lon="12.4314361104">
		<tag k="fixme" v="consider natural=peak for the most distinct mountains in the district" />
		<tag k="name" v="Koiraberget" />
		<tag k="natural" v="hill" />
		<tag k="place" v="locality" />
		<tag k="ssr:stedsnr" v="844162" />
	</node>
	<node id="-51406" lat="60.0592777819" lon="12.4199277775">
		<tag k="name" v="Søndre Aurlia" />
		<tag k="natural" v="slope" />
		<tag k="place" v="locality" />
		<tag k="ssr:stedsnr" v="844025" />
	</node>
	<node id="-51404" lat="60.1049555565" lon="12.4990777746">
		<tag k="fixme" v="consider natural=peak for the most distinct mountains in the district" />
		<tag k="name" v="Lystjennsåsen" />
		<tag k="natural" v="hill" />
		<tag k="place" v="locality" />
		<tag k="ssr:stedsnr" v="844009" />
	</node>
	<node id="-49351" lat="60.3065138862" lon="12.0640138877">
		<tag k="name" v="Djupdalen" />
		<tag k="natural" v="valley" />
		<tag k="place" v="locality" />
		<tag k="ssr:stedsnr" v="161251" />
	</node>
	<node id="-49349" lat="60.3500527799" lon="12.3838888979">
		<tag k="name" v="Svingarbakken" />
		<tag k="natural" v="slope" />
		<tag k="place" v="locality" />
		<tag k="ssr:stedsnr" v="161049" />
	</node>
	<node id="-49184" lat="60.2018027765" lon="12.4618916741">
		<tag k="fixme" v="consider natural=peak for the most distinct mountains in the district" />
		<tag k="name" v="Vikerberget" />
		<tag k="natural" v="hill" />
		<tag k="place" v="locality" />
		<tag k="ssr:stedsnr" v="116146" />
	</node>
	<node id="-49335" lat="60.1842472219" lon="12.1461305639">
		<tag k="name" v="Verkasoåsen" />
		<tag k="natural" v="hill" />
		<tag k="place" v="locality" />
		<tag k="ssr:stedsnr" v="127639" />
	</node>
	<node id="-49331" lat="60.2772305536" lon="11.9749277737">
		<tag k="name" v="Spelmannsberget" />
		<tag k="natural" v="hill" />
		<tag k="place" v="locality" />
		<tag k="ssr:stedsnr" v="127518" />
	</node>
	<node id="-51377" lat="60.3333111075" lon="12.3205166595">
		<tag k="name" v="Sætabergsknappen" />
		<tag k="natural" v="hill" />
		<tag k="place" v="locality" />
		<tag k="ssr:stedsnr" v="831088" />
	</node>
	<node id="-51375" lat="60.3388333312" lon="12.3519444463">
		<tag k="name" v="Steingutua" />
		<tag k="natural" v="valley" />
		<tag k="place" v="locality" />
		<tag k="ssr:stedsnr" v="831068" />
	</node>
	<node id="-51373" lat="60.1254555535" lon="11.9604694476">
		<tag k="name" v="Tjuvsæterdalen" />
		<tag k="natural" v="valley" />
		<tag k="place" v="locality" />
		<tag k="ssr:stedsnr" v="829727" />
	</node>
	<node id="-49324" lat="60.263466666" lon="12.1402611174">
		<tag k="name" v="Moaberget" />
		<tag k="natural" v="hill" />
		<tag k="place" v="locality" />
		<tag k="ssr:stedsnr" v="127457" />
	</node>
	<node id="-51367" lat="60.1365277779" lon="12.4057027796">
		<tag k="name" v="Roparberget" />
		<tag k="natural" v="hill" />
		<tag k="place" v="locality" />
		<tag k="ssr:stedsnr" v="828773" />
	</node>
	<node id="-51365" lat="60.2990749984" lon="12.2764638877">
		<tag k="name" v="Kjerkehaugen" />
		<tag k="natural" v="hill" />
		<tag k="place" v="locality" />
		<tag k="ssr:stedsnr" v="828479" />
	</node>
	<node id="-49311" lat="60.0104999967" lon="12.3880750061">
		<tag k="fixme" v="consider natural=peak for the most distinct mountains in the district" />
		<tag k="name" v="Tangeåsen" />
		<tag k="natural" v="hill" />
		<tag k="place" v="locality" />
		<tag k="ssr:stedsnr" v="127218" />
	</node>
	<node id="-49305" lat="60.3572888886" lon="12.0887444456">
		<tag k="name" v="Høgsetta" />
		<tag k="natural" v="hill" />
		<tag k="place" v="locality" />
		<tag k="ssr:stedsnr" v="127285" />
	</node>
	<node id="-49447" lat="60.262755556" lon="12.4647777745">
		<tag k="name" v="Ballogask" />
		<tag k="natural" v="hill" />
		<tag k="place" v="locality" />
		<tag k="ssr:stedsnr" v="179341" />
	</node>
	<node id="-51346" lat="60.2610083323" lon="12.0110638893">
		<tag k="fixme" v="consider natural=peak for the most distinct mountains in the district" />
		<tag k="name" v="Skuta" />
		<tag k="natural" v="hill" />
		<tag k="place" v="locality" />
		<tag k="ssr:stedsnr" v="795494" />
	</node>
	<node id="-51341" lat="60.3483500027" lon="12.1017333381">
		<tag k="fixme" v="consider natural=peak for the most distinct mountains in the district" />
		<tag k="name" v="Majoråsen" />
		<tag k="natural" v="hill" />
		<tag k="place" v="locality" />
		<tag k="ssr:stedsnr" v="795342" />
	</node>
	<node id="-51328" lat="60.3576833359" lon="12.3795916646">
		<tag k="alt_name" v="Merrakleiva, s" />
		<tag k="fixme" v="consider natural=peak for the most distinct mountains in the district" />
		<tag k="name" v="Søndre Merrakleiva" />
		<tag k="natural" v="hill" />
		<tag k="place" v="locality" />
		<tag k="ssr:stedsnr" v="795245" />
	</node>
	<node id="-49514" lat="60.247730557" lon="12.3385000069">
		<tag k="name" v="Styggberget" />
		<tag k="natural" v="hill" />
		<tag k="place" v="locality" />
		<tag k="ssr:stedsnr" v="187828" />
	</node>
	<node id="-51321" lat="60.3209083289" lon="12.3051861114">
		<tag k="name" v="Åtterberget" />
		<tag k="natural" v="hill" />
		<tag k="place" v="locality" />
		<tag k="ssr:stedsnr" v="795177" />
	</node>
	<node id="-51320" lat="60.3260138911" lon="12.4278527869">
		<tag k="alt_name" v="Ormbergsberget" />
		<tag k="name" v="Ormberget" />
		<tag k="natural" v="hill" />
		<tag k="place" v="locality" />
		<tag k="ssr:stedsnr" v="795173" />
	</node>
	<node id="-51312" lat="60.1392298206" lon="12.4741860414">
		<tag k="alt_name" v="Nopa" />
		<tag k="fixme" v="consider natural=peak for the most distinct mountains in the district" />
		<tag k="name" v="Kokkåsen" />
		<tag k="natural" v="hill" />
		<tag k="place" v="locality" />
		<tag k="ssr:stedsnr" v="794965" />
	</node>
	<node id="-49170" lat="60.2560027743" lon="12.0006472268">
		<tag k="name" v="Båsen" />
		<tag k="natural" v="slope" />
		<tag k="place" v="locality" />
		<tag k="ssr:stedsnr" v="116954" />
	</node>
	<node id="-49254" lat="60.2105083372" lon="11.9926277867">
		<tag k="name" v="Vardåsen" />
		<tag k="natural" v="hill" />
		<tag k="place" v="locality" />
		<tag k="ssr:stedsnr" v="126105" />
	</node>
	<node id="-49253" lat="60.0696500005" lon="12.3879000063">
		<tag k="fixme" v="consider natural=peak for the most distinct mountains in the district" />
		<tag k="name" v="Åkroken" />
		<tag k="natural" v="hill" />
		<tag k="place" v="locality" />
		<tag k="ssr:stedsnr" v="126106" />
	</node>
	<node id="-49248" lat="60.2657416674" lon="12.3708694513">
		<tag k="name" v="Rembærskjæra" />
		<tag k="natural" v="hill" />
		<tag k="place" v="locality" />
		<tag k="ssr:stedsnr" v="120922" />
	</node>
	<node id="-49241" lat="60.3411666672" lon="11.8861777788">
		<tag k="name" v="Djupdalen" />
		<tag k="natural" v="valley" />
		<tag k="place" v="locality" />
		<tag k="ssr:stedsnr" v="119579" />
	</node>
	<node id="-49240" lat="60.2835000004" lon="12.4250000008">
		<tag k="name" v="Veslenoppi" />
		<tag k="natural" v="hill" />
		<tag k="place" v="locality" />
		<tag k="ssr:stedsnr" v="119347" />
	</node>
	<node id="-49235" lat="60.2421638879" lon="11.9179638971">
		<tag k="name" v="Krakadalen" />
		<tag k="natural" v="valley" />
		<tag k="place" v="locality" />
		<tag k="ssr:stedsnr" v="119138" />
	</node>
	<node id="-51282" lat="60.1541000023" lon="12.1173333357">
		<tag k="fixme" v="consider natural=peak for the most distinct mountains in the district" />
		<tag k="name" v="Musbakken" />
		<tag k="natural" v="hill" />
		<tag k="place" v="locality" />
		<tag k="ssr:stedsnr" v="794564" />
	</node>
	<node id="-51281" lat="60.1301361154" lon="11.9504444471">
		<tag k="name" v="Tjuvsæterknappen" />
		<tag k="natural" v="hill" />
		<tag k="place" v="locality" />
		<tag k="ssr:stedsnr" v="794559" />
	</node>
	<node id="-49231" lat="60.2257555523" lon="12.3968805469">
		<tag k="fixme" v="consider natural=peak for the most distinct mountains in the district" />
		<tag k="name" v="Nordbråtaberget" />
		<tag k="natural" v="hill" />
		<tag k="place" v="locality" />
		<tag k="ssr:stedsnr" v="118975" />
	</node>
	<node id="-49230" lat="60.2376861094" lon="12.3926805562">
		<tag k="fixme" v="consider natural=peak for the most distinct mountains in the district" />
		<tag k="name" v="Rissoberget" />
		<tag k="natural" v="hill" />
		<tag k="place" v="locality" />
		<tag k="ssr:stedsnr" v="118972" />
	</node>
	<node id="-48482" lat="60.2779833363" lon="12.1324972213">
		<tag k="name" v="Magnhildhaugen" />
		<tag k="natural" v="hill" />
		<tag k="place" v="locality" />
		<tag k="ssr:stedsnr" v="358147" />
	</node>
	<node id="-49224" lat="60.2873444412" lon="12.2035277765">
		<tag k="name" v="Kakkneshøgda" />
		<tag k="natural" v="hill" />
		<tag k="place" v="locality" />
		<tag k="ssr:stedsnr" v="118691" />
	</node>
	<node id="-49223" lat="60.2913611075" lon="12.2290777812">
		<tag k="name" v="Lushaugen" />
		<tag k="natural" v="hill" />
		<tag k="place" v="locality" />
		<tag k="ssr:stedsnr" v="118683" />
	</node>
	<node id="-49222" lat="60.1353666625" lon="11.9800166704">
		<tag k="fixme" v="consider natural=peak for the most distinct mountains in the district" />
		<tag k="name" v="Fuglemyråsen" />
		<tag k="natural" v="hill" />
		<tag k="place" v="locality" />
		<tag k="ssr:stedsnr" v="118562" />
	</node>
	<node id="-49217" lat="60.2689055599" lon="12.451119441">
		<tag k="name" v="Jakobsdalen" />
		<tag k="natural" v="valley" />
		<tag k="place" v="locality" />
		<tag k="ssr:stedsnr" v="118329" />
	</node>
	<node id="-49210" lat="60.2756999974" lon="11.9521916592">
		<tag k="name" v="Gardsiverbakken" />
		<tag k="natural" v="slope" />
		<tag k="place" v="locality" />
		<tag k="ssr:stedsnr" v="118127" />
	</node>
	<node id="-49206" lat="60.3464361131" lon="12.3911166758">
		<tag k="name" v="Galjoskjæra" />
		<tag k="natural" v="hill" />
		<tag k="place" v="locality" />
		<tag k="ssr:stedsnr" v="118049" />
	</node>
	<node id="-51253" lat="60.044425002" lon="12.3359583399">
		<tag k="name" v="Sandberget" />
		<tag k="natural" v="hill" />
		<tag k="place" v="locality" />
		<tag k="ssr:stedsnr" v="794005" />
	</node>
	<node id="-49202" lat="60.1778888927" lon="12.1543916706">
		<tag k="name" v="Kvitmyrlia" />
		<tag k="natural" v="slope" />
		<tag k="place" v="locality" />
		<tag k="ssr:stedsnr" v="116841" />
	</node>
	<node id="-51248" lat="60.0954527808" lon="12.2799305606">
		<tag k="name" v="Kjerringkleiva" />
		<tag k="natural" v="slope" />
		<tag k="place" v="locality" />
		<tag k="ssr:stedsnr" v="787722" />
	</node>
	<node id="-49199" lat="60.0393583352" lon="12.3220444378">
		<tag k="name" v="Knappersberget" />
		<tag k="natural" v="hill" />
		<tag k="place" v="locality" />
		<tag k="ssr:stedsnr" v="116654" />
	</node>
	<node id="-51244" lat="60.2668388931" lon="12.2595611062">
		<tag k="name" v="Maurberget" />
		<tag k="natural" v="hill" />
		<tag k="place" v="locality" />
		<tag k="ssr:stedsnr" v="787562" />
	</node>
	<node id="-51242" lat="60.2442722262" lon="12.4689416698">
		<tag k="name" v="Fløytåsen" />
		<tag k="natural" v="hill" />
		<tag k="place" v="locality" />
		<tag k="ssr:stedsnr" v="787386" />
	</node>
	<node id="-49188" lat="60.3247833337" lon="12.4108527698">
		<tag k="name" v="Slæppen" />
		<tag k="natural" v="slope" />
		<tag k="place" v="locality" />
		<tag k="ssr:stedsnr" v="116176" />
	</node>
	<node id="-51232" lat="60.3310305557" lon="12.1733638847">
		<tag k="fixme" v="consider natural=peak for the most distinct mountains in the district" />
		<tag k="name" v="Norsæterberget" />
		<tag k="natural" v="hill" />
		<tag k="place" v="locality" />
		<tag k="ssr:stedsnr" v="786190" />
	</node>
	<node id="-51230" lat="60.2365944411" lon="11.9224194484">
		<tag k="name" v="Morsbråteberget" />
		<tag k="natural" v="hill" />
		<tag k="place" v="locality" />
		<tag k="ssr:stedsnr" v="786146" />
	</node>
	<node id="-49181" lat="60.3050833339" lon="12.344647226">
		<tag k="name" v="Hvitmåsaskjæra" />
		<tag k="natural" v="hill" />
		<tag k="place" v="locality" />
		<tag k="ssr:stedsnr" v="116106" />
	</node>
	<node id="-49178" lat="60.3531861097" lon="12.318158326">
		<tag k="name" v="Sollihøgda" />
		<tag k="natural" v="slope" />
		<tag k="place" v="locality" />
		<tag k="ssr:stedsnr" v="116048" />
	</node>
	<node id="-49839" lat="60.2368138844" lon="12.0037277847">
		<tag k="name" v="Engaberget" />
		<tag k="natural" v="hill" />
		<tag k="place" v="locality" />
		<tag k="ssr:stedsnr" v="419941" />
	</node>
	<node id="-49172" lat="60.2414694447" lon="12.0122916595">
		<tag k="fixme" v="consider natural=peak for the most distinct mountains in the district" />
		<tag k="name" v="Leiråsberget" />
		<tag k="natural" v="hill" />
		<tag k="place" v="locality" />
		<tag k="ssr:stedsnr" v="116964" />
	</node>
	<node id="-51218" lat="60.1052472198" lon="12.0068277771">
		<tag k="name" v="Svartbekkdalen" />
		<tag k="natural" v="valley" />
		<tag k="place" v="locality" />
		<tag k="ssr:stedsnr" v="785568" />
	</node>
	<node id="-51212" lat="60.2681666699" lon="12.0952222213">
		<tag k="fixme" v="consider natural=peak for the most distinct mountains in the district" />
		<tag k="name" v="Dagsåsen" />
		<tag k="natural" v="hill" />
		<tag k="place" v="locality" />
		<tag k="ssr:stedsnr" v="785133" />
	</node>
	<node id="-51211" lat="60.3300138878" lon="12.3731416728">
		<tag k="fixme" v="consider natural=peak for the most distinct mountains in the district" />
		<tag k="name" v="Steinsvatneberget" />
		<tag k="natural" v="hill" />
		<tag k="place" v="locality" />
		<tag k="ssr:stedsnr" v="785059" />
	</node>
	<node id="-51209" lat="60.2597527816" lon="12.3162916756">
		<tag k="name" v="Sølvskjæret" />
		<tag k="natural" v="hill" />
		<tag k="place" v="locality" />
		<tag k="ssr:stedsnr" v="783992" />
	</node>
	<node id="-51206" lat="60.1879583373" lon="12.346261107">
		<tag k="fixme" v="consider natural=peak for the most distinct mountains in the district" />
		<tag k="name" v="Nøkkevikberget" />
		<tag k="natural" v="hill" />
		<tag k="place" v="locality" />
		<tag k="ssr:stedsnr" v="783955" />
	</node>
	<node id="-49155" lat="60.2325222251" lon="12.193133333">
		<tag k="name" v="Myrersæterberget" />
		<tag k="natural" v="hill" />
		<tag k="place" v="locality" />
		<tag k="ssr:stedsnr" v="106077" />
	</node>
</osm>
