<?xml version="1.0" encoding="UTF-8"?>
<osm generator="osmapis" version="0.6">
	<node id="-298706" lat="60.2996119231" lon="10.5114761821">
		<tag k="fixme" v="consider place=hamlet" />
		<tag k="name" v="Vestre Ballangrud" />
		<tag k="place" v="farm" />
		<tag k="ssr:stedsnr" v="1074366" />
	</node>
	<node id="-298702" lat="60.292646804" lon="10.541463676">
		<tag k="fixme" v="consider place=hamlet" />
		<tag k="name" v="Askilsrud" />
		<tag k="place" v="farm" />
		<tag k="ssr:stedsnr" v="988313" />
	</node>
	<node id="-298701" lat="60.2969461683" lon="10.5618672443">
		<tag k="fixme" v="consider place=hamlet" />
		<tag k="name" v="Skøyen" />
		<tag k="place" v="farm" />
		<tag k="ssr:stedsnr" v="988311" />
	</node>
	<node id="-298700" lat="60.2002879734" lon="10.7007766616">
		<tag k="name" v="Oset" />
		<tag k="place" v="locality" />
		<tag k="ssr:stedsnr" v="988310" />
	</node>
	<node id="-298699" lat="60.1945829542" lon="10.6778848203">
		<tag k="fixme" v="consider place=hamlet" />
		<tag k="name" v="Sørli" />
		<tag k="place" v="farm" />
		<tag k="ssr:stedsnr" v="988309" />
	</node>
	<node id="-298698" lat="60.1641946379" lon="10.7201199025">
		<tag k="fixme" v="consider place=hamlet" />
		<tag k="name" v="Stryken" />
		<tag k="place" v="farm" />
		<tag k="ssr:stedsnr" v="988308" />
	</node>
	<node id="-298696" lat="60.2610054059" lon="10.7835648037">
		<tag k="fixme" v="consider place=hamlet" />
		<tag k="name" v="Snellingen" />
		<tag k="place" v="farm" />
		<tag k="ssr:stedsnr" v="988306" />
	</node>
	<node id="-298695" lat="60.2806543537" lon="10.6675356309">
		<tag k="fixme" v="consider place=hamlet" />
		<tag k="name" v="Tveita" />
		<tag k="place" v="farm" />
		<tag k="ssr:stedsnr" v="988273" />
	</node>
	<node id="-298694" lat="60.3309152451" lon="10.7113661168">
		<tag k="fixme" v="consider place=hamlet" />
		<tag k="name" v="Tangen" />
		<tag k="place" v="farm" />
		<tag k="ssr:stedsnr" v="988153" />
	</node>
	<node id="-298693" lat="60.3150495835" lon="10.6476416023">
		<tag k="alt_name" v="Stokkødegården" />
		<tag k="name" v="Stokke" />
		<tag k="place" v="locality" />
		<tag k="ssr:stedsnr" v="988152" />
	</node>
	<node id="-298692" lat="60.3185710605" lon="10.5966696674">
		<tag k="fixme" v="consider place=hamlet" />
		<tag k="name" v="Kraggerud" />
		<tag k="place" v="farm" />
		<tag k="ssr:stedsnr" v="988150" />
	</node>
	<node id="-298689" lat="60.3036673131" lon="10.4929792114">
		<tag k="name" v="Løyken" />
		<tag k="place" v="hamlet" />
		<tag k="ssr:stedsnr" v="988033" />
	</node>
	<node id="-298684" lat="60.2376419029" lon="10.7797669239">
		<tag k="fixme" v="consider tourism=alpine_hut or tourism=chalet" />
		<tag k="name" v="Fjellsjøkoia" />
		<tag k="ssr:stedsnr" v="981179" />
		<tag k="tourism" v="wilderness_hut" />
	</node>
	<node id="-298682" lat="60.2366083352" lon="10.5605305562">
		<tag k="name" v="Ålsjøvikhytta" />
		<tag k="place" v="isolated_dwelling" />
		<tag k="ssr:stedsnr" v="967598" />
	</node>
	<node id="-298676" lat="60.3171861139" lon="10.4686222194">
		<tag k="name" v="Åsli" />
		<tag k="place" v="farm" />
		<tag k="ssr:stedsnr" v="856940" />
	</node>
	<node id="-298675" lat="60.2772583329" lon="10.5701555506">
		<tag k="alt_name" v="Svenballerud" />
		<tag k="name" v="Svenballrud" />
		<tag k="old_name" v="Svenbalrud" />
		<tag k="place" v="farm" />
		<tag k="ssr:stedsnr" v="856839" />
	</node>
	<node id="-298674" lat="60.2731166657" lon="10.6656777764">
		<tag k="name" v="Stålitt" />
		<tag k="place" v="farm" />
		<tag k="ssr:stedsnr" v="856801" />
	</node>
	<node id="-298673" lat="60.2773888866" lon="10.6410805507">
		<tag k="alt_name" v="Rya, nedre" />
		<tag k="name" v="Nedre Rya" />
		<tag k="place" v="farm" />
		<tag k="ssr:stedsnr" v="856800" />
	</node>
	<node id="-298672" lat="60.2526500003" lon="10.6250361084">
		<tag k="name" v="Larmerud" />
		<tag k="place" v="farm" />
		<tag k="ssr:stedsnr" v="856788" />
	</node>
	<node id="-298671" lat="60.3200366204" lon="10.5957985932">
		<tag k="alt_name" v="Kraggerud" />
		<tag k="name" v="Øvre Kraggerud" />
		<tag k="place" v="farm" />
		<tag k="ssr:stedsnr" v="856925" />
	</node>
	<node id="-298670" lat="60.3006000008" lon="10.6298611086">
		<tag k="name" v="Elgheim" />
		<tag k="place" v="isolated_dwelling" />
		<tag k="ssr:stedsnr" v="856924" />
	</node>
	<node id="-298668" lat="60.3053361135" lon="10.6097166619">
		<tag k="name" v="Haugen" />
		<tag k="place" v="farm" />
		<tag k="ssr:stedsnr" v="856912" />
	</node>
	<node id="-298665" lat="60.2330545127" lon="10.7393901314">
		<tag k="alt_name" v="Grønnbråten" />
		<tag k="fixme" v="consider place=hamlet" />
		<tag k="name" v="Grønbråtan" />
		<tag k="place" v="farm" />
		<tag k="ssr:stedsnr" v="855847" />
	</node>
	<node id="-298662" lat="60.2039500041" lon="10.6743972185">
		<tag k="alt_name" v="Gagnumseter" />
		<tag k="historic" v="shieling" />
		<tag k="name" v="Gagnumsætra" />
		<tag k="place" v="locality" />
		<tag k="ssr:stedsnr" v="855447" />
	</node>
	<node id="-298658" lat="60.2333111102" lon="10.611099998">
		<tag k="historic" v="shieling" />
		<tag k="name" v="Bislingsætra" />
		<tag k="place" v="locality" />
		<tag k="ssr:stedsnr" v="855389" />
	</node>
	<node id="-298652" lat="60.2619999958" lon="10.7852444524">
		<tag k="name" v="Øvre Snellingen" />
		<tag k="place" v="isolated_dwelling" />
		<tag k="ssr:stedsnr" v="830564" />
	</node>
	<node id="-298647" lat="60.2569959124" lon="10.6649910268">
		<tag k="fixme" v="consider place=hamlet" />
		<tag k="name" v="Malmgruben" />
		<tag k="place" v="farm" />
		<tag k="ssr:stedsnr" v="830280" />
	</node>
	<node id="-298645" lat="60.2722277812" lon="10.6094999968">
		<tag k="name" v="Kongell" />
		<tag k="place" v="isolated_dwelling" />
		<tag k="ssr:stedsnr" v="828775" />
	</node>
	<node id="-298642" lat="60.1814777787" lon="10.7446888825">
		<tag k="historic" v="shieling" />
		<tag k="name" v="Rudseterhytta" />
		<tag k="place" v="locality" />
		<tag k="ssr:stedsnr" v="828677" />
	</node>
	<node id="-298640" lat="60.2277472186" lon="10.727777774">
		<tag k="name" v="Bjørgeseterhytta" />
		<tag k="place" v="isolated_dwelling" />
		<tag k="ssr:stedsnr" v="828463" />
	</node>
	<node id="-298637" lat="60.2280694432" lon="10.7083249946">
		<tag k="name" v="Fjellstad" />
		<tag k="place" v="isolated_dwelling" />
		<tag k="ssr:stedsnr" v="828362" />
	</node>
	<node id="-298635" lat="60.3015472224" lon="10.4706249914">
		<tag k="name" v="Vestby" />
		<tag k="place" v="isolated_dwelling" />
		<tag k="ssr:stedsnr" v="828142" />
	</node>
	<node id="-298631" lat="60.255380557" lon="10.5825027836">
		<tag k="name" v="Skjerplykkja" />
		<tag k="place" v="isolated_dwelling" />
		<tag k="ssr:stedsnr" v="828080" />
	</node>
	<node id="-298630" lat="60.3057694449" lon="10.5753777792">
		<tag k="name" v="Bjerkås" />
		<tag k="place" v="farm" />
		<tag k="ssr:stedsnr" v="828075" />
	</node>
	<node id="-298627" lat="60.3165583371" lon="10.4885305607">
		<tag k="name" v="Grumstad" />
		<tag k="place" v="farm" />
		<tag k="ssr:stedsnr" v="819289" />
	</node>
	<node id="-298625" lat="60.3205361097" lon="10.5276805566">
		<tag k="name" v="Østenga" />
		<tag k="place" v="farm" />
		<tag k="ssr:stedsnr" v="819081" />
	</node>
	<node id="-298624" lat="60.3064416696" lon="10.6099611186">
		<tag k="name" v="Nerløkka" />
		<tag k="place" v="farm" />
		<tag k="ssr:stedsnr" v="818334" />
	</node>
	<node id="-298623" lat="60.3103888915" lon="10.5653888822">
		<tag k="name" v="Lund" />
		<tag k="place" v="farm" />
		<tag k="ssr:stedsnr" v="795941" />
	</node>
	<node id="-298622" lat="60.3207832173" lon="10.6884847036">
		<tag k="alt_name" v="Skjervedal" />
		<tag k="fixme" v="consider place=hamlet" />
		<tag k="name" v="Skjerva" />
		<tag k="place" v="farm" />
		<tag k="ssr:stedsnr" v="795924" />
	</node>
	<node id="-298621" lat="60.3158527775" lon="10.6614222277">
		<tag k="name" v="Koperud" />
		<tag k="place" v="isolated_dwelling" />
		<tag k="ssr:stedsnr" v="795921" />
	</node>
	<node id="-298620" lat="60.3233500012" lon="10.6344416752">
		<tag k="name" v="Brokerud" />
		<tag k="place" v="farm" />
		<tag k="ssr:stedsnr" v="795916" />
	</node>
	<node id="-298618" lat="60.3131588513" lon="10.6573995045">
		<tag k="fixme" v="consider place=hamlet" />
		<tag k="name" v="Oppsal" />
		<tag k="place" v="farm" />
		<tag k="ssr:stedsnr" v="795882" />
	</node>
	<node id="-298617" lat="60.2925055743" lon="10.6520447428">
		<tag k="fixme" v="consider place=hamlet" />
		<tag k="name" v="Solbjør" />
		<tag k="place" v="farm" />
		<tag k="ssr:stedsnr" v="795880" />
	</node>
	<node id="-298616" lat="60.2940750043" lon="10.6359305632">
		<tag k="name" v="Kilstad" />
		<tag k="place" v="farm" />
		<tag k="ssr:stedsnr" v="795878" />
	</node>
	<node id="-298615" lat="60.2929500004" lon="10.6197694519">
		<tag k="name" v="Frøysli" />
		<tag k="place" v="farm" />
		<tag k="ssr:stedsnr" v="795877" />
	</node>
	<node id="-298613" lat="60.2740777776" lon="10.6188555511">
		<tag k="name" v="Skjeggerud" />
		<tag k="place" v="farm" />
		<tag k="ssr:stedsnr" v="795792" />
	</node>
	<node id="-298608" lat="60.234516665" lon="10.6460333365">
		<tag k="historic" v="shieling" />
		<tag k="name" v="Auretjernsætra" />
		<tag k="place" v="locality" />
		<tag k="ssr:stedsnr" v="794460" />
	</node>
	<node id="-298605" lat="60.1609305593" lon="10.5895305479">
		<tag k="alt_name" v="Østbråten" />
		<tag k="name" v="Østbråtan" />
		<tag k="place" v="farm" />
		<tag k="ssr:stedsnr" v="794012" />
	</node>
	<node id="-298590" lat="60.304261109" lon="10.6662388828">
		<tag k="name" v="Slåttland" />
		<tag k="place" v="isolated_dwelling" />
		<tag k="ssr:stedsnr" v="767804" />
	</node>
	<node id="-298587" lat="60.2829999979" lon="10.671949999">
		<tag k="name" v="Munkerud" />
		<tag k="place" v="farm" />
		<tag k="ssr:stedsnr" v="767236" />
	</node>
	<node id="-298586" lat="60.2952722189" lon="10.4812555498">
		<tag k="name" v="Solhaugen" />
		<tag k="place" v="quarter" />
		<tag k="ssr:stedsnr" v="767152" />
	</node>
	<node id="-298585" lat="60.2983527812" lon="10.4814638866">
		<tag k="name" v="Kvernhaugen" />
		<tag k="place" v="farm" />
		<tag k="ssr:stedsnr" v="767149" />
	</node>
	<node id="-298584" lat="60.2333027813" lon="10.7055777735">
		<tag k="name" v="Roås" />
		<tag k="place" v="farm" />
		<tag k="ssr:stedsnr" v="767362" />
	</node>
	<node id="-298583" lat="60.3079421707" lon="10.5545842358">
		<tag k="name" v="Lunner" />
		<tag k="place" v="hamlet" />
		<tag k="ssr:stedsnr" v="767050" />
	</node>
	<node id="-298580" lat="60.2600388849" lon="10.5920388926">
		<tag k="name" v="Sørli" />
		<tag k="place" v="locality" />
		<tag k="ssr:stedsnr" v="767098" />
	</node>
	<node id="-298579" lat="60.2649750024" lon="10.5826972258">
		<tag k="name" v="Karlstad" />
		<tag k="place" v="locality" />
		<tag k="ssr:stedsnr" v="767097" />
	</node>
	<node id="-298577" lat="60.278191666" lon="10.5469444531">
		<tag k="name" v="Nordal" />
		<tag k="place" v="farm" />
		<tag k="ssr:stedsnr" v="767081" />
	</node>
	<node id="-298576" lat="60.2870722263" lon="10.5510194501">
		<tag k="name" v="Fjell" />
		<tag k="place" v="isolated_dwelling" />
		<tag k="ssr:stedsnr" v="767080" />
	</node>
	<node id="-298574" lat="60.3196888933" lon="10.5378750053">
		<tag k="name" v="Hagen" />
		<tag k="place" v="farm" />
		<tag k="ssr:stedsnr" v="758092" />
	</node>
	<node id="-298573" lat="60.3105416312" lon="10.6422493517">
		<tag k="fixme" v="consider place=hamlet" />
		<tag k="name" v="Stumne" />
		<tag k="place" v="farm" />
		<tag k="ssr:stedsnr" v="757357" />
	</node>
	<node id="-298568" lat="60.2763277765" lon="10.6412250029">
		<tag k="fixme" v="consider place=hamlet" />
		<tag k="name" v="Rya" />
		<tag k="place" v="farm" />
		<tag k="ssr:stedsnr" v="647411" />
	</node>
	<node id="-298567" lat="60.2614472223" lon="10.7784888904">
		<tag k="name" v="Nedre Snellingen" />
		<tag k="place" v="isolated_dwelling" />
		<tag k="ssr:stedsnr" v="647576" />
	</node>
	<node id="-298558" lat="60.2110722219" lon="10.7130555524">
		<tag k="amenity" v="school" />
		<tag k="name" v="Harestua skole" />
		<tag k="ssr:stedsnr" v="645389" />
	</node>
	<node id="-298555" lat="60.2425027769" lon="10.6130305614">
		<tag k="name" v="Sliperiet" />
		<tag k="place" v="isolated_dwelling" />
		<tag k="ssr:stedsnr" v="645263" />
	</node>
	<node id="-298554" lat="60.244322224" lon="10.5654333311">
		<tag k="name" v="Brattholt" />
		<tag k="place" v="farm" />
		<tag k="ssr:stedsnr" v="645112" />
	</node>
	<node id="-298552" lat="60.26043889" lon="10.5557833336">
		<tag k="name" v="Jørstadvolla" />
		<tag k="place" v="isolated_dwelling" />
		<tag k="ssr:stedsnr" v="645097" />
	</node>
	<node id="-298551" lat="60.3019111073" lon="10.5833888892">
		<tag k="name" v="Solvang" />
		<tag k="place" v="isolated_dwelling" />
		<tag k="ssr:stedsnr" v="645077" />
	</node>
	<node id="-298548" lat="60.3136416646" lon="10.5764277798">
		<tag k="name" v="Flatla" />
		<tag k="place" v="farm" />
		<tag k="ssr:stedsnr" v="645043" />
	</node>
	<node id="-298547" lat="60.3077642729" lon="10.5863572684">
		<tag k="name" v="Lieker" />
		<tag k="place" v="hamlet" />
		<tag k="ssr:stedsnr" v="645041" />
	</node>
	<node id="-298541" lat="60.3073833367" lon="10.5311611101">
		<tag k="name" v="Lier" />
		<tag k="place" v="farm" />
		<tag k="ssr:stedsnr" v="636810" />
	</node>
	<node id="-298540" lat="60.2900444438" lon="10.6487777821">
		<tag k="alt_name" v="Ødegården" />
		<tag k="name" v="Øgarden" />
		<tag k="place" v="farm" />
		<tag k="ssr:stedsnr" v="613870" />
	</node>
	<node id="-298539" lat="60.3121305588" lon="10.5482000002">
		<tag k="name" v="Erlien" />
		<tag k="place" v="farm" />
		<tag k="ssr:stedsnr" v="612944" />
	</node>
	<node id="-298538" lat="60.3034466076" lon="10.5751181607">
		<tag k="fixme" v="consider place=hamlet" />
		<tag k="name" v="Haga" />
		<tag k="place" v="farm" />
		<tag k="ssr:stedsnr" v="612905" />
	</node>
	<node id="-298537" lat="60.2998555582" lon="10.6085972263">
		<tag k="name" v="Engeli" />
		<tag k="place" v="farm" />
		<tag k="ssr:stedsnr" v="612902" />
	</node>
	<node id="-298536" lat="60.3076288495" lon="10.629263548">
		<tag k="fixme" v="consider place=hamlet" />
		<tag k="name" v="Heier" />
		<tag k="place" v="farm" />
		<tag k="ssr:stedsnr" v="612899" />
	</node>
	<node id="-298535" lat="60.3015888875" lon="10.4698249994">
		<tag k="name" v="Sverige" />
		<tag k="place" v="farm" />
		<tag k="ssr:stedsnr" v="612894" />
	</node>
	<node id="-298532" lat="60.2714555524" lon="10.6742500045">
		<tag k="name" v="Tveitbråtån" />
		<tag k="place" v="farm" />
		<tag k="ssr:stedsnr" v="612783" />
	</node>
	<node id="-298519" lat="60.2636111138" lon="10.6695416663">
		<tag k="name" v="Gruabråten" />
		<tag k="place" v="isolated_dwelling" />
		<tag k="ssr:stedsnr" v="586330" />
	</node>
	<node id="-298518" lat="60.2518672803" lon="10.6676086684">
		<tag k="fixme" v="consider place=hamlet" />
		<tag k="name" v="Harestuødegården" />
		<tag k="place" v="farm" />
		<tag k="ssr:stedsnr" v="586323" />
	</node>
	<node id="-298511" lat="60.1651916705" lon="10.7169416675">
		<tag k="name" v="Stryken" />
		<tag k="place" v="hamlet" />
		<tag k="ssr:stedsnr" v="585025" />
	</node>
	<node id="-298510" lat="60.2675277778" lon="10.5545194407">
		<tag k="name" v="Delinhytta" />
		<tag k="place" v="isolated_dwelling" />
		<tag k="ssr:stedsnr" v="584100" />
	</node>
	<node id="-298509" lat="60.2638805579" lon="10.5809861067">
		<tag k="name" v="Lunnehytta" />
		<tag k="place" v="isolated_dwelling" />
		<tag k="ssr:stedsnr" v="584099" />
	</node>
	<node id="-298508" lat="60.2572277756" lon="10.5574972204">
		<tag k="name" v="Volla" />
		<tag k="place" v="farm" />
		<tag k="ssr:stedsnr" v="584090" />
	</node>
	<node id="-298505" lat="60.3198729274" lon="10.5500394566">
		<tag k="fixme" v="consider place=hamlet" />
		<tag k="name" v="Åslund" />
		<tag k="place" v="farm" />
		<tag k="ssr:stedsnr" v="552934" />
	</node>
	<node id="-298504" lat="60.3189444488" lon="10.4968361081">
		<tag k="alt_name" v="Stensrud" />
		<tag k="name" v="Steinsrud" />
		<tag k="place" v="farm" />
		<tag k="ssr:stedsnr" v="552981" />
	</node>
	<node id="-298503" lat="60.2883454068" lon="10.5912142954">
		<tag k="alt_name" v="Bjøralt, østre" />
		<tag k="fixme" v="consider place=hamlet" />
		<tag k="name" v="Østre Bjøralt" />
		<tag k="place" v="farm" />
		<tag k="ssr:stedsnr" v="552840" />
	</node>
	<node id="-298502" lat="60.2766222194" lon="10.6384916656">
		<tag k="alt_name" v="Rya, vestre;Rya" />
		<tag k="name" v="Vestre Rya" />
		<tag k="place" v="farm" />
		<tag k="ssr:stedsnr" v="552816" />
	</node>
	<node id="-298500" lat="60.2951972241" lon="10.6117166688">
		<tag k="name" v="Sand" />
		<tag k="place" v="farm" />
		<tag k="ssr:stedsnr" v="552895" />
	</node>
	<node id="-298497" lat="60.3063305568" lon="10.8469388967">
		<tag k="name" v="Knapptjernshytta" />
		<tag k="place" v="isolated_dwelling" />
		<tag k="ssr:stedsnr" v="552348" />
	</node>
	<node id="-298494" lat="60.2331861092" lon="10.7277222193">
		<tag k="name" v="Fjellet" />
		<tag k="place" v="farm" />
		<tag k="ssr:stedsnr" v="551836" />
	</node>
	<node id="-298493" lat="60.2334490907" lon="10.6938165914">
		<tag k="fixme" v="consider place=hamlet" />
		<tag k="name" v="Klypen" />
		<tag k="place" v="farm" />
		<tag k="ssr:stedsnr" v="551463" />
	</node>
	<node id="-298491" lat="60.2069826512" lon="10.6832952366">
		<tag k="fixme" v="consider place=hamlet" />
		<tag k="name" v="Harestuskogen" />
		<tag k="place" v="farm" />
		<tag k="ssr:stedsnr" v="551443" />
	</node>
	<node id="-298490" lat="60.2100000005" lon="10.6866638862">
		<tag k="name" v="Vestbygda" />
		<tag k="place" v="hamlet" />
		<tag k="ssr:stedsnr" v="551429" />
	</node>
	<node id="-298489" lat="60.2466749975" lon="10.62126945">
		<tag k="alt_name" v="Knippasetra" />
		<tag k="historic" v="shieling" />
		<tag k="name" v="Knippa" />
		<tag k="place" v="locality" />
		<tag k="ssr:stedsnr" v="551380" />
	</node>
	<node id="-298483" lat="60.1893499963" lon="10.6108472164">
		<tag k="amenity" v="school" />
		<tag k="name" v="Gjerdingen skole" />
		<tag k="old_name" v="Nordmarka skole" />
		<tag k="ssr:stedsnr" v="527511" />
	</node>
	<node id="-298478" lat="60.2528083337" lon="10.6560499923">
		<tag k="name" v="Bråten" />
		<tag k="place" v="locality" />
		<tag k="ssr:stedsnr" v="526291" />
	</node>
	<node id="-298474" lat="60.2751027807" lon="10.7206638841">
		<tag k="name" v="Flåtetjernshytta" />
		<tag k="place" v="isolated_dwelling" />
		<tag k="ssr:stedsnr" v="526477" />
	</node>
	<node id="-298472" lat="60.3236833316" lon="10.7014055584">
		<tag k="name" v="Kvernstua" />
		<tag k="place" v="isolated_dwelling" />
		<tag k="ssr:stedsnr" v="524936" />
	</node>
	<node id="-298469" lat="60.2352500029" lon="10.732452773">
		<tag k="name" v="Dalabråten" />
		<tag k="place" v="isolated_dwelling" />
		<tag k="ssr:stedsnr" v="524497" />
	</node>
	<node id="-298464" lat="60.2476666656" lon="10.5711611032">
		<tag k="historic" v="shieling" />
		<tag k="name" v="Gammelsetra" />
		<tag k="place" v="locality" />
		<tag k="ssr:stedsnr" v="524097" />
	</node>
	<node id="-298463" lat="60.2438250024" lon="10.5623305468">
		<tag k="name" v="Sandvik" />
		<tag k="place" v="farm" />
		<tag k="ssr:stedsnr" v="524092" />
	</node>
	<node id="-298462" lat="60.2539944424" lon="10.5548583387">
		<tag k="name" v="Løkenhytta" />
		<tag k="place" v="isolated_dwelling" />
		<tag k="ssr:stedsnr" v="524069" />
	</node>
	<node id="-298460" lat="60.3180666707" lon="10.5673055503">
		<tag k="name" v="Vestre Helgeland" />
		<tag k="place" v="farm" />
		<tag k="ssr:stedsnr" v="524042" />
	</node>
	<node id="-298459" lat="60.3129888866" lon="10.5686694407">
		<tag k="amenity" v="school" />
		<tag k="name" v="Lundby skole" />
		<tag k="ssr:stedsnr" v="524040" />
	</node>
	<node id="-298457" lat="60.2503083298" lon="10.5583444417">
		<tag k="name" v="Brattvoll" />
		<tag k="place" v="farm" />
		<tag k="ssr:stedsnr" v="431793" />
	</node>
	<node id="-298454" lat="60.3123916689" lon="10.5450750001">
		<tag k="name" v="Smestad" />
		<tag k="place" v="farm" />
		<tag k="ssr:stedsnr" v="431949" />
	</node>
	<node id="-298453" lat="60.3052474169" lon="10.526071749">
		<tag k="fixme" v="consider place=hamlet" />
		<tag k="name" v="Skirstad" />
		<tag k="place" v="farm" />
		<tag k="ssr:stedsnr" v="431900" />
	</node>
	<node id="-298452" lat="60.296802779" lon="10.5258499922">
		<tag k="name" v="Moen" />
		<tag k="place" v="farm" />
		<tag k="ssr:stedsnr" v="431867" />
	</node>
	<node id="-298449" lat="60.2220638869" lon="10.6201527688">
		<tag k="fixme" v="multiple name tags, choose one and add the other to alt_name" />
		<tag k="name" v="Svartbekkhytta;Svarttjernshytta" />
		<tag k="place" v="isolated_dwelling" />
		<tag k="ssr:stedsnr" v="430471" />
	</node>
	<node id="-298439" lat="60.2011333352" lon="10.7170333403">
		<tag k="name" v="Furumo I" />
		<tag k="place" v="quarter" />
		<tag k="ssr:stedsnr" v="405644" />
	</node>
	<node id="-298438" lat="60.2707999955" lon="10.669475002">
		<tag k="name" v="Søndre Bilitt" />
		<tag k="place" v="farm" />
		<tag k="ssr:stedsnr" v="404246" />
	</node>
	<node id="-298437" lat="60.2590222198" lon="10.660536105">
		<tag k="amenity" v="school" />
		<tag k="name" v="Grua skole" />
		<tag k="ssr:stedsnr" v="404299" />
	</node>
	<node id="-298436" lat="60.3025083364" lon="10.6067888931">
		<tag k="name" v="Nerenga" />
		<tag k="place" v="farm" />
		<tag k="ssr:stedsnr" v="403801" />
	</node>
	<node id="-298433" lat="60.2032944458" lon="10.7144027797">
		<tag k="name" v="Harestuvollen" />
		<tag k="place" v="isolated_dwelling" />
		<tag k="ssr:stedsnr" v="403397" />
	</node>
	<node id="-298432" lat="60.2028777759" lon="10.6766166681">
		<tag k="name" v="Seter" />
		<tag k="place" v="isolated_dwelling" />
		<tag k="ssr:stedsnr" v="403386" />
	</node>
	<node id="-298431" lat="60.2111611077" lon="10.7016944437">
		<tag k="name" v="Stubbenga" />
		<tag k="place" v="farm" />
		<tag k="ssr:stedsnr" v="403381" />
	</node>
	<node id="-298429" lat="60.2085972178" lon="10.6769638879">
		<tag k="name" v="Harestuenga" />
		<tag k="place" v="farm" />
		<tag k="ssr:stedsnr" v="403376" />
	</node>
	<node id="-298427" lat="60.2761194472" lon="10.5491805647">
		<tag k="amenity" v="nursing_home" />
		<tag k="name" v="Høgtun" />
		<tag k="ssr:stedsnr" v="403079" />
	</node>
	<node id="-298423" lat="60.1767749962" lon="10.6725444499">
		<tag k="name" v="Ørnbohytta" />
		<tag k="place" v="isolated_dwelling" />
		<tag k="ssr:stedsnr" v="403040" />
	</node>
	<node id="-298422" lat="60.1760083357" lon="10.6434305528">
		<tag k="name" v="Almedalshytta" />
		<tag k="place" v="isolated_dwelling" />
		<tag k="ssr:stedsnr" v="403036" />
	</node>
	<node id="-298421" lat="60.2821444459" lon="10.5301138948">
		<tag k="name" v="Bekkehallum" />
		<tag k="place" v="farm" />
		<tag k="ssr:stedsnr" v="396951" />
	</node>
	<node id="-298420" lat="60.298883337" lon="10.5016055477">
		<tag k="name" v="Ulven" />
		<tag k="place" v="farm" />
		<tag k="ssr:stedsnr" v="396737" />
	</node>
	<node id="-298417" lat="60.3143055523" lon="10.5526611162">
		<tag k="name" v="Østvoll" />
		<tag k="place" v="farm" />
		<tag k="ssr:stedsnr" v="370944" />
	</node>
	<node id="-298416" lat="60.2988472264" lon="10.6108138937">
		<tag k="alt_name" v="Vestre Løken" />
		<tag k="name" v="Løyken" />
		<tag k="place" v="farm" />
		<tag k="ssr:stedsnr" v="370898" />
	</node>
	<node id="-298415" lat="60.3100916639" lon="10.6305527702">
		<tag k="name" v="Holst" />
		<tag k="place" v="farm" />
		<tag k="ssr:stedsnr" v="370888" />
	</node>
	<node id="-298413" lat="60.2920750042" lon="10.6602500055">
		<tag k="name" v="Haugen" />
		<tag k="place" v="farm" />
		<tag k="ssr:stedsnr" v="370885" />
	</node>
	<node id="-298412" lat="60.2915666701" lon="10.6901611037">
		<tag k="name" v="Skogli" />
		<tag k="place" v="isolated_dwelling" />
		<tag k="ssr:stedsnr" v="370876" />
	</node>
	<node id="-298411" lat="60.2895083342" lon="10.67909166">
		<tag k="name" v="Myra" />
		<tag k="place" v="farm" />
		<tag k="ssr:stedsnr" v="370875" />
	</node>
	<node id="-298410" lat="60.285911113" lon="10.5708500039">
		<tag k="name" v="Jensrud" />
		<tag k="place" v="isolated_dwelling" />
		<tag k="ssr:stedsnr" v="370844" />
	</node>
	<node id="-298406" lat="60.2788277822" lon="10.5976361089">
		<tag k="name" v="Bjerke" />
		<tag k="place" v="isolated_dwelling" />
		<tag k="ssr:stedsnr" v="370806" />
	</node>
	<node id="-298401" lat="60.2730944402" lon="10.7587555561">
		<tag k="alt_name" v="Brovoll" />
		<tag k="name" v="Bruvoll" />
		<tag k="place" v="isolated_dwelling" />
		<tag k="ssr:stedsnr" v="370378" />
	</node>
	<node id="-298396" lat="60.2233555545" lon="10.6708027791">
		<tag k="alt_name" v="Tomåsgjerdet" />
		<tag k="fixme" v="consider place=hamlet" />
		<tag k="name" v="Tomasgjerdet" />
		<tag k="place" v="farm" />
		<tag k="ssr:stedsnr" v="369430" />
	</node>
	<node id="-298395" lat="60.2104666629" lon="10.6000972147">
		<tag k="alt_name" v="Syljusetra" />
		<tag k="historic" v="shieling" />
		<tag k="name" v="Syljusæter" />
		<tag k="place" v="locality" />
		<tag k="ssr:stedsnr" v="369427" />
	</node>
	<node id="-298390" lat="60.3081333308" lon="10.6597583342">
		<tag k="alt_name" v="Bråstad øvre" />
		<tag k="name" v="Øvre Bråstad" />
		<tag k="old_name" v="Rustad" />
		<tag k="place" v="farm" />
		<tag k="ssr:stedsnr" v="357869" />
	</node>
	<node id="-298382" lat="60.3332166681" lon="10.7098527785">
		<tag k="name" v="Nordre Tangen" />
		<tag k="place" v="isolated_dwelling" />
		<tag k="ssr:stedsnr" v="342913" />
	</node>
	<node id="-298378" lat="60.2861416679" lon="10.6528916688">
		<tag k="name" v="Midtenga" />
		<tag k="place" v="farm" />
		<tag k="ssr:stedsnr" v="342776" />
	</node>
	<node id="-298377" lat="60.2648500044" lon="10.6476972156">
		<tag k="name" v="Malmgruben" />
		<tag k="place" v="farm" />
		<tag k="ssr:stedsnr" v="342769" />
	</node>
	<node id="-298373" lat="60.2081833289" lon="10.6801444457">
		<tag k="name" v="Enga" />
		<tag k="place" v="farm" />
		<tag k="ssr:stedsnr" v="342360" />
	</node>
	<node id="-298370" lat="60.2949305562" lon="10.478072231">
		<tag k="name" v="Haugen Ø" />
		<tag k="place" v="quarter" />
		<tag k="ssr:stedsnr" v="342160" />
	</node>
	<node id="-298365" lat="60.2584333371" lon="10.5663972306">
		<tag k="name" v="Volla" />
		<tag k="place" v="locality" />
		<tag k="ssr:stedsnr" v="342078" />
	</node>
	<node id="-298364" lat="60.3059138861" lon="10.6018583354">
		<tag k="name" v="Dale" />
		<tag k="place" v="isolated_dwelling" />
		<tag k="ssr:stedsnr" v="342070" />
	</node>
	<node id="-298363" lat="60.1590305555" lon="10.6689888833">
		<tag k="name" v="Handkleputthytta" />
		<tag k="place" v="isolated_dwelling" />
		<tag k="ssr:stedsnr" v="342036" />
	</node>
	<node id="-298358" lat="60.1690583347" lon="10.7119694385">
		<tag k="name" v="Kjøpstad" />
		<tag k="place" v="isolated_dwelling" />
		<tag k="ssr:stedsnr" v="342011" />
	</node>
	<node id="-298357" lat="60.2845071147" lon="10.5343720755">
		<tag k="fixme" v="consider place=hamlet" />
		<tag k="name" v="Klokker-Hallum" />
		<tag k="place" v="farm" />
		<tag k="ssr:stedsnr" v="335967" />
	</node>
	<node id="-298354" lat="60.2972555527" lon="10.4860500007">
		<tag k="fixme" v="consider place=hamlet" />
		<tag k="name" v="Grindvoll" />
		<tag k="place" v="village" />
		<tag k="ssr:stedsnr" v="327953" />
	</node>
	<node id="-298353" lat="60.319435502" lon="10.6539392987">
		<tag k="name" v="Lia" />
		<tag k="place" v="farm" />
		<tag k="ssr:stedsnr" v="310910" />
	</node>
	<node id="-298350" lat="60.3168805585" lon="10.5304055647">
		<tag k="alt_name" v="Bakken;Korsrudbakken" />
		<tag k="name" v="Lunnerbakken" />
		<tag k="place" v="farm" />
		<tag k="ssr:stedsnr" v="309937" />
	</node>
	<node id="-298349" lat="60.3079306456" lon="10.4897238833">
		<tag k="name" v="Svensbråten" />
		<tag k="old_name" v="Dile" />
		<tag k="place" v="farm" />
		<tag k="ssr:stedsnr" v="309887" />
	</node>
	<node id="-298347" lat="60.297822225" lon="10.6079833254">
		<tag k="alt_name" v="Sanstad" />
		<tag k="name" v="Sandstad" />
		<tag k="place" v="farm" />
		<tag k="ssr:stedsnr" v="309869" />
	</node>
	<node id="-298346" lat="60.2940388849" lon="10.5831333276">
		<tag k="name" v="Ringen" />
		<tag k="place" v="farm" />
		<tag k="ssr:stedsnr" v="309853" />
	</node>
	<node id="-298345" lat="60.2922861118" lon="10.5442305499">
		<tag k="alt_name" v="Askilsrud, nedre" />
		<tag k="name" v="Nedre Askilsrud" />
		<tag k="old_name" v="Akselsrud" />
		<tag k="place" v="farm" />
		<tag k="ssr:stedsnr" v="309851" />
	</node>
	<node id="-298342" lat="60.1744750007" lon="10.7230805552">
		<tag k="name" v="Stranda" />
		<tag k="place" v="isolated_dwelling" />
		<tag k="ssr:stedsnr" v="309789" />
	</node>
	<node id="-298341" lat="60.2591027803" lon="10.5721722263">
		<tag k="alt_name" v="Skaugerud" />
		<tag k="name" v="Skaurud" />
		<tag k="place" v="farm" />
		<tag k="ssr:stedsnr" v="309753" />
	</node>
	<node id="-298339" lat="60.2586138913" lon="10.6374694476">
		<tag k="alt_name" v="Muttabråten" />
		<tag k="name" v="Muttabråtån" />
		<tag k="place" v="isolated_dwelling" />
		<tag k="ssr:stedsnr" v="309750" />
	</node>
	<node id="-298337" lat="60.2416646234" lon="10.7029420548">
		<tag k="alt_name" v="Fjellhammer" />
		<tag k="fixme" v="consider place=hamlet" />
		<tag k="name" v="Fjellhammar" />
		<tag k="place" v="farm" />
		<tag k="ssr:stedsnr" v="309421" />
	</node>
	<node id="-298334" lat="60.1953694452" lon="10.6781833414">
		<tag k="name" v="Øvre Sørli" />
		<tag k="place" v="farm" />
		<tag k="ssr:stedsnr" v="309050" />
	</node>
	<node id="-298332" lat="60.2198277754" lon="10.6728083295">
		<tag k="name" v="Blyverket" />
		<tag k="place" v="isolated_dwelling" />
		<tag k="ssr:stedsnr" v="308455" />
	</node>
	<node id="-298330" lat="60.2359996875" lon="10.7030922728">
		<tag k="alt_name" v="Bjørgeseter" />
		<tag k="fixme" v="consider place=hamlet" />
		<tag k="name" v="Bjørgesæter" />
		<tag k="place" v="farm" />
		<tag k="ssr:stedsnr" v="308368" />
	</node>
	<node id="-298324" lat="60.3251805545" lon="10.6335499966">
		<tag k="name" v="Nordre Brokerud" />
		<tag k="place" v="farm" />
		<tag k="ssr:stedsnr" v="211292" />
	</node>
	<node id="-298323" lat="60.3080750025" lon="10.6514694433">
		<tag k="name" v="Midtre Bråstad" />
		<tag k="place" v="farm" />
		<tag k="ssr:stedsnr" v="211373" />
	</node>
	<node id="-298322" lat="60.3110055521" lon="10.6438000014">
		<tag k="name" v="Stumne" />
		<tag k="place" v="farm" />
		<tag k="ssr:stedsnr" v="211370" />
	</node>
	<node id="-298319" lat="60.3149851438" lon="10.4934185125">
		<tag k="fixme" v="consider place=hamlet" />
		<tag k="name" v="Grumstad" />
		<tag k="place" v="farm" />
		<tag k="ssr:stedsnr" v="188930" />
	</node>
	<node id="-298317" lat="60.3053067483" lon="10.6596623469">
		<tag k="alt_name" v="Mørtveit;Mørtveita" />
		<tag k="fixme" v="consider place=hamlet" />
		<tag k="name" v="Mørtveiten" />
		<tag k="place" v="farm" />
		<tag k="ssr:stedsnr" v="188913" />
	</node>
	<node id="-298316" lat="60.3078333367" lon="10.5306000021">
		<tag k="name" v="Lier" />
		<tag k="place" v="isolated_dwelling" />
		<tag k="ssr:stedsnr" v="188907" />
	</node>
	<node id="-298315" lat="60.3020255448" lon="10.5211532045">
		<tag k="name" v="Vestby" />
		<tag k="place" v="farm" />
		<tag k="ssr:stedsnr" v="188898" />
	</node>
	<node id="-298314" lat="60.2951999967" lon="10.6154777835">
		<tag k="name" v="Myre" />
		<tag k="place" v="farm" />
		<tag k="ssr:stedsnr" v="188882" />
	</node>
	<node id="-298310" lat="60.2817499986" lon="10.5472999967">
		<tag k="name" v="Hegglund" />
		<tag k="place" v="isolated_dwelling" />
		<tag k="ssr:stedsnr" v="188845" />
	</node>
	<node id="-298309" lat="60.2867946292" lon="10.5843839606">
		<tag k="alt_name" v="Bjøralt, vestre" />
		<tag k="fixme" v="consider place=hamlet" />
		<tag k="name" v="Vestre Bjøralt" />
		<tag k="place" v="farm" />
		<tag k="ssr:stedsnr" v="188844" />
	</node>
	<node id="-298308" lat="60.2856999968" lon="10.6823749929">
		<tag k="name" v="Orhagan" />
		<tag k="place" v="farm" />
		<tag k="ssr:stedsnr" v="188840" />
	</node>
	<node id="-298307" lat="60.2713888865" lon="10.6075611082">
		<tag k="name" v="Holmen" />
		<tag k="place" v="isolated_dwelling" />
		<tag k="ssr:stedsnr" v="188832" />
	</node>
	<node id="-298306" lat="60.2687777734" lon="10.6079583404">
		<tag k="alt_name" v="Molstad" />
		<tag k="name" v="Moldstad" />
		<tag k="place" v="isolated_dwelling" />
		<tag k="ssr:stedsnr" v="188829" />
	</node>
	<node id="-298305" lat="60.276705557" lon="10.6454777709">
		<tag k="alt_name" v="Rya, østre" />
		<tag k="name" v="Østre Rya" />
		<tag k="place" v="farm" />
		<tag k="ssr:stedsnr" v="188818" />
	</node>
	<node id="-298303" lat="60.2504680537" lon="10.6742494">
		<tag k="name" v="Randen" />
		<tag k="place" v="farm" />
		<tag k="ssr:stedsnr" v="188797" />
	</node>
	<node id="-298302" lat="60.246699997" lon="10.5470250001">
		<tag k="name" v="Elsevoll" />
		<tag k="place" v="isolated_dwelling" />
		<tag k="ssr:stedsnr" v="188475" />
	</node>
	<node id="-298300" lat="60.2822250006" lon="10.8154277812">
		<tag k="name" v="Leirsjøhytta" />
		<tag k="place" v="isolated_dwelling" />
		<tag k="ssr:stedsnr" v="188362" />
	</node>
	<node id="-298298" lat="60.1963333319" lon="10.73509166">
		<tag k="alt_name" v="Lauvlia" />
		<tag k="name" v="Nordre Lauvlia" />
		<tag k="place" v="isolated_dwelling" />
		<tag k="ssr:stedsnr" v="187743" />
	</node>
	<node id="-298297" lat="60.2239076126" lon="10.7084150784">
		<tag k="alt_name" v="Hanekne" />
		<tag k="fixme" v="consider place=hamlet" />
		<tag k="name" v="Hanakne" />
		<tag k="place" v="farm" />
		<tag k="ssr:stedsnr" v="187462" />
	</node>
	<node id="-298275" lat="60.2962999959" lon="10.6096861109">
		<tag k="name" v="Sand" />
		<tag k="place" v="isolated_dwelling" />
		<tag k="ssr:stedsnr" v="160784" />
	</node>
	<node id="-298263" lat="60.3179972186" lon="10.5941944385">
		<tag k="name" v="Nedre Kraggerud" />
		<tag k="place" v="farm" />
		<tag k="ssr:stedsnr" v="160038" />
	</node>
	<node id="-298260" lat="60.2793583322" lon="10.5415000054">
		<tag k="name" v="Sørenga" />
		<tag k="place" v="farm" />
		<tag k="ssr:stedsnr" v="153967" />
	</node>
	<node id="-298259" lat="60.2939999968" lon="10.5013138923">
		<tag k="name" v="Sundvoll" />
		<tag k="place" v="farm" />
		<tag k="ssr:stedsnr" v="153798" />
	</node>
	<node id="-298257" lat="60.289180559" lon="10.5737000078">
		<tag k="alt_name" v="Kalvsjøhagen" />
		<tag k="name" v="Kalvsjøhagan" />
		<tag k="place" v="farm" />
		<tag k="ssr:stedsnr" v="128821" />
	</node>
	<node id="-298256" lat="60.3225642882" lon="10.5163271529">
		<tag k="fixme" v="consider place=hamlet" />
		<tag k="name" v="Narverud" />
		<tag k="place" v="farm" />
		<tag k="ssr:stedsnr" v="127969" />
	</node>
	<node id="-298255" lat="60.2998466771" lon="10.4973820462">
		<tag k="fixme" v="consider place=hamlet" />
		<tag k="name" v="Norum" />
		<tag k="place" v="farm" />
		<tag k="ssr:stedsnr" v="127896" />
	</node>
	<node id="-298253" lat="60.2986555536" lon="10.5963500046">
		<tag k="name" v="Haug" />
		<tag k="place" v="farm" />
		<tag k="ssr:stedsnr" v="127883" />
	</node>
	<node id="-298252" lat="60.2772183094" lon="10.5624190032">
		<tag k="fixme" v="consider place=hamlet" />
		<tag k="name" v="Linstad" />
		<tag k="place" v="farm" />
		<tag k="ssr:stedsnr" v="127849" />
	</node>
	<node id="-298251" lat="60.2757750037" lon="10.5488805638">
		<tag k="fixme" v="consider place=hamlet" />
		<tag k="name" v="Delin" />
		<tag k="place" v="farm" />
		<tag k="ssr:stedsnr" v="127847" />
	</node>
	<node id="-298249" lat="60.2463638898" lon="10.5863138843">
		<tag k="alt_name" v="Myllisbråten" />
		<tag k="name" v="Myllsbråtan" />
		<tag k="place" v="farm" />
		<tag k="ssr:stedsnr" v="127452" />
	</node>
	<node id="-298247" lat="60.2614638921" lon="10.7848999958">
		<tag k="fixme" v="consider tourism=alpine_hut or tourism=chalet" />
		<tag k="name" v="Snellingen" />
		<tag k="ssr:stedsnr" v="127390" />
		<tag k="tourism" v="wilderness_hut" />
	</node>
	<node id="-298246" lat="60.3199972216" lon="10.7337444524">
		<tag k="name" v="Kampehytta" />
		<tag k="place" v="isolated_dwelling" />
		<tag k="ssr:stedsnr" v="127290" />
	</node>
	<node id="-298245" lat="60.1393972254" lon="10.644022225">
		<tag k="name" v="Kalven" />
		<tag k="place" v="farm" />
		<tag k="ssr:stedsnr" v="127101" />
	</node>
	<node id="-298240" lat="60.2100972226" lon="10.6760472149">
		<tag k="name" v="Høgli" />
		<tag k="place" v="farm" />
		<tag k="ssr:stedsnr" v="126448" />
	</node>
	<node id="-298236" lat="60.1657833331" lon="10.6692305516">
		<tag k="historic" v="shieling" />
		<tag k="name" v="Nysætra" />
		<tag k="place" v="locality" />
		<tag k="ssr:stedsnr" v="126020" />
	</node>
	<node id="-298231" lat="60.2650194431" lon="10.6644500024">
		<tag k="name" v="Grualia" />
		<tag k="place" v="neighbourhood" />
		<tag k="ssr:stedsnr" v="101762" />
	</node>
	<node id="-298223" lat="60.2461361112" lon="10.6971222265">
		<tag k="name" v="Rundelshagen" />
		<tag k="place" v="isolated_dwelling" />
		<tag k="ssr:stedsnr" v="101291" />
	</node>
	<node id="-298220" lat="60.2920888915" lon="10.6904333392">
		<tag k="name" v="Olstad" />
		<tag k="place" v="isolated_dwelling" />
		<tag k="ssr:stedsnr" v="100924" />
	</node>
	<node id="-298219" lat="60.3041667457" lon="10.6277878">
		<tag k="fixme" v="consider place=hamlet" />
		<tag k="name" v="Øvre Løyken" />
		<tag k="old_name" v="Øvre Løkken" />
		<tag k="place" v="farm" />
		<tag k="ssr:stedsnr" v="100771" />
	</node>
	<node id="-298213" lat="60.2129999978" lon="10.7054444523">
		<tag k="name" v="Kvernhuset" />
		<tag k="place" v="isolated_dwelling" />
		<tag k="ssr:stedsnr" v="100391" />
	</node>
	<node id="-298212" lat="60.2334719489" lon="10.7035886535">
		<tag k="fixme" v="consider place=hamlet" />
		<tag k="name" v="Sletta" />
		<tag k="place" v="farm" />
		<tag k="ssr:stedsnr" v="100333" />
	</node>
	<node id="-298210" lat="60.2434166665" lon="10.5988194435">
		<tag k="fixme" v="consider tourism=alpine_hut or tourism=chalet" />
		<tag k="name" v="Mylla sportsstue" />
		<tag k="ssr:stedsnr" v="100101" />
		<tag k="tourism" v="wilderness_hut" />
	</node>
	<node id="-298207" lat="60.3140944454" lon="10.5635972222">
		<tag k="name" v="Vestre Flatla" />
		<tag k="place" v="farm" />
		<tag k="ssr:stedsnr" v="100047" />
	</node>
	<node id="-298202" lat="60.3142444402" lon="10.5414694424">
		<tag k="name" v="Søvang" />
		<tag k="place" v="farm" />
		<tag k="ssr:stedsnr" v="91810" />
	</node>
	<node id="-298201" lat="60.3075638851" lon="10.6484694433">
		<tag k="name" v="Stumne" />
		<tag k="place" v="farm" />
		<tag k="ssr:stedsnr" v="90343" />
	</node>
	<node id="-298198" lat="60.3097861111" lon="10.615263892">
		<tag k="alt_name" v="Råstad" />
		<tag k="name" v="Søndre Råstad" />
		<tag k="place" v="farm" />
		<tag k="ssr:stedsnr" v="90242" />
	</node>
	<node id="-298197" lat="60.3220166664" lon="10.6407972299">
		<tag k="name" v="Søndre Brokerud" />
		<tag k="place" v="farm" />
		<tag k="ssr:stedsnr" v="90239" />
	</node>
	<node id="-298195" lat="60.2758583325" lon="10.6406611146">
		<tag k="alt_name" v="Rya, s;Rya" />
		<tag k="name" v="Søndre Rya" />
		<tag k="place" v="farm" />
		<tag k="ssr:stedsnr" v="67793" />
	</node>
	<node id="-298194" lat="60.2787555576" lon="10.6571277716">
		<tag k="name" v="Nerenga" />
		<tag k="place" v="farm" />
		<tag k="ssr:stedsnr" v="67792" />
	</node>
	<node id="-298192" lat="60.258088888" lon="10.6024444387">
		<tag k="name" v="Svesvollen" />
		<tag k="place" v="farm" />
		<tag k="ssr:stedsnr" v="67760" />
	</node>
	<node id="-298189" lat="60.3017694463" lon="10.5864083387">
		<tag k="alt_name" v="Kjørrven, nedre;Kjørven" />
		<tag k="name" v="Nedre Kjørrven" />
		<tag k="place" v="farm" />
		<tag k="ssr:stedsnr" v="67894" />
	</node>
	<node id="-298187" lat="60.3050027804" lon="10.4888277761">
		<tag k="alt_name" v="Løyken, øvre;Løken" />
		<tag k="name" v="Øvre Løyken" />
		<tag k="place" v="farm" />
		<tag k="ssr:stedsnr" v="67884" />
	</node>
	<node id="-298186" lat="60.2927138877" lon="10.6409194497">
		<tag k="name" v="Frøyslund" />
		<tag k="place" v="farm" />
		<tag k="ssr:stedsnr" v="67873" />
	</node>
	<node id="-298185" lat="60.2925784605" lon="10.6441430153">
		<tag k="name" v="Hovland" />
		<tag k="place" v="hamlet" />
		<tag k="ssr:stedsnr" v="67872" />
	</node>
	<node id="-298184" lat="60.297712264" lon="10.6161073338">
		<tag k="alt_name" v="Stubbhytta" />
		<tag k="fixme" v="consider place=hamlet" />
		<tag k="name" v="Hytta" />
		<tag k="place" v="farm" />
		<tag k="ssr:stedsnr" v="67871" />
	</node>
	<node id="-298183" lat="60.2936638897" lon="10.4815250022">
		<tag k="name" v="Steinerud" />
		<tag k="place" v="farm" />
		<tag k="ssr:stedsnr" v="67864" />
	</node>
	<node id="-298181" lat="60.2952187277" lon="10.5615963424">
		<tag k="name" v="Skøyen" />
		<tag k="place" v="hamlet" />
		<tag k="ssr:stedsnr" v="67856" />
	</node>
	<node id="-298180" lat="60.2969918301" lon="10.5172254374">
		<tag k="fixme" v="consider place=hamlet" />
		<tag k="name" v="Jordet" />
		<tag k="place" v="farm" />
		<tag k="ssr:stedsnr" v="67853" />
	</node>
	<node id="-298177" lat="60.3129583368" lon="10.526422216">
		<tag k="alt_name" v="Grina" />
		<tag k="name" v="Grinda" />
		<tag k="place" v="farm" />
		<tag k="ssr:stedsnr" v="66926" />
	</node>
	<node id="-298176" lat="60.3109694483" lon="10.5054138808">
		<tag k="name" v="Eriksrud" />
		<tag k="place" v="isolated_dwelling" />
		<tag k="ssr:stedsnr" v="66916" />
	</node>
	<node id="-298171" lat="60.2487055574" lon="10.5520333311">
		<tag k="name" v="Brattvoll" />
		<tag k="place" v="isolated_dwelling" />
		<tag k="ssr:stedsnr" v="66396" />
	</node>
	<node id="-298161" lat="60.3276333325" lon="10.709547227">
		<tag k="name" v="Søndre Tangen" />
		<tag k="place" v="isolated_dwelling" />
		<tag k="ssr:stedsnr" v="39943" />
	</node>
	<node id="-298160" lat="60.3019388931" lon="10.6749944403">
		<tag k="name" v="Hagan" />
		<tag k="place" v="isolated_dwelling" />
		<tag k="ssr:stedsnr" v="39926" />
	</node>
	<node id="-298154" lat="60.2841388914" lon="10.6787500068">
		<tag k="name" v="Nordre Munkerud" />
		<tag k="place" v="farm" />
		<tag k="ssr:stedsnr" v="39199" />
	</node>
	<node id="-298153" lat="60.2111999957" lon="10.6835305616">
		<tag k="name" v="Myra" />
		<tag k="place" v="farm" />
		<tag k="ssr:stedsnr" v="39337" />
	</node>
	<node id="-298151" lat="60.321386109" lon="10.5733694388">
		<tag k="name" v="Helgeland" />
		<tag k="place" v="farm" />
		<tag k="ssr:stedsnr" v="39047" />
	</node>
	<node id="-298147" lat="60.302391413" lon="10.5258245659">
		<tag k="fixme" v="consider place=hamlet" />
		<tag k="name" v="Kjellstad" />
		<tag k="place" v="farm" />
		<tag k="ssr:stedsnr" v="32735" />
	</node>
	<node id="-298145" lat="60.3090472252" lon="10.5050277825">
		<tag k="name" v="Heggen" />
		<tag k="place" v="farm" />
		<tag k="ssr:stedsnr" v="30362" />
	</node>
	<node id="-298143" lat="60.3134888914" lon="10.4689750085">
		<tag k="name" v="Tjernslia" />
		<tag k="place" v="locality" />
		<tag k="ssr:stedsnr" v="29174" />
	</node>
	<node id="-298142" lat="60.314469837" lon="10.4808070201">
		<tag k="fixme" v="consider place=hamlet" />
		<tag k="name" v="Oren" />
		<tag k="place" v="farm" />
		<tag k="ssr:stedsnr" v="29173" />
	</node>
	<node id="-298140" lat="60.3186555523" lon="10.5186805602">
		<tag k="name" v="Korsrud" />
		<tag k="place" v="farm" />
		<tag k="ssr:stedsnr" v="6975" />
	</node>
	<node id="-298139" lat="60.2979425224" lon="10.6347961192">
		<tag k="fixme" v="consider place=hamlet" />
		<tag k="name" v="Melås" />
		<tag k="place" v="farm" />
		<tag k="ssr:stedsnr" v="6880" />
	</node>
	<node id="-298138" lat="60.2734666642" lon="10.6755583389">
		<tag k="name" v="Jensrud" />
		<tag k="place" v="farm" />
		<tag k="ssr:stedsnr" v="6800" />
	</node>
	<node id="-298136" lat="60.2592833297" lon="10.5593055563">
		<tag k="name" v="Volla" />
		<tag k="place" v="farm" />
		<tag k="ssr:stedsnr" v="6772" />
	</node>
	<node id="-298133" lat="60.2792888911" lon="10.6194194383">
		<tag k="name" v="Frågått" />
		<tag k="place" v="farm" />
		<tag k="ssr:stedsnr" v="6677" />
	</node>
	<node id="-298130" lat="60.2245583333" lon="10.7608999972">
		<tag k="historic" v="shieling" />
		<tag k="name" v="Morstadsæter" />
		<tag k="place" v="locality" />
		<tag k="ssr:stedsnr" v="5834" />
	</node>
	<node id="-298128" lat="60.2290277763" lon="10.6906916634">
		<tag k="alt_name" v="Gulliksrud" />
		<tag k="historic" v="shieling" />
		<tag k="name" v="Gulleiksrud" />
		<tag k="place" v="locality" />
		<tag k="ssr:stedsnr" v="5459" />
	</node>
	<node id="-298127" lat="60.2273361069" lon="10.5687083364">
		<tag k="alt_name" v="Åssjøsætra;Ålsjøseter" />
		<tag k="historic" v="shieling" />
		<tag k="name" v="Ålsjøsætra" />
		<tag k="old_name" v="Åsjøseter;Aalsjö Sr" />
		<tag k="place" v="locality" />
		<tag k="ssr:stedsnr" v="5457" />
	</node>
	<node id="-298122" lat="60.1934083293" lon="10.6792750061">
		<tag k="alt_name" v="Sørli" />
		<tag k="name" v="Nedre Sørli" />
		<tag k="place" v="farm" />
		<tag k="ssr:stedsnr" v="5037" />
	</node>
	<node id="-298117" lat="60.3095583329" lon="10.739350006">
		<tag k="name" v="Kampesetra" />
		<tag k="place" v="locality" />
		<tag k="ssr:stedsnr" v="962916" />
	</node>
	<node id="-298110" lat="60.2306583358" lon="10.7686000029">
		<tag k="name" v="Skotjernshytta" />
		<tag k="place" v="isolated_dwelling" />
		<tag k="ssr:stedsnr" v="949422" />
	</node>
	<node id="-298106" lat="60.2457388873" lon="10.5793111079">
		<tag k="name" v="Storskogen" />
		<tag k="place" v="isolated_dwelling" />
		<tag k="ssr:stedsnr" v="949116" />
	</node>
	<node id="-298105" lat="60.283608332" lon="10.670947228">
		<tag k="name" v="Munkerud" />
		<tag k="place" v="farm" />
		<tag k="ssr:stedsnr" v="917813" />
	</node>
	<node id="-298104" lat="60.2800916681" lon="10.6428555547">
		<tag k="name" v="Lauvlia" />
		<tag k="place" v="isolated_dwelling" />
		<tag k="ssr:stedsnr" v="917804" />
	</node>
	<node id="-298102" lat="60.3027958148" lon="10.6352487498">
		<tag k="fixme" v="consider place=hamlet" />
		<tag k="name" v="Bråstad" />
		<tag k="place" v="farm" />
		<tag k="ssr:stedsnr" v="916922" />
	</node>
	<node id="-298099" lat="60.2932611135" lon="10.5403194462">
		<tag k="alt_name" v="Askilsrud, øvre" />
		<tag k="name" v="Øvre Askilsrud" />
		<tag k="old_name" v="Akselsrud" />
		<tag k="place" v="farm" />
		<tag k="ssr:stedsnr" v="916861" />
	</node>
	<node id="-298098" lat="60.2712472247" lon="10.6300305476">
		<tag k="alt_name" v="Inngjerdingen" />
		<tag k="name" v="Inngjerdinga" />
		<tag k="place" v="isolated_dwelling" />
		<tag k="ssr:stedsnr" v="916815" />
	</node>
	<node id="-298097" lat="60.2757638911" lon="10.6091249952">
		<tag k="name" v="Granum" />
		<tag k="place" v="farm" />
		<tag k="ssr:stedsnr" v="916808" />
	</node>
	<node id="-298096" lat="60.2481805537" lon="10.6842833325">
		<tag k="name" v="Sørås" />
		<tag k="place" v="farm" />
		<tag k="ssr:stedsnr" v="916418" />
	</node>
	<node id="-298094" lat="60.2374742731" lon="10.7314409662">
		<tag k="fixme" v="consider place=hamlet" />
		<tag k="name" v="Arnedal" />
		<tag k="place" v="farm" />
		<tag k="ssr:stedsnr" v="915824" />
	</node>
	<node id="-298092" lat="60.2296500009" lon="10.6072361194">
		<tag k="fixme" v="consider tourism=alpine_hut or tourism=chalet" />
		<tag k="name" v="Bislingen Fjellstue" />
		<tag k="ssr:stedsnr" v="915374" />
		<tag k="tourism" v="wilderness_hut" />
	</node>
	<node id="-298089" lat="60.2649277771" lon="10.799430551">
		<tag k="name" v="Snellingskverna" />
		<tag k="place" v="locality" />
		<tag k="ssr:stedsnr" v="890503" />
	</node>
	<node id="-298087" lat="60.2895361069" lon="10.6265611136">
		<tag k="name" v="Frøysli" />
		<tag k="place" v="farm" />
		<tag k="ssr:stedsnr" v="889815" />
	</node>
	<node id="-298086" lat="60.2875277805" lon="10.6626333377">
		<tag k="name" v="Håkenstad" />
		<tag k="place" v="farm" />
		<tag k="ssr:stedsnr" v="889814" />
	</node>
	<node id="-298084" lat="60.309322221" lon="10.6687444427">
		<tag k="name" v="Mørtveit" />
		<tag k="place" v="farm" />
		<tag k="ssr:stedsnr" v="949937" />
	</node>
	<node id="-298083" lat="60.3055638909" lon="10.6259361189">
		<tag k="name" v="Bakken" />
		<tag k="place" v="farm" />
		<tag k="ssr:stedsnr" v="949784" />
	</node>
	<node id="-298082" lat="60.2064194401" lon="10.6939777809">
		<tag k="name" v="Tangen" />
		<tag k="place" v="isolated_dwelling" />
		<tag k="ssr:stedsnr" v="949342" />
	</node>
	<node id="-298081" lat="60.2608250042" lon="10.5972888897">
		<tag k="name" v="Brattlia" />
		<tag k="place" v="neighbourhood" />
		<tag k="ssr:stedsnr" v="949097" />
	</node>
	<node id="-298079" lat="60.2948564793" lon="10.5655264193">
		<tag k="fixme" v="consider place=hamlet" />
		<tag k="name" v="Østre Skøyen" />
		<tag k="place" v="farm" />
		<tag k="ssr:stedsnr" v="949084" />
	</node>
	<node id="-298077" lat="60.2836555542" lon="10.5599666683">
		<tag k="name" v="Håvelsrud" />
		<tag k="place" v="farm" />
		<tag k="ssr:stedsnr" v="949070" />
	</node>
	<node id="-298074" lat="60.2769692869" lon="10.6206081535">
		<tag k="fixme" v="consider place=hamlet" />
		<tag k="name" v="Frågått" />
		<tag k="place" v="farm" />
		<tag k="ssr:stedsnr" v="856806" />
	</node>
	<node id="-298071" lat="60.2972361099" lon="10.7812888798">
		<tag k="name" v="Surka" />
		<tag k="old_name" v="Sorka" />
		<tag k="place" v="isolated_dwelling" />
		<tag k="ssr:stedsnr" v="856324" />
	</node>
	<node id="-298068" lat="60.2327530289" lon="10.7120841432">
		<tag k="name" v="Dal" />
		<tag k="place" v="farm" />
		<tag k="ssr:stedsnr" v="855460" />
	</node>
	<node id="-298067" lat="60.2087393721" lon="10.6928238742">
		<tag k="name" v="Kloppa" />
		<tag k="place" v="locality" />
		<tag k="ssr:stedsnr" v="855427" />
	</node>
	<node id="-298061" lat="60.3068333338" lon="10.6596861027">
		<tag k="alt_name" v="Mørtveit" />
		<tag k="name" v="Mørtveiten" />
		<tag k="place" v="farm" />
		<tag k="ssr:stedsnr" v="940363" />
	</node>
	<node id="-298058" lat="60.2187722182" lon="10.7265666581">
		<tag k="name" v="Myrvoll" />
		<tag k="place" v="farm" />
		<tag k="ssr:stedsnr" v="830503" />
	</node>
	<node id="-298057" lat="60.2993441254" lon="10.5271353653">
		<tag k="fixme" v="consider place=hamlet" />
		<tag k="name" v="Østre Ballangrud" />
		<tag k="place" v="farm" />
		<tag k="ssr:stedsnr" v="821763" />
	</node>
	<node id="-298056" lat="60.298214329" lon="10.5008927624">
		<tag k="name" v="Ulven" />
		<tag k="place" v="hamlet" />
		<tag k="ssr:stedsnr" v="795850" />
	</node>
	<node id="-298055" lat="60.2990596245" lon="10.5130300124">
		<tag k="name" v="Ballangrud" />
		<tag k="place" v="hamlet" />
		<tag k="ssr:stedsnr" v="795847" />
	</node>
	<node id="-298054" lat="60.2796249976" lon="10.5518361099">
		<tag k="name" v="Kjølset" />
		<tag k="place" v="farm" />
		<tag k="ssr:stedsnr" v="795834" />
	</node>
	<node id="-298053" lat="60.278000003" lon="10.5464000013">
		<tag k="name" v="Sørenga" />
		<tag k="place" v="farm" />
		<tag k="ssr:stedsnr" v="795832" />
	</node>
	<node id="-298052" lat="60.2788388894" lon="10.5869194454">
		<tag k="alt_name" v="Oppen, øvre" />
		<tag k="name" v="Øvre Oppen" />
		<tag k="place" v="farm" />
		<tag k="ssr:stedsnr" v="795831" />
	</node>
	<node id="-298051" lat="60.2882858422" lon="10.6334131812">
		<tag k="alt_name" v="Vestre Hovland" />
		<tag k="fixme" v="consider place=hamlet" />
		<tag k="name" v="Hovland" />
		<tag k="place" v="farm" />
		<tag k="ssr:stedsnr" v="795811" />
	</node>
	<node id="-298050" lat="60.2867326822" lon="10.651876672">
		<tag k="name" v="Løvoll" />
		<tag k="place" v="farm" />
		<tag k="ssr:stedsnr" v="795810" />
	</node>
	<node id="-298049" lat="60.17961111" lon="10.7446361134">
		<tag k="historic" v="shieling" />
		<tag k="name" v="Rudsæter" />
		<tag k="place" v="locality" />
		<tag k="ssr:stedsnr" v="794787" />
	</node>
	<node id="-298045" lat="60.2456333378" lon="10.5990027774">
		<tag k="alt_name" v="Beltern" />
		<tag k="name" v="Belteren" />
		<tag k="place" v="farm" />
		<tag k="ssr:stedsnr" v="794363" />
	</node>
	<node id="-298043" lat="60.2078395824" lon="10.7132924506">
		<tag k="fixme" v="consider place=hamlet" />
		<tag k="name" v="Harestua" />
		<tag k="place" v="farm" />
		<tag k="ssr:stedsnr" v="794446" />
	</node>
	<node id="-298038" lat="60.1926333348" lon="10.6687361126">
		<tag k="name" v="Holoa" />
		<tag k="place" v="isolated_dwelling" />
		<tag k="ssr:stedsnr" v="794043" />
	</node>
	<node id="-298037" lat="60.3249444464" lon="10.5546027733">
		<tag k="name" v="Nerby" />
		<tag k="place" v="farm" />
		<tag k="ssr:stedsnr" v="917898" />
	</node>
	<node id="-298034" lat="60.2503138916" lon="10.6380999938">
		<tag k="alt_name" v="Godli, øvre;Godli" />
		<tag k="name" v="Øvre Godli" />
		<tag k="place" v="farm" />
		<tag k="ssr:stedsnr" v="916791" />
	</node>
	<node id="-298033" lat="60.2566166643" lon="10.6447555606">
		<tag k="name" v="Mutta" />
		<tag k="place" v="farm" />
		<tag k="ssr:stedsnr" v="916776" />
	</node>
	<node id="-298032" lat="60.2570083346" lon="10.6622166594">
		<tag k="name" v="Grua" />
		<tag k="place" v="village" />
		<tag k="ssr:stedsnr" v="916775" />
	</node>
	<node id="-298029" lat="60.2999694448" lon="10.7468138944">
		<tag k="alt_name" v="Minnestusetra" />
		<tag k="historic" v="shieling" />
		<tag k="name" v="Minnestua" />
		<tag k="place" v="locality" />
		<tag k="ssr:stedsnr" v="916323" />
	</node>
	<node id="-298023" lat="60.2675055555" lon="10.6645305588">
		<tag k="name" v="Kleiva" />
		<tag k="place" v="isolated_dwelling" />
		<tag k="ssr:stedsnr" v="768293" />
	</node>
	<node id="-298022" lat="60.2661138865" lon="10.6650749958">
		<tag k="name" v="Kleivenga" />
		<tag k="place" v="isolated_dwelling" />
		<tag k="ssr:stedsnr" v="768291" />
	</node>
	<node id="-298014" lat="60.2762333298" lon="10.6227055474">
		<tag k="name" v="Frågått" />
		<tag k="place" v="farm" />
		<tag k="ssr:stedsnr" v="891452" />
	</node>
	<node id="-298013" lat="60.3092811566" lon="10.6149785744">
		<tag k="name" v="Råstad" />
		<tag k="place" v="hamlet" />
		<tag k="ssr:stedsnr" v="891447" />
	</node>
	<node id="-298012" lat="60.2574749991" lon="10.7250194372">
		<tag k="name" v="Korsvatnhytta" />
		<tag k="place" v="isolated_dwelling" />
		<tag k="ssr:stedsnr" v="890569" />
	</node>
	<node id="-298008" lat="60.244574997" lon="10.7028111162">
		<tag k="name" v="Botnet" />
		<tag k="place" v="farm" />
		<tag k="ssr:stedsnr" v="890311" />
	</node>
	<node id="-298005" lat="60.2743040657" lon="10.5434209895">
		<tag k="fixme" v="consider place=hamlet" />
		<tag k="name" v="Holt" />
		<tag k="place" v="farm" />
		<tag k="ssr:stedsnr" v="699961" />
	</node>
	<node id="-297997" lat="60.2402388854" lon="10.6980277795">
		<tag k="name" v="Bekkestua" />
		<tag k="place" v="isolated_dwelling" />
		<tag k="ssr:stedsnr" v="889353" />
	</node>
	<node id="-297996" lat="60.2916277772" lon="10.6155444534">
		<tag k="amenity" v="school" />
		<tag k="name" v="Frøystad skole" />
		<tag k="ssr:stedsnr" v="889818" />
	</node>
	<node id="-297993" lat="60.2770833307" lon="10.665108341">
		<tag k="name" v="Strand" />
		<tag k="place" v="farm" />
		<tag k="ssr:stedsnr" v="889255" />
	</node>
	<node id="-297992" lat="60.2760972228" lon="10.6721416611">
		<tag k="name" v="Logna" />
		<tag k="place" v="isolated_dwelling" />
		<tag k="ssr:stedsnr" v="889251" />
	</node>
	<node id="-297990" lat="60.306597219" lon="10.5535944375">
		<tag k="name" v="Lunner" />
		<tag k="place" v="farm" />
		<tag k="ssr:stedsnr" v="889065" />
	</node>
	<node id="-297984" lat="60.1625361078" lon="10.5790444477">
		<tag k="name" v="Katnossetra" />
		<tag k="place" v="locality" />
		<tag k="ssr:stedsnr" v="882829" />
	</node>
	<node id="-297983" lat="60.29645079" lon="10.5106911232">
		<tag k="fixme" v="consider place=hamlet" />
		<tag k="name" v="Søndre Ballangrud" />
		<tag k="place" v="farm" />
		<tag k="ssr:stedsnr" v="882676" />
	</node>
	<node id="-297982" lat="60.2838611106" lon="10.5487916663">
		<tag k="name" v="Nygard" />
		<tag k="place" v="farm" />
		<tag k="ssr:stedsnr" v="674817" />
	</node>
	<node id="-297981" lat="60.308769446" lon="10.657744443">
		<tag k="name" v="Søbo" />
		<tag k="place" v="farm" />
		<tag k="ssr:stedsnr" v="879377" />
	</node>
	<node id="-297977" lat="60.323561107" lon="10.5365666598">
		<tag k="name" v="Øyskog" />
		<tag k="place" v="farm" />
		<tag k="ssr:stedsnr" v="734908" />
	</node>
	<node id="-297976" lat="60.3206910128" lon="10.5775607711">
		<tag k="fixme" v="consider place=hamlet" />
		<tag k="name" v="Helgeland" />
		<tag k="place" v="farm" />
		<tag k="ssr:stedsnr" v="734903" />
	</node>
	<node id="-297975" lat="60.3013999439" lon="10.5747036281">
		<tag k="alt_name" v="Kjørven" />
		<tag k="fixme" v="consider place=hamlet" />
		<tag k="name" v="Kjørrven" />
		<tag k="place" v="farm" />
		<tag k="ssr:stedsnr" v="734892" />
	</node>
	<node id="-297974" lat="60.3029083306" lon="10.4888027734">
		<tag k="alt_name" v="Løyken, nedre;Løken" />
		<tag k="name" v="Nedre Løyken" />
		<tag k="place" v="farm" />
		<tag k="ssr:stedsnr" v="734882" />
	</node>
	<node id="-297973" lat="60.3019361103" lon="10.502977786">
		<tag k="alt_name" v="Vestre Bolken" />
		<tag k="name" v="Bolken" />
		<tag k="place" v="farm" />
		<tag k="ssr:stedsnr" v="734874" />
	</node>
	<node id="-297972" lat="60.3113611135" lon="10.6715805506">
		<tag k="name" v="Larshus" />
		<tag k="place" v="isolated_dwelling" />
		<tag k="ssr:stedsnr" v="734872" />
	</node>
	<node id="-297971" lat="60.2203166696" lon="10.7252749965">
		<tag k="alt_name" v="Viubråten" />
		<tag k="fixme" v="consider tourism=alpine_hut or tourism=chalet" />
		<tag k="name" v="Viubråtan" />
		<tag k="ssr:stedsnr" v="734855" />
		<tag k="tourism" v="wilderness_hut" />
	</node>
	<node id="-297970" lat="60.295680359" lon="10.514130038">
		<tag k="fixme" v="consider place=hamlet" />
		<tag k="name" v="Bekken" />
		<tag k="place" v="farm" />
		<tag k="ssr:stedsnr" v="734839" />
	</node>
	<node id="-297968" lat="60.2836666658" lon="10.6820861124">
		<tag k="name" v="Bråtån" />
		<tag k="place" v="farm" />
		<tag k="ssr:stedsnr" v="734817" />
	</node>
	<node id="-297967" lat="60.2880933473" lon="10.6534627853">
		<tag k="fixme" v="consider place=hamlet" />
		<tag k="name" v="Håkenstad" />
		<tag k="place" v="farm" />
		<tag k="ssr:stedsnr" v="734812" />
	</node>
	<node id="-297965" lat="60.3174680753" lon="10.6552018458">
		<tag k="fixme" v="consider place=hamlet" />
		<tag k="name" v="Lia" />
		<tag k="place" v="farm" />
		<tag k="ssr:stedsnr" v="734682" />
	</node>
	<node id="-297963" lat="60.24740768" lon="10.6424373192">
		<tag k="fixme" v="consider place=hamlet" />
		<tag k="name" v="Godli" />
		<tag k="place" v="farm" />
		<tag k="ssr:stedsnr" v="734429" />
	</node>
	<node id="-297960" lat="60.2741500014" lon="10.7192249976">
		<tag k="name" v="Flåtasæter" />
		<tag k="place" v="isolated_dwelling" />
		<tag k="ssr:stedsnr" v="734363" />
	</node>
	<node id="-297956" lat="60.1925194473" lon="10.733755556">
		<tag k="name" v="Søndre Lauvlia" />
		<tag k="place" v="isolated_dwelling" />
		<tag k="ssr:stedsnr" v="645663" />
	</node>
	<node id="-297951" lat="60.2115222247" lon="10.6795444371">
		<tag k="name" v="Røysa" />
		<tag k="place" v="farm" />
		<tag k="ssr:stedsnr" v="733417" />
	</node>
	<node id="-297950" lat="60.2440946831" lon="10.6921840658">
		<tag k="fixme" v="consider place=hamlet" />
		<tag k="name" v="Rundelen" />
		<tag k="place" v="farm" />
		<tag k="ssr:stedsnr" v="733379" />
	</node>
	<node id="-297945" lat="60.3054972233" lon="10.4909416672">
		<tag k="amenity" v="school" />
		<tag k="name" v="Løken skole" />
		<tag k="ssr:stedsnr" v="638763" />
	</node>
	<node id="-297944" lat="60.2878555529" lon="10.5524249911">
		<tag k="alt_name" v="Skøyen" />
		<tag k="name" v="Skøyenenga" />
		<tag k="place" v="farm" />
		<tag k="ssr:stedsnr" v="613819" />
	</node>
	<node id="-297943" lat="60.2890111096" lon="10.6498388831">
		<tag k="fixme" v="consider place=hamlet" />
		<tag k="name" v="Søndre Oppdalen" />
		<tag k="place" v="village" />
		<tag k="ssr:stedsnr" v="613809" />
	</node>
	<node id="-297942" lat="60.2811055548" lon="10.6691861121">
		<tag k="alt_name" v="Tveita nordre" />
		<tag k="name" v="Nordre Tveita" />
		<tag k="old_name" v="Sandsæter" />
		<tag k="place" v="farm" />
		<tag k="ssr:stedsnr" v="613807" />
	</node>
	<node id="-297941" lat="60.2902749979" lon="10.6048333342">
		<tag k="name" v="Bjøraltbråtån" />
		<tag k="place" v="farm" />
		<tag k="ssr:stedsnr" v="613804" />
	</node>
	<node id="-297940" lat="60.2785706212" lon="10.5948069848">
		<tag k="fixme" v="consider place=hamlet" />
		<tag k="name" v="Oppen" />
		<tag k="place" v="farm" />
		<tag k="ssr:stedsnr" v="612831" />
	</node>
	<node id="-297939" lat="60.2538972196" lon="10.5640527728">
		<tag k="name" v="Putthaug" />
		<tag k="place" v="farm" />
		<tag k="ssr:stedsnr" v="612771" />
	</node>
	<node id="-297938" lat="60.2523222183" lon="10.6716361085">
		<tag k="alt_name" v="Ødegården" />
		<tag k="name" v="Øgarden" />
		<tag k="place" v="farm" />
		<tag k="ssr:stedsnr" v="612770" />
	</node>
	<node id="-297937" lat="60.2529555533" lon="10.6474888889">
		<tag k="name" v="Larshus" />
		<tag k="place" v="farm" />
		<tag k="ssr:stedsnr" v="612769" />
	</node>
	<node id="-297935" lat="60.2584833363" lon="10.6659166718">
		<tag k="name" v="Austhagan" />
		<tag k="place" v="isolated_dwelling" />
		<tag k="ssr:stedsnr" v="612753" />
	</node>
	<node id="-297931" lat="60.1729555598" lon="10.6152388963">
		<tag k="historic" v="shieling" />
		<tag k="name" v="Båhussætra" />
		<tag k="place" v="locality" />
		<tag k="ssr:stedsnr" v="612030" />
	</node>
	<node id="-297920" lat="60.2528722231" lon="10.6582722221">
		<tag k="name" v="Granly" />
		<tag k="place" v="locality" />
		<tag k="ssr:stedsnr" v="586314" />
	</node>
	<node id="-297914" lat="60.2966194418" lon="10.5569000011">
		<tag k="amenity" v="school" />
		<tag k="name" v="Lunner barneskole" />
		<tag k="old_name" v="Solheim off. skole" />
		<tag k="ssr:stedsnr" v="585100" />
	</node>
	<node id="-297913" lat="60.3111861117" lon="10.5867138951">
		<tag k="name" v="Myrstua" />
		<tag k="place" v="isolated_dwelling" />
		<tag k="ssr:stedsnr" v="585068" />
	</node>
	<node id="-297911" lat="60.2607583315" lon="10.5758500001">
		<tag k="name" v="Lunnerhytta" />
		<tag k="place" v="isolated_dwelling" />
		<tag k="ssr:stedsnr" v="585116" />
	</node>
	<node id="-297910" lat="60.2605277791" lon="10.5543027762">
		<tag k="name" v="Vestre Volla" />
		<tag k="place" v="farm" />
		<tag k="ssr:stedsnr" v="585114" />
	</node>
	<node id="-297904" lat="60.2236861146" lon="10.7584666584">
		<tag k="historic" v="shieling" />
		<tag k="name" v="Søndre Morstadsetra" />
		<tag k="place" v="locality" />
		<tag k="ssr:stedsnr" v="708515" />
	</node>
	<node id="-297901" lat="60.2602805538" lon="10.6101361035">
		<tag k="amenity" v="school" />
		<tag k="name" v="Nordstand skole" />
		<tag k="ssr:stedsnr" v="708314" />
	</node>
	<node id="-297899" lat="60.2603555574" lon="10.61309722">
		<tag k="name" v="Allmenningsgrinna" />
		<tag k="place" v="quarter" />
		<tag k="ssr:stedsnr" v="708308" />
	</node>
	<node id="-297896" lat="60.3179060042" lon="10.5200866078">
		<tag k="fixme" v="consider place=hamlet" />
		<tag k="name" v="Korsrud" />
		<tag k="place" v="farm" />
		<tag k="ssr:stedsnr" v="576075" />
	</node>
	<node id="-297895" lat="60.2949694467" lon="10.6073777715">
		<tag k="name" v="Sandberg" />
		<tag k="place" v="farm" />
		<tag k="ssr:stedsnr" v="706800" />
	</node>
	<node id="-297891" lat="60.1930055582" lon="10.6411361147">
		<tag k="name" v="Fjellsjøhytta" />
		<tag k="place" v="isolated_dwelling" />
		<tag k="ssr:stedsnr" v="706423" />
	</node>
	<node id="-297889" lat="60.2159027817" lon="10.6806388896">
		<tag k="name" v="Jonsrud" />
		<tag k="place" v="isolated_dwelling" />
		<tag k="ssr:stedsnr" v="706369" />
	</node>
	<node id="-297888" lat="60.2169805555" lon="10.6790333296">
		<tag k="name" v="Granås" />
		<tag k="place" v="isolated_dwelling" />
		<tag k="ssr:stedsnr" v="706363" />
	</node>
	<node id="-297887" lat="60.2755305559" lon="10.6975500001">
		<tag k="name" v="Østbyhytta" />
		<tag k="place" v="isolated_dwelling" />
		<tag k="ssr:stedsnr" v="706235" />
	</node>
	<node id="-297884" lat="60.2480000038" lon="10.5489305502">
		<tag k="name" v="Brattholthytta" />
		<tag k="place" v="isolated_dwelling" />
		<tag k="ssr:stedsnr" v="706077" />
	</node>
	<node id="-297882" lat="60.3145749982" lon="10.5666361191">
		<tag k="name" v="Granli" />
		<tag k="place" v="isolated_dwelling" />
		<tag k="ssr:stedsnr" v="706045" />
	</node>
	<node id="-297881" lat="60.317008331" lon="10.5857305511">
		<tag k="building" v="industrial" />
		<tag k="name" v="Flatla mølle" />
		<tag k="ssr:stedsnr" v="706040" />
	</node>
	<node id="-297880" lat="60.3064444407" lon="10.5477166724">
		<tag k="name" v="Lunner" />
		<tag k="place" v="farm" />
		<tag k="ssr:stedsnr" v="706037" />
	</node>
	<node id="-297876" lat="60.2582583363" lon="10.5419583412">
		<tag k="name" v="Løkenhytta" />
		<tag k="place" v="isolated_dwelling" />
		<tag k="ssr:stedsnr" v="699924" />
	</node>
	<node id="-297874" lat="60.2943277799" lon="10.4986166587">
		<tag k="name" v="Søndre Ulven" />
		<tag k="place" v="farm" />
		<tag k="ssr:stedsnr" v="699745" />
	</node>
	<node id="-297873" lat="60.302517943" lon="10.5102263309">
		<tag k="fixme" v="consider place=hamlet" />
		<tag k="name" v="Bolken" />
		<tag k="place" v="farm" />
		<tag k="ssr:stedsnr" v="699742" />
	</node>
	<node id="-297872" lat="60.3017194402" lon="10.5169444469">
		<tag k="name" v="Nordre Ballangrud" />
		<tag k="place" v="locality" />
		<tag k="ssr:stedsnr" v="699736" />
	</node>
	<node id="-297871" lat="60.2067416702" lon="10.5889138945">
		<tag k="name" v="Syljuseterhytta" />
		<tag k="place" v="isolated_dwelling" />
		<tag k="ssr:stedsnr" v="699336" />
	</node>
	<node id="-297869" lat="60.3083222258" lon="10.6596833324">
		<tag k="name" v="Øvre Bråstad" />
		<tag k="place" v="farm" />
		<tag k="ssr:stedsnr" v="697387" />
	</node>
	<node id="-297866" lat="60.2869944474" lon="10.6144916614">
		<tag k="name" v="Frøshaug" />
		<tag k="place" v="farm" />
		<tag k="ssr:stedsnr" v="524787" />
	</node>
	<node id="-297859" lat="60.3120732313" lon="10.4972033352">
		<tag k="fixme" v="consider place=hamlet" />
		<tag k="name" v="Virstad" />
		<tag k="place" v="farm" />
		<tag k="ssr:stedsnr" v="491930" />
	</node>
	<node id="-297858" lat="60.3039638929" lon="10.665116665">
		<tag k="name" v="Briskeby" />
		<tag k="place" v="isolated_dwelling" />
		<tag k="ssr:stedsnr" v="491905" />
	</node>
	<node id="-297856" lat="60.3249638854" lon="10.6867249992">
		<tag k="name" v="Skjervenga" />
		<tag k="place" v="isolated_dwelling" />
		<tag k="ssr:stedsnr" v="674939" />
	</node>
	<node id="-297855" lat="60.2947983485" lon="10.5768561452">
		<tag k="fixme" v="consider place=hamlet" />
		<tag k="name" v="Kalvsjø" />
		<tag k="place" v="farm" />
		<tag k="ssr:stedsnr" v="674847" />
	</node>
	<node id="-297853" lat="60.320400003" lon="10.5685611038">
		<tag k="name" v="Høyland" />
		<tag k="place" v="farm" />
		<tag k="ssr:stedsnr" v="674895" />
	</node>
	<node id="-297852" lat="60.3138000037" lon="10.5416638908">
		<tag k="name" v="Lian" />
		<tag k="place" v="farm" />
		<tag k="ssr:stedsnr" v="673940" />
	</node>
	<node id="-297850" lat="60.3068194477" lon="10.669055548">
		<tag k="name" v="Slåttland" />
		<tag k="place" v="farm" />
		<tag k="ssr:stedsnr" v="673917" />
	</node>
	<node id="-297849" lat="60.30025619" lon="10.5935988496">
		<tag k="fixme" v="multiple name tags, choose one and add the other to alt_name" />
		<tag k="name" v="Kildal;Ødegården" />
		<tag k="place" v="farm" />
		<tag k="ssr:stedsnr" v="673906" />
	</node>
	<node id="-297848" lat="60.2760094107" lon="10.5730113777">
		<tag k="name" v="Jonsrud" />
		<tag k="place" v="locality" />
		<tag k="ssr:stedsnr" v="673839" />
	</node>
	<node id="-297845" lat="60.2653666711" lon="10.5417750046">
		<tag k="name" v="Holtevadet" />
		<tag k="place" v="isolated_dwelling" />
		<tag k="ssr:stedsnr" v="673807" />
	</node>
	<node id="-297843" lat="60.2781027802" lon="10.6329749959">
		<tag k="name" v="Ryenga" />
		<tag k="place" v="farm" />
		<tag k="ssr:stedsnr" v="673790" />
	</node>
	<node id="-297841" lat="60.2799500002" lon="10.6698750072">
		<tag k="alt_name" v="Tveita" />
		<tag k="name" v="Søndre Tveita" />
		<tag k="place" v="farm" />
		<tag k="ssr:stedsnr" v="673775" />
	</node>
	<node id="-297839" lat="60.2180805575" lon="10.6739638854">
		<tag k="name" v="Friland" />
		<tag k="place" v="isolated_dwelling" />
		<tag k="ssr:stedsnr" v="673516" />
	</node>
	<node id="-297835" lat="60.1597029692" lon="10.578312179">
		<tag k="fixme" v="consider place=hamlet" />
		<tag k="loc_name" v="Kattnosa" />
		<tag k="name" v="Katnosa" />
		<tag k="place" v="farm" />
		<tag k="ssr:stedsnr" v="673016" />
	</node>
	<node id="-297834" lat="60.183669447" lon="10.5767361066">
		<tag k="name" v="Elgstøa" />
		<tag k="place" v="farm" />
		<tag k="ssr:stedsnr" v="672059" />
	</node>
	<node id="-297831" lat="60.3014694468" lon="10.8082361105">
		<tag k="name" v="Bergtjernshytta" />
		<tag k="place" v="isolated_dwelling" />
		<tag k="ssr:stedsnr" v="465460" />
	</node>
	<node id="-297827" lat="60.2321990856" lon="10.7146495737">
		<tag k="fixme" v="consider place=hamlet" />
		<tag k="name" v="Dalen" />
		<tag k="place" v="farm" />
		<tag k="ssr:stedsnr" v="464363" />
	</node>
	<node id="-297820" lat="60.3235027818" lon="10.5340499987">
		<tag k="name" v="Øystad" />
		<tag k="place" v="farm" />
		<tag k="ssr:stedsnr" v="431923" />
	</node>
	<node id="-297819" lat="60.3030494956" lon="10.6296494817">
		<tag k="fixme" v="consider place=hamlet" />
		<tag k="name" v="Huser" />
		<tag k="place" v="farm" />
		<tag k="ssr:stedsnr" v="431920" />
	</node>
	<node id="-297818" lat="60.3033598409" lon="10.6447390609">
		<tag k="fixme" v="consider place=hamlet" />
		<tag k="name" v="Ulven" />
		<tag k="place" v="farm" />
		<tag k="ssr:stedsnr" v="431918" />
	</node>
	<node id="-297817" lat="60.2739249981" lon="10.5380416658">
		<tag k="name" v="Holt" />
		<tag k="place" v="farm" />
		<tag k="ssr:stedsnr" v="431848" />
	</node>
	<node id="-297816" lat="60.2825503185" lon="10.5425126058">
		<tag k="alt_name" v="Hallum" />
		<tag k="fixme" v="consider place=hamlet" />
		<tag k="name" v="Hallom" />
		<tag k="place" v="farm" />
		<tag k="ssr:stedsnr" v="431837" />
	</node>
	<node id="-297814" lat="60.2756611133" lon="10.6697583416">
		<tag k="name" v="Bilitt" />
		<tag k="place" v="farm" />
		<tag k="ssr:stedsnr" v="431812" />
	</node>
	<node id="-297813" lat="60.2778055518" lon="10.6562861133">
		<tag k="name" v="Ryenga" />
		<tag k="place" v="farm" />
		<tag k="ssr:stedsnr" v="431811" />
	</node>
	<node id="-297809" lat="60.1983719909" lon="10.5914821361">
		<tag k="fixme" v="consider place=hamlet" />
		<tag k="name" v="Gjerdingen" />
		<tag k="place" v="farm" />
		<tag k="ssr:stedsnr" v="430439" />
	</node>
	<node id="-297807" lat="60.2096527819" lon="10.6996666679">
		<tag k="name" v="Mo" />
		<tag k="place" v="farm" />
		<tag k="ssr:stedsnr" v="430427" />
	</node>
	<node id="-297805" lat="60.1944000007" lon="10.7189555555">
		<tag k="name" v="Harestua" />
		<tag k="place" v="village" />
		<tag k="ssr:stedsnr" v="430051" />
	</node>
	<node id="-297798" lat="60.3133166648" lon="10.5321194479">
		<tag k="name" v="Nordbråten" />
		<tag k="place" v="farm" />
		<tag k="ssr:stedsnr" v="515803" />
	</node>
	<node id="-297797" lat="60.3235500016" lon="10.6382611167">
		<tag k="name" v="Brokerud" />
		<tag k="place" v="farm" />
		<tag k="ssr:stedsnr" v="515285" />
	</node>
	<node id="-297796" lat="60.3160777798" lon="10.6599027783">
		<tag k="name" v="Torsbakken" />
		<tag k="place" v="farm" />
		<tag k="ssr:stedsnr" v="515276" />
	</node>
	<node id="-297794" lat="60.2840305567" lon="10.7928250071">
		<tag k="name" v="Leirsjøhytta" />
		<tag k="place" v="isolated_dwelling" />
		<tag k="ssr:stedsnr" v="405502" />
	</node>
	<node id="-297791" lat="60.293915323" lon="10.6280128881">
		<tag k="fixme" v="consider place=hamlet" />
		<tag k="name" v="Frøysli" />
		<tag k="place" v="farm" />
		<tag k="ssr:stedsnr" v="403812" />
	</node>
	<node id="-297790" lat="60.1984194473" lon="10.7164777722">
		<tag k="name" v="Furumo II" />
		<tag k="place" v="quarter" />
		<tag k="ssr:stedsnr" v="403665" />
	</node>
	<node id="-297789" lat="60.3038509273" lon="10.4794139914">
		<tag k="fixme" v="consider place=hamlet" />
		<tag k="name" v="Vestern" />
		<tag k="place" v="farm" />
		<tag k="ssr:stedsnr" v="403153" />
	</node>
	<node id="-297788" lat="60.3151638904" lon="10.5132194483">
		<tag k="name" v="Korsrud" />
		<tag k="place" v="farm" />
		<tag k="ssr:stedsnr" v="394154" />
	</node>
	<node id="-297786" lat="60.3214111151" lon="10.5021222254">
		<tag k="name" v="Haugerud" />
		<tag k="place" v="farm" />
		<tag k="ssr:stedsnr" v="370975" />
	</node>
	<node id="-297784" lat="60.316480552" lon="10.6327138812">
		<tag k="name" v="Solli" />
		<tag k="place" v="farm" />
		<tag k="ssr:stedsnr" v="492911" />
	</node>
	<node id="-297783" lat="60.3191750021" lon="10.4897611066">
		<tag k="name" v="Kjekstad" />
		<tag k="place" v="farm" />
		<tag k="ssr:stedsnr" v="491963" />
	</node>
	<node id="-297782" lat="60.3063583323" lon="10.5883611039">
		<tag k="name" v="Lieker" />
		<tag k="place" v="farm" />
		<tag k="ssr:stedsnr" v="491897" />
	</node>
	<node id="-297781" lat="60.3031333316" lon="10.482497214">
		<tag k="name" v="Vestern" />
		<tag k="place" v="farm" />
		<tag k="ssr:stedsnr" v="491889" />
	</node>
	<node id="-297780" lat="60.3074025332" lon="10.4748127963">
		<tag k="fixme" v="consider place=hamlet" />
		<tag k="name" v="Heier" />
		<tag k="place" v="farm" />
		<tag k="ssr:stedsnr" v="491885" />
	</node>
	<node id="-297779" lat="60.2908805567" lon="10.6719555642">
		<tag k="alt_name" v="Brattli" />
		<tag k="name" v="Brattlia" />
		<tag k="place" v="farm" />
		<tag k="ssr:stedsnr" v="491876" />
	</node>
	<node id="-297778" lat="60.2969933319" lon="10.6580280571">
		<tag k="name" v="Hytta" />
		<tag k="place" v="hamlet" />
		<tag k="ssr:stedsnr" v="491874" />
	</node>
	<node id="-297777" lat="60.290474522" lon="10.5844866761">
		<tag k="fixme" v="consider place=hamlet" />
		<tag k="name" v="Rud" />
		<tag k="place" v="farm" />
		<tag k="ssr:stedsnr" v="491844" />
	</node>
	<node id="-297776" lat="60.2944583371" lon="10.5078361029">
		<tag k="alt_name" v="Nitberg" />
		<tag k="name" v="Netberg" />
		<tag k="place" v="farm" />
		<tag k="ssr:stedsnr" v="491837" />
	</node>
	<node id="-297770" lat="60.1837635126" lon="10.7352811317">
		<tag k="fixme" v="consider place=hamlet" />
		<tag k="name" v="Monsrud" />
		<tag k="place" v="farm" />
		<tag k="ssr:stedsnr" v="490807" />
	</node>
	<node id="-297763" lat="60.2743222192" lon="10.722183337">
		<tag k="name" v="Håkenstadsaga" />
		<tag k="place" v="locality" />
		<tag k="ssr:stedsnr" v="344504" />
	</node>
	<node id="-297750" lat="60.1979083325" lon="10.7217888801">
		<tag k="name" v="Furumo III" />
		<tag k="place" v="quarter" />
		<tag k="ssr:stedsnr" v="464696" />
	</node>
	<node id="-297743" lat="60.24393889" lon="10.612105563">
		<tag k="name" v="Dambo" />
		<tag k="place" v="isolated_dwelling" />
		<tag k="ssr:stedsnr" v="464282" />
	</node>
	<node id="-297742" lat="60.3158111128" lon="10.5578722254">
		<tag k="name" v="Østvoll" />
		<tag k="place" v="farm" />
		<tag k="ssr:stedsnr" v="464061" />
	</node>
	<node id="-297739" lat="60.3081436348" lon="10.4884044453">
		<tag k="name" v="Svensbråten" />
		<tag k="place" v="farm" />
		<tag k="ssr:stedsnr" v="273275" />
	</node>
	<node id="-297738" lat="60.3103666655" lon="10.6049888834">
		<tag k="alt_name" v="Råstad nordre" />
		<tag k="name" v="Nordre Råstad" />
		<tag k="place" v="farm" />
		<tag k="ssr:stedsnr" v="272266" />
	</node>
	<node id="-297737" lat="60.319216671" lon="10.6382722163">
		<tag k="name" v="Morka" />
		<tag k="place" v="farm" />
		<tag k="ssr:stedsnr" v="272262" />
	</node>
	<node id="-297736" lat="60.2823583361" lon="10.536511111">
		<tag k="name" v="Hallum" />
		<tag k="place" v="farm" />
		<tag k="ssr:stedsnr" v="457958" />
	</node>
	<node id="-297734" lat="60.31125" lon="10.6473749994">
		<tag k="amenity" v="school" />
		<tag k="name" v="Nordre Oppdalen skole" />
		<tag k="ssr:stedsnr" v="454375" />
	</node>
	<node id="-297732" lat="60.3131277778" lon="10.4719805609">
		<tag k="name" v="Orenhagen" />
		<tag k="place" v="isolated_dwelling" />
		<tag k="ssr:stedsnr" v="454165" />
	</node>
	<node id="-297731" lat="60.1404416631" lon="10.6496888975">
		<tag k="name" v="Kalvehyttene" />
		<tag k="place" v="isolated_dwelling" />
		<tag k="ssr:stedsnr" v="246063" />
	</node>
	<node id="-297727" lat="60.2482333293" lon="10.7643638961">
		<tag k="name" v="Sølvtjernshytta" />
		<tag k="place" v="isolated_dwelling" />
		<tag k="ssr:stedsnr" v="223604" />
	</node>
	<node id="-297724" lat="60.3224722219" lon="10.7024555599">
		<tag k="name" v="Skjerva sag" />
		<tag k="place" v="locality" />
		<tag k="ssr:stedsnr" v="221922" />
	</node>
	<node id="-297719" lat="60.2904972227" lon="10.8177333257">
		<tag k="name" v="Bergstjernhytta" />
		<tag k="place" v="isolated_dwelling" />
		<tag k="ssr:stedsnr" v="284499" />
	</node>
	<node id="-297714" lat="60.2162583314" lon="10.7291277723">
		<tag k="name" v="Skogli" />
		<tag k="place" v="isolated_dwelling" />
		<tag k="ssr:stedsnr" v="283462" />
	</node>
	<node id="-297713" lat="60.300522223" lon="10.5279444509">
		<tag k="name" v="Solheim" />
		<tag k="place" v="farm" />
		<tag k="ssr:stedsnr" v="283339" />
	</node>
	<node id="-297711" lat="60.2718527807" lon="10.6706305594">
		<tag k="name" v="Nordre Bilitt" />
		<tag k="place" v="locality" />
		<tag k="ssr:stedsnr" v="283217" />
	</node>
	<node id="-297709" lat="60.265238888" lon="10.6138416663">
		<tag k="name" v="Kjørvenvollen" />
		<tag k="place" v="isolated_dwelling" />
		<tag k="ssr:stedsnr" v="282780" />
	</node>
	<node id="-297707" lat="60.1937583374" lon="10.73397223">
		<tag k="name" v="Midtre Lauvlia" />
		<tag k="place" v="isolated_dwelling" />
		<tag k="ssr:stedsnr" v="282654" />
	</node>
	<node id="-297701" lat="60.202375002" lon="10.6766361179">
		<tag k="name" v="Bakken" />
		<tag k="place" v="isolated_dwelling" />
		<tag k="ssr:stedsnr" v="282390" />
	</node>
	<node id="-297700" lat="60.2153361139" lon="10.6779694415">
		<tag k="name" v="Vestbråten" />
		<tag k="place" v="isolated_dwelling" />
		<tag k="ssr:stedsnr" v="282384" />
	</node>
	<node id="-297696" lat="60.2364638869" lon="10.5604888831">
		<tag k="alt_name" v="Åsjøvikhytta" />
		<tag k="name" v="Ålsjøvikhytta" />
		<tag k="place" v="isolated_dwelling" />
		<tag k="ssr:stedsnr" v="282153" />
	</node>
	<node id="-297695" lat="60.303388888" lon="10.5645361172">
		<tag k="name" v="Østre Lunner" />
		<tag k="place" v="farm" />
		<tag k="ssr:stedsnr" v="282097" />
	</node>
	<node id="-297689" lat="60.2435305581" lon="10.6894861163">
		<tag k="name" v="Rundelshytta" />
		<tag k="place" v="isolated_dwelling" />
		<tag k="ssr:stedsnr" v="162310" />
	</node>
	<node id="-297688" lat="60.2554222214" lon="10.6554694422">
		<tag k="name" v="Gruakollen" />
		<tag k="place" v="quarter" />
		<tag k="ssr:stedsnr" v="162307" />
	</node>
	<node id="-297685" lat="60.2374416635" lon="10.7092416603">
		<tag k="name" v="Skredderbråten" />
		<tag k="old_name" v="Skedderbråten" />
		<tag k="place" v="locality" />
		<tag k="ssr:stedsnr" v="160326" />
	</node>
	<node id="-297680" lat="60.2909277801" lon="10.6159083289">
		<tag k="name" v="Roa" />
		<tag k="place" v="village" />
		<tag k="ssr:stedsnr" v="128806" />
	</node>
	<node id="-297679" lat="60.3158542784" lon="10.6167343282">
		<tag k="fixme" v="consider place=hamlet" />
		<tag k="name" v="Ulsrud" />
		<tag k="place" v="farm" />
		<tag k="ssr:stedsnr" v="127936" />
	</node>
	<node id="-297678" lat="60.3151166706" lon="10.4793500003">
		<tag k="name" v="Oren" />
		<tag k="place" v="farm" />
		<tag k="ssr:stedsnr" v="127927" />
	</node>
	<node id="-297676" lat="60.266894444" lon="10.5994916737">
		<tag k="name" v="Panka" />
		<tag k="place" v="farm" />
		<tag k="ssr:stedsnr" v="127830" />
	</node>
	<node id="-297666" lat="60.2825833356" lon="10.6651000036">
		<tag k="name" v="Enga" />
		<tag k="place" v="isolated_dwelling" />
		<tag k="ssr:stedsnr" v="100222" />
	</node>
	<node id="-297665" lat="60.2761305595" lon="10.6645500038">
		<tag k="name" v="Sagmoen" />
		<tag k="place" v="isolated_dwelling" />
		<tag k="ssr:stedsnr" v="100219" />
	</node>
	<node id="-297664" lat="60.2879036148" lon="10.5866987742">
		<tag k="name" v="Bjøralt" />
		<tag k="place" v="hamlet" />
		<tag k="ssr:stedsnr" v="100072" />
	</node>
	<node id="-297663" lat="60.2906250043" lon="10.5716305619">
		<tag k="amenity" v="nursing_home" />
		<tag k="name" v="Kveldsol" />
		<tag k="ssr:stedsnr" v="100070" />
	</node>
	<node id="-297660" lat="60.2512083376" lon="10.5817444373">
		<tag k="name" v="Viggerhaugen" />
		<tag k="place" v="farm" />
		<tag k="ssr:stedsnr" v="100103" />
	</node>
	<node id="-297659" lat="60.3088083306" lon="10.6449916579">
		<tag k="fixme" v="consider place=hamlet" />
		<tag k="name" v="Nordre Oppdalen" />
		<tag k="place" v="village" />
		<tag k="ssr:stedsnr" v="249900" />
	</node>
	<node id="-297658" lat="60.3067416671" lon="10.5838555486">
		<tag k="name" v="Lunner" />
		<tag k="place" v="village" />
		<tag k="ssr:stedsnr" v="249889" />
	</node>
	<node id="-297657" lat="60.3030123394" lon="10.6239498082">
		<tag k="name" v="Løyken" />
		<tag k="place" v="hamlet" />
		<tag k="ssr:stedsnr" v="249884" />
	</node>
	<node id="-297656" lat="60.2911500004" lon="10.7077722273">
		<tag k="historic" v="shieling" />
		<tag k="name" v="Håkenstadsætra" />
		<tag k="place" v="locality" />
		<tag k="ssr:stedsnr" v="249860" />
	</node>
	<node id="-297654" lat="60.269463885" lon="10.6716805568">
		<tag k="name" v="Tveitmarka" />
		<tag k="place" v="farm" />
		<tag k="ssr:stedsnr" v="249791" />
	</node>
	<node id="-297652" lat="60.2633333351" lon="10.6503194509">
		<tag k="alt_name" v="Nordre Vollstad" />
		<tag k="name" v="Vollstad" />
		<tag k="place" v="farm" />
		<tag k="ssr:stedsnr" v="249788" />
	</node>
	<node id="-297650" lat="60.2501166624" lon="10.6805500028">
		<tag k="name" v="Bakken" />
		<tag k="place" v="isolated_dwelling" />
		<tag k="ssr:stedsnr" v="249754" />
	</node>
	<node id="-297648" lat="60.2898500025" lon="10.7442749934">
		<tag k="historic" v="shieling" />
		<tag k="name" v="Morstadsætra" />
		<tag k="place" v="locality" />
		<tag k="ssr:stedsnr" v="249281" />
	</node>
	<node id="-297647" lat="60.3109972205" lon="10.5629611141">
		<tag k="name" v="Kirkerud" />
		<tag k="place" v="farm" />
		<tag k="ssr:stedsnr" v="248952" />
	</node>
	<node id="-297646" lat="60.3108527801" lon="10.5275750079">
		<tag k="name" v="Finnlaus" />
		<tag k="place" v="farm" />
		<tag k="ssr:stedsnr" v="248951" />
	</node>
	<node id="-297645" lat="60.3107944473" lon="10.5999777848">
		<tag k="alt_name" v="Krågsrud" />
		<tag k="name" v="Kråksrud" />
		<tag k="place" v="farm" />
		<tag k="ssr:stedsnr" v="248950" />
	</node>
	<node id="-297643" lat="60.3125799669" lon="10.6506538238">
		<tag k="name" v="Svingen" />
		<tag k="place" v="farm" />
		<tag k="ssr:stedsnr" v="248890" />
	</node>
	<node id="-297638" lat="60.2722888906" lon="10.6644138894">
		<tag k="name" v="Røste" />
		<tag k="place" v="farm" />
		<tag k="ssr:stedsnr" v="248801" />
	</node>
	<node id="-297631" lat="60.2020583352" lon="10.6057222281">
		<tag k="alt_name" v="Rajebråtahytta" />
		<tag k="name" v="Rajebråtehytta" />
		<tag k="place" v="isolated_dwelling" />
		<tag k="ssr:stedsnr" v="248430" />
	</node>
	<node id="-297630" lat="60.2478318953" lon="10.5542884776">
		<tag k="fixme" v="consider place=hamlet" />
		<tag k="name" v="Brattholt" />
		<tag k="place" v="farm" />
		<tag k="ssr:stedsnr" v="248404" />
	</node>
	<node id="-297621" lat="60.2884515461" lon="10.667793749">
		<tag k="fixme" v="consider place=hamlet" />
		<tag k="name" v="Østby" />
		<tag k="place" v="farm" />
		<tag k="ssr:stedsnr" v="67817" />
	</node>
	<node id="-297620" lat="60.2637138865" lon="10.6155000067">
		<tag k="name" v="Vollen" />
		<tag k="place" v="isolated_dwelling" />
		<tag k="ssr:stedsnr" v="67804" />
	</node>
	<node id="-297619" lat="60.3106194415" lon="10.6137833398">
		<tag k="name" v="Nordre Råstad" />
		<tag k="place" v="farm" />
		<tag k="ssr:stedsnr" v="67940" />
	</node>
	<node id="-297618" lat="60.3159083297" lon="10.5891194471">
		<tag k="name" v="Solum" />
		<tag k="place" v="isolated_dwelling" />
		<tag k="ssr:stedsnr" v="67936" />
	</node>
	<node id="-297617" lat="60.3095777739" lon="10.5958027784">
		<tag k="name" v="Volla" />
		<tag k="place" v="farm" />
		<tag k="ssr:stedsnr" v="67934" />
	</node>
	<node id="-297616" lat="60.3194871126" lon="10.6428633423">
		<tag k="fixme" v="consider place=hamlet" />
		<tag k="name" v="Morka" />
		<tag k="place" v="farm" />
		<tag k="ssr:stedsnr" v="67925" />
	</node>
	<node id="-297615" lat="60.3004972244" lon="10.6623916647">
		<tag k="name" v="Erstad" />
		<tag k="place" v="farm" />
		<tag k="ssr:stedsnr" v="67901" />
	</node>
	<node id="-297614" lat="60.2083851101" lon="10.7507891221">
		<tag k="alt_name" v="Pipern" />
		<tag k="fixme" v="consider place=hamlet" />
		<tag k="name" v="Piperen" />
		<tag k="place" v="farm" />
		<tag k="ssr:stedsnr" v="66836" />
	</node>
	<node id="-297611" lat="60.2063472237" lon="10.6801166703">
		<tag k="alt_name" v="Engebråten" />
		<tag k="name" v="Engebråtan" />
		<tag k="place" v="farm" />
		<tag k="ssr:stedsnr" v="66415" />
	</node>
	<node id="-297610" lat="60.304186108" lon="10.6180694439">
		<tag k="name" v="Berg" />
		<tag k="place" v="farm" />
		<tag k="ssr:stedsnr" v="309897" />
	</node>
	<node id="-297609" lat="60.2244055578" lon="10.7580361119">
		<tag k="historic" v="shieling" />
		<tag k="name" v="Torpesetra" />
		<tag k="place" v="locality" />
		<tag k="ssr:stedsnr" v="41522" />
	</node>
	<node id="-297605" lat="60.2599833363" lon="10.7504138902">
		<tag k="name" v="Gruehyttene" />
		<tag k="place" v="isolated_dwelling" />
		<tag k="ssr:stedsnr" v="40554" />
	</node>
	<node id="-297604" lat="60.2871333308" lon="10.6464527788">
		<tag k="name" v="Nordre Håkenstad" />
		<tag k="place" v="farm" />
		<tag k="ssr:stedsnr" v="39775" />
	</node>
	<node id="-297603" lat="60.2041944404" lon="10.7021305634">
		<tag k="name" v="Gammelhagan" />
		<tag k="place" v="isolated_dwelling" />
		<tag k="ssr:stedsnr" v="39352" />
	</node>
	<node id="-297592" lat="60.2259249966" lon="10.7063944462">
		<tag k="name" v="Ringstad" />
		<tag k="place" v="isolated_dwelling" />
		<tag k="ssr:stedsnr" v="223398" />
	</node>
	<node id="-297590" lat="60.2483000035" lon="10.697011106">
		<tag k="name" v="Ellingsrud" />
		<tag k="place" v="locality" />
		<tag k="ssr:stedsnr" v="223321" />
	</node>
	<node id="-297589" lat="60.2542526825" lon="10.6231954458">
		<tag k="fixme" v="consider place=hamlet" />
		<tag k="name" v="Godligrinda" />
		<tag k="place" v="farm" />
		<tag k="ssr:stedsnr" v="223315" />
	</node>
	<node id="-297583" lat="60.2814944446" lon="10.6806833401">
		<tag k="name" v="Solhaug" />
		<tag k="place" v="isolated_dwelling" />
		<tag k="ssr:stedsnr" v="221214" />
	</node>
	<node id="-297582" lat="60.3131138871" lon="10.6166138818">
		<tag k="name" v="Blistein" />
		<tag k="place" v="farm" />
		<tag k="ssr:stedsnr" v="6948" />
	</node>
	<node id="-297581" lat="60.3104622664" lon="10.5784169649">
		<tag k="name" v="Flatla" />
		<tag k="place" v="hamlet" />
		<tag k="ssr:stedsnr" v="6946" />
	</node>
	<node id="-297580" lat="60.3134361072" lon="10.5153472159">
		<tag k="name" v="Bruvoll" />
		<tag k="place" v="farm" />
		<tag k="ssr:stedsnr" v="6940" />
	</node>
	<node id="-297579" lat="60.3252905627" lon="10.5528631466">
		<tag k="fixme" v="consider place=hamlet" />
		<tag k="name" v="Høyby" />
		<tag k="place" v="farm" />
		<tag k="ssr:stedsnr" v="6924" />
	</node>
	<node id="-297578" lat="60.3192638902" lon="10.5347638856">
		<tag k="alt_name" v="Bråten" />
		<tag k="name" v="Høybybråtån" />
		<tag k="place" v="farm" />
		<tag k="ssr:stedsnr" v="6923" />
	</node>
	<node id="-297575" lat="60.2848358807" lon="10.5604642819">
		<tag k="fixme" v="consider place=hamlet" />
		<tag k="name" v="Håvelsrud" />
		<tag k="place" v="farm" />
		<tag k="ssr:stedsnr" v="6833" />
	</node>
	<node id="-297574" lat="60.2883861114" lon="10.568638882">
		<tag k="name" v="Vang" />
		<tag k="place" v="farm" />
		<tag k="ssr:stedsnr" v="6832" />
	</node>
	<node id="-297572" lat="60.2778749981" lon="10.6110777866">
		<tag k="name" v="Nordli" />
		<tag k="place" v="farm" />
		<tag k="ssr:stedsnr" v="6809" />
	</node>
	<node id="-297571" lat="60.3044363999" lon="10.5789822529">
		<tag k="fixme" v="consider place=hamlet" />
		<tag k="name" v="Lieker" />
		<tag k="place" v="farm" />
		<tag k="ssr:stedsnr" v="221078" />
	</node>
	<node id="-297569" lat="60.2788805544" lon="10.5764555531">
		<tag k="name" v="Shansi" />
		<tag k="place" v="isolated_dwelling" />
		<tag k="ssr:stedsnr" v="221067" />
	</node>
	<node id="-297568" lat="60.3177138849" lon="10.5510222252">
		<tag k="name" v="Solheim" />
		<tag k="place" v="farm" />
		<tag k="ssr:stedsnr" v="221052" />
	</node>
	<node id="-297567" lat="60.3119333305" lon="10.5504194437">
		<tag k="alt_name" v="Grønnvoll" />
		<tag k="name" v="Grønvoll" />
		<tag k="place" v="farm" />
		<tag k="ssr:stedsnr" v="221044" />
	</node>
</osm>
