<?xml version="1.0" encoding="UTF-8"?>
<<<<<<< HEAD
<osm version="0.6" generator="osmapis">
	<node lat="60.24866110901048" lon="10.716277773743194" id="-13948">
		<tag k="name" v="Tømmerbakkmyra" />
		<tag k="natural" v="wetland" />
		<tag k="ssr:stedsnr" v="40307" />
	</node>
	<node lat="60.20824722587168" lon="10.602633329600055" id="-13980">
		<tag k="name" v="Syljusætermyra" />
		<tag k="natural" v="wetland" />
		<tag k="ssr:stedsnr" v="248431" />
	</node>
	<node lat="60.20897777450865" lon="10.665444452118566" id="-13981">
		<tag k="name" v="Løkenmyra" />
		<tag k="natural" v="wetland" />
		<tag k="ssr:stedsnr" v="100376" />
	</node>
	<node lat="60.195775002033145" lon="10.632349993715234" id="-13983">
		<tag k="name" v="Lanndalsmyra" />
		<tag k="natural" v="wetland" />
		<tag k="ssr:stedsnr" v="100467" />
	</node>
	<node lat="60.26663611522405" lon="10.621261102571355" id="-13987">
		<tag k="name" v="Stormyra" />
		<tag k="natural" v="wetland" />
		<tag k="ssr:stedsnr" v="100763" />
	</node>
	<node lat="60.28932570416661" lon="10.713701951774711" id="-14047">
		<tag k="fixme" v="multiple name tags, choose one and add the other to alt_name" />
		<tag k="historic" v="shieling" />
		<tag k="name" v="Typografhjemmet;Sæterbråten" />
		<tag k="old_name" v="Typografernes Sommerhjem" />
		<tag k="place" v="locality" />
		<tag k="ssr:stedsnr" v="188873" />
	</node>
	<node lat="60.274669442012375" lon="10.750880547315669" id="-14061">
		<tag k="name" v="Langmyra" />
		<tag k="natural" v="wetland" />
		<tag k="ssr:stedsnr" v="221494" />
	</node>
	<node lat="60.23687500443283" lon="10.740466665138301" id="-14062">
		<tag k="name" v="Dalahogstmyra" />
		<tag k="natural" v="wetland" />
		<tag k="ssr:stedsnr" v="221524" />
	</node>
	<node lat="60.26136944229391" lon="10.712013881299145" id="-14070">
		<tag k="name" v="Langvatnmyra" />
		<tag k="natural" v="wetland" />
		<tag k="ssr:stedsnr" v="223335" />
	</node>
	<node lat="60.19348888483083" lon="10.61438333820357" id="-14096">
		<tag k="name" v="Fjellmyra" />
		<tag k="natural" v="wetland" />
		<tag k="ssr:stedsnr" v="282469" />
	</node>
	<node lat="60.24632222603002" lon="10.76114721725352" id="-14099">
		<tag k="name" v="Råstadhogstmyra" />
		<tag k="natural" v="wetland" />
		<tag k="ssr:stedsnr" v="283502" />
	</node>
	<node lat="60.2103472248566" lon="10.657380550297134" id="-14103">
		<tag k="name" v="Langmyra" />
		<tag k="natural" v="wetland" />
		<tag k="ssr:stedsnr" v="464486" />
	</node>
	<node lat="60.20871388628357" lon="10.617616658986275" id="-14104">
		<tag k="name" v="Karusputtrøe" />
		<tag k="place" v="locality" />
		<tag k="ssr:stedsnr" v="464488" />
	</node>
	<node lat="60.187166666964785" lon="10.756155554725948" id="-14107">
		<tag k="name" v="Vølhogstet" />
		<tag k="place" v="locality" />
		<tag k="ssr:stedsnr" v="464693" />
	</node>
	<node lat="60.26663888786754" lon="10.789552778493643" id="-14109">
		<tag k="name" v="Nedre Andersbråtemyra" />
		<tag k="natural" v="wetland" />
		<tag k="ssr:stedsnr" v="465453" />
	</node>
	<node lat="60.2685250006392" lon="10.787263893339285" id="-14110">
		<tag k="name" v="Øvre Andersbråtemyra" />
		<tag k="natural" v="wetland" />
		<tag k="ssr:stedsnr" v="465454" />
	</node>
	<node lat="60.25998055221673" lon="10.627802784907391" id="-14112">
		<tag k="name" v="Skjerpemyra" />
		<tag k="natural" v="wetland" />
		<tag k="ssr:stedsnr" v="465292" />
	</node>
	<node lat="60.18314444318923" lon="10.646622218902243" id="-14130">
		<tag k="name" v="Muttamyra" />
		<tag k="natural" v="wetland" />
		<tag k="ssr:stedsnr" v="342409" />
	</node>
	<node lat="60.222150001582044" lon="10.642022222379367" id="-14131">
		<tag k="name" v="Storhogstet" />
		<tag k="place" v="locality" />
		<tag k="ssr:stedsnr" v="342314" />
	</node>
	<node lat="60.236761115201034" lon="10.7621472174754" id="-14133">
		<tag k="name" v="Framstadmyrene" />
		<tag k="natural" v="wetland" />
		<tag k="ssr:stedsnr" v="342491" />
	</node>
	<node lat="60.24571666758052" lon="10.677188891906306" id="-14135">
		<tag k="name" v="Vengsmarka" />
=======
<osm generator="osmapis" version="0.6">
	<node id="-297792" lat="60.3237361089" lon="10.6943833375">
		<tag k="name" v="Skjervehagen" />
>>>>>>> e1d4bc35ff8a6074a6f2e91616a996b547c36f15
		<tag k="place" v="locality" />
		<tag k="ssr:stedsnr" v="344311" />
	</node>
<<<<<<< HEAD
	<node lat="60.2644527807532" lon="10.574755556400891" id="-14149">
		<tag k="name" v="Stormyra" />
=======
	<node id="-298108" lat="60.235463891" lon="10.6324222161">
		<tag k="name" v="Liekerspulmyra" />
>>>>>>> e1d4bc35ff8a6074a6f2e91616a996b547c36f15
		<tag k="natural" v="wetland" />
		<tag k="ssr:stedsnr" v="370818" />
	</node>
<<<<<<< HEAD
	<node lat="60.20765277586498" lon="10.656772228352711" id="-14172">
		<tag k="name" v="Fuglemyra" />
		<tag k="natural" v="wetland" />
		<tag k="ssr:stedsnr" v="430425" />
	</node>
	<node lat="60.20960832933193" lon="10.733797214289053" id="-14251">
		<tag k="name" v="Milsteinbotn" />
		<tag k="place" v="locality" />
		<tag k="ssr:stedsnr" v="526520" />
	</node>
	<node lat="60.23193055474574" lon="10.774394442777858" id="-14273">
		<tag k="name" v="Sørenhogstmyra" />
=======
	<node id="-297706" lat="60.233058336" lon="10.7543638975">
		<tag k="name" v="Jørnhogstmyra" />
		<tag k="natural" v="wetland" />
		<tag k="ssr:stedsnr" v="282552" />
	</node>
	<node id="-298175" lat="60.2010055573" lon="10.7549805481">
		<tag k="name" v="Stormyra" />
		<tag k="natural" v="wetland" />
		<tag k="ssr:stedsnr" v="66776" />
	</node>
	<node id="-297591" lat="60.2613694423" lon="10.7120138813">
		<tag k="name" v="Langvatnmyra" />
>>>>>>> e1d4bc35ff8a6074a6f2e91616a996b547c36f15
		<tag k="natural" v="wetland" />
		<tag k="ssr:stedsnr" v="585440" />
	</node>
<<<<<<< HEAD
	<node lat="60.17627778005018" lon="10.587452784842506" id="-14286">
		<tag k="name" v="Rankedalsmyra" />
=======
	<node id="-297718" lat="60.246322226" lon="10.7611472173">
		<tag k="name" v="Råstadhogstmyra" />
>>>>>>> e1d4bc35ff8a6074a6f2e91616a996b547c36f15
		<tag k="natural" v="wetland" />
		<tag k="ssr:stedsnr" v="699881" />
	</node>
<<<<<<< HEAD
	<node lat="60.23075555266672" lon="10.727794451783096" id="-14323">
		<tag k="name" v="Østhagan" />
=======
	<node id="-298229" lat="60.2466416627" lon="10.7225444355">
		<tag k="historic" v="shieling" />
		<tag k="name" v="Klosetra" />
>>>>>>> e1d4bc35ff8a6074a6f2e91616a996b547c36f15
		<tag k="place" v="locality" />
		<tag k="ssr:stedsnr" v="645472" />
	</node>
<<<<<<< HEAD
	<node lat="60.274819448038635" lon="10.643897213934466" id="-14324">
		<tag k="name" v="Tåje" />
		<tag k="place" v="locality" />
		<tag k="ssr:stedsnr" v="645787" />
	</node>
	<node lat="60.262013887257574" lon="10.695647223406239" id="-14366">
		<tag k="landuse" v="quarry" />
		<tag k="name" v="Hadelands bergverk" />
		<tag k="ssr:stedsnr" v="708325" />
	</node>
	<node lat="60.207497225413576" lon="10.745483327311787" id="-14368">
		<tag k="name" v="Badehusbrenna" />
		<tag k="place" v="locality" />
		<tag k="ssr:stedsnr" v="708521" />
	</node>
	<node lat="60.24689166690792" lon="10.567191674175055" id="-14387">
		<tag k="name" v="Ødegårdsmyra" />
=======
	<node id="-298227" lat="60.2179500043" lon="10.7636555583">
		<tag k="name" v="Botntjernsmyra" />
		<tag k="natural" v="wetland" />
		<tag k="ssr:stedsnr" v="101500" />
	</node>
	<node id="-298482" lat="60.2096083293" lon="10.7337972143">
		<tag k="name" v="Milsteinbotn" />
		<tag k="place" v="locality" />
		<tag k="ssr:stedsnr" v="526520" />
	</node>
	<node id="-297585" lat="60.274669442" lon="10.7508805473">
		<tag k="name" v="Langmyra" />
		<tag k="natural" v="wetland" />
		<tag k="ssr:stedsnr" v="221494" />
	</node>
	<node id="-298280" lat="60.2499472234" lon="10.7589472266">
		<tag k="name" v="Østre Gresshogstmyra" />
		<tag k="natural" v="wetland" />
		<tag k="ssr:stedsnr" v="162595" />
	</node>
	<node id="-298477" lat="60.2487833334" lon="10.6332527787">
		<tag k="name" v="Krokmyra" />
>>>>>>> e1d4bc35ff8a6074a6f2e91616a996b547c36f15
		<tag k="natural" v="wetland" />
		<tag k="ssr:stedsnr" v="767111" />
	</node>
<<<<<<< HEAD
	<node lat="60.245947225060284" lon="10.689502782711704" id="-14402">
		<tag k="name" v="Rundelsmyra" />
=======
	<node id="-298476" lat="60.2868361138" lon="10.8166388934">
		<tag k="name" v="Finnmyra" />
>>>>>>> e1d4bc35ff8a6074a6f2e91616a996b547c36f15
		<tag k="natural" v="wetland" />
		<tag k="ssr:stedsnr" v="769306" />
	</node>
<<<<<<< HEAD
	<node lat="60.229444440259" lon="10.58963333691219" id="-14411">
		<tag k="name" v="Toputtmyra" />
=======
	<node id="-298091" lat="60.2316888899" lon="10.5688166623">
		<tag k="alt_name" v="Fuglemyrene" />
		<tag k="name" v="Fuglemyra" />
>>>>>>> e1d4bc35ff8a6074a6f2e91616a996b547c36f15
		<tag k="natural" v="wetland" />
		<tag k="ssr:stedsnr" v="794368" />
	</node>
<<<<<<< HEAD
	<node lat="60.25497222263151" lon="10.766844447966283" id="-14450">
		<tag k="name" v="Langmyra" />
		<tag k="natural" v="wetland" />
		<tag k="ssr:stedsnr" v="830557" />
	</node>
	<node lat="60.23168888985139" lon="10.568816662294196" id="-14485">
		<tag k="alt_name" v="Fuglemyrene" />
		<tag k="name" v="Fuglemyra" />
		<tag k="natural" v="wetland" />
		<tag k="ssr:stedsnr" v="915372" />
	</node>
	<node lat="60.26244444476861" lon="10.70227500171016" id="-14506">
		<tag k="name" v="Setermyra" />
		<tag k="natural" v="wetland" />
		<tag k="ssr:stedsnr" v="951305" />
	</node>
	<node lat="60.17886388817288" lon="10.580233330559894" id="-14545">
		<tag k="name" v="Rankedalsmyra" />
=======
	<node id="-298602" lat="60.316972218" lon="10.7185083268">
		<tag k="name" v="Langmyra" />
		<tag k="natural" v="wetland" />
		<tag k="ssr:stedsnr" v="780894" />
	</node>
	<node id="-297705" lat="60.1934888848" lon="10.6143833382">
		<tag k="name" v="Fjellmyra" />
		<tag k="natural" v="wetland" />
		<tag k="ssr:stedsnr" v="282469" />
	</node>
	<node id="-298216" lat="60.2666361152" lon="10.6212611026">
		<tag k="name" v="Stormyra" />
		<tag k="natural" v="wetland" />
		<tag k="ssr:stedsnr" v="100763" />
	</node>
	<node id="-297703" lat="60.2100166655" lon="10.6070444422">
		<tag k="historic" v="shieling" />
		<tag k="name" v="Gammelsetra" />
		<tag k="place" v="locality" />
		<tag k="ssr:stedsnr" v="282456" />
	</node>
	<node id="-298598" lat="60.2475083325" lon="10.7818583384">
		<tag k="name" v="Ensrudmyra" />
		<tag k="natural" v="wetland" />
		<tag k="ssr:stedsnr" v="769579" />
	</node>
	<node id="-298597" lat="60.2520111081" lon="10.7600888849">
		<tag k="name" v="Gresshogstet" />
		<tag k="place" v="locality" />
		<tag k="ssr:stedsnr" v="769571" />
	</node>
	<node id="-298467" lat="60.2736861118" lon="10.764322223">
		<tag k="name" v="Brovollmyra" />
>>>>>>> e1d4bc35ff8a6074a6f2e91616a996b547c36f15
		<tag k="natural" v="wetland" />
		<tag k="ssr:stedsnr" v="32458" />
	</node>
<<<<<<< HEAD
	<node lat="60.236769448429094" lon="10.769888884883532" id="-14556">
		<tag k="name" v="Rølvehogstmyra" />
		<tag k="natural" v="wetland" />
		<tag k="ssr:stedsnr" v="39498" />
	</node>
	<node lat="60.2670388881346" lon="10.798405550761037" id="-14562">
		<tag k="name" v="Kvernhusmyra" />
=======
	<node id="-297595" lat="60.2448249973" lon="10.7472055589">
		<tag k="name" v="Niputtmyra" />
		<tag k="natural" v="wetland" />
		<tag k="ssr:stedsnr" v="223582" />
	</node>
	<node id="-298080" lat="60.2563222205" lon="10.5656472295">
		<tag k="name" v="Vollmyra" />
>>>>>>> e1d4bc35ff8a6074a6f2e91616a996b547c36f15
		<tag k="natural" v="wetland" />
		<tag k="ssr:stedsnr" v="41495" />
	</node>
<<<<<<< HEAD
	<node lat="60.20100555729179" lon="10.754980548104308" id="-14570">
		<tag k="name" v="Stormyra" />
		<tag k="natural" v="wetland" />
		<tag k="ssr:stedsnr" v="66776" />
	</node>
	<node lat="60.30586666570955" lon="10.812502781736548" id="-14576">
		<tag k="historic" v="shieling" />
		<tag k="name" v="Bergsætra" />
		<tag k="place" v="locality" />
		<tag k="ssr:stedsnr" v="67336" />
	</node>
	<node lat="60.25323485275471" lon="10.553044110341055" id="-14595">
=======
	<node id="-298205" lat="60.2532348528" lon="10.5530441103">
>>>>>>> e1d4bc35ff8a6074a6f2e91616a996b547c36f15
		<tag k="historic" v="shieling" />
		<tag k="loc_name" v="Gamlesætra" />
		<tag k="name" v="Ballangrudsetra" />
		<tag k="place" v="locality" />
		<tag k="ssr:stedsnr" v="99084" />
	</node>
<<<<<<< HEAD
	<node lat="60.225955559398656" lon="10.629380553910943" id="-14605">
		<tag k="name" v="Teiemyra" />
		<tag k="natural" v="wetland" />
		<tag k="ssr:stedsnr" v="100254" />
	</node>
	<node lat="60.24664166270206" lon="10.722544435459316" id="-14611">
		<tag k="historic" v="shieling" />
		<tag k="name" v="Klosetra" />
=======
	<node id="-298116" lat="60.2624444448" lon="10.7022750017">
		<tag k="name" v="Setermyra" />
		<tag k="natural" v="wetland" />
		<tag k="ssr:stedsnr" v="951305" />
	</node>
	<node id="-298582" lat="60.1956361119" lon="10.6835138853">
		<tag k="name" v="Svarverbingen" />
>>>>>>> e1d4bc35ff8a6074a6f2e91616a996b547c36f15
		<tag k="place" v="locality" />
		<tag k="ssr:stedsnr" v="101548" />
	</node>
	<node lat="60.217950004263884" lon="10.763655558334237" id="-14615">
		<tag k="name" v="Botntjernsmyra" />
		<tag k="natural" v="wetland" />
		<tag k="ssr:stedsnr" v="101500" />
	</node>
<<<<<<< HEAD
	<node lat="60.18144722026613" lon="10.686358339567326" id="-14637">
=======
	<node id="-297682" lat="60.1814472203" lon="10.6863583396">
>>>>>>> e1d4bc35ff8a6074a6f2e91616a996b547c36f15
		<tag k="name" v="Sørlimyrene" />
		<tag k="natural" v="wetland" />
		<tag k="ssr:stedsnr" v="160017" />
	</node>
<<<<<<< HEAD
	<node lat="60.21285000270798" lon="10.616161114759969" id="-14646">
		<tag k="alt_name" v="Bjønnjelsmyrene" />
		<tag k="name" v="Bjørnhjellsmyrene" />
=======
	<node id="-297745" lat="60.2103472249" lon="10.6573805503">
		<tag k="name" v="Langmyra" />
		<tag k="natural" v="wetland" />
		<tag k="ssr:stedsnr" v="464486" />
	</node>
	<node id="-297806" lat="60.2076527759" lon="10.6567722284">
		<tag k="name" v="Fuglemyra" />
>>>>>>> e1d4bc35ff8a6074a6f2e91616a996b547c36f15
		<tag k="natural" v="wetland" />
		<tag k="ssr:stedsnr" v="160425" />
	</node>
<<<<<<< HEAD
	<node lat="60.20881666727221" lon="10.698666667855926" id="-14649">
		<tag k="name" v="Merramyra" />
		<tag k="natural" v="wetland" />
		<tag k="ssr:stedsnr" v="160353" />
	</node>
	<node lat="60.2606777790726" lon="10.734700008434698" id="-14661">
=======
	<node id="-298059" lat="60.2203361104" lon="10.7686388967">
		<tag k="name" v="Kolsebrenna" />
		<tag k="place" v="locality" />
		<tag k="ssr:stedsnr" v="830505" />
	</node>
	<node id="-297830" lat="60.2685250006" lon="10.7872638933">
		<tag k="name" v="Øvre Andersbråtemyra" />
		<tag k="natural" v="wetland" />
		<tag k="ssr:stedsnr" v="465454" />
	</node>
	<node id="-298313" lat="60.2893257042" lon="10.7137019518">
		<tag k="fixme" v="multiple name tags, choose one and add the other to alt_name" />
>>>>>>> e1d4bc35ff8a6074a6f2e91616a996b547c36f15
		<tag k="historic" v="shieling" />
		<tag k="name" v="Korsvatnsetra" />
		<tag k="place" v="locality" />
		<tag k="ssr:stedsnr" v="162582" />
	</node>
<<<<<<< HEAD
	<node lat="60.249947223385696" lon="10.7589472266316" id="-14662">
		<tag k="name" v="Østre Gresshogstmyra" />
=======
	<node id="-297670" lat="60.195775002" lon="10.6323499937">
		<tag k="name" v="Lanndalsmyra" />
>>>>>>> e1d4bc35ff8a6074a6f2e91616a996b547c36f15
		<tag k="natural" v="wetland" />
		<tag k="ssr:stedsnr" v="162595" />
	</node>
<<<<<<< HEAD
	<node lat="60.2537305542061" lon="10.776633327550769" id="-14663">
		<tag k="name" v="Dorrimyra" />
		<tag k="natural" v="wetland" />
		<tag k="ssr:stedsnr" v="162601" />
	</node>
	<node lat="60.23095618662438" lon="10.555989647369458" id="-14669">
		<tag k="fixme" v="multiple name tags, choose one and add the other to alt_name" />
		<tag k="name" v="Stormyra;Massemyra" />
=======
	<node id="-298564" lat="60.256639789" lon="10.6723500487">
		<tag k="name" v="Østhagan" />
		<tag k="place" v="locality" />
		<tag k="ssr:stedsnr" v="647345" />
	</node>
	<node id="-297667" lat="60.2089777745" lon="10.6654444521">
		<tag k="name" v="Løkenmyra" />
>>>>>>> e1d4bc35ff8a6074a6f2e91616a996b547c36f15
		<tag k="natural" v="wetland" />
		<tag k="ssr:stedsnr" v="187364" />
	</node>
<<<<<<< HEAD
	<node lat="60.24482499731279" lon="10.747205558926929" id="-14700">
		<tag k="name" v="Niputtmyra" />
		<tag k="natural" v="wetland" />
		<tag k="ssr:stedsnr" v="223582" />
	</node>
	<node lat="60.25410277615599" lon="10.762691663029754" id="-14713">
		<tag k="name" v="Nordre Gresshogstmyra" />
		<tag k="natural" v="wetland" />
		<tag k="ssr:stedsnr" v="283497" />
	</node>
	<node lat="60.21001666545158" lon="10.607044442211135" id="-14715">
		<tag k="historic" v="shieling" />
		<tag k="name" v="Gammelsetra" />
=======
	<node id="-298178" lat="60.3058666657" lon="10.8125027817">
		<tag k="historic" v="shieling" />
		<tag k="name" v="Bergsætra" />
		<tag k="place" v="locality" />
		<tag k="ssr:stedsnr" v="67336" />
	</node>
	<node id="-297921" lat="60.2806750026" lon="10.7357555638">
		<tag k="name" v="Tørrgranbrenna" />
		<tag k="place" v="locality" />
		<tag k="ssr:stedsnr" v="586470" />
	</node>
	<node id="-298560" lat="60.274819448" lon="10.6438972139">
		<tag k="name" v="Tåje" />
>>>>>>> e1d4bc35ff8a6074a6f2e91616a996b547c36f15
		<tag k="place" v="locality" />
		<tag k="ssr:stedsnr" v="282456" />
	</node>
<<<<<<< HEAD
	<node lat="60.23305833600694" lon="10.754363897450771" id="-14717">
		<tag k="name" v="Jørnhogstmyra" />
		<tag k="natural" v="wetland" />
		<tag k="ssr:stedsnr" v="282552" />
	</node>
	<node lat="60.24766944259028" lon="10.749936113145887" id="-14766">
		<tag k="name" v="Svarttjernsmyra" />
=======
	<node id="-298559" lat="60.2307555527" lon="10.7277944518">
		<tag k="name" v="Østhagan" />
		<tag k="place" v="locality" />
		<tag k="ssr:stedsnr" v="645472" />
	</node>
	<node id="-298047" lat="60.2294444403" lon="10.5896333369">
		<tag k="name" v="Toputtmyra" />
		<tag k="natural" v="wetland" />
		<tag k="ssr:stedsnr" v="794368" />
	</node>
	<node id="-297717" lat="60.2541027762" lon="10.762691663">
		<tag k="name" v="Nordre Gresshogstmyra" />
>>>>>>> e1d4bc35ff8a6074a6f2e91616a996b547c36f15
		<tag k="natural" v="wetland" />
		<tag k="ssr:stedsnr" v="344576" />
	</node>
<<<<<<< HEAD
	<node lat="60.23490833384532" lon="10.692438881817251" id="-14795">
=======
	<node id="-298425" lat="60.2349083338" lon="10.6924388818">
>>>>>>> e1d4bc35ff8a6074a6f2e91616a996b547c36f15
		<tag k="name" v="Klyptåje" />
		<tag k="place" v="locality" />
		<tag k="ssr:stedsnr" v="403346" />
	</node>
<<<<<<< HEAD
	<node lat="60.32373610893698" lon="10.6943833374826" id="-14799">
		<tag k="name" v="Skjervehagen" />
		<tag k="place" v="locality" />
		<tag k="ssr:stedsnr" v="403952" />
	</node>
	<node lat="60.18028055510783" lon="10.596438888900014" id="-14810">
		<tag k="name" v="Båhusmyra" />
=======
	<node id="-298166" lat="60.2670388881" lon="10.7984055508">
		<tag k="name" v="Kvernhusmyra" />
		<tag k="natural" v="wetland" />
		<tag k="ssr:stedsnr" v="41495" />
	</node>
	<node id="-298549" lat="60.2721277814" lon="10.5906333316">
		<tag k="name" v="Oppenstormyra" />
		<tag k="natural" v="wetland" />
		<tag k="ssr:stedsnr" v="645068" />
	</node>
	<node id="-298291" lat="60.2309561866" lon="10.5559896474">
		<tag k="fixme" v="multiple name tags, choose one and add the other to alt_name" />
		<tag k="name" v="Massemyra;Stormyra" />
>>>>>>> e1d4bc35ff8a6074a6f2e91616a996b547c36f15
		<tag k="natural" v="wetland" />
		<tag k="ssr:stedsnr" v="430030" />
	</node>
<<<<<<< HEAD
	<node lat="60.273686111801624" lon="10.764322223039677" id="-14840">
		<tag k="name" v="Brovollmyra" />
=======
	<node id="-298162" lat="60.248661109" lon="10.7162777737">
		<tag k="name" v="Tømmerbakkmyra" />
>>>>>>> e1d4bc35ff8a6074a6f2e91616a996b547c36f15
		<tag k="natural" v="wetland" />
		<tag k="ssr:stedsnr" v="524470" />
	</node>
<<<<<<< HEAD
	<node lat="60.26430555137448" lon="10.613555563149259" id="-14849">
		<tag k="historic" v="shieling" />
		<tag k="name" v="Kjørvensætra" />
=======
	<node id="-297905" lat="60.2074972254" lon="10.7454833273">
		<tag k="name" v="Badehusbrenna" />
>>>>>>> e1d4bc35ff8a6074a6f2e91616a996b547c36f15
		<tag k="place" v="locality" />
		<tag k="ssr:stedsnr" v="524779" />
	</node>
<<<<<<< HEAD
	<node lat="60.24878333338419" lon="10.633252778678976" id="-14850">
		<tag k="name" v="Krokmyra" />
		<tag k="natural" v="wetland" />
		<tag k="ssr:stedsnr" v="526289" />
	</node>
	<node lat="60.28683611382485" lon="10.816638893416151" id="-14853">
		<tag k="name" v="Finnmyra" />
		<tag k="natural" v="wetland" />
		<tag k="ssr:stedsnr" v="526487" />
	</node>
	<node lat="60.28067500261995" lon="10.735755563792907" id="-14880">
		<tag k="name" v="Tørrgranbrenna" />
		<tag k="place" v="locality" />
		<tag k="ssr:stedsnr" v="586470" />
	</node>
	<node lat="60.27212778136363" lon="10.590633331571926" id="-14907">
		<tag k="name" v="Oppenstormyra" />
		<tag k="natural" v="wetland" />
		<tag k="ssr:stedsnr" v="645068" />
	</node>
	<node lat="60.25663978895251" lon="10.67235004872361" id="-14916">
		<tag k="name" v="Østhagan" />
=======
	<node id="-297902" lat="60.2620138873" lon="10.6956472234">
		<tag k="landuse" v="quarry" />
		<tag k="name" v="Hadelands bergverk" />
		<tag k="ssr:stedsnr" v="708325" />
	</node>
	<node id="-297829" lat="60.2666388879" lon="10.7895527785">
		<tag k="name" v="Nedre Andersbråtemyra" />
		<tag k="natural" v="wetland" />
		<tag k="ssr:stedsnr" v="465453" />
	</node>
	<node id="-297586" lat="60.2368750044" lon="10.7404666651">
		<tag k="name" v="Dalahogstmyra" />
		<tag k="natural" v="wetland" />
		<tag k="ssr:stedsnr" v="221524" />
	</node>
	<node id="-298281" lat="60.2537305542" lon="10.7766333276">
		<tag k="name" v="Dorrimyra" />
		<tag k="natural" v="wetland" />
		<tag k="ssr:stedsnr" v="162601" />
	</node>
	<node id="-298408" lat="60.2644527808" lon="10.5747555564">
		<tag k="name" v="Stormyra" />
		<tag k="natural" v="wetland" />
		<tag k="ssr:stedsnr" v="370818" />
	</node>
	<node id="-298279" lat="60.2606777791" lon="10.7347000084">
		<tag k="historic" v="shieling" />
		<tag k="name" v="Korsvatnsetra" />
>>>>>>> e1d4bc35ff8a6074a6f2e91616a996b547c36f15
		<tag k="place" v="locality" />
		<tag k="ssr:stedsnr" v="647345" />
	</node>
<<<<<<< HEAD
	<node lat="60.2033250036712" lon="10.703652783337086" id="-14936">
		<tag k="alt_name" v="Hagan" />
		<tag k="name" v="Harestuhagan" />
		<tag k="place" v="locality" />
		<tag k="ssr:stedsnr" v="734504" />
	</node>
	<node lat="60.19563611187102" lon="10.68351388531845" id="-14949">
		<tag k="name" v="Svarverbingen" />
		<tag k="place" v="locality" />
		<tag k="ssr:stedsnr" v="767020" />
	</node>
	<node lat="60.25201110812953" lon="10.760088884871955" id="-14957">
		<tag k="name" v="Gresshogstet" />
		<tag k="place" v="locality" />
		<tag k="ssr:stedsnr" v="769571" />
	</node>
	<node lat="60.24750833246188" lon="10.781858338434153" id="-14958">
		<tag k="name" v="Ensrudmyra" />
=======
	<node id="-297765" lat="60.2476694426" lon="10.7499361131">
		<tag k="name" v="Svarttjernsmyra" />
		<tag k="natural" v="wetland" />
		<tag k="ssr:stedsnr" v="344576" />
	</node>
	<node id="-298020" lat="60.2468916669" lon="10.5671916742">
		<tag k="name" v="Ødegårdsmyra" />
		<tag k="natural" v="wetland" />
		<tag k="ssr:stedsnr" v="767111" />
	</node>
	<node id="-298019" lat="60.2438499982" lon="10.7285916719">
		<tag k="name" v="Tyrilågmyra" />
>>>>>>> e1d4bc35ff8a6074a6f2e91616a996b547c36f15
		<tag k="natural" v="wetland" />
		<tag k="ssr:stedsnr" v="769579" />
	</node>
<<<<<<< HEAD
	<node lat="60.31697221797074" lon="10.718508326797922" id="-14962">
		<tag k="name" v="Langmyra" />
		<tag k="natural" v="wetland" />
		<tag k="ssr:stedsnr" v="780894" />
	</node>
	<node lat="60.22033611042012" lon="10.768638896680816" id="-15000">
		<tag k="name" v="Kolsebrenna" />
=======
	<node id="-298146" lat="60.1788638882" lon="10.5802333306">
		<tag k="name" v="Rankedalsmyra" />
		<tag k="natural" v="wetland" />
		<tag k="ssr:stedsnr" v="32458" />
	</node>
	<node id="-297761" lat="60.2457166676" lon="10.6771888919">
		<tag k="name" v="Vengsmarka" />
>>>>>>> e1d4bc35ff8a6074a6f2e91616a996b547c36f15
		<tag k="place" v="locality" />
		<tag k="ssr:stedsnr" v="830505" />
	</node>
<<<<<<< HEAD
	<node lat="60.140122224367765" lon="10.675247230418588" id="-15001">
		<tag k="name" v="Skinnskattmyra" />
=======
	<node id="-297632" lat="60.2082472259" lon="10.6026333296">
		<tag k="name" v="Syljusætermyra" />
>>>>>>> e1d4bc35ff8a6074a6f2e91616a996b547c36f15
		<tag k="natural" v="wetland" />
		<tag k="ssr:stedsnr" v="830236" />
	</node>
<<<<<<< HEAD
	<node lat="60.25913888659306" lon="10.760494446438155" id="-15002">
		<tag k="name" v="Finnbråtemyra" />
		<tag k="natural" v="wetland" />
		<tag k="ssr:stedsnr" v="830551" />
	</node>
	<node lat="60.2534972183024" lon="10.772099996557284" id="-15003">
		<tag k="name" v="Halvorsmyra" />
=======
	<node id="-297803" lat="60.1802805551" lon="10.5964388889">
		<tag k="name" v="Båhusmyra" />
		<tag k="natural" v="wetland" />
		<tag k="ssr:stedsnr" v="430030" />
	</node>
	<node id="-298269" lat="60.2128500027" lon="10.6161611148">
		<tag k="alt_name" v="Bjønnjelsmyrene" />
		<tag k="name" v="Bjørnhjellsmyrene" />
>>>>>>> e1d4bc35ff8a6074a6f2e91616a996b547c36f15
		<tag k="natural" v="wetland" />
		<tag k="ssr:stedsnr" v="830554" />
	</node>
<<<<<<< HEAD
	<node lat="60.23837221990586" lon="10.64761389261407" id="-15037">
		<tag k="name" v="Heimputtmyra" />
		<tag k="natural" v="wetland" />
		<tag k="ssr:stedsnr" v="889287" />
	</node>
	<node lat="60.25632222045448" lon="10.565647229516182" id="-15042">
		<tag k="name" v="Vollmyra" />
=======
	<node id="-298651" lat="60.2549722226" lon="10.766844448">
		<tag k="name" v="Langmyra" />
>>>>>>> e1d4bc35ff8a6074a6f2e91616a996b547c36f15
		<tag k="natural" v="wetland" />
		<tag k="ssr:stedsnr" v="949086" />
	</node>
	<node lat="60.235463891037476" lon="10.63242221612028" id="-15046">
		<tag k="name" v="Liekerspulmyra" />
		<tag k="natural" v="wetland" />
		<tag k="ssr:stedsnr" v="949265" />
	</node>
	<node lat="60.24384999820779" lon="10.72859167185735" id="-15055">
		<tag k="name" v="Tyrilågmyra" />
		<tag k="natural" v="wetland" />
		<tag k="ssr:stedsnr" v="951581" />
	</node>
	<node id="-298650" lat="60.2534972183" lon="10.7720999966">
		<tag k="name" v="Halvorsmyra" />
		<tag k="natural" v="wetland" />
		<tag k="ssr:stedsnr" v="830554" />
	</node>
	<node id="-298649" lat="60.2591388866" lon="10.7604944464">
		<tag k="name" v="Finnbråtemyra" />
		<tag k="natural" v="wetland" />
		<tag k="ssr:stedsnr" v="830551" />
	</node>
	<node id="-297752" lat="60.2599805522" lon="10.6278027849">
		<tag k="name" v="Skjerpemyra" />
		<tag k="natural" v="wetland" />
		<tag k="ssr:stedsnr" v="465292" />
	</node>
	<node id="-297668" lat="60.2259555594" lon="10.6293805539">
		<tag k="name" v="Teiemyra" />
		<tag k="natural" v="wetland" />
		<tag k="ssr:stedsnr" v="100254" />
	</node>
	<node id="-298646" lat="60.1401222244" lon="10.6752472304">
		<tag k="name" v="Skinnskattmyra" />
		<tag k="natural" v="wetland" />
		<tag k="ssr:stedsnr" v="830236" />
	</node>
	<node id="-297749" lat="60.187166667" lon="10.7561555547">
		<tag k="name" v="Vølhogstet" />
		<tag k="place" v="locality" />
		<tag k="ssr:stedsnr" v="464693" />
	</node>
	<node id="-298516" lat="60.2319305547" lon="10.7743944428">
		<tag k="name" v="Sørenhogstmyra" />
		<tag k="natural" v="wetland" />
		<tag k="ssr:stedsnr" v="585440" />
	</node>
	<node id="-298158" lat="60.2367694484" lon="10.7698888849">
		<tag k="name" v="Rølvehogstmyra" />
		<tag k="natural" v="wetland" />
		<tag k="ssr:stedsnr" v="39498" />
	</node>
	<node id="-297746" lat="60.2087138863" lon="10.617616659">
		<tag k="name" v="Karusputtrøe" />
		<tag k="place" v="locality" />
		<tag k="ssr:stedsnr" v="464488" />
	</node>
	<node id="-297875" lat="60.1762777801" lon="10.5874527848">
		<tag k="name" v="Rankedalsmyra" />
		<tag k="natural" v="wetland" />
		<tag k="ssr:stedsnr" v="699881" />
	</node>
	<node id="-298024" lat="60.2459472251" lon="10.6895027827">
		<tag k="name" v="Rundelsmyra" />
		<tag k="natural" v="wetland" />
		<tag k="ssr:stedsnr" v="769306" />
	</node>
	<node id="-297995" lat="60.2383722199" lon="10.6476138926">
		<tag k="name" v="Heimputtmyra" />
		<tag k="natural" v="wetland" />
		<tag k="ssr:stedsnr" v="889287" />
	</node>
	<node id="-297865" lat="60.2643055514" lon="10.6135555631">
		<tag k="historic" v="shieling" />
		<tag k="name" v="Kjørvensætra" />
		<tag k="place" v="locality" />
		<tag k="ssr:stedsnr" v="524779" />
	</node>
	<node id="-298376" lat="60.2367611152" lon="10.7621472175">
		<tag k="name" v="Framstadmyrene" />
		<tag k="natural" v="wetland" />
		<tag k="ssr:stedsnr" v="342491" />
	</node>
	<node id="-297964" lat="60.2033250037" lon="10.7036527833">
		<tag k="alt_name" v="Hagan" />
		<tag k="name" v="Harestuhagan" />
		<tag k="place" v="locality" />
		<tag k="ssr:stedsnr" v="734504" />
	</node>
	<node id="-298374" lat="60.1831444432" lon="10.6466222189">
		<tag k="name" v="Muttamyra" />
		<tag k="natural" v="wetland" />
		<tag k="ssr:stedsnr" v="342409" />
	</node>
	<node id="-298372" lat="60.2221500016" lon="10.6420222224">
		<tag k="name" v="Storhogstet" />
		<tag k="place" v="locality" />
		<tag k="ssr:stedsnr" v="342314" />
	</node>
	<node id="-297686" lat="60.2088166673" lon="10.6986666679">
		<tag k="name" v="Merramyra" />
		<tag k="natural" v="wetland" />
		<tag k="ssr:stedsnr" v="160353" />
	</node>
</osm>
