<?xml version="1.0" encoding="UTF-8"?>
<<<<<<< HEAD
<osm version="0.6" generator="osmapis">
	<node lat="60.15886666977509" lon="10.703169444181777" id="-13925">
		<tag k="fixme" v="consider natural=peak for the most distinct mountains in the district" />
		<tag k="name" v="Fiskeløysåsen" />
		<tag k="natural" v="hill" />
		<tag k="place" v="locality" />
		<tag k="ssr:stedsnr" v="5006" />
	</node>
	<node lat="60.17669722598915" lon="10.704236105149667" id="-13926">
		<tag k="alt_name" v="Glitrahøgda" />
		<tag k="fixme" v="consider natural=peak for the most distinct mountains in the district" />
		<tag k="name" v="Glitrehøgda" />
		<tag k="natural" v="hill" />
		<tag k="place" v="locality" />
		<tag k="ssr:stedsnr" v="5013" />
	</node>
	<node lat="60.24279166722078" lon="10.769463886666994" id="-13933">
		<tag k="alt_name" v="Sølvtjernshaugen" />
		<tag k="name" v="Sølvtjernshøgda" />
		<tag k="natural" v="hill" />
		<tag k="place" v="locality" />
		<tag k="ssr:stedsnr" v="5910" />
	</node>
	<node lat="60.26838889252311" lon="10.539752779329005" id="-13939">
		<tag k="name" v="Skarpsno" />
		<tag k="natural" v="slope" />
		<tag k="place" v="locality" />
		<tag k="ssr:stedsnr" v="32969" />
	</node>
	<node lat="60.27481944046632" lon="10.572641657653636" id="-13942">
		<tag k="name" v="Lykjetoppen" />
		<tag k="natural" v="hill" />
		<tag k="place" v="locality" />
		<tag k="ssr:stedsnr" v="39067" />
	</node>
	<node lat="60.2664666652531" lon="10.735244439088463" id="-13944">
		<tag k="name" v="Rinilhaugen" />
		<tag k="natural" v="hill" />
		<tag k="place" v="locality" />
		<tag k="ssr:stedsnr" v="39479" />
	</node>
	<node lat="60.19509999753003" lon="10.751766673091279" id="-13945">
		<tag k="name" v="Tømmerbakken" />
		<tag k="natural" v="slope" />
		<tag k="place" v="locality" />
		<tag k="ssr:stedsnr" v="39626" />
	</node>
	<node lat="60.25431666275948" lon="10.681024997795037" id="-13949">
		<tag k="name" v="Styggdalen" />
		<tag k="natural" v="valley" />
		<tag k="place" v="locality" />
		<tag k="ssr:stedsnr" v="40314" />
	</node>
	<node lat="60.253486115153315" lon="10.537091672782866" id="-13950">
		<tag k="name" v="Snålen" />
		<tag k="place" v="locality" />
		<tag k="ssr:stedsnr" v="40422" />
	</node>
	<node lat="60.21718055460429" lon="10.649502775288967" id="-13951">
		<tag k="alt_name" v="Bråstadalen" />
		<tag k="name" v="Bråstaddalen" />
		<tag k="natural" v="valley" />
=======
<osm generator="osmapis" version="0.6">
	<node id="-297980" lat="60.3121138896" lon="10.7751722218">
		<tag k="name" v="Geiteberga" />
		<tag k="natural" v="hill" />
>>>>>>> e1d4bc35ff8a6074a6f2e91616a996b547c36f15
		<tag k="place" v="locality" />
		<tag k="ssr:stedsnr" v="41501" />
	</node>
<<<<<<< HEAD
	<node lat="60.28427221848386" lon="10.751627778307839" id="-13953">
		<tag k="name" v="Kalvedalsvegen" />
		<tag k="natural" v="valley" />
=======
	<node id="-298481" lat="60.2130666687" lon="10.7667888926">
		<tag k="name" v="Botntjernslia" />
		<tag k="natural" v="slope" />
>>>>>>> e1d4bc35ff8a6074a6f2e91616a996b547c36f15
		<tag k="place" v="locality" />
		<tag k="ssr:stedsnr" v="41486" />
	</node>
<<<<<<< HEAD
	<node lat="60.16894722257418" lon="10.650761113855031" id="-13955">
		<tag k="name" v="Kraftstasjonsdalen" />
		<tag k="natural" v="valley" />
=======
	<node id="-298475" lat="60.3047916643" lon="10.8085138912">
		<tag k="name" v="Bergseterlia" />
		<tag k="natural" v="slope" />
>>>>>>> e1d4bc35ff8a6074a6f2e91616a996b547c36f15
		<tag k="place" v="locality" />
		<tag k="ssr:stedsnr" v="64035" />
	</node>
<<<<<<< HEAD
	<node lat="60.21053333592072" lon="10.559788882041826" id="-13970">
		<tag k="fixme" v="consider natural=peak for the most distinct mountains in the district" />
		<tag k="name" v="Syversdalsbrenna" />
=======
	<node id="-297961" lat="60.2629500028" lon="10.7349305553">
		<tag k="alt_name" v="Korsvasshøgda, nordre;Nordre Korsvatnhaugen" />
		<tag k="name" v="Nordre Korsvasshøgda" />
>>>>>>> e1d4bc35ff8a6074a6f2e91616a996b547c36f15
		<tag k="natural" v="hill" />
		<tag k="place" v="locality" />
		<tag k="ssr:stedsnr" v="93265" />
	</node>
<<<<<<< HEAD
	<node lat="60.179050002596036" lon="10.634366660136203" id="-13972">
		<tag k="fixme" v="consider natural=peak for the most distinct mountains in the district" />
		<tag k="name" v="Almedalshøgda" />
		<tag k="natural" v="hill" />
=======
	<node id="-297929" lat="60.2387888907" lon="10.67635555">
		<tag k="fixme" v="consider natural=peak for the most distinct mountains in the district" />
		<tag k="name" v="Svaraberget" />
		<tag k="natural" v="hill" />
		<tag k="place" v="locality" />
		<tag k="ssr:stedsnr" v="611417" />
	</node>
	<node id="-298470" lat="60.1896583339" lon="10.7682888809">
		<tag k="name" v="Paradislia" />
		<tag k="natural" v="slope" />
>>>>>>> e1d4bc35ff8a6074a6f2e91616a996b547c36f15
		<tag k="place" v="locality" />
		<tag k="ssr:stedsnr" v="248038" />
	</node>
<<<<<<< HEAD
	<node lat="60.26732500258794" lon="10.589155559727212" id="-13977">
		<tag k="name" v="Lundberghaugen" />
=======
	<node id="-298468" lat="60.2394861081" lon="10.7431583405">
		<tag k="name" v="Griniberget" />
>>>>>>> e1d4bc35ff8a6074a6f2e91616a996b547c36f15
		<tag k="natural" v="hill" />
		<tag k="place" v="locality" />
		<tag k="ssr:stedsnr" v="100104" />
	</node>
<<<<<<< HEAD
	<node lat="60.157741663112226" lon="10.764030561173316" id="-13985">
		<tag k="name" v="Varplia" />
=======
	<node id="-297955" lat="60.2323055533" lon="10.7490555479">
		<tag k="name" v="Tronsbotnbakken" />
>>>>>>> e1d4bc35ff8a6074a6f2e91616a996b547c36f15
		<tag k="natural" v="slope" />
		<tag k="place" v="locality" />
		<tag k="ssr:stedsnr" v="100705" />
	</node>
<<<<<<< HEAD
	<node lat="60.27130555555634" lon="10.655541666858145" id="-13986">
		<tag k="name" v="Røsteberga" />
		<tag k="natural" v="hill" />
=======
	<node id="-298466" lat="60.2688444463" lon="10.7447305568">
		<tag k="name" v="Djupdalen" />
		<tag k="natural" v="valley" />
>>>>>>> e1d4bc35ff8a6074a6f2e91616a996b547c36f15
		<tag k="place" v="locality" />
		<tag k="ssr:stedsnr" v="100762" />
	</node>
<<<<<<< HEAD
	<node lat="60.135277778757164" lon="10.61873333652216" id="-13991">
		<tag k="alt_name" v="Kyrkjeberget" />
		<tag k="fixme" v="consider natural=peak for the most distinct mountains in the district" />
		<tag k="name" v="Kjerkeberget" />
		<tag k="natural" v="hill" />
		<tag k="old_name" v="Kirkebjerget" />
=======
	<node id="-297952" lat="60.2113305566" lon="10.5834111167">
		<tag k="name" v="Styggdalen" />
		<tag k="natural" v="valley" />
>>>>>>> e1d4bc35ff8a6074a6f2e91616a996b547c36f15
		<tag k="place" v="locality" />
		<tag k="ssr:stedsnr" v="248393" />
	</node>
<<<<<<< HEAD
	<node lat="60.22341944863968" lon="10.777013894773775" id="-13997">
		<tag k="name" v="Skotjernhaugen" />
		<tag k="natural" v="hill" />
		<tag k="place" v="locality" />
		<tag k="ssr:stedsnr" v="248874" />
	</node>
	<node lat="60.285100001702" lon="10.706033327075618" id="-14001">
=======
	<node id="-298455" lat="60.2541500012" lon="10.6986388812">
>>>>>>> e1d4bc35ff8a6074a6f2e91616a996b547c36f15
		<tag k="fixme" v="consider natural=peak for the most distinct mountains in the district" />
		<tag k="name" v="Sæterberget" />
		<tag k="natural" v="hill" />
		<tag k="place" v="locality" />
		<tag k="ssr:stedsnr" v="249807" />
	</node>
<<<<<<< HEAD
	<node lat="60.26819999575037" lon="10.653413883293913" id="-14006">
		<tag k="fixme" v="consider natural=peak for the most distinct mountains in the district" />
		<tag k="name" v="Olsknappen" />
		<tag k="natural" v="hill" />
		<tag k="place" v="locality" />
		<tag k="ssr:stedsnr" v="249790" />
	</node>
	<node lat="60.24074722457353" lon="10.759316667603612" id="-14018">
		<tag k="alt_name" v="Høgesset" />
		<tag k="name" v="Høgeset" />
=======
	<node id="-298451" lat="60.2783000021" lon="10.7595277698">
		<tag k="name" v="Kalvehaugen" />
>>>>>>> e1d4bc35ff8a6074a6f2e91616a996b547c36f15
		<tag k="natural" v="hill" />
		<tag k="place" v="locality" />
		<tag k="ssr:stedsnr" v="126819" />
	</node>
<<<<<<< HEAD
	<node lat="60.25723611070122" lon="10.684741659731495" id="-14032">
		<tag k="name" v="Milsteinhagahaugen" />
=======
	<node id="-297936" lat="60.1910138861" lon="10.7607972155">
		<tag k="name" v="Puttehøgda" />
>>>>>>> e1d4bc35ff8a6074a6f2e91616a996b547c36f15
		<tag k="natural" v="hill" />
		<tag k="place" v="locality" />
		<tag k="ssr:stedsnr" v="162321" />
	</node>
<<<<<<< HEAD
	<node lat="60.2911805525412" lon="10.801861103764837" id="-14034">
		<tag k="name" v="Midtmoen" />
		<tag k="place" v="locality" />
		<tag k="ssr:stedsnr" v="162503" />
	</node>
	<node lat="60.21400555798196" lon="10.610438888618186" id="-14035">
		<tag k="alt_name" v="Bjønnjele" />
		<tag k="name" v="Bjørnhjellen" />
		<tag k="natural" v="slope" />
		<tag k="place" v="locality" />
		<tag k="ssr:stedsnr" v="162509" />
	</node>
	<node lat="60.14197777793013" lon="10.623991659817696" id="-14039">
		<tag k="alt_name" v="Refshammeren" />
=======
	<node id="-298447" lat="60.2188277807" lon="10.5931944446">
		<tag k="alt_name" v="Syljuseterhaugen" />
>>>>>>> e1d4bc35ff8a6074a6f2e91616a996b547c36f15
		<tag k="fixme" v="consider natural=peak for the most distinct mountains in the district" />
		<tag k="name" v="Revshammaren" />
		<tag k="natural" v="hill" />
		<tag k="place" v="locality" />
		<tag k="ssr:stedsnr" v="187101" />
	</node>
<<<<<<< HEAD
	<node lat="60.2409805583206" lon="10.791205553293484" id="-14042">
		<tag k="alt_name" v="Bukkehaugen" />
		<tag k="name" v="Bukkehøgda" />
=======
	<node id="-298446" lat="60.2285055596" lon="10.6029555491">
		<tag k="alt_name" v="Bislingsflaka" />
		<tag k="fixme" v="consider natural=peak for the most distinct mountains in the district" />
		<tag k="name" v="Bislingflaka" />
>>>>>>> e1d4bc35ff8a6074a6f2e91616a996b547c36f15
		<tag k="natural" v="hill" />
		<tag k="place" v="locality" />
		<tag k="ssr:stedsnr" v="187816" />
	</node>
<<<<<<< HEAD
	<node lat="60.173969447521124" lon="10.596288895389831" id="-14055">
		<tag k="fixme" v="consider natural=peak for the most distinct mountains in the district" />
		<tag k="name" v="Ringåsen" />
=======
	<node id="-298441" lat="60.2532999984" lon="10.7415777718">
		<tag k="name" v="Rognbråtefjellet" />
>>>>>>> e1d4bc35ff8a6074a6f2e91616a996b547c36f15
		<tag k="natural" v="hill" />
		<tag k="place" v="locality" />
		<tag k="ssr:stedsnr" v="214894" />
	</node>
<<<<<<< HEAD
	<node lat="60.24009722087583" lon="10.72889722546682" id="-14063">
		<tag k="name" v="Arndalslia" />
		<tag k="natural" v="slope" />
=======
	<node id="-297927" lat="60.3074611092" lon="10.8001833389">
		<tag k="name" v="Skriverbrudalen" />
		<tag k="natural" v="valley" />
>>>>>>> e1d4bc35ff8a6074a6f2e91616a996b547c36f15
		<tag k="place" v="locality" />
		<tag k="ssr:stedsnr" v="221526" />
	</node>
<<<<<<< HEAD
	<node lat="60.28903888987379" lon="10.702186109879923" id="-14064">
		<tag k="name" v="Mana" />
=======
	<node id="-297926" lat="60.1617277798" lon="10.6572249948">
		<tag k="fixme" v="multiple name tags, choose one and add the other to alt_name; consider natural=peak for the most distinct mountains in the district" />
		<tag k="name" v="Daltjuvhøgda;Daltjuvmana" />
>>>>>>> e1d4bc35ff8a6074a6f2e91616a996b547c36f15
		<tag k="natural" v="hill" />
		<tag k="place" v="locality" />
		<tag k="ssr:stedsnr" v="221907" />
	</node>
<<<<<<< HEAD
	<node lat="60.290258330867616" lon="10.696997214189581" id="-14065">
		<tag k="name" v="Manbakken" />
		<tag k="natural" v="slope" />
=======
	<node id="-298435" lat="60.1853555589" lon="10.6236194373">
		<tag k="name" v="Tunelltippen" />
>>>>>>> e1d4bc35ff8a6074a6f2e91616a996b547c36f15
		<tag k="place" v="locality" />
		<tag k="ssr:stedsnr" v="221909" />
	</node>
<<<<<<< HEAD
	<node lat="60.17110000180356" lon="10.58140277985286" id="-14078">
		<tag k="fixme" v="consider natural=peak for the most distinct mountains in the district" />
		<tag k="name" v="Katnoshøgda" />
		<tag k="natural" v="hill" />
=======
	<node id="-298434" lat="60.1920361128" lon="10.6577416718">
		<tag k="name" v="Hololia" />
		<tag k="natural" v="slope" />
>>>>>>> e1d4bc35ff8a6074a6f2e91616a996b547c36f15
		<tag k="place" v="locality" />
		<tag k="ssr:stedsnr" v="248024" />
	</node>
<<<<<<< HEAD
	<node lat="60.22825277671254" lon="10.71628055019601" id="-14083">
=======
	<node id="-298430" lat="60.2071027819" lon="10.6676111042">
>>>>>>> e1d4bc35ff8a6074a6f2e91616a996b547c36f15
		<tag k="fixme" v="consider natural=peak for the most distinct mountains in the district" />
		<tag k="name" v="Geithaugen" />
		<tag k="natural" v="hill" />
		<tag k="place" v="locality" />
		<tag k="ssr:stedsnr" v="248474" />
	</node>
<<<<<<< HEAD
	<node lat="60.21305833437894" lon="10.753730548824882" id="-14085">
		<tag k="alt_name" v="Gunnershøgda" />
		<tag k="name" v="Gunnarshaugen" />
		<tag k="natural" v="hill" />
=======
	<node id="-297916" lat="60.1727249961" lon="10.7546472179">
		<tag k="name" v="Smellbakk" />
		<tag k="natural" v="slope" />
>>>>>>> e1d4bc35ff8a6074a6f2e91616a996b547c36f15
		<tag k="place" v="locality" />
		<tag k="ssr:stedsnr" v="248865" />
	</node>
<<<<<<< HEAD
	<node lat="60.30693610737831" lon="10.822866660983061" id="-14090">
		<tag k="name" v="Glåmtjernshaugen" />
=======
	<node id="-297915" lat="60.2377416666" lon="10.7581222163">
		<tag k="name" v="Framstadberget" />
>>>>>>> e1d4bc35ff8a6074a6f2e91616a996b547c36f15
		<tag k="natural" v="hill" />
		<tag k="place" v="locality" />
		<tag k="ssr:stedsnr" v="249304" />
	</node>
<<<<<<< HEAD
	<node lat="60.27463333652009" lon="10.70814166686916" id="-14093">
		<tag k="name" v="Paradishaugen" />
		<tag k="natural" v="hill" />
=======
	<node id="-297912" lat="60.1783777785" lon="10.6622361083">
		<tag k="name" v="Ørnebolia" />
		<tag k="natural" v="slope" />
>>>>>>> e1d4bc35ff8a6074a6f2e91616a996b547c36f15
		<tag k="place" v="locality" />
		<tag k="ssr:stedsnr" v="282218" />
	</node>
<<<<<<< HEAD
	<node lat="60.176408334006645" lon="10.723894452570105" id="-14097">
		<tag k="name" v="Strandrøe" />
=======
	<node id="-297907" lat="60.2535888881" lon="10.7186055574">
		<tag k="name" v="Tømmerbakken" />
>>>>>>> e1d4bc35ff8a6074a6f2e91616a996b547c36f15
		<tag k="natural" v="slope" />
		<tag k="place" v="locality" />
		<tag k="ssr:stedsnr" v="282730" />
	</node>
<<<<<<< HEAD
	<node lat="60.26949999615319" lon="10.735027773768769" id="-14106">
=======
	<node id="-298418" lat="60.3206083357" lon="10.46490278">
>>>>>>> e1d4bc35ff8a6074a6f2e91616a996b547c36f15
		<tag k="name" v="Styggdalen" />
		<tag k="natural" v="valley" />
		<tag k="place" v="locality" />
		<tag k="ssr:stedsnr" v="464541" />
	</node>
<<<<<<< HEAD
	<node lat="60.270669444188634" lon="10.615919453141483" id="-14111">
		<tag k="name" v="Jørnsbrannshaugen" />
=======
	<node id="-297903" lat="60.2954305574" lon="10.7349861129">
		<tag k="name" v="Morstadseterhaugen" />
>>>>>>> e1d4bc35ff8a6074a6f2e91616a996b547c36f15
		<tag k="natural" v="hill" />
		<tag k="place" v="locality" />
		<tag k="ssr:stedsnr" v="464830" />
	</node>
<<<<<<< HEAD
	<node lat="60.26681111215464" lon="10.544605563390196" id="-14117">
		<tag k="fixme" v="consider natural=peak for the most distinct mountains in the district" />
		<tag k="name" v="Holtåsen" />
=======
	<node id="-297885" lat="60.2727583377" lon="10.7072916652">
		<tag k="fixme" v="consider natural=peak for the most distinct mountains in the district" />
		<tag k="name" v="Nyseterhøgda" />
		<tag k="natural" v="hill" />
		<tag k="place" v="locality" />
		<tag k="ssr:stedsnr" v="706231" />
	</node>
	<node id="-297900" lat="60.2566166654" lon="10.6314611049">
		<tag k="name" v="Larmerudshaugen" />
>>>>>>> e1d4bc35ff8a6074a6f2e91616a996b547c36f15
		<tag k="natural" v="hill" />
		<tag k="place" v="locality" />
		<tag k="ssr:stedsnr" v="309801" />
	</node>
<<<<<<< HEAD
	<node lat="60.21246944674033" lon="10.573758339374406" id="-14122">
		<tag k="name" v="Belgedalen" />
		<tag k="natural" v="valley" />
=======
	<node id="-297898" lat="60.1540638865" lon="10.6733916714">
		<tag k="name" v="Handkleputthøgda" />
		<tag k="natural" v="hill" />
>>>>>>> e1d4bc35ff8a6074a6f2e91616a996b547c36f15
		<tag k="place" v="locality" />
		<tag k="ssr:stedsnr" v="335244" />
	</node>
<<<<<<< HEAD
	<node lat="60.291758330019626" lon="10.693236116585012" id="-14134">
		<tag k="name" v="Mørkomdalen" />
		<tag k="natural" v="valley" />
		<tag k="place" v="locality" />
		<tag k="ssr:stedsnr" v="342901" />
	</node>
	<node lat="60.2514222254173" lon="10.695077774666835" id="-14136">
		<tag k="fixme" v="consider natural=peak for the most distinct mountains in the district" />
		<tag k="name" v="Ellingsrudberget" />
		<tag k="natural" v="hill" />
		<tag k="place" v="locality" />
		<tag k="ssr:stedsnr" v="344315" />
	</node>
	<node lat="60.28021389239201" lon="10.750397215904684" id="-14138">
		<tag k="name" v="Simahaugdalen" />
=======
	<node id="-297894" lat="60.1850361088" lon="10.7619750054">
		<tag k="name" v="Paradisdalen" />
>>>>>>> e1d4bc35ff8a6074a6f2e91616a996b547c36f15
		<tag k="natural" v="valley" />
		<tag k="place" v="locality" />
		<tag k="ssr:stedsnr" v="344499" />
	</node>
<<<<<<< HEAD
	<node lat="60.192947226183485" lon="10.634913882499943" id="-14140">
		<tag k="alt_name" v="Lonndalshøgda" />
		<tag k="fixme" v="consider natural=peak for the most distinct mountains in the district" />
		<tag k="name" v="Løndalshøgda" />
		<tag k="natural" v="hill" />
=======
	<node id="-298405" lat="60.2820750025" lon="10.7355500012">
		<tag k="name" v="Kalvedalen" />
		<tag k="natural" v="valley" />
>>>>>>> e1d4bc35ff8a6074a6f2e91616a996b547c36f15
		<tag k="place" v="locality" />
		<tag k="ssr:stedsnr" v="369035" />
	</node>
<<<<<<< HEAD
	<node lat="60.26767777421275" lon="10.780299996166706" id="-14145">
=======
	<node id="-298404" lat="60.2676777742" lon="10.7802999962">
>>>>>>> e1d4bc35ff8a6074a6f2e91616a996b547c36f15
		<tag k="alt_name" v="Snellingshaugen" />
		<tag k="name" v="Snellingshøgda" />
		<tag k="natural" v="hill" />
		<tag k="place" v="locality" />
		<tag k="ssr:stedsnr" v="370418" />
	</node>
<<<<<<< HEAD
	<node lat="60.282075002450554" lon="10.735550001237018" id="-14146">
		<tag k="name" v="Kalvedalen" />
		<tag k="natural" v="valley" />
		<tag k="place" v="locality" />
		<tag k="ssr:stedsnr" v="370672" />
	</node>
	<node lat="60.320608335705145" lon="10.464902780026495" id="-14152">
		<tag k="name" v="Styggdalen" />
		<tag k="natural" v="valley" />
=======
	<node id="-297890" lat="60.2129722184" lon="10.6952361092">
		<tag k="name" v="Stubbengmoen" />
>>>>>>> e1d4bc35ff8a6074a6f2e91616a996b547c36f15
		<tag k="place" v="locality" />
		<tag k="ssr:stedsnr" v="393132" />
	</node>
<<<<<<< HEAD
	<node lat="60.20710278185407" lon="10.667611104176537" id="-14158">
		<tag k="fixme" v="consider natural=peak for the most distinct mountains in the district" />
		<tag k="name" v="Seterberget" />
=======
	<node id="-297886" lat="60.2819138907" lon="10.7085166716">
		<tag k="name" v="Hestahagaberget" />
>>>>>>> e1d4bc35ff8a6074a6f2e91616a996b547c36f15
		<tag k="natural" v="hill" />
		<tag k="place" v="locality" />
		<tag k="ssr:stedsnr" v="403379" />
	</node>
<<<<<<< HEAD
	<node lat="60.159405559406366" lon="10.614994439283175" id="-14167">
=======
	<node id="-298397" lat="60.221658335" lon="10.5934305503">
		<tag k="alt_name" v="Venhaugene" />
>>>>>>> e1d4bc35ff8a6074a6f2e91616a996b547c36f15
		<tag k="fixme" v="consider natural=peak for the most distinct mountains in the district" />
		<tag k="name" v="Branntjernhøgda" />
		<tag k="natural" v="hill" />
		<tag k="place" v="locality" />
		<tag k="ssr:stedsnr" v="490021" />
	</node>
<<<<<<< HEAD
	<node lat="60.21882778067779" lon="10.593194444599398" id="-14174">
		<tag k="alt_name" v="Syljuseterhaugen" />
		<tag k="fixme" v="consider natural=peak for the most distinct mountains in the district" />
		<tag k="name" v="Syljusæterkollen" />
=======
	<node id="-297883" lat="60.140597226" lon="10.6372527774">
		<tag k="name" v="Kalveberget" />
>>>>>>> e1d4bc35ff8a6074a6f2e91616a996b547c36f15
		<tag k="natural" v="hill" />
		<tag k="place" v="locality" />
		<tag k="ssr:stedsnr" v="430464" />
	</node>
<<<<<<< HEAD
	<node lat="60.2629000037776" lon="10.682200000558348" id="-14183">
=======
	<node id="-298394" lat="60.2097277798" lon="10.6270694531">
		<tag k="alt_name" v="Fjellsjøberget" />
>>>>>>> e1d4bc35ff8a6074a6f2e91616a996b547c36f15
		<tag k="fixme" v="consider natural=peak for the most distinct mountains in the district" />
		<tag k="name" v="Tveitmarkhøgda" />
		<tag k="natural" v="hill" />
		<tag k="place" v="locality" />
		<tag k="ssr:stedsnr" v="491791" />
	</node>
	<node lat="60.31336944582487" lon="10.618983327157093" id="-14191">
		<tag k="name" v="Blisteintoppen" />
		<tag k="natural" v="hill" />
		<tag k="place" v="locality" />
		<tag k="ssr:stedsnr" v="454276" />
	</node>
	<node lat="60.24109167115695" lon="10.741299996138915" id="-14197">
		<tag k="alt_name" v="Leihaugen" />
		<tag k="name" v="Leidhaugen" />
		<tag k="natural" v="hill" />
		<tag k="place" v="locality" />
		<tag k="ssr:stedsnr" v="673833" />
	</node>
<<<<<<< HEAD
	<node lat="60.240061115215596" lon="10.72097778061904" id="-14198">
=======
	<node id="-298393" lat="60.2462277754" lon="10.6174777768">
		<tag k="alt_name" v="Knippahaugen" />
>>>>>>> e1d4bc35ff8a6074a6f2e91616a996b547c36f15
		<tag k="fixme" v="consider natural=peak for the most distinct mountains in the district" />
		<tag k="name" v="Bjørgesæterfjellet" />
		<tag k="natural" v="hill" />
		<tag k="place" v="locality" />
		<tag k="ssr:stedsnr" v="673834" />
	</node>
<<<<<<< HEAD
	<node lat="60.18327777708451" lon="10.680033331593771" id="-14206">
		<tag k="name" v="Holodalen" />
		<tag k="natural" v="valley" />
=======
	<node id="-298392" lat="60.1929472262" lon="10.6349138825">
		<tag k="alt_name" v="Lonndalshøgda" />
		<tag k="fixme" v="consider natural=peak for the most distinct mountains in the district" />
		<tag k="name" v="Løndalshøgda" />
		<tag k="natural" v="hill" />
>>>>>>> e1d4bc35ff8a6074a6f2e91616a996b547c36f15
		<tag k="place" v="locality" />
		<tag k="ssr:stedsnr" v="464014" />
	</node>
<<<<<<< HEAD
	<node lat="60.14228333711129" lon="10.704958336638436" id="-14207">
		<tag k="name" v="Djupdalen" />
		<tag k="natural" v="valley" />
=======
	<node id="-297879" lat="60.1517722219" lon="10.6406083303">
		<tag k="name" v="Torsbrenna" />
		<tag k="natural" v="hill" />
>>>>>>> e1d4bc35ff8a6074a6f2e91616a996b547c36f15
		<tag k="place" v="locality" />
		<tag k="ssr:stedsnr" v="464017" />
	</node>
<<<<<<< HEAD
	<node lat="60.17515277744498" lon="10.729750006909374" id="-14212">
		<tag k="name" v="Vangenlia" />
		<tag k="natural" v="slope" />
=======
	<node id="-297878" lat="60.1459916704" lon="10.6527916594">
		<tag k="name" v="Ingvalsflaten" />
>>>>>>> e1d4bc35ff8a6074a6f2e91616a996b547c36f15
		<tag k="place" v="locality" />
		<tag k="ssr:stedsnr" v="464764" />
	</node>
<<<<<<< HEAD
	<node lat="60.25287777546169" lon="10.711238897609563" id="-14213">
		<tag k="name" v="Tørrgranhaugen" />
		<tag k="natural" v="hill" />
=======
	<node id="-297625" lat="60.1711000018" lon="10.5814027799">
		<tag k="fixme" v="consider natural=peak for the most distinct mountains in the district" />
		<tag k="name" v="Katnoshøgda" />
		<tag k="natural" v="hill" />
		<tag k="place" v="locality" />
		<tag k="ssr:stedsnr" v="248024" />
	</node>
	<node id="-298386" lat="60.2802138924" lon="10.7503972159">
		<tag k="name" v="Simahaugdalen" />
		<tag k="natural" v="valley" />
>>>>>>> e1d4bc35ff8a6074a6f2e91616a996b547c36f15
		<tag k="place" v="locality" />
		<tag k="ssr:stedsnr" v="465306" />
	</node>
<<<<<<< HEAD
	<node lat="60.13354444187013" lon="10.680308337149674" id="-14231">
		<tag k="fixme" v="consider natural=peak for the most distinct mountains in the district" />
		<tag k="name" v="Skinnskattberget" />
=======
	<node id="-297870" lat="60.3092527778" lon="10.5276388951">
		<tag k="name" v="Lunnerbakkhøgda" />
>>>>>>> e1d4bc35ff8a6074a6f2e91616a996b547c36f15
		<tag k="natural" v="hill" />
		<tag k="place" v="locality" />
		<tag k="ssr:stedsnr" v="491089" />
	</node>
<<<<<<< HEAD
	<node lat="60.31183055372367" lon="10.527480557212492" id="-14240">
		<tag k="name" v="Finnlaushøgda" />
		<tag k="natural" v="hill" />
		<tag k="place" v="locality" />
		<tag k="ssr:stedsnr" v="515808" />
	</node>
	<node lat="60.29060000029222" lon="10.74026111606619" id="-14247">
=======
	<node id="-297867" lat="60.2906000003" lon="10.7402611161">
>>>>>>> e1d4bc35ff8a6074a6f2e91616a996b547c36f15
		<tag k="name" v="Morstadseterlia" />
		<tag k="natural" v="slope" />
		<tag k="place" v="locality" />
		<tag k="ssr:stedsnr" v="526411" />
	</node>
<<<<<<< HEAD
	<node lat="60.21306666869873" lon="10.76678889261096" id="-14250">
		<tag k="name" v="Botntjernslia" />
		<tag k="natural" v="slope" />
=======
	<node id="-297864" lat="60.2665861129" lon="10.6150277726">
		<tag k="name" v="Kjørvensæteråsen" />
		<tag k="natural" v="hill" />
>>>>>>> e1d4bc35ff8a6074a6f2e91616a996b547c36f15
		<tag k="place" v="locality" />
		<tag k="ssr:stedsnr" v="526514" />
	</node>
<<<<<<< HEAD
	<node lat="60.241208337712784" lon="10.621338882499325" id="-14271">
		<tag k="name" v="Bjønnputthaugen" />
=======
	<node id="-298375" lat="60.2779527795" lon="10.7466166605">
		<tag k="name" v="Simahaugen" />
>>>>>>> e1d4bc35ff8a6074a6f2e91616a996b547c36f15
		<tag k="natural" v="hill" />
		<tag k="place" v="locality" />
		<tag k="ssr:stedsnr" v="585250" />
	</node>
<<<<<<< HEAD
	<node lat="60.237741666564716" lon="10.758122216291651" id="-14274">
		<tag k="name" v="Framstadberget" />
		<tag k="natural" v="hill" />
=======
	<node id="-297653" lat="60.2681999958" lon="10.6534138833">
		<tag k="fixme" v="consider natural=peak for the most distinct mountains in the district" />
		<tag k="name" v="Olsknappen" />
		<tag k="natural" v="hill" />
		<tag k="place" v="locality" />
		<tag k="ssr:stedsnr" v="249790" />
	</node>
	<node id="-298369" lat="60.2299361154" lon="10.550958337">
		<tag k="name" v="Hosotjernsdalen" />
		<tag k="natural" v="valley" />
>>>>>>> e1d4bc35ff8a6074a6f2e91616a996b547c36f15
		<tag k="place" v="locality" />
		<tag k="ssr:stedsnr" v="585526" />
	</node>
<<<<<<< HEAD
	<node lat="60.24994722199483" lon="10.761836111749435" id="-14279">
		<tag k="name" v="Sølvtjerntoppen" />
=======
	<node id="-297847" lat="60.2400611152" lon="10.7209777806">
		<tag k="fixme" v="consider natural=peak for the most distinct mountains in the district" />
		<tag k="name" v="Bjørgesæterfjellet" />
>>>>>>> e1d4bc35ff8a6074a6f2e91616a996b547c36f15
		<tag k="natural" v="hill" />
		<tag k="place" v="locality" />
		<tag k="ssr:stedsnr" v="586558" />
	</node>
<<<<<<< HEAD
	<node lat="60.30925277782539" lon="10.527638895107778" id="-14281">
		<tag k="name" v="Lunnerbakkhøgda" />
=======
	<node id="-297846" lat="60.2410916712" lon="10.7412999961">
		<tag k="alt_name" v="Leihaugen" />
		<tag k="name" v="Leidhaugen" />
>>>>>>> e1d4bc35ff8a6074a6f2e91616a996b547c36f15
		<tag k="natural" v="hill" />
		<tag k="place" v="locality" />
		<tag k="ssr:stedsnr" v="697799" />
	</node>
<<<<<<< HEAD
	<node lat="60.16172777981245" lon="10.657224994817652" id="-14287">
		<tag k="fixme" v="multiple name tags, choose one and add the other to alt_name; consider natural=peak for the most distinct mountains in the district" />
		<tag k="name" v="Daltjuvhøgda;Daltjuvmana" />
		<tag k="natural" v="hill" />
=======
	<node id="-298356" lat="60.2124694467" lon="10.5737583394">
		<tag k="name" v="Belgedalen" />
		<tag k="natural" v="valley" />
>>>>>>> e1d4bc35ff8a6074a6f2e91616a996b547c36f15
		<tag k="place" v="locality" />
		<tag k="ssr:stedsnr" v="609033" />
	</node>
<<<<<<< HEAD
	<node lat="60.19101388607693" lon="10.760797215485791" id="-14291">
		<tag k="name" v="Puttehøgda" />
=======
	<node id="-298355" lat="60.212780557" lon="10.5793833255">
		<tag k="name" v="Styggdalshaugen" />
>>>>>>> e1d4bc35ff8a6074a6f2e91616a996b547c36f15
		<tag k="natural" v="hill" />
		<tag k="place" v="locality" />
		<tag k="ssr:stedsnr" v="612761" />
	</node>
<<<<<<< HEAD
	<node lat="60.27275833769971" lon="10.707291665198301" id="-14304">
		<tag k="fixme" v="consider natural=peak for the most distinct mountains in the district" />
		<tag k="name" v="Nyseterhøgda" />
		<tag k="natural" v="hill" />
		<tag k="place" v="locality" />
		<tag k="ssr:stedsnr" v="706231" />
	</node>
	<node lat="60.28191389068583" lon="10.708516671626516" id="-14305">
		<tag k="name" v="Hestahagaberget" />
=======
	<node id="-298131" lat="60.2427916672" lon="10.7694638867">
		<tag k="alt_name" v="Sølvtjernshaugen" />
		<tag k="name" v="Sølvtjernshøgda" />
		<tag k="natural" v="hill" />
		<tag k="place" v="locality" />
		<tag k="ssr:stedsnr" v="5910" />
	</node>
	<node id="-297836" lat="60.2942277737" lon="10.7229861071">
		<tag k="alt_name" v="Bredehaugen" />
		<tag k="name" v="Breidhaugen" />
>>>>>>> e1d4bc35ff8a6074a6f2e91616a996b547c36f15
		<tag k="natural" v="hill" />
		<tag k="place" v="locality" />
		<tag k="ssr:stedsnr" v="706232" />
	</node>
<<<<<<< HEAD
	<node lat="60.14059722604947" lon="10.637252777403587" id="-14309">
		<tag k="name" v="Kalveberget" />
		<tag k="natural" v="hill" />
=======
	<node id="-297833" lat="60.1670027785" lon="10.6381222293">
		<tag k="name" v="Karidalstomta" />
>>>>>>> e1d4bc35ff8a6074a6f2e91616a996b547c36f15
		<tag k="place" v="locality" />
		<tag k="ssr:stedsnr" v="706052" />
	</node>
<<<<<<< HEAD
	<node lat="60.18733611472025" lon="10.665247216760273" id="-14316">
		<tag k="name" v="Bardunflågan" />
=======
	<node id="-298343" lat="60.2668111122" lon="10.5446055634">
		<tag k="fixme" v="consider natural=peak for the most distinct mountains in the district" />
		<tag k="name" v="Holtåsen" />
>>>>>>> e1d4bc35ff8a6074a6f2e91616a996b547c36f15
		<tag k="natural" v="hill" />
		<tag k="place" v="locality" />
		<tag k="ssr:stedsnr" v="645017" />
	</node>
<<<<<<< HEAD
	<node lat="60.17374722034634" lon="10.647058331597952" id="-14317">
		<tag k="name" v="Almedalen" />
		<tag k="natural" v="valley" />
		<tag k="place" v="locality" />
		<tag k="ssr:stedsnr" v="645030" />
	</node>
	<node lat="60.207200000142606" lon="10.696736116710266" id="-14321">
		<tag k="name" v="Tangenmoen" />
=======
	<node id="-298340" lat="60.2573916639" lon="10.6204999951">
		<tag k="alt_name" v="Ristirevberge" />
		<tag k="fixme" v="consider natural=peak for the most distinct mountains in the district" />
		<tag k="name" v="Ristirauvfjellet" />
		<tag k="natural" v="hill" />
		<tag k="place" v="locality" />
		<tag k="ssr:stedsnr" v="309752" />
	</node>
	<node id="-297825" lat="60.1422833371" lon="10.7049583366">
		<tag k="name" v="Djupdalen" />
		<tag k="natural" v="valley" />
>>>>>>> e1d4bc35ff8a6074a6f2e91616a996b547c36f15
		<tag k="place" v="locality" />
		<tag k="ssr:stedsnr" v="645378" />
	</node>
<<<<<<< HEAD
	<node lat="60.185036108788225" lon="10.761975005350651" id="-14325">
		<tag k="name" v="Paradisdalen" />
=======
	<node id="-297824" lat="60.1832777771" lon="10.6800333316">
		<tag k="name" v="Holodalen" />
>>>>>>> e1d4bc35ff8a6074a6f2e91616a996b547c36f15
		<tag k="natural" v="valley" />
		<tag k="place" v="locality" />
		<tag k="ssr:stedsnr" v="706748" />
	</node>
<<<<<<< HEAD
	<node lat="60.13804721852898" lon="10.66742778269739" id="-14329">
		<tag k="name" v="Skinnskatthøgda" />
=======
	<node id="-297823" lat="60.2224277782" lon="10.5718777726">
		<tag k="alt_name" v="Åssjøknarten" />
		<tag k="fixme" v="consider natural=peak for the most distinct mountains in the district" />
		<tag k="name" v="Ålsjøknarten" />
>>>>>>> e1d4bc35ff8a6074a6f2e91616a996b547c36f15
		<tag k="natural" v="hill" />
		<tag k="place" v="locality" />
		<tag k="ssr:stedsnr" v="647810" />
	</node>
<<<<<<< HEAD
	<node lat="60.256616665435075" lon="10.63146110493151" id="-14331">
		<tag k="name" v="Larmerudshaugen" />
=======
	<node id="-298327" lat="60.1739694475" lon="10.5962888954">
		<tag k="fixme" v="consider natural=peak for the most distinct mountains in the district" />
		<tag k="name" v="Ringåsen" />
>>>>>>> e1d4bc35ff8a6074a6f2e91616a996b547c36f15
		<tag k="natural" v="hill" />
		<tag k="place" v="locality" />
		<tag k="ssr:stedsnr" v="708310" />
	</node>
<<<<<<< HEAD
	<node lat="60.27766944301423" lon="10.725616668425083" id="-14332">
		<tag k="name" v="Gammelholmen" />
		<tag k="natural" v="hill" />
=======
	<node id="-298325" lat="60.2241388911" lon="10.5717611103">
		<tag k="alt_name" v="Åssjøbrenna" />
		<tag k="fixme" v="consider natural=peak for the most distinct mountains in the district" />
		<tag k="name" v="Ålsjøbrenna" />
		<tag k="natural" v="hill" />
		<tag k="old_name" v="Aalsjö Brendn" />
		<tag k="place" v="locality" />
		<tag k="ssr:stedsnr" v="214168" />
	</node>
	<node id="-297801" lat="60.1657888927" lon="10.6521916751">
		<tag k="name" v="Daltjuvtomta" />
>>>>>>> e1d4bc35ff8a6074a6f2e91616a996b547c36f15
		<tag k="place" v="locality" />
		<tag k="ssr:stedsnr" v="708547" />
	</node>
<<<<<<< HEAD
	<node lat="60.253588888087705" lon="10.71860555744172" id="-14333">
		<tag k="name" v="Tømmerbakken" />
=======
	<node id="-297800" lat="60.1662527768" lon="10.6315861197">
		<tag k="name" v="Åstjernslia" />
>>>>>>> e1d4bc35ff8a6074a6f2e91616a996b547c36f15
		<tag k="natural" v="slope" />
		<tag k="place" v="locality" />
		<tag k="ssr:stedsnr" v="708554" />
	</node>
<<<<<<< HEAD
	<node lat="60.312113889635455" lon="10.77517222184406" id="-14336">
		<tag k="name" v="Geiteberga" />
=======
	<node id="-297799" lat="60.3118305537" lon="10.5274805572">
		<tag k="name" v="Finnlaushøgda" />
>>>>>>> e1d4bc35ff8a6074a6f2e91616a996b547c36f15
		<tag k="natural" v="hill" />
		<tag k="place" v="locality" />
		<tag k="ssr:stedsnr" v="658904" />
	</node>
<<<<<<< HEAD
	<node lat="60.16700277854376" lon="10.638122229336547" id="-14337">
		<tag k="name" v="Karidalstomta" />
		<tag k="place" v="locality" />
		<tag k="ssr:stedsnr" v="671043" />
	</node>
	<node lat="60.294227773659976" lon="10.722986107083388" id="-14341">
		<tag k="alt_name" v="Bredehaugen" />
		<tag k="name" v="Breidhaugen" />
=======
	<node id="-297793" lat="60.2714083297" lon="10.6916444412">
		<tag k="fixme" v="consider natural=peak for the most distinct mountains in the district" />
		<tag k="name" v="Tveitmarktoppen" />
>>>>>>> e1d4bc35ff8a6074a6f2e91616a996b547c36f15
		<tag k="natural" v="hill" />
		<tag k="place" v="locality" />
		<tag k="ssr:stedsnr" v="673307" />
	</node>
<<<<<<< HEAD
	<node lat="60.31735277809272" lon="10.619602779492462" id="-14349">
		<tag k="name" v="Ulsrudberget" />
		<tag k="natural" v="ridge" />
=======
	<node id="-298299" lat="60.2725083322" lon="10.7937361029">
		<tag k="name" v="Granlia" />
		<tag k="natural" v="slope" />
>>>>>>> e1d4bc35ff8a6074a6f2e91616a996b547c36f15
		<tag k="place" v="locality" />
		<tag k="ssr:stedsnr" v="940267" />
	</node>
<<<<<<< HEAD
	<node lat="60.14599167037652" lon="10.652791659446407" id="-14356">
		<tag k="name" v="Ingvalsflaten" />
=======
	<node id="-298296" lat="60.2104499975" lon="10.5655611184">
		<tag k="name" v="Syversdalen" />
		<tag k="natural" v="valley" />
>>>>>>> e1d4bc35ff8a6074a6f2e91616a996b547c36f15
		<tag k="place" v="locality" />
		<tag k="ssr:stedsnr" v="706024" />
	</node>
<<<<<<< HEAD
	<node lat="60.151772221942856" lon="10.640608330324955" id="-14357">
		<tag k="name" v="Torsbrenna" />
=======
	<node id="-297694" lat="60.214005558" lon="10.6104388886">
		<tag k="alt_name" v="Bjønnjele" />
		<tag k="name" v="Bjørnhjellen" />
		<tag k="natural" v="slope" />
		<tag k="place" v="locality" />
		<tag k="ssr:stedsnr" v="162509" />
	</node>
	<node id="-298290" lat="60.2425194416" lon="10.658825001">
		<tag k="alt_name" v="Varden" />
		<tag k="fixme" v="consider natural=peak for the most distinct mountains in the district" />
		<tag k="name" v="Klattertjernberget" />
>>>>>>> e1d4bc35ff8a6074a6f2e91616a996b547c36f15
		<tag k="natural" v="hill" />
		<tag k="place" v="locality" />
		<tag k="ssr:stedsnr" v="706027" />
	</node>
<<<<<<< HEAD
	<node lat="60.2129722184043" lon="10.695236109221334" id="-14361">
		<tag k="name" v="Stubbengmoen" />
		<tag k="place" v="locality" />
		<tag k="ssr:stedsnr" v="706370" />
	</node>
	<node lat="60.15406388648252" lon="10.673391671377855" id="-14363">
		<tag k="name" v="Handkleputthøgda" />
=======
	<node id="-297775" lat="60.2629000038" lon="10.6822000006">
		<tag k="fixme" v="consider natural=peak for the most distinct mountains in the district" />
		<tag k="name" v="Tveitmarkhøgda" />
		<tag k="natural" v="hill" />
		<tag k="place" v="locality" />
		<tag k="ssr:stedsnr" v="491791" />
	</node>
	<node id="-298284" lat="60.1505722189" lon="10.6604972295">
		<tag k="fixme" v="consider natural=peak for the most distinct mountains in the district" />
		<tag k="name" v="Daltjuvmåna" />
>>>>>>> e1d4bc35ff8a6074a6f2e91616a996b547c36f15
		<tag k="natural" v="hill" />
		<tag k="place" v="locality" />
		<tag k="ssr:stedsnr" v="708265" />
	</node>
<<<<<<< HEAD
	<node lat="60.29543055735523" lon="10.734986112883561" id="-14364">
		<tag k="name" v="Morstadseterhaugen" />
		<tag k="natural" v="hill" />
		<tag k="place" v="locality" />
		<tag k="ssr:stedsnr" v="708426" />
	</node>
	<node lat="60.30746110921343" lon="10.800183338930706" id="-14369">
		<tag k="name" v="Skriverbrudalen" />
		<tag k="natural" v="valley" />
=======
	<node id="-297771" lat="60.1335444419" lon="10.6803083371">
		<tag k="fixme" v="consider natural=peak for the most distinct mountains in the district" />
		<tag k="name" v="Skinnskattberget" />
		<tag k="natural" v="hill" />
		<tag k="place" v="locality" />
		<tag k="ssr:stedsnr" v="491089" />
	</node>
	<node id="-297607" lat="60.2534861152" lon="10.5370916728">
		<tag k="name" v="Snålen" />
		<tag k="place" v="locality" />
		<tag k="ssr:stedsnr" v="40422" />
	</node>
	<node id="-297764" lat="60.2479611111" lon="10.7316805552">
		<tag k="name" v="Ranglet" />
>>>>>>> e1d4bc35ff8a6074a6f2e91616a996b547c36f15
		<tag k="place" v="locality" />
		<tag k="ssr:stedsnr" v="719904" />
	</node>
<<<<<<< HEAD
	<node lat="60.21133055663626" lon="10.583411116671542" id="-14374">
		<tag k="name" v="Styggdalen" />
		<tag k="natural" v="valley" />
=======
	<node id="-297762" lat="60.2514222254" lon="10.6950777747">
		<tag k="fixme" v="consider natural=peak for the most distinct mountains in the district" />
		<tag k="name" v="Ellingsrudberget" />
		<tag k="natural" v="hill" />
>>>>>>> e1d4bc35ff8a6074a6f2e91616a996b547c36f15
		<tag k="place" v="locality" />
		<tag k="ssr:stedsnr" v="733447" />
	</node>
<<<<<<< HEAD
	<node lat="60.21175833777245" lon="10.59736945056804" id="-14386">
		<tag k="name" v="Syljuseterlia" />
=======
	<node id="-298272" lat="60.1888750045" lon="10.7379361088">
		<tag k="name" v="Harestulia" />
>>>>>>> e1d4bc35ff8a6074a6f2e91616a996b547c36f15
		<tag k="natural" v="slope" />
		<tag k="place" v="locality" />
		<tag k="ssr:stedsnr" v="760252" />
	</node>
<<<<<<< HEAD
	<node lat="60.322325002204416" lon="10.661247225163814" id="-14397">
		<tag k="name" v="Lisberget" />
=======
	<node id="-297759" lat="60.2361250025" lon="10.7940833289">
		<tag k="fixme" v="consider natural=peak for the most distinct mountains in the district" />
		<tag k="name" v="Skotjernfjellet" />
>>>>>>> e1d4bc35ff8a6074a6f2e91616a996b547c36f15
		<tag k="natural" v="hill" />
		<tag k="place" v="locality" />
		<tag k="ssr:stedsnr" v="767955" />
	</node>
<<<<<<< HEAD
	<node lat="60.26205555760644" lon="10.662497218002509" id="-14399">
		<tag k="name" v="Milsteinberget" />
=======
	<node id="-297754" lat="60.2528777755" lon="10.7112388976">
		<tag k="name" v="Tørrgranhaugen" />
>>>>>>> e1d4bc35ff8a6074a6f2e91616a996b547c36f15
		<tag k="natural" v="hill" />
		<tag k="place" v="locality" />
		<tag k="ssr:stedsnr" v="768289" />
	</node>
<<<<<<< HEAD
	<node lat="60.214203962236525" lon="10.544868140088994" id="-14407">
		<tag k="alt_name" v="Kolleren" />
		<tag k="fixme" v="consider natural=peak for the most distinct mountains in the district" />
		<tag k="name" v="Kollern" />
=======
	<node id="-298265" lat="60.1988888932" lon="10.6930111193">
		<tag k="name" v="Korpeberget" />
>>>>>>> e1d4bc35ff8a6074a6f2e91616a996b547c36f15
		<tag k="natural" v="hill" />
		<tag k="place" v="locality" />
		<tag k="ssr:stedsnr" v="794472" />
	</node>
<<<<<<< HEAD
	<node lat="60.13211666817187" lon="10.655983336143384" id="-14415">
		<tag k="fixme" v="consider natural=peak for the most distinct mountains in the district" />
		<tag k="name" v="Hadelandshøgda" />
		<tag k="natural" v="hill" />
		<tag k="place" v="locality" />
		<tag k="ssr:stedsnr" v="795116" />
	</node>
	<node lat="60.2576166690393" lon="10.703361109365689" id="-14449">
		<tag k="name" v="Abrahamsdalen" />
=======
	<node id="-297751" lat="60.2706694442" lon="10.6159194531">
		<tag k="name" v="Jørnsbrannshaugen" />
		<tag k="natural" v="hill" />
		<tag k="place" v="locality" />
		<tag k="ssr:stedsnr" v="464830" />
	</node>
	<node id="-297748" lat="60.2694999962" lon="10.7350277738">
		<tag k="name" v="Styggdalen" />
>>>>>>> e1d4bc35ff8a6074a6f2e91616a996b547c36f15
		<tag k="natural" v="valley" />
		<tag k="place" v="locality" />
		<tag k="ssr:stedsnr" v="830290" />
	</node>
<<<<<<< HEAD
	<node lat="60.152972221318066" lon="10.63869445056257" id="-14452">
		<tag k="name" v="Guribrenna" />
		<tag k="natural" v="slope" />
		<tag k="place" v="locality" />
		<tag k="ssr:stedsnr" v="855117" />
	</node>
	<node lat="60.232316665343866" lon="10.5573611136541" id="-14456">
		<tag k="name" v="Massebrenna" />
=======
	<node id="-297649" lat="60.3069361074" lon="10.822866661">
		<tag k="name" v="Glåmtjernshaugen" />
		<tag k="natural" v="hill" />
		<tag k="place" v="locality" />
		<tag k="ssr:stedsnr" v="249304" />
	</node>
	<node id="-297740" lat="60.1605638926" lon="10.6645027787">
		<tag k="name" v="Nyseterlia" />
		<tag k="natural" v="slope" />
>>>>>>> e1d4bc35ff8a6074a6f2e91616a996b547c36f15
		<tag k="place" v="locality" />
		<tag k="ssr:stedsnr" v="855393" />
	</node>
<<<<<<< HEAD
	<node lat="60.25367500290551" lon="10.800583327754495" id="-14459">
		<tag k="alt_name" v="Storvatnhaugen" />
		<tag k="name" v="Storvasshaugen" />
		<tag k="natural" v="hill" />
		<tag k="place" v="locality" />
		<tag k="ssr:stedsnr" v="856397" />
	</node>
	<node lat="60.14488888456503" lon="10.659347216960093" id="-14467">
		<tag k="name" v="Dritrennberget" />
=======
	<node id="-298107" lat="60.1856555519" lon="10.679938883">
		<tag k="name" v="Sponbakken" />
		<tag k="natural" v="slope" />
		<tag k="place" v="locality" />
		<tag k="ssr:stedsnr" v="949018" />
	</node>
	<node id="-297857" lat="60.1594055594" lon="10.6149944393">
		<tag k="fixme" v="consider natural=peak for the most distinct mountains in the district" />
		<tag k="name" v="Branntjernhøgda" />
		<tag k="natural" v="hill" />
		<tag k="place" v="locality" />
		<tag k="ssr:stedsnr" v="490021" />
	</node>
	<node id="-298244" lat="60.2407472246" lon="10.7593166676">
		<tag k="alt_name" v="Høgesset" />
		<tag k="name" v="Høgeset" />
>>>>>>> e1d4bc35ff8a6074a6f2e91616a996b547c36f15
		<tag k="natural" v="hill" />
		<tag k="place" v="locality" />
		<tag k="ssr:stedsnr" v="888025" />
	</node>
<<<<<<< HEAD
	<node lat="60.26966388968976" lon="10.593986117077282" id="-14468">
		<tag k="name" v="Smørhaugen" />
		<tag k="natural" v="hill" />
=======
	<node id="-297600" lat="60.2748194405" lon="10.5726416577">
		<tag k="name" v="Lykjetoppen" />
		<tag k="natural" v="hill" />
		<tag k="place" v="locality" />
		<tag k="ssr:stedsnr" v="39067" />
	</node>
	<node id="-297723" lat="60.2902583309" lon="10.6969972142">
		<tag k="name" v="Manbakken" />
		<tag k="natural" v="slope" />
>>>>>>> e1d4bc35ff8a6074a6f2e91616a996b547c36f15
		<tag k="place" v="locality" />
		<tag k="ssr:stedsnr" v="889126" />
	</node>
<<<<<<< HEAD
	<node lat="60.22915555404026" lon="10.672772229278712" id="-14473">
		<tag k="name" v="Gjerdeberget" />
=======
	<node id="-297722" lat="60.2890388899" lon="10.7021861099">
		<tag k="name" v="Mana" />
>>>>>>> e1d4bc35ff8a6074a6f2e91616a996b547c36f15
		<tag k="natural" v="hill" />
		<tag k="place" v="locality" />
		<tag k="ssr:stedsnr" v="889354" />
	</node>
<<<<<<< HEAD
	<node lat="60.193902777315245" lon="10.656402774436806" id="-14474">
		<tag k="fixme" v="consider natural=peak for the most distinct mountains in the district" />
		<tag k="name" v="Lortholhøgda" />
=======
	<node id="-297721" lat="60.2409805583" lon="10.7912055533">
		<tag k="alt_name" v="Bukkehaugen" />
		<tag k="name" v="Bukkehøgda" />
>>>>>>> e1d4bc35ff8a6074a6f2e91616a996b547c36f15
		<tag k="natural" v="hill" />
		<tag k="place" v="locality" />
		<tag k="ssr:stedsnr" v="889454" />
	</node>
<<<<<<< HEAD
	<node lat="60.29261944256147" lon="10.693288889536744" id="-14475">
		<tag k="name" v="Jørstadløkka" />
=======
	<node id="-297716" lat="60.2605388851" lon="10.7591749983">
		<tag k="name" v="Finnbråten" />
		<tag k="natural" v="hill" />
>>>>>>> e1d4bc35ff8a6074a6f2e91616a996b547c36f15
		<tag k="place" v="locality" />
		<tag k="ssr:stedsnr" v="889930" />
	</node>
<<<<<<< HEAD
	<node lat="60.3182916639673" lon="10.710836109233092" id="-14476">
		<tag k="name" v="Skjervemoen" />
=======
	<node id="-298224" lat="60.2494666679" lon="10.7049388805">
		<tag k="name" v="Rogndalen" />
		<tag k="natural" v="valley" />
>>>>>>> e1d4bc35ff8a6074a6f2e91616a996b547c36f15
		<tag k="place" v="locality" />
		<tag k="ssr:stedsnr" v="889939" />
	</node>
<<<<<<< HEAD
	<node lat="60.26707222329326" lon="10.658333337511996" id="-14482">
		<tag k="name" v="Kariberget" />
		<tag k="natural" v="hill" />
		<tag k="place" v="locality" />
		<tag k="ssr:stedsnr" v="890326" />
	</node>
	<node lat="60.30586666268835" lon="10.565933330453051" id="-14501">
		<tag k="name" v="Lunnerkollen" />
		<tag k="natural" v="hill" />
		<tag k="place" v="locality" />
		<tag k="ssr:stedsnr" v="949081" />
	</node>
	<node lat="60.2477833353862" lon="10.788719450383242" id="-14510">
		<tag k="name" v="Bukkelia" />
=======
	<node id="-297708" lat="60.176408334" lon="10.7238944526">
		<tag k="name" v="Strandrøe" />
>>>>>>> e1d4bc35ff8a6074a6f2e91616a996b547c36f15
		<tag k="natural" v="slope" />
		<tag k="place" v="locality" />
		<tag k="ssr:stedsnr" v="951596" />
	</node>
<<<<<<< HEAD
	<node lat="60.17952500171665" lon="10.577397230043912" id="-14523">
		<tag k="name" v="Rankedalen" />
=======
	<node id="-297704" lat="60.1981249997" lon="10.6313166579">
		<tag k="name" v="Styggdalen" />
>>>>>>> e1d4bc35ff8a6074a6f2e91616a996b547c36f15
		<tag k="natural" v="valley" />
		<tag k="place" v="locality" />
		<tag k="ssr:stedsnr" v="5026" />
	</node>
<<<<<<< HEAD
	<node lat="60.16806667016574" lon="10.758180548838721" id="-14525">
		<tag k="name" v="Svartberget" />
=======
	<node id="-298215" lat="60.2713055556" lon="10.6555416669">
		<tag k="name" v="Røsteberga" />
>>>>>>> e1d4bc35ff8a6074a6f2e91616a996b547c36f15
		<tag k="natural" v="hill" />
		<tag k="place" v="locality" />
		<tag k="ssr:stedsnr" v="5690" />
	</node>
<<<<<<< HEAD
	<node lat="60.31217778030937" lon="10.747563891671684" id="-14527">
		<tag k="alt_name" v="Kampehaugen" />
		<tag k="fixme" v="consider natural=peak for the most distinct mountains in the district" />
		<tag k="name" v="Kampen" />
=======
	<node id="-297699" lat="60.2320916627" lon="10.6384055514">
		<tag k="name" v="Nilsebrenna" />
>>>>>>> e1d4bc35ff8a6074a6f2e91616a996b547c36f15
		<tag k="natural" v="hill" />
		<tag k="place" v="locality" />
		<tag k="ssr:stedsnr" v="6333" />
	</node>
<<<<<<< HEAD
	<node lat="60.27582499899657" lon="10.700416668042138" id="-14539">
		<tag k="fixme" v="consider natural=peak for the most distinct mountains in the district" />
		<tag k="name" v="Dalasjøhøgda" />
		<tag k="natural" v="hill" />
=======
	<node id="-297698" lat="60.2300805568" lon="10.6236666693">
		<tag k="name" v="Flisbanen" />
>>>>>>> e1d4bc35ff8a6074a6f2e91616a996b547c36f15
		<tag k="place" v="locality" />
		<tag k="ssr:stedsnr" v="6799" />
	</node>
<<<<<<< HEAD
	<node lat="60.312052779160034" lon="10.611766669175049" id="-14543">
		<tag k="name" v="Råstadtoppen" />
=======
	<node id="-297697" lat="60.2746333365" lon="10.7081416669">
		<tag k="name" v="Paradishaugen" />
>>>>>>> e1d4bc35ff8a6074a6f2e91616a996b547c36f15
		<tag k="natural" v="hill" />
		<tag k="place" v="locality" />
		<tag k="ssr:stedsnr" v="29286" />
	</node>
<<<<<<< HEAD
	<node lat="60.1898861072372" lon="10.632025008806925" id="-14549">
		<tag k="name" v="Lonndalen" />
		<tag k="natural" v="valley" />
=======
	<node id="-298208" lat="60.2702305552" lon="10.555336107">
		<tag k="name" v="Øverlia" />
		<tag k="natural" v="slope" />
>>>>>>> e1d4bc35ff8a6074a6f2e91616a996b547c36f15
		<tag k="place" v="locality" />
		<tag k="ssr:stedsnr" v="39404" />
	</node>
<<<<<<< HEAD
	<node lat="60.23862722083405" lon="10.579738723743677" id="-14554">
		<tag k="name" v="Myllslia" />
		<tag k="natural" v="slope" />
		<tag k="place" v="locality" />
		<tag k="ssr:stedsnr" v="39128" />
	</node>
	<node lat="60.24825833700772" lon="10.766113897861528" id="-14561">
		<tag k="name" v="Svenskesletta" />
		<tag k="natural" v="slope" />
=======
	<node id="-298206" lat="60.1425999986" lon="10.6266111177">
		<tag k="name" v="Refshammerdalen" />
		<tag k="natural" v="valley" />
		<tag k="place" v="locality" />
		<tag k="ssr:stedsnr" v="99021" />
	</node>
	<node id="-297693" lat="60.2911805525" lon="10.8018611038">
		<tag k="name" v="Midtmoen" />
>>>>>>> e1d4bc35ff8a6074a6f2e91616a996b547c36f15
		<tag k="place" v="locality" />
		<tag k="ssr:stedsnr" v="40558" />
	</node>
<<<<<<< HEAD
	<node lat="60.19881388451589" lon="10.671305554919476" id="-14565">
=======
	<node id="-298716" lat="60.1347222237" lon="10.5716611029">
		<tag k="name" v="Nordmarka" />
		<tag k="natural" v="wood" />
		<tag k="ssr:stedsnr" v="874528" />
	</node>
	<node id="-298203" lat="60.2105333359" lon="10.559788882">
>>>>>>> e1d4bc35ff8a6074a6f2e91616a996b547c36f15
		<tag k="fixme" v="consider natural=peak for the most distinct mountains in the district" />
		<tag k="name" v="Sørlihøgda" />
		<tag k="natural" v="hill" />
		<tag k="place" v="locality" />
		<tag k="ssr:stedsnr" v="66430" />
	</node>
<<<<<<< HEAD
	<node lat="60.20442500349741" lon="10.765827781733526" id="-14568">
		<tag k="name" v="Piperberget" />
=======
	<node id="-297690" lat="60.2572361107" lon="10.6847416597">
		<tag k="name" v="Milsteinhagahaugen" />
>>>>>>> e1d4bc35ff8a6074a6f2e91616a996b547c36f15
		<tag k="natural" v="hill" />
		<tag k="place" v="locality" />
		<tag k="ssr:stedsnr" v="66774" />
	</node>
<<<<<<< HEAD
	<node lat="60.183980244038814" lon="10.764327679802348" id="-14569">
		<tag k="alt_name" v="Paradispipern" />
		<tag k="fixme" v="consider natural=peak for the most distinct mountains in the district" />
		<tag k="name" v="Paradiskollen" />
		<tag k="natural" v="hill" />
		<tag k="place" v="locality" />
		<tag k="ssr:stedsnr" v="66806" />
	</node>
	<node lat="60.3136972181065" lon="10.850477778611772" id="-14575">
		<tag k="name" v="Hellerhøgda" />
		<tag k="natural" v="hill" />
=======
	<node id="-298712" lat="60.21481111" lon="10.5444166585">
		<tag k="alt_name" v="Kolleren" />
		<tag k="fixme" v="consider natural=peak for the most distinct mountains in the district" />
		<tag k="name" v="Kollern" />
		<tag k="natural" v="hill" />
		<tag k="place" v="locality" />
		<tag k="ssr:stedsnr" v="794472" />
	</node>
	<node id="-297684" lat="60.1971027792" lon="10.6688361165">
		<tag k="name" v="Djupdalen" />
		<tag k="natural" v="valley" />
>>>>>>> e1d4bc35ff8a6074a6f2e91616a996b547c36f15
		<tag k="place" v="locality" />
		<tag k="ssr:stedsnr" v="67287" />
	</node>
<<<<<<< HEAD
	<node lat="60.14259999855331" lon="10.626611117717793" id="-14596">
		<tag k="name" v="Refshammerdalen" />
		<tag k="natural" v="valley" />
=======
	<node id="-297683" lat="60.1952888849" lon="10.692616668">
		<tag k="name" v="Tømte" />
>>>>>>> e1d4bc35ff8a6074a6f2e91616a996b547c36f15
		<tag k="place" v="locality" />
		<tag k="ssr:stedsnr" v="99021" />
	</node>
<<<<<<< HEAD
	<node lat="60.270230555178465" lon="10.555336107020494" id="-14600">
		<tag k="name" v="Øverlia" />
=======
	<node id="-297636" lat="60.2282527767" lon="10.7162805502">
		<tag k="fixme" v="consider natural=peak for the most distinct mountains in the district" />
		<tag k="name" v="Geithaugen" />
		<tag k="natural" v="hill" />
		<tag k="place" v="locality" />
		<tag k="ssr:stedsnr" v="248474" />
	</node>
	<node id="-297672" lat="60.1577416631" lon="10.7640305612">
		<tag k="name" v="Varplia" />
>>>>>>> e1d4bc35ff8a6074a6f2e91616a996b547c36f15
		<tag k="natural" v="slope" />
		<tag k="place" v="locality" />
		<tag k="ssr:stedsnr" v="100083" />
	</node>
<<<<<<< HEAD
	<node lat="60.24946666792847" lon="10.704938880487452" id="-14613">
		<tag k="name" v="Rogndalen" />
		<tag k="natural" v="valley" />
=======
	<node id="-298179" lat="60.3136972181" lon="10.8504777786">
		<tag k="name" v="Hellerhøgda" />
		<tag k="natural" v="hill" />
>>>>>>> e1d4bc35ff8a6074a6f2e91616a996b547c36f15
		<tag k="place" v="locality" />
		<tag k="ssr:stedsnr" v="101293" />
	</node>
<<<<<<< HEAD
	<node lat="60.195288884940425" lon="10.692616668013503" id="-14638">
		<tag k="name" v="Tømte" />
		<tag k="place" v="locality" />
		<tag k="ssr:stedsnr" v="160022" />
	</node>
	<node lat="60.19710277916904" lon="10.668836116476536" id="-14639">
		<tag k="name" v="Djupdalen" />
		<tag k="natural" v="valley" />
=======
	<node id="-298174" lat="60.2044250035" lon="10.7658277817">
		<tag k="name" v="Piperberget" />
		<tag k="natural" v="hill" />
>>>>>>> e1d4bc35ff8a6074a6f2e91616a996b547c36f15
		<tag k="place" v="locality" />
		<tag k="ssr:stedsnr" v="160025" />
	</node>
<<<<<<< HEAD
	<node lat="60.198888893181625" lon="10.693011119345066" id="-14650">
		<tag k="name" v="Korpeberget" />
		<tag k="natural" v="hill" />
		<tag k="place" v="locality" />
		<tag k="ssr:stedsnr" v="160365" />
	</node>
	<node lat="60.18887500447382" lon="10.737936108812802" id="-14652">
		<tag k="name" v="Harestulia" />
=======
	<node id="-297661" lat="60.2673250026" lon="10.5891555597">
		<tag k="name" v="Lundberghaugen" />
		<tag k="natural" v="hill" />
		<tag k="place" v="locality" />
		<tag k="ssr:stedsnr" v="100104" />
	</node>
	<node id="-298170" lat="60.1689472226" lon="10.6507611139">
		<tag k="name" v="Kraftstasjonsdalen" />
		<tag k="natural" v="valley" />
		<tag k="place" v="locality" />
		<tag k="ssr:stedsnr" v="64035" />
	</node>
	<node id="-298681" lat="60.2477833354" lon="10.7887194504">
		<tag k="name" v="Bukkelia" />
>>>>>>> e1d4bc35ff8a6074a6f2e91616a996b547c36f15
		<tag k="natural" v="slope" />
		<tag k="place" v="locality" />
		<tag k="ssr:stedsnr" v="160639" />
	</node>
<<<<<<< HEAD
	<node lat="60.15057221890935" lon="10.660497229467438" id="-14664">
=======
	<node id="-297655" lat="60.2851000017" lon="10.7060333271">
>>>>>>> e1d4bc35ff8a6074a6f2e91616a996b547c36f15
		<tag k="fixme" v="consider natural=peak for the most distinct mountains in the district" />
		<tag k="name" v="Daltjuvmåna" />
		<tag k="natural" v="hill" />
		<tag k="place" v="locality" />
		<tag k="ssr:stedsnr" v="187008" />
	</node>
<<<<<<< HEAD
	<node lat="60.24251944162904" lon="10.658825000963157" id="-14668">
		<tag k="alt_name" v="Varden" />
		<tag k="fixme" v="consider natural=peak for the most distinct mountains in the district" />
		<tag k="name" v="Klattertjernberget" />
		<tag k="natural" v="hill" />
		<tag k="place" v="locality" />
		<tag k="ssr:stedsnr" v="187352" />
	</node>
	<node lat="60.21044999754221" lon="10.565561118389862" id="-14672">
		<tag k="name" v="Syversdalen" />
=======
	<node id="-298165" lat="60.2842722185" lon="10.7516277783">
		<tag k="name" v="Kalvedalsvegen" />
		<tag k="natural" v="valley" />
		<tag k="place" v="locality" />
		<tag k="ssr:stedsnr" v="41486" />
	</node>
	<node id="-298163" lat="60.2543166628" lon="10.6810249978">
		<tag k="name" v="Styggdalen" />
>>>>>>> e1d4bc35ff8a6074a6f2e91616a996b547c36f15
		<tag k="natural" v="valley" />
		<tag k="place" v="locality" />
		<tag k="ssr:stedsnr" v="187458" />
	</node>
<<<<<<< HEAD
	<node lat="60.27250833221895" lon="10.793736102942384" id="-14682">
		<tag k="name" v="Granlia" />
		<tag k="natural" v="slope" />
		<tag k="place" v="locality" />
		<tag k="ssr:stedsnr" v="188357" />
	</node>
	<node lat="60.22413889112308" lon="10.571761110289648" id="-14690">
		<tag k="alt_name" v="Åssjøbrenna" />
		<tag k="fixme" v="consider natural=peak for the most distinct mountains in the district" />
		<tag k="name" v="Ålsjøbrenna" />
=======
	<node id="-298379" lat="60.29175833" lon="10.6932361166">
		<tag k="name" v="Mørkomdalen" />
		<tag k="natural" v="valley" />
		<tag k="place" v="locality" />
		<tag k="ssr:stedsnr" v="342901" />
	</node>
	<node id="-298157" lat="60.2664666653" lon="10.7352444391">
		<tag k="name" v="Rinilhaugen" />
>>>>>>> e1d4bc35ff8a6074a6f2e91616a996b547c36f15
		<tag k="natural" v="hill" />
		<tag k="old_name" v="Aalsjö Brendn" />
		<tag k="place" v="locality" />
		<tag k="ssr:stedsnr" v="214168" />
	</node>
<<<<<<< HEAD
	<node lat="60.283841665468884" lon="10.741886107383861" id="-14698">
		<tag k="name" v="Skotterudbakken" />
=======
	<node id="-298156" lat="60.1950999975" lon="10.7517666731">
		<tag k="name" v="Tømmerbakken" />
>>>>>>> e1d4bc35ff8a6074a6f2e91616a996b547c36f15
		<tag k="natural" v="slope" />
		<tag k="place" v="locality" />
		<tag k="ssr:stedsnr" v="223499" />
	</node>
<<<<<<< HEAD
	<node lat="60.160563892608494" lon="10.664502778663143" id="-14707">
		<tag k="name" v="Nyseterlia" />
		<tag k="natural" v="slope" />
=======
	<node id="-298667" lat="60.2536750029" lon="10.8005833278">
		<tag k="alt_name" v="Storvatnhaugen" />
		<tag k="name" v="Storvasshaugen" />
		<tag k="natural" v="hill" />
>>>>>>> e1d4bc35ff8a6074a6f2e91616a996b547c36f15
		<tag k="place" v="locality" />
		<tag k="ssr:stedsnr" v="282049" />
	</node>
<<<<<<< HEAD
	<node lat="60.23008055683515" lon="10.62366666934479" id="-14709">
		<tag k="name" v="Flisbanen" />
=======
	<node id="-297642" lat="60.2234194486" lon="10.7770138948">
		<tag k="name" v="Skotjernhaugen" />
		<tag k="natural" v="hill" />
>>>>>>> e1d4bc35ff8a6074a6f2e91616a996b547c36f15
		<tag k="place" v="locality" />
		<tag k="ssr:stedsnr" v="282251" />
	</node>
<<<<<<< HEAD
	<node lat="60.232091662652046" lon="10.63840555137446" id="-14710">
		<tag k="name" v="Nilsebrenna" />
		<tag k="natural" v="hill" />
		<tag k="place" v="locality" />
		<tag k="ssr:stedsnr" v="282254" />
	</node>
	<node lat="60.26053888514999" lon="10.75917499829375" id="-14712">
		<tag k="name" v="Finnbråten" />
		<tag k="natural" v="hill" />
		<tag k="place" v="locality" />
		<tag k="ssr:stedsnr" v="283493" />
	</node>
	<node lat="60.19812499971816" lon="10.631316657947682" id="-14716">
		<tag k="name" v="Styggdalen" />
		<tag k="natural" v="valley" />
=======
	<node id="-297641" lat="60.2130583344" lon="10.7537305488">
		<tag k="alt_name" v="Gunnershøgda" />
		<tag k="name" v="Gunnarshaugen" />
		<tag k="natural" v="hill" />
		<tag k="place" v="locality" />
		<tag k="ssr:stedsnr" v="248865" />
	</node>
	<node id="-298152" lat="60.2386272208" lon="10.5797387237">
		<tag k="name" v="Myllslia" />
		<tag k="natural" v="slope" />
		<tag k="place" v="locality" />
		<tag k="ssr:stedsnr" v="39128" />
	</node>
	<node id="-298663" lat="60.1746999979" lon="10.7633111088">
		<tag k="name" v="Kroktjernsberget" />
		<tag k="natural" v="hill" />
		<tag k="place" v="locality" />
		<tag k="ssr:stedsnr" v="855718" />
	</node>
	<node id="-298148" lat="60.2683888925" lon="10.5397527793">
		<tag k="name" v="Skarpsno" />
		<tag k="natural" v="slope" />
		<tag k="place" v="locality" />
		<tag k="ssr:stedsnr" v="32969" />
	</node>
	<node id="-298659" lat="60.2323166653" lon="10.5573611137">
		<tag k="name" v="Massebrenna" />
		<tag k="place" v="locality" />
		<tag k="ssr:stedsnr" v="855393" />
	</node>
	<node id="-298287" lat="60.1419777779" lon="10.6239916598">
		<tag k="alt_name" v="Refshammeren" />
		<tag k="fixme" v="consider natural=peak for the most distinct mountains in the district" />
		<tag k="name" v="Revshammaren" />
		<tag k="natural" v="hill" />
		<tag k="place" v="locality" />
		<tag k="ssr:stedsnr" v="187101" />
	</node>
	<node id="-298144" lat="60.3120527792" lon="10.6117666692">
		<tag k="name" v="Råstadtoppen" />
		<tag k="natural" v="hill" />
>>>>>>> e1d4bc35ff8a6074a6f2e91616a996b547c36f15
		<tag k="place" v="locality" />
		<tag k="ssr:stedsnr" v="282466" />
	</node>
<<<<<<< HEAD
	<node lat="60.23612500248994" lon="10.794083328937992" id="-14730">
=======
	<node id="-297629" lat="60.1352777788" lon="10.6187333365">
		<tag k="alt_name" v="Kyrkjeberget" />
>>>>>>> e1d4bc35ff8a6074a6f2e91616a996b547c36f15
		<tag k="fixme" v="consider natural=peak for the most distinct mountains in the district" />
		<tag k="name" v="Skotjernfjellet" />
		<tag k="natural" v="hill" />
		<tag k="place" v="locality" />
		<tag k="ssr:stedsnr" v="308833" />
	</node>
<<<<<<< HEAD
	<node lat="60.257391663935735" lon="10.620499995092336" id="-14740">
		<tag k="alt_name" v="Ristirevberge" />
=======
	<node id="-297626" lat="60.1790500026" lon="10.6343666601">
>>>>>>> e1d4bc35ff8a6074a6f2e91616a996b547c36f15
		<tag k="fixme" v="consider natural=peak for the most distinct mountains in the district" />
		<tag k="name" v="Ristirauvfjellet" />
		<tag k="natural" v="hill" />
		<tag k="place" v="locality" />
		<tag k="ssr:stedsnr" v="309752" />
	</node>
<<<<<<< HEAD
	<node lat="60.21278055698359" lon="10.57938332546813" id="-14748">
		<tag k="name" v="Styggdalshaugen" />
=======
	<node id="-298137" lat="60.275824999" lon="10.700416668">
		<tag k="fixme" v="consider natural=peak for the most distinct mountains in the district" />
		<tag k="name" v="Dalasjøhøgda" />
>>>>>>> e1d4bc35ff8a6074a6f2e91616a996b547c36f15
		<tag k="natural" v="hill" />
		<tag k="place" v="locality" />
		<tag k="ssr:stedsnr" v="335242" />
	</node>
<<<<<<< HEAD
	<node lat="60.22993611539751" lon="10.550958337003026" id="-14754">
		<tag k="name" v="Hosotjernsdalen" />
=======
	<node id="-298648" lat="60.257616669" lon="10.7033611094">
		<tag k="name" v="Abrahamsdalen" />
>>>>>>> e1d4bc35ff8a6074a6f2e91616a996b547c36f15
		<tag k="natural" v="valley" />
		<tag k="place" v="locality" />
		<tag k="ssr:stedsnr" v="342157" />
	</node>
<<<<<<< HEAD
	<node lat="60.27795277951767" lon="10.74661666048276" id="-14757">
		<tag k="name" v="Simahaugen" />
		<tag k="natural" v="hill" />
		<tag k="place" v="locality" />
		<tag k="ssr:stedsnr" v="342466" />
	</node>
	<node lat="60.24796111109213" lon="10.7316805552023" id="-14765">
		<tag k="name" v="Ranglet" />
=======
	<node id="-298009" lat="60.2670722233" lon="10.6583333375">
		<tag k="name" v="Kariberget" />
		<tag k="natural" v="hill" />
>>>>>>> e1d4bc35ff8a6074a6f2e91616a996b547c36f15
		<tag k="place" v="locality" />
		<tag k="ssr:stedsnr" v="344572" />
	</node>
<<<<<<< HEAD
	<node lat="60.209729408892926" lon="10.62713870539764" id="-14771">
		<tag k="alt_name" v="Fjellsjøberget" />
=======
	<node id="-298132" lat="60.3121777803" lon="10.7475638917">
		<tag k="alt_name" v="Kampehaugen" />
>>>>>>> e1d4bc35ff8a6074a6f2e91616a996b547c36f15
		<tag k="fixme" v="consider natural=peak for the most distinct mountains in the district" />
		<tag k="name" v="Fjellsjøhøgda" />
		<tag k="natural" v="hill" />
		<tag k="place" v="locality" />
		<tag k="ssr:stedsnr" v="369397" />
	</node>
<<<<<<< HEAD
	<node lat="60.24622777542072" lon="10.617477776763728" id="-14772">
		<tag k="alt_name" v="Knippahaugen" />
		<tag k="fixme" v="consider natural=peak for the most distinct mountains in the district" />
		<tag k="name" v="Knippehøgda" />
=======
	<node id="-298643" lat="60.273986113" lon="10.6343777856">
		<tag k="name" v="Monseberget" />
>>>>>>> e1d4bc35ff8a6074a6f2e91616a996b547c36f15
		<tag k="natural" v="hill" />
		<tag k="place" v="locality" />
		<tag k="ssr:stedsnr" v="369352" />
	</node>
<<<<<<< HEAD
	<node lat="60.2216583350424" lon="10.593430550298503" id="-14774">
		<tag k="alt_name" v="Venhaugene" />
		<tag k="fixme" v="consider natural=peak for the most distinct mountains in the district" />
		<tag k="name" v="Venehaugane" />
=======
	<node id="-298129" lat="60.1680666702" lon="10.7581805488">
		<tag k="name" v="Svartberget" />
>>>>>>> e1d4bc35ff8a6074a6f2e91616a996b547c36f15
		<tag k="natural" v="hill" />
		<tag k="place" v="locality" />
		<tag k="ssr:stedsnr" v="369431" />
	</node>
<<<<<<< HEAD
	<node lat="60.192036112798185" lon="10.657741671777746" id="-14796">
		<tag k="name" v="Hololia" />
		<tag k="natural" v="slope" />
=======
	<node id="-298638" lat="60.2030166646" lon="10.6857055511">
		<tag k="name" v="Stokkdalen" />
		<tag k="natural" v="valley" />
>>>>>>> e1d4bc35ff8a6074a6f2e91616a996b547c36f15
		<tag k="place" v="locality" />
		<tag k="ssr:stedsnr" v="403439" />
	</node>
<<<<<<< HEAD
	<node lat="60.185355558922275" lon="10.623619437284985" id="-14797">
		<tag k="name" v="Tunelltippen" />
		<tag k="place" v="locality" />
		<tag k="ssr:stedsnr" v="403445" />
	</node>
	<node lat="60.271408329721666" lon="10.691644441205787" id="-14803">
=======
	<node id="-297613" lat="60.1821527771" lon="10.7631888976">
		<tag k="alt_name" v="Paradispipern" />
>>>>>>> e1d4bc35ff8a6074a6f2e91616a996b547c36f15
		<tag k="fixme" v="consider natural=peak for the most distinct mountains in the district" />
		<tag k="name" v="Tveitmarktoppen" />
		<tag k="natural" v="hill" />
		<tag k="place" v="locality" />
		<tag k="ssr:stedsnr" v="405262" />
	</node>
<<<<<<< HEAD
	<node lat="60.25329999840831" lon="10.741577771788355" id="-14804">
		<tag k="name" v="Rognbråtefjellet" />
=======
	<node id="-297612" lat="60.1988138845" lon="10.6713055549">
		<tag k="fixme" v="consider natural=peak for the most distinct mountains in the district" />
		<tag k="name" v="Sørlihøgda" />
>>>>>>> e1d4bc35ff8a6074a6f2e91616a996b547c36f15
		<tag k="natural" v="hill" />
		<tag k="place" v="locality" />
		<tag k="ssr:stedsnr" v="405591" />
	</node>
<<<<<<< HEAD
	<node lat="60.16625277684299" lon="10.631586119712667" id="-14807">
		<tag k="name" v="Åstjernslia" />
		<tag k="natural" v="slope" />
=======
	<node id="-298121" lat="60.1795250017" lon="10.57739723">
		<tag k="name" v="Rankedalen" />
		<tag k="natural" v="valley" />
>>>>>>> e1d4bc35ff8a6074a6f2e91616a996b547c36f15
		<tag k="place" v="locality" />
		<tag k="ssr:stedsnr" v="428035" />
	</node>
<<<<<<< HEAD
	<node lat="60.16578889273217" lon="10.652191675067527" id="-14808">
		<tag k="name" v="Daltjuvtomta" />
=======
	<node id="-298120" lat="60.176697226" lon="10.7042361051">
		<tag k="alt_name" v="Glitrahøgda" />
		<tag k="fixme" v="consider natural=peak for the most distinct mountains in the district" />
		<tag k="name" v="Glitrehøgda" />
		<tag k="natural" v="hill" />
>>>>>>> e1d4bc35ff8a6074a6f2e91616a996b547c36f15
		<tag k="place" v="locality" />
		<tag k="ssr:stedsnr" v="428039" />
	</node>
<<<<<<< HEAD
	<node lat="60.228505559570934" lon="10.602955549140553" id="-14814">
		<tag k="alt_name" v="Bislingsflaka" />
=======
	<node id="-298119" lat="60.1588666698" lon="10.7031694442">
>>>>>>> e1d4bc35ff8a6074a6f2e91616a996b547c36f15
		<tag k="fixme" v="consider natural=peak for the most distinct mountains in the district" />
		<tag k="name" v="Bislingflaka" />
		<tag k="natural" v="hill" />
		<tag k="place" v="locality" />
		<tag k="ssr:stedsnr" v="430379" />
	</node>
<<<<<<< HEAD
	<node lat="60.2783000021006" lon="10.759527769751838" id="-14820">
		<tag k="name" v="Kalvehaugen" />
		<tag k="natural" v="hill" />
=======
	<node id="-297606" lat="60.248258337" lon="10.7661138979">
		<tag k="name" v="Svenskesletta" />
		<tag k="natural" v="slope" />
>>>>>>> e1d4bc35ff8a6074a6f2e91616a996b547c36f15
		<tag k="place" v="locality" />
		<tag k="ssr:stedsnr" v="431371" />
	</node>
<<<<<<< HEAD
	<node lat="60.25415000119584" lon="10.698638881243328" id="-14824">
		<tag k="fixme" v="consider natural=peak for the most distinct mountains in the district" />
		<tag k="name" v="Nysæterbrenna" />
		<tag k="natural" v="hill" />
		<tag k="place" v="locality" />
		<tag k="ssr:stedsnr" v="431771" />
	</node>
	<node lat="60.26884444628714" lon="10.744730556764612" id="-14839">
		<tag k="name" v="Djupdalen" />
=======
	<node id="-297602" lat="60.1898861072" lon="10.6320250088">
		<tag k="name" v="Lonndalen" />
>>>>>>> e1d4bc35ff8a6074a6f2e91616a996b547c36f15
		<tag k="natural" v="valley" />
		<tag k="place" v="locality" />
		<tag k="ssr:stedsnr" v="524469" />
	</node>
<<<<<<< HEAD
	<node lat="60.23948610808296" lon="10.743158340513874" id="-14841">
		<tag k="name" v="Griniberget" />
		<tag k="natural" v="hill" />
=======
	<node id="-298113" lat="60.1768500001" lon="10.7627777705">
		<tag k="name" v="Kroktjernsdalen" />
		<tag k="natural" v="valley" />
>>>>>>> e1d4bc35ff8a6074a6f2e91616a996b547c36f15
		<tag k="place" v="locality" />
		<tag k="ssr:stedsnr" v="524493" />
	</node>
<<<<<<< HEAD
	<node lat="60.189658333919695" lon="10.768288880852166" id="-14843">
		<tag k="name" v="Paradislia" />
		<tag k="natural" v="slope" />
		<tag k="place" v="locality" />
		<tag k="ssr:stedsnr" v="524662" />
	</node>
	<node lat="60.26658611287485" lon="10.615027772566252" id="-14848">
		<tag k="name" v="Kjørvensæteråsen" />
		<tag k="natural" v="hill" />
		<tag k="place" v="locality" />
		<tag k="ssr:stedsnr" v="524777" />
	</node>
	<node lat="60.30479166434985" lon="10.808513891213567" id="-14852">
		<tag k="name" v="Bergseterlia" />
		<tag k="natural" v="slope" />
		<tag k="place" v="locality" />
		<tag k="ssr:stedsnr" v="526485" />
	</node>
	<node lat="60.2514100936847" lon="10.738181479290622" id="-14858">
		<tag k="alt_name" v="Korsvasshøgda, søndre;Søndre Korsvatnhaugen" />
		<tag k="name" v="Søndre Korsvasshøgda" />
		<tag k="natural" v="hill" />
		<tag k="place" v="locality" />
		<tag k="ssr:stedsnr" v="552394" />
	</node>
	<node lat="60.256172218633985" lon="10.538591670233878" id="-14869">
		<tag k="alt_name" v="Ballangrudseterhøgda;Balangrudsæterhøgda;Ballangrudkollen;Ballangrudhøgda" />
=======
	<node id="-298112" lat="60.1815944482" lon="10.7398777813">
		<tag k="name" v="Monsrudlia" />
		<tag k="natural" v="slope" />
		<tag k="place" v="locality" />
		<tag k="ssr:stedsnr" v="949663" />
	</node>
	<node id="-298111" lat="60.2180083301" lon="10.7107277752">
		<tag k="name" v="Haneknemoen" />
		<tag k="place" v="locality" />
		<tag k="ssr:stedsnr" v="949357" />
	</node>
	<node id="-298109" lat="60.2440861118" lon="10.6067249958">
		<tag k="name" v="Damhaugen" />
		<tag k="natural" v="hill" />
		<tag k="place" v="locality" />
		<tag k="ssr:stedsnr" v="949269" />
	</node>
	<node id="-298619" lat="60.3029833296" lon="10.698605562">
>>>>>>> e1d4bc35ff8a6074a6f2e91616a996b547c36f15
		<tag k="fixme" v="consider natural=peak for the most distinct mountains in the district" />
		<tag k="name" v="Ballangrudsæterhøgda" />
		<tag k="natural" v="hill" />
		<tag k="old_name" v="Ballangerudsæterhøiden;Ballangrudhøgden" />
		<tag k="place" v="locality" />
		<tag k="ssr:stedsnr" v="582777" />
	</node>
<<<<<<< HEAD
	<node lat="60.17272499610444" lon="10.754647217861319" id="-14870">
		<tag k="name" v="Smellbakk" />
=======
	<node id="-297593" lat="60.2838416655" lon="10.7418861074">
		<tag k="name" v="Skotterudbakken" />
>>>>>>> e1d4bc35ff8a6074a6f2e91616a996b547c36f15
		<tag k="natural" v="slope" />
		<tag k="place" v="locality" />
		<tag k="ssr:stedsnr" v="585722" />
	</node>
<<<<<<< HEAD
	<node lat="60.17837777852759" lon="10.662236108323953" id="-14873">
		<tag k="name" v="Ørnebolia" />
		<tag k="natural" v="slope" />
		<tag k="place" v="locality" />
		<tag k="ssr:stedsnr" v="585060" />
	</node>
	<node lat="60.18937777447593" lon="10.624977784968388" id="-14875">
=======
	<node id="-298612" lat="60.1321166682" lon="10.6559833361">
>>>>>>> e1d4bc35ff8a6074a6f2e91616a996b547c36f15
		<tag k="fixme" v="consider natural=peak for the most distinct mountains in the district" />
		<tag k="name" v="Svartvasshøgda" />
		<tag k="natural" v="hill" />
		<tag k="place" v="locality" />
		<tag k="ssr:stedsnr" v="585438" />
	</node>
<<<<<<< HEAD
	<node lat="60.19393889217935" lon="10.764202778991978" id="-14876">
		<tag k="name" v="Piperlia" />
=======
	<node id="-297587" lat="60.2400972209" lon="10.7288972255">
		<tag k="name" v="Arndalslia" />
>>>>>>> e1d4bc35ff8a6074a6f2e91616a996b547c36f15
		<tag k="natural" v="slope" />
		<tag k="place" v="locality" />
		<tag k="ssr:stedsnr" v="585678" />
	</node>
	<node lat="60.30606388838422" lon="10.779377778541885" id="-14885">
		<tag k="name" v="Geiteberglia" />
		<tag k="natural" v="slope" />
		<tag k="place" v="locality" />
		<tag k="ssr:stedsnr" v="597937" />
	</node>
<<<<<<< HEAD
	<node lat="60.238788890652444" lon="10.67635554995771" id="-14887">
=======
	<node id="-298603" lat="60.1637500029" lon="10.619436104">
>>>>>>> e1d4bc35ff8a6074a6f2e91616a996b547c36f15
		<tag k="fixme" v="consider natural=peak for the most distinct mountains in the district" />
		<tag k="name" v="Svaraberget" />
		<tag k="natural" v="hill" />
		<tag k="place" v="locality" />
		<tag k="ssr:stedsnr" v="611417" />
	</node>
<<<<<<< HEAD
	<node lat="60.24520555667646" lon="10.753441674957333" id="-14891">
		<tag k="name" v="Skotterudbrenna" />
=======
	<node id="-298085" lat="60.1448888846" lon="10.659347217">
		<tag k="name" v="Dritrennberget" />
>>>>>>> e1d4bc35ff8a6074a6f2e91616a996b547c36f15
		<tag k="natural" v="hill" />
		<tag k="place" v="locality" />
		<tag k="ssr:stedsnr" v="611940" />
	</node>
<<<<<<< HEAD
	<node lat="60.172058331368845" lon="10.657294441056122" id="-14904">
		<tag k="name" v="Havredalen" />
=======
	<node id="-298595" lat="60.2519277742" lon="10.7396638881">
		<tag k="name" v="Tjagdalen" />
>>>>>>> e1d4bc35ff8a6074a6f2e91616a996b547c36f15
		<tag k="natural" v="valley" />
		<tag k="place" v="locality" />
		<tag k="ssr:stedsnr" v="645036" />
	</node>
<<<<<<< HEAD
	<node lat="60.273208331992166" lon="10.553586109864304" id="-14908">
		<tag k="name" v="Nerlia" />
		<tag k="natural" v="slope" />
=======
	<node id="-298593" lat="60.3223250022" lon="10.6612472252">
		<tag k="name" v="Lisberget" />
		<tag k="natural" v="hill" />
>>>>>>> e1d4bc35ff8a6074a6f2e91616a996b547c36f15
		<tag k="place" v="locality" />
		<tag k="ssr:stedsnr" v="645071" />
	</node>
<<<<<<< HEAD
	<node lat="60.23230555326638" lon="10.749055547900452" id="-14913">
		<tag k="name" v="Tronsbotnbakken" />
		<tag k="natural" v="slope" />
		<tag k="place" v="locality" />
		<tag k="ssr:stedsnr" v="645465" />
	</node>
	<node lat="60.2542611088599" lon="10.674686108600826" id="-14915">
		<tag k="name" v="Engberget" />
		<tag k="natural" v="hill" />
		<tag k="place" v="locality" />
		<tag k="ssr:stedsnr" v="647340" />
	</node>
	<node lat="60.272602774011304" lon="10.661105550740876" id="-14918">
		<tag k="name" v="Tunnelltoppen" />
=======
	<node id="-298078" lat="60.3058666627" lon="10.5659333305">
		<tag k="name" v="Lunnerkollen" />
		<tag k="natural" v="hill" />
		<tag k="place" v="locality" />
		<tag k="ssr:stedsnr" v="949081" />
	</node>
	<node id="-298588" lat="60.2029222254" lon="10.6124416713">
		<tag k="name" v="Gjerdingslia" />
		<tag k="natural" v="slope" />
		<tag k="place" v="locality" />
		<tag k="ssr:stedsnr" v="767486" />
	</node>
	<node id="-297828" lat="60.1751527774" lon="10.7297500069">
		<tag k="name" v="Vangenlia" />
		<tag k="natural" v="slope" />
		<tag k="place" v="locality" />
		<tag k="ssr:stedsnr" v="464764" />
	</node>
	<node id="-298070" lat="60.2477819856" lon="10.7420984982">
		<tag k="fixme" v="multiple name tags, choose one and add the other to alt_name" />
		<tag k="name" v="Korsvasshøgda;Tullebrennhaugen" />
>>>>>>> e1d4bc35ff8a6074a6f2e91616a996b547c36f15
		<tag k="natural" v="hill" />
		<tag k="place" v="locality" />
		<tag k="ssr:stedsnr" v="647269" />
	</node>
<<<<<<< HEAD
	<node lat="60.25334999603631" lon="10.753552776282525" id="-14920">
		<tag k="name" v="Svarttjernshaugen" />
		<tag k="natural" v="hill" />
		<tag k="place" v="locality" />
		<tag k="ssr:stedsnr" v="647565" />
	</node>
	<node lat="60.22242777817821" lon="10.571877772560148" id="-14925">
		<tag k="alt_name" v="Åssjøknarten" />
		<tag k="fixme" v="consider natural=peak for the most distinct mountains in the district" />
		<tag k="name" v="Ålsjøknarten" />
		<tag k="natural" v="hill" />
		<tag k="old_name" v="Åsjøknarten" />
=======
	<node id="-298065" lat="60.1529722213" lon="10.6386944506">
		<tag k="name" v="Guribrenna" />
		<tag k="natural" v="slope" />
		<tag k="place" v="locality" />
		<tag k="ssr:stedsnr" v="855117" />
	</node>
	<node id="-298575" lat="60.2117583378" lon="10.5973694506">
		<tag k="name" v="Syljuseterlia" />
		<tag k="natural" v="slope" />
>>>>>>> e1d4bc35ff8a6074a6f2e91616a996b547c36f15
		<tag k="place" v="locality" />
		<tag k="ssr:stedsnr" v="660478" />
	</node>
<<<<<<< HEAD
	<node lat="60.26269446526769" lon="10.73454023440293" id="-14933">
		<tag k="alt_name" v="Korsvasshøgda, nordre;Nordre Korsvatnhaugen;Korsvasshøgda" />
		<tag k="name" v="Nordre Korsvasshøgda" />
		<tag k="natural" v="hill" />
=======
	<node id="-298060" lat="60.3173527781" lon="10.6196027795">
		<tag k="name" v="Ulsrudberget" />
		<tag k="natural" v="ridge" />
>>>>>>> e1d4bc35ff8a6074a6f2e91616a996b547c36f15
		<tag k="place" v="locality" />
		<tag k="ssr:stedsnr" v="734402" />
	</node>
<<<<<<< HEAD
	<node lat="60.20546111255209" lon="10.776769440114412" id="-14943">
=======
	<node id="-298571" lat="60.2054611126" lon="10.7767694401">
>>>>>>> e1d4bc35ff8a6074a6f2e91616a996b547c36f15
		<tag k="alt_name" v="Kølsjorøet" />
		<tag k="name" v="Kolsjørøet" />
		<tag k="natural" v="hill" />
		<tag k="place" v="locality" />
		<tag k="ssr:stedsnr" v="751192" />
	</node>
<<<<<<< HEAD
	<node lat="60.20292222544767" lon="10.612441671284174" id="-14953">
		<tag k="name" v="Gjerdingslia" />
		<tag k="natural" v="slope" />
=======
	<node id="-298569" lat="60.1380472185" lon="10.6674277827">
		<tag k="name" v="Skinnskatthøgda" />
		<tag k="natural" v="hill" />
>>>>>>> e1d4bc35ff8a6074a6f2e91616a996b547c36f15
		<tag k="place" v="locality" />
		<tag k="ssr:stedsnr" v="767486" />
	</node>
<<<<<<< HEAD
	<node lat="60.251927774191415" lon="10.739663888066467" id="-14955">
		<tag k="name" v="Tjagdalen" />
		<tag k="natural" v="valley" />
=======
	<node id="-298566" lat="60.253349996" lon="10.7535527763">
		<tag k="name" v="Svarttjernshaugen" />
		<tag k="natural" v="hill" />
>>>>>>> e1d4bc35ff8a6074a6f2e91616a996b547c36f15
		<tag k="place" v="locality" />
		<tag k="ssr:stedsnr" v="769566" />
	</node>
<<<<<<< HEAD
	<node lat="60.163750002947104" lon="10.61943610396725" id="-14963">
		<tag k="fixme" v="consider natural=peak for the most distinct mountains in the district" />
		<tag k="name" v="Bekkehøgda" />
=======
	<node id="-298563" lat="60.2542611089" lon="10.6746861086">
		<tag k="name" v="Engberget" />
>>>>>>> e1d4bc35ff8a6074a6f2e91616a996b547c36f15
		<tag k="natural" v="hill" />
		<tag k="place" v="locality" />
		<tag k="ssr:stedsnr" v="792053" />
	</node>
<<<<<<< HEAD
	<node lat="60.30298332958039" lon="10.698605561991231" id="-14983">
		<tag k="fixme" v="consider natural=peak for the most distinct mountains in the district" />
		<tag k="name" v="Storhaugen" />
=======
	<node id="-298561" lat="60.272602774" lon="10.6611055507">
		<tag k="name" v="Tunnelltoppen" />
>>>>>>> e1d4bc35ff8a6074a6f2e91616a996b547c36f15
		<tag k="natural" v="hill" />
		<tag k="place" v="locality" />
		<tag k="ssr:stedsnr" v="795900" />
	</node>
<<<<<<< HEAD
	<node lat="60.203016664649404" lon="10.685705551122336" id="-14995">
		<tag k="name" v="Stokkdalen" />
		<tag k="natural" v="valley" />
=======
	<node id="-297608" lat="60.2171805546" lon="10.6495027753">
		<tag k="alt_name" v="Bråstadalen" />
		<tag k="name" v="Bråstaddalen" />
		<tag k="natural" v="valley" />
		<tag k="place" v="locality" />
		<tag k="ssr:stedsnr" v="41501" />
	</node>
	<node id="-298557" lat="60.2072000001" lon="10.6967361167">
		<tag k="name" v="Tangenmoen" />
>>>>>>> e1d4bc35ff8a6074a6f2e91616a996b547c36f15
		<tag k="place" v="locality" />
		<tag k="ssr:stedsnr" v="828393" />
	</node>
<<<<<<< HEAD
	<node lat="60.273986113048785" lon="10.63437778556868" id="-14998">
		<tag k="name" v="Monseberget" />
		<tag k="natural" v="hill" />
=======
	<node id="-298550" lat="60.273208332" lon="10.5535861099">
		<tag k="name" v="Nerlia" />
		<tag k="natural" v="slope" />
>>>>>>> e1d4bc35ff8a6074a6f2e91616a996b547c36f15
		<tag k="place" v="locality" />
		<tag k="ssr:stedsnr" v="828761" />
	</node>
<<<<<<< HEAD
	<node lat="60.174699997942035" lon="10.763311108826937" id="-15018">
		<tag k="name" v="Kroktjernsberget" />
		<tag k="natural" v="hill" />
		<tag k="place" v="locality" />
		<tag k="ssr:stedsnr" v="855718" />
	</node>
	<node lat="60.24793687268897" lon="10.741830919806171" id="-15020">
		<tag k="name" v="Tullebrennhaugen" />
		<tag k="natural" v="hill" />
=======
	<node id="-298546" lat="60.1720583314" lon="10.6572944411">
		<tag k="name" v="Havredalen" />
		<tag k="natural" v="valley" />
>>>>>>> e1d4bc35ff8a6074a6f2e91616a996b547c36f15
		<tag k="place" v="locality" />
		<tag k="ssr:stedsnr" v="855928" />
	</node>
<<<<<<< HEAD
	<node lat="60.13472222365132" lon="10.571661102928323" id="-15027">
		<tag k="name" v="Nordmarka" />
		<tag k="natural" v="wood" />
		<tag k="ssr:stedsnr" v="874528" />
	</node>
	<node lat="60.25439167042878" lon="10.598255547161047" id="-15032">
		<tag k="name" v="Bjønnputthaugen" />
=======
	<node id="-298545" lat="60.1737472203" lon="10.6470583316">
		<tag k="name" v="Almedalen" />
		<tag k="natural" v="valley" />
		<tag k="place" v="locality" />
		<tag k="ssr:stedsnr" v="645030" />
	</node>
	<node id="-298544" lat="60.1873361147" lon="10.6652472168">
		<tag k="name" v="Bardunflågan" />
>>>>>>> e1d4bc35ff8a6074a6f2e91616a996b547c36f15
		<tag k="natural" v="hill" />
		<tag k="place" v="locality" />
		<tag k="ssr:stedsnr" v="888074" />
	</node>
<<<<<<< HEAD
	<node lat="60.216633332355634" lon="10.664836107516063" id="-15038">
		<tag k="name" v="Lauvbrenna" />
		<tag k="natural" v="slope" />
		<tag k="place" v="locality" />
		<tag k="ssr:stedsnr" v="889386" />
	</node>
	<node lat="60.18565555194471" lon="10.679938883034955" id="-15041">
		<tag k="name" v="Sponbakken" />
		<tag k="natural" v="slope" />
		<tag k="place" v="locality" />
		<tag k="ssr:stedsnr" v="949018" />
	</node>
	<node lat="60.143147219015766" lon="10.657477776534162" id="-15044">
=======
	<node id="-297906" lat="60.277669443" lon="10.7256166684">
		<tag k="name" v="Gammelholmen" />
		<tag k="natural" v="hill" />
		<tag k="place" v="locality" />
		<tag k="ssr:stedsnr" v="708547" />
	</node>
	<node id="-298076" lat="60.143147219" lon="10.6574777765">
>>>>>>> e1d4bc35ff8a6074a6f2e91616a996b547c36f15
		<tag k="name" v="Dritrenna" />
		<tag k="natural" v="valley" />
		<tag k="place" v="locality" />
		<tag k="ssr:stedsnr" v="949033" />
	</node>
<<<<<<< HEAD
	<node lat="60.24408611180216" lon="10.606724995804655" id="-15047">
		<tag k="name" v="Damhaugen" />
=======
	<node id="-298021" lat="60.2620555576" lon="10.662497218">
		<tag k="name" v="Milsteinberget" />
>>>>>>> e1d4bc35ff8a6074a6f2e91616a996b547c36f15
		<tag k="natural" v="hill" />
		<tag k="place" v="locality" />
		<tag k="ssr:stedsnr" v="949269" />
	</node>
<<<<<<< HEAD
	<node lat="60.21800833014254" lon="10.71072777522331" id="-15049">
		<tag k="name" v="Haneknemoen" />
=======
	<node id="-298528" lat="60.2452055567" lon="10.753441675">
		<tag k="name" v="Skotterudbrenna" />
		<tag k="natural" v="hill" />
>>>>>>> e1d4bc35ff8a6074a6f2e91616a996b547c36f15
		<tag k="place" v="locality" />
		<tag k="ssr:stedsnr" v="949357" />
	</node>
<<<<<<< HEAD
	<node lat="60.18159444822074" lon="10.739877781314007" id="-15051">
		<tag k="name" v="Monsrudlia" />
=======
	<node id="-298526" lat="60.3060638884" lon="10.7793777785">
		<tag k="name" v="Geiteberglia" />
>>>>>>> e1d4bc35ff8a6074a6f2e91616a996b547c36f15
		<tag k="natural" v="slope" />
		<tag k="place" v="locality" />
		<tag k="ssr:stedsnr" v="949663" />
	</node>
	<node lat="60.17685000006126" lon="10.762777770539437" id="-15052">
		<tag k="name" v="Kroktjernsdalen" />
		<tag k="natural" v="valley" />
		<tag k="place" v="locality" />
		<tag k="ssr:stedsnr" v="949719" />
	</node>
	<node id="-297733" lat="60.3133694458" lon="10.6189833272">
		<tag k="name" v="Blisteintoppen" />
		<tag k="natural" v="hill" />
		<tag k="place" v="locality" />
		<tag k="ssr:stedsnr" v="454276" />
	</node>
	<node id="-298521" lat="60.249947222" lon="10.7618361117">
		<tag k="name" v="Sølvtjerntoppen" />
		<tag k="natural" v="hill" />
		<tag k="place" v="locality" />
		<tag k="ssr:stedsnr" v="586558" />
	</node>
	<node id="-298006" lat="60.318291664" lon="10.7108361092">
		<tag k="name" v="Skjervemoen" />
		<tag k="place" v="locality" />
		<tag k="ssr:stedsnr" v="889939" />
	</node>
	<node id="-298517" lat="60.1939388922" lon="10.764202779">
		<tag k="name" v="Piperlia" />
		<tag k="natural" v="slope" />
		<tag k="place" v="locality" />
		<tag k="ssr:stedsnr" v="585678" />
	</node>
	<node id="-298004" lat="60.2926194426" lon="10.6932888895">
		<tag k="name" v="Jørstadløkka" />
		<tag k="place" v="locality" />
		<tag k="ssr:stedsnr" v="889930" />
	</node>
	<node id="-298515" lat="60.1893777745" lon="10.624977785">
		<tag k="fixme" v="consider natural=peak for the most distinct mountains in the district" />
		<tag k="name" v="Svartvasshøgda" />
		<tag k="natural" v="hill" />
		<tag k="place" v="locality" />
		<tag k="ssr:stedsnr" v="585438" />
	</node>
	<node id="-298513" lat="60.2412083377" lon="10.6213388825">
		<tag k="name" v="Bjønnputthaugen" />
		<tag k="natural" v="hill" />
		<tag k="place" v="locality" />
		<tag k="ssr:stedsnr" v="585250" />
	</node>
	<node id="-298000" lat="60.1939027773" lon="10.6564027744">
		<tag k="fixme" v="consider natural=peak for the most distinct mountains in the district" />
		<tag k="name" v="Lortholhøgda" />
		<tag k="natural" v="hill" />
		<tag k="place" v="locality" />
		<tag k="ssr:stedsnr" v="889454" />
	</node>
	<node id="-297999" lat="60.2166333324" lon="10.6648361075">
		<tag k="name" v="Lauvbrenna" />
		<tag k="natural" v="slope" />
		<tag k="place" v="locality" />
		<tag k="ssr:stedsnr" v="889386" />
	</node>
	<node id="-297998" lat="60.229155554" lon="10.6727722293">
		<tag k="name" v="Gjerdeberget" />
		<tag k="natural" v="hill" />
		<tag k="place" v="locality" />
		<tag k="ssr:stedsnr" v="889354" />
	</node>
	<node id="-298507" lat="60.2561722186" lon="10.5385916702">
		<tag k="alt_name" v="Ballangrudseterhøgda;Balangrudsæterhøgda;Ballangrudkollen;Ballangrudhøgda" />
		<tag k="fixme" v="consider natural=peak for the most distinct mountains in the district" />
		<tag k="name" v="Ballangrudsæterhøgda" />
		<tag k="natural" v="hill" />
		<tag k="old_name" v="Ballangerudsæterhøiden;Ballangrudhøgden" />
		<tag k="place" v="locality" />
		<tag k="ssr:stedsnr" v="582777" />
	</node>
	<node id="-297991" lat="60.2696638897" lon="10.5939861171">
		<tag k="name" v="Smørhaugen" />
		<tag k="natural" v="hill" />
		<tag k="place" v="locality" />
		<tag k="ssr:stedsnr" v="889126" />
	</node>
	<node id="-298499" lat="60.2513249981" lon="10.7360499985">
		<tag k="alt_name" v="Korsvasshøgda, søndre;Søndre Korsvatnhaugen" />
		<tag k="name" v="Søndre Korsvasshøgda" />
		<tag k="natural" v="hill" />
		<tag k="place" v="locality" />
		<tag k="ssr:stedsnr" v="552394" />
	</node>
	<node id="-297986" lat="60.2543916704" lon="10.5982555472">
		<tag k="name" v="Bjønnputthaugen" />
		<tag k="natural" v="hill" />
		<tag k="place" v="locality" />
		<tag k="ssr:stedsnr" v="888074" />
	</node>
</osm>
