<?xml version="1.0" encoding="UTF-8"?>
<<<<<<< HEAD
<osm version="0.6" generator="osmapis">
	<node lat="60.146338890783305" lon="10.622133341658895" id="-13927">
		<tag k="alt_name" v="Branntjernet, s" />
		<tag k="name" v="Søndre Branntjernet" />
		<tag k="natural" v="water" />
		<tag k="ssr:stedsnr" v="5113" />
	</node>
	<node lat="60.20517777929857" lon="10.60629166546361" id="-13928">
		<tag k="name" v="Grytbekken" />
		<tag k="ssr:stedsnr" v="5423" />
		<tag k="waterway" v="stream" />
	</node>
	<node lat="60.24246666607645" lon="10.586133328860718" id="-13931">
		<tag k="name" v="Svarttangen" />
		<tag k="natural" v="cape" />
		<tag k="ssr:stedsnr" v="5361" />
	</node>
	<node lat="60.23760833458766" lon="10.649438890444813" id="-13932">
		<tag k="name" v="Heimputten" />
		<tag k="natural" v="water" />
		<tag k="ssr:stedsnr" v="5363" />
	</node>
	<node lat="60.26537459017886" lon="10.716647166967487" id="-13935">
		<tag k="name" v="Langvatnet" />
		<tag k="natural" v="water" />
		<tag k="ssr:stedsnr" v="6810" />
		<tag k="water" v="lake" />
	</node>
	<node lat="60.17889999862359" lon="10.690686102597361" id="-13940">
		<tag k="name" v="Skillingselva" />
		<tag k="ssr:stedsnr" v="39010" />
		<tag k="waterway" v="stream" />
	</node>
	<node lat="60.27711389115006" lon="10.705275003627213" id="-13961">
		<tag k="name" v="Dalasjøen" />
		<tag k="natural" v="water" />
		<tag k="ssr:stedsnr" v="67790" />
	</node>
	<node lat="60.300916667813915" lon="10.464766664109154" id="-13965">
		<tag k="name" v="Sverigetjernet" />
		<tag k="natural" v="water" />
		<tag k="ssr:stedsnr" v="67888" />
	</node>
	<node lat="60.18791770859335" lon="10.600100598391887" id="-13971">
		<tag k="name" v="Svartvika" />
		<tag k="natural" v="bay" />
		<tag k="ssr:stedsnr" v="93424" />
	</node>
	<node lat="60.19346111256795" lon="10.651227776731348" id="-13973">
		<tag k="name" v="Sæterputten" />
		<tag k="natural" v="water" />
		<tag k="ssr:stedsnr" v="248048" />
	</node>
	<node lat="60.14688333334269" lon="10.663697221524757" id="-13974">
		<tag k="alt_name" v="Måntjernet" />
		<tag k="name" v="Mantjernet" />
=======
<osm generator="osmapis" version="0.6">
	<node id="-298496" lat="60.4274499972" lon="10.4897138913">
		<tag k="name" v="Vigga" />
		<tag k="ssr:stedsnr" v="552140" />
		<tag k="waterway" v="river" />
	</node>
	<node id="-298495" lat="60.2271305547" lon="10.7509999916">
		<tag k="name" v="Skotjernbekken" />
		<tag k="ssr:stedsnr" v="551839" />
		<tag k="waterway" v="stream" />
	</node>
	<node id="-298069" lat="60.2254277759" lon="10.6503249992">
		<tag k="alt_name" v="Myllelva" />
		<tag k="name" v="Myllselva" />
		<tag k="ssr:stedsnr" v="855476" />
		<tag k="waterway" v="river" />
	</node>
	<node id="-298492" lat="60.2202111107" lon="10.5786500003">
		<tag k="name" v="Svarttjernet" />
>>>>>>> e1d4bc35ff8a6074a6f2e91616a996b547c36f15
		<tag k="natural" v="water" />
		<tag k="old_name" v="Manntjernet;Manntjern" />
		<tag k="ssr:stedsnr" v="248118" />
	</node>
<<<<<<< HEAD
	<node lat="60.1669222200527" lon="10.709341673359452" id="-13975">
		<tag k="name" v="Myseputten" />
=======
	<node id="-297978" lat="60.3284308226" lon="10.7028606536">
		<tag k="alt_name" v="Skjelbreia" />
		<tag k="name" v="Skjellbreia" />
>>>>>>> e1d4bc35ff8a6074a6f2e91616a996b547c36f15
		<tag k="natural" v="water" />
		<tag k="ssr:stedsnr" v="100017" />
	</node>
<<<<<<< HEAD
	<node lat="60.202224996314754" lon="10.6424666650069" id="-13982">
		<tag k="name" v="Lauvtangen" />
		<tag k="natural" v="cape" />
		<tag k="ssr:stedsnr" v="100463" />
	</node>
	<node lat="60.20181110773954" lon="10.639113881971685" id="-13984">
		<tag k="name" v="Setervika" />
		<tag k="natural" v="bay" />
		<tag k="ssr:stedsnr" v="100468" />
	</node>
	<node lat="60.26830277547389" lon="10.608680552901" id="-13988">
		<tag k="name" v="Møllåa" />
		<tag k="ssr:stedsnr" v="100766" />
		<tag k="waterway" v="stream" />
	</node>
	<node lat="60.29160375702646" lon="10.66766754841697" id="-13989">
		<tag k="name" v="Gørrvomma" />
=======
	<node id="-298488" lat="60.1709361094" lon="10.6507444515">
		<tag k="name" v="Løkebekken" />
		<tag k="ssr:stedsnr" v="551020" />
		<tag k="waterway" v="stream" />
	</node>
	<node id="-298487" lat="60.1698444453" lon="10.6336277692">
		<tag k="name" v="Grimstjernsbekken" />
		<tag k="ssr:stedsnr" v="550044" />
		<tag k="waterway" v="stream" />
	</node>
	<node id="-298486" lat="60.1689694479" lon="10.6568500061">
		<tag k="name" v="Kraftstasjonsbekken" />
		<tag k="ssr:stedsnr" v="550043" />
		<tag k="waterway" v="stream" />
	</node>
	<node id="-298485" lat="60.3122527792" lon="10.8299749998">
		<tag k="name" v="Langvassputten" />
>>>>>>> e1d4bc35ff8a6074a6f2e91616a996b547c36f15
		<tag k="natural" v="water" />
		<tag k="ssr:stedsnr" v="100769" />
	</node>
<<<<<<< HEAD
	<node lat="60.203353831160584" lon="10.594156734370051" id="-13992">
		<tag k="name" v="Sandvika" />
		<tag k="natural" v="bay" />
		<tag k="ssr:stedsnr" v="248435" />
	</node>
	<node lat="60.296463884355745" lon="10.790736119209493" id="-13993">
		<tag k="name" v="Surkefløyta" />
=======
	<node id="-298484" lat="60.3141000041" lon="10.7186527805">
		<tag k="name" v="Hesterær" />
		<tag k="natural" v="water" />
		<tag k="ssr:stedsnr" v="537911" />
	</node>
	<node id="-297726" lat="60.2570694436" lon="10.7311777833">
		<tag k="name" v="Lomsundet" />
		<tag k="natural" v="strait" />
		<tag k="ssr:stedsnr" v="223577" />
	</node>
	<node id="-297969" lat="60.2888194428" lon="10.5225916755">
		<tag k="alt_name" v="Dælstjernet" />
		<tag k="name" v="Dalstjernet" />
>>>>>>> e1d4bc35ff8a6074a6f2e91616a996b547c36f15
		<tag k="natural" v="water" />
		<tag k="ssr:stedsnr" v="101471" />
		<tag k="water" v="pond" />
	</node>
<<<<<<< HEAD
	<node lat="60.297522220633056" lon="10.806200007552006" id="-13994">
		<tag k="name" v="Karpeputten" />
=======
	<node id="-298480" lat="60.2634055526" lon="10.6994555567">
		<tag k="name" v="Nysetertjernet" />
>>>>>>> e1d4bc35ff8a6074a6f2e91616a996b547c36f15
		<tag k="natural" v="water" />
		<tag k="ssr:stedsnr" v="101474" />
	</node>
<<<<<<< HEAD
	<node lat="60.25950277743025" lon="10.806119447241446" id="-13995">
		<tag k="name" v="Lamøya" />
		<tag k="place" v="island" />
		<tag k="ssr:stedsnr" v="101566" />
	</node>
	<node lat="60.19804444858535" lon="10.748497225844938" id="-13996">
		<tag k="alt_name" v="Monsrudtjerna, nordre" />
		<tag k="name" v="Nordre Monsrudtjernet" />
=======
	<node id="-298479" lat="60.2607722247" lon="10.6870861183">
		<tag k="name" v="Nyseterbekken" />
		<tag k="ssr:stedsnr" v="526313" />
		<tag k="waterway" v="stream" />
	</node>
	<node id="-297966" lat="60.2573499983" lon="10.5837444498">
		<tag k="alt_name" v="Karlstjernet" />
		<tag k="name" v="Nedre Karlstjernet" />
>>>>>>> e1d4bc35ff8a6074a6f2e91616a996b547c36f15
		<tag k="natural" v="water" />
		<tag k="ssr:stedsnr" v="248796" />
	</node>
<<<<<<< HEAD
	<node lat="60.27738889180815" lon="10.535525006409552" id="-13999">
		<tag k="name" v="Holteputt" />
		<tag k="natural" v="water" />
		<tag k="ssr:stedsnr" v="248843" />
	</node>
	<node lat="60.3112000000964" lon="10.47223056014527" id="-14000">
		<tag k="name" v="Orentjernet" />
		<tag k="natural" v="water" />
		<tag k="ssr:stedsnr" v="248941" />
	</node>
	<node lat="60.250400002519825" lon="10.645666672131105" id="-14004">
		<tag k="name" v="Sveselva" />
		<tag k="ssr:stedsnr" v="249758" />
		<tag k="waterway" v="river" />
	</node>
	<node lat="60.16332499614469" lon="10.58719999967615" id="-14012">
		<tag k="alt_name" v="Skjortjernet, nedre" />
		<tag k="name" v="Nedre Skjortjernet" />
=======
	<node id="-297725" lat="60.3214222254" lon="10.6722166745">
		<tag k="name" v="Lisputten" />
		<tag k="natural" v="water" />
		<tag k="ssr:stedsnr" v="221923" />
	</node>
	<node id="-298066" lat="60.1528972258" lon="10.6979055549">
		<tag k="name" v="Nordre Djupdalstjernet" />
		<tag k="natural" v="water" />
		<tag k="ssr:stedsnr" v="855120" />
	</node>
	<node id="-297962" lat="60.2583599323" lon="10.8041154802">
		<tag k="alt_name" v="Snellingen, store;Storesnellingsvannet" />
		<tag k="name" v="Store Snellingen" />
		<tag k="natural" v="water" />
		<tag k="ssr:stedsnr" v="734409" />
		<tag k="water" v="lake" />
	</node>
	<node id="-298473" lat="60.3248861131" lon="10.70404723">
		<tag k="name" v="Framnes" />
		<tag k="natural" v="cape" />
		<tag k="ssr:stedsnr" v="524937" />
	</node>
	<node id="-298471" lat="60.1915083348" lon="10.7615861067">
		<tag k="name" v="Høgputtene" />
		<tag k="natural" v="water" />
		<tag k="ssr:stedsnr" v="524668" />
	</node>
	<node id="-297958" lat="60.1382138872" lon="10.6474305638">
		<tag k="name" v="Sandungskalven" />
>>>>>>> e1d4bc35ff8a6074a6f2e91616a996b547c36f15
		<tag k="natural" v="water" />
		<tag k="ssr:stedsnr" v="114030" />
	</node>
<<<<<<< HEAD
	<node lat="60.23145277833058" lon="10.60279166412598" id="-14013">
		<tag k="alt_name" v="Bånntjernet" />
		<tag k="name" v="Bonntjernet" />
=======
	<node id="-297957" lat="60.2991083338" lon="10.693916666">
		<tag k="name" v="Helvetesputten" />
>>>>>>> e1d4bc35ff8a6074a6f2e91616a996b547c36f15
		<tag k="natural" v="water" />
		<tag k="ssr:stedsnr" v="114410" />
	</node>
<<<<<<< HEAD
	<node lat="60.183058335084745" lon="10.574197221929127" id="-14014">
		<tag k="alt_name" v="Fyllingen, l;Lille Fyllingen" />
		<tag k="name" v="Vesle Fyllingen" />
		<tag k="natural" v="water" />
		<tag k="old_name" v="l. Fidlingen" />
		<tag k="ssr:stedsnr" v="126053" />
	</node>
	<node lat="60.22365555822641" lon="10.630391663170986" id="-14016">
		<tag k="alt_name" v="Svarttjernsbekken" />
		<tag k="name" v="Svartbekken" />
		<tag k="ssr:stedsnr" v="126495" />
		<tag k="waterway" v="stream" />
	</node>
	<node lat="60.19963889056909" lon="10.760555556439865" id="-14017">
		<tag k="alt_name" v="Langpipern" />
		<tag k="name" v="Langpiperen" />
=======
	<node id="-297954" lat="60.234283335" lon="10.765355553">
		<tag k="name" v="Måråputten" />
		<tag k="natural" v="water" />
		<tag k="ssr:stedsnr" v="645528" />
	</node>
	<node id="-297953" lat="59.9878888898" lon="11.0846555606">
		<tag k="alt_name" v="Leirelva" />
		<tag k="name" v="Leira" />
		<tag k="ssr:stedsnr" v="733534" />
		<tag k="waterway" v="river" />
	</node>
	<node id="-297808" lat="60.1986666669" lon="10.6012416739">
		<tag k="name" v="Storøya" />
		<tag k="place" v="islet" />
		<tag k="ssr:stedsnr" v="430438" />
	</node>
	<node id="-298031" lat="60.2981611124" lon="10.5471472264">
		<tag k="name" v="Valborgtjernet" />
		<tag k="natural" v="water" />
		<tag k="ssr:stedsnr" v="774269" />
	</node>
	<node id="-298461" lat="60.2980944408" lon="10.6009638883">
		<tag k="name" v="Kalvsjøbekken" />
		<tag k="ssr:stedsnr" v="524059" />
		<tag k="waterway" v="stream" />
	</node>
	<node id="-297948" lat="60.185291682" lon="10.6320945816">
		<tag k="name" v="Svartvatn" />
>>>>>>> e1d4bc35ff8a6074a6f2e91616a996b547c36f15
		<tag k="natural" v="water" />
		<tag k="ssr:stedsnr" v="126752" />
	</node>
<<<<<<< HEAD
	<node lat="60.25064959522412" lon="10.575413180981434" id="-14021">
		<tag k="alt_name" v="Viggern" />
		<tag k="name" v="Viggeren" />
=======
	<node id="-297947" lat="60.1722389891" lon="10.6914744836">
		<tag k="alt_name" v="Skillingen" />
		<tag k="name" v="Store Skillingen" />
>>>>>>> e1d4bc35ff8a6074a6f2e91616a996b547c36f15
		<tag k="natural" v="water" />
		<tag k="ssr:stedsnr" v="127450" />
	</node>
<<<<<<< HEAD
	<node lat="60.30803889139618" lon="10.71052500715179" id="-14026">
		<tag k="name" v="Aklangen" />
=======
	<node id="-298458" lat="60.165688893" lon="10.6647999958">
		<tag k="name" v="Løkeputten" />
>>>>>>> e1d4bc35ff8a6074a6f2e91616a996b547c36f15
		<tag k="natural" v="water" />
		<tag k="ssr:stedsnr" v="127892" />
	</node>
<<<<<<< HEAD
	<node lat="60.151108335769685" lon="10.642302778976932" id="-14033">
		<tag k="name" v="Guribrennputten" />
=======
	<node id="-298456" lat="60.2546871003" lon="10.6056737803">
		<tag k="name" v="Svea" />
>>>>>>> e1d4bc35ff8a6074a6f2e91616a996b547c36f15
		<tag k="natural" v="water" />
		<tag k="ssr:stedsnr" v="162260" />
	</node>
<<<<<<< HEAD
	<node lat="60.15246666575454" lon="10.670319452962984" id="-14038">
		<tag k="alt_name" v="Handkledputten;Håndkleputten" />
		<tag k="name" v="Handkleputten" />
		<tag k="natural" v="water" />
		<tag k="ssr:stedsnr" v="187122" />
	</node>
	<node lat="60.19661388912467" lon="10.620719450588744" id="-14040">
		<tag k="alt_name" v="Karusputten" />
		<tag k="name" v="Karussputten" />
		<tag k="natural" v="water" />
		<tag k="ssr:stedsnr" v="187430" />
	</node>
	<node lat="60.20506944605772" lon="10.645911111330594" id="-14041">
		<tag k="name" v="Kalven" />
=======
	<node id="-298450" lat="60.1814250032" lon="10.7271055532">
		<tag k="name" v="Smellbakkbekken" />
		<tag k="ssr:stedsnr" v="430780" />
		<tag k="waterway" v="stream" />
	</node>
	<node id="-298448" lat="60.2155416676" lon="10.6041083335">
		<tag k="name" v="Mariputten" />
>>>>>>> e1d4bc35ff8a6074a6f2e91616a996b547c36f15
		<tag k="natural" v="water" />
		<tag k="ssr:stedsnr" v="187431" />
	</node>
<<<<<<< HEAD
	<node lat="60.250806921821294" lon="10.529893566813149" id="-14045">
		<tag k="name" v="Grasbergtjerna" />
		<tag k="natural" v="water" />
		<tag k="ssr:stedsnr" v="188807" />
		<tag k="water" v="lake" />
	</node>
	<node lat="60.338580551844146" lon="10.663063881561595" id="-14051">
		<tag k="name" v="Vesleelva" />
		<tag k="ssr:stedsnr" v="188990" />
		<tag k="waterway" v="stream" />
	</node>
	<node lat="60.312647219261066" lon="10.638380558217916" id="-14053">
		<tag k="name" v="Vesletjernet" />
=======
	<node id="-297934" lat="60.1419194488" lon="10.7929916581">
		<tag k="name" v="Hakadalselva" />
		<tag k="ssr:stedsnr" v="612741" />
		<tag k="waterway" v="river" />
	</node>
	<node id="-298445" lat="60.2484657734" lon="10.5922840641">
		<tag k="alt_name" v="Beltern" />
		<tag k="name" v="Belteren" />
>>>>>>> e1d4bc35ff8a6074a6f2e91616a996b547c36f15
		<tag k="natural" v="water" />
		<tag k="ssr:stedsnr" v="211368" />
		<tag k="water" v="pond" />
	</node>
<<<<<<< HEAD
	<node lat="60.219802777804965" lon="10.56524444573019" id="-14054">
		<tag k="name" v="Knartputten" />
		<tag k="natural" v="water" />
		<tag k="ssr:stedsnr" v="214280" />
		<tag k="water" v="pond" />
	</node>
	<node lat="60.25592222212654" lon="10.576322224744125" id="-14057">
		<tag k="loc_name" v="Selahøvret" />
		<tag k="name" v="Selehøvre" />
		<tag k="natural" v="water" />
		<tag k="old_name" v="Sælahøvret" />
		<tag k="ssr:stedsnr" v="221087" />
	</node>
	<node lat="60.24982778155517" lon="10.583716662193417" id="-14058">
		<tag k="loc_name" v="Kaldrassen" />
		<tag k="name" v="Kalrasen" />
		<tag k="natural" v="water" />
		<tag k="old_name" v="Kalras" />
		<tag k="ssr:stedsnr" v="221093" />
	</node>
	<node lat="60.18335277731872" lon="10.64923332598975" id="-14060">
		<tag k="name" v="Rennedammen" />
		<tag k="ssr:stedsnr" v="221424" />
		<tag k="waterway" v="dam" />
	</node>
	<node lat="60.32142222537881" lon="10.672216674546858" id="-14067">
		<tag k="name" v="Lisputten" />
		<tag k="natural" v="water" />
		<tag k="ssr:stedsnr" v="221923" />
	</node>
	<node lat="60.25046667125773" lon="10.603669438194602" id="-14068">
		<tag k="name" v="Svesvika" />
=======
	<node id="-298444" lat="60.1265722191" lon="10.6054111183">
		<tag k="name" v="Katnoselva" />
		<tag k="ssr:stedsnr" v="430067" />
		<tag k="waterway" v="river" />
	</node>
	<node id="-298442" lat="60.247625004" lon="10.7988138813">
		<tag k="name" v="Svartputtbekken" />
		<tag k="ssr:stedsnr" v="405601" />
		<tag k="waterway" v="stream" />
	</node>
	<node id="-297928" lat="60.1749444448" lon="10.701658328">
		<tag k="alt_name" v="Glitratjernet" />
		<tag k="name" v="Glitra" />
		<tag k="natural" v="water" />
		<tag k="ssr:stedsnr" v="611023" />
	</node>
	<node id="-298661" lat="60.1923247248" lon="10.6293989965">
		<tag k="alt_name" v="Lonndalstjernet" />
		<tag k="name" v="Løndalstjernet" />
		<tag k="natural" v="water" />
		<tag k="ssr:stedsnr" v="855442" />
	</node>
	<node id="-297633" lat="60.2033538312" lon="10.5941567344">
		<tag k="name" v="Sandvika" />
		<tag k="natural" v="bay" />
		<tag k="ssr:stedsnr" v="248435" />
	</node>
	<node id="-298030" lat="60.3055749963" lon="10.8531972136">
		<tag k="name" v="Knapptjern" />
		<tag k="natural" v="water" />
		<tag k="ssr:stedsnr" v="916337" />
	</node>
	<node id="-297919" lat="60.2579666649" lon="10.6108305603">
		<tag k="name" v="Myssmørvika" />
		<tag k="natural" v="bay" />
		<tag k="ssr:stedsnr" v="586312" />
	</node>
	<node id="-297918" lat="60.2563749972" lon="10.6093916656">
		<tag k="name" v="Svartvika" />
>>>>>>> e1d4bc35ff8a6074a6f2e91616a996b547c36f15
		<tag k="natural" v="bay" />
		<tag k="ssr:stedsnr" v="223305" />
	</node>
<<<<<<< HEAD
	<node lat="60.25706944363647" lon="10.731177783334147" id="-14073">
		<tag k="name" v="Lomsundet" />
		<tag k="natural" v="strait" />
		<tag k="ssr:stedsnr" v="223577" />
	</node>
	<node lat="60.15404999615575" lon="10.710680553357468" id="-14075">
		<tag k="name" v="Fiskeløysa" />
		<tag k="natural" v="water" />
		<tag k="ssr:stedsnr" v="248012" />
	</node>
	<node lat="60.15641388834064" lon="10.625261119339562" id="-14076">
		<tag k="alt_name" v="Store Kalvetjernet" />
		<tag k="name" v="Kalvetjernet" />
		<tag k="natural" v="water" />
		<tag k="ssr:stedsnr" v="248013" />
	</node>
	<node lat="60.163197220033716" lon="10.629488881011564" id="-14077">
		<tag k="name" v="Åstjernet" />
		<tag k="natural" v="water" />
		<tag k="ssr:stedsnr" v="248020" />
	</node>
	<node lat="60.22450277929352" lon="10.558705563051483" id="-14081">
		<tag k="alt_name" v="Åssjøen" />
		<tag k="name" v="Ålsjøen" />
		<tag k="natural" v="water" />
		<tag k="old_name" v="Aalsjö;Aalsjõen" />
		<tag k="ssr:stedsnr" v="248464" />
		<tag k="water" v="lake" />
	</node>
	<node lat="60.23161389016242" lon="10.645994444604387" id="-14082">
		<tag k="alt_name" v="Aurtjernet" />
		<tag k="name" v="Auretjernet" />
=======
	<node id="-297917" lat="60.3109388868" lon="10.7037277866">
		<tag k="name" v="Skjervedammen" />
		<tag k="ssr:stedsnr" v="585932" />
		<tag k="waterway" v="dam" />
	</node>
	<node id="-298426" lat="60.3263638911" lon="10.5500166742">
		<tag k="name" v="Høybytjernet" />
		<tag k="natural" v="water" />
		<tag k="ssr:stedsnr" v="403055" />
	</node>
	<node id="-298424" lat="60.233736111" lon="10.6785583258">
		<tag k="name" v="Borkeliputten" />
		<tag k="natural" v="water" />
		<tag k="ssr:stedsnr" v="403344" />
	</node>
	<node id="-297909" lat="60.2573833311" lon="10.7283944488">
		<tag k="name" v="Furuholmen" />
		<tag k="place" v="islet" />
		<tag k="ssr:stedsnr" v="708562" />
	</node>
	<node id="-297908" lat="60.262177781" lon="10.7272055603">
		<tag k="name" v="Svartsidalsputten" />
		<tag k="natural" v="water" />
		<tag k="ssr:stedsnr" v="708560" />
	</node>
	<node id="-298419" lat="60.1882291208" lon="10.5925383041">
		<tag k="name" v="Rødsandvika" />
		<tag k="natural" v="bay" />
		<tag k="ssr:stedsnr" v="396474" />
	</node>
	<node id="-298414" lat="60.2962420247" lon="10.6697625763">
		<tag k="alt_name" v="Grøntjernet" />
		<tag k="name" v="Grønntjernet" />
		<tag k="natural" v="water" />
		<tag k="ssr:stedsnr" v="370886" />
	</node>
	<node id="-297897" lat="60.2701472198" lon="10.7035166705">
		<tag k="name" v="Nordre Munkerudstjernet" />
>>>>>>> e1d4bc35ff8a6074a6f2e91616a996b547c36f15
		<tag k="natural" v="water" />
		<tag k="ssr:stedsnr" v="248470" />
	</node>
<<<<<<< HEAD
	<node lat="60.217091667471884" lon="10.723349991670588" id="-14084">
		<tag k="alt_name" v="Klemmaelva" />
		<tag k="name" v="Klemma" />
		<tag k="ssr:stedsnr" v="248863" />
		<tag k="waterway" v="stream" />
	</node>
	<node lat="60.24830555929181" lon="10.587263887923456" id="-14092">
		<tag k="name" v="Smaugbekken" />
		<tag k="ssr:stedsnr" v="282103" />
		<tag k="waterway" v="stream" />
	</node>
	<node lat="60.246216669606" lon="10.551486106700658" id="-14101">
		<tag k="name" v="Brattholtvika" />
		<tag k="natural" v="bay" />
		<tag k="ssr:stedsnr" v="463091" />
	</node>
	<node lat="60.27491110808751" lon="10.74650554674329" id="-14105">
		<tag k="name" v="Brakaltjernbekken" />
		<tag k="ssr:stedsnr" v="464538" />
		<tag k="waterway" v="stream" />
	</node>
	<node lat="60.182980553207905" lon="10.64983610244816" id="-14113">
		<tag k="name" v="Gjerdingselva" />
		<tag k="ssr:stedsnr" v="308014" />
		<tag k="waterway" v="river" />
	</node>
	<node lat="60.30066388838559" lon="10.737608339303973" id="-14114">
		<tag k="name" v="Minnestuhøla" />
		<tag k="place" v="locality" />
		<tag k="ssr:stedsnr" v="465392" />
	</node>
	<node lat="60.28403333579234" lon="10.715349998285715" id="-14119">
		<tag k="name" v="Sætertjernet" />
=======
	<node id="-298407" lat="60.2769171908" lon="10.5918757634">
		<tag k="name" v="Oppentjernet" />
		<tag k="natural" v="water" />
		<tag k="ssr:stedsnr" v="370807" />
	</node>
	<node id="-297637" lat="60.1980444486" lon="10.7484972258">
		<tag k="alt_name" v="Monsrudtjerna, nordre" />
		<tag k="name" v="Nordre Monsrudtjernet" />
		<tag k="natural" v="water" />
		<tag k="ssr:stedsnr" v="248796" />
	</node>
	<node id="-297892" lat="60.1991611078" lon="10.6393916671">
		<tag k="name" v="Ketiltangen" />
		<tag k="natural" v="cape" />
		<tag k="ssr:stedsnr" v="706455" />
	</node>
	<node id="-298403" lat="60.2531388855" lon="10.7508749939">
		<tag k="alt_name" v="Svarttjernet" />
		<tag k="name" v="Svartvatnet" />
		<tag k="natural" v="water" />
		<tag k="ssr:stedsnr" v="370405" />
	</node>
	<node id="-298402" lat="60.256350002" lon="10.7936277868">
		<tag k="name" v="Tranbærtjern" />
		<tag k="natural" v="water" />
		<tag k="ssr:stedsnr" v="370404" />
	</node>
	<node id="-298400" lat="60.3050805558" lon="10.7225249917">
		<tag k="name" v="Åklangselva" />
		<tag k="ssr:stedsnr" v="370355" />
		<tag k="waterway" v="river" />
	</node>
	<node id="-298399" lat="60.3022750004" lon="10.808633325">
		<tag k="alt_name" v="Bergstjern, nordre" />
		<tag k="name" v="Nordre Bergstjernet" />
		<tag k="natural" v="water" />
		<tag k="ssr:stedsnr" v="370352" />
	</node>
	<node id="-298398" lat="60.1911500002" lon="10.774836115">
		<tag k="alt_name" v="Dampipern" />
		<tag k="name" v="Dampiperen" />
>>>>>>> e1d4bc35ff8a6074a6f2e91616a996b547c36f15
		<tag k="natural" v="water" />
		<tag k="ssr:stedsnr" v="310814" />
	</node>
<<<<<<< HEAD
	<node lat="60.17730278127845" lon="10.688958325380334" id="-14125">
		<tag k="name" v="Attholdsdammen" />
		<tag k="ssr:stedsnr" v="342012" />
		<tag k="waterway" v="dam" />
	</node>
	<node lat="60.191630555883144" lon="10.707672213887522" id="-14126">
		<tag k="name" v="Brannodden" />
=======
	<node id="-297576" lat="60.2559222221" lon="10.5763222247">
		<tag k="loc_name" v="Selahøvret" />
		<tag k="name" v="Selehøvre" />
		<tag k="natural" v="water" />
		<tag k="old_name" v="Sælahøvret" />
		<tag k="ssr:stedsnr" v="221087" />
	</node>
	<node id="-298391" lat="60.162494446" lon="10.6471027831">
		<tag k="name" v="Torsteinstangen" />
>>>>>>> e1d4bc35ff8a6074a6f2e91616a996b547c36f15
		<tag k="natural" v="cape" />
		<tag k="ssr:stedsnr" v="342017" />
	</node>
<<<<<<< HEAD
	<node lat="60.18795833293979" lon="10.67101388585869" id="-14127">
		<tag k="name" v="Holobekken" />
		<tag k="ssr:stedsnr" v="342022" />
		<tag k="waterway" v="stream" />
	</node>
	<node lat="60.24393055197004" lon="10.554080559948828" id="-14128">
		<tag k="name" v="Jordeskjæret" />
		<tag k="place" v="islet" />
		<tag k="ssr:stedsnr" v="342111" />
	</node>
	<node lat="60.25775555888395" lon="10.595172219240348" id="-14129">
		<tag k="name" v="Lauvbekken" />
		<tag k="ssr:stedsnr" v="342091" />
		<tag k="waterway" v="stream" />
	</node>
	<node lat="60.25047778057133" lon="10.606686108435616" id="-14137">
=======
	<node id="-297877" lat="60.1780694412" lon="10.7175694464">
		<tag k="name" v="Langøya" />
		<tag k="place" v="islet" />
		<tag k="ssr:stedsnr" v="706014" />
	</node>
	<node id="-297710" lat="60.3027805526" lon="10.7009833332">
		<tag k="name" v="Østre Gobakkputten" />
		<tag k="natural" v="water" />
		<tag k="ssr:stedsnr" v="282948" />
	</node>
	<node id="-298385" lat="60.2774777818" lon="10.7771583386">
		<tag k="name" v="Brattfossen" />
		<tag k="natural" v="waterfall" />
		<tag k="ssr:stedsnr" v="344494" />
	</node>
	<node id="-298384" lat="60.2746611083" lon="10.7954055475">
		<tag k="name" v="Snellingsbekken" />
		<tag k="ssr:stedsnr" v="344492" />
		<tag k="waterway" v="stream" />
	</node>
	<node id="-298383" lat="60.2504777806" lon="10.6066861084">
>>>>>>> e1d4bc35ff8a6074a6f2e91616a996b547c36f15
		<tag k="name" v="Vikatangen" />
		<tag k="natural" v="cape" />
		<tag k="ssr:stedsnr" v="344301" />
	</node>
<<<<<<< HEAD
	<node lat="60.16249444599885" lon="10.647102783134715" id="-14139">
		<tag k="name" v="Torsteinstangen" />
		<tag k="natural" v="cape" />
		<tag k="ssr:stedsnr" v="367027" />
	</node>
	<node lat="60.256350001962225" lon="10.793627786790987" id="-14143">
		<tag k="name" v="Tranbærtjern" />
		<tag k="natural" v="water" />
		<tag k="ssr:stedsnr" v="370404" />
	</node>
	<node lat="60.253138885472275" lon="10.75087499386823" id="-14144">
		<tag k="alt_name" v="Svarttjernet" />
		<tag k="name" v="Svartvatnet" />
		<tag k="natural" v="water" />
		<tag k="ssr:stedsnr" v="370405" />
	</node>
	<node lat="60.276990035927795" lon="10.592201401534902" id="-14148">
		<tag k="name" v="Oppentjernet" />
=======
	<node id="-298381" lat="60.314477782" lon="10.7152888978">
		<tag k="name" v="Abborputten" />
		<tag k="natural" v="water" />
		<tag k="ssr:stedsnr" v="342912" />
	</node>
	<node id="-298380" lat="60.3105361094" lon="10.704761103">
		<tag k="name" v="Elvestubben" />
		<tag k="ssr:stedsnr" v="342909" />
		<tag k="waterway" v="river" />
	</node>
	<node id="-297623" lat="60.1564138883" lon="10.6252611193">
		<tag k="alt_name" v="Store Kalvetjernet" />
		<tag k="name" v="Kalvetjernet" />
		<tag k="natural" v="water" />
		<tag k="ssr:stedsnr" v="248013" />
	</node>
	<node id="-297863" lat="60.2748166645" lon="10.639308327">
		<tag k="name" v="Ryatjernet" />
		<tag k="natural" v="water" />
		<tag k="ssr:stedsnr" v="524772" />
	</node>
	<node id="-297862" lat="60.1475277774" lon="10.5924194402">
		<tag k="name" v="Katnosdammen" />
		<tag k="ssr:stedsnr" v="524753" />
		<tag k="waterway" v="dam" />
	</node>
	<node id="-297861" lat="60.2043916701" lon="10.6976222178">
		<tag k="name" v="Løken" />
>>>>>>> e1d4bc35ff8a6074a6f2e91616a996b547c36f15
		<tag k="natural" v="water" />
		<tag k="ssr:stedsnr" v="370807" />
	</node>
<<<<<<< HEAD
	<node lat="60.320444440597264" lon="10.514994451009864" id="-14151">
		<tag k="name" v="Korsrudtjernet" />
		<tag k="natural" v="water" />
		<tag k="ssr:stedsnr" v="370978" />
	</node>
	<node lat="60.22693055402963" lon="10.706827780276924" id="-14163">
		<tag k="name" v="Kverndammen" />
		<tag k="ssr:stedsnr" v="405391" />
		<tag k="waterway" v="dam" />
	</node>
	<node lat="60.18236944163072" lon="10.615702769963056" id="-14168">
		<tag k="name" v="Grimvassputten" />
		<tag k="natural" v="water" />
		<tag k="ssr:stedsnr" v="490061" />
	</node>
	<node lat="60.12657221914498" lon="10.605411118288314" id="-14170">
		<tag k="name" v="Katnoselva" />
		<tag k="ssr:stedsnr" v="430067" />
		<tag k="waterway" v="river" />
	</node>
	<node lat="60.13803602788673" lon="10.595129640281579" id="-14171">
		<tag k="name" v="Lenseløken" />
		<tag k="natural" v="water" />
		<tag k="ssr:stedsnr" v="491101" />
	</node>
	<node lat="60.22920555344504" lon="10.677058337076653" id="-14173">
		<tag k="name" v="Merraputten" />
		<tag k="natural" v="water" />
		<tag k="ssr:stedsnr" v="430456" />
	</node>
	<node lat="60.21554166755537" lon="10.604108333476043" id="-14175">
		<tag k="name" v="Mariputten" />
=======
	<node id="-297860" lat="60.2407777785" lon="10.5450333416">
		<tag k="name" v="Oksøya" />
		<tag k="place" v="islet" />
		<tag k="ssr:stedsnr" v="524128" />
	</node>
	<node id="-298371" lat="60.2765222185" lon="10.683652773">
		<tag k="name" v="Lognabekken" />
		<tag k="ssr:stedsnr" v="342226" />
		<tag k="waterway" v="stream" />
	</node>
	<node id="-298368" lat="60.243930552" lon="10.5540805599">
		<tag k="name" v="Jordeskjæret" />
		<tag k="place" v="islet" />
		<tag k="ssr:stedsnr" v="342111" />
	</node>
	<node id="-298367" lat="60.2577555589" lon="10.5951722192">
		<tag k="name" v="Lauvbekken" />
		<tag k="ssr:stedsnr" v="342091" />
		<tag k="waterway" v="stream" />
	</node>
	<node id="-298366" lat="60.2465944399" lon="10.5902166711">
		<tag k="name" v="Stuttbekken" />
		<tag k="old_name" v="Stuttbakken" />
		<tag k="ssr:stedsnr" v="342081" />
		<tag k="waterway" v="stream" />
	</node>
	<node id="-297851" lat="60.2502972247" lon="10.7671111132">
		<tag k="name" v="Sølvtjernet" />
>>>>>>> e1d4bc35ff8a6074a6f2e91616a996b547c36f15
		<tag k="natural" v="water" />
		<tag k="ssr:stedsnr" v="430465" />
	</node>
<<<<<<< HEAD
	<node lat="60.25448182381374" lon="10.605422427198516" id="-14176">
		<tag k="name" v="Svea" />
		<tag k="natural" v="water" />
		<tag k="ssr:stedsnr" v="431788" />
		<tag k="water" v="lake" />
	</node>
	<node lat="60.2744000017932" lon="10.766450007260357" id="-14178">
		<tag k="alt_name" v="Suluelva" />
		<tag k="name" v="Sulua" />
		<tag k="ssr:stedsnr" v="491344" />
		<tag k="waterway" v="stream" />
	</node>
	<node lat="60.198359889082965" lon="10.64422307594229" id="-14195">
		<tag k="name" v="Fjellsjøen" />
		<tag k="natural" v="water" />
		<tag k="ssr:stedsnr" v="673474" />
		<tag k="water" v="lake" />
	</node>
	<node lat="60.20388055320929" lon="10.653427768661738" id="-14196">
		<tag k="name" v="Fønntjerna" />
=======
	<node id="-298362" lat="60.1966027756" lon="10.7150444413">
		<tag k="name" v="Gråmerrtangen" />
		<tag k="natural" v="cape" />
		<tag k="ssr:stedsnr" v="342025" />
	</node>
	<node id="-298361" lat="60.1879583329" lon="10.6710138859">
		<tag k="name" v="Holobekken" />
		<tag k="ssr:stedsnr" v="342022" />
		<tag k="waterway" v="stream" />
	</node>
	<node id="-298360" lat="60.1916305559" lon="10.7076722139">
		<tag k="name" v="Brannodden" />
		<tag k="natural" v="cape" />
		<tag k="ssr:stedsnr" v="342017" />
	</node>
	<node id="-298359" lat="60.1773027813" lon="10.6889583254">
		<tag k="name" v="Attholdsdammen" />
		<tag k="ssr:stedsnr" v="342012" />
		<tag k="waterway" v="dam" />
	</node>
	<node id="-297844" lat="60.2615999955" lon="10.6333611136">
		<tag k="alt_name" v="Nordre Småtjernet" />
		<tag k="name" v="Småtjernet" />
>>>>>>> e1d4bc35ff8a6074a6f2e91616a996b547c36f15
		<tag k="natural" v="water" />
		<tag k="ssr:stedsnr" v="673475" />
		<tag k="water" v="lake" />
	</node>
<<<<<<< HEAD
	<node lat="60.1772138888028" lon="10.768675005128689" id="-14201">
=======
	<node id="-297842" lat="60.1772138888" lon="10.7686750051">
>>>>>>> e1d4bc35ff8a6074a6f2e91616a996b547c36f15
		<tag k="alt_name" v="Kroktjernet" />
		<tag k="name" v="Kroktjerna" />
		<tag k="natural" v="water" />
		<tag k="ssr:stedsnr" v="673785" />
	</node>
<<<<<<< HEAD
	<node lat="60.26159999552642" lon="10.63336111364703" id="-14203">
		<tag k="alt_name" v="Nordre Småtjernet" />
		<tag k="name" v="Småtjernet" />
=======
	<node id="-298352" lat="60.2840333358" lon="10.7153499983">
		<tag k="name" v="Sætertjernet" />
>>>>>>> e1d4bc35ff8a6074a6f2e91616a996b547c36f15
		<tag k="natural" v="water" />
		<tag k="ssr:stedsnr" v="673802" />
	</node>
<<<<<<< HEAD
	<node lat="60.250297224749" lon="10.767111113165512" id="-14204">
		<tag k="name" v="Sølvtjernet" />
=======
	<node id="-298351" lat="60.2564777758" lon="10.7293138933">
		<tag k="name" v="Korsvatnet" />
>>>>>>> e1d4bc35ff8a6074a6f2e91616a996b547c36f15
		<tag k="natural" v="water" />
		<tag k="ssr:stedsnr" v="673935" />
	</node>
<<<<<<< HEAD
	<node lat="60.196691670472205" lon="10.703072213639064" id="-14208">
		<tag k="name" v="Oseputten" />
=======
	<node id="-297838" lat="60.2038805532" lon="10.6534277687">
		<tag k="name" v="Fønntjerna" />
>>>>>>> e1d4bc35ff8a6074a6f2e91616a996b547c36f15
		<tag k="natural" v="water" />
		<tag k="ssr:stedsnr" v="464024" />
	</node>
<<<<<<< HEAD
	<node lat="60.21953610930981" lon="10.71141111389347" id="-14210">
		<tag k="name" v="Ormputten" />
=======
	<node id="-297837" lat="60.1983598891" lon="10.6442230759">
		<tag k="name" v="Fjellsjøen" />
>>>>>>> e1d4bc35ff8a6074a6f2e91616a996b547c36f15
		<tag k="natural" v="water" />
		<tag k="ssr:stedsnr" v="464429" />
	</node>
<<<<<<< HEAD
	<node lat="60.29971666513296" lon="10.801086108652964" id="-14215">
		<tag k="name" v="Karpeputten" />
=======
	<node id="-298348" lat="60.3130166686" lon="10.6430111093">
		<tag k="name" v="Stumnetjernet" />
>>>>>>> e1d4bc35ff8a6074a6f2e91616a996b547c36f15
		<tag k="natural" v="water" />
		<tag k="ssr:stedsnr" v="465463" />
	</node>
<<<<<<< HEAD
	<node lat="60.297683331584516" lon="10.538577774365168" id="-14217">
		<tag k="alt_name" v="Karusputten" />
		<tag k="name" v="Karussputten" />
		<tag k="natural" v="water" />
		<tag k="ssr:stedsnr" v="674845" />
	</node>
	<node lat="60.17289722486621" lon="10.610416660350024" id="-14225">
		<tag k="name" v="Bahustjernet" />
		<tag k="natural" v="water" />
		<tag k="ssr:stedsnr" v="489048" />
	</node>
	<node lat="60.156628547067285" lon="10.568213711368648" id="-14226">
		<tag k="loc_name" v="Kattnosa" />
		<tag k="name" v="Katnosa" />
=======
	<node id="-297959" lat="60.2817972263" lon="10.7220194359">
		<tag k="name" v="Andtjernet" />
		<tag k="natural" v="water" />
		<tag k="ssr:stedsnr" v="647483" />
	</node>
	<node id="-298344" lat="60.2301361116" lon="10.7848888825">
		<tag k="name" v="Skotjernet" />
>>>>>>> e1d4bc35ff8a6074a6f2e91616a996b547c36f15
		<tag k="natural" v="water" />
		<tag k="ssr:stedsnr" v="490002" />
		<tag k="water" v="lake" />
	</node>
<<<<<<< HEAD
	<node lat="60.1632749998895" lon="10.58150832546492" id="-14227">
		<tag k="name" v="Ekornputten" />
		<tag k="natural" v="water" />
		<tag k="ssr:stedsnr" v="490036" />
	</node>
	<node lat="60.2309722178557" lon="10.633394446262493" id="-14228">
		<tag k="name" v="Storfløyta" />
=======
	<node id="-297702" lat="60.1874055573" lon="10.64023056">
		<tag k="name" v="Fjellsjøbekken" />
		<tag k="ssr:stedsnr" v="282437" />
		<tag k="waterway" v="stream" />
	</node>
	<node id="-298338" lat="60.2593996184" lon="10.6407348739">
		<tag k="name" v="Muttatjernet" />
		<tag k="natural" v="water" />
		<tag k="ssr:stedsnr" v="309748" />
	</node>
	<node id="-298336" lat="60.1554103141" lon="10.5713601965">
		<tag k="name" v="Losøya" />
		<tag k="place" v="island" />
		<tag k="ssr:stedsnr" v="309124" />
	</node>
	<node id="-298335" lat="60.1432500044" lon="10.5985333402">
		<tag k="name" v="Storløken" />
>>>>>>> e1d4bc35ff8a6074a6f2e91616a996b547c36f15
		<tag k="natural" v="water" />
		<tag k="ssr:stedsnr" v="490378" />
	</node>
<<<<<<< HEAD
	<node lat="60.30636111160055" lon="10.833227775702342" id="-14230">
		<tag k="name" v="Glåmtjern" />
=======
	<node id="-297822" lat="60.1675250037" lon="10.5954499968">
		<tag k="alt_name" v="Skjortjernet, øvre" />
		<tag k="name" v="Øvre Skjortjernet" />
>>>>>>> e1d4bc35ff8a6074a6f2e91616a996b547c36f15
		<tag k="natural" v="water" />
		<tag k="ssr:stedsnr" v="491327" />
	</node>
<<<<<<< HEAD
	<node lat="60.26806388702509" lon="10.701458329267696" id="-14232">
		<tag k="name" v="Munkerudstjerna" />
=======
	<node id="-298333" lat="60.1620333292" lon="10.7189138931">
		<tag k="alt_name" v="Strykvannet" />
		<tag k="name" v="Strykenvatnet" />
>>>>>>> e1d4bc35ff8a6074a6f2e91616a996b547c36f15
		<tag k="natural" v="water" />
		<tag k="ssr:stedsnr" v="491781" />
		<tag k="water" v="lake" />
	</node>
<<<<<<< HEAD
	<node lat="60.219236112034885" lon="10.573816670549034" id="-14241">
		<tag k="name" v="Bjønnputten" />
=======
	<node id="-298331" lat="60.2356944427" lon="10.6609722181">
		<tag k="name" v="Store Klattertjernet" />
>>>>>>> e1d4bc35ff8a6074a6f2e91616a996b547c36f15
		<tag k="natural" v="water" />
		<tag k="ssr:stedsnr" v="517289" />
		<tag k="water" v="pond" />
	</node>
<<<<<<< HEAD
	<node lat="60.28932777597164" lon="10.515988891220266" id="-14242">
		<tag k="name" v="Dælsbekken" />
		<tag k="ssr:stedsnr" v="517772" />
		<tag k="waterway" v="stream" />
	</node>
	<node lat="60.298094440813784" lon="10.60096388834694" id="-14243">
		<tag k="name" v="Kalvsjøbekken" />
		<tag k="ssr:stedsnr" v="524059" />
		<tag k="waterway" v="stream" />
	</node>
	<node lat="60.26077222465241" lon="10.687086118323537" id="-14248">
		<tag k="name" v="Nyseterbekken" />
		<tag k="ssr:stedsnr" v="526313" />
		<tag k="waterway" v="stream" />
	</node>
	<node lat="60.263405552610344" lon="10.699455556684644" id="-14249">
		<tag k="name" v="Nysetertjernet" />
=======
	<node id="-298329" lat="60.17350278" lon="10.6031583424">
		<tag k="name" v="Grøntjernet" />
		<tag k="natural" v="water" />
		<tag k="ssr:stedsnr" v="308037" />
	</node>
	<node id="-298328" lat="60.1829805532" lon="10.6498361024">
		<tag k="name" v="Gjerdingselva" />
		<tag k="ssr:stedsnr" v="308014" />
		<tag k="waterway" v="river" />
	</node>
	<node id="-297815" lat="60.2646767416" lon="10.6094399225">
		<tag k="name" v="Kalven" />
>>>>>>> e1d4bc35ff8a6074a6f2e91616a996b547c36f15
		<tag k="natural" v="water" />
		<tag k="ssr:stedsnr" v="526316" />
	</node>
<<<<<<< HEAD
	<node lat="60.31410000414573" lon="10.718652780478925" id="-14253">
		<tag k="name" v="Hesterær" />
=======
	<node id="-298326" lat="60.2198027778" lon="10.5652444457">
		<tag k="name" v="Knartputten" />
>>>>>>> e1d4bc35ff8a6074a6f2e91616a996b547c36f15
		<tag k="natural" v="water" />
		<tag k="ssr:stedsnr" v="537911" />
	</node>
<<<<<<< HEAD
	<node lat="60.31225277921811" lon="10.82997499980787" id="-14254">
		<tag k="name" v="Langvassputten" />
		<tag k="natural" v="water" />
		<tag k="ssr:stedsnr" v="537916" />
	</node>
	<node lat="60.170936109386396" lon="10.650744451461156" id="-14255">
		<tag k="name" v="Løkebekken" />
		<tag k="ssr:stedsnr" v="551020" />
		<tag k="waterway" v="stream" />
	</node>
	<node lat="60.227130554679405" lon="10.750999991578908" id="-14258">
		<tag k="name" v="Skotjernbekken" />
		<tag k="ssr:stedsnr" v="551839" />
		<tag k="waterway" v="stream" />
	</node>
	<node lat="60.42744999722592" lon="10.489713891332254" id="-14259">
		<tag k="name" v="Vigga" />
		<tag k="ssr:stedsnr" v="552140" />
		<tag k="waterway" v="river" />
	</node>
	<node lat="60.27575000295651" lon="10.717427784396024" id="-14260">
		<tag k="alt_name" v="Flåtatjern;Flåtetjernet" />
		<tag k="name" v="Flåtåtjernet" />
=======
	<node id="-298041" lat="60.1526388893" lon="10.615327769">
		<tag k="alt_name" v="N. Branntjern" />
		<tag k="name" v="Nordre Branntjernet" />
		<tag k="natural" v="water" />
		<tag k="old_name" v="n Brandtj" />
		<tag k="ssr:stedsnr" v="794116" />
	</node>
	<node id="-297812" lat="60.3040500033" lon="10.7663416636">
		<tag k="name" v="Himtjernsbekken" />
		<tag k="ssr:stedsnr" v="431328" />
		<tag k="waterway" v="stream" />
	</node>
	<node id="-297811" lat="60.219236112" lon="10.5738166705">
		<tag k="name" v="Bjønnputten" />
>>>>>>> e1d4bc35ff8a6074a6f2e91616a996b547c36f15
		<tag k="natural" v="water" />
		<tag k="ssr:stedsnr" v="552813" />
	</node>
<<<<<<< HEAD
	<node lat="60.235483333538276" lon="10.63536388725079" id="-14270">
		<tag k="name" v="Liekersputten" />
=======
	<node id="-297810" lat="60.2292055534" lon="10.6770583371">
		<tag k="name" v="Merraputten" />
>>>>>>> e1d4bc35ff8a6074a6f2e91616a996b547c36f15
		<tag k="natural" v="water" />
		<tag k="ssr:stedsnr" v="585247" />
	</node>
<<<<<<< HEAD
	<node lat="60.18276110727199" lon="10.620944435789056" id="-14272">
		<tag k="name" v="Grimstjernsputten" />
=======
	<node id="-298321" lat="60.3126472193" lon="10.6383805582">
		<tag k="name" v="Vesletjernet" />
>>>>>>> e1d4bc35ff8a6074a6f2e91616a996b547c36f15
		<tag k="natural" v="water" />
		<tag k="ssr:stedsnr" v="585416" />
	</node>
<<<<<<< HEAD
	<node lat="60.25637499720242" lon="10.609391665646424" id="-14275">
		<tag k="name" v="Svartvika" />
		<tag k="natural" v="bay" />
		<tag k="old_name" v="Starvika" />
		<tag k="ssr:stedsnr" v="586311" />
	</node>
	<node lat="60.257966664940405" lon="10.610830560307091" id="-14276">
		<tag k="name" v="Myssmørvika" />
		<tag k="natural" v="bay" />
		<tag k="ssr:stedsnr" v="586312" />
	</node>
	<node lat="60.25401110867502" lon="10.769155555628869" id="-14278">
		<tag k="name" v="Sølvtjernsbekken" />
		<tag k="ssr:stedsnr" v="586555" />
		<tag k="waterway" v="stream" />
	</node>
	<node lat="60.2419499976179" lon="10.60440554683084" id="-14288">
		<tag k="name" v="Fløyta" />
=======
	<node id="-298320" lat="60.3385805518" lon="10.6630638816">
		<tag k="name" v="Vesleelva" />
		<tag k="ssr:stedsnr" v="188990" />
		<tag k="waterway" v="stream" />
	</node>
	<node id="-298318" lat="60.2992012431" lon="10.6469385844">
		<tag k="alt_name" v="Elsjøen" />
		<tag k="name" v="Elgsjøen" />
		<tag k="natural" v="water" />
		<tag k="ssr:stedsnr" v="188915" />
		<tag k="water" v="lake" />
	</node>
	<node id="-297804" lat="60.1793272569" lon="10.6159786266">
		<tag k="fixme" v="multiple name tags, choose one and add the other to alt_name" />
		<tag k="name" v="Båhussvarttjernet;Svarttjernet" />
		<tag k="natural" v="water" />
		<tag k="ssr:stedsnr" v="430036" />
	</node>
	<node id="-297802" lat="60.1851999966" lon="10.6991972204">
		<tag k="alt_name" v="Skillingen, l" />
		<tag k="name" v="Vesle Skillingen" />
>>>>>>> e1d4bc35ff8a6074a6f2e91616a996b547c36f15
		<tag k="natural" v="water" />
		<tag k="ssr:stedsnr" v="611393" />
	</node>
<<<<<<< HEAD
	<node lat="60.15447777903668" lon="10.768108327991941" id="-14289">
		<tag k="alt_name" v="Varpebekken" />
		<tag k="name" v="Varpsbekken" />
		<tag k="ssr:stedsnr" v="611728" />
		<tag k="waterway" v="stream" />
	</node>
	<node lat="60.26557500210427" lon="10.794024991343543" id="-14290">
		<tag k="alt_name" v="Snellingen, lille;Vesle Snellingsvannet" />
		<tag k="name" v="Vesle Snellingen" />
=======
	<node id="-298312" lat="60.2068527771" lon="10.7323527857">
		<tag k="name" v="Piperbekken" />
		<tag k="ssr:stedsnr" v="188860" />
		<tag k="waterway" v="stream" />
	</node>
	<node id="-298311" lat="60.281361113" lon="10.5326944493">
		<tag k="alt_name" v="Hallumstjernet" />
		<tag k="name" v="Hallomtjernet" />
>>>>>>> e1d4bc35ff8a6074a6f2e91616a996b547c36f15
		<tag k="natural" v="water" />
		<tag k="ssr:stedsnr" v="612388" />
	</node>
<<<<<<< HEAD
	<node lat="60.19916110775877" lon="10.639391667067374" id="-14312">
		<tag k="name" v="Ketiltangen" />
		<tag k="natural" v="cape" />
		<tag k="ssr:stedsnr" v="706455" />
	</node>
	<node lat="60.19128055975426" lon="10.705094444656467" id="-14314">
		<tag k="name" v="Kartisvika" />
		<tag k="natural" v="bay" />
		<tag k="ssr:stedsnr" v="645011" />
	</node>
	<node lat="60.17942499670905" lon="10.713858340597605" id="-14315">
		<tag k="name" v="Gustavsvika" />
		<tag k="natural" v="bay" />
		<tag k="ssr:stedsnr" v="645014" />
	</node>
	<node lat="60.281797226280304" lon="10.722019435916742" id="-14328">
		<tag k="name" v="Andtjernet" />
		<tag k="natural" v="water" />
		<tag k="ssr:stedsnr" v="647483" />
	</node>
	<node lat="60.26217778098289" lon="10.727205560276934" id="-14334">
		<tag k="name" v="Svartsidalsputten" />
=======
	<node id="-298304" lat="60.2508069218" lon="10.5298935668">
		<tag k="name" v="Grasbergtjerna" />
		<tag k="natural" v="water" />
		<tag k="ssr:stedsnr" v="188807" />
		<tag k="water" v="lake" />
	</node>
	<node id="-297854" lat="60.2976833316" lon="10.5385777744">
		<tag k="alt_name" v="Karusputten" />
		<tag k="name" v="Karussputten" />
		<tag k="natural" v="water" />
		<tag k="ssr:stedsnr" v="674845" />
	</node>
	<node id="-297787" lat="60.3204444406" lon="10.514994451">
		<tag k="name" v="Korsrudtjernet" />
>>>>>>> e1d4bc35ff8a6074a6f2e91616a996b547c36f15
		<tag k="natural" v="water" />
		<tag k="ssr:stedsnr" v="708560" />
	</node>
<<<<<<< HEAD
	<node lat="60.25738333105516" lon="10.728394448841193" id="-14335">
		<tag k="name" v="Furuholmen" />
		<tag k="place" v="islet" />
		<tag k="ssr:stedsnr" v="708562" />
	</node>
	<node lat="60.22233610896721" lon="10.707930555917617" id="-14338">
		<tag k="name" v="Haneknetjernet" />
=======
	<node id="-297785" lat="60.3169133413" lon="10.6970364717">
		<tag k="name" v="Skjerva" />
		<tag k="natural" v="water" />
		<tag k="ssr:stedsnr" v="370927" />
		<tag k="water" v="lake" />
	</node>
	<node id="-298295" lat="60.2173194433" lon="10.5481500008">
		<tag k="alt_name" v="Kollernputtene" />
		<tag k="loc_name" v="Kollerputta" />
		<tag k="name" v="Kollerputtane" />
>>>>>>> e1d4bc35ff8a6074a6f2e91616a996b547c36f15
		<tag k="natural" v="water" />
		<tag k="ssr:stedsnr" v="890362" />
	</node>
<<<<<<< HEAD
	<node lat="60.281655555850044" lon="10.765597226818297" id="-14339">
=======
	<node id="-298294" lat="60.2050694461" lon="10.6459111113">
>>>>>>> e1d4bc35ff8a6074a6f2e91616a996b547c36f15
		<tag k="name" v="Kalven" />
		<tag k="natural" v="bay" />
		<tag k="ssr:stedsnr" v="890489" />
	</node>
	<node lat="60.31415833680428" lon="10.50180834213533" id="-14351">
		<tag k="name" v="Korsrudbekken" />
		<tag k="ssr:stedsnr" v="698314" />
		<tag k="waterway" v="stream" />
	</node>
	<node lat="60.17806944118489" lon="10.717569446368053" id="-14355">
		<tag k="name" v="Langøya" />
		<tag k="place" v="islet" />
		<tag k="ssr:stedsnr" v="706014" />
	</node>
	<node lat="60.270147219803846" lon="10.703516670536" id="-14362">
		<tag k="name" v="Nordre Munkerudstjernet" />
		<tag k="natural" v="water" />
		<tag k="ssr:stedsnr" v="708263" />
	</node>
<<<<<<< HEAD
	<node lat="60.15593055949697" lon="10.703069450547314" id="-14370">
		<tag k="alt_name" v="Bjørneputten" />
		<tag k="name" v="Bjønnputten" />
=======
	<node id="-298293" lat="60.1966138891" lon="10.6207194506">
		<tag k="alt_name" v="Karusputten" />
		<tag k="name" v="Karussputten" />
>>>>>>> e1d4bc35ff8a6074a6f2e91616a996b547c36f15
		<tag k="natural" v="water" />
		<tag k="ssr:stedsnr" v="733015" />
	</node>
<<<<<<< HEAD
	<node lat="60.18529168199231" lon="10.632094581618293" id="-14371">
		<tag k="name" v="Svartvatn" />
=======
	<node id="-298292" lat="60.2292306559" lon="10.5501019037">
		<tag k="fixme" v="multiple name tags, choose one and add the other to alt_name" />
		<tag k="name" v="Hosotjernet;Mosatjernet" />
>>>>>>> e1d4bc35ff8a6074a6f2e91616a996b547c36f15
		<tag k="natural" v="water" />
		<tag k="ssr:stedsnr" v="733047" />
	</node>
<<<<<<< HEAD
	<node lat="60.18092221808656" lon="10.63772222802511" id="-14372">
		<tag k="name" v="Almedalsputten" />
=======
	<node id="-298289" lat="60.1524666658" lon="10.670319453">
		<tag k="alt_name" v="Handkledputten;Håndkleputten" />
		<tag k="name" v="Handkleputten" />
>>>>>>> e1d4bc35ff8a6074a6f2e91616a996b547c36f15
		<tag k="natural" v="water" />
		<tag k="ssr:stedsnr" v="733054" />
	</node>
<<<<<<< HEAD
	<node lat="59.98788888984426" lon="11.084655560632108" id="-14375">
		<tag k="alt_name" v="Leirelva" />
		<tag k="name" v="Leira" />
		<tag k="ssr:stedsnr" v="733534" />
		<tag k="waterway" v="river" />
	</node>
	<node lat="60.138213887243595" lon="10.647430563821489" id="-14376">
		<tag k="name" v="Sandungskalven" />
		<tag k="natural" v="water" />
		<tag k="ssr:stedsnr" v="734106" />
	</node>
	<node lat="60.258359932322804" lon="10.804115480240002" id="-14377">
		<tag k="alt_name" v="Snellingen, store;Storesnellingsvannet" />
		<tag k="name" v="Store Snellingen" />
=======
	<node id="-298288" lat="60.1504888869" lon="10.5927083255">
		<tag k="name" v="Leveringsvika" />
		<tag k="natural" v="bay" />
		<tag k="ssr:stedsnr" v="187121" />
	</node>
	<node id="-298286" lat="60.1893416661" lon="10.5846583339">
		<tag k="name" v="Kaldputtangen" />
		<tag k="natural" v="cape" />
		<tag k="ssr:stedsnr" v="187047" />
	</node>
	<node id="-298285" lat="60.1600735578" lon="10.6503210514">
		<tag k="alt_name" v="Daltjuven" />
		<tag k="name" v="Store Daltjuven" />
>>>>>>> e1d4bc35ff8a6074a6f2e91616a996b547c36f15
		<tag k="natural" v="water" />
		<tag k="ssr:stedsnr" v="734409" />
		<tag k="water" v="lake" />
	</node>
<<<<<<< HEAD
	<node lat="60.25734999833077" lon="10.58374444977223" id="-14379">
		<tag k="alt_name" v="Karlstjernet" />
		<tag k="name" v="Nedre Karlstjernet" />
=======
	<node id="-297772" lat="60.3063611116" lon="10.8332277757">
		<tag k="name" v="Glåmtjern" />
>>>>>>> e1d4bc35ff8a6074a6f2e91616a996b547c36f15
		<tag k="natural" v="water" />
		<tag k="old_name" v="Karlstj, ned" />
		<tag k="ssr:stedsnr" v="734687" />
	</node>
<<<<<<< HEAD
	<node lat="60.2666166633283" lon="10.55073054793336" id="-14390">
		<tag k="name" v="Holteputten" />
		<tag k="natural" v="water" />
		<tag k="ssr:stedsnr" v="767096" />
	</node>
	<node lat="60.30083055730009" lon="10.696555552239072" id="-14395">
		<tag k="name" v="Vestre Gobakkputten" />
=======
	<node id="-297769" lat="60.2309722179" lon="10.6333944463">
		<tag k="name" v="Storfløyta" />
>>>>>>> e1d4bc35ff8a6074a6f2e91616a996b547c36f15
		<tag k="natural" v="water" />
		<tag k="ssr:stedsnr" v="767945" />
	</node>
<<<<<<< HEAD
	<node lat="60.30446111179989" lon="10.711419446355842" id="-14396">
		<tag k="name" v="Svarttjernet" />
=======
	<node id="-297768" lat="60.1823694416" lon="10.61570277">
		<tag k="name" v="Grimvassputten" />
>>>>>>> e1d4bc35ff8a6074a6f2e91616a996b547c36f15
		<tag k="natural" v="water" />
		<tag k="ssr:stedsnr" v="767949" />
	</node>
<<<<<<< HEAD
	<node lat="60.32050278044671" lon="10.682605553491577" id="-14398">
		<tag k="name" v="Fløyta" />
=======
	<node id="-297767" lat="60.1632749999" lon="10.5815083255">
		<tag k="name" v="Ekornputten" />
>>>>>>> e1d4bc35ff8a6074a6f2e91616a996b547c36f15
		<tag k="natural" v="water" />
		<tag k="ssr:stedsnr" v="767956" />
	</node>
<<<<<<< HEAD
	<node lat="60.29816111242621" lon="10.547147226402691" id="-14403">
		<tag k="name" v="Valborgtjernet" />
=======
	<node id="-298278" lat="60.2492000022" lon="10.7200527816">
		<tag k="name" v="Tellatjernputten" />
>>>>>>> e1d4bc35ff8a6074a6f2e91616a996b547c36f15
		<tag k="natural" v="water" />
		<tag k="ssr:stedsnr" v="774269" />
	</node>
<<<<<<< HEAD
	<node lat="60.144655556333575" lon="10.676533339655489" id="-14405">
		<tag k="alt_name" v="Daltjuven, l" />
		<tag k="name" v="Vesle Daltjuven" />
		<tag k="natural" v="water" />
		<tag k="ssr:stedsnr" v="794104" />
	</node>
	<node lat="60.15263888927046" lon="10.615327769046793" id="-14406">
		<tag k="alt_name" v="N. Branntjern" />
		<tag k="name" v="Nordre Branntjernet" />
=======
	<node id="-298277" lat="60.3008277733" lon="10.7864416708">
		<tag k="name" v="Damtjernputten" />
		<tag k="natural" v="water" />
		<tag k="ssr:stedsnr" v="162500" />
	</node>
	<node id="-298276" lat="60.3224388845" lon="10.7165361122">
		<tag k="name" v="Grøvika" />
		<tag k="natural" v="bay" />
		<tag k="ssr:stedsnr" v="160940" />
	</node>
	<node id="-298274" lat="60.2957055513" lon="10.6620583332">
		<tag k="name" v="Hyttaputten" />
>>>>>>> e1d4bc35ff8a6074a6f2e91616a996b547c36f15
		<tag k="natural" v="water" />
		<tag k="old_name" v="n Brandtj" />
		<tag k="ssr:stedsnr" v="794116" />
	</node>
<<<<<<< HEAD
	<node lat="60.21213055934891" lon="10.552780563029861" id="-14408">
		<tag k="alt_name" v="Gudbrandstjern" />
		<tag k="name" v="Gudbrandstjernet" />
=======
	<node id="-298273" lat="60.292400076" lon="10.6727615595">
		<tag k="name" v="Harpetjernet" />
>>>>>>> e1d4bc35ff8a6074a6f2e91616a996b547c36f15
		<tag k="natural" v="water" />
		<tag k="ssr:stedsnr" v="794474" />
	</node>
<<<<<<< HEAD
	<node lat="60.21871388959577" lon="10.605255561255895" id="-14409">
		<tag k="alt_name" v="Grøntjernet" />
		<tag k="name" v="Grønntjernet" />
=======
	<node id="-297760" lat="60.2189199519" lon="10.6124014196">
		<tag k="alt_name" v="Svarttjern" />
		<tag k="fixme" v="multiple name tags, choose one and add the other to alt_name" />
		<tag k="name" v="Svartbekktjernet;Svarttjernet" />
>>>>>>> e1d4bc35ff8a6074a6f2e91616a996b547c36f15
		<tag k="natural" v="water" />
		<tag k="ssr:stedsnr" v="794478" />
	</node>
<<<<<<< HEAD
	<node lat="60.247469446551925" lon="10.685183333288963" id="-14410">
		<tag k="name" v="Putten" />
=======
	<node id="-298271" lat="60.1999888891" lon="10.656372229">
		<tag k="name" v="Fønnetjernet" />
>>>>>>> e1d4bc35ff8a6074a6f2e91616a996b547c36f15
		<tag k="natural" v="water" />
		<tag k="ssr:stedsnr" v="794365" />
	</node>
<<<<<<< HEAD
	<node lat="60.1704861139571" lon="10.754433329897388" id="-14412">
		<tag k="alt_name" v="Smellbakktjernet" />
		<tag k="name" v="Smellbakktjern" />
=======
	<node id="-298270" lat="60.2040444475" lon="10.6530472195">
		<tag k="name" v="Fønnetjernet" />
>>>>>>> e1d4bc35ff8a6074a6f2e91616a996b547c36f15
		<tag k="natural" v="water" />
		<tag k="ssr:stedsnr" v="794714" />
	</node>
<<<<<<< HEAD
	<node lat="60.23674199489134" lon="10.783533379004295" id="-14414">
		<tag k="alt_name" v="Nordre Fjellsjøen" />
		<tag k="name" v="Fjellsjøen" />
		<tag k="natural" v="water" />
		<tag k="ssr:stedsnr" v="794823" />
	</node>
	<node lat="60.182952780557855" lon="10.70872500727488" id="-14425">
		<tag k="name" v="Fataburet" />
		<tag k="natural" v="water" />
		<tag k="ssr:stedsnr" v="915032" />
	</node>
	<node lat="60.173825004295026" lon="10.625561107168831" id="-14426">
		<tag k="alt_name" v="Grimsvatnet" />
		<tag k="name" v="Grimstjernet" />
		<tag k="natural" v="water" />
		<tag k="ssr:stedsnr" v="915039" />
	</node>
	<node lat="60.24261242176373" lon="10.566092401168351" id="-14427">
		<tag k="name" v="Mylla" />
		<tag k="natural" v="water" />
		<tag k="ssr:stedsnr" v="915355" />
		<tag k="water" v="lake" />
	</node>
	<node lat="60.23118333701625" lon="10.68124166154164" id="-14428">
		<tag k="alt_name" v="Klattertjernet, l" />
		<tag k="name" v="Vesle Klattertjernet" />
=======
	<node id="-298268" lat="60.2266583351" lon="10.7789694408">
		<tag k="alt_name" v="Lille Skotjernet" />
		<tag k="name" v="Vesle Skotjernet" />
		<tag k="natural" v="water" />
		<tag k="ssr:stedsnr" v="160489" />
	</node>
	<node id="-298267" lat="60.2165722267" lon="10.6716000024">
		<tag k="name" v="Kubbdammen" />
		<tag k="ssr:stedsnr" v="160350" />
		<tag k="waterway" v="dam" />
	</node>
	<node id="-298266" lat="60.2297277793" lon="10.6904222256">
		<tag k="name" v="Dammen" />
		<tag k="ssr:stedsnr" v="160329" />
		<tag k="waterway" v="dam" />
	</node>
	<node id="-297753" lat="60.3006638884" lon="10.7376083393">
		<tag k="name" v="Minnestuhøla" />
		<tag k="place" v="locality" />
		<tag k="ssr:stedsnr" v="465392" />
	</node>
	<node id="-298264" lat="60.2432666677" lon="10.6137694518">
		<tag k="name" v="Knippahøla" />
		<tag k="place" v="locality" />
		<tag k="ssr:stedsnr" v="160249" />
	</node>
	<node id="-298262" lat="60.240769446" lon="10.5584638844">
		<tag k="name" v="Skrikartangen" />
		<tag k="natural" v="cape" />
		<tag k="ssr:stedsnr" v="160124" />
	</node>
	<node id="-298261" lat="60.2436250046" lon="10.5519861029">
		<tag k="name" v="Furuøya" />
		<tag k="place" v="islet" />
		<tag k="ssr:stedsnr" v="160099" />
	</node>
	<node id="-297747" lat="60.2749111081" lon="10.7465055467">
		<tag k="name" v="Brakaltjernbekken" />
		<tag k="ssr:stedsnr" v="464538" />
		<tag k="waterway" v="stream" />
	</node>
	<node id="-297744" lat="60.2195361093" lon="10.7114111139">
		<tag k="name" v="Ormputten" />
>>>>>>> e1d4bc35ff8a6074a6f2e91616a996b547c36f15
		<tag k="natural" v="water" />
		<tag k="ssr:stedsnr" v="915462" />
	</node>
<<<<<<< HEAD
	<node lat="60.135230559675826" lon="10.662566659019202" id="-14429">
		<tag k="alt_name" v="Bjønnputten" />
		<tag k="name" v="Bjørnputten" />
=======
	<node id="-298254" lat="60.3080388914" lon="10.7105250072">
		<tag k="name" v="Aklangen" />
>>>>>>> e1d4bc35ff8a6074a6f2e91616a996b547c36f15
		<tag k="natural" v="water" />
		<tag k="ssr:stedsnr" v="916097" />
	</node>
<<<<<<< HEAD
	<node lat="60.30982222302992" lon="10.517397227680311" id="-14432">
		<tag k="alt_name" v="Huldertjernet" />
		<tag k="name" v="Høltjernet" />
		<tag k="natural" v="water" />
		<tag k="ssr:stedsnr" v="916937" />
	</node>
	<node lat="60.30557499626735" lon="10.853197213562161" id="-14433">
		<tag k="name" v="Knapptjern" />
		<tag k="natural" v="water" />
		<tag k="ssr:stedsnr" v="916337" />
	</node>
	<node lat="60.29160278041054" lon="10.816875008132419" id="-14434">
		<tag k="alt_name" v="Bergstjern, søndre" />
		<tag k="name" v="Søndre Bergstjernet" />
=======
	<node id="-297773" lat="60.2744000018" lon="10.7664500073">
		<tag k="alt_name" v="Suluelva" />
		<tag k="name" v="Sulua" />
		<tag k="ssr:stedsnr" v="491344" />
		<tag k="waterway" v="stream" />
	</node>
	<node id="-298114" lat="60.2817916682" lon="10.6049305548">
		<tag k="name" v="Bjønnbekken" />
		<tag k="ssr:stedsnr" v="949779" />
		<tag k="waterway" v="stream" />
	</node>
	<node id="-298250" lat="60.2065583344" lon="10.577624995">
		<tag k="alt_name" v="Belgjen" />
		<tag k="name" v="Belgen" />
		<tag k="natural" v="bay" />
		<tag k="ssr:stedsnr" v="127480" />
	</node>
	<node id="-297687" lat="60.184063889" lon="10.7392861169">
		<tag k="name" v="Monsrudbekken" />
		<tag k="ssr:stedsnr" v="160663" />
		<tag k="waterway" v="stream" />
	</node>
	<node id="-298248" lat="60.2506871217" lon="10.5750350909">
		<tag k="alt_name" v="Viggern" />
		<tag k="name" v="Viggeren" />
>>>>>>> e1d4bc35ff8a6074a6f2e91616a996b547c36f15
		<tag k="natural" v="water" />
		<tag k="ssr:stedsnr" v="916298" />
	</node>
<<<<<<< HEAD
	<node lat="60.29342499976133" lon="10.769133340236912" id="-14435">
		<tag k="name" v="Surkesand" />
		<tag k="natural" v="beach" />
		<tag k="ssr:stedsnr" v="916299" />
	</node>
	<node lat="60.27877777653008" lon="10.713974996324849" id="-14437">
		<tag k="name" v="Hestehagatjernet" />
		<tag k="natural" v="water" />
		<tag k="ssr:stedsnr" v="917839" />
	</node>
	<node lat="60.24718888821741" lon="10.601549994822015" id="-14442">
		<tag k="name" v="Gørrvomma" />
=======
	<node id="-297735" lat="60.2462166696" lon="10.5514861067">
		<tag k="name" v="Brattholtvika" />
		<tag k="natural" v="bay" />
		<tag k="ssr:stedsnr" v="463091" />
	</node>
	<node id="-298124" lat="60.2424666661" lon="10.5861333289">
		<tag k="name" v="Svarttangen" />
		<tag k="natural" v="cape" />
		<tag k="ssr:stedsnr" v="5361" />
	</node>
	<node id="-297588" lat="60.2504666713" lon="10.6036694382">
		<tag k="name" v="Svesvika" />
		<tag k="natural" v="bay" />
		<tag k="ssr:stedsnr" v="223305" />
	</node>
	<node id="-298243" lat="60.1996388906" lon="10.7605555564">
		<tag k="alt_name" v="Langpipern" />
		<tag k="name" v="Langpiperen" />
>>>>>>> e1d4bc35ff8a6074a6f2e91616a996b547c36f15
		<tag k="natural" v="water" />
		<tag k="ssr:stedsnr" v="828083" />
	</node>
<<<<<<< HEAD
	<node lat="60.23629166514767" lon="10.730611109450285" id="-14445">
		<tag k="name" v="Arnedalsputten" />
=======
	<node id="-298242" lat="60.190580554" lon="10.7441500003">
		<tag k="alt_name" v="Monsrudtjern, s" />
		<tag k="name" v="Søndre Monsrudtjernet" />
>>>>>>> e1d4bc35ff8a6074a6f2e91616a996b547c36f15
		<tag k="natural" v="water" />
		<tag k="ssr:stedsnr" v="828464" />
	</node>
<<<<<<< HEAD
	<node lat="60.27203055170122" lon="10.635266659664266" id="-14446">
		<tag k="name" v="Omdalsbekken" />
		<tag k="ssr:stedsnr" v="828768" />
		<tag k="waterway" v="stream" />
	</node>
	<node lat="60.15289722578567" lon="10.697905554943002" id="-14453">
		<tag k="name" v="Nordre Djupdalstjernet" />
=======
	<node id="-298241" lat="60.2236555582" lon="10.6303916632">
		<tag k="alt_name" v="Svarttjernsbekken" />
		<tag k="name" v="Svartbekken" />
		<tag k="ssr:stedsnr" v="126495" />
		<tag k="waterway" v="stream" />
	</node>
	<node id="-298239" lat="60.2287250036" lon="10.6114888921">
		<tag k="alt_name" v="Fålåputten" />
		<tag k="name" v="Folaputten" />
>>>>>>> e1d4bc35ff8a6074a6f2e91616a996b547c36f15
		<tag k="natural" v="water" />
		<tag k="ssr:stedsnr" v="855120" />
	</node>
<<<<<<< HEAD
	<node lat="60.134194447945305" lon="10.601372226929671" id="-14454">
		<tag k="name" v="Seterløken" />
=======
	<node id="-298238" lat="60.2413416647" lon="10.6322138834">
		<tag k="alt_name" v="Bjørneputten" />
		<tag k="name" v="Bjønnputten" />
>>>>>>> e1d4bc35ff8a6074a6f2e91616a996b547c36f15
		<tag k="natural" v="water" />
		<tag k="ssr:stedsnr" v="855088" />
	</node>
<<<<<<< HEAD
	<node lat="60.225427775904635" lon="10.650324999161562" id="-14457">
		<tag k="alt_name" v="Myllelva" />
		<tag k="name" v="Myllselva" />
		<tag k="ssr:stedsnr" v="855476" />
		<tag k="waterway" v="river" />
	</node>
	<node lat="60.22423055659836" lon="10.744902773023979" id="-14458">
		<tag k="name" v="Sæterbekken" />
		<tag k="ssr:stedsnr" v="855877" />
		<tag k="waterway" v="stream" />
	</node>
	<node lat="60.29935787157187" lon="10.66762403672191" id="-14464">
		<tag k="name" v="Nordtjernet" />
=======
	<node id="-298237" lat="60.1830583351" lon="10.5741972219">
		<tag k="alt_name" v="Fyllingen, l;Lille Fyllingen" />
		<tag k="name" v="Vesle Fyllingen" />
		<tag k="natural" v="water" />
		<tag k="old_name" v="l. Fidlingen" />
		<tag k="ssr:stedsnr" v="126053" />
	</node>
	<node id="-298235" lat="60.1623666706" lon="10.6435361109">
		<tag k="name" v="Torsteinsvika" />
		<tag k="natural" v="bay" />
		<tag k="ssr:stedsnr" v="124037" />
	</node>
	<node id="-298233" lat="60.3239277749" lon="10.7331500073">
		<tag k="name" v="Bormarkputtene" />
>>>>>>> e1d4bc35ff8a6074a6f2e91616a996b547c36f15
		<tag k="natural" v="water" />
		<tag k="ssr:stedsnr" v="856917" />
	</node>
<<<<<<< HEAD
	<node lat="60.28055833465014" lon="10.673725003957028" id="-14471">
		<tag k="name" v="Dalasjøbekken" />
		<tag k="ssr:stedsnr" v="889257" />
		<tag k="waterway" v="stream" />
	</node>
	<node lat="60.25568333222905" lon="10.643275001291642" id="-14480">
		<tag k="name" v="Muttabekken" />
		<tag k="ssr:stedsnr" v="890310" />
		<tag k="waterway" v="stream" />
	</node>
	<node lat="60.29917221953021" lon="10.744280563434534" id="-14483">
		<tag k="name" v="Minnestufossen" />
		<tag k="natural" v="waterfall" />
		<tag k="ssr:stedsnr" v="890408" />
	</node>
	<node lat="60.24946618395562" lon="10.609137135377788" id="-14489">
		<tag k="alt_name" v="Svea, yt;Ytre Svea" />
		<tag k="name" v="Yttersvea" />
=======
	<node id="-298230" lat="60.2595027774" lon="10.8061194472">
		<tag k="name" v="Lamøya" />
		<tag k="place" v="island" />
		<tag k="ssr:stedsnr" v="101566" />
	</node>
	<node id="-298228" lat="60.2755861153" lon="10.7300805628">
		<tag k="name" v="Brakaltjernet" />
		<tag k="natural" v="water" />
		<tag k="ssr:stedsnr" v="101537" />
	</node>
	<node id="-297715" lat="60.2576527738" lon="10.7296249982">
		<tag k="name" v="Fiskøya" />
		<tag k="place" v="islet" />
		<tag k="ssr:stedsnr" v="283487" />
	</node>
	<node id="-298226" lat="60.2975222206" lon="10.8062000076">
		<tag k="name" v="Karpeputten" />
>>>>>>> e1d4bc35ff8a6074a6f2e91616a996b547c36f15
		<tag k="natural" v="water" />
		<tag k="ssr:stedsnr" v="916414" />
	</node>
<<<<<<< HEAD
	<node lat="60.2013250011555" lon="10.567713886731942" id="-14491">
		<tag k="alt_name" v="Gjerdingskalven" />
		<tag k="name" v="Kalven" />
		<tag k="natural" v="water" />
		<tag k="ssr:stedsnr" v="916469" />
	</node>
	<node lat="60.30207222660703" lon="10.53359722475199" id="-14494">
		<tag k="name" v="Kjevlingen" />
=======
	<node id="-298225" lat="60.2964638844" lon="10.7907361192">
		<tag k="name" v="Surkefløyta" />
		<tag k="natural" v="water" />
		<tag k="ssr:stedsnr" v="101471" />
		<tag k="water" v="pond" />
	</node>
	<node id="-297712" lat="60.2952638882" lon="10.7565388812">
		<tag k="name" v="Avalsjøoset" />
		<tag k="natural" v="bay" />
		<tag k="ssr:stedsnr" v="283334" />
	</node>
	<node id="-298222" lat="60.2011166672" lon="10.705505555">
		<tag k="name" v="Oset" />
		<tag k="natural" v="bay" />
		<tag k="ssr:stedsnr" v="101255" />
	</node>
	<node id="-298221" lat="60.3231277765" lon="10.7034694417">
		<tag k="name" v="Damtjernet" />
>>>>>>> e1d4bc35ff8a6074a6f2e91616a996b547c36f15
		<tag k="natural" v="water" />
		<tag k="ssr:stedsnr" v="916912" />
	</node>
<<<<<<< HEAD
	<node lat="60.328610505903605" lon="10.718324075555532" id="-14498">
		<tag k="name" v="Grøa" />
		<tag k="natural" v="water" />
		<tag k="ssr:stedsnr" v="916961" />
		<tag k="water" v="lake" />
	</node>
	<node lat="60.281791668168474" lon="10.604930554830354" id="-14503">
		<tag k="name" v="Bjønnbekken" />
		<tag k="ssr:stedsnr" v="949779" />
		<tag k="waterway" v="stream" />
	</node>
	<node lat="60.26136111112463" lon="10.62528888066957" id="-14507">
		<tag k="name" v="Østre Småtjernet" />
		<tag k="natural" v="water" />
		<tag k="ssr:stedsnr" v="951294" />
	</node>
	<node lat="60.25961944543503" lon="10.713530558244031" id="-14508">
		<tag k="name" v="Aulibekken" />
		<tag k="ssr:stedsnr" v="951302" />
		<tag k="waterway" v="stream" />
	</node>
	<node lat="60.2835833360654" lon="10.793563881774935" id="-14509">
		<tag k="name" v="Mellomsjøelva" />
		<tag k="ssr:stedsnr" v="951488" />
		<tag k="waterway" v="river" />
	</node>
	<node lat="60.263083332291615" lon="10.581780551783895" id="-14537">
		<tag k="alt_name" v="Karlstjernet" />
		<tag k="name" v="Øvre Karlstjernet" />
		<tag k="natural" v="water" />
		<tag k="old_name" v="Karlstj, øv" />
		<tag k="ssr:stedsnr" v="6770" />
	</node>
	<node lat="60.29011666882102" lon="10.482808339927905" id="-14547">
		<tag k="name" v="Markatjernet" />
		<tag k="natural" v="water" />
		<tag k="ssr:stedsnr" v="34283" />
	</node>
	<node lat="60.2275833329495" lon="10.647133332066788" id="-14550">
		<tag k="name" v="Aurtjernsbekken" />
		<tag k="ssr:stedsnr" v="39274" />
		<tag k="waterway" v="stream" />
	</node>
	<node lat="60.20461944660247" lon="10.657283333684598" id="-14555">
		<tag k="name" v="Tvillingtjernet" />
		<tag k="natural" v="water" />
		<tag k="ssr:stedsnr" v="39438" />
	</node>
	<node lat="60.15797222055996" lon="10.72308332936935" id="-14557">
		<tag k="name" v="Ytterstryken" />
		<tag k="natural" v="bay" />
		<tag k="ssr:stedsnr" v="39697" />
	</node>
	<node lat="60.189672222281494" lon="10.610108339631019" id="-14559">
		<tag k="name" v="Gjerdingsdammen" />
		<tag k="ssr:stedsnr" v="40284" />
		<tag k="waterway" v="dam" />
	</node>
	<node lat="60.214013889261345" lon="10.633544444443855" id="-14563">
		<tag k="name" v="Hulderputten" />
=======
	<node id="-298218" lat="60.291603757" lon="10.6676675484">
		<tag k="name" v="Gørrvomma" />
		<tag k="natural" v="water" />
		<tag k="ssr:stedsnr" v="100769" />
	</node>
	<node id="-298217" lat="60.2683027755" lon="10.6086805529">
		<tag k="name" v="Møllåa" />
		<tag k="ssr:stedsnr" v="100766" />
		<tag k="waterway" v="stream" />
	</node>
	<node id="-298214" lat="60.1989361089" lon="10.7070750034">
		<tag k="name" v="Fiskeskjær" />
		<tag k="natural" v="cape" />
		<tag k="ssr:stedsnr" v="100395" />
	</node>
	<node id="-297681" lat="60.2378916652" lon="10.541475004">
		<tag k="name" v="Storøya" />
		<tag k="place" v="islet" />
		<tag k="ssr:stedsnr" v="275895" />
	</node>
	<node id="-298211" lat="60.2273722236" lon="10.6142194516">
		<tag k="name" v="Fålåputtbekken" />
		<tag k="ssr:stedsnr" v="100259" />
		<tag k="waterway" v="stream" />
	</node>
	<node id="-298159" lat="60.1579722206" lon="10.7230833294">
		<tag k="name" v="Ytterstryken" />
		<tag k="natural" v="bay" />
		<tag k="ssr:stedsnr" v="39697" />
	</node>
	<node id="-298204" lat="60.1879177086" lon="10.6001005984">
		<tag k="name" v="Svartvika" />
		<tag k="natural" v="bay" />
		<tag k="ssr:stedsnr" v="93424" />
	</node>
	<node id="-297691" lat="60.1511083358" lon="10.642302779">
		<tag k="name" v="Guribrennputten" />
>>>>>>> e1d4bc35ff8a6074a6f2e91616a996b547c36f15
		<tag k="natural" v="water" />
		<tag k="ssr:stedsnr" v="41499" />
	</node>
<<<<<<< HEAD
	<node lat="60.2007534153905" lon="10.738283433970858" id="-14567">
		<tag k="alt_name" v="Monsrudtjerna, vestre" />
		<tag k="fixme" v="multiple name tags, choose one and add the other to alt_name" />
		<tag k="name" v="Brannrudsputten;Vestre Monsrudtjernet" />
=======
	<node id="-298714" lat="60.1380360279" lon="10.5951296403">
		<tag k="name" v="Lenseløken" />
		<tag k="natural" v="water" />
		<tag k="ssr:stedsnr" v="491101" />
	</node>
	<node id="-298713" lat="60.2879410053" lon="10.4725345918">
		<tag k="name" v="Galtedalstjerna" />
		<tag k="natural" v="water" />
		<tag k="ssr:stedsnr" v="795825" />
		<tag k="water" v="lake" />
	</node>
	<node id="-298200" lat="60.3230527778" lon="10.6304249925">
		<tag k="name" v="Vesletjernet" />
>>>>>>> e1d4bc35ff8a6074a6f2e91616a996b547c36f15
		<tag k="natural" v="water" />
		<tag k="ssr:stedsnr" v="66758" />
	</node>
<<<<<<< HEAD
	<node lat="60.29143611471969" lon="10.565950002176582" id="-14580">
		<tag k="alt_name" v="Kalvsjø" />
		<tag k="name" v="Kalvsjøtjernet" />
=======
	<node id="-298199" lat="60.3197494398" lon="10.6274835183">
		<tag k="name" v="Kruggerudtjernet" />
>>>>>>> e1d4bc35ff8a6074a6f2e91616a996b547c36f15
		<tag k="natural" v="water" />
		<tag k="ssr:stedsnr" v="67857" />
	</node>
<<<<<<< HEAD
	<node lat="60.3262073014666" lon="10.666072440373135" id="-14589">
=======
	<node id="-298710" lat="60.1566285471" lon="10.5682137114">
		<tag k="loc_name" v="Kattnosa" />
		<tag k="name" v="Katnosa" />
		<tag k="natural" v="water" />
		<tag k="ssr:stedsnr" v="490002" />
		<tag k="water" v="lake" />
	</node>
	<node id="-298709" lat="60.3087390057" lon="10.4671444937">
		<tag k="name" v="Veloelva​" />
		<tag k="ssr:stedsnr" v="987349" />
		<tag k="waterway" v="river" />
	</node>
	<node id="-298196" lat="60.3262073015" lon="10.6660724404">
>>>>>>> e1d4bc35ff8a6074a6f2e91616a996b547c36f15
		<tag k="alt_name" v="Karrusputten" />
		<tag k="fixme" v="multiple name tags, choose one and add the other to alt_name" />
		<tag k="name" v="Ensrudputten;Karussputten" />
		<tag k="natural" v="water" />
		<tag k="ssr:stedsnr" v="67961" />
	</node>
<<<<<<< HEAD
	<node lat="60.319749439783095" lon="10.627483518263714" id="-14590">
		<tag k="name" v="Kruggerudtjernet" />
		<tag k="natural" v="water" />
		<tag k="ssr:stedsnr" v="90275" />
	</node>
	<node lat="60.32305277778719" lon="10.630424992530354" id="-14591">
		<tag k="name" v="Vesletjernet" />
		<tag k="natural" v="water" />
		<tag k="ssr:stedsnr" v="90277" />
	</node>
	<node lat="60.19893610892357" lon="10.707075003441817" id="-14604">
		<tag k="name" v="Fiskeskjær" />
		<tag k="natural" v="cape" />
		<tag k="ssr:stedsnr" v="100395" />
	</node>
	<node lat="60.227372223647606" lon="10.614219451643347" id="-14606">
		<tag k="name" v="Fålåputtbekken" />
		<tag k="ssr:stedsnr" v="100259" />
		<tag k="waterway" v="stream" />
	</node>
	<node lat="60.32312777653289" lon="10.70346944166198" id="-14609">
		<tag k="name" v="Damtjernet" />
=======
	<node id="-298193" lat="60.2771138912" lon="10.7052750036">
		<tag k="name" v="Dalasjøen" />
>>>>>>> e1d4bc35ff8a6074a6f2e91616a996b547c36f15
		<tag k="natural" v="water" />
		<tag k="ssr:stedsnr" v="100934" />
	</node>
<<<<<<< HEAD
	<node lat="60.27558611527292" lon="10.730080562796532" id="-14610">
		<tag k="name" v="Brakaltjernet" />
		<tag k="natural" v="water" />
		<tag k="ssr:stedsnr" v="101537" />
	</node>
	<node lat="60.2011166672449" lon="10.705505554991591" id="-14614">
		<tag k="name" v="Oset" />
		<tag k="natural" v="bay" />
		<tag k="ssr:stedsnr" v="101255" />
	</node>
	<node lat="60.32392777489338" lon="10.733150007337562" id="-14618">
		<tag k="name" v="Bormarkputtene" />
=======
	<node id="-298018" lat="60.1738250043" lon="10.6255611072">
		<tag k="alt_name" v="Grimsvatnet" />
		<tag k="name" v="Grimstjernet" />
		<tag k="natural" v="water" />
		<tag k="ssr:stedsnr" v="915039" />
	</node>
	<node id="-298703" lat="60.2424908137" lon="10.6013555143">
		<tag k="name" v="Myllsdammen" />
		<tag k="ssr:stedsnr" v="991065" />
		<tag k="waterway" v="dam" />
	</node>
	<node id="-297933" lat="60.1646222267" lon="10.6157361182">
		<tag k="fixme" v="multiple name tags, choose one and add the other to alt_name" />
		<tag k="name" v="Bekkehogsttjernet;Båhus-Branntjernet" />
		<tag k="natural" v="water" />
		<tag k="ssr:stedsnr" v="612033" />
	</node>
	<node id="-298188" lat="60.3009166678" lon="10.4647666641">
		<tag k="name" v="Sverigetjernet" />
>>>>>>> e1d4bc35ff8a6074a6f2e91616a996b547c36f15
		<tag k="natural" v="water" />
		<tag k="ssr:stedsnr" v="112591" />
	</node>
<<<<<<< HEAD
	<node lat="60.162366670586344" lon="10.643536110890174" id="-14620">
		<tag k="name" v="Torsteinsvika" />
		<tag k="natural" v="bay" />
		<tag k="ssr:stedsnr" v="124037" />
	</node>
	<node lat="60.241341664665285" lon="10.632213883386287" id="-14621">
		<tag k="alt_name" v="Bjørneputten" />
		<tag k="name" v="Bjønnputten" />
=======
	<node id="-297675" lat="60.3130861101" lon="10.7313361152">
		<tag k="name" v="Øytjern" />
>>>>>>> e1d4bc35ff8a6074a6f2e91616a996b547c36f15
		<tag k="natural" v="water" />
		<tag k="ssr:stedsnr" v="126380" />
	</node>
<<<<<<< HEAD
	<node lat="60.22872500363463" lon="10.611488892147618" id="-14622">
		<tag k="alt_name" v="Fålåputten" />
		<tag k="name" v="Folaputten" />
=======
	<node id="-297674" lat="60.2314527783" lon="10.6027916641">
		<tag k="alt_name" v="Bånntjernet" />
		<tag k="name" v="Bonntjernet" />
>>>>>>> e1d4bc35ff8a6074a6f2e91616a996b547c36f15
		<tag k="natural" v="water" />
		<tag k="ssr:stedsnr" v="126385" />
	</node>
<<<<<<< HEAD
	<node lat="60.19058055402328" lon="10.744150000346112" id="-14624">
		<tag k="alt_name" v="Monsrudtjern, s" />
		<tag k="name" v="Søndre Monsrudtjernet" />
=======
	<node id="-297673" lat="60.1633249961" lon="10.5871999997">
		<tag k="alt_name" v="Skjortjernet, nedre" />
		<tag k="name" v="Nedre Skjortjernet" />
>>>>>>> e1d4bc35ff8a6074a6f2e91616a996b547c36f15
		<tag k="natural" v="water" />
		<tag k="ssr:stedsnr" v="126736" />
	</node>
<<<<<<< HEAD
	<node lat="60.31308611009432" lon="10.731336115241808" id="-14625">
		<tag k="name" v="Øytjern" />
		<tag k="natural" v="water" />
		<tag k="ssr:stedsnr" v="127332" />
	</node>
	<node lat="60.20655833436103" lon="10.577624994992863" id="-14626">
		<tag k="alt_name" v="Belgjen" />
		<tag k="name" v="Belgen" />
=======
	<node id="-297766" lat="60.1728972249" lon="10.6104166604">
		<tag k="name" v="Bahustjernet" />
		<tag k="natural" v="water" />
		<tag k="ssr:stedsnr" v="489048" />
	</node>
	<node id="-297671" lat="60.2018111077" lon="10.639113882">
		<tag k="name" v="Setervika" />
>>>>>>> e1d4bc35ff8a6074a6f2e91616a996b547c36f15
		<tag k="natural" v="bay" />
		<tag k="ssr:stedsnr" v="127480" />
	</node>
<<<<<<< HEAD
	<node lat="60.21657222665185" lon="10.671600002417252" id="-14636">
		<tag k="name" v="Kubbdammen" />
		<tag k="ssr:stedsnr" v="160350" />
		<tag k="waterway" v="dam" />
	</node>
	<node lat="60.24362500456955" lon="10.55198610293425" id="-14641">
		<tag k="name" v="Furuøya" />
		<tag k="place" v="islet" />
		<tag k="ssr:stedsnr" v="160099" />
	</node>
	<node lat="60.24076944601392" lon="10.558463884431166" id="-14642">
		<tag k="name" v="Skrikartangen" />
=======
	<node id="-298182" lat="60.2914361147" lon="10.5659500022">
		<tag k="alt_name" v="Kalvsjø" />
		<tag k="name" v="Kalvsjøtjernet" />
		<tag k="natural" v="water" />
		<tag k="ssr:stedsnr" v="67857" />
	</node>
	<node id="-297669" lat="60.2022249963" lon="10.642466665">
		<tag k="name" v="Lauvtangen" />
>>>>>>> e1d4bc35ff8a6074a6f2e91616a996b547c36f15
		<tag k="natural" v="cape" />
		<tag k="ssr:stedsnr" v="160124" />
	</node>
<<<<<<< HEAD
	<node lat="60.24326666773777" lon="10.613769451828405" id="-14643">
		<tag k="name" v="Knippahøla" />
		<tag k="place" v="locality" />
		<tag k="ssr:stedsnr" v="160249" />
	</node>
	<node lat="60.22972777928587" lon="10.690422225594148" id="-14645">
		<tag k="name" v="Dammen" />
		<tag k="ssr:stedsnr" v="160329" />
		<tag k="waterway" v="dam" />
	</node>
	<node lat="60.20404444753819" lon="10.653047219529382" id="-14647">
		<tag k="name" v="Fønnetjernet" />
=======
	<node id="-298688" lat="60.3040193039" lon="10.4623734386">
		<tag k="name" v="Rustadelva​" />
		<tag k="ssr:stedsnr" v="987350" />
		<tag k="waterway" v="river" />
	</node>
	<node id="-297868" lat="60.24304444" lon="10.7630916706">
		<tag k="name" v="Gulliksrudputten" />
		<tag k="natural" v="water" />
		<tag k="ssr:stedsnr" v="526579" />
	</node>
	<node id="-297662" lat="60.1669222201" lon="10.7093416734">
		<tag k="name" v="Myseputten" />
>>>>>>> e1d4bc35ff8a6074a6f2e91616a996b547c36f15
		<tag k="natural" v="water" />
		<tag k="ssr:stedsnr" v="160427" />
	</node>
<<<<<<< HEAD
	<node lat="60.19998888905325" lon="10.656372229032362" id="-14648">
		<tag k="name" v="Fønnetjernet" />
=======
	<node id="-298173" lat="60.2007534154" lon="10.738283434">
		<tag k="alt_name" v="Monsrudtjerna, vestre" />
		<tag k="fixme" v="multiple name tags, choose one and add the other to alt_name" />
		<tag k="name" v="Brannrudsputten;Vestre Monsrudtjernet" />
>>>>>>> e1d4bc35ff8a6074a6f2e91616a996b547c36f15
		<tag k="natural" v="water" />
		<tag k="ssr:stedsnr" v="160430" />
	</node>
<<<<<<< HEAD
	<node lat="60.22665833514436" lon="10.778969440840509" id="-14651">
		<tag k="alt_name" v="Lille Skotjernet" />
		<tag k="name" v="Vesle Skotjernet" />
		<tag k="natural" v="water" />
		<tag k="ssr:stedsnr" v="160489" />
	</node>
	<node lat="60.18406388896579" lon="10.739286116927516" id="-14653">
		<tag k="name" v="Monsrudbekken" />
		<tag k="ssr:stedsnr" v="160663" />
		<tag k="waterway" v="stream" />
	</node>
	<node lat="60.292400075953694" lon="10.672761559496637" id="-14654">
		<tag k="name" v="Harpetjernet" />
		<tag k="natural" v="water" />
		<tag k="ssr:stedsnr" v="160778" />
	</node>
	<node lat="60.29570555125967" lon="10.662058333178893" id="-14655">
		<tag k="name" v="Hyttaputten" />
		<tag k="natural" v="water" />
		<tag k="ssr:stedsnr" v="160779" />
	</node>
	<node lat="60.322438884526946" lon="10.716536112175524" id="-14657">
		<tag k="name" v="Grøvika" />
		<tag k="natural" v="bay" />
		<tag k="ssr:stedsnr" v="160940" />
	</node>
	<node lat="60.25331111263729" lon="10.594519452733108" id="-14658">
		<tag k="name" v="Bjønnputten" />
=======
	<node id="-297930" lat="60.2419499976" lon="10.6044055468">
		<tag k="name" v="Fløyta" />
		<tag k="natural" v="water" />
		<tag k="ssr:stedsnr" v="611393" />
	</node>
	<node id="-298680" lat="60.2420000026" lon="10.7219111035">
		<tag k="name" v="Hjalmarputten" />
		<tag k="natural" v="water" />
		<tag k="ssr:stedsnr" v="951576" />
	</node>
	<node id="-298679" lat="60.2835833361" lon="10.7935638818">
		<tag k="name" v="Mellomsjøelva" />
		<tag k="ssr:stedsnr" v="951488" />
		<tag k="waterway" v="river" />
	</node>
	<node id="-298678" lat="60.2596194454" lon="10.7135305582">
		<tag k="name" v="Aulibekken" />
		<tag k="ssr:stedsnr" v="951302" />
		<tag k="waterway" v="stream" />
	</node>
	<node id="-298677" lat="60.2613611111" lon="10.6252888807">
		<tag k="name" v="Østre Småtjernet" />
		<tag k="natural" v="water" />
		<tag k="ssr:stedsnr" v="951294" />
	</node>
	<node id="-298164" lat="60.1896722223" lon="10.6101083396">
		<tag k="name" v="Gjerdingsdammen" />
		<tag k="ssr:stedsnr" v="40284" />
		<tag k="waterway" v="dam" />
	</node>
	<node id="-297651" lat="60.2504000025" lon="10.6456666721">
		<tag k="name" v="Sveselva" />
		<tag k="ssr:stedsnr" v="249758" />
		<tag k="waterway" v="river" />
	</node>
	<node id="-298440" lat="60.226930554" lon="10.7068277803">
		<tag k="name" v="Kverndammen" />
		<tag k="ssr:stedsnr" v="405391" />
		<tag k="waterway" v="dam" />
	</node>
	<node id="-298669" lat="60.2993578716" lon="10.6676240367">
		<tag k="name" v="Nordtjernet" />
>>>>>>> e1d4bc35ff8a6074a6f2e91616a996b547c36f15
		<tag k="natural" v="water" />
		<tag k="ssr:stedsnr" v="162418" />
	</node>
<<<<<<< HEAD
	<node lat="60.30082777333712" lon="10.78644167082446" id="-14659">
		<tag k="name" v="Damtjernputten" />
=======
	<node id="-297644" lat="60.3112000001" lon="10.4722305601">
		<tag k="name" v="Orentjernet" />
>>>>>>> e1d4bc35ff8a6074a6f2e91616a996b547c36f15
		<tag k="natural" v="water" />
		<tag k="ssr:stedsnr" v="162500" />
	</node>
<<<<<<< HEAD
	<node lat="60.24920000220859" lon="10.720052781586933" id="-14660">
		<tag k="name" v="Tellatjernputten" />
		<tag k="natural" v="water" />
		<tag k="ssr:stedsnr" v="162580" />
	</node>
	<node lat="60.16007355776504" lon="10.650321051364637" id="-14665">
		<tag k="alt_name" v="Daltjuven" />
		<tag k="name" v="Store Daltjuven" />
=======
	<node id="-297774" lat="60.268063887" lon="10.7014583293">
		<tag k="name" v="Munkerudstjerna" />
		<tag k="natural" v="water" />
		<tag k="ssr:stedsnr" v="491781" />
		<tag k="water" v="lake" />
	</node>
	<node id="-298666" lat="60.2242305566" lon="10.744902773">
		<tag k="name" v="Sæterbekken" />
		<tag k="ssr:stedsnr" v="855877" />
		<tag k="waterway" v="stream" />
	</node>
	<node id="-298664" lat="60.2065833293" lon="10.7497916618">
		<tag k="alt_name" v="Piperen, nordre;Stoltpipern" />
		<tag k="name" v="Nordre Piperen" />
>>>>>>> e1d4bc35ff8a6074a6f2e91616a996b547c36f15
		<tag k="natural" v="water" />
		<tag k="ssr:stedsnr" v="187009" />
		<tag k="water" v="lake" />
	</node>
<<<<<<< HEAD
	<node lat="60.18934166614831" lon="10.584658333852898" id="-14666">
		<tag k="name" v="Kaldputtangen" />
		<tag k="natural" v="cape" />
		<tag k="ssr:stedsnr" v="187047" />
	</node>
	<node lat="60.15048888687403" lon="10.59270832547631" id="-14667">
		<tag k="name" v="Leveringsvika" />
		<tag k="natural" v="bay" />
		<tag k="ssr:stedsnr" v="187121" />
	</node>
	<node lat="60.229230655861485" lon="10.550101903666846" id="-14670">
		<tag k="fixme" v="multiple name tags, choose one and add the other to alt_name" />
		<tag k="name" v="Mosatjernet;Hosotjernet" />
=======
	<node id="-297639" lat="60.2773888918" lon="10.5355250064">
		<tag k="name" v="Holteputt" />
		<tag k="natural" v="water" />
		<tag k="ssr:stedsnr" v="248843" />
	</node>
	<node id="-298149" lat="60.2901166688" lon="10.4828083399">
		<tag k="name" v="Markatjernet" />
>>>>>>> e1d4bc35ff8a6074a6f2e91616a996b547c36f15
		<tag k="natural" v="water" />
		<tag k="ssr:stedsnr" v="187365" />
	</node>
<<<<<<< HEAD
	<node lat="60.21731944333626" lon="10.548150000785187" id="-14671">
		<tag k="alt_name" v="Kollernputtene" />
		<tag k="loc_name" v="Kollerputta" />
		<tag k="name" v="Kollerputtane" />
=======
	<node id="-298660" lat="60.1930916635" lon="10.5908249931">
		<tag k="name" v="Gjerdingen" />
>>>>>>> e1d4bc35ff8a6074a6f2e91616a996b547c36f15
		<tag k="natural" v="water" />
		<tag k="old_name" v="Kollernputta" />
		<tag k="ssr:stedsnr" v="187456" />
	</node>
<<<<<<< HEAD
	<node lat="60.281361113049385" lon="10.532694449321452" id="-14681">
		<tag k="alt_name" v="Hallumstjernet" />
		<tag k="name" v="Hallomtjernet" />
=======
	<node id="-297635" lat="60.2316138902" lon="10.6459944446">
		<tag k="alt_name" v="Aurtjernet" />
		<tag k="name" v="Auretjernet" />
>>>>>>> e1d4bc35ff8a6074a6f2e91616a996b547c36f15
		<tag k="natural" v="water" />
		<tag k="ssr:stedsnr" v="188846" />
	</node>
<<<<<<< HEAD
	<node lat="60.2068527771492" lon="10.732352785722913" id="-14684">
		<tag k="name" v="Piperbekken" />
		<tag k="ssr:stedsnr" v="188860" />
		<tag k="waterway" v="stream" />
	</node>
	<node lat="60.299201243149106" lon="10.646938584431405" id="-14687">
		<tag k="alt_name" v="Elsjøen" />
		<tag k="name" v="Elgsjøen" />
=======
	<node id="-297634" lat="60.2245027793" lon="10.5587055631">
		<tag k="alt_name" v="Åssjøen" />
		<tag k="name" v="Ålsjøen" />
>>>>>>> e1d4bc35ff8a6074a6f2e91616a996b547c36f15
		<tag k="natural" v="water" />
		<tag k="ssr:stedsnr" v="188915" />
		<tag k="water" v="lake" />
	</node>
<<<<<<< HEAD
	<node lat="60.16807778142363" lon="10.697433332562477" id="-14691">
		<tag k="name" v="Langvika" />
		<tag k="natural" v="bay" />
		<tag k="ssr:stedsnr" v="221017" />
	</node>
	<node lat="60.169672222913896" lon="10.685977772631807" id="-14692">
		<tag k="name" v="Nysetervika" />
		<tag k="natural" v="bay" />
		<tag k="ssr:stedsnr" v="221037" />
	</node>
	<node lat="60.28961666887967" lon="10.561274996225297" id="-14696">
		<tag k="name" v="Tangen" />
		<tag k="natural" v="cape" />
		<tag k="ssr:stedsnr" v="221068" />
	</node>
	<node lat="60.27476111358066" lon="10.725163890760623" id="-14699">
		<tag k="name" v="Langvatnbekken" />
		<tag k="ssr:stedsnr" v="223501" />
		<tag k="waterway" v="stream" />
	</node>
	<node lat="60.237891665200586" lon="10.541475004046646" id="-14705">
		<tag k="name" v="Storøya" />
		<tag k="place" v="islet" />
		<tag k="ssr:stedsnr" v="275895" />
	</node>
	<node lat="60.257652773802" lon="10.729624998161459" id="-14711">
		<tag k="name" v="Fiskøya" />
		<tag k="place" v="islet" />
		<tag k="ssr:stedsnr" v="283487" />
	</node>
	<node lat="60.18740555733569" lon="10.64023056001608" id="-14714">
		<tag k="name" v="Fjellsjøbekken" />
		<tag k="ssr:stedsnr" v="282437" />
		<tag k="waterway" v="stream" />
	</node>
	<node lat="60.30278055261368" lon="10.700983333245716" id="-14719">
		<tag k="name" v="Østre Gobakkputten" />
=======
	<node id="-298657" lat="60.1341944479" lon="10.6013722269">
		<tag k="name" v="Sæterløken" />
		<tag k="natural" v="water" />
		<tag k="ssr:stedsnr" v="855088" />
	</node>
	<node id="-298656" lat="60.1844138908" lon="10.6786861152">
		<tag k="name" v="Lunnerputten" />
		<tag k="natural" v="water" />
		<tag k="ssr:stedsnr" v="855050" />
	</node>
	<node id="-298655" lat="60.1886944461" lon="10.5826055499">
		<tag k="alt_name" v="Kaldputt" />
		<tag k="name" v="Kaldputten" />
>>>>>>> e1d4bc35ff8a6074a6f2e91616a996b547c36f15
		<tag k="natural" v="water" />
		<tag k="ssr:stedsnr" v="282948" />
	</node>
<<<<<<< HEAD
	<node lat="60.29526388818196" lon="10.756538881214638" id="-14721">
		<tag k="name" v="Avalsjøoset" />
		<tag k="natural" v="bay" />
		<tag k="ssr:stedsnr" v="283334" />
	</node>
	<node lat="60.17350278004661" lon="10.603158342420924" id="-14725">
		<tag k="name" v="Grøntjernet" />
=======
	<node id="-297628" lat="60.1468833333" lon="10.6636972215">
		<tag k="alt_name" v="Måntjernet" />
		<tag k="name" v="Mantjernet" />
>>>>>>> e1d4bc35ff8a6074a6f2e91616a996b547c36f15
		<tag k="natural" v="water" />
		<tag k="ssr:stedsnr" v="308037" />
	</node>
<<<<<<< HEAD
	<node lat="60.235694442727414" lon="10.660972218098998" id="-14726">
		<tag k="name" v="Store Klattertjernet" />
=======
	<node id="-297627" lat="60.1934611126" lon="10.6512277767">
		<tag k="name" v="Sæterputten" />
>>>>>>> e1d4bc35ff8a6074a6f2e91616a996b547c36f15
		<tag k="natural" v="water" />
		<tag k="ssr:stedsnr" v="308438" />
	</node>
<<<<<<< HEAD
	<node lat="60.16203332920238" lon="10.71891389306864" id="-14729">
		<tag k="alt_name" v="Strykvannet" />
		<tag k="name" v="Strykenvatnet" />
		<tag k="natural" v="water" />
		<tag k="ssr:stedsnr" v="308698" />
	</node>
	<node lat="60.143250004395924" lon="10.598533340175605" id="-14731">
		<tag k="name" v="Storløken" />
=======
	<node id="-298095" lat="60.249290754" lon="10.6092201502">
		<tag k="alt_name" v="Svea, yt;Ytre Svea" />
		<tag k="name" v="Yttersvea" />
		<tag k="natural" v="water" />
		<tag k="ssr:stedsnr" v="916414" />
	</node>
	<node id="-297624" lat="60.16319722" lon="10.629488881">
		<tag k="name" v="Åstjernet" />
>>>>>>> e1d4bc35ff8a6074a6f2e91616a996b547c36f15
		<tag k="natural" v="water" />
		<tag k="ssr:stedsnr" v="309104" />
	</node>
<<<<<<< HEAD
	<node lat="60.15541031413788" lon="10.571360196450119" id="-14732">
		<tag k="name" v="Losøya" />
		<tag k="place" v="island" />
		<tag k="ssr:stedsnr" v="309124" />
	</node>
	<node lat="60.230136111649415" lon="10.784888882515242" id="-14734">
		<tag k="name" v="Skotjernet" />
		<tag k="natural" v="water" />
		<tag k="ssr:stedsnr" v="309819" />
	</node>
	<node lat="60.313016668613486" lon="10.643011109301236" id="-14735">
		<tag k="name" v="Stumnetjernet" />
=======
	<node id="-298135" lat="60.2630833323" lon="10.5817805518">
		<tag k="alt_name" v="Karlstjernet" />
		<tag k="name" v="Øvre Karlstjernet" />
>>>>>>> e1d4bc35ff8a6074a6f2e91616a996b547c36f15
		<tag k="natural" v="water" />
		<tag k="ssr:stedsnr" v="309883" />
	</node>
<<<<<<< HEAD
	<node lat="60.25939961840491" lon="10.640734873875678" id="-14738">
		<tag k="name" v="Muttatjernet" />
=======
	<node id="-297622" lat="60.1540499962" lon="10.7106805534">
		<tag k="name" v="Fiskeløysa" />
>>>>>>> e1d4bc35ff8a6074a6f2e91616a996b547c36f15
		<tag k="natural" v="water" />
		<tag k="ssr:stedsnr" v="309748" />
	</node>
<<<<<<< HEAD
	<node lat="60.25647777579036" lon="10.72931389327334" id="-14746">
		<tag k="name" v="Korsvatnet" />
		<tag k="natural" v="water" />
		<tag k="ssr:stedsnr" v="310358" />
	</node>
	<node lat="60.196602775648685" lon="10.715044441338527" id="-14749">
		<tag k="name" v="Gråmerrtangen" />
		<tag k="natural" v="cape" />
		<tag k="ssr:stedsnr" v="342025" />
	</node>
	<node lat="60.2465944399484" lon="10.590216671076472" id="-14753">
		<tag k="name" v="Stuttbekken" />
		<tag k="old_name" v="Stuttbakken" />
		<tag k="ssr:stedsnr" v="342081" />
		<tag k="waterway" v="stream" />
	</node>
	<node lat="60.27652221845435" lon="10.683652772969209" id="-14756">
		<tag k="name" v="Lognabekken" />
		<tag k="ssr:stedsnr" v="342226" />
		<tag k="waterway" v="stream" />
	</node>
	<node lat="60.310536109372464" lon="10.704761102986097" id="-14760">
		<tag k="name" v="Elvestubben" />
		<tag k="ssr:stedsnr" v="342909" />
		<tag k="waterway" v="river" />
	</node>
	<node lat="60.31447778200441" lon="10.715288897809836" id="-14761">
		<tag k="name" v="Abborputten" />
=======
	<node id="-298644" lat="60.2720305517" lon="10.6352666597">
		<tag k="name" v="Omdalsbekken" />
		<tag k="ssr:stedsnr" v="828768" />
		<tag k="waterway" v="stream" />
	</node>
	<node id="-298017" lat="60.1829527806" lon="10.7087250073">
		<tag k="name" v="Fataburet" />
		<tag k="natural" v="water" />
		<tag k="ssr:stedsnr" v="915032" />
	</node>
	<node id="-298641" lat="60.2362916651" lon="10.7306111095">
		<tag k="name" v="Arnedalsputten" />
		<tag k="natural" v="water" />
		<tag k="ssr:stedsnr" v="828464" />
	</node>
	<node id="-297946" lat="60.1559305595" lon="10.7030694505">
		<tag k="alt_name" v="Bjørneputten" />
		<tag k="name" v="Bjønnputten" />
		<tag k="natural" v="water" />
		<tag k="ssr:stedsnr" v="733015" />
	</node>
	<node id="-298639" lat="60.1849722184" lon="10.640472222">
		<tag k="name" v="Muttatjernet" />
>>>>>>> e1d4bc35ff8a6074a6f2e91616a996b547c36f15
		<tag k="natural" v="water" />
		<tag k="ssr:stedsnr" v="342912" />
	</node>
<<<<<<< HEAD
	<node lat="60.274661108282835" lon="10.795405547526023" id="-14763">
		<tag k="name" v="Snellingsbekken" />
		<tag k="ssr:stedsnr" v="344492" />
		<tag k="waterway" v="stream" />
	</node>
	<node lat="60.277477781791994" lon="10.777158338633456" id="-14764">
		<tag k="name" v="Brattfossen" />
		<tag k="natural" v="waterfall" />
		<tag k="ssr:stedsnr" v="344494" />
	</node>
	<node lat="60.191150000248186" lon="10.774836115047597" id="-14775">
		<tag k="alt_name" v="Dampipern" />
		<tag k="name" v="Dampiperen" />
=======
	<node id="-298126" lat="60.2051777793" lon="10.6062916655">
		<tag k="name" v="Grytbekken" />
		<tag k="ssr:stedsnr" v="5423" />
		<tag k="waterway" v="stream" />
	</node>
	<node id="-298125" lat="60.2376083346" lon="10.6494388904">
		<tag k="name" v="Heimputten" />
>>>>>>> e1d4bc35ff8a6074a6f2e91616a996b547c36f15
		<tag k="natural" v="water" />
		<tag k="ssr:stedsnr" v="369746" />
	</node>
<<<<<<< HEAD
	<node lat="60.30227500040237" lon="10.808633324997988" id="-14777">
		<tag k="alt_name" v="Bergstjern, nordre" />
		<tag k="name" v="Nordre Bergstjernet" />
		<tag k="natural" v="water" />
		<tag k="ssr:stedsnr" v="370352" />
	</node>
	<node lat="60.305080555802505" lon="10.722524991734337" id="-14778">
		<tag k="name" v="Åklangselva" />
		<tag k="ssr:stedsnr" v="370355" />
		<tag k="waterway" v="river" />
	</node>
	<node lat="60.29624202469548" lon="10.669762576293103" id="-14782">
		<tag k="alt_name" v="Grøntjernet" />
		<tag k="name" v="Grønntjernet" />
=======
	<node id="-298636" lat="60.2296222208" lon="10.6671222169">
		<tag k="name" v="Huldreputten" />
		<tag k="natural" v="water" />
		<tag k="ssr:stedsnr" v="828360" />
	</node>
	<node id="-298123" lat="60.1463388908" lon="10.6221333417">
		<tag k="alt_name" v="Branntjernet, s" />
		<tag k="name" v="Søndre Branntjernet" />
>>>>>>> e1d4bc35ff8a6074a6f2e91616a996b547c36f15
		<tag k="natural" v="water" />
		<tag k="ssr:stedsnr" v="370886" />
	</node>
<<<<<<< HEAD
	<node lat="60.316913341320344" lon="10.69703647173504" id="-14786">
		<tag k="name" v="Skjerva" />
		<tag k="natural" v="water" />
		<tag k="ssr:stedsnr" v="370927" />
		<tag k="water" v="lake" />
	</node>
	<node lat="60.18822912079186" lon="10.592538304056713" id="-14789">
		<tag k="name" v="Rødsandvika" />
=======
	<node id="-298634" lat="60.2424138931" lon="10.5930999927">
		<tag k="name" v="Kutangen" />
		<tag k="natural" v="cape" />
		<tag k="ssr:stedsnr" v="828107" />
	</node>
	<node id="-298633" lat="60.2444166694" lon="10.5768083371">
		<tag k="name" v="Lensmannsvika" />
>>>>>>> e1d4bc35ff8a6074a6f2e91616a996b547c36f15
		<tag k="natural" v="bay" />
		<tag k="ssr:stedsnr" v="396474" />
	</node>
<<<<<<< HEAD
	<node lat="60.32636389111364" lon="10.550016674160936" id="-14793">
		<tag k="name" v="Høybytjernet" />
=======
	<node id="-298632" lat="60.2471888882" lon="10.6015499948">
		<tag k="name" v="Gørrvomma" />
>>>>>>> e1d4bc35ff8a6074a6f2e91616a996b547c36f15
		<tag k="natural" v="water" />
		<tag k="ssr:stedsnr" v="403055" />
	</node>
<<<<<<< HEAD
	<node lat="60.23373611102545" lon="10.67855832581481" id="-14794">
		<tag k="name" v="Borkeliputten" />
		<tag k="natural" v="water" />
		<tag k="ssr:stedsnr" v="403344" />
	</node>
	<node lat="60.247625003967634" lon="10.798813881267986" id="-14805">
		<tag k="name" v="Svartputtbekken" />
		<tag k="ssr:stedsnr" v="405601" />
		<tag k="waterway" v="stream" />
	</node>
	<node lat="60.18519999663228" lon="10.699197220440732" id="-14809">
		<tag k="alt_name" v="Skillingen, l" />
		<tag k="name" v="Vesle Skillingen" />
=======
	<node id="-297832" lat="60.2997166651" lon="10.8010861087">
		<tag k="name" v="Karpeputten" />
		<tag k="natural" v="water" />
		<tag k="ssr:stedsnr" v="465463" />
	</node>
	<node id="-298628" lat="60.2139305588" lon="10.5886499941">
		<tag k="name" v="Myssmørputten" />
>>>>>>> e1d4bc35ff8a6074a6f2e91616a996b547c36f15
		<tag k="natural" v="water" />
		<tag k="ssr:stedsnr" v="430027" />
	</node>
<<<<<<< HEAD
	<node lat="60.17932725690487" lon="10.615978626595751" id="-14811">
		<tag k="fixme" v="multiple name tags, choose one and add the other to alt_name" />
		<tag k="name" v="Svarttjernet;Båhussvarttjernet" />
=======
	<node id="-298626" lat="60.3224055587" lon="10.5303472285">
		<tag k="name" v="Korsrudputten" />
>>>>>>> e1d4bc35ff8a6074a6f2e91616a996b547c36f15
		<tag k="natural" v="water" />
		<tag k="ssr:stedsnr" v="430036" />
	</node>
<<<<<<< HEAD
	<node lat="60.248455152765864" lon="10.592572718379204" id="-14813">
		<tag k="alt_name" v="Beltern" />
		<tag k="name" v="Belteren" />
		<tag k="natural" v="water" />
		<tag k="ssr:stedsnr" v="430375" />
	</node>
	<node lat="60.19866666692107" lon="10.601241673898569" id="-14816">
		<tag k="name" v="Storøya" />
		<tag k="place" v="islet" />
		<tag k="ssr:stedsnr" v="430438" />
	</node>
	<node lat="60.18142500322242" lon="10.727105553199856" id="-14818">
		<tag k="name" v="Smellbakkbekken" />
		<tag k="ssr:stedsnr" v="430780" />
		<tag k="waterway" v="stream" />
	</node>
	<node lat="60.30405000334646" lon="10.766341663611557" id="-14819">
		<tag k="name" v="Himtjernsbekken" />
		<tag k="ssr:stedsnr" v="431328" />
		<tag k="waterway" v="stream" />
	</node>
	<node lat="60.26467674164803" lon="10.609439922516676" id="-14823">
		<tag k="name" v="Kalven" />
		<tag k="natural" v="water" />
		<tag k="ssr:stedsnr" v="431824" />
	</node>
	<node lat="60.27481666454816" lon="10.639308327007768" id="-14831">
		<tag k="name" v="Ryatjernet" />
=======
	<node id="-297601" lat="60.2275833329" lon="10.6471333321">
		<tag k="name" v="Aurtjernsbekken" />
		<tag k="ssr:stedsnr" v="39274" />
		<tag k="waterway" v="stream" />
	</node>
	<node id="-297640" lat="60.2170916675" lon="10.7233499917">
		<tag k="alt_name" v="Klemmaelva" />
		<tag k="name" v="Klemma" />
		<tag k="ssr:stedsnr" v="248863" />
		<tag k="waterway" v="stream" />
	</node>
	<node id="-297598" lat="60.1788999986" lon="10.6906861026">
		<tag k="name" v="Skillingselva" />
		<tag k="ssr:stedsnr" v="39010" />
		<tag k="waterway" v="stream" />
	</node>
	<node id="-297594" lat="60.2747611136" lon="10.7251638908">
		<tag k="name" v="Langvatnbekken" />
		<tag k="ssr:stedsnr" v="223501" />
		<tag k="waterway" v="stream" />
	</node>
	<node id="-298687" lat="60.3150114025" lon="10.4603864038">
		<tag k="name" v="Rostedbekken" />
		<tag k="ssr:stedsnr" v="987348" />
		<tag k="waterway" v="stream" />
	</node>
	<node id="-298103" lat="60.3286105059" lon="10.7183240756">
		<tag k="name" v="Grøa" />
>>>>>>> e1d4bc35ff8a6074a6f2e91616a996b547c36f15
		<tag k="natural" v="water" />
		<tag k="ssr:stedsnr" v="524772" />
	</node>
<<<<<<< HEAD
	<node lat="60.16568889298847" lon="10.664799995846684" id="-14832">
		<tag k="name" v="Løkeputten" />
		<tag k="natural" v="water" />
		<tag k="ssr:stedsnr" v="524034" />
		<tag k="water" v="pond" />
	</node>
	<node lat="60.24077777853461" lon="10.545033341568757" id="-14837">
		<tag k="name" v="Oksøya" />
		<tag k="place" v="islet" />
		<tag k="ssr:stedsnr" v="524128" />
	</node>
	<node lat="60.20439167006452" lon="10.697622217781687" id="-14838">
		<tag k="name" v="Løken" />
=======
	<node id="-298614" lat="60.27058078" lon="10.6229190492">
		<tag k="name" v="Omdalsvatnet" />
		<tag k="natural" v="water" />
		<tag k="ssr:stedsnr" v="795798" />
	</node>
	<node id="-298100" lat="60.3020722266" lon="10.5335972248">
		<tag k="name" v="Kjevlingen" />
		<tag k="natural" v="water" />
		<tag k="ssr:stedsnr" v="916912" />
	</node>
	<node id="-298611" lat="60.170486114" lon="10.7544333299">
		<tag k="alt_name" v="Smellbakktjernet" />
		<tag k="name" v="Smellbakktjern" />
		<tag k="natural" v="water" />
		<tag k="ssr:stedsnr" v="794714" />
	</node>
	<node id="-298610" lat="60.2187138896" lon="10.6052555613">
		<tag k="alt_name" v="Grøntjernet" />
		<tag k="name" v="Grønntjernet" />
>>>>>>> e1d4bc35ff8a6074a6f2e91616a996b547c36f15
		<tag k="natural" v="water" />
		<tag k="ssr:stedsnr" v="524368" />
		<tag k="water" v="lake" />
	</node>
<<<<<<< HEAD
	<node lat="60.19150833476509" lon="10.761586106734462" id="-14844">
		<tag k="name" v="Høgputtene" />
		<tag k="natural" v="water" />
		<tag k="ssr:stedsnr" v="524668" />
	</node>
	<node lat="60.14752777737886" lon="10.59241944015819" id="-14845">
		<tag k="name" v="Katnosdammen" />
		<tag k="ssr:stedsnr" v="524753" />
		<tag k="waterway" v="dam" />
	</node>
	<node lat="60.324886113050766" lon="10.704047229955092" id="-14847">
		<tag k="name" v="Framnes" />
		<tag k="natural" v="cape" />
		<tag k="ssr:stedsnr" v="524937" />
	</node>
	<node lat="60.24304444001186" lon="10.76309167060307" id="-14854">
		<tag k="name" v="Gulliksrudputten" />
=======
	<node id="-298609" lat="60.2121305593" lon="10.552780563">
		<tag k="alt_name" v="Gudbrandstjern" />
		<tag k="name" v="Gudbrandstjernet" />
		<tag k="natural" v="water" />
		<tag k="ssr:stedsnr" v="794474" />
	</node>
	<node id="-297584" lat="60.1833527773" lon="10.649233326">
		<tag k="name" v="Rennedammen" />
		<tag k="ssr:stedsnr" v="221424" />
		<tag k="waterway" v="dam" />
	</node>
	<node id="-298607" lat="60.2410472227" lon="10.5678555644">
		<tag k="name" v="Skrikertangen" />
		<tag k="natural" v="cape" />
		<tag k="ssr:stedsnr" v="794352" />
	</node>
	<node id="-298606" lat="60.1882277786" lon="10.7029222208">
		<tag k="name" v="Kartrudvika" />
		<tag k="natural" v="bay" />
		<tag k="ssr:stedsnr" v="794034" />
	</node>
	<node id="-298093" lat="60.231183337" lon="10.6812416615">
		<tag k="alt_name" v="Klattertjernet, l" />
		<tag k="name" v="Vesle Klattertjernet" />
>>>>>>> e1d4bc35ff8a6074a6f2e91616a996b547c36f15
		<tag k="natural" v="water" />
		<tag k="ssr:stedsnr" v="526579" />
	</node>
<<<<<<< HEAD
	<node lat="60.168969447943944" lon="10.65685000606179" id="-14856">
		<tag k="name" v="Kraftstasjonsbekken" />
		<tag k="ssr:stedsnr" v="550043" />
		<tag k="waterway" v="stream" />
	</node>
	<node lat="60.16984444530444" lon="10.633627769178549" id="-14857">
		<tag k="name" v="Grimstjernsbekken" />
		<tag k="ssr:stedsnr" v="550044" />
		<tag k="waterway" v="stream" />
	</node>
	<node lat="60.22021111071502" lon="10.57865000033835" id="-14860">
		<tag k="name" v="Svarttjernet" />
=======
	<node id="-298604" lat="60.1642555592" lon="10.574911103">
		<tag k="name" v="Mariputten" />
		<tag k="natural" v="water" />
		<tag k="ssr:stedsnr" v="794001" />
	</node>
	<node id="-298002" lat="60.3141583368" lon="10.5018083421">
		<tag k="name" v="Korsrudbekken" />
		<tag k="ssr:stedsnr" v="698314" />
		<tag k="waterway" v="stream" />
	</node>
	<node id="-298090" lat="60.2426869854" lon="10.5667751562">
		<tag k="name" v="Mylla" />
		<tag k="natural" v="water" />
		<tag k="ssr:stedsnr" v="915355" />
		<tag k="water" v="lake" />
	</node>
	<node id="-297577" lat="60.2498277816" lon="10.5837166622">
		<tag k="loc_name" v="Kaldrassen" />
		<tag k="name" v="Kalrasen" />
>>>>>>> e1d4bc35ff8a6074a6f2e91616a996b547c36f15
		<tag k="natural" v="water" />
		<tag k="ssr:stedsnr" v="551457" />
	</node>
<<<<<<< HEAD
	<node lat="60.21891995192816" lon="10.612401419617987" id="-14862">
		<tag k="alt_name" v="Svarttjern" />
		<tag k="fixme" v="multiple name tags, choose one and add the other to alt_name" />
		<tag k="name" v="Svartbekktjernet;Svarttjernet" />
		<tag k="natural" v="water" />
		<tag k="ssr:stedsnr" v="551483" />
	</node>
	<node lat="60.28735412399778" lon="10.765199992251153" id="-14865">
		<tag k="name" v="Avalsjøen" />
=======
	<node id="-298088" lat="60.2991722195" lon="10.7442805634">
		<tag k="name" v="Minnestufossen" />
		<tag k="natural" v="waterfall" />
		<tag k="ssr:stedsnr" v="890408" />
	</node>
	<node id="-297573" lat="60.2653745902" lon="10.716647167">
		<tag k="name" v="Langvatnet" />
>>>>>>> e1d4bc35ff8a6074a6f2e91616a996b547c36f15
		<tag k="natural" v="water" />
		<tag k="ssr:stedsnr" v="552366" />
		<tag k="water" v="lake" />
	</node>
<<<<<<< HEAD
	<node lat="60.21605555381263" lon="10.578900002969995" id="-14868">
		<tag k="name" v="Sandbekken" />
		<tag k="ssr:stedsnr" v="578355" />
		<tag k="waterway" v="stream" />
	</node>
	<node lat="60.31093888683239" lon="10.70372778660906" id="-14877">
		<tag k="name" v="Skjervedammen" />
		<tag k="ssr:stedsnr" v="585932" />
		<tag k="waterway" v="dam" />
	</node>
	<node lat="60.17494444484686" lon="10.701658328024719" id="-14886">
		<tag k="alt_name" v="Glitratjernet" />
		<tag k="name" v="Glitra" />
=======
	<node id="-298596" lat="60.2562055531" lon="10.7505194445">
		<tag k="name" v="Svarttjernsbekken" />
		<tag k="ssr:stedsnr" v="769567" />
		<tag k="waterway" v="stream" />
	</node>
	<node id="-298594" lat="60.3205027804" lon="10.6826055535">
		<tag k="name" v="Fløyta" />
>>>>>>> e1d4bc35ff8a6074a6f2e91616a996b547c36f15
		<tag k="natural" v="water" />
		<tag k="ssr:stedsnr" v="611023" />
	</node>
<<<<<<< HEAD
	<node lat="60.169594447178895" lon="10.611655563672471" id="-14889">
		<tag k="name" v="Lauvputten" />
		<tag k="natural" v="water" />
		<tag k="ssr:stedsnr" v="612031" />
	</node>
	<node lat="60.164622226653165" lon="10.615736118172258" id="-14890">
		<tag k="fixme" v="multiple name tags, choose one and add the other to alt_name" />
		<tag k="name" v="Båhus-Branntjernet;Bekkehogsttjernet" />
=======
	<node id="-298592" lat="60.3044611118" lon="10.7114194464">
		<tag k="name" v="Svarttjernet" />
>>>>>>> e1d4bc35ff8a6074a6f2e91616a996b547c36f15
		<tag k="natural" v="water" />
		<tag k="ssr:stedsnr" v="612033" />
	</node>
<<<<<<< HEAD
	<node lat="60.13451648164136" lon="10.609898450558527" id="-14892">
		<tag k="name" v="Katnostjernet" />
		<tag k="natural" v="water" />
		<tag k="ssr:stedsnr" v="612110" />
	</node>
	<node lat="60.28018055978704" lon="10.80410277118494" id="-14893">
		<tag k="name" v="Leirsjøen" />
=======
	<node id="-298591" lat="60.3008305573" lon="10.6965555522">
		<tag k="name" v="Vestre Gobakkputten" />
		<tag k="natural" v="water" />
		<tag k="ssr:stedsnr" v="767945" />
	</node>
	<node id="-297566" lat="60.1696722229" lon="10.6859777726">
		<tag k="name" v="Nysetervika" />
		<tag k="natural" v="bay" />
		<tag k="ssr:stedsnr" v="221037" />
	</node>
	<node id="-297565" lat="60.1680777814" lon="10.6974333326">
		<tag k="name" v="Langvika" />
		<tag k="natural" v="bay" />
		<tag k="ssr:stedsnr" v="221017" />
	</node>
	<node id="-298075" lat="60.2968666698" lon="10.5338444405">
		<tag k="alt_name" v="Fiskumtjernet" />
		<tag k="name" v="Nyborgtjernet" />
>>>>>>> e1d4bc35ff8a6074a6f2e91616a996b547c36f15
		<tag k="natural" v="water" />
		<tag k="old_name" v="Lerisjøen" />
		<tag k="ssr:stedsnr" v="612351" />
	</node>
	<node lat="60.33330832913021" lon="10.71212500070568" id="-14894">
		<tag k="name" v="Nordtangen" />
		<tag k="natural" v="cape" />
		<tag k="ssr:stedsnr" v="612657" />
	</node>
<<<<<<< HEAD
	<node lat="60.173927775128504" lon="10.777891660056765" id="-14895">
		<tag k="name" v="Svarttjern" />
=======
	<node id="-298155" lat="60.2046194466" lon="10.6572833337">
		<tag k="name" v="Tvillingtjernet" />
		<tag k="natural" v="water" />
		<tag k="ssr:stedsnr" v="39438" />
	</node>
	<node id="-298073" lat="60.2664749969" lon="10.732400007">
		<tag k="alt_name" v="Måraputten" />
		<tag k="name" v="Måratjern" />
>>>>>>> e1d4bc35ff8a6074a6f2e91616a996b547c36f15
		<tag k="natural" v="water" />
		<tag k="ssr:stedsnr" v="612699" />
	</node>
<<<<<<< HEAD
	<node lat="60.14191944876385" lon="10.792991658080973" id="-14898">
		<tag k="name" v="Hakadalselva" />
		<tag k="ssr:stedsnr" v="612741" />
		<tag k="waterway" v="river" />
	</node>
	<node lat="60.23428333502024" lon="10.765355553033295" id="-14903">
		<tag k="name" v="Måråputten" />
		<tag k="natural" v="water" />
		<tag k="ssr:stedsnr" v="645528" />
	</node>
	<node lat="60.26062222471574" lon="10.58072777070038" id="-14910">
		<tag k="name" v="Kalstjernbekken" />
		<tag k="ssr:stedsnr" v="645100" />
		<tag k="waterway" v="stream" />
	</node>
	<node lat="60.299108333770604" lon="10.693916665966643" id="-14914">
		<tag k="name" v="Helvetesputten" />
		<tag k="natural" v="water" />
		<tag k="ssr:stedsnr" v="645938" />
	</node>
	<node lat="60.26854722580901" lon="10.701494437013395" id="-14917">
		<tag k="name" v="Søndre Munkerudstjernet" />
=======
	<node id="-298072" lat="60.3019749958" lon="10.7926527759">
		<tag k="alt_name" v="Damtjernet" />
		<tag k="name" v="Damtjern" />
		<tag k="natural" v="water" />
		<tag k="ssr:stedsnr" v="856325" />
	</node>
	<node id="-298581" lat="60.1777472219" lon="10.6805805569">
		<tag k="name" v="Skillingsoset" />
		<tag k="natural" v="bay" />
		<tag k="ssr:stedsnr" v="767013" />
	</node>
	<node id="-298578" lat="60.2666166633" lon="10.5507305479">
		<tag k="name" v="Holteputten" />
>>>>>>> e1d4bc35ff8a6074a6f2e91616a996b547c36f15
		<tag k="natural" v="water" />
		<tag k="ssr:stedsnr" v="647348" />
	</node>
<<<<<<< HEAD
	<node lat="60.16752500365319" lon="10.595449996840973" id="-14924">
		<tag k="alt_name" v="Skjortjernet, øvre" />
		<tag k="name" v="Øvre Skjortjernet" />
		<tag k="natural" v="water" />
		<tag k="ssr:stedsnr" v="660025" />
	</node>
	<node lat="60.183572223530504" lon="10.722922223981978" id="-14929">
		<tag k="name" v="Monsrudvika" />
=======
	<node id="-298064" lat="60.1695416669" lon="10.7019722224">
		<tag k="name" v="Langvika" />
>>>>>>> e1d4bc35ff8a6074a6f2e91616a996b547c36f15
		<tag k="natural" v="bay" />
		<tag k="ssr:stedsnr" v="889683" />
	</node>
<<<<<<< HEAD
	<node lat="60.172238989083404" lon="10.691474483648912" id="-14930">
		<tag k="alt_name" v="Skillingen" />
		<tag k="name" v="Store Skillingen" />
		<tag k="natural" v="water" />
		<tag k="ssr:stedsnr" v="733032" />
		<tag k="water" v="lake" />
	</node>
	<node lat="60.153166663362896" lon="10.58134445247232" id="-14931">
		<tag k="name" v="Stortangen" />
		<tag k="natural" v="cape" />
		<tag k="ssr:stedsnr" v="733133" />
	</node>
	<node lat="60.28881944275133" lon="10.522591675453036" id="-14938">
		<tag k="alt_name" v="Dælstjernet" />
		<tag k="name" v="Dalstjernet" />
=======
	<node id="-298063" lat="60.1674055547" lon="10.6984388921">
		<tag k="name" v="Musevika" />
		<tag k="natural" v="bay" />
		<tag k="ssr:stedsnr" v="855009" />
	</node>
	<node id="-298062" lat="60.3155972209" lon="10.6354583309">
		<tag k="name" v="Solliputten" />
>>>>>>> e1d4bc35ff8a6074a6f2e91616a996b547c36f15
		<tag k="natural" v="water" />
		<tag k="ssr:stedsnr" v="734819" />
	</node>
	<node lat="60.328430822577495" lon="10.702860653575787" id="-14942">
		<tag k="alt_name" v="Skjelbreia" />
		<tag k="name" v="Skjellbreia" />
		<tag k="natural" v="water" />
		<tag k="ssr:stedsnr" v="734954" />
	</node>
<<<<<<< HEAD
	<node lat="60.27967222140995" lon="10.838686105609355" id="-14944">
=======
	<node id="-297741" lat="60.2483055593" lon="10.5872638879">
		<tag k="name" v="Smaugbekken" />
		<tag k="ssr:stedsnr" v="282103" />
		<tag k="waterway" v="stream" />
	</node>
	<node id="-298572" lat="60.2796722214" lon="10.8386861056">
>>>>>>> e1d4bc35ff8a6074a6f2e91616a996b547c36f15
		<tag k="name" v="Bergtjernbekken" />
		<tag k="ssr:stedsnr" v="751391" />
		<tag k="waterway" v="stream" />
	</node>
<<<<<<< HEAD
	<node lat="60.177747221933515" lon="10.680580556918883" id="-14948">
		<tag k="name" v="Skillingsoset" />
		<tag k="natural" v="bay" />
		<tag k="ssr:stedsnr" v="767013" />
	</node>
	<node lat="60.25620555309244" lon="10.750519444524242" id="-14956">
		<tag k="name" v="Svarttjernsbekken" />
		<tag k="ssr:stedsnr" v="769567" />
		<tag k="waterway" v="stream" />
	</node>
	<node lat="60.188227778582316" lon="10.702922220784274" id="-14964">
		<tag k="name" v="Kartrudvika" />
		<tag k="natural" v="bay" />
		<tag k="ssr:stedsnr" v="794034" />
	</node>
	<node lat="60.18694026116931" lon="10.714989544961066" id="-14966">
		<tag k="alt_name" v="Harestuvannet" />
		<tag k="name" v="Harestuvatnet" />
		<tag k="natural" v="water" />
		<tag k="ssr:stedsnr" v="794046" />
		<tag k="water" v="lake" />
	</node>
	<node lat="60.1642555592093" lon="10.574911102952877" id="-14967">
		<tag k="name" v="Mariputten" />
		<tag k="natural" v="water" />
		<tag k="ssr:stedsnr" v="794001" />
	</node>
	<node lat="60.24104722267146" lon="10.56785556438381" id="-14968">
		<tag k="name" v="Skrikertangen" />
		<tag k="natural" v="cape" />
		<tag k="ssr:stedsnr" v="794352" />
	</node>
	<node lat="60.238027780950006" lon="10.560633325735214" id="-14969">
=======
	<node id="-297826" lat="60.1966916705" lon="10.7030722136">
		<tag k="name" v="Oseputten" />
		<tag k="natural" v="water" />
		<tag k="ssr:stedsnr" v="464024" />
	</node>
	<node id="-298167" lat="60.2140138893" lon="10.6335444444">
		<tag k="name" v="Hulderputten" />
		<tag k="natural" v="water" />
		<tag k="ssr:stedsnr" v="41499" />
	</node>
	<node id="-298565" lat="60.2685472258" lon="10.701494437">
		<tag k="name" v="Søndre Munkerudstjernet" />
		<tag k="natural" v="water" />
		<tag k="ssr:stedsnr" v="647348" />
	</node>
	<node id="-297932" lat="60.1695944472" lon="10.6116555637">
		<tag k="name" v="Lauvputten" />
		<tag k="natural" v="water" />
		<tag k="ssr:stedsnr" v="612031" />
	</node>
	<node id="-298048" lat="60.2367419949" lon="10.783533379">
		<tag k="alt_name" v="Nordre Fjellsjøen" />
		<tag k="name" v="Fjellsjøen" />
		<tag k="natural" v="water" />
		<tag k="ssr:stedsnr" v="794823" />
	</node>
	<node id="-297949" lat="60.1809222181" lon="10.637722228">
		<tag k="name" v="Almedalsputten" />
		<tag k="natural" v="water" />
		<tag k="ssr:stedsnr" v="733054" />
	</node>
	<node id="-298046" lat="60.2474694466" lon="10.6851833333">
		<tag k="name" v="Putten" />
		<tag k="natural" v="water" />
		<tag k="ssr:stedsnr" v="794365" />
	</node>
	<node id="-298044" lat="60.238027781" lon="10.5606333257">
>>>>>>> e1d4bc35ff8a6074a6f2e91616a996b547c36f15
		<tag k="alt_name" v="Assjøvika;Åsjøvika;Åssjøvika" />
		<tag k="name" v="Ålsjøvika" />
		<tag k="natural" v="bay" />
		<tag k="ssr:stedsnr" v="794354" />
	</node>
<<<<<<< HEAD
	<node lat="60.19617500267898" lon="10.587999999334647" id="-14971">
=======
	<node id="-297994" lat="60.2805583347" lon="10.673725004">
		<tag k="name" v="Dalasjøbekken" />
		<tag k="ssr:stedsnr" v="889257" />
		<tag k="waterway" v="stream" />
	</node>
	<node id="-298042" lat="60.1961750027" lon="10.5879999993">
>>>>>>> e1d4bc35ff8a6074a6f2e91616a996b547c36f15
		<tag k="name" v="Hollendertangen" />
		<tag k="natural" v="cape" />
		<tag k="ssr:stedsnr" v="794440" />
	</node>
<<<<<<< HEAD
	<node lat="60.288157134395426" lon="10.472219543989901" id="-14974">
		<tag k="name" v="Galtedalstjerna" />
		<tag k="natural" v="water" />
		<tag k="ssr:stedsnr" v="795825" />
		<tag k="water" v="lake" />
	</node>
	<node lat="60.27068404903592" lon="10.623155677078271" id="-14981">
		<tag k="name" v="Omdalsvatnet" />
=======
	<node id="-298553" lat="60.2606222247" lon="10.5807277707">
		<tag k="name" v="Kalstjernbekken" />
		<tag k="ssr:stedsnr" v="645100" />
		<tag k="waterway" v="stream" />
	</node>
	<node id="-298040" lat="60.1446555563" lon="10.6765333397">
		<tag k="alt_name" v="Daltjuven, l" />
		<tag k="name" v="Vesle Daltjuven" />
>>>>>>> e1d4bc35ff8a6074a6f2e91616a996b547c36f15
		<tag k="natural" v="water" />
		<tag k="ssr:stedsnr" v="795798" />
	</node>
<<<<<<< HEAD
	<node lat="60.32240555869788" lon="10.530347228495346" id="-14987">
		<tag k="name" v="Korsrudputten" />
		<tag k="natural" v="water" />
		<tag k="ssr:stedsnr" v="819083" />
		<tag k="water" v="pond" />
	</node>
	<node lat="60.2139305588438" lon="10.588649994101972" id="-14988">
		<tag k="name" v="Myssmørputten" />
		<tag k="natural" v="water" />
		<tag k="ssr:stedsnr" v="821236" />
		<tag k="water" v="pond" />
	</node>
	<node lat="60.24441666941532" lon="10.576808337062849" id="-14992">
		<tag k="name" v="Lensmannsvika" />
		<tag k="natural" v="bay" />
		<tag k="ssr:stedsnr" v="828105" />
	</node>
	<node lat="60.242413893145226" lon="10.593099992681843" id="-14993">
		<tag k="name" v="Kutangen" />
		<tag k="natural" v="cape" />
		<tag k="ssr:stedsnr" v="828107" />
	</node>
	<node lat="60.22962222082496" lon="10.667122216897843" id="-14994">
		<tag k="name" v="Huldreputten" />
		<tag k="natural" v="water" />
		<tag k="ssr:stedsnr" v="828360" />
	</node>
	<node lat="60.184972218392076" lon="10.640472222015324" id="-14997">
		<tag k="name" v="Muttatjernet" />
=======
	<node id="-298039" lat="60.1869402612" lon="10.714989545">
		<tag k="alt_name" v="Harestuvannet" />
		<tag k="name" v="Harestuvatnet" />
		<tag k="natural" v="water" />
		<tag k="ssr:stedsnr" v="794046" />
		<tag k="water" v="lake" />
	</node>
	<node id="-298036" lat="60.2787777765" lon="10.7139749963">
		<tag k="name" v="Hestehagatjernet" />
>>>>>>> e1d4bc35ff8a6074a6f2e91616a996b547c36f15
		<tag k="natural" v="water" />
		<tag k="ssr:stedsnr" v="828433" />
	</node>
<<<<<<< HEAD
	<node lat="60.1736833361062" lon="10.760591668457312" id="-15004">
		<tag k="name" v="Smellbakkputtene" />
=======
	<node id="-298035" lat="60.309822223" lon="10.5173972277">
		<tag k="alt_name" v="Huldertjernet" />
		<tag k="name" v="Høltjernet" />
>>>>>>> e1d4bc35ff8a6074a6f2e91616a996b547c36f15
		<tag k="natural" v="water" />
		<tag k="ssr:stedsnr" v="889743" />
	</node>
<<<<<<< HEAD
	<node lat="60.167405554686475" lon="10.698438892094895" id="-15007">
		<tag k="name" v="Musevika" />
=======
	<node id="-298543" lat="60.1794249967" lon="10.7138583406">
		<tag k="name" v="Gustavsvika" />
>>>>>>> e1d4bc35ff8a6074a6f2e91616a996b547c36f15
		<tag k="natural" v="bay" />
		<tag k="ssr:stedsnr" v="855009" />
	</node>
<<<<<<< HEAD
	<node lat="60.1695416668833" lon="10.701972222370905" id="-15008">
		<tag k="name" v="Langvika" />
=======
	<node id="-298542" lat="60.1912805598" lon="10.7050944447">
		<tag k="name" v="Kartisvika" />
>>>>>>> e1d4bc35ff8a6074a6f2e91616a996b547c36f15
		<tag k="natural" v="bay" />
		<tag k="ssr:stedsnr" v="855019" />
	</node>
<<<<<<< HEAD
	<node lat="60.18869444613518" lon="10.582605549881498" id="-15009">
		<tag k="alt_name" v="Kaldputt" />
		<tag k="name" v="Kaldputten" />
		<tag k="natural" v="water" />
		<tag k="ssr:stedsnr" v="855049" />
	</node>
	<node lat="60.18441389082756" lon="10.678686115241009" id="-15010">
		<tag k="name" v="Lunnerputten" />
		<tag k="natural" v="water" />
		<tag k="ssr:stedsnr" v="855050" />
	</node>
	<node lat="60.19309166350837" lon="10.590824993092696" id="-15011">
		<tag k="name" v="Gjerdingen" />
		<tag k="natural" v="water" />
		<tag k="ssr:stedsnr" v="855438" />
		<tag k="water" v="lake" />
	</node>
	<node lat="60.192324724808" lon="10.629398996477253" id="-15012">
		<tag k="alt_name" v="Lonndalstjernet" />
		<tag k="name" v="Løndalstjernet" />
=======
	<node id="-297821" lat="60.289327776" lon="10.5159888912">
		<tag k="name" v="Dælsbekken" />
		<tag k="ssr:stedsnr" v="517772" />
		<tag k="waterway" v="stream" />
	</node>
	<node id="-298028" lat="60.2013250012" lon="10.5677138867">
		<tag k="alt_name" v="Gjerdingskalven" />
		<tag k="name" v="Kalven" />
		<tag k="natural" v="water" />
		<tag k="ssr:stedsnr" v="916469" />
	</node>
	<node id="-298027" lat="60.2934249998" lon="10.7691333402">
		<tag k="name" v="Surkesand" />
		<tag k="natural" v="beach" />
		<tag k="ssr:stedsnr" v="916299" />
	</node>
	<node id="-298026" lat="60.2916027804" lon="10.8168750081">
		<tag k="alt_name" v="Bergstjern, søndre" />
		<tag k="name" v="Søndre Bergstjernet" />
		<tag k="natural" v="water" />
		<tag k="ssr:stedsnr" v="916298" />
	</node>
	<node id="-298025" lat="60.1352305597" lon="10.662566659">
		<tag k="alt_name" v="Bjønnputten" />
		<tag k="name" v="Bjørnputten" />
>>>>>>> e1d4bc35ff8a6074a6f2e91616a996b547c36f15
		<tag k="natural" v="water" />
		<tag k="ssr:stedsnr" v="855442" />
	</node>
<<<<<<< HEAD
	<node lat="60.30197499577747" lon="10.792652775921717" id="-15016">
		<tag k="alt_name" v="Damtjernet" />
		<tag k="name" v="Damtjern" />
=======
	<node id="-298534" lat="60.1739277751" lon="10.7778916601">
		<tag k="name" v="Svarttjern" />
>>>>>>> e1d4bc35ff8a6074a6f2e91616a996b547c36f15
		<tag k="natural" v="water" />
		<tag k="ssr:stedsnr" v="856325" />
	</node>
<<<<<<< HEAD
	<node lat="60.206583329307016" lon="10.74979166181393" id="-15019">
		<tag k="alt_name" v="Piperen, nordre;Stoltpipern" />
		<tag k="name" v="Nordre Piperen" />
		<tag k="natural" v="water" />
		<tag k="ssr:stedsnr" v="855809" />
	</node>
	<node lat="60.26647499689598" lon="10.732400006953505" id="-15022">
		<tag k="alt_name" v="Måraputten" />
		<tag k="name" v="Måratjern" />
		<tag k="natural" v="water" />
		<tag k="ssr:stedsnr" v="856411" />
	</node>
	<node lat="60.29686666975061" lon="10.533844440492398" id="-15025">
		<tag k="alt_name" v="Fiskumtjernet" />
		<tag k="name" v="Nyborgtjernet" />
		<tag k="natural" v="water" />
		<tag k="ssr:stedsnr" v="856861" />
	</node>
	<node lat="60.25157499916482" lon="10.601424999472687" id="-15031">
		<tag k="name" v="Vikabekken" />
		<tag k="ssr:stedsnr" v="888068" />
		<tag k="waterway" v="stream" />
	</node>
	<node lat="60.187672220570526" lon="10.708125002529075" id="-15033">
		<tag k="name" v="Hansøya" />
		<tag k="place" v="islet" />
		<tag k="ssr:stedsnr" v="889025" />
	</node>
	<node lat="60.19439444371713" lon="10.717550007187413" id="-15034">
		<tag k="name" v="Stasjonsvika" />
		<tag k="natural" v="bay" />
		<tag k="ssr:stedsnr" v="889033" />
	</node>
	<node lat="60.155897223177455" lon="10.622736105493942" id="-15035">
		<tag k="alt_name" v="Lille Kalvetjernet" />
		<tag k="name" v="Vesle Kalvetjernet" />
=======
	<node id="-298533" lat="60.3333083291" lon="10.7121250007">
		<tag k="name" v="Nordtangen" />
		<tag k="natural" v="cape" />
		<tag k="ssr:stedsnr" v="612657" />
	</node>
	<node id="-298531" lat="60.2801805598" lon="10.8041027712">
		<tag k="name" v="Leirsjøen" />
		<tag k="natural" v="water" />
		<tag k="old_name" v="Lerisjøen" />
		<tag k="ssr:stedsnr" v="612351" />
	</node>
	<node id="-298530" lat="60.1345164816" lon="10.6098984506">
		<tag k="name" v="Katnostjernet" />
>>>>>>> e1d4bc35ff8a6074a6f2e91616a996b547c36f15
		<tag k="natural" v="water" />
		<tag k="ssr:stedsnr" v="889042" />
	</node>
<<<<<<< HEAD
	<node lat="60.31559722092046" lon="10.635458330893156" id="-15040">
		<tag k="name" v="Solliputten" />
=======
	<node id="-298529" lat="60.2655750021" lon="10.7940249913">
		<tag k="alt_name" v="Snellingen, lille;Vesle Snellingsvannet" />
		<tag k="name" v="Vesle Snellingen" />
>>>>>>> e1d4bc35ff8a6074a6f2e91616a996b547c36f15
		<tag k="natural" v="water" />
		<tag k="ssr:stedsnr" v="940366" />
		<tag k="water" v="pond" />
	</node>
<<<<<<< HEAD
	<node lat="60.2420000025503" lon="10.721911103493921" id="-15054">
		<tag k="name" v="Hjalmarputten" />
		<tag k="natural" v="water" />
		<tag k="ssr:stedsnr" v="951576" />
	</node>
	<node lat="60.315011402511" lon="10.46038640375824" id="-15061">
		<tag k="name" v="Rostedbekken" />
		<tag k="ssr:stedsnr" v="987348" />
		<tag k="waterway" v="stream" />
	</node>
	<node lat="60.30873900573268" lon="10.467144493742076" id="-15062">
		<tag k="name" v="Veloelva" />
		<tag k="ssr:stedsnr" v="987349" />
		<tag k="waterway" v="river" />
	</node>
	<node lat="60.30391720185923" lon="10.462104524980857" id="-15063">
		<tag k="name" v="Rustadelva" />
		<tag k="ssr:stedsnr" v="987350" />
		<tag k="waterway" v="river" />
	</node>
	<node lat="60.242490813652836" lon="10.601355514254971" id="-15068">
		<tag k="name" v="Myllsdammen" />
		<tag k="ssr:stedsnr" v="991065" />
		<tag k="waterway" v="dam" />
=======
	<node id="-298016" lat="60.1531666634" lon="10.5813444525">
		<tag k="name" v="Stortangen" />
		<tag k="natural" v="cape" />
		<tag k="ssr:stedsnr" v="733133" />
	</node>
	<node id="-298527" lat="60.154477779" lon="10.768108328">
		<tag k="alt_name" v="Varpebekken" />
		<tag k="name" v="Varpsbekken" />
		<tag k="ssr:stedsnr" v="611728" />
		<tag k="waterway" v="stream" />
	</node>
	<node id="-297989" lat="60.1558972232" lon="10.6227361055">
		<tag k="alt_name" v="Lille Kalvetjernet" />
		<tag k="name" v="Vesle Kalvetjernet" />
		<tag k="natural" v="water" />
		<tag k="ssr:stedsnr" v="889042" />
	</node>
	<node id="-298011" lat="60.2816555559" lon="10.7655972268">
		<tag k="name" v="Kalven" />
		<tag k="natural" v="bay" />
		<tag k="ssr:stedsnr" v="890489" />
>>>>>>> e1d4bc35ff8a6074a6f2e91616a996b547c36f15
	</node>
	<node id="-298010" lat="60.222336109" lon="10.7079305559">
		<tag k="name" v="Haneknetjernet" />
		<tag k="natural" v="water" />
		<tag k="ssr:stedsnr" v="890362" />
	</node>
	<node id="-297692" lat="60.2533111126" lon="10.5945194527">
		<tag k="name" v="Bjønnputten" />
		<tag k="natural" v="water" />
		<tag k="ssr:stedsnr" v="162418" />
	</node>
	<node id="-298520" lat="60.2540111087" lon="10.7691555556">
		<tag k="name" v="Sølvtjernsbekken" />
		<tag k="ssr:stedsnr" v="586555" />
		<tag k="waterway" v="stream" />
	</node>
	<node id="-298007" lat="60.2556833322" lon="10.6432750013">
		<tag k="name" v="Muttabekken" />
		<tag k="ssr:stedsnr" v="890310" />
		<tag k="waterway" v="stream" />
	</node>
	<node id="-297570" lat="60.2896166689" lon="10.5612749962">
		<tag k="name" v="Tangen" />
		<tag k="natural" v="cape" />
		<tag k="ssr:stedsnr" v="221068" />
	</node>
	<node id="-298003" lat="60.1736833361" lon="10.7605916685">
		<tag k="name" v="Smellbakkputtene" />
		<tag k="natural" v="water" />
		<tag k="ssr:stedsnr" v="889743" />
	</node>
	<node id="-298514" lat="60.1827611073" lon="10.6209444358">
		<tag k="name" v="Grimstjernsputten" />
		<tag k="natural" v="water" />
		<tag k="ssr:stedsnr" v="585416" />
	</node>
	<node id="-298001" lat="60.1835722235" lon="10.722922224">
		<tag k="name" v="Monsrudvika" />
		<tag k="natural" v="bay" />
		<tag k="ssr:stedsnr" v="889683" />
	</node>
	<node id="-298512" lat="60.2354833335" lon="10.6353638873">
		<tag k="name" v="Liekersputten" />
		<tag k="natural" v="water" />
		<tag k="ssr:stedsnr" v="585247" />
	</node>
	<node id="-298506" lat="60.2160555538" lon="10.578900003">
		<tag k="name" v="Sandbekken" />
		<tag k="ssr:stedsnr" v="578355" />
		<tag k="waterway" v="stream" />
	</node>
	<node id="-298501" lat="60.275750003" lon="10.7174277844">
		<tag k="alt_name" v="Flåtatjern;Flåtetjernet" />
		<tag k="name" v="Flåtåtjernet" />
		<tag k="natural" v="water" />
		<tag k="ssr:stedsnr" v="552813" />
	</node>
	<node id="-297988" lat="60.1943944437" lon="10.7175500072">
		<tag k="name" v="Stasjonsvika" />
		<tag k="natural" v="bay" />
		<tag k="ssr:stedsnr" v="889033" />
	</node>
	<node id="-297987" lat="60.1876722206" lon="10.7081250025">
		<tag k="name" v="Hansøya" />
		<tag k="place" v="islet" />
		<tag k="ssr:stedsnr" v="889025" />
	</node>
	<node id="-298498" lat="60.287354124" lon="10.7651999923">
		<tag k="name" v="Avalsjøen" />
		<tag k="natural" v="water" />
		<tag k="ssr:stedsnr" v="552366" />
		<tag k="water" v="lake" />
	</node>
	<node id="-297985" lat="60.2515749992" lon="10.6014249995">
		<tag k="name" v="Vikabekken" />
		<tag k="ssr:stedsnr" v="888068" />
		<tag k="waterway" v="stream" />
	</node>
</osm>
