<?xml version="1.0" encoding="UTF-8"?>
<osm generator="osmapis" version="0.6">
	<node id="-10922" lat="59.5401055206" lon="11.6431820506">
		<tag k="name" v="Vestre Høgås" />
		<tag k="place" v="farm" />
		<tag k="ssr:stedsnr" v="307494" />
	</node>
	<node id="-12280" lat="59.642341663" lon="11.7095888863">
		<tag k="alt_name" v="Svendsbysetra" />
		<tag k="name" v="Svensbysetra" />
		<tag k="place" v="isolated_dwelling" />
		<tag k="ssr:stedsnr" v="538483" />
	</node>
	<node id="-10921" lat="59.6170750004" lon="11.576463882">
		<tag k="name" v="Huset" />
		<tag k="place" v="farm" />
		<tag k="ssr:stedsnr" v="307481" />
	</node>
	<node id="-12270" lat="59.6322222239" lon="11.5642166729">
		<tag k="alt_name" v="Setra nordre" />
		<tag k="name" v="Nordre Setra" />
		<tag k="place" v="farm" />
		<tag k="ssr:stedsnr" v="538245" />
	</node>
	<node id="-12263" lat="59.6262222218" lon="11.6204138882">
		<tag k="name" v="Stamperud" />
		<tag k="place" v="farm" />
		<tag k="ssr:stedsnr" v="538165" />
	</node>
	<node id="-10914" lat="59.3749249972" lon="11.7388888883">
		<tag k="fixme" v="consider place=hamlet" />
		<tag k="name" v="Selvik" />
		<tag k="place" v="farm" />
		<tag k="ssr:stedsnr" v="306660" />
	</node>
	<node id="-12220" lat="59.4448555596" lon="11.6774472138">
		<tag k="alt_name" v="Mårud vestre" />
		<tag k="name" v="Vestre Mårud" />
		<tag k="place" v="farm" />
		<tag k="ssr:stedsnr" v="537578" />
	</node>
	<node id="-12219" lat="59.4159416653" lon="11.7161305486">
		<tag k="name" v="Ekebakken" />
		<tag k="place" v="farm" />
		<tag k="ssr:stedsnr" v="537571" />
	</node>
	<node id="-12214" lat="59.612355556" lon="11.5399361188">
		<tag k="alt_name" v="Ba nordre" />
		<tag k="name" v="Nordre Ba" />
		<tag k="place" v="farm" />
		<tag k="ssr:stedsnr" v="537517" />
	</node>
	<node id="-12213" lat="59.431024999" lon="11.7292611185">
		<tag k="name" v="Østengen" />
		<tag k="place" v="farm" />
		<tag k="ssr:stedsnr" v="537508" />
	</node>
	<node id="-12209" lat="59.4522305585" lon="11.6368416698">
		<tag k="name" v="Voll" />
		<tag k="place" v="isolated_dwelling" />
		<tag k="ssr:stedsnr" v="537496" />
	</node>
	<node id="-12207" lat="59.3969499972" lon="11.7267833384">
		<tag k="name" v="Sagstuen" />
		<tag k="place" v="farm" />
		<tag k="ssr:stedsnr" v="537493" />
	</node>
	<node id="-12205" lat="59.3779777799" lon="11.6972444501">
		<tag k="name" v="Stusrud" />
		<tag k="place" v="farm" />
		<tag k="ssr:stedsnr" v="537486" />
	</node>
	<node id="-11250" lat="59.4834499991" lon="11.6680333403">
		<tag k="name" v="Solheim" />
		<tag k="place" v="farm" />
		<tag k="ssr:stedsnr" v="477754" />
	</node>
	<node id="-12199" lat="59.5353571403" lon="11.6581723774">
		<tag k="fixme" v="multiple name tags, choose one and add the other to alt_name" />
		<tag k="name" v="Høgåsbråten;Bråten" />
		<tag k="place" v="locality" />
		<tag k="ssr:stedsnr" v="537429" />
	</node>
	<node id="-12198" lat="59.5278194417" lon="11.6470444495">
		<tag k="name" v="Spernes" />
		<tag k="place" v="farm" />
		<tag k="ssr:stedsnr" v="537418" />
	</node>
	<node id="-12195" lat="59.5428833325" lon="11.6347611084">
		<tag k="alt_name" v="Stillesby østre" />
		<tag k="name" v="Østre Stillesby" />
		<tag k="place" v="farm" />
		<tag k="ssr:stedsnr" v="537374" />
	</node>
	<node id="-12193" lat="59.338419444" lon="11.6867027699">
		<tag k="name" v="Kutjernkasa" />
		<tag k="place" v="isolated_dwelling" />
		<tag k="ssr:stedsnr" v="537294" />
	</node>
	<node id="-12188" lat="59.5704520045" lon="11.5824958306">
		<tag k="name" v="Vikeby" />
		<tag k="place" v="hamlet" />
		<tag k="ssr:stedsnr" v="537234" />
	</node>
	<node id="-12184" lat="59.5019694425" lon="11.6770944391">
		<tag k="name" v="Søndre Engerbråten" />
		<tag k="place" v="farm" />
		<tag k="ssr:stedsnr" v="537185" />
	</node>
	<node id="-12174" lat="59.4630277785" lon="11.7318444449">
		<tag k="name" v="Ankerudskogen" />
		<tag k="place" v="locality" />
		<tag k="ssr:stedsnr" v="537041" />
	</node>
	<node id="-12173" lat="59.4802666704" lon="11.6999777722">
		<tag k="name" v="Røser" />
		<tag k="place" v="farm" />
		<tag k="ssr:stedsnr" v="537040" />
	</node>
	<node id="-12172" lat="59.4744222245" lon="11.7330805488">
		<tag k="name" v="Søndre Håby" />
		<tag k="place" v="locality" />
		<tag k="ssr:stedsnr" v="537037" />
	</node>
	<node id="-12159" lat="59.5474583346" lon="11.5778361111">
		<tag k="name" v="Søndre Røen" />
		<tag k="place" v="farm" />
		<tag k="ssr:stedsnr" v="525524" />
	</node>
	<node id="-12158" lat="59.3907361118" lon="11.7356388855">
		<tag k="alt_name" v="Taskerud nordre" />
		<tag k="name" v="Nordre Taskerud" />
		<tag k="place" v="farm" />
		<tag k="ssr:stedsnr" v="494902" />
	</node>
	<node id="-12156" lat="59.3234611128" lon="11.5840666627">
		<tag k="alt_name" v="Kolbjørnsvik" />
		<tag k="loc_name" v="Kolviken" />
		<tag k="name" v="Kolbjørnviken" />
		<tag k="place" v="farm" />
		<tag k="ssr:stedsnr" v="489672" />
	</node>
	<node id="-12155" lat="59.3891305578" lon="11.666919449">
		<tag k="name" v="Ytterbøl" />
		<tag k="place" v="farm" />
		<tag k="ssr:stedsnr" v="489582" />
	</node>
	<node id="-12153" lat="59.5388555543" lon="11.5810305544">
		<tag k="name" v="Kirkeng" />
		<tag k="place" v="farm" />
		<tag k="ssr:stedsnr" v="489499" />
	</node>
	<node id="-12148" lat="59.5040305587" lon="11.685030557">
		<tag k="name" v="Steinsrud" />
		<tag k="place" v="isolated_dwelling" />
		<tag k="ssr:stedsnr" v="489387" />
	</node>
	<node id="-12146" lat="59.652552777" lon="11.6915416637">
		<tag k="name" v="Furuly" />
		<tag k="place" v="isolated_dwelling" />
		<tag k="ssr:stedsnr" v="489286" />
	</node>
	<node id="-12145" lat="59.5310444431" lon="11.6408249916">
		<tag k="alt_name" v="Måstad" />
		<tag k="name" v="Søndre Måstad" />
		<tag k="place" v="farm" />
		<tag k="ssr:stedsnr" v="489052" />
	</node>
	<node id="-12142" lat="59.3434750001" lon="11.6723583407">
		<tag k="alt_name" v="Husporn" />
		<tag k="name" v="Husborn" />
		<tag k="place" v="farm" />
		<tag k="ssr:stedsnr" v="488726" />
	</node>
	<node id="-12141" lat="59.3417916675" lon="11.6292388902">
		<tag k="name" v="Damholtet" />
		<tag k="place" v="farm" />
		<tag k="ssr:stedsnr" v="488724" />
	</node>
	<node id="-12139" lat="59.3709555521" lon="11.6451111095">
		<tag k="fixme" v="consider place=hamlet" />
		<tag k="name" v="Søgård" />
		<tag k="place" v="farm" />
		<tag k="ssr:stedsnr" v="488682" />
	</node>
	<node id="-12138" lat="59.3725916624" lon="11.6986999921">
		<tag k="name" v="Struten" />
		<tag k="place" v="farm" />
		<tag k="ssr:stedsnr" v="488679" />
	</node>
	<node id="-12137" lat="59.4473555517" lon="11.6834333346">
		<tag k="alt_name" v="Holtsrud" />
		<tag k="name" v="Holsrud" />
		<tag k="place" v="farm" />
		<tag k="ssr:stedsnr" v="488597" />
	</node>
	<node id="-12136" lat="59.4474916698" lon="11.6711083345">
		<tag k="alt_name" v="Vågelsby" />
		<tag k="name" v="Våkelsby" />
		<tag k="place" v="farm" />
		<tag k="ssr:stedsnr" v="488596" />
	</node>
	<node id="-12134" lat="59.3849666632" lon="11.7305388856">
		<tag k="alt_name" v="Engsvik" />
		<tag k="name" v="Engsvika" />
		<tag k="place" v="farm" />
		<tag k="ssr:stedsnr" v="488546" />
	</node>
	<node id="-11238" lat="59.5727039281" lon="11.5871089207">
		<tag k="name" v="Sjøli" />
		<tag k="place" v="farm" />
		<tag k="ssr:stedsnr" v="477534" />
	</node>
	<node id="-12130" lat="59.5301253559" lon="11.6085869007">
		<tag k="alt_name" v="Krosby østre" />
		<tag k="loc_name" v="Østre Krossby" />
		<tag k="name" v="Østre Krosby" />
		<tag k="place" v="farm" />
		<tag k="ssr:stedsnr" v="484925" />
	</node>
	<node id="-12129" lat="59.6004311321" lon="11.6294994737">
		<tag k="fixme" v="consider place=hamlet" />
		<tag k="name" v="Ulfsby" />
		<tag k="place" v="farm" />
		<tag k="ssr:stedsnr" v="484435" />
	</node>
	<node id="-12119" lat="59.3426555596" lon="11.7662444403">
		<tag k="alt_name" v="Sundsdalen" />
		<tag k="name" v="Sundsdal" />
		<tag k="place" v="isolated_dwelling" />
		<tag k="ssr:stedsnr" v="428716" />
	</node>
	<node id="-12118" lat="59.3437111084" lon="11.6414388803">
		<tag k="alt_name" v="Søndre Slevik" />
		<tag k="name" v="Slevika" />
		<tag k="place" v="farm" />
		<tag k="ssr:stedsnr" v="428714" />
	</node>
	<node id="-12116" lat="59.3637138844" lon="11.6953722249">
		<tag k="alt_name" v="Gunneng nordre;Gunneng" />
		<tag k="name" v="Nordre Gunneng" />
		<tag k="place" v="farm" />
		<tag k="ssr:stedsnr" v="428694" />
	</node>
	<node id="-12114" lat="59.3720694477" lon="11.6796805528">
		<tag k="name" v="Bjørnstad" />
		<tag k="place" v="farm" />
		<tag k="ssr:stedsnr" v="428674" />
	</node>
	<node id="-12113" lat="59.3799694421" lon="11.7841472207">
		<tag k="name" v="Moslora" />
		<tag k="place" v="isolated_dwelling" />
		<tag k="ssr:stedsnr" v="428665" />
	</node>
	<node id="-12110" lat="59.4225583312" lon="11.6881666666">
		<tag k="alt_name" v="Kleva" />
		<tag k="name" v="Kleiva" />
		<tag k="place" v="farm" />
		<tag k="ssr:stedsnr" v="428459" />
	</node>
	<node id="-12108" lat="59.5478583305" lon="11.600713888">
		<tag k="fixme" v="consider place=hamlet" />
		<tag k="loc_name" v="Klemmetsby" />
		<tag k="name" v="Klemetsby" />
		<tag k="place" v="farm" />
		<tag k="ssr:stedsnr" v="428439" />
	</node>
	<node id="-12107" lat="59.5457638854" lon="11.6531249939">
		<tag k="name" v="Nord-Hien" />
		<tag k="old_name" v="Hien" />
		<tag k="place" v="farm" />
		<tag k="ssr:stedsnr" v="428434" />
	</node>
	<node id="-12106" lat="59.5224472245" lon="11.6156944414">
		<tag k="name" v="Kåtorp" />
		<tag k="place" v="farm" />
		<tag k="ssr:stedsnr" v="428352" />
	</node>
	<node id="-12104" lat="59.6390138874" lon="11.5562333417">
		<tag k="name" v="Roligheta" />
		<tag k="place" v="farm" />
		<tag k="ssr:stedsnr" v="428279" />
	</node>
	<node id="-12103" lat="59.6253249996" lon="11.6149694423">
		<tag k="name" v="Søndre Oppsal" />
		<tag k="old_name" v="Oppsal søndre;Opsal søndre" />
		<tag k="place" v="farm" />
		<tag k="ssr:stedsnr" v="428265" />
	</node>
	<node id="-12102" lat="59.4434694444" lon="11.7179833381">
		<tag k="name" v="Nytomt" />
		<tag k="place" v="farm" />
		<tag k="ssr:stedsnr" v="427611" />
	</node>
	<node id="-12100" lat="59.4802305512" lon="11.6601666725">
		<tag k="name" v="Ørje" />
		<tag k="place" v="village" />
		<tag k="ssr:stedsnr" v="427593" />
	</node>
	<node id="-12097" lat="59.4932694425" lon="11.695169444">
		<tag k="name" v="Elverum" />
		<tag k="place" v="farm" />
		<tag k="ssr:stedsnr" v="427585" />
	</node>
	<node id="-12096" lat="59.4980555542" lon="11.6796138886">
		<tag k="alt_name" v="Askerud søndre" />
		<tag k="name" v="Søndre Askerud" />
		<tag k="place" v="farm" />
		<tag k="ssr:stedsnr" v="427580" />
	</node>
	<node id="-12088" lat="59.5070305552" lon="11.6659888934">
		<tag k="alt_name" v="Grimsby vestre" />
		<tag k="name" v="Vestre Grimsby" />
		<tag k="place" v="farm" />
		<tag k="ssr:stedsnr" v="417391" />
	</node>
	<node id="-12085" lat="59.5099722265" lon="11.6688194413">
		<tag k="name" v="Bergerødegården" />
		<tag k="place" v="farm" />
		<tag k="ssr:stedsnr" v="417286" />
	</node>
	<node id="-12084" lat="59.5144722184" lon="11.6499944371">
		<tag k="name" v="Lilleås" />
		<tag k="place" v="farm" />
		<tag k="ssr:stedsnr" v="417282" />
	</node>
	<node id="-12060" lat="59.6096972214" lon="11.5697694376">
		<tag k="alt_name" v="Rakkestad søndre" />
		<tag k="name" v="Søndre Rakkestad" />
		<tag k="place" v="farm" />
		<tag k="ssr:stedsnr" v="416873" />
	</node>
	<node id="-12055" lat="59.3528805567" lon="11.7386611043">
		<tag k="name" v="Huken" />
		<tag k="place" v="isolated_dwelling" />
		<tag k="ssr:stedsnr" v="416764" />
	</node>
	<node id="-12049" lat="59.456297219" lon="11.6916583335">
		<tag k="name" v="Vestre Søby" />
		<tag k="place" v="farm" />
		<tag k="ssr:stedsnr" v="416624" />
	</node>
	<node id="-12048" lat="59.4410749981" lon="11.6795305621">
		<tag k="alt_name" v="Mårud søndre" />
		<tag k="name" v="Søndre Mårud" />
		<tag k="place" v="farm" />
		<tag k="ssr:stedsnr" v="416561" />
	</node>
	<node id="-12047" lat="59.5434916688" lon="11.5528500043">
		<tag k="name" v="Søndre Holta" />
		<tag k="place" v="farm" />
		<tag k="ssr:stedsnr" v="416542" />
	</node>
	<node id="-12039" lat="59.4262305566" lon="11.6931138953">
		<tag k="name" v="Botten" />
		<tag k="place" v="locality" />
		<tag k="ssr:stedsnr" v="416481" />
	</node>
	<node id="-12038" lat="59.6035611087" lon="11.5324666627">
		<tag k="alt_name" v="Skrikerud søndre" />
		<tag k="name" v="Søndre Skrikerud" />
		<tag k="place" v="farm" />
		<tag k="ssr:stedsnr" v="416480" />
	</node>
	<node id="-12031" lat="59.4584222231" lon="11.6633416631">
		<tag k="alt_name" v="Anonby vestre" />
		<tag k="name" v="Vestre Anonby" />
		<tag k="place" v="farm" />
		<tag k="ssr:stedsnr" v="416458" />
	</node>
	<node id="-12029" lat="59.3772277751" lon="11.6931694493">
		<tag k="name" v="Brattås" />
		<tag k="place" v="farm" />
		<tag k="ssr:stedsnr" v="416455" />
	</node>
	<node id="-12007" lat="59.4891194478" lon="11.6613777699">
		<tag k="name" v="Østre Mosebyødegården" />
		<tag k="place" v="farm" />
		<tag k="ssr:stedsnr" v="416215" />
	</node>
	<node id="-12005" lat="59.495533336" lon="11.6387722234">
		<tag k="name" v="Nordre Ysterud" />
		<tag k="place" v="farm" />
		<tag k="ssr:stedsnr" v="416201" />
	</node>
	<node id="-12003" lat="59.5826611122" lon="11.5542611059">
		<tag k="alt_name" v="Klerud søndre" />
		<tag k="name" v="Søndre Klerud" />
		<tag k="place" v="farm" />
		<tag k="ssr:stedsnr" v="416197" />
	</node>
	<node id="-12000" lat="59.5843000032" lon="11.5306111045">
		<tag k="alt_name" v="Fallet nordre" />
		<tag k="name" v="Nordre Fallet" />
		<tag k="place" v="farm" />
		<tag k="ssr:stedsnr" v="416168" />
	</node>
	<node id="-11216" lat="59.6098972205" lon="11.6662833284">
		<tag k="name" v="Ulfsbysetra" />
		<tag k="place" v="locality" />
		<tag k="ssr:stedsnr" v="477976" />
	</node>
	<node id="-11996" lat="59.6381833351" lon="11.6139638943">
		<tag k="name" v="Delingsrud" />
		<tag k="place" v="locality" />
		<tag k="ssr:stedsnr" v="416092" />
	</node>
	<node id="-11993" lat="59.4658250006" lon="11.690122227">
		<tag k="alt_name" v="Gjølsjø søndre" />
		<tag k="name" v="Søndre Gjølsjø" />
		<tag k="place" v="farm" />
		<tag k="ssr:stedsnr" v="416050" />
	</node>
	<node id="-11991" lat="59.5505444421" lon="11.5975583357">
		<tag k="alt_name" v="Klemmetsby vestre" />
		<tag k="name" v="Vestre Klemmetsby" />
		<tag k="place" v="farm" />
		<tag k="ssr:stedsnr" v="416044" />
	</node>
	<node id="-11978" lat="59.5305944426" lon="11.6063499993">
		<tag k="alt_name" v="Krosby vestre" />
		<tag k="loc_name" v="Vestre Krossby" />
		<tag k="name" v="Vestre Krosby" />
		<tag k="place" v="farm" />
		<tag k="ssr:stedsnr" v="415498" />
	</node>
	<node id="-11977" lat="59.5319055563" lon="11.6023305603">
		<tag k="name" v="Solvang" />
		<tag k="place" v="farm" />
		<tag k="ssr:stedsnr" v="415475" />
	</node>
	<node id="-11976" lat="59.3489027797" lon="11.6455361189">
		<tag k="name" v="Dagali" />
		<tag k="place" v="farm" />
		<tag k="ssr:stedsnr" v="415436" />
	</node>
	<node id="-11975" lat="59.3524540771" lon="11.6510055757">
		<tag k="fixme" v="consider place=hamlet" />
		<tag k="name" v="Søndre Sambøl" />
		<tag k="place" v="farm" />
		<tag k="ssr:stedsnr" v="415376" />
	</node>
	<node id="-11972" lat="59.3747750001" lon="11.6983638853">
		<tag k="name" v="Volødegård" />
		<tag k="place" v="farm" />
		<tag k="ssr:stedsnr" v="415337" />
	</node>
	<node id="-11966" lat="59.6056277754" lon="11.6102472163">
		<tag k="fixme" v="consider place=hamlet" />
		<tag k="name" v="Jåvall" />
		<tag k="place" v="farm" />
		<tag k="ssr:stedsnr" v="247440" />
	</node>
	<node id="-11965" lat="59.6097600587" lon="11.569257782">
		<tag k="fixme" v="consider place=hamlet" />
		<tag k="name" v="Rakkestad" />
		<tag k="place" v="farm" />
		<tag k="ssr:stedsnr" v="247436" />
	</node>
	<node id="-11963" lat="59.5831361072" lon="11.5644999977">
		<tag k="name" v="Børresrud" />
		<tag k="place" v="hamlet" />
		<tag k="ssr:stedsnr" v="247417" />
	</node>
	<node id="-11961" lat="59.5837749971" lon="11.6528583243">
		<tag k="alt_name" v="Morttjernstua" />
		<tag k="name" v="Morttjernhytta" />
		<tag k="place" v="isolated_dwelling" />
		<tag k="ssr:stedsnr" v="247409" />
	</node>
	<node id="-11960" lat="59.5084348503" lon="11.6569208091">
		<tag k="fixme" v="consider place=hamlet" />
		<tag k="name" v="Berger" />
		<tag k="place" v="farm" />
		<tag k="ssr:stedsnr" v="247364" />
	</node>
	<node id="-11959" lat="59.5058722187" lon="11.676875007">
		<tag k="alt_name" v="Askerud;Askerud nordre" />
		<tag k="name" v="Nordre Askerud" />
		<tag k="place" v="farm" />
		<tag k="ssr:stedsnr" v="247362" />
	</node>
	<node id="-11958" lat="59.6187138919" lon="11.6194749922">
		<tag k="name" v="Hagan" />
		<tag k="place" v="locality" />
		<tag k="ssr:stedsnr" v="247274" />
	</node>
	<node id="-11955" lat="59.3389194483" lon="11.6899250018">
		<tag k="name" v="Haugen" />
		<tag k="place" v="farm" />
		<tag k="ssr:stedsnr" v="246699" />
	</node>
	<node id="-11951" lat="59.4012333334" lon="11.6448583384">
		<tag k="name" v="Åsmundrud" />
		<tag k="place" v="farm" />
		<tag k="ssr:stedsnr" v="246506" />
	</node>
	<node id="-11949" lat="59.4182305568" lon="11.6453527799">
		<tag k="alt_name" v="Nybo" />
		<tag k="name" v="Nybu" />
		<tag k="place" v="farm" />
		<tag k="ssr:stedsnr" v="246497" />
	</node>
	<node id="-11947" lat="59.4273361088" lon="11.6641944509">
		<tag k="name" v="Bærekas" />
		<tag k="place" v="farm" />
		<tag k="ssr:stedsnr" v="246473" />
	</node>
	<node id="-11945" lat="59.4260888904" lon="11.7211749926">
		<tag k="alt_name" v="Ledengsøgården" />
		<tag k="name" v="Ledengøgården" />
		<tag k="place" v="farm" />
		<tag k="ssr:stedsnr" v="246469" />
	</node>
	<node id="-11943" lat="59.5526833328" lon="11.6450499941">
		<tag k="alt_name" v="Gåsebysetra" />
		<tag k="name" v="Gåsebysætra" />
		<tag k="place" v="farm" />
		<tag k="ssr:stedsnr" v="246451" />
	</node>
	<node id="-11941" lat="59.5475666705" lon="11.5558666742">
		<tag k="name" v="Holta" />
		<tag k="place" v="farm" />
		<tag k="ssr:stedsnr" v="246436" />
	</node>
	<node id="-11940" lat="59.542499996" lon="11.5862805596">
		<tag k="fixme" v="consider place=hamlet" />
		<tag k="name" v="Kallak" />
		<tag k="place" v="farm" />
		<tag k="ssr:stedsnr" v="246432" />
	</node>
	<node id="-11939" lat="59.5362527764" lon="11.606505556">
		<tag k="name" v="Østenby" />
		<tag k="place" v="farm" />
		<tag k="ssr:stedsnr" v="246382" />
	</node>
	<node id="-11935" lat="59.4447500013" lon="11.7189861194">
		<tag k="historic" v="shieling" />
		<tag k="name" v="Lømbusetret" />
		<tag k="old_name" v="Lømbusæter;Lømbuseter" />
		<tag k="place" v="locality" />
		<tag k="ssr:stedsnr" v="245587" />
	</node>
	<node id="-11931" lat="59.4674277752" lon="11.7336999954">
		<tag k="name" v="Slora" />
		<tag k="place" v="isolated_dwelling" />
		<tag k="ssr:stedsnr" v="245562" />
	</node>
	<node id="-11927" lat="59.346847226" lon="11.6845888834">
		<tag k="name" v="Søndre Djupvik" />
		<tag k="old_name" v="Dypvik søndre" />
		<tag k="place" v="farm" />
		<tag k="ssr:stedsnr" v="235388" />
	</node>
	<node id="-11923" lat="59.4733611084" lon="11.6494555504">
		<tag k="name" v="Ørnås" />
		<tag k="place" v="locality" />
		<tag k="ssr:stedsnr" v="234740" />
	</node>
	<node id="-11922" lat="59.4517527774" lon="11.7042333421">
		<tag k="name" v="Søndre Ankerud" />
		<tag k="place" v="locality" />
		<tag k="ssr:stedsnr" v="234721" />
	</node>
	<node id="-11919" lat="59.6100972254" lon="11.6604138863">
		<tag k="name" v="Hølvannsstua" />
		<tag k="place" v="isolated_dwelling" />
		<tag k="ssr:stedsnr" v="234672" />
	</node>
	<node id="-11910" lat="59.4867749971" lon="11.7481416595">
		<tag k="building" v="civic" />
		<tag k="name" v="Ørje tollstasjon" />
		<tag k="ssr:stedsnr" v="234933" />
	</node>
	<node id="-11201" lat="59.588280554" lon="11.5920527736">
		<tag k="name" v="Rødenes prestegård" />
		<tag k="place" v="farm" />
		<tag k="ssr:stedsnr" v="477152" />
	</node>
	<node id="-11906" lat="59.4987916675" lon="11.5424583373">
		<tag k="name" v="Østenbyhytta" />
		<tag k="place" v="locality" />
		<tag k="ssr:stedsnr" v="234912" />
	</node>
	<node id="-11899" lat="59.6145290169" lon="11.563672505">
		<tag k="name" v="Storløs" />
		<tag k="place" v="farm" />
		<tag k="ssr:stedsnr" v="234527" />
	</node>
	<node id="-11897" lat="59.6162944463" lon="11.5636416672">
		<tag k="name" v="Storløs" />
		<tag k="place" v="farm" />
		<tag k="ssr:stedsnr" v="234514" />
	</node>
	<node id="-11896" lat="59.4348345223" lon="11.7108787486">
		<tag k="alt_name" v="Bakkebråten" />
		<tag k="name" v="Tassebakken" />
		<tag k="place" v="farm" />
		<tag k="ssr:stedsnr" v="234511" />
	</node>
	<node id="-11887" lat="59.5957638893" lon="11.6326277769">
		<tag k="name" v="Myrås" />
		<tag k="place" v="locality" />
		<tag k="ssr:stedsnr" v="234635" />
	</node>
	<node id="-11885" lat="59.6176999979" lon="11.6448055628">
		<tag k="name" v="Slottet" />
		<tag k="place" v="locality" />
		<tag k="ssr:stedsnr" v="234607" />
	</node>
	<node id="-11872" lat="59.5082333304" lon="11.6655527788">
		<tag k="alt_name" v="Berger søndre" />
		<tag k="name" v="Søndre Berger" />
		<tag k="place" v="farm" />
		<tag k="ssr:stedsnr" v="234269" />
	</node>
	<node id="-11871" lat="59.5007166677" lon="11.6860611116">
		<tag k="name" v="Fjellvang" />
		<tag k="place" v="farm" />
		<tag k="ssr:stedsnr" v="234248" />
	</node>
	<node id="-11869" lat="59.4948722213" lon="11.6386499919">
		<tag k="name" v="Søndre Ysterud" />
		<tag k="place" v="farm" />
		<tag k="ssr:stedsnr" v="234216" />
	</node>
	<node id="-11865" lat="59.6186972207" lon="11.5922694376">
		<tag k="name" v="Kroksund" />
		<tag k="place" v="hamlet" />
		<tag k="ssr:stedsnr" v="234177" />
	</node>
	<node id="-11860" lat="59.5876027812" lon="11.5676222255">
		<tag k="name" v="Folkenborg" />
		<tag k="place" v="farm" />
		<tag k="ssr:stedsnr" v="234149" />
	</node>
	<node id="-11004" lat="59.576186111" lon="11.5766166588">
		<tag k="name" v="Speiderhytta" />
		<tag k="place" v="isolated_dwelling" />
		<tag k="ssr:stedsnr" v="355458" />
	</node>
	<node id="-11843" lat="59.487855554" lon="11.6823194425">
		<tag k="name" v="Søndre Sletta" />
		<tag k="place" v="farm" />
		<tag k="ssr:stedsnr" v="234020" />
	</node>
	<node id="-11835" lat="59.6742055529" lon="11.6447138854">
		<tag k="name" v="Engasetra" />
		<tag k="place" v="isolated_dwelling" />
		<tag k="ssr:stedsnr" v="234419" />
	</node>
	<node id="-11826" lat="59.3969638913" lon="11.7334444526">
		<tag k="name" v="Mellom-Eng" />
		<tag k="place" v="farm" />
		<tag k="ssr:stedsnr" v="233919" />
	</node>
	<node id="-11807" lat="59.4170525115" lon="11.6691391857">
		<tag k="name" v="Kirkeby" />
		<tag k="place" v="farm" />
		<tag k="ssr:stedsnr" v="233601" />
	</node>
	<node id="-11805" lat="59.5180333296" lon="11.6189777735">
		<tag k="name" v="Kåtorp" />
		<tag k="place" v="farm" />
		<tag k="ssr:stedsnr" v="233553" />
	</node>
	<node id="-11183" lat="59.3848305538" lon="11.6655083323">
		<tag k="name" v="Ytterbøl" />
		<tag k="place" v="farm" />
		<tag k="ssr:stedsnr" v="476821" />
	</node>
	<node id="-11796" lat="59.3673055523" lon="11.6858722282">
		<tag k="name" v="Gråbølødegården" />
		<tag k="place" v="farm" />
		<tag k="ssr:stedsnr" v="233341" />
	</node>
	<node id="-11236" lat="59.3954027768" lon="11.7213388915">
		<tag k="name" v="Fossen" />
		<tag k="place" v="isolated_dwelling" />
		<tag k="ssr:stedsnr" v="477508" />
	</node>
	<node id="-11782" lat="59.5856333297" lon="11.6198750045">
		<tag k="alt_name" v="Nystuen" />
		<tag k="name" v="Nystua" />
		<tag k="place" v="farm" />
		<tag k="ssr:stedsnr" v="186484" />
	</node>
	<node id="-11781" lat="59.5367666688" lon="11.6709583288">
		<tag k="alt_name" v="Måstadsetra" />
		<tag k="name" v="Måstadsætra" />
		<tag k="place" v="locality" />
		<tag k="ssr:stedsnr" v="186443" />
	</node>
	<node id="-11780" lat="59.5340249959" lon="11.5901833365">
		<tag k="name" v="Lund" />
		<tag k="place" v="farm" />
		<tag k="ssr:stedsnr" v="186438" />
	</node>
	<node id="-11774" lat="59.3361138884" lon="11.5775194401">
		<tag k="name" v="Kvernekasa" />
		<tag k="place" v="farm" />
		<tag k="ssr:stedsnr" v="185714" />
	</node>
	<node id="-11772" lat="59.3857055599" lon="11.6374500056">
		<tag k="alt_name" v="Halvorsrud, nordre;Halvorsrød;Halvorsrud" />
		<tag k="name" v="Nordre Halvorsrud" />
		<tag k="place" v="farm" />
		<tag k="ssr:stedsnr" v="185503" />
	</node>
	<node id="-11771" lat="59.3858694454" lon="11.6275638932">
		<tag k="name" v="Slora" />
		<tag k="place" v="farm" />
		<tag k="ssr:stedsnr" v="185502" />
	</node>
	<node id="-11770" lat="59.3758888888" lon="11.6990861188">
		<tag k="name" v="Stusrud" />
		<tag k="place" v="farm" />
		<tag k="ssr:stedsnr" v="185494" />
	</node>
	<node id="-11762" lat="59.3516361143" lon="11.7847305584">
		<tag k="name" v="Styggemyr" />
		<tag k="place" v="isolated_dwelling" />
		<tag k="ssr:stedsnr" v="185696" />
	</node>
	<node id="-11759" lat="59.361497224" lon="11.6900055619">
		<tag k="name" v="Neset" />
		<tag k="place" v="farm" />
		<tag k="ssr:stedsnr" v="185674" />
	</node>
	<node id="-11758" lat="59.661602777" lon="11.6957833417">
		<tag k="name" v="Fjellstua" />
		<tag k="place" v="isolated_dwelling" />
		<tag k="ssr:stedsnr" v="185264" />
	</node>
	<node id="-11757" lat="59.4487916672" lon="11.6500916753">
		<tag k="name" v="Årnes" />
		<tag k="place" v="farm" />
		<tag k="ssr:stedsnr" v="184623" />
	</node>
	<node id="-11756" lat="59.439238891" lon="11.7119138808">
		<tag k="name" v="Sandli" />
		<tag k="place" v="isolated_dwelling" />
		<tag k="ssr:stedsnr" v="184617" />
	</node>
	<node id="-11755" lat="59.4298666654" lon="11.7333999924">
		<tag k="name" v="Solberg" />
		<tag k="place" v="isolated_dwelling" />
		<tag k="ssr:stedsnr" v="184515" />
	</node>
	<node id="-11754" lat="59.4335055566" lon="11.7304138851">
		<tag k="name" v="Haugen" />
		<tag k="place" v="farm" />
		<tag k="ssr:stedsnr" v="184516" />
	</node>
	<node id="-11753" lat="59.4611805568" lon="11.6422000029">
		<tag k="name" v="Fossum" />
		<tag k="place" v="farm" />
		<tag k="ssr:stedsnr" v="184610" />
	</node>
	<node id="-11750" lat="59.466175627" lon="11.6900600899">
		<tag k="fixme" v="consider place=hamlet" />
		<tag k="name" v="Gjølsjø" />
		<tag k="place" v="farm" />
		<tag k="ssr:stedsnr" v="184589" />
	</node>
	<node id="-11748" lat="59.5441388858" lon="11.6517055571">
		<tag k="fixme" v="consider place=hamlet" />
		<tag k="name" v="Hien" />
		<tag k="place" v="farm" />
		<tag k="ssr:stedsnr" v="181477" />
	</node>
	<node id="-11747" lat="59.5932027752" lon="11.6228583396">
		<tag k="name" v="Heen" />
		<tag k="place" v="farm" />
		<tag k="ssr:stedsnr" v="181081" />
	</node>
	<node id="-11744" lat="59.3417944441" lon="11.7305722139">
		<tag k="alt_name" v="Søndre Botten" />
		<tag k="name" v="Søndre Botn" />
		<tag k="old_name" v="Nordre Botten" />
		<tag k="place" v="farm" />
		<tag k="ssr:stedsnr" v="174815" />
	</node>
	<node id="-11742" lat="59.4567972261" lon="11.7005250058">
		<tag k="name" v="Gunhildløa" />
		<tag k="place" v="locality" />
		<tag k="ssr:stedsnr" v="174703" />
	</node>
	<node id="-11740" lat="59.4831249987" lon="11.6552722261">
		<tag k="name" v="Trollsund" />
		<tag k="place" v="farm" />
		<tag k="ssr:stedsnr" v="174788" />
	</node>
	<node id="-11725" lat="59.5161388885" lon="11.6718166677">
		<tag k="name" v="Nordby" />
		<tag k="place" v="isolated_dwelling" />
		<tag k="ssr:stedsnr" v="174394" />
	</node>
	<node id="-11717" lat="59.6226499958" lon="11.5958555508">
		<tag k="name" v="Elvestad" />
		<tag k="place" v="locality" />
		<tag k="ssr:stedsnr" v="174153" />
	</node>
	<node id="-11714" lat="59.561863886" lon="11.5698555595">
		<tag k="alt_name" v="Grav nedre" />
		<tag k="name" v="Nedre Grav" />
		<tag k="place" v="farm" />
		<tag k="ssr:stedsnr" v="174034" />
	</node>
	<node id="-11705" lat="59.4878277793" lon="11.7433527807">
		<tag k="name" v="Fjellstua" />
		<tag k="place" v="isolated_dwelling" />
		<tag k="ssr:stedsnr" v="173923" />
	</node>
	<node id="-11694" lat="59.6106772207" lon="11.5696608105">
		<tag k="alt_name" v="Rakkestad nordre" />
		<tag k="name" v="Nordre Rakkestad" />
		<tag k="place" v="farm" />
		<tag k="ssr:stedsnr" v="173885" />
	</node>
	<node id="-11674" lat="59.6128990921" lon="11.6412301888">
		<tag k="name" v="Vestre Tjernsmo" />
		<tag k="place" v="locality" />
		<tag k="ssr:stedsnr" v="173593" />
	</node>
	<node id="-11671" lat="59.4441416708" lon="11.6794361125">
		<tag k="alt_name" v="Mårud østre" />
		<tag k="name" v="Østre Mårud" />
		<tag k="place" v="farm" />
		<tag k="ssr:stedsnr" v="173567" />
	</node>
	<node id="-11658" lat="59.4639916635" lon="11.6704361081">
		<tag k="alt_name" v="Rud vestre" />
		<tag k="name" v="Vestre Rud" />
		<tag k="place" v="isolated_dwelling" />
		<tag k="ssr:stedsnr" v="173450" />
	</node>
	<node id="-11656" lat="59.5396999972" lon="11.6619527843">
		<tag k="name" v="Lier" />
		<tag k="place" v="isolated_dwelling" />
		<tag k="ssr:stedsnr" v="173349" />
	</node>
	<node id="-11649" lat="59.5763138847" lon="11.5379111193">
		<tag k="alt_name" v="Ådalsfoss nedre" />
		<tag k="name" v="Nedre Ådalsfoss" />
		<tag k="place" v="locality" />
		<tag k="ssr:stedsnr" v="173207" />
	</node>
	<node id="-11647" lat="59.505713891" lon="11.6538138852">
		<tag k="name" v="Ertevik" />
		<tag k="place" v="locality" />
		<tag k="ssr:stedsnr" v="173189" />
	</node>
	<node id="-11289" lat="59.5688611098" lon="11.6144111111">
		<tag k="alt_name" v="Degnes store" />
		<tag k="name" v="Store Degnes" />
		<tag k="place" v="farm" />
		<tag k="ssr:stedsnr" v="3447" />
	</node>
	<node id="-11628" lat="59.5562500003" lon="11.5838888861">
		<tag k="alt_name" v="Toketorp vestre" />
		<tag k="name" v="Vestre Toketorp" />
		<tag k="place" v="locality" />
		<tag k="ssr:stedsnr" v="173053" />
	</node>
	<node id="-11627" lat="59.6249333307" lon="11.6238083376">
		<tag k="alt_name" v="Tukken nordre" />
		<tag k="name" v="Nordre Tukken" />
		<tag k="place" v="farm" />
		<tag k="ssr:stedsnr" v="173115" />
	</node>
	<node id="-11623" lat="59.5432027769" lon="11.5694777855">
		<tag k="name" v="Oretaphaugen" />
		<tag k="place" v="farm" />
		<tag k="ssr:stedsnr" v="172518" />
	</node>
	<node id="-11622" lat="59.3528377856" lon="11.6518568097">
		<tag k="name" v="Søndre Sambøl" />
		<tag k="place" v="farm" />
		<tag k="ssr:stedsnr" v="172404" />
	</node>
	<node id="-11615" lat="59.3629805559" lon="11.6885916718">
		<tag k="name" v="Neset" />
		<tag k="place" v="farm" />
		<tag k="ssr:stedsnr" v="172268" />
	</node>
	<node id="-11610" lat="59.6058722205" lon="11.6160277755">
		<tag k="alt_name" v="Svendsby" />
		<tag k="name" v="Svensby" />
		<tag k="place" v="farm" />
		<tag k="ssr:stedsnr" v="125493" />
	</node>
	<node id="-11609" lat="59.5990083315" lon="11.5888027764">
		<tag k="alt_name" v="Fokerud" />
		<tag k="name" v="Faukerud" />
		<tag k="place" v="farm" />
		<tag k="ssr:stedsnr" v="125484" />
	</node>
	<node id="-11608" lat="59.5877999982" lon="11.5211777752">
		<tag k="alt_name" v="Fjellengen" />
		<tag k="name" v="Fjellingen" />
		<tag k="place" v="farm" />
		<tag k="ssr:stedsnr" v="125471" />
	</node>
	<node id="-11607" lat="59.5935361134" lon="11.6202749989">
		<tag k="name" v="Hen" />
		<tag k="old_name" v="Hien" />
		<tag k="place" v="farm" />
		<tag k="ssr:stedsnr" v="125466" />
	</node>
	<node id="-11606" lat="59.5834361115" lon="11.528997216">
		<tag k="fixme" v="consider place=hamlet" />
		<tag k="name" v="Fallet" />
		<tag k="place" v="farm" />
		<tag k="ssr:stedsnr" v="125465" />
	</node>
	<node id="-11605" lat="59.5070666691" lon="11.6268944455">
		<tag k="name" v="Østre Tynnelsrud" />
		<tag k="old_name" v="Tønnelsrud;Tynnelsrud østre" />
		<tag k="place" v="isolated_dwelling" />
		<tag k="ssr:stedsnr" v="125397" />
	</node>
	<node id="-11601" lat="59.3711749966" lon="11.6375222232">
		<tag k="fixme" v="consider place=hamlet" />
		<tag k="name" v="Vestgård" />
		<tag k="place" v="farm" />
		<tag k="ssr:stedsnr" v="124640" />
	</node>
	<node id="-11599" lat="59.4030611144" lon="11.7404555474">
		<tag k="name" v="Brekka" />
		<tag k="place" v="farm" />
		<tag k="ssr:stedsnr" v="124491" />
	</node>
	<node id="-11596" lat="59.4223666638" lon="11.6725666605">
		<tag k="name" v="Sandåker" />
		<tag k="place" v="farm" />
		<tag k="ssr:stedsnr" v="124442" />
	</node>
	<node id="-11595" lat="59.4232777743" lon="11.7434472264">
		<tag k="alt_name" v="Buerskogen" />
		<tag k="name" v="Søndre Buerskogen" />
		<tag k="place" v="farm" />
		<tag k="ssr:stedsnr" v="124439" />
	</node>
	<node id="-11594" lat="59.5498416668" lon="11.619894438">
		<tag k="alt_name" v="Gåseby nordre" />
		<tag k="name" v="Nordre Gåseby" />
		<tag k="place" v="farm" />
		<tag k="ssr:stedsnr" v="124420" />
	</node>
	<node id="-11593" lat="59.5481336554" lon="11.5776661608">
		<tag k="fixme" v="consider place=hamlet" />
		<tag k="name" v="Røen" />
		<tag k="place" v="farm" />
		<tag k="ssr:stedsnr" v="124417" />
	</node>
	<node id="-11592" lat="59.661897219" lon="11.7028194479">
		<tag k="alt_name" v="Kroksætra østre;Nedre Krokssetra" />
		<tag k="name" v="Østre Kroksætra" />
		<tag k="place" v="isolated_dwelling" />
		<tag k="ssr:stedsnr" v="124225" />
	</node>
	<node id="-11591" lat="59.4455777766" lon="11.7584361117">
		<tag k="name" v="Grøndal" />
		<tag k="place" v="isolated_dwelling" />
		<tag k="ssr:stedsnr" v="123667" />
	</node>
	<node id="-11590" lat="59.4524083358" lon="11.6832499989">
		<tag k="name" v="Snesrud" />
		<tag k="place" v="farm" />
		<tag k="ssr:stedsnr" v="123665" />
	</node>
	<node id="-11587" lat="59.5002972265" lon="11.6337722141">
		<tag k="name" v="Stensrud" />
		<tag k="place" v="isolated_dwelling" />
		<tag k="ssr:stedsnr" v="123618" />
	</node>
	<node id="-11585" lat="59.4866055556" lon="11.7110111066">
		<tag k="name" v="Foss" />
		<tag k="place" v="farm" />
		<tag k="ssr:stedsnr" v="123615" />
	</node>
	<node id="-11584" lat="59.6130222226" lon="11.6419555514">
		<tag k="name" v="Tjernsmo" />
		<tag k="place" v="locality" />
		<tag k="ssr:stedsnr" v="120451" />
	</node>
	<node id="-11583" lat="59.5342374043" lon="11.6345891825">
		<tag k="fixme" v="consider place=hamlet" />
		<tag k="name" v="Måstad" />
		<tag k="place" v="farm" />
		<tag k="ssr:stedsnr" v="125417" />
	</node>
	<node id="-11582" lat="59.6354138886" lon="11.6105555501">
		<tag k="loc_name" v="Nord Åser" />
		<tag k="name" v="Åser" />
		<tag k="place" v="farm" />
		<tag k="ssr:stedsnr" v="125322" />
	</node>
	<node id="-11581" lat="59.6223916677" lon="11.6208888973">
		<tag k="alt_name" v="Tukun" />
		<tag k="fixme" v="consider place=hamlet" />
		<tag k="name" v="Tukken" />
		<tag k="place" v="farm" />
		<tag k="ssr:stedsnr" v="125308" />
	</node>
	<node id="-11580" lat="59.6197333302" lon="11.5470166678">
		<tag k="name" v="Fokkenborg" />
		<tag k="place" v="farm" />
		<tag k="ssr:stedsnr" v="125303" />
	</node>
	<node id="-11570" lat="59.4644388877" lon="11.6644333315">
		<tag k="alt_name" v="Bøen vestre" />
		<tag k="name" v="Vestre Bøen" />
		<tag k="place" v="farm" />
		<tag k="ssr:stedsnr" v="113695" />
	</node>
	<node id="-11565" lat="59.5913638866" lon="11.6154499961">
		<tag k="name" v="Nordenga" />
		<tag k="place" v="locality" />
		<tag k="ssr:stedsnr" v="113732" />
	</node>
	<node id="-11564" lat="59.5878749968" lon="11.6186861169">
		<tag k="name" v="Østre Olerud" />
		<tag k="old_name" v="Orderud østre" />
		<tag k="place" v="farm" />
		<tag k="ssr:stedsnr" v="113729" />
	</node>
	<node id="-11556" lat="59.6152361138" lon="11.5659555541">
		<tag k="name" v="Storløs" />
		<tag k="place" v="farm" />
		<tag k="ssr:stedsnr" v="113516" />
	</node>
	<node id="-11532" lat="59.5085666688" lon="11.6563166671">
		<tag k="alt_name" v="Berger vestre" />
		<tag k="name" v="Vestre Berger" />
		<tag k="place" v="farm" />
		<tag k="ssr:stedsnr" v="113260" />
	</node>
	<node id="-11531" lat="59.5031861128" lon="11.681733328">
		<tag k="name" v="Solberg" />
		<tag k="place" v="isolated_dwelling" />
		<tag k="ssr:stedsnr" v="113248" />
	</node>
	<node id="-10794" lat="59.4865944434" lon="11.6785083362">
		<tag k="name" v="Krokstadbråten" />
		<tag k="place" v="farm" />
		<tag k="ssr:stedsnr" v="294022" />
	</node>
	<node id="-11513" lat="59.6316472219" lon="11.6106194527">
		<tag k="loc_name" v="Sør Enga" />
		<tag k="name" v="Enga" />
		<tag k="place" v="farm" />
		<tag k="ssr:stedsnr" v="113140" />
	</node>
	<node id="-11505" lat="59.5548916669" lon="11.5867250046">
		<tag k="alt_name" v="Toketorp østre" />
		<tag k="name" v="Østre Toketorp" />
		<tag k="place" v="farm" />
		<tag k="ssr:stedsnr" v="113052" />
	</node>
	<node id="-11487" lat="59.6087416678" lon="11.5790555519">
		<tag k="name" v="Ødegård" />
		<tag k="place" v="farm" />
		<tag k="ssr:stedsnr" v="112911" />
	</node>
	<node id="-11480" lat="59.5431388867" lon="11.5863888963">
		<tag k="alt_name" v="Kallak nordre" />
		<tag k="name" v="Nordre Kallak" />
		<tag k="place" v="farm" />
		<tag k="ssr:stedsnr" v="112479" />
	</node>
	<node id="-11474" lat="59.4051861096" lon="11.7227055555">
		<tag k="name" v="Søndre Buer" />
		<tag k="place" v="farm" />
		<tag k="ssr:stedsnr" v="112607" />
	</node>
	<node id="-11470" lat="59.4864166684" lon="11.6962999999">
		<tag k="name" v="Nordre Nysterud" />
		<tag k="place" v="farm" />
		<tag k="ssr:stedsnr" v="112155" />
	</node>
	<node id="-11462" lat="59.3427067116" lon="11.7298940635">
		<tag k="alt_name" v="Botn;Botten;Nordre Botten" />
		<tag k="name" v="Nordre Botn" />
		<tag k="place" v="farm" />
		<tag k="ssr:stedsnr" v="101594" />
	</node>
	<node id="-11460" lat="59.6020916696" lon="11.5452055499">
		<tag k="name" v="Pytterud" />
		<tag k="place" v="farm" />
		<tag k="ssr:stedsnr" v="65450" />
	</node>
	<node id="-11459" lat="59.5898583352" lon="11.5118527707">
		<tag k="alt_name" v="Skog" />
		<tag k="name" v="Skau" />
		<tag k="place" v="farm" />
		<tag k="ssr:stedsnr" v="65440" />
	</node>
	<node id="-11451" lat="59.4007999966" lon="11.6711222145">
		<tag k="fixme" v="consider place=hamlet" />
		<tag k="name" v="Fløvik" />
		<tag k="place" v="farm" />
		<tag k="ssr:stedsnr" v="64510" />
	</node>
	<node id="-11450" lat="59.4069888929" lon="11.6464361186">
		<tag k="alt_name" v="Yttersrud" />
		<tag k="name" v="Uttersrud" />
		<tag k="place" v="farm" />
		<tag k="ssr:stedsnr" v="64509" />
	</node>
	<node id="-11449" lat="59.5674694436" lon="11.5385527824">
		<tag k="alt_name" v="Myrseter" />
		<tag k="name" v="Myrsæter" />
		<tag k="place" v="farm" />
		<tag k="ssr:stedsnr" v="64491" />
	</node>
	<node id="-11448" lat="59.5641527798" lon="11.5864249979">
		<tag k="name" v="Kinn" />
		<tag k="place" v="farm" />
		<tag k="ssr:stedsnr" v="64483" />
	</node>
	<node id="-11447" lat="59.5514611115" lon="11.7073194458">
		<tag k="name" v="Krokvasshytta" />
		<tag k="place" v="isolated_dwelling" />
		<tag k="ssr:stedsnr" v="64456" />
	</node>
	<node id="-11446" lat="59.529885141" lon="11.6080147099">
		<tag k="fixme" v="consider place=hamlet" />
		<tag k="loc_name" v="Krosby" />
		<tag k="name" v="Krossby" />
		<tag k="place" v="farm" />
		<tag k="ssr:stedsnr" v="64392" />
	</node>
	<node id="-11444" lat="59.6376027816" lon="11.6881833368">
		<tag k="historic" v="shieling" />
		<tag k="name" v="Jåvallsetra" />
		<tag k="place" v="locality" />
		<tag k="ssr:stedsnr" v="64308" />
	</node>
	<node id="-11443" lat="59.6300413591" lon="11.615580311">
		<tag k="name" v="Opsal nordre" />
		<tag k="place" v="farm" />
		<tag k="ssr:stedsnr" v="64306" />
	</node>
	<node id="-11441" lat="59.6271638918" lon="11.6279694399">
		<tag k="name" v="Foss" />
		<tag k="place" v="farm" />
		<tag k="ssr:stedsnr" v="64296" />
	</node>
	<node id="-11439" lat="59.4415127818" lon="11.6795659973">
		<tag k="fixme" v="consider place=hamlet" />
		<tag k="name" v="Mårud" />
		<tag k="place" v="farm" />
		<tag k="ssr:stedsnr" v="63619" />
	</node>
	<node id="-11437" lat="59.4331527808" lon="11.6752972209">
		<tag k="fixme" v="consider place=hamlet" />
		<tag k="name" v="Sandtorp" />
		<tag k="place" v="farm" />
		<tag k="ssr:stedsnr" v="63536" />
	</node>
	<node id="-11436" lat="59.4267750039" lon="11.7368888941">
		<tag k="name" v="Sandbekk" />
		<tag k="place" v="farm" />
		<tag k="ssr:stedsnr" v="63533" />
	</node>
	<node id="-11435" lat="59.624847219" lon="11.5946944363">
		<tag k="name" v="Evenby" />
		<tag k="place" v="farm" />
		<tag k="ssr:stedsnr" v="65277" />
	</node>
	<node id="-11433" lat="59.6201444428" lon="11.5596250038">
		<tag k="name" v="Bråten" />
		<tag k="place" v="farm" />
		<tag k="ssr:stedsnr" v="65274" />
	</node>
	<node id="-11429" lat="59.3348555513" lon="11.6377249949">
		<tag k="building" v="industrial" />
		<tag k="name" v="Sambølsaga" />
		<tag k="ssr:stedsnr" v="53374" />
	</node>
	<node id="-11419" lat="59.5275555552" lon="11.589811117">
		<tag k="name" v="Lundshaugen" />
		<tag k="place" v="isolated_dwelling" />
		<tag k="ssr:stedsnr" v="52971" />
	</node>
	<node id="-11418" lat="59.5239583311" lon="11.5872694399">
		<tag k="name" v="England" />
		<tag k="place" v="locality" />
		<tag k="ssr:stedsnr" v="52968" />
	</node>
	<node id="-11406" lat="59.3449444408" lon="11.7499472306">
		<tag k="name" v="Gunnengbråten" />
		<tag k="place" v="farm" />
		<tag k="ssr:stedsnr" v="52764" />
	</node>
	<node id="-11399" lat="59.4618361084" lon="11.6910583319">
		<tag k="name" v="Vestre Krosby" />
		<tag k="place" v="farm" />
		<tag k="ssr:stedsnr" v="52639" />
	</node>
	<node id="-11390" lat="59.507347223" lon="11.6205527827">
		<tag k="name" v="Stenby" />
		<tag k="place" v="locality" />
		<tag k="ssr:stedsnr" v="52537" />
	</node>
	<node id="-13414" lat="59.4655465076" lon="11.6658601666">
		<tag k="alt_name" v="Bøn" />
		<tag k="fixme" v="consider place=hamlet" />
		<tag k="name" v="Bøen" />
		<tag k="place" v="farm" />
		<tag k="ssr:stedsnr" v="981164" />
	</node>
	<node id="-13412" lat="59.5388805576" lon="11.6460722225">
		<tag k="fixme" v="consider place=hamlet" />
		<tag k="name" v="Høgås" />
		<tag k="place" v="farm" />
		<tag k="ssr:stedsnr" v="970705" />
	</node>
	<node id="-13411" lat="59.5341916683" lon="11.6353916665">
		<tag k="name" v="Nordre Måstad" />
		<tag k="place" v="farm" />
		<tag k="ssr:stedsnr" v="969514" />
	</node>
	<node id="-13409" lat="59.6418694478" lon="11.7194694505">
		<tag k="name" v="Fredheim" />
		<tag k="place" v="isolated_dwelling" />
		<tag k="ssr:stedsnr" v="963605" />
	</node>
	<node id="-13407" lat="59.34391111" lon="11.6901083353">
		<tag k="name" v="Holtet" />
		<tag k="place" v="locality" />
		<tag k="ssr:stedsnr" v="963403" />
	</node>
	<node id="-13406" lat="59.3446111074" lon="11.6423333408">
		<tag k="name" v="Nordre Slevik" />
		<tag k="place" v="farm" />
		<tag k="ssr:stedsnr" v="963382" />
	</node>
	<node id="-11355" lat="59.5749472214" lon="11.5356277779">
		<tag k="alt_name" v="Ådalsfoss øvre" />
		<tag k="name" v="Øvre Ådalsfoss" />
		<tag k="place" v="locality" />
		<tag k="ssr:stedsnr" v="52219" />
	</node>
	<node id="-11354" lat="59.6183750006" lon="11.5519722164">
		<tag k="name" v="Jerusalem" />
		<tag k="place" v="farm" />
		<tag k="ssr:stedsnr" v="52218" />
	</node>
	<node id="-11351" lat="59.5803944451" lon="11.5567638972">
		<tag k="name" v="Mølle" />
		<tag k="place" v="locality" />
		<tag k="ssr:stedsnr" v="52210" />
	</node>
	<node id="-11346" lat="59.6329666677" lon="11.6066583342">
		<tag k="loc_name" v="Nord Enga" />
		<tag k="name" v="Nedre Enga" />
		<tag k="place" v="farm" />
		<tag k="ssr:stedsnr" v="52136" />
	</node>
	<node id="-12131" lat="59.4795111126" lon="11.6610111167">
		<tag k="name" v="Brårud" />
		<tag k="place" v="farm" />
		<tag k="ssr:stedsnr" v="487632" />
	</node>
	<node id="-13392" lat="59.4849083294" lon="11.582427786">
		<tag k="name" v="Lysholm" />
		<tag k="place" v="isolated_dwelling" />
		<tag k="ssr:stedsnr" v="962910" />
	</node>
	<node id="-11342" lat="59.4931888888" lon="11.6973361097">
		<tag k="name" v="Herkerud" />
		<tag k="place" v="locality" />
		<tag k="ssr:stedsnr" v="52103" />
	</node>
	<node id="-13388" lat="59.6139888891" lon="11.569547231">
		<tag k="alt_name" v="Rakkestad nordre" />
		<tag k="name" v="Nordre Rakkestad" />
		<tag k="place" v="farm" />
		<tag k="ssr:stedsnr" v="962892" />
	</node>
	<node id="-11337" lat="59.5504333337" lon="11.5745249987">
		<tag k="name" v="Nordre Røen" />
		<tag k="place" v="farm" />
		<tag k="ssr:stedsnr" v="52052" />
	</node>
	<node id="-11336" lat="59.4776361147" lon="11.7331472211">
		<tag k="name" v="Nordre Håby" />
		<tag k="place" v="locality" />
		<tag k="ssr:stedsnr" v="52022" />
	</node>
	<node id="-13382" lat="59.3522555548" lon="11.7767916647">
		<tag k="name" v="Ødegården" />
		<tag k="place" v="locality" />
		<tag k="ssr:stedsnr" v="962781" />
	</node>
	<node id="-13375" lat="59.6023388881" lon="11.6326972211">
		<tag k="name" v="Tangen" />
		<tag k="place" v="farm" />
		<tag k="ssr:stedsnr" v="962657" />
	</node>
	<node id="-13373" lat="59.5486277781" lon="11.5544416614">
		<tag k="name" v="Holta" />
		<tag k="place" v="farm" />
		<tag k="ssr:stedsnr" v="962561" />
	</node>
	<node id="-11321" lat="59.4260305565" lon="11.6087611094">
		<tag k="name" v="Holmetjernhytta" />
		<tag k="place" v="isolated_dwelling" />
		<tag k="ssr:stedsnr" v="51790" />
	</node>
	<node id="-11320" lat="59.4305972185" lon="11.6704638818">
		<tag k="alt_name" v="Sandtorp øvre" />
		<tag k="name" v="Øvre Sandtorp" />
		<tag k="place" v="farm" />
		<tag k="ssr:stedsnr" v="51658" />
	</node>
	<node id="-11319" lat="59.5414222209" lon="11.5746138967">
		<tag k="name" v="Oretap" />
		<tag k="place" v="farm" />
		<tag k="ssr:stedsnr" v="51542" />
	</node>
	<node id="-13365" lat="59.4630666672" lon="11.6713499974">
		<tag k="alt_name" v="Rud vestre" />
		<tag k="name" v="Vestre Rud" />
		<tag k="place" v="farm" />
		<tag k="ssr:stedsnr" v="962490" />
	</node>
	<node id="-11316" lat="59.5480666676" lon="11.6281222161">
		<tag k="name" v="Gåseby" />
		<tag k="place" v="farm" />
		<tag k="ssr:stedsnr" v="51447" />
	</node>
	<node id="-11313" lat="59.3720416631" lon="11.6448555484">
		<tag k="name" v="Nordre Søgård" />
		<tag k="place" v="farm" />
		<tag k="ssr:stedsnr" v="51344" />
	</node>
	<node id="-11101" lat="59.5868388871" lon="11.5691166753">
		<tag k="fixme" v="consider place=hamlet" />
		<tag k="name" v="Folkenborg" />
		<tag k="place" v="farm" />
		<tag k="ssr:stedsnr" v="368480" />
	</node>
	<node id="-11307" lat="59.5783673193" lon="11.615699592">
		<tag k="alt_name" v="Degnes lille;Degnes" />
		<tag k="name" v="Lille Degnes" />
		<tag k="place" v="farm" />
		<tag k="ssr:stedsnr" v="4437" />
	</node>
	<node id="-11306" lat="59.5249583377" lon="11.7038527787">
		<tag k="name" v="Svartvasshytta" />
		<tag k="place" v="isolated_dwelling" />
		<tag k="ssr:stedsnr" v="4381" />
	</node>
	<node id="-11305" lat="59.5111888925" lon="11.6717805595">
		<tag k="alt_name" v="Bergerøygården" />
		<tag k="name" v="Bergerødegården" />
		<tag k="place" v="farm" />
		<tag k="ssr:stedsnr" v="4372" />
	</node>
	<node id="-11304" lat="59.5080249966" lon="11.713705561">
		<tag k="name" v="Butjernhytta" />
		<tag k="place" v="locality" />
		<tag k="ssr:stedsnr" v="4360" />
	</node>
	<node id="-11302" lat="59.3397388924" lon="11.788469447">
		<tag k="name" v="Kjøna" />
		<tag k="old_name" v="Kjona;Kjønen" />
		<tag k="place" v="farm" />
		<tag k="ssr:stedsnr" v="3722" />
	</node>
	<node id="-11301" lat="59.3513444486" lon="11.7098388828">
		<tag k="alt_name" v="Otteid;Otteid vestre" />
		<tag k="name" v="Vestre Otteid" />
		<tag k="place" v="locality" />
		<tag k="ssr:stedsnr" v="3701" />
	</node>
	<node id="-11300" lat="59.3537764225" lon="11.6530837791">
		<tag k="alt_name" v="Sambøl" />
		<tag k="name" v="Nordre Sambøl" />
		<tag k="place" v="farm" />
		<tag k="ssr:stedsnr" v="3699" />
	</node>
	<node id="-13345" lat="59.5439805593" lon="11.6679888899">
		<tag k="name" v="Sandbekk" />
		<tag k="place" v="isolated_dwelling" />
		<tag k="ssr:stedsnr" v="962363" />
	</node>
	<node id="-13344" lat="59.5392694455" lon="11.6690333353">
		<tag k="name" v="Gråberg" />
		<tag k="place" v="isolated_dwelling" />
		<tag k="ssr:stedsnr" v="962358" />
	</node>
	<node id="-11294" lat="59.3832250011" lon="11.626797224">
		<tag k="name" v="Bråten" />
		<tag k="place" v="isolated_dwelling" />
		<tag k="ssr:stedsnr" v="3501" />
	</node>
	<node id="-11292" lat="59.4128750001" lon="11.6423305633">
		<tag k="name" v="Nygård" />
		<tag k="place" v="farm" />
		<tag k="ssr:stedsnr" v="3477" />
	</node>
	<node id="-13339" lat="59.4920805575" lon="11.6923194379">
		<tag k="name" v="Nordenga" />
		<tag k="place" v="farm" />
		<tag k="ssr:stedsnr" v="962285" />
	</node>
	<node id="-13337" lat="59.5019888895" lon="11.6849250061">
		<tag k="name" v="Østenga" />
		<tag k="place" v="locality" />
		<tag k="ssr:stedsnr" v="962241" />
	</node>
	<node id="-13336" lat="59.631672218" lon="11.5643527854">
		<tag k="alt_name" v="Setra søndre" />
		<tag k="name" v="Søndre Setra" />
		<tag k="place" v="farm" />
		<tag k="ssr:stedsnr" v="962240" />
	</node>
	<node id="-11287" lat="59.5599888929" lon="11.5748999987">
		<tag k="fixme" v="consider place=hamlet" />
		<tag k="name" v="Grav" />
		<tag k="place" v="farm" />
		<tag k="ssr:stedsnr" v="3437" />
	</node>
	<node id="-11280" lat="59.4494055514" lon="11.579472229">
		<tag k="name" v="Villaen" />
		<tag k="place" v="isolated_dwelling" />
		<tag k="ssr:stedsnr" v="2612" />
	</node>
	<node id="-11278" lat="59.4853983901" lon="11.6968627123">
		<tag k="fixme" v="consider place=hamlet" />
		<tag k="name" v="Nysterud" />
		<tag k="place" v="farm" />
		<tag k="ssr:stedsnr" v="2576" />
	</node>
	<node id="-11277" lat="59.4283138848" lon="11.7238777756">
		<tag k="alt_name" v="Sørengen" />
		<tag k="name" v="Sørenga" />
		<tag k="place" v="farm" />
		<tag k="ssr:stedsnr" v="2538" />
	</node>
	<node id="-13320" lat="59.6296472223" lon="11.62481389">
		<tag k="name" v="Fossneset" />
		<tag k="place" v="farm" />
		<tag k="ssr:stedsnr" v="962128" />
	</node>
	<node id="-13319" lat="59.4847972235" lon="11.6968249965">
		<tag k="name" v="Søndre Nysterud" />
		<tag k="place" v="farm" />
		<tag k="ssr:stedsnr" v="962115" />
	</node>
	<node id="-13314" lat="59.558416665" lon="11.5865333401">
		<tag k="alt_name" v="Toketorp nordre" />
		<tag k="name" v="Nordre Toketorp" />
		<tag k="place" v="locality" />
		<tag k="ssr:stedsnr" v="962060" />
	</node>
	<node id="-11260" lat="59.553366664" lon="11.625863889">
		<tag k="name" v="Slupstad" />
		<tag k="place" v="farm" />
		<tag k="ssr:stedsnr" v="899149" />
	</node>
	<node id="-13302" lat="59.4027249976" lon="11.698386106">
		<tag k="name" v="Østre Stikle" />
		<tag k="place" v="farm" />
		<tag k="ssr:stedsnr" v="961598" />
	</node>
	<node id="-11253" lat="59.3416666632" lon="11.7370527739">
		<tag k="name" v="Trulsebakken" />
		<tag k="place" v="isolated_dwelling" />
		<tag k="ssr:stedsnr" v="477825" />
	</node>
	<node id="-11252" lat="59.4773527821" lon="11.6580500009">
		<tag k="amenity" v="school" />
		<tag k="name" v="Ørje skole" />
		<tag k="ssr:stedsnr" v="477756" />
	</node>
	<node id="-11251" lat="59.4795222179" lon="11.6591749985">
		<tag k="amenity" v="townhall" />
		<tag k="name" v="Marker rådhus" />
		<tag k="ssr:stedsnr" v="477755" />
	</node>
	<node id="-13298" lat="59.5303472241" lon="11.5980361135">
		<tag k="name" v="Dal" />
		<tag k="place" v="farm" />
		<tag k="ssr:stedsnr" v="961429" />
	</node>
	<node id="-11249" lat="59.450266671" lon="11.6930499918">
		<tag k="name" v="Granlund" />
		<tag k="place" v="isolated_dwelling" />
		<tag k="ssr:stedsnr" v="477745" />
	</node>
	<node id="-11242" lat="59.6130444423" lon="11.5575777735">
		<tag k="name" v="Storløsødegården" />
		<tag k="place" v="farm" />
		<tag k="ssr:stedsnr" v="477560" />
	</node>
	<node id="-13286" lat="59.5423194411" lon="11.633180553">
		<tag k="fixme" v="consider place=hamlet" />
		<tag k="name" v="Stillesby" />
		<tag k="place" v="farm" />
		<tag k="ssr:stedsnr" v="914500" />
	</node>
	<node id="-13285" lat="59.5912416698" lon="11.5290555613">
		<tag k="alt_name" v="Sameiet" />
		<tag k="name" v="Sameie" />
		<tag k="place" v="farm" />
		<tag k="ssr:stedsnr" v="914462" />
	</node>
	<node id="-13284" lat="59.5858250042" lon="11.5546527868">
		<tag k="fixme" v="consider place=hamlet" />
		<tag k="name" v="Klerud" />
		<tag k="place" v="farm" />
		<tag k="ssr:stedsnr" v="914460" />
	</node>
	<node id="-13282" lat="59.528963889" lon="11.6707277781">
		<tag k="name" v="Karlstad" />
		<tag k="place" v="farm" />
		<tag k="ssr:stedsnr" v="914396" />
	</node>
	<node id="-13281" lat="59.5252305536" lon="11.6341972298">
		<tag k="name" v="Klund" />
		<tag k="place" v="farm" />
		<tag k="ssr:stedsnr" v="914392" />
	</node>
	<node id="-13280" lat="59.5265861083" lon="11.5797611118">
		<tag k="name" v="Kamperud" />
		<tag k="place" v="farm" />
		<tag k="ssr:stedsnr" v="914390" />
	</node>
	<node id="-11088" lat="59.3999027775" lon="11.7410472172">
		<tag k="name" v="Engsrud" />
		<tag k="place" v="farm" />
		<tag k="ssr:stedsnr" v="367466" />
	</node>
	<node id="-13278" lat="59.3551638912" lon="11.6828166731">
		<tag k="name" v="Knoll" />
		<tag k="place" v="farm" />
		<tag k="ssr:stedsnr" v="913702" />
	</node>
	<node id="-13276" lat="59.369627781" lon="11.6843111061">
		<tag k="name" v="Nesebråten" />
		<tag k="place" v="farm" />
		<tag k="ssr:stedsnr" v="913668" />
	</node>
	<node id="-13275" lat="59.4523194483" lon="11.7330611049">
		<tag k="name" v="Sloreby" />
		<tag k="place" v="farm" />
		<tag k="ssr:stedsnr" v="913588" />
	</node>
	<node id="-13271" lat="59.4334805534" lon="11.7036027774">
		<tag k="name" v="Bergbråten" />
		<tag k="place" v="farm" />
		<tag k="ssr:stedsnr" v="913479" />
	</node>
	<node id="-13270" lat="59.4307555548" lon="11.7527833366">
		<tag k="alt_name" v="Fjellenga" />
		<tag k="name" v="Fjellingen" />
		<tag k="place" v="isolated_dwelling" />
		<tag k="ssr:stedsnr" v="913475" />
	</node>
	<node id="-13269" lat="59.4618213287" lon="11.6940191253">
		<tag k="name" v="Østre Krosby" />
		<tag k="place" v="farm" />
		<tag k="ssr:stedsnr" v="910835" />
	</node>
	<node id="-13268" lat="59.5596444411" lon="11.6318416636">
		<tag k="name" v="Brodal" />
		<tag k="place" v="farm" />
		<tag k="ssr:stedsnr" v="903938" />
	</node>
	<node id="-11219" lat="59.5957638893" lon="11.6326277769">
		<tag k="name" v="Tørkås" />
		<tag k="place" v="locality" />
		<tag k="ssr:stedsnr" v="477323" />
	</node>
	<node id="-13264" lat="59.6033722212" lon="11.5939777865">
		<tag k="name" v="Holmen" />
		<tag k="place" v="farm" />
		<tag k="ssr:stedsnr" v="902940" />
	</node>
	<node id="-11213" lat="59.5685916707" lon="11.5785666706">
		<tag k="alt_name" v="Vikeby mellem" />
		<tag k="name" v="Mellom-Vikeby" />
		<tag k="place" v="farm" />
		<tag k="ssr:stedsnr" v="477245" />
	</node>
	<node id="-11209" lat="59.5908361137" lon="11.5524888915">
		<tag k="name" v="Orekleiva" />
		<tag k="place" v="farm" />
		<tag k="ssr:stedsnr" v="477193" />
	</node>
	<node id="-11202" lat="59.5891833324" lon="11.5795777853">
		<tag k="name" v="Krone" />
		<tag k="place" v="farm" />
		<tag k="ssr:stedsnr" v="477160" />
	</node>
	<node id="-13249" lat="59.5944222189" lon="11.5194999966">
		<tag k="name" v="Kongsbakk" />
		<tag k="place" v="farm" />
		<tag k="ssr:stedsnr" v="902549" />
	</node>
	<node id="-11200" lat="59.617399999" lon="11.6083416706">
		<tag k="alt_name" v="Krok østre" />
		<tag k="name" v="Østre Krok" />
		<tag k="place" v="farm" />
		<tag k="ssr:stedsnr" v="477150" />
	</node>
	<node id="-13240" lat="59.6676166654" lon="11.6542111093">
		<tag k="name" v="Kjøkkenet" />
		<tag k="place" v="locality" />
		<tag k="ssr:stedsnr" v="902463" />
	</node>
	<node id="-11080" lat="59.4949388864" lon="11.7159750078">
		<tag k="alt_name" v="Allerud" />
		<tag k="name" v="Alerud" />
		<tag k="place" v="locality" />
		<tag k="ssr:stedsnr" v="366588" />
	</node>
	<node id="-11182" lat="59.3900555513" lon="11.6275722236">
		<tag k="name" v="Langedal" />
		<tag k="place" v="locality" />
		<tag k="ssr:stedsnr" v="476819" />
	</node>
	<node id="-13227" lat="59.5118055594" lon="11.6679222203">
		<tag k="name" v="Bergerødegården" />
		<tag k="place" v="farm" />
		<tag k="ssr:stedsnr" v="902280" />
	</node>
	<node id="-13226" lat="59.5131333325" lon="11.6592583403">
		<tag k="alt_name" v="Sukken nordre" />
		<tag k="name" v="Nordre Sukken" />
		<tag k="place" v="farm" />
		<tag k="ssr:stedsnr" v="902279" />
	</node>
	<node id="-13224" lat="59.4896166654" lon="11.6581861125">
		<tag k="name" v="Vestre Mosebyødegården" />
		<tag k="place" v="farm" />
		<tag k="ssr:stedsnr" v="902228" />
	</node>
	<node id="-11169" lat="59.403341667" lon="11.6941694502">
		<tag k="name" v="Vestre Stikle" />
		<tag k="place" v="farm" />
		<tag k="ssr:stedsnr" v="476577" />
	</node>
	<node id="-11165" lat="59.6347055599" lon="11.6930222176">
		<tag k="name" v="Østre Jåvallsetra" />
		<tag k="place" v="locality" />
		<tag k="ssr:stedsnr" v="476549" />
	</node>
	<node id="-13212" lat="59.639713885" lon="11.5771027713">
		<tag k="loc_name" v="Skirfoss" />
		<tag k="name" v="Fossen" />
		<tag k="place" v="locality" />
		<tag k="ssr:stedsnr" v="902088" />
	</node>
	<node id="-11163" lat="59.3878888929" lon="11.6639333381">
		<tag k="name" v="Ytterbøl" />
		<tag k="place" v="isolated_dwelling" />
		<tag k="ssr:stedsnr" v="476520" />
	</node>
	<node id="-13210" lat="59.6413305597" lon="11.5894194407">
		<tag k="name" v="Svelta" />
		<tag k="place" v="locality" />
		<tag k="ssr:stedsnr" v="902083" />
	</node>
	<node id="-11157" lat="59.3853944437" lon="11.6791666601">
		<tag k="name" v="Herrud" />
		<tag k="place" v="farm" />
		<tag k="ssr:stedsnr" v="476494" />
	</node>
	<node id="-11149" lat="59.5403388931" lon="11.6298916655">
		<tag k="name" v="Søby" />
		<tag k="place" v="farm" />
		<tag k="ssr:stedsnr" v="476389" />
	</node>
	<node id="-13193" lat="59.4803027815" lon="11.5962750076">
		<tag k="name" v="Jonsvik" />
		<tag k="place" v="isolated_dwelling" />
		<tag k="ssr:stedsnr" v="901836" />
	</node>
	<node id="-11144" lat="59.3758083298" lon="11.6882694492">
		<tag k="name" v="Kleven" />
		<tag k="place" v="farm" />
		<tag k="ssr:stedsnr" v="476319" />
	</node>
	<node id="-11143" lat="59.3713527793" lon="11.6376722201">
		<tag k="name" v="Søndre Vestgård" />
		<tag k="place" v="farm" />
		<tag k="ssr:stedsnr" v="476283" />
	</node>
	<node id="-10805" lat="59.4061361091" lon="11.7287916674">
		<tag k="name" v="Solheim" />
		<tag k="place" v="farm" />
		<tag k="ssr:stedsnr" v="294622" />
	</node>
	<node id="-13185" lat="59.6019472228" lon="11.6289277772">
		<tag k="name" v="Nordre Ulfsby" />
		<tag k="place" v="locality" />
		<tag k="ssr:stedsnr" v="901761" />
	</node>
	<node id="-13165" lat="59.5387722254" lon="11.6997944387">
		<tag k="name" v="Høgåssetra" />
		<tag k="place" v="locality" />
		<tag k="ssr:stedsnr" v="901416" />
	</node>
	<node id="-13163" lat="59.5385194432" lon="11.6514750017">
		<tag k="name" v="Søndre Høgås" />
		<tag k="place" v="farm" />
		<tag k="ssr:stedsnr" v="901401" />
	</node>
	<node id="-11111" lat="59.5524333353" lon="11.6258972291">
		<tag k="name" v="Slupstad" />
		<tag k="place" v="farm" />
		<tag k="ssr:stedsnr" v="413183" />
	</node>
	<node id="-11103" lat="59.605466664" lon="11.6216111039">
		<tag k="name" v="Haugerud" />
		<tag k="place" v="farm" />
		<tag k="ssr:stedsnr" v="368505" />
	</node>
	<node id="-13149" lat="59.3896611085" lon="11.7406777728">
		<tag k="name" v="Engsåsen" />
		<tag k="place" v="isolated_dwelling" />
		<tag k="ssr:stedsnr" v="858907" />
	</node>
	<node id="-11099" lat="59.5963750017" lon="11.6247499924">
		<tag k="fixme" v="consider place=hamlet" />
		<tag k="name" v="Åseby" />
		<tag k="place" v="farm" />
		<tag k="ssr:stedsnr" v="368476" />
	</node>
	<node id="-13144" lat="59.3566138902" lon="11.7208166657">
		<tag k="name" v="Skinnarbu" />
		<tag k="place" v="farm" />
		<tag k="ssr:stedsnr" v="853702" />
	</node>
	<node id="-13143" lat="59.3639527823" lon="11.78227222">
		<tag k="alt_name" v="Modalen" />
		<tag k="name" v="Modal" />
		<tag k="place" v="farm" />
		<tag k="ssr:stedsnr" v="853686" />
	</node>
	<node id="-13141" lat="59.3351722215" lon="11.7501583324">
		<tag k="name" v="Omvik" />
		<tag k="place" v="farm" />
		<tag k="ssr:stedsnr" v="853611" />
	</node>
	<node id="-13140" lat="59.3905972188" lon="11.6215527734">
		<tag k="alt_name" v="Halvorsrudsetra" />
		<tag k="loc_name" v="Sætret" />
		<tag k="name" v="Sætra" />
		<tag k="place" v="farm" />
		<tag k="ssr:stedsnr" v="853534" />
	</node>
	<node id="-11091" lat="59.3870916702" lon="11.6922249939">
		<tag k="name" v="Volen" />
		<tag k="place" v="farm" />
		<tag k="ssr:stedsnr" v="367493" />
	</node>
	<node id="-13137" lat="59.4057991606" lon="11.7225201275">
		<tag k="name" v="Buer" />
		<tag k="place" v="hamlet" />
		<tag k="ssr:stedsnr" v="853518" />
	</node>
	<node id="-13136" lat="59.3922083353" lon="11.7090527859">
		<tag k="name" v="Solerud" />
		<tag k="place" v="farm" />
		<tag k="ssr:stedsnr" v="853516" />
	</node>
	<node id="-11087" lat="59.4191555546" lon="11.6675166673">
		<tag k="name" v="Øystad" />
		<tag k="place" v="farm" />
		<tag k="ssr:stedsnr" v="367459" />
	</node>
	<node id="-13134" lat="59.5492472212" lon="11.6199499912">
		<tag k="alt_name" v="Gåseby søndre" />
		<tag k="name" v="Søndre Gåseby" />
		<tag k="place" v="farm" />
		<tag k="ssr:stedsnr" v="853468" />
	</node>
	<node id="-11085" lat="59.5350277772" lon="11.5756277842">
		<tag k="fixme" v="consider place=hamlet" />
		<tag k="name" v="Fonnerud" />
		<tag k="place" v="farm" />
		<tag k="ssr:stedsnr" v="367327" />
	</node>
	<node id="-11082" lat="59.4609830029" lon="11.6936997664">
		<tag k="fixme" v="consider place=hamlet" />
		<tag k="loc_name" v="Krosby" />
		<tag k="name" v="Krossby" />
		<tag k="place" v="farm" />
		<tag k="ssr:stedsnr" v="366605" />
	</node>
	<node id="-13129" lat="59.459112517" lon="11.6660541231">
		<tag k="alt_name" v="Ånonby" />
		<tag k="fixme" v="consider place=hamlet" />
		<tag k="name" v="Anonby" />
		<tag k="place" v="farm" />
		<tag k="ssr:stedsnr" v="852588" />
	</node>
	<node id="-13128" lat="59.4624898952" lon="11.6714702309">
		<tag k="fixme" v="consider place=hamlet" />
		<tag k="name" v="Rud" />
		<tag k="place" v="farm" />
		<tag k="ssr:stedsnr" v="852589" />
	</node>
	<node id="-11078" lat="59.4300305552" lon="11.711847222">
		<tag k="alt_name" v="Kasebuholtet" />
		<tag k="name" v="Holtet" />
		<tag k="place" v="farm" />
		<tag k="ssr:stedsnr" v="366531" />
	</node>
	<node id="-11076" lat="59.3470166697" lon="11.6850416679">
		<tag k="fixme" v="consider place=hamlet" />
		<tag k="name" v="Djupvik" />
		<tag k="place" v="farm" />
		<tag k="ssr:stedsnr" v="363435" />
	</node>
	<node id="-11075" lat="59.5013428701" lon="11.6599470511">
		<tag k="fixme" v="consider place=hamlet" />
		<tag k="name" v="Moseby" />
		<tag k="place" v="farm" />
		<tag k="ssr:stedsnr" v="363430" />
	</node>
	<node id="-11074" lat="59.358594443" lon="11.6969916696">
		<tag k="fixme" v="consider place=hamlet" />
		<tag k="name" v="Gunneng" />
		<tag k="place" v="farm" />
		<tag k="ssr:stedsnr" v="358291" />
	</node>
	<node id="-13117" lat="59.3393861095" lon="11.6345777773">
		<tag k="name" v="Flagghytta" />
		<tag k="place" v="isolated_dwelling" />
		<tag k="ssr:stedsnr" v="842348" />
	</node>
	<node id="-13091" lat="59.6098222189" lon="11.56891111">
		<tag k="alt_name" v="Rakkestad vestre" />
		<tag k="name" v="Vestre Rakkestad" />
		<tag k="place" v="farm" />
		<tag k="ssr:stedsnr" v="841892" />
	</node>
	<node id="-12984" lat="59.402949998" lon="11.6983361127">
		<tag k="fixme" v="consider place=hamlet" />
		<tag k="name" v="Stikle" />
		<tag k="place" v="farm" />
		<tag k="ssr:stedsnr" v="792525" />
	</node>
	<node id="-13081" lat="59.6128804784" lon="11.6429329495">
		<tag k="name" v="Østre Tjernsmo" />
		<tag k="place" v="locality" />
		<tag k="ssr:stedsnr" v="841614" />
	</node>
	<node id="-11031" lat="59.4580972245" lon="11.684530563">
		<tag k="name" v="Vangli" />
		<tag k="place" v="isolated_dwelling" />
		<tag k="ssr:stedsnr" v="355631" />
	</node>
	<node id="-13078" lat="59.4062861106" lon="11.7225472219">
		<tag k="alt_name" v="Mellem Buer" />
		<tag k="name" v="Mellom-Buer" />
		<tag k="place" v="farm" />
		<tag k="ssr:stedsnr" v="841582" />
	</node>
	<node id="-11027" lat="59.4042361132" lon="11.7224888874">
		<tag k="name" v="Pilhaug" />
		<tag k="place" v="farm" />
		<tag k="ssr:stedsnr" v="355550" />
	</node>
	<node id="-11026" lat="59.4081888873" lon="11.6896555542">
		<tag k="name" v="Husebråten" />
		<tag k="place" v="isolated_dwelling" />
		<tag k="ssr:stedsnr" v="355549" />
	</node>
	<node id="-11025" lat="59.4005694416" lon="11.6852972253">
		<tag k="name" v="Knappeneset" />
		<tag k="place" v="farm" />
		<tag k="ssr:stedsnr" v="355544" />
	</node>
	<node id="-13072" lat="59.6096083313" lon="11.5444444385">
		<tag k="alt_name" v="Ba søndre" />
		<tag k="name" v="Søndre Ba" />
		<tag k="place" v="farm" />
		<tag k="ssr:stedsnr" v="841524" />
	</node>
	<node id="-11019" lat="59.4277166691" lon="11.7271611197">
		<tag k="name" v="Labråten" />
		<tag k="place" v="farm" />
		<tag k="ssr:stedsnr" v="355490" />
	</node>
	<node id="-13066" lat="59.431799999" lon="11.7282833348">
		<tag k="name" v="Østebu" />
		<tag k="place" v="farm" />
		<tag k="ssr:stedsnr" v="841514" />
	</node>
	<node id="-11017" lat="59.3964527792" lon="11.677977782">
		<tag k="name" v="Kasene" />
		<tag k="place" v="isolated_dwelling" />
		<tag k="ssr:stedsnr" v="355488" />
	</node>
	<node id="-13064" lat="59.3949388905" lon="11.7305500046">
		<tag k="name" v="Eng" />
		<tag k="place" v="farm" />
		<tag k="ssr:stedsnr" v="841502" />
	</node>
	<node id="-13063" lat="59.3845194483" lon="11.6802583387">
		<tag k="name" v="Herrud" />
		<tag k="place" v="farm" />
		<tag k="ssr:stedsnr" v="841488" />
	</node>
	<node id="-13062" lat="59.5232222209" lon="11.6151722142">
		<tag k="name" v="Kåtorp" />
		<tag k="place" v="farm" />
		<tag k="ssr:stedsnr" v="841487" />
	</node>
	<node id="-11010" lat="59.4450277741" lon="11.653166663">
		<tag k="name" v="Sundbråten" />
		<tag k="place" v="locality" />
		<tag k="ssr:stedsnr" v="355470" />
	</node>
	<node id="-11006" lat="59.3878277782" lon="11.6919166621">
		<tag k="name" v="Volen" />
		<tag k="place" v="farm" />
		<tag k="ssr:stedsnr" v="355460" />
	</node>
	<node id="-13052" lat="59.5327722213" lon="11.6730277817">
		<tag k="name" v="Stillesbysetra" />
		<tag k="place" v="farm" />
		<tag k="ssr:stedsnr" v="841428" />
	</node>
	<node id="-11002" lat="59.6461638916" lon="11.6696055608">
		<tag k="name" v="Mikaelskoia" />
		<tag k="place" v="locality" />
		<tag k="ssr:stedsnr" v="355430" />
	</node>
	<node id="-13045" lat="59.5454638886" lon="11.6422722309">
		<tag k="name" v="Skogstad" />
		<tag k="place" v="farm" />
		<tag k="ssr:stedsnr" v="841391" />
	</node>
	<node id="-13044" lat="59.5450083377" lon="11.6659833354">
		<tag k="name" v="Sandåker" />
		<tag k="place" v="farm" />
		<tag k="ssr:stedsnr" v="841386" />
	</node>
	<node id="-13040" lat="59.5692388901" lon="11.5795555507">
		<tag k="alt_name" v="Vikeby søndre" />
		<tag k="name" v="Søndre Vikeby" />
		<tag k="place" v="farm" />
		<tag k="ssr:stedsnr" v="841245" />
	</node>
	<node id="-10989" lat="59.5418472209" lon="11.6295666727">
		<tag k="alt_name" v="Stillesby vestre" />
		<tag k="name" v="Vestre Stillesby" />
		<tag k="place" v="farm" />
		<tag k="ssr:stedsnr" v="355362" />
	</node>
	<node id="-13035" lat="59.5837083353" lon="11.5609638948">
		<tag k="alt_name" v="Klerud østre" />
		<tag k="name" v="Østre Klerud" />
		<tag k="place" v="farm" />
		<tag k="ssr:stedsnr" v="841224" />
	</node>
	<node id="-13034" lat="59.5023611101" lon="11.6773388808">
		<tag k="name" v="Nordre Engerbråten" />
		<tag k="place" v="farm" />
		<tag k="ssr:stedsnr" v="841211" />
	</node>
	<node id="-13028" lat="59.622158331" lon="11.6205944391">
		<tag k="alt_name" v="Tukken søndre" />
		<tag k="name" v="Søndre Tukken" />
		<tag k="place" v="farm" />
		<tag k="ssr:stedsnr" v="841138" />
	</node>
	<node id="-13022" lat="59.5605944464" lon="11.5896055487">
		<tag k="alt_name" v="Huser nordre" />
		<tag k="name" v="Nordre Huser" />
		<tag k="place" v="farm" />
		<tag k="ssr:stedsnr" v="841038" />
	</node>
	<node id="-10970" lat="59.5877999996" lon="11.5686277801">
		<tag k="alt_name" v="Folkenborg øvre" />
		<tag k="name" v="Øvre Folkenborg" />
		<tag k="place" v="farm" />
		<tag k="ssr:stedsnr" v="355164" />
	</node>
	<node id="-13016" lat="59.3866083332" lon="11.7362555511">
		<tag k="name" v="Engsødegården" />
		<tag k="place" v="farm" />
		<tag k="ssr:stedsnr" v="840883" />
	</node>
	<node id="-10967" lat="59.63984722" lon="11.6071388919">
		<tag k="fixme" v="multiple name tags, choose one and add the other to alt_name" />
		<tag k="name" v="Nordre Oppsal;Nordgarden" />
		<tag k="old_name" v="Opsal" />
		<tag k="place" v="farm" />
		<tag k="ssr:stedsnr" v="355111" />
	</node>
	<node id="-10966" lat="59.6372722256" lon="11.6074000084">
		<tag k="loc_name" v="Ødegården S" />
		<tag k="name" v="Ødegård" />
		<tag k="place" v="farm" />
		<tag k="ssr:stedsnr" v="355109" />
	</node>
	<node id="-13012" lat="59.3554611082" lon="11.7738861058">
		<tag k="name" v="Søndre Torgrimsby" />
		<tag k="place" v="farm" />
		<tag k="ssr:stedsnr" v="840821" />
	</node>
	<node id="-10961" lat="59.5526361098" lon="11.5718083336">
		<tag k="name" v="Bråten" />
		<tag k="place" v="farm" />
		<tag k="ssr:stedsnr" v="355056" />
	</node>
	<node id="-10960" lat="59.5597666662" lon="11.5746694412">
		<tag k="alt_name" v="Grav øvre" />
		<tag k="name" v="Øvre Grav" />
		<tag k="place" v="farm" />
		<tag k="ssr:stedsnr" v="355039" />
	</node>
	<node id="-13007" lat="59.4278027746" lon="11.6681638971">
		<tag k="name" v="Sandtorpmoen" />
		<tag k="place" v="isolated_dwelling" />
		<tag k="ssr:stedsnr" v="840625" />
	</node>
	<node id="-13004" lat="59.5379833338" lon="11.5980416727">
		<tag k="name" v="Kjenner" />
		<tag k="place" v="farm" />
		<tag k="ssr:stedsnr" v="840435" />
	</node>
	<node id="-13003" lat="59.5293277776" lon="11.5941722264">
		<tag k="alt_name" v="Krosbyhagen" />
		<tag k="name" v="Krossbyhagen" />
		<tag k="place" v="farm" />
		<tag k="ssr:stedsnr" v="840409" />
	</node>
	<node id="-12999" lat="59.3715833291" lon="11.6448916603">
		<tag k="name" v="Søndre Søgård" />
		<tag k="place" v="farm" />
		<tag k="ssr:stedsnr" v="840297" />
	</node>
	<node id="-12994" lat="59.4375416679" lon="11.6880166703">
		<tag k="name" v="Lømbu" />
		<tag k="place" v="locality" />
		<tag k="ssr:stedsnr" v="829528" />
	</node>
	<node id="-12993" lat="59.5714000022" lon="11.587405549">
		<tag k="fixme" v="multiple name tags, choose one and add the other to alt_name" />
		<tag k="name" v="Launes;Søndre Vikeby" />
		<tag k="place" v="farm" />
		<tag k="ssr:stedsnr" v="829500" />
	</node>
	<node id="-12991" lat="59.5513555585" lon="11.5514111087">
		<tag k="name" v="Hiåsen" />
		<tag k="place" v="isolated_dwelling" />
		<tag k="ssr:stedsnr" v="796050" />
	</node>
	<node id="-12989" lat="59.343077779" lon="11.7514138855">
		<tag k="alt_name" v="Gjøsbu" />
		<tag k="name" v="Gysbu" />
		<tag k="place" v="farm" />
		<tag k="ssr:stedsnr" v="792722" />
	</node>
	<node id="-12988" lat="59.3446805598" lon="11.7165722277">
		<tag k="name" v="Labråten" />
		<tag k="place" v="isolated_dwelling" />
		<tag k="ssr:stedsnr" v="792719" />
	</node>
	<node id="-12986" lat="59.3882416663" lon="11.6498000011">
		<tag k="name" v="Duenes" />
		<tag k="place" v="farm" />
		<tag k="ssr:stedsnr" v="792534" />
	</node>
	<node id="-10936" lat="59.3729611123" lon="11.6372694478">
		<tag k="name" v="Nordre Vestgård" />
		<tag k="place" v="farm" />
		<tag k="ssr:stedsnr" v="354308" />
	</node>
	<node id="-12983" lat="59.3957833288" lon="11.7340888907">
		<tag k="name" v="Eng" />
		<tag k="place" v="farm" />
		<tag k="ssr:stedsnr" v="792516" />
	</node>
	<node id="-12982" lat="59.4240805538" lon="11.6484944411">
		<tag k="name" v="Bernhus" />
		<tag k="place" v="farm" />
		<tag k="ssr:stedsnr" v="792496" />
	</node>
	<node id="-12976" lat="59.4385472264" lon="11.688466671">
		<tag k="name" v="Nordre Lømbu" />
		<tag k="old_name" v="Østre Lømbu" />
		<tag k="place" v="farm" />
		<tag k="ssr:stedsnr" v="791595" />
	</node>
	<node id="-10927" lat="59.3900222256" lon="11.7362666736">
		<tag k="alt_name" v="Taskerud;Taskerud søndre" />
		<tag k="name" v="Søndre Taskerud" />
		<tag k="place" v="farm" />
		<tag k="ssr:stedsnr" v="307547" />
	</node>
	<node id="-12972" lat="59.3826749959" lon="11.6380416656">
		<tag k="alt_name" v="Halvorsrud, søndre;Halvorsrud" />
		<tag k="name" v="Søndre Halvorsrud" />
		<tag k="place" v="farm" />
		<tag k="ssr:stedsnr" v="791535" />
	</node>
	<node id="-12971" lat="59.4335499977" lon="11.6529027797">
		<tag k="alt_name" v="Djupedal nordre;Dypedal nordre" />
		<tag k="name" v="Nordre Djupedal" />
		<tag k="place" v="farm" />
		<tag k="ssr:stedsnr" v="791501" />
	</node>
	<node id="-12970" lat="59.4328499954" lon="11.6902194528">
		<tag k="name" v="Botner" />
		<tag k="place" v="farm" />
		<tag k="ssr:stedsnr" v="791498" />
	</node>
	<node id="-12969" lat="59.5935305594" lon="11.6202777739">
		<tag k="fixme" v="consider place=hamlet" />
		<tag k="name" v="Hen" />
		<tag k="place" v="farm" />
		<tag k="ssr:stedsnr" v="788449" />
	</node>
	<node id="-12968" lat="59.6054222222" lon="11.5559166648">
		<tag k="alt_name" v="Skislet" />
		<tag k="name" v="Skislett" />
		<tag k="place" v="farm" />
		<tag k="ssr:stedsnr" v="793508" />
	</node>
	<node id="-12967" lat="59.605586115" lon="11.5323638839">
		<tag k="fixme" v="consider place=hamlet" />
		<tag k="name" v="Skrikerud" />
		<tag k="place" v="farm" />
		<tag k="ssr:stedsnr" v="793503" />
	</node>
	<node id="-12966" lat="59.6165527751" lon="11.6044388903">
		<tag k="fixme" v="consider place=hamlet" />
		<tag k="name" v="Krok" />
		<tag k="place" v="farm" />
		<tag k="ssr:stedsnr" v="793499" />
	</node>
	<node id="-10917" lat="59.6198555582" lon="11.5765527863">
		<tag k="alt_name" v="Levik" />
		<tag k="name" v="Lervik" />
		<tag k="place" v="farm" />
		<tag k="ssr:stedsnr" v="307321" />
	</node>
	<node id="-12964" lat="59.5931166693" lon="11.5580666739">
		<tag k="alt_name" v="Sandem" />
		<tag k="name" v="Sandum" />
		<tag k="place" v="farm" />
		<tag k="ssr:stedsnr" v="793492" />
	</node>
	<node id="-12963" lat="59.5134055545" lon="11.6587611031">
		<tag k="fixme" v="consider place=hamlet" />
		<tag k="name" v="Sukken" />
		<tag k="place" v="farm" />
		<tag k="ssr:stedsnr" v="793404" />
	</node>
	<node id="-12962" lat="59.5135916634" lon="11.6470555553">
		<tag k="name" v="Gromholt" />
		<tag k="place" v="farm" />
		<tag k="ssr:stedsnr" v="793403" />
	</node>
	<node id="-10913" lat="59.4953388933" lon="11.6381388846">
		<tag k="fixme" v="consider place=hamlet" />
		<tag k="name" v="Ysterud" />
		<tag k="place" v="farm" />
		<tag k="ssr:stedsnr" v="306536" />
	</node>
	<node id="-13139" lat="59.3835638849" lon="11.6224527688">
		<tag k="name" v="Hagen" />
		<tag k="place" v="isolated_dwelling" />
		<tag k="ssr:stedsnr" v="853520" />
	</node>
	<node id="-10898" lat="59.5871166665" lon="11.6140388897">
		<tag k="name" v="Orderud søndre" />
		<tag k="place" v="farm" />
		<tag k="ssr:stedsnr" v="295752" />
	</node>
	<node id="-10896" lat="59.4690166628" lon="11.6527527799">
		<tag k="name" v="Liødegården" />
		<tag k="place" v="locality" />
		<tag k="ssr:stedsnr" v="295710" />
	</node>
	<node id="-10893" lat="59.4363194433" lon="11.7049583389">
		<tag k="fixme" v="multiple name tags, choose one and add the other to alt_name" />
		<tag k="name" v="Kasbuhagen;Hagen" />
		<tag k="place" v="locality" />
		<tag k="ssr:stedsnr" v="295613" />
	</node>
	<node id="-10892" lat="59.4363583378" lon="11.6851888857">
		<tag k="name" v="Søndre Lømbu" />
		<tag k="old_name" v="Vestre Lømbu" />
		<tag k="place" v="farm" />
		<tag k="ssr:stedsnr" v="295612" />
	</node>
	<node id="-10889" lat="59.6337388875" lon="11.6291611188">
		<tag k="name" v="Sandbakken" />
		<tag k="place" v="locality" />
		<tag k="ssr:stedsnr" v="295555" />
	</node>
	<node id="-10886" lat="59.617958334" lon="11.5599027737">
		<tag k="name" v="Storløs" />
		<tag k="place" v="farm" />
		<tag k="ssr:stedsnr" v="295540" />
	</node>
	<node id="-10883" lat="59.4251888921" lon="11.6887833248">
		<tag k="name" v="Østli" />
		<tag k="place" v="isolated_dwelling" />
		<tag k="ssr:stedsnr" v="295535" />
	</node>
	<node id="-10881" lat="59.599324999" lon="11.5682333259">
		<tag k="name" v="Glundberg" />
		<tag k="place" v="farm" />
		<tag k="ssr:stedsnr" v="295531" />
	</node>
	<node id="-12928" lat="59.588844441" lon="11.6143666708">
		<tag k="name" v="Nordre Olerud" />
		<tag k="old_name" v="Orderud nordre" />
		<tag k="place" v="farm" />
		<tag k="ssr:stedsnr" v="780694" />
	</node>
	<node id="-12923" lat="59.6086749991" lon="11.6804055521">
		<tag k="name" v="Follkenborgstua" />
		<tag k="place" v="isolated_dwelling" />
		<tag k="ssr:stedsnr" v="780598" />
	</node>
	<node id="-10874" lat="59.6497722179" lon="11.6436388954">
		<tag k="historic" v="shieling" />
		<tag k="name" v="Damvannssetra" />
		<tag k="place" v="locality" />
		<tag k="ssr:stedsnr" v="295462" />
	</node>
	<node id="-12920" lat="59.6134472179" lon="11.6498805531">
		<tag k="loc_name" v="Nedre Jørnhaugen" />
		<tag k="name" v="Jørnhaugen" />
		<tag k="place" v="locality" />
		<tag k="ssr:stedsnr" v="780567" />
	</node>
	<node id="-10865" lat="59.5946305577" lon="11.6313694393">
		<tag k="name" v="Nylenda" />
		<tag k="place" v="locality" />
		<tag k="ssr:stedsnr" v="295311" />
	</node>
	<node id="-12912" lat="59.4027888902" lon="11.6721166678">
		<tag k="name" v="Fløvik" />
		<tag k="place" v="farm" />
		<tag k="ssr:stedsnr" v="780508" />
	</node>
	<node id="-10863" lat="59.5086929335" lon="11.657446795">
		<tag k="alt_name" v="Berger østre" />
		<tag k="name" v="Østre Berger" />
		<tag k="place" v="farm" />
		<tag k="ssr:stedsnr" v="295280" />
	</node>
	<node id="-10862" lat="59.6165222251" lon="11.5330361045">
		<tag k="alt_name" v="Basmo" />
		<tag k="name" v="Basmoen" />
		<tag k="place" v="farm" />
		<tag k="ssr:stedsnr" v="295237" />
	</node>
	<node id="-12883" lat="59.6657888884" lon="11.6312638852">
		<tag k="name" v="Oppsalsetervangen" />
		<tag k="place" v="locality" />
		<tag k="ssr:stedsnr" v="780394" />
	</node>
	<node id="-12864" lat="59.5055055515" lon="11.6264027742">
		<tag k="name" v="Vestre Tyndelsrud" />
		<tag k="place" v="farm" />
		<tag k="ssr:stedsnr" v="780197" />
	</node>
	<node id="-12863" lat="59.5853500041" lon="11.5547111196">
		<tag k="alt_name" v="Klerud nordre" />
		<tag k="name" v="Nordre Klerud" />
		<tag k="place" v="farm" />
		<tag k="ssr:stedsnr" v="780184" />
	</node>
	<node id="-12862" lat="59.5870583297" lon="11.5688555503">
		<tag k="alt_name" v="Folkenborg nedre" />
		<tag k="name" v="Nedre Folkenborg" />
		<tag k="place" v="farm" />
		<tag k="ssr:stedsnr" v="780169" />
	</node>
	<node id="-12858" lat="59.6156916629" lon="11.6042888943">
		<tag k="alt_name" v="Krok søndre" />
		<tag k="name" v="Søndre Krok" />
		<tag k="place" v="farm" />
		<tag k="ssr:stedsnr" v="780142" />
	</node>
	<node id="-12857" lat="59.6155361085" lon="11.6166555555">
		<tag k="name" v="Vispa" />
		<tag k="place" v="farm" />
		<tag k="ssr:stedsnr" v="780133" />
	</node>
	<node id="-13065" lat="59.4289444426" lon="11.6866305533">
		<tag k="name" v="Svingen" />
		<tag k="place" v="farm" />
		<tag k="ssr:stedsnr" v="841509" />
	</node>
	<node id="-12849" lat="59.4903416702" lon="11.681527783">
		<tag k="name" v="Søndre Sletta" />
		<tag k="place" v="farm" />
		<tag k="ssr:stedsnr" v="780021" />
	</node>
	<node id="-12847" lat="59.4524666686" lon="11.7354916754">
		<tag k="name" v="Østre Sloreby" />
		<tag k="place" v="farm" />
		<tag k="ssr:stedsnr" v="779919" />
	</node>
	<node id="-12845" lat="59.3978805526" lon="11.7339250008">
		<tag k="name" v="Nordre Eng" />
		<tag k="place" v="farm" />
		<tag k="ssr:stedsnr" v="779905" />
	</node>
	<node id="-10796" lat="59.4880388907" lon="11.6934277758">
		<tag k="name" v="Lømmerud" />
		<tag k="place" v="farm" />
		<tag k="ssr:stedsnr" v="294106" />
	</node>
	<node id="-10795" lat="59.4783416637" lon="11.6853083345">
		<tag k="name" v="Branes" />
		<tag k="place" v="isolated_dwelling" />
		<tag k="ssr:stedsnr" v="294040" />
	</node>
	<node id="-12842" lat="59.4048416686" lon="11.7335000039">
		<tag k="name" v="Buerødegård" />
		<tag k="place" v="farm" />
		<tag k="ssr:stedsnr" v="779888" />
	</node>
	<node id="-11015" lat="59.6053805594" lon="11.5340388881">
		<tag k="alt_name" v="Skrikerud mellem" />
		<tag k="name" v="Mellom-Skrikerud" />
		<tag k="place" v="farm" />
		<tag k="ssr:stedsnr" v="355483" />
	</node>
	<node id="-10786" lat="59.4992611118" lon="11.6321888831">
		<tag k="name" v="Ysterudødegården" />
		<tag k="place" v="farm" />
		<tag k="ssr:stedsnr" v="416203" />
	</node>
	<node id="-12833" lat="59.406549996" lon="11.7072722165">
		<tag k="name" v="Stikle-Ødegården" />
		<tag k="place" v="locality" />
		<tag k="ssr:stedsnr" v="779603" />
	</node>
	<node id="-12830" lat="59.54043611" lon="11.5694083387">
		<tag k="name" v="Granli" />
		<tag k="place" v="farm" />
		<tag k="ssr:stedsnr" v="779456" />
	</node>
	<node id="-12825" lat="59.3558638901" lon="11.7138083368">
		<tag k="name" v="Stordal" />
		<tag k="place" v="isolated_dwelling" />
		<tag k="ssr:stedsnr" v="779263" />
	</node>
	<node id="-12822" lat="59.5619749981" lon="11.6352277759">
		<tag k="alt_name" v="Slustadhagan" />
		<tag k="name" v="Slupstadhagen" />
		<tag k="old_name" v="Hagen" />
		<tag k="place" v="farm" />
		<tag k="ssr:stedsnr" v="732530" />
	</node>
	<node id="-12821" lat="59.5622749995" lon="11.6193138903">
		<tag k="alt_name" v="Vika" />
		<tag k="name" v="Sandvika" />
		<tag k="place" v="farm" />
		<tag k="ssr:stedsnr" v="732528" />
	</node>
	<node id="-12820" lat="59.5591111129" lon="11.6382777844">
		<tag k="name" v="Brattli" />
		<tag k="place" v="farm" />
		<tag k="ssr:stedsnr" v="732508" />
	</node>
	<node id="-12818" lat="59.5948388856" lon="11.5248638895">
		<tag k="name" v="Kongsbakk" />
		<tag k="place" v="farm" />
		<tag k="ssr:stedsnr" v="732485" />
	</node>
	<node id="-12817" lat="59.5924027764" lon="11.592175001">
		<tag k="name" v="Nyborg" />
		<tag k="place" v="farm" />
		<tag k="ssr:stedsnr" v="732482" />
	</node>
	<node id="-12816" lat="59.6000972189" lon="11.6292805602">
		<tag k="name" v="Ulfsby" />
		<tag k="place" v="farm" />
		<tag k="ssr:stedsnr" v="732479" />
	</node>
	<node id="-12815" lat="59.590363889" lon="11.5745805536">
		<tag k="name" v="Klokkerud" />
		<tag k="place" v="farm" />
		<tag k="ssr:stedsnr" v="732473" />
	</node>
	<node id="-12814" lat="59.5763999996" lon="11.5190333386">
		<tag k="alt_name" v="Buviken" />
		<tag k="name" v="Buvika" />
		<tag k="place" v="isolated_dwelling" />
		<tag k="ssr:stedsnr" v="732466" />
	</node>
	<node id="-12812" lat="59.6301888861" lon="11.5600305471">
		<tag k="name" v="Bjørnstad" />
		<tag k="place" v="farm" />
		<tag k="ssr:stedsnr" v="732309" />
	</node>
	<node id="-12806" lat="59.3508750013" lon="11.7400999974">
		<tag k="name" v="Otteid" />
		<tag k="place" v="farm" />
		<tag k="ssr:stedsnr" v="731706" />
	</node>
	<node id="-12805" lat="59.3844333329" lon="11.6817833272">
		<tag k="name" v="Herrud" />
		<tag k="place" v="farm" />
		<tag k="ssr:stedsnr" v="731511" />
	</node>
	<node id="-12804" lat="59.4541777812" lon="11.7002611112">
		<tag k="alt_name" v="Ankerud" />
		<tag k="name" v="Nordre Ankerud" />
		<tag k="place" v="farm" />
		<tag k="ssr:stedsnr" v="730674" />
	</node>
	<node id="-12803" lat="59.4414166643" lon="11.735588889">
		<tag k="loc_name" v="Sætret" />
		<tag k="name" v="Sætre" />
		<tag k="place" v="farm" />
		<tag k="ssr:stedsnr" v="730671" />
	</node>
	<node id="-12802" lat="59.469344441" lon="11.663177786">
		<tag k="name" v="Torp" />
		<tag k="place" v="farm" />
		<tag k="ssr:stedsnr" v="730641" />
	</node>
	<node id="-12800" lat="59.5120027807" lon="11.6270549934">
		<tag k="name" v="Vik" />
		<tag k="place" v="farm" />
		<tag k="ssr:stedsnr" v="727496" />
	</node>
	<node id="-12799" lat="59.3475500019" lon="11.6852611135">
		<tag k="name" v="Nordre Djupvik" />
		<tag k="old_name" v="Djupvik;Dypvik nordre" />
		<tag k="place" v="farm" />
		<tag k="ssr:stedsnr" v="731702" />
	</node>
	<node id="-12797" lat="59.3582944436" lon="11.6966499969">
		<tag k="alt_name" v="Gunneng søndre;Gundeng søndre;Gunneng" />
		<tag k="name" v="Søndre Gunneng" />
		<tag k="place" v="farm" />
		<tag k="ssr:stedsnr" v="731685" />
	</node>
	<node id="-12795" lat="59.3732222261" lon="11.7904277804">
		<tag k="alt_name" v="Norske Moen" />
		<tag k="name" v="Moen" />
		<tag k="place" v="farm" />
		<tag k="ssr:stedsnr" v="731650" />
	</node>
	<node id="-12794" lat="59.3172777777" lon="11.8088111086">
		<tag k="name" v="Løvik" />
		<tag k="place" v="isolated_dwelling" />
		<tag k="ssr:stedsnr" v="731607" />
	</node>
	<node id="-12793" lat="59.6297370856" lon="11.6156969165">
		<tag k="fixme" v="consider place=hamlet" />
		<tag k="name" v="Oppsal" />
		<tag k="place" v="farm" />
		<tag k="ssr:stedsnr" v="723678" />
	</node>
	<node id="-12791" lat="59.5961277755" lon="11.6238472194">
		<tag k="name" v="Søndre Åseby" />
		<tag k="place" v="farm" />
		<tag k="ssr:stedsnr" v="720946" />
	</node>
	<node id="-12790" lat="59.6104468991" lon="11.5736526388">
		<tag k="alt_name" v="Rakkestad østre" />
		<tag k="name" v="Østre Rakkestad" />
		<tag k="place" v="farm" />
		<tag k="ssr:stedsnr" v="720919" />
	</node>
	<node id="-12789" lat="59.3566638901" lon="11.742486108">
		<tag k="name" v="Sootødegården" />
		<tag k="place" v="locality" />
		<tag k="ssr:stedsnr" v="720825" />
	</node>
	<node id="-12788" lat="59.3511111146" lon="11.7553388872">
		<tag k="name" v="Kleva" />
		<tag k="place" v="isolated_dwelling" />
		<tag k="ssr:stedsnr" v="720823" />
	</node>
	<node id="-12786" lat="59.4692972213" lon="11.6437166723">
		<tag k="name" v="Nordli" />
		<tag k="place" v="locality" />
		<tag k="ssr:stedsnr" v="720714" />
	</node>
	<node id="-10928" lat="59.3302611068" lon="11.8042555558">
		<tag k="name" v="Demma" />
		<tag k="place" v="farm" />
		<tag k="ssr:stedsnr" v="307641" />
	</node>
	<node id="-12782" lat="59.6117083331" lon="11.554213897">
		<tag k="name" v="Pommern" />
		<tag k="place" v="farm" />
		<tag k="ssr:stedsnr" v="720550" />
	</node>
	<node id="-12775" lat="59.5557138878" lon="11.6409861028">
		<tag k="name" v="Gåsebyhagen" />
		<tag k="place" v="farm" />
		<tag k="ssr:stedsnr" v="720421" />
	</node>
	<node id="-13393" lat="59.5967416666" lon="11.6241249923">
		<tag k="alt_name" v="Åseby nordre" />
		<tag k="name" v="Nordre Åseby" />
		<tag k="place" v="farm" />
		<tag k="ssr:stedsnr" v="962926" />
	</node>
	<node id="-11344" lat="59.6177091558" lon="11.6030593144">
		<tag k="alt_name" v="Krok nordre" />
		<tag k="name" v="Nordre Krok" />
		<tag k="place" v="farm" />
		<tag k="ssr:stedsnr" v="52116" />
	</node>
	<node id="-12765" lat="59.5099388929" lon="11.654569448">
		<tag k="alt_name" v="Berger nordre" />
		<tag k="name" v="Nordre Berger" />
		<tag k="place" v="farm" />
		<tag k="ssr:stedsnr" v="720276" />
	</node>
	<node id="-12761" lat="59.6336999961" lon="11.6144499964">
		<tag k="loc_name" v="Sør Åser" />
		<tag k="name" v="Åser" />
		<tag k="place" v="farm" />
		<tag k="ssr:stedsnr" v="720170" />
	</node>
	<node id="-12743" lat="59.6059555545" lon="11.5863944442">
		<tag k="name" v="Nygård" />
		<tag k="place" v="farm" />
		<tag k="ssr:stedsnr" v="719894" />
	</node>
	<node id="-12712" lat="59.4072722239" lon="11.6958222248">
		<tag k="name" v="Huset" />
		<tag k="place" v="farm" />
		<tag k="ssr:stedsnr" v="719552" />
	</node>
	<node id="-12710" lat="59.402541663" lon="11.6959555542">
		<tag k="name" v="Jeriko" />
		<tag k="place" v="isolated_dwelling" />
		<tag k="ssr:stedsnr" v="719547" />
	</node>
	<node id="-12702" lat="59.3993249971" lon="11.670188896">
		<tag k="name" v="Fløvik" />
		<tag k="place" v="farm" />
		<tag k="ssr:stedsnr" v="719526" />
	</node>
	<node id="-12701" lat="59.4166555549" lon="11.6741611183">
		<tag k="name" v="Espelund" />
		<tag k="place" v="isolated_dwelling" />
		<tag k="ssr:stedsnr" v="719515" />
	</node>
	<node id="-12687" lat="59.3667222207" lon="11.6743833362">
		<tag k="name" v="Gråbøl" />
		<tag k="place" v="farm" />
		<tag k="ssr:stedsnr" v="719294" />
	</node>
	<node id="-12681" lat="59.5860444465" lon="11.5439055486">
		<tag k="name" v="Vestby" />
		<tag k="place" v="farm" />
		<tag k="ssr:stedsnr" v="719195" />
	</node>
	<node id="-12679" lat="59.5832416638" lon="11.5290444361">
		<tag k="alt_name" v="Fallet søndre" />
		<tag k="name" v="Søndre Fallet" />
		<tag k="place" v="farm" />
		<tag k="ssr:stedsnr" v="719187" />
	</node>
	<node id="-12678" lat="59.5886361153" lon="11.5621194456">
		<tag k="name" v="Tommelsrud" />
		<tag k="place" v="farm" />
		<tag k="ssr:stedsnr" v="719159" />
	</node>
	<node id="-12675" lat="59.4949777785" lon="11.6946166695">
		<tag k="name" v="Brandsrud" />
		<tag k="place" v="farm" />
		<tag k="ssr:stedsnr" v="719116" />
	</node>
	<node id="-10987" lat="59.5423527746" lon="11.6502916653">
		<tag k="name" v="Sør-Hien" />
		<tag k="old_name" v="Hien" />
		<tag k="place" v="farm" />
		<tag k="ssr:stedsnr" v="355356" />
	</node>
	<node id="-12667" lat="59.5522833324" lon="11.5773027833">
		<tag k="name" v="Bråten" />
		<tag k="place" v="farm" />
		<tag k="ssr:stedsnr" v="719020" />
	</node>
	<node id="-12666" lat="59.5713401836" lon="11.61147706">
		<tag k="fixme" v="consider place=hamlet" />
		<tag k="name" v="Degnes" />
		<tag k="place" v="farm" />
		<tag k="ssr:stedsnr" v="719010" />
	</node>
	<node id="-12665" lat="59.5554222181" lon="11.6169777734">
		<tag k="name" v="Sandvika" />
		<tag k="place" v="farm" />
		<tag k="ssr:stedsnr" v="719007" />
	</node>
	<node id="-12661" lat="59.45796111" lon="11.6674694517">
		<tag k="alt_name" v="Anonby søndre" />
		<tag k="name" v="Søndre Anonby" />
		<tag k="place" v="farm" />
		<tag k="ssr:stedsnr" v="719470" />
	</node>
	<node id="-12647" lat="59.6043888906" lon="11.5752833418">
		<tag k="name" v="Moserud" />
		<tag k="place" v="farm" />
		<tag k="ssr:stedsnr" v="671464" />
	</node>
	<node id="-12645" lat="59.5907027818" lon="11.5598138814">
		<tag k="name" v="Tommelsrud" />
		<tag k="place" v="farm" />
		<tag k="ssr:stedsnr" v="671442" />
	</node>
	<node id="-12644" lat="59.5799666686" lon="11.5620444494">
		<tag k="name" v="Taraldrud" />
		<tag k="place" v="farm" />
		<tag k="ssr:stedsnr" v="671432" />
	</node>
	<node id="-12642" lat="59.5171027771" lon="11.6751666669">
		<tag k="alt_name" v="Slepa" />
		<tag k="name" v="Vestli" />
		<tag k="place" v="farm" />
		<tag k="ssr:stedsnr" v="671376" />
	</node>
	<node id="-12641" lat="59.501592209" lon="11.6596231294">
		<tag k="name" v="Moseby" />
		<tag k="place" v="farm" />
		<tag k="ssr:stedsnr" v="671369" />
	</node>
	<node id="-12637" lat="59.6325194468" lon="11.6558027867">
		<tag k="fixme" v="multiple name tags, choose one and add the other to alt_name" />
		<tag k="name" v="Fluetjernshytta;Fluetjernsstua" />
		<tag k="place" v="isolated_dwelling" />
		<tag k="ssr:stedsnr" v="671287" />
	</node>
	<node id="-12635" lat="59.3472888871" lon="11.7052222246">
		<tag k="name" v="Grislingås" />
		<tag k="place" v="farm" />
		<tag k="ssr:stedsnr" v="670720" />
	</node>
	<node id="-10923" lat="59.5552277749" lon="11.58359445">
		<tag k="name" v="Toketorp" />
		<tag k="place" v="farm" />
		<tag k="ssr:stedsnr" v="307500" />
	</node>
	<node id="-12632" lat="59.3509499989" lon="11.6450250031">
		<tag k="name" v="Lia" />
		<tag k="place" v="farm" />
		<tag k="ssr:stedsnr" v="670705" />
	</node>
	<node id="-12631" lat="59.3566222219" lon="11.7757944496">
		<tag k="alt_name" v="Torgrimsbu" />
		<tag k="name" v="Nordre Torgrimsbu" />
		<tag k="place" v="farm" />
		<tag k="ssr:stedsnr" v="670697" />
	</node>
	<node id="-12630" lat="59.363061111" lon="11.6806777743">
		<tag k="name" v="Gråbøl" />
		<tag k="place" v="farm" />
		<tag k="ssr:stedsnr" v="670691" />
	</node>
	<node id="-12628" lat="59.4480944452" lon="11.6989277692">
		<tag k="name" v="Spekkebu" />
		<tag k="place" v="farm" />
		<tag k="ssr:stedsnr" v="670596" />
	</node>
	<node id="-12627" lat="59.4475388902" lon="11.6915611103">
		<tag k="alt_name" v="Sevland" />
		<tag k="name" v="Seveland" />
		<tag k="place" v="farm" />
		<tag k="ssr:stedsnr" v="670594" />
	</node>
	<node id="-12626" lat="59.453113891" lon="11.6952166737">
		<tag k="name" v="Søby" />
		<tag k="place" v="farm" />
		<tag k="ssr:stedsnr" v="670593" />
	</node>
	<node id="-12625" lat="59.4551805579" lon="11.640691664">
		<tag k="name" v="Jaren" />
		<tag k="place" v="farm" />
		<tag k="ssr:stedsnr" v="670577" />
	</node>
	<node id="-12624" lat="59.4592555561" lon="11.7084666729">
		<tag k="name" v="Søbyskogen" />
		<tag k="place" v="locality" />
		<tag k="ssr:stedsnr" v="670568" />
	</node>
	<node id="-12623" lat="59.4770861127" lon="11.6882472286">
		<tag k="alt_name" v="Gjølsjøødegården søndre;Søndre Gjølsjø Ødegården" />
		<tag k="name" v="Søndre Gjølsjøødegården" />
		<tag k="place" v="farm" />
		<tag k="ssr:stedsnr" v="670567" />
	</node>
	<node id="-12622" lat="59.4745166661" lon="11.6459944463">
		<tag k="alt_name" v="Ørjetun" />
		<tag k="amenity" v="hospital" />
		<tag k="name" v="Ørje kursted" />
		<tag k="ssr:stedsnr" v="670556" />
	</node>
	<node id="-12621" lat="59.4663305512" lon="11.6672111112">
		<tag k="alt_name" v="Bøn;Bøen østre" />
		<tag k="name" v="Østre Bøen" />
		<tag k="place" v="farm" />
		<tag k="ssr:stedsnr" v="670554" />
	</node>
	<node id="-12615" lat="59.3799638929" lon="11.622844451">
		<tag k="name" v="Igletjern" />
		<tag k="place" v="farm" />
		<tag k="ssr:stedsnr" v="670510" />
	</node>
	<node id="-12614" lat="59.4110527814" lon="11.6674805617">
		<tag k="name" v="Skogheim" />
		<tag k="place" v="isolated_dwelling" />
		<tag k="ssr:stedsnr" v="670481" />
	</node>
	<node id="-12612" lat="59.4194611106" lon="11.7394888933">
		<tag k="name" v="Årbogen" />
		<tag k="place" v="farm" />
		<tag k="ssr:stedsnr" v="670466" />
	</node>
	<node id="-12611" lat="59.42547778" lon="11.7520722284">
		<tag k="alt_name" v="Slakleva" />
		<tag k="name" v="Slakleiva" />
		<tag k="place" v="farm" />
		<tag k="ssr:stedsnr" v="670463" />
	</node>
	<node id="-12603" lat="59.3450083344" lon="11.7621444446">
		<tag k="name" v="Holtevik" />
		<tag k="place" v="isolated_dwelling" />
		<tag k="ssr:stedsnr" v="659802" />
	</node>
	<node id="-11999" lat="59.588788886" lon="11.5717861101">
		<tag k="name" v="Heggedal" />
		<tag k="place" v="farm" />
		<tag k="ssr:stedsnr" v="416146" />
	</node>
	<node id="-12600" lat="59.6331638863" lon="11.6273944435">
		<tag k="name" v="Sandbekk" />
		<tag k="place" v="farm" />
		<tag k="ssr:stedsnr" v="659545" />
	</node>
	<node id="-12578" lat="59.3459416684" lon="11.67695277">
		<tag k="name" v="Djupvik" />
		<tag k="old_name" v="Dypvik" />
		<tag k="place" v="farm" />
		<tag k="ssr:stedsnr" v="659367" />
	</node>
	<node id="-12576" lat="59.5069611098" lon="11.6671500062">
		<tag k="alt_name" v="Grimsby østre" />
		<tag k="name" v="Østre Grimsby" />
		<tag k="place" v="farm" />
		<tag k="ssr:stedsnr" v="659357" />
	</node>
	<node id="-10968" lat="59.4976388902" lon="11.7153972143">
		<tag k="name" v="Nordre Alerud" />
		<tag k="place" v="locality" />
		<tag k="ssr:stedsnr" v="355134" />
	</node>
	<node id="-12548" lat="59.6064555524" lon="11.577552782">
		<tag k="name" v="Ødegård" />
		<tag k="place" v="farm" />
		<tag k="ssr:stedsnr" v="658894" />
	</node>
	<node id="-12525" lat="59.4029333365" lon="11.6939777862">
		<tag k="alt_name" v="Mellem Stikle" />
		<tag k="name" v="Mellom-Stikle" />
		<tag k="place" v="farm" />
		<tag k="ssr:stedsnr" v="658586" />
	</node>
	<node id="-12518" lat="59.4163777816" lon="11.6494777776">
		<tag k="name" v="Busvenbua" />
		<tag k="place" v="farm" />
		<tag k="ssr:stedsnr" v="658546" />
	</node>
	<node id="-12511" lat="59.4050660877" lon="11.6498942325">
		<tag k="alt_name" v="Solås" />
		<tag k="name" v="Svelta" />
		<tag k="place" v="farm" />
		<tag k="ssr:stedsnr" v="658503" />
	</node>
	<node id="-12509" lat="59.4601916623" lon="11.6678416713">
		<tag k="alt_name" v="Anonby nordre" />
		<tag k="name" v="Nordre Anonby" />
		<tag k="place" v="farm" />
		<tag k="ssr:stedsnr" v="658496" />
	</node>
	<node id="-12501" lat="59.3463277783" lon="11.724691659">
		<tag k="name" v="Kasa" />
		<tag k="place" v="farm" />
		<tag k="ssr:stedsnr" v="658337" />
	</node>
	<node id="-12499" lat="59.3485833375" lon="11.7013694401">
		<tag k="name" v="Grislingås" />
		<tag k="place" v="farm" />
		<tag k="ssr:stedsnr" v="658332" />
	</node>
	<node id="-11297" lat="59.3704638882" lon="11.7446749933">
		<tag k="name" v="Rørvik" />
		<tag k="place" v="farm" />
		<tag k="ssr:stedsnr" v="3670" />
	</node>
	<node id="-12483" lat="59.5555222209" lon="11.6272166752">
		<tag k="name" v="Slupstad" />
		<tag k="place" v="farm" />
		<tag k="ssr:stedsnr" v="656140" />
	</node>
	<node id="-12480" lat="59.3423008192" lon="11.7302603266">
		<tag k="alt_name" v="Botten" />
		<tag k="fixme" v="consider place=hamlet" />
		<tag k="name" v="Botn" />
		<tag k="place" v="farm" />
		<tag k="ssr:stedsnr" v="610756" />
	</node>
	<node id="-11296" lat="59.3778249981" lon="11.7197000023">
		<tag k="name" v="Viken" />
		<tag k="place" v="farm" />
		<tag k="ssr:stedsnr" v="3655" />
	</node>
	<node id="-12478" lat="59.4099944419" lon="11.7229333328">
		<tag k="alt_name" v="Buer" />
		<tag k="name" v="Nordre Buer" />
		<tag k="place" v="farm" />
		<tag k="ssr:stedsnr" v="610563" />
	</node>
	<node id="-12476" lat="59.5715107724" lon="11.6116845327">
		<tag k="alt_name" v="Degnes mellem" />
		<tag k="name" v="Mellom-Degnes" />
		<tag k="place" v="farm" />
		<tag k="ssr:stedsnr" v="610541" />
	</node>
	<node id="-12475" lat="59.5791833366" lon="11.6541972275">
		<tag k="name" v="Furuli" />
		<tag k="place" v="isolated_dwelling" />
		<tag k="ssr:stedsnr" v="610537" />
	</node>
	<node id="-12474" lat="59.560516671" lon="11.5913500072">
		<tag k="fixme" v="consider place=hamlet" />
		<tag k="name" v="Huser" />
		<tag k="place" v="farm" />
		<tag k="ssr:stedsnr" v="610535" />
	</node>
	<node id="-12473" lat="59.5380694448" lon="11.6561611174">
		<tag k="name" v="Langnes" />
		<tag k="place" v="farm" />
		<tag k="ssr:stedsnr" v="610522" />
	</node>
	<node id="-12472" lat="59.5995944449" lon="11.5690500065">
		<tag k="alt_name" v="Glundberg" />
		<tag k="name" v="Glunnberg" />
		<tag k="place" v="farm" />
		<tag k="ssr:stedsnr" v="610515" />
	</node>
	<node id="-12471" lat="59.5771000027" lon="11.5422694459">
		<tag k="name" v="Ådal" />
		<tag k="place" v="isolated_dwelling" />
		<tag k="ssr:stedsnr" v="610485" />
	</node>
	<node id="-12470" lat="59.5889416992" lon="11.6144997387">
		<tag k="fixme" v="consider place=hamlet" />
		<tag k="name" v="Olerud" />
		<tag k="place" v="farm" />
		<tag k="ssr:stedsnr" v="610483" />
	</node>
	<node id="-12469" lat="59.4994111114" lon="11.6712555634">
		<tag k="name" v="Enger" />
		<tag k="place" v="farm" />
		<tag k="ssr:stedsnr" v="610408" />
	</node>
	<node id="-12467" lat="59.3607277818" lon="11.6334694498">
		<tag k="name" v="Damsløkka" />
		<tag k="place" v="isolated_dwelling" />
		<tag k="ssr:stedsnr" v="609674" />
	</node>
	<node id="-12465" lat="59.4379861069" lon="11.6667444518">
		<tag k="name" v="Kolstad" />
		<tag k="place" v="farm" />
		<tag k="ssr:stedsnr" v="609570" />
	</node>
	<node id="-12463" lat="59.4635583324" lon="11.6436583334">
		<tag k="name" v="Li" />
		<tag k="place" v="farm" />
		<tag k="ssr:stedsnr" v="609566" />
	</node>
	<node id="-12462" lat="59.4711583315" lon="11.6994805631">
		<tag k="name" v="Åseby" />
		<tag k="place" v="farm" />
		<tag k="ssr:stedsnr" v="609548" />
	</node>
	<node id="-12458" lat="59.4863805538" lon="11.6683166693">
		<tag k="name" v="Krokstad" />
		<tag k="place" v="farm" />
		<tag k="ssr:stedsnr" v="609533" />
	</node>
	<node id="-12457" lat="59.4880333347" lon="11.6827916734">
		<tag k="name" v="Sletta" />
		<tag k="place" v="farm" />
		<tag k="ssr:stedsnr" v="609532" />
	</node>
	<node id="-12456" lat="59.3847972213" lon="11.7071916738">
		<tag k="name" v="Berget" />
		<tag k="place" v="farm" />
		<tag k="ssr:stedsnr" v="609527" />
	</node>
	<node id="-12454" lat="59.5243722215" lon="11.6052861028">
		<tag k="name" v="Holo" />
		<tag k="place" v="farm" />
		<tag k="ssr:stedsnr" v="610423" />
	</node>
	<node id="-12449" lat="59.3500777823" lon="11.743872216">
		<tag k="name" v="Østre Otteid" />
		<tag k="place" v="farm" />
		<tag k="ssr:stedsnr" v="598782" />
	</node>
	<node id="-12447" lat="59.5831999984" lon="11.6197749968">
		<tag k="name" v="Olerudhytta" />
		<tag k="place" v="locality" />
		<tag k="ssr:stedsnr" v="598720" />
	</node>
	<node id="-12446" lat="59.4769249955" lon="11.6504416728">
		<tag k="name" v="Diskerud" />
		<tag k="place" v="farm" />
		<tag k="ssr:stedsnr" v="598704" />
	</node>
	<node id="-12440" lat="59.4344472187" lon="11.6785111192">
		<tag k="name" v="Søndre Sandtorp" />
		<tag k="place" v="farm" />
		<tag k="ssr:stedsnr" v="598596" />
	</node>
	<node id="-12437" lat="59.6077861066" lon="11.5323055567">
		<tag k="alt_name" v="Skrikerud nordre" />
		<tag k="name" v="Nordre Skrikerud" />
		<tag k="place" v="farm" />
		<tag k="ssr:stedsnr" v="598520" />
	</node>
	<node id="-11288" lat="59.5692305543" lon="11.5753583324">
		<tag k="alt_name" v="Vikeby vestre" />
		<tag k="name" v="Vestre Vikeby" />
		<tag k="place" v="farm" />
		<tag k="ssr:stedsnr" v="3444" />
	</node>
	<node id="-12430" lat="59.5126583358" lon="11.7125388862">
		<tag k="name" v="Mosebysetra" />
		<tag k="place" v="locality" />
		<tag k="ssr:stedsnr" v="598354" />
	</node>
	<node id="-12426" lat="59.5117722259" lon="11.6753805523">
		<tag k="name" v="Julsrud" />
		<tag k="place" v="farm" />
		<tag k="ssr:stedsnr" v="598339" />
	</node>
	<node id="-12422" lat="59.5954666639" lon="11.6611527738">
		<tag k="loc_name" v="Åsebysetra" />
		<tag k="name" v="Folkenborgstua" />
		<tag k="place" v="isolated_dwelling" />
		<tag k="ssr:stedsnr" v="598288" />
	</node>
	<node id="-10945" lat="59.4342916674" lon="11.6738249987">
		<tag k="alt_name" v="Sandtorp nedre" />
		<tag k="name" v="Nedre Sandtorp" />
		<tag k="place" v="farm" />
		<tag k="ssr:stedsnr" v="354648" />
	</node>
	<node id="-12420" lat="59.5121805592" lon="11.6614472173">
		<tag k="alt_name" v="Sukken søndre" />
		<tag k="name" v="Søndre Sukken" />
		<tag k="place" v="farm" />
		<tag k="ssr:stedsnr" v="598266" />
	</node>
	<node id="-12402" lat="59.4664194429" lon="11.690152779">
		<tag k="alt_name" v="Gjølsjø nordre" />
		<tag k="name" v="Nordre Gjølsjø" />
		<tag k="place" v="farm" />
		<tag k="ssr:stedsnr" v="598042" />
	</node>
	<node id="-12401" lat="59.5598305533" lon="11.5900944512">
		<tag k="alt_name" v="Huser søndre" />
		<tag k="name" v="Søndre Huser" />
		<tag k="place" v="farm" />
		<tag k="ssr:stedsnr" v="598038" />
	</node>
	<node id="-12400" lat="59.5516777789" lon="11.6010777763">
		<tag k="alt_name" v="Klemmetsby østre" />
		<tag k="name" v="Østre Klemmetsby" />
		<tag k="place" v="farm" />
		<tag k="ssr:stedsnr" v="598036" />
	</node>
	<node id="-12398" lat="59.5693638927" lon="11.6135111183">
		<tag k="name" v="Degnes store nordre" />
		<tag k="place" v="farm" />
		<tag k="ssr:stedsnr" v="598018" />
	</node>
	<node id="-12395" lat="59.5232055587" lon="11.600722222">
		<tag k="name" v="Ilebekk" />
		<tag k="place" v="isolated_dwelling" />
		<tag k="ssr:stedsnr" v="597982" />
	</node>
	<node id="-12378" lat="59.4664583316" lon="11.5762861111">
		<tag k="name" v="Nysterudsetra" />
		<tag k="place" v="locality" />
		<tag k="ssr:stedsnr" v="597862" />
	</node>
	<node id="-12367" lat="59.4021888866" lon="11.6680861135">
		<tag k="name" v="Fløvik" />
		<tag k="place" v="farm" />
		<tag k="ssr:stedsnr" v="597562" />
	</node>
	<node id="-12363" lat="59.4138694426" lon="11.6654111074">
		<tag k="name" v="Rødkinn" />
		<tag k="place" v="isolated_dwelling" />
		<tag k="ssr:stedsnr" v="597547" />
	</node>
	<node id="-10935" lat="59.4502027785" lon="11.5809611034">
		<tag k="historic" v="shieling" />
		<tag k="name" v="Frøneseter" />
		<tag k="place" v="locality" />
		<tag k="ssr:stedsnr" v="354222" />
	</node>
	<node id="-12360" lat="59.3866499985" lon="11.6923861103">
		<tag k="name" v="Volen" />
		<tag k="place" v="farm" />
		<tag k="ssr:stedsnr" v="597519" />
	</node>
	<node id="-12359" lat="59.386019443" lon="11.7222611177">
		<tag k="name" v="Spjutnes" />
		<tag k="place" v="farm" />
		<tag k="ssr:stedsnr" v="597516" />
	</node>
	<node id="-12356" lat="59.5423333304" lon="11.5857777789">
		<tag k="alt_name" v="Kallak søndre" />
		<tag k="name" v="Søndre Kallak" />
		<tag k="place" v="farm" />
		<tag k="ssr:stedsnr" v="597453" />
	</node>
	<node id="-12355" lat="59.5290416642" lon="11.6629166614">
		<tag k="name" v="Rud" />
		<tag k="place" v="locality" />
		<tag k="ssr:stedsnr" v="597439" />
	</node>
	<node id="-12353" lat="59.54328333" lon="11.6616361066">
		<tag k="name" v="Hermansetra" />
		<tag k="place" v="farm" />
		<tag k="ssr:stedsnr" v="597394" />
	</node>
	<node id="-10980" lat="59.5655416651" lon="11.5798222208">
		<tag k="alt_name" v="Kinn vestre" />
		<tag k="name" v="Vestre Kinn" />
		<tag k="place" v="farm" />
		<tag k="ssr:stedsnr" v="355248" />
	</node>
	<node id="-12342" lat="59.4624388888" lon="11.6757305471">
		<tag k="alt_name" v="Rud østre" />
		<tag k="name" v="Østre Rud" />
		<tag k="place" v="farm" />
		<tag k="ssr:stedsnr" v="598494" />
	</node>
	<node id="-13368" lat="59.5952666644" lon="11.5279083418">
		<tag k="alt_name" v="Kongsbakk østre" />
		<tag k="name" v="Østre Kongsbakk" />
		<tag k="place" v="locality" />
		<tag k="ssr:stedsnr" v="962494" />
	</node>
	<node id="-12330" lat="59.5907388845" lon="11.6900500064">
		<tag k="historic" v="shieling" />
		<tag k="name" v="Olerudsetra" />
		<tag k="place" v="locality" />
		<tag k="ssr:stedsnr" v="550435" />
	</node>
	<node id="-12329" lat="59.5114419892" lon="11.6268249755">
		<tag k="fixme" v="consider place=hamlet" />
		<tag k="name" v="Vik" />
		<tag k="place" v="farm" />
		<tag k="ssr:stedsnr" v="550375" />
	</node>
	<node id="-12327" lat="59.5016361096" lon="11.5775027755">
		<tag k="name" v="Holohytta" />
		<tag k="place" v="isolated_dwelling" />
		<tag k="ssr:stedsnr" v="550361" />
	</node>
	<node id="-12326" lat="59.6142805539" lon="11.5635749986">
		<tag k="alt_name" v="Størløs" />
		<tag k="fixme" v="consider place=hamlet" />
		<tag k="name" v="Storløs" />
		<tag k="place" v="farm" />
		<tag k="ssr:stedsnr" v="550276" />
	</node>
	<node id="-12325" lat="59.6117611086" lon="11.5410555506">
		<tag k="fixme" v="consider place=hamlet" />
		<tag k="name" v="Ba" />
		<tag k="place" v="farm" />
		<tag k="ssr:stedsnr" v="550277" />
	</node>
	<node id="-12321" lat="59.3798277753" lon="11.6824749919">
		<tag k="name" v="Vakthaugen" />
		<tag k="place" v="isolated_dwelling" />
		<tag k="ssr:stedsnr" v="549525" />
	</node>
	<node id="-12320" lat="59.411000002" lon="11.7088611149">
		<tag k="name" v="Solbrekke" />
		<tag k="place" v="farm" />
		<tag k="ssr:stedsnr" v="549518" />
	</node>
	<node id="-12319" lat="59.3940055564" lon="11.7596333403">
		<tag k="name" v="Ekenes" />
		<tag k="place" v="isolated_dwelling" />
		<tag k="ssr:stedsnr" v="549505" />
	</node>
	<node id="-12317" lat="59.4216888843" lon="11.7180194523">
		<tag k="alt_name" v="Ledeng" />
		<tag k="name" v="Ledengen" />
		<tag k="place" v="farm" />
		<tag k="ssr:stedsnr" v="549468" />
	</node>
	<node id="-12316" lat="59.5739000038" lon="11.5787611192">
		<tag k="alt_name" v="Vikeby nordre" />
		<tag k="name" v="Nordre Vikeby" />
		<tag k="place" v="farm" />
		<tag k="ssr:stedsnr" v="549464" />
	</node>
	<node id="-12315" lat="59.5468750033" lon="11.6282250067">
		<tag k="fixme" v="consider place=hamlet" />
		<tag k="name" v="Gåseby" />
		<tag k="place" v="farm" />
		<tag k="ssr:stedsnr" v="549452" />
	</node>
	<node id="-12314" lat="59.6319139788" lon="11.5644020652">
		<tag k="alt_name" v="Setra" />
		<tag k="name" v="Sætra" />
		<tag k="place" v="locality" />
		<tag k="ssr:stedsnr" v="549311" />
	</node>
	<node id="-12313" lat="59.6383916644" lon="11.619338881">
		<tag k="name" v="Østby" />
		<tag k="place" v="farm" />
		<tag k="ssr:stedsnr" v="549305" />
	</node>
	<node id="-12312" lat="59.6349444425" lon="11.6209694506">
		<tag k="name" v="Myrvoll" />
		<tag k="place" v="farm" />
		<tag k="ssr:stedsnr" v="549291" />
	</node>
	<node id="-12310" lat="59.6474333307" lon="11.6766944408">
		<tag k="alt_name" v="Kroksætra, vestre;Søndre Kroksetra" />
		<tag k="loc_name" v="Marisetra;Søndre Krokssetra" />
		<tag k="name" v="Vestre Kroksætra" />
		<tag k="place" v="isolated_dwelling" />
		<tag k="ssr:stedsnr" v="549261" />
	</node>
	<node id="-12309" lat="59.4434166647" lon="11.7001805628">
		<tag k="fixme" v="consider place=hamlet" />
		<tag k="name" v="Kasbu" />
		<tag k="old_name" v="Kasebu" />
		<tag k="place" v="farm" />
		<tag k="ssr:stedsnr" v="548604" />
	</node>
	<node id="-12307" lat="59.4660305576" lon="11.7484166624">
		<tag k="name" v="Fjellby" />
		<tag k="place" v="isolated_dwelling" />
		<tag k="ssr:stedsnr" v="548595" />
	</node>
	<node id="-12305" lat="59.4696222212" lon="11.6401416676">
		<tag k="name" v="Lihagen" />
		<tag k="place" v="locality" />
		<tag k="ssr:stedsnr" v="548583" />
	</node>
	<node id="-12301" lat="59.3853972194" lon="11.7386777803">
		<tag k="name" v="Engsbråten" />
		<tag k="place" v="farm" />
		<tag k="ssr:stedsnr" v="548564" />
	</node>
	<node id="-12300" lat="59.4288138862" lon="11.6486333261">
		<tag k="alt_name" v="Djupedal søndre;Dypedal søndre" />
		<tag k="name" v="Søndre Djupedal" />
		<tag k="place" v="farm" />
		<tag k="ssr:stedsnr" v="548528" />
	</node>
	<node id="-12299" lat="59.4345055519" lon="11.7363861114">
		<tag k="name" v="Furulund" />
		<tag k="place" v="farm" />
		<tag k="ssr:stedsnr" v="548522" />
	</node>
	<node id="-12298" lat="59.5066555544" lon="11.6267916651">
		<tag k="name" v="Tynnelsrud" />
		<tag k="place" v="locality" />
		<tag k="ssr:stedsnr" v="545075" />
	</node>
	<node id="-12297" lat="59.4051166682" lon="11.6492666595">
		<tag k="name" v="Solås hyttefelt" />
		<tag k="place" v="neighbourhood" />
		<tag k="ssr:stedsnr" v="541685" />
	</node>
	<node id="-10924" lat="59.5582138921" lon="11.5980027792">
		<tag k="name" v="Bjørknes" />
		<tag k="place" v="farm" />
		<tag k="ssr:stedsnr" v="307505" />
	</node>
	<node id="-12294" lat="59.3517111151" lon="11.7413472165">
		<tag k="name" v="Soot-gården" />
		<tag k="place" v="locality" />
		<tag k="ssr:stedsnr" v="538808" />
	</node>
	<node id="-12293" lat="59.3541805525" lon="11.7422666737">
		<tag k="name" v="Zimmergården" />
		<tag k="place" v="isolated_dwelling" />
		<tag k="ssr:stedsnr" v="538804" />
	</node>
	<node id="-12292" lat="59.4781666702" lon="11.6577972246">
		<tag k="amenity" v="school" />
		<tag k="name" v="Marker ungdomsskole" />
		<tag k="ssr:stedsnr" v="538771" />
	</node>
	<node id="-12289" lat="59.4419666655" lon="11.7167888908">
		<tag k="name" v="Myra" />
		<tag k="place" v="farm" />
		<tag k="ssr:stedsnr" v="538733" />
	</node>
</osm>
