<?xml version="1.0" encoding="UTF-8"?>
<osm generator="osmapis" version="0.6">
	<node id="-10921" lat="59.3598027821" lon="11.7475444417">
		<tag k="name" v="Grønne bakke" />
		<tag k="place" v="locality" />
		<tag k="ssr:stedsnr" v="354822" />
	</node>
	<node id="-12262" lat="59.5743777807" lon="11.6171416661">
		<tag k="name" v="Ødegård" />
		<tag k="place" v="locality" />
		<tag k="ssr:stedsnr" v="538757" />
	</node>
	<node id="-12247" lat="59.3481361109" lon="11.6786722164">
		<tag k="name" v="Pinnekasa" />
		<tag k="place" v="locality" />
		<tag k="ssr:stedsnr" v="538402" />
	</node>
	<node id="-12242" lat="59.5248083324" lon="11.5736833419">
		<tag k="name" v="Bjørnlia" />
		<tag k="place" v="locality" />
		<tag k="ssr:stedsnr" v="538308" />
	</node>
	<node id="-12235" lat="59.4025194421" lon="11.6014888954">
		<tag k="name" v="Mjølkista" />
		<tag k="place" v="locality" />
		<tag k="ssr:stedsnr" v="538179" />
	</node>
	<node id="-12226" lat="59.5570861156" lon="11.5771388856">
		<tag k="name" v="Vesleenga" />
		<tag k="place" v="locality" />
		<tag k="ssr:stedsnr" v="538069" />
	</node>
	<node id="-12224" lat="59.3660583357" lon="11.7699638862">
		<tag k="name" v="Tjæregravsbakken" />
		<tag k="place" v="locality" />
		<tag k="ssr:stedsnr" v="537983" />
	</node>
	<node id="-12214" lat="59.4027305563" lon="11.7579111158">
		<tag k="name" v="Lindkjervvadet" />
		<tag k="place" v="locality" />
		<tag k="ssr:stedsnr" v="537881" />
	</node>
	<node id="-12200" lat="59.4575472241" lon="11.6199972281">
		<tag k="name" v="Teigen" />
		<tag k="place" v="locality" />
		<tag k="ssr:stedsnr" v="537787" />
	</node>
	<node id="-12197" lat="59.4428861087" lon="11.5830305509">
		<tag k="name" v="Klunkelia" />
		<tag k="place" v="locality" />
		<tag k="ssr:stedsnr" v="537768" />
	</node>
	<node id="-12193" lat="59.6057749956" lon="11.6653888904">
		<tag k="loc_name" v="Ulvvannshella" />
		<tag k="name" v="Ulvvannshalla" />
		<tag k="place" v="locality" />
		<tag k="ssr:stedsnr" v="537637" />
	</node>
	<node id="-12189" lat="59.4188944459" lon="11.6321333315">
		<tag k="name" v="Langedråga" />
		<tag k="place" v="locality" />
		<tag k="ssr:stedsnr" v="537535" />
	</node>
	<node id="-12188" lat="59.4196027788" lon="11.6437722291">
		<tag k="name" v="Dulleklev" />
		<tag k="place" v="locality" />
		<tag k="ssr:stedsnr" v="537528" />
	</node>
	<node id="-12186" lat="59.4101805557" lon="11.6259222257">
		<tag k="name" v="Åsmundrudkleva" />
		<tag k="place" v="locality" />
		<tag k="ssr:stedsnr" v="537523" />
	</node>
	<node id="-12174" lat="59.5712916645" lon="11.627244449">
		<tag k="name" v="Bunes" />
		<tag k="place" v="locality" />
		<tag k="ssr:stedsnr" v="537455" />
	</node>
	<node id="-12165" lat="59.5425277734" lon="11.672633334">
		<tag k="name" v="Tobakksmoen" />
		<tag k="place" v="locality" />
		<tag k="ssr:stedsnr" v="537363" />
	</node>
	<node id="-12160" lat="59.5975722191" lon="11.6396277791">
		<tag k="name" v="Vabakkleet" />
		<tag k="place" v="locality" />
		<tag k="ssr:stedsnr" v="537262" />
	</node>
	<node id="-12157" lat="59.5744527815" lon="11.5560277707">
		<tag k="name" v="Skogsle" />
		<tag k="place" v="locality" />
		<tag k="ssr:stedsnr" v="537199" />
	</node>
	<node id="-12154" lat="59.5859611152" lon="11.5459527725">
		<tag k="name" v="Østre Vestby" />
		<tag k="place" v="locality" />
		<tag k="ssr:stedsnr" v="537184" />
	</node>
	<node id="-12153" lat="59.5038555558" lon="11.6608777715">
		<tag k="name" v="Lesby" />
		<tag k="place" v="locality" />
		<tag k="ssr:stedsnr" v="537183" />
	</node>
	<node id="-12146" lat="59.4697777737" lon="11.7330583251">
		<tag k="name" v="Sætre" />
		<tag k="place" v="locality" />
		<tag k="ssr:stedsnr" v="537051" />
	</node>
	<node id="-12141" lat="59.3559583361" lon="11.6440250018">
		<tag k="name" v="Klevkas" />
		<tag k="place" v="locality" />
		<tag k="ssr:stedsnr" v="536306" />
	</node>
	<node id="-12140" lat="59.355797219" lon="11.6263111077">
		<tag k="name" v="Harelihølet" />
		<tag k="place" v="locality" />
		<tag k="ssr:stedsnr" v="536305" />
	</node>
	<node id="-12123" lat="59.5880666667" lon="11.59473055">
		<tag k="amenity" v="place_of_worship" />
		<tag k="denomination" v="lutheran" />
		<tag k="name" v="Rødenes kirke" />
		<tag k="religion" v="christian" />
		<tag k="ssr:stedsnr" v="489461" />
	</node>
	<node id="-12094" lat="59.3900277768" lon="11.7471361154">
		<tag k="name" v="Stenbakken" />
		<tag k="place" v="locality" />
		<tag k="ssr:stedsnr" v="433907" />
	</node>
	<node id="-12069" lat="59.4677444463" lon="11.72842778">
		<tag k="name" v="Kavlebrua" />
		<tag k="place" v="locality" />
		<tag k="ssr:stedsnr" v="427588" />
	</node>
	<node id="-12049" lat="59.373452782" lon="11.7614666683">
		<tag k="name" v="Runde mose" />
		<tag k="place" v="locality" />
		<tag k="ssr:stedsnr" v="416984" />
	</node>
	<node id="-12047" lat="59.6088805518" lon="11.6129277805">
		<tag k="name" v="Jåvallmoen" />
		<tag k="place" v="locality" />
		<tag k="ssr:stedsnr" v="416958" />
	</node>
	<node id="-12046" lat="59.6145166695" lon="11.5755277814">
		<tag k="name" v="Fjell" />
		<tag k="place" v="locality" />
		<tag k="ssr:stedsnr" v="416943" />
	</node>
	<node id="-12045" lat="59.6092472208" lon="11.6210249956">
		<tag k="name" v="Østre Lindtjernmosen" />
		<tag k="place" v="locality" />
		<tag k="ssr:stedsnr" v="416944" />
	</node>
	<node id="-12034" lat="59.6019138906" lon="11.5773277866">
		<tag k="name" v="Bråte" />
		<tag k="place" v="locality" />
		<tag k="ssr:stedsnr" v="416894" />
	</node>
	<node id="-12023" lat="59.469836112" lon="11.6499555557">
		<tag k="name" v="Søndre Fort" />
		<tag k="ssr:stedsnr" v="416668" />
		<tag k="tourism" v="attraction" />
	</node>
	<node id="-12011" lat="59.5992944437" lon="11.5536250075">
		<tag k="name" v="Nordby" />
		<tag k="place" v="locality" />
		<tag k="ssr:stedsnr" v="416483" />
	</node>
	<node id="-12007" lat="59.4265055595" lon="11.6871777771">
		<tag k="name" v="Trengselet" />
		<tag k="place" v="locality" />
		<tag k="ssr:stedsnr" v="416474" />
	</node>
	<node id="-11999" lat="59.4526833297" lon="11.6296083248">
		<tag k="name" v="Arnebråten" />
		<tag k="place" v="locality" />
		<tag k="ssr:stedsnr" v="416451" />
	</node>
	<node id="-11998" lat="59.5201611134" lon="11.6037944488">
		<tag k="name" v="Holoenga" />
		<tag k="place" v="locality" />
		<tag k="ssr:stedsnr" v="416444" />
	</node>
	<node id="-11988" lat="59.3264250036" lon="11.7914055535">
		<tag k="name" v="Hasledal" />
		<tag k="place" v="locality" />
		<tag k="ssr:stedsnr" v="416366" />
	</node>
	<node id="-11986" lat="59.5412666682" lon="11.6895027857">
		<tag k="name" v="Huer" />
		<tag k="place" v="locality" />
		<tag k="ssr:stedsnr" v="416362" />
	</node>
	<node id="-11981" lat="59.5645583295" lon="11.5922277709">
		<tag k="name" v="Slorebakk" />
		<tag k="place" v="locality" />
		<tag k="ssr:stedsnr" v="416230" />
	</node>
	<node id="-11979" lat="59.6170472251" lon="11.5351666665">
		<tag k="loc_name" v="Basmoen skanse" />
		<tag k="name" v="Basmo skanse" />
		<tag k="ssr:stedsnr" v="416217" />
		<tag k="tourism" v="attraction" />
	</node>
	<node id="-11966" lat="59.6377472187" lon="11.5411111027">
		<tag k="name" v="Kaln" />
		<tag k="place" v="locality" />
		<tag k="ssr:stedsnr" v="416075" />
	</node>
	<node id="-11965" lat="59.5542805545" lon="11.5684805631">
		<tag k="name" v="Leggerud" />
		<tag k="place" v="locality" />
		<tag k="ssr:stedsnr" v="416058" />
	</node>
	<node id="-11961" lat="59.4435527815" lon="11.7350527793">
		<tag k="name" v="Libakken" />
		<tag k="place" v="locality" />
		<tag k="ssr:stedsnr" v="415939" />
	</node>
	<node id="-11960" lat="59.4244777774" lon="11.745413893">
		<tag k="name" v="Ilebekk" />
		<tag k="place" v="locality" />
		<tag k="ssr:stedsnr" v="415938" />
	</node>
	<node id="-11954" lat="59.3599388924" lon="11.7517249955">
		<tag k="name" v="Elgpasset" />
		<tag k="place" v="locality" />
		<tag k="ssr:stedsnr" v="415837" />
	</node>
	<node id="-11953" lat="59.359486115" lon="11.7870277742">
		<tag k="name" v="Løytnantstømra" />
		<tag k="old_name" v="Løytnanstømra" />
		<tag k="place" v="locality" />
		<tag k="ssr:stedsnr" v="415835" />
	</node>
	<node id="-11952" lat="59.4572805522" lon="11.6051333271">
		<tag k="name" v="Liseter" />
		<tag k="place" v="locality" />
		<tag k="ssr:stedsnr" v="415831" />
	</node>
	<node id="-11951" lat="59.4500222178" lon="11.5860805581">
		<tag k="name" v="Frønesjøbakken" />
		<tag k="place" v="locality" />
		<tag k="ssr:stedsnr" v="415818" />
	</node>
	<node id="-11921" lat="59.3979861088" lon="11.6304583267">
		<tag k="alt_name" v="Skogen" />
		<tag k="name" v="Østre Skogen" />
		<tag k="place" v="locality" />
		<tag k="ssr:stedsnr" v="246507" />
	</node>
	<node id="-11884" lat="59.5130083339" lon="11.5593305488">
		<tag k="name" v="Falkesteinene" />
		<tag k="place" v="locality" />
		<tag k="ssr:stedsnr" v="234961" />
	</node>
	<node id="-11869" lat="59.6366611157" lon="11.6379777695">
		<tag k="name" v="Roligheta" />
		<tag k="place" v="locality" />
		<tag k="ssr:stedsnr" v="234516" />
	</node>
	<node id="-11866" lat="59.597791667" lon="11.5578888932">
		<tag k="name" v="Rabbåkeren" />
		<tag k="place" v="locality" />
		<tag k="ssr:stedsnr" v="234512" />
	</node>
	<node id="-11864" lat="59.5980583291" lon="11.5205694425">
		<tag k="name" v="Skjåte" />
		<tag k="place" v="locality" />
		<tag k="ssr:stedsnr" v="234496" />
	</node>
	<node id="-11862" lat="59.5939777777" lon="11.5286083294">
		<tag k="name" v="Fintenfjell" />
		<tag k="place" v="locality" />
		<tag k="ssr:stedsnr" v="234493" />
	</node>
	<node id="-11861" lat="59.6188722255" lon="11.6641055622">
		<tag k="name" v="Ulfsbykastet" />
		<tag k="place" v="locality" />
		<tag k="ssr:stedsnr" v="234491" />
	</node>
	<node id="-11852" lat="59.3492000023" lon="11.6192916647">
		<tag k="name" v="Fugleleken" />
		<tag k="place" v="locality" />
		<tag k="ssr:stedsnr" v="234380" />
	</node>
	<node id="-11846" lat="59.4468583327" lon="11.6028666611">
		<tag k="name" v="Ulvedalen" />
		<tag k="place" v="locality" />
		<tag k="ssr:stedsnr" v="234303" />
	</node>
	<node id="-11839" lat="59.4924805566" lon="11.6364833281">
		<tag k="name" v="Mikkelvoll" />
		<tag k="place" v="locality" />
		<tag k="ssr:stedsnr" v="234206" />
	</node>
	<node id="-11817" lat="59.5593972181" lon="11.5964694384">
		<tag k="name" v="Jemtland" />
		<tag k="place" v="locality" />
		<tag k="ssr:stedsnr" v="234037" />
	</node>
	<node id="-11805" lat="59.3302555587" lon="11.6182027801">
		<tag k="name" v="Fødselsfurua" />
		<tag k="place" v="locality" />
		<tag k="ssr:stedsnr" v="234417" />
	</node>
	<node id="-11798" lat="59.6031222229" lon="11.5692666654">
		<tag k="name" v="Kattås" />
		<tag k="place" v="locality" />
		<tag k="ssr:stedsnr" v="233922" />
	</node>
	<node id="-11784" lat="59.4247027822" lon="11.6615888863">
		<tag k="name" v="Berkaskastet" />
		<tag k="place" v="locality" />
		<tag k="ssr:stedsnr" v="233665" />
	</node>
	<node id="-11783" lat="59.4375194413" lon="11.6610277698">
		<tag k="name" v="Kolstadkastet" />
		<tag k="place" v="locality" />
		<tag k="ssr:stedsnr" v="233663" />
	</node>
	<node id="-11773" lat="59.3223305572" lon="11.7970805643">
		<tag k="name" v="Hammerkastet" />
		<tag k="place" v="locality" />
		<tag k="ssr:stedsnr" v="233509" />
	</node>
	<node id="-11771" lat="59.3268527778" lon="11.7903138957">
		<tag k="name" v="Rødkastet" />
		<tag k="place" v="locality" />
		<tag k="ssr:stedsnr" v="233437" />
	</node>
	<node id="-11766" lat="59.3746861074" lon="11.6772999914">
		<tag k="name" v="Bjørnemyra" />
		<tag k="place" v="locality" />
		<tag k="ssr:stedsnr" v="233337" />
	</node>
	<node id="-11755" lat="59.5641777793" lon="11.5600305619">
		<tag k="name" v="Ilerud" />
		<tag k="place" v="locality" />
		<tag k="ssr:stedsnr" v="189044" />
	</node>
	<node id="-12874" lat="59.3910694413" lon="11.6868000047">
		<tag k="name" v="Tangen" />
		<tag k="place" v="locality" />
		<tag k="ssr:stedsnr" v="780470" />
	</node>
	<node id="-11701" lat="59.6446000033" lon="11.6550888945">
		<tag k="name" v="Veåstjern" />
		<tag k="place" v="locality" />
		<tag k="ssr:stedsnr" v="174528" />
	</node>
	<node id="-11700" lat="59.6452666686" lon="11.6699249921">
		<tag k="name" v="Komanskoen" />
		<tag k="place" v="locality" />
		<tag k="ssr:stedsnr" v="174515" />
	</node>
	<node id="-11694" lat="59.3344861092" lon="11.5961777768">
		<tag k="name" v="Revesnaret" />
		<tag k="place" v="locality" />
		<tag k="ssr:stedsnr" v="174141" />
	</node>
	<node id="-13212" lat="59.654291669" lon="11.6090944451">
		<tag k="name" v="Brennebakken" />
		<tag k="place" v="locality" />
		<tag k="ssr:stedsnr" v="902467" />
	</node>
	<node id="-10822" lat="59.3374166696" lon="11.5780055475">
		<tag k="name" v="Haugen" />
		<tag k="place" v="locality" />
		<tag k="ssr:stedsnr" v="295128" />
	</node>
	<node id="-11682" lat="59.3678916673" lon="11.7750083356">
		<tag k="name" v="Skatemyrene" />
		<tag k="place" v="locality" />
		<tag k="ssr:stedsnr" v="173994" />
	</node>
	<node id="-11680" lat="59.5231194424" lon="11.5965083342">
		<tag k="name" v="Grantapp" />
		<tag k="place" v="locality" />
		<tag k="ssr:stedsnr" v="173964" />
	</node>
	<node id="-11670" lat="59.6081666703" lon="11.5891166624">
		<tag k="name" v="Nebba" />
		<tag k="place" v="locality" />
		<tag k="ssr:stedsnr" v="173912" />
	</node>
	<node id="-11668" lat="59.6066166681" lon="11.5825805483">
		<tag k="name" v="Tomtene" />
		<tag k="place" v="locality" />
		<tag k="ssr:stedsnr" v="173904" />
	</node>
	<node id="-11663" lat="59.3603749981" lon="11.7962694374">
		<tag k="name" v="Dammyr" />
		<tag k="place" v="locality" />
		<tag k="ssr:stedsnr" v="173881" />
	</node>
	<node id="-12866" lat="59.5931222248" lon="11.5268611133">
		<tag k="name" v="Sandemhytta" />
		<tag k="place" v="locality" />
		<tag k="ssr:stedsnr" v="780452" />
	</node>
	<node id="-11658" lat="59.4420166643" lon="11.5960027853">
		<tag k="name" v="Elgekleva" />
		<tag k="place" v="locality" />
		<tag k="ssr:stedsnr" v="173771" />
	</node>
	<node id="-11656" lat="59.5737027771" lon="11.6117749979">
		<tag k="name" v="Kjempegrava" />
		<tag k="place" v="locality" />
		<tag k="ssr:stedsnr" v="173714" />
	</node>
	<node id="-11640" lat="59.4136083305" lon="11.6505305526">
		<tag k="name" v="Revehula" />
		<tag k="place" v="locality" />
		<tag k="ssr:stedsnr" v="173501" />
	</node>
	<node id="-11636" lat="59.3821250041" lon="11.6318527801">
		<tag k="name" v="Holtet" />
		<tag k="place" v="locality" />
		<tag k="ssr:stedsnr" v="173481" />
	</node>
	<node id="-11626" lat="59.3463555542" lon="11.6360305548">
		<tag k="name" v="Langeklev" />
		<tag k="place" v="locality" />
		<tag k="ssr:stedsnr" v="173345" />
	</node>
	<node id="-11625" lat="59.6339805596" lon="11.5380416687">
		<tag k="name" v="Måsan" />
		<tag k="place" v="locality" />
		<tag k="ssr:stedsnr" v="173239" />
	</node>
	<node id="-11623" lat="59.6335500005" lon="11.5504805627">
		<tag k="name" v="Bråstupen" />
		<tag k="place" v="locality" />
		<tag k="ssr:stedsnr" v="173214" />
	</node>
	<node id="-11622" lat="59.6269666653" lon="11.558230553">
		<tag k="name" v="Fjellsleet" />
		<tag k="place" v="locality" />
		<tag k="ssr:stedsnr" v="173215" />
	</node>
	<node id="-11621" lat="59.579777782" lon="11.5524305527">
		<tag k="name" v="Elvestad" />
		<tag k="place" v="locality" />
		<tag k="ssr:stedsnr" v="173209" />
	</node>
	<node id="-11608" lat="59.3311388895" lon="11.6318638898">
		<tag k="name" v="Saghytta" />
		<tag k="place" v="locality" />
		<tag k="ssr:stedsnr" v="173372" />
	</node>
	<node id="-11607" lat="59.332244446" lon="11.6233138974">
		<tag k="name" v="Kjerringløkka" />
		<tag k="place" v="locality" />
		<tag k="ssr:stedsnr" v="173371" />
	</node>
	<node id="-11605" lat="59.330900004" lon="11.7841583265">
		<tag k="name" v="Klokkernebba" />
		<tag k="place" v="locality" />
		<tag k="ssr:stedsnr" v="173366" />
	</node>
	<node id="-11602" lat="59.5486222194" lon="11.6680916717">
		<tag k="name" v="Lauvbråta" />
		<tag k="place" v="locality" />
		<tag k="ssr:stedsnr" v="173353" />
	</node>
	<node id="-11597" lat="59.3890416676" lon="11.6360166627">
		<tag k="name" v="Korshogne grana" />
		<tag k="place" v="locality" />
		<tag k="ssr:stedsnr" v="172852" />
	</node>
	<node id="-11587" lat="59.3648138862" lon="11.6304222212">
		<tag k="name" v="Brodal" />
		<tag k="place" v="locality" />
		<tag k="ssr:stedsnr" v="172316" />
	</node>
	<node id="-11550" lat="59.6010944408" lon="11.5879166687">
		<tag k="name" v="Faukerud" />
		<tag k="place" v="locality" />
		<tag k="ssr:stedsnr" v="114559" />
	</node>
	<node id="-11546" lat="59.4790416661" lon="11.7360499974">
		<tag k="name" v="Håbybakkene" />
		<tag k="place" v="locality" />
		<tag k="ssr:stedsnr" v="113915" />
	</node>
	<node id="-10799" lat="59.4513583332" lon="11.6168361103">
		<tag k="name" v="Sagtangen" />
		<tag k="place" v="locality" />
		<tag k="ssr:stedsnr" v="294812" />
	</node>
	<node id="-11544" lat="59.4658694404" lon="11.7527805507">
		<tag k="name" v="Nordre Brenna" />
		<tag k="place" v="locality" />
		<tag k="ssr:stedsnr" v="113899" />
	</node>
	<node id="-11543" lat="59.4699416623" lon="11.747922227">
		<tag k="name" v="Reveberget" />
		<tag k="place" v="locality" />
		<tag k="ssr:stedsnr" v="113900" />
	</node>
	<node id="-11524" lat="59.4523888869" lon="11.6393444461">
		<tag k="name" v="Kalveroa" />
		<tag k="place" v="locality" />
		<tag k="ssr:stedsnr" v="113492" />
	</node>
	<node id="-11517" lat="59.6511583336" lon="11.681097217">
		<tag k="name" v="Tiuren" />
		<tag k="place" v="locality" />
		<tag k="ssr:stedsnr" v="113426" />
	</node>
	<node id="-11506" lat="59.338419444" lon="11.6867027699">
		<tag k="name" v="Hungersnippen" />
		<tag k="place" v="locality" />
		<tag k="ssr:stedsnr" v="113304" />
	</node>
	<node id="-11494" lat="59.5000972211" lon="11.6357194412">
		<tag k="name" v="Paradis" />
		<tag k="place" v="locality" />
		<tag k="ssr:stedsnr" v="113214" />
	</node>
	<node id="-11493" lat="59.4929388926" lon="11.6262722243">
		<tag k="name" v="Slaberget" />
		<tag k="place" v="locality" />
		<tag k="ssr:stedsnr" v="113211" />
	</node>
	<node id="-11492" lat="59.581780552" lon="11.546966662">
		<tag k="name" v="Sandgrava" />
		<tag k="place" v="locality" />
		<tag k="ssr:stedsnr" v="113196" />
	</node>
	<node id="-10790" lat="59.4337555513" lon="11.6326166655">
		<tag k="name" v="Paradis" />
		<tag k="place" v="locality" />
		<tag k="ssr:stedsnr" v="294586" />
	</node>
	<node id="-11483" lat="59.6293972263" lon="11.6031888961">
		<tag k="name" v="Hestehagevelta" />
		<tag k="place" v="locality" />
		<tag k="ssr:stedsnr" v="113138" />
	</node>
	<node id="-11466" lat="59.3708944422" lon="11.7396722191">
		<tag k="name" v="Katissa" />
		<tag k="place" v="locality" />
		<tag k="ssr:stedsnr" v="112820" />
	</node>
	<node id="-11464" lat="59.3553055561" lon="11.7613444419">
		<tag k="name" v="Vedtorvet" />
		<tag k="place" v="locality" />
		<tag k="ssr:stedsnr" v="112807" />
	</node>
	<node id="-11461" lat="59.4223972253" lon="11.5990472137">
		<tag k="name" v="Larsbrenna" />
		<tag k="place" v="locality" />
		<tag k="ssr:stedsnr" v="112788" />
	</node>
	<node id="-11459" lat="59.4181027794" lon="11.7519500011">
		<tag k="name" v="Inntaket" />
		<tag k="place" v="locality" />
		<tag k="ssr:stedsnr" v="112917" />
	</node>
	<node id="-11454" lat="59.3836555539" lon="11.6985583355">
		<tag k="name" v="Sandbekk" />
		<tag k="place" v="locality" />
		<tag k="ssr:stedsnr" v="112529" />
	</node>
	<node id="-11452" lat="59.3237611118" lon="11.8083111155">
		<tag k="name" v="Halmstad" />
		<tag k="place" v="locality" />
		<tag k="ssr:stedsnr" v="112495" />
	</node>
	<node id="-11448" lat="59.5355444484" lon="11.5736888947">
		<tag k="name" v="Ødegården" />
		<tag k="place" v="locality" />
		<tag k="ssr:stedsnr" v="112437" />
	</node>
	<node id="-11446" lat="59.5394805521" lon="11.6775055497">
		<tag k="name" v="Måstadbråten" />
		<tag k="place" v="locality" />
		<tag k="ssr:stedsnr" v="112410" />
	</node>
	<node id="-11438" lat="59.3526805537" lon="11.7057250049">
		<tag k="name" v="Brygga" />
		<tag k="place" v="locality" />
		<tag k="ssr:stedsnr" v="112350" />
	</node>
	<node id="-11401" lat="59.5627805565" lon="11.6558638864">
		<tag k="name" v="Kastet" />
		<tag k="place" v="locality" />
		<tag k="ssr:stedsnr" v="53412" />
	</node>
	<node id="-11391" lat="59.5067916657" lon="11.7090805469">
		<tag k="name" v="Torgmosen" />
		<tag k="place" v="locality" />
		<tag k="ssr:stedsnr" v="53031" />
	</node>
	<node id="-11385" lat="59.6030249989" lon="11.5846638823">
		<tag k="name" v="Hagan" />
		<tag k="place" v="locality" />
		<tag k="ssr:stedsnr" v="52909" />
	</node>
	<node id="-11372" lat="59.4712694442" lon="11.6461833269">
		<tag k="name" v="Nisseberget" />
		<tag k="place" v="locality" />
		<tag k="ssr:stedsnr" v="52667" />
	</node>
	<node id="-11371" lat="59.6013944479" lon="11.6313666742">
		<tag k="name" v="Kjone" />
		<tag k="place" v="locality" />
		<tag k="ssr:stedsnr" v="52651" />
	</node>
	<node id="-11362" lat="59.5433500012" lon="11.5412138898">
		<tag k="name" v="Svingbakken" />
		<tag k="place" v="locality" />
		<tag k="ssr:stedsnr" v="52548" />
	</node>
	<node id="-11357" lat="59.6140361091" lon="11.5329555627">
		<tag k="name" v="Skjoldenhytta" />
		<tag k="place" v="locality" />
		<tag k="ssr:stedsnr" v="52493" />
	</node>
	<node id="-11354" lat="59.5928138913" lon="11.563500003">
		<tag k="name" v="Homannshaugen" />
		<tag k="place" v="locality" />
		<tag k="ssr:stedsnr" v="52486" />
	</node>
	<node id="-11349" lat="59.394630554" lon="11.7009472138">
		<tag k="name" v="Lerdal" />
		<tag k="place" v="locality" />
		<tag k="ssr:stedsnr" v="52468" />
	</node>
	<node id="-11348" lat="59.5113749986" lon="11.617241667">
		<tag k="name" v="Viksenga" />
		<tag k="place" v="locality" />
		<tag k="ssr:stedsnr" v="52463" />
	</node>
	<node id="-11347" lat="59.4058527768" lon="11.6470694514">
		<tag k="name" v="Perebråten" />
		<tag k="place" v="locality" />
		<tag k="ssr:stedsnr" v="52455" />
	</node>
	<node id="-11339" lat="59.6689277802" lon="11.6657694482">
		<tag k="name" v="Orregrana" />
		<tag k="place" v="locality" />
		<tag k="ssr:stedsnr" v="52385" />
	</node>
	<node id="-11335" lat="59.5266555526" lon="11.6851722135">
		<tag k="name" v="Grand hotell" />
		<tag k="place" v="locality" />
		<tag k="ssr:stedsnr" v="52329" />
	</node>
	<node id="-11330" lat="59.5043888929" lon="11.6992388886">
		<tag k="name" v="Skåbommen" />
		<tag k="place" v="locality" />
		<tag k="ssr:stedsnr" v="52234" />
	</node>
	<node id="-11327" lat="59.4887194476" lon="11.6368277804">
		<tag k="name" v="Nordre Kastet" />
		<tag k="place" v="locality" />
		<tag k="ssr:stedsnr" v="52221" />
	</node>
	<node id="-13374" lat="59.4133805515" lon="11.5862305629">
		<tag k="name" v="Kjella" />
		<tag k="place" v="locality" />
		<tag k="ssr:stedsnr" v="963162" />
	</node>
	<node id="-13367" lat="59.5136027739" lon="11.5656527859">
		<tag k="name" v="Seterbua" />
		<tag k="place" v="locality" />
		<tag k="ssr:stedsnr" v="962950" />
	</node>
	<node id="-13362" lat="59.6100916637" lon="11.6057361196">
		<tag k="loc_name" v="Veinemoen nedre" />
		<tag k="name" v="Veinemo" />
		<tag k="place" v="locality" />
		<tag k="ssr:stedsnr" v="962907" />
	</node>
	<node id="-11312" lat="59.352322223" lon="11.5843444379">
		<tag k="name" v="Fleseren" />
		<tag k="place" v="locality" />
		<tag k="ssr:stedsnr" v="52098" />
	</node>
	<node id="-11101" lat="59.341333335" lon="11.5794111058">
		<tag k="name" v="Søgårdsødegård" />
		<tag k="place" v="locality" />
		<tag k="ssr:stedsnr" v="476133" />
	</node>
	<node id="-13356" lat="59.4759194405" lon="11.5884861184">
		<tag k="name" v="Skumpen" />
		<tag k="place" v="locality" />
		<tag k="ssr:stedsnr" v="962821" />
	</node>
	<node id="-11304" lat="59.3623805566" lon="11.7910666746">
		<tag k="name" v="Linemosen" />
		<tag k="place" v="locality" />
		<tag k="ssr:stedsnr" v="51894" />
	</node>
	<node id="-13350" lat="59.5736388892" lon="11.6199361099">
		<tag k="name" v="Ødegård" />
		<tag k="place" v="locality" />
		<tag k="ssr:stedsnr" v="962736" />
	</node>
	<node id="-11297" lat="59.3543972245" lon="11.7597055477">
		<tag k="name" v="Hestesprengen" />
		<tag k="place" v="locality" />
		<tag k="ssr:stedsnr" v="51831" />
	</node>
	<node id="-11296" lat="59.3564388881" lon="11.7515305562">
		<tag k="name" v="Vinterstø" />
		<tag k="place" v="locality" />
		<tag k="ssr:stedsnr" v="51830" />
	</node>
	<node id="-11294" lat="59.4518194486" lon="11.5905777772">
		<tag k="name" v="Feltspaten" />
		<tag k="place" v="locality" />
		<tag k="ssr:stedsnr" v="51811" />
	</node>
	<node id="-13338" lat="59.4544750034" lon="11.635624999">
		<tag k="name" v="Jarskleva" />
		<tag k="place" v="locality" />
		<tag k="ssr:stedsnr" v="962493" />
	</node>
	<node id="-11289" lat="59.5310250015" lon="11.6127861041">
		<tag k="name" v="Brudeberget" />
		<tag k="place" v="locality" />
		<tag k="ssr:stedsnr" v="51485" />
	</node>
	<node id="-12924" lat="59.5194277752" lon="11.7097055525">
		<tag k="name" v="Hestestallene" />
		<tag k="place" v="locality" />
		<tag k="ssr:stedsnr" v="781363" />
	</node>
	<node id="-11096" lat="59.3182972238" lon="11.5861888831">
		<tag k="name" v="Torvet" />
		<tag k="place" v="locality" />
		<tag k="ssr:stedsnr" v="476124" />
	</node>
	<node id="-13313" lat="59.5195472239" lon="11.6857388856">
		<tag k="name" v="Hansehytta" />
		<tag k="place" v="locality" />
		<tag k="ssr:stedsnr" v="962336" />
	</node>
	<node id="-13306" lat="59.6355361142" lon="11.5403583326">
		<tag k="name" v="Torget" />
		<tag k="place" v="locality" />
		<tag k="ssr:stedsnr" v="962239" />
	</node>
	<node id="-13305" lat="59.6329750037" lon="11.5426666663">
		<tag k="name" v="Hølbekk" />
		<tag k="place" v="locality" />
		<tag k="ssr:stedsnr" v="962238" />
	</node>
	<node id="-13304" lat="59.5650055514" lon="11.5723444482">
		<tag k="name" v="Berget" />
		<tag k="place" v="locality" />
		<tag k="ssr:stedsnr" v="962230" />
	</node>
	<node id="-11254" lat="59.6409661746" lon="11.6051276284">
		<tag k="name" v="Dalen" />
		<tag k="place" v="locality" />
		<tag k="ssr:stedsnr" v="3273" />
	</node>
	<node id="-13301" lat="59.575905556" lon="11.5251638841">
		<tag k="name" v="Tunskau" />
		<tag k="place" v="locality" />
		<tag k="ssr:stedsnr" v="962222" />
	</node>
	<node id="-13295" lat="59.5852999981" lon="11.5511666733">
		<tag k="name" v="Stinastua" />
		<tag k="place" v="locality" />
		<tag k="ssr:stedsnr" v="962182" />
	</node>
	<node id="-13294" lat="59.589522222" lon="11.5155166619">
		<tag k="alt_name" v="Berkas" />
		<tag k="name" v="Spjern" />
		<tag k="place" v="locality" />
		<tag k="ssr:stedsnr" v="962174" />
	</node>
	<node id="-13280" lat="59.4840888901" lon="11.6020583341">
		<tag k="name" v="Pinihel" />
		<tag k="place" v="locality" />
		<tag k="ssr:stedsnr" v="961853" />
	</node>
	<node id="-13277" lat="59.4588555579" lon="11.6103888824">
		<tag k="name" v="Seterle" />
		<tag k="place" v="locality" />
		<tag k="ssr:stedsnr" v="961829" />
	</node>
	<node id="-13274" lat="59.4580472225" lon="11.5968611085">
		<tag k="name" v="Kullkleva" />
		<tag k="place" v="locality" />
		<tag k="ssr:stedsnr" v="961792" />
	</node>
	<node id="-13270" lat="59.4175333349" lon="11.6332805645">
		<tag k="name" v="Lille Svenskekleva" />
		<tag k="place" v="locality" />
		<tag k="ssr:stedsnr" v="961553" />
	</node>
	<node id="-13268" lat="59.373144441" lon="11.6959805591">
		<tag k="name" v="Strutehytta" />
		<tag k="place" v="locality" />
		<tag k="ssr:stedsnr" v="961309" />
	</node>
	<node id="-13267" lat="59.3713527816" lon="11.6296444371">
		<tag k="name" v="Inntaket" />
		<tag k="place" v="locality" />
		<tag k="ssr:stedsnr" v="961295" />
	</node>
	<node id="-11208" lat="59.5880388932" lon="11.5888083344">
		<tag k="name" v="Sofienlund" />
		<tag k="place" v="locality" />
		<tag k="ssr:stedsnr" v="477536" />
	</node>
	<node id="-11192" lat="59.5664388876" lon="11.6658888869">
		<tag k="name" v="Høgsetet" />
		<tag k="place" v="locality" />
		<tag k="ssr:stedsnr" v="477397" />
	</node>
	<node id="-13234" lat="59.3382027805" lon="11.8131972156">
		<tag k="name" v="Korsbjørka" />
		<tag k="place" v="locality" />
		<tag k="ssr:stedsnr" v="902822" />
	</node>
	<node id="-13227" lat="59.4808083375" lon="11.673636106">
		<tag k="name" v="Åstoppen" />
		<tag k="place" v="locality" />
		<tag k="ssr:stedsnr" v="902747" />
	</node>
	<node id="-13223" lat="59.5991694415" lon="11.5592166701">
		<tag k="name" v="Meieriet" />
		<tag k="place" v="locality" />
		<tag k="ssr:stedsnr" v="902565" />
	</node>
	<node id="-11164" lat="59.3563277807" lon="11.5889777745">
		<tag k="name" v="Bukkeklev" />
		<tag k="place" v="locality" />
		<tag k="ssr:stedsnr" v="477077" />
	</node>
	<node id="-11158" lat="59.3742638893" lon="11.7757916602">
		<tag k="name" v="Gjeta" />
		<tag k="place" v="locality" />
		<tag k="ssr:stedsnr" v="476987" />
	</node>
	<node id="-11150" lat="59.3671944436" lon="11.7557472264">
		<tag k="name" v="Korsora" />
		<tag k="place" v="locality" />
		<tag k="ssr:stedsnr" v="476815" />
	</node>
	<node id="-13190" lat="59.5021916671" lon="11.6231916617">
		<tag k="name" v="Mikkelvoll" />
		<tag k="place" v="locality" />
		<tag k="ssr:stedsnr" v="902205" />
	</node>
	<node id="-11141" lat="59.6126416666" lon="11.6611999944">
		<tag k="name" v="Svingbakken" />
		<tag k="place" v="locality" />
		<tag k="ssr:stedsnr" v="476663" />
	</node>
	<node id="-13182" lat="59.3730916664" lon="11.6137750003">
		<tag k="name" v="Slasvull" />
		<tag k="place" v="locality" />
		<tag k="ssr:stedsnr" v="902087" />
	</node>
	<node id="-13175" lat="59.3709194428" lon="11.7677722143">
		<tag k="name" v="Stråmyr" />
		<tag k="place" v="locality" />
		<tag k="ssr:stedsnr" v="901990" />
	</node>
	<node id="-13174" lat="59.3644055579" lon="11.7678222217">
		<tag k="name" v="Dalakasa" />
		<tag k="place" v="locality" />
		<tag k="ssr:stedsnr" v="901988" />
	</node>
	<node id="-13169" lat="59.3797666689" lon="11.7586694481">
		<tag k="name" v="Sandbakken" />
		<tag k="place" v="locality" />
		<tag k="ssr:stedsnr" v="901914" />
	</node>
	<node id="-13166" lat="59.3967194462" lon="11.7726611049">
		<tag k="name" v="Bringebærholta" />
		<tag k="place" v="locality" />
		<tag k="ssr:stedsnr" v="901897" />
	</node>
	<node id="-11116" lat="59.665102781" lon="11.7069333365">
		<tag k="name" v="Snøplogskiftet" />
		<tag k="place" v="locality" />
		<tag k="ssr:stedsnr" v="476328" />
	</node>
	<node id="-13161" lat="59.3959000042" lon="11.626491661">
		<tag k="name" v="Nordal" />
		<tag k="place" v="locality" />
		<tag k="ssr:stedsnr" v="901825" />
	</node>
	<node id="-11105" lat="59.493586108" lon="11.6328611169">
		<tag k="name" v="Kverndalshaugen" />
		<tag k="place" v="locality" />
		<tag k="ssr:stedsnr" v="476204" />
	</node>
	<node id="-13152" lat="59.4307777817" lon="11.6536027731">
		<tag k="name" v="Slupstad" />
		<tag k="place" v="locality" />
		<tag k="ssr:stedsnr" v="901630" />
	</node>
	<node id="-13151" lat="59.4375555587" lon="11.6507472162">
		<tag k="name" v="Hulteporten" />
		<tag k="place" v="locality" />
		<tag k="ssr:stedsnr" v="901631" />
	</node>
	<node id="-11102" lat="59.5027555562" lon="11.6237138901">
		<tag k="name" v="Mikkelberg" />
		<tag k="place" v="locality" />
		<tag k="ssr:stedsnr" v="476192" />
	</node>
	<node id="-13149" lat="59.5354194444" lon="11.5563083257">
		<tag k="name" v="Slesvik" />
		<tag k="place" v="locality" />
		<tag k="ssr:stedsnr" v="901606" />
	</node>
	<node id="-13148" lat="59.533699999" lon="11.5565305521">
		<tag k="name" v="Holstein" />
		<tag k="place" v="locality" />
		<tag k="ssr:stedsnr" v="901607" />
	</node>
	<node id="-11097" lat="59.3234583332" lon="11.6031416675">
		<tag k="name" v="Nøtteholtet" />
		<tag k="place" v="locality" />
		<tag k="ssr:stedsnr" v="476126" />
	</node>
	<node id="-13144" lat="59.4160749966" lon="11.6294638842">
		<tag k="name" v="Enebutt" />
		<tag k="place" v="locality" />
		<tag k="ssr:stedsnr" v="901547" />
	</node>
	<node id="-13138" lat="59.5438611072" lon="11.603358326">
		<tag k="name" v="Månevik" />
		<tag k="place" v="locality" />
		<tag k="ssr:stedsnr" v="901457" />
	</node>
	<node id="-11089" lat="59.5953833328" lon="11.6359277764">
		<tag k="name" v="Langbråteleet" />
		<tag k="place" v="locality" />
		<tag k="ssr:stedsnr" v="477293" />
	</node>
	<node id="-13127" lat="59.37575278" lon="11.7069999997">
		<tag k="name" v="Hundehuset" />
		<tag k="place" v="locality" />
		<tag k="ssr:stedsnr" v="901288" />
	</node>
	<node id="-13119" lat="59.596497221" lon="11.6135277729">
		<tag k="amenity" v="community_centre" />
		<tag k="name" v="Bondestua" />
		<tag k="ssr:stedsnr" v="854447" />
	</node>
	<node id="-13102" lat="59.6463888867" lon="11.6884916751">
		<tag k="name" v="Veatorget" />
		<tag k="place" v="locality" />
		<tag k="ssr:stedsnr" v="853233" />
	</node>
	<node id="-13091" lat="59.5573305513" lon="11.6516805498">
		<tag k="name" v="Håby" />
		<tag k="place" v="locality" />
		<tag k="ssr:stedsnr" v="842397" />
	</node>
	<node id="-13089" lat="59.3441583367" lon="11.6947194402">
		<tag k="name" v="Bergerud" />
		<tag k="place" v="locality" />
		<tag k="ssr:stedsnr" v="842358" />
	</node>
	<node id="-11039" lat="59.5533250018" lon="11.6981111028">
		<tag k="name" v="Brenna" />
		<tag k="place" v="locality" />
		<tag k="ssr:stedsnr" v="356398" />
	</node>
	<node id="-13079" lat="59.3876749977" lon="11.5998055639">
		<tag k="name" v="Langetjernkleva" />
		<tag k="place" v="locality" />
		<tag k="ssr:stedsnr" v="842092" />
	</node>
	<node id="-13072" lat="59.3664250014" lon="11.7830388869">
		<tag k="name" v="Melkebråten" />
		<tag k="place" v="locality" />
		<tag k="ssr:stedsnr" v="841987" />
	</node>
	<node id="-11020" lat="59.4948861131" lon="11.5989861123">
		<tag k="name" v="Grønnli" />
		<tag k="place" v="locality" />
		<tag k="ssr:stedsnr" v="355907" />
	</node>
	<node id="-11018" lat="59.6045583309" lon="11.5867305573">
		<tag k="name" v="Lillehammer" />
		<tag k="place" v="locality" />
		<tag k="ssr:stedsnr" v="355893" />
	</node>
	<node id="-13064" lat="59.4749999964" lon="11.7454361161">
		<tag k="name" v="Øvre Håbybakkene" />
		<tag k="place" v="locality" />
		<tag k="ssr:stedsnr" v="841910" />
	</node>
	<node id="-13063" lat="59.5977722231" lon="11.5822222308">
		<tag k="name" v="Vittenberg" />
		<tag k="place" v="locality" />
		<tag k="ssr:stedsnr" v="841904" />
	</node>
	<node id="-13058" lat="59.481183334" lon="11.6495916713">
		<tag k="name" v="Tippesletta" />
		<tag k="place" v="locality" />
		<tag k="ssr:stedsnr" v="841740" />
	</node>
	<node id="-11008" lat="59.4770416707" lon="11.6397499952">
		<tag k="name" v="Store Utkikstårn" />
		<tag k="ssr:stedsnr" v="355722" />
		<tag k="tourism" v="viewpoint" />
	</node>
	<node id="-13055" lat="59.4471916703" lon="11.717030554">
		<tag k="name" v="Høkelund" />
		<tag k="place" v="locality" />
		<tag k="ssr:stedsnr" v="841699" />
	</node>
	<node id="-13045" lat="59.6086333309" lon="11.525686117">
		<tag k="name" v="Damjordet" />
		<tag k="place" v="locality" />
		<tag k="ssr:stedsnr" v="841530" />
	</node>
	<node id="-13044" lat="59.64167778" lon="11.644955557">
		<tag k="alt_name" v="Vaet" />
		<tag k="name" v="Vadet" />
		<tag k="place" v="locality" />
		<tag k="ssr:stedsnr" v="841529" />
	</node>
	<node id="-13042" lat="59.6411138883" lon="11.6546722301">
		<tag k="name" v="Eggesteinene" />
		<tag k="place" v="locality" />
		<tag k="ssr:stedsnr" v="841525" />
	</node>
	<node id="-10992" lat="59.4171861105" lon="11.6402499986">
		<tag k="name" v="Myra" />
		<tag k="place" v="locality" />
		<tag k="ssr:stedsnr" v="355502" />
	</node>
	<node id="-13039" lat="59.5995805553" lon="11.5601361042">
		<tag k="name" v="Veiby" />
		<tag k="place" v="locality" />
		<tag k="ssr:stedsnr" v="841517" />
	</node>
	<node id="-10989" lat="59.4105305514" lon="11.6307805615">
		<tag k="name" v="Torvet" />
		<tag k="place" v="locality" />
		<tag k="ssr:stedsnr" v="355495" />
	</node>
	<node id="-13025" lat="59.3317083337" lon="11.7052861123">
		<tag k="name" v="Bjørnstad" />
		<tag k="place" v="locality" />
		<tag k="ssr:stedsnr" v="841433" />
	</node>
	<node id="-10976" lat="59.4538361144" lon="11.6320972254">
		<tag k="name" v="Elvestad" />
		<tag k="place" v="locality" />
		<tag k="ssr:stedsnr" v="355461" />
	</node>
	<node id="-13020" lat="59.3224388853" lon="11.8150222153">
		<tag k="name" v="Demmarydningen" />
		<tag k="place" v="locality" />
		<tag k="ssr:stedsnr" v="841409" />
	</node>
	<node id="-13014" lat="59.3837194456" lon="11.64546666">
		<tag k="name" v="Valby" />
		<tag k="place" v="locality" />
		<tag k="ssr:stedsnr" v="841325" />
	</node>
	<node id="-13012" lat="59.5651527815" lon="11.5711527727">
		<tag k="name" v="Myrås" />
		<tag k="place" v="locality" />
		<tag k="ssr:stedsnr" v="841248" />
	</node>
	<node id="-10961" lat="59.3163250042" lon="11.6174833345">
		<tag k="name" v="Kileklevene" />
		<tag k="place" v="locality" />
		<tag k="ssr:stedsnr" v="355378" />
	</node>
	<node id="-13008" lat="59.6222055591" lon="11.5614138816">
		<tag k="alt_name" v="Bråten nordre" />
		<tag k="name" v="Nordre Bråten" />
		<tag k="place" v="locality" />
		<tag k="ssr:stedsnr" v="841237" />
	</node>
	<node id="-13007" lat="59.6227555584" lon="11.5663333306">
		<tag k="name" v="Torebråten" />
		<tag k="place" v="locality" />
		<tag k="ssr:stedsnr" v="841235" />
	</node>
	<node id="-10955" lat="59.5445666702" lon="11.6762472282">
		<tag k="name" v="Dynepus" />
		<tag k="place" v="locality" />
		<tag k="ssr:stedsnr" v="355352" />
	</node>
	<node id="-10953" lat="59.6593916628" lon="11.7171611188">
		<tag k="name" v="Prestebordsand" />
		<tag k="place" v="locality" />
		<tag k="ssr:stedsnr" v="355304" />
	</node>
	<node id="-12992" lat="59.4632583293" lon="11.7151611187">
		<tag k="name" v="Bergby" />
		<tag k="place" v="locality" />
		<tag k="ssr:stedsnr" v="841032" />
	</node>
	<node id="-10943" lat="59.4846944409" lon="11.6456111121">
		<tag k="name" v="Søndre Kastet" />
		<tag k="place" v="locality" />
		<tag k="ssr:stedsnr" v="355235" />
	</node>
	<node id="-12990" lat="59.374224998" lon="11.7699805543">
		<tag k="name" v="Fosbystykket" />
		<tag k="place" v="locality" />
		<tag k="ssr:stedsnr" v="840984" />
	</node>
	<node id="-12989" lat="59.3725277781" lon="11.7757916715">
		<tag k="name" v="Posemosen" />
		<tag k="place" v="locality" />
		<tag k="ssr:stedsnr" v="840981" />
	</node>
	<node id="-10934" lat="59.6356777752" lon="11.6066916616">
		<tag k="name" v="Nyengen" />
		<tag k="place" v="locality" />
		<tag k="ssr:stedsnr" v="355108" />
	</node>
	<node id="-12972" lat="59.3691194469" lon="11.6915416727">
		<tag k="name" v="Svennehullet" />
		<tag k="place" v="locality" />
		<tag k="ssr:stedsnr" v="840309" />
	</node>
	<node id="-12969" lat="59.3677416677" lon="11.6229416715">
		<tag k="name" v="Hytta" />
		<tag k="place" v="locality" />
		<tag k="ssr:stedsnr" v="840291" />
	</node>
	<node id="-10920" lat="59.4443527783" lon="11.6144222222">
		<tag k="name" v="Høyseter" />
		<tag k="place" v="locality" />
		<tag k="ssr:stedsnr" v="354823" />
	</node>
	<node id="-10911" lat="59.5343000002" lon="11.6021277796">
		<tag k="name" v="Elvestad" />
		<tag k="place" v="locality" />
		<tag k="ssr:stedsnr" v="354451" />
	</node>
	<node id="-10900" lat="59.5592416683" lon="11.5652138945">
		<tag k="alt_name" v="Smeby vestre" />
		<tag k="name" v="Vestre Smeby" />
		<tag k="place" v="locality" />
		<tag k="ssr:stedsnr" v="329057" />
	</node>
	<node id="-11031" lat="59.593619445" lon="11.4929138881">
		<tag k="name" v="Tavlene" />
		<tag k="place" v="locality" />
		<tag k="ssr:stedsnr" v="356303" />
	</node>
	<node id="-10888" lat="59.5031416658" lon="11.6277194482">
		<tag k="amenity" v="place_of_worship" />
		<tag k="fixme" v="specify religion=*, denomination=*, building=* etc" />
		<tag k="name" v="Sjøglimt" />
		<tag k="ssr:stedsnr" v="307383" />
	</node>
	<node id="-10880" lat="59.4198222194" lon="11.6639388905">
		<tag k="amenity" v="place_of_worship" />
		<tag k="denomination" v="lutheran" />
		<tag k="name" v="Øymark kirke" />
		<tag k="religion" v="christian" />
		<tag k="ssr:stedsnr" v="306473" />
	</node>
	<node id="-10876" lat="59.4650805565" lon="11.7359111049">
		<tag k="name" v="Reveberget" />
		<tag k="place" v="locality" />
		<tag k="ssr:stedsnr" v="295920" />
	</node>
	<node id="-10875" lat="59.4641944429" lon="11.7541972137">
		<tag k="name" v="Vestre Brenna" />
		<tag k="place" v="locality" />
		<tag k="ssr:stedsnr" v="295917" />
	</node>
	<node id="-10866" lat="59.4716361151" lon="11.6542638954">
		<tag k="name" v="Tittut" />
		<tag k="place" v="locality" />
		<tag k="ssr:stedsnr" v="295713" />
	</node>
	<node id="-12912" lat="59.4946694423" lon="11.5331361034">
		<tag k="name" v="Vaktmesterposten" />
		<tag k="place" v="locality" />
		<tag k="ssr:stedsnr" v="780941" />
	</node>
	<node id="-12911" lat="59.6161222215" lon="11.5692138955">
		<tag k="name" v="Hagahaugen" />
		<tag k="place" v="locality" />
		<tag k="ssr:stedsnr" v="780939" />
	</node>
	<node id="-12910" lat="59.5126305534" lon="11.5648722182">
		<tag k="name" v="Stormoen" />
		<tag k="place" v="locality" />
		<tag k="ssr:stedsnr" v="780924" />
	</node>
	<node id="-12909" lat="59.6013444469" lon="11.6145583334">
		<tag k="name" v="Morteberget" />
		<tag k="place" v="locality" />
		<tag k="ssr:stedsnr" v="780901" />
	</node>
	<node id="-10856" lat="59.60599167" lon="11.5405916583">
		<tag k="name" v="Bakke" />
		<tag k="place" v="locality" />
		<tag k="ssr:stedsnr" v="295547" />
	</node>
	<node id="-12902" lat="59.4791527739" lon="11.6472944375">
		<tag k="name" v="Nordre Fort" />
		<tag k="ssr:stedsnr" v="780708" />
		<tag k="tourism" v="attraction" />
	</node>
	<node id="-10836" lat="59.5147138871" lon="11.6742166746">
		<tag k="name" v="Østby" />
		<tag k="place" v="locality" />
		<tag k="ssr:stedsnr" v="295361" />
	</node>
	<node id="-12881" lat="59.4092305575" lon="11.6625777694">
		<tag k="name" v="Gjøngerud" />
		<tag k="place" v="locality" />
		<tag k="ssr:stedsnr" v="780500" />
	</node>
	<node id="-12880" lat="59.4149527815" lon="11.6293777722">
		<tag k="name" v="Store Svenskekleva" />
		<tag k="place" v="locality" />
		<tag k="ssr:stedsnr" v="780494" />
	</node>
	<node id="-10830" lat="59.5778638896" lon="11.5506555622">
		<tag k="name" v="Halvorshytta" />
		<tag k="place" v="locality" />
		<tag k="ssr:stedsnr" v="295229" />
	</node>
	<node id="-12877" lat="59.414972222" lon="11.635513886">
		<tag k="name" v="Engebråten" />
		<tag k="place" v="locality" />
		<tag k="ssr:stedsnr" v="780488" />
	</node>
	<node id="-12875" lat="59.3773361123" lon="11.671274998">
		<tag k="name" v="Lerdal" />
		<tag k="place" v="locality" />
		<tag k="ssr:stedsnr" v="780473" />
	</node>
	<node id="-10826" lat="59.5874722247" lon="11.5430388968">
		<tag k="name" v="Klerudbråten" />
		<tag k="place" v="locality" />
		<tag k="ssr:stedsnr" v="295177" />
	</node>
	<node id="-12870" lat="59.6004888885" lon="11.5314388812">
		<tag k="name" v="Røllerud" />
		<tag k="place" v="locality" />
		<tag k="ssr:stedsnr" v="780464" />
	</node>
	<node id="-10821" lat="59.3784916698" lon="11.6057388858">
		<tag k="loc_name" v="Holtesetret" />
		<tag k="name" v="Holtesætre" />
		<tag k="place" v="locality" />
		<tag k="ssr:stedsnr" v="295089" />
	</node>
	<node id="-12867" lat="59.4579499977" lon="11.6356833259">
		<tag k="name" v="Fossumhagen" />
		<tag k="place" v="locality" />
		<tag k="ssr:stedsnr" v="780457" />
	</node>
	<node id="-10818" lat="59.5549277807" lon="11.5712388972">
		<tag k="name" v="Lybekk" />
		<tag k="place" v="locality" />
		<tag k="ssr:stedsnr" v="295066" />
	</node>
	<node id="-12865" lat="59.517591668" lon="11.597091672">
		<tag k="name" v="Vemmelbråten" />
		<tag k="place" v="locality" />
		<tag k="ssr:stedsnr" v="780444" />
	</node>
	<node id="-10813" lat="59.514322221" lon="11.5221472288">
		<tag k="name" v="Kjonestein" />
		<tag k="place" v="locality" />
		<tag k="ssr:stedsnr" v="294951" />
	</node>
	<node id="-10812" lat="59.4920305587" lon="11.6145944493">
		<tag k="name" v="Torget" />
		<tag k="place" v="locality" />
		<tag k="ssr:stedsnr" v="294945" />
	</node>
	<node id="-12855" lat="59.5918055576" lon="11.6391222294">
		<tag k="name" v="Fredrikstol" />
		<tag k="place" v="locality" />
		<tag k="ssr:stedsnr" v="780395" />
	</node>
	<node id="-10802" lat="59.3951277754" lon="11.6416694396">
		<tag k="name" v="Svarverud" />
		<tag k="place" v="locality" />
		<tag k="ssr:stedsnr" v="294820" />
	</node>
	<node id="-12847" lat="59.5318333308" lon="11.700388883">
		<tag k="name" v="Kjelleren" />
		<tag k="place" v="locality" />
		<tag k="ssr:stedsnr" v="780352" />
	</node>
	<node id="-10796" lat="59.473758329" lon="11.575555552">
		<tag k="name" v="Vassbuleet" />
		<tag k="place" v="locality" />
		<tag k="ssr:stedsnr" v="294804" />
	</node>
	<node id="-12839" lat="59.6160722227" lon="11.543286106">
		<tag k="name" v="Fokkenborgbråten" />
		<tag k="place" v="locality" />
		<tag k="ssr:stedsnr" v="780227" />
	</node>
	<node id="-12838" lat="59.580611108" lon="11.5243277798">
		<tag k="name" v="Kattisa" />
		<tag k="place" v="locality" />
		<tag k="ssr:stedsnr" v="780224" />
	</node>
	<node id="-12836" lat="59.574872222" lon="11.5446722283">
		<tag k="name" v="Kallehytta" />
		<tag k="place" v="locality" />
		<tag k="ssr:stedsnr" v="780215" />
	</node>
	<node id="-10780" lat="59.329066671" lon="11.8097333326">
		<tag k="name" v="Blindtarmen" />
		<tag k="place" v="locality" />
		<tag k="ssr:stedsnr" v="294421" />
	</node>
	<node id="-12827" lat="59.4947555593" lon="11.7244777694">
		<tag k="name" v="Vinterleet" />
		<tag k="place" v="locality" />
		<tag k="ssr:stedsnr" v="780129" />
	</node>
	<node id="-12825" lat="59.327080559" lon="11.5926777698">
		<tag k="name" v="Jakobshytta" />
		<tag k="place" v="locality" />
		<tag k="ssr:stedsnr" v="780115" />
	</node>
	<node id="-10776" lat="59.4288194432" lon="11.6323583309">
		<tag k="name" v="Kjøkkenet" />
		<tag k="place" v="locality" />
		<tag k="ssr:stedsnr" v="294634" />
	</node>
	<node id="-10773" lat="59.4094305577" lon="11.6904416605">
		<tag k="name" v="Moseby" />
		<tag k="place" v="locality" />
		<tag k="ssr:stedsnr" v="294610" />
	</node>
	<node id="-12817" lat="59.4410500012" lon="11.758366661">
		<tag k="name" v="Djupekost" />
		<tag k="place" v="locality" />
		<tag k="ssr:stedsnr" v="779918" />
	</node>
	<node id="-12814" lat="59.3957361087" lon="11.7669972138">
		<tag k="name" v="Østre Ekenes" />
		<tag k="place" v="locality" />
		<tag k="ssr:stedsnr" v="779893" />
	</node>
	<node id="-12812" lat="59.3707944409" lon="11.7887833319">
		<tag k="name" v="Kjelleren" />
		<tag k="place" v="locality" />
		<tag k="ssr:stedsnr" v="779882" />
	</node>
	<node id="-12811" lat="59.3839500001" lon="11.7490388873">
		<tag k="name" v="Rødklev" />
		<tag k="place" v="locality" />
		<tag k="ssr:stedsnr" v="779877" />
	</node>
	<node id="-10761" lat="59.5487861107" lon="11.6445500074">
		<tag k="name" v="Sandvad" />
		<tag k="place" v="locality" />
		<tag k="ssr:stedsnr" v="294410" />
	</node>
	<node id="-12806" lat="59.4554638898" lon="11.5788916689">
		<tag k="name" v="Kastbakken" />
		<tag k="place" v="locality" />
		<tag k="ssr:stedsnr" v="779757" />
	</node>
	<node id="-12805" lat="59.425594447" lon="11.6487166607">
		<tag k="name" v="Karelske nes" />
		<tag k="place" v="locality" />
		<tag k="ssr:stedsnr" v="779638" />
	</node>
	<node id="-12803" lat="59.5381083361" lon="11.5671277845">
		<tag k="name" v="Tøften" />
		<tag k="place" v="locality" />
		<tag k="ssr:stedsnr" v="779487" />
	</node>
	<node id="-12802" lat="59.5280944464" lon="11.5789027697">
		<tag k="name" v="Kamperudneset" />
		<tag k="place" v="locality" />
		<tag k="ssr:stedsnr" v="779473" />
	</node>
	<node id="-12800" lat="59.5383555576" lon="11.6092333288">
		<tag k="name" v="Verket" />
		<tag k="place" v="locality" />
		<tag k="ssr:stedsnr" v="779453" />
	</node>
	<node id="-12799" lat="59.3683111096" lon="11.7010722217">
		<tag k="name" v="Strutevollen" />
		<tag k="place" v="locality" />
		<tag k="ssr:stedsnr" v="779314" />
	</node>
	<node id="-12798" lat="59.3751111127" lon="11.6388611077">
		<tag k="name" v="Sjursenga" />
		<tag k="place" v="locality" />
		<tag k="ssr:stedsnr" v="779303" />
	</node>
	<node id="-12763" lat="59.6175833366" lon="11.5809222149">
		<tag k="name" v="Sundåsen" />
		<tag k="place" v="locality" />
		<tag k="ssr:stedsnr" v="720970" />
	</node>
	<node id="-12754" lat="59.6126833301" lon="11.5415583351">
		<tag k="name" v="Haslerud" />
		<tag k="place" v="locality" />
		<tag k="ssr:stedsnr" v="720551" />
	</node>
	<node id="-12742" lat="59.3511722249" lon="11.6895916714">
		<tag k="name" v="Knollehytta" />
		<tag k="place" v="locality" />
		<tag k="ssr:stedsnr" v="720377" />
	</node>
	<node id="-12737" lat="59.5117388862" lon="11.6809444443">
		<tag k="name" v="Åseby" />
		<tag k="place" v="locality" />
		<tag k="ssr:stedsnr" v="720346" />
	</node>
	<node id="-12734" lat="59.6285583291" lon="11.5673805625">
		<tag k="name" v="Trossevik" />
		<tag k="place" v="locality" />
		<tag k="ssr:stedsnr" v="720233" />
	</node>
	<node id="-12731" lat="59.6322499995" lon="11.6209194365">
		<tag k="name" v="Mørres" />
		<tag k="place" v="locality" />
		<tag k="ssr:stedsnr" v="720169" />
	</node>
	<node id="-12729" lat="59.6280222261" lon="11.6626833282">
		<tag k="name" v="Ertsgravene" />
		<tag k="place" v="locality" />
		<tag k="ssr:stedsnr" v="720528" />
	</node>
	<node id="-12727" lat="59.3757833332" lon="11.6153750021">
		<tag k="name" v="Benranglet" />
		<tag k="place" v="locality" />
		<tag k="ssr:stedsnr" v="720095" />
	</node>
	<node id="-12726" lat="59.3698638933" lon="11.6076305513">
		<tag k="name" v="Svingberget" />
		<tag k="place" v="locality" />
		<tag k="ssr:stedsnr" v="720092" />
	</node>
	<node id="-12725" lat="59.3688861086" lon="11.6048611185">
		<tag k="name" v="Torvet" />
		<tag k="place" v="locality" />
		<tag k="ssr:stedsnr" v="720091" />
	</node>
	<node id="-12721" lat="59.5645999961" lon="11.5649999925">
		<tag k="alt_name" v="Smeby nordre" />
		<tag k="name" v="Nordre Smeby" />
		<tag k="place" v="locality" />
		<tag k="ssr:stedsnr" v="720059" />
	</node>
	<node id="-12716" lat="59.3829694411" lon="11.6139916581">
		<tag k="name" v="Kusvingen" />
		<tag k="place" v="locality" />
		<tag k="ssr:stedsnr" v="720107" />
	</node>
	<node id="-12705" lat="59.3590861138" lon="11.7800972141">
		<tag k="name" v="Sandbekk" />
		<tag k="place" v="locality" />
		<tag k="ssr:stedsnr" v="719803" />
	</node>
	<node id="-12701" lat="59.3474861143" lon="11.7980944437">
		<tag k="name" v="Sootfurua" />
		<tag k="place" v="locality" />
		<tag k="ssr:stedsnr" v="719789" />
	</node>
	<node id="-12699" lat="59.4304638926" lon="11.6103361043">
		<tag k="name" v="Bjørnestokken" />
		<tag k="place" v="locality" />
		<tag k="ssr:stedsnr" v="719757" />
	</node>
	<node id="-12698" lat="59.4335972243" lon="11.6145277704">
		<tag k="name" v="Signalrøset" />
		<tag k="place" v="locality" />
		<tag k="ssr:stedsnr" v="719755" />
	</node>
	<node id="-12688" lat="59.6122611154" lon="11.6334583342">
		<tag k="name" v="Iseberget" />
		<tag k="place" v="locality" />
		<tag k="ssr:stedsnr" v="719624" />
	</node>
	<node id="-12680" lat="59.4054472249" lon="11.682722221">
		<tag k="name" v="Linto" />
		<tag k="place" v="locality" />
		<tag k="ssr:stedsnr" v="719546" />
	</node>
	<node id="-12678" lat="59.4221694406" lon="11.6318777836">
		<tag k="name" v="Brenna" />
		<tag k="place" v="locality" />
		<tag k="ssr:stedsnr" v="719538" />
	</node>
	<node id="-12664" lat="59.5485166671" lon="11.6352194527">
		<tag k="name" v="Hellevad" />
		<tag k="place" v="locality" />
		<tag k="ssr:stedsnr" v="719374" />
	</node>
	<node id="-12661" lat="59.3738722212" lon="11.7253361138">
		<tag k="name" v="Vikshytta" />
		<tag k="place" v="locality" />
		<tag k="ssr:stedsnr" v="719309" />
	</node>
	<node id="-12654" lat="59.4951499976" lon="11.6475777735">
		<tag k="name" v="Ysterudbråten" />
		<tag k="place" v="locality" />
		<tag k="ssr:stedsnr" v="719199" />
	</node>
	<node id="-12651" lat="59.5859611152" lon="11.5459527725">
		<tag k="alt_name" v="Mellem-Vestby" />
		<tag k="name" v="Mellom-Vestby" />
		<tag k="place" v="locality" />
		<tag k="ssr:stedsnr" v="719194" />
	</node>
	<node id="-12648" lat="59.5888222217" lon="11.5681750037">
		<tag k="name" v="Folkenborg" />
		<tag k="place" v="locality" />
		<tag k="ssr:stedsnr" v="719142" />
	</node>
	<node id="-12629" lat="59.3808833356" lon="11.69147222">
		<tag k="name" v="Paradis" />
		<tag k="place" v="locality" />
		<tag k="ssr:stedsnr" v="719463" />
	</node>
	<node id="-12614" lat="59.5244916655" lon="11.636933339">
		<tag k="amenity" v="place_of_worship" />
		<tag k="denomination" v="lutheran" />
		<tag k="name" v="Klund kirke" />
		<tag k="religion" v="christian" />
		<tag k="ssr:stedsnr" v="671384" />
	</node>
	<node id="-13024" lat="59.6569944404" lon="11.693158331">
		<tag k="name" v="Fjellstubakken" />
		<tag k="place" v="locality" />
		<tag k="ssr:stedsnr" v="841430" />
	</node>
	<node id="-12589" lat="59.4811388905" lon="11.6595833279">
		<tag k="amenity" v="place_of_worship" />
		<tag k="denomination" v="lutheran" />
		<tag k="name" v="Ørje kirke" />
		<tag k="religion" v="christian" />
		<tag k="ssr:stedsnr" v="670529" />
	</node>
	<node id="-12577" lat="59.5985722225" lon="11.585419444">
		<tag k="name" v="Haslerud" />
		<tag k="place" v="locality" />
		<tag k="ssr:stedsnr" v="659905" />
	</node>
	<node id="-12566" lat="59.6138833293" lon="11.5320194374">
		<tag k="name" v="Rokka" />
		<tag k="place" v="locality" />
		<tag k="ssr:stedsnr" v="659530" />
	</node>
	<node id="-12564" lat="59.6006805549" lon="11.5308666629">
		<tag k="name" v="Myrås" />
		<tag k="place" v="locality" />
		<tag k="ssr:stedsnr" v="659523" />
	</node>
	<node id="-12563" lat="59.6291472211" lon="11.647019453">
		<tag k="name" v="Bjørnebakken" />
		<tag k="place" v="locality" />
		<tag k="ssr:stedsnr" v="659519" />
	</node>
	<node id="-12562" lat="59.6293888887" lon="11.6541166652">
		<tag k="name" v="Fluetjernsmoen" />
		<tag k="place" v="locality" />
		<tag k="ssr:stedsnr" v="659518" />
	</node>
	<node id="-12559" lat="59.6393472191" lon="11.6393777783">
		<tag k="name" v="Brudeberget" />
		<tag k="place" v="locality" />
		<tag k="ssr:stedsnr" v="659498" />
	</node>
	<node id="-12553" lat="59.5515111094" lon="11.6533277701">
		<tag k="name" v="Sletta" />
		<tag k="place" v="locality" />
		<tag k="ssr:stedsnr" v="659407" />
	</node>
	<node id="-12546" lat="59.5088055546" lon="11.683788897">
		<tag k="name" v="Julleet" />
		<tag k="place" v="locality" />
		<tag k="ssr:stedsnr" v="659345" />
	</node>
	<node id="-12538" lat="59.6255305559" lon="11.5563111154">
		<tag k="name" v="Roås" />
		<tag k="place" v="locality" />
		<tag k="ssr:stedsnr" v="659235" />
	</node>
	<node id="-12536" lat="59.5858333306" lon="11.5213555639">
		<tag k="name" v="Hytta" />
		<tag k="place" v="locality" />
		<tag k="ssr:stedsnr" v="659209" />
	</node>
	<node id="-12528" lat="59.3626027765" lon="11.5954916752">
		<tag k="name" v="Oreslora" />
		<tag k="place" v="locality" />
		<tag k="ssr:stedsnr" v="659083" />
	</node>
	<node id="-12527" lat="59.5556027775" lon="11.5997694405">
		<tag k="name" v="Hytta" />
		<tag k="place" v="locality" />
		<tag k="ssr:stedsnr" v="659045" />
	</node>
	<node id="-12520" lat="59.5014527739" lon="11.615608335">
		<tag k="name" v="Skåbommen" />
		<tag k="place" v="locality" />
		<tag k="ssr:stedsnr" v="658914" />
	</node>
	<node id="-12512" lat="59.4658722237" lon="11.6044527819">
		<tag k="name" v="Tyrigrava" />
		<tag k="place" v="locality" />
		<tag k="ssr:stedsnr" v="658827" />
	</node>
	<node id="-12511" lat="59.3770222219" lon="11.6283222208">
		<tag k="name" v="Jerperud" />
		<tag k="place" v="locality" />
		<tag k="ssr:stedsnr" v="658812" />
	</node>
	<node id="-12510" lat="59.4777722232" lon="11.6001944452">
		<tag k="name" v="Brenna" />
		<tag k="place" v="locality" />
		<tag k="ssr:stedsnr" v="658809" />
	</node>
	<node id="-12506" lat="59.3584027807" lon="11.7859888969">
		<tag k="name" v="Dansefurua" />
		<tag k="place" v="locality" />
		<tag k="ssr:stedsnr" v="658790" />
	</node>
	<node id="-12505" lat="59.4561527784" lon="11.6017277851">
		<tag k="name" v="Grønne bakke" />
		<tag k="place" v="locality" />
		<tag k="ssr:stedsnr" v="658786" />
	</node>
	<node id="-12491" lat="59.4069027781" lon="11.6533361153">
		<tag k="name" v="Sundås" />
		<tag k="place" v="locality" />
		<tag k="ssr:stedsnr" v="658562" />
	</node>
	<node id="-12486" lat="59.381516667" lon="11.7037611084">
		<tag k="name" v="Korsås" />
		<tag k="place" v="locality" />
		<tag k="ssr:stedsnr" v="658522" />
	</node>
	<node id="-12478" lat="59.3117527784" lon="11.8213444358">
		<tag k="name" v="Ottawa" />
		<tag k="place" v="locality" />
		<tag k="ssr:stedsnr" v="658457" />
	</node>
	<node id="-12467" lat="59.4546611149" lon="11.7103777788">
		<tag k="name" v="Iverbråten" />
		<tag k="place" v="locality" />
		<tag k="ssr:stedsnr" v="658320" />
	</node>
	<node id="-12462" lat="59.3248333379" lon="11.5891111076">
		<tag k="name" v="Engebråten" />
		<tag k="place" v="locality" />
		<tag k="ssr:stedsnr" v="658110" />
	</node>
	<node id="-12457" lat="59.5538833356" lon="11.5804694521">
		<tag k="name" v="Hytta" />
		<tag k="place" v="locality" />
		<tag k="ssr:stedsnr" v="658021" />
	</node>
	<node id="-12456" lat="59.5539861153" lon="11.573963886">
		<tag k="name" v="Bråten" />
		<tag k="place" v="locality" />
		<tag k="ssr:stedsnr" v="658022" />
	</node>
	<node id="-13337" lat="59.4035916711" lon="11.6477555511">
		<tag k="name" v="Svelteroa" />
		<tag k="place" v="locality" />
		<tag k="ssr:stedsnr" v="962491" />
	</node>
	<node id="-12419" lat="59.484216666" lon="11.645750002">
		<tag k="name" v="Karl Johans klev" />
		<tag k="place" v="locality" />
		<tag k="ssr:stedsnr" v="598729" />
	</node>
	<node id="-12416" lat="59.4694444417" lon="11.6498361164">
		<tag k="name" v="Lihammeren" />
		<tag k="place" v="locality" />
		<tag k="ssr:stedsnr" v="598683" />
	</node>
	<node id="-12388" lat="59.5769277744" lon="11.5576694439">
		<tag k="name" v="Sandgrava" />
		<tag k="place" v="locality" />
		<tag k="ssr:stedsnr" v="598224" />
	</node>
	<node id="-12384" lat="59.4964000028" lon="11.6292638896">
		<tag k="name" v="Slaberget" />
		<tag k="place" v="locality" />
		<tag k="ssr:stedsnr" v="598210" />
	</node>
	<node id="-12383" lat="59.5887583303" lon="11.5415583363">
		<tag k="name" v="Nordbråten" />
		<tag k="place" v="locality" />
		<tag k="ssr:stedsnr" v="598183" />
	</node>
	<node id="-12379" lat="59.3411888862" lon="11.5884944512">
		<tag k="name" v="Bjørkeholtet" />
		<tag k="place" v="locality" />
		<tag k="ssr:stedsnr" v="598124" />
	</node>
	<node id="-12375" lat="59.641655552" lon="11.5633222137">
		<tag k="name" v="Veslefossen" />
		<tag k="place" v="locality" />
		<tag k="ssr:stedsnr" v="598085" />
	</node>
	<node id="-12368" lat="59.5038361128" lon="11.6427083285">
		<tag k="name" v="Kolsand" />
		<tag k="place" v="locality" />
		<tag k="ssr:stedsnr" v="598003" />
	</node>
	<node id="-12365" lat="59.4940999982" lon="11.5572277719">
		<tag k="name" v="Virehølet" />
		<tag k="place" v="locality" />
		<tag k="ssr:stedsnr" v="597968" />
	</node>
	<node id="-12364" lat="59.5184861069" lon="11.5645194486">
		<tag k="name" v="Pålsehytta" />
		<tag k="place" v="locality" />
		<tag k="ssr:stedsnr" v="597962" />
	</node>
	<node id="-12363" lat="59.3322833324" lon="11.750033326">
		<tag k="name" v="Vestre Omvik" />
		<tag k="place" v="locality" />
		<tag k="ssr:stedsnr" v="597956" />
	</node>
	<node id="-12360" lat="59.4970805572" lon="11.601149997">
		<tag k="name" v="Torget" />
		<tag k="place" v="locality" />
		<tag k="ssr:stedsnr" v="597929" />
	</node>
	<node id="-12359" lat="59.4454277803" lon="11.7404083272">
		<tag k="name" v="Stenerud" />
		<tag k="place" v="locality" />
		<tag k="ssr:stedsnr" v="597928" />
	</node>
	<node id="-12358" lat="59.6060694444" lon="11.5929972138">
		<tag k="name" v="Nordholmen" />
		<tag k="place" v="locality" />
		<tag k="ssr:stedsnr" v="597926" />
	</node>
	<node id="-12353" lat="59.3583583329" lon="11.7943611028">
		<tag k="name" v="Danserfurumyra" />
		<tag k="place" v="locality" />
		<tag k="ssr:stedsnr" v="597894" />
	</node>
	<node id="-12341" lat="59.4344555556" lon="11.6441555578">
		<tag k="name" v="Langebråten" />
		<tag k="place" v="locality" />
		<tag k="ssr:stedsnr" v="597629" />
	</node>
	<node id="-12332" lat="59.5105555533" lon="11.5720833341">
		<tag k="name" v="Delingsdråga" />
		<tag k="place" v="locality" />
		<tag k="ssr:stedsnr" v="597522" />
	</node>
</osm>
