<?xml version="1.0" encoding="UTF-8"?>
<osm version="0.6" generator="osmapis">
	<node lat="66.37425208515258" lon="12.59697331306788" id="-16974">
		<tag k="name" v="Bukkholmen" />
		<tag k="ssr:date" v="2020-09-15" />
		<tag k="ssr:gruppe" v="navigasjon" />
		<tag k="ssr:hovedgruppe" v="infrastruktur" />
		<tag k="ssr:stedsnr" v="136418" />
		<tag k="ssr:type" v="fyrlykt" />
	</node>
	<node lat="66.39289999711882" lon="12.829205554591452" id="-16996">
		<tag k="name" v="Lurøy kommune" />
		<tag k="ssr:date" v="2016-05-10" />
		<tag k="ssr:gruppe" v="administrativeIndelinger" />
		<tag k="ssr:hovedgruppe" v="offentligAdministrasjon" />
		<tag k="ssr:stedsnr" v="147857" />
		<tag k="ssr:type" v="kommune" />
	</node>
	<node lat="66.56934722490057" lon="12.594702788458806" id="-17284">
		<tag k="name" v="Lille Svenningen" />
		<tag k="old_name" v="Litlsvenningen" />
		<tag k="ssr:date" v="2016-05-10" />
		<tag k="ssr:gruppe" v="navigasjon" />
		<tag k="ssr:hovedgruppe" v="infrastruktur" />
		<tag k="ssr:stedsnr" v="380811" />
		<tag k="ssr:type" v="fyrlykt" />
	</node>
	<node lat="66.60191388431949" lon="12.470300006385449" id="-17376">
		<tag k="name" v="Floholmen" />
		<tag k="ssr:date" v="2016-05-10" />
		<tag k="ssr:gruppe" v="navigasjon" />
		<tag k="ssr:hovedgruppe" v="infrastruktur" />
		<tag k="ssr:stedsnr" v="501725" />
		<tag k="ssr:type" v="fyrlykt" />
	</node>
	<node lat="66.29171389249942" lon="12.356630557553649" id="-17445">
		<tag k="name" v="Helgeland" />
		<tag k="ssr:date" v="2016-05-10" />
		<tag k="ssr:gruppe" v="terrengområder" />
		<tag k="ssr:hovedgruppe" v="terreng" />
		<tag k="ssr:stedsnr" v="574809" />
		<tag k="ssr:type" v="landskapsområde" />
	</node>
	<node lat="66.33103611408771" lon="12.670483326881497" id="-17548">
		<tag k="name" v="Lille Mangvarden" />
		<tag k="old_name" v="Litlmangvarden" />
		<tag k="ssr:date" v="2016-05-11" />
		<tag k="ssr:gruppe" v="navigasjon" />
		<tag k="ssr:hovedgruppe" v="infrastruktur" />
		<tag k="ssr:stedsnr" v="684309" />
		<tag k="ssr:type" v="fyrlykt" />
	</node>
	<node lat="66.51691666889852" lon="12.863897215594989" id="-17683">
		<tag k="name" v="Anklakken" />
		<tag k="old_name" v="Andklakken" />
		<tag k="ssr:date" v="2016-05-11" />
		<tag k="ssr:gruppe" v="navigasjon" />
		<tag k="ssr:hovedgruppe" v="infrastruktur" />
		<tag k="ssr:stedsnr" v="805065" />
		<tag k="ssr:type" v="fyrlykt" />
	</node>
	<node lat="66.42030555269719" lon="12.454466655958685" id="-17841">
		<tag k="name" v="Kvalholmen" />
		<tag k="ssr:date" v="2016-05-10" />
		<tag k="ssr:gruppe" v="navigasjon" />
		<tag k="ssr:hovedgruppe" v="infrastruktur" />
		<tag k="ssr:stedsnr" v="15172" />
		<tag k="ssr:type" v="fyrlykt" />
	</node>
	<node lat="66.48489178907279" lon="12.565372053663996" id="-17909">
		<tag k="name" v="Skjærflesa" />
		<tag k="old_name" v="Skjerflesa" />
		<tag k="ssr:date" v="2020-09-15" />
		<tag k="ssr:gruppe" v="navigasjon" />
		<tag k="ssr:hovedgruppe" v="infrastruktur" />
		<tag k="ssr:stedsnr" v="76185" />
		<tag k="ssr:type" v="fyrlykt" />
	</node>
	<node lat="66.30193178218033" lon="12.39225578418336" id="-18098">
		<tag k="name" v="Vågholmen" />
		<tag k="ssr:date" v="2020-09-15" />
		<tag k="ssr:gruppe" v="navigasjon" />
		<tag k="ssr:hovedgruppe" v="infrastruktur" />
		<tag k="ssr:stedsnr" v="198246" />
		<tag k="ssr:type" v="fyrlykt" />
	</node>
	<node lat="66.55366666503134" lon="12.67082499135147" id="-18277">
		<tag k="name" v="Oksholmen" />
		<tag k="ssr:date" v="2016-05-10" />
		<tag k="ssr:gruppe" v="navigasjon" />
		<tag k="ssr:hovedgruppe" v="infrastruktur" />
		<tag k="ssr:stedsnr" v="379792" />
		<tag k="ssr:type" v="fyrlykt" />
	</node>
	<node lat="66.38815555994255" lon="12.364641663476341" id="-18343">
		<tag k="name" v="Kvittripskjær" />
		<tag k="old_name" v="Kvittripskjeret" />
		<tag k="ssr:date" v="2016-05-10" />
		<tag k="ssr:gruppe" v="navigasjon" />
		<tag k="ssr:hovedgruppe" v="infrastruktur" />
		<tag k="ssr:stedsnr" v="440172" />
		<tag k="ssr:type" v="fyrlykt" />
	</node>
	<node lat="67.2804027758844" lon="14.376388898255625" id="-18424">
		<tag k="alt_name:no" v="Nordland" />
		<tag k="loc_name:se" v="Nordlándda fylka" />
		<tag k="loc_name:sma" v="Nordlaanten fylhke" />
		<tag k="name" v="Nordland fylke" />
		<tag k="name:no" v="Nordland fylke" />
		<tag k="name:smj" v="Nordlánda fylkka" />
		<tag k="ssr:date" v="2021-02-03" />
		<tag k="ssr:gruppe" v="administrativeIndelinger" />
		<tag k="ssr:hovedgruppe" v="offentligAdministrasjon" />
		<tag k="ssr:stedsnr" v="511766" />
		<tag k="ssr:type" v="fylke" />
	</node>
	<node lat="66.54125833621883" lon="12.586622232585555" id="-18484">
		<tag k="name" v="Kloholmen" />
		<tag k="ssr:date" v="2016-05-10" />
		<tag k="ssr:gruppe" v="navigasjon" />
		<tag k="ssr:hovedgruppe" v="infrastruktur" />
		<tag k="ssr:stedsnr" v="561814" />
		<tag k="ssr:type" v="fyrlykt" />
	</node>
	<node lat="66.34914886053572" lon="12.50180502165245" id="-18499">
		<tag k="name" v="Kvartelsøy" />
		<tag k="ssr:date" v="2020-09-15" />
		<tag k="ssr:gruppe" v="navigasjon" />
		<tag k="ssr:hovedgruppe" v="infrastruktur" />
		<tag k="ssr:stedsnr" v="562330" />
		<tag k="ssr:type" v="fyrlykt" />
	</node>
	<node lat="66.40002221827211" lon="13.137283325640965" id="-18615">
		<tag k="name" v="Åskåsa" />
		<tag k="ssr:date" v="2016-05-10" />
		<tag k="ssr:gruppe" v="sjøbunn" />
		<tag k="ssr:hovedgruppe" v="sjø" />
		<tag k="ssr:stedsnr" v="652850" />
		<tag k="ssr:type" v="søkkISjø" />
	</node>
	<node lat="66.35370555581764" lon="12.982786109350409" id="-18696">
		<tag k="name" v="Kleivholmen" />
		<tag k="ssr:date" v="2016-05-11" />
		<tag k="ssr:gruppe" v="navigasjon" />
		<tag k="ssr:hovedgruppe" v="infrastruktur" />
		<tag k="ssr:stedsnr" v="744466" />
		<tag k="ssr:type" v="fyrlykt" />
	</node>
	<node lat="66.43722716064103" lon="12.76750037360585" id="-18774">
		<tag k="name" v="Sørvær" />
		<tag k="ssr:date" v="2020-09-17" />
		<tag k="ssr:gruppe" v="navigasjon" />
		<tag k="ssr:hovedgruppe" v="infrastruktur" />
		<tag k="ssr:stedsnr" v="805442" />
		<tag k="ssr:type" v="fyrlykt" />
	</node>
	<node lat="66.37210277670714" lon="12.426427782870801" id="-18835">
		<tag k="name" v="Otervær" />
		<tag k="old_name" v="Oterværet" />
		<tag k="ssr:date" v="2016-05-11" />
		<tag k="ssr:gruppe" v="navigasjon" />
		<tag k="ssr:hovedgruppe" v="infrastruktur" />
		<tag k="ssr:stedsnr" v="865179" />
		<tag k="ssr:type" v="fyrlykt" />
	</node>
	<node lat="66.3677701598861" lon="12.380150604692355" id="-18852">
		<tag k="name" v="Naustholmen" />
		<tag k="ssr:date" v="2020-09-17" />
		<tag k="ssr:gruppe" v="navigasjon" />
		<tag k="ssr:hovedgruppe" v="infrastruktur" />
		<tag k="ssr:stedsnr" v="865414" />
		<tag k="ssr:type" v="fyrlykt" />
	</node>
	<node lat="66.54654999802116" lon="12.599900009722948" id="-18858">
		<tag k="name" v="Svartoksen" />
		<tag k="ssr:date" v="2016-05-11" />
		<tag k="ssr:gruppe" v="navigasjon" />
		<tag k="ssr:hovedgruppe" v="infrastruktur" />
		<tag k="ssr:stedsnr" v="865818" />
		<tag k="ssr:type" v="fyrlykt" />
	</node>
</osm>
