<?xml version="1.0" encoding="UTF-8"?>
<<<<<<< HEAD
<osm version="0.6" generator="osmapis">
	<node lat="68.68468333845365" lon="17.972349987607643" id="-32315">
		<tag k="highway" v="path" />
		<tag k="name" v="Vinterveien" />
		<tag k="name:no" v="Vinterveien" />
		<tag k="ssr:stedsnr" v="57672" />
	</node>
	<node lat="68.77997222554367" lon="17.84175001065351" id="-32318">
		<tag k="highway" v="path" />
		<tag k="name" v="Ørnveien" />
		<tag k="name:no" v="Ørnveien" />
		<tag k="ssr:stedsnr" v="57826" />
	</node>
	<node lat="68.72689166437077" lon="17.801466659612487" id="-32342">
		<tag k="highway" v="path" />
		<tag k="name" v="Dalebuveien" />
		<tag k="name:no" v="Dalebuveien" />
		<tag k="ssr:stedsnr" v="117510" />
	</node>
	<node lat="68.77893055570712" lon="17.819291668168123" id="-32344">
		<tag k="highway" v="path" />
		<tag k="name" v="Sletthågveien" />
		<tag k="name:no" v="Sletthågveien" />
		<tag k="ssr:stedsnr" v="117569" />
	</node>
	<node lat="68.73800277948838" lon="17.776622214252566" id="-32371">
		<tag k="ford" v="yes" />
		<tag k="name" v="Moldforvaet" />
		<tag k="name:no" v="Moldforvaet" />
		<tag k="place" v="locality" />
		<tag k="ssr:stedsnr" v="178466" />
	</node>
	<node lat="68.77132500316497" lon="17.85216389198643" id="-32376">
		<tag k="ford" v="yes" />
		<tag k="name" v="Mellavaet" />
		<tag k="name:no" v="Mellavaet" />
		<tag k="place" v="locality" />
		<tag k="ssr:stedsnr" v="178809" />
	</node>
	<node lat="68.77181944292731" lon="17.862233336853354" id="-32410">
=======
<osm generator="osmapis" version="0.6">
	<node id="-856937" lat="68.7713250032" lon="17.852163892">
		<tag k="ford" v="yes" />
		<tag k="name" v="Mellavaet" />
		<tag k="name:no" v="Mellavaet" />
		<tag k="place" v="locality" />
		<tag k="ssr:stedsnr" v="178809" />
	</node>
	<node id="-857204" lat="68.7780444465" lon="17.8293861152">
		<tag k="highway" v="path" />
		<tag k="name" v="Småmoveien" />
		<tag k="name:no" v="Småmoveien" />
		<tag k="ssr:stedsnr" v="906584" />
	</node>
	<node id="-857581" lat="68.7240111122" lon="17.7687277796">
		<tag k="highway" v="path" />
		<tag k="name" v="Rødbergveien" />
		<tag k="name:no" v="Rødbergveien" />
		<tag k="ssr:stedsnr" v="602517" />
	</node>
	<node id="-857321" lat="68.7799722255" lon="17.8417500107">
		<tag k="highway" v="path" />
		<tag k="name" v="Ørnveien" />
		<tag k="name:no" v="Ørnveien" />
		<tag k="ssr:stedsnr" v="57826" />
	</node>
	<node id="-856935" lat="68.7380027795" lon="17.7766222143">
>>>>>>> e1d4bc35ff8a6074a6f2e91616a996b547c36f15
		<tag k="ford" v="yes" />
		<tag k="name" v="Øvervaet" />
		<tag k="name:no" v="Øvervaet" />
		<tag k="place" v="locality" />
		<tag k="ssr:stedsnr" v="299824" />
	</node>
<<<<<<< HEAD
	<node lat="68.80369166491842" lon="17.824466673451404" id="-32471">
=======
	<node id="-857314" lat="68.6846833385" lon="17.9723499876">
>>>>>>> e1d4bc35ff8a6074a6f2e91616a996b547c36f15
		<tag k="highway" v="path" />
		<tag k="name" v="Kavelsteinveien" />
		<tag k="name:no" v="Kavelsteinveien" />
		<tag k="ssr:stedsnr" v="421395" />
	</node>
<<<<<<< HEAD
	<node lat="68.7751222203407" lon="17.826911119630587" id="-32473">
=======
	<node id="-857057" lat="68.6843972185" lon="17.9743333299">
>>>>>>> e1d4bc35ff8a6074a6f2e91616a996b547c36f15
		<tag k="highway" v="path" />
		<tag k="name" v="Trippegulvveien" />
		<tag k="name:no" v="Trippegulvveien" />
		<tag k="ssr:stedsnr" v="421511" />
	</node>
<<<<<<< HEAD
	<node lat="68.79442777685273" lon="17.793511111682324" id="-32475">
=======
	<node id="-857056" lat="68.7470999998" lon="17.8187777718">
>>>>>>> e1d4bc35ff8a6074a6f2e91616a996b547c36f15
		<tag k="highway" v="path" />
		<tag k="name" v="Øverveien" />
		<tag k="name:no" v="Øverveien" />
		<tag k="ssr:stedsnr" v="421546" />
	</node>
<<<<<<< HEAD
	<node lat="68.68116110746878" lon="17.94782777561057" id="-32476">
		<tag k="bridge" v="yes" />
		<tag k="layer" v="1" />
		<tag k="loc_name:se" v="Čoarda" />
		<tag k="name" v="Jordbrua" />
		<tag k="name:no" v="Jordbrua" />
		<tag k="ssr:stedsnr" v="421702" />
	</node>
	<node lat="68.78210000061077" lon="17.603766660070487" id="-32571">
		<tag k="ford" v="yes" />
		<tag k="name" v="Martavaet" />
		<tag k="name:no" v="Martavaet" />
		<tag k="place" v="locality" />
		<tag k="ssr:stedsnr" v="726274" />
	</node>
	<node lat="68.77804444650924" lon="17.82938611518921" id="-32594">
=======
	<node id="-857309" lat="68.7945472193" lon="17.7966249901">
		<tag k="highway" v="path" />
		<tag k="name" v="Eidveien" />
		<tag k="name:no" v="Eidveien" />
		<tag k="ssr:stedsnr" v="57511" />
	</node>
	<node id="-857690" lat="68.7825777816" lon="17.8239416725">
>>>>>>> e1d4bc35ff8a6074a6f2e91616a996b547c36f15
		<tag k="highway" v="path" />
		<tag k="name" v="Småmoveien" />
		<tag k="name:no" v="Småmoveien" />
		<tag k="ssr:stedsnr" v="906584" />
	</node>
<<<<<<< HEAD
	<node lat="68.79454721929694" lon="17.796624990145943" id="-32697">
=======
	<node id="-857687" lat="68.7254249975" lon="17.7597083259">
>>>>>>> e1d4bc35ff8a6074a6f2e91616a996b547c36f15
		<tag k="highway" v="path" />
		<tag k="name" v="Eidveien" />
		<tag k="name:no" v="Eidveien" />
		<tag k="ssr:stedsnr" v="57511" />
	</node>
<<<<<<< HEAD
	<node lat="68.77068888748043" lon="17.84450277143939" id="-32886">
=======
	<node id="-857173" lat="68.7718194429" lon="17.8622333369">
>>>>>>> e1d4bc35ff8a6074a6f2e91616a996b547c36f15
		<tag k="ford" v="yes" />
		<tag k="name" v="Nervaet" />
		<tag k="name:no" v="Nervaet" />
		<tag k="place" v="locality" />
		<tag k="ssr:stedsnr" v="421833" />
	</node>
<<<<<<< HEAD
	<node lat="68.72401111223832" lon="17.768727779636873" id="-32972">
		<tag k="highway" v="path" />
		<tag k="name" v="Rødbergveien" />
		<tag k="name:no" v="Rødbergveien" />
		<tag k="ssr:stedsnr" v="602517" />
	</node>
	<node lat="68.75922778084625" lon="17.76637221302165" id="-32987">
=======
	<node id="-857037" lat="68.6811611075" lon="17.9478277756">
		<tag k="bridge" v="yes" />
		<tag k="layer" v="1" />
		<tag k="name" v="Jordbrua" />
		<tag k="name:no" v="Jordbrua" />
		<tag k="ssr:stedsnr" v="421702" />
	</node>
	<node id="-857036" lat="68.7751222203" lon="17.8269111196">
>>>>>>> e1d4bc35ff8a6074a6f2e91616a996b547c36f15
		<tag k="highway" v="path" />
		<tag k="name" v="Bærveien" />
		<tag k="name:no" v="Bærveien" />
		<tag k="ssr:stedsnr" v="604396" />
	</node>
<<<<<<< HEAD
	<node lat="68.74709999979571" lon="17.818777771758697" id="-33006">
		<tag k="highway" v="path" />
		<tag k="name" v="Trongstien" />
		<tag k="name:no" v="Trongstien" />
		<tag k="ssr:stedsnr" v="663450" />
	</node>
	<node lat="68.68439721852599" lon="17.97433332988379" id="-33013">
		<tag k="highway" v="path" />
		<tag k="name" v="Soldatveien" />
		<tag k="name:no" v="Soldatveien" />
		<tag k="ssr:stedsnr" v="663702" />
	</node>
	<node lat="68.79442500427642" lon="17.79971111145004" id="-33040">
=======
	<node id="-856919" lat="68.7268916644" lon="17.8014666596">
		<tag k="highway" v="path" />
		<tag k="name" v="Dalebuveien" />
		<tag k="name:no" v="Dalebuveien" />
		<tag k="ssr:stedsnr" v="117510" />
	</node>
	<node id="-857158" lat="68.7821000006" lon="17.6037666601">
		<tag k="ford" v="yes" />
		<tag k="name" v="Martavaet" />
		<tag k="name:no" v="Martavaet" />
		<tag k="place" v="locality" />
		<tag k="ssr:stedsnr" v="726274" />
	</node>
	<node id="-857144" lat="68.7944250043" lon="17.7997111115">
>>>>>>> e1d4bc35ff8a6074a6f2e91616a996b547c36f15
		<tag k="highway" v="path" />
		<tag k="name" v="Kobbesteinveien" />
		<tag k="name:no" v="Kobbesteinveien" />
		<tag k="ssr:stedsnr" v="724532" />
	</node>
<<<<<<< HEAD
	<node lat="68.66430000128565" lon="17.898741667003648" id="-33076">
		<tag k="highway" v="path" />
		<tag k="name" v="Stormyrveien" />
		<tag k="name:no" v="Stormyrveien" />
		<tag k="ssr:stedsnr" v="786559" />
	</node>
	<node lat="68.7254249974761" lon="17.759708325901713" id="-33106">
		<tag k="highway" v="path" />
		<tag k="name" v="Eidveien" />
		<tag k="name:no" v="Eidveien" />
		<tag k="ssr:stedsnr" v="846497" />
	</node>
	<node lat="68.782577781637" lon="17.823941672507953" id="-33109">
		<tag k="highway" v="path" />
		<tag k="name" v="Soløyveian" />
		<tag k="name:no" v="Soløyveian" />
		<tag k="ssr:stedsnr" v="846553" />
=======
	<node id="-857127" lat="68.7592277808" lon="17.766372213">
		<tag k="highway" v="path" />
		<tag k="name" v="Bærveien" />
		<tag k="name:no" v="Bærveien" />
		<tag k="ssr:stedsnr" v="604396" />
	</node>
	<node id="-857504" lat="68.7706888875" lon="17.8445027714">
		<tag k="ford" v="yes" />
		<tag k="name" v="Nervaet" />
		<tag k="name:no" v="Nervaet" />
		<tag k="place" v="locality" />
		<tag k="ssr:stedsnr" v="421833" />
	</node>
	<node id="-857498" lat="68.8036916649" lon="17.8244666735">
		<tag k="highway" v="path" />
		<tag k="name" v="Kavelsteinveien" />
		<tag k="name:no" v="Kavelsteinveien" />
		<tag k="ssr:stedsnr" v="421395" />
	</node>
	<node id="-857496" lat="68.7944277769" lon="17.7935111117">
		<tag k="highway" v="path" />
		<tag k="name" v="Øverveien" />
		<tag k="name:no" v="Øverveien" />
		<tag k="ssr:stedsnr" v="421546" />
	</node>
	<node id="-857358" lat="68.7789305557" lon="17.8192916682">
		<tag k="highway" v="path" />
		<tag k="name" v="Sletthågveien" />
		<tag k="name:no" v="Sletthågveien" />
		<tag k="ssr:stedsnr" v="117569" />
	</node>
	<node id="-857225" lat="68.6643000013" lon="17.898741667">
		<tag k="highway" v="path" />
		<tag k="name" v="Stormyrveien" />
		<tag k="name:no" v="Stormyrveien" />
		<tag k="ssr:stedsnr" v="786559" />
>>>>>>> e1d4bc35ff8a6074a6f2e91616a996b547c36f15
	</node>
</osm>
