<?xml version="1.0" encoding="UTF-8"?>
<<<<<<< HEAD
<osm version="0.6" generator="osmapis">
	<node lat="68.76261944506379" lon="17.76929445295847" id="-32322">
		<tag k="name" v="Oladalbukta" />
		<tag k="name:no" v="Oladalbukta" />
		<tag k="natural" v="bay" />
		<tag k="ssr:stedsnr" v="240394" />
	</node>
	<node lat="68.78092500384199" lon="17.670502778117623" id="-32350">
		<tag k="fixme" v="consider seamark:type=rock or natural=shoal" />
		<tag k="name" v="Henriksteinen" />
		<tag k="name:no" v="Henriksteinen" />
		<tag k="place" v="islet" />
		<tag k="ssr:stedsnr" v="119145" />
	</node>
	<node lat="68.79793610841429" lon="17.590547220981033" id="-32384">
		<tag k="bay" v="fjord" />
		<tag k="name" v="Loabákvuotna - Lavangen" />
		<tag k="name:no" v="Lavangen" />
		<tag k="name:se" v="Loabákvuotna" />
		<tag k="natural" v="bay" />
		<tag k="ssr:stedsnr" v="200691" />
	</node>
	<node lat="68.78957500442806" lon="17.590911099430787" id="-32386">
		<tag k="name" v="Neset" />
		<tag k="name:no" v="Neset" />
		<tag k="natural" v="cape" />
		<tag k="ssr:stedsnr" v="239197" />
	</node>
	<node lat="68.75781110790714" lon="17.79589999031473" id="-32397">
		<tag k="name" v="Flyndrehavet" />
		<tag k="name:no" v="Flyndrehavet" />
		<tag k="natural" v="shoal" />
		<tag k="place" v="locality" />
		<tag k="ssr:stedsnr" v="240290" />
	</node>
	<node lat="68.78107222627045" lon="17.66296388135286" id="-32413">
		<tag k="name" v="Vika" />
		<tag k="name:no" v="Vika" />
		<tag k="natural" v="bay" />
		<tag k="ssr:stedsnr" v="301130" />
	</node>
	<node lat="68.80052777470786" lon="17.630352762041905" id="-32439">
		<tag k="name" v="Svartholla" />
		<tag k="name:no" v="Svartholla" />
		<tag k="natural" v="bay" />
		<tag k="ssr:stedsnr" v="481242" />
	</node>
	<node lat="68.7943472257213" lon="17.72221943907229" id="-32472">
		<tag k="name" v="Bukholla" />
		<tag k="name:no" v="Bukholla" />
		<tag k="natural" v="bay" />
		<tag k="ssr:stedsnr" v="421397" />
	</node>
	<node lat="68.81661111508372" lon="17.488625007566057" id="-32482">
		<tag k="alt_name:no" v="Skjelnes" />
		<tag k="name" v="Skjelneset" />
		<tag k="name:no" v="Skjelneset" />
		<tag k="natural" v="cape" />
		<tag k="ssr:stedsnr" v="442705" />
	</node>
	<node lat="68.78132222155682" lon="17.655013896977486" id="-32484">
=======
<osm generator="osmapis" version="0.6">
	<node id="-856960" lat="68.7813222216" lon="17.655013897">
>>>>>>> e1d4bc35ff8a6074a6f2e91616a996b547c36f15
		<tag k="alt_name:no" v="Hestneset" />
		<tag k="fixme" v="multiple name tags, choose one and add the other to alt_name" />
		<tag k="name" v="Odden;Hestnes" />
		<tag k="name:no" v="Odden;Hestnes" />
		<tag k="natural" v="cape" />
		<tag k="ssr:stedsnr" v="442759" />
	</node>
<<<<<<< HEAD
	<node lat="68.77734166907116" lon="17.726530551646807" id="-32553">
		<tag k="name" v="Stokkevika" />
		<tag k="name:no" v="Stokkevika" />
=======
	<node id="-857595" lat="68.7526888877" lon="17.7880305506">
		<tag k="name" v="Skjellbekkvika" />
		<tag k="name:no" v="Skjellbekkvika" />
>>>>>>> e1d4bc35ff8a6074a6f2e91616a996b547c36f15
		<tag k="natural" v="bay" />
		<tag k="ssr:stedsnr" v="663537" />
	</node>
	<node lat="68.74828889297238" lon="17.804405563147682" id="-32562">
		<tag k="name" v="Orneset" />
		<tag k="name:no" v="Orneset" />
		<tag k="natural" v="cape" />
		<tag k="ssr:stedsnr" v="724273" />
	</node>
	<node lat="68.78012777386533" lon="17.685608333053814" id="-32646">
		<tag k="alt_name:no" v="Marineset" />
		<tag k="name" v="Marines" />
		<tag k="name:no" v="Marines" />
		<tag k="natural" v="cape" />
		<tag k="ssr:stedsnr" v="928688" />
	</node>
	<node lat="68.75075277547228" lon="17.797588896788866" id="-32647">
		<tag k="name" v="Vågen" />
		<tag k="name:no" v="Vågen" />
		<tag k="natural" v="bay" />
		<tag k="ssr:stedsnr" v="928723" />
	</node>
<<<<<<< HEAD
	<node lat="68.81065555329641" lon="17.51336111848069" id="-32688">
		<tag k="alt_name:no" v="Kvantoneset" />
		<tag k="name" v="Kvanntoneset" />
		<tag k="name:no" v="Kvanntoneset" />
		<tag k="natural" v="cape" />
		<tag k="ssr:stedsnr" v="18639" />
	</node>
	<node lat="68.79728055964796" lon="17.646333335761117" id="-32723">
=======
	<node id="-857337" lat="68.7972805596" lon="17.6463333358">
>>>>>>> e1d4bc35ff8a6074a6f2e91616a996b547c36f15
		<tag k="alt_name:no" v="Meganberget" />
		<tag k="loc_name:se" v="Meganbákti" />
		<tag k="name" v="Miganberget" />
		<tag k="name:no" v="Miganberget" />
		<tag k="natural" v="cape" />
		<tag k="ssr:stedsnr" v="78718" />
	</node>
<<<<<<< HEAD
	<node lat="68.77612225626065" lon="17.73448705691667" id="-32730">
		<tag k="name" v="Steinneset" />
		<tag k="name:no" v="Steinneset" />
=======
	<node id="-857462" lat="68.7802083367" lon="17.7843166721">
		<tag k="name" v="Ytre grindnes" />
		<tag k="name:no" v="Ytre grindnes" />
>>>>>>> e1d4bc35ff8a6074a6f2e91616a996b547c36f15
		<tag k="natural" v="cape" />
		<tag k="ssr:stedsnr" v="90530" />
	</node>
<<<<<<< HEAD
	<node lat="68.7779638874625" lon="17.716324993208755" id="-32731">
		<tag k="name" v="Langstranda" />
		<tag k="name:no" v="Langstranda" />
		<tag k="natural" v="beach" />
		<tag k="ssr:stedsnr" v="90531" />
	</node>
	<node lat="68.80380278114838" lon="17.53480834276356" id="-32764">
		<tag k="name" v="Hellavika" />
		<tag k="name:no" v="Hellavika" />
		<tag k="natural" v="bay" />
		<tag k="ssr:stedsnr" v="272992" />
	</node>
	<node lat="68.7583777792141" lon="17.802802767080145" id="-32779">
=======
	<node id="-857461" lat="68.782497225" lon="17.7789055616">
		<tag k="fixme" v="consider seamark:type=rock or natural=shoal" />
		<tag k="name" v="Kobbesteinan" />
		<tag k="name:no" v="Kobbesteinan" />
		<tag k="place" v="islet" />
		<tag k="ssr:stedsnr" v="360540" />
	</node>
	<node id="-856941" lat="68.7583777792" lon="17.8028027671">
>>>>>>> e1d4bc35ff8a6074a6f2e91616a996b547c36f15
		<tag k="name" v="Stranda" />
		<tag k="name:no" v="Stranda" />
		<tag k="natural" v="beach" />
		<tag k="ssr:stedsnr" v="179275" />
	</node>
<<<<<<< HEAD
	<node lat="68.81283055199584" lon="17.505866670802558" id="-32800">
		<tag k="name" v="Kleiva" />
		<tag k="name:no" v="Kleiva" />
		<tag k="natural" v="cape" />
		<tag k="ssr:stedsnr" v="299537" />
	</node>
	<node lat="68.76667222351013" lon="17.768880560205684" id="-32822">
=======
	<node id="-857041" lat="68.7510972196" lon="17.7908250069">
		<tag k="name" v="Laberget" />
		<tag k="name:no" v="Laberget" />
		<tag k="natural" v="cape" />
		<tag k="ssr:stedsnr" v="516658" />
	</node>
	<node id="-857443" lat="68.7666722235" lon="17.7688805602">
>>>>>>> e1d4bc35ff8a6074a6f2e91616a996b547c36f15
		<tag k="alt_name:no" v="Sandnesodden" />
		<tag k="name" v="Sandneset" />
		<tag k="name:no" v="Sandneset" />
		<tag k="natural" v="cape" />
		<tag k="ssr:stedsnr" v="321699" />
	</node>
<<<<<<< HEAD
	<node lat="68.78249722499393" lon="17.77890556162149" id="-32848">
		<tag k="fixme" v="consider seamark:type=rock or natural=shoal" />
		<tag k="name" v="Kobbesteinan" />
		<tag k="name:no" v="Kobbesteinan" />
		<tag k="place" v="islet" />
		<tag k="ssr:stedsnr" v="360540" />
	</node>
	<node lat="68.78020833671091" lon="17.78431667205291" id="-32849">
		<tag k="name" v="Ytre grindnes" />
		<tag k="name:no" v="Ytre grindnes" />
=======
	<node id="-856930" lat="68.8038027811" lon="17.5348083428">
		<tag k="name" v="Hellavika" />
		<tag k="name:no" v="Hellavika" />
		<tag k="natural" v="bay" />
		<tag k="ssr:stedsnr" v="272992" />
	</node>
	<node id="-857049" lat="68.7773416691" lon="17.7265305516">
		<tag k="name" v="Stokkevika" />
		<tag k="name:no" v="Stokkevika" />
		<tag k="natural" v="bay" />
		<tag k="ssr:stedsnr" v="663537" />
	</node>
	<node id="-856953" lat="68.8166111151" lon="17.4886250076">
		<tag k="alt_name:no" v="Skjelnes" />
		<tag k="name" v="Skjelneset" />
		<tag k="name:no" v="Skjelneset" />
		<tag k="natural" v="cape" />
		<tag k="ssr:stedsnr" v="442705" />
	</node>
	<node id="-857170" lat="68.8055166686" lon="17.6107777731">
		<tag k="name" v="Elveneset" />
		<tag k="name:no" v="Elveneset" />
>>>>>>> e1d4bc35ff8a6074a6f2e91616a996b547c36f15
		<tag k="natural" v="cape" />
		<tag k="ssr:stedsnr" v="360542" />
	</node>
<<<<<<< HEAD
	<node lat="68.7854749955721" lon="17.613627778250894" id="-32853">
		<tag k="name" v="Finneneset" />
		<tag k="name:no" v="Finneneset" />
=======
	<node id="-857169" lat="68.7729777814" lon="17.7466305545">
		<tag k="name" v="Røkeneset" />
		<tag k="name:no" v="Røkeneset" />
>>>>>>> e1d4bc35ff8a6074a6f2e91616a996b547c36f15
		<tag k="natural" v="cape" />
		<tag k="ssr:stedsnr" v="361275" />
	</node>
<<<<<<< HEAD
	<node lat="68.79522777506283" lon="17.673186110481772" id="-32870">
		<tag k="alt_name:no" v="Klubbesteinen" />
		<tag k="name" v="Klubbsteinen" />
		<tag k="name:no" v="Klubbsteinen" />
		<tag k="natural" v="cape" />
		<tag k="ssr:stedsnr" v="393992" />
	</node>
	<node lat="68.79403333082541" lon="17.573433317769105" id="-32875">
=======
	<node id="-857423" lat="68.7810722263" lon="17.6629638814">
		<tag k="name" v="Vika" />
		<tag k="name:no" v="Vika" />
		<tag k="natural" v="bay" />
		<tag k="ssr:stedsnr" v="301130" />
	</node>
	<node id="-857032" lat="68.7940333308" lon="17.5734333178">
>>>>>>> e1d4bc35ff8a6074a6f2e91616a996b547c36f15
		<tag k="name" v="Reinlandsvika" />
		<tag k="name:no" v="Reinlandsvika" />
		<tag k="natural" v="bay" />
		<tag k="ssr:stedsnr" v="421209" />
	</node>
<<<<<<< HEAD
	<node lat="68.76371666418277" lon="17.80018333416663" id="-32892">
		<tag k="name" v="Hesjevikbukta" />
		<tag k="name:no" v="Hesjevikbukta" />
=======
	<node id="-857415" lat="68.7979361084" lon="17.590547221">
		<tag k="bay" v="fjord" />
		<tag k="name" v="Loabákvuotna - Lavangen" />
		<tag k="name:no" v="Lavangen" />
		<tag k="name:se" v="Loabákvuotna" />
>>>>>>> e1d4bc35ff8a6074a6f2e91616a996b547c36f15
		<tag k="natural" v="bay" />
		<tag k="ssr:stedsnr" v="422255" />
	</node>
<<<<<<< HEAD
	<node lat="68.75109721964004" lon="17.790825006898228" id="-32921">
		<tag k="name" v="Laberget" />
		<tag k="name:no" v="Laberget" />
=======
	<node id="-857286" lat="68.8106555533" lon="17.5133611185">
		<tag k="alt_name:no" v="Kvantoneset" />
		<tag k="name" v="Kvanntoneset" />
		<tag k="name:no" v="Kvanntoneset" />
>>>>>>> e1d4bc35ff8a6074a6f2e91616a996b547c36f15
		<tag k="natural" v="cape" />
		<tag k="ssr:stedsnr" v="516658" />
	</node>
<<<<<<< HEAD
	<node lat="68.75268888765329" lon="17.788030550646972" id="-32985">
		<tag k="name" v="Skjellbekkvika" />
		<tag k="name:no" v="Skjellbekkvika" />
		<tag k="natural" v="bay" />
		<tag k="ssr:stedsnr" v="604295" />
	</node>
	<node lat="68.77833333049925" lon="17.788691667904335" id="-33002">
		<tag k="alt_name:no" v="Indre grindnes" />
		<tag k="name" v="Grindneset" />
		<tag k="name:no" v="Grindneset" />
=======
	<node id="-856901" lat="68.7626194451" lon="17.769294453">
		<tag k="name" v="Oladalbukta" />
		<tag k="name:no" v="Oladalbukta" />
		<tag k="natural" v="bay" />
		<tag k="ssr:stedsnr" v="240394" />
	</node>
	<node id="-856896" lat="68.7578111079" lon="17.7958999903">
		<tag k="name" v="Flyndrehavet" />
		<tag k="name:no" v="Flyndrehavet" />
		<tag k="natural" v="shoal" />
		<tag k="place" v="locality" />
		<tag k="ssr:stedsnr" v="240290" />
	</node>
	<node id="-857023" lat="68.7854749956" lon="17.6136277783">
		<tag k="name" v="Finneneset" />
		<tag k="name:no" v="Finneneset" />
>>>>>>> e1d4bc35ff8a6074a6f2e91616a996b547c36f15
		<tag k="natural" v="cape" />
		<tag k="ssr:stedsnr" v="637662" />
	</node>
<<<<<<< HEAD
	<node lat="68.78072222569104" lon="17.67716667103352" id="-33032">
=======
	<node id="-857143" lat="68.7807222257" lon="17.677166671">
>>>>>>> e1d4bc35ff8a6074a6f2e91616a996b547c36f15
		<tag k="name" v="Rubbetoften" />
		<tag k="name:no" v="Rubbetoften" />
		<tag k="natural" v="bay" />
		<tag k="ssr:stedsnr" v="724530" />
	</node>
<<<<<<< HEAD
	<node lat="68.76103611140105" lon="17.773874996005237" id="-33051">
		<tag k="alt_name:no" v="Lotternesodden" />
		<tag k="name" v="Låterneset" />
		<tag k="name:no" v="Låterneset" />
		<tag k="natural" v="cape" />
		<tag k="ssr:stedsnr" v="758569" />
	</node>
	<node lat="68.77378055492335" lon="17.744772222456834" id="-33052">
		<tag k="name" v="Røkeneshamna" />
		<tag k="name:no" v="Røkeneshamna" />
		<tag k="natural" v="bay" />
		<tag k="ssr:stedsnr" v="758576" />
	</node>
	<node lat="68.79255833494497" lon="17.748130548938153" id="-33058">
		<tag k="name" v="Heibergneset" />
		<tag k="name:no" v="Heibergneset" />
		<tag k="natural" v="cape" />
		<tag k="ssr:stedsnr" v="785373" />
	</node>
	<node lat="68.75378888736483" lon="17.802472220113305" id="-33071">
=======
	<node id="-857654" lat="68.7537888874" lon="17.8024722201">
>>>>>>> e1d4bc35ff8a6074a6f2e91616a996b547c36f15
		<tag k="name" v="Neset" />
		<tag k="name:no" v="Neset" />
		<tag k="natural" v="cape" />
		<tag k="ssr:stedsnr" v="786289" />
	</node>
<<<<<<< HEAD
	<node lat="68.79096666919102" lon="17.758741668539894" id="-33089">
		<tag k="name" v="Rødbukta" />
		<tag k="name:no" v="Rødbukta" />
=======
	<node id="-856990" lat="68.8005277747" lon="17.630352762">
		<tag k="name" v="Svartholla" />
		<tag k="name:no" v="Svartholla" />
		<tag k="natural" v="bay" />
		<tag k="ssr:stedsnr" v="481242" />
	</node>
	<node id="-857266" lat="68.7507527755" lon="17.7975888968">
		<tag k="name" v="Vågen" />
		<tag k="name:no" v="Vågen" />
>>>>>>> e1d4bc35ff8a6074a6f2e91616a996b547c36f15
		<tag k="natural" v="bay" />
		<tag k="ssr:stedsnr" v="819654" />
	</node>
<<<<<<< HEAD
	<node lat="68.77297778137998" lon="17.74663055449353" id="-33132">
		<tag k="name" v="Røkeneset" />
		<tag k="name:no" v="Røkeneset" />
=======
	<node id="-857137" lat="68.748288893" lon="17.8044055631">
		<tag k="name" v="Orneset" />
		<tag k="name:no" v="Orneset" />
>>>>>>> e1d4bc35ff8a6074a6f2e91616a996b547c36f15
		<tag k="natural" v="cape" />
		<tag k="ssr:stedsnr" v="879522" />
	</node>
	<node lat="68.80551666860802" lon="17.610777773132256" id="-33133">
		<tag k="loc_name:se" v="Johkanjárga" />
		<tag k="name" v="Elveneset" />
		<tag k="name:no" v="Elveneset" />
		<tag k="natural" v="cape" />
		<tag k="ssr:stedsnr" v="879984" />
	</node>
	<node lat="68.77718888945661" lon="17.790480551759238" id="-33134">
		<tag k="name" v="Krambuvika" />
		<tag k="name:no" v="Krambuvika" />
		<tag k="natural" v="bay" />
		<tag k="ssr:stedsnr" v="940518" />
	</node>
	<node lat="68.75313888860332" lon="17.786330543923583" id="-33135">
		<tag k="name" v="Finneset" />
		<tag k="name:no" v="Finneset" />
		<tag k="natural" v="cape" />
		<tag k="ssr:stedsnr" v="941659" />
	</node>
	<node id="-857511" lat="68.7637166642" lon="17.8001833342">
		<tag k="name" v="Hesjevikbukta" />
		<tag k="name:no" v="Hesjevikbukta" />
		<tag k="natural" v="bay" />
		<tag k="ssr:stedsnr" v="422255" />
	</node>
	<node id="-856865" lat="68.7895750044" lon="17.5909110994">
		<tag k="name" v="Neset" />
		<tag k="name:no" v="Neset" />
		<tag k="natural" v="cape" />
		<tag k="ssr:stedsnr" v="239197" />
	</node>
	<node id="-857248" lat="68.7531388886" lon="17.7863305439">
		<tag k="name" v="Finneset" />
		<tag k="name:no" v="Finneset" />
		<tag k="natural" v="cape" />
		<tag k="ssr:stedsnr" v="941659" />
	</node>
	<node id="-857247" lat="68.7771888895" lon="17.7904805518">
		<tag k="name" v="Krambuvika" />
		<tag k="name:no" v="Krambuvika" />
		<tag k="natural" v="bay" />
		<tag k="ssr:stedsnr" v="940518" />
	</node>
	<node id="-857630" lat="68.7925583349" lon="17.7481305489">
		<tag k="name" v="Heibergneset" />
		<tag k="name:no" v="Heibergneset" />
		<tag k="natural" v="cape" />
		<tag k="ssr:stedsnr" v="785373" />
	</node>
	<node id="-857499" lat="68.7943472257" lon="17.7222194391">
		<tag k="name" v="Bukholla" />
		<tag k="name:no" v="Bukholla" />
		<tag k="natural" v="bay" />
		<tag k="ssr:stedsnr" v="421397" />
	</node>
	<node id="-857242" lat="68.7909666692" lon="17.7587416685">
		<tag k="name" v="Rødbukta" />
		<tag k="name:no" v="Rødbukta" />
		<tag k="natural" v="bay" />
		<tag k="ssr:stedsnr" v="819654" />
	</node>
	<node id="-857113" lat="68.812830552" lon="17.5058666708">
		<tag k="name" v="Kleiva" />
		<tag k="name:no" v="Kleiva" />
		<tag k="natural" v="cape" />
		<tag k="ssr:stedsnr" v="299537" />
	</node>
	<node id="-857623" lat="68.7737805549" lon="17.7447722225">
		<tag k="name" v="Røkeneshamna" />
		<tag k="name:no" v="Røkeneshamna" />
		<tag k="natural" v="bay" />
		<tag k="ssr:stedsnr" v="758576" />
	</node>
	<node id="-857622" lat="68.7610361114" lon="17.773874996">
		<tag k="alt_name:no" v="Lotternesodden" />
		<tag k="name" v="Låterneset" />
		<tag k="name:no" v="Låterneset" />
		<tag k="natural" v="cape" />
		<tag k="ssr:stedsnr" v="758569" />
	</node>
	<node id="-857364" lat="68.7809250038" lon="17.6705027781">
		<tag k="fixme" v="consider seamark:type=rock or natural=shoal" />
		<tag k="name" v="Henriksteinen" />
		<tag k="name:no" v="Henriksteinen" />
		<tag k="place" v="islet" />
		<tag k="ssr:stedsnr" v="119145" />
	</node>
	<node id="-857617" lat="68.7783333305" lon="17.7886916679">
		<tag k="alt_name:no" v="Indre grindnes" />
		<tag k="name" v="Grindneset" />
		<tag k="name:no" v="Grindneset" />
		<tag k="natural" v="cape" />
		<tag k="ssr:stedsnr" v="637662" />
	</node>
	<node id="-857239" lat="68.7801277739" lon="17.6856083331">
		<tag k="alt_name:no" v="Marineset" />
		<tag k="name" v="Marines" />
		<tag k="name:no" v="Marines" />
		<tag k="natural" v="cape" />
		<tag k="ssr:stedsnr" v="928688" />
	</node>
	<node id="-857480" lat="68.7952277751" lon="17.6731861105">
		<tag k="alt_name:no" v="Klubbesteinen" />
		<tag k="name" v="Klubbsteinen" />
		<tag k="name:no" v="Klubbsteinen" />
		<tag k="natural" v="cape" />
		<tag k="ssr:stedsnr" v="393992" />
	</node>
	<node id="-857349" lat="68.7779638875" lon="17.7163249932">
		<tag k="name" v="Langstranda" />
		<tag k="name:no" v="Langstranda" />
		<tag k="natural" v="beach" />
		<tag k="place" v="locality" />
		<tag k="ssr:stedsnr" v="90531" />
	</node>
	<node id="-857348" lat="68.7754499965" lon="17.7381166569">
		<tag k="name" v="Steinneset" />
		<tag k="name:no" v="Steinneset" />
		<tag k="natural" v="cape" />
		<tag k="ssr:stedsnr" v="90530" />
	</node>
</osm>
