<?xml version="1.0" encoding="UTF-8"?>
<osm generator="osmapis" version="0.6">
	<node id="-845801" lat="68.68084167" lon="17.9405055576">
		<tag k="name" v="Jordbrumyra" />
		<tag k="name:no" v="Jordbrumyra" />
		<tag k="natural" v="wetland" />
		<tag k="ssr:stedsnr" v="57662" />
	</node>
	<node id="-845796" lat="68.7894194483" lon="17.8308833316">
		<tag k="name" v="Stabbursteinen" />
		<tag k="name:no" v="Stabbursteinen" />
		<tag k="natural" v="stone" />
		<tag k="ssr:stedsnr" v="57509" />
	</node>
	<node id="-845784" lat="68.8202611128" lon="17.8475249897">
		<tag k="name" v="Fielmmesrohtu" />
		<tag k="name:se" v="Fielmmesrohtu" />
		<tag k="place" v="locality" />
		<tag k="ssr:stedsnr" v="56220" />
	</node>
	<node id="-845781" lat="68.7662194482" lon="17.6426916671">
		<tag k="name" v="Stormyra" />
		<tag k="name:no" v="Stormyra" />
		<tag k="natural" v="wetland" />
		<tag k="ssr:stedsnr" v="58145" />
	</node>
	<node id="-845778" lat="68.7582972247" lon="17.6697055598">
		<tag k="name" v="Tverrelvmyran" />
		<tag k="name:no" v="Tverrelvmyran" />
		<tag k="natural" v="wetland" />
		<tag k="ssr:stedsnr" v="18663" />
	</node>
	<node id="-845763" lat="68.7577055523" lon="17.8792833281">
		<tag k="name" v="Skogkrullen" />
		<tag k="name:no" v="Skogkrullen" />
		<tag k="natural" v="wetland" />
		<tag k="ssr:stedsnr" v="967662" />
	</node>
	<node id="-845758" lat="68.7943416629" lon="17.5607499873">
		<tag k="name" v="Storsteinen" />
		<tag k="name:no" v="Storsteinen" />
		<tag k="natural" v="stone" />
		<tag k="ssr:stedsnr" v="967164" />
	</node>
	<node id="-845751" lat="68.6855638877" lon="17.9813749959">
		<tag k="name" v="Eggamyra" />
		<tag k="name:no" v="Eggamyra" />
		<tag k="natural" v="wetland" />
		<tag k="ssr:stedsnr" v="906720" />
	</node>
	<node id="-845734" lat="68.7055138934" lon="17.9726027639">
		<tag k="name" v="Bassejuovva" />
		<tag k="name:se" v="Bassejuovva" />
		<tag k="natural" v="scree" />
		<tag k="ssr:stedsnr" v="934551" />
	</node>
	<node id="-845729" lat="68.7418472251" lon="17.6659777684">
		<tag k="name" v="Stormyra" />
		<tag k="name:no" v="Stormyra" />
		<tag k="natural" v="wetland" />
		<tag k="ssr:stedsnr" v="928935" />
	</node>
	<node id="-845724" lat="68.7927916656" lon="17.8218416566">
		<tag k="alt_name:no" v="Frivimarka" />
		<tag k="name" v="Friveimarka" />
		<tag k="name:no" v="Friveimarka" />
		<tag k="place" v="locality" />
		<tag k="ssr:stedsnr" v="928674" />
	</node>
	<node id="-845712" lat="68.6612694405" lon="17.9110444441">
		<tag k="name" v="Staurlokmyra" />
		<tag k="name:no" v="Staurlokmyra" />
		<tag k="natural" v="wetland" />
		<tag k="ssr:stedsnr" v="786557" />
	</node>
	<node id="-846222" lat="68.7519611113" lon="17.6943249936">
		<tag k="name" v="Bjørnbåsmyra" />
		<tag k="name:no" v="Bjørnbåsmyra" />
		<tag k="natural" v="wetland" />
		<tag k="ssr:stedsnr" v="968384" />
	</node>
	<node id="-846220" lat="68.690827777" lon="17.9598388815">
		<tag k="name" v="Marenmyra" />
		<tag k="name:no" v="Marenmyra" />
		<tag k="natural" v="wetland" />
		<tag k="ssr:stedsnr" v="967720" />
	</node>
	<node id="-846146" lat="68.7668416663" lon="17.7990388801">
		<tag k="name" v="Øyra" />
		<tag k="name:no" v="Øyra" />
		<tag k="place" v="locality" />
		<tag k="ssr:stedsnr" v="786548" />
	</node>
	<node id="-846217" lat="68.6895388866" lon="17.9503888947">
		<tag k="name" v="Holtan" />
		<tag k="name:no" v="Holtan" />
		<tag k="place" v="locality" />
		<tag k="ssr:stedsnr" v="967708" />
	</node>
	<node id="-846216" lat="68.780341667" lon="17.8373861067">
		<tag k="name" v="Geitsteinen" />
		<tag k="name:no" v="Geitsteinen" />
		<tag k="natural" v="stone" />
		<tag k="ssr:stedsnr" v="967786" />
	</node>
	<node id="-846207" lat="68.794580553" lon="17.6862749975">
		<tag k="name" v="Smørslåga" />
		<tag k="name:no" v="Smørslåga" />
		<tag k="natural" v="stone" />
		<tag k="ssr:stedsnr" v="967386" />
	</node>
	<node id="-845693" lat="68.680880559" lon="17.9807249939">
		<tag k="name" v="Nibeskogen" />
		<tag k="name:no" v="Nibeskogen" />
		<tag k="place" v="locality" />
		<tag k="ssr:stedsnr" v="906724" />
	</node>
	<node id="-846172" lat="68.8048916705" lon="17.7291194507">
		<tag k="name" v="Blåmyran" />
		<tag k="name:no" v="Blåmyran" />
		<tag k="natural" v="wetland" />
		<tag k="ssr:stedsnr" v="846463" />
	</node>
	<node id="-846171" lat="68.8056000009" lon="17.7491250016">
		<tag k="name" v="Gamvikmyran" />
		<tag k="name:no" v="Gamvikmyran" />
		<tag k="natural" v="wetland" />
		<tag k="ssr:stedsnr" v="846461" />
	</node>
	<node id="-845656" lat="68.6981194464" lon="17.9709277859">
		<tag k="name" v="Neplandsmyra" />
		<tag k="name:no" v="Neplandsmyra" />
		<tag k="natural" v="wetland" />
		<tag k="ssr:stedsnr" v="906778" />
	</node>
	<node id="-845655" lat="68.6978000004" lon="17.9676499916">
		<tag k="name" v="Rotlimyra" />
		<tag k="name:no" v="Rotlimyra" />
		<tag k="natural" v="wetland" />
		<tag k="ssr:stedsnr" v="906771" />
	</node>
	<node id="-845650" lat="68.7296694444" lon="17.8137555483">
		<tag k="name" v="Sennemyra" />
		<tag k="name:no" v="Sennemyra" />
		<tag k="natural" v="wetland" />
		<tag k="ssr:stedsnr" v="299501" />
	</node>
	<node id="-845643" lat="68.6888111074" lon="17.9850666692">
		<tag k="name" v="Nibemyra" />
		<tag k="name:no" v="Nibemyra" />
		<tag k="natural" v="wetland" />
		<tag k="ssr:stedsnr" v="724750" />
	</node>
	<node id="-845636" lat="68.7304083315" lon="17.8334805507">
		<tag k="name" v="Tørrforrholtan" />
		<tag k="name:no" v="Tørrforrholtan" />
		<tag k="place" v="locality" />
		<tag k="ssr:stedsnr" v="724696" />
	</node>
	<node id="-845634" lat="68.7861583353" lon="17.8006527706">
		<tag k="name" v="Brannholtan" />
		<tag k="name:no" v="Brannholtan" />
		<tag k="place" v="locality" />
		<tag k="ssr:stedsnr" v="724535" />
	</node>
	<node id="-846144" lat="68.7580583371" lon="17.7311027692">
		<tag k="name" v="Myrholtan" />
		<tag k="name:no" v="Myrholtan" />
		<tag k="place" v="locality" />
		<tag k="ssr:stedsnr" v="786377" />
	</node>
	<node id="-845630" lat="68.7774750032" lon="17.691838888">
		<tag k="name" v="Storsteinan" />
		<tag k="name:no" v="Storsteinan" />
		<tag k="natural" v="stone" />
		<tag k="ssr:stedsnr" v="724527" />
	</node>
	<node id="-846140" lat="68.7481972178" lon="17.7849444508">
		<tag k="name" v="Yttermarka" />
		<tag k="name:no" v="Yttermarka" />
		<tag k="place" v="locality" />
		<tag k="ssr:stedsnr" v="786252" />
	</node>
	<node id="-845623" lat="68.7359027777" lon="17.7748777691">
		<tag k="name" v="Smørslåkholtan" />
		<tag k="name:no" v="Smørslåkholtan" />
		<tag k="place" v="locality" />
		<tag k="ssr:stedsnr" v="724433" />
	</node>
	<node id="-846132" lat="68.6804222252" lon="17.9305083253">
		<tag k="name" v="Koiemyra" />
		<tag k="name:no" v="Koiemyra" />
		<tag k="natural" v="wetland" />
		<tag k="ssr:stedsnr" v="785674" />
	</node>
	<node id="-845617" lat="68.6553916687" lon="17.9113638883">
		<tag k="name" v="Løflaten" />
		<tag k="name:no" v="Løflaten" />
		<tag k="natural" v="wetland" />
		<tag k="ssr:stedsnr" v="604634" />
	</node>
	<node id="-845606" lat="68.711250003" lon="17.9325305595">
		<tag k="name" v="Suoidnesadji - Sennemyra" />
		<tag k="name:no" v="Sennemyra" />
		<tag k="name:se" v="Suoidnesadji" />
		<tag k="natural" v="wetland" />
		<tag k="ssr:stedsnr" v="564608" />
	</node>
	<node id="-846117" lat="68.7902083311" lon="17.5580944535">
		<tag k="name" v="Myran" />
		<tag k="name:no" v="Myran" />
		<tag k="natural" v="wetland" />
		<tag k="ssr:stedsnr" v="785215" />
	</node>
	<node id="-846095" lat="68.8147388876" lon="17.8456277647">
		<tag k="alt_name:no" v="Einarmyra" />
		<tag k="name" v="Einarmyran" />
		<tag k="name:no" v="Einarmyran" />
		<tag k="natural" v="wetland" />
		<tag k="ssr:stedsnr" v="624688" />
	</node>
	<node id="-846092" lat="68.6569972192" lon="17.9023305407">
		<tag k="name" v="Boksajeaggi - Stormyra" />
		<tag k="name:no" v="Stormyra" />
		<tag k="name:se" v="Boksajeaggi" />
		<tag k="natural" v="wetland" />
		<tag k="old_name:se" v="Båksajæggi" />
		<tag k="ssr:stedsnr" v="624599" />
	</node>
	<node id="-846091" lat="68.6470083322" lon="17.896449994">
		<tag k="loc_name:se" v="Riikogállu" />
		<tag k="name" v="Sieidegeađgi" />
		<tag k="name:se" v="Sieidegeađgi" />
		<tag k="natural" v="stone" />
		<tag k="old_name:se" v="Sieidegæđgi" />
		<tag k="ssr:stedsnr" v="624598" />
	</node>
	<node id="-846089" lat="68.702200003" lon="17.9697166676">
		<tag k="name" v="Sennemyran" />
		<tag k="name:no" v="Sennemyran" />
		<tag k="natural" v="wetland" />
		<tag k="ssr:stedsnr" v="624582" />
	</node>
	<node id="-845576" lat="68.715258338" lon="17.9000222148">
		<tag k="name" v="Skillajuovva - Litjeura" />
		<tag k="name:no" v="Litjeura" />
		<tag k="name:se" v="Skillajuovva" />
		<tag k="natural" v="scree" />
		<tag k="ssr:stedsnr" v="483655" />
	</node>
	<node id="-845573" lat="68.6743805551" lon="17.9314944407">
		<tag k="name" v="Finnmyra" />
		<tag k="name:no" v="Finnmyra" />
		<tag k="natural" v="wetland" />
		<tag k="ssr:stedsnr" v="483566" />
	</node>
	<node id="-846129" lat="68.7834083297" lon="17.8247916734">
		<tag k="name" v="Skavmyran" />
		<tag k="name:no" v="Skavmyran" />
		<tag k="natural" v="wetland" />
		<tag k="ssr:stedsnr" v="785528" />
	</node>
	<node id="-846080" lat="68.7795444455" lon="17.6273750064">
		<tag k="name" v="Kveldsmarka" />
		<tag k="name:no" v="Kveldsmarka" />
		<tag k="place" v="locality" />
		<tag k="ssr:stedsnr" v="604272" />
	</node>
	<node id="-845567" lat="68.7296583319" lon="17.8482194303">
		<tag k="name" v="Duđggajeaggi" />
		<tag k="name:se" v="Duđggajeaggi" />
		<tag k="natural" v="wetland" />
		<tag k="ssr:stedsnr" v="481713" />
	</node>
	<node id="-846075" lat="68.7240194457" lon="17.8785444453">
		<tag k="loc_name:se" v="Darfesedje" />
		<tag k="name" v="Torvmyra" />
		<tag k="name:no" v="Torvmyra" />
		<tag k="natural" v="wetland" />
		<tag k="ssr:stedsnr" v="602740" />
	</node>
	<node id="-845559" lat="68.7524500006" lon="17.7137361069">
		<tag k="name" v="Stormyra" />
		<tag k="name:no" v="Stormyra" />
		<tag k="natural" v="wetland" />
		<tag k="ssr:stedsnr" v="665430" />
	</node>
	<node id="-845556" lat="68.6707750038" lon="17.9519083383">
		<tag k="name" v="Storskogen" />
		<tag k="name:no" v="Storskogen" />
		<tag k="place" v="locality" />
		<tag k="ssr:stedsnr" v="665586" />
	</node>
	<node id="-846064" lat="68.7945388928" lon="17.7588138872">
		<tag k="landuse" v="meadow" />
		<tag k="name" v="Grønjorda" />
		<tag k="name:no" v="Grønjorda" />
		<tag k="ssr:stedsnr" v="602409" />
	</node>
	<node id="-846062" lat="68.8030722232" lon="17.620833328">
		<tag k="name" v="Aspeskogen" />
		<tag k="name:no" v="Aspeskogen" />
		<tag k="place" v="locality" />
		<tag k="ssr:stedsnr" v="575990" />
	</node>
	<node id="-845549" lat="68.7677000017" lon="17.8791638789">
		<tag k="name" v="Botnmyran" />
		<tag k="name:no" v="Botnmyran" />
		<tag k="natural" v="wetland" />
		<tag k="ssr:stedsnr" v="663799" />
	</node>
	<node id="-845548" lat="68.6903027745" lon="17.9651749879">
		<tag k="name" v="Pikhaugmyra" />
		<tag k="name:no" v="Pikhaugmyra" />
		<tag k="natural" v="wetland" />
		<tag k="ssr:stedsnr" v="663765" />
	</node>
	<node id="-845547" lat="68.6951388894" lon="17.981616663">
		<tag k="name" v="Knutskogen" />
		<tag k="name:no" v="Knutskogen" />
		<tag k="place" v="locality" />
		<tag k="ssr:stedsnr" v="663759" />
	</node>
	<node id="-845546" lat="68.7805861114" lon="17.7973000068">
		<tag k="name" v="Brørsteinan" />
		<tag k="name:no" v="Brørsteinan" />
		<tag k="natural" v="stone" />
		<tag k="ssr:stedsnr" v="663554" />
	</node>
	<node id="-846056" lat="68.7642777766" lon="17.7128499877">
		<tag k="alt_name:no" v="Lomvassmyran" />
		<tag k="name" v="Lomvassmyra" />
		<tag k="name:no" v="Lomvassmyra" />
		<tag k="natural" v="wetland" />
		<tag k="ssr:stedsnr" v="563768" />
	</node>
	<node id="-845534" lat="68.7268472269" lon="17.8257611042">
		<tag k="name" v="Botolvsteinen" />
		<tag k="name:no" v="Botolvsteinen" />
		<tag k="natural" v="stone" />
		<tag k="ssr:stedsnr" v="663471" />
	</node>
	<node id="-846031" lat="68.7916916684" lon="17.7676833285">
		<tag k="landuse" v="meadow" />
		<tag k="name" v="Storteigen" />
		<tag k="name:no" v="Storteigen" />
		<tag k="ssr:stedsnr" v="542543" />
	</node>
	<node id="-846040" lat="68.7556527816" lon="17.6844999996">
		<tag k="name" v="Tverrelvmyran" />
		<tag k="name:no" v="Tverrelvmyran" />
		<tag k="natural" v="wetland" />
		<tag k="ssr:stedsnr" v="543382" />
	</node>
	<node id="-845519" lat="68.7965722223" lon="17.6531916599">
		<tag k="name" v="Aspura" />
		<tag k="name:no" v="Aspura" />
		<tag k="natural" v="scree" />
		<tag k="ssr:stedsnr" v="299233" />
	</node>
	<node id="-846029" lat="68.7663999998" lon="17.7304166557">
		<tag k="name" v="Bestefarholtan" />
		<tag k="name:no" v="Bestefarholtan" />
		<tag k="place" v="locality" />
		<tag k="ssr:stedsnr" v="542532" />
	</node>
	<node id="-845514" lat="68.6661305563" lon="17.8503638823">
		<tag k="name" v="Bukkemyra" />
		<tag k="name:no" v="Bukkemyra" />
		<tag k="natural" v="wetland" />
		<tag k="ssr:stedsnr" v="503560" />
	</node>
	<node id="-845509" lat="68.6694055554" lon="17.9140750081">
		<tag k="name" v="Gammelslåttmyra" />
		<tag k="name:no" v="Gammelslåttmyra" />
		<tag k="natural" v="wetland" />
		<tag k="ssr:stedsnr" v="361568" />
	</node>
	<node id="-846019" lat="68.7397277794" lon="17.8048860968">
		<tag k="name" v="Fagerslåtta" />
		<tag k="name:no" v="Fagerslåtta" />
		<tag k="place" v="locality" />
		<tag k="ssr:stedsnr" v="542453" />
	</node>
	<node id="-846016" lat="68.6877722218" lon="17.9747583366">
		<tag k="landuse" v="meadow" />
		<tag k="name" v="Larsjordet" />
		<tag k="name:no" v="Larsjordet" />
		<tag k="ssr:stedsnr" v="542690" />
	</node>
	<node id="-846009" lat="68.6945222195" lon="18.0022694426">
		<tag k="name" v="Brattbakkmyran" />
		<tag k="name:no" v="Brattbakkmyran" />
		<tag k="natural" v="wetland" />
		<tag k="ssr:stedsnr" v="536746" />
	</node>
	<node id="-846006" lat="68.6576027739" lon="17.9107888953">
		<tag k="name" v="Mellamyra" />
		<tag k="name:no" v="Mellamyra" />
		<tag k="natural" v="wetland" />
		<tag k="ssr:stedsnr" v="422546" />
	</node>
	<node id="-846005" lat="68.7737027761" lon="17.8200666745">
		<tag k="name" v="Skarholtan" />
		<tag k="name:no" v="Skarholtan" />
		<tag k="place" v="locality" />
		<tag k="ssr:stedsnr" v="422534" />
	</node>
	<node id="-845491" lat="68.7161111113" lon="17.7666861155">
		<tag k="name" v="Middagsmyran" />
		<tag k="name:no" v="Middagsmyran" />
		<tag k="natural" v="wetland" />
		<tag k="ssr:stedsnr" v="483189" />
	</node>
	<node id="-845490" lat="68.7693333312" lon="17.8409111085">
		<tag k="name" v="Langmyra" />
		<tag k="name:no" v="Langmyra" />
		<tag k="natural" v="wetland" />
		<tag k="ssr:stedsnr" v="481827" />
	</node>
	<node id="-845998" lat="68.780641668" lon="17.6173972247">
		<tag k="name" v="Jotunheimen" />
		<tag k="name:no" v="Jotunheimen" />
		<tag k="place" v="locality" />
		<tag k="ssr:stedsnr" v="422236" />
	</node>
	<node id="-845484" lat="68.7952750047" lon="17.6934249953">
		<tag k="name" v="Skipskogan" />
		<tag k="name:no" v="Skipskogan" />
		<tag k="place" v="locality" />
		<tag k="ssr:stedsnr" v="481432" />
	</node>
	<node id="-845995" lat="68.7783416682" lon="17.654411097">
		<tag k="name" v="Hestesteinen" />
		<tag k="name:no" v="Hestesteinen" />
		<tag k="natural" v="stone" />
		<tag k="ssr:stedsnr" v="422128" />
	</node>
	<node id="-845993" lat="68.772297219" lon="17.867422224">
		<tag k="name" v="Uran" />
		<tag k="name:no" v="Uran" />
		<tag k="natural" v="scree" />
		<tag k="ssr:stedsnr" v="421843" />
	</node>
	<node id="-845475" lat="68.7995444439" lon="17.5358361143">
		<tag k="name" v="Utenga" />
		<tag k="name:no" v="Utenga" />
		<tag k="place" v="locality" />
		<tag k="ssr:stedsnr" v="481228" />
	</node>
	<node id="-845472" lat="68.6891194442" lon="17.9885138908">
		<tag k="name" v="Nibemyra" />
		<tag k="name:no" v="Nibemyra" />
		<tag k="natural" v="wetland" />
		<tag k="ssr:stedsnr" v="475391" />
	</node>
	<node id="-845982" lat="68.7714277752" lon="17.6853861182">
		<tag k="name" v="Finnebudalsmyran" />
		<tag k="name:no" v="Finnebudalsmyran" />
		<tag k="natural" v="wetland" />
		<tag k="ssr:stedsnr" v="421536" />
	</node>
	<node id="-845980" lat="68.73151111" lon="17.7855055448">
		<tag k="name" v="Anders-finnskogen" />
		<tag k="name:no" v="Anders-finnskogen" />
		<tag k="place" v="locality" />
		<tag k="ssr:stedsnr" v="421489" />
	</node>
	<node id="-845464" lat="68.6913444421" lon="17.9698055444">
		<tag k="name" v="Hesjemyra" />
		<tag k="name:no" v="Hesjemyra" />
		<tag k="natural" v="wetland" />
		<tag k="ssr:stedsnr" v="299763" />
	</node>
	<node id="-845451" lat="68.760891663" lon="17.6938444427">
		<tag k="name" v="Lømyra" />
		<tag k="name:no" v="Lømyra" />
		<tag k="natural" v="wetland" />
		<tag k="ssr:stedsnr" v="443697" />
	</node>
	<node id="-845446" lat="68.7981694474" lon="17.8268444384">
		<tag k="name" v="Myran" />
		<tag k="name:no" v="Myran" />
		<tag k="natural" v="wetland" />
		<tag k="ssr:stedsnr" v="442742" />
	</node>
	<node id="-845953" lat="68.743099999" lon="17.7957111194">
		<tag k="name" v="Kaldslåtta" />
		<tag k="name:no" v="Kaldslåtta" />
		<tag k="place" v="locality" />
		<tag k="ssr:stedsnr" v="361283" />
	</node>
	<node id="-845951" lat="68.6923527785" lon="17.9613972209">
		<tag k="name" v="Storhammarmyra" />
		<tag k="name:no" v="Storhammarmyra" />
		<tag k="natural" v="wetland" />
		<tag k="ssr:stedsnr" v="360744" />
	</node>
	<node id="-845944" lat="68.7283583308" lon="17.8078555531">
		<tag k="name" v="Finnhestskogen" />
		<tag k="name:no" v="Finnhestskogen" />
		<tag k="place" v="locality" />
		<tag k="ssr:stedsnr" v="360448" />
	</node>
	<node id="-845431" lat="68.7515083309" lon="17.7271083409">
		<tag k="name" v="Tordensteinen" />
		<tag k="name:no" v="Tordensteinen" />
		<tag k="natural" v="stone" />
		<tag k="ssr:stedsnr" v="179373" />
	</node>
	<node id="-845411" lat="68.6872111132" lon="17.9836916648">
		<tag k="landuse" v="meadow" />
		<tag k="name" v="Gammeljordet" />
		<tag k="name:no" v="Gammeljordet" />
		<tag k="ssr:stedsnr" v="117706" />
	</node>
	<node id="-845917" lat="68.6466694418" lon="17.8929638917">
		<tag k="name" v="Tverrelvslåtten" />
		<tag k="name:no" v="Tverrelvslåtten" />
		<tag k="place" v="locality" />
		<tag k="ssr:stedsnr" v="301609" />
	</node>
	<node id="-845402" lat="68.6879777738" lon="17.9947277825">
		<tag k="name" v="Skjellmyra" />
		<tag k="name:no" v="Skjellmyra" />
		<tag k="natural" v="wetland" />
		<tag k="ssr:stedsnr" v="111704" />
	</node>
	<node id="-845910" lat="68.7777611136" lon="17.6594694345">
		<tag k="name" v="Måsesteinen" />
		<tag k="name:no" v="Måsesteinen" />
		<tag k="natural" v="stone" />
		<tag k="ssr:stedsnr" v="301129" />
	</node>
	<node id="-845907" lat="68.7704361144" lon="17.6202833201">
		<tag k="name" v="Keiprødmyran" />
		<tag k="name:no" v="Keiprødmyran" />
		<tag k="natural" v="wetland" />
		<tag k="ssr:stedsnr" v="203366" />
	</node>
	<node id="-845391" lat="68.6583944442" lon="17.8960055493">
		<tag k="name" v="Mariestykket" />
		<tag k="name:no" v="Mariestykket" />
		<tag k="place" v="locality" />
		<tag k="ssr:stedsnr" v="240563" />
	</node>
	<node id="-845387" lat="68.7534388916" lon="17.7718888866">
		<tag k="name" v="Revholtan" />
		<tag k="name:no" v="Revholtan" />
		<tag k="place" v="locality" />
		<tag k="ssr:stedsnr" v="240301" />
	</node>
	<node id="-845383" lat="68.7464333296" lon="17.7748277818">
		<tag k="name" v="Forrmyra" />
		<tag k="name:no" v="Forrmyra" />
		<tag k="natural" v="wetland" />
		<tag k="ssr:stedsnr" v="240283" />
	</node>
	<node id="-845382" lat="68.7779416664" lon="17.6096472265">
		<tag k="name" v="Per-Larsatorva" />
		<tag k="name:no" v="Per-Larsatorva" />
		<tag k="place" v="locality" />
		<tag k="ssr:stedsnr" v="240267" />
	</node>
	<node id="-845377" lat="68.6989611084" lon="18.0381499894">
		<tag k="name" v="Lappjorda" />
		<tag k="name:no" v="Lappjorda" />
		<tag k="place" v="locality" />
		<tag k="ssr:stedsnr" v="239837" />
	</node>
	<node id="-845370" lat="68.7770111126" lon="17.6949055451">
		<tag k="name" v="Grindmarka" />
		<tag k="name:no" v="Grindmarka" />
		<tag k="place" v="locality" />
		<tag k="ssr:stedsnr" v="239541" />
	</node>
	<node id="-845369" lat="68.7692805572" lon="17.8203722159">
		<tag k="name" v="Olderskogen" />
		<tag k="name:no" v="Olderskogen" />
		<tag k="place" v="locality" />
		<tag k="ssr:stedsnr" v="239513" />
	</node>
	<node id="-845365" lat="68.7979416681" lon="17.744877776">
		<tag k="name" v="Langmyra" />
		<tag k="name:no" v="Langmyra" />
		<tag k="natural" v="wetland" />
		<tag k="ssr:stedsnr" v="239463" />
	</node>
	<node id="-845875" lat="68.756286112" lon="17.7157138984">
		<tag k="alt_name:no" v="Lotternesmyran" />
		<tag k="name" v="Låternesmyran" />
		<tag k="name:no" v="Låternesmyran" />
		<tag k="natural" v="wetland" />
		<tag k="ssr:stedsnr" v="139708" />
	</node>
	<node id="-845355" lat="68.7448583336" lon="17.8034277725">
		<tag k="name" v="Myran" />
		<tag k="name:no" v="Myran" />
		<tag k="natural" v="wetland" />
		<tag k="ssr:stedsnr" v="239292" />
	</node>
	<node id="-845863" lat="68.6679194493" lon="17.9008138799">
		<tag k="name" v="Ordførarsteinen" />
		<tag k="name:no" v="Ordførarsteinen" />
		<tag k="natural" v="stone" />
		<tag k="ssr:stedsnr" v="119576" />
	</node>
	<node id="-845862" lat="68.6657999992" lon="17.9190055535">
		<tag k="name" v="Gammelslåtten" />
		<tag k="name:no" v="Gammelslåtten" />
		<tag k="place" v="locality" />
		<tag k="ssr:stedsnr" v="119569" />
	</node>
	<node id="-845858" lat="68.7537527753" lon="17.8239749943">
		<tag k="name" v="Selsiura" />
		<tag k="name:no" v="Selsiura" />
		<tag k="natural" v="scree" />
		<tag k="ssr:stedsnr" v="119295" />
	</node>
	<node id="-846167" lat="68.7330388849" lon="17.8247888928">
		<tag k="name" v="Bjørnura" />
		<tag k="name:no" v="Bjørnura" />
		<tag k="natural" v="scree" />
		<tag k="ssr:stedsnr" v="846431" />
	</node>
	<node id="-845827" lat="68.7670805531" lon="17.6375388908">
		<tag k="name" v="Keiprøddalsmyra" />
		<tag k="name:no" v="Keiprøddalsmyra" />
		<tag k="natural" v="wetland" />
		<tag k="ssr:stedsnr" v="79681" />
	</node>
</osm>
