<?xml version="1.0" encoding="UTF-8"?>
<<<<<<< HEAD
<osm version="0.6" generator="osmapis">
	<node lat="68.76594721764565" lon="17.75784722319694" id="-32303">
		<tag k="name" v="Oldran" />
		<tag k="name:no" v="Oldran" />
		<tag k="place" v="farm" />
		<tag k="ssr:stedsnr" v="239549" />
	</node>
	<node lat="68.75634444927793" lon="17.81007220983389" id="-32321">
		<tag k="name" v="Hesjemoen" />
		<tag k="name:no" v="Hesjemoen" />
		<tag k="place" v="farm" />
		<tag k="ssr:stedsnr" v="58308" />
	</node>
	<node lat="68.78678055269134" lon="17.60305833392126" id="-32334">
		<tag k="name" v="Keiprødplassen" />
		<tag k="name:no" v="Keiprødplassen" />
		<tag k="place" v="farm" />
		<tag k="ssr:stedsnr" v="82539" />
	</node>
	<node lat="68.72198888699252" lon="17.810861103620145" id="-32341">
		<tag k="name" v="Sommarheimen" />
		<tag k="name:no" v="Sommarheimen" />
		<tag k="place" v="locality" />
		<tag k="ssr:stedsnr" v="117506" />
	</node>
	<node lat="68.79703055685161" lon="17.658947217581897" id="-32369">
		<tag k="name" v="Lars-Polsaheimen" />
		<tag k="name:no" v="Lars-Polsaheimen" />
		<tag k="place" v="locality" />
		<tag k="ssr:stedsnr" v="178204" />
	</node>
	<node lat="68.7537083378399" lon="17.702355542828737" id="-32379">
		<tag k="name" v="Holman" />
		<tag k="name:no" v="Holman" />
		<tag k="place" v="locality" />
		<tag k="ssr:stedsnr" v="261715" />
	</node>
	<node lat="68.78074391708714" lon="17.63564193595835" id="-32380">
		<tag k="name" v="Keiprød" />
		<tag k="name:no" v="Keiprød" />
		<tag k="place" v="farm" />
		<tag k="ssr:stedsnr" v="264354" />
	</node>
	<node lat="68.7543305514991" lon="17.810833332092034" id="-32400">
		<tag k="name" v="Lyngmoen" />
		<tag k="name:no" v="Lyngmoen" />
		<tag k="place" v="farm" />
		<tag k="ssr:stedsnr" v="240306" />
	</node>
	<node lat="68.78134999633336" lon="17.633561102815495" id="-32421">
		<tag k="name" v="Keiprød" />
		<tag k="name:no" v="Keiprød" />
		<tag k="place" v="farm" />
		<tag k="ssr:stedsnr" v="325318" />
	</node>
	<node lat="68.79172222513616" lon="17.76081945082312" id="-32428">
		<tag k="name" v="Toften" />
		<tag k="name:no" v="Toften" />
		<tag k="place" v="farm" />
		<tag k="ssr:stedsnr" v="360362" />
	</node>
	<node lat="68.79575833171113" lon="17.566144442452696" id="-32435">
		<tag k="loc_name:se" v="Siida" />
		<tag k="name" v="Heime" />
		<tag k="name:no" v="Heime" />
		<tag k="place" v="locality" />
		<tag k="ssr:stedsnr" v="481222" />
	</node>
	<node lat="68.8014666625938" lon="17.738963884610072" id="-32446">
		<tag k="name" v="Gluntegammen" />
		<tag k="name:no" v="Gluntegammen" />
		<tag k="place" v="locality" />
		<tag k="ssr:stedsnr" v="481503" />
	</node>
	<node lat="68.7994623147385" lon="17.546716506203563" id="-32452">
		<tag k="fixme" v="consider place=hamlet" />
		<tag k="name" v="Skjelnesplassen" />
		<tag k="name:no" v="Skjelnesplassen" />
		<tag k="place" v="farm" />
		<tag k="ssr:stedsnr" v="381735" />
	</node>
	<node lat="68.72147500150876" lon="17.86014721808328" id="-32499">
		<tag k="name" v="Ruŋgu - Spansdalen" />
		<tag k="name:no" v="Spansdalen" />
		<tag k="name:se" v="Ruŋgu" />
		<tag k="place" v="hamlet" />
		<tag k="ssr:stedsnr" v="503868" />
	</node>
	<node lat="68.75977148125682" lon="17.76531111982011" id="-32500">
		<tag k="alt_name:no" v="Lotternes" />
		<tag k="fixme" v="consider place=hamlet" />
		<tag k="name" v="Låternes" />
		<tag k="name:no" v="Låternes" />
		<tag k="place" v="farm" />
		<tag k="ssr:stedsnr" v="507657" />
	</node>
	<node lat="68.79541229241288" lon="17.718828540496677" id="-32506">
		<tag k="fixme" v="consider place=hamlet" />
		<tag k="loc_name:se" v="Liiddak" />
		<tag k="name" v="Lia" />
		<tag k="name:no" v="Lia" />
		<tag k="place" v="farm" />
		<tag k="ssr:stedsnr" v="685684" />
	</node>
	<node lat="68.74775833319859" lon="17.808841656730888" id="-32513">
		<tag k="name" v="Vollen" />
		<tag k="name:no" v="Vollen" />
		<tag k="place" v="farm" />
		<tag k="ssr:stedsnr" v="542473" />
	</node>
	<node lat="68.74846111298467" lon="17.817291662163615" id="-32515">
		<tag k="name" v="Mikkelmoen" />
		<tag k="name:no" v="Mikkelmoen" />
		<tag k="place" v="farm" />
		<tag k="ssr:stedsnr" v="542475" />
	</node>
	<node lat="68.67925277687208" lon="17.92186944527358" id="-32518">
		<tag k="name" v="Sætra" />
		<tag k="name:no" v="Sætra" />
		<tag k="place" v="locality" />
		<tag k="ssr:stedsnr" v="542684" />
	</node>
	<node lat="68.78149721930188" lon="17.6304611032501" id="-32521">
		<tag k="name" v="Keiprød" />
		<tag k="name:no" v="Keiprød" />
		<tag k="place" v="farm" />
		<tag k="ssr:stedsnr" v="689354" />
	</node>
	<node lat="68.78278055645544" lon="17.624044435965036" id="-32522">
		<tag k="name" v="Keiprød" />
		<tag k="name:no" v="Keiprød" />
		<tag k="place" v="farm" />
		<tag k="ssr:stedsnr" v="689361" />
	</node>
	<node lat="68.77453889190367" lon="17.73840000867071" id="-32532">
		<tag k="name" v="Strand" />
		<tag k="name:no" v="Strand" />
		<tag k="place" v="farm" />
		<tag k="ssr:stedsnr" v="602548" />
	</node>
	<node lat="68.7626333331289" lon="17.76342778301472" id="-32545">
		<tag k="alt_name:no" v="Lotternes" />
		<tag k="fixme" v="consider place=hamlet" />
		<tag k="name" v="Låternes" />
		<tag k="name:no" v="Låternes" />
		<tag k="place" v="village" />
		<tag k="ssr:stedsnr" v="624730" />
	</node>
	<node lat="68.67943055588411" lon="17.91471389778454" id="-32552">
		<tag k="fixme" v="consider tourism=alpine_hut or tourism=chalet" />
		<tag k="loc_name:no" v="Basivárri" />
		<tag k="name" v="Bassevarre" />
		<tag k="name:no" v="Bassevarre" />
		<tag k="ssr:stedsnr" v="663695" />
		<tag k="tourism" v="wilderness_hut" />
	</node>
	<node lat="68.6888638843446" lon="18.005927782460503" id="-32560">
		<tag k="historic" v="shieling" />
		<tag k="name" v="Gammelsætran" />
		<tag k="name:no" v="Gammelsætran" />
		<tag k="place" v="isolated_dwelling" />
		<tag k="ssr:stedsnr" v="718387" />
	</node>
	<node lat="68.80153055630012" lon="17.543972228143772" id="-32564">
		<tag k="name" v="Viken" />
		<tag k="name:no" v="Viken" />
		<tag k="place" v="farm" />
		<tag k="ssr:stedsnr" v="724185" />
	</node>
	<node lat="68.80591767631645" lon="17.611551698995477" id="-32574">
		<tag k="name" v="Elvenesfjellet" />
		<tag k="name:no" v="Elvenesfjellet" />
		<tag k="place" v="locality" />
		<tag k="ssr:stedsnr" v="745721" />
	</node>
	<node lat="68.77057222096511" lon="17.89598055172171" id="-32601">
		<tag k="name" v="Anna-Mariagammen" />
		<tag k="name:no" v="Anna-Mariagammen" />
		<tag k="place" v="locality" />
		<tag k="ssr:stedsnr" v="906835" />
	</node>
	<node lat="68.72380775933496" lon="17.837443913802655" id="-32628">
		<tag k="fixme" v="consider place=hamlet" />
		<tag k="name" v="Spansdalsmarka" />
		<tag k="name:no" v="Spansdalsmarka" />
		<tag k="place" v="farm" />
		<tag k="ssr:stedsnr" v="846704" />
	</node>
	<node lat="68.72371514192675" lon="17.833125097368445" id="-32634">
		<tag k="fixme" v="consider place=hamlet" />
		<tag k="name" v="Hoalbma - Holmen" />
		<tag k="name:no" v="Holmen" />
		<tag k="name:se" v="Hoalbma" />
=======
<osm generator="osmapis" version="0.6">
	<node id="-857585" lat="68.7689805578" lon="17.7490833357">
		<tag k="name" v="Nystad" />
		<tag k="name:no" v="Nystad" />
		<tag k="place" v="farm" />
		<tag k="ssr:stedsnr" v="602581" />
	</node>
	<node id="-857583" lat="68.7745388919" lon="17.7384000087">
		<tag k="name" v="Strand" />
		<tag k="name:no" v="Strand" />
		<tag k="place" v="farm" />
		<tag k="ssr:stedsnr" v="602548" />
	</node>
	<node id="-857573" lat="68.7806666629" lon="17.6555805552">
		<tag k="name" v="Hestnes" />
		<tag k="name:no" v="Hestnes" />
		<tag k="place" v="hamlet" />
		<tag k="ssr:stedsnr" v="571777" />
	</node>
	<node id="-857570" lat="68.722819449" lon="17.8452194392">
		<tag k="name" v="Busletta" />
		<tag k="name:no" v="Busletta" />
		<tag k="place" v="farm" />
		<tag k="ssr:stedsnr" v="563946" />
	</node>
	<node id="-857055" lat="68.7511194465" lon="17.8151277728">
		<tag k="name" v="Hågen" />
		<tag k="name:no" v="Hågen" />
		<tag k="place" v="farm" />
		<tag k="ssr:stedsnr" v="663448" />
	</node>
	<node id="-857565" lat="68.7907216706" lon="17.7703477662">
		<tag k="fixme" v="consider place=hamlet" />
		<tag k="name" v="Rød" />
		<tag k="name:no" v="Rød" />
		<tag k="place" v="farm" />
		<tag k="ssr:stedsnr" v="563751" />
	</node>
	<node id="-857560" lat="68.6972416671" lon="17.9886610986">
		<tag k="name" v="Nordre Fossbakken" />
		<tag k="name:no" v="Nordre Fossbakken" />
		<tag k="place" v="farm" />
		<tag k="ssr:stedsnr" v="563542" />
	</node>
	<node id="-857042" lat="68.7865444437" lon="17.6054027628">
		<tag k="name" v="Keiprødplassen" />
		<tag k="name:no" v="Keiprødplassen" />
		<tag k="place" v="locality" />
		<tag k="ssr:stedsnr" v="446320" />
	</node>
	<node id="-857553" lat="68.7593444487" lon="17.7564833326">
		<tag k="name" v="Brekka" />
		<tag k="name:no" v="Brekka" />
		<tag k="place" v="farm" />
		<tag k="ssr:stedsnr" v="543389" />
	</node>
	<node id="-857029" lat="68.7837361078" lon="17.6188277659">
		<tag k="name" v="Keiprød" />
		<tag k="name:no" v="Keiprød" />
		<tag k="place" v="farm" />
		<tag k="ssr:stedsnr" v="507300" />
	</node>
	<node id="-857027" lat="68.752283336" lon="17.8134722222">
		<tag k="name" v="Lyngmoen" />
		<tag k="name:no" v="Lyngmoen" />
		<tag k="place" v="farm" />
		<tag k="ssr:stedsnr" v="503697" />
	</node>
	<node id="-857538" lat="68.748461113" lon="17.8172916622">
		<tag k="name" v="Mikkelmoen" />
		<tag k="name:no" v="Mikkelmoen" />
		<tag k="place" v="farm" />
		<tag k="ssr:stedsnr" v="542475" />
	</node>
	<node id="-857536" lat="68.7477583332" lon="17.8088416567">
		<tag k="name" v="Vollen" />
		<tag k="name:no" v="Vollen" />
		<tag k="place" v="farm" />
		<tag k="ssr:stedsnr" v="542473" />
	</node>
	<node id="-857016" lat="68.7917222251" lon="17.7608194508">
		<tag k="name" v="Toften" />
		<tag k="name:no" v="Toften" />
		<tag k="place" v="farm" />
		<tag k="ssr:stedsnr" v="360362" />
	</node>
	<node id="-857526" lat="68.6792527769" lon="17.9218694453">
		<tag k="name" v="Sætra" />
		<tag k="name:no" v="Sætra" />
		<tag k="place" v="locality" />
		<tag k="ssr:stedsnr" v="542684" />
	</node>
	<node id="-857522" lat="68.6971583316" lon="18.0271166614">
		<tag k="historic" v="shieling" />
		<tag k="name" v="Sætran" />
		<tag k="name:no" v="Sætran" />
		<tag k="place" v="locality" />
		<tag k="ssr:stedsnr" v="536749" />
	</node>
	<node id="-856994" lat="68.8014666626" lon="17.7389638846">
		<tag k="name" v="Gluntegammen" />
		<tag k="name:no" v="Gluntegammen" />
		<tag k="place" v="locality" />
		<tag k="ssr:stedsnr" v="481503" />
	</node>
	<node id="-856986" lat="68.7957583317" lon="17.5661444425">
		<tag k="name" v="Heime" />
		<tag k="name:no" v="Heime" />
		<tag k="place" v="farm" />
		<tag k="ssr:stedsnr" v="481222" />
	</node>
	<node id="-857481" lat="68.7367361141" lon="17.8195666754">
		<tag k="name" v="Silddádievvá - Spansgårdsstigninga" />
		<tag k="name:no" v="Spansgårdsstigninga" />
		<tag k="name:se" v="Silddádievvá" />
		<tag k="place" v="quarter" />
		<tag k="ssr:stedsnr" v="413164" />
	</node>
	<node id="-857478" lat="68.7837361078" lon="17.6188277659">
		<tag k="name" v="Keiprød" />
		<tag k="name:no" v="Keiprød" />
>>>>>>> e1d4bc35ff8a6074a6f2e91616a996b547c36f15
		<tag k="place" v="farm" />
		<tag k="ssr:stedsnr" v="927940" />
	</node>
<<<<<<< HEAD
	<node lat="68.68657222634532" lon="18.00228610447435" id="-32636">
		<tag k="name" v="Selstraum" />
		<tag k="name:no" v="Selstraum" />
		<tag k="place" v="farm" />
		<tag k="ssr:stedsnr" v="928332" />
	</node>
	<node lat="68.69397777814018" lon="17.973611107159897" id="-32638">
		<tag k="name" v="Fossbakken søndre" />
		<tag k="name:no" v="Fossbakken søndre" />
		<tag k="place" v="farm" />
		<tag k="ssr:stedsnr" v="928526" />
	</node>
	<node lat="68.79209223869361" lon="17.575967768311525" id="-32644">
		<tag k="fixme" v="consider place=hamlet" />
		<tag k="loc_name:se" v="Reaidnagillu" />
		<tag k="name" v="Reinland" />
		<tag k="name:no" v="Reinland" />
		<tag k="place" v="farm" />
		<tag k="ssr:stedsnr" v="928675" />
	</node>
	<node lat="68.76144722488587" lon="17.806061110211544" id="-32663">
		<tag k="alt_name:no" v="Hesjevik" />
=======
	<node id="-857474" lat="68.7746055532" lon="17.8008527838">
>>>>>>> e1d4bc35ff8a6074a6f2e91616a996b547c36f15
		<tag k="fixme" v="consider place=hamlet" />
		<tag k="loc_name:se" v="Heasseviika" />
		<tag k="name" v="Hesjevika" />
		<tag k="name:no" v="Hesjevika" />
		<tag k="place" v="village" />
		<tag k="ssr:stedsnr" v="928709" />
	</node>
<<<<<<< HEAD
	<node lat="68.74361816239403" lon="17.81219816225436" id="-32668">
		<tag k="fixme" v="consider place=hamlet" />
		<tag k="name" v="Spansdalen" />
		<tag k="name:no" v="Spansdalen" />
=======
	<node id="-857473" lat="68.7950360271" lon="17.7326065807">
		<tag k="fixme" v="consider place=hamlet" />
		<tag k="name" v="Gamvik" />
		<tag k="name:no" v="Gamvik" />
>>>>>>> e1d4bc35ff8a6074a6f2e91616a996b547c36f15
		<tag k="place" v="farm" />
		<tag k="ssr:stedsnr" v="967443" />
	</node>
<<<<<<< HEAD
	<node lat="68.76207222280654" lon="17.75929721125576" id="-32677">
		<tag k="name" v="Rimoen" />
		<tag k="name:no" v="Rimoen" />
		<tag k="place" v="farm" />
		<tag k="ssr:stedsnr" v="968389" />
	</node>
	<node lat="68.68897710500289" lon="17.956672526854124" id="-32680">
		<tag k="fixme" v="consider place=hamlet" />
		<tag k="loc_name:se" v="Ruŋgogiera" />
		<tag k="name" v="Fossbakken" />
		<tag k="name:no" v="Fossbakken" />
=======
	<node id="-857470" lat="68.7994623147" lon="17.5467165062">
		<tag k="fixme" v="consider place=hamlet" />
		<tag k="name" v="Skjelnesplassen" />
		<tag k="name:no" v="Skjelnesplassen" />
>>>>>>> e1d4bc35ff8a6074a6f2e91616a996b547c36f15
		<tag k="place" v="farm" />
		<tag k="ssr:stedsnr" v="978995" />
	</node>
<<<<<<< HEAD
	<node lat="68.72252499577773" lon="17.841541668576916" id="-32681">
		<tag k="name" v="Sandmelen" />
		<tag k="name:no" v="Sandmelen" />
		<tag k="place" v="locality" />
		<tag k="ssr:stedsnr" v="17946" />
	</node>
	<node lat="68.72299999843268" lon="17.841091661207344" id="-32706">
		<tag k="name" v="Gammelgården" />
		<tag k="name:no" v="Gammelgården" />
		<tag k="place" v="locality" />
		<tag k="ssr:stedsnr" v="57695" />
	</node>
	<node lat="68.77226120147598" lon="17.741488294413728" id="-32726">
		<tag k="fixme" v="consider place=hamlet" />
		<tag k="loc_name:se" v="Revkanjárga;Revkanášši" />
		<tag k="name" v="Røkenes" />
		<tag k="name:no" v="Røkenes" />
		<tag k="place" v="farm" />
		<tag k="ssr:stedsnr" v="79686" />
	</node>
	<node lat="68.77934258771774" lon="17.691635625815685" id="-32739">
		<tag k="fixme" v="consider place=hamlet" />
		<tag k="name" v="Marines" />
		<tag k="name:no" v="Marines" />
		<tag k="place" v="farm" />
		<tag k="ssr:stedsnr" v="117562" />
	</node>
	<node lat="68.76368055482064" lon="17.807333340908837" id="-32746">
		<tag k="name" v="Finnura" />
		<tag k="name:no" v="Finnura" />
		<tag k="place" v="farm" />
		<tag k="ssr:stedsnr" v="119286" />
	</node>
	<node lat="68.73467254403069" lon="17.79914680148371" id="-32762">
		<tag k="name" v="Moen" />
		<tag k="name:no" v="Moen" />
		<tag k="place" v="farm" />
		<tag k="ssr:stedsnr" v="139917" />
	</node>
	<node lat="68.78114648895033" lon="17.656168468403415" id="-32763">
		<tag k="fixme" v="consider place=hamlet" />
		<tag k="name" v="Hestnes" />
		<tag k="name:no" v="Hestnes" />
		<tag k="old_name:no" v="Hastnes" />
		<tag k="place" v="farm" />
		<tag k="ssr:stedsnr" v="146159" />
	</node>
	<node lat="68.78171874774179" lon="17.787406065434276" id="-32783">
		<tag k="name" v="Vieland" />
		<tag k="name:no" v="Vieland" />
		<tag k="old_name:no" v="Veiland" />
		<tag k="place" v="farm" />
		<tag k="ssr:stedsnr" v="181888" />
	</node>
	<node lat="68.68896412685149" lon="17.980884350005923" id="-32788">
		<tag k="name" v="Fossbakken" />
		<tag k="name:no" v="Fossbakken" />
		<tag k="place" v="hamlet" />
		<tag k="ssr:stedsnr" v="203181" />
	</node>
	<node lat="68.74302343557012" lon="17.814003067121682" id="-32831">
		<tag k="name" v="Spansgård" />
		<tag k="name:no" v="Spansgård" />
		<tag k="place" v="farm" />
		<tag k="ssr:stedsnr" v="324148" />
	</node>
	<node lat="68.77869167088383" lon="17.808311115889968" id="-32847">
=======
	<node id="-857749" lat="68.719179125" lon="17.8728868972">
		<tag k="fixme" v="consider place=hamlet" />
		<tag k="name" v="Skredberget" />
		<tag k="name:no" v="Skredberget" />
		<tag k="place" v="farm" />
		<tag k="ssr:stedsnr" v="1077298" />
	</node>
	<node id="-857460" lat="68.7786916709" lon="17.8083111159">
>>>>>>> e1d4bc35ff8a6074a6f2e91616a996b547c36f15
		<tag k="name" v="Holmen" />
		<tag k="name:no" v="Holmen" />
		<tag k="place" v="farm" />
		<tag k="ssr:stedsnr" v="360536" />
	</node>
<<<<<<< HEAD
	<node lat="68.77460555317" lon="17.800852783838696" id="-32863">
		<tag k="fixme" v="consider place=hamlet" />
		<tag k="loc_name:se" v="Suolemak" />
		<tag k="name" v="Soløy" />
		<tag k="name:no" v="Soløy" />
		<tag k="place" v="village" />
		<tag k="ssr:stedsnr" v="381758" />
	</node>
	<node lat="68.79503602708715" lon="17.732606580685996" id="-32866">
		<tag k="fixme" v="consider place=hamlet" />
		<tag k="loc_name:no" v="Gamvika" />
		<tag k="loc_name:se" v="Gámaviika" />
		<tag k="name" v="Gamvik" />
		<tag k="name:no" v="Gamvik" />
		<tag k="place" v="farm" />
		<tag k="ssr:stedsnr" v="381754" />
	</node>
	<node lat="68.73673611407492" lon="17.819566675428252" id="-32871">
		<tag k="name" v="Silddádievvá - Spansgårdsstigninga" />
		<tag k="name:no" v="Spansgårdsstigninga" />
		<tag k="name:se" v="Silddádievvá" />
		<tag k="place" v="quarter" />
		<tag k="ssr:stedsnr" v="413164" />
	</node>
	<node lat="68.76999999792403" lon="17.804091655783008" id="-32911">
		<tag k="alt_name:no" v="Tha" />
		<tag k="fixme" v="multiple name tags, choose one and add the other to alt_name" />
		<tag k="name" v="Altanen;Ta" />
		<tag k="name:no" v="Altanen;Ta" />
		<tag k="place" v="farm" />
		<tag k="ssr:stedsnr" v="443691" />
	</node>
	<node lat="68.78654444367875" lon="17.605402762833393" id="-32914">
		<tag k="name" v="Keiprødplassen" />
		<tag k="name:no" v="Keiprødplassen" />
		<tag k="place" v="locality" />
		<tag k="ssr:stedsnr" v="446320" />
	</node>
	<node lat="68.7522833360291" lon="17.81347222217035" id="-32916">
		<tag k="name" v="Lyngmoen" />
		<tag k="name:no" v="Lyngmoen" />
		<tag k="place" v="farm" />
		<tag k="ssr:stedsnr" v="503697" />
	</node>
	<node lat="68.78370155137448" lon="17.618853712340567" id="-32920">
		<tag k="name" v="Keiprød" />
		<tag k="name:no" v="Keiprød" />
		<tag k="place" v="farm" />
		<tag k="ssr:stedsnr" v="507300" />
	</node>
	<node lat="68.69715833157831" lon="18.0271166614197" id="-32923">
		<tag k="historic" v="shieling" />
		<tag k="name" v="Sætran" />
		<tag k="name:no" v="Sætran" />
		<tag k="place" v="isolated_dwelling" />
		<tag k="ssr:stedsnr" v="536749" />
	</node>
	<node lat="68.75934444874488" lon="17.756483332572532" id="-32937">
		<tag k="name" v="Brekka" />
		<tag k="name:no" v="Brekka" />
		<tag k="place" v="farm" />
		<tag k="ssr:stedsnr" v="543389" />
	</node>
	<node lat="68.69604166324685" lon="18.013497222027716" id="-32953">
		<tag k="name" v="Mina" />
		<tag k="name:no" v="Mina" />
		<tag k="place" v="locality" />
		<tag k="ssr:stedsnr" v="563333" />
	</node>
	<node lat="68.69724166713013" lon="17.98866109857362" id="-32954">
		<tag k="name" v="Nordre Fossbakken" />
		<tag k="name:no" v="Nordre Fossbakken" />
		<tag k="place" v="farm" />
		<tag k="ssr:stedsnr" v="563542" />
	</node>
	<node lat="68.79072167059206" lon="17.770347766179892" id="-32958">
		<tag k="fixme" v="consider place=hamlet" />
		<tag k="loc_name:se" v="Rodik" />
		<tag k="name" v="Rød" />
		<tag k="name:no" v="Rød" />
=======
	<node id="-857447" lat="68.7813499963" lon="17.6335611028">
		<tag k="name" v="Keiprød" />
		<tag k="name:no" v="Keiprød" />
>>>>>>> e1d4bc35ff8a6074a6f2e91616a996b547c36f15
		<tag k="place" v="farm" />
		<tag k="ssr:stedsnr" v="563751" />
	</node>
<<<<<<< HEAD
	<node lat="68.72281944902952" lon="17.84521943915031" id="-32964">
		<tag k="name" v="Busletta" />
		<tag k="name:no" v="Busletta" />
=======
	<node id="-857446" lat="68.7424388929" lon="17.8146027694">
		<tag k="name" v="Spansgård" />
		<tag k="name:no" v="Spansgård" />
>>>>>>> e1d4bc35ff8a6074a6f2e91616a996b547c36f15
		<tag k="place" v="farm" />
		<tag k="ssr:stedsnr" v="563946" />
	</node>
<<<<<<< HEAD
	<node lat="68.78066666294689" lon="17.65558055520141" id="-32968">
		<tag k="name" v="Hestnes" />
		<tag k="name:no" v="Hestnes" />
		<tag k="place" v="hamlet" />
		<tag k="ssr:stedsnr" v="571777" />
	</node>
	<node lat="68.76898055778146" lon="17.749083335663173" id="-32977">
		<tag k="name" v="Nystad" />
		<tag k="name:no" v="Nystad" />
=======
	<node id="-856933" lat="68.7970305569" lon="17.6589472176">
		<tag k="name" v="Lars-Polsaheimen" />
		<tag k="name:no" v="Lars-Polsaheimen" />
		<tag k="place" v="locality" />
		<tag k="ssr:stedsnr" v="178204" />
	</node>
	<node id="-856931" lat="68.781146489" lon="17.6561684684">
		<tag k="fixme" v="consider place=hamlet" />
		<tag k="name" v="Hestnes" />
		<tag k="name:no" v="Hestnes" />
		<tag k="old_name:no" v="Hastnes" />
>>>>>>> e1d4bc35ff8a6074a6f2e91616a996b547c36f15
		<tag k="place" v="farm" />
		<tag k="ssr:stedsnr" v="602581" />
	</node>
<<<<<<< HEAD
	<node lat="68.67274167037829" lon="17.900574987260995" id="-32998">
		<tag k="name" v="Lapphaugen" />
		<tag k="name:no" v="Lapphaugen" />
		<tag k="place" v="farm" />
		<tag k="ssr:stedsnr" v="624602" />
	</node>
	<node lat="68.7261772425326" lon="17.810056421894686" id="-32999">
		<tag k="alt_name:no" v="Moshågen" />
		<tag k="name" v="Moshaugen" />
		<tag k="name:no" v="Moshaugen" />
		<tag k="place" v="farm" />
		<tag k="ssr:stedsnr" v="624924" />
	</node>
	<node lat="68.74709166573545" lon="17.806183318408863" id="-33000">
		<tag k="alt_name:no" v="Tennevollen" />
		<tag k="loc_name:se" v="Deannjá" />
		<tag k="name" v="Tennevoll" />
		<tag k="name:no" v="Tennevoll" />
		<tag k="place" v="village" />
		<tag k="ssr:stedsnr" v="624898" />
	</node>
	<node lat="68.75111944646837" lon="17.815127772807358" id="-33005">
		<tag k="name" v="Hågen" />
		<tag k="name:no" v="Hågen" />
		<tag k="place" v="farm" />
		<tag k="ssr:stedsnr" v="663448" />
	</node>
	<node lat="68.76633736946566" lon="17.806890728769837" id="-33008">
		<tag k="alt_name:no" v="Hesjevik" />
		<tag k="fixme" v="consider place=hamlet" />
		<tag k="loc_name:se" v="Heasseviika" />
		<tag k="name" v="Hesjevika" />
		<tag k="name:no" v="Hesjevika" />
		<tag k="place" v="farm" />
		<tag k="ssr:stedsnr" v="663506" />
	</node>
	<node lat="68.74559167119567" lon="17.812327773962487" id="-33034">
		<tag k="name" v="Olderholmen" />
		<tag k="name:no" v="Olderholmen" />
=======
	<node id="-856926" lat="68.7807439171" lon="17.635641936">
		<tag k="name" v="Keiprød" />
		<tag k="name:no" v="Keiprød" />
		<tag k="place" v="farm" />
		<tag k="ssr:stedsnr" v="264354" />
	</node>
	<node id="-856918" lat="68.721988887" lon="17.8108611036">
		<tag k="name" v="Sommarheimen" />
		<tag k="name:no" v="Sommarheimen" />
		<tag k="place" v="locality" />
		<tag k="ssr:stedsnr" v="117506" />
	</node>
	<node id="-856915" lat="68.7537083378" lon="17.7023555428">
		<tag k="name" v="Holman" />
		<tag k="name:no" v="Holman" />
		<tag k="place" v="locality" />
		<tag k="ssr:stedsnr" v="261715" />
	</node>
	<node id="-857418" lat="68.6889641269" lon="17.98088435">
		<tag k="name" v="Fossbakken" />
		<tag k="name:no" v="Fossbakken" />
		<tag k="place" v="hamlet" />
		<tag k="ssr:stedsnr" v="203181" />
	</node>
	<node id="-857740" lat="68.688977105" lon="17.9566725269">
		<tag k="fixme" v="consider place=hamlet" />
		<tag k="name" v="Fossbakken" />
		<tag k="name:no" v="Fossbakken" />
		<tag k="place" v="farm" />
		<tag k="ssr:stedsnr" v="978995" />
	</node>
	<node id="-856900" lat="68.7543305515" lon="17.8108333321">
		<tag k="name" v="Lyngmoen" />
		<tag k="name:no" v="Lyngmoen" />
		<tag k="place" v="farm" />
		<tag k="ssr:stedsnr" v="240306" />
	</node>
	<node id="-857409" lat="68.7817187477" lon="17.7874060654">
		<tag k="name" v="Vieland" />
		<tag k="name:no" v="Vieland" />
		<tag k="old_name:no" v="Veiland" />
>>>>>>> e1d4bc35ff8a6074a6f2e91616a996b547c36f15
		<tag k="place" v="farm" />
		<tag k="ssr:stedsnr" v="181888" />
	</node>
<<<<<<< HEAD
	<node lat="68.72856666991406" lon="17.85922777008871" id="-33038">
		<tag k="historic" v="shieling" />
		<tag k="name" v="Nerdalssætra" />
		<tag k="name:no" v="Nerdalssætra" />
		<tag k="place" v="isolated_dwelling" />
		<tag k="ssr:stedsnr" v="724697" />
	</node>
	<node lat="68.77150277344622" lon="17.74729166439874" id="-33064">
		<tag k="name" v="Hågen" />
		<tag k="name:no" v="Hågen" />
		<tag k="place" v="farm" />
		<tag k="ssr:stedsnr" v="785547" />
	</node>
	<node lat="68.72037607353643" lon="17.861579385821575" id="-33077">
		<tag k="fixme" v="consider place=hamlet" />
		<tag k="loc_name:se" v="Leaibenjárga" />
		<tag k="name" v="Oldernes" />
		<tag k="name:no" v="Oldernes" />
		<tag k="place" v="farm" />
		<tag k="ssr:stedsnr" v="786623" />
	</node>
	<node lat="68.6512416617753" lon="17.91360834008124" id="-33078">
		<tag k="name" v="Høgstad" />
		<tag k="name:no" v="Høgstad" />
		<tag k="place" v="locality" />
		<tag k="ssr:stedsnr" v="786635" />
	</node>
	<node lat="68.78315855438872" lon="17.61866109373109" id="-33083">
		<tag k="fixme" v="consider place=hamlet" />
		<tag k="loc_name:se" v="Geaippák" />
		<tag k="name" v="Keiprød" />
		<tag k="name:no" v="Keiprød" />
		<tag k="place" v="farm" />
		<tag k="ssr:stedsnr" v="807687" />
	</node>
	<node lat="68.68847777593065" lon="17.964216656609604" id="-33091">
		<tag k="name" v="Bjørklund" />
		<tag k="name:no" v="Bjørklund" />
		<tag k="place" v="farm" />
		<tag k="ssr:stedsnr" v="846685" />
	</node>
	<node lat="68.79184444755867" lon="17.75664443461179" id="-33101">
		<tag k="name" v="Gammelgårdan" />
		<tag k="name:no" v="Gammelgårdan" />
=======
	<node id="-856884" lat="68.7659472176" lon="17.7578472232">
		<tag k="name" v="Oldran" />
		<tag k="name:no" v="Oldran" />
		<tag k="place" v="farm" />
		<tag k="ssr:stedsnr" v="239549" />
	</node>
	<node id="-857389" lat="68.734500001" lon="17.8018055585">
		<tag k="name" v="Moen" />
		<tag k="name:no" v="Moen" />
		<tag k="place" v="isolated_dwelling" />
		<tag k="ssr:stedsnr" v="139917" />
	</node>
	<node id="-857369" lat="68.7636805548" lon="17.8073333409">
		<tag k="name" v="Finnura" />
		<tag k="name:no" v="Finnura" />
		<tag k="place" v="farm" />
		<tag k="ssr:stedsnr" v="119286" />
	</node>
	<node id="-857357" lat="68.7793425877" lon="17.6916356258">
		<tag k="fixme" v="consider place=hamlet" />
		<tag k="name" v="Marines" />
		<tag k="name:no" v="Marines" />
		<tag k="place" v="farm" />
		<tag k="ssr:stedsnr" v="117562" />
	</node>
	<node id="-856961" lat="68.7699999979" lon="17.8040916558">
		<tag k="alt_name:no" v="Ta" />
		<tag k="fixme" v="multiple name tags, choose one and add the other to alt_name" />
		<tag k="name" v="Altanen;Tha" />
		<tag k="name:no" v="Altanen;Tha" />
		<tag k="place" v="farm" />
		<tag k="ssr:stedsnr" v="443691" />
	</node>
	<node id="-857346" lat="68.7867805527" lon="17.6030583339">
		<tag k="name" v="Keiprødplassen" />
		<tag k="name:no" v="Keiprødplassen" />
		<tag k="place" v="farm" />
		<tag k="ssr:stedsnr" v="82539" />
	</node>
	<node id="-857131" lat="68.6888638843" lon="18.0059277825">
		<tag k="historic" v="shieling" />
		<tag k="name" v="Gammelsætran" />
		<tag k="name:no" v="Gammelsætran" />
		<tag k="place" v="locality" />
		<tag k="ssr:stedsnr" v="718387" />
	</node>
	<node id="-857340" lat="68.7722612015" lon="17.7414882944">
		<tag k="fixme" v="consider place=hamlet" />
		<tag k="name" v="Røkenes" />
		<tag k="name:no" v="Røkenes" />
		<tag k="place" v="farm" />
		<tag k="ssr:stedsnr" v="79686" />
	</node>
	<node id="-857325" lat="68.7563444493" lon="17.8100722098">
		<tag k="name" v="Hesjemoen" />
		<tag k="name:no" v="Hesjemoen" />
		<tag k="place" v="farm" />
		<tag k="ssr:stedsnr" v="58308" />
	</node>
	<node id="-857318" lat="68.7229999984" lon="17.8410916612">
		<tag k="name" v="Gammelgården" />
		<tag k="name:no" v="Gammelgården" />
		<tag k="place" v="locality" />
		<tag k="ssr:stedsnr" v="57695" />
	</node>
	<node id="-857281" lat="68.7225249958" lon="17.8415416686">
		<tag k="name" v="Sandmelen" />
		<tag k="name:no" v="Sandmelen" />
		<tag k="place" v="locality" />
		<tag k="ssr:stedsnr" v="17946" />
	</node>
	<node id="-857265" lat="68.7614472249" lon="17.8060611102">
		<tag k="alt_name:no" v="Hesjevik" />
		<tag k="fixme" v="consider place=hamlet" />
		<tag k="name" v="Hesjevika" />
		<tag k="name:no" v="Hesjevika" />
		<tag k="place" v="village" />
		<tag k="ssr:stedsnr" v="928709" />
	</node>
	<node id="-857264" lat="68.6865722263" lon="18.0022861045">
		<tag k="name" v="Selstraum" />
		<tag k="name:no" v="Selstraum" />
		<tag k="place" v="farm" />
		<tag k="ssr:stedsnr" v="928332" />
	</node>
	<node id="-857254" lat="68.7707416655" lon="17.7489305595">
		<tag k="name" v="Holtet" />
		<tag k="name:no" v="Holtet" />
		<tag k="place" v="farm" />
		<tag k="ssr:stedsnr" v="879516" />
	</node>
	<node id="-857756" lat="68.6192270527" lon="17.893560694">
		<tag k="name" v="Grasvatnet" />
>>>>>>> e1d4bc35ff8a6074a6f2e91616a996b547c36f15
		<tag k="place" v="locality" />
		<tag k="ssr:stedsnr" v="1077314" />
	</node>
<<<<<<< HEAD
	<node lat="68.67520555329315" lon="17.9061499944388" id="-33114">
		<tag k="name" v="Veilund" />
		<tag k="name:no" v="Veilund" />
		<tag k="place" v="farm" />
		<tag k="ssr:stedsnr" v="847547" />
	</node>
	<node lat="68.78416673824331" lon="17.784586444863738" id="-33121">
		<tag k="fixme" v="consider place=hamlet" />
		<tag k="loc_name:se" v="Oavák" />
		<tag k="name" v="Å" />
		<tag k="name:no" v="Å" />
		<tag k="place" v="farm" />
		<tag k="ssr:stedsnr" v="867328" />
	</node>
	<node lat="68.68638760299852" lon="17.990765847205896" id="-33123">
		<tag k="alt_name:no" v="Østlund" />
		<tag k="name" v="Austlund" />
		<tag k="name:no" v="Austlund" />
		<tag k="place" v="locality" />
		<tag k="ssr:stedsnr" v="867577" />
	</node>
	<node lat="68.81658320095559" lon="17.485713526942664" id="-33130">
		<tag k="fixme" v="consider place=hamlet" />
		<tag k="loc_name:se" v="Skilnášši" />
		<tag k="name" v="Skjelnes" />
		<tag k="name:no" v="Skjelnes" />
		<tag k="place" v="farm" />
		<tag k="ssr:stedsnr" v="875197" />
	</node>
	<node lat="68.77074166549869" lon="17.748930559528365" id="-33131">
		<tag k="name" v="Holtet" />
		<tag k="name:no" v="Holtet" />
		<tag k="place" v="farm" />
		<tag k="ssr:stedsnr" v="879516" />
	</node>
	<node lat="68.78329722036231" lon="17.79141944282275" id="-33147">
		<tag k="name" v="Åbrekka" />
		<tag k="name:no" v="Åbrekka" />
		<tag k="place" v="farm" />
		<tag k="ssr:stedsnr" v="967539" />
	</node>
	<node lat="69.65483861708206" lon="18.954055597917613" id="-33160">
		<tag k="amenity" v="school" />
		<tag k="name" v="Ishavsbyen videregående skole" />
		<tag k="ssr:stedsnr" v="1075695" />
	</node>
	<node lat="68.80463845368827" lon="17.61651342791682" id="-33162">
		<tag k="fixme" v="consider place=hamlet" />
		<tag k="name" v="Fjellet" />
		<tag k="name:no" v="Fjellet" />
		<tag k="place" v="farm" />
		<tag k="ssr:stedsnr" v="1077268" />
	</node>
	<node lat="68.7764680607961" lon="17.80658851241773" id="-33163">
		<tag k="fixme" v="consider place=hamlet" />
		<tag k="loc_name:se" v="Suolemak" />
		<tag k="name" v="Soløy" />
		<tag k="name:no" v="Soløy" />
		<tag k="place" v="farm" />
		<tag k="ssr:stedsnr" v="1077269" />
	</node>
	<node lat="68.7191791249545" lon="17.87288689717298" id="-33164">
		<tag k="fixme" v="consider place=hamlet" />
		<tag k="name" v="Skredberget" />
		<tag k="name:no" v="Skredberget" />
		<tag k="place" v="farm" />
		<tag k="ssr:stedsnr" v="1077298" />
	</node>
	<node lat="68.71987113903175" lon="17.85662618591982" id="-33165">
		<tag k="fixme" v="consider place=hamlet" />
		<tag k="loc_name:se" v="Sáttodievvá" />
		<tag k="name" v="Sandmelen" />
		<tag k="name:no" v="Sandmelen" />
=======
	<node id="-857755" lat="68.7326442007" lon="17.9497461147">
		<tag k="name" v="Trosen" />
		<tag k="place" v="locality" />
		<tag k="ssr:stedsnr" v="1077313" />
	</node>
	<node id="-857754" lat="68.8216181474" lon="17.7095507154">
		<tag k="name" v="Gamvikvatnan" />
		<tag k="place" v="locality" />
		<tag k="ssr:stedsnr" v="1077312" />
	</node>
	<node id="-857753" lat="68.787038103" lon="17.6008584887">
		<tag k="fixme" v="consider place=hamlet" />
		<tag k="name" v="Keiprødplassen" />
		<tag k="place" v="farm" />
		<tag k="ssr:stedsnr" v="1077311" />
	</node>
	<node id="-857752" lat="68.7451118061" lon="17.8029825945">
		<tag k="fixme" v="consider place=hamlet" />
		<tag k="name" v="Tennevoll" />
		<tag k="name:no" v="Tennevoll" />
		<tag k="place" v="farm" />
		<tag k="ssr:stedsnr" v="1077301" />
	</node>
	<node id="-857751" lat="68.721647426" lon="17.846683808">
		<tag k="fixme" v="consider place=hamlet" />
		<tag k="name" v="Storsletta" />
		<tag k="name:no" v="Storsletta" />
		<tag k="place" v="farm" />
		<tag k="ssr:stedsnr" v="1077300" />
	</node>
	<node id="-857750" lat="68.719871139" lon="17.8566261859">
		<tag k="fixme" v="consider place=hamlet" />
		<tag k="name" v="Sandmelen" />
		<tag k="name:no" v="Sandmelen" />
		<tag k="place" v="farm" />
		<tag k="ssr:stedsnr" v="1077299" />
	</node>
	<node id="-857237" lat="68.7920922387" lon="17.5759677683">
		<tag k="fixme" v="consider place=hamlet" />
		<tag k="name" v="Reinland" />
		<tag k="name:no" v="Reinland" />
		<tag k="place" v="farm" />
		<tag k="ssr:stedsnr" v="928675" />
	</node>
	<node id="-857748" lat="68.7764680608" lon="17.8065885124">
		<tag k="fixme" v="consider place=hamlet" />
		<tag k="name" v="Soløy" />
		<tag k="name:no" v="Soløy" />
		<tag k="place" v="farm" />
		<tag k="ssr:stedsnr" v="1077269" />
	</node>
	<node id="-857747" lat="68.8046384537" lon="17.6165134279">
		<tag k="fixme" v="consider place=hamlet" />
		<tag k="name" v="Fjellet" />
		<tag k="name:no" v="Fjellet" />
		<tag k="place" v="farm" />
		<tag k="ssr:stedsnr" v="1077268" />
	</node>
	<node id="-857745" lat="69.6807751959" lon="19.0868014399">
		<tag k="fixme" v="consider place=hamlet" />
		<tag k="name" v="Krokelv" />
		<tag k="place" v="farm" />
		<tag k="ssr:stedsnr" v="1076826" />
	</node>
	<node id="-857743" lat="69.6548386171" lon="18.9540555979">
		<tag k="amenity" v="school" />
		<tag k="name" v="Ishavsbyen videregående skole" />
		<tag k="ssr:stedsnr" v="1075695" />
	</node>
	<node id="-857228" lat="68.7237410464" lon="17.8273678303">
		<tag k="fixme" v="consider place=hamlet" />
		<tag k="name" v="Holmen" />
		<tag k="name:no" v="Holmen" />
		<tag k="place" v="farm" />
		<tag k="ssr:stedsnr" v="927940" />
	</node>
	<node id="-857735" lat="68.7620722228" lon="17.7592972113">
		<tag k="name" v="Rimoen" />
		<tag k="name:no" v="Rimoen" />
		<tag k="place" v="farm" />
		<tag k="ssr:stedsnr" v="968389" />
	</node>
	<node id="-857220" lat="68.6939777781" lon="17.9736111072">
		<tag k="name" v="Fossbakken søndre" />
		<tag k="name:no" v="Fossbakken søndre" />
		<tag k="place" v="farm" />
		<tag k="ssr:stedsnr" v="928526" />
	</node>
	<node id="-857195" lat="68.8059176763" lon="17.611551699">
		<tag k="name" v="Elvenesfjellet" />
		<tag k="name:no" v="Elvenesfjellet" />
		<tag k="place" v="locality" />
		<tag k="ssr:stedsnr" v="745721" />
	</node>
	<node id="-857725" lat="68.7832972204" lon="17.7914194428">
		<tag k="name" v="Åbrekka" />
		<tag k="name:no" v="Åbrekka" />
		<tag k="place" v="farm" />
		<tag k="ssr:stedsnr" v="967539" />
	</node>
	<node id="-857721" lat="68.7436181624" lon="17.8121981623">
		<tag k="fixme" v="consider place=hamlet" />
		<tag k="name" v="Spansdalen" />
		<tag k="name:no" v="Spansdalen" />
		<tag k="place" v="farm" />
		<tag k="ssr:stedsnr" v="967443" />
	</node>
	<node id="-857206" lat="68.770572221" lon="17.8959805517">
		<tag k="name" v="Anna-Mariagammen" />
		<tag k="name:no" v="Anna-Mariagammen" />
		<tag k="place" v="locality" />
		<tag k="ssr:stedsnr" v="906835" />
	</node>
	<node id="-857716" lat="68.816583201" lon="17.4857135269">
		<tag k="fixme" v="consider place=hamlet" />
		<tag k="name" v="Skjelnes" />
		<tag k="name:no" v="Skjelnes" />
		<tag k="place" v="farm" />
		<tag k="ssr:stedsnr" v="875197" />
	</node>
	<node id="-857711" lat="68.6864611097" lon="17.9906000067">
		<tag k="alt_name:no" v="Østlund" />
		<tag k="name" v="Austlund" />
		<tag k="name:no" v="Austlund" />
		<tag k="place" v="isolated_dwelling" />
		<tag k="ssr:stedsnr" v="867577" />
	</node>
	<node id="-857709" lat="68.7841667382" lon="17.7845864449">
		<tag k="fixme" v="consider place=hamlet" />
		<tag k="name" v="Å" />
		<tag k="name:no" v="Å" />
		<tag k="place" v="farm" />
		<tag k="ssr:stedsnr" v="867328" />
	</node>
	<node id="-857707" lat="68.6752055533" lon="17.9061499944">
		<tag k="name" v="Veilund" />
		<tag k="name:no" v="Veilund" />
>>>>>>> e1d4bc35ff8a6074a6f2e91616a996b547c36f15
		<tag k="place" v="farm" />
		<tag k="ssr:stedsnr" v="1077299" />
	</node>
<<<<<<< HEAD
	<node lat="68.72164742602804" lon="17.846683808005036" id="-33166">
		<tag k="fixme" v="consider place=hamlet" />
		<tag k="name" v="Storsletta" />
		<tag k="name:no" v="Storsletta" />
		<tag k="place" v="farm" />
		<tag k="ssr:stedsnr" v="1077300" />
	</node>
	<node lat="68.7451118061172" lon="17.80298259447248" id="-33167">
		<tag k="fixme" v="consider place=hamlet" />
		<tag k="loc_name:se" v="Deannjá" />
		<tag k="name" v="Tennevoll" />
		<tag k="name:no" v="Tennevoll" />
		<tag k="place" v="farm" />
		<tag k="ssr:stedsnr" v="1077301" />
	</node>
	<node lat="68.7870381029765" lon="17.60085848870733" id="-33168">
		<tag k="fixme" v="consider place=hamlet" />
		<tag k="name" v="Keiprødplassen" />
		<tag k="place" v="farm" />
		<tag k="ssr:stedsnr" v="1077311" />
	</node>
	<node lat="68.82161814737577" lon="17.70955071536689" id="-33169">
		<tag k="name" v="Gamvikvatnan" />
		<tag k="place" v="locality" />
		<tag k="ssr:stedsnr" v="1077312" />
	</node>
	<node lat="68.73264420069228" lon="17.949746114694502" id="-33170">
		<tag k="name" v="Trosen" />
		<tag k="place" v="locality" />
		<tag k="ssr:stedsnr" v="1077313" />
	</node>
	<node lat="68.6192270527236" lon="17.893560693978266" id="-33171">
		<tag k="name" v="Grasvatnet" />
		<tag k="place" v="locality" />
		<tag k="ssr:stedsnr" v="1077314" />
	</node>
	<node lat="68.72041826838209" lon="17.855849176839097" id="-33177">
		<tag k="name" v="Donbealli" />
		<tag k="name:se" v="Donbealli" />
		<tag k="place" v="hamlet" />
		<tag k="ssr:stedsnr" v="1079545" />
	</node>
	<node lat="68.72278119522176" lon="17.846180729117112" id="-33182">
		<tag k="name" v="Gaskagoahti" />
		<tag k="name:se" v="Gaskagoahti" />
		<tag k="place" v="hamlet" />
		<tag k="ssr:stedsnr" v="1079854" />
=======
	<node id="-857692" lat="68.7238077593" lon="17.8374439138">
		<tag k="fixme" v="consider place=hamlet" />
		<tag k="name" v="Spansdalsmarka" />
		<tag k="name:no" v="Spansdalsmarka" />
		<tag k="place" v="farm" />
		<tag k="ssr:stedsnr" v="846704" />
	</node>
	<node id="-857691" lat="68.6884777759" lon="17.9642166566">
		<tag k="name" v="Bjørklund" />
		<tag k="name:no" v="Bjørklund" />
		<tag k="place" v="farm" />
		<tag k="ssr:stedsnr" v="846685" />
	</node>
	<node id="-857165" lat="68.6794305559" lon="17.9147138978">
		<tag k="fixme" v="consider tourism=alpine_hut or tourism=chalet" />
		<tag k="name" v="Bassevarre" />
		<tag k="name:no" v="Bassevarre" />
		<tag k="ssr:stedsnr" v="663695" />
		<tag k="tourism" v="wilderness_hut" />
	</node>
	<node id="-857164" lat="68.7663373695" lon="17.8068907288">
		<tag k="alt_name:no" v="Hesjevik" />
		<tag k="fixme" v="consider place=hamlet" />
		<tag k="name" v="Hesjevika" />
		<tag k="name:no" v="Hesjevika" />
		<tag k="place" v="farm" />
		<tag k="ssr:stedsnr" v="663506" />
	</node>
	<node id="-857675" lat="68.7918444476" lon="17.7566444346">
		<tag k="name" v="Gammelgårdan" />
		<tag k="name:no" v="Gammelgårdan" />
		<tag k="place" v="locality" />
		<tag k="ssr:stedsnr" v="846375" />
	</node>
	<node id="-857668" lat="68.7831585544" lon="17.6186610937">
		<tag k="fixme" v="consider place=hamlet" />
		<tag k="name" v="Keiprød" />
		<tag k="name:no" v="Keiprød" />
		<tag k="place" v="farm" />
		<tag k="ssr:stedsnr" v="807687" />
	</node>
	<node id="-857149" lat="68.7285666699" lon="17.8592277701">
		<tag k="historic" v="shieling" />
		<tag k="name" v="Nerdalssætra" />
		<tag k="name:no" v="Nerdalssætra" />
		<tag k="place" v="locality" />
		<tag k="ssr:stedsnr" v="724697" />
	</node>
	<node id="-857660" lat="68.6512416618" lon="17.9136083401">
		<tag k="name" v="Høgstad" />
		<tag k="name:no" v="Høgstad" />
		<tag k="place" v="locality" />
		<tag k="ssr:stedsnr" v="786635" />
	</node>
	<node id="-857659" lat="68.7203760735" lon="17.8615793858">
		<tag k="fixme" v="consider place=hamlet" />
		<tag k="name" v="Oldernes" />
		<tag k="name:no" v="Oldernes" />
		<tag k="place" v="farm" />
		<tag k="ssr:stedsnr" v="786623" />
	</node>
	<node id="-857613" lat="68.7470916657" lon="17.8061833184">
		<tag k="alt_name:no" v="Tennevollen" />
		<tag k="name" v="Tennevoll" />
		<tag k="name:no" v="Tennevoll" />
		<tag k="place" v="village" />
		<tag k="ssr:stedsnr" v="624898" />
	</node>
	<node id="-857136" lat="68.7455916712" lon="17.812327774">
		<tag k="name" v="Olderholmen" />
		<tag k="name:no" v="Olderholmen" />
		<tag k="place" v="farm" />
		<tag k="ssr:stedsnr" v="724440" />
	</node>
	<node id="-857133" lat="68.8015305563" lon="17.5439722281">
		<tag k="name" v="Viken" />
		<tag k="name:no" v="Viken" />
		<tag k="place" v="farm" />
		<tag k="ssr:stedsnr" v="724185" />
	</node>
	<node id="-857643" lat="68.7715027734" lon="17.7472916644">
		<tag k="name" v="Hågen" />
		<tag k="name:no" v="Hågen" />
		<tag k="place" v="farm" />
		<tag k="ssr:stedsnr" v="785547" />
	</node>
	<node id="-857117" lat="68.6960416632" lon="18.013497222">
		<tag k="name" v="Mina" />
		<tag k="name:no" v="Mina" />
		<tag k="place" v="locality" />
		<tag k="ssr:stedsnr" v="563333" />
	</node>
	<node id="-857614" lat="68.7261833322" lon="17.8106222074">
		<tag k="alt_name:no" v="Moshågen" />
		<tag k="name" v="Moshaugen" />
		<tag k="name:no" v="Moshaugen" />
		<tag k="place" v="isolated_dwelling" />
		<tag k="ssr:stedsnr" v="624924" />
	</node>
	<node id="-857101" lat="68.7827805565" lon="17.624044436">
		<tag k="name" v="Keiprød" />
		<tag k="name:no" v="Keiprød" />
		<tag k="place" v="farm" />
		<tag k="ssr:stedsnr" v="689361" />
	</node>
	<node id="-857100" lat="68.7814972193" lon="17.6304611033">
		<tag k="name" v="Keiprød" />
		<tag k="name:no" v="Keiprød" />
		<tag k="place" v="farm" />
		<tag k="ssr:stedsnr" v="689354" />
	</node>
	<node id="-857611" lat="68.7626333331" lon="17.763427783">
		<tag k="alt_name:no" v="Lotternes" />
		<tag k="fixme" v="consider place=hamlet" />
		<tag k="name" v="Låternes" />
		<tag k="name:no" v="Låternes" />
		<tag k="place" v="village" />
		<tag k="ssr:stedsnr" v="624730" />
	</node>
	<node id="-857096" lat="68.7954122924" lon="17.7188285405">
		<tag k="fixme" v="consider place=hamlet" />
		<tag k="name" v="Lia" />
		<tag k="name:no" v="Lia" />
		<tag k="place" v="farm" />
		<tag k="ssr:stedsnr" v="685684" />
	</node>
	<node id="-857605" lat="68.6727416704" lon="17.9005749873">
		<tag k="name" v="Lapphaugen" />
		<tag k="name:no" v="Lapphaugen" />
		<tag k="place" v="farm" />
		<tag k="ssr:stedsnr" v="624602" />
	</node>
	<node id="-857092" lat="68.7597714813" lon="17.7653111198">
		<tag k="alt_name:no" v="Lotternes" />
		<tag k="fixme" v="consider place=hamlet" />
		<tag k="name" v="Låternes" />
		<tag k="name:no" v="Låternes" />
		<tag k="place" v="farm" />
		<tag k="ssr:stedsnr" v="507657" />
	</node>
	<node id="-857091" lat="68.7214750015" lon="17.8601472181">
		<tag k="name" v="Ruŋgu - Spansdalen" />
		<tag k="name:no" v="Spansdalen" />
		<tag k="name:se" v="Ruŋgu" />
		<tag k="place" v="hamlet" />
		<tag k="ssr:stedsnr" v="503868" />
>>>>>>> e1d4bc35ff8a6074a6f2e91616a996b547c36f15
	</node>
</osm>
