<?xml version="1.0" encoding="UTF-8"?>
<osm generator="osmapis" version="0.6">
	<node id="-841728" lat="68.7596222263" lon="17.8089250063">
		<tag k="name" v="Slettmoen" />
		<tag k="name:no" v="Slettmoen" />
		<tag k="place" v="locality" />
		<tag k="ssr:stedsnr" v="179277" />
	</node>
	<node id="-841727" lat="68.7677944481" lon="17.6082861104">
		<tag k="name" v="Gråsteinheia" />
		<tag k="name:no" v="Gråsteinheia" />
		<tag k="natural" v="hill" />
		<tag k="place" v="locality" />
		<tag k="ssr:stedsnr" v="179142" />
	</node>
	<node id="-841726" lat="68.7658333309" lon="17.6537111053">
		<tag k="name" v="Ol-Mikkelsabakkan" />
		<tag k="name:no" v="Ol-Mikkelsabakkan" />
		<tag k="natural" v="slope" />
		<tag k="place" v="locality" />
		<tag k="ssr:stedsnr" v="179135" />
	</node>
	<node id="-841725" lat="68.7597805561" lon="17.854249993">
		<tag k="fixme" v="consider natural=peak for the most distinct mountains in the district" />
		<tag k="name" v="Fjellbrunen" />
		<tag k="name:no" v="Fjellbrunen" />
		<tag k="natural" v="hill" />
		<tag k="place" v="locality" />
		<tag k="ssr:stedsnr" v="178682" />
	</node>
	<node id="-841724" lat="68.6865527775" lon="17.9722277744">
		<tag k="name" v="Tverrbakken" />
		<tag k="name:no" v="Tverrbakken" />
		<tag k="natural" v="slope" />
		<tag k="place" v="locality" />
		<tag k="ssr:stedsnr" v="178674" />
	</node>
	<node id="-841722" lat="68.7227583299" lon="17.8006527779">
		<tag k="name" v="Svartholan" />
		<tag k="name:no" v="Svartholan" />
		<tag k="natural" v="valley" />
		<tag k="place" v="locality" />
		<tag k="ssr:stedsnr" v="178495" />
	</node>
	<node id="-841721" lat="68.7695583332" lon="17.7294166555">
		<tag k="fixme" v="consider natural=peak for the most distinct mountains in the district" />
		<tag k="name" v="Kollen" />
		<tag k="name:no" v="Kollen" />
		<tag k="natural" v="hill" />
		<tag k="place" v="locality" />
		<tag k="ssr:stedsnr" v="178528" />
	</node>
	<node id="-841720" lat="68.7408611155" lon="17.8128194357">
		<tag k="name" v="Heimerdalen" />
		<tag k="name:no" v="Heimerdalen" />
		<tag k="natural" v="valley" />
		<tag k="place" v="locality" />
		<tag k="ssr:stedsnr" v="178448" />
	</node>
	<node id="-841717" lat="68.7489861071" lon="17.8088472234">
		<tag k="name" v="Bakkan" />
		<tag k="name:no" v="Bakkan" />
		<tag k="natural" v="slope" />
		<tag k="place" v="locality" />
		<tag k="ssr:stedsnr" v="178283" />
	</node>
	<node id="-841716" lat="68.7435305569" lon="17.8017027759">
		<tag k="name" v="Moan" />
		<tag k="name:no" v="Moan" />
		<tag k="place" v="locality" />
		<tag k="ssr:stedsnr" v="178280" />
	</node>
	<node id="-841714" lat="68.7880805558" lon="17.5923222306">
		<tag k="name" v="Festeinbergan" />
		<tag k="name:no" v="Festeinbergan" />
		<tag k="natural" v="hill" />
		<tag k="place" v="locality" />
		<tag k="ssr:stedsnr" v="178196" />
	</node>
	<node id="-841713" lat="68.6826222209" lon="17.9964027808">
		<tag k="name" v="Hammarberget" />
		<tag k="name:no" v="Hammarberget" />
		<tag k="natural" v="hill" />
		<tag k="place" v="locality" />
		<tag k="ssr:stedsnr" v="171764" />
	</node>
	<node id="-841712" lat="68.6866416699" lon="18.0122416671">
		<tag k="name" v="Tyttebærbakken" />
		<tag k="name:no" v="Tyttebærbakken" />
		<tag k="natural" v="slope" />
		<tag k="place" v="locality" />
		<tag k="ssr:stedsnr" v="171761" />
	</node>
	<node id="-841710" lat="68.7498861136" lon="17.7424972291">
		<tag k="alt_name:no" v="Påskeåsen" />
		<tag k="name" v="Påskhågen" />
		<tag k="name:no" v="Påskhågen" />
		<tag k="natural" v="hill" />
		<tag k="place" v="locality" />
		<tag k="ssr:stedsnr" v="139709" />
	</node>
	<node id="-841708" lat="68.7699444428" lon="17.6929833288">
		<tag k="name" v="Stavhammaren" />
		<tag k="name:no" v="Stavhammaren" />
		<tag k="natural" v="hill" />
		<tag k="place" v="locality" />
		<tag k="ssr:stedsnr" v="139694" />
	</node>
	<node id="-841706" lat="68.7859611105" lon="17.9708555529">
		<tag k="fixme" v="consider natural=peak for the most distinct mountains in the district" />
		<tag k="name" v="Ásačohkka" />
		<tag k="name:se" v="Ásačohkka" />
		<tag k="natural" v="hill" />
		<tag k="place" v="locality" />
		<tag k="ssr:stedsnr" v="139676" />
	</node>
	<node id="-841705" lat="68.6241138928" lon="17.9787388913">
		<tag k="name" v="Røddalsskardet" />
		<tag k="name:no" v="Røddalsskardet" />
		<tag k="natural" v="valley" />
		<tag k="place" v="locality" />
		<tag k="ssr:stedsnr" v="139531" />
	</node>
	<node id="-841704" lat="68.716255557" lon="17.6025249965">
		<tag k="fixme" v="consider natural=peak for the most distinct mountains in the district" />
		<tag k="name" v="Tverrfjellet" />
		<tag k="natural" v="hill" />
		<tag k="place" v="locality" />
		<tag k="ssr:stedsnr" v="138924" />
	</node>
	<node id="-841703" lat="68.6924027757" lon="17.842952779">
		<tag k="fixme" v="consider natural=peak for the most distinct mountains in the district" />
		<tag k="name" v="Sølvfjellet" />
		<tag k="natural" v="hill" />
		<tag k="place" v="locality" />
		<tag k="ssr:stedsnr" v="138594" />
	</node>
	<node id="-841702" lat="68.7132361131" lon="17.8632833408">
		<tag k="alt_name:se" v="Ruŋgu" />
		<tag k="name" v="Ruŋguvuopmi - Spansdalen" />
		<tag k="name:no" v="Spansdalen" />
		<tag k="name:se" v="Ruŋguvuopmi" />
		<tag k="natural" v="valley" />
		<tag k="old_name:se" v="Ruŋguvuobmi" />
		<tag k="place" v="locality" />
		<tag k="ssr:stedsnr" v="138586" />
	</node>
	<node id="-841699" lat="68.6517750004" lon="17.8820416637">
		<tag k="name" v="Alpeslåtten" />
		<tag k="name:no" v="Alpeslåtten" />
		<tag k="natural" v="slope" />
		<tag k="place" v="locality" />
		<tag k="ssr:stedsnr" v="119634" />
	</node>
	<node id="-841698" lat="68.6430861066" lon="17.8693500006">
		<tag k="name" v="Lortvasskaret" />
		<tag k="name:no" v="Lortvasskaret" />
		<tag k="natural" v="valley" />
		<tag k="place" v="locality" />
		<tag k="ssr:stedsnr" v="119631" />
	</node>
	<node id="-841695" lat="68.7706833334" lon="17.8143083259">
		<tag k="name" v="Karimoen" />
		<tag k="name:no" v="Karimoen" />
		<tag k="place" v="locality" />
		<tag k="ssr:stedsnr" v="119552" />
	</node>
	<node id="-841693" lat="68.7474777736" lon="17.7376722254">
		<tag k="fixme" v="consider natural=peak for the most distinct mountains in the district" />
		<tag k="name" v="Asphøgden" />
		<tag k="name:no" v="Asphøgden" />
		<tag k="natural" v="hill" />
		<tag k="place" v="locality" />
		<tag k="ssr:stedsnr" v="119401" />
	</node>
	<node id="-841690" lat="68.7626694405" lon="17.8194861118">
		<tag k="fixme" v="consider natural=peak for the most distinct mountains in the district" />
		<tag k="name" v="Litjåsen" />
		<tag k="name:no" v="Litjåsen" />
		<tag k="natural" v="hill" />
		<tag k="place" v="locality" />
		<tag k="ssr:stedsnr" v="119281" />
	</node>
	<node id="-841689" lat="68.7443972188" lon="17.7780638806">
		<tag k="name" v="Sjurmyrbakkan" />
		<tag k="name:no" v="Sjurmyrbakkan" />
		<tag k="natural" v="slope" />
		<tag k="place" v="locality" />
		<tag k="ssr:stedsnr" v="119269" />
	</node>
	<node id="-841688" lat="68.7438305529" lon="17.796099988">
		<tag k="name" v="Mølnebakken" />
		<tag k="name:no" v="Mølnebakken" />
		<tag k="natural" v="slope" />
		<tag k="place" v="locality" />
		<tag k="ssr:stedsnr" v="119266" />
	</node>
	<node id="-841687" lat="68.7181444409" lon="17.7946860955">
		<tag k="name" v="Tuvholla" />
		<tag k="name:no" v="Tuvholla" />
		<tag k="natural" v="valley" />
		<tag k="place" v="locality" />
		<tag k="ssr:stedsnr" v="119165" />
	</node>
	<node id="-841684" lat="68.6937555517" lon="17.9659277809">
		<tag k="name" v="Grindgongen" />
		<tag k="name:no" v="Grindgongen" />
		<tag k="natural" v="slope" />
		<tag k="place" v="locality" />
		<tag k="ssr:stedsnr" v="117753" />
	</node>
	<node id="-841683" lat="68.726425004" lon="17.8732916659">
		<tag k="loc_name:se" v="Bedjevuopmi" />
		<tag k="name" v="Øverdalen" />
		<tag k="name:no" v="Øverdalen" />
		<tag k="natural" v="valley" />
		<tag k="place" v="locality" />
		<tag k="ssr:stedsnr" v="117726" />
	</node>
	<node id="-841682" lat="68.7286027783" lon="17.8787638904">
		<tag k="name" v="Goassirápma" />
		<tag k="name:se" v="Goassirápma" />
		<tag k="natural" v="slope" />
		<tag k="place" v="locality" />
		<tag k="ssr:stedsnr" v="117724" />
	</node>
	<node id="-841681" lat="68.7848333333" lon="17.8243777645">
		<tag k="name" v="Sledeklemma" />
		<tag k="name:no" v="Sledeklemma" />
		<tag k="natural" v="slope" />
		<tag k="place" v="locality" />
		<tag k="ssr:stedsnr" v="117572" />
	</node>
	<node id="-841678" lat="68.8005694475" lon="17.7216916591">
		<tag k="name" v="Gammelsletta" />
		<tag k="name:no" v="Gammelsletta" />
		<tag k="place" v="locality" />
		<tag k="ssr:stedsnr" v="117492" />
	</node>
	<node id="-841677" lat="68.7387277814" lon="17.7426083268">
		<tag k="name" v="Svartebergan" />
		<tag k="name:no" v="Svartebergan" />
		<tag k="natural" v="hill" />
		<tag k="place" v="locality" />
		<tag k="ssr:stedsnr" v="117489" />
	</node>
	<node id="-841676" lat="68.7948555563" lon="17.7033416611">
		<tag k="name" v="Storsletta" />
		<tag k="name:no" v="Storsletta" />
		<tag k="place" v="locality" />
		<tag k="ssr:stedsnr" v="117432" />
	</node>
	<node id="-841675" lat="68.7946861078" lon="17.7413277862">
		<tag k="name" v="Lihammaran" />
		<tag k="name:no" v="Lihammaran" />
		<tag k="natural" v="hill" />
		<tag k="place" v="locality" />
		<tag k="ssr:stedsnr" v="117426" />
	</node>
	<node id="-841674" lat="68.7968166633" lon="17.7567166594">
		<tag k="name" v="Rødslettbakkan" />
		<tag k="name:no" v="Rødslettbakkan" />
		<tag k="natural" v="slope" />
		<tag k="place" v="locality" />
		<tag k="ssr:stedsnr" v="117418" />
	</node>
	<node id="-841673" lat="68.7781361099" lon="17.5710749972">
		<tag k="name" v="Brentehågan" />
		<tag k="name:no" v="Brentehågan" />
		<tag k="natural" v="hill" />
		<tag k="place" v="locality" />
		<tag k="ssr:stedsnr" v="117253" />
	</node>
	<node id="-841669" lat="68.7100250019" lon="17.9140638929">
		<tag k="name" v="Stempelen" />
		<tag k="name:no" v="Stempelen" />
		<tag k="natural" v="hill" />
		<tag k="place" v="locality" />
		<tag k="ssr:stedsnr" v="88573" />
	</node>
	<node id="-841667" lat="68.7903916628" lon="17.8531222125">
		<tag k="name" v="Loabakáidi" />
		<tag k="name:se" v="Loabakáidi" />
		<tag k="natural" v="slope" />
		<tag k="place" v="locality" />
		<tag k="ssr:stedsnr" v="80622" />
	</node>
	<node id="-841666" lat="68.7407027795" lon="17.7772305496">
		<tag k="name" v="Sjumyrbakkan" />
		<tag k="name:no" v="Sjumyrbakkan" />
		<tag k="natural" v="slope" />
		<tag k="place" v="locality" />
		<tag k="ssr:stedsnr" v="80469" />
	</node>
	<node id="-841665" lat="68.7218305573" lon="17.6638777783">
		<tag k="fixme" v="consider natural=peak for the most distinct mountains in the district" />
		<tag k="name" v="Sandnesbotnaksla" />
		<tag k="name:no" v="Sandnesbotnaksla" />
		<tag k="natural" v="hill" />
		<tag k="place" v="locality" />
		<tag k="ssr:stedsnr" v="79918" />
	</node>
	<node id="-841664" lat="68.7597222255" lon="17.9025555484">
		<tag k="name" v="Botnkråa" />
		<tag k="name:no" v="Botnkråa" />
		<tag k="natural" v="valley" />
		<tag k="place" v="locality" />
		<tag k="ssr:stedsnr" v="79700" />
	</node>
	<node id="-841658" lat="68.6754611087" lon="17.9123249839">
		<tag k="name" v="Lapphaugen" />
		<tag k="name:no" v="Lapphaugen" />
		<tag k="natural" v="hill" />
		<tag k="place" v="locality" />
		<tag k="ssr:stedsnr" v="78603" />
	</node>
	<node id="-841656" lat="68.6988138901" lon="17.9961583203">
		<tag k="name" v="Annahaugen" />
		<tag k="name:no" v="Annahaugen" />
		<tag k="natural" v="hill" />
		<tag k="place" v="locality" />
		<tag k="ssr:stedsnr" v="78573" />
	</node>
	<node id="-841655" lat="68.6139916655" lon="17.8285499954">
		<tag k="name" v="Riikovággi - Grasdalen" />
		<tag k="name:no" v="Grasdalen" />
		<tag k="name:se" v="Riikovággi" />
		<tag k="natural" v="valley" />
		<tag k="old_name:se" v="Riikuvaggi" />
		<tag k="place" v="locality" />
		<tag k="ssr:stedsnr" v="78538" />
	</node>
	<node id="-841654" lat="68.6424888907" lon="17.9187999972">
		<tag k="name" v="Krøklinghaugen" />
		<tag k="name:no" v="Krøklinghaugen" />
		<tag k="natural" v="hill" />
		<tag k="place" v="locality" />
		<tag k="ssr:stedsnr" v="58617" />
	</node>
	<node id="-841653" lat="68.6714722187" lon="17.8981916742">
		<tag k="name" v="Halsen" />
		<tag k="name:no" v="Halsen" />
		<tag k="natural" v="valley" />
		<tag k="place" v="locality" />
		<tag k="ssr:stedsnr" v="58566" />
	</node>
	<node id="-841651" lat="68.7489361152" lon="17.7162027668">
		<tag k="name" v="Skaret" />
		<tag k="name:no" v="Skaret" />
		<tag k="natural" v="valley" />
		<tag k="place" v="locality" />
		<tag k="ssr:stedsnr" v="58395" />
	</node>
	<node id="-841650" lat="68.7637833355" lon="17.729055547">
		<tag k="name" v="Fjellveihågen" />
		<tag k="name:no" v="Fjellveihågen" />
		<tag k="natural" v="hill" />
		<tag k="place" v="locality" />
		<tag k="ssr:stedsnr" v="58391" />
	</node>
	<node id="-841649" lat="68.7606777733" lon="17.6790416673">
		<tag k="name" v="Moan" />
		<tag k="name:no" v="Moan" />
		<tag k="place" v="locality" />
		<tag k="ssr:stedsnr" v="58389" />
	</node>
	<node id="-841646" lat="68.7454472192" lon="17.7944222258">
		<tag k="name" v="Sneveibakkan" />
		<tag k="name:no" v="Sneveibakkan" />
		<tag k="natural" v="slope" />
		<tag k="old_name:no" v="Sneverbakkan" />
		<tag k="place" v="locality" />
		<tag k="ssr:stedsnr" v="58292" />
	</node>
	<node id="-841645" lat="68.7817249971" lon="17.5976527791">
		<tag k="name" v="Damphågen" />
		<tag k="name:no" v="Damphågen" />
		<tag k="natural" v="hill" />
		<tag k="place" v="locality" />
		<tag k="ssr:stedsnr" v="58283" />
	</node>
	<node id="-841642" lat="68.690786113" lon="17.9770360972">
		<tag k="name" v="Kvernhusan" />
		<tag k="name:no" v="Kvernhusan" />
		<tag k="place" v="locality" />
		<tag k="ssr:stedsnr" v="57742" />
	</node>
	<node id="-841641" lat="68.7228972176" lon="17.8627055625">
		<tag k="name" v="Buollánlátnja - Brannlia" />
		<tag k="name:no" v="Brannlia" />
		<tag k="name:se" v="Buollánlátnja" />
		<tag k="natural" v="slope" />
		<tag k="place" v="locality" />
		<tag k="ssr:stedsnr" v="57697" />
	</node>
	<node id="-841639" lat="68.7263666639" lon="17.8320777838">
		<tag k="name" v="Botolvbakkan" />
		<tag k="name:no" v="Botolvbakkan" />
		<tag k="natural" v="slope" />
		<tag k="place" v="locality" />
		<tag k="ssr:stedsnr" v="57693" />
	</node>
	<node id="-841638" lat="68.7387222186" lon="17.8372083307">
		<tag k="fixme" v="consider natural=peak for the most distinct mountains in the district" />
		<tag k="name" v="Yttertuva" />
		<tag k="name:no" v="Yttertuva" />
		<tag k="natural" v="hill" />
		<tag k="place" v="locality" />
		<tag k="ssr:stedsnr" v="57689" />
	</node>
	<node id="-841637" lat="68.7618749982" lon="17.8440194382">
		<tag k="name" v="Skreda" />
		<tag k="name:no" v="Skreda" />
		<tag k="natural" v="slope" />
		<tag k="place" v="locality" />
		<tag k="ssr:stedsnr" v="57678" />
	</node>
	<node id="-841633" lat="68.7839944421" lon="17.7997111143">
		<tag k="name" v="Kråkedalen" />
		<tag k="name:no" v="Kråkedalen" />
		<tag k="natural" v="valley" />
		<tag k="place" v="locality" />
		<tag k="ssr:stedsnr" v="57519" />
	</node>
	<node id="-841632" lat="68.7854305561" lon="17.8002388978">
		<tag k="name" v="Gullhågen" />
		<tag k="name:no" v="Gullhågen" />
		<tag k="natural" v="hill" />
		<tag k="place" v="locality" />
		<tag k="ssr:stedsnr" v="57514" />
	</node>
	<node id="-841629" lat="68.7666722245" lon="17.7038805619">
		<tag k="name" v="Vassbakkan" />
		<tag k="name:no" v="Vassbakkan" />
		<tag k="natural" v="slope" />
		<tag k="place" v="locality" />
		<tag k="ssr:stedsnr" v="57502" />
	</node>
	<node id="-841628" lat="68.774275002" lon="17.8157555434">
		<tag k="name" v="Breskebærdalen" />
		<tag k="name:no" v="Breskebærdalen" />
		<tag k="natural" v="valley" />
		<tag k="place" v="locality" />
		<tag k="ssr:stedsnr" v="57486" />
	</node>
	<node id="-841626" lat="68.7372527803" lon="17.7921333344">
		<tag k="name" v="Kjerstidalen" />
		<tag k="name:no" v="Kjerstidalen" />
		<tag k="natural" v="valley" />
		<tag k="place" v="locality" />
		<tag k="ssr:stedsnr" v="57436" />
	</node>
	<node id="-841625" lat="68.7924166641" lon="17.7777388941">
		<tag k="name" v="Benkan" />
		<tag k="name:no" v="Benkan" />
		<tag k="natural" v="hill" />
		<tag k="place" v="locality" />
		<tag k="ssr:stedsnr" v="57393" />
	</node>
	<node id="-841624" lat="68.7905277744" lon="17.5766944308">
		<tag k="name" v="Lynghågen" />
		<tag k="name:no" v="Lynghågen" />
		<tag k="natural" v="hill" />
		<tag k="place" v="locality" />
		<tag k="ssr:stedsnr" v="57181" />
	</node>
	<node id="-841623" lat="68.7795388856" lon="17.5613999863">
		<tag k="name" v="Olaholla" />
		<tag k="name:no" v="Olaholla" />
		<tag k="natural" v="valley" />
		<tag k="place" v="locality" />
		<tag k="ssr:stedsnr" v="57178" />
	</node>
	<node id="-841622" lat="68.7813944464" lon="17.5928833396">
		<tag k="name" v="Storhågen" />
		<tag k="name:no" v="Storhågen" />
		<tag k="natural" v="hill" />
		<tag k="place" v="locality" />
		<tag k="ssr:stedsnr" v="57175" />
	</node>
	<node id="-841621" lat="68.7987722193" lon="17.5466305525">
		<tag k="name" v="Reingjerdan" />
		<tag k="name:no" v="Reingjerdan" />
		<tag k="natural" v="slope" />
		<tag k="place" v="locality" />
		<tag k="ssr:stedsnr" v="57166" />
	</node>
	<node id="-841620" lat="68.788608334" lon="17.5683694343">
		<tag k="name" v="Vedhågen" />
		<tag k="name:no" v="Vedhågen" />
		<tag k="natural" v="hill" />
		<tag k="place" v="locality" />
		<tag k="ssr:stedsnr" v="57160" />
	</node>
	<node id="-841619" lat="68.8065916667" lon="17.5066749963">
		<tag k="name" v="Ol-finndalen" />
		<tag k="name:no" v="Ol-finndalen" />
		<tag k="natural" v="valley" />
		<tag k="place" v="locality" />
		<tag k="ssr:stedsnr" v="57150" />
	</node>
	<node id="-841616" lat="68.7763583354" lon="17.6521444488">
		<tag k="name" v="Moen" />
		<tag k="name:no" v="Moen" />
		<tag k="place" v="locality" />
		<tag k="ssr:stedsnr" v="58155" />
	</node>
	<node id="-841614" lat="68.6955944437" lon="18.015744449">
		<tag k="name" v="Kneiken" />
		<tag k="name:no" v="Kneiken" />
		<tag k="natural" v="slope" />
		<tag k="place" v="locality" />
		<tag k="ssr:stedsnr" v="51415" />
	</node>
	<node id="-841613" lat="68.6998833327" lon="17.8683027644">
		<tag k="fixme" v="consider natural=peak for the most distinct mountains in the district" />
		<tag k="loc_name:se" v="Stuorčohkka;Ruŋgučohkka" />
		<tag k="name" v="Ruŋgugáisá - Spanstinden" />
		<tag k="name:no" v="Spanstinden" />
		<tag k="name:se" v="Ruŋgugáisá" />
		<tag k="natural" v="hill" />
		<tag k="old_name:se" v="Ruŋgugaisa" />
		<tag k="place" v="locality" />
		<tag k="ssr:stedsnr" v="21582" />
	</node>
	<node id="-841611" lat="68.7716972199" lon="17.6751416719">
		<tag k="fixme" v="multiple name tags, choose one and add the other to alt_name" />
		<tag k="name" v="Hestnesaksla;Valderhaugen" />
		<tag k="name:no" v="Hestnesaksla;Valderhaugen" />
		<tag k="natural" v="hill" />
		<tag k="place" v="locality" />
		<tag k="ssr:stedsnr" v="18659" />
	</node>
	<node id="-841609" lat="68.8031111125" lon="17.7779611033">
		<tag k="fixme" v="consider natural=peak for the most distinct mountains in the district" />
		<tag k="name" v="Rødåsen" />
		<tag k="name:no" v="Rødåsen" />
		<tag k="natural" v="hill" />
		<tag k="place" v="locality" />
		<tag k="ssr:stedsnr" v="18643" />
	</node>
	<node id="-841607" lat="68.8180055564" lon="17.6800916535">
		<tag k="fixme" v="consider natural=peak for the most distinct mountains in the district" />
		<tag k="name" v="Čievravárri - Skavneskollen" />
		<tag k="name:no" v="Skavneskollen" />
		<tag k="name:se" v="Čievravárri" />
		<tag k="natural" v="hill" />
		<tag k="place" v="locality" />
		<tag k="ssr:stedsnr" v="18634" />
	</node>
	<node id="-841606" lat="68.7290166647" lon="17.8459249907">
		<tag k="alt_name:no" v="Nuppen" />
		<tag k="name" v="Duđga - Nappen" />
		<tag k="name:no" v="Nappen" />
		<tag k="name:se" v="Duđga" />
		<tag k="natural" v="hill" />
		<tag k="place" v="locality" />
		<tag k="ssr:stedsnr" v="18917" />
	</node>
	<node id="-841601" lat="68.6575361082" lon="17.8700583218">
		<tag k="fixme" v="consider natural=peak for the most distinct mountains in the district" />
		<tag k="name" v="Silbavárri - Sølvfjellet" />
		<tag k="name:no" v="Sølvfjellet" />
		<tag k="name:se" v="Silbavárri" />
		<tag k="natural" v="hill" />
		<tag k="old_name:se" v="Silbavarri" />
		<tag k="place" v="locality" />
		<tag k="ssr:stedsnr" v="17213" />
	</node>
	<node id="-841599" lat="68.7829249993" lon="17.6171194326">
		<tag k="name" v="Skjellhågen" />
		<tag k="name:no" v="Skjellhågen" />
		<tag k="natural" v="hill" />
		<tag k="place" v="locality" />
		<tag k="ssr:stedsnr" v="968269" />
	</node>
	<node id="-841598" lat="68.7146583333" lon="17.8003999965">
		<tag k="name" v="Tuvholbergan" />
		<tag k="name:no" v="Tuvholbergan" />
		<tag k="natural" v="hill" />
		<tag k="place" v="locality" />
		<tag k="ssr:stedsnr" v="968166" />
	</node>
	<node id="-841596" lat="68.7701222198" lon="17.7020944381">
		<tag k="name" v="Høgebakken" />
		<tag k="name:no" v="Høgebakken" />
		<tag k="natural" v="slope" />
		<tag k="place" v="locality" />
		<tag k="ssr:stedsnr" v="967507" />
	</node>
	<node id="-841595" lat="68.794686109" lon="17.755833325">
		<tag k="fixme" v="consider natural=peak for the most distinct mountains in the district" />
		<tag k="name" v="Rompelikollen" />
		<tag k="name:no" v="Rompelikollen" />
		<tag k="natural" v="hill" />
		<tag k="place" v="locality" />
		<tag k="ssr:stedsnr" v="967365" />
	</node>
	<node id="-841591" lat="68.7886111125" lon="17.5466333259">
		<tag k="name" v="Borkebergbakkan" />
		<tag k="name:no" v="Borkebergbakkan" />
		<tag k="natural" v="slope" />
		<tag k="place" v="locality" />
		<tag k="ssr:stedsnr" v="967163" />
	</node>
	<node id="-841590" lat="68.7939583322" lon="17.5552027773">
		<tag k="name" v="Kviteberget" />
		<tag k="name:no" v="Kviteberget" />
		<tag k="natural" v="hill" />
		<tag k="place" v="locality" />
		<tag k="ssr:stedsnr" v="967162" />
	</node>
	<node id="-841589" lat="68.7766861101" lon="17.5925805565">
		<tag k="name" v="Preikestolan" />
		<tag k="name:no" v="Preikestolan" />
		<tag k="natural" v="hill" />
		<tag k="place" v="locality" />
		<tag k="ssr:stedsnr" v="966215" />
	</node>
	<node id="-841584" lat="68.7886944455" lon="17.7753916688">
		<tag k="name" v="Gjerdsletta" />
		<tag k="name:no" v="Gjerdsletta" />
		<tag k="place" v="locality" />
		<tag k="ssr:stedsnr" v="906572" />
	</node>
	<node id="-841583" lat="68.7730249957" lon="17.696255563">
		<tag k="fixme" v="consider natural=peak for the most distinct mountains in the district" />
		<tag k="name" v="Høgda" />
		<tag k="name:no" v="Høgda" />
		<tag k="natural" v="hill" />
		<tag k="place" v="locality" />
		<tag k="ssr:stedsnr" v="906560" />
	</node>
	<node id="-841582" lat="68.7324166669" lon="17.8104694513">
		<tag k="name" v="Løflata" />
		<tag k="name:no" v="Løflata" />
		<tag k="place" v="locality" />
		<tag k="ssr:stedsnr" v="906510" />
	</node>
	<node id="-841580" lat="68.7967027801" lon="17.7248388777">
		<tag k="name" v="Storberget" />
		<tag k="name:no" v="Storberget" />
		<tag k="natural" v="hill" />
		<tag k="place" v="locality" />
		<tag k="ssr:stedsnr" v="906416" />
	</node>
	<node id="-841578" lat="68.7752361142" lon="17.5800527647">
		<tag k="name" v="Savløypingsdalen" />
		<tag k="name:no" v="Savløypingsdalen" />
		<tag k="natural" v="valley" />
		<tag k="place" v="locality" />
		<tag k="ssr:stedsnr" v="906219" />
	</node>
	<node id="-841577" lat="68.7978055517" lon="17.6729527677">
		<tag k="name" v="Hamran" />
		<tag k="name:no" v="Hamran" />
		<tag k="natural" v="hill" />
		<tag k="place" v="locality" />
		<tag k="ssr:stedsnr" v="906210" />
	</node>
	<node id="-841574" lat="68.7035138913" lon="17.984191653">
		<tag k="fixme" v="consider natural=peak for the most distinct mountains in the district" />
		<tag k="name" v="Bjørnbåsen" />
		<tag k="name:no" v="Bjørnbåsen" />
		<tag k="natural" v="hill" />
		<tag k="place" v="locality" />
		<tag k="ssr:stedsnr" v="873573" />
	</node>
	<node id="-841573" lat="68.7263361102" lon="17.9703499954">
		<tag k="fixme" v="consider natural=peak for the most distinct mountains in the district" />
		<tag k="name" v="Jiehtanas - Trosen" />
		<tag k="name:no" v="Trosen" />
		<tag k="name:se" v="Jiehtanas" />
		<tag k="natural" v="hill" />
		<tag k="old_name:se" v="Jiettanas" />
		<tag k="place" v="locality" />
		<tag k="ssr:stedsnr" v="871921" />
	</node>
	<node id="-841572" lat="68.7807944467" lon="17.6236583387">
		<tag k="name" v="Keipen" />
		<tag k="name:no" v="Keipen" />
		<tag k="natural" v="hill" />
		<tag k="place" v="locality" />
		<tag k="ssr:stedsnr" v="871270" />
	</node>
	<node id="-841571" lat="68.7479388886" lon="17.7946110962">
		<tag k="name" v="Hammaren" />
		<tag k="name:no" v="Hammaren" />
		<tag k="natural" v="hill" />
		<tag k="place" v="locality" />
		<tag k="ssr:stedsnr" v="941660" />
	</node>
	<node id="-841567" lat="68.6076805532" lon="18.0239527781">
		<tag k="fixme" v="consider natural=peak for the most distinct mountains in the district" />
		<tag k="name" v="Snøtind - Muohtačohkka" />
		<tag k="name:no" v="Snøtind" />
		<tag k="name:se" v="Muohtačohkka" />
		<tag k="natural" v="hill" />
		<tag k="old_name:se" v="Muottačåkka" />
		<tag k="place" v="locality" />
		<tag k="ssr:stedsnr" v="933325" />
	</node>
	<node id="-841566" lat="68.8139916706" lon="17.6406555463">
		<tag k="name" v="Šalbmi" />
		<tag k="name:se" v="Šalbmi" />
		<tag k="natural" v="valley" />
		<tag k="place" v="locality" />
		<tag k="ssr:stedsnr" v="932096" />
	</node>
	<node id="-841565" lat="68.6069999969" lon="17.9545888768">
		<tag k="fixme" v="multiple name tags, choose one and add the other to alt_name; consider natural=peak for the most distinct mountains in the district" />
		<tag k="name" v="Bassevárri;Bassečohkka - Rivtind" />
		<tag k="name:no" v="Rivtind" />
		<tag k="name:se" v="Bassevárri;Bassečohkka" />
		<tag k="natural" v="hill" />
		<tag k="old_name:se" v="Bassevarri;Bassečåkka" />
		<tag k="place" v="locality" />
		<tag k="ssr:stedsnr" v="931567" />
	</node>
	<node id="-841560" lat="68.7879500027" lon="17.560938879">
		<tag k="name" v="Lambergan" />
		<tag k="name:no" v="Lambergan" />
		<tag k="natural" v="hill" />
		<tag k="place" v="locality" />
		<tag k="ssr:stedsnr" v="928679" />
	</node>
	<node id="-841552" lat="68.7469972265" lon="17.7801444311">
		<tag k="name" v="Skavmodalen" />
		<tag k="name:no" v="Skavmodalen" />
		<tag k="natural" v="valley" />
		<tag k="place" v="locality" />
		<tag k="ssr:stedsnr" v="807905" />
	</node>
	<node id="-841548" lat="68.679430552" lon="18.0194361026">
		<tag k="name" v="Østlundbergan" />
		<tag k="name:no" v="Østlundbergan" />
		<tag k="natural" v="hill" />
		<tag k="place" v="locality" />
		<tag k="ssr:stedsnr" v="806365" />
	</node>
	<node id="-841545" lat="68.7802250003" lon="17.6053805535">
		<tag k="name" v="Vedberget" />
		<tag k="name:no" v="Vedberget" />
		<tag k="natural" v="hill" />
		<tag k="place" v="locality" />
		<tag k="ssr:stedsnr" v="786237" />
	</node>
	<node id="-841544" lat="68.7060944417" lon="17.7949305552">
		<tag k="fixme" v="consider natural=peak for the most distinct mountains in the district" />
		<tag k="name" v="Stortuva" />
		<tag k="name:no" v="Stortuva" />
		<tag k="natural" v="hill" />
		<tag k="place" v="locality" />
		<tag k="ssr:stedsnr" v="928555" />
	</node>
	<node id="-841543" lat="68.6956749968" lon="17.8570444378">
		<tag k="name" v="Tjuvhola" />
		<tag k="name:no" v="Tjuvhola" />
		<tag k="natural" v="valley" />
		<tag k="place" v="locality" />
		<tag k="ssr:stedsnr" v="928531" />
	</node>
	<node id="-841541" lat="68.70125833" lon="17.9284527634">
		<tag k="name" v="Aksla" />
		<tag k="name:no" v="Aksla" />
		<tag k="place" v="locality" />
		<tag k="ssr:stedsnr" v="908656" />
	</node>
	<node id="-841540" lat="68.6402222226" lon="17.9065861032">
		<tag k="name" v="Pikhaugen" />
		<tag k="name:no" v="Pikhaugen" />
		<tag k="natural" v="hill" />
		<tag k="place" v="locality" />
		<tag k="ssr:stedsnr" v="908647" />
	</node>
	<node id="-841539" lat="68.64416111" lon="17.9186972276">
		<tag k="name" v="Storflaten" />
		<tag k="name:no" v="Storflaten" />
		<tag k="place" v="locality" />
		<tag k="ssr:stedsnr" v="908642" />
	</node>
	<node id="-841538" lat="68.758836112" lon="17.6954527672">
		<tag k="name" v="Tømmerhågen" />
		<tag k="name:no" v="Tømmerhågen" />
		<tag k="natural" v="hill" />
		<tag k="place" v="locality" />
		<tag k="ssr:stedsnr" v="908435" />
	</node>
	<node id="-841537" lat="68.7466638925" lon="17.6944500086">
		<tag k="name" v="Heia" />
		<tag k="name:no" v="Heia" />
		<tag k="natural" v="hill" />
		<tag k="place" v="locality" />
		<tag k="ssr:stedsnr" v="908399" />
	</node>
	<node id="-841536" lat="68.7431583305" lon="17.7889666615">
		<tag k="name" v="Tømmermoen" />
		<tag k="name:no" v="Tømmermoen" />
		<tag k="place" v="locality" />
		<tag k="ssr:stedsnr" v="908289" />
	</node>
	<node id="-841535" lat="68.7663999976" lon="17.6598472156">
		<tag k="name" v="Keipdalen" />
		<tag k="name:no" v="Keipdalen" />
		<tag k="natural" v="valley" />
		<tag k="place" v="locality" />
		<tag k="ssr:stedsnr" v="908284" />
	</node>
	<node id="-841534" lat="68.776863888" lon="17.6730388981">
		<tag k="fixme" v="consider natural=peak for the most distinct mountains in the district" />
		<tag k="name" v="Ørntinden" />
		<tag k="name:no" v="Ørntinden" />
		<tag k="natural" v="hill" />
		<tag k="place" v="locality" />
		<tag k="ssr:stedsnr" v="908275" />
	</node>
	<node id="-841533" lat="68.7784166711" lon="17.6301166622">
		<tag k="name" v="Bjørneberget" />
		<tag k="name:no" v="Bjørneberget" />
		<tag k="natural" v="hill" />
		<tag k="place" v="locality" />
		<tag k="ssr:stedsnr" v="908274" />
	</node>
	<node id="-841532" lat="68.6536138928" lon="17.8333749993">
		<tag k="fixme" v="consider natural=peak for the most distinct mountains in the district" />
		<tag k="loc_name:se" v="Unna Suobddegas" />
		<tag k="name" v="Baikačohkka - Høgtinden" />
		<tag k="name:no" v="Høgtinden" />
		<tag k="name:se" v="Baikačohkka" />
		<tag k="natural" v="hill" />
		<tag k="old_name:se" v="Baikačåkka" />
		<tag k="place" v="locality" />
		<tag k="ssr:stedsnr" v="749609" />
	</node>
	<node id="-841529" lat="68.7752750018" lon="17.8691944388">
		<tag k="name" v="Klubban" />
		<tag k="name:no" v="Klubban" />
		<tag k="natural" v="hill" />
		<tag k="place" v="locality" />
		<tag k="ssr:stedsnr" v="906841" />
	</node>
	<node id="-841523" lat="68.7422277732" lon="17.7980500071">
		<tag k="name" v="Djupedalsbakken" />
		<tag k="name:no" v="Djupedalsbakken" />
		<tag k="natural" v="slope" />
		<tag k="place" v="locality" />
		<tag k="ssr:stedsnr" v="906489" />
	</node>
	<node id="-841522" lat="68.7373194433" lon="17.8028749972">
		<tag k="name" v="Løbotn" />
		<tag k="name:no" v="Løbotn" />
		<tag k="natural" v="valley" />
		<tag k="place" v="locality" />
		<tag k="ssr:stedsnr" v="906483" />
	</node>
	<node id="-841521" lat="68.7402833298" lon="17.8167527847">
		<tag k="name" v="Lammhammaren" />
		<tag k="name:no" v="Lammhammaren" />
		<tag k="natural" v="hill" />
		<tag k="place" v="locality" />
		<tag k="ssr:stedsnr" v="906481" />
	</node>
	<node id="-841520" lat="68.734008338" lon="17.8054777734">
		<tag k="name" v="Brynndalen" />
		<tag k="name:no" v="Brynndalen" />
		<tag k="natural" v="valley" />
		<tag k="place" v="locality" />
		<tag k="ssr:stedsnr" v="906477" />
	</node>
	<node id="-841519" lat="68.7824444482" lon="17.7963194516">
		<tag k="name" v="Andersholla" />
		<tag k="name:no" v="Andersholla" />
		<tag k="natural" v="valley" />
		<tag k="place" v="locality" />
		<tag k="ssr:stedsnr" v="906578" />
	</node>
	<node id="-841518" lat="68.8077194462" lon="17.481305543">
		<tag k="fixme" v="consider natural=peak for the most distinct mountains in the district" />
		<tag k="name" v="Skjelneskollen" />
		<tag k="name:no" v="Skjelneskollen" />
		<tag k="natural" v="hill" />
		<tag k="place" v="locality" />
		<tag k="ssr:stedsnr" v="745726" />
	</node>
	<node id="-841516" lat="68.7953055574" lon="17.6863138798">
		<tag k="name" v="Hestesletta" />
		<tag k="name:no" v="Hestesletta" />
		<tag k="place" v="locality" />
		<tag k="ssr:stedsnr" v="906431" />
	</node>
	<node id="-841515" lat="68.7943416694" lon="17.7332277695">
		<tag k="name" v="Håkulen" />
		<tag k="name:no" v="Håkulen" />
		<tag k="natural" v="hill" />
		<tag k="place" v="locality" />
		<tag k="ssr:stedsnr" v="906428" />
	</node>
	<node id="-841514" lat="68.7199666649" lon="17.637902787">
		<tag k="alt_name:no" v="Sandnesbotn, yt" />
		<tag k="name" v="Ytre Sandnesbotn" />
		<tag k="name:no" v="Ytre Sandnesbotn" />
		<tag k="natural" v="valley" />
		<tag k="place" v="locality" />
		<tag k="ssr:stedsnr" v="745574" />
	</node>
	<node id="-841512" lat="68.7362805554" lon="17.7955250066">
		<tag k="name" v="Storbakken" />
		<tag k="name:no" v="Storbakken" />
		<tag k="natural" v="slope" />
		<tag k="place" v="locality" />
		<tag k="ssr:stedsnr" v="906469" />
	</node>
	<node id="-841511" lat="68.7976777736" lon="17.6479166748">
		<tag k="name" v="Beretlia" />
		<tag k="name:no" v="Beretlia" />
		<tag k="natural" v="slope" />
		<tag k="place" v="locality" />
		<tag k="ssr:stedsnr" v="906238" />
	</node>
	<node id="-841509" lat="68.7874027756" lon="17.5719472122">
		<tag k="name" v="Rundhågen" />
		<tag k="name:no" v="Rundhågen" />
		<tag k="natural" v="hill" />
		<tag k="place" v="locality" />
		<tag k="ssr:stedsnr" v="906228" />
	</node>
	<node id="-841508" lat="68.7888972205" lon="17.5740527747">
		<tag k="fixme" v="consider natural=peak for the most distinct mountains in the district" />
		<tag k="name" v="Høgdan" />
		<tag k="name:no" v="Høgdan" />
		<tag k="natural" v="hill" />
		<tag k="place" v="locality" />
		<tag k="ssr:stedsnr" v="906227" />
	</node>
	<node id="-841507" lat="68.690572226" lon="18.0414527844">
		<tag k="name" v="Kvanndalen" />
		<tag k="name:no" v="Kvanndalen" />
		<tag k="natural" v="valley" />
		<tag k="place" v="locality" />
		<tag k="ssr:stedsnr" v="901383" />
	</node>
	<node id="-841504" lat="68.7116638909" lon="17.7969138992">
		<tag k="fixme" v="consider natural=peak for the most distinct mountains in the district" />
		<tag k="name" v="Middagsfjellet" />
		<tag k="name:no" v="Middagsfjellet" />
		<tag k="natural" v="hill" />
		<tag k="place" v="locality" />
		<tag k="ssr:stedsnr" v="726170" />
	</node>
	<node id="-841503" lat="68.7684499981" lon="17.7396833396">
		<tag k="name" v="Skakkeveibergan" />
		<tag k="name:no" v="Skakkeveibergan" />
		<tag k="natural" v="hill" />
		<tag k="place" v="locality" />
		<tag k="ssr:stedsnr" v="724554" />
	</node>
	<node id="-841502" lat="68.7971305554" lon="17.7869083253">
		<tag k="name" v="Rundhågan" />
		<tag k="name:no" v="Rundhågan" />
		<tag k="natural" v="hill" />
		<tag k="place" v="locality" />
		<tag k="ssr:stedsnr" v="724381" />
	</node>
	<node id="-841500" lat="68.6678586547" lon="17.8743625577">
		<tag k="name" v="Oalgi - Olge" />
		<tag k="name:no" v="Olge" />
		<tag k="name:se" v="Oalgi" />
		<tag k="place" v="locality" />
		<tag k="ssr:stedsnr" v="696715" />
	</node>
	<node id="-841493" lat="68.6863861081" lon="17.9653194311">
		<tag k="name" v="Tomasfyllinga" />
		<tag k="name:no" v="Tomasfyllinga" />
		<tag k="place" v="locality" />
		<tag k="ssr:stedsnr" v="299723" />
	</node>
	<node id="-841488" lat="68.7361416684" lon="17.8480583239">
		<tag k="name" v="Kvanndalsskaret" />
		<tag k="name:no" v="Kvanndalsskaret" />
		<tag k="natural" v="valley" />
		<tag k="place" v="locality" />
		<tag k="ssr:stedsnr" v="663709" />
	</node>
	<node id="-841485" lat="68.7663472257" lon="17.7503444364">
		<tag k="name" v="Storgropa" />
		<tag k="name:no" v="Storgropa" />
		<tag k="natural" v="valley" />
		<tag k="place" v="locality" />
		<tag k="ssr:stedsnr" v="299583" />
	</node>
	<node id="-841483" lat="68.7995722226" lon="17.7115527783">
		<tag k="name" v="Øversmålian" />
		<tag k="name:no" v="Øversmålian" />
		<tag k="natural" v="slope" />
		<tag k="place" v="locality" />
		<tag k="ssr:stedsnr" v="299495" />
	</node>
	<node id="-841482" lat="68.7543694413" lon="17.7709416563">
		<tag k="name" v="Litjehågen" />
		<tag k="name:no" v="Litjehågen" />
		<tag k="natural" v="hill" />
		<tag k="place" v="locality" />
		<tag k="ssr:stedsnr" v="726316" />
	</node>
	<node id="-841481" lat="68.7449666669" lon="17.784961115">
		<tag k="name" v="Skamodalen" />
		<tag k="name:no" v="Skamodalen" />
		<tag k="natural" v="valley" />
		<tag k="place" v="locality" />
		<tag k="ssr:stedsnr" v="726298" />
	</node>
	<node id="-841479" lat="68.7785888898" lon="17.645472223">
		<tag k="name" v="Hamran" />
		<tag k="name:no" v="Hamran" />
		<tag k="natural" v="hill" />
		<tag k="place" v="locality" />
		<tag k="ssr:stedsnr" v="726137" />
	</node>
	<node id="-841478" lat="68.7746166653" lon="17.6429444344">
		<tag k="name" v="Innerhågen" />
		<tag k="name:no" v="Innerhågen" />
		<tag k="natural" v="hill" />
		<tag k="place" v="locality" />
		<tag k="ssr:stedsnr" v="726128" />
	</node>
	<node id="-841475" lat="68.7269805589" lon="17.8706194447">
		<tag k="name" v="Buppaláhpa" />
		<tag k="name:se" v="Buppaláhpa" />
		<tag k="natural" v="slope" />
		<tag k="place" v="locality" />
		<tag k="ssr:stedsnr" v="724708" />
	</node>
	<node id="-841474" lat="68.7245888869" lon="17.8448777817">
		<tag k="name" v="Jon-Mikkelsabakken" />
		<tag k="name:no" v="Jon-Mikkelsabakken" />
		<tag k="natural" v="slope" />
		<tag k="place" v="locality" />
		<tag k="ssr:stedsnr" v="724706" />
	</node>
	<node id="-841473" lat="68.7226722248" lon="17.8514555566">
		<tag k="name" v="Busletta" />
		<tag k="name:no" v="Busletta" />
		<tag k="place" v="locality" />
		<tag k="ssr:stedsnr" v="724703" />
	</node>
	<node id="-841472" lat="68.7229305558" lon="17.8565055513">
		<tag k="name" v="Skáhpelátnja" />
		<tag k="name:se" v="Skáhpelátnja" />
		<tag k="natural" v="slope" />
		<tag k="place" v="locality" />
		<tag k="ssr:stedsnr" v="724699" />
	</node>
	<node id="-841469" lat="68.6825916672" lon="17.9646694329">
		<tag k="name" v="Hulderbergan" />
		<tag k="name:no" v="Hulderbergan" />
		<tag k="natural" v="hill" />
		<tag k="place" v="locality" />
		<tag k="ssr:stedsnr" v="724680" />
	</node>
	<node id="-841467" lat="68.7951666658" lon="17.8161194449">
		<tag k="name" v="Langmyrmoen" />
		<tag k="name:no" v="Langmyrmoen" />
		<tag k="place" v="locality" />
		<tag k="ssr:stedsnr" v="724534" />
	</node>
	<node id="-841463" lat="68.7706777809" lon="17.8016027731">
		<tag k="name" v="Dalan" />
		<tag k="name:no" v="Dalan" />
		<tag k="natural" v="valley" />
		<tag k="place" v="locality" />
		<tag k="ssr:stedsnr" v="724497" />
	</node>
	<node id="-841460" lat="68.7283750041" lon="17.8148555536">
		<tag k="name" v="Liatømmerrapet" />
		<tag k="name:no" v="Liatømmerrapet" />
		<tag k="natural" v="slope" />
		<tag k="place" v="locality" />
		<tag k="ssr:stedsnr" v="724467" />
	</node>
	<node id="-841454" lat="68.7891638884" lon="17.5192611039">
		<tag k="name" v="Reingjerdan" />
		<tag k="name:no" v="Reingjerdan" />
		<tag k="natural" v="slope" />
		<tag k="place" v="locality" />
		<tag k="ssr:stedsnr" v="724180" />
	</node>
	<node id="-841452" lat="68.6648388848" lon="17.8719166702">
		<tag k="name" v="Lapphaugaksla" />
		<tag k="name:no" v="Lapphaugaksla" />
		<tag k="place" v="locality" />
		<tag k="ssr:stedsnr" v="604561" />
	</node>
	<node id="-841450" lat="68.6394194461" lon="17.9204444511">
		<tag k="name" v="Daugamman" />
		<tag k="name:no" v="Daugamman" />
		<tag k="place" v="locality" />
		<tag k="ssr:stedsnr" v="604625" />
	</node>
	<node id="-841448" lat="68.7641777746" lon="17.7612666508">
		<tag k="name" v="Rubbetoften" />
		<tag k="name:no" v="Rubbetoften" />
		<tag k="natural" v="hill" />
		<tag k="place" v="locality" />
		<tag k="ssr:stedsnr" v="604385" />
	</node>
	<node id="-841447" lat="68.7776194455" lon="17.6356944454">
		<tag k="name" v="Glugget" />
		<tag k="name:no" v="Glugget" />
		<tag k="natural" v="slope" />
		<tag k="place" v="locality" />
		<tag k="ssr:stedsnr" v="604153" />
	</node>
	<node id="-841446" lat="68.7720111117" lon="17.711836117">
		<tag k="name" v="Matholla" />
		<tag k="name:no" v="Matholla" />
		<tag k="natural" v="valley" />
		<tag k="place" v="locality" />
		<tag k="ssr:stedsnr" v="602554" />
	</node>
	<node id="-841445" lat="68.6964555525" lon="17.9526083187">
		<tag k="name" v="Storsletta" />
		<tag k="name:no" v="Storsletta" />
		<tag k="place" v="locality" />
		<tag k="ssr:stedsnr" v="602765" />
	</node>
	<node id="-841444" lat="68.6898916706" lon="17.9695861163">
		<tag k="name" v="Hesjebakken" />
		<tag k="name:no" v="Hesjebakken" />
		<tag k="natural" v="slope" />
		<tag k="place" v="locality" />
		<tag k="ssr:stedsnr" v="602763" />
	</node>
	<node id="-841443" lat="68.684861114" lon="17.9709416532">
		<tag k="name" v="Storhaugen" />
		<tag k="name:no" v="Storhaugen" />
		<tag k="natural" v="hill" />
		<tag k="place" v="locality" />
		<tag k="ssr:stedsnr" v="602717" />
	</node>
	<node id="-841441" lat="68.7173666684" lon="17.885938886">
		<tag k="name" v="Millodievva" />
		<tag k="name:se" v="Millodievva" />
		<tag k="natural" v="hill" />
		<tag k="place" v="locality" />
		<tag k="ssr:stedsnr" v="564614" />
	</node>
	<node id="-841437" lat="68.7423583351" lon="17.8074416666">
		<tag k="name" v="Olamelan" />
		<tag k="name:no" v="Olamelan" />
		<tag k="natural" v="slope" />
		<tag k="place" v="locality" />
		<tag k="ssr:stedsnr" v="299480" />
	</node>
	<node id="-841436" lat="68.8094111106" lon="17.6194722207">
		<tag k="name" v="Áhkkoriehppi" />
		<tag k="name:se" v="Áhkkoriehppi" />
		<tag k="natural" v="valley" />
		<tag k="place" v="locality" />
		<tag k="ssr:stedsnr" v="299638" />
	</node>
	<node id="-841434" lat="68.7281555591" lon="17.7809110996">
		<tag k="name" v="Bjørnbåslia" />
		<tag k="name:no" v="Bjørnbåslia" />
		<tag k="natural" v="slope" />
		<tag k="place" v="locality" />
		<tag k="ssr:stedsnr" v="299523" />
	</node>
	<node id="-841433" lat="68.7938777814" lon="17.7762111149">
		<tag k="name" v="Svarthammaren" />
		<tag k="name:no" v="Svarthammaren" />
		<tag k="natural" v="hill" />
		<tag k="place" v="locality" />
		<tag k="ssr:stedsnr" v="299447" />
	</node>
	<node id="-841432" lat="68.7967888862" lon="17.6890694395">
		<tag k="name" v="Orrhamran" />
		<tag k="name:no" v="Orrhamran" />
		<tag k="natural" v="hill" />
		<tag k="place" v="locality" />
		<tag k="ssr:stedsnr" v="299441" />
	</node>
	<node id="-841431" lat="68.6554777812" lon="17.8949138869">
		<tag k="name" v="Brattbakken" />
		<tag k="name:no" v="Brattbakken" />
		<tag k="natural" v="slope" />
		<tag k="place" v="locality" />
		<tag k="ssr:stedsnr" v="544532" />
	</node>
	<node id="-841430" lat="68.666422219" lon="17.9099888805">
		<tag k="name" v="Annebo" />
		<tag k="name:no" v="Annebo" />
		<tag k="natural" v="hill" />
		<tag k="place" v="locality" />
		<tag k="ssr:stedsnr" v="544530" />
	</node>
	<node id="-841429" lat="68.7174972253" lon="17.888872231">
		<tag k="name" v="Kamesletta" />
		<tag k="name:no" v="Kamesletta" />
		<tag k="place" v="locality" />
		<tag k="ssr:stedsnr" v="543611" />
	</node>
	<node id="-841427" lat="68.7970944442" lon="17.5406388884">
		<tag k="name" v="Lian" />
		<tag k="name:no" v="Lian" />
		<tag k="natural" v="slope" />
		<tag k="place" v="locality" />
		<tag k="ssr:stedsnr" v="542191" />
	</node>
	<node id="-841426" lat="68.7070333345" lon="17.9602083246">
		<tag k="name" v="Bissugállu - Skredranen" />
		<tag k="name:no" v="Skredranen" />
		<tag k="name:se" v="Bissugállu" />
		<tag k="natural" v="hill" />
		<tag k="place" v="locality" />
		<tag k="ssr:stedsnr" v="691598" />
	</node>
	<node id="-841425" lat="68.7131444419" lon="17.9222527763">
		<tag k="name" v="Kjerkhaugen" />
		<tag k="name:no" v="Kjerkhaugen" />
		<tag k="natural" v="hill" />
		<tag k="place" v="locality" />
		<tag k="ssr:stedsnr" v="691588" />
	</node>
	<node id="-841424" lat="68.7936916665" lon="17.9529500043">
		<tag k="fixme" v="consider natural=peak for the most distinct mountains in the district" />
		<tag k="name" v="Seainnavárri - Tønsheia" />
		<tag k="name:no" v="Tønsheia" />
		<tag k="name:se" v="Seainnavárri" />
		<tag k="natural" v="hill" />
		<tag k="place" v="locality" />
		<tag k="ssr:stedsnr" v="689661" />
	</node>
	<node id="-841421" lat="68.7449138913" lon="17.8595944514">
		<tag k="name" v="Reinbergan" />
		<tag k="name:no" v="Reinbergan" />
		<tag k="natural" v="hill" />
		<tag k="place" v="locality" />
		<tag k="ssr:stedsnr" v="685905" />
	</node>
	<node id="-841416" lat="68.6362583314" lon="17.8751500064">
		<tag k="fixme" v="multiple name tags, choose one and add the other to alt_name; consider natural=peak for the most distinct mountains in the district" />
		<tag k="name" v="Ausa;Skaftet;Storsteinaksla" />
		<tag k="name:no" v="Ausa;Skaftet;Storsteinaksla" />
		<tag k="natural" v="hill" />
		<tag k="place" v="locality" />
		<tag k="ssr:stedsnr" v="685497" />
	</node>
	<node id="-841409" lat="68.672666669" lon="17.8735138964">
		<tag k="name" v="Ranen" />
		<tag k="name:no" v="Ranen" />
		<tag k="natural" v="ridge" />
		<tag k="place" v="locality" />
		<tag k="ssr:stedsnr" v="483570" />
	</node>
	<node id="-841408" lat="68.6684138901" lon="17.9230194296">
		<tag k="name" v="Heimveihaugen" />
		<tag k="name:no" v="Heimveihaugen" />
		<tag k="natural" v="hill" />
		<tag k="place" v="locality" />
		<tag k="ssr:stedsnr" v="483568" />
	</node>
	<node id="-841404" lat="68.7760916644" lon="17.6651916525">
		<tag k="fixme" v="consider natural=peak for the most distinct mountains in the district" />
		<tag k="name" v="Melketuva" />
		<tag k="name:no" v="Melketuva" />
		<tag k="natural" v="hill" />
		<tag k="place" v="locality" />
		<tag k="ssr:stedsnr" v="483156" />
	</node>
	<node id="-841400" lat="68.7782444485" lon="17.8226499885">
		<tag k="name" v="Hestoldran" />
		<tag k="name:no" v="Hestoldran" />
		<tag k="natural" v="slope" />
		<tag k="place" v="locality" />
		<tag k="ssr:stedsnr" v="481570" />
	</node>
	<node id="-841399" lat="68.7830666637" lon="17.8047499902">
		<tag k="name" v="Åbergan" />
		<tag k="name:no" v="Åbergan" />
		<tag k="natural" v="hill" />
		<tag k="place" v="locality" />
		<tag k="ssr:stedsnr" v="481567" />
	</node>
	<node id="-841398" lat="68.7962944475" lon="17.8163861148">
		<tag k="name" v="Bålmoen" />
		<tag k="name:no" v="Bålmoen" />
		<tag k="place" v="locality" />
		<tag k="ssr:stedsnr" v="481558" />
	</node>
	<node id="-841397" lat="68.778988885" lon="17.694872214">
		<tag k="name" v="Orhågen" />
		<tag k="name:no" v="Orhågen" />
		<tag k="natural" v="hill" />
		<tag k="place" v="locality" />
		<tag k="ssr:stedsnr" v="481553" />
	</node>
	<node id="-841396" lat="68.7660583311" lon="17.6849388925">
		<tag k="name" v="Vakkermoan" />
		<tag k="name:no" v="Vakkermoan" />
		<tag k="place" v="locality" />
		<tag k="ssr:stedsnr" v="481552" />
	</node>
	<node id="-841394" lat="68.6369944416" lon="17.9410555512">
		<tag k="name" v="Loftan" />
		<tag k="name:no" v="Loftan" />
		<tag k="natural" v="hill" />
		<tag k="place" v="locality" />
		<tag k="ssr:stedsnr" v="665652" />
	</node>
	<node id="-841392" lat="68.7494222234" lon="17.7753972143">
		<tag k="name" v="Moendan" />
		<tag k="name:no" v="Moendan" />
		<tag k="natural" v="slope" />
		<tag k="place" v="locality" />
		<tag k="ssr:stedsnr" v="665335" />
	</node>
	<node id="-841391" lat="68.7554916711" lon="17.7736555483">
		<tag k="name" v="Grindgangen" />
		<tag k="name:no" v="Grindgangen" />
		<tag k="natural" v="slope" />
		<tag k="place" v="locality" />
		<tag k="ssr:stedsnr" v="665328" />
	</node>
	<node id="-841389" lat="68.6542583361" lon="17.8990444356">
		<tag k="name" v="Surhøyflata" />
		<tag k="name:no" v="Surhøyflata" />
		<tag k="place" v="locality" />
		<tag k="ssr:stedsnr" v="665581" />
	</node>
	<node id="-841387" lat="68.7202138856" lon="17.7857527632">
		<tag k="name" v="Holmen" />
		<tag k="name:no" v="Holmen" />
		<tag k="natural" v="slope" />
		<tag k="place" v="locality" />
		<tag k="ssr:stedsnr" v="665162" />
	</node>
	<node id="-841386" lat="68.7674194456" lon="17.8575555494">
		<tag k="name" v="Botnhågryggen" />
		<tag k="name:no" v="Botnhågryggen" />
		<tag k="natural" v="ridge" />
		<tag k="place" v="locality" />
		<tag k="ssr:stedsnr" v="663808" />
	</node>
	<node id="-841385" lat="68.7705194479" lon="17.8588472228">
		<tag k="name" v="Botnhågen" />
		<tag k="name:no" v="Botnhågen" />
		<tag k="natural" v="hill" />
		<tag k="place" v="locality" />
		<tag k="ssr:stedsnr" v="663804" />
	</node>
	<node id="-841384" lat="68.699480553" lon="17.9970361118">
		<tag k="name" v="Goavrresnjuokča - Lia" />
		<tag k="name:no" v="Lia" />
		<tag k="name:se" v="Goavrresnjuokča" />
		<tag k="natural" v="slope" />
		<tag k="place" v="locality" />
		<tag k="ssr:stedsnr" v="663800" />
	</node>
	<node id="-841376" lat="68.7360638913" lon="17.7825888898">
		<tag k="name" v="Polldalmoen" />
		<tag k="name:no" v="Polldalmoen" />
		<tag k="place" v="locality" />
		<tag k="ssr:stedsnr" v="663443" />
	</node>
	<node id="-841375" lat="68.7399138871" lon="17.8130222203">
		<tag k="name" v="Oksereitet" />
		<tag k="name:no" v="Oksereitet" />
		<tag k="natural" v="slope" />
		<tag k="place" v="locality" />
		<tag k="ssr:stedsnr" v="663432" />
	</node>
	<node id="-841374" lat="68.7367583334" lon="17.7997388743">
		<tag k="name" v="Fagerbakken" />
		<tag k="name:no" v="Fagerbakken" />
		<tag k="natural" v="slope" />
		<tag k="place" v="locality" />
		<tag k="ssr:stedsnr" v="663425" />
	</node>
	<node id="-841373" lat="68.796183334" lon="17.7028833265">
		<tag k="name" v="Kuholla" />
		<tag k="name:no" v="Kuholla" />
		<tag k="natural" v="valley" />
		<tag k="place" v="locality" />
		<tag k="ssr:stedsnr" v="663401" />
	</node>
	<node id="-841372" lat="68.7953444477" lon="17.7577249944">
		<tag k="fixme" v="consider natural=peak for the most distinct mountains in the district" />
		<tag k="name" v="Slåttefjellet" />
		<tag k="name:no" v="Slåttefjellet" />
		<tag k="natural" v="hill" />
		<tag k="place" v="locality" />
		<tag k="ssr:stedsnr" v="663378" />
	</node>
	<node id="-841370" lat="68.7354277808" lon="17.8155972299">
		<tag k="name" v="Forrhågen" />
		<tag k="name:no" v="Forrhågen" />
		<tag k="natural" v="hill" />
		<tag k="place" v="locality" />
		<tag k="ssr:stedsnr" v="663479" />
	</node>
	<node id="-841369" lat="68.7284166639" lon="17.7666777625">
		<tag k="name" v="Mellalegda" />
		<tag k="name:no" v="Mellalegda" />
		<tag k="natural" v="slope" />
		<tag k="place" v="locality" />
		<tag k="ssr:stedsnr" v="663478" />
	</node>
	<node id="-841367" lat="68.7921999958" lon="17.5575555575">
		<tag k="name" v="Ramne" />
		<tag k="name:no" v="Ramne" />
		<tag k="natural" v="slope" />
		<tag k="place" v="locality" />
		<tag k="ssr:stedsnr" v="663201" />
	</node>
	<node id="-841366" lat="68.7898194441" lon="17.5712360985">
		<tag k="name" v="Breilia" />
		<tag k="name:no" v="Breilia" />
		<tag k="natural" v="slope" />
		<tag k="place" v="locality" />
		<tag k="ssr:stedsnr" v="663200" />
	</node>
	<node id="-841365" lat="68.7055694409" lon="17.9459361044">
		<tag k="name" v="Beasseloapmi" />
		<tag k="name:se" v="Beasseloapmi" />
		<tag k="natural" v="slope" />
		<tag k="place" v="locality" />
		<tag k="ssr:stedsnr" v="448635" />
	</node>
	<node id="-841362" lat="68.7194638911" lon="17.8384416749">
		<tag k="name" v="Hamran" />
		<tag k="name:no" v="Hamran" />
		<tag k="natural" v="hill" />
		<tag k="place" v="locality" />
		<tag k="ssr:stedsnr" v="422607" />
	</node>
	<node id="-841361" lat="68.6357416687" lon="17.924936101">
		<tag k="name" v="Tuvflaten" />
		<tag k="name:no" v="Tuvflaten" />
		<tag k="place" v="locality" />
		<tag k="ssr:stedsnr" v="422603" />
	</node>
	<node id="-841360" lat="68.761447224" lon="17.8432972085">
		<tag k="name" v="Skarlegda" />
		<tag k="name:no" v="Skarlegda" />
		<tag k="natural" v="slope" />
		<tag k="place" v="locality" />
		<tag k="ssr:stedsnr" v="421709" />
	</node>
	<node id="-841357" lat="68.7935861123" lon="17.7791249876">
		<tag k="name" v="Kuberget" />
		<tag k="name:no" v="Kuberget" />
		<tag k="natural" v="hill" />
		<tag k="place" v="locality" />
		<tag k="ssr:stedsnr" v="421410" />
	</node>
	<node id="-841356" lat="68.7927555589" lon="17.7811055591">
		<tag k="name" v="Seljebakkan" />
		<tag k="name:no" v="Seljebakkan" />
		<tag k="natural" v="slope" />
		<tag k="place" v="locality" />
		<tag k="ssr:stedsnr" v="421409" />
	</node>
	<node id="-841355" lat="68.7970611111" lon="17.7371083248">
		<tag k="name" v="Libergan" />
		<tag k="name:no" v="Libergan" />
		<tag k="natural" v="hill" />
		<tag k="place" v="locality" />
		<tag k="ssr:stedsnr" v="421406" />
	</node>
	<node id="-841352" lat="68.8005027748" lon="17.538224985">
		<tag k="name" v="Sandmelen" />
		<tag k="name:no" v="Sandmelen" />
		<tag k="natural" v="slope" />
		<tag k="place" v="locality" />
		<tag k="ssr:stedsnr" v="299229" />
	</node>
	<node id="-841350" lat="68.8134194463" lon="17.7280305513">
		<tag k="name" v="Gámariehppi" />
		<tag k="name:se" v="Gámariehppi" />
		<tag k="natural" v="valley" />
		<tag k="place" v="locality" />
		<tag k="ssr:stedsnr" v="507089" />
	</node>
	<node id="-841346" lat="68.7615111086" lon="17.7606138891">
		<tag k="name" v="Bjørndalen" />
		<tag k="name:no" v="Bjørndalen" />
		<tag k="natural" v="valley" />
		<tag k="place" v="locality" />
		<tag k="ssr:stedsnr" v="361413" />
	</node>
	<node id="-841342" lat="68.6509888883" lon="17.8981777846">
		<tag k="name" v="Stakkflata" />
		<tag k="name:no" v="Stakkflata" />
		<tag k="place" v="locality" />
		<tag k="ssr:stedsnr" v="361566" />
	</node>
	<node id="-841341" lat="68.7744583302" lon="17.8675277793">
		<tag k="name" v="Tortenholla" />
		<tag k="name:no" v="Tortenholla" />
		<tag k="natural" v="valley" />
		<tag k="place" v="locality" />
		<tag k="ssr:stedsnr" v="360807" />
	</node>
	<node id="-841340" lat="68.7763361118" lon="17.6763444414">
		<tag k="name" v="Ramfløyet" />
		<tag k="name:no" v="Ramfløyet" />
		<tag k="natural" v="hill" />
		<tag k="place" v="locality" />
		<tag k="ssr:stedsnr" v="360510" />
	</node>
	<node id="-841339" lat="68.7924083301" lon="17.7595416686">
		<tag k="name" v="Verslet" />
		<tag k="name:no" v="Verslet" />
		<tag k="natural" v="slope" />
		<tag k="place" v="locality" />
		<tag k="ssr:stedsnr" v="360368" />
	</node>
	<node id="-841336" lat="68.7346722241" lon="17.7957444505">
		<tag k="name" v="Forsebakkan" />
		<tag k="name:no" v="Forsebakkan" />
		<tag k="natural" v="slope" />
		<tag k="place" v="locality" />
		<tag k="ssr:stedsnr" v="360417" />
	</node>
	<node id="-841335" lat="68.7386749995" lon="17.8097749954">
		<tag k="name" v="Elvebakken" />
		<tag k="name:no" v="Elvebakken" />
		<tag k="natural" v="slope" />
		<tag k="place" v="locality" />
		<tag k="ssr:stedsnr" v="360409" />
	</node>
	<node id="-841333" lat="68.7136555568" lon="17.8903027819">
		<tag k="loc_name:se" v="Stuordievvá" />
		<tag k="name" v="Storbakken" />
		<tag k="name:no" v="Storbakken" />
		<tag k="natural" v="slope" />
		<tag k="place" v="locality" />
		<tag k="ssr:stedsnr" v="483650" />
	</node>
	<node id="-841331" lat="68.6663861088" lon="17.9001472068">
		<tag k="name" v="Annabakken" />
		<tag k="name:no" v="Annabakken" />
		<tag k="natural" v="slope" />
		<tag k="place" v="locality" />
		<tag k="ssr:stedsnr" v="483575" />
	</node>
	<node id="-841330" lat="68.7557111148" lon="17.8196194309">
		<tag k="name" v="Moldfallet" />
		<tag k="name:no" v="Moldfallet" />
		<tag k="natural" v="slope" />
		<tag k="place" v="locality" />
		<tag k="ssr:stedsnr" v="483321" />
	</node>
	<node id="-841329" lat="68.762658337" lon="17.8127250074">
		<tag k="name" v="Finnegråhågen" />
		<tag k="name:no" v="Finnegråhågen" />
		<tag k="natural" v="hill" />
		<tag k="place" v="locality" />
		<tag k="ssr:stedsnr" v="483311" />
	</node>
	<node id="-841328" lat="68.7444722185" lon="17.795288878">
		<tag k="name" v="Kviteberget" />
		<tag k="name:no" v="Kviteberget" />
		<tag k="natural" v="hill" />
		<tag k="place" v="locality" />
		<tag k="ssr:stedsnr" v="483290" />
	</node>
	<node id="-841327" lat="68.7849444417" lon="17.5990694339">
		<tag k="name" v="Grønnebakkan" />
		<tag k="name:no" v="Grønnebakkan" />
		<tag k="natural" v="slope" />
		<tag k="place" v="locality" />
		<tag k="ssr:stedsnr" v="483288" />
	</node>
	<node id="-841326" lat="68.7644166661" lon="17.6797638766">
		<tag k="name" v="Vakkermoan" />
		<tag k="name:no" v="Vakkermoan" />
		<tag k="place" v="locality" />
		<tag k="ssr:stedsnr" v="483390" />
	</node>
	<node id="-841323" lat="68.6945222192" lon="17.9517610997">
		<tag k="name" v="Lauvkjellaren" />
		<tag k="name:no" v="Lauvkjellaren" />
		<tag k="natural" v="slope" />
		<tag k="place" v="locality" />
		<tag k="ssr:stedsnr" v="481748" />
	</node>
	<node id="-841322" lat="68.6985777814" lon="17.9790138927">
		<tag k="name" v="Kvernhusbakken" />
		<tag k="name:no" v="Kvernhusbakken" />
		<tag k="natural" v="slope" />
		<tag k="place" v="locality" />
		<tag k="ssr:stedsnr" v="481738" />
	</node>
	<node id="-841320" lat="68.7245388883" lon="17.8130111039">
		<tag k="name" v="Tverrelvlia" />
		<tag k="name:no" v="Tverrelvlia" />
		<tag k="natural" v="slope" />
		<tag k="place" v="locality" />
		<tag k="ssr:stedsnr" v="481512" />
	</node>
	<node id="-841319" lat="68.7967666679" lon="17.7348638948">
		<tag k="name" v="Asphammaren" />
		<tag k="name:no" v="Asphammaren" />
		<tag k="natural" v="hill" />
		<tag k="place" v="locality" />
		<tag k="ssr:stedsnr" v="481437" />
	</node>
	<node id="-841317" lat="68.7997083374" lon="17.7598777733">
		<tag k="fixme" v="consider natural=peak for the most distinct mountains in the district" />
		<tag k="name" v="Librunen" />
		<tag k="name:no" v="Librunen" />
		<tag k="natural" v="hill" />
		<tag k="place" v="locality" />
		<tag k="ssr:stedsnr" v="481429" />
	</node>
	<node id="-841315" lat="68.7330388853" lon="17.8043666564">
		<tag k="name" v="Bergulbakken" />
		<tag k="name:no" v="Bergulbakken" />
		<tag k="natural" v="slope" />
		<tag k="place" v="locality" />
		<tag k="ssr:stedsnr" v="481491" />
	</node>
	<node id="-841311" lat="68.7944694465" lon="17.5713027701">
		<tag k="name" v="Sildeberget" />
		<tag k="name:no" v="Sildeberget" />
		<tag k="natural" v="hill" />
		<tag k="place" v="locality" />
		<tag k="ssr:stedsnr" v="481237" />
	</node>
	<node id="-841307" lat="68.7883888866" lon="17.5655416757">
		<tag k="name" v="Hånken" />
		<tag k="name:no" v="Hånken" />
		<tag k="natural" v="slope" />
		<tag k="place" v="locality" />
		<tag k="ssr:stedsnr" v="481216" />
	</node>
	<node id="-841305" lat="68.6961083333" lon="18.0024833335">
		<tag k="name" v="Høkberget" />
		<tag k="name:no" v="Høkberget" />
		<tag k="natural" v="hill" />
		<tag k="place" v="locality" />
		<tag k="ssr:stedsnr" v="475388" />
	</node>
	<node id="-841304" lat="68.6915611076" lon="18.023322209">
		<tag k="name" v="Storlian" />
		<tag k="name:no" v="Storlian" />
		<tag k="natural" v="slope" />
		<tag k="place" v="locality" />
		<tag k="ssr:stedsnr" v="475386" />
	</node>
	<node id="-841303" lat="68.6978333357" lon="17.9998750085">
		<tag k="name" v="Lia" />
		<tag k="name:no" v="Lia" />
		<tag k="natural" v="slope" />
		<tag k="place" v="locality" />
		<tag k="ssr:stedsnr" v="475384" />
	</node>
	<node id="-841302" lat="68.679022223" lon="17.994441673">
		<tag k="fixme" v="consider natural=peak for the most distinct mountains in the district" />
		<tag k="name" v="Middagsfjellet" />
		<tag k="name:no" v="Middagsfjellet" />
		<tag k="natural" v="hill" />
		<tag k="place" v="locality" />
		<tag k="ssr:stedsnr" v="475383" />
	</node>
	<node id="-841301" lat="68.6694833315" lon="17.8623055627">
		<tag k="name" v="Vedhøgda" />
		<tag k="name:no" v="Vedhøgda" />
		<tag k="natural" v="hill" />
		<tag k="place" v="locality" />
		<tag k="ssr:stedsnr" v="301520" />
	</node>
	<node id="-841300" lat="68.7606055538" lon="17.7146055432">
		<tag k="name" v="Snehallbakken" />
		<tag k="name:no" v="Snehallbakken" />
		<tag k="natural" v="slope" />
		<tag k="place" v="locality" />
		<tag k="ssr:stedsnr" v="301353" />
	</node>
	<node id="-841299" lat="68.758700003" lon="17.8271027678">
		<tag k="fixme" v="consider natural=peak for the most distinct mountains in the district" />
		<tag k="name" v="Åsen" />
		<tag k="name:no" v="Åsen" />
		<tag k="natural" v="hill" />
		<tag k="place" v="locality" />
		<tag k="ssr:stedsnr" v="301271" />
	</node>
	<node id="-841297" lat="68.6841194482" lon="17.9813055478">
		<tag k="name" v="Egga" />
		<tag k="name:no" v="Egga" />
		<tag k="natural" v="ridge" />
		<tag k="place" v="locality" />
		<tag k="ssr:stedsnr" v="299717" />
	</node>
	<node id="-841294" lat="68.7069333371" lon="18.0212027782">
		<tag k="name" v="Storberget" />
		<tag k="name:no" v="Storberget" />
		<tag k="natural" v="hill" />
		<tag k="place" v="locality" />
		<tag k="ssr:stedsnr" v="299817" />
	</node>
	<node id="-841293" lat="68.727755559" lon="17.7686250033">
		<tag k="name" v="Sare-gjerdhågen" />
		<tag k="name:no" v="Sare-gjerdhågen" />
		<tag k="natural" v="hill" />
		<tag k="place" v="locality" />
		<tag k="ssr:stedsnr" v="299521" />
	</node>
	<node id="-841292" lat="68.7323083348" lon="17.7948277872">
		<tag k="fixme" v="consider natural=peak for the most distinct mountains in the district" />
		<tag k="name" v="Huldertuva" />
		<tag k="name:no" v="Huldertuva" />
		<tag k="natural" v="hill" />
		<tag k="place" v="locality" />
		<tag k="ssr:stedsnr" v="299504" />
	</node>
	<node id="-841291" lat="68.7946194439" lon="17.7659638786">
		<tag k="name" v="Klompan" />
		<tag k="name:no" v="Klompan" />
		<tag k="natural" v="hill" />
		<tag k="place" v="locality" />
		<tag k="ssr:stedsnr" v="299420" />
	</node>
	<node id="-841290" lat="68.7949944453" lon="17.7694083388">
		<tag k="name" v="Geitdalen" />
		<tag k="name:no" v="Geitdalen" />
		<tag k="natural" v="valley" />
		<tag k="place" v="locality" />
		<tag k="ssr:stedsnr" v="299417" />
	</node>
	<node id="-841288" lat="68.7189611128" lon="17.8787555425">
		<tag k="name" v="Rokkadievva" />
		<tag k="name:se" v="Rokkadievva" />
		<tag k="natural" v="hill" />
		<tag k="place" v="locality" />
		<tag k="ssr:stedsnr" v="260640" />
	</node>
	<node id="-841286" lat="68.7542638879" lon="17.7565722225">
		<tag k="name" v="Myrbakkan" />
		<tag k="name:no" v="Myrbakkan" />
		<tag k="natural" v="slope" />
		<tag k="place" v="locality" />
		<tag k="ssr:stedsnr" v="443707" />
	</node>
	<node id="-841278" lat="68.794313886" lon="17.4265694385">
		<tag k="fixme" v="consider natural=peak for the most distinct mountains in the district" />
		<tag k="name" v="Vasslikollen" />
		<tag k="natural" v="hill" />
		<tag k="place" v="locality" />
		<tag k="ssr:stedsnr" v="442737" />
	</node>
	<node id="-841272" lat="68.6174472247" lon="17.9043305554">
		<tag k="name" v="Kibergan" />
		<tag k="name:no" v="Kibergan" />
		<tag k="natural" v="hill" />
		<tag k="place" v="locality" />
		<tag k="ssr:stedsnr" v="442551" />
	</node>
	<node id="-841269" lat="68.6944194431" lon="18.021166657">
		<tag k="name" v="Styggedalsbergan" />
		<tag k="name:no" v="Styggedalsbergan" />
		<tag k="natural" v="hill" />
		<tag k="place" v="locality" />
		<tag k="ssr:stedsnr" v="294378" />
	</node>
	<node id="-841267" lat="68.682025001" lon="18.0183805403">
		<tag k="name" v="Storberget" />
		<tag k="name:no" v="Storberget" />
		<tag k="natural" v="hill" />
		<tag k="place" v="locality" />
		<tag k="ssr:stedsnr" v="293752" />
	</node>
	<node id="-841266" lat="68.6909805528" lon="18.0412138846">
		<tag k="name" v="Bjørnhaugen" />
		<tag k="name:no" v="Bjørnhaugen" />
		<tag k="natural" v="hill" />
		<tag k="place" v="locality" />
		<tag k="ssr:stedsnr" v="293749" />
	</node>
	<node id="-841262" lat="68.7204749984" lon="17.8262138825">
		<tag k="fixme" v="consider natural=peak for the most distinct mountains in the district" />
		<tag k="name" v="Kollen" />
		<tag k="name:no" v="Kollen" />
		<tag k="natural" v="hill" />
		<tag k="place" v="locality" />
		<tag k="ssr:stedsnr" v="179159" />
	</node>
	<node id="-841261" lat="68.7658638937" lon="17.8560694339">
		<tag k="name" v="Steinbakkan" />
		<tag k="name:no" v="Steinbakkan" />
		<tag k="natural" v="slope" />
		<tag k="place" v="locality" />
		<tag k="ssr:stedsnr" v="178816" />
	</node>
	<node id="-841260" lat="68.7713638882" lon="17.8785472208">
		<tag k="name" v="Botnlian" />
		<tag k="name:no" v="Botnlian" />
		<tag k="natural" v="slope" />
		<tag k="place" v="locality" />
		<tag k="ssr:stedsnr" v="178811" />
	</node>
	<node id="-841258" lat="68.7041888845" lon="18.0290333367">
		<tag k="name" v="Øvre lappjorddalen" />
		<tag k="name:no" v="Øvre lappjorddalen" />
		<tag k="natural" v="valley" />
		<tag k="place" v="locality" />
		<tag k="ssr:stedsnr" v="178807" />
	</node>
	<node id="-841256" lat="68.7823444401" lon="17.5588250026">
		<tag k="name" v="Tverrelvflaten" />
		<tag k="name:no" v="Tverrelvflaten" />
		<tag k="place" v="locality" />
		<tag k="ssr:stedsnr" v="178206" />
	</node>
	<node id="-841249" lat="68.652033331" lon="17.973522216">
		<tag k="fixme" v="consider natural=peak for the most distinct mountains in the district" />
		<tag k="name" v="Mielkevárri - Melkefjellet" />
		<tag k="name:no" v="Melkefjellet" />
		<tag k="name:se" v="Mielkevárri" />
		<tag k="natural" v="hill" />
		<tag k="old_name:se" v="Mielkevarri" />
		<tag k="place" v="locality" />
		<tag k="ssr:stedsnr" v="264587" />
	</node>
	<node id="-841247" lat="68.7752416695" lon="17.8545972097">
		<tag k="name" v="Tømmerhåglian" />
		<tag k="name:no" v="Tømmerhåglian" />
		<tag k="natural" v="slope" />
		<tag k="place" v="locality" />
		<tag k="ssr:stedsnr" v="117826" />
	</node>
	<node id="-841246" lat="68.7732305573" lon="17.8668249974">
		<tag k="name" v="Styggedalen" />
		<tag k="name:no" v="Styggedalen" />
		<tag k="natural" v="valley" />
		<tag k="place" v="locality" />
		<tag k="ssr:stedsnr" v="117823" />
	</node>
	<node id="-841244" lat="68.7753083383" lon="17.8211111007">
		<tag k="name" v="Øverleet" />
		<tag k="name:no" v="Øverleet" />
		<tag k="place" v="locality" />
		<tag k="ssr:stedsnr" v="117538" />
	</node>
	<node id="-841243" lat="68.7315277744" lon="17.7724777776">
		<tag k="name" v="Rødbergan" />
		<tag k="name:no" v="Rødbergan" />
		<tag k="natural" v="hill" />
		<tag k="place" v="locality" />
		<tag k="ssr:stedsnr" v="117515" />
	</node>
	<node id="-841242" lat="68.7302500045" lon="17.8149666588">
		<tag k="name" v="Sennemyrbakkan" />
		<tag k="name:no" v="Sennemyrbakkan" />
		<tag k="natural" v="slope" />
		<tag k="place" v="locality" />
		<tag k="ssr:stedsnr" v="117513" />
	</node>
	<node id="-841239" lat="68.726669446" lon="17.820794437">
		<tag k="name" v="Djupedalen" />
		<tag k="name:no" v="Djupedalen" />
		<tag k="natural" v="valley" />
		<tag k="place" v="locality" />
		<tag k="ssr:stedsnr" v="117502" />
	</node>
	<node id="-841238" lat="68.8008666706" lon="17.5409194487">
		<tag k="name" v="Slettan" />
		<tag k="name:no" v="Slettan" />
		<tag k="place" v="locality" />
		<tag k="ssr:stedsnr" v="117241" />
	</node>
	<node id="-841235" lat="68.7694444435" lon="17.8290527627">
		<tag k="name" v="Bjørnhaugen" />
		<tag k="name:no" v="Bjørnhaugen" />
		<tag k="natural" v="hill" />
		<tag k="place" v="locality" />
		<tag k="ssr:stedsnr" v="260773" />
	</node>
	<node id="-841232" lat="68.8141583346" lon="17.8330194391">
		<tag k="name" v="Nevermoan" />
		<tag k="name:no" v="Nevermoan" />
		<tag k="place" v="locality" />
		<tag k="ssr:stedsnr" v="260728" />
	</node>
	<node id="-841231" lat="68.7049388911" lon="17.6292138871">
		<tag k="fixme" v="consider natural=peak for the most distinct mountains in the district" />
		<tag k="name" v="Årsteinhornet" />
		<tag k="natural" v="hill" />
		<tag k="place" v="locality" />
		<tag k="ssr:stedsnr" v="260598" />
	</node>
	<node id="-841230" lat="68.7138888924" lon="17.6668499889">
		<tag k="alt_name:no" v="Sandnesbotn, in" />
		<tag k="name" v="Indre Sandnesbotn" />
		<tag k="name:no" v="Indre Sandnesbotn" />
		<tag k="natural" v="valley" />
		<tag k="place" v="locality" />
		<tag k="ssr:stedsnr" v="260597" />
	</node>
	<node id="-841229" lat="68.717658331" lon="17.8245472082">
		<tag k="name" v="Dalebotn" />
		<tag k="name:no" v="Dalebotn" />
		<tag k="natural" v="valley" />
		<tag k="place" v="locality" />
		<tag k="ssr:stedsnr" v="260595" />
	</node>
	<node id="-841228" lat="68.6109944484" lon="17.9858722298">
		<tag k="name" v="Rivtindbotn" />
		<tag k="name:no" v="Rivtindbotn" />
		<tag k="natural" v="valley" />
		<tag k="place" v="locality" />
		<tag k="ssr:stedsnr" v="260571" />
	</node>
	<node id="-841227" lat="68.7788138884" lon="17.9195527799">
		<tag k="name" v="Gorssasláhku" />
		<tag k="name:se" v="Gorssasláhku" />
		<tag k="natural" v="mountain_range" />
		<tag k="ssr:stedsnr" v="82107" />
	</node>
	<node id="-841226" lat="68.7185333301" lon="17.8338749966">
		<tag k="fixme" v="consider natural=peak for the most distinct mountains in the district" />
		<tag k="name" v="Kollen" />
		<tag k="name:no" v="Kollen" />
		<tag k="natural" v="hill" />
		<tag k="place" v="locality" />
		<tag k="ssr:stedsnr" v="240621" />
	</node>
	<node id="-841224" lat="68.810475" lon="17.804486097">
		<tag k="name" v="Høgebakkan" />
		<tag k="name:no" v="Høgebakkan" />
		<tag k="natural" v="slope" />
		<tag k="place" v="locality" />
		<tag k="ssr:stedsnr" v="240552" />
	</node>
	<node id="-841219" lat="68.7587638872" lon="17.8147333189">
		<tag k="name" v="Hellarhågen" />
		<tag k="name:no" v="Hellarhågen" />
		<tag k="natural" v="hill" />
		<tag k="place" v="locality" />
		<tag k="ssr:stedsnr" v="240293" />
	</node>
	<node id="-841214" lat="68.7791527763" lon="17.603894436">
		<tag k="name" v="Gunnarholla" />
		<tag k="name:no" v="Gunnarholla" />
		<tag k="natural" v="valley" />
		<tag k="place" v="locality" />
		<tag k="ssr:stedsnr" v="240261" />
	</node>
	<node id="-841213" lat="68.7759444413" lon="17.8426472096">
		<tag k="name" v="Trippegulvmoen" />
		<tag k="name:no" v="Trippegulvmoen" />
		<tag k="place" v="locality" />
		<tag k="ssr:stedsnr" v="239847" />
	</node>
	<node id="-841212" lat="68.7682527797" lon="17.8378499995">
		<tag k="name" v="Stormoen" />
		<tag k="name:no" v="Stormoen" />
		<tag k="place" v="locality" />
		<tag k="ssr:stedsnr" v="239843" />
	</node>
	<node id="-841210" lat="68.6974138858" lon="17.9767833391">
		<tag k="name" v="Bruhaugen" />
		<tag k="name:no" v="Bruhaugen" />
		<tag k="natural" v="hill" />
		<tag k="place" v="locality" />
		<tag k="ssr:stedsnr" v="239780" />
	</node>
	<node id="-841209" lat="68.6840388921" lon="17.9149944454">
		<tag k="name" v="Storhaugen" />
		<tag k="name:no" v="Storhaugen" />
		<tag k="natural" v="hill" />
		<tag k="place" v="locality" />
		<tag k="ssr:stedsnr" v="239779" />
	</node>
	<node id="-841208" lat="68.6985277817" lon="17.9737222288">
		<tag k="name" v="Nepreitet" />
		<tag k="name:no" v="Nepreitet" />
		<tag k="natural" v="hill" />
		<tag k="place" v="locality" />
		<tag k="ssr:stedsnr" v="239768" />
	</node>
	<node id="-841207" lat="68.7769222203" lon="17.8278083223">
		<tag k="name" v="Småmoan" />
		<tag k="name:no" v="Småmoan" />
		<tag k="place" v="locality" />
		<tag k="ssr:stedsnr" v="239560" />
	</node>
	<node id="-841205" lat="68.777222226" lon="17.687944437">
		<tag k="name" v="Høglia" />
		<tag k="name:no" v="Høglia" />
		<tag k="natural" v="slope" />
		<tag k="place" v="locality" />
		<tag k="ssr:stedsnr" v="239543" />
	</node>
	<node id="-841202" lat="68.7385388875" lon="17.8143083403">
		<tag k="name" v="Tørrvedmoen" />
		<tag k="name:no" v="Tørrvedmoen" />
		<tag k="place" v="locality" />
		<tag k="ssr:stedsnr" v="239490" />
	</node>
	<node id="-841200" lat="68.8071555587" lon="17.7257250018">
		<tag k="name" v="Reinbenkan" />
		<tag k="name:no" v="Reinbenkan" />
		<tag k="natural" v="hill" />
		<tag k="place" v="locality" />
		<tag k="ssr:stedsnr" v="239468" />
	</node>
	<node id="-841198" lat="68.7442916716" lon="17.8154527672">
		<tag k="name" v="Grindgongen" />
		<tag k="name:no" v="Grindgongen" />
		<tag k="natural" v="slope" />
		<tag k="place" v="locality" />
		<tag k="ssr:stedsnr" v="239462" />
	</node>
	<node id="-841197" lat="68.7518416629" lon="17.8244750026">
		<tag k="name" v="Bangselia" />
		<tag k="name:no" v="Bangselia" />
		<tag k="natural" v="slope" />
		<tag k="place" v="locality" />
		<tag k="ssr:stedsnr" v="239460" />
	</node>
	<node id="-841196" lat="68.7344527752" lon="17.7822388859">
		<tag k="name" v="Telgesteinmoen" />
		<tag k="name:no" v="Telgesteinmoen" />
		<tag k="place" v="locality" />
		<tag k="ssr:stedsnr" v="239451" />
	</node>
	<node id="-841195" lat="68.7364888907" lon="17.7878111007">
		<tag k="name" v="Tverrelvmoen" />
		<tag k="name:no" v="Tverrelvmoen" />
		<tag k="place" v="locality" />
		<tag k="ssr:stedsnr" v="239450" />
	</node>
	<node id="-841194" lat="68.7409472265" lon="17.822625004">
		<tag k="name" v="Finnveilia" />
		<tag k="name:no" v="Finnveilia" />
		<tag k="natural" v="slope" />
		<tag k="place" v="locality" />
		<tag k="ssr:stedsnr" v="239446" />
	</node>
	<node id="-841193" lat="68.7415333318" lon="17.803108321">
		<tag k="name" v="Fagerslåttmoen" />
		<tag k="name:no" v="Fagerslåttmoen" />
		<tag k="place" v="locality" />
		<tag k="ssr:stedsnr" v="239444" />
	</node>
	<node id="-841192" lat="68.7941222217" lon="17.7820444436">
		<tag k="fixme" v="consider natural=peak for the most distinct mountains in the district" />
		<tag k="name" v="Stellefjellet" />
		<tag k="name:no" v="Stellefjellet" />
		<tag k="natural" v="hill" />
		<tag k="place" v="locality" />
		<tag k="ssr:stedsnr" v="239396" />
	</node>
	<node id="-841191" lat="68.8021888851" lon="17.787791655">
		<tag k="name" v="Høgebakkan" />
		<tag k="name:no" v="Høgebakkan" />
		<tag k="natural" v="slope" />
		<tag k="place" v="locality" />
		<tag k="ssr:stedsnr" v="239382" />
	</node>
	<node id="-841190" lat="68.8058444461" lon="17.8234750063">
		<tag k="name" v="Navarsbakken" />
		<tag k="name:no" v="Navarsbakken" />
		<tag k="natural" v="slope" />
		<tag k="place" v="locality" />
		<tag k="ssr:stedsnr" v="239378" />
	</node>
	<node id="-841186" lat="68.8123027736" lon="17.4586194417">
		<tag k="name" v="Heia" />
		<tag k="name:no" v="Heia" />
		<tag k="natural" v="hill" />
		<tag k="place" v="locality" />
		<tag k="ssr:stedsnr" v="238557" />
	</node>
	<node id="-841185" lat="68.8099527809" lon="17.8419361031">
		<tag k="name" v="Moan" />
		<tag k="name:no" v="Moan" />
		<tag k="place" v="locality" />
		<tag k="ssr:stedsnr" v="238230" />
	</node>
	<node id="-841184" lat="68.8067666697" lon="17.6087416774">
		<tag k="name" v="Daumannen" />
		<tag k="name:no" v="Daumannen" />
		<tag k="natural" v="hill" />
		<tag k="place" v="locality" />
		<tag k="ssr:stedsnr" v="238225" />
	</node>
	<node id="-841181" lat="68.7892861083" lon="17.500686107">
		<tag k="name" v="Storvassbakkan" />
		<tag k="name:no" v="Storvassbakkan" />
		<tag k="natural" v="slope" />
		<tag k="place" v="locality" />
		<tag k="ssr:stedsnr" v="238203" />
	</node>
	<node id="-841180" lat="68.6946611092" lon="18.0090777704">
		<tag k="name" v="Brattbakken" />
		<tag k="name:no" v="Brattbakken" />
		<tag k="natural" v="slope" />
		<tag k="place" v="locality" />
		<tag k="ssr:stedsnr" v="233398" />
	</node>
	<node id="-841179" lat="68.6825388916" lon="18.0061388946">
		<tag k="name" v="Langberget" />
		<tag k="name:no" v="Langberget" />
		<tag k="natural" v="hill" />
		<tag k="place" v="locality" />
		<tag k="ssr:stedsnr" v="232697" />
	</node>
	<node id="-841178" lat="68.6911194489" lon="17.9997138782">
		<tag k="name" v="Sæterhaugen" />
		<tag k="name:no" v="Sæterhaugen" />
		<tag k="natural" v="hill" />
		<tag k="place" v="locality" />
		<tag k="ssr:stedsnr" v="232690" />
	</node>
	<node id="-841177" lat="68.6979499995" lon="17.9916694388">
		<tag k="name" v="Kalvberget" />
		<tag k="name:no" v="Kalvberget" />
		<tag k="natural" v="hill" />
		<tag k="place" v="locality" />
		<tag k="ssr:stedsnr" v="232348" />
	</node>
	<node id="-842061" lat="68.6469555565" lon="17.9124111029">
		<tag k="name" v="Storbakkenden" />
		<tag k="name:no" v="Storbakkenden" />
		<tag k="natural" v="slope" />
		<tag k="place" v="locality" />
		<tag k="ssr:stedsnr" v="968645" />
	</node>
	<node id="-842060" lat="68.6445805535" lon="17.9234555464">
		<tag k="name" v="Blåjobakken" />
		<tag k="name:no" v="Blåjobakken" />
		<tag k="natural" v="slope" />
		<tag k="place" v="locality" />
		<tag k="ssr:stedsnr" v="968630" />
	</node>
	<node id="-842059" lat="68.7563388885" lon="17.7679444445">
		<tag k="name" v="Høgda" />
		<tag k="name:no" v="Høgda" />
		<tag k="natural" v="hill" />
		<tag k="place" v="locality" />
		<tag k="ssr:stedsnr" v="968398" />
	</node>
	<node id="-842058" lat="68.7523277768" lon="17.7717027656">
		<tag k="name" v="Aksla" />
		<tag k="name:no" v="Aksla" />
		<tag k="place" v="locality" />
		<tag k="ssr:stedsnr" v="968302" />
	</node>
	<node id="-842055" lat="68.7558499986" lon="17.8036222083">
		<tag k="name" v="Heimstigjerdet" />
		<tag k="name:no" v="Heimstigjerdet" />
		<tag k="place" v="locality" />
		<tag k="ssr:stedsnr" v="968298" />
	</node>
	<node id="-842053" lat="68.6946111109" lon="17.9713999867">
		<tag k="name" v="Steinrabben" />
		<tag k="name:no" v="Steinrabben" />
		<tag k="natural" v="hill" />
		<tag k="place" v="locality" />
		<tag k="ssr:stedsnr" v="967716" />
	</node>
	<node id="-842052" lat="68.6983916651" lon="17.9476555461">
		<tag k="name" v="Rotlia" />
		<tag k="name:no" v="Rotlia" />
		<tag k="natural" v="slope" />
		<tag k="place" v="locality" />
		<tag k="ssr:stedsnr" v="967710" />
	</node>
	<node id="-842049" lat="68.7652138861" lon="17.8764166623">
		<tag k="name" v="Hesjevikbotn" />
		<tag k="name:no" v="Hesjevikbotn" />
		<tag k="natural" v="valley" />
		<tag k="place" v="locality" />
		<tag k="ssr:stedsnr" v="967780" />
	</node>
	<node id="-842048" lat="68.7236861081" lon="17.8494583168">
		<tag k="name" v="Unnabávttáš" />
		<tag k="name:se" v="Unnabávttáš" />
		<tag k="natural" v="hill" />
		<tag k="place" v="locality" />
		<tag k="ssr:stedsnr" v="967675" />
	</node>
	<node id="-842046" lat="68.77606111" lon="17.8164249955">
		<tag k="name" v="Gompesletta" />
		<tag k="name:no" v="Gompesletta" />
		<tag k="place" v="locality" />
		<tag k="ssr:stedsnr" v="967532" />
	</node>
	<node id="-842045" lat="68.7327333293" lon="17.7816055505">
		<tag k="name" v="Langdalen" />
		<tag k="name:no" v="Langdalen" />
		<tag k="natural" v="valley" />
		<tag k="place" v="locality" />
		<tag k="ssr:stedsnr" v="967484" />
	</node>
	<node id="-842044" lat="68.7312750031" lon="17.7976416765">
		<tag k="name" v="Momeldalen" />
		<tag k="name:no" v="Momeldalen" />
		<tag k="natural" v="valley" />
		<tag k="place" v="locality" />
		<tag k="ssr:stedsnr" v="967482" />
	</node>
	<node id="-842042" lat="68.7915805563" lon="17.7865610966">
		<tag k="name" v="Eidveisletta" />
		<tag k="name:no" v="Eidveisletta" />
		<tag k="place" v="locality" />
		<tag k="ssr:stedsnr" v="967389" />
	</node>
	<node id="-842040" lat="68.7902805587" lon="17.5697999957">
		<tag k="name" v="Steinlia" />
		<tag k="name:no" v="Steinlia" />
		<tag k="natural" v="slope" />
		<tag k="place" v="locality" />
		<tag k="ssr:stedsnr" v="966201" />
	</node>
	<node id="-842039" lat="68.6974805559" lon="17.9985444351">
		<tag k="name" v="Dolpberget" />
		<tag k="name:no" v="Dolpberget" />
		<tag k="natural" v="hill" />
		<tag k="place" v="locality" />
		<tag k="ssr:stedsnr" v="960352" />
	</node>
	<node id="-842037" lat="68.8319083368" lon="17.7240638816">
		<tag k="name" v="Gámacahca - Gamvikskardet" />
		<tag k="name:no" v="Gamvikskardet" />
		<tag k="name:se" v="Gámacahca" />
		<tag k="natural" v="valley" />
		<tag k="place" v="locality" />
		<tag k="ssr:stedsnr" v="867807" />
	</node>
	<node id="-842035" lat="68.8135333287" lon="17.6850333358">
		<tag k="fixme" v="consider natural=peak for the most distinct mountains in the district" />
		<tag k="name" v="Liakollen" />
		<tag k="name:no" v="Liakollen" />
		<tag k="natural" v="hill" />
		<tag k="place" v="locality" />
		<tag k="ssr:stedsnr" v="867729" />
	</node>
	<node id="-842034" lat="68.7056833363" lon="17.970333331">
		<tag k="name" v="Ruŋgugiera" />
		<tag k="name:se" v="Ruŋgugiera" />
		<tag k="natural" v="valley" />
		<tag k="place" v="locality" />
		<tag k="ssr:stedsnr" v="867603" />
	</node>
	<node id="-842032" lat="68.6381722223" lon="17.9921333264">
		<tag k="fixme" v="consider natural=peak for the most distinct mountains in the district" />
		<tag k="name" v="Siskkitčohkka" />
		<tag k="name:se" v="Siskkitčohkka" />
		<tag k="natural" v="hill" />
		<tag k="old_name:se" v="Siskitčåkka" />
		<tag k="place" v="locality" />
		<tag k="ssr:stedsnr" v="867529" />
	</node>
	<node id="-842028" lat="68.6493861154" lon="17.8946694478">
		<tag k="name" v="Sennehaugen" />
		<tag k="name:no" v="Sennehaugen" />
		<tag k="natural" v="hill" />
		<tag k="place" v="locality" />
		<tag k="ssr:stedsnr" v="847541" />
	</node>
	<node id="-842027" lat="68.7573972222" lon="17.7658222295">
		<tag k="name" v="Krokdalan" />
		<tag k="name:no" v="Krokdalan" />
		<tag k="natural" v="valley" />
		<tag k="place" v="locality" />
		<tag k="ssr:stedsnr" v="847405" />
	</node>
	<node id="-842026" lat="68.7613833324" lon="17.7197749968">
		<tag k="name" v="Koren" />
		<tag k="name:no" v="Koren" />
		<tag k="natural" v="ridge" />
		<tag k="place" v="locality" />
		<tag k="ssr:stedsnr" v="847398" />
	</node>
	<node id="-842025" lat="68.7582083308" lon="17.7434972145">
		<tag k="name" v="Langhågen" />
		<tag k="name:no" v="Langhågen" />
		<tag k="natural" v="hill" />
		<tag k="place" v="locality" />
		<tag k="ssr:stedsnr" v="847393" />
	</node>
	<node id="-842023" lat="68.7574416668" lon="17.8164472107">
		<tag k="name" v="Tortenbakken" />
		<tag k="name:no" v="Tortenbakken" />
		<tag k="natural" v="slope" />
		<tag k="place" v="locality" />
		<tag k="ssr:stedsnr" v="847309" />
	</node>
	<node id="-842022" lat="68.7479944423" lon="17.7545860977">
		<tag k="name" v="Rundmyrhågen" />
		<tag k="name:no" v="Rundmyrhågen" />
		<tag k="natural" v="hill" />
		<tag k="place" v="locality" />
		<tag k="ssr:stedsnr" v="847306" />
	</node>
	<node id="-842021" lat="68.7440805594" lon="17.7884888904">
		<tag k="name" v="Bjørnmoen" />
		<tag k="name:no" v="Bjørnmoen" />
		<tag k="place" v="locality" />
		<tag k="ssr:stedsnr" v="847287" />
	</node>
	<node id="-842020" lat="68.7436805543" lon="17.7636749923">
		<tag k="name" v="Kviteberget" />
		<tag k="name:no" v="Kviteberget" />
		<tag k="natural" v="hill" />
		<tag k="place" v="locality" />
		<tag k="ssr:stedsnr" v="847286" />
	</node>
	<node id="-842019" lat="68.7845305562" lon="17.6107916522">
		<tag k="name" v="Toften" />
		<tag k="name:no" v="Toften" />
		<tag k="natural" v="slope" />
		<tag k="place" v="locality" />
		<tag k="ssr:stedsnr" v="847266" />
	</node>
	<node id="-842018" lat="68.7749361074" lon="17.6575972092">
		<tag k="name" v="Aksla" />
		<tag k="name:no" v="Aksla" />
		<tag k="place" v="locality" />
		<tag k="ssr:stedsnr" v="847151" />
	</node>
	<node id="-842017" lat="68.7758499977" lon="17.5963222118">
		<tag k="name" v="Gunnarhågen" />
		<tag k="name:no" v="Gunnarhågen" />
		<tag k="natural" v="hill" />
		<tag k="place" v="locality" />
		<tag k="ssr:stedsnr" v="847140" />
	</node>
	<node id="-842016" lat="68.6940888862" lon="17.981647212">
		<tag k="name" v="Furuhaugen" />
		<tag k="name:no" v="Furuhaugen" />
		<tag k="natural" v="hill" />
		<tag k="place" v="locality" />
		<tag k="ssr:stedsnr" v="846760" />
	</node>
	<node id="-842015" lat="68.6968777752" lon="17.9833277844">
		<tag k="name" v="Ranen" />
		<tag k="name:no" v="Ranen" />
		<tag k="natural" v="hill" />
		<tag k="place" v="locality" />
		<tag k="ssr:stedsnr" v="846745" />
	</node>
	<node id="-842010" lat="68.7681972231" lon="17.8163222153">
		<tag k="name" v="Brekka" />
		<tag k="name:no" v="Brekka" />
		<tag k="natural" v="slope" />
		<tag k="place" v="locality" />
		<tag k="ssr:stedsnr" v="846513" />
	</node>
	<node id="-842008" lat="68.7244638855" lon="17.807811114">
		<tag k="loc_name:se" v="Beahceloapmi" />
		<tag k="name" v="Forrhågen" />
		<tag k="name:no" v="Forrhågen" />
		<tag k="natural" v="hill" />
		<tag k="place" v="locality" />
		<tag k="ssr:stedsnr" v="846490" />
	</node>
	<node id="-842007" lat="68.7301388875" lon="17.829169448">
		<tag k="name" v="Litjemyrskaret" />
		<tag k="name:no" v="Litjemyrskaret" />
		<tag k="natural" v="valley" />
		<tag k="place" v="locality" />
		<tag k="ssr:stedsnr" v="846485" />
	</node>
	<node id="-842002" lat="68.7395416639" lon="17.8278388863">
		<tag k="name" v="Oksebakkan" />
		<tag k="name:no" v="Oksebakkan" />
		<tag k="natural" v="slope" />
		<tag k="place" v="locality" />
		<tag k="ssr:stedsnr" v="846433" />
	</node>
	<node id="-842000" lat="68.733911111" lon="17.818841676">
		<tag k="name" v="Forradalen" />
		<tag k="name:no" v="Forradalen" />
		<tag k="natural" v="valley" />
		<tag k="place" v="locality" />
		<tag k="ssr:stedsnr" v="846430" />
	</node>
	<node id="-841999" lat="68.7946666652" lon="17.7724666667">
		<tag k="name" v="Skredklubben" />
		<tag k="name:no" v="Skredklubben" />
		<tag k="natural" v="hill" />
		<tag k="place" v="locality" />
		<tag k="ssr:stedsnr" v="846395" />
	</node>
	<node id="-841998" lat="68.7901166642" lon="17.7871194416">
		<tag k="name" v="Slåken" />
		<tag k="name:no" v="Slåken" />
		<tag k="natural" v="slope" />
		<tag k="place" v="locality" />
		<tag k="ssr:stedsnr" v="846376" />
	</node>
	<node id="-841996" lat="68.7459305522" lon="17.7994055579">
		<tag k="name" v="Grindgongen" />
		<tag k="name:no" v="Grindgongen" />
		<tag k="natural" v="slope" />
		<tag k="place" v="locality" />
		<tag k="ssr:stedsnr" v="846266" />
	</node>
	<node id="-841995" lat="68.7998777775" lon="17.6415333243">
		<tag k="fixme" v="consider natural=peak for the most distinct mountains in the district" />
		<tag k="name" v="Jamtfjellet" />
		<tag k="name:no" v="Jamtfjellet" />
		<tag k="natural" v="hill" />
		<tag k="place" v="locality" />
		<tag k="ssr:stedsnr" v="846197" />
	</node>
	<node id="-841993" lat="68.6864583341" lon="18.043558335">
		<tag k="name" v="Kolbranskaret" />
		<tag k="name:no" v="Kolbranskaret" />
		<tag k="natural" v="valley" />
		<tag k="place" v="locality" />
		<tag k="ssr:stedsnr" v="826648" />
	</node>
	<node id="-841992" lat="68.754355559" lon="17.8597666553">
		<tag k="fixme" v="consider natural=peak for the most distinct mountains in the district" />
		<tag k="name" v="Åsen" />
		<tag k="name:no" v="Åsen" />
		<tag k="natural" v="hill" />
		<tag k="place" v="locality" />
		<tag k="ssr:stedsnr" v="807718" />
	</node>
	<node id="-841989" lat="68.73143333" lon="17.7359027738">
		<tag k="fixme" v="consider natural=peak for the most distinct mountains in the district" />
		<tag k="name" v="Heia" />
		<tag k="name:no" v="Heia" />
		<tag k="natural" v="hill" />
		<tag k="place" v="locality" />
		<tag k="ssr:stedsnr" v="807934" />
	</node>
	<node id="-841988" lat="68.7271805526" lon="17.7316972277">
		<tag k="fixme" v="consider natural=peak for the most distinct mountains in the district" />
		<tag k="name" v="Småtindan" />
		<tag k="name:no" v="Småtindan" />
		<tag k="natural" v="hill" />
		<tag k="place" v="locality" />
		<tag k="ssr:stedsnr" v="807928" />
	</node>
	<node id="-841986" lat="68.7167527782" lon="17.8987333216">
		<tag k="name" v="Rovvesadji" />
		<tag k="name:se" v="Rovvesadji" />
		<tag k="natural" v="slope" />
		<tag k="place" v="locality" />
		<tag k="ssr:stedsnr" v="806618" />
	</node>
	<node id="-841984" lat="68.6466888912" lon="17.9184361036">
		<tag k="name" v="Storbakken" />
		<tag k="name:no" v="Storbakken" />
		<tag k="natural" v="slope" />
		<tag k="place" v="locality" />
		<tag k="ssr:stedsnr" v="786642" />
	</node>
	<node id="-841977" lat="68.7626027816" lon="17.6945722296">
		<tag k="name" v="Løbakkan" />
		<tag k="name:no" v="Løbakkan" />
		<tag k="natural" v="slope" />
		<tag k="place" v="locality" />
		<tag k="ssr:stedsnr" v="786371" />
	</node>
	<node id="-841975" lat="68.7634361097" lon="17.8042305604">
		<tag k="name" v="Storsteinen" />
		<tag k="name:no" v="Storsteinen" />
		<tag k="natural" v="hill" />
		<tag k="place" v="locality" />
		<tag k="ssr:stedsnr" v="786274" />
	</node>
	<node id="-841973" lat="68.7766055562" lon="17.6374333229">
		<tag k="name" v="Middagshågen" />
		<tag k="name:no" v="Middagshågen" />
		<tag k="natural" v="hill" />
		<tag k="place" v="locality" />
		<tag k="ssr:stedsnr" v="786243" />
	</node>
	<node id="-841972" lat="68.7711972183" lon="17.646500008">
		<tag k="name" v="Torvhågan" />
		<tag k="name:no" v="Torvhågan" />
		<tag k="natural" v="hill" />
		<tag k="place" v="locality" />
		<tag k="ssr:stedsnr" v="786125" />
	</node>
	<node id="-841971" lat="68.7780527777" lon="17.8363999881">
		<tag k="name" v="Blomsletta" />
		<tag k="name:no" v="Blomsletta" />
		<tag k="place" v="locality" />
		<tag k="ssr:stedsnr" v="785824" />
	</node>
	<node id="-841970" lat="68.706597221" lon="18.0439805428">
		<tag k="fixme" v="consider natural=peak for the most distinct mountains in the district" />
		<tag k="name" v="Hatten" />
		<tag k="name:no" v="Hatten" />
		<tag k="natural" v="hill" />
		<tag k="place" v="locality" />
		<tag k="ssr:stedsnr" v="785805" />
	</node>
	<node id="-841969" lat="68.6803361089" lon="17.9141916728">
		<tag k="name" v="Gauksletta" />
		<tag k="name:no" v="Gauksletta" />
		<tag k="place" v="locality" />
		<tag k="ssr:stedsnr" v="785755" />
	</node>
	<node id="-841968" lat="68.6927861079" lon="17.9530638925">
		<tag k="name" v="Storhammaren" />
		<tag k="name:no" v="Storhammaren" />
		<tag k="natural" v="hill" />
		<tag k="place" v="locality" />
		<tag k="ssr:stedsnr" v="785751" />
	</node>
	<node id="-841967" lat="68.722894446" lon="17.8312916708">
		<tag k="name" v="Legda" />
		<tag k="name:no" v="Legda" />
		<tag k="natural" v="slope" />
		<tag k="place" v="locality" />
		<tag k="ssr:stedsnr" v="785707" />
	</node>
	<node id="-841964" lat="68.7728333307" lon="17.7394527753">
		<tag k="name" v="Bjørnsletta" />
		<tag k="name:no" v="Bjørnsletta" />
		<tag k="place" v="locality" />
		<tag k="ssr:stedsnr" v="785544" />
	</node>
	<node id="-841962" lat="68.7912444452" lon="17.7758083345">
		<tag k="name" v="Vollen" />
		<tag k="name:no" v="Vollen" />
		<tag k="place" v="locality" />
		<tag k="ssr:stedsnr" v="785523" />
	</node>
	<node id="-841961" lat="68.7718055561" lon="17.8191583272">
		<tag k="name" v="Mølna" />
		<tag k="name:no" v="Mølna" />
		<tag k="natural" v="valley" />
		<tag k="place" v="locality" />
		<tag k="ssr:stedsnr" v="785500" />
	</node>
	<node id="-841960" lat="68.7282555526" lon="17.8183250005">
		<tag k="name" v="Vakkermoflata" />
		<tag k="name:no" v="Vakkermoflata" />
		<tag k="place" v="locality" />
		<tag k="ssr:stedsnr" v="785476" />
	</node>
	<node id="-841959" lat="68.725922225" lon="17.7857250028">
		<tag k="name" v="Hollabakken" />
		<tag k="name:no" v="Hollabakken" />
		<tag k="natural" v="slope" />
		<tag k="place" v="locality" />
		<tag k="ssr:stedsnr" v="785473" />
	</node>
	<node id="-841958" lat="68.7990000019" lon="17.7388583296">
		<tag k="name" v="Tyttebærhågen" />
		<tag k="name:no" v="Tyttebærhågen" />
		<tag k="natural" v="hill" />
		<tag k="place" v="locality" />
		<tag k="ssr:stedsnr" v="785450" />
	</node>
	<node id="-841956" lat="68.7529444447" lon="17.8202833252">
		<tag k="name" v="Einhågsletta" />
		<tag k="name:no" v="Einhågsletta" />
		<tag k="place" v="locality" />
		<tag k="ssr:stedsnr" v="785432" />
	</node>
	<node id="-841955" lat="68.7419388861" lon="17.7669472238">
		<tag k="name" v="Reingjerdan" />
		<tag k="name:no" v="Reingjerdan" />
		<tag k="natural" v="slope" />
		<tag k="place" v="locality" />
		<tag k="ssr:stedsnr" v="785428" />
	</node>
	<node id="-841950" lat="68.7992611093" lon="17.5427444325">
		<tag k="name" v="Bufesletta" />
		<tag k="name:no" v="Bufesletta" />
		<tag k="place" v="locality" />
		<tag k="ssr:stedsnr" v="785203" />
	</node>
	<node id="-841948" lat="68.7959555532" lon="17.536269437">
		<tag k="name" v="Brunen" />
		<tag k="name:no" v="Brunen" />
		<tag k="natural" v="slope" />
		<tag k="place" v="locality" />
		<tag k="ssr:stedsnr" v="785194" />
	</node>
	<node id="-841947" lat="68.7888916709" lon="17.5344722267">
		<tag k="name" v="Vardhågen" />
		<tag k="name:no" v="Vardhågen" />
		<tag k="natural" v="hill" />
		<tag k="place" v="locality" />
		<tag k="ssr:stedsnr" v="785188" />
	</node>
	<node id="-841946" lat="68.8143722219" lon="17.836397223">
		<tag k="name" v="Butoften" />
		<tag k="name:no" v="Butoften" />
		<tag k="natural" v="slope" />
		<tag k="place" v="locality" />
		<tag k="ssr:stedsnr" v="784243" />
	</node>
	<node id="-841942" lat="68.7473499998" lon="17.6343166675">
		<tag k="fixme" v="consider natural=peak for the most distinct mountains in the district" />
		<tag k="name" v="Rundkollen" />
		<tag k="name:no" v="Rundkollen" />
		<tag k="natural" v="hill" />
		<tag k="place" v="locality" />
		<tag k="ssr:stedsnr" v="746882" />
	</node>
	<node id="-841940" lat="68.6911666661" lon="18.0087055571">
		<tag k="name" v="Ørnberget" />
		<tag k="name:no" v="Ørnberget" />
		<tag k="natural" v="hill" />
		<tag k="place" v="locality" />
		<tag k="ssr:stedsnr" v="745389" />
	</node>
	<node id="-841938" lat="68.7372000032" lon="17.8407250018">
		<tag k="fixme" v="consider natural=peak for the most distinct mountains in the district" />
		<tag k="name" v="Innertuva" />
		<tag k="name:no" v="Innertuva" />
		<tag k="natural" v="hill" />
		<tag k="place" v="locality" />
		<tag k="ssr:stedsnr" v="633828" />
	</node>
	<node id="-841934" lat="68.7589111149" lon="17.8370805588">
		<tag k="fixme" v="multiple name tags, choose one and add the other to alt_name; consider natural=peak for the most distinct mountains in the district" />
		<tag k="name" v="Nevet;Varden" />
		<tag k="name:no" v="Nevet;Varden" />
		<tag k="natural" v="hill" />
		<tag k="place" v="locality" />
		<tag k="ssr:stedsnr" v="624733" />
	</node>
	<node id="-841932" lat="68.7736166661" lon="17.6102194453">
		<tag k="name" v="Heia" />
		<tag k="name:no" v="Heia" />
		<tag k="natural" v="hill" />
		<tag k="place" v="locality" />
		<tag k="ssr:stedsnr" v="624716" />
	</node>
	<node id="-841931" lat="68.7877138915" lon="17.8130194411">
		<tag k="name" v="Kvitholtan" />
		<tag k="name:no" v="Kvitholtan" />
		<tag k="natural" v="hill" />
		<tag k="place" v="locality" />
		<tag k="ssr:stedsnr" v="624708" />
	</node>
	<node id="-841930" lat="68.8010000011" lon="17.8904972153">
		<tag k="fixme" v="consider natural=peak for the most distinct mountains in the district" />
		<tag k="name" v="Soløyheia" />
		<tag k="name:no" v="Soløyheia" />
		<tag k="natural" v="hill" />
		<tag k="place" v="locality" />
		<tag k="ssr:stedsnr" v="624697" />
	</node>
	<node id="-841928" lat="68.7088555536" lon="18.0512110987">
		<tag k="fixme" v="multiple name tags, choose one and add the other to alt_name; consider natural=peak for the most distinct mountains in the district" />
		<tag k="name" v="Hatten;Lappjordfjellet" />
		<tag k="natural" v="hill" />
		<tag k="place" v="locality" />
		<tag k="ssr:stedsnr" v="624656" />
	</node>
	<node id="-841924" lat="68.7031527738" lon="17.9175888826">
		<tag k="fixme" v="consider natural=peak for the most distinct mountains in the district" />
		<tag k="loc_name:se" v="Sniipaoalgi" />
		<tag k="name" v="Spansdalaksla" />
		<tag k="name:no" v="Spansdalaksla" />
		<tag k="natural" v="hill" />
		<tag k="place" v="locality" />
		<tag k="ssr:stedsnr" v="624583" />
	</node>
	<node id="-841921" lat="68.6307444407" lon="17.8217222113">
		<tag k="fixme" v="consider natural=peak for the most distinct mountains in the district" />
		<tag k="name" v="Litletinden" />
		<tag k="natural" v="hill" />
		<tag k="place" v="locality" />
		<tag k="ssr:stedsnr" v="624508" />
	</node>
	<node id="-841918" lat="68.7593055536" lon="17.8226250005">
		<tag k="name" v="Bukkåmen" />
		<tag k="name:no" v="Bukkåmen" />
		<tag k="natural" v="hill" />
		<tag k="place" v="locality" />
		<tag k="ssr:stedsnr" v="604301" />
	</node>
	<node id="-841916" lat="68.7444194425" lon="17.7590416602">
		<tag k="name" v="Vedhågen" />
		<tag k="name:no" v="Vedhågen" />
		<tag k="natural" v="hill" />
		<tag k="place" v="locality" />
		<tag k="ssr:stedsnr" v="604279" />
	</node>
	<node id="-841913" lat="68.7675611107" lon="17.6653833238">
		<tag k="name" v="Gunnarheimen" />
		<tag k="name:no" v="Gunnarheimen" />
		<tag k="natural" v="slope" />
		<tag k="place" v="locality" />
		<tag k="ssr:stedsnr" v="604145" />
	</node>
	<node id="-841912" lat="68.773208332" lon="17.6642027656">
		<tag k="fixme" v="consider natural=peak for the most distinct mountains in the district" />
		<tag k="name" v="Torvhågen" />
		<tag k="name:no" v="Torvhågen" />
		<tag k="natural" v="hill" />
		<tag k="place" v="locality" />
		<tag k="ssr:stedsnr" v="604142" />
	</node>
	<node id="-841911" lat="68.7712777808" lon="17.8341499875">
		<tag k="name" v="Elvebakken" />
		<tag k="name:no" v="Elvebakken" />
		<tag k="natural" v="slope" />
		<tag k="place" v="locality" />
		<tag k="ssr:stedsnr" v="602815" />
	</node>
	<node id="-841910" lat="68.7660000027" lon="17.896624992">
		<tag k="name" v="Soløybotn" />
		<tag k="name:no" v="Soløybotn" />
		<tag k="natural" v="valley" />
		<tag k="place" v="locality" />
		<tag k="ssr:stedsnr" v="602814" />
	</node>
	<node id="-841908" lat="68.7653750006" lon="17.7509916632">
		<tag k="name" v="Kattemarkflaten" />
		<tag k="name:no" v="Kattemarkflaten" />
		<tag k="place" v="locality" />
		<tag k="ssr:stedsnr" v="602582" />
	</node>
	<node id="-841906" lat="68.7857583325" lon="17.7797583353">
		<tag k="name" v="Ramneberget" />
		<tag k="name:no" v="Ramneberget" />
		<tag k="natural" v="hill" />
		<tag k="place" v="locality" />
		<tag k="ssr:stedsnr" v="602578" />
	</node>
	<node id="-841904" lat="68.7657638929" lon="17.8196805489">
		<tag k="name" v="Brekkemoen" />
		<tag k="name:no" v="Brekkemoen" />
		<tag k="place" v="locality" />
		<tag k="ssr:stedsnr" v="602533" />
	</node>
	<node id="-841902" lat="68.7226833353" lon="17.8251583264">
		<tag k="name" v="Storlia" />
		<tag k="name:no" v="Storlia" />
		<tag k="natural" v="slope" />
		<tag k="place" v="locality" />
		<tag k="ssr:stedsnr" v="602505" />
	</node>
	<node id="-841901" lat="68.7434916663" lon="17.8057305483">
		<tag k="name" v="Melan" />
		<tag k="name:no" v="Melan" />
		<tag k="natural" v="slope" />
		<tag k="place" v="locality" />
		<tag k="ssr:stedsnr" v="602305" />
	</node>
	<node id="-841899" lat="68.7963527761" lon="17.7304500011">
		<tag k="name" v="Einhågen" />
		<tag k="name:no" v="Einhågen" />
		<tag k="natural" v="hill" />
		<tag k="place" v="locality" />
		<tag k="ssr:stedsnr" v="602420" />
	</node>
	<node id="-841897" lat="68.6880777811" lon="18.0137194482">
		<tag k="name" v="Langbakken" />
		<tag k="name:no" v="Langbakken" />
		<tag k="natural" v="slope" />
		<tag k="place" v="locality" />
		<tag k="ssr:stedsnr" v="597376" />
	</node>
	<node id="-841894" lat="68.7618388929" lon="17.6697472276">
		<tag k="name" v="Keiprøddalen" />
		<tag k="name:no" v="Keiprøddalen" />
		<tag k="natural" v="valley" />
		<tag k="place" v="locality" />
		<tag k="ssr:stedsnr" v="567390" />
	</node>
	<node id="-841893" lat="68.7342972197" lon="17.8551861195">
		<tag k="fixme" v="multiple name tags, choose one and add the other to alt_name; consider natural=peak for the most distinct mountains in the district" />
		<tag k="name" v="Váráš;Gásttát" />
		<tag k="name:se" v="Váráš;Gásttát" />
		<tag k="natural" v="hill" />
		<tag k="old_name:se" v="Gastat" />
		<tag k="place" v="locality" />
		<tag k="ssr:stedsnr" v="563950" />
	</node>
	<node id="-841886" lat="68.8018722255" lon="17.6798388869">
		<tag k="alt_name:no" v="Storhompen" />
		<tag k="fixme" v="consider natural=peak for the most distinct mountains in the district" />
		<tag k="name" v="Storhumpen" />
		<tag k="name:no" v="Storhumpen" />
		<tag k="natural" v="hill" />
		<tag k="place" v="locality" />
		<tag k="ssr:stedsnr" v="563735" />
	</node>
	<node id="-841885" lat="68.8106027769" lon="17.7678972127">
		<tag k="name" v="Gielas" />
		<tag k="name:se" v="Gielas" />
		<tag k="place" v="locality" />
		<tag k="ssr:stedsnr" v="563726" />
	</node>
	<node id="-841884" lat="68.8254194455" lon="17.6549999963">
		<tag k="name" v="Bergsvikskardet" />
		<tag k="natural" v="valley" />
		<tag k="place" v="locality" />
		<tag k="ssr:stedsnr" v="563717" />
	</node>
	<node id="-841881" lat="68.7722138895" lon="17.9565833281">
		<tag k="fixme" v="consider natural=peak for the most distinct mountains in the district" />
		<tag k="name" v="Blåfjellet" />
		<tag k="name:no" v="Blåfjellet" />
		<tag k="natural" v="hill" />
		<tag k="place" v="locality" />
		<tag k="ssr:stedsnr" v="563269" />
	</node>
	<node id="-841879" lat="68.6393972248" lon="17.9246999989">
		<tag k="name" v="Tverrelvflaten" />
		<tag k="name:no" v="Tverrelvflaten" />
		<tag k="place" v="locality" />
		<tag k="ssr:stedsnr" v="543591" />
	</node>
	<node id="-841878" lat="68.6705805513" lon="17.8768944451">
		<tag k="name" v="Lapphauglia" />
		<tag k="name:no" v="Lapphauglia" />
		<tag k="natural" v="slope" />
		<tag k="place" v="locality" />
		<tag k="ssr:stedsnr" v="543527" />
	</node>
	<node id="-841877" lat="68.6739222271" lon="17.9211999895">
		<tag k="name" v="Reingjerdan" />
		<tag k="name:no" v="Reingjerdan" />
		<tag k="natural" v="slope" />
		<tag k="place" v="locality" />
		<tag k="ssr:stedsnr" v="543526" />
	</node>
	<node id="-841873" lat="68.7543944459" lon="17.8269777727">
		<tag k="name" v="Rødbergan" />
		<tag k="name:no" v="Rødbergan" />
		<tag k="natural" v="hill" />
		<tag k="place" v="locality" />
		<tag k="ssr:stedsnr" v="543299" />
	</node>
	<node id="-841872" lat="68.7605638861" lon="17.8236499959">
		<tag k="name" v="Svartflåget" />
		<tag k="name:no" v="Svartflåget" />
		<tag k="natural" v="hill" />
		<tag k="place" v="locality" />
		<tag k="ssr:stedsnr" v="543292" />
	</node>
	<node id="-841871" lat="68.7827027811" lon="17.6024999927">
		<tag k="name" v="Bjørnbergan" />
		<tag k="name:no" v="Bjørnbergan" />
		<tag k="natural" v="hill" />
		<tag k="place" v="locality" />
		<tag k="ssr:stedsnr" v="543259" />
	</node>
	<node id="-841870" lat="68.7214222253" lon="17.8692361141">
		<tag k="name" v="Čoaffi - Aksla" />
		<tag k="name:no" v="Aksla" />
		<tag k="name:se" v="Čoaffi" />
		<tag k="place" v="locality" />
		<tag k="ssr:stedsnr" v="542717" />
	</node>
	<node id="-841869" lat="68.7404944439" lon="17.8513583388">
		<tag k="fixme" v="consider natural=peak for the most distinct mountains in the district" />
		<tag k="name" v="Renbergan" />
		<tag k="name:no" v="Renbergan" />
		<tag k="natural" v="hill" />
		<tag k="place" v="locality" />
		<tag k="ssr:stedsnr" v="542710" />
	</node>
	<node id="-841868" lat="68.6823166622" lon="17.9397388942">
		<tag k="name" v="Jordbrumoen" />
		<tag k="name:no" v="Jordbrumoen" />
		<tag k="place" v="locality" />
		<tag k="ssr:stedsnr" v="542769" />
	</node>
	<node id="-841867" lat="68.6908444449" lon="17.9802277838">
		<tag k="name" v="Vinterveiranen" />
		<tag k="name:no" v="Vinterveiranen" />
		<tag k="natural" v="hill" />
		<tag k="place" v="locality" />
		<tag k="ssr:stedsnr" v="542763" />
	</node>
	<node id="-841866" lat="68.7791611132" lon="17.8102277879">
		<tag k="name" v="Holmedalen" />
		<tag k="name:no" v="Holmedalen" />
		<tag k="natural" v="valley" />
		<tag k="place" v="locality" />
		<tag k="ssr:stedsnr" v="542547" />
	</node>
	<node id="-841864" lat="68.7878194462" lon="17.7968722095">
		<tag k="name" v="Åelvdalen" />
		<tag k="name:no" v="Åelvdalen" />
		<tag k="natural" v="valley" />
		<tag k="place" v="locality" />
		<tag k="ssr:stedsnr" v="542542" />
	</node>
	<node id="-841862" lat="68.7297333367" lon="17.8055083421">
		<tag k="name" v="Hesjeflaten" />
		<tag k="name:no" v="Hesjeflaten" />
		<tag k="place" v="locality" />
		<tag k="ssr:stedsnr" v="542492" />
	</node>
	<node id="-841861" lat="68.8015527777" lon="17.7302444353">
		<tag k="name" v="Juret" />
		<tag k="name:no" v="Juret" />
		<tag k="natural" v="slope" />
		<tag k="place" v="locality" />
		<tag k="ssr:stedsnr" v="542487" />
	</node>
	<node id="-841856" lat="68.7394138845" lon="17.7912666655">
		<tag k="name" v="Storhågen" />
		<tag k="name:no" v="Storhågen" />
		<tag k="natural" v="hill" />
		<tag k="place" v="locality" />
		<tag k="ssr:stedsnr" v="542470" />
	</node>
	<node id="-841855" lat="68.7420027824" lon="17.7943138816">
		<tag k="name" v="Hestinndalen" />
		<tag k="name:no" v="Hestinndalen" />
		<tag k="natural" v="valley" />
		<tag k="place" v="locality" />
		<tag k="ssr:stedsnr" v="542466" />
	</node>
	<node id="-841854" lat="68.7382694444" lon="17.8089055549">
		<tag k="name" v="Meldalen" />
		<tag k="name:no" v="Meldalen" />
		<tag k="natural" v="valley" />
		<tag k="place" v="locality" />
		<tag k="ssr:stedsnr" v="542458" />
	</node>
	<node id="-841852" lat="68.7965666673" lon="17.7692083408">
		<tag k="name" v="Saubakkan" />
		<tag k="name:no" v="Saubakkan" />
		<tag k="natural" v="slope" />
		<tag k="place" v="locality" />
		<tag k="ssr:stedsnr" v="542401" />
	</node>
	<node id="-841849" lat="68.6830638916" lon="17.9775611048">
		<tag k="name" v="Hestebakken" />
		<tag k="name:no" v="Hestebakken" />
		<tag k="natural" v="slope" />
		<tag k="place" v="locality" />
		<tag k="ssr:stedsnr" v="542689" />
	</node>
	<node id="-841847" lat="68.8045555581" lon="17.5301083436">
		<tag k="name" v="Bjørnberget" />
		<tag k="name:no" v="Bjørnberget" />
		<tag k="natural" v="hill" />
		<tag k="place" v="locality" />
		<tag k="ssr:stedsnr" v="542201" />
	</node>
	<node id="-841845" lat="68.6963000018" lon="18.0349999944">
		<tag k="name" v="Seljebakken" />
		<tag k="name:no" v="Seljebakken" />
		<tag k="natural" v="slope" />
		<tag k="place" v="locality" />
		<tag k="ssr:stedsnr" v="536750" />
	</node>
	<node id="-841842" lat="68.6944861119" lon="17.9896499876">
		<tag k="name" v="Sandbakken" />
		<tag k="name:no" v="Sandbakken" />
		<tag k="natural" v="slope" />
		<tag k="place" v="locality" />
		<tag k="ssr:stedsnr" v="536373" />
	</node>
	<node id="-841841" lat="68.6503111111" lon="17.9238333414">
		<tag k="name" v="Langbergan" />
		<tag k="name:no" v="Langbergan" />
		<tag k="natural" v="hill" />
		<tag k="place" v="locality" />
		<tag k="ssr:stedsnr" v="423647" />
	</node>
	<node id="-841838" lat="68.7188166674" lon="17.8904499928">
		<tag k="name" v="Vilgesbákti - Kviteberget" />
		<tag k="name:no" v="Kviteberget" />
		<tag k="name:se" v="Vilgesbákti" />
		<tag k="natural" v="hill" />
		<tag k="place" v="locality" />
		<tag k="ssr:stedsnr" v="422623" />
	</node>
	<node id="-841837" lat="68.7613527756" lon="17.7626500073">
		<tag k="name" v="Mellabakkan" />
		<tag k="name:no" v="Mellabakkan" />
		<tag k="natural" v="slope" />
		<tag k="place" v="locality" />
		<tag k="ssr:stedsnr" v="422363" />
	</node>
	<node id="-841836" lat="68.7545138937" lon="17.8213749899">
		<tag k="name" v="Storsteinbakken" />
		<tag k="name:no" v="Storsteinbakken" />
		<tag k="natural" v="slope" />
		<tag k="place" v="locality" />
		<tag k="ssr:stedsnr" v="422276" />
	</node>
	<node id="-841835" lat="68.7475000022" lon="17.7628138889">
		<tag k="name" v="Kista" />
		<tag k="name:no" v="Kista" />
		<tag k="place" v="locality" />
		<tag k="ssr:stedsnr" v="422269" />
	</node>
	<node id="-841834" lat="68.761005553" lon="17.8041249895">
		<tag k="name" v="Hesteberget" />
		<tag k="name:no" v="Hesteberget" />
		<tag k="natural" v="hill" />
		<tag k="place" v="locality" />
		<tag k="ssr:stedsnr" v="422258" />
	</node>
	<node id="-841831" lat="68.7852388877" lon="17.6102305584">
		<tag k="name" v="Hesthagan" />
		<tag k="name:no" v="Hesthagan" />
		<tag k="natural" v="hill" />
		<tag k="place" v="locality" />
		<tag k="ssr:stedsnr" v="422225" />
	</node>
	<node id="-841830" lat="68.7776583348" lon="17.6418694537">
		<tag k="name" v="Kartemyrberget" />
		<tag k="name:no" v="Kartemyrberget" />
		<tag k="natural" v="hill" />
		<tag k="place" v="locality" />
		<tag k="ssr:stedsnr" v="422131" />
	</node>
	<node id="-841828" lat="68.7808916646" lon="17.6680444382">
		<tag k="name" v="Høyberget" />
		<tag k="name:no" v="Høyberget" />
		<tag k="natural" v="hill" />
		<tag k="place" v="locality" />
		<tag k="ssr:stedsnr" v="422122" />
	</node>
	<node id="-841824" lat="68.6958138903" lon="17.9753610963">
		<tag k="name" v="Bruflaten" />
		<tag k="name:no" v="Bruflaten" />
		<tag k="place" v="locality" />
		<tag k="ssr:stedsnr" v="421770" />
	</node>
	<node id="-841823" lat="68.6942666686" lon="17.9608361032">
		<tag k="name" v="Storsteinbakken" />
		<tag k="name:no" v="Storsteinbakken" />
		<tag k="natural" v="slope" />
		<tag k="place" v="locality" />
		<tag k="ssr:stedsnr" v="421767" />
	</node>
	<node id="-841822" lat="68.7696361084" lon="17.8156388839">
		<tag k="name" v="Stengesletta" />
		<tag k="name:no" v="Stengesletta" />
		<tag k="place" v="locality" />
		<tag k="ssr:stedsnr" v="421549" />
	</node>
	<node id="-841815" lat="68.76798889" lon="17.6967833193">
		<tag k="name" v="Stavhammarmoen" />
		<tag k="name:no" v="Stavhammarmoen" />
		<tag k="place" v="locality" />
		<tag k="ssr:stedsnr" v="421534" />
	</node>
	<node id="-841813" lat="68.7975472225" lon="17.6995527634">
		<tag k="name" v="Huskubergan" />
		<tag k="name:no" v="Huskubergan" />
		<tag k="natural" v="hill" />
		<tag k="place" v="locality" />
		<tag k="ssr:stedsnr" v="421470" />
	</node>
	<node id="-841810" lat="68.7388305536" lon="17.7709888888">
		<tag k="name" v="Trehopen" />
		<tag k="name:no" v="Trehopen" />
		<tag k="natural" v="hill" />
		<tag k="place" v="locality" />
		<tag k="ssr:stedsnr" v="421459" />
	</node>
	<node id="-841809" lat="68.7359944416" lon="17.8101527722">
		<tag k="name" v="Kjerringlia" />
		<tag k="name:no" v="Kjerringlia" />
		<tag k="natural" v="slope" />
		<tag k="place" v="locality" />
		<tag k="ssr:stedsnr" v="421456" />
	</node>
	<node id="-841808" lat="68.7374833342" lon="17.8156833225">
		<tag k="name" v="Kjerringdalen" />
		<tag k="name:no" v="Kjerringdalen" />
		<tag k="natural" v="valley" />
		<tag k="place" v="locality" />
		<tag k="ssr:stedsnr" v="421439" />
	</node>
	<node id="-841807" lat="68.7524527757" lon="17.6633027673">
		<tag k="name" v="Heia" />
		<tag k="name:no" v="Heia" />
		<tag k="natural" v="hill" />
		<tag k="place" v="locality" />
		<tag k="ssr:stedsnr" v="421188" />
	</node>
	<node id="-841806" lat="68.8062666659" lon="17.5243249869">
		<tag k="name" v="Rødberget" />
		<tag k="name:no" v="Rødberget" />
		<tag k="natural" v="hill" />
		<tag k="place" v="locality" />
		<tag k="ssr:stedsnr" v="421187" />
	</node>
	<node id="-841805" lat="68.7979861137" lon="17.5445083209">
		<tag k="name" v="Svarteberget" />
		<tag k="name:no" v="Svarteberget" />
		<tag k="natural" v="hill" />
		<tag k="place" v="locality" />
		<tag k="ssr:stedsnr" v="421181" />
	</node>
	<node id="-841801" lat="68.716563886" lon="17.8925305584">
		<tag k="name" v="Juovvabuvki" />
		<tag k="name:se" v="Juovvabuvki" />
		<tag k="natural" v="slope" />
		<tag k="place" v="locality" />
		<tag k="ssr:stedsnr" v="385630" />
	</node>
	<node id="-841791" lat="68.8235916627" lon="17.7739916619">
		<tag k="fixme" v="consider natural=peak for the most distinct mountains in the district" />
		<tag k="name" v="Gielasnjunni" />
		<tag k="name:se" v="Gielasnjunni" />
		<tag k="natural" v="hill" />
		<tag k="place" v="locality" />
		<tag k="ssr:stedsnr" v="381712" />
	</node>
	<node id="-841790" lat="68.6729277793" lon="18.0485499924">
		<tag k="fixme" v="consider natural=peak for the most distinct mountains in the district" />
		<tag k="name" v="Flåget" />
		<tag k="name:no" v="Flåget" />
		<tag k="natural" v="hill" />
		<tag k="place" v="locality" />
		<tag k="ssr:stedsnr" v="381330" />
	</node>
	<node id="-841789" lat="68.7141000021" lon="17.9031805513">
		<tag k="name" v="Brulemmen" />
		<tag k="name:no" v="Brulemmen" />
		<tag k="natural" v="slope" />
		<tag k="place" v="locality" />
		<tag k="ssr:stedsnr" v="361651" />
	</node>
	<node id="-841788" lat="68.775897219" lon="17.6505777702">
		<tag k="name" v="Mellabakken" />
		<tag k="name:no" v="Mellabakken" />
		<tag k="natural" v="slope" />
		<tag k="place" v="locality" />
		<tag k="ssr:stedsnr" v="361125" />
	</node>
	<node id="-841786" lat="68.7866777816" lon="17.6013055458">
		<tag k="name" v="Kviteberget" />
		<tag k="name:no" v="Kviteberget" />
		<tag k="natural" v="hill" />
		<tag k="place" v="locality" />
		<tag k="ssr:stedsnr" v="361277" />
	</node>
	<node id="-841781" lat="68.7768138899" lon="17.8148361101">
		<tag k="name" v="Vargedalen" />
		<tag k="name:no" v="Vargedalen" />
		<tag k="natural" v="valley" />
		<tag k="place" v="locality" />
		<tag k="ssr:stedsnr" v="360534" />
	</node>
	<node id="-841780" lat="68.7793888852" lon="17.8035666578">
		<tag k="name" v="Soløybrekka" />
		<tag k="name:no" v="Soløybrekka" />
		<tag k="natural" v="slope" />
		<tag k="place" v="locality" />
		<tag k="ssr:stedsnr" v="360529" />
	</node>
	<node id="-841779" lat="68.7843611101" lon="17.8046888842">
		<tag k="name" v="Asphågen" />
		<tag k="name:no" v="Asphågen" />
		<tag k="natural" v="hill" />
		<tag k="place" v="locality" />
		<tag k="ssr:stedsnr" v="360528" />
	</node>
	<node id="-841777" lat="68.7983750043" lon="17.7353611158">
		<tag k="name" v="Kvitefløyet" />
		<tag k="name:no" v="Kvitefløyet" />
		<tag k="natural" v="hill" />
		<tag k="place" v="locality" />
		<tag k="ssr:stedsnr" v="360441" />
	</node>
	<node id="-841776" lat="68.7977777776" lon="17.711458323">
		<tag k="name" v="Smålian" />
		<tag k="name:no" v="Smålian" />
		<tag k="natural" v="slope" />
		<tag k="place" v="locality" />
		<tag k="ssr:stedsnr" v="360437" />
	</node>
	<node id="-841775" lat="68.7310666651" lon="17.8144527829">
		<tag k="name" v="Lyngmoflata" />
		<tag k="name:no" v="Lyngmoflata" />
		<tag k="place" v="locality" />
		<tag k="ssr:stedsnr" v="360466" />
	</node>
	<node id="-841774" lat="68.7305500037" lon="17.8217805617">
		<tag k="name" v="Kvilarneset" />
		<tag k="name:no" v="Kvilarneset" />
		<tag k="natural" v="hill" />
		<tag k="place" v="locality" />
		<tag k="ssr:stedsnr" v="360456" />
	</node>
	<node id="-841773" lat="68.7384166676" lon="17.7913166676">
		<tag k="name" v="Stuvhøggan" />
		<tag k="name:no" v="Stuvhøggan" />
		<tag k="natural" v="hill" />
		<tag k="place" v="locality" />
		<tag k="ssr:stedsnr" v="360425" />
	</node>
	<node id="-841772" lat="68.7406416685" lon="17.7853611203">
		<tag k="name" v="Litjemoen" />
		<tag k="name:no" v="Litjemoen" />
		<tag k="place" v="locality" />
		<tag k="ssr:stedsnr" v="360422" />
	</node>
	<node id="-841771" lat="68.7953944439" lon="17.7408194445">
		<tag k="name" v="Bulihamran" />
		<tag k="name:no" v="Bulihamran" />
		<tag k="natural" v="hill" />
		<tag k="place" v="locality" />
		<tag k="ssr:stedsnr" v="360378" />
	</node>
	<node id="-841770" lat="68.69171667" lon="17.9945111168">
		<tag k="name" v="Storhaugen" />
		<tag k="name:no" v="Storhaugen" />
		<tag k="natural" v="hill" />
		<tag k="place" v="locality" />
		<tag k="ssr:stedsnr" v="353739" />
	</node>
	<node id="-841764" lat="68.7847111125" lon="17.5409333206">
		<tag k="alt_name:no" v="Karihaugen" />
		<tag k="name" v="Karihågen" />
		<tag k="name:no" v="Karihågen" />
		<tag k="natural" v="hill" />
		<tag k="place" v="locality" />
		<tag k="ssr:stedsnr" v="321688" />
	</node>
	<node id="-841761" lat="68.8002972206" lon="17.8629750056">
		<tag k="name" v="Heasttanjunni" />
		<tag k="name:se" v="Heasttanjunni" />
		<tag k="natural" v="ridge" />
		<tag k="place" v="locality" />
		<tag k="ssr:stedsnr" v="321669" />
	</node>
	<node id="-841760" lat="68.7014527769" lon="17.9972000076">
		<tag k="name" v="Bakdalen" />
		<tag k="name:no" v="Bakdalen" />
		<tag k="natural" v="valley" />
		<tag k="place" v="locality" />
		<tag k="ssr:stedsnr" v="321624" />
	</node>
	<node id="-841759" lat="68.7203416638" lon="17.875227784">
		<tag k="name" v="Rokkadievajuovat" />
		<tag k="name:se" v="Rokkadievajuovat" />
		<tag k="natural" v="cliff" />
		<tag k="ssr:stedsnr" v="321588" />
	</node>
	<node id="-841756" lat="68.6771555525" lon="18.0160944406">
		<tag k="name" v="Soløybotn" />
		<tag k="name:no" v="Soløybotn" />
		<tag k="natural" v="valley" />
		<tag k="place" v="locality" />
		<tag k="ssr:stedsnr" v="321348" />
	</node>
	<node id="-841755" lat="68.6848277813" lon="18.0324777876">
		<tag k="name" v="Bjørnholet" />
		<tag k="name:no" v="Bjørnholet" />
		<tag k="natural" v="valley" />
		<tag k="place" v="locality" />
		<tag k="ssr:stedsnr" v="321339" />
	</node>
	<node id="-841753" lat="68.6938472241" lon="18.0140277684">
		<tag k="name" v="Styggedalen" />
		<tag k="name:no" v="Styggedalen" />
		<tag k="natural" v="valley" />
		<tag k="place" v="locality" />
		<tag k="ssr:stedsnr" v="321318" />
	</node>
	<node id="-841752" lat="68.6465166709" lon="17.930358335">
		<tag k="name" v="Gråbergan" />
		<tag k="name:no" v="Gråbergan" />
		<tag k="natural" v="hill" />
		<tag k="place" v="locality" />
		<tag k="ssr:stedsnr" v="301612" />
	</node>
	<node id="-841750" lat="68.6672888886" lon="17.8348555601">
		<tag k="name" v="Bukkemyrhøgda" />
		<tag k="name:no" v="Bukkemyrhøgda" />
		<tag k="natural" v="hill" />
		<tag k="place" v="locality" />
		<tag k="ssr:stedsnr" v="301549" />
	</node>
	<node id="-841748" lat="68.7728972223" lon="17.8133000079">
		<tag k="name" v="Mørkedalen" />
		<tag k="name:no" v="Mørkedalen" />
		<tag k="natural" v="valley" />
		<tag k="place" v="locality" />
		<tag k="ssr:stedsnr" v="301532" />
	</node>
	<node id="-841747" lat="68.8182638878" lon="17.8204138951">
		<tag k="name" v="Myrbakkan" />
		<tag k="name:no" v="Myrbakkan" />
		<tag k="natural" v="slope" />
		<tag k="place" v="locality" />
		<tag k="ssr:stedsnr" v="301530" />
	</node>
	<node id="-841746" lat="68.7490055578" lon="17.7887083397">
		<tag k="name" v="Teigholla" />
		<tag k="name:no" v="Teigholla" />
		<tag k="natural" v="slope" />
		<tag k="place" v="locality" />
		<tag k="ssr:stedsnr" v="301248" />
	</node>
	<node id="-841743" lat="68.8071000032" lon="17.5202777861">
		<tag k="alt_name:no" v="Slettan" />
		<tag k="name" v="Slettene" />
		<tag k="name:no" v="Slettene" />
		<tag k="place" v="locality" />
		<tag k="ssr:stedsnr" v="212954" />
	</node>
	<node id="-841739" lat="68.7400305518" lon="17.9675972125">
		<tag k="fixme" v="consider natural=peak for the most distinct mountains in the district" />
		<tag k="name" v="Roggoaivvit" />
		<tag k="name:se" v="Roggoaivvit" />
		<tag k="natural" v="hill" />
		<tag k="place" v="locality" />
		<tag k="ssr:stedsnr" v="200928" />
	</node>
	<node id="-841736" lat="68.7188816249" lon="17.8784292596">
		<tag k="name" v="Skredberget" />
		<tag k="name:no" v="Skredberget" />
		<tag k="natural" v="hill" />
		<tag k="place" v="locality" />
		<tag k="ssr:stedsnr" v="199933" />
	</node>
	<node id="-841733" lat="68.615661114" lon="17.7923972311">
		<tag k="fixme" v="consider natural=peak for the most distinct mountains in the district" />
		<tag k="name" v="Britatinden" />
		<tag k="natural" v="hill" />
		<tag k="place" v="locality" />
		<tag k="ssr:stedsnr" v="199553" />
	</node>
	<node id="-841730" lat="68.7341388927" lon="17.8528722251">
		<tag k="fixme" v="consider natural=peak for the most distinct mountains in the district" />
		<tag k="loc_name:se" v="Jorbagirku" />
		<tag k="name" v="Kolkjerka" />
		<tag k="name:no" v="Kolkjerka" />
		<tag k="natural" v="hill" />
		<tag k="place" v="locality" />
		<tag k="ssr:stedsnr" v="181480" />
	</node>
	<node id="-841729" lat="68.7185055542" lon="17.8854944352">
		<tag k="name" v="Sávzanjunni - Saunesen" />
		<tag k="name:no" v="Saunesen" />
		<tag k="name:se" v="Sávzanjunni" />
		<tag k="natural" v="slope" />
		<tag k="place" v="locality" />
		<tag k="ssr:stedsnr" v="180626" />
	</node>
</osm>
