<?xml version="1.0" encoding="UTF-8"?>
<osm version="0.6" generator="osmapis">
	<node lat="68.65753610823965" lon="17.870058321789607" id="-97334">
		<tag k="fixme" v="consider natural=peak for the most distinct mountains in the district" />
		<tag k="name" v="Silbavárri - Sølvfjellet" />
		<tag k="name:no" v="Sølvfjellet" />
		<tag k="name:se" v="Silbavárri" />
		<tag k="natural" v="hill" />
		<tag k="old_name:se" v="Silbavarri" />
		<tag k="place" v="locality" />
		<tag k="ssr:stedsnr" v="17213" />
	</node>
	<node lat="68.6983555542831" lon="17.846080563659676" id="-97335">
		<tag k="name" v="Spanstindvatnet" />
		<tag k="natural" v="water" />
		<tag k="ssr:stedsnr" v="17572" />
	</node>
	<node lat="68.75545555583179" lon="17.676036108308875" id="-97336">
		<tag k="name" v="Tverrelva" />
		<tag k="ssr:stedsnr" v="18247" />
		<tag k="waterway" v="stream" />
	</node>
	<node lat="68.6998833326743" lon="17.868302764363158" id="-97337">
		<tag k="fixme" v="consider natural=peak for the most distinct mountains in the district" />
		<tag k="loc_name:se" v="Stuorčohkka;Stuora Suobddek" />
		<tag k="name" v="Spanstinden" />
		<tag k="name:no" v="Spanstinden" />
		<tag k="natural" v="hill" />
		<tag k="place" v="locality" />
		<tag k="ssr:stedsnr" v="21582" />
	</node>
	<node lat="68.8129944409544" lon="17.849547223298888" id="-97338">
		<tag k="name" v="Fjellelva" />
		<tag k="ssr:stedsnr" v="56215" />
		<tag k="waterway" v="stream" />
	</node>
	<node lat="68.82026111277374" lon="17.847524989740915" id="-97339">
		<tag k="name" v="Fielmmesrohtu" />
		<tag k="name:se" v="Fielmmesrohtu" />
		<tag k="place" v="locality" />
		<tag k="ssr:stedsnr" v="56220" />
	</node>
	<node lat="68.78139444639511" lon="17.5928833396007" id="-97340">
		<tag k="name" v="Storhågen" />
		<tag k="natural" v="hill" />
		<tag k="place" v="locality" />
		<tag k="ssr:stedsnr" v="57175" />
	</node>
	<node lat="68.77953888555233" lon="17.561399986320687" id="-97341">
		<tag k="name" v="Olaholla" />
		<tag k="natural" v="valley" />
		<tag k="place" v="locality" />
		<tag k="ssr:stedsnr" v="57178" />
	</node>
	<node lat="68.7905277743935" lon="17.576694430767105" id="-97342">
		<tag k="name" v="Lynghågen" />
		<tag k="natural" v="hill" />
		<tag k="place" v="locality" />
		<tag k="ssr:stedsnr" v="57181" />
	</node>
	<node lat="68.76667222453577" lon="17.70388056186196" id="-97343">
		<tag k="name" v="Vassbakkan" />
		<tag k="natural" v="slope" />
		<tag k="place" v="locality" />
		<tag k="ssr:stedsnr" v="57502" />
	</node>
	<node lat="68.78941944828154" lon="17.83088333159113" id="-97344">
		<tag k="name" v="Stabbursteinen" />
		<tag k="natural" v="stone" />
		<tag k="ssr:stedsnr" v="57509" />
	</node>
	<node lat="68.79454721929694" lon="17.796624990145943" id="-97345">
		<tag k="highway" v="path" />
		<tag k="name" v="Eidveien" />
		<tag k="ssr:stedsnr" v="57511" />
	</node>
	<node lat="68.78399444212806" lon="17.79971111429557" id="-97346">
		<tag k="name" v="Kråkedalen" />
		<tag k="natural" v="valley" />
		<tag k="place" v="locality" />
		<tag k="ssr:stedsnr" v="57519" />
	</node>
	<node lat="68.7742750019813" lon="17.815755543383368" id="-97347">
		<tag k="name" v="Breskebærdalen" />
		<tag k="natural" v="valley" />
		<tag k="place" v="locality" />
		<tag k="ssr:stedsnr" v="57486" />
	</node>
	<node lat="68.68468333845365" lon="17.972349987607643" id="-97348">
		<tag k="highway" v="path" />
		<tag k="name" v="Vinterveien" />
		<tag k="ssr:stedsnr" v="57672" />
	</node>
	<node lat="68.76187499821832" lon="17.844019438233534" id="-97349">
		<tag k="name" v="Skreda" />
		<tag k="natural" v="slope" />
		<tag k="place" v="locality" />
		<tag k="ssr:stedsnr" v="57678" />
	</node>
	<node lat="68.73872221860748" lon="17.837208330730533" id="-97350">
		<tag k="fixme" v="consider natural=peak for the most distinct mountains in the district" />
		<tag k="name" v="Yttertuva" />
		<tag k="natural" v="hill" />
		<tag k="place" v="locality" />
		<tag k="ssr:stedsnr" v="57689" />
	</node>
	<node lat="68.78172499713703" lon="17.597652779064454" id="-97351">
		<tag k="name" v="Damphågen" />
		<tag k="natural" v="hill" />
		<tag k="place" v="locality" />
		<tag k="ssr:stedsnr" v="58283" />
	</node>
	<node lat="68.74544721922535" lon="17.794422225840272" id="-97352">
		<tag k="name" v="Sneveibakkan" />
		<tag k="natural" v="slope" />
		<tag k="old_name" v="Sneverbakkan" />
		<tag k="place" v="locality" />
		<tag k="ssr:stedsnr" v="58292" />
	</node>
	<node lat="68.75634444927793" lon="17.81007220983389" id="-97353">
		<tag k="name" v="Hesjemoen" />
		<tag k="place" v="farm" />
		<tag k="ssr:stedsnr" v="58308" />
	</node>
	<node lat="68.75000555563628" lon="17.783586098179896" id="-97354">
		<tag k="name" v="Skjellbekken" />
		<tag k="ssr:stedsnr" v="58313" />
		<tag k="waterway" v="stream" />
	</node>
	<node lat="68.76067777332199" lon="17.679041667266638" id="-97355">
		<tag k="name" v="Moan" />
		<tag k="place" v="locality" />
		<tag k="ssr:stedsnr" v="58389" />
	</node>
	<node lat="68.64248889072297" lon="17.91879999715804" id="-97356">
		<tag k="name" v="Krøklinghaugen" />
		<tag k="natural" v="hill" />
		<tag k="place" v="locality" />
		<tag k="ssr:stedsnr" v="58617" />
	</node>
	<node lat="68.79728055964796" lon="17.646333335761117" id="-97357">
		<tag k="alt_name:no" v="Meganberget" />
		<tag k="loc_name:se" v="Meganbákti" />
		<tag k="name" v="Miganberget" />
		<tag k="name:no" v="Miganberget" />
		<tag k="natural" v="cape" />
		<tag k="ssr:stedsnr" v="78718" />
	</node>
	<node lat="68.67546110865172" lon="17.912324983884588" id="-97358">
		<tag k="loc_name:se" v="Gieddenjunni" />
		<tag k="name" v="Lapphaugen" />
		<tag k="name:no" v="Lapphaugen" />
		<tag k="natural" v="hill" />
		<tag k="place" v="locality" />
		<tag k="ssr:stedsnr" v="78603" />
	</node>
	<node lat="68.76968333141015" lon="17.889152784479194" id="-97359">
		<tag k="alt_name:no" v="Austavindselva" />
		<tag k="loc_name:se" v="Gállogiettiijohka" />
		<tag k="name" v="Austadvindelva" />
		<tag k="name:no" v="Austadvindelva" />
		<tag k="ssr:stedsnr" v="79690" />
		<tag k="waterway" v="stream" />
	</node>
	<node lat="68.77881388838345" lon="17.919552779860737" id="-97360">
		<tag k="name" v="Gorssasláhku" />
		<tag k="name:se" v="Gorssasláhku" />
		<tag k="natural" v="mountain_range" />
		<tag k="ssr:stedsnr" v="82107" />
	</node>
	<node lat="68.78678055269134" lon="17.60305833392126" id="-97361">
		<tag k="name" v="Keiprødplassen" />
		<tag k="place" v="farm" />
		<tag k="ssr:stedsnr" v="82539" />
	</node>
	<node lat="68.69111944889644" lon="17.99971387822744" id="-97362">
		<tag k="name" v="Sæterhaugen" />
		<tag k="natural" v="hill" />
		<tag k="place" v="locality" />
		<tag k="ssr:stedsnr" v="232690" />
	</node>
	<node lat="68.71002500190765" lon="17.91406389287375" id="-97363">
		<tag k="name" v="Stempelen" />
		<tag k="natural" v="hill" />
		<tag k="place" v="locality" />
		<tag k="ssr:stedsnr" v="88573" />
	</node>
	<node lat="68.77612225626065" lon="17.73448705691667" id="-97364">
		<tag k="name" v="Steinneset" />
		<tag k="natural" v="cape" />
		<tag k="ssr:stedsnr" v="90530" />
	</node>
	<node lat="68.68797777380556" lon="17.99472778251421" id="-97365">
		<tag k="name" v="Skjellmyra" />
		<tag k="natural" v="wetland" />
		<tag k="ssr:stedsnr" v="111704" />
	</node>
	<node lat="68.79681666331169" lon="17.756716659441572" id="-97366">
		<tag k="name" v="Rødslettbakkan" />
		<tag k="natural" v="slope" />
		<tag k="place" v="locality" />
		<tag k="ssr:stedsnr" v="117418" />
	</node>
	<node lat="68.79468610776983" lon="17.741327786191697" id="-97367">
		<tag k="name" v="Lihammaran" />
		<tag k="natural" v="hill" />
		<tag k="place" v="locality" />
		<tag k="ssr:stedsnr" v="117426" />
	</node>
	<node lat="68.79485555629125" lon="17.703341661108528" id="-97368">
		<tag k="name" v="Storsletta" />
		<tag k="place" v="locality" />
		<tag k="ssr:stedsnr" v="117432" />
	</node>
	<node lat="68.77323055732236" lon="17.8668249974312" id="-97369">
		<tag k="name" v="Styggedalen" />
		<tag k="natural" v="valley" />
		<tag k="place" v="locality" />
		<tag k="ssr:stedsnr" v="117823" />
	</node>
	<node lat="68.77893055570712" lon="17.819291668168123" id="-97370">
		<tag k="highway" v="path" />
		<tag k="name" v="Sletthågveien" />
		<tag k="ssr:stedsnr" v="117569" />
	</node>
	<node lat="68.78483333331333" lon="17.824377764537363" id="-97371">
		<tag k="name" v="Sledeklemma" />
		<tag k="natural" v="slope" />
		<tag k="place" v="locality" />
		<tag k="ssr:stedsnr" v="117572" />
	</node>
	<node lat="68.6872111131574" lon="17.983691664779943" id="-97372">
		<tag k="landuse" v="meadow" />
		<tag k="name" v="Gammeljordet" />
		<tag k="ssr:stedsnr" v="117706" />
	</node>
	<node lat="68.74439721877154" lon="17.778063880646116" id="-97373">
		<tag k="name" v="Sjurmyrbakkan" />
		<tag k="natural" v="slope" />
		<tag k="place" v="locality" />
		<tag k="ssr:stedsnr" v="119269" />
	</node>
	<node lat="68.76266944045643" lon="17.819486111755655" id="-97374">
		<tag k="fixme" v="consider natural=peak for the most distinct mountains in the district" />
		<tag k="name" v="Litjåsen" />
		<tag k="natural" v="hill" />
		<tag k="place" v="locality" />
		<tag k="ssr:stedsnr" v="119281" />
	</node>
	<node lat="68.76368055482064" lon="17.807333340908837" id="-97375">
		<tag k="name" v="Finnura" />
		<tag k="place" v="farm" />
		<tag k="ssr:stedsnr" v="119286" />
	</node>
	<node lat="68.75759444891874" lon="17.771813877192617" id="-97376">
		<tag k="name" v="Bekkelva" />
		<tag k="ssr:stedsnr" v="119406" />
		<tag k="waterway" v="stream" />
	</node>
	<node lat="68.66579999922" lon="17.91900555348366" id="-97377">
		<tag k="name" v="Gammelslåtten" />
		<tag k="place" v="locality" />
		<tag k="ssr:stedsnr" v="119569" />
	</node>
	<node lat="68.66791944928089" lon="17.90081387989544" id="-97378">
		<tag k="name" v="Ordførarsteinen" />
		<tag k="natural" v="stone" />
		<tag k="ssr:stedsnr" v="119576" />
	</node>
	<node lat="68.80676666971154" lon="17.608741677358235" id="-97379">
		<tag k="name" v="Daumannen" />
		<tag k="natural" v="hill" />
		<tag k="place" v="locality" />
		<tag k="ssr:stedsnr" v="238225" />
	</node>
	<node lat="68.8099527808816" lon="17.841936103101233" id="-97380">
		<tag k="name" v="Moan" />
		<tag k="place" v="locality" />
		<tag k="ssr:stedsnr" v="238230" />
	</node>
	<node lat="68.81230277358138" lon="17.458619441699767" id="-97381">
		<tag k="name" v="Heia" />
		<tag k="natural" v="hill" />
		<tag k="place" v="locality" />
		<tag k="ssr:stedsnr" v="238557" />
	</node>
	<node lat="68.74375833092033" lon="17.808533328919076" id="-97382">
		<tag k="name" v="Tørrkjerrholmen" />
		<tag k="natural" v="cape" />
		<tag k="ssr:stedsnr" v="239290" />
	</node>
	<node lat="68.74485833355611" lon="17.80342777248543" id="-97383">
		<tag k="name" v="Myran" />
		<tag k="natural" v="wetland" />
		<tag k="ssr:stedsnr" v="239292" />
	</node>
	<node lat="68.80584444605478" lon="17.823475006273384" id="-97384">
		<tag k="name" v="Navarsbakken" />
		<tag k="natural" v="slope" />
		<tag k="place" v="locality" />
		<tag k="ssr:stedsnr" v="239378" />
	</node>
	<node lat="68.80218888508601" lon="17.78779165495926" id="-97385">
		<tag k="name" v="Høgebakkan" />
		<tag k="natural" v="slope" />
		<tag k="place" v="locality" />
		<tag k="ssr:stedsnr" v="239382" />
	</node>
	<node lat="68.77692222030436" lon="17.827808322301745" id="-97386">
		<tag k="name" v="Småmoan" />
		<tag k="place" v="locality" />
		<tag k="ssr:stedsnr" v="239560" />
	</node>
	<node lat="68.75184166290694" lon="17.824475002626446" id="-97387">
		<tag k="name" v="Bangselia" />
		<tag k="natural" v="slope" />
		<tag k="place" v="locality" />
		<tag k="ssr:stedsnr" v="239460" />
	</node>
	<node lat="68.74429167158156" lon="17.815452767189623" id="-97388">
		<tag k="name" v="Grindgongen" />
		<tag k="natural" v="slope" />
		<tag k="place" v="locality" />
		<tag k="ssr:stedsnr" v="239462" />
	</node>
	<node lat="68.797941668143" lon="17.744877775974416" id="-97389">
		<tag k="name" v="Langmyra" />
		<tag k="natural" v="wetland" />
		<tag k="ssr:stedsnr" v="239463" />
	</node>
	<node lat="68.80715555873624" lon="17.725725001795137" id="-97390">
		<tag k="name" v="Reinbenkan" />
		<tag k="natural" v="hill" />
		<tag k="place" v="locality" />
		<tag k="ssr:stedsnr" v="239468" />
	</node>
	<node lat="68.73039721811452" lon="17.807197230038213" id="-97391">
		<tag k="name" v="Middagsmarka" />
		<tag k="natural" v="water" />
		<tag k="ssr:stedsnr" v="239487" />
	</node>
	<node lat="68.73853888746588" lon="17.814308340279943" id="-97392">
		<tag k="name" v="Tørrvedmoen" />
		<tag k="place" v="locality" />
		<tag k="ssr:stedsnr" v="239490" />
	</node>
	<node lat="68.7770111125749" lon="17.694905545109275" id="-97393">
		<tag k="name" v="Grindmarka" />
		<tag k="place" v="locality" />
		<tag k="ssr:stedsnr" v="239541" />
	</node>
	<node lat="68.698527781721" lon="17.973722228777852" id="-97394">
		<tag k="name" v="Nepreitet" />
		<tag k="natural" v="hill" />
		<tag k="place" v="locality" />
		<tag k="ssr:stedsnr" v="239768" />
	</node>
	<node lat="68.6840388920661" lon="17.914994445385577" id="-97395">
		<tag k="name" v="Storhaugen" />
		<tag k="natural" v="hill" />
		<tag k="place" v="locality" />
		<tag k="ssr:stedsnr" v="239779" />
	</node>
	<node lat="68.6974138857575" lon="17.976783339118796" id="-97396">
		<tag k="name" v="Bruhaugen" />
		<tag k="natural" v="hill" />
		<tag k="place" v="locality" />
		<tag k="ssr:stedsnr" v="239780" />
	</node>
	<node lat="68.6989611084007" lon="18.038149989370265" id="-97397">
		<tag k="name" v="Lappjorda" />
		<tag k="place" v="locality" />
		<tag k="ssr:stedsnr" v="239837" />
	</node>
	<node lat="68.77915277634504" lon="17.603894435990043" id="-97398">
		<tag k="name" v="Gunnarholla" />
		<tag k="natural" v="valley" />
		<tag k="place" v="locality" />
		<tag k="ssr:stedsnr" v="240261" />
	</node>
	<node lat="68.78011944432167" lon="17.600041672400632" id="-97399">
		<tag k="name" v="Johanelva" />
		<tag k="ssr:stedsnr" v="240263" />
		<tag k="waterway" v="stream" />
	</node>
	<node lat="68.77794166638073" lon="17.609647226509182" id="-97400">
		<tag k="name" v="Per-Larsatorva" />
		<tag k="place" v="locality" />
		<tag k="ssr:stedsnr" v="240267" />
	</node>
	<node lat="68.7464333295631" lon="17.774827781782626" id="-97401">
		<tag k="name" v="Forrmyra" />
		<tag k="natural" v="wetland" />
		<tag k="ssr:stedsnr" v="240283" />
	</node>
	<node lat="68.75781110790714" lon="17.79589999031473" id="-97402">
		<tag k="name" v="Flyndrehavet" />
		<tag k="natural" v="shoal" />
		<tag k="place" v="locality" />
		<tag k="ssr:stedsnr" v="240290" />
	</node>
	<node lat="68.73202500048298" lon="17.67856665469204" id="-97403">
		<tag k="name" v="Storelva" />
		<tag k="ssr:stedsnr" v="138203" />
		<tag k="waterway" v="river" />
	</node>
	<node lat="68.69362500247775" lon="18.006516668178" id="-97404">
		<tag k="name" v="Styggedalsbekken" />
		<tag k="ssr:stedsnr" v="138377" />
		<tag k="waterway" v="stream" />
	</node>
	<node lat="68.71323611308327" lon="17.863283340794382" id="-97405">
		<tag k="alt_name:se" v="Ruŋgu" />
		<tag k="name" v="Ruŋgovuopmi - Spansdalen" />
		<tag k="name:no" v="Spansdalen" />
		<tag k="name:se" v="Ruŋgovuopmi" />
		<tag k="natural" v="valley" />
		<tag k="old_name:se" v="Ruŋguvuobmi" />
		<tag k="place" v="locality" />
		<tag k="ssr:stedsnr" v="138586" />
	</node>
	<node lat="68.69240277573256" lon="17.842952778988817" id="-97406">
		<tag k="fixme" v="consider natural=peak for the most distinct mountains in the district" />
		<tag k="loc_name:se" v="Silbaloamičohkka" />
		<tag k="name" v="Sølvfjellet" />
		<tag k="name:no" v="Sølvfjellet" />
		<tag k="natural" v="hill" />
		<tag k="place" v="locality" />
		<tag k="ssr:stedsnr" v="138594" />
	</node>
	<node lat="68.71625555698682" lon="17.602524996481232" id="-97407">
		<tag k="fixme" v="consider natural=peak for the most distinct mountains in the district" />
		<tag k="name" v="Tverrfjellet" />
		<tag k="natural" v="hill" />
		<tag k="place" v="locality" />
		<tag k="ssr:stedsnr" v="138924" />
	</node>
	<node lat="68.77753056043805" lon="17.880558323742928" id="-97408">
		<tag k="name" v="Gorssasjohka - Styggedalselva" />
		<tag k="name:no" v="Styggedalselva" />
		<tag k="name:se" v="Gorssasjohka" />
		<tag k="ssr:stedsnr" v="139683" />
		<tag k="waterway" v="stream" />
	</node>
	<node lat="68.76994444284907" lon="17.69298332877852" id="-97409">
		<tag k="name" v="Stavhammaren" />
		<tag k="natural" v="hill" />
		<tag k="place" v="locality" />
		<tag k="ssr:stedsnr" v="139694" />
	</node>
	<node lat="68.78114648895033" lon="17.656168468403415" id="-97410">
		<tag k="name" v="Hestnes" />
		<tag k="old_name" v="Hastnes" />
		<tag k="place" v="farm" />
		<tag k="ssr:stedsnr" v="146159" />
	</node>
	<node lat="68.68664166994645" lon="18.01224166706844" id="-97411">
		<tag k="name" v="Tyttebærbakken" />
		<tag k="natural" v="slope" />
		<tag k="place" v="locality" />
		<tag k="ssr:stedsnr" v="171761" />
	</node>
	<node lat="68.68262222085859" lon="17.99640278081178" id="-97412">
		<tag k="name" v="Hammarberget" />
		<tag k="natural" v="hill" />
		<tag k="place" v="locality" />
		<tag k="ssr:stedsnr" v="171764" />
	</node>
	<node lat="68.79703055685161" lon="17.658947217581897" id="-97413">
		<tag k="name" v="Lars-Polsaheimen" />
		<tag k="place" v="locality" />
		<tag k="ssr:stedsnr" v="178204" />
	</node>
	<node lat="68.78234444007046" lon="17.55882500263599" id="-97414">
		<tag k="name" v="Tverrelvflaten" />
		<tag k="place" v="locality" />
		<tag k="ssr:stedsnr" v="178206" />
	</node>
	<node lat="68.73800277948838" lon="17.776622214252566" id="-97415">
		<tag k="ford" v="yes" />
		<tag k="name" v="Moldforvaet" />
		<tag k="place" v="locality" />
		<tag k="ssr:stedsnr" v="178466" />
	</node>
	<node lat="68.70418888452534" lon="18.029033336695598" id="-97416">
		<tag k="name" v="Øvre lappjorddalen" />
		<tag k="natural" v="valley" />
		<tag k="place" v="locality" />
		<tag k="ssr:stedsnr" v="178807" />
	</node>
	<node lat="68.77132500316497" lon="17.85216389198643" id="-97417">
		<tag k="ford" v="yes" />
		<tag k="name" v="Mellavaet" />
		<tag k="place" v="locality" />
		<tag k="ssr:stedsnr" v="178809" />
	</node>
	<node lat="68.77136388823456" lon="17.878547220785908" id="-97418">
		<tag k="name" v="Botnlian" />
		<tag k="natural" v="slope" />
		<tag k="place" v="locality" />
		<tag k="ssr:stedsnr" v="178811" />
	</node>
	<node lat="68.76586389369113" lon="17.856069433881963" id="-97419">
		<tag k="name" v="Steinbakkan" />
		<tag k="natural" v="slope" />
		<tag k="place" v="locality" />
		<tag k="ssr:stedsnr" v="178816" />
	</node>
	<node lat="68.72047499836953" lon="17.82621388253028" id="-97420">
		<tag k="fixme" v="consider natural=peak for the most distinct mountains in the district" />
		<tag k="name" v="Kollen" />
		<tag k="natural" v="hill" />
		<tag k="place" v="locality" />
		<tag k="ssr:stedsnr" v="179159" />
	</node>
	<node lat="68.7583777792141" lon="17.802802767080145" id="-97421">
		<tag k="name" v="Stranda" />
		<tag k="natural" v="beach" />
		<tag k="ssr:stedsnr" v="179275" />
	</node>
	<node lat="68.74077222220063" lon="17.762052782985524" id="-97422">
		<tag k="name" v="Reingjerdelva" />
		<tag k="ssr:stedsnr" v="179369" />
		<tag k="waterway" v="stream" />
	</node>
	<node lat="68.71735555090632" lon="17.81895000330757" id="-97423">
		<tag k="name" v="Tverrelva" />
		<tag k="ssr:stedsnr" v="199585" />
		<tag k="waterway" v="stream" />
	</node>
	<node lat="68.76557777809207" lon="17.71682221924928" id="-97424">
		<tag k="name" v="Lomvatnet" />
		<tag k="natural" v="water" />
		<tag k="ssr:stedsnr" v="200716" />
	</node>
	<node lat="68.77043611443379" lon="17.620283320063418" id="-97425">
		<tag k="name" v="Keiprødmyran" />
		<tag k="natural" v="wetland" />
		<tag k="ssr:stedsnr" v="203366" />
	</node>
	<node lat="68.80710000316968" lon="17.52027778612879" id="-97426">
		<tag k="alt_name" v="Slettan" />
		<tag k="name" v="Slettene" />
		<tag k="place" v="locality" />
		<tag k="ssr:stedsnr" v="212954" />
	</node>
	<node lat="68.78132222155682" lon="17.655013896977486" id="-97427">
		<tag k="alt_name" v="Hestneset" />
		<tag k="fixme" v="multiple name tags, choose one and add the other to alt_name" />
		<tag k="name" v="Odden;Hestnes" />
		<tag k="natural" v="cape" />
		<tag k="ssr:stedsnr" v="442759" />
	</node>
	<node lat="68.71907777956687" lon="17.854405561956995" id="-97428">
		<tag k="name" v="Saraelva" />
		<tag k="ssr:stedsnr" v="442629" />
		<tag k="waterway" v="stream" />
	</node>
	<node lat="68.8096249971155" lon="17.621952780387584" id="-97429">
		<tag k="name" v="Elveneselva" />
		<tag k="ssr:stedsnr" v="442719" />
		<tag k="waterway" v="stream" />
	</node>
	<node lat="68.79431388602475" lon="17.426569438515987" id="-97430">
		<tag k="fixme" v="consider natural=peak for the most distinct mountains in the district" />
		<tag k="name" v="Vasslikollen" />
		<tag k="natural" v="hill" />
		<tag k="place" v="locality" />
		<tag k="ssr:stedsnr" v="442737" />
	</node>
	<node lat="68.79846240898554" lon="17.768897593595376" id="-97431">
		<tag k="alt_name" v="Holmelva" />
		<tag k="name" v="Holmebekken" />
		<tag k="ssr:stedsnr" v="442741" />
		<tag k="waterway" v="stream" />
	</node>
	<node lat="68.79816944742561" lon="17.82684443840667" id="-97432">
		<tag k="name" v="Myran" />
		<tag k="natural" v="wetland" />
		<tag k="ssr:stedsnr" v="442742" />
	</node>
	<node lat="68.69794999950851" lon="17.991669438804827" id="-97433">
		<tag k="name" v="Kalvberget" />
		<tag k="natural" v="hill" />
		<tag k="place" v="locality" />
		<tag k="ssr:stedsnr" v="232348" />
	</node>
	<node lat="68.68253889157982" lon="18.006138894618847" id="-97434">
		<tag k="name" v="Langberget" />
		<tag k="natural" v="hill" />
		<tag k="place" v="locality" />
		<tag k="ssr:stedsnr" v="232697" />
	</node>
	<node lat="68.69466110916368" lon="18.00907777039314" id="-97435">
		<tag k="name" v="Brattbakken" />
		<tag k="natural" v="slope" />
		<tag k="place" v="locality" />
		<tag k="ssr:stedsnr" v="233398" />
	</node>
	<node lat="68.78928610825402" lon="17.50068610698738" id="-97436">
		<tag k="name" v="Storvassbakkan" />
		<tag k="natural" v="slope" />
		<tag k="place" v="locality" />
		<tag k="ssr:stedsnr" v="238203" />
	</node>
	<node lat="68.80261944768012" lon="17.668916654449486" id="-97437">
		<tag k="name" v="Mefeneselva" />
		<tag k="ssr:stedsnr" v="238212" />
		<tag k="waterway" v="stream" />
	</node>
	<node lat="68.78957500442806" lon="17.590911099430787" id="-97438">
		<tag k="name" v="Neset" />
		<tag k="natural" v="cape" />
		<tag k="ssr:stedsnr" v="239197" />
	</node>
	<node lat="68.74153333182156" lon="17.803108320958003" id="-97439">
		<tag k="name" v="Fagerslåttmoen" />
		<tag k="place" v="locality" />
		<tag k="ssr:stedsnr" v="239444" />
	</node>
	<node lat="68.74094722645223" lon="17.822625003962777" id="-97440">
		<tag k="name" v="Finnveilia" />
		<tag k="natural" v="slope" />
		<tag k="place" v="locality" />
		<tag k="ssr:stedsnr" v="239446" />
	</node>
	<node lat="68.73648889071201" lon="17.787811100652842" id="-97441">
		<tag k="name" v="Tverrelvmoen" />
		<tag k="place" v="locality" />
		<tag k="ssr:stedsnr" v="239450" />
	</node>
	<node lat="68.73445277519146" lon="17.78223888588549" id="-97442">
		<tag k="name" v="Telgesteinmoen" />
		<tag k="place" v="locality" />
		<tag k="ssr:stedsnr" v="239451" />
	</node>
	<node lat="68.79412222174035" lon="17.782044443624134" id="-97443">
		<tag k="fixme" v="consider natural=peak for the most distinct mountains in the district" />
		<tag k="name" v="Stellefjellet" />
		<tag k="natural" v="hill" />
		<tag k="place" v="locality" />
		<tag k="ssr:stedsnr" v="239396" />
	</node>
	<node lat="68.76928055715894" lon="17.820372215879214" id="-97444">
		<tag k="name" v="Olderskogen" />
		<tag k="place" v="locality" />
		<tag k="ssr:stedsnr" v="239513" />
	</node>
	<node lat="68.77722222601341" lon="17.687944436998972" id="-97445">
		<tag k="name" v="Høglia" />
		<tag k="natural" v="slope" />
		<tag k="place" v="locality" />
		<tag k="ssr:stedsnr" v="239543" />
	</node>
	<node lat="68.76594721764565" lon="17.75784722319694" id="-97446">
		<tag k="name" v="Oldran" />
		<tag k="place" v="farm" />
		<tag k="ssr:stedsnr" v="239549" />
	</node>
	<node lat="68.76825277970953" lon="17.83784999946109" id="-97447">
		<tag k="name" v="Stormoen" />
		<tag k="place" v="locality" />
		<tag k="ssr:stedsnr" v="239843" />
	</node>
	<node lat="68.77594444125666" lon="17.84264720962829" id="-97448">
		<tag k="name" v="Trippegulvmoen" />
		<tag k="place" v="locality" />
		<tag k="ssr:stedsnr" v="239847" />
	</node>
	<node lat="68.7543305514991" lon="17.810833332092034" id="-97449">
		<tag k="name" v="Lyngmoen" />
		<tag k="place" v="farm" />
		<tag k="ssr:stedsnr" v="240306" />
	</node>
	<node lat="68.75876388715466" lon="17.814733318890998" id="-97450">
		<tag k="name" v="Hellarhågen" />
		<tag k="natural" v="hill" />
		<tag k="place" v="locality" />
		<tag k="ssr:stedsnr" v="240293" />
	</node>
	<node lat="68.75436389004979" lon="17.775097226367944" id="-97451">
		<tag k="name" v="Finneselva" />
		<tag k="ssr:stedsnr" v="240295" />
		<tag k="waterway" v="stream" />
	</node>
	<node lat="68.7534388915788" lon="17.771888886584236" id="-97452">
		<tag k="name" v="Revholtan" />
		<tag k="place" v="locality" />
		<tag k="ssr:stedsnr" v="240301" />
	</node>
	<node lat="68.71853333010421" lon="17.83387499658249" id="-97453">
		<tag k="fixme" v="consider natural=peak for the most distinct mountains in the district" />
		<tag k="name" v="Kollen" />
		<tag k="natural" v="hill" />
		<tag k="place" v="locality" />
		<tag k="ssr:stedsnr" v="240621" />
	</node>
	<node lat="68.76261944506379" lon="17.76929445295847" id="-97454">
		<tag k="name" v="Oladalbukta" />
		<tag k="natural" v="bay" />
		<tag k="ssr:stedsnr" v="240394" />
	</node>
	<node lat="68.81047499999742" lon="17.80448609700748" id="-97455">
		<tag k="name" v="Høgebakkan" />
		<tag k="natural" v="slope" />
		<tag k="place" v="locality" />
		<tag k="ssr:stedsnr" v="240552" />
	</node>
	<node lat="68.65839444424012" lon="17.8960055493475" id="-97456">
		<tag k="name" v="Mariestykket" />
		<tag k="place" v="locality" />
		<tag k="ssr:stedsnr" v="240563" />
	</node>
	<node lat="68.78654444367875" lon="17.605402762833393" id="-97457">
		<tag k="name" v="Keiprødplassen" />
		<tag k="place" v="locality" />
		<tag k="ssr:stedsnr" v="446320" />
	</node>
	<node lat="68.6928059732536" lon="17.733699722563994" id="-97458">
		<tag k="name" v="Jalgesáidi - Fjordbotneidet" />
		<tag k="name:no" v="Fjordbotneidet" />
		<tag k="name:se" v="Jalgesáidi" />
		<tag k="natural" v="isthmus" />
		<tag k="old_name:se" v="Jalgesaidi" />
		<tag k="place" v="locality" />
		<tag k="ssr:stedsnr" v="260604" />
	</node>
	<node lat="68.61099444839552" lon="17.985872229817886" id="-97459">
		<tag k="name" v="Rivtindbotn" />
		<tag k="natural" v="valley" />
		<tag k="place" v="locality" />
		<tag k="ssr:stedsnr" v="260571" />
	</node>
	<node lat="68.76944444354956" lon="17.82905276268427" id="-97460">
		<tag k="name" v="Bjørnhaugen" />
		<tag k="natural" v="hill" />
		<tag k="place" v="locality" />
		<tag k="ssr:stedsnr" v="260773" />
	</node>
	<node lat="68.70814166565927" lon="17.953266660493792" id="-97461">
		<tag k="name" v="Jorbajávri - Rundvatnet" />
		<tag k="name:no" v="Rundvatnet" />
		<tag k="name:se" v="Jorbajávri" />
		<tag k="natural" v="water" />
		<tag k="ssr:stedsnr" v="266596" />
	</node>
	<node lat="68.80380278114838" lon="17.53480834276356" id="-97462">
		<tag k="name" v="Hellavika" />
		<tag k="natural" v="bay" />
		<tag k="ssr:stedsnr" v="272992" />
	</node>
	<node lat="68.69098055281007" lon="18.041213884642907" id="-97463">
		<tag k="name" v="Bjørnhaugen" />
		<tag k="natural" v="hill" />
		<tag k="place" v="locality" />
		<tag k="ssr:stedsnr" v="293749" />
	</node>
	<node lat="68.68202500103186" lon="18.0183805402963" id="-97464">
		<tag k="name" v="Storberget" />
		<tag k="natural" v="hill" />
		<tag k="place" v="locality" />
		<tag k="ssr:stedsnr" v="293752" />
	</node>
	<node lat="68.75066110969394" lon="17.81131109783961" id="-97465">
		<tag k="name" v="Leirholman" />
		<tag k="natural" v="cape" />
		<tag k="ssr:stedsnr" v="299489" />
	</node>
	<node lat="68.796788886237" lon="17.689069439472657" id="-97466">
		<tag k="name" v="Orrhamran" />
		<tag k="natural" v="hill" />
		<tag k="place" v="locality" />
		<tag k="ssr:stedsnr" v="299441" />
	</node>
	<node lat="68.73230833483323" lon="17.79482778715881" id="-97467">
		<tag k="fixme" v="consider natural=peak for the most distinct mountains in the district" />
		<tag k="name" v="Huldertuva" />
		<tag k="natural" v="hill" />
		<tag k="place" v="locality" />
		<tag k="ssr:stedsnr" v="299504" />
	</node>
	<node lat="68.72775555904647" lon="17.768625003263697" id="-97468">
		<tag k="name" v="Sare-gjerdhågen" />
		<tag k="natural" v="hill" />
		<tag k="place" v="locality" />
		<tag k="ssr:stedsnr" v="299521" />
	</node>
	<node lat="68.72815555914097" lon="17.780911099577146" id="-97469">
		<tag k="name" v="Bjørnbåslia" />
		<tag k="natural" v="slope" />
		<tag k="place" v="locality" />
		<tag k="ssr:stedsnr" v="299523" />
	</node>
	<node lat="68.81283055199584" lon="17.505866670802558" id="-97470">
		<tag k="name" v="Kleiva" />
		<tag k="natural" v="cape" />
		<tag k="ssr:stedsnr" v="299537" />
	</node>
	<node lat="68.67940277644446" lon="17.952430557278355" id="-97471">
		<tag k="name" v="Jordbrubekken" />
		<tag k="ssr:stedsnr" v="299713" />
		<tag k="waterway" v="stream" />
	</node>
	<node lat="68.6841194482338" lon="17.981305547811296" id="-97472">
		<tag k="name" v="Egga" />
		<tag k="natural" v="ridge" />
		<tag k="place" v="locality" />
		<tag k="ssr:stedsnr" v="299717" />
	</node>
	<node lat="68.80941111057948" lon="17.619472220670797" id="-97473">
		<tag k="name" v="Áhkkoriehppi" />
		<tag k="name:se" v="Áhkkoriehppi" />
		<tag k="natural" v="valley" />
		<tag k="place" v="locality" />
		<tag k="ssr:stedsnr" v="299638" />
	</node>
	<node lat="68.70693333713044" lon="18.021202778178314" id="-97474">
		<tag k="name" v="Storberget" />
		<tag k="natural" v="hill" />
		<tag k="place" v="locality" />
		<tag k="ssr:stedsnr" v="299817" />
	</node>
	<node lat="68.70304722399112" lon="18.000402773155965" id="-97475">
		<tag k="name" v="Storbekken" />
		<tag k="ssr:stedsnr" v="299818" />
		<tag k="waterway" v="stream" />
	</node>
	<node lat="68.74900555782665" lon="17.78870833967958" id="-97476">
		<tag k="name" v="Teigholla" />
		<tag k="natural" v="slope" />
		<tag k="place" v="locality" />
		<tag k="ssr:stedsnr" v="301248" />
	</node>
	<node lat="68.64666944182984" lon="17.89296389170228" id="-97477">
		<tag k="name" v="Tverrelvslåtten" />
		<tag k="place" v="locality" />
		<tag k="ssr:stedsnr" v="301609" />
	</node>
	<node lat="68.64651667090514" lon="17.93035833502486" id="-97478">
		<tag k="name" v="Gråbergan" />
		<tag k="natural" v="hill" />
		<tag k="place" v="locality" />
		<tag k="ssr:stedsnr" v="301612" />
	</node>
	<node lat="68.69384722407642" lon="18.01402776844169" id="-97479">
		<tag k="name" v="Styggedalen" />
		<tag k="natural" v="valley" />
		<tag k="place" v="locality" />
		<tag k="ssr:stedsnr" v="321318" />
	</node>
	<node lat="68.67715555252143" lon="18.016094440619923" id="-97480">
		<tag k="name" v="Soløybotn" />
		<tag k="natural" v="valley" />
		<tag k="place" v="locality" />
		<tag k="ssr:stedsnr" v="321348" />
	</node>
	<node lat="68.7640972258348" lon="17.920244448931577" id="-97481">
		<tag k="name" v="Lægdevatnet" />
		<tag k="natural" v="water" />
		<tag k="ssr:stedsnr" v="321702" />
	</node>
	<node lat="68.76667222351013" lon="17.768880560205684" id="-97482">
		<tag k="alt_name" v="Sandnesodden" />
		<tag k="name" v="Sandneset" />
		<tag k="natural" v="cape" />
		<tag k="ssr:stedsnr" v="321699" />
	</node>
	<node lat="68.78134999633336" lon="17.633561102815495" id="-97483">
		<tag k="name" v="Keiprød" />
		<tag k="place" v="farm" />
		<tag k="ssr:stedsnr" v="325318" />
	</node>
	<node lat="68.74836667054336" lon="17.808372225761282" id="-97484">
		<tag k="name" v="Orneselva" />
		<tag k="ssr:stedsnr" v="360266" />
		<tag k="waterway" v="stream" />
	</node>
	<node lat="68.79172222513616" lon="17.76081945082312" id="-97485">
		<tag k="name" v="Toften" />
		<tag k="place" v="farm" />
		<tag k="ssr:stedsnr" v="360362" />
	</node>
	<node lat="68.79240833013031" lon="17.759541668633833" id="-97486">
		<tag k="name" v="Verslet" />
		<tag k="natural" v="slope" />
		<tag k="place" v="locality" />
		<tag k="ssr:stedsnr" v="360368" />
	</node>
	<node lat="68.79539444385651" lon="17.740819444468073" id="-97487">
		<tag k="name" v="Bulihamran" />
		<tag k="natural" v="hill" />
		<tag k="place" v="locality" />
		<tag k="ssr:stedsnr" v="360378" />
	</node>
	<node lat="68.77633611181308" lon="17.676344441447196" id="-97488">
		<tag k="name" v="Ramfløyet" />
		<tag k="natural" v="hill" />
		<tag k="place" v="locality" />
		<tag k="ssr:stedsnr" v="360510" />
	</node>
	<node lat="68.73867499950207" lon="17.809774995400147" id="-97489">
		<tag k="name" v="Elvebakken" />
		<tag k="natural" v="slope" />
		<tag k="place" v="locality" />
		<tag k="ssr:stedsnr" v="360409" />
	</node>
	<node lat="68.73106666510604" lon="17.814452782910884" id="-97490">
		<tag k="name" v="Lyngmoflata" />
		<tag k="place" v="locality" />
		<tag k="ssr:stedsnr" v="360466" />
	</node>
	<node lat="68.77445833015825" lon="17.867527779290572" id="-97491">
		<tag k="name" v="Tortenholla" />
		<tag k="natural" v="valley" />
		<tag k="place" v="locality" />
		<tag k="ssr:stedsnr" v="360807" />
	</node>
	<node lat="68.7854749955721" lon="17.613627778250894" id="-97492">
		<tag k="name" v="Finneneset" />
		<tag k="natural" v="cape" />
		<tag k="ssr:stedsnr" v="361275" />
	</node>
	<node lat="68.7866777816195" lon="17.601305545751288" id="-97493">
		<tag k="name" v="Kviteberget" />
		<tag k="natural" v="hill" />
		<tag k="place" v="locality" />
		<tag k="ssr:stedsnr" v="361277" />
	</node>
	<node lat="68.74309999896445" lon="17.79571111937791" id="-97494">
		<tag k="name" v="Kaldslåtta" />
		<tag k="place" v="locality" />
		<tag k="ssr:stedsnr" v="361283" />
	</node>
	<node lat="68.76151110863675" lon="17.76061388907607" id="-97495">
		<tag k="name" v="Bjørndalen" />
		<tag k="natural" v="valley" />
		<tag k="place" v="locality" />
		<tag k="ssr:stedsnr" v="361413" />
	</node>
	<node lat="68.65098888829213" lon="17.89817778457837" id="-97496">
		<tag k="name" v="Stakkflata" />
		<tag k="place" v="locality" />
		<tag k="ssr:stedsnr" v="361566" />
	</node>
	<node lat="68.66940555535895" lon="17.914075008119063" id="-97497">
		<tag k="name" v="Gammelslåttmyra" />
		<tag k="natural" v="wetland" />
		<tag k="ssr:stedsnr" v="361568" />
	</node>
	<node lat="68.64834721863477" lon="17.909241655913036" id="-97498">
		<tag k="name" v="Stormyrelva" />
		<tag k="ssr:stedsnr" v="361570" />
		<tag k="waterway" v="stream" />
	</node>
	<node lat="68.82359166273028" lon="17.773991661883265" id="-97499">
		<tag k="fixme" v="consider natural=peak for the most distinct mountains in the district" />
		<tag k="name" v="Gielasnjunni" />
		<tag k="name:se" v="Gielasnjunni" />
		<tag k="natural" v="hill" />
		<tag k="place" v="locality" />
		<tag k="ssr:stedsnr" v="381712" />
	</node>
	<node lat="68.75112777915825" lon="17.863263877468025" id="-97500">
		<tag k="alt_name" v="Åsevatnet, l" />
		<tag k="name" v="Litle Åsevatnet" />
		<tag k="natural" v="water" />
		<tag k="ssr:stedsnr" v="382616" />
	</node>
	<node lat="68.69783333570487" lon="17.999875008469488" id="-97501">
		<tag k="name" v="Lia" />
		<tag k="natural" v="slope" />
		<tag k="place" v="locality" />
		<tag k="ssr:stedsnr" v="475384" />
	</node>
	<node lat="68.69156110764044" lon="18.023322209026222" id="-97502">
		<tag k="name" v="Storlian" />
		<tag k="natural" v="slope" />
		<tag k="place" v="locality" />
		<tag k="ssr:stedsnr" v="475386" />
	</node>
	<node lat="68.69610833326054" lon="18.00248333346586" id="-97503">
		<tag k="name" v="Høkberget" />
		<tag k="natural" v="hill" />
		<tag k="place" v="locality" />
		<tag k="ssr:stedsnr" v="475388" />
	</node>
	<node lat="68.6891194442277" lon="17.988513890816197" id="-97504">
		<tag k="name" v="Nibemyra" />
		<tag k="natural" v="wetland" />
		<tag k="ssr:stedsnr" v="475391" />
	</node>
	<node lat="68.79403333082541" lon="17.573433317769105" id="-97505">
		<tag k="name" v="Reinlandsvika" />
		<tag k="natural" v="bay" />
		<tag k="ssr:stedsnr" v="421209" />
	</node>
	<node lat="68.73599444162718" lon="17.810152772155497" id="-97506">
		<tag k="name" v="Kjerringlia" />
		<tag k="natural" v="slope" />
		<tag k="place" v="locality" />
		<tag k="ssr:stedsnr" v="421456" />
	</node>
	<node lat="68.73883055356421" lon="17.770988888776813" id="-97507">
		<tag k="name" v="Trehopen" />
		<tag k="natural" v="hill" />
		<tag k="place" v="locality" />
		<tag k="ssr:stedsnr" v="421459" />
	</node>
	<node lat="68.741266668238" lon="17.817497231637862" id="-97508">
		<tag k="name" v="Litjelva" />
		<tag k="ssr:stedsnr" v="421461" />
		<tag k="waterway" v="stream" />
	</node>
	<node lat="68.68116110746878" lon="17.94782777561057" id="-97509">
		<tag k="bridge" v="yes" />
		<tag k="layer" v="1" />
		<tag k="loc_name:se" v="Čoarda" />
		<tag k="name" v="Jordbrua" />
		<tag k="name:no" v="Jordbrua" />
		<tag k="ssr:stedsnr" v="421702" />
	</node>
	<node lat="68.76144722400002" lon="17.84329720850754" id="-97510">
		<tag k="name" v="Skarlegda" />
		<tag k="natural" v="slope" />
		<tag k="place" v="locality" />
		<tag k="ssr:stedsnr" v="421709" />
	</node>
	<node lat="68.78089166462549" lon="17.668044438211112" id="-97511">
		<tag k="name" v="Høyberget" />
		<tag k="natural" v="hill" />
		<tag k="place" v="locality" />
		<tag k="ssr:stedsnr" v="422122" />
	</node>
	<node lat="68.76371666418277" lon="17.80018333416663" id="-97512">
		<tag k="name" v="Hesjevikbukta" />
		<tag k="natural" v="bay" />
		<tag k="ssr:stedsnr" v="422255" />
	</node>
	<node lat="68.76100555302548" lon="17.804124989470754" id="-97513">
		<tag k="name" v="Hesteberget" />
		<tag k="natural" v="hill" />
		<tag k="place" v="locality" />
		<tag k="ssr:stedsnr" v="422258" />
	</node>
	<node lat="68.74750000219193" lon="17.76281388894112" id="-97514">
		<tag k="name" v="Kista" />
		<tag k="place" v="locality" />
		<tag k="ssr:stedsnr" v="422269" />
	</node>
	<node lat="68.76135277555719" lon="17.762650007332542" id="-97515">
		<tag k="name" v="Mellabakkan" />
		<tag k="natural" v="slope" />
		<tag k="place" v="locality" />
		<tag k="ssr:stedsnr" v="422363" />
	</node>
	<node lat="68.63574166868898" lon="17.92493610100464" id="-97516">
		<tag k="name" v="Tuvflaten" />
		<tag k="place" v="locality" />
		<tag k="ssr:stedsnr" v="422603" />
	</node>
	<node lat="68.71946389114925" lon="17.838441674929204" id="-97517">
		<tag k="name" v="Hamran" />
		<tag k="natural" v="hill" />
		<tag k="place" v="locality" />
		<tag k="ssr:stedsnr" v="422607" />
	</node>
	<node lat="68.71881666736225" lon="17.89044999280459" id="-97518">
		<tag k="name" v="Vilgesbákti - Kviteberget" />
		<tag k="name:no" v="Kviteberget" />
		<tag k="name:se" v="Vilgesbákti" />
		<tag k="natural" v="hill" />
		<tag k="place" v="locality" />
		<tag k="ssr:stedsnr" v="422623" />
	</node>
	<node lat="68.68563889108965" lon="17.967022209966874" id="-97519">
		<tag k="name" v="Iverfossen" />
		<tag k="natural" v="waterfall" />
		<tag k="ssr:stedsnr" v="441699" />
	</node>
	<node lat="68.69941389219335" lon="18.009863879503644" id="-97520">
		<tag k="loc_name:se" v="Bákteálajohka" />
		<tag k="name" v="Bakdalsbekken" />
		<tag k="name:no" v="Bakdalsbekken" />
		<tag k="ssr:stedsnr" v="442360" />
		<tag k="waterway" v="stream" />
	</node>
	<node lat="68.61744722470937" lon="17.904330555375292" id="-97521">
		<tag k="name" v="Kibergan" />
		<tag k="natural" v="hill" />
		<tag k="place" v="locality" />
		<tag k="ssr:stedsnr" v="442551" />
	</node>
	<node lat="68.61854722206265" lon="17.7978749961224" id="-97522">
		<tag k="alt_name" v="Britavatnet, l" />
		<tag k="name" v="Litle Britavatnet" />
		<tag k="natural" v="water" />
		<tag k="ssr:stedsnr" v="442553" />
	</node>
	<node lat="68.81661111508372" lon="17.488625007566057" id="-97523">
		<tag k="alt_name" v="Skjelnes" />
		<tag k="name" v="Skjelneset" />
		<tag k="natural" v="cape" />
		<tag k="ssr:stedsnr" v="442705" />
	</node>
	<node lat="68.80987222569418" lon="17.851975007544382" id="-97524">
		<tag k="loc_name:se" v="Siellákáidi" />
		<tag k="name" v="Loabákáidi - Lavangseidet" />
		<tag k="name:no" v="Lavangseidet" />
		<tag k="name:se" v="Loabákáidi" />
		<tag k="natural" v="isthmus" />
		<tag k="place" v="locality" />
		<tag k="ssr:stedsnr" v="442711" />
	</node>
	<node lat="68.78023610831805" lon="17.600491653973023" id="-97525">
		<tag k="name" v="Finneneselva" />
		<tag k="ssr:stedsnr" v="442753" />
		<tag k="waterway" v="stream" />
	</node>
	<node lat="68.76999999792403" lon="17.804091655783008" id="-97526">
		<tag k="alt_name" v="Tha" />
		<tag k="fixme" v="multiple name tags, choose one and add the other to alt_name" />
		<tag k="name" v="Altanen;Ta" />
		<tag k="place" v="farm" />
		<tag k="ssr:stedsnr" v="443691" />
	</node>
	<node lat="68.76476388961504" lon="17.88868888000776" id="-97527">
		<tag k="alt_name" v="Lægdelva" />
		<tag k="name" v="Legdelva" />
		<tag k="ssr:stedsnr" v="443696" />
		<tag k="waterway" v="stream" />
	</node>
	<node lat="68.76089166299795" lon="17.693844442730242" id="-97528">
		<tag k="name" v="Lømyra" />
		<tag k="natural" v="wetland" />
		<tag k="ssr:stedsnr" v="443697" />
	</node>
	<node lat="68.75426388789239" lon="17.756572222542257" id="-97529">
		<tag k="name" v="Myrbakkan" />
		<tag k="natural" v="slope" />
		<tag k="place" v="locality" />
		<tag k="ssr:stedsnr" v="443707" />
	</node>
	<node lat="68.70556944093478" lon="17.94593610437851" id="-97530">
		<tag k="name" v="Beasseloapmi" />
		<tag k="name:se" v="Beasseloapmi" />
		<tag k="natural" v="slope" />
		<tag k="place" v="locality" />
		<tag k="ssr:stedsnr" v="448635" />
	</node>
	<node lat="68.73991388712801" lon="17.81302222029504" id="-97531">
		<tag k="name" v="Oksereitet" />
		<tag k="natural" v="slope" />
		<tag k="place" v="locality" />
		<tag k="ssr:stedsnr" v="663432" />
	</node>
	<node lat="68.78058611143095" lon="17.79730000682721" id="-97532">
		<tag k="name" v="Brørsteinan" />
		<tag k="natural" v="stone" />
		<tag k="ssr:stedsnr" v="663554" />
	</node>
	<node lat="68.78981944406141" lon="17.571236098477385" id="-97533">
		<tag k="name" v="Breilia" />
		<tag k="natural" v="slope" />
		<tag k="place" v="locality" />
		<tag k="ssr:stedsnr" v="663200" />
	</node>
	<node lat="68.79219999584393" lon="17.557555557520846" id="-97534">
		<tag k="name" v="Ramne" />
		<tag k="natural" v="slope" />
		<tag k="place" v="locality" />
		<tag k="ssr:stedsnr" v="663201" />
	</node>
	<node lat="68.79534444771092" lon="17.757724994420023" id="-97535">
		<tag k="fixme" v="consider natural=peak for the most distinct mountains in the district" />
		<tag k="name" v="Slåttefjellet" />
		<tag k="natural" v="hill" />
		<tag k="place" v="locality" />
		<tag k="ssr:stedsnr" v="663378" />
	</node>
	<node lat="68.74709999979571" lon="17.818777771758697" id="-97536">
		<tag k="highway" v="path" />
		<tag k="name" v="Trongstien" />
		<tag k="ssr:stedsnr" v="663450" />
	</node>
	<node lat="68.72684722694991" lon="17.82576110422773" id="-97537">
		<tag k="name" v="Botolvsteinen" />
		<tag k="natural" v="stone" />
		<tag k="ssr:stedsnr" v="663471" />
	</node>
	<node lat="68.728416663895" lon="17.76667776254547" id="-97538">
		<tag k="name" v="Mellalegda" />
		<tag k="natural" v="slope" />
		<tag k="place" v="locality" />
		<tag k="ssr:stedsnr" v="663478" />
	</node>
	<node lat="68.73542778076457" lon="17.815597229915376" id="-97539">
		<tag k="name" v="Forrhågen" />
		<tag k="natural" v="hill" />
		<tag k="place" v="locality" />
		<tag k="ssr:stedsnr" v="663479" />
	</node>
	<node lat="68.69513888944006" lon="17.981616662974144" id="-97540">
		<tag k="name" v="Knutskogen" />
		<tag k="place" v="locality" />
		<tag k="ssr:stedsnr" v="663759" />
	</node>
	<node lat="68.69030277445539" lon="17.96517498792061" id="-97541">
		<tag k="name" v="Pikhaugmyra" />
		<tag k="natural" v="wetland" />
		<tag k="ssr:stedsnr" v="663765" />
	</node>
	<node lat="68.72021388559874" lon="17.78575276322542" id="-97542">
		<tag k="name" v="Holmen" />
		<tag k="natural" v="slope" />
		<tag k="place" v="locality" />
		<tag k="ssr:stedsnr" v="665162" />
	</node>
	<node lat="68.74942222336868" lon="17.775397214337204" id="-97543">
		<tag k="name" v="Moendan" />
		<tag k="natural" v="slope" />
		<tag k="place" v="locality" />
		<tag k="ssr:stedsnr" v="665335" />
	</node>
	<node lat="68.65583889209402" lon="17.89483889854158" id="-97544">
		<tag k="name" v="Slipsteinbekken" />
		<tag k="ssr:stedsnr" v="665579" />
		<tag k="waterway" v="stream" />
	</node>
	<node lat="68.6542583361457" lon="17.899044435600697" id="-97545">
		<tag k="name" v="Surhøyflata" />
		<tag k="place" v="locality" />
		<tag k="ssr:stedsnr" v="665581" />
	</node>
	<node lat="68.67077500382746" lon="17.951908338306577" id="-97546">
		<tag k="name" v="Storskogen" />
		<tag k="place" v="locality" />
		<tag k="ssr:stedsnr" v="665586" />
	</node>
	<node lat="68.67902222301662" lon="17.994441672986895" id="-97547">
		<tag k="fixme" v="consider natural=peak for the most distinct mountains in the district" />
		<tag k="name" v="Middagsfjellet" />
		<tag k="natural" v="hill" />
		<tag k="place" v="locality" />
		<tag k="ssr:stedsnr" v="475383" />
	</node>
	<node lat="68.79575833171113" lon="17.566144442452696" id="-97548">
		<tag k="loc_name:se" v="Siida" />
		<tag k="name" v="Heimen" />
		<tag k="name:no" v="Heimen" />
		<tag k="place" v="locality" />
		<tag k="ssr:stedsnr" v="481222" />
	</node>
	<node lat="68.80138055446733" lon="17.777966667858504" id="-97549">
		<tag k="name" v="Gråsteinvatnet" />
		<tag k="natural" v="water" />
		<tag k="ssr:stedsnr" v="481420" />
	</node>
	<node lat="68.8014666625938" lon="17.738963884610072" id="-97550">
		<tag k="name" v="Gluntegammen" />
		<tag k="place" v="locality" />
		<tag k="ssr:stedsnr" v="481503" />
	</node>
	<node lat="68.72453888832088" lon="17.813011103921053" id="-97551">
		<tag k="name" v="Tverrelvlia" />
		<tag k="natural" v="slope" />
		<tag k="place" v="locality" />
		<tag k="ssr:stedsnr" v="481512" />
	</node>
	<node lat="68.78306666371725" lon="17.804749990153883" id="-97552">
		<tag k="name" v="Åbergan" />
		<tag k="natural" v="hill" />
		<tag k="place" v="locality" />
		<tag k="ssr:stedsnr" v="481567" />
	</node>
	<node lat="68.77824444850809" lon="17.822649988473135" id="-97553">
		<tag k="name" v="Hestoldran" />
		<tag k="natural" v="slope" />
		<tag k="place" v="locality" />
		<tag k="ssr:stedsnr" v="481570" />
	</node>
	<node lat="68.72965833185044" lon="17.848219430319578" id="-97554">
		<tag k="name" v="Duđggajeaggi" />
		<tag k="name:se" v="Duđggajeaggi" />
		<tag k="natural" v="wetland" />
		<tag k="ssr:stedsnr" v="481713" />
	</node>
	<node lat="68.76265833696948" lon="17.81272500739781" id="-97555">
		<tag k="name" v="Finnegråhågen" />
		<tag k="natural" v="hill" />
		<tag k="place" v="locality" />
		<tag k="ssr:stedsnr" v="483311" />
	</node>
	<node lat="68.75571111481098" lon="17.819619430877708" id="-97556">
		<tag k="name" v="Moldfallet" />
		<tag k="natural" v="slope" />
		<tag k="place" v="locality" />
		<tag k="ssr:stedsnr" v="483321" />
	</node>
	<node lat="68.76441666613496" lon="17.679763876641964" id="-97557">
		<tag k="name" v="Vakkermoan" />
		<tag k="place" v="locality" />
		<tag k="ssr:stedsnr" v="483390" />
	</node>
	<node lat="68.67266666900949" lon="17.8735138964062" id="-97558">
		<tag k="name" v="Ranen" />
		<tag k="natural" v="ridge" />
		<tag k="place" v="locality" />
		<tag k="ssr:stedsnr" v="483570" />
	</node>
	<node lat="68.66638610883062" lon="17.900147206816047" id="-97559">
		<tag k="name" v="Annabakken" />
		<tag k="natural" v="slope" />
		<tag k="place" v="locality" />
		<tag k="ssr:stedsnr" v="483575" />
	</node>
	<node lat="68.8134194463036" lon="17.728030551328445" id="-97560">
		<tag k="name" v="Gámariehppi" />
		<tag k="name:se" v="Gámariehppi" />
		<tag k="natural" v="valley" />
		<tag k="place" v="locality" />
		<tag k="ssr:stedsnr" v="507089" />
	</node>
	<node lat="68.79709444416828" lon="17.540638888407248" id="-97561">
		<tag k="name" v="Lian" />
		<tag k="natural" v="slope" />
		<tag k="place" v="locality" />
		<tag k="ssr:stedsnr" v="542191" />
	</node>
	<node lat="68.79655277676748" lon="17.716291675851295" id="-97562">
		<tag k="name" v="Gardselva" />
		<tag k="ssr:stedsnr" v="542405" />
		<tag k="waterway" v="stream" />
	</node>
	<node lat="68.74775833319859" lon="17.808841656730888" id="-97563">
		<tag k="name" v="Vollen" />
		<tag k="place" v="farm" />
		<tag k="ssr:stedsnr" v="542473" />
	</node>
	<node lat="68.75442222468999" lon="17.837600006832446" id="-97564">
		<tag k="name" v="Bangselielva" />
		<tag k="ssr:stedsnr" v="542474" />
		<tag k="waterway" v="stream" />
	</node>
	<node lat="68.74846111298467" lon="17.817291662163615" id="-97565">
		<tag k="name" v="Mikkelmoen" />
		<tag k="place" v="farm" />
		<tag k="ssr:stedsnr" v="542475" />
	</node>
	<node lat="68.67925277687208" lon="17.92186944527358" id="-97566">
		<tag k="name" v="Sætra" />
		<tag k="place" v="locality" />
		<tag k="ssr:stedsnr" v="542684" />
	</node>
	<node lat="68.68306389160212" lon="17.97756110477333" id="-97567">
		<tag k="name" v="Hestebakken" />
		<tag k="natural" v="slope" />
		<tag k="place" v="locality" />
		<tag k="ssr:stedsnr" v="542689" />
	</node>
	<node lat="68.68777222182695" lon="17.9747583365754" id="-97568">
		<tag k="landuse" v="meadow" />
		<tag k="name" v="Larsjordet" />
		<tag k="ssr:stedsnr" v="542690" />
	</node>
	<node lat="68.75565278159502" lon="17.68449999963179" id="-97569">
		<tag k="name" v="Tverrelvmyran" />
		<tag k="natural" v="wetland" />
		<tag k="ssr:stedsnr" v="543382" />
	</node>
	<node lat="68.75934444874488" lon="17.756483332572532" id="-97570">
		<tag k="name" v="Brekka" />
		<tag k="place" v="farm" />
		<tag k="ssr:stedsnr" v="543389" />
	</node>
	<node lat="68.76056388606217" lon="17.823649995927163" id="-97571">
		<tag k="alt_name" v="Svartflåget" />
		<tag k="name" v="Svartfloget" />
		<tag k="natural" v="hill" />
		<tag k="place" v="locality" />
		<tag k="ssr:stedsnr" v="543292" />
	</node>
	<node lat="68.71749722531226" lon="17.888872231026472" id="-97572">
		<tag k="loc_name" v="Kamsletta" />
		<tag k="name" v="Kamesletta" />
		<tag k="place" v="locality" />
		<tag k="ssr:stedsnr" v="543611" />
	</node>
	<node lat="68.63939722484939" lon="17.92469999886592" id="-97573">
		<tag k="name" v="Tverrelvflaten" />
		<tag k="place" v="locality" />
		<tag k="ssr:stedsnr" v="543591" />
	</node>
	<node lat="68.64051389001797" lon="17.923566661523978" id="-97574">
		<tag k="name" v="Tverrelva" />
		<tag k="ssr:stedsnr" v="543594" />
		<tag k="waterway" v="stream" />
	</node>
	<node lat="68.66642221899107" lon="17.90998888046611" id="-97575">
		<tag k="name" v="Annebo" />
		<tag k="natural" v="hill" />
		<tag k="place" v="locality" />
		<tag k="ssr:stedsnr" v="544530" />
	</node>
	<node lat="68.65547778118739" lon="17.894913886903943" id="-97576">
		<tag k="name" v="Brattbakken" />
		<tag k="natural" v="slope" />
		<tag k="place" v="locality" />
		<tag k="ssr:stedsnr" v="544532" />
	</node>
	<node lat="68.69604166324685" lon="18.013497222027716" id="-97577">
		<tag k="name" v="Mina" />
		<tag k="place" v="locality" />
		<tag k="ssr:stedsnr" v="563333" />
	</node>
	<node lat="68.80187222546483" lon="17.679838886947604" id="-97578">
		<tag k="alt_name" v="Storhompen" />
		<tag k="fixme" v="consider natural=peak for the most distinct mountains in the district" />
		<tag k="name" v="Storhumpen" />
		<tag k="natural" v="hill" />
		<tag k="place" v="locality" />
		<tag k="ssr:stedsnr" v="563735" />
	</node>
	<node lat="68.78066666294689" lon="17.65558055520141" id="-97579">
		<tag k="name" v="Hestnes" />
		<tag k="place" v="hamlet" />
		<tag k="ssr:stedsnr" v="571777" />
	</node>
	<node lat="68.82596944667408" lon="17.701769452310646" id="-97580">
		<tag k="name" v="Gamvikelvvatnan" />
		<tag k="natural" v="water" />
		<tag k="ssr:stedsnr" v="685669" />
		<tag k="water" v="lake" />
	</node>
	<node lat="68.79541229241288" lon="17.718828540496677" id="-97581">
		<tag k="loc_name:se" v="Liiddak" />
		<tag k="name" v="Lia" />
		<tag k="name:no" v="Lia" />
		<tag k="place" v="farm" />
		<tag k="ssr:stedsnr" v="685684" />
	</node>
	<node lat="68.79086111417534" lon="17.474119444742936" id="-97582">
		<tag k="fixme" v="multiple name tags, choose one and add the other to alt_name" />
		<tag k="name" v="Blåvatnet;Kollvatnet" />
		<tag k="natural" v="water" />
		<tag k="ssr:stedsnr" v="685690" />
		<tag k="water" v="lake" />
	</node>
	<node lat="68.68807778112975" lon="18.01371944817254" id="-97583">
		<tag k="name" v="Langbakken" />
		<tag k="natural" v="slope" />
		<tag k="place" v="locality" />
		<tag k="ssr:stedsnr" v="597376" />
	</node>
	<node lat="68.79666666275781" lon="17.485772223679415" id="-97584">
		<tag k="name" v="Holmen" />
		<tag k="place" v="islet" />
		<tag k="ssr:stedsnr" v="602208" />
	</node>
	<node lat="68.74349166627408" lon="17.805730548327638" id="-97585">
		<tag k="name" v="Melan" />
		<tag k="natural" v="slope" />
		<tag k="place" v="locality" />
		<tag k="ssr:stedsnr" v="602305" />
	</node>
	<node lat="68.73863055885896" lon="17.799552782434933" id="-97586">
		<tag k="name" v="Blåstranda" />
		<tag k="natural" v="beach" />
		<tag k="ssr:stedsnr" v="602460" />
	</node>
	<node lat="68.79453889279438" lon="17.758813887182534" id="-97587">
		<tag k="landuse" v="meadow" />
		<tag k="name" v="Grønjorda" />
		<tag k="ssr:stedsnr" v="602409" />
	</node>
	<node lat="68.72268333531021" lon="17.825158326392362" id="-97588">
		<tag k="name" v="Storlia" />
		<tag k="natural" v="slope" />
		<tag k="place" v="locality" />
		<tag k="ssr:stedsnr" v="602505" />
	</node>
	<node lat="68.72401111223832" lon="17.768727779636873" id="-97589">
		<tag k="highway" v="path" />
		<tag k="name" v="Rødbergveien" />
		<tag k="ssr:stedsnr" v="602517" />
	</node>
	<node lat="68.76600000273355" lon="17.89662499203279" id="-97590">
		<tag k="name" v="Soløybotn" />
		<tag k="natural" v="valley" />
		<tag k="place" v="locality" />
		<tag k="ssr:stedsnr" v="602814" />
	</node>
	<node lat="68.77954444551983" lon="17.62737500637962" id="-97591">
		<tag k="name" v="Kveldsmarka" />
		<tag k="place" v="locality" />
		<tag k="ssr:stedsnr" v="604272" />
	</node>
	<node lat="68.74383314593466" lon="17.79390764954115" id="-97592">
		<tag k="name" v="Myrelva" />
		<tag k="ssr:stedsnr" v="604275" />
		<tag k="waterway" v="stream" />
	</node>
	<node lat="68.74441944247755" lon="17.75904166022749" id="-97593">
		<tag k="name" v="Vedhågen" />
		<tag k="natural" v="hill" />
		<tag k="place" v="locality" />
		<tag k="ssr:stedsnr" v="604279" />
	</node>
	<node lat="68.63941944608185" lon="17.920444451147272" id="-97594">
		<tag k="name" v="Daugamman" />
		<tag k="place" v="locality" />
		<tag k="ssr:stedsnr" v="604625" />
	</node>
	<node lat="68.66483888477529" lon="17.871916670248446" id="-97595">
		<tag k="name" v="Lapphaugaksla" />
		<tag k="place" v="locality" />
		<tag k="ssr:stedsnr" v="604561" />
	</node>
	<node lat="68.78149721930188" lon="17.6304611032501" id="-97596">
		<tag k="name" v="Keiprød" />
		<tag k="place" v="farm" />
		<tag k="ssr:stedsnr" v="689354" />
	</node>
	<node lat="68.78278055645544" lon="17.624044435965036" id="-97597">
		<tag k="name" v="Keiprød" />
		<tag k="place" v="farm" />
		<tag k="ssr:stedsnr" v="689361" />
	</node>
	<node lat="68.79369166646558" lon="17.952950004319643" id="-97598">
		<tag k="fixme" v="consider natural=peak for the most distinct mountains in the district" />
		<tag k="name" v="Seainnavárri - Tønsheia" />
		<tag k="name:no" v="Tønsheia" />
		<tag k="name:se" v="Seainnavárri" />
		<tag k="natural" v="hill" />
		<tag k="place" v="locality" />
		<tag k="ssr:stedsnr" v="689661" />
	</node>
	<node lat="68.6307444406942" lon="17.821722211297917" id="-97599">
		<tag k="fixme" v="consider natural=peak for the most distinct mountains in the district" />
		<tag k="name" v="Litletinden" />
		<tag k="natural" v="hill" />
		<tag k="place" v="locality" />
		<tag k="ssr:stedsnr" v="624508" />
	</node>
	<node lat="68.71525277848446" lon="17.790544439189198" id="-97600">
		<tag k="name" v="Forhaugelva" />
		<tag k="ssr:stedsnr" v="624573" />
		<tag k="waterway" v="stream" />
	</node>
	<node lat="68.78771389149126" lon="17.813019441098344" id="-97601">
		<tag k="name" v="Kvitholtan" />
		<tag k="natural" v="hill" />
		<tag k="place" v="locality" />
		<tag k="ssr:stedsnr" v="624708" />
	</node>
	<node lat="68.773616666115" lon="17.610219445323963" id="-97602">
		<tag k="name" v="Heia" />
		<tag k="natural" v="hill" />
		<tag k="place" v="locality" />
		<tag k="ssr:stedsnr" v="624716" />
	</node>
	<node lat="68.7261772425326" lon="17.810056421894686" id="-97603">
		<tag k="alt_name" v="Moshågen" />
		<tag k="name" v="Moshaugen" />
		<tag k="place" v="farm" />
		<tag k="ssr:stedsnr" v="624924" />
	</node>
	<node lat="68.70703333454469" lon="17.960208324614722" id="-97604">
		<tag k="name" v="Bissogállu - Skredranen" />
		<tag k="name:no" v="Skredranen" />
		<tag k="name:se" v="Bissogállu" />
		<tag k="natural" v="hill" />
		<tag k="place" v="locality" />
		<tag k="ssr:stedsnr" v="691598" />
	</node>
	<node lat="68.6780888935517" lon="17.889330544538865" id="-97605">
		<tag k="name" v="Sennekjosen" />
		<tag k="natural" v="bay" />
		<tag k="ssr:stedsnr" v="632589" />
	</node>
	<node lat="68.80551666860802" lon="17.610777773132256" id="-97606">
		<tag k="loc_name:se" v="Johkanjárga" />
		<tag k="name" v="Elveneset" />
		<tag k="name:no" v="Elveneset" />
		<tag k="natural" v="cape" />
		<tag k="ssr:stedsnr" v="879984" />
	</node>
	<node lat="68.73675833341265" lon="17.799738874275896" id="-97607">
		<tag k="name" v="Fagerbakken" />
		<tag k="natural" v="slope" />
		<tag k="place" v="locality" />
		<tag k="ssr:stedsnr" v="663425" />
	</node>
	<node lat="68.73606389131601" lon="17.782588889823693" id="-97608">
		<tag k="name" v="Polldalmoen" />
		<tag k="place" v="locality" />
		<tag k="ssr:stedsnr" v="663443" />
	</node>
	<node lat="68.75111944646837" lon="17.815127772807358" id="-97609">
		<tag k="name" v="Hågen" />
		<tag k="place" v="farm" />
		<tag k="ssr:stedsnr" v="663448" />
	</node>
	<node lat="68.7961833339826" lon="17.70288332652588" id="-97610">
		<tag k="name" v="Kuholla" />
		<tag k="natural" v="valley" />
		<tag k="place" v="locality" />
		<tag k="ssr:stedsnr" v="663401" />
	</node>
	<node lat="68.76633736946566" lon="17.806890728769837" id="-97611">
		<tag k="alt_name:no" v="Hesjevik" />
		<tag k="loc_name:se" v="Heasseviika" />
		<tag k="name" v="Hesjevika" />
		<tag k="name:no" v="Hesjevika" />
		<tag k="place" v="farm" />
		<tag k="ssr:stedsnr" v="663506" />
	</node>
	<node lat="68.77734166907116" lon="17.726530551646807" id="-97612">
		<tag k="name" v="Stokkevika" />
		<tag k="natural" v="bay" />
		<tag k="ssr:stedsnr" v="663537" />
	</node>
	<node lat="68.73614166836758" lon="17.848058323923446" id="-97613">
		<tag k="fixme" v="consider natural=saddle" />
		<tag k="name" v="Kvanndalsskaret" />
		<tag k="natural" v="valley" />
		<tag k="place" v="locality" />
		<tag k="ssr:stedsnr" v="663709" />
	</node>
	<node lat="68.67887396068069" lon="17.91500474980323" id="-97614">
		<tag k="alt_name" v="Basivárri" />
		<tag k="fixme" v="consider tourism=alpine_hut or tourism=chalet" />
		<tag k="name" v="Bassevarre" />
		<tag k="ssr:stedsnr" v="663695" />
		<tag k="tourism" v="wilderness_hut" />
	</node>
	<node lat="68.68439721852599" lon="17.97433332988379" id="-97615">
		<tag k="highway" v="path" />
		<tag k="name" v="Soldatveien" />
		<tag k="ssr:stedsnr" v="663702" />
	</node>
	<node lat="68.77051944788727" lon="17.8588472228444" id="-97616">
		<tag k="name" v="Botnhågen" />
		<tag k="natural" v="hill" />
		<tag k="place" v="locality" />
		<tag k="ssr:stedsnr" v="663804" />
	</node>
	<node lat="68.76741944557844" lon="17.857555549445326" id="-97617">
		<tag k="name" v="Botnhågryggen" />
		<tag k="natural" v="ridge" />
		<tag k="place" v="locality" />
		<tag k="ssr:stedsnr" v="663808" />
	</node>
	<node lat="68.76770000174817" lon="17.879163878933213" id="-97618">
		<tag k="name" v="Botnmyran" />
		<tag k="natural" v="wetland" />
		<tag k="ssr:stedsnr" v="663799" />
	</node>
	<node lat="68.6994805530003" lon="17.997036111849873" id="-97619">
		<tag k="name" v="Govdanjuokčča - Lia" />
		<tag k="name:no" v="Lia" />
		<tag k="name:se" v="Govdanjuokčča" />
		<tag k="natural" v="slope" />
		<tag k="place" v="locality" />
		<tag k="ssr:stedsnr" v="663800" />
	</node>
	<node lat="68.75245000056299" lon="17.713736106859685" id="-97620">
		<tag k="name" v="Stormyra" />
		<tag k="natural" v="wetland" />
		<tag k="ssr:stedsnr" v="665430" />
	</node>
	<node lat="68.75549167113603" lon="17.773655548293384" id="-97621">
		<tag k="name" v="Grindgangen" />
		<tag k="natural" v="slope" />
		<tag k="place" v="locality" />
		<tag k="ssr:stedsnr" v="665328" />
	</node>
	<node lat="68.63699444155475" lon="17.941055551175126" id="-97622">
		<tag k="name" v="Loftan" />
		<tag k="natural" v="hill" />
		<tag k="place" v="locality" />
		<tag k="ssr:stedsnr" v="665652" />
	</node>
	<node lat="68.77257499699448" lon="17.64505555336028" id="-97623">
		<tag k="name" v="Hestneselva" />
		<tag k="ssr:stedsnr" v="685704" />
		<tag k="waterway" v="stream" />
	</node>
	<node lat="68.77574166466201" lon="17.622641671265075" id="-97624">
		<tag k="name" v="Keiprødelva" />
		<tag k="ssr:stedsnr" v="685705" />
		<tag k="waterway" v="stream" />
	</node>
	<node lat="68.77205019535585" lon="17.801711909763267" id="-97625">
		<tag k="alt_name" v="Lavangen" />
		<tag k="amenity" v="place_of_worship" />
		<tag k="denomination" v="lutheran" />
		<tag k="name" v="Lavangen kirke" />
		<tag k="religion" v="christian" />
		<tag k="ssr:stedsnr" v="685708" />
	</node>
	<node lat="68.76854444871958" lon="17.86104443980174" id="-97626">
		<tag k="loc_name:se" v="Heasseviikajohka" />
		<tag k="name" v="Hesjevikelva" />
		<tag k="name:no" v="Hesjevikelva" />
		<tag k="ssr:stedsnr" v="685711" />
		<tag k="waterway" v="river" />
	</node>
	<node lat="68.63625833143969" lon="17.875150006353817" id="-97627">
		<tag k="fixme" v="multiple name tags, choose one and add the other to alt_name; consider natural=peak for the most distinct mountains in the district" />
		<tag k="loc_name:se" v="Riikonađđa" />
		<tag k="name" v="Skaftet;Storsteinaksla;Ausa" />
		<tag k="name:no" v="Skaftet;Storsteinaksla;Ausa" />
		<tag k="natural" v="hill" />
		<tag k="place" v="locality" />
		<tag k="ssr:stedsnr" v="685497" />
	</node>
	<node lat="68.7749194422238" lon="17.537958331486706" id="-97628">
		<tag k="name" v="Reinlandsvatnet" />
		<tag k="natural" v="water" />
		<tag k="ssr:stedsnr" v="685701" />
	</node>
	<node lat="68.71304709477906" lon="17.919921536066745" id="-97629">
		<tag k="loc_name:se" v="Girkodievvá" />
		<tag k="name" v="Kjerkhaugen" />
		<tag k="name:no" v="Kjerkhaugen" />
		<tag k="natural" v="hill" />
		<tag k="place" v="locality" />
		<tag k="ssr:stedsnr" v="691588" />
	</node>
	<node lat="68.7891638884431" lon="17.51926110385799" id="-97630">
		<tag k="name" v="Reingjerdan" />
		<tag k="natural" v="slope" />
		<tag k="place" v="locality" />
		<tag k="ssr:stedsnr" v="724180" />
	</node>
	<node lat="68.80153055630012" lon="17.543972228143772" id="-97631">
		<tag k="name" v="Viken" />
		<tag k="place" v="farm" />
		<tag k="ssr:stedsnr" v="724185" />
	</node>
	<node lat="68.81385277934953" lon="17.85496944485569" id="-97632">
		<tag k="name" v="Skillajohka" />
		<tag k="name:se" v="Skillajohka" />
		<tag k="ssr:stedsnr" v="724203" />
		<tag k="waterway" v="stream" />
	</node>
	<node lat="68.79713055539159" lon="17.78690832532285" id="-97633">
		<tag k="name" v="Rundhågan" />
		<tag k="natural" v="hill" />
		<tag k="place" v="locality" />
		<tag k="ssr:stedsnr" v="724381" />
	</node>
	<node lat="68.77747500324477" lon="17.69183888804199" id="-97634">
		<tag k="name" v="Storsteinan" />
		<tag k="natural" v="stone" />
		<tag k="ssr:stedsnr" v="724527" />
	</node>
	<node lat="68.78072222569104" lon="17.67716667103352" id="-97635">
		<tag k="name" v="Rubbetoften" />
		<tag k="natural" v="bay" />
		<tag k="ssr:stedsnr" v="724530" />
	</node>
	<node lat="68.72267222482981" lon="17.851455556562794" id="-97636">
		<tag k="name" v="Busletta" />
		<tag k="place" v="locality" />
		<tag k="ssr:stedsnr" v="724703" />
	</node>
	<node lat="68.72458888694074" lon="17.84487778165223" id="-97637">
		<tag k="name" v="Jon-Mikkelsabakken" />
		<tag k="natural" v="slope" />
		<tag k="place" v="locality" />
		<tag k="ssr:stedsnr" v="724706" />
	</node>
	<node lat="68.73467499962011" lon="17.808577763246685" id="-97638">
		<tag k="name" v="Neset" />
		<tag k="natural" v="cape" />
		<tag k="ssr:stedsnr" v="724476" />
	</node>
	<node lat="68.68259166720041" lon="17.964669432889206" id="-97639">
		<tag k="name" v="Hulderbergan" />
		<tag k="natural" v="hill" />
		<tag k="place" v="locality" />
		<tag k="ssr:stedsnr" v="724680" />
	</node>
	<node lat="68.77461666528184" lon="17.642944434422954" id="-97640">
		<tag k="name" v="Innerhågen" />
		<tag k="natural" v="hill" />
		<tag k="place" v="locality" />
		<tag k="ssr:stedsnr" v="726128" />
	</node>
	<node lat="68.78210000061077" lon="17.603766660070487" id="-97641">
		<tag k="ford" v="yes" />
		<tag k="name" v="Martavaet" />
		<tag k="place" v="locality" />
		<tag k="ssr:stedsnr" v="726274" />
	</node>
	<node lat="68.80771944619678" lon="17.481305543012624" id="-97642">
		<tag k="fixme" v="consider natural=peak for the most distinct mountains in the district" />
		<tag k="name" v="Skjelneskollen" />
		<tag k="natural" v="hill" />
		<tag k="place" v="locality" />
		<tag k="ssr:stedsnr" v="745726" />
	</node>
	<node lat="68.72718055256637" lon="17.73169722766238" id="-97643">
		<tag k="name" v="Svartelva" />
		<tag k="ssr:stedsnr" v="746922" />
		<tag k="waterway" v="stream" />
	</node>
	<node lat="68.74650833148013" lon="17.61509443108198" id="-97644">
		<tag k="name" v="Storelvvatnet" />
		<tag k="natural" v="water" />
		<tag k="ssr:stedsnr" v="746881" />
	</node>
	<node lat="68.74734999982797" lon="17.634316667502354" id="-97645">
		<tag k="fixme" v="consider natural=peak for the most distinct mountains in the district" />
		<tag k="loc_name:se" v="Geasseváráš" />
		<tag k="name" v="Rundkollen" />
		<tag k="name:no" v="Rundkollen" />
		<tag k="natural" v="hill" />
		<tag k="place" v="locality" />
		<tag k="ssr:stedsnr" v="746882" />
	</node>
	<node lat="68.79926110931557" lon="17.5427444324586" id="-97646">
		<tag k="name" v="Bufesletta" />
		<tag k="place" v="locality" />
		<tag k="ssr:stedsnr" v="785203" />
	</node>
	<node lat="68.79020833105037" lon="17.558094453514453" id="-97647">
		<tag k="name" v="Myran" />
		<tag k="natural" v="wetland" />
		<tag k="ssr:stedsnr" v="785215" />
	</node>
	<node lat="68.79255833494497" lon="17.748130548938153" id="-97648">
		<tag k="name" v="Heibergneset" />
		<tag k="natural" v="cape" />
		<tag k="ssr:stedsnr" v="785373" />
	</node>
	<node lat="68.79124444519337" lon="17.775808334511883" id="-97649">
		<tag k="name" v="Vollen" />
		<tag k="place" v="locality" />
		<tag k="ssr:stedsnr" v="785523" />
	</node>
	<node lat="68.73941944734602" lon="17.811424994948844" id="-97650">
		<tag k="name" v="Grindneset" />
		<tag k="natural" v="cape" />
		<tag k="ssr:stedsnr" v="785419" />
	</node>
	<node lat="68.7371694461623" lon="17.80750554287096" id="-97651">
		<tag k="name" v="Tyttebærhølla" />
		<tag k="place" v="locality" />
		<tag k="ssr:stedsnr" v="785420" />
	</node>
	<node lat="68.72592222503312" lon="17.78572500278025" id="-97652">
		<tag k="name" v="Hollabakken" />
		<tag k="natural" v="slope" />
		<tag k="place" v="locality" />
		<tag k="ssr:stedsnr" v="785473" />
	</node>
	<node lat="68.72289444603568" lon="17.831291670825966" id="-97653">
		<tag k="name" v="Legda" />
		<tag k="natural" v="slope" />
		<tag k="place" v="locality" />
		<tag k="ssr:stedsnr" v="785707" />
	</node>
	<node lat="68.68033610892222" lon="17.914191672792036" id="-97654">
		<tag k="name" v="Gauksletta" />
		<tag k="place" v="locality" />
		<tag k="ssr:stedsnr" v="785755" />
	</node>
	<node lat="68.70659722104523" lon="18.043980542767425" id="-97655">
		<tag k="fixme" v="consider natural=peak for the most distinct mountains in the district" />
		<tag k="name" v="Hatten" />
		<tag k="natural" v="hill" />
		<tag k="place" v="locality" />
		<tag k="ssr:stedsnr" v="785805" />
	</node>
	<node lat="68.74819721782342" lon="17.78494445078711" id="-97656">
		<tag k="name" v="Yttermarka" />
		<tag k="place" v="locality" />
		<tag k="ssr:stedsnr" v="786252" />
	</node>
	<node lat="68.66126944047589" lon="17.911044444064775" id="-97657">
		<tag k="name" v="Staurlokmyra" />
		<tag k="natural" v="wetland" />
		<tag k="ssr:stedsnr" v="786557" />
	</node>
	<node lat="68.66430000128565" lon="17.898741667003648" id="-97658">
		<tag k="highway" v="path" />
		<tag k="name" v="Stormyrveien" />
		<tag k="ssr:stedsnr" v="786559" />
	</node>
	<node lat="68.72037607353643" lon="17.861579385821575" id="-97659">
		<tag k="loc_name:no" v="Olderneset" />
		<tag k="loc_name:se" v="Leaibenjárga" />
		<tag k="name" v="Oldernes" />
		<tag k="name:no" v="Oldernes" />
		<tag k="place" v="farm" />
		<tag k="ssr:stedsnr" v="786623" />
	</node>
	<node lat="68.71510277967013" lon="17.84838887946094" id="-97660">
		<tag k="name" v="Heandrihkágorži - Henrikafossen" />
		<tag k="name:no" v="Henrikafossen" />
		<tag k="name:se" v="Heandrihkágorži" />
		<tag k="natural" v="waterfall" />
		<tag k="ssr:stedsnr" v="786652" />
	</node>
	<node lat="68.69057222598506" lon="18.04145278440155" id="-97661">
		<tag k="name" v="Kvanndalen" />
		<tag k="natural" v="valley" />
		<tag k="place" v="locality" />
		<tag k="ssr:stedsnr" v="901383" />
	</node>
	<node lat="68.77145555552477" lon="17.562477785659905" id="-97662">
		<tag k="name" v="Rundvatnet" />
		<tag k="natural" v="water" />
		<tag k="ssr:stedsnr" v="807699" />
	</node>
	<node lat="68.73400833798814" lon="17.805477773421163" id="-97663">
		<tag k="name" v="Brynndalen" />
		<tag k="natural" v="valley" />
		<tag k="place" v="locality" />
		<tag k="ssr:stedsnr" v="906477" />
	</node>
	<node lat="68.80633055533019" lon="17.789649998896135" id="-97664">
		<tag k="name" v="Lomvatnet" />
		<tag k="natural" v="water" />
		<tag k="ssr:stedsnr" v="906413" />
	</node>
	<node lat="68.79670278007497" lon="17.724838877686373" id="-97665">
		<tag k="name" v="Storberget" />
		<tag k="natural" v="hill" />
		<tag k="place" v="locality" />
		<tag k="ssr:stedsnr" v="906416" />
	</node>
	<node lat="68.79434166937162" lon="17.73322776954105" id="-97666">
		<tag k="name" v="Håkulen" />
		<tag k="natural" v="hill" />
		<tag k="place" v="locality" />
		<tag k="ssr:stedsnr" v="906428" />
	</node>
	<node lat="68.79530555743325" lon="17.686313879816563" id="-97667">
		<tag k="name" v="Hestesletta" />
		<tag k="place" v="locality" />
		<tag k="ssr:stedsnr" v="906431" />
	</node>
	<node lat="68.74028332984794" lon="17.816752784656" id="-97668">
		<tag k="name" v="Lammhammaren" />
		<tag k="natural" v="hill" />
		<tag k="place" v="locality" />
		<tag k="ssr:stedsnr" v="906481" />
	</node>
	<node lat="68.73731944328159" lon="17.802874997226276" id="-97669">
		<tag k="name" v="Løbotn" />
		<tag k="natural" v="valley" />
		<tag k="place" v="locality" />
		<tag k="ssr:stedsnr" v="906483" />
	</node>
	<node lat="68.74222777323438" lon="17.798050007136254" id="-97670">
		<tag k="name" v="Djupedalsbakken" />
		<tag k="natural" v="slope" />
		<tag k="place" v="locality" />
		<tag k="ssr:stedsnr" v="906489" />
	</node>
	<node lat="68.73306110877618" lon="17.812724985636315" id="-97671">
		<tag k="name" v="Løelva" />
		<tag k="ssr:stedsnr" v="906495" />
		<tag k="waterway" v="stream" />
	</node>
	<node lat="68.74351667120632" lon="17.817730542495998" id="-97672">
		<tag k="name" v="Rødvollbekken" />
		<tag k="ssr:stedsnr" v="906499" />
		<tag k="waterway" v="stream" />
	</node>
	<node lat="68.78244444815347" lon="17.79631945155364" id="-97673">
		<tag k="name" v="Andersholla" />
		<tag k="natural" v="valley" />
		<tag k="place" v="locality" />
		<tag k="ssr:stedsnr" v="906578" />
	</node>
	<node lat="68.77804444650924" lon="17.82938611518921" id="-97674">
		<tag k="highway" v="path" />
		<tag k="name" v="Småmoveien" />
		<tag k="ssr:stedsnr" v="906584" />
	</node>
	<node lat="68.69811944642375" lon="17.970927785888538" id="-97675">
		<tag k="name" v="Neplandsmyra" />
		<tag k="natural" v="wetland" />
		<tag k="ssr:stedsnr" v="906778" />
	</node>
	<node lat="68.6855638876919" lon="17.981374995886544" id="-97676">
		<tag k="name" v="Eggamyra" />
		<tag k="natural" v="wetland" />
		<tag k="ssr:stedsnr" v="906720" />
	</node>
	<node lat="68.68088055899226" lon="17.980724993884646" id="-97677">
		<tag k="name" v="Nibeskogen" />
		<tag k="place" v="locality" />
		<tag k="ssr:stedsnr" v="906724" />
	</node>
	<node lat="68.72818333127414" lon="17.870602769711546" id="-97678">
		<tag k="name" v="Skáidi" />
		<tag k="name:se" v="Skáidi" />
		<tag k="natural" v="cape" />
		<tag k="ssr:stedsnr" v="906738" />
	</node>
	<node lat="68.72224444740816" lon="17.844455544443996" id="-97679">
		<tag k="name" v="Njárga" />
		<tag k="name:se" v="Njárga" />
		<tag k="natural" v="cape" />
		<tag k="ssr:stedsnr" v="906746" />
	</node>
	<node lat="68.77057222096511" lon="17.89598055172171" id="-97680">
		<tag k="name" v="Anna-Mariagammen" />
		<tag k="place" v="locality" />
		<tag k="ssr:stedsnr" v="906835" />
	</node>
	<node lat="68.7752750017889" lon="17.869194438776102" id="-97681">
		<tag k="name" v="Klubban" />
		<tag k="natural" v="hill" />
		<tag k="place" v="locality" />
		<tag k="ssr:stedsnr" v="906841" />
	</node>
	<node lat="68.77841667105406" lon="17.630116662152425" id="-97682">
		<tag k="name" v="Bjørneberget" />
		<tag k="natural" v="hill" />
		<tag k="place" v="locality" />
		<tag k="ssr:stedsnr" v="908274" />
	</node>
	<node lat="68.7768638879693" lon="17.673038898052567" id="-97683">
		<tag k="fixme" v="consider natural=peak for the most distinct mountains in the district" />
		<tag k="name" v="Ørntinden" />
		<tag k="natural" v="hill" />
		<tag k="place" v="locality" />
		<tag k="ssr:stedsnr" v="908275" />
	</node>
	<node lat="68.76639999763182" lon="17.65984721560709" id="-97684">
		<tag k="name" v="Keipdalen" />
		<tag k="natural" v="valley" />
		<tag k="place" v="locality" />
		<tag k="ssr:stedsnr" v="908284" />
	</node>
	<node lat="68.7431583305338" lon="17.788966661478852" id="-97685">
		<tag k="name" v="Tømmermoen" />
		<tag k="place" v="locality" />
		<tag k="ssr:stedsnr" v="908289" />
	</node>
	<node lat="68.75883611202877" lon="17.695452767216192" id="-97686">
		<tag k="name" v="Tømmerhågen" />
		<tag k="natural" v="hill" />
		<tag k="place" v="locality" />
		<tag k="ssr:stedsnr" v="908435" />
	</node>
	<node lat="68.74666389245324" lon="17.69445000861811" id="-97687">
		<tag k="name" v="Heia" />
		<tag k="natural" v="hill" />
		<tag k="place" v="locality" />
		<tag k="ssr:stedsnr" v="908399" />
	</node>
	<node lat="68.6441611099922" lon="17.918697227604255" id="-97688">
		<tag k="name" v="Storflaten" />
		<tag k="place" v="locality" />
		<tag k="ssr:stedsnr" v="908642" />
	</node>
	<node lat="68.64022222260247" lon="17.906586103219265" id="-97689">
		<tag k="name" v="Pikhaugen" />
		<tag k="natural" v="hill" />
		<tag k="place" v="locality" />
		<tag k="ssr:stedsnr" v="908647" />
	</node>
	<node lat="68.79199166293978" lon="17.498686097733845" id="-97690">
		<tag k="name" v="Langneset" />
		<tag k="natural" v="cape" />
		<tag k="ssr:stedsnr" v="846184" />
	</node>
	<node lat="68.79987777752793" lon="17.641533324270135" id="-97691">
		<tag k="fixme" v="consider natural=peak for the most distinct mountains in the district" />
		<tag k="name" v="Jamtfjellet" />
		<tag k="natural" v="hill" />
		<tag k="place" v="locality" />
		<tag k="ssr:stedsnr" v="846197" />
	</node>
	<node lat="68.73391111096778" lon="17.8188416760114" id="-97692">
		<tag k="name" v="Forradalen" />
		<tag k="natural" v="valley" />
		<tag k="place" v="locality" />
		<tag k="ssr:stedsnr" v="846430" />
	</node>
	<node lat="68.73303888494173" lon="17.824788892754977" id="-97693">
		<tag k="name" v="Bjørnura" />
		<tag k="natural" v="scree" />
		<tag k="ssr:stedsnr" v="846431" />
	</node>
	<node lat="68.73954166388815" lon="17.827838886295833" id="-97694">
		<tag k="name" v="Oksebakkan" />
		<tag k="natural" v="slope" />
		<tag k="place" v="locality" />
		<tag k="ssr:stedsnr" v="846433" />
	</node>
	<node lat="68.73013888746105" lon="17.829169447954946" id="-97695">
		<tag k="fixme" v="consider natural=saddle" />
		<tag k="name" v="Litjemyrskaret" />
		<tag k="natural" v="valley" />
		<tag k="place" v="locality" />
		<tag k="ssr:stedsnr" v="846485" />
	</node>
	<node lat="68.72446388545498" lon="17.807811114009176" id="-97696">
		<tag k="name" v="Beahceloapmi - Forrhågen" />
		<tag k="name:no" v="Forrhågen" />
		<tag k="name:se" v="Beahceloapmi" />
		<tag k="natural" v="hill" />
		<tag k="place" v="locality" />
		<tag k="ssr:stedsnr" v="846490" />
	</node>
	<node lat="68.7254249974761" lon="17.759708325901713" id="-97697">
		<tag k="highway" v="path" />
		<tag k="name" v="Eidveien" />
		<tag k="ssr:stedsnr" v="846497" />
	</node>
	<node lat="68.79184444755867" lon="17.75664443461179" id="-97698">
		<tag k="name" v="Gammelgårdan" />
		<tag k="place" v="locality" />
		<tag k="ssr:stedsnr" v="846375" />
	</node>
	<node lat="68.79011666421468" lon="17.787119441563373" id="-97699">
		<tag k="name" v="Slåken" />
		<tag k="natural" v="slope" />
		<tag k="place" v="locality" />
		<tag k="ssr:stedsnr" v="846376" />
	</node>
	<node lat="68.76819722309341" lon="17.816322215320564" id="-97700">
		<tag k="name" v="Brekka" />
		<tag k="natural" v="slope" />
		<tag k="place" v="locality" />
		<tag k="ssr:stedsnr" v="846513" />
	</node>
	<node lat="68.72380775933496" lon="17.837443913802655" id="-97701">
		<tag k="name" v="Spansdalsmarka" />
		<tag k="place" v="farm" />
		<tag k="ssr:stedsnr" v="846704" />
	</node>
	<node lat="68.68847777593065" lon="17.964216656609604" id="-97702">
		<tag k="name" v="Bjørklund" />
		<tag k="place" v="farm" />
		<tag k="ssr:stedsnr" v="846685" />
	</node>
	<node lat="68.74799444229033" lon="17.754586097663882" id="-97703">
		<tag k="name" v="Rundmyrhågen" />
		<tag k="natural" v="hill" />
		<tag k="place" v="locality" />
		<tag k="ssr:stedsnr" v="847306" />
	</node>
	<node lat="68.75744166680815" lon="17.81644721074409" id="-97704">
		<tag k="name" v="Tortenbakken" />
		<tag k="natural" v="slope" />
		<tag k="place" v="locality" />
		<tag k="ssr:stedsnr" v="847309" />
	</node>
	<node lat="68.74368055433662" lon="17.763674992275348" id="-97705">
		<tag k="name" v="Kviteberget" />
		<tag k="natural" v="hill" />
		<tag k="place" v="locality" />
		<tag k="ssr:stedsnr" v="847286" />
	</node>
	<node lat="68.74408055937037" lon="17.78848889036329" id="-97706">
		<tag k="name" v="Bjørnmoen" />
		<tag k="place" v="locality" />
		<tag k="ssr:stedsnr" v="847287" />
	</node>
	<node lat="68.75739722224209" lon="17.76582222949437" id="-97707">
		<tag k="name" v="Krokdalan" />
		<tag k="natural" v="valley" />
		<tag k="place" v="locality" />
		<tag k="ssr:stedsnr" v="847405" />
	</node>
	<node lat="68.71469999926444" lon="17.89330277588643" id="-97708">
		<tag k="name" v="Sullot" />
		<tag k="name:se" v="Sullot" />
		<tag k="place" v="islet" />
		<tag k="ssr:stedsnr" v="866605" />
	</node>
	<node lat="68.70178992164455" lon="17.977187938114987" id="-97709">
		<tag k="name" v="Ruŋgogiera" />
		<tag k="name:se" v="Ruŋgogiera" />
		<tag k="natural" v="valley" />
		<tag k="place" v="locality" />
		<tag k="ssr:stedsnr" v="867603" />
	</node>
	<node lat="68.83190833682468" lon="17.7240638815996" id="-97710">
		<tag k="fixme" v="consider natural=saddle" />
		<tag k="name" v="Gámačahca - Gamvikskardet" />
		<tag k="name:no" v="Gamvikskardet" />
		<tag k="name:se" v="Gámačahca" />
		<tag k="natural" v="valley" />
		<tag k="place" v="locality" />
		<tag k="ssr:stedsnr" v="867807" />
	</node>
	<node lat="68.68638760299852" lon="17.990765847205896" id="-97711">
		<tag k="alt_name" v="Østlund" />
		<tag k="name" v="Austlund" />
		<tag k="place" v="locality" />
		<tag k="ssr:stedsnr" v="867577" />
	</node>
	<node lat="68.81353332871245" lon="17.685033335788656" id="-97712">
		<tag k="fixme" v="consider natural=peak for the most distinct mountains in the district" />
		<tag k="loc_name:se" v="Čeavrrisčohkka" />
		<tag k="name" v="Liakollen" />
		<tag k="name:no" v="Liakollen" />
		<tag k="natural" v="hill" />
		<tag k="place" v="locality" />
		<tag k="ssr:stedsnr" v="867729" />
	</node>
	<node lat="68.72633611016404" lon="17.970349995373297" id="-97713">
		<tag k="alt_name:se" v="Jiehtanas" />
		<tag k="fixme" v="consider natural=peak for the most distinct mountains in the district" />
		<tag k="name" v="Jiehtanasčohkka - Trosen" />
		<tag k="name:no" v="Trosen" />
		<tag k="name:se" v="Jiehtanasčohkka" />
		<tag k="natural" v="hill" />
		<tag k="old_name:se" v="Jiettanas" />
		<tag k="place" v="locality" />
		<tag k="ssr:stedsnr" v="871921" />
	</node>
	<node lat="68.70351389125584" lon="17.98419165301977" id="-97714">
		<tag k="fixme" v="consider natural=peak for the most distinct mountains in the district" />
		<tag k="name" v="Bjørnbåsen" />
		<tag k="natural" v="hill" />
		<tag k="place" v="locality" />
		<tag k="ssr:stedsnr" v="873573" />
	</node>
	<node lat="68.77074166549869" lon="17.748930559528365" id="-97716">
		<tag k="name" v="Holtet" />
		<tag k="place" v="farm" />
		<tag k="ssr:stedsnr" v="879516" />
	</node>
	<node lat="68.77297778137998" lon="17.74663055449353" id="-97717">
		<tag k="name" v="Røkeneset" />
		<tag k="natural" v="cape" />
		<tag k="ssr:stedsnr" v="879522" />
	</node>
	<node lat="68.79780555165182" lon="17.67295276774093" id="-97718">
		<tag k="name" v="Hamran" />
		<tag k="natural" v="hill" />
		<tag k="place" v="locality" />
		<tag k="ssr:stedsnr" v="906210" />
	</node>
	<node lat="68.775236114174" lon="17.58005276473834" id="-97719">
		<tag k="name" v="Savløypingsdalen" />
		<tag k="natural" v="valley" />
		<tag k="place" v="locality" />
		<tag k="ssr:stedsnr" v="906219" />
	</node>
	<node lat="68.78889722051966" lon="17.574052774732362" id="-97720">
		<tag k="fixme" v="consider natural=peak for the most distinct mountains in the district" />
		<tag k="name" v="Høgdan" />
		<tag k="natural" v="hill" />
		<tag k="place" v="locality" />
		<tag k="ssr:stedsnr" v="906227" />
	</node>
	<node lat="68.78740277563865" lon="17.57194721216048" id="-97721">
		<tag k="name" v="Rundhågen" />
		<tag k="natural" v="hill" />
		<tag k="place" v="locality" />
		<tag k="ssr:stedsnr" v="906228" />
	</node>
	<node lat="68.78811666678922" lon="17.5887333420482" id="-97722">
		<tag k="name" v="Neselva" />
		<tag k="ssr:stedsnr" v="906232" />
		<tag k="waterway" v="stream" />
	</node>
	<node lat="68.79767777358187" lon="17.647916674790974" id="-97723">
		<tag k="name" v="Beretlia" />
		<tag k="natural" v="slope" />
		<tag k="place" v="locality" />
		<tag k="ssr:stedsnr" v="906238" />
	</node>
	<node lat="68.73628055536388" lon="17.79552500658588" id="-97724">
		<tag k="name" v="Storbakken" />
		<tag k="natural" v="slope" />
		<tag k="place" v="locality" />
		<tag k="ssr:stedsnr" v="906469" />
	</node>
	<node lat="68.73133333752833" lon="17.821705560452834" id="-97725">
		<tag k="name" v="Drågelva" />
		<tag k="ssr:stedsnr" v="906506" />
		<tag k="waterway" v="stream" />
	</node>
	<node lat="68.73241666685867" lon="17.810469451300584" id="-97726">
		<tag k="name" v="Løflata" />
		<tag k="place" v="locality" />
		<tag k="ssr:stedsnr" v="906510" />
	</node>
	<node lat="68.77302499570303" lon="17.696255563041426" id="-97727">
		<tag k="fixme" v="consider natural=peak for the most distinct mountains in the district" />
		<tag k="name" v="Høgda" />
		<tag k="natural" v="hill" />
		<tag k="place" v="locality" />
		<tag k="ssr:stedsnr" v="906560" />
	</node>
	<node lat="68.78869444552073" lon="17.775391668844183" id="-97728">
		<tag k="name" v="Gjerdsletta" />
		<tag k="place" v="locality" />
		<tag k="ssr:stedsnr" v="906572" />
	</node>
	<node lat="68.69780000040404" lon="17.967649991621215" id="-97729">
		<tag k="name" v="Rotlimyra" />
		<tag k="natural" v="wetland" />
		<tag k="ssr:stedsnr" v="906771" />
	</node>
	<node lat="68.70125832998697" lon="17.928452763392908" id="-97730">
		<tag k="name" v="Oalgi - Aksla" />
		<tag k="name:no" v="Aksla" />
		<tag k="name:se" v="Oalgi" />
		<tag k="place" v="locality" />
		<tag k="ssr:stedsnr" v="908656" />
	</node>
	<node lat="68.62986666907888" lon="17.933144433906257" id="-97731">
		<tag k="name" v="Stormyrelva" />
		<tag k="ssr:stedsnr" v="928461" />
		<tag k="waterway" v="river" />
	</node>
	<node lat="68.8099888895459" lon="17.47458612013917" id="-97732">
		<tag k="name" v="Mølnelva" />
		<tag k="ssr:stedsnr" v="928660" />
		<tag k="waterway" v="stream" />
	</node>
	<node lat="68.8024277745278" lon="17.726683335134595" id="-97733">
		<tag k="name" v="Mølnelva" />
		<tag k="ssr:stedsnr" v="928666" />
		<tag k="waterway" v="stream" />
	</node>
	<node lat="68.76144722488587" lon="17.806061110211544" id="-97734">
		<tag k="alt_name:no" v="Hesjevik" />
		<tag k="loc_name:se" v="Heasseviika" />
		<tag k="name" v="Hesjevika" />
		<tag k="name:no" v="Hesjevika" />
		<tag k="place" v="quarter" />
		<tag k="ssr:stedsnr" v="928709" />
	</node>
	<node lat="68.81399167063964" lon="17.640655546290184" id="-97735">
		<tag k="fixme" v="consider natural=saddle" />
		<tag k="name" v="Šalbmi" />
		<tag k="name:se" v="Šalbmi" />
		<tag k="natural" v="valley" />
		<tag k="place" v="locality" />
		<tag k="ssr:stedsnr" v="932096" />
	</node>
	<node lat="68.70551389343034" lon="17.97260276393755" id="-97736">
		<tag k="name" v="Basijuovva" />
		<tag k="name:se" v="Basijuovva" />
		<tag k="natural" v="scree" />
		<tag k="ssr:stedsnr" v="934551" />
	</node>
	<node lat="68.77668611008947" lon="17.59258055651721" id="-97737">
		<tag k="name" v="Preikestolan" />
		<tag k="natural" v="hill" />
		<tag k="place" v="locality" />
		<tag k="ssr:stedsnr" v="966215" />
	</node>
	<node lat="68.74361816239403" lon="17.81219816225436" id="-97738">
		<tag k="name" v="Spansdalen" />
		<tag k="place" v="farm" />
		<tag k="ssr:stedsnr" v="967443" />
	</node>
	<node lat="68.79158055630211" lon="17.78656109658273" id="-97739">
		<tag k="name" v="Eidveisletta" />
		<tag k="place" v="locality" />
		<tag k="ssr:stedsnr" v="967389" />
	</node>
	<node lat="68.77012221978819" lon="17.702094438127315" id="-97740">
		<tag k="name" v="Høgebakken" />
		<tag k="natural" v="slope" />
		<tag k="place" v="locality" />
		<tag k="ssr:stedsnr" v="967507" />
	</node>
	<node lat="68.78329722036231" lon="17.79141944282275" id="-97741">
		<tag k="name" v="Åbrekka" />
		<tag k="place" v="farm" />
		<tag k="ssr:stedsnr" v="967539" />
	</node>
	<node lat="68.68953888659543" lon="17.9503888947279" id="-97742">
		<tag k="name" v="Holtan" />
		<tag k="place" v="locality" />
		<tag k="ssr:stedsnr" v="967708" />
	</node>
	<node lat="68.69839166507289" lon="17.947655546075683" id="-97743">
		<tag k="name" v="Rotlia" />
		<tag k="natural" v="slope" />
		<tag k="place" v="locality" />
		<tag k="ssr:stedsnr" v="967710" />
	</node>
	<node lat="68.69461111093405" lon="17.9713999866918" id="-97744">
		<tag k="name" v="Steinrabben" />
		<tag k="natural" v="hill" />
		<tag k="place" v="locality" />
		<tag k="ssr:stedsnr" v="967716" />
	</node>
	<node lat="68.78034166702473" lon="17.83738610666845" id="-97745">
		<tag k="name" v="Geitsteinen" />
		<tag k="natural" v="stone" />
		<tag k="ssr:stedsnr" v="967786" />
	</node>
	<node lat="68.75584999863018" lon="17.803622208257725" id="-97746">
		<tag k="name" v="Heimstigjerdet" />
		<tag k="place" v="locality" />
		<tag k="ssr:stedsnr" v="968298" />
	</node>
	<node lat="68.75232777684869" lon="17.771702765615707" id="-97747">
		<tag k="name" v="Aksla" />
		<tag k="place" v="locality" />
		<tag k="ssr:stedsnr" v="968302" />
	</node>
	<node lat="68.75196111127936" lon="17.69432499359765" id="-97748">
		<tag k="name" v="Bjørnbåsmyra" />
		<tag k="natural" v="wetland" />
		<tag k="ssr:stedsnr" v="968384" />
	</node>
	<node lat="68.76207222280654" lon="17.75929721125576" id="-97749">
		<tag k="name" v="Rimoen" />
		<tag k="place" v="farm" />
		<tag k="ssr:stedsnr" v="968389" />
	</node>
	<node lat="68.75633888846752" lon="17.767944444547798" id="-97750">
		<tag k="name" v="Høgda" />
		<tag k="natural" v="hill" />
		<tag k="place" v="locality" />
		<tag k="ssr:stedsnr" v="968398" />
	</node>
	<node lat="68.64695555645315" lon="17.912411102911094" id="-97751">
		<tag k="name" v="Storbakkenden" />
		<tag k="natural" v="slope" />
		<tag k="place" v="locality" />
		<tag k="ssr:stedsnr" v="968645" />
	</node>
	<node lat="68.72252499577773" lon="17.841541668576916" id="-97752">
		<tag k="name" v="Sandmelen" />
		<tag k="place" v="locality" />
		<tag k="ssr:stedsnr" v="17946" />
	</node>
	<node lat="68.68600833496974" lon="18.016338875113455" id="-97753">
		<tag k="alt_name:no" v="Kolbranselva" />
		<tag k="fixme" v="multiple name tags, choose one and add the other to alt_name" />
		<tag k="loc_name:se" v="Gáhpasjohka" />
		<tag k="name" v="Tverrelva;Kolbanelva" />
		<tag k="name:no" v="Tverrelva;Kolbanelva" />
		<tag k="ssr:stedsnr" v="18318" />
		<tag k="waterway" v="river" />
	</node>
	<node lat="68.62257370749202" lon="17.874202304278647" id="-97754">
		<tag k="name" v="Småvatnan" />
		<tag k="natural" v="water" />
		<tag k="ssr:stedsnr" v="18471" />
		<tag k="water" v="lake" />
	</node>
	<node lat="68.81800555640152" lon="17.68009165351787" id="-97755">
		<tag k="fixme" v="consider natural=peak for the most distinct mountains in the district" />
		<tag k="name" v="Čievravárri - Skavneskollen" />
		<tag k="name:no" v="Skavneskollen" />
		<tag k="name:se" v="Čievravárri" />
		<tag k="natural" v="hill" />
		<tag k="place" v="locality" />
		<tag k="ssr:stedsnr" v="18634" />
	</node>
	<node lat="68.81065555329641" lon="17.51336111848069" id="-97756">
		<tag k="alt_name" v="Kvantoneset" />
		<tag k="name" v="Kvanntoneset" />
		<tag k="natural" v="cape" />
		<tag k="ssr:stedsnr" v="18639" />
	</node>
	<node lat="68.80311111249004" lon="17.777961103311366" id="-97757">
		<tag k="fixme" v="consider natural=peak for the most distinct mountains in the district" />
		<tag k="name" v="Rødåsen" />
		<tag k="natural" v="hill" />
		<tag k="place" v="locality" />
		<tag k="ssr:stedsnr" v="18643" />
	</node>
	<node lat="68.78220000279138" lon="17.504341666860952" id="-97758">
		<tag k="name" v="Kollvatnet" />
		<tag k="natural" v="water" />
		<tag k="ssr:stedsnr" v="18651" />
	</node>
	<node lat="68.77169721988493" lon="17.675141671912016" id="-97759">
		<tag k="fixme" v="multiple name tags, choose one and add the other to alt_name" />
		<tag k="name" v="Hestnesaksla;Valderhaugen" />
		<tag k="natural" v="hill" />
		<tag k="place" v="locality" />
		<tag k="ssr:stedsnr" v="18659" />
	</node>
	<node lat="68.75829722466283" lon="17.669705559848218" id="-97760">
		<tag k="name" v="Tverrelvmyran" />
		<tag k="natural" v="wetland" />
		<tag k="ssr:stedsnr" v="18663" />
	</node>
	<node lat="68.72901666465576" lon="17.8459249907106" id="-97761">
		<tag k="alt_name:no" v="Nuppen" />
		<tag k="name" v="Duđga - Nappen" />
		<tag k="name:no" v="Nappen" />
		<tag k="name:se" v="Duđga" />
		<tag k="natural" v="hill" />
		<tag k="place" v="locality" />
		<tag k="ssr:stedsnr" v="18917" />
	</node>
	<node lat="68.69559444374768" lon="18.015744448953143" id="-97762">
		<tag k="name" v="Kneiken" />
		<tag k="natural" v="slope" />
		<tag k="place" v="locality" />
		<tag k="ssr:stedsnr" v="51415" />
	</node>
	<node lat="68.78543055614955" lon="17.800238897761723" id="-97763">
		<tag k="name" v="Gullhågen" />
		<tag k="natural" v="hill" />
		<tag k="place" v="locality" />
		<tag k="ssr:stedsnr" v="57514" />
	</node>
	<node lat="68.80659166674502" lon="17.50667499625241" id="-97764">
		<tag k="name" v="Ol-finndalen" />
		<tag k="natural" v="valley" />
		<tag k="place" v="locality" />
		<tag k="ssr:stedsnr" v="57150" />
	</node>
	<node lat="68.78860833397243" lon="17.56836943430552" id="-97765">
		<tag k="name" v="Vedhågen" />
		<tag k="natural" v="hill" />
		<tag k="place" v="locality" />
		<tag k="ssr:stedsnr" v="57160" />
	</node>
	<node lat="68.79877221931359" lon="17.546630552505416" id="-97766">
		<tag k="name" v="Reingjerdan" />
		<tag k="natural" v="slope" />
		<tag k="place" v="locality" />
		<tag k="ssr:stedsnr" v="57166" />
	</node>
	<node lat="68.79241666412916" lon="17.777738894120034" id="-97767">
		<tag k="name" v="Benkan" />
		<tag k="natural" v="hill" />
		<tag k="place" v="locality" />
		<tag k="ssr:stedsnr" v="57393" />
	</node>
	<node lat="68.7707027769123" lon="17.839005541052703" id="-97768">
		<tag k="name" v="Mølnelva" />
		<tag k="ssr:stedsnr" v="57534" />
		<tag k="waterway" v="stream" />
	</node>
	<node lat="68.73407778136406" lon="17.808305544101497" id="-97769">
		<tag k="name" v="Berghølla" />
		<tag k="place" v="locality" />
		<tag k="ssr:stedsnr" v="57429" />
	</node>
	<node lat="68.73725278027355" lon="17.792133334390375" id="-97770">
		<tag k="name" v="Kjerstidalen" />
		<tag k="natural" v="valley" />
		<tag k="place" v="locality" />
		<tag k="ssr:stedsnr" v="57436" />
	</node>
	<node lat="68.73536666774912" lon="17.79063611626218" id="-97771">
		<tag k="name" v="Bruporten" />
		<tag k="ssr:stedsnr" v="57441" />
		<tag k="waterway" v="stream" />
	</node>
	<node lat="68.72636666388239" lon="17.83207778379782" id="-97772">
		<tag k="name" v="Botolvbakkan" />
		<tag k="natural" v="slope" />
		<tag k="place" v="locality" />
		<tag k="ssr:stedsnr" v="57693" />
	</node>
	<node lat="68.72299999843268" lon="17.841091661207344" id="-97773">
		<tag k="name" v="Gammelgården" />
		<tag k="place" v="locality" />
		<tag k="ssr:stedsnr" v="57695" />
	</node>
	<node lat="68.72289721760886" lon="17.862705562494636" id="-97774">
		<tag k="name" v="Buollánlatnja - Brannlia" />
		<tag k="name:no" v="Brannlia" />
		<tag k="name:se" v="Buollánlatnja" />
		<tag k="natural" v="slope" />
		<tag k="place" v="locality" />
		<tag k="ssr:stedsnr" v="57697" />
	</node>
	<node lat="68.76621944816006" lon="17.64269166712024" id="-97775">
		<tag k="name" v="Stormyra" />
		<tag k="natural" v="wetland" />
		<tag k="ssr:stedsnr" v="58145" />
	</node>
	<node lat="68.68084166999932" lon="17.940505557641412" id="-97776">
		<tag k="name" v="Jordbrumyra" />
		<tag k="natural" v="wetland" />
		<tag k="ssr:stedsnr" v="57662" />
	</node>
	<node lat="68.69078611298096" lon="17.97703609717792" id="-97777">
		<tag k="name" v="Kvernhusan" />
		<tag k="place" v="locality" />
		<tag k="ssr:stedsnr" v="57742" />
	</node>
	<node lat="68.77997222554367" lon="17.84175001065351" id="-97778">
		<tag k="highway" v="path" />
		<tag k="name" v="Ørnveien" />
		<tag k="ssr:stedsnr" v="57826" />
	</node>
	<node lat="68.71558828664217" lon="17.76135615247394" id="-97779">
		<tag k="name" v="Sletteidet" />
		<tag k="natural" v="isthmus" />
		<tag k="place" v="locality" />
		<tag k="ssr:stedsnr" v="58184" />
	</node>
	<node lat="68.77635833543401" lon="17.652144448818166" id="-97780">
		<tag k="loc_name:se" v="Muvvá" />
		<tag k="name" v="Moen" />
		<tag k="name:no" v="Moen" />
		<tag k="place" v="locality" />
		<tag k="ssr:stedsnr" v="58155" />
	</node>
	<node lat="68.76378333547127" lon="17.729055546982153" id="-97781">
		<tag k="name" v="Fjellveihågen" />
		<tag k="natural" v="hill" />
		<tag k="place" v="locality" />
		<tag k="ssr:stedsnr" v="58391" />
	</node>
	<node lat="68.74893611516973" lon="17.71620276678492" id="-97782">
		<tag k="fixme" v="consider natural=saddle" />
		<tag k="name" v="Skaret" />
		<tag k="natural" v="valley" />
		<tag k="place" v="locality" />
		<tag k="ssr:stedsnr" v="58395" />
	</node>
	<node lat="68.6693805529117" lon="17.927952767516476" id="-97783">
		<tag k="name" v="Finnmyrbekken" />
		<tag k="ssr:stedsnr" v="58565" />
		<tag k="waterway" v="stream" />
	</node>
	<node lat="68.67147221870307" lon="17.89819167415052" id="-97784">
		<tag k="fixme" v="consider natural=saddle" />
		<tag k="name" v="Halsen" />
		<tag k="natural" v="valley" />
		<tag k="place" v="locality" />
		<tag k="ssr:stedsnr" v="58566" />
	</node>
	<node lat="68.69881389005668" lon="17.99615832026118" id="-97785">
		<tag k="name" v="Annahaugen" />
		<tag k="natural" v="hill" />
		<tag k="place" v="locality" />
		<tag k="ssr:stedsnr" v="78573" />
	</node>
	<node lat="68.6972611082471" lon="17.795241660165562" id="-97786">
		<tag k="name" v="Middagsselvvatnan" />
		<tag k="natural" v="water" />
		<tag k="ssr:stedsnr" v="78576" />
	</node>
	<node lat="68.61399166552316" lon="17.82854999542333" id="-97787">
		<tag k="name" v="Riikovággi - Grasdalen" />
		<tag k="name:no" v="Grasdalen" />
		<tag k="name:se" v="Riikovággi" />
		<tag k="natural" v="valley" />
		<tag k="old_name:se" v="Riikuvaggi" />
		<tag k="place" v="locality" />
		<tag k="ssr:stedsnr" v="78538" />
	</node>
	<node lat="68.77783333745606" lon="17.524466658417925" id="-97788">
		<tag k="alt_name" v="Tålevatnet" />
		<tag k="name" v="Tårlevatnet" />
		<tag k="natural" v="water" />
		<tag k="ssr:stedsnr" v="78731" />
		<tag k="water" v="lake" />
	</node>
	<node lat="68.7597222254789" lon="17.902555548371765" id="-97789">
		<tag k="name" v="Botnkråa" />
		<tag k="natural" v="valley" />
		<tag k="place" v="locality" />
		<tag k="ssr:stedsnr" v="79700" />
	</node>
	<node lat="68.767080553067" lon="17.637538890811324" id="-97790">
		<tag k="name" v="Keiprøddalsmyra" />
		<tag k="natural" v="wetland" />
		<tag k="ssr:stedsnr" v="79681" />
	</node>
	<node lat="68.77226120147598" lon="17.741488294413728" id="-97791">
		<tag k="loc_name:se" v="Revkanjárga;Revkanášši" />
		<tag k="name" v="Røkenes" />
		<tag k="name:no" v="Røkenes" />
		<tag k="place" v="farm" />
		<tag k="ssr:stedsnr" v="79686" />
	</node>
	<node lat="68.72183055728341" lon="17.6638777782973" id="-97792">
		<tag k="fixme" v="consider natural=peak for the most distinct mountains in the district" />
		<tag k="name" v="Sandnesbotnaksla" />
		<tag k="natural" v="hill" />
		<tag k="place" v="locality" />
		<tag k="ssr:stedsnr" v="79918" />
	</node>
	<node lat="68.74070277948138" lon="17.777230549586854" id="-97793">
		<tag k="name" v="Sjumyrbakkan" />
		<tag k="natural" v="slope" />
		<tag k="place" v="locality" />
		<tag k="ssr:stedsnr" v="80469" />
	</node>
	<node lat="68.79039166280988" lon="17.85312221246827" id="-97794">
		<tag k="name" v="Loabakáidi" />
		<tag k="name:se" v="Loabakáidi" />
		<tag k="natural" v="slope" />
		<tag k="place" v="locality" />
		<tag k="ssr:stedsnr" v="80622" />
	</node>
	<node lat="68.7779638874625" lon="17.716324993208755" id="-97795">
		<tag k="name" v="Langstranda" />
		<tag k="natural" v="beach" />
		<tag k="ssr:stedsnr" v="90531" />
	</node>
	<node lat="68.69015277404644" lon="18.01570278214729" id="-97796">
		<tag k="name" v="Sæterhaugvatnet" />
		<tag k="natural" v="water" />
		<tag k="ssr:stedsnr" v="111700" />
	</node>
	<node lat="68.80086667061232" lon="17.5409194487247" id="-97797">
		<tag k="name" v="Slettan" />
		<tag k="place" v="locality" />
		<tag k="ssr:stedsnr" v="117241" />
	</node>
	<node lat="68.77813610992061" lon="17.571074997201436" id="-97798">
		<tag k="name" v="Brentehågan" />
		<tag k="natural" v="hill" />
		<tag k="place" v="locality" />
		<tag k="ssr:stedsnr" v="117253" />
	</node>
	<node lat="68.73872778135741" lon="17.742608326790293" id="-97799">
		<tag k="name" v="Svartebergan" />
		<tag k="natural" v="hill" />
		<tag k="place" v="locality" />
		<tag k="ssr:stedsnr" v="117489" />
	</node>
	<node lat="68.80056944745473" lon="17.721691659138536" id="-97800">
		<tag k="name" v="Gammelsletta" />
		<tag k="place" v="locality" />
		<tag k="ssr:stedsnr" v="117492" />
	</node>
	<node lat="68.77530833829267" lon="17.821111100671633" id="-97801">
		<tag k="name" v="Øverleet" />
		<tag k="place" v="locality" />
		<tag k="ssr:stedsnr" v="117538" />
	</node>
	<node lat="68.77934258771774" lon="17.691635625815685" id="-97802">
		<tag k="name" v="Marines" />
		<tag k="place" v="farm" />
		<tag k="ssr:stedsnr" v="117562" />
	</node>
	<node lat="68.72666944600589" lon="17.82079443697241" id="-97803">
		<tag k="name" v="Djupedalen" />
		<tag k="natural" v="valley" />
		<tag k="place" v="locality" />
		<tag k="ssr:stedsnr" v="117502" />
	</node>
	<node lat="68.72198888699252" lon="17.810861103620145" id="-97804">
		<tag k="name" v="Sommarheimen" />
		<tag k="place" v="locality" />
		<tag k="ssr:stedsnr" v="117506" />
	</node>
	<node lat="68.72689166437077" lon="17.801466659612487" id="-97805">
		<tag k="highway" v="path" />
		<tag k="name" v="Dalebuveien" />
		<tag k="ssr:stedsnr" v="117510" />
	</node>
	<node lat="68.73025000451298" lon="17.814966658766902" id="-97806">
		<tag k="name" v="Sennemyrbakkan" />
		<tag k="natural" v="slope" />
		<tag k="place" v="locality" />
		<tag k="ssr:stedsnr" v="117513" />
	</node>
	<node lat="68.73152777441746" lon="17.772477777620416" id="-97807">
		<tag k="name" v="Rødbergan" />
		<tag k="natural" v="hill" />
		<tag k="place" v="locality" />
		<tag k="ssr:stedsnr" v="117515" />
	</node>
	<node lat="68.72860277826366" lon="17.87876389038359" id="-97808">
		<tag k="name" v="Goahsajrápma" />
		<tag k="name:se" v="Goahsajrápma" />
		<tag k="natural" v="slope" />
		<tag k="place" v="locality" />
		<tag k="ssr:stedsnr" v="117724" />
	</node>
	<node lat="68.71982169763314" lon="17.865510494953014" id="-97809">
		<tag k="name" v="Badjevuopmi - Øverdalen" />
		<tag k="name:no" v="Øverdalen" />
		<tag k="name:se" v="Badjevuopmi" />
		<tag k="natural" v="valley" />
		<tag k="place" v="locality" />
		<tag k="ssr:stedsnr" v="117726" />
	</node>
	<node lat="68.69375555170896" lon="17.96592778085544" id="-97810">
		<tag k="name" v="Grindgongen" />
		<tag k="natural" v="slope" />
		<tag k="place" v="locality" />
		<tag k="ssr:stedsnr" v="117753" />
	</node>
	<node lat="68.77524166945402" lon="17.854597209706817" id="-97811">
		<tag k="name" v="Tømmerhåglian" />
		<tag k="natural" v="slope" />
		<tag k="place" v="locality" />
		<tag k="ssr:stedsnr" v="117826" />
	</node>
	<node lat="68.74383055291514" lon="17.796099988047708" id="-97812">
		<tag k="name" v="Mølnebakken" />
		<tag k="natural" v="slope" />
		<tag k="place" v="locality" />
		<tag k="ssr:stedsnr" v="119266" />
	</node>
	<node lat="68.78092500384199" lon="17.670502778117623" id="-97813">
		<tag k="fixme" v="consider seamark:type=rock or natural=shoal" />
		<tag k="name" v="Henriksteinen" />
		<tag k="place" v="islet" />
		<tag k="ssr:stedsnr" v="119145" />
	</node>
	<node lat="68.71814444088751" lon="17.794686095527958" id="-97814">
		<tag k="name" v="Tuvholla" />
		<tag k="natural" v="valley" />
		<tag k="place" v="locality" />
		<tag k="ssr:stedsnr" v="119165" />
	</node>
	<node lat="68.64308610661287" lon="17.86935000062175" id="-97815">
		<tag k="fixme" v="consider natural=saddle" />
		<tag k="name" v="Lortvasskaret" />
		<tag k="natural" v="valley" />
		<tag k="place" v="locality" />
		<tag k="ssr:stedsnr" v="119631" />
	</node>
	<node lat="68.65177500040319" lon="17.88204166365864" id="-97816">
		<tag k="name" v="Alpeslåtten" />
		<tag k="natural" v="slope" />
		<tag k="place" v="locality" />
		<tag k="ssr:stedsnr" v="119634" />
	</node>
	<node lat="68.70831944311372" lon="17.964255542221007" id="-97817">
		<tag k="name" v="Skredranelva" />
		<tag k="ssr:stedsnr" v="119638" />
		<tag k="waterway" v="stream" />
	</node>
	<node lat="68.75375277531226" lon="17.823974994319926" id="-97818">
		<tag k="name" v="Selsiura" />
		<tag k="natural" v="scree" />
		<tag k="ssr:stedsnr" v="119295" />
	</node>
	<node lat="68.75953610771151" lon="17.706825007384268" id="-97819">
		<tag k="name" v="Rendalsbekken" />
		<tag k="ssr:stedsnr" v="119387" />
		<tag k="waterway" v="stream" />
	</node>
	<node lat="68.74747777355135" lon="17.737672225433094" id="-97820">
		<tag k="fixme" v="consider natural=peak for the most distinct mountains in the district" />
		<tag k="name" v="Asphøgden" />
		<tag k="natural" v="hill" />
		<tag k="place" v="locality" />
		<tag k="ssr:stedsnr" v="119401" />
	</node>
	<node lat="68.77068333336514" lon="17.814308325924042" id="-97821">
		<tag k="name" v="Karimoen" />
		<tag k="place" v="locality" />
		<tag k="ssr:stedsnr" v="119552" />
	</node>
	<node lat="68.75628611201083" lon="17.715713898404303" id="-97822">
		<tag k="alt_name" v="Lotternesmyran" />
		<tag k="name" v="Låternesmyran" />
		<tag k="natural" v="wetland" />
		<tag k="ssr:stedsnr" v="139708" />
	</node>
	<node lat="68.74988611361724" lon="17.74249722908368" id="-97823">
		<tag k="alt_name" v="Påskeåsen" />
		<tag k="name" v="Påskhågen" />
		<tag k="natural" v="hill" />
		<tag k="place" v="locality" />
		<tag k="ssr:stedsnr" v="139709" />
	</node>
	<node lat="68.62411389282123" lon="17.97873889129963" id="-97824">
		<tag k="fixme" v="consider natural=saddle" />
		<tag k="name" v="Røddalsskardet" />
		<tag k="natural" v="valley" />
		<tag k="place" v="locality" />
		<tag k="ssr:stedsnr" v="139531" />
	</node>
	<node lat="68.78596111046451" lon="17.970855552883148" id="-97825">
		<tag k="fixme" v="consider natural=peak for the most distinct mountains in the district" />
		<tag k="name" v="Ásačohkka" />
		<tag k="name:se" v="Ásačohkka" />
		<tag k="natural" v="hill" />
		<tag k="place" v="locality" />
		<tag k="ssr:stedsnr" v="139676" />
	</node>
	<node lat="68.73467254403069" lon="17.79914680148371" id="-97826">
		<tag k="name" v="Moen" />
		<tag k="place" v="farm" />
		<tag k="ssr:stedsnr" v="139917" />
	</node>
	<node lat="68.7380138919388" lon="17.835436112162004" id="-97827">
		<tag k="name" v="Tømmerelva" />
		<tag k="ssr:stedsnr" v="147766" />
		<tag k="waterway" v="stream" />
	</node>
	<node lat="68.78808055581278" lon="17.592322230619903" id="-97828">
		<tag k="name" v="Festeinbergan" />
		<tag k="natural" v="hill" />
		<tag k="place" v="locality" />
		<tag k="ssr:stedsnr" v="178196" />
	</node>
	<node lat="68.79011944133335" lon="17.54601387800004" id="-97829">
		<tag k="name" v="Ingerelva" />
		<tag k="ssr:stedsnr" v="178199" />
		<tag k="waterway" v="stream" />
	</node>
	<node lat="68.74353055694282" lon="17.801702775902072" id="-97830">
		<tag k="name" v="Moan" />
		<tag k="place" v="locality" />
		<tag k="ssr:stedsnr" v="178280" />
	</node>
	<node lat="68.74898610709877" lon="17.808847223423008" id="-97831">
		<tag k="name" v="Bakkan" />
		<tag k="natural" v="slope" />
		<tag k="place" v="locality" />
		<tag k="ssr:stedsnr" v="178283" />
	</node>
	<node lat="68.80064721921183" lon="17.80669442826418" id="-97832">
		<tag k="name" v="Litjenavarselva" />
		<tag k="ssr:stedsnr" v="178386" />
		<tag k="waterway" v="stream" />
	</node>
	<node lat="68.79840833142654" lon="17.799741657492806" id="-97833">
		<tag k="name" v="Gommelva" />
		<tag k="ssr:stedsnr" v="178389" />
		<tag k="waterway" v="stream" />
	</node>
	<node lat="68.76955833321043" lon="17.729416655486297" id="-97834">
		<tag k="fixme" v="consider natural=peak for the most distinct mountains in the district" />
		<tag k="name" v="Kollen" />
		<tag k="natural" v="hill" />
		<tag k="place" v="locality" />
		<tag k="ssr:stedsnr" v="178528" />
	</node>
	<node lat="68.74086111548286" lon="17.812819435675323" id="-97835">
		<tag k="name" v="Heimerdalen" />
		<tag k="natural" v="valley" />
		<tag k="place" v="locality" />
		<tag k="ssr:stedsnr" v="178448" />
	</node>
	<node lat="68.68537499945751" lon="17.978388890675543" id="-97836">
		<tag k="name" v="Eggbekken" />
		<tag k="ssr:stedsnr" v="178669" />
		<tag k="waterway" v="stream" />
	</node>
	<node lat="68.68655277747462" lon="17.972227774431296" id="-97837">
		<tag k="name" v="Tverrbakken" />
		<tag k="natural" v="slope" />
		<tag k="place" v="locality" />
		<tag k="ssr:stedsnr" v="178674" />
	</node>
	<node lat="68.72275832987981" lon="17.80065277787565" id="-97838">
		<tag k="name" v="Svartholan" />
		<tag k="natural" v="valley" />
		<tag k="place" v="locality" />
		<tag k="ssr:stedsnr" v="178495" />
	</node>
	<node lat="68.75978055606711" lon="17.854249992965073" id="-97839">
		<tag k="fixme" v="consider natural=peak for the most distinct mountains in the district" />
		<tag k="name" v="Fjellbrunen" />
		<tag k="natural" v="hill" />
		<tag k="place" v="locality" />
		<tag k="ssr:stedsnr" v="178682" />
	</node>
	<node lat="68.7658333308554" lon="17.653711105289325" id="-97840">
		<tag k="name" v="Ol-Mikkelsabakkan" />
		<tag k="natural" v="slope" />
		<tag k="place" v="locality" />
		<tag k="ssr:stedsnr" v="179135" />
	</node>
	<node lat="68.76779444806441" lon="17.60828611035173" id="-97841">
		<tag k="name" v="Gråsteinheia" />
		<tag k="natural" v="hill" />
		<tag k="place" v="locality" />
		<tag k="ssr:stedsnr" v="179142" />
	</node>
	<node lat="68.75962222627747" lon="17.808925006282266" id="-97842">
		<tag k="name" v="Slettmoen" />
		<tag k="place" v="locality" />
		<tag k="ssr:stedsnr" v="179277" />
	</node>
	<node lat="68.75150833094459" lon="17.72710834085624" id="-97843">
		<tag k="name" v="Tordensteinen" />
		<tag k="natural" v="stone" />
		<tag k="ssr:stedsnr" v="179373" />
	</node>
	<node lat="68.71850555422229" lon="17.8854944351929" id="-97844">
		<tag k="name" v="Sávzanjunni - Saunesen" />
		<tag k="name:no" v="Saunesen" />
		<tag k="name:se" v="Sávzanjunni" />
		<tag k="natural" v="slope" />
		<tag k="place" v="locality" />
		<tag k="ssr:stedsnr" v="180626" />
	</node>
	<node lat="68.7413409602779" lon="17.854416599792096" id="-97845">
		<tag k="fixme" v="consider natural=peak for the most distinct mountains in the district" />
		<tag k="name" v="Jorbagirku - Kolkjerka" />
		<tag k="name:no" v="Kolkjerka" />
		<tag k="name:se" v="Jorbagirku" />
		<tag k="natural" v="hill" />
		<tag k="place" v="locality" />
		<tag k="ssr:stedsnr" v="181480" />
	</node>
	<node lat="68.78171874774179" lon="17.787406065434276" id="-97846">
		<tag k="name" v="Vieland" />
		<tag k="old_name" v="Veiland" />
		<tag k="place" v="farm" />
		<tag k="ssr:stedsnr" v="181888" />
	</node>
	<node lat="68.69202500110983" lon="18.037424995847704" id="-97847">
		<tag k="name" v="Holbekken" />
		<tag k="ssr:stedsnr" v="199358" />
		<tag k="waterway" v="stream" />
	</node>
	<node lat="68.615661113984" lon="17.792397231087296" id="-97848">
		<tag k="fixme" v="consider natural=peak for the most distinct mountains in the district" />
		<tag k="loc_name:se" v="Bikkečohkka" />
		<tag k="name" v="Britatinden" />
		<tag k="name:no" v="Britatinden" />
		<tag k="natural" v="hill" />
		<tag k="place" v="locality" />
		<tag k="ssr:stedsnr" v="199553" />
	</node>
	<node lat="68.71513333088849" lon="17.755569439308932" id="-97849">
		<tag k="loc_name:se" v="Jalgesáiddijohka" />
		<tag k="name" v="Middagselva" />
		<tag k="name:no" v="Middagselva" />
		<tag k="ssr:stedsnr" v="199599" />
		<tag k="waterway" v="stream" />
	</node>
	<node lat="68.79793610841429" lon="17.590547220981033" id="-97850">
		<tag k="bay" v="fjord" />
		<tag k="name" v="Loabákvuotna - Lavangen" />
		<tag k="name:no" v="Lavangen" />
		<tag k="name:se" v="Loabákvuotna" />
		<tag k="natural" v="bay" />
		<tag k="ssr:stedsnr" v="200691" />
	</node>
	<node lat="68.79606944602021" lon="17.487294445975458" id="-97851">
		<tag k="name" v="Storvatnet" />
		<tag k="natural" v="water" />
		<tag k="ssr:stedsnr" v="200696" />
		<tag k="water" v="lake" />
	</node>
	<node lat="68.74003055175675" lon="17.967597212506966" id="-97852">
		<tag k="fixme" v="consider natural=peak for the most distinct mountains in the district" />
		<tag k="name" v="Roggoaivvit" />
		<tag k="name:se" v="Roggoaivvit" />
		<tag k="natural" v="hill" />
		<tag k="place" v="locality" />
		<tag k="ssr:stedsnr" v="200928" />
	</node>
	<node lat="68.68896412685149" lon="17.980884350005923" id="-97853">
		<tag k="name" v="Fossbakken" />
		<tag k="place" v="hamlet" />
		<tag k="ssr:stedsnr" v="203181" />
	</node>
	<node lat="68.71042777643699" lon="17.940152778811235" id="-97854">
		<tag k="name" v="Mielkejohka - Melkeelva" />
		<tag k="name:no" v="Melkeelva" />
		<tag k="name:se" v="Mielkejohka" />
		<tag k="ssr:stedsnr" v="205632" />
		<tag k="waterway" v="stream" />
	</node>
	<node lat="68.71765833098027" lon="17.824547208183215" id="-97855">
		<tag k="name" v="Dalebotn" />
		<tag k="natural" v="valley" />
		<tag k="place" v="locality" />
		<tag k="ssr:stedsnr" v="260595" />
	</node>
	<node lat="68.71388889243734" lon="17.666849988851414" id="-97856">
		<tag k="alt_name:no" v="Sandnesbotn, in" />
		<tag k="loc_name:se" v="Uhcariehppi" />
		<tag k="name" v="Indre Sandnesbotn" />
		<tag k="name:no" v="Indre Sandnesbotn" />
		<tag k="natural" v="valley" />
		<tag k="place" v="locality" />
		<tag k="ssr:stedsnr" v="260597" />
	</node>
	<node lat="68.70493889106432" lon="17.629213887066467" id="-97857">
		<tag k="fixme" v="consider natural=peak for the most distinct mountains in the district" />
		<tag k="name" v="Årsteinhornet - Čoarvečohkka" />
		<tag k="name:no" v="Årsteinhornet" />
		<tag k="name:se" v="Čoarvečohkka" />
		<tag k="natural" v="hill" />
		<tag k="place" v="locality" />
		<tag k="ssr:stedsnr" v="260598" />
	</node>
	<node lat="68.71892076985534" lon="17.878739177439407" id="-97858">
		<tag k="name" v="Rukkadievvá - Skredberget" />
		<tag k="name:no" v="Skredberget" />
		<tag k="name:se" v="Rukkadievvá" />
		<tag k="natural" v="hill" />
		<tag k="old_name:se" v="Rokkadievva" />
		<tag k="place" v="locality" />
		<tag k="ssr:stedsnr" v="260640" />
	</node>
	<node lat="68.66698333189062" lon="17.84117777667354" id="-97859">
		<tag k="loc_name:se" v="Suobddikjávri" />
		<tag k="name" v="Bukkemyrvatnet" />
		<tag k="name:no" v="Bukkemyrvatnet" />
		<tag k="natural" v="water" />
		<tag k="ssr:stedsnr" v="260642" />
	</node>
	<node lat="68.8141583345616" lon="17.83301943911843" id="-97860">
		<tag k="name" v="Nevermoan" />
		<tag k="place" v="locality" />
		<tag k="ssr:stedsnr" v="260728" />
	</node>
	<node lat="68.79059444427874" lon="17.528072209842318" id="-97861">
		<tag k="alt_name" v="Hollebåtvatnet" />
		<tag k="name" v="Holbåtvatnet" />
		<tag k="natural" v="water" />
		<tag k="ssr:stedsnr" v="260760" />
	</node>
	<node lat="68.7861944433962" lon="17.5349083383812" id="-97862">
		<tag k="alt_name" v="Vardhaugvatnet" />
		<tag k="name" v="Vardhågvatnet" />
		<tag k="natural" v="water" />
		<tag k="ssr:stedsnr" v="260762" />
	</node>
	<node lat="68.7537083378399" lon="17.702355542828737" id="-97863">
		<tag k="name" v="Holman" />
		<tag k="place" v="locality" />
		<tag k="ssr:stedsnr" v="261715" />
	</node>
	<node lat="68.78074391708714" lon="17.63564193595835" id="-97864">
		<tag k="name" v="Keiprød" />
		<tag k="place" v="farm" />
		<tag k="ssr:stedsnr" v="264354" />
	</node>
	<node lat="68.65203333099019" lon="17.973522215961072" id="-97865">
		<tag k="fixme" v="consider natural=peak for the most distinct mountains in the district" />
		<tag k="loc_name:se" v="Smilčečohkka" />
		<tag k="name" v="Mielkevárri - Melkefjellet" />
		<tag k="name:no" v="Melkefjellet" />
		<tag k="name:se" v="Mielkevárri" />
		<tag k="natural" v="hill" />
		<tag k="old_name:se" v="Mielkevarri" />
		<tag k="place" v="locality" />
		<tag k="ssr:stedsnr" v="264587" />
	</node>
	<node lat="68.69441944313209" lon="18.021166657039785" id="-97866">
		<tag k="name" v="Styggedalsbergan" />
		<tag k="natural" v="hill" />
		<tag k="place" v="locality" />
		<tag k="ssr:stedsnr" v="294378" />
	</node>
	<node lat="68.80050277475858" lon="17.538224984999616" id="-97867">
		<tag k="name" v="Sandmelen" />
		<tag k="natural" v="slope" />
		<tag k="place" v="locality" />
		<tag k="ssr:stedsnr" v="299229" />
	</node>
	<node lat="68.79499444533221" lon="17.769408338784366" id="-97868">
		<tag k="name" v="Geitdalen" />
		<tag k="natural" v="valley" />
		<tag k="place" v="locality" />
		<tag k="ssr:stedsnr" v="299417" />
	</node>
	<node lat="68.79461944392897" lon="17.765963878646595" id="-97869">
		<tag k="name" v="Klompan" />
		<tag k="natural" v="hill" />
		<tag k="place" v="locality" />
		<tag k="ssr:stedsnr" v="299420" />
	</node>
	<node lat="68.80560833273975" lon="17.81716943042291" id="-97870">
		<tag k="name" v="Stornavarselva" />
		<tag k="ssr:stedsnr" v="299424" />
		<tag k="waterway" v="stream" />
	</node>
	<node lat="68.79657222233874" lon="17.653191659895977" id="-97871">
		<tag k="name" v="Aspura" />
		<tag k="natural" v="scree" />
		<tag k="ssr:stedsnr" v="299233" />
	</node>
	<node lat="68.79387778138175" lon="17.776211114923058" id="-97872">
		<tag k="loc_name:se" v="Čáppisbákti" />
		<tag k="name" v="Svarthammaren" />
		<tag k="name:no" v="Svarthammaren" />
		<tag k="natural" v="hill" />
		<tag k="place" v="locality" />
		<tag k="ssr:stedsnr" v="299447" />
	</node>
	<node lat="68.74111389318594" lon="17.79806111221794" id="-97873">
		<tag k="name" v="Stordiket" />
		<tag k="ssr:stedsnr" v="299472" />
		<tag k="waterway" v="stream" />
	</node>
	<node lat="68.74235833513798" lon="17.807441666562866" id="-97874">
		<tag k="name" v="Olamelan" />
		<tag k="natural" v="slope" />
		<tag k="place" v="locality" />
		<tag k="ssr:stedsnr" v="299480" />
	</node>
	<node lat="68.79957222259814" lon="17.711552778260522" id="-97875">
		<tag k="name" v="Øversmålian" />
		<tag k="natural" v="slope" />
		<tag k="place" v="locality" />
		<tag k="ssr:stedsnr" v="299495" />
	</node>
	<node lat="68.72966944436767" lon="17.81375554829342" id="-97876">
		<tag k="name" v="Sennemyra" />
		<tag k="natural" v="wetland" />
		<tag k="ssr:stedsnr" v="299501" />
	</node>
	<node lat="68.77181944292731" lon="17.862233336853354" id="-97877">
		<tag k="ford" v="yes" />
		<tag k="name" v="Øvervaet" />
		<tag k="place" v="locality" />
		<tag k="ssr:stedsnr" v="299824" />
	</node>
	<node lat="68.76634722567842" lon="17.750344436417034" id="-97878">
		<tag k="name" v="Storgropa" />
		<tag k="natural" v="valley" />
		<tag k="place" v="locality" />
		<tag k="ssr:stedsnr" v="299583" />
	</node>
	<node lat="68.68638610805624" lon="17.965319431141893" id="-97879">
		<tag k="name" v="Tomasfyllinga" />
		<tag k="place" v="locality" />
		<tag k="ssr:stedsnr" v="299723" />
	</node>
	<node lat="68.72418610746706" lon="17.862819447597733" id="-97880">
		<tag k="name" v="Tverrelva" />
		<tag k="ssr:stedsnr" v="299734" />
		<tag k="waterway" v="stream" />
	</node>
	<node lat="68.69134444212844" lon="17.96980554444305" id="-97881">
		<tag k="name" v="Hesjemyra" />
		<tag k="natural" v="wetland" />
		<tag k="ssr:stedsnr" v="299763" />
	</node>
	<node lat="68.75870000299761" lon="17.827102767805396" id="-97882">
		<tag k="fixme" v="consider natural=peak for the most distinct mountains in the district" />
		<tag k="name" v="Åsen" />
		<tag k="natural" v="hill" />
		<tag k="place" v="locality" />
		<tag k="ssr:stedsnr" v="301271" />
	</node>
	<node lat="68.76060555383026" lon="17.71460554316144" id="-97883">
		<tag k="name" v="Snehallbakken" />
		<tag k="natural" v="slope" />
		<tag k="place" v="locality" />
		<tag k="ssr:stedsnr" v="301353" />
	</node>
	<node lat="68.77776111355485" lon="17.65946943450807" id="-97884">
		<tag k="name" v="Måsesteinen" />
		<tag k="natural" v="stone" />
		<tag k="ssr:stedsnr" v="301129" />
	</node>
	<node lat="68.78107222627045" lon="17.66296388135286" id="-97885">
		<tag k="name" v="Vika" />
		<tag k="natural" v="bay" />
		<tag k="ssr:stedsnr" v="301130" />
	</node>
	<node lat="68.71940000355906" lon="17.860872226595536" id="-97886">
		<tag k="name" v="Sullo" />
		<tag k="name:se" v="Sullo" />
		<tag k="place" v="islet" />
		<tag k="ssr:stedsnr" v="301600" />
	</node>
	<node lat="68.66948333154497" lon="17.86230556274389" id="-97887">
		<tag k="name" v="Vedhøgda" />
		<tag k="natural" v="hill" />
		<tag k="place" v="locality" />
		<tag k="ssr:stedsnr" v="301520" />
	</node>
	<node lat="68.8182638878442" lon="17.820413895096348" id="-97888">
		<tag k="name" v="Myrbakkan" />
		<tag k="natural" v="slope" />
		<tag k="place" v="locality" />
		<tag k="ssr:stedsnr" v="301530" />
	</node>
	<node lat="68.77289722230798" lon="17.81330000785689" id="-97889">
		<tag k="name" v="Mørkedalen" />
		<tag k="natural" v="valley" />
		<tag k="place" v="locality" />
		<tag k="ssr:stedsnr" v="301532" />
	</node>
	<node lat="68.66728888857348" lon="17.834855560131324" id="-97890">
		<tag k="name" v="Bukkemyrhøgda" />
		<tag k="natural" v="hill" />
		<tag k="place" v="locality" />
		<tag k="ssr:stedsnr" v="301549" />
	</node>
	<node lat="68.69366111453631" lon="18.034911105667117" id="-97891">
		<tag k="name" v="Lappjordvatnet" />
		<tag k="natural" v="water" />
		<tag k="ssr:stedsnr" v="321333" />
	</node>
	<node lat="68.60926944947151" lon="17.846655542220443" id="-97892">
		<tag k="name" v="Riikojávri - Grasvatnet" />
		<tag k="name:no" v="Grasvatnet" />
		<tag k="name:se" v="Riikojávri" />
		<tag k="natural" v="water" />
		<tag k="old_name:se" v="Riikujavri" />
		<tag k="ssr:stedsnr" v="321525" />
		<tag k="water" v="lake" />
	</node>
	<node lat="68.64147777458838" lon="17.875324984241818" id="-97893">
		<tag k="fixme" v="multiple name tags, choose one and add the other to alt_name" />
		<tag k="name" v="Luohttojohka - Lotelva;Tverrelva" />
		<tag k="name:no" v="Lotelva;Tverrelva" />
		<tag k="name:se" v="Luohttojohka" />
		<tag k="ssr:stedsnr" v="321478" />
		<tag k="waterway" v="stream" />
	</node>
	<node lat="68.68482778125684" lon="18.032477787594242" id="-97894">
		<tag k="name" v="Bjørnholet" />
		<tag k="natural" v="valley" />
		<tag k="place" v="locality" />
		<tag k="ssr:stedsnr" v="321339" />
	</node>
	<node lat="68.7014527769285" lon="17.997200007630727" id="-97895">
		<tag k="name" v="Bakdalen" />
		<tag k="natural" v="valley" />
		<tag k="place" v="locality" />
		<tag k="ssr:stedsnr" v="321624" />
	</node>
	<node lat="68.72034166379298" lon="17.87522778404675" id="-97896">
		<tag k="name" v="Rukkadievájuovva" />
		<tag k="name:se" v="Rukkadievájuovva" />
		<tag k="natural" v="cliff" />
		<tag k="ssr:stedsnr" v="321588" />
	</node>
	<node lat="68.80029722063367" lon="17.862975005626573" id="-97897">
		<tag k="name" v="Heasttanjunni" />
		<tag k="name:se" v="Heasttanjunni" />
		<tag k="natural" v="ridge" />
		<tag k="place" v="locality" />
		<tag k="ssr:stedsnr" v="321669" />
	</node>
	<node lat="68.8100416646931" lon="17.652219433997796" id="-97898">
		<tag k="name" v="Småvatnan" />
		<tag k="natural" v="water" />
		<tag k="ssr:stedsnr" v="321670" />
		<tag k="water" v="lake" />
	</node>
	<node lat="68.80108611274495" lon="17.701047215501546" id="-97899">
		<tag k="alt_name" v="Bjørneslettelva" />
		<tag k="name" v="Bjørnslettelva" />
		<tag k="ssr:stedsnr" v="321673" />
		<tag k="waterway" v="stream" />
	</node>
	<node lat="68.78471111246836" lon="17.540933320625125" id="-97900">
		<tag k="alt_name" v="Karihaugen" />
		<tag k="name" v="Karihågen" />
		<tag k="natural" v="hill" />
		<tag k="place" v="locality" />
		<tag k="ssr:stedsnr" v="321688" />
	</node>
	<node lat="68.73985555495437" lon="17.87208054368438" id="-97901">
		<tag k="name" v="Åsevatnet" />
		<tag k="natural" v="water" />
		<tag k="ssr:stedsnr" v="321922" />
		<tag k="water" v="lake" />
	</node>
	<node lat="68.74302343557012" lon="17.814003067121682" id="-97902">
		<tag k="loc_name:se" v="Silddádállu" />
		<tag k="name" v="Spansgård" />
		<tag k="name:no" v="Spansgård" />
		<tag k="place" v="farm" />
		<tag k="ssr:stedsnr" v="324148" />
	</node>
	<node lat="68.69171666996601" lon="17.994511116799618" id="-97903">
		<tag k="name" v="Storhaugen" />
		<tag k="natural" v="hill" />
		<tag k="place" v="locality" />
		<tag k="ssr:stedsnr" v="353739" />
	</node>
	<node lat="68.73467222411487" lon="17.795744450538827" id="-97904">
		<tag k="name" v="Forsebakkan" />
		<tag k="natural" v="slope" />
		<tag k="place" v="locality" />
		<tag k="ssr:stedsnr" v="360417" />
	</node>
	<node lat="68.73853888669483" lon="17.80451387577304" id="-97905">
		<tag k="name" v="Gjerdneset" />
		<tag k="natural" v="cape" />
		<tag k="ssr:stedsnr" v="360420" />
	</node>
	<node lat="68.74064166851025" lon="17.785361120337146" id="-97906">
		<tag k="name" v="Litjemoen" />
		<tag k="place" v="locality" />
		<tag k="ssr:stedsnr" v="360422" />
	</node>
	<node lat="68.73841666763724" lon="17.791316667569678" id="-97907">
		<tag k="name" v="Stuvhøggan" />
		<tag k="natural" v="hill" />
		<tag k="place" v="locality" />
		<tag k="ssr:stedsnr" v="360425" />
	</node>
	<node lat="68.79777777759472" lon="17.711458323002876" id="-97908">
		<tag k="name" v="Smålian" />
		<tag k="natural" v="slope" />
		<tag k="place" v="locality" />
		<tag k="ssr:stedsnr" v="360437" />
	</node>
	<node lat="68.79837500426578" lon="17.735361115751598" id="-97909">
		<tag k="name" v="Kvitefløyet" />
		<tag k="natural" v="hill" />
		<tag k="place" v="locality" />
		<tag k="ssr:stedsnr" v="360441" />
	</node>
	<node lat="68.7283583308361" lon="17.807855553125496" id="-97910">
		<tag k="name" v="Finnhestskogen" />
		<tag k="place" v="locality" />
		<tag k="ssr:stedsnr" v="360448" />
	</node>
	<node lat="68.73055000371966" lon="17.821780561743076" id="-97911">
		<tag k="name" v="Kvilarneset" />
		<tag k="natural" v="hill" />
		<tag k="place" v="locality" />
		<tag k="ssr:stedsnr" v="360456" />
	</node>
	<node lat="68.78436111008546" lon="17.804688884188707" id="-97912">
		<tag k="name" v="Asphågen" />
		<tag k="natural" v="hill" />
		<tag k="place" v="locality" />
		<tag k="ssr:stedsnr" v="360528" />
	</node>
	<node lat="68.77938888518032" lon="17.803566657839042" id="-97913">
		<tag k="name" v="Soløybrekka" />
		<tag k="natural" v="slope" />
		<tag k="place" v="locality" />
		<tag k="ssr:stedsnr" v="360529" />
	</node>
	<node lat="68.7768138898958" lon="17.81483611005867" id="-97914">
		<tag k="name" v="Vargedalen" />
		<tag k="natural" v="valley" />
		<tag k="place" v="locality" />
		<tag k="ssr:stedsnr" v="360534" />
	</node>
	<node lat="68.77869167088383" lon="17.808311115889968" id="-97915">
		<tag k="name" v="Holmen" />
		<tag k="place" v="farm" />
		<tag k="ssr:stedsnr" v="360536" />
	</node>
	<node lat="68.78249722499393" lon="17.77890556162149" id="-97916">
		<tag k="fixme" v="consider seamark:type=rock or natural=shoal" />
		<tag k="name" v="Kobbesteinan" />
		<tag k="place" v="islet" />
		<tag k="ssr:stedsnr" v="360540" />
	</node>
	<node lat="68.78020833671091" lon="17.78431667205291" id="-97917">
		<tag k="name" v="Ytre grindnes" />
		<tag k="natural" v="cape" />
		<tag k="ssr:stedsnr" v="360542" />
	</node>
	<node lat="68.6923527785377" lon="17.961397220918318" id="-97918">
		<tag k="name" v="Storhammarmyra" />
		<tag k="natural" v="wetland" />
		<tag k="ssr:stedsnr" v="360744" />
	</node>
	<node lat="68.77589721896601" lon="17.650577770239614" id="-97919">
		<tag k="name" v="Mellabakken" />
		<tag k="natural" v="slope" />
		<tag k="place" v="locality" />
		<tag k="ssr:stedsnr" v="361125" />
	</node>
	<node lat="68.71410000212855" lon="17.903180551314012" id="-97920">
		<tag k="name" v="Brulemmen" />
		<tag k="natural" v="slope" />
		<tag k="place" v="locality" />
		<tag k="ssr:stedsnr" v="361651" />
	</node>
	<node lat="68.7186972198312" lon="17.847191656670205" id="-97921">
		<tag k="name" v="Saraelva" />
		<tag k="ssr:stedsnr" v="361653" />
		<tag k="waterway" v="stream" />
	</node>
	<node lat="68.67292777926671" lon="18.04854999237859" id="-97922">
		<tag k="alt_name:no" v="Flåget" />
		<tag k="fixme" v="consider natural=peak for the most distinct mountains in the district" />
		<tag k="loc_name:se" v="Gáhpasvárri" />
		<tag k="name" v="Floget" />
		<tag k="name:no" v="Floget" />
		<tag k="natural" v="hill" />
		<tag k="place" v="locality" />
		<tag k="ssr:stedsnr" v="381330" />
	</node>
	<node lat="68.7994623147385" lon="17.546716506203563" id="-97923">
		<tag k="name" v="Skjelnesplassen" />
		<tag k="place" v="farm" />
		<tag k="ssr:stedsnr" v="381735" />
	</node>
	<node lat="68.79306111469724" lon="17.521486098136094" id="-97924">
		<tag k="loc_name:se" v="Sámiidgáttijohka" />
		<tag k="name" v="Plasselva" />
		<tag k="name:no" v="Plasselva" />
		<tag k="ssr:stedsnr" v="381749" />
		<tag k="waterway" v="river" />
	</node>
	<node lat="68.79296666873844" lon="17.5248222122498" id="-97925">
		<tag k="name" v="Sennevatnet" />
		<tag k="natural" v="water" />
		<tag k="ssr:stedsnr" v="381750" />
	</node>
	<node lat="68.79503602708715" lon="17.732606580685996" id="-97926">
		<tag k="loc_name:no" v="Gamvika" />
		<tag k="loc_name:se" v="Gámaviika" />
		<tag k="name" v="Gamvik" />
		<tag k="name:no" v="Gamvik" />
		<tag k="place" v="farm" />
		<tag k="ssr:stedsnr" v="381754" />
	</node>
	<node lat="68.77460555317" lon="17.800852783838696" id="-97927">
		<tag k="loc_name:se" v="Suolemak" />
		<tag k="name" v="Soløy" />
		<tag k="name:no" v="Soløy" />
		<tag k="place" v="quarter" />
		<tag k="ssr:stedsnr" v="381758" />
	</node>
	<node lat="68.63976944615163" lon="17.84721665213873" id="-97928">
		<tag k="name" v="Luohttojávri - Lotvatnet" />
		<tag k="name:no" v="Lotvatnet" />
		<tag k="name:se" v="Luohttojávri" />
		<tag k="natural" v="water" />
		<tag k="ssr:stedsnr" v="382505" />
		<tag k="water" v="lake" />
	</node>
	<node lat="68.77522411669491" lon="17.633990349340486" id="-97929">
		<tag k="name" v="Jonelva" />
		<tag k="ssr:stedsnr" v="382695" />
		<tag k="waterway" v="stream" />
	</node>
	<node lat="68.71656388598925" lon="17.892530558447042" id="-97930">
		<tag k="name" v="Juovvabohki" />
		<tag k="name:se" v="Juovvabohki" />
		<tag k="natural" v="slope" />
		<tag k="place" v="locality" />
		<tag k="ssr:stedsnr" v="385630" />
	</node>
	<node lat="68.79522777506283" lon="17.673186110481772" id="-97931">
		<tag k="alt_name" v="Klubbesteinen" />
		<tag k="name" v="Klubbsteinen" />
		<tag k="natural" v="cape" />
		<tag k="ssr:stedsnr" v="393992" />
	</node>
	<node lat="68.73673611407492" lon="17.819566675428252" id="-97932">
		<tag k="name" v="Silddádievvá - Spansgårdsstigninga" />
		<tag k="name:no" v="Spansgårdsstigninga" />
		<tag k="name:se" v="Silddádievvá" />
		<tag k="place" v="neighbourhood" />
		<tag k="ssr:stedsnr" v="413164" />
	</node>
	<node lat="68.67893055527514" lon="18.01675555019912" id="-97933">
		<tag k="name" v="Soløyvatnet" />
		<tag k="natural" v="water" />
		<tag k="ssr:stedsnr" v="415392" />
	</node>
	<node lat="68.79798611366812" lon="17.544508320915984" id="-97934">
		<tag k="name" v="Svarteberget" />
		<tag k="natural" v="hill" />
		<tag k="place" v="locality" />
		<tag k="ssr:stedsnr" v="421181" />
	</node>
	<node lat="68.80626666587527" lon="17.52432498694068" id="-97935">
		<tag k="name" v="Rødberget" />
		<tag k="natural" v="hill" />
		<tag k="place" v="locality" />
		<tag k="ssr:stedsnr" v="421187" />
	</node>
	<node lat="68.7524527756673" lon="17.663302767315674" id="-97936">
		<tag k="name" v="Heia" />
		<tag k="natural" v="hill" />
		<tag k="place" v="locality" />
		<tag k="ssr:stedsnr" v="421188" />
	</node>
	<node lat="68.79706111113518" lon="17.737108324789823" id="-97937">
		<tag k="name" v="Libergan" />
		<tag k="natural" v="hill" />
		<tag k="place" v="locality" />
		<tag k="ssr:stedsnr" v="421406" />
	</node>
	<node lat="68.79275555891581" lon="17.781105559095106" id="-97938">
		<tag k="name" v="Seljebakkan" />
		<tag k="natural" v="slope" />
		<tag k="place" v="locality" />
		<tag k="ssr:stedsnr" v="421409" />
	</node>
	<node lat="68.79358611225416" lon="17.77912498755154" id="-97939">
		<tag k="name" v="Kuberget" />
		<tag k="natural" v="hill" />
		<tag k="place" v="locality" />
		<tag k="ssr:stedsnr" v="421410" />
	</node>
	<node lat="68.7751222203407" lon="17.826911119630587" id="-97940">
		<tag k="highway" v="path" />
		<tag k="name" v="Trippegulvveien" />
		<tag k="ssr:stedsnr" v="421511" />
	</node>
	<node lat="68.76798888997084" lon="17.696783319333672" id="-97941">
		<tag k="name" v="Stavhammarmoen" />
		<tag k="place" v="locality" />
		<tag k="ssr:stedsnr" v="421534" />
	</node>
	<node lat="68.77142777517379" lon="17.685386118235566" id="-97942">
		<tag k="name" v="Finnebudalsmyran" />
		<tag k="natural" v="wetland" />
		<tag k="ssr:stedsnr" v="421536" />
	</node>
	<node lat="68.79620000019605" lon="17.801519439674614" id="-97943">
		<tag k="name" v="Skittendiket" />
		<tag k="ssr:stedsnr" v="421543" />
		<tag k="waterway" v="stream" />
	</node>
	<node lat="68.79442777685273" lon="17.793511111682324" id="-97944">
		<tag k="highway" v="path" />
		<tag k="name" v="Øverveien" />
		<tag k="ssr:stedsnr" v="421546" />
	</node>
	<node lat="68.76963610839374" lon="17.815638883882944" id="-97945">
		<tag k="name" v="Stengesletta" />
		<tag k="place" v="locality" />
		<tag k="ssr:stedsnr" v="421549" />
	</node>
	<node lat="68.80608333278403" lon="17.838166663383056" id="-97946">
		<tag k="name" v="Jordelva" />
		<tag k="ssr:stedsnr" v="421389" />
		<tag k="waterway" v="stream" />
	</node>
	<node lat="68.80369166491842" lon="17.824466673451404" id="-97947">
		<tag k="highway" v="path" />
		<tag k="name" v="Kavelsteinveien" />
		<tag k="ssr:stedsnr" v="421395" />
	</node>
	<node lat="68.7943472257213" lon="17.72221943907229" id="-97948">
		<tag k="name" v="Bukholla" />
		<tag k="natural" v="bay" />
		<tag k="ssr:stedsnr" v="421397" />
	</node>
	<node lat="68.79832499920255" lon="17.744530553105406" id="-97949">
		<tag k="name" v="Hågelva" />
		<tag k="ssr:stedsnr" v="421468" />
		<tag k="waterway" v="stream" />
	</node>
	<node lat="68.79754722254309" lon="17.69955276340507" id="-97950">
		<tag k="name" v="Huskubergan" />
		<tag k="natural" v="hill" />
		<tag k="place" v="locality" />
		<tag k="ssr:stedsnr" v="421470" />
	</node>
	<node lat="68.73151111001707" lon="17.785505544773333" id="-97951">
		<tag k="name" v="Anders-finnskogen" />
		<tag k="place" v="locality" />
		<tag k="ssr:stedsnr" v="421489" />
	</node>
	<node lat="68.73748333420113" lon="17.815683322489775" id="-97952">
		<tag k="name" v="Kjerringdalen" />
		<tag k="natural" v="valley" />
		<tag k="place" v="locality" />
		<tag k="ssr:stedsnr" v="421439" />
	</node>
	<node lat="68.7033749996651" lon="17.99560555906812" id="-97953">
		<tag k="name" v="Kløftbekken" />
		<tag k="ssr:stedsnr" v="421832" />
		<tag k="waterway" v="stream" />
	</node>
	<node lat="68.77068888748043" lon="17.84450277143939" id="-97954">
		<tag k="ford" v="yes" />
		<tag k="name" v="Nervaet" />
		<tag k="place" v="locality" />
		<tag k="ssr:stedsnr" v="421833" />
	</node>
	<node lat="68.77229721900146" lon="17.86742222395436" id="-97955">
		<tag k="name" v="Uran" />
		<tag k="natural" v="scree" />
		<tag k="ssr:stedsnr" v="421843" />
	</node>
	<node lat="68.69426666857085" lon="17.960836103157543" id="-97956">
		<tag k="name" v="Storsteinbakken" />
		<tag k="natural" v="slope" />
		<tag k="place" v="locality" />
		<tag k="ssr:stedsnr" v="421767" />
	</node>
	<node lat="68.6958138903157" lon="17.975361096256567" id="-97957">
		<tag k="name" v="Bruflaten" />
		<tag k="place" v="locality" />
		<tag k="ssr:stedsnr" v="421770" />
	</node>
	<node lat="68.77834166817048" lon="17.654411097007525" id="-97958">
		<tag k="name" v="Hestesteinen" />
		<tag k="natural" v="stone" />
		<tag k="ssr:stedsnr" v="422128" />
	</node>
	<node lat="68.77765833483812" lon="17.641869453701986" id="-97959">
		<tag k="name" v="Kartemyrberget" />
		<tag k="natural" v="hill" />
		<tag k="place" v="locality" />
		<tag k="ssr:stedsnr" v="422131" />
	</node>
	<node lat="68.78523888767573" lon="17.610230558359806" id="-97960">
		<tag k="name" v="Hesthagan" />
		<tag k="natural" v="hill" />
		<tag k="place" v="locality" />
		<tag k="ssr:stedsnr" v="422225" />
	</node>
	<node lat="68.78064166796362" lon="17.617397224715575" id="-97961">
		<tag k="name" v="Jotunheimen" />
		<tag k="place" v="locality" />
		<tag k="ssr:stedsnr" v="422236" />
	</node>
	<node lat="68.75451389369972" lon="17.821374989890707" id="-97962">
		<tag k="name" v="Storsteinbakken" />
		<tag k="natural" v="slope" />
		<tag k="place" v="locality" />
		<tag k="ssr:stedsnr" v="422276" />
	</node>
	<node lat="68.77370277610247" lon="17.82006667452362" id="-97963">
		<tag k="name" v="Skarholtan" />
		<tag k="place" v="locality" />
		<tag k="ssr:stedsnr" v="422534" />
	</node>
	<node lat="68.65760277388077" lon="17.910788895320277" id="-97964">
		<tag k="name" v="Mellamyra" />
		<tag k="natural" v="wetland" />
		<tag k="ssr:stedsnr" v="422546" />
	</node>
	<node lat="68.65031111114376" lon="17.923833341392562" id="-97965">
		<tag k="name" v="Langbergan" />
		<tag k="natural" v="hill" />
		<tag k="place" v="locality" />
		<tag k="ssr:stedsnr" v="423647" />
	</node>
	<node lat="68.78838888664694" lon="17.565541675687186" id="-97966">
		<tag k="name" v="Hånken" />
		<tag k="natural" v="slope" />
		<tag k="place" v="locality" />
		<tag k="ssr:stedsnr" v="481216" />
	</node>
	<node lat="68.79954444394123" lon="17.53583611434952" id="-97967">
		<tag k="name" v="Utenga" />
		<tag k="place" v="locality" />
		<tag k="ssr:stedsnr" v="481228" />
	</node>
	<node lat="68.78382500028803" lon="17.55825276584553" id="-97968">
		<tag k="name" v="Tverrelva" />
		<tag k="ssr:stedsnr" v="481230" />
		<tag k="waterway" v="stream" />
	</node>
	<node lat="68.79446944647346" lon="17.571302770136075" id="-97969">
		<tag k="name" v="Sildeberget" />
		<tag k="natural" v="hill" />
		<tag k="place" v="locality" />
		<tag k="ssr:stedsnr" v="481237" />
	</node>
	<node lat="68.80052777470786" lon="17.630352762041905" id="-97970">
		<tag k="name" v="Svartholla" />
		<tag k="natural" v="bay" />
		<tag k="ssr:stedsnr" v="481242" />
	</node>
	<node lat="68.79970833744635" lon="17.75987777328462" id="-97971">
		<tag k="fixme" v="consider natural=peak for the most distinct mountains in the district" />
		<tag k="name" v="Librunen" />
		<tag k="natural" v="hill" />
		<tag k="place" v="locality" />
		<tag k="ssr:stedsnr" v="481429" />
	</node>
	<node lat="68.79527500467961" lon="17.693424995270885" id="-97972">
		<tag k="name" v="Skipskogan" />
		<tag k="place" v="locality" />
		<tag k="ssr:stedsnr" v="481432" />
	</node>
	<node lat="68.79676666787687" lon="17.73486389477051" id="-97973">
		<tag k="name" v="Asphammaren" />
		<tag k="natural" v="hill" />
		<tag k="place" v="locality" />
		<tag k="ssr:stedsnr" v="481437" />
	</node>
	<node lat="68.6851666635262" lon="17.954474989665353" id="-97974">
		<tag k="name" v="Slettbekken" />
		<tag k="ssr:stedsnr" v="481689" />
		<tag k="waterway" v="stream" />
	</node>
	<node lat="68.73000555704216" lon="17.868041659766874" id="-97975">
		<tag k="name" v="Skáiddejohka" />
		<tag k="name:se" v="Skáiddejohka" />
		<tag k="ssr:stedsnr" v="481714" />
		<tag k="waterway" v="stream" />
	</node>
	<node lat="68.76605833111967" lon="17.68493889247614" id="-97976">
		<tag k="name" v="Vakkermoan" />
		<tag k="place" v="locality" />
		<tag k="ssr:stedsnr" v="481552" />
	</node>
	<node lat="68.77898888498035" lon="17.69487221402335" id="-97977">
		<tag k="name" v="Orhågen" />
		<tag k="natural" v="hill" />
		<tag k="place" v="locality" />
		<tag k="ssr:stedsnr" v="481553" />
	</node>
	<node lat="68.79629444747906" lon="17.81638611477272" id="-97978">
		<tag k="name" v="Bålmoen" />
		<tag k="place" v="locality" />
		<tag k="ssr:stedsnr" v="481558" />
	</node>
	<node lat="68.73810278026254" lon="17.824294441641303" id="-97979">
		<tag k="name" v="Tømmerelva" />
		<tag k="ssr:stedsnr" v="481488" />
		<tag k="waterway" v="stream" />
	</node>
	<node lat="68.73925555234892" lon="17.806680562448236" id="-97980">
		<tag k="name" v="Fredagshølla" />
		<tag k="place" v="locality" />
		<tag k="ssr:stedsnr" v="481490" />
	</node>
	<node lat="68.7330388852654" lon="17.804366656446124" id="-97981">
		<tag k="name" v="Bergulbakken" />
		<tag k="natural" v="slope" />
		<tag k="place" v="locality" />
		<tag k="ssr:stedsnr" v="481491" />
	</node>
	<node lat="68.69857778138054" lon="17.979013892664533" id="-97982">
		<tag k="name" v="Kvernhusbakken" />
		<tag k="natural" v="slope" />
		<tag k="place" v="locality" />
		<tag k="ssr:stedsnr" v="481738" />
	</node>
	<node lat="68.69452221918657" lon="17.951761099689676" id="-97983">
		<tag k="name" v="Lauvkjellaren" />
		<tag k="natural" v="slope" />
		<tag k="place" v="locality" />
		<tag k="ssr:stedsnr" v="481748" />
	</node>
	<node lat="68.76933333117218" lon="17.840911108518412" id="-97984">
		<tag k="name" v="Langmyra" />
		<tag k="natural" v="wetland" />
		<tag k="ssr:stedsnr" v="481827" />
	</node>
	<node lat="68.76801944280741" lon="17.634880560493038" id="-97985">
		<tag k="name" v="Lomvatnet" />
		<tag k="natural" v="water" />
		<tag k="ssr:stedsnr" v="483152" />
	</node>
	<node lat="68.77609166437371" lon="17.66519165250329" id="-97986">
		<tag k="fixme" v="consider natural=peak for the most distinct mountains in the district" />
		<tag k="name" v="Melketuva" />
		<tag k="natural" v="hill" />
		<tag k="place" v="locality" />
		<tag k="ssr:stedsnr" v="483156" />
	</node>
	<node lat="68.74939722167883" lon="17.74104999142171" id="-97987">
		<tag k="name" v="Lomvatnan" />
		<tag k="natural" v="water" />
		<tag k="ssr:stedsnr" v="483412" />
		<tag k="water" v="lake" />
	</node>
	<node lat="68.75863611078185" lon="17.766966661359973" id="-97988">
		<tag k="name" v="Gårdselva" />
		<tag k="ssr:stedsnr" v="483415" />
		<tag k="waterway" v="stream" />
	</node>
	<node lat="68.7161111112655" lon="17.766686115483353" id="-97989">
		<tag k="name" v="Middagsmyran" />
		<tag k="natural" v="wetland" />
		<tag k="ssr:stedsnr" v="483189" />
	</node>
	<node lat="68.78494444173882" lon="17.599069433860343" id="-97990">
		<tag k="name" v="Grønnebakkan" />
		<tag k="natural" v="slope" />
		<tag k="place" v="locality" />
		<tag k="ssr:stedsnr" v="483288" />
	</node>
	<node lat="68.74447221845719" lon="17.795288878034917" id="-97991">
		<tag k="name" v="Kviteberget" />
		<tag k="natural" v="hill" />
		<tag k="place" v="locality" />
		<tag k="ssr:stedsnr" v="483290" />
	</node>
	<node lat="68.65313888726492" lon="17.922847217433077" id="-97992">
		<tag k="name" v="Skjellbekken" />
		<tag k="ssr:stedsnr" v="483639" />
		<tag k="waterway" v="stream" />
	</node>
	<node lat="68.71365555678588" lon="17.89030278185022" id="-97993">
		<tag k="name" v="Stuordievvá - Storbakken" />
		<tag k="name:no" v="Storbakken" />
		<tag k="name:se" v="Stuordievvá" />
		<tag k="natural" v="slope" />
		<tag k="place" v="locality" />
		<tag k="ssr:stedsnr" v="483650" />
	</node>
	<node lat="68.71525833796498" lon="17.900022214806864" id="-97994">
		<tag k="name" v="Skillajuovva - Litjeura" />
		<tag k="name:no" v="Litjeura" />
		<tag k="name:se" v="Skillajuovva" />
		<tag k="natural" v="scree" />
		<tag k="ssr:stedsnr" v="483655" />
	</node>
	<node lat="68.67438055511414" lon="17.931494440732454" id="-97995">
		<tag k="name" v="Finnmyra" />
		<tag k="natural" v="wetland" />
		<tag k="ssr:stedsnr" v="483566" />
	</node>
	<node lat="68.66841389009336" lon="17.923019429646494" id="-97996">
		<tag k="name" v="Heimveihaugen" />
		<tag k="natural" v="hill" />
		<tag k="place" v="locality" />
		<tag k="ssr:stedsnr" v="483568" />
	</node>
	<node lat="68.66613055627988" lon="17.85036388231165" id="-97997">
		<tag k="loc_name:se" v="Buhkkajeaggi" />
		<tag k="name" v="Bukkemyra" />
		<tag k="name:no" v="Bukkemyra" />
		<tag k="natural" v="wetland" />
		<tag k="ssr:stedsnr" v="503560" />
	</node>
	<node lat="68.79929444717443" lon="17.696863891600938" id="-97998">
		<tag k="name" v="Nordelva" />
		<tag k="ssr:stedsnr" v="503653" />
		<tag k="waterway" v="stream" />
	</node>
	<node lat="68.7522833360291" lon="17.81347222217035" id="-97999">
		<tag k="name" v="Lyngmoen" />
		<tag k="place" v="farm" />
		<tag k="ssr:stedsnr" v="503697" />
	</node>
	<node lat="68.72147500150876" lon="17.86014721808328" id="-98000">
		<tag k="name" v="Ruŋgu - Spansdalen" />
		<tag k="name:no" v="Spansdalen" />
		<tag k="name:se" v="Ruŋgu" />
		<tag k="place" v="hamlet" />
		<tag k="ssr:stedsnr" v="503868" />
	</node>
	<node lat="68.78370155137448" lon="17.618853712340567" id="-98001">
		<tag k="name" v="Keiprød" />
		<tag k="place" v="farm" />
		<tag k="ssr:stedsnr" v="507300" />
	</node>
	<node lat="68.75977148125682" lon="17.76531111982011" id="-98002">
		<tag k="alt_name:no" v="Lotternes" />
		<tag k="loc_name:se" v="Lohtarnášši;Loahtarnássi" />
		<tag k="name" v="Låternes" />
		<tag k="name:no" v="Låternes" />
		<tag k="place" v="farm" />
		<tag k="ssr:stedsnr" v="507657" />
	</node>
	<node lat="68.75109721964004" lon="17.790825006898228" id="-98003">
		<tag k="name" v="Laberget" />
		<tag k="natural" v="cape" />
		<tag k="ssr:stedsnr" v="516658" />
	</node>
	<node lat="68.69448611186243" lon="17.989649987576325" id="-98004">
		<tag k="name" v="Sandbakken" />
		<tag k="natural" v="slope" />
		<tag k="place" v="locality" />
		<tag k="ssr:stedsnr" v="536373" />
	</node>
	<node lat="68.69452221947196" lon="18.00226944259032" id="-98005">
		<tag k="name" v="Brattbakkmyran" />
		<tag k="natural" v="wetland" />
		<tag k="ssr:stedsnr" v="536746" />
	</node>
	<node lat="68.69715833157831" lon="18.0271166614197" id="-98006">
		<tag k="historic" v="shieling" />
		<tag k="name" v="Sætran" />
		<tag k="place" v="isolated_dwelling" />
		<tag k="ssr:stedsnr" v="536749" />
	</node>
	<node lat="68.69630000182536" lon="18.034999994369155" id="-98007">
		<tag k="name" v="Seljebakken" />
		<tag k="natural" v="slope" />
		<tag k="place" v="locality" />
		<tag k="ssr:stedsnr" v="536750" />
	</node>
	<node lat="68.79422777937653" lon="17.478930548992054" id="-98008">
		<tag k="name" v="Kollvasselva" />
		<tag k="ssr:stedsnr" v="542197" />
		<tag k="waterway" v="stream" />
	</node>
	<node lat="68.80455555805612" lon="17.530108343638418" id="-98009">
		<tag k="name" v="Bjørnberget" />
		<tag k="natural" v="hill" />
		<tag k="place" v="locality" />
		<tag k="ssr:stedsnr" v="542201" />
	</node>
	<node lat="68.73972777937523" lon="17.804886096790177" id="-98010">
		<tag k="name" v="Fagerslåtta" />
		<tag k="place" v="locality" />
		<tag k="ssr:stedsnr" v="542453" />
	</node>
	<node lat="68.73826944435943" lon="17.808905554879875" id="-98011">
		<tag k="name" v="Meldalen" />
		<tag k="natural" v="valley" />
		<tag k="place" v="locality" />
		<tag k="ssr:stedsnr" v="542458" />
	</node>
	<node lat="68.74200278241162" lon="17.79431388158741" id="-98012">
		<tag k="name" v="Hestinndalen" />
		<tag k="natural" v="valley" />
		<tag k="place" v="locality" />
		<tag k="ssr:stedsnr" v="542466" />
	</node>
	<node lat="68.73941388446279" lon="17.79126666552407" id="-98013">
		<tag k="name" v="Storhågen" />
		<tag k="natural" v="hill" />
		<tag k="place" v="locality" />
		<tag k="ssr:stedsnr" v="542470" />
	</node>
	<node lat="68.7336694422403" lon="17.82420276473638" id="-98014">
		<tag k="name" v="Kvannelva" />
		<tag k="ssr:stedsnr" v="542471" />
		<tag k="waterway" v="stream" />
	</node>
	<node lat="68.76639999980682" lon="17.73041665569038" id="-98015">
		<tag k="name" v="Bestefarholtan" />
		<tag k="place" v="locality" />
		<tag k="ssr:stedsnr" v="542532" />
	</node>
	<node lat="68.7878194462468" lon="17.79687220951711" id="-98016">
		<tag k="name" v="Åelvdalen" />
		<tag k="natural" v="valley" />
		<tag k="place" v="locality" />
		<tag k="ssr:stedsnr" v="542542" />
	</node>
	<node lat="68.79169166835946" lon="17.76768332850142" id="-98017">
		<tag k="landuse" v="meadow" />
		<tag k="name" v="Storteigen" />
		<tag k="ssr:stedsnr" v="542543" />
	</node>
	<node lat="68.7791611132085" lon="17.81022778794994" id="-98018">
		<tag k="name" v="Holmedalen" />
		<tag k="natural" v="valley" />
		<tag k="place" v="locality" />
		<tag k="ssr:stedsnr" v="542547" />
	</node>
	<node lat="68.72142222526463" lon="17.869236114079275" id="-98019">
		<tag k="fixme" v="multiple name tags, choose one and add the other to alt_name" />
		<tag k="name" v="Čoaffi;Stuor Čoaffi - Aksla" />
		<tag k="name:no" v="Aksla" />
		<tag k="name:se" v="Čoaffi;Stuor Čoaffi" />
		<tag k="place" v="locality" />
		<tag k="ssr:stedsnr" v="542717" />
	</node>
	<node lat="68.79485555475233" lon="17.764605549417055" id="-98020">
		<tag k="name" v="Mølnelva" />
		<tag k="ssr:stedsnr" v="542400" />
		<tag k="waterway" v="stream" />
	</node>
	<node lat="68.79656666734326" lon="17.769208340757086" id="-98021">
		<tag k="name" v="Saubakkan" />
		<tag k="natural" v="slope" />
		<tag k="place" v="locality" />
		<tag k="ssr:stedsnr" v="542401" />
	</node>
	<node lat="68.80155277772754" lon="17.730244435292928" id="-98022">
		<tag k="name" v="Juret" />
		<tag k="natural" v="slope" />
		<tag k="place" v="locality" />
		<tag k="ssr:stedsnr" v="542487" />
	</node>
	<node lat="68.72973333670859" lon="17.80550834211047" id="-98023">
		<tag k="name" v="Hesjeflaten" />
		<tag k="place" v="locality" />
		<tag k="ssr:stedsnr" v="542492" />
	</node>
	<node lat="68.69084444494752" lon="17.980227783788855" id="-98024">
		<tag k="name" v="Vinterveiranen" />
		<tag k="natural" v="hill" />
		<tag k="place" v="locality" />
		<tag k="ssr:stedsnr" v="542763" />
	</node>
	<node lat="68.68231666219762" lon="17.939738894235102" id="-98025">
		<tag k="name" v="Jordbrumoen" />
		<tag k="place" v="locality" />
		<tag k="ssr:stedsnr" v="542769" />
	</node>
	<node lat="68.75439444593802" lon="17.826977772670688" id="-98026">
		<tag k="name" v="Rødbergan" />
		<tag k="natural" v="hill" />
		<tag k="place" v="locality" />
		<tag k="ssr:stedsnr" v="543299" />
	</node>
	<node lat="68.67392222713192" lon="17.92119998948843" id="-98027">
		<tag k="name" v="Reingjerdan" />
		<tag k="natural" v="slope" />
		<tag k="place" v="locality" />
		<tag k="ssr:stedsnr" v="543526" />
	</node>
	<node lat="68.6705805513196" lon="17.87689444508876" id="-98028">
		<tag k="name" v="Lapphauglia" />
		<tag k="natural" v="slope" />
		<tag k="place" v="locality" />
		<tag k="ssr:stedsnr" v="543527" />
	</node>
	<node lat="68.78270278107966" lon="17.602499992730696" id="-98029">
		<tag k="name" v="Bjørnbergan" />
		<tag k="natural" v="hill" />
		<tag k="place" v="locality" />
		<tag k="ssr:stedsnr" v="543259" />
	</node>
	<node lat="68.67205832890745" lon="17.95446944854809" id="-98030">
		<tag k="name" v="Jordbekken" />
		<tag k="ssr:stedsnr" v="543520" />
		<tag k="waterway" v="stream" />
	</node>
	<node lat="68.69724166713013" lon="17.98866109857362" id="-98031">
		<tag k="name" v="Nordre Fossbakken" />
		<tag k="place" v="farm" />
		<tag k="ssr:stedsnr" v="563542" />
	</node>
	<node lat="68.77221388952114" lon="17.956583328077247" id="-98032">
		<tag k="fixme" v="consider natural=peak for the most distinct mountains in the district" />
		<tag k="name" v="Blåfjellet" />
		<tag k="natural" v="hill" />
		<tag k="place" v="locality" />
		<tag k="ssr:stedsnr" v="563269" />
	</node>
	<node lat="68.71788055308873" lon="17.88842776462282" id="-98033">
		<tag k="name" v="Gihttejohka" />
		<tag k="name:se" v="Gihttejohka" />
		<tag k="ssr:stedsnr" v="563614" />
		<tag k="waterway" v="stream" />
	</node>
	<node lat="68.79072167059206" lon="17.770347766179892" id="-98034">
		<tag k="loc_name:se" v="Rodik" />
		<tag k="name" v="Rød" />
		<tag k="name:no" v="Rød" />
		<tag k="place" v="farm" />
		<tag k="ssr:stedsnr" v="563751" />
	</node>
	<node lat="68.7814222218321" lon="17.818394431781496" id="-98035">
		<tag k="name" v="Soløyelva" />
		<tag k="ssr:stedsnr" v="563753" />
		<tag k="waterway" v="stream" />
	</node>
	<node lat="68.8254194455059" lon="17.654999996326787" id="-98036">
		<tag k="fixme" v="consider natural=saddle" />
		<tag k="name" v="Bergsvikskardet" />
		<tag k="natural" v="valley" />
		<tag k="place" v="locality" />
		<tag k="ssr:stedsnr" v="563717" />
	</node>
	<node lat="68.81060277687618" lon="17.76789721272469" id="-98037">
		<tag k="name" v="Gielas" />
		<tag k="name:se" v="Gielas" />
		<tag k="place" v="locality" />
		<tag k="ssr:stedsnr" v="563726" />
	</node>
	<node lat="68.76954167046397" lon="17.736522223301552" id="-98038">
		<tag k="alt_name" v="Gårdelva, store" />
		<tag k="fixme" v="multiple name tags, choose one and add the other to alt_name" />
		<tag k="name" v="Gårdselva;Store Gårdelva" />
		<tag k="ssr:stedsnr" v="563762" />
		<tag k="waterway" v="stream" />
	</node>
	<node lat="68.76427777659757" lon="17.712849987674314" id="-98039">
		<tag k="alt_name" v="Lomvassmyran" />
		<tag k="name" v="Lomvassmyra" />
		<tag k="natural" v="wetland" />
		<tag k="ssr:stedsnr" v="563768" />
	</node>
	<node lat="68.76001111063132" lon="17.72636665394197" id="-98040">
		<tag k="loc_name:se" v="Riehppejohka" />
		<tag k="name" v="Sandneselva" />
		<tag k="name:no" v="Sandneselva" />
		<tag k="ssr:stedsnr" v="563772" />
		<tag k="waterway" v="river" />
	</node>
	<node lat="68.72281944902952" lon="17.84521943915031" id="-98041">
		<tag k="name" v="Busletta" />
		<tag k="place" v="farm" />
		<tag k="ssr:stedsnr" v="563946" />
	</node>
	<node lat="68.73429721973815" lon="17.855186119494988" id="-98042">
		<tag k="alt_name:se" v="Unna Váráš" />
		<tag k="fixme" v="consider natural=peak for the most distinct mountains in the district" />
		<tag k="name" v="Váráš" />
		<tag k="name:se" v="Váráš" />
		<tag k="natural" v="hill" />
		<tag k="place" v="locality" />
		<tag k="ssr:stedsnr" v="563950" />
	</node>
	<node lat="68.71125000303961" lon="17.93253055953985" id="-98043">
		<tag k="name" v="Suoidnesadji - Sennemyra" />
		<tag k="name:no" v="Sennemyra" />
		<tag k="name:se" v="Suoidnesadji" />
		<tag k="natural" v="wetland" />
		<tag k="ssr:stedsnr" v="564608" />
	</node>
	<node lat="68.71736666843873" lon="17.8859388860013" id="-98044">
		<tag k="name" v="Millodievvá" />
		<tag k="name:se" v="Millodievvá" />
		<tag k="natural" v="hill" />
		<tag k="place" v="locality" />
		<tag k="ssr:stedsnr" v="564614" />
	</node>
	<node lat="68.76183889289452" lon="17.66974722758973" id="-98045">
		<tag k="name" v="Keiprøddalen" />
		<tag k="natural" v="valley" />
		<tag k="place" v="locality" />
		<tag k="ssr:stedsnr" v="567390" />
	</node>
	<node lat="68.80307222316367" lon="17.62083332801513" id="-98046">
		<tag k="name" v="Aspeskogen" />
		<tag k="place" v="locality" />
		<tag k="ssr:stedsnr" v="575990" />
	</node>
	<node lat="68.76576389291711" lon="17.81968054889347" id="-98047">
		<tag k="name" v="Brekkemoen" />
		<tag k="place" v="locality" />
		<tag k="ssr:stedsnr" v="602533" />
	</node>
	<node lat="68.77453889190367" lon="17.73840000867071" id="-98048">
		<tag k="name" v="Strand" />
		<tag k="place" v="farm" />
		<tag k="ssr:stedsnr" v="602548" />
	</node>
	<node lat="68.77201111166305" lon="17.711836117018535" id="-98049">
		<tag k="name" v="Matholla" />
		<tag k="natural" v="valley" />
		<tag k="place" v="locality" />
		<tag k="ssr:stedsnr" v="602554" />
	</node>
	<node lat="68.77127778079024" lon="17.834149987472223" id="-98050">
		<tag k="name" v="Elvebakken" />
		<tag k="natural" v="slope" />
		<tag k="place" v="locality" />
		<tag k="ssr:stedsnr" v="602815" />
	</node>
	<node lat="68.79635277614081" lon="17.730450001071773" id="-98051">
		<tag k="name" v="Einhågen" />
		<tag k="natural" v="hill" />
		<tag k="place" v="locality" />
		<tag k="ssr:stedsnr" v="602420" />
	</node>
	<node lat="68.78575833250807" lon="17.779758335275215" id="-98052">
		<tag k="name" v="Ramneberget" />
		<tag k="natural" v="hill" />
		<tag k="place" v="locality" />
		<tag k="ssr:stedsnr" v="602578" />
	</node>
	<node lat="68.76898055778146" lon="17.749083335663173" id="-98053">
		<tag k="name" v="Nystad" />
		<tag k="place" v="farm" />
		<tag k="ssr:stedsnr" v="602581" />
	</node>
	<node lat="68.76537500058345" lon="17.75099166324569" id="-98054">
		<tag k="name" v="Kattemarkflaten" />
		<tag k="place" v="locality" />
		<tag k="ssr:stedsnr" v="602582" />
	</node>
	<node lat="68.68486111404842" lon="17.970941653168772" id="-98055">
		<tag k="name" v="Storhaugen" />
		<tag k="natural" v="hill" />
		<tag k="place" v="locality" />
		<tag k="ssr:stedsnr" v="602717" />
	</node>
	<node lat="68.72401944567801" lon="17.878544445349817" id="-98056">
		<tag k="name" v="Darfesadji - Torvmyra" />
		<tag k="name:no" v="Torvmyra" />
		<tag k="name:se" v="Darfesadji" />
		<tag k="natural" v="wetland" />
		<tag k="ssr:stedsnr" v="602740" />
	</node>
	<node lat="68.68989167059554" lon="17.96958611629048" id="-98057">
		<tag k="name" v="Hesjebakken" />
		<tag k="natural" v="slope" />
		<tag k="place" v="locality" />
		<tag k="ssr:stedsnr" v="602763" />
	</node>
	<node lat="68.69645555251076" lon="17.9526083186707" id="-98058">
		<tag k="name" v="Storsletta" />
		<tag k="place" v="locality" />
		<tag k="ssr:stedsnr" v="602765" />
	</node>
	<node lat="68.77320833199376" lon="17.664202765648078" id="-98059">
		<tag k="fixme" v="consider natural=peak for the most distinct mountains in the district" />
		<tag k="name" v="Torvhågen" />
		<tag k="natural" v="hill" />
		<tag k="place" v="locality" />
		<tag k="ssr:stedsnr" v="604142" />
	</node>
	<node lat="68.76756111073544" lon="17.665383323760516" id="-98060">
		<tag k="name" v="Gunnarheimen" />
		<tag k="natural" v="slope" />
		<tag k="place" v="locality" />
		<tag k="ssr:stedsnr" v="604145" />
	</node>
	<node lat="68.7776194455481" lon="17.635694445353018" id="-98061">
		<tag k="name" v="Glugget" />
		<tag k="natural" v="slope" />
		<tag k="place" v="locality" />
		<tag k="ssr:stedsnr" v="604153" />
	</node>
	<node lat="68.81445555468571" lon="17.82923609553342" id="-98062">
		<tag k="name" v="Butoftelva" />
		<tag k="ssr:stedsnr" v="604532" />
		<tag k="waterway" v="stream" />
	</node>
	<node lat="68.82526667060165" lon="17.82202223047807" id="-98063">
		<tag k="name" v="Stormyrelva" />
		<tag k="ssr:stedsnr" v="604536" />
		<tag k="waterway" v="stream" />
	</node>
	<node lat="68.75268888765329" lon="17.788030550646972" id="-98064">
		<tag k="name" v="Skjellbekkvika" />
		<tag k="natural" v="bay" />
		<tag k="ssr:stedsnr" v="604295" />
	</node>
	<node lat="68.75930555359353" lon="17.822625000535233" id="-98065">
		<tag k="name" v="Bukkåmen" />
		<tag k="natural" v="hill" />
		<tag k="place" v="locality" />
		<tag k="ssr:stedsnr" v="604301" />
	</node>
	<node lat="68.76417777456668" lon="17.761266650755005" id="-98066">
		<tag k="name" v="Rubbetoften" />
		<tag k="natural" v="hill" />
		<tag k="place" v="locality" />
		<tag k="ssr:stedsnr" v="604385" />
	</node>
	<node lat="68.75922778084625" lon="17.76637221302165" id="-98067">
		<tag k="highway" v="path" />
		<tag k="name" v="Bærveien" />
		<tag k="ssr:stedsnr" v="604396" />
	</node>
	<node lat="68.6553916687165" lon="17.911363888256908" id="-98068">
		<tag k="name" v="Løflaten" />
		<tag k="natural" v="wetland" />
		<tag k="ssr:stedsnr" v="604634" />
	</node>
	<node lat="68.70220000295043" lon="17.9697166675937" id="-98069">
		<tag k="name" v="Sennemyran" />
		<tag k="natural" v="wetland" />
		<tag k="ssr:stedsnr" v="624582" />
	</node>
	<node lat="68.70315277384877" lon="17.917588882559716" id="-98070">
		<tag k="alt_name:se" v="Oalgi" />
		<tag k="fixme" v="consider natural=peak for the most distinct mountains in the district" />
		<tag k="name" v="Sniipaoalgi - Spansdalaksla" />
		<tag k="name:no" v="Spansdalaksla" />
		<tag k="name:se" v="Sniipaoalgi" />
		<tag k="natural" v="hill" />
		<tag k="place" v="locality" />
		<tag k="ssr:stedsnr" v="624583" />
	</node>
	<node lat="68.64700833223894" lon="17.89644999402611" id="-98071">
		<tag k="alt_name:se" v="Sieidegeađgi" />
		<tag k="name" v="Riikogállu" />
		<tag k="name:se" v="Riikogállu" />
		<tag k="natural" v="stone" />
		<tag k="old_name:se" v="Sieidegæđgi" />
		<tag k="ssr:stedsnr" v="624598" />
	</node>
	<node lat="68.65699721918544" lon="17.902330540690063" id="-98072">
		<tag k="name" v="Boksajeaggi - Stormyra" />
		<tag k="name:no" v="Stormyra" />
		<tag k="name:se" v="Boksajeaggi" />
		<tag k="natural" v="wetland" />
		<tag k="old_name:se" v="Båksajæggi" />
		<tag k="ssr:stedsnr" v="624599" />
	</node>
	<node lat="68.67274167037829" lon="17.900574987260995" id="-98073">
		<tag k="name" v="Lapphaugen" />
		<tag k="place" v="farm" />
		<tag k="ssr:stedsnr" v="624602" />
	</node>
	<node lat="68.70885555362177" lon="18.051211098695" id="-98074">
		<tag k="fixme" v="multiple name tags, choose one and add the other to alt_name; consider natural=peak for the most distinct mountains in the district" />
		<tag k="name" v="Hatten;Lappjordfjellet" />
		<tag k="natural" v="hill" />
		<tag k="place" v="locality" />
		<tag k="ssr:stedsnr" v="624656" />
	</node>
	<node lat="68.7626333331289" lon="17.76342778301472" id="-98075">
		<tag k="alt_name:no" v="Lotternes" />
		<tag k="loc_name:se" v="Lohtarnášši;Loahtarnássi" />
		<tag k="name" v="Låternes" />
		<tag k="name:no" v="Låternes" />
		<tag k="place" v="quarter" />
		<tag k="ssr:stedsnr" v="624730" />
	</node>
	<node lat="68.7589111148941" lon="17.837080558769287" id="-98076">
		<tag k="fixme" v="multiple name tags, choose one and add the other to alt_name; consider natural=peak for the most distinct mountains in the district" />
		<tag k="loc_name:se" v="Heasseviikkavárri" />
		<tag k="name" v="Nevet;Varden" />
		<tag k="name:no" v="Nevet;Varden" />
		<tag k="natural" v="hill" />
		<tag k="place" v="locality" />
		<tag k="ssr:stedsnr" v="624733" />
	</node>
	<node lat="68.81473888755606" lon="17.84562776472366" id="-98077">
		<tag k="alt_name" v="Einarmyra" />
		<tag k="name" v="Einarmyran" />
		<tag k="natural" v="wetland" />
		<tag k="ssr:stedsnr" v="624688" />
	</node>
	<node lat="68.80100000110377" lon="17.89049721525127" id="-98078">
		<tag k="fixme" v="consider natural=peak for the most distinct mountains in the district" />
		<tag k="loc_name:se" v="Suolemiidčorru" />
		<tag k="name" v="Soløyheia" />
		<tag k="name:no" v="Soløyheia" />
		<tag k="natural" v="hill" />
		<tag k="place" v="locality" />
		<tag k="ssr:stedsnr" v="624697" />
	</node>
	<node lat="68.74709166573545" lon="17.806183318408863" id="-98079">
		<tag k="alt_name:no" v="Tennevollen" />
		<tag k="loc_name:se" v="Deannjá" />
		<tag k="name" v="Tennevoll" />
		<tag k="name:no" v="Tennevoll" />
		<tag k="place" v="village" />
		<tag k="ssr:stedsnr" v="624898" />
	</node>
	<node lat="68.73720000319527" lon="17.84072500184855" id="-98080">
		<tag k="fixme" v="consider natural=peak for the most distinct mountains in the district" />
		<tag k="name" v="Innertuva" />
		<tag k="natural" v="hill" />
		<tag k="place" v="locality" />
		<tag k="ssr:stedsnr" v="633828" />
	</node>
	<node lat="68.77833333049925" lon="17.788691667904335" id="-98081">
		<tag k="alt_name" v="Indre grindnes" />
		<tag k="name" v="Grindneset" />
		<tag k="natural" v="cape" />
		<tag k="ssr:stedsnr" v="637662" />
	</node>
	<node lat="68.66785865472316" lon="17.87436255774833" id="-98082">
		<tag k="name" v="Oalgi - Olge" />
		<tag k="name:no" v="Olge" />
		<tag k="name:se" v="Oalgi" />
		<tag k="place" v="locality" />
		<tag k="ssr:stedsnr" v="696715" />
	</node>
	<node lat="68.6888638843446" lon="18.005927782460503" id="-98083">
		<tag k="historic" v="shieling" />
		<tag k="name" v="Gammelsætran" />
		<tag k="place" v="isolated_dwelling" />
		<tag k="ssr:stedsnr" v="718387" />
	</node>
	<node lat="68.77067778091552" lon="17.801602773074386" id="-98084">
		<tag k="name" v="Dalan" />
		<tag k="natural" v="valley" />
		<tag k="place" v="locality" />
		<tag k="ssr:stedsnr" v="724497" />
	</node>
	<node lat="68.79548611334164" lon="17.562766655449494" id="-98085">
		<tag k="name" v="Karielva" />
		<tag k="ssr:stedsnr" v="724196" />
		<tag k="waterway" v="stream" />
	</node>
	<node lat="68.74828889297238" lon="17.804405563147682" id="-98086">
		<tag k="name" v="Orneset" />
		<tag k="natural" v="cape" />
		<tag k="ssr:stedsnr" v="724273" />
	</node>
	<node lat="68.73590277769623" lon="17.774877769083048" id="-98087">
		<tag k="name" v="Smørslåkholtan" />
		<tag k="place" v="locality" />
		<tag k="ssr:stedsnr" v="724433" />
	</node>
	<node lat="68.74559167119567" lon="17.812327773962487" id="-98088">
		<tag k="name" v="Olderholmen" />
		<tag k="place" v="farm" />
		<tag k="ssr:stedsnr" v="724440" />
	</node>
	<node lat="68.72837500412935" lon="17.81485555357799" id="-98089">
		<tag k="name" v="Liatømmerrapet" />
		<tag k="natural" v="slope" />
		<tag k="place" v="locality" />
		<tag k="ssr:stedsnr" v="724467" />
	</node>
	<node lat="68.72771666517886" lon="17.78968054835591" id="-98090">
		<tag k="name" v="Sanddiket" />
		<tag k="ssr:stedsnr" v="724472" />
		<tag k="waterway" v="stream" />
	</node>
	<node lat="68.79442500427642" lon="17.79971111145004" id="-98091">
		<tag k="highway" v="path" />
		<tag k="name" v="Kobbesteinveien" />
		<tag k="ssr:stedsnr" v="724532" />
	</node>
	<node lat="68.79516666575009" lon="17.81611944490088" id="-98092">
		<tag k="name" v="Langmyrmoen" />
		<tag k="place" v="locality" />
		<tag k="ssr:stedsnr" v="724534" />
	</node>
	<node lat="68.78615833531603" lon="17.800652770556507" id="-98093">
		<tag k="name" v="Brannholtan" />
		<tag k="place" v="locality" />
		<tag k="ssr:stedsnr" v="724535" />
	</node>
	<node lat="68.76844999811523" lon="17.739683339643065" id="-98094">
		<tag k="name" v="Skakkeveibergan" />
		<tag k="natural" v="hill" />
		<tag k="place" v="locality" />
		<tag k="ssr:stedsnr" v="724554" />
	</node>
	<node lat="68.73040833151474" lon="17.83348055069999" id="-98095">
		<tag k="name" v="Tørrforrholtan" />
		<tag k="place" v="locality" />
		<tag k="ssr:stedsnr" v="724696" />
	</node>
	<node lat="68.72856666991406" lon="17.85922777008871" id="-98096">
		<tag k="historic" v="shieling" />
		<tag k="name" v="Nerdalssætra" />
		<tag k="place" v="isolated_dwelling" />
		<tag k="ssr:stedsnr" v="724697" />
	</node>
	<node lat="68.72293055577015" lon="17.85650555129056" id="-98097">
		<tag k="name" v="Skáhpelátnja" />
		<tag k="name:se" v="Skáhpelátnja" />
		<tag k="natural" v="slope" />
		<tag k="place" v="locality" />
		<tag k="ssr:stedsnr" v="724699" />
	</node>
	<node lat="68.69626944436827" lon="17.98216110017971" id="-98098">
		<tag k="name" v="Holman" />
		<tag k="place" v="islet" />
		<tag k="ssr:stedsnr" v="724739" />
	</node>
	<node lat="68.68881110738481" lon="17.98506666915757" id="-98099">
		<tag k="name" v="Nibemyra" />
		<tag k="natural" v="wetland" />
		<tag k="ssr:stedsnr" v="724750" />
	</node>
	<node lat="68.77858888981493" lon="17.64547222303869" id="-98100">
		<tag k="name" v="Hamran" />
		<tag k="natural" v="hill" />
		<tag k="place" v="locality" />
		<tag k="ssr:stedsnr" v="726137" />
	</node>
	<node lat="68.71166389094199" lon="17.796913899225434" id="-98101">
		<tag k="fixme" v="consider natural=peak for the most distinct mountains in the district" />
		<tag k="name" v="Middagsfjellet" />
		<tag k="natural" v="hill" />
		<tag k="place" v="locality" />
		<tag k="ssr:stedsnr" v="726170" />
	</node>
	<node lat="68.74496666687068" lon="17.78496111501397" id="-98102">
		<tag k="name" v="Skamodalen" />
		<tag k="natural" v="valley" />
		<tag k="place" v="locality" />
		<tag k="ssr:stedsnr" v="726298" />
	</node>
	<node lat="68.75436944133563" lon="17.77094165630253" id="-98103">
		<tag k="name" v="Litjehågen" />
		<tag k="natural" v="hill" />
		<tag k="place" v="locality" />
		<tag k="ssr:stedsnr" v="726316" />
	</node>
	<node lat="68.66452777904529" lon="17.907916661677632" id="-98104">
		<tag k="name" v="Stormyrloken" />
		<tag k="ssr:stedsnr" v="726557" />
		<tag k="waterway" v="stream" />
	</node>
	<node lat="68.69116666605024" lon="18.00870555707741" id="-98105">
		<tag k="name" v="Ørnberget" />
		<tag k="natural" v="hill" />
		<tag k="place" v="locality" />
		<tag k="ssr:stedsnr" v="745389" />
	</node>
	<node lat="68.74707145492972" lon="17.816365744273067" id="-98106">
		<tag k="alt_name:no" v="Spanselva" />
		<tag k="name" v="Ruŋggujohka - Spansdalselva" />
		<tag k="name:no" v="Spansdalselva" />
		<tag k="name:se" v="Ruŋggujohka" />
		<tag k="ssr:stedsnr" v="745569" />
		<tag k="waterway" v="river" />
	</node>
	<node lat="68.71996666486827" lon="17.63790278702155" id="-98107">
		<tag k="alt_name:no" v="Sandnesbotn, yt" />
		<tag k="loc_name:se" v="Stuorariehppi" />
		<tag k="name" v="Ytre Sandnesbotn" />
		<tag k="name:no" v="Ytre Sandnesbotn" />
		<tag k="natural" v="valley" />
		<tag k="place" v="locality" />
		<tag k="ssr:stedsnr" v="745574" />
	</node>
	<node lat="68.80591767631645" lon="17.611551698995477" id="-98108">
		<tag k="name" v="Elvenesfjellet" />
		<tag k="place" v="locality" />
		<tag k="ssr:stedsnr" v="745721" />
	</node>
	<node lat="68.6536138927911" lon="17.833374999323595" id="-98109">
		<tag k="fixme" v="consider natural=peak for the most distinct mountains in the district" />
		<tag k="loc_name:se" v="Unna Suovdi" />
		<tag k="name" v="Unna Suobddegaš - Høgtinden" />
		<tag k="name:no" v="Høgtinden" />
		<tag k="name:se" v="Unna Suobddegaš" />
		<tag k="natural" v="hill" />
		<tag k="place" v="locality" />
		<tag k="ssr:stedsnr" v="749609" />
	</node>
	<node lat="68.76103611140105" lon="17.773874996005237" id="-98110">
		<tag k="alt_name" v="Lotternesodden" />
		<tag k="name" v="Låterneset" />
		<tag k="natural" v="cape" />
		<tag k="ssr:stedsnr" v="758569" />
	</node>
	<node lat="68.77378055492335" lon="17.744772222456834" id="-98111">
		<tag k="name" v="Røkeneshamna" />
		<tag k="natural" v="bay" />
		<tag k="ssr:stedsnr" v="758576" />
	</node>
	<node lat="68.81437222191623" lon="17.836397222977997" id="-98112">
		<tag k="name" v="Butoften" />
		<tag k="natural" v="slope" />
		<tag k="place" v="locality" />
		<tag k="ssr:stedsnr" v="784243" />
	</node>
	<node lat="68.7419388861413" lon="17.76694722378067" id="-98113">
		<tag k="name" v="Reingjerdan" />
		<tag k="natural" v="slope" />
		<tag k="place" v="locality" />
		<tag k="ssr:stedsnr" v="785428" />
	</node>
	<node lat="68.78889167088899" lon="17.53447222671827" id="-98114">
		<tag k="name" v="Vardhågen" />
		<tag k="natural" v="hill" />
		<tag k="place" v="locality" />
		<tag k="ssr:stedsnr" v="785188" />
	</node>
	<node lat="68.79595555316423" lon="17.536269436969423" id="-98115">
		<tag k="name" v="Brunen" />
		<tag k="natural" v="slope" />
		<tag k="place" v="locality" />
		<tag k="ssr:stedsnr" v="785194" />
	</node>
	<node lat="68.7833444419037" lon="17.518849995881236" id="-98116">
		<tag k="name" v="Tårleelva" />
		<tag k="ssr:stedsnr" v="785200" />
		<tag k="waterway" v="stream" />
	</node>
	<node lat="68.78340832974187" lon="17.824791673352088" id="-98117">
		<tag k="name" v="Skavmyran" />
		<tag k="natural" v="wetland" />
		<tag k="ssr:stedsnr" v="785528" />
	</node>
	<node lat="68.77283333074413" lon="17.73945277534344" id="-98118">
		<tag k="name" v="Bjørnsletta" />
		<tag k="place" v="locality" />
		<tag k="ssr:stedsnr" v="785544" />
	</node>
	<node lat="68.77150277344622" lon="17.74729166439874" id="-98119">
		<tag k="name" v="Hågen" />
		<tag k="place" v="farm" />
		<tag k="ssr:stedsnr" v="785547" />
	</node>
	<node lat="68.72825555255928" lon="17.818325000519962" id="-98120">
		<tag k="name" v="Vakkermoflata" />
		<tag k="place" v="locality" />
		<tag k="ssr:stedsnr" v="785476" />
	</node>
	<node lat="68.77180555605005" lon="17.819158327207003" id="-98121">
		<tag k="name" v="Mølna" />
		<tag k="natural" v="valley" />
		<tag k="place" v="locality" />
		<tag k="ssr:stedsnr" v="785500" />
	</node>
	<node lat="68.75294444473545" lon="17.820283325206557" id="-98122">
		<tag k="name" v="Einhågsletta" />
		<tag k="place" v="locality" />
		<tag k="ssr:stedsnr" v="785432" />
	</node>
	<node lat="68.74749999527509" lon="17.815091672926396" id="-98123">
		<tag k="name" v="Kalvøyra" />
		<tag k="natural" v="cape" />
		<tag k="ssr:stedsnr" v="785436" />
	</node>
	<node lat="68.79900000185212" lon="17.738858329561356" id="-98124">
		<tag k="name" v="Tyttebærhågen" />
		<tag k="natural" v="hill" />
		<tag k="place" v="locality" />
		<tag k="ssr:stedsnr" v="785450" />
	</node>
	<node lat="68.77119721828807" lon="17.646500008036217" id="-98125">
		<tag k="name" v="Torvhågan" />
		<tag k="natural" v="hill" />
		<tag k="place" v="locality" />
		<tag k="ssr:stedsnr" v="786125" />
	</node>
	<node lat="68.680422225181" lon="17.93050832532288" id="-98126">
		<tag k="name" v="Koiemyra" />
		<tag k="natural" v="wetland" />
		<tag k="ssr:stedsnr" v="785674" />
	</node>
	<node lat="68.69278610794824" lon="17.95306389254782" id="-98127">
		<tag k="name" v="Storhammaren" />
		<tag k="natural" v="hill" />
		<tag k="place" v="locality" />
		<tag k="ssr:stedsnr" v="785751" />
	</node>
	<node lat="68.77805277774284" lon="17.83639998808048" id="-98128">
		<tag k="name" v="Blomsletta" />
		<tag k="place" v="locality" />
		<tag k="ssr:stedsnr" v="785824" />
	</node>
	<node lat="68.76343610966968" lon="17.804230560394267" id="-98129">
		<tag k="name" v="Storsteinen" />
		<tag k="natural" v="hill" />
		<tag k="place" v="locality" />
		<tag k="ssr:stedsnr" v="786274" />
	</node>
	<node lat="68.75378888736483" lon="17.802472220113305" id="-98130">
		<tag k="name" v="Neset" />
		<tag k="natural" v="cape" />
		<tag k="ssr:stedsnr" v="786289" />
	</node>
	<node lat="68.78022500033372" lon="17.605380553544215" id="-98131">
		<tag k="name" v="Vedberget" />
		<tag k="natural" v="hill" />
		<tag k="place" v="locality" />
		<tag k="ssr:stedsnr" v="786237" />
	</node>
	<node lat="68.77660555618151" lon="17.637433322897568" id="-98132">
		<tag k="name" v="Middagshågen" />
		<tag k="natural" v="hill" />
		<tag k="place" v="locality" />
		<tag k="ssr:stedsnr" v="786243" />
	</node>
	<node lat="68.76260278161526" lon="17.69457222961476" id="-98133">
		<tag k="name" v="Løbakkan" />
		<tag k="natural" v="slope" />
		<tag k="place" v="locality" />
		<tag k="ssr:stedsnr" v="786371" />
	</node>
	<node lat="68.75805833706728" lon="17.731102769210533" id="-98134">
		<tag k="name" v="Myrholtan" />
		<tag k="place" v="locality" />
		<tag k="ssr:stedsnr" v="786377" />
	</node>
	<node lat="68.6717861102702" lon="17.874116659611225" id="-98135">
		<tag k="name" v="Bukkemyrbekken" />
		<tag k="ssr:stedsnr" v="786541" />
		<tag k="waterway" v="stream" />
	</node>
	<node lat="68.76684166628091" lon="17.799038880134464" id="-98136">
		<tag k="name" v="Øyra" />
		<tag k="place" v="locality" />
		<tag k="ssr:stedsnr" v="786548" />
	</node>
	<node lat="68.6512416617753" lon="17.91360834008124" id="-98137">
		<tag k="name" v="Høgstad" />
		<tag k="place" v="locality" />
		<tag k="ssr:stedsnr" v="786635" />
	</node>
	<node lat="68.65391389355713" lon="17.908188878385126" id="-98138">
		<tag k="name" v="Odden" />
		<tag k="natural" v="cape" />
		<tag k="ssr:stedsnr" v="786641" />
	</node>
	<node lat="68.64668889123068" lon="17.918436103647213" id="-98139">
		<tag k="name" v="Storbakken" />
		<tag k="natural" v="slope" />
		<tag k="place" v="locality" />
		<tag k="ssr:stedsnr" v="786642" />
	</node>
	<node lat="68.67943055199635" lon="18.019436102594245" id="-98140">
		<tag k="name" v="Østlundbergan" />
		<tag k="natural" v="hill" />
		<tag k="place" v="locality" />
		<tag k="ssr:stedsnr" v="806365" />
	</node>
	<node lat="68.80641388909751" lon="17.74215555101553" id="-98141">
		<tag k="loc_name:se" v="Gámaviikajohka;Gámajohka" />
		<tag k="name" v="Gamvikelva" />
		<tag k="name:no" v="Gamvikelva" />
		<tag k="ssr:stedsnr" v="806724" />
		<tag k="waterway" v="stream" />
	</node>
	<node lat="68.75435555897442" lon="17.859766655331804" id="-98142">
		<tag k="fixme" v="consider natural=peak for the most distinct mountains in the district" />
		<tag k="name" v="Åsen" />
		<tag k="natural" v="hill" />
		<tag k="place" v="locality" />
		<tag k="ssr:stedsnr" v="807718" />
	</node>
	<node lat="68.78315855438872" lon="17.61866109373109" id="-98143">
		<tag k="loc_name:se" v="Geaippák" />
		<tag k="name" v="Keiprød" />
		<tag k="name:no" v="Keiprød" />
		<tag k="place" v="farm" />
		<tag k="ssr:stedsnr" v="807687" />
	</node>
	<node lat="68.7469972264925" lon="17.78014443106991" id="-98144">
		<tag k="name" v="Skavmodalen" />
		<tag k="natural" v="valley" />
		<tag k="place" v="locality" />
		<tag k="ssr:stedsnr" v="807905" />
	</node>
	<node lat="68.72718055256637" lon="17.73169722766238" id="-98145">
		<tag k="fixme" v="consider natural=peak for the most distinct mountains in the district" />
		<tag k="name" v="Småtindan" />
		<tag k="natural" v="hill" />
		<tag k="place" v="locality" />
		<tag k="ssr:stedsnr" v="807928" />
	</node>
	<node lat="68.73143333002824" lon="17.735902773766316" id="-98146">
		<tag k="fixme" v="consider natural=peak for the most distinct mountains in the district" />
		<tag k="loc_name:se" v="Rihtavárri;Áiddinjunni" />
		<tag k="name" v="Heia" />
		<tag k="name:no" v="Heia" />
		<tag k="natural" v="hill" />
		<tag k="place" v="locality" />
		<tag k="ssr:stedsnr" v="807934" />
	</node>
	<node lat="68.79096666919102" lon="17.758741668539894" id="-98147">
		<tag k="name" v="Rødbukta" />
		<tag k="natural" v="bay" />
		<tag k="ssr:stedsnr" v="819654" />
	</node>
	<node lat="68.68645833411114" lon="18.043558335039716" id="-98148">
		<tag k="fixme" v="consider natural=saddle" />
		<tag k="loc_name:se" v="Doaresčavel" />
		<tag k="name" v="Kolbranskaret" />
		<tag k="name:no" v="Kolbranskaret" />
		<tag k="natural" v="valley" />
		<tag k="place" v="locality" />
		<tag k="ssr:stedsnr" v="826648" />
	</node>
	<node lat="68.74593055217619" lon="17.79940555789147" id="-98149">
		<tag k="name" v="Grindgongen" />
		<tag k="natural" v="slope" />
		<tag k="place" v="locality" />
		<tag k="ssr:stedsnr" v="846266" />
	</node>
	<node lat="68.79466666515331" lon="17.772466666748297" id="-98150">
		<tag k="name" v="Skredklubben" />
		<tag k="natural" v="hill" />
		<tag k="place" v="locality" />
		<tag k="ssr:stedsnr" v="846395" />
	</node>
	<node lat="68.69687777524189" lon="17.983327784370708" id="-98151">
		<tag k="name" v="Ranen" />
		<tag k="natural" v="hill" />
		<tag k="place" v="locality" />
		<tag k="ssr:stedsnr" v="846745" />
	</node>
	<node lat="68.69408888618405" lon="17.981647212043548" id="-98152">
		<tag k="name" v="Furuhaugen" />
		<tag k="natural" v="hill" />
		<tag k="place" v="locality" />
		<tag k="ssr:stedsnr" v="846760" />
	</node>
	<node lat="68.73891666378768" lon="17.802877783783117" id="-98153">
		<tag k="name" v="Middagshølla" />
		<tag k="place" v="locality" />
		<tag k="ssr:stedsnr" v="846438" />
	</node>
	<node lat="68.73527500393735" lon="17.7617916754674" id="-98154">
		<tag k="name" v="Kvitefossen" />
		<tag k="natural" v="waterfall" />
		<tag k="ssr:stedsnr" v="846448" />
	</node>
	<node lat="68.80560000087186" lon="17.749125001562476" id="-98155">
		<tag k="name" v="Gamvikmyran" />
		<tag k="natural" v="wetland" />
		<tag k="ssr:stedsnr" v="846461" />
	</node>
	<node lat="68.80489167052224" lon="17.72911945072073" id="-98156">
		<tag k="name" v="Blåmyran" />
		<tag k="natural" v="wetland" />
		<tag k="ssr:stedsnr" v="846463" />
	</node>
	<node lat="68.7878083355504" lon="17.80566945169403" id="-98157">
		<tag k="name" v="Tverrelva" />
		<tag k="ssr:stedsnr" v="846544" />
		<tag k="waterway" v="stream" />
	</node>
	<node lat="68.782577781637" lon="17.823941672507953" id="-98158">
		<tag k="highway" v="path" />
		<tag k="name" v="Soløyveian" />
		<tag k="ssr:stedsnr" v="846553" />
	</node>
	<node lat="68.775849997659" lon="17.59632221183184" id="-98159">
		<tag k="name" v="Gunnarhågen" />
		<tag k="natural" v="hill" />
		<tag k="place" v="locality" />
		<tag k="ssr:stedsnr" v="847140" />
	</node>
	<node lat="68.7749361074347" lon="17.657597209152684" id="-98160">
		<tag k="name" v="Aksla" />
		<tag k="place" v="locality" />
		<tag k="ssr:stedsnr" v="847151" />
	</node>
	<node lat="68.74488333123423" lon="17.68043333929893" id="-98161">
		<tag k="name" v="Tverrelva" />
		<tag k="ssr:stedsnr" v="847387" />
		<tag k="waterway" v="stream" />
	</node>
	<node lat="68.75820833078483" lon="17.743497214534855" id="-98162">
		<tag k="name" v="Langhågen" />
		<tag k="natural" v="hill" />
		<tag k="place" v="locality" />
		<tag k="ssr:stedsnr" v="847393" />
	</node>
	<node lat="68.76138333237887" lon="17.71977499675389" id="-98163">
		<tag k="name" v="Koren" />
		<tag k="natural" v="ridge" />
		<tag k="place" v="locality" />
		<tag k="ssr:stedsnr" v="847398" />
	</node>
	<node lat="68.64938611538834" lon="17.894669447767804" id="-98164">
		<tag k="name" v="Sennehaugen" />
		<tag k="natural" v="hill" />
		<tag k="place" v="locality" />
		<tag k="ssr:stedsnr" v="847541" />
	</node>
	<node lat="68.67520555329315" lon="17.9061499944388" id="-98165">
		<tag k="name" v="Veilund" />
		<tag k="place" v="farm" />
		<tag k="ssr:stedsnr" v="847547" />
	</node>
	<node lat="68.78453055616296" lon="17.610791652235644" id="-98166">
		<tag k="name" v="Toften" />
		<tag k="natural" v="slope" />
		<tag k="place" v="locality" />
		<tag k="ssr:stedsnr" v="847266" />
	</node>
	<node lat="68.78416673824331" lon="17.784586444863738" id="-98167">
		<tag k="loc_name:se" v="Oavák" />
		<tag k="name" v="Å" />
		<tag k="name:no" v="Å" />
		<tag k="place" v="farm" />
		<tag k="ssr:stedsnr" v="867328" />
	</node>
	<node lat="68.63817222225737" lon="17.992133326397152" id="-98168">
		<tag k="fixme" v="consider natural=peak for the most distinct mountains in the district" />
		<tag k="name" v="Siskkitčohkka" />
		<tag k="name:se" v="Siskkitčohkka" />
		<tag k="natural" v="hill" />
		<tag k="old_name:se" v="Siskitčåkka" />
		<tag k="place" v="locality" />
		<tag k="ssr:stedsnr" v="867529" />
	</node>
	<node lat="68.7866805532938" lon="17.567575006254778" id="-98169">
		<tag k="name" v="Reinlandselva" />
		<tag k="ssr:stedsnr" v="867740" />
		<tag k="waterway" v="stream" />
	</node>
	<node lat="68.78079444670274" lon="17.623658338708736" id="-98170">
		<tag k="name" v="Keipen" />
		<tag k="natural" v="hill" />
		<tag k="place" v="locality" />
		<tag k="ssr:stedsnr" v="871270" />
	</node>
	<node lat="68.81658320095559" lon="17.485713526942664" id="-98171">
		<tag k="loc_name:se" v="Skilnášši" />
		<tag k="name" v="Skjelnes" />
		<tag k="name:no" v="Skjelnes" />
		<tag k="place" v="farm" />
		<tag k="ssr:stedsnr" v="875197" />
	</node>
	<node lat="68.72014762310498" lon="17.85925562426133" id="-98172">
		<tag k="name" v="Olderneset" />
		<tag k="natural" v="cape" />
		<tag k="ssr:stedsnr" v="927939" />
	</node>
	<node lat="68.72371514192675" lon="17.833125097368445" id="-98173">
		<tag k="name" v="Hoalbma - Holmen" />
		<tag k="name:no" v="Holmen" />
		<tag k="name:se" v="Hoalbma" />
		<tag k="place" v="farm" />
		<tag k="ssr:stedsnr" v="927940" />
	</node>
	<node lat="68.75950555131281" lon="17.746058331291856" id="-98174">
		<tag k="alt_name" v="Svartelva" />
		<tag k="name" v="Litje Sandneselva" />
		<tag k="ssr:stedsnr" v="928241" />
		<tag k="waterway" v="stream" />
	</node>
	<node lat="68.68657222634532" lon="18.00228610447435" id="-98175">
		<tag k="name" v="Selstraum" />
		<tag k="place" v="farm" />
		<tag k="ssr:stedsnr" v="928332" />
	</node>
	<node lat="68.69397777814018" lon="17.973611107159897" id="-98176">
		<tag k="name" v="Fossbakken søndre" />
		<tag k="place" v="farm" />
		<tag k="ssr:stedsnr" v="928526" />
	</node>
	<node lat="68.69567499680868" lon="17.85704443784559" id="-98177">
		<tag k="name" v="Tjuvhola" />
		<tag k="natural" v="valley" />
		<tag k="place" v="locality" />
		<tag k="ssr:stedsnr" v="928531" />
	</node>
	<node lat="68.70609444165856" lon="17.794930555161777" id="-98178">
		<tag k="fixme" v="consider natural=peak for the most distinct mountains in the district" />
		<tag k="name" v="Stortuva" />
		<tag k="natural" v="hill" />
		<tag k="place" v="locality" />
		<tag k="ssr:stedsnr" v="928555" />
	</node>
	<node lat="68.67621944035407" lon="17.897327774783925" id="-98179">
		<tag k="loc_name:se" v="Gieddenjunijávri" />
		<tag k="name" v="Lapphaugvatnet" />
		<tag k="name:no" v="Lapphaugvatnet" />
		<tag k="natural" v="water" />
		<tag k="ssr:stedsnr" v="928575" />
	</node>
	<node lat="68.79631944393243" lon="17.815966658275315" id="-98180">
		<tag k="name" v="Åelva" />
		<tag k="ssr:stedsnr" v="928673" />
		<tag k="waterway" v="river" />
	</node>
	<node lat="68.7927916655598" lon="17.82184165656719" id="-98181">
		<tag k="alt_name" v="Frivimarka" />
		<tag k="name" v="Friveimarka" />
		<tag k="place" v="locality" />
		<tag k="ssr:stedsnr" v="928674" />
	</node>
	<node lat="68.79209223869361" lon="17.575967768311525" id="-98182">
		<tag k="loc_name:se" v="Reaidnagillu" />
		<tag k="name" v="Reinland" />
		<tag k="name:no" v="Reinland" />
		<tag k="place" v="farm" />
		<tag k="ssr:stedsnr" v="928675" />
	</node>
	<node lat="68.78795000274664" lon="17.560938878976593" id="-98183">
		<tag k="name" v="Lambergan" />
		<tag k="natural" v="hill" />
		<tag k="place" v="locality" />
		<tag k="ssr:stedsnr" v="928679" />
	</node>
	<node lat="68.78012777386533" lon="17.685608333053814" id="-98184">
		<tag k="alt_name" v="Marineset" />
		<tag k="name" v="Marines" />
		<tag k="natural" v="cape" />
		<tag k="ssr:stedsnr" v="928688" />
	</node>
	<node lat="68.75075277547228" lon="17.797588896788866" id="-98185">
		<tag k="name" v="Vågen" />
		<tag k="natural" v="bay" />
		<tag k="ssr:stedsnr" v="928723" />
	</node>
	<node lat="68.7335388874005" lon="17.650097220233544" id="-98186">
		<tag k="name" v="Sandnesbotnelva" />
		<tag k="ssr:stedsnr" v="928934" />
		<tag k="waterway" v="river" />
	</node>
	<node lat="68.74184722512645" lon="17.665977768420007" id="-98187">
		<tag k="name" v="Stormyra" />
		<tag k="natural" v="wetland" />
		<tag k="ssr:stedsnr" v="928935" />
	</node>
	<node lat="68.6069999968519" lon="17.95458887680967" id="-98188">
		<tag k="alt_name:se" v="Bassečohkka" />
		<tag k="fixme" v="consider natural=peak for the most distinct mountains in the district" />
		<tag k="name" v="Bassevárri - Rivtinden" />
		<tag k="name:no" v="Rivtinden" />
		<tag k="name:se" v="Bassevárri" />
		<tag k="natural" v="hill" />
		<tag k="old_name:se" v="Bassevarri;Bassečåkka" />
		<tag k="place" v="locality" />
		<tag k="ssr:stedsnr" v="931567" />
	</node>
	<node lat="68.60768055318" lon="18.023952778134294" id="-98189">
		<tag k="fixme" v="consider natural=peak for the most distinct mountains in the district" />
		<tag k="name" v="Snøtinden - Muohtačohkka" />
		<tag k="name:no" v="Snøtinden" />
		<tag k="name:se" v="Muohtačohkka" />
		<tag k="natural" v="hill" />
		<tag k="old_name:se" v="Muottačåkka" />
		<tag k="place" v="locality" />
		<tag k="ssr:stedsnr" v="933325" />
	</node>
	<node lat="68.77718888945661" lon="17.790480551759238" id="-98190">
		<tag k="name" v="Krambuvika" />
		<tag k="natural" v="bay" />
		<tag k="ssr:stedsnr" v="940518" />
	</node>
	<node lat="68.75313888860332" lon="17.786330543923583" id="-98191">
		<tag k="name" v="Finneset" />
		<tag k="natural" v="cape" />
		<tag k="ssr:stedsnr" v="941659" />
	</node>
	<node lat="68.74793888863726" lon="17.794611096161884" id="-98192">
		<tag k="name" v="Hammaren" />
		<tag k="natural" v="hill" />
		<tag k="place" v="locality" />
		<tag k="ssr:stedsnr" v="941660" />
	</node>
	<node lat="68.697480555947" lon="17.99854443507994" id="-98193">
		<tag k="name" v="Dolpberget" />
		<tag k="natural" v="hill" />
		<tag k="place" v="locality" />
		<tag k="ssr:stedsnr" v="960352" />
	</node>
	<node lat="68.79028055871225" lon="17.569799995664447" id="-98194">
		<tag k="name" v="Steinlia" />
		<tag k="natural" v="slope" />
		<tag k="place" v="locality" />
		<tag k="ssr:stedsnr" v="966201" />
	</node>
	<node lat="68.79395833215777" lon="17.555202777272115" id="-98195">
		<tag k="name" v="Kviteberget" />
		<tag k="natural" v="hill" />
		<tag k="place" v="locality" />
		<tag k="ssr:stedsnr" v="967162" />
	</node>
	<node lat="68.7886111125065" lon="17.546633325892774" id="-98196">
		<tag k="name" v="Borkebergbakkan" />
		<tag k="natural" v="slope" />
		<tag k="place" v="locality" />
		<tag k="ssr:stedsnr" v="967163" />
	</node>
	<node lat="68.7943416628862" lon="17.56074998734529" id="-98197">
		<tag k="name" v="Storsteinen" />
		<tag k="natural" v="stone" />
		<tag k="ssr:stedsnr" v="967164" />
	</node>
	<node lat="68.7975861102394" lon="17.534669438894856" id="-98198">
		<tag k="name" v="Skredelva" />
		<tag k="ssr:stedsnr" v="967167" />
		<tag k="waterway" v="stream" />
	</node>
	<node lat="68.77606110999805" lon="17.81642499549171" id="-98199">
		<tag k="name" v="Gompesletta" />
		<tag k="place" v="locality" />
		<tag k="ssr:stedsnr" v="967532" />
	</node>
	<node lat="68.76521388609825" lon="17.876416662349378" id="-98200">
		<tag k="name" v="Hesjevikbotn" />
		<tag k="natural" v="valley" />
		<tag k="place" v="locality" />
		<tag k="ssr:stedsnr" v="967780" />
	</node>
	<node lat="68.79468610898321" lon="17.755833325046343" id="-98201">
		<tag k="fixme" v="consider natural=peak for the most distinct mountains in the district" />
		<tag k="name" v="Rompelikollen" />
		<tag k="natural" v="hill" />
		<tag k="place" v="locality" />
		<tag k="ssr:stedsnr" v="967365" />
	</node>
	<node lat="68.79458055298512" lon="17.68627499754023" id="-98202">
		<tag k="name" v="Smørslåga" />
		<tag k="natural" v="stone" />
		<tag k="ssr:stedsnr" v="967386" />
	</node>
	<node lat="68.72933888535663" lon="17.812058329450892" id="-98203">
		<tag k="name" v="Kryssholmen" />
		<tag k="place" v="islet" />
		<tag k="ssr:stedsnr" v="967469" />
	</node>
	<node lat="68.73127500311823" lon="17.797641676527043" id="-98204">
		<tag k="name" v="Momeldalen" />
		<tag k="natural" v="valley" />
		<tag k="place" v="locality" />
		<tag k="ssr:stedsnr" v="967482" />
	</node>
	<node lat="68.73273332925707" lon="17.78160555049945" id="-98205">
		<tag k="name" v="Langdalen" />
		<tag k="natural" v="valley" />
		<tag k="place" v="locality" />
		<tag k="ssr:stedsnr" v="967484" />
	</node>
	<node lat="68.75770555226316" lon="17.879283328105902" id="-98206">
		<tag k="name" v="Skogkrullen" />
		<tag k="natural" v="wetland" />
		<tag k="ssr:stedsnr" v="967662" />
	</node>
	<node lat="68.72368610813784" lon="17.84945831679587" id="-98207">
		<tag k="name" v="Unnabávttáš" />
		<tag k="name:se" v="Unnabávttáš" />
		<tag k="natural" v="hill" />
		<tag k="place" v="locality" />
		<tag k="ssr:stedsnr" v="967675" />
	</node>
	<node lat="68.69082777695547" lon="17.959838881510887" id="-98208">
		<tag k="name" v="Marenmyra" />
		<tag k="natural" v="wetland" />
		<tag k="ssr:stedsnr" v="967720" />
	</node>
	<node lat="68.7146583332912" lon="17.800399996496363" id="-98209">
		<tag k="name" v="Tuvholbergan" />
		<tag k="natural" v="hill" />
		<tag k="place" v="locality" />
		<tag k="ssr:stedsnr" v="968166" />
	</node>
	<node lat="68.78292499932608" lon="17.617119432609837" id="-98210">
		<tag k="name" v="Skjellhågen" />
		<tag k="natural" v="hill" />
		<tag k="place" v="locality" />
		<tag k="ssr:stedsnr" v="968269" />
	</node>
	<node lat="68.66128889260771" lon="17.914027778735413" id="-98211">
		<tag k="name" v="Staurloken" />
		<tag k="ssr:stedsnr" v="968558" />
		<tag k="waterway" v="stream" />
	</node>
	<node lat="68.64458055354507" lon="17.923455546406046" id="-98212">
		<tag k="name" v="Blåjobakken" />
		<tag k="natural" v="slope" />
		<tag k="place" v="locality" />
		<tag k="ssr:stedsnr" v="968630" />
	</node>
	<node lat="68.68897710500289" lon="17.956672526854124" id="-98213">
		<tag k="loc_name:se" v="Ruŋgogiera" />
		<tag k="name" v="Fossbakken" />
		<tag k="name:no" v="Fossbakken" />
		<tag k="place" v="farm" />
		<tag k="ssr:stedsnr" v="978995" />
	</node>
	<node lat="68.7475547861309" lon="17.79047886366717" id="-98214">
		<tag k="name" v="Sneveibakkan" />
		<tag k="place" v="neighbourhood" />
		<tag k="ssr:stedsnr" v="979001" />
	</node>
	<node lat="69.65483861708206" lon="18.954055597917613" id="-98246">
		<tag k="amenity" v="school" />
		<tag k="name" v="Ishavsbyen videregående skole" />
		<tag k="ssr:stedsnr" v="1075695" />
	</node>
	<node lat="68.67314727045257" lon="17.111445141878818" id="-98247">
		<tag k="bridge" v="yes" />
		<tag k="layer" v="1" />
		<tag k="name" v="Grovfjordbrua" />
		<tag k="ssr:stedsnr" v="1076502" />
	</node>
	<node lat="68.80463845368827" lon="17.61651342791682" id="-98249">
		<tag k="name" v="Fjellet" />
		<tag k="place" v="farm" />
		<tag k="ssr:stedsnr" v="1077268" />
	</node>
	<node lat="68.7191791249545" lon="17.87288689717298" id="-98250">
		<tag k="name" v="Skredberget" />
		<tag k="place" v="farm" />
		<tag k="ssr:stedsnr" v="1077298" />
	</node>
	<node lat="68.71987113903175" lon="17.85662618591982" id="-98251">
		<tag k="loc_name:se" v="Sáttodievvá" />
		<tag k="name" v="Sandmelen" />
		<tag k="name:no" v="Sandmelen" />
		<tag k="place" v="farm" />
		<tag k="ssr:stedsnr" v="1077299" />
	</node>
	<node lat="68.72164742602804" lon="17.846683808005036" id="-98252">
		<tag k="name" v="Storsletta" />
		<tag k="place" v="farm" />
		<tag k="ssr:stedsnr" v="1077300" />
	</node>
	<node lat="68.7451118061172" lon="17.80298259447248" id="-98253">
		<tag k="loc_name:se" v="Deannjá" />
		<tag k="name" v="Tennevoll" />
		<tag k="name:no" v="Tennevoll" />
		<tag k="place" v="farm" />
		<tag k="ssr:stedsnr" v="1077301" />
	</node>
	<node lat="68.7870381029765" lon="17.60085848870733" id="-98254">
		<tag k="name" v="Keiprødplassen" />
		<tag k="place" v="farm" />
		<tag k="ssr:stedsnr" v="1077311" />
	</node>
	<node lat="68.82161814737577" lon="17.70955071536689" id="-98255">
		<tag k="name" v="Gamvikvatnan" />
		<tag k="place" v="locality" />
		<tag k="ssr:stedsnr" v="1077312" />
	</node>
	<node lat="68.73264420069228" lon="17.949746114694502" id="-98256">
		<tag k="name" v="Trosen" />
		<tag k="place" v="locality" />
		<tag k="ssr:stedsnr" v="1077313" />
	</node>
	<node lat="68.7764680607961" lon="17.80658851241773" id="-98257">
		<tag k="loc_name:se" v="Suolemak" />
		<tag k="name" v="Soløy" />
		<tag k="name:no" v="Soløy" />
		<tag k="place" v="farm" />
		<tag k="ssr:stedsnr" v="1077269" />
	</node>
	<node lat="68.6192270527236" lon="17.893560693978266" id="-98258">
		<tag k="name" v="Grasvatnet" />
		<tag k="place" v="locality" />
		<tag k="ssr:stedsnr" v="1077314" />
	</node>
	<node lat="68.74604561686445" lon="17.860476438610945" id="-98260">
		<tag k="fixme" v="consider natural=peak for the most distinct mountains in the district" />
		<tag k="name" v="Renbergan" />
		<tag k="natural" v="hill" />
		<tag k="place" v="locality" />
		<tag k="ssr:stedsnr" v="1079023" />
	</node>
	<node lat="68.72437594789292" lon="17.859173940389063" id="-98262">
		<tag k="name" v="Buppálahpa" />
		<tag k="name:se" v="Buppálahpa" />
		<tag k="natural" v="slope" />
		<tag k="place" v="locality" />
		<tag k="ssr:stedsnr" v="1079631" />
	</node>
	<node lat="68.72041826838209" lon="17.855849176839097" id="-98263">
		<tag k="name" v="Donbealli" />
		<tag k="name:se" v="Donbealli" />
		<tag k="place" v="hamlet" />
		<tag k="ssr:stedsnr" v="1079545" />
	</node>
	<node lat="68.72449394030156" lon="17.8580851093175" id="-98264">
		<tag k="name" v="Øverdalen" />
		<tag k="natural" v="slope" />
		<tag k="place" v="locality" />
		<tag k="ssr:stedsnr" v="1079719" />
	</node>
	<node lat="68.71391640855924" lon="17.903011160723548" id="-98265">
		<tag k="name" v="Rovvisadji" />
		<tag k="name:se" v="Rovvisadji" />
		<tag k="place" v="locality" />
		<tag k="ssr:stedsnr" v="1079723" />
	</node>
	<node lat="68.7000811643221" lon="17.989580061305094" id="-98266">
		<tag k="name" v="Lia" />
		<tag k="natural" v="slope" />
		<tag k="place" v="locality" />
		<tag k="ssr:stedsnr" v="1079795" />
	</node>
	<node lat="68.7215524077047" lon="17.866171782515394" id="-98267">
		<tag k="name" v="Unna Čoaffáš" />
		<tag k="name:se" v="Unna Čoaffáš" />
		<tag k="natural" v="hill" />
		<tag k="place" v="locality" />
		<tag k="ssr:stedsnr" v="1079846" />
	</node>
	<node lat="68.72278119522176" lon="17.846180729117112" id="-98269">
		<tag k="loc_name:no" v="Mellagårdan" />
		<tag k="name" v="Gaskagoahti" />
		<tag k="name:se" v="Gaskagoahti" />
		<tag k="place" v="hamlet" />
		<tag k="ssr:stedsnr" v="1079854" />
	</node>
	<node lat="68.74565768532813" lon="17.843603459730588" id="-98270">
		<tag k="loc_name:se" v="Boazobávttik" />
		<tag k="name" v="Reinbergan" />
		<tag k="name:no" v="Reinbergan" />
		<tag k="natural" v="hill" />
		<tag k="place" v="locality" />
		<tag k="ssr:stedsnr" v="1080337" />
	</node>
	<node lat="68.67285422234423" lon="17.867406331741524" id="-98271">
		<tag k="name" v="Suobdikgaska" />
		<tag k="name:se" v="Suobdikgaska" />
		<tag k="natural" v="valley" />
		<tag k="place" v="locality" />
		<tag k="ssr:stedsnr" v="1080287" />
	</node>
	<node lat="68.66892022216697" lon="17.84675585920521" id="-98272">
		<tag k="loc_name:se" v="Suovdegaska" />
		<tag k="name" v="Suobdikčahca" />
		<tag k="name:se" v="Suobdikčahca" />
		<tag k="natural" v="isthmus" />
		<tag k="place" v="locality" />
		<tag k="ssr:stedsnr" v="1080289" />
	</node>
</osm>
