<?xml version="1.0" encoding="UTF-8"?>
<<<<<<< HEAD
<osm version="0.6" generator="osmapis">
	<node lat="68.78220000279138" lon="17.504341666860952" id="-32283">
		<tag k="name" v="Kollvatnet" />
		<tag k="name:no" v="Kollvatnet" />
		<tag k="natural" v="water" />
		<tag k="ssr:stedsnr" v="18651" />
	</node>
	<node lat="68.80261944768012" lon="17.668916654449486" id="-32288">
		<tag k="name" v="Mefeneselva" />
		<tag k="name:no" v="Mefeneselva" />
		<tag k="ssr:stedsnr" v="238212" />
		<tag k="waterway" v="stream" />
	</node>
	<node lat="68.74375833092033" lon="17.808533328919076" id="-32291">
		<tag k="name" v="Tørrkjerrholmen" />
		<tag k="name:no" v="Tørrkjerrholmen" />
		<tag k="natural" v="cape" />
		<tag k="ssr:stedsnr" v="239290" />
	</node>
	<node lat="68.8129944409544" lon="17.849547223298888" id="-32308">
		<tag k="name" v="Fjellelva" />
		<tag k="name:no" v="Fjellelva" />
		<tag k="ssr:stedsnr" v="56215" />
		<tag k="waterway" v="stream" />
	</node>
	<node lat="68.7707027769123" lon="17.839005541052703" id="-32314">
		<tag k="name" v="Mølnelva" />
		<tag k="name:no" v="Mølnelva" />
		<tag k="ssr:stedsnr" v="57534" />
		<tag k="waterway" v="stream" />
	</node>
	<node lat="68.71704721961297" lon="17.755436113428292" id="-32320">
		<tag k="name" v="Sletteidet" />
		<tag k="name:no" v="Sletteidet" />
		<tag k="place" v="locality" />
		<tag k="ssr:stedsnr" v="58184" />
	</node>
	<node lat="68.78011944432167" lon="17.600041672400632" id="-32325">
		<tag k="name" v="Johanelva" />
		<tag k="name:no" v="Johanelva" />
		<tag k="ssr:stedsnr" v="240263" />
		<tag k="waterway" v="stream" />
	</node>
	<node lat="68.76968333141015" lon="17.889152784479194" id="-32331">
		<tag k="alt_name:no" v="Austavindselva" />
		<tag k="loc_name:se" v="Gállogiettiijohka" />
		<tag k="name" v="Austadvindelva" />
		<tag k="name:no" v="Austadvindelva" />
		<tag k="ssr:stedsnr" v="79690" />
		<tag k="waterway" v="stream" />
	</node>
	<node lat="68.75953610771151" lon="17.706825007384268" id="-32351">
		<tag k="name" v="Rendalsbekken" />
		<tag k="name:no" v="Rendalsbekken" />
		<tag k="ssr:stedsnr" v="119387" />
		<tag k="waterway" v="stream" />
	</node>
	<node lat="68.75759444891874" lon="17.771813877192617" id="-32353">
		<tag k="name" v="Bekkelva" />
		<tag k="name:no" v="Bekkelva" />
		<tag k="ssr:stedsnr" v="119406" />
		<tag k="waterway" v="stream" />
	</node>
	<node lat="68.73202500048298" lon="17.67856665469204" id="-32354">
		<tag k="name" v="Storelva" />
		<tag k="name:no" v="Storelva" />
		<tag k="ssr:stedsnr" v="138203" />
		<tag k="waterway" v="river" />
	</node>
	<node lat="68.7380138919388" lon="17.835436112162004" id="-32357">
		<tag k="name" v="Tømmerelva" />
		<tag k="name:no" v="Tømmerelva" />
		<tag k="ssr:stedsnr" v="147766" />
		<tag k="waterway" v="stream" />
	</node>
	<node lat="68.66698333189062" lon="17.84117777667354" id="-32362">
		<tag k="loc_name:se" v="Suobddikjávri" />
		<tag k="name" v="Bukkemyrvatnet" />
		<tag k="name:no" v="Bukkemyrvatnet" />
		<tag k="natural" v="water" />
		<tag k="ssr:stedsnr" v="260642" />
	</node>
	<node lat="68.79059444427874" lon="17.528072209842318" id="-32364">
		<tag k="alt_name:no" v="Hollebåtvatnet" />
		<tag k="name" v="Holbåtvatnet" />
		<tag k="name:no" v="Holbåtvatnet" />
		<tag k="natural" v="water" />
		<tag k="ssr:stedsnr" v="260760" />
	</node>
	<node lat="68.7861944433962" lon="17.5349083383812" id="-32365">
		<tag k="alt_name:no" v="Vardhaugvatnet" />
		<tag k="name" v="Vardhågvatnet" />
		<tag k="name:no" v="Vardhågvatnet" />
		<tag k="natural" v="water" />
		<tag k="ssr:stedsnr" v="260762" />
	</node>
	<node lat="68.68537499945751" lon="17.978388890675543" id="-32372">
		<tag k="name" v="Eggbekken" />
		<tag k="name:no" v="Eggbekken" />
		<tag k="ssr:stedsnr" v="178669" />
		<tag k="waterway" v="stream" />
	</node>
	<node lat="68.70814166565927" lon="17.953266660493792" id="-32381">
		<tag k="name" v="Jorbajávri - Rundvatnet" />
		<tag k="name:no" v="Rundvatnet" />
		<tag k="name:se" v="Jorbajávri" />
		<tag k="natural" v="water" />
		<tag k="ssr:stedsnr" v="266596" />
	</node>
	<node lat="68.69202500110983" lon="18.037424995847704" id="-32382">
		<tag k="name" v="Holbekken" />
		<tag k="name:no" v="Holbekken" />
		<tag k="ssr:stedsnr" v="199358" />
		<tag k="waterway" v="stream" />
	</node>
	<node lat="68.79606944602021" lon="17.487294445975458" id="-32385">
		<tag k="name" v="Storvatnet" />
		<tag k="name:no" v="Storvatnet" />
		<tag k="natural" v="water" />
		<tag k="ssr:stedsnr" v="200696" />
		<tag k="water" v="lake" />
	</node>
	<node lat="68.73039721811452" lon="17.807197230038213" id="-32387">
		<tag k="name" v="Middagsmarka" />
		<tag k="name:no" v="Middagsmarka" />
		<tag k="natural" v="water" />
		<tag k="ssr:stedsnr" v="239487" />
	</node>
	<node lat="68.75436389004979" lon="17.775097226367944" id="-32399">
		<tag k="name" v="Finneselva" />
		<tag k="name:no" v="Finneselva" />
		<tag k="ssr:stedsnr" v="240295" />
		<tag k="waterway" v="stream" />
	</node>
	<node lat="68.70187500300608" lon="17.736552782758654" id="-32401">
		<tag k="name" v="Jalgesáidi - Fjordbotneidet" />
		<tag k="name:no" v="Fjordbotneidet" />
		<tag k="name:se" v="Jalgesáidi" />
		<tag k="old_name:se" v="Jalgesaidi" />
		<tag k="place" v="locality" />
		<tag k="ssr:stedsnr" v="260604" />
	</node>
	<node lat="68.67940277644446" lon="17.952430557278355" id="-32407">
		<tag k="name" v="Jordbrubekken" />
		<tag k="name:no" v="Jordbrubekken" />
		<tag k="ssr:stedsnr" v="299713" />
		<tag k="waterway" v="stream" />
	</node>
	<node lat="68.74111389318594" lon="17.79806111221794" id="-32409">
		<tag k="name" v="Stordiket" />
		<tag k="name:no" v="Stordiket" />
		<tag k="ssr:stedsnr" v="299472" />
		<tag k="waterway" v="stream" />
	</node>
	<node lat="68.69366111453631" lon="18.034911105667117" id="-32416">
		<tag k="name" v="Lappjordvatnet" />
		<tag k="name:no" v="Lappjordvatnet" />
		<tag k="natural" v="water" />
		<tag k="ssr:stedsnr" v="321333" />
	</node>
	<node lat="68.60926944947151" lon="17.846655542220443" id="-32417">
		<tag k="name" v="Riikojávri - Grasvatnet" />
		<tag k="name:no" v="Grasvatnet" />
		<tag k="name:se" v="Riikojávri" />
		<tag k="natural" v="water" />
		<tag k="old_name:se" v="Riikujavri" />
		<tag k="ssr:stedsnr" v="321525" />
		<tag k="water" v="lake" />
	</node>
	<node lat="68.7640972258348" lon="17.920244448931577" id="-32419">
		<tag k="name" v="Lægdevatnet" />
		<tag k="name:no" v="Lægdevatnet" />
		<tag k="natural" v="water" />
		<tag k="ssr:stedsnr" v="321702" />
	</node>
	<node lat="68.74836667054336" lon="17.808372225761282" id="-32427">
		<tag k="name" v="Orneselva" />
		<tag k="name:no" v="Orneselva" />
		<tag k="ssr:stedsnr" v="360266" />
		<tag k="waterway" v="stream" />
	</node>
	<node lat="68.78382500028803" lon="17.55825276584553" id="-32437">
		<tag k="name" v="Tverrelva" />
		<tag k="name:no" v="Tverrelva" />
		<tag k="ssr:stedsnr" v="481230" />
		<tag k="waterway" v="stream" />
	</node>
	<node lat="68.73810278026254" lon="17.824294441641303" id="-32443">
		<tag k="name" v="Tømmerelva" />
		<tag k="name:no" v="Tømmerelva" />
		<tag k="ssr:stedsnr" v="481488" />
		<tag k="waterway" v="stream" />
	</node>
	<node lat="68.73925555234892" lon="17.806680562448236" id="-32444">
		<tag k="name" v="Fredagshølla" />
		<tag k="name:no" v="Fredagshølla" />
		<tag k="place" v="locality" />
		<tag k="ssr:stedsnr" v="481490" />
	</node>
	<node lat="68.6851666635262" lon="17.954474989665353" id="-32447">
		<tag k="name" v="Slettbekken" />
		<tag k="name:no" v="Slettbekken" />
		<tag k="ssr:stedsnr" v="481689" />
		<tag k="waterway" v="stream" />
	</node>
	<node lat="68.63976944615163" lon="17.84721665213873" id="-32453">
		<tag k="name" v="Luohttojávri - Lotvatnet" />
		<tag k="name:no" v="Lotvatnet" />
		<tag k="name:se" v="Luohttojávri" />
		<tag k="natural" v="water" />
		<tag k="ssr:stedsnr" v="382505" />
		<tag k="water" v="lake" />
	</node>
	<node lat="68.76801944280741" lon="17.634880560493038" id="-32454">
		<tag k="name" v="Lomvatnet" />
		<tag k="name:no" v="Lomvatnet" />
		<tag k="natural" v="water" />
		<tag k="ssr:stedsnr" v="483152" />
	</node>
	<node lat="68.74939722167883" lon="17.74104999142171" id="-32458">
		<tag k="name" v="Lomvatnan" />
		<tag k="name:no" v="Lomvatnan" />
		<tag k="natural" v="water" />
		<tag k="ssr:stedsnr" v="483412" />
		<tag k="water" v="lake" />
	</node>
	<node lat="68.75863611078185" lon="17.766966661359973" id="-32460">
		<tag k="name" v="Gårdselva" />
		<tag k="name:no" v="Gårdselva" />
		<tag k="ssr:stedsnr" v="483415" />
		<tag k="waterway" v="stream" />
	</node>
	<node lat="68.65313888726492" lon="17.922847217433077" id="-32461">
		<tag k="name" v="Skjellbekken" />
		<tag k="name:no" v="Skjellbekken" />
		<tag k="ssr:stedsnr" v="483639" />
		<tag k="waterway" v="stream" />
	</node>
	<node lat="68.67893055527514" lon="18.01675555019912" id="-32464">
=======
<osm generator="osmapis" version="0.6">
	<node id="-857600" lat="68.7152527785" lon="17.7905444392">
		<tag k="name" v="Forhaugelva" />
		<tag k="name:no" v="Forhaugelva" />
		<tag k="ssr:stedsnr" v="624573" />
		<tag k="waterway" v="stream" />
	</node>
	<node id="-857598" lat="68.8252666706" lon="17.8220222305">
		<tag k="name" v="Stormyrelva" />
		<tag k="name:no" v="Stormyrelva" />
		<tag k="ssr:stedsnr" v="604536" />
		<tag k="waterway" v="stream" />
	</node>
	<node id="-857597" lat="68.8144555547" lon="17.8292360955">
		<tag k="name" v="Butoftelva" />
		<tag k="name:no" v="Butoftelva" />
		<tag k="ssr:stedsnr" v="604532" />
		<tag k="waterway" v="stream" />
	</node>
	<node id="-857084" lat="68.7586361108" lon="17.7669666614">
		<tag k="name" v="Gårdselva" />
		<tag k="name:no" v="Gårdselva" />
		<tag k="ssr:stedsnr" v="483415" />
		<tag k="waterway" v="stream" />
	</node>
	<node id="-857083" lat="68.7493972217" lon="17.7410499914">
		<tag k="name" v="Lomvatnan" />
		<tag k="name:no" v="Lomvatnan" />
		<tag k="natural" v="water" />
		<tag k="ssr:stedsnr" v="483412" />
		<tag k="water" v="lake" />
	</node>
	<node id="-857593" lat="68.7438331459" lon="17.7939076495">
		<tag k="name" v="Myrelva" />
		<tag k="name:no" v="Myrelva" />
		<tag k="ssr:stedsnr" v="604275" />
		<tag k="waterway" v="stream" />
	</node>
	<node id="-857080" lat="68.730005557" lon="17.8680416598">
		<tag k="name" v="Skádjajohka" />
		<tag k="name:se" v="Skádjajohka" />
		<tag k="ssr:stedsnr" v="481714" />
		<tag k="waterway" v="stream" />
	</node>
	<node id="-856929" lat="68.7320250005" lon="17.6785666547">
		<tag k="name" v="Storelva" />
		<tag k="name:no" v="Storelva" />
		<tag k="ssr:stedsnr" v="138203" />
		<tag k="waterway" v="river" />
	</node>
	<node id="-857073" lat="68.8013805545" lon="17.7779666679">
		<tag k="name" v="Gråsteinvatnet" />
		<tag k="name:no" v="Gråsteinvatnet" />
		<tag k="natural" v="water" />
		<tag k="ssr:stedsnr" v="481420" />
	</node>
	<node id="-857578" lat="68.7386305589" lon="17.7995527824">
		<tag k="name" v="Blåstranda" />
		<tag k="name:no" v="Blåstranda" />
		<tag k="natural" v="beach" />
		<tag k="ssr:stedsnr" v="602460" />
	</node>
	<node id="-857569" lat="68.7600111106" lon="17.7263666539">
		<tag k="name" v="Sandneselva" />
		<tag k="name:no" v="Sandneselva" />
		<tag k="ssr:stedsnr" v="563772" />
		<tag k="waterway" v="river" />
	</node>
	<node id="-857567" lat="68.7695416705" lon="17.7365222233">
		<tag k="alt_name:no" v="Gårdelva, store" />
		<tag k="fixme" v="multiple name tags, choose one and add the other to alt_name" />
		<tag k="name" v="Gårdselva;Store Gårdelva" />
		<tag k="name:no" v="Gårdselva;Store Gårdelva" />
		<tag k="ssr:stedsnr" v="563762" />
		<tag k="waterway" v="stream" />
	</node>
	<node id="-857566" lat="68.7814222218" lon="17.8183944318">
		<tag k="name" v="Soløyelva" />
		<tag k="name:no" v="Soløyelva" />
		<tag k="ssr:stedsnr" v="563753" />
		<tag k="waterway" v="stream" />
	</node>
	<node id="-857561" lat="68.7178805531" lon="17.8884277646">
		<tag k="name" v="Gihttejohka" />
		<tag k="name:se" v="Gihttejohka" />
		<tag k="ssr:stedsnr" v="563614" />
		<tag k="waterway" v="stream" />
	</node>
	<node id="-857558" lat="68.64051389" lon="17.9235666615">
		<tag k="name" v="Tverrelva" />
		<tag k="name:no" v="Tverrelva" />
		<tag k="ssr:stedsnr" v="543594" />
		<tag k="waterway" v="stream" />
	</node>
	<node id="-857081" lat="68.7680194428" lon="17.6348805605">
		<tag k="name" v="Lomvatnet" />
		<tag k="name:no" v="Lomvatnet" />
		<tag k="natural" v="water" />
		<tag k="ssr:stedsnr" v="483152" />
	</node>
	<node id="-857554" lat="68.6720583289" lon="17.9544694485">
		<tag k="name" v="Jordbekken" />
		<tag k="name:no" v="Jordbekken" />
		<tag k="ssr:stedsnr" v="543520" />
		<tag k="waterway" v="stream" />
	</node>
	<node id="-857537" lat="68.7544222247" lon="17.8376000068">
		<tag k="name" v="Bangselielva" />
		<tag k="name:no" v="Bangselielva" />
		<tag k="ssr:stedsnr" v="542474" />
		<tag k="waterway" v="stream" />
	</node>
	<node id="-857535" lat="68.7336694422" lon="17.8242027647">
		<tag k="name" v="Kvannelva" />
		<tag k="name:no" v="Kvannelva" />
		<tag k="ssr:stedsnr" v="542471" />
		<tag k="waterway" v="stream" />
	</node>
	<node id="-857022" lat="68.6483472186" lon="17.9092416559">
		<tag k="name" v="Stormyrelva" />
		<tag k="name:no" v="Stormyrelva" />
		<tag k="ssr:stedsnr" v="361570" />
		<tag k="waterway" v="stream" />
	</node>
	<node id="-857529" lat="68.7948555548" lon="17.7646055494">
		<tag k="name" v="Mølnelva" />
		<tag k="name:no" v="Mølnelva" />
		<tag k="ssr:stedsnr" v="542400" />
		<tag k="waterway" v="stream" />
	</node>
	<node id="-857015" lat="68.7385388867" lon="17.8045138758">
		<tag k="name" v="Gjerdneset" />
		<tag k="name:no" v="Gjerdneset" />
		<tag k="natural" v="cape" />
		<tag k="ssr:stedsnr" v="360420" />
	</node>
	<node id="-857524" lat="68.7942277794" lon="17.478930549">
		<tag k="name" v="Kollvasselva" />
		<tag k="name:no" v="Kollvasselva" />
		<tag k="ssr:stedsnr" v="542197" />
		<tag k="waterway" v="stream" />
	</node>
	<node id="-857010" lat="68.6531388873" lon="17.9228472174">
		<tag k="name" v="Skjellbekken" />
		<tag k="name:no" v="Skjellbekken" />
		<tag k="ssr:stedsnr" v="483639" />
		<tag k="waterway" v="stream" />
	</node>
	<node id="-856999" lat="68.6851666635" lon="17.9544749897">
		<tag k="name" v="Slettbekken" />
		<tag k="name:no" v="Slettbekken" />
		<tag k="ssr:stedsnr" v="481689" />
		<tag k="waterway" v="stream" />
	</node>
	<node id="-856992" lat="68.7392555523" lon="17.8066805624">
		<tag k="name" v="Fredagshølla" />
		<tag k="name:no" v="Fredagshølla" />
		<tag k="place" v="locality" />
		<tag k="ssr:stedsnr" v="481490" />
	</node>
	<node id="-857503" lat="68.7033749997" lon="17.9956055591">
		<tag k="name" v="Kløftbekken" />
		<tag k="name:no" v="Kløftbekken" />
		<tag k="ssr:stedsnr" v="421832" />
		<tag k="waterway" v="stream" />
	</node>
	<node id="-856988" lat="68.7838250003" lon="17.5582527658">
		<tag k="name" v="Tverrelva" />
		<tag k="name:no" v="Tverrelva" />
		<tag k="ssr:stedsnr" v="481230" />
		<tag k="waterway" v="stream" />
	</node>
	<node id="-857497" lat="68.8060833328" lon="17.8381666634">
		<tag k="name" v="Jordelva" />
		<tag k="name:no" v="Jordelva" />
		<tag k="ssr:stedsnr" v="421389" />
		<tag k="waterway" v="stream" />
	</node>
	<node id="-857495" lat="68.7962000002" lon="17.8015194397">
		<tag k="name" v="Skittendiket" />
		<tag k="name:no" v="Skittendiket" />
		<tag k="ssr:stedsnr" v="421543" />
		<tag k="waterway" v="stream" />
	</node>
	<node id="-857490" lat="68.7983249992" lon="17.7445305531">
		<tag k="name" v="Hågelva" />
		<tag k="name:no" v="Hågelva" />
		<tag k="ssr:stedsnr" v="421468" />
		<tag k="waterway" v="stream" />
	</node>
	<node id="-857489" lat="68.7412666682" lon="17.8174972316">
		<tag k="name" v="Litjelva" />
		<tag k="name:no" v="Litjelva" />
		<tag k="ssr:stedsnr" v="421461" />
		<tag k="waterway" v="stream" />
	</node>
	<node id="-856974" lat="68.6794027764" lon="17.9524305573">
		<tag k="name" v="Jordbrubekken" />
		<tag k="name:no" v="Jordbrubekken" />
		<tag k="ssr:stedsnr" v="299713" />
		<tag k="waterway" v="stream" />
	</node>
	<node id="-856973" lat="68.703047224" lon="18.0004027732">
		<tag k="name" v="Storbekken" />
		<tag k="name:no" v="Storbekken" />
		<tag k="ssr:stedsnr" v="299818" />
		<tag k="waterway" v="stream" />
	</node>
	<node id="-857410" lat="68.6920250011" lon="18.0374249958">
		<tag k="name" v="Holbekken" />
		<tag k="name:no" v="Holbekken" />
		<tag k="ssr:stedsnr" v="199358" />
		<tag k="waterway" v="stream" />
	</node>
	<node id="-857482" lat="68.6789305553" lon="18.0167555502">
>>>>>>> e1d4bc35ff8a6074a6f2e91616a996b547c36f15
		<tag k="name" v="Soløyvatnet" />
		<tag k="name:no" v="Soløyvatnet" />
		<tag k="natural" v="water" />
		<tag k="ssr:stedsnr" v="415392" />
	</node>
<<<<<<< HEAD
	<node lat="68.80608333278403" lon="17.838166663383056" id="-32470">
		<tag k="name" v="Jordelva" />
		<tag k="name:no" v="Jordelva" />
		<tag k="ssr:stedsnr" v="421389" />
		<tag k="waterway" v="stream" />
	</node>
	<node lat="68.79620000019605" lon="17.801519439674614" id="-32474">
		<tag k="name" v="Skittendiket" />
		<tag k="name:no" v="Skittendiket" />
		<tag k="ssr:stedsnr" v="421543" />
		<tag k="waterway" v="stream" />
	</node>
	<node lat="68.68563889108965" lon="17.967022209966874" id="-32481">
		<tag k="name" v="Iverfossen" />
		<tag k="name:no" v="Iverfossen" />
		<tag k="natural" v="waterfall" />
		<tag k="ssr:stedsnr" v="441699" />
	</node>
	<node lat="68.78023610831805" lon="17.600491653973023" id="-32483">
		<tag k="name" v="Finneneselva" />
		<tag k="name:no" v="Finneneselva" />
		<tag k="ssr:stedsnr" v="442753" />
		<tag k="waterway" v="stream" />
	</node>
	<node lat="68.80138055446733" lon="17.777966667858504" id="-32486">
		<tag k="name" v="Gråsteinvatnet" />
		<tag k="name:no" v="Gråsteinvatnet" />
		<tag k="natural" v="water" />
		<tag k="ssr:stedsnr" v="481420" />
	</node>
	<node lat="68.73000555704216" lon="17.868041659766874" id="-32491">
		<tag k="name" v="Skáiddejohka" />
		<tag k="name:se" v="Skáiddejohka" />
		<tag k="ssr:stedsnr" v="481714" />
		<tag k="waterway" v="stream" />
	</node>
	<node lat="68.77574166466201" lon="17.622641671265075" id="-32502">
		<tag k="name" v="Keiprødelva" />
		<tag k="name:no" v="Keiprødelva" />
		<tag k="ssr:stedsnr" v="685705" />
		<tag k="waterway" v="stream" />
	</node>
	<node lat="68.76854444871958" lon="17.86104443980174" id="-32504">
		<tag k="loc_name:se" v="Heasseviikajohka" />
		<tag k="name" v="Hesjevikelva" />
		<tag k="name:no" v="Hesjevikelva" />
		<tag k="ssr:stedsnr" v="685711" />
		<tag k="waterway" v="river" />
	</node>
	<node lat="68.82596944667408" lon="17.701769452310646" id="-32505">
		<tag k="name" v="Gamvikelvvatnan" />
		<tag k="name:no" v="Gamvikelvvatnan" />
		<tag k="natural" v="water" />
		<tag k="ssr:stedsnr" v="685669" />
		<tag k="water" v="lake" />
	</node>
	<node lat="68.79086111417534" lon="17.474119444742936" id="-32507">
		<tag k="fixme" v="multiple name tags, choose one and add the other to alt_name" />
		<tag k="name" v="Blåvatnet;Kollvatnet" />
		<tag k="name:no" v="Blåvatnet;Kollvatnet" />
		<tag k="natural" v="water" />
		<tag k="ssr:stedsnr" v="685690" />
		<tag k="water" v="lake" />
	</node>
	<node lat="68.79655277676748" lon="17.716291675851295" id="-32509">
		<tag k="name" v="Gardselva" />
		<tag k="name:no" v="Gardselva" />
		<tag k="ssr:stedsnr" v="542405" />
		<tag k="waterway" v="stream" />
	</node>
	<node lat="68.7336694422403" lon="17.82420276473638" id="-32512">
		<tag k="name" v="Kvannelva" />
		<tag k="name:no" v="Kvannelva" />
		<tag k="ssr:stedsnr" v="542471" />
		<tag k="waterway" v="stream" />
	</node>
	<node lat="68.75442222468999" lon="17.837600006832446" id="-32514">
		<tag k="name" v="Bangselielva" />
		<tag k="name:no" v="Bangselielva" />
		<tag k="ssr:stedsnr" v="542474" />
		<tag k="waterway" v="stream" />
	</node>
	<node lat="68.67205832890745" lon="17.95446944854809" id="-32520">
		<tag k="name" v="Jordbekken" />
		<tag k="name:no" v="Jordbekken" />
		<tag k="ssr:stedsnr" v="543520" />
		<tag k="waterway" v="stream" />
	</node>
	<node lat="68.79666666275781" lon="17.485772223679415" id="-32527">
		<tag k="name" v="Holmen" />
		<tag k="name:no" v="Holmen" />
		<tag k="place" v="islet" />
		<tag k="ssr:stedsnr" v="602208" />
	</node>
	<node lat="68.73863055885896" lon="17.799552782434933" id="-32530">
		<tag k="name" v="Blåstranda" />
		<tag k="name:no" v="Blåstranda" />
		<tag k="natural" v="beach" />
		<tag k="ssr:stedsnr" v="602460" />
	</node>
	<node lat="68.81445555468571" lon="17.82923609553342" id="-32539">
		<tag k="name" v="Butoftelva" />
		<tag k="name:no" v="Butoftelva" />
		<tag k="ssr:stedsnr" v="604532" />
		<tag k="waterway" v="stream" />
	</node>
	<node lat="68.82526667060165" lon="17.82202223047807" id="-32540">
		<tag k="name" v="Stormyrelva" />
		<tag k="name:no" v="Stormyrelva" />
		<tag k="ssr:stedsnr" v="604536" />
		<tag k="waterway" v="stream" />
	</node>
	<node lat="68.77257499699448" lon="17.64505555336028" id="-32557">
		<tag k="name" v="Hestneselva" />
		<tag k="name:no" v="Hestneselva" />
		<tag k="ssr:stedsnr" v="685704" />
		<tag k="waterway" v="stream" />
	</node>
	<node lat="68.7749194422238" lon="17.537958331486706" id="-32558">
		<tag k="name" v="Reinlandsvatnet" />
		<tag k="name:no" v="Reinlandsvatnet" />
		<tag k="natural" v="water" />
		<tag k="ssr:stedsnr" v="685701" />
	</node>
	<node lat="68.81385277934953" lon="17.85496944485569" id="-32561">
		<tag k="name" v="Skillajohka" />
		<tag k="name:se" v="Skillajohka" />
		<tag k="ssr:stedsnr" v="724203" />
		<tag k="waterway" v="stream" />
	</node>
	<node lat="68.72771666517886" lon="17.78968054835591" id="-32566">
		<tag k="name" v="Sanddiket" />
		<tag k="name:no" v="Sanddiket" />
		<tag k="ssr:stedsnr" v="724472" />
		<tag k="waterway" v="stream" />
	</node>
	<node lat="68.74650833148013" lon="17.61509443108198" id="-32575">
		<tag k="name" v="Storelvvatnet" />
		<tag k="name:no" v="Storelvvatnet" />
		<tag k="natural" v="water" />
		<tag k="ssr:stedsnr" v="746881" />
	</node>
	<node lat="68.78811666678922" lon="17.5887333420482" id="-32580">
		<tag k="name" v="Neselva" />
		<tag k="name:no" v="Neselva" />
		<tag k="ssr:stedsnr" v="906232" />
		<tag k="waterway" v="stream" />
	</node>
	<node lat="68.80633055533019" lon="17.789649998896135" id="-32582">
		<tag k="name" v="Lomvatnet" />
		<tag k="name:no" v="Lomvatnet" />
		<tag k="natural" v="water" />
		<tag k="ssr:stedsnr" v="906413" />
	</node>
	<node lat="68.73306110877618" lon="17.812724985636315" id="-32590">
		<tag k="name" v="Løelva" />
		<tag k="name:no" v="Løelva" />
		<tag k="ssr:stedsnr" v="906495" />
		<tag k="waterway" v="stream" />
	</node>
	<node lat="68.74351667120632" lon="17.817730542495998" id="-32591">
		<tag k="name" v="Rødvollbekken" />
		<tag k="name:no" v="Rødvollbekken" />
		<tag k="ssr:stedsnr" v="906499" />
		<tag k="waterway" v="stream" />
	</node>
	<node lat="68.72818333127414" lon="17.870602769711546" id="-32599">
		<tag k="name" v="Skáidi" />
		<tag k="name:se" v="Skáidi" />
		<tag k="natural" v="cape" />
		<tag k="ssr:stedsnr" v="906738" />
	</node>
	<node lat="68.72224444740816" lon="17.844455544443996" id="-32600">
		<tag k="name" v="Njárga" />
		<tag k="name:se" v="Njárga" />
		<tag k="natural" v="cape" />
		<tag k="ssr:stedsnr" v="906746" />
	</node>
	<node lat="68.73941944734602" lon="17.811424994948844" id="-32612">
		<tag k="name" v="Grindneset" />
		<tag k="name:no" v="Grindneset" />
		<tag k="natural" v="cape" />
		<tag k="ssr:stedsnr" v="785419" />
	</node>
	<node lat="68.7371694461623" lon="17.80750554287096" id="-32613">
		<tag k="name" v="Tyttebærhølla" />
		<tag k="name:no" v="Tyttebærhølla" />
		<tag k="place" v="locality" />
		<tag k="ssr:stedsnr" v="785420" />
	</node>
	<node lat="68.7833444419037" lon="17.518849995881236" id="-32615">
		<tag k="name" v="Tårleelva" />
		<tag k="name:no" v="Tårleelva" />
		<tag k="ssr:stedsnr" v="785200" />
		<tag k="waterway" v="stream" />
	</node>
	<node lat="68.71510277967013" lon="17.84838887946094" id="-32625">
		<tag k="name" v="Heandrihkágorži - Henrikafossen" />
		<tag k="name:no" v="Henrikafossen" />
		<tag k="name:se" v="Heandrihkágorži" />
		<tag k="natural" v="waterfall" />
		<tag k="ssr:stedsnr" v="786652" />
	</node>
	<node lat="68.79199166293978" lon="17.498686097733845" id="-32626">
		<tag k="name" v="Langneset" />
		<tag k="name:no" v="Langneset" />
		<tag k="natural" v="cape" />
		<tag k="ssr:stedsnr" v="846184" />
	</node>
	<node lat="68.72014762310498" lon="17.85925562426133" id="-32633">
		<tag k="name" v="Olderneset" />
		<tag k="name:no" v="Olderneset" />
		<tag k="natural" v="cape" />
		<tag k="ssr:stedsnr" v="927939" />
	</node>
	<node lat="68.75950555131281" lon="17.746058331291856" id="-32635">
		<tag k="alt_name:no" v="Svartelva" />
		<tag k="name" v="Litje Sandneselva" />
		<tag k="name:no" v="Litje Sandneselva" />
		<tag k="ssr:stedsnr" v="928241" />
		<tag k="waterway" v="stream" />
	</node>
	<node lat="68.67621944035407" lon="17.897327774783925" id="-32637">
		<tag k="loc_name:se" v="Gieddenjunijávri" />
		<tag k="name" v="Lapphaugvatnet" />
		<tag k="name:no" v="Lapphaugvatnet" />
		<tag k="natural" v="water" />
		<tag k="ssr:stedsnr" v="928575" />
	</node>
	<node lat="68.8099888895459" lon="17.47458612013917" id="-32640">
		<tag k="name" v="Mølnelva" />
		<tag k="name:no" v="Mølnelva" />
		<tag k="ssr:stedsnr" v="928660" />
		<tag k="waterway" v="stream" />
	</node>
	<node lat="68.8024277745278" lon="17.726683335134595" id="-32641">
		<tag k="name" v="Mølnelva" />
		<tag k="name:no" v="Mølnelva" />
		<tag k="ssr:stedsnr" v="928666" />
		<tag k="waterway" v="stream" />
	</node>
	<node lat="68.79631944393243" lon="17.815966658275315" id="-32642">
		<tag k="name" v="Åelva" />
		<tag k="name:no" v="Åelva" />
		<tag k="ssr:stedsnr" v="928673" />
		<tag k="waterway" v="river" />
	</node>
	<node lat="68.7335388874005" lon="17.650097220233544" id="-32648">
		<tag k="name" v="Sandnesbotnelva" />
		<tag k="name:no" v="Sandnesbotnelva" />
		<tag k="ssr:stedsnr" v="928934" />
		<tag k="waterway" v="river" />
	</node>
	<node lat="68.73133333752833" lon="17.821705560452834" id="-32656">
		<tag k="name" v="Drågelva" />
		<tag k="name:no" v="Drågelva" />
		<tag k="ssr:stedsnr" v="906506" />
		<tag k="waterway" v="stream" />
	</node>
	<node lat="68.62986666907888" lon="17.933144433906257" id="-32661">
		<tag k="name" v="Stormyrelva" />
		<tag k="name:no" v="Stormyrelva" />
		<tag k="ssr:stedsnr" v="928461" />
		<tag k="waterway" v="river" />
	</node>
	<node lat="68.6983555542831" lon="17.846080563659676" id="-32682">
		<tag k="name" v="Spanstindvatnet" />
		<tag k="name:no" v="Spanstindvatnet" />
		<tag k="natural" v="water" />
		<tag k="ssr:stedsnr" v="17572" />
	</node>
	<node lat="68.75545555583179" lon="17.676036108308875" id="-32683">
		<tag k="name" v="Tverrelva" />
		<tag k="name:no" v="Tverrelva" />
		<tag k="ssr:stedsnr" v="18247" />
		<tag k="waterway" v="stream" />
	</node>
	<node lat="68.68600833496974" lon="18.016338875113455" id="-32684">
		<tag k="alt_name:no" v="Kolbranselva" />
		<tag k="fixme" v="multiple name tags, choose one and add the other to alt_name" />
		<tag k="loc_name:se" v="Gáhpasjohka" />
		<tag k="name" v="Tverrelva;Kolbanelva" />
		<tag k="name:no" v="Tverrelva;Kolbanelva" />
		<tag k="ssr:stedsnr" v="18318" />
		<tag k="waterway" v="river" />
	</node>
	<node lat="68.62257370749202" lon="17.874202304278647" id="-32686">
		<tag k="name" v="Småvatnan" />
		<tag k="name:no" v="Småvatnan" />
		<tag k="natural" v="water" />
		<tag k="ssr:stedsnr" v="18471" />
		<tag k="water" v="lake" />
	</node>
	<node lat="68.73407778136406" lon="17.808305544101497" id="-32702">
		<tag k="name" v="Berghølla" />
		<tag k="name:no" v="Berghølla" />
		<tag k="place" v="locality" />
		<tag k="ssr:stedsnr" v="57429" />
	</node>
	<node lat="68.73536666774912" lon="17.79063611626218" id="-32704">
		<tag k="name" v="Bruporten" />
		<tag k="name:no" v="Bruporten" />
		<tag k="ssr:stedsnr" v="57441" />
		<tag k="waterway" v="stream" />
	</node>
	<node lat="68.75000555563628" lon="17.783586098179896" id="-32716">
		<tag k="name" v="Skjellbekken" />
		<tag k="name:no" v="Skjellbekken" />
		<tag k="ssr:stedsnr" v="58313" />
		<tag k="waterway" v="stream" />
	</node>
	<node lat="68.6693805529117" lon="17.927952767516476" id="-32718">
		<tag k="name" v="Finnmyrbekken" />
		<tag k="name:no" v="Finnmyrbekken" />
		<tag k="ssr:stedsnr" v="58565" />
		<tag k="waterway" v="stream" />
	</node>
	<node lat="68.6972611082471" lon="17.795241660165562" id="-32722">
		<tag k="name" v="Middagsselvvatnan" />
		<tag k="name:no" v="Middagsselvvatnan" />
		<tag k="natural" v="water" />
		<tag k="ssr:stedsnr" v="78576" />
	</node>
	<node lat="68.77783333745606" lon="17.524466658417925" id="-32724">
		<tag k="alt_name:no" v="Tålevatnet" />
		<tag k="name" v="Tårlevatnet" />
		<tag k="name:no" v="Tårlevatnet" />
		<tag k="natural" v="water" />
		<tag k="ssr:stedsnr" v="78731" />
		<tag k="water" v="lake" />
	</node>
	<node lat="68.69015277404644" lon="18.01570278214729" id="-32732">
		<tag k="name" v="Sæterhaugvatnet" />
		<tag k="name:no" v="Sæterhaugvatnet" />
		<tag k="natural" v="water" />
		<tag k="ssr:stedsnr" v="111700" />
	</node>
	<node lat="68.70831944311372" lon="17.964255542221007" id="-32753">
		<tag k="name" v="Skredranelva" />
		<tag k="name:no" v="Skredranelva" />
		<tag k="ssr:stedsnr" v="119638" />
		<tag k="waterway" v="stream" />
	</node>
	<node lat="68.69362500247775" lon="18.006516668178" id="-32754">
		<tag k="name" v="Styggedalsbekken" />
		<tag k="name:no" v="Styggedalsbekken" />
		<tag k="ssr:stedsnr" v="138377" />
		<tag k="waterway" v="stream" />
	</node>
	<node lat="68.77753056043805" lon="17.880558323742928" id="-32761">
		<tag k="name" v="Gorssasjohka - Styggedalselva" />
		<tag k="name:no" v="Styggedalselva" />
		<tag k="name:se" v="Gorssasjohka" />
		<tag k="ssr:stedsnr" v="139683" />
		<tag k="waterway" v="stream" />
	</node>
	<node lat="68.79011944133335" lon="17.54601387800004" id="-32768">
		<tag k="name" v="Ingerelva" />
		<tag k="name:no" v="Ingerelva" />
		<tag k="ssr:stedsnr" v="178199" />
		<tag k="waterway" v="stream" />
	</node>
	<node lat="68.80064721921183" lon="17.80669442826418" id="-32770">
		<tag k="name" v="Litjenavarselva" />
		<tag k="name:no" v="Litjenavarselva" />
		<tag k="ssr:stedsnr" v="178386" />
		<tag k="waterway" v="stream" />
	</node>
	<node lat="68.79840833142654" lon="17.799741657492806" id="-32771">
		<tag k="name" v="Gommelva" />
		<tag k="name:no" v="Gommelva" />
		<tag k="ssr:stedsnr" v="178389" />
		<tag k="waterway" v="stream" />
	</node>
	<node lat="68.74077222220063" lon="17.762052782985524" id="-32777">
		<tag k="name" v="Reingjerdelva" />
		<tag k="name:no" v="Reingjerdelva" />
		<tag k="ssr:stedsnr" v="179369" />
		<tag k="waterway" v="stream" />
	</node>
	<node lat="68.71735555090632" lon="17.81895000330757" id="-32784">
		<tag k="name" v="Tverrelva" />
		<tag k="name:no" v="Tverrelva" />
		<tag k="ssr:stedsnr" v="199585" />
		<tag k="waterway" v="stream" />
	</node>
	<node lat="68.71513333088849" lon="17.755569439308932" id="-32785">
		<tag k="loc_name:se" v="Jalgesáiddijohka;Áiddinjunni" />
		<tag k="name" v="Middagselva" />
		<tag k="name:no" v="Middagselva" />
		<tag k="ssr:stedsnr" v="199599" />
		<tag k="waterway" v="stream" />
	</node>
	<node lat="68.76557777809207" lon="17.71682221924928" id="-32786">
		<tag k="name" v="Lomvatnet" />
		<tag k="name:no" v="Lomvatnet" />
		<tag k="natural" v="water" />
		<tag k="ssr:stedsnr" v="200716" />
	</node>
	<node lat="68.71042777643699" lon="17.940152778811235" id="-32790">
		<tag k="name" v="Mielkejohka - Melkeelva" />
		<tag k="name:no" v="Melkeelva" />
		<tag k="name:se" v="Mielkejohka" />
		<tag k="ssr:stedsnr" v="205632" />
		<tag k="waterway" v="stream" />
	</node>
	<node lat="68.80560833273975" lon="17.81716943042291" id="-32797">
		<tag k="name" v="Stornavarselva" />
		<tag k="name:no" v="Stornavarselva" />
		<tag k="ssr:stedsnr" v="299424" />
		<tag k="waterway" v="stream" />
	</node>
	<node lat="68.75066110969394" lon="17.81131109783961" id="-32804">
		<tag k="name" v="Leirholman" />
		<tag k="name:no" v="Leirholman" />
		<tag k="natural" v="cape" />
		<tag k="ssr:stedsnr" v="299489" />
	</node>
	<node lat="68.72418610746706" lon="17.862819447597733" id="-32810">
		<tag k="name" v="Tverrelva" />
		<tag k="name:no" v="Tverrelva" />
		<tag k="ssr:stedsnr" v="299734" />
		<tag k="waterway" v="stream" />
	</node>
	<node lat="68.70304722399112" lon="18.000402773155965" id="-32813">
		<tag k="name" v="Storbekken" />
		<tag k="name:no" v="Storbekken" />
		<tag k="ssr:stedsnr" v="299818" />
		<tag k="waterway" v="stream" />
	</node>
	<node lat="68.71940000355906" lon="17.860872226595536" id="-32818">
		<tag k="name" v="Sullo" />
		<tag k="name:se" v="Sullo" />
		<tag k="place" v="islet" />
		<tag k="ssr:stedsnr" v="301600" />
	</node>
	<node lat="68.64147777458838" lon="17.875324984241818" id="-32826">
		<tag k="fixme" v="multiple name tags, choose one and add the other to alt_name" />
		<tag k="name" v="Luohttojohka - Lotelva;Tverrelva" />
		<tag k="name:no" v="Lotelva;Tverrelva" />
		<tag k="name:se" v="Luohttojohka" />
		<tag k="ssr:stedsnr" v="321478" />
		<tag k="waterway" v="stream" />
	</node>
	<node lat="68.8100416646931" lon="17.652219433997796" id="-32828">
		<tag k="name" v="Småvatnan" />
		<tag k="name:no" v="Småvatnan" />
		<tag k="natural" v="water" />
		<tag k="ssr:stedsnr" v="321670" />
		<tag k="water" v="lake" />
	</node>
	<node lat="68.80108611274495" lon="17.701047215501546" id="-32829">
		<tag k="alt_name:no" v="Bjørneslettelva" />
		<tag k="name" v="Bjørnslettelva" />
		<tag k="name:no" v="Bjørnslettelva" />
		<tag k="ssr:stedsnr" v="321673" />
		<tag k="waterway" v="stream" />
	</node>
	<node lat="68.73985555495437" lon="17.87208054368438" id="-32830">
		<tag k="name" v="Åsevatnet" />
		<tag k="name:no" v="Åsevatnet" />
		<tag k="natural" v="water" />
		<tag k="ssr:stedsnr" v="321922" />
		<tag k="water" v="lake" />
	</node>
	<node lat="68.73853888669483" lon="17.80451387577304" id="-32838">
		<tag k="name" v="Gjerdneset" />
		<tag k="name:no" v="Gjerdneset" />
		<tag k="natural" v="cape" />
		<tag k="ssr:stedsnr" v="360420" />
	</node>
	<node lat="68.64834721863477" lon="17.909241655913036" id="-32859">
		<tag k="name" v="Stormyrelva" />
		<tag k="name:no" v="Stormyrelva" />
		<tag k="ssr:stedsnr" v="361570" />
		<tag k="waterway" v="stream" />
	</node>
	<node lat="68.7186972198312" lon="17.847191656670205" id="-32861">
		<tag k="name" v="Saraelva" />
		<tag k="name:no" v="Saraelva" />
		<tag k="ssr:stedsnr" v="361653" />
		<tag k="waterway" v="stream" />
	</node>
	<node lat="68.79306111469724" lon="17.521486098136094" id="-32864">
		<tag k="loc_name:se" v="Sámiidgáttijohka" />
		<tag k="name" v="Plasselva" />
		<tag k="name:no" v="Plasselva" />
		<tag k="ssr:stedsnr" v="381749" />
		<tag k="waterway" v="river" />
	</node>
	<node lat="68.79296666873844" lon="17.5248222122498" id="-32865">
		<tag k="name" v="Sennevatnet" />
		<tag k="name:no" v="Sennevatnet" />
		<tag k="natural" v="water" />
		<tag k="ssr:stedsnr" v="381750" />
	</node>
	<node lat="68.75112777915825" lon="17.863263877468025" id="-32867">
		<tag k="alt_name:no" v="Åsevatnet, l" />
		<tag k="name" v="Litle Åsevatnet" />
		<tag k="name:no" v="Litle Åsevatnet" />
		<tag k="natural" v="water" />
		<tag k="ssr:stedsnr" v="382616" />
	</node>
	<node lat="68.77522411669491" lon="17.633990349340486" id="-32868">
		<tag k="name" v="Jonelva" />
		<tag k="name:no" v="Jonelva" />
		<tag k="ssr:stedsnr" v="382695" />
		<tag k="waterway" v="stream" />
	</node>
	<node lat="68.741266668238" lon="17.817497231637862" id="-32881">
		<tag k="name" v="Litjelva" />
		<tag k="name:no" v="Litjelva" />
		<tag k="ssr:stedsnr" v="421461" />
		<tag k="waterway" v="stream" />
	</node>
	<node lat="68.79832499920255" lon="17.744530553105406" id="-32882">
		<tag k="name" v="Hågelva" />
		<tag k="name:no" v="Hågelva" />
		<tag k="ssr:stedsnr" v="421468" />
		<tag k="waterway" v="stream" />
	</node>
	<node lat="68.7033749996651" lon="17.99560555906812" id="-32885">
		<tag k="name" v="Kløftbekken" />
		<tag k="name:no" v="Kløftbekken" />
		<tag k="ssr:stedsnr" v="421832" />
		<tag k="waterway" v="stream" />
	</node>
	<node lat="68.69941389219335" lon="18.009863879503644" id="-32902">
		<tag k="loc_name:se" v="Bákteálajohka" />
		<tag k="name" v="Bakdalsbekken" />
		<tag k="name:no" v="Bakdalsbekken" />
		<tag k="ssr:stedsnr" v="442360" />
		<tag k="waterway" v="stream" />
	</node>
	<node lat="68.61854722206265" lon="17.7978749961224" id="-32904">
		<tag k="alt_name:no" v="Britavatnet, l" />
		<tag k="name" v="Litle Britavatnet" />
		<tag k="name:no" v="Litle Britavatnet" />
		<tag k="natural" v="water" />
		<tag k="ssr:stedsnr" v="442553" />
	</node>
	<node lat="68.71907777956687" lon="17.854405561956995" id="-32905">
		<tag k="name" v="Saraelva" />
		<tag k="name:no" v="Saraelva" />
		<tag k="ssr:stedsnr" v="442629" />
		<tag k="waterway" v="stream" />
	</node>
	<node lat="68.80987222569418" lon="17.851975007544382" id="-32906">
		<tag k="name" v="Loabákáidi - Lavangseidet" />
		<tag k="name:no" v="Lavangseidet" />
		<tag k="name:se" v="Loabákáidi" />
		<tag k="place" v="locality" />
		<tag k="ssr:stedsnr" v="442711" />
	</node>
	<node lat="68.8096249971155" lon="17.621952780387584" id="-32907">
		<tag k="name" v="Elveneselva" />
		<tag k="name:no" v="Elveneselva" />
		<tag k="ssr:stedsnr" v="442719" />
		<tag k="waterway" v="stream" />
	</node>
	<node lat="68.79846240898554" lon="17.768897593595376" id="-32909">
		<tag k="alt_name:no" v="Holmelva" />
		<tag k="name" v="Holmebekken" />
		<tag k="name:no" v="Holmebekken" />
		<tag k="ssr:stedsnr" v="442741" />
		<tag k="waterway" v="stream" />
	</node>
	<node lat="68.76476388961504" lon="17.88868888000776" id="-32912">
		<tag k="alt_name:no" v="Lægdelva" />
		<tag k="name" v="Legdelva" />
		<tag k="name:no" v="Legdelva" />
		<tag k="ssr:stedsnr" v="443696" />
		<tag k="waterway" v="stream" />
	</node>
	<node lat="68.79929444717443" lon="17.696863891600938" id="-32918">
		<tag k="name" v="Nordelva" />
		<tag k="name:no" v="Nordelva" />
		<tag k="ssr:stedsnr" v="503653" />
		<tag k="waterway" v="stream" />
	</node>
	<node lat="68.79485555475233" lon="17.764605549417055" id="-32925">
		<tag k="name" v="Mølnelva" />
		<tag k="name:no" v="Mølnelva" />
		<tag k="ssr:stedsnr" v="542400" />
		<tag k="waterway" v="stream" />
	</node>
	<node lat="68.79422777937653" lon="17.478930548992054" id="-32932">
		<tag k="name" v="Kollvasselva" />
		<tag k="name:no" v="Kollvasselva" />
		<tag k="ssr:stedsnr" v="542197" />
		<tag k="waterway" v="stream" />
	</node>
	<node lat="68.64051389001797" lon="17.923566661523978" id="-32949">
		<tag k="name" v="Tverrelva" />
		<tag k="name:no" v="Tverrelva" />
		<tag k="ssr:stedsnr" v="543594" />
		<tag k="waterway" v="stream" />
	</node>
	<node lat="68.71788055308873" lon="17.88842776462282" id="-32955">
		<tag k="name" v="Gihttejohka" />
		<tag k="name:se" v="Gihttejohka" />
		<tag k="ssr:stedsnr" v="563614" />
		<tag k="waterway" v="stream" />
	</node>
	<node lat="68.7814222218321" lon="17.818394431781496" id="-32959">
		<tag k="name" v="Soløyelva" />
		<tag k="name:no" v="Soløyelva" />
		<tag k="ssr:stedsnr" v="563753" />
		<tag k="waterway" v="stream" />
	</node>
	<node lat="68.76001111063132" lon="17.72636665394197" id="-32961">
		<tag k="loc_name:se" v="Riehppejohka" />
		<tag k="name" v="Sandneselva" />
		<tag k="name:no" v="Sandneselva" />
		<tag k="ssr:stedsnr" v="563772" />
		<tag k="waterway" v="river" />
	</node>
	<node lat="68.76954167046397" lon="17.736522223301552" id="-32962">
		<tag k="alt_name:no" v="Gårdelva, store" />
		<tag k="fixme" v="multiple name tags, choose one and add the other to alt_name" />
		<tag k="name" v="Gårdselva;Store Gårdelva" />
		<tag k="name:no" v="Gårdselva;Store Gårdelva" />
		<tag k="ssr:stedsnr" v="563762" />
		<tag k="waterway" v="stream" />
	</node>
	<node lat="68.74383314593466" lon="17.79390764954115" id="-32983">
		<tag k="name" v="Myrelva" />
		<tag k="name:no" v="Myrelva" />
		<tag k="ssr:stedsnr" v="604275" />
		<tag k="waterway" v="stream" />
	</node>
	<node lat="68.71525277848446" lon="17.790544439189198" id="-32990">
		<tag k="name" v="Forhaugelva" />
		<tag k="name:no" v="Forhaugelva" />
		<tag k="ssr:stedsnr" v="624573" />
		<tag k="waterway" v="stream" />
	</node>
	<node lat="68.6780888935517" lon="17.889330544538865" id="-33001">
		<tag k="name" v="Sennekjosen" />
		<tag k="name:no" v="Sennekjosen" />
		<tag k="natural" v="bay" />
		<tag k="ssr:stedsnr" v="632589" />
	</node>
	<node lat="68.65583889209402" lon="17.89483889854158" id="-33024">
		<tag k="name" v="Slipsteinbekken" />
		<tag k="name:no" v="Slipsteinbekken" />
		<tag k="ssr:stedsnr" v="665579" />
		<tag k="waterway" v="stream" />
	</node>
	<node lat="68.79548611334164" lon="17.562766655449494" id="-33026">
		<tag k="name" v="Karielva" />
		<tag k="name:no" v="Karielva" />
		<tag k="ssr:stedsnr" v="724196" />
		<tag k="waterway" v="stream" />
	</node>
	<node lat="68.69626944436827" lon="17.98216110017971" id="-33027">
		<tag k="name" v="Holman" />
		<tag k="name:no" v="Holman" />
		<tag k="place" v="islet" />
		<tag k="ssr:stedsnr" v="724739" />
	</node>
	<node lat="68.73467499962011" lon="17.808577763246685" id="-33029">
		<tag k="name" v="Neset" />
		<tag k="name:no" v="Neset" />
		<tag k="natural" v="cape" />
		<tag k="ssr:stedsnr" v="724476" />
	</node>
	<node lat="68.66452777904529" lon="17.907916661677632" id="-33047">
		<tag k="name" v="Stormyrloken" />
		<tag k="name:no" v="Stormyrloken" />
		<tag k="ssr:stedsnr" v="726557" />
		<tag k="waterway" v="stream" />
	</node>
	<node lat="68.72718055256637" lon="17.73169722766238" id="-33050">
		<tag k="name" v="Svartelva" />
		<tag k="name:no" v="Svartelva" />
		<tag k="ssr:stedsnr" v="746922" />
		<tag k="waterway" v="stream" />
	</node>
	<node lat="68.74749999527509" lon="17.815091672926396" id="-33060">
		<tag k="name" v="Kalvøyra" />
		<tag k="name:no" v="Kalvøyra" />
		<tag k="natural" v="cape" />
		<tag k="ssr:stedsnr" v="785436" />
	</node>
	<node lat="68.6717861102702" lon="17.874116659611225" id="-33074">
		<tag k="name" v="Bukkemyrbekken" />
		<tag k="name:no" v="Bukkemyrbekken" />
		<tag k="ssr:stedsnr" v="786541" />
		<tag k="waterway" v="stream" />
	</node>
	<node lat="68.65391389355713" lon="17.908188878385126" id="-33079">
		<tag k="name" v="Odden" />
		<tag k="name:no" v="Odden" />
		<tag k="natural" v="cape" />
		<tag k="ssr:stedsnr" v="786641" />
	</node>
	<node lat="68.80641388909751" lon="17.74215555101553" id="-33082">
		<tag k="loc_name:se" v="Gámaviikajohka;Gámajohka" />
		<tag k="name" v="Gamvikelva" />
		<tag k="name:no" v="Gamvikelva" />
		<tag k="ssr:stedsnr" v="806724" />
		<tag k="waterway" v="stream" />
	</node>
	<node lat="68.77145555552477" lon="17.562477785659905" id="-33084">
		<tag k="name" v="Rundvatnet" />
		<tag k="name:no" v="Rundvatnet" />
		<tag k="natural" v="water" />
		<tag k="ssr:stedsnr" v="807699" />
	</node>
	<node lat="68.73891666378768" lon="17.802877783783117" id="-33098">
		<tag k="name" v="Middagshølla" />
		<tag k="name:no" v="Middagshølla" />
		<tag k="place" v="locality" />
		<tag k="ssr:stedsnr" v="846438" />
	</node>
	<node lat="68.73527500393735" lon="17.7617916754674" id="-33099">
		<tag k="name" v="Kvitefossen" />
		<tag k="name:no" v="Kvitefossen" />
		<tag k="natural" v="waterfall" />
		<tag k="ssr:stedsnr" v="846448" />
	</node>
	<node lat="68.7878083355504" lon="17.80566945169403" id="-33108">
		<tag k="name" v="Tverrelva" />
		<tag k="name:no" v="Tverrelva" />
		<tag k="ssr:stedsnr" v="846544" />
		<tag k="waterway" v="stream" />
	</node>
	<node lat="68.74488333123423" lon="17.68043333929893" id="-33110">
		<tag k="name" v="Tverrelva" />
		<tag k="name:no" v="Tverrelva" />
		<tag k="ssr:stedsnr" v="847387" />
		<tag k="waterway" v="stream" />
	</node>
	<node lat="68.71469999926444" lon="17.89330277588643" id="-33120">
		<tag k="name" v="Sullot" />
		<tag k="name:se" v="Sullot" />
		<tag k="place" v="islet" />
		<tag k="ssr:stedsnr" v="866605" />
	</node>
	<node lat="68.7866805532938" lon="17.567575006254778" id="-33126">
		<tag k="name" v="Reinlandselva" />
		<tag k="name:no" v="Reinlandselva" />
		<tag k="ssr:stedsnr" v="867740" />
		<tag k="waterway" v="stream" />
	</node>
	<node lat="68.7975861102394" lon="17.534669438894856" id="-33144">
		<tag k="name" v="Skredelva" />
		<tag k="name:no" v="Skredelva" />
		<tag k="ssr:stedsnr" v="967167" />
		<tag k="waterway" v="stream" />
	</node>
	<node lat="68.72933888535663" lon="17.812058329450892" id="-33145">
		<tag k="name" v="Kryssholmen" />
		<tag k="name:no" v="Kryssholmen" />
		<tag k="place" v="islet" />
		<tag k="ssr:stedsnr" v="967469" />
	</node>
	<node lat="68.66128889260771" lon="17.914027778735413" id="-33155">
		<tag k="name" v="Staurloken" />
		<tag k="name:no" v="Staurloken" />
		<tag k="ssr:stedsnr" v="968558" />
		<tag k="waterway" v="stream" />
	</node>
	<node lat="68.66892022216697" lon="17.84675585920521" id="-33185">
		<tag k="loc_name:se" v="Suovdegaska" />
		<tag k="name" v="Suobdikčahca" />
		<tag k="name:se" v="Suobdikčahca" />
		<tag k="place" v="locality" />
		<tag k="ssr:stedsnr" v="1080289" />
=======
	<node id="-856967" lat="68.6669833319" lon="17.8411777767">
		<tag k="name" v="Bukkemyrvatnet" />
		<tag k="name:no" v="Bukkemyrvatnet" />
		<tag k="natural" v="water" />
		<tag k="ssr:stedsnr" v="260642" />
	</node>
	<node id="-857477" lat="68.7752241167" lon="17.6339903493">
		<tag k="name" v="Jonelva" />
		<tag k="name:no" v="Jonelva" />
		<tag k="ssr:stedsnr" v="382695" />
		<tag k="waterway" v="stream" />
	</node>
	<node id="-857476" lat="68.7511277792" lon="17.8632638775">
		<tag k="alt_name:no" v="Åsevatnet, l" />
		<tag k="name" v="Litle Åsevatnet" />
		<tag k="name:no" v="Litle Åsevatnet" />
		<tag k="natural" v="water" />
		<tag k="ssr:stedsnr" v="382616" />
	</node>
	<node id="-857475" lat="68.6397694462" lon="17.8472166521">
		<tag k="loc_name:se" v="Luohttojávri" />
		<tag k="name" v="Baikajávri - Lotvatnet" />
		<tag k="name:no" v="Lotvatnet" />
		<tag k="name:se" v="Baikajávri" />
		<tag k="natural" v="water" />
		<tag k="old_name:se" v="Baikajavri" />
		<tag k="ssr:stedsnr" v="382505" />
		<tag k="water" v="lake" />
	</node>
	<node id="-856962" lat="68.7647638896" lon="17.88868888">
		<tag k="alt_name:no" v="Lægdelva" />
		<tag k="name" v="Legdelva" />
		<tag k="name:no" v="Legdelva" />
		<tag k="ssr:stedsnr" v="443696" />
		<tag k="waterway" v="stream" />
	</node>
	<node id="-857472" lat="68.7929666687" lon="17.5248222122">
		<tag k="name" v="Sennevatnet" />
		<tag k="name:no" v="Sennevatnet" />
		<tag k="natural" v="water" />
		<tag k="ssr:stedsnr" v="381750" />
	</node>
	<node id="-856959" lat="68.7802361083" lon="17.600491654">
		<tag k="name" v="Finneneselva" />
		<tag k="name:no" v="Finneneselva" />
		<tag k="ssr:stedsnr" v="442753" />
		<tag k="waterway" v="stream" />
	</node>
	<node id="-856957" lat="68.798462409" lon="17.7688975936">
		<tag k="alt_name:no" v="Holmelva" />
		<tag k="name" v="Holmebekken" />
		<tag k="name:no" v="Holmebekken" />
		<tag k="ssr:stedsnr" v="442741" />
		<tag k="waterway" v="stream" />
	</node>
	<node id="-857066" lat="68.6558388921" lon="17.8948388985">
		<tag k="name" v="Slipsteinbekken" />
		<tag k="name:no" v="Slipsteinbekken" />
		<tag k="ssr:stedsnr" v="665579" />
		<tag k="waterway" v="stream" />
	</node>
	<node id="-856954" lat="68.8098722257" lon="17.8519750075">
		<tag k="name" v="Loabákáidi - Lavangseidet" />
		<tag k="name:no" v="Lavangseidet" />
		<tag k="name:se" v="Loabákáidi" />
		<tag k="natural" v="strait" />
		<tag k="ssr:stedsnr" v="442711" />
	</node>
	<node id="-856952" lat="68.7190777796" lon="17.854405562">
		<tag k="name" v="Saraelva" />
		<tag k="name:no" v="Saraelva" />
		<tag k="ssr:stedsnr" v="442629" />
		<tag k="waterway" v="stream" />
	</node>
	<node id="-856951" lat="68.6185472221" lon="17.7978749961">
		<tag k="alt_name:no" v="Britavatnet, l" />
		<tag k="name" v="Litle Britavatnet" />
		<tag k="name:no" v="Litle Britavatnet" />
		<tag k="natural" v="water" />
		<tag k="ssr:stedsnr" v="442553" />
	</node>
	<node id="-856949" lat="68.6994138922" lon="18.0098638795">
		<tag k="name" v="Bakdalsbekken" />
		<tag k="name:no" v="Bakdalsbekken" />
		<tag k="ssr:stedsnr" v="442360" />
		<tag k="waterway" v="stream" />
	</node>
	<node id="-856948" lat="68.6856388911" lon="17.96702221">
		<tag k="name" v="Iverfossen" />
		<tag k="name:no" v="Iverfossen" />
		<tag k="natural" v="waterfall" />
		<tag k="ssr:stedsnr" v="441699" />
	</node>
	<node id="-856946" lat="68.7655777781" lon="17.7168222192">
		<tag k="name" v="Lomvatnet" />
		<tag k="name:no" v="Lomvatnet" />
		<tag k="natural" v="water" />
		<tag k="ssr:stedsnr" v="200716" />
	</node>
	<node id="-856942" lat="68.7407722222" lon="17.762052783">
		<tag k="name" v="Reingjerdelva" />
		<tag k="name:no" v="Reingjerdelva" />
		<tag k="ssr:stedsnr" v="179369" />
		<tag k="waterway" v="stream" />
	</node>
	<node id="-857714" lat="68.7866805533" lon="17.5675750063">
		<tag k="name" v="Reinlandselva" />
		<tag k="name:no" v="Reinlandselva" />
		<tag k="ssr:stedsnr" v="867740" />
		<tag k="waterway" v="stream" />
	</node>
	<node id="-857445" lat="68.739855555" lon="17.8720805437">
		<tag k="name" v="Åsevatnet" />
		<tag k="name:no" v="Åsevatnet" />
		<tag k="natural" v="water" />
		<tag k="ssr:stedsnr" v="321922" />
		<tag k="water" v="lake" />
	</node>
	<node id="-857444" lat="68.7640972258" lon="17.9202444489">
		<tag k="name" v="Lægdevatnet" />
		<tag k="name:no" v="Lægdevatnet" />
		<tag k="natural" v="water" />
		<tag k="ssr:stedsnr" v="321702" />
	</node>
	<node id="-857441" lat="68.8010861127" lon="17.7010472155">
		<tag k="alt_name:no" v="Bjørneslettelva" />
		<tag k="name" v="Bjørnslettelva" />
		<tag k="name:no" v="Bjørnslettelva" />
		<tag k="ssr:stedsnr" v="321673" />
		<tag k="waterway" v="stream" />
	</node>
	<node id="-857440" lat="68.8100416647" lon="17.652219434">
		<tag k="name" v="Småvatnan" />
		<tag k="name:no" v="Småvatnan" />
		<tag k="natural" v="water" />
		<tag k="ssr:stedsnr" v="321670" />
		<tag k="water" v="lake" />
	</node>
	<node id="-857436" lat="68.6092694495" lon="17.8466555422">
		<tag k="name" v="Riikojávri - Grasvatnet" />
		<tag k="name:no" v="Grasvatnet" />
		<tag k="name:se" v="Riikojávri" />
		<tag k="natural" v="water" />
		<tag k="old_name:se" v="Riikujavri" />
		<tag k="ssr:stedsnr" v="321525" />
		<tag k="water" v="lake" />
	</node>
	<node id="-857435" lat="68.6414777746" lon="17.8753249842">
		<tag k="fixme" v="multiple name tags, choose one and add the other to alt_name" />
		<tag k="loc_name:se" v="Luohttojohka" />
		<tag k="name" v="Baikajohka - Lotelva;Tverrelva" />
		<tag k="name:no" v="Lotelva;Tverrelva" />
		<tag k="name:se" v="Baikajohka" />
		<tag k="old_name:se" v="Baikajåkka" />
		<tag k="ssr:stedsnr" v="321478" />
		<tag k="waterway" v="stream" />
	</node>
	<node id="-857432" lat="68.6936611145" lon="18.0349111057">
		<tag k="name" v="Lappjordvatnet" />
		<tag k="name:no" v="Lappjordvatnet" />
		<tag k="natural" v="water" />
		<tag k="ssr:stedsnr" v="321333" />
	</node>
	<node id="-857427" lat="68.7194000036" lon="17.8608722266">
		<tag k="name" v="Sullo" />
		<tag k="name:se" v="Sullo" />
		<tag k="place" v="islet" />
		<tag k="ssr:stedsnr" v="301600" />
	</node>
	<node id="-856912" lat="68.7861944434" lon="17.5349083384">
		<tag k="alt_name:no" v="Vardhaugvatnet" />
		<tag k="name" v="Vardhågvatnet" />
		<tag k="name:no" v="Vardhågvatnet" />
		<tag k="natural" v="water" />
		<tag k="ssr:stedsnr" v="260762" />
	</node>
	<node id="-856911" lat="68.7905944443" lon="17.5280722098">
		<tag k="alt_name:no" v="Hollebåtvatnet" />
		<tag k="name" v="Holbåtvatnet" />
		<tag k="name:no" v="Holbåtvatnet" />
		<tag k="natural" v="water" />
		<tag k="ssr:stedsnr" v="260760" />
	</node>
	<node id="-857420" lat="68.7104277764" lon="17.9401527788">
		<tag k="loc_name:se" v="Mielkejohka" />
		<tag k="name" v="Melkeelva" />
		<tag k="name:no" v="Melkeelva" />
		<tag k="ssr:stedsnr" v="205632" />
		<tag k="waterway" v="stream" />
	</node>
	<node id="-857416" lat="68.796069446" lon="17.487294446">
		<tag k="name" v="Storvatnet" />
		<tag k="name:no" v="Storvatnet" />
		<tag k="natural" v="water" />
		<tag k="ssr:stedsnr" v="200696" />
		<tag k="water" v="lake" />
	</node>
	<node id="-857413" lat="68.7151333309" lon="17.7555694393">
		<tag k="name" v="Middagselva" />
		<tag k="name:no" v="Middagselva" />
		<tag k="ssr:stedsnr" v="199599" />
		<tag k="waterway" v="stream" />
	</node>
	<node id="-857412" lat="68.7173555509" lon="17.8189500033">
		<tag k="name" v="Tverrelva" />
		<tag k="name:no" v="Tverrelva" />
		<tag k="ssr:stedsnr" v="199585" />
		<tag k="waterway" v="stream" />
	</node>
	<node id="-856898" lat="68.75436389" lon="17.7750972264">
		<tag k="name" v="Finneselva" />
		<tag k="name:no" v="Finneselva" />
		<tag k="ssr:stedsnr" v="240295" />
		<tag k="waterway" v="stream" />
	</node>
	<node id="-856893" lat="68.7801194443" lon="17.6000416724">
		<tag k="name" v="Johanelva" />
		<tag k="name:no" v="Johanelva" />
		<tag k="ssr:stedsnr" v="240263" />
		<tag k="waterway" v="stream" />
	</node>
	<node id="-857401" lat="68.6853749995" lon="17.9783888907">
		<tag k="name" v="Eggbekken" />
		<tag k="name:no" v="Eggbekken" />
		<tag k="ssr:stedsnr" v="178669" />
		<tag k="waterway" v="stream" />
	</node>
	<node id="-857397" lat="68.7984083314" lon="17.7997416575">
		<tag k="name" v="Gommelva" />
		<tag k="name:no" v="Gommelva" />
		<tag k="ssr:stedsnr" v="178389" />
		<tag k="waterway" v="stream" />
	</node>
	<node id="-857396" lat="68.8006472192" lon="17.8066944283">
		<tag k="name" v="Litjenavarselva" />
		<tag k="name:no" v="Litjenavarselva" />
		<tag k="ssr:stedsnr" v="178386" />
		<tag k="waterway" v="stream" />
	</node>
	<node id="-857393" lat="68.7901194413" lon="17.546013878">
		<tag k="name" v="Ingerelva" />
		<tag k="name:no" v="Ingerelva" />
		<tag k="ssr:stedsnr" v="178199" />
		<tag k="waterway" v="stream" />
	</node>
	<node id="-856879" lat="68.7303972181" lon="17.80719723">
		<tag k="name" v="Middagsmarka" />
		<tag k="name:no" v="Middagsmarka" />
		<tag k="natural" v="water" />
		<tag k="ssr:stedsnr" v="239487" />
	</node>
	<node id="-857385" lat="68.7775305604" lon="17.8805583237">
		<tag k="name" v="Gorssasjohka - Styggedalselva" />
		<tag k="name:no" v="Styggedalselva" />
		<tag k="name:se" v="Gorssasjohka" />
		<tag k="ssr:stedsnr" v="139683" />
		<tag k="waterway" v="stream" />
	</node>
	<node id="-857379" lat="68.6936250025" lon="18.0065166682">
		<tag k="name" v="Styggedalsbekken" />
		<tag k="name:no" v="Styggedalsbekken" />
		<tag k="ssr:stedsnr" v="138377" />
		<tag k="waterway" v="stream" />
	</node>
	<node id="-857378" lat="68.7083194431" lon="17.9642555422">
		<tag k="name" v="Skredranelva" />
		<tag k="name:no" v="Skredranelva" />
		<tag k="ssr:stedsnr" v="119638" />
		<tag k="waterway" v="stream" />
	</node>
	<node id="-856965" lat="68.701875003" lon="17.7365527828">
		<tag k="name" v="Jalgesáidi - Fjordbotneidet" />
		<tag k="name:no" v="Fjordbotneidet" />
		<tag k="name:se" v="Jalgesáidi" />
		<tag k="natural" v="strait" />
		<tag k="old_name:se" v="Jalgesaidi" />
		<tag k="ssr:stedsnr" v="260604" />
	</node>
	<node id="-857372" lat="68.7575944489" lon="17.7718138772">
		<tag k="name" v="Bekkelva" />
		<tag k="name:no" v="Bekkelva" />
		<tag k="ssr:stedsnr" v="119406" />
		<tag k="waterway" v="stream" />
	</node>
	<node id="-857689" lat="68.7878083356" lon="17.8056694517">
		<tag k="name" v="Tverrelva" />
		<tag k="name:no" v="Tverrelva" />
		<tag k="ssr:stedsnr" v="846544" />
		<tag k="waterway" v="stream" />
	</node>
	<node id="-856854" lat="68.686008335" lon="18.0163388751">
		<tag k="alt_name:no" v="Kolbranselva" />
		<tag k="fixme" v="multiple name tags, choose one and add the other to alt_name" />
		<tag k="name" v="Tverrelva;Kolbanelva" />
		<tag k="name:no" v="Tverrelva;Kolbanelva" />
		<tag k="ssr:stedsnr" v="18318" />
		<tag k="waterway" v="river" />
	</node>
	<node id="-857363" lat="68.7595361077" lon="17.7068250074">
		<tag k="name" v="Rendalsbekken" />
		<tag k="name:no" v="Rendalsbekken" />
		<tag k="ssr:stedsnr" v="119387" />
		<tag k="waterway" v="stream" />
	</node>
	<node id="-857350" lat="68.690152774" lon="18.0157027821">
		<tag k="name" v="Sæterhaugvatnet" />
		<tag k="name:no" v="Sæterhaugvatnet" />
		<tag k="natural" v="water" />
		<tag k="ssr:stedsnr" v="111700" />
	</node>
	<node id="-856991" lat="68.7381027803" lon="17.8242944416">
		<tag k="name" v="Tømmerelva" />
		<tag k="name:no" v="Tømmerelva" />
		<tag k="ssr:stedsnr" v="481488" />
		<tag k="waterway" v="stream" />
	</node>
	<node id="-857341" lat="68.7696833314" lon="17.8891527845">
		<tag k="alt_name:no" v="Austavindselva" />
		<tag k="name" v="Austadvindelva" />
		<tag k="name:no" v="Austadvindelva" />
		<tag k="ssr:stedsnr" v="79690" />
		<tag k="waterway" v="stream" />
	</node>
	<node id="-857338" lat="68.7778333375" lon="17.5244666584">
		<tag k="alt_name:no" v="Tålevatnet" />
		<tag k="name" v="Tårlevatnet" />
		<tag k="name:no" v="Tårlevatnet" />
		<tag k="natural" v="water" />
		<tag k="ssr:stedsnr" v="78731" />
		<tag k="water" v="lake" />
	</node>
	<node id="-857471" lat="68.7930611147" lon="17.5214860981">
		<tag k="name" v="Plasselva" />
		<tag k="name:no" v="Plasselva" />
		<tag k="ssr:stedsnr" v="381749" />
		<tag k="waterway" v="river" />
	</node>
	<node id="-857335" lat="68.6972611082" lon="17.7952416602">
		<tag k="name" v="Middagsselvvatnan" />
		<tag k="name:no" v="Middagsselvvatnan" />
		<tag k="natural" v="water" />
		<tag k="ssr:stedsnr" v="78576" />
	</node>
	<node id="-857330" lat="68.6693805529" lon="17.9279527675">
		<tag k="name" v="Finnmyrbekken" />
		<tag k="name:no" v="Finnmyrbekken" />
		<tag k="ssr:stedsnr" v="58565" />
		<tag k="waterway" v="stream" />
	</node>
	<node id="-857326" lat="68.7500055556" lon="17.7835860982">
		<tag k="name" v="Skjellbekken" />
		<tag k="name:no" v="Skjellbekken" />
		<tag k="ssr:stedsnr" v="58313" />
		<tag k="waterway" v="stream" />
	</node>
	<node id="-857322" lat="68.7170472196" lon="17.7554361134">
		<tag k="name" v="Sletteidet" />
		<tag k="name:no" v="Sletteidet" />
		<tag k="natural" v="strait" />
		<tag k="ssr:stedsnr" v="58184" />
	</node>
	<node id="-856955" lat="68.8096249971" lon="17.6219527804">
		<tag k="name" v="Elveneselva" />
		<tag k="name:no" v="Elveneselva" />
		<tag k="ssr:stedsnr" v="442719" />
		<tag k="waterway" v="stream" />
	</node>
	<node id="-857312" lat="68.7707027769" lon="17.8390055411">
		<tag k="name" v="Mølnelva" />
		<tag k="name:no" v="Mølnelva" />
		<tag k="ssr:stedsnr" v="57534" />
		<tag k="waterway" v="stream" />
	</node>
	<node id="-857305" lat="68.7353666677" lon="17.7906361163">
		<tag k="name" v="Bruporten" />
		<tag k="name:no" v="Bruporten" />
		<tag k="ssr:stedsnr" v="57441" />
		<tag k="waterway" v="stream" />
	</node>
	<node id="-857295" lat="68.812994441" lon="17.8495472233">
		<tag k="name" v="Fjellelva" />
		<tag k="name:no" v="Fjellelva" />
		<tag k="ssr:stedsnr" v="56215" />
		<tag k="waterway" v="stream" />
	</node>
	<node id="-856866" lat="68.7437583309" lon="17.8085333289">
		<tag k="name" v="Tørrkjerrholmen" />
		<tag k="name:no" v="Tørrkjerrholmen" />
		<tag k="natural" v="cape" />
		<tag k="ssr:stedsnr" v="239290" />
	</node>
	<node id="-857288" lat="68.7822000028" lon="17.5043416669">
		<tag k="name" v="Kollvatnet" />
		<tag k="name:no" v="Kollvatnet" />
		<tag k="natural" v="water" />
		<tag k="ssr:stedsnr" v="18651" />
	</node>
	<node id="-857283" lat="68.6225737075" lon="17.8742023043">
		<tag k="name" v="Småvatnan" />
		<tag k="name:no" v="Småvatnan" />
		<tag k="natural" v="water" />
		<tag k="ssr:stedsnr" v="18471" />
		<tag k="water" v="lake" />
	</node>
	<node id="-857282" lat="68.7554555558" lon="17.6760361083">
		<tag k="name" v="Tverrelva" />
		<tag k="name:no" v="Tverrelva" />
		<tag k="ssr:stedsnr" v="18247" />
		<tag k="waterway" v="stream" />
	</node>
	<node id="-857280" lat="68.6983555543" lon="17.8460805637">
		<tag k="name" v="Spanstindvatnet" />
		<tag k="name:no" v="Spanstindvatnet" />
		<tag k="natural" v="water" />
		<tag k="ssr:stedsnr" v="17572" />
	</node>
	<node id="-857120" lat="68.7966666628" lon="17.4857722237">
		<tag k="name" v="Holmen" />
		<tag k="name:no" v="Holmen" />
		<tag k="place" v="islet" />
		<tag k="ssr:stedsnr" v="602208" />
	</node>
	<node id="-857278" lat="68.6612888926" lon="17.9140277787">
		<tag k="name" v="Staurloken" />
		<tag k="name:no" v="Staurloken" />
		<tag k="ssr:stedsnr" v="968558" />
		<tag k="waterway" v="stream" />
	</node>
	<node id="-857272" lat="68.7293388854" lon="17.8120583295">
		<tag k="name" v="Kryssholmen" />
		<tag k="name:no" v="Kryssholmen" />
		<tag k="place" v="islet" />
		<tag k="ssr:stedsnr" v="967469" />
	</node>
	<node id="-857271" lat="68.7975861102" lon="17.5346694389">
		<tag k="name" v="Skredelva" />
		<tag k="name:no" v="Skredelva" />
		<tag k="ssr:stedsnr" v="967167" />
		<tag k="waterway" v="stream" />
	</node>
	<node id="-856861" lat="68.7340777814" lon="17.8083055441">
		<tag k="name" v="Berghølla" />
		<tag k="name:no" v="Berghølla" />
		<tag k="place" v="locality" />
		<tag k="ssr:stedsnr" v="57429" />
	</node>
	<node id="-857259" lat="68.7313333375" lon="17.8217055605">
		<tag k="name" v="Drågelva" />
		<tag k="name:no" v="Drågelva" />
		<tag k="ssr:stedsnr" v="906506" />
		<tag k="waterway" v="stream" />
	</node>
	<node id="-857257" lat="68.8063305553" lon="17.7896499989">
		<tag k="name" v="Lomvatnet" />
		<tag k="name:no" v="Lomvatnet" />
		<tag k="natural" v="water" />
		<tag k="ssr:stedsnr" v="906413" />
	</node>
	<node id="-856860" lat="68.8026194477" lon="17.6689166544">
		<tag k="name" v="Mefeneselva" />
		<tag k="name:no" v="Mefeneselva" />
		<tag k="ssr:stedsnr" v="238212" />
		<tag k="waterway" v="stream" />
	</node>
	<node id="-857240" lat="68.7335388874" lon="17.6500972202">
		<tag k="name" v="Sandnesbotnelva" />
		<tag k="name:no" v="Sandnesbotnelva" />
		<tag k="ssr:stedsnr" v="928934" />
		<tag k="waterway" v="river" />
	</node>
	<node id="-857235" lat="68.7963194439" lon="17.8159666583">
		<tag k="name" v="Åelva" />
		<tag k="name:no" v="Åelva" />
		<tag k="ssr:stedsnr" v="928673" />
		<tag k="waterway" v="river" />
	</node>
	<node id="-857234" lat="68.8024277745" lon="17.7266833351">
		<tag k="name" v="Mølnelva" />
		<tag k="name:no" v="Mølnelva" />
		<tag k="ssr:stedsnr" v="928666" />
		<tag k="waterway" v="stream" />
	</node>
	<node id="-857233" lat="68.8099888895" lon="17.4745861201">
		<tag k="name" v="Mølnelva" />
		<tag k="name:no" v="Mølnelva" />
		<tag k="ssr:stedsnr" v="928660" />
		<tag k="waterway" v="stream" />
	</node>
	<node id="-857232" lat="68.6762194404" lon="17.8973277748">
		<tag k="name" v="Lapphaugvatnet" />
		<tag k="name:no" v="Lapphaugvatnet" />
		<tag k="natural" v="water" />
		<tag k="ssr:stedsnr" v="928575" />
	</node>
	<node id="-857231" lat="68.6298666691" lon="17.9331444339">
		<tag k="name" v="Stormyrelva" />
		<tag k="name:no" v="Stormyrelva" />
		<tag k="ssr:stedsnr" v="928461" />
		<tag k="waterway" v="river" />
	</node>
	<node id="-857229" lat="68.7595055513" lon="17.7460583313">
		<tag k="alt_name:no" v="Svartelva" />
		<tag k="name" v="Litje Sandneselva" />
		<tag k="name:no" v="Litje Sandneselva" />
		<tag k="ssr:stedsnr" v="928241" />
		<tag k="waterway" v="stream" />
	</node>
	<node id="-857227" lat="68.7201476231" lon="17.8592556243">
		<tag k="name" v="Olderneset" />
		<tag k="name:no" v="Olderneset" />
		<tag k="natural" v="cape" />
		<tag k="ssr:stedsnr" v="927939" />
	</node>
	<node id="-857025" lat="68.7186972198" lon="17.8471916567">
		<tag k="name" v="Saraelva" />
		<tag k="name:no" v="Saraelva" />
		<tag k="ssr:stedsnr" v="361653" />
		<tag k="waterway" v="stream" />
	</node>
	<node id="-857209" lat="68.7222444474" lon="17.8444555444">
		<tag k="name" v="Njárga" />
		<tag k="name:se" v="Njárga" />
		<tag k="natural" v="cape" />
		<tag k="ssr:stedsnr" v="906746" />
	</node>
	<node id="-857208" lat="68.7281833313" lon="17.8706027697">
		<tag k="name" v="Skáidi" />
		<tag k="name:se" v="Skáidi" />
		<tag k="natural" v="cape" />
		<tag k="ssr:stedsnr" v="906738" />
	</node>
	<node id="-857203" lat="68.7435166712" lon="17.8177305425">
		<tag k="name" v="Rødvollbekken" />
		<tag k="name:no" v="Rødvollbekken" />
		<tag k="ssr:stedsnr" v="906499" />
		<tag k="waterway" v="stream" />
	</node>
	<node id="-857202" lat="68.7330611088" lon="17.8127249856">
		<tag k="name" v="Løelva" />
		<tag k="name:no" v="Løelva" />
		<tag k="ssr:stedsnr" v="906495" />
		<tag k="waterway" v="stream" />
	</node>
	<node id="-856928" lat="68.7081416657" lon="17.9532666605">
		<tag k="loc_name:se" v="Jorbajávri" />
		<tag k="name" v="Rundvatnet" />
		<tag k="name:no" v="Rundvatnet" />
		<tag k="natural" v="water" />
		<tag k="ssr:stedsnr" v="266596" />
	</node>
	<node id="-857708" lat="68.7146999993" lon="17.8933027759">
		<tag k="name" v="Sullot" />
		<tag k="name:se" v="Sullot" />
		<tag k="place" v="islet" />
		<tag k="ssr:stedsnr" v="866605" />
	</node>
	<node id="-857191" lat="68.731525001" lon="17.809172225">
		<tag k="alt_name:no" v="Spanselva" />
		<tag k="name" v="Ruŋgujohka - Spansdalselva" />
		<tag k="name:no" v="Spansdalselva" />
		<tag k="name:se" v="Ruŋgujohka" />
		<tag k="ssr:stedsnr" v="745569" />
		<tag k="waterway" v="river" />
	</node>
	<node id="-857702" lat="68.7448833312" lon="17.6804333393">
		<tag k="name" v="Tverrelva" />
		<tag k="name:no" v="Tverrelva" />
		<tag k="ssr:stedsnr" v="847387" />
		<tag k="waterway" v="stream" />
	</node>
	<node id="-857188" lat="68.7881166668" lon="17.588733342">
		<tag k="name" v="Neselva" />
		<tag k="name:no" v="Neselva" />
		<tag k="ssr:stedsnr" v="906232" />
		<tag k="waterway" v="stream" />
	</node>
	<node id="-857183" lat="68.664527779" lon="17.9079166617">
		<tag k="name" v="Stormyrloken" />
		<tag k="name:no" v="Stormyrloken" />
		<tag k="ssr:stedsnr" v="726557" />
		<tag k="waterway" v="stream" />
	</node>
	<node id="-857179" lat="68.8138527793" lon="17.8549694449">
		<tag k="name" v="Skillajohka" />
		<tag k="name:se" v="Skillajohka" />
		<tag k="ssr:stedsnr" v="724203" />
		<tag k="waterway" v="stream" />
	</node>
	<node id="-857177" lat="68.7685444487" lon="17.8610444398">
		<tag k="name" v="Hesjevikelva" />
		<tag k="name:no" v="Hesjevikelva" />
		<tag k="ssr:stedsnr" v="685711" />
		<tag k="waterway" v="river" />
	</node>
	<node id="-857175" lat="68.7757416647" lon="17.6226416713">
		<tag k="name" v="Keiprødelva" />
		<tag k="name:no" v="Keiprødelva" />
		<tag k="ssr:stedsnr" v="685705" />
		<tag k="waterway" v="stream" />
	</node>
	<node id="-857174" lat="68.772574997" lon="17.6450555534">
		<tag k="name" v="Hestneselva" />
		<tag k="name:no" v="Hestneselva" />
		<tag k="ssr:stedsnr" v="685704" />
		<tag k="waterway" v="stream" />
	</node>
	<node id="-857172" lat="68.7241861075" lon="17.8628194476">
		<tag k="name" v="Doaresjohka - Tverrelva" />
		<tag k="name:no" v="Tverrelva" />
		<tag k="name:se" v="Doaresjohka" />
		<tag k="ssr:stedsnr" v="299734" />
		<tag k="waterway" v="stream" />
	</node>
	<node id="-857682" lat="68.7352750039" lon="17.7617916755">
		<tag k="name" v="Kvitefossen" />
		<tag k="name:no" v="Kvitefossen" />
		<tag k="natural" v="waterfall" />
		<tag k="ssr:stedsnr" v="846448" />
	</node>
	<node id="-857681" lat="68.7389166638" lon="17.8028777838">
		<tag k="name" v="Middagshølla" />
		<tag k="name:no" v="Middagshølla" />
		<tag k="place" v="locality" />
		<tag k="ssr:stedsnr" v="846438" />
	</node>
	<node id="-856932" lat="68.7380138919" lon="17.8354361122">
		<tag k="name" v="Tømmerelva" />
		<tag k="name:no" v="Tømmerelva" />
		<tag k="ssr:stedsnr" v="147766" />
		<tag k="waterway" v="stream" />
	</node>
	<node id="-857672" lat="68.7919916629" lon="17.4986860977">
		<tag k="name" v="Langneset" />
		<tag k="name:no" v="Langneset" />
		<tag k="natural" v="cape" />
		<tag k="ssr:stedsnr" v="846184" />
	</node>
	<node id="-857669" lat="68.7714555555" lon="17.5624777857">
		<tag k="name" v="Rundvatnet" />
		<tag k="name:no" v="Rundvatnet" />
		<tag k="natural" v="water" />
		<tag k="ssr:stedsnr" v="807699" />
	</node>
	<node id="-857154" lat="68.6962694444" lon="17.9821611002">
		<tag k="name" v="Holman" />
		<tag k="name:no" v="Holman" />
		<tag k="place" v="islet" />
		<tag k="ssr:stedsnr" v="724739" />
	</node>
	<node id="-857665" lat="68.8064138891" lon="17.742155551">
		<tag k="name" v="Gamvikelva" />
		<tag k="name:no" v="Gamvikelva" />
		<tag k="ssr:stedsnr" v="806724" />
		<tag k="waterway" v="stream" />
	</node>
	<node id="-857663" lat="68.7151027797" lon="17.8483888795">
		<tag k="loc_name:se" v="Heandrihkágorži" />
		<tag k="name" v="Henrikafossen" />
		<tag k="name:no" v="Henrikafossen" />
		<tag k="natural" v="waterfall" />
		<tag k="ssr:stedsnr" v="786652" />
	</node>
	<node id="-857661" lat="68.6539138936" lon="17.9081888784">
		<tag k="name" v="Odden" />
		<tag k="name:no" v="Odden" />
		<tag k="natural" v="cape" />
		<tag k="ssr:stedsnr" v="786641" />
	</node>
	<node id="-857657" lat="68.6717861103" lon="17.8741166596">
		<tag k="name" v="Bukkemyrbekken" />
		<tag k="name:no" v="Bukkemyrbekken" />
		<tag k="ssr:stedsnr" v="786541" />
		<tag k="waterway" v="stream" />
	</node>
	<node id="-857012" lat="68.7483666705" lon="17.8083722258">
		<tag k="name" v="Orneselva" />
		<tag k="name:no" v="Orneselva" />
		<tag k="ssr:stedsnr" v="360266" />
		<tag k="waterway" v="stream" />
	</node>
	<node id="-857140" lat="68.7346749996" lon="17.8085777632">
		<tag k="name" v="Neset" />
		<tag k="name:no" v="Neset" />
		<tag k="natural" v="cape" />
		<tag k="ssr:stedsnr" v="724476" />
	</node>
	<node id="-857139" lat="68.7277166652" lon="17.7896805484">
		<tag k="name" v="Sanddiket" />
		<tag k="name:no" v="Sanddiket" />
		<tag k="ssr:stedsnr" v="724472" />
		<tag k="waterway" v="stream" />
	</node>
	<node id="-857134" lat="68.7954861133" lon="17.5627666554">
		<tag k="name" v="Karielva" />
		<tag k="name:no" v="Karielva" />
		<tag k="ssr:stedsnr" v="724196" />
		<tag k="waterway" v="stream" />
	</node>
	<node id="-857635" lat="68.7474999953" lon="17.8150916729">
		<tag k="name" v="Kalvøyra" />
		<tag k="name:no" v="Kalvøyra" />
		<tag k="natural" v="cape" />
		<tag k="ssr:stedsnr" v="785436" />
	</node>
	<node id="-857632" lat="68.7371694462" lon="17.8075055429">
		<tag k="name" v="Tyttebærhølla" />
		<tag k="name:no" v="Tyttebærhølla" />
		<tag k="place" v="locality" />
		<tag k="ssr:stedsnr" v="785420" />
	</node>
	<node id="-857631" lat="68.7394194473" lon="17.8114249949">
		<tag k="name" v="Grindneset" />
		<tag k="name:no" v="Grindneset" />
		<tag k="natural" v="cape" />
		<tag k="ssr:stedsnr" v="785419" />
	</node>
	<node id="-857116" lat="68.7506611097" lon="17.8113110978">
		<tag k="name" v="Leirholman" />
		<tag k="name:no" v="Leirholman" />
		<tag k="natural" v="cape" />
		<tag k="ssr:stedsnr" v="299489" />
	</node>
	<node id="-857627" lat="68.7833444419" lon="17.5188499959">
		<tag k="name" v="Tårleelva" />
		<tag k="name:no" v="Tårleelva" />
		<tag k="ssr:stedsnr" v="785200" />
		<tag k="waterway" v="stream" />
	</node>
	<node id="-857621" lat="68.7271805526" lon="17.7316972277">
		<tag k="name" v="Svartelva" />
		<tag k="name:no" v="Svartelva" />
		<tag k="ssr:stedsnr" v="746922" />
		<tag k="waterway" v="stream" />
	</node>
	<node id="-857619" lat="68.7465083315" lon="17.6150944311">
		<tag k="name" v="Storelvvatnet" />
		<tag k="name:no" v="Storelvvatnet" />
		<tag k="natural" v="water" />
		<tag k="ssr:stedsnr" v="746881" />
	</node>
	<node id="-857106" lat="68.7965527768" lon="17.7162916759">
		<tag k="name" v="Gardselva" />
		<tag k="name:no" v="Gardselva" />
		<tag k="ssr:stedsnr" v="542405" />
		<tag k="waterway" v="stream" />
	</node>
	<node id="-857615" lat="68.6780888936" lon="17.8893305445">
		<tag k="name" v="Sennekjosen" />
		<tag k="name:no" v="Sennekjosen" />
		<tag k="natural" v="bay" />
		<tag k="ssr:stedsnr" v="632589" />
	</node>
	<node id="-857098" lat="68.7749194422" lon="17.5379583315">
		<tag k="name" v="Reinlandsvatnet" />
		<tag k="name:no" v="Reinlandsvatnet" />
		<tag k="natural" v="water" />
		<tag k="ssr:stedsnr" v="685701" />
	</node>
	<node id="-857097" lat="68.7908611142" lon="17.4741194447">
		<tag k="fixme" v="multiple name tags, choose one and add the other to alt_name" />
		<tag k="name" v="Blåvatnet;Kollvatnet" />
		<tag k="name:no" v="Blåvatnet;Kollvatnet" />
		<tag k="natural" v="water" />
		<tag k="ssr:stedsnr" v="685690" />
		<tag k="water" v="lake" />
	</node>
	<node id="-857095" lat="68.8259694467" lon="17.7017694523">
		<tag k="name" v="Gamvikelvvatnan" />
		<tag k="name:no" v="Gamvikelvvatnan" />
		<tag k="natural" v="water" />
		<tag k="ssr:stedsnr" v="685669" />
		<tag k="water" v="lake" />
	</node>
	<node id="-857093" lat="68.8056083327" lon="17.8171694304">
		<tag k="name" v="Stornavarselva" />
		<tag k="name:no" v="Stornavarselva" />
		<tag k="ssr:stedsnr" v="299424" />
		<tag k="waterway" v="stream" />
	</node>
	<node id="-857090" lat="68.7992944472" lon="17.6968638916">
		<tag k="name" v="Nordelva" />
		<tag k="name:no" v="Nordelva" />
		<tag k="ssr:stedsnr" v="503653" />
		<tag k="waterway" v="stream" />
	</node>
	<node id="-857089" lat="68.7411138932" lon="17.7980611122">
		<tag k="name" v="Stordiket" />
		<tag k="name:no" v="Stordiket" />
		<tag k="ssr:stedsnr" v="299472" />
		<tag k="waterway" v="stream" />
>>>>>>> e1d4bc35ff8a6074a6f2e91616a996b547c36f15
	</node>
</osm>
