<?xml version="1.0" encoding="UTF-8"?>
<osm generator="osmapis" version="0.6">
	<node id="-17148" lat="59.4844972192" lon="11.0895583386">
		<tag k="name" v="Lundsbekken" />
		<tag k="ssr:stedsnr" v="265974" />
		<tag k="waterway" v="stream" />
	</node>
	<node id="-17144" lat="59.4476972222" lon="11.154830548">
		<tag k="name" v="Åmotspølen" />
		<tag k="natural" v="water" />
		<tag k="ssr:stedsnr" v="265935" />
	</node>
	<node id="-17271" lat="59.5405361085" lon="11.1472555468">
		<tag k="name" v="Torberrudbukta" />
		<tag k="natural" v="bay" />
		<tag k="ssr:stedsnr" v="689845" />
	</node>
	<node id="-17014" lat="59.4211000015" lon="11.1551972309">
		<tag k="alt_name" v="Tjernsbekktjern" />
		<tag k="name" v="Tjernsbekktjernet" />
		<tag k="natural" v="water" />
		<tag k="ssr:stedsnr" v="2176" />
	</node>
	<node id="-17141" lat="59.4741444425" lon="11.2211888934">
		<tag k="name" v="Skaustangen" />
		<tag k="natural" v="cape" />
		<tag k="ssr:stedsnr" v="265568" />
	</node>
	<node id="-17130" lat="59.4674222219" lon="11.0832305547">
		<tag k="alt_name" v="Trestikletjern" />
		<tag k="name" v="Trestriklet" />
		<tag k="natural" v="water" />
		<tag k="ssr:stedsnr" v="245697" />
	</node>
	<node id="-17000" lat="59.4502138873" lon="11.2012527725">
		<tag k="name" v="Sandbukta" />
		<tag k="natural" v="bay" />
		<tag k="ssr:stedsnr" v="386991" />
	</node>
	<node id="-17383" lat="59.4029638876" lon="11.1750916693">
		<tag k="name" v="Glennebukta" />
		<tag k="natural" v="bay" />
		<tag k="ssr:stedsnr" v="933743" />
	</node>
	<node id="-17252" lat="59.4372805518" lon="11.1921777751">
		<tag k="name" v="Lystadtangen" />
		<tag k="natural" v="cape" />
		<tag k="ssr:stedsnr" v="629530" />
	</node>
	<node id="-17378" lat="59.5270111068" lon="11.1536500033">
		<tag k="name" v="Librubekken" />
		<tag k="ssr:stedsnr" v="932832" />
		<tag k="waterway" v="stream" />
	</node>
	<node id="-16988" lat="59.5062722215" lon="11.1897777854">
		<tag k="alt_name" v="Haugensbekken" />
		<tag k="fixme" v="multiple name tags, choose one and add the other to alt_name" />
		<tag k="name" v="Haugesbekken;Rødsbekken" />
		<tag k="ssr:stedsnr" v="386482" />
		<tag k="waterway" v="stream" />
	</node>
	<node id="-17115" lat="59.4720805593" lon="11.21271112">
		<tag k="name" v="Engsbukta" />
		<tag k="natural" v="bay" />
		<tag k="ssr:stedsnr" v="204475" />
	</node>
	<node id="-17112" lat="59.4425194447" lon="11.1703138854">
		<tag k="name" v="Dalebekken" />
		<tag k="ssr:stedsnr" v="204459" />
		<tag k="waterway" v="stream" />
	</node>
	<node id="-17111" lat="59.4934583377" lon="11.2237999944">
		<tag k="name" v="Fossevja" />
		<tag k="natural" v="bay" />
		<tag k="ssr:stedsnr" v="204446" />
	</node>
	<node id="-16981" lat="59.4496305574" lon="11.2042249978">
		<tag k="name" v="Liverudtangen" />
		<tag k="natural" v="cape" />
		<tag k="ssr:stedsnr" v="366243" />
	</node>
	<node id="-16972" lat="59.4539944427" lon="11.1333944438">
		<tag k="name" v="Haugsbekken" />
		<tag k="ssr:stedsnr" v="326949" />
		<tag k="waterway" v="stream" />
	</node>
	<node id="-17226" lat="59.4652972207" lon="11.2087361052">
		<tag k="name" v="Ruenebukta" />
		<tag k="natural" v="bay" />
		<tag k="ssr:stedsnr" v="568531" />
	</node>
	<node id="-17223" lat="59.5364972203" lon="11.1671166697">
		<tag k="name" v="Trossvikbukta" />
		<tag k="natural" v="bay" />
		<tag k="ssr:stedsnr" v="567870" />
	</node>
	<node id="-16966" lat="59.4681694408" lon="11.1092799766">
		<tag k="name" v="Bogstjernet" />
		<tag k="natural" v="water" />
		<tag k="ssr:stedsnr" v="325962" />
	</node>
	<node id="-17091" lat="59.5180611137" lon="11.0794111165">
		<tag k="name" v="Mulerudtjern" />
		<tag k="natural" v="water" />
		<tag k="ssr:stedsnr" v="143849" />
	</node>
	<node id="-17087" lat="59.4295138878" lon="11.1797472309">
		<tag k="name" v="Storsand" />
		<tag k="natural" v="bay" />
		<tag k="ssr:stedsnr" v="143519" />
	</node>
	<node id="-16953" lat="59.4452749979" lon="11.1987472267">
		<tag k="name" v="Håkonskjer" />
		<tag k="place" v="islet" />
		<tag k="ssr:stedsnr" v="306189" />
	</node>
	<node id="-17336" lat="59.5192472244" lon="11.2065416652">
		<tag k="name" v="Aservika" />
		<tag k="natural" v="bay" />
		<tag k="ssr:stedsnr" v="812076" />
	</node>
	<node id="-17335" lat="59.4455666661" lon="11.1975666713">
		<tag k="name" v="Stuputlandet" />
		<tag k="natural" v="beach" />
		<tag k="ssr:stedsnr" v="811984" />
	</node>
	<node id="-16949" lat="59.4167000043" lon="11.138175004">
		<tag k="alt_name" v="Bergetjern" />
		<tag k="name" v="Bergatjern" />
		<tag k="natural" v="water" />
		<tag k="ssr:stedsnr" v="305124" />
	</node>
	<node id="-17076" lat="59.4724916657" lon="11.0744666741">
		<tag k="alt_name" v="Langetjern" />
		<tag k="name" v="Langtjernet" />
		<tag k="natural" v="water" />
		<tag k="ssr:stedsnr" v="123750" />
	</node>
	<node id="-17327" lat="59.5145472259" lon="11.1110249946">
		<tag k="name" v="Myretjern" />
		<tag k="natural" v="water" />
		<tag k="ssr:stedsnr" v="811839" />
	</node>
	<node id="-17067" lat="59.4606138878" lon="11.1643527827">
		<tag k="name" v="Holsbekken" />
		<tag k="ssr:stedsnr" v="83942" />
		<tag k="waterway" v="stream" />
	</node>
	<node id="-17182" lat="59.489250001" lon="11.2305305553">
		<tag k="name" v="Espenes" />
		<tag k="natural" v="cape" />
		<tag k="ssr:stedsnr" v="487025" />
	</node>
	<node id="-17178" lat="59.4841833322" lon="11.1018444445">
		<tag k="name" v="Krosspøl" />
		<tag k="natural" v="water" />
		<tag k="ssr:stedsnr" v="447967" />
		<tag k="water" v="lake" />
	</node>
	<node id="-17047" lat="59.5421555542" lon="11.1710833331">
		<tag k="name" v="Vammafossen" />
		<tag k="natural" v="waterfall" />
		<tag k="ssr:stedsnr" v="24083" />
	</node>
	<node id="-17174" lat="59.445011112" lon="11.1651416682">
		<tag k="name" v="Krossa" />
		<tag k="ssr:stedsnr" v="447927" />
		<tag k="waterway" v="stream" />
	</node>
	<node id="-17170" lat="59.4807694457" lon="11.2126805576">
		<tag k="name" v="Skausevja" />
		<tag k="ssr:stedsnr" v="447522" />
		<tag k="waterway" v="river" />
	</node>
	<node id="-17165" lat="59.4788142372" lon="11.0727454448">
		<tag k="fixme" v="multiple name tags, choose one and add the other to alt_name" />
		<tag k="name" v="Mortetjern;Trolltjernet" />
		<tag k="natural" v="water" />
		<tag k="ssr:stedsnr" v="428688" />
	</node>
	<node id="-17164" lat="59.4815916686" lon="11.0856555567">
		<tag k="alt_name" v="Lundstjern" />
		<tag k="name" v="Lundstjernet" />
		<tag k="natural" v="water" />
		<tag k="ssr:stedsnr" v="428686" />
	</node>
	<node id="-17033" lat="59.4387305581" lon="11.1801749928">
		<tag k="name" v="Vidnesåa" />
		<tag k="ssr:stedsnr" v="22509" />
		<tag k="waterway" v="river" />
	</node>
	<node id="-17032" lat="59.4420333325" lon="11.1905805468">
		<tag k="name" v="Bråtnesbukta" />
		<tag k="natural" v="bay" />
		<tag k="ssr:stedsnr" v="22506" />
	</node>
	<node id="-17160" lat="59.4650000002" lon="11.2127472137">
		<tag k="alt_name" v="Espenestangen" />
		<tag k="name" v="Espeneset" />
		<tag k="natural" v="cape" />
		<tag k="ssr:stedsnr" v="427233" />
	</node>
</osm>
