<?xml version="1.0" encoding="UTF-8"?>
<osm generator="osmapis" version="0.6">
	<node id="-67712" lat="61.7686388911" lon="5.28914444727">
		<tag k="alt_name" v="Bremanger" />
		<tag k="name" v="Bremanger kommune" />
		<tag k="ssr:date" v="2019-12-27" />
		<tag k="ssr:gruppe" v="administrativeIndelinger" />
		<tag k="ssr:hovedgruppe" v="offentligAdministrasjon" />
		<tag k="ssr:stedsnr" v="511643" />
		<tag k="ssr:type" v="kommune" />
	</node>
	<node id="-68565" lat="61.767081675" lon="5.28170948003">
		<tag k="name" v="Haugane" />
		<tag k="ssr:date" v="2019-12-27" />
		<tag k="ssr:gruppe" v="veg" />
		<tag k="ssr:hovedgruppe" v="infrastruktur" />
		<tag k="ssr:stedsnr" v="1052829" />
		<tag k="ssr:type" v="adressenavn" />
	</node>
	<node id="-68564" lat="61.76995308" lon="5.29714673317">
		<tag k="name" v="Jølet" />
		<tag k="ssr:date" v="2019-12-27" />
		<tag k="ssr:gruppe" v="veg" />
		<tag k="ssr:hovedgruppe" v="infrastruktur" />
		<tag k="ssr:stedsnr" v="1052814" />
		<tag k="ssr:type" v="adressenavn" />
	</node>
	<node id="-69363" lat="61.7232950144" lon="4.97078700276">
		<tag k="alt_name" v="Sør Botnen" />
		<tag k="name" v="Sørbotnen lykt" />
		<tag k="ssr:date" v="2020-01-30" />
		<tag k="ssr:gruppe" v="navigasjon" />
		<tag k="ssr:hovedgruppe" v="infrastruktur" />
		<tag k="ssr:stedsnr" v="433433" />
		<tag k="ssr:type" v="fyrlykt" />
	</node>
	<node id="-68978" lat="61.7877277794" lon="4.900272221">
		<tag k="alt_name" v="Vedelskyttebåen;Vedelskyttebåen lykt" />
		<tag k="name" v="Vederskytteboen lanterne" />
		<tag k="ssr:date" v="2019-12-27" />
		<tag k="ssr:gruppe" v="navigasjon" />
		<tag k="ssr:hovedgruppe" v="infrastruktur" />
		<tag k="ssr:stedsnr" v="175651" />
		<tag k="ssr:type" v="lanterne" />
	</node>
	<node id="-69359" lat="61.8619888932" lon="5.2579638926">
		<tag k="name" v="Hornelsneset lanterne" />
		<tag k="ssr:date" v="2019-12-27" />
		<tag k="ssr:gruppe" v="navigasjon" />
		<tag k="ssr:hovedgruppe" v="infrastruktur" />
		<tag k="ssr:stedsnr" v="424394" />
		<tag k="ssr:type" v="lanterne" />
	</node>
	<node id="-69230" lat="61.8673199116" lon="5.26959991893">
		<tag k="alt_name" v="Langeholmen lykt" />
		<tag k="name" v="Haukedalsholmen" />
		<tag k="ssr:date" v="2020-09-03" />
		<tag k="ssr:gruppe" v="navigasjon" />
		<tag k="ssr:hovedgruppe" v="infrastruktur" />
		<tag k="ssr:stedsnr" v="374194" />
		<tag k="ssr:type" v="fyrlykt" />
	</node>
	<node id="-69739" lat="61.8733300827" lon="5.21169074121">
		<tag k="alt_name" v="Skaten" />
		<tag k="name" v="Skaten lykt" />
		<tag k="old_name" v="Skata" />
		<tag k="ssr:date" v="2020-09-08" />
		<tag k="ssr:gruppe" v="navigasjon" />
		<tag k="ssr:hovedgruppe" v="infrastruktur" />
		<tag k="ssr:stedsnr" v="738186" />
		<tag k="ssr:type" v="fyrlykt" />
	</node>
	<node id="-68715" lat="61.7925408805" lon="4.89802268344">
		<tag k="name" v="Oldersteinen lykt" />
		<tag k="ssr:date" v="2019-12-27" />
		<tag k="ssr:gruppe" v="navigasjon" />
		<tag k="ssr:hovedgruppe" v="infrastruktur" />
		<tag k="ssr:stedsnr" v="71844" />
		<tag k="ssr:type" v="fyrlykt" />
	</node>
	<node id="-69729" lat="61.7642121195" lon="5.16311516182">
		<tag k="alt_name" v="Holmane" />
		<tag k="name" v="Holmane lykt" />
		<tag k="ssr:date" v="2020-09-08" />
		<tag k="ssr:gruppe" v="navigasjon" />
		<tag k="ssr:hovedgruppe" v="infrastruktur" />
		<tag k="ssr:stedsnr" v="738098" />
		<tag k="ssr:type" v="fyrlykt" />
	</node>
	<node id="-67168" lat="61.8674805521" lon="5.33603055936">
		<tag k="name" v="Nordfjord" />
		<tag k="ssr:date" v="2019-12-27" />
		<tag k="ssr:gruppe" v="terrengområder" />
		<tag k="ssr:hovedgruppe" v="terreng" />
		<tag k="ssr:stedsnr" v="86719" />
		<tag k="ssr:type" v="landskapsområde" />
	</node>
	<node id="-68851" lat="61.7672572817" lon="4.89855293051">
		<tag k="alt_name" v="Sparkeltaren" />
		<tag k="name" v="Sparkeltaren lykt" />
		<tag k="ssr:date" v="2019-12-27" />
		<tag k="ssr:gruppe" v="navigasjon" />
		<tag k="ssr:hovedgruppe" v="infrastruktur" />
		<tag k="ssr:stedsnr" v="131892" />
		<tag k="ssr:type" v="fyrlykt" />
	</node>
	<node id="-69081" lat="61.8900925133" lon="5.02424779519">
		<tag k="alt_name" v="Fåfjord" />
		<tag k="name" v="Fåfjord lykt" />
		<tag k="ssr:date" v="2020-09-08" />
		<tag k="ssr:gruppe" v="navigasjon" />
		<tag k="ssr:hovedgruppe" v="infrastruktur" />
		<tag k="ssr:stedsnr" v="313992" />
		<tag k="ssr:type" v="fyrlykt" />
	</node>
	<node id="-68566" lat="61.7625247909" lon="5.26555726888">
		<tag k="name" v="Meisebakken" />
		<tag k="ssr:date" v="2019-12-27" />
		<tag k="ssr:gruppe" v="veg" />
		<tag k="ssr:hovedgruppe" v="infrastruktur" />
		<tag k="ssr:stedsnr" v="1053472" />
		<tag k="ssr:type" v="adressenavn" />
	</node>
	<node id="-70229" lat="60.3866658713" lon="5.33255753121">
		<tag k="name" v="Vestland fylke" />
		<tag k="ssr:date" v="2020-01-13" />
		<tag k="ssr:gruppe" v="administrativeIndelinger" />
		<tag k="ssr:hovedgruppe" v="offentligAdministrasjon" />
		<tag k="ssr:stedsnr" v="1074408" />
		<tag k="ssr:type" v="fylke" />
	</node>
	<node id="-70228" lat="61.7652550902" lon="5.2836184265">
		<tag k="name" v="Rise" />
		<tag k="old_name" v="Veg 1301" />
		<tag k="ssr:date" v="2020-02-18" />
		<tag k="ssr:gruppe" v="veg" />
		<tag k="ssr:hovedgruppe" v="infrastruktur" />
		<tag k="ssr:stedsnr" v="1073943" />
		<tag k="ssr:type" v="adressenavn" />
	</node>
	<node id="-70222" lat="61.7322198745" lon="4.83580836933">
		<tag k="name" v="Gangvadboen stong" />
		<tag k="ssr:date" v="2019-12-27" />
		<tag k="ssr:gruppe" v="navigasjon" />
		<tag k="ssr:hovedgruppe" v="infrastruktur" />
		<tag k="ssr:stedsnr" v="1073164" />
		<tag k="ssr:type" v="jernstang" />
	</node>
	<node id="-70221" lat="61.8711241174" lon="5.31071036932">
		<tag k="name" v="Skjeljeholmen S stong" />
		<tag k="ssr:date" v="2019-12-27" />
		<tag k="ssr:gruppe" v="navigasjon" />
		<tag k="ssr:hovedgruppe" v="infrastruktur" />
		<tag k="ssr:stedsnr" v="1073160" />
		<tag k="ssr:type" v="jernstang" />
	</node>
	<node id="-70220" lat="61.8151132552" lon="5.22705801921">
		<tag k="name" v="Hennøysundet stong" />
		<tag k="ssr:date" v="2019-12-27" />
		<tag k="ssr:gruppe" v="navigasjon" />
		<tag k="ssr:hovedgruppe" v="infrastruktur" />
		<tag k="ssr:stedsnr" v="1073159" />
		<tag k="ssr:type" v="jernstang" />
	</node>
	<node id="-70219" lat="61.7515218931" lon="4.82622321693">
		<tag k="name" v="Verøyna" />
		<tag k="ssr:date" v="2019-12-27" />
		<tag k="ssr:gruppe" v="navigasjon" />
		<tag k="ssr:hovedgruppe" v="infrastruktur" />
		<tag k="ssr:stedsnr" v="1073158" />
		<tag k="ssr:type" v="jernstang" />
	</node>
	<node id="-70218" lat="61.764245894" lon="4.83869711578">
		<tag k="name" v="Håøyna" />
		<tag k="ssr:date" v="2019-12-27" />
		<tag k="ssr:gruppe" v="navigasjon" />
		<tag k="ssr:hovedgruppe" v="infrastruktur" />
		<tag k="ssr:stedsnr" v="1073157" />
		<tag k="ssr:type" v="jernstang" />
	</node>
	<node id="-70217" lat="61.7632221801" lon="4.83824796835">
		<tag k="name" v="Håøyna Ø stong" />
		<tag k="ssr:date" v="2019-12-27" />
		<tag k="ssr:gruppe" v="navigasjon" />
		<tag k="ssr:hovedgruppe" v="infrastruktur" />
		<tag k="ssr:stedsnr" v="1073156" />
		<tag k="ssr:type" v="jernstang" />
	</node>
	<node id="-70216" lat="61.7268520389" lon="4.82037595324">
		<tag k="name" v="Gåsøyboen stong" />
		<tag k="ssr:date" v="2019-12-27" />
		<tag k="ssr:gruppe" v="navigasjon" />
		<tag k="ssr:hovedgruppe" v="infrastruktur" />
		<tag k="ssr:stedsnr" v="1073154" />
		<tag k="ssr:type" v="jernstang" />
	</node>
	<node id="-70215" lat="61.7780105155" lon="4.94839129126">
		<tag k="name" v="Smørhamnsøyna stong" />
		<tag k="ssr:date" v="2019-12-27" />
		<tag k="ssr:gruppe" v="navigasjon" />
		<tag k="ssr:hovedgruppe" v="infrastruktur" />
		<tag k="ssr:stedsnr" v="1073153" />
		<tag k="ssr:type" v="jernstang" />
	</node>
	<node id="-68422" lat="61.7621299964" lon="4.92957138353">
		<tag k="alt_name" v="Smørhavn" />
		<tag k="name" v="Smørhamn" />
		<tag k="ssr:date" v="2019-12-27" />
		<tag k="ssr:gruppe" v="navigasjon" />
		<tag k="ssr:hovedgruppe" v="infrastruktur" />
		<tag k="ssr:stedsnr" v="842616" />
		<tag k="ssr:type" v="fyrlykt" />
	</node>
	<node id="-70213" lat="61.884574947" lon="5.3334398191">
		<tag k="name" v="Storøyna" />
		<tag k="ssr:date" v="2019-12-27" />
		<tag k="ssr:gruppe" v="navigasjon" />
		<tag k="ssr:hovedgruppe" v="infrastruktur" />
		<tag k="ssr:stedsnr" v="1073146" />
		<tag k="ssr:type" v="lanterne" />
	</node>
	<node id="-70212" lat="61.876287449" lon="5.32393189722">
		<tag k="name" v="Storøyna" />
		<tag k="ssr:date" v="2019-12-27" />
		<tag k="ssr:gruppe" v="navigasjon" />
		<tag k="ssr:hovedgruppe" v="infrastruktur" />
		<tag k="ssr:stedsnr" v="1073145" />
		<tag k="ssr:type" v="lanterne" />
	</node>
	<node id="-70210" lat="61.7686765449" lon="4.93426583108">
		<tag k="name" v="Smørhamnssundet" />
		<tag k="ssr:date" v="2019-12-27" />
		<tag k="ssr:gruppe" v="navigasjon" />
		<tag k="ssr:hovedgruppe" v="infrastruktur" />
		<tag k="ssr:stedsnr" v="1073140" />
		<tag k="ssr:type" v="lanterne" />
	</node>
	<node id="-70209" lat="61.7691330367" lon="4.93308009034">
		<tag k="name" v="Smørhamnssundet" />
		<tag k="ssr:date" v="2019-12-27" />
		<tag k="ssr:gruppe" v="navigasjon" />
		<tag k="ssr:hovedgruppe" v="infrastruktur" />
		<tag k="ssr:stedsnr" v="1073139" />
		<tag k="ssr:type" v="lanterne" />
	</node>
	<node id="-70208" lat="61.7513770974" lon="5.13934570909">
		<tag k="name" v="Ternøyna" />
		<tag k="ssr:date" v="2019-12-27" />
		<tag k="ssr:gruppe" v="navigasjon" />
		<tag k="ssr:hovedgruppe" v="infrastruktur" />
		<tag k="ssr:stedsnr" v="1073138" />
		<tag k="ssr:type" v="lanterne" />
	</node>
	<node id="-70207" lat="61.7520773518" lon="5.14007635776">
		<tag k="name" v="Ternøyna Nedre lanterne" />
		<tag k="ssr:date" v="2019-12-27" />
		<tag k="ssr:gruppe" v="navigasjon" />
		<tag k="ssr:hovedgruppe" v="infrastruktur" />
		<tag k="ssr:stedsnr" v="1073137" />
		<tag k="ssr:type" v="lanterne" />
	</node>
	<node id="-70204" lat="61.7609413329" lon="4.82422927105">
		<tag k="name" v="Vestre Håøyboen stong" />
		<tag k="ssr:date" v="2019-12-27" />
		<tag k="ssr:gruppe" v="navigasjon" />
		<tag k="ssr:hovedgruppe" v="infrastruktur" />
		<tag k="ssr:stedsnr" v="1073059" />
		<tag k="ssr:type" v="jernstang" />
	</node>
	<node id="-70203" lat="61.7522734522" lon="4.83565257055">
		<tag k="name" v="Verøyskjeret lanterne" />
		<tag k="ssr:date" v="2019-12-27" />
		<tag k="ssr:gruppe" v="navigasjon" />
		<tag k="ssr:hovedgruppe" v="infrastruktur" />
		<tag k="ssr:stedsnr" v="1073058" />
		<tag k="ssr:type" v="lanterne" />
	</node>
	<node id="-69041" lat="61.7686555541" lon="4.88334722429">
		<tag k="alt_name" v="Kalvåg" />
		<tag k="name" v="Kalvåg lykt" />
		<tag k="ssr:date" v="2019-12-27" />
		<tag k="ssr:gruppe" v="navigasjon" />
		<tag k="ssr:hovedgruppe" v="infrastruktur" />
		<tag k="ssr:stedsnr" v="301137" />
		<tag k="ssr:type" v="fyrlykt" />
	</node>
	<node id="-70192" lat="61.9059630197" lon="5.50481336562">
		<tag k="name" v="Askeland" />
		<tag k="ssr:date" v="2019-12-27" />
		<tag k="ssr:gruppe" v="veg" />
		<tag k="ssr:hovedgruppe" v="infrastruktur" />
		<tag k="ssr:stedsnr" v="974956" />
		<tag k="ssr:type" v="adressenavn" />
	</node>
	<node id="-68850" lat="61.7718436532" lon="4.83864958813">
		<tag k="alt_name" v="Minnet" />
		<tag k="name" v="Minnet lykt" />
		<tag k="ssr:date" v="2020-09-08" />
		<tag k="ssr:gruppe" v="navigasjon" />
		<tag k="ssr:hovedgruppe" v="infrastruktur" />
		<tag k="ssr:stedsnr" v="131888" />
		<tag k="ssr:type" v="fyrlykt" />
	</node>
	<node id="-69029" lat="61.8107536026" lon="4.84478009115">
		<tag k="alt_name" v="Nesje" />
		<tag k="name" v="Nesje lykt" />
		<tag k="ssr:date" v="2020-09-08" />
		<tag k="ssr:gruppe" v="navigasjon" />
		<tag k="ssr:hovedgruppe" v="infrastruktur" />
		<tag k="ssr:stedsnr" v="192939" />
		<tag k="ssr:type" v="fyrlykt" />
	</node>
	<node id="-70180" lat="61.7632496047" lon="5.14806206992">
		<tag k="name" v="Hessviknesgrunnen lysbøye" />
		<tag k="ssr:date" v="2019-12-27" />
		<tag k="ssr:gruppe" v="navigasjon" />
		<tag k="ssr:hovedgruppe" v="infrastruktur" />
		<tag k="ssr:stedsnr" v="973634" />
		<tag k="ssr:type" v="lysbøye" />
	</node>
	<node id="-70179" lat="61.7572507062" lon="5.13872001598">
		<tag k="name" v="Leirvikgrunnen lysbøye" />
		<tag k="ssr:date" v="2019-12-27" />
		<tag k="ssr:gruppe" v="navigasjon" />
		<tag k="ssr:hovedgruppe" v="infrastruktur" />
		<tag k="ssr:stedsnr" v="973633" />
		<tag k="ssr:type" v="lysbøye" />
	</node>
	<node id="-67874" lat="61.7254023628" lon="4.94801904562">
		<tag k="alt_name" v="Olaskjær" />
		<tag k="name" v="Olaskjeret lykt" />
		<tag k="ssr:date" v="2020-09-08" />
		<tag k="ssr:gruppe" v="navigasjon" />
		<tag k="ssr:hovedgruppe" v="infrastruktur" />
		<tag k="ssr:stedsnr" v="676443" />
		<tag k="ssr:type" v="fyrlykt" />
	</node>
	<node id="-69913" lat="61.8755989882" lon="4.86682359778">
		<tag k="alt_name" v="Øksneset;Øksneset lykt" />
		<tag k="name" v="Øksaneset lykt" />
		<tag k="ssr:date" v="2019-12-27" />
		<tag k="ssr:gruppe" v="navigasjon" />
		<tag k="ssr:hovedgruppe" v="infrastruktur" />
		<tag k="ssr:stedsnr" v="798988" />
		<tag k="ssr:type" v="fyrlykt" />
	</node>
	<node id="-67991" lat="61.8442701701" lon="5.78573228789">
		<tag k="alt_name" v="Ålfoten" />
		<tag k="name" v="Ålfoten lykt" />
		<tag k="ssr:date" v="2020-09-08" />
		<tag k="ssr:gruppe" v="navigasjon" />
		<tag k="ssr:hovedgruppe" v="infrastruktur" />
		<tag k="ssr:stedsnr" v="701436" />
		<tag k="ssr:type" v="fyrlykt" />
	</node>
	<node id="-67202" lat="61.7611576921" lon="5.09573784846">
		<tag k="alt_name" v="Ospenes" />
		<tag k="name" v="Ospenes lykt" />
		<tag k="ssr:date" v="2020-09-08" />
		<tag k="ssr:gruppe" v="navigasjon" />
		<tag k="ssr:hovedgruppe" v="infrastruktur" />
		<tag k="ssr:stedsnr" v="253062" />
		<tag k="ssr:type" v="fyrlykt" />
	</node>
	<node id="-69002" lat="61.8337214722" lon="5.25022061217">
		<tag k="alt_name" v="Hælen lykt" />
		<tag k="name" v="Hornelen lykt" />
		<tag k="ssr:date" v="2020-09-08" />
		<tag k="ssr:gruppe" v="navigasjon" />
		<tag k="ssr:hovedgruppe" v="infrastruktur" />
		<tag k="ssr:stedsnr" v="192148" />
		<tag k="ssr:type" v="fyrlykt" />
	</node>
	<node id="-69639" lat="61.8379777763" lon="4.96116666293">
		<tag k="alt_name" v="Ytre Hauge" />
		<tag k="name" v="Ytre Hauge lykt" />
		<tag k="ssr:date" v="2019-12-27" />
		<tag k="ssr:gruppe" v="navigasjon" />
		<tag k="ssr:hovedgruppe" v="infrastruktur" />
		<tag k="ssr:stedsnr" v="598742" />
		<tag k="ssr:type" v="fyrlykt" />
	</node>
	<node id="-68673" lat="61.7766888921" lon="4.90301666532">
		<tag k="alt_name" v="Skjeljeskjæret" />
		<tag k="name" v="Skjeljeskjeret lanterne" />
		<tag k="ssr:date" v="2019-12-27" />
		<tag k="ssr:gruppe" v="navigasjon" />
		<tag k="ssr:hovedgruppe" v="infrastruktur" />
		<tag k="ssr:stedsnr" v="54728" />
		<tag k="ssr:type" v="lanterne" />
	</node>
	<node id="-69890" lat="61.8730583293" lon="5.22491667655">
		<tag k="alt_name" v="Kalveholmen;Kalvholmen;Kalvholmen lykt" />
		<tag k="name" v="Kalveholmen lykt" />
		<tag k="ssr:date" v="2019-12-27" />
		<tag k="ssr:gruppe" v="navigasjon" />
		<tag k="ssr:hovedgruppe" v="infrastruktur" />
		<tag k="ssr:stedsnr" v="786202" />
		<tag k="ssr:type" v="fyrlykt" />
	</node>
	<node id="-69761" lat="61.8342947754" lon="4.94277683591">
		<tag k="alt_name" v="Iglandsvik" />
		<tag k="name" v="Iglandsvik lykt" />
		<tag k="old_name" v="Igland lykt" />
		<tag k="ssr:date" v="2020-09-03" />
		<tag k="ssr:gruppe" v="navigasjon" />
		<tag k="ssr:hovedgruppe" v="infrastruktur" />
		<tag k="ssr:stedsnr" v="738923" />
		<tag k="ssr:type" v="fyrlykt" />
	</node>
</osm>
