<?xml version="1.0" encoding="UTF-8"?>
<osm generator="osmapis" version="0.6">
	<node id="-440143" lat="59.8635027778" lon="5.20987222411">
		<tag k="name" v="Store Bukkøya" />
		<tag k="ssr:date" v="2019-05-30" />
		<tag k="ssr:gruppe" v="veg" />
		<tag k="ssr:hovedgruppe" v="infrastruktur" />
		<tag k="ssr:stedsnr" v="119972" />
		<tag k="ssr:type" v="adressenavn" />
	</node>
	<node id="-440341" lat="59.8344249969" lon="5.06953611652">
		<tag k="alt_name" v="Trettholmen" />
		<tag k="name" v="Trettholmen lykt" />
		<tag k="ssr:date" v="2016-05-10" />
		<tag k="ssr:gruppe" v="navigasjon" />
		<tag k="ssr:hovedgruppe" v="infrastruktur" />
		<tag k="ssr:stedsnr" v="185183" />
		<tag k="ssr:type" v="fyrlykt" />
	</node>
	<node id="-439958" lat="59.7412527798" lon="5.23563610589">
		<tag k="name" v="Kjeldedalsvegen" />
		<tag k="ssr:date" v="2019-05-30" />
		<tag k="ssr:gruppe" v="veg" />
		<tag k="ssr:hovedgruppe" v="infrastruktur" />
		<tag k="ssr:stedsnr" v="60137" />
		<tag k="ssr:type" v="adressenavn" />
	</node>
	<node id="-441850" lat="59.6140722192" lon="5.2488083365">
		<tag k="alt_name" v="Langevåg" />
		<tag k="name" v="Langevåg lykt" />
		<tag k="ssr:date" v="2016-05-11" />
		<tag k="ssr:gruppe" v="navigasjon" />
		<tag k="ssr:hovedgruppe" v="infrastruktur" />
		<tag k="ssr:stedsnr" v="792845" />
		<tag k="ssr:type" v="fyrlykt" />
	</node>
	<node id="-441208" lat="59.7269888897" lon="5.23538889511">
		<tag k="name" v="Russastraumsvegen" />
		<tag k="ssr:date" v="2019-05-30" />
		<tag k="ssr:gruppe" v="veg" />
		<tag k="ssr:hovedgruppe" v="infrastruktur" />
		<tag k="ssr:stedsnr" v="586918" />
		<tag k="ssr:type" v="adressenavn" />
	</node>
	<node id="-441207" lat="59.7422638855" lon="5.23108610856">
		<tag k="name" v="Kuleseidvegen" />
		<tag k="ssr:date" v="2019-05-30" />
		<tag k="ssr:gruppe" v="veg" />
		<tag k="ssr:hovedgruppe" v="infrastruktur" />
		<tag k="ssr:stedsnr" v="586916" />
		<tag k="ssr:type" v="adressenavn" />
	</node>
	<node id="-442229" lat="59.5871083377" lon="5.15447499774">
		<tag k="alt_name" v="Dørøy" />
		<tag k="name" v="Dørøy lykt" />
		<tag k="ssr:date" v="2016-05-11" />
		<tag k="ssr:gruppe" v="navigasjon" />
		<tag k="ssr:hovedgruppe" v="infrastruktur" />
		<tag k="ssr:stedsnr" v="936373" />
		<tag k="ssr:type" v="fyrlykt" />
	</node>
	<node id="-440051" lat="59.5950527806" lon="5.23225832944">
		<tag k="alt_name" v="Bømlahamn" />
		<tag k="name" v="Bømlahamn lykt" />
		<tag k="ssr:date" v="2016-05-10" />
		<tag k="ssr:gruppe" v="navigasjon" />
		<tag k="ssr:hovedgruppe" v="infrastruktur" />
		<tag k="ssr:stedsnr" v="87373" />
		<tag k="ssr:type" v="fyrlykt" />
	</node>
	<node id="-441235" lat="59.7880611098" lon="5.13692500204">
		<tag k="name" v="Tverrbjørgvegen" />
		<tag k="ssr:date" v="2019-05-30" />
		<tag k="ssr:gruppe" v="veg" />
		<tag k="ssr:hovedgruppe" v="infrastruktur" />
		<tag k="ssr:stedsnr" v="603955" />
		<tag k="ssr:type" v="adressenavn" />
	</node>
	<node id="-439405" lat="59.7090416672" lon="5.14976667491">
		<tag k="name" v="Lyklingholmane" />
		<tag k="ssr:date" v="2019-05-30" />
		<tag k="ssr:gruppe" v="veg" />
		<tag k="ssr:hovedgruppe" v="infrastruktur" />
		<tag k="ssr:stedsnr" v="362151" />
		<tag k="ssr:type" v="adressenavn" />
	</node>
	<node id="-441580" lat="59.8333500001" lon="5.15105000583">
		<tag k="name" v="Erevikholmane" />
		<tag k="ssr:date" v="2019-05-30" />
		<tag k="ssr:gruppe" v="veg" />
		<tag k="ssr:hovedgruppe" v="infrastruktur" />
		<tag k="ssr:stedsnr" v="707918" />
		<tag k="ssr:type" v="adressenavn" />
	</node>
	<node id="-440402" lat="59.8175999987" lon="5.28415000001">
		<tag k="alt_name" v="Osparøy" />
		<tag k="name" v="Osparøy lykt" />
		<tag k="ssr:date" v="2016-05-10" />
		<tag k="ssr:gruppe" v="navigasjon" />
		<tag k="ssr:hovedgruppe" v="infrastruktur" />
		<tag k="ssr:stedsnr" v="186968" />
		<tag k="ssr:type" v="fyrlykt" />
	</node>
	<node id="-439785" lat="59.8911416697" lon="5.0949416615">
		<tag k="alt_name" v="Selsøy" />
		<tag k="name" v="Selsøy lykt" />
		<tag k="ssr:date" v="2016-05-10" />
		<tag k="ssr:gruppe" v="navigasjon" />
		<tag k="ssr:hovedgruppe" v="infrastruktur" />
		<tag k="ssr:stedsnr" v="3849" />
		<tag k="ssr:type" v="fyrlykt" />
	</node>
	<node id="-442342" lat="60.8816104596" lon="6.30047518531">
		<tag k="name" v="Vestlandet" />
		<tag k="ssr:date" v="2019-01-06" />
		<tag k="ssr:gruppe" v="administrativeIndelinger" />
		<tag k="ssr:hovedgruppe" v="offentligAdministrasjon" />
		<tag k="ssr:stedsnr" v="974777" />
		<tag k="ssr:type" v="annenAdministrativInndeling" />
	</node>
	<node id="-441568" lat="59.7568083309" lon="5.1658749943">
		<tag k="name" v="Melandsvåg" />
		<tag k="ssr:date" v="2016-05-11" />
		<tag k="ssr:gruppe" v="navigasjon" />
		<tag k="ssr:hovedgruppe" v="infrastruktur" />
		<tag k="ssr:stedsnr" v="706167" />
		<tag k="ssr:type" v="fyrlykt" />
	</node>
	<node id="-442128" lat="59.8695194446" lon="5.20938332462">
		<tag k="name" v="Stora Brennøya" />
		<tag k="ssr:date" v="2019-05-30" />
		<tag k="ssr:gruppe" v="veg" />
		<tag k="ssr:hovedgruppe" v="infrastruktur" />
		<tag k="ssr:stedsnr" v="908974" />
		<tag k="ssr:type" v="adressenavn" />
	</node>
	<node id="-440541" lat="59.8694555575" lon="5.07902221698">
		<tag k="name" v="Utslåttøya" />
		<tag k="ssr:date" v="2019-05-30" />
		<tag k="ssr:gruppe" v="veg" />
		<tag k="ssr:hovedgruppe" v="infrastruktur" />
		<tag k="ssr:stedsnr" v="241969" />
		<tag k="ssr:type" v="adressenavn" />
	</node>
	<node id="-440726" lat="59.7443527795" lon="5.20506111105">
		<tag k="alt_name" v="Vordnesholmen" />
		<tag k="name" v="Vordnesholmen lykt" />
		<tag k="ssr:date" v="2016-05-10" />
		<tag k="ssr:gruppe" v="navigasjon" />
		<tag k="ssr:hovedgruppe" v="infrastruktur" />
		<tag k="ssr:stedsnr" v="450325" />
		<tag k="ssr:type" v="fyrlykt" />
	</node>
	<node id="-440399" lat="59.8428277739" lon="5.26777778669">
		<tag k="alt_name" v="Brømenholmflu" />
		<tag k="name" v="Brømenholmflu lykt" />
		<tag k="ssr:date" v="2016-05-10" />
		<tag k="ssr:gruppe" v="navigasjon" />
		<tag k="ssr:hovedgruppe" v="infrastruktur" />
		<tag k="ssr:stedsnr" v="186887" />
		<tag k="ssr:type" v="fyrlykt" />
	</node>
	<node id="-439384" lat="59.7913305565" lon="5.30658889184">
		<tag k="name" v="Sletthaugen" />
		<tag k="ssr:date" v="2019-05-30" />
		<tag k="ssr:gruppe" v="veg" />
		<tag k="ssr:hovedgruppe" v="infrastruktur" />
		<tag k="ssr:stedsnr" v="237518" />
		<tag k="ssr:type" v="adressenavn" />
	</node>
	<node id="-441118" lat="59.8814833292" lon="5.07422221378">
		<tag k="name" v="Jarnnagleholmen" />
		<tag k="ssr:date" v="2016-05-10" />
		<tag k="ssr:gruppe" v="navigasjon" />
		<tag k="ssr:hovedgruppe" v="infrastruktur" />
		<tag k="ssr:stedsnr" v="610228" />
		<tag k="ssr:type" v="fyrlykt" />
	</node>
	<node id="-440696" lat="59.6989027791" lon="5.39357777328">
		<tag k="alt_name" v="Mosterhamn" />
		<tag k="name" v="Mosterhamn lykt" />
		<tag k="ssr:date" v="2016-05-10" />
		<tag k="ssr:gruppe" v="navigasjon" />
		<tag k="ssr:hovedgruppe" v="infrastruktur" />
		<tag k="ssr:stedsnr" v="428953" />
		<tag k="ssr:type" v="fyrlykt" />
	</node>
	<node id="-441812" lat="59.8665944459" lon="5.22112222031">
		<tag k="name" v="Ospøyane" />
		<tag k="ssr:date" v="2019-05-30" />
		<tag k="ssr:gruppe" v="veg" />
		<tag k="ssr:hovedgruppe" v="infrastruktur" />
		<tag k="ssr:stedsnr" v="787955" />
		<tag k="ssr:type" v="adressenavn" />
	</node>
	<node id="-441427" lat="59.836225004" lon="5.26916110796">
		<tag k="name" v="Stora Klakksøya" />
		<tag k="ssr:date" v="2019-05-30" />
		<tag k="ssr:gruppe" v="veg" />
		<tag k="ssr:hovedgruppe" v="infrastruktur" />
		<tag k="ssr:stedsnr" v="665976" />
		<tag k="ssr:type" v="adressenavn" />
	</node>
	<node id="-441042" lat="59.5878722229" lon="5.15382221958">
		<tag k="name" v="Dørøy" />
		<tag k="ssr:date" v="2019-05-30" />
		<tag k="ssr:gruppe" v="veg" />
		<tag k="ssr:hovedgruppe" v="infrastruktur" />
		<tag k="ssr:stedsnr" v="544245" />
		<tag k="ssr:type" v="adressenavn" />
	</node>
	<node id="-441041" lat="59.6763222248" lon="5.25382500097">
		<tag k="name" v="Barane" />
		<tag k="ssr:date" v="2019-05-30" />
		<tag k="ssr:gruppe" v="veg" />
		<tag k="ssr:hovedgruppe" v="infrastruktur" />
		<tag k="ssr:stedsnr" v="544140" />
		<tag k="ssr:type" v="adressenavn" />
	</node>
	<node id="-441656" lat="59.9075111086" lon="5.09004444041">
		<tag k="alt_name" v="Stålhovo;Stålhovo lykt" />
		<tag k="name" v="Stålhuva lanterne" />
		<tag k="ssr:date" v="2018-02-19" />
		<tag k="ssr:gruppe" v="navigasjon" />
		<tag k="ssr:hovedgruppe" v="infrastruktur" />
		<tag k="ssr:stedsnr" v="732067" />
		<tag k="ssr:type" v="lanterne" />
	</node>
	<node id="-440018" lat="59.7825055539" lon="5.10441666599">
		<tag k="alt_name" v="Aksteinen" />
		<tag k="name" v="Aksteinen lykt" />
		<tag k="ssr:date" v="2016-05-10" />
		<tag k="ssr:gruppe" v="navigasjon" />
		<tag k="ssr:hovedgruppe" v="infrastruktur" />
		<tag k="ssr:stedsnr" v="65496" />
		<tag k="ssr:type" v="fyrlykt" />
	</node>
	<node id="-440651" lat="59.7997361124" lon="5.31072499103">
		<tag k="name" v="Foldrøyholmen" />
		<tag k="ssr:date" v="2019-05-30" />
		<tag k="ssr:gruppe" v="veg" />
		<tag k="ssr:hovedgruppe" v="infrastruktur" />
		<tag k="ssr:stedsnr" v="423814" />
		<tag k="ssr:type" v="adressenavn" />
	</node>
	<node id="-441034" lat="59.7892527751" lon="5.18292499778">
		<tag k="name" v="Blåbærvegen" />
		<tag k="ssr:date" v="2019-05-30" />
		<tag k="ssr:gruppe" v="veg" />
		<tag k="ssr:hovedgruppe" v="infrastruktur" />
		<tag k="ssr:stedsnr" v="543956" />
		<tag k="ssr:type" v="adressenavn" />
	</node>
	<node id="-439415" lat="59.8270444412" lon="5.09933611528">
		<tag k="name" v="Gloadungsøya" />
		<tag k="ssr:date" v="2019-05-30" />
		<tag k="ssr:gruppe" v="veg" />
		<tag k="ssr:hovedgruppe" v="infrastruktur" />
		<tag k="ssr:stedsnr" v="362967" />
		<tag k="ssr:type" v="adressenavn" />
	</node>
	<node id="-439404" lat="59.6910277737" lon="5.12786388727">
		<tag k="name" v="Geitung" />
		<tag k="ssr:date" v="2019-05-30" />
		<tag k="ssr:gruppe" v="veg" />
		<tag k="ssr:hovedgruppe" v="infrastruktur" />
		<tag k="ssr:stedsnr" v="362150" />
		<tag k="ssr:type" v="adressenavn" />
	</node>
	<node id="-440643" lat="59.6896861131" lon="5.24838333934">
		<tag k="name" v="Straumøy" />
		<tag k="ssr:date" v="2019-05-30" />
		<tag k="ssr:gruppe" v="veg" />
		<tag k="ssr:hovedgruppe" v="infrastruktur" />
		<tag k="ssr:stedsnr" v="423165" />
		<tag k="ssr:type" v="adressenavn" />
	</node>
	<node id="-440843" lat="59.8784888896" lon="5.17078889209">
		<tag k="name" v="Hisøya" />
		<tag k="ssr:date" v="2019-05-30" />
		<tag k="ssr:gruppe" v="veg" />
		<tag k="ssr:hovedgruppe" v="infrastruktur" />
		<tag k="ssr:stedsnr" v="483977" />
		<tag k="ssr:type" v="adressenavn" />
	</node>
	<node id="-439485" lat="59.7228250018" lon="5.27563610976">
		<tag k="alt_name" v="Søre Klubbsundet" />
		<tag k="name" v="Søre Klubbsundet lykt" />
		<tag k="old_name" v="Søre Klubbsund" />
		<tag k="ssr:date" v="2016-05-10" />
		<tag k="ssr:gruppe" v="navigasjon" />
		<tag k="ssr:hovedgruppe" v="infrastruktur" />
		<tag k="ssr:stedsnr" v="389340" />
		<tag k="ssr:type" v="fyrlykt" />
	</node>
	<node id="-439484" lat="59.7371777762" lon="5.26577777029">
		<tag k="alt_name" v="Askhusholmen" />
		<tag k="name" v="Askhusholmane" />
		<tag k="ssr:date" v="2016-05-10" />
		<tag k="ssr:gruppe" v="navigasjon" />
		<tag k="ssr:hovedgruppe" v="infrastruktur" />
		<tag k="ssr:stedsnr" v="389338" />
		<tag k="ssr:type" v="fyrlykt" />
	</node>
	<node id="-442040" lat="59.5581500027" lon="5.14216111058">
		<tag k="alt_name" v="Raudholmane" />
		<tag k="name" v="Raudholmane lykt" />
		<tag k="ssr:date" v="2016-05-11" />
		<tag k="ssr:gruppe" v="navigasjon" />
		<tag k="ssr:hovedgruppe" v="infrastruktur" />
		<tag k="ssr:stedsnr" v="853196" />
		<tag k="ssr:type" v="fyrlykt" />
	</node>
	<node id="-440886" lat="59.908066666" lon="5.06721667095">
		<tag k="alt_name" v="Slåtterøy" />
		<tag k="name" v="Slåtterøy fyr" />
		<tag k="ssr:date" v="2016-05-10" />
		<tag k="ssr:gruppe" v="navigasjon" />
		<tag k="ssr:hovedgruppe" v="infrastruktur" />
		<tag k="ssr:stedsnr" v="489071" />
		<tag k="ssr:type" v="fyrstasjon" />
	</node>
	<node id="-441523" lat="59.6692249976" lon="5.13809444702">
		<tag k="alt_name" v="Lyngøyosen" />
		<tag k="name" v="Lyngøyosen lykt" />
		<tag k="ssr:date" v="2016-05-11" />
		<tag k="ssr:gruppe" v="navigasjon" />
		<tag k="ssr:hovedgruppe" v="infrastruktur" />
		<tag k="ssr:stedsnr" v="694371" />
		<tag k="ssr:type" v="fyrlykt" />
	</node>
	<node id="-442161" lat="59.7208055538" lon="5.12890556324">
		<tag k="alt_name" v="Hisken;Hisken lykt" />
		<tag k="name" v="Hiskjo lykt" />
		<tag k="ssr:date" v="2016-05-11" />
		<tag k="ssr:gruppe" v="navigasjon" />
		<tag k="ssr:hovedgruppe" v="infrastruktur" />
		<tag k="ssr:stedsnr" v="913584" />
		<tag k="ssr:type" v="fyrlykt" />
	</node>
	<node id="-439416" lat="59.8245388879" lon="5.09157777903">
		<tag k="name" v="Marlaukeholmen" />
		<tag k="ssr:date" v="2019-05-30" />
		<tag k="ssr:gruppe" v="veg" />
		<tag k="ssr:hovedgruppe" v="infrastruktur" />
		<tag k="ssr:stedsnr" v="362968" />
		<tag k="ssr:type" v="adressenavn" />
	</node>
	<node id="-439209" lat="59.6926944417" lon="5.09254722164">
		<tag k="alt_name" v="Skotningen" />
		<tag k="name" v="Skotningen lykt" />
		<tag k="ssr:date" v="2016-05-10" />
		<tag k="ssr:gruppe" v="navigasjon" />
		<tag k="ssr:hovedgruppe" v="infrastruktur" />
		<tag k="ssr:stedsnr" v="306512" />
		<tag k="ssr:type" v="fyrlykt" />
	</node>
	<node id="-440632" lat="59.5815749968" lon="5.14454444191">
		<tag k="alt_name" v="Marholmen" />
		<tag k="name" v="Marholmen lykt" />
		<tag k="ssr:date" v="2016-05-10" />
		<tag k="ssr:gruppe" v="navigasjon" />
		<tag k="ssr:hovedgruppe" v="infrastruktur" />
		<tag k="ssr:stedsnr" v="416728" />
		<tag k="ssr:type" v="fyrlykt" />
	</node>
	<node id="-439204" lat="59.616108332" lon="5.16487222227">
		<tag k="alt_name" v="Dyrnes" />
		<tag k="name" v="Dyrnes lykt" />
		<tag k="old_name" v="Dyrneset" />
		<tag k="ssr:date" v="2016-05-10" />
		<tag k="ssr:gruppe" v="navigasjon" />
		<tag k="ssr:hovedgruppe" v="infrastruktur" />
		<tag k="ssr:stedsnr" v="306821" />
		<tag k="ssr:type" v="fyrlykt" />
	</node>
	<node id="-442019" lat="59.881898933" lon="5.17518236739">
		<tag k="name" v="Røyrøya" />
		<tag k="ssr:date" v="2019-05-30" />
		<tag k="ssr:gruppe" v="veg" />
		<tag k="ssr:hovedgruppe" v="infrastruktur" />
		<tag k="ssr:stedsnr" v="848955" />
		<tag k="ssr:type" v="adressenavn" />
	</node>
	<node id="-439413" lat="59.8236888923" lon="5.12938333403">
		<tag k="name" v="Fleskøya" />
		<tag k="ssr:date" v="2019-05-30" />
		<tag k="ssr:gruppe" v="veg" />
		<tag k="ssr:hovedgruppe" v="infrastruktur" />
		<tag k="ssr:stedsnr" v="362958" />
		<tag k="ssr:type" v="adressenavn" />
	</node>
	<node id="-441502" lat="59.7938388875" lon="5.17626388648">
		<tag k="alt_name" v="Bømlo" />
		<tag k="name" v="Bømlo kommune" />
		<tag k="ssr:date" v="2016-05-11" />
		<tag k="ssr:gruppe" v="administrativeIndelinger" />
		<tag k="ssr:hovedgruppe" v="offentligAdministrasjon" />
		<tag k="ssr:stedsnr" v="692702" />
		<tag k="ssr:type" v="kommune" />
	</node>
	<node id="-439187" lat="59.8281805543" lon="5.15157500149">
		<tag k="name" v="Kræmarstøvegen" />
		<tag k="ssr:date" v="2019-05-30" />
		<tag k="ssr:gruppe" v="veg" />
		<tag k="ssr:hovedgruppe" v="infrastruktur" />
		<tag k="ssr:stedsnr" v="301791" />
		<tag k="ssr:type" v="adressenavn" />
	</node>
	<node id="-441240" lat="59.854997226" lon="5.07502500759">
		<tag k="name" v="Legøya" />
		<tag k="ssr:date" v="2019-05-30" />
		<tag k="ssr:gruppe" v="veg" />
		<tag k="ssr:hovedgruppe" v="infrastruktur" />
		<tag k="ssr:stedsnr" v="604987" />
		<tag k="ssr:type" v="adressenavn" />
	</node>
	<node id="-441623" lat="59.8266416683" lon="5.13925555809">
		<tag k="name" v="Hillesøya" />
		<tag k="ssr:date" v="2019-05-30" />
		<tag k="ssr:gruppe" v="veg" />
		<tag k="ssr:hovedgruppe" v="infrastruktur" />
		<tag k="ssr:stedsnr" v="726969" />
		<tag k="ssr:type" v="adressenavn" />
	</node>
	<node id="-441622" lat="59.8498027755" lon="5.24936388932">
		<tag k="name" v="Langholmen" />
		<tag k="ssr:date" v="2019-05-30" />
		<tag k="ssr:gruppe" v="veg" />
		<tag k="ssr:hovedgruppe" v="infrastruktur" />
		<tag k="ssr:stedsnr" v="726967" />
		<tag k="ssr:type" v="adressenavn" />
	</node>
	<node id="-441621" lat="59.7251499997" lon="5.43072777685">
		<tag k="name" v="Otrøya" />
		<tag k="ssr:date" v="2019-05-30" />
		<tag k="ssr:gruppe" v="veg" />
		<tag k="ssr:hovedgruppe" v="infrastruktur" />
		<tag k="ssr:stedsnr" v="726808" />
		<tag k="ssr:type" v="adressenavn" />
	</node>
	<node id="-439188" lat="59.8257388885" lon="5.27210278197">
		<tag k="name" v="Veøya" />
		<tag k="ssr:date" v="2019-05-30" />
		<tag k="ssr:gruppe" v="veg" />
		<tag k="ssr:hovedgruppe" v="infrastruktur" />
		<tag k="ssr:stedsnr" v="301965" />
		<tag k="ssr:type" v="adressenavn" />
	</node>
	<node id="-442131" lat="59.9068083319" lon="5.0681166669">
		<tag k="name" v="Slåtterøy fyr" />
		<tag k="ssr:date" v="2019-05-30" />
		<tag k="ssr:gruppe" v="veg" />
		<tag k="ssr:hovedgruppe" v="infrastruktur" />
		<tag k="ssr:stedsnr" v="908983" />
		<tag k="ssr:type" v="adressenavn" />
	</node>
	<node id="-441617" lat="59.5914500012" lon="5.15660277545">
		<tag k="name" v="Baadeholmen" />
		<tag k="ssr:date" v="2019-05-30" />
		<tag k="ssr:gruppe" v="veg" />
		<tag k="ssr:hovedgruppe" v="infrastruktur" />
		<tag k="ssr:stedsnr" v="726276" />
		<tag k="ssr:type" v="adressenavn" />
	</node>
	<node id="-441488" lat="59.8088166663" lon="5.10018055927">
		<tag k="alt_name" v="Samnungsøy" />
		<tag k="name" v="Samnungsøy lykt" />
		<tag k="old_name" v="Samningsøy" />
		<tag k="ssr:date" v="2016-05-10" />
		<tag k="ssr:gruppe" v="navigasjon" />
		<tag k="ssr:hovedgruppe" v="infrastruktur" />
		<tag k="ssr:stedsnr" v="671938" />
		<tag k="ssr:type" v="fyrlykt" />
	</node>
	<node id="-439192" lat="59.8847000019" lon="5.14980832709">
		<tag k="name" v="Risøya" />
		<tag k="ssr:date" v="2019-05-30" />
		<tag k="ssr:gruppe" v="veg" />
		<tag k="ssr:hovedgruppe" v="infrastruktur" />
		<tag k="ssr:stedsnr" v="301974" />
		<tag k="ssr:type" v="adressenavn" />
	</node>
	<node id="-441043" lat="59.5846888915" lon="5.1486194514">
		<tag k="name" v="Saugøy" />
		<tag k="ssr:date" v="2019-05-30" />
		<tag k="ssr:gruppe" v="veg" />
		<tag k="ssr:hovedgruppe" v="infrastruktur" />
		<tag k="ssr:stedsnr" v="544244" />
		<tag k="ssr:type" v="adressenavn" />
	</node>
	<node id="-439191" lat="59.8405083352" lon="5.16710277652">
		<tag k="name" v="Langøya" />
		<tag k="ssr:date" v="2019-05-30" />
		<tag k="ssr:gruppe" v="veg" />
		<tag k="ssr:hovedgruppe" v="infrastruktur" />
		<tag k="ssr:stedsnr" v="301969" />
		<tag k="ssr:type" v="adressenavn" />
	</node>
	<node id="-440395" lat="59.7568000033" lon="5.16594166095">
		<tag k="alt_name" v="Melandsvåg" />
		<tag k="name" v="Melandsvåg lykt" />
		<tag k="ssr:date" v="2016-05-10" />
		<tag k="ssr:gruppe" v="navigasjon" />
		<tag k="ssr:hovedgruppe" v="infrastruktur" />
		<tag k="ssr:stedsnr" v="186609" />
		<tag k="ssr:type" v="fyrlykt" />
	</node>
	<node id="-441238" lat="59.8186027745" lon="5.28546666026">
		<tag k="name" v="Osparøya" />
		<tag k="ssr:date" v="2019-05-30" />
		<tag k="ssr:gruppe" v="veg" />
		<tag k="ssr:hovedgruppe" v="infrastruktur" />
		<tag k="ssr:stedsnr" v="604971" />
		<tag k="ssr:type" v="adressenavn" />
	</node>
</osm>
