<?xml version="1.0" encoding="UTF-8"?>
<osm version="0.6" generator="osmapis">
	<node id="130160765" lat="68.8609408" lon="18.3482428" version="12" timestamp="2022-06-19T22:38:59Z" changeset="122595810" uid="3497659" user="NKA">
		<tag k="alt_name" v="Bardu;Sætermoen" />
		<tag k="name" v="Setermoen" />
		<tag k="place" v="village" />
		<tag k="population" v="2468" />
		<tag k="population:date" v="2021-01-01" />
		<tag k="ref:ssb_tettsted" v="8061" />
		<tag k="source:population" v="SSB - befolkning i tettstedet" />
		<tag k="ssr:stedsnr" v="78514" />
		<tag k="wikidata" v="Q1994507" />
	</node>
	<node id="197783601" lat="68.828913" lon="18.179075" version="3" timestamp="2022-06-19T22:38:59Z" changeset="122595810" uid="3497659" user="NKA">
		<tag k="name" v="Brandvoll" />
		<tag k="place" v="hamlet" />
		<tag k="ssr:stedsnr" v="1077378" />
	</node>
	<node id="1733856014" lat="69.0012114" lon="18.4502009" version="2" timestamp="2022-06-19T22:38:59Z" changeset="122595810" uid="3497659" user="NKA">
		<tag k="alt_name" v="Bjørnsmo" />
		<tag k="name" v="Bjørnsmoen" />
		<tag k="place" v="farm" />
		<tag k="ssr:stedsnr" v="625909" />
	</node>
	<node id="1733856018" lat="68.9997932" lon="18.4600718" version="2" timestamp="2022-06-19T22:38:59Z" changeset="122595810" uid="3497659" user="NKA">
		<tag k="name" v="Granberg" />
		<tag k="place" v="farm" />
		<tag k="ssr:stedsnr" v="299981" />
	</node>
	<node id="4232418471" lat="68.6456125" lon="18.2429349" version="2" timestamp="2022-06-19T22:38:59Z" changeset="122595810" uid="3497659" user="NKA">
		<tag k="alt_name:no" v="Bonnes" />
		<tag k="name" v="Bones - Njuorjovuopmegiera" />
		<tag k="name:no" v="Bones" />
		<tag k="name:se" v="Njuorjovuopmegiera" />
		<tag k="place" v="hamlet" />
		<tag k="ssr:stedsnr" v="685290" />
	</node>
	<node id="4232418472" lat="68.6602465" lon="18.5611562" version="2" timestamp="2022-06-19T22:38:59Z" changeset="122595810" uid="3497659" user="NKA">
		<tag k="name" v="Sørmo" />
		<tag k="place" v="farm" />
		<tag k="ssr:stedsnr" v="382280" />
	</node>
	<node id="5685713237" lat="68.702807" lon="18.1117211" version="2" timestamp="2022-06-19T22:38:59Z" changeset="122595810" uid="3497659" user="NKA">
		<tag k="alt_name" v="Lund Søndre" />
		<tag k="name" v="Lund" />
		<tag k="name:no" v="Lund" />
		<tag k="name:ru" v="Лунн" />
		<tag k="place" v="hamlet" />
		<tag k="ssr:stedsnr" v="260674" />
	</node>
	<node id="5768455103" lat="68.8281436" lon="18.4191706" version="2" timestamp="2022-01-26T06:08:00Z" changeset="116609992" uid="3497659" user="NKA">
		<tag k="junction" v="yes" />
		<tag k="name" v="Vikingkrysset" />
		<tag k="ssr:stedsnr" v="297425" />
	</node>
	<node id="5768455578" lat="68.8196646" lon="18.4756428" version="2" timestamp="2022-01-26T06:08:00Z" changeset="116609992" uid="3497659" user="NKA">
		<tag k="junction" v="yes" />
		<tag k="name" v="Haugveiskjellet" />
		<tag k="ssr:stedsnr" v="906215" />
	</node>
	<node id="9831773340" lat="68.7119778" lon="18.5532473" version="1" timestamp="2022-06-19T22:38:59Z" changeset="122595810" uid="3497659" user="NKA">
		<tag k="name" v="Åkran" />
		<tag k="place" v="farm" />
		<tag k="ssr:stedsnr" v="928309" />
	</node>
	<node id="9831773341" lat="69.0134667" lon="18.4767388" version="1" timestamp="2022-06-19T22:38:59Z" changeset="122595810" uid="3497659" user="NKA">
		<tag k="alt_name" v="Lauvli" />
		<tag k="name" v="Løvli" />
		<tag k="place" v="farm" />
		<tag k="ssr:stedsnr" v="746916" />
	</node>
	<node id="9831773342" lat="68.8219525" lon="18.5021994" version="1" timestamp="2022-06-19T22:38:59Z" changeset="122595810" uid="3497659" user="NKA">
		<tag k="name" v="Haugjorda" />
		<tag k="place" v="farm" />
		<tag k="ssr:stedsnr" v="17512" />
	</node>
	<node id="9831773343" lat="68.817425" lon="18.4696082" version="1" timestamp="2022-06-19T22:38:59Z" changeset="122595810" uid="3497659" user="NKA">
		<tag k="alt_name" v="Haugseth" />
		<tag k="name" v="Haugset" />
		<tag k="place" v="farm" />
		<tag k="ssr:stedsnr" v="260523" />
	</node>
	<node id="9831773344" lat="68.9272137" lon="18.451195" version="1" timestamp="2022-06-19T22:38:59Z" changeset="122595810" uid="3497659" user="NKA">
		<tag k="name" v="Rydningen" />
		<tag k="place" v="farm" />
		<tag k="ssr:stedsnr" v="78559" />
	</node>
	<node id="9831773345" lat="68.8883216" lon="18.3572847" version="1" timestamp="2022-06-19T22:38:59Z" changeset="122595810" uid="3497659" user="NKA">
		<tag k="name" v="Høiden" />
		<tag k="place" v="farm" />
		<tag k="ssr:stedsnr" v="222512" />
	</node>
	<node id="9831773346" lat="68.8856916" lon="18.4198194" version="1" timestamp="2022-06-19T22:38:59Z" changeset="122595810" uid="3497659" user="NKA">
		<tag k="alt_name" v="Krogstad" />
		<tag k="name" v="Krokstad" />
		<tag k="place" v="farm" />
		<tag k="ssr:stedsnr" v="260631" />
	</node>
	<node id="9831773347" lat="69.0103311" lon="18.5243868" version="1" timestamp="2022-06-19T22:38:59Z" changeset="122595810" uid="3497659" user="NKA">
		<tag k="name" v="Brandmoen" />
		<tag k="place" v="hamlet" />
		<tag k="ssr:stedsnr" v="694528" />
	</node>
	<node id="9831773348" lat="68.8265905" lon="18.5153624" version="1" timestamp="2022-06-19T22:38:59Z" changeset="122595810" uid="3497659" user="NKA">
		<tag k="name" v="Nordhus" />
		<tag k="place" v="farm" />
		<tag k="ssr:stedsnr" v="382493" />
	</node>
	<node id="9831773349" lat="68.9958929" lon="18.3867688" version="1" timestamp="2022-06-19T22:38:59Z" changeset="122595810" uid="3497659" user="NKA">
		<tag k="historic" v="shieling" />
		<tag k="name" v="Svendsvollsetra" />
		<tag k="place" v="isolated_dwelling" />
		<tag k="ssr:stedsnr" v="966975" />
	</node>
	<node id="9831773350" lat="69.0295427" lon="18.5347666" version="1" timestamp="2022-06-19T22:38:59Z" changeset="122595810" uid="3497659" user="NKA">
		<tag k="name" v="Evjan" />
		<tag k="place" v="farm" />
		<tag k="ssr:stedsnr" v="624914" />
	</node>
	<node id="9831773351" lat="68.6571584" lon="18.4898334" version="1" timestamp="2022-06-19T22:38:59Z" changeset="122595810" uid="3497659" user="NKA">
		<tag k="historic" v="shieling" />
		<tag k="name" v="Sørmosætra" />
		<tag k="place" v="isolated_dwelling" />
		<tag k="ssr:stedsnr" v="904419" />
	</node>
	<node id="9831773352" lat="68.9923443" lon="18.3376991" version="1" timestamp="2022-06-19T22:38:59Z" changeset="122595810" uid="3497659" user="NKA">
		<tag k="historic" v="shieling" />
		<tag k="name" v="Fossmosetra" />
		<tag k="place" v="isolated_dwelling" />
		<tag k="ssr:stedsnr" v="845972" />
	</node>
	<node id="9831773353" lat="68.8889695" lon="18.3175227" version="1" timestamp="2022-06-19T22:38:59Z" changeset="122595810" uid="3497659" user="NKA">
		<tag k="name" v="Bruhaug" />
		<tag k="place" v="farm" />
		<tag k="ssr:stedsnr" v="502593" />
	</node>
	<node id="9831773354" lat="69.0030964" lon="18.4617296" version="1" timestamp="2022-06-19T22:38:59Z" changeset="122595810" uid="3497659" user="NKA">
		<tag k="alt_name" v="Skoelvli" />
		<tag k="name" v="Skoelvlia" />
		<tag k="place" v="hamlet" />
		<tag k="ssr:stedsnr" v="564924" />
	</node>
	<node id="9831773355" lat="68.8230734" lon="18.4271689" version="1" timestamp="2022-06-19T22:38:59Z" changeset="122595810" uid="3497659" user="NKA">
		<tag k="name" v="Dypdal" />
		<tag k="place" v="farm" />
		<tag k="ssr:stedsnr" v="479041" />
	</node>
	<node id="9831773356" lat="69.0003778" lon="18.4637277" version="1" timestamp="2022-06-19T22:38:59Z" changeset="122595810" uid="3497659" user="NKA">
		<tag k="name" v="Wennermo" />
		<tag k="place" v="farm" />
		<tag k="ssr:stedsnr" v="481967" />
	</node>
	<node id="9831773357" lat="69.0151009" lon="18.4824412" version="1" timestamp="2022-06-19T22:38:59Z" changeset="122595810" uid="3497659" user="NKA">
		<tag k="name" v="Sundheim" />
		<tag k="place" v="farm" />
		<tag k="ssr:stedsnr" v="625934" />
	</node>
	<node id="9831773358" lat="68.8435834" lon="18.4117249" version="1" timestamp="2022-06-19T22:38:59Z" changeset="122595810" uid="3497659" user="NKA">
		<tag k="name" v="Steirud" />
		<tag k="place" v="farm" />
		<tag k="ssr:stedsnr" v="746543" />
	</node>
	<node id="9831773359" lat="68.7966611" lon="18.5835084" version="1" timestamp="2022-06-19T22:38:59Z" changeset="122595810" uid="3497659" user="NKA">
		<tag k="historic" v="shieling" />
		<tag k="name" v="Bangsætra" />
		<tag k="place" v="isolated_dwelling" />
		<tag k="ssr:stedsnr" v="663213" />
	</node>
	<node id="9831773360" lat="69.0087945" lon="18.4759278" version="1" timestamp="2022-06-19T22:38:59Z" changeset="122595810" uid="3497659" user="NKA">
		<tag k="name" v="Slåttmoen" />
		<tag k="place" v="farm" />
		<tag k="ssr:stedsnr" v="625943" />
	</node>
	<node id="9831773361" lat="68.9981417" lon="18.4534862" version="1" timestamp="2022-06-19T22:38:59Z" changeset="122595810" uid="3497659" user="NKA">
		<tag k="historic" v="shieling" />
		<tag k="name" v="Slåttmosetra" />
		<tag k="place" v="isolated_dwelling" />
		<tag k="ssr:stedsnr" v="176974" />
	</node>
	<node id="9831773362" lat="69.011725" lon="18.4810972" version="1" timestamp="2022-06-19T22:38:59Z" changeset="122595810" uid="3497659" user="NKA">
		<tag k="name" v="Elvemo" />
		<tag k="place" v="farm" />
		<tag k="ssr:stedsnr" v="540749" />
	</node>
	<node id="9831773363" lat="68.7937806" lon="18.5565251" version="1" timestamp="2022-06-19T22:38:59Z" changeset="122595810" uid="3497659" user="NKA">
		<tag k="name" v="Stensgård" />
		<tag k="place" v="farm" />
		<tag k="ssr:stedsnr" v="481227" />
	</node>
	<node id="9831773364" lat="68.7809639" lon="18.6672418" version="1" timestamp="2022-06-19T22:38:59Z" changeset="122595810" uid="3497659" user="NKA">
		<tag k="name" v="Lappskardtangen" />
		<tag k="place" v="locality" />
		<tag k="ssr:stedsnr" v="503257" />
	</node>
	<node id="9831773365" lat="68.828452" lon="18.47713" version="1" timestamp="2022-06-19T22:38:59Z" changeset="122595810" uid="3497659" user="NKA">
		<tag k="name" v="Haugås" />
		<tag k="place" v="farm" />
		<tag k="ssr:stedsnr" v="382495" />
	</node>
	<node id="9831773366" lat="68.8285361" lon="18.423214" version="1" timestamp="2022-06-19T22:38:59Z" changeset="122595810" uid="3497659" user="NKA">
		<tag k="name" v="Braaten" />
		<tag k="place" v="farm" />
		<tag k="ssr:stedsnr" v="479440" />
	</node>
	<node id="9831773367" lat="68.8306805" lon="18.4108945" version="1" timestamp="2022-06-19T22:38:59Z" changeset="122595810" uid="3497659" user="NKA">
		<tag k="name" v="Stenlund" />
		<tag k="place" v="farm" />
		<tag k="ssr:stedsnr" v="904433" />
	</node>
	<node id="9831773368" lat="68.896094" lon="18.3915034" version="1" timestamp="2022-06-19T22:38:59Z" changeset="122595810" uid="3497659" user="NKA">
		<tag k="name" v="Utheim" />
		<tag k="place" v="farm" />
		<tag k="ssr:stedsnr" v="573528" />
	</node>
	<node id="9831773369" lat="69.0150314" lon="18.4835493" version="1" timestamp="2022-06-19T22:38:59Z" changeset="122595810" uid="3497659" user="NKA">
		<tag k="name" v="Myrvang" />
		<tag k="place" v="farm" />
		<tag k="ssr:stedsnr" v="111952" />
	</node>
	<node id="9831773370" lat="68.7617936" lon="18.5702845" version="1" timestamp="2022-06-19T22:38:59Z" changeset="122595810" uid="3497659" user="NKA">
		<tag k="alt_name" v="Strømsmoen, nedre;Strømsmoen" />
		<tag k="name" v="Nedre Strømsmoen" />
		<tag k="place" v="farm" />
		<tag k="ssr:stedsnr" v="321422" />
	</node>
	<node id="9831773371" lat="69.0114611" lon="18.509914" version="1" timestamp="2022-06-19T22:38:59Z" changeset="122595810" uid="3497659" user="NKA">
		<tag k="name" v="Solstrand" />
		<tag k="place" v="farm" />
		<tag k="ssr:stedsnr" v="54984" />
	</node>
	<node id="9831773372" lat="69.0183098" lon="18.4813798" version="1" timestamp="2022-06-19T22:38:59Z" changeset="122595810" uid="3497659" user="NKA">
		<tag k="name" v="Sundlia" />
		<tag k="place" v="hamlet" />
		<tag k="ssr:stedsnr" v="18905" />
	</node>
	<node id="9831773373" lat="69.0328972" lon="18.456211" version="1" timestamp="2022-06-19T22:38:59Z" changeset="122595810" uid="3497659" user="NKA">
		<tag k="alt_name" v="Hammarslettsætra" />
		<tag k="name" v="Hammerslettsetra" />
		<tag k="place" v="isolated_dwelling" />
		<tag k="ssr:stedsnr" v="807874" />
	</node>
	<node id="9831773374" lat="69.0200804" lon="18.4203042" version="1" timestamp="2022-06-19T22:38:59Z" changeset="122595810" uid="3497659" user="NKA">
		<tag k="alt_name" v="Sundlisetra" />
		<tag k="name" v="Sundlisætra" />
		<tag k="place" v="isolated_dwelling" />
		<tag k="ssr:stedsnr" v="685923" />
	</node>
	<node id="9831773375" lat="68.8302861" lon="18.4286223" version="1" timestamp="2022-06-19T22:38:59Z" changeset="122595810" uid="3497659" user="NKA">
		<tag k="name" v="Strømstad" />
		<tag k="place" v="farm" />
		<tag k="ssr:stedsnr" v="297428" />
	</node>
	<node id="9831773376" lat="68.9459722" lon="18.498114" version="1" timestamp="2022-06-19T22:38:59Z" changeset="122595810" uid="3497659" user="NKA">
		<tag k="historic" v="shieling" />
		<tag k="name" v="Blomstrandsetra" />
		<tag k="place" v="isolated_dwelling" />
		<tag k="ssr:stedsnr" v="965968" />
	</node>
	<node id="9831773377" lat="68.6780055" lon="18.7554582" version="1" timestamp="2022-06-19T22:38:59Z" changeset="122595810" uid="3497659" user="NKA">
		<tag k="name" v="Hanstad" />
		<tag k="place" v="farm" />
		<tag k="ssr:stedsnr" v="260520" />
	</node>
	<node id="9831773378" lat="69.0289027" lon="18.5622001" version="1" timestamp="2022-06-19T22:38:59Z" changeset="122595810" uid="3497659" user="NKA">
		<tag k="name" v="Fredheim" />
		<tag k="place" v="farm" />
		<tag k="ssr:stedsnr" v="321905" />
	</node>
	<node id="9831773379" lat="68.8225472" lon="18.4737556" version="1" timestamp="2022-06-19T22:38:59Z" changeset="122595810" uid="3497659" user="NKA">
		<tag k="name" v="Haugly" />
		<tag k="place" v="farm" />
		<tag k="ssr:stedsnr" v="663225" />
	</node>
	<node id="9831773380" lat="68.837275" lon="18.4001165" version="1" timestamp="2022-06-19T22:38:59Z" changeset="122595810" uid="3497659" user="NKA">
		<tag k="name" v="Aspevoll" />
		<tag k="place" v="farm" />
		<tag k="ssr:stedsnr" v="236410" />
	</node>
	<node id="9831773381" lat="68.7469476" lon="18.5367652" version="1" timestamp="2022-06-19T22:38:59Z" changeset="122595810" uid="3497659" user="NKA">
		<tag k="name" v="Skredland" />
		<tag k="place" v="farm" />
		<tag k="ssr:stedsnr" v="139621" />
	</node>
	<node id="9831773382" lat="68.8308667" lon="18.4451167" version="1" timestamp="2022-06-19T22:38:59Z" changeset="122595810" uid="3497659" user="NKA">
		<tag k="name" v="Fossmo" />
		<tag k="place" v="farm" />
		<tag k="ssr:stedsnr" v="904448" />
	</node>
	<node id="9831773383" lat="68.8348" lon="18.3618583" version="1" timestamp="2022-06-19T22:38:59Z" changeset="122595810" uid="3497659" user="NKA">
		<tag k="historic" v="shieling" />
		<tag k="name" v="Fossbakksætra" />
		<tag k="place" v="isolated_dwelling" />
		<tag k="ssr:stedsnr" v="117423" />
	</node>
	<node id="9831773384" lat="68.6403139" lon="18.2409027" version="1" timestamp="2022-06-19T22:38:59Z" changeset="122595810" uid="3497659" user="NKA">
		<tag k="name" v="Storjorda" />
		<tag k="place" v="farm" />
		<tag k="ssr:stedsnr" v="685296" />
	</node>
	<node id="9831773385" lat="68.7748916" lon="18.1582306" version="1" timestamp="2022-06-19T22:38:59Z" changeset="122595810" uid="3497659" user="NKA">
		<tag k="name" v="Engen" />
		<tag k="place" v="farm" />
		<tag k="ssr:stedsnr" v="677494" />
	</node>
	<node id="9831773386" lat="68.7302972" lon="18.6589749" version="1" timestamp="2022-06-19T22:38:59Z" changeset="122595810" uid="3497659" user="NKA">
		<tag k="name" v="Strømset" />
		<tag k="place" v="isolated_dwelling" />
		<tag k="ssr:stedsnr" v="200498" />
	</node>
	<node id="9831773387" lat="68.8245222" lon="18.4690584" version="1" timestamp="2022-06-19T22:38:59Z" changeset="122595810" uid="3497659" user="NKA">
		<tag k="alt_name" v="Kjølhaug" />
		<tag k="name" v="Kjøllhaug" />
		<tag k="place" v="farm" />
		<tag k="ssr:stedsnr" v="746494" />
	</node>
	<node id="9831773388" lat="68.6594717" lon="18.8038349" version="1" timestamp="2022-06-19T22:38:59Z" changeset="122595810" uid="3497659" user="NKA">
		<tag k="name" v="Solset" />
		<tag k="place" v="farm" />
		<tag k="ssr:stedsnr" v="868483" />
	</node>
	<node id="9831773389" lat="68.8504972" lon="18.2852777" version="1" timestamp="2022-06-19T22:38:59Z" changeset="122595810" uid="3497659" user="NKA">
		<tag k="name" v="Bjørnstrøm" />
		<tag k="place" v="farm" />
		<tag k="ssr:stedsnr" v="663358" />
	</node>
	<node id="9831773390" lat="68.8380695" lon="18.2453612" version="1" timestamp="2022-06-19T22:38:59Z" changeset="122595810" uid="3497659" user="NKA">
		<tag k="name" v="Moan" />
		<tag k="place" v="farm" />
		<tag k="ssr:stedsnr" v="321530" />
	</node>
	<node id="9831773391" lat="68.9326334" lon="18.4555111" version="1" timestamp="2022-06-19T22:38:59Z" changeset="122595810" uid="3497659" user="NKA">
		<tag k="name" v="Fagertun" />
		<tag k="place" v="farm" />
		<tag k="ssr:stedsnr" v="321648" />
	</node>
	<node id="9831773392" lat="68.8266334" lon="18.5185888" version="1" timestamp="2022-06-19T22:38:59Z" changeset="122595810" uid="3497659" user="NKA">
		<tag k="name" v="Nordstad" />
		<tag k="place" v="farm" />
		<tag k="ssr:stedsnr" v="602258" />
	</node>
	<node id="9831773393" lat="68.6159576" lon="18.7097676" version="1" timestamp="2022-06-19T22:38:59Z" changeset="122595810" uid="3497659" user="NKA">
		<tag k="name" v="Sørdalen" />
		<tag k="place" v="locality" />
		<tag k="ssr:stedsnr" v="1077387" />
	</node>
	<node id="9831773394" lat="68.6301144" lon="18.961074" version="1" timestamp="2022-06-19T22:38:59Z" changeset="122595810" uid="3497659" user="NKA">
		<tag k="name" v="Altevatn Sør" />
		<tag k="place" v="locality" />
		<tag k="ssr:stedsnr" v="1077388" />
	</node>
	<node id="9831773395" lat="68.9127049" lon="18.4108174" version="1" timestamp="2022-06-19T22:38:59Z" changeset="122595810" uid="3497659" user="NKA">
		<tag k="name" v="Nordheim" />
		<tag k="place" v="farm" />
		<tag k="ssr:stedsnr" v="321536" />
	</node>
	<node id="9831773396" lat="68.6595536" lon="18.3614603" version="1" timestamp="2022-06-19T22:38:59Z" changeset="122595810" uid="3497659" user="NKA">
		<tag k="name" v="Snøhetta" />
		<tag k="place" v="locality" />
		<tag k="ssr:stedsnr" v="1077384" />
	</node>
	<node id="9831773397" lat="68.8571194" lon="18.3959472" version="1" timestamp="2022-06-19T22:38:59Z" changeset="122595810" uid="3497659" user="NKA">
		<tag k="name" v="Granstua" />
		<tag k="place" v="farm" />
		<tag k="ssr:stedsnr" v="600142" />
	</node>
	<node id="9831773398" lat="68.8800972" lon="18.3965806" version="1" timestamp="2022-06-19T22:38:59Z" changeset="122595810" uid="3497659" user="NKA">
		<tag k="historic" v="shieling" />
		<tag k="name" v="Jevningsætra" />
		<tag k="place" v="isolated_dwelling" />
		<tag k="ssr:stedsnr" v="600073" />
	</node>
	<node id="9831773399" lat="68.8309614" lon="18.4299702" version="1" timestamp="2022-06-19T22:38:59Z" changeset="122595810" uid="3497659" user="NKA">
		<tag k="alt_name" v="Fosshaug" />
		<tag k="name" v="Fosshaugen" />
		<tag k="place" v="farm" />
		<tag k="ssr:stedsnr" v="867557" />
	</node>
	<node id="9831773400" lat="68.7667778" lon="18.5379639" version="1" timestamp="2022-06-19T22:38:59Z" changeset="122595810" uid="3497659" user="NKA">
		<tag k="name" v="Øygård" />
		<tag k="place" v="farm" />
		<tag k="ssr:stedsnr" v="299216" />
	</node>
	<node id="9831773401" lat="68.8881444" lon="18.334911" version="1" timestamp="2022-06-19T22:38:59Z" changeset="122595810" uid="3497659" user="NKA">
		<tag k="name" v="Seljehaug" />
		<tag k="place" v="farm" />
		<tag k="ssr:stedsnr" v="479038" />
	</node>
	<node id="9831773402" lat="68.6996972" lon="18.1002444" version="1" timestamp="2022-06-19T22:38:59Z" changeset="122595810" uid="3497659" user="NKA">
		<tag k="alt_name" v="Lundlia" />
		<tag k="name" v="Lundli" />
		<tag k="place" v="farm" />
		<tag k="ssr:stedsnr" v="503335" />
	</node>
	<node id="9831773403" lat="68.6735639" lon="18.1479862" version="1" timestamp="2022-06-19T22:38:59Z" changeset="122595810" uid="3497659" user="NKA">
		<tag k="name" v="Fossheim" />
		<tag k="place" v="farm" />
		<tag k="ssr:stedsnr" v="746309" />
	</node>
	<node id="9831773404" lat="68.9183129" lon="18.4203697" version="1" timestamp="2022-06-19T22:38:59Z" changeset="122595810" uid="3497659" user="NKA">
		<tag k="name" v="Sommervoll" />
		<tag k="place" v="farm" />
		<tag k="ssr:stedsnr" v="381566" />
	</node>
	<node id="9831773405" lat="68.8296572" lon="18.4317504" version="1" timestamp="2022-06-19T22:38:59Z" changeset="122595810" uid="3497659" user="NKA">
		<tag k="name" v="Frøhaugen" />
		<tag k="place" v="farm" />
		<tag k="ssr:stedsnr" v="722470" />
	</node>
	<node id="9831773406" lat="68.8664223" lon="18.3653028" version="1" timestamp="2022-06-19T22:38:59Z" changeset="122595810" uid="3497659" user="NKA">
		<tag k="alt_name" v="Steien, nedre" />
		<tag k="name" v="Nedre Steien" />
		<tag k="place" v="farm" />
		<tag k="ssr:stedsnr" v="321494" />
	</node>
	<node id="9831773407" lat="68.918516" lon="18.4217509" version="1" timestamp="2022-06-19T22:38:59Z" changeset="122595810" uid="3497659" user="NKA">
		<tag k="name" v="Altun" />
		<tag k="place" v="farm" />
		<tag k="ssr:stedsnr" v="297185" />
	</node>
	<node id="9831773408" lat="68.8033195" lon="18.5263361" version="1" timestamp="2022-06-19T22:38:59Z" changeset="122595810" uid="3497659" user="NKA">
		<tag k="name" v="Kaldbekken" />
		<tag k="place" v="farm" />
		<tag k="ssr:stedsnr" v="442488" />
	</node>
	<node id="9831773409" lat="68.8761285" lon="18.4479843" version="1" timestamp="2022-06-19T22:38:59Z" changeset="122595810" uid="3497659" user="NKA">
		<tag k="name" v="Krokstadsætra" />
		<tag k="place" v="isolated_dwelling" />
		<tag k="ssr:stedsnr" v="260534" />
	</node>
	<node id="9831773410" lat="68.865172" lon="18.3676173" version="1" timestamp="2022-06-19T22:38:59Z" changeset="122595810" uid="3497659" user="NKA">
		<tag k="name" v="Steiland" />
		<tag k="place" v="farm" />
		<tag k="ssr:stedsnr" v="421133" />
	</node>
	<node id="9831773411" lat="68.8871472" lon="18.3166583" version="1" timestamp="2022-06-19T22:38:59Z" changeset="122595810" uid="3497659" user="NKA">
		<tag k="name" v="Høye" />
		<tag k="place" v="farm" />
		<tag k="ssr:stedsnr" v="78581" />
	</node>
	<node id="9831773412" lat="68.6418806" lon="18.2450915" version="1" timestamp="2022-06-19T22:38:59Z" changeset="122595810" uid="3497659" user="NKA">
		<tag k="name" v="Bjørkmo" />
		<tag k="place" v="farm" />
		<tag k="ssr:stedsnr" v="115933" />
	</node>
	<node id="9831773413" lat="68.9650667" lon="18.4817723" version="1" timestamp="2022-06-19T22:38:59Z" changeset="122595810" uid="3497659" user="NKA">
		<tag k="name" v="Liland" />
		<tag k="place" v="farm" />
		<tag k="ssr:stedsnr" v="17696" />
	</node>
	<node id="9831773414" lat="68.6588322" lon="18.8128091" version="1" timestamp="2022-06-19T22:38:59Z" changeset="122595810" uid="3497659" user="NKA">
		<tag k="name" v="Innset" />
		<tag k="place" v="hamlet" />
		<tag k="ssr:stedsnr" v="563474" />
	</node>
	<node id="9831773415" lat="68.8816428" lon="18.3533421" version="1" timestamp="2022-06-19T22:38:59Z" changeset="122595810" uid="3497659" user="NKA">
		<tag k="name" v="Moegga" />
		<tag k="place" v="neighbourhood" />
		<tag k="ssr:stedsnr" v="17627" />
	</node>
	<node id="9831773416" lat="68.8884266" lon="18.3578482" version="1" timestamp="2022-06-19T22:38:59Z" changeset="122595810" uid="3497659" user="NKA">
		<tag k="name" v="Steine" />
		<tag k="place" v="farm" />
		<tag k="ssr:stedsnr" v="17613" />
	</node>
	<node id="9831857817" lat="68.8177277" lon="18.4451139" version="1" timestamp="2022-06-19T22:38:59Z" changeset="122595810" uid="3497659" user="NKA">
		<tag k="name" v="Østvik" />
		<tag k="place" v="farm" />
		<tag k="ssr:stedsnr" v="540012" />
	</node>
	<node id="9831857818" lat="68.6612528" lon="18.7691471" version="1" timestamp="2022-06-19T22:38:59Z" changeset="122595810" uid="3497659" user="NKA">
		<tag k="alt_name" v="Stenhaugen" />
		<tag k="name" v="Steinhaugen" />
		<tag k="place" v="locality" />
		<tag k="ssr:stedsnr" v="624488" />
	</node>
	<node id="9831857819" lat="68.9342083" lon="18.4911056" version="1" timestamp="2022-06-19T22:38:59Z" changeset="122595810" uid="3497659" user="NKA">
		<tag k="name" v="Vangsætra" />
		<tag k="place" v="isolated_dwelling" />
		<tag k="ssr:stedsnr" v="200670" />
	</node>
	<node id="9831857820" lat="68.8559778" lon="18.3959082" version="1" timestamp="2022-06-19T22:38:59Z" changeset="122595810" uid="3497659" user="NKA">
		<tag k="alt_name" v="Steien, øvre" />
		<tag k="name" v="Øvre Steien" />
		<tag k="place" v="farm" />
		<tag k="ssr:stedsnr" v="200540" />
	</node>
	<node id="9831857821" lat="68.8644337" lon="18.3467577" version="1" timestamp="2022-06-19T22:38:59Z" changeset="122595810" uid="3497659" user="NKA">
		<tag k="name" v="Kirkmoen - Girkomuvva" />
		<tag k="name:no" v="Kirkmoen" />
		<tag k="name:se" v="Girkomuvva" />
		<tag k="place" v="farm" />
		<tag k="ssr:stedsnr" v="1077356" />
	</node>
	<node id="9831857822" lat="68.8931139" lon="18.4181084" version="1" timestamp="2022-06-19T22:38:59Z" changeset="122595810" uid="3497659" user="NKA">
		<tag k="alt_name" v="Nysted;Nysted, nordre" />
		<tag k="name" v="Nordre Nysted" />
		<tag k="place" v="farm" />
		<tag k="ssr:stedsnr" v="867612" />
	</node>
	<node id="9831857823" lat="68.862437" lon="18.3114542" version="1" timestamp="2022-06-19T22:38:59Z" changeset="122595810" uid="3497659" user="NKA">
		<tag k="loc_name:se" v="Seahtarmuvva" />
		<tag k="name" v="Sætermoen" />
		<tag k="name:no" v="Sætermoen" />
		<tag k="place" v="farm" />
		<tag k="ssr:stedsnr" v="1077375" />
	</node>
	<node id="9831857824" lat="68.7035528" lon="18.3986862" version="1" timestamp="2022-06-19T22:38:59Z" changeset="122595810" uid="3497659" user="NKA">
		<tag k="name" v="Holtet" />
		<tag k="place" v="locality" />
		<tag k="ssr:stedsnr" v="381371" />
	</node>
	<node id="9831857825" lat="68.9304944" lon="18.4837777" version="1" timestamp="2022-06-19T22:38:59Z" changeset="122595810" uid="3497659" user="NKA">
		<tag k="alt_name" v="Midtunsetra" />
		<tag k="name" v="Midtunsætra" />
		<tag k="place" v="isolated_dwelling" />
		<tag k="ssr:stedsnr" v="867591" />
	</node>
	<node id="9831857826" lat="68.7154144" lon="18.5534616" version="1" timestamp="2022-06-19T22:38:59Z" changeset="122595810" uid="3497659" user="NKA">
		<tag k="name" v="Melhus" />
		<tag k="place" v="farm" />
		<tag k="ssr:stedsnr" v="381351" />
	</node>
	<node id="9831857827" lat="69.0286269" lon="18.5557406" version="1" timestamp="2022-06-19T22:38:59Z" changeset="122595810" uid="3497659" user="NKA">
		<tag k="name" v="Åsen" />
		<tag k="place" v="farm" />
		<tag k="ssr:stedsnr" v="624916" />
	</node>
	<node id="9831857828" lat="69.0285694" lon="18.5427473" version="1" timestamp="2022-06-19T22:38:59Z" changeset="122595810" uid="3497659" user="NKA">
		<tag k="name" v="Åseng" />
		<tag k="place" v="farm" />
		<tag k="ssr:stedsnr" v="718965" />
	</node>
	<node id="9831857829" lat="68.9539252" lon="18.472887" version="1" timestamp="2022-06-19T22:38:59Z" changeset="122595810" uid="3497659" user="NKA">
		<tag k="name" v="Langstrand" />
		<tag k="place" v="farm" />
		<tag k="ssr:stedsnr" v="846169" />
	</node>
	<node id="9831857830" lat="68.7454408" lon="18.6266694" version="1" timestamp="2022-06-19T22:38:59Z" changeset="122595810" uid="3497659" user="NKA">
		<tag k="name" v="Solvang" />
		<tag k="place" v="farm" />
		<tag k="ssr:stedsnr" v="297603" />
	</node>
	<node id="9831857831" lat="69.0336083" lon="18.4547028" version="1" timestamp="2022-06-19T22:38:59Z" changeset="122595810" uid="3497659" user="NKA">
		<tag k="historic" v="shieling" />
		<tag k="name" v="Øverlisetra" />
		<tag k="place" v="isolated_dwelling" />
		<tag k="ssr:stedsnr" v="844630" />
	</node>
	<node id="9831857832" lat="68.9482977" lon="18.4653278" version="1" timestamp="2022-06-19T22:38:59Z" changeset="122595810" uid="3497659" user="NKA">
		<tag k="name" v="Blomli" />
		<tag k="place" v="farm" />
		<tag k="ssr:stedsnr" v="563702" />
	</node>
	<node id="9831857833" lat="69.0192278" lon="18.4852918" version="1" timestamp="2022-06-19T22:38:59Z" changeset="122595810" uid="3497659" user="NKA">
		<tag k="name" v="Hauge" />
		<tag k="place" v="farm" />
		<tag k="ssr:stedsnr" v="839956" />
	</node>
	<node id="9831857834" lat="68.9572306" lon="18.4733013" version="1" timestamp="2022-06-19T22:38:59Z" changeset="122595810" uid="3497659" user="NKA">
		<tag k="name" v="Bjørkli" />
		<tag k="place" v="farm" />
		<tag k="ssr:stedsnr" v="542219" />
	</node>
	<node id="9831857835" lat="68.8271305" lon="18.4573888" version="1" timestamp="2022-06-19T22:38:59Z" changeset="122595810" uid="3497659" user="NKA">
		<tag k="name" v="Fossheim" />
		<tag k="place" v="farm" />
		<tag k="ssr:stedsnr" v="200509" />
	</node>
	<node id="9831857836" lat="68.9667039" lon="18.4840942" version="1" timestamp="2022-06-19T22:38:59Z" changeset="122595810" uid="3497659" user="NKA">
		<tag k="name" v="Nordli" />
		<tag k="place" v="farm" />
		<tag k="ssr:stedsnr" v="624648" />
	</node>
	<node id="9831857837" lat="68.9853055" lon="18.4278279" version="1" timestamp="2022-06-19T22:38:59Z" changeset="122595810" uid="3497659" user="NKA">
		<tag k="historic" v="shieling" />
		<tag k="name" v="Tillergamma" />
		<tag k="place" v="isolated_dwelling" />
		<tag k="ssr:stedsnr" v="541990" />
	</node>
	<node id="9831857838" lat="68.9729083" lon="18.493564" version="1" timestamp="2022-06-19T22:38:59Z" changeset="122595810" uid="3497659" user="NKA">
		<tag k="name" v="Bjørnsund" />
		<tag k="place" v="farm" />
		<tag k="ssr:stedsnr" v="381669" />
	</node>
	<node id="9831857839" lat="69.0020376" lon="18.451193" version="1" timestamp="2022-06-19T22:38:59Z" changeset="122595810" uid="3497659" user="NKA">
		<tag k="name" v="Svendsvoll" />
		<tag k="place" v="farm" />
		<tag k="ssr:stedsnr" v="600988" />
	</node>
	<node id="9831857840" lat="69.0124" lon="18.5178804" version="1" timestamp="2022-06-19T22:38:59Z" changeset="122595810" uid="3497659" user="NKA">
		<tag k="name" v="Brandsegg" />
		<tag k="place" v="farm" />
		<tag k="ssr:stedsnr" v="79925" />
	</node>
	<node id="9831857841" lat="68.9452805" lon="18.4964055" version="1" timestamp="2022-06-19T22:38:59Z" changeset="122595810" uid="3497659" user="NKA">
		<tag k="alt_name" v="Strandsetra" />
		<tag k="name" v="Strandsætra" />
		<tag k="place" v="isolated_dwelling" />
		<tag k="ssr:stedsnr" v="260705" />
	</node>
	<node id="9831857842" lat="68.990021" lon="18.3538719" version="1" timestamp="2022-06-19T22:38:59Z" changeset="122595810" uid="3497659" user="NKA">
		<tag k="alt_name" v="Toresetra" />
		<tag k="name" v="Toresætra" />
		<tag k="place" v="isolated_dwelling" />
		<tag k="ssr:stedsnr" v="78624" />
	</node>
	<node id="9831857843" lat="68.7821445" lon="18.1559916" version="1" timestamp="2022-06-19T22:38:59Z" changeset="122595810" uid="3497659" user="NKA">
		<tag k="name" v="Løvli" />
		<tag k="place" v="farm" />
		<tag k="ssr:stedsnr" v="965554" />
	</node>
	<node id="9831857844" lat="68.8572972" lon="18.4136027" version="1" timestamp="2022-06-19T22:38:59Z" changeset="122595810" uid="3497659" user="NKA">
		<tag k="historic" v="shieling" />
		<tag k="name" v="Steisætra" />
		<tag k="place" v="isolated_dwelling" />
		<tag k="ssr:stedsnr" v="175115" />
	</node>
	<node id="9831857845" lat="68.9525083" lon="18.4691195" version="1" timestamp="2022-06-19T22:38:59Z" changeset="122595810" uid="3497659" user="NKA">
		<tag k="name" v="Anset" />
		<tag k="place" v="farm" />
		<tag k="ssr:stedsnr" v="175804" />
	</node>
	<node id="9831857846" lat="69.0160681" lon="18.4972377" version="1" timestamp="2022-06-19T22:38:59Z" changeset="122595810" uid="3497659" user="NKA">
		<tag k="name" v="Granneset" />
		<tag k="place" v="farm" />
		<tag k="ssr:stedsnr" v="176941" />
	</node>
	<node id="9831857847" lat="69.0161514" lon="18.480683" version="1" timestamp="2022-06-19T22:38:59Z" changeset="122595810" uid="3497659" user="NKA">
		<tag k="name" v="Bakketun" />
		<tag k="place" v="farm" />
		<tag k="ssr:stedsnr" v="175772" />
	</node>
	<node id="9831857848" lat="68.9474685" lon="18.499149" version="1" timestamp="2022-06-19T22:38:59Z" changeset="122595810" uid="3497659" user="NKA">
		<tag k="alt_name" v="Bjørklisetra" />
		<tag k="name" v="Bjørklisætra" />
		<tag k="place" v="locality" />
		<tag k="ssr:stedsnr" v="928624" />
	</node>
	<node id="9831857849" lat="68.7240974" lon="18.1003103" version="1" timestamp="2022-06-19T22:38:59Z" changeset="122595810" uid="3497659" user="NKA">
		<tag k="name" v="Bratteng" />
		<tag k="place" v="farm" />
		<tag k="ssr:stedsnr" v="685654" />
	</node>
	<node id="9831857850" lat="69.0020241" lon="18.456526" version="1" timestamp="2022-06-19T22:38:59Z" changeset="122595810" uid="3497659" user="NKA">
		<tag k="name" v="Rolfstad" />
		<tag k="place" v="farm" />
		<tag k="ssr:stedsnr" v="782970" />
	</node>
	<node id="9831857851" lat="68.8998889" lon="18.1971056" version="1" timestamp="2022-06-19T22:38:59Z" changeset="122595810" uid="3497659" user="NKA">
		<tag k="name" v="Isakheimen" />
		<tag k="place" v="locality" />
		<tag k="ssr:stedsnr" v="663362" />
	</node>
	<node id="9831857852" lat="68.7719833" lon="18.1691612" version="1" timestamp="2022-06-19T22:38:59Z" changeset="122595810" uid="3497659" user="NKA">
		<tag k="name" v="Forset" />
		<tag k="place" v="hamlet" />
		<tag k="ssr:stedsnr" v="806424" />
	</node>
	<node id="9831857853" lat="68.7923644" lon="18.5061501" version="1" timestamp="2022-06-19T22:38:59Z" changeset="122595810" uid="3497659" user="NKA">
		<tag k="name" v="Karlstad" />
		<tag k="place" v="farm" />
		<tag k="ssr:stedsnr" v="745447" />
	</node>
	<node id="9831857854" lat="69.0055695" lon="18.4685028" version="1" timestamp="2022-06-19T22:38:59Z" changeset="122595810" uid="3497659" user="NKA">
		<tag k="alt_name" v="Årseth" />
		<tag k="name" v="Årset" />
		<tag k="place" v="farm" />
		<tag k="ssr:stedsnr" v="297980" />
	</node>
	<node id="9831857855" lat="68.890763" lon="18.372743" version="1" timestamp="2022-06-19T22:38:59Z" changeset="122595810" uid="3497659" user="NKA">
		<tag k="alt_name" v="Jemningen" />
		<tag k="name" v="Jevningen" />
		<tag k="place" v="farm" />
		<tag k="ssr:stedsnr" v="502597" />
	</node>
	<node id="9831857856" lat="68.7190829" lon="18.1039624" version="1" timestamp="2022-06-19T22:38:59Z" changeset="122595810" uid="3497659" user="NKA">
		<tag k="name" v="Skogstad" />
		<tag k="place" v="farm" />
		<tag k="ssr:stedsnr" v="746637" />
	</node>
	<node id="9831857857" lat="68.8809222" lon="18.4006389" version="1" timestamp="2022-06-19T22:38:59Z" changeset="122595810" uid="3497659" user="NKA">
		<tag k="historic" v="shieling" />
		<tag k="name" v="Kildalsætra" />
		<tag k="place" v="isolated_dwelling" />
		<tag k="ssr:stedsnr" v="358078" />
	</node>
	<node id="9831857858" lat="68.8201306" lon="18.4449361" version="1" timestamp="2022-06-19T22:38:59Z" changeset="122595810" uid="3497659" user="NKA">
		<tag k="name" v="Bjørkan" />
		<tag k="place" v="farm" />
		<tag k="ssr:stedsnr" v="479018" />
	</node>
	<node id="9831857859" lat="69.004434" lon="18.5164298" version="1" timestamp="2022-06-19T22:38:59Z" changeset="122595810" uid="3497659" user="NKA">
		<tag k="alt_name" v="Elverom" />
		<tag k="name" v="Elverum" />
		<tag k="place" v="hamlet" />
		<tag k="ssr:stedsnr" v="868914" />
	</node>
	<node id="9831857860" lat="68.8880738" lon="18.3145912" version="1" timestamp="2022-06-19T22:38:59Z" changeset="122595810" uid="3497659" user="NKA">
		<tag k="name" v="Høgda" />
		<tag k="place" v="farm" />
		<tag k="ssr:stedsnr" v="927596" />
	</node>
	<node id="9831857861" lat="68.9716252" lon="18.3410635" version="1" timestamp="2022-06-19T22:38:59Z" changeset="122595810" uid="3497659" user="NKA">
		<tag k="alt_name" v="Åssetra" />
		<tag k="historic" v="shieling" />
		<tag k="name" v="Åssætra" />
		<tag k="place" v="isolated_dwelling" />
		<tag k="ssr:stedsnr" v="563670" />
	</node>
	<node id="9831857862" lat="68.9731841" lon="18.3260501" version="1" timestamp="2022-06-19T22:38:59Z" changeset="122595810" uid="3497659" user="NKA">
		<tag k="name" v="Kampenhytta" />
		<tag k="place" v="isolated_dwelling" />
		<tag k="ssr:stedsnr" v="563664" />
	</node>
	<node id="9831857863" lat="68.96095" lon="18.4986416" version="1" timestamp="2022-06-19T22:38:59Z" changeset="122595810" uid="3497659" user="NKA">
		<tag k="name" v="Fjellstad" />
		<tag k="place" v="farm" />
		<tag k="ssr:stedsnr" v="563681" />
	</node>
	<node id="9831857864" lat="68.8519084" lon="18.1201444" version="1" timestamp="2022-06-19T22:38:59Z" changeset="122595810" uid="3497659" user="NKA">
		<tag k="name" v="Furuly" />
		<tag k="place" v="farm" />
		<tag k="ssr:stedsnr" v="138530" />
	</node>
	<node id="9831857865" lat="68.9644806" lon="18.4785222" version="1" timestamp="2022-06-19T22:38:59Z" changeset="122595810" uid="3497659" user="NKA">
		<tag k="name" v="Fosslund" />
		<tag k="place" v="farm" />
		<tag k="ssr:stedsnr" v="299207" />
	</node>
	<node id="9831857866" lat="69.0075833" lon="18.5328417" version="1" timestamp="2022-06-19T22:38:59Z" changeset="122595810" uid="3497659" user="NKA">
		<tag k="name" v="Brandli" />
		<tag k="place" v="farm" />
		<tag k="ssr:stedsnr" v="297968" />
	</node>
	<node id="9831857867" lat="68.8232722" lon="18.4563416" version="1" timestamp="2022-06-19T22:38:59Z" changeset="122595810" uid="3497659" user="NKA">
		<tag k="name" v="Granlund" />
		<tag k="place" v="farm" />
		<tag k="ssr:stedsnr" v="965020" />
	</node>
	<node id="9831857868" lat="68.8373972" lon="18.4092916" version="1" timestamp="2022-06-19T22:38:59Z" changeset="122595810" uid="3497659" user="NKA">
		<tag k="name" v="Steiro" />
		<tag k="place" v="farm" />
		<tag k="ssr:stedsnr" v="236409" />
	</node>
	<node id="9831857869" lat="68.7110333" lon="18.6601917" version="1" timestamp="2022-06-19T22:38:59Z" changeset="122595810" uid="3497659" user="NKA">
		<tag k="name" v="Dalberg" />
		<tag k="place" v="farm" />
		<tag k="ssr:stedsnr" v="928440" />
	</node>
	<node id="9831857870" lat="68.7854872" lon="18.5202558" version="1" timestamp="2022-06-19T22:38:59Z" changeset="122595810" uid="3497659" user="NKA">
		<tag k="alt_name" v="Nytrøen" />
		<tag k="name" v="Nytrøa" />
		<tag k="place" v="farm" />
		<tag k="ssr:stedsnr" v="806446" />
	</node>
	<node id="9831857871" lat="68.8310705" lon="18.1737258" version="1" timestamp="2022-06-19T22:38:59Z" changeset="122595810" uid="3497659" user="NKA">
		<tag k="alt_name" v="Brandvoll, nordre" />
		<tag k="name" v="Nordre Brandvoll" />
		<tag k="place" v="farm" />
		<tag k="ssr:stedsnr" v="18520" />
	</node>
	<node id="9831857872" lat="68.8952661" lon="18.2434188" version="1" timestamp="2022-06-19T22:38:59Z" changeset="122595810" uid="3497659" user="NKA">
		<tag k="name" v="Langvasslia" />
		<tag k="place" v="farm" />
		<tag k="ssr:stedsnr" v="1077355" />
	</node>
	<node id="9831857873" lat="68.8034222" lon="18.5144666" version="1" timestamp="2022-06-19T22:38:59Z" changeset="122595810" uid="3497659" user="NKA">
		<tag k="alt_name" v="Eggen, nedre" />
		<tag k="name" v="Nedre Eggen" />
		<tag k="place" v="farm" />
		<tag k="ssr:stedsnr" v="806463" />
	</node>
	<node id="9831857874" lat="68.710076" lon="18.4868536" version="1" timestamp="2022-06-19T22:38:59Z" changeset="122595810" uid="3497659" user="NKA">
		<tag k="name" v="Melhussætra" />
		<tag k="place" v="isolated_dwelling" />
		<tag k="ssr:stedsnr" v="442365" />
	</node>
	<node id="9831857875" lat="68.8265333" lon="18.2552361" version="1" timestamp="2022-06-19T22:38:59Z" changeset="122595810" uid="3497659" user="NKA">
		<tag k="name" v="Sørås" />
		<tag k="place" v="farm" />
		<tag k="ssr:stedsnr" v="663241" />
	</node>
	<node id="9831857876" lat="68.8655417" lon="18.1025249" version="1" timestamp="2022-06-19T22:38:59Z" changeset="122595810" uid="3497659" user="NKA">
		<tag k="name" v="Voll" />
		<tag k="place" v="farm" />
		<tag k="ssr:stedsnr" v="624516" />
	</node>
	<node id="9831857877" lat="68.8372472" lon="18.1632861" version="1" timestamp="2022-06-19T22:38:59Z" changeset="122595810" uid="3497659" user="NKA">
		<tag k="alt_name" v="Kroken;Kroken, austre" />
		<tag k="name" v="Austre Kroken" />
		<tag k="place" v="farm" />
		<tag k="ssr:stedsnr" v="798505" />
	</node>
	<node id="9831857878" lat="68.7730055" lon="18.5252472" version="1" timestamp="2022-06-19T22:38:59Z" changeset="122595810" uid="3497659" user="NKA">
		<tag k="name" v="Øyvoll" />
		<tag k="place" v="farm" />
		<tag k="ssr:stedsnr" v="503424" />
	</node>
	<node id="9831857879" lat="68.8131083" lon="18.1809611" version="1" timestamp="2022-06-19T22:38:59Z" changeset="122595810" uid="3497659" user="NKA">
		<tag k="name" v="Elvelund" />
		<tag k="place" v="farm" />
		<tag k="ssr:stedsnr" v="846268" />
	</node>
	<node id="9831857880" lat="68.8351" lon="18.1728251" version="1" timestamp="2022-06-19T22:38:59Z" changeset="122595810" uid="3497659" user="NKA">
		<tag k="alt_name" v="Austgård" />
		<tag k="name" v="Østgård" />
		<tag k="place" v="farm" />
		<tag k="ssr:stedsnr" v="503530" />
	</node>
	<node id="9831857881" lat="68.8142222" lon="18.4732722" version="1" timestamp="2022-06-19T22:38:59Z" changeset="122595810" uid="3497659" user="NKA">
		<tag k="name" v="Haugland" />
		<tag k="place" v="farm" />
		<tag k="ssr:stedsnr" v="442476" />
	</node>
	<node id="9831857882" lat="68.7806305" lon="18.1907579" version="1" timestamp="2022-06-19T22:38:59Z" changeset="122595810" uid="3497659" user="NKA">
		<tag k="name" v="Nyheim" />
		<tag k="place" v="farm" />
		<tag k="ssr:stedsnr" v="479617" />
	</node>
	<node id="9831857883" lat="68.7069084" lon="18.5546388" version="1" timestamp="2022-06-19T22:38:59Z" changeset="122595810" uid="3497659" user="NKA">
		<tag k="name" v="Løberg" />
		<tag k="place" v="farm" />
		<tag k="ssr:stedsnr" v="321343" />
	</node>
	<node id="9831857884" lat="68.725038" lon="18.0899637" version="1" timestamp="2022-06-19T22:38:59Z" changeset="122595810" uid="3497659" user="NKA">
		<tag k="name" v="Lyngmo" />
		<tag k="place" v="farm" />
		<tag k="ssr:stedsnr" v="746640" />
	</node>
	<node id="9831857885" lat="68.8127861" lon="18.5007528" version="1" timestamp="2022-06-19T22:38:59Z" changeset="122595810" uid="3497659" user="NKA">
		<tag k="name" v="Skogtun" />
		<tag k="place" v="farm" />
		<tag k="ssr:stedsnr" v="238148" />
	</node>
	<node id="9831857886" lat="68.8258661" lon="18.1692807" version="1" timestamp="2022-06-19T22:38:59Z" changeset="122595810" uid="3497659" user="NKA">
		<tag k="name" v="Nerum" />
		<tag k="place" v="farm" />
		<tag k="ssr:stedsnr" v="624551" />
	</node>
	<node id="9831857887" lat="68.6681028" lon="18.5489417" version="1" timestamp="2022-06-19T22:38:59Z" changeset="122595810" uid="3497659" user="NKA">
		<tag k="name" v="Fagerhaug" />
		<tag k="place" v="farm" />
		<tag k="ssr:stedsnr" v="79327" />
	</node>
	<node id="9831857888" lat="68.8053416" lon="18.5321296" version="1" timestamp="2022-06-19T22:38:59Z" changeset="122595810" uid="3497659" user="NKA">
		<tag k="loc_name:se" v="Beardogieddi" />
		<tag k="name" v="Bardujord" />
		<tag k="name:no" v="Bardujord" />
		<tag k="place" v="hamlet" />
		<tag k="ssr:stedsnr" v="78468" />
	</node>
	<node id="9831857889" lat="68.8186639" lon="18.2677195" version="1" timestamp="2022-06-19T22:38:59Z" changeset="122595810" uid="3497659" user="NKA">
		<tag k="name" v="Sørskogen" />
		<tag k="place" v="farm" />
		<tag k="ssr:stedsnr" v="624547" />
	</node>
	<node id="9831857890" lat="68.8322805" lon="18.2326945" version="1" timestamp="2022-06-19T22:38:59Z" changeset="122595810" uid="3497659" user="NKA">
		<tag k="name" v="Lian" />
		<tag k="place" v="farm" />
		<tag k="ssr:stedsnr" v="178239" />
	</node>
	<node id="9831857891" lat="68.6880694" lon="18.6938612" version="1" timestamp="2022-06-19T22:38:59Z" changeset="122595810" uid="3497659" user="NKA">
		<tag k="historic" v="shieling" />
		<tag k="name" v="Strømsørsætra" />
		<tag k="place" v="isolated_dwelling" />
		<tag k="ssr:stedsnr" v="56926" />
	</node>
	<node id="9831857892" lat="68.7454611" lon="18.5398084" version="1" timestamp="2022-06-19T22:38:59Z" changeset="122595810" uid="3497659" user="NKA">
		<tag k="name" v="Slettskreda" />
		<tag k="place" v="farm" />
		<tag k="ssr:stedsnr" v="200629" />
	</node>
	<node id="9831857893" lat="68.7198878" lon="18.6592881" version="1" timestamp="2022-06-19T22:38:59Z" changeset="122595810" uid="3497659" user="NKA">
		<tag k="name" v="Nydal" />
		<tag k="place" v="farm" />
		<tag k="ssr:stedsnr" v="200493" />
	</node>
	<node id="9831857894" lat="68.9605973" lon="18.4750471" version="1" timestamp="2022-06-19T22:38:59Z" changeset="122595810" uid="3497659" user="NKA">
		<tag k="name" v="Blomstrand" />
		<tag k="place" v="farm" />
		<tag k="ssr:stedsnr" v="481246" />
	</node>
	<node id="9831857895" lat="68.6881823" lon="18.5601666" version="1" timestamp="2022-06-19T22:38:59Z" changeset="122595810" uid="3497659" user="NKA">
		<tag k="name" v="Messelt" />
		<tag k="place" v="farm" />
		<tag k="ssr:stedsnr" v="200323" />
	</node>
	<node id="9831857896" lat="68.6687155" lon="18.9493839" version="1" timestamp="2022-06-19T22:38:59Z" changeset="122595810" uid="3497659" user="NKA">
		<tag k="name" v="Návsti" />
		<tag k="name:se" v="Návsti" />
		<tag k="place" v="locality" />
		<tag k="ssr:stedsnr" v="1080520" />
	</node>
	<node id="9831857897" lat="68.7720598" lon="18.5289663" version="1" timestamp="2022-06-19T22:38:59Z" changeset="122595810" uid="3497659" user="NKA">
		<tag k="name" v="Øymoen" />
		<tag k="place" v="farm" />
		<tag k="ssr:stedsnr" v="200440" />
	</node>
	<node id="9831857898" lat="68.8365992" lon="18.3987501" version="1" timestamp="2022-06-19T22:38:59Z" changeset="122595810" uid="3497659" user="NKA">
		<tag k="name" v="Stensrud" />
		<tag k="place" v="farm" />
		<tag k="ssr:stedsnr" v="479428" />
	</node>
	<node id="9831857899" lat="68.6816079" lon="18.5504821" version="1" timestamp="2022-06-19T22:38:59Z" changeset="122595810" uid="3497659" user="NKA">
		<tag k="name" v="Skjulstad" />
		<tag k="place" v="locality" />
		<tag k="ssr:stedsnr" v="200321" />
	</node>
	<node id="9831857900" lat="68.8211819" lon="18.5427506" version="1" timestamp="2022-06-19T22:38:59Z" changeset="122595810" uid="3497659" user="NKA">
		<tag k="name" v="Fagerheim" />
		<tag k="place" v="farm" />
		<tag k="ssr:stedsnr" v="867488" />
	</node>
	<node id="9831857901" lat="68.8125818" lon="18.7436951" version="1" timestamp="2022-06-19T22:38:59Z" changeset="122595810" uid="3497659" user="NKA">
		<tag k="name" v="Isogaissa" />
		<tag k="name:se" v="Isogaissa" />
		<tag k="place" v="locality" />
		<tag k="ssr:stedsnr" v="1077390" />
	</node>
	<node id="9831857902" lat="68.9933949" lon="18.5275132" version="1" timestamp="2022-06-19T22:38:59Z" changeset="122595810" uid="3497659" user="NKA">
		<tag k="name" v="Lystad" />
		<tag k="place" v="farm" />
		<tag k="ssr:stedsnr" v="600885" />
	</node>
	<node id="9831857903" lat="68.7089383" lon="18.9806299" version="1" timestamp="2022-06-19T22:38:59Z" changeset="122595810" uid="3497659" user="NKA">
		<tag k="name" v="Altevatn Nord" />
		<tag k="place" v="locality" />
		<tag k="ssr:stedsnr" v="1077389" />
	</node>
	<node id="9831857904" lat="68.8659583" lon="18.3477277" version="1" timestamp="2022-06-19T22:38:59Z" changeset="122595810" uid="3497659" user="NKA">
		<tag k="alt_name" v="Kjerkmoen;Kirkemoen" />
		<tag k="name" v="Kirkesmoen" />
		<tag k="place" v="neighbourhood" />
		<tag k="ssr:stedsnr" v="928473" />
	</node>
	<node id="9831857905" lat="68.9192472" lon="18.3854862" version="1" timestamp="2022-06-19T22:38:59Z" changeset="122595810" uid="3497659" user="NKA">
		<tag k="historic" v="shieling" />
		<tag k="name" v="Moseter" />
		<tag k="place" v="isolated_dwelling" />
		<tag k="ssr:stedsnr" v="600184" />
	</node>
	<node id="9831857906" lat="68.7267947" lon="18.5536241" version="1" timestamp="2022-06-19T22:38:59Z" changeset="122595810" uid="3497659" user="NKA">
		<tag k="name" v="Lundberg" />
		<tag k="place" v="farm" />
		<tag k="ssr:stedsnr" v="199676" />
	</node>
	<node id="9831857907" lat="68.90985" lon="18.43995" version="1" timestamp="2022-06-19T22:38:59Z" changeset="122595810" uid="3497659" user="NKA">
		<tag k="historic" v="shieling" />
		<tag k="name" v="Utbysætra" />
		<tag k="place" v="isolated_dwelling" />
		<tag k="ssr:stedsnr" v="906205" />
	</node>
	<node id="9831857908" lat="68.80345" lon="18.520775" version="1" timestamp="2022-06-19T22:38:59Z" changeset="122595810" uid="3497659" user="NKA">
		<tag k="alt_name" v="Eggen, øvre;Eggen" />
		<tag k="name" v="Øvre Eggen" />
		<tag k="place" v="farm" />
		<tag k="ssr:stedsnr" v="199466" />
	</node>
	<node id="9831857909" lat="68.8425139" lon="18.2655084" version="1" timestamp="2022-06-19T22:38:59Z" changeset="122595810" uid="3497659" user="NKA">
		<tag k="name" v="Lyngstad" />
		<tag k="place" v="farm" />
		<tag k="ssr:stedsnr" v="175680" />
	</node>
	<node id="9831857910" lat="68.8452222" lon="18.1731999" version="1" timestamp="2022-06-19T22:38:59Z" changeset="122595810" uid="3497659" user="NKA">
		<tag k="historic" v="shieling" />
		<tag k="name" v="Kroksætra" />
		<tag k="place" v="isolated_dwelling" />
		<tag k="ssr:stedsnr" v="175584" />
	</node>
	<node id="9831857911" lat="68.7968559" lon="18.5038298" version="1" timestamp="2022-06-19T22:38:59Z" changeset="122595810" uid="3497659" user="NKA">
		<tag k="name" v="Elvestad" />
		<tag k="place" v="farm" />
		<tag k="ssr:stedsnr" v="624468" />
	</node>
	<node id="9831857912" lat="68.8453778" lon="18.1723611" version="1" timestamp="2022-06-19T22:38:59Z" changeset="122595810" uid="3497659" user="NKA">
		<tag k="historic" v="shieling" />
		<tag k="name" v="Kroksengsætra" />
		<tag k="place" v="isolated_dwelling" />
		<tag k="ssr:stedsnr" v="115558" />
	</node>
	<node id="9831857913" lat="68.8904288" lon="18.4157802" version="1" timestamp="2022-06-19T22:38:59Z" changeset="122595810" uid="3497659" user="NKA">
		<tag k="name" v="Ranum" />
		<tag k="place" v="farm" />
		<tag k="ssr:stedsnr" v="503563" />
	</node>
	<node id="9831857914" lat="68.8756812" lon="18.3812845" version="1" timestamp="2022-06-19T22:38:59Z" changeset="122595810" uid="3497659" user="NKA">
		<tag k="alt_name" v="Rotvold" />
		<tag k="name" v="Rotvoll" />
		<tag k="place" v="farm" />
		<tag k="ssr:stedsnr" v="381623" />
	</node>
	<node id="9831857915" lat="68.7701389" lon="18.5274695" version="1" timestamp="2022-06-19T22:38:59Z" changeset="122595810" uid="3497659" user="NKA">
		<tag k="name" v="Øystad" />
		<tag k="place" v="farm" />
		<tag k="ssr:stedsnr" v="563433" />
	</node>
	<node id="9831857916" lat="68.9199111" lon="18.4309084" version="1" timestamp="2022-06-19T22:38:59Z" changeset="122595810" uid="3497659" user="NKA">
		<tag k="name" v="Teigland" />
		<tag k="place" v="farm" />
		<tag k="ssr:stedsnr" v="321535" />
	</node>
	<node id="9831857917" lat="68.7796093" lon="18.1571678" version="1" timestamp="2022-06-19T22:38:59Z" changeset="122595810" uid="3497659" user="NKA">
		<tag k="alt_name" v="Straumskroken" />
		<tag k="name" v="Strømskroken" />
		<tag k="place" v="hamlet" />
		<tag k="ssr:stedsnr" v="83204" />
	</node>
	<node id="9831857918" lat="68.8914667" lon="18.4170807" version="1" timestamp="2022-06-19T22:38:59Z" changeset="122595810" uid="3497659" user="NKA">
		<tag k="alt_name" v="Nysted, s" />
		<tag k="name" v="Søndre Nysted" />
		<tag k="old_name" v="Nysted" />
		<tag k="place" v="farm" />
		<tag k="ssr:stedsnr" v="260617" />
	</node>
	<node id="9831857919" lat="68.8269811" lon="18.179063" version="1" timestamp="2022-06-19T22:38:59Z" changeset="122595810" uid="3497659" user="NKA">
		<tag k="alt_name" v="Brandvoll;Brandvoll, s" />
		<tag k="name" v="Søndre Brandvoll" />
		<tag k="place" v="farm" />
		<tag k="ssr:stedsnr" v="139567" />
	</node>
	<node id="9831857920" lat="68.843266" lon="18.2478636" version="1" timestamp="2022-06-19T22:38:59Z" changeset="122595810" uid="3497659" user="NKA">
		<tag k="name" v="Midtli" />
		<tag k="old_name" v="Midtlia" />
		<tag k="place" v="farm" />
		<tag k="ssr:stedsnr" v="139557" />
	</node>
	<node id="9831857921" lat="68.9160306" lon="18.4288916" version="1" timestamp="2022-06-19T22:38:59Z" changeset="122595810" uid="3497659" user="NKA">
		<tag k="name" v="Utby" />
		<tag k="place" v="hamlet" />
		<tag k="ssr:stedsnr" v="260589" />
	</node>
	<node id="9831857922" lat="68.7387222" lon="18.5507306" version="1" timestamp="2022-06-19T22:38:59Z" changeset="122595810" uid="3497659" user="NKA">
		<tag k="name" v="Brubakken" />
		<tag k="place" v="farm" />
		<tag k="ssr:stedsnr" v="624663" />
	</node>
	<node id="9831857923" lat="68.7368305" lon="18.556914" version="1" timestamp="2022-06-19T22:38:59Z" changeset="122595810" uid="3497659" user="NKA">
		<tag k="alt_name" v="Myhre" />
		<tag k="name" v="Myre" />
		<tag k="place" v="farm" />
		<tag k="ssr:stedsnr" v="624666" />
	</node>
	<node id="9831857924" lat="68.9058472" lon="18.4279583" version="1" timestamp="2022-06-19T22:38:59Z" changeset="122595810" uid="3497659" user="NKA">
		<tag k="name" v="Østhagen" />
		<tag k="place" v="farm" />
		<tag k="ssr:stedsnr" v="382569" />
	</node>
	<node id="9831857925" lat="68.8462112" lon="18.1160862" version="1" timestamp="2022-06-19T22:38:59Z" changeset="122595810" uid="3497659" user="NKA">
		<tag k="name" v="Valør" />
		<tag k="place" v="farm" />
		<tag k="ssr:stedsnr" v="52261" />
	</node>
	<node id="9831857926" lat="68.6999933" lon="18.5604422" version="1" timestamp="2022-06-19T22:38:59Z" changeset="122595810" uid="3497659" user="NKA">
		<tag k="name" v="Løkstad" />
		<tag k="place" v="farm" />
		<tag k="ssr:stedsnr" v="381374" />
	</node>
	<node id="9831857927" lat="68.7456722" lon="18.5409221" version="1" timestamp="2022-06-19T22:38:59Z" changeset="122595810" uid="3497659" user="NKA">
		<tag k="name" v="Lunde" />
		<tag k="place" v="farm" />
		<tag k="ssr:stedsnr" v="382611" />
	</node>
	<node id="9831857928" lat="68.6757306" lon="18.767639" version="1" timestamp="2022-06-19T22:38:59Z" changeset="122595810" uid="3497659" user="NKA">
		<tag k="name" v="Inset Nedre" />
		<tag k="place" v="farm" />
		<tag k="ssr:stedsnr" v="359929" />
	</node>
	<node id="9831857929" lat="68.8128917" lon="18.5065056" version="1" timestamp="2022-06-19T22:38:59Z" changeset="122595810" uid="3497659" user="NKA">
		<tag k="alt_name" v="Grenåker" />
		<tag k="name" v="Grenaker" />
		<tag k="place" v="farm" />
		<tag k="ssr:stedsnr" v="685443" />
	</node>
	<node id="9831857930" lat="68.8726052" lon="18.4709426" version="1" timestamp="2022-06-19T22:38:59Z" changeset="122595810" uid="3497659" user="NKA">
		<tag k="loc_name:no" v="Mattiplassen" />
		<tag k="name" v="Beassetorda" />
		<tag k="name:se" v="Beassetorda" />
		<tag k="place" v="locality" />
		<tag k="ssr:stedsnr" v="1083519" />
	</node>
	<node id="9831857931" lat="68.8721" lon="18.452425" version="1" timestamp="2022-06-19T22:38:59Z" changeset="122595810" uid="3497659" user="NKA">
		<tag k="historic" v="shieling" />
		<tag k="name" v="Grendalssætra" />
		<tag k="place" v="isolated_dwelling" />
		<tag k="ssr:stedsnr" v="783101" />
	</node>
	<node id="9831857932" lat="68.8163275" lon="18.4513782" version="1" timestamp="2022-06-19T22:38:59Z" changeset="122595810" uid="3497659" user="NKA">
		<tag k="alt_name" v="Viken" />
		<tag k="name" v="Vika" />
		<tag k="place" v="farm" />
		<tag k="ssr:stedsnr" v="260518" />
	</node>
	<node id="9831857933" lat="68.8327026" lon="18.4069209" version="1" timestamp="2022-06-19T22:38:59Z" changeset="122595810" uid="3497659" user="NKA">
		<tag k="name" v="Asplund" />
		<tag k="place" v="farm" />
		<tag k="ssr:stedsnr" v="443547" />
	</node>
	<node id="9831857934" lat="68.8273416" lon="18.4554279" version="1" timestamp="2022-06-19T22:38:59Z" changeset="122595810" uid="3497659" user="NKA">
		<tag k="name" v="Fossland" />
		<tag k="place" v="farm" />
		<tag k="ssr:stedsnr" v="382488" />
	</node>
	<node id="9831857935" lat="68.7670368" lon="18.5301716" version="1" timestamp="2022-06-19T22:38:59Z" changeset="122595810" uid="3497659" user="NKA">
		<tag k="name" v="Øylund" />
		<tag k="place" v="farm" />
		<tag k="ssr:stedsnr" v="421185" />
	</node>
	<node id="9831857936" lat="68.6636623" lon="18.8023306" version="1" timestamp="2022-06-19T22:38:59Z" changeset="122595810" uid="3497659" user="NKA">
		<tag k="name" v="Solvoll" />
		<tag k="place" v="farm" />
		<tag k="ssr:stedsnr" v="200502" />
	</node>
	<node id="9831857937" lat="68.8882117" lon="18.3593417" version="1" timestamp="2022-06-19T22:38:59Z" changeset="122595810" uid="3497659" user="NKA">
		<tag k="name" v="Høgda" />
		<tag k="place" v="farm" />
		<tag k="ssr:stedsnr" v="563584" />
	</node>
	<node id="9831857938" lat="68.6576584" lon="18.4852528" version="1" timestamp="2022-06-19T22:38:59Z" changeset="122595810" uid="3497659" user="NKA">
		<tag k="historic" v="shieling" />
		<tag k="name" v="Sørgårdsætra" />
		<tag k="place" v="isolated_dwelling" />
		<tag k="ssr:stedsnr" v="236400" />
	</node>
	<node id="9831857939" lat="68.8276611" lon="18.6061806" version="1" timestamp="2022-06-19T22:38:59Z" changeset="122595810" uid="3497659" user="NKA">
		<tag k="historic" v="shieling" />
		<tag k="name" v="Eggsætra" />
		<tag k="place" v="isolated_dwelling" />
		<tag k="ssr:stedsnr" v="421224" />
	</node>
	<node id="9831857940" lat="68.8762221" lon="18.4529509" version="1" timestamp="2022-06-19T22:38:59Z" changeset="122595810" uid="3497659" user="NKA">
		<tag k="name" v="Nystedsætra" />
		<tag k="place" v="isolated_dwelling" />
		<tag k="ssr:stedsnr" v="624512" />
	</node>
	<node id="9831857941" lat="69.0154919" lon="18.4227716" version="1" timestamp="2022-06-19T22:38:59Z" changeset="122595810" uid="3497659" user="NKA">
		<tag k="alt_name" v="Myrvangsetra" />
		<tag k="name" v="Myrvangsætra" />
		<tag k="place" v="isolated_dwelling" />
		<tag k="ssr:stedsnr" v="928931" />
	</node>
	<node id="9831857942" lat="68.8739113" lon="18.4434553" version="1" timestamp="2022-06-19T22:38:59Z" changeset="122595810" uid="3497659" user="NKA">
		<tag k="historic" v="shieling" />
		<tag k="name" v="Jevningsætra" />
		<tag k="place" v="isolated_dwelling" />
		<tag k="ssr:stedsnr" v="176149" />
	</node>
	<node id="9831857943" lat="68.8049319" lon="18.5161921" version="1" timestamp="2022-06-19T22:38:59Z" changeset="122595810" uid="3497659" user="NKA">
		<tag k="name" v="Eggen" />
		<tag k="place" v="farm" />
		<tag k="ssr:stedsnr" v="1077358" />
	</node>
	<node id="9831857944" lat="68.9774444" lon="18.5206472" version="1" timestamp="2022-06-19T22:38:59Z" changeset="122595810" uid="3497659" user="NKA">
		<tag k="alt_name" v="Iselvmo" />
		<tag k="name" v="Iselvmoen" />
		<tag k="place" v="farm" />
		<tag k="ssr:stedsnr" v="381657" />
	</node>
	<node id="9831857945" lat="69.003775" lon="18.4574" version="1" timestamp="2022-06-19T22:38:59Z" changeset="122595810" uid="3497659" user="NKA">
		<tag k="name" v="Ranum" />
		<tag k="place" v="farm" />
		<tag k="ssr:stedsnr" v="479988" />
	</node>
	<node id="9831857946" lat="69.0018333" lon="18.5298638" version="1" timestamp="2022-06-19T22:38:59Z" changeset="122595810" uid="3497659" user="NKA">
		<tag k="alt_name" v="Sagmo" />
		<tag k="name" v="Sagmoen" />
		<tag k="place" v="farm" />
		<tag k="ssr:stedsnr" v="503871" />
	</node>
	<node id="9831857947" lat="69.0205333" lon="18.4874943" version="1" timestamp="2022-06-19T22:38:59Z" changeset="122595810" uid="3497659" user="NKA">
		<tag k="name" v="Øverli" />
		<tag k="place" v="farm" />
		<tag k="ssr:stedsnr" v="443929" />
	</node>
	<node id="9831857948" lat="68.6568567" lon="18.2203936" version="1" timestamp="2022-06-19T22:38:59Z" changeset="122595810" uid="3497659" user="NKA">
		<tag k="alt_name" v="Haaksvold" />
		<tag k="name" v="Håksvoll" />
		<tag k="place" v="farm" />
		<tag k="ssr:stedsnr" v="928247" />
	</node>
	<node id="9831857949" lat="68.8153313" lon="18.4677616" version="1" timestamp="2022-06-19T22:38:59Z" changeset="122595810" uid="3497659" user="NKA">
		<tag k="name" v="Haugen" />
		<tag k="place" v="farm" />
		<tag k="ssr:stedsnr" v="563484" />
	</node>
	<node id="9831857950" lat="68.7664846" lon="18.170626" version="1" timestamp="2022-06-19T22:38:59Z" changeset="122595810" uid="3497659" user="NKA">
		<tag k="name" v="Skaugum" />
		<tag k="place" v="farm" />
		<tag k="ssr:stedsnr" v="806422" />
	</node>
	<node id="9831857951" lat="68.8403445" lon="18.4826332" version="1" timestamp="2022-06-19T22:38:59Z" changeset="122595810" uid="3497659" user="NKA">
		<tag k="historic" v="shieling" />
		<tag k="name" v="Sætra" />
		<tag k="place" v="isolated_dwelling" />
		<tag k="ssr:stedsnr" v="481208" />
	</node>
	<node id="9831857952" lat="68.6422854" lon="18.2494217" version="1" timestamp="2022-06-19T22:38:59Z" changeset="122595810" uid="3497659" user="NKA">
		<tag k="name" v="Nyborg" />
		<tag k="place" v="farm" />
		<tag k="ssr:stedsnr" v="928263" />
	</node>
	<node id="9831857953" lat="68.8266509" lon="18.4333127" version="1" timestamp="2022-06-19T22:38:59Z" changeset="122595810" uid="3497659" user="NKA">
		<tag k="name" v="Bostad" />
		<tag k="place" v="farm" />
		<tag k="ssr:stedsnr" v="624490" />
	</node>
	<node id="9831857954" lat="68.8598667" lon="18.1578779" version="1" timestamp="2022-06-19T22:38:59Z" changeset="122595810" uid="3497659" user="NKA">
		<tag k="historic" v="shieling" />
		<tag k="name" v="Leirbekkmosætra" />
		<tag k="place" v="isolated_dwelling" />
		<tag k="ssr:stedsnr" v="117332" />
	</node>
	<node id="9831857955" lat="68.8405972" lon="18.4947306" version="1" timestamp="2022-06-19T22:38:59Z" changeset="122595810" uid="3497659" user="NKA">
		<tag k="historic" v="shieling" />
		<tag k="name" v="Kjølhaugsætra" />
		<tag k="place" v="isolated_dwelling" />
		<tag k="ssr:stedsnr" v="421173" />
	</node>
	<node id="9831857956" lat="68.663223" lon="18.8017996" version="1" timestamp="2022-06-19T22:38:59Z" changeset="122595810" uid="3497659" user="NKA">
		<tag k="alt_name" v="Innset, nedre" />
		<tag k="name" v="Nedre Innset" />
		<tag k="place" v="farm" />
		<tag k="ssr:stedsnr" v="928444" />
	</node>
	<node id="9831857957" lat="68.6585" lon="18.205564" version="1" timestamp="2022-06-19T22:38:59Z" changeset="122595810" uid="3497659" user="NKA">
		<tag k="name" v="Haakseth" />
		<tag k="place" v="farm" />
		<tag k="ssr:stedsnr" v="964853" />
	</node>
	<node id="9831857958" lat="68.8154854" lon="18.449338" version="1" timestamp="2022-06-19T22:38:59Z" changeset="122595810" uid="3497659" user="NKA">
		<tag k="name" v="Vikland" />
		<tag k="place" v="farm" />
		<tag k="ssr:stedsnr" v="17509" />
	</node>
	<node id="9831857959" lat="68.6577728" lon="18.2019251" version="1" timestamp="2022-06-19T22:38:59Z" changeset="122595810" uid="3497659" user="NKA">
		<tag k="name" v="Holtet" />
		<tag k="place" v="farm" />
		<tag k="ssr:stedsnr" v="721882" />
	</node>
	<node id="9831857960" lat="68.654875" lon="18.1973945" version="1" timestamp="2022-06-19T22:38:59Z" changeset="122595810" uid="3497659" user="NKA">
		<tag k="name" v="Rydningen" />
		<tag k="place" v="farm" />
		<tag k="ssr:stedsnr" v="479893" />
	</node>
	<node id="9831857961" lat="68.6465834" lon="18.2441944" version="1" timestamp="2022-06-19T22:38:59Z" changeset="122595810" uid="3497659" user="NKA">
		<tag k="name" v="Bjørktun" />
		<tag k="place" v="farm" />
		<tag k="ssr:stedsnr" v="382284" />
	</node>
	<node id="9831857962" lat="68.8942333" lon="18.4184001" version="1" timestamp="2022-06-19T22:38:59Z" changeset="122595810" uid="3497659" user="NKA">
		<tag k="name" v="Åkermoen" />
		<tag k="place" v="farm" />
		<tag k="ssr:stedsnr" v="663179" />
	</node>
	<node id="9831857963" lat="68.9297528" lon="18.450489" version="1" timestamp="2022-06-19T22:38:59Z" changeset="122595810" uid="3497659" user="NKA">
		<tag k="name" v="Midtun" />
		<tag k="place" v="hamlet" />
		<tag k="ssr:stedsnr" v="503544" />
	</node>
	<node id="9831857964" lat="68.7761181" lon="18.1601034" version="1" timestamp="2022-06-19T22:38:59Z" changeset="122595810" uid="3497659" user="NKA">
		<tag k="name" v="Dalseth" />
		<tag k="place" v="farm" />
		<tag k="ssr:stedsnr" v="252454" />
	</node>
	<node id="9831857965" lat="68.6939334" lon="18.1128168" version="1" timestamp="2022-06-19T22:38:59Z" changeset="122595810" uid="3497659" user="NKA">
		<tag k="alt_name" v="Øvergaard" />
		<tag k="name" v="Øvergarden" />
		<tag k="place" v="farm" />
		<tag k="ssr:stedsnr" v="138375" />
	</node>
	<node id="9831857966" lat="68.9008731" lon="18.4217428" version="1" timestamp="2022-06-19T22:38:59Z" changeset="122595810" uid="3497659" user="NKA">
		<tag k="name" v="Østli" />
		<tag k="place" v="farm" />
		<tag k="ssr:stedsnr" v="382591" />
	</node>
	<node id="9831857967" lat="68.8905528" lon="18.3060111" version="1" timestamp="2022-06-19T22:38:59Z" changeset="122595810" uid="3497659" user="NKA">
		<tag k="historic" v="shieling" />
		<tag k="name" v="Mosætra" />
		<tag k="place" v="isolated_dwelling" />
		<tag k="ssr:stedsnr" v="57361" />
	</node>
	<node id="9831857968" lat="68.8747621" lon="18.4400597" version="1" timestamp="2022-06-19T22:38:59Z" changeset="122595810" uid="3497659" user="NKA">
		<tag k="name" v="Alstadsætra" />
		<tag k="place" v="isolated_dwelling" />
		<tag k="ssr:stedsnr" v="138506" />
	</node>
	<node id="9831857969" lat="68.6435194" lon="18.2453583" version="1" timestamp="2022-06-19T22:38:59Z" changeset="122595810" uid="3497659" user="NKA">
		<tag k="alt_name" v="Bonnes, austre;Bones, østre" />
		<tag k="name" v="Austre Bonnes" />
		<tag k="place" v="farm" />
		<tag k="ssr:stedsnr" v="79279" />
	</node>
	<node id="9831857970" lat="68.9303722" lon="18.4540833" version="1" timestamp="2022-06-19T22:38:59Z" changeset="122595810" uid="3497659" user="NKA">
		<tag k="name" v="Tune" />
		<tag k="place" v="farm" />
		<tag k="ssr:stedsnr" v="867581" />
	</node>
	<node id="9831857971" lat="68.8582059" lon="18.3801046" version="1" timestamp="2022-06-19T22:38:59Z" changeset="122595810" uid="3497659" user="NKA">
		<tag k="name" v="Neset" />
		<tag k="place" v="farm" />
		<tag k="ssr:stedsnr" v="1077374" />
	</node>
	<node id="9831857972" lat="68.8654698" lon="18.3627617" version="1" timestamp="2022-06-19T22:38:59Z" changeset="122595810" uid="3497659" user="NKA">
		<tag k="name" v="Steien" />
		<tag k="place" v="farm" />
		<tag k="ssr:stedsnr" v="1077357" />
	</node>
	<node id="9831857973" lat="68.9816306" lon="18.529376" version="1" timestamp="2022-06-19T22:38:59Z" changeset="122595810" uid="3497659" user="NKA">
		<tag k="alt_name" v="Nymo" />
		<tag k="name" v="Nymoen" />
		<tag k="place" v="farm" />
		<tag k="ssr:stedsnr" v="927640" />
	</node>
	<node id="9831857974" lat="68.6393445" lon="18.2404556" version="1" timestamp="2022-06-19T22:38:59Z" changeset="122595810" uid="3497659" user="NKA">
		<tag k="alt_name" v="Bonnås" />
		<tag k="name" v="Bonås" />
		<tag k="place" v="farm" />
		<tag k="ssr:stedsnr" v="17336" />
	</node>
	<node id="9831857975" lat="68.7585139" lon="18.5841054" version="1" timestamp="2022-06-19T22:38:59Z" changeset="122595810" uid="3497659" user="NKA">
		<tag k="name" v="Mogård" />
		<tag k="place" v="farm" />
		<tag k="ssr:stedsnr" v="563405" />
	</node>
	<node id="9831857976" lat="68.6723922" lon="18.1526879" version="1" timestamp="2022-06-19T22:38:59Z" changeset="122595810" uid="3497659" user="NKA">
		<tag k="alt_name" v="Moholdtet" />
		<tag k="name" v="Moholtet" />
		<tag k="place" v="farm" />
		<tag k="ssr:stedsnr" v="807306" />
	</node>
	<node id="9831857977" lat="68.6599722" lon="18.2071056" version="1" timestamp="2022-06-19T22:38:59Z" changeset="122595810" uid="3497659" user="NKA">
		<tag k="name" v="Heim" />
		<tag k="place" v="farm" />
		<tag k="ssr:stedsnr" v="208884" />
	</node>
	<node id="9831857978" lat="68.8724361" lon="18.4490778" version="1" timestamp="2022-06-19T22:38:59Z" changeset="122595810" uid="3497659" user="NKA">
		<tag k="historic" v="shieling" />
		<tag k="name" v="Rotvoldsætra" />
		<tag k="place" v="isolated_dwelling" />
		<tag k="ssr:stedsnr" v="722144" />
	</node>
	<node id="9831857979" lat="68.9548972" lon="18.4968555" version="1" timestamp="2022-06-19T22:38:59Z" changeset="122595810" uid="3497659" user="NKA">
		<tag k="name" v="Lindseth" />
		<tag k="place" v="farm" />
		<tag k="ssr:stedsnr" v="785171" />
	</node>
	<node id="9831857980" lat="68.8800528" lon="18.3312555" version="1" timestamp="2022-06-19T22:38:59Z" changeset="122595810" uid="3497659" user="NKA">
		<tag k="historic" v="shieling" />
		<tag k="name" v="Åssætra" />
		<tag k="place" v="isolated_dwelling" />
		<tag k="ssr:stedsnr" v="722048" />
	</node>
	<node id="9831857981" lat="68.9197722" lon="18.4739306" version="1" timestamp="2022-06-19T22:38:59Z" changeset="122595810" uid="3497659" user="NKA">
		<tag k="historic" v="shieling" />
		<tag k="name" v="Rønningssetra" />
		<tag k="place" v="isolated_dwelling" />
		<tag k="ssr:stedsnr" v="782136" />
	</node>
	<node id="9831857982" lat="68.6872385" lon="18.5653991" version="1" timestamp="2022-06-19T22:38:59Z" changeset="122595810" uid="3497659" user="NKA">
		<tag k="alt_name" v="Walle" />
		<tag k="name" v="Valle" />
		<tag k="place" v="farm" />
		<tag k="ssr:stedsnr" v="18284" />
	</node>
	<node id="9831857983" lat="68.9126917" lon="18.426464" version="1" timestamp="2022-06-19T22:38:59Z" changeset="122595810" uid="3497659" user="NKA">
		<tag k="name" v="Enget" />
		<tag k="place" v="isolated_dwelling" />
		<tag k="ssr:stedsnr" v="843158" />
	</node>
	<node id="9831857984" lat="68.4729972" lon="20.0687083" version="1" timestamp="2022-06-19T22:38:59Z" changeset="122595810" uid="3497659" user="NKA">
		<tag k="name" v="Gámas-hytta" />
		<tag k="place" v="isolated_dwelling" />
		<tag k="ssr:stedsnr" v="928096" />
	</node>
	<node id="9831857985" lat="68.9140944" lon="18.4488555" version="1" timestamp="2022-06-19T22:38:59Z" changeset="122595810" uid="3497659" user="NKA">
		<tag k="historic" v="shieling" />
		<tag k="name" v="Rønningssetra" />
		<tag k="place" v="isolated_dwelling" />
		<tag k="ssr:stedsnr" v="964187" />
	</node>
	<node id="9831857986" lat="68.4814778" lon="19.7253527" version="1" timestamp="2022-06-19T22:38:59Z" changeset="122595810" uid="3497659" user="NKA">
		<tag k="name" v="Golmenstua" />
		<tag k="place" v="isolated_dwelling" />
		<tag k="ssr:stedsnr" v="928065" />
	</node>
	<node id="9831857987" lat="68.68115" lon="18.1402473" version="1" timestamp="2022-06-19T22:38:59Z" changeset="122595810" uid="3497659" user="NKA">
		<tag k="alt_name" v="Luneberg" />
		<tag k="name" v="Luneborg" />
		<tag k="place" v="farm" />
		<tag k="ssr:stedsnr" v="563309" />
	</node>
	<node id="9831857988" lat="68.6695528" lon="18.7493527" version="1" timestamp="2022-06-19T22:38:59Z" changeset="122595810" uid="3497659" user="NKA">
		<tag k="historic" v="shieling" />
		<tag k="name" v="Sætra" />
		<tag k="place" v="isolated_dwelling" />
		<tag k="ssr:stedsnr" v="724931" />
	</node>
	<node id="9831857989" lat="68.8998616" lon="18.3992478" version="1" timestamp="2022-06-19T22:38:59Z" changeset="122595810" uid="3497659" user="NKA">
		<tag k="alt_name" v="Moen, nedre" />
		<tag k="name" v="Moen" />
		<tag k="place" v="hamlet" />
		<tag k="ssr:stedsnr" v="624595" />
	</node>
	<node id="9831857990" lat="68.6300917" lon="18.2310055" version="1" timestamp="2022-06-19T22:38:59Z" changeset="122595810" uid="3497659" user="NKA">
		<tag k="name" v="Hølvangen" />
		<tag k="place" v="locality" />
		<tag k="ssr:stedsnr" v="624316" />
	</node>
	<node id="9831857991" lat="68.8925084" lon="18.3831666" version="1" timestamp="2022-06-19T22:38:59Z" changeset="122595810" uid="3497659" user="NKA">
		<tag k="name" v="Alstad" />
		<tag k="place" v="farm" />
		<tag k="ssr:stedsnr" v="357208" />
	</node>
	<node id="9831857992" lat="68.8928584" lon="18.3081944" version="1" timestamp="2022-06-19T22:38:59Z" changeset="122595810" uid="3497659" user="NKA">
		<tag k="historic" v="shieling" />
		<tag k="name" v="Høydsætra" />
		<tag k="place" v="isolated_dwelling" />
		<tag k="ssr:stedsnr" v="421364" />
	</node>
	<node id="9831857993" lat="68.6556223" lon="18.19385" version="1" timestamp="2022-06-19T22:38:59Z" changeset="122595810" uid="3497659" user="NKA">
		<tag k="name" v="Holtvang" />
		<tag k="place" v="farm" />
		<tag k="ssr:stedsnr" v="624292" />
	</node>
	<node id="9831857994" lat="68.6615237" lon="18.1782692" version="1" timestamp="2022-06-19T22:38:59Z" changeset="122595810" uid="3497659" user="NKA">
		<tag k="name" v="Strømholt" />
		<tag k="place" v="farm" />
		<tag k="ssr:stedsnr" v="321311" />
	</node>
	<node id="9831857995" lat="68.9224" lon="18.4382972" version="1" timestamp="2022-06-19T22:38:59Z" changeset="122595810" uid="3497659" user="NKA">
		<tag k="name" v="Haug" />
		<tag k="place" v="farm" />
		<tag k="ssr:stedsnr" v="236197" />
	</node>
	<node id="9831857996" lat="68.4828689" lon="19.7222645" version="1" timestamp="2022-06-19T22:38:59Z" changeset="122595810" uid="3497659" user="NKA">
		<tag k="name" v="Leinanaustet" />
		<tag k="place" v="locality" />
		<tag k="ssr:stedsnr" v="1085211" />
	</node>
	<node id="9831857997" lat="68.8935944" lon="18.3872473" version="1" timestamp="2022-06-19T22:38:59Z" changeset="122595810" uid="3497659" user="NKA">
		<tag k="name" v="Kildal" />
		<tag k="place" v="farm" />
		<tag k="ssr:stedsnr" v="175200" />
	</node>
	<node id="9831857998" lat="68.8579589" lon="18.4663207" version="1" timestamp="2022-06-19T22:38:59Z" changeset="122595810" uid="3497659" user="NKA">
		<tag k="name" v="Nordfjellhytta" />
		<tag k="place" v="isolated_dwelling" />
		<tag k="ssr:stedsnr" v="175106" />
	</node>
	<node id="9831857999" lat="68.5895584" lon="19.228925" version="1" timestamp="2022-06-19T22:38:59Z" changeset="122595810" uid="3497659" user="NKA">
		<tag k="name" v="Storbukthytta" />
		<tag k="place" v="isolated_dwelling" />
		<tag k="ssr:stedsnr" v="78390" />
	</node>
	<node id="9831858000" lat="68.6973243" lon="18.6894352" version="1" timestamp="2022-06-19T22:38:59Z" changeset="122595810" uid="3497659" user="NKA">
		<tag k="alt_name" v="Strømsør;Strømsøra" />
		<tag k="name" v="Straumsøra" />
		<tag k="place" v="farm" />
		<tag k="ssr:stedsnr" v="18433" />
	</node>
	<node id="9831858001" lat="68.5884666" lon="19.3378918" version="1" timestamp="2022-06-19T22:38:59Z" changeset="122595810" uid="3497659" user="NKA">
		<tag k="name" v="Sørdalshytta" />
		<tag k="place" v="isolated_dwelling" />
		<tag k="ssr:stedsnr" v="78115" />
	</node>
	<node id="9831858002" lat="68.904329" lon="18.3994855" version="1" timestamp="2022-06-19T22:38:59Z" changeset="122595810" uid="3497659" user="NKA">
		<tag k="name" v="Ala" />
		<tag k="place" v="farm" />
		<tag k="ssr:stedsnr" v="139584" />
	</node>
	<node id="9831858003" lat="68.6536223" lon="18.2264751" version="1" timestamp="2022-06-19T22:38:59Z" changeset="122595810" uid="3497659" user="NKA">
		<tag k="name" v="Rønningen" />
		<tag k="place" v="farm" />
		<tag k="ssr:stedsnr" v="176965" />
	</node>
	<node id="9831858004" lat="68.6288472" lon="18.2026168" version="1" timestamp="2022-06-19T22:38:59Z" changeset="122595810" uid="3497659" user="NKA">
		<tag k="name" v="Hølvangsætra" />
		<tag k="place" v="locality" />
		<tag k="ssr:stedsnr" v="173110" />
	</node>
	<node id="9831858005" lat="68.8786305" lon="18.4647888" version="1" timestamp="2022-06-19T22:38:59Z" changeset="122595810" uid="3497659" user="NKA">
		<tag k="historic" v="shieling" />
		<tag k="name" v="Gammelsætra" />
		<tag k="place" v="isolated_dwelling" />
		<tag k="ssr:stedsnr" v="55124" />
	</node>
	<node id="9831858006" lat="68.6588567" lon="18.2108404" version="1" timestamp="2022-06-19T22:38:59Z" changeset="122595810" uid="3497659" user="NKA">
		<tag k="name" v="Håkstad" />
		<tag k="place" v="hamlet" />
		<tag k="ssr:stedsnr" v="139349" />
	</node>
	<node id="9831858007" lat="68.8969473" lon="18.3939249" version="1" timestamp="2022-06-19T22:38:59Z" changeset="122595810" uid="3497659" user="NKA">
		<tag k="name" v="Nordeng" />
		<tag k="place" v="farm" />
		<tag k="ssr:stedsnr" v="54220" />
	</node>
	<node id="9831858008" lat="68.6946599" lon="18.1139456" version="1" timestamp="2022-06-19T22:38:59Z" changeset="122595810" uid="3497659" user="NKA">
		<tag k="alt_name" v="Lund Nordre" />
		<tag k="name" v="Nordre Lund" />
		<tag k="place" v="hamlet" />
		<tag k="ssr:stedsnr" v="52412" />
	</node>
	<node id="9831858009" lat="68.7060487" lon="18.1160309" version="1" timestamp="2022-06-19T22:38:59Z" changeset="122595810" uid="3497659" user="NKA">
		<tag k="name" v="Kollen" />
		<tag k="place" v="farm" />
		<tag k="ssr:stedsnr" v="78647" />
	</node>
	<node id="9831858010" lat="68.9896526" lon="18.5697382" version="1" timestamp="2022-06-19T22:38:59Z" changeset="122595810" uid="3497659" user="NKA">
		<tag k="name" v="Brandbu" />
		<tag k="place" v="isolated_dwelling" />
		<tag k="ssr:stedsnr" v="779524" />
	</node>
	<node id="9831858011" lat="68.8565917" lon="18.3005168" version="1" timestamp="2022-06-19T22:38:59Z" changeset="122595810" uid="3497659" user="NKA">
		<tag k="name" v="Sæternes" />
		<tag k="place" v="farm" />
		<tag k="ssr:stedsnr" v="442523" />
	</node>
	<node id="9831858012" lat="68.4401889" lon="19.7831666" version="1" timestamp="2022-06-19T22:38:59Z" changeset="122595810" uid="3497659" user="NKA">
		<tag k="name" v="Geavdnjajohka-stua" />
		<tag k="place" v="isolated_dwelling" />
		<tag k="ssr:stedsnr" v="320117" />
	</node>
	<node id="9831858013" lat="68.7727444" lon="18.5634222" version="1" timestamp="2022-06-19T22:38:59Z" changeset="122595810" uid="3497659" user="NKA">
		<tag k="alt_name" v="Bergseth" />
		<tag k="name" v="Bergset" />
		<tag k="place" v="farm" />
		<tag k="ssr:stedsnr" v="785190" />
	</node>
	<node id="9831858014" lat="68.9762945" lon="18.5197389" version="1" timestamp="2022-06-19T22:38:59Z" changeset="122595810" uid="3497659" user="NKA">
		<tag k="alt_name" v="Stormo" />
		<tag k="name" v="Stormoen" />
		<tag k="place" v="farm" />
		<tag k="ssr:stedsnr" v="17680" />
	</node>
	<node id="9831858015" lat="68.954925" lon="18.4719751" version="1" timestamp="2022-06-19T22:38:59Z" changeset="122595810" uid="3497659" user="NKA">
		<tag k="name" v="Strand" />
		<tag k="place" v="farm" />
		<tag k="ssr:stedsnr" v="321635" />
	</node>
	<node id="9831858016" lat="68.6956362" lon="18.0973917" version="1" timestamp="2022-06-19T22:38:59Z" changeset="122595810" uid="3497659" user="NKA">
		<tag k="name" v="Øverland" />
		<tag k="place" v="farm" />
		<tag k="ssr:stedsnr" v="381364" />
	</node>
	<node id="9831858017" lat="68.9214836" lon="18.4375663" version="1" timestamp="2022-06-19T22:38:59Z" changeset="122595810" uid="3497659" user="NKA">
		<tag k="name" v="Alsgård" />
		<tag k="place" v="farm" />
		<tag k="ssr:stedsnr" v="382556" />
	</node>
	<node id="9831858018" lat="68.8067472" lon="18.5299833" version="1" timestamp="2022-06-19T22:38:59Z" changeset="122595810" uid="3497659" user="NKA">
		<tag k="alt_name" v="Motrøen" />
		<tag k="name" v="Motrøa" />
		<tag k="place" v="farm" />
		<tag k="ssr:stedsnr" v="806467" />
	</node>
	<node id="9831858019" lat="68.7220713" lon="18.5525465" version="1" timestamp="2022-06-19T22:38:59Z" changeset="122595810" uid="3497659" user="NKA">
		<tag k="name" v="Aarhaug" />
		<tag k="place" v="farm" />
		<tag k="ssr:stedsnr" v="906087" />
	</node>
	<node id="9831858020" lat="68.8523436" lon="18.3975929" version="1" timestamp="2022-06-19T22:38:59Z" changeset="122595810" uid="3497659" user="NKA">
		<tag k="name" v="Steily" />
		<tag k="place" v="farm" />
		<tag k="ssr:stedsnr" v="503481" />
	</node>
	<node id="9831858021" lat="68.7749833" lon="18.525511" version="1" timestamp="2022-06-19T22:38:59Z" changeset="122595810" uid="3497659" user="NKA">
		<tag k="name" v="Olsaker" />
		<tag k="place" v="farm" />
		<tag k="ssr:stedsnr" v="724184" />
	</node>
	<node id="9831858022" lat="68.6921445" lon="18.5596749" version="1" timestamp="2022-06-19T22:38:59Z" changeset="122595810" uid="3497659" user="NKA">
		<tag k="alt_name" v="Løkset" />
		<tag k="name" v="Løkstad" />
		<tag k="place" v="farm" />
		<tag k="ssr:stedsnr" v="685345" />
	</node>
	<node id="9831858023" lat="68.8063926" lon="18.5245458" version="1" timestamp="2022-06-19T22:38:59Z" changeset="122595810" uid="3497659" user="NKA">
		<tag k="name" v="Elvevoll" />
		<tag k="place" v="farm" />
		<tag k="ssr:stedsnr" v="724118" />
	</node>
	<node id="9831858024" lat="68.7584194" lon="18.6491084" version="1" timestamp="2022-06-19T22:38:59Z" changeset="122595810" uid="3497659" user="NKA">
		<tag k="name" v="Øveråssætra" />
		<tag k="place" v="isolated_dwelling" />
		<tag k="ssr:stedsnr" v="563268" />
	</node>
	<node id="9831858025" lat="68.7113141" lon="18.5524488" version="1" timestamp="2022-06-19T22:38:59Z" changeset="122595810" uid="3497659" user="NKA">
		<tag k="alt_name" v="Helberg" />
		<tag k="name" v="Hellberg" />
		<tag k="old_name" v="Hallberg" />
		<tag k="place" v="farm" />
		<tag k="ssr:stedsnr" v="745374" />
	</node>
	<node id="9831858026" lat="68.8134305" lon="18.5229527" version="1" timestamp="2022-06-19T22:38:59Z" changeset="122595810" uid="3497659" user="NKA">
		<tag k="name" v="Nybråten" />
		<tag k="place" v="farm" />
		<tag k="ssr:stedsnr" v="563464" />
	</node>
	<node id="9831858027" lat="68.7500584" lon="18.565225" version="1" timestamp="2022-06-19T22:38:59Z" changeset="122595810" uid="3497659" user="NKA">
		<tag k="name" v="Årnes" />
		<tag k="place" v="farm" />
		<tag k="ssr:stedsnr" v="563411" />
	</node>
	<node id="9831858028" lat="68.7323467" lon="18.5578281" version="1" timestamp="2022-06-19T22:38:59Z" changeset="122595810" uid="3497659" user="NKA">
		<tag k="name" v="Kjæreng" />
		<tag k="place" v="locality" />
		<tag k="ssr:stedsnr" v="503617" />
	</node>
	<node id="9831858029" lat="68.7756083" lon="18.5620973" version="1" timestamp="2022-06-19T22:38:59Z" changeset="122595810" uid="3497659" user="NKA">
		<tag k="alt_name" v="Berg, nedre" />
		<tag k="name" v="Nedre Berg" />
		<tag k="place" v="farm" />
		<tag k="ssr:stedsnr" v="503434" />
	</node>
	<node id="9831858030" lat="68.6634639" lon="18.5602889" version="1" timestamp="2022-06-19T22:38:59Z" changeset="122595810" uid="3497659" user="NKA">
		<tag k="name" v="Solheim" />
		<tag k="place" v="farm" />
		<tag k="ssr:stedsnr" v="503263" />
	</node>
	<node id="9831858031" lat="68.6810066" lon="18.5670003" version="1" timestamp="2022-06-19T22:38:59Z" changeset="122595810" uid="3497659" user="NKA">
		<tag k="alt_name" v="Utgarden" />
		<tag k="name" v="Utgård" />
		<tag k="place" v="farm" />
		<tag k="ssr:stedsnr" v="928297" />
	</node>
	<node id="9831858032" lat="68.8027582" lon="18.5360312" version="1" timestamp="2022-06-19T22:38:59Z" changeset="122595810" uid="3497659" user="NKA">
		<tag k="name" v="Bangen" />
		<tag k="place" v="farm" />
		<tag k="ssr:stedsnr" v="442463" />
	</node>
	<node id="9831858033" lat="68.73145" lon="18.5557584" version="1" timestamp="2022-06-19T22:38:59Z" changeset="122595810" uid="3497659" user="NKA">
		<tag k="name" v="Kjærland" />
		<tag k="place" v="farm" />
		<tag k="ssr:stedsnr" v="442683" />
	</node>
	<node id="9831858034" lat="68.8364972" lon="18.2575556" version="1" timestamp="2022-06-19T22:38:59Z" changeset="122595810" uid="3497659" user="NKA">
		<tag k="name" v="Bergstad" />
		<tag k="place" v="farm" />
		<tag k="ssr:stedsnr" v="906263" />
	</node>
	<node id="9831858035" lat="68.661475" lon="18.5611751" version="1" timestamp="2022-06-19T22:38:59Z" changeset="122595810" uid="3497659" user="NKA">
		<tag k="name" v="Soltun" />
		<tag k="place" v="farm" />
		<tag k="ssr:stedsnr" v="382273" />
	</node>
	<node id="9831858036" lat="68.7954538" lon="18.5537964" version="1" timestamp="2022-06-19T22:38:59Z" changeset="122595810" uid="3497659" user="NKA">
		<tag k="name" v="Nylund" />
		<tag k="place" v="farm" />
		<tag k="ssr:stedsnr" v="260480" />
	</node>
	<node id="9831858037" lat="68.7977167" lon="18.1860139" version="1" timestamp="2022-06-19T22:38:59Z" changeset="122595810" uid="3497659" user="NKA">
		<tag k="name" v="Utmo" />
		<tag k="place" v="farm" />
		<tag k="ssr:stedsnr" v="796963" />
	</node>
	<node id="9831858038" lat="68.8259444" lon="18.2666305" version="1" timestamp="2022-06-19T22:38:59Z" changeset="122595810" uid="3497659" user="NKA">
		<tag k="name" v="Sørheim" />
		<tag k="place" v="farm" />
		<tag k="ssr:stedsnr" v="785233" />
	</node>
	<node id="9831858039" lat="68.7794861" lon="18.1975112" version="1" timestamp="2022-06-19T22:38:59Z" changeset="122595810" uid="3497659" user="NKA">
		<tag k="name" v="Fossan" />
		<tag k="place" v="isolated_dwelling" />
		<tag k="ssr:stedsnr" v="782596" />
	</node>
	<node id="9831858040" lat="68.8393028" lon="18.6559862" version="1" timestamp="2022-06-19T22:38:59Z" changeset="122595810" uid="3497659" user="NKA">
		<tag k="name" v="Hasvollsætra" />
		<tag k="place" v="locality" />
		<tag k="ssr:stedsnr" v="260342" />
	</node>
	<node id="9831858041" lat="68.8090722" lon="18.5369555" version="1" timestamp="2022-06-19T22:38:59Z" changeset="122595810" uid="3497659" user="NKA">
		<tag k="name" v="Movinkel" />
		<tag k="place" v="farm" />
		<tag k="ssr:stedsnr" v="138479" />
	</node>
	<node id="9831858042" lat="68.6831383" lon="18.5700808" version="1" timestamp="2022-06-19T22:38:59Z" changeset="122595810" uid="3497659" user="NKA">
		<tag k="alt_name" v="Tønset;Tønseth" />
		<tag k="name" v="Tynset" />
		<tag k="place" v="farm" />
		<tag k="ssr:stedsnr" v="867348" />
	</node>
	<node id="9831858043" lat="68.6898583" lon="18.5467471" version="1" timestamp="2022-06-19T22:38:59Z" changeset="122595810" uid="3497659" user="NKA">
		<tag k="name" v="Engstad" />
		<tag k="place" v="farm" />
		<tag k="ssr:stedsnr" v="200324" />
	</node>
	<node id="9831858044" lat="68.6631939" lon="18.5651732" version="1" timestamp="2022-06-19T22:38:59Z" changeset="122595810" uid="3497659" user="NKA">
		<tag k="name" v="Sørgård" />
		<tag k="place" v="farm" />
		<tag k="ssr:stedsnr" v="868322" />
	</node>
	<node id="9831858045" lat="68.8244583" lon="18.2601584" version="1" timestamp="2022-06-19T22:38:59Z" changeset="122595810" uid="3497659" user="NKA">
		<tag k="name" v="Fjellvang" />
		<tag k="place" v="farm" />
		<tag k="ssr:stedsnr" v="724256" />
	</node>
	<node id="9831858046" lat="68.6656916" lon="18.1672946" version="1" timestamp="2022-06-19T22:38:59Z" changeset="122595810" uid="3497659" user="NKA">
		<tag k="name" v="Bergan" />
		<tag k="place" v="farm" />
		<tag k="ssr:stedsnr" v="685314" />
	</node>
	<node id="9831858047" lat="68.8415936" lon="18.2544128" version="1" timestamp="2022-06-19T22:38:59Z" changeset="122595810" uid="3497659" user="NKA">
		<tag k="name" v="Nerli" />
		<tag k="place" v="farm" />
		<tag k="ssr:stedsnr" v="685523" />
	</node>
	<node id="9831858048" lat="68.7744773" lon="18.5604766" version="1" timestamp="2022-06-19T22:38:59Z" changeset="122595810" uid="3497659" user="NKA">
		<tag k="name" v="Berg" />
		<tag k="place" v="farm" />
		<tag k="ssr:stedsnr" v="481217" />
	</node>
	<node id="9831858049" lat="68.8085264" lon="18.1902402" version="1" timestamp="2022-06-19T22:38:59Z" changeset="122595810" uid="3497659" user="NKA">
		<tag k="alt_name" v="Livelten" />
		<tag k="name" v="Livelta" />
		<tag k="place" v="farm" />
		<tag k="ssr:stedsnr" v="685447" />
	</node>
	<node id="9831858050" lat="68.812075" lon="18.1567001" version="1" timestamp="2022-06-19T22:38:59Z" changeset="122595810" uid="3497659" user="NKA">
		<tag k="name" v="Høyland" />
		<tag k="place" v="farm" />
		<tag k="ssr:stedsnr" v="502492" />
	</node>
	<node id="9831858051" lat="68.758888" lon="18.1599718" version="1" timestamp="2022-06-19T22:38:59Z" changeset="122595810" uid="3497659" user="NKA">
		<tag k="name" v="Løvås" />
		<tag k="place" v="farm" />
		<tag k="ssr:stedsnr" v="573521" />
	</node>
	<node id="9831858052" lat="68.8253" lon="18.5253084" version="1" timestamp="2022-06-19T22:38:59Z" changeset="122595810" uid="3497659" user="NKA">
		<tag k="name" v="Berglund" />
		<tag k="place" v="farm" />
		<tag k="ssr:stedsnr" v="624492" />
	</node>
	<node id="9831858053" lat="68.8271277" lon="18.2710777" version="1" timestamp="2022-06-19T22:38:59Z" changeset="122595810" uid="3497659" user="NKA">
		<tag k="name" v="Oppset" />
		<tag k="place" v="farm" />
		<tag k="ssr:stedsnr" v="481258" />
	</node>
	<node id="9831858054" lat="68.7673139" lon="18.5268499" version="1" timestamp="2022-06-19T22:38:59Z" changeset="122595810" uid="3497659" user="NKA">
		<tag k="name" v="Øyer" />
		<tag k="place" v="farm" />
		<tag k="ssr:stedsnr" v="360169" />
	</node>
	<node id="9831858055" lat="68.8444255" lon="18.2450673" version="1" timestamp="2022-06-19T22:38:59Z" changeset="122595810" uid="3497659" user="NKA">
		<tag k="name" v="Nordberg" />
		<tag k="place" v="farm" />
		<tag k="ssr:stedsnr" v="442542" />
	</node>
	<node id="9831858056" lat="68.7317477" lon="18.0911449" version="1" timestamp="2022-06-19T22:38:59Z" changeset="122595810" uid="3497659" user="NKA">
		<tag k="name" v="Solbakken" />
		<tag k="place" v="isolated_dwelling" />
		<tag k="ssr:stedsnr" v="868641" />
	</node>
	<node id="9831858057" lat="68.8225428" lon="18.1753548" version="1" timestamp="2022-06-19T22:38:59Z" changeset="122595810" uid="3497659" user="NKA">
		<tag k="name" v="Nygård" />
		<tag k="place" v="farm" />
		<tag k="ssr:stedsnr" v="382545" />
	</node>
	<node id="9831858058" lat="68.7674419" lon="18.1555857" version="1" timestamp="2022-06-19T22:38:59Z" changeset="122595810" uid="3497659" user="NKA">
		<tag k="alt_name" v="Forseth vestre;Forset, vestre" />
		<tag k="name" v="Vestre Forset" />
		<tag k="place" v="farm" />
		<tag k="ssr:stedsnr" v="928417" />
	</node>
	<node id="9831858059" lat="68.7328792" lon="18.0910243" version="1" timestamp="2022-06-19T22:38:59Z" changeset="122595810" uid="3497659" user="NKA">
		<tag k="name" v="Sollia" />
		<tag k="place" v="hamlet" />
		<tag k="ssr:stedsnr" v="18626" />
	</node>
	<node id="9831858060" lat="68.7819888" lon="18.1903806" version="1" timestamp="2022-06-19T22:38:59Z" changeset="122595810" uid="3497659" user="NKA">
		<tag k="name" v="Fosseng" />
		<tag k="place" v="farm" />
		<tag k="ssr:stedsnr" v="260491" />
	</node>
	<node id="9831858061" lat="68.7963056" lon="18.1610973" version="1" timestamp="2022-06-19T22:38:59Z" changeset="122595810" uid="3497659" user="NKA">
		<tag k="name" v="Solås" />
		<tag k="place" v="farm" />
		<tag k="ssr:stedsnr" v="917966" />
	</node>
	<node id="9831858062" lat="68.8442694" lon="18.2557749" version="1" timestamp="2022-06-19T22:38:59Z" changeset="122595810" uid="3497659" user="NKA">
		<tag k="name" v="Høghaug" />
		<tag k="place" v="farm" />
		<tag k="ssr:stedsnr" v="236634" />
	</node>
	<node id="9831858063" lat="68.7776414" lon="18.2385912" version="1" timestamp="2022-06-19T22:38:59Z" changeset="122595810" uid="3497659" user="NKA">
		<tag k="alt_name" v="Skarbua" />
		<tag k="name" v="Skardbua" />
		<tag k="place" v="locality" />
		<tag k="ssr:stedsnr" v="782589" />
	</node>
	<node id="9831858064" lat="68.7816361" lon="18.1912694" version="1" timestamp="2022-06-19T22:38:59Z" changeset="122595810" uid="3497659" user="NKA">
		<tag k="name" v="Fossli" />
		<tag k="place" v="farm" />
		<tag k="ssr:stedsnr" v="539476" />
	</node>
	<node id="9831858065" lat="68.793225" lon="18.1015638" version="1" timestamp="2022-06-19T22:38:59Z" changeset="122595810" uid="3497659" user="NKA">
		<tag k="historic" v="shieling" />
		<tag k="name" v="Fjellheim" />
		<tag k="place" v="isolated_dwelling" />
		<tag k="ssr:stedsnr" v="233381" />
	</node>
	<node id="9831858066" lat="68.7593667" lon="18.6488666" version="1" timestamp="2022-06-19T22:38:59Z" changeset="122595810" uid="3497659" user="NKA">
		<tag k="historic" v="shieling" />
		<tag k="name" v="Bergsætra" />
		<tag k="place" v="isolated_dwelling" />
		<tag k="ssr:stedsnr" v="115560" />
	</node>
	<node id="9831858067" lat="68.7211257" lon="18.5378602" version="1" timestamp="2022-06-19T22:38:59Z" changeset="122595810" uid="3497659" user="NKA">
		<tag k="name" v="Langjordløa" />
		<tag k="place" v="locality" />
		<tag k="ssr:stedsnr" v="117105" />
	</node>
	<node id="9831858068" lat="68.7740958" lon="18.1647723" version="1" timestamp="2022-06-19T22:38:59Z" changeset="122595810" uid="3497659" user="NKA">
		<tag k="name" v="Bruheim" />
		<tag k="place" v="farm" />
		<tag k="ssr:stedsnr" v="10487" />
	</node>
	<node id="9831858069" lat="68.7586722" lon="18.655639" version="1" timestamp="2022-06-19T22:38:59Z" changeset="122595810" uid="3497659" user="NKA">
		<tag k="historic" v="shieling" />
		<tag k="name" v="Oddsætra" />
		<tag k="place" v="isolated_dwelling" />
		<tag k="ssr:stedsnr" v="115562" />
	</node>
	<node id="9831858070" lat="68.7801521" lon="18.1584354" version="1" timestamp="2022-06-19T22:38:59Z" changeset="122595810" uid="3497659" user="NKA">
		<tag k="name" v="Bakkland" />
		<tag k="place" v="farm" />
		<tag k="ssr:stedsnr" v="321437" />
	</node>
	<node id="9831858071" lat="68.809519" lon="18.18335" version="1" timestamp="2022-06-19T22:38:59Z" changeset="122595810" uid="3497659" user="NKA">
		<tag k="name" v="Lundamo" />
		<tag k="place" v="farm" />
		<tag k="ssr:stedsnr" v="927503" />
	</node>
	<node id="9831858072" lat="68.7809722" lon="18.1552223" version="1" timestamp="2022-06-19T22:38:59Z" changeset="122595810" uid="3497659" user="NKA">
		<tag k="name" v="Heimtun" />
		<tag k="place" v="farm" />
		<tag k="ssr:stedsnr" v="192532" />
	</node>
	<node id="9831858073" lat="68.7355778" lon="18.0945166" version="1" timestamp="2022-06-19T22:38:59Z" changeset="122595810" uid="3497659" user="NKA">
		<tag k="name" v="Solhaug" />
		<tag k="place" v="farm" />
		<tag k="ssr:stedsnr" v="200676" />
	</node>
	<node id="9831858074" lat="68.8451222" lon="18.1155084" version="1" timestamp="2022-06-19T22:38:59Z" changeset="122595810" uid="3497659" user="NKA">
		<tag k="name" v="Langfossmoen - Guhkesgorži" />
		<tag k="name:no" v="Langfossmoen" />
		<tag k="name:se" v="Guhkesgorži" />
		<tag k="place" v="farm" />
		<tag k="ssr:stedsnr" v="294275" />
	</node>
	<node id="9831858075" lat="68.7770167" lon="18.1811973" version="1" timestamp="2022-06-19T22:38:59Z" changeset="122595810" uid="3497659" user="NKA">
		<tag k="name" v="Eggseth" />
		<tag k="place" v="farm" />
		<tag k="ssr:stedsnr" v="860538" />
	</node>
	<node id="9831858076" lat="68.8319917" lon="18.1748111" version="1" timestamp="2022-06-19T22:38:59Z" changeset="122595810" uid="3497659" user="NKA">
		<tag k="name" v="Nordgård" />
		<tag k="place" v="farm" />
		<tag k="ssr:stedsnr" v="18524" />
	</node>
	<node id="9831858077" lat="68.8069647" lon="18.1777959" version="1" timestamp="2022-06-19T22:38:59Z" changeset="122595810" uid="3497659" user="NKA">
		<tag k="name" v="Jordamo" />
		<tag k="place" v="farm" />
		<tag k="ssr:stedsnr" v="199461" />
	</node>
	<node id="9831858078" lat="68.7799917" lon="18.1830528" version="1" timestamp="2022-06-19T22:38:59Z" changeset="122595810" uid="3497659" user="NKA">
		<tag k="name" v="Sjurheim" />
		<tag k="place" v="farm" />
		<tag k="ssr:stedsnr" v="71534" />
	</node>
	<node id="9831858079" lat="68.8102179" lon="18.1788148" version="1" timestamp="2022-06-19T22:38:59Z" changeset="122595810" uid="3497659" user="NKA">
		<tag k="name" v="Stranda" />
		<tag k="place" v="farm" />
		<tag k="ssr:stedsnr" v="846270" />
	</node>
	<node id="9831858080" lat="68.8054" lon="18.1811195" version="1" timestamp="2022-06-19T22:38:59Z" changeset="122595810" uid="3497659" user="NKA">
		<tag k="name" v="Østmoen" />
		<tag k="place" v="farm" />
		<tag k="ssr:stedsnr" v="846261" />
	</node>
	<node id="9831858081" lat="68.7189699" lon="18.5533637" version="1" timestamp="2022-06-19T22:38:59Z" changeset="122595810" uid="3497659" user="NKA">
		<tag k="name" v="Helland" />
		<tag k="place" v="farm" />
		<tag k="ssr:stedsnr" v="138678" />
	</node>
	<node id="9831858082" lat="68.7818666" lon="18.1582306" version="1" timestamp="2022-06-19T22:38:59Z" changeset="122595810" uid="3497659" user="NKA">
		<tag k="name" v="Tangen" />
		<tag k="place" v="farm" />
		<tag k="ssr:stedsnr" v="200475" />
	</node>
	<node id="9831858083" lat="68.7719778" lon="18.1627139" version="1" timestamp="2022-06-19T22:38:59Z" changeset="122595810" uid="3497659" user="NKA">
		<tag k="name" v="Soleng" />
		<tag k="place" v="farm" />
		<tag k="ssr:stedsnr" v="867454" />
	</node>
	<node id="9831858084" lat="68.7597112" lon="18.5851" version="1" timestamp="2022-06-19T22:38:59Z" changeset="122595810" uid="3497659" user="NKA">
		<tag k="alt_name" v="Strømsmoen østre;Strømsmoen, øvre" />
		<tag k="name" v="Øvre Strømsmoen" />
		<tag k="place" v="farm" />
		<tag k="ssr:stedsnr" v="928392" />
	</node>
	<node id="9831858085" lat="68.6913255" lon="18.1095201" version="1" timestamp="2022-06-19T22:38:59Z" changeset="122595810" uid="3497659" user="NKA">
		<tag k="name" v="Polar Zoo" />
		<tag k="place" v="farm" />
		<tag k="ssr:stedsnr" v="811357" />
	</node>
	<node id="9831858086" lat="68.7370563" lon="18.110184" version="1" timestamp="2022-06-19T22:38:59Z" changeset="122595810" uid="3497659" user="NKA">
		<tag k="alt_name" v="Sletten" />
		<tag k="name" v="Sletta" />
		<tag k="place" v="farm" />
		<tag k="ssr:stedsnr" v="503639" />
	</node>
	<node id="9831858087" lat="68.726653" lon="18.0914615" version="1" timestamp="2022-06-19T22:38:59Z" changeset="122595810" uid="3497659" user="NKA">
		<tag k="name" v="Sørflaten" />
		<tag k="place" v="farm" />
		<tag k="ssr:stedsnr" v="685660" />
	</node>
	<node id="9831858088" lat="68.8324409" lon="18.1668545" version="1" timestamp="2022-06-19T22:38:59Z" changeset="122595810" uid="3497659" user="NKA">
		<tag k="name" v="Fossmoen" />
		<tag k="place" v="isolated_dwelling" />
		<tag k="ssr:stedsnr" v="503506" />
	</node>
	<node id="9831858089" lat="68.7857833" lon="18.2305721" version="1" timestamp="2022-06-19T22:38:59Z" changeset="122595810" uid="3497659" user="NKA">
		<tag k="historic" v="shieling" />
		<tag k="name" v="Liveltsætra" />
		<tag k="place" v="isolated_dwelling" />
		<tag k="ssr:stedsnr" v="632543" />
	</node>
	<node id="9831858090" lat="68.7720473" lon="18.172714" version="1" timestamp="2022-06-19T22:38:59Z" changeset="122595810" uid="3497659" user="NKA">
		<tag k="alt_name" v="Forseth østre;Forset, austre" />
		<tag k="name" v="Austre Forset" />
		<tag k="place" v="farm" />
		<tag k="ssr:stedsnr" v="503428" />
	</node>
	<node id="9831858091" lat="68.7036083" lon="18.1145138" version="1" timestamp="2022-06-19T22:38:59Z" changeset="122595810" uid="3497659" user="NKA">
		<tag k="name" v="Kolstad" />
		<tag k="place" v="farm" />
		<tag k="ssr:stedsnr" v="381677" />
	</node>
	<node id="9831858092" lat="68.6969305" lon="18.0565862" version="1" timestamp="2022-06-19T22:38:59Z" changeset="122595810" uid="3497659" user="NKA">
		<tag k="name" v="Salangsdalen" />
		<tag k="place" v="farm" />
		<tag k="ssr:stedsnr" v="265392" />
	</node>
	<node id="9831858093" lat="68.7603556" lon="18.5713223" version="1" timestamp="2022-06-19T22:38:59Z" changeset="122595810" uid="3497659" user="NKA">
		<tag k="name" v="Øverås" />
		<tag k="place" v="farm" />
		<tag k="ssr:stedsnr" v="685399" />
	</node>
	<node id="9831858094" lat="68.8091194" lon="18.512139" version="1" timestamp="2022-06-19T22:38:59Z" changeset="122595810" uid="3497659" user="NKA">
		<tag k="name" v="Nordmo" />
		<tag k="place" v="farm" />
		<tag k="ssr:stedsnr" v="602135" />
	</node>
	<node id="9831858095" lat="68.8268659" lon="18.1671626" version="1" timestamp="2022-06-19T22:38:59Z" changeset="122595810" uid="3497659" user="NKA">
		<tag k="name" v="Nergård" />
		<tag k="place" v="farm" />
		<tag k="ssr:stedsnr" v="563528" />
	</node>
	<node id="9831858096" lat="68.7589487" lon="18.5706022" version="1" timestamp="2022-06-19T22:38:59Z" changeset="122595810" uid="3497659" user="NKA">
		<tag k="name" v="Bakken" />
		<tag k="place" v="farm" />
		<tag k="ssr:stedsnr" v="481209" />
	</node>
	<node id="9831858097" lat="68.8385389" lon="18.1444138" version="1" timestamp="2022-06-19T22:38:59Z" changeset="122595810" uid="3497659" user="NKA">
		<tag k="name" v="Krokseng" />
		<tag k="place" v="farm" />
		<tag k="ssr:stedsnr" v="563520" />
	</node>
	<node id="9831858098" lat="68.7345361" lon="18.556325" version="1" timestamp="2022-06-19T22:38:59Z" changeset="122595810" uid="3497659" user="NKA">
		<tag k="alt_name" v="Luneng" />
		<tag k="name" v="Lundeng" />
		<tag k="place" v="farm" />
		<tag k="ssr:stedsnr" v="442678" />
	</node>
	<node id="9831858099" lat="68.7833834" lon="18.2326055" version="1" timestamp="2022-06-19T22:38:59Z" changeset="122595810" uid="3497659" user="NKA">
		<tag k="historic" v="shieling" />
		<tag k="name" v="Karlstadsætra" />
		<tag k="place" v="isolated_dwelling" />
		<tag k="ssr:stedsnr" v="453598" />
	</node>
	<node id="9831858100" lat="68.6961417" lon="18.1079835" version="1" timestamp="2022-06-19T22:38:59Z" changeset="122595810" uid="3497659" user="NKA">
		<tag k="name" v="Fagerlund" />
		<tag k="place" v="farm" />
		<tag k="ssr:stedsnr" v="624365" />
	</node>
	<node id="9831858101" lat="68.7008311" lon="18.1038216" version="1" timestamp="2022-06-19T22:38:59Z" changeset="122595810" uid="3497659" user="NKA">
		<tag k="name" v="Bruvoll" />
		<tag k="place" v="farm" />
		<tag k="ssr:stedsnr" v="745675" />
	</node>
	<node id="9831858102" lat="68.7898781" lon="18.5504671" version="1" timestamp="2022-06-19T22:38:59Z" changeset="122595810" uid="3497659" user="NKA">
		<tag k="name" v="Øytangen" />
		<tag k="place" v="hamlet" />
		<tag k="ssr:stedsnr" v="260490" />
	</node>
	<node id="9831858103" lat="68.7425447" lon="18.6455611" version="1" timestamp="2022-06-19T22:38:59Z" changeset="122595810" uid="3497659" user="NKA">
		<tag k="alt_name:no" v="Straumslia;Strømsli" />
		<tag k="name" v="Strømslia - Duolljedállu" />
		<tag k="name:no" v="Strømslia" />
		<tag k="name:se" v="Duolljedállu" />
		<tag k="place" v="farm" />
		<tag k="ssr:stedsnr" v="381296" />
	</node>
	<node id="9831858104" lat="68.7331611" lon="18.0932499" version="1" timestamp="2022-06-19T22:38:59Z" changeset="122595810" uid="3497659" user="NKA">
		<tag k="alt_name" v="Sollia" />
		<tag k="name" v="Sollid" />
		<tag k="place" v="farm" />
		<tag k="ssr:stedsnr" v="841392" />
	</node>
	<node id="9831858105" lat="68.700056" lon="18.1112458" version="1" timestamp="2022-06-19T22:38:59Z" changeset="122595810" uid="3497659" user="NKA">
		<tag k="alt_name" v="Rognlia" />
		<tag k="name" v="Rognli" />
		<tag k="place" v="farm" />
		<tag k="ssr:stedsnr" v="503331" />
	</node>
	<node id="9831858106" lat="68.7384377" lon="18.1134035" version="1" timestamp="2022-06-19T22:38:59Z" changeset="122595810" uid="3497659" user="NKA">
		<tag k="alt_name" v="Bratli" />
		<tag k="name" v="Brattli" />
		<tag k="place" v="farm" />
		<tag k="ssr:stedsnr" v="563636" />
	</node>
	<node id="9831858107" lat="68.7587111" lon="18.5640749" version="1" timestamp="2022-06-19T22:38:59Z" changeset="122595810" uid="3497659" user="NKA">
		<tag k="name" v="Brubakk" />
		<tag k="place" v="farm" />
		<tag k="ssr:stedsnr" v="239186" />
	</node>
	<node id="9831858108" lat="68.7301833" lon="18.0918807" version="1" timestamp="2022-06-19T22:38:59Z" changeset="122595810" uid="3497659" user="NKA">
		<tag k="alt_name" v="Engmoen" />
		<tag k="name" v="Engmo" />
		<tag k="place" v="farm" />
		<tag k="ssr:stedsnr" v="18624" />
	</node>
	<node id="9831858109" lat="68.804375" lon="18.5287138" version="1" timestamp="2022-06-19T22:38:59Z" changeset="122595810" uid="3497659" user="NKA">
		<tag k="alt_name" v="Hasvold" />
		<tag k="name" v="Hasvoll" />
		<tag k="place" v="farm" />
		<tag k="ssr:stedsnr" v="18439" />
	</node>
	<node id="9831858110" lat="68.7600687" lon="18.5764349" version="1" timestamp="2022-06-19T22:38:59Z" changeset="122595810" uid="3497659" user="NKA">
		<tag k="name" v="Straumsmoen" />
		<tag k="place" v="hamlet" />
		<tag k="ssr:stedsnr" v="1077359" />
	</node>
	<node id="9831858111" lat="68.8226222" lon="18.2738916" version="1" timestamp="2022-06-19T22:38:59Z" changeset="122595810" uid="3497659" user="NKA">
		<tag k="name" v="Ryhaug" />
		<tag k="place" v="farm" />
		<tag k="ssr:stedsnr" v="421307" />
	</node>
	<node id="9831858112" lat="68.8590533" lon="18.0959677" version="1" timestamp="2022-06-19T22:38:59Z" changeset="122595810" uid="3497659" user="NKA">
		<tag k="name" v="Løkken" />
		<tag k="place" v="farm" />
		<tag k="ssr:stedsnr" v="867516" />
	</node>
	<node id="9831858113" lat="68.8585208" lon="18.0848319" version="1" timestamp="2022-06-19T22:38:59Z" changeset="122595810" uid="3497659" user="NKA">
		<tag k="name" v="Nyland" />
		<tag k="place" v="farm" />
		<tag k="ssr:stedsnr" v="901137" />
	</node>
	<node id="9831858114" lat="68.9718944" lon="18.4922278" version="1" timestamp="2022-06-19T22:38:59Z" changeset="122595810" uid="3497659" user="NKA">
		<tag k="name" v="Roland" />
		<tag k="place" v="farm" />
		<tag k="ssr:stedsnr" v="388097" />
	</node>
	<node id="9831858115" lat="69.0237777" lon="18.492661" version="1" timestamp="2022-06-19T22:38:59Z" changeset="122595810" uid="3497659" user="NKA">
		<tag k="alt_name" v="Hammersletta" />
		<tag k="name" v="Hammarsletta" />
		<tag k="place" v="farm" />
		<tag k="ssr:stedsnr" v="685920" />
	</node>
	<node id="9831858116" lat="68.8620195" lon="18.0851277" version="1" timestamp="2022-06-19T22:38:59Z" changeset="122595810" uid="3497659" user="NKA">
		<tag k="name" v="Leirbekkmoen" />
		<tag k="place" v="farm" />
		<tag k="ssr:stedsnr" v="199510" />
	</node>
	<node id="9831858117" lat="68.6514444" lon="18.9816306" version="1" timestamp="2022-06-19T22:38:59Z" changeset="122595810" uid="3497659" user="NKA">
		<tag k="name" v="Jávregeahči" />
		<tag k="name:se" v="Jávregeahči" />
		<tag k="old_name:no" v="Lappleiren" />
		<tag k="place" v="locality" />
		<tag k="ssr:stedsnr" v="724522" />
	</node>
	<node id="9831858118" lat="69.0301111" lon="18.5426501" version="1" timestamp="2022-06-19T22:38:59Z" changeset="122595810" uid="3497659" user="NKA">
		<tag k="name" v="Åsgård" />
		<tag k="place" v="farm" />
		<tag k="ssr:stedsnr" v="414960" />
	</node>
	<node id="9831858119" lat="68.8610167" lon="18.0841416" version="1" timestamp="2022-06-19T22:38:59Z" changeset="122595810" uid="3497659" user="NKA">
		<tag k="name" v="Mæleng" />
		<tag k="place" v="farm" />
		<tag k="ssr:stedsnr" v="624505" />
	</node>
	<node id="9831858120" lat="68.9850511" lon="18.5628329" version="1" timestamp="2022-06-19T22:38:59Z" changeset="122595810" uid="3497659" user="NKA">
		<tag k="name" v="Fjellbu" />
		<tag k="place" v="isolated_dwelling" />
		<tag k="ssr:stedsnr" v="111499" />
	</node>
	<node id="9831858121" lat="68.6665917" lon="18.5469001" version="1" timestamp="2022-06-19T22:38:59Z" changeset="122595810" uid="3497659" user="NKA">
		<tag k="name" v="Strømseng" />
		<tag k="place" v="farm" />
		<tag k="ssr:stedsnr" v="928301" />
	</node>
	<node id="9831858122" lat="68.8638222" lon="18.0906862" version="1" timestamp="2022-06-19T22:38:59Z" changeset="122595810" uid="3497659" user="NKA">
		<tag k="name" v="Bakke" />
		<tag k="place" v="farm" />
		<tag k="ssr:stedsnr" v="52169" />
	</node>
	<node id="9831858123" lat="69.0288389" lon="18.5690473" version="1" timestamp="2022-06-19T22:38:59Z" changeset="122595810" uid="3497659" user="NKA">
		<tag k="name" v="Tverås" />
		<tag k="place" v="farm" />
		<tag k="ssr:stedsnr" v="111906" />
	</node>
	<node id="9831858124" lat="69.0293666" lon="18.5569889" version="1" timestamp="2022-06-19T22:38:59Z" changeset="122595810" uid="3497659" user="NKA">
		<tag k="name" v="Nephagen" />
		<tag k="place" v="farm" />
		<tag k="ssr:stedsnr" v="50971" />
	</node>
	<node id="9831858125" lat="68.9338138" lon="18.4574945" version="1" timestamp="2022-06-19T22:38:59Z" changeset="122595810" uid="3497659" user="NKA">
		<tag k="name" v="Vang" />
		<tag k="place" v="farm" />
		<tag k="ssr:stedsnr" v="964727" />
	</node>
	<node id="9831858126" lat="68.6599653" lon="18.8061841" version="1" timestamp="2022-06-19T22:38:59Z" changeset="122595810" uid="3497659" user="NKA">
		<tag k="alt_name" v="Innset, øvre" />
		<tag k="name" v="Øvre Innset" />
		<tag k="place" v="farm" />
		<tag k="ssr:stedsnr" v="382485" />
	</node>
	<node id="9831858127" lat="68.6546139" lon="18.2050388" version="1" timestamp="2022-06-19T22:38:59Z" changeset="122595810" uid="3497659" user="NKA">
		<tag k="name" v="Stranda" />
		<tag k="place" v="farm" />
		<tag k="ssr:stedsnr" v="904891" />
	</node>
	<node id="9831858128" lat="68.858055" lon="18.3416767" version="1" timestamp="2022-06-19T22:38:59Z" changeset="122595810" uid="3497659" user="NKA">
		<tag k="alt_name" v="Toftåker" />
		<tag k="name" v="Toftaker" />
		<tag k="place" v="neighbourhood" />
		<tag k="ssr:stedsnr" v="381523" />
	</node>
	<node id="9831858129" lat="68.8324471" lon="18.1668717" version="1" timestamp="2022-06-19T22:38:59Z" changeset="122595810" uid="3497659" user="NKA">
		<tag k="name" v="Elvegård" />
		<tag k="place" v="farm" />
		<tag k="ssr:stedsnr" v="964559" />
	</node>
	<node id="9831858130" lat="68.7517588" lon="18.5276762" version="1" timestamp="2022-06-19T22:38:59Z" changeset="122595810" uid="3497659" user="NKA">
		<tag k="name" v="Bjørkeng" />
		<tag k="place" v="farm" />
		<tag k="ssr:stedsnr" v="331575" />
	</node>
	<node id="9831858131" lat="68.8546508" lon="18.4530807" version="1" timestamp="2022-06-19T22:38:59Z" changeset="122595810" uid="3497659" user="NKA">
		<tag k="name" v="Fjellheim" />
		<tag k="place" v="isolated_dwelling" />
		<tag k="ssr:stedsnr" v="782120" />
	</node>
	<node id="9831858132" lat="68.8407954" lon="18.1599398" version="1" timestamp="2022-06-19T22:38:59Z" changeset="122595810" uid="3497659" user="NKA">
		<tag k="alt_name" v="Kroken;Kroken, vestre" />
		<tag k="name" v="Vestre Kroken" />
		<tag k="place" v="farm" />
		<tag k="ssr:stedsnr" v="494514" />
	</node>
	<node id="9831858133" lat="68.8333417" lon="18.2600806" version="1" timestamp="2022-06-19T22:38:59Z" changeset="122595810" uid="3497659" user="NKA">
		<tag k="name" v="Sørhus" />
		<tag k="place" v="farm" />
		<tag k="ssr:stedsnr" v="299263" />
	</node>
	<node id="9831858134" lat="68.9858948" lon="18.5203486" version="1" timestamp="2022-06-19T22:38:59Z" changeset="122595810" uid="3497659" user="NKA">
		<tag k="name" v="Finnkroken" />
		<tag k="place" v="farm" />
		<tag k="ssr:stedsnr" v="745631" />
	</node>
	<node id="9831858135" lat="68.8410056" lon="18.157811" version="1" timestamp="2022-06-19T22:38:59Z" changeset="122595810" uid="3497659" user="NKA">
		<tag k="name" v="Krokland" />
		<tag k="place" v="farm" />
		<tag k="ssr:stedsnr" v="928512" />
	</node>
	<node id="9831858136" lat="68.6447722" lon="18.2445083" version="1" timestamp="2022-06-19T22:38:59Z" changeset="122595810" uid="3497659" user="NKA">
		<tag k="alt_name" v="Bonnsåker" />
		<tag k="name" v="Bonsaker" />
		<tag k="place" v="farm" />
		<tag k="ssr:stedsnr" v="79277" />
	</node>
	<node id="9831858137" lat="68.7271195" lon="18.5555822" version="1" timestamp="2022-06-19T22:38:59Z" changeset="122595810" uid="3497659" user="NKA">
		<tag k="name" v="Lundgård" />
		<tag k="place" v="farm" />
		<tag k="ssr:stedsnr" v="78662" />
	</node>
	<node id="9831858138" lat="68.9874" lon="18.5299749" version="1" timestamp="2022-06-19T22:38:59Z" changeset="122595810" uid="3497659" user="NKA">
		<tag k="name" v="Bjørnstad" />
		<tag k="place" v="farm" />
		<tag k="ssr:stedsnr" v="503589" />
	</node>
	<node id="9831858139" lat="68.9424306" lon="18.2390964" version="1" timestamp="2022-06-19T22:38:59Z" changeset="122595810" uid="3497659" user="NKA">
		<tag k="name" v="Skoelvdalen" />
		<tag k="place" v="locality" />
		<tag k="ssr:stedsnr" v="1077391" />
	</node>
	<node id="9831858140" lat="68.8419195" lon="18.2442861" version="1" timestamp="2022-06-19T22:38:59Z" changeset="122595810" uid="3497659" user="NKA">
		<tag k="name" v="Hegge" />
		<tag k="place" v="farm" />
		<tag k="ssr:stedsnr" v="200560" />
	</node>
	<node id="9831858141" lat="68.8401131" lon="18.1605788" version="1" timestamp="2022-06-19T22:38:59Z" changeset="122595810" uid="3497659" user="NKA">
		<tag k="name" v="Kroken - Ruohkki" />
		<tag k="name:no" v="Kroken" />
		<tag k="name:se" v="Ruohkki" />
		<tag k="place" v="hamlet" />
		<tag k="ssr:stedsnr" v="1077376" />
	</node>
	<node id="9435813885" lat="68.6347124" lon="18.2770765" version="1" timestamp="2022-01-21T07:34:53Z" changeset="116415921" uid="3497659" user="NKA" />
	<node id="9435813886" lat="68.6347964" lon="18.2771569" version="1" timestamp="2022-01-21T07:34:53Z" changeset="116415921" uid="3497659" user="NKA" />
	<node id="5768459633" lat="68.8286678" lon="18.4296765" version="1" timestamp="2018-07-18T14:17:11Z" changeset="60839397" uid="5732597" user="ENTUR Johan Wiklund" />
	<node id="5768459915" lat="68.8291911" lon="18.4301457" version="1" timestamp="2018-07-18T14:17:15Z" changeset="60839397" uid="5732597" user="ENTUR Johan Wiklund" />
	<node id="9448191273" lat="68.9057531" lon="18.4020647" version="1" timestamp="2022-01-25T18:21:17Z" changeset="116596754" uid="3497659" user="NKA" />
	<node id="9448191274" lat="68.9057405" lon="18.4018743" version="1" timestamp="2022-01-25T18:21:17Z" changeset="116596754" uid="3497659" user="NKA" />
	<node id="5768063232" lat="68.9295634" lon="18.4799185" version="1" timestamp="2018-07-18T11:36:26Z" changeset="60833348" uid="5732597" user="ENTUR Johan Wiklund" />
	<node id="5768066387" lat="68.9302204" lon="18.4771856" version="1" timestamp="2018-07-18T11:37:07Z" changeset="60833348" uid="5732597" user="ENTUR Johan Wiklund" />
	<way id="608924174" version="2" timestamp="2022-01-21T07:16:18Z" changeset="116415148" uid="3497659" user="NKA">
		<tag k="bridge" v="yes" />
		<tag k="bridge:structure" v="suspension" />
		<tag k="highway" v="unclassified" />
		<tag k="layer" v="1" />
		<tag k="name" v="Tunebrua" />
		<tag k="ssr:stedsnr" v="18536" />
		<nd ref="5768066387" />
		<nd ref="5768063232" />
	</way>
	<way id="608966267" version="2" timestamp="2022-01-21T07:16:18Z" changeset="116415148" uid="3497659" user="NKA">
		<tag k="alt_name" v="Fosshaug bru" />
		<tag k="bridge" v="yes" />
		<tag k="bridge:structure" v="beam" />
		<tag k="highway" v="tertiary" />
		<tag k="layer" v="1" />
		<tag k="name" v="Fosshaugbrua" />
		<tag k="ssr:stedsnr" v="563526" />
		<nd ref="5768459633" />
		<nd ref="5768459915" />
	</way>
	<way id="1023147761" version="1" timestamp="2022-01-21T07:34:53Z" changeset="116415921" uid="3497659" user="NKA">
		<tag k="bridge" v="yes" />
		<tag k="fixme" v="refine;resurvey" />
		<tag k="highway" v="path" />
		<tag k="layer" v="1" />
		<tag k="name" v="Budalsbrua" />
		<tag k="ssr:stedsnr" v="358940" />
		<nd ref="9435813886" />
		<nd ref="9435813885" />
	</way>
	<way id="1024634150" version="1" timestamp="2022-01-25T18:21:17Z" changeset="116596754" uid="3497659" user="NKA">
		<tag k="bridge" v="yes" />
		<tag k="highway" v="service" />
		<tag k="layer" v="1" />
		<tag k="name" v="Mobrua" />
		<tag k="ssr:stedsnr" v="906208" />
		<nd ref="9448191273" />
		<nd ref="9448191274" />
	</way>
</osm>
