<?xml version="1.0" encoding="UTF-8"?>
<osm generator="osmapis" version="0.6">
	<node changeset="62517957" id="5901702368" lat="61.1885901" lon="6.523996" timestamp="2018-09-12T11:51:54Z" uid="715936" user="Gazer75" version="1">
		<tag k="name" v="Bruhjell" />
		<tag k="place" v="farm" />
		<tag k="ssr:stedsnr" v="676723" />
	</node>
	<node changeset="62517957" id="5901702496" lat="61.2205459" lon="6.5036809" timestamp="2018-09-12T11:51:54Z" uid="715936" user="Gazer75" version="1">
		<tag k="name" v="Skrednes" />
		<tag k="place" v="farm" />
		<tag k="ssr:stedsnr" v="373714" />
	</node>
	<node changeset="62517957" id="5901702498" lat="61.2238566" lon="6.4935207" timestamp="2018-09-12T11:51:54Z" uid="715936" user="Gazer75" version="1">
		<tag k="alt_name" v="Kvalheim" />
		<tag k="name" v="Kvaleim" />
		<tag k="place" v="farm" />
		<tag k="ssr:stedsnr" v="70702" />
	</node>
	<node changeset="62517957" id="5901702502" lat="61.2294909" lon="6.4831138" timestamp="2018-09-12T11:51:54Z" uid="715936" user="Gazer75" version="1">
		<tag k="name" v="Esebotn" />
		<tag k="place" v="locality" />
		<tag k="ssr:stedsnr" v="555663" />
	</node>
	<node changeset="62517957" id="5901702497" lat="61.2253802" lon="6.4902913" timestamp="2018-09-12T11:51:54Z" uid="715936" user="Gazer75" version="1">
		<tag k="alt_name" v="Hjelseng" />
		<tag k="name" v="Hjellsengi" />
		<tag k="place" v="farm" />
		<tag k="ssr:stedsnr" v="737682" />
	</node>
	<node changeset="62517957" id="5901702504" lat="61.2138819" lon="6.4940035" timestamp="2018-09-12T11:51:55Z" uid="715936" user="Gazer75" version="1">
		<tag k="name" v="Ytre Ese" />
		<tag k="place" v="farm" />
		<tag k="ssr:stedsnr" v="9686" />
	</node>
	<node changeset="62517957" id="5901702503" lat="61.2156436" lon="6.4906454" timestamp="2018-09-12T11:51:54Z" uid="715936" user="Gazer75" version="1">
		<tag k="name" v="Indre Ese" />
		<tag k="place" v="farm" />
		<tag k="ssr:stedsnr" v="959679" />
	</node>
	<node changeset="62517957" id="5901702367" lat="61.1805877" lon="6.533947" timestamp="2018-09-12T11:51:54Z" uid="715936" user="Gazer75" version="1">
		<tag k="alt_name" v="Thue" />
		<tag k="name" v="Tue" />
		<tag k="place" v="farm" />
		<tag k="ssr:stedsnr" v="798691" />
	</node>
	<node changeset="62517957" id="2394539471" lat="61.2193097" lon="6.5090441" timestamp="2018-09-12T11:51:58Z" uid="715936" user="Gazer75" version="3">
		<tag k="name" v="Bakkeviki" />
		<tag k="natural" v="bay" />
		<tag k="ssr:stedsnr" v="712901" />
	</node>
	<node changeset="62517957" id="5901702486" lat="61.2155403" lon="6.55357" timestamp="2018-09-12T11:51:54Z" uid="715936" user="Gazer75" version="1">
		<tag k="name" v="Lunde" />
		<tag k="place" v="farm" />
		<tag k="ssr:stedsnr" v="798674" />
	</node>
	<node changeset="62517957" id="5901702487" lat="61.214941" lon="6.5459418" timestamp="2018-09-12T11:51:54Z" uid="715936" user="Gazer75" version="1">
		<tag k="name" v="Tjugum" />
		<tag k="place" v="farm" />
		<tag k="ssr:stedsnr" v="591884" />
	</node>
	<node changeset="62517957" id="5901702488" lat="61.2173846" lon="6.5323269" timestamp="2018-09-12T11:51:54Z" uid="715936" user="Gazer75" version="1">
		<tag k="name" v="Gjerde" />
		<tag k="place" v="farm" />
		<tag k="ssr:stedsnr" v="555660" />
	</node>
	<node changeset="62517957" id="5901702489" lat="61.2181491" lon="6.5240765" timestamp="2018-09-12T11:51:54Z" uid="715936" user="Gazer75" version="1">
		<tag k="name" v="Grøneng" />
		<tag k="place" v="farm" />
		<tag k="ssr:stedsnr" v="434665" />
	</node>
	<node changeset="62517957" id="5901702363" lat="61.1373215" lon="6.5269089" timestamp="2018-09-12T11:51:53Z" uid="715936" user="Gazer75" version="1">
		<tag k="name" v="Målsnes" />
		<tag k="place" v="farm" />
		<tag k="ssr:stedsnr" v="859635" />
	</node>
	<node changeset="62517957" id="5901702364" lat="61.1557945" lon="6.5374875" timestamp="2018-09-12T11:51:53Z" uid="715936" user="Gazer75" version="1">
		<tag k="alt_name" v="Hanevik" />
		<tag k="name" v="Hanaviki" />
		<tag k="place" v="farm" />
		<tag k="ssr:stedsnr" v="737645" />
	</node>
	<node changeset="62517957" id="5901702365" lat="61.1654409" lon="6.5406847" timestamp="2018-09-12T11:51:53Z" uid="715936" user="Gazer75" version="1">
		<tag k="name" v="Stokkabø" />
		<tag k="place" v="farm" />
		<tag k="ssr:stedsnr" v="313637" />
	</node>
	<node changeset="62517957" id="5901702366" lat="61.1713132" lon="6.5410066" timestamp="2018-09-12T11:51:53Z" uid="715936" user="Gazer75" version="1">
		<tag k="alt_name" v="Flesje" />
		<tag k="name" v="Flesjane" />
		<tag k="place" v="farm" />
		<tag k="ssr:stedsnr" v="798680" />
	</node>
	<node changeset="62517957" id="5901702495" lat="61.2200293" lon="6.509673" timestamp="2018-09-12T11:51:54Z" uid="715936" user="Gazer75" version="1">
		<tag k="name" v="Bakken" />
		<tag k="place" v="farm" />
		<tag k="ssr:stedsnr" v="70701" />
	</node>
</osm>
