<?xml version="1.0" encoding="UTF-8"?>
<osm generator="osmapis" version="0.6">
	<node changeset="76143611" id="2084075404" lat="60.1960411" lon="10.1497431" timestamp="2019-10-24T09:40:07Z" uid="3497659" user="NKA" version="4" />
	<node changeset="76143611" id="2354985690" lat="60.1959964" lon="10.1500927" timestamp="2019-10-24T09:40:07Z" uid="3497659" user="NKA" version="3" />
	<node changeset="76143609" id="6911879276" lat="60.1960884" lon="10.1492983" timestamp="2019-10-24T09:40:03Z" uid="3497659" user="NKA" version="1" />
	<node changeset="58620907" id="2354962445" lat="60.323981" lon="9.792781" timestamp="2018-05-02T17:04:11Z" uid="3497659" user="NKA" version="2">
		<tag k="name" v="SÃ¥ta" />
		<tag k="natural" v="peak" />
		<tag k="source" v="Kartverket" />
		<tag k="ssr:stedsnr" v="188839" />
	</node>
	<node changeset="76143609" id="6911879253" lat="60.1959886" lon="10.1501491" timestamp="2019-10-24T09:40:03Z" uid="3497659" user="NKA" version="1" />
	<way changeset="76143611" id="226744697" timestamp="2019-10-24T09:40:07Z" uid="3497659" user="NKA" version="6">
		<tag k="bridge" v="yes" />
		<tag k="highway" v="trunk" />
		<tag k="layer" v="1" />
		<tag k="maxspeed" v="80" />
		<tag k="name" v="Elvengbrua" />
		<tag k="ref" v="7" />
		<tag k="ssr:stedsnr" v="404945" />
		<nd ref="6911879253" />
		<nd ref="2354985690" />
		<nd ref="2084075404" />
		<nd ref="6911879276" />
	</way>
</osm>
