<?xml version="1.0" encoding="UTF-8"?>
<osm generator="osmapis" version="0.6">
	<node id="-100860" lat="62.1478111099" lon="10.0102166574">
		<tag k="name" v="Bjørkeskogen" />
		<tag k="place" v="locality" />
		<tag k="ssr:stedsnr" v="56633" />
	</node>
	<node id="-101882" lat="62.2400416693" lon="10.289899993">
		<tag k="name" v="Slettfjellbekkmyra" />
		<tag k="natural" v="wetland" />
		<tag k="ssr:stedsnr" v="720098" />
	</node>
	<node id="-101460" lat="62.1780305599" lon="10.2437527719">
		<tag k="name" v="Follenga" />
		<tag k="place" v="locality" />
		<tag k="ssr:stedsnr" v="483210" />
	</node>
	<node id="-101715" lat="62.1508416677" lon="10.0877749975">
		<tag k="alt_name" v="Geitryggen Nordre gruver" />
		<tag k="landuse" v="quarry" />
		<tag k="name" v="Skjerpet" />
		<tag k="old_name" v="Geiteryggruva, nordre" />
		<tag k="ssr:stedsnr" v="617336" />
	</node>
	<node id="-101354" lat="62.1746944461" lon="9.82179444311">
		<tag k="name" v="Kalvelykkjan" />
		<tag k="place" v="locality" />
		<tag k="ssr:stedsnr" v="431698" />
	</node>
	<node id="-101351" lat="62.0380388934" lon="9.96246943755">
		<tag k="name" v="Brenna" />
		<tag k="place" v="locality" />
		<tag k="ssr:stedsnr" v="422758" />
	</node>
	<node id="-101349" lat="62.0363750025" lon="9.97338332914">
		<tag k="name" v="Tjyruskjellmyrin" />
		<tag k="natural" v="wetland" />
		<tag k="ssr:stedsnr" v="422753" />
	</node>
	<node id="-101860" lat="62.1081527779" lon="10.0430944452">
		<tag k="name" v="Holsmyre" />
		<tag k="natural" v="wetland" />
		<tag k="ssr:stedsnr" v="678497" />
	</node>
	<node id="-101859" lat="62.1093222185" lon="9.85901943858">
		<tag k="name" v="Streitmyrin" />
		<tag k="natural" v="wetland" />
		<tag k="old_name" v="Streitmyrene" />
		<tag k="ssr:stedsnr" v="678495" />
	</node>
	<node id="-101345" lat="62.1523138863" lon="9.88025277589">
		<tag k="alt_name" v="Strømhaugmorke" />
		<tag k="name" v="Straumhaugmorke" />
		<tag k="place" v="locality" />
		<tag k="ssr:stedsnr" v="422573" />
	</node>
	<node id="-100828" lat="62.1339138903" lon="10.1055055641">
		<tag k="alt_name" v="Søndre Geitryggen gruve" />
		<tag k="landuse" v="quarry" />
		<tag k="name" v="Geitryggruva" />
		<tag k="old_name" v="Geiteryggruva" />
		<tag k="ssr:stedsnr" v="11465" />
	</node>
	<node id="-100858" lat="62.1955083348" lon="10.2927833415">
		<tag k="landuse" v="meadow" />
		<tag k="name" v="Moskarenga" />
		<tag k="ssr:stedsnr" v="56322" />
	</node>
	<node id="-101336" lat="61.9518833325" lon="10.023566661">
		<tag k="name" v="Døverkloppmyr" />
		<tag k="natural" v="wetland" />
		<tag k="ssr:stedsnr" v="422391" />
	</node>
	<node id="-100820" lat="62.1390111095" lon="9.99307499607">
		<tag k="fixme" v="multiple name tags, choose one and add the other to alt_name" />
		<tag k="landuse" v="quarry" />
		<tag k="name" v="Folldal gruver;Folldal verk" />
		<tag k="ssr:stedsnr" v="11433" />
	</node>
	<node id="-102353" lat="62.1609194417" lon="9.83563334004">
		<tag k="name" v="Øyan" />
		<tag k="place" v="locality" />
		<tag k="ssr:stedsnr" v="919627" />
	</node>
	<node id="-102351" lat="62.1676805579" lon="9.81021943889">
		<tag k="name" v="Svartholøye" />
		<tag k="place" v="locality" />
		<tag k="ssr:stedsnr" v="916673" />
	</node>
	<node id="-102346" lat="62.310113885" lon="9.84495554693">
		<tag k="name" v="Veslekvea" />
		<tag k="place" v="locality" />
		<tag k="ssr:stedsnr" v="908897" />
	</node>
	<node id="-101317" lat="62.0182805529" lon="9.98603055549">
		<tag k="name" v="Øye" />
		<tag k="place" v="locality" />
		<tag k="ssr:stedsnr" v="421358" />
	</node>
	<node id="-101464" lat="62.229980555" lon="10.2352194485">
		<tag k="name" v="Bjønnåsfloen" />
		<tag k="natural" v="wetland" />
		<tag k="ssr:stedsnr" v="483293" />
	</node>
	<node id="-101827" lat="62.1086694468" lon="10.138752779">
		<tag k="name" v="Døltjønnenget" />
		<tag k="place" v="locality" />
		<tag k="ssr:stedsnr" v="665968" />
	</node>
	<node id="-101825" lat="62.1915361085" lon="9.77068333757">
		<tag k="name" v="Heststallan" />
		<tag k="place" v="locality" />
		<tag k="ssr:stedsnr" v="665831" />
	</node>
	<node id="-101824" lat="62.0389111091" lon="9.97947221285">
		<tag k="name" v="Blæsterburustan" />
		<tag k="place" v="locality" />
		<tag k="ssr:stedsnr" v="665773" />
	</node>
	<node id="-102335" lat="62.145544442" lon="9.90525555003">
		<tag k="name" v="Spælen" />
		<tag k="place" v="locality" />
		<tag k="ssr:stedsnr" v="908590" />
	</node>
	<node id="-101310" lat="62.0884055525" lon="9.98573054857">
		<tag k="name" v="Jervmyre" />
		<tag k="natural" v="wetland" />
		<tag k="ssr:stedsnr" v="421168" />
	</node>
	<node id="-101821" lat="62.3088111086" lon="10.0451111184">
		<tag k="landuse" v="meadow" />
		<tag k="name" v="Bergeenget" />
		<tag k="ssr:stedsnr" v="665734" />
	</node>
	<node id="-101820" lat="62.1988861103" lon="10.0668000038">
		<tag k="landuse" v="meadow" />
		<tag k="name" v="Slettholen" />
		<tag k="ssr:stedsnr" v="665633" />
	</node>
	<node id="-102331" lat="62.0742944443" lon="9.9423916608">
		<tag k="name" v="Tjyruskjellen" />
		<tag k="place" v="locality" />
		<tag k="ssr:stedsnr" v="908554" />
	</node>
	<node id="-100794" lat="62.1847027794" lon="9.80584721473">
		<tag k="name" v="Ljosmyre" />
		<tag k="natural" v="wetland" />
		<tag k="ssr:stedsnr" v="1771" />
	</node>
	<node id="-101079" lat="62.0499611139" lon="10.0359222215">
		<tag k="name" v="Jonbrenna" />
		<tag k="place" v="locality" />
		<tag k="ssr:stedsnr" v="178228" />
	</node>
	<node id="-101303" lat="62.2097111114" lon="9.76603888239">
		<tag k="historic" v="shieling" />
		<tag k="name" v="Lybekk" />
		<tag k="place" v="locality" />
		<tag k="ssr:stedsnr" v="420783" />
	</node>
	<node id="-101822" lat="62.0622111085" lon="9.96060277026">
		<tag k="name" v="Slettmyre" />
		<tag k="natural" v="wetland" />
		<tag k="ssr:stedsnr" v="665767" />
	</node>
	<node id="-100893" lat="62.0719166708" lon="9.94549443728">
		<tag k="name" v="Kvee" />
		<tag k="place" v="locality" />
		<tag k="ssr:stedsnr" v="58551" />
	</node>
	<node id="-100783" lat="62.1667138845" lon="10.3317249983">
		<tag k="historic" v="shieling" />
		<tag k="name" v="Gammelvangen" />
		<tag k="place" v="locality" />
		<tag k="ssr:stedsnr" v="477070" />
	</node>
	<node id="-101292" lat="62.1645333335" lon="9.81877777093">
		<tag k="name" v="Småøyan" />
		<tag k="place" v="locality" />
		<tag k="ssr:stedsnr" v="263665" />
	</node>
	<node id="-101802" lat="62.0214194458" lon="9.97756944291">
		<tag k="name" v="Svarttjønnmyre" />
		<tag k="natural" v="wetland" />
		<tag k="ssr:stedsnr" v="664636" />
	</node>
	<node id="-100995" lat="62.1779027757" lon="10.2181444479">
		<tag k="name" v="Tunnøymorka" />
		<tag k="place" v="locality" />
		<tag k="ssr:stedsnr" v="119018" />
	</node>
	<node id="-101799" lat="62.1389972227" lon="9.91356110155">
		<tag k="name" v="Stormyre" />
		<tag k="natural" v="wetland" />
		<tag k="ssr:stedsnr" v="664518" />
	</node>
	<node id="-101446" lat="62.1925888911" lon="9.66086110541">
		<tag k="historic" v="shieling" />
		<tag k="name" v="Øyavesle-lykkja" />
		<tag k="place" v="locality" />
		<tag k="ssr:stedsnr" v="481979" />
	</node>
	<node id="-102300" lat="62.1214611144" lon="9.975405562">
		<tag k="name" v="Svee" />
		<tag k="place" v="locality" />
		<tag k="ssr:stedsnr" v="906563" />
	</node>
	<node id="-101783" lat="62.1322361093" lon="10.1417694508">
		<tag k="name" v="Oddenga" />
		<tag k="place" v="locality" />
		<tag k="ssr:stedsnr" v="663921" />
	</node>
	<node id="-101782" lat="62.1746111075" lon="9.77703333502">
		<tag k="name" v="Brenna" />
		<tag k="place" v="locality" />
		<tag k="ssr:stedsnr" v="663797" />
	</node>
	<node id="-102293" lat="62.149208331" lon="10.1961833343">
		<tag k="historic" v="shieling" />
		<tag k="name" v="Åsvangen" />
		<tag k="place" v="locality" />
		<tag k="ssr:stedsnr" v="906101" />
	</node>
	<node id="-101778" lat="62.1291194485" lon="9.88486388917">
		<tag k="name" v="Svarttjønnmyre" />
		<tag k="natural" v="wetland" />
		<tag k="ssr:stedsnr" v="663547" />
	</node>
	<node id="-102288" lat="62.1604611103" lon="10.1781444537">
		<tag k="name" v="Bakkejordet" />
		<tag k="place" v="locality" />
		<tag k="ssr:stedsnr" v="906005" />
	</node>
	<node id="-100751" lat="62.0746805552" lon="10.0225749967">
		<tag k="name" v="Stormyre" />
		<tag k="natural" v="wetland" />
		<tag k="ssr:stedsnr" v="374383" />
	</node>
	<node id="-101772" lat="62.1824777767" lon="10.3011666696">
		<tag k="name" v="Rundknausmyra" />
		<tag k="natural" v="wetland" />
		<tag k="ssr:stedsnr" v="663302" />
	</node>
	<node id="-100674" lat="61.9739361134" lon="10.0372305474">
		<tag k="name" v="Storsteinmyre" />
		<tag k="natural" v="wetland" />
		<tag k="ssr:stedsnr" v="359471" />
	</node>
	<node id="-101764" lat="62.1771805548" lon="10.160586113">
		<tag k="name" v="Kakelmåna" />
		<tag k="place" v="locality" />
		<tag k="ssr:stedsnr" v="663053" />
	</node>
	<node id="-101763" lat="62.1705083308" lon="10.1592694458">
		<tag k="name" v="Måna" />
		<tag k="place" v="locality" />
		<tag k="ssr:stedsnr" v="663050" />
	</node>
	<node id="-101761" lat="62.2179638917" lon="10.3605305496">
		<tag k="name" v="Klebermyran" />
		<tag k="natural" v="wetland" />
		<tag k="ssr:stedsnr" v="659958" />
	</node>
	<node id="-101248" lat="62.1438527786" lon="10.1625638876">
		<tag k="name" v="Frankmoenget" />
		<tag k="place" v="locality" />
		<tag k="ssr:stedsnr" v="240943" />
	</node>
	<node id="-100733" lat="62.1362527794" lon="10.1472916741">
		<tag k="landuse" v="meadow" />
		<tag k="name" v="Borti Engom" />
		<tag k="ssr:stedsnr" v="361949" />
	</node>
	<node id="-101243" lat="62.061383331" lon="9.9819666688">
		<tag k="name" v="Blæstermyre" />
		<tag k="natural" v="wetland" />
		<tag k="ssr:stedsnr" v="240756" />
	</node>
	<node id="-101242" lat="62.3037944422" lon="10.0545333286">
		<tag k="landuse" v="meadow" />
		<tag k="name" v="Buøya" />
		<tag k="ssr:stedsnr" v="240729" />
	</node>
	<node id="-101237" lat="62.1542972204" lon="9.87171944324">
		<tag k="name" v="Brovollsveen" />
		<tag k="place" v="locality" />
		<tag k="ssr:stedsnr" v="240585" />
	</node>
	<node id="-100724" lat="62.3145694443" lon="10.0229777711">
		<tag k="landuse" v="meadow" />
		<tag k="name" v="Liaøverøya" />
		<tag k="ssr:stedsnr" v="361730" />
	</node>
	<node id="-101235" lat="62.1474777788" lon="9.86740277874">
		<tag k="alt_name" v="Strømhaugmyre" />
		<tag k="name" v="Straumhaugmyre" />
		<tag k="natural" v="wetland" />
		<tag k="ssr:stedsnr" v="240579" />
	</node>
	<node id="-100721" lat="62.2032777783" lon="10.0577722203">
		<tag k="name" v="Leirdissa" />
		<tag k="place" v="locality" />
		<tag k="ssr:stedsnr" v="361618" />
	</node>
	<node id="-101230" lat="62.1789222209" lon="9.86899167261">
		<tag k="historic" v="shieling" />
		<tag k="name" v="Gammelsætre" />
		<tag k="place" v="locality" />
		<tag k="ssr:stedsnr" v="240446" />
	</node>
	<node id="-100714" lat="62.078416666" lon="9.97401110702">
		<tag k="name" v="Storfloen" />
		<tag k="natural" v="wetland" />
		<tag k="ssr:stedsnr" v="361553" />
	</node>
	<node id="-100712" lat="61.9625333293" lon="10.0269444494">
		<tag k="name" v="Ågotmyre" />
		<tag k="natural" v="wetland" />
		<tag k="ssr:stedsnr" v="361548" />
	</node>
	<node id="-101222" lat="62.0682527768" lon="10.0033166656">
		<tag k="name" v="Kollbottøye" />
		<tag k="place" v="locality" />
		<tag k="ssr:stedsnr" v="240268" />
	</node>
	<node id="-100708" lat="62.1795027757" lon="10.252116658">
		<tag k="name" v="Ryhaugvangen" />
		<tag k="place" v="locality" />
		<tag k="ssr:stedsnr" v="361388" />
	</node>
	<node id="-100706" lat="62.2323166625" lon="10.2653944484">
		<tag k="name" v="Ryengmyra" />
		<tag k="natural" v="wetland" />
		<tag k="ssr:stedsnr" v="361304" />
	</node>
	<node id="-100704" lat="62.0666694485" lon="10.0021694426">
		<tag k="name" v="Småøyan" />
		<tag k="place" v="locality" />
		<tag k="ssr:stedsnr" v="361269" />
	</node>
	<node id="-100703" lat="62.0527416629" lon="10.0981277792">
		<tag k="name" v="Brenna" />
		<tag k="place" v="locality" />
		<tag k="ssr:stedsnr" v="361263" />
	</node>
	<node id="-101214" lat="62.1642472191" lon="10.1915666707">
		<tag k="name" v="Midtenget" />
		<tag k="place" v="locality" />
		<tag k="ssr:stedsnr" v="239021" />
	</node>
	<node id="-101572" lat="62.199444443" lon="10.3344138859">
		<tag k="name" v="Foldmorka" />
		<tag k="place" v="locality" />
		<tag k="ssr:stedsnr" v="543393" />
	</node>
	<node id="-101719" lat="62.1927972194" lon="10.1601222303">
		<tag k="alt_name" v="Gammelsæterfloen" />
		<tag k="name" v="Floen" />
		<tag k="natural" v="wetland" />
		<tag k="ssr:stedsnr" v="617385" />
	</node>
	<node id="-100691" lat="62.1246916633" lon="10.2154444349">
		<tag k="landuse" v="quarry" />
		<tag k="name" v="Klebergruva" />
		<tag k="ssr:stedsnr" v="360925" />
	</node>
	<node id="-101347" lat="62.2054055553" lon="10.0506527792">
		<tag k="name" v="Fløttvangen" />
		<tag k="place" v="locality" />
		<tag k="ssr:stedsnr" v="422597" />
	</node>
	<node id="-100687" lat="62.0213888881" lon="10.0140111201">
		<tag k="name" v="Krokøyan" />
		<tag k="place" v="locality" />
		<tag k="ssr:stedsnr" v="360346" />
	</node>
	<node id="-100685" lat="62.0532666653" lon="10.0185833302">
		<tag k="name" v="Turrtjønnan" />
		<tag k="natural" v="wetland" />
		<tag k="ssr:stedsnr" v="360208" />
	</node>
	<node id="-100683" lat="62.0815722266" lon="9.9934916649">
		<tag k="name" v="Bjønnbaskmyre" />
		<tag k="natural" v="wetland" />
		<tag k="ssr:stedsnr" v="360159" />
	</node>
	<node id="-102199" lat="62.0540583331" lon="10.0798250093">
		<tag k="landuse" v="meadow" />
		<tag k="name" v="Vesleenget" />
		<tag k="ssr:stedsnr" v="847270" />
	</node>
	<node id="-100680" lat="62.1701499987" lon="10.2105972302">
		<tag k="landuse" v="meadow" />
		<tag k="name" v="Langgrubbenget" />
		<tag k="ssr:stedsnr" v="360022" />
	</node>
	<node id="-100678" lat="62.1599166686" lon="9.78702500809">
		<tag k="name" v="Søre Stormyre" />
		<tag k="natural" v="wetland" />
		<tag k="ssr:stedsnr" v="359783" />
	</node>
	<node id="-102213" lat="62.0077305537" lon="9.98338332933">
		<tag k="name" v="Nedre Legan" />
		<tag k="place" v="locality" />
		<tag k="ssr:stedsnr" v="847673" />
	</node>
	<node id="-101188" lat="62.2528472204" lon="10.2875027785">
		<tag k="name" v="Follslåtten" />
		<tag k="place" v="locality" />
		<tag k="ssr:stedsnr" v="234090" />
	</node>
	<node id="-102211" lat="62.1728333306" lon="9.87701388808">
		<tag k="historic" v="shieling" />
		<tag k="name" v="Skryu" />
		<tag k="place" v="locality" />
		<tag k="ssr:stedsnr" v="847574" />
	</node>
	<node id="-101186" lat="62.2249611125" lon="10.3340277839">
		<tag k="name" v="Skrabban" />
		<tag k="place" v="locality" />
		<tag k="ssr:stedsnr" v="234072" />
	</node>
	<node id="-100673" lat="62.0323361138" lon="10.0107194462">
		<tag k="name" v="Dølalykkja" />
		<tag k="place" v="locality" />
		<tag k="ssr:stedsnr" v="359121" />
	</node>
	<node id="-102207" lat="62.0803083317" lon="9.96860833715">
		<tag k="name" v="Stakstofloen" />
		<tag k="natural" v="wetland" />
		<tag k="ssr:stedsnr" v="847533" />
	</node>
	<node id="-101180" lat="62.0351611085" lon="9.95690277616">
		<tag k="name" v="Rondmyre" />
		<tag k="natural" v="wetland" />
		<tag k="ssr:stedsnr" v="210777" />
	</node>
	<node id="-100667" lat="62.1385583292" lon="10.1536888837">
		<tag k="name" v="Gammeljordet" />
		<tag k="place" v="locality" />
		<tag k="ssr:stedsnr" v="355916" />
	</node>
	<node id="-100665" lat="61.9086166682" lon="10.079755554">
		<tag k="name" v="Straumbumyrene" />
		<tag k="natural" v="wetland" />
		<tag k="ssr:stedsnr" v="355563" />
	</node>
	<node id="-101687" lat="62.0773083343" lon="9.94671666445">
		<tag k="name" v="Åkerlykkjmyre" />
		<tag k="natural" v="wetland" />
		<tag k="ssr:stedsnr" v="604524" />
	</node>
	<node id="-101686" lat="62.3062638859" lon="10.0347777782">
		<tag k="landuse" v="meadow" />
		<tag k="name" v="Stortjønnenget" />
		<tag k="ssr:stedsnr" v="604741" />
	</node>
	<node id="-101685" lat="62.3021388856" lon="10.0536277723">
		<tag k="landuse" v="meadow" />
		<tag k="name" v="Beitrustenget" />
		<tag k="ssr:stedsnr" v="604739" />
	</node>
	<node id="-102195" lat="62.098361107" lon="10.0825055464">
		<tag k="name" v="Kyrkjestein" />
		<tag k="natural" v="stone" />
		<tag k="ssr:stedsnr" v="847069" />
	</node>
	<node id="-102192" lat="62.1159833355" lon="10.0723444472">
		<tag k="name" v="Sæterøya" />
		<tag k="place" v="locality" />
		<tag k="ssr:stedsnr" v="847027" />
	</node>
	<node id="-101679" lat="62.1039916624" lon="10.1008694534">
		<tag k="historic" v="shieling" />
		<tag k="name" v="Grimsengsæter" />
		<tag k="place" v="locality" />
		<tag k="ssr:stedsnr" v="604005" />
	</node>
	<node id="-102190" lat="62.1354638859" lon="10.1601888898">
		<tag k="landuse" v="meadow" />
		<tag k="name" v="Buvangen" />
		<tag k="ssr:stedsnr" v="846915" />
	</node>
	<node id="-101165" lat="62.1092833329" lon="9.82437499249">
		<tag k="landuse" v="quarry" />
		<tag k="name" v="Grimsdalsgruva" />
		<tag k="ssr:stedsnr" v="193495" />
	</node>
	<node id="-102188" lat="62.1874666633" lon="9.82802221661">
		<tag k="name" v="Stålmyre" />
		<tag k="natural" v="wetland" />
		<tag k="ssr:stedsnr" v="846764" />
	</node>
	<node id="-100718" lat="62.1066944489" lon="9.97272222525">
		<tag k="name" v="Svemorke" />
		<tag k="place" v="locality" />
		<tag k="ssr:stedsnr" v="361571" />
	</node>
	<node id="-101666" lat="62.1438111095" lon="9.857591674">
		<tag k="historic" v="shieling" />
		<tag k="name" v="Vollen" />
		<tag k="place" v="locality" />
		<tag k="ssr:stedsnr" v="602664" />
	</node>
	<node id="-101664" lat="62.1371249961" lon="9.9419472169">
		<tag k="name" v="Kvannøyan" />
		<tag k="place" v="locality" />
		<tag k="ssr:stedsnr" v="602587" />
	</node>
	<node id="-101936" lat="62.293686115" lon="10.0740500026">
		<tag k="landuse" v="meadow" />
		<tag k="name" v="Skeieenga" />
		<tag k="ssr:stedsnr" v="725675" />
	</node>
	<node id="-101658" lat="62.1985388887" lon="10.3097222236">
		<tag k="landuse" v="meadow" />
		<tag k="name" v="Vesleenget" />
		<tag k="ssr:stedsnr" v="602339" />
	</node>
	<node id="-101142" lat="62.0502527816" lon="10.0524111063">
		<tag k="name" v="Bakselamyre" />
		<tag k="natural" v="wetland" />
		<tag k="ssr:stedsnr" v="192425" />
	</node>
	<node id="-102161" lat="61.9776416683" lon="10.0260472271">
		<tag k="name" v="Sandomsøye" />
		<tag k="place" v="locality" />
		<tag k="ssr:stedsnr" v="845309" />
	</node>
	<node id="-101644" lat="62.1592083351" lon="10.2121638899">
		<tag k="name" v="Floen" />
		<tag k="natural" v="wetland" />
		<tag k="ssr:stedsnr" v="602018" />
	</node>
	<node id="-101641" lat="62.2019583357" lon="10.278319447">
		<tag k="historic" v="shieling" />
		<tag k="name" v="Klettrøa" />
		<tag k="place" v="locality" />
		<tag k="ssr:stedsnr" v="604415" />
	</node>
	<node id="-101638" lat="62.1724833336" lon="10.3254111088">
		<tag k="name" v="Rondan" />
		<tag k="place" v="locality" />
		<tag k="ssr:stedsnr" v="598071" />
	</node>
	<node id="-102149" lat="61.902113888" lon="10.0935111064">
		<tag k="name" v="Atnsjømyrene" />
		<tag k="natural" v="wetland" />
		<tag k="ssr:stedsnr" v="841558" />
	</node>
	<node id="-102148" lat="62.1770055597" lon="10.313566671">
		<tag k="landuse" v="meadow" />
		<tag k="name" v="Rybakken" />
		<tag k="ssr:stedsnr" v="841081" />
	</node>
	<node id="-100601" lat="61.9932916634" lon="9.98001110585">
		<tag k="name" v="Storgråviekjørre" />
		<tag k="place" v="locality" />
		<tag k="ssr:stedsnr" v="301675" />
	</node>
	<node id="-100600" lat="62.0181999993" lon="9.9813333394">
		<tag k="name" v="Nordre Glenna" />
		<tag k="natural" v="wetland" />
		<tag k="ssr:stedsnr" v="301664" />
	</node>
	<node id="-101110" lat="62.1606861071" lon="9.87286389174">
		<tag k="name" v="Askarsholen" />
		<tag k="place" v="locality" />
		<tag k="ssr:stedsnr" v="179566" />
	</node>
	<node id="-100596" lat="62.1456166682" lon="9.87848333363">
		<tag k="name" v="Stormyrlandet" />
		<tag k="place" v="locality" />
		<tag k="ssr:stedsnr" v="301561" />
	</node>
	<node id="-100593" lat="62.0798277793" lon="9.93859444309">
		<tag k="name" v="Semonbrenna" />
		<tag k="place" v="locality" />
		<tag k="ssr:stedsnr" v="301540" />
	</node>
	<node id="-101416" lat="62.153191664" lon="10.2012166741">
		<tag k="name" v="Rybergsenget" />
		<tag k="place" v="locality" />
		<tag k="ssr:stedsnr" v="481126" />
	</node>
	<node id="-101101" lat="62.2046305533" lon="10.32798889">
		<tag k="historic" v="shieling" />
		<tag k="name" v="Gammelvangen" />
		<tag k="place" v="locality" />
		<tag k="ssr:stedsnr" v="179383" />
	</node>
	<node id="-100587" lat="62.209527776" lon="10.2708888865">
		<tag k="name" v="Brenna" />
		<tag k="place" v="locality" />
		<tag k="ssr:stedsnr" v="301392" />
	</node>
	<node id="-100586" lat="62.0077722208" lon="9.98784721564">
		<tag k="name" v="Tjyrruskjellen" />
		<tag k="place" v="locality" />
		<tag k="ssr:stedsnr" v="301388" />
	</node>
	<node id="-101095" lat="62.0662361085" lon="9.98980555061">
		<tag k="name" v="Gundhildkroken" />
		<tag k="place" v="locality" />
		<tag k="ssr:stedsnr" v="179250" />
	</node>
	<node id="-100582" lat="62.1780388928" lon="10.2311388846">
		<tag k="name" v="Sjulhusmyra" />
		<tag k="natural" v="wetland" />
		<tag k="ssr:stedsnr" v="301172" />
	</node>
	<node id="-100581" lat="62.1779972223" lon="10.2689583407">
		<tag k="name" v="Stormyra" />
		<tag k="natural" v="wetland" />
		<tag k="ssr:stedsnr" v="301167" />
	</node>
	<node id="-101092" lat="62.1781444413" lon="10.2616611018">
		<tag k="name" v="Vesleenget" />
		<tag k="place" v="locality" />
		<tag k="ssr:stedsnr" v="179180" />
	</node>
	<node id="-100577" lat="62.1085749971" lon="10.0471055629">
		<tag k="historic" v="shieling" />
		<tag k="name" v="Fløttvangen" />
		<tag k="place" v="locality" />
		<tag k="ssr:stedsnr" v="301032" />
	</node>
	<node id="-100572" lat="62.1998861072" lon="9.68025834191">
		<tag k="name" v="Børsungmyre" />
		<tag k="natural" v="wetland" />
		<tag k="ssr:stedsnr" v="299968" />
	</node>
	<node id="-100569" lat="62.1094333363" lon="10.126038896">
		<tag k="name" v="Slåtten" />
		<tag k="place" v="locality" />
		<tag k="ssr:stedsnr" v="299939" />
	</node>
	<node id="-102103" lat="62.1576250025" lon="9.79630556235">
		<tag k="name" v="Ljosmyre" />
		<tag k="natural" v="wetland" />
		<tag k="ssr:stedsnr" v="799293" />
	</node>
	<node id="-101076" lat="62.1746694414" lon="10.1569083286">
		<tag k="name" v="Kjøllmyra" />
		<tag k="natural" v="wetland" />
		<tag k="ssr:stedsnr" v="178061" />
	</node>
	<node id="-101587" lat="62.0574416636" lon="9.9810861114">
		<tag k="name" v="Tjukkholtet" />
		<tag k="place" v="locality" />
		<tag k="ssr:stedsnr" v="543743" />
	</node>
	<node id="-102097" lat="62.1802555527" lon="9.89021666666">
		<tag k="name" v="Stormyre" />
		<tag k="natural" v="wetland" />
		<tag k="ssr:stedsnr" v="799269" />
	</node>
	<node id="-101072" lat="61.9763416641" lon="10.0391027799">
		<tag k="name" v="Myrbærmyre" />
		<tag k="natural" v="wetland" />
		<tag k="ssr:stedsnr" v="177285" />
	</node>
	<node id="-101069" lat="62.0449750021" lon="10.0222166698">
		<tag k="name" v="Langmyre" />
		<tag k="natural" v="wetland" />
		<tag k="ssr:stedsnr" v="177134" />
	</node>
	<node id="-101580" lat="62.1456888897" lon="9.89165554994">
		<tag k="name" v="Paradislykkja" />
		<tag k="place" v="locality" />
		<tag k="ssr:stedsnr" v="543547" />
	</node>
	<node id="-101067" lat="62.0416388863" lon="9.99786944565">
		<tag k="name" v="Myrbekkmyre" />
		<tag k="natural" v="wetland" />
		<tag k="ssr:stedsnr" v="177133" />
	</node>
	<node id="-101578" lat="62.0818833343" lon="9.97096110802">
		<tag k="name" v="Vesle Husmyre" />
		<tag k="natural" v="wetland" />
		<tag k="ssr:stedsnr" v="543516" />
	</node>
	<node id="-102089" lat="62.1405777754" lon="10.1584250021">
		<tag k="name" v="Gjelta" />
		<tag k="place" v="locality" />
		<tag k="ssr:stedsnr" v="786950" />
	</node>
	<node id="-101575" lat="61.9601500033" lon="10.0330222311">
		<tag k="name" v="Torvmyre" />
		<tag k="natural" v="wetland" />
		<tag k="ssr:stedsnr" v="543503" />
	</node>
	<node id="-101061" lat="62.2258833313" lon="10.2964277691">
		<tag k="name" v="Momyra" />
		<tag k="natural" v="wetland" />
		<tag k="ssr:stedsnr" v="174089" />
	</node>
	<node id="-102084" lat="62.31537778" lon="10.035958337">
		<tag k="name" v="Dalsæterfloen" />
		<tag k="natural" v="wetland" />
		<tag k="ssr:stedsnr" v="786739" />
	</node>
	<node id="-101059" lat="61.9175499991" lon="10.0731333282">
		<tag k="alt_name" v="Strømbumorke" />
		<tag k="name" v="Straumbumorke" />
		<tag k="place" v="locality" />
		<tag k="ssr:stedsnr" v="173560" />
	</node>
	<node id="-102082" lat="62.2986666667" lon="10.0406750091">
		<tag k="landuse" v="meadow" />
		<tag k="name" v="Stortjønnsætra" />
		<tag k="ssr:stedsnr" v="786738" />
	</node>
	<node id="-101579" lat="62.1450333368" lon="9.8711361094">
		<tag k="name" v="Stormyre" />
		<tag k="natural" v="wetland" />
		<tag k="ssr:stedsnr" v="543548" />
	</node>
	<node id="-101567" lat="62.066536109" lon="9.98719721937">
		<tag k="name" v="Storøye" />
		<tag k="place" v="locality" />
		<tag k="ssr:stedsnr" v="543269" />
	</node>
	<node id="-102078" lat="62.2057333299" lon="10.0594472263">
		<tag k="name" v="Krokvangen" />
		<tag k="place" v="locality" />
		<tag k="ssr:stedsnr" v="786602" />
	</node>
	<node id="-100725" lat="62.2940333336" lon="10.0929083416">
		<tag k="historic" v="shieling" />
		<tag k="name" v="Ossætra" />
		<tag k="place" v="locality" />
		<tag k="ssr:stedsnr" v="361732" />
	</node>
	<node id="-102074" lat="62.1442055542" lon="9.90663611941">
		<tag k="name" v="Lonaøyan" />
		<tag k="place" v="locality" />
		<tag k="ssr:stedsnr" v="786564" />
	</node>
	<node id="-102072" lat="62.1078083296" lon="9.95482499476">
		<tag k="landuse" v="meadow" />
		<tag k="name" v="Høgslåe" />
		<tag k="ssr:stedsnr" v="786560" />
	</node>
	<node id="-100663" lat="62.2255361067" lon="10.2997388974">
		<tag k="name" v="Godåsmyra" />
		<tag k="natural" v="wetland" />
		<tag k="ssr:stedsnr" v="355074" />
	</node>
	<node id="-102069" lat="62.0692222244" lon="9.97295555407">
		<tag k="name" v="Kroklykkja" />
		<tag k="place" v="locality" />
		<tag k="ssr:stedsnr" v="786546" />
	</node>
	<node id="-102068" lat="62.0765555556" lon="9.9408999975">
		<tag k="name" v="Stortreet" />
		<tag k="place" v="locality" />
		<tag k="ssr:stedsnr" v="786538" />
	</node>
	<node id="-101430" lat="62.138002775" lon="9.80574444016">
		<tag k="name" v="Neremyran" />
		<tag k="natural" v="wetland" />
		<tag k="ssr:stedsnr" v="481656" />
	</node>
	<node id="-101550" lat="62.1666777743" lon="9.81431944499">
		<tag k="name" v="Buøye" />
		<tag k="place" v="locality" />
		<tag k="ssr:stedsnr" v="542634" />
	</node>
	<node id="-102429" lat="62.1744888908" lon="10.1345888916">
		<tag k="name" v="Kjølen" />
		<tag k="place" v="locality" />
		<tag k="ssr:stedsnr" v="966044" />
	</node>
	<node id="-101548" lat="62.1821166705" lon="10.317930563">
		<tag k="name" v="Vesleåsmyra" />
		<tag k="natural" v="wetland" />
		<tag k="ssr:stedsnr" v="542335" />
	</node>
	<node id="-102059" lat="62.2382472203" lon="10.2486083335">
		<tag k="name" v="Holbekkenget" />
		<tag k="natural" v="wetland" />
		<tag k="ssr:stedsnr" v="786262" />
	</node>
	<node id="-101566" lat="62.0538305513" lon="10.0927333281">
		<tag k="landuse" v="meadow" />
		<tag k="name" v="Hesjegolvet" />
		<tag k="ssr:stedsnr" v="543231" />
	</node>
	<node id="-101532" lat="62.0354750034" lon="9.9896472131">
		<tag k="name" v="Frekmyre" />
		<tag k="natural" v="wetland" />
		<tag k="ssr:stedsnr" v="541118" />
	</node>
	<node id="-102043" lat="62.0262055532" lon="9.98789999701">
		<tag k="name" v="Fe-øye" />
		<tag k="place" v="locality" />
		<tag k="ssr:stedsnr" v="785353" />
	</node>
	<node id="-102041" lat="62.158866667" lon="10.1830472266">
		<tag k="landuse" v="meadow" />
		<tag k="name" v="Kakelenget" />
		<tag k="ssr:stedsnr" v="785015" />
	</node>
	<node id="-101020" lat="62.1509749981" lon="9.79766666362">
		<tag k="name" v="Stormyre" />
		<tag k="natural" v="wetland" />
		<tag k="ssr:stedsnr" v="131275" />
	</node>
	<node id="-101007" lat="62.0814888872" lon="9.97613610169">
		<tag k="name" v="Gråmyre" />
		<tag k="natural" v="wetland" />
		<tag k="ssr:stedsnr" v="119554" />
	</node>
	<node id="-101012" lat="62.0428694465" lon="9.97991111968">
		<tag k="name" v="Mikkelbrenna" />
		<tag k="place" v="locality" />
		<tag k="ssr:stedsnr" v="119778" />
	</node>
	<node id="-102035" lat="62.1340083293" lon="9.97097500157">
		<tag k="name" v="Gorbekklykkja" />
		<tag k="place" v="locality" />
		<tag k="ssr:stedsnr" v="784568" />
	</node>
	<node id="-102031" lat="62.062147221" lon="10.0284972248">
		<tag k="historic" v="shieling" />
		<tag k="name" v="Stigersæter" />
		<tag k="place" v="locality" />
		<tag k="ssr:stedsnr" v="784246" />
	</node>
	<node id="-102029" lat="62.0310777777" lon="9.98627499226">
		<tag k="name" v="Myrbekkenden" />
		<tag k="natural" v="wetland" />
		<tag k="ssr:stedsnr" v="784131" />
	</node>
	<node id="-100815" lat="62.1743250041" lon="10.1172805493">
		<tag k="alt_name" v="Kjølsæterfloen" />
		<tag k="name" v="Kjølfloen" />
		<tag k="natural" v="wetland" />
		<tag k="ssr:stedsnr" v="11253" />
	</node>
	<node id="-100998" lat="62.133305556" lon="10.1026444428">
		<tag k="landuse" v="quarry" />
		<tag k="name" v="Søndre Geitryggen gruve" />
		<tag k="ssr:stedsnr" v="119099" />
	</node>
	<node id="-102019" lat="62.0337527765" lon="9.96507777294">
		<tag k="name" v="Dørålsmorkje" />
		<tag k="place" v="locality" />
		<tag k="ssr:stedsnr" v="756773" />
	</node>
	<node id="-100991" lat="62.1305361155" lon="10.1156027687">
		<tag k="name" v="Oddmorka" />
		<tag k="place" v="locality" />
		<tag k="ssr:stedsnr" v="117917" />
	</node>
	<node id="-102434" lat="62.0541249982" lon="10.005583325">
		<tag k="name" v="Ut i Holom" />
		<tag k="place" v="locality" />
		<tag k="ssr:stedsnr" v="966239" />
	</node>
	<node id="-100983" lat="62.0097666669" lon="10.003244441">
		<tag k="name" v="Langstein" />
		<tag k="natural" v="stone" />
		<tag k="ssr:stedsnr" v="117389" />
	</node>
	<node id="-100980" lat="62.1968166661" lon="10.3157000084">
		<tag k="landuse" v="meadow" />
		<tag k="name" v="Storenget" />
		<tag k="ssr:stedsnr" v="117358" />
	</node>
	<node id="-100979" lat="62.197747222" lon="10.3214305572">
		<tag k="name" v="Vesleøya" />
		<tag k="place" v="locality" />
		<tag k="ssr:stedsnr" v="117357" />
	</node>
	<node id="-100978" lat="61.9785388875" lon="10.0313666747">
		<tag k="name" v="Leirholomyre" />
		<tag k="natural" v="wetland" />
		<tag k="ssr:stedsnr" v="117333" />
	</node>
	<node id="-101487" lat="62.1739416634" lon="9.80557777172">
		<tag k="name" v="Fegerflye" />
		<tag k="place" v="locality" />
		<tag k="ssr:stedsnr" v="491649" />
	</node>
	<node id="-101309" lat="62.1824000017" lon="10.22363888">
		<tag k="historic" v="shieling" />
		<tag k="name" v="Klettvangen" />
		<tag k="place" v="locality" />
		<tag k="ssr:stedsnr" v="421052" />
	</node>
	<node id="-101482" lat="62.045822224" lon="9.97469721786">
		<tag k="name" v="Kvunnolmyre" />
		<tag k="natural" v="wetland" />
		<tag k="ssr:stedsnr" v="483781" />
	</node>
	<node id="-100963" lat="62.1602694448" lon="10.1815444408">
		<tag k="name" v="Kakeløra" />
		<tag k="place" v="locality" />
		<tag k="ssr:stedsnr" v="117003" />
	</node>
	<node id="-101474" lat="62.222008331" lon="10.0186583329">
		<tag k="historic" v="shieling" />
		<tag k="name" v="Gammelvangen" />
		<tag k="place" v="locality" />
		<tag k="ssr:stedsnr" v="483578" />
	</node>
	<node id="-101473" lat="62.1047333314" lon="9.9751083391">
		<tag k="landuse" v="meadow" />
		<tag k="name" v="Lomslåe" />
		<tag k="ssr:stedsnr" v="483567" />
	</node>
	<node id="-101471" lat="62.0740833291" lon="9.9655472187">
		<tag k="name" v="Løkmyre" />
		<tag k="natural" v="wetland" />
		<tag k="ssr:stedsnr" v="483553" />
	</node>
	<node id="-101470" lat="62.0670388879" lon="9.97897777695">
		<tag k="name" v="Storøye" />
		<tag k="place" v="locality" />
		<tag k="ssr:stedsnr" v="483544" />
	</node>
	<node id="-101467" lat="62.2093250014" lon="10.3255249935">
		<tag k="landuse" v="meadow" />
		<tag k="name" v="Slåttan" />
		<tag k="ssr:stedsnr" v="483435" />
	</node>
	<node id="-101410" lat="62.1574666695" lon="10.1521833256">
		<tag k="name" v="Bekkdalstrøa" />
		<tag k="place" v="locality" />
		<tag k="ssr:stedsnr" v="481040" />
	</node>
	<node id="-102487" lat="62.0582277798" lon="9.98246389288">
		<tag k="name" v="Blæsterdalsmyre" />
		<tag k="natural" v="wetland" />
		<tag k="ssr:stedsnr" v="968771" />
	</node>
	<node id="-101461" lat="62.1776277736" lon="10.2390555559">
		<tag k="name" v="Sjulhusenget" />
		<tag k="place" v="locality" />
		<tag k="ssr:stedsnr" v="483215" />
	</node>
	<node id="-102484" lat="62.0177444407" lon="9.98340833299">
		<tag k="name" v="Øye" />
		<tag k="place" v="locality" />
		<tag k="ssr:stedsnr" v="968731" />
	</node>
	<node id="-101456" lat="62.1116805575" lon="9.99405278649">
		<tag k="landuse" v="meadow" />
		<tag k="name" v="Lomslåe" />
		<tag k="ssr:stedsnr" v="483054" />
	</node>
	<node id="-101450" lat="61.962005559" lon="10.0112500077">
		<tag k="name" v="Storoddsmyran" />
		<tag k="natural" v="wetland" />
		<tag k="ssr:stedsnr" v="482515" />
	</node>
	<node id="-102472" lat="62.097458337" lon="9.95073887991">
		<tag k="name" v="Bleikmyre" />
		<tag k="natural" v="wetland" />
		<tag k="ssr:stedsnr" v="968560" />
	</node>
	<node id="-100557" lat="62.0477777754" lon="10.0175833274">
		<tag k="name" v="Rolegrustbakken" />
		<tag k="place" v="locality" />
		<tag k="ssr:stedsnr" v="299236" />
	</node>
	<node id="-102470" lat="62.071752782" lon="9.97088610607">
		<tag k="name" v="Kroken" />
		<tag k="place" v="locality" />
		<tag k="ssr:stedsnr" v="968553" />
	</node>
	<node id="-102467" lat="61.9590444455" lon="10.0381750085">
		<tag k="name" v="Tjyrruvedkostmyre" />
		<tag k="natural" v="wetland" />
		<tag k="ssr:stedsnr" v="968435" />
	</node>
	<node id="-101440" lat="62.1818194428" lon="9.75804721295">
		<tag k="name" v="Nørdre Stormyre" />
		<tag k="natural" v="wetland" />
		<tag k="ssr:stedsnr" v="481821" />
	</node>
	<node id="-101557" lat="62.116394445" lon="10.0589833427">
		<tag k="name" v="Tobakstrøa" />
		<tag k="place" v="locality" />
		<tag k="ssr:stedsnr" v="543013" />
	</node>
	<node id="-101436" lat="62.2040083326" lon="9.7861638862">
		<tag k="name" v="Brutrøe" />
		<tag k="place" v="locality" />
		<tag k="ssr:stedsnr" v="481786" />
	</node>
	<node id="-101435" lat="62.2038944416" lon="9.80149999033">
		<tag k="name" v="Furuhovdmorke" />
		<tag k="place" v="locality" />
		<tag k="ssr:stedsnr" v="481784" />
	</node>
	<node id="-102458" lat="62.113038891" lon="10.0497861027">
		<tag k="name" v="Styggdalsenget" />
		<tag k="place" v="locality" />
		<tag k="ssr:stedsnr" v="968051" />
	</node>
	<node id="-101432" lat="62.1847777739" lon="9.83968054702">
		<tag k="name" v="Langholen" />
		<tag k="place" v="locality" />
		<tag k="ssr:stedsnr" v="481755" />
	</node>
	<node id="-102454" lat="62.3369777737" lon="9.98532499634">
		<tag k="name" v="Raudstein" />
		<tag k="natural" v="stone" />
		<tag k="ssr:stedsnr" v="967588" />
	</node>
	<node id="-101429" lat="62.1500583372" lon="10.0749527714">
		<tag k="name" v="Brandsnesmyre" />
		<tag k="natural" v="wetland" />
		<tag k="ssr:stedsnr" v="481624" />
	</node>
	<node id="-102448" lat="62.1665472247" lon="9.76425277235">
		<tag k="landuse" v="meadow" />
		<tag k="name" v="Måsåslåe" />
		<tag k="ssr:stedsnr" v="966812" />
	</node>
	<node id="-101934" lat="62.024983334" lon="9.96139999132">
		<tag k="name" v="Langmyre" />
		<tag k="natural" v="wetland" />
		<tag k="ssr:stedsnr" v="725642" />
	</node>
	<node id="-101421" lat="62.0646527757" lon="10.0168111026">
		<tag k="name" v="Ulvmyre" />
		<tag k="natural" v="wetland" />
		<tag k="ssr:stedsnr" v="481255" />
	</node>
	<node id="-101930" lat="62.0154638844" lon="9.98113333942">
		<tag k="name" v="Søre Glenna" />
		<tag k="natural" v="wetland" />
		<tag k="ssr:stedsnr" v="725608" />
	</node>
	<node id="-102440" lat="61.969327781" lon="10.0397361065">
		<tag k="name" v="Gråmyre" />
		<tag k="natural" v="wetland" />
		<tag k="ssr:stedsnr" v="966475" />
	</node>
	<node id="-102439" lat="62.0079500037" lon="10.0292694421">
		<tag k="name" v="Storurde" />
		<tag k="natural" v="scree" />
		<tag k="ssr:stedsnr" v="966376" />
	</node>
	<node id="-101926" lat="61.9447583367" lon="10.0200138856">
		<tag k="historic" v="shieling" />
		<tag k="name" v="Lussisætre" />
		<tag k="place" v="locality" />
		<tag k="ssr:stedsnr" v="725373" />
	</node>
	<node id="-101412" lat="62.1696083366" lon="10.1433194502">
		<tag k="name" v="Malmmyra" />
		<tag k="natural" v="wetland" />
		<tag k="ssr:stedsnr" v="481052" />
	</node>
	<node id="-102435" lat="62.0492916708" lon="9.99256388373">
		<tag k="name" v="Potetåkeren" />
		<tag k="place" v="locality" />
		<tag k="ssr:stedsnr" v="966241" />
	</node>
	<node id="-101922" lat="62.0927027734" lon="10.0810749997">
		<tag k="name" v="Bleikmyre" />
		<tag k="natural" v="wetland" />
		<tag k="ssr:stedsnr" v="725055" />
	</node>
	<node id="-101917" lat="62.1671444476" lon="9.77559444107">
		<tag k="landuse" v="meadow" />
		<tag k="name" v="Søre Slåe" />
		<tag k="ssr:stedsnr" v="724798" />
	</node>
	<node id="-100892" lat="61.9566361112" lon="10.0228111191">
		<tag k="name" v="Langkloppmyre" />
		<tag k="natural" v="wetland" />
		<tag k="ssr:stedsnr" v="58438" />
	</node>
	<node id="-102427" lat="61.9192805558" lon="10.0110611135">
		<tag k="name" v="Sætersmorke" />
		<tag k="place" v="locality" />
		<tag k="ssr:stedsnr" v="962586" />
	</node>
	<node id="-101913" lat="62.0107027742" lon="10.0042722136">
		<tag k="name" v="Småmyran" />
		<tag k="natural" v="wetland" />
		<tag k="ssr:stedsnr" v="724348" />
	</node>
	<node id="-101397" lat="62.1096555535" lon="9.90690000301">
		<tag k="landuse" v="quarry" />
		<tag k="name" v="Nygruva" />
		<tag k="ssr:stedsnr" v="436467" />
	</node>
	<node id="-101905" lat="62.0828305526" lon="10.0984305473">
		<tag k="name" v="Storfloen" />
		<tag k="natural" v="wetland" />
		<tag k="ssr:stedsnr" v="724178" />
	</node>
	<node id="-101903" lat="62.0761749972" lon="9.98761388944">
		<tag k="name" v="Ljosmyre" />
		<tag k="natural" v="wetland" />
		<tag k="ssr:stedsnr" v="724166" />
	</node>
	<node id="-101901" lat="62.2619361087" lon="10.1897527767">
		<tag k="landuse" v="meadow" />
		<tag k="name" v="Borti Enga" />
		<tag k="ssr:stedsnr" v="724159" />
	</node>
	<node id="-101899" lat="62.208899999" lon="9.74619166723">
		<tag k="name" v="Kvennhusmyre" />
		<tag k="natural" v="wetland" />
		<tag k="ssr:stedsnr" v="723753" />
	</node>
	<node id="-100872" lat="62.1797194422" lon="9.77084445091">
		<tag k="name" v="Langmyre" />
		<tag k="natural" v="wetland" />
		<tag k="ssr:stedsnr" v="56807" />
	</node>
	<node id="-101036" lat="62.2008805571" lon="9.97159721407">
		<tag k="name" v="Åsgardfloen" />
		<tag k="natural" v="wetland" />
		<tag k="old_name" v="Åskardfloen" />
		<tag k="ssr:stedsnr" v="132321" />
	</node>
	<node id="-101890" lat="62.2001361121" lon="9.75049166631">
		<tag k="historic" v="shieling" />
		<tag k="name" v="Tobakklykkja" />
		<tag k="place" v="locality" />
		<tag k="ssr:stedsnr" v="723956" />
	</node>
	<node id="-101547" lat="62.1936277771" lon="10.2880833245">
		<tag k="landuse" v="meadow" />
		<tag k="name" v="Veslevangen" />
		<tag k="ssr:stedsnr" v="542320" />
	</node>
</osm>
