<?xml version="1.0" encoding="UTF-8"?>
<osm generator="osmapis" version="0.6">
	<node id="-102389" lat="62.2875138923" lon="10.0983027732">
		<tag k="name" v="Stråmhugu" />
		<tag k="place" v="locality" />
		<tag k="ssr:stedsnr" v="968752" />
	</node>
	<node id="-102385" lat="62.3119055581" lon="9.84287777051">
		<tag k="name" v="Kaldloken" />
		<tag k="ssr:stedsnr" v="968693" />
		<tag k="waterway" v="stream" />
	</node>
	<node id="-102381" lat="62.172908332" lon="9.91190833404">
		<tag k="name" v="Larssvebekken" />
		<tag k="ssr:stedsnr" v="968596" />
		<tag k="waterway" v="stream" />
	</node>
	<node id="-102379" lat="62.1443611072" lon="9.90074443977">
		<tag k="name" v="Lonakroken" />
		<tag k="natural" v="cape" />
		<tag k="ssr:stedsnr" v="968579" />
	</node>
	<node id="-102378" lat="62.1436388903" lon="9.90170278731">
		<tag k="name" v="Sauhølen" />
		<tag k="place" v="locality" />
		<tag k="ssr:stedsnr" v="968576" />
	</node>
	<node id="-102376" lat="62.0936222219" lon="9.97970554624">
		<tag k="name" v="Turaren" />
		<tag k="ssr:stedsnr" v="968561" />
		<tag k="waterway" v="stream" />
	</node>
	<node id="-102372" lat="62.0820861113" lon="9.96691666692">
		<tag k="name" v="Lomtjønne" />
		<tag k="natural" v="water" />
		<tag k="ssr:stedsnr" v="968551" />
	</node>
	<node id="-102371" lat="62.0733500025" lon="9.94354444596">
		<tag k="name" v="Storbekken" />
		<tag k="ssr:stedsnr" v="968546" />
		<tag k="waterway" v="stream" />
	</node>
	<node id="-102366" lat="62.2172527749" lon="10.2847277712">
		<tag k="name" v="Stortjønna" />
		<tag k="natural" v="water" />
		<tag k="ssr:stedsnr" v="968425" />
	</node>
	<node id="-102364" lat="62.0546444427" lon="10.0864833293">
		<tag k="name" v="Vesleengbekken" />
		<tag k="ssr:stedsnr" v="968265" />
		<tag k="waterway" v="stream" />
	</node>
	<node id="-102358" lat="62.3162333364" lon="9.83893332588">
		<tag k="name" v="Fløman" />
		<tag k="place" v="locality" />
		<tag k="ssr:stedsnr" v="967746" />
	</node>
	<node id="-102356" lat="62.1324750044" lon="9.91053332926">
		<tag k="name" v="Veslebekken" />
		<tag k="ssr:stedsnr" v="967517" />
		<tag k="waterway" v="stream" />
	</node>
	<node id="-102346" lat="62.1234694482" lon="9.80192777531">
		<tag k="name" v="Fisketjønnbekken" />
		<tag k="ssr:stedsnr" v="966651" />
		<tag k="waterway" v="stream" />
	</node>
	<node id="-102344" lat="61.9719611122" lon="10.0371805492">
		<tag k="name" v="Stampbekken" />
		<tag k="ssr:stedsnr" v="966479" />
		<tag k="waterway" v="stream" />
	</node>
	<node id="-102329" lat="61.9170249997" lon="10.0643694504">
		<tag k="name" v="Merratjønne" />
		<tag k="natural" v="water" />
		<tag k="ssr:stedsnr" v="962580" />
	</node>
	<node id="-102326" lat="62.1313472188" lon="10.0229083323">
		<tag k="name" v="Svenskbekken" />
		<tag k="ssr:stedsnr" v="944104" />
		<tag k="waterway" v="stream" />
	</node>
	<node id="-102324" lat="62.1785916628" lon="9.73398612022">
		<tag k="fixme" v="multiple name tags, choose one and add the other to alt_name" />
		<tag k="name" v="Søtbekken;Viddalsbekken" />
		<tag k="ssr:stedsnr" v="932790" />
		<tag k="waterway" v="stream" />
	</node>
	<node id="-102314" lat="62.1879791816" lon="9.64364062383">
		<tag k="fixme" v="multiple name tags, choose one and add the other to alt_name" />
		<tag k="name" v="Storslåbekken;Øyabekken" />
		<tag k="ssr:stedsnr" v="921742" />
		<tag k="waterway" v="stream" />
	</node>
	<node id="-102311" lat="61.9134499987" lon="9.93064721553">
		<tag k="alt_name" v="Langglupåa" />
		<tag k="name" v="Langglupbekken" />
		<tag k="ssr:stedsnr" v="921731" />
		<tag k="waterway" v="stream" />
	</node>
	<node id="-102307" lat="62.3773027784" lon="10.0180388902">
		<tag k="loc_name" v="Rundtjønna" />
		<tag k="name" v="Rundtjørna" />
		<tag k="natural" v="water" />
		<tag k="old_name" v="Rundtjørn" />
		<tag k="ssr:stedsnr" v="921702" />
	</node>
	<node id="-102303" lat="62.1065777755" lon="9.93472222965">
		<tag k="name" v="Lirostjønne" />
		<tag k="natural" v="water" />
		<tag k="ssr:stedsnr" v="921517" />
	</node>
	<node id="-102300" lat="62.1236750004" lon="9.90788056246">
		<tag k="name" v="Sveabekken" />
		<tag k="ssr:stedsnr" v="921492" />
		<tag k="waterway" v="stream" />
	</node>
	<node id="-102294" lat="62.0258194409" lon="10.0197305534">
		<tag k="name" v="Blæsterbutjønne" />
		<tag k="natural" v="water" />
		<tag k="ssr:stedsnr" v="921438" />
	</node>
	<node id="-102291" lat="62.070672219" lon="9.90679999827">
		<tag k="name" v="Ørnhovdbekken" />
		<tag k="ssr:stedsnr" v="921415" />
		<tag k="waterway" v="stream" />
	</node>
	<node id="-102286" lat="62.2288499986" lon="9.97179721437">
		<tag k="name" v="Midtslågåbekken" />
		<tag k="ssr:stedsnr" v="921362" />
		<tag k="waterway" v="stream" />
	</node>
	<node id="-102280" lat="62.2479944412" lon="10.2098611149">
		<tag k="name" v="Einunna" />
		<tag k="ssr:stedsnr" v="921327" />
		<tag k="waterway" v="river" />
	</node>
	<node id="-102272" lat="62.1653749993" lon="9.9848472217">
		<tag k="alt_name" v="Husumbekken" />
		<tag k="name" v="Husombekken" />
		<tag k="ssr:stedsnr" v="921288" />
		<tag k="waterway" v="stream" />
	</node>
	<node id="-102265" lat="61.9919250037" lon="9.87266388216">
		<tag k="name" v="Neverbubekken" />
		<tag k="ssr:stedsnr" v="920683" />
		<tag k="waterway" v="stream" />
	</node>
	<node id="-102257" lat="62.0784749987" lon="10.0759972267">
		<tag k="name" v="Mysutjønne" />
		<tag k="natural" v="water" />
		<tag k="ssr:stedsnr" v="920353" />
	</node>
	<node id="-102248" lat="62.3231916654" lon="9.91473610587">
		<tag k="name" v="Fundindammen" />
		<tag k="ssr:stedsnr" v="908895" />
		<tag k="waterway" v="dam" />
	</node>
	<node id="-102244" lat="62.0222777757" lon="9.97863611018">
		<tag k="name" v="Svarttjønne" />
		<tag k="natural" v="water" />
		<tag k="ssr:stedsnr" v="908695" />
	</node>
	<node id="-102232" lat="61.9263055533" lon="10.0265111156">
		<tag k="name" v="Hansholtjønne" />
		<tag k="natural" v="water" />
		<tag k="ssr:stedsnr" v="908459" />
	</node>
	<node id="-102222" lat="62.0000583302" lon="9.98976944518">
		<tag k="name" v="Tverrgjelsbekken" />
		<tag k="ssr:stedsnr" v="908294" />
		<tag k="waterway" v="stream" />
	</node>
	<node id="-102221" lat="62.05152222" lon="10.0982499966">
		<tag k="name" v="Stortjønne" />
		<tag k="natural" v="water" />
		<tag k="ssr:stedsnr" v="908269" />
	</node>
	<node id="-102215" lat="62.1068361132" lon="10.1798138906">
		<tag k="name" v="Raudklettjønna" />
		<tag k="ssr:stedsnr" v="906945" />
		<tag k="waterway" v="stream" />
	</node>
	<node id="-102202" lat="61.9699944421" lon="10.0367472196">
		<tag k="alt_name" v="Nordre Kvennbekken" />
		<tag k="name" v="Nørdre Kvennbekken" />
		<tag k="ssr:stedsnr" v="906479" />
		<tag k="waterway" v="stream" />
	</node>
	<node id="-102201" lat="61.9326722217" lon="10.0237944517">
		<tag k="name" v="Merraverma" />
		<tag k="natural" v="water" />
		<tag k="ssr:stedsnr" v="906419" />
	</node>
	<node id="-102184" lat="62.2220111106" lon="9.68275832613">
		<tag k="name" v="Pusskorntjønne" />
		<tag k="natural" v="water" />
		<tag k="ssr:stedsnr" v="872838" />
	</node>
	<node id="-102183" lat="62.1773250019" lon="10.3250750082">
		<tag k="alt_name" v="Storbekken" />
		<tag k="name" v="Sagbekken" />
		<tag k="ssr:stedsnr" v="869481" />
		<tag k="waterway" v="stream" />
	</node>
	<node id="-102181" lat="62.1687694444" lon="9.69900833672">
		<tag k="alt_name" v="Gravbekken søndre" />
		<tag k="name" v="Søre Gravbekken" />
		<tag k="old_name" v="Gravbekken" />
		<tag k="ssr:stedsnr" v="861689" />
		<tag k="waterway" v="stream" />
	</node>
	<node id="-102179" lat="62.3804583298" lon="10.0672138958">
		<tag k="alt_name" v="Sandtjørn" />
		<tag k="loc_name" v="Sandtjønna" />
		<tag k="name" v="Sandtjørna" />
		<tag k="natural" v="water" />
		<tag k="ssr:stedsnr" v="861656" />
	</node>
	<node id="-102177" lat="62.2895833361" lon="10.1491111178">
		<tag k="alt_name" v="Kløftebekken" />
		<tag k="name" v="Kløftesbekken" />
		<tag k="ssr:stedsnr" v="861651" />
		<tag k="waterway" v="stream" />
	</node>
	<node id="-102175" lat="62.2775833315" lon="9.76934999427">
		<tag k="name" v="Kvittjørnin" />
		<tag k="natural" v="water" />
		<tag k="ssr:stedsnr" v="861635" />
	</node>
	<node id="-102172" lat="62.3231000026" lon="9.86734999414">
		<tag k="name" v="Langsjøen" />
		<tag k="natural" v="water" />
		<tag k="ssr:stedsnr" v="861623" />
	</node>
	<node id="-102167" lat="62.2614333302" lon="9.83320277288">
		<tag k="name" v="Depltjørnin" />
		<tag k="natural" v="water" />
		<tag k="ssr:stedsnr" v="861600" />
	</node>
	<node id="-102161" lat="62.1408249975" lon="10.2293666623">
		<tag k="name" v="Veslsæterbekken" />
		<tag k="ssr:stedsnr" v="861039" />
		<tag k="waterway" v="stream" />
	</node>
	<node id="-102147" lat="62.1525749995" lon="10.0201749972">
		<tag k="name" v="Vollabekken" />
		<tag k="ssr:stedsnr" v="860368" />
		<tag k="waterway" v="stream" />
	</node>
	<node id="-102144" lat="62.1387194438" lon="9.85054999097">
		<tag k="name" v="Gåsåe" />
		<tag k="ssr:stedsnr" v="860361" />
		<tag k="waterway" v="river" />
	</node>
	<node id="-102140" lat="62.1715027756" lon="9.92600000562">
		<tag k="name" v="Lonabekken" />
		<tag k="ssr:stedsnr" v="860327" />
		<tag k="waterway" v="stream" />
	</node>
	<node id="-102126" lat="62.0985500028" lon="10.1159138921">
		<tag k="name" v="Øvre Stohølen" />
		<tag k="place" v="locality" />
		<tag k="ssr:stedsnr" v="847952" />
	</node>
	<node id="-102124" lat="62.1428583299" lon="10.1789777839">
		<tag k="name" v="Lauvåstjønna" />
		<tag k="natural" v="water" />
		<tag k="ssr:stedsnr" v="847930" />
	</node>
	<node id="-102121" lat="62.0644972233" lon="9.93453332907">
		<tag k="name" v="Øvre Fallfossen" />
		<tag k="natural" v="waterfall" />
		<tag k="ssr:stedsnr" v="847756" />
	</node>
	<node id="-102109" lat="61.9459361139" lon="10.0135277789">
		<tag k="name" v="Søre Rånåbuodden" />
		<tag k="natural" v="cape" />
		<tag k="ssr:stedsnr" v="847441" />
	</node>
	<node id="-102101" lat="62.058197224" lon="10.0899083382">
		<tag k="name" v="Svarthølen" />
		<tag k="place" v="locality" />
		<tag k="ssr:stedsnr" v="847224" />
	</node>
	<node id="-102089" lat="62.3475888889" lon="10.0018027784">
		<tag k="name" v="Ryphusbekken" />
		<tag k="ssr:stedsnr" v="846615" />
		<tag k="waterway" v="stream" />
	</node>
	<node id="-102080" lat="62.2000805525" lon="10.3274888846">
		<tag k="name" v="Vesleøybekken" />
		<tag k="ssr:stedsnr" v="846316" />
		<tag k="waterway" v="stream" />
	</node>
	<node id="-102078" lat="62.1958361075" lon="10.2912805503">
		<tag k="name" v="Sålåpinnklemma" />
		<tag k="ssr:stedsnr" v="846305" />
		<tag k="waterway" v="rapids" />
	</node>
	<node id="-102063" lat="61.9717861115" lon="10.0162861144">
		<tag k="name" v="Rondtjønne" />
		<tag k="natural" v="water" />
		<tag k="ssr:stedsnr" v="845306" />
	</node>
	<node id="-102059" lat="62.1206722222" lon="10.0397111182">
		<tag k="name" v="Kriktjønna" />
		<tag k="natural" v="water" />
		<tag k="ssr:stedsnr" v="845111" />
	</node>
	<node id="-102050" lat="62.0997611128" lon="10.1121166674">
		<tag k="name" v="Storkroken" />
		<tag k="natural" v="cape" />
		<tag k="ssr:stedsnr" v="823920" />
	</node>
	<node id="-102047" lat="62.2607166691" lon="9.96312499803">
		<tag k="name" v="Kakella" />
		<tag k="ssr:stedsnr" v="801614" />
		<tag k="waterway" v="stream" />
	</node>
	<node id="-102046" lat="62.3882083348" lon="10.078475">
		<tag k="name" v="Veslbekken" />
		<tag k="ssr:stedsnr" v="800700" />
		<tag k="waterway" v="stream" />
	</node>
	<node id="-102045" lat="62.3624361092" lon="10.0946138802">
		<tag k="name" v="Buabekken" />
		<tag k="ssr:stedsnr" v="800688" />
		<tag k="waterway" v="stream" />
	</node>
	<node id="-102043" lat="62.2834749957" lon="10.0493611199">
		<tag k="alt_name" v="Skjeftslågåbekken" />
		<tag k="name" v="Slågåbekken" />
		<tag k="ssr:stedsnr" v="800667" />
		<tag k="waterway" v="stream" />
	</node>
	<node id="-102039" lat="62.2752472237" lon="10.1884500017">
		<tag k="name" v="Klemetbekken" />
		<tag k="ssr:stedsnr" v="800639" />
		<tag k="waterway" v="stream" />
	</node>
	<node id="-102038" lat="61.978041667" lon="10.0425944502">
		<tag k="name" v="Søre Skriubekken" />
		<tag k="ssr:stedsnr" v="800509" />
		<tag k="waterway" v="stream" />
	</node>
	<node id="-102036" lat="62.1097194448" lon="10.0237361074">
		<tag k="alt_name" v="Mellombekken" />
		<tag k="name" v="Mellomsbekken" />
		<tag k="ssr:stedsnr" v="800473" />
		<tag k="waterway" v="stream" />
	</node>
	<node id="-102027" lat="62.1493555552" lon="10.2688361036">
		<tag k="alt_name" v="Ryskarbekken" />
		<tag k="name" v="Ryskardbekken" />
		<tag k="ssr:stedsnr" v="800055" />
		<tag k="waterway" v="stream" />
	</node>
	<node id="-102024" lat="62.1854027814" lon="9.59363610251">
		<tag k="name" v="Tåteftbekken" />
		<tag k="ssr:stedsnr" v="799755" />
		<tag k="waterway" v="stream" />
	</node>
	<node id="-102021" lat="61.9299722231" lon="9.94886943957">
		<tag k="name" v="Veslmyldinge" />
		<tag k="ssr:stedsnr" v="799679" />
		<tag k="waterway" v="stream" />
	</node>
	<node id="-102018" lat="62.0606583321" lon="10.0173499953">
		<tag k="name" v="Myrbekken" />
		<tag k="ssr:stedsnr" v="799384" />
		<tag k="waterway" v="river" />
	</node>
	<node id="-102016" lat="62.2081777814" lon="9.90772500963">
		<tag k="name" v="Svartbekken" />
		<tag k="ssr:stedsnr" v="799355" />
		<tag k="waterway" v="stream" />
	</node>
	<node id="-102012" lat="62.2429138865" lon="9.79441666855">
		<tag k="name" v="Pikuthøbekken" />
		<tag k="ssr:stedsnr" v="799335" />
		<tag k="waterway" v="stream" />
	</node>
	<node id="-102009" lat="62.1422194474" lon="10.1749444471">
		<tag k="name" v="Kroktjønna" />
		<tag k="natural" v="water" />
		<tag k="ssr:stedsnr" v="799320" />
	</node>
	<node id="-102007" lat="62.1691277775" lon="10.0093249981">
		<tag k="name" v="Gortjønne" />
		<tag k="natural" v="water" />
		<tag k="ssr:stedsnr" v="799294" />
	</node>
	<node id="-101990" lat="62.1542166699" lon="10.1555833306">
		<tag k="name" v="Kvennbekken" />
		<tag k="ssr:stedsnr" v="786935" />
		<tag k="waterway" v="stream" />
	</node>
	<node id="-101984" lat="62.2049583293" lon="10.0582527776">
		<tag k="name" v="Fløthølen" />
		<tag k="place" v="locality" />
		<tag k="ssr:stedsnr" v="786618" />
	</node>
	<node id="-101974" lat="62.0908250031" lon="9.96048056288">
		<tag k="name" v="Skriubekken" />
		<tag k="ssr:stedsnr" v="786558" />
		<tag k="waterway" v="stream" />
	</node>
	<node id="-101969" lat="61.9275111107" lon="10.0468750042">
		<tag k="name" v="Govassbekken" />
		<tag k="ssr:stedsnr" v="786436" />
		<tag k="waterway" v="stream" />
	</node>
	<node id="-101959" lat="62.224019446" lon="10.2445055529">
		<tag k="name" v="Bjønnåsbekken" />
		<tag k="ssr:stedsnr" v="786251" />
		<tag k="waterway" v="stream" />
	</node>
	<node id="-101942" lat="62.1671916676" lon="9.77847222251">
		<tag k="name" v="Salmakerbekken" />
		<tag k="ssr:stedsnr" v="784808" />
		<tag k="waterway" v="stream" />
	</node>
	<node id="-101939" lat="62.1350694445" lon="9.9435722196">
		<tag k="name" v="Kvannøybekken" />
		<tag k="ssr:stedsnr" v="784591" />
		<tag k="waterway" v="stream" />
	</node>
	<node id="-101936" lat="62.1989750035" lon="10.3086194542">
		<tag k="name" v="Fossan" />
		<tag k="natural" v="waterfall" />
		<tag k="ssr:stedsnr" v="784356" />
	</node>
	<node id="-101924" lat="62.1335416679" lon="10.0274972238">
		<tag k="name" v="Storbekken" />
		<tag k="ssr:stedsnr" v="762115" />
		<tag k="waterway" v="stream" />
	</node>
	<node id="-101916" lat="62.2856250041" lon="9.82853333265">
		<tag k="name" v="Råtåsjøbekken" />
		<tag k="ssr:stedsnr" v="740668" />
		<tag k="waterway" v="stream" />
	</node>
	<node id="-101912" lat="62.3529111142" lon="10.0881861065">
		<tag k="name" v="Råbekken" />
		<tag k="ssr:stedsnr" v="739709" />
		<tag k="waterway" v="stream" />
	</node>
	<node id="-101909" lat="62.3729277766" lon="10.067177771">
		<tag k="name" v="Sandtjørnbekken" />
		<tag k="ssr:stedsnr" v="739686" />
		<tag k="waterway" v="stream" />
	</node>
	<node id="-101907" lat="62.3267722213" lon="10.0312611154">
		<tag k="name" v="Mela" />
		<tag k="ssr:stedsnr" v="739667" />
		<tag k="waterway" v="stream" />
	</node>
	<node id="-101898" lat="62.1289972232" lon="10.1704638982">
		<tag k="name" v="Sagbekken" />
		<tag k="ssr:stedsnr" v="739459" />
		<tag k="waterway" v="stream" />
	</node>
	<node id="-101896" lat="62.13731111" lon="9.94358056061">
		<tag k="name" v="Kvannløken" />
		<tag k="place" v="locality" />
		<tag k="ssr:stedsnr" v="739446" />
	</node>
	<node id="-101895" lat="62.1361472222" lon="9.80935832969">
		<tag k="name" v="Storgåsåe" />
		<tag k="ssr:stedsnr" v="739442" />
		<tag k="waterway" v="stream" />
	</node>
	<node id="-101886" lat="62.1797750021" lon="9.85125000281">
		<tag k="name" v="Langholbekken" />
		<tag k="ssr:stedsnr" v="739246" />
		<tag k="waterway" v="stream" />
	</node>
	<node id="-101881" lat="61.9137833298" lon="10.0225833417">
		<tag k="alt_name" v="Store Myldingi;Stormyldingi" />
		<tag k="name" v="Stormyldinge" />
		<tag k="ssr:stedsnr" v="738615" />
		<tag k="waterway" v="stream" />
	</node>
	<node id="-101879" lat="61.9666499978" lon="10.0406666603">
		<tag k="alt_name" v="Kvernbekken;Søndre Kvennbekken" />
		<tag k="name" v="Søre Kvennbekken" />
		<tag k="ssr:stedsnr" v="738603" />
		<tag k="waterway" v="stream" />
	</node>
	<node id="-101878" lat="62.2345499997" lon="9.69925834203">
		<tag k="name" v="Kvita" />
		<tag k="ssr:stedsnr" v="738485" />
		<tag k="waterway" v="river" />
	</node>
	<node id="-101877" lat="62.0589472256" lon="9.91949443655">
		<tag k="name" v="Svartdalsbekken" />
		<tag k="ssr:stedsnr" v="738384" />
		<tag k="waterway" v="stream" />
	</node>
	<node id="-101876" lat="62.0788333317" lon="10.0552972224">
		<tag k="name" v="Grimse" />
		<tag k="ssr:stedsnr" v="738380" />
		<tag k="waterway" v="river" />
	</node>
	<node id="-101872" lat="62.2045027793" lon="9.97832221332">
		<tag k="name" v="Fiskeslågåbekken" />
		<tag k="ssr:stedsnr" v="738353" />
		<tag k="waterway" v="stream" />
	</node>
	<node id="-101869" lat="62.2242750037" lon="9.94037222851">
		<tag k="name" v="Fremre Kluftbekken" />
		<tag k="ssr:stedsnr" v="738343" />
		<tag k="waterway" v="stream" />
	</node>
	<node id="-101865" lat="62.0267250018" lon="10.1534111086">
		<tag k="name" v="Kyrkjeklettbekken" />
		<tag k="ssr:stedsnr" v="738406" />
		<tag k="waterway" v="stream" />
	</node>
	<node id="-101859" lat="62.1976333351" lon="10.0671555568">
		<tag k="name" v="Leirbekken" />
		<tag k="ssr:stedsnr" v="726603" />
		<tag k="waterway" v="stream" />
	</node>
	<node id="-101855" lat="62.1886500001" lon="10.2774777689">
		<tag k="name" v="Odden" />
		<tag k="natural" v="cape" />
		<tag k="ssr:stedsnr" v="726377" />
	</node>
	<node id="-101853" lat="62.0503861104" lon="10.0889638895">
		<tag k="name" v="Heimrusttjønne" />
		<tag k="natural" v="water" />
		<tag k="ssr:stedsnr" v="726272" />
	</node>
	<node id="-101851" lat="62.0575861113" lon="10.0898277789">
		<tag k="name" v="Mjovassbekken" />
		<tag k="ssr:stedsnr" v="726224" />
		<tag k="waterway" v="stream" />
	</node>
	<node id="-101850" lat="62.2952694463" lon="10.1270888938">
		<tag k="name" v="Steindalsdammen" />
		<tag k="ssr:stedsnr" v="726206" />
		<tag k="waterway" v="dam" />
	</node>
	<node id="-101838" lat="62.3055527793" lon="10.0508722179">
		<tag k="name" v="Hestskotjønna" />
		<tag k="natural" v="water" />
		<tag k="ssr:stedsnr" v="725669" />
	</node>
	<node id="-101830" lat="62.2263888926" lon="10.0258833269">
		<tag k="name" v="Midtlibekken" />
		<tag k="ssr:stedsnr" v="725486" />
		<tag k="waterway" v="stream" />
	</node>
	<node id="-101828" lat="61.9425583294" lon="10.0214361046">
		<tag k="name" v="Djuptjønne" />
		<tag k="natural" v="water" />
		<tag k="ssr:stedsnr" v="725370" />
	</node>
	<node id="-101823" lat="62.1171777803" lon="10.145716665">
		<tag k="name" v="Hestskotjønna" />
		<tag k="natural" v="water" />
		<tag k="ssr:stedsnr" v="724948" />
	</node>
	<node id="-101822" lat="62.1246083354" lon="10.21180555">
		<tag k="name" v="Klebergruvtjønna" />
		<tag k="natural" v="water" />
		<tag k="ssr:stedsnr" v="724945" />
	</node>
	<node id="-101815" lat="62.011930554" lon="10.0125888931">
		<tag k="name" v="Krokbekken" />
		<tag k="ssr:stedsnr" v="724347" />
		<tag k="waterway" v="stream" />
	</node>
	<node id="-101814" lat="62.1887194402" lon="10.2993500075">
		<tag k="name" v="Bastosttjønna" />
		<tag k="natural" v="water" />
		<tag k="ssr:stedsnr" v="724305" />
	</node>
	<node id="-101812" lat="61.9716222247" lon="10.0091777831">
		<tag k="name" v="Kråktjønnbekken" />
		<tag k="ssr:stedsnr" v="724293" />
		<tag k="waterway" v="stream" />
	</node>
	<node id="-101811" lat="61.9764027811" lon="10.0139472152">
		<tag k="name" v="Storrustbekken" />
		<tag k="ssr:stedsnr" v="724291" />
		<tag k="waterway" v="stream" />
	</node>
	<node id="-101807" lat="62.0852472208" lon="10.0832416612">
		<tag k="name" v="Nedre Fallfossen" />
		<tag k="natural" v="waterfall" />
		<tag k="ssr:stedsnr" v="724175" />
	</node>
	<node id="-101805" lat="62.2384249998" lon="10.2030944513">
		<tag k="name" v="Krokbekken" />
		<tag k="ssr:stedsnr" v="724163" />
		<tag k="waterway" v="stream" />
	</node>
	<node id="-101803" lat="62.1275055521" lon="10.0068416646">
		<tag k="name" v="Vadkroken" />
		<tag k="natural" v="water" />
		<tag k="ssr:stedsnr" v="724093" />
	</node>
	<node id="-101801" lat="62.211391664" lon="9.75478055916">
		<tag k="name" v="Borkhusbekken" />
		<tag k="ssr:stedsnr" v="723752" />
		<tag k="waterway" v="stream" />
	</node>
	<node id="-101799" lat="62.1307444442" lon="9.81531666405">
		<tag k="name" v="Teppa" />
		<tag k="natural" v="water" />
		<tag k="ssr:stedsnr" v="723614" />
	</node>
	<node id="-101798" lat="62.130377774" lon="9.82082777244">
		<tag k="name" v="Gåsåtjønnbekken" />
		<tag k="ssr:stedsnr" v="723612" />
		<tag k="waterway" v="stream" />
	</node>
	<node id="-101797" lat="62.148769449" lon="9.99439166402">
		<tag k="name" v="Stordammen" />
		<tag k="ssr:stedsnr" v="723598" />
		<tag k="waterway" v="dam" />
	</node>
	<node id="-101792" lat="62.0448277734" lon="9.99010834251">
		<tag k="name" v="Jordtjønne" />
		<tag k="natural" v="water" />
		<tag k="ssr:stedsnr" v="723221" />
	</node>
	<node id="-101791" lat="62.045969443" lon="9.99749721737">
		<tag k="name" v="Fisketjønne" />
		<tag k="natural" v="water" />
		<tag k="ssr:stedsnr" v="723216" />
	</node>
	<node id="-101784" lat="62.1655500046" lon="10.3027249939">
		<tag k="name" v="Myrbekken" />
		<tag k="ssr:stedsnr" v="720078" />
		<tag k="waterway" v="stream" />
	</node>
	<node id="-101776" lat="62.2937583361" lon="9.82162500132">
		<tag k="name" v="Sandbekken" />
		<tag k="ssr:stedsnr" v="679661" />
		<tag k="waterway" v="stream" />
	</node>
	<node id="-101769" lat="62.2556888849" lon="10.0276583352">
		<tag k="name" v="Veslslågåbekken" />
		<tag k="ssr:stedsnr" v="679580" />
		<tag k="waterway" v="stream" />
	</node>
	<node id="-101767" lat="62.3517916668" lon="10.0639972159">
		<tag k="name" v="Marsjøen" />
		<tag k="natural" v="water" />
		<tag k="ssr:stedsnr" v="678706" />
		<tag k="water" v="lake" />
	</node>
	<node id="-101765" lat="62.3836638869" lon="10.0235722246">
		<tag k="loc_name" v="Midttjønna" />
		<tag k="name" v="Midttjørna" />
		<tag k="natural" v="water" />
		<tag k="old_name" v="Midttjørn" />
		<tag k="ssr:stedsnr" v="678694" />
	</node>
	<node id="-101756" lat="62.0084500004" lon="10.0424055559">
		<tag k="alt_name" v="Skardtjørni" />
		<tag k="name" v="Skardtjønne" />
		<tag k="natural" v="water" />
		<tag k="ssr:stedsnr" v="678447" />
	</node>
	<node id="-101743" lat="62.2167861155" lon="10.2845916613">
		<tag k="name" v="Moskardtjørnan" />
		<tag k="natural" v="water" />
		<tag k="ssr:stedsnr" v="678079" />
	</node>
	<node id="-101738" lat="62.2069333297" lon="10.137816676">
		<tag k="alt_name" v="Vesle Langbekken" />
		<tag k="name" v="Vesllangbekken" />
		<tag k="ssr:stedsnr" v="678391" />
		<tag k="waterway" v="stream" />
	</node>
	<node id="-101737" lat="62.2061750021" lon="9.79550000735">
		<tag k="name" v="Depla" />
		<tag k="ssr:stedsnr" v="678388" />
		<tag k="waterway" v="river" />
	</node>
	<node id="-101735" lat="62.2322722223" lon="9.97889999458">
		<tag k="name" v="Steinslågåbekken" />
		<tag k="ssr:stedsnr" v="678368" />
		<tag k="waterway" v="stream" />
	</node>
	<node id="-101732" lat="62.1535277762" lon="9.84724443639">
		<tag k="name" v="Horrhølen" />
		<tag k="place" v="locality" />
		<tag k="ssr:stedsnr" v="674653" />
	</node>
	<node id="-101726" lat="62.04359167" lon="9.98197777949">
		<tag k="name" v="Svartholtjønne" />
		<tag k="natural" v="water" />
		<tag k="ssr:stedsnr" v="665772" />
	</node>
	<node id="-101717" lat="62.2127944461" lon="10.2856000066">
		<tag k="name" v="Damtjønna" />
		<tag k="natural" v="water" />
		<tag k="ssr:stedsnr" v="665460" />
	</node>
	<node id="-101715" lat="62.2882833345" lon="10.1093861056">
		<tag k="name" v="Vesløya" />
		<tag k="place" v="islet" />
		<tag k="ssr:stedsnr" v="665212" />
	</node>
	<node id="-101711" lat="62.1120083341" lon="10.0687333421">
		<tag k="name" v="Kjørdalstjønne" />
		<tag k="natural" v="water" />
		<tag k="ssr:stedsnr" v="665057" />
	</node>
	<node id="-101696" lat="61.9593833362" lon="10.0126250072">
		<tag k="name" v="Monsetodden" />
		<tag k="natural" v="cape" />
		<tag k="ssr:stedsnr" v="664378" />
	</node>
	<node id="-101688" lat="62.1178749988" lon="10.1491916623">
		<tag k="name" v="Stortjønna" />
		<tag k="natural" v="water" />
		<tag k="ssr:stedsnr" v="663933" />
	</node>
	<node id="-101678" lat="62.1177638894" lon="9.9161583426">
		<tag k="name" v="Kjøvrustbekken" />
		<tag k="ssr:stedsnr" v="663533" />
		<tag k="waterway" v="stream" />
	</node>
	<node id="-101677" lat="61.9661083377" lon="10.0204583306">
		<tag k="name" v="Hesteskotjønne" />
		<tag k="natural" v="water" />
		<tag k="ssr:stedsnr" v="663429" />
	</node>
	<node id="-101674" lat="61.9818111117" lon="10.0253250081">
		<tag k="name" v="Turrøyan" />
		<tag k="natural" v="cape" />
		<tag k="ssr:stedsnr" v="663295" />
	</node>
	<node id="-101672" lat="62.0457333354" lon="10.0108638955">
		<tag k="name" v="Vermbekken" />
		<tag k="ssr:stedsnr" v="663220" />
		<tag k="waterway" v="stream" />
	</node>
	<node id="-101665" lat="62.190972221" lon="10.1410277869">
		<tag k="name" v="Langbekken" />
		<tag k="ssr:stedsnr" v="663049" />
		<tag k="waterway" v="stream" />
	</node>
	<node id="-101653" lat="62.2674305541" lon="10.1991777818">
		<tag k="name" v="Ruphusbekken" />
		<tag k="ssr:stedsnr" v="618612" />
		<tag k="waterway" v="stream" />
	</node>
	<node id="-101649" lat="61.9964583357" lon="9.94856944762">
		<tag k="name" v="Storbekken" />
		<tag k="ssr:stedsnr" v="617696" />
		<tag k="waterway" v="stream" />
	</node>
	<node id="-101631" lat="62.2473888923" lon="10.2808500094">
		<tag k="name" v="Markbulidammen" />
		<tag k="natural" v="water" />
		<tag k="ssr:stedsnr" v="617440" />
	</node>
	<node id="-101630" lat="62.049202777" lon="10.008005559">
		<tag k="name" v="Sagtjønne" />
		<tag k="natural" v="water" />
		<tag k="ssr:stedsnr" v="617428" />
	</node>
	<node id="-101623" lat="62.1954250025" lon="10.0859972265">
		<tag k="alt_name" v="Kakela" />
		<tag k="name" v="Kakella" />
		<tag k="ssr:stedsnr" v="617388" />
		<tag k="waterway" v="river" />
	</node>
	<node id="-101620" lat="62.2000361094" lon="9.8842361056">
		<tag k="name" v="Myrbærsbekken" />
		<tag k="old_name" v="Myrboersbekken" />
		<tag k="ssr:stedsnr" v="617372" />
		<tag k="waterway" v="stream" />
	</node>
	<node id="-101612" lat="62.2281777772" lon="10.239519452">
		<tag k="alt_name" v="Bjørntjørna" />
		<tag k="name" v="Bjønntjønna" />
		<tag k="natural" v="water" />
		<tag k="ssr:stedsnr" v="617121" />
	</node>
	<node id="-101608" lat="62.1611166694" lon="9.80515833697">
		<tag k="name" v="Tøftbekken" />
		<tag k="ssr:stedsnr" v="616650" />
		<tag k="waterway" v="stream" />
	</node>
	<node id="-101605" lat="62.1442083326" lon="10.1682138863">
		<tag k="name" v="Grimsosen" />
		<tag k="natural" v="bay" />
		<tag k="ssr:stedsnr" v="604931" />
	</node>
	<node id="-101600" lat="62.2041833361" lon="10.0391527768">
		<tag k="name" v="Fløttbekken" />
		<tag k="ssr:stedsnr" v="604614" />
		<tag k="waterway" v="stream" />
	</node>
	<node id="-101594" lat="62.0795750029" lon="9.95589999236">
		<tag k="name" v="Påltjønne" />
		<tag k="natural" v="water" />
		<tag k="ssr:stedsnr" v="604545" />
	</node>
	<node id="-101593" lat="62.0942861086" lon="9.90311112044">
		<tag k="name" v="Tverrbekken" />
		<tag k="ssr:stedsnr" v="604542" />
		<tag k="waterway" v="stream" />
	</node>
	<node id="-101585" lat="62.113086108" lon="10.0667749966">
		<tag k="name" v="Kjørtjønne" />
		<tag k="natural" v="water" />
		<tag k="ssr:stedsnr" v="604049" />
	</node>
	<node id="-101583" lat="62.1153416649" lon="10.0627194454">
		<tag k="name" v="Gammelfaret" />
		<tag k="ssr:stedsnr" v="604020" />
		<tag k="waterway" v="river" />
	</node>
	<node id="-101581" lat="61.998280558" lon="10.0051000028">
		<tag k="name" v="Rosenøytjønne" />
		<tag k="natural" v="water" />
		<tag k="ssr:stedsnr" v="603242" />
	</node>
	<node id="-101566" lat="62.1182972249" lon="9.96762777764">
		<tag k="name" v="Hovdabekken" />
		<tag k="ssr:stedsnr" v="602560" />
		<tag k="waterway" v="stream" />
	</node>
	<node id="-101563" lat="61.9742583356" lon="10.0317111165">
		<tag k="name" v="Gammelgardsbekken" />
		<tag k="ssr:stedsnr" v="602461" />
		<tag k="waterway" v="stream" />
	</node>
	<node id="-101555" lat="62.0859083295" lon="10.1004333393">
		<tag k="name" v="Såtåbekken" />
		<tag k="ssr:stedsnr" v="602193" />
		<tag k="waterway" v="stream" />
	</node>
	<node id="-101554" lat="62.0900222214" lon="10.0894972235">
		<tag k="name" v="Raudhåmårhølen" />
		<tag k="place" v="locality" />
		<tag k="ssr:stedsnr" v="602189" />
	</node>
	<node id="-101549" lat="62.1913722222" lon="10.2184388869">
		<tag k="name" v="Nysæterbekken" />
		<tag k="ssr:stedsnr" v="602062" />
		<tag k="waterway" v="stream" />
	</node>
	<node id="-101545" lat="62.1954416674" lon="10.3507527804">
		<tag k="name" v="Veslesteitjønna" />
		<tag k="natural" v="water" />
		<tag k="ssr:stedsnr" v="598931" />
	</node>
	<node id="-101535" lat="62.1847638849" lon="9.75370555987">
		<tag k="name" v="Slettabekken" />
		<tag k="ssr:stedsnr" v="568812" />
		<tag k="waterway" v="stream" />
	</node>
	<node id="-101530" lat="62.367986107" lon="10.0488527752">
		<tag k="name" v="Oppdalsbukta" />
		<tag k="natural" v="bay" />
		<tag k="ssr:stedsnr" v="557677" />
	</node>
	<node id="-101528" lat="62.3752305542" lon="10.0846916694">
		<tag k="name" v="Sandgrova" />
		<tag k="ssr:stedsnr" v="557660" />
		<tag k="waterway" v="stream" />
	</node>
	<node id="-101527" lat="62.302705557" lon="9.84857777444">
		<tag k="alt_name" v="Veslebekken" />
		<tag k="name" v="Veslbekken" />
		<tag k="ssr:stedsnr" v="557651" />
		<tag k="waterway" v="stream" />
	</node>
	<node id="-101517" lat="62.1237055585" lon="9.82476666488">
		<tag k="name" v="Veslgåsåe" />
		<tag k="ssr:stedsnr" v="556506" />
		<tag k="waterway" v="stream" />
	</node>
	<node id="-101514" lat="62.0167527745" lon="10.0197722287">
		<tag k="name" v="Grønholtjønne" />
		<tag k="natural" v="water" />
		<tag k="ssr:stedsnr" v="556452" />
	</node>
	<node id="-101511" lat="62.1979999959" lon="10.2063527821">
		<tag k="name" v="Brøtbekken" />
		<tag k="ssr:stedsnr" v="556423" />
		<tag k="waterway" v="stream" />
	</node>
	<node id="-101506" lat="62.1595000024" lon="10.0073500083">
		<tag k="name" v="Gorbekken" />
		<tag k="ssr:stedsnr" v="556354" />
		<tag k="waterway" v="stream" />
	</node>
	<node id="-101505" lat="62.1515027773" lon="9.77842222409">
		<tag k="name" v="Buabekken" />
		<tag k="ssr:stedsnr" v="556346" />
		<tag k="waterway" v="stream" />
	</node>
	<node id="-101502" lat="62.1820750013" lon="9.86639999402">
		<tag k="alt_name" v="Veslbekken" />
		<tag k="name" v="Veslebekken" />
		<tag k="ssr:stedsnr" v="556305" />
		<tag k="waterway" v="stream" />
	</node>
	<node id="-101496" lat="62.156027782" lon="9.84966666281">
		<tag k="name" v="Kroktjønne" />
		<tag k="natural" v="water" />
		<tag k="ssr:stedsnr" v="555611" />
	</node>
	<node id="-101494" lat="61.9704361151" lon="10.0174416719">
		<tag k="name" v="Killingodden" />
		<tag k="natural" v="cape" />
		<tag k="ssr:stedsnr" v="550438" />
	</node>
	<node id="-101493" lat="62.1362833364" lon="10.1655416633">
		<tag k="name" v="Bubekken" />
		<tag k="ssr:stedsnr" v="543932" />
		<tag k="waterway" v="stream" />
	</node>
	<node id="-101489" lat="62.0441472263" lon="9.97536945245">
		<tag k="name" v="Kvunnolbekken" />
		<tag k="ssr:stedsnr" v="543739" />
		<tag k="waterway" v="stream" />
	</node>
	<node id="-101486" lat="62.1361305592" lon="9.92673332659">
		<tag k="name" v="Randabekken" />
		<tag k="ssr:stedsnr" v="543559" />
		<tag k="waterway" v="stream" />
	</node>
	<node id="-101485" lat="62.1511611091" lon="9.90203610527">
		<tag k="name" v="Oksbekken" />
		<tag k="ssr:stedsnr" v="543556" />
		<tag k="waterway" v="stream" />
	</node>
	<node id="-101480" lat="62.0749277795" lon="9.95783610263">
		<tag k="name" v="Fiskedammen" />
		<tag k="natural" v="water" />
		<tag k="ssr:stedsnr" v="543514" />
	</node>
	<node id="-101479" lat="61.9606083371" lon="10.0117388911">
		<tag k="name" v="Nylyukvilte" />
		<tag k="ssr:stedsnr" v="543502" />
		<tag k="waterway" v="stream" />
	</node>
	<node id="-101476" lat="61.9588555541" lon="10.0147361021">
		<tag k="name" v="Monsettjønne" />
		<tag k="natural" v="water" />
		<tag k="ssr:stedsnr" v="543407" />
	</node>
	<node id="-101473" lat="61.993900002" lon="10.0292444406">
		<tag k="name" v="Nordre Sæterbekken" />
		<tag k="ssr:stedsnr" v="543286" />
		<tag k="waterway" v="stream" />
	</node>
	<node id="-101471" lat="61.9864805534" lon="9.99305278449">
		<tag k="name" v="Tverrgjeltjønne" />
		<tag k="natural" v="water" />
		<tag k="ssr:stedsnr" v="543279" />
	</node>
	<node id="-101457" lat="62.1857222194" lon="9.8455277822">
		<tag k="name" v="Snyrilhustjønna" />
		<tag k="natural" v="water" />
		<tag k="ssr:stedsnr" v="542780" />
	</node>
	<node id="-101454" lat="62.3674666642" lon="10.0056361201">
		<tag k="name" v="Oksbekken" />
		<tag k="ssr:stedsnr" v="542636" />
		<tag k="waterway" v="stream" />
	</node>
	<node id="-101436" lat="62.0444944446" lon="10.0003805508">
		<tag k="name" v="Myrbekken" />
		<tag k="ssr:stedsnr" v="541137" />
		<tag k="waterway" v="stream" />
	</node>
	<node id="-101430" lat="61.9095638908" lon="10.0768999977">
		<tag k="name" v="Holmtjønne" />
		<tag k="natural" v="water" />
		<tag k="ssr:stedsnr" v="537575" />
	</node>
	<node id="-101428" lat="62.2164972222" lon="9.70762777294">
		<tag k="name" v="Baklitjønne" />
		<tag k="natural" v="water" />
		<tag k="ssr:stedsnr" v="507832" />
	</node>
	<node id="-101423" lat="62.3042611114" lon="9.86154166149">
		<tag k="name" v="Storbekken" />
		<tag k="ssr:stedsnr" v="497665" />
		<tag k="waterway" v="stream" />
	</node>
	<node id="-101420" lat="62.3763916689" lon="10.2073388913">
		<tag k="name" v="Gløta" />
		<tag k="ssr:stedsnr" v="496726" />
		<tag k="waterway" v="river" />
	</node>
	<node id="-101418" lat="62.3409638863" lon="9.9625472238">
		<tag k="alt_name" v="Dølbekken" />
		<tag k="name" v="Døllibekken" />
		<tag k="ssr:stedsnr" v="496716" />
		<tag k="waterway" v="stream" />
	</node>
	<node id="-101417" lat="62.1788166673" lon="9.69537499313">
		<tag k="name" v="Liabekken" />
		<tag k="ssr:stedsnr" v="496710" />
		<tag k="waterway" v="stream" />
	</node>
	<node id="-101415" lat="62.3876833345" lon="9.97537500571">
		<tag k="name" v="Døltjørnan" />
		<tag k="natural" v="water" />
		<tag k="ssr:stedsnr" v="496705" />
	</node>
	<node id="-101411" lat="62.130511114" lon="9.79670555359">
		<tag k="name" v="Fisketjønne" />
		<tag k="natural" v="water" />
		<tag k="ssr:stedsnr" v="496474" />
	</node>
	<node id="-101409" lat="62.2382722219" lon="10.2913555619">
		<tag k="name" v="Follslåtten" />
		<tag k="ssr:stedsnr" v="496466" />
		<tag k="waterway" v="stream" />
	</node>
	<node id="-101408" lat="62.0616055532" lon="10.0119305484">
		<tag k="alt_name" v="Holmetjørni" />
		<tag k="name" v="Holmtjønne" />
		<tag k="natural" v="water" />
		<tag k="ssr:stedsnr" v="496423" />
	</node>
	<node id="-101407" lat="62.0766722205" lon="10.1783250021">
		<tag k="name" v="Vesldøltjønne" />
		<tag k="natural" v="water" />
		<tag k="ssr:stedsnr" v="496411" />
	</node>
	<node id="-101402" lat="62.2136750007" lon="10.0006111176">
		<tag k="name" v="Indre Glupbekken" />
		<tag k="ssr:stedsnr" v="496378" />
		<tag k="waterway" v="stream" />
	</node>
	<node id="-101400" lat="62.2011361093" lon="9.82057221436">
		<tag k="name" v="Furutjønne" />
		<tag k="natural" v="water" />
		<tag k="ssr:stedsnr" v="496367" />
	</node>
	<node id="-101398" lat="62.1404527741" lon="9.82059999532">
		<tag k="name" v="Røyrpiptjønne" />
		<tag k="natural" v="water" />
		<tag k="ssr:stedsnr" v="496313" />
	</node>
	<node id="-101397" lat="62.1634499961" lon="9.96695000281">
		<tag k="name" v="Veslslågåbekken" />
		<tag k="ssr:stedsnr" v="496294" />
		<tag k="waterway" v="stream" />
	</node>
	<node id="-101394" lat="61.959013892" lon="10.0528666744">
		<tag k="name" v="Storbekken" />
		<tag k="ssr:stedsnr" v="495615" />
		<tag k="waterway" v="stream" />
	</node>
	<node id="-101389" lat="61.9683138889" lon="10.0185000028">
		<tag k="name" v="Langodden" />
		<tag k="natural" v="cape" />
		<tag k="ssr:stedsnr" v="490426" />
	</node>
	<node id="-101384" lat="62.0560583368" lon="9.97783054965">
		<tag k="name" v="Veslebekken" />
		<tag k="ssr:stedsnr" v="483777" />
		<tag k="waterway" v="stream" />
	</node>
	<node id="-101378" lat="62.2359999982" lon="10.0157944428">
		<tag k="name" v="Falebekken" />
		<tag k="ssr:stedsnr" v="483586" />
		<tag k="waterway" v="stream" />
	</node>
	<node id="-101372" lat="61.9524388914" lon="10.0198944487">
		<tag k="name" v="Veslesleubekken" />
		<tag k="ssr:stedsnr" v="483453" />
		<tag k="waterway" v="stream" />
	</node>
	<node id="-101369" lat="62.0100277782" lon="10.0001472316">
		<tag k="name" v="Liafossen" />
		<tag k="natural" v="waterfall" />
		<tag k="ssr:stedsnr" v="483433" />
	</node>
	<node id="-101366" lat="62.2882555557" lon="10.1258805598">
		<tag k="name" v="Nordistubekken" />
		<tag k="ssr:stedsnr" v="483226" />
		<tag k="waterway" v="stream" />
	</node>
	<node id="-101362" lat="62.2859944458" lon="10.1196055561">
		<tag k="name" v="Brufosshølen" />
		<tag k="place" v="locality" />
		<tag k="ssr:stedsnr" v="483207" />
	</node>
	<node id="-101357" lat="62.1175222255" lon="10.1463444497">
		<tag k="name" v="Grimsmotjønnan" />
		<tag k="natural" v="water" />
		<tag k="ssr:stedsnr" v="483013" />
	</node>
	<node id="-101355" lat="62.1605916634" lon="9.86198889627">
		<tag k="name" v="Flybekken" />
		<tag k="ssr:stedsnr" v="482573" />
		<tag k="waterway" v="stream" />
	</node>
	<node id="-101352" lat="61.9921555557" lon="9.99713333188">
		<tag k="name" v="Tverrgjelskampen" />
		<tag k="natural" v="water" />
		<tag k="ssr:stedsnr" v="482245" />
	</node>
	<node id="-101351" lat="62.1947888874" lon="9.62201944856">
		<tag k="name" v="Øyasæterbekken" />
		<tag k="ssr:stedsnr" v="481993" />
		<tag k="waterway" v="stream" />
	</node>
	<node id="-101336" lat="62.1853611131" lon="9.8284277764">
		<tag k="name" v="Uppebekken" />
		<tag k="ssr:stedsnr" v="481759" />
		<tag k="waterway" v="stream" />
	</node>
	<node id="-101326" lat="61.9720416682" lon="10.020913885">
		<tag k="name" v="Sandomsodden" />
		<tag k="natural" v="cape" />
		<tag k="ssr:stedsnr" v="481324" />
	</node>
	<node id="-101321" lat="62.2381472216" lon="10.1937888801">
		<tag k="name" v="Bjønnbekken" />
		<tag k="ssr:stedsnr" v="481205" />
		<tag k="waterway" v="stream" />
	</node>
	<node id="-101314" lat="62.171016663" lon="10.1455777858">
		<tag k="name" v="Holbekken" />
		<tag k="ssr:stedsnr" v="481050" />
		<tag k="waterway" v="stream" />
	</node>
	<node id="-101308" lat="62.2647583293" lon="10.2547388838">
		<tag k="name" v="Semmingsbekken" />
		<tag k="ssr:stedsnr" v="445321" />
		<tag k="waterway" v="river" />
	</node>
	<node id="-101306" lat="62.1808444412" lon="9.66444721277">
		<tag k="alt_name" v="Slåbekken" />
		<tag k="name" v="Slåsæterbekken" />
		<tag k="ssr:stedsnr" v="436696" />
		<tag k="waterway" v="stream" />
	</node>
	<node id="-101303" lat="62.3224666676" lon="10.041480551">
		<tag k="name" v="Ruphusbekken" />
		<tag k="ssr:stedsnr" v="436635" />
		<tag k="waterway" v="stream" />
	</node>
	<node id="-101296" lat="62.2149500028" lon="10.2408777744">
		<tag k="name" v="Slettfjellbekken" />
		<tag k="ssr:stedsnr" v="436071" />
		<tag k="waterway" v="stream" />
	</node>
	<node id="-101293" lat="62.1349750018" lon="10.1653611036">
		<tag k="name" v="Butjønna" />
		<tag k="natural" v="water" />
		<tag k="ssr:stedsnr" v="435486" />
	</node>
	<node id="-101292" lat="62.0169749999" lon="10.0675972213">
		<tag k="name" v="Stodsbubekken" />
		<tag k="ssr:stedsnr" v="435459" />
		<tag k="waterway" v="river" />
	</node>
	<node id="-101289" lat="62.0709388874" lon="10.1799416746">
		<tag k="name" v="Stordøltjønne" />
		<tag k="natural" v="water" />
		<tag k="ssr:stedsnr" v="435426" />
	</node>
	<node id="-101287" lat="62.2070250023" lon="10.0235972222">
		<tag k="name" v="Fremre Glupbekken" />
		<tag k="ssr:stedsnr" v="435398" />
		<tag k="waterway" v="stream" />
	</node>
	<node id="-101286" lat="62.2328055593" lon="9.7621055635">
		<tag k="name" v="Borkhusbekken" />
		<tag k="ssr:stedsnr" v="435387" />
		<tag k="waterway" v="stream" />
	</node>
	<node id="-101272" lat="62.1672249987" lon="9.97640278459">
		<tag k="name" v="Storslågåbekken" />
		<tag k="ssr:stedsnr" v="435309" />
		<tag k="waterway" v="stream" />
	</node>
	<node id="-101261" lat="61.9469305514" lon="10.053600001">
		<tag k="name" v="Sjogfonnbekketjønne" />
		<tag k="natural" v="water" />
		<tag k="ssr:stedsnr" v="434586" />
	</node>
	<node id="-101260" lat="61.9511555533" lon="9.97434445274">
		<tag k="alt_name" v="Vesleholbekken" />
		<tag k="name" v="Veslholbekken" />
		<tag k="ssr:stedsnr" v="434578" />
		<tag k="waterway" v="stream" />
	</node>
	<node id="-101258" lat="61.9120500011" lon="10.073705561">
		<tag k="name" v="Tostinstjønne" />
		<tag k="natural" v="water" />
		<tag k="ssr:stedsnr" v="434610" />
	</node>
	<node id="-101245" lat="62.1463944489" lon="9.89403333613">
		<tag k="name" v="Lonaøyan" />
		<tag k="natural" v="cape" />
		<tag k="ssr:stedsnr" v="422566" />
	</node>
	<node id="-101241" lat="61.935933329" lon="10.0228638798">
		<tag k="name" v="Kroktjønne" />
		<tag k="natural" v="water" />
		<tag k="ssr:stedsnr" v="422397" />
	</node>
	<node id="-101240" lat="61.9597166676" lon="10.0114166645">
		<tag k="name" v="Nylyusvingen" />
		<tag k="natural" v="water" />
		<tag k="ssr:stedsnr" v="422393" />
		<tag k="water" v="lake" />
	</node>
	<node id="-101235" lat="62.0048527819" lon="9.99368332982">
		<tag k="name" v="Dagrostjønne" />
		<tag k="natural" v="water" />
		<tag k="ssr:stedsnr" v="422249" />
	</node>
	<node id="-101233" lat="62.0559444483" lon="10.0897638843">
		<tag k="name" v="Rauhølen" />
		<tag k="place" v="locality" />
		<tag k="ssr:stedsnr" v="422197" />
	</node>
	<node id="-101229" lat="62.0949083314" lon="10.1003638895">
		<tag k="name" v="Killingholmen" />
		<tag k="place" v="islet" />
		<tag k="ssr:stedsnr" v="422077" />
	</node>
	<node id="-101228" lat="62.1076055566" lon="10.0376472167">
		<tag k="name" v="Fløttvangbekken" />
		<tag k="ssr:stedsnr" v="422051" />
		<tag k="waterway" v="stream" />
	</node>
	<node id="-101203" lat="62.1377777792" lon="9.81221111395">
		<tag k="name" v="Vintertjønne" />
		<tag k="natural" v="water" />
		<tag k="ssr:stedsnr" v="420665" />
	</node>
	<node id="-101199" lat="61.9156555565" lon="10.0668361128">
		<tag k="name" v="Tuvtjønne" />
		<tag k="natural" v="water" />
		<tag k="ssr:stedsnr" v="416555" />
	</node>
	<node id="-101191" lat="62.2721861073" lon="10.2759888799">
		<tag k="name" v="Markbulibekken" />
		<tag k="ssr:stedsnr" v="254876" />
		<tag k="waterway" v="stream" />
	</node>
	<node id="-101189" lat="62.3905888895" lon="10.0265166641">
		<tag k="loc_name" v="Innertjønna" />
		<tag k="name" v="Innertjørna" />
		<tag k="natural" v="water" />
		<tag k="old_name" v="Inntertjørna" />
		<tag k="ssr:stedsnr" v="254664" />
	</node>
	<node id="-101187" lat="62.3159222245" lon="10.0729750054">
		<tag k="name" v="Storbekken" />
		<tag k="ssr:stedsnr" v="254630" />
		<tag k="waterway" v="stream" />
	</node>
	<node id="-101186" lat="62.2734972237" lon="10.0764000088">
		<tag k="alt_name" v="Bjønnskardbekken" />
		<tag k="name" v="Bjørnskardbekken" />
		<tag k="ssr:stedsnr" v="254612" />
		<tag k="waterway" v="stream" />
	</node>
	<node id="-101184" lat="62.1981027818" lon="9.61206945362">
		<tag k="name" v="Tåtefttjønne" />
		<tag k="natural" v="water" />
		<tag k="ssr:stedsnr" v="253770" />
	</node>
	<node id="-101171" lat="62.2034249998" lon="9.79887222406">
		<tag k="alt_name" v="Heggebekken" />
		<tag k="name" v="Heggjebekken" />
		<tag k="ssr:stedsnr" v="253414" />
		<tag k="waterway" v="stream" />
	</node>
	<node id="-101168" lat="62.2205083313" lon="9.81929167554">
		<tag k="alt_name" v="Medepla" />
		<tag k="name" v="Meddepla" />
		<tag k="ssr:stedsnr" v="253389" />
		<tag k="waterway" v="stream" />
	</node>
	<node id="-101165" lat="62.1621722255" lon="10.2118361086">
		<tag k="name" v="Bjørbekken" />
		<tag k="ssr:stedsnr" v="253333" />
		<tag k="waterway" v="stream" />
	</node>
	<node id="-101147" lat="62.3142972266" lon="9.9431277687">
		<tag k="name" v="Ibekken" />
		<tag k="ssr:stedsnr" v="240885" />
		<tag k="waterway" v="stream" />
	</node>
	<node id="-101143" lat="62.1699888927" lon="10.0735861041">
		<tag k="name" v="Hånesklettbekken" />
		<tag k="ssr:stedsnr" v="240595" />
		<tag k="waterway" v="stream" />
	</node>
	<node id="-101128" lat="62.1865000001" lon="10.2732472131">
		<tag k="name" v="Holmen" />
		<tag k="natural" v="cape" />
		<tag k="ssr:stedsnr" v="240376" />
	</node>
	<node id="-101105" lat="62.2002749999" lon="10.2905444447">
		<tag k="name" v="Moskarbekken" />
		<tag k="ssr:stedsnr" v="238326" />
		<tag k="waterway" v="stream" />
	</node>
	<node id="-101097" lat="61.9289555527" lon="10.0378944458">
		<tag k="name" v="Storkvisle" />
		<tag k="ssr:stedsnr" v="238423" />
		<tag k="waterway" v="stream" />
	</node>
	<node id="-101096" lat="61.9361305515" lon="10.0264222297">
		<tag k="name" v="Reivtjønnvike" />
		<tag k="natural" v="bay" />
		<tag k="ssr:stedsnr" v="238424" />
	</node>
	<node id="-101093" lat="61.9107388931" lon="10.0843138872">
		<tag k="loc_name" v="Ultjønne" />
		<tag k="name" v="Ultjønna" />
		<tag k="natural" v="water" />
		<tag k="ssr:stedsnr" v="234581" />
	</node>
	<node id="-101092" lat="62.2920027762" lon="10.3194472239">
		<tag k="name" v="Uldalsbekken" />
		<tag k="ssr:stedsnr" v="234115" />
		<tag k="waterway" v="stream" />
	</node>
	<node id="-101084" lat="61.9696444478" lon="10.0170027685">
		<tag k="name" v="Skinnarodden" />
		<tag k="natural" v="cape" />
		<tag k="ssr:stedsnr" v="226490" />
	</node>
	<node id="-101074" lat="62.2533694402" lon="10.0559999972">
		<tag k="alt_name" v="Bjønnskardbekken" />
		<tag k="name" v="Bjørnskardbekken" />
		<tag k="ssr:stedsnr" v="193697" />
		<tag k="waterway" v="stream" />
	</node>
	<node id="-101072" lat="62.3018083337" lon="10.0074583348">
		<tag k="name" v="Rolvslibekken" />
		<tag k="ssr:stedsnr" v="193664" />
		<tag k="waterway" v="stream" />
	</node>
	<node id="-101050" lat="61.9299944417" lon="10.0305555513">
		<tag k="name" v="Breitjønne" />
		<tag k="natural" v="water" />
		<tag k="ssr:stedsnr" v="192661" />
	</node>
	<node id="-101049" lat="61.9637722189" lon="10.0128333418">
		<tag k="name" v="Storoddtjønne" />
		<tag k="natural" v="water" />
		<tag k="ssr:stedsnr" v="192632" />
	</node>
	<node id="-101046" lat="62.0400611074" lon="9.92831111336">
		<tag k="loc_name" v="Langtjønne" />
		<tag k="name" v="Langtjørni" />
		<tag k="natural" v="water" />
		<tag k="ssr:stedsnr" v="192434" />
	</node>
	<node id="-101044" lat="62.0610611075" lon="10.0249666743">
		<tag k="name" v="Svarttjønne" />
		<tag k="natural" v="water" />
		<tag k="ssr:stedsnr" v="192421" />
	</node>
	<node id="-101041" lat="62.0759583342" lon="10.0809805645">
		<tag k="name" v="Bjørntjønne" />
		<tag k="natural" v="water" />
		<tag k="ssr:stedsnr" v="192401" />
	</node>
	<node id="-101038" lat="62.2081388855" lon="10.1483000053">
		<tag k="alt_name" v="Store Langbekken" />
		<tag k="name" v="Storlangbekken" />
		<tag k="old_name" v="Storelangbekken" />
		<tag k="ssr:stedsnr" v="192385" />
		<tag k="waterway" v="stream" />
	</node>
	<node id="-101031" lat="61.9351999969" lon="10.0319888878">
		<tag k="name" v="Reivtjønne" />
		<tag k="natural" v="water" />
		<tag k="ssr:stedsnr" v="192665" />
	</node>
	<node id="-101018" lat="62.3144222251" lon="9.90843055626">
		<tag k="name" v="Røvskjørrbekken" />
		<tag k="ssr:stedsnr" v="179870" />
		<tag k="waterway" v="stream" />
	</node>
	<node id="-101014" lat="62.2061611117" lon="10.0680666646">
		<tag k="name" v="Slågåbekken" />
		<tag k="ssr:stedsnr" v="179581" />
		<tag k="waterway" v="stream" />
	</node>
	<node id="-101007" lat="61.9621666665" lon="10.0164694374">
		<tag k="name" v="Storbekkodden" />
		<tag k="natural" v="cape" />
		<tag k="ssr:stedsnr" v="179508" />
	</node>
	<node id="-101006" lat="61.9493083339" lon="10.0238166682">
		<tag k="name" v="Sæterbekken" />
		<tag k="ssr:stedsnr" v="179401" />
		<tag k="waterway" v="stream" />
	</node>
	<node id="-101002" lat="62.2045833297" lon="10.2994361079">
		<tag k="name" v="Liresbekken" />
		<tag k="ssr:stedsnr" v="179375" />
		<tag k="waterway" v="stream" />
	</node>
	<node id="-100973" lat="62.0306222186" lon="10.0142361084">
		<tag k="name" v="Borkhusbekken" />
		<tag k="ssr:stedsnr" v="177141" />
		<tag k="waterway" v="stream" />
	</node>
	<node id="-100971" lat="62.0390027761" lon="9.99844722726">
		<tag k="name" v="Klyvitjønne" />
		<tag k="natural" v="water" />
		<tag k="ssr:stedsnr" v="177135" />
	</node>
	<node id="-100968" lat="62.1977527753" lon="10.3767333317">
		<tag k="name" v="Gammeljordøra" />
		<tag k="place" v="islet" />
		<tag k="ssr:stedsnr" v="174968" />
	</node>
	<node id="-100966" lat="62.2019305523" lon="10.3609916742">
		<tag k="name" v="Skjeftdalsbekken" />
		<tag k="ssr:stedsnr" v="174960" />
		<tag k="waterway" v="stream" />
	</node>
	<node id="-100958" lat="62.2686166626" lon="9.832958334">
		<tag k="name" v="Råtåsjøen" />
		<tag k="natural" v="water" />
		<tag k="ssr:stedsnr" v="133597" />
	</node>
	<node id="-100943" lat="62.0081500384" lon="10.0186539689">
		<tag k="alt_name" v="Motjønne" />
		<tag k="name" v="Nordre Tjønne" />
		<tag k="natural" v="water" />
		<tag k="ssr:stedsnr" v="132399" />
	</node>
	<node id="-100935" lat="62.1722333316" lon="9.91317777627">
		<tag k="name" v="Larssvebekken" />
		<tag k="ssr:stedsnr" v="132265" />
		<tag k="waterway" v="stream" />
	</node>
	<node id="-100926" lat="62.2430861097" lon="10.0641499987">
		<tag k="name" v="Ryphusbekken" />
		<tag k="ssr:stedsnr" v="131322" />
		<tag k="waterway" v="stream" />
	</node>
	<node id="-100917" lat="62.138263886" lon="10.1671722235">
		<tag k="name" v="Bekkhølen" />
		<tag k="place" v="locality" />
		<tag k="ssr:stedsnr" v="119936" />
	</node>
	<node id="-100890" lat="62.1887472182" lon="9.83852776822">
		<tag k="name" v="Stålbekken" />
		<tag k="ssr:stedsnr" v="117772" />
		<tag k="waterway" v="stream" />
	</node>
	<node id="-100884" lat="62.191952777" lon="10.2586861147">
		<tag k="name" v="Ryengbekken" />
		<tag k="ssr:stedsnr" v="117370" />
		<tag k="waterway" v="stream" />
	</node>
	<node id="-100878" lat="62.042950003" lon="9.99678611849">
		<tag k="name" v="Tolmodstjønne" />
		<tag k="natural" v="water" />
		<tag k="ssr:stedsnr" v="117159" />
	</node>
	<node id="-100876" lat="62.1292750015" lon="10.0109777799">
		<tag k="name" v="Bustadtjønne" />
		<tag k="natural" v="water" />
		<tag k="ssr:stedsnr" v="117120" />
	</node>
	<node id="-100862" lat="62.2199972255" lon="10.3555083322">
		<tag k="name" v="Holbekken" />
		<tag k="ssr:stedsnr" v="113926" />
		<tag k="waterway" v="stream" />
	</node>
	<node id="-100861" lat="62.2060250014" lon="10.3759472257">
		<tag k="name" v="Stormælen" />
		<tag k="natural" v="beach" />
		<tag k="ssr:stedsnr" v="113921" />
	</node>
	<node id="-100854" lat="62.3113583328" lon="10.2571027768">
		<tag k="name" v="Leirbekken" />
		<tag k="ssr:stedsnr" v="72924" />
		<tag k="waterway" v="stream" />
	</node>
	<node id="-100845" lat="62.1270222193" lon="9.82115555372">
		<tag k="name" v="Gåsåtjønne" />
		<tag k="natural" v="water" />
		<tag k="ssr:stedsnr" v="72442" />
	</node>
	<node id="-100844" lat="61.988041669" lon="10.0151277767">
		<tag k="name" v="Svarttjønne" />
		<tag k="natural" v="water" />
		<tag k="ssr:stedsnr" v="71563" />
	</node>
	<node id="-100831" lat="62.1727361071" lon="9.86874999373">
		<tag k="name" v="Kroktjønnsbekken" />
		<tag k="ssr:stedsnr" v="71303" />
		<tag k="waterway" v="stream" />
	</node>
	<node id="-100825" lat="62.0776388884" lon="10.0820388981">
		<tag k="name" v="Butjønne" />
		<tag k="natural" v="water" />
		<tag k="ssr:stedsnr" v="71414" />
	</node>
	<node id="-100822" lat="62.072522218" lon="10.0668111051">
		<tag k="name" v="Stortjønne" />
		<tag k="natural" v="water" />
		<tag k="ssr:stedsnr" v="71410" />
	</node>
	<node id="-100816" lat="61.9469583362" lon="10.0154027835">
		<tag k="name" v="Rånåtjønne" />
		<tag k="natural" v="water" />
		<tag k="ssr:stedsnr" v="70581" />
	</node>
	<node id="-100813" lat="62.1391638914" lon="10.1637638804">
		<tag k="name" v="Odden" />
		<tag k="natural" v="cape" />
		<tag k="ssr:stedsnr" v="58946" />
	</node>
	<node id="-100812" lat="62.1394222187" lon="10.1721361176">
		<tag k="name" v="Bekkholtjønna" />
		<tag k="natural" v="water" />
		<tag k="ssr:stedsnr" v="58934" />
	</node>
	<node id="-100808" lat="62.0649750041" lon="9.95267222263">
		<tag k="name" v="Svarttjønne" />
		<tag k="natural" v="water" />
		<tag k="ssr:stedsnr" v="58758" />
	</node>
	<node id="-100803" lat="62.1547583346" lon="9.86205832774">
		<tag k="name" v="Grasbekken" />
		<tag k="ssr:stedsnr" v="58585" />
		<tag k="waterway" v="stream" />
	</node>
	<node id="-100791" lat="61.9907777747" lon="10.0297166738">
		<tag k="name" v="Søre Sæterbekken" />
		<tag k="ssr:stedsnr" v="58299" />
		<tag k="waterway" v="stream" />
	</node>
	<node id="-100789" lat="62.064238889" lon="9.99761667019">
		<tag k="name" v="Stortjønne" />
		<tag k="natural" v="water" />
		<tag k="ssr:stedsnr" v="58286" />
	</node>
	<node id="-100780" lat="62.1761027778" lon="10.2214388948">
		<tag k="name" v="Tunnøymælen" />
		<tag k="natural" v="beach" />
		<tag k="ssr:stedsnr" v="58022" />
	</node>
	<node id="-100768" lat="61.9680444472" lon="10.0288583331">
		<tag k="name" v="Kubekken" />
		<tag k="ssr:stedsnr" v="56476" />
		<tag k="waterway" v="stream" />
	</node>
	<node id="-100765" lat="62.1530138857" lon="9.81229166554">
		<tag k="name" v="Dagdylju" />
		<tag k="ssr:stedsnr" v="56667" />
		<tag k="waterway" v="stream" />
	</node>
	<node id="-100760" lat="62.0087083299" lon="10.013788888">
		<tag k="name" v="Engelsmannhølen" />
		<tag k="place" v="locality" />
		<tag k="ssr:stedsnr" v="56367" />
	</node>
	<node id="-100751" lat="62.176177776" lon="9.69324721633">
		<tag k="name" v="Nørdre Gravbekken" />
		<tag k="ssr:stedsnr" v="22830" />
		<tag k="waterway" v="stream" />
	</node>
	<node id="-100748" lat="62.2676361134" lon="10.0083000029">
		<tag k="name" v="Storslågåbekken" />
		<tag k="ssr:stedsnr" v="12633" />
		<tag k="waterway" v="stream" />
	</node>
	<node id="-100747" lat="62.2581805516" lon="9.77292222176">
		<tag k="loc_name" v="Pikuthøtjønne" />
		<tag k="name" v="Pikuthøtjørni" />
		<tag k="natural" v="water" />
		<tag k="old_name" v="Pikuthøtjørn" />
		<tag k="ssr:stedsnr" v="12629" />
	</node>
	<node id="-100745" lat="62.2729888917" lon="10.1069000087">
		<tag k="name" v="Storbekken" />
		<tag k="ssr:stedsnr" v="11726" />
		<tag k="waterway" v="stream" />
	</node>
	<node id="-100744" lat="62.3565250036" lon="10.2062055642">
		<tag k="loc_name" v="Trolltjønna" />
		<tag k="name" v="Trolltjørna" />
		<tag k="natural" v="water" />
		<tag k="ssr:stedsnr" v="11719" />
	</node>
	<node id="-100737" lat="61.9883722194" lon="10.0394361028">
		<tag k="name" v="Nørdre Skriubekken" />
		<tag k="ssr:stedsnr" v="11524" />
		<tag k="waterway" v="stream" />
	</node>
	<node id="-100730" lat="62.1324833357" lon="10.0836555569">
		<tag k="name" v="Svensbekken" />
		<tag k="ssr:stedsnr" v="11464" />
		<tag k="waterway" v="stream" />
	</node>
	<node id="-100724" lat="62.1364972221" lon="10.1775027745">
		<tag k="name" v="Røtjønna" />
		<tag k="natural" v="water" />
		<tag k="ssr:stedsnr" v="11442" />
	</node>
	<node id="-100721" lat="62.0084833367" lon="10.0969250083">
		<tag k="name" v="Klettbekken" />
		<tag k="ssr:stedsnr" v="11418" />
		<tag k="waterway" v="stream" />
	</node>
	<node id="-100714" lat="62.0941444436" lon="10.1790611172">
		<tag k="name" v="Døltjønnbekken" />
		<tag k="ssr:stedsnr" v="10482" />
		<tag k="waterway" v="stream" />
	</node>
	<node id="-100694" lat="62.3093138879" lon="10.2788194419">
		<tag k="alt_name" v="Marsjøen, vesl" />
		<tag k="name" v="Vesl-Marsjøen" />
		<tag k="natural" v="water" />
		<tag k="ssr:stedsnr" v="11935" />
		<tag k="water" v="lake" />
	</node>
	<node id="-100691" lat="61.9660694444" lon="10.0178083262">
		<tag k="name" v="Storlyuodden" />
		<tag k="natural" v="cape" />
		<tag k="ssr:stedsnr" v="894503" />
	</node>
	<node id="-100685" lat="62.1979777774" lon="10.3877194509">
		<tag k="name" v="Einunnøra" />
		<tag k="natural" v="cape" />
		<tag k="ssr:stedsnr" v="476949" />
	</node>
	<node id="-100676" lat="62.364441667" lon="10.019227781">
		<tag k="alt_name" v="Fremre Sætalbekken;Sætalbekken" />
		<tag k="name" v="Setalbekken" />
		<tag k="old_name" v="Settalbekken" />
		<tag k="ssr:stedsnr" v="375689" />
		<tag k="waterway" v="stream" />
	</node>
	<node id="-100674" lat="62.3826222233" lon="10.0192222314">
		<tag k="loc_name" v="Leirtjønna" />
		<tag k="name" v="Leirtjørna" />
		<tag k="natural" v="water" />
		<tag k="ssr:stedsnr" v="375683" />
	</node>
	<node id="-100671" lat="62.2510361155" lon="10.0096722146">
		<tag k="name" v="Heimbekken" />
		<tag k="ssr:stedsnr" v="375623" />
		<tag k="waterway" v="stream" />
	</node>
	<node id="-100668" lat="62.2667333331" lon="10.1477333288">
		<tag k="alt_name" v="Eiriksbekken" />
		<tag k="name" v="Eriksbekken" />
		<tag k="ssr:stedsnr" v="375600" />
		<tag k="waterway" v="stream" />
	</node>
	<node id="-100662" lat="62.2569999966" lon="10.3095305488">
		<tag k="name" v="Tælbekken" />
		<tag k="ssr:stedsnr" v="375024" />
		<tag k="waterway" v="stream" />
	</node>
	<node id="-100661" lat="61.9724027806" lon="9.93776665728">
		<tag k="name" v="Rånåbekken" />
		<tag k="ssr:stedsnr" v="374611" />
		<tag k="waterway" v="stream" />
	</node>
	<node id="-100658" lat="62.01975" lon="9.85893055455">
		<tag k="name" v="Dørålstjørnin" />
		<tag k="natural" v="water" />
		<tag k="ssr:stedsnr" v="374412" />
	</node>
	<node id="-100654" lat="62.2044527788" lon="10.2080805622">
		<tag k="name" v="Gråvoltjønna" />
		<tag k="natural" v="water" />
		<tag k="ssr:stedsnr" v="374377" />
	</node>
	<node id="-100653" lat="62.1920722252" lon="10.0469222305">
		<tag k="name" v="Storhøbekken" />
		<tag k="ssr:stedsnr" v="374374" />
		<tag k="waterway" v="stream" />
	</node>
	<node id="-100649" lat="62.2303305563" lon="9.94185000055">
		<tag k="name" v="Indre Kluftbekken" />
		<tag k="ssr:stedsnr" v="374362" />
		<tag k="waterway" v="stream" />
	</node>
	<node id="-100648" lat="62.2148500037" lon="9.84018055862">
		<tag k="alt_name" v="Depla" />
		<tag k="name" v="Sørdepla" />
		<tag k="ssr:stedsnr" v="374359" />
		<tag k="waterway" v="stream" />
	</node>
	<node id="-100644" lat="62.1770361098" lon="10.190197226">
		<tag k="fixme" v="multiple name tags, choose one and add the other to alt_name" />
		<tag k="name" v="Brennbekken;Vatningsbekken" />
		<tag k="ssr:stedsnr" v="374272" />
		<tag k="waterway" v="stream" />
	</node>
	<node id="-100640" lat="61.9482249987" lon="10.0402583329">
		<tag k="alt_name" v="Snjofonnbekken" />
		<tag k="name" v="Sjogfonnbekken" />
		<tag k="ssr:stedsnr" v="373615" />
		<tag k="waterway" v="stream" />
	</node>
	<node id="-100632" lat="62.0287250006" lon="9.97259721314">
		<tag k="name" v="Gjelbruhølen" />
		<tag k="place" v="locality" />
		<tag k="ssr:stedsnr" v="361765" />
	</node>
	<node id="-100619" lat="62.0766555536" lon="9.96190554955">
		<tag k="name" v="Jehanstjønne" />
		<tag k="natural" v="water" />
		<tag k="ssr:stedsnr" v="361562" />
	</node>
	<node id="-100615" lat="61.9393111121" lon="10.0290527711">
		<tag k="name" v="Messingtjønne" />
		<tag k="natural" v="water" />
		<tag k="ssr:stedsnr" v="361444" />
	</node>
	<node id="-100614" lat="62.2113777775" lon="10.2859861124">
		<tag k="name" v="Fjelltjønna" />
		<tag k="natural" v="water" />
		<tag k="ssr:stedsnr" v="361430" />
	</node>
	<node id="-100606" lat="62.0630333301" lon="10.1000777705">
		<tag k="name" v="Tverrbekken" />
		<tag k="ssr:stedsnr" v="361222" />
		<tag k="waterway" v="stream" />
	</node>
	<node id="-100603" lat="62.1250805538" lon="10.2382416625">
		<tag k="name" v="Reinslitjønnan" />
		<tag k="natural" v="water" />
		<tag k="ssr:stedsnr" v="361200" />
	</node>
	<node id="-100597" lat="62.1201833362" lon="10.1585555492">
		<tag k="name" v="Stohølen" />
		<tag k="place" v="locality" />
		<tag k="ssr:stedsnr" v="360932" />
	</node>
	<node id="-100588" lat="62.07828611" lon="10.0853972295">
		<tag k="name" v="Rundtjønne" />
		<tag k="natural" v="water" />
		<tag k="ssr:stedsnr" v="360164" />
	</node>
	<node id="-100586" lat="62.1145638872" lon="10.0064166577">
		<tag k="name" v="Lomslåtjønne" />
		<tag k="natural" v="water" />
		<tag k="ssr:stedsnr" v="360079" />
	</node>
	<node id="-100580" lat="62.1407083346" lon="9.80888332487">
		<tag k="name" v="Svarttjønne" />
		<tag k="natural" v="water" />
		<tag k="ssr:stedsnr" v="359672" />
	</node>
	<node id="-100579" lat="62.3565083293" lon="10.0072111109">
		<tag k="name" v="Leirbekken" />
		<tag k="ssr:stedsnr" v="359654" />
		<tag k="waterway" v="stream" />
	</node>
	<node id="-100575" lat="62.1276499987" lon="9.99138889121">
		<tag k="name" v="Gammelelva" />
		<tag k="ssr:stedsnr" v="359087" />
		<tag k="waterway" v="stream" />
	</node>
	<node id="-100573" lat="62.2214777761" lon="10.3488972249">
		<tag k="name" v="Størloken" />
		<tag k="natural" v="water" />
		<tag k="ssr:stedsnr" v="355935" />
	</node>
	<node id="-100570" lat="61.9278111088" lon="9.999916658">
		<tag k="name" v="Bergedalsbekken" />
		<tag k="ssr:stedsnr" v="355564" />
		<tag k="waterway" v="stream" />
	</node>
	<node id="-100565" lat="62.1649083344" lon="10.3309611196">
		<tag k="name" v="Veslebekken" />
		<tag k="ssr:stedsnr" v="355064" />
		<tag k="waterway" v="stream" />
	</node>
	<node id="-100563" lat="62.1814749964" lon="9.77605556402">
		<tag k="name" v="Rønnogbekken" />
		<tag k="ssr:stedsnr" v="325794" />
		<tag k="waterway" v="stream" />
	</node>
	<node id="-100561" lat="62.3289722219" lon="9.84303611888">
		<tag k="name" v="Naustvika" />
		<tag k="natural" v="bay" />
		<tag k="ssr:stedsnr" v="422874" />
	</node>
	<node id="-100559" lat="62.30408056" lon="10.2657111017">
		<tag k="name" v="Veslbekken" />
		<tag k="ssr:stedsnr" v="315918" />
		<tag k="waterway" v="stream" />
	</node>
	<node id="-100558" lat="62.3049138889" lon="9.9586750068">
		<tag k="name" v="Einståkåbekken" />
		<tag k="old_name" v="Einstakabekken" />
		<tag k="ssr:stedsnr" v="315692" />
		<tag k="waterway" v="stream" />
	</node>
	<node id="-100543" lat="62.1288944423" lon="9.8856916709">
		<tag k="name" v="Svarttjønne" />
		<tag k="natural" v="water" />
		<tag k="ssr:stedsnr" v="314503" />
	</node>
	<node id="-100538" lat="62.010853312" lon="9.93393621442">
		<tag k="name" v="Elgevatnet" />
		<tag k="natural" v="water" />
		<tag k="ssr:stedsnr" v="314445" />
		<tag k="water" v="lake" />
	</node>
	<node id="-100531" lat="62.2316805516" lon="9.79645555459">
		<tag k="name" v="Norddepla" />
		<tag k="ssr:stedsnr" v="314369" />
		<tag k="waterway" v="stream" />
	</node>
	<node id="-100530" lat="62.2208972237" lon="10.0261805557">
		<tag k="name" v="Skardbekken" />
		<tag k="ssr:stedsnr" v="314361" />
		<tag k="waterway" v="stream" />
	</node>
	<node id="-100523" lat="62.1601500035" lon="9.78147499612">
		<tag k="name" v="Svartholbekken" />
		<tag k="ssr:stedsnr" v="314305" />
		<tag k="waterway" v="stream" />
	</node>
	<node id="-100520" lat="62.2605083344" lon="9.92035833238">
		<tag k="loc_name" v="Raudbergstjønne" />
		<tag k="name" v="Raudbergstjørni" />
		<tag k="natural" v="water" />
		<tag k="ssr:stedsnr" v="315607" />
	</node>
	<node id="-100516" lat="62.1846888927" lon="10.344533333">
		<tag k="alt_name" v="Veslesteibekken" />
		<tag k="name" v="Veslsteibekken" />
		<tag k="ssr:stedsnr" v="314022" />
		<tag k="waterway" v="stream" />
	</node>
	<node id="-100509" lat="62.3189777778" lon="9.92485832413">
		<tag k="name" v="Borkhusbekken" />
		<tag k="ssr:stedsnr" v="301888" />
		<tag k="waterway" v="stream" />
	</node>
	<node id="-100495" lat="62.1103694473" lon="9.9158555566">
		<tag k="name" v="Nygruvtjønne" />
		<tag k="natural" v="water" />
		<tag k="ssr:stedsnr" v="301538" />
	</node>
	<node id="-100494" lat="62.0746416708" lon="9.96624166225">
		<tag k="name" v="Løken" />
		<tag k="ssr:stedsnr" v="301536" />
		<tag k="waterway" v="stream" />
	</node>
	<node id="-100492" lat="61.9475111089" lon="10.0090527825">
		<tag k="name" v="Nordre Rånåbuodden" />
		<tag k="natural" v="cape" />
		<tag k="ssr:stedsnr" v="301419" />
	</node>
	<node id="-100472" lat="62.1333777744" lon="10.1596527725">
		<tag k="name" v="Rundtjønna" />
		<tag k="natural" v="water" />
		<tag k="ssr:stedsnr" v="299917" />
	</node>
	<node id="-100471" lat="62.1751416626" lon="9.75647500481">
		<tag k="name" v="Graupbekken" />
		<tag k="ssr:stedsnr" v="299812" />
		<tag k="waterway" v="stream" />
	</node>
	<node id="-100464" lat="61.9325250029" lon="10.0055361174">
		<tag k="name" v="Bergedalstjønne" />
		<tag k="natural" v="water" />
		<tag k="ssr:stedsnr" v="299435" />
	</node>
	<node id="-100459" lat="62.0888333289" lon="10.1042611085">
		<tag k="name" v="Såtåtjønne" />
		<tag k="natural" v="water" />
		<tag k="ssr:stedsnr" v="299193" />
	</node>
	<node id="-100448" lat="61.9140472243" lon="10.0664527845">
		<tag k="name" v="Bjorholen" />
		<tag k="natural" v="water" />
		<tag k="ssr:stedsnr" v="295616" />
	</node>
	<node id="-100447" lat="62.2745583376" lon="10.3454861109">
		<tag k="name" v="Marsjøkroken" />
		<tag k="natural" v="cape" />
		<tag k="ssr:stedsnr" v="295121" />
	</node>
</osm>
