<?xml version="1.0" encoding="UTF-8"?>
<osm version="0.6" generator="osmapis">
	<node id="6925351987" lat="62.6950308" lon="10.0372199" version="2" timestamp="2022-01-26T07:15:22Z" changeset="116611310" uid="3497659" user="NKA">
		<tag k="junction" v="yes" />
		<tag k="name" v="Korsvegen" />
		<tag k="ssr:stedsnr" v="642995" />
	</node>
	<node id="6925404473" lat="62.751417" lon="9.9840169" version="2" timestamp="2022-01-26T07:15:22Z" changeset="116611310" uid="3497659" user="NKA">
		<tag k="junction" v="yes" />
		<tag k="name" v="Ulsbergkrysset" />
		<tag k="ssr:stedsnr" v="1074427" />
	</node>
	<node id="2128265307" lat="62.7047014" lon="9.9149202" version="2" timestamp="2019-10-28T19:18:29Z" changeset="76312481" uid="3497659" user="NKA" />
	<node id="8332068068" lat="62.7046458" lon="9.9147703" version="1" timestamp="2021-01-17T21:27:31Z" changeset="97653451" uid="3497659" user="NKA" />
	<node id="6925376249" lat="62.695842" lon="9.9401554" version="2" timestamp="2021-01-17T21:27:34Z" changeset="97653453" uid="3497659" user="NKA" />
	<node id="8332065361" lat="62.6957204" lon="9.93995" version="1" timestamp="2021-01-17T21:27:31Z" changeset="97653451" uid="3497659" user="NKA" />
	<node id="6925349744" lat="62.7022657" lon="9.9562593" version="1" timestamp="2019-10-28T19:18:14Z" changeset="76312464" uid="3497659" user="NKA" />
	<node id="6925379015" lat="62.7024335" lon="9.9561776" version="1" timestamp="2019-10-28T19:18:21Z" changeset="76312470" uid="3497659" user="NKA" />
	<node id="6925369826" lat="62.650026" lon="10.0147974" version="2" timestamp="2022-01-24T21:00:15Z" changeset="116559033" uid="3497659" user="NKA" />
	<node id="6925369827" lat="62.6499728" lon="10.0145288" version="1" timestamp="2019-10-28T19:18:21Z" changeset="76312470" uid="3497659" user="NKA" />
	<node id="6925352002" lat="62.6936404" lon="10.0383731" version="1" timestamp="2019-10-28T19:18:14Z" changeset="76312464" uid="3497659" user="NKA" />
	<node id="6925352004" lat="62.6935839" lon="10.0387517" version="1" timestamp="2019-10-28T19:18:14Z" changeset="76312464" uid="3497659" user="NKA" />
	<node id="6925352080" lat="62.6828656" lon="10.0480503" version="1" timestamp="2019-10-28T19:18:14Z" changeset="76312464" uid="3497659" user="NKA" />
	<node id="6925352081" lat="62.6827773" lon="10.0479991" version="1" timestamp="2019-10-28T19:18:14Z" changeset="76312464" uid="3497659" user="NKA" />
	<node id="6925398758" lat="62.6828288" lon="10.0478771" version="1" timestamp="2019-10-28T19:18:26Z" changeset="76312478" uid="3497659" user="NKA" />
	<node id="6925398759" lat="62.6829095" lon="10.0479601" version="1" timestamp="2019-10-28T19:18:26Z" changeset="76312478" uid="3497659" user="NKA" />
	<node id="6925379349" lat="62.7104861" lon="10.0373" version="1" timestamp="2019-10-28T19:18:21Z" changeset="76312470" uid="3497659" user="NKA" />
	<node id="6925379350" lat="62.7104956" lon="10.0373455" version="1" timestamp="2019-10-28T19:18:21Z" changeset="76312470" uid="3497659" user="NKA" />
	<node id="6925379351" lat="62.7106381" lon="10.037797" version="1" timestamp="2019-10-28T19:18:21Z" changeset="76312470" uid="3497659" user="NKA" />
	<node id="6925380418" lat="62.8113051" lon="9.6606409" version="1" timestamp="2019-10-28T19:18:23Z" changeset="76312473" uid="3497659" user="NKA" />
	<node id="6925380419" lat="62.810981" lon="9.6605319" version="1" timestamp="2019-10-28T19:18:23Z" changeset="76312473" uid="3497659" user="NKA" />
	<node id="6925350535" lat="62.8454731" lon="9.8439359" version="1" timestamp="2019-10-28T19:18:14Z" changeset="76312464" uid="3497659" user="NKA" />
	<node id="6925350534" lat="62.8458026" lon="9.8444282" version="1" timestamp="2019-10-28T19:18:14Z" changeset="76312464" uid="3497659" user="NKA" />
	<node id="6925392826" lat="62.8749813" lon="9.8316095" version="1" timestamp="2019-10-28T19:18:26Z" changeset="76312478" uid="3497659" user="NKA" />
	<node id="6925392827" lat="62.8748185" lon="9.8306323" version="1" timestamp="2019-10-28T19:18:26Z" changeset="76312478" uid="3497659" user="NKA" />
	<node id="6925377131" lat="62.9231061" lon="9.757129" version="1" timestamp="2019-10-28T19:18:21Z" changeset="76312470" uid="3497659" user="NKA" />
	<node id="6925377132" lat="62.9229286" lon="9.7572262" version="1" timestamp="2019-10-28T19:18:21Z" changeset="76312470" uid="3497659" user="NKA" />
	<node id="6925377261" lat="62.903561" lon="9.8074823" version="1" timestamp="2019-10-28T19:18:21Z" changeset="76312470" uid="3497659" user="NKA" />
	<node id="6925377262" lat="62.9039189" lon="9.8077693" version="1" timestamp="2019-10-28T19:18:21Z" changeset="76312470" uid="3497659" user="NKA" />
	<node id="6925351015" lat="62.7488176" lon="9.9593698" version="1" timestamp="2019-10-28T19:18:14Z" changeset="76312464" uid="3497659" user="NKA" />
	<node id="6925351017" lat="62.7487388" lon="9.9593097" version="1" timestamp="2019-10-28T19:18:14Z" changeset="76312464" uid="3497659" user="NKA" />
	<node id="6925370903" lat="62.7245159" lon="9.9688257" version="1" timestamp="2019-10-28T19:18:21Z" changeset="76312470" uid="3497659" user="NKA" />
	<node id="6925370905" lat="62.7243931" lon="9.9689299" version="1" timestamp="2019-10-28T19:18:21Z" changeset="76312470" uid="3497659" user="NKA" />
	<node id="6925376362" lat="62.7340245" lon="9.9770431" version="1" timestamp="2019-10-28T19:18:21Z" changeset="76312470" uid="3497659" user="NKA" />
	<node id="6925376363" lat="62.7340718" lon="9.9771116" version="1" timestamp="2019-10-28T19:18:21Z" changeset="76312470" uid="3497659" user="NKA" />
	<node id="6925376364" lat="62.7341507" lon="9.9772156" version="1" timestamp="2019-10-28T19:18:21Z" changeset="76312470" uid="3497659" user="NKA" />
	<node id="6925376365" lat="62.7342432" lon="9.9773228" version="1" timestamp="2019-10-28T19:18:21Z" changeset="76312470" uid="3497659" user="NKA" />
	<node id="6925376366" lat="62.7343218" lon="9.9774025" version="1" timestamp="2019-10-28T19:18:21Z" changeset="76312470" uid="3497659" user="NKA" />
	<node id="6925376367" lat="62.7344094" lon="9.9774733" version="1" timestamp="2019-10-28T19:18:21Z" changeset="76312470" uid="3497659" user="NKA" />
	<node id="6925381139" lat="62.7418346" lon="9.9843431" version="1" timestamp="2019-10-28T19:18:23Z" changeset="76312473" uid="3497659" user="NKA" />
	<node id="6925381140" lat="62.7418853" lon="9.9842059" version="1" timestamp="2019-10-28T19:18:23Z" changeset="76312473" uid="3497659" user="NKA" />
	<node id="6925381141" lat="62.7420129" lon="9.9839053" version="1" timestamp="2019-10-28T19:18:23Z" changeset="76312473" uid="3497659" user="NKA" />
	<node id="6925381142" lat="62.7421505" lon="9.9836242" version="1" timestamp="2019-10-28T19:18:23Z" changeset="76312473" uid="3497659" user="NKA" />
	<node id="6925381143" lat="62.7422972" lon="9.9833662" version="1" timestamp="2019-10-28T19:18:23Z" changeset="76312473" uid="3497659" user="NKA" />
	<node id="6925381144" lat="62.7424206" lon="9.9831768" version="1" timestamp="2019-10-28T19:18:23Z" changeset="76312473" uid="3497659" user="NKA" />
	<node id="6925380582" lat="62.7563831" lon="9.9937392" version="1" timestamp="2019-10-28T19:18:23Z" changeset="76312473" uid="3497659" user="NKA" />
	<node id="6925380583" lat="62.7564496" lon="9.9937931" version="1" timestamp="2019-10-28T19:18:23Z" changeset="76312473" uid="3497659" user="NKA" />
	<node id="6925380753" lat="62.8042841" lon="10.0333758" version="1" timestamp="2019-10-28T19:18:23Z" changeset="76312473" uid="3497659" user="NKA" />
	<node id="6925380754" lat="62.8043696" lon="10.0334517" version="1" timestamp="2019-10-28T19:18:23Z" changeset="76312473" uid="3497659" user="NKA" />
	<node id="6925380755" lat="62.8050283" lon="10.033962" version="2" timestamp="2022-01-24T21:00:15Z" changeset="116559033" uid="3497659" user="NKA" />
	<node id="6925380756" lat="62.8051285" lon="10.0340187" version="2" timestamp="2022-01-24T21:00:15Z" changeset="116559033" uid="3497659" user="NKA" />
	<node id="6925380757" lat="62.8052251" lon="10.0340614" version="1" timestamp="2019-10-28T19:18:23Z" changeset="76312473" uid="3497659" user="NKA" />
	<node id="9445777812" lat="62.8049136" lon="10.0338837" version="1" timestamp="2022-01-24T21:00:15Z" changeset="116559033" uid="3497659" user="NKA" />
	<node id="6925403998" lat="62.8156355" lon="10.0342673" version="1" timestamp="2019-10-28T19:18:29Z" changeset="76312481" uid="3497659" user="NKA" />
	<node id="6925403999" lat="62.8157446" lon="10.0341213" version="1" timestamp="2019-10-28T19:18:29Z" changeset="76312481" uid="3497659" user="NKA" />
	<node id="6925363336" lat="62.8426228" lon="9.9011109" version="1" timestamp="2019-10-28T19:18:18Z" changeset="76312466" uid="3497659" user="NKA" />
	<node id="6925363337" lat="62.8428488" lon="9.9013088" version="1" timestamp="2019-10-28T19:18:18Z" changeset="76312466" uid="3497659" user="NKA" />
	<node id="6925363338" lat="62.8430747" lon="9.9015068" version="1" timestamp="2019-10-28T19:18:18Z" changeset="76312466" uid="3497659" user="NKA" />
	<node id="6925349742" lat="62.8382305" lon="9.9116957" version="1" timestamp="2019-10-28T19:18:14Z" changeset="76312464" uid="3497659" user="NKA" />
	<node id="6925349743" lat="62.8383995" lon="9.9126305" version="1" timestamp="2019-10-28T19:18:14Z" changeset="76312464" uid="3497659" user="NKA" />
	<node id="6925349741" lat="62.830897" lon="9.9656476" version="1" timestamp="2019-10-28T19:18:14Z" changeset="76312464" uid="3497659" user="NKA" />
	<node id="6925378972" lat="62.831374" lon="9.9656832" version="1" timestamp="2019-10-28T19:18:21Z" changeset="76312470" uid="3497659" user="NKA" />
	<node id="6925387669" lat="62.6925569" lon="10.1396994" version="2" timestamp="2022-01-24T21:00:15Z" changeset="116559033" uid="3497659" user="NKA" />
	<node id="6925387670" lat="62.6927217" lon="10.1396008" version="1" timestamp="2019-10-28T19:18:23Z" changeset="76312473" uid="3497659" user="NKA" />
	<node id="6925387671" lat="62.6932229" lon="10.1393109" version="1" timestamp="2019-10-28T19:18:23Z" changeset="76312473" uid="3497659" user="NKA" />
	<node id="6925387672" lat="62.6933533" lon="10.1392244" version="1" timestamp="2019-10-28T19:18:23Z" changeset="76312473" uid="3497659" user="NKA" />
	<node id="6925387675" lat="62.6935391" lon="10.1390786" version="2" timestamp="2022-01-24T21:00:15Z" changeset="116559033" uid="3497659" user="NKA" />
	<node id="9445777819" lat="62.6934471" lon="10.1391524" version="1" timestamp="2022-01-24T21:00:15Z" changeset="116559033" uid="3497659" user="NKA" />
	<node id="6925376541" lat="62.7013957" lon="10.1321803" version="1" timestamp="2019-10-28T19:18:21Z" changeset="76312470" uid="3497659" user="NKA" />
	<node id="6925376542" lat="62.7014979" lon="10.1319643" version="1" timestamp="2019-10-28T19:18:21Z" changeset="76312470" uid="3497659" user="NKA" />
	<node id="6925349727" lat="62.7645691" lon="10.0979698" version="1" timestamp="2019-10-28T19:18:14Z" changeset="76312464" uid="3497659" user="NKA" />
	<node id="6925358151" lat="62.7645122" lon="10.0980221" version="1" timestamp="2019-10-28T19:18:14Z" changeset="76312464" uid="3497659" user="NKA" />
	<node id="6925381049" lat="62.8665656" lon="10.0686778" version="1" timestamp="2019-10-28T19:18:23Z" changeset="76312473" uid="3497659" user="NKA" />
	<node id="6925381051" lat="62.8664916" lon="10.0688773" version="1" timestamp="2019-10-28T19:18:23Z" changeset="76312473" uid="3497659" user="NKA" />
	<node id="6925399989" lat="62.8722767" lon="10.0908054" version="1" timestamp="2019-10-28T19:18:29Z" changeset="76312481" uid="3497659" user="NKA" />
	<node id="6925399991" lat="62.8722255" lon="10.0908571" version="1" timestamp="2019-10-28T19:18:29Z" changeset="76312481" uid="3497659" user="NKA" />
	<way id="18323087" version="6" timestamp="2022-01-24T21:00:15Z" changeset="116559033" uid="3497659" user="NKA">
		<tag k="bridge" v="yes" />
		<tag k="bridge:structure" v="suspension" />
		<tag k="highway" v="tertiary" />
		<tag k="layer" v="1" />
		<tag k="name" v="Kjerkbrua" />
		<tag k="ssr:stedsnr" v="40708" />
		<nd ref="6925392826" />
		<nd ref="6925392827" />
	</way>
	<way id="19562434" version="9" timestamp="2022-01-24T21:00:15Z" changeset="116559033" uid="3497659" user="NKA">
		<tag k="alt_name" v="Merkesbrua;Merkbrua" />
		<tag k="bridge" v="yes" />
		<tag k="highway" v="primary" />
		<tag k="layer" v="1" />
		<tag k="maxspeed" v="60" />
		<tag k="name" v="Mærkesbrua" />
		<tag k="ref" v="700" />
		<tag k="ssr:stedsnr" v="582640" />
		<nd ref="6925377261" />
		<nd ref="6925377262" />
	</way>
	<way id="29365806" version="7" timestamp="2022-01-24T21:00:15Z" changeset="116559033" uid="3497659" user="NKA">
		<tag k="bridge" v="yes" />
		<tag k="highway" v="trunk" />
		<tag k="layer" v="1" />
		<tag k="maxspeed" v="80" />
		<tag k="maxweight:signed" v="no" />
		<tag k="name" v="Kløftbrua" />
		<tag k="old_name" v="Kløft bru" />
		<tag k="ref" v="E 6" />
		<tag k="ssr:stedsnr" v="921333" />
		<nd ref="6925376362" />
		<nd ref="6925376363" />
		<nd ref="6925376364" />
		<nd ref="6925376365" />
		<nd ref="6925376366" />
		<nd ref="6925376367" />
	</way>
	<way id="29365812" version="11" timestamp="2022-01-24T21:00:15Z" changeset="116559033" uid="3497659" user="NKA">
		<tag k="bridge" v="yes" />
		<tag k="bridge:structure" v="arch" />
		<tag k="highway" v="trunk" />
		<tag k="layer" v="1" />
		<tag k="maxspeed" v="60" />
		<tag k="maxweight" v="5" />
		<tag k="name" v="Stavåbrua" />
		<tag k="narrow" v="yes" />
		<tag k="ref" v="E 6" />
		<tag k="ssr:stedsnr" v="101710" />
		<nd ref="6925380753" />
		<nd ref="6925380754" />
		<nd ref="9445777812" />
		<nd ref="6925380755" />
		<nd ref="6925380756" />
		<nd ref="6925380757" />
	</way>
	<way id="29374028" version="6" timestamp="2022-01-24T21:00:15Z" changeset="116559033" uid="3497659" user="NKA">
		<tag k="alt_name" v="Grana bru" />
		<tag k="bridge" v="yes" />
		<tag k="highway" v="primary" />
		<tag k="layer" v="1" />
		<tag k="maxspeed" v="60" />
		<tag k="name" v="Granabrua" />
		<tag k="ref" v="700" />
		<tag k="ssr:stedsnr" v="764673" />
		<nd ref="6925377131" />
		<nd ref="6925377132" />
	</way>
	<way id="34106671" version="7" timestamp="2022-01-24T21:00:15Z" changeset="116559033" uid="3497659" user="NKA">
		<tag k="bridge" v="yes" />
		<tag k="highway" v="trunk" />
		<tag k="layer" v="1" />
		<tag k="maxspeed" v="80" />
		<tag k="maxweight:signed" v="no" />
		<tag k="name" v="Ulsbergbrua" />
		<tag k="ref" v="3" />
		<tag k="ssr:stedsnr" v="889080" />
		<nd ref="6925381139" />
		<nd ref="6925381140" />
		<nd ref="6925381141" />
		<nd ref="6925381142" />
		<nd ref="6925381143" />
		<nd ref="6925381144" />
	</way>
	<way id="70291767" version="6" timestamp="2022-01-24T21:00:15Z" changeset="116559033" uid="3497659" user="NKA">
		<tag k="bridge" v="yes" />
		<tag k="highway" v="tertiary" />
		<tag k="layer" v="1" />
		<tag k="name" v="Stamnesbrua" />
		<tag k="ssr:stedsnr" v="946739" />
		<nd ref="6925350534" />
		<nd ref="6925350535" />
	</way>
	<way id="80885956" version="6" timestamp="2022-01-24T21:00:15Z" changeset="116559033" uid="3497659" user="NKA">
		<tag k="bridge" v="yes" />
		<tag k="highway" v="secondary" />
		<tag k="layer" v="1" />
		<tag k="maxspeed" v="80" />
		<tag k="name" v="Grøtbrua" />
		<tag k="ref" v="6512" />
		<tag k="ssr:stedsnr" v="586683" />
		<nd ref="6925349742" />
		<nd ref="6925349743" />
	</way>
	<way id="202858183" version="5" timestamp="2022-01-24T21:00:15Z" changeset="116559033" uid="3497659" user="NKA">
		<tag k="bridge" v="yes" />
		<tag k="highway" v="secondary" />
		<tag k="layer" v="1" />
		<tag k="maxspeed" v="80" />
		<tag k="name" v="Hyttbrua" />
		<tag k="ref" v="6510" />
		<tag k="ssr:stedsnr" v="217967" />
		<nd ref="6925379349" />
		<nd ref="6925379350" />
		<nd ref="6925379351" />
	</way>
	<way id="202858218" version="3" timestamp="2022-01-24T21:00:15Z" changeset="116559033" uid="3497659" user="NKA">
		<tag k="bridge" v="yes" />
		<tag k="highway" v="unclassified" />
		<tag k="layer" v="1" />
		<tag k="name" v="Sagfossbrua" />
		<tag k="ssr:stedsnr" v="886968" />
		<nd ref="6925369826" />
		<nd ref="6925369827" />
	</way>
	<way id="202858219" version="3" timestamp="2022-01-24T21:00:15Z" changeset="116559033" uid="3497659" user="NKA">
		<tag k="bridge" v="yes" />
		<tag k="highway" v="unclassified" />
		<tag k="layer" v="1" />
		<tag k="maxspeed" v="80" />
		<tag k="name" v="Nybrua" />
		<tag k="ssr:stedsnr" v="404674" />
		<nd ref="6925352002" />
		<nd ref="6925352004" />
	</way>
	<way id="202890239" version="8" timestamp="2022-01-24T21:00:15Z" changeset="116559033" uid="3497659" user="NKA">
		<tag k="bridge" v="yes" />
		<tag k="highway" v="trunk" />
		<tag k="lanes" v="2" />
		<tag k="layer" v="1" />
		<tag k="maxspeed" v="70" />
		<tag k="maxweight:signed" v="no" />
		<tag k="name" v="Nedre Gisnabrua" />
		<tag k="old_name" v="Gisnabrua" />
		<tag k="ref" v="E 6" />
		<tag k="ssr:stedsnr" v="465698" />
		<tag k="surface" v="asphalt" />
		<nd ref="8332065361" />
		<nd ref="6925376249" />
	</way>
	<way id="303550995" version="4" timestamp="2022-01-24T21:00:15Z" changeset="116559033" uid="3497659" user="NKA">
		<tag k="alt_name" v="Minillbrua" />
		<tag k="bridge" v="yes" />
		<tag k="highway" v="secondary" />
		<tag k="layer" v="1" />
		<tag k="maxspeed" v="80" />
		<tag k="name" v="Minnillbrua" />
		<tag k="ref" v="6516" />
		<tag k="ssr:stedsnr" v="404683" />
		<tag k="surface" v="paved" />
		<nd ref="6925380418" />
		<nd ref="6925380419" />
	</way>
	<way id="305967061" version="3" timestamp="2022-01-24T21:00:15Z" changeset="116559033" uid="3497659" user="NKA">
		<tag k="bridge" v="yes" />
		<tag k="highway" v="unclassified" />
		<tag k="layer" v="1" />
		<tag k="name" v="Døåbrua" />
		<tag k="ssr:stedsnr" v="642789" />
		<nd ref="6925349727" />
		<nd ref="6925358151" />
	</way>
	<way id="425639041" version="4" timestamp="2022-01-24T21:00:15Z" changeset="116559033" uid="3497659" user="NKA">
		<tag k="bridge" v="yes" />
		<tag k="highway" v="trunk" />
		<tag k="layer" v="1" />
		<tag k="maxspeed" v="70" />
		<tag k="maxweight:signed" v="no" />
		<tag k="name" v="Novbrua" />
		<tag k="ref" v="3" />
		<tag k="ssr:stedsnr" v="461792" />
		<nd ref="6925376541" />
		<nd ref="6925376542" />
	</way>
	<way id="739633037" version="4" timestamp="2022-01-24T21:00:15Z" changeset="116559033" uid="3497659" user="NKA">
		<tag k="bridge" v="yes" />
		<tag k="highway" v="tertiary" />
		<tag k="layer" v="1" />
		<tag k="maxspeed" v="80" />
		<tag k="name" v="Øvre Gisnabrua" />
		<tag k="old_name" v="Gisnabrua" />
		<tag k="ssr:stedsnr" v="768706" />
		<nd ref="8332068068" />
		<nd ref="2128265307" />
	</way>
	<way id="739633042" version="2" timestamp="2022-01-24T21:00:15Z" changeset="116559033" uid="3497659" user="NKA">
		<tag k="bicycle" v="yes" />
		<tag k="bridge" v="yes" />
		<tag k="cycleway" v="no" />
		<tag k="highway" v="secondary" />
		<tag k="layer" v="1" />
		<tag k="maxspeed" v="80" />
		<tag k="name" v="Skjepphaugbrua" />
		<tag k="ref" v="6508" />
		<tag k="sidewalk" v="none" />
		<tag k="ssr:stedsnr" v="768717" />
		<tag k="surface" v="asphalt" />
		<nd ref="6925349741" />
		<nd ref="6925378972" />
	</way>
	<way id="739633044" version="2" timestamp="2022-01-24T21:00:15Z" changeset="116559033" uid="3497659" user="NKA">
		<tag k="bridge" v="yes" />
		<tag k="highway" v="secondary" />
		<tag k="layer" v="1" />
		<tag k="maxspeed" v="80" />
		<tag k="name" v="Åsbrua" />
		<tag k="ref" v="6510" />
		<tag k="ssr:stedsnr" v="97562" />
		<nd ref="6925379015" />
		<nd ref="6925349744" />
	</way>
	<way id="739633060" version="3" timestamp="2022-01-24T21:00:15Z" changeset="116559033" uid="3497659" user="NKA">
		<tag k="alt_name" v="Heverbrua" />
		<tag k="bridge" v="yes" />
		<tag k="highway" v="tertiary" />
		<tag k="layer" v="1" />
		<tag k="maxspeed" v="80" />
		<tag k="name" v="Øvre Heverbrua" />
		<tag k="ssr:stedsnr" v="768700" />
		<nd ref="6925351015" />
		<nd ref="6925351017" />
	</way>
	<way id="739633065" version="2" timestamp="2022-01-24T21:00:15Z" changeset="116559033" uid="3497659" user="NKA">
		<tag k="bridge" v="yes" />
		<tag k="highway" v="residential" />
		<tag k="layer" v="1" />
		<tag k="maxspeed" v="80" />
		<tag k="name" v="Tyskseterbekkbrua" />
		<tag k="ssr:stedsnr" v="101701" />
		<nd ref="6925352080" />
		<nd ref="6925352081" />
	</way>
	<way id="739633344" version="2" timestamp="2022-01-24T21:00:15Z" changeset="116559033" uid="3497659" user="NKA">
		<tag k="bridge" v="yes" />
		<tag k="highway" v="service" />
		<tag k="layer" v="1" />
		<tag k="name" v="Gunnesbrua" />
		<tag k="ssr:stedsnr" v="461834" />
		<nd ref="6925363336" />
		<nd ref="6925363337" />
		<nd ref="6925363338" />
	</way>
	<way id="739633414" version="2" timestamp="2022-01-24T21:00:15Z" changeset="116559033" uid="3497659" user="NKA">
		<tag k="alt_name" v="Farlighets bru" />
		<tag k="bridge" v="yes" />
		<tag k="highway" v="service" />
		<tag k="layer" v="1" />
		<tag k="name" v="Farleghetsbrua" />
		<tag k="ssr:stedsnr" v="800310" />
		<nd ref="6925370903" />
		<nd ref="6925370905" />
	</way>
	<way id="739633479" version="3" timestamp="2022-01-24T21:00:15Z" changeset="116559033" uid="3497659" user="NKA">
		<tag k="bridge" v="yes" />
		<tag k="highway" v="trunk" />
		<tag k="layer" v="1" />
		<tag k="maxspeed" v="70" />
		<tag k="name" v="Jønnåbrua" />
		<tag k="ref" v="E 6" />
		<tag k="ssr:stedsnr" v="161662" />
		<nd ref="6925380582" />
		<nd ref="6925380583" />
	</way>
	<way id="739633484" version="3" timestamp="2022-01-24T21:00:15Z" changeset="116559033" uid="3497659" user="NKA">
		<tag k="bridge" v="yes" />
		<tag k="highway" v="trunk" />
		<tag k="layer" v="1" />
		<tag k="maxspeed" v="60" />
		<tag k="name" v="Ilbrua" />
		<tag k="ref" v="E 6" />
		<tag k="ssr:stedsnr" v="222687" />
		<nd ref="6925381049" />
		<nd ref="6925381051" />
	</way>
	<way id="739633630" version="3" timestamp="2022-01-24T21:00:15Z" changeset="116559033" uid="3497659" user="NKA">
		<tag k="bridge" v="yes" />
		<tag k="highway" v="trunk" />
		<tag k="layer" v="1" />
		<tag k="maxspeed" v="80" />
		<tag k="maxweight:signed" v="no" />
		<tag k="name" v="Nåverdalsbrua" />
		<tag k="ref" v="3" />
		<tag k="ssr:stedsnr" v="218800" />
		<nd ref="6925387669" />
		<nd ref="6925387670" />
		<nd ref="6925387671" />
		<nd ref="6925387672" />
		<nd ref="9445777819" />
		<nd ref="6925387675" />
	</way>
	<way id="739634266" version="2" timestamp="2022-01-24T21:00:15Z" changeset="116559033" uid="3497659" user="NKA">
		<tag k="alt_name" v="Tyskseterbekken bru" />
		<tag k="bridge" v="yes" />
		<tag k="highway" v="track" />
		<tag k="layer" v="1" />
		<tag k="name" v="Tyskseterbekkbrua" />
		<tag k="ssr:stedsnr" v="101701" />
		<nd ref="6925398758" />
		<nd ref="6925398759" />
	</way>
	<way id="739634304" version="2" timestamp="2022-01-24T21:00:15Z" changeset="116559033" uid="3497659" user="NKA">
		<tag k="bridge" v="yes" />
		<tag k="highway" v="service" />
		<tag k="layer" v="1" />
		<tag k="name" v="Kvernåbrua" />
		<tag k="ssr:stedsnr" v="1074445" />
		<nd ref="6925399989" />
		<nd ref="6925399991" />
	</way>
	<way id="739634468" version="2" timestamp="2022-01-24T21:00:15Z" changeset="116559033" uid="3497659" user="NKA">
		<tag k="bridge" v="yes" />
		<tag k="highway" v="service" />
		<tag k="layer" v="1" />
		<tag k="loc_name" v="Gamle Skaumbrua" />
		<tag k="name" v="Skaumbrua" />
		<tag k="ssr:stedsnr" v="101711" />
		<nd ref="6925403998" />
		<nd ref="6925403999" />
	</way>
</osm>
