<?xml version="1.0" encoding="UTF-8"?>
<<<<<<< HEAD
<osm version="0.6" generator="osmapis">
	<node lat="70.6550888902205" lon="21.614938862550424" id="-37350">
		<tag k="name" v="Breivikegga" />
		<tag k="ssr:date" v="2021-06-08" />
		<tag k="ssr:gruppe" v="sjøbunn" />
		<tag k="ssr:hovedgruppe" v="sjø" />
		<tag k="ssr:stedsnr" v="267036" />
		<tag k="ssr:type" v="eggISjø" />
	</node>
	<node lat="70.78543611078473" lon="21.994630509082896" id="-37363">
		<tag k="name" v="Longebakken" />
		<tag k="ssr:date" v="2021-06-08" />
		<tag k="ssr:gruppe" v="sjøbunn" />
		<tag k="ssr:hovedgruppe" v="sjø" />
		<tag k="ssr:stedsnr" v="268244" />
		<tag k="ssr:type" v="bakkeISjø" />
	</node>
	<node lat="70.89999999972946" lon="22.33333329329268" id="-37364">
		<tag k="name" v="Vesterråsa" />
		<tag k="ssr:date" v="2021-06-08" />
		<tag k="ssr:gruppe" v="sjøbunn" />
		<tag k="ssr:hovedgruppe" v="sjø" />
		<tag k="ssr:stedsnr" v="207242" />
		<tag k="ssr:type" v="bakkeISjø" />
	</node>
	<node lat="70.63108333687539" lon="21.97064996591487" id="-37418">
		<tag k="name" v="Sørvær, Nedre" />
		<tag k="ssr:date" v="2019-12-27" />
		<tag k="ssr:gruppe" v="navigasjon" />
		<tag k="ssr:hovedgruppe" v="infrastruktur" />
		<tag k="ssr:stedsnr" v="299192" />
		<tag k="ssr:type" v="fyrlykt" />
	</node>
	<node lat="70.63015555389993" lon="21.947630526049757" id="-37445">
		<tag k="name" v="Kåja" />
		<tag k="ssr:date" v="2021-06-08" />
		<tag k="ssr:gruppe" v="navigasjon" />
		<tag k="ssr:hovedgruppe" v="infrastruktur" />
		<tag k="ssr:stedsnr" v="384704" />
		<tag k="ssr:type" v="fyrlykt" />
	</node>
	<node lat="70.48144444227373" lon="22.16731385808174" id="-37516">
		<tag k="name" v="Hasvik, Nordre molo" />
=======
<osm generator="osmapis" version="0.6">
	<node id="-901244" lat="70.4805305603" lon="22.1658916295">
		<tag k="name" v="Hasvik, Søre molo" />
		<tag k="ssr:date" v="2019-12-27" />
		<tag k="ssr:gruppe" v="navigasjon" />
		<tag k="ssr:hovedgruppe" v="infrastruktur" />
		<tag k="ssr:stedsnr" v="704259" />
		<tag k="ssr:type" v="lanterne" />
	</node>
	<node id="-901418" lat="70.5035771308" lon="22.5396735839">
		<tag k="name" v="Grunnfjorden" />
>>>>>>> e1d4bc35ff8a6074a6f2e91616a996b547c36f15
		<tag k="ssr:date" v="2019-12-27" />
		<tag k="ssr:gruppe" v="veg" />
		<tag k="ssr:hovedgruppe" v="infrastruktur" />
<<<<<<< HEAD
		<tag k="ssr:stedsnr" v="519566" />
		<tag k="ssr:type" v="fyrlykt" />
	</node>
	<node lat="70.65304722529774" lon="22.62835271508405" id="-37580">
		<tag k="name" v="Dønnesfjord" />
=======
		<tag k="ssr:stedsnr" v="1055130" />
		<tag k="ssr:type" v="adressenavn" />
	</node>
	<node id="-901414" lat="70.7215693504" lon="22.7191591958">
		<tag k="name" v="Galten" />
>>>>>>> e1d4bc35ff8a6074a6f2e91616a996b547c36f15
		<tag k="ssr:date" v="2019-12-27" />
		<tag k="ssr:gruppe" v="veg" />
		<tag k="ssr:hovedgruppe" v="infrastruktur" />
<<<<<<< HEAD
		<tag k="ssr:stedsnr" v="701485" />
		<tag k="ssr:type" v="fyrlykt" />
	</node>
	<node lat="70.71753209067647" lon="22.68395251377976" id="-37595">
		<tag k="name" v="Flatøy" />
		<tag k="old_name" v="Flatøya" />
		<tag k="ssr:date" v="2020-10-15" />
		<tag k="ssr:gruppe" v="navigasjon" />
		<tag k="ssr:hovedgruppe" v="infrastruktur" />
		<tag k="ssr:stedsnr" v="626757" />
		<tag k="ssr:type" v="fyrlykt" />
	</node>
	<node lat="70.48053056031509" lon="22.165891629525476" id="-37637">
		<tag k="name" v="Hasvik, Søre molo" />
=======
		<tag k="ssr:stedsnr" v="1055114" />
		<tag k="ssr:type" v="adressenavn" />
	</node>
	<node id="-901238" lat="70.6530472253" lon="22.6283527151">
		<tag k="name" v="Dønnesfjord" />
		<tag k="ssr:date" v="2019-12-27" />
		<tag k="ssr:gruppe" v="navigasjon" />
		<tag k="ssr:hovedgruppe" v="infrastruktur" />
		<tag k="ssr:stedsnr" v="701485" />
		<tag k="ssr:type" v="fyrlykt" />
	</node>
	<node id="-901417" lat="70.3415731616" lon="22.45452909">
		<tag k="name" v="Hammarbukta" />
>>>>>>> e1d4bc35ff8a6074a6f2e91616a996b547c36f15
		<tag k="ssr:date" v="2019-12-27" />
		<tag k="ssr:gruppe" v="veg" />
		<tag k="ssr:hovedgruppe" v="infrastruktur" />
		<tag k="ssr:stedsnr" v="1055128" />
		<tag k="ssr:type" v="adressenavn" />
	</node>
<<<<<<< HEAD
	<node lat="70.69722222351854" lon="21.48055553877007" id="-37739">
		<tag k="name" v="Leira" />
		<tag k="ssr:date" v="2021-06-08" />
		<tag k="ssr:gruppe" v="sjøbunn" />
		<tag k="ssr:hovedgruppe" v="sjø" />
		<tag k="ssr:stedsnr" v="936202" />
		<tag k="ssr:type" v="havdyp" />
	</node>
	<node lat="70.66969444677376" lon="21.980236076037546" id="-37797">
		<tag k="name" v="Fuglen" />
=======
	<node id="-901416" lat="70.3394919343" lon="22.4568053416">
		<tag k="name" v="Hamnebukta" />
>>>>>>> e1d4bc35ff8a6074a6f2e91616a996b547c36f15
		<tag k="ssr:date" v="2019-12-27" />
		<tag k="ssr:gruppe" v="navigasjon" />
		<tag k="ssr:hovedgruppe" v="infrastruktur" />
		<tag k="ssr:stedsnr" v="34660" />
		<tag k="ssr:type" v="lanterne" />
	</node>
<<<<<<< HEAD
	<node lat="70.47892778195848" lon="22.173844395059234" id="-37801">
		<tag k="name" v="Hasvik ytre molo" />
		<tag k="ssr:date" v="2019-12-27" />
		<tag k="ssr:gruppe" v="navigasjon" />
		<tag k="ssr:hovedgruppe" v="infrastruktur" />
		<tag k="ssr:stedsnr" v="37253" />
		<tag k="ssr:type" v="lanterne" />
	</node>
	<node lat="70.63495003382428" lon="21.977329130239816" id="-37831">
		<tag k="name" v="Øvre Sørvær" />
		<tag k="ssr:date" v="2020-11-19" />
		<tag k="ssr:gruppe" v="navigasjon" />
		<tag k="ssr:hovedgruppe" v="infrastruktur" />
		<tag k="ssr:stedsnr" v="81719" />
		<tag k="ssr:type" v="fyrlykt" />
	</node>
	<node lat="70.49154670825244" lon="22.588002520790944" id="-37868">
		<tag k="name" v="Karken" />
		<tag k="ssr:date" v="2021-01-05" />
		<tag k="ssr:gruppe" v="navigasjon" />
		<tag k="ssr:hovedgruppe" v="infrastruktur" />
		<tag k="ssr:stedsnr" v="141200" />
		<tag k="ssr:type" v="fyrlykt" />
	</node>
	<node lat="70.49680565444815" lon="22.118893410242208" id="-37903">
		<tag k="name" v="Stangeneset" />
		<tag k="old_name" v="Stangneset" />
		<tag k="ssr:date" v="2021-01-05" />
=======
	<node id="-901102" lat="70.6301555539" lon="21.947630526">
		<tag k="name" v="Kåja" />
		<tag k="ssr:date" v="2019-12-27" />
>>>>>>> e1d4bc35ff8a6074a6f2e91616a996b547c36f15
		<tag k="ssr:gruppe" v="navigasjon" />
		<tag k="ssr:hovedgruppe" v="infrastruktur" />
		<tag k="ssr:stedsnr" v="201262" />
		<tag k="ssr:type" v="fyrlykt" />
	</node>
<<<<<<< HEAD
	<node lat="70.3457638900494" lon="22.47412494634199" id="-38011">
=======
	<node id="-901738" lat="70.34576389" lon="22.4741249463">
>>>>>>> e1d4bc35ff8a6074a6f2e91616a996b547c36f15
		<tag k="name" v="Sørfjorden, Øvre" />
		<tag k="ssr:date" v="2019-12-27" />
		<tag k="ssr:gruppe" v="navigasjon" />
		<tag k="ssr:hovedgruppe" v="infrastruktur" />
		<tag k="ssr:stedsnr" v="340839" />
		<tag k="ssr:type" v="lanterne" />
	</node>
<<<<<<< HEAD
	<node lat="70.5941619450309" lon="22.128199579706834" id="-38126">
		<tag k="name" v="Breivik" />
		<tag k="ssr:date" v="2021-06-08" />
=======
	<node id="-901415" lat="70.6032979634" lon="22.0461654954">
		<tag k="name" v="Finnkollvatnet" />
		<tag k="ssr:date" v="2019-12-27" />
		<tag k="ssr:gruppe" v="veg" />
		<tag k="ssr:hovedgruppe" v="infrastruktur" />
		<tag k="ssr:stedsnr" v="1055118" />
		<tag k="ssr:type" v="adressenavn" />
	</node>
	<node id="-901479" lat="70.6696944468" lon="21.980236076">
		<tag k="name" v="Fuglen" />
		<tag k="ssr:date" v="2019-12-27" />
>>>>>>> e1d4bc35ff8a6074a6f2e91616a996b547c36f15
		<tag k="ssr:gruppe" v="navigasjon" />
		<tag k="ssr:hovedgruppe" v="infrastruktur" />
		<tag k="ssr:stedsnr" v="565739" />
		<tag k="ssr:type" v="fyrlykt" />
	</node>
<<<<<<< HEAD
	<node lat="70.34627221932654" lon="22.47258884868915" id="-38209">
		<tag k="name" v="Sørfjorden, Nedre" />
		<tag k="ssr:date" v="2019-12-27" />
		<tag k="ssr:gruppe" v="navigasjon" />
		<tag k="ssr:hovedgruppe" v="infrastruktur" />
		<tag k="ssr:stedsnr" v="643832" />
		<tag k="ssr:type" v="lanterne" />
	</node>
	<node lat="70.62854722465275" lon="21.964577743628837" id="-38211">
		<tag k="name" v="Sørvær molo" />
=======
	<node id="-901091" lat="70.4814444423" lon="22.1673138581">
		<tag k="name" v="Hasvik, Nordre molo" />
		<tag k="ssr:date" v="2019-12-27" />
		<tag k="ssr:gruppe" v="navigasjon" />
		<tag k="ssr:hovedgruppe" v="infrastruktur" />
		<tag k="ssr:stedsnr" v="519566" />
		<tag k="ssr:type" v="fyrlykt" />
	</node>
	<node id="-901421" lat="70.6024103177" lon="22.3586422727">
		<tag k="name" v="Dalvatnet" />
>>>>>>> e1d4bc35ff8a6074a6f2e91616a996b547c36f15
		<tag k="ssr:date" v="2019-12-27" />
		<tag k="ssr:gruppe" v="navigasjon" />
		<tag k="ssr:hovedgruppe" v="infrastruktur" />
<<<<<<< HEAD
		<tag k="ssr:stedsnr" v="724157" />
		<tag k="ssr:type" v="lanterne" />
	</node>
	<node lat="70.69833333432622" lon="21.749999961954025" id="-38212">
		<tag k="name" v="Reis" />
=======
		<tag k="ssr:stedsnr" v="1055146" />
		<tag k="ssr:type" v="adressenavn" />
	</node>
	<node id="-901563" lat="70.4915500013" lon="22.5880110479">
		<tag k="name" v="Karken" />
>>>>>>> e1d4bc35ff8a6074a6f2e91616a996b547c36f15
		<tag k="ssr:date" v="2019-12-27" />
		<tag k="ssr:gruppe" v="sjøbunn" />
		<tag k="ssr:hovedgruppe" v="sjø" />
		<tag k="ssr:stedsnr" v="727434" />
		<tag k="ssr:type" v="ryggISjø" />
	</node>
	<node lat="70.49103954812476" lon="22.26307786574865" id="-38215">
		<tag k="name" v="Svartskjær" />
		<tag k="old_name" v="Svartskjer" />
		<tag k="ssr:date" v="2020-09-17" />
		<tag k="ssr:gruppe" v="navigasjon" />
		<tag k="ssr:hovedgruppe" v="infrastruktur" />
		<tag k="ssr:stedsnr" v="747187" />
		<tag k="ssr:type" v="fyrlykt" />
	</node>
<<<<<<< HEAD
	<node lat="70.59163333114229" lon="22.302719405485664" id="-38238">
		<tag k="name" v="Hasvik kommune" />
		<tag k="ssr:date" v="2019-12-27" />
		<tag k="ssr:gruppe" v="administrativeIndelinger" />
		<tag k="ssr:hovedgruppe" v="offentligAdministrasjon" />
		<tag k="ssr:stedsnr" v="754360" />
		<tag k="ssr:type" v="kommune" />
	</node>
	<node lat="70.85611111183094" lon="21.833333295045666" id="-38349">
		<tag k="name" v="Sørøydjupet" />
		<tag k="ssr:date" v="2021-06-08" />
		<tag k="ssr:gruppe" v="sjøbunn" />
		<tag k="ssr:hovedgruppe" v="sjø" />
		<tag k="ssr:stedsnr" v="936246" />
		<tag k="ssr:type" v="havdyp" />
	</node>
	<node lat="70.47614444575267" lon="22.088438859270365" id="-38371">
		<tag k="name" v="Lille Håen" />
		<tag k="ssr:date" v="2019-12-27" />
		<tag k="ssr:gruppe" v="navigasjon" />
		<tag k="ssr:hovedgruppe" v="infrastruktur" />
		<tag k="ssr:stedsnr" v="944034" />
		<tag k="ssr:type" v="lanterne" />
	</node>
	<node lat="70.54845809939876" lon="22.60329842412743" id="-38376">
		<tag k="name" v="Offervatnet" />
		<tag k="ssr:date" v="2019-12-27" />
		<tag k="ssr:gruppe" v="veg" />
		<tag k="ssr:hovedgruppe" v="infrastruktur" />
		<tag k="ssr:stedsnr" v="1055087" />
		<tag k="ssr:type" v="adressenavn" />
	</node>
	<node lat="70.65064265512311" lon="22.634405020779003" id="-38377">
		<tag k="name" v="Nordøya" />
=======
	<node id="-901156" lat="70.6310833369" lon="21.9706499659">
		<tag k="name" v="Sørvær, Nedre" />
		<tag k="ssr:date" v="2019-12-27" />
		<tag k="ssr:gruppe" v="navigasjon" />
		<tag k="ssr:hovedgruppe" v="infrastruktur" />
		<tag k="ssr:stedsnr" v="299192" />
		<tag k="ssr:type" v="fyrlykt" />
	</node>
	<node id="-902099" lat="69.6388889725" lon="30.5666644427">
		<tag k="fixme" v="multiple name tags, choose one and add the other to alt_name" />
		<tag k="loc_name:se" v="Norgga gonagasriika" />
		<tag k="loc_name:sma" v="Nöörjen gånkarïjhke" />
		<tag k="loc_name:smj" v="Vuona gånågisrijkka" />
		<tag k="name" v="Noreg;Norge" />
		<tag k="name:en" v="Norway" />
		<tag k="name:no" v="Noreg;Norge" />
		<tag k="ssr:date" v="2020-06-04" />
		<tag k="ssr:gruppe" v="administrativeIndelinger" />
		<tag k="ssr:hovedgruppe" v="offentligAdministrasjon" />
		<tag k="ssr:stedsnr" v="26330" />
		<tag k="ssr:type" v="nasjon" />
	</node>
	<node id="-902095" lat="70.082254032" lon="29.7302846866">
		<tag k="fixme" v="multiple name tags, choose one and add the other to alt_name" />
		<tag k="name" v="Troms og Finnmark;Troms og Finnmark fylke - Romssa ja Finnmárkku fylka - Tromssan ja Finmarkun fylkki" />
		<tag k="name:fkv" v="Tromssan ja Finmarkun fylkki" />
		<tag k="name:no" v="Troms og Finnmark;Troms og Finnmark fylke" />
		<tag k="name:se" v="Romssa ja Finnmárkku fylka" />
		<tag k="ssr:date" v="2020-01-13" />
		<tag k="ssr:gruppe" v="administrativeIndelinger" />
		<tag k="ssr:hovedgruppe" v="offentligAdministrasjon" />
		<tag k="ssr:stedsnr" v="1073694" />
		<tag k="ssr:type" v="fylke" />
	</node>
	<node id="-902094" lat="70.5240730007" lon="22.5899243588">
		<tag k="name" v="Karkefjordbotn" />
>>>>>>> e1d4bc35ff8a6074a6f2e91616a996b547c36f15
		<tag k="ssr:date" v="2019-12-27" />
		<tag k="ssr:gruppe" v="veg" />
		<tag k="ssr:hovedgruppe" v="infrastruktur" />
		<tag k="ssr:stedsnr" v="1055088" />
		<tag k="ssr:type" v="adressenavn" />
	</node>
<<<<<<< HEAD
	<node lat="70.64913925741244" lon="22.600881024113736" id="-38378">
		<tag k="name" v="Vesterøya" />
=======
	<node id="-902093" lat="70.6727602612" lon="22.5926594896">
		<tag k="name" v="Klubben" />
>>>>>>> e1d4bc35ff8a6074a6f2e91616a996b547c36f15
		<tag k="ssr:date" v="2019-12-27" />
		<tag k="ssr:gruppe" v="veg" />
		<tag k="ssr:hovedgruppe" v="infrastruktur" />
		<tag k="ssr:stedsnr" v="1055089" />
		<tag k="ssr:type" v="adressenavn" />
	</node>
<<<<<<< HEAD
	<node lat="70.55835472506472" lon="22.720952401565416" id="-38379">
		<tag k="name" v="Nordbotndalen" />
=======
	<node id="-900940" lat="70.478927782" lon="22.1738443951">
		<tag k="name" v="Hasvik ytre molo" />
>>>>>>> e1d4bc35ff8a6074a6f2e91616a996b547c36f15
		<tag k="ssr:date" v="2019-12-27" />
		<tag k="ssr:gruppe" v="navigasjon" />
		<tag k="ssr:hovedgruppe" v="infrastruktur" />
<<<<<<< HEAD
		<tag k="ssr:stedsnr" v="1055090" />
		<tag k="ssr:type" v="adressenavn" />
	</node>
	<node lat="70.35517818917386" lon="22.413454001855218" id="-38380">
		<tag k="name" v="Roren" />
=======
		<tag k="ssr:stedsnr" v="37253" />
		<tag k="ssr:type" v="lanterne" />
	</node>
	<node id="-902091" lat="70.6120371556" lon="22.2171257003">
		<tag k="name" v="Langnesbukt" />
>>>>>>> e1d4bc35ff8a6074a6f2e91616a996b547c36f15
		<tag k="ssr:date" v="2019-12-27" />
		<tag k="ssr:gruppe" v="veg" />
		<tag k="ssr:hovedgruppe" v="infrastruktur" />
		<tag k="ssr:stedsnr" v="1055093" />
		<tag k="ssr:type" v="adressenavn" />
	</node>
<<<<<<< HEAD
	<node lat="70.535141277538" lon="22.296415745335914" id="-38381">
		<tag k="name" v="Hasfjordbotn" />
=======
	<node id="-902090" lat="70.5812362088" lon="22.2375461387">
		<tag k="name" v="Holmbukta" />
>>>>>>> e1d4bc35ff8a6074a6f2e91616a996b547c36f15
		<tag k="ssr:date" v="2019-12-27" />
		<tag k="ssr:gruppe" v="veg" />
		<tag k="ssr:hovedgruppe" v="infrastruktur" />
		<tag k="ssr:stedsnr" v="1055094" />
		<tag k="ssr:type" v="adressenavn" />
	</node>
<<<<<<< HEAD
	<node lat="70.50731329662239" lon="22.369569300996584" id="-38382">
		<tag k="name" v="Langnes Meltefjorden" />
=======
	<node id="-902089" lat="70.6071683718" lon="22.3067815391">
		<tag k="name" v="Høivika" />
>>>>>>> e1d4bc35ff8a6074a6f2e91616a996b547c36f15
		<tag k="ssr:date" v="2019-12-27" />
		<tag k="ssr:gruppe" v="veg" />
		<tag k="ssr:hovedgruppe" v="infrastruktur" />
		<tag k="ssr:stedsnr" v="1055095" />
		<tag k="ssr:type" v="adressenavn" />
	</node>
<<<<<<< HEAD
	<node lat="70.64659527579934" lon="22.806767376088672" id="-38383">
		<tag k="name" v="Nordfjorden" />
=======
	<node id="-902088" lat="70.5301098588" lon="22.6847862544">
		<tag k="name" v="Indre Oksevika" />
>>>>>>> e1d4bc35ff8a6074a6f2e91616a996b547c36f15
		<tag k="ssr:date" v="2019-12-27" />
		<tag k="ssr:gruppe" v="veg" />
		<tag k="ssr:hovedgruppe" v="infrastruktur" />
		<tag k="ssr:stedsnr" v="1055096" />
		<tag k="ssr:type" v="adressenavn" />
	</node>
<<<<<<< HEAD
	<node lat="70.71193677129558" lon="22.395413985384533" id="-38384">
		<tag k="name" v="Steinskardbukta Østre" />
=======
	<node id="-902087" lat="70.6888938353" lon="22.4272262746">
		<tag k="name" v="Inner Bøle" />
>>>>>>> e1d4bc35ff8a6074a6f2e91616a996b547c36f15
		<tag k="ssr:date" v="2019-12-27" />
		<tag k="ssr:gruppe" v="veg" />
		<tag k="ssr:hovedgruppe" v="infrastruktur" />
		<tag k="ssr:stedsnr" v="1055098" />
		<tag k="ssr:type" v="adressenavn" />
	</node>
<<<<<<< HEAD
	<node lat="70.62813484285947" lon="22.10948438350102" id="-38385">
		<tag k="name" v="Sandfjordvatnet" />
=======
	<node id="-902086" lat="70.6197666385" lon="22.6956217976">
		<tag k="name" v="Melkenes" />
>>>>>>> e1d4bc35ff8a6074a6f2e91616a996b547c36f15
		<tag k="ssr:date" v="2019-12-27" />
		<tag k="ssr:gruppe" v="veg" />
		<tag k="ssr:hovedgruppe" v="infrastruktur" />
		<tag k="ssr:stedsnr" v="1055099" />
		<tag k="ssr:type" v="adressenavn" />
	</node>
<<<<<<< HEAD
	<node lat="70.6539287229466" lon="21.99300935488129" id="-38386">
		<tag k="name" v="Darup" />
=======
	<node id="-902085" lat="70.4960754631" lon="22.3544080001">
		<tag k="name" v="Meltefjorden søndre" />
>>>>>>> e1d4bc35ff8a6074a6f2e91616a996b547c36f15
		<tag k="ssr:date" v="2019-12-27" />
		<tag k="ssr:gruppe" v="veg" />
		<tag k="ssr:hovedgruppe" v="infrastruktur" />
		<tag k="ssr:stedsnr" v="1055100" />
		<tag k="ssr:type" v="adressenavn" />
	</node>
<<<<<<< HEAD
	<node lat="70.63240008576217" lon="22.70467875933587" id="-38387">
		<tag k="name" v="Thomasnes" />
=======
	<node id="-902084" lat="70.3616720599" lon="22.5527873621">
		<tag k="name" v="Midtbukta" />
>>>>>>> e1d4bc35ff8a6074a6f2e91616a996b547c36f15
		<tag k="ssr:date" v="2019-12-27" />
		<tag k="ssr:gruppe" v="veg" />
		<tag k="ssr:hovedgruppe" v="infrastruktur" />
		<tag k="ssr:stedsnr" v="1055104" />
		<tag k="ssr:type" v="adressenavn" />
	</node>
<<<<<<< HEAD
	<node lat="70.66709591927207" lon="22.575262269524565" id="-38388">
		<tag k="name" v="Internatbukta" />
=======
	<node id="-902083" lat="70.6497663512" lon="22.6228369047">
		<tag k="name" v="Midtøya" />
>>>>>>> e1d4bc35ff8a6074a6f2e91616a996b547c36f15
		<tag k="ssr:date" v="2019-12-27" />
		<tag k="ssr:gruppe" v="veg" />
		<tag k="ssr:hovedgruppe" v="infrastruktur" />
		<tag k="ssr:stedsnr" v="1055105" />
		<tag k="ssr:type" v="adressenavn" />
	</node>
<<<<<<< HEAD
	<node lat="70.52307707658804" lon="22.665219965201743" id="-38389">
		<tag k="name" v="Øyfjordholmen" />
=======
	<node id="-902082" lat="70.6177607034" lon="22.7536383286">
		<tag k="name" v="Multebærtoppen" />
>>>>>>> e1d4bc35ff8a6074a6f2e91616a996b547c36f15
		<tag k="ssr:date" v="2019-12-27" />
		<tag k="ssr:gruppe" v="veg" />
		<tag k="ssr:hovedgruppe" v="infrastruktur" />
		<tag k="ssr:stedsnr" v="1055109" />
		<tag k="ssr:type" v="adressenavn" />
	</node>
<<<<<<< HEAD
	<node lat="70.59763394709195" lon="22.38486352303923" id="-38390">
		<tag k="name" v="Øvre Eggevann" />
=======
	<node id="-902081" lat="70.5565410007" lon="22.6406710521">
		<tag k="name" v="Mebotnen" />
>>>>>>> e1d4bc35ff8a6074a6f2e91616a996b547c36f15
		<tag k="ssr:date" v="2019-12-27" />
		<tag k="ssr:gruppe" v="veg" />
		<tag k="ssr:hovedgruppe" v="infrastruktur" />
		<tag k="ssr:stedsnr" v="1055110" />
		<tag k="ssr:type" v="adressenavn" />
	</node>
<<<<<<< HEAD
	<node lat="70.69087806389776" lon="22.417548071389792" id="-38391">
		<tag k="name" v="Ytter Bøle" />
=======
	<node id="-902080" lat="70.6232824911" lon="22.7227197342">
		<tag k="name" v="Børrabukta" />
>>>>>>> e1d4bc35ff8a6074a6f2e91616a996b547c36f15
		<tag k="ssr:date" v="2019-12-27" />
		<tag k="ssr:gruppe" v="veg" />
		<tag k="ssr:hovedgruppe" v="infrastruktur" />
		<tag k="ssr:stedsnr" v="1055111" />
		<tag k="ssr:type" v="adressenavn" />
	</node>
<<<<<<< HEAD
	<node lat="70.72156935043006" lon="22.71915919581779" id="-38392">
		<tag k="name" v="Galten" />
=======
	<node id="-902079" lat="70.6354586699" lon="22.7135091296">
		<tag k="name" v="Børrfjordvik" />
>>>>>>> e1d4bc35ff8a6074a6f2e91616a996b547c36f15
		<tag k="ssr:date" v="2019-12-27" />
		<tag k="ssr:gruppe" v="veg" />
		<tag k="ssr:hovedgruppe" v="infrastruktur" />
		<tag k="ssr:stedsnr" v="1055114" />
		<tag k="ssr:type" v="adressenavn" />
	</node>
<<<<<<< HEAD
	<node lat="70.60329796336504" lon="22.046165495436767" id="-38393">
		<tag k="name" v="Finnkollvatnet" />
=======
	<node id="-902078" lat="70.6178939266" lon="22.7115843407">
		<tag k="name" v="Børstrand" />
>>>>>>> e1d4bc35ff8a6074a6f2e91616a996b547c36f15
		<tag k="ssr:date" v="2019-12-27" />
		<tag k="ssr:gruppe" v="veg" />
		<tag k="ssr:hovedgruppe" v="infrastruktur" />
		<tag k="ssr:stedsnr" v="1055118" />
		<tag k="ssr:type" v="adressenavn" />
	</node>
<<<<<<< HEAD
	<node lat="70.33949193434715" lon="22.456805341558372" id="-38394">
		<tag k="name" v="Hamnebukta" />
=======
	<node id="-902077" lat="70.6908780639" lon="22.4175480714">
		<tag k="name" v="Ytter Bøle" />
>>>>>>> e1d4bc35ff8a6074a6f2e91616a996b547c36f15
		<tag k="ssr:date" v="2019-12-27" />
		<tag k="ssr:gruppe" v="veg" />
		<tag k="ssr:hovedgruppe" v="infrastruktur" />
		<tag k="ssr:stedsnr" v="1055127" />
		<tag k="ssr:type" v="adressenavn" />
	</node>
<<<<<<< HEAD
	<node lat="70.34157316159391" lon="22.454529090039273" id="-38395">
		<tag k="name" v="Hammarbukta" />
=======
	<node id="-902076" lat="70.5976339471" lon="22.384863523">
		<tag k="name" v="Øvre Eggevann" />
>>>>>>> e1d4bc35ff8a6074a6f2e91616a996b547c36f15
		<tag k="ssr:date" v="2019-12-27" />
		<tag k="ssr:gruppe" v="veg" />
		<tag k="ssr:hovedgruppe" v="infrastruktur" />
		<tag k="ssr:stedsnr" v="1055128" />
		<tag k="ssr:type" v="adressenavn" />
	</node>
<<<<<<< HEAD
	<node lat="70.50357713077756" lon="22.539673583877878" id="-38396">
		<tag k="name" v="Grunnfjorden" />
=======
	<node id="-902075" lat="70.5230770766" lon="22.6652199652">
		<tag k="name" v="Øyfjordholmen" />
>>>>>>> e1d4bc35ff8a6074a6f2e91616a996b547c36f15
		<tag k="ssr:date" v="2019-12-27" />
		<tag k="ssr:gruppe" v="veg" />
		<tag k="ssr:hovedgruppe" v="infrastruktur" />
		<tag k="ssr:stedsnr" v="1055130" />
		<tag k="ssr:type" v="adressenavn" />
	</node>
<<<<<<< HEAD
	<node lat="70.67307723896512" lon="22.470832026297142" id="-38397">
		<tag k="name" v="Bølestraumen" />
=======
	<node id="-902074" lat="70.6670959193" lon="22.5752622695">
		<tag k="name" v="Internatbukta" />
>>>>>>> e1d4bc35ff8a6074a6f2e91616a996b547c36f15
		<tag k="ssr:date" v="2019-12-27" />
		<tag k="ssr:gruppe" v="veg" />
		<tag k="ssr:hovedgruppe" v="infrastruktur" />
		<tag k="ssr:stedsnr" v="1055132" />
		<tag k="ssr:type" v="adressenavn" />
	</node>
<<<<<<< HEAD
	<node lat="70.6008637998061" lon="22.378003911994252" id="-38398">
		<tag k="name" v="Smalvatnet" />
=======
	<node id="-902073" lat="70.6324000858" lon="22.7046787593">
		<tag k="name" v="Thomasnes" />
>>>>>>> e1d4bc35ff8a6074a6f2e91616a996b547c36f15
		<tag k="ssr:date" v="2019-12-27" />
		<tag k="ssr:gruppe" v="veg" />
		<tag k="ssr:hovedgruppe" v="infrastruktur" />
		<tag k="ssr:stedsnr" v="1055072" />
		<tag k="ssr:type" v="adressenavn" />
	</node>
<<<<<<< HEAD
	<node lat="70.3491515602242" lon="22.590855660171055" id="-38399">
		<tag k="name" v="Smalfjordbotn" />
=======
	<node id="-902072" lat="70.6539287229" lon="21.9930093549">
		<tag k="name" v="Darup" />
>>>>>>> e1d4bc35ff8a6074a6f2e91616a996b547c36f15
		<tag k="ssr:date" v="2019-12-27" />
		<tag k="ssr:gruppe" v="veg" />
		<tag k="ssr:hovedgruppe" v="infrastruktur" />
		<tag k="ssr:stedsnr" v="1055073" />
		<tag k="ssr:type" v="adressenavn" />
	</node>
<<<<<<< HEAD
	<node lat="70.60525059237513" lon="22.442783527768658" id="-38400">
		<tag k="name" v="Sluskefjellet" />
=======
	<node id="-902071" lat="70.6281348429" lon="22.1094843835">
		<tag k="name" v="Sandfjordvatnet" />
>>>>>>> e1d4bc35ff8a6074a6f2e91616a996b547c36f15
		<tag k="ssr:date" v="2019-12-27" />
		<tag k="ssr:gruppe" v="veg" />
		<tag k="ssr:hovedgruppe" v="infrastruktur" />
		<tag k="ssr:stedsnr" v="1055074" />
		<tag k="ssr:type" v="adressenavn" />
	</node>
<<<<<<< HEAD
	<node lat="70.48939184211085" lon="22.451155234333136" id="-38401">
		<tag k="name" v="Skallneset" />
=======
	<node id="-902070" lat="70.7119367713" lon="22.3954139854">
		<tag k="name" v="Steinskardbukta Østre" />
>>>>>>> e1d4bc35ff8a6074a6f2e91616a996b547c36f15
		<tag k="ssr:date" v="2019-12-27" />
		<tag k="ssr:gruppe" v="veg" />
		<tag k="ssr:hovedgruppe" v="infrastruktur" />
		<tag k="ssr:stedsnr" v="1055076" />
		<tag k="ssr:type" v="adressenavn" />
	</node>
<<<<<<< HEAD
	<node lat="70.34667997791085" lon="22.448523179201455" id="-38402">
		<tag k="name" v="Sennanes" />
=======
	<node id="-902069" lat="70.6465952758" lon="22.8067673761">
		<tag k="name" v="Nordfjorden" />
>>>>>>> e1d4bc35ff8a6074a6f2e91616a996b547c36f15
		<tag k="ssr:date" v="2019-12-27" />
		<tag k="ssr:gruppe" v="veg" />
		<tag k="ssr:hovedgruppe" v="infrastruktur" />
		<tag k="ssr:stedsnr" v="1055077" />
		<tag k="ssr:type" v="adressenavn" />
	</node>
<<<<<<< HEAD
	<node lat="70.64332906869082" lon="22.772447982259038" id="-38403">
		<tag k="name" v="Seinnesbuktvatnet" />
=======
	<node id="-902068" lat="70.5073132966" lon="22.369569301">
		<tag k="name" v="Langnes Meltefjorden" />
>>>>>>> e1d4bc35ff8a6074a6f2e91616a996b547c36f15
		<tag k="ssr:date" v="2019-12-27" />
		<tag k="ssr:gruppe" v="veg" />
		<tag k="ssr:hovedgruppe" v="infrastruktur" />
		<tag k="ssr:stedsnr" v="1055078" />
		<tag k="ssr:type" v="adressenavn" />
	</node>
<<<<<<< HEAD
	<node lat="70.32186292680251" lon="22.496148426628377" id="-38404">
		<tag k="name" v="Sørfjorden" />
=======
	<node id="-902067" lat="70.5351412775" lon="22.2964157453">
		<tag k="name" v="Hasfjordbotn" />
>>>>>>> e1d4bc35ff8a6074a6f2e91616a996b547c36f15
		<tag k="ssr:date" v="2019-12-27" />
		<tag k="ssr:gruppe" v="veg" />
		<tag k="ssr:hovedgruppe" v="infrastruktur" />
		<tag k="ssr:stedsnr" v="1055079" />
		<tag k="ssr:type" v="adressenavn" />
	</node>
<<<<<<< HEAD
	<node lat="70.5478153016928" lon="22.61074419408379" id="-38405">
		<tag k="name" v="Sørbotn" />
=======
	<node id="-902066" lat="70.3551781892" lon="22.4134540019">
		<tag k="name" v="Roren" />
>>>>>>> e1d4bc35ff8a6074a6f2e91616a996b547c36f15
		<tag k="ssr:date" v="2019-12-27" />
		<tag k="ssr:gruppe" v="veg" />
		<tag k="ssr:hovedgruppe" v="infrastruktur" />
		<tag k="ssr:stedsnr" v="1055080" />
		<tag k="ssr:type" v="adressenavn" />
	</node>
<<<<<<< HEAD
	<node lat="70.67626522398837" lon="22.511356091206935" id="-38406">
		<tag k="name" v="Søndre Langkjeila" />
=======
	<node id="-902065" lat="70.5583547251" lon="22.7209524016">
		<tag k="name" v="Nordbotndalen" />
>>>>>>> e1d4bc35ff8a6074a6f2e91616a996b547c36f15
		<tag k="ssr:date" v="2019-12-27" />
		<tag k="ssr:gruppe" v="veg" />
		<tag k="ssr:hovedgruppe" v="infrastruktur" />
		<tag k="ssr:stedsnr" v="1055081" />
		<tag k="ssr:type" v="adressenavn" />
	</node>
<<<<<<< HEAD
	<node lat="70.61078270494245" lon="22.713783519720007" id="-38407">
		<tag k="name" v="Storvatnet" />
=======
	<node id="-902064" lat="70.6491392574" lon="22.6008810241">
		<tag k="name" v="Vesterøya" />
>>>>>>> e1d4bc35ff8a6074a6f2e91616a996b547c36f15
		<tag k="ssr:date" v="2019-12-27" />
		<tag k="ssr:gruppe" v="veg" />
		<tag k="ssr:hovedgruppe" v="infrastruktur" />
		<tag k="ssr:stedsnr" v="1055082" />
		<tag k="ssr:type" v="adressenavn" />
	</node>
<<<<<<< HEAD
	<node lat="70.65368935549824" lon="22.549123733334433" id="-38408">
		<tag k="name" v="Storbukta" />
=======
	<node id="-902063" lat="70.6506426551" lon="22.6344050208">
		<tag k="name" v="Nordøya" />
>>>>>>> e1d4bc35ff8a6074a6f2e91616a996b547c36f15
		<tag k="ssr:date" v="2019-12-27" />
		<tag k="ssr:gruppe" v="veg" />
		<tag k="ssr:hovedgruppe" v="infrastruktur" />
		<tag k="ssr:stedsnr" v="1055083" />
		<tag k="ssr:type" v="adressenavn" />
	</node>
<<<<<<< HEAD
	<node lat="70.67349583803653" lon="22.602064519750826" id="-38409">
		<tag k="name" v="Gammelheim" />
=======
	<node id="-902062" lat="70.5484580994" lon="22.6032984241">
		<tag k="name" v="Offervatnet" />
>>>>>>> e1d4bc35ff8a6074a6f2e91616a996b547c36f15
		<tag k="ssr:date" v="2019-12-27" />
		<tag k="ssr:gruppe" v="veg" />
		<tag k="ssr:hovedgruppe" v="infrastruktur" />
		<tag k="ssr:stedsnr" v="1055136" />
		<tag k="ssr:type" v="adressenavn" />
	</node>
<<<<<<< HEAD
	<node lat="70.60241031772419" lon="22.35864227266005" id="-38410">
		<tag k="name" v="Dalvatnet" />
=======
	<node id="-902061" lat="70.6536893555" lon="22.5491237333">
		<tag k="name" v="Storbukta" />
>>>>>>> e1d4bc35ff8a6074a6f2e91616a996b547c36f15
		<tag k="ssr:date" v="2019-12-27" />
		<tag k="ssr:gruppe" v="veg" />
		<tag k="ssr:hovedgruppe" v="infrastruktur" />
		<tag k="ssr:stedsnr" v="1055146" />
		<tag k="ssr:type" v="adressenavn" />
	</node>
<<<<<<< HEAD
	<node lat="70.61789392660417" lon="22.711584340709486" id="-38411">
		<tag k="name" v="Børstrand" />
=======
	<node id="-902060" lat="70.6107827049" lon="22.7137835197">
		<tag k="name" v="Storvatnet" />
>>>>>>> e1d4bc35ff8a6074a6f2e91616a996b547c36f15
		<tag k="ssr:date" v="2019-12-27" />
		<tag k="ssr:gruppe" v="veg" />
		<tag k="ssr:hovedgruppe" v="infrastruktur" />
		<tag k="ssr:stedsnr" v="1055149" />
		<tag k="ssr:type" v="adressenavn" />
	</node>
<<<<<<< HEAD
	<node lat="70.63545866990961" lon="22.713509129645853" id="-38412">
		<tag k="name" v="Børrfjordvik" />
=======
	<node id="-902059" lat="70.676265224" lon="22.5113560912">
		<tag k="name" v="Søndre Langkjeila" />
>>>>>>> e1d4bc35ff8a6074a6f2e91616a996b547c36f15
		<tag k="ssr:date" v="2019-12-27" />
		<tag k="ssr:gruppe" v="veg" />
		<tag k="ssr:hovedgruppe" v="infrastruktur" />
		<tag k="ssr:stedsnr" v="1055151" />
		<tag k="ssr:type" v="adressenavn" />
	</node>
<<<<<<< HEAD
	<node lat="70.62328249112426" lon="22.72271973419353" id="-38413">
		<tag k="name" v="Børrabukta" />
=======
	<node id="-902058" lat="70.5478153017" lon="22.6107441941">
		<tag k="name" v="Sørbotn" />
>>>>>>> e1d4bc35ff8a6074a6f2e91616a996b547c36f15
		<tag k="ssr:date" v="2019-12-27" />
		<tag k="ssr:gruppe" v="veg" />
		<tag k="ssr:hovedgruppe" v="infrastruktur" />
		<tag k="ssr:stedsnr" v="1055153" />
		<tag k="ssr:type" v="adressenavn" />
	</node>
<<<<<<< HEAD
	<node lat="70.55654100071601" lon="22.640671052058998" id="-38414">
		<tag k="name" v="Mebotnen" />
=======
	<node id="-902057" lat="70.3218629268" lon="22.4961484266">
		<tag k="name" v="Sørfjorden" />
>>>>>>> e1d4bc35ff8a6074a6f2e91616a996b547c36f15
		<tag k="ssr:date" v="2019-12-27" />
		<tag k="ssr:gruppe" v="veg" />
		<tag k="ssr:hovedgruppe" v="infrastruktur" />
		<tag k="ssr:stedsnr" v="1055160" />
		<tag k="ssr:type" v="adressenavn" />
	</node>
<<<<<<< HEAD
	<node lat="70.61776070337152" lon="22.753638328635244" id="-38415">
		<tag k="name" v="Multebærtoppen" />
=======
	<node id="-902056" lat="70.6433290687" lon="22.7724479823">
		<tag k="name" v="Seinnesbuktvatnet" />
>>>>>>> e1d4bc35ff8a6074a6f2e91616a996b547c36f15
		<tag k="ssr:date" v="2019-12-27" />
		<tag k="ssr:gruppe" v="veg" />
		<tag k="ssr:hovedgruppe" v="infrastruktur" />
		<tag k="ssr:stedsnr" v="1055167" />
		<tag k="ssr:type" v="adressenavn" />
	</node>
<<<<<<< HEAD
	<node lat="70.64976635118185" lon="22.622836904688185" id="-38416">
		<tag k="name" v="Midtøya" />
=======
	<node id="-902055" lat="70.3466799779" lon="22.4485231792">
		<tag k="name" v="Sennanes" />
>>>>>>> e1d4bc35ff8a6074a6f2e91616a996b547c36f15
		<tag k="ssr:date" v="2019-12-27" />
		<tag k="ssr:gruppe" v="veg" />
		<tag k="ssr:hovedgruppe" v="infrastruktur" />
		<tag k="ssr:stedsnr" v="1055168" />
		<tag k="ssr:type" v="adressenavn" />
	</node>
<<<<<<< HEAD
	<node lat="70.36167205989534" lon="22.55278736210634" id="-38417">
		<tag k="name" v="Midtbukta" />
=======
	<node id="-902054" lat="70.4893918421" lon="22.4511552343">
		<tag k="name" v="Skallneset" />
>>>>>>> e1d4bc35ff8a6074a6f2e91616a996b547c36f15
		<tag k="ssr:date" v="2019-12-27" />
		<tag k="ssr:gruppe" v="veg" />
		<tag k="ssr:hovedgruppe" v="infrastruktur" />
		<tag k="ssr:stedsnr" v="1055169" />
		<tag k="ssr:type" v="adressenavn" />
	</node>
<<<<<<< HEAD
	<node lat="70.4960754630871" lon="22.35440800007728" id="-38418">
		<tag k="name" v="Meltefjorden søndre" />
=======
	<node id="-902053" lat="70.6052505924" lon="22.4427835278">
		<tag k="name" v="Sluskefjellet" />
>>>>>>> e1d4bc35ff8a6074a6f2e91616a996b547c36f15
		<tag k="ssr:date" v="2019-12-27" />
		<tag k="ssr:gruppe" v="veg" />
		<tag k="ssr:hovedgruppe" v="infrastruktur" />
		<tag k="ssr:stedsnr" v="1055170" />
		<tag k="ssr:type" v="adressenavn" />
	</node>
<<<<<<< HEAD
	<node lat="70.61976663848797" lon="22.695621797604776" id="-38419">
		<tag k="name" v="Melkenes" />
=======
	<node id="-902052" lat="70.3491515602" lon="22.5908556602">
		<tag k="name" v="Smalfjordbotn" />
>>>>>>> e1d4bc35ff8a6074a6f2e91616a996b547c36f15
		<tag k="ssr:date" v="2019-12-27" />
		<tag k="ssr:gruppe" v="veg" />
		<tag k="ssr:hovedgruppe" v="infrastruktur" />
		<tag k="ssr:stedsnr" v="1055171" />
		<tag k="ssr:type" v="adressenavn" />
	</node>
<<<<<<< HEAD
	<node lat="70.68889383525945" lon="22.427226274648667" id="-38420">
		<tag k="name" v="Inner Bøle" />
=======
	<node id="-902051" lat="70.6008637998" lon="22.378003912">
		<tag k="name" v="Smalvatnet" />
>>>>>>> e1d4bc35ff8a6074a6f2e91616a996b547c36f15
		<tag k="ssr:date" v="2019-12-27" />
		<tag k="ssr:gruppe" v="veg" />
		<tag k="ssr:hovedgruppe" v="infrastruktur" />
		<tag k="ssr:stedsnr" v="1055173" />
		<tag k="ssr:type" v="adressenavn" />
	</node>
<<<<<<< HEAD
	<node lat="70.53010985876362" lon="22.684786254440233" id="-38421">
		<tag k="name" v="Indre Oksevika" />
=======
	<node id="-901813" lat="70.5941277773" lon="22.1283305257">
		<tag k="name" v="Breivik" />
>>>>>>> e1d4bc35ff8a6074a6f2e91616a996b547c36f15
		<tag k="ssr:date" v="2019-12-27" />
		<tag k="ssr:gruppe" v="veg" />
		<tag k="ssr:hovedgruppe" v="infrastruktur" />
<<<<<<< HEAD
		<tag k="ssr:stedsnr" v="1055174" />
		<tag k="ssr:type" v="adressenavn" />
	</node>
	<node lat="70.60716837181414" lon="22.306781539061976" id="-38422">
		<tag k="name" v="Høivika" />
=======
		<tag k="ssr:stedsnr" v="565739" />
		<tag k="ssr:type" v="fyrlykt" />
	</node>
	<node id="-901918" lat="70.4910138874" lon="22.263072179">
		<tag k="name" v="Svartskjær" />
		<tag k="old_name" v="Svartskjer" />
>>>>>>> e1d4bc35ff8a6074a6f2e91616a996b547c36f15
		<tag k="ssr:date" v="2019-12-27" />
		<tag k="ssr:gruppe" v="navigasjon" />
		<tag k="ssr:hovedgruppe" v="infrastruktur" />
<<<<<<< HEAD
		<tag k="ssr:stedsnr" v="1055176" />
		<tag k="ssr:type" v="adressenavn" />
	</node>
	<node lat="70.58123620883795" lon="22.23754613871511" id="-38423">
		<tag k="name" v="Holmbukta" />
=======
		<tag k="ssr:stedsnr" v="747187" />
		<tag k="ssr:type" v="fyrlykt" />
	</node>
	<node id="-901915" lat="70.3462722193" lon="22.4725888487">
		<tag k="name" v="Sørfjorden, Nedre" />
>>>>>>> e1d4bc35ff8a6074a6f2e91616a996b547c36f15
		<tag k="ssr:date" v="2019-12-27" />
		<tag k="ssr:gruppe" v="veg" />
		<tag k="ssr:hovedgruppe" v="infrastruktur" />
		<tag k="ssr:stedsnr" v="1055177" />
		<tag k="ssr:type" v="adressenavn" />
	</node>
<<<<<<< HEAD
	<node lat="70.61203715560909" lon="22.217125700255817" id="-38424">
		<tag k="name" v="Langnesbukt" />
		<tag k="ssr:date" v="2019-12-27" />
		<tag k="ssr:gruppe" v="veg" />
		<tag k="ssr:hovedgruppe" v="infrastruktur" />
		<tag k="ssr:stedsnr" v="1055180" />
		<tag k="ssr:type" v="adressenavn" />
	</node>
	<node lat="70.67915742693563" lon="22.520111769109818" id="-38425">
		<tag k="name" v="Langkeila" />
=======
	<node id="-901940" lat="70.5916333311" lon="22.3027194055">
		<tag k="name" v="Hasvik kommune" />
		<tag k="ssr:date" v="2019-12-27" />
		<tag k="ssr:gruppe" v="administrativeIndelinger" />
		<tag k="ssr:hovedgruppe" v="offentligAdministrasjon" />
		<tag k="ssr:stedsnr" v="754360" />
		<tag k="ssr:type" v="kommune" />
	</node>
	<node id="-901397" lat="70.4761444458" lon="22.0884388593">
		<tag k="name" v="Lille Håen" />
>>>>>>> e1d4bc35ff8a6074a6f2e91616a996b547c36f15
		<tag k="ssr:date" v="2019-12-27" />
		<tag k="ssr:gruppe" v="veg" />
		<tag k="ssr:hovedgruppe" v="infrastruktur" />
		<tag k="ssr:stedsnr" v="1055181" />
		<tag k="ssr:type" v="adressenavn" />
	</node>
<<<<<<< HEAD
	<node lat="70.67276026121465" lon="22.592659489557903" id="-38426">
		<tag k="name" v="Klubben" />
=======
	<node id="-901521" lat="70.6349666709" lon="21.9773360874">
		<tag k="name" v="Øvre Sørvær" />
>>>>>>> e1d4bc35ff8a6074a6f2e91616a996b547c36f15
		<tag k="ssr:date" v="2019-12-27" />
		<tag k="ssr:gruppe" v="veg" />
		<tag k="ssr:hovedgruppe" v="infrastruktur" />
		<tag k="ssr:stedsnr" v="1055183" />
		<tag k="ssr:type" v="adressenavn" />
	</node>
<<<<<<< HEAD
	<node lat="70.52407300066307" lon="22.589924358802232" id="-38427">
		<tag k="name" v="Karkefjordbotn" />
		<tag k="ssr:date" v="2019-12-27" />
		<tag k="ssr:gruppe" v="veg" />
		<tag k="ssr:hovedgruppe" v="infrastruktur" />
		<tag k="ssr:stedsnr" v="1055185" />
=======
	<node id="-901419" lat="70.673077239" lon="22.4708320263">
		<tag k="name" v="Bølestraumen" />
		<tag k="ssr:date" v="2019-12-27" />
		<tag k="ssr:gruppe" v="veg" />
		<tag k="ssr:hovedgruppe" v="infrastruktur" />
		<tag k="ssr:stedsnr" v="1055132" />
		<tag k="ssr:type" v="adressenavn" />
	</node>
	<node id="-901005" lat="70.4967666688" lon="22.118883284">
		<tag k="name" v="Stangeneset" />
		<tag k="old_name" v="Stangneset" />
		<tag k="ssr:date" v="2019-12-27" />
		<tag k="ssr:gruppe" v="navigasjon" />
		<tag k="ssr:hovedgruppe" v="infrastruktur" />
		<tag k="ssr:stedsnr" v="201262" />
		<tag k="ssr:type" v="fyrlykt" />
	</node>
	<node id="-901259" lat="70.6285472247" lon="21.9645777436">
		<tag k="name" v="Sørvær molo" />
		<tag k="ssr:date" v="2019-12-27" />
		<tag k="ssr:gruppe" v="navigasjon" />
		<tag k="ssr:hovedgruppe" v="infrastruktur" />
		<tag k="ssr:stedsnr" v="724157" />
		<tag k="ssr:type" v="lanterne" />
	</node>
	<node id="-901897" lat="70.7175250037" lon="22.6838888282">
		<tag k="name" v="Flatøy" />
		<tag k="old_name" v="Flatøya" />
		<tag k="ssr:date" v="2019-12-27" />
		<tag k="ssr:gruppe" v="navigasjon" />
		<tag k="ssr:hovedgruppe" v="infrastruktur" />
		<tag k="ssr:stedsnr" v="626757" />
		<tag k="ssr:type" v="fyrlykt" />
	</node>
	<node id="-901420" lat="70.673495838" lon="22.6020645198">
		<tag k="name" v="Gammelheim" />
		<tag k="ssr:date" v="2019-12-27" />
		<tag k="ssr:gruppe" v="veg" />
		<tag k="ssr:hovedgruppe" v="infrastruktur" />
		<tag k="ssr:stedsnr" v="1055136" />
		<tag k="ssr:type" v="adressenavn" />
	</node>
	<node id="-902092" lat="70.6791574269" lon="22.5201117691">
		<tag k="name" v="Langkeila" />
		<tag k="ssr:date" v="2019-12-27" />
		<tag k="ssr:gruppe" v="veg" />
		<tag k="ssr:hovedgruppe" v="infrastruktur" />
		<tag k="ssr:stedsnr" v="1055181" />
>>>>>>> e1d4bc35ff8a6074a6f2e91616a996b547c36f15
		<tag k="ssr:type" v="adressenavn" />
	</node>
	<node lat="70.08225403199775" lon="29.73028468656217" id="-38428">
		<tag k="fixme" v="multiple name tags, choose one and add the other to alt_name" />
		<tag k="name" v="Troms og Finnmark;Troms og Finnmark fylke - Romssa ja Finnmárkku fylka - Tromssan ja Finmarkun fylkki" />
		<tag k="name:fkv" v="Tromssan ja Finmarkun fylkki" />
		<tag k="name:no" v="Troms og Finnmark;Troms og Finnmark fylke" />
		<tag k="name:se" v="Romssa ja Finnmárkku fylka" />
		<tag k="ssr:date" v="2021-06-08" />
		<tag k="ssr:gruppe" v="administrativeIndelinger" />
		<tag k="ssr:hovedgruppe" v="offentligAdministrasjon" />
		<tag k="ssr:stedsnr" v="1073694" />
		<tag k="ssr:type" v="fylke" />
	</node>
</osm>
