<?xml version="1.0" encoding="UTF-8"?>
<osm version="0.6" generator="osmapis">
	<node lat="59.383836108861175" lon="10.995597215480878" id="-24404">
		<tag k="name" v="Stokklidalsveien" />
		<tag k="ssr:date" v="2019-12-27" />
		<tag k="ssr:gruppe" v="veg" />
		<tag k="ssr:hovedgruppe" v="infrastruktur" />
		<tag k="ssr:stedsnr" v="476041" />
		<tag k="ssr:type" v="vegstrekning" />
	</node>
	<node lat="59.39448333246404" lon="11.007794439556818" id="-24750">
		<tag k="name" v="Ravnsjøveien" />
		<tag k="ssr:date" v="2019-12-27" />
		<tag k="ssr:gruppe" v="veg" />
		<tag k="ssr:hovedgruppe" v="infrastruktur" />
		<tag k="ssr:stedsnr" v="658031" />
		<tag k="ssr:type" v="vegstrekning" />
	</node>
	<node lat="59.391166670874014" lon="11.009041661640378" id="-24822">
		<tag k="name" v="Merrasprengbakken" />
		<tag k="ssr:date" v="2019-12-27" />
		<tag k="ssr:gruppe" v="veg" />
		<tag k="ssr:hovedgruppe" v="infrastruktur" />
		<tag k="ssr:stedsnr" v="901029" />
		<tag k="ssr:type" v="vegstrekning" />
	</node>
	<node lat="59.10765666377713" lon="11.16968022015282" id="-25122">
		<tag k="name" v="Haslauflu" />
		<tag k="old_name" v="Haslauflua;Haslauflu lykt" />
		<tag k="ssr:date" v="2020-09-01" />
		<tag k="ssr:gruppe" v="navigasjon" />
		<tag k="ssr:hovedgruppe" v="infrastruktur" />
		<tag k="ssr:stedsnr" v="1850" />
		<tag k="ssr:type" v="fyrlykt" />
	</node>
	<node lat="59.267233337805976" lon="11.070224992229269" id="-25174">
		<tag k="name" v="Helleskjæret lykt" />
		<tag k="ssr:date" v="2019-12-27" />
		<tag k="ssr:gruppe" v="navigasjon" />
		<tag k="ssr:hovedgruppe" v="infrastruktur" />
		<tag k="ssr:stedsnr" v="39800" />
		<tag k="ssr:type" v="fyrlykt" />
	</node>
	<node lat="59.1084861068604" lon="11.18081111591066" id="-25257">
		<tag k="name" v="Haslaurenna" />
		<tag k="ssr:date" v="2019-12-27" />
		<tag k="ssr:gruppe" v="sjøbunn" />
		<tag k="ssr:hovedgruppe" v="sjø" />
		<tag k="ssr:stedsnr" v="118251" />
		<tag k="ssr:type" v="renneKløftISjø" />
	</node>
	<node lat="59.125213946647996" lon="11.179579335056578" id="-25654">
		<tag k="alt_name" v="Hykkelen fyr" />
		<tag k="name" v="Hykkelen lykt" />
		<tag k="ssr:date" v="2020-09-01" />
		<tag k="ssr:gruppe" v="navigasjon" />
		<tag k="ssr:hovedgruppe" v="infrastruktur" />
		<tag k="ssr:stedsnr" v="547790" />
		<tag k="ssr:type" v="fyrlykt" />
	</node>
	<node lat="59.34534165379981" lon="11.180892457537349" id="-27124">
		<tag k="name" v="Brunsbykollen" />
		<tag k="ssr:date" v="2019-12-27" />
		<tag k="ssr:gruppe" v="veg" />
		<tag k="ssr:hovedgruppe" v="infrastruktur" />
		<tag k="ssr:stedsnr" v="1074118" />
		<tag k="ssr:type" v="adressenavn" />
	</node>
	<node lat="59.27661070273603" lon="11.17752073348825" id="-27134">
		<tag k="name" v="Nygårdssletta" />
		<tag k="ssr:date" v="2021-02-09" />
		<tag k="ssr:gruppe" v="veg" />
		<tag k="ssr:hovedgruppe" v="infrastruktur" />
		<tag k="ssr:stedsnr" v="1079917" />
		<tag k="ssr:type" v="adressenavn" />
	</node>
	<node lat="59.277003395281646" lon="11.179917515036944" id="-27135">
		<tag k="name" v="Kroken" />
		<tag k="ssr:date" v="2021-02-09" />
		<tag k="ssr:gruppe" v="veg" />
		<tag k="ssr:hovedgruppe" v="infrastruktur" />
		<tag k="ssr:stedsnr" v="1079918" />
		<tag k="ssr:type" v="adressenavn" />
	</node>
	<node lat="59.274926590653216" lon="11.176810801216657" id="-27137">
		<tag k="name" v="Engsmyrstien" />
		<tag k="ssr:date" v="2021-02-09" />
		<tag k="ssr:gruppe" v="veg" />
		<tag k="ssr:hovedgruppe" v="infrastruktur" />
		<tag k="ssr:stedsnr" v="1079922" />
		<tag k="ssr:type" v="adressenavn" />
	</node>
</osm>
