<?xml version="1.0" encoding="UTF-8"?>
<osm generator="osmapis" version="0.6">
	<node id="-371197" lat="58.8933499957" lon="9.2661749955">
		<tag k="amenity" v="place_of_worship" />
		<tag k="denomination" v="lutheran" />
		<tag k="name" v="Sannidal kirke" />
		<tag k="religion" v="christian" />
		<tag k="ssr:stedsnr" v="820083" />
	</node>
	<node id="-368987" lat="58.8938805576" lon="9.26065555839">
		<tag k="amenity" v="community_centre" />
		<tag k="name" v="Sannidal bygdetun" />
		<tag k="ssr:stedsnr" v="698009" />
	</node>
	<node id="-370004" lat="58.8674499981" lon="9.2698527753">
		<tag k="name" v="Kolbånn" />
		<tag k="place" v="locality" />
		<tag k="ssr:stedsnr" v="91338" />
	</node>
	<node id="-370901" lat="58.8711750035" lon="9.41427777016">
		<tag k="amenity" v="place_of_worship" />
		<tag k="denomination" v="lutheran" />
		<tag k="name" v="Kragerø kirke" />
		<tag k="religion" v="christian" />
		<tag k="ssr:stedsnr" v="636230" />
	</node>
	<node id="-368628" lat="58.8000972265" lon="9.39914722609">
		<tag k="alt_name" v="Ospevika kirkegård" />
		<tag k="cemetery" v="grave" />
		<tag k="name" v="Ospvika" />
		<tag k="place" v="locality" />
		<tag k="ssr:stedsnr" v="487554" />
	</node>
	<node id="-368467" lat="58.8050027799" lon="9.43350277979">
		<tag k="name" v="Vakthusheia" />
		<tag k="ssr:stedsnr" v="455624" />
		<tag k="tourism" v="viewpoint" />
	</node>
	<node id="-370608" lat="58.8722833317" lon="9.3826000071">
		<tag k="cemetery" v="grave" />
		<tag k="name" v="Kragerø kirkegård" />
		<tag k="place" v="locality" />
		<tag k="ssr:stedsnr" v="394287" />
	</node>
	<node id="-369102" lat="58.893322222" lon="9.26621667023">
		<tag k="amenity" v="place_of_worship" />
		<tag k="denomination" v="lutheran" />
		<tag k="name" v="Sannidal" />
		<tag k="religion" v="christian" />
		<tag k="ssr:stedsnr" v="721410" />
	</node>
	<node id="-371181" lat="58.8221777741" lon="9.37385833735">
		<tag k="cemetery" v="grave" />
		<tag k="name" v="Støle kirkegård" />
		<tag k="place" v="locality" />
		<tag k="ssr:stedsnr" v="819899" />
	</node>
	<node id="-370348" lat="58.7924500034" lon="9.33916389289">
		<tag k="name" v="Orekjerra" />
		<tag k="place" v="locality" />
		<tag k="ssr:stedsnr" v="212834" />
	</node>
	<node id="-369099" lat="58.8200527771" lon="9.37613333874">
		<tag k="amenity" v="place_of_worship" />
		<tag k="denomination" v="lutheran" />
		<tag k="name" v="Støle kirke" />
		<tag k="old_name" v="Levang" />
		<tag k="religion" v="christian" />
		<tag k="ssr:stedsnr" v="608570" />
	</node>
	<node id="-368873" lat="58.8586972187" lon="9.4756749975">
		<tag k="alt_name" v="Skåtøy kirke" />
		<tag k="amenity" v="place_of_worship" />
		<tag k="denomination" v="lutheran" />
		<tag k="name" v="Skåtøy" />
		<tag k="religion" v="christian" />
		<tag k="ssr:stedsnr" v="668770" />
	</node>
	<node id="-370760" lat="58.843663593" lon="9.52850839083">
		<tag k="name" v="Tordenskjoldbauta" />
		<tag k="place" v="locality" />
		<tag k="ssr:stedsnr" v="575035" />
	</node>
	<node id="-368517" lat="58.8556444442" lon="9.38870833291">
		<tag k="name" v="Utsikten" />
		<tag k="ssr:stedsnr" v="272009" />
		<tag k="tourism" v="viewpoint" />
	</node>
	<node id="-369476" lat="58.9725119855" lon="9.36241606934">
		<tag k="name" v="Lauvåsmyra" />
		<tag k="place" v="locality" />
		<tag k="ssr:stedsnr" v="789361" />
	</node>
	<node id="-369218" lat="58.8698277746" lon="9.40973055067">
		<tag k="name" v="Steinmann" />
		<tag k="ssr:stedsnr" v="879217" />
		<tag k="tourism" v="viewpoint" />
	</node>
</osm>
