<?xml version="1.0" encoding="UTF-8"?>
<osm version="0.6" generator="osmapis">
	<node lat="58.8906361143961" lon="9.18756666945286" id="-19891">
		<tag k="alt_name" v="Slettfjell, vestre" />
		<tag k="fixme" v="consider natural=peak for the most distinct mountains in the district" />
		<tag k="name" v="Vestre Slettefjell" />
		<tag k="natural" v="hill" />
		<tag k="place" v="locality" />
		<tag k="ssr:stedsnr" v="257" />
	</node>
	<node lat="58.893936109734675" lon="9.203897218049322" id="-19892">
		<tag k="fixme" v="consider natural=peak for the most distinct mountains in the district" />
		<tag k="name" v="Lyås" />
		<tag k="natural" v="hill" />
		<tag k="place" v="locality" />
		<tag k="ssr:stedsnr" v="259" />
	</node>
	<node lat="58.80168888833503" lon="9.24686944628768" id="-19900">
		<tag k="alt_name" v="Harheia" />
		<tag k="fixme" v="consider natural=peak for the most distinct mountains in the district" />
		<tag k="name" v="Hardhei" />
		<tag k="natural" v="hill" />
		<tag k="place" v="locality" />
		<tag k="ssr:stedsnr" v="2536" />
	</node>
	<node lat="58.79557222596936" lon="9.266144446012731" id="-19903">
		<tag k="name" v="Torvtjenndalen" />
		<tag k="natural" v="valley" />
		<tag k="place" v="locality" />
		<tag k="ssr:stedsnr" v="23342" />
	</node>
	<node lat="58.89995000410417" lon="9.424275001854452" id="-19910">
		<tag k="name" v="Hvitskjær" />
		<tag k="natural" v="hill" />
		<tag k="place" v="locality" />
		<tag k="ssr:stedsnr" v="29125" />
	</node>
	<node lat="58.88254167072409" lon="9.499319440797763" id="-19911">
		<tag k="name" v="Veggerøheia" />
		<tag k="natural" v="hill" />
		<tag k="place" v="locality" />
		<tag k="ssr:stedsnr" v="29230" />
	</node>
	<node lat="58.90133610914786" lon="9.653758336660557" id="-19922">
		<tag k="name" v="Lille Hviteberg" />
		<tag k="natural" v="hill" />
		<tag k="place" v="locality" />
		<tag k="ssr:stedsnr" v="29890" />
	</node>
	<node lat="58.93945833137957" lon="9.228650002100853" id="-19928">
		<tag k="name" v="Styggedal" />
		<tag k="natural" v="valley" />
		<tag k="place" v="locality" />
		<tag k="ssr:stedsnr" v="30104" />
	</node>
	<node lat="58.941125000132175" lon="9.341791659718416" id="-19933">
		<tag k="name" v="Kolhogstheia" />
		<tag k="place" v="locality" />
		<tag k="ssr:stedsnr" v="30204" />
	</node>
	<node lat="58.87083888514502" lon="9.33793054972111" id="-19935">
		<tag k="fixme" v="consider natural=peak for the most distinct mountains in the district" />
		<tag k="name" v="Ånevikheia" />
		<tag k="natural" v="hill" />
		<tag k="place" v="locality" />
		<tag k="ssr:stedsnr" v="30283" />
	</node>
	<node lat="58.821797218223786" lon="9.22960556174974" id="-19936">
		<tag k="name" v="Hasseldalen" />
		<tag k="natural" v="valley" />
		<tag k="place" v="locality" />
		<tag k="ssr:stedsnr" v="30524" />
	</node>
	<node lat="58.925344448943086" lon="9.336583328819808" id="-19940">
		<tag k="fixme" v="consider natural=peak for the most distinct mountains in the district" />
		<tag k="name" v="Sagåsheia" />
		<tag k="natural" v="hill" />
		<tag k="place" v="locality" />
		<tag k="ssr:stedsnr" v="30602" />
	</node>
	<node lat="58.84026666254567" lon="9.37083888386575" id="-19941">
		<tag k="name" v="Støkolle" />
		<tag k="natural" v="hill" />
		<tag k="place" v="locality" />
		<tag k="ssr:stedsnr" v="30608" />
	</node>
	<node lat="58.82759444674778" lon="9.416366672403983" id="-19947">
		<tag k="fixme" v="consider natural=peak for the most distinct mountains in the district" />
		<tag k="name" v="Valbergheia" />
		<tag k="natural" v="hill" />
		<tag k="place" v="locality" />
		<tag k="ssr:stedsnr" v="30881" />
	</node>
	<node lat="58.956841667049346" lon="9.362733328021442" id="-19949">
		<tag k="fixme" v="consider natural=peak for the most distinct mountains in the district" />
		<tag k="name" v="Damheia" />
		<tag k="natural" v="hill" />
		<tag k="place" v="locality" />
		<tag k="ssr:stedsnr" v="31018" />
	</node>
	<node lat="58.89992777410088" lon="9.264138890920927" id="-19951">
		<tag k="fixme" v="consider natural=peak for the most distinct mountains in the district" />
		<tag k="name" v="Åsen" />
		<tag k="natural" v="hill" />
		<tag k="place" v="locality" />
		<tag k="ssr:stedsnr" v="31117" />
	</node>
	<node lat="58.97355277897721" lon="9.348113890586891" id="-19953">
		<tag k="fixme" v="consider natural=peak for the most distinct mountains in the district" />
		<tag k="name" v="Eikeliknulderen" />
		<tag k="natural" v="hill" />
		<tag k="place" v="locality" />
		<tag k="ssr:stedsnr" v="31203" />
	</node>
	<node lat="58.93715555804185" lon="9.27899721638706" id="-19954">
		<tag k="fixme" v="consider natural=peak for the most distinct mountains in the district" />
		<tag k="name" v="Østre Klingemyrheia" />
		<tag k="natural" v="hill" />
		<tag k="place" v="locality" />
		<tag k="ssr:stedsnr" v="31466" />
	</node>
	<node lat="58.8095166678392" lon="9.205619439684657" id="-19972">
		<tag k="fixme" v="consider natural=peak for the most distinct mountains in the district" />
		<tag k="name" v="Plassheia" />
		<tag k="natural" v="hill" />
		<tag k="place" v="locality" />
		<tag k="ssr:stedsnr" v="62020" />
	</node>
	<node lat="58.86212777365932" lon="9.220824998140435" id="-19973">
		<tag k="alt_name" v="Bjørnfjell" />
		<tag k="fixme" v="consider natural=peak for the most distinct mountains in the district" />
		<tag k="name" v="Bjønnfjell" />
		<tag k="natural" v="hill" />
		<tag k="place" v="locality" />
		<tag k="ssr:stedsnr" v="62101" />
	</node>
	<node lat="58.88925000420591" lon="9.423955547332147" id="-19984">
		<tag k="name" v="Valberg" />
		<tag k="place" v="locality" />
		<tag k="ssr:stedsnr" v="62678" />
	</node>
	<node lat="58.860569441441754" lon="9.187461110152615" id="-19989">
		<tag k="fixme" v="consider natural=peak for the most distinct mountains in the district" />
		<tag k="name" v="Strevheiane" />
		<tag k="natural" v="hill" />
		<tag k="place" v="locality" />
		<tag k="ssr:stedsnr" v="243123" />
	</node>
	<node lat="58.93390555516915" lon="9.42647222783704" id="-20015">
		<tag k="alt_name" v="Skjersjøknuten" />
		<tag k="fixme" v="consider natural=peak for the most distinct mountains in the district" />
		<tag k="name" v="Skjærsjøknuten" />
		<tag k="natural" v="hill" />
		<tag k="place" v="locality" />
		<tag k="ssr:stedsnr" v="85408" />
	</node>
	<node lat="58.868233328894114" lon="9.494716669341035" id="-20027">
		<tag k="fixme" v="consider natural=peak for the most distinct mountains in the district" />
		<tag k="name" v="Revåsen" />
		<tag k="natural" v="hill" />
		<tag k="place" v="locality" />
		<tag k="ssr:stedsnr" v="90126" />
	</node>
</osm>
