<?xml version="1.0" encoding="UTF-8"?>
<osm version="0.6" generator="osmapis">
	<node lat="58.808655551717926" lon="9.265727785502133" id="-24243">
		<tag k="name" v="Setertjenn" />
		<tag k="natural" v="water" />
		<tag k="ssr:stedsnr" v="2533" />
	</node>
	<node lat="58.942169445613914" lon="9.415775000579146" id="-24261">
		<tag k="name" v="Byttøya" />
		<tag k="place" v="islet" />
		<tag k="ssr:stedsnr" v="29502" />
	</node>
	<node lat="58.90112222409012" lon="9.345166660105734" id="-24273">
		<tag k="name" v="Årømyrtjenna" />
		<tag k="natural" v="water" />
		<tag k="ssr:stedsnr" v="30169" />
	</node>
	<node lat="58.90103333366637" lon="9.351150005190874" id="-24274">
		<tag k="name" v="Langtjenn" />
		<tag k="natural" v="water" />
		<tag k="ssr:stedsnr" v="30171" />
	</node>
	<node lat="58.78208610683187" lon="9.31491388354216" id="-24276">
		<tag k="name" v="Bjornes" />
		<tag k="natural" v="cape" />
		<tag k="ssr:stedsnr" v="30201" />
	</node>
	<node lat="58.918561110548026" lon="9.323827771811478" id="-24286">
		<tag k="name" v="Eriksur" />
		<tag k="natural" v="beach" />
		<tag k="ssr:stedsnr" v="30783" />
	</node>
	<node lat="58.97627500234207" lon="9.259908336083798" id="-24288">
		<tag k="name" v="Bjønnestrøm" />
		<tag k="natural" v="strait" />
		<tag k="ssr:stedsnr" v="30868" />
	</node>
	<node lat="58.83259444304584" lon="9.4314083273724" id="-24290">
		<tag k="name" v="Lilletjenn" />
		<tag k="natural" v="water" />
		<tag k="ssr:stedsnr" v="30879" />
		<tag k="water" v="pond" />
	</node>
	<node lat="58.96225833511373" lon="9.374533332440192" id="-24294">
		<tag k="name" v="Myrantjenna" />
		<tag k="natural" v="water" />
		<tag k="ssr:stedsnr" v="31023" />
		<tag k="water" v="pond" />
	</node>
	<node lat="58.954272225594565" lon="9.309052777493063" id="-24301">
		<tag k="name" v="Store Neslandstjenn" />
		<tag k="natural" v="water" />
		<tag k="ssr:stedsnr" v="31916" />
	</node>
	<node lat="58.81526388483368" lon="9.178413894782496" id="-24305">
		<tag k="alt_name" v="Ansteinvann" />
		<tag k="name" v="Ansteinvannet" />
		<tag k="natural" v="water" />
		<tag k="ssr:stedsnr" v="40017" />
		<tag k="water" v="lake" />
	</node>
	<node lat="58.8447472205484" lon="9.21245833385716" id="-24318">
		<tag k="name" v="Stølevann" />
		<tag k="natural" v="water" />
		<tag k="ssr:stedsnr" v="62102" />
		<tag k="water" v="lake" />
	</node>
	<node lat="58.85253611172474" lon="9.188711112618787" id="-24319">
		<tag k="name" v="Trollvannet" />
		<tag k="natural" v="water" />
		<tag k="ssr:stedsnr" v="62105" />
	</node>
	<node lat="58.88424722012628" lon="9.189933335058008" id="-24320">
		<tag k="alt_name" v="Fosteråstjenna" />
		<tag k="name" v="Fosteråstjennane" />
		<tag k="natural" v="water" />
		<tag k="ssr:stedsnr" v="62201" />
	</node>
	<node lat="58.959950000555224" lon="9.24689444364426" id="-24321">
		<tag k="name" v="Igletjenn" />
		<tag k="natural" v="water" />
		<tag k="ssr:stedsnr" v="62279" />
	</node>
	<node lat="58.93024999727788" lon="9.449788887060569" id="-24337">
		<tag k="fixme" v="multiple name tags, choose one and add the other to alt_name" />
		<tag k="name" v="Røymyrtjenna;Revtjenn" />
		<tag k="natural" v="water" />
		<tag k="ssr:stedsnr" v="243262" />
	</node>
	<node lat="58.915358332860265" lon="9.221969446182811" id="-24341">
		<tag k="name" v="Kvennvann" />
		<tag k="natural" v="water" />
		<tag k="ssr:stedsnr" v="243663" />
		<tag k="water" v="lake" />
	</node>
	<node lat="58.8489583390937" lon="9.242131936629086" id="-24358">
		<tag k="name" v="Breivann" />
		<tag k="natural" v="water" />
		<tag k="ssr:stedsnr" v="244764" />
		<tag k="water" v="lake" />
	</node>
</osm>
