<?xml version="1.0" encoding="UTF-8"?>
<osm version="0.6" generator="osmapis">
	<node lat="58.89716110774321" lon="9.527222229765433" id="-47258">
		<tag k="name" v="Gumøy" />
		<tag k="place" v="island" />
		<tag k="ssr:stedsnr" v="1680" />
	</node>
	<node lat="58.82976666675738" lon="9.466319437932691" id="-47261">
		<tag k="name" v="Rapen" />
		<tag k="natural" v="cape" />
		<tag k="ssr:stedsnr" v="272759" />
	</node>
	<node lat="58.892663884587456" lon="9.585386108709589" id="-47264">
		<tag k="name" v="Fantebukta" />
		<tag k="natural" v="bay" />
		<tag k="ssr:stedsnr" v="272815" />
	</node>
	<node lat="58.88430277882907" lon="9.43034443599888" id="-47267">
		<tag k="bay" v="fjord" />
		<tag k="name" v="Bærøyfjorden" />
		<tag k="natural" v="bay" />
		<tag k="ssr:stedsnr" v="24536" />
	</node>
	<node lat="58.81473055917751" lon="9.483222217629391" id="-47268">
		<tag k="name" v="Stangbåen" />
		<tag k="place" v="locality" />
		<tag k="seamark:type" v="rock" />
		<tag k="ssr:stedsnr" v="24580" />
	</node>
	<node lat="58.8859722183613" lon="9.564808341854885" id="-47269">
		<tag k="name" v="Lille Skauholmen" />
		<tag k="place" v="islet" />
		<tag k="ssr:stedsnr" v="24692" />
	</node>
	<node lat="58.874522218456434" lon="9.476336111597623" id="-47270">
		<tag k="name" v="Saltskjærholmen" />
		<tag k="place" v="islet" />
		<tag k="ssr:stedsnr" v="25690" />
	</node>
	<node lat="58.8739111094308" lon="9.510866664605599" id="-47271">
		<tag k="name" v="Rytterholmane" />
		<tag k="place" v="islet" />
		<tag k="ssr:stedsnr" v="25691" />
	</node>
	<node lat="58.88235277330123" lon="9.521008336815756" id="-47275">
		<tag k="name" v="Andholmane" />
		<tag k="place" v="islet" />
		<tag k="ssr:stedsnr" v="29233" />
	</node>
	<node lat="58.88770555936958" lon="9.524894446233784" id="-47276">
		<tag k="name" v="Kjeholmhølen" />
		<tag k="natural" v="bay" />
		<tag k="ssr:stedsnr" v="29202" />
	</node>
	<node lat="58.88363611551514" lon="9.530469441250357" id="-47277">
		<tag k="name" v="Ellenssund" />
		<tag k="natural" v="strait" />
		<tag k="ssr:stedsnr" v="29212" />
	</node>
	<node lat="58.890463889659195" lon="9.540963882192546" id="-47278">
		<tag k="name" v="Klamgren" />
		<tag k="place" v="islet" />
		<tag k="ssr:stedsnr" v="29167" />
	</node>
	<node lat="58.91213055158822" lon="9.516130551305602" id="-47283">
		<tag k="name" v="Vadvika" />
		<tag k="natural" v="bay" />
		<tag k="ssr:stedsnr" v="29607" />
	</node>
	<node lat="58.89129722149065" lon="9.645863894321847" id="-47288">
		<tag k="fixme" v="consider seamark:type=rock or natural=shoal" />
		<tag k="name" v="Gåsholmskjæra" />
		<tag k="place" v="islet" />
		<tag k="ssr:stedsnr" v="29978" />
	</node>
	<node lat="58.89632778103082" lon="9.647444444659234" id="-47289">
		<tag k="name" v="Rabberompa" />
		<tag k="natural" v="cape" />
		<tag k="ssr:stedsnr" v="29979" />
	</node>
	<node lat="58.88122222587859" lon="9.308630557439196" id="-47294">
		<tag k="name" v="Espehalsen" />
		<tag k="natural" v="cape" />
		<tag k="ssr:stedsnr" v="30076" />
	</node>
	<node lat="58.89579764377849" lon="9.586197579562244" id="-47322">
		<tag k="name" v="Hommelvika" />
		<tag k="natural" v="bay" />
		<tag k="ssr:stedsnr" v="236360" />
	</node>
	<node lat="58.91587222371297" lon="9.531650007385897" id="-47323">
		<tag k="name" v="Risøytangen" />
		<tag k="natural" v="cape" />
		<tag k="ssr:stedsnr" v="272539" />
	</node>
	<node lat="58.93515555543876" lon="9.717686104287871" id="-47331">
		<tag k="name" v="Ranhausen" />
		<tag k="natural" v="shoal" />
		<tag k="place" v="locality" />
		<tag k="ssr:stedsnr" v="61921" />
	</node>
	<node lat="58.92096666266927" lon="9.6917444381025" id="-47332">
		<tag k="alt_name" v="Stråholmstein, yt;Stråholmstein" />
		<tag k="name" v="Ytre Stråholmstein" />
		<tag k="place" v="islet" />
		<tag k="ssr:stedsnr" v="61923" />
	</node>
	<node lat="58.898147218325185" lon="9.621488882577992" id="-47333">
		<tag k="bay" v="fjord" />
		<tag k="name" v="Skrurenna" />
		<tag k="natural" v="bay" />
		<tag k="ssr:stedsnr" v="61936" />
	</node>
	<node lat="58.91990000255387" lon="9.65879167268032" id="-47334">
		<tag k="alt_name" v="Svartskjer" />
		<tag k="fixme" v="consider seamark:type=rock or natural=shoal" />
		<tag k="name" v="Svartskjær" />
		<tag k="place" v="islet" />
		<tag k="ssr:stedsnr" v="61944" />
	</node>
	<node lat="58.87503610928138" lon="9.456544443226" id="-47346">
		<tag k="name" v="Bærøy" />
		<tag k="place" v="island" />
		<tag k="ssr:stedsnr" v="62725" />
	</node>
	<node lat="58.896341664923284" lon="9.378102769458378" id="-47347">
		<tag k="bay" v="fjord" />
		<tag k="name" v="Hellefjorden" />
		<tag k="natural" v="bay" />
		<tag k="ssr:stedsnr" v="62676" />
	</node>
	<node lat="58.91302500358521" lon="9.667755553483387" id="-47364">
		<tag k="name" v="Knallaren" />
		<tag k="place" v="islet" />
		<tag k="ssr:stedsnr" v="243943" />
	</node>
	<node lat="58.8987083357455" lon="9.643425002685548" id="-47365">
		<tag k="name" v="Stråholmen" />
		<tag k="place" v="island" />
		<tag k="ssr:stedsnr" v="243945" />
	</node>
	<node lat="58.81248333104321" lon="9.414344448762362" id="-47370">
		<tag k="bay" v="fjord" />
		<tag k="name" v="Stølefjorden" />
		<tag k="natural" v="bay" />
		<tag k="ssr:stedsnr" v="244537" />
	</node>
	<node lat="58.82773611170821" lon="9.484766662583551" id="-47371">
		<tag k="alt_name" v="Rødskjer" />
		<tag k="fixme" v="consider seamark:type=rock or natural=shoal" />
		<tag k="name" v="Rødskjær" />
		<tag k="place" v="islet" />
		<tag k="ssr:stedsnr" v="244555" />
	</node>
	<node lat="58.90033055484487" lon="9.461452776461375" id="-47375">
		<tag k="bay" v="fjord" />
		<tag k="name" v="Soppekilen" />
		<tag k="natural" v="bay" />
		<tag k="ssr:stedsnr" v="244672" />
	</node>
	<node lat="58.84985555871191" lon="9.48740833650414" id="-47378">
		<tag k="name" v="Ærøy" />
		<tag k="place" v="island" />
		<tag k="ssr:stedsnr" v="244747" />
	</node>
	<node lat="58.77502777499697" lon="9.428641667713256" id="-47382">
		<tag k="name" v="Skarholmhausen" />
		<tag k="natural" v="shoal" />
		<tag k="place" v="locality" />
		<tag k="ssr:stedsnr" v="85487" />
	</node>
	<node lat="58.8566527775458" lon="9.408180556889594" id="-47383">
		<tag k="alt_name" v="Søstrene" />
		<tag k="name" v="Søskenskjæra" />
		<tag k="place" v="islet" />
		<tag k="ssr:stedsnr" v="85377" />
	</node>
	<node lat="58.856038888189254" lon="9.41984444516312" id="-47384">
		<tag k="name" v="Hammerbåen" />
		<tag k="place" v="locality" />
		<tag k="seamark:type" v="rock" />
		<tag k="ssr:stedsnr" v="85379" />
	</node>
	<node lat="58.846302779745244" lon="9.461188894980323" id="-47385">
		<tag k="name" v="Hesthue" />
		<tag k="natural" v="cape" />
		<tag k="ssr:stedsnr" v="85516" />
	</node>
	<node lat="58.90236111204745" lon="9.568302776261714" id="-47387">
		<tag k="fixme" v="consider seamark:type=rock or natural=shoal" />
		<tag k="name" v="Svartskjæra" />
		<tag k="place" v="islet" />
		<tag k="ssr:stedsnr" v="85981" />
	</node>
	<node lat="58.91038333542205" lon="9.59783611307688" id="-47388">
		<tag k="alt_name" v="Ellevsholmen" />
		<tag k="name" v="Ellefsholmane" />
		<tag k="place" v="islet" />
		<tag k="ssr:stedsnr" v="85993" />
	</node>
	<node lat="58.84747777436899" lon="9.576286115997087" id="-47390">
		<tag k="name" v="Skagerakstrand" />
		<tag k="natural" v="beach" />
		<tag k="ssr:stedsnr" v="89704" />
	</node>
	<node lat="58.84487500035825" lon="9.547444441390473" id="-47391">
		<tag k="fixme" v="consider seamark:type=rock or natural=shoal" />
		<tag k="name" v="Pilkehellane" />
		<tag k="place" v="islet" />
		<tag k="ssr:stedsnr" v="90008" />
	</node>
	<node lat="58.89353889118699" lon="9.543355550565273" id="-47394">
		<tag k="name" v="Gumøysunda" />
		<tag k="natural" v="strait" />
		<tag k="ssr:stedsnr" v="90132" />
	</node>
	<node lat="58.91396389060612" lon="9.526119444172085" id="-47395">
		<tag k="name" v="Sildebukta" />
		<tag k="natural" v="bay" />
		<tag k="ssr:stedsnr" v="90418" />
	</node>
	<node lat="58.91391111382008" lon="9.531275001202264" id="-47396">
		<tag k="name" v="Mattisplass" />
		<tag k="natural" v="beach" />
		<tag k="ssr:stedsnr" v="90419" />
	</node>
	<node lat="58.87581111111375" lon="9.492619452443503" id="-47402">
		<tag k="name" v="Revholmen" />
		<tag k="place" v="islet" />
		<tag k="ssr:stedsnr" v="90616" />
	</node>
	<node lat="58.89042500032915" lon="9.555952783907877" id="-47405">
		<tag k="name" v="Jernholmen" />
		<tag k="place" v="islet" />
		<tag k="ssr:stedsnr" v="90730" />
	</node>
	<node lat="58.90297777463567" lon="9.560041662775266" id="-47406">
		<tag k="name" v="Fluerstranda" />
		<tag k="natural" v="beach" />
		<tag k="ssr:stedsnr" v="90783" />
	</node>
	<node lat="58.86491944567143" lon="9.439747221641298" id="-47431">
		<tag k="name" v="Østre Nessundholme" />
		<tag k="place" v="islet" />
		<tag k="ssr:stedsnr" v="145520" />
	</node>
	<node lat="58.869511109948114" lon="9.426972228140025" id="-47432">
		<tag k="name" v="Midfjordskjær" />
		<tag k="old_name" v="Midtfjordskjæ" />
		<tag k="place" v="islet" />
		<tag k="ssr:stedsnr" v="145527" />
	</node>
	<node lat="58.900458336130995" lon="9.657352772611041" id="-47433">
		<tag k="name" v="Hvitebergbrottet" />
		<tag k="place" v="locality" />
		<tag k="seamark:type" v="rock" />
		<tag k="ssr:stedsnr" v="145662" />
	</node>
	<node lat="58.854155555151515" lon="9.49470277311867" id="-47435">
		<tag k="name" v="Dønnevikholmen" />
		<tag k="place" v="islet" />
		<tag k="ssr:stedsnr" v="150055" />
	</node>
	<node lat="58.85016388613551" lon="9.53163889139001" id="-47436">
		<tag k="name" v="Ormeleia" />
		<tag k="natural" v="strait" />
		<tag k="ssr:stedsnr" v="150072" />
	</node>
	<node lat="58.89322777552378" lon="9.50087499378419" id="-47437">
		<tag k="name" v="Saulekilen" />
		<tag k="natural" v="strait" />
		<tag k="ssr:stedsnr" v="150215" />
	</node>
	<node lat="58.88263055918434" lon="9.510699992455313" id="-47438">
		<tag k="name" v="Ospholmen" />
		<tag k="place" v="islet" />
		<tag k="ssr:stedsnr" v="150216" />
	</node>
	<node lat="58.88326944437444" lon="9.514830558936733" id="-47439">
		<tag k="name" v="Tangane" />
		<tag k="natural" v="cape" />
		<tag k="ssr:stedsnr" v="150221" />
	</node>
	<node lat="58.87643610906835" lon="9.49610555419618" id="-47443">
		<tag k="name" v="Kjerrabukta" />
		<tag k="natural" v="bay" />
		<tag k="ssr:stedsnr" v="150118" />
	</node>
	<node lat="58.85933333460554" lon="9.533169441079675" id="-47444">
		<tag k="name" v="Burøykilen" />
		<tag k="natural" v="bay" />
		<tag k="ssr:stedsnr" v="150153" />
	</node>
	<node lat="58.90249166281891" lon="9.422980549286534" id="-47448">
		<tag k="name" v="Lovisenbergsundet" />
		<tag k="natural" v="strait" />
		<tag k="ssr:stedsnr" v="150511" />
	</node>
	<node lat="58.91750555363552" lon="9.50299167263876" id="-47450">
		<tag k="name" v="Treskallen" />
		<tag k="place" v="islet" />
		<tag k="ssr:stedsnr" v="150567" />
	</node>
	<node lat="58.89023611236435" lon="9.580069445861087" id="-47452">
		<tag k="name" v="Håkleppskjæra" />
		<tag k="place" v="islet" />
		<tag k="ssr:stedsnr" v="150820" />
	</node>
	<node lat="58.892269445317595" lon="9.58749721816393" id="-47453">
		<tag k="name" v="Parisholmsundet" />
		<tag k="natural" v="strait" />
		<tag k="ssr:stedsnr" v="150824" />
	</node>
	<node lat="58.858213890605" lon="9.382594436356085" id="-47462">
		<tag k="name" v="Tåtøybukta" />
		<tag k="natural" v="bay" />
		<tag k="ssr:stedsnr" v="151710" />
	</node>
	<node lat="58.803811112332646" lon="9.388736115467697" id="-47503">
		<tag k="name" v="Fianholmen" />
		<tag k="place" v="islet" />
		<tag k="ssr:stedsnr" v="272556" />
	</node>
	<node lat="58.767619446760314" lon="9.374730557499248" id="-47506">
		<tag k="alt_name" v="Ellingsvikskjer" />
		<tag k="fixme" v="consider seamark:type=rock or natural=shoal" />
		<tag k="name" v="Ellingskjær" />
		<tag k="place" v="islet" />
		<tag k="ssr:stedsnr" v="182537" />
	</node>
	<node lat="58.92073889129998" lon="9.61179167035539" id="-47510">
		<tag k="name" v="Mosholmen" />
		<tag k="place" v="islet" />
		<tag k="ssr:stedsnr" v="182938" />
	</node>
	<node lat="58.91373610978705" lon="9.578666670278741" id="-47515">
		<tag k="bay" v="fjord" />
		<tag k="name" v="Eksefjorden" />
		<tag k="natural" v="bay" />
		<tag k="ssr:stedsnr" v="183637" />
	</node>
	<node lat="58.92110555308891" lon="9.54085278376211" id="-47518">
		<tag k="name" v="Hellesøy" />
		<tag k="place" v="island" />
		<tag k="ssr:stedsnr" v="183650" />
	</node>
	<node lat="58.88751111467303" lon="9.552269445561349" id="-47523">
		<tag k="name" v="Felixsunda" />
		<tag k="natural" v="strait" />
		<tag k="ssr:stedsnr" v="272712" />
	</node>
	<node lat="58.87880000123939" lon="9.407952785669414" id="-47524">
		<tag k="name" v="Skibodden" />
		<tag k="natural" v="cape" />
		<tag k="ssr:stedsnr" v="267467" />
	</node>
	<node lat="58.86468055552343" lon="9.416161113084852" id="-47526">
		<tag k="name" v="Lindvika" />
		<tag k="natural" v="bay" />
		<tag k="ssr:stedsnr" v="267425" />
	</node>
	<node lat="58.865738856790394" lon="9.428647279315662" id="-47527">
		<tag k="name" v="Suggebåen" />
		<tag k="place" v="locality" />
		<tag k="seamark:type" v="rock" />
		<tag k="ssr:stedsnr" v="267488" />
	</node>
	<node lat="58.79010000066052" lon="9.430577772003335" id="-47529">
		<tag k="name" v="Båen" />
		<tag k="place" v="locality" />
		<tag k="seamark:type" v="rock" />
		<tag k="ssr:stedsnr" v="267501" />
	</node>
	<node lat="58.842011108919905" lon="9.449069452257334" id="-47530">
		<tag k="name" v="Skjørsvikbukta" />
		<tag k="natural" v="bay" />
		<tag k="ssr:stedsnr" v="267565" />
	</node>
	<node lat="58.90280277402251" lon="9.592963886622343" id="-47532">
		<tag k="name" v="Kvaksundholmen" />
		<tag k="place" v="island" />
		<tag k="ssr:stedsnr" v="267646" />
	</node>
	<node lat="58.8636759866329" lon="9.58112071835212" id="-47533">
		<tag k="alt_name" v="Hageneboen" />
		<tag k="name" v="Haganbåen" />
		<tag k="place" v="locality" />
		<tag k="seamark:type" v="rock" />
		<tag k="ssr:stedsnr" v="267690" />
	</node>
	<node lat="58.91874444722022" lon="9.644052778713993" id="-47534">
		<tag k="fixme" v="consider seamark:type=rock or natural=shoal" />
		<tag k="name" v="Rugsekken" />
		<tag k="place" v="islet" />
		<tag k="ssr:stedsnr" v="206642" />
	</node>
	<node lat="58.86822777971581" lon="9.48152222853609" id="-47539">
		<tag k="name" v="Korssund" />
		<tag k="natural" v="strait" />
		<tag k="ssr:stedsnr" v="207705" />
	</node>
	<node lat="58.87303055782116" lon="9.515138889913784" id="-47540">
		<tag k="name" v="Kirkesund" />
		<tag k="natural" v="strait" />
		<tag k="ssr:stedsnr" v="207706" />
	</node>
	<node lat="58.879080553102014" lon="9.505122228757115" id="-47545">
		<tag k="name" v="Granholmen" />
		<tag k="place" v="islet" />
		<tag k="ssr:stedsnr" v="211137" />
	</node>
	<node lat="58.888677778165714" lon="9.533947218336085" id="-47546">
		<tag k="name" v="Løvsalen" />
		<tag k="place" v="islet" />
		<tag k="ssr:stedsnr" v="211203" />
	</node>
	<node lat="58.901402777165224" lon="9.530238881394705" id="-47550">
		<tag k="fixme" v="consider seamark:type=rock or natural=shoal" />
		<tag k="name" v="De små skjæra" />
		<tag k="place" v="islet" />
		<tag k="ssr:stedsnr" v="211283" />
	</node>
	<node lat="58.90311944439424" lon="9.485538883863196" id="-47552">
		<tag k="name" v="Tangen" />
		<tag k="natural" v="cape" />
		<tag k="ssr:stedsnr" v="211295" />
	</node>
	<node lat="58.91575555455045" lon="9.650516668166803" id="-47557">
		<tag k="fixme" v="consider seamark:type=rock or natural=shoal" />
		<tag k="name" v="Danmarksbrotta" />
		<tag k="place" v="islet" />
		<tag k="ssr:stedsnr" v="211578" />
	</node>
	<node lat="58.78749166970525" lon="9.386277775848118" id="-47567">
		<tag k="name" v="Ekerbukta" />
		<tag k="natural" v="bay" />
		<tag k="ssr:stedsnr" v="212083" />
	</node>
	<node lat="58.80458055661952" lon="9.387997225538372" id="-47574">
		<tag k="name" v="Gullholmen" />
		<tag k="place" v="islet" />
		<tag k="ssr:stedsnr" v="212578" />
	</node>
	<node lat="58.794380557361215" lon="9.413324995919451" id="-47575">
		<tag k="name" v="Kolstangbukta" />
		<tag k="natural" v="bay" />
		<tag k="ssr:stedsnr" v="212707" />
	</node>
	<node lat="58.84698055363952" lon="9.293186108049516" id="-47584">
		<tag k="name" v="Kollrennbukta" />
		<tag k="natural" v="bay" />
		<tag k="ssr:stedsnr" v="212806" />
	</node>
	<node lat="58.86288610779594" lon="9.575672227197117" id="-47612">
		<tag k="name" v="Båtsundet" />
		<tag k="natural" v="strait" />
		<tag k="ssr:stedsnr" v="271052" />
	</node>
	<node lat="58.79850833210932" lon="9.422752773578955" id="-47613">
		<tag k="name" v="Mørkholmen" />
		<tag k="place" v="islet" />
		<tag k="ssr:stedsnr" v="272657" />
	</node>
	<node lat="58.864288885732925" lon="9.34146388684055" id="-47616">
		<tag k="name" v="Sauholmen" />
		<tag k="place" v="islet" />
		<tag k="ssr:stedsnr" v="271515" />
	</node>
	<node lat="58.857638885215756" lon="9.408291662070196" id="-47617">
		<tag k="name" v="Tåtøy" />
		<tag k="place" v="island" />
		<tag k="ssr:stedsnr" v="271519" />
	</node>
	<node lat="58.87921111394673" lon="9.413472214792508" id="-47618">
		<tag k="fixme" v="consider seamark:type=rock or natural=shoal" />
		<tag k="name" v="Sandåsskjæret" />
		<tag k="place" v="islet" />
		<tag k="ssr:stedsnr" v="449491" />
	</node>
	<node lat="58.86366389154947" lon="9.44298611798274" id="-47619">
		<tag k="name" v="Pellanbåane" />
		<tag k="place" v="locality" />
		<tag k="seamark:type" v="rock" />
		<tag k="ssr:stedsnr" v="449498" />
	</node>
	<node lat="58.86984722660285" lon="9.442425002965651" id="-47620">
		<tag k="name" v="Breibukta" />
		<tag k="natural" v="bay" />
		<tag k="ssr:stedsnr" v="449507" />
	</node>
	<node lat="58.85835277462794" lon="9.406325008232818" id="-47621">
		<tag k="fixme" v="multiple name tags, choose one and add the other to alt_name" />
		<tag k="name" v="Steinsundholmen;Sibirien" />
		<tag k="place" v="islet" />
		<tag k="ssr:stedsnr" v="449436" />
	</node>
	<node lat="58.85944444002019" lon="9.430674997047609" id="-47622">
		<tag k="name" v="Løkholmen" />
		<tag k="place" v="islet" />
		<tag k="ssr:stedsnr" v="449438" />
	</node>
	<node lat="58.80305832986511" lon="9.399252778139743" id="-47624">
		<tag k="name" v="Kjeholmen" />
		<tag k="place" v="islet" />
		<tag k="ssr:stedsnr" v="449523" />
	</node>
	<node lat="58.80008055250949" lon="9.438286108257333" id="-47625">
		<tag k="name" v="Svartskjær" />
		<tag k="place" v="islet" />
		<tag k="ssr:stedsnr" v="449529" />
	</node>
	<node lat="58.772644447673024" lon="9.386977784643626" id="-47626">
		<tag k="name" v="Merkpannbåen" />
		<tag k="place" v="locality" />
		<tag k="seamark:type" v="rock" />
		<tag k="ssr:stedsnr" v="449560" />
	</node>
	<node lat="58.9053388930281" lon="9.5771583361177" id="-47627">
		<tag k="name" v="Børresholmen" />
		<tag k="place" v="islet" />
		<tag k="ssr:stedsnr" v="449637" />
	</node>
	<node lat="58.877447223368975" lon="9.526502771558235" id="-47629">
		<tag k="name" v="Løvholmane" />
		<tag k="place" v="islet" />
		<tag k="ssr:stedsnr" v="449690" />
	</node>
	<node lat="58.87011944069398" lon="9.545397217607967" id="-47630">
		<tag k="fixme" v="consider seamark:type=rock or natural=shoal" />
		<tag k="name" v="Selbåane" />
		<tag k="place" v="islet" />
		<tag k="ssr:stedsnr" v="449692" />
	</node>
	<node lat="58.8688916671071" lon="9.56795554767225" id="-47631">
		<tag k="name" v="Ingeborg" />
		<tag k="place" v="locality" />
		<tag k="seamark:type" v="rock" />
		<tag k="ssr:stedsnr" v="449974" />
	</node>
	<node lat="58.90596388665256" lon="9.559386108067995" id="-47634">
		<tag k="alt_name" v="Fluer, store" />
		<tag k="fixme" v="multiple name tags, choose one and add the other to alt_name" />
		<tag k="name" v="Fluer;Store Fluer" />
		<tag k="place" v="island" />
		<tag k="ssr:stedsnr" v="243643" />
	</node>
	<node lat="58.87788055322754" lon="9.602188888457116" id="-47645">
		<tag k="name" v="Sandbakken" />
		<tag k="natural" v="beach" />
		<tag k="ssr:stedsnr" v="453044" />
	</node>
	<node lat="58.86098610797938" lon="9.552802771591374" id="-47646">
		<tag k="name" v="Hattholmen" />
		<tag k="place" v="islet" />
		<tag k="ssr:stedsnr" v="453054" />
	</node>
	<node lat="58.844480557071925" lon="9.50082222623153" id="-47649">
		<tag k="fixme" v="consider seamark:type=rock or natural=shoal" />
		<tag k="name" v="Evabåen" />
		<tag k="place" v="islet" />
		<tag k="ssr:stedsnr" v="454036" />
	</node>
	<node lat="58.88278611235639" lon="9.481930552490736" id="-47650">
		<tag k="name" v="Hegdebukta" />
		<tag k="natural" v="beach" />
		<tag k="ssr:stedsnr" v="454188" />
	</node>
	<node lat="58.88420555982361" lon="9.530783326637547" id="-47655">
		<tag k="name" v="Abrahamsholme" />
		<tag k="place" v="islet" />
		<tag k="ssr:stedsnr" v="454211" />
	</node>
	<node lat="58.89892499566764" lon="9.518963884957833" id="-47656">
		<tag k="name" v="Syngårdstrand" />
		<tag k="natural" v="beach" />
		<tag k="ssr:stedsnr" v="454213" />
	</node>
	<node lat="58.89356110754757" lon="9.409058331855611" id="-47657">
		<tag k="alt_name" v="Vanberghalvøya" />
		<tag k="name" v="Valberghalvøya" />
		<tag k="natural" v="cape" />
		<tag k="ssr:stedsnr" v="454247" />
	</node>
	<node lat="58.89024444765036" lon="9.387641665870753" id="-47659">
		<tag k="name" v="Langkilen" />
		<tag k="natural" v="bay" />
		<tag k="ssr:stedsnr" v="454249" />
	</node>
	<node lat="58.904019447723286" lon="9.488344438324814" id="-47662">
		<tag k="name" v="Gunhildskilen" />
		<tag k="natural" v="bay" />
		<tag k="ssr:stedsnr" v="454291" />
	</node>
	<node lat="58.84201389158159" lon="9.452169440363843" id="-47664">
		<tag k="name" v="Landvik" />
		<tag k="natural" v="beach" />
		<tag k="ssr:stedsnr" v="454498" />
	</node>
	<node lat="58.91315555175776" lon="9.51680833445626" id="-47665">
		<tag k="name" v="Skutesund" />
		<tag k="natural" v="strait" />
		<tag k="ssr:stedsnr" v="454596" />
	</node>
	<node lat="58.90069444373713" lon="9.654213886502312" id="-47670">
		<tag k="fixme" v="consider seamark:type=rock or natural=shoal" />
		<tag k="name" v="Hvitebergskjæra" />
		<tag k="place" v="islet" />
		<tag k="ssr:stedsnr" v="455000" />
	</node>
	<node lat="58.77683055511712" lon="9.383119444472467" id="-47672">
		<tag k="name" v="Seibukta" />
		<tag k="natural" v="bay" />
		<tag k="ssr:stedsnr" v="455083" />
	</node>
	<node lat="58.80627222667603" lon="9.417361110227638" id="-47698">
		<tag k="name" v="Askholmen" />
		<tag k="place" v="islet" />
		<tag k="ssr:stedsnr" v="455633" />
	</node>
	<node lat="58.90877222075934" lon="9.559499998016344" id="-47724">
		<tag k="name" v="Fluersundet" />
		<tag k="natural" v="strait" />
		<tag k="ssr:stedsnr" v="267621" />
	</node>
	<node lat="58.897808337006225" lon="9.557841660364613" id="-47725">
		<tag k="alt_name" v="Arøyfjorden" />
		<tag k="bay" v="fjord" />
		<tag k="name" v="Arøyfjord" />
		<tag k="natural" v="bay" />
		<tag k="ssr:stedsnr" v="267630" />
	</node>
	<node lat="58.87031389058795" lon="9.6272833316525" id="-47726">
		<tag k="name" v="Saltsteinbåen" />
		<tag k="place" v="locality" />
		<tag k="seamark:type" v="rock" />
		<tag k="ssr:stedsnr" v="267638" />
	</node>
	<node lat="58.814247220003956" lon="9.468152783353746" id="-47727">
		<tag k="name" v="Storbrottet" />
		<tag k="natural" v="shoal" />
		<tag k="place" v="locality" />
		<tag k="ssr:stedsnr" v="267539" />
	</node>
	<node lat="58.85583889213281" lon="9.451275008014663" id="-47728">
		<tag k="name" v="Vennevika" />
		<tag k="natural" v="bay" />
		<tag k="ssr:stedsnr" v="268672" />
	</node>
	<node lat="58.898730557441546" lon="9.469263885819439" id="-47730">
		<tag k="name" v="Kjerringholmen" />
		<tag k="place" v="islet" />
		<tag k="ssr:stedsnr" v="271813" />
	</node>
	<node lat="58.90048055730486" lon="9.404802771202494" id="-47733">
		<tag k="name" v="Langtanglandet" />
		<tag k="natural" v="beach" />
		<tag k="ssr:stedsnr" v="272127" />
	</node>
	<node lat="58.90359166568747" lon="9.461277782346878" id="-47739">
		<tag k="name" v="Brattholmen" />
		<tag k="place" v="islet" />
		<tag k="ssr:stedsnr" v="272303" />
	</node>
	<node lat="58.86159999595551" lon="9.45585278129282" id="-47740">
		<tag k="name" v="Suggeholmen" />
		<tag k="place" v="islet" />
		<tag k="ssr:stedsnr" v="272308" />
	</node>
	<node lat="58.85362499961592" lon="9.377141672477439" id="-47758">
		<tag k="name" v="Store Vågvika" />
		<tag k="natural" v="bay" />
		<tag k="ssr:stedsnr" v="273526" />
	</node>
	<node lat="58.856516667777015" lon="9.299413880666071" id="-47772">
		<tag k="name" v="Nordheimbukta" />
		<tag k="natural" v="bay" />
		<tag k="ssr:stedsnr" v="273792" />
	</node>
	<node lat="58.85799444526807" lon="9.298794447927984" id="-47773">
		<tag k="name" v="Smørvikbukta" />
		<tag k="natural" v="bay" />
		<tag k="ssr:stedsnr" v="273793" />
	</node>
	<node lat="58.92187778107655" lon="9.509827782723818" id="-47786">
		<tag k="alt_name" v="Halsekilen" />
		<tag k="bay" v="fjord" />
		<tag k="name" v="Stavnesfjorden" />
		<tag k="natural" v="bay" />
		<tag k="ssr:stedsnr" v="304672" />
	</node>
	<node lat="58.885174996553936" lon="9.437361117883706" id="-47787">
		<tag k="name" v="Skarholmane" />
		<tag k="place" v="islet" />
		<tag k="ssr:stedsnr" v="304673" />
	</node>
	<node lat="58.92730833573615" lon="9.65133889626901" id="-47788">
		<tag k="alt_name" v="Flesabåen" />
		<tag k="fixme" v="consider seamark:type=rock or natural=shoal" />
		<tag k="name" v="Flesbåen" />
		<tag k="place" v="islet" />
		<tag k="ssr:stedsnr" v="304918" />
	</node>
	<node lat="58.92528333224299" lon="9.637752771357977" id="-47789">
		<tag k="name" v="Flesa" />
		<tag k="place" v="islet" />
		<tag k="ssr:stedsnr" v="304919" />
	</node>
	<node lat="58.80443610953165" lon="9.440077780442593" id="-47790">
		<tag k="name" v="Styrmannsholmen" />
		<tag k="place" v="islet" />
		<tag k="ssr:stedsnr" v="305603" />
	</node>
	<node lat="58.90966666600514" lon="9.679030553391284" id="-47795">
		<tag k="fixme" v="consider seamark:type=rock or natural=shoal" />
		<tag k="name" v="Rundskjær" />
		<tag k="place" v="islet" />
		<tag k="ssr:stedsnr" v="327457" />
	</node>
	<node lat="58.908991663184956" lon="9.660983337867805" id="-47796">
		<tag k="fixme" v="consider seamark:type=rock or natural=shoal" />
		<tag k="name" v="Ålekråkeskjæra" />
		<tag k="place" v="islet" />
		<tag k="ssr:stedsnr" v="327459" />
	</node>
	<node lat="58.87828889164729" lon="9.41009722621961" id="-47798">
		<tag k="name" v="Frydensborgbukta" />
		<tag k="natural" v="bay" />
		<tag k="ssr:stedsnr" v="327508" />
	</node>
	<node lat="58.83908333244547" lon="9.49329722933161" id="-47799">
		<tag k="name" v="Vækop" />
		<tag k="natural" v="shoal" />
		<tag k="place" v="locality" />
		<tag k="ssr:stedsnr" v="328563" />
	</node>
	<node lat="58.864413884801365" lon="9.4599111073912" id="-47800">
		<tag k="name" v="Skåtøysund" />
		<tag k="natural" v="strait" />
		<tag k="ssr:stedsnr" v="328710" />
	</node>
	<node lat="58.89136944081626" lon="9.590511115767093" id="-47801">
		<tag k="name" v="Parisholmane" />
		<tag k="place" v="islet" />
		<tag k="ssr:stedsnr" v="328664" />
	</node>
	<node lat="58.88871111321492" lon="9.635372220461159" id="-47802">
		<tag k="name" v="Stråholmbåen" />
		<tag k="place" v="locality" />
		<tag k="seamark:type" v="rock" />
		<tag k="ssr:stedsnr" v="328670" />
	</node>
	<node lat="58.901652777730405" lon="9.635522230853066" id="-47803">
		<tag k="name" v="Nordrehuebåen" />
		<tag k="place" v="locality" />
		<tag k="seamark:type" v="rock" />
		<tag k="ssr:stedsnr" v="328671" />
	</node>
	<node lat="58.882258336831704" lon="9.545874992198652" id="-47805">
		<tag k="name" v="Oterøykilen" />
		<tag k="natural" v="bay" />
		<tag k="ssr:stedsnr" v="332149" />
	</node>
	<node lat="58.85685000252607" lon="9.566269438833492" id="-47806">
		<tag k="name" v="Djupoddenskjæra" />
		<tag k="place" v="island" />
		<tag k="ssr:stedsnr" v="332556" />
	</node>
	<node lat="58.89421666639963" lon="9.562347227911399" id="-47807">
		<tag k="name" v="Teineskjær" />
		<tag k="place" v="islet" />
		<tag k="ssr:stedsnr" v="332749" />
	</node>
	<node lat="58.865977777527775" lon="9.454169449990365" id="-47820">
		<tag k="name" v="Knuppelen" />
		<tag k="place" v="islet" />
		<tag k="ssr:stedsnr" v="333363" />
	</node>
	<node lat="58.85766944169119" lon="9.3717111087335" id="-47824">
		<tag k="name" v="Ormebukta" />
		<tag k="natural" v="bay" />
		<tag k="ssr:stedsnr" v="333557" />
	</node>
	<node lat="58.810402773914745" lon="9.444136119586858" id="-47828">
		<tag k="name" v="Teineholmane" />
		<tag k="place" v="islet" />
		<tag k="ssr:stedsnr" v="333419" />
	</node>
	<node lat="58.91219051222754" lon="9.67564947445472" id="-47863">
		<tag k="name" v="Ellevsbåen" />
		<tag k="place" v="locality" />
		<tag k="seamark:type" v="rock" />
		<tag k="ssr:stedsnr" v="342807" />
	</node>
	<node lat="58.886386113035" lon="9.601550004986818" id="-47866">
		<tag k="name" v="Jomfrulandsrenna" />
		<tag k="natural" v="bay" />
		<tag k="ssr:stedsnr" v="364947" />
	</node>
	<node lat="58.86997222495168" lon="9.55748055993342" id="-47871">
		<tag k="name" v="Sukkertoppen" />
		<tag k="place" v="islet" />
		<tag k="ssr:stedsnr" v="365708" />
	</node>
	<node lat="58.817369447462575" lon="9.439952777364232" id="-47877">
		<tag k="alt_name" v="Bekkevikskjeret" />
		<tag k="fixme" v="consider seamark:type=rock or natural=shoal" />
		<tag k="name" v="Bekkevikskjæra" />
		<tag k="place" v="islet" />
		<tag k="ssr:stedsnr" v="366530" />
	</node>
	<node lat="58.92142777421855" lon="9.71640000295646" id="-47879">
		<tag k="name" v="Persbåen" />
		<tag k="place" v="locality" />
		<tag k="seamark:type" v="rock" />
		<tag k="ssr:stedsnr" v="388645" />
	</node>
	<node lat="58.897252776333296" lon="9.54771111267379" id="-47880">
		<tag k="name" v="Melkertangen" />
		<tag k="natural" v="cape" />
		<tag k="ssr:stedsnr" v="388992" />
	</node>
	<node lat="58.845452777022025" lon="9.502497226346868" id="-47881">
		<tag k="name" v="Bråtøyhue" />
		<tag k="natural" v="cape" />
		<tag k="ssr:stedsnr" v="393044" />
	</node>
	<node lat="58.853241665956936" lon="9.540058337132875" id="-47882">
		<tag k="name" v="Ormeskjær" />
		<tag k="place" v="islet" />
		<tag k="ssr:stedsnr" v="393092" />
	</node>
	<node lat="58.90943055902924" lon="9.551486106191145" id="-47884">
		<tag k="name" v="Hasalbukta" />
		<tag k="natural" v="bay" />
		<tag k="ssr:stedsnr" v="393406" />
	</node>
	<node lat="58.901580555348374" lon="9.584499995341822" id="-47890">
		<tag k="name" v="Teineholmen" />
		<tag k="place" v="islet" />
		<tag k="ssr:stedsnr" v="393802" />
	</node>
	<node lat="58.90788333014807" lon="9.567372216327163" id="-47891">
		<tag k="name" v="Ulkeholmen" />
		<tag k="place" v="islet" />
		<tag k="ssr:stedsnr" v="393805" />
	</node>
	<node lat="58.85129999624013" lon="9.378099996729338" id="-47904">
		<tag k="name" v="Hestfjord" />
		<tag k="natural" v="bay" />
		<tag k="ssr:stedsnr" v="394539" />
	</node>
	<node lat="58.79871110893325" lon="9.381963883998923" id="-47905">
		<tag k="name" v="Ørsvikodden" />
		<tag k="natural" v="cape" />
		<tag k="ssr:stedsnr" v="394579" />
	</node>
	<node lat="58.85420833774645" lon="9.299822227717657" id="-47919">
		<tag k="name" v="Lindvikodden" />
		<tag k="natural" v="cape" />
		<tag k="ssr:stedsnr" v="394798" />
	</node>
	<node lat="58.79355555420531" lon="9.416602783960064" id="-47933">
		<tag k="name" v="Østre Skarholmen" />
		<tag k="place" v="islet" />
		<tag k="ssr:stedsnr" v="272075" />
	</node>
	<node lat="58.775038889484144" lon="9.381425003960093" id="-47934">
		<tag k="name" v="Hesthueholmane" />
		<tag k="place" v="islet" />
		<tag k="ssr:stedsnr" v="272095" />
	</node>
	<node lat="58.89304166409702" lon="9.547899993188262" id="-47947">
		<tag k="name" v="Slåttholmen" />
		<tag k="place" v="islet" />
		<tag k="ssr:stedsnr" v="486697" />
	</node>
	<node lat="58.851919443698584" lon="9.348138892654262" id="-47959">
		<tag k="alt_name" v="Teineskjer" />
		<tag k="name" v="Teineskjær" />
		<tag k="place" v="islet" />
		<tag k="ssr:stedsnr" v="487762" />
	</node>
	<node lat="58.90796944657739" lon="9.600672219728231" id="-47967">
		<tag k="name" v="Hummarsund" />
		<tag k="natural" v="strait" />
		<tag k="ssr:stedsnr" v="425945" />
	</node>
	<node lat="58.91679166778394" lon="9.618633332511402" id="-47968">
		<tag k="name" v="Askholmane" />
		<tag k="place" v="island" />
		<tag k="ssr:stedsnr" v="425948" />
	</node>
	<node lat="58.83335000301212" lon="9.544469437617886" id="-47970">
		<tag k="name" v="Skadden" />
		<tag k="natural" v="cape" />
		<tag k="ssr:stedsnr" v="426504" />
	</node>
	<node lat="58.857950001539706" lon="9.330052779930696" id="-47974">
		<tag k="bay" v="fjord" />
		<tag k="name" v="Kilsfjorden" />
		<tag k="natural" v="bay" />
		<tag k="ssr:stedsnr" v="426694" />
	</node>
	<node lat="58.79867778031433" lon="9.428330557454057" id="-47977">
		<tag k="name" v="Larsholmen" />
		<tag k="place" v="islet" />
		<tag k="ssr:stedsnr" v="449474" />
	</node>
	<node lat="58.81714999602663" lon="9.501036114812775" id="-47978">
		<tag k="name" v="Rødskjærgapet" />
		<tag k="place" v="sea" />
		<tag k="ssr:stedsnr" v="449573" />
	</node>
	<node lat="58.84494999828765" lon="9.4905916716337" id="-47979">
		<tag k="name" v="Ternholmen" />
		<tag k="place" v="islet" />
		<tag k="ssr:stedsnr" v="449586" />
	</node>
	<node lat="58.861272219521204" lon="9.536286103252372" id="-47980">
		<tag k="name" v="Burøytangen" />
		<tag k="natural" v="cape" />
		<tag k="ssr:stedsnr" v="449904" />
	</node>
	<node lat="58.88192777904365" lon="9.472863893953882" id="-47981">
		<tag k="alt_name" v="Gumøyrenna" />
		<tag k="name" v="Gumøysund" />
		<tag k="natural" v="strait" />
		<tag k="ssr:stedsnr" v="450707" />
	</node>
	<node lat="58.84359721846165" lon="9.515533333272392" id="-47982">
		<tag k="name" v="Rognholmen" />
		<tag k="place" v="islet" />
		<tag k="ssr:stedsnr" v="272045" />
	</node>
	<node lat="58.84557499589658" lon="9.51731666060943" id="-47983">
		<tag k="name" v="Arntsholmen" />
		<tag k="place" v="islet" />
		<tag k="ssr:stedsnr" v="272047" />
	</node>
	<node lat="58.87440000380219" lon="9.547208326045892" id="-47985">
		<tag k="name" v="Bjerkholmen" />
		<tag k="place" v="islet" />
		<tag k="ssr:stedsnr" v="454112" />
	</node>
	<node lat="58.919547223839885" lon="9.494063888573486" id="-47991">
		<tag k="name" v="Bjerkholmen" />
		<tag k="place" v="islet" />
		<tag k="ssr:stedsnr" v="454282" />
	</node>
	<node lat="58.84163889135881" lon="9.477847214844461" id="-47995">
		<tag k="name" v="Lille Krikkholmen" />
		<tag k="place" v="islet" />
		<tag k="ssr:stedsnr" v="454511" />
	</node>
	<node lat="58.90513333231292" lon="9.596686107990385" id="-47996">
		<tag k="name" v="Sandsundholmen" />
		<tag k="place" v="islet" />
		<tag k="ssr:stedsnr" v="454818" />
	</node>
	<node lat="58.89309444817183" lon="9.56639166607673" id="-47998">
		<tag k="name" v="Bunes" />
		<tag k="natural" v="cape" />
		<tag k="ssr:stedsnr" v="454875" />
	</node>
	<node lat="58.885361109579335" lon="9.378222226013504" id="-48005">
		<tag k="name" v="Bergneset" />
		<tag k="natural" v="cape" />
		<tag k="ssr:stedsnr" v="455325" />
	</node>
	<node lat="58.85821388588974" lon="9.533861106528212" id="-48039">
		<tag k="name" v="Fruertholmen" />
		<tag k="old_name" v="Flubertholmen" />
		<tag k="place" v="islet" />
		<tag k="ssr:stedsnr" v="272157" />
	</node>
	<node lat="58.88526110847117" lon="9.510819439280874" id="-48043">
		<tag k="name" v="Skattholmen" />
		<tag k="place" v="islet" />
		<tag k="ssr:stedsnr" v="272252" />
	</node>
	<node lat="58.814405556318945" lon="9.478386103116152" id="-48045">
		<tag k="name" v="Knubbehausen" />
		<tag k="natural" v="shoal" />
		<tag k="ssr:stedsnr" v="478404" />
	</node>
	<node lat="58.88426389048303" lon="9.55458333384811" id="-48056">
		<tag k="name" v="Sønderstrand" />
		<tag k="natural" v="beach" />
		<tag k="ssr:stedsnr" v="272715" />
	</node>
	<node lat="58.88342777588078" lon="9.583538886939106" id="-48058">
		<tag k="name" v="Revholmen" />
		<tag k="natural" v="cape" />
		<tag k="ssr:stedsnr" v="272839" />
	</node>
	<node lat="58.88331111528746" lon="9.571594438323098" id="-48060">
		<tag k="name" v="Nordodden" />
		<tag k="natural" v="cape" />
		<tag k="ssr:stedsnr" v="272842" />
	</node>
	<node lat="58.88305000240512" lon="9.56241111040747" id="-48061">
		<tag k="name" v="Apalvika" />
		<tag k="natural" v="beach" />
		<tag k="ssr:stedsnr" v="272853" />
	</node>
	<node lat="58.85741667110052" lon="9.571286116175832" id="-48063">
		<tag k="name" v="Djupodden" />
		<tag k="natural" v="cape" />
		<tag k="ssr:stedsnr" v="509920" />
	</node>
	<node lat="58.878147219050454" lon="9.517283335645976" id="-48065">
		<tag k="name" v="Mefjordskjær" />
		<tag k="place" v="islet" />
		<tag k="ssr:stedsnr" v="510712" />
	</node>
	<node lat="58.86796111398832" lon="9.582919436128687" id="-48066">
		<tag k="name" v="Dambåen" />
		<tag k="place" v="locality" />
		<tag k="seamark:type" v="rock" />
		<tag k="ssr:stedsnr" v="510724" />
	</node>
	<node lat="58.83372777487337" lon="9.278249993565932" id="-48067">
		<tag k="name" v="Kjølebrønnskilen" />
		<tag k="natural" v="bay" />
		<tag k="ssr:stedsnr" v="513518" />
	</node>
	<node lat="58.87076944209915" lon="9.523266669219417" id="-48068">
		<tag k="name" v="Nødodden" />
		<tag k="natural" v="cape" />
		<tag k="ssr:stedsnr" v="514173" />
	</node>
	<node lat="58.885691669716955" lon="9.547672229340915" id="-48069">
		<tag k="name" v="Lillefjord" />
		<tag k="natural" v="bay" />
		<tag k="ssr:stedsnr" v="514183" />
	</node>
	<node lat="58.88281666378706" lon="9.55081945057636" id="-48070">
		<tag k="name" v="Mørbakkholmen" />
		<tag k="place" v="islet" />
		<tag k="ssr:stedsnr" v="514184" />
	</node>
	<node lat="58.85626666229741" lon="9.572252782885029" id="-48074">
		<tag k="name" v="Kubukta" />
		<tag k="natural" v="bay" />
		<tag k="ssr:stedsnr" v="514595" />
	</node>
	<node lat="58.89438888787999" lon="9.591730548061205" id="-48075">
		<tag k="name" v="Homlevikflaket" />
		<tag k="natural" v="bay" />
		<tag k="ssr:stedsnr" v="514824" />
	</node>
	<node lat="58.87835833331228" lon="9.411786114551743" id="-48076">
		<tag k="name" v="Sandåsen" />
		<tag k="natural" v="cape" />
		<tag k="ssr:stedsnr" v="515215" />
	</node>
	<node lat="58.850288884462216" lon="9.47196667336618" id="-48080">
		<tag k="name" v="Sakrisholmen" />
		<tag k="place" v="islet" />
		<tag k="ssr:stedsnr" v="515503" />
	</node>
	<node lat="58.8399027768853" lon="9.297730548749474" id="-48086">
		<tag k="name" v="Bruntangen" />
		<tag k="natural" v="cape" />
		<tag k="ssr:stedsnr" v="515809" />
	</node>
	<node lat="58.810997222916114" lon="9.434080559072067" id="-48103">
		<tag k="name" v="Portørtangen" />
		<tag k="natural" v="cape" />
		<tag k="ssr:stedsnr" v="516617" />
	</node>
	<node lat="58.905894444132386" lon="9.544338885516336" id="-48118">
		<tag k="name" v="Kreppa" />
		<tag k="natural" v="strait" />
		<tag k="ssr:stedsnr" v="547706" />
	</node>
	<node lat="58.884555556221954" lon="9.455988885602673" id="-48123">
		<tag k="alt_name" v="Skjensundet" />
		<tag k="name" v="Skiensund" />
		<tag k="natural" v="strait" />
		<tag k="ssr:stedsnr" v="547693" />
	</node>
	<node lat="58.86812778117199" lon="9.432858340441715" id="-48129">
		<tag k="fixme" v="consider seamark:type=rock or natural=shoal" />
		<tag k="name" v="Tilflukten" />
		<tag k="place" v="islet" />
		<tag k="ssr:stedsnr" v="692495" />
	</node>
	<node lat="58.77814722144558" lon="9.436844444329928" id="-48131">
		<tag k="name" v="Portørhausen" />
		<tag k="natural" v="shoal" />
		<tag k="place" v="locality" />
		<tag k="ssr:stedsnr" v="692536" />
	</node>
	<node lat="58.82498888967911" lon="9.51186389210488" id="-48132">
		<tag k="name" v="Jonsgrunn" />
		<tag k="natural" v="shoal" />
		<tag k="place" v="locality" />
		<tag k="ssr:stedsnr" v="692543" />
	</node>
	<node lat="58.80935277401457" lon="9.496630551904824" id="-48133">
		<tag k="name" v="Revet" />
		<tag k="natural" v="shoal" />
		<tag k="place" v="locality" />
		<tag k="ssr:stedsnr" v="692559" />
	</node>
	<node lat="58.917222222043996" lon="9.537547222504596" id="-48134">
		<tag k="name" v="Bringebærholmane" />
		<tag k="place" v="islet" />
		<tag k="ssr:stedsnr" v="692630" />
	</node>
	<node lat="58.932463892650766" lon="9.69373055696825" id="-48135">
		<tag k="name" v="Steinbåen" />
		<tag k="place" v="locality" />
		<tag k="seamark:type" v="rock" />
		<tag k="ssr:stedsnr" v="692647" />
	</node>
	<node lat="58.84196944830307" lon="9.551830555213062" id="-48137">
		<tag k="name" v="Håbåane" />
		<tag k="place" v="locality" />
		<tag k="seamark:type" v="rock" />
		<tag k="ssr:stedsnr" v="692666" />
	</node>
	<node lat="58.8786916693296" lon="9.625422217535682" id="-48138">
		<tag k="name" v="Lilleskogbåen" />
		<tag k="place" v="locality" />
		<tag k="seamark:type" v="rock" />
		<tag k="ssr:stedsnr" v="570621" />
	</node>
	<node lat="58.878683336457584" lon="9.595069448457938" id="-48139">
		<tag k="name" v="Eikeskogbåen" />
		<tag k="place" v="locality" />
		<tag k="seamark:type" v="rock" />
		<tag k="ssr:stedsnr" v="570626" />
	</node>
	<node lat="58.8858305538951" lon="9.533516666833375" id="-48140">
		<tag k="name" v="Sauholmen" />
		<tag k="place" v="islet" />
		<tag k="ssr:stedsnr" v="570652" />
	</node>
	<node lat="58.86271110836746" lon="9.585297219171418" id="-48141">
		<tag k="name" v="Haganestranda" />
		<tag k="natural" v="beach" />
		<tag k="ssr:stedsnr" v="574049" />
	</node>
	<node lat="58.857455557797095" lon="9.529363889729083" id="-48144">
		<tag k="name" v="Kaninholmen" />
		<tag k="place" v="islet" />
		<tag k="ssr:stedsnr" v="575067" />
	</node>
	<node lat="58.775855552581" lon="9.382538882761999" id="-48145">
		<tag k="name" v="Hesthue" />
		<tag k="natural" v="cape" />
		<tag k="ssr:stedsnr" v="575068" />
	</node>
	<node lat="58.89856944297182" lon="9.507450004436063" id="-48146">
		<tag k="name" v="Rondvika" />
		<tag k="natural" v="bay" />
		<tag k="ssr:stedsnr" v="575212" />
	</node>
	<node lat="58.90073333591432" lon="9.515536110809384" id="-48147">
		<tag k="name" v="Garnvika" />
		<tag k="natural" v="bay" />
		<tag k="ssr:stedsnr" v="575215" />
	</node>
	<node lat="58.87465000086953" lon="9.490724992033247" id="-48155">
		<tag k="name" v="Vervodden" />
		<tag k="natural" v="cape" />
		<tag k="ssr:stedsnr" v="575617" />
	</node>
	<node lat="58.88425277554978" lon="9.572325004862517" id="-48159">
		<tag k="name" v="Lyskula" />
		<tag k="place" v="islet" />
		<tag k="ssr:stedsnr" v="575855" />
	</node>
	<node lat="58.85316388957896" lon="9.373733329841636" id="-48176">
		<tag k="name" v="Lille Vågvika" />
		<tag k="natural" v="bay" />
		<tag k="ssr:stedsnr" v="576552" />
	</node>
	<node lat="58.85618055288713" lon="9.398463890709625" id="-48200">
		<tag k="name" v="Orebukta" />
		<tag k="natural" v="bay" />
		<tag k="ssr:stedsnr" v="695735" />
	</node>
	<node lat="58.88090277610546" lon="9.401108338122077" id="-48201">
		<tag k="name" v="Ytre Kalstadkilen" />
		<tag k="natural" v="bay" />
		<tag k="ssr:stedsnr" v="695736" />
	</node>
	<node lat="58.87776111405205" lon="9.5732694519887" id="-48204">
		<tag k="name" v="Lille Røsholmen" />
		<tag k="place" v="islet" />
		<tag k="ssr:stedsnr" v="696061" />
	</node>
	<node lat="58.91393611537614" lon="9.523325004452218" id="-48206">
		<tag k="name" v="Linsund" />
		<tag k="natural" v="strait" />
		<tag k="ssr:stedsnr" v="696456" />
	</node>
	<node lat="58.90310555510048" lon="9.64962778475256" id="-48207">
		<tag k="name" v="Jaktebukta" />
		<tag k="natural" v="bay" />
		<tag k="ssr:stedsnr" v="696600" />
	</node>
	<node lat="58.888977778556175" lon="9.552791667518498" id="-48210">
		<tag k="name" v="Felixsholmen" />
		<tag k="place" v="islet" />
		<tag k="ssr:stedsnr" v="696756" />
	</node>
	<node lat="58.900252776024395" lon="9.471861113035596" id="-48217">
		<tag k="name" v="Kjerringskrevet" />
		<tag k="natural" v="strait" />
		<tag k="ssr:stedsnr" v="697185" />
	</node>
	<node lat="58.80684166370447" lon="9.441605551792712" id="-48219">
		<tag k="name" v="Dapholmane" />
		<tag k="place" v="islet" />
		<tag k="ssr:stedsnr" v="697146" />
	</node>
	<node lat="58.878941664016764" lon="9.395883324761641" id="-48220">
		<tag k="name" v="Hestøya" />
		<tag k="natural" v="cape" />
		<tag k="ssr:stedsnr" v="697192" />
	</node>
	<node lat="58.86050555686799" lon="9.401083332749936" id="-48227">
		<tag k="name" v="Saulebukta" />
		<tag k="natural" v="beach" />
		<tag k="ssr:stedsnr" v="697261" />
	</node>
	<node lat="58.87159722601087" lon="9.472772227814133" id="-48229">
		<tag k="name" v="Sauøysund" />
		<tag k="natural" v="strait" />
		<tag k="ssr:stedsnr" v="697358" />
	</node>
	<node lat="58.8041166661092" lon="9.424425002175491" id="-48235">
		<tag k="name" v="Portør" />
		<tag k="natural" v="cape" />
		<tag k="ssr:stedsnr" v="697690" />
	</node>
	<node lat="58.80672778217883" lon="9.431044444153883" id="-48237">
		<tag k="name" v="Portør havn" />
		<tag k="natural" v="bay" />
		<tag k="ssr:stedsnr" v="697644" />
	</node>
	<node lat="58.852916665453314" lon="9.295594450089045" id="-48238">
		<tag k="name" v="Libukta" />
		<tag k="natural" v="bay" />
		<tag k="ssr:stedsnr" v="697782" />
	</node>
	<node lat="58.80895833255981" lon="9.407022213837106" id="-48280">
		<tag k="name" v="Kolbergtangen" />
		<tag k="natural" v="cape" />
		<tag k="ssr:stedsnr" v="698643" />
	</node>
	<node lat="58.81295555718286" lon="9.429450007673205" id="-48307">
		<tag k="alt_name" v="Tviskjera" />
		<tag k="name" v="Tviskjær" />
		<tag k="place" v="islet" />
		<tag k="ssr:stedsnr" v="608554" />
	</node>
	<node lat="58.835558331105844" lon="9.519074992315623" id="-48309">
		<tag k="alt_name" v="Naus, østre" />
		<tag k="name" v="Østre Naus" />
		<tag k="place" v="islet" />
		<tag k="ssr:stedsnr" v="608740" />
	</node>
	<node lat="58.89095555905882" lon="9.458561104774622" id="-48310">
		<tag k="name" v="Borteid" />
		<tag k="natural" v="cape" />
		<tag k="ssr:stedsnr" v="627953" />
	</node>
	<node lat="58.86339722120376" lon="9.42697778539803" id="-48311">
		<tag k="fixme" v="consider seamark:type=rock or natural=shoal" />
		<tag k="name" v="Barbaraskjæret" />
		<tag k="place" v="islet" />
		<tag k="ssr:stedsnr" v="630489" />
	</node>
	<node lat="58.870927775824576" lon="9.570416670825056" id="-48314">
		<tag k="fixme" v="consider seamark:type=rock or natural=shoal" />
		<tag k="name" v="Amtmannsbåen" />
		<tag k="place" v="islet" />
		<tag k="ssr:stedsnr" v="631712" />
	</node>
	<node lat="58.86428333735958" lon="9.572108338145407" id="-48315">
		<tag k="name" v="Gjesskjæra" />
		<tag k="place" v="island" />
		<tag k="ssr:stedsnr" v="631713" />
	</node>
	<node lat="58.84360833723292" lon="9.564369442485482" id="-48319">
		<tag k="name" v="Tangbukta" />
		<tag k="natural" v="bay" />
		<tag k="ssr:stedsnr" v="634735" />
	</node>
	<node lat="58.84866389056699" lon="9.519408325966054" id="-48320">
		<tag k="name" v="Øsa" />
		<tag k="natural" v="bay" />
		<tag k="ssr:stedsnr" v="635026" />
	</node>
	<node lat="58.85214166799883" lon="9.4950555608357" id="-48321">
		<tag k="fixme" v="consider seamark:type=rock or natural=shoal" />
		<tag k="name" v="Bjønnskjæra" />
		<tag k="place" v="islet" />
		<tag k="ssr:stedsnr" v="635031" />
	</node>
	<node lat="58.91683055843062" lon="9.490538889959746" id="-48322">
		<tag k="alt_name" v="Gressholmen" />
		<tag k="name" v="Holmen" />
		<tag k="place" v="island" />
		<tag k="ssr:stedsnr" v="634777" />
	</node>
	<node lat="58.9118027734172" lon="9.488383339334892" id="-48325">
		<tag k="name" v="Bjelviksund" />
		<tag k="natural" v="strait" />
		<tag k="ssr:stedsnr" v="634783" />
	</node>
	<node lat="58.89440833513257" lon="9.499283327894789" id="-48327">
		<tag k="name" v="Malmtangen" />
		<tag k="natural" v="cape" />
		<tag k="ssr:stedsnr" v="635209" />
	</node>
	<node lat="58.90839722267965" lon="9.599252782206863" id="-48329">
		<tag k="name" v="Bringebærholmane" />
		<tag k="place" v="islet" />
		<tag k="ssr:stedsnr" v="635777" />
	</node>
	<node lat="58.91931944217605" lon="9.491363888029548" id="-48342">
		<tag k="name" v="Sauholmen" />
		<tag k="place" v="islet" />
		<tag k="ssr:stedsnr" v="636284" />
	</node>
	<node lat="58.78241111093731" lon="9.395108328474318" id="-48377">
		<tag k="alt_name" v="Svartskjer" />
		<tag k="name" v="Svartskjær" />
		<tag k="place" v="islet" />
		<tag k="ssr:stedsnr" v="668545" />
	</node>
	<node lat="58.89985555382548" lon="9.648899992458864" id="-48382">
		<tag k="alt_name" v="Hundehollet" />
		<tag k="name" v="Hundholet" />
		<tag k="natural" v="bay" />
		<tag k="ssr:stedsnr" v="668928" />
	</node>
	<node lat="58.903972223221764" lon="9.654725000802397" id="-48383">
		<tag k="alt_name" v="Østreøya" />
		<tag k="name" v="Østerøya" />
		<tag k="natural" v="cape" />
		<tag k="old_name" v="Østre Øya" />
		<tag k="ssr:stedsnr" v="668930" />
	</node>
	<node lat="58.90873888684841" lon="9.603355548206034" id="-48384">
		<tag k="alt_name" v="Skrue" />
		<tag k="name" v="Store Skrue" />
		<tag k="old_name" v="Skrue, store" />
		<tag k="place" v="island" />
		<tag k="ssr:stedsnr" v="668937" />
	</node>
	<node lat="58.84954999809376" lon="9.534711115814087" id="-48390">
		<tag k="alt_name" v="Skratta;Skrataholmane" />
		<tag k="name" v="Skrata" />
		<tag k="place" v="islet" />
		<tag k="ssr:stedsnr" v="669729" />
	</node>
	<node lat="58.90361110729038" lon="9.41079721967857" id="-48391">
		<tag k="name" v="Tømmerbukta" />
		<tag k="natural" v="bay" />
		<tag k="ssr:stedsnr" v="272467" />
	</node>
	<node lat="58.862702780871935" lon="9.405683332928572" id="-48394">
		<tag k="bay" v="fjord" />
		<tag k="name" v="Havnefjorden" />
		<tag k="natural" v="bay" />
		<tag k="ssr:stedsnr" v="692447" />
	</node>
	<node lat="58.86144722470534" lon="9.417005562255293" id="-48395">
		<tag k="name" v="Kragerøbåen" />
		<tag k="place" v="locality" />
		<tag k="seamark:type" v="rock" />
		<tag k="ssr:stedsnr" v="692490" />
	</node>
	<node lat="58.85998888541712" lon="9.426599994639043" id="-48396">
		<tag k="name" v="Marthabåen" />
		<tag k="place" v="locality" />
		<tag k="seamark:type" v="rock" />
		<tag k="ssr:stedsnr" v="692491" />
	</node>
	<node lat="58.80132777427963" lon="9.446086110874816" id="-48397">
		<tag k="name" v="Sandbåen" />
		<tag k="place" v="locality" />
		<tag k="seamark:type" v="rock" />
		<tag k="ssr:stedsnr" v="692509" />
	</node>
	<node lat="58.8407166637734" lon="9.472238890636627" id="-48398">
		<tag k="name" v="Oksen" />
		<tag k="place" v="islet" />
		<tag k="ssr:stedsnr" v="692571" />
	</node>
	<node lat="58.85732499998242" lon="9.548611118927857" id="-48400">
		<tag k="name" v="Buskholmane" />
		<tag k="place" v="islet" />
		<tag k="ssr:stedsnr" v="692685" />
	</node>
	<node lat="58.85215833486563" lon="9.534580549656019" id="-48401">
		<tag k="name" v="Ormøy" />
		<tag k="natural" v="cape" />
		<tag k="ssr:stedsnr" v="692687" />
	</node>
	<node lat="58.9055777791651" lon="9.554591666030893" id="-48408">
		<tag k="name" v="Skimleiholmen" />
		<tag k="place" v="islet" />
		<tag k="ssr:stedsnr" v="696818" />
	</node>
	<node lat="58.881491668413545" lon="9.56981666940823" id="-48410">
		<tag k="name" v="Eidet" />
		<tag k="place" v="locality" />
		<tag k="ssr:stedsnr" v="696871" />
	</node>
	<node lat="58.79355277492391" lon="9.411430551283273" id="-48412">
		<tag k="name" v="Vestre Skarholmen" />
		<tag k="place" v="islet" />
		<tag k="ssr:stedsnr" v="697084" />
	</node>
	<node lat="58.90352499838329" lon="9.405813890130663" id="-48417">
		<tag k="name" v="Fantholmane" />
		<tag k="place" v="islet" />
		<tag k="ssr:stedsnr" v="697474" />
	</node>
	<node lat="58.84585832910795" lon="9.358158332961413" id="-48422">
		<tag k="fixme" v="consider seamark:type=rock or natural=shoal" />
		<tag k="name" v="Selskjær" />
		<tag k="place" v="islet" />
		<tag k="ssr:stedsnr" v="697519" />
	</node>
	<node lat="58.796938892497536" lon="9.432447223799947" id="-48445">
		<tag k="bay" v="fjord" />
		<tag k="name" v="Portør gapet" />
		<tag k="natural" v="bay" />
		<tag k="ssr:stedsnr" v="698626" />
	</node>
	<node lat="58.86041389236709" lon="9.369555555750317" id="-48465">
		<tag k="name" v="Morholmen" />
		<tag k="place" v="islet" />
		<tag k="ssr:stedsnr" v="729717" />
	</node>
	<node lat="58.914019398702024" lon="9.601346718515366" id="-48472">
		<tag k="name" v="Østre Ellevsbåen" />
		<tag k="place" v="locality" />
		<tag k="seamark:type" v="rock" />
		<tag k="ssr:stedsnr" v="904386" />
	</node>
	<node lat="58.78530832998861" lon="9.393322228944806" id="-48475">
		<tag k="name" v="Storholmen" />
		<tag k="place" v="islet" />
		<tag k="ssr:stedsnr" v="752469" />
	</node>
	<node lat="58.84937777417077" lon="9.549230550291487" id="-48476">
		<tag k="name" v="Midtfjordskjær" />
		<tag k="place" v="islet" />
		<tag k="ssr:stedsnr" v="752671" />
	</node>
	<node lat="58.85181944237485" lon="9.565213882969106" id="-48477">
		<tag k="name" v="Ringskjær" />
		<tag k="place" v="islet" />
		<tag k="ssr:stedsnr" v="752672" />
	</node>
	<node lat="58.884925000947526" lon="9.535991674212543" id="-48479">
		<tag k="name" v="Geitholmsunda" />
		<tag k="natural" v="strait" />
		<tag k="ssr:stedsnr" v="757197" />
	</node>
	<node lat="58.90275833007645" lon="9.459705547839658" id="-48480">
		<tag k="name" v="Sølvodden" />
		<tag k="natural" v="cape" />
		<tag k="ssr:stedsnr" v="757308" />
	</node>
	<node lat="58.85953611449254" lon="9.440572218147059" id="-48481">
		<tag k="name" v="Skåtøyrotjenna" />
		<tag k="natural" v="bay" />
		<tag k="ssr:stedsnr" v="757311" />
	</node>
	<node lat="58.867277780615744" lon="9.451138887619411" id="-48482">
		<tag k="name" v="Tobakksrullen" />
		<tag k="place" v="islet" />
		<tag k="ssr:stedsnr" v="757313" />
	</node>
	<node lat="58.86822221787735" lon="9.451966667687943" id="-48483">
		<tag k="name" v="Tobakksrullodden" />
		<tag k="natural" v="cape" />
		<tag k="ssr:stedsnr" v="757319" />
	</node>
	<node lat="58.8053222197507" lon="9.388363891593348" id="-48512">
		<tag k="name" v="Skutevika" />
		<tag k="natural" v="bay" />
		<tag k="ssr:stedsnr" v="758619" />
	</node>
	<node lat="58.926474995980925" lon="9.489058329389925" id="-48515">
		<tag k="name" v="Stavnes" />
		<tag k="natural" v="cape" />
		<tag k="ssr:stedsnr" v="758823" />
	</node>
	<node lat="58.91823332925897" lon="9.639411107041287" id="-48547">
		<tag k="fixme" v="consider seamark:type=rock or natural=shoal" />
		<tag k="name" v="Dynga" />
		<tag k="place" v="islet" />
		<tag k="ssr:stedsnr" v="789948" />
	</node>
	<node lat="58.889527776242396" lon="9.471372229017556" id="-48550">
		<tag k="bay" v="fjord" />
		<tag k="name" v="Kjøpmannsfjorden" />
		<tag k="natural" v="bay" />
		<tag k="ssr:stedsnr" v="911690" />
	</node>
	<node lat="58.85713611528805" lon="9.436480547099782" id="-48553">
		<tag k="name" v="Saltneven" />
		<tag k="place" v="island" />
		<tag k="ssr:stedsnr" v="911698" />
	</node>
	<node lat="58.87480277968382" lon="9.49693889043962" id="-48558">
		<tag k="name" v="Kjelsøy" />
		<tag k="place" v="islet" />
		<tag k="ssr:stedsnr" v="790748" />
	</node>
	<node lat="58.8734638872768" lon="9.549466666358512" id="-48559">
		<tag k="name" v="Orholmen" />
		<tag k="place" v="island" />
		<tag k="ssr:stedsnr" v="790750" />
	</node>
	<node lat="58.8373750022697" lon="9.479666669373643" id="-48560">
		<tag k="alt_name" v="Sjursholmane" />
		<tag k="name" v="Sjursholmen" />
		<tag k="place" v="islet" />
		<tag k="ssr:stedsnr" v="790757" />
	</node>
	<node lat="58.88541111011515" lon="9.55577222011999" id="-48563">
		<tag k="name" v="Buholmen" />
		<tag k="place" v="island" />
		<tag k="ssr:stedsnr" v="790698" />
	</node>
	<node lat="58.92490277835405" lon="9.689930557561706" id="-48564">
		<tag k="alt_name" v="Stråholmstein, in" />
		<tag k="name" v="Indre Stråholmstein" />
		<tag k="place" v="islet" />
		<tag k="ssr:stedsnr" v="911917" />
	</node>
	<node lat="58.926499998896794" lon="9.729316667091705" id="-48565">
		<tag k="fixme" v="multiple name tags, choose one and add the other to alt_name" />
		<tag k="name" v="Steinhausen;Jakobsbåen" />
		<tag k="natural" v="shoal" />
		<tag k="place" v="locality" />
		<tag k="ssr:stedsnr" v="911939" />
	</node>
	<node lat="58.91781944272165" lon="9.685600007517447" id="-48566">
		<tag k="alt_name" v="Håskjeret" />
		<tag k="fixme" v="consider seamark:type=rock or natural=shoal" />
		<tag k="name" v="Håskjær" />
		<tag k="place" v="islet" />
		<tag k="ssr:stedsnr" v="911942" />
	</node>
	<node lat="58.819616663405924" lon="9.45598056348212" id="-48571">
		<tag k="alt_name" v="Fengsholmen" />
		<tag k="name" v="Fengesholmen" />
		<tag k="place" v="islet" />
		<tag k="ssr:stedsnr" v="912563" />
	</node>
	<node lat="58.8415138875674" lon="9.524016671098822" id="-48575">
		<tag k="name" v="Høyvarde" />
		<tag k="place" v="islet" />
		<tag k="ssr:stedsnr" v="813430" />
	</node>
	<node lat="58.866811114208964" lon="9.423336112474203" id="-48576">
		<tag k="name" v="Galeiodden" />
		<tag k="natural" v="cape" />
		<tag k="ssr:stedsnr" v="813435" />
	</node>
	<node lat="58.83991666786622" lon="9.509855549174974" id="-48577">
		<tag k="name" v="Tviskjær" />
		<tag k="place" v="islet" />
		<tag k="ssr:stedsnr" v="813548" />
	</node>
	<node lat="58.81758333638633" lon="9.469594436101714" id="-48578">
		<tag k="name" v="Knubben" />
		<tag k="place" v="islet" />
		<tag k="ssr:stedsnr" v="813610" />
	</node>
	<node lat="58.904388891420524" lon="9.475080553119374" id="-48581">
		<tag k="fixme" v="consider seamark:type=rock or natural=shoal" />
		<tag k="name" v="Hatskjær" />
		<tag k="place" v="islet" />
		<tag k="ssr:stedsnr" v="817776" />
	</node>
	<node lat="58.88377777999718" lon="9.510874991780142" id="-48583">
		<tag k="name" v="Slåttholmen" />
		<tag k="place" v="islet" />
		<tag k="ssr:stedsnr" v="818219" />
	</node>
	<node lat="58.89725555403908" lon="9.646788884864797" id="-48589">
		<tag k="name" v="Rabbestranda" />
		<tag k="natural" v="beach" />
		<tag k="ssr:stedsnr" v="818971" />
	</node>
	<node lat="58.8386472208145" lon="9.330088887141907" id="-48595">
		<tag k="name" v="Langvarpbukta" />
		<tag k="natural" v="bay" />
		<tag k="ssr:stedsnr" v="819530" />
	</node>
	<node lat="58.841580553326814" lon="9.339227782823084" id="-48596">
		<tag k="name" v="Smitangen" />
		<tag k="natural" v="cape" />
		<tag k="ssr:stedsnr" v="819531" />
	</node>
	<node lat="58.91336496074118" lon="9.59501466959753" id="-48620">
		<tag k="name" v="Vestre Ellevsbåen" />
		<tag k="place" v="locality" />
		<tag k="seamark:type" v="rock" />
		<tag k="ssr:stedsnr" v="844377" />
	</node>
	<node lat="58.855827781103585" lon="9.49558888534502" id="-48630">
		<tag k="name" v="Dønnevik" />
		<tag k="natural" v="bay" />
		<tag k="ssr:stedsnr" v="875660" />
	</node>
	<node lat="58.85588611360548" lon="9.57073888253368" id="-48631">
		<tag k="name" v="Kuholmen" />
		<tag k="place" v="islet" />
		<tag k="ssr:stedsnr" v="878621" />
	</node>
	<node lat="58.894561111154786" lon="9.380861111988304" id="-48632">
		<tag k="name" v="Larsøy" />
		<tag k="place" v="islet" />
		<tag k="ssr:stedsnr" v="878755" />
	</node>
	<node lat="58.88797778042291" lon="9.535727775340217" id="-48638">
		<tag k="name" v="Langholmane" />
		<tag k="place" v="islet" />
		<tag k="ssr:stedsnr" v="879202" />
	</node>
	<node lat="58.89295555141838" lon="9.503486106619272" id="-48641">
		<tag k="name" v="Vintereidbråten" />
		<tag k="place" v="locality" />
		<tag k="ssr:stedsnr" v="879205" />
	</node>
	<node lat="58.8860111080056" lon="9.507199993437148" id="-48643">
		<tag k="name" v="Midtgumøykilen" />
		<tag k="natural" v="bay" />
		<tag k="ssr:stedsnr" v="879255" />
	</node>
	<node lat="58.7952833341001" lon="9.379133331383224" id="-48647">
		<tag k="name" v="Levangskilen" />
		<tag k="natural" v="bay" />
		<tag k="ssr:stedsnr" v="879808" />
	</node>
	<node lat="58.87831944822317" lon="9.442513891580857" id="-48648">
		<tag k="name" v="Ingershol" />
		<tag k="natural" v="bay" />
		<tag k="ssr:stedsnr" v="879817" />
	</node>
	<node lat="58.830586107690685" lon="9.309797225903578" id="-48667">
		<tag k="name" v="Eidsholmen" />
		<tag k="place" v="islet" />
		<tag k="ssr:stedsnr" v="880753" />
	</node>
	<node lat="58.874511107199" lon="9.594113885952247" id="-48680">
		<tag k="name" v="Beverskjærbåen" />
		<tag k="place" v="locality" />
		<tag k="seamark:type" v="rock" />
		<tag k="ssr:stedsnr" v="934442" />
	</node>
	<node lat="58.91858333639178" lon="9.544997222880742" id="-48681">
		<tag k="name" v="Henriksholmen" />
		<tag k="place" v="islet" />
		<tag k="ssr:stedsnr" v="934980" />
	</node>
	<node lat="58.87607778025485" lon="9.556799995639938" id="-48682">
		<tag k="name" v="Vestholmen" />
		<tag k="place" v="islet" />
		<tag k="ssr:stedsnr" v="934995" />
	</node>
	<node lat="58.88788889276316" lon="9.612875004901817" id="-48691">
		<tag k="name" v="Kråka" />
		<tag k="natural" v="cape" />
		<tag k="ssr:stedsnr" v="911956" />
	</node>
	<node lat="58.84284444634258" lon="9.566408339595448" id="-48692">
		<tag k="name" v="Jomfruland" />
		<tag k="place" v="island" />
		<tag k="ssr:stedsnr" v="912720" />
	</node>
	<node lat="58.84190833176897" lon="9.528180555653526" id="-48693">
		<tag k="name" v="Østre Rauane" />
		<tag k="place" v="island" />
		<tag k="ssr:stedsnr" v="912721" />
	</node>
	<node lat="58.9154444406107" lon="9.708808325292946" id="-48697">
		<tag k="name" v="Mikkelsbåen" />
		<tag k="place" v="locality" />
		<tag k="seamark:type" v="rock" />
		<tag k="ssr:stedsnr" v="934435" />
	</node>
	<node lat="58.76287222531201" lon="9.399055552282427" id="-48698">
		<tag k="name" v="Taraldsbåen" />
		<tag k="natural" v="shoal" />
		<tag k="place" v="locality" />
		<tag k="ssr:stedsnr" v="935452" />
	</node>
	<node lat="58.84928333636199" lon="9.504855549574648" id="-48701">
		<tag k="name" v="Sildebukta" />
		<tag k="natural" v="bay" />
		<tag k="ssr:stedsnr" v="939038" />
	</node>
	<node lat="58.90297778220125" lon="9.656658336119639" id="-48704">
		<tag k="name" v="Strilebukta" />
		<tag k="natural" v="bay" />
		<tag k="ssr:stedsnr" v="939606" />
	</node>
	<node lat="58.85334721980974" lon="9.567011110578434" id="-48707">
		<tag k="name" v="Lille Ringskjær" />
		<tag k="place" v="islet" />
		<tag k="ssr:stedsnr" v="939692" />
	</node>
	<node lat="58.8987694465757" lon="9.63997499516118" id="-48708">
		<tag k="name" v="Vestrestrand" />
		<tag k="natural" v="beach" />
		<tag k="ssr:stedsnr" v="939993" />
	</node>
	<node lat="58.90578610769698" lon="9.597516659968086" id="-48719">
		<tag k="alt_name" v="Dypsund" />
		<tag k="name" v="Djupsund" />
		<tag k="natural" v="strait" />
		<tag k="ssr:stedsnr" v="954" />
	</node>
	<node lat="58.832941662311256" lon="9.49123610890982" id="-48725">
		<tag k="name" v="Vestre Rauane" />
		<tag k="place" v="island" />
		<tag k="ssr:stedsnr" v="1533" />
	</node>
	<node lat="58.85470000376689" lon="9.561802785843618" id="-48734">
		<tag k="name" v="Hurumbåane" />
		<tag k="place" v="locality" />
		<tag k="seamark:type" v="rock" />
		<tag k="ssr:stedsnr" v="24700" />
	</node>
	<node lat="58.875547223405874" lon="9.419361112316976" id="-48736">
		<tag k="name" v="Stilnestangen" />
		<tag k="natural" v="cape" />
		<tag k="ssr:stedsnr" v="24522" />
	</node>
	<node lat="58.864852778312816" lon="9.404286109390672" id="-48737">
		<tag k="name" v="Smedsbukta" />
		<tag k="natural" v="bay" />
		<tag k="ssr:stedsnr" v="24465" />
	</node>
	<node lat="58.87275278124788" lon="9.591919436377822" id="-48738">
		<tag k="name" v="Beverskjæra" />
		<tag k="place" v="islet" />
		<tag k="ssr:stedsnr" v="24475" />
	</node>
	<node lat="58.80876380472066" lon="9.45010822264427" id="-48739">
		<tag k="name" v="Flatskjær" />
		<tag k="place" v="islet" />
		<tag k="ssr:stedsnr" v="24543" />
	</node>
	<node lat="58.81019166805958" lon="9.46212777447898" id="-48740">
		<tag k="fixme" v="consider seamark:type=rock or natural=shoal" />
		<tag k="name" v="Rødderane" />
		<tag k="place" v="islet" />
		<tag k="ssr:stedsnr" v="24547" />
	</node>
	<node lat="58.8978055547641" lon="9.655999997451493" id="-48741">
		<tag k="name" v="Langholmbrottet" />
		<tag k="place" v="locality" />
		<tag k="seamark:type" v="rock" />
		<tag k="ssr:stedsnr" v="24669" />
	</node>
	<node lat="58.800125000010446" lon="9.424888896024356" id="-48742">
		<tag k="name" v="Larsholmbukta" />
		<tag k="natural" v="bay" />
		<tag k="ssr:stedsnr" v="24963" />
	</node>
	<node lat="58.86192777864615" lon="9.362888882276957" id="-48744">
		<tag k="name" v="Sundaholmane" />
		<tag k="place" v="islet" />
		<tag k="ssr:stedsnr" v="28780" />
	</node>
	<node lat="58.849308329783675" lon="9.528872219060576" id="-48750">
		<tag k="name" v="Takka" />
		<tag k="natural" v="strait" />
		<tag k="ssr:stedsnr" v="29079" />
	</node>
	<node lat="58.87814166304603" lon="9.505508341251586" id="-48751">
		<tag k="name" v="Kirkeholmen" />
		<tag k="place" v="islet" />
		<tag k="ssr:stedsnr" v="29095" />
	</node>
	<node lat="58.90195000328657" lon="9.401619442828641" id="-48754">
		<tag k="name" v="Matløs" />
		<tag k="place" v="islet" />
		<tag k="ssr:stedsnr" v="29493" />
	</node>
	<node lat="58.86165277535175" lon="9.383750004525972" id="-48761">
		<tag k="name" v="Nordstrand" />
		<tag k="natural" v="beach" />
		<tag k="ssr:stedsnr" v="29258" />
	</node>
	<node lat="58.891469443567416" lon="9.534786116322238" id="-48763">
		<tag k="name" v="Persbukt" />
		<tag k="natural" v="bay" />
		<tag k="ssr:stedsnr" v="29264" />
	</node>
	<node lat="58.890552781005276" lon="9.532030547657039" id="-48765">
		<tag k="name" v="Skredderhavna" />
		<tag k="natural" v="bay" />
		<tag k="ssr:stedsnr" v="29267" />
	</node>
	<node lat="58.87150833591484" lon="9.48211388183225" id="-48768">
		<tag k="name" v="Galtebukta" />
		<tag k="natural" v="bay" />
		<tag k="ssr:stedsnr" v="29291" />
	</node>
	<node lat="58.86896944485104" lon="9.475722214367343" id="-48769">
		<tag k="name" v="Venligbukta" />
		<tag k="natural" v="bay" />
		<tag k="ssr:stedsnr" v="29364" />
	</node>
	<node lat="58.836522221575926" lon="9.464555555935283" id="-48832">
		<tag k="name" v="Strømtangen" />
		<tag k="natural" v="cape" />
		<tag k="ssr:stedsnr" v="53436" />
	</node>
	<node lat="58.85733889321105" lon="9.312191661343943" id="-48839">
		<tag k="name" v="Arholmen" />
		<tag k="place" v="islet" />
		<tag k="ssr:stedsnr" v="62695" />
	</node>
	<node lat="58.85713888956056" lon="9.537950008345655" id="-48848">
		<tag k="alt_name" v="Svenskeholmen" />
		<tag k="name" v="Svenskholmen" />
		<tag k="place" v="islet" />
		<tag k="ssr:stedsnr" v="62753" />
	</node>
	<node lat="58.888549995559494" lon="9.653500001016825" id="-48851">
		<tag k="name" v="Mosteinbåen" />
		<tag k="place" v="locality" />
		<tag k="seamark:type" v="rock" />
		<tag k="ssr:stedsnr" v="85617" />
	</node>
	<node lat="58.915072225563236" lon="9.679283331220407" id="-48852">
		<tag k="name" v="Håbrottet" />
		<tag k="place" v="locality" />
		<tag k="seamark:type" v="rock" />
		<tag k="ssr:stedsnr" v="85620" />
	</node>
	<node lat="58.868713888675934" lon="9.440330551908179" id="-48853">
		<tag k="name" v="Hasselholmen" />
		<tag k="place" v="islet" />
		<tag k="ssr:stedsnr" v="85451" />
	</node>
	<node lat="58.86910277670994" lon="9.429888883855458" id="-48854">
		<tag k="fixme" v="consider seamark:type=rock or natural=shoal" />
		<tag k="name" v="Gråskjæret" />
		<tag k="place" v="islet" />
		<tag k="ssr:stedsnr" v="85461" />
	</node>
	<node lat="58.8159916652404" lon="9.396047215425702" id="-48855">
		<tag k="name" v="Stølestranda" />
		<tag k="natural" v="beach" />
		<tag k="ssr:stedsnr" v="85570" />
	</node>
	<node lat="58.88478333032204" lon="9.541325001465943" id="-48856">
		<tag k="name" v="Geitholmen" />
		<tag k="place" v="islet" />
		<tag k="ssr:stedsnr" v="85648" />
	</node>
	<node lat="58.92261389310684" lon="9.546891670685056" id="-48857">
		<tag k="name" v="Hellesøybåen" />
		<tag k="place" v="locality" />
		<tag k="seamark:type" v="rock" />
		<tag k="ssr:stedsnr" v="85971" />
	</node>
	<node lat="58.85938889244777" lon="9.564988888696387" id="-48858">
		<tag k="name" v="Stangskjæra" />
		<tag k="place" v="island" />
		<tag k="ssr:stedsnr" v="89059" />
	</node>
	<node lat="58.90713055345883" lon="9.422502777232292" id="-48859">
		<tag k="name" v="Skarbodalsbukta" />
		<tag k="natural" v="bay" />
		<tag k="ssr:stedsnr" v="89743" />
	</node>
	<node lat="58.8551611138969" lon="9.589288893046364" id="-48860">
		<tag k="fixme" v="consider seamark:type=rock or natural=shoal" />
		<tag k="name" v="Harvbråttet" />
		<tag k="place" v="islet" />
		<tag k="ssr:stedsnr" v="89696" />
	</node>
	<node lat="58.9078833349864" lon="9.478383332399666" id="-48863">
		<tag k="name" v="Bikkjeholmen" />
		<tag k="place" v="islet" />
		<tag k="ssr:stedsnr" v="90265" />
	</node>
	<node lat="58.78784722464569" lon="9.39716667043279" id="-48869">
		<tag k="name" v="Berrsundholmen" />
		<tag k="place" v="islet" />
		<tag k="ssr:stedsnr" v="90061" />
	</node>
	<node lat="58.7890972202931" lon="9.390855557220409" id="-48870">
		<tag k="name" v="Ura" />
		<tag k="natural" v="bay" />
		<tag k="ssr:stedsnr" v="90062" />
	</node>
	<node lat="58.859741670406066" lon="9.436247222641128" id="-48872">
		<tag k="name" v="Skåtøyroa" />
		<tag k="natural" v="cape" />
		<tag k="ssr:stedsnr" v="90154" />
	</node>
	<node lat="58.87326389318114" lon="9.478580554119072" id="-48875">
		<tag k="name" v="Saltskjærbukta" />
		<tag k="natural" v="bay" />
		<tag k="ssr:stedsnr" v="90253" />
	</node>
	<node lat="58.90295833137304" lon="9.425388896920342" id="-48877">
		<tag k="name" v="Setertangen" />
		<tag k="natural" v="cape" />
		<tag k="ssr:stedsnr" v="90481" />
	</node>
	<node lat="58.84833889017406" lon="9.484016661636781" id="-48878">
		<tag k="name" v="Måkholmen" />
		<tag k="place" v="islet" />
		<tag k="ssr:stedsnr" v="90482" />
	</node>
	<node lat="58.88241111038113" lon="9.58699722942526" id="-48881">
		<tag k="name" v="Garnholmen" />
		<tag k="place" v="islet" />
		<tag k="ssr:stedsnr" v="90854" />
	</node>
	<node lat="58.93158333687193" lon="9.490138887961109" id="-48883">
		<tag k="fixme" v="consider seamark:type=rock or natural=shoal" />
		<tag k="name" v="Revskjær" />
		<tag k="place" v="islet" />
		<tag k="ssr:stedsnr" v="90857" />
	</node>
	<node lat="58.88086944072351" lon="9.567425003662054" id="-48884">
		<tag k="name" v="Buktaodden" />
		<tag k="natural" v="cape" />
		<tag k="ssr:stedsnr" v="90858" />
	</node>
	<node lat="58.880355554409995" lon="9.569316669583843" id="-48885">
		<tag k="name" v="Bukta" />
		<tag k="natural" v="bay" />
		<tag k="ssr:stedsnr" v="90859" />
	</node>
	<node lat="58.841847222819986" lon="9.289258338871514" id="-48944">
		<tag k="name" v="Berulfsbukt" />
		<tag k="natural" v="bay" />
		<tag k="ssr:stedsnr" v="91814" />
	</node>
	<node lat="58.86202778028163" lon="9.42889722015592" id="-48975">
		<tag k="alt_name" v="Furuholmen, l" />
		<tag k="name" v="Lille Furuholmen" />
		<tag k="place" v="islet" />
		<tag k="ssr:stedsnr" v="122693" />
	</node>
	<node lat="58.86408889072972" lon="9.365880551475762" id="-48976">
		<tag k="name" v="Rekevika" />
		<tag k="natural" v="bay" />
		<tag k="ssr:stedsnr" v="122697" />
	</node>
	<node lat="58.86404999648154" lon="9.31576666845547" id="-48977">
		<tag k="name" v="Brattøy" />
		<tag k="place" v="island" />
		<tag k="ssr:stedsnr" v="122701" />
	</node>
	<node lat="58.873661110109545" lon="9.633800005698918" id="-48978">
		<tag k="name" v="Svea" />
		<tag k="natural" v="shoal" />
		<tag k="place" v="locality" />
		<tag k="ssr:stedsnr" v="122970" />
	</node>
	<node lat="58.927255553719505" lon="9.693622228900523" id="-48979">
		<tag k="alt_name" v="Steinskjer, in;Indre Steinskjer" />
		<tag k="fixme" v="consider seamark:type=rock or natural=shoal" />
		<tag k="name" v="Steinskjær" />
		<tag k="place" v="islet" />
		<tag k="ssr:stedsnr" v="122907" />
	</node>
	<node lat="58.90218333082875" lon="9.666191673963063" id="-48980">
		<tag k="alt_name" v="Tvillingbrotta" />
		<tag k="fixme" v="consider seamark:type=rock or natural=shoal" />
		<tag k="name" v="Tvillingbrottet" />
		<tag k="place" v="islet" />
		<tag k="ssr:stedsnr" v="122927" />
	</node>
	<node lat="58.91849999803969" lon="9.702149999233448" id="-48981">
		<tag k="name" v="Franskmannsbåen" />
		<tag k="natural" v="shoal" />
		<tag k="place" v="locality" />
		<tag k="ssr:stedsnr" v="122945" />
	</node>
	<node lat="58.90642221965888" lon="9.598294444074286" id="-48982">
		<tag k="name" v="Lille Skrue" />
		<tag k="old_name" v="Skrue, l" />
		<tag k="place" v="islet" />
		<tag k="ssr:stedsnr" v="122949" />
	</node>
	<node lat="58.82004721876353" lon="9.47314999542683" id="-48984">
		<tag k="alt_name" v="Stangskjer" />
		<tag k="fixme" v="consider seamark:type=rock or natural=shoal" />
		<tag k="name" v="Stangskjær" />
		<tag k="place" v="islet" />
		<tag k="ssr:stedsnr" v="123554" />
	</node>
	<node lat="58.85235277629546" lon="9.570147216955002" id="-48988">
		<tag k="name" v="Løkstadbukta" />
		<tag k="natural" v="bay" />
		<tag k="ssr:stedsnr" v="141922" />
	</node>
	<node lat="58.803325003177065" lon="9.407463884870678" id="-48989">
		<tag k="alt_name" v="Gamle Portør havn" />
		<tag k="name" v="Gamle Portør" />
		<tag k="natural" v="bay" />
		<tag k="ssr:stedsnr" v="145548" />
	</node>
	<node lat="58.86385277361626" lon="9.405791658706729" id="-48990">
		<tag k="alt_name" v="Skrubben" />
		<tag k="name" v="Skrubbodden" />
		<tag k="natural" v="cape" />
		<tag k="ssr:stedsnr" v="145461" />
	</node>
	<node lat="58.85973332988145" lon="9.419224995200008" id="-48991">
		<tag k="bay" v="fjord" />
		<tag k="name" v="Kragerøfjorden" />
		<tag k="natural" v="bay" />
		<tag k="ssr:stedsnr" v="145469" />
	</node>
	<node lat="58.8582766151146" lon="9.412810716475454" id="-48992">
		<tag k="alt_name" v="Kalveskjær" />
		<tag k="name" v="Tåtøykalven" />
		<tag k="place" v="islet" />
		<tag k="ssr:stedsnr" v="145471" />
	</node>
	<node lat="58.9025583335057" lon="9.584319447457842" id="-48996">
		<tag k="name" v="Saltskjærholmen" />
		<tag k="place" v="islet" />
		<tag k="ssr:stedsnr" v="145641" />
	</node>
	<node lat="58.909777778860445" lon="9.641627786113595" id="-48998">
		<tag k="name" v="Røysa" />
		<tag k="natural" v="shoal" />
		<tag k="place" v="locality" />
		<tag k="ssr:stedsnr" v="145651" />
	</node>
	<node lat="58.89508333446826" lon="9.600730547645751" id="-48999">
		<tag k="name" v="Arøybrottet" />
		<tag k="natural" v="shoal" />
		<tag k="place" v="locality" />
		<tag k="ssr:stedsnr" v="145652" />
	</node>
	<node lat="58.7977055539836" lon="9.418594449484454" id="-49001">
		<tag k="name" v="Brunsvikbukta" />
		<tag k="natural" v="bay" />
		<tag k="ssr:stedsnr" v="145965" />
	</node>
	<node lat="58.83232222259944" lon="9.533700004206683" id="-49002">
		<tag k="name" v="Skaddebåen" />
		<tag k="place" v="locality" />
		<tag k="seamark:type" v="rock" />
		<tag k="ssr:stedsnr" v="145995" />
	</node>
	<node lat="58.86471110998747" lon="9.454269439075201" id="-49003">
		<tag k="name" v="Leikarholmane" />
		<tag k="place" v="islet" />
		<tag k="ssr:stedsnr" v="146674" />
	</node>
	<node lat="58.91551111338593" lon="9.505011109589626" id="-49004">
		<tag k="name" v="Brønnholmen" />
		<tag k="place" v="island" />
		<tag k="ssr:stedsnr" v="149774" />
	</node>
	<node lat="58.859330551393704" lon="9.575424993555242" id="-49005">
		<tag k="name" v="Susannesbukt" />
		<tag k="natural" v="bay" />
		<tag k="ssr:stedsnr" v="149039" />
	</node>
	<node lat="58.85460555923546" lon="9.511250004320125" id="-49007">
		<tag k="name" v="Brentholmen" />
		<tag k="place" v="islet" />
		<tag k="ssr:stedsnr" v="150027" />
	</node>
	<node lat="58.90216667029905" lon="9.537550000109922" id="-49015">
		<tag k="name" v="Ramsdalbukta" />
		<tag k="natural" v="bay" />
		<tag k="ssr:stedsnr" v="150278" />
	</node>
	<node lat="58.91815277379965" lon="9.485874997317936" id="-49016">
		<tag k="name" v="Valsund" />
		<tag k="natural" v="strait" />
		<tag k="ssr:stedsnr" v="150285" />
	</node>
	<node lat="58.855408332787455" lon="9.448955556487991" id="-49018">
		<tag k="name" v="Pumpeviktangen" />
		<tag k="natural" v="cape" />
		<tag k="ssr:stedsnr" v="150394" />
	</node>
	<node lat="58.903975004217635" lon="9.40464722942299" id="-49019">
		<tag k="name" v="Hellesund" />
		<tag k="natural" v="strait" />
		<tag k="ssr:stedsnr" v="150484" />
	</node>
	<node lat="58.91213333637575" lon="9.509413882107944" id="-49022">
		<tag k="name" v="Langøykilen" />
		<tag k="natural" v="bay" />
		<tag k="ssr:stedsnr" v="150591" />
	</node>
	<node lat="58.90501388775866" lon="9.55577221635323" id="-49030">
		<tag k="name" v="Skimleisundet" />
		<tag k="natural" v="strait" />
		<tag k="ssr:stedsnr" v="150785" />
	</node>
	<node lat="58.84058610841375" lon="9.523974992877317" id="-49033">
		<tag k="name" v="Pæreholmen" />
		<tag k="place" v="islet" />
		<tag k="ssr:stedsnr" v="151046" />
	</node>
	<node lat="58.91098055175961" lon="9.538158337492389" id="-49123">
		<tag k="name" v="Langøy" />
		<tag k="place" v="island" />
		<tag k="ssr:stedsnr" v="183625" />
	</node>
	<node lat="58.896125248579565" lon="9.581183190758294" id="-49125">
		<tag k="name" v="Arøy" />
		<tag k="place" v="island" />
		<tag k="ssr:stedsnr" v="183659" />
	</node>
	<node lat="58.86881388446584" lon="9.607494439967752" id="-49128">
		<tag k="alt_name" v="Saltstein, vestre;Saltstein" />
		<tag k="name" v="Vestre Saltstein" />
		<tag k="natural" v="cape" />
		<tag k="ssr:stedsnr" v="183961" />
	</node>
	<node lat="58.86427777784113" lon="9.410952780212682" id="-49135">
		<tag k="name" v="Gunnarsholmen" />
		<tag k="place" v="islet" />
		<tag k="ssr:stedsnr" v="206451" />
	</node>
	<node lat="58.86673129214869" lon="9.413092936715836" id="-49136">
		<tag k="name" v="Monitorbåen" />
		<tag k="place" v="locality" />
		<tag k="seamark:type" v="rock" />
		<tag k="ssr:stedsnr" v="206503" />
	</node>
	<node lat="58.804594443421244" lon="9.452236109574594" id="-49137">
		<tag k="name" v="Flagra" />
		<tag k="natural" v="shoal" />
		<tag k="place" v="locality" />
		<tag k="ssr:stedsnr" v="206520" />
	</node>
	<node lat="58.79735833770081" lon="9.478602786084389" id="-49138">
		<tag k="name" v="Flatskjærhausen" />
		<tag k="natural" v="shoal" />
		<tag k="place" v="locality" />
		<tag k="ssr:stedsnr" v="206596" />
	</node>
	<node lat="58.86160555972049" lon="9.57456111848079" id="-49139">
		<tag k="name" v="Ellevbåen" />
		<tag k="place" v="locality" />
		<tag k="seamark:type" v="rock" />
		<tag k="ssr:stedsnr" v="206688" />
	</node>
	<node lat="58.87334444738577" lon="9.540747220540633" id="-49140">
		<tag k="name" v="Schweigårdsholmen" />
		<tag k="place" v="islet" />
		<tag k="ssr:stedsnr" v="206691" />
	</node>
	<node lat="58.87323055575911" lon="9.571788894897471" id="-49141">
		<tag k="name" v="Larsbåen" />
		<tag k="place" v="locality" />
		<tag k="seamark:type" v="rock" />
		<tag k="ssr:stedsnr" v="206988" />
	</node>
	<node lat="58.90406389270306" lon="9.537391665022907" id="-49142">
		<tag k="name" v="Dyna" />
		<tag k="place" v="locality" />
		<tag k="seamark:type" v="rock" />
		<tag k="ssr:stedsnr" v="206991" />
	</node>
	<node lat="58.86425523803537" lon="9.5524419193103" id="-49146">
		<tag k="name" v="Geitholmen" />
		<tag k="place" v="islet" />
		<tag k="ssr:stedsnr" v="210052" />
	</node>
	<node lat="58.87688611489749" lon="9.521091665701" id="-49148">
		<tag k="name" v="Oterøyfjorden" />
		<tag k="natural" v="bay" />
		<tag k="ssr:stedsnr" v="211152" />
	</node>
	<node lat="58.868677779331264" lon="9.519141672963116" id="-49149">
		<tag k="name" v="Hellesengkjenna" />
		<tag k="natural" v="bay" />
		<tag k="ssr:stedsnr" v="211154" />
	</node>
	<node lat="58.89008611502939" lon="9.544002776891148" id="-49150">
		<tag k="name" v="Hasleholmen" />
		<tag k="place" v="islet" />
		<tag k="ssr:stedsnr" v="211162" />
	</node>
	<node lat="58.887080554643276" lon="9.54780555227109" id="-49151">
		<tag k="name" v="Ravnholmen" />
		<tag k="place" v="islet" />
		<tag k="ssr:stedsnr" v="211164" />
	</node>
	<node lat="58.916597218444686" lon="9.478866674142575" id="-49154">
		<tag k="name" v="Bjønnes" />
		<tag k="natural" v="beach" />
		<tag k="ssr:stedsnr" v="211299" />
	</node>
	<node lat="58.89689444296366" lon="9.385630561368613" id="-49163">
		<tag k="name" v="Bukkholmen" />
		<tag k="place" v="islet" />
		<tag k="ssr:stedsnr" v="211258" />
	</node>
	<node lat="58.904416667859074" lon="9.395305550904377" id="-49166">
		<tag k="name" v="Skarbobukta" />
		<tag k="natural" v="bay" />
		<tag k="ssr:stedsnr" v="211415" />
	</node>
	<node lat="58.88298888768911" lon="9.558788884826598" id="-49167">
		<tag k="name" v="Sandvikholmen" />
		<tag k="place" v="islet" />
		<tag k="ssr:stedsnr" v="211739" />
	</node>
	<node lat="58.89195833211811" lon="9.552830561811678" id="-49168">
		<tag k="name" v="Buholmfjorden" />
		<tag k="natural" v="bay" />
		<tag k="ssr:stedsnr" v="211750" />
	</node>
	<node lat="58.82668333710008" lon="9.460266658288885" id="-49169">
		<tag k="name" v="Øksa" />
		<tag k="natural" v="beach" />
		<tag k="ssr:stedsnr" v="211847" />
	</node>
	<node lat="58.90036111058491" lon="9.583811114460982" id="-49172">
		<tag k="name" v="Arøybukta" />
		<tag k="natural" v="bay" />
		<tag k="ssr:stedsnr" v="211855" />
	</node>
	<node lat="58.90791666529001" lon="9.555102785035444" id="-49175">
		<tag k="name" v="Langøydypet" />
		<tag k="natural" v="strait" />
		<tag k="ssr:stedsnr" v="211816" />
	</node>
	<node lat="58.89336110737079" lon="9.649166673870505" id="-49178">
		<tag k="fixme" v="consider seamark:type=rock or natural=shoal" />
		<tag k="name" v="Lille Mostein" />
		<tag k="place" v="islet" />
		<tag k="ssr:stedsnr" v="211964" />
	</node>
	<node lat="58.888691664790294" lon="9.38173333557224" id="-49186">
		<tag k="name" v="Bergsøya" />
		<tag k="place" v="islet" />
		<tag k="ssr:stedsnr" v="212345" />
	</node>
	<node lat="58.86133889205574" lon="9.466922216468896" id="-49187">
		<tag k="name" v="Fastersbukt" />
		<tag k="natural" v="bay" />
		<tag k="ssr:stedsnr" v="212304" />
	</node>
	<node lat="58.855077779914275" lon="9.368761107930354" id="-49196">
		<tag k="name" v="Breinebukta" />
		<tag k="natural" v="bay" />
		<tag k="ssr:stedsnr" v="212555" />
	</node>
	<node lat="58.83555277777902" lon="9.319872227755637" id="-49199">
		<tag k="name" v="Knipsund" />
		<tag k="natural" v="strait" />
		<tag k="ssr:stedsnr" v="212754" />
	</node>
	<node lat="58.861588892110724" lon="9.380333334080838" id="-49252">
		<tag k="name" v="Vestre Tangen" />
		<tag k="natural" v="cape" />
		<tag k="ssr:stedsnr" v="273298" />
	</node>
	<node lat="58.85397222357955" lon="9.366755553946081" id="-49264">
		<tag k="name" v="Tåtøyodden" />
		<tag k="natural" v="cape" />
		<tag k="ssr:stedsnr" v="273550" />
	</node>
	<node lat="58.916116664207486" lon="9.519091664405249" id="-49290">
		<tag k="name" v="Risøy" />
		<tag k="place" v="island" />
		<tag k="ssr:stedsnr" v="304642" />
	</node>
	<node lat="58.90763055993541" lon="9.665516674802108" id="-49297">
		<tag k="name" v="Rauholmane" />
		<tag k="place" v="island" />
		<tag k="ssr:stedsnr" v="304935" />
	</node>
	<node lat="58.84836111121001" lon="9.302613892462182" id="-49301">
		<tag k="name" v="Litangen" />
		<tag k="natural" v="cape" />
		<tag k="ssr:stedsnr" v="305745" />
	</node>
	<node lat="58.853086108616885" lon="9.476888888110771" id="-49302">
		<tag k="name" v="Åsvika" />
		<tag k="natural" v="bay" />
		<tag k="ssr:stedsnr" v="327940" />
	</node>
	<node lat="58.851655556997244" lon="9.505277779469493" id="-49303">
		<tag k="name" v="Langholmen" />
		<tag k="place" v="islet" />
		<tag k="ssr:stedsnr" v="328587" />
	</node>
	<node lat="58.90682499612754" lon="9.5707555491382" id="-49304">
		<tag k="name" v="Lyngholmen" />
		<tag k="place" v="islet" />
		<tag k="ssr:stedsnr" v="327988" />
	</node>
	<node lat="58.893019448540414" lon="9.570991674062402" id="-49305">
		<tag k="alt_name" v="Arøysundet" />
		<tag k="name" v="Arøysund" />
		<tag k="natural" v="strait" />
		<tag k="ssr:stedsnr" v="327989" />
	</node>
	<node lat="58.88290000404641" lon="9.530183338953357" id="-49306">
		<tag k="name" v="Høyholmen" />
		<tag k="place" v="islet" />
		<tag k="ssr:stedsnr" v="327995" />
	</node>
	<node lat="58.864900003588225" lon="9.41267776932727" id="-49307">
		<tag k="name" v="Gunnarsholmsundet" />
		<tag k="natural" v="strait" />
		<tag k="ssr:stedsnr" v="328448" />
	</node>
	<node lat="58.861188885578095" lon="9.412388886656995" id="-49308">
		<tag k="fixme" v="multiple name tags, choose one and add the other to alt_name; consider seamark:type=rock or natural=shoal" />
		<tag k="name" v="Smiskjær;Dyna" />
		<tag k="place" v="islet" />
		<tag k="ssr:stedsnr" v="328453" />
	</node>
	<node lat="58.863177774048346" lon="9.433775008267684" id="-49309">
		<tag k="name" v="Gulholmen" />
		<tag k="place" v="islet" />
		<tag k="ssr:stedsnr" v="328503" />
	</node>
	<node lat="58.794855556845576" lon="9.437211103440767" id="-49310">
		<tag k="name" v="Knattane" />
		<tag k="natural" v="shoal" />
		<tag k="place" v="locality" />
		<tag k="ssr:stedsnr" v="328521" />
	</node>
	<node lat="58.877080551664825" lon="9.556577778133953" id="-49311">
		<tag k="name" v="Hasseldalsunda" />
		<tag k="natural" v="strait" />
		<tag k="ssr:stedsnr" v="331042" />
	</node>
	<node lat="58.877061110849716" lon="9.391766664104265" id="-49313">
		<tag k="name" v="Indre Kalstadkilen" />
		<tag k="natural" v="bay" />
		<tag k="ssr:stedsnr" v="331733" />
	</node>
	<node lat="58.87014166916172" lon="9.517074997690697" id="-49314">
		<tag k="name" v="Karisvik" />
		<tag k="natural" v="bay" />
		<tag k="ssr:stedsnr" v="332138" />
	</node>
	<node lat="58.792722220857264" lon="9.40279166149714" id="-49315">
		<tag k="name" v="Vadskjellbukta" />
		<tag k="natural" v="bay" />
		<tag k="ssr:stedsnr" v="333069" />
	</node>
	<node lat="58.87347222048999" lon="9.497363884856265" id="-49319">
		<tag k="name" v="Labukta" />
		<tag k="natural" v="bay" />
		<tag k="ssr:stedsnr" v="332093" />
	</node>
	<node lat="58.89580000237978" lon="9.58795277920684" id="-49321">
		<tag k="name" v="Homlevikholmen" />
		<tag k="place" v="islet" />
		<tag k="ssr:stedsnr" v="332825" />
	</node>
	<node lat="58.88633610899999" lon="9.560427773722546" id="-49324">
		<tag k="name" v="Stokkestøholmen" />
		<tag k="place" v="islet" />
		<tag k="ssr:stedsnr" v="332848" />
	</node>
	<node lat="58.86275833612904" lon="9.475319436229716" id="-49331">
		<tag k="name" v="Fanteholmane" />
		<tag k="place" v="islet" />
		<tag k="ssr:stedsnr" v="333329" />
	</node>
	<node lat="58.868322225700986" lon="9.449697216256514" id="-49337">
		<tag k="name" v="Kaperbukta" />
		<tag k="natural" v="bay" />
		<tag k="ssr:stedsnr" v="333669" />
	</node>
	<node lat="58.90690277551876" lon="9.649949996073744" id="-49386">
		<tag k="alt_name" v="Teineskjer" />
		<tag k="fixme" v="consider seamark:type=rock or natural=shoal" />
		<tag k="name" v="Teineskjær" />
		<tag k="place" v="islet" />
		<tag k="ssr:stedsnr" v="364949" />
	</node>
	<node lat="58.91498889299425" lon="9.691000001697747" id="-49387">
		<tag k="alt_name" v="Skjerbåane" />
		<tag k="name" v="Skjærbåane" />
		<tag k="natural" v="shoal" />
		<tag k="place" v="locality" />
		<tag k="ssr:stedsnr" v="364951" />
	</node>
	<node lat="58.89301388582437" lon="9.671741660409365" id="-49388">
		<tag k="name" v="Rislebåen" />
		<tag k="natural" v="shoal" />
		<tag k="place" v="locality" />
		<tag k="ssr:stedsnr" v="364972" />
	</node>
	<node lat="58.876652779898336" lon="9.543347228095698" id="-49389">
		<tag k="name" v="Oterøy" />
		<tag k="place" v="island" />
		<tag k="ssr:stedsnr" v="365728" />
	</node>
	<node lat="58.90394999927002" lon="9.664352781074724" id="-49390">
		<tag k="alt_name" v="Rosa" />
		<tag k="fixme" v="consider seamark:type=rock or natural=shoal" />
		<tag k="name" v="Tvillingane" />
		<tag k="place" v="islet" />
		<tag k="ssr:stedsnr" v="364946" />
	</node>
	<node lat="58.88403055944256" lon="9.646783335757153" id="-49398">
		<tag k="alt_name" v="Hellehausane" />
		<tag k="name" v="Hellehausen" />
		<tag k="natural" v="shoal" />
		<tag k="old_name" v="Helsehausane" />
		<tag k="place" v="locality" />
		<tag k="ssr:stedsnr" v="365971" />
	</node>
	<node lat="58.78610833021364" lon="9.389819435885931" id="-49401">
		<tag k="name" v="Levangsbukta" />
		<tag k="natural" v="bay" />
		<tag k="ssr:stedsnr" v="388538" />
	</node>
	<node lat="58.89527222104373" lon="9.555911119753931" id="-49403">
		<tag k="name" v="Ropen" />
		<tag k="place" v="islet" />
		<tag k="ssr:stedsnr" v="388631" />
	</node>
	<node lat="58.85800000366065" lon="9.590494438398732" id="-49406">
		<tag k="name" v="Kleiva" />
		<tag k="natural" v="beach" />
		<tag k="ssr:stedsnr" v="392055" />
	</node>
	<node lat="58.86812500173317" lon="9.60479445276683" id="-49407">
		<tag k="name" v="Tårnbukta" />
		<tag k="natural" v="bay" />
		<tag k="ssr:stedsnr" v="392058" />
	</node>
	<node lat="58.858272223589246" lon="9.554505556977919" id="-49408">
		<tag k="name" v="Buskholmane" />
		<tag k="place" v="island" />
		<tag k="ssr:stedsnr" v="392062" />
	</node>
	<node lat="58.85624167056827" lon="9.336597217767785" id="-49410">
		<tag k="fixme" v="consider seamark:type=rock or natural=shoal" />
		<tag k="name" v="Midtfjordskjær" />
		<tag k="place" v="islet" />
		<tag k="ssr:stedsnr" v="392774" />
	</node>
	<node lat="58.85442500029068" lon="9.391030560113045" id="-49412">
		<tag k="name" v="Rundestei" />
		<tag k="natural" v="beach" />
		<tag k="ssr:stedsnr" v="393014" />
	</node>
	<node lat="58.858174996529605" lon="9.41179722867697" id="-49413">
		<tag k="name" v="Kalvesundet" />
		<tag k="natural" v="strait" />
		<tag k="ssr:stedsnr" v="393024" />
	</node>
	<node lat="58.869038889706744" lon="9.523072225514698" id="-49415">
		<tag k="name" v="Hellesengkilen" />
		<tag k="natural" v="bay" />
		<tag k="ssr:stedsnr" v="393160" />
	</node>
	<node lat="58.863574999701335" lon="9.51847222409737" id="-49416">
		<tag k="name" v="Ødegårdskilen" />
		<tag k="natural" v="bay" />
		<tag k="ssr:stedsnr" v="393163" />
	</node>
	<node lat="58.89469444418697" lon="9.547783324971638" id="-49417">
		<tag k="name" v="Eggholmen" />
		<tag k="place" v="islet" />
		<tag k="ssr:stedsnr" v="393175" />
	</node>
	<node lat="58.85904444199185" lon="9.397072227744724" id="-49420">
		<tag k="name" v="Tabbelanten" />
		<tag k="natural" v="beach" />
		<tag k="ssr:stedsnr" v="393248" />
	</node>
	<node lat="58.887733334645716" lon="9.51356944464142" id="-49421">
		<tag k="name" v="Kvernkilen" />
		<tag k="natural" v="bay" />
		<tag k="ssr:stedsnr" v="393252" />
	</node>
	<node lat="58.90581111094075" lon="9.539649991587932" id="-49423">
		<tag k="name" v="Kreppatangen" />
		<tag k="natural" v="cape" />
		<tag k="ssr:stedsnr" v="393266" />
	</node>
	<node lat="58.86814166498086" lon="9.486444437913852" id="-49425">
		<tag k="name" v="Fantebukta" />
		<tag k="natural" v="bay" />
		<tag k="ssr:stedsnr" v="393276" />
	</node>
	<node lat="58.905661113902816" lon="9.43520555745593" id="-49427">
		<tag k="name" v="Breibukta" />
		<tag k="natural" v="bay" />
		<tag k="ssr:stedsnr" v="393444" />
	</node>
	<node lat="58.86222778112978" lon="9.480849993765359" id="-49428">
		<tag k="name" v="Holland" />
		<tag k="place" v="islet" />
		<tag k="ssr:stedsnr" v="393291" />
	</node>
	<node lat="58.881769447226965" lon="9.572772225874449" id="-49445">
		<tag k="name" v="Stutsholmsundet" />
		<tag k="natural" v="strait" />
		<tag k="ssr:stedsnr" v="393872" />
	</node>
	<node lat="58.897013893037766" lon="9.651202783595535" id="-49447">
		<tag k="fixme" v="consider seamark:type=rock or natural=shoal" />
		<tag k="name" v="Selskjæra" />
		<tag k="place" v="islet" />
		<tag k="ssr:stedsnr" v="393969" />
	</node>
	<node lat="58.79266944460246" lon="9.404919443597237" id="-49451">
		<tag k="name" v="Vadskjellholmen" />
		<tag k="place" v="islet" />
		<tag k="ssr:stedsnr" v="394054" />
	</node>
	<node lat="58.88337499576746" lon="9.370066661323778" id="-49461">
		<tag k="name" v="Kaninholmane" />
		<tag k="place" v="islet" />
		<tag k="ssr:stedsnr" v="394262" />
	</node>
	<node lat="58.830688890898344" lon="9.301730552726479" id="-49467">
		<tag k="name" v="Sandtangsundet" />
		<tag k="natural" v="strait" />
		<tag k="ssr:stedsnr" v="394720" />
	</node>
	<node lat="58.856308335665716" lon="9.371083340495009" id="-49472">
		<tag k="name" v="Breibukta" />
		<tag k="natural" v="bay" />
		<tag k="ssr:stedsnr" v="394549" />
	</node>
	<node lat="58.806644442830695" lon="9.426008336344045" id="-49475">
		<tag k="name" v="Saulekilen" />
		<tag k="natural" v="bay" />
		<tag k="ssr:stedsnr" v="394643" />
	</node>
	<node lat="58.80391111206687" lon="9.415058341428413" id="-49478">
		<tag k="name" v="Smørvika" />
		<tag k="natural" v="bay" />
		<tag k="ssr:stedsnr" v="394672" />
	</node>
	<node lat="58.79676110935803" lon="9.377358338652174" id="-49481">
		<tag k="name" v="Smifettangen" />
		<tag k="natural" v="cape" />
		<tag k="ssr:stedsnr" v="394759" />
	</node>
	<node lat="58.84010833211263" lon="9.287325002772418" id="-49491">
		<tag k="name" v="Sundholmen" />
		<tag k="place" v="islet" />
		<tag k="ssr:stedsnr" v="394811" />
	</node>
	<node lat="58.86075555626523" lon="9.38497777830672" id="-49502">
		<tag k="fixme" v="multiple name tags, choose one and add the other to alt_name" />
		<tag k="name" v="Kirkeholmen;Store Kirkeholmen" />
		<tag k="place" v="islet" />
		<tag k="ssr:stedsnr" v="417478" />
	</node>
	<node lat="58.92519444863276" lon="9.533486116497688" id="-49511">
		<tag k="alt_name" v="Furuholmane, store" />
		<tag k="name" v="Store Furuholmen" />
		<tag k="place" v="islet" />
		<tag k="ssr:stedsnr" v="425277" />
	</node>
	<node lat="58.89907499656357" lon="9.683802777696167" id="-49512">
		<tag k="name" v="Tvillingbåane" />
		<tag k="natural" v="shoal" />
		<tag k="place" v="locality" />
		<tag k="ssr:stedsnr" v="425937" />
	</node>
	<node lat="58.924230553003405" lon="9.509005560646047" id="-49517">
		<tag k="name" v="Stavnes" />
		<tag k="natural" v="cape" />
		<tag k="ssr:stedsnr" v="426655" />
	</node>
	<node lat="58.85726388891471" lon="9.51986944817433" id="-49526">
		<tag k="name" v="Skåtøy" />
		<tag k="place" v="island" />
		<tag k="ssr:stedsnr" v="426756" />
	</node>
	<node lat="58.90367499608429" lon="9.435877771645906" id="-49530">
		<tag k="name" v="Skotbukta" />
		<tag k="natural" v="bay" />
		<tag k="ssr:stedsnr" v="510739" />
	</node>
	<node lat="58.89214166797701" lon="9.596730550583485" id="-49535">
		<tag k="fixme" v="consider seamark:type=rock or natural=shoal" />
		<tag k="name" v="Jernskjær" />
		<tag k="place" v="islet" />
		<tag k="ssr:stedsnr" v="509443" />
	</node>
	<node lat="58.86914721806565" lon="9.424152769806323" id="-49536">
		<tag k="name" v="Galeioddbåane" />
		<tag k="place" v="locality" />
		<tag k="seamark:type" v="rock" />
		<tag k="ssr:stedsnr" v="509490" />
	</node>
	<node lat="58.876119443513794" lon="9.44022499443849" id="-49537">
		<tag k="name" v="Grisen" />
		<tag k="natural" v="cape" />
		<tag k="ssr:stedsnr" v="510482" />
	</node>
	<node lat="58.90172499803634" lon="9.553202769490252" id="-49538">
		<tag k="alt_name" v="De mørke buktene" />
		<tag k="name" v="Mørkebukta" />
		<tag k="natural" v="bay" />
		<tag k="ssr:stedsnr" v="509987" />
	</node>
	<node lat="58.90678889078004" lon="9.59203333341614" id="-49539">
		<tag k="name" v="Torskholmen" />
		<tag k="place" v="islet" />
		<tag k="ssr:stedsnr" v="509997" />
	</node>
	<node lat="58.82085555139193" lon="9.482819442104292" id="-49540">
		<tag k="name" v="Fjordbåen" />
		<tag k="place" v="locality" />
		<tag k="seamark:type" v="rock" />
		<tag k="ssr:stedsnr" v="510595" />
	</node>
	<node lat="58.91372222511227" lon="9.630275001042262" id="-49541">
		<tag k="name" v="Danmarksbåen" />
		<tag k="place" v="locality" />
		<tag k="seamark:type" v="rock" />
		<tag k="ssr:stedsnr" v="510692" />
	</node>
	<node lat="58.871047220387865" lon="9.323130563280118" id="-49543">
		<tag k="alt_name" v="Løkholmen" />
		<tag k="name" v="Laukøya" />
		<tag k="place" v="islet" />
		<tag k="ssr:stedsnr" v="513542" />
	</node>
	<node lat="58.88873611272356" lon="9.304872225407905" id="-49544">
		<tag k="name" v="Andersvik" />
		<tag k="natural" v="bay" />
		<tag k="ssr:stedsnr" v="513494" />
	</node>
	<node lat="58.85107499892172" lon="9.497947225499171" id="-49546">
		<tag k="name" v="Jentebåen" />
		<tag k="place" v="locality" />
		<tag k="seamark:type" v="rock" />
		<tag k="ssr:stedsnr" v="514046" />
	</node>
	<node lat="58.86281389035507" lon="9.571411114020497" id="-49547">
		<tag k="name" v="Haganeløpet" />
		<tag k="natural" v="strait" />
		<tag k="ssr:stedsnr" v="514047" />
	</node>
	<node lat="58.841372223683194" lon="9.51944443814132" id="-49548">
		<tag k="name" v="Hyttholmen" />
		<tag k="place" v="islet" />
		<tag k="ssr:stedsnr" v="514050" />
	</node>
	<node lat="58.877366666916345" lon="9.562480559154826" id="-49549">
		<tag k="name" v="Buskholmen" />
		<tag k="place" v="islet" />
		<tag k="ssr:stedsnr" v="514053" />
	</node>
	<node lat="58.8687333325359" lon="9.552905548362345" id="-49550">
		<tag k="name" v="Fugleøya" />
		<tag k="place" v="islet" />
		<tag k="ssr:stedsnr" v="514057" />
	</node>
	<node lat="58.90056666682722" lon="9.472827781232105" id="-49551">
		<tag k="name" v="Dåsholmen" />
		<tag k="place" v="islet" />
		<tag k="ssr:stedsnr" v="514194" />
	</node>
	<node lat="58.887533331934996" lon="9.527213881566302" id="-49553">
		<tag k="name" v="Kjeholmen" />
		<tag k="place" v="islet" />
		<tag k="ssr:stedsnr" v="514220" />
	</node>
	<node lat="58.895027776614235" lon="9.542658331726809" id="-49554">
		<tag k="name" v="Vinterstøa" />
		<tag k="natural" v="beach" />
		<tag k="ssr:stedsnr" v="514247" />
	</node>
	<node lat="58.90008888971692" lon="9.52063332647194" id="-49555">
		<tag k="name" v="Syngersholmen" />
		<tag k="place" v="islet" />
		<tag k="ssr:stedsnr" v="514248" />
	</node>
	<node lat="58.90616944178404" lon="9.656263883042463" id="-49556">
		<tag k="name" v="Rottenebukta" />
		<tag k="natural" v="bay" />
		<tag k="ssr:stedsnr" v="514625" />
	</node>
	<node lat="58.891613887720155" lon="9.570450000385183" id="-49562">
		<tag k="name" v="Rasmusholmen" />
		<tag k="place" v="islet" />
		<tag k="ssr:stedsnr" v="514834" />
	</node>
	<node lat="58.88934166814178" lon="9.565147223074204" id="-49564">
		<tag k="name" v="Klauskilen" />
		<tag k="natural" v="bay" />
		<tag k="ssr:stedsnr" v="514842" />
	</node>
	<node lat="58.8804611117592" lon="9.57425556083344" id="-49565">
		<tag k="name" v="Kreierholmen" />
		<tag k="place" v="islet" />
		<tag k="ssr:stedsnr" v="514855" />
	</node>
	<node lat="58.80428333712893" lon="9.445888882614003" id="-49574">
		<tag k="name" v="Lakseskjæret" />
		<tag k="place" v="islet" />
		<tag k="ssr:stedsnr" v="515136" />
	</node>
	<node lat="58.80728611375274" lon="9.443108338010797" id="-49575">
		<tag k="name" v="Dapholmsundet" />
		<tag k="natural" v="strait" />
		<tag k="ssr:stedsnr" v="515144" />
	</node>
	<node lat="58.863991664948344" lon="9.47918888351671" id="-49582">
		<tag k="name" v="Bryggerhusholmane" />
		<tag k="place" v="islet" />
		<tag k="ssr:stedsnr" v="515394" />
	</node>
	<node lat="58.90574722010925" lon="9.423405549069633" id="-49583">
		<tag k="name" v="Tornøya" />
		<tag k="place" v="island" />
		<tag k="ssr:stedsnr" v="515492" />
	</node>
	<node lat="58.80457222136058" lon="9.407533338488367" id="-49626">
		<tag k="name" v="Simensholmen" />
		<tag k="place" v="islet" />
		<tag k="ssr:stedsnr" v="516649" />
	</node>
	<node lat="58.80534166760022" lon="9.394111117728698" id="-49634">
		<tag k="name" v="Langholmtangen" />
		<tag k="natural" v="cape" />
		<tag k="ssr:stedsnr" v="516653" />
	</node>
	<node lat="58.90356666755186" lon="9.639080550988744" id="-49650">
		<tag k="alt_name" v="Nordre Huet" />
		<tag k="name" v="Stråholmhuet" />
		<tag k="natural" v="cape" />
		<tag k="old_name" v="Hue, nordre" />
		<tag k="ssr:stedsnr" v="546932" />
	</node>
	<node lat="58.91470555511524" lon="9.637158331425033" id="-49651">
		<tag k="name" v="Danmark" />
		<tag k="place" v="islet" />
		<tag k="ssr:stedsnr" v="546936" />
	</node>
	<node lat="58.82939444075091" lon="9.50689722778368" id="-49658">
		<tag k="alt_name" v="Naus, vestre" />
		<tag k="name" v="Vestre Naus" />
		<tag k="place" v="islet" />
		<tag k="ssr:stedsnr" v="547561" />
	</node>
	<node lat="58.88448333054774" lon="9.564980553102824" id="-49659">
		<tag k="name" v="Klova" />
		<tag k="natural" v="strait" />
		<tag k="ssr:stedsnr" v="547696" />
	</node>
	<node lat="58.87107777539567" lon="9.476986104841856" id="-49660">
		<tag k="name" v="Sauøya" />
		<tag k="place" v="island" />
		<tag k="ssr:stedsnr" v="547728" />
	</node>
	<node lat="58.85076667045526" lon="9.325150005925394" id="-49668">
		<tag k="name" v="Dypsundholmane" />
		<tag k="place" v="islet" />
		<tag k="ssr:stedsnr" v="547775" />
	</node>
	<node lat="58.80028332974283" lon="9.381683326658559" id="-49669">
		<tag k="bay" v="fjord" />
		<tag k="name" v="Haslumkilen" />
		<tag k="natural" v="bay" />
		<tag k="ssr:stedsnr" v="548523" />
	</node>
	<node lat="58.91177777852676" lon="9.606836112076705" id="-49670">
		<tag k="name" v="Lågsundholmen" />
		<tag k="place" v="islet" />
		<tag k="ssr:stedsnr" v="570427" />
	</node>
	<node lat="58.90983611026492" lon="9.684302769747411" id="-49671">
		<tag k="name" v="Rosenbåen" />
		<tag k="place" v="locality" />
		<tag k="seamark:type" v="rock" />
		<tag k="ssr:stedsnr" v="570629" />
	</node>
	<node lat="58.9265388870775" lon="9.531602781851912" id="-49672">
		<tag k="name" v="Teistholmen" />
		<tag k="place" v="islet" />
		<tag k="ssr:stedsnr" v="570991" />
	</node>
	<node lat="58.913333337452066" lon="9.595030550851178" id="-49674">
		<tag k="fixme" v="consider seamark:type=rock or natural=shoal" />
		<tag k="name" v="Ellefsbåen" />
		<tag k="place" v="islet" />
		<tag k="ssr:stedsnr" v="575767" />
	</node>
	<node lat="58.90133332959336" lon="9.579077772448358" id="-49675">
		<tag k="name" v="Arøytangen" />
		<tag k="natural" v="cape" />
		<tag k="ssr:stedsnr" v="575787" />
	</node>
	<node lat="58.848174999869634" lon="9.55201943675962" id="-49679">
		<tag k="fixme" v="consider seamark:type=rock or natural=shoal" />
		<tag k="name" v="Mefjordskjær" />
		<tag k="place" v="islet" />
		<tag k="ssr:stedsnr" v="574469" />
	</node>
	<node lat="58.89975833000864" lon="9.37909444014276" id="-49680">
		<tag k="name" v="Sandvika" />
		<tag k="natural" v="bay" />
		<tag k="ssr:stedsnr" v="574780" />
	</node>
	<node lat="58.846780557696086" lon="9.522344439744092" id="-49682">
		<tag k="name" v="Båtholmen" />
		<tag k="place" v="islet" />
		<tag k="ssr:stedsnr" v="575032" />
	</node>
	<node lat="58.839430551648775" lon="9.524802771103023" id="-49684">
		<tag k="name" v="Matiasholmen" />
		<tag k="place" v="islet" />
		<tag k="ssr:stedsnr" v="575038" />
	</node>
	<node lat="58.86336110741547" lon="9.536822219516393" id="-49686">
		<tag k="name" v="Grøtsund" />
		<tag k="natural" v="strait" />
		<tag k="ssr:stedsnr" v="575138" />
	</node>
	<node lat="58.85091666844855" lon="9.396316663428998" id="-49689">
		<tag k="name" v="Mørkholl" />
		<tag k="natural" v="bay" />
		<tag k="ssr:stedsnr" v="575178" />
	</node>
	<node lat="58.849755552910885" lon="9.388694446759313" id="-49690">
		<tag k="name" v="Vestre Stabbestad" />
		<tag k="natural" v="beach" />
		<tag k="ssr:stedsnr" v="575179" />
	</node>
	<node lat="58.88520555850562" lon="9.514980560363062" id="-49694">
		<tag k="name" v="Guriholmen" />
		<tag k="place" v="islet" />
		<tag k="ssr:stedsnr" v="575248" />
	</node>
	<node lat="58.85215277736034" lon="9.449672223926163" id="-49702">
		<tag k="name" v="Rognholmen" />
		<tag k="place" v="islet" />
		<tag k="ssr:stedsnr" v="575476" />
	</node>
	<node lat="58.91575277885624" lon="9.5011277819302" id="-49705">
		<tag k="name" v="Bjønnesputt" />
		<tag k="natural" v="strait" />
		<tag k="ssr:stedsnr" v="575580" />
	</node>
	<node lat="58.89473611081959" lon="9.653391659159833" id="-49709">
		<tag k="fixme" v="consider seamark:type=rock or natural=shoal" />
		<tag k="name" v="Langholmskjæret" />
		<tag k="place" v="islet" />
		<tag k="ssr:stedsnr" v="575964" />
	</node>
	<node lat="58.89516388551777" lon="9.559713888981156" id="-49711">
		<tag k="name" v="Ropeknalleren" />
		<tag k="place" v="islet" />
		<tag k="ssr:stedsnr" v="575721" />
	</node>
	<node lat="58.83911111499295" lon="9.335522230540738" id="-49727">
		<tag k="name" v="Vestrestrand" />
		<tag k="natural" v="beach" />
		<tag k="ssr:stedsnr" v="576521" />
	</node>
	<node lat="58.803202777423564" lon="9.403600001997592" id="-49731">
		<tag k="name" v="Rundholmen" />
		<tag k="place" v="islet" />
		<tag k="ssr:stedsnr" v="576674" />
	</node>
	<node lat="58.8792472236219" lon="9.314941664753045" id="-49737">
		<tag k="name" v="Sugdebukta" />
		<tag k="natural" v="bay" />
		<tag k="ssr:stedsnr" v="576935" />
	</node>
	<node lat="58.91333611317581" lon="9.610738889975895" id="-49754">
		<tag k="name" v="Lågsund" />
		<tag k="natural" v="strait" />
		<tag k="ssr:stedsnr" v="607936" />
	</node>
	<node lat="58.88307778111321" lon="9.57756667236423" id="-49760">
		<tag k="name" v="Stutsholmen" />
		<tag k="place" v="island" />
		<tag k="ssr:stedsnr" v="607663" />
	</node>
	<node lat="58.86465833542781" lon="9.550461115369457" id="-49766">
		<tag k="name" v="Jesper" />
		<tag k="place" v="islet" />
		<tag k="ssr:stedsnr" v="607695" />
	</node>
	<node lat="58.865838885712414" lon="9.41580277502952" id="-49767">
		<tag k="name" v="Øya" />
		<tag k="place" v="island" />
		<tag k="ssr:stedsnr" v="607700" />
	</node>
	<node lat="58.889261115458055" lon="9.623063886182804" id="-49769">
		<tag k="bay" v="fjord" />
		<tag k="name" v="Gapet" />
		<tag k="natural" v="bay" />
		<tag k="ssr:stedsnr" v="607958" />
	</node>
	<node lat="58.89344166323143" lon="9.645972220309773" id="-49770">
		<tag k="name" v="Gåsholmen" />
		<tag k="place" v="islet" />
		<tag k="ssr:stedsnr" v="607960" />
	</node>
	<node lat="58.86073610912117" lon="9.382377773475845" id="-49779">
		<tag k="alt_name" v="Kjerkholmane" />
		<tag k="name" v="Kirkeholmene" />
		<tag k="place" v="islet" />
		<tag k="ssr:stedsnr" v="608720" />
	</node>
	<node lat="58.87502500403157" lon="9.544749999040693" id="-49780">
		<tag k="name" v="Nordkapp" />
		<tag k="place" v="islet" />
		<tag k="ssr:stedsnr" v="635062" />
	</node>
	<node lat="58.87390555365266" lon="9.522069449681048" id="-49782">
		<tag k="name" v="Brattholmen" />
		<tag k="place" v="islet" />
		<tag k="ssr:stedsnr" v="635137" />
	</node>
	<node lat="58.901111107319274" lon="9.610102783592973" id="-49784">
		<tag k="name" v="Jørensbåen" />
		<tag k="place" v="locality" />
		<tag k="seamark:type" v="rock" />
		<tag k="ssr:stedsnr" v="630448" />
	</node>
	<node lat="58.860883330543174" lon="9.552758330024444" id="-49785">
		<tag k="name" v="Hatten" />
		<tag k="place" v="islet" />
		<tag k="ssr:stedsnr" v="630450" />
	</node>
	<node lat="58.89734166728081" lon="9.601794442720905" id="-49786">
		<tag k="name" v="Arøybåen" />
		<tag k="place" v="locality" />
		<tag k="seamark:type" v="rock" />
		<tag k="ssr:stedsnr" v="631669" />
	</node>
	<node lat="58.857261107400525" lon="9.405861112228536" id="-49787">
		<tag k="name" v="Steinsund" />
		<tag k="natural" v="bay" />
		<tag k="ssr:stedsnr" v="631461" />
	</node>
	<node lat="58.85794444049373" lon="9.41094722779453" id="-49788">
		<tag k="name" v="Mannodden" />
		<tag k="natural" v="cape" />
		<tag k="ssr:stedsnr" v="631462" />
	</node>
	<node lat="58.894769448490806" lon="9.428700002653235" id="-49789">
		<tag k="name" v="Drengskåtbåen" />
		<tag k="natural" v="shoal" />
		<tag k="place" v="locality" />
		<tag k="ssr:stedsnr" v="634787" />
	</node>
	<node lat="58.903158337680665" lon="9.46350278513641" id="-49791">
		<tag k="name" v="Flatskjær" />
		<tag k="place" v="islet" />
		<tag k="ssr:stedsnr" v="635316" />
	</node>
	<node lat="58.91740833527864" lon="9.506980549787636" id="-49795">
		<tag k="name" v="Korssund" />
		<tag k="natural" v="strait" />
		<tag k="ssr:stedsnr" v="635569" />
	</node>
	<node lat="58.903116666137656" lon="9.65202222137821" id="-49796">
		<tag k="name" v="Breibukta" />
		<tag k="natural" v="beach" />
		<tag k="ssr:stedsnr" v="635575" />
	</node>
	<node lat="58.80805833353533" lon="9.444152770785768" id="-49800">
		<tag k="name" v="Brentholmen" />
		<tag k="place" v="islet" />
		<tag k="ssr:stedsnr" v="636119" />
	</node>
	<node lat="58.88254722267868" lon="9.556341668890271" id="-49804">
		<tag k="name" v="Sandvika" />
		<tag k="natural" v="beach" />
		<tag k="ssr:stedsnr" v="635857" />
	</node>
	<node lat="58.85926389177799" lon="9.379419440036665" id="-49806">
		<tag k="name" v="Kirkeholmsundet" />
		<tag k="natural" v="strait" />
		<tag k="ssr:stedsnr" v="636307" />
	</node>
	<node lat="58.861705558078725" lon="9.446305557717398" id="-49808">
		<tag k="name" v="Hvitstein" />
		<tag k="natural" v="beach" />
		<tag k="ssr:stedsnr" v="636322" />
	</node>
	<node lat="58.87733055376544" lon="9.315566658794573" id="-49823">
		<tag k="name" v="Digernesodden" />
		<tag k="natural" v="cape" />
		<tag k="ssr:stedsnr" v="636920" />
	</node>
	<node lat="58.8061111132412" lon="9.413844444147994" id="-49848">
		<tag k="name" v="Dapholmen" />
		<tag k="place" v="islet" />
		<tag k="ssr:stedsnr" v="637674" />
	</node>
	<node lat="58.736125003480396" lon="9.581508326110667" id="-49859">
		<tag k="name" v="Indre Skagerrak" />
		<tag k="old_name" v="Indre Skagerak" />
		<tag k="place" v="sea" />
		<tag k="ssr:stedsnr" v="668547" />
	</node>
	<node lat="58.90223333562845" lon="9.530838890178334" id="-49861">
		<tag k="name" v="Langårsund" />
		<tag k="natural" v="strait" />
		<tag k="ssr:stedsnr" v="668655" />
	</node>
	<node lat="58.91669166786713" lon="9.61889166164488" id="-49870">
		<tag k="name" v="Soddaskholmen" />
		<tag k="place" v="islet" />
		<tag k="ssr:stedsnr" v="668941" />
	</node>
	<node lat="58.89643611281096" lon="9.639961113805105" id="-49871">
		<tag k="name" v="Søndre Huet" />
		<tag k="natural" v="cape" />
		<tag k="old_name" v="Hue, s" />
		<tag k="ssr:stedsnr" v="668960" />
	</node>
	<node lat="58.92271110883663" lon="9.717333336120042" id="-49882">
		<tag k="name" v="Steingrunnen" />
		<tag k="natural" v="shoal" />
		<tag k="place" v="locality" />
		<tag k="ssr:stedsnr" v="729947" />
	</node>
	<node lat="58.91958055342382" lon="9.698175000495073" id="-49883">
		<tag k="alt_name" v="Steinskjer, yt;Ytre Steinskjer" />
		<tag k="fixme" v="consider seamark:type=rock or natural=shoal" />
		<tag k="name" v="Ytre Steinskjær" />
		<tag k="place" v="islet" />
		<tag k="ssr:stedsnr" v="729955" />
	</node>
	<node lat="58.83217499944961" lon="9.30866389696826" id="-49899">
		<tag k="bay" v="fjord" />
		<tag k="name" v="Barlandskilen" />
		<tag k="natural" v="bay" />
		<tag k="ssr:stedsnr" v="730547" />
	</node>
	<node lat="58.924300001604045" lon="9.664805556751825" id="-49910">
		<tag k="name" v="Stråholmbukta" />
		<tag k="natural" v="bay" />
		<tag k="ssr:stedsnr" v="752439" />
	</node>
	<node lat="58.87374166375722" lon="9.438905549859067" id="-49911">
		<tag k="name" v="Gulodden" />
		<tag k="natural" v="cape" />
		<tag k="ssr:stedsnr" v="752440" />
	</node>
	<node lat="58.87272777399605" lon="9.609638884897818" id="-49912">
		<tag k="name" v="Saltsteinbukta" />
		<tag k="natural" v="bay" />
		<tag k="ssr:stedsnr" v="752441" />
	</node>
	<node lat="58.86414444737985" lon="9.436708335164191" id="-49914">
		<tag k="name" v="Vestre Nessundholme" />
		<tag k="place" v="islet" />
		<tag k="ssr:stedsnr" v="752500" />
	</node>
	<node lat="58.84363056001555" lon="9.343736118213346" id="-49915">
		<tag k="name" v="Kjeholmen" />
		<tag k="place" v="islet" />
		<tag k="ssr:stedsnr" v="752562" />
	</node>
	<node lat="58.820075003628844" lon="9.521591674947276" id="-49916">
		<tag k="name" v="Måkholmhausen" />
		<tag k="natural" v="shoal" />
		<tag k="place" v="locality" />
		<tag k="ssr:stedsnr" v="752547" />
	</node>
	<node lat="58.86105833377705" lon="9.60044722216608" id="-49917">
		<tag k="name" v="Tårnbåen" />
		<tag k="place" v="locality" />
		<tag k="seamark:type" v="rock" />
		<tag k="ssr:stedsnr" v="752622" />
	</node>
	<node lat="58.92731666251719" lon="9.707211119483391" id="-49918">
		<tag k="name" v="Tonerhausen" />
		<tag k="place" v="locality" />
		<tag k="seamark:type" v="rock" />
		<tag k="ssr:stedsnr" v="752627" />
	</node>
	<node lat="58.89503889143363" lon="9.663305556473174" id="-49919">
		<tag k="name" v="Langholmbåen" />
		<tag k="place" v="locality" />
		<tag k="seamark:type" v="rock" />
		<tag k="ssr:stedsnr" v="752644" />
	</node>
	<node lat="58.84852777901137" lon="9.494472223065642" id="-49925">
		<tag k="name" v="Svarteskjær" />
		<tag k="place" v="islet" />
		<tag k="ssr:stedsnr" v="757033" />
	</node>
	<node lat="58.828430559595" lon="9.311386117934797" id="-49928">
		<tag k="name" v="Eidskilen" />
		<tag k="natural" v="bay" />
		<tag k="ssr:stedsnr" v="756492" />
	</node>
	<node lat="58.85116944378211" lon="9.53042500568444" id="-49929">
		<tag k="name" v="Soløy" />
		<tag k="place" v="islet" />
		<tag k="ssr:stedsnr" v="757072" />
	</node>
	<node lat="58.90477499680125" lon="9.595572230431927" id="-49937">
		<tag k="name" v="Sandsund" />
		<tag k="natural" v="strait" />
		<tag k="ssr:stedsnr" v="757764" />
	</node>
	<node lat="58.89606389236369" lon="9.59450276990276" id="-49938">
		<tag k="name" v="Gulskjæret" />
		<tag k="place" v="islet" />
		<tag k="ssr:stedsnr" v="757826" />
	</node>
	<node lat="58.85509166970964" lon="9.52648055588329" id="-49941">
		<tag k="name" v="Dypsundholmen" />
		<tag k="place" v="islet" />
		<tag k="ssr:stedsnr" v="758038" />
	</node>
	<node lat="58.842772223878036" lon="9.522608330644543" id="-49942">
		<tag k="name" v="Selholmen" />
		<tag k="place" v="islet" />
		<tag k="ssr:stedsnr" v="758041" />
	</node>
	<node lat="58.77404166897149" lon="9.375433339139287" id="-49948">
		<tag k="name" v="Lille Lyngholmen" />
		<tag k="place" v="islet" />
		<tag k="ssr:stedsnr" v="758183" />
	</node>
	<node lat="58.78567500286569" lon="9.409505563413758" id="-50002">
		<tag k="name" v="Bærsundbåen" />
		<tag k="place" v="locality" />
		<tag k="seamark:type" v="rock" />
		<tag k="ssr:stedsnr" v="935570" />
	</node>
	<node lat="58.933825001956265" lon="9.489361111743623" id="-50012">
		<tag k="bay" v="fjord" />
		<tag k="name" v="Fossingfjorden" />
		<tag k="natural" v="bay" />
		<tag k="ssr:stedsnr" v="789292" />
	</node>
	<node lat="58.9107194401968" lon="9.560261116116228" id="-50020">
		<tag k="alt_name" v="Fluer, l" />
		<tag k="name" v="Lille Fluer" />
		<tag k="place" v="island" />
		<tag k="ssr:stedsnr" v="789630" />
	</node>
	<node lat="58.86104444085525" lon="9.404583335857183" id="-50030">
		<tag k="alt_name" v="Store Furuholmen" />
		<tag k="name" v="Furuholmen" />
		<tag k="place" v="islet" />
		<tag k="ssr:stedsnr" v="790723" />
	</node>
	<node lat="58.78325555973883" lon="9.388352771781209" id="-50033">
		<tag k="name" v="Stangnes" />
		<tag k="natural" v="cape" />
		<tag k="ssr:stedsnr" v="809934" />
	</node>
	<node lat="58.808480026241064" lon="9.439427385018261" id="-50034">
		<tag k="name" v="Urholmen" />
		<tag k="place" v="islet" />
		<tag k="ssr:stedsnr" v="813506" />
	</node>
	<node lat="58.79733333644016" lon="9.439274994210063" id="-50035">
		<tag k="name" v="Kaperbåen" />
		<tag k="place" v="locality" />
		<tag k="seamark:type" v="rock" />
		<tag k="ssr:stedsnr" v="813514" />
	</node>
	<node lat="58.795944441804565" lon="9.420994446942913" id="-50036">
		<tag k="name" v="Grytodden" />
		<tag k="natural" v="cape" />
		<tag k="ssr:stedsnr" v="813519" />
	</node>
	<node lat="58.87781388506598" lon="9.587330548973906" id="-50038">
		<tag k="name" v="Mefjordskjær" />
		<tag k="place" v="islet" />
		<tag k="ssr:stedsnr" v="813656" />
	</node>
	<node lat="58.88183888804527" lon="9.584594444276417" id="-50039">
		<tag k="name" v="Tønneholmene" />
		<tag k="place" v="islet" />
		<tag k="ssr:stedsnr" v="813658" />
	</node>
	<node lat="58.83848611557503" lon="9.532599995365784" id="-50040">
		<tag k="name" v="Pilkehellane" />
		<tag k="natural" v="shoal" />
		<tag k="place" v="locality" />
		<tag k="ssr:stedsnr" v="813668" />
	</node>
	<node lat="58.853647220464964" lon="9.53073333440047" id="-50042">
		<tag k="name" v="Bråtøybukta" />
		<tag k="natural" v="bay" />
		<tag k="ssr:stedsnr" v="813694" />
	</node>
	<node lat="58.886238887674416" lon="9.473991667777042" id="-50044">
		<tag k="fixme" v="consider seamark:type=rock or natural=shoal" />
		<tag k="name" v="Midtfjordskjær" />
		<tag k="place" v="islet" />
		<tag k="ssr:stedsnr" v="814696" />
	</node>
	<node lat="58.86970000419585" lon="9.609319438970232" id="-50045">
		<tag k="name" v="Minervabukta" />
		<tag k="natural" v="bay" />
		<tag k="ssr:stedsnr" v="817052" />
	</node>
	<node lat="58.90181389267902" lon="9.46868333737393" id="-50046">
		<tag k="name" v="Gjerdungholmen" />
		<tag k="place" v="islet" />
		<tag k="ssr:stedsnr" v="818283" />
	</node>
	<node lat="58.86477222170873" lon="9.481449999332597" id="-50047">
		<tag k="name" v="Vabukta" />
		<tag k="natural" v="bay" />
		<tag k="ssr:stedsnr" v="818384" />
	</node>
	<node lat="58.855877778823846" lon="9.587983337293212" id="-50048">
		<tag k="name" v="Harva" />
		<tag k="natural" v="beach" />
		<tag k="ssr:stedsnr" v="817695" />
	</node>
	<node lat="58.847836110970285" lon="9.513352782601892" id="-50049">
		<tag k="name" v="Myrakilen" />
		<tag k="natural" v="bay" />
		<tag k="ssr:stedsnr" v="818032" />
	</node>
	<node lat="58.85270833552577" lon="9.516852774837703" id="-50050">
		<tag k="name" v="Saulekilen" />
		<tag k="natural" v="bay" />
		<tag k="ssr:stedsnr" v="818034" />
	</node>
	<node lat="58.86866666442092" lon="9.501838884828016" id="-50051">
		<tag k="name" v="Buvikbukta" />
		<tag k="natural" v="bay" />
		<tag k="ssr:stedsnr" v="818131" />
	</node>
	<node lat="58.8637867909634" lon="9.54607492308264" id="-50052">
		<tag k="name" v="Jespersund" />
		<tag k="natural" v="strait" />
		<tag k="ssr:stedsnr" v="818137" />
	</node>
	<node lat="58.88845277575805" lon="9.53994166726862" id="-50053">
		<tag k="name" v="Lille Hasselholmen" />
		<tag k="place" v="islet" />
		<tag k="ssr:stedsnr" v="818147" />
	</node>
	<node lat="58.898544447239125" lon="9.451508333531386" id="-50054">
		<tag k="name" v="Vintereidet" />
		<tag k="place" v="locality" />
		<tag k="ssr:stedsnr" v="818148" />
	</node>
	<node lat="58.879727773719026" lon="9.534675005938105" id="-50055">
		<tag k="name" v="Løkholmane" />
		<tag k="place" v="islet" />
		<tag k="ssr:stedsnr" v="818151" />
	</node>
	<node lat="58.889152775274994" lon="9.487075005002493" id="-50059">
		<tag k="name" v="Gangdalstranda" />
		<tag k="natural" v="beach" />
		<tag k="ssr:stedsnr" v="818166" />
	</node>
	<node lat="58.856305554466054" lon="9.475030554408523" id="-50063">
		<tag k="name" v="Sjøholmen" />
		<tag k="place" v="islet" />
		<tag k="ssr:stedsnr" v="818390" />
	</node>
	<node lat="58.9036555600642" lon="9.425755549350718" id="-50066">
		<tag k="name" v="Eidet" />
		<tag k="place" v="locality" />
		<tag k="ssr:stedsnr" v="818518" />
	</node>
	<node lat="58.84171667114689" lon="9.484761103259896" id="-50067">
		<tag k="name" v="Hesttangen" />
		<tag k="natural" v="cape" />
		<tag k="ssr:stedsnr" v="818520" />
	</node>
	<node lat="58.84792777821339" lon="9.439249994823765" id="-50071">
		<tag k="name" v="Tjuven" />
		<tag k="place" v="islet" />
		<tag k="ssr:stedsnr" v="818514" />
	</node>
	<node lat="58.908680555469125" lon="9.629216674286646" id="-50072">
		<tag k="name" v="Stråholmflaket" />
		<tag k="natural" v="bay" />
		<tag k="ssr:stedsnr" v="818602" />
	</node>
	<node lat="58.90319721941202" lon="9.642213885843908" id="-50073">
		<tag k="name" v="Nordrestrand" />
		<tag k="natural" v="beach" />
		<tag k="ssr:stedsnr" v="818613" />
	</node>
	<node lat="58.91642222355064" lon="9.512938883821548" id="-50075">
		<tag k="name" v="Stokkestøa" />
		<tag k="natural" v="strait" />
		<tag k="ssr:stedsnr" v="818624" />
	</node>
	<node lat="58.913494445752406" lon="9.515255558984462" id="-50076">
		<tag k="name" v="Kjeholmen" />
		<tag k="place" v="islet" />
		<tag k="ssr:stedsnr" v="818627" />
	</node>
	<node lat="58.896063892342404" lon="9.591241658792493" id="-50077">
		<tag k="name" v="Vaskerholmen" />
		<tag k="place" v="islet" />
		<tag k="ssr:stedsnr" v="818847" />
	</node>
	<node lat="58.8242861147625" lon="9.45156945184102" id="-50078">
		<tag k="name" v="Ragnhildsvik" />
		<tag k="natural" v="bay" />
		<tag k="ssr:stedsnr" v="818849" />
	</node>
	<node lat="58.805500002585156" lon="9.400397220924587" id="-50084">
		<tag k="name" v="Furuholmen" />
		<tag k="place" v="islet" />
		<tag k="ssr:stedsnr" v="819684" />
	</node>
	<node lat="58.848677775364244" lon="9.372411115527614" id="-50114">
		<tag k="fixme" v="consider seamark:type=rock or natural=shoal" />
		<tag k="name" v="Svartskjær" />
		<tag k="place" v="islet" />
		<tag k="ssr:stedsnr" v="819555" />
	</node>
	<node lat="58.80182499690036" lon="9.432422222492296" id="-50116">
		<tag k="name" v="Myrholmen" />
		<tag k="place" v="islet" />
		<tag k="ssr:stedsnr" v="819662" />
	</node>
	<node lat="58.929458332066176" lon="9.481425006604066" id="-50119">
		<tag k="name" v="Bukkholmen" />
		<tag k="place" v="islet" />
		<tag k="ssr:stedsnr" v="819835" />
	</node>
	<node lat="58.81490277666263" lon="9.52178055563235" id="-50148">
		<tag k="bay" v="fjord" />
		<tag k="name" v="Jomfrulandsrevet" />
		<tag k="natural" v="bay" />
		<tag k="ssr:stedsnr" v="935584" />
	</node>
	<node lat="58.918863891483504" lon="9.51081111422727" id="-50157">
		<tag k="alt_name" v="Kirkeholmen" />
		<tag k="name" v="Kjerkholmen" />
		<tag k="place" v="island" />
		<tag k="ssr:stedsnr" v="850641" />
	</node>
	<node lat="58.874430559411465" lon="9.61126388075391" id="-50159">
		<tag k="alt_name" v="Saltstein, østre" />
		<tag k="name" v="Østre Saltstein" />
		<tag k="natural" v="cape" />
		<tag k="ssr:stedsnr" v="850955" />
	</node>
	<node lat="58.89540000048169" lon="9.649225007014197" id="-50160">
		<tag k="name" v="Mostein" />
		<tag k="place" v="islet" />
		<tag k="ssr:stedsnr" v="850960" />
	</node>
	<node lat="58.89597500420091" lon="9.65260555961771" id="-50161">
		<tag k="name" v="Langholmen" />
		<tag k="place" v="islet" />
		<tag k="ssr:stedsnr" v="850965" />
	</node>
	<node lat="58.87707777829904" lon="9.56921666826096" id="-50166">
		<tag k="alt_name" v="Røssholmen" />
		<tag k="name" v="Røsholmen" />
		<tag k="place" v="island" />
		<tag k="ssr:stedsnr" v="851695" />
	</node>
	<node lat="58.8816666681092" lon="9.44243333959239" id="-50167">
		<tag k="alt_name" v="Berøytangen" />
		<tag k="name" v="Bærøytangen" />
		<tag k="natural" v="cape" />
		<tag k="ssr:stedsnr" v="851646" />
	</node>
	<node lat="58.808219444869614" lon="9.484305559754459" id="-50174">
		<tag k="name" v="Stanggapet" />
		<tag k="place" v="sea" />
		<tag k="ssr:stedsnr" v="870927" />
	</node>
	<node lat="58.91905277664976" lon="9.533491661867924" id="-50176">
		<tag k="name" v="Skrubbholmen" />
		<tag k="place" v="islet" />
		<tag k="ssr:stedsnr" v="873614" />
	</node>
	<node lat="58.86557777548347" lon="9.441138884854206" id="-50177">
		<tag k="name" v="Nessund" />
		<tag k="natural" v="strait" />
		<tag k="ssr:stedsnr" v="874540" />
	</node>
	<node lat="58.87196389024335" lon="9.434708334284188" id="-50178">
		<tag k="name" v="Bukkholmen" />
		<tag k="place" v="islet" />
		<tag k="ssr:stedsnr" v="874543" />
	</node>
	<node lat="58.88926111469507" lon="9.568133328212804" id="-50179">
		<tag k="name" v="Store Skauholmen" />
		<tag k="place" v="islet" />
		<tag k="ssr:stedsnr" v="874709" />
	</node>
	<node lat="58.87168332914439" lon="9.540963881257516" id="-50180">
		<tag k="name" v="Larsholmen" />
		<tag k="place" v="islet" />
		<tag k="ssr:stedsnr" v="874715" />
	</node>
	<node lat="58.887552781948784" lon="9.57289166838879" id="-50182">
		<tag k="alt_name" v="Klovholmane" />
		<tag k="name" v="Klavholmane" />
		<tag k="place" v="island" />
		<tag k="ssr:stedsnr" v="874970" />
	</node>
	<node lat="58.89921944113263" lon="9.545213883824818" id="-50183">
		<tag k="name" v="Skutevikkilen" />
		<tag k="natural" v="bay" />
		<tag k="ssr:stedsnr" v="874975" />
	</node>
	<node lat="58.904041666860294" lon="9.587855552276542" id="-50185">
		<tag k="name" v="Lille Saltskjærholmen" />
		<tag k="place" v="islet" />
		<tag k="ssr:stedsnr" v="878817" />
	</node>
	<node lat="58.90305555191118" lon="9.579819447428594" id="-50186">
		<tag k="name" v="Børresholmrenna" />
		<tag k="natural" v="strait" />
		<tag k="ssr:stedsnr" v="878823" />
	</node>
	<node lat="58.89203333086532" lon="9.574216674178906" id="-50188">
		<tag k="name" v="Hysula" />
		<tag k="natural" v="cape" />
		<tag k="ssr:stedsnr" v="878874" />
	</node>
	<node lat="58.881199997785686" lon="9.397369452401822" id="-50190">
		<tag k="name" v="Mosholmen" />
		<tag k="place" v="islet" />
		<tag k="ssr:stedsnr" v="879216" />
	</node>
	<node lat="58.84399444855254" lon="9.528452782687797" id="-50193">
		<tag k="name" v="Garnholmen" />
		<tag k="place" v="islet" />
		<tag k="ssr:stedsnr" v="879054" />
	</node>
	<node lat="58.84254444253658" lon="9.513644451384172" id="-50194">
		<tag k="name" v="Korsholmen" />
		<tag k="place" v="islet" />
		<tag k="ssr:stedsnr" v="879059" />
	</node>
	<node lat="58.851516663580696" lon="9.39907222230139" id="-50196">
		<tag k="name" v="Mørkhollodden" />
		<tag k="natural" v="cape" />
		<tag k="ssr:stedsnr" v="879177" />
	</node>
	<node lat="58.8890444470015" lon="9.5298472159537" id="-50199">
		<tag k="name" v="Sveivdokkhølen" />
		<tag k="natural" v="bay" />
		<tag k="ssr:stedsnr" v="879183" />
	</node>
	<node lat="58.84584722018914" lon="9.353361115796483" id="-50210">
		<tag k="name" v="Hasseleidodden" />
		<tag k="natural" v="cape" />
		<tag k="ssr:stedsnr" v="880540" />
	</node>
	<node lat="58.79960555173519" lon="9.42593610677697" id="-50218">
		<tag k="name" v="Larsholmbukta" />
		<tag k="natural" v="bay" />
		<tag k="old_name" v="Lasholmbukta" />
		<tag k="ssr:stedsnr" v="879681" />
	</node>
	<node lat="58.77465555841052" lon="9.376158333506032" id="-50231">
		<tag k="name" v="Lyngholmen" />
		<tag k="place" v="islet" />
		<tag k="ssr:stedsnr" v="880156" />
	</node>
	<node lat="58.883069447708436" lon="9.371444437741472" id="-50245">
		<tag k="name" v="Selbenken" />
		<tag k="place" v="islet" />
		<tag k="ssr:stedsnr" v="880332" />
	</node>
	<node lat="58.85761389120754" lon="9.300794447149546" id="-50263">
		<tag k="name" v="Snekkevikholmen" />
		<tag k="place" v="islet" />
		<tag k="ssr:stedsnr" v="880876" />
	</node>
	<node lat="58.90822777407143" lon="9.677758331985869" id="-50284">
		<tag k="name" v="Rosenbrottane" />
		<tag k="place" v="locality" />
		<tag k="seamark:type" v="rock" />
		<tag k="ssr:stedsnr" v="935683" />
	</node>
	<node lat="58.837296696656104" lon="9.554697351134902" id="-50285">
		<tag k="name" v="Skaddehalsen" />
		<tag k="natural" v="cape" />
		<tag k="ssr:stedsnr" v="935691" />
	</node>
	<node lat="58.8604555547905" lon="9.378377783514576" id="-50290">
		<tag k="name" v="Lille Kirkeholmen" />
		<tag k="place" v="islet" />
		<tag k="ssr:stedsnr" v="938752" />
	</node>
	<node lat="58.92416944649823" lon="9.477141671850122" id="-50291">
		<tag k="name" v="Barmskilen" />
		<tag k="natural" v="bay" />
		<tag k="ssr:stedsnr" v="938763" />
	</node>
	<node lat="58.8572472189453" lon="9.542738896555338" id="-50292">
		<tag k="name" v="Munkeskjær" />
		<tag k="place" v="islet" />
		<tag k="ssr:stedsnr" v="939084" />
	</node>
	<node lat="58.91461944102737" lon="9.502308328311786" id="-50296">
		<tag k="name" v="Vrangsund" />
		<tag k="natural" v="strait" />
		<tag k="ssr:stedsnr" v="939616" />
	</node>
	<node lat="58.899763890079655" lon="9.589366669150946" id="-50297">
		<tag k="name" v="Brottvika" />
		<tag k="natural" v="bay" />
		<tag k="ssr:stedsnr" v="939855" />
	</node>
	<node lat="58.84890833748231" lon="9.427983331713277" id="-50303">
		<tag k="name" v="Sillevik" />
		<tag k="natural" v="beach" />
		<tag k="ssr:stedsnr" v="940148" />
	</node>
	<node lat="58.868169441869085" lon="9.484141669168096" id="-50315">
		<tag k="name" v="Korssundholmane" />
		<tag k="place" v="islet" />
		<tag k="ssr:stedsnr" v="940283" />
	</node>
	<node lat="58.86616389076708" lon="9.474108334045805" id="-50317">
		<tag k="name" v="Rognholmen" />
		<tag k="place" v="islet" />
		<tag k="ssr:stedsnr" v="940341" />
	</node>
	<node lat="58.86467777870098" lon="9.475519441530453" id="-50318">
		<tag k="name" v="Dyna" />
		<tag k="place" v="islet" />
		<tag k="ssr:stedsnr" v="940342" />
	</node>
	<node lat="58.84041667021022" lon="9.480216668490971" id="-50319">
		<tag k="name" v="Store Krikkholmen" />
		<tag k="place" v="islet" />
		<tag k="ssr:stedsnr" v="940462" />
	</node>
	<node lat="58.84381388524118" lon="9.346858336459833" id="-50322">
		<tag k="name" v="Moldholmen" />
		<tag k="place" v="islet" />
		<tag k="ssr:stedsnr" v="940489" />
	</node>
	<node lat="58.879162027407546" lon="9.580263750477034" id="-50754">
		<tag k="fixme" v="consider seamark:type=rock or natural=shoal" />
		<tag k="name" v="Stutsholmskjæra" />
		<tag k="place" v="islet" />
		<tag k="ssr:stedsnr" v="1074522" />
	</node>
	<node lat="58.88086692413532" lon="9.405034013126404" id="-50757">
		<tag k="name" v="Kalstadkilen" />
		<tag k="natural" v="bay" />
		<tag k="ssr:stedsnr" v="1074475" />
	</node>
	<node lat="58.870641149558594" lon="9.541430462850952" id="-50758">
		<tag k="name" v="Schweigårdsholmbåen" />
		<tag k="place" v="locality" />
		<tag k="seamark:type" v="rock" />
		<tag k="ssr:stedsnr" v="1074544" />
	</node>
	<node lat="58.85578440841748" lon="9.530663438523156" id="-50764">
		<tag k="name" v="Svenskholmsundet" />
		<tag k="natural" v="strait" />
		<tag k="ssr:stedsnr" v="1074550" />
	</node>
	<node lat="58.8330777316509" lon="9.500416087617289" id="-50766">
		<tag k="name" v="Saudaskjærholmen" />
		<tag k="place" v="islet" />
		<tag k="ssr:stedsnr" v="1074662" />
	</node>
	<node lat="58.83150025772126" lon="9.50086303997957" id="-50767">
		<tag k="name" v="Vabuktholmen" />
		<tag k="place" v="islet" />
		<tag k="ssr:stedsnr" v="1074663" />
	</node>
	<node lat="58.830302750671095" lon="9.498514597041606" id="-50768">
		<tag k="name" v="Tre-Johansholmane" />
		<tag k="place" v="islet" />
		<tag k="ssr:stedsnr" v="1074664" />
	</node>
	<node lat="58.82889910419018" lon="9.490138490821703" id="-50769">
		<tag k="fixme" v="consider seamark:type=rock or natural=shoal" />
		<tag k="name" v="Flatskjær" />
		<tag k="place" v="islet" />
		<tag k="ssr:stedsnr" v="1074665" />
	</node>
	<node lat="58.8083413573226" lon="9.43484226979636" id="-50774">
		<tag k="name" v="Korsholmen" />
		<tag k="natural" v="cape" />
		<tag k="ssr:stedsnr" v="1074713" />
	</node>
	<node lat="58.79941968992651" lon="9.433665462280166" id="-50775">
		<tag k="fixme" v="consider seamark:type=rock or natural=shoal" />
		<tag k="name" v="Nordre Portørhunden" />
		<tag k="place" v="islet" />
		<tag k="ssr:stedsnr" v="1074715" />
	</node>
	<node lat="58.81047811902954" lon="9.443960251277145" id="-50776">
		<tag k="name" v="Nordre Teineholmen" />
		<tag k="place" v="islet" />
		<tag k="ssr:stedsnr" v="1074716" />
	</node>
	<node lat="58.809814955019505" lon="9.444178201238156" id="-50777">
		<tag k="name" v="Søndre Teineholmen" />
		<tag k="place" v="islet" />
		<tag k="ssr:stedsnr" v="1074717" />
	</node>
	<node lat="58.809323250400595" lon="9.45109662173184" id="-50778">
		<tag k="name" v="Østre Flatskjær" />
		<tag k="place" v="islet" />
		<tag k="ssr:stedsnr" v="1074718" />
	</node>
	<node lat="58.80866673419506" lon="9.448465452853672" id="-50779">
		<tag k="name" v="Vestre Flatskjær" />
		<tag k="place" v="islet" />
		<tag k="ssr:stedsnr" v="1074719" />
	</node>
	<node lat="58.80868189050481" lon="9.443381061208989" id="-50780">
		<tag k="name" v="Bringebærholmen" />
		<tag k="place" v="islet" />
		<tag k="ssr:stedsnr" v="1074720" />
	</node>
	<node lat="58.80754936161184" lon="9.446459004357974" id="-50781">
		<tag k="name" v="Palmeskjær" />
		<tag k="place" v="islet" />
		<tag k="ssr:stedsnr" v="1074721" />
	</node>
	<node lat="58.8075450478205" lon="9.437462325452662" id="-50783">
		<tag k="name" v="Båtsund" />
		<tag k="natural" v="strait" />
		<tag k="ssr:stedsnr" v="1074723" />
	</node>
	<node lat="58.80730169642156" lon="9.435702102336878" id="-50784">
		<tag k="fixme" v="consider seamark:type=rock or natural=shoal" />
		<tag k="name" v="Vabbeskjær" />
		<tag k="place" v="islet" />
		<tag k="ssr:stedsnr" v="1074724" />
	</node>
	<node lat="58.80627278941061" lon="9.43299670795049" id="-50785">
		<tag k="name" v="Havnebåen" />
		<tag k="place" v="locality" />
		<tag k="seamark:type" v="rock" />
		<tag k="ssr:stedsnr" v="1074725" />
	</node>
	<node lat="58.79899117882922" lon="9.434129849511875" id="-50786">
		<tag k="fixme" v="consider seamark:type=rock or natural=shoal" />
		<tag k="name" v="Portørhunden" />
		<tag k="place" v="islet" />
		<tag k="ssr:stedsnr" v="1074726" />
	</node>
	<node lat="58.80403023925503" lon="9.433567547752988" id="-50789">
		<tag k="loc_name" v="Bleikmyrhola" />
		<tag k="name" v="Blekmyrholet" />
		<tag k="natural" v="bay" />
		<tag k="ssr:stedsnr" v="1074811" />
	</node>
	<node lat="58.80808071622571" lon="9.435261400771658" id="-50790">
		<tag k="loc_name" v="Korssundet" />
		<tag k="name" v="Korssund" />
		<tag k="natural" v="strait" />
		<tag k="ssr:stedsnr" v="1074814" />
	</node>
	<node lat="58.87876014834129" lon="9.512355453354985" id="-50791">
		<tag k="name" v="Rytterholmbåen" />
		<tag k="place" v="locality" />
		<tag k="seamark:type" v="rock" />
		<tag k="ssr:stedsnr" v="1074856" />
	</node>
	<node lat="58.88004077023472" lon="9.509835054611065" id="-50792">
		<tag k="name" v="Tangebåen" />
		<tag k="place" v="locality" />
		<tag k="seamark:type" v="rock" />
		<tag k="ssr:stedsnr" v="1074857" />
	</node>
	<node lat="58.87707071525958" lon="9.506669442064021" id="-50793">
		<tag k="name" v="Kjerkholmbåen" />
		<tag k="place" v="locality" />
		<tag k="seamark:type" v="rock" />
		<tag k="ssr:stedsnr" v="1074859" />
	</node>
	<node lat="58.81778116443927" lon="9.474276802447228" id="-50794">
		<tag k="fixme" v="consider seamark:type=rock or natural=shoal" />
		<tag k="name" v="Svartenesa" />
		<tag k="place" v="islet" />
		<tag k="ssr:stedsnr" v="1074861" />
	</node>
	<node lat="58.828445092159534" lon="9.495682680045885" id="-50795">
		<tag k="name" v="Store Måkholmen" />
		<tag k="place" v="islet" />
		<tag k="ssr:stedsnr" v="1074862" />
	</node>
	<node lat="58.82854914029673" lon="9.4980930857923" id="-50796">
		<tag k="name" v="Måkholmgapet" />
		<tag k="natural" v="strait" />
		<tag k="ssr:stedsnr" v="1074864" />
	</node>
	<node lat="58.8719264519464" lon="9.418962393316848" id="-50797">
		<tag k="alt_name" v="Kirkebukta" />
		<tag k="name" v="Kjerkebukta" />
		<tag k="natural" v="bay" />
		<tag k="ssr:stedsnr" v="1074865" />
	</node>
</osm>
