<?xml version="1.0" encoding="UTF-8"?>
<osm generator="osmapis" version="0.6">
	<node id="-434173" lat="58.8942138905" lon="9.27107221465">
		<tag k="name" v="Eikehaug" />
		<tag k="place" v="farm" />
		<tag k="ssr:stedsnr" v="31099" />
	</node>
	<node id="-435539" lat="58.8759305577" lon="9.49111389709">
		<tag k="alt_name" v="Gumøy, vestre" />
		<tag k="name" v="Vestre Gumøy" />
		<tag k="place" v="farm" />
		<tag k="ssr:stedsnr" v="851699" />
	</node>
	<node id="-434157" lat="58.9778472233" lon="9.27547778226">
		<tag k="name" v="Vintereidet" />
		<tag k="place" v="locality" />
		<tag k="ssr:stedsnr" v="30886" />
	</node>
	<node id="-435537" lat="58.8685833369" lon="9.32847500799">
		<tag k="name" v="Blankenberg" />
		<tag k="place" v="farm" />
		<tag k="ssr:stedsnr" v="851693" />
	</node>
	<node id="-434146" lat="58.8573166626" lon="9.3744416675">
		<tag k="name" v="Gåsedammen" />
		<tag k="place" v="isolated_dwelling" />
		<tag k="ssr:stedsnr" v="30544" />
	</node>
	<node id="-435535" lat="58.9504055533" lon="9.32265832488">
		<tag k="name" v="Nesland" />
		<tag k="place" v="farm" />
		<tag k="ssr:stedsnr" v="851293" />
	</node>
	<node id="-434128" lat="58.9068638914" lon="9.28031667435">
		<tag k="name" v="Plassen" />
		<tag k="place" v="isolated_dwelling" />
		<tag k="ssr:stedsnr" v="30797" />
	</node>
	<node id="-434118" lat="58.8944055566" lon="9.29158333317">
		<tag k="name" v="Kvilebakken" />
		<tag k="place" v="isolated_dwelling" />
		<tag k="ssr:stedsnr" v="30029" />
	</node>
	<node id="-434113" lat="58.9314833358" lon="9.40354444979">
		<tag k="name" v="Oterheimyra" />
		<tag k="place" v="locality" />
		<tag k="ssr:stedsnr" v="29970" />
	</node>
	<node id="-434111" lat="58.8320611116" lon="9.41686111095">
		<tag k="name" v="Sollia" />
		<tag k="place" v="isolated_dwelling" />
		<tag k="ssr:stedsnr" v="29892" />
	</node>
	<node id="-434108" lat="58.93163056" lon="9.46441944734">
		<tag k="name" v="Løvstad" />
		<tag k="place" v="farm" />
		<tag k="ssr:stedsnr" v="29852" />
	</node>
	<node id="-434107" lat="58.881163889" lon="9.57848054885">
		<tag k="name" v="Grua" />
		<tag k="place" v="isolated_dwelling" />
		<tag k="ssr:stedsnr" v="29847" />
	</node>
	<node id="-434104" lat="58.905474996" lon="9.42926389536">
		<tag k="name" v="Vestre Borteid" />
		<tag k="place" v="farm" />
		<tag k="ssr:stedsnr" v="29516" />
	</node>
	<node id="-434103" lat="58.9068666702" lon="9.41828611959">
		<tag k="name" v="Fjella" />
		<tag k="place" v="isolated_dwelling" />
		<tag k="ssr:stedsnr" v="29511" />
	</node>
	<node id="-434097" lat="58.8606722249" lon="9.45104166561">
		<tag k="name" v="Kringlemyr" />
		<tag k="place" v="isolated_dwelling" />
		<tag k="ssr:stedsnr" v="29328" />
	</node>
	<node id="-434090" lat="58.8763277772" lon="9.40499721432">
		<tag k="name" v="Frydensborg" />
		<tag k="place" v="farm" />
		<tag k="ssr:stedsnr" v="29260" />
	</node>
	<node id="-434084" lat="58.8765500043" lon="9.53259445276">
		<tag k="name" v="Oterøytangen" />
		<tag k="place" v="farm" />
		<tag k="ssr:stedsnr" v="29076" />
	</node>
	<node id="-434083" lat="58.8575527808" lon="9.5099583263">
		<tag k="name" v="Tjønntvet" />
		<tag k="place" v="isolated_dwelling" />
		<tag k="ssr:stedsnr" v="29033" />
	</node>
	<node id="-434082" lat="58.8479027803" lon="9.40657222676">
		<tag k="name" v="Solheim" />
		<tag k="place" v="farm" />
		<tag k="ssr:stedsnr" v="29183" />
	</node>
	<node id="-434081" lat="58.8957555524" lon="9.44908056313">
		<tag k="name" v="Solvik" />
		<tag k="place" v="isolated_dwelling" />
		<tag k="ssr:stedsnr" v="29170" />
	</node>
	<node id="-435309" lat="58.8958999975" lon="9.32526111279">
		<tag k="name" v="Rinde" />
		<tag k="place" v="isolated_dwelling" />
		<tag k="ssr:stedsnr" v="758097" />
	</node>
	<node id="-434077" lat="58.9134638846" lon="9.50269167415">
		<tag k="name" v="Nordjordet" />
		<tag k="place" v="farm" />
		<tag k="ssr:stedsnr" v="28798" />
	</node>
	<node id="-434076" lat="58.8922305523" lon="9.4820027739">
		<tag k="name" v="Bjerkehue" />
		<tag k="place" v="farm" />
		<tag k="ssr:stedsnr" v="28793" />
	</node>
	<node id="-435523" lat="58.9313722194" lon="9.31516110961">
		<tag k="fixme" v="consider place=hamlet" />
		<tag k="name" v="Gjerde" />
		<tag k="place" v="farm" />
		<tag k="ssr:stedsnr" v="850252" />
	</node>
	<node id="-434058" lat="58.8698166666" lon="9.39166389484">
		<tag k="name" v="Kalstad" />
		<tag k="place" v="suburb" />
		<tag k="ssr:stedsnr" v="20937" />
	</node>
	<node id="-434057" lat="58.8056965722" lon="9.43288244082">
		<tag k="name" v="Portør" />
		<tag k="place" v="hamlet" />
		<tag k="ssr:stedsnr" v="2568" />
	</node>
	<node id="-435180" lat="58.8388472257" lon="9.43639444905">
		<tag k="fixme" v="consider place=hamlet" />
		<tag k="name" v="Løvdalen" />
		<tag k="place" v="farm" />
		<tag k="ssr:stedsnr" v="631601" />
	</node>
	<node id="-434054" lat="58.8818027821" lon="9.61028334082">
		<tag k="name" v="Øytangen" />
		<tag k="place" v="farm" />
		<tag k="ssr:stedsnr" v="1969" />
	</node>
	<node id="-434053" lat="58.8497777807" lon="9.29632499343">
		<tag k="name" v="Sagatun" />
		<tag k="place" v="farm" />
		<tag k="ssr:stedsnr" v="1749" />
	</node>
	<node id="-434052" lat="58.8470972194" lon="9.50740277167">
		<tag k="name" v="Bråtøy" />
		<tag k="place" v="farm" />
		<tag k="ssr:stedsnr" v="1739" />
	</node>
	<node id="-434051" lat="58.8664805541" lon="9.21848610688">
		<tag k="name" v="Skumpen" />
		<tag k="place" v="farm" />
		<tag k="ssr:stedsnr" v="1706" />
	</node>
	<node id="-434050" lat="58.8603083337" lon="9.58546388209">
		<tag k="name" v="Hagane" />
		<tag k="place" v="farm" />
		<tag k="ssr:stedsnr" v="1690" />
	</node>
	<node id="-434049" lat="58.8942194437" lon="9.24368055966">
		<tag k="alt_name" v="Folemyr" />
		<tag k="name" v="Folemyra" />
		<tag k="place" v="farm" />
		<tag k="ssr:stedsnr" v="1682" />
	</node>
	<node id="-434046" lat="58.9034444465" lon="9.31958334036">
		<tag k="name" v="Refsalen" />
		<tag k="place" v="farm" />
		<tag k="ssr:stedsnr" v="1644" />
	</node>
	<node id="-434045" lat="58.8248333351" lon="9.27896667532">
		<tag k="alt_name" v="Mørskardet" />
		<tag k="name" v="Mørskar" />
		<tag k="place" v="farm" />
		<tag k="ssr:stedsnr" v="1543" />
	</node>
	<node id="-434044" lat="58.818361113" lon="9.31220833659">
		<tag k="name" v="Bråtane" />
		<tag k="place" v="farm" />
		<tag k="ssr:stedsnr" v="1538" />
	</node>
	<node id="-434043" lat="58.8299583366" lon="9.39189721804">
		<tag k="fixme" v="consider place=hamlet" />
		<tag k="name" v="Tonstøl" />
		<tag k="place" v="farm" />
		<tag k="ssr:stedsnr" v="1537" />
	</node>
	<node id="-434041" lat="58.8328777739" lon="9.31704721915">
		<tag k="name" v="Rønningen" />
		<tag k="place" v="farm" />
		<tag k="ssr:stedsnr" v="1526" />
	</node>
	<node id="-434040" lat="58.9651777734" lon="9.30675277712">
		<tag k="name" v="Langmo" />
		<tag k="place" v="farm" />
		<tag k="ssr:stedsnr" v="1332" />
	</node>
	<node id="-434035" lat="58.7904222207" lon="9.34391666372">
		<tag k="name" v="Løvbakken" />
		<tag k="place" v="farm" />
		<tag k="ssr:stedsnr" v="552" />
	</node>
	<node id="-434034" lat="58.7825555549" lon="9.34309444149">
		<tag k="name" v="Nygård" />
		<tag k="place" v="farm" />
		<tag k="ssr:stedsnr" v="551" />
	</node>
	<node id="-434033" lat="58.7850083329" lon="9.30796944503">
		<tag k="alt_name" v="Leivatn" />
		<tag k="fixme" v="consider place=hamlet" />
		<tag k="name" v="Leivann" />
		<tag k="place" v="farm" />
		<tag k="ssr:stedsnr" v="548" />
	</node>
	<node id="-434032" lat="58.926813893" lon="9.35641666451">
		<tag k="fixme" v="consider place=hamlet" />
		<tag k="name" v="Landsverk" />
		<tag k="place" v="farm" />
		<tag k="ssr:stedsnr" v="285" />
	</node>
	<node id="-434031" lat="58.9299694432" lon="9.47602222264">
		<tag k="name" v="Bråten" />
		<tag k="place" v="farm" />
		<tag k="ssr:stedsnr" v="284" />
	</node>
	<node id="-434011" lat="58.8888171899" lon="9.30120257341">
		<tag k="fixme" v="consider place=hamlet" />
		<tag k="name" v="Rinde" />
		<tag k="place" v="farm" />
		<tag k="ssr:stedsnr" v="982773" />
	</node>
	<node id="-434010" lat="58.8640618494" lon="9.5090963508">
		<tag k="fixme" v="consider place=hamlet" />
		<tag k="name" v="Skåtøy" />
		<tag k="place" v="farm" />
		<tag k="ssr:stedsnr" v="982760" />
	</node>
	<node id="-434009" lat="58.8992610305" lon="9.64718774217">
		<tag k="fixme" v="consider place=hamlet" />
		<tag k="name" v="Stråholmen" />
		<tag k="place" v="farm" />
		<tag k="ssr:stedsnr" v="982759" />
	</node>
	<node id="-434008" lat="58.8981041535" lon="9.58121640496">
		<tag k="fixme" v="consider place=hamlet" />
		<tag k="name" v="Arøy" />
		<tag k="place" v="farm" />
		<tag k="ssr:stedsnr" v="982758" />
	</node>
	<node id="-434001" lat="58.8868999983" lon="9.29145554987">
		<tag k="name" v="Thorsdal" />
		<tag k="place" v="farm" />
		<tag k="ssr:stedsnr" v="940015" />
	</node>
	<node id="-433464" lat="58.9729916681" lon="9.2817833372">
		<tag k="name" v="Moen" />
		<tag k="place" v="farm" />
		<tag k="ssr:stedsnr" v="729361" />
	</node>
	<node id="-434829" lat="58.9188055598" lon="9.48106944664">
		<tag k="name" v="Valsund" />
		<tag k="place" v="farm" />
		<tag k="ssr:stedsnr" v="364664" />
	</node>
	<node id="-433994" lat="58.9488083317" lon="9.31680832921">
		<tag k="alt_name" v="Breidvik" />
		<tag k="name" v="Breivik" />
		<tag k="place" v="farm" />
		<tag k="ssr:stedsnr" v="911322" />
	</node>
	<node id="-433991" lat="58.9242750034" lon="9.31083888164">
		<tag k="name" v="Holtane" />
		<tag k="place" v="farm" />
		<tag k="ssr:stedsnr" v="880480" />
	</node>
	<node id="-433990" lat="58.9270111103" lon="9.22220000661">
		<tag k="name" v="Høymyra" />
		<tag k="place" v="locality" />
		<tag k="ssr:stedsnr" v="880477" />
	</node>
	<node id="-433987" lat="58.9014305578" lon="9.19269166341">
		<tag k="leisure" v="pitch" />
		<tag k="name" v="Travbane" />
		<tag k="ssr:stedsnr" v="880522" />
	</node>
	<node id="-433984" lat="58.8075861153" lon="9.42823333138">
		<tag k="name" v="Portør" />
		<tag k="place" v="farm" />
		<tag k="ssr:stedsnr" v="879608" />
	</node>
	<node id="-433983" lat="58.844061113" lon="9.4479694377">
		<tag k="name" v="Ospetangen" />
		<tag k="place" v="isolated_dwelling" />
		<tag k="ssr:stedsnr" v="879461" />
	</node>
	<node id="-433976" lat="58.8764166627" lon="9.46932222232">
		<tag k="name" v="Østre Bærøy" />
		<tag k="place" v="neighbourhood" />
		<tag k="ssr:stedsnr" v="950298" />
	</node>
	<node id="-433974" lat="58.8899000031" lon="9.30051944398">
		<tag k="name" v="Kil" />
		<tag k="place" v="farm" />
		<tag k="ssr:stedsnr" v="851676" />
	</node>
	<node id="-433973" lat="58.8965472187" lon="9.39596111713">
		<tag k="alt_name" v="Nedre Langtangen" />
		<tag k="name" v="Langtangen" />
		<tag k="place" v="farm" />
		<tag k="ssr:stedsnr" v="851665" />
	</node>
	<node id="-433972" lat="58.895563889" lon="9.33789999802">
		<tag k="building" v="industrial" />
		<tag k="industrial" v="factory" />
		<tag k="name" v="Vafos Brug" />
		<tag k="ssr:stedsnr" v="851662" />
	</node>
	<node id="-433971" lat="58.8852277745" lon="9.31486111265">
		<tag k="name" v="Lyngdalen" />
		<tag k="place" v="isolated_dwelling" />
		<tag k="ssr:stedsnr" v="851657" />
	</node>
	<node id="-433962" lat="58.9172666628" lon="9.32781945051">
		<tag k="name" v="Øyvang" />
		<tag k="place" v="farm" />
		<tag k="ssr:stedsnr" v="941799" />
	</node>
	<node id="-433949" lat="58.8084277749" lon="9.43423333231">
		<tag k="alt_name" v="Korsholmen" />
		<tag k="name" v="Korsholmen nordre" />
		<tag k="place" v="farm" />
		<tag k="ssr:stedsnr" v="941618" />
	</node>
	<node id="-433938" lat="58.9194194446" lon="9.34041110878">
		<tag k="name" v="Dobbedal" />
		<tag k="place" v="farm" />
		<tag k="ssr:stedsnr" v="941465" />
	</node>
	<node id="-433930" lat="58.9802083293" lon="9.31807499797">
		<tag k="name" v="Dalane" />
		<tag k="place" v="locality" />
		<tag k="ssr:stedsnr" v="941360" />
	</node>
	<node id="-433928" lat="58.9253222238" lon="9.24181388551">
		<tag k="name" v="Jambakkmyrplassen" />
		<tag k="place" v="isolated_dwelling" />
		<tag k="ssr:stedsnr" v="941315" />
	</node>
	<node id="-433925" lat="58.9413388887" lon="9.33830834182">
		<tag k="name" v="Kolhogsten" />
		<tag k="place" v="locality" />
		<tag k="ssr:stedsnr" v="941201" />
	</node>
	<node id="-433921" lat="58.806397222" lon="9.26757777001">
		<tag k="name" v="Buslåttbråten" />
		<tag k="place" v="locality" />
		<tag k="ssr:stedsnr" v="941169" />
	</node>
	<node id="-433918" lat="58.9643055515" lon="9.32211389091">
		<tag k="name" v="Solbakken" />
		<tag k="place" v="isolated_dwelling" />
		<tag k="ssr:stedsnr" v="941111" />
	</node>
	<node id="-433917" lat="58.8894222194" lon="9.26534722304">
		<tag k="name" v="Lønne" />
		<tag k="place" v="farm" />
		<tag k="ssr:stedsnr" v="941096" />
	</node>
	<node id="-433912" lat="58.8884638923" lon="9.23275000691">
		<tag k="name" v="Bråtane" />
		<tag k="place" v="locality" />
		<tag k="ssr:stedsnr" v="941048" />
	</node>
	<node id="-433909" lat="58.8937055596" lon="9.2574944436">
		<tag k="name" v="Bratli" />
		<tag k="place" v="isolated_dwelling" />
		<tag k="ssr:stedsnr" v="941016" />
	</node>
	<node id="-433907" lat="58.8181694461" lon="9.37336388848">
		<tag k="name" v="Steinbru" />
		<tag k="place" v="farm" />
		<tag k="ssr:stedsnr" v="940999" />
	</node>
	<node id="-433896" lat="58.7846861146" lon="9.34865277731">
		<tag k="name" v="Langkjerrbakken" />
		<tag k="place" v="isolated_dwelling" />
		<tag k="ssr:stedsnr" v="940839" />
	</node>
	<node id="-433895" lat="58.8366666679" lon="9.45176111505">
		<tag k="name" v="Hatteberg" />
		<tag k="place" v="farm" />
		<tag k="ssr:stedsnr" v="940786" />
	</node>
	<node id="-433893" lat="58.8328388918" lon="9.27948332904">
		<tag k="name" v="Nyholt" />
		<tag k="place" v="isolated_dwelling" />
		<tag k="ssr:stedsnr" v="940686" />
	</node>
	<node id="-433890" lat="58.8399194405" lon="9.34786111315">
		<tag k="name" v="Ørvik" />
		<tag k="place" v="neighbourhood" />
		<tag k="ssr:stedsnr" v="940496" />
	</node>
	<node id="-433888" lat="58.9109666682" lon="9.43631944575">
		<tag k="name" v="Skarbomyra" />
		<tag k="place" v="farm" />
		<tag k="ssr:stedsnr" v="940481" />
	</node>
	<node id="-433877" lat="58.8943444407" lon="9.34159443986">
		<tag k="name" v="Kolonien" />
		<tag k="place" v="isolated_dwelling" />
		<tag k="ssr:stedsnr" v="940250" />
	</node>
	<node id="-433870" lat="58.8750861151" lon="9.38477778568">
		<tag k="name" v="Løvdal" />
		<tag k="place" v="farm" />
		<tag k="ssr:stedsnr" v="940178" />
	</node>
	<node id="-433867" lat="58.8867055551" lon="9.29760832896">
		<tag k="name" v="Oksebåsen" />
		<tag k="place" v="farm" />
		<tag k="ssr:stedsnr" v="940034" />
	</node>
	<node id="-433865" lat="58.9336583311" lon="9.47929722349">
		<tag k="name" v="Salteidet" />
		<tag k="place" v="isolated_dwelling" />
		<tag k="ssr:stedsnr" v="939873" />
	</node>
	<node id="-433861" lat="58.9143527759" lon="9.51229722292">
		<tag k="name" v="Vestre Risøy" />
		<tag k="place" v="farm" />
		<tag k="ssr:stedsnr" v="939609" />
	</node>
	<node id="-433860" lat="58.8845305514" lon="9.39533332974">
		<tag k="name" v="Bergsvik" />
		<tag k="place" v="farm" />
		<tag k="ssr:stedsnr" v="939264" />
	</node>
	<node id="-433859" lat="58.8955888906" lon="9.5022166634">
		<tag k="name" v="Bruntangodden" />
		<tag k="place" v="isolated_dwelling" />
		<tag k="ssr:stedsnr" v="939239" />
	</node>
	<node id="-433857" lat="58.9162194422" lon="9.39559722686">
		<tag k="name" v="Bånn" />
		<tag k="place" v="farm" />
		<tag k="ssr:stedsnr" v="939537" />
	</node>
	<node id="-433852" lat="58.8640861119" lon="9.36306388569">
		<tag k="name" v="Sundet" />
		<tag k="place" v="farm" />
		<tag k="ssr:stedsnr" v="938751" />
	</node>
	<node id="-433851" lat="58.8805777821" lon="9.36847777404">
		<tag k="name" v="Sanssouci" />
		<tag k="place" v="farm" />
		<tag k="ssr:stedsnr" v="938740" />
	</node>
	<node id="-433850" lat="58.8399638896" lon="9.55865555653">
		<tag k="name" v="Heggeneset" />
		<tag k="place" v="isolated_dwelling" />
		<tag k="ssr:stedsnr" v="938703" />
	</node>
	<node id="-433844" lat="58.8295694479" lon="9.27306389097">
		<tag k="name" v="Kjølebrønn gård" />
		<tag k="place" v="farm" />
		<tag k="ssr:stedsnr" v="935466" />
	</node>
	<node id="-433827" lat="58.9570527748" lon="9.36825000675">
		<tag k="name" v="Dammen" />
		<tag k="place" v="locality" />
		<tag k="ssr:stedsnr" v="820025" />
	</node>
	<node id="-433822" lat="58.8481694447" lon="9.29652777336">
		<tag k="name" v="Litangen" />
		<tag k="place" v="farm" />
		<tag k="ssr:stedsnr" v="819803" />
	</node>
	<node id="-435141" lat="58.9561666651" lon="9.32785277418">
		<tag k="name" v="Farsjø" />
		<tag k="place" v="farm" />
		<tag k="ssr:stedsnr" v="577945" />
	</node>
	<node id="-433805" lat="58.9152361124" lon="9.52044999148">
		<tag k="name" v="Østre Risøy" />
		<tag k="place" v="farm" />
		<tag k="ssr:stedsnr" v="818621" />
	</node>
	<node id="-433802" lat="58.9226222199" lon="9.40901388609">
		<tag k="name" v="Stea" />
		<tag k="place" v="isolated_dwelling" />
		<tag k="ssr:stedsnr" v="818416" />
	</node>
	<node id="-433799" lat="58.8461222215" lon="9.41705555132">
		<tag k="name" v="Lia" />
		<tag k="place" v="isolated_dwelling" />
		<tag k="ssr:stedsnr" v="818165" />
	</node>
	<node id="-433798" lat="58.8808944438" lon="9.46347222395">
		<tag k="name" v="Leirdalen" />
		<tag k="place" v="isolated_dwelling" />
		<tag k="ssr:stedsnr" v="818155" />
	</node>
	<node id="-433796" lat="58.8811055545" lon="9.50027777024">
		<tag k="name" v="Veggerød" />
		<tag k="place" v="isolated_dwelling" />
		<tag k="ssr:stedsnr" v="818215" />
	</node>
	<node id="-433793" lat="58.8691305564" lon="9.45009721561">
		<tag k="name" v="Vestre Rydningen" />
		<tag k="place" v="farm" />
		<tag k="ssr:stedsnr" v="814686" />
	</node>
	<node id="-433792" lat="58.8283333323" lon="9.42139443681">
		<tag k="name" v="Myra" />
		<tag k="place" v="hamlet" />
		<tag k="ssr:stedsnr" v="813330" />
	</node>
	<node id="-433791" lat="58.8591250039" lon="9.58073611252">
		<tag k="alt_name" v="Østre Saltverksmyra" />
		<tag k="name" v="Saltverkmyra" />
		<tag k="place" v="farm" />
		<tag k="ssr:stedsnr" v="790770" />
	</node>
	<node id="-433790" lat="58.845652778" lon="9.47261943664">
		<tag k="name" v="Skjelsvik" />
		<tag k="place" v="farm" />
		<tag k="ssr:stedsnr" v="790758" />
	</node>
	<node id="-433788" lat="58.8213916701" lon="9.42521945243">
		<tag k="alt_name" v="Myrstranda" />
		<tag k="name" v="Myrstrand" />
		<tag k="place" v="farm" />
		<tag k="ssr:stedsnr" v="790554" />
	</node>
	<node id="-433786" lat="58.90978333" lon="9.43185832665">
		<tag k="name" v="Skarbomyra" />
		<tag k="place" v="farm" />
		<tag k="ssr:stedsnr" v="789645" />
	</node>
	<node id="-433782" lat="58.906969444" lon="9.47276666064">
		<tag k="name" v="Eidet" />
		<tag k="place" v="farm" />
		<tag k="ssr:stedsnr" v="789626" />
	</node>
	<node id="-433781" lat="58.9084888851" lon="9.53915000262">
		<tag k="alt_name" v="Skauen" />
		<tag k="name" v="Skogen" />
		<tag k="place" v="isolated_dwelling" />
		<tag k="ssr:stedsnr" v="789624" />
	</node>
	<node id="-433780" lat="58.900441669" lon="9.43902222194">
		<tag k="name" v="Nordjordet" />
		<tag k="place" v="farm" />
		<tag k="ssr:stedsnr" v="789623" />
	</node>
	<node id="-433779" lat="58.9018249995" lon="9.51612777507">
		<tag k="name" v="Garnvik" />
		<tag k="place" v="farm" />
		<tag k="ssr:stedsnr" v="789617" />
	</node>
	<node id="-433776" lat="58.8497222238" lon="9.57342222304">
		<tag k="name" v="Løkstad" />
		<tag k="place" v="farm" />
		<tag k="ssr:stedsnr" v="912740" />
	</node>
	<node id="-433775" lat="58.8444777784" lon="9.24700833889">
		<tag k="alt_name" v="Eikeland" />
		<tag k="name" v="Eikland" />
		<tag k="place" v="farm" />
		<tag k="ssr:stedsnr" v="912733" />
	</node>
	<node id="-433370" lat="58.8886833361" lon="9.25945000198">
		<tag k="name" v="Lønne" />
		<tag k="place" v="farm" />
		<tag k="ssr:stedsnr" v="576062" />
	</node>
	<node id="-433772" lat="58.7921527771" lon="9.34920554834">
		<tag k="alt_name" v="Donevollen" />
		<tag k="name" v="Donvollen" />
		<tag k="place" v="farm" />
		<tag k="ssr:stedsnr" v="912585" />
	</node>
	<node id="-433771" lat="58.8221055555" lon="9.37745554997">
		<tag k="fixme" v="consider place=hamlet" />
		<tag k="name" v="Støle" />
		<tag k="place" v="farm" />
		<tag k="ssr:stedsnr" v="912565" />
	</node>
	<node id="-433769" lat="58.8313555516" lon="9.42318055579">
		<tag k="fixme" v="consider place=hamlet" />
		<tag k="name" v="Myra" />
		<tag k="place" v="farm" />
		<tag k="ssr:stedsnr" v="912553" />
	</node>
	<node id="-433768" lat="58.8077361083" lon="9.40008055006">
		<tag k="name" v="Langholmen" />
		<tag k="place" v="farm" />
		<tag k="ssr:stedsnr" v="912542" />
	</node>
	<node id="-433766" lat="58.8104611081" lon="9.23334443772">
		<tag k="name" v="Saga" />
		<tag k="place" v="farm" />
		<tag k="ssr:stedsnr" v="912529" />
	</node>
	<node id="-433764" lat="58.9615944407" lon="9.31960555299">
		<tag k="name" v="Solvang" />
		<tag k="place" v="isolated_dwelling" />
		<tag k="ssr:stedsnr" v="759921" />
	</node>
	<node id="-433759" lat="58.8807194432" lon="9.26857778521">
		<tag k="name" v="Skyttkjerr" />
		<tag k="place" v="locality" />
		<tag k="ssr:stedsnr" v="759273" />
	</node>
	<node id="-435127" lat="58.9506361131" lon="9.33048333629">
		<tag k="name" v="Midtgården" />
		<tag k="place" v="farm" />
		<tag k="ssr:stedsnr" v="577079" />
	</node>
	<node id="-433727" lat="58.8732972233" lon="9.44627777562">
		<tag k="fixme" v="consider place=hamlet" />
		<tag k="name" v="Berøy" />
		<tag k="place" v="farm" />
		<tag k="ssr:stedsnr" v="911731" />
	</node>
	<node id="-433725" lat="58.8613388922" lon="9.46374999239">
		<tag k="name" v="Saltbutangen" />
		<tag k="place" v="farm" />
		<tag k="ssr:stedsnr" v="911713" />
	</node>
	<node id="-433723" lat="58.8168472179" lon="9.27173611303">
		<tag k="name" v="Øvre Dobbe" />
		<tag k="place" v="farm" />
		<tag k="ssr:stedsnr" v="758338" />
	</node>
	<node id="-433719" lat="58.8951361085" lon="9.26752222184">
		<tag k="name" v="Øvrebø" />
		<tag k="place" v="farm" />
		<tag k="ssr:stedsnr" v="911694" />
	</node>
	<node id="-433718" lat="58.890424998" lon="9.52696110621">
		<tag k="alt_name" v="Sveivdokk" />
		<tag k="fixme" v="consider place=hamlet" />
		<tag k="name" v="Gumøy" />
		<tag k="place" v="farm" />
		<tag k="ssr:stedsnr" v="911692" />
	</node>
	<node id="-433716" lat="58.8673388874" lon="9.44249167098">
		<tag k="name" v="Nessund" />
		<tag k="place" v="farm" />
		<tag k="ssr:stedsnr" v="757662" />
	</node>
	<node id="-433715" lat="58.8805972265" lon="9.41245833639">
		<tag k="name" v="Valberg" />
		<tag k="place" v="locality" />
		<tag k="ssr:stedsnr" v="911672" />
	</node>
	<node id="-433714" lat="58.9179444419" lon="9.47220556203">
		<tag k="name" v="Skippervik" />
		<tag k="place" v="farm" />
		<tag k="ssr:stedsnr" v="911663" />
	</node>
	<node id="-433713" lat="58.7850722207" lon="9.32165000369">
		<tag k="name" v="Øygarden" />
		<tag k="place" v="farm" />
		<tag k="ssr:stedsnr" v="911571" />
	</node>
	<node id="-433712" lat="58.7828527792" lon="9.37506111505">
		<tag k="name" v="Vedalen" />
		<tag k="place" v="farm" />
		<tag k="ssr:stedsnr" v="911538" />
	</node>
	<node id="-433710" lat="58.9287416683" lon="9.42310277885">
		<tag k="name" v="Svarttjenndalen" />
		<tag k="place" v="farm" />
		<tag k="ssr:stedsnr" v="911290" />
	</node>
	<node id="-433709" lat="58.9220249999" lon="9.32895556302">
		<tag k="fixme" v="consider place=hamlet" />
		<tag k="name" v="Tveitereid" />
		<tag k="place" v="farm" />
		<tag k="ssr:stedsnr" v="911286" />
	</node>
	<node id="-433708" lat="58.9363777777" lon="9.36707221652">
		<tag k="alt_name" v="Indre Tangen" />
		<tag k="name" v="Tangen" />
		<tag k="place" v="farm" />
		<tag k="ssr:stedsnr" v="911278" />
	</node>
	<node id="-433705" lat="58.8488861103" lon="9.46357222969">
		<tag k="alt_name" v="Øygarden" />
		<tag k="name" v="Vestre Ødegården" />
		<tag k="place" v="farm" />
		<tag k="ssr:stedsnr" v="730774" />
	</node>
	<node id="-433701" lat="58.8270111154" lon="9.2962333406">
		<tag k="fixme" v="consider place=hamlet" />
		<tag k="name" v="Barland" />
		<tag k="place" v="farm" />
		<tag k="ssr:stedsnr" v="730561" />
	</node>
	<node id="-433700" lat="58.8239611119" lon="9.31112777286">
		<tag k="fixme" v="consider place=hamlet" />
		<tag k="name" v="Eidet" />
		<tag k="place" v="farm" />
		<tag k="ssr:stedsnr" v="730560" />
	</node>
	<node id="-433690" lat="58.9052083369" lon="9.29259444055">
		<tag k="name" v="Hegland" />
		<tag k="place" v="farm" />
		<tag k="ssr:stedsnr" v="698815" />
	</node>
	<node id="-433686" lat="58.9035388911" lon="9.33036111247">
		<tag k="name" v="Solstad" />
		<tag k="place" v="isolated_dwelling" />
		<tag k="ssr:stedsnr" v="698612" />
	</node>
	<node id="-433684" lat="58.8074472193" lon="9.38781944128">
		<tag k="name" v="Langkjær" />
		<tag k="place" v="farm" />
		<tag k="ssr:stedsnr" v="698561" />
	</node>
	<node id="-433682" lat="58.9361277759" lon="9.32525834007">
		<tag k="name" v="Fossen" />
		<tag k="place" v="isolated_dwelling" />
		<tag k="ssr:stedsnr" v="698409" />
	</node>
	<node id="-433670" lat="58.9286055524" lon="9.4096416652">
		<tag k="name" v="Langkjerr" />
		<tag k="place" v="locality" />
		<tag k="ssr:stedsnr" v="697957" />
	</node>
	<node id="-433663" lat="58.9023888875" lon="9.40647500807">
		<tag k="name" v="Odden" />
		<tag k="place" v="isolated_dwelling" />
		<tag k="ssr:stedsnr" v="697475" />
	</node>
	<node id="-433661" lat="58.85763611" lon="9.45777778388">
		<tag k="name" v="Vennevik" />
		<tag k="place" v="farm" />
		<tag k="ssr:stedsnr" v="697408" />
	</node>
	<node id="-433655" lat="58.9044277808" lon="9.44113610568">
		<tag k="name" v="Bukta" />
		<tag k="place" v="isolated_dwelling" />
		<tag k="ssr:stedsnr" v="697311" />
	</node>
	<node id="-433645" lat="58.9066750015" lon="9.56300554905">
		<tag k="name" v="Haven" />
		<tag k="place" v="isolated_dwelling" />
		<tag k="ssr:stedsnr" v="696811" />
	</node>
	<node id="-433643" lat="58.9053527819" lon="9.50766665946">
		<tag k="amenity" v="school" />
		<tag k="name" v="Langøy skole" />
		<tag k="ssr:stedsnr" v="696276" />
	</node>
	<node id="-433642" lat="58.9091000025" lon="9.52196943783">
		<tag k="name" v="Høymyr" />
		<tag k="place" v="farm" />
		<tag k="ssr:stedsnr" v="696267" />
	</node>
	<node id="-433641" lat="58.8635083311" lon="9.49806945279">
		<tag k="name" v="Vinterkjerr" />
		<tag k="place" v="farm" />
		<tag k="ssr:stedsnr" v="696164" />
	</node>
	<node id="-433640" lat="58.8754722233" lon="9.50283888587">
		<tag k="name" v="Borken" />
		<tag k="place" v="isolated_dwelling" />
		<tag k="ssr:stedsnr" v="696110" />
	</node>
	<node id="-433633" lat="58.9468472242" lon="9.28602500693">
		<tag k="name" v="Lauvåsen" />
		<tag k="place" v="locality" />
		<tag k="ssr:stedsnr" v="881879" />
	</node>
	<node id="-433624" lat="58.89942778" lon="9.25265833405">
		<tag k="name" v="Kåsa" />
		<tag k="place" v="locality" />
		<tag k="ssr:stedsnr" v="881014" />
	</node>
	<node id="-433623" lat="58.8970250033" lon="9.25377776963">
		<tag k="name" v="Damlia" />
		<tag k="place" v="locality" />
		<tag k="ssr:stedsnr" v="881013" />
	</node>
	<node id="-433608" lat="58.9750361089" lon="9.27319443674">
		<tag k="name" v="Plassen" />
		<tag k="place" v="locality" />
		<tag k="ssr:stedsnr" v="880891" />
	</node>
	<node id="-433606" lat="58.902355552" lon="9.19715554977">
		<tag k="name" v="Gamle Hønnesmyra" />
		<tag k="place" v="locality" />
		<tag k="ssr:stedsnr" v="880847" />
	</node>
	<node id="-433603" lat="58.9214499978" lon="9.27536389233">
		<tag k="name" v="Vassenden" />
		<tag k="place" v="locality" />
		<tag k="ssr:stedsnr" v="880777" />
	</node>
	<node id="-433598" lat="58.801711108" lon="9.41968332926">
		<tag k="name" v="Martesmyr" />
		<tag k="place" v="isolated_dwelling" />
		<tag k="ssr:stedsnr" v="880712" />
	</node>
	<node id="-433596" lat="58.8302166706" lon="9.28055834093">
		<tag k="amenity" v="school" />
		<tag k="name" v="Kjølebrønn skole" />
		<tag k="ssr:stedsnr" v="880686" />
	</node>
	<node id="-433587" lat="58.7987083324" lon="9.3857361075">
		<tag k="name" v="Ørsvik" />
		<tag k="place" v="farm" />
		<tag k="ssr:stedsnr" v="880624" />
	</node>
	<node id="-433586" lat="58.8099031085" lon="9.38393570983">
		<tag k="name" v="Kjerrmyr" />
		<tag k="place" v="farm" />
		<tag k="ssr:stedsnr" v="880598" />
	</node>
	<node id="-433585" lat="58.824255553" lon="9.26222778241">
		<tag k="name" v="Sigernes" />
		<tag k="place" v="locality" />
		<tag k="ssr:stedsnr" v="880579" />
	</node>
	<node id="-433582" lat="58.8459333351" lon="9.36375832696">
		<tag k="name" v="Moane" />
		<tag k="place" v="isolated_dwelling" />
		<tag k="ssr:stedsnr" v="880544" />
	</node>
	<node id="-433581" lat="58.8431666699" lon="9.34820834155">
		<tag k="name" v="Tangane" />
		<tag k="place" v="isolated_dwelling" />
		<tag k="ssr:stedsnr" v="880542" />
	</node>
	<node id="-435442" lat="58.917291663" lon="9.4349305597">
		<tag k="name" v="Lindestad" />
		<tag k="place" v="farm" />
		<tag k="ssr:stedsnr" v="818524" />
	</node>
	<node id="-433574" lat="58.9162333306" lon="9.38195277688">
		<tag k="name" v="Bureid" />
		<tag k="place" v="isolated_dwelling" />
		<tag k="ssr:stedsnr" v="880431" />
	</node>
	<node id="-433565" lat="58.9339805519" lon="9.37157222568">
		<tag k="name" v="Lyngøya" />
		<tag k="place" v="isolated_dwelling" />
		<tag k="ssr:stedsnr" v="880277" />
	</node>
	<node id="-433560" lat="58.7967944419" lon="9.24721665881">
		<tag k="name" v="Barlandsmyra" />
		<tag k="place" v="locality" />
		<tag k="ssr:stedsnr" v="880254" />
	</node>
	<node id="-435607" lat="58.8084611594" lon="9.43466237811">
		<tag k="name" v="Korsholmen" />
		<tag k="place" v="locality" />
		<tag k="ssr:stedsnr" v="1074732" />
	</node>
	<node id="-433548" lat="58.9655138845" lon="9.31666110854">
		<tag k="name" v="Dalsfoss" />
		<tag k="place" v="hamlet" />
		<tag k="ssr:stedsnr" v="880118" />
	</node>
	<node id="-433536" lat="58.9241499966" lon="9.41817500514">
		<tag k="name" v="Ramslien" />
		<tag k="place" v="farm" />
		<tag k="ssr:stedsnr" v="879981" />
	</node>
	<node id="-433535" lat="58.8283444459" lon="9.42807500598">
		<tag k="name" v="Myra" />
		<tag k="place" v="farm" />
		<tag k="ssr:stedsnr" v="879881" />
	</node>
	<node id="-433534" lat="58.7820694457" lon="9.37908332961">
		<tag k="name" v="Bekkevika" />
		<tag k="place" v="isolated_dwelling" />
		<tag k="ssr:stedsnr" v="879821" />
	</node>
	<node id="-433529" lat="58.799758337" lon="9.37306666897">
		<tag k="name" v="Østre Finsbudalen" />
		<tag k="place" v="farm" />
		<tag k="ssr:stedsnr" v="879744" />
	</node>
	<node id="-433527" lat="58.9113499974" lon="9.38918888272">
		<tag k="name" v="Fjellbu" />
		<tag k="place" v="isolated_dwelling" />
		<tag k="ssr:stedsnr" v="879384" />
	</node>
	<node id="-433524" lat="58.9080611097" lon="9.44048333411">
		<tag k="name" v="Vestre Skotmyr" />
		<tag k="place" v="farm" />
		<tag k="ssr:stedsnr" v="879319" />
	</node>
	<node id="-433523" lat="58.9030583372" lon="9.50631111661">
		<tag k="name" v="Granli" />
		<tag k="place" v="farm" />
		<tag k="ssr:stedsnr" v="879257" />
	</node>
	<node id="-435565" lat="58.9097990849" lon="9.53173676378">
		<tag k="fixme" v="consider place=hamlet" />
		<tag k="name" v="Langøy" />
		<tag k="place" v="farm" />
		<tag k="ssr:stedsnr" v="982757" />
	</node>
	<node id="-435564" lat="58.9054668906" lon="9.3964032235">
		<tag k="fixme" v="consider place=hamlet" />
		<tag k="name" v="Skarbo" />
		<tag k="place" v="farm" />
		<tag k="ssr:stedsnr" v="982756" />
	</node>
	<node id="-435563" lat="58.9029327379" lon="9.38800841268">
		<tag k="fixme" v="consider place=hamlet" />
		<tag k="name" v="Helle" />
		<tag k="place" v="farm" />
		<tag k="ssr:stedsnr" v="982755" />
	</node>
	<node id="-435562" lat="58.9007186973" lon="9.41822649219">
		<tag k="fixme" v="consider place=hamlet" />
		<tag k="name" v="Åsen" />
		<tag k="place" v="farm" />
		<tag k="ssr:stedsnr" v="982754" />
	</node>
	<node id="-435561" lat="58.8713172179" lon="9.36799945213">
		<tag k="fixme" v="consider place=hamlet" />
		<tag k="name" v="Nordre Kalstad" />
		<tag k="place" v="farm" />
		<tag k="ssr:stedsnr" v="982753" />
	</node>
	<node id="-435560" lat="58.8560106301" lon="9.38103633393">
		<tag k="fixme" v="consider place=hamlet" />
		<tag k="name" v="Søndre Kalstad" />
		<tag k="place" v="farm" />
		<tag k="ssr:stedsnr" v="982752" />
	</node>
	<node id="-435559" lat="58.7946887216" lon="9.37339641569">
		<tag k="fixme" v="consider place=hamlet" />
		<tag k="name" v="Østre Levang" />
		<tag k="place" v="farm" />
		<tag k="ssr:stedsnr" v="982747" />
	</node>
	<node id="-435558" lat="58.7921611451" lon="9.37722040369">
		<tag k="fixme" v="consider place=hamlet" />
		<tag k="name" v="Levang" />
		<tag k="place" v="farm" />
		<tag k="ssr:stedsnr" v="982746" />
	</node>
	<node id="-433509" lat="58.8830833378" lon="9.54512222672">
		<tag k="name" v="Vestodden" />
		<tag k="place" v="isolated_dwelling" />
		<tag k="ssr:stedsnr" v="879155" />
	</node>
	<node id="-433508" lat="58.9001250029" lon="9.45028889261">
		<tag k="name" v="Hasseleidet" />
		<tag k="place" v="locality" />
		<tag k="ssr:stedsnr" v="879153" />
	</node>
	<node id="-433507" lat="58.8760833344" lon="9.53042778553">
		<tag k="name" v="Øyvang" />
		<tag k="place" v="isolated_dwelling" />
		<tag k="ssr:stedsnr" v="879090" />
	</node>
	<node id="-433504" lat="58.850536108" lon="9.52182500513">
		<tag k="name" v="Bråtøymyr østre" />
		<tag k="place" v="farm" />
		<tag k="ssr:stedsnr" v="879049" />
	</node>
	<node id="-435548" lat="58.8583000038" lon="9.53475833567">
		<tag k="name" v="Fruertholmen" />
		<tag k="place" v="farm" />
		<tag k="ssr:stedsnr" v="962297" />
	</node>
	<node id="-433497" lat="58.9133805557" lon="9.49499444841">
		<tag k="name" v="Bjelvika" />
		<tag k="place" v="isolated_dwelling" />
		<tag k="ssr:stedsnr" v="878776" />
	</node>
	<node id="-435543" lat="58.8620333374" lon="9.50067221779">
		<tag k="name" v="Ås" />
		<tag k="place" v="farm" />
		<tag k="ssr:stedsnr" v="851734" />
	</node>
	<node id="-435542" lat="58.8527916642" lon="9.46270556053">
		<tag k="alt_name" v="Eideåsen" />
		<tag k="name" v="Eidbråten" />
		<tag k="place" v="farm" />
		<tag k="ssr:stedsnr" v="851725" />
	</node>
	<node id="-435541" lat="58.8402277821" lon="9.30650277041">
		<tag k="alt_name" v="Skjultangen" />
		<tag k="name" v="Sjultangen" />
		<tag k="place" v="farm" />
		<tag k="ssr:stedsnr" v="851724" />
	</node>
	<node id="-435540" lat="58.8375444485" lon="9.30994721437">
		<tag k="alt_name" v="Kjerra" />
		<tag k="name" v="Kjærra" />
		<tag k="place" v="isolated_dwelling" />
		<tag k="ssr:stedsnr" v="851718" />
	</node>
	<node id="-433491" lat="58.848322219" lon="9.29162777377">
		<tag k="name" v="Kolrenna" />
		<tag k="place" v="farm" />
		<tag k="ssr:stedsnr" v="730786" />
	</node>
	<node id="-433490" lat="58.8310833339" lon="9.27505833294">
		<tag k="name" v="Kjølebrønn" />
		<tag k="place" v="hamlet" />
		<tag k="ssr:stedsnr" v="730552" />
	</node>
	<node id="-433489" lat="58.8361666622" lon="9.31411943678">
		<tag k="name" v="Knipen" />
		<tag k="place" v="farm" />
		<tag k="ssr:stedsnr" v="730550" />
	</node>
	<node id="-433487" lat="58.8078583332" lon="9.37523333294">
		<tag k="fixme" v="consider place=hamlet" />
		<tag k="name" v="Haslum" />
		<tag k="place" v="farm" />
		<tag k="ssr:stedsnr" v="730535" />
	</node>
	<node id="-433486" lat="58.7927999999" lon="9.35278611722">
		<tag k="name" v="Nybu" />
		<tag k="place" v="farm" />
		<tag k="ssr:stedsnr" v="730597" />
	</node>
	<node id="-433484" lat="58.8679138895" lon="9.59712221569">
		<tag k="alt_name" v="Midtgården" />
		<tag k="fixme" v="consider place=hamlet" />
		<tag k="name" v="Jomfruland" />
		<tag k="place" v="farm" />
		<tag k="ssr:stedsnr" v="729964" />
	</node>
	<node id="-433480" lat="58.8540222197" lon="9.24942778449">
		<tag k="name" v="Sørdalen" />
		<tag k="place" v="farm" />
		<tag k="ssr:stedsnr" v="729720" />
	</node>
	<node id="-435526" lat="58.9101527745" lon="9.29943888545">
		<tag k="alt_name" v="Heggland" />
		<tag k="fixme" v="consider place=hamlet" />
		<tag k="name" v="Hegland" />
		<tag k="place" v="farm" />
		<tag k="ssr:stedsnr" v="850624" />
	</node>
	<node id="-433477" lat="58.8911249992" lon="9.25814166219">
		<tag k="name" v="Bråtane" />
		<tag k="place" v="farm" />
		<tag k="ssr:stedsnr" v="729705" />
	</node>
	<node id="-433476" lat="58.8914388888" lon="9.36653055288">
		<tag k="fixme" v="consider place=hamlet" />
		<tag k="name" v="Strand" />
		<tag k="place" v="farm" />
		<tag k="ssr:stedsnr" v="729696" />
	</node>
	<node id="-433475" lat="58.8900194429" lon="9.35783611795">
		<tag k="fixme" v="consider place=suburb, village or hamlet" />
		<tag k="name" v="Årøsvingen" />
		<tag k="place" v="quarter" />
		<tag k="ssr:stedsnr" v="729695" />
	</node>
	<node id="-433474" lat="58.9153166636" lon="9.48790555344">
		<tag k="name" v="Holmen" />
		<tag k="place" v="farm" />
		<tag k="ssr:stedsnr" v="729680" />
	</node>
	<node id="-433473" lat="58.923461113" lon="9.41303055613">
		<tag k="alt_name" v="Lia" />
		<tag k="name" v="Ramsdalen" />
		<tag k="place" v="farm" />
		<tag k="ssr:stedsnr" v="729673" />
	</node>
	<node id="-435520" lat="58.9028250032" lon="9.4439861137">
		<tag k="alt_name" v="Skottbekken" />
		<tag k="name" v="Skotbekken" />
		<tag k="place" v="farm" />
		<tag k="ssr:stedsnr" v="851630" />
	</node>
	<node id="-435519" lat="58.9035000016" lon="9.39052499555">
		<tag k="fixme" v="consider place=suburb, village or hamlet" />
		<tag k="name" v="Helle" />
		<tag k="place" v="quarter" />
		<tag k="ssr:stedsnr" v="851626" />
	</node>
	<node id="-433469" lat="58.9052583294" lon="9.50624166002">
		<tag k="name" v="Bergmyra" />
		<tag k="place" v="farm" />
		<tag k="ssr:stedsnr" v="729642" />
	</node>
	<node id="-433465" lat="58.9766222189" lon="9.29171944268">
		<tag k="name" v="Sandåker" />
		<tag k="place" v="farm" />
		<tag k="ssr:stedsnr" v="729363" />
	</node>
	<node id="-435512" lat="58.9716333299" lon="9.26507500752">
		<tag k="name" v="Solvik" />
		<tag k="place" v="isolated_dwelling" />
		<tag k="ssr:stedsnr" v="820875" />
	</node>
	<node id="-435501" lat="58.8963611122" lon="9.2643611106">
		<tag k="name" v="Mostad" />
		<tag k="place" v="isolated_dwelling" />
		<tag k="ssr:stedsnr" v="820122" />
	</node>
	<node id="-433448" lat="58.930516671" lon="9.33648055966">
		<tag k="name" v="Tisjø" />
		<tag k="place" v="farm" />
		<tag k="ssr:stedsnr" v="729279" />
	</node>
	<node id="-435490" lat="58.9273861144" lon="9.47055832879">
		<tag k="name" v="Tranberg" />
		<tag k="place" v="isolated_dwelling" />
		<tag k="ssr:stedsnr" v="819826" />
	</node>
	<node id="-433436" lat="58.84687222" lon="9.4683777759">
		<tag k="name" v="Postmyr" />
		<tag k="place" v="isolated_dwelling" />
		<tag k="ssr:stedsnr" v="636505" />
	</node>
	<node id="-433435" lat="58.8441805569" lon="9.2167055614">
		<tag k="name" v="Eidet" />
		<tag k="place" v="locality" />
		<tag k="ssr:stedsnr" v="729085" />
	</node>
	<node id="-433434" lat="58.9072305536" lon="9.39219444404">
		<tag k="name" v="Kleiva" />
		<tag k="place" v="isolated_dwelling" />
		<tag k="ssr:stedsnr" v="636416" />
	</node>
	<node id="-433433" lat="58.9056694475" lon="9.39216667195">
		<tag k="name" v="Vreen" />
		<tag k="place" v="isolated_dwelling" />
		<tag k="ssr:stedsnr" v="636414" />
	</node>
	<node id="-433429" lat="58.8621083339" lon="9.47478055918">
		<tag k="name" v="Våtvik" />
		<tag k="place" v="isolated_dwelling" />
		<tag k="ssr:stedsnr" v="636304" />
	</node>
	<node id="-433426" lat="58.8712666698" lon="9.40824722707">
		<tag k="leisure" v="pitch" />
		<tag k="name" v="Stadion" />
		<tag k="ssr:stedsnr" v="636257" />
	</node>
	<node id="-433425" lat="58.8174944459" lon="9.38423333767">
		<tag k="name" v="Lillefet" />
		<tag k="place" v="farm" />
		<tag k="ssr:stedsnr" v="635912" />
	</node>
	<node id="-435472" lat="58.922738892" lon="9.31465277692">
		<tag k="name" v="Bråtane" />
		<tag k="place" v="locality" />
		<tag k="ssr:stedsnr" v="819793" />
	</node>
	<node id="-433420" lat="58.8928500027" lon="9.57921944341">
		<tag k="name" v="Håkleppen" />
		<tag k="place" v="isolated_dwelling" />
		<tag k="ssr:stedsnr" v="635821" />
	</node>
	<node id="-435467" lat="58.9348638854" lon="9.37616389422">
		<tag k="name" v="Bukkøya" />
		<tag k="place" v="isolated_dwelling" />
		<tag k="ssr:stedsnr" v="819333" />
	</node>
	<node id="-435462" lat="58.8903250007" lon="9.34478056313">
		<tag k="name" v="Teksthaugen" />
		<tag k="place" v="isolated_dwelling" />
		<tag k="ssr:stedsnr" v="819299" />
	</node>
	<node id="-433413" lat="58.8637222234" lon="9.37281944737">
		<tag k="name" v="Lindvik" />
		<tag k="place" v="isolated_dwelling" />
		<tag k="ssr:stedsnr" v="634756" />
	</node>
	<node id="-433412" lat="58.8573305584" lon="9.57769166515">
		<tag k="name" v="Saltverksmyra" />
		<tag k="place" v="farm" />
		<tag k="ssr:stedsnr" v="634589" />
	</node>
	<node id="-435072" lat="58.8823888926" lon="9.50146388708">
		<tag k="name" v="Fjellstad" />
		<tag k="place" v="isolated_dwelling" />
		<tag k="ssr:stedsnr" v="575201" />
	</node>
	<node id="-435413" lat="58.817458332" lon="9.34739443797">
		<tag k="name" v="Dalane" />
		<tag k="place" v="locality" />
		<tag k="ssr:stedsnr" v="813612" />
	</node>
	<node id="-435450" lat="58.9350277764" lon="9.3921833384">
		<tag k="name" v="Ytre Hulløy" />
		<tag k="place" v="farm" />
		<tag k="ssr:stedsnr" v="818950" />
	</node>
	<node id="-433400" lat="58.8309861111" lon="9.27976389392">
		<tag k="name" v="Bråten" />
		<tag k="place" v="farm" />
		<tag k="ssr:stedsnr" v="608560" />
	</node>
	<node id="-433398" lat="58.8168083338" lon="9.38093888544">
		<tag k="name" v="Hampmyra" />
		<tag k="place" v="farm" />
		<tag k="ssr:stedsnr" v="608553" />
	</node>
	<node id="-433397" lat="58.8178722186" lon="9.35905556133">
		<tag k="alt_name" v="Byttingsmyra" />
		<tag k="name" v="Byttingsmyr" />
		<tag k="place" v="farm" />
		<tag k="ssr:stedsnr" v="608552" />
	</node>
	<node id="-433394" lat="58.8730111149" lon="9.5999861058">
		<tag k="alt_name" v="Østre Hasselgården" />
		<tag k="name" v="Nordgården" />
		<tag k="place" v="farm" />
		<tag k="ssr:stedsnr" v="607952" />
	</node>
	<node id="-433392" lat="58.7889305529" lon="9.38107777599">
		<tag k="name" v="Ekerne" />
		<tag k="place" v="farm" />
		<tag k="ssr:stedsnr" v="607565" />
	</node>
	<node id="-433391" lat="58.7876194452" lon="9.33557222646">
		<tag k="name" v="Levangsdalen" />
		<tag k="place" v="farm" />
		<tag k="ssr:stedsnr" v="607560" />
	</node>
	<node id="-433390" lat="58.9772333294" lon="9.29954443665">
		<tag k="fixme" v="consider place=hamlet" />
		<tag k="name" v="Lundereid" />
		<tag k="place" v="farm" />
		<tag k="ssr:stedsnr" v="607355" />
	</node>
	<node id="-433389" lat="58.875177778" lon="9.1873305602">
		<tag k="alt_name" v="Lintjern" />
		<tag k="name" v="Lindkjenn" />
		<tag k="place" v="farm" />
		<tag k="ssr:stedsnr" v="607202" />
	</node>
	<node id="-435432" lat="58.8827583309" lon="9.38874444285">
		<tag k="name" v="Østland" />
		<tag k="place" v="farm" />
		<tag k="ssr:stedsnr" v="818235" />
	</node>
	<node id="-435431" lat="58.8810805531" lon="9.39216388787">
		<tag k="name" v="Østlandgrenda" />
		<tag k="place" v="hamlet" />
		<tag k="ssr:stedsnr" v="818230" />
	</node>
	<node id="-433381" lat="58.9017222242" lon="9.3118666725">
		<tag k="leisure" v="pitch" />
		<tag k="name" v="Kolbonn" />
		<tag k="ssr:stedsnr" v="576860" />
	</node>
	<node id="-435418" lat="58.8962444412" lon="9.56926945206">
		<tag k="name" v="Kalvetangen" />
		<tag k="place" v="isolated_dwelling" />
		<tag k="ssr:stedsnr" v="813989" />
	</node>
	<node id="-433368" lat="58.8754277735" lon="9.35501666599">
		<tag k="name" v="Stene" />
		<tag k="place" v="isolated_dwelling" />
		<tag k="ssr:stedsnr" v="576313" />
	</node>
	<node id="-433366" lat="58.8493222251" lon="9.20153056402">
		<tag k="name" v="Sandåker" />
		<tag k="place" v="locality" />
		<tag k="ssr:stedsnr" v="575674" />
	</node>
	<node id="-433365" lat="58.7955555563" lon="9.40111111272">
		<tag k="name" v="Myrane" />
		<tag k="place" v="isolated_dwelling" />
		<tag k="ssr:stedsnr" v="575673" />
	</node>
	<node id="-433364" lat="58.8691138918" lon="9.44713889524">
		<tag k="name" v="Videberg" />
		<tag k="place" v="locality" />
		<tag k="ssr:stedsnr" v="575666" />
	</node>
	<node id="-433356" lat="58.9059750011" lon="9.41046665965">
		<tag k="name" v="Slerva" />
		<tag k="place" v="isolated_dwelling" />
		<tag k="ssr:stedsnr" v="575465" />
	</node>
	<node id="-433355" lat="58.8698222189" lon="9.47146667045">
		<tag k="name" v="Sauøya" />
		<tag k="place" v="farm" />
		<tag k="ssr:stedsnr" v="575314" />
	</node>
	<node id="-433354" lat="58.8835027752" lon="9.45512222996">
		<tag k="name" v="Vestre Skiensund" />
		<tag k="place" v="isolated_dwelling" />
		<tag k="ssr:stedsnr" v="575155" />
	</node>
	<node id="-433353" lat="58.8797638934" lon="9.4053416653">
		<tag k="amenity" v="hospital" />
		<tag k="name" v="Kragerø sykehus" />
		<tag k="ssr:stedsnr" v="575149" />
	</node>
	<node id="-435404" lat="58.8904972237" lon="9.30169445076">
		<tag k="fixme" v="consider place=suburb, village or hamlet" />
		<tag k="name" v="Kil" />
		<tag k="place" v="quarter" />
		<tag k="ssr:stedsnr" v="813355" />
	</node>
	<node id="-433350" lat="58.8681305588" lon="9.51277777737">
		<tag k="name" v="Kirkesund" />
		<tag k="place" v="farm" />
		<tag k="ssr:stedsnr" v="575134" />
	</node>
	<node id="-433349" lat="58.8784388874" lon="9.5023250033">
		<tag k="name" v="Lillebo" />
		<tag k="place" v="isolated_dwelling" />
		<tag k="ssr:stedsnr" v="575114" />
	</node>
	<node id="-435396" lat="58.8814694452" lon="9.35495833816">
		<tag k="fixme" v="consider place=hamlet" />
		<tag k="name" v="Åsen" />
		<tag k="place" v="farm" />
		<tag k="ssr:stedsnr" v="790706" />
	</node>
	<node id="-435394" lat="58.883150002" lon="9.40859722528">
		<tag k="name" v="Øygarden" />
		<tag k="place" v="farm" />
		<tag k="ssr:stedsnr" v="790696" />
	</node>
	<node id="-435393" lat="58.8219166635" lon="9.24818333329">
		<tag k="fixme" v="consider place=hamlet" />
		<tag k="name" v="Mørland" />
		<tag k="place" v="farm" />
		<tag k="ssr:stedsnr" v="790547" />
	</node>
	<node id="-435392" lat="58.8281250005" lon="9.36626944471">
		<tag k="name" v="Myrane" />
		<tag k="place" v="farm" />
		<tag k="ssr:stedsnr" v="790542" />
	</node>
	<node id="-435391" lat="58.8021194413" lon="9.37986388765">
		<tag k="name" v="Fiane" />
		<tag k="place" v="farm" />
		<tag k="ssr:stedsnr" v="790538" />
	</node>
	<node id="-433342" lat="58.8789527811" lon="9.26966111158">
		<tag k="name" v="Petters" />
		<tag k="place" v="locality" />
		<tag k="ssr:stedsnr" v="699266" />
	</node>
	<node id="-433341" lat="58.8824250003" lon="9.25670832494">
		<tag k="name" v="Rødlandet" />
		<tag k="place" v="locality" />
		<tag k="ssr:stedsnr" v="699079" />
	</node>
	<node id="-435386" lat="58.869322218" lon="9.60000556228">
		<tag k="name" v="Hovedgården" />
		<tag k="place" v="farm" />
		<tag k="ssr:stedsnr" v="789965" />
	</node>
	<node id="-435385" lat="58.8943611101" lon="9.26888888651">
		<tag k="fixme" v="consider place=hamlet" />
		<tag k="name" v="Mo" />
		<tag k="place" v="farm" />
		<tag k="ssr:stedsnr" v="789687" />
	</node>
	<node id="-435382" lat="58.9247027801" lon="9.34444722913">
		<tag k="alt_name" v="Haukholt" />
		<tag k="name" v="Haugholt" />
		<tag k="place" v="farm" />
		<tag k="ssr:stedsnr" v="789283" />
	</node>
	<node id="-434377" lat="58.918874999" lon="9.43119445221">
		<tag k="name" v="Solli" />
		<tag k="place" v="farm" />
		<tag k="ssr:stedsnr" v="122643" />
	</node>
	<node id="-435374" lat="58.9139888875" lon="9.31297500533">
		<tag k="name" v="Tyvand øvre" />
		<tag k="place" v="farm" />
		<tag k="ssr:stedsnr" v="759755" />
	</node>
	<node id="-435369" lat="58.9470166647" lon="9.31798055382">
		<tag k="name" v="Berntangen" />
		<tag k="place" v="isolated_dwelling" />
		<tag k="ssr:stedsnr" v="759897" />
	</node>
	<node id="-435358" lat="58.9706083322" lon="9.31830277926">
		<tag k="name" v="Heia" />
		<tag k="place" v="isolated_dwelling" />
		<tag k="ssr:stedsnr" v="759152" />
	</node>
	<node id="-435397" lat="58.8543500037" lon="9.46518055983">
		<tag k="alt_name" v="Storemyr" />
		<tag k="name" v="Stormyr" />
		<tag k="place" v="farm" />
		<tag k="ssr:stedsnr" v="790722" />
	</node>
	<node id="-433302" lat="58.9434888875" lon="9.33181666">
		<tag k="name" v="Haugbakkane" />
		<tag k="place" v="isolated_dwelling" />
		<tag k="ssr:stedsnr" v="698177" />
	</node>
	<node id="-433299" lat="58.8902388876" lon="9.23848333611">
		<tag k="name" v="Bjerkheim" />
		<tag k="place" v="isolated_dwelling" />
		<tag k="ssr:stedsnr" v="698043" />
	</node>
	<node id="-435338" lat="58.8211888898" lon="9.37530000441">
		<tag k="name" v="Vestgården" />
		<tag k="place" v="farm" />
		<tag k="ssr:stedsnr" v="758900" />
	</node>
	<node id="-433282" lat="58.8222055556" lon="9.43900832933">
		<tag k="name" v="Tverklovdalen" />
		<tag k="place" v="isolated_dwelling" />
		<tag k="ssr:stedsnr" v="697784" />
	</node>
	<node id="-433279" lat="58.8490222258" lon="9.46773333182">
		<tag k="name" v="Strandmyr" />
		<tag k="place" v="isolated_dwelling" />
		<tag k="ssr:stedsnr" v="697494" />
	</node>
	<node id="-433278" lat="58.8294583372" lon="9.29053056044">
		<tag k="name" v="Sagåsen" />
		<tag k="place" v="farm" />
		<tag k="ssr:stedsnr" v="697632" />
	</node>
	<node id="-435322" lat="58.8478611147" lon="9.37361666454">
		<tag k="name" v="Ytre Rosvika" />
		<tag k="place" v="isolated_dwelling" />
		<tag k="ssr:stedsnr" v="758578" />
	</node>
	<node id="-433270" lat="58.8444444439" lon="9.43616665916">
		<tag k="name" v="Eklund" />
		<tag k="place" v="isolated_dwelling" />
		<tag k="ssr:stedsnr" v="697150" />
	</node>
	<node id="-435390" lat="58.8004555539" lon="9.22692777762">
		<tag k="alt_name" v="Skardvang" />
		<tag k="name" v="Skarvang" />
		<tag k="place" v="farm" />
		<tag k="ssr:stedsnr" v="790535" />
	</node>
	<node id="-433266" lat="58.8782638913" lon="9.40093889703">
		<tag k="name" v="Lona" />
		<tag k="place" v="quarter" />
		<tag k="ssr:stedsnr" v="697189" />
	</node>
	<node id="-435313" lat="58.8912750042" lon="9.30286111741">
		<tag k="name" v="Solheim" />
		<tag k="place" v="isolated_dwelling" />
		<tag k="ssr:stedsnr" v="758044" />
	</node>
	<node id="-435389" lat="58.8034249976" lon="9.34359722799">
		<tag k="name" v="Langemyr" />
		<tag k="place" v="farm" />
		<tag k="ssr:stedsnr" v="790534" />
	</node>
	<node id="-433260" lat="58.8947277795" lon="9.57336389403">
		<tag k="name" v="Veststrand" />
		<tag k="place" v="isolated_dwelling" />
		<tag k="ssr:stedsnr" v="696849" />
	</node>
	<node id="-433259" lat="58.8820861156" lon="9.5749999945">
		<tag k="name" v="Ringen" />
		<tag k="place" v="isolated_dwelling" />
		<tag k="ssr:stedsnr" v="696864" />
	</node>
	<node id="-435303" lat="58.8775638908" lon="9.48268610994">
		<tag k="name" v="Bergli" />
		<tag k="place" v="isolated_dwelling" />
		<tag k="ssr:stedsnr" v="757614" />
	</node>
	<node id="-433253" lat="58.8918694465" lon="9.34496388241">
		<tag k="name" v="Vadfoss" />
		<tag k="place" v="hamlet" />
		<tag k="ssr:stedsnr" v="695802" />
	</node>
	<node id="-433252" lat="58.8856583293" lon="9.36738889502">
		<tag k="name" v="Rølandet" />
		<tag k="place" v="isolated_dwelling" />
		<tag k="ssr:stedsnr" v="695737" />
	</node>
	<node id="-435046" lat="58.8429861149" lon="9.38752777641">
		<tag k="alt_name" v="Solli" />
		<tag k="name" v="Knipmyr" />
		<tag k="place" v="farm" />
		<tag k="ssr:stedsnr" v="547766" />
	</node>
	<node id="-433249" lat="58.860747226" lon="9.2981916635">
		<tag k="name" v="Snekkevik" />
		<tag k="place" v="isolated_dwelling" />
		<tag k="ssr:stedsnr" v="695499" />
	</node>
	<node id="-435295" lat="58.8623555581" lon="9.47729999331">
		<tag k="name" v="Kalvenes" />
		<tag k="place" v="isolated_dwelling" />
		<tag k="ssr:stedsnr" v="757291" />
	</node>
	<node id="-435294" lat="58.9076472232" lon="9.48715833311">
		<tag k="name" v="Isnestangen" />
		<tag k="place" v="isolated_dwelling" />
		<tag k="ssr:stedsnr" v="757279" />
	</node>
	<node id="-435289" lat="58.8893499985" lon="9.50834999239">
		<tag k="name" v="Bråten" />
		<tag k="place" v="isolated_dwelling" />
		<tag k="ssr:stedsnr" v="757247" />
	</node>
	<node id="-435287" lat="58.894091669" lon="9.52555556334">
		<tag k="name" v="Gumøy" />
		<tag k="place" v="farm" />
		<tag k="ssr:stedsnr" v="757231" />
	</node>
	<node id="-435285" lat="58.8431833315" lon="9.4184388811">
		<tag k="name" v="Åsen" />
		<tag k="place" v="farm" />
		<tag k="ssr:stedsnr" v="757172" />
	</node>
	<node id="-435283" lat="58.8496527764" lon="9.41795555519">
		<tag k="name" v="Nytomt" />
		<tag k="place" v="isolated_dwelling" />
		<tag k="ssr:stedsnr" v="757131" />
	</node>
	<node id="-433234" lat="58.8667944485" lon="9.40386944944">
		<tag k="alt_name" v="Bjørnebyen" />
		<tag k="name" v="Biørnebyen" />
		<tag k="place" v="suburb" />
		<tag k="ssr:stedsnr" v="692494" />
	</node>
	<node id="-435277" lat="58.8653999988" lon="9.59375277775">
		<tag k="name" v="Jomfruland" />
		<tag k="place" v="farm" />
		<tag k="ssr:stedsnr" v="756034" />
	</node>
	<node id="-435276" lat="58.8687388891" lon="9.49228888423">
		<tag k="name" v="Espevika" />
		<tag k="place" v="isolated_dwelling" />
		<tag k="ssr:stedsnr" v="753690" />
	</node>
	<node id="-433226" lat="58.961291668" lon="9.37276666731">
		<tag k="name" v="Myrane" />
		<tag k="place" v="locality" />
		<tag k="ssr:stedsnr" v="516025" />
	</node>
	<node id="-433220" lat="58.9011222201" lon="9.32923611186">
		<tag k="name" v="Solumdalen" />
		<tag k="place" v="farm" />
		<tag k="ssr:stedsnr" v="515238" />
	</node>
	<node id="-433214" lat="58.9307305583" lon="9.46449722167">
		<tag k="name" v="Eikehaugen" />
		<tag k="place" v="isolated_dwelling" />
		<tag k="ssr:stedsnr" v="514856" />
	</node>
	<node id="-435257" lat="58.9254083318" lon="9.41110833795">
		<tag k="name" v="Torkjerr" />
		<tag k="place" v="locality" />
		<tag k="ssr:stedsnr" v="757962" />
	</node>
	<node id="-435255" lat="58.8254055574" lon="9.38395834122">
		<tag k="leisure" v="pitch" />
		<tag k="name" v="Gåsmyr" />
		<tag k="ssr:stedsnr" v="748941" />
	</node>
	<node id="-433204" lat="58.8643166671" lon="9.48332500568">
		<tag k="name" v="Bråtane" />
		<tag k="place" v="farm" />
		<tag k="ssr:stedsnr" v="486720" />
	</node>
	<node id="-433203" lat="58.8992083364" lon="9.30043611685">
		<tag k="alt_name" v="Skogen" />
		<tag k="name" v="Skauen" />
		<tag k="place" v="farm" />
		<tag k="ssr:stedsnr" v="486707" />
	</node>
	<node id="-433202" lat="58.9050166689" lon="9.31575555584">
		<tag k="name" v="Støa" />
		<tag k="place" v="farm" />
		<tag k="ssr:stedsnr" v="486656" />
	</node>
	<node id="-433199" lat="58.934380559" lon="9.45965833572">
		<tag k="fixme" v="consider place=hamlet" />
		<tag k="name" v="Låkasken" />
		<tag k="place" v="farm" />
		<tag k="ssr:stedsnr" v="486277" />
	</node>
	<node id="-433197" lat="58.8289611071" lon="9.21132222365">
		<tag k="alt_name" v="Ødefjell" />
		<tag k="fixme" v="consider place=hamlet" />
		<tag k="name" v="Øyfjell" />
		<tag k="place" v="farm" />
		<tag k="ssr:stedsnr" v="486054" />
	</node>
	<node id="-433193" lat="58.8472666692" lon="9.37136666539">
		<tag k="name" v="Rosvik" />
		<tag k="place" v="farm" />
		<tag k="ssr:stedsnr" v="669732" />
	</node>
	<node id="-433190" lat="58.840252775" lon="9.45040000215">
		<tag k="name" v="Skjørsvika" />
		<tag k="place" v="farm" />
		<tag k="ssr:stedsnr" v="669715" />
	</node>
	<node id="-433189" lat="58.8361527737" lon="9.27790554941">
		<tag k="name" v="Falkenberg" />
		<tag k="place" v="farm" />
		<tag k="ssr:stedsnr" v="669710" />
	</node>
	<node id="-433188" lat="58.7976833348" lon="9.3694611055">
		<tag k="alt_name" v="Finnsbudalen" />
		<tag k="name" v="Finsbudalen" />
		<tag k="place" v="farm" />
		<tag k="ssr:stedsnr" v="669568" />
	</node>
	<node id="-433187" lat="58.7994583372" lon="9.33731388165">
		<tag k="name" v="Hellemyr" />
		<tag k="place" v="farm" />
		<tag k="ssr:stedsnr" v="669566" />
	</node>
	<node id="-433186" lat="58.7956638887" lon="9.32958055364">
		<tag k="name" v="Solbakken" />
		<tag k="place" v="farm" />
		<tag k="ssr:stedsnr" v="669560" />
	</node>
	<node id="-433185" lat="58.8211888889" lon="9.25617778481">
		<tag k="name" v="Bakken" />
		<tag k="place" v="farm" />
		<tag k="ssr:stedsnr" v="669540" />
	</node>
	<node id="-433184" lat="58.8070305584" lon="9.37299443821">
		<tag k="name" v="Hovet" />
		<tag k="place" v="farm" />
		<tag k="ssr:stedsnr" v="669529" />
	</node>
	<node id="-433182" lat="58.8025083368" lon="9.26773888216">
		<tag k="alt_name" v="Buslåtta" />
		<tag k="name" v="Buslåtten" />
		<tag k="place" v="locality" />
		<tag k="ssr:stedsnr" v="669521" />
	</node>
	<node id="-435223" lat="58.8379777767" lon="9.28030832869">
		<tag k="name" v="Berg" />
		<tag k="place" v="isolated_dwelling" />
		<tag k="ssr:stedsnr" v="636821" />
	</node>
	<node id="-433174" lat="58.8647888868" lon="9.38584999861">
		<tag k="name" v="Rørvik" />
		<tag k="place" v="farm" />
		<tag k="ssr:stedsnr" v="668725" />
	</node>
	<node id="-435221" lat="58.8325666683" lon="9.4193194479">
		<tag k="name" v="Hasseldalen" />
		<tag k="place" v="isolated_dwelling" />
		<tag k="ssr:stedsnr" v="636889" />
	</node>
	<node id="-433172" lat="58.8905472226" lon="9.2939111187">
		<tag k="fixme" v="consider place=hamlet" />
		<tag k="name" v="Torsdal" />
		<tag k="place" v="farm" />
		<tag k="ssr:stedsnr" v="668713" />
	</node>
	<node id="-433171" lat="58.8883722197" lon="9.40092777617">
		<tag k="alt_name" v="Øvre Langtangen" />
		<tag k="name" v="Langtangen" />
		<tag k="place" v="farm" />
		<tag k="ssr:stedsnr" v="668701" />
	</node>
	<node id="-433166" lat="58.9097305596" lon="9.44386666209">
		<tag k="name" v="Kjærra" />
		<tag k="place" v="farm" />
		<tag k="ssr:stedsnr" v="668671" />
	</node>
	<node id="-433165" lat="58.9112722223" lon="9.50535834136">
		<tag k="alt_name" v="Langøy, østre" />
		<tag k="name" v="Langøy" />
		<tag k="place" v="farm" />
		<tag k="ssr:stedsnr" v="668662" />
	</node>
	<node id="-433164" lat="58.8998638867" lon="9.48621666675">
		<tag k="alt_name" v="Langøy, vestre" />
		<tag k="name" v="Vestre Langøy" />
		<tag k="place" v="farm" />
		<tag k="ssr:stedsnr" v="668656" />
	</node>
	<node id="-433162" lat="58.7883416705" lon="9.36617500144">
		<tag k="alt_name" v="Gjernesmyra" />
		<tag k="name" v="Gjernesmyr" />
		<tag k="place" v="farm" />
		<tag k="ssr:stedsnr" v="668575" />
	</node>
	<node id="-433161" lat="58.9677527787" lon="9.32086667479">
		<tag k="fixme" v="consider place=hamlet" />
		<tag k="name" v="Dal" />
		<tag k="place" v="farm" />
		<tag k="ssr:stedsnr" v="668363" />
	</node>
	<node id="-433160" lat="58.9400694406" lon="9.45106389734">
		<tag k="alt_name" v="Hasleidet" />
		<tag k="name" v="Hasseleidet" />
		<tag k="place" v="farm" />
		<tag k="ssr:stedsnr" v="668285" />
	</node>
	<node id="-433159" lat="58.9319638879" lon="9.24345277723">
		<tag k="historic" v="shieling" />
		<tag k="name" v="Hovstølen" />
		<tag k="place" v="locality" />
		<tag k="ssr:stedsnr" v="668278" />
	</node>
	<node id="-433158" lat="58.882891668" lon="9.21000000724">
		<tag k="alt_name" v="Plassen" />
		<tag k="name" v="Nordal" />
		<tag k="place" v="farm" />
		<tag k="ssr:stedsnr" v="668226" />
	</node>
	<node id="-433157" lat="58.8795638929" lon="9.1792305533">
		<tag k="alt_name" v="Bråtvassdalen" />
		<tag k="name" v="Bråtvannsdalen" />
		<tag k="place" v="farm" />
		<tag k="ssr:stedsnr" v="668211" />
	</node>
	<node id="-435204" lat="58.8967833309" lon="9.36957778612">
		<tag k="name" v="Månelia" />
		<tag k="place" v="quarter" />
		<tag k="ssr:stedsnr" v="636233" />
	</node>
	<node id="-433154" lat="58.8412416679" lon="9.35295000782">
		<tag k="name" v="Ørviklia" />
		<tag k="place" v="neighbourhood" />
		<tag k="ssr:stedsnr" v="464255" />
	</node>
	<node id="-435200" lat="58.8960472208" lon="9.29443611289">
		<tag k="name" v="Kloppkjerr" />
		<tag k="place" v="farm" />
		<tag k="ssr:stedsnr" v="636014" />
	</node>
	<node id="-435197" lat="58.8811583358" lon="9.56288888087">
		<tag k="name" v="Bukta" />
		<tag k="place" v="isolated_dwelling" />
		<tag k="ssr:stedsnr" v="635852" />
	</node>
	<node id="-435196" lat="58.889774998" lon="9.39139166947">
		<tag k="name" v="Lund" />
		<tag k="place" v="isolated_dwelling" />
		<tag k="ssr:stedsnr" v="635242" />
	</node>
	<node id="-435186" lat="58.8967194428" lon="9.50317222938">
		<tag k="name" v="Svaneflekken" />
		<tag k="place" v="isolated_dwelling" />
		<tag k="ssr:stedsnr" v="634781" />
	</node>
	<node id="-435185" lat="58.925555556" lon="9.47352222123">
		<tag k="fixme" v="consider place=hamlet" />
		<tag k="name" v="Barmen" />
		<tag k="place" v="farm" />
		<tag k="ssr:stedsnr" v="634778" />
	</node>
	<node id="-435183" lat="58.8861083301" lon="9.30702777205">
		<tag k="name" v="Kolvika" />
		<tag k="place" v="farm" />
		<tag k="ssr:stedsnr" v="634488" />
	</node>
	<node id="-433134" lat="58.9126750027" lon="9.43408055117">
		<tag k="name" v="Seterheia" />
		<tag k="place" v="locality" />
		<tag k="ssr:stedsnr" v="454510" />
	</node>
	<node id="-435181" lat="58.9026333374" lon="9.48994999311">
		<tag k="name" v="Kjørebonn" />
		<tag k="place" v="isolated_dwelling" />
		<tag k="ssr:stedsnr" v="631484" />
	</node>
	<node id="-433132" lat="58.9041055568" lon="9.44654166264">
		<tag k="name" v="Holter" />
		<tag k="place" v="isolated_dwelling" />
		<tag k="ssr:stedsnr" v="454321" />
	</node>
	<node id="-435176" lat="58.8397472238" lon="9.34068334113">
		<tag k="fixme" v="consider place=hamlet" />
		<tag k="name" v="Ørvik" />
		<tag k="place" v="farm" />
		<tag k="ssr:stedsnr" v="608748" />
	</node>
	<node id="-433125" lat="58.9031611154" lon="9.37673611071">
		<tag k="name" v="Nordbø" />
		<tag k="place" v="quarter" />
		<tag k="ssr:stedsnr" v="450532" />
	</node>
	<node id="-435172" lat="58.8478888875" lon="9.27900278316">
		<tag k="name" v="Strømdal" />
		<tag k="place" v="farm" />
		<tag k="ssr:stedsnr" v="608775" />
	</node>
	<node id="-435171" lat="58.8501476332" lon="9.40626146943">
		<tag k="fixme" v="consider place=hamlet" />
		<tag k="name" v="Stabbestad" />
		<tag k="place" v="farm" />
		<tag k="ssr:stedsnr" v="608772" />
	</node>
	<node id="-435169" lat="58.8149555584" lon="9.38630554707">
		<tag k="name" v="Stavseng" />
		<tag k="place" v="farm" />
		<tag k="ssr:stedsnr" v="608550" />
	</node>
	<node id="-433120" lat="58.9020444463" lon="9.25248610791">
		<tag k="name" v="Fikkjebakke" />
		<tag k="place" v="quarter" />
		<tag k="ssr:stedsnr" v="445928" />
	</node>
	<node id="-435163" lat="58.8940249993" lon="9.28839721958">
		<tag k="name" v="Holt" />
		<tag k="place" v="farm" />
		<tag k="ssr:stedsnr" v="607685" />
	</node>
	<node id="-435162" lat="58.8971305547" lon="9.27924999761">
		<tag k="fixme" v="consider place=hamlet" />
		<tag k="name" v="Humlestad" />
		<tag k="place" v="farm" />
		<tag k="ssr:stedsnr" v="607683" />
	</node>
	<node id="-435161" lat="58.8959666669" lon="9.28508055817">
		<tag k="fixme" v="consider place=hamlet" />
		<tag k="name" v="Sannidal" />
		<tag k="place" v="village" />
		<tag k="ssr:stedsnr" v="607681" />
	</node>
	<node id="-435160" lat="58.7778166659" lon="9.37861666315">
		<tag k="name" v="Einarsholmen" />
		<tag k="place" v="isolated_dwelling" />
		<tag k="ssr:stedsnr" v="607536" />
	</node>
	<node id="-435159" lat="58.7896583299" lon="9.39630277789">
		<tag k="name" v="Bruntangen" />
		<tag k="place" v="farm" />
		<tag k="ssr:stedsnr" v="607530" />
	</node>
	<node id="-435158" lat="58.8853583291" lon="9.24210833181">
		<tag k="name" v="Lønnerød" />
		<tag k="place" v="farm" />
		<tag k="ssr:stedsnr" v="607666" />
	</node>
	<node id="-435155" lat="58.9442972192" lon="9.31915555982">
		<tag k="name" v="Saga" />
		<tag k="place" v="farm" />
		<tag k="ssr:stedsnr" v="607324" />
	</node>
	<node id="-435150" lat="58.9253388934" lon="9.36042223093">
		<tag k="alt_name" v="Torjerød" />
		<tag k="fixme" v="consider place=hamlet" />
		<tag k="name" v="Torgerød" />
		<tag k="place" v="farm" />
		<tag k="ssr:stedsnr" v="607275" />
	</node>
	<node id="-435147" lat="58.9338388862" lon="9.33264721387">
		<tag k="alt_name" v="Fossen" />
		<tag k="name" v="Østerfoss" />
		<tag k="place" v="farm" />
		<tag k="ssr:stedsnr" v="607262" />
	</node>
	<node id="-433093" lat="58.9219638931" lon="9.33232222623">
		<tag k="name" v="Strømvik" />
		<tag k="place" v="isolated_dwelling" />
		<tag k="ssr:stedsnr" v="516602" />
	</node>
	<node id="-435135" lat="58.898124997" lon="9.26777222409">
		<tag k="name" v="Øverbøåsen" />
		<tag k="place" v="locality" />
		<tag k="ssr:stedsnr" v="577122" />
	</node>
	<node id="-435131" lat="58.9496499975" lon="9.35330556276">
		<tag k="name" v="Hestmyr" />
		<tag k="place" v="locality" />
		<tag k="ssr:stedsnr" v="577040" />
	</node>
	<node id="-433082" lat="58.8522666706" lon="9.29242222581">
		<tag k="alt_name" v="Brattland" />
		<tag k="name" v="Bratland" />
		<tag k="place" v="farm" />
		<tag k="ssr:stedsnr" v="426751" />
	</node>
	<node id="-433081" lat="58.847880556" lon="9.43618333984">
		<tag k="alt_name" v="Bjelkevika" />
		<tag k="name" v="Bjelkvik" />
		<tag k="place" v="farm" />
		<tag k="ssr:stedsnr" v="426750" />
	</node>
	<node id="-433079" lat="58.8383583338" lon="9.32803610268">
		<tag k="name" v="Langvarp" />
		<tag k="place" v="isolated_dwelling" />
		<tag k="ssr:stedsnr" v="426733" />
	</node>
	<node id="-435122" lat="58.8357027769" lon="9.2847166717">
		<tag k="name" v="Straumsnes" />
		<tag k="place" v="isolated_dwelling" />
		<tag k="ssr:stedsnr" v="576721" />
	</node>
	<node id="-435121" lat="58.9000277795" lon="9.24361666049">
		<tag k="name" v="Eskilsmyrplassen" />
		<tag k="place" v="locality" />
		<tag k="ssr:stedsnr" v="577006" />
	</node>
	<node id="-433061" lat="58.8851638887" lon="9.21815278246">
		<tag k="name" v="Røssbekk" />
		<tag k="place" v="locality" />
		<tag k="ssr:stedsnr" v="516072" />
	</node>
	<node id="-433054" lat="58.9015833292" lon="9.27656943617">
		<tag k="name" v="Pers" />
		<tag k="place" v="locality" />
		<tag k="ssr:stedsnr" v="515952" />
	</node>
	<node id="-433048" lat="58.8337749981" lon="9.41838611893">
		<tag k="name" v="Bråten" />
		<tag k="place" v="isolated_dwelling" />
		<tag k="ssr:stedsnr" v="515899" />
	</node>
	<node id="-433046" lat="58.9287749986" lon="9.47728611971">
		<tag k="name" v="Solheim" />
		<tag k="place" v="isolated_dwelling" />
		<tag k="ssr:stedsnr" v="515829" />
	</node>
	<node id="-433045" lat="58.9254555521" lon="9.46620833672">
		<tag k="name" v="Kjærra" />
		<tag k="place" v="isolated_dwelling" />
		<tag k="ssr:stedsnr" v="515824" />
	</node>
	<node id="-433043" lat="58.8538861127" lon="9.29326388455">
		<tag k="name" v="Solli" />
		<tag k="place" v="isolated_dwelling" />
		<tag k="ssr:stedsnr" v="515791" />
	</node>
	<node id="-433042" lat="58.8066194485" lon="9.37811110675">
		<tag k="name" v="Haslum" />
		<tag k="place" v="hamlet" />
		<tag k="ssr:stedsnr" v="515780" />
	</node>
	<node id="-435087" lat="58.8722666634" lon="9.44584722871">
		<tag k="name" v="Bærøy gård" />
		<tag k="place" v="locality" />
		<tag k="ssr:stedsnr" v="575805" />
	</node>
	<node id="-435083" lat="58.9310694486" lon="9.39783610577">
		<tag k="name" v="Bråten" />
		<tag k="place" v="isolated_dwelling" />
		<tag k="ssr:stedsnr" v="575953" />
	</node>
	<node id="-433033" lat="58.8449888881" lon="9.47767499382">
		<tag k="name" v="Hesttangen" />
		<tag k="place" v="isolated_dwelling" />
		<tag k="ssr:stedsnr" v="515494" />
	</node>
	<node id="-433030" lat="58.8725722186" lon="9.37998888878">
		<tag k="name" v="Kalstad" />
		<tag k="place" v="farm" />
		<tag k="ssr:stedsnr" v="515299" />
	</node>
	<node id="-433024" lat="58.8727388899" lon="9.35058888409">
		<tag k="name" v="Lervik" />
		<tag k="place" v="farm" />
		<tag k="ssr:stedsnr" v="515289" />
	</node>
	<node id="-435008" lat="58.8135944476" lon="9.38093610721">
		<tag k="name" v="Hagen" />
		<tag k="place" v="farm" />
		<tag k="ssr:stedsnr" v="427520" />
	</node>
	<node id="-433021" lat="58.8710861077" lon="9.40166945109">
		<tag k="name" v="Bråten" />
		<tag k="place" v="quarter" />
		<tag k="ssr:stedsnr" v="515253" />
	</node>
	<node id="-433020" lat="58.8934694471" lon="9.29436944636">
		<tag k="amenity" v="school" />
		<tag k="name" v="Sannidal skole" />
		<tag k="ssr:stedsnr" v="515001" />
	</node>
	<node id="-435066" lat="58.8815638857" lon="9.48234443977">
		<tag k="name" v="Eikenes" />
		<tag k="place" v="isolated_dwelling" />
		<tag k="ssr:stedsnr" v="575162" />
	</node>
	<node id="-435065" lat="58.9049750012" lon="9.4611277711">
		<tag k="name" v="Solflaten" />
		<tag k="place" v="isolated_dwelling" />
		<tag k="ssr:stedsnr" v="575289" />
	</node>
	<node id="-435064" lat="58.9026861136" lon="9.44250832513">
		<tag k="name" v="Haugen" />
		<tag k="place" v="isolated_dwelling" />
		<tag k="ssr:stedsnr" v="575274" />
	</node>
	<node id="-433011" lat="58.9355222247" lon="9.46144999176">
		<tag k="name" v="Kåsa" />
		<tag k="place" v="farm" />
		<tag k="ssr:stedsnr" v="514837" />
	</node>
	<node id="-435058" lat="58.8613138926" lon="9.48388888568">
		<tag k="name" v="Sandvik" />
		<tag k="place" v="isolated_dwelling" />
		<tag k="ssr:stedsnr" v="571640" />
	</node>
	<node id="-433008" lat="58.9153916696" lon="9.5095194438">
		<tag k="name" v="Brønnholmen" />
		<tag k="place" v="farm" />
		<tag k="ssr:stedsnr" v="514631" />
	</node>
	<node id="-435052" lat="58.7929416658" lon="9.37778610431">
		<tag k="name" v="Rønningen" />
		<tag k="place" v="farm" />
		<tag k="ssr:stedsnr" v="548560" />
	</node>
	<node id="-435050" lat="58.8705805539" lon="9.60031111344">
		<tag k="fixme" v="multiple name tags, choose one and add the other to alt_name" />
		<tag k="loc_name" v="Hasselgården" />
		<tag k="name" v="Jomfruland;Haslegården" />
		<tag k="place" v="farm" />
		<tag k="ssr:stedsnr" v="547963" />
	</node>
	<node id="-435048" lat="58.8378777822" lon="9.30233611323">
		<tag k="alt_name" v="Ospeflåta" />
		<tag k="name" v="Aspeflaten" />
		<tag k="place" v="farm" />
		<tag k="ssr:stedsnr" v="547769" />
	</node>
	<node id="-432998" lat="58.9219416664" lon="9.49978333545">
		<tag k="name" v="Tuftene" />
		<tag k="place" v="isolated_dwelling" />
		<tag k="ssr:stedsnr" v="514291" />
	</node>
	<node id="-435045" lat="58.8321611131" lon="9.22760555543">
		<tag k="name" v="Dalen" />
		<tag k="place" v="farm" />
		<tag k="ssr:stedsnr" v="547759" />
	</node>
	<node id="-435044" lat="58.8719222212" lon="9.46699167481">
		<tag k="alt_name" v="Rønningen" />
		<tag k="name" v="Østre Rydningen" />
		<tag k="place" v="farm" />
		<tag k="ssr:stedsnr" v="547748" />
	</node>
	<node id="-435043" lat="58.8708333342" lon="9.36797777189">
		<tag k="name" v="Dalane" />
		<tag k="place" v="farm" />
		<tag k="ssr:stedsnr" v="547738" />
	</node>
	<node id="-435042" lat="58.8719611088" lon="9.33423610537">
		<tag k="alt_name" v="Ånnevika" />
		<tag k="name" v="Ånevika" />
		<tag k="place" v="farm" />
		<tag k="ssr:stedsnr" v="547737" />
	</node>
	<node id="-435040" lat="58.8568361146" lon="9.38094444933">
		<tag k="alt_name" v="Østre Tøtøy" />
		<tag k="name" v="Tåtøy" />
		<tag k="place" v="farm" />
		<tag k="ssr:stedsnr" v="547719" />
	</node>
	<node id="-435038" lat="58.8937638919" lon="9.4499916719">
		<tag k="alt_name" v="Bjørketangen" />
		<tag k="name" v="Bjerketangen" />
		<tag k="place" v="farm" />
		<tag k="ssr:stedsnr" v="547701" />
	</node>
	<node id="-432989" lat="58.8577472199" lon="9.44611667102">
		<tag k="name" v="Eikelia" />
		<tag k="place" v="isolated_dwelling" />
		<tag k="ssr:stedsnr" v="510744" />
	</node>
	<node id="-432988" lat="58.8572472212" lon="9.47539166365">
		<tag k="name" v="Åsvik" />
		<tag k="place" v="farm" />
		<tag k="ssr:stedsnr" v="510741" />
	</node>
	<node id="-435035" lat="58.887011113" lon="9.457727778">
		<tag k="alt_name" v="Skjensund" />
		<tag k="name" v="Skiensund" />
		<tag k="place" v="farm" />
		<tag k="ssr:stedsnr" v="547692" />
	</node>
	<node id="-435034" lat="58.9018000012" lon="9.32250555341">
		<tag k="fixme" v="consider place=hamlet" />
		<tag k="name" v="Solum" />
		<tag k="place" v="farm" />
		<tag k="ssr:stedsnr" v="547679" />
	</node>
	<node id="-435033" lat="58.9053611143" lon="9.40333610945">
		<tag k="fixme" v="consider place=suburb, village or hamlet" />
		<tag k="name" v="Skarbo" />
		<tag k="place" v="quarter" />
		<tag k="ssr:stedsnr" v="547678" />
	</node>
	<node id="-435032" lat="58.8196694403" lon="9.39213611115">
		<tag k="alt_name" v="Øygarden" />
		<tag k="name" v="Ødegården" />
		<tag k="place" v="farm" />
		<tag k="ssr:stedsnr" v="547569" />
	</node>
	<node id="-432983" lat="58.8032111131" lon="9.43294722946">
		<tag k="name" v="Terningen" />
		<tag k="place" v="isolated_dwelling" />
		<tag k="ssr:stedsnr" v="510565" />
	</node>
	<node id="-435027" lat="58.9690861138" lon="9.26233334143">
		<tag k="alt_name" v="Østre Kurdøl" />
		<tag k="fixme" v="consider place=hamlet" />
		<tag k="name" v="Kurdøla" />
		<tag k="place" v="farm" />
		<tag k="ssr:stedsnr" v="547359" />
	</node>
	<node id="-432976" lat="58.9241999973" lon="9.50569722029">
		<tag k="fixme" v="consider place=hamlet" />
		<tag k="name" v="Stavnes" />
		<tag k="place" v="farm" />
		<tag k="ssr:stedsnr" v="509430" />
	</node>
	<node id="-435022" lat="58.9457916668" lon="9.4149777783">
		<tag k="name" v="Moen" />
		<tag k="place" v="isolated_dwelling" />
		<tag k="ssr:stedsnr" v="547328" />
	</node>
	<node id="-435021" lat="58.9335833349" lon="9.47571666825">
		<tag k="alt_name" v="Mørkevika" />
		<tag k="name" v="Mørkvik" />
		<tag k="place" v="farm" />
		<tag k="ssr:stedsnr" v="547296" />
	</node>
	<node id="-435015" lat="58.93515833" lon="9.30277499204">
		<tag k="fixme" v="consider place=hamlet" />
		<tag k="name" v="Våsjø" />
		<tag k="place" v="farm" />
		<tag k="ssr:stedsnr" v="546245" />
	</node>
	<node id="-432966" lat="58.8365166632" lon="9.38138333913">
		<tag k="name" v="Diplemyr" />
		<tag k="place" v="locality" />
		<tag k="ssr:stedsnr" v="394602" />
	</node>
	<node id="-435010" lat="58.794655553" lon="9.39556666862">
		<tag k="name" v="Kjendal" />
		<tag k="place" v="farm" />
		<tag k="ssr:stedsnr" v="427559" />
	</node>
	<node id="-432960" lat="58.8834333317" lon="9.19364445091">
		<tag k="name" v="Fosteråsplassen" />
		<tag k="place" v="locality" />
		<tag k="ssr:stedsnr" v="394220" />
	</node>
	<node id="-435004" lat="58.8920805539" lon="9.49757777095">
		<tag k="alt_name" v="Rønningen" />
		<tag k="name" v="Rydningen" />
		<tag k="place" v="farm" />
		<tag k="ssr:stedsnr" v="426678" />
	</node>
	<node id="-435525" lat="58.9152000015" lon="9.31675833788">
		<tag k="alt_name" v="Tyvand nedre;Tyvatn" />
		<tag k="fixme" v="consider place=hamlet" />
		<tag k="name" v="Tyvand" />
		<tag k="place" v="farm" />
		<tag k="ssr:stedsnr" v="850265" />
	</node>
	<node id="-435002" lat="58.8898333352" lon="9.35061388677">
		<tag k="fixme" v="consider place=hamlet" />
		<tag k="name" v="Årø" />
		<tag k="place" v="farm" />
		<tag k="ssr:stedsnr" v="426669" />
	</node>
	<node id="-435001" lat="58.8906333307" lon="9.26718333596">
		<tag k="fixme" v="consider place=hamlet" />
		<tag k="name" v="Lønne" />
		<tag k="place" v="farm" />
		<tag k="ssr:stedsnr" v="426667" />
	</node>
	<node id="-435000" lat="58.8840138893" lon="9.23508610341">
		<tag k="name" v="Londalen" />
		<tag k="place" v="farm" />
		<tag k="ssr:stedsnr" v="426664" />
	</node>
	<node id="-434999" lat="58.8811500017" lon="9.45109722988">
		<tag k="name" v="Nordli" />
		<tag k="place" v="farm" />
		<tag k="ssr:stedsnr" v="426657" />
	</node>
	<node id="-434996" lat="58.9111055568" lon="9.46671667436">
		<tag k="name" v="Båten" />
		<tag k="place" v="farm" />
		<tag k="ssr:stedsnr" v="426641" />
	</node>
	<node id="-434995" lat="58.9112722189" lon="9.50535000783">
		<tag k="fixme" v="multiple name tags, choose one and add the other to alt_name" />
		<tag k="name" v="Skippervik;Østre Langøy" />
		<tag k="place" v="farm" />
		<tag k="ssr:stedsnr" v="426639" />
	</node>
	<node id="-434993" lat="58.953436107" lon="9.33052499694">
		<tag k="alt_name" v="Farsjø" />
		<tag k="name" v="Nordre Farsjø" />
		<tag k="place" v="farm" />
		<tag k="ssr:stedsnr" v="426282" />
	</node>
	<node id="-434987" lat="58.9298166681" lon="9.40408610726">
		<tag k="fixme" v="consider place=hamlet" />
		<tag k="name" v="Brødløs" />
		<tag k="place" v="farm" />
		<tag k="ssr:stedsnr" v="425274" />
	</node>
	<node id="-432938" lat="58.8560916643" lon="9.52110556263">
		<tag k="name" v="Burøy" />
		<tag k="place" v="farm" />
		<tag k="ssr:stedsnr" v="487770" />
	</node>
	<node id="-434985" lat="58.9207916633" lon="9.3095638839">
		<tag k="fixme" v="consider place=hamlet" />
		<tag k="name" v="Holtane" />
		<tag k="place" v="farm" />
		<tag k="ssr:stedsnr" v="425268" />
	</node>
	<node id="-432935" lat="58.8406944449" lon="9.34006944319">
		<tag k="name" v="Nordjordet" />
		<tag k="place" v="farm" />
		<tag k="ssr:stedsnr" v="487755" />
	</node>
	<node id="-432934" lat="58.7918277772" lon="9.38837500662">
		<tag k="name" v="Ørsvik" />
		<tag k="place" v="farm" />
		<tag k="ssr:stedsnr" v="487602" />
	</node>
	<node id="-432933" lat="58.7943583353" lon="9.31615555814">
		<tag k="name" v="Liland" />
		<tag k="place" v="isolated_dwelling" />
		<tag k="ssr:stedsnr" v="487596" />
	</node>
	<node id="-432932" lat="58.8226416692" lon="9.28150833115">
		<tag k="name" v="Varmslåtta" />
		<tag k="place" v="farm" />
		<tag k="ssr:stedsnr" v="487570" />
	</node>
	<node id="-432931" lat="58.8302833359" lon="9.37313610929">
		<tag k="name" v="Guramyra" />
		<tag k="place" v="farm" />
		<tag k="ssr:stedsnr" v="487556" />
	</node>
	<node id="-432928" lat="58.8915611152" lon="9.24496945027">
		<tag k="name" v="Nygård" />
		<tag k="place" v="farm" />
		<tag k="ssr:stedsnr" v="486700" />
	</node>
	<node id="-432927" lat="58.889980556" lon="9.2343666625">
		<tag k="name" v="Kollen" />
		<tag k="place" v="farm" />
		<tag k="ssr:stedsnr" v="486699" />
	</node>
	<node id="-434973" lat="58.9407583355" lon="9.32461944666">
		<tag k="name" v="Tangane" />
		<tag k="place" v="isolated_dwelling" />
		<tag k="ssr:stedsnr" v="395453" />
	</node>
	<node id="-432924" lat="58.9082888919" lon="9.44331944576">
		<tag k="alt_name" v="Skotmyr;Østre Skotmyr" />
		<tag k="name" v="Skottmyra" />
		<tag k="place" v="farm" />
		<tag k="ssr:stedsnr" v="486666" />
	</node>
	<node id="-432923" lat="58.9052361097" lon="9.31010555699">
		<tag k="alt_name" v="Vasstøl" />
		<tag k="fixme" v="consider place=hamlet" />
		<tag k="name" v="Vastøl" />
		<tag k="place" v="farm" />
		<tag k="ssr:stedsnr" v="486658" />
	</node>
	<node id="-432920" lat="58.947758329" lon="9.32976110326">
		<tag k="alt_name" v="Farsjø" />
		<tag k="fixme" v="consider place=hamlet" />
		<tag k="name" v="Søndre Farsjø" />
		<tag k="place" v="farm" />
		<tag k="ssr:stedsnr" v="486337" />
	</node>
	<node id="-432918" lat="58.9241833312" lon="9.4002027745">
		<tag k="alt_name" v="Godfjell" />
		<tag k="name" v="Gofjell" />
		<tag k="ssr:stedsnr" v="486287" />
		<tag k="tourism" v="guest_house" />
	</node>
	<node id="-434965" lat="58.9531722249" lon="9.24813333821">
		<tag k="name" v="Kurdølsetra" />
		<tag k="place" v="locality" />
		<tag k="ssr:stedsnr" v="394991" />
	</node>
	<node id="-432916" lat="58.959688888" lon="9.32492500854">
		<tag k="name" v="Hestebråten" />
		<tag k="place" v="isolated_dwelling" />
		<tag k="ssr:stedsnr" v="334907" />
	</node>
	<node id="-434963" lat="58.8214194416" lon="9.34111666878">
		<tag k="name" v="Orbustølen" />
		<tag k="place" v="locality" />
		<tag k="ssr:stedsnr" v="394952" />
	</node>
	<node id="-434960" lat="58.8757583358" lon="9.30583333212">
		<tag k="name" v="Lambrets" />
		<tag k="place" v="isolated_dwelling" />
		<tag k="ssr:stedsnr" v="394926" />
	</node>
	<node id="-434957" lat="58.9772333291" lon="9.26161944941">
		<tag k="name" v="Børøy" />
		<tag k="place" v="locality" />
		<tag k="ssr:stedsnr" v="394902" />
	</node>
	<node id="-432901" lat="58.9264666659" lon="9.47205555059">
		<tag k="name" v="Eikeli" />
		<tag k="place" v="isolated_dwelling" />
		<tag k="ssr:stedsnr" v="333814" />
	</node>
	<node id="-432899" lat="58.892767279" lon="9.27584285404">
		<tag k="alt_name" v="Lislau" />
		<tag k="fixme" v="consider place=hamlet" />
		<tag k="name" v="Lishau" />
		<tag k="place" v="farm" />
		<tag k="ssr:stedsnr" v="333935" />
	</node>
	<node id="-432897" lat="58.8661972242" lon="9.29911389329">
		<tag k="name" v="Østvang" />
		<tag k="place" v="locality" />
		<tag k="ssr:stedsnr" v="333912" />
	</node>
	<node id="-432895" lat="58.8436277747" lon="9.48260555352">
		<tag k="name" v="Krikken" />
		<tag k="place" v="locality" />
		<tag k="ssr:stedsnr" v="333508" />
	</node>
	<node id="-432894" lat="58.9107222236" lon="9.43120832557">
		<tag k="name" v="Danserfjell" />
		<tag k="place" v="locality" />
		<tag k="ssr:stedsnr" v="333507" />
	</node>
	<node id="-434986" lat="58.9186972232" lon="9.40256111078">
		<tag k="name" v="Myrland" />
		<tag k="place" v="farm" />
		<tag k="ssr:stedsnr" v="425273" />
	</node>
	<node id="-434937" lat="58.8554333345" lon="9.38109443737">
		<tag k="name" v="Lia" />
		<tag k="place" v="locality" />
		<tag k="ssr:stedsnr" v="394689" />
	</node>
	<node id="-432888" lat="58.8554027787" lon="9.46072500482">
		<tag k="name" v="Vennevik" />
		<tag k="place" v="isolated_dwelling" />
		<tag k="ssr:stedsnr" v="333411" />
	</node>
	<node id="-432887" lat="58.8986916662" lon="9.4952027753">
		<tag k="name" v="Eikelund" />
		<tag k="place" v="isolated_dwelling" />
		<tag k="ssr:stedsnr" v="333209" />
	</node>
	<node id="-432886" lat="58.8968888892" lon="9.29074443955">
		<tag k="alt_name" v="Holt øde" />
		<tag k="fixme" v="consider place=hamlet" />
		<tag k="name" v="Holt" />
		<tag k="place" v="farm" />
		<tag k="ssr:stedsnr" v="333021" />
	</node>
	<node id="-434983" lat="58.9348249986" lon="9.26256110615">
		<tag k="alt_name" v="Sæteren" />
		<tag k="name" v="Våsjøseteren" />
		<tag k="place" v="isolated_dwelling" />
		<tag k="ssr:stedsnr" v="425259" />
	</node>
	<node id="-432871" lat="58.8787916653" lon="9.19674443997">
		<tag k="alt_name" v="Sønnbø, øvre" />
		<tag k="name" v="Øvre Søndbø" />
		<tag k="place" v="farm" />
		<tag k="ssr:stedsnr" v="304159" />
	</node>
	<node id="-432869" lat="58.8499444404" lon="9.21554444451">
		<tag k="name" v="Eikenes" />
		<tag k="place" v="farm" />
		<tag k="ssr:stedsnr" v="304103" />
	</node>
	<node id="-434915" lat="58.940911107" lon="9.33424721366">
		<tag k="name" v="Hundsvik" />
		<tag k="place" v="locality" />
		<tag k="ssr:stedsnr" v="394183" />
	</node>
	<node id="-432863" lat="58.899400001" lon="9.27035555274">
		<tag k="name" v="Humlestadåsen" />
		<tag k="place" v="locality" />
		<tag k="ssr:stedsnr" v="274104" />
	</node>
	<node id="-434908" lat="58.8866138882" lon="9.24092500022">
		<tag k="name" v="Bråtane" />
		<tag k="place" v="locality" />
		<tag k="ssr:stedsnr" v="394045" />
	</node>
	<node id="-432859" lat="58.8848888853" lon="9.23030555283">
		<tag k="name" v="Ramsåsen" />
		<tag k="place" v="farm" />
		<tag k="ssr:stedsnr" v="274063" />
	</node>
	<node id="-434770" lat="58.8303777808" lon="9.3472499922">
		<tag k="name" v="Ronsmyr" />
		<tag k="place" v="locality" />
		<tag k="ssr:stedsnr" v="333577" />
	</node>
	<node id="-434900" lat="58.9328527777" lon="9.48019445095">
		<tag k="name" v="Holmen" />
		<tag k="place" v="isolated_dwelling" />
		<tag k="ssr:stedsnr" v="393871" />
	</node>
	<node id="-434898" lat="58.9078166626" lon="9.42416111107">
		<tag k="name" v="Skarbodalen" />
		<tag k="place" v="farm" />
		<tag k="ssr:stedsnr" v="393500" />
	</node>
	<node id="-432844" lat="58.8722833331" lon="9.35411388831">
		<tag k="name" v="Haugstranda" />
		<tag k="place" v="isolated_dwelling" />
		<tag k="ssr:stedsnr" v="273320" />
	</node>
	<node id="-434891" lat="58.8787833306" lon="9.4613777732">
		<tag k="name" v="Dalgård" />
		<tag k="place" v="farm" />
		<tag k="ssr:stedsnr" v="393631" />
	</node>
	<node id="-434890" lat="58.9160166702" lon="9.52445276968">
		<tag k="name" v="Risøyhogget" />
		<tag k="place" v="isolated_dwelling" />
		<tag k="ssr:stedsnr" v="393594" />
	</node>
	<node id="-432841" lat="58.9289305572" lon="9.39565277344">
		<tag k="name" v="Løvtangen" />
		<tag k="place" v="isolated_dwelling" />
		<tag k="ssr:stedsnr" v="272955" />
	</node>
	<node id="-434884" lat="58.8585888855" lon="9.46619444469">
		<tag k="name" v="Øvre Saltbutangen" />
		<tag k="place" v="farm" />
		<tag k="ssr:stedsnr" v="393323" />
	</node>
	<node id="-434883" lat="58.8602361106" lon="9.47114999598">
		<tag k="name" v="Rønningen" />
		<tag k="place" v="farm" />
		<tag k="ssr:stedsnr" v="393322" />
	</node>
	<node id="-434876" lat="58.9048361082" lon="9.39793888937">
		<tag k="name" v="Tangane" />
		<tag k="place" v="isolated_dwelling" />
		<tag k="ssr:stedsnr" v="393409" />
	</node>
	<node id="-432825" lat="58.8986500027" lon="9.44316666844">
		<tag k="name" v="Tangen" />
		<tag k="place" v="farm" />
		<tag k="ssr:stedsnr" v="272160" />
	</node>
	<node id="-434871" lat="58.8817472234" lon="9.54578889725">
		<tag k="name" v="Jovik" />
		<tag k="place" v="isolated_dwelling" />
		<tag k="ssr:stedsnr" v="393178" />
	</node>
	<node id="-432822" lat="58.8936833374" lon="9.5032333267">
		<tag k="name" v="Langårsund" />
		<tag k="place" v="isolated_dwelling" />
		<tag k="ssr:stedsnr" v="272205" />
	</node>
	<node id="-434865" lat="58.86468056" lon="9.38134167337">
		<tag k="name" v="Skottet" />
		<tag k="place" v="farm" />
		<tag k="ssr:stedsnr" v="392773" />
	</node>
	<node id="-434861" lat="58.9049305521" lon="9.55256388133">
		<tag k="name" v="Roligheten" />
		<tag k="place" v="isolated_dwelling" />
		<tag k="ssr:stedsnr" v="388625" />
	</node>
	<node id="-435314" lat="58.8910722199" lon="9.35658055268">
		<tag k="amenity" v="school" />
		<tag k="name" v="Årø skole" />
		<tag k="ssr:stedsnr" v="758295" />
	</node>
	<node id="-434857" lat="58.9524916702" lon="9.32665833729">
		<tag k="name" v="Farsjø" />
		<tag k="place" v="hamlet" />
		<tag k="ssr:stedsnr" v="388363" />
	</node>
	<node id="-434855" lat="58.8184555589" lon="9.40839166058">
		<tag k="alt_name" v="Grønsvika" />
		<tag k="name" v="Grønsvik" />
		<tag k="place" v="isolated_dwelling" />
		<tag k="ssr:stedsnr" v="366518" />
	</node>
	<node id="-434851" lat="58.8363194417" lon="9.36343610776">
		<tag k="fixme" v="consider place=hamlet" />
		<tag k="name" v="Heibø" />
		<tag k="place" v="farm" />
		<tag k="ssr:stedsnr" v="365752" />
	</node>
	<node id="-434850" lat="58.8357888871" lon="9.37561389158">
		<tag k="name" v="Solberg" />
		<tag k="place" v="farm" />
		<tag k="ssr:stedsnr" v="365749" />
	</node>
	<node id="-434849" lat="58.842072223" lon="9.41844166708">
		<tag k="name" v="Rognli" />
		<tag k="place" v="farm" />
		<tag k="ssr:stedsnr" v="365738" />
	</node>
	<node id="-434845" lat="58.8985555572" lon="9.31667499807">
		<tag k="name" v="Rinde" />
		<tag k="place" v="farm" />
		<tag k="ssr:stedsnr" v="365694" />
	</node>
	<node id="-434842" lat="58.8853472178" lon="9.48397222542">
		<tag k="name" v="Eikenes" />
		<tag k="place" v="farm" />
		<tag k="ssr:stedsnr" v="365667" />
	</node>
	<node id="-434841" lat="58.8790166629" lon="9.49656945084">
		<tag k="name" v="Kjerra" />
		<tag k="place" v="farm" />
		<tag k="ssr:stedsnr" v="365665" />
	</node>
	<node id="-434840" lat="58.9028722262" lon="9.41700277858">
		<tag k="name" v="Lovisenberg" />
		<tag k="place" v="farm" />
		<tag k="ssr:stedsnr" v="365646" />
	</node>
	<node id="-434838" lat="58.9570694429" lon="9.31473888735">
		<tag k="fixme" v="consider place=hamlet" />
		<tag k="name" v="Svenum" />
		<tag k="place" v="farm" />
		<tag k="ssr:stedsnr" v="365305" />
	</node>
	<node id="-434837" lat="58.9387472217" lon="9.37290556198">
		<tag k="name" v="Buåsdalen" />
		<tag k="place" v="farm" />
		<tag k="ssr:stedsnr" v="365267" />
	</node>
	<node id="-432782" lat="58.7921666694" lon="9.37463333059">
		<tag k="name" v="Smifet" />
		<tag k="place" v="farm" />
		<tag k="ssr:stedsnr" v="455823" />
	</node>
	<node id="-432781" lat="58.9029972208" lon="9.28512777364">
		<tag k="name" v="Røllane" />
		<tag k="place" v="locality" />
		<tag k="ssr:stedsnr" v="455790" />
	</node>
	<node id="-432780" lat="58.9210944421" lon="9.31964166809">
		<tag k="amenity" v="school" />
		<tag k="name" v="Holtane skole" />
		<tag k="ssr:stedsnr" v="455777" />
	</node>
	<node id="-434827" lat="58.7733250025" lon="9.307038896">
		<tag k="name" v="Teigen" />
		<tag k="place" v="farm" />
		<tag k="ssr:stedsnr" v="364549" />
	</node>
	<node id="-434825" lat="58.8702166697" lon="9.17809999857">
		<tag k="alt_name" v="Lintjerndalen" />
		<tag k="name" v="Lindkjenndalen" />
		<tag k="place" v="farm" />
		<tag k="ssr:stedsnr" v="364188" />
	</node>
	<node id="-432776" lat="58.8585194402" lon="9.3814583346">
		<tag k="building" v="industrial" />
		<tag k="name" v="Fangensaga" />
		<tag k="ssr:stedsnr" v="455686" />
	</node>
	<node id="-434823" lat="58.8597972246" lon="9.38064999334">
		<tag k="name" v="Lille Kirkeholmen" />
		<tag k="place" v="neighbourhood" />
		<tag k="ssr:stedsnr" v="362293" />
	</node>
	<node id="-432753" lat="58.8443138912" lon="9.35215555399">
		<tag k="name" v="Hasseleidet" />
		<tag k="place" v="isolated_dwelling" />
		<tag k="ssr:stedsnr" v="455513" />
	</node>
	<node id="-432752" lat="58.8408750025" lon="9.34495832616">
		<tag k="name" v="Hasseleidet" />
		<tag k="place" v="farm" />
		<tag k="ssr:stedsnr" v="455502" />
	</node>
	<node id="-434794" lat="58.9364361068" lon="9.37365556339">
		<tag k="name" v="Ytre Tangen" />
		<tag k="place" v="farm" />
		<tag k="ssr:stedsnr" v="334274" />
	</node>
	<node id="-434793" lat="58.8804944415" lon="9.27132777327">
		<tag k="name" v="Plassen" />
		<tag k="place" v="locality" />
		<tag k="ssr:stedsnr" v="334266" />
	</node>
	<node id="-432744" lat="58.9408833343" lon="9.33200554946">
		<tag k="name" v="Løvås" />
		<tag k="place" v="isolated_dwelling" />
		<tag k="ssr:stedsnr" v="455209" />
	</node>
	<node id="-434790" lat="58.9755055513" lon="9.29856111358">
		<tag k="name" v="Bakken" />
		<tag k="place" v="isolated_dwelling" />
		<tag k="ssr:stedsnr" v="334129" />
	</node>
	<node id="-434782" lat="58.8533222262" lon="9.29174166676">
		<tag k="name" v="Listrand" />
		<tag k="place" v="isolated_dwelling" />
		<tag k="ssr:stedsnr" v="333780" />
	</node>
	<node id="-432731" lat="58.8904583292" lon="9.3266583351">
		<tag k="name" v="Rinderød" />
		<tag k="place" v="locality" />
		<tag k="ssr:stedsnr" v="455071" />
	</node>
	<node id="-432722" lat="58.8659499998" lon="9.4854055472">
		<tag k="name" v="Korsmarka" />
		<tag k="place" v="farm" />
		<tag k="ssr:stedsnr" v="454283" />
	</node>
	<node id="-434275" lat="58.8794111119" lon="9.56913888541">
		<tag k="name" v="Hasselodden" />
		<tag k="place" v="isolated_dwelling" />
		<tag k="ssr:stedsnr" v="90856" />
	</node>
	<node id="-432720" lat="58.9050722209" lon="9.50264445079">
		<tag k="name" v="Langøy gruver" />
		<tag k="place" v="isolated_dwelling" />
		<tag k="ssr:stedsnr" v="454277" />
	</node>
	<node id="-432719" lat="58.9223583348" lon="9.46416667266">
		<tag k="name" v="Kjærstad" />
		<tag k="place" v="isolated_dwelling" />
		<tag k="ssr:stedsnr" v="454275" />
	</node>
	<node id="-432716" lat="58.8831083346" lon="9.40035833062">
		<tag k="name" v="Slottvik" />
		<tag k="place" v="locality" />
		<tag k="ssr:stedsnr" v="454262" />
	</node>
	<node id="-434759" lat="58.901463887" lon="9.37926944335">
		<tag k="name" v="Heibø" />
		<tag k="place" v="hamlet" />
		<tag k="ssr:stedsnr" v="333198" />
	</node>
	<node id="-434757" lat="58.7764111094" lon="9.37561944489">
		<tag k="name" v="Tommaspollen" />
		<tag k="place" v="isolated_dwelling" />
		<tag k="ssr:stedsnr" v="333184" />
	</node>
	<node id="-432707" lat="58.8574833295" lon="9.44988611121">
		<tag k="name" v="Steinkleiv" />
		<tag k="place" v="farm" />
		<tag k="ssr:stedsnr" v="450701" />
	</node>
	<node id="-434753" lat="58.8493972186" lon="9.42285276914">
		<tag k="name" v="Klevene" />
		<tag k="place" v="isolated_dwelling" />
		<tag k="ssr:stedsnr" v="333163" />
	</node>
	<node id="-434751" lat="58.8376999965" lon="9.42634999906">
		<tag k="name" v="Bjønnmyr" />
		<tag k="place" v="isolated_dwelling" />
		<tag k="ssr:stedsnr" v="333160" />
	</node>
	<node id="-434750" lat="58.925147226" lon="9.42582778436">
		<tag k="name" v="Rullemyr" />
		<tag k="place" v="farm" />
		<tag k="ssr:stedsnr" v="332982" />
	</node>
	<node id="-434971" lat="58.8805055518" lon="9.25915555535">
		<tag k="name" v="Kartmyr" />
		<tag k="place" v="locality" />
		<tag k="ssr:stedsnr" v="395296" />
	</node>
	<node id="-434745" lat="58.8335583366" lon="9.41424166292">
		<tag k="name" v="Nordskog" />
		<tag k="place" v="isolated_dwelling" />
		<tag k="ssr:stedsnr" v="332882" />
	</node>
	<node id="-434743" lat="58.9040333334" lon="9.55854721722">
		<tag k="name" v="Tumlevik" />
		<tag k="place" v="isolated_dwelling" />
		<tag k="ssr:stedsnr" v="332785" />
	</node>
	<node id="-432694" lat="58.8953166652" lon="9.58599165981">
		<tag k="name" v="Homlevika" />
		<tag k="place" v="isolated_dwelling" />
		<tag k="ssr:stedsnr" v="449442" />
	</node>
	<node id="-434739" lat="58.8894888924" lon="9.50981110347">
		<tag k="name" v="Fjordglimt" />
		<tag k="place" v="isolated_dwelling" />
		<tag k="ssr:stedsnr" v="332248" />
	</node>
	<node id="-432690" lat="58.8661305554" lon="9.34478888325">
		<tag k="name" v="Åtangen" />
		<tag k="place" v="farm" />
		<tag k="ssr:stedsnr" v="244722" />
	</node>
	<node id="-432689" lat="58.8678277774" lon="9.49796388512">
		<tag k="name" v="Buvika" />
		<tag k="place" v="farm" />
		<tag k="ssr:stedsnr" v="244716" />
	</node>
	<node id="-432687" lat="58.8964305554" lon="9.2844194505">
		<tag k="name" v="Tangen" />
		<tag k="place" v="farm" />
		<tag k="ssr:stedsnr" v="244709" />
	</node>
	<node id="-432686" lat="58.8893722189" lon="9.46005556071">
		<tag k="alt_name" v="Blandtjern" />
		<tag k="name" v="Blandkjenn" />
		<tag k="place" v="farm" />
		<tag k="ssr:stedsnr" v="244704" />
	</node>
	<node id="-432685" lat="58.8190888917" lon="9.27745277372">
		<tag k="alt_name" v="Nedre Dobbe" />
		<tag k="fixme" v="consider place=hamlet" />
		<tag k="name" v="Dobbe" />
		<tag k="place" v="farm" />
		<tag k="ssr:stedsnr" v="244561" />
	</node>
	<node id="-432683" lat="58.885594447" lon="9.16615555315">
		<tag k="alt_name" v="Steane" />
		<tag k="name" v="Stene" />
		<tag k="place" v="farm" />
		<tag k="ssr:stedsnr" v="244214" />
	</node>
	<node id="-432682" lat="58.9150527733" lon="9.47117778428">
		<tag k="alt_name" v="Dyvika" />
		<tag k="fixme" v="consider place=hamlet" />
		<tag k="name" v="Dyvik" />
		<tag k="place" v="farm" />
		<tag k="ssr:stedsnr" v="243652" />
	</node>
	<node id="-432680" lat="58.9259643544" lon="9.22095266547">
		<tag k="alt_name" v="Høymyr" />
		<tag k="name" v="Høymyra" />
		<tag k="place" v="locality" />
		<tag k="ssr:stedsnr" v="243252" />
	</node>
	<node id="-432673" lat="58.920802776" lon="9.33654443896">
		<tag k="name" v="Gunnars" />
		<tag k="place" v="isolated_dwelling" />
		<tag k="ssr:stedsnr" v="213644" />
	</node>
	<node id="-434717" lat="58.8050333348" lon="9.38304443876">
		<tag k="name" v="Stranda" />
		<tag k="place" v="farm" />
		<tag k="ssr:stedsnr" v="305568" />
	</node>
	<node id="-434714" lat="58.8135444424" lon="9.26486666651">
		<tag k="name" v="Brekka" />
		<tag k="place" v="farm" />
		<tag k="ssr:stedsnr" v="305547" />
	</node>
	<node id="-434713" lat="58.8365666686" lon="9.41760277044">
		<tag k="name" v="Slåttås" />
		<tag k="place" v="farm" />
		<tag k="ssr:stedsnr" v="305725" />
	</node>
	<node id="-434711" lat="58.8719638863" lon="9.32525555599">
		<tag k="name" v="Grønåsen" />
		<tag k="place" v="farm" />
		<tag k="ssr:stedsnr" v="304737" />
	</node>
	<node id="-434710" lat="58.8795916694" lon="9.53883332918">
		<tag k="fixme" v="consider place=hamlet" />
		<tag k="name" v="Oterøy" />
		<tag k="place" v="farm" />
		<tag k="ssr:stedsnr" v="304727" />
	</node>
	<node id="-434708" lat="58.8673249964" lon="9.52287777553">
		<tag k="name" v="Helleseng" />
		<tag k="place" v="farm" />
		<tag k="ssr:stedsnr" v="304714" />
	</node>
	<node id="-434707" lat="58.8849138879" lon="9.25390832874">
		<tag k="name" v="Fjellmyr" />
		<tag k="place" v="farm" />
		<tag k="ssr:stedsnr" v="304685" />
	</node>
	<node id="-432656" lat="58.8153305584" lon="9.39474722215">
		<tag k="name" v="Stølestrand" />
		<tag k="place" v="isolated_dwelling" />
		<tag k="ssr:stedsnr" v="212508" />
	</node>
	<node id="-434701" lat="58.9339333317" lon="9.40229444807">
		<tag k="alt_name" v="Oterøya" />
		<tag k="name" v="Oterhei" />
		<tag k="place" v="farm" />
		<tag k="ssr:stedsnr" v="304268" />
	</node>
	<node id="-434700" lat="58.9333555583" lon="9.38438888218">
		<tag k="alt_name" v="Nedre Hulløya" />
		<tag k="name" v="Hullerøya" />
		<tag k="place" v="farm" />
		<tag k="ssr:stedsnr" v="304248" />
	</node>
	<node id="-434945" lat="58.9178111067" lon="9.30684721358">
		<tag k="name" v="Holtane" />
		<tag k="place" v="farm" />
		<tag k="ssr:stedsnr" v="394768" />
	</node>
	<node id="-434690" lat="58.890969448" lon="9.17701110896">
		<tag k="name" v="Jordmyrplassen" />
		<tag k="place" v="locality" />
		<tag k="ssr:stedsnr" v="213766" />
	</node>
	<node id="-432640" lat="58.9133611132" lon="9.38884722075">
		<tag k="name" v="Råna" />
		<tag k="place" v="isolated_dwelling" />
		<tag k="ssr:stedsnr" v="211403" />
	</node>
	<node id="-432635" lat="58.8666305594" lon="9.40755555019">
		<tag k="name" v="Thomesheia" />
		<tag k="place" v="suburb" />
		<tag k="ssr:stedsnr" v="211006" />
	</node>
	<node id="-432634" lat="58.9441611096" lon="9.37526666527">
		<tag k="name" v="Auråa" />
		<tag k="place" v="farm" />
		<tag k="ssr:stedsnr" v="183287" />
	</node>
	<node id="-434681" lat="58.9062999985" lon="9.25238055108">
		<tag k="name" v="Hovtangmyrplassen" />
		<tag k="place" v="locality" />
		<tag k="ssr:stedsnr" v="213378" />
	</node>
	<node id="-432628" lat="58.8996444457" lon="9.64407499914">
		<tag k="name" v="Vestgård" />
		<tag k="place" v="farm" />
		<tag k="ssr:stedsnr" v="182929" />
	</node>
	<node id="-432627" lat="58.900174998" lon="9.64681945244">
		<tag k="name" v="Østgård" />
		<tag k="place" v="farm" />
		<tag k="ssr:stedsnr" v="182928" />
	</node>
	<node id="-432626" lat="58.7866916687" lon="9.36992778126">
		<tag k="alt_name" v="Furumyra" />
		<tag k="name" v="Furumyr" />
		<tag k="place" v="farm" />
		<tag k="ssr:stedsnr" v="182553" />
	</node>
	<node id="-434259" lat="58.8547388913" lon="9.48425277592">
		<tag k="name" v="Stoppedalen" />
		<tag k="place" v="farm" />
		<tag k="ssr:stedsnr" v="90374" />
	</node>
	<node id="-432623" lat="58.8002694485" lon="9.375111106">
		<tag k="name" v="Haslumkilen havn" />
		<tag k="place" v="neighbourhood" />
		<tag k="ssr:stedsnr" v="161268" />
	</node>
	<node id="-432617" lat="58.9639944443" lon="9.34623055303">
		<tag k="name" v="Jonseter" />
		<tag k="place" v="locality" />
		<tag k="ssr:stedsnr" v="152038" />
	</node>
	<node id="-432612" lat="58.8105055534" lon="9.43146944741">
		<tag k="name" v="Breibukta" />
		<tag k="place" v="isolated_dwelling" />
		<tag k="ssr:stedsnr" v="151642" />
	</node>
	<node id="-434659" lat="58.8923305573" lon="9.24831666908">
		<tag k="name" v="Vestre Dalbråten" />
		<tag k="place" v="isolated_dwelling" />
		<tag k="ssr:stedsnr" v="213048" />
	</node>
	<node id="-432610" lat="58.8563722187" lon="9.37831389234">
		<tag k="name" v="Vestre Tåtøy" />
		<tag k="place" v="farm" />
		<tag k="ssr:stedsnr" v="151539" />
	</node>
	<node id="-434654" lat="58.8951305519" lon="9.2750333273">
		<tag k="name" v="Enggrav" />
		<tag k="place" v="farm" />
		<tag k="ssr:stedsnr" v="212953" />
	</node>
	<node id="-434648" lat="58.8344416703" lon="9.28264166382">
		<tag k="name" v="Potatten" />
		<tag k="place" v="isolated_dwelling" />
		<tag k="ssr:stedsnr" v="212696" />
	</node>
	<node id="-432597" lat="58.8825999969" lon="9.55326944159">
		<tag k="name" v="Skolvik" />
		<tag k="place" v="isolated_dwelling" />
		<tag k="ssr:stedsnr" v="150733" />
	</node>
	<node id="-432595" lat="58.9196777775" lon="9.39661667039">
		<tag k="name" v="Bånn" />
		<tag k="place" v="farm" />
		<tag k="ssr:stedsnr" v="150521" />
	</node>
	<node id="-432591" lat="58.8873027804" lon="9.52279999347">
		<tag k="name" v="Nesbukta" />
		<tag k="place" v="isolated_dwelling" />
		<tag k="ssr:stedsnr" v="150253" />
	</node>
	<node id="-434632" lat="58.8466638883" lon="9.44366666577">
		<tag k="name" v="Hvitsten" />
		<tag k="place" v="isolated_dwelling" />
		<tag k="ssr:stedsnr" v="212483" />
	</node>
	<node id="-432577" lat="58.9688666681" lon="9.30947500504">
		<tag k="name" v="Roli" />
		<tag k="place" v="isolated_dwelling" />
		<tag k="ssr:stedsnr" v="274140" />
	</node>
	<node id="-434620" lat="58.882633334" lon="9.30107222867">
		<tag k="name" v="Hegna" />
		<tag k="place" v="isolated_dwelling" />
		<tag k="ssr:stedsnr" v="212053" />
	</node>
	<node id="-432560" lat="58.9207666653" lon="9.30010278071">
		<tag k="name" v="Solli" />
		<tag k="place" v="locality" />
		<tag k="ssr:stedsnr" v="273775" />
	</node>
	<node id="-434607" lat="58.9367444458" lon="9.45815277643">
		<tag k="name" v="Fjordgløtt" />
		<tag k="place" v="isolated_dwelling" />
		<tag k="ssr:stedsnr" v="211867" />
	</node>
	<node id="-434606" lat="58.8924583317" lon="9.56428055367">
		<tag k="name" v="Nordnes" />
		<tag k="place" v="isolated_dwelling" />
		<tag k="ssr:stedsnr" v="211856" />
	</node>
	<node id="-435252" lat="58.9225500021" lon="9.31216389619">
		<tag k="name" v="Holtane" />
		<tag k="place" v="farm" />
		<tag k="ssr:stedsnr" v="637779" />
	</node>
	<node id="-434603" lat="58.8994055516" lon="9.57532500311">
		<tag k="name" v="Nubbus" />
		<tag k="place" v="isolated_dwelling" />
		<tag k="ssr:stedsnr" v="211852" />
	</node>
	<node id="-432552" lat="58.8493527747" lon="9.40133333667">
		<tag k="name" v="Stabbestad" />
		<tag k="place" v="hamlet" />
		<tag k="ssr:stedsnr" v="145424" />
	</node>
	<node id="-432551" lat="58.9280222234" lon="9.31902777175">
		<tag k="name" v="Gjerde" />
		<tag k="place" v="hamlet" />
		<tag k="ssr:stedsnr" v="145411" />
	</node>
	<node id="-434597" lat="58.9090166709" lon="9.48888611766">
		<tag k="name" v="Nøttebakken" />
		<tag k="place" v="isolated_dwelling" />
		<tag k="ssr:stedsnr" v="211287" />
	</node>
	<node id="-434594" lat="58.9064027807" lon="9.46304722791">
		<tag k="name" v="Slåtta" />
		<tag k="place" v="isolated_dwelling" />
		<tag k="ssr:stedsnr" v="211281" />
	</node>
	<node id="-434593" lat="58.907083331" lon="9.50784443734">
		<tag k="name" v="Solbakken" />
		<tag k="place" v="isolated_dwelling" />
		<tag k="ssr:stedsnr" v="211279" />
	</node>
	<node id="-434589" lat="58.8683999975" lon="9.40275277649">
		<tag k="name" v="Vestheia" />
		<tag k="place" v="suburb" />
		<tag k="ssr:stedsnr" v="211256" />
	</node>
	<node id="-434587" lat="58.9080444436" lon="9.4413861051">
		<tag k="name" v="Midtre Skotmyr" />
		<tag k="place" v="farm" />
		<tag k="ssr:stedsnr" v="211338" />
	</node>
	<node id="-432534" lat="58.9368499976" lon="9.33094166059">
		<tag k="name" v="Fossen" />
		<tag k="place" v="isolated_dwelling" />
		<tag k="ssr:stedsnr" v="273230" />
	</node>
	<node id="-432533" lat="58.7907249973" lon="9.28784999513">
		<tag k="name" v="Leivannshytta" />
		<tag k="place" v="isolated_dwelling" />
		<tag k="ssr:stedsnr" v="273224" />
	</node>
	<node id="-432532" lat="58.7830861106" lon="9.29932500376">
		<tag k="name" v="Kråkmyr" />
		<tag k="place" v="locality" />
		<tag k="ssr:stedsnr" v="273212" />
	</node>
	<node id="-434579" lat="58.8869166632" lon="9.29946945217">
		<tag k="name" v="Saltbutangen" />
		<tag k="place" v="isolated_dwelling" />
		<tag k="ssr:stedsnr" v="210463" />
	</node>
	<node id="-434577" lat="58.8613138919" lon="9.47000554823">
		<tag k="name" v="Rankilen" />
		<tag k="place" v="farm" />
		<tag k="ssr:stedsnr" v="207712" />
	</node>
	<node id="-434573" lat="58.8840749977" lon="9.50151944797">
		<tag k="name" v="Risbråten" />
		<tag k="place" v="isolated_dwelling" />
		<tag k="ssr:stedsnr" v="207704" />
	</node>
	<node id="-434572" lat="58.8002972246" lon="9.41348055909">
		<tag k="name" v="Brunsvik" />
		<tag k="place" v="locality" />
		<tag k="ssr:stedsnr" v="207532" />
	</node>
	<node id="-432522" lat="58.9642749965" lon="9.36523888548">
		<tag k="name" v="Langsjøplassen" />
		<tag k="place" v="locality" />
		<tag k="ssr:stedsnr" v="273042" />
	</node>
	<node id="-434565" lat="58.9029055539" lon="9.53952499529">
		<tag k="name" v="Ramsdalen" />
		<tag k="place" v="isolated_dwelling" />
		<tag k="ssr:stedsnr" v="206619" />
	</node>
	<node id="-432512" lat="58.811463891" lon="9.35664444477">
		<tag k="name" v="Hegna" />
		<tag k="place" v="locality" />
		<tag k="ssr:stedsnr" v="272747" />
	</node>
	<node id="-434558" lat="58.7938166623" lon="9.39843055145">
		<tag k="name" v="Torsdal" />
		<tag k="place" v="farm" />
		<tag k="ssr:stedsnr" v="184565" />
	</node>
	<node id="-432509" lat="58.8831444439" lon="9.58008055641">
		<tag k="name" v="Østrejordet" />
		<tag k="place" v="isolated_dwelling" />
		<tag k="ssr:stedsnr" v="272841" />
	</node>
	<node id="-434556" lat="58.8264527761" lon="9.35836110376">
		<tag k="name" v="Heistad" />
		<tag k="place" v="farm" />
		<tag k="ssr:stedsnr" v="184536" />
	</node>
	<node id="-434553" lat="58.8698499961" lon="9.3031444497">
		<tag k="fixme" v="consider place=hamlet" />
		<tag k="name" v="Frøvik" />
		<tag k="place" v="farm" />
		<tag k="ssr:stedsnr" v="183714" />
	</node>
	<node id="-432504" lat="58.9136472208" lon="9.53973610603">
		<tag k="name" v="Lindtangen" />
		<tag k="place" v="isolated_dwelling" />
		<tag k="ssr:stedsnr" v="272396" />
	</node>
	<node id="-434828" lat="58.7843111078" lon="9.34118889641">
		<tag k="name" v="Bråten" />
		<tag k="place" v="farm" />
		<tag k="ssr:stedsnr" v="364571" />
	</node>
	<node id="-434550" lat="58.886891665" lon="9.27464999516">
		<tag k="name" v="Hagvoll" />
		<tag k="place" v="farm" />
		<tag k="ssr:stedsnr" v="183661" />
	</node>
	<node id="-432501" lat="58.885558331" lon="9.39343888494">
		<tag k="name" v="Roland" />
		<tag k="place" v="locality" />
		<tag k="ssr:stedsnr" v="272247" />
	</node>
	<node id="-432500" lat="58.9086861127" lon="9.52617221383">
		<tag k="name" v="Sandberg" />
		<tag k="place" v="farm" />
		<tag k="ssr:stedsnr" v="272272" />
	</node>
	<node id="-432498" lat="58.8501250037" lon="9.41284166888">
		<tag k="name" v="Kvernane" />
		<tag k="place" v="isolated_dwelling" />
		<tag k="ssr:stedsnr" v="272147" />
	</node>
	<node id="-434541" lat="58.9371249979" lon="9.35467499599">
		<tag k="alt_name" v="Øygarden" />
		<tag k="name" v="Ødegård" />
		<tag k="place" v="farm" />
		<tag k="ssr:stedsnr" v="183242" />
	</node>
	<node id="-434536" lat="58.9262472182" lon="9.48001944084">
		<tag k="name" v="Barmsøya" />
		<tag k="place" v="farm" />
		<tag k="ssr:stedsnr" v="182269" />
	</node>
	<node id="-434535" lat="58.9309972235" lon="9.47343055691">
		<tag k="alt_name" v="Bjelkevika" />
		<tag k="name" v="Bjelkevik" />
		<tag k="place" v="farm" />
		<tag k="ssr:stedsnr" v="182262" />
	</node>
	<node id="-434534" lat="58.9209166654" lon="9.34184166247">
		<tag k="name" v="Dobbedalen" />
		<tag k="place" v="farm" />
		<tag k="ssr:stedsnr" v="182260" />
	</node>
	<node id="-434533" lat="58.9175527753" lon="9.39508056353">
		<tag k="name" v="Bånn" />
		<tag k="place" v="farm" />
		<tag k="ssr:stedsnr" v="182258" />
	</node>
	<node id="-432483" lat="58.8162333346" lon="9.36112222656">
		<tag k="name" v="Lille Byttingsmyr" />
		<tag k="place" v="farm" />
		<tag k="ssr:stedsnr" v="267490" />
	</node>
	<node id="-432478" lat="58.8981138932" lon="9.50169166571">
		<tag k="name" v="Øygården" />
		<tag k="place" v="farm" />
		<tag k="ssr:stedsnr" v="263940" />
	</node>
	<node id="-434524" lat="58.9611638895" lon="9.32218332952">
		<tag k="name" v="Auren" />
		<tag k="place" v="isolated_dwelling" />
		<tag k="ssr:stedsnr" v="152921" />
	</node>
	<node id="-434515" lat="58.9133305582" lon="9.29935000214">
		<tag k="name" v="Skræva" />
		<tag k="place" v="locality" />
		<tag k="ssr:stedsnr" v="152790" />
	</node>
	<node id="-434511" lat="58.9267555552" lon="9.30651111122">
		<tag k="name" v="Bråten" />
		<tag k="place" v="isolated_dwelling" />
		<tag k="ssr:stedsnr" v="152520" />
	</node>
	<node id="-432462" lat="58.8846111149" lon="9.38375000061">
		<tag k="name" v="Berg" />
		<tag k="place" v="farm" />
		<tag k="ssr:stedsnr" v="244698" />
	</node>
	<node id="-432461" lat="58.8915027776" lon="9.3360527693">
		<tag k="fixme" v="consider place=hamlet" />
		<tag k="name" v="Rønningen" />
		<tag k="place" v="farm" />
		<tag k="ssr:stedsnr" v="244696" />
	</node>
	<node id="-432460" lat="58.8891194407" lon="9.27581666787">
		<tag k="fixme" v="consider place=hamlet" />
		<tag k="name" v="Lofthaug" />
		<tag k="place" v="farm" />
		<tag k="ssr:stedsnr" v="244694" />
	</node>
	<node id="-432459" lat="58.8540416629" lon="9.49131944398">
		<tag k="alt_name" v="Dønnvika" />
		<tag k="name" v="Dønnvik" />
		<tag k="place" v="farm" />
		<tag k="ssr:stedsnr" v="244749" />
	</node>
	<node id="-432457" lat="58.8372972196" lon="9.2876166693">
		<tag k="alt_name" v="Hovet" />
		<tag k="name" v="Håvet" />
		<tag k="place" v="farm" />
		<tag k="ssr:stedsnr" v="244745" />
	</node>
	<node id="-432456" lat="58.8388277803" lon="9.23396666165">
		<tag k="name" v="Urberg" />
		<tag k="place" v="farm" />
		<tag k="ssr:stedsnr" v="244744" />
	</node>
	<node id="-432455" lat="58.8749222213" lon="9.44839166853">
		<tag k="name" v="Nordheim" />
		<tag k="place" v="farm" />
		<tag k="ssr:stedsnr" v="244732" />
	</node>
	<node id="-432453" lat="58.9005611106" lon="9.51150555411">
		<tag k="name" v="Oksekastet" />
		<tag k="place" v="farm" />
		<tag k="ssr:stedsnr" v="244670" />
	</node>
	<node id="-432451" lat="58.9683166642" lon="9.30339445017">
		<tag k="name" v="Øverland" />
		<tag k="place" v="farm" />
		<tag k="ssr:stedsnr" v="244329" />
	</node>
	<node id="-432450" lat="58.9010638872" lon="9.6459861113">
		<tag k="name" v="Nordheim" />
		<tag k="place" v="farm" />
		<tag k="ssr:stedsnr" v="243946" />
	</node>
	<node id="-434495" lat="58.9896888933" lon="9.30918055666">
		<tag k="historic" v="shieling" />
		<tag k="name" v="Lundereidseteren" />
		<tag k="place" v="locality" />
		<tag k="ssr:stedsnr" v="152281" />
	</node>
	<node id="-432446" lat="58.779774997" lon="9.35209723065">
		<tag k="alt_name" v="Bjørkekjerr" />
		<tag k="name" v="Bjørkkjær" />
		<tag k="place" v="farm" />
		<tag k="ssr:stedsnr" v="243545" />
	</node>
	<node id="-432444" lat="58.9760833325" lon="9.2854805567">
		<tag k="name" v="Fredheim" />
		<tag k="place" v="farm" />
		<tag k="ssr:stedsnr" v="243338" />
	</node>
	<node id="-432443" lat="58.9734777746" lon="9.28697777369">
		<tag k="name" v="Haugen" />
		<tag k="place" v="farm" />
		<tag k="ssr:stedsnr" v="243336" />
	</node>
	<node id="-432441" lat="58.8802111134" lon="9.19793888477">
		<tag k="alt_name" v="Sønnbø, nedre" />
		<tag k="name" v="Nedre Søndbø" />
		<tag k="place" v="locality" />
		<tag k="ssr:stedsnr" v="243186" />
	</node>
	<node id="-432439" lat="58.8137698797" lon="9.20357214313">
		<tag k="alt_name" v="Ansteinbråten" />
		<tag k="name" v="Ansteinsbråten" />
		<tag k="place" v="locality" />
		<tag k="ssr:stedsnr" v="62018" />
	</node>
	<node id="-434479" lat="58.8904999973" lon="9.237066675">
		<tag k="name" v="Dalane" />
		<tag k="place" v="isolated_dwelling" />
		<tag k="ssr:stedsnr" v="152068" />
	</node>
	<node id="-434471" lat="58.8646055518" lon="9.29068333849">
		<tag k="name" v="Vestvang" />
		<tag k="place" v="locality" />
		<tag k="ssr:stedsnr" v="151908" />
	</node>
	<node id="-434468" lat="58.8278833373" lon="9.41950832674">
		<tag k="name" v="Kartmyr" />
		<tag k="place" v="farm" />
		<tag k="ssr:stedsnr" v="151885" />
	</node>
	<node id="-434466" lat="58.7841138867" lon="9.37826111629">
		<tag k="alt_name" v="Vestre Rødal" />
		<tag k="name" v="Rødal" />
		<tag k="place" v="farm" />
		<tag k="ssr:stedsnr" v="151851" />
	</node>
	<node id="-432417" lat="58.8889916658" lon="9.30063332623">
		<tag k="name" v="Hauane" />
		<tag k="place" v="isolated_dwelling" />
		<tag k="ssr:stedsnr" v="30056" />
	</node>
	<node id="-435247" lat="58.8029722186" lon="9.42696944574">
		<tag k="name" v="Portørmyra" />
		<tag k="place" v="farm" />
		<tag k="ssr:stedsnr" v="637668" />
	</node>
	<node id="-434451" lat="58.8052583325" lon="9.4194416666">
		<tag k="name" v="Portørenga" />
		<tag k="place" v="isolated_dwelling" />
		<tag k="ssr:stedsnr" v="151669" />
	</node>
	<node id="-434438" lat="58.8026555539" lon="9.42834444208">
		<tag k="name" v="Portør pensjonat" />
		<tag k="ssr:stedsnr" v="151653" />
		<tag k="tourism" v="guest_house" />
	</node>
	<node id="-434437" lat="58.8310555541" lon="9.36732222028">
		<tag k="name" v="Torva" />
		<tag k="place" v="locality" />
		<tag k="ssr:stedsnr" v="151581" />
	</node>
	<node id="-434435" lat="58.7848472242" lon="9.38544167449">
		<tag k="name" v="Stangnes" />
		<tag k="place" v="farm" />
		<tag k="ssr:stedsnr" v="151093" />
	</node>
	<node id="-434434" lat="58.8914749966" lon="9.30481110331">
		<tag k="name" v="Menstad" />
		<tag k="place" v="farm" />
		<tag k="ssr:stedsnr" v="151056" />
	</node>
	<node id="-434431" lat="58.834138892" lon="9.41912500532">
		<tag k="name" v="Stårkjerr" />
		<tag k="place" v="isolated_dwelling" />
		<tag k="ssr:stedsnr" v="150869" />
	</node>
	<node id="-434430" lat="58.9378638869" lon="9.46291111553">
		<tag k="building" v="industrial" />
		<tag k="industrial" v="factory" />
		<tag k="name" v="Fossing tresliperi" />
		<tag k="ssr:stedsnr" v="150837" />
	</node>
	<node id="-434427" lat="58.9184111123" lon="9.50631944988">
		<tag k="name" v="Fjordgløtt" />
		<tag k="place" v="isolated_dwelling" />
		<tag k="ssr:stedsnr" v="150568" />
	</node>
	<node id="-434422" lat="58.8972583373" lon="9.50527221765">
		<tag k="name" v="Skomakerbukta" />
		<tag k="place" v="isolated_dwelling" />
		<tag k="ssr:stedsnr" v="150251" />
	</node>
	<node id="-434420" lat="58.9115444437" lon="9.49144721573">
		<tag k="name" v="Strandsted" />
		<tag k="place" v="isolated_dwelling" />
		<tag k="ssr:stedsnr" v="150289" />
	</node>
	<node id="-434417" lat="58.9023305573" lon="9.51152777372">
		<tag k="name" v="Nygård" />
		<tag k="place" v="farm" />
		<tag k="ssr:stedsnr" v="150276" />
	</node>
	<node id="-434416" lat="58.9056944489" lon="9.50655000843">
		<tag k="name" v="Solhaug" />
		<tag k="place" v="isolated_dwelling" />
		<tag k="ssr:stedsnr" v="150269" />
	</node>
	<node id="-434414" lat="58.8936388867" lon="9.4651666613">
		<tag k="name" v="Solstrand" />
		<tag k="place" v="isolated_dwelling" />
		<tag k="ssr:stedsnr" v="150176" />
	</node>
	<node id="-434557" lat="58.7917444437" lon="9.37243055009">
		<tag k="fixme" v="consider place=hamlet" />
		<tag k="name" v="Levang" />
		<tag k="place" v="village" />
		<tag k="ssr:stedsnr" v="184560" />
	</node>
	<node id="-434411" lat="58.8771666684" lon="9.50214722038">
		<tag k="name" v="Haukeberget" />
		<tag k="place" v="isolated_dwelling" />
		<tag k="ssr:stedsnr" v="150129" />
	</node>
	<node id="-434398" lat="58.8503527789" lon="9.40990278645">
		<tag k="name" v="Sandvika" />
		<tag k="place" v="isolated_dwelling" />
		<tag k="ssr:stedsnr" v="145587" />
	</node>
	<node id="-434397" lat="58.7968250008" lon="9.31535556294">
		<tag k="name" v="Øverland" />
		<tag k="place" v="locality" />
		<tag k="ssr:stedsnr" v="145488" />
	</node>
	<node id="-434395" lat="58.8438055599" lon="9.41587778337">
		<tag k="name" v="Bakke" />
		<tag k="place" v="farm" />
		<tag k="ssr:stedsnr" v="123745" />
	</node>
	<node id="-434394" lat="58.835863886" lon="9.44688888136">
		<tag k="alt_name" v="Storemyr" />
		<tag k="name" v="Stormyr" />
		<tag k="place" v="farm" />
		<tag k="ssr:stedsnr" v="123743" />
	</node>
	<node id="-434393" lat="58.797225004" lon="9.40909999548">
		<tag k="name" v="Kolstangen" />
		<tag k="place" v="farm" />
		<tag k="ssr:stedsnr" v="123598" />
	</node>
	<node id="-434392" lat="58.8234249988" lon="9.29163611873">
		<tag k="alt_name" v="Øygarden" />
		<tag k="name" v="Ødegården" />
		<tag k="place" v="farm" />
		<tag k="ssr:stedsnr" v="123570" />
	</node>
	<node id="-434385" lat="58.8471305515" lon="9.28099445198">
		<tag k="name" v="Limoen" />
		<tag k="place" v="farm" />
		<tag k="ssr:stedsnr" v="122738" />
	</node>
	<node id="-434552" lat="58.869302782" lon="9.41493333207">
		<tag k="name" v="Kragerø" />
		<tag k="place" v="town" />
		<tag k="ssr:stedsnr" v="183707" />
	</node>
	<node id="-434380" lat="58.8681444423" lon="9.46581666626">
		<tag k="name" v="Muffetangen" />
		<tag k="place" v="farm" />
		<tag k="ssr:stedsnr" v="122691" />
	</node>
	<node id="-434378" lat="58.8883416685" lon="9.5053333292">
		<tag k="alt_name" v="Gumøy, m" />
		<tag k="name" v="Midtre Gumøy" />
		<tag k="place" v="farm" />
		<tag k="ssr:stedsnr" v="122649" />
	</node>
	<node id="-434551" lat="58.8932055523" lon="9.53334999583">
		<tag k="alt_name" v="Gumøy, østre" />
		<tag k="name" v="Østre Gumøy" />
		<tag k="place" v="farm" />
		<tag k="ssr:stedsnr" v="183673" />
	</node>
	<node id="-434376" lat="58.9114833319" lon="9.46071944056">
		<tag k="alt_name" v="Nedre Soppekilen" />
		<tag k="name" v="Soppekilen" />
		<tag k="place" v="farm" />
		<tag k="ssr:stedsnr" v="122640" />
	</node>
	<node id="-434375" lat="58.913858337" lon="9.35185278511">
		<tag k="name" v="Bufjell" />
		<tag k="place" v="farm" />
		<tag k="ssr:stedsnr" v="122638" />
	</node>
	<node id="-434374" lat="58.9058583358" lon="9.28296389297">
		<tag k="alt_name" v="Brynemoen" />
		<tag k="name" v="Brynemo" />
		<tag k="place" v="farm" />
		<tag k="ssr:stedsnr" v="122631" />
	</node>
	<node id="-434371" lat="58.9283277741" lon="9.47821111564">
		<tag k="name" v="Tangen" />
		<tag k="place" v="isolated_dwelling" />
		<tag k="ssr:stedsnr" v="122300" />
	</node>
	<node id="-434368" lat="58.879652779" lon="9.20810278413">
		<tag k="alt_name" v="Torssæter" />
		<tag k="name" v="Torsseter" />
		<tag k="place" v="isolated_dwelling" />
		<tag k="ssr:stedsnr" v="122159" />
	</node>
	<node id="-434354" lat="58.9703833374" lon="9.31201944832">
		<tag k="name" v="Bråtane" />
		<tag k="place" v="isolated_dwelling" />
		<tag k="ssr:stedsnr" v="92132" />
	</node>
	<node id="-434348" lat="58.9537999956" lon="9.23316945201">
		<tag k="name" v="Trollvannstua" />
		<tag k="place" v="locality" />
		<tag k="ssr:stedsnr" v="91997" />
	</node>
	<node id="-434546" lat="58.9215861075" lon="9.49093333241">
		<tag k="name" v="Halsen" />
		<tag k="place" v="farm" />
		<tag k="ssr:stedsnr" v="183647" />
	</node>
	<node id="-434341" lat="58.9692944401" lon="9.25943611018">
		<tag k="name" v="Solbakken" />
		<tag k="place" v="isolated_dwelling" />
		<tag k="ssr:stedsnr" v="91950" />
	</node>
	<node id="-434336" lat="58.9540861149" lon="9.33012499788">
		<tag k="alt_name" v="Nordre Farsjø" />
		<tag k="fixme" v="consider place=hamlet" />
		<tag k="name" v="Farsjø" />
		<tag k="place" v="farm" />
		<tag k="ssr:stedsnr" v="91925" />
	</node>
	<node id="-434331" lat="58.9702111121" lon="9.26973333056">
		<tag k="name" v="Strandkåsa" />
		<tag k="place" v="locality" />
		<tag k="ssr:stedsnr" v="91892" />
	</node>
	<node id="-434324" lat="58.9218333308" lon="9.28242222012">
		<tag k="name" v="Holterød" />
		<tag k="place" v="locality" />
		<tag k="ssr:stedsnr" v="91775" />
	</node>
	<node id="-434312" lat="58.844197224" lon="9.37935278125">
		<tag k="name" v="Solberg" />
		<tag k="place" v="locality" />
		<tag k="ssr:stedsnr" v="91541" />
	</node>
	<node id="-434311" lat="58.9234611104" lon="9.34130556259">
		<tag k="fixme" v="consider place=hamlet" />
		<tag k="name" v="Haugholt" />
		<tag k="place" v="farm" />
		<tag k="ssr:stedsnr" v="91500" />
	</node>
	<node id="-434304" lat="58.8772444411" lon="9.3831583312">
		<tag k="name" v="Lindtvedt" />
		<tag k="place" v="farm" />
		<tag k="ssr:stedsnr" v="91333" />
	</node>
	<node id="-434299" lat="58.8867055549" lon="9.35607500844">
		<tag k="name" v="Eklund" />
		<tag k="place" v="isolated_dwelling" />
		<tag k="ssr:stedsnr" v="91297" />
	</node>
	<node id="-434284" lat="58.8955388905" lon="9.30150000583">
		<tag k="name" v="Bujordet" />
		<tag k="place" v="farm" />
		<tag k="ssr:stedsnr" v="91050" />
	</node>
	<node id="-434283" lat="58.8927527791" lon="9.25219721902">
		<tag k="name" v="Østre Dalbråten" />
		<tag k="place" v="isolated_dwelling" />
		<tag k="ssr:stedsnr" v="91045" />
	</node>
	<node id="-433510" lat="58.8890777794" lon="9.45519165991">
		<tag k="name" v="Hallen" />
		<tag k="place" v="isolated_dwelling" />
		<tag k="ssr:stedsnr" v="879163" />
	</node>
	<node id="-434273" lat="58.89942222" lon="9.58224721854">
		<tag k="name" v="Østre Arøy" />
		<tag k="place" v="neighbourhood" />
		<tag k="ssr:stedsnr" v="90828" />
	</node>
	<node id="-435557" lat="58.7846209604" lon="9.32378316752">
		<tag k="fixme" v="consider place=hamlet" />
		<tag k="name" v="Ødegården" />
		<tag k="place" v="farm" />
		<tag k="ssr:stedsnr" v="982745" />
	</node>
	<node id="-434262" lat="58.9133333353" lon="9.38678054989">
		<tag k="name" v="Råntangen" />
		<tag k="place" v="locality" />
		<tag k="ssr:stedsnr" v="90382" />
	</node>
	<node id="-434261" lat="58.9096194466" lon="9.3888277696">
		<tag k="name" v="Bolten" />
		<tag k="place" v="isolated_dwelling" />
		<tag k="ssr:stedsnr" v="90381" />
	</node>
	<node id="-435214" lat="58.8608444434" lon="9.45929722362">
		<tag k="name" v="Kobbersmedbråten" />
		<tag k="place" v="isolated_dwelling" />
		<tag k="ssr:stedsnr" v="636331" />
	</node>
	<node id="-434256" lat="58.8606138853" lon="9.44800555051">
		<tag k="name" v="Darefjell" />
		<tag k="place" v="farm" />
		<tag k="ssr:stedsnr" v="90288" />
	</node>
	<node id="-434250" lat="58.8982416652" lon="9.54778055481">
		<tag k="name" v="Skutevika" />
		<tag k="place" v="isolated_dwelling" />
		<tag k="ssr:stedsnr" v="90182" />
	</node>
	<node id="-434245" lat="58.8469027759" lon="9.4293777776">
		<tag k="name" v="Plassen" />
		<tag k="place" v="isolated_dwelling" />
		<tag k="ssr:stedsnr" v="90118" />
	</node>
	<node id="-434233" lat="58.8564166668" lon="9.49815277235">
		<tag k="name" v="Dønnevik østre" />
		<tag k="place" v="locality" />
		<tag k="ssr:stedsnr" v="86673" />
	</node>
	<node id="-434230" lat="58.9074805591" lon="9.5474611044">
		<tag k="name" v="Garpevika" />
		<tag k="place" v="isolated_dwelling" />
		<tag k="ssr:stedsnr" v="85578" />
	</node>
	<node id="-435208" lat="58.9128972192" lon="9.46283333981">
		<tag k="name" v="Øvre Soppekilen" />
		<tag k="place" v="farm" />
		<tag k="ssr:stedsnr" v="636275" />
	</node>
	<node id="-434220" lat="58.7937777809" lon="9.34674167001">
		<tag k="name" v="Kvihaugen" />
		<tag k="place" v="farm" />
		<tag k="ssr:stedsnr" v="63562" />
	</node>
	<node id="-434218" lat="58.8509722189" lon="9.28475000152">
		<tag k="alt_name" v="Lia" />
		<tag k="name" v="Lien" />
		<tag k="place" v="farm" />
		<tag k="ssr:stedsnr" v="62749" />
	</node>
	<node id="-434216" lat="58.8441666628" lon="9.35502778392">
		<tag k="name" v="Espehalsen" />
		<tag k="place" v="farm" />
		<tag k="ssr:stedsnr" v="62737" />
	</node>
	<node id="-434215" lat="58.8742694466" lon="9.34752776914">
		<tag k="alt_name" v="Myra" />
		<tag k="name" v="Tveit" />
		<tag k="place" v="farm" />
		<tag k="ssr:stedsnr" v="62727" />
	</node>
	<node id="-434213" lat="58.8789583304" lon="9.48248611635">
		<tag k="fixme" v="multiple name tags, choose one and add the other to alt_name" />
		<tag k="name" v="Eikenes;Ekebråten" />
		<tag k="place" v="isolated_dwelling" />
		<tag k="ssr:stedsnr" v="62722" />
	</node>
	<node id="-434212" lat="58.8636277785" lon="9.51349999336">
		<tag k="alt_name" v="Øygarden" />
		<tag k="name" v="Ødegården" />
		<tag k="place" v="farm" />
		<tag k="ssr:stedsnr" v="62702" />
	</node>
	<node id="-434211" lat="58.8643166697" lon="9.24727500268">
		<tag k="fixme" v="consider place=hamlet" />
		<tag k="name" v="Lindheim" />
		<tag k="place" v="farm" />
		<tag k="ssr:stedsnr" v="62701" />
	</node>
	<node id="-434210" lat="58.8563222261" lon="9.29663610714">
		<tag k="name" v="Smørvik" />
		<tag k="place" v="farm" />
		<tag k="ssr:stedsnr" v="62696" />
	</node>
	<node id="-434208" lat="58.8991472206" lon="9.52349999971">
		<tag k="name" v="Bråtane" />
		<tag k="place" v="isolated_dwelling" />
		<tag k="ssr:stedsnr" v="62684" />
	</node>
	<node id="-434207" lat="58.8964333326" lon="9.45935556221">
		<tag k="fixme" v="consider place=hamlet" />
		<tag k="name" v="Borteid" />
		<tag k="place" v="farm" />
		<tag k="ssr:stedsnr" v="62679" />
	</node>
	<node id="-435205" lat="58.8982972239" lon="9.36585277876">
		<tag k="name" v="Sollia" />
		<tag k="place" v="quarter" />
		<tag k="ssr:stedsnr" v="636234" />
	</node>
	<node id="-434202" lat="58.8312527773" lon="9.46057499829">
		<tag k="name" v="Rapen" />
		<tag k="place" v="farm" />
		<tag k="ssr:stedsnr" v="62522" />
	</node>
	<node id="-434201" lat="58.9476194432" lon="9.40761388094">
		<tag k="name" v="Hulldalen" />
		<tag k="place" v="locality" />
		<tag k="ssr:stedsnr" v="62294" />
	</node>
	<node id="-434199" lat="58.9362472239" lon="9.46074167414">
		<tag k="alt_name" v="Fossing, vestre;Fossing" />
		<tag k="fixme" v="consider place=hamlet" />
		<tag k="name" v="Vestre Fossing" />
		<tag k="place" v="farm" />
		<tag k="ssr:stedsnr" v="62255" />
	</node>
	<node id="-434192" lat="58.9090027751" lon="9.51752222654">
		<tag k="name" v="Bråten" />
		<tag k="place" v="farm" />
		<tag k="ssr:stedsnr" v="61616" />
	</node>
	<node id="-434191" lat="58.7725527771" lon="9.36705833645">
		<tag k="alt_name" v="Ellingsvika" />
		<tag k="name" v="Ellingsvik" />
		<tag k="place" v="farm" />
		<tag k="ssr:stedsnr" v="61507" />
	</node>
	<node id="-434190" lat="58.7778694477" lon="9.29918889366">
		<tag k="alt_name" v="Engemyr" />
		<tag k="name" v="Engmyr" />
		<tag k="place" v="farm" />
		<tag k="ssr:stedsnr" v="61503" />
	</node>
	<node id="-435031" lat="58.8226166676" lon="9.43145277162">
		<tag k="alt_name" v="Bekkevika" />
		<tag k="name" v="Bekkevik" />
		<tag k="place" v="farm" />
		<tag k="ssr:stedsnr" v="547566" />
	</node>
	<node id="-434182" lat="58.8774916662" lon="9.16874722955">
		<tag k="name" v="Østre Høgstli" />
		<tag k="place" v="isolated_dwelling" />
		<tag k="ssr:stedsnr" v="31958" />
	</node>
	<node id="-434180" lat="58.9190111096" lon="9.28023056228">
		<tag k="name" v="Tyvannsseteren" />
		<tag k="place" v="locality" />
		<tag k="ssr:stedsnr" v="31765" />
	</node>
</osm>
