<?xml version="1.0" encoding="UTF-8"?>
<osm version="0.6" generator="osmapis">
	<node lat="58.865116671190094" lon="9.399016663561914" id="-51137">
		<tag k="man_made" v="quay" />
		<tag k="name" v="Tallakshavn" />
		<tag k="place" v="locality" />
		<tag k="ssr:stedsnr" v="28768" />
	</node>
	<node lat="58.85380555606221" lon="9.454938886114027" id="-51147">
		<tag k="alt_name" v="Eidkilen" />
		<tag k="name" v="Eidkilkanalen" />
		<tag k="ssr:stedsnr" v="29424" />
		<tag k="waterway" v="canal" />
	</node>
	<node lat="58.902436109667654" lon="9.646836112259404" id="-51151">
		<tag k="man_made" v="breakwater" />
		<tag k="name" v="Moloen" />
		<tag k="place" v="locality" />
		<tag k="ssr:stedsnr" v="29920" />
	</node>
	<node lat="58.85920277930067" lon="9.573297220534856" id="-51238">
		<tag k="man_made" v="quay" />
		<tag k="name" v="Åsvikbrygga" />
		<tag k="place" v="locality" />
		<tag k="ssr:stedsnr" v="81934" />
	</node>
	<node lat="58.94353055632194" lon="9.376994438649119" id="-51291">
		<tag k="bridge" v="yes" />
		<tag k="layer" v="1" />
		<tag k="name" v="Auråen" />
		<tag k="ssr:stedsnr" v="107325" />
	</node>
	<node lat="58.79693055522878" lon="9.310741659711676" id="-51320">
		<tag k="fixme" v="verify maritime location" />
		<tag k="mooring" v="yes" />
		<tag k="name" v="Bjørkestø" />
		<tag k="place" v="locality" />
		<tag k="ssr:stedsnr" v="151102" />
	</node>
	<node lat="58.8960861121898" lon="9.256027772182367" id="-51339">
		<tag k="ford" v="yes" />
		<tag k="name" v="Heivad" />
		<tag k="place" v="locality" />
		<tag k="ssr:stedsnr" v="152009" />
	</node>
	<node lat="58.86873333275126" lon="9.414083341462069" id="-51390">
		<tag k="leisure" v="marina" />
		<tag k="name" v="Blindtarmen" />
		<tag k="ssr:stedsnr" v="267469" />
	</node>
	<node lat="58.88560000396702" lon="9.631491658159742" id="-51493">
		<tag k="name" v="Jomfrulandsgapet" />
		<tag k="place" v="locality" />
		<tag k="ssr:stedsnr" v="449650" />
	</node>
	<node lat="58.892480553787465" lon="9.34114444758843" id="-51505">
		<tag k="name" v="Vadfoss" />
		<tag k="railway" v="station" />
		<tag k="ssr:stedsnr" v="244700" />
		<tag k="train" v="yes" />
	</node>
	<node lat="58.895936111803074" lon="9.69936666335383" id="-51588">
		<tag k="name" v="Hårenna" />
		<tag k="place" v="locality" />
		<tag k="ssr:stedsnr" v="267617" />
	</node>
	<node lat="58.87886666896077" lon="9.367708331562094" id="-51646">
		<tag k="bridge" v="yes" />
		<tag k="layer" v="1" />
		<tag k="name" v="Sanssouci" />
		<tag k="ssr:stedsnr" v="289307" />
	</node>
	<node lat="58.893461114569604" lon="9.33821389600516" id="-51696">
		<tag k="bridge" v="yes" />
		<tag k="layer" v="1" />
		<tag k="name" v="Vadfoss midtre" />
		<tag k="ssr:stedsnr" v="471313" />
	</node>
	<node lat="58.797377779680744" lon="9.371838885527898" id="-51698">
		<tag k="bridge" v="yes" />
		<tag k="layer" v="1" />
		<tag k="name" v="Varpesund bru" />
		<tag k="ssr:stedsnr" v="333753" />
	</node>
	<node lat="58.86612221921847" lon="9.410436119623602" id="-51743">
		<tag k="man_made" v="quay" />
		<tag k="name" v="Barthebrygga" />
		<tag k="place" v="locality" />
		<tag k="ssr:stedsnr" v="388493" />
	</node>
	<node lat="58.837980555345794" lon="9.286041659270353" id="-51779">
		<tag k="fixme" v="verify maritime location" />
		<tag k="mooring" v="yes" />
		<tag k="name" v="Kirkestøa" />
		<tag k="place" v="locality" />
		<tag k="ssr:stedsnr" v="394699" />
	</node>
	<node lat="58.93553056005228" lon="9.327377785098154" id="-51801">
		<tag k="name" v="Farsjø" />
		<tag k="railway" v="station" />
		<tag k="ssr:stedsnr" v="486270" />
		<tag k="train" v="yes" />
	</node>
	<node lat="58.83140833448022" lon="9.274375004068958" id="-51818">
		<tag k="bridge" v="yes" />
		<tag k="layer" v="1" />
		<tag k="name" v="Kjølebrønn" />
		<tag k="ssr:stedsnr" v="410319" />
	</node>
	<node lat="58.909405551906225" lon="9.38748332512075" id="-51819">
		<tag k="bridge" v="yes" />
		<tag k="layer" v="1" />
		<tag k="name" v="Helle" />
		<tag k="ssr:stedsnr" v="410322" />
	</node>
	<node lat="58.86185277526824" lon="9.478516674785665" id="-52257">
		<tag k="man_made" v="quay" />
		<tag k="name" v="Kirkebrygga" />
		<tag k="place" v="locality" />
		<tag k="ssr:stedsnr" v="688933" />
	</node>
	<node lat="58.870382606530086" lon="9.41600562566313" id="-52324">
		<tag k="man_made" v="quay" />
		<tag k="name" v="Kragerø ferjekai" />
		<tag k="place" v="locality" />
		<tag k="ssr:stedsnr" v="896317" />
	</node>
	<node lat="58.877747218897845" lon="9.194669451340127" id="-52325">
		<tag k="bridge" v="yes" />
		<tag k="layer" v="1" />
		<tag k="name" v="Bråtevannselv" />
		<tag k="ssr:stedsnr" v="896351" />
	</node>
	<node lat="58.87696281857852" lon="9.409673600719175" id="-52548">
		<tag k="layer" v="-1" />
		<tag k="name" v="Kragerøtunnelen" />
		<tag k="ssr:stedsnr" v="894326" />
		<tag k="tunnel" v="yes" />
	</node>
	<node lat="58.93944444836596" lon="9.33092222413237" id="-52577">
		<tag k="bridge" v="yes" />
		<tag k="layer" v="1" />
		<tag k="name" v="Farsjø" />
		<tag k="ssr:stedsnr" v="957322" />
	</node>
	<node lat="58.87875833374611" lon="9.178955547196386" id="-52578">
		<tag k="bridge" v="yes" />
		<tag k="layer" v="1" />
		<tag k="name" v="Bråtevann overgangsbru" />
		<tag k="ssr:stedsnr" v="957323" />
	</node>
	<node lat="58.87974999930227" lon="9.199563886496396" id="-52695">
		<tag k="bridge" v="yes" />
		<tag k="layer" v="1" />
		<tag k="name" v="Søndbøvann" />
		<tag k="ssr:stedsnr" v="46331" />
	</node>
	<node lat="58.8995694414556" lon="9.254130559846102" id="-52696">
		<tag k="bridge" v="yes" />
		<tag k="layer" v="1" />
		<tag k="name" v="Fikjebakke" />
		<tag k="ssr:stedsnr" v="46352" />
	</node>
	<node lat="58.90049721788614" lon="9.318688883844723" id="-52708">
		<tag k="name" v="Sannidal" />
		<tag k="railway" v="station" />
		<tag k="ssr:stedsnr" v="62638" />
		<tag k="train" v="yes" />
	</node>
	<node lat="58.83622222239245" lon="9.337624998595839" id="-52786">
		<tag k="highway" v="path" />
		<tag k="name" v="Liveien" />
		<tag k="ssr:stedsnr" v="91956" />
	</node>
	<node lat="58.91374444199532" lon="9.337877779085941" id="-52798">
		<tag k="highway" v="path" />
		<tag k="name" v="Dabuskotet" />
		<tag k="ssr:stedsnr" v="91631" />
	</node>
	<node lat="58.968311108660835" lon="9.261447214296433" id="-52820">
		<tag k="bridge" v="yes" />
		<tag k="layer" v="1" />
		<tag k="name" v="Kurdøla" />
		<tag k="ssr:stedsnr" v="107302" />
	</node>
	<node lat="58.88652777623287" lon="9.347591659279948" id="-52821">
		<tag k="bridge" v="yes" />
		<tag k="layer" v="1" />
		<tag k="name" v="Kammerfoss" />
		<tag k="ssr:stedsnr" v="107303" />
	</node>
	<node lat="58.90355000022034" lon="9.31646389731783" id="-52822">
		<tag k="bridge" v="yes" />
		<tag k="layer" v="1" />
		<tag k="name" v="Støa halvbru" />
		<tag k="ssr:stedsnr" v="107310" />
	</node>
	<node lat="58.94158610771296" lon="9.365191659779363" id="-52823">
		<tag k="bridge" v="yes" />
		<tag k="layer" v="1" />
		<tag k="name" v="Vesterbekk" />
		<tag k="ssr:stedsnr" v="107316" />
	</node>
	<node lat="58.89346389272162" lon="9.337638884934472" id="-52824">
		<tag k="bridge" v="yes" />
		<tag k="layer" v="1" />
		<tag k="name" v="Vadfoss store" />
		<tag k="ssr:stedsnr" v="107317" />
	</node>
	<node lat="58.86010555186425" lon="9.441277769623616" id="-52838">
		<tag k="amenity" v="ferry_terminal" />
		<tag k="name" v="Skåtøyroa" />
		<tag k="ssr:stedsnr" v="122675" />
	</node>
	<node lat="58.912483331645184" lon="9.710016669718254" id="-52862">
		<tag k="name" v="Feierrenna" />
		<tag k="place" v="locality" />
		<tag k="ssr:stedsnr" v="145649" />
	</node>
	<node lat="58.91372222528359" lon="9.320375004694624" id="-52968">
		<tag k="bridge" v="yes" />
		<tag k="layer" v="1" />
		<tag k="name" v="Tyvann store" />
		<tag k="ssr:stedsnr" v="168314" />
	</node>
	<node lat="58.89345555887409" lon="9.338891674893516" id="-52969">
		<tag k="bridge" v="yes" />
		<tag k="layer" v="1" />
		<tag k="name" v="Vadfoss lille" />
		<tag k="ssr:stedsnr" v="168321" />
	</node>
	<node lat="58.927033333765955" lon="9.315447226963201" id="-52970">
		<tag k="bridge" v="yes" />
		<tag k="layer" v="1" />
		<tag k="name" v="Gjerdemyra" />
		<tag k="ssr:stedsnr" v="168335" />
	</node>
	<node lat="58.938483333347186" lon="9.462780548616804" id="-52971">
		<tag k="bridge" v="yes" />
		<tag k="layer" v="1" />
		<tag k="name" v="Fossing" />
		<tag k="ssr:stedsnr" v="168337" />
	</node>
	<node lat="58.88003611450432" lon="9.40970277050468" id="-53018">
		<tag k="man_made" v="quay" />
		<tag k="name" v="Valberg" />
		<tag k="place" v="locality" />
		<tag k="ssr:stedsnr" v="211200" />
	</node>
	<node lat="58.885411110693184" lon="9.222177784731501" id="-53107">
		<tag k="bridge" v="yes" />
		<tag k="layer" v="1" />
		<tag k="name" v="Rødsbekk" />
		<tag k="ssr:stedsnr" v="228333" />
	</node>
	<node lat="58.89143333269615" lon="9.269727785379018" id="-53108">
		<tag k="bridge" v="yes" />
		<tag k="layer" v="1" />
		<tag k="name" v="Mo" />
		<tag k="ssr:stedsnr" v="228336" />
	</node>
	<node lat="58.99251666912486" lon="9.306577784680098" id="-53146">
		<tag k="highway" v="path" />
		<tag k="name" v="Nordmyrskottet" />
		<tag k="ssr:stedsnr" v="274437" />
	</node>
	<node lat="58.85702499679216" lon="9.47375556157711" id="-53197">
		<tag k="man_made" v="quay" />
		<tag k="name" v="Åsvik" />
		<tag k="place" v="locality" />
		<tag k="ssr:stedsnr" v="333427" />
	</node>
	<node lat="58.91619999767453" lon="9.305155559883032" id="-53240">
		<tag k="bridge" v="yes" />
		<tag k="layer" v="1" />
		<tag k="name" v="Grytvannselva" />
		<tag k="ssr:stedsnr" v="350267" />
	</node>
	<node lat="58.87817221942803" lon="9.173158330721074" id="-53241">
		<tag k="bridge" v="yes" />
		<tag k="layer" v="1" />
		<tag k="name" v="Stedalen" />
		<tag k="ssr:stedsnr" v="350272" />
	</node>
	<node lat="58.90293333189553" lon="9.38538610874364" id="-53242">
		<tag k="bridge" v="yes" />
		<tag k="layer" v="1" />
		<tag k="name" v="Lona" />
		<tag k="ssr:stedsnr" v="350274" />
	</node>
	<node lat="58.88462222528226" lon="9.347466667063575" id="-53260">
		<tag k="landuse" v="industrial" />
		<tag k="name" v="Kammerfoss" />
		<tag k="power" v="plant" />
		<tag k="ssr:stedsnr" v="365680" />
	</node>
	<node lat="58.858255553206035" lon="9.400411107188143" id="-53276">
		<tag k="man_made" v="quay" />
		<tag k="name" v="Mannodden" />
		<tag k="place" v="locality" />
		<tag k="ssr:stedsnr" v="392776" />
	</node>
	<node lat="58.93586388853898" lon="9.469066669320434" id="-53306">
		<tag k="man_made" v="quay" />
		<tag k="name" v="Skuteverven" />
		<tag k="place" v="locality" />
		<tag k="ssr:stedsnr" v="393864" />
	</node>
	<node lat="58.790894446061884" lon="9.356588895343783" id="-53349">
		<tag k="junction" v="yes" />
		<tag k="name" v="Knettekjærkrysset" />
		<tag k="place" v="locality" />
		<tag k="ssr:stedsnr" v="394838" />
	</node>
	<node lat="58.91396666704733" lon="9.341858326163212" id="-53362">
		<tag k="highway" v="path" />
		<tag k="name" v="Breivei" />
		<tag k="ssr:stedsnr" v="395446" />
	</node>
	<node lat="58.866097218009415" lon="9.589275000410922" id="-53398">
		<tag k="man_made" v="quay" />
		<tag k="name" v="Tårnbrygga" />
		<tag k="place" v="locality" />
		<tag k="ssr:stedsnr" v="506917" />
	</node>
	<node lat="58.88182221988799" lon="9.212397215491212" id="-53508">
		<tag k="bridge" v="yes" />
		<tag k="layer" v="1" />
		<tag k="name" v="Plassen" />
		<tag k="ssr:stedsnr" v="532290" />
	</node>
	<node lat="58.89173055401607" lon="9.256374998259808" id="-53509">
		<tag k="bridge" v="yes" />
		<tag k="layer" v="1" />
		<tag k="name" v="Bråtane overgangsbru" />
		<tag k="ssr:stedsnr" v="532309" />
	</node>
	<node lat="58.93208055940049" lon="9.412780560009152" id="-53610">
		<tag k="bridge" v="yes" />
		<tag k="layer" v="1" />
		<tag k="name" v="Svarttjenndal" />
		<tag k="ssr:stedsnr" v="592332" />
	</node>
	<node lat="58.936197223391446" lon="9.324647229199405" id="-53611">
		<tag k="bridge" v="yes" />
		<tag k="layer" v="1" />
		<tag k="name" v="Fossen" />
		<tag k="ssr:stedsnr" v="592348" />
	</node>
	<node lat="58.85050833601093" lon="9.406355554011201" id="-53664">
		<tag k="amenity" v="ferry_terminal" />
		<tag k="name" v="Stabbestad" />
		<tag k="ssr:stedsnr" v="636102" />
	</node>
	<node lat="58.89061111155161" lon="9.303325000127286" id="-53715">
		<tag k="bridge" v="yes" />
		<tag k="layer" v="1" />
		<tag k="name" v="Kil" />
		<tag k="ssr:stedsnr" v="653284" />
	</node>
	<node lat="58.914211107354184" lon="9.320258339102784" id="-53716">
		<tag k="bridge" v="yes" />
		<tag k="layer" v="1" />
		<tag k="name" v="Tyvann lille" />
		<tag k="ssr:stedsnr" v="653293" />
	</node>
	<node lat="58.81690277356802" lon="9.379247226550381" id="-53717">
		<tag k="bridge" v="yes" />
		<tag k="layer" v="1" />
		<tag k="name" v="Støle" />
		<tag k="ssr:stedsnr" v="653294" />
	</node>
	<node lat="58.89162500086562" lon="9.255036117204154" id="-53744">
		<tag k="bridge" v="yes" />
		<tag k="layer" v="1" />
		<tag k="name" v="Lona" />
		<tag k="ssr:stedsnr" v="714269" />
	</node>
	<node lat="58.84479166526243" lon="9.512455561216314" id="-53769">
		<tag k="man_made" v="quay" />
		<tag k="name" v="Korset" />
		<tag k="place" v="locality" />
		<tag k="ssr:stedsnr" v="730761" />
	</node>
	<node lat="58.86889371587981" lon="9.41723258607378" id="-53778">
		<tag k="landuse" v="harbour" />
		<tag k="name" v="Havna" />
		<tag k="seamark:type" v="harbour" />
		<tag k="ssr:stedsnr" v="752491" />
	</node>
	<node lat="58.87044167044341" lon="9.605708325073548" id="-53789">
		<tag k="man_made" v="tower" />
		<tag k="name" v="Decca stasjon" />
		<tag k="ssr:stedsnr" v="756039" />
		<tag k="tower:type" v="communications" />
	</node>
	<node lat="58.87596944293965" lon="9.357647215287873" id="-53868">
		<tag k="bridge" v="yes" />
		<tag k="layer" v="1" />
		<tag k="name" v="Stene" />
		<tag k="ssr:stedsnr" v="775282" />
	</node>
	<node lat="58.89643889051873" lon="9.28291666605521" id="-53869">
		<tag k="bridge" v="yes" />
		<tag k="layer" v="1" />
		<tag k="name" v="Tangen" />
		<tag k="ssr:stedsnr" v="775285" />
	</node>
	<node lat="58.84883611330337" lon="9.413744443500693" id="-53870">
		<tag k="bridge" v="yes" />
		<tag k="layer" v="1" />
		<tag k="name" v="Viborgtjern" />
		<tag k="ssr:stedsnr" v="775288" />
	</node>
	<node lat="58.92363611517737" lon="9.397994435906417" id="-53871">
		<tag k="bridge" v="yes" />
		<tag k="layer" v="1" />
		<tag k="name" v="Gofjell" />
		<tag k="ssr:stedsnr" v="775299" />
	</node>
	<node lat="58.87719444436187" lon="9.193769449813857" id="-54014">
		<tag k="bridge" v="yes" />
		<tag k="layer" v="1" />
		<tag k="name" v="Søndbø" />
		<tag k="ssr:stedsnr" v="835335" />
	</node>
	<node lat="58.90411666412159" lon="9.392083330788072" id="-54015">
		<tag k="bridge" v="yes" />
		<tag k="layer" v="1" />
		<tag k="name" v="Kjettingfabr" />
		<tag k="ssr:stedsnr" v="836259" />
	</node>
	<node lat="58.92916944645733" lon="9.316961103508216" id="-54115">
		<tag k="junction" v="yes" />
		<tag k="name" v="Gjerdemyra" />
		<tag k="place" v="locality" />
		<tag k="ssr:stedsnr" v="880499" />
	</node>
	<node lat="58.88438610756122" lon="9.519619452432595" id="-54146">
		<tag k="amenity" v="ferry_terminal" />
		<tag k="name" v="Tangane" />
		<tag k="ssr:stedsnr" v="881743" />
	</node>
	<node lat="58.86956944080013" lon="9.41519999413581" id="-54179">
		<tag k="name" v="Kragerø jernbanestasjon" />
		<tag k="railway" v="station" />
		<tag k="ssr:stedsnr" v="940231" />
		<tag k="train" v="yes" />
	</node>
	<node lat="58.9440068916853" lon="9.637917728815127" id="-54617">
		<tag k="name" v="Tonerhavn" />
		<tag k="place" v="locality" />
		<tag k="ssr:stedsnr" v="1074516" />
	</node>
	<node lat="58.85344735451028" lon="9.503018854298789" id="-54630">
		<tag k="name" v="Østre Dønnevika" />
		<tag k="place" v="locality" />
		<tag k="ssr:stedsnr" v="1074654" />
	</node>
	<node lat="58.869235637506776" lon="9.416007017167816" id="-54635">
		<tag k="man_made" v="quay" />
		<tag k="name" v="Jernbanekaia" />
		<tag k="place" v="locality" />
		<tag k="ssr:stedsnr" v="1074675" />
	</node>
	<node lat="58.870193366110584" lon="9.415989846232204" id="-54636">
		<tag k="man_made" v="quay" />
		<tag k="name" v="Danskekaia" />
		<tag k="place" v="locality" />
		<tag k="ssr:stedsnr" v="1074688" />
	</node>
	<node lat="58.867750370399534" lon="9.414192197190399" id="-54637">
		<tag k="man_made" v="quay" />
		<tag k="name" v="Fiskebrygga" />
		<tag k="place" v="locality" />
		<tag k="ssr:stedsnr" v="1074690" />
	</node>
	<node lat="58.868283746659735" lon="9.413617895234498" id="-54638">
		<tag k="bridge" v="yes" />
		<tag k="layer" v="1" />
		<tag k="name" v="Bybrua" />
		<tag k="ssr:stedsnr" v="1074692" />
	</node>
	<node lat="58.80679890073353" lon="9.428517574098354" id="-54647">
		<tag k="man_made" v="quay" />
		<tag k="name" v="Nordre Portør" />
		<tag k="place" v="locality" />
		<tag k="ssr:stedsnr" v="1074722" />
	</node>
</osm>
