<?xml version="1.0" encoding="UTF-8"?>
<osm version="0.6" generator="osmapis">
	<node lat="58.78500833288141" lon="9.307969445031823" id="-24232">
		<tag k="alt_name" v="Leivatn" />
		<tag k="fixme" v="consider place=hamlet" />
		<tag k="name" v="Leivann" />
		<tag k="place" v="farm" />
		<tag k="ssr:stedsnr" v="548" />
	</node>
	<node lat="58.78255555494108" lon="9.343094441486251" id="-24233">
		<tag k="name" v="Nygård" />
		<tag k="place" v="farm" />
		<tag k="ssr:stedsnr" v="551" />
	</node>
	<node lat="58.790422220735444" lon="9.343916663718456" id="-24234">
		<tag k="name" v="Løvbakken" />
		<tag k="place" v="farm" />
		<tag k="ssr:stedsnr" v="552" />
	</node>
	<node lat="58.8906361143961" lon="9.18756666945286" id="-24235">
		<tag k="alt_name" v="Slettfjell, vestre" />
		<tag k="fixme" v="consider natural=peak for the most distinct mountains in the district" />
		<tag k="name" v="Vestre Slettefjell" />
		<tag k="natural" v="hill" />
		<tag k="place" v="locality" />
		<tag k="ssr:stedsnr" v="257" />
	</node>
	<node lat="58.893936109734675" lon="9.203897218049322" id="-24236">
		<tag k="fixme" v="consider natural=peak for the most distinct mountains in the district" />
		<tag k="name" v="Lyås" />
		<tag k="natural" v="hill" />
		<tag k="place" v="locality" />
		<tag k="ssr:stedsnr" v="259" />
	</node>
	<node lat="58.88827778183479" lon="9.185797216776038" id="-24237">
		<tag k="alt_name" v="Vestre Stormyr" />
		<tag k="name" v="Stormyr" />
		<tag k="natural" v="wetland" />
		<tag k="ssr:stedsnr" v="1206" />
	</node>
	<node lat="58.847097219365985" lon="9.507402771665447" id="-24238">
		<tag k="name" v="Bråtøy" />
		<tag k="place" v="farm" />
		<tag k="ssr:stedsnr" v="1739" />
	</node>
	<node lat="58.89716110774321" lon="9.527222229765433" id="-24239">
		<tag k="name" v="Gumøy" />
		<tag k="place" v="island" />
		<tag k="ssr:stedsnr" v="1680" />
	</node>
	<node lat="58.89421944374201" lon="9.243680559657411" id="-24240">
		<tag k="alt_name" v="Folemyr" />
		<tag k="name" v="Folemyra" />
		<tag k="place" v="farm" />
		<tag k="ssr:stedsnr" v="1682" />
	</node>
	<node lat="58.86030833367184" lon="9.585463882085614" id="-24241">
		<tag k="name" v="Hagane" />
		<tag k="place" v="farm" />
		<tag k="ssr:stedsnr" v="1690" />
	</node>
	<node lat="58.82976666675738" lon="9.466319437932691" id="-24242">
		<tag k="name" v="Rapen" />
		<tag k="natural" v="cape" />
		<tag k="ssr:stedsnr" v="272759" />
	</node>
	<node lat="58.808655551717926" lon="9.265727785502133" id="-24243">
		<tag k="name" v="Setertjenn" />
		<tag k="natural" v="water" />
		<tag k="ssr:stedsnr" v="2533" />
	</node>
	<node lat="58.80168888833503" lon="9.24686944628768" id="-24244">
		<tag k="alt_name" v="Harheia" />
		<tag k="fixme" v="consider natural=peak for the most distinct mountains in the district" />
		<tag k="name" v="Hardhei" />
		<tag k="natural" v="hill" />
		<tag k="place" v="locality" />
		<tag k="ssr:stedsnr" v="2536" />
	</node>
	<node lat="58.892663884587456" lon="9.585386108709589" id="-24245">
		<tag k="name" v="Fantebukta" />
		<tag k="natural" v="bay" />
		<tag k="ssr:stedsnr" v="272815" />
	</node>
	<node lat="58.869816666642215" lon="9.391663894835029" id="-24246">
		<tag k="name" v="Kalstad" />
		<tag k="place" v="suburb" />
		<tag k="ssr:stedsnr" v="20937" />
	</node>
	<node lat="58.79557222596936" lon="9.266144446012731" id="-24247">
		<tag k="name" v="Torvtjenndalen" />
		<tag k="natural" v="valley" />
		<tag k="place" v="locality" />
		<tag k="ssr:stedsnr" v="23342" />
	</node>
	<node lat="58.88430277882907" lon="9.43034443599888" id="-24248">
		<tag k="bay" v="fjord" />
		<tag k="name" v="Bærøyfjorden" />
		<tag k="natural" v="bay" />
		<tag k="ssr:stedsnr" v="24536" />
	</node>
	<node lat="58.81473055917751" lon="9.483222217629391" id="-24249">
		<tag k="name" v="Stangbåen" />
		<tag k="place" v="locality" />
		<tag k="seamark:type" v="rock" />
		<tag k="ssr:stedsnr" v="24580" />
	</node>
	<node lat="58.8859722183613" lon="9.564808341854885" id="-24250">
		<tag k="name" v="Lille Skauholmen" />
		<tag k="place" v="islet" />
		<tag k="ssr:stedsnr" v="24692" />
	</node>
	<node lat="58.874522218456434" lon="9.476336111597623" id="-24251">
		<tag k="name" v="Saltskjærholmen" />
		<tag k="place" v="islet" />
		<tag k="ssr:stedsnr" v="25690" />
	</node>
	<node lat="58.8739111094308" lon="9.510866664605599" id="-24252">
		<tag k="name" v="Rytterholmane" />
		<tag k="place" v="islet" />
		<tag k="ssr:stedsnr" v="25691" />
	</node>
	<node lat="58.865116671190094" lon="9.399016663561914" id="-24253">
		<tag k="man_made" v="quay" />
		<tag k="name" v="Tallakshavn" />
		<tag k="place" v="locality" />
		<tag k="ssr:stedsnr" v="28768" />
	</node>
	<node lat="58.89995000410417" lon="9.424275001854452" id="-24254">
		<tag k="name" v="Hvitskjær" />
		<tag k="natural" v="hill" />
		<tag k="place" v="locality" />
		<tag k="ssr:stedsnr" v="29125" />
	</node>
	<node lat="58.88254167072409" lon="9.499319440797763" id="-24255">
		<tag k="name" v="Veggerøheia" />
		<tag k="natural" v="hill" />
		<tag k="place" v="locality" />
		<tag k="ssr:stedsnr" v="29230" />
	</node>
	<node lat="58.88235277330123" lon="9.521008336815756" id="-24256">
		<tag k="name" v="Andholmane" />
		<tag k="place" v="islet" />
		<tag k="ssr:stedsnr" v="29233" />
	</node>
	<node lat="58.88770555936958" lon="9.524894446233784" id="-24257">
		<tag k="name" v="Kjeholmhølen" />
		<tag k="natural" v="bay" />
		<tag k="ssr:stedsnr" v="29202" />
	</node>
	<node lat="58.88363611551514" lon="9.530469441250357" id="-24258">
		<tag k="name" v="Ellenssund" />
		<tag k="natural" v="strait" />
		<tag k="ssr:stedsnr" v="29212" />
	</node>
	<node lat="58.890463889659195" lon="9.540963882192546" id="-24259">
		<tag k="name" v="Klamgren" />
		<tag k="place" v="islet" />
		<tag k="ssr:stedsnr" v="29167" />
	</node>
	<node lat="58.86067222490166" lon="9.4510416656113" id="-24260">
		<tag k="name" v="Kringlemyr" />
		<tag k="place" v="isolated_dwelling" />
		<tag k="ssr:stedsnr" v="29328" />
	</node>
	<node lat="58.942169445613914" lon="9.415775000579146" id="-24261">
		<tag k="name" v="Byttøya" />
		<tag k="place" v="islet" />
		<tag k="ssr:stedsnr" v="29502" />
	</node>
	<node lat="58.90686667016915" lon="9.418286119586469" id="-24262">
		<tag k="name" v="Fjella" />
		<tag k="place" v="isolated_dwelling" />
		<tag k="ssr:stedsnr" v="29511" />
	</node>
	<node lat="58.85380555606221" lon="9.454938886114027" id="-24263">
		<tag k="alt_name" v="Eidkilen" />
		<tag k="name" v="Eidkilkanalen" />
		<tag k="ssr:stedsnr" v="29424" />
		<tag k="waterway" v="canal" />
	</node>
	<node lat="58.91213055158822" lon="9.516130551305602" id="-24264">
		<tag k="name" v="Vadvika" />
		<tag k="natural" v="bay" />
		<tag k="ssr:stedsnr" v="29607" />
	</node>
	<node lat="58.8356472235883" lon="9.397380563574337" id="-24265">
		<tag k="name" v="Masskjerr" />
		<tag k="natural" v="wetland" />
		<tag k="ssr:stedsnr" v="29889" />
	</node>
	<node lat="58.90133610914786" lon="9.653758336660557" id="-24266">
		<tag k="name" v="Lille Hviteberg" />
		<tag k="natural" v="hill" />
		<tag k="place" v="locality" />
		<tag k="ssr:stedsnr" v="29890" />
	</node>
	<node lat="58.902436109667654" lon="9.646836112259404" id="-24267">
		<tag k="man_made" v="breakwater" />
		<tag k="name" v="Moloen" />
		<tag k="place" v="locality" />
		<tag k="ssr:stedsnr" v="29920" />
	</node>
	<node lat="58.931483335784996" lon="9.403544449789932" id="-24268">
		<tag k="name" v="Oterheimyra" />
		<tag k="place" v="locality" />
		<tag k="ssr:stedsnr" v="29970" />
	</node>
	<node lat="58.89129722149065" lon="9.645863894321847" id="-24269">
		<tag k="fixme" v="consider seamark:type=rock or natural=shoal" />
		<tag k="name" v="Gåsholmskjæra" />
		<tag k="place" v="islet" />
		<tag k="ssr:stedsnr" v="29978" />
	</node>
	<node lat="58.89632778103082" lon="9.647444444659234" id="-24270">
		<tag k="name" v="Rabberompa" />
		<tag k="natural" v="cape" />
		<tag k="ssr:stedsnr" v="29979" />
	</node>
	<node lat="58.79632777745457" lon="9.299497226295136" id="-24271">
		<tag k="name" v="Diplemyr" />
		<tag k="natural" v="wetland" />
		<tag k="ssr:stedsnr" v="30101" />
	</node>
	<node lat="58.93945833137957" lon="9.228650002100853" id="-24272">
		<tag k="name" v="Styggedal" />
		<tag k="natural" v="valley" />
		<tag k="place" v="locality" />
		<tag k="ssr:stedsnr" v="30104" />
	</node>
	<node lat="58.90112222409012" lon="9.345166660105734" id="-24273">
		<tag k="name" v="Årømyrtjenna" />
		<tag k="natural" v="water" />
		<tag k="ssr:stedsnr" v="30169" />
	</node>
	<node lat="58.90103333366637" lon="9.351150005190874" id="-24274">
		<tag k="name" v="Langtjenn" />
		<tag k="natural" v="water" />
		<tag k="ssr:stedsnr" v="30171" />
	</node>
	<node lat="58.88122222587859" lon="9.308630557439196" id="-24275">
		<tag k="name" v="Espehalsen" />
		<tag k="natural" v="cape" />
		<tag k="ssr:stedsnr" v="30076" />
	</node>
	<node lat="58.78208610683187" lon="9.31491388354216" id="-24276">
		<tag k="name" v="Bjornes" />
		<tag k="natural" v="cape" />
		<tag k="ssr:stedsnr" v="30201" />
	</node>
	<node lat="58.941125000132175" lon="9.341791659718416" id="-24277">
		<tag k="name" v="Kolhogstheia" />
		<tag k="place" v="locality" />
		<tag k="ssr:stedsnr" v="30204" />
	</node>
	<node lat="58.86266667037616" lon="9.261808338566029" id="-24278">
		<tag k="name" v="Stormyr" />
		<tag k="natural" v="wetland" />
		<tag k="ssr:stedsnr" v="30271" />
	</node>
	<node lat="58.87083888514502" lon="9.33793054972111" id="-24279">
		<tag k="fixme" v="consider natural=peak for the most distinct mountains in the district" />
		<tag k="name" v="Ånevikheia" />
		<tag k="natural" v="hill" />
		<tag k="place" v="locality" />
		<tag k="ssr:stedsnr" v="30283" />
	</node>
	<node lat="58.821797218223786" lon="9.22960556174974" id="-24280">
		<tag k="name" v="Hasseldalen" />
		<tag k="natural" v="valley" />
		<tag k="place" v="locality" />
		<tag k="ssr:stedsnr" v="30524" />
	</node>
	<node lat="58.857316662632236" lon="9.374441667499632" id="-24281">
		<tag k="name" v="Gåsedammen" />
		<tag k="place" v="isolated_dwelling" />
		<tag k="ssr:stedsnr" v="30544" />
	</node>
	<node lat="58.88115833555128" lon="9.250016673574091" id="-24282">
		<tag k="name" v="Bjønnkjerr" />
		<tag k="natural" v="wetland" />
		<tag k="ssr:stedsnr" v="30468" />
	</node>
	<node lat="58.8795750009332" lon="9.258455547427642" id="-24283">
		<tag k="name" v="Kartmyr" />
		<tag k="natural" v="wetland" />
		<tag k="ssr:stedsnr" v="30472" />
	</node>
	<node lat="58.925344448943086" lon="9.336583328819808" id="-24284">
		<tag k="fixme" v="consider natural=peak for the most distinct mountains in the district" />
		<tag k="name" v="Sagåsheia" />
		<tag k="natural" v="hill" />
		<tag k="place" v="locality" />
		<tag k="ssr:stedsnr" v="30602" />
	</node>
	<node lat="58.84026666254567" lon="9.37083888386575" id="-24285">
		<tag k="name" v="Støkolle" />
		<tag k="natural" v="hill" />
		<tag k="place" v="locality" />
		<tag k="ssr:stedsnr" v="30608" />
	</node>
	<node lat="58.918561110548026" lon="9.323827771811478" id="-24286">
		<tag k="name" v="Eriksur" />
		<tag k="natural" v="beach" />
		<tag k="ssr:stedsnr" v="30783" />
	</node>
	<node lat="58.87624444318261" lon="9.27832777962532" id="-24287">
		<tag k="name" v="Røymyr" />
		<tag k="natural" v="wetland" />
		<tag k="ssr:stedsnr" v="30903" />
	</node>
	<node lat="58.97627500234207" lon="9.259908336083798" id="-24288">
		<tag k="name" v="Bjønnestrøm" />
		<tag k="natural" v="strait" />
		<tag k="ssr:stedsnr" v="30868" />
	</node>
	<node lat="58.82719999816374" lon="9.373533341570308" id="-24289">
		<tag k="name" v="Lona" />
		<tag k="natural" v="wetland" />
		<tag k="ssr:stedsnr" v="30877" />
	</node>
	<node lat="58.83259444304584" lon="9.4314083273724" id="-24290">
		<tag k="name" v="Lilletjenn" />
		<tag k="natural" v="water" />
		<tag k="ssr:stedsnr" v="30879" />
		<tag k="water" v="pond" />
	</node>
	<node lat="58.82759444674778" lon="9.416366672403983" id="-24291">
		<tag k="fixme" v="consider natural=peak for the most distinct mountains in the district" />
		<tag k="name" v="Valbergheia" />
		<tag k="natural" v="hill" />
		<tag k="place" v="locality" />
		<tag k="ssr:stedsnr" v="30881" />
	</node>
	<node lat="58.977847223346814" lon="9.275477782260861" id="-24292">
		<tag k="name" v="Vintereidet" />
		<tag k="place" v="locality" />
		<tag k="ssr:stedsnr" v="30886" />
	</node>
	<node lat="58.956841667049346" lon="9.362733328021442" id="-24293">
		<tag k="fixme" v="consider natural=peak for the most distinct mountains in the district" />
		<tag k="name" v="Damheia" />
		<tag k="natural" v="hill" />
		<tag k="place" v="locality" />
		<tag k="ssr:stedsnr" v="31018" />
	</node>
	<node lat="58.96225833511373" lon="9.374533332440192" id="-24294">
		<tag k="name" v="Myrantjenna" />
		<tag k="natural" v="water" />
		<tag k="ssr:stedsnr" v="31023" />
		<tag k="water" v="pond" />
	</node>
	<node lat="58.89992777410088" lon="9.264138890920927" id="-24295">
		<tag k="fixme" v="consider natural=peak for the most distinct mountains in the district" />
		<tag k="name" v="Åsen" />
		<tag k="natural" v="hill" />
		<tag k="place" v="locality" />
		<tag k="ssr:stedsnr" v="31117" />
	</node>
	<node lat="58.89872778053418" lon="9.221152772043252" id="-24296">
		<tag k="name" v="Spykjerr" />
		<tag k="natural" v="wetland" />
		<tag k="ssr:stedsnr" v="31123" />
	</node>
	<node lat="58.97355277897721" lon="9.348113890586891" id="-24297">
		<tag k="fixme" v="consider natural=peak for the most distinct mountains in the district" />
		<tag k="name" v="Eikeliknulderen" />
		<tag k="natural" v="hill" />
		<tag k="place" v="locality" />
		<tag k="ssr:stedsnr" v="31203" />
	</node>
	<node lat="58.93715555804185" lon="9.27899721638706" id="-24298">
		<tag k="fixme" v="consider natural=peak for the most distinct mountains in the district" />
		<tag k="name" v="Østre Klingemyrheia" />
		<tag k="natural" v="hill" />
		<tag k="place" v="locality" />
		<tag k="ssr:stedsnr" v="31466" />
	</node>
	<node lat="58.86070833462956" lon="9.215313894787304" id="-24299">
		<tag k="name" v="Villmyr" />
		<tag k="natural" v="wetland" />
		<tag k="ssr:stedsnr" v="31622" />
	</node>
	<node lat="58.91901110963496" lon="9.280230562275696" id="-24300">
		<tag k="name" v="Tyvannsseteren" />
		<tag k="place" v="locality" />
		<tag k="ssr:stedsnr" v="31765" />
	</node>
	<node lat="58.954272225594565" lon="9.309052777493063" id="-24301">
		<tag k="name" v="Store Neslandstjenn" />
		<tag k="natural" v="water" />
		<tag k="ssr:stedsnr" v="31916" />
	</node>
	<node lat="58.873302781767116" lon="9.173713889514627" id="-24302">
		<tag k="name" v="Jonsmyr" />
		<tag k="natural" v="wetland" />
		<tag k="ssr:stedsnr" v="31977" />
	</node>
	<node lat="58.89579764377849" lon="9.586197579562244" id="-24303">
		<tag k="name" v="Hommelvika" />
		<tag k="natural" v="bay" />
		<tag k="ssr:stedsnr" v="236360" />
	</node>
	<node lat="58.91587222371297" lon="9.531650007385897" id="-24304">
		<tag k="name" v="Risøytangen" />
		<tag k="natural" v="cape" />
		<tag k="ssr:stedsnr" v="272539" />
	</node>
	<node lat="58.81526388483368" lon="9.178413894782496" id="-24305">
		<tag k="alt_name" v="Ansteinvann" />
		<tag k="name" v="Ansteinvannet" />
		<tag k="natural" v="water" />
		<tag k="ssr:stedsnr" v="40017" />
		<tag k="water" v="lake" />
	</node>
	<node lat="58.909002775145844" lon="9.517522226540018" id="-24308">
		<tag k="name" v="Bråten" />
		<tag k="place" v="farm" />
		<tag k="ssr:stedsnr" v="61616" />
	</node>
	<node lat="58.7778694477165" lon="9.299188893658092" id="-24309">
		<tag k="alt_name" v="Engemyr" />
		<tag k="name" v="Engmyr" />
		<tag k="place" v="farm" />
		<tag k="ssr:stedsnr" v="61503" />
	</node>
	<node lat="58.77255277714203" lon="9.367058336453374" id="-24310">
		<tag k="alt_name" v="Ellingsvika" />
		<tag k="name" v="Ellingsvik" />
		<tag k="place" v="farm" />
		<tag k="ssr:stedsnr" v="61507" />
	</node>
	<node lat="58.93515555543876" lon="9.717686104287871" id="-24311">
		<tag k="name" v="Ranhausen" />
		<tag k="natural" v="shoal" />
		<tag k="place" v="locality" />
		<tag k="ssr:stedsnr" v="61921" />
	</node>
	<node lat="58.92096666266927" lon="9.6917444381025" id="-24312">
		<tag k="alt_name" v="Stråholmstein, yt;Stråholmstein" />
		<tag k="name" v="Ytre Stråholmstein" />
		<tag k="place" v="islet" />
		<tag k="ssr:stedsnr" v="61923" />
	</node>
	<node lat="58.898147218325185" lon="9.621488882577992" id="-24313">
		<tag k="bay" v="fjord" />
		<tag k="name" v="Skrurenna" />
		<tag k="natural" v="bay" />
		<tag k="ssr:stedsnr" v="61936" />
	</node>
	<node lat="58.91990000255387" lon="9.65879167268032" id="-24314">
		<tag k="alt_name" v="Svartskjer" />
		<tag k="fixme" v="consider seamark:type=rock or natural=shoal" />
		<tag k="name" v="Svartskjær" />
		<tag k="place" v="islet" />
		<tag k="ssr:stedsnr" v="61944" />
	</node>
	<node lat="58.813769879741244" lon="9.203572143127607" id="-24315">
		<tag k="alt_name" v="Ansteinbråten" />
		<tag k="name" v="Ansteinsbråten" />
		<tag k="place" v="locality" />
		<tag k="ssr:stedsnr" v="62018" />
	</node>
	<node lat="58.8095166678392" lon="9.205619439684657" id="-24316">
		<tag k="fixme" v="consider natural=peak for the most distinct mountains in the district" />
		<tag k="name" v="Plassheia" />
		<tag k="natural" v="hill" />
		<tag k="place" v="locality" />
		<tag k="ssr:stedsnr" v="62020" />
	</node>
	<node lat="58.86212777365932" lon="9.220824998140435" id="-24317">
		<tag k="alt_name" v="Bjørnfjell" />
		<tag k="fixme" v="consider natural=peak for the most distinct mountains in the district" />
		<tag k="name" v="Bjønnfjell" />
		<tag k="natural" v="hill" />
		<tag k="place" v="locality" />
		<tag k="ssr:stedsnr" v="62101" />
	</node>
	<node lat="58.8447472205484" lon="9.21245833385716" id="-24318">
		<tag k="name" v="Stølevann" />
		<tag k="natural" v="water" />
		<tag k="ssr:stedsnr" v="62102" />
		<tag k="water" v="lake" />
	</node>
	<node lat="58.85253611172474" lon="9.188711112618787" id="-24319">
		<tag k="name" v="Trollvannet" />
		<tag k="natural" v="water" />
		<tag k="ssr:stedsnr" v="62105" />
	</node>
	<node lat="58.88424722012628" lon="9.189933335058008" id="-24320">
		<tag k="alt_name" v="Fosteråstjenna" />
		<tag k="name" v="Fosteråstjennane" />
		<tag k="natural" v="water" />
		<tag k="ssr:stedsnr" v="62201" />
	</node>
	<node lat="58.959950000555224" lon="9.24689444364426" id="-24321">
		<tag k="name" v="Igletjenn" />
		<tag k="natural" v="water" />
		<tag k="ssr:stedsnr" v="62279" />
	</node>
	<node lat="58.831252777314695" lon="9.46057499828617" id="-24322">
		<tag k="name" v="Rapen" />
		<tag k="place" v="farm" />
		<tag k="ssr:stedsnr" v="62522" />
	</node>
	<node lat="58.86431666974601" lon="9.247275002681544" id="-24323">
		<tag k="fixme" v="consider place=hamlet" />
		<tag k="name" v="Lindheim" />
		<tag k="place" v="farm" />
		<tag k="ssr:stedsnr" v="62701" />
	</node>
	<node lat="58.86362777854062" lon="9.513499993356273" id="-24324">
		<tag k="alt_name" v="Øygarden" />
		<tag k="name" v="Ødegården" />
		<tag k="place" v="farm" />
		<tag k="ssr:stedsnr" v="62702" />
	</node>
	<node lat="58.87895833040633" lon="9.482486116349804" id="-24325">
		<tag k="fixme" v="multiple name tags, choose one and add the other to alt_name" />
		<tag k="name" v="Ekebråten;Eikenes" />
		<tag k="place" v="isolated_dwelling" />
		<tag k="ssr:stedsnr" v="62722" />
	</node>
	<node lat="58.87503610928138" lon="9.456544443226" id="-24326">
		<tag k="name" v="Bærøy" />
		<tag k="place" v="island" />
		<tag k="ssr:stedsnr" v="62725" />
	</node>
	<node lat="58.896341664923284" lon="9.378102769458378" id="-24327">
		<tag k="bay" v="fjord" />
		<tag k="name" v="Hellefjorden" />
		<tag k="natural" v="bay" />
		<tag k="ssr:stedsnr" v="62676" />
	</node>
	<node lat="58.88925000420591" lon="9.423955547332147" id="-24328">
		<tag k="name" v="Valberg" />
		<tag k="place" v="locality" />
		<tag k="ssr:stedsnr" v="62678" />
	</node>
	<node lat="58.89643333256065" lon="9.459355562209865" id="-24329">
		<tag k="fixme" v="consider place=hamlet" />
		<tag k="name" v="Borteid" />
		<tag k="place" v="farm" />
		<tag k="ssr:stedsnr" v="62679" />
	</node>
	<node lat="58.899147220563236" lon="9.52349999971014" id="-24330">
		<tag k="name" v="Bråtane" />
		<tag k="place" v="isolated_dwelling" />
		<tag k="ssr:stedsnr" v="62684" />
	</node>
	<node lat="58.79377778092251" lon="9.346741670010493" id="-24331">
		<tag k="name" v="Kvihaugen" />
		<tag k="place" v="farm" />
		<tag k="ssr:stedsnr" v="63562" />
	</node>
	<node lat="58.860569441441754" lon="9.187461110152615" id="-24333">
		<tag k="fixme" v="consider natural=peak for the most distinct mountains in the district" />
		<tag k="name" v="Strevheiane" />
		<tag k="natural" v="hill" />
		<tag k="place" v="locality" />
		<tag k="ssr:stedsnr" v="243123" />
	</node>
	<node lat="58.88021111337747" lon="9.197938884773734" id="-24334">
		<tag k="alt_name" v="Sønnbø, nedre" />
		<tag k="name" v="Nedre Søndbø" />
		<tag k="place" v="locality" />
		<tag k="ssr:stedsnr" v="243186" />
	</node>
	<node lat="58.89788055885072" lon="9.182083331304886" id="-24335">
		<tag k="alt_name" v="Valmyr" />
		<tag k="name" v="Valmyra" />
		<tag k="natural" v="wetland" />
		<tag k="ssr:stedsnr" v="243221" />
	</node>
	<node lat="58.92596435435239" lon="9.220952665467737" id="-24336">
		<tag k="alt_name" v="Høymyr" />
		<tag k="name" v="Høymyra" />
		<tag k="place" v="locality" />
		<tag k="ssr:stedsnr" v="243252" />
	</node>
	<node lat="58.93024999727788" lon="9.449788887060569" id="-24337">
		<tag k="fixme" v="multiple name tags, choose one and add the other to alt_name" />
		<tag k="name" v="Røymyrtjenna;Revtjenn" />
		<tag k="natural" v="water" />
		<tag k="ssr:stedsnr" v="243262" />
	</node>
	<node lat="58.97347777463732" lon="9.286977773690953" id="-24338">
		<tag k="name" v="Haugen" />
		<tag k="place" v="farm" />
		<tag k="ssr:stedsnr" v="243336" />
	</node>
	<node lat="58.9760833324709" lon="9.285480556698056" id="-24339">
		<tag k="name" v="Fredheim" />
		<tag k="place" v="farm" />
		<tag k="ssr:stedsnr" v="243338" />
	</node>
	<node lat="58.77977499701321" lon="9.35209723064673" id="-24340">
		<tag k="alt_name" v="Bjørkekjerr" />
		<tag k="name" v="Bjørkkjær" />
		<tag k="place" v="farm" />
		<tag k="ssr:stedsnr" v="243545" />
	</node>
	<node lat="58.915358332860265" lon="9.221969446182811" id="-24341">
		<tag k="name" v="Kvennvann" />
		<tag k="natural" v="water" />
		<tag k="ssr:stedsnr" v="243663" />
		<tag k="water" v="lake" />
	</node>
	<node lat="58.91302500358521" lon="9.667755553483387" id="-24342">
		<tag k="name" v="Knallaren" />
		<tag k="place" v="islet" />
		<tag k="ssr:stedsnr" v="243943" />
	</node>
	<node lat="58.8987083357455" lon="9.643425002685548" id="-24343">
		<tag k="name" v="Stråholmen" />
		<tag k="place" v="island" />
		<tag k="ssr:stedsnr" v="243945" />
	</node>
	<node lat="58.90106388722935" lon="9.645986111303062" id="-24344">
		<tag k="name" v="Nordheim" />
		<tag k="place" v="farm" />
		<tag k="ssr:stedsnr" v="243946" />
	</node>
	<node lat="58.885594447047886" lon="9.1661555531486" id="-24345">
		<tag k="alt_name" v="Steane" />
		<tag k="name" v="Stene" />
		<tag k="place" v="farm" />
		<tag k="ssr:stedsnr" v="244214" />
	</node>
	<node lat="58.86782777742686" lon="9.497963885124662" id="-24346">
		<tag k="name" v="Buvika" />
		<tag k="place" v="farm" />
		<tag k="ssr:stedsnr" v="244716" />
	</node>
	<node lat="58.8661305554085" lon="9.3447888832483" id="-24347">
		<tag k="name" v="Åtangen" />
		<tag k="place" v="farm" />
		<tag k="ssr:stedsnr" v="244722" />
	</node>
	<node lat="58.81248333104321" lon="9.414344448762362" id="-24348">
		<tag k="bay" v="fjord" />
		<tag k="name" v="Stølefjorden" />
		<tag k="natural" v="bay" />
		<tag k="ssr:stedsnr" v="244537" />
	</node>
	<node lat="58.82773611170821" lon="9.484766662583551" id="-24349">
		<tag k="alt_name" v="Rødskjer" />
		<tag k="fixme" v="consider seamark:type=rock or natural=shoal" />
		<tag k="name" v="Rødskjær" />
		<tag k="place" v="islet" />
		<tag k="ssr:stedsnr" v="244555" />
	</node>
	<node lat="58.819088891720014" lon="9.277452773720094" id="-24350">
		<tag k="alt_name" v="Nedre Dobbe" />
		<tag k="fixme" v="consider place=hamlet" />
		<tag k="name" v="Dobbe" />
		<tag k="place" v="farm" />
		<tag k="ssr:stedsnr" v="244561" />
	</node>
	<node lat="58.85920277930067" lon="9.573297220534856" id="-24351">
		<tag k="man_made" v="quay" />
		<tag k="name" v="Åsvikbrygga" />
		<tag k="place" v="locality" />
		<tag k="ssr:stedsnr" v="81934" />
	</node>
	<node lat="58.90056111056778" lon="9.51150555411462" id="-24352">
		<tag k="name" v="Oksekastet" />
		<tag k="place" v="farm" />
		<tag k="ssr:stedsnr" v="244670" />
	</node>
	<node lat="58.90033055484487" lon="9.461452776461375" id="-24353">
		<tag k="bay" v="fjord" />
		<tag k="name" v="Soppekilen" />
		<tag k="natural" v="bay" />
		<tag k="ssr:stedsnr" v="244672" />
	</node>
	<node lat="58.838827780324685" lon="9.233966661649673" id="-24354">
		<tag k="name" v="Urberg" />
		<tag k="place" v="farm" />
		<tag k="ssr:stedsnr" v="244744" />
	</node>
	<node lat="58.837297219645436" lon="9.287616669296343" id="-24355">
		<tag k="alt_name" v="Hovet" />
		<tag k="name" v="Håvet" />
		<tag k="place" v="farm" />
		<tag k="ssr:stedsnr" v="244745" />
	</node>
	<node lat="58.84985555871191" lon="9.48740833650414" id="-24356">
		<tag k="name" v="Ærøy" />
		<tag k="place" v="island" />
		<tag k="ssr:stedsnr" v="244747" />
	</node>
	<node lat="58.85404166291523" lon="9.491319443984773" id="-24357">
		<tag k="alt_name" v="Dønnvika" />
		<tag k="name" v="Dønnvik" />
		<tag k="place" v="farm" />
		<tag k="ssr:stedsnr" v="244749" />
	</node>
	<node lat="58.8489583390937" lon="9.242131936629086" id="-24358">
		<tag k="name" v="Breivann" />
		<tag k="natural" v="water" />
		<tag k="ssr:stedsnr" v="244764" />
		<tag k="water" v="lake" />
	</node>
	<node lat="58.93390555516915" lon="9.42647222783704" id="-24359">
		<tag k="alt_name" v="Skjersjøknuten" />
		<tag k="fixme" v="consider natural=peak for the most distinct mountains in the district" />
		<tag k="name" v="Skjærsjøknuten" />
		<tag k="natural" v="hill" />
		<tag k="place" v="locality" />
		<tag k="ssr:stedsnr" v="85408" />
	</node>
	<node lat="58.77502777499697" lon="9.428641667713256" id="-24360">
		<tag k="name" v="Skarholmhausen" />
		<tag k="natural" v="shoal" />
		<tag k="place" v="locality" />
		<tag k="ssr:stedsnr" v="85487" />
	</node>
	<node lat="58.8566527775458" lon="9.408180556889594" id="-24361">
		<tag k="alt_name" v="Søstrene" />
		<tag k="name" v="Søskenskjæra" />
		<tag k="place" v="islet" />
		<tag k="ssr:stedsnr" v="85377" />
	</node>
	<node lat="58.856038888189254" lon="9.41984444516312" id="-24362">
		<tag k="name" v="Hammerbåen" />
		<tag k="place" v="locality" />
		<tag k="seamark:type" v="rock" />
		<tag k="ssr:stedsnr" v="85379" />
	</node>
	<node lat="58.846302779745244" lon="9.461188894980323" id="-24363">
		<tag k="name" v="Hesthue" />
		<tag k="natural" v="cape" />
		<tag k="ssr:stedsnr" v="85516" />
	</node>
	<node lat="58.907480559089365" lon="9.547461104403205" id="-24364">
		<tag k="name" v="Garpevika" />
		<tag k="place" v="isolated_dwelling" />
		<tag k="ssr:stedsnr" v="85578" />
	</node>
	<node lat="58.90236111204745" lon="9.568302776261714" id="-24365">
		<tag k="fixme" v="consider seamark:type=rock or natural=shoal" />
		<tag k="name" v="Svartskjæra" />
		<tag k="place" v="islet" />
		<tag k="ssr:stedsnr" v="85981" />
	</node>
	<node lat="58.91038333542205" lon="9.59783611307688" id="-24366">
		<tag k="alt_name" v="Ellevsholmen" />
		<tag k="name" v="Ellefsholmane" />
		<tag k="place" v="islet" />
		<tag k="ssr:stedsnr" v="85993" />
	</node>
	<node lat="58.856416666807036" lon="9.498152772352327" id="-24367">
		<tag k="name" v="Dønnevik østre" />
		<tag k="place" v="locality" />
		<tag k="ssr:stedsnr" v="86673" />
	</node>
	<node lat="58.84747777436899" lon="9.576286115997087" id="-24368">
		<tag k="name" v="Skagerakstrand" />
		<tag k="natural" v="beach" />
		<tag k="ssr:stedsnr" v="89704" />
	</node>
	<node lat="58.84487500035825" lon="9.547444441390473" id="-24369">
		<tag k="fixme" v="consider seamark:type=rock or natural=shoal" />
		<tag k="name" v="Pilkehellane" />
		<tag k="place" v="islet" />
		<tag k="ssr:stedsnr" v="90008" />
	</node>
	<node lat="58.84690277588806" lon="9.429377777604" id="-24370">
		<tag k="name" v="Plassen" />
		<tag k="place" v="isolated_dwelling" />
		<tag k="ssr:stedsnr" v="90118" />
	</node>
	<node lat="58.868233328894114" lon="9.494716669341035" id="-24371">
		<tag k="fixme" v="consider natural=peak for the most distinct mountains in the district" />
		<tag k="name" v="Revåsen" />
		<tag k="natural" v="hill" />
		<tag k="place" v="locality" />
		<tag k="ssr:stedsnr" v="90126" />
	</node>
	<node lat="58.89353889118699" lon="9.543355550565273" id="-24372">
		<tag k="name" v="Gumøysunda" />
		<tag k="natural" v="strait" />
		<tag k="ssr:stedsnr" v="90132" />
	</node>
	<node lat="58.91396389060612" lon="9.526119444172085" id="-24373">
		<tag k="name" v="Sildebukta" />
		<tag k="natural" v="bay" />
		<tag k="ssr:stedsnr" v="90418" />
	</node>
	<node lat="58.91391111382008" lon="9.531275001202264" id="-24374">
		<tag k="name" v="Mattisplass" />
		<tag k="natural" v="beach" />
		<tag k="ssr:stedsnr" v="90419" />
	</node>
	<node lat="58.85473889134789" lon="9.484252775922396" id="-24375">
		<tag k="name" v="Stoppedalen" />
		<tag k="place" v="farm" />
		<tag k="ssr:stedsnr" v="90374" />
	</node>
</osm>
