<?xml version="1.0" encoding="UTF-8"?>
<osm version="0.6" generator="osmapis">
	<node lat="59.913687056194" lon="12.092445024585432" id="-36937">
		<tag k="name" v="Braserudvegen" />
		<tag k="ssr:date" v="2019-12-27" />
		<tag k="ssr:gruppe" v="veg" />
		<tag k="ssr:hovedgruppe" v="infrastruktur" />
		<tag k="ssr:stedsnr" v="40264" />
		<tag k="ssr:type" v="adressenavn" />
	</node>
	<node lat="59.96328307677028" lon="12.118116880735649" id="-36938">
		<tag k="name" v="Åslivegen" />
		<tag k="ssr:date" v="2019-12-27" />
		<tag k="ssr:gruppe" v="veg" />
		<tag k="ssr:hovedgruppe" v="infrastruktur" />
		<tag k="ssr:stedsnr" v="40404" />
		<tag k="ssr:type" v="adressenavn" />
	</node>
	<node lat="60.00278062151533" lon="12.120776378316014" id="-36976">
		<tag k="name" v="Grønnerud-Hesbølvegen" />
		<tag k="ssr:date" v="2019-12-27" />
		<tag k="ssr:gruppe" v="veg" />
		<tag k="ssr:hovedgruppe" v="infrastruktur" />
		<tag k="ssr:stedsnr" v="239678" />
		<tag k="ssr:type" v="adressenavn" />
	</node>
	<node lat="59.95630305512854" lon="12.195953741923779" id="-36977">
		<tag k="name" v="Nessjøvegen" />
		<tag k="ssr:date" v="2019-12-27" />
		<tag k="ssr:gruppe" v="veg" />
		<tag k="ssr:hovedgruppe" v="infrastruktur" />
		<tag k="ssr:stedsnr" v="239688" />
		<tag k="ssr:type" v="adressenavn" />
	</node>
	<node lat="59.88814772050462" lon="11.91758583676428" id="-36979">
		<tag k="name" v="Karlsengvegen" />
		<tag k="ssr:date" v="2019-12-27" />
		<tag k="ssr:gruppe" v="veg" />
		<tag k="ssr:hovedgruppe" v="infrastruktur" />
		<tag k="ssr:stedsnr" v="55271" />
		<tag k="ssr:type" v="adressenavn" />
	</node>
	<node lat="59.956488511919964" lon="11.972234721146604" id="-36980">
		<tag k="name" v="Grusjøvegen" />
		<tag k="ssr:date" v="2019-12-27" />
		<tag k="ssr:gruppe" v="veg" />
		<tag k="ssr:hovedgruppe" v="infrastruktur" />
		<tag k="ssr:stedsnr" v="59580" />
		<tag k="ssr:type" v="adressenavn" />
	</node>
	<node lat="59.870524357437354" lon="11.874206318331135" id="-36981">
		<tag k="name" v="Skjølåsætervegen" />
		<tag k="ssr:date" v="2019-12-27" />
		<tag k="ssr:gruppe" v="veg" />
		<tag k="ssr:hovedgruppe" v="infrastruktur" />
		<tag k="ssr:stedsnr" v="59584" />
		<tag k="ssr:type" v="adressenavn" />
	</node>
	<node lat="60.05127547016089" lon="12.140231440433626" id="-37041">
		<tag k="name" v="Grasmovegen" />
		<tag k="ssr:date" v="2019-12-27" />
		<tag k="ssr:gruppe" v="veg" />
		<tag k="ssr:hovedgruppe" v="infrastruktur" />
		<tag k="ssr:stedsnr" v="102412" />
		<tag k="ssr:type" v="adressenavn" />
	</node>
	<node lat="60.121382274394676" lon="12.108720474639263" id="-37094">
		<tag k="name" v="Austmarkavegen" />
		<tag k="ssr:date" v="2019-12-27" />
		<tag k="ssr:gruppe" v="veg" />
		<tag k="ssr:hovedgruppe" v="infrastruktur" />
		<tag k="ssr:stedsnr" v="118010" />
		<tag k="ssr:type" v="adressenavn" />
	</node>
	<node lat="59.94665844434298" lon="12.171519621639444" id="-37095">
		<tag k="name" v="Leirbekkvegen" />
		<tag k="ssr:date" v="2019-12-27" />
		<tag k="ssr:gruppe" v="veg" />
		<tag k="ssr:hovedgruppe" v="infrastruktur" />
		<tag k="ssr:stedsnr" v="118640" />
		<tag k="ssr:type" v="adressenavn" />
	</node>
	<node lat="59.938479089261556" lon="11.999380286655294" id="-37167">
		<tag k="name" v="Stangnessætervegen" />
		<tag k="ssr:date" v="2019-12-27" />
		<tag k="ssr:gruppe" v="veg" />
		<tag k="ssr:hovedgruppe" v="infrastruktur" />
		<tag k="ssr:stedsnr" v="180567" />
		<tag k="ssr:type" v="adressenavn" />
	</node>
	<node lat="60.11274574226639" lon="12.112681482971325" id="-37252">
		<tag k="name" v="Ulriksfoss" />
		<tag k="ssr:date" v="2019-12-27" />
		<tag k="ssr:gruppe" v="veg" />
		<tag k="ssr:hovedgruppe" v="infrastruktur" />
		<tag k="ssr:stedsnr" v="239015" />
		<tag k="ssr:type" v="adressenavn" />
	</node>
	<node lat="60.06989510770374" lon="12.149735981733714" id="-37253">
		<tag k="name" v="Kolstadvegen" />
		<tag k="ssr:date" v="2019-12-27" />
		<tag k="ssr:gruppe" v="veg" />
		<tag k="ssr:hovedgruppe" v="infrastruktur" />
		<tag k="ssr:stedsnr" v="239017" />
		<tag k="ssr:type" v="adressenavn" />
	</node>
	<node lat="59.93440239732411" lon="11.905136022382337" id="-37336">
		<tag k="name" v="Ljønervegen" />
		<tag k="ssr:date" v="2019-12-27" />
		<tag k="ssr:gruppe" v="veg" />
		<tag k="ssr:hovedgruppe" v="infrastruktur" />
		<tag k="ssr:stedsnr" v="298227" />
		<tag k="ssr:type" v="adressenavn" />
	</node>
	<node lat="60.104185320144886" lon="12.213621417491083" id="-37337">
		<tag k="name" v="Enderudvegen" />
		<tag k="ssr:date" v="2019-12-27" />
		<tag k="ssr:gruppe" v="veg" />
		<tag k="ssr:hovedgruppe" v="infrastruktur" />
		<tag k="ssr:stedsnr" v="301409" />
		<tag k="ssr:type" v="adressenavn" />
	</node>
	<node lat="59.973093520923705" lon="12.05659824780861" id="-37338">
		<tag k="name" v="Tollefsbølvegen" />
		<tag k="ssr:date" v="2019-12-27" />
		<tag k="ssr:gruppe" v="veg" />
		<tag k="ssr:hovedgruppe" v="infrastruktur" />
		<tag k="ssr:stedsnr" v="464623" />
		<tag k="ssr:type" v="adressenavn" />
	</node>
	<node lat="59.95880381364064" lon="12.155666461766915" id="-37339">
		<tag k="name" v="Sørgardsgutua" />
		<tag k="ssr:date" v="2019-12-27" />
		<tag k="ssr:gruppe" v="veg" />
		<tag k="ssr:hovedgruppe" v="infrastruktur" />
		<tag k="ssr:stedsnr" v="465338" />
		<tag k="ssr:type" v="adressenavn" />
	</node>
	<node lat="59.98106300125076" lon="12.10605309882225" id="-37480">
		<tag k="name" v="Bergervegen" />
		<tag k="ssr:date" v="2019-12-27" />
		<tag k="ssr:gruppe" v="veg" />
		<tag k="ssr:hovedgruppe" v="infrastruktur" />
		<tag k="ssr:stedsnr" v="482663" />
		<tag k="ssr:type" v="adressenavn" />
	</node>
	<node lat="59.916506415126086" lon="11.985823487861062" id="-37481">
		<tag k="name" v="Rambølsvegen" />
		<tag k="ssr:date" v="2019-12-27" />
		<tag k="ssr:gruppe" v="veg" />
		<tag k="ssr:hovedgruppe" v="infrastruktur" />
		<tag k="ssr:stedsnr" v="482675" />
		<tag k="ssr:type" v="adressenavn" />
	</node>
	<node lat="59.9864040716329" lon="12.148187746088203" id="-37482">
		<tag k="name" v="Einarsbølvegen" />
		<tag k="ssr:date" v="2019-12-27" />
		<tag k="ssr:gruppe" v="veg" />
		<tag k="ssr:hovedgruppe" v="infrastruktur" />
		<tag k="ssr:stedsnr" v="483445" />
		<tag k="ssr:type" v="adressenavn" />
	</node>
	<node lat="59.89164490318523" lon="12.095789706113996" id="-37621">
		<tag k="name" v="Perkerudvegen" />
		<tag k="ssr:date" v="2019-12-27" />
		<tag k="ssr:gruppe" v="veg" />
		<tag k="ssr:hovedgruppe" v="infrastruktur" />
		<tag k="ssr:stedsnr" v="464162" />
		<tag k="ssr:type" v="adressenavn" />
	</node>
	<node lat="59.89160102533198" lon="11.816794784970783" id="-37622">
		<tag k="name" v="Vestmarkavegen" />
		<tag k="ssr:date" v="2019-12-27" />
		<tag k="ssr:gruppe" v="veg" />
		<tag k="ssr:hovedgruppe" v="infrastruktur" />
		<tag k="ssr:stedsnr" v="465328" />
		<tag k="ssr:type" v="adressenavn" />
	</node>
	<node lat="60.11142990370539" lon="12.11611205985173" id="-37729">
		<tag k="name" v="Åklangbergsvegen" />
		<tag k="ssr:date" v="2019-12-27" />
		<tag k="ssr:gruppe" v="veg" />
		<tag k="ssr:hovedgruppe" v="infrastruktur" />
		<tag k="ssr:stedsnr" v="544413" />
		<tag k="ssr:type" v="adressenavn" />
	</node>
	<node lat="59.949204885826454" lon="12.237166747253694" id="-37754">
		<tag k="name" v="Svensrudvegen" />
		<tag k="ssr:date" v="2019-12-27" />
		<tag k="ssr:gruppe" v="veg" />
		<tag k="ssr:hovedgruppe" v="infrastruktur" />
		<tag k="ssr:stedsnr" v="585591" />
		<tag k="ssr:type" v="adressenavn" />
	</node>
	<node lat="59.967398984251794" lon="12.209444509395" id="-37755">
		<tag k="name" v="Punnerudvegen" />
		<tag k="ssr:date" v="2019-12-27" />
		<tag k="ssr:gruppe" v="veg" />
		<tag k="ssr:hovedgruppe" v="infrastruktur" />
		<tag k="ssr:stedsnr" v="588313" />
		<tag k="ssr:type" v="adressenavn" />
	</node>
	<node lat="60.112353210931886" lon="12.11730879077671" id="-37792">
		<tag k="name" v="Malmervegen" />
		<tag k="ssr:date" v="2019-12-27" />
		<tag k="ssr:gruppe" v="veg" />
		<tag k="ssr:hovedgruppe" v="infrastruktur" />
		<tag k="ssr:stedsnr" v="603658" />
		<tag k="ssr:type" v="adressenavn" />
	</node>
	<node lat="60.070116083386466" lon="12.236729161945881" id="-37793">
		<tag k="name" v="Kampevegen" />
		<tag k="ssr:date" v="2019-12-27" />
		<tag k="ssr:gruppe" v="veg" />
		<tag k="ssr:hovedgruppe" v="infrastruktur" />
		<tag k="ssr:stedsnr" v="604426" />
		<tag k="ssr:type" v="adressenavn" />
	</node>
	<node lat="59.996741530890155" lon="12.20691650941406" id="-37827">
		<tag k="name" v="Nordbysvingen" />
		<tag k="ssr:date" v="2019-12-27" />
		<tag k="ssr:gruppe" v="veg" />
		<tag k="ssr:hovedgruppe" v="infrastruktur" />
		<tag k="ssr:stedsnr" v="646330" />
		<tag k="ssr:type" v="adressenavn" />
	</node>
	<node lat="59.88953419458523" lon="12.1668214168667" id="-37828">
		<tag k="name" v="Leirsjøvegen" />
		<tag k="ssr:date" v="2019-12-27" />
		<tag k="ssr:gruppe" v="veg" />
		<tag k="ssr:hovedgruppe" v="infrastruktur" />
		<tag k="ssr:stedsnr" v="646629" />
		<tag k="ssr:type" v="adressenavn" />
	</node>
	<node lat="59.988716757065326" lon="12.070666554693975" id="-37869">
		<tag k="name" v="Bjørnstadmovegen" />
		<tag k="ssr:date" v="2019-12-27" />
		<tag k="ssr:gruppe" v="veg" />
		<tag k="ssr:hovedgruppe" v="infrastruktur" />
		<tag k="ssr:stedsnr" v="661708" />
		<tag k="ssr:type" v="adressenavn" />
	</node>
	<node lat="59.980914711146234" lon="12.051283295757907" id="-37926">
		<tag k="name" v="Snesbølgutua" />
		<tag k="ssr:date" v="2019-12-27" />
		<tag k="ssr:gruppe" v="veg" />
		<tag k="ssr:hovedgruppe" v="infrastruktur" />
		<tag k="ssr:stedsnr" v="707161" />
		<tag k="ssr:type" v="adressenavn" />
	</node>
	<node lat="59.91012240828882" lon="12.025735164596353" id="-37995">
		<tag k="name" v="Djupdalsvegen" />
		<tag k="ssr:date" v="2019-12-27" />
		<tag k="ssr:gruppe" v="veg" />
		<tag k="ssr:hovedgruppe" v="infrastruktur" />
		<tag k="ssr:stedsnr" v="723280" />
		<tag k="ssr:type" v="adressenavn" />
	</node>
	<node lat="59.91361397975854" lon="11.981750549644875" id="-37996">
		<tag k="name" v="Rudsvegen" />
		<tag k="ssr:date" v="2019-12-27" />
		<tag k="ssr:gruppe" v="veg" />
		<tag k="ssr:hovedgruppe" v="infrastruktur" />
		<tag k="ssr:stedsnr" v="726601" />
		<tag k="ssr:type" v="adressenavn" />
	</node>
	<node lat="59.9907813851684" lon="11.938991908935419" id="-38032">
		<tag k="name" v="Skjølungvegen" />
		<tag k="ssr:date" v="2019-12-27" />
		<tag k="ssr:gruppe" v="veg" />
		<tag k="ssr:hovedgruppe" v="infrastruktur" />
		<tag k="ssr:stedsnr" v="905266" />
		<tag k="ssr:type" v="adressenavn" />
	</node>
	<node lat="59.983217373776604" lon="11.965665971202279" id="-38036">
		<tag k="name" v="Børlivegen" />
		<tag k="ssr:date" v="2019-12-27" />
		<tag k="ssr:gruppe" v="veg" />
		<tag k="ssr:hovedgruppe" v="infrastruktur" />
		<tag k="ssr:stedsnr" v="768152" />
		<tag k="ssr:type" v="adressenavn" />
	</node>
	<node lat="59.93397025915203" lon="11.817758397465587" id="-38037">
		<tag k="name" v="Søndre Mangenvegen" />
		<tag k="ssr:date" v="2019-12-27" />
		<tag k="ssr:gruppe" v="veg" />
		<tag k="ssr:hovedgruppe" v="infrastruktur" />
		<tag k="ssr:stedsnr" v="908612" />
		<tag k="ssr:type" v="adressenavn" />
	</node>
	<node lat="59.9431347534059" lon="12.001920500418343" id="-38069">
		<tag k="name" v="Jerpsetvegen" />
		<tag k="ssr:date" v="2019-12-27" />
		<tag k="ssr:gruppe" v="veg" />
		<tag k="ssr:hovedgruppe" v="infrastruktur" />
		<tag k="ssr:stedsnr" v="783212" />
		<tag k="ssr:type" v="adressenavn" />
	</node>
	<node lat="59.90009012881177" lon="11.863880216700977" id="-38070">
		<tag k="name" v="Sootkanalvegen" />
		<tag k="ssr:date" v="2019-12-27" />
		<tag k="ssr:gruppe" v="veg" />
		<tag k="ssr:hovedgruppe" v="infrastruktur" />
		<tag k="ssr:stedsnr" v="783214" />
		<tag k="ssr:type" v="adressenavn" />
	</node>
	<node lat="60.09178681226058" lon="12.146837666778996" id="-38071">
		<tag k="name" v="Pramhusgutua" />
		<tag k="ssr:date" v="2019-12-27" />
		<tag k="ssr:gruppe" v="veg" />
		<tag k="ssr:hovedgruppe" v="infrastruktur" />
		<tag k="ssr:stedsnr" v="786429" />
		<tag k="ssr:type" v="adressenavn" />
	</node>
	<node lat="59.96795246903383" lon="12.173200653862418" id="-38072">
		<tag k="name" v="Vikerstubben" />
		<tag k="ssr:date" v="2019-12-27" />
		<tag k="ssr:gruppe" v="veg" />
		<tag k="ssr:hovedgruppe" v="infrastruktur" />
		<tag k="ssr:stedsnr" v="786449" />
		<tag k="ssr:type" v="adressenavn" />
	</node>
	<node lat="59.98556111242864" lon="12.125019450720018" id="-38141">
		<tag k="name" v="Eidskog kommune" />
		<tag k="ssr:date" v="2019-12-27" />
		<tag k="ssr:gruppe" v="administrativeIndelinger" />
		<tag k="ssr:hovedgruppe" v="offentligAdministrasjon" />
		<tag k="ssr:stedsnr" v="814330" />
		<tag k="ssr:type" v="kommune" />
	</node>
	<node lat="60.04500892034526" lon="12.125964231404861" id="-38144">
		<tag k="name" v="Bråtavegen" />
		<tag k="ssr:date" v="2019-12-27" />
		<tag k="ssr:gruppe" v="veg" />
		<tag k="ssr:hovedgruppe" v="infrastruktur" />
		<tag k="ssr:stedsnr" v="829663" />
		<tag k="ssr:type" v="adressenavn" />
	</node>
	<node lat="60.11078836284629" lon="12.122725037052463" id="-38204">
		<tag k="name" v="Korskjølvegen" />
		<tag k="ssr:date" v="2019-12-27" />
		<tag k="ssr:gruppe" v="veg" />
		<tag k="ssr:hovedgruppe" v="infrastruktur" />
		<tag k="ssr:stedsnr" v="847015" />
		<tag k="ssr:type" v="adressenavn" />
	</node>
	<node lat="60.11083261003644" lon="12.112282632741566" id="-38205">
		<tag k="name" v="Øvre Drøserudveg" />
		<tag k="ssr:date" v="2019-12-27" />
		<tag k="ssr:gruppe" v="veg" />
		<tag k="ssr:hovedgruppe" v="infrastruktur" />
		<tag k="ssr:stedsnr" v="847434" />
		<tag k="ssr:type" v="adressenavn" />
	</node>
	<node lat="59.98737385419459" lon="12.06827629679349" id="-38262">
		<tag k="name" v="Nygårdsvegen" />
		<tag k="ssr:date" v="2019-12-27" />
		<tag k="ssr:gruppe" v="veg" />
		<tag k="ssr:hovedgruppe" v="infrastruktur" />
		<tag k="ssr:stedsnr" v="904715" />
		<tag k="ssr:type" v="adressenavn" />
	</node>
	<node lat="59.93443634337513" lon="12.008040845071328" id="-38264">
		<tag k="name" v="Lia" />
		<tag k="ssr:date" v="2019-12-27" />
		<tag k="ssr:gruppe" v="veg" />
		<tag k="ssr:hovedgruppe" v="infrastruktur" />
		<tag k="ssr:stedsnr" v="905725" />
		<tag k="ssr:type" v="adressenavn" />
	</node>
	<node lat="60.10574320040147" lon="12.141558786773743" id="-38265">
		<tag k="name" v="Hellerudvegen" />
		<tag k="ssr:date" v="2019-12-27" />
		<tag k="ssr:gruppe" v="veg" />
		<tag k="ssr:hovedgruppe" v="infrastruktur" />
		<tag k="ssr:stedsnr" v="907011" />
		<tag k="ssr:type" v="adressenavn" />
	</node>
	<node lat="60.08844030344645" lon="12.119971886023622" id="-38266">
		<tag k="name" v="Eidsmovegen" />
		<tag k="ssr:date" v="2019-12-27" />
		<tag k="ssr:gruppe" v="veg" />
		<tag k="ssr:hovedgruppe" v="infrastruktur" />
		<tag k="ssr:stedsnr" v="907054" />
		<tag k="ssr:type" v="adressenavn" />
	</node>
	<node lat="59.93829056142081" lon="12.217219021628235" id="-38302">
		<tag k="name" v="Vanga" />
		<tag k="ssr:date" v="2019-12-27" />
		<tag k="ssr:gruppe" v="veg" />
		<tag k="ssr:hovedgruppe" v="infrastruktur" />
		<tag k="ssr:stedsnr" v="950339" />
		<tag k="ssr:type" v="adressenavn" />
	</node>
	<node lat="59.946646946727206" lon="12.171277016816806" id="-38303">
		<tag k="name" v="Veibyvegen" />
		<tag k="ssr:date" v="2019-12-27" />
		<tag k="ssr:gruppe" v="veg" />
		<tag k="ssr:hovedgruppe" v="infrastruktur" />
		<tag k="ssr:stedsnr" v="950249" />
		<tag k="ssr:type" v="adressenavn" />
	</node>
	<node lat="60.00539626345387" lon="12.079215070821462" id="-38304">
		<tag k="name" v="Fjellvegen" />
		<tag k="ssr:date" v="2019-12-27" />
		<tag k="ssr:gruppe" v="veg" />
		<tag k="ssr:hovedgruppe" v="infrastruktur" />
		<tag k="ssr:stedsnr" v="950640" />
		<tag k="ssr:type" v="adressenavn" />
	</node>
	<node lat="59.92574624888977" lon="11.9920046403624" id="-38355">
		<tag k="name" v="Helgesjøvegen" />
		<tag k="ssr:date" v="2019-12-27" />
		<tag k="ssr:gruppe" v="veg" />
		<tag k="ssr:hovedgruppe" v="infrastruktur" />
		<tag k="ssr:stedsnr" v="965699" />
		<tag k="ssr:type" v="adressenavn" />
	</node>
	<node lat="59.92936940586279" lon="12.212884159732473" id="-38356">
		<tag k="name" v="Gaustadsætervegen" />
		<tag k="ssr:date" v="2019-12-27" />
		<tag k="ssr:gruppe" v="veg" />
		<tag k="ssr:hovedgruppe" v="infrastruktur" />
		<tag k="ssr:stedsnr" v="967287" />
		<tag k="ssr:type" v="adressenavn" />
	</node>
	<node lat="59.99209524746248" lon="12.192976703670766" id="-38357">
		<tag k="name" v="Jansrudvegen" />
		<tag k="ssr:date" v="2019-12-27" />
		<tag k="ssr:gruppe" v="veg" />
		<tag k="ssr:hovedgruppe" v="infrastruktur" />
		<tag k="ssr:stedsnr" v="968418" />
		<tag k="ssr:type" v="adressenavn" />
	</node>
	<node lat="59.96812204454236" lon="12.223199083194586" id="-38360">
		<tag k="name" v="Nevjen" />
		<tag k="old_name" v="Stormyrvegen" />
		<tag k="ssr:date" v="2019-12-27" />
		<tag k="ssr:gruppe" v="veg" />
		<tag k="ssr:hovedgruppe" v="infrastruktur" />
		<tag k="ssr:stedsnr" v="978528" />
		<tag k="ssr:type" v="adressenavn" />
	</node>
	<node lat="60.02915827940637" lon="12.124384681759329" id="-38416">
		<tag k="name" v="Lunderbybakken" />
		<tag k="ssr:date" v="2019-12-27" />
		<tag k="ssr:gruppe" v="veg" />
		<tag k="ssr:hovedgruppe" v="infrastruktur" />
		<tag k="ssr:stedsnr" v="41351" />
		<tag k="ssr:type" v="adressenavn" />
	</node>
	<node lat="59.93630956060105" lon="11.991997638038562" id="-38508">
		<tag k="name" v="Mobekkvegen" />
		<tag k="ssr:date" v="2019-12-27" />
		<tag k="ssr:gruppe" v="veg" />
		<tag k="ssr:hovedgruppe" v="infrastruktur" />
		<tag k="ssr:stedsnr" v="55240" />
		<tag k="ssr:type" v="adressenavn" />
	</node>
	<node lat="60.007968448452054" lon="12.225054123262403" id="-38509">
		<tag k="name" v="Veksarvegen" />
		<tag k="ssr:date" v="2019-12-27" />
		<tag k="ssr:gruppe" v="veg" />
		<tag k="ssr:hovedgruppe" v="infrastruktur" />
		<tag k="ssr:stedsnr" v="57396" />
		<tag k="ssr:type" v="adressenavn" />
	</node>
	<node lat="59.98836930916449" lon="12.171383863148808" id="-38511">
		<tag k="name" v="Høgåsvegen" />
		<tag k="ssr:date" v="2019-12-27" />
		<tag k="ssr:gruppe" v="veg" />
		<tag k="ssr:hovedgruppe" v="infrastruktur" />
		<tag k="ssr:stedsnr" v="59438" />
		<tag k="ssr:type" v="adressenavn" />
	</node>
	<node lat="60.02813055166999" lon="12.06528055954054" id="-38554">
		<tag k="name" v="Eidskog" />
		<tag k="ssr:date" v="2019-12-27" />
		<tag k="ssr:gruppe" v="terrengområder" />
		<tag k="ssr:hovedgruppe" v="terreng" />
		<tag k="ssr:stedsnr" v="89788" />
		<tag k="ssr:type" v="landskapsområde" />
	</node>
	<node lat="59.97936690077686" lon="12.337303385960139" id="-38557">
		<tag k="name" v="Klettåsvegen" />
		<tag k="ssr:date" v="2019-12-27" />
		<tag k="ssr:gruppe" v="veg" />
		<tag k="ssr:hovedgruppe" v="infrastruktur" />
		<tag k="ssr:stedsnr" v="101044" />
		<tag k="ssr:type" v="adressenavn" />
	</node>
	<node lat="59.91220389888309" lon="11.98436511686807" id="-38629">
		<tag k="name" v="Klanderudvegen" />
		<tag k="ssr:date" v="2019-12-27" />
		<tag k="ssr:gruppe" v="veg" />
		<tag k="ssr:hovedgruppe" v="infrastruktur" />
		<tag k="ssr:stedsnr" v="116255" />
		<tag k="ssr:type" v="adressenavn" />
	</node>
	<node lat="59.93137916605964" lon="11.991137971757281" id="-38630">
		<tag k="name" v="Harstadgutua" />
		<tag k="ssr:date" v="2019-12-27" />
		<tag k="ssr:gruppe" v="veg" />
		<tag k="ssr:hovedgruppe" v="infrastruktur" />
		<tag k="ssr:stedsnr" v="116699" />
		<tag k="ssr:type" v="adressenavn" />
	</node>
	<node lat="59.95152886749625" lon="12.011771240423593" id="-38631">
		<tag k="name" v="Bakken" />
		<tag k="ssr:date" v="2019-12-27" />
		<tag k="ssr:gruppe" v="veg" />
		<tag k="ssr:hovedgruppe" v="infrastruktur" />
		<tag k="ssr:stedsnr" v="116710" />
		<tag k="ssr:type" v="adressenavn" />
	</node>
	<node lat="59.954274504132705" lon="11.938564776262707" id="-38632">
		<tag k="name" v="Harstadsætervegen" />
		<tag k="ssr:date" v="2019-12-27" />
		<tag k="ssr:gruppe" v="veg" />
		<tag k="ssr:hovedgruppe" v="infrastruktur" />
		<tag k="ssr:stedsnr" v="118534" />
		<tag k="ssr:type" v="adressenavn" />
	</node>
	<node lat="60.10563738111278" lon="12.221950681907352" id="-38633">
		<tag k="name" v="Holsætervegen" />
		<tag k="ssr:date" v="2019-12-27" />
		<tag k="ssr:gruppe" v="veg" />
		<tag k="ssr:hovedgruppe" v="infrastruktur" />
		<tag k="ssr:stedsnr" v="119445" />
		<tag k="ssr:type" v="adressenavn" />
	</node>
	<node lat="59.9343677807946" lon="12.16564710115544" id="-38680">
		<tag k="name" v="Nordalsvegen" />
		<tag k="ssr:date" v="2019-12-27" />
		<tag k="ssr:gruppe" v="veg" />
		<tag k="ssr:hovedgruppe" v="infrastruktur" />
		<tag k="ssr:stedsnr" v="161337" />
		<tag k="ssr:type" v="adressenavn" />
	</node>
	<node lat="60.03771358896883" lon="12.124215206704706" id="-38681">
		<tag k="name" v="Drognesvegen" />
		<tag k="ssr:date" v="2019-12-27" />
		<tag k="ssr:gruppe" v="veg" />
		<tag k="ssr:hovedgruppe" v="infrastruktur" />
		<tag k="ssr:stedsnr" v="162362" />
		<tag k="ssr:type" v="adressenavn" />
	</node>
	<node lat="59.9499354749966" lon="11.890491309002263" id="-38753">
		<tag k="name" v="Sandviksvegen" />
		<tag k="ssr:date" v="2019-12-27" />
		<tag k="ssr:gruppe" v="veg" />
		<tag k="ssr:hovedgruppe" v="infrastruktur" />
		<tag k="ssr:stedsnr" v="177744" />
		<tag k="ssr:type" v="adressenavn" />
	</node>
	<node lat="60.111934524530085" lon="12.11388893973102" id="-38754">
		<tag k="name" v="Nedre Drøserudveg" />
		<tag k="ssr:date" v="2019-12-27" />
		<tag k="ssr:gruppe" v="veg" />
		<tag k="ssr:hovedgruppe" v="infrastruktur" />
		<tag k="ssr:stedsnr" v="179016" />
		<tag k="ssr:type" v="adressenavn" />
	</node>
	<node lat="60.0683443286798" lon="12.157290566270188" id="-38755">
		<tag k="name" v="Langfossvegen" />
		<tag k="ssr:date" v="2019-12-27" />
		<tag k="ssr:gruppe" v="veg" />
		<tag k="ssr:hovedgruppe" v="infrastruktur" />
		<tag k="ssr:stedsnr" v="179053" />
		<tag k="ssr:type" v="adressenavn" />
	</node>
	<node lat="59.97203984808644" lon="12.062258439868177" id="-38807">
		<tag k="name" v="Bekkeligutua" />
		<tag k="ssr:date" v="2019-12-27" />
		<tag k="ssr:gruppe" v="veg" />
		<tag k="ssr:hovedgruppe" v="infrastruktur" />
		<tag k="ssr:stedsnr" v="222598" />
		<tag k="ssr:type" v="adressenavn" />
	</node>
	<node lat="60.06079356909446" lon="12.122712579023903" id="-38808">
		<tag k="name" v="Skrådalsvegen" />
		<tag k="ssr:date" v="2019-12-27" />
		<tag k="ssr:gruppe" v="veg" />
		<tag k="ssr:hovedgruppe" v="infrastruktur" />
		<tag k="ssr:stedsnr" v="223364" />
		<tag k="ssr:type" v="adressenavn" />
	</node>
	<node lat="59.95886119686232" lon="12.20221168474951" id="-38810">
		<tag k="name" v="Magnoråsen" />
		<tag k="ssr:date" v="2019-12-27" />
		<tag k="ssr:gruppe" v="veg" />
		<tag k="ssr:hovedgruppe" v="infrastruktur" />
		<tag k="ssr:stedsnr" v="224323" />
		<tag k="ssr:type" v="adressenavn" />
	</node>
	<node lat="59.95774876421388" lon="12.199212840488691" id="-38813">
		<tag k="name" v="Ånebyvegen" />
		<tag k="ssr:date" v="2019-12-27" />
		<tag k="ssr:gruppe" v="veg" />
		<tag k="ssr:hovedgruppe" v="infrastruktur" />
		<tag k="ssr:stedsnr" v="285321" />
		<tag k="ssr:type" v="adressenavn" />
	</node>
	<node lat="60.002946112862276" lon="11.91558452115468" id="-38875">
		<tag k="name" v="Fjellskogvegen" />
		<tag k="ssr:date" v="2019-12-27" />
		<tag k="ssr:gruppe" v="veg" />
		<tag k="ssr:hovedgruppe" v="infrastruktur" />
		<tag k="ssr:stedsnr" v="298684" />
		<tag k="ssr:type" v="adressenavn" />
	</node>
	<node lat="59.94669289721272" lon="11.992542590905305" id="-38876">
		<tag k="name" v="Øgardsvegen" />
		<tag k="ssr:date" v="2019-12-27" />
		<tag k="ssr:gruppe" v="veg" />
		<tag k="ssr:hovedgruppe" v="infrastruktur" />
		<tag k="ssr:stedsnr" v="298691" />
		<tag k="ssr:type" v="adressenavn" />
	</node>
	<node lat="59.935655786647956" lon="12.165168293807714" id="-38988">
		<tag k="name" v="Gjøslivegen" />
		<tag k="ssr:date" v="2019-12-27" />
		<tag k="ssr:gruppe" v="veg" />
		<tag k="ssr:hovedgruppe" v="infrastruktur" />
		<tag k="ssr:stedsnr" v="360292" />
		<tag k="ssr:type" v="adressenavn" />
	</node>
	<node lat="60.0738343731265" lon="12.151673862692315" id="-38991">
		<tag k="name" v="Gamle Bråtavegen" />
		<tag k="ssr:date" v="2019-12-27" />
		<tag k="ssr:gruppe" v="veg" />
		<tag k="ssr:hovedgruppe" v="infrastruktur" />
		<tag k="ssr:stedsnr" v="360727" />
		<tag k="ssr:type" v="adressenavn" />
	</node>
	<node lat="59.914425227270875" lon="12.04621137521395" id="-38992">
		<tag k="name" v="Svartvika" />
		<tag k="ssr:date" v="2019-12-27" />
		<tag k="ssr:gruppe" v="veg" />
		<tag k="ssr:hovedgruppe" v="infrastruktur" />
		<tag k="ssr:stedsnr" v="360732" />
		<tag k="ssr:type" v="adressenavn" />
	</node>
	<node lat="59.95043996275213" lon="12.19814989737575" id="-39034">
		<tag k="name" v="Gaustadvegen" />
		<tag k="ssr:date" v="2019-12-27" />
		<tag k="ssr:gruppe" v="veg" />
		<tag k="ssr:hovedgruppe" v="infrastruktur" />
		<tag k="ssr:stedsnr" v="403596" />
		<tag k="ssr:type" v="adressenavn" />
	</node>
	<node lat="59.98918263884151" lon="12.33690445709654" id="-39035">
		<tag k="name" v="Billavegen" />
		<tag k="ssr:date" v="2019-12-27" />
		<tag k="ssr:gruppe" v="veg" />
		<tag k="ssr:hovedgruppe" v="infrastruktur" />
		<tag k="ssr:stedsnr" v="404042" />
		<tag k="ssr:type" v="adressenavn" />
	</node>
	<node lat="59.94179237469046" lon="12.157488131780362" id="-39038">
		<tag k="name" v="Gjellaren" />
		<tag k="ssr:date" v="2019-12-27" />
		<tag k="ssr:gruppe" v="veg" />
		<tag k="ssr:hovedgruppe" v="infrastruktur" />
		<tag k="ssr:stedsnr" v="406338" />
		<tag k="ssr:type" v="adressenavn" />
	</node>
	<node lat="60.034682935379" lon="12.036940518140462" id="-39105">
		<tag k="name" v="Sandtjernlivegen" />
		<tag k="ssr:date" v="2019-12-27" />
		<tag k="ssr:gruppe" v="veg" />
		<tag k="ssr:hovedgruppe" v="infrastruktur" />
		<tag k="ssr:stedsnr" v="419745" />
		<tag k="ssr:type" v="adressenavn" />
	</node>
	<node lat="59.90757061785446" lon="12.16333197248747" id="-39107">
		<tag k="name" v="Lassefallet" />
		<tag k="ssr:date" v="2019-12-27" />
		<tag k="ssr:gruppe" v="veg" />
		<tag k="ssr:hovedgruppe" v="infrastruktur" />
		<tag k="ssr:stedsnr" v="422326" />
		<tag k="ssr:type" v="adressenavn" />
	</node>
	<node lat="60.067697513645236" lon="12.147869224051801" id="-39109">
		<tag k="name" v="Gusterudvegen" />
		<tag k="ssr:date" v="2019-12-27" />
		<tag k="ssr:gruppe" v="veg" />
		<tag k="ssr:hovedgruppe" v="infrastruktur" />
		<tag k="ssr:stedsnr" v="423462" />
		<tag k="ssr:type" v="adressenavn" />
	</node>
	<node lat="59.99647590363523" lon="12.309749439811974" id="-39148">
		<tag k="name" v="Vestheimvegen" />
		<tag k="ssr:date" v="2019-12-27" />
		<tag k="ssr:gruppe" v="veg" />
		<tag k="ssr:hovedgruppe" v="infrastruktur" />
		<tag k="ssr:stedsnr" v="525050" />
		<tag k="ssr:type" v="adressenavn" />
	</node>
	<node lat="59.96407914241738" lon="12.146463966517647" id="-39149">
		<tag k="name" v="Repsetvegen" />
		<tag k="ssr:date" v="2019-12-27" />
		<tag k="ssr:gruppe" v="veg" />
		<tag k="ssr:hovedgruppe" v="infrastruktur" />
		<tag k="ssr:stedsnr" v="525264" />
		<tag k="ssr:type" v="adressenavn" />
	</node>
	<node lat="60.00062252431859" lon="12.09075831504026" id="-39150">
		<tag k="name" v="Sørpebølvegen" />
		<tag k="ssr:date" v="2019-12-27" />
		<tag k="ssr:gruppe" v="veg" />
		<tag k="ssr:hovedgruppe" v="infrastruktur" />
		<tag k="ssr:stedsnr" v="525257" />
		<tag k="ssr:type" v="adressenavn" />
	</node>
	<node lat="59.984362629985206" lon="12.174599555293701" id="-39151">
		<tag k="name" v="Ilagsvegen" />
		<tag k="ssr:date" v="2019-12-27" />
		<tag k="ssr:gruppe" v="veg" />
		<tag k="ssr:hovedgruppe" v="infrastruktur" />
		<tag k="ssr:stedsnr" v="525357" />
		<tag k="ssr:type" v="adressenavn" />
	</node>
	<node lat="59.96163364589719" lon="12.141518849799152" id="-39152">
		<tag k="name" v="Mastadvegen" />
		<tag k="ssr:date" v="2019-12-27" />
		<tag k="ssr:gruppe" v="veg" />
		<tag k="ssr:hovedgruppe" v="infrastruktur" />
		<tag k="ssr:stedsnr" v="525634" />
		<tag k="ssr:type" v="adressenavn" />
	</node>
	<node lat="59.91273112142266" lon="11.867653355645905" id="-39203">
		<tag k="name" v="Bolfossvegen" />
		<tag k="ssr:date" v="2019-12-27" />
		<tag k="ssr:gruppe" v="veg" />
		<tag k="ssr:hovedgruppe" v="infrastruktur" />
		<tag k="ssr:stedsnr" v="541288" />
		<tag k="ssr:type" v="adressenavn" />
	</node>
	<node lat="59.98930670589024" lon="11.867822963399037" id="-39205">
		<tag k="name" v="Havsjømovegen" />
		<tag k="ssr:date" v="2019-12-27" />
		<tag k="ssr:gruppe" v="veg" />
		<tag k="ssr:hovedgruppe" v="infrastruktur" />
		<tag k="ssr:stedsnr" v="543678" />
		<tag k="ssr:type" v="adressenavn" />
	</node>
	<node lat="60.086484881452506" lon="12.153342702385373" id="-39206">
		<tag k="name" v="Øyungsvegen" />
		<tag k="ssr:date" v="2019-12-27" />
		<tag k="ssr:gruppe" v="veg" />
		<tag k="ssr:hovedgruppe" v="infrastruktur" />
		<tag k="ssr:stedsnr" v="543679" />
		<tag k="ssr:type" v="adressenavn" />
	</node>
	<node lat="59.97413394621231" lon="12.120193685548454" id="-39207">
		<tag k="name" v="Vestre Gaustadveg" />
		<tag k="ssr:date" v="2019-12-27" />
		<tag k="ssr:gruppe" v="veg" />
		<tag k="ssr:hovedgruppe" v="infrastruktur" />
		<tag k="ssr:stedsnr" v="544398" />
		<tag k="ssr:type" v="adressenavn" />
	</node>
	<node lat="59.92475410833762" lon="11.986139180309465" id="-39330">
		<tag k="name" v="Rambølsgutua" />
		<tag k="ssr:date" v="2019-12-27" />
		<tag k="ssr:gruppe" v="veg" />
		<tag k="ssr:hovedgruppe" v="infrastruktur" />
		<tag k="ssr:stedsnr" v="603662" />
		<tag k="ssr:type" v="adressenavn" />
	</node>
	<node lat="59.960458670303176" lon="12.04238944525328" id="-39379">
		<tag k="name" v="Stangnesvegen" />
		<tag k="ssr:date" v="2019-12-27" />
		<tag k="ssr:gruppe" v="veg" />
		<tag k="ssr:hovedgruppe" v="infrastruktur" />
		<tag k="ssr:stedsnr" v="646146" />
		<tag k="ssr:type" v="adressenavn" />
	</node>
	<node lat="59.986099003796504" lon="12.125639610032314" id="-39450">
		<tag k="name" v="Matrandvegen" />
		<tag k="ssr:date" v="2019-12-27" />
		<tag k="ssr:gruppe" v="veg" />
		<tag k="ssr:hovedgruppe" v="infrastruktur" />
		<tag k="ssr:stedsnr" v="664668" />
		<tag k="ssr:type" v="adressenavn" />
	</node>
	<node lat="59.937305810816866" lon="11.995371224468407" id="-39451">
		<tag k="name" v="Brustadvegen" />
		<tag k="ssr:date" v="2019-12-27" />
		<tag k="ssr:gruppe" v="veg" />
		<tag k="ssr:hovedgruppe" v="infrastruktur" />
		<tag k="ssr:stedsnr" v="664677" />
		<tag k="ssr:type" v="adressenavn" />
	</node>
	<node lat="59.98657096942857" lon="12.142881958980967" id="-39452">
		<tag k="name" v="Sæteråsen" />
		<tag k="ssr:date" v="2019-12-27" />
		<tag k="ssr:gruppe" v="veg" />
		<tag k="ssr:hovedgruppe" v="infrastruktur" />
		<tag k="ssr:stedsnr" v="665457" />
		<tag k="ssr:type" v="adressenavn" />
	</node>
	<node lat="59.972991035834205" lon="12.165784627027938" id="-39530">
		<tag k="name" v="Furufjellvegen" />
		<tag k="ssr:date" v="2019-12-27" />
		<tag k="ssr:gruppe" v="veg" />
		<tag k="ssr:hovedgruppe" v="infrastruktur" />
		<tag k="ssr:stedsnr" v="726453" />
		<tag k="ssr:type" v="adressenavn" />
	</node>
	<node lat="59.9851402210116" lon="12.172307438719496" id="-39531">
		<tag k="name" v="Billerudvegen" />
		<tag k="ssr:date" v="2019-12-27" />
		<tag k="ssr:gruppe" v="veg" />
		<tag k="ssr:hovedgruppe" v="infrastruktur" />
		<tag k="ssr:stedsnr" v="726454" />
		<tag k="ssr:type" v="adressenavn" />
	</node>
	<node lat="60.022509452224156" lon="12.097727842866606" id="-39573">
		<tag k="name" v="Skinnpungrudvegen" />
		<tag k="ssr:date" v="2019-12-27" />
		<tag k="ssr:gruppe" v="veg" />
		<tag k="ssr:hovedgruppe" v="infrastruktur" />
		<tag k="ssr:stedsnr" v="769336" />
		<tag k="ssr:type" v="adressenavn" />
	</node>
	<node lat="60.070116083386466" lon="12.236729161945881" id="-39640">
		<tag k="name" v="Paradisvegen" />
		<tag k="ssr:date" v="2019-12-27" />
		<tag k="ssr:gruppe" v="veg" />
		<tag k="ssr:hovedgruppe" v="infrastruktur" />
		<tag k="ssr:stedsnr" v="785730" />
		<tag k="ssr:type" v="adressenavn" />
	</node>
	<node lat="59.97375517436711" lon="12.156448425478112" id="-39642">
		<tag k="name" v="Lysmovegen" />
		<tag k="ssr:date" v="2019-12-27" />
		<tag k="ssr:gruppe" v="veg" />
		<tag k="ssr:hovedgruppe" v="infrastruktur" />
		<tag k="ssr:stedsnr" v="786433" />
		<tag k="ssr:type" v="adressenavn" />
	</node>
	<node lat="59.97297491719345" lon="12.126816579551653" id="-39643">
		<tag k="name" v="Refsette" />
		<tag k="ssr:date" v="2019-12-27" />
		<tag k="ssr:gruppe" v="veg" />
		<tag k="ssr:hovedgruppe" v="infrastruktur" />
		<tag k="ssr:stedsnr" v="786435" />
		<tag k="ssr:type" v="adressenavn" />
	</node>
	<node lat="59.90577586974354" lon="11.98510231920337" id="-39773">
		<tag k="name" v="Kulblikvegen" />
		<tag k="ssr:date" v="2019-12-27" />
		<tag k="ssr:gruppe" v="veg" />
		<tag k="ssr:hovedgruppe" v="infrastruktur" />
		<tag k="ssr:stedsnr" v="848592" />
		<tag k="ssr:type" v="adressenavn" />
	</node>
	<node lat="59.95148850740829" lon="12.010331875812891" id="-39839">
		<tag k="name" v="Vestlivegen" />
		<tag k="ssr:date" v="2019-12-27" />
		<tag k="ssr:gruppe" v="veg" />
		<tag k="ssr:hovedgruppe" v="infrastruktur" />
		<tag k="ssr:stedsnr" v="889593" />
		<tag k="ssr:type" v="adressenavn" />
	</node>
	<node lat="59.9598157336693" lon="12.041146262241881" id="-39841">
		<tag k="name" v="Ingelsrudvegen" />
		<tag k="ssr:date" v="2019-12-27" />
		<tag k="ssr:gruppe" v="veg" />
		<tag k="ssr:hovedgruppe" v="infrastruktur" />
		<tag k="ssr:stedsnr" v="950176" />
		<tag k="ssr:type" v="adressenavn" />
	</node>
	<node lat="60.07525606014996" lon="12.022080269203416" id="-39842">
		<tag k="name" v="Åkrokvegen" />
		<tag k="ssr:date" v="2019-12-27" />
		<tag k="ssr:gruppe" v="veg" />
		<tag k="ssr:hovedgruppe" v="infrastruktur" />
		<tag k="ssr:stedsnr" v="950261" />
		<tag k="ssr:type" v="adressenavn" />
	</node>
	<node lat="59.94212099538941" lon="12.168696898976739" id="-39843">
		<tag k="name" v="Bogervegen" />
		<tag k="ssr:date" v="2019-12-27" />
		<tag k="ssr:gruppe" v="veg" />
		<tag k="ssr:hovedgruppe" v="infrastruktur" />
		<tag k="ssr:stedsnr" v="950337" />
		<tag k="ssr:type" v="adressenavn" />
	</node>
	<node lat="59.98627967568018" lon="12.150710183754336" id="-39844">
		<tag k="name" v="Elgåsen" />
		<tag k="ssr:date" v="2019-12-27" />
		<tag k="ssr:gruppe" v="veg" />
		<tag k="ssr:hovedgruppe" v="infrastruktur" />
		<tag k="ssr:stedsnr" v="950622" />
		<tag k="ssr:type" v="adressenavn" />
	</node>
	<node lat="59.89513144912231" lon="11.835839697046936" id="-39902">
		<tag k="name" v="Sandbakkvegen" />
		<tag k="ssr:date" v="2019-12-27" />
		<tag k="ssr:gruppe" v="veg" />
		<tag k="ssr:hovedgruppe" v="infrastruktur" />
		<tag k="ssr:stedsnr" v="965708" />
		<tag k="ssr:type" v="adressenavn" />
	</node>
	<node lat="59.93277858464309" lon="11.973067867879527" id="-39903">
		<tag k="name" v="Gamle Ljønervegen" />
		<tag k="ssr:date" v="2019-12-27" />
		<tag k="ssr:gruppe" v="veg" />
		<tag k="ssr:hovedgruppe" v="infrastruktur" />
		<tag k="ssr:stedsnr" v="967637" />
		<tag k="ssr:type" v="adressenavn" />
	</node>
	<node lat="60.055503244839045" lon="12.147446291978781" id="-39908">
		<tag k="name" v="Skjørberggrenda" />
		<tag k="old_name" v="Skjørbergvegen" />
		<tag k="ssr:date" v="2019-12-27" />
		<tag k="ssr:gruppe" v="veg" />
		<tag k="ssr:hovedgruppe" v="infrastruktur" />
		<tag k="ssr:stedsnr" v="978527" />
		<tag k="ssr:type" v="adressenavn" />
	</node>
	<node lat="59.9809531274738" lon="12.107791106295899" id="-39909">
		<tag k="name" v="Lokalbakken" />
		<tag k="ssr:date" v="2019-12-27" />
		<tag k="ssr:gruppe" v="veg" />
		<tag k="ssr:hovedgruppe" v="infrastruktur" />
		<tag k="ssr:stedsnr" v="1004488" />
		<tag k="ssr:type" v="adressenavn" />
	</node>
	<node lat="59.97852695996472" lon="12.138539615955947" id="-39910">
		<tag k="name" v="Lyngvegen" />
		<tag k="ssr:date" v="2019-12-27" />
		<tag k="ssr:gruppe" v="veg" />
		<tag k="ssr:hovedgruppe" v="infrastruktur" />
		<tag k="ssr:stedsnr" v="1004490" />
		<tag k="ssr:type" v="adressenavn" />
	</node>
	<node lat="59.980888998900824" lon="12.135260778793228" id="-39911">
		<tag k="name" v="Malmvegen" />
		<tag k="ssr:date" v="2019-12-27" />
		<tag k="ssr:gruppe" v="veg" />
		<tag k="ssr:hovedgruppe" v="infrastruktur" />
		<tag k="ssr:stedsnr" v="1004493" />
		<tag k="ssr:type" v="adressenavn" />
	</node>
	<node lat="59.991032562268984" lon="12.113263465508659" id="-39912">
		<tag k="name" v="Jernbanevegen" />
		<tag k="ssr:date" v="2019-12-27" />
		<tag k="ssr:gruppe" v="veg" />
		<tag k="ssr:hovedgruppe" v="infrastruktur" />
		<tag k="ssr:stedsnr" v="1004497" />
		<tag k="ssr:type" v="adressenavn" />
	</node>
	<node lat="59.97818956544767" lon="12.140383039965506" id="-39913">
		<tag k="name" v="Kaldalen" />
		<tag k="ssr:date" v="2019-12-27" />
		<tag k="ssr:gruppe" v="veg" />
		<tag k="ssr:hovedgruppe" v="infrastruktur" />
		<tag k="ssr:stedsnr" v="1004500" />
		<tag k="ssr:type" v="adressenavn" />
	</node>
	<node lat="59.986120107893065" lon="12.127008686365826" id="-39915">
		<tag k="name" v="Hagebysvingen" />
		<tag k="ssr:date" v="2019-12-27" />
		<tag k="ssr:gruppe" v="veg" />
		<tag k="ssr:hovedgruppe" v="infrastruktur" />
		<tag k="ssr:stedsnr" v="1004508" />
		<tag k="ssr:type" v="adressenavn" />
	</node>
	<node lat="59.97943963950076" lon="12.137992875371802" id="-39916">
		<tag k="name" v="Enervegen" />
		<tag k="ssr:date" v="2019-12-27" />
		<tag k="ssr:gruppe" v="veg" />
		<tag k="ssr:hovedgruppe" v="infrastruktur" />
		<tag k="ssr:stedsnr" v="1004510" />
		<tag k="ssr:type" v="adressenavn" />
	</node>
	<node lat="59.97975706900837" lon="12.138618047729677" id="-39917">
		<tag k="name" v="Furuvegen" />
		<tag k="ssr:date" v="2019-12-27" />
		<tag k="ssr:gruppe" v="veg" />
		<tag k="ssr:hovedgruppe" v="infrastruktur" />
		<tag k="ssr:stedsnr" v="1004513" />
		<tag k="ssr:type" v="adressenavn" />
	</node>
	<node lat="59.977104051089064" lon="12.141044285597875" id="-39918">
		<tag k="name" v="Gamle kongeveg" />
		<tag k="ssr:date" v="2019-12-27" />
		<tag k="ssr:gruppe" v="veg" />
		<tag k="ssr:hovedgruppe" v="infrastruktur" />
		<tag k="ssr:stedsnr" v="1004515" />
		<tag k="ssr:type" v="adressenavn" />
	</node>
	<node lat="59.981554310588336" lon="12.13672905846499" id="-39919">
		<tag k="name" v="Granvegen" />
		<tag k="ssr:date" v="2019-12-27" />
		<tag k="ssr:gruppe" v="veg" />
		<tag k="ssr:hovedgruppe" v="infrastruktur" />
		<tag k="ssr:stedsnr" v="1004517" />
		<tag k="ssr:type" v="adressenavn" />
	</node>
	<node lat="59.98039640014109" lon="12.133885194217568" id="-39920">
		<tag k="name" v="Blåbærvegen" />
		<tag k="ssr:date" v="2019-12-27" />
		<tag k="ssr:gruppe" v="veg" />
		<tag k="ssr:hovedgruppe" v="infrastruktur" />
		<tag k="ssr:stedsnr" v="1004521" />
		<tag k="ssr:type" v="adressenavn" />
	</node>
	<node lat="59.986478202774066" lon="12.120325462220706" id="-39921">
		<tag k="name" v="Dalåsen" />
		<tag k="ssr:date" v="2019-12-27" />
		<tag k="ssr:gruppe" v="veg" />
		<tag k="ssr:hovedgruppe" v="infrastruktur" />
		<tag k="ssr:stedsnr" v="1004526" />
		<tag k="ssr:type" v="adressenavn" />
	</node>
	<node lat="59.98518241361784" lon="12.122360731528111" id="-39922">
		<tag k="name" v="Dr. Lunderbys veg" />
		<tag k="ssr:date" v="2019-12-27" />
		<tag k="ssr:gruppe" v="veg" />
		<tag k="ssr:hovedgruppe" v="infrastruktur" />
		<tag k="ssr:stedsnr" v="1004529" />
		<tag k="ssr:type" v="adressenavn" />
	</node>
	<node lat="59.98005398840346" lon="12.139142829847126" id="-39935">
		<tag k="name" v="Bjørkvegen" />
		<tag k="ssr:date" v="2019-12-27" />
		<tag k="ssr:gruppe" v="veg" />
		<tag k="ssr:hovedgruppe" v="infrastruktur" />
		<tag k="ssr:stedsnr" v="1004604" />
		<tag k="ssr:type" v="adressenavn" />
	</node>
	<node lat="59.9797040949341" lon="12.131626920067394" id="-39936">
		<tag k="name" v="Åsenvegen" />
		<tag k="ssr:date" v="2019-12-27" />
		<tag k="ssr:gruppe" v="veg" />
		<tag k="ssr:hovedgruppe" v="infrastruktur" />
		<tag k="ssr:stedsnr" v="1004607" />
		<tag k="ssr:type" v="adressenavn" />
	</node>
	<node lat="59.9783434229191" lon="12.14245834465733" id="-39937">
		<tag k="name" v="Aspvegen" />
		<tag k="ssr:date" v="2019-12-27" />
		<tag k="ssr:gruppe" v="veg" />
		<tag k="ssr:hovedgruppe" v="infrastruktur" />
		<tag k="ssr:stedsnr" v="1004608" />
		<tag k="ssr:type" v="adressenavn" />
	</node>
	<node lat="59.984577345987496" lon="12.122384591749514" id="-39938">
		<tag k="name" v="Vognmannsvegen" />
		<tag k="ssr:date" v="2019-12-27" />
		<tag k="ssr:gruppe" v="veg" />
		<tag k="ssr:hovedgruppe" v="infrastruktur" />
		<tag k="ssr:stedsnr" v="1004611" />
		<tag k="ssr:type" v="adressenavn" />
	</node>
	<node lat="59.985171907670704" lon="12.131856414628063" id="-39939">
		<tag k="name" v="Øvre tverrveg" />
		<tag k="ssr:date" v="2019-12-27" />
		<tag k="ssr:gruppe" v="veg" />
		<tag k="ssr:hovedgruppe" v="infrastruktur" />
		<tag k="ssr:stedsnr" v="1004612" />
		<tag k="ssr:type" v="adressenavn" />
	</node>
	<node lat="59.98823105483289" lon="12.124753589394643" id="-39940">
		<tag k="name" v="Skotterudberget" />
		<tag k="ssr:date" v="2019-12-27" />
		<tag k="ssr:gruppe" v="veg" />
		<tag k="ssr:hovedgruppe" v="infrastruktur" />
		<tag k="ssr:stedsnr" v="1004613" />
		<tag k="ssr:type" v="adressenavn" />
	</node>
	<node lat="59.978309281419676" lon="12.13811022641131" id="-39941">
		<tag k="name" v="Stubben" />
		<tag k="ssr:date" v="2019-12-27" />
		<tag k="ssr:gruppe" v="veg" />
		<tag k="ssr:hovedgruppe" v="infrastruktur" />
		<tag k="ssr:stedsnr" v="1004614" />
		<tag k="ssr:type" v="adressenavn" />
	</node>
	<node lat="59.97897368523957" lon="12.117580624283136" id="-39942">
		<tag k="name" v="Trandemsbakken" />
		<tag k="ssr:date" v="2019-12-27" />
		<tag k="ssr:gruppe" v="veg" />
		<tag k="ssr:hovedgruppe" v="infrastruktur" />
		<tag k="ssr:stedsnr" v="1004615" />
		<tag k="ssr:type" v="adressenavn" />
	</node>
	<node lat="59.980985598508155" lon="12.1045360351271" id="-39943">
		<tag k="name" v="Vestbyvegen" />
		<tag k="ssr:date" v="2019-12-27" />
		<tag k="ssr:gruppe" v="veg" />
		<tag k="ssr:hovedgruppe" v="infrastruktur" />
		<tag k="ssr:stedsnr" v="1004616" />
		<tag k="ssr:type" v="adressenavn" />
	</node>
	<node lat="59.981035364418034" lon="12.120456074894925" id="-39944">
		<tag k="name" v="Sagavegen" />
		<tag k="ssr:date" v="2019-12-27" />
		<tag k="ssr:gruppe" v="veg" />
		<tag k="ssr:hovedgruppe" v="infrastruktur" />
		<tag k="ssr:stedsnr" v="1004617" />
		<tag k="ssr:type" v="adressenavn" />
	</node>
	<node lat="59.97839141594332" lon="12.14347967751745" id="-39945">
		<tag k="name" v="Seljevegen" />
		<tag k="ssr:date" v="2019-12-27" />
		<tag k="ssr:gruppe" v="veg" />
		<tag k="ssr:hovedgruppe" v="infrastruktur" />
		<tag k="ssr:stedsnr" v="1004618" />
		<tag k="ssr:type" v="adressenavn" />
	</node>
	<node lat="59.97884380178233" lon="12.13917917236439" id="-39946">
		<tag k="name" v="Skogfaret" />
		<tag k="ssr:date" v="2019-12-27" />
		<tag k="ssr:gruppe" v="veg" />
		<tag k="ssr:hovedgruppe" v="infrastruktur" />
		<tag k="ssr:stedsnr" v="1004619" />
		<tag k="ssr:type" v="adressenavn" />
	</node>
	<node lat="59.984085887816136" lon="12.122418317930578" id="-39947">
		<tag k="name" v="Skolebakken" />
		<tag k="ssr:date" v="2019-12-27" />
		<tag k="ssr:gruppe" v="veg" />
		<tag k="ssr:hovedgruppe" v="infrastruktur" />
		<tag k="ssr:stedsnr" v="1004620" />
		<tag k="ssr:type" v="adressenavn" />
	</node>
	<node lat="59.976990003101236" lon="12.142494374465493" id="-39948">
		<tag k="name" v="Maurvegen" />
		<tag k="ssr:date" v="2019-12-27" />
		<tag k="ssr:gruppe" v="veg" />
		<tag k="ssr:hovedgruppe" v="infrastruktur" />
		<tag k="ssr:stedsnr" v="1004476" />
		<tag k="ssr:type" v="adressenavn" />
	</node>
	<node lat="59.980507301403414" lon="12.135889023681067" id="-39949">
		<tag k="name" v="Myrvegen" />
		<tag k="ssr:date" v="2019-12-27" />
		<tag k="ssr:gruppe" v="veg" />
		<tag k="ssr:hovedgruppe" v="infrastruktur" />
		<tag k="ssr:stedsnr" v="1004478" />
		<tag k="ssr:type" v="adressenavn" />
	</node>
	<node lat="59.98404804270042" lon="12.129846825988182" id="-39950">
		<tag k="name" v="Nedre tverrveg" />
		<tag k="ssr:date" v="2019-12-27" />
		<tag k="ssr:gruppe" v="veg" />
		<tag k="ssr:hovedgruppe" v="infrastruktur" />
		<tag k="ssr:stedsnr" v="1004480" />
		<tag k="ssr:type" v="adressenavn" />
	</node>
	<node lat="59.98618162827686" lon="12.12809721803639" id="-39951">
		<tag k="name" v="Nordstuvegen" />
		<tag k="ssr:date" v="2019-12-27" />
		<tag k="ssr:gruppe" v="veg" />
		<tag k="ssr:hovedgruppe" v="infrastruktur" />
		<tag k="ssr:stedsnr" v="1004482" />
		<tag k="ssr:type" v="adressenavn" />
	</node>
	<node lat="59.981313084024144" lon="12.136584945720394" id="-39952">
		<tag k="name" v="Konglevegen" />
		<tag k="ssr:date" v="2019-12-27" />
		<tag k="ssr:gruppe" v="veg" />
		<tag k="ssr:hovedgruppe" v="infrastruktur" />
		<tag k="ssr:stedsnr" v="1004484" />
		<tag k="ssr:type" v="adressenavn" />
	</node>
	<node lat="59.987073825976566" lon="12.12211752385622" id="-39953">
		<tag k="name" v="Boligvegen" />
		<tag k="ssr:date" v="2019-12-27" />
		<tag k="ssr:gruppe" v="veg" />
		<tag k="ssr:hovedgruppe" v="infrastruktur" />
		<tag k="ssr:stedsnr" v="1004538" />
		<tag k="ssr:type" v="adressenavn" />
	</node>
	<node lat="59.98632353633548" lon="12.129643033609563" id="-39954">
		<tag k="name" v="Nystuvegen" />
		<tag k="ssr:date" v="2019-12-27" />
		<tag k="ssr:gruppe" v="veg" />
		<tag k="ssr:hovedgruppe" v="infrastruktur" />
		<tag k="ssr:stedsnr" v="1004621" />
		<tag k="ssr:type" v="adressenavn" />
	</node>
	<node lat="59.98269649994991" lon="12.126926705237883" id="-39955">
		<tag k="name" v="Oberst Krebs veg" />
		<tag k="ssr:date" v="2019-12-27" />
		<tag k="ssr:gruppe" v="veg" />
		<tag k="ssr:hovedgruppe" v="infrastruktur" />
		<tag k="ssr:stedsnr" v="1004624" />
		<tag k="ssr:type" v="adressenavn" />
	</node>
	<node lat="59.95211146331504" lon="12.202266679552734" id="-39965">
		<tag k="name" v="Kurervegen" />
		<tag k="ssr:date" v="2019-12-27" />
		<tag k="ssr:gruppe" v="veg" />
		<tag k="ssr:hovedgruppe" v="infrastruktur" />
		<tag k="ssr:stedsnr" v="1005688" />
		<tag k="ssr:type" v="adressenavn" />
	</node>
	<node lat="59.95048735608896" lon="12.197538675985355" id="-39966">
		<tag k="name" v="Damfaret" />
		<tag k="ssr:date" v="2019-12-27" />
		<tag k="ssr:gruppe" v="veg" />
		<tag k="ssr:hovedgruppe" v="infrastruktur" />
		<tag k="ssr:stedsnr" v="1005692" />
		<tag k="ssr:type" v="adressenavn" />
	</node>
	<node lat="59.943810860589714" lon="12.195345596803577" id="-39967">
		<tag k="name" v="Ekornvegen" />
		<tag k="ssr:date" v="2019-12-27" />
		<tag k="ssr:gruppe" v="veg" />
		<tag k="ssr:hovedgruppe" v="infrastruktur" />
		<tag k="ssr:stedsnr" v="1005693" />
		<tag k="ssr:type" v="adressenavn" />
	</node>
	<node lat="59.95039622919536" lon="12.193136384681019" id="-39968">
		<tag k="name" v="Elvefaret" />
		<tag k="ssr:date" v="2019-12-27" />
		<tag k="ssr:gruppe" v="veg" />
		<tag k="ssr:hovedgruppe" v="infrastruktur" />
		<tag k="ssr:stedsnr" v="1005695" />
		<tag k="ssr:type" v="adressenavn" />
	</node>
	<node lat="59.950869018337514" lon="12.207617995691034" id="-39969">
		<tag k="name" v="Brennåsvegen" />
		<tag k="ssr:date" v="2019-12-27" />
		<tag k="ssr:gruppe" v="veg" />
		<tag k="ssr:hovedgruppe" v="infrastruktur" />
		<tag k="ssr:stedsnr" v="1005701" />
		<tag k="ssr:type" v="adressenavn" />
	</node>
	<node lat="59.92449333696574" lon="12.226290064587008" id="-39972">
		<tag k="name" v="Vilsbergvegen" />
		<tag k="ssr:date" v="2019-12-27" />
		<tag k="ssr:gruppe" v="veg" />
		<tag k="ssr:hovedgruppe" v="infrastruktur" />
		<tag k="ssr:stedsnr" v="1005652" />
		<tag k="ssr:type" v="adressenavn" />
	</node>
	<node lat="59.95034767149478" lon="12.189422621424663" id="-39973">
		<tag k="name" v="Wiktor Svans veg" />
		<tag k="ssr:date" v="2019-12-27" />
		<tag k="ssr:gruppe" v="veg" />
		<tag k="ssr:hovedgruppe" v="infrastruktur" />
		<tag k="ssr:stedsnr" v="1005654" />
		<tag k="ssr:type" v="adressenavn" />
	</node>
	<node lat="59.94891067468892" lon="12.196450302338363" id="-39974">
		<tag k="name" v="Tverrvegen" />
		<tag k="ssr:date" v="2019-12-27" />
		<tag k="ssr:gruppe" v="veg" />
		<tag k="ssr:hovedgruppe" v="infrastruktur" />
		<tag k="ssr:stedsnr" v="1005656" />
		<tag k="ssr:type" v="adressenavn" />
	</node>
	<node lat="59.93864688397622" lon="12.19595465615883" id="-39975">
		<tag k="name" v="Tømmertullen" />
		<tag k="ssr:date" v="2019-12-27" />
		<tag k="ssr:gruppe" v="veg" />
		<tag k="ssr:hovedgruppe" v="infrastruktur" />
		<tag k="ssr:stedsnr" v="1005657" />
		<tag k="ssr:type" v="adressenavn" />
	</node>
	<node lat="59.94857526865793" lon="12.195968166732264" id="-39976">
		<tag k="name" v="Villavegen" />
		<tag k="ssr:date" v="2019-12-27" />
		<tag k="ssr:gruppe" v="veg" />
		<tag k="ssr:hovedgruppe" v="infrastruktur" />
		<tag k="ssr:stedsnr" v="1005658" />
		<tag k="ssr:type" v="adressenavn" />
	</node>
	<node lat="59.94674142563695" lon="12.192849148807163" id="-39977">
		<tag k="name" v="Skogvegen" />
		<tag k="ssr:date" v="2019-12-27" />
		<tag k="ssr:gruppe" v="veg" />
		<tag k="ssr:hovedgruppe" v="infrastruktur" />
		<tag k="ssr:stedsnr" v="1005660" />
		<tag k="ssr:type" v="adressenavn" />
	</node>
	<node lat="59.95040302995052" lon="12.197680140386987" id="-39978">
		<tag k="name" v="Skolevegen" />
		<tag k="ssr:date" v="2019-12-27" />
		<tag k="ssr:gruppe" v="veg" />
		<tag k="ssr:hovedgruppe" v="infrastruktur" />
		<tag k="ssr:stedsnr" v="1005661" />
		<tag k="ssr:type" v="adressenavn" />
	</node>
	<node lat="59.94572009237088" lon="12.198106087867227" id="-39979">
		<tag k="name" v="Smievegen" />
		<tag k="ssr:date" v="2019-12-27" />
		<tag k="ssr:gruppe" v="veg" />
		<tag k="ssr:hovedgruppe" v="infrastruktur" />
		<tag k="ssr:stedsnr" v="1005662" />
		<tag k="ssr:type" v="adressenavn" />
	</node>
	<node lat="59.95025496925671" lon="12.190481745518456" id="-39980">
		<tag k="name" v="Snarvegen" />
		<tag k="ssr:date" v="2019-12-27" />
		<tag k="ssr:gruppe" v="veg" />
		<tag k="ssr:hovedgruppe" v="infrastruktur" />
		<tag k="ssr:stedsnr" v="1005663" />
		<tag k="ssr:type" v="adressenavn" />
	</node>
	<node lat="59.94240044044942" lon="12.196137322394213" id="-39981">
		<tag k="name" v="Movegen" />
		<tag k="ssr:date" v="2019-12-27" />
		<tag k="ssr:gruppe" v="veg" />
		<tag k="ssr:hovedgruppe" v="infrastruktur" />
		<tag k="ssr:stedsnr" v="1005664" />
		<tag k="ssr:type" v="adressenavn" />
	</node>
	<node lat="59.94931623294285" lon="12.196086462708259" id="-39982">
		<tag k="name" v="Parkvegen" />
		<tag k="ssr:date" v="2019-12-27" />
		<tag k="ssr:gruppe" v="veg" />
		<tag k="ssr:hovedgruppe" v="infrastruktur" />
		<tag k="ssr:stedsnr" v="1005667" />
		<tag k="ssr:type" v="adressenavn" />
	</node>
	<node lat="59.95069237136806" lon="12.208992405872301" id="-39983">
		<tag k="name" v="Roligvegen" />
		<tag k="ssr:date" v="2019-12-27" />
		<tag k="ssr:gruppe" v="veg" />
		<tag k="ssr:hovedgruppe" v="infrastruktur" />
		<tag k="ssr:stedsnr" v="1005670" />
		<tag k="ssr:type" v="adressenavn" />
	</node>
	<node lat="59.94613712431502" lon="12.192225075444814" id="-39984">
		<tag k="name" v="Kvistvegen" />
		<tag k="ssr:date" v="2019-12-27" />
		<tag k="ssr:gruppe" v="veg" />
		<tag k="ssr:hovedgruppe" v="infrastruktur" />
		<tag k="ssr:stedsnr" v="1005672" />
		<tag k="ssr:type" v="adressenavn" />
	</node>
	<node lat="59.94547814217738" lon="12.19752279128883" id="-39985">
		<tag k="name" v="Markvegen" />
		<tag k="ssr:date" v="2019-12-27" />
		<tag k="ssr:gruppe" v="veg" />
		<tag k="ssr:hovedgruppe" v="infrastruktur" />
		<tag k="ssr:stedsnr" v="1005674" />
		<tag k="ssr:type" v="adressenavn" />
	</node>
	<node lat="59.94993837007499" lon="12.19810448831195" id="-39986">
		<tag k="name" v="Mokalenga" />
		<tag k="ssr:date" v="2019-12-27" />
		<tag k="ssr:gruppe" v="veg" />
		<tag k="ssr:hovedgruppe" v="infrastruktur" />
		<tag k="ssr:stedsnr" v="1005677" />
		<tag k="ssr:type" v="adressenavn" />
	</node>
	<node lat="59.94678952209796" lon="12.193880290713585" id="-39987">
		<tag k="name" v="Mosevegen" />
		<tag k="ssr:date" v="2019-12-27" />
		<tag k="ssr:gruppe" v="veg" />
		<tag k="ssr:hovedgruppe" v="infrastruktur" />
		<tag k="ssr:stedsnr" v="1005679" />
		<tag k="ssr:type" v="adressenavn" />
	</node>
	<node lat="59.94809818322024" lon="12.192759434922314" id="-39988">
		<tag k="name" v="Høgsetervegen" />
		<tag k="ssr:date" v="2019-12-27" />
		<tag k="ssr:gruppe" v="veg" />
		<tag k="ssr:hovedgruppe" v="infrastruktur" />
		<tag k="ssr:stedsnr" v="1005683" />
		<tag k="ssr:type" v="adressenavn" />
	</node>
	<node lat="59.95003163506749" lon="12.198100205882527" id="-39989">
		<tag k="name" v="Kapellvegen" />
		<tag k="ssr:date" v="2019-12-27" />
		<tag k="ssr:gruppe" v="veg" />
		<tag k="ssr:hovedgruppe" v="infrastruktur" />
		<tag k="ssr:stedsnr" v="1005685" />
		<tag k="ssr:type" v="adressenavn" />
	</node>
</osm>
