<?xml version="1.0" encoding="UTF-8"?>
<osm version="0.6" generator="osmapis">
	<node lat="59.13670555249075" lon="9.368550005631299" id="-34559">
		<tag k="alt_name" v="Hoppetjern" />
		<tag k="name" v="Hoppetjenn" />
		<tag k="natural" v="water" />
		<tag k="ssr:stedsnr" v="1942" />
	</node>
	<node lat="59.16345833565721" lon="9.327838892598267" id="-34560">
		<tag k="alt_name" v="Trytetjern" />
		<tag k="name" v="Trytetjenn" />
		<tag k="natural" v="water" />
		<tag k="ssr:stedsnr" v="1977" />
	</node>
	<node lat="59.2104777750458" lon="9.74758056002391" id="-34562">
		<tag k="name" v="Mensvann" />
		<tag k="natural" v="water" />
		<tag k="ssr:stedsnr" v="1695" />
		<tag k="water" v="lake" />
	</node>
	<node lat="59.04697777607535" lon="9.421255550737685" id="-34566">
		<tag k="alt_name" v="Rørholtlangen" />
		<tag k="name" v="Langen" />
		<tag k="natural" v="water" />
		<tag k="ssr:stedsnr" v="1836" />
		<tag k="water" v="lake" />
	</node>
	<node lat="59.46001666783714" lon="9.489275002659662" id="-34569">
		<tag k="name" v="Sondalsvatn" />
		<tag k="natural" v="water" />
		<tag k="ssr:stedsnr" v="2007" />
	</node>
	<node lat="59.36821388710381" lon="9.52111667060255" id="-34573">
		<tag k="name" v="Stodalstjenn" />
		<tag k="natural" v="water" />
		<tag k="ssr:stedsnr" v="2802" />
	</node>
	<node lat="59.36165277411799" lon="9.409122227653897" id="-34574">
		<tag k="name" v="Løntjønn" />
		<tag k="natural" v="water" />
		<tag k="ssr:stedsnr" v="2813" />
	</node>
	<node lat="59.42001110912876" lon="9.513080561687664" id="-34576">
		<tag k="name" v="Besstulelva" />
		<tag k="ssr:stedsnr" v="2973" />
		<tag k="waterway" v="river" />
	</node>
	<node lat="59.20094444039156" lon="9.614094449042579" id="-34578">
		<tag k="name" v="Katteskjæret" />
		<tag k="place" v="islet" />
		<tag k="ssr:stedsnr" v="230267" />
	</node>
	<node lat="59.19664166798395" lon="9.614033334783999" id="-34579">
		<tag k="name" v="Måkeodden" />
		<tag k="natural" v="cape" />
		<tag k="ssr:stedsnr" v="231337" />
	</node>
	<node lat="59.4146722185227" lon="9.391416671143089" id="-34584">
		<tag k="name" v="Naretjønn" />
		<tag k="natural" v="water" />
		<tag k="ssr:stedsnr" v="21785" />
	</node>
	<node lat="59.14761111534697" lon="9.579402785553134" id="-34587">
		<tag k="name" v="Finndalsbekken" />
		<tag k="ssr:stedsnr" v="25872" />
		<tag k="waterway" v="stream" />
	</node>
	<node lat="59.20443611113726" lon="9.468163881935014" id="-34588">
		<tag k="name" v="Valstranda" />
		<tag k="natural" v="beach" />
		<tag k="ssr:stedsnr" v="26114" />
	</node>
	<node lat="59.11863610931124" lon="9.410249994247032" id="-34595">
		<tag k="name" v="Solumkilen" />
		<tag k="natural" v="water" />
		<tag k="ssr:stedsnr" v="26219" />
	</node>
	<node lat="59.208658333885936" lon="9.390177775329578" id="-34596">
		<tag k="name" v="Tomtjenn" />
		<tag k="natural" v="water" />
		<tag k="ssr:stedsnr" v="26304" />
	</node>
	<node lat="59.14980277554773" lon="9.495227784148618" id="-34598">
		<tag k="name" v="Lintjenn" />
		<tag k="natural" v="water" />
		<tag k="ssr:stedsnr" v="26393" />
	</node>
	<node lat="59.23830555345564" lon="9.681116665410663" id="-34601">
		<tag k="name" v="Smalvann" />
		<tag k="natural" v="water" />
		<tag k="ssr:stedsnr" v="26923" />
	</node>
	<node lat="59.12454167060823" lon="9.451816669455779" id="-34606">
		<tag k="name" v="Hauglandbekken" />
		<tag k="ssr:stedsnr" v="27224" />
		<tag k="waterway" v="stream" />
	</node>
	<node lat="59.06299478378522" lon="9.384828036793287" id="-34612">
		<tag k="name" v="Halvorstjennane" />
		<tag k="natural" v="water" />
		<tag k="ssr:stedsnr" v="28574" />
	</node>
	<node lat="59.08917777871172" lon="9.367380562752567" id="-34614">
		<tag k="name" v="Sunna" />
		<tag k="natural" v="strait" />
		<tag k="ssr:stedsnr" v="28711" />
	</node>
	<node lat="59.23844444407079" lon="9.497886114983638" id="-34615">
		<tag k="alt_name" v="Tvittingen, l" />
		<tag k="name" v="Lille Tvittingen" />
		<tag k="natural" v="water" />
		<tag k="ssr:stedsnr" v="28719" />
	</node>
	<node lat="59.10731666742174" lon="9.268733329665418" id="-34616">
		<tag k="name" v="Mjåvannsløken" />
		<tag k="ssr:stedsnr" v="28930" />
		<tag k="waterway" v="stream" />
	</node>
	<node lat="59.19260277957318" lon="9.333999991505786" id="-34627">
		<tag k="alt_name" v="Tveitstultjern" />
		<tag k="name" v="Tveitstultjenn" />
		<tag k="natural" v="water" />
		<tag k="ssr:stedsnr" v="62889" />
	</node>
	<node lat="59.20997778091714" lon="9.361136118059862" id="-34629">
		<tag k="name" v="Orsjø" />
		<tag k="natural" v="water" />
		<tag k="ssr:stedsnr" v="62914" />
	</node>
	<node lat="59.3087638879646" lon="9.322333331375178" id="-34642">
		<tag k="name" v="Brennelva" />
		<tag k="ssr:stedsnr" v="63765" />
		<tag k="waterway" v="river" />
	</node>
	<node lat="59.316927781006754" lon="9.547169448299785" id="-34643">
		<tag k="name" v="Haugmobekken" />
		<tag k="ssr:stedsnr" v="63768" />
		<tag k="waterway" v="stream" />
	</node>
	<node lat="59.169237051893745" lon="9.724402451216289" id="-34649">
		<tag k="name" v="Ormetjenn" />
		<tag k="natural" v="water" />
		<tag k="ssr:stedsnr" v="81907" />
	</node>
	<node lat="59.22686111211389" lon="9.533427785450163" id="-34660">
		<tag k="name" v="Åletjern" />
		<tag k="natural" v="water" />
		<tag k="ssr:stedsnr" v="244937" />
	</node>
	<node lat="59.144030554824575" lon="9.288169446528219" id="-34665">
		<tag k="alt_name" v="Haugtjerna, nedre" />
		<tag k="name" v="Nedre Haugtjenn" />
		<tag k="natural" v="water" />
		<tag k="ssr:stedsnr" v="244958" />
	</node>
	<node lat="59.38054166242852" lon="9.400722228365696" id="-34667">
		<tag k="name" v="Langvatn" />
		<tag k="natural" v="water" />
		<tag k="ssr:stedsnr" v="245916" />
	</node>
	<node lat="59.13457222146156" lon="9.401994451882869" id="-34672">
		<tag k="name" v="Hestetangen" />
		<tag k="natural" v="cape" />
		<tag k="ssr:stedsnr" v="86337" />
	</node>
	<node lat="59.21511944893372" lon="9.298855557050315" id="-34679">
		<tag k="name" v="Buringstjenn" />
		<tag k="natural" v="water" />
		<tag k="ssr:stedsnr" v="86807" />
		<tag k="water" v="pond" />
	</node>
	<node lat="59.429466664967975" lon="9.597563886090231" id="-34686">
		<tag k="name" v="Kroktjern" />
		<tag k="natural" v="water" />
		<tag k="ssr:stedsnr" v="245502" />
	</node>
	<node lat="59.22925555324078" lon="9.623305549349658" id="-34687">
		<tag k="name" v="Kjærrabekken" />
		<tag k="ssr:stedsnr" v="87174" />
		<tag k="waterway" v="stream" />
	</node>
	<node lat="59.21317499826323" lon="9.533925002261277" id="-34692">
		<tag k="name" v="Evja" />
		<tag k="natural" v="water" />
		<tag k="ssr:stedsnr" v="87625" />
		<tag k="water" v="lake" />
	</node>
	<node lat="59.28624167007417" lon="9.468675006512925" id="-34695">
		<tag k="name" v="Vardetjenn" />
		<tag k="natural" v="water" />
		<tag k="old_name" v="Vardetjørn" />
		<tag k="ssr:stedsnr" v="245681" />
	</node>
	<node lat="59.294858333914654" lon="9.521763885179457" id="-34704">
		<tag k="name" v="Sandåa" />
		<tag k="ssr:stedsnr" v="245786" />
		<tag k="waterway" v="stream" />
	</node>
	<node lat="59.30018333491799" lon="9.333211114769346" id="-34705">
		<tag k="name" v="Høgsetodden" />
		<tag k="natural" v="cape" />
		<tag k="ssr:stedsnr" v="245795" />
	</node>
	<node lat="59.32224722053484" lon="9.289586105021002" id="-34706">
		<tag k="name" v="Kjosvikbukta" />
		<tag k="natural" v="bay" />
		<tag k="ssr:stedsnr" v="245869" />
	</node>
	<node lat="59.445922224624844" lon="9.562177785324934" id="-34713">
		<tag k="name" v="Økteren" />
		<tag k="natural" v="water" />
		<tag k="ssr:stedsnr" v="245945" />
		<tag k="water" v="lake" />
	</node>
	<node lat="59.44204999939252" lon="9.40700555017361" id="-34714">
		<tag k="name" v="Steintjønn" />
		<tag k="natural" v="water" />
		<tag k="ssr:stedsnr" v="245957" />
	</node>
	<node lat="59.441202774127675" lon="9.499577772506258" id="-34715">
		<tag k="name" v="Åslivasselva" />
		<tag k="ssr:stedsnr" v="245963" />
		<tag k="waterway" v="stream" />
	</node>
	<node lat="59.08664722047796" lon="9.321805548001228" id="-34722">
		<tag k="name" v="Moltetjenn" />
		<tag k="natural" v="water" />
		<tag k="ssr:stedsnr" v="89871" />
	</node>
	<node lat="59.3179499981954" lon="9.444833328857849" id="-34738">
		<tag k="name" v="Persholbekken" />
		<tag k="ssr:stedsnr" v="123780" />
		<tag k="waterway" v="stream" />
	</node>
	<node lat="59.373547226224304" lon="9.493499997939725" id="-34743">
		<tag k="name" v="Belatjenn" />
		<tag k="natural" v="water" />
		<tag k="ssr:stedsnr" v="123811" />
	</node>
	<node lat="59.33320277696498" lon="9.3190000000481" id="-34745">
		<tag k="alt_name" v="Gaupetjern" />
		<tag k="name" v="Gaupetjenn" />
		<tag k="natural" v="water" />
		<tag k="ssr:stedsnr" v="123866" />
	</node>
	<node lat="59.245775000147226" lon="9.545847229767844" id="-34762">
		<tag k="name" v="Kvernhusbekken" />
		<tag k="ssr:stedsnr" v="147325" />
		<tag k="waterway" v="stream" />
	</node>
	<node lat="59.21279444712051" lon="9.533088883502474" id="-34769">
		<tag k="name" v="Tangen" />
		<tag k="natural" v="cape" />
		<tag k="ssr:stedsnr" v="147603" />
	</node>
	<node lat="59.10781110843553" lon="9.348588886430687" id="-34771">
		<tag k="name" v="Håvardstjenn" />
		<tag k="natural" v="water" />
		<tag k="ssr:stedsnr" v="147626" />
	</node>
	<node lat="59.16782777849308" lon="9.45367222954123" id="-34783">
		<tag k="name" v="Setertjenn" />
		<tag k="natural" v="water" />
		<tag k="ssr:stedsnr" v="147761" />
	</node>
	<node lat="59.177041665557645" lon="9.602263887986151" id="-34785">
		<tag k="name" v="Skogbekken" />
		<tag k="ssr:stedsnr" v="147924" />
		<tag k="waterway" v="stream" />
	</node>
	<node lat="59.14877499705489" lon="9.404388888545439" id="-34788">
		<tag k="name" v="Lurodden" />
		<tag k="natural" v="cape" />
		<tag k="ssr:stedsnr" v="148418" />
	</node>
	<node lat="59.07298889090738" lon="9.351850003108282" id="-34789">
		<tag k="name" v="Håvtjennane" />
		<tag k="natural" v="water" />
		<tag k="ssr:stedsnr" v="148560" />
	</node>
	<node lat="59.17483055463847" lon="9.699977777861836" id="-34794">
		<tag k="name" v="Langerødbekken" />
		<tag k="ssr:stedsnr" v="149773" />
		<tag k="waterway" v="stream" />
	</node>
	<node lat="59.112711107759964" lon="9.369291661231488" id="-34801">
		<tag k="alt_name" v="Igletjern" />
		<tag k="name" v="Igletjenn" />
		<tag k="natural" v="water" />
		<tag k="ssr:stedsnr" v="183809" />
	</node>
	<node lat="59.13671944092058" lon="9.406575000087667" id="-34803">
		<tag k="name" v="Kilevann" />
		<tag k="natural" v="water" />
		<tag k="ssr:stedsnr" v="183813" />
		<tag k="water" v="lake" />
	</node>
	<node lat="59.17863011706278" lon="9.477354164587124" id="-34806">
		<tag k="alt_name" v="Dammyr" />
		<tag k="name" v="Dammyrtjenn" />
		<tag k="natural" v="water" />
		<tag k="ssr:stedsnr" v="183987" />
	</node>
	<node lat="59.175125000840474" lon="9.344658341323113" id="-34807">
		<tag k="alt_name" v="Skiftestjern" />
		<tag k="name" v="Skiftetjenn" />
		<tag k="natural" v="water" />
		<tag k="ssr:stedsnr" v="183993" />
	</node>
	<node lat="59.29934722208278" lon="9.494411113070258" id="-34813">
		<tag k="name" v="Nisterudtjenn" />
		<tag k="natural" v="water" />
		<tag k="old_name" v="Nisterudtjørn" />
		<tag k="ssr:stedsnr" v="184789" />
	</node>
	<node lat="59.29693055213593" lon="9.398019443212787" id="-34814">
		<tag k="name" v="Igletjenn" />
		<tag k="natural" v="water" />
		<tag k="old_name" v="Igletjørn" />
		<tag k="ssr:stedsnr" v="184790" />
	</node>
	<node lat="59.45341666910357" lon="9.431108341495454" id="-34816">
		<tag k="name" v="Steinbruvatn" />
		<tag k="natural" v="water" />
		<tag k="ssr:stedsnr" v="184936" />
		<tag k="water" v="lake" />
	</node>
	<node lat="59.45248055612396" lon="9.468100005486416" id="-34818">
		<tag k="name" v="Eiangselva" />
		<tag k="ssr:stedsnr" v="184939" />
		<tag k="waterway" v="stream" />
	</node>
	<node lat="59.44558332971003" lon="9.530877774475908" id="-34819">
		<tag k="name" v="Besstultjenn" />
		<tag k="natural" v="water" />
		<tag k="ssr:stedsnr" v="184942" />
	</node>
	<node lat="59.28787221963325" lon="9.578724991458667" id="-34825">
		<tag k="name" v="Brynebekken" />
		<tag k="ssr:stedsnr" v="184697" />
		<tag k="waterway" v="stream" />
	</node>
	<node lat="59.35360277499515" lon="9.408600008207152" id="-34828">
		<tag k="name" v="Nedre Kjerringtjern" />
		<tag k="natural" v="water" />
		<tag k="ssr:stedsnr" v="184814" />
	</node>
	<node lat="59.326572219046184" lon="9.34818054940452" id="-34830">
		<tag k="alt_name" v="Dalstjern" />
		<tag k="name" v="Dalstjenn" />
		<tag k="natural" v="water" />
		<tag k="ssr:stedsnr" v="184840" />
	</node>
	<node lat="59.3706472184831" lon="9.397947216025186" id="-34837">
		<tag k="name" v="Gyristulelva" />
		<tag k="ssr:stedsnr" v="263784" />
		<tag k="waterway" v="river" />
	</node>
	<node lat="59.160261110700326" lon="9.70013056319114" id="-34843">
		<tag k="name" v="Ønnabekken" />
		<tag k="ssr:stedsnr" v="202908" />
		<tag k="waterway" v="stream" />
	</node>
	<node lat="59.226652778908615" lon="9.528280553710495" id="-34846">
		<tag k="name" v="Hesjebekken" />
		<tag k="ssr:stedsnr" v="268242" />
		<tag k="waterway" v="stream" />
	</node>
	<node lat="59.18988055962449" lon="9.384141674349259" id="-34848">
		<tag k="name" v="Svarttjenn" />
		<tag k="natural" v="water" />
		<tag k="ssr:stedsnr" v="268461" />
	</node>
	<node lat="59.10668888478651" lon="9.34271111499004" id="-34851">
		<tag k="name" v="Håvardstjennbekken" />
		<tag k="ssr:stedsnr" v="268642" />
		<tag k="waterway" v="stream" />
	</node>
	<node lat="59.215466670938476" lon="9.43327777078" id="-34853">
		<tag k="name" v="Melumbekken" />
		<tag k="ssr:stedsnr" v="207146" />
		<tag k="waterway" v="stream" />
	</node>
	<node lat="59.21218055606352" lon="9.328280550481823" id="-34856">
		<tag k="name" v="Blautebekk" />
		<tag k="ssr:stedsnr" v="268814" />
		<tag k="waterway" v="stream" />
	</node>
	<node lat="59.205094442366516" lon="9.485863885864278" id="-34860">
		<tag k="name" v="Haukenesbogen" />
		<tag k="natural" v="bay" />
		<tag k="ssr:stedsnr" v="208105" />
	</node>
	<node lat="59.20689166389797" lon="9.45104999230488" id="-34861">
		<tag k="name" v="Valsfjelltjenn" />
		<tag k="natural" v="water" />
		<tag k="ssr:stedsnr" v="208107" />
	</node>
	<node lat="59.24544166892853" lon="9.520405559887987" id="-34866">
		<tag k="name" v="Sæterbekken" />
		<tag k="ssr:stedsnr" v="208283" />
		<tag k="waterway" v="stream" />
	</node>
	<node lat="59.22147499607191" lon="9.532205563505343" id="-34870">
		<tag k="name" v="Søndre Trytetjenn" />
		<tag k="natural" v="water" />
		<tag k="ssr:stedsnr" v="208716" />
	</node>
	<node lat="59.317399999359566" lon="9.553633339554459" id="-34874">
		<tag k="name" v="Kvernhusfossen" />
		<tag k="ssr:stedsnr" v="208780" />
		<tag k="waterway" v="rapids" />
	</node>
	<node lat="59.06074444025078" lon="9.403644445349121" id="-34876">
		<tag k="name" v="Gryttjenn" />
		<tag k="natural" v="water" />
		<tag k="ssr:stedsnr" v="208944" />
	</node>
	<node lat="59.2091222209581" lon="9.376238883837559" id="-34885">
		<tag k="name" v="Trolldalstjenn" />
		<tag k="natural" v="water" />
		<tag k="ssr:stedsnr" v="269299" />
	</node>
	<node lat="59.08567222063713" lon="9.438102781595672" id="-34886">
		<tag k="name" v="Kjennkåstjenn" />
		<tag k="natural" v="water" />
		<tag k="ssr:stedsnr" v="210104" />
	</node>
	<node lat="59.082777777674096" lon="9.429538889487722" id="-34888">
		<tag k="name" v="Åslandsdammen" />
		<tag k="ssr:stedsnr" v="210120" />
		<tag k="waterway" v="dam" />
	</node>
	<node lat="59.139113892632714" lon="9.241875005406541" id="-34896">
		<tag k="name" v="Sagtjenn" />
		<tag k="natural" v="water" />
		<tag k="ssr:stedsnr" v="211535" />
		<tag k="water" v="pond" />
	</node>
	<node lat="59.130880558077166" lon="9.305497227086224" id="-34898">
		<tag k="name" v="Dauhaugtjenn" />
		<tag k="natural" v="water" />
		<tag k="ssr:stedsnr" v="211586" />
	</node>
	<node lat="59.13956111332988" lon="9.289130559618082" id="-34899">
		<tag k="name" v="Tvitindtjenn" />
		<tag k="natural" v="water" />
		<tag k="ssr:stedsnr" v="211591" />
	</node>
	<node lat="59.14086666545109" lon="9.40090554689592" id="-34903">
		<tag k="name" v="Bjørnskåsodden" />
		<tag k="natural" v="cape" />
		<tag k="ssr:stedsnr" v="270399" />
	</node>
	<node lat="59.24678333075631" lon="9.429202783068943" id="-34904">
		<tag k="name" v="Kjempeholmen" />
		<tag k="place" v="islet" />
		<tag k="ssr:stedsnr" v="269576" />
	</node>
	<node lat="59.072486113489234" lon="9.406241666325744" id="-34912">
		<tag k="name" v="Kåsaosen" />
		<tag k="natural" v="bay" />
		<tag k="ssr:stedsnr" v="269955" />
	</node>
	<node lat="59.16508611005212" lon="9.719133337546312" id="-34920">
		<tag k="name" v="Ramsåstjenna" />
		<tag k="natural" v="water" />
		<tag k="ssr:stedsnr" v="271541" />
	</node>
	<node lat="59.081850002830606" lon="9.372386104361805" id="-34921">
		<tag k="name" v="Buktetjenn" />
		<tag k="natural" v="water" />
		<tag k="ssr:stedsnr" v="271635" />
		<tag k="water" v="lake" />
	</node>
	<node lat="59.18747499966371" lon="9.703780553687457" id="-34922">
		<tag k="name" v="Svarttangtjenna" />
		<tag k="natural" v="water" />
		<tag k="ssr:stedsnr" v="271641" />
		<tag k="water" v="pond" />
	</node>
	<node lat="59.094250002788776" lon="9.35909721515411" id="-34927">
		<tag k="name" v="Lille Hestnes" />
		<tag k="place" v="island" />
		<tag k="ssr:stedsnr" v="271742" />
	</node>
	<node lat="59.16358611122414" lon="9.642616668016082" id="-34929">
		<tag k="name" v="Borgestadholmen" />
		<tag k="place" v="islet" />
		<tag k="ssr:stedsnr" v="271878" />
	</node>
	<node lat="59.13984166323246" lon="9.520694449664077" id="-34945">
		<tag k="name" v="Eltveitbekken" />
		<tag k="ssr:stedsnr" v="450536" />
		<tag k="waterway" v="stream" />
	</node>
	<node lat="59.28077499907712" lon="9.417763885401575" id="-34964">
		<tag k="name" v="Harafjellmyr" />
		<tag k="natural" v="water" />
		<tag k="ssr:stedsnr" v="451978" />
	</node>
	<node lat="59.05726666295133" lon="9.393677786433333" id="-34967">
		<tag k="name" v="Svarttjenn" />
		<tag k="natural" v="water" />
		<tag k="ssr:stedsnr" v="451943" />
	</node>
	<node lat="59.10540833294811" lon="9.453158326800134" id="-34972">
		<tag k="name" v="Svarttjenn" />
		<tag k="natural" v="water" />
		<tag k="ssr:stedsnr" v="452056" />
		<tag k="water" v="pond" />
	</node>
	<node lat="59.07668611446235" lon="9.331252773165392" id="-34976">
		<tag k="name" v="Håvannet" />
		<tag k="natural" v="water" />
		<tag k="ssr:stedsnr" v="244875" />
		<tag k="water" v="lake" />
	</node>
	<node lat="59.45556111320334" lon="9.571305563355924" id="-34977">
		<tag k="name" v="Dugurdstjenn" />
		<tag k="natural" v="water" />
		<tag k="ssr:stedsnr" v="245008" />
	</node>
	<node lat="59.21151666582762" lon="9.476777770312449" id="-34978">
		<tag k="name" v="Kjeøya" />
		<tag k="place" v="island" />
		<tag k="ssr:stedsnr" v="244928" />
	</node>
	<node lat="59.160155553683275" lon="9.243641669092547" id="-34979">
		<tag k="alt_name" v="Børten, store" />
		<tag k="name" v="Børten" />
		<tag k="natural" v="water" />
		<tag k="ssr:stedsnr" v="244986" />
		<tag k="water" v="lake" />
	</node>
	<node lat="59.16753055741771" lon="9.295324999636133" id="-34981">
		<tag k="name" v="Grasdalsvannet" />
		<tag k="natural" v="water" />
		<tag k="ssr:stedsnr" v="244991" />
		<tag k="water" v="lake" />
	</node>
	<node lat="59.26140555882675" lon="9.423838888453458" id="-34982">
		<tag k="name" v="Ålroen" />
		<tag k="natural" v="bay" />
		<tag k="ssr:stedsnr" v="245604" />
	</node>
	<node lat="59.249527774673496" lon="9.473702770672691" id="-34985">
		<tag k="name" v="Langetjenn" />
		<tag k="natural" v="water" />
		<tag k="old_name" v="Langetjørn" />
		<tag k="ssr:stedsnr" v="245645" />
	</node>
	<node lat="59.27593333399888" lon="9.43503611758702" id="-34992">
		<tag k="name" v="Kvernhusbekken" />
		<tag k="ssr:stedsnr" v="245714" />
		<tag k="waterway" v="stream" />
	</node>
	<node lat="59.321313887662136" lon="9.512611115373263" id="-34996">
		<tag k="name" v="Lindalselva" />
		<tag k="ssr:stedsnr" v="245726" />
		<tag k="waterway" v="river" />
	</node>
	<node lat="59.41605277704282" lon="9.453155555177192" id="-34999">
		<tag k="name" v="Håkastultjønn" />
		<tag k="natural" v="water" />
		<tag k="ssr:stedsnr" v="245884" />
	</node>
	<node lat="59.428519442818704" lon="9.431466672771064" id="-35002">
		<tag k="name" v="Grantjønn" />
		<tag k="natural" v="water" />
		<tag k="ssr:stedsnr" v="245975" />
	</node>
	<node lat="59.07443333415159" lon="9.401783338483035" id="-35007">
		<tag k="name" v="Sandtangen" />
		<tag k="natural" v="cape" />
		<tag k="ssr:stedsnr" v="453089" />
	</node>
	<node lat="59.0956833307722" lon="9.285674991942791" id="-35015">
		<tag k="name" v="Småtjennane" />
		<tag k="natural" v="water" />
		<tag k="ssr:stedsnr" v="453831" />
	</node>
	<node lat="59.1137972227855" lon="9.300186114633178" id="-35017">
		<tag k="name" v="Gibuputt" />
		<tag k="natural" v="water" />
		<tag k="ssr:stedsnr" v="453927" />
		<tag k="water" v="pond" />
	</node>
	<node lat="59.10260278154576" lon="9.319122227704009" id="-35018">
		<tag k="name" v="Gibuelva" />
		<tag k="ssr:stedsnr" v="453928" />
		<tag k="waterway" v="river" />
	</node>
	<node lat="59.149383332639225" lon="9.257074996754126" id="-35020">
		<tag k="name" v="Høydalselva" />
		<tag k="ssr:stedsnr" v="454191" />
		<tag k="waterway" v="river" />
	</node>
	<node lat="59.18573611057092" lon="9.681649994380326" id="-35023">
		<tag k="name" v="Grønnerødbekken" />
		<tag k="ssr:stedsnr" v="454600" />
		<tag k="waterway" v="stream" />
	</node>
	<node lat="59.19621111537191" lon="9.774130562665535" id="-35028">
		<tag k="name" v="Gorrtjenn" />
		<tag k="natural" v="water" />
		<tag k="ssr:stedsnr" v="263989" />
	</node>
	<node lat="59.213016666815854" lon="9.507638889105488" id="-35037">
		<tag k="name" v="Omdalsbekken" />
		<tag k="ssr:stedsnr" v="268626" />
		<tag k="waterway" v="stream" />
	</node>
	<node lat="59.19680555752187" lon="9.511411117520574" id="-35041">
		<tag k="name" v="Steinsvika" />
		<tag k="natural" v="water" />
		<tag k="ssr:stedsnr" v="268593" />
	</node>
	<node lat="59.2104916680348" lon="9.386275004839577" id="-35053">
		<tag k="name" v="Siljantjenn" />
		<tag k="natural" v="water" />
		<tag k="ssr:stedsnr" v="269303" />
	</node>
	<node lat="59.208377777879406" lon="9.350008340322205" id="-35054">
		<tag k="name" v="Grisebergtjenn" />
		<tag k="natural" v="water" />
		<tag k="ssr:stedsnr" v="269304" />
	</node>
	<node lat="59.249936110918476" lon="9.431227783230794" id="-35057">
		<tag k="name" v="Langodden" />
		<tag k="natural" v="cape" />
		<tag k="ssr:stedsnr" v="269573" />
	</node>
	<node lat="59.28478889116986" lon="9.415236118227257" id="-35063">
		<tag k="name" v="Kringletjenn" />
		<tag k="natural" v="water" />
		<tag k="ssr:stedsnr" v="269979" />
	</node>
	<node lat="59.09419167086337" lon="9.403169442802493" id="-35064">
		<tag k="name" v="Lauvsmyrbekken" />
		<tag k="ssr:stedsnr" v="270107" />
		<tag k="waterway" v="stream" />
	</node>
	<node lat="59.14929166568625" lon="9.428855559620976" id="-35067">
		<tag k="name" v="Nordbukta" />
		<tag k="natural" v="water" />
		<tag k="ssr:stedsnr" v="270429" />
	</node>
	<node lat="59.104444443538426" lon="9.28208054717096" id="-35079">
		<tag k="name" v="Lomtjenn" />
		<tag k="natural" v="water" />
		<tag k="ssr:stedsnr" v="271937" />
	</node>
	<node lat="59.11056388831118" lon="9.299383326169309" id="-35080">
		<tag k="name" v="Hulka" />
		<tag k="natural" v="water" />
		<tag k="ssr:stedsnr" v="271943" />
	</node>
	<node lat="59.28945833287086" lon="9.614836115389092" id="-35087">
		<tag k="name" v="Smaltjenn" />
		<tag k="natural" v="water" />
		<tag k="ssr:stedsnr" v="305530" />
	</node>
	<node lat="59.26055277421403" lon="9.431955554677602" id="-35090">
		<tag k="name" v="Ålrobekken" />
		<tag k="ssr:stedsnr" v="305667" />
		<tag k="waterway" v="stream" />
	</node>
	<node lat="59.295761112516125" lon="9.431799997853947" id="-35095">
		<tag k="name" v="Søndre Elgtjenn" />
		<tag k="natural" v="water" />
		<tag k="ssr:stedsnr" v="305818" />
	</node>
	<node lat="59.26452777389913" lon="9.520336114569185" id="-35097">
		<tag k="name" v="Hyttebekken" />
		<tag k="ssr:stedsnr" v="305703" />
		<tag k="waterway" v="stream" />
	</node>
	<node lat="59.09490000369706" lon="9.298455554241855" id="-35099">
		<tag k="name" v="Søndre Tjærevanna" />
		<tag k="natural" v="water" />
		<tag k="ssr:stedsnr" v="305769" />
	</node>
	<node lat="59.40091111037373" lon="9.449708334271055" id="-35107">
		<tag k="alt_name" v="Langeløk, austre" />
		<tag k="name" v="Austre Langeløk" />
		<tag k="natural" v="water" />
		<tag k="ssr:stedsnr" v="306905" />
	</node>
	<node lat="59.44746110726762" lon="9.49467777179499" id="-35108">
		<tag k="name" v="Albogatjønn" />
		<tag k="natural" v="water" />
		<tag k="ssr:stedsnr" v="306954" />
	</node>
	<node lat="59.40615881767332" lon="9.447562736864702" id="-35110">
		<tag k="name" v="Uvassvatna" />
		<tag k="natural" v="water" />
		<tag k="ssr:stedsnr" v="306876" />
	</node>
	<node lat="59.16300278051969" lon="9.398972217718878" id="-35121">
		<tag k="name" v="Gåsoddtjenn" />
		<tag k="natural" v="water" />
		<tag k="ssr:stedsnr" v="329814" />
	</node>
	<node lat="59.288136114991715" lon="9.627405551707051" id="-35125">
		<tag k="name" v="Fiskebekk" />
		<tag k="ssr:stedsnr" v="329722" />
		<tag k="waterway" v="stream" />
	</node>
	<node lat="59.16088055288234" lon="9.365341663784532" id="-35132">
		<tag k="name" v="Lilleøya" />
		<tag k="place" v="islet" />
		<tag k="ssr:stedsnr" v="330773" />
	</node>
	<node lat="59.18536111489962" lon="9.478533341629602" id="-35133">
		<tag k="name" v="Ådnadammen" />
		<tag k="natural" v="water" />
		<tag k="ssr:stedsnr" v="330951" />
	</node>
	<node lat="59.15319167039216" lon="9.420602780256955" id="-35138">
		<tag k="name" v="Skurvehetta" />
		<tag k="place" v="islet" />
		<tag k="ssr:stedsnr" v="331406" />
	</node>
	<node lat="59.20313055513309" lon="9.609652777259175" id="-35139">
		<tag k="alt_name" v="Damfossen" />
		<tag k="name" v="Damfoss" />
		<tag k="natural" v="waterfall" />
		<tag k="ssr:stedsnr" v="331408" />
	</node>
	<node lat="59.075897224764965" lon="9.368744448829812" id="-35142">
		<tag k="name" v="Eriksøy" />
		<tag k="place" v="islet" />
		<tag k="ssr:stedsnr" v="331608" />
	</node>
	<node lat="59.18881666684291" lon="9.712472227870565" id="-35143">
		<tag k="name" v="Langerødbekken" />
		<tag k="ssr:stedsnr" v="332025" />
		<tag k="waterway" v="stream" />
	</node>
	<node lat="59.149855554199426" lon="9.290624995740174" id="-35152">
		<tag k="name" v="Lille Barlindtjenn" />
		<tag k="natural" v="water" />
		<tag k="ssr:stedsnr" v="332898" />
		<tag k="water" v="pond" />
	</node>
	<node lat="59.18548476960858" lon="9.625099954922302" id="-35158">
		<tag k="name" v="Eikornrødbåen" />
		<tag k="place" v="locality" />
		<tag k="seamark:type" v="rock" />
		<tag k="ssr:stedsnr" v="473454" />
	</node>
	<node lat="59.23492499974107" lon="9.505163888504535" id="-35168">
		<tag k="alt_name" v="Tvittingen, store" />
		<tag k="name" v="Tvittingen" />
		<tag k="natural" v="water" />
		<tag k="ssr:stedsnr" v="365053" />
	</node>
	<node lat="59.28498333590128" lon="9.61029722896074" id="-35176">
		<tag k="name" v="Svarttjenn" />
		<tag k="natural" v="water" />
		<tag k="ssr:stedsnr" v="366507" />
	</node>
	<node lat="59.2918916706572" lon="9.624319449978385" id="-35177">
		<tag k="name" v="Frotjenn" />
		<tag k="natural" v="water" />
		<tag k="ssr:stedsnr" v="366508" />
	</node>
	<node lat="59.29237500283445" lon="9.413363885752023" id="-35178">
		<tag k="alt_name" v="Rumpetjørn;Rumpetjenn" />
		<tag k="name" v="Rompetjenn" />
		<tag k="natural" v="water" />
		<tag k="ssr:stedsnr" v="366708" />
	</node>
	<node lat="59.39243333216587" lon="9.45454165794723" id="-35181">
		<tag k="name" v="Furustulvatna" />
		<tag k="natural" v="water" />
		<tag k="ssr:stedsnr" v="366875" />
	</node>
	<node lat="59.38340555960745" lon="9.472327783590943" id="-35188">
		<tag k="name" v="Grønlitjønn" />
		<tag k="natural" v="water" />
		<tag k="ssr:stedsnr" v="366927" />
	</node>
	<node lat="59.224713888230085" lon="9.525897213961256" id="-35193">
		<tag k="name" v="Nordre Trytetjern" />
		<tag k="natural" v="water" />
		<tag k="ssr:stedsnr" v="384999" />
	</node>
	<node lat="59.132852776936815" lon="9.440197225887928" id="-35195">
		<tag k="name" v="Skottjenn" />
		<tag k="natural" v="water" />
		<tag k="ssr:stedsnr" v="389350" />
	</node>
	<node lat="59.25019166417509" lon="9.521402769499453" id="-35206">
		<tag k="name" v="Kremmerdalsbekken" />
		<tag k="ssr:stedsnr" v="390306" />
		<tag k="waterway" v="stream" />
	</node>
	<node lat="59.2972333337638" lon="9.430880550627474" id="-35213">
		<tag k="name" v="Nordre Elgtjenn" />
		<tag k="natural" v="water" />
		<tag k="ssr:stedsnr" v="390837" />
	</node>
	<node lat="59.12828889300959" lon="9.448247219450929" id="-35217">
		<tag k="name" v="Hauglandtjenn" />
		<tag k="natural" v="water" />
		<tag k="ssr:stedsnr" v="391239" />
	</node>
	<node lat="59.13106666266375" lon="9.499302772963734" id="-35218">
		<tag k="name" v="Dammen" />
		<tag k="natural" v="water" />
		<tag k="ssr:stedsnr" v="391243" />
	</node>
	<node lat="59.138183335536944" lon="9.273736106145606" id="-35227">
		<tag k="name" v="Kroktjenn" />
		<tag k="natural" v="water" />
		<tag k="ssr:stedsnr" v="393519" />
	</node>
	<node lat="59.246624995725135" lon="9.527250001161367" id="-35231">
		<tag k="name" v="Ulvsvann" />
		<tag k="natural" v="water" />
		<tag k="ssr:stedsnr" v="486047" />
	</node>
	<node lat="59.22164166724071" lon="9.714094452078214" id="-35232">
		<tag k="name" v="Blåfjellbekken" />
		<tag k="ssr:stedsnr" v="486749" />
		<tag k="waterway" v="stream" />
	</node>
	<node lat="59.29593611308406" lon="9.601124992717214" id="-35238">
		<tag k="name" v="Venstøptjenn" />
		<tag k="natural" v="water" />
		<tag k="ssr:stedsnr" v="487427" />
		<tag k="water" v="lake" />
	</node>
	<node lat="59.19370277831761" lon="9.655508335680219" id="-35241">
		<tag k="name" v="Leirkup" />
		<tag k="ssr:stedsnr" v="487743" />
		<tag k="waterway" v="stream" />
	</node>
	<node lat="59.30271944234858" lon="9.533558334283509" id="-35244">
		<tag k="name" v="Stulvann" />
		<tag k="natural" v="water" />
		<tag k="ssr:stedsnr" v="487813" />
	</node>
	<node lat="59.312644442090814" lon="9.40845278466159" id="-35246">
		<tag k="name" v="Mortetjenn" />
		<tag k="natural" v="water" />
		<tag k="old_name" v="Mortetjørn" />
		<tag k="ssr:stedsnr" v="487783" />
	</node>
	<node lat="59.10492777927202" lon="9.340741673829964" id="-35248">
		<tag k="alt_name" v="Grevstjern" />
		<tag k="name" v="Grevstjenn" />
		<tag k="natural" v="water" />
		<tag k="ssr:stedsnr" v="487785" />
	</node>
	<node lat="59.31434166488381" lon="9.501811110248198" id="-35249">
		<tag k="alt_name" v="Bjørtjern" />
		<tag k="name" v="Bevertjenn" />
		<tag k="natural" v="water" />
		<tag k="ssr:stedsnr" v="487789" />
	</node>
	<node lat="59.31540000330588" lon="9.530180561990603" id="-35251">
		<tag k="name" v="Ormtjenn" />
		<tag k="natural" v="water" />
		<tag k="old_name" v="Ormtjørn" />
		<tag k="ssr:stedsnr" v="487793" />
	</node>
	<node lat="59.367772221212924" lon="9.376886116614443" id="-35256">
		<tag k="name" v="Belatjønn" />
		<tag k="natural" v="water" />
		<tag k="ssr:stedsnr" v="487833" />
	</node>
	<node lat="59.360424998490764" lon="9.555558325019323" id="-35257">
		<tag k="name" v="Kalveøyane" />
		<tag k="place" v="islet" />
		<tag k="ssr:stedsnr" v="487843" />
	</node>
	<node lat="59.288941666755704" lon="9.433069440358626" id="-35263">
		<tag k="name" v="Ormetjenn" />
		<tag k="natural" v="water" />
		<tag k="old_name" v="Ormtjørn" />
		<tag k="ssr:stedsnr" v="488689" />
	</node>
	<node lat="59.39201110939475" lon="9.49681110619399" id="-35265">
		<tag k="name" v="Kleivedalsbekken" />
		<tag k="ssr:stedsnr" v="488923" />
		<tag k="waterway" v="stream" />
	</node>
	<node lat="59.335486115266114" lon="9.486597228309366" id="-35266">
		<tag k="alt_name" v="Blæsa, øvre" />
		<tag k="name" v="Øvre Blæsa" />
		<tag k="natural" v="water" />
		<tag k="ssr:stedsnr" v="488855" />
	</node>
	<node lat="59.33675833725338" lon="9.449972219456424" id="-35267">
		<tag k="name" v="Rolighetstjenn" />
		<tag k="natural" v="water" />
		<tag k="ssr:stedsnr" v="488859" />
	</node>
	<node lat="59.1903833355127" lon="9.391119443570977" id="-35279">
		<tag k="alt_name" v="Marumtjern" />
		<tag k="name" v="Marumtjenn" />
		<tag k="natural" v="water" />
		<tag k="ssr:stedsnr" v="426890" />
	</node>
	<node lat="59.10144167004468" lon="9.439649996699979" id="-35280">
		<tag k="name" v="Brekkefjorden" />
		<tag k="natural" v="water" />
		<tag k="ssr:stedsnr" v="426779" />
		<tag k="water" v="lake" />
	</node>
	<node lat="59.17682500384137" lon="9.293138883688709" id="-35287">
		<tag k="name" v="Reiarsvann" />
		<tag k="natural" v="water" />
		<tag k="ssr:stedsnr" v="426991" />
		<tag k="water" v="lake" />
	</node>
	<node lat="59.383936108841084" lon="9.607305549217969" id="-35290">
		<tag k="name" v="Blåfjellstjernet" />
		<tag k="natural" v="water" />
		<tag k="ssr:stedsnr" v="427312" />
	</node>
	<node lat="59.27562499801617" lon="9.620302776637901" id="-35291">
		<tag k="name" v="Linddalstjenn" />
		<tag k="natural" v="water" />
		<tag k="ssr:stedsnr" v="427489" />
	</node>
	<node lat="59.280883335293154" lon="9.617674999213891" id="-35292">
		<tag k="name" v="Setertjenn" />
		<tag k="natural" v="water" />
		<tag k="ssr:stedsnr" v="427490" />
	</node>
	<node lat="59.24706944774338" lon="9.71668889187426" id="-35296">
		<tag k="name" v="Skisjø" />
		<tag k="natural" v="water" />
		<tag k="ssr:stedsnr" v="427626" />
		<tag k="water" v="lake" />
	</node>
	<node lat="59.3693750021993" lon="9.497100004603457" id="-35299">
		<tag k="name" v="Døletjenn" />
		<tag k="natural" v="water" />
		<tag k="ssr:stedsnr" v="427783" />
	</node>
	<node lat="59.343697218031465" lon="9.299000004273154" id="-35301">
		<tag k="name" v="Kroktjenn" />
		<tag k="natural" v="water" />
		<tag k="ssr:stedsnr" v="427815" />
	</node>
	<node lat="59.33042023361537" lon="9.409457337279791" id="-35302">
		<tag k="name" v="Store Garvannet" />
		<tag k="natural" v="water" />
		<tag k="ssr:stedsnr" v="427824" />
		<tag k="water" v="lake" />
	</node>
	<node lat="59.39884166871898" lon="9.557630552732943" id="-35306">
		<tag k="name" v="Økterelva" />
		<tag k="ssr:stedsnr" v="427879" />
		<tag k="waterway" v="river" />
	</node>
	<node lat="59.401944444499165" lon="9.441936110195808" id="-35308">
		<tag k="alt_name" v="Langeløk, vestre" />
		<tag k="name" v="Vestre Langeløk" />
		<tag k="natural" v="water" />
		<tag k="ssr:stedsnr" v="427888" />
	</node>
	<node lat="59.37528055203654" lon="9.405988884215132" id="-35309">
		<tag k="name" v="Gyristulvatn" />
		<tag k="natural" v="water" />
		<tag k="ssr:stedsnr" v="427915" />
	</node>
	<node lat="59.43168610958988" lon="9.454980553567397" id="-35311">
		<tag k="name" v="Ørjevatnet" />
		<tag k="natural" v="water" />
		<tag k="ssr:stedsnr" v="427975" />
		<tag k="water" v="lake" />
	</node>
	<node lat="59.43151388649183" lon="9.419411111983244" id="-35312">
		<tag k="name" v="Mjågetjønn" />
		<tag k="natural" v="water" />
		<tag k="ssr:stedsnr" v="427976" />
	</node>
	<node lat="59.246619442152294" lon="9.429811117691939" id="-35314">
		<tag k="name" v="Vasdalsholmane" />
		<tag k="place" v="islet" />
		<tag k="ssr:stedsnr" v="445773" />
	</node>
	<node lat="59.42873055307991" lon="9.483230551032305" id="-35317">
		<tag k="name" v="Lauvseterbekken" />
		<tag k="ssr:stedsnr" v="446775" />
		<tag k="waterway" v="stream" />
	</node>
	<node lat="59.3679444426522" lon="9.401433334000355" id="-35318">
		<tag k="name" v="Skrubbfoss" />
		<tag k="natural" v="waterfall" />
		<tag k="ssr:stedsnr" v="446783" />
	</node>
	<node lat="59.25797499692753" lon="9.610600003122768" id="-35319">
		<tag k="name" v="Holmseterbekken" />
		<tag k="ssr:stedsnr" v="446903" />
		<tag k="waterway" v="stream" />
	</node>
	<node lat="59.337361108020616" lon="9.565188894054804" id="-35320">
		<tag k="name" v="Moelva" />
		<tag k="ssr:stedsnr" v="494653" />
		<tag k="waterway" v="river" />
	</node>
	<node lat="59.45240555123446" lon="9.41758888511253" id="-35321">
		<tag k="name" v="Grøntjønn" />
		<tag k="natural" v="water" />
		<tag k="ssr:stedsnr" v="670950" />
	</node>
	<node lat="59.202155555666785" lon="9.326663885684264" id="-35327">
		<tag k="name" v="Kvernhustrangen" />
		<tag k="place" v="locality" />
		<tag k="ssr:stedsnr" v="450402" />
	</node>
	<node lat="59.188716664862994" lon="9.497850006544091" id="-35334">
		<tag k="name" v="Lomøya" />
		<tag k="place" v="island" />
		<tag k="ssr:stedsnr" v="450881" />
	</node>
	<node lat="59.24131110759809" lon="9.513225008596962" id="-35338">
		<tag k="name" v="Svarttjenn" />
		<tag k="natural" v="water" />
		<tag k="ssr:stedsnr" v="451304" />
	</node>
	<node lat="59.093827779408954" lon="9.450863882491525" id="-35346">
		<tag k="name" v="Vassbotkilen" />
		<tag k="natural" v="bay" />
		<tag k="ssr:stedsnr" v="451912" />
	</node>
	<node lat="59.18712499581216" lon="9.457436118233622" id="-35348">
		<tag k="name" v="Kroktjenn" />
		<tag k="natural" v="water" />
		<tag k="ssr:stedsnr" v="451929" />
		<tag k="water" v="pond" />
	</node>
	<node lat="59.080877773874086" lon="9.370386109104755" id="-35359">
		<tag k="name" v="Smauet" />
		<tag k="natural" v="strait" />
		<tag k="ssr:stedsnr" v="453609" />
	</node>
	<node lat="59.12983333452915" lon="9.38843610893844" id="-35371">
		<tag k="alt_name" v="Frønestjern" />
		<tag k="name" v="Frønestjenn" />
		<tag k="natural" v="water" />
		<tag k="ssr:stedsnr" v="486806" />
	</node>
	<node lat="59.308500003066065" lon="9.49103332982924" id="-35376">
		<tag k="name" v="Røyvannet" />
		<tag k="natural" v="water" />
		<tag k="ssr:stedsnr" v="487803" />
		<tag k="water" v="lake" />
	</node>
	<node lat="59.157288889303835" lon="9.373752776623789" id="-35379">
		<tag k="name" v="Ulevannet" />
		<tag k="natural" v="water" />
		<tag k="ssr:stedsnr" v="487960" />
	</node>
	<node lat="59.42343333600099" lon="9.395574996597755" id="-35381">
		<tag k="name" v="Sandtjønn" />
		<tag k="natural" v="water" />
		<tag k="ssr:stedsnr" v="487967" />
	</node>
	<node lat="59.44868055341046" lon="9.42292221468744" id="-35388">
		<tag k="name" v="Grotjønn" />
		<tag k="natural" v="water" />
		<tag k="ssr:stedsnr" v="488949" />
	</node>
	<node lat="59.130355556423986" lon="9.408733331894446" id="-35396">
		<tag k="name" v="Tombukta" />
		<tag k="natural" v="water" />
		<tag k="ssr:stedsnr" v="511311" />
	</node>
	<node lat="59.22091944326441" lon="9.287225002684984" id="-35401">
		<tag k="name" v="Putrevika" />
		<tag k="natural" v="bay" />
		<tag k="ssr:stedsnr" v="511814" />
	</node>
	<node lat="59.21110833158934" lon="9.48607499674605" id="-35406">
		<tag k="name" v="Sandodden" />
		<tag k="natural" v="cape" />
		<tag k="ssr:stedsnr" v="512117" />
	</node>
	<node lat="59.211049996453085" lon="9.481205550060881" id="-35407">
		<tag k="name" v="Skurvehetta" />
		<tag k="place" v="islet" />
		<tag k="ssr:stedsnr" v="512118" />
	</node>
	<node lat="59.21350833416978" lon="9.376855554340624" id="-35411">
		<tag k="name" v="Trytetjenn" />
		<tag k="natural" v="water" />
		<tag k="ssr:stedsnr" v="512312" />
	</node>
	<node lat="59.30900832988777" lon="9.434524999335695" id="-35417">
		<tag k="name" v="Sagtjenndammen" />
		<tag k="ssr:stedsnr" v="512893" />
		<tag k="waterway" v="dam" />
	</node>
	<node lat="59.27266666988714" lon="9.398261113731376" id="-35418">
		<tag k="name" v="Grauteknatten" />
		<tag k="natural" v="cape" />
		<tag k="ssr:stedsnr" v="512988" />
	</node>
	<node lat="59.06052222100406" lon="9.377805559092831" id="-35426">
		<tag k="name" v="Ørnhøltjenn" />
		<tag k="natural" v="water" />
		<tag k="ssr:stedsnr" v="513582" />
	</node>
	<node lat="59.085124999153486" lon="9.354738897525856" id="-35428">
		<tag k="name" v="Gullskjær" />
		<tag k="place" v="islet" />
		<tag k="ssr:stedsnr" v="513714" />
	</node>
	<node lat="59.086205553242486" lon="9.314647221014198" id="-35434">
		<tag k="name" v="Gotjenn" />
		<tag k="natural" v="water" />
		<tag k="ssr:stedsnr" v="514808" />
	</node>
	<node lat="59.156280556173286" lon="9.330425008273128" id="-35435">
		<tag k="name" v="Løkane" />
		<tag k="natural" v="water" />
		<tag k="ssr:stedsnr" v="514907" />
		<tag k="water" v="lake" />
	</node>
	<node lat="59.200599999946874" lon="9.578786110633038" id="-35443">
		<tag k="alt_name" v="Elstrøm" />
		<tag k="name" v="Farelva" />
		<tag k="ssr:stedsnr" v="547903" />
		<tag k="waterway" v="river" />
	</node>
	<node lat="59.26994166236836" lon="9.469511119117806" id="-35453">
		<tag k="name" v="Skådalstjenn" />
		<tag k="natural" v="water" />
		<tag k="old_name" v="Skådaltjørn" />
		<tag k="ssr:stedsnr" v="548665" />
	</node>
	<node lat="59.37181389233313" lon="9.387461109811092" id="-35456">
		<tag k="name" v="Stulstjønn" />
		<tag k="natural" v="water" />
		<tag k="ssr:stedsnr" v="548808" />
	</node>
	<node lat="59.36941111553889" lon="9.552858336194406" id="-35457">
		<tag k="name" v="Fjellvannet" />
		<tag k="natural" v="water" />
		<tag k="ssr:stedsnr" v="548814" />
		<tag k="water" v="lake" />
	</node>
	<node lat="59.35804722253635" lon="9.521294448395837" id="-35458">
		<tag k="name" v="Blokkevann" />
		<tag k="natural" v="water" />
		<tag k="ssr:stedsnr" v="548823" />
	</node>
	<node lat="59.42177499579666" lon="9.610927783006458" id="-35459">
		<tag k="name" v="Blokketjern" />
		<tag k="natural" v="water" />
		<tag k="ssr:stedsnr" v="548559" />
	</node>
	<node lat="59.29476389115554" lon="9.418938890706778" id="-35465">
		<tag k="alt_name" v="Fjelltjørn;Fjelltjønn" />
		<tag k="name" v="Fjelltjenn" />
		<tag k="natural" v="water" />
		<tag k="ssr:stedsnr" v="548801" />
	</node>
	<node lat="59.41285833157911" lon="9.396680562339165" id="-35479">
		<tag k="name" v="Sjøknattjønn" />
		<tag k="natural" v="water" />
		<tag k="ssr:stedsnr" v="567775" />
	</node>
	<node lat="59.23788611314629" lon="9.606997228185081" id="-35485">
		<tag k="name" v="Limibekken" />
		<tag k="ssr:stedsnr" v="693238" />
		<tag k="waterway" v="stream" />
	</node>
	<node lat="59.13369999906773" lon="9.397827772454448" id="-35488">
		<tag k="name" v="Svarttjennbekken" />
		<tag k="ssr:stedsnr" v="693361" />
		<tag k="waterway" v="stream" />
	</node>
	<node lat="59.14829722265394" lon="9.539444435984015" id="-35494">
		<tag k="name" v="Meltveitbekken" />
		<tag k="ssr:stedsnr" v="693542" />
		<tag k="waterway" v="stream" />
	</node>
	<node lat="59.152886114976134" lon="9.54540277480982" id="-35497">
		<tag k="name" v="Hvalsbekken" />
		<tag k="ssr:stedsnr" v="693559" />
		<tag k="waterway" v="stream" />
	</node>
	<node lat="59.20713611317434" lon="9.503383332912613" id="-35499">
		<tag k="name" v="Suttervika" />
		<tag k="natural" v="bay" />
		<tag k="ssr:stedsnr" v="571058" />
	</node>
	<node lat="59.21238611144727" lon="9.500666665613743" id="-35500">
		<tag k="name" v="Lagune" />
		<tag k="natural" v="water" />
		<tag k="ssr:stedsnr" v="571062" />
		<tag k="water" v="pond" />
	</node>
	<node lat="59.345047225226075" lon="9.32877777244544" id="-35501">
		<tag k="name" v="Gotholsbekk" />
		<tag k="ssr:stedsnr" v="571505" />
		<tag k="waterway" v="stream" />
	</node>
	<node lat="59.24354444085035" lon="9.528858334273162" id="-35503">
		<tag k="name" v="Breigangsbukta" />
		<tag k="natural" v="bay" />
		<tag k="ssr:stedsnr" v="571252" />
	</node>
	<node lat="59.120236113044726" lon="9.376197214738038" id="-35507">
		<tag k="name" v="Fjellelva" />
		<tag k="ssr:stedsnr" v="693752" />
		<tag k="waterway" v="river" />
	</node>
	<node lat="59.16266666313334" lon="9.401724998779448" id="-35510">
		<tag k="name" v="Kvellro" />
		<tag k="natural" v="cape" />
		<tag k="ssr:stedsnr" v="571816" />
	</node>
	<node lat="59.16008055811901" lon="9.366805552817501" id="-35514">
		<tag k="name" v="Storeøya" />
		<tag k="place" v="island" />
		<tag k="ssr:stedsnr" v="571759" />
	</node>
	<node lat="59.20516389092721" lon="9.38932500525557" id="-35523">
		<tag k="name" v="Gjærumtjenn" />
		<tag k="natural" v="water" />
		<tag k="ssr:stedsnr" v="572314" />
	</node>
	<node lat="59.063394447726125" lon="9.41611944557247" id="-35527">
		<tag k="name" v="Leirtjenn" />
		<tag k="natural" v="water" />
		<tag k="ssr:stedsnr" v="693947" />
	</node>
	<node lat="59.05693333570299" lon="9.426852772956916" id="-35529">
		<tag k="name" v="Småslåttbukta" />
		<tag k="natural" v="water" />
		<tag k="ssr:stedsnr" v="693950" />
	</node>
	<node lat="59.05459444720891" lon="9.414913880880402" id="-35533">
		<tag k="name" v="Seterkilen" />
		<tag k="natural" v="water" />
		<tag k="ssr:stedsnr" v="572951" />
	</node>
	<node lat="59.214924999086165" lon="9.461261113789487" id="-35535">
		<tag k="name" v="Leirodden" />
		<tag k="natural" v="cape" />
		<tag k="ssr:stedsnr" v="694086" />
	</node>
	<node lat="59.19934722359818" lon="9.606013884273484" id="-35541">
		<tag k="alt_name" v="Bukkeholmen" />
		<tag k="name" v="Bokholmen" />
		<tag k="place" v="islet" />
		<tag k="ssr:stedsnr" v="574353" />
	</node>
	<node lat="59.099186110324005" lon="9.299727774016365" id="-35545">
		<tag k="name" v="Trytetjenn" />
		<tag k="natural" v="water" />
		<tag k="ssr:stedsnr" v="574817" />
	</node>
	<node lat="59.09010555359817" lon="9.314105564126262" id="-35546">
		<tag k="name" v="Langtjennbekken" />
		<tag k="ssr:stedsnr" v="574848" />
		<tag k="waterway" v="stream" />
	</node>
	<node lat="59.06935000194654" lon="9.404299992542429" id="-35551">
		<tag k="name" v="Godtjenn" />
		<tag k="natural" v="water" />
		<tag k="ssr:stedsnr" v="694964" />
	</node>
	<node lat="59.14683055639018" lon="9.413280555000064" id="-35553">
		<tag k="name" v="Nesodden" />
		<tag k="natural" v="cape" />
		<tag k="ssr:stedsnr" v="695437" />
	</node>
	<node lat="59.15862500180285" lon="9.41121944904987" id="-35555">
		<tag k="name" v="Øvre Bjørnsund" />
		<tag k="natural" v="strait" />
		<tag k="ssr:stedsnr" v="695600" />
	</node>
	<node lat="59.123961108649404" lon="9.312977771207018" id="-35562">
		<tag k="name" v="Nibutjenn" />
		<tag k="natural" v="water" />
		<tag k="ssr:stedsnr" v="696634" />
	</node>
	<node lat="59.09790832966742" lon="9.297408336937837" id="-35563">
		<tag k="name" v="Tjærevannsmellom" />
		<tag k="natural" v="strait" />
		<tag k="ssr:stedsnr" v="696762" />
	</node>
	<node lat="59.16050277689535" lon="9.300888892300712" id="-35565">
		<tag k="name" v="Bikkjetjenn" />
		<tag k="natural" v="water" />
		<tag k="ssr:stedsnr" v="696925" />
	</node>
	<node lat="59.2513250040074" lon="9.45286666130204" id="-35577">
		<tag k="name" v="Vasdalstjern" />
		<tag k="natural" v="water" />
		<tag k="ssr:stedsnr" v="608695" />
	</node>
	<node lat="59.19074167078373" lon="9.7577305604107" id="-35582">
		<tag k="name" v="Mjøvann" />
		<tag k="natural" v="water" />
		<tag k="ssr:stedsnr" v="608737" />
		<tag k="water" v="lake" />
	</node>
	<node lat="59.46220555280425" lon="9.46103610279314" id="-35591">
		<tag k="name" v="Grantjønn" />
		<tag k="natural" v="water" />
		<tag k="ssr:stedsnr" v="609002" />
	</node>
	<node lat="59.281988891965646" lon="9.419694442273142" id="-35593">
		<tag k="name" v="Geitebutjenn" />
		<tag k="natural" v="water" />
		<tag k="old_name" v="Geitebutjørn" />
		<tag k="ssr:stedsnr" v="609703" />
	</node>
	<node lat="59.29473055950677" lon="9.554447213590455" id="-35608">
		<tag k="name" v="Spirøya" />
		<tag k="place" v="island" />
		<tag k="ssr:stedsnr" v="632810" />
	</node>
	<node lat="59.13386944312632" lon="9.373166672312008" id="-35610">
		<tag k="name" v="Endebekken" />
		<tag k="ssr:stedsnr" v="632703" />
		<tag k="waterway" v="stream" />
	</node>
	<node lat="59.21006111073565" lon="9.485672221689473" id="-35615">
		<tag k="name" v="Svarthøl" />
		<tag k="natural" v="bay" />
		<tag k="ssr:stedsnr" v="633136" />
	</node>
	<node lat="59.08553611002701" lon="9.41123610948597" id="-35621">
		<tag k="name" v="Krokmyrbekken" />
		<tag k="ssr:stedsnr" v="634086" />
		<tag k="waterway" v="stream" />
	</node>
	<node lat="59.09585555754077" lon="9.352058337220287" id="-35626">
		<tag k="name" v="Skrublebukta" />
		<tag k="natural" v="bay" />
		<tag k="ssr:stedsnr" v="634730" />
	</node>
	<node lat="59.1398999987957" lon="9.437758324849074" id="-35640">
		<tag k="name" v="Oterkilfjorden" />
		<tag k="natural" v="water" />
		<tag k="ssr:stedsnr" v="668808" />
	</node>
	<node lat="59.13186666754048" lon="9.260105550819192" id="-35641">
		<tag k="name" v="Mosvannet" />
		<tag k="natural" v="water" />
		<tag k="ssr:stedsnr" v="668811" />
		<tag k="water" v="lake" />
	</node>
	<node lat="59.35920000159968" lon="9.631983327236414" id="-35645">
		<tag k="name" v="Todalsbekken" />
		<tag k="ssr:stedsnr" v="669238" />
		<tag k="waterway" v="stream" />
	</node>
	<node lat="59.25998889094063" lon="9.558452769722097" id="-35648">
		<tag k="name" v="Kisebekken" />
		<tag k="ssr:stedsnr" v="669681" />
		<tag k="waterway" v="stream" />
	</node>
	<node lat="59.18815277749989" lon="9.52888889079922" id="-35649">
		<tag k="name" v="Fjærekilen" />
		<tag k="natural" v="water" />
		<tag k="ssr:stedsnr" v="669892" />
	</node>
	<node lat="59.304813886697566" lon="9.310919452937506" id="-35654">
		<tag k="alt_name" v="Dollvika" />
		<tag k="name" v="Dølvika" />
		<tag k="natural" v="bay" />
		<tag k="ssr:stedsnr" v="669781" />
	</node>
	<node lat="59.217347222884406" lon="9.300894438767305" id="-35656">
		<tag k="name" v="Ulevann" />
		<tag k="natural" v="water" />
		<tag k="ssr:stedsnr" v="669913" />
		<tag k="water" v="lake" />
	</node>
	<node lat="59.435433336803655" lon="9.40921944075191" id="-35658">
		<tag k="name" v="Kroktjønn" />
		<tag k="natural" v="water" />
		<tag k="ssr:stedsnr" v="669975" />
	</node>
	<node lat="59.32331442636168" lon="9.404727682094363" id="-35661">
		<tag k="name" v="Vesle Garvannet" />
		<tag k="natural" v="water" />
		<tag k="ssr:stedsnr" v="670738" />
	</node>
	<node lat="59.40663055219648" lon="9.41733889321339" id="-35662">
		<tag k="name" v="Blekketjønn" />
		<tag k="natural" v="water" />
		<tag k="ssr:stedsnr" v="670875" />
	</node>
	<node lat="59.382372222522264" lon="9.616344449765709" id="-35663">
		<tag k="name" v="Svergekolltjern" />
		<tag k="natural" v="water" />
		<tag k="ssr:stedsnr" v="688785" />
	</node>
	<node lat="59.20452222115141" lon="9.325991660017166" id="-35666">
		<tag k="name" v="Blivarevet" />
		<tag k="place" v="locality" />
		<tag k="ssr:stedsnr" v="692624" />
	</node>
	<node lat="59.21684722160828" lon="9.48793888039328" id="-35667">
		<tag k="name" v="Katthølet" />
		<tag k="natural" v="bay" />
		<tag k="ssr:stedsnr" v="693081" />
	</node>
	<node lat="59.21225555312552" lon="9.31161388037485" id="-35677">
		<tag k="name" v="Torgersrødtjenn" />
		<tag k="natural" v="bay" />
		<tag k="ssr:stedsnr" v="693817" />
	</node>
	<node lat="59.11538611229483" lon="9.413663888835579" id="-35695">
		<tag k="name" v="Grindebekken" />
		<tag k="ssr:stedsnr" v="695210" />
		<tag k="waterway" v="stream" />
	</node>
	<node lat="59.14356666296518" lon="9.413619441356785" id="-35696">
		<tag k="name" v="Øyrodden" />
		<tag k="natural" v="cape" />
		<tag k="ssr:stedsnr" v="695413" />
	</node>
	<node lat="59.11638611262268" lon="9.422230560460752" id="-35697">
		<tag k="name" v="Brentetangen" />
		<tag k="natural" v="cape" />
		<tag k="ssr:stedsnr" v="695268" />
	</node>
	<node lat="59.14372777904696" lon="9.39206111078492" id="-35699">
		<tag k="name" v="Øyfjorden" />
		<tag k="natural" v="water" />
		<tag k="ssr:stedsnr" v="695416" />
	</node>
	<node lat="59.29228888958598" lon="9.389205557132378" id="-35700">
		<tag k="name" v="Solbergbekken" />
		<tag k="ssr:stedsnr" v="695718" />
		<tag k="waterway" v="stream" />
	</node>
	<node lat="59.13464444871771" lon="9.305336119058191" id="-35707">
		<tag k="name" v="Lille Rørtjenn" />
		<tag k="natural" v="water" />
		<tag k="ssr:stedsnr" v="696605" />
	</node>
	<node lat="59.075600000706906" lon="9.346116664403052" id="-35708">
		<tag k="name" v="Håvtjennane" />
		<tag k="natural" v="water" />
		<tag k="ssr:stedsnr" v="696612" />
	</node>
	<node lat="59.093163891387995" lon="9.277519441775476" id="-35709">
		<tag k="name" v="Urdputtane" />
		<tag k="natural" v="water" />
		<tag k="ssr:stedsnr" v="696781" />
	</node>
	<node lat="59.10210832960938" lon="9.288827771422152" id="-35710">
		<tag k="name" v="Lomtjennputtane" />
		<tag k="natural" v="water" />
		<tag k="ssr:stedsnr" v="696908" />
		<tag k="water" v="pond" />
	</node>
	<node lat="59.192111108726166" lon="9.62095555634894" id="-35716">
		<tag k="name" v="Gråtenløpet" />
		<tag k="natural" v="strait" />
		<tag k="ssr:stedsnr" v="898385" />
	</node>
	<node lat="59.1571888861592" lon="9.645886117863324" id="-35717">
		<tag k="name" v="Legravstranda" />
		<tag k="natural" v="beach" />
		<tag k="ssr:stedsnr" v="898441" />
	</node>
	<node lat="59.25439167030061" lon="9.448841659180294" id="-35732">
		<tag k="name" v="Svarttjenn" />
		<tag k="natural" v="water" />
		<tag k="old_name" v="Svarttjørn" />
		<tag k="ssr:stedsnr" v="730708" />
	</node>
</osm>
