<?xml version="1.0" encoding="UTF-8"?>
<<<<<<< HEAD
<osm version="0.6" generator="osmapis">
	<node lat="59.19922222032988" lon="9.329033339613224" id="-22468">
		<tag k="name" v="Veiåjordet" />
		<tag k="place" v="locality" />
		<tag k="ssr:stedsnr" v="25404" />
	</node>
	<node lat="59.19181110746422" lon="9.401469442715399" id="-22474">
		<tag k="name" v="Potetholet" />
		<tag k="place" v="locality" />
		<tag k="ssr:stedsnr" v="26023" />
	</node>
	<node lat="59.31606111449369" lon="9.40077499230749" id="-22477">
		<tag k="name" v="Søndagsholet" />
		<tag k="place" v="locality" />
		<tag k="ssr:stedsnr" v="26217" />
	</node>
	<node lat="59.20847500090447" lon="9.359711105148085" id="-22480">
		<tag k="name" v="Orsjømyrane" />
		<tag k="natural" v="wetland" />
		<tag k="ssr:stedsnr" v="26308" />
	</node>
	<node lat="59.135330557576175" lon="9.361469442895782" id="-22556">
		<tag k="name" v="Klopmyr" />
		<tag k="natural" v="wetland" />
		<tag k="ssr:stedsnr" v="86711" />
	</node>
	<node lat="59.208324996391596" lon="9.29475556289454" id="-22564">
		<tag k="name" v="Rundemyra" />
		<tag k="natural" v="wetland" />
		<tag k="ssr:stedsnr" v="86816" />
	</node>
	<node lat="59.19175277895794" lon="9.663986103387048" id="-22599">
		<tag k="name" v="Storemyr" />
		<tag k="natural" v="wetland" />
		<tag k="ssr:stedsnr" v="89595" />
	</node>
	<node lat="59.08735833559409" lon="9.38459722672135" id="-22600">
		<tag k="name" v="Store Eikelimyra" />
		<tag k="natural" v="wetland" />
		<tag k="ssr:stedsnr" v="89598" />
	</node>
	<node lat="59.12750833600525" lon="9.443838880198363" id="-22643">
		<tag k="name" v="Sauholsmyr" />
		<tag k="natural" v="wetland" />
		<tag k="ssr:stedsnr" v="147173" />
	</node>
	<node lat="59.24309999880629" lon="9.507516665874599" id="-22650">
		<tag k="name" v="Droplemyra" />
		<tag k="natural" v="wetland" />
		<tag k="ssr:stedsnr" v="147279" />
	</node>
	<node lat="59.115841665882854" lon="9.357613887925341" id="-22651">
		<tag k="name" v="Dammyra" />
		<tag k="natural" v="wetland" />
		<tag k="ssr:stedsnr" v="147602" />
	</node>
	<node lat="59.1142111136969" lon="9.379933338728728" id="-22653">
		<tag k="name" v="Stutaumyra" />
		<tag k="natural" v="wetland" />
		<tag k="ssr:stedsnr" v="147604" />
	</node>
	<node lat="59.08090832962707" lon="9.464016658311857" id="-22664">
		<tag k="name" v="Toremyrkollen" />
		<tag k="natural" v="wetland" />
		<tag k="ssr:stedsnr" v="147864" />
	</node>
	<node lat="59.164108332779676" lon="9.58016666516866" id="-22667">
		<tag k="name" v="Langemyra" />
		<tag k="natural" v="wetland" />
		<tag k="old_name" v="Lamgemyr" />
		<tag k="ssr:stedsnr" v="147911" />
	</node>
	<node lat="59.27293888504567" lon="9.448961117064693" id="-22670">
		<tag k="name" v="Storemyr" />
		<tag k="natural" v="wetland" />
		<tag k="ssr:stedsnr" v="147973" />
	</node>
	<node lat="59.1007055583453" lon="9.273172220762092" id="-22678">
		<tag k="name" v="Mjåvannsmarka" />
		<tag k="place" v="locality" />
		<tag k="ssr:stedsnr" v="150867" />
	</node>
	<node lat="59.19320555974373" lon="9.376572227774247" id="-22732">
		<tag k="name" v="Dalsmyra" />
		<tag k="natural" v="wetland" />
		<tag k="ssr:stedsnr" v="268464" />
	</node>
	<node lat="59.11471944059688" lon="9.34813610377511" id="-22735">
		<tag k="name" v="Årmyr" />
		<tag k="natural" v="wetland" />
		<tag k="ssr:stedsnr" v="268613" />
	</node>
	<node lat="59.212761107931115" lon="9.334688891181202" id="-22737">
		<tag k="name" v="Torvdammen" />
		<tag k="natural" v="wetland" />
		<tag k="ssr:stedsnr" v="268797" />
	</node>
	<node lat="59.29064999940935" lon="9.556113895360335" id="-22754">
		<tag k="name" v="Oterholtskogen" />
		<tag k="place" v="locality" />
		<tag k="ssr:stedsnr" v="208845" />
	</node>
	<node lat="59.05105555250035" lon="9.409666668297966" id="-22760">
		<tag k="name" v="Lingårdsmyra" />
		<tag k="natural" v="wetland" />
		<tag k="ssr:stedsnr" v="208988" />
	</node>
	<node lat="59.10256111272565" lon="9.421099995418471" id="-22761">
		<tag k="name" v="Munkeholet" />
		<tag k="natural" v="wetland" />
		<tag k="ssr:stedsnr" v="209236" />
	</node>
	<node lat="59.08756389103005" lon="9.343013896141839" id="-22777">
		<tag k="name" v="Østre Tangane" />
		<tag k="place" v="locality" />
		<tag k="ssr:stedsnr" v="210712" />
	</node>
	<node lat="59.35192499662083" lon="9.395072216499589" id="-22788">
		<tag k="name" v="Nibbemyr" />
		<tag k="natural" v="wetland" />
		<tag k="ssr:stedsnr" v="269648" />
	</node>
	<node lat="59.086461110955405" lon="9.400761103784534" id="-22797">
		<tag k="name" v="Moltemyr" />
		<tag k="natural" v="wetland" />
		<tag k="ssr:stedsnr" v="270132" />
	</node>
	<node lat="59.148877781239364" lon="9.392369444897476" id="-22800">
		<tag k="name" v="Leirgrava" />
		<tag k="place" v="locality" />
		<tag k="ssr:stedsnr" v="270415" />
	</node>
	<node lat="59.078294447909066" lon="9.347063883021594" id="-22809">
		<tag k="name" v="Ørknane" />
		<tag k="natural" v="wetland" />
		<tag k="ssr:stedsnr" v="271663" />
	</node>
	<node lat="59.091183337311" lon="9.403272227788985" id="-22858">
		<tag k="name" v="Lauvsmyr" />
		<tag k="natural" v="wetland" />
		<tag k="ssr:stedsnr" v="452095" />
	</node>
	<node lat="59.32140555467138" lon="9.370574996212445" id="-22881">
		<tag k="name" v="Hovdåsmyra" />
		<tag k="natural" v="wetland" />
		<tag k="ssr:stedsnr" v="245738" />
	</node>
	<node lat="59.09298888498163" lon="9.327586103826915" id="-22894">
		<tag k="name" v="Tangane" />
		<tag k="place" v="locality" />
		<tag k="ssr:stedsnr" v="453826" />
	</node>
	<node lat="59.17006389122832" lon="9.325205561230337" id="-22904">
		<tag k="name" v="Bjørkesto" />
		<tag k="place" v="locality" />
		<tag k="ssr:stedsnr" v="454217" />
	</node>
	<node lat="59.25428889067984" lon="9.540380551980105" id="-22912">
		<tag k="name" v="Bjørndalsmyr" />
		<tag k="natural" v="wetland" />
		<tag k="ssr:stedsnr" v="263997" />
	</node>
	<node lat="59.20659166799715" lon="9.335147214602825" id="-22915">
		<tag k="name" v="Raumyr" />
		<tag k="natural" v="wetland" />
		<tag k="ssr:stedsnr" v="267618" />
	</node>
	<node lat="59.31596111073502" lon="9.47367222326448" id="-22917">
		<tag k="name" v="Svarvarmyr" />
		<tag k="natural" v="wetland" />
		<tag k="ssr:stedsnr" v="268210" />
	</node>
	<node lat="59.3239138848801" lon="9.512030553663699" id="-22918">
		<tag k="name" v="Holka" />
		<tag k="natural" v="wetland" />
		<tag k="ssr:stedsnr" v="268187" />
	</node>
	<node lat="59.15576388539047" lon="9.464341671351479" id="-22935">
		<tag k="name" v="Muren" />
		<tag k="place" v="locality" />
		<tag k="ssr:stedsnr" v="269282" />
	</node>
	<node lat="59.29348055684928" lon="9.430677781354682" id="-22944">
		<tag k="name" v="Elgtjennmarka" />
		<tag k="place" v="locality" />
		<tag k="ssr:stedsnr" v="269873" />
	</node>
	<node lat="59.10313055540266" lon="9.403347216796178" id="-22945">
		<tag k="name" v="Stakemyr" />
		<tag k="natural" v="wetland" />
		<tag k="ssr:stedsnr" v="270225" />
	</node>
	<node lat="59.18916388938339" lon="9.725913891951857" id="-22951">
		<tag k="name" v="Vossermarka" />
		<tag k="place" v="locality" />
		<tag k="ssr:stedsnr" v="271029" />
	</node>
	<node lat="59.1803055514171" lon="9.32797221583173" id="-22955">
		<tag k="name" v="Århanemyra" />
		<tag k="natural" v="wetland" />
		<tag k="ssr:stedsnr" v="272227" />
	</node>
	<node lat="59.29981388996767" lon="9.393658337266071" id="-23002">
		<tag k="name" v="Storemyr" />
		<tag k="natural" v="wetland" />
		<tag k="ssr:stedsnr" v="329662" />
	</node>
	<node lat="59.29839721873821" lon="9.5541111179687" id="-23003">
		<tag k="name" v="Lauvhagen" />
		<tag k="place" v="locality" />
		<tag k="ssr:stedsnr" v="329813" />
	</node>
	<node lat="59.18589999814618" lon="9.434777781890622" id="-23017">
		<tag k="name" v="Oleskås" />
		<tag k="place" v="locality" />
		<tag k="ssr:stedsnr" v="330965" />
	</node>
	<node lat="59.09189722640946" lon="9.433008332730777" id="-23018">
		<tag k="name" v="Lyngmyr" />
		<tag k="natural" v="wetland" />
		<tag k="ssr:stedsnr" v="331103" />
	</node>
	<node lat="59.08434166901799" lon="9.335477771410975" id="-23023">
		<tag k="name" v="Vestre Tangane" />
		<tag k="place" v="locality" />
		<tag k="ssr:stedsnr" v="331704" />
	</node>
	<node lat="59.21573333506247" lon="9.73002500785303" id="-23027">
		<tag k="name" v="Fugleleikmyra" />
		<tag k="natural" v="wetland" />
		<tag k="ssr:stedsnr" v="332039" />
	</node>
	<node lat="59.193952777301014" lon="9.635377780124049" id="-23040">
		<tag k="name" v="Brattsbergskogen" />
		<tag k="place" v="locality" />
		<tag k="ssr:stedsnr" v="473381" />
	</node>
	<node lat="59.34456111443496" lon="9.335302782354667" id="-23079">
		<tag k="name" v="Rolighetsmyr" />
		<tag k="natural" v="wetland" />
		<tag k="ssr:stedsnr" v="389513" />
	</node>
	<node lat="59.11133055629758" lon="9.339016671430233" id="-23081">
		<tag k="name" v="Langgangsmyrane" />
		<tag k="natural" v="wetland" />
		<tag k="ssr:stedsnr" v="389628" />
	</node>
	<node lat="59.3241888902632" lon="9.416350002662558" id="-23088">
		<tag k="name" v="Brente" />
		<tag k="place" v="locality" />
		<tag k="ssr:stedsnr" v="390194" />
	</node>
	<node lat="59.2233111138943" lon="9.35177500376642" id="-23091">
		<tag k="name" v="Tjønnkåsane" />
		<tag k="place" v="locality" />
		<tag k="ssr:stedsnr" v="390297" />
	</node>
	<node lat="59.084430556295096" lon="9.452611116265645" id="-23097">
		<tag k="name" v="Tørrgranmyra" />
		<tag k="natural" v="wetland" />
		<tag k="ssr:stedsnr" v="390885" />
	</node>
	<node lat="59.08881944140901" lon="9.417263890039822" id="-23104">
		<tag k="name" v="Rødmyr" />
=======
<osm generator="osmapis" version="0.6">
	<node id="-422399" lat="59.2145083353" lon="9.29521665959">
		<tag k="name" v="Vintermyr" />
>>>>>>> e1d4bc35ff8a6074a6f2e91616a996b547c36f15
		<tag k="natural" v="wetland" />
		<tag k="ssr:stedsnr" v="392114" />
	</node>
<<<<<<< HEAD
	<node lat="59.19375555124536" lon="9.344719443344443" id="-23211">
		<tag k="name" v="Svendstjenn" />
=======
	<node id="-423422" lat="59.3186694448" lon="9.54197778259">
		<tag k="name" v="Hestemyr" />
>>>>>>> e1d4bc35ff8a6074a6f2e91616a996b547c36f15
		<tag k="natural" v="wetland" />
		<tag k="ssr:stedsnr" v="450467" />
	</node>
<<<<<<< HEAD
	<node lat="59.15879721789263" lon="9.57439999409405" id="-23216">
		<tag k="name" v="Storemyr" />
=======
	<node id="-422904" lat="59.3810361104" lon="9.62524166873">
		<tag k="name" v="Svergekollmyra" />
>>>>>>> e1d4bc35ff8a6074a6f2e91616a996b547c36f15
		<tag k="natural" v="wetland" />
		<tag k="ssr:stedsnr" v="450873" />
	</node>
<<<<<<< HEAD
	<node lat="59.14399444111212" lon="9.476222227087428" id="-23223">
		<tag k="name" v="Rønningen" />
=======
	<node id="-421879" lat="59.1700638912" lon="9.32520556123">
		<tag k="name" v="Bjørkesto" />
>>>>>>> e1d4bc35ff8a6074a6f2e91616a996b547c36f15
		<tag k="place" v="locality" />
		<tag k="ssr:stedsnr" v="451380" />
	</node>
<<<<<<< HEAD
	<node lat="59.29828055315402" lon="9.418608342043768" id="-23228">
		<tag k="name" v="Skabbmyrane" />
		<tag k="natural" v="wetland" />
		<tag k="ssr:stedsnr" v="451884" />
	</node>
	<node lat="59.25161667061219" lon="9.473169448953817" id="-23256">
		<tag k="name" v="Underdalsmyrane" />
		<tag k="natural" v="wetland" />
		<tag k="ssr:stedsnr" v="487712" />
	</node>
	<node lat="59.34361666253811" lon="9.530491670711976" id="-23267">
		<tag k="name" v="Hellermyra" />
		<tag k="natural" v="wetland" />
		<tag k="ssr:stedsnr" v="488847" />
	</node>
	<node lat="59.20229166700734" lon="9.352258325784849" id="-23277">
		<tag k="name" v="Storemyr" />
		<tag k="natural" v="wetland" />
		<tag k="ssr:stedsnr" v="510458" />
	</node>
	<node lat="59.16171110912476" lon="9.341466660272932" id="-23278">
		<tag k="name" v="Husmyr" />
=======
	<node id="-423922" lat="59.1550111082" lon="9.44096666655">
		<tag k="name" v="Langemyr" />
		<tag k="natural" v="wetland" />
		<tag k="ssr:stedsnr" v="756436" />
	</node>
	<node id="-423921" lat="59.1471166637" lon="9.39829444763">
		<tag k="name" v="Vierkåsa" />
		<tag k="place" v="locality" />
		<tag k="ssr:stedsnr" v="756416" />
	</node>
	<node id="-421357" lat="59.1803055514" lon="9.32797221583">
		<tag k="name" v="Århanemyra" />
		<tag k="natural" v="wetland" />
		<tag k="ssr:stedsnr" v="272227" />
	</node>
	<node id="-422326" lat="59.2538194488" lon="9.491191663">
		<tag k="name" v="Elgmyr" />
		<tag k="natural" v="wetland" />
		<tag k="ssr:stedsnr" v="912682" />
	</node>
	<node id="-422887" lat="59.2172972188" lon="9.55181667033">
		<tag k="name" v="Moen" />
		<tag k="place" v="locality" />
		<tag k="ssr:stedsnr" v="109158" />
	</node>
	<node id="-423908" lat="59.0963083335" lon="9.42953056376">
		<tag k="name" v="Storemyr" />
		<tag k="natural" v="wetland" />
		<tag k="ssr:stedsnr" v="755261" />
	</node>
	<node id="-423907" lat="59.098330555" lon="9.42238332752">
		<tag k="name" v="Leikmyr" />
		<tag k="natural" v="wetland" />
		<tag k="ssr:stedsnr" v="755257" />
	</node>
	<node id="-423905" lat="59.1201833319" lon="9.46779722414">
		<tag k="name" v="Eikebrekkollen" />
		<tag k="place" v="locality" />
		<tag k="ssr:stedsnr" v="755245" />
	</node>
	<node id="-423903" lat="59.1264333369" lon="9.45213888218">
		<tag k="name" v="Haugland" />
		<tag k="place" v="locality" />
		<tag k="ssr:stedsnr" v="755238" />
	</node>
	<node id="-423902" lat="59.0992055562" lon="9.3944722141">
		<tag k="name" v="Mørkedalen" />
>>>>>>> e1d4bc35ff8a6074a6f2e91616a996b547c36f15
		<tag k="natural" v="wetland" />
		<tag k="ssr:stedsnr" v="510668" />
	</node>
<<<<<<< HEAD
	<node lat="59.13675555379863" lon="9.449088885779052" id="-23280">
		<tag k="name" v="Bjorstad" />
=======
	<node id="-422147" lat="59.1813999979" lon="9.73425832897">
		<tag k="name" v="Sannimyra" />
		<tag k="natural" v="wetland" />
		<tag k="ssr:stedsnr" v="635461" />
	</node>
	<node id="-421340" lat="59.1488777812" lon="9.3923694449">
		<tag k="name" v="Leirgrava" />
>>>>>>> e1d4bc35ff8a6074a6f2e91616a996b547c36f15
		<tag k="place" v="locality" />
		<tag k="ssr:stedsnr" v="511351" />
	</node>
<<<<<<< HEAD
	<node lat="59.32001666411997" lon="9.57233611094242" id="-23283">
		<tag k="name" v="Moltemyr" />
=======
	<node id="-423899" lat="59.1049916658" lon="9.40068056094">
		<tag k="name" v="Rolighetsmyr" />
>>>>>>> e1d4bc35ff8a6074a6f2e91616a996b547c36f15
		<tag k="natural" v="wetland" />
		<tag k="ssr:stedsnr" v="511751" />
	</node>
<<<<<<< HEAD
	<node lat="59.21418888520884" lon="9.346022215929692" id="-23297">
		<tag k="name" v="Bjelken" />
=======
	<node id="-423898" lat="59.3035944472" lon="9.45696944615">
		<tag k="name" v="Såtemyra" />
>>>>>>> e1d4bc35ff8a6074a6f2e91616a996b547c36f15
		<tag k="natural" v="wetland" />
		<tag k="ssr:stedsnr" v="512323" />
	</node>
<<<<<<< HEAD
	<node lat="59.06347222183668" lon="9.386483329179603" id="-23310">
		<tag k="name" v="Halvorsmyr" />
=======
	<node id="-421336" lat="59.086461111" lon="9.40076110378">
		<tag k="name" v="Moltemyr" />
>>>>>>> e1d4bc35ff8a6074a6f2e91616a996b547c36f15
		<tag k="natural" v="wetland" />
		<tag k="ssr:stedsnr" v="513586" />
	</node>
<<<<<<< HEAD
	<node lat="59.43343611544206" lon="9.474816669443083" id="-23350">
		<tag k="name" v="Lauvsetermyra" />
=======
	<node id="-422871" lat="59.0873583356" lon="9.38459722672">
		<tag k="name" v="Store Eikelimyra" />
>>>>>>> e1d4bc35ff8a6074a6f2e91616a996b547c36f15
		<tag k="natural" v="wetland" />
		<tag k="ssr:stedsnr" v="548972" />
	</node>
<<<<<<< HEAD
	<node lat="59.2305027752254" lon="9.702586108088374" id="-23356">
		<tag k="name" v="Vealøsmyra" />
=======
	<node id="-422870" lat="59.191752779" lon="9.66398610339">
		<tag k="name" v="Storemyr" />
>>>>>>> e1d4bc35ff8a6074a6f2e91616a996b547c36f15
		<tag k="natural" v="wetland" />
		<tag k="ssr:stedsnr" v="688978" />
	</node>
<<<<<<< HEAD
	<node lat="59.317802780637976" lon="9.469094448246523" id="-23369">
		<tag k="name" v="Kisesetermyr" />
=======
	<node id="-422869" lat="59.15823056" lon="9.71721943843">
		<tag k="name" v="Gårmyr" />
>>>>>>> e1d4bc35ff8a6074a6f2e91616a996b547c36f15
		<tag k="natural" v="wetland" />
		<tag k="ssr:stedsnr" v="693266" />
	</node>
<<<<<<< HEAD
	<node lat="59.24073333249735" lon="9.502147225765647" id="-23385">
		<tag k="name" v="Grunntjennmyr" />
=======
	<node id="-422865" lat="59.2248555596" lon="9.70701111738">
		<tag k="name" v="Den grønne myra" />
>>>>>>> e1d4bc35ff8a6074a6f2e91616a996b547c36f15
		<tag k="natural" v="wetland" />
		<tag k="ssr:stedsnr" v="571529" />
	</node>
<<<<<<< HEAD
	<node lat="59.17275832915677" lon="9.738355556574092" id="-23426">
		<tag k="name" v="Langemyra" />
=======
	<node id="-421368" lat="59.2397666626" lon="9.53882778568">
		<tag k="name" v="Langgangsmyra" />
		<tag k="natural" v="wetland" />
		<tag k="ssr:stedsnr" v="147253" />
	</node>
	<node id="-421325" lat="59.3519249966" lon="9.3950722165">
		<tag k="name" v="Nibbemyr" />
>>>>>>> e1d4bc35ff8a6074a6f2e91616a996b547c36f15
		<tag k="natural" v="wetland" />
		<tag k="ssr:stedsnr" v="574515" />
	</node>
<<<<<<< HEAD
	<node lat="59.07922500042551" lon="9.392750005944439" id="-23430">
		<tag k="name" v="Småkåsene" />
		<tag k="place" v="locality" />
		<tag k="ssr:stedsnr" v="695129" />
	</node>
	<node lat="59.125986113269036" lon="9.38168889587436" id="-23488">
		<tag k="name" v="Slåtten" />
=======
	<node id="-423882" lat="59.1716833367" lon="9.4640388915">
		<tag k="name" v="Bormyr" />
		<tag k="natural" v="wetland" />
		<tag k="ssr:stedsnr" v="754770" />
	</node>
	<node id="-421367" lat="59.2411805579" lon="9.53642222124">
		<tag k="name" v="Breigangsmyra" />
		<tag k="natural" v="wetland" />
		<tag k="ssr:stedsnr" v="147252" />
	</node>
	<node id="-423880" lat="59.3120055577" lon="9.56391667234">
		<tag k="name" v="Eriksrødmyr" />
>>>>>>> e1d4bc35ff8a6074a6f2e91616a996b547c36f15
		<tag k="natural" v="wetland" />
		<tag k="ssr:stedsnr" v="632698" />
	</node>
<<<<<<< HEAD
	<node lat="59.31386666438979" lon="9.579447221897214" id="-23494">
		<tag k="name" v="Flatmarken" />
		<tag k="place" v="locality" />
		<tag k="ssr:stedsnr" v="632738" />
	</node>
	<node lat="59.296852777192235" lon="9.429097216674625" id="-23502">
		<tag k="name" v="Elgtjennmyra" />
=======
	<node id="-421379" lat="59.1142111137" lon="9.37993333873">
		<tag k="name" v="Stutaumyra" />
		<tag k="natural" v="wetland" />
		<tag k="ssr:stedsnr" v="147604" />
	</node>
	<node id="-422851" lat="59.0825277768" lon="9.46143333854">
		<tag k="name" v="Toremyr" />
		<tag k="natural" v="wetland" />
		<tag k="ssr:stedsnr" v="87879" />
	</node>
	<node id="-421313" lat="59.2127611079" lon="9.33468889118">
		<tag k="name" v="Torvdammen" />
>>>>>>> e1d4bc35ff8a6074a6f2e91616a996b547c36f15
		<tag k="natural" v="wetland" />
		<tag k="ssr:stedsnr" v="633900" />
	</node>
<<<<<<< HEAD
	<node lat="59.11463610922747" lon="9.285455550026212" id="-23516">
		<tag k="name" v="Grønnmyr" />
		<tag k="natural" v="wetland" />
		<tag k="ssr:stedsnr" v="635890" />
	</node>
	<node lat="59.075427775858884" lon="9.454602773422742" id="-23551">
		<tag k="name" v="Langemyr" />
=======
	<node id="-423869" lat="59.2172472194" lon="9.37762777448">
		<tag k="name" v="Hestemyr" />
>>>>>>> e1d4bc35ff8a6074a6f2e91616a996b547c36f15
		<tag k="natural" v="wetland" />
		<tag k="ssr:stedsnr" v="693090" />
	</node>
<<<<<<< HEAD
	<node lat="59.14647221958321" lon="9.369980555639732" id="-23559">
		<tag k="name" v="Fjellmyrane" />
=======
	<node id="-423868" lat="59.2300472263" lon="9.51374722752">
		<tag k="name" v="Omdalsmyrane" />
>>>>>>> e1d4bc35ff8a6074a6f2e91616a996b547c36f15
		<tag k="natural" v="wetland" />
		<tag k="ssr:stedsnr" v="693708" />
	</node>
<<<<<<< HEAD
	<node lat="59.24840277483037" lon="9.537891669288385" id="-23568">
		<tag k="name" v="Trættarholet" />
		<tag k="place" v="locality" />
		<tag k="ssr:stedsnr" v="694278" />
	</node>
	<node lat="59.2144638862432" lon="9.365763880937065" id="-23569">
		<tag k="name" v="Høgebru" />
		<tag k="place" v="locality" />
		<tag k="ssr:stedsnr" v="694287" />
	</node>
	<node lat="59.09902778129533" lon="9.429455552787882" id="-23581">
		<tag k="name" v="Langemyr" />
=======
	<node id="-421819" lat="59.1324833331" lon="9.29974166228">
		<tag k="name" v="Dauhaugane" />
		<tag k="place" v="locality" />
		<tag k="ssr:stedsnr" v="514614" />
	</node>
	<node id="-423862" lat="59.2917583305" lon="9.51604443989">
		<tag k="name" v="Skuggedalsmyr" />
>>>>>>> e1d4bc35ff8a6074a6f2e91616a996b547c36f15
		<tag k="natural" v="wetland" />
		<tag k="ssr:stedsnr" v="695270" />
	</node>
<<<<<<< HEAD
	<node lat="59.182475001661174" lon="9.755480563968836" id="-23584">
=======
	<node id="-423859" lat="59.2965638895" lon="9.52499722161">
		<tag k="name" v="Askemyr" />
		<tag k="natural" v="wetland" />
		<tag k="ssr:stedsnr" v="754083" />
	</node>
	<node id="-421810" lat="59.0634722218" lon="9.38648332918">
		<tag k="name" v="Halvorsmyr" />
		<tag k="natural" v="wetland" />
		<tag k="ssr:stedsnr" v="513586" />
	</node>
	<node id="-421259" lat="59.24336389" lon="9.54415278025">
		<tag k="name" v="Lysane" />
		<tag k="place" v="locality" />
		<tag k="ssr:stedsnr" v="86262" />
	</node>
	<node id="-421294" lat="59.2542888907" lon="9.54038055198">
		<tag k="name" v="Bjørndalsmyr" />
		<tag k="natural" v="wetland" />
		<tag k="ssr:stedsnr" v="263997" />
	</node>
	<node id="-421803" lat="59.1509000005" lon="9.40718056074">
		<tag k="name" v="Vikleskogen" />
		<tag k="place" v="locality" />
		<tag k="ssr:stedsnr" v="513450" />
	</node>
	<node id="-422983" lat="59.1549611112" lon="9.49791111216">
		<tag k="name" v="Svens" />
		<tag k="place" v="locality" />
		<tag k="ssr:stedsnr" v="147378" />
	</node>
	<node id="-422310" lat="59.3072444451" lon="9.41241667291">
		<tag k="name" v="Tjærehjellmyra" />
		<tag k="natural" v="wetland" />
		<tag k="ssr:stedsnr" v="749815" />
	</node>
	<node id="-422821" lat="59.3234916635" lon="9.52742221519">
		<tag k="name" v="Kaldholt" />
		<tag k="place" v="locality" />
		<tag k="ssr:stedsnr" v="81783" />
	</node>
	<node id="-421276" lat="59.1225944461" lon="9.40909443963">
		<tag k="name" v="Skrikenes" />
		<tag k="place" v="locality" />
		<tag k="ssr:stedsnr" v="87175" />
	</node>
	<node id="-421787" lat="59.2226361079" lon="9.34855277307">
		<tag k="name" v="Springvassmyrane" />
		<tag k="natural" v="wetland" />
		<tag k="ssr:stedsnr" v="512338" />
	</node>
	<node id="-421786" lat="59.2141888852" lon="9.34602221593">
		<tag k="name" v="Bjelken" />
		<tag k="natural" v="wetland" />
		<tag k="ssr:stedsnr" v="512323" />
	</node>
	<node id="-423833" lat="59.1146361092" lon="9.28545555003">
		<tag k="name" v="Grønnmyr" />
		<tag k="natural" v="wetland" />
		<tag k="ssr:stedsnr" v="635890" />
	</node>
	<node id="-421271" lat="59.2347416694" lon="9.69124722882">
		<tag k="name" v="Bjønnemyr" />
		<tag k="natural" v="wetland" />
		<tag k="ssr:stedsnr" v="86947" />
	</node>
	<node id="-422804" lat="59.284644446" lon="9.51423056015">
		<tag k="name" v="Tømmermarka" />
		<tag k="place" v="locality" />
		<tag k="ssr:stedsnr" v="63696" />
	</node>
	<node id="-423315" lat="59.1858999981" lon="9.43477778189">
		<tag k="name" v="Oleskås" />
		<tag k="place" v="locality" />
		<tag k="ssr:stedsnr" v="330965" />
	</node>
	<node id="-423823" lat="59.2160916623" lon="9.70119444311">
		<tag k="name" v="Tverråmyra" />
		<tag k="natural" v="wetland" />
		<tag k="ssr:stedsnr" v="634945" />
	</node>
	<node id="-421262" lat="59.1353305576" lon="9.3614694429">
		<tag k="name" v="Klopmyr" />
		<tag k="natural" v="wetland" />
		<tag k="ssr:stedsnr" v="86711" />
	</node>
	<node id="-422284" lat="59.1824750017" lon="9.75548056397">
>>>>>>> e1d4bc35ff8a6074a6f2e91616a996b547c36f15
		<tag k="name" v="Flatamyra" />
		<tag k="natural" v="wetland" />
		<tag k="ssr:stedsnr" v="696006" />
	</node>
<<<<<<< HEAD
	<node lat="59.26931944383649" lon="9.63257221967175" id="-23613">
=======
	<node id="-423307" lat="59.3404944476" lon="9.37178055391">
		<tag k="name" v="Teimyr" />
		<tag k="natural" v="wetland" />
		<tag k="ssr:stedsnr" v="330660" />
	</node>
	<node id="-421377" lat="59.1158416659" lon="9.35761388793">
		<tag k="name" v="Dammyra" />
		<tag k="natural" v="wetland" />
		<tag k="ssr:stedsnr" v="147602" />
	</node>
	<node id="-423811" lat="59.2968527772" lon="9.42909721667">
		<tag k="name" v="Elgtjennmyra" />
		<tag k="natural" v="wetland" />
		<tag k="ssr:stedsnr" v="633900" />
	</node>
	<node id="-422270" lat="59.1464722196" lon="9.36998055564">
		<tag k="name" v="Fjellmyrane" />
		<tag k="natural" v="wetland" />
		<tag k="ssr:stedsnr" v="693708" />
	</node>
	<node id="-421757" lat="59.318247225" lon="9.57930000842">
		<tag k="name" v="Sverigmyr" />
		<tag k="natural" v="wetland" />
		<tag k="ssr:stedsnr" v="511734" />
	</node>
	<node id="-422264" lat="59.3178027806" lon="9.46909444825">
		<tag k="name" v="Kisesetermyr" />
		<tag k="natural" v="wetland" />
		<tag k="ssr:stedsnr" v="693266" />
	</node>
	<node id="-423287" lat="59.29981389" lon="9.39365833727">
		<tag k="name" v="Storemyr" />
		<tag k="natural" v="wetland" />
		<tag k="ssr:stedsnr" v="329662" />
	</node>
	<node id="-421750" lat="59.1367555538" lon="9.44908888578">
		<tag k="name" v="Bjorstad" />
		<tag k="place" v="locality" />
		<tag k="ssr:stedsnr" v="511351" />
	</node>
	<node id="-421237" lat="59.3214055547" lon="9.37057499621">
		<tag k="name" v="Hovdåsmyra" />
		<tag k="natural" v="wetland" />
		<tag k="ssr:stedsnr" v="245738" />
	</node>
	<node id="-422462" lat="59.1497777745" lon="9.35300000644">
		<tag k="name" v="Øyseter" />
		<tag k="natural" v="wetland" />
		<tag k="ssr:stedsnr" v="936679" />
	</node>
	<node id="-422257" lat="59.1050416703" lon="9.32201666238">
		<tag k="name" v="Nedre Mastemyr" />
		<tag k="natural" v="wetland" />
		<tag k="ssr:stedsnr" v="878935" />
	</node>
	<node id="-423792" lat="59.3138666644" lon="9.5794472219">
		<tag k="name" v="Flatmarken" />
		<tag k="place" v="locality" />
		<tag k="ssr:stedsnr" v="632738" />
	</node>
	<node id="-423787" lat="59.1259861133" lon="9.38168889587">
		<tag k="name" v="Slåtten" />
		<tag k="natural" v="wetland" />
		<tag k="ssr:stedsnr" v="632698" />
	</node>
	<node id="-421738" lat="59.2527972215" lon="9.46144999838">
		<tag k="name" v="Svennungsmyr" />
		<tag k="natural" v="wetland" />
		<tag k="ssr:stedsnr" v="506752" />
	</node>
	<node id="-421434" lat="59.087563891" lon="9.34301389614">
		<tag k="name" v="Østre Tangane" />
		<tag k="place" v="locality" />
		<tag k="ssr:stedsnr" v="210712" />
	</node>
	<node id="-423770" lat="59.2428083305" lon="9.47838055658">
		<tag k="name" v="Godalsmyra" />
		<tag k="natural" v="wetland" />
		<tag k="ssr:stedsnr" v="627782" />
	</node>
	<node id="-421721" lat="59.0844305563" lon="9.45261111627">
		<tag k="name" v="Tørrgranmyra" />
		<tag k="natural" v="wetland" />
		<tag k="ssr:stedsnr" v="390885" />
	</node>
	<node id="-422227" lat="59.1148138926" lon="9.41238888863">
		<tag k="name" v="Hestekåsa" />
		<tag k="place" v="locality" />
		<tag k="ssr:stedsnr" v="877207" />
	</node>
	<node id="-421307" lat="59.1147194406" lon="9.34813610378">
		<tag k="name" v="Årmyr" />
		<tag k="natural" v="wetland" />
		<tag k="ssr:stedsnr" v="268613" />
	</node>
	<node id="-421709" lat="59.3169083363" lon="9.35411666901">
		<tag k="name" v="Rossmyr" />
		<tag k="natural" v="wetland" />
		<tag k="ssr:stedsnr" v="389659" />
	</node>
	<node id="-421707" lat="59.3445611144" lon="9.33530278235">
		<tag k="name" v="Rolighetsmyr" />
		<tag k="natural" v="wetland" />
		<tag k="ssr:stedsnr" v="389513" />
	</node>
	<node id="-422283" lat="59.0990277813" lon="9.42945555279">
		<tag k="name" v="Langemyr" />
		<tag k="natural" v="wetland" />
		<tag k="ssr:stedsnr" v="695270" />
	</node>
	<node id="-422718" lat="59.2622527785" lon="9.48622222924">
		<tag k="name" v="Bjørkholt" />
		<tag k="place" v="locality" />
		<tag k="ssr:stedsnr" v="26866" />
	</node>
	<node id="-421692" lat="59.3436166625" lon="9.53049167071">
		<tag k="name" v="Hellermyra" />
		<tag k="natural" v="wetland" />
		<tag k="ssr:stedsnr" v="488847" />
	</node>
	<node id="-422202" lat="59.4487678847" lon="9.4436494254">
		<tag k="historic" v="shieling" />
		<tag k="name" v="Prestesætra" />
		<tag k="place" v="locality" />
		<tag k="ssr:stedsnr" v="731943" />
	</node>
	<node id="-421343" lat="59.1891638894" lon="9.72591389195">
		<tag k="name" v="Vossermarka" />
		<tag k="place" v="locality" />
		<tag k="ssr:stedsnr" v="271029" />
	</node>
	<node id="-422705" lat="59.3160611145" lon="9.40077499231">
		<tag k="name" v="Søndagsholet" />
		<tag k="place" v="locality" />
		<tag k="ssr:stedsnr" v="26217" />
	</node>
	<node id="-421715" lat="59.2141333297" lon="9.2789416741">
		<tag k="name" v="Svartufsmyra" />
		<tag k="natural" v="wetland" />
		<tag k="ssr:stedsnr" v="390359" />
	</node>
	<node id="-422700" lat="59.3149333341" lon="9.53512500419">
		<tag k="name" v="Eriksmyr" />
		<tag k="natural" v="wetland" />
		<tag k="ssr:stedsnr" v="26057" />
	</node>
	<node id="-423206" lat="59.2519722248" lon="9.53638055445">
		<tag k="name" v="Livesmyr" />
		<tag k="natural" v="wetland" />
		<tag k="ssr:stedsnr" v="305689" />
	</node>
	<node id="-422180" lat="59.0768916652" lon="9.3508972265">
		<tag k="name" v="Håvassleiken" />
		<tag k="place" v="locality" />
		<tag k="ssr:stedsnr" v="730797" />
	</node>
	<node id="-422690" lat="59.2789027739" lon="9.51400555339">
		<tag k="name" v="Tømmermannsbakkmyra" />
		<tag k="natural" v="wetland" />
		<tag k="ssr:stedsnr" v="25469" />
	</node>
	<node id="-422173" lat="59.2693194438" lon="9.63257221967">
>>>>>>> e1d4bc35ff8a6074a6f2e91616a996b547c36f15
		<tag k="name" v="Stakamyr" />
		<tag k="natural" v="wetland" />
		<tag k="ssr:stedsnr" v="730478" />
	</node>
<<<<<<< HEAD
=======
	<node id="-421660" lat="59.2516166706" lon="9.47316944895">
		<tag k="name" v="Underdalsmyrane" />
		<tag k="natural" v="wetland" />
		<tag k="ssr:stedsnr" v="487712" />
	</node>
	<node id="-422874" lat="59.1201999994" lon="9.31022222133">
		<tag k="name" v="Stålfjellmyrane" />
		<tag k="natural" v="wetland" />
		<tag k="ssr:stedsnr" v="89648" />
	</node>
	<node id="-421167" lat="59.1004555542" lon="9.41827777279">
		<tag k="name" v="Langmyr" />
		<tag k="natural" v="wetland" />
		<tag k="ssr:stedsnr" v="27215" />
	</node>
	<node id="-423699" lat="59.137719448" lon="9.28251389477">
		<tag k="name" v="Briskemyr" />
		<tag k="natural" v="wetland" />
		<tag k="ssr:stedsnr" v="574641" />
	</node>
	<node id="-423697" lat="59.135711114" lon="9.28894167502">
		<tag k="name" v="Hestemyr" />
		<tag k="natural" v="wetland" />
		<tag k="ssr:stedsnr" v="574632" />
	</node>
	<node id="-422160" lat="59.1107888928" lon="9.40104445208">
		<tag k="name" v="Solumskogen" />
		<tag k="place" v="locality" />
		<tag k="ssr:stedsnr" v="729801" />
	</node>
	<node id="-421643" lat="59.2157333351" lon="9.73002500785">
		<tag k="name" v="Fugleleikmyra" />
		<tag k="natural" v="wetland" />
		<tag k="ssr:stedsnr" v="332039" />
	</node>
	<node id="-422151" lat="59.1188888916" lon="9.28441388675">
		<tag k="name" v="Storemyr" />
		<tag k="natural" v="wetland" />
		<tag k="ssr:stedsnr" v="635571" />
	</node>
	<node id="-421638" lat="59.1224166646" lon="9.49663054772">
		<tag k="name" v="Kåsene" />
		<tag k="place" v="locality" />
		<tag k="ssr:stedsnr" v="331237" />
	</node>
	<node id="-422660" lat="59.2823972243" lon="9.51576945185">
		<tag k="name" v="Tømmermarkmyr" />
		<tag k="natural" v="wetland" />
		<tag k="ssr:stedsnr" v="2743" />
	</node>
	<node id="-421635" lat="59.0918972264" lon="9.43300833273">
		<tag k="name" v="Lyngmyr" />
		<tag k="natural" v="wetland" />
		<tag k="ssr:stedsnr" v="331103" />
	</node>
	<node id="-423165" lat="59.0971027802" lon="9.44546666353">
		<tag k="name" v="Roparkåsa" />
		<tag k="place" v="locality" />
		<tag k="ssr:stedsnr" v="209274" />
	</node>
	<node id="-423164" lat="59.1025611127" lon="9.42109999542">
		<tag k="name" v="Munkeholet" />
		<tag k="natural" v="wetland" />
		<tag k="ssr:stedsnr" v="209236" />
	</node>
	<node id="-422954" lat="59.277472223" lon="9.52043054774">
		<tag k="name" v="Raudmyr" />
		<tag k="natural" v="wetland" />
		<tag k="ssr:stedsnr" v="141734" />
	</node>
	<node id="-421626" lat="59.2983972187" lon="9.55411111797">
		<tag k="name" v="Lauvhagen" />
		<tag k="place" v="locality" />
		<tag k="ssr:stedsnr" v="329813" />
	</node>
	<node id="-423671" lat="59.1849611084" lon="9.3271361184">
		<tag k="name" v="Lange Tveitstulmyra" />
		<tag k="natural" v="wetland" />
		<tag k="ssr:stedsnr" v="572413" />
	</node>
	<node id="-424182" lat="59.191679369" lon="9.76159766913">
		<tag k="name" v="Haukeråsen" />
		<tag k="place" v="locality" />
		<tag k="ssr:stedsnr" v="980134" />
	</node>
	<node id="-424181" lat="59.1959998903" lon="9.74761544436">
		<tag k="name" v="Låven" />
		<tag k="place" v="locality" />
		<tag k="ssr:stedsnr" v="980132" />
	</node>
	<node id="-421639" lat="59.084341669" lon="9.33547777141">
		<tag k="name" v="Vestre Tangane" />
		<tag k="place" v="locality" />
		<tag k="ssr:stedsnr" v="331704" />
	</node>
	<node id="-423155" lat="59.1588861132" lon="9.58234999946">
		<tag k="name" v="Leikaren" />
		<tag k="place" v="locality" />
		<tag k="ssr:stedsnr" v="208883" />
	</node>
	<node id="-424178" lat="59.2193666646" lon="9.66624166245">
		<tag k="name" v="Rustaden" />
		<tag k="place" v="locality" />
		<tag k="ssr:stedsnr" v="970357" />
	</node>
	<node id="-423150" lat="59.2906499994" lon="9.55611389536">
		<tag k="name" v="Oterholtskogen" />
		<tag k="place" v="locality" />
		<tag k="ssr:stedsnr" v="208845" />
	</node>
	<node id="-421610" lat="59.1939527773" lon="9.63537778012">
		<tag k="name" v="Brattsbergskogen" />
		<tag k="place" v="locality" />
		<tag k="ssr:stedsnr" v="473381" />
	</node>
	<node id="-423144" lat="59.1092527757" lon="9.38488610704">
		<tag k="name" v="Neverstokkmyrane" />
		<tag k="natural" v="wetland" />
		<tag k="ssr:stedsnr" v="208654" />
	</node>
	<node id="-421841" lat="59.3949305572" lon="9.60317499911">
		<tag k="name" v="Nordsjømyra" />
		<tag k="natural" v="wetland" />
		<tag k="ssr:stedsnr" v="427335" />
	</node>
	<node id="-421158" lat="59.2084750009" lon="9.35971110515">
		<tag k="name" v="Orsjømyrane" />
		<tag k="natural" v="wetland" />
		<tag k="ssr:stedsnr" v="26308" />
	</node>
	<node id="-423136" lat="59.186258337" lon="9.29982499358">
		<tag k="name" v="Stulsmyr" />
		<tag k="natural" v="wetland" />
		<tag k="ssr:stedsnr" v="208387" />
	</node>
	<node id="-423135" lat="59.1849888881" lon="9.32304445069">
		<tag k="name" v="Runde Tveitstulmyr" />
		<tag k="natural" v="wetland" />
		<tag k="ssr:stedsnr" v="208386" />
	</node>
	<node id="-423644" lat="59.2407333325" lon="9.50214722577">
		<tag k="name" v="Grunntjennmyr" />
		<tag k="natural" v="wetland" />
		<tag k="ssr:stedsnr" v="571529" />
	</node>
	<node id="-424155" lat="59.3088611111" lon="9.38451110263">
		<tag k="name" v="Moltemyr" />
		<tag k="natural" v="wetland" />
		<tag k="ssr:stedsnr" v="875668" />
	</node>
	<node id="-424154" lat="59.3064888905" lon="9.37290833231">
		<tag k="name" v="Graverskog" />
		<tag k="place" v="locality" />
		<tag k="ssr:stedsnr" v="875666" />
	</node>
	<node id="-421156" lat="59.1918111075" lon="9.40146944272">
		<tag k="name" v="Potetholet" />
		<tag k="place" v="locality" />
		<tag k="ssr:stedsnr" v="26023" />
	</node>
	<node id="-421588" lat="59.0782944479" lon="9.34706388302">
		<tag k="name" v="Ørknane" />
		<tag k="natural" v="wetland" />
		<tag k="ssr:stedsnr" v="271663" />
	</node>
	<node id="-421584" lat="59.1031305554" lon="9.4033472168">
		<tag k="name" v="Stakemyr" />
		<tag k="natural" v="wetland" />
		<tag k="ssr:stedsnr" v="270225" />
	</node>
	<node id="-423119" lat="59.2101944406" lon="9.28923888639">
		<tag k="name" v="Diplemyr" />
		<tag k="natural" v="wetland" />
		<tag k="ssr:stedsnr" v="207809" />
	</node>
	<node id="-421154" lat="59.1992222203" lon="9.32903333961">
		<tag k="name" v="Veiåjordet" />
		<tag k="place" v="locality" />
		<tag k="ssr:stedsnr" v="25404" />
	</node>
	<node id="-421578" lat="59.2934805568" lon="9.43067778135">
		<tag k="name" v="Elgtjennmarka" />
		<tag k="place" v="locality" />
		<tag k="ssr:stedsnr" v="269873" />
	</node>
	<node id="-423625" lat="59.4376027745" lon="9.51156666855">
		<tag k="name" v="Festningsbrumyr" />
		<tag k="natural" v="wetland" />
		<tag k="ssr:stedsnr" v="566785" />
	</node>
	<node id="-422088" lat="59.1727583292" lon="9.73835555657">
		<tag k="name" v="Langemyra" />
		<tag k="natural" v="wetland" />
		<tag k="ssr:stedsnr" v="574515" />
	</node>
	<node id="-424133" lat="59.3627416699" lon="9.63792500621">
		<tag k="loc_name" v="Rundemyr" />
		<tag k="name" v="Rundemyra" />
		<tag k="natural" v="wetland" />
		<tag k="ssr:stedsnr" v="852267" />
	</node>
	<node id="-423107" lat="59.4008222262" lon="9.50220556314">
		<tag k="name" v="Kleivdalsmyr" />
		<tag k="natural" v="wetland" />
		<tag k="ssr:stedsnr" v="203775" />
	</node>
	<node id="-423618" lat="59.4334361154" lon="9.47481666944">
		<tag k="name" v="Lauvsetermyra" />
		<tag k="natural" v="wetland" />
		<tag k="ssr:stedsnr" v="548972" />
	</node>
	<node id="-422080" lat="59.0812583291" lon="9.40369445267">
		<tag k="name" v="Svimyr" />
		<tag k="natural" v="wetland" />
		<tag k="ssr:stedsnr" v="573105" />
	</node>
	<node id="-423103" lat="59.1035277759" lon="9.45788332685">
		<tag k="name" v="Rundemyra" />
		<tag k="natural" v="wetland" />
		<tag k="ssr:stedsnr" v="209057" />
	</node>
	<node id="-422078" lat="59.291352781" lon="9.44440833514">
		<tag k="name" v="Samlingsmyr" />
		<tag k="natural" v="wetland" />
		<tag k="ssr:stedsnr" v="572873" />
	</node>
	<node id="-423101" lat="59.2972611123" lon="9.40802776967">
		<tag k="name" v="Jonstjernmyra" />
		<tag k="natural" v="wetland" />
		<tag k="ssr:stedsnr" v="202769" />
	</node>
	<node id="-422588" lat="59.2357499992" lon="9.71700555724">
		<tag k="name" v="Sandmyrane" />
		<tag k="natural" v="wetland" />
		<tag k="ssr:stedsnr" v="939070" />
	</node>
	<node id="-421561" lat="59.1932055597" lon="9.37657222777">
		<tag k="name" v="Dalsmyra" />
		<tag k="natural" v="wetland" />
		<tag k="ssr:stedsnr" v="268464" />
	</node>
	<node id="-421558" lat="59.3159611107" lon="9.47367222326">
		<tag k="name" v="Svarvarmyr" />
		<tag k="natural" v="wetland" />
		<tag k="ssr:stedsnr" v="268210" />
	</node>
	<node id="-422068" lat="59.3265083303" lon="9.55939721486">
		<tag k="name" v="Meiseholtet" />
		<tag k="place" v="locality" />
		<tag k="ssr:stedsnr" v="571740" />
	</node>
	<node id="-421555" lat="59.206591668" lon="9.3351472146">
		<tag k="name" v="Raumyr" />
		<tag k="natural" v="wetland" />
		<tag k="ssr:stedsnr" v="267618" />
	</node>
	<node id="-421758" lat="59.3200166641" lon="9.57233611094">
		<tag k="name" v="Moltemyr" />
		<tag k="natural" v="wetland" />
		<tag k="ssr:stedsnr" v="511751" />
	</node>
	<node id="-421320" lat="59.1557638854" lon="9.46434167135">
		<tag k="name" v="Muren" />
		<tag k="place" v="locality" />
		<tag k="ssr:stedsnr" v="269282" />
	</node>
	<node id="-422573" lat="59.112827781" lon="9.35134722169">
		<tag k="name" v="Skærkemyr" />
		<tag k="natural" v="wetland" />
		<tag k="ssr:stedsnr" v="936607" />
	</node>
	<node id="-421547" lat="59.092988885" lon="9.32758610383">
		<tag k="name" v="Tangane" />
		<tag k="place" v="locality" />
		<tag k="ssr:stedsnr" v="453826" />
	</node>
	<node id="-421745" lat="59.1888055559" lon="9.30911389475">
		<tag k="name" v="Myrhagan" />
		<tag k="natural" v="wetland" />
		<tag k="ssr:stedsnr" v="510380" />
	</node>
	<node id="-421267" lat="59.2083249964" lon="9.29475556289">
		<tag k="name" v="Rundemyra" />
		<tag k="natural" v="wetland" />
		<tag k="ssr:stedsnr" v="86816" />
	</node>
	<node id="-422256" lat="59.1078472245" lon="9.32265000181">
		<tag k="name" v="Øvre Mastemyr" />
		<tag k="natural" v="wetland" />
		<tag k="ssr:stedsnr" v="878934" />
	</node>
	<node id="-422555" lat="59.0791305527" lon="9.41299723007">
		<tag k="name" v="Orekåsmyra" />
		<tag k="natural" v="wetland" />
		<tag k="ssr:stedsnr" v="877108" />
	</node>
	<node id="-422554" lat="59.0790361089" lon="9.40790278575">
		<tag k="name" v="Hustvedtplassen" />
		<tag k="place" v="locality" />
		<tag k="ssr:stedsnr" v="877107" />
	</node>
	<node id="-421528" lat="59.0911833373" lon="9.40327222779">
		<tag k="name" v="Lauvsmyr" />
		<tag k="natural" v="wetland" />
		<tag k="ssr:stedsnr" v="452095" />
	</node>
	<node id="-422036" lat="59.0792250004" lon="9.39275000594">
		<tag k="name" v="Småkåsene" />
		<tag k="place" v="locality" />
		<tag k="ssr:stedsnr" v="695129" />
	</node>
	<node id="-421523" lat="59.2982805532" lon="9.41860834204">
		<tag k="name" v="Skabbmyrane" />
		<tag k="natural" v="wetland" />
		<tag k="ssr:stedsnr" v="451884" />
	</node>
	<node id="-423619" lat="59.4350777786" lon="9.59011667015">
		<tag k="name" v="Fugleleikmyra" />
		<tag k="natural" v="wetland" />
		<tag k="ssr:stedsnr" v="548978" />
	</node>
	<node id="-422029" lat="59.2144638862" lon="9.36576388094">
		<tag k="name" v="Høgebru" />
		<tag k="place" v="locality" />
		<tag k="ssr:stedsnr" v="694287" />
	</node>
	<node id="-422028" lat="59.2484027748" lon="9.53789166929">
		<tag k="name" v="Trættarholet" />
		<tag k="place" v="locality" />
		<tag k="ssr:stedsnr" v="694278" />
	</node>
	<node id="-421511" lat="59.1439944411" lon="9.47622222709">
		<tag k="name" v="Rønningen" />
		<tag k="place" v="locality" />
		<tag k="ssr:stedsnr" v="451380" />
	</node>
	<node id="-424070" lat="59.1131861103" lon="9.42162776979">
		<tag k="name" v="Nepekåsa" />
		<tag k="place" v="locality" />
		<tag k="ssr:stedsnr" v="816214" />
	</node>
	<node id="-424065" lat="59.0870916705" lon="9.39598332799">
		<tag k="name" v="Bjørkemyr" />
		<tag k="natural" v="wetland" />
		<tag k="ssr:stedsnr" v="816133" />
	</node>
	<node id="-424064" lat="59.08758056" lon="9.3918111047">
		<tag k="name" v="Springvassmyr" />
		<tag k="natural" v="wetland" />
		<tag k="ssr:stedsnr" v="816132" />
	</node>
	<node id="-421499" lat="59.1587972179" lon="9.57439999409">
		<tag k="name" v="Storemyr" />
		<tag k="natural" v="wetland" />
		<tag k="ssr:stedsnr" v="450873" />
	</node>
	<node id="-424058" lat="59.2671999976" lon="9.43596389477">
		<tag k="name" v="Lille Haugmyr" />
		<tag k="natural" v="wetland" />
		<tag k="ssr:stedsnr" v="815552" />
	</node>
	<node id="-424057" lat="59.2650250038" lon="9.44057778198">
		<tag k="name" v="Store Haugmyr" />
		<tag k="natural" v="wetland" />
		<tag k="ssr:stedsnr" v="815545" />
	</node>
	<node id="-424056" lat="59.2594805554" lon="9.4412138965">
		<tag k="name" v="Geitebumyr" />
		<tag k="natural" v="wetland" />
		<tag k="ssr:stedsnr" v="815542" />
	</node>
	<node id="-421493" lat="59.1937555512" lon="9.34471944334">
		<tag k="name" v="Svendstjenn" />
		<tag k="natural" v="wetland" />
		<tag k="ssr:stedsnr" v="450467" />
	</node>
	<node id="-423022" lat="59.1007055583" lon="9.27317222076">
		<tag k="name" v="Mjåvannsmarka" />
		<tag k="place" v="locality" />
		<tag k="ssr:stedsnr" v="150867" />
	</node>
	<node id="-421995" lat="59.0754277759" lon="9.45460277342">
		<tag k="name" v="Langemyr" />
		<tag k="natural" v="wetland" />
		<tag k="ssr:stedsnr" v="693090" />
	</node>
	<node id="-421962" lat="59.1617111091" lon="9.34146666027">
		<tag k="name" v="Husmyr" />
		<tag k="natural" v="wetland" />
		<tag k="ssr:stedsnr" v="510668" />
	</node>
	<node id="-423013" lat="59.1575805597" lon="9.65257776945">
		<tag k="name" v="Borgestadjordet" />
		<tag k="place" v="locality" />
		<tag k="ssr:stedsnr" v="149792" />
	</node>
	<node id="-422331" lat="59.177836113" lon="9.56943889749">
		<tag k="name" v="Skyggestein" />
		<tag k="natural" v="stone" />
		<tag k="ssr:stedsnr" v="762544" />
	</node>
	<node id="-424032" lat="59.1313444482" lon="9.35574722581">
		<tag k="name" v="Dansamyr" />
		<tag k="natural" v="wetland" />
		<tag k="ssr:stedsnr" v="814724" />
	</node>
	<node id="-423518" lat="59.4178972227" lon="9.54495832895">
		<tag k="name" v="Diplemyr" />
		<tag k="natural" v="wetland" />
		<tag k="ssr:stedsnr" v="427861" />
	</node>
	<node id="-423517" lat="59.3252583315" lon="9.30858888659">
		<tag k="name" v="Kjosvikmyra" />
		<tag k="natural" v="wetland" />
		<tag k="ssr:stedsnr" v="427841" />
	</node>
	<node id="-422492" lat="59.0861055544" lon="9.34946388415">
		<tag k="name" v="Granlien" />
		<tag k="place" v="locality" />
		<tag k="ssr:stedsnr" v="938689" />
	</node>
	<node id="-421391" lat="59.1179000001" lon="9.49049444009">
		<tag k="name" v="Bolvikliane" />
		<tag k="place" v="locality" />
		<tag k="ssr:stedsnr" v="148253" />
	</node>
	<node id="-423000" lat="59.1758166638" lon="9.57104722959">
		<tag k="landuse" v="quarry" />
		<tag k="name" v="Sandtak" />
		<tag k="ssr:stedsnr" v="147927" />
	</node>
	<node id="-422999" lat="59.0954027822" lon="9.39388888432">
		<tag k="name" v="Den låge myra" />
		<tag k="natural" v="wetland" />
		<tag k="ssr:stedsnr" v="148096" />
	</node>
	<node id="-422486" lat="59.1087055511" lon="9.40216943939">
		<tag k="name" v="Melkemyr" />
		<tag k="natural" v="wetland" />
		<tag k="ssr:stedsnr" v="938190" />
	</node>
	<node id="-422484" lat="59.1082694413" lon="9.41566666105">
		<tag k="name" v="Storemyr" />
		<tag k="natural" v="wetland" />
		<tag k="ssr:stedsnr" v="938187" />
	</node>
	<node id="-422480" lat="59.0901250003" lon="9.40519722915">
		<tag k="name" v="Krokmyr" />
		<tag k="natural" v="wetland" />
		<tag k="ssr:stedsnr" v="938093" />
	</node>
	<node id="-421965" lat="59.1831527772" lon="9.40666945071">
		<tag k="name" v="Rosmyr" />
		<tag k="natural" v="wetland" />
		<tag k="ssr:stedsnr" v="512029" />
	</node>
	<node id="-424010" lat="59.185505553" lon="9.7588583281">
		<tag k="name" v="Donsmyr" />
		<tag k="natural" v="wetland" />
		<tag k="ssr:stedsnr" v="809920" />
	</node>
	<node id="-421961" lat="59.202291667" lon="9.35225832578">
		<tag k="name" v="Storemyr" />
		<tag k="natural" v="wetland" />
		<tag k="ssr:stedsnr" v="510458" />
	</node>
	<node id="-424007" lat="59.2960194406" lon="9.51837777562">
		<tag k="name" v="Sagvegmyr" />
		<tag k="natural" v="wetland" />
		<tag k="ssr:stedsnr" v="809766" />
	</node>
	<node id="-422470" lat="59.1296888894" lon="9.58728333273">
		<tag k="name" v="Stormyr" />
		<tag k="natural" v="wetland" />
		<tag k="ssr:stedsnr" v="936977" />
	</node>
	<node id="-422981" lat="59.2430999988" lon="9.50751666587">
		<tag k="name" v="Droplemyra" />
		<tag k="natural" v="wetland" />
		<tag k="ssr:stedsnr" v="147279" />
	</node>
	<node id="-422980" lat="59.3149416677" lon="9.42351943674">
		<tag k="name" v="Raumyr" />
		<tag k="natural" v="wetland" />
		<tag k="ssr:stedsnr" v="147193" />
	</node>
	<node id="-423162" lat="59.0510555525" lon="9.4096666683">
		<tag k="name" v="Lingårdsmyra" />
		<tag k="natural" v="wetland" />
		<tag k="ssr:stedsnr" v="208988" />
	</node>
	<node id="-422978" lat="59.127508336" lon="9.4438388802">
		<tag k="name" v="Sauholsmyr" />
		<tag k="natural" v="wetland" />
		<tag k="ssr:stedsnr" v="147173" />
	</node>
	<node id="-421984" lat="59.2305027752" lon="9.70258610809">
		<tag k="name" v="Vealøsmyra" />
		<tag k="natural" v="wetland" />
		<tag k="ssr:stedsnr" v="688978" />
	</node>
	<node id="-423998" lat="59.2707055575" lon="9.51494444736">
		<tag k="name" v="Den lange myra" />
		<tag k="natural" v="wetland" />
		<tag k="ssr:stedsnr" v="791645" />
	</node>
	<node id="-422970" lat="59.3379499994" lon="9.33337778323">
		<tag k="name" v="Blaksmyr" />
		<tag k="natural" v="wetland" />
		<tag k="ssr:stedsnr" v="146485" />
	</node>
	<node id="-421938" lat="59.3324972184" lon="9.29419443964">
		<tag k="alt_name" v="Flåtemyrane" />
		<tag k="name" v="Flottemyrane" />
		<tag k="natural" v="wetland" />
		<tag k="ssr:stedsnr" v="670841" />
	</node>
	<node id="-421299" lat="59.3239138849" lon="9.51203055366">
		<tag k="name" v="Holka" />
		<tag k="natural" v="wetland" />
		<tag k="ssr:stedsnr" v="268187" />
	</node>
	<node id="-422960" lat="59.2517499994" lon="9.66514167538">
		<tag k="name" v="Vegmyrane" />
		<tag k="natural" v="wetland" />
		<tag k="ssr:stedsnr" v="141929" />
	</node>
	<node id="-421384" lat="59.1641083328" lon="9.58016666517">
		<tag k="name" v="Langemyra" />
		<tag k="natural" v="wetland" />
		<tag k="old_name" v="Lamgemyr" />
		<tag k="ssr:stedsnr" v="147911" />
	</node>
	<node id="-422956" lat="59.2493111149" lon="9.48570278241">
		<tag k="name" v="Blåmyrane" />
		<tag k="natural" v="wetland" />
		<tag k="ssr:stedsnr" v="141740" />
	</node>
	<node id="-423466" lat="59.0888194414" lon="9.41726389004">
		<tag k="name" v="Rødmyr" />
		<tag k="natural" v="wetland" />
		<tag k="ssr:stedsnr" v="392114" />
	</node>
	<node id="-422953" lat="59.2782833321" lon="9.4338805623">
		<tag k="name" v="Halvfarsmyr" />
		<tag k="natural" v="wetland" />
		<tag k="ssr:stedsnr" v="141725" />
	</node>
	<node id="-422439" lat="59.1634944443" lon="9.36989445153">
		<tag k="name" v="Jonskås" />
		<tag k="place" v="locality" />
		<tag k="ssr:stedsnr" v="935650" />
	</node>
	<node id="-421412" lat="59.4561055527" lon="9.451005557">
		<tag k="name" v="Brennemyra" />
		<tag k="natural" v="wetland" />
		<tag k="ssr:stedsnr" v="184007" />
	</node>
	<node id="-422405" lat="59.2189833346" lon="9.40853611765">
		<tag k="name" v="Vidda" />
		<tag k="place" v="locality" />
		<tag k="ssr:stedsnr" v="815216" />
	</node>
	<node id="-423453" lat="59.2937972181" lon="9.39500556331">
		<tag k="name" v="Haraldkås" />
		<tag k="place" v="locality" />
		<tag k="ssr:stedsnr" v="390694" />
	</node>
	<node id="-422425" lat="59.0877805564" lon="9.40324166972">
		<tag k="name" v="Stomyr" />
		<tag k="natural" v="wetland" />
		<tag k="ssr:stedsnr" v="817112" />
	</node>
	<node id="-423448" lat="59.2733805551" lon="9.49200000659">
		<tag k="name" v="Preberkollmyr" />
		<tag k="natural" v="wetland" />
		<tag k="ssr:stedsnr" v="390753" />
	</node>
	<node id="-423443" lat="59.3241888903" lon="9.41635000266">
		<tag k="name" v="Brente" />
		<tag k="place" v="locality" />
		<tag k="ssr:stedsnr" v="390194" />
	</node>
	<node id="-422998" lat="59.272938885" lon="9.44896111706">
		<tag k="name" v="Storemyr" />
		<tag k="natural" v="wetland" />
		<tag k="ssr:stedsnr" v="147973" />
	</node>
	<node id="-424195" lat="59.1323955783" lon="9.5078654171">
		<tag k="name" v="Grøtviken" />
		<tag k="place" v="locality" />
		<tag k="ssr:stedsnr" v="980201" />
	</node>
	<node id="-423440" lat="59.2233111139" lon="9.35177500377">
		<tag k="name" v="Tjønnkåsane" />
		<tag k="place" v="locality" />
		<tag k="ssr:stedsnr" v="390297" />
	</node>
	<node id="-424024" lat="59.1997750039" lon="9.33335555982">
		<tag k="name" v="Arnesmyrer" />
		<tag k="natural" v="wetland" />
		<tag k="ssr:stedsnr" v="814438" />
	</node>
	<node id="-421390" lat="59.0822805554" lon="9.4153416647">
		<tag k="name" v="Kasmyr" />
		<tag k="natural" v="wetland" />
		<tag k="ssr:stedsnr" v="148112" />
	</node>
	<node id="-423437" lat="59.3079722223" lon="9.56672221705">
		<tag k="name" v="Moltemyr" />
		<tag k="natural" v="wetland" />
		<tag k="ssr:stedsnr" v="389833" />
	</node>
	<node id="-422412" lat="59.2756527736" lon="9.52524722913">
		<tag k="name" v="Gromstulskogen" />
		<tag k="place" v="locality" />
		<tag k="ssr:stedsnr" v="815468" />
	</node>
	<node id="-421387" lat="59.0809083296" lon="9.46401665831">
		<tag k="name" v="Toremyrkollen" />
		<tag k="natural" v="wetland" />
		<tag k="ssr:stedsnr" v="147864" />
	</node>
	<node id="-423944" lat="59.1354166667" lon="9.3462361161">
		<tag k="name" v="Moltemyr" />
		<tag k="natural" v="wetland" />
		<tag k="ssr:stedsnr" v="875697" />
	</node>
	<node id="-423425" lat="59.1955333321" lon="9.30486944966">
		<tag k="name" v="Snømyr" />
		<tag k="natural" v="wetland" />
		<tag k="ssr:stedsnr" v="389422" />
	</node>
	<node id="-422404" lat="59.3089499962" lon="9.53446944895">
		<tag k="name" v="Liajordet" />
		<tag k="place" v="locality" />
		<tag k="ssr:stedsnr" v="815128" />
	</node>
	<node id="-422403" lat="59.27055" lon="9.61873055963">
		<tag k="name" v="Ramsmyr" />
		<tag k="natural" v="wetland" />
		<tag k="ssr:stedsnr" v="814753" />
	</node>
	<node id="-423426" lat="59.1113305563" lon="9.33901667143">
		<tag k="name" v="Langgangsmyrane" />
		<tag k="natural" v="wetland" />
		<tag k="ssr:stedsnr" v="389628" />
	</node>
	<node id="-423937" lat="59.2258444468" lon="9.71882222239">
		<tag k="name" v="Vealøsmyra" />
		<tag k="natural" v="wetland" />
		<tag k="ssr:stedsnr" v="757060" />
	</node>
>>>>>>> e1d4bc35ff8a6074a6f2e91616a996b547c36f15
</osm>
