<?xml version="1.0" encoding="UTF-8"?>
<osm version="0.6" generator="osmapis">
	<node lat="59.21226944330507" lon="9.463052785989154" id="-46608">
		<tag k="name" v="Rønningskottet" />
		<tag k="place" v="locality" />
		<tag k="ssr:stedsnr" v="26118" />
	</node>
	<node lat="59.17449166758454" lon="9.615036105744299" id="-46625">
		<tag k="highway" v="bus_stop" />
		<tag k="name" v="Kjørbekk" />
		<tag k="ssr:stedsnr" v="234553" />
	</node>
	<node lat="59.272263888952395" lon="9.561561114587018" id="-46638">
		<tag k="bridge" v="yes" />
		<tag k="layer" v="1" />
		<tag k="name" v="Hammaren" />
		<tag k="ssr:stedsnr" v="46716" />
	</node>
	<node lat="59.1883694428704" lon="9.626263882892994" id="-46640">
		<tag k="name" v="Eikonrød" />
		<tag k="railway" v="station" />
		<tag k="ssr:stedsnr" v="62712" />
		<tag k="train" v="yes" />
	</node>
	<node lat="59.21120000043074" lon="9.520411115127253" id="-46712">
		<tag k="name" v="Løveid sluser" />
		<tag k="ssr:stedsnr" v="86626" />
		<tag k="waterway" v="lock_gate" />
	</node>
	<node lat="59.15026944475207" lon="9.384088880152074" id="-46714">
		<tag k="bridge" v="yes" />
		<tag k="layer" v="1" />
		<tag k="name" v="Isbergbru" />
		<tag k="ssr:stedsnr" v="86676" />
	</node>
	<node lat="59.205336106935604" lon="9.64875555486304" id="-46720">
		<tag k="bridge" v="yes" />
		<tag k="layer" v="1" />
		<tag k="name" v="Lillebru" />
		<tag k="ssr:stedsnr" v="87125" />
	</node>
	<node lat="59.162027776546495" lon="9.656736114586455" id="-46760">
		<tag k="bridge" v="yes" />
		<tag k="layer" v="1" />
		<tag k="name" v="Åkre" />
		<tag k="ssr:stedsnr" v="107702" />
	</node>
	<node lat="59.21706389091279" lon="9.631805553050647" id="-46761">
		<tag k="bridge" v="yes" />
		<tag k="layer" v="1" />
		<tag k="name" v="Leirkup" />
		<tag k="ssr:stedsnr" v="107708" />
	</node>
	<node lat="59.12192778030139" lon="9.38145554739052" id="-46762">
		<tag k="bridge" v="yes" />
		<tag k="layer" v="1" />
		<tag k="name" v="Dalane" />
		<tag k="ssr:stedsnr" v="107698" />
	</node>
	<node lat="59.26996944580651" lon="9.560713885661855" id="-46763">
		<tag k="bridge" v="yes" />
		<tag k="layer" v="1" />
		<tag k="name" v="Ås" />
		<tag k="ssr:stedsnr" v="107701" />
	</node>
	<node lat="59.20722778115995" lon="9.598988885029055" id="-46765">
		<tag k="highway" v="bus_stop" />
		<tag k="name" v="Lundedalen" />
		<tag k="ssr:stedsnr" v="114530" />
	</node>
	<node lat="59.21608610713495" lon="9.534441673856966" id="-46831">
		<tag k="highway" v="path" />
		<tag k="name" v="Kleiva" />
		<tag k="ssr:stedsnr" v="147718" />
	</node>
	<node lat="59.18767499892498" lon="9.600897228165374" id="-46850">
		<tag k="bridge" v="yes" />
		<tag k="layer" v="1" />
		<tag k="name" v="Klosterskogen" />
		<tag k="ssr:stedsnr" v="168657" />
	</node>
	<node lat="59.19300833443841" lon="9.409508338502109" id="-46851">
		<tag k="bridge" v="yes" />
		<tag k="layer" v="1" />
		<tag k="name" v="Krossen" />
		<tag k="ssr:stedsnr" v="168675" />
	</node>
	<node lat="59.19204721896624" lon="9.588377781063992" id="-46852">
		<tag k="highway" v="bus_stop" />
		<tag k="name" v="Moflata" />
		<tag k="ssr:stedsnr" v="173070" />
	</node>
	<node lat="59.200572224953625" lon="9.618066670030741" id="-46877">
		<tag k="name" v="Follestad" />
		<tag k="railway" v="station" />
		<tag k="ssr:stedsnr" v="184692" />
		<tag k="train" v="yes" />
	</node>
	<node lat="59.20760277856877" lon="9.305769443614668" id="-46943">
		<tag k="highway" v="path" />
		<tag k="name" v="Rauskot" />
		<tag k="ssr:stedsnr" v="267657" />
	</node>
	<node lat="59.2994722254705" lon="9.55919444651067" id="-47049">
		<tag k="bridge" v="yes" />
		<tag k="layer" v="1" />
		<tag k="name" v="Mo" />
		<tag k="ssr:stedsnr" v="228734" />
	</node>
	<node lat="59.218677775690495" lon="9.603166661876967" id="-47051">
		<tag k="highway" v="bus_stop" />
		<tag k="name" v="Skien stasjon" />
		<tag k="ssr:stedsnr" v="234106" />
	</node>
	<node lat="59.19807222344443" lon="9.619188887087404" id="-47055">
		<tag k="highway" v="bus_stop" />
		<tag k="name" v="Tilja" />
		<tag k="ssr:stedsnr" v="234438" />
	</node>
	<node lat="59.210208336264934" lon="9.577341660059155" id="-47060">
		<tag k="highway" v="bus_stop" />
		<tag k="name" v="Strømdal" />
		<tag k="ssr:stedsnr" v="235563" />
	</node>
	<node lat="59.25487222435186" lon="9.56463889301605" id="-47216">
		<tag k="bridge" v="yes" />
		<tag k="layer" v="1" />
		<tag k="name" v="Hoppestad" />
		<tag k="ssr:stedsnr" v="289725" />
	</node>
	<node lat="59.3005583372819" lon="9.485141668012622" id="-47237">
		<tag k="name" v="Nisterud" />
		<tag k="railway" v="station" />
		<tag k="ssr:stedsnr" v="305815" />
		<tag k="train" v="yes" />
	</node>
	<node lat="59.261819441938606" lon="9.544052778483335" id="-47311">
		<tag k="bridge" v="yes" />
		<tag k="layer" v="1" />
		<tag k="name" v="Lia" />
		<tag k="ssr:stedsnr" v="471688" />
	</node>
	<node lat="59.23737222468533" lon="9.612902775016455" id="-47312">
		<tag k="bridge" v="yes" />
		<tag k="layer" v="1" />
		<tag k="name" v="Sem store" />
		<tag k="ssr:stedsnr" v="471694" />
	</node>
	<node lat="59.2299833360561" lon="9.632000008724653" id="-47317">
		<tag k="bridge" v="yes" />
		<tag k="layer" v="1" />
		<tag k="name" v="Mustveit" />
		<tag k="ssr:stedsnr" v="350668" />
	</node>
	<node lat="59.18448888599975" lon="9.568972229066185" id="-47320">
		<tag k="aeroway" v="aerodrome" />
		<tag k="name" v="Skien lufthavn, Geiteryggen" />
		<tag k="old_name" v="Geitryggen;Geiteryggen" />
		<tag k="ssr:stedsnr" v="359000" />
	</node>
	<node lat="59.19439999755241" lon="9.595719443216367" id="-47321">
		<tag k="highway" v="bus_stop" />
		<tag k="name" v="Sykehuset" />
		<tag k="ssr:stedsnr" v="476186" />
	</node>
	<node lat="59.21586666857773" lon="9.567122216274738" id="-47323">
		<tag k="highway" v="bus_stop" />
		<tag k="name" v="Gulsetsenteret" />
		<tag k="ssr:stedsnr" v="477332" />
	</node>
	<node lat="59.122316668058254" lon="9.562516675298165" id="-47348">
		<tag k="man_made" v="quay" />
		<tag k="name" v="Skien havneterminal" />
		<tag k="place" v="locality" />
		<tag k="ssr:stedsnr" v="480731" />
	</node>
	<node lat="59.2774805598476" lon="9.422049992732335" id="-47388">
		<tag k="fixme" v="consider highway=path" />
		<tag k="highway" v="track" />
		<tag k="name" v="Skiftestupet" />
		<tag k="ssr:stedsnr" v="390984" />
	</node>
	<node lat="59.13999166957578" lon="9.408252778223359" id="-47391">
		<tag k="name" v="Grønnbakke" />
		<tag k="place" v="locality" />
		<tag k="ssr:stedsnr" v="391412" />
	</node>
	<node lat="59.19598055405413" lon="9.721761107277835" id="-47396">
		<tag k="name" v="Åsterødgrinda" />
		<tag k="place" v="locality" />
		<tag k="ssr:stedsnr" v="392034" />
	</node>
	<node lat="59.15671111343137" lon="9.637063897641696" id="-47432">
		<tag k="highway" v="bus_stop" />
		<tag k="name" v="Tollnes" />
		<tag k="ssr:stedsnr" v="416107" />
	</node>
	<node lat="59.21069444558977" lon="9.418163891162244" id="-47535">
		<tag k="bridge" v="yes" />
		<tag k="layer" v="1" />
		<tag k="name" v="Kubru" />
		<tag k="ssr:stedsnr" v="451225" />
	</node>
	<node lat="59.2059805524693" lon="9.608300002694362" id="-47559">
		<tag k="bridge" v="yes" />
		<tag k="layer" v="1" />
		<tag k="name" v="Eidet" />
		<tag k="ssr:stedsnr" v="471666" />
	</node>
	<node lat="59.1825527772256" lon="9.579927769993425" id="-47560">
		<tag k="bridge" v="yes" />
		<tag k="layer" v="1" />
		<tag k="name" v="Elim" />
		<tag k="ssr:stedsnr" v="471667" />
	</node>
	<node lat="59.2093666630743" lon="9.609116667216648" id="-47562">
		<tag k="highway" v="bus_stop" />
		<tag k="name" v="Landmannstorget" />
		<tag k="ssr:stedsnr" v="476911" />
	</node>
	<node lat="59.20736389146384" lon="9.60478888762071" id="-47565">
		<tag k="highway" v="bus_stop" />
		<tag k="name" v="Ibsenhuset" />
		<tag k="ssr:stedsnr" v="482060" />
	</node>
	<node lat="59.27251111066101" lon="9.54368055343846" id="-47624">
		<tag k="landuse" v="industrial" />
		<tag k="name" v="Rød transformatorstasjon" />
		<tag k="power" v="plant" />
		<tag k="ssr:stedsnr" v="512474" />
	</node>
	<node lat="59.28612499982161" lon="9.377041665164121" id="-47753">
		<tag k="name" v="Solbergstrand" />
		<tag k="place" v="locality" />
		<tag k="ssr:stedsnr" v="693739" />
	</node>
	<node lat="59.206427778132756" lon="9.60801944257154" id="-47816">
		<tag k="bridge" v="yes" />
		<tag k="layer" v="1" />
		<tag k="name" v="Grubbe" />
		<tag k="ssr:stedsnr" v="592707" />
	</node>
	<node lat="59.19326666822203" lon="9.609755548498041" id="-47818">
		<tag k="highway" v="bus_stop" />
		<tag k="name" v="Gimsøy" />
		<tag k="ssr:stedsnr" v="597915" />
	</node>
	<node lat="59.16809167110427" lon="9.647455555255238" id="-47819">
		<tag k="highway" v="bus_stop" />
		<tag k="name" v="Menstad" />
		<tag k="ssr:stedsnr" v="598425" />
	</node>
	<node lat="59.32305555279304" lon="9.536419439995287" id="-47860">
		<tag k="landuse" v="industrial" />
		<tag k="name" v="Flittig kraftstasjon" />
		<tag k="power" v="plant" />
		<tag k="ssr:stedsnr" v="632231" />
	</node>
	<node lat="59.17795278073811" lon="9.636358330439245" id="-47887">
		<tag k="highway" v="bus_stop" />
		<tag k="name" v="Bølesvingen" />
		<tag k="ssr:stedsnr" v="635232" />
	</node>
	<node lat="59.128172222374836" lon="9.509758333507971" id="-47896">
		<tag k="bridge" v="yes" />
		<tag k="layer" v="1" />
		<tag k="name" v="Voll" />
		<tag k="ssr:stedsnr" v="653692" />
	</node>
	<node lat="59.1704138873708" lon="9.637527779891954" id="-47899">
		<tag k="man_made" v="quay" />
		<tag k="name" v="Waterloo" />
		<tag k="place" v="locality" />
		<tag k="ssr:stedsnr" v="655401" />
	</node>
	<node lat="59.20655833424875" lon="9.611758338820465" id="-47907">
		<tag k="name" v="Skien Gamle" />
		<tag k="railway" v="station" />
		<tag k="ssr:stedsnr" v="669728" />
		<tag k="train" v="yes" />
	</node>
	<node lat="59.32723888872553" lon="9.553019441705661" id="-47997">
		<tag k="bridge" v="yes" />
		<tag k="layer" v="1" />
		<tag k="name" v="Flittig" />
		<tag k="ssr:stedsnr" v="896721" />
	</node>
	<node lat="59.35916111290954" lon="9.573730548713199" id="-47998">
		<tag k="bridge" v="yes" />
		<tag k="layer" v="1" />
		<tag k="name" v="Henningsdalen" />
		<tag k="ssr:stedsnr" v="896723" />
	</node>
	<node lat="59.19961388510527" lon="9.610569439907923" id="-47999">
		<tag k="bridge" v="yes" />
		<tag k="layer" v="1" />
		<tag k="name" v="Klosterfoss" />
		<tag k="ssr:stedsnr" v="896724" />
	</node>
	<node lat="59.221302777031305" lon="9.39879167149529" id="-48112">
		<tag k="bridge" v="yes" />
		<tag k="layer" v="1" />
		<tag k="name" v="Bruset" />
		<tag k="ssr:stedsnr" v="775657" />
	</node>
	<node lat="59.14923332971115" lon="9.61956666250856" id="-48121">
		<tag k="highway" v="bus_stop" />
		<tag k="name" v="Kongerød skole" />
		<tag k="ssr:stedsnr" v="781601" />
	</node>
	<node lat="59.20040277540119" lon="9.610583325628575" id="-48122">
		<tag k="highway" v="bus_stop" />
		<tag k="name" v="Klosterøya" />
		<tag k="ssr:stedsnr" v="781924" />
	</node>
	<node lat="59.16472499900081" lon="9.388741667919252" id="-48219">
		<tag k="bridge" v="yes" />
		<tag k="layer" v="1" />
		<tag k="name" v="Stavdal bru" />
		<tag k="ssr:stedsnr" v="815676" />
	</node>
	<node lat="59.181771648185624" lon="9.565212256341555" id="-48234">
		<tag k="layer" v="-1" />
		<tag k="name" v="Geiteryggtunnelen" />
		<tag k="ssr:stedsnr" v="833467" />
		<tag k="tunnel" v="yes" />
	</node>
	<node lat="59.19919166923606" lon="9.581899996320722" id="-48342">
		<tag k="alt_name" v="Elstrøm" />
		<tag k="bridge" v="yes" />
		<tag k="layer" v="1" />
		<tag k="name" v="Elstrømbrua" />
		<tag k="ssr:stedsnr" v="876851" />
	</node>
	<node lat="59.20374722415897" lon="9.60868889354387" id="-48385">
		<tag k="bridge" v="yes" />
		<tag k="layer" v="1" />
		<tag k="name" v="Damfoss" />
		<tag k="ssr:stedsnr" v="228722" />
	</node>
	<node lat="59.08727221970207" lon="9.425111105035374" id="-48386">
		<tag k="bridge" v="yes" />
		<tag k="layer" v="1" />
		<tag k="name" v="Steinbrubekk" />
		<tag k="ssr:stedsnr" v="228723" />
	</node>
	<node lat="59.12428888757702" lon="9.362672229644831" id="-48420">
		<tag k="bridge" v="yes" />
		<tag k="layer" v="1" />
		<tag k="name" v="Fjellbrua" />
		<tag k="ssr:stedsnr" v="936692" />
	</node>
	<node lat="59.14910277372817" lon="9.631622213912632" id="-48449">
		<tag k="bridge" v="yes" />
		<tag k="layer" v="1" />
		<tag k="name" v="Myra" />
		<tag k="ssr:stedsnr" v="228737" />
	</node>
	<node lat="59.20293299567339" lon="9.606912003205629" id="-48494">
		<tag k="name" v="Telemarkskanalen" />
		<tag k="ssr:stedsnr" v="989673" />
		<tag k="waterway" v="canal" />
	</node>
	<node lat="59.15372777405134" lon="9.638813890403073" id="-48629">
		<tag k="bridge" v="yes" />
		<tag k="layer" v="1" />
		<tag k="name" v="Rabbenkrysset" />
		<tag k="ssr:stedsnr" v="46732" />
	</node>
	<node lat="59.218944442022526" lon="9.603450000448438" id="-48653">
		<tag k="alt_name" v="Skien Nye;Skien Nylende" />
		<tag k="name" v="Skien stasjon" />
		<tag k="railway" v="station" />
		<tag k="ssr:stedsnr" v="62752" />
		<tag k="train" v="yes" />
	</node>
	<node lat="59.20512222443366" lon="9.608838892871368" id="-48916">
		<tag k="bridge" v="yes" />
		<tag k="layer" v="1" />
		<tag k="name" v="Skien aktiemølle" />
		<tag k="ssr:stedsnr" v="168681" />
	</node>
	<node lat="59.12064444074361" lon="9.449538882886749" id="-48917">
		<tag k="bridge" v="yes" />
		<tag k="layer" v="1" />
		<tag k="name" v="Saga" />
		<tag k="ssr:stedsnr" v="168682" />
	</node>
	<node lat="59.17643889223349" lon="9.626249992695879" id="-48929">
		<tag k="highway" v="bus_stop" />
		<tag k="name" v="Kjørbekkhøgda" />
		<tag k="ssr:stedsnr" v="173900" />
	</node>
	<node lat="59.3901000037832" lon="9.566338886592847" id="-49050">
		<tag k="bridge" v="yes" />
		<tag k="layer" v="1" />
		<tag k="name" v="Haukeroa" />
		<tag k="ssr:stedsnr" v="289723" />
	</node>
	<node lat="59.20440000172035" lon="9.609200001817271" id="-49213">
		<tag k="bridge" v="yes" />
		<tag k="layer" v="1" />
		<tag k="name" v="Kanalbrua" />
		<tag k="ssr:stedsnr" v="350639" />
	</node>
	<node lat="59.14989444739043" lon="9.62797499603783" id="-49214">
		<tag k="bridge" v="yes" />
		<tag k="layer" v="1" />
		<tag k="name" v="Klyveveien" />
		<tag k="ssr:stedsnr" v="350640" />
	</node>
	<node lat="59.28307500357614" lon="9.526466673663192" id="-49215">
		<tag k="bridge" v="yes" />
		<tag k="layer" v="1" />
		<tag k="name" v="Bliva" />
		<tag k="ssr:stedsnr" v="350647" />
	</node>
	<node lat="59.19596111202" lon="9.603850003157836" id="-49219">
		<tag k="highway" v="bus_stop" />
		<tag k="name" v="Klosterjordene" />
		<tag k="ssr:stedsnr" v="355091" />
	</node>
	<node lat="59.16741944231602" lon="9.645033325946164" id="-49224">
		<tag k="name" v="Borgestad" />
		<tag k="railway" v="station" />
		<tag k="ssr:stedsnr" v="365562" />
		<tag k="train" v="yes" />
	</node>
	<node lat="59.12246111396726" lon="9.562025007083436" id="-49310">
		<tag k="man_made" v="quay" />
		<tag k="name" v="Skien havneterminal" />
		<tag k="place" v="locality" />
		<tag k="ssr:stedsnr" v="389973" />
	</node>
	<node lat="59.19217499622371" lon="9.41585554812628" id="-49343">
		<tag k="bridge" v="yes" />
		<tag k="layer" v="1" />
		<tag k="name" v="Fiskedalen" />
		<tag k="ssr:stedsnr" v="410673" />
	</node>
	<node lat="59.21739721952082" lon="9.288655562318581" id="-49471">
		<tag k="highway" v="path" />
		<tag k="name" v="Korsveien" />
		<tag k="ssr:stedsnr" v="510695" />
	</node>
	<node lat="59.21918888979861" lon="9.579422227075664" id="-49529">
		<tag k="landuse" v="industrial" />
		<tag k="name" v="Goberg" />
		<tag k="power" v="plant" />
		<tag k="ssr:stedsnr" v="534164" />
	</node>
	<node lat="59.194805551840474" lon="9.626097220457982" id="-49531">
		<tag k="highway" v="bus_stop" />
		<tag k="name" v="Doktorstykket" />
		<tag k="old_name" v="Skauenvegen" />
		<tag k="ssr:stedsnr" v="537530" />
	</node>
	<node lat="59.19241111232723" lon="9.627452772882975" id="-49533">
		<tag k="highway" v="bus_stop" />
		<tag k="name" v="Dammane" />
		<tag k="old_name" v="Doktorstykket" />
		<tag k="ssr:stedsnr" v="537432" />
	</node>
	<node lat="59.180575001427705" lon="9.63278332530575" id="-49535">
		<tag k="highway" v="bus_stop" />
		<tag k="name" v="Bøle" />
		<tag k="ssr:stedsnr" v="537862" />
	</node>
	<node lat="59.17357222019327" lon="9.642197229791243" id="-49683">
		<tag k="landuse" v="industrial" />
		<tag k="name" v="Hauen sekundærstasjon" />
		<tag k="power" v="plant" />
		<tag k="ssr:stedsnr" v="574880" />
	</node>
	<node lat="59.39926666333395" lon="9.54601667306979" id="-49690">
		<tag k="bridge" v="yes" />
		<tag k="layer" v="1" />
		<tag k="name" v="Minde" />
		<tag k="ssr:stedsnr" v="592728" />
	</node>
	<node lat="59.20733055875436" lon="9.599188880964409" id="-49691">
		<tag k="bridge" v="yes" />
		<tag k="layer" v="1" />
		<tag k="name" v="Lundedalen" />
		<tag k="ssr:stedsnr" v="592731" />
	</node>
	<node lat="59.18602499695237" lon="9.603191674006556" id="-49692">
		<tag k="bridge" v="yes" />
		<tag k="layer" v="1" />
		<tag k="name" v="Regimentveien" />
		<tag k="ssr:stedsnr" v="592732" />
	</node>
	<node lat="59.16952499821683" lon="9.68695555696822" id="-49693">
		<tag k="bridge" v="yes" />
		<tag k="layer" v="1" />
		<tag k="name" v="Ris" />
		<tag k="ssr:stedsnr" v="592739" />
	</node>
	<node lat="59.186255560038745" lon="9.615263896241684" id="-49698">
		<tag k="highway" v="bus_stop" />
		<tag k="name" v="Tuftebygget" />
		<tag k="ssr:stedsnr" v="598470" />
	</node>
	<node lat="59.213947224692795" lon="9.570558337675656" id="-49701">
		<tag k="highway" v="bus_stop" />
		<tag k="name" v="Petersplassen" />
		<tag k="ssr:stedsnr" v="599526" />
	</node>
	<node lat="59.26967222024151" lon="9.56135554971634" id="-49785">
		<tag k="landuse" v="industrial" />
		<tag k="name" v="Ås kraftstasjon" />
		<tag k="power" v="plant" />
		<tag k="ssr:stedsnr" v="632819" />
	</node>
	<node lat="59.20436388757762" lon="9.586988896016175" id="-49830">
		<tag k="bridge" v="yes" />
		<tag k="layer" v="1" />
		<tag k="name" v="Falkum bru" />
		<tag k="ssr:stedsnr" v="653683" />
	</node>
	<node lat="59.16226110714065" lon="9.651316662946485" id="-49832">
		<tag k="highway" v="bus_stop" />
		<tag k="name" v="Borgestad gård" />
		<tag k="ssr:stedsnr" v="659450" />
	</node>
	<node lat="59.254483330784055" lon="9.567641659778568" id="-49852">
		<tag k="alt_name" v="Hoppestad stoppested" />
		<tag k="name" v="Hoppestad" />
		<tag k="railway" v="halt" />
		<tag k="ssr:stedsnr" v="669656" />
		<tag k="train" v="yes" />
	</node>
	<node lat="59.31177777825467" lon="9.418049995811828" id="-49859">
		<tag k="name" v="Valesæter" />
		<tag k="railway" v="station" />
		<tag k="ssr:stedsnr" v="669763" />
		<tag k="train" v="yes" />
	</node>
	<node lat="59.29021388566095" lon="9.509711112669473" id="-49870">
		<tag k="alt_name" v="Nisteruddal" />
		<tag k="bridge" v="yes" />
		<tag k="layer" v="1" />
		<tag k="name" v="Nisterudbrua" />
		<tag k="ssr:stedsnr" v="670681" />
	</node>
	<node lat="59.18402499720642" lon="9.667286106765202" id="-49872">
		<tag k="bridge" v="yes" />
		<tag k="layer" v="1" />
		<tag k="name" v="Ballestad" />
		<tag k="ssr:stedsnr" v="714650" />
	</node>
	<node lat="59.2648138880671" lon="9.538438882072068" id="-49873">
		<tag k="bridge" v="yes" />
		<tag k="layer" v="1" />
		<tag k="name" v="Skreva" />
		<tag k="ssr:stedsnr" v="714655" />
	</node>
	<node lat="59.21250833153321" lon="9.589169444211182" id="-49874">
		<tag k="highway" v="bus_stop" />
		<tag k="name" v="Stevneplassen" />
		<tag k="ssr:stedsnr" v="719100" />
	</node>
	<node lat="59.179952781949744" lon="9.320508338978605" id="-49992">
		<tag k="name" v="Legga" />
		<tag k="place" v="locality" />
		<tag k="ssr:stedsnr" v="757227" />
	</node>
	<node lat="59.21589032922045" lon="9.55333401550436" id="-50010">
		<tag k="highway" v="bus_stop" />
		<tag k="name" v="Gulsetsenteret" />
		<tag k="ssr:stedsnr" v="779897" />
	</node>
	<node lat="59.11221110931344" lon="9.433627772507696" id="-50025">
		<tag k="alt_name" v="Rogns" />
		<tag k="bridge" v="yes" />
		<tag k="layer" v="1" />
		<tag k="name" v="Rognsbru" />
		<tag k="ssr:stedsnr" v="790786" />
	</node>
	<node lat="59.34171944673874" lon="9.347069446194816" id="-50029">
		<tag k="alt_name" v="Valebø stasjon" />
		<tag k="name" v="Valebø" />
		<tag k="railway" v="station" />
		<tag k="ssr:stedsnr" v="791849" />
		<tag k="train" v="yes" />
	</node>
	<node lat="59.21332222278667" lon="9.595838889934342" id="-50064">
		<tag k="highway" v="bus_stop" />
		<tag k="name" v="Skien sykehjem" />
		<tag k="ssr:stedsnr" v="810072" />
	</node>
	<node lat="59.3148166670703" lon="9.551719450534222" id="-50158">
		<tag k="bridge" v="yes" />
		<tag k="layer" v="1" />
		<tag k="name" v="Eikornrød" />
		<tag k="ssr:stedsnr" v="836644" />
	</node>
	<node lat="59.13110555409927" lon="9.544238892594477" id="-50159">
		<tag k="bridge" v="yes" />
		<tag k="layer" v="1" />
		<tag k="name" v="Øra" />
		<tag k="ssr:stedsnr" v="836661" />
	</node>
	<node lat="59.20502499901871" lon="9.303336106596031" id="-50288">
		<tag k="highway" v="path" />
		<tag k="name" v="Kjerringbrekka" />
		<tag k="ssr:stedsnr" v="935688" />
	</node>
	<node lat="59.081725000647154" lon="9.383816662534704" id="-50333">
		<tag k="bridge" v="yes" />
		<tag k="layer" v="1" />
		<tag k="name" v="Kallebekk" />
		<tag k="ssr:stedsnr" v="957650" />
	</node>
	<node lat="59.18574166673142" lon="9.61200555891692" id="-50334">
		<tag k="bridge" v="yes" />
		<tag k="layer" v="1" />
		<tag k="name" v="Tufte bru" />
		<tag k="ssr:stedsnr" v="957667" />
	</node>
	<node lat="59.172227779434884" lon="9.699313894954189" id="-50335">
		<tag k="bridge" v="yes" />
		<tag k="layer" v="1" />
		<tag k="name" v="Kålerød" />
		<tag k="ssr:stedsnr" v="957675" />
	</node>
	<node lat="59.164680553301956" lon="9.649052769971304" id="-50340">
		<tag k="highway" v="bus_stop" />
		<tag k="name" v="Borgestad" />
		<tag k="ssr:stedsnr" v="961923" />
	</node>
	<node lat="59.183947217956955" lon="9.617061117264354" id="-50341">
		<tag k="highway" v="bus_stop" />
		<tag k="name" v="Gråtenmoen" />
		<tag k="ssr:stedsnr" v="962576" />
	</node>
	<node lat="59.20276198063489" lon="9.61466289308303" id="-50372">
		<tag k="man_made" v="quay" />
		<tag k="name" v="Jernbanebrygga" />
		<tag k="place" v="locality" />
		<tag k="ssr:stedsnr" v="989460" />
	</node>
	<node lat="59.27511401852594" lon="9.524318070741945" id="-50497">
		<tag k="highway" v="path" />
		<tag k="name" v="Åsvegen" />
		<tag k="ssr:stedsnr" v="1073277" />
	</node>
	<node lat="58.9440068916853" lon="9.637917728815127" id="-50499">
		<tag k="name" v="Tonerhavn" />
		<tag k="place" v="locality" />
		<tag k="ssr:stedsnr" v="1074516" />
	</node>
</osm>
