<?xml version="1.0" encoding="UTF-8"?>
<osm version="0.6" generator="osmapis">
	<node lat="59.20335277943974" lon="9.729966668149554" id="-29248">
		<tag k="alt_name" v="Skifjell, l" />
		<tag k="fixme" v="multiple name tags, choose one and add the other to alt_name" />
		<tag k="name" v="Skifjell;Lille Skifjell" />
		<tag k="place" v="farm" />
		<tag k="ssr:stedsnr" v="1694" />
	</node>
	<node lat="59.19116225186937" lon="9.715252195979275" id="-29250">
		<tag k="name" v="Hørta" />
		<tag k="place" v="farm" />
		<tag k="ssr:stedsnr" v="1699" />
	</node>
	<node lat="59.12776666797288" lon="9.427063894564117" id="-29251">
		<tag k="fixme" v="consider place=hamlet" />
		<tag k="name" v="Rennesund" />
		<tag k="place" v="farm" />
		<tag k="ssr:stedsnr" v="1809" />
	</node>
	<node lat="59.122730558196196" lon="9.456983328013095" id="-29252">
		<tag k="name" v="Haugen" />
		<tag k="place" v="isolated_dwelling" />
		<tag k="ssr:stedsnr" v="1811" />
	</node>
	<node lat="59.20343889221564" lon="9.56689721445466" id="-29254">
		<tag k="name" v="Vadrette" />
		<tag k="place" v="quarter" />
		<tag k="ssr:stedsnr" v="1884" />
	</node>
	<node lat="59.19299788043864" lon="9.329417992087002" id="-29255">
		<tag k="alt_name" v="Tveitstul" />
		<tag k="historic" v="shieling" />
		<tag k="name" v="Tveitstulen" />
		<tag k="place" v="isolated_dwelling" />
		<tag k="ssr:stedsnr" v="1888" />
	</node>
	<node lat="59.283366665112894" lon="9.542363891663328" id="-29258">
		<tag k="fixme" v="consider place=hamlet" />
		<tag k="name" v="Dyrkoll" />
		<tag k="place" v="farm" />
		<tag k="ssr:stedsnr" v="2730" />
	</node>
	<node lat="59.20693611558061" lon="9.500766661277376" id="-29262">
		<tag k="alt_name" v="Suttervik" />
		<tag k="name" v="Suttervika" />
		<tag k="place" v="farm" />
		<tag k="ssr:stedsnr" v="2901" />
	</node>
	<node lat="59.21704166695955" lon="9.591838886502456" id="-29264">
		<tag k="name" v="Store Mæla" />
		<tag k="place" v="isolated_dwelling" />
		<tag k="ssr:stedsnr" v="230172" />
	</node>
	<node lat="59.17580833196011" lon="9.617422219347725" id="-29267">
		<tag k="name" v="Nyland" />
		<tag k="place" v="quarter" />
		<tag k="ssr:stedsnr" v="231456" />
	</node>
	<node lat="59.16605555836725" lon="9.526247223041965" id="-29273">
		<tag k="name" v="Nyhus" />
		<tag k="place" v="farm" />
		<tag k="ssr:stedsnr" v="25481" />
	</node>
	<node lat="59.172447218309166" lon="9.59512222272766" id="-29286">
		<tag k="name" v="Rødmyrberget" />
		<tag k="place" v="farm" />
		<tag k="ssr:stedsnr" v="26910" />
	</node>
	<node lat="59.27850000217196" lon="9.556652781389149" id="-29289">
		<tag k="building" v="civic" />
		<tag k="name" v="Kulten" />
		<tag k="ssr:stedsnr" v="26806" />
	</node>
	<node lat="59.23654999619644" lon="9.568966661210967" id="-29291">
		<tag k="name" v="Nordre Hyni" />
		<tag k="place" v="farm" />
		<tag k="ssr:stedsnr" v="26822" />
	</node>
	<node lat="59.212686112886196" lon="9.716897230608328" id="-29298">
		<tag k="name" v="Skifjell" />
		<tag k="place" v="farm" />
		<tag k="ssr:stedsnr" v="28038" />
	</node>
	<node lat="59.16785277656558" lon="9.67589721738501" id="-29300">
		<tag k="name" v="Nordre Riis" />
		<tag k="place" v="farm" />
		<tag k="ssr:stedsnr" v="28705" />
	</node>
	<node lat="59.23485278130714" lon="9.577047217056444" id="-29306">
		<tag k="leisure" v="pitch" />
		<tag k="name" v="Fossum idrettsbane" />
		<tag k="ssr:stedsnr" v="238067" />
	</node>
	<node lat="59.15615277697672" lon="9.644099997522446" id="-29310">
		<tag k="name" v="Tollnes, øvre" />
		<tag k="place" v="farm" />
		<tag k="ssr:stedsnr" v="62602" />
	</node>
	<node lat="59.19292222528707" lon="9.431247213948804" id="-29312">
		<tag k="alt_name" v="Stig" />
		<tag k="name" v="Sti" />
		<tag k="place" v="farm" />
		<tag k="ssr:stedsnr" v="62879" />
	</node>
	<node lat="59.19453055278845" lon="9.506805556122682" id="-29313">
		<tag k="name" v="Åsland" />
		<tag k="place" v="farm" />
		<tag k="ssr:stedsnr" v="62884" />
	</node>
	<node lat="59.10858333621972" lon="9.432499991459501" id="-29315">
		<tag k="name" v="Nyland" />
		<tag k="place" v="isolated_dwelling" />
		<tag k="ssr:stedsnr" v="62768" />
	</node>
	<node lat="59.2208777747748" lon="9.496547230074864" id="-29317">
		<tag k="fixme" v="consider place=hamlet" />
		<tag k="name" v="Omdal" />
		<tag k="place" v="farm" />
		<tag k="ssr:stedsnr" v="62924" />
	</node>
	<node lat="59.21622777349245" lon="9.436683332260579" id="-29318">
		<tag k="name" v="Kåsene" />
		<tag k="place" v="farm" />
		<tag k="ssr:stedsnr" v="62925" />
	</node>
	<node lat="59.18498055898733" lon="9.504324998910946" id="-29319">
		<tag k="alt_name" v="Rokstad" />
		<tag k="name" v="Rugstad" />
		<tag k="place" v="farm" />
		<tag k="ssr:stedsnr" v="62990" />
	</node>
	<node lat="59.30112777446698" lon="9.528908338110558" id="-29323">
		<tag k="alt_name" v="Slettemo" />
		<tag k="name" v="Søndre Stulen" />
		<tag k="place" v="farm" />
		<tag k="ssr:stedsnr" v="63801" />
	</node>
	<node lat="59.31203611168722" lon="9.33901388606845" id="-29328">
		<tag k="fixme" v="consider place=hamlet" />
		<tag k="name" v="Borstad" />
		<tag k="place" v="farm" />
		<tag k="ssr:stedsnr" v="63763" />
	</node>
	<node lat="59.23791944892355" lon="9.470672213622796" id="-29332">
		<tag k="alt_name" v="Hove" />
		<tag k="name" v="Håvet" />
		<tag k="place" v="farm" />
		<tag k="ssr:stedsnr" v="244059" />
	</node>
	<node lat="59.24382221896214" lon="9.587419436370093" id="-29333">
		<tag k="alt_name" v="Nordre Limi" />
		<tag k="fixme" v="consider place=hamlet" />
		<tag k="name" v="Limi" />
		<tag k="place" v="farm" />
		<tag k="ssr:stedsnr" v="244062" />
	</node>
	<node lat="59.19043421620316" lon="9.716090084390453" id="-29334">
		<tag k="name" v="Mensæter" />
		<tag k="place" v="locality" />
		<tag k="ssr:stedsnr" v="244724" />
	</node>
	<node lat="59.14042777748353" lon="9.598808336696745" id="-29337">
		<tag k="fixme" v="consider place=hamlet" />
		<tag k="name" v="Ånnerød" />
		<tag k="place" v="farm" />
		<tag k="ssr:stedsnr" v="244646" />
	</node>
	<node lat="59.24590555377096" lon="9.653030561928633" id="-29339">
		<tag k="name" v="Holtan" />
		<tag k="place" v="farm" />
		<tag k="ssr:stedsnr" v="244665" />
	</node>
	<node lat="59.22248055484152" lon="9.658288888282405" id="-29340">
		<tag k="name" v="Steinsås" />
		<tag k="place" v="farm" />
		<tag k="ssr:stedsnr" v="244741" />
	</node>
	<node lat="59.128099711196505" lon="9.507479561771223" id="-29342">
		<tag k="name" v="Voll" />
		<tag k="place" v="farm" />
		<tag k="ssr:stedsnr" v="244828" />
	</node>
	<node lat="59.229424998215755" lon="9.480458331342966" id="-29344">
		<tag k="name" v="Dal" />
		<tag k="place" v="farm" />
		<tag k="ssr:stedsnr" v="244931" />
	</node>
	<node lat="59.21505833219307" lon="9.524511117922229" id="-29345">
		<tag k="name" v="Skotfoss" />
		<tag k="place" v="village" />
		<tag k="ssr:stedsnr" v="244916" />
	</node>
	<node lat="59.21590277543018" lon="9.56689444252069" id="-29346">
		<tag k="name" v="Gulset" />
		<tag k="place" v="village" />
		<tag k="ssr:stedsnr" v="244918" />
	</node>
	<node lat="59.23888610850807" lon="9.555325005898334" id="-29348">
		<tag k="name" v="Bakken" />
		<tag k="place" v="isolated_dwelling" />
		<tag k="ssr:stedsnr" v="244941" />
	</node>
	<node lat="59.144008334215975" lon="9.25393333859455" id="-29351">
		<tag k="name" v="Rønningen" />
		<tag k="place" v="farm" />
		<tag k="ssr:stedsnr" v="244957" />
	</node>
	<node lat="59.39072222453332" lon="9.438216670277495" id="-29356">
		<tag k="historic" v="shieling" />
		<tag k="name" v="Svanstul" />
		<tag k="place" v="isolated_dwelling" />
		<tag k="ssr:stedsnr" v="245927" />
	</node>
	<node lat="59.445922219019366" lon="9.536872218728188" id="-29357">
		<tag k="name" v="Bestul" />
		<tag k="place" v="farm" />
		<tag k="ssr:stedsnr" v="245930" />
	</node>
	<node lat="59.328886108002955" lon="9.489988893527476" id="-29358">
		<tag k="name" v="Stallane" />
		<tag k="place" v="locality" />
		<tag k="ssr:stedsnr" v="86233" />
	</node>
	<node lat="59.18467777932357" lon="9.39154722723325" id="-29361">
		<tag k="fixme" v="consider place=hamlet" />
		<tag k="name" v="Erikstad" />
		<tag k="place" v="farm" />
		<tag k="ssr:stedsnr" v="86485" />
	</node>
	<node lat="59.23771110799175" lon="9.561269446637944" id="-29365">
		<tag k="name" v="Vestly" />
		<tag k="place" v="farm" />
		<tag k="ssr:stedsnr" v="86803" />
	</node>
	<node lat="59.22255277698987" lon="9.577933337549403" id="-29367">
		<tag k="name" v="Århus" />
		<tag k="place" v="farm" />
		<tag k="ssr:stedsnr" v="86813" />
	</node>
	<node lat="59.19346388826442" lon="9.40819722533219" id="-29372">
		<tag k="name" v="Gjærumdalen" />
		<tag k="place" v="farm" />
		<tag k="ssr:stedsnr" v="87029" />
	</node>
	<node lat="59.287355554506135" lon="9.549255562396468" id="-29378">
		<tag k="name" v="Nordre Gåshølen" />
		<tag k="place" v="isolated_dwelling" />
		<tag k="ssr:stedsnr" v="87479" />
	</node>
	<node lat="59.28507222335155" lon="9.390363897476368" id="-29380">
		<tag k="name" v="Stuverud" />
		<tag k="place" v="farm" />
		<tag k="ssr:stedsnr" v="245679" />
	</node>
	<node lat="59.28707500064157" lon="9.38426388029069" id="-29381">
		<tag k="alt_name" v="Glaholt, nedre" />
		<tag k="name" v="Nedre Glaholt" />
		<tag k="place" v="farm" />
		<tag k="ssr:stedsnr" v="245680" />
	</node>
	<node lat="59.18697499873619" lon="9.48400834039447" id="-29383">
		<tag k="building" v="industrial" />
		<tag k="name" v="Kvernfoss mølle" />
		<tag k="ssr:stedsnr" v="87905" />
	</node>
	<node lat="59.18519444582335" lon="9.472841662862228" id="-29384">
		<tag k="name" v="Hegnakåsa" />
		<tag k="place" v="farm" />
		<tag k="ssr:stedsnr" v="87910" />
	</node>
	<node lat="59.106219446896674" lon="9.43034444068835" id="-29385">
		<tag k="name" v="Jensejordet" />
		<tag k="place" v="quarter" />
		<tag k="ssr:stedsnr" v="88212" />
	</node>
	<node lat="59.121094443548664" lon="9.44952778107432" id="-29388">
		<tag k="name" v="Saga" />
		<tag k="place" v="isolated_dwelling" />
		<tag k="ssr:stedsnr" v="88197" />
	</node>
	<node lat="59.35362778201066" lon="9.539974997898183" id="-29389">
		<tag k="name" v="Sildrevika" />
		<tag k="place" v="isolated_dwelling" />
		<tag k="ssr:stedsnr" v="245831" />
	</node>
	<node lat="59.14595555469012" lon="9.419299993771807" id="-29394">
		<tag k="name" v="Storodden" />
		<tag k="place" v="locality" />
		<tag k="ssr:stedsnr" v="88373" />
	</node>
	<node lat="59.33076110964783" lon="9.57119999984804" id="-29398">
		<tag k="name" v="Sørteigen" />
		<tag k="place" v="locality" />
		<tag k="ssr:stedsnr" v="245859" />
	</node>
	<node lat="59.42682665434203" lon="9.561440722267243" id="-29399">
		<tag k="name" v="Springstandarhytta" />
		<tag k="place" v="isolated_dwelling" />
		<tag k="ssr:stedsnr" v="245982" />
	</node>
	<node lat="59.162513886664016" lon="9.702180552121911" id="-29407">
		<tag k="name" v="Lid" />
		<tag k="place" v="farm" />
		<tag k="ssr:stedsnr" v="89666" />
	</node>
	<node lat="59.1780722210318" lon="9.611933328464888" id="-29414">
		<tag k="name" v="Reierstad" />
		<tag k="place" v="isolated_dwelling" />
		<tag k="ssr:stedsnr" v="110410" />
	</node>
	<node lat="59.385738888338196" lon="9.42517499404371" id="-29416">
		<tag k="fixme" v="consider tourism=alpine_hut or tourism=chalet" />
		<tag k="name" v="Stjernehytta" />
		<tag k="ssr:stedsnr" v="119831" />
		<tag k="tourism" v="wilderness_hut" />
	</node>
	<node lat="59.15748888523476" lon="9.705002786100593" id="-29418">
		<tag k="fixme" v="consider place=hamlet" />
		<tag k="name" v="Klepp" />
		<tag k="place" v="farm" />
		<tag k="ssr:stedsnr" v="123562" />
	</node>
	<node lat="59.15306501455015" lon="9.631288844088571" id="-29420">
		<tag k="name" v="Bjørnstad" />
		<tag k="place" v="farm" />
		<tag k="ssr:stedsnr" v="123651" />
	</node>
	<node lat="59.263727779337316" lon="9.572324994729307" id="-29422">
		<tag k="name" v="Foss" />
		<tag k="place" v="farm" />
		<tag k="ssr:stedsnr" v="123712" />
	</node>
	<node lat="59.2583916635414" lon="9.585147228854526" id="-29423">
		<tag k="fixme" v="consider place=hamlet" />
		<tag k="name" v="Glenna" />
		<tag k="place" v="farm" />
		<tag k="ssr:stedsnr" v="123713" />
	</node>
	<node lat="59.31863333725218" lon="9.324483326429897" id="-29426">
		<tag k="fixme" v="consider place=hamlet" />
		<tag k="name" v="Brenne" />
		<tag k="place" v="farm" />
		<tag k="ssr:stedsnr" v="123781" />
	</node>
	<node lat="59.21481389090898" lon="9.39762499140378" id="-29427">
		<tag k="alt_name" v="Siljan, øvre" />
		<tag k="name" v="Siljan" />
		<tag k="place" v="farm" />
		<tag k="ssr:stedsnr" v="123923" />
	</node>
	<node lat="59.45514166463635" lon="9.531286116240594" id="-29434">
		<tag k="name" v="Godal" />
		<tag k="place" v="farm" />
		<tag k="ssr:stedsnr" v="124010" />
	</node>
	<node lat="59.324286114402774" lon="9.324622227587447" id="-29435">
		<tag k="name" v="Sjåvid" />
		<tag k="place" v="farm" />
		<tag k="ssr:stedsnr" v="124853" />
	</node>
	<node lat="59.26471666331787" lon="9.609502784477508" id="-29437">
		<tag k="alt_name" v="Fjelldal" />
		<tag k="fixme" v="consider place=hamlet" />
		<tag k="name" v="Fjelldalen" />
		<tag k="place" v="farm" />
		<tag k="ssr:stedsnr" v="130628" />
	</node>
	<node lat="59.166141663824995" lon="9.68642221902245" id="-29441">
		<tag k="name" v="Bekkevar" />
		<tag k="place" v="farm" />
		<tag k="ssr:stedsnr" v="142985" />
	</node>
	<node lat="59.189522223091714" lon="9.388733329256063" id="-29443">
		<tag k="name" v="Eidet" />
		<tag k="place" v="farm" />
		<tag k="ssr:stedsnr" v="146419" />
	</node>
	<node lat="59.21686388801404" lon="9.417719441127787" id="-29451">
		<tag k="name" v="Bergan" />
		<tag k="place" v="farm" />
		<tag k="ssr:stedsnr" v="147210" />
	</node>
	<node lat="59.24044722203422" lon="9.607211117058407" id="-29452">
		<tag k="name" v="Sem" />
		<tag k="place" v="farm" />
		<tag k="ssr:stedsnr" v="147211" />
	</node>
	<node lat="59.142238149157166" lon="9.309587924648984" id="-29459">
		<tag k="name" v="Kallestadkåsene" />
		<tag k="place" v="isolated_dwelling" />
		<tag k="ssr:stedsnr" v="147639" />
	</node>
	<node lat="59.2322194441552" lon="9.46078611288551" id="-29461">
		<tag k="name" v="Bjørkholt" />
		<tag k="place" v="locality" />
		<tag k="ssr:stedsnr" v="147506" />
	</node>
	<node lat="59.22663055823723" lon="9.632552769836936" id="-29466">
		<tag k="name" v="Mustvedt" />
		<tag k="place" v="farm" />
		<tag k="ssr:stedsnr" v="147856" />
	</node>
	<node lat="59.19560555674729" lon="9.461269440907174" id="-29469">
		<tag k="fixme" v="consider place=hamlet" />
		<tag k="name" v="Lunde" />
		<tag k="place" v="farm" />
		<tag k="ssr:stedsnr" v="147878" />
	</node>
	<node lat="59.17649722236713" lon="9.619849992837711" id="-29479">
		<tag k="fixme" v="consider place=suburb, village or hamlet" />
		<tag k="name" v="Kjørbekkhøgda" />
		<tag k="place" v="quarter" />
		<tag k="ssr:stedsnr" v="149814" />
	</node>
	<node lat="59.15920461309877" lon="9.607702645145004" id="-29480">
		<tag k="name" v="Søndre Bjørntvedt" />
		<tag k="place" v="farm" />
		<tag k="ssr:stedsnr" v="149710" />
	</node>
	<node lat="59.16974166512212" lon="9.720936107143482" id="-29486">
		<tag k="name" v="Bakkeskauen" />
		<tag k="place" v="farm" />
		<tag k="ssr:stedsnr" v="183458" />
	</node>
	<node lat="59.17512499906879" lon="9.730958341277068" id="-29487">
		<tag k="fixme" v="consider place=hamlet" />
		<tag k="name" v="Trollsåsen" />
		<tag k="place" v="farm" />
		<tag k="ssr:stedsnr" v="183462" />
	</node>
	<node lat="59.137547219103205" lon="9.530802785283596" id="-29489">
		<tag k="alt_name" v="Grøteviken" />
		<tag k="fixme" v="consider place=hamlet" />
		<tag k="name" v="Grøtvik" />
		<tag k="place" v="farm" />
		<tag k="ssr:stedsnr" v="183812" />
	</node>
	<node lat="59.09798610795804" lon="9.411413882584663" id="-29491">
		<tag k="name" v="Kåsa" />
		<tag k="place" v="farm" />
		<tag k="ssr:stedsnr" v="183794" />
	</node>
	<node lat="59.15501666662432" lon="9.562288892485032" id="-29504">
		<tag k="name" v="Fjellstad" />
		<tag k="place" v="farm" />
		<tag k="ssr:stedsnr" v="184938" />
	</node>
	<node lat="59.2588527764841" lon="9.564230562929074" id="-29507">
		<tag k="alt_name" v="Øvre Hoppestad" />
		<tag k="name" v="Hoppestad" />
		<tag k="place" v="farm" />
		<tag k="ssr:stedsnr" v="184682" />
	</node>
	<node lat="59.19943610968569" lon="9.717041659871633" id="-29509">
		<tag k="name" v="Stubberød" />
		<tag k="place" v="farm" />
		<tag k="ssr:stedsnr" v="184686" />
	</node>
	<node lat="59.291641665972044" lon="9.537555552426399" id="-29511">
		<tag k="name" v="Hagen" />
		<tag k="place" v="farm" />
		<tag k="ssr:stedsnr" v="184696" />
	</node>
	<node lat="59.18706388590338" lon="9.713169439880463" id="-29513">
		<tag k="name" v="Plassen" />
		<tag k="place" v="isolated_dwelling" />
		<tag k="ssr:stedsnr" v="184698" />
	</node>
	<node lat="59.21225555743716" lon="9.491624993462928" id="-29519">
		<tag k="name" v="Rugla" />
		<tag k="place" v="farm" />
		<tag k="ssr:stedsnr" v="184896" />
	</node>
	<node lat="59.25274722388239" lon="9.57025832748658" id="-29520">
		<tag k="alt_name" v="Søndre Hoppestad" />
		<tag k="name" v="Hoppestad" />
		<tag k="place" v="farm" />
		<tag k="ssr:stedsnr" v="191622" />
	</node>
	<node lat="59.24150833061688" lon="9.443430553623493" id="-29523">
		<tag k="name" v="Lille Vasdal" />
		<tag k="place" v="farm" />
		<tag k="ssr:stedsnr" v="263766" />
	</node>
	<node lat="59.12624166639032" lon="9.35850278373505" id="-29528">
		<tag k="name" v="Ødegården" />
		<tag k="place" v="farm" />
		<tag k="ssr:stedsnr" v="268709" />
	</node>
	<node lat="59.24604721844988" lon="9.613283330190194" id="-29534">
		<tag k="name" v="Lund" />
		<tag k="place" v="farm" />
		<tag k="ssr:stedsnr" v="268225" />
	</node>
	<node lat="59.22029444051078" lon="9.584611110022589" id="-29542">
		<tag k="name" v="Mæla" />
		<tag k="place" v="farm" />
		<tag k="ssr:stedsnr" v="268811" />
	</node>
	<node lat="59.27011388990079" lon="9.568708329834024" id="-29544">
		<tag k="name" v="Jønholt" />
		<tag k="place" v="farm" />
		<tag k="ssr:stedsnr" v="268834" />
	</node>
	<node lat="59.247886114328836" lon="9.571841669322264" id="-29545">
		<tag k="amenity" v="school" />
		<tag k="name" v="Venstøp skole" />
		<tag k="ssr:stedsnr" v="268844" />
	</node>
	<node lat="59.258100003670876" lon="9.552177778305174" id="-29546">
		<tag k="name" v="Midtre Bø" />
		<tag k="old_name" v="Mittre Bø" />
		<tag k="place" v="farm" />
		<tag k="ssr:stedsnr" v="268846" />
	</node>
	<node lat="59.24790833759046" lon="9.649905547566949" id="-29549">
		<tag k="name" v="Kikut" />
		<tag k="place" v="farm" />
		<tag k="ssr:stedsnr" v="208133" />
	</node>
	<node lat="59.22952221972515" lon="9.654111106760778" id="-29552">
		<tag k="name" v="Røsaker" />
		<tag k="place" v="farm" />
		<tag k="ssr:stedsnr" v="268958" />
	</node>
	<node lat="59.19437500052347" lon="9.462177771543699" id="-29562">
		<tag k="amenity" v="school" />
		<tag k="name" v="Dolva skole" />
		<tag k="ssr:stedsnr" v="208902" />
	</node>
	<node lat="59.20662500203205" lon="9.468355554805912" id="-29567">
		<tag k="name" v="Leiroddkåsa" />
		<tag k="place" v="isolated_dwelling" />
		<tag k="ssr:stedsnr" v="269119" />
	</node>
	<node lat="59.20545000061575" lon="9.413508329341372" id="-29569">
		<tag k="name" v="Kirkesletta" />
		<tag k="place" v="farm" />
		<tag k="ssr:stedsnr" v="269225" />
	</node>
	<node lat="59.09427500383651" lon="9.418772218360965" id="-29574">
		<tag k="name" v="Olaskås" />
		<tag k="place" v="isolated_dwelling" />
		<tag k="ssr:stedsnr" v="210109" />
	</node>
	<node lat="59.12083333362082" lon="9.481177777728176" id="-29578">
		<tag k="name" v="Bolvikkåsa" />
		<tag k="place" v="locality" />
		<tag k="ssr:stedsnr" v="210265" />
	</node>
	<node lat="59.177816668760116" lon="9.65157777090789" id="-29579">
		<tag k="name" v="Søndre Ballestad" />
		<tag k="place" v="farm" />
		<tag k="ssr:stedsnr" v="210278" />
	</node>
	<node lat="59.1683777805904" lon="9.65998610666356" id="-29587">
		<tag k="leisure" v="pitch" />
		<tag k="name" v="Borg" />
		<tag k="ssr:stedsnr" v="211684" />
	</node>
	<node lat="59.193069447833835" lon="9.492827776175956" id="-29596">
		<tag k="fixme" v="consider place=hamlet" />
		<tag k="name" v="Hanes søndre" />
		<tag k="place" v="farm" />
		<tag k="ssr:stedsnr" v="269918" />
	</node>
	<node lat="59.27314722056557" lon="9.400152769341565" id="-29597">
		<tag k="name" v="Trangsteinkåsa" />
		<tag k="place" v="locality" />
		<tag k="ssr:stedsnr" v="269987" />
	</node>
	<node lat="59.21334166952616" lon="9.624694449513456" id="-29602">
		<tag k="name" v="Tunem" />
		<tag k="place" v="farm" />
		<tag k="ssr:stedsnr" v="270293" />
	</node>
	<node lat="59.206322219937256" lon="9.602880552180796" id="-29603">
		<tag k="amenity" v="school" />
		<tag k="name" v="Lunde skole" />
		<tag k="ssr:stedsnr" v="270409" />
	</node>
	<node lat="59.20190000036883" lon="9.687547224852283" id="-29610">
		<tag k="name" v="Skyer" />
		<tag k="place" v="farm" />
		<tag k="ssr:stedsnr" v="271646" />
	</node>
	<node lat="59.16951666408497" lon="9.66624722005274" id="-29615">
		<tag k="name" v="Buer" />
		<tag k="place" v="farm" />
		<tag k="ssr:stedsnr" v="271761" />
	</node>
	<node lat="59.16619444702674" lon="9.61443888234101" id="-29617">
		<tag k="building" v="commercial" />
		<tag k="name" v="Lyngbakken" />
		<tag k="ssr:stedsnr" v="271844" />
	</node>
	<node lat="59.29599722294308" lon="9.548705560506832" id="-29628">
		<tag k="name" v="Slettene" />
		<tag k="place" v="farm" />
		<tag k="ssr:stedsnr" v="450100" />
	</node>
	<node lat="59.13105000332657" lon="9.411722220105382" id="-29630">
		<tag k="name" v="Flåtesund" />
		<tag k="place" v="locality" />
		<tag k="ssr:stedsnr" v="450285" />
	</node>
	<node lat="59.23354166470721" lon="9.561744440212127" id="-29634">
		<tag k="name" v="Søndre Hyni" />
		<tag k="place" v="farm" />
		<tag k="ssr:stedsnr" v="450799" />
	</node>
	<node lat="59.258211112710846" lon="9.579069441917076" id="-29635">
		<tag k="name" v="Foss" />
		<tag k="place" v="farm" />
		<tag k="ssr:stedsnr" v="450841" />
	</node>
	<node lat="59.22476389140324" lon="9.417674995330064" id="-29643">
		<tag k="fixme" v="consider place=hamlet" />
		<tag k="name" v="Bergan" />
		<tag k="place" v="farm" />
		<tag k="ssr:stedsnr" v="451271" />
	</node>
	<node lat="59.22681944882686" lon="9.605169448635959" id="-29645">
		<tag k="leisure" v="pitch" />
		<tag k="name" v="Gjerpen stadion" />
		<tag k="ssr:stedsnr" v="451202" />
	</node>
	<node lat="59.1269916669135" lon="9.410694453013853" id="-29646">
		<tag k="name" v="Øvretangen" />
		<tag k="place" v="locality" />
		<tag k="ssr:stedsnr" v="451203" />
	</node>
	<node lat="59.226872222803316" lon="9.62907500868037" id="-29647">
		<tag k="name" v="Søndre Kjær" />
		<tag k="place" v="farm" />
		<tag k="ssr:stedsnr" v="451205" />
	</node>
	<node lat="59.24369999636052" lon="9.568322219857043" id="-29648">
		<tag k="name" v="Vestre Venstøp" />
		<tag k="place" v="farm" />
		<tag k="ssr:stedsnr" v="451888" />
	</node>
	<node lat="59.15425555684378" lon="9.620083326954363" id="-29656">
		<tag k="name" v="Kongerød" />
		<tag k="place" v="farm" />
		<tag k="ssr:stedsnr" v="244635" />
	</node>
	<node lat="59.23283888962913" lon="9.635244441680491" id="-29657">
		<tag k="name" v="Bugodt" />
		<tag k="place" v="farm" />
		<tag k="ssr:stedsnr" v="244685" />
	</node>
	<node lat="59.13213055716389" lon="9.519827779970027" id="-29658">
		<tag k="name" v="Rambekk" />
		<tag k="place" v="farm" />
		<tag k="ssr:stedsnr" v="244809" />
	</node>
	<node lat="59.19609999963532" lon="9.67650277652482" id="-29660">
		<tag k="fixme" v="consider place=hamlet" />
		<tag k="name" v="Skogsrød" />
		<tag k="place" v="farm" />
		<tag k="ssr:stedsnr" v="244712" />
	</node>
	<node lat="59.20189166865534" lon="9.731000005314778" id="-29661">
		<tag k="name" v="Kosa" />
		<tag k="old_name" v="Kåsa" />
		<tag k="place" v="farm" />
		<tag k="ssr:stedsnr" v="244736" />
	</node>
	<node lat="59.2726027788312" lon="9.5660777815106" id="-29670">
		<tag k="name" v="Jønnevall" />
		<tag k="place" v="farm" />
		<tag k="ssr:stedsnr" v="245626" />
	</node>
	<node lat="59.25181111382661" lon="9.592411108022397" id="-29671">
		<tag k="name" v="Berberg" />
		<tag k="place" v="farm" />
		<tag k="ssr:stedsnr" v="245636" />
	</node>
	<node lat="59.26199166960172" lon="9.607030563403866" id="-29673">
		<tag k="alt_name" v="Høgås Sanatorium" />
		<tag k="amenity" v="nursing_home" />
		<tag k="name" v="Høgås" />
		<tag k="ssr:stedsnr" v="245424" />
	</node>
	<node lat="59.27198055439197" lon="9.633013897504085" id="-29675">
		<tag k="name" v="Havretjennstua" />
		<tag k="place" v="isolated_dwelling" />
		<tag k="ssr:stedsnr" v="245443" />
	</node>
	<node lat="59.27989722279152" lon="9.539702782468394" id="-29676">
		<tag k="fixme" v="consider place=hamlet" />
		<tag k="name" v="Gløsmyr" />
		<tag k="place" v="farm" />
		<tag k="ssr:stedsnr" v="245707" />
	</node>
	<node lat="59.2760666680079" lon="9.558508336088195" id="-29677">
		<tag k="name" v="Kulten" />
		<tag k="place" v="farm" />
		<tag k="ssr:stedsnr" v="245710" />
	</node>
	<node lat="59.28084166484419" lon="9.49715555046089" id="-29680">
		<tag k="name" v="Smørholet" />
		<tag k="place" v="locality" />
		<tag k="ssr:stedsnr" v="245719" />
	</node>
	<node lat="59.40180833561573" lon="9.534838885255429" id="-29687">
		<tag k="name" v="Sætre" />
		<tag k="place" v="farm" />
		<tag k="ssr:stedsnr" v="245901" />
	</node>
	<node lat="59.39865277698732" lon="9.537077772553273" id="-29688">
		<tag k="alt_name" v="Bø, vestre" />
		<tag k="name" v="Vestre Bø" />
		<tag k="place" v="farm" />
		<tag k="ssr:stedsnr" v="245913" />
	</node>
	<node lat="59.23212222043295" lon="9.585197218069554" id="-29690">
		<tag k="fixme" v="consider place=hamlet" />
		<tag k="name" v="Søndre Venstøp" />
		<tag k="place" v="farm" />
		<tag k="ssr:stedsnr" v="452681" />
	</node>
	<node lat="59.217211108192544" lon="9.683719436353806" id="-29692">
		<tag k="historic" v="shieling" />
		<tag k="name" v="Gamlestulen" />
		<tag k="place" v="isolated_dwelling" />
		<tag k="ssr:stedsnr" v="452940" />
	</node>
	<node lat="59.205577779502995" lon="9.659411117958362" id="-29693">
		<tag k="name" v="Solli" />
		<tag k="place" v="farm" />
		<tag k="ssr:stedsnr" v="452944" />
	</node>
	<node lat="59.20121666362937" lon="9.73121666206647" id="-29695">
		<tag k="name" v="Kåsa" />
		<tag k="place" v="farm" />
		<tag k="ssr:stedsnr" v="453034" />
	</node>
	<node lat="59.15198888802884" lon="9.627969446035491" id="-29700">
		<tag k="amenity" v="school" />
		<tag k="name" v="Klyve skole" />
		<tag k="ssr:stedsnr" v="453785" />
	</node>
	<node lat="59.15466111404514" lon="9.628633340559718" id="-29701">
		<tag k="name" v="Villumskås" />
		<tag k="place" v="farm" />
		<tag k="ssr:stedsnr" v="453790" />
	</node>
	<node lat="59.103038892796285" lon="9.315922220441081" id="-29706">
		<tag k="historic" v="shieling" />
		<tag k="name" v="Fjellseter" />
		<tag k="place" v="isolated_dwelling" />
		<tag k="ssr:stedsnr" v="453929" />
	</node>
	<node lat="59.21186944060329" lon="9.42140277092195" id="-29711">
		<tag k="name" v="Melum" />
		<tag k="place" v="farm" />
		<tag k="ssr:stedsnr" v="263836" />
	</node>
	<node lat="59.29835278163185" lon="9.589586112202719" id="-29714">
		<tag k="historic" v="shieling" />
		<tag k="name" v="Venstøpseter" />
		<tag k="place" v="isolated_dwelling" />
		<tag k="ssr:stedsnr" v="263983" />
	</node>
	<node lat="59.31198055978669" lon="9.339227784787134" id="-29732">
		<tag k="name" v="Barstad" />
		<tag k="place" v="farm" />
		<tag k="ssr:stedsnr" v="268825" />
	</node>
	<node lat="59.191208331874535" lon="9.435549991473598" id="-29733">
		<tag k="fixme" v="consider place=hamlet" />
		<tag k="name" v="Sti" />
		<tag k="place" v="farm" />
		<tag k="ssr:stedsnr" v="268964" />
	</node>
	<node lat="59.25800277543688" lon="9.668013892095514" id="-29734">
		<tag k="name" v="Lundseter" />
		<tag k="place" v="isolated_dwelling" />
		<tag k="ssr:stedsnr" v="268968" />
	</node>
	<node lat="59.20096666789634" lon="9.479361105909723" id="-29737">
		<tag k="name" v="Haukenesodden" />
		<tag k="place" v="isolated_dwelling" />
		<tag k="ssr:stedsnr" v="268984" />
	</node>
	<node lat="59.205025001485474" lon="9.553002776140621" id="-29742">
		<tag k="name" v="Kampekastet" />
		<tag k="place" v="quarter" />
		<tag k="ssr:stedsnr" v="269677" />
	</node>
	<node lat="59.310274999539615" lon="9.329574997268914" id="-29743">
		<tag k="name" v="Vale" />
		<tag k="place" v="farm" />
		<tag k="ssr:stedsnr" v="269689" />
	</node>
	<node lat="59.190625000517066" lon="9.467519447852922" id="-29746">
		<tag k="name" v="Hustveit" />
		<tag k="place" v="farm" />
		<tag k="ssr:stedsnr" v="269929" />
	</node>
	<node lat="59.178213891548666" lon="9.603833329362272" id="-29756">
		<tag k="name" v="Slåttehagen" />
		<tag k="place" v="farm" />
		<tag k="ssr:stedsnr" v="271273" />
	</node>
	<node lat="59.176147220286545" lon="9.679108340989737" id="-29757">
		<tag k="name" v="Myra" />
		<tag k="place" v="farm" />
		<tag k="ssr:stedsnr" v="271812" />
	</node>
	<node lat="59.172591670421816" lon="9.647108325409203" id="-29758">
		<tag k="amenity" v="school" />
		<tag k="name" v="Menstad skole" />
		<tag k="ssr:stedsnr" v="271883" />
	</node>
	<node lat="59.401805555523794" lon="9.424786114758994" id="-29760">
		<tag k="fixme" v="consider tourism=alpine_hut or tourism=chalet" />
		<tag k="name" v="Fugleleiken" />
		<tag k="ssr:stedsnr" v="279721" />
		<tag k="tourism" v="wilderness_hut" />
	</node>
	<node lat="59.2082805543754" lon="9.576680559625306" id="-29762">
		<tag k="name" v="Rønningen" />
		<tag k="place" v="isolated_dwelling" />
		<tag k="ssr:stedsnr" v="291082" />
	</node>
	<node lat="59.17780278218195" lon="9.626800005539415" id="-29763">
		<tag k="name" v="Granegård" />
		<tag k="place" v="farm" />
		<tag k="ssr:stedsnr" v="291431" />
	</node>
	<node lat="59.1860111108928" lon="9.613825005568284" id="-29764">
		<tag k="building" v="commercial" />
		<tag k="name" v="Tuftebygget" />
		<tag k="ssr:stedsnr" v="295189" />
	</node>
	<node lat="59.385738888338196" lon="9.42517499404371" id="-29769">
		<tag k="fixme" v="consider tourism=alpine_hut or tourism=chalet" />
		<tag k="name" v="Flekkerhytta" />
		<tag k="ssr:stedsnr" v="302906" />
		<tag k="tourism" v="wilderness_hut" />
	</node>
	<node lat="59.13259444545975" lon="9.589230560926921" id="-29771">
		<tag k="name" v="Lakåsene" />
		<tag k="place" v="farm" />
		<tag k="ssr:stedsnr" v="304819" />
	</node>
	<node lat="59.128161109944735" lon="9.391900002165416" id="-29772">
		<tag k="name" v="Frønes" />
		<tag k="place" v="farm" />
		<tag k="ssr:stedsnr" v="304821" />
	</node>
	<node lat="59.20311666321097" lon="9.657836112487352" id="-29775">
		<tag k="name" v="Løberg" />
		<tag k="place" v="farm" />
		<tag k="ssr:stedsnr" v="305266" />
	</node>
	<node lat="59.23359166716492" lon="9.65685556336396" id="-29778">
		<tag k="name" v="Slåtta" />
		<tag k="place" v="farm" />
		<tag k="ssr:stedsnr" v="305677" />
	</node>
	<node lat="59.3047083336738" lon="9.533922217292682" id="-29780">
		<tag k="name" v="Holt" />
		<tag k="place" v="farm" />
		<tag k="ssr:stedsnr" v="305811" />
	</node>
	<node lat="59.074797220562296" lon="9.478594449010734" id="-29783">
		<tag k="name" v="Svarvareidet" />
		<tag k="place" v="farm" />
		<tag k="ssr:stedsnr" v="305866" />
	</node>
	<node lat="59.081813889909185" lon="9.392391659720033" id="-29785">
		<tag k="name" v="Gisholt" />
		<tag k="place" v="farm" />
		<tag k="ssr:stedsnr" v="305764" />
	</node>
	<node lat="59.10025555767195" lon="9.406002770299027" id="-29787">
		<tag k="name" v="Bjåland" />
		<tag k="place" v="farm" />
		<tag k="ssr:stedsnr" v="305775" />
	</node>
	<node lat="59.20960555226403" lon="9.609013883788533" id="-29788">
		<tag k="name" v="Skien" />
		<tag k="place" v="town" />
		<tag k="ssr:stedsnr" v="305902" />
	</node>
	<node lat="59.15949722057469" lon="9.557191671197215" id="-29791">
		<tag k="name" v="Finndal" />
		<tag k="place" v="farm" />
		<tag k="ssr:stedsnr" v="305965" />
	</node>
	<node lat="59.16406944570112" lon="9.546652774589528" id="-29792">
		<tag k="fixme" v="consider place=hamlet" />
		<tag k="name" v="Holtan" />
		<tag k="place" v="farm" />
		<tag k="ssr:stedsnr" v="305966" />
	</node>
	<node lat="59.42053888777075" lon="9.492311103931463" id="-29793">
		<tag k="name" v="Loppedam" />
		<tag k="place" v="isolated_dwelling" />
		<tag k="ssr:stedsnr" v="305969" />
	</node>
	<node lat="59.28791111240216" lon="9.568033329070305" id="-29798">
		<tag k="name" v="Eriksrød" />
		<tag k="place" v="farm" />
		<tag k="ssr:stedsnr" v="313684" />
	</node>
	<node lat="59.21039999678276" lon="9.417066661718708" id="-29799">
		<tag k="name" v="Melum" />
		<tag k="place" v="hamlet" />
		<tag k="ssr:stedsnr" v="324184" />
	</node>
	<node lat="59.26034444080309" lon="9.58660555440472" id="-29809">
		<tag k="name" v="Glenna" />
		<tag k="place" v="farm" />
		<tag k="ssr:stedsnr" v="329825" />
	</node>
	<node lat="59.1558333290871" lon="9.557227786239872" id="-29810">
		<tag k="alt_name" v="Lille Findal" />
		<tag k="fixme" v="consider place=hamlet" />
		<tag k="name" v="Finndal" />
		<tag k="place" v="farm" />
		<tag k="ssr:stedsnr" v="329864" />
	</node>
	<node lat="59.188241666452335" lon="9.503205559779953" id="-29811">
		<tag k="name" v="Tute" />
		<tag k="place" v="farm" />
		<tag k="ssr:stedsnr" v="329866" />
	</node>
	<node lat="59.15971944810729" lon="9.37288055908779" id="-29813">
		<tag k="name" v="Stoa" />
		<tag k="place" v="isolated_dwelling" />
		<tag k="ssr:stedsnr" v="329760" />
	</node>
	<node lat="59.165916663592334" lon="9.59605000156053" id="-29815">
		<tag k="name" v="Trommedalen" />
		<tag k="place" v="farm" />
		<tag k="ssr:stedsnr" v="329914" />
	</node>
	<node lat="59.190586114558855" lon="9.510175002468989" id="-29816">
		<tag k="name" v="Elset" />
		<tag k="place" v="farm" />
		<tag k="ssr:stedsnr" v="330610" />
	</node>
	<node lat="59.157411109308505" lon="9.681494440915648" id="-29832">
		<tag k="name" v="Øvre Søli" />
		<tag k="place" v="farm" />
		<tag k="ssr:stedsnr" v="332301" />
	</node>
	<node lat="59.19691666820341" lon="9.635772226209088" id="-29833">
		<tag k="name" v="Rønningen" />
		<tag k="place" v="farm" />
		<tag k="ssr:stedsnr" v="332348" />
	</node>
	<node lat="59.182977780542224" lon="9.64270555090372" id="-29834">
		<tag k="name" v="Rønningen" />
		<tag k="place" v="farm" />
		<tag k="ssr:stedsnr" v="332364" />
	</node>
	<node lat="59.15268333690446" lon="9.615886111086521" id="-29836">
		<tag k="name" v="Øvre Kongerød" />
		<tag k="place" v="quarter" />
		<tag k="ssr:stedsnr" v="332696" />
	</node>
	<node lat="59.16873332919676" lon="9.695052784328805" id="-29837">
		<tag k="fixme" v="consider place=hamlet" />
		<tag k="name" v="Fossejordet" />
		<tag k="place" v="farm" />
		<tag k="ssr:stedsnr" v="332746" />
	</node>
	<node lat="59.156727780734876" lon="9.637080556655151" id="-29838">
		<tag k="fixme" v="consider place=suburb, village or hamlet" />
		<tag k="name" v="Tollnes" />
		<tag k="place" v="quarter" />
		<tag k="ssr:stedsnr" v="332758" />
	</node>
	<node lat="59.21398611085119" lon="9.51655832967143" id="-29843">
		<tag k="name" v="Granheim" />
		<tag k="place" v="farm" />
		<tag k="ssr:stedsnr" v="473043" />
	</node>
	<node lat="59.21589721881033" lon="9.553308326073035" id="-29852">
		<tag k="building" v="commercial" />
		<tag k="name" v="Gulsetsenteret" />
		<tag k="ssr:stedsnr" v="477330" />
	</node>
	<node lat="59.16473611368651" lon="9.634169450866409" id="-29856">
		<tag k="name" v="Nenset" />
		<tag k="place" v="quarter" />
		<tag k="ssr:stedsnr" v="365517" />
	</node>
	<node lat="59.222380552624955" lon="9.630988886375393" id="-29860">
		<tag k="name" v="Berg" />
		<tag k="place" v="farm" />
		<tag k="ssr:stedsnr" v="365746" />
	</node>
	<node lat="59.192438885487064" lon="9.438933337765008" id="-29861">
		<tag k="alt_name" v="Dolvhus" />
		<tag k="name" v="Dolhus" />
		<tag k="place" v="farm" />
		<tag k="ssr:stedsnr" v="365901" />
	</node>
	<node lat="59.26862500229776" lon="9.6058138956531" id="-29862">
		<tag k="name" v="Fjelldalen" />
		<tag k="place" v="farm" />
		<tag k="ssr:stedsnr" v="366479" />
	</node>
	<node lat="59.210208336264934" lon="9.577341660059155" id="-29869">
		<tag k="name" v="Strømdal" />
		<tag k="place" v="locality" />
		<tag k="ssr:stedsnr" v="366885" />
	</node>
	<node lat="59.30095278179545" lon="9.491755561567038" id="-29870">
		<tag k="name" v="Nisterud" />
		<tag k="place" v="farm" />
		<tag k="ssr:stedsnr" v="366777" />
	</node>
	<node lat="59.30410525039078" lon="9.460692612850849" id="-29871">
		<tag k="alt_name" v="Såtesæter" />
		<tag k="name" v="Såta" />
		<tag k="place" v="locality" />
		<tag k="ssr:stedsnr" v="366782" />
	</node>
	<node lat="59.39505277913807" lon="9.591816672390921" id="-29872">
		<tag k="name" v="Jonsseter" />
		<tag k="place" v="isolated_dwelling" />
		<tag k="ssr:stedsnr" v="366908" />
	</node>
	<node lat="59.20018888778571" lon="9.590297221234302" id="-29879">
		<tag k="name" v="Myra" />
		<tag k="place" v="farm" />
		<tag k="ssr:stedsnr" v="384997" />
	</node>
	<node lat="59.2014222239985" lon="9.527772224053543" id="-29881">
		<tag k="name" v="Dagsrud" />
		<tag k="place" v="farm" />
		<tag k="ssr:stedsnr" v="385000" />
	</node>
	<node lat="59.18423055576588" lon="9.529877770170872" id="-29884">
		<tag k="fixme" v="consider place=hamlet" />
		<tag k="name" v="Klovholt" />
		<tag k="place" v="farm" />
		<tag k="ssr:stedsnr" v="389614" />
	</node>
	<node lat="59.219174996425615" lon="9.561672224630446" id="-29888">
		<tag k="amenity" v="school" />
		<tag k="name" v="Stigeråsen" />
		<tag k="ssr:stedsnr" v="389798" />
	</node>
	<node lat="59.22512499906192" lon="9.589775006556158" id="-29890">
		<tag k="name" v="Melåker" />
		<tag k="place" v="farm" />
		<tag k="ssr:stedsnr" v="389846" />
	</node>
	<node lat="59.22506944253121" lon="9.588411116233166" id="-29891">
		<tag k="name" v="Østre Mæla" />
		<tag k="place" v="farm" />
		<tag k="ssr:stedsnr" v="389847" />
	</node>
	<node lat="59.23065555197908" lon="9.631844442346596" id="-29894">
		<tag k="name" v="Nordre Kjær" />
		<tag k="place" v="farm" />
		<tag k="ssr:stedsnr" v="390207" />
	</node>
	<node lat="59.17780555226582" lon="9.353022214365234" id="-29897">
		<tag k="fixme" v="consider place=hamlet" />
		<tag k="name" v="Veberg" />
		<tag k="place" v="farm" />
		<tag k="ssr:stedsnr" v="390615" />
	</node>
	<node lat="59.1920583345534" lon="9.473286104085416" id="-29902">
		<tag k="name" v="Melfall nedre" />
		<tag k="place" v="farm" />
		<tag k="ssr:stedsnr" v="390889" />
	</node>
	<node lat="59.16026944864465" lon="9.394836114555856" id="-29907">
		<tag k="name" v="Nes" />
		<tag k="place" v="farm" />
		<tag k="ssr:stedsnr" v="391590" />
	</node>
	<node lat="59.166522225337324" lon="9.682286102637503" id="-29913">
		<tag k="name" v="Søndre Riis" />
		<tag k="place" v="farm" />
		<tag k="ssr:stedsnr" v="392700" />
	</node>
	<node lat="59.385736113446306" lon="9.4251749945115" id="-29915">
		<tag k="fixme" v="consider tourism=alpine_hut or tourism=chalet" />
		<tag k="name" v="Flekkerhytta" />
		<tag k="ssr:stedsnr" v="484900" />
		<tag k="tourism" v="wilderness_hut" />
	</node>
	<node lat="59.23823055907361" lon="9.446922230247319" id="-29917">
		<tag k="name" v="Spirdalen" />
		<tag k="place" v="farm" />
		<tag k="ssr:stedsnr" v="486046" />
	</node>
	<node lat="59.20848333227835" lon="9.69361389127666" id="-29920">
		<tag k="name" v="Steinsrød" />
		<tag k="place" v="farm" />
		<tag k="ssr:stedsnr" v="486754" />
	</node>
	<node lat="59.192547220434186" lon="9.464149996116198" id="-29921">
		<tag k="fixme" v="consider place=hamlet" />
		<tag k="name" v="Hustveit" />
		<tag k="place" v="farm" />
		<tag k="ssr:stedsnr" v="486884" />
	</node>
	<node lat="59.1994138854479" lon="9.540902775797782" id="-29922">
		<tag k="alt_name" v="Nedre Åfoss" />
		<tag k="name" v="Åfoss" />
		<tag k="place" v="farm" />
		<tag k="ssr:stedsnr" v="486887" />
	</node>
	<node lat="59.153050004118306" lon="9.605019451246086" id="-29926">
		<tag k="alt_name" v="Skogli" />
		<tag k="name" v="Hulka" />
		<tag k="place" v="farm" />
		<tag k="ssr:stedsnr" v="487571" />
	</node>
	<node lat="59.18150555800429" lon="9.685766670374258" id="-29927">
		<tag k="fixme" v="consider place=hamlet" />
		<tag k="name" v="Eikåsen" />
		<tag k="place" v="farm" />
		<tag k="ssr:stedsnr" v="487588" />
	</node>
	<node lat="59.31071110684986" lon="9.352238895112572" id="-29939">
		<tag k="alt_name" v="Gravar, nedre" />
		<tag k="name" v="Graverplassen" />
		<tag k="place" v="farm" />
		<tag k="ssr:stedsnr" v="487794" />
	</node>
	<node lat="59.305513884722686" lon="9.334886104142257" id="-29941">
		<tag k="name" v="Vale" />
		<tag k="place" v="farm" />
		<tag k="ssr:stedsnr" v="487796" />
	</node>
	<node lat="59.38068055524664" lon="9.558511119306361" id="-29942">
		<tag k="name" v="Drengen" />
		<tag k="place" v="isolated_dwelling" />
		<tag k="ssr:stedsnr" v="487823" />
	</node>
	<node lat="59.47951666396043" lon="9.534722226378973" id="-29946">
		<tag k="name" v="Finnvollen" />
		<tag k="place" v="isolated_dwelling" />
		<tag k="ssr:stedsnr" v="488044" />
	</node>
	<node lat="59.26865833012556" lon="9.58059444013889" id="-29948">
		<tag k="name" v="Haugen" />
		<tag k="place" v="farm" />
		<tag k="ssr:stedsnr" v="488618" />
	</node>
	<node lat="59.28024444882967" lon="9.545102781303246" id="-29951">
		<tag k="fixme" v="consider place=hamlet" />
		<tag k="name" v="Folevall" />
		<tag k="place" v="farm" />
		<tag k="ssr:stedsnr" v="488733" />
	</node>
	<node lat="59.331205552158444" lon="9.351952784905619" id="-29955">
		<tag k="name" v="Dalkåsa" />
		<tag k="place" v="isolated_dwelling" />
		<tag k="ssr:stedsnr" v="488861" />
	</node>
	<node lat="59.32723888794328" lon="9.332344452878981" id="-29957">
		<tag k="name" v="Moane" />
		<tag k="place" v="farm" />
		<tag k="ssr:stedsnr" v="488868" />
	</node>
	<node lat="59.39918889238955" lon="9.53773611323216" id="-29958">
		<tag k="name" v="Bø" />
		<tag k="place" v="farm" />
		<tag k="ssr:stedsnr" v="420938" />
	</node>
	<node lat="59.16406666329466" lon="9.702644438422373" id="-29959">
		<tag k="name" v="Lid" />
		<tag k="place" v="farm" />
		<tag k="ssr:stedsnr" v="426502" />
	</node>
	<node lat="59.191347226636815" lon="9.71120555518913" id="-29960">
		<tag k="fixme" v="consider place=hamlet" />
		<tag k="name" v="Båserød" />
		<tag k="place" v="farm" />
		<tag k="ssr:stedsnr" v="426705" />
	</node>
	<node lat="59.191586110764945" lon="9.683377784516727" id="-29961">
		<tag k="name" v="Fjellheim" />
		<tag k="place" v="farm" />
		<tag k="ssr:stedsnr" v="426709" />
	</node>
	<node lat="59.18416111237724" lon="9.688958324986412" id="-29962">
		<tag k="name" v="Kolrød" />
		<tag k="place" v="farm" />
		<tag k="ssr:stedsnr" v="426711" />
	</node>
	<node lat="59.188058331591236" lon="9.642738896510417" id="-29963">
		<tag k="name" v="Follaug" />
		<tag k="place" v="farm" />
		<tag k="ssr:stedsnr" v="426712" />
	</node>
	<node lat="59.12318333585074" lon="9.465169443510248" id="-29968">
		<tag k="name" v="Eikebrekke" />
		<tag k="place" v="locality" />
		<tag k="ssr:stedsnr" v="426791" />
	</node>
	<node lat="59.116641664366924" lon="9.417261102470826" id="-29969">
		<tag k="fixme" v="consider place=hamlet" />
		<tag k="name" v="Solheim" />
		<tag k="place" v="farm" />
		<tag k="ssr:stedsnr" v="426793" />
	</node>
	<node lat="59.22165000006485" lon="9.48148889293325" id="-29970">
		<tag k="name" v="Gisholt" />
		<tag k="place" v="farm" />
		<tag k="ssr:stedsnr" v="426931" />
	</node>
	<node lat="59.23568055999751" lon="9.570116666798274" id="-29971">
		<tag k="fixme" v="consider place=hamlet" />
		<tag k="name" v="Hyni" />
		<tag k="place" v="farm" />
		<tag k="ssr:stedsnr" v="426933" />
	</node>
	<node lat="59.168002773854" lon="9.5199805573431" id="-29973">
		<tag k="name" v="Nyhus" />
		<tag k="place" v="farm" />
		<tag k="ssr:stedsnr" v="426984" />
	</node>
	<node lat="59.17815555193342" lon="9.539802772765725" id="-29975">
		<tag k="name" v="Tingstad" />
		<tag k="place" v="farm" />
		<tag k="ssr:stedsnr" v="426994" />
	</node>
	<node lat="59.246452781693826" lon="9.657399992205857" id="-29980">
		<tag k="fixme" v="consider tourism=alpine_hut or tourism=chalet" />
		<tag k="name" v="Kikuthytta" />
		<tag k="ssr:stedsnr" v="427619" />
		<tag k="tourism" v="wilderness_hut" />
	</node>
	<node lat="59.25838055282237" lon="9.42939722376777" id="-29981">
		<tag k="name" v="Fjellheim" />
		<tag k="place" v="isolated_dwelling" />
		<tag k="ssr:stedsnr" v="427620" />
	</node>
	<node lat="59.19343332933553" lon="9.390211102321341" id="-29991">
		<tag k="fixme" v="consider place=hamlet" />
		<tag k="name" v="Hummelskår" />
		<tag k="place" v="farm" />
		<tag k="ssr:stedsnr" v="427871" />
	</node>
	<node lat="59.203738888921805" lon="9.437963886397355" id="-29992">
		<tag k="name" v="Hegna" />
		<tag k="place" v="farm" />
		<tag k="ssr:stedsnr" v="427878" />
	</node>
	<node lat="59.40752777835089" lon="9.587599996866066" id="-29994">
		<tag k="name" v="Listul" />
		<tag k="place" v="isolated_dwelling" />
		<tag k="ssr:stedsnr" v="427884" />
	</node>
	<node lat="59.43182194670227" lon="9.507959701655434" id="-29997">
		<tag k="alt_name" v="Dale, øvre" />
		<tag k="name" v="Øvre Dale" />
		<tag k="place" v="farm" />
		<tag k="ssr:stedsnr" v="427970" />
	</node>
	<node lat="59.2123083337552" lon="9.424044441743034" id="-30000">
		<tag k="fixme" v="consider place=hamlet" />
		<tag k="name" v="Melum" />
		<tag k="place" v="farm" />
		<tag k="ssr:stedsnr" v="445838" />
	</node>
	<node lat="59.162255552643494" lon="9.661738889667873" id="-30002">
		<tag k="name" v="Rødborge" />
		<tag k="place" v="quarter" />
		<tag k="ssr:stedsnr" v="445983" />
	</node>
	<node lat="59.44959722417407" lon="9.527513892614154" id="-30009">
		<tag k="name" v="Lia" />
		<tag k="place" v="locality" />
		<tag k="ssr:stedsnr" v="670960" />
	</node>
	<node lat="59.185261110417024" lon="9.530908329554482" id="-30017">
		<tag k="amenity" v="school" />
		<tag k="name" v="Klovholt skole" />
		<tag k="ssr:stedsnr" v="450616" />
	</node>
	<node lat="59.23747222166471" lon="9.624724993869192" id="-30029">
		<tag k="fixme" v="consider place=hamlet" />
		<tag k="name" v="Lundsåsen" />
		<tag k="place" v="farm" />
		<tag k="ssr:stedsnr" v="451227" />
	</node>
	<node lat="59.23237777859582" lon="9.596013889059584" id="-30031">
		<tag k="name" v="Sommerfryd" />
		<tag k="place" v="quarter" />
		<tag k="ssr:stedsnr" v="451880" />
	</node>
	<node lat="59.192994446489216" lon="9.583663881247466" id="-30034">
		<tag k="name" v="Bakkane" />
		<tag k="place" v="farm" />
		<tag k="ssr:stedsnr" v="451924" />
	</node>
	<node lat="59.08123889101227" lon="9.398305561325333" id="-30036">
		<tag k="name" v="Gisholt" />
		<tag k="place" v="farm" />
		<tag k="ssr:stedsnr" v="452112" />
	</node>
	<node lat="59.21383610984611" lon="9.640891672011342" id="-30038">
		<tag k="name" v="Nordbø" />
		<tag k="place" v="farm" />
		<tag k="ssr:stedsnr" v="452367" />
	</node>
	<node lat="59.220202773638725" lon="9.638902773075852" id="-30039">
		<tag k="amenity" v="school" />
		<tag k="name" v="Sneltvedt skole" />
		<tag k="ssr:stedsnr" v="452376" />
	</node>
	<node lat="59.21153610717507" lon="9.625558330374686" id="-30040">
		<tag k="name" v="Myrvold" />
		<tag k="place" v="farm" />
		<tag k="ssr:stedsnr" v="452285" />
	</node>
	<node lat="59.17898889012859" lon="9.647694446313912" id="-30043">
		<tag k="name" v="Nordre Ballestad" />
		<tag k="place" v="farm" />
		<tag k="ssr:stedsnr" v="453277" />
	</node>
	<node lat="59.191502777655685" lon="9.632777778077399" id="-30044">
		<tag k="alt_name" v="Finnheim" />
		<tag k="name" v="Furuheim" />
		<tag k="place" v="farm" />
		<tag k="ssr:stedsnr" v="453362" />
	</node>
	<node lat="59.16557499850232" lon="9.72401388202346" id="-30045">
		<tag k="historic" v="shieling" />
		<tag k="name" v="Lidseter" />
		<tag k="place" v="isolated_dwelling" />
		<tag k="ssr:stedsnr" v="453504" />
	</node>
	<node lat="59.16048055148685" lon="9.688149999967992" id="-30049">
		<tag k="name" v="Sanni" />
		<tag k="place" v="farm" />
		<tag k="ssr:stedsnr" v="453775" />
	</node>
	<node lat="59.189655552396005" lon="9.625091673098131" id="-30053">
		<tag k="name" v="Vrangspel" />
		<tag k="place" v="quarter" />
		<tag k="ssr:stedsnr" v="473424" />
	</node>
	<node lat="59.2592805589837" lon="9.573966660262586" id="-30056">
		<tag k="name" v="Foss" />
		<tag k="place" v="farm" />
		<tag k="ssr:stedsnr" v="677673" />
	</node>
	<node lat="59.127905552692475" lon="9.342305564123356" id="-30059">
		<tag k="name" v="Solstad" />
		<tag k="place" v="farm" />
		<tag k="ssr:stedsnr" v="486807" />
	</node>
	<node lat="59.1969555524239" lon="9.66776388776064" id="-30061">
		<tag k="alt_name" v="Løberg, s" />
		<tag k="name" v="Søndre Løberg" />
		<tag k="place" v="farm" />
		<tag k="ssr:stedsnr" v="487729" />
	</node>
	<node lat="59.248241667932064" lon="9.630600006124348" id="-30062">
		<tag k="name" v="Lysa" />
		<tag k="place" v="farm" />
		<tag k="ssr:stedsnr" v="487679" />
	</node>
	<node lat="59.19888888481159" lon="9.456891661024237" id="-30064">
		<tag k="alt_name" v="Hvalen" />
		<tag k="fixme" v="consider place=hamlet" />
		<tag k="name" v="Valen" />
		<tag k="place" v="farm" />
		<tag k="ssr:stedsnr" v="487909" />
	</node>
	<node lat="59.4084305556163" lon="9.50990833106657" id="-30074">
		<tag k="name" v="Åmot" />
		<tag k="place" v="farm" />
		<tag k="ssr:stedsnr" v="488905" />
	</node>
	<node lat="59.211663889509154" lon="9.420225007491506" id="-30077">
		<tag k="name" v="Melum" />
		<tag k="place" v="farm" />
		<tag k="ssr:stedsnr" v="506824" />
	</node>
	<node lat="59.169380553188354" lon="9.387197223294844" id="-30080">
		<tag k="name" v="Stavdal" />
		<tag k="place" v="hamlet" />
		<tag k="ssr:stedsnr" v="510073" />
	</node>
	<node lat="59.14191944442147" lon="9.54401666540666" id="-30085">
		<tag k="name" v="Veholt" />
		<tag k="place" v="farm" />
		<tag k="ssr:stedsnr" v="511514" />
	</node>
	<node lat="59.314777780428294" lon="9.328680553011214" id="-30089">
		<tag k="name" v="Lunde" />
		<tag k="place" v="farm" />
		<tag k="ssr:stedsnr" v="511819" />
	</node>
	<node lat="59.157347224478045" lon="9.55371666662386" id="-30092">
		<tag k="fixme" v="consider place=hamlet" />
		<tag k="name" v="Finndal nordre" />
		<tag k="place" v="farm" />
		<tag k="ssr:stedsnr" v="511873" />
	</node>
	<node lat="59.21896666435772" lon="9.498305547579797" id="-30095">
		<tag k="name" v="Omdal" />
		<tag k="place" v="farm" />
		<tag k="ssr:stedsnr" v="512080" />
	</node>
	<node lat="59.208241664715594" lon="9.410422227648512" id="-30096">
		<tag k="name" v="Brattebakke" />
		<tag k="place" v="farm" />
		<tag k="ssr:stedsnr" v="512219" />
	</node>
	<node lat="59.222697221521315" lon="9.607072226185794" id="-30108">
		<tag k="leisure" v="park" />
		<tag k="name" v="Hestehaugen" />
		<tag k="ssr:stedsnr" v="513516" />
	</node>
	<node lat="59.205377781739614" lon="9.63758889217152" id="-30109">
		<tag k="alt_name" v="Brattsberg" />
		<tag k="name" v="Bratsberg" />
		<tag k="place" v="farm" />
		<tag k="ssr:stedsnr" v="513522" />
	</node>
	<node lat="59.20417222312717" lon="9.630869452587234" id="-30110">
		<tag k="name" v="Grobakke" />
		<tag k="place" v="farm" />
		<tag k="ssr:stedsnr" v="513523" />
	</node>
	<node lat="59.06140555607388" lon="9.378336119250477" id="-30111">
		<tag k="name" v="Ørnhølet" />
		<tag k="place" v="locality" />
		<tag k="ssr:stedsnr" v="513577" />
	</node>
	<node lat="59.17828888931668" lon="9.61483333233668" id="-30116">
		<tag k="amenity" v="school" />
		<tag k="name" v="Kjørbekkhøgda skole" />
		<tag k="ssr:stedsnr" v="514264" />
	</node>
	<node lat="59.17514166805788" lon="9.723752770887307" id="-30117">
		<tag k="leisure" v="pitch" />
		<tag k="name" v="Tjernlibakken" />
		<tag k="ssr:stedsnr" v="514482" />
	</node>
	<node lat="59.13611666440858" lon="9.60812222932618" id="-30118">
		<tag k="alt_name" v="Knardal" />
		<tag k="fixme" v="consider place=hamlet" />
		<tag k="name" v="Knarrdal" />
		<tag k="place" v="farm" />
		<tag k="ssr:stedsnr" v="514366" />
	</node>
	<node lat="59.178513885082744" lon="9.661036109753178" id="-30119">
		<tag k="name" v="Søndre Ballestad" />
		<tag k="place" v="farm" />
		<tag k="ssr:stedsnr" v="514719" />
	</node>
	<node lat="59.166319441133325" lon="9.650063891954394" id="-30120">
		<tag k="fixme" v="consider place=suburb, village or hamlet" />
		<tag k="name" v="Borgestad" />
		<tag k="place" v="quarter" />
		<tag k="ssr:stedsnr" v="514807" />
	</node>
	<node lat="59.17312500101965" lon="9.633941664366047" id="-30124">
		<tag k="name" v="Nordheim" />
		<tag k="place" v="farm" />
		<tag k="ssr:stedsnr" v="534419" />
	</node>
	<node lat="59.20818055796872" lon="9.604802785220194" id="-30127">
		<tag k="leisure" v="park" />
		<tag k="name" v="Lundeparken" />
		<tag k="ssr:stedsnr" v="545086" />
	</node>
	<node lat="59.19280555688696" lon="9.641311116332165" id="-30128">
		<tag k="name" v="Follaug" />
		<tag k="place" v="farm" />
		<tag k="ssr:stedsnr" v="547720" />
	</node>
	<node lat="59.22215277436936" lon="9.639086117317557" id="-30129">
		<tag k="name" v="Sneltvedt" />
		<tag k="place" v="farm" />
		<tag k="ssr:stedsnr" v="547764" />
	</node>
	<node lat="59.164338889930434" lon="9.401408336951393" id="-30133">
		<tag k="name" v="Gåsodden" />
		<tag k="place" v="farm" />
		<tag k="ssr:stedsnr" v="547975" />
	</node>
	<node lat="59.1608722222299" lon="9.409697224497345" id="-30134">
		<tag k="name" v="Plassen" />
		<tag k="place" v="farm" />
		<tag k="ssr:stedsnr" v="547976" />
	</node>
	<node lat="59.46465277378092" lon="9.513066669099363" id="-30136">
		<tag k="name" v="Rønningslia" />
		<tag k="place" v="isolated_dwelling" />
		<tag k="ssr:stedsnr" v="548025" />
	</node>
	<node lat="59.27061666659071" lon="9.533550005298778" id="-30138">
		<tag k="name" v="Gromstul" />
		<tag k="place" v="farm" />
		<tag k="ssr:stedsnr" v="548658" />
	</node>
	<node lat="59.27722222275153" lon="9.507675000279663" id="-30139">
		<tag k="historic" v="shieling" />
		<tag k="name" v="Bøsæter, s" />
		<tag k="place" v="isolated_dwelling" />
		<tag k="ssr:stedsnr" v="548662" />
	</node>
	<node lat="59.25668333153018" lon="9.55252499539531" id="-30141">
		<tag k="alt_name" v="Bø, s" />
		<tag k="name" v="Søndre Bø" />
		<tag k="place" v="farm" />
		<tag k="ssr:stedsnr" v="548667" />
	</node>
	<node lat="59.3007111068215" lon="9.546461116670626" id="-30147">
		<tag k="name" v="Nykås" />
		<tag k="place" v="farm" />
		<tag k="ssr:stedsnr" v="548702" />
	</node>
	<node lat="59.27997500422312" lon="9.562074991901408" id="-30149">
		<tag k="fixme" v="consider place=hamlet" />
		<tag k="name" v="Oterholt" />
		<tag k="place" v="farm" />
		<tag k="ssr:stedsnr" v="548726" />
	</node>
	<node lat="59.316697223126894" lon="9.3177749973163" id="-30150">
		<tag k="alt_name" v="Hvala" />
		<tag k="fixme" v="consider place=hamlet" />
		<tag k="name" v="Vala" />
		<tag k="place" v="farm" />
		<tag k="ssr:stedsnr" v="548758" />
	</node>
	<node lat="59.310452777697314" lon="9.32083611764139" id="-30151">
		<tag k="alt_name" v="Opsal" />
		<tag k="name" v="Oppsal" />
		<tag k="place" v="farm" />
		<tag k="ssr:stedsnr" v="548775" />
	</node>
	<node lat="59.42994311752033" lon="9.51312581290537" id="-30153">
		<tag k="alt_name" v="Dale, nedre;Dale" />
		<tag k="name" v="Nedre Dale" />
		<tag k="place" v="farm" />
		<tag k="ssr:stedsnr" v="548971" />
	</node>
	<node lat="59.311452776319115" lon="9.417266672470827" id="-30159">
		<tag k="historic" v="shieling" />
		<tag k="name" v="Valeseter" />
		<tag k="place" v="isolated_dwelling" />
		<tag k="ssr:stedsnr" v="688998" />
	</node>
	<node lat="59.29072500314205" lon="9.384894453193793" id="-30161">
		<tag k="name" v="Nedre Glaholt" />
		<tag k="place" v="farm" />
		<tag k="ssr:stedsnr" v="695724" />
	</node>
	<node lat="59.16681666510695" lon="9.720900002644553" id="-30168">
		<tag k="fixme" v="consider place=hamlet" />
		<tag k="name" v="Stulen" />
		<tag k="place" v="farm" />
		<tag k="ssr:stedsnr" v="567922" />
	</node>
	<node lat="59.226386110568676" lon="9.640791663021766" id="-30170">
		<tag k="name" v="Ødesneltvedt" />
		<tag k="place" v="farm" />
		<tag k="ssr:stedsnr" v="693197" />
	</node>
	<node lat="59.251583329392304" lon="9.606563890158414" id="-30171">
		<tag k="fixme" v="consider place=hamlet" />
		<tag k="name" v="Doksrød" />
		<tag k="place" v="farm" />
		<tag k="ssr:stedsnr" v="693281" />
	</node>
	<node lat="59.22010833650873" lon="9.384830556618716" id="-30176">
		<tag k="name" v="Tveitan" />
		<tag k="place" v="hamlet" />
		<tag k="ssr:stedsnr" v="570064" />
	</node>
	<node lat="59.15166388768213" lon="9.524141674895867" id="-30178">
		<tag k="name" v="Lien" />
		<tag k="place" v="farm" />
		<tag k="ssr:stedsnr" v="693532" />
	</node>
	<node lat="59.34380277781106" lon="9.317124992802995" id="-30180">
		<tag k="historic" v="shieling" />
		<tag k="name" v="Brennseter" />
		<tag k="place" v="isolated_dwelling" />
		<tag k="ssr:stedsnr" v="693539" />
	</node>
	<node lat="59.14681388452281" lon="9.550736106040501" id="-30182">
		<tag k="name" v="Meltveit søndre" />
		<tag k="place" v="farm" />
		<tag k="ssr:stedsnr" v="693551" />
	</node>
	<node lat="59.14622500037265" lon="9.536072227096323" id="-30183">
		<tag k="alt_name" v="Søtveit nordre;Nordre Sjøtvedt" />
		<tag k="fixme" v="consider place=hamlet" />
		<tag k="name" v="Søtvedt nordre" />
		<tag k="place" v="farm" />
		<tag k="ssr:stedsnr" v="693557" />
	</node>
	<node lat="59.12245277426104" lon="9.399799998143585" id="-30185">
		<tag k="name" v="Sankthanskåsa" />
		<tag k="place" v="locality" />
		<tag k="ssr:stedsnr" v="571165" />
	</node>
	<node lat="59.121369445798905" lon="9.36033889556874" id="-30193">
		<tag k="name" v="Fjell" />
		<tag k="place" v="farm" />
		<tag k="ssr:stedsnr" v="693747" />
	</node>
	<node lat="59.293861112822555" lon="9.564761118580797" id="-30195">
		<tag k="landuse" v="aquaculture" />
		<tag k="name" v="Sverigeholmen" />
		<tag k="ssr:stedsnr" v="571810" />
	</node>
	<node lat="59.29611388955579" lon="9.558594444283754" id="-30198">
		<tag k="name" v="Sverige" />
		<tag k="place" v="isolated_dwelling" />
		<tag k="ssr:stedsnr" v="571817" />
	</node>
	<node lat="59.13207777382831" lon="9.540891675236537" id="-30202">
		<tag k="alt_name" v="Ørevik" />
		<tag k="fixme" v="consider place=hamlet" />
		<tag k="name" v="Ørvik" />
		<tag k="place" v="farm" />
		<tag k="ssr:stedsnr" v="571927" />
	</node>
	<node lat="59.23649444558404" lon="9.604588893181637" id="-30204">
		<tag k="name" v="Søndre Grini" />
		<tag k="place" v="farm" />
		<tag k="ssr:stedsnr" v="572246" />
	</node>
	<node lat="59.2743277740891" lon="9.574194443174104" id="-30206">
		<tag k="name" v="Mauråsen" />
		<tag k="place" v="locality" />
		<tag k="ssr:stedsnr" v="693835" />
	</node>
	<node lat="59.24658333652285" lon="9.645988889596394" id="-30208">
		<tag k="name" v="Puttekåsa" />
		<tag k="place" v="farm" />
		<tag k="ssr:stedsnr" v="572161" />
	</node>
	<node lat="59.254888891516494" lon="9.590188890752428" id="-30211">
		<tag k="name" v="Norheim" />
		<tag k="place" v="farm" />
		<tag k="ssr:stedsnr" v="693838" />
	</node>
	<node lat="59.2354055559553" lon="9.589013892347724" id="-30212">
		<tag k="name" v="Langgård" />
		<tag k="place" v="farm" />
		<tag k="ssr:stedsnr" v="693851" />
	</node>
	<node lat="59.17562222151759" lon="9.59389722384104" id="-30213">
		<tag k="name" v="Furuheim" />
		<tag k="place" v="farm" />
		<tag k="ssr:stedsnr" v="693932" />
	</node>
	<node lat="59.19270833177964" lon="9.560402776076048" id="-30219">
		<tag k="name" v="Brekka" />
		<tag k="place" v="farm" />
		<tag k="ssr:stedsnr" v="572920" />
	</node>
	<node lat="59.21000555221402" lon="9.621769437898758" id="-30224">
		<tag k="name" v="Frogner" />
		<tag k="place" v="suburb" />
		<tag k="ssr:stedsnr" v="573395" />
	</node>
	<node lat="59.144527781768275" lon="9.437324993686891" id="-30225">
		<tag k="name" v="Oterkil" />
		<tag k="place" v="farm" />
		<tag k="ssr:stedsnr" v="573419" />
	</node>
	<node lat="59.246691670075265" lon="9.567572225781172" id="-30226">
		<tag k="name" v="Nordre Venstøp" />
		<tag k="place" v="farm" />
		<tag k="ssr:stedsnr" v="573665" />
	</node>
	<node lat="59.171605553836905" lon="9.725061106750951" id="-30229">
		<tag k="fixme" v="consider tourism=alpine_hut or tourism=chalet" />
		<tag k="name" v="Jarseng" />
		<tag k="ssr:stedsnr" v="574511" />
		<tag k="tourism" v="wilderness_hut" />
	</node>
	<node lat="59.17324166836479" lon="9.719644448713192" id="-30231">
		<tag k="name" v="Bakkesetra" />
		<tag k="place" v="farm" />
		<tag k="ssr:stedsnr" v="574499" />
	</node>
	<node lat="59.19203055935498" lon="9.559322219950872" id="-30236">
		<tag k="name" v="Brekka" />
		<tag k="place" v="quarter" />
		<tag k="ssr:stedsnr" v="694925" />
	</node>
	<node lat="59.18921110918636" lon="9.474472217620438" id="-30237">
		<tag k="name" v="Melfall" />
		<tag k="place" v="farm" />
		<tag k="ssr:stedsnr" v="694932" />
	</node>
	<node lat="59.08129721911343" lon="9.390613889390844" id="-30243">
		<tag k="name" v="Gisholt" />
		<tag k="place" v="farm" />
		<tag k="ssr:stedsnr" v="696041" />
	</node>
	<node lat="59.18586388644117" lon="9.643297215169374" id="-30244">
		<tag k="fixme" v="consider place=hamlet" />
		<tag k="name" v="Follaug" />
		<tag k="place" v="farm" />
		<tag k="ssr:stedsnr" v="696375" />
	</node>
	<node lat="59.19141389342179" lon="9.618422214715169" id="-30245">
		<tag k="name" v="Gråten" />
		<tag k="place" v="suburb" />
		<tag k="ssr:stedsnr" v="696340" />
	</node>
	<node lat="59.1863944449196" lon="9.67421110834543" id="-30246">
		<tag k="name" v="Flid" />
		<tag k="place" v="farm" />
		<tag k="ssr:stedsnr" v="696586" />
	</node>
	<node lat="59.19896388921929" lon="9.672986118021003" id="-30248">
		<tag k="name" v="Rønningen" />
		<tag k="place" v="farm" />
		<tag k="ssr:stedsnr" v="696592" />
	</node>
	<node lat="59.0864083372876" lon="9.327544442921191" id="-30251">
		<tag k="name" v="Slåtta" />
		<tag k="place" v="isolated_dwelling" />
		<tag k="ssr:stedsnr" v="696858" />
	</node>
	<node lat="59.235208328882294" lon="9.580558337050151" id="-30258">
		<tag k="name" v="Venstøp" />
		<tag k="place" v="quarter" />
		<tag k="ssr:stedsnr" v="603119" />
	</node>
	<node lat="59.13971666847794" lon="9.548136104656777" id="-30259">
		<tag k="alt_name" v="Vedholt" />
		<tag k="fixme" v="consider place=hamlet" />
		<tag k="name" v="Veholt" />
		<tag k="place" v="farm" />
		<tag k="ssr:stedsnr" v="607792" />
	</node>
	<node lat="59.123933337868486" lon="9.43491110537595" id="-30260">
		<tag k="name" v="Rønningen" />
		<tag k="place" v="farm" />
		<tag k="ssr:stedsnr" v="607796" />
	</node>
	<node lat="59.234288891163075" lon="9.464652778523284" id="-30261">
		<tag k="name" v="Milekåsa" />
		<tag k="place" v="farm" />
		<tag k="ssr:stedsnr" v="608042" />
	</node>
	<node lat="59.24925555855153" lon="9.582452773077732" id="-30262">
		<tag k="name" v="Tufte" />
		<tag k="place" v="farm" />
		<tag k="ssr:stedsnr" v="608052" />
	</node>
	<node lat="59.09981666917508" lon="9.355999994596853" id="-30265">
		<tag k="name" v="Arnebu" />
		<tag k="place" v="isolated_dwelling" />
		<tag k="ssr:stedsnr" v="608811" />
	</node>
	<node lat="59.20762500218011" lon="9.592830557306561" id="-30270">
		<tag k="name" v="Falkum" />
		<tag k="place" v="suburb" />
		<tag k="ssr:stedsnr" v="608920" />
	</node>
	<node lat="59.2197916628275" lon="9.512202784845487" id="-30271">
		<tag k="name" v="Bjørkelund" />
		<tag k="place" v="isolated_dwelling" />
		<tag k="ssr:stedsnr" v="608923" />
	</node>
	<node lat="59.21589721881033" lon="9.553308326073035" id="-30272">
		<tag k="fixme" v="consider place=hamlet" />
		<tag k="name" v="Gulset" />
		<tag k="place" v="farm" />
		<tag k="ssr:stedsnr" v="608925" />
	</node>
	<node lat="59.20943610745222" lon="9.406747219998865" id="-30273">
		<tag k="alt_name" v="Siljan, nedre" />
		<tag k="name" v="Nedre Siljan" />
		<tag k="place" v="farm" />
		<tag k="ssr:stedsnr" v="608927" />
	</node>
	<node lat="59.22106110793571" lon="9.41491945166518" id="-30274">
		<tag k="name" v="Bergan" />
		<tag k="place" v="farm" />
		<tag k="ssr:stedsnr" v="608928" />
	</node>
	<node lat="59.38955555590083" lon="9.566280563806224" id="-30277">
		<tag k="name" v="Haukeroa" />
		<tag k="place" v="farm" />
		<tag k="ssr:stedsnr" v="608951" />
	</node>
	<node lat="59.251533332250304" lon="9.629144449933646" id="-30279">
		<tag k="alt_name" v="Lyngåsen" />
		<tag k="fixme" v="consider place=hamlet" />
		<tag k="name" v="Lyngås" />
		<tag k="place" v="farm" />
		<tag k="ssr:stedsnr" v="609026" />
	</node>
	<node lat="59.290294440863825" lon="9.382216658469194" id="-30281">
		<tag k="name" v="Solberg" />
		<tag k="place" v="farm" />
		<tag k="ssr:stedsnr" v="609682" />
	</node>
	<node lat="59.274533331594455" lon="9.541330563913043" id="-30282">
		<tag k="name" v="Rød" />
		<tag k="place" v="farm" />
		<tag k="ssr:stedsnr" v="609695" />
	</node>
	<node lat="59.281072224536885" lon="9.537744443180575" id="-30283">
		<tag k="name" v="Haugerød" />
		<tag k="place" v="farm" />
		<tag k="ssr:stedsnr" v="609697" />
	</node>
	<node lat="59.23903888795252" lon="9.466502786262211" id="-30289">
		<tag k="name" v="Dalen" />
		<tag k="place" v="farm" />
		<tag k="ssr:stedsnr" v="632534" />
	</node>
	<node lat="59.28269721912452" lon="9.52767499695647" id="-30290">
		<tag k="fixme" v="consider natural=beach + surface=sand" />
		<tag k="leisure" v="swimming_area" />
		<tag k="name" v="Bliva" />
		<tag k="place" v="locality" />
		<tag k="ssr:stedsnr" v="632483" />
	</node>
	<node lat="59.31731388810865" lon="9.33171945060007" id="-30294">
		<tag k="name" v="Lunde" />
		<tag k="place" v="farm" />
		<tag k="ssr:stedsnr" v="632807" />
	</node>
	<node lat="59.3519138924008" lon="9.388355558596656" id="-30305">
		<tag k="name" v="Midtbustul" />
		<tag k="place" v="locality" />
		<tag k="ssr:stedsnr" v="633689" />
	</node>
	<node lat="59.20687221883148" lon="9.630397218120564" id="-30307">
		<tag k="name" v="Bratsberg" />
		<tag k="place" v="farm" />
		<tag k="ssr:stedsnr" v="634310" />
	</node>
	<node lat="59.12796666281598" lon="9.497438887232084" id="-30310">
		<tag k="name" v="Rambekk" />
		<tag k="place" v="isolated_dwelling" />
		<tag k="ssr:stedsnr" v="634233" />
	</node>
	<node lat="59.2093666630743" lon="9.609116667216648" id="-30311">
		<tag k="name" v="Landmannstorget" />
		<tag k="place" v="square" />
		<tag k="ssr:stedsnr" v="634436" />
	</node>
	<node lat="59.20356111271882" lon="9.637172218076884" id="-30312">
		<tag k="name" v="Bratsberg" />
		<tag k="place" v="farm" />
		<tag k="ssr:stedsnr" v="634534" />
	</node>
	<node lat="59.16378888528062" lon="9.702352771231565" id="-30315">
		<tag k="name" v="Lid" />
		<tag k="place" v="farm" />
		<tag k="ssr:stedsnr" v="635628" />
	</node>
	<node lat="59.211152781419976" lon="9.577219439817016" id="-30323">
		<tag k="name" v="Rønningen" />
		<tag k="place" v="isolated_dwelling" />
		<tag k="ssr:stedsnr" v="655098" />
	</node>
	<node lat="59.20956110843964" lon="9.616663885342124" id="-30324">
		<tag k="leisure" v="park" />
		<tag k="name" v="Brekke" />
		<tag k="ssr:stedsnr" v="655201" />
	</node>
	<node lat="59.262316667226656" lon="9.582208328459693" id="-30334">
		<tag k="fixme" v="consider place=hamlet" />
		<tag k="name" v="Nøklegård" />
		<tag k="place" v="farm" />
		<tag k="ssr:stedsnr" v="669675" />
	</node>
	<node lat="59.097488891210865" lon="9.440158330473476" id="-30338">
		<tag k="name" v="Myrkås" />
		<tag k="place" v="farm" />
		<tag k="ssr:stedsnr" v="669774" />
	</node>
	<node lat="59.21166944060241" lon="9.308133341986807" id="-30342">
		<tag k="alt_name" v="Torjusrød" />
		<tag k="name" v="Torgersrød" />
		<tag k="place" v="farm" />
		<tag k="ssr:stedsnr" v="669906" />
	</node>
	<node lat="59.23907222214689" lon="9.564922219634381" id="-30344">
		<tag k="fixme" v="consider place=hamlet" />
		<tag k="name" v="Fossum" />
		<tag k="place" v="farm" />
		<tag k="ssr:stedsnr" v="669929" />
	</node>
	<node lat="59.27657777810665" lon="9.559647226832357" id="-30346">
		<tag k="name" v="Holmbakken" />
		<tag k="place" v="farm" />
		<tag k="ssr:stedsnr" v="670726" />
	</node>
	<node lat="59.23281944035608" lon="9.643550002447878" id="-30356">
		<tag k="name" v="Rønningen" />
		<tag k="place" v="farm" />
		<tag k="ssr:stedsnr" v="693218" />
	</node>
	<node lat="59.25507777503402" lon="9.650697230074236" id="-30358">
		<tag k="name" v="Øvre Høgli" />
		<tag k="place" v="farm" />
		<tag k="ssr:stedsnr" v="693271" />
	</node>
	<node lat="59.199483331256076" lon="9.516574992772307" id="-30359">
		<tag k="name" v="Amurdokka" />
		<tag k="place" v="locality" />
		<tag k="ssr:stedsnr" v="693617" />
	</node>
	<node lat="59.18218055348701" lon="9.53019444156944" id="-30360">
		<tag k="name" v="Klovholt" />
		<tag k="place" v="farm" />
		<tag k="ssr:stedsnr" v="693625" />
	</node>
	<node lat="59.212352777949356" lon="9.398655563523112" id="-30369">
		<tag k="fixme" v="consider place=hamlet" />
		<tag k="name" v="Siljan" />
		<tag k="place" v="farm" />
		<tag k="ssr:stedsnr" v="694207" />
	</node>
	<node lat="59.20545555868485" lon="9.405036104557173" id="-30370">
		<tag k="fixme" v="consider place=hamlet" />
		<tag k="name" v="Gjærum" />
		<tag k="place" v="farm" />
		<tag k="ssr:stedsnr" v="694213" />
	</node>
	<node lat="59.21828888780201" lon="9.550311103256652" id="-30377">
		<tag k="name" v="Nygård" />
		<tag k="place" v="farm" />
		<tag k="ssr:stedsnr" v="694715" />
	</node>
	<node lat="59.079519447219326" lon="9.417141657994353" id="-30380">
		<tag k="name" v="Orekåsplassen" />
		<tag k="place" v="locality" />
		<tag k="ssr:stedsnr" v="695118" />
	</node>
	<node lat="59.21397778042778" lon="9.755813893529952" id="-30390">
		<tag k="name" v="Vallerdalseter" />
		<tag k="place" v="locality" />
		<tag k="ssr:stedsnr" v="696075" />
	</node>
	<node lat="59.07507222440875" lon="9.407330560237243" id="-30393">
		<tag k="name" v="Bleikelia" />
		<tag k="place" v="locality" />
		<tag k="ssr:stedsnr" v="696124" />
	</node>
	<node lat="59.218919447249284" lon="9.510869449139507" id="-30401">
		<tag k="name" v="Omdalshamn" />
		<tag k="place" v="hamlet" />
		<tag k="ssr:stedsnr" v="898030" />
	</node>
	<node lat="59.208336110580305" lon="9.549641674794158" id="-30402">
		<tag k="name" v="Heikleiv" />
		<tag k="place" v="isolated_dwelling" />
		<tag k="ssr:stedsnr" v="898040" />
	</node>
	<node lat="59.15704721896669" lon="9.643713895789526" id="-30407">
		<tag k="name" v="Tollnesmoen" />
		<tag k="place" v="isolated_dwelling" />
		<tag k="ssr:stedsnr" v="716481" />
	</node>
	<node lat="59.164002780232586" lon="9.657344443358733" id="-30410">
		<tag k="fixme" v="consider place=hamlet" />
		<tag k="name" v="Åkre" />
		<tag k="place" v="farm" />
		<tag k="ssr:stedsnr" v="729509" />
	</node>
	<node lat="59.16494721857369" lon="9.656352777755284" id="-30411">
		<tag k="name" v="Borge" />
		<tag k="place" v="farm" />
		<tag k="ssr:stedsnr" v="729510" />
	</node>
	<node lat="59.159927776078725" lon="9.682888892042191" id="-30412">
		<tag k="alt_name" v="Sølen" />
		<tag k="fixme" v="consider place=hamlet" />
		<tag k="name" v="Søli" />
		<tag k="place" v="farm" />
		<tag k="ssr:stedsnr" v="729512" />
	</node>
	<node lat="59.12480555493115" lon="9.40320554972544" id="-30413">
		<tag k="name" v="Loa" />
		<tag k="place" v="farm" />
		<tag k="ssr:stedsnr" v="729812" />
	</node>
	<node lat="59.16093333629117" lon="9.396080557518557" id="-30415">
		<tag k="name" v="Nes" />
		<tag k="place" v="farm" />
		<tag k="ssr:stedsnr" v="729975" />
	</node>
	<node lat="59.2528500019431" lon="9.549697222420017" id="-30418">
		<tag k="name" v="Langgangen" />
		<tag k="place" v="farm" />
		<tag k="ssr:stedsnr" v="730707" />
	</node>
	<node lat="59.25650833260139" lon="9.563924991417666" id="-30420">
		<tag k="alt_name" v="Nedre Hoppestad" />
		<tag k="fixme" v="consider place=hamlet" />
		<tag k="name" v="Hoppestad" />
		<tag k="place" v="farm" />
		<tag k="ssr:stedsnr" v="730718" />
	</node>
</osm>
