<?xml version="1.0" encoding="UTF-8"?>
<osm version="0.6" generator="osmapis">
	<node lat="59.2241833347233" lon="9.60763610543798" id="-46555">
		<tag k="alt_name" v="Gjerpen" />
		<tag k="amenity" v="place_of_worship" />
		<tag k="denomination" v="lutheran" />
		<tag k="name" v="Gjerpen kirke" />
		<tag k="religion" v="christian" />
		<tag k="ssr:stedsnr" v="1730" />
	</node>
	<node lat="59.21704166695955" lon="9.591838886502456" id="-46574">
		<tag k="name" v="Store Mæla" />
		<tag k="place" v="locality" />
		<tag k="ssr:stedsnr" v="230172" />
	</node>
	<node lat="59.10425833107567" lon="9.318555555350349" id="-46636">
		<tag k="name" v="Sankedammen" />
		<tag k="place" v="locality" />
		<tag k="ssr:stedsnr" v="29916" />
	</node>
	<node lat="59.16803333322272" lon="9.629838886014529" id="-46809">
		<tag k="amenity" v="place_of_worship" />
		<tag k="denomination" v="lutheran" />
		<tag k="name" v="Nenset" />
		<tag k="old_name" v="Nenset kapell" />
		<tag k="religion" v="christian" />
		<tag k="ssr:stedsnr" v="146415" />
	</node>
	<node lat="59.2159305574365" lon="9.385330552410451" id="-46815">
		<tag k="name" v="Kolbjønnsås" />
		<tag k="place" v="locality" />
		<tag k="ssr:stedsnr" v="147309" />
	</node>
	<node lat="59.191930953999254" lon="9.604267634411904" id="-46864">
		<tag k="amenity" v="place_of_worship" />
		<tag k="denomination" v="lutheran" />
		<tag k="name" v="Gimsøy kirke" />
		<tag k="religion" v="christian" />
		<tag k="ssr:stedsnr" v="184707" />
	</node>
	<node lat="59.15001944881199" lon="9.591816674786248" id="-47122">
		<tag k="alt_name" v="Solmyrås" />
		<tag k="amenity" v="place_of_worship" />
		<tag k="fixme" v="specify religion=*, denomination=*, building=* etc" />
		<tag k="name" v="Solmyrås sportskapell" />
		<tag k="ssr:stedsnr" v="452697" />
	</node>
	<node lat="59.112444446394434" lon="9.43036944481789" id="-47294">
		<tag k="cemetery" v="grave" />
		<tag k="name" v="Kirkegård" />
		<tag k="place" v="locality" />
		<tag k="ssr:stedsnr" v="331208" />
	</node>
	<node lat="59.117108535994745" lon="9.431612921539271" id="-47328">
		<tag k="alt_name" v="Kilebygd" />
		<tag k="amenity" v="place_of_worship" />
		<tag k="denomination" v="lutheran" />
		<tag k="name" v="Kilebygda kirke" />
		<tag k="religion" v="christian" />
		<tag k="ssr:stedsnr" v="365810" />
	</node>
	<node lat="59.21340414644791" lon="9.590212779705423" id="-47372">
		<tag k="name" v="Stevneplassen" />
		<tag k="place" v="locality" />
		<tag k="ssr:stedsnr" v="389792" />
	</node>
	<node lat="59.127258331454684" lon="9.51006111400227" id="-47531">
		<tag k="name" v="Bolvik" />
		<tag k="place" v="locality" />
		<tag k="ssr:stedsnr" v="450980" />
	</node>
	<node lat="59.219511112580854" lon="9.49571389463761" id="-47765">
		<tag k="cemetery" v="grave" />
		<tag k="name" v="Kirkegård" />
		<tag k="place" v="locality" />
		<tag k="ssr:stedsnr" v="572098" />
	</node>
	<node lat="59.29053055132539" lon="9.56468055957707" id="-47869">
		<tag k="name" v="Rensestasjon" />
		<tag k="place" v="locality" />
		<tag k="ssr:stedsnr" v="632813" />
	</node>
	<node lat="59.17210000324483" lon="9.588433336918756" id="-47964">
		<tag k="name" v="Vannbasseng" />
		<tag k="place" v="locality" />
		<tag k="ssr:stedsnr" v="693920" />
	</node>
	<node lat="59.208866664756286" lon="9.613791660712078" id="-48225">
		<tag k="name" v="Brekke museum" />
		<tag k="ssr:stedsnr" v="816414" />
		<tag k="tourism" v="museum" />
	</node>
	<node lat="59.20173610741986" lon="9.62412222800229" id="-48442">
		<tag k="name" v="Kapitelberget" />
		<tag k="place" v="locality" />
		<tag k="ssr:stedsnr" v="939344" />
	</node>
	<node lat="59.16028055845018" lon="9.657791671250147" id="-48501">
		<tag k="amenity" v="place_of_worship" />
		<tag k="denomination" v="lutheran" />
		<tag k="name" v="Borgestad kirke" />
		<tag k="religion" v="christian" />
		<tag k="ssr:stedsnr" v="1519" />
	</node>
	<node lat="59.19901944626048" lon="9.403811117158046" id="-48583">
		<tag k="amenity" v="community_centre" />
		<tag k="name" v="Medalheim" />
		<tag k="ssr:stedsnr" v="26015" />
	</node>
	<node lat="59.25859166230203" lon="9.434402775643997" id="-48591">
		<tag k="name" v="Kolbotn" />
		<tag k="place" v="locality" />
		<tag k="ssr:stedsnr" v="26566" />
	</node>
	<node lat="59.214005553734054" lon="9.525161113643891" id="-48735">
		<tag k="amenity" v="place_of_worship" />
		<tag k="denomination" v="lutheran" />
		<tag k="name" v="Skotfoss kirke" />
		<tag k="religion" v="christian" />
		<tag k="ssr:stedsnr" v="86616" />
	</node>
	<node lat="59.234355559113155" lon="9.689208325159045" id="-48743">
		<tag k="name" v="Bjønnestilla" />
		<tag k="place" v="locality" />
		<tag k="ssr:stedsnr" v="86948" />
	</node>
	<node lat="59.17637778230154" lon="9.433474994466913" id="-48753">
		<tag k="name" v="Dolvaholet" />
		<tag k="place" v="locality" />
		<tag k="ssr:stedsnr" v="87867" />
	</node>
	<node lat="59.21914999925944" lon="9.6770944528252" id="-48899">
		<tag k="name" v="Mellomgardstulen" />
		<tag k="place" v="locality" />
		<tag k="ssr:stedsnr" v="148933" />
	</node>
	<node lat="59.202975860623305" lon="9.730948056424962" id="-49073">
		<tag k="name" v="Skifjellhytta" />
		<tag k="place" v="locality" />
		<tag k="ssr:stedsnr" v="305715" />
	</node>
	<node lat="59.241416666211535" lon="9.603972221620145" id="-49304">
		<tag k="amenity" v="community_centre" />
		<tag k="name" v="Fagerheim" />
		<tag k="ssr:stedsnr" v="390220" />
	</node>
	<node lat="59.07967499864324" lon="9.336288892941488" id="-49335">
		<tag k="name" v="Håvassdammen" />
		<tag k="place" v="locality" />
		<tag k="ssr:stedsnr" v="392659" />
	</node>
	<node lat="59.166497222534275" lon="9.672477778269691" id="-49337">
		<tag k="amenity" v="community_centre" />
		<tag k="name" v="Fredheim" />
		<tag k="ssr:stedsnr" v="392751" />
	</node>
	<node lat="59.31300277787821" lon="9.330755553392258" id="-49352">
		<tag k="amenity" v="place_of_worship" />
		<tag k="denomination" v="lutheran" />
		<tag k="name" v="Valebø kirke" />
		<tag k="religion" v="christian" />
		<tag k="ssr:stedsnr" v="427738" />
	</node>
	<node lat="59.398189762995145" lon="9.538679476942285" id="-49384">
		<tag k="amenity" v="place_of_worship" />
		<tag k="denomination" v="lutheran" />
		<tag k="name" v="Luksefjell kirke" />
		<tag k="religion" v="christian" />
		<tag k="ssr:stedsnr" v="427911" />
	</node>
	<node lat="59.21049721912877" lon="9.606052777976025" id="-49509">
		<tag k="amenity" v="place_of_worship" />
		<tag k="denomination" v="lutheran" />
		<tag k="name" v="Skien kirke" />
		<tag k="religion" v="christian" />
		<tag k="ssr:stedsnr" v="513448" />
	</node>
	<node lat="59.2151861119692" lon="9.591680552006803" id="-49637">
		<tag k="cemetery" v="grave" />
		<tag k="name" v="Nordre gravlund" />
		<tag k="place" v="locality" />
		<tag k="ssr:stedsnr" v="571791" />
	</node>
	<node lat="59.17298382469466" lon="9.558967053044556" id="-49708">
		<tag k="amenity" v="place_of_worship" />
		<tag k="denomination" v="lutheran" />
		<tag k="name" v="Solum kirke" />
		<tag k="religion" v="christian" />
		<tag k="ssr:stedsnr" v="607974" />
	</node>
	<node lat="59.212752779576185" lon="9.765041674672606" id="-49821">
		<tag k="name" v="Skauguttleiren" />
		<tag k="ssr:stedsnr" v="635098" />
		<tag k="tourism" v="attraction" />
	</node>
	<node lat="59.232155558881054" lon="9.685544451491639" id="-49882">
		<tag k="alt_name" v="Vealøs" />
		<tag k="amenity" v="place_of_worship" />
		<tag k="denomination" v="lutheran" />
		<tag k="name" v="Vealøskapellet" />
		<tag k="religion" v="christian" />
		<tag k="ssr:stedsnr" v="729656" />
	</node>
	<node lat="59.11320000016914" lon="9.43114166146461" id="-49981">
		<tag k="amenity" v="community_centre" />
		<tag k="name" v="Skogheim" />
		<tag k="ssr:stedsnr" v="755216" />
	</node>
	<node lat="59.21516388448197" lon="9.501055561828348" id="-50237">
		<tag k="cemetery" v="grave" />
		<tag k="name" v="Kirkegård" />
		<tag k="place" v="locality" />
		<tag k="ssr:stedsnr" v="875071" />
	</node>
	<node lat="59.201097219057566" lon="9.58318611013957" id="-50318">
		<tag k="name" v="Kjempefjell" />
		<tag k="place" v="locality" />
		<tag k="ssr:stedsnr" v="937870" />
	</node>
	<node lat="59.12498055472162" lon="9.568030562511423" id="-50339">
		<tag k="name" v="Slevik" />
		<tag k="place" v="locality" />
		<tag k="ssr:stedsnr" v="959709" />
	</node>
</osm>
