<?xml version="1.0" encoding="UTF-8"?>
<osm generator="osmapis" version="0.6">
	<node id="-42202" lat="59.2537166683" lon="9.62292222722">
		<tag k="fixme" v="consider boundary=protected_area and relevant protect_class if not nature reserve" />
		<tag k="leisure" v="nature_reserve" />
		<tag k="name" v="Gunnborgdalen" />
		<tag k="ssr:stedsnr" v="86244" />
	</node>
	<node id="-40633" lat="59.2323833376" lon="9.54528888667">
		<tag k="fixme" v="specify shooting=range, clay_pigeon etc" />
		<tag k="leisure" v="pitch" />
		<tag k="name" v="Kreppamyr" />
		<tag k="sport" v="shooting" />
		<tag k="ssr:stedsnr" v="86264" />
	</node>
	<node id="-43415" lat="59.2256944447" lon="9.50531944237">
		<tag k="fixme" v="specify shooting=range, clay_pigeon etc" />
		<tag k="leisure" v="pitch" />
		<tag k="name" v="Skytebane" />
		<tag k="sport" v="shooting" />
		<tag k="ssr:stedsnr" v="815489" />
	</node>
	<node id="-41878" lat="59.0883888869" lon="9.28124444938">
		<tag k="historic" v="boundary_stone" />
		<tag k="man_made" v="cairn" />
		<tag k="name" v="Lomtjennsteinen" />
		<tag k="place" v="locality" />
		<tag k="ssr:stedsnr" v="939828" />
	</node>
	<node id="-42131" lat="59.1759000011" lon="9.31025833414">
		<tag k="fixme" v="consider boundary=protected_area and relevant protect_class if not nature reserve" />
		<tag k="leisure" v="nature_reserve" />
		<tag k="name" v="Burmannsfjellet naturreservat" />
		<tag k="ssr:stedsnr" v="60921" />
	</node>
	<node id="-43599" lat="59.2310994679" lon="9.65060885872">
		<tag k="fixme" v="consider boundary=protected_area and relevant protect_class if not nature reserve" />
		<tag k="leisure" v="nature_reserve" />
		<tag k="name" v="Røsaker naturreservat" />
		<tag k="ssr:stedsnr" v="1077521" />
	</node>
	<node id="-41965" lat="59.479039738" lon="9.47562001218">
		<tag k="fixme" v="consider boundary=protected_area and relevant protect_class if not nature reserve" />
		<tag k="leisure" v="nature_reserve" />
		<tag k="name" v="Skrim og Sauheradfjella naturreservat" />
		<tag k="ssr:stedsnr" v="971505" />
	</node>
	<node id="-41932" lat="59.2084750009" lon="9.35971110515">
		<tag k="fixme" v="consider boundary=protected_area and relevant protect_class if not nature reserve" />
		<tag k="leisure" v="nature_reserve" />
		<tag k="name" v="Orsjømyra naturreservat" />
		<tag k="ssr:stedsnr" v="907410" />
	</node>
	<node id="-40966" lat="59.1879444457" lon="9.28946944265">
		<tag k="fixme" v="consider boundary=protected_area and relevant protect_class if not nature reserve" />
		<tag k="leisure" v="nature_reserve" />
		<tag k="name" v="Trolldalsfjellet naturreservat" />
		<tag k="ssr:stedsnr" v="303909" />
	</node>
	<node id="-41252" lat="59.1996111133" lon="9.30859999717">
		<tag k="fixme" v="consider boundary=protected_area and relevant protect_class if not nature reserve" />
		<tag k="leisure" v="nature_reserve" />
		<tag k="name" v="Eikelifjellet naturreservat" />
		<tag k="ssr:stedsnr" v="667891" />
	</node>
	<node id="-42209" lat="59.2997722178" lon="9.56315555345">
		<tag k="fixme" v="specify shooting=range, clay_pigeon etc" />
		<tag k="leisure" v="pitch" />
		<tag k="name" v="Modammen skytebane" />
		<tag k="sport" v="shooting" />
		<tag k="ssr:stedsnr" v="86838" />
	</node>
</osm>
