<?xml version="1.0" encoding="UTF-8"?>
<osm version="0.6" generator="osmapis">
	<node lat="59.28833055287466" lon="9.470058337648524" id="-34570">
		<tag k="name" v="Omnelikollen" />
		<tag k="natural" v="hill" />
		<tag k="place" v="locality" />
		<tag k="ssr:stedsnr" v="2701" />
	</node>
	<node lat="59.27962222204889" lon="9.591244445085609" id="-34572">
		<tag k="name" v="Gampedalen" />
		<tag k="natural" v="valley" />
		<tag k="place" v="locality" />
		<tag k="ssr:stedsnr" v="2735" />
	</node>
	<node lat="59.2802499959159" lon="9.500277784256237" id="-34582">
		<tag k="name" v="Mjølkebonnkollen" />
		<tag k="natural" v="hill" />
		<tag k="place" v="locality" />
		<tag k="ssr:stedsnr" v="20786" />
	</node>
	<node lat="59.44656944487485" lon="9.515227777031745" id="-34583">
		<tag k="fixme" v="consider natural=peak for the most distinct mountains in the district" />
		<tag k="name" v="Krokmyrknatten" />
		<tag k="natural" v="hill" />
		<tag k="place" v="locality" />
		<tag k="ssr:stedsnr" v="20803" />
	</node>
	<node lat="59.21214166775915" lon="9.457883329021392" id="-34589">
		<tag k="name" v="Leiroddåsen" />
		<tag k="natural" v="slope" />
		<tag k="place" v="locality" />
		<tag k="ssr:stedsnr" v="26116" />
	</node>
	<node lat="59.32985277695015" lon="9.398283327392427" id="-34592">
		<tag k="fixme" v="consider natural=peak for the most distinct mountains in the district" />
		<tag k="name" v="Lille Snipen" />
		<tag k="natural" v="hill" />
		<tag k="place" v="locality" />
		<tag k="ssr:stedsnr" v="26212" />
	</node>
	<node lat="59.32158888924428" lon="9.401008340100113" id="-34593">
		<tag k="name" v="Vestre Langskotta" />
		<tag k="natural" v="valley" />
		<tag k="place" v="locality" />
		<tag k="ssr:stedsnr" v="26214" />
	</node>
	<node lat="59.233969442355225" lon="9.683527782830437" id="-34600">
		<tag k="fixme" v="consider natural=peak for the most distinct mountains in the district" />
		<tag k="name" v="Bjønnås" />
		<tag k="natural" v="hill" />
		<tag k="place" v="locality" />
		<tag k="ssr:stedsnr" v="26922" />
	</node>
	<node lat="59.09503055326892" lon="9.463969436022731" id="-34603">
		<tag k="fixme" v="consider natural=peak for the most distinct mountains in the district" />
		<tag k="name" v="Lauvstad" />
		<tag k="natural" v="hill" />
		<tag k="place" v="locality" />
		<tag k="ssr:stedsnr" v="26872" />
	</node>
	<node lat="59.17056667055924" lon="9.424499998486166" id="-34605">
		<tag k="name" v="Rogndalen" />
		<tag k="natural" v="valley" />
		<tag k="place" v="locality" />
		<tag k="ssr:stedsnr" v="26825" />
	</node>
	<node lat="59.189775004110224" lon="9.744986103980542" id="-34610">
		<tag k="name" v="Hestekleiv" />
		<tag k="natural" v="valley" />
		<tag k="place" v="locality" />
		<tag k="ssr:stedsnr" v="28012" />
	</node>
	<node lat="59.1264861153364" lon="9.32018889403209" id="-34617">
		<tag k="fixme" v="consider natural=peak for the most distinct mountains in the district" />
		<tag k="name" v="Maurhøgda" />
		<tag k="natural" v="hill" />
		<tag k="place" v="locality" />
		<tag k="ssr:stedsnr" v="29580" />
	</node>
	<node lat="59.187452779958186" lon="9.364730558076856" id="-34624">
		<tag k="fixme" v="consider natural=peak for the most distinct mountains in the district" />
		<tag k="name" v="Tyribrann" />
		<tag k="natural" v="hill" />
		<tag k="place" v="locality" />
		<tag k="ssr:stedsnr" v="62877" />
	</node>
	<node lat="59.29494166705092" lon="9.596930552732612" id="-34633">
		<tag k="fixme" v="consider natural=peak for the most distinct mountains in the district" />
		<tag k="name" v="Berrbergåsane" />
		<tag k="natural" v="hill" />
		<tag k="place" v="locality" />
		<tag k="ssr:stedsnr" v="63416" />
	</node>
	<node lat="59.2822111084383" lon="9.606105562967645" id="-34634">
		<tag k="fixme" v="consider natural=peak for the most distinct mountains in the district" />
		<tag k="name" v="Skrehelle" />
		<tag k="natural" v="hill" />
		<tag k="place" v="locality" />
		<tag k="ssr:stedsnr" v="63503" />
	</node>
	<node lat="59.25351111366401" lon="9.532697217249275" id="-34635">
		<tag k="alt_name" v="Glaseren, nordre;Glaseren" />
		<tag k="name" v="Nordre Glaseren" />
		<tag k="natural" v="hill" />
		<tag k="place" v="locality" />
		<tag k="ssr:stedsnr" v="63662" />
	</node>
	<node lat="59.29833333639523" lon="9.471091670220279" id="-34637">
		<tag k="name" v="Svarteflog" />
		<tag k="natural" v="cliff" />
		<tag k="ssr:stedsnr" v="63803" />
	</node>
	<node lat="59.367374997391664" lon="9.470797220217321" id="-34638">
		<tag k="fixme" v="consider natural=peak for the most distinct mountains in the district" />
		<tag k="name" v="Rypefjell" />
		<tag k="natural" v="hill" />
		<tag k="place" v="locality" />
		<tag k="ssr:stedsnr" v="63822" />
	</node>
	<node lat="59.270344447201396" lon="9.442111105824281" id="-34639">
		<tag k="name" v="Halvorsdalen" />
		<tag k="natural" v="valley" />
		<tag k="place" v="locality" />
		<tag k="ssr:stedsnr" v="63711" />
	</node>
	<node lat="59.31420277702584" lon="9.469086110862131" id="-34640">
		<tag k="name" v="Svartholskollen" />
		<tag k="natural" v="hill" />
		<tag k="place" v="locality" />
		<tag k="ssr:stedsnr" v="63761" />
	</node>
	<node lat="59.30113055918858" lon="9.446413889676322" id="-34644">
		<tag k="alt_name" v="Hansdalen, store" />
		<tag k="name" v="Sankthansdalen" />
		<tag k="natural" v="valley" />
		<tag k="place" v="locality" />
		<tag k="ssr:stedsnr" v="63787" />
	</node>
	<node lat="59.153400001222195" lon="9.720575008618246" id="-34648">
		<tag k="name" v="Kleppåsen" />
		<tag k="natural" v="hill" />
		<tag k="place" v="locality" />
		<tag k="ssr:stedsnr" v="244550" />
	</node>
	<node lat="59.09074444610837" lon="9.289594441083695" id="-34654">
		<tag k="fixme" v="consider natural=peak for the most distinct mountains in the district" />
		<tag k="name" v="Urdknuten" />
		<tag k="natural" v="hill" />
		<tag k="place" v="locality" />
		<tag k="ssr:stedsnr" v="244768" />
	</node>
	<node lat="59.05122777335799" lon="9.403413892723492" id="-34656">
		<tag k="fixme" v="consider natural=peak for the most distinct mountains in the district" />
		<tag k="name" v="Eikedokkheia" />
		<tag k="natural" v="hill" />
		<tag k="place" v="locality" />
		<tag k="ssr:stedsnr" v="244841" />
	</node>
	<node lat="59.14292499863315" lon="9.496491659861977" id="-34662">
		<tag k="fixme" v="consider natural=peak for the most distinct mountains in the district" />
		<tag k="name" v="Hestefjell" />
		<tag k="natural" v="hill" />
		<tag k="place" v="locality" />
		<tag k="ssr:stedsnr" v="244953" />
	</node>
	<node lat="59.14414721783729" lon="9.450344446476327" id="-34663">
		<tag k="alt_name" v="Latåsen, store" />
		<tag k="fixme" v="consider natural=peak for the most distinct mountains in the district" />
		<tag k="name" v="Store Latås" />
		<tag k="natural" v="hill" />
		<tag k="place" v="locality" />
		<tag k="ssr:stedsnr" v="244955" />
	</node>
	<node lat="59.4733805525886" lon="9.486991661345023" id="-34666">
		<tag k="fixme" v="consider natural=peak for the most distinct mountains in the district" />
		<tag k="name" v="Sondalsfjell" />
		<tag k="natural" v="hill" />
		<tag k="place" v="locality" />
		<tag k="ssr:stedsnr" v="245042" />
	</node>
	<node lat="59.386274996898116" lon="9.516652782425872" id="-34668">
		<tag k="name" v="Fugleslått" />
		<tag k="natural" v="hill" />
		<tag k="place" v="locality" />
		<tag k="ssr:stedsnr" v="245925" />
	</node>
	<node lat="59.14560833544482" lon="9.355922225107197" id="-34676">
		<tag k="fixme" v="consider natural=peak for the most distinct mountains in the district" />
		<tag k="name" v="Fjellmyrfjell" />
		<tag k="natural" v="hill" />
		<tag k="place" v="locality" />
		<tag k="ssr:stedsnr" v="86672" />
	</node>
	<node lat="59.1283555511156" lon="9.572569443307936" id="-34682">
		<tag k="name" v="Djupdal" />
		<tag k="natural" v="valley" />
		<tag k="place" v="locality" />
		<tag k="ssr:stedsnr" v="86980" />
	</node>
	<node lat="59.200911112684416" lon="9.453577769454368" id="-34684">
		<tag k="fixme" v="consider natural=peak for the most distinct mountains in the district" />
		<tag k="name" v="Lilleås" />
		<tag k="natural" v="hill" />
		<tag k="place" v="locality" />
		<tag k="ssr:stedsnr" v="86889" />
	</node>
	<node lat="59.22608610706131" lon="9.46735555499544" id="-34688">
		<tag k="name" v="Mikkelsdalen" />
		<tag k="natural" v="valley" />
		<tag k="place" v="locality" />
		<tag k="ssr:stedsnr" v="87505" />
	</node>
	<node lat="59.26309999744566" lon="9.50163333474793" id="-34689">
		<tag k="fixme" v="consider natural=peak for the most distinct mountains in the district" />
		<tag k="name" v="Magnetkollen" />
		<tag k="natural" v="hill" />
		<tag k="place" v="locality" />
		<tag k="ssr:stedsnr" v="245659" />
	</node>
	<node lat="59.26081111123096" lon="9.528525001956469" id="-34690">
		<tag k="fixme" v="consider natural=peak for the most distinct mountains in the district" />
		<tag k="name" v="Brubergåsen" />
		<tag k="natural" v="hill" />
		<tag k="place" v="locality" />
		<tag k="ssr:stedsnr" v="245663" />
	</node>
	<node lat="59.09981944314489" lon="9.420474994134787" id="-34699">
		<tag k="name" v="Toreskåshalsen" />
		<tag k="natural" v="slope" />
		<tag k="place" v="locality" />
		<tag k="ssr:stedsnr" v="88179" />
	</node>
	<node lat="59.12950277456416" lon="9.496405552476075" id="-34700">
		<tag k="fixme" v="consider natural=peak for the most distinct mountains in the district" />
		<tag k="name" v="Lauvåsen" />
		<tag k="natural" v="hill" />
		<tag k="place" v="locality" />
		<tag k="ssr:stedsnr" v="88193" />
	</node>
	<node lat="59.06714166947052" lon="9.38209444372314" id="-34703">
		<tag k="fixme" v="consider natural=peak for the most distinct mountains in the district" />
		<tag k="name" v="Krokvannstangane" />
		<tag k="natural" v="hill" />
		<tag k="place" v="locality" />
		<tag k="ssr:stedsnr" v="88471" />
	</node>
	<node lat="59.15543333419543" lon="9.406072215491976" id="-34708">
		<tag k="fixme" v="consider natural=peak for the most distinct mountains in the district" />
		<tag k="name" v="Nesskogen" />
		<tag k="natural" v="hill" />
		<tag k="place" v="locality" />
		<tag k="ssr:stedsnr" v="88513" />
	</node>
	<node lat="59.34205555938147" lon="9.319430552195822" id="-34709">
		<tag k="alt_name" v="Svinebekkdalen" />
		<tag k="name" v="Svinsebekkdalen" />
		<tag k="natural" v="valley" />
		<tag k="place" v="locality" />
		<tag k="ssr:stedsnr" v="245837" />
	</node>
	<node lat="59.338086111726916" lon="9.351216673233571" id="-34710">
		<tag k="alt_name" v="Langås, nedre" />
		<tag k="fixme" v="consider natural=peak for the most distinct mountains in the district" />
		<tag k="name" v="Nedre Langås" />
		<tag k="natural" v="hill" />
		<tag k="place" v="locality" />
		<tag k="ssr:stedsnr" v="245840" />
	</node>
	<node lat="59.09513333374491" lon="9.345075001659488" id="-34718">
		<tag k="name" v="Bjørkelvhaugane" />
		<tag k="natural" v="hill" />
		<tag k="place" v="locality" />
		<tag k="ssr:stedsnr" v="89705" />
	</node>
	<node lat="59.127097226729866" lon="9.312627776225446" id="-34719">
		<tag k="name" v="Sotensliane" />
		<tag k="natural" v="slope" />
		<tag k="place" v="locality" />
		<tag k="ssr:stedsnr" v="89602" />
	</node>
	<node lat="59.077466662395175" lon="9.381991658018407" id="-34721">
		<tag k="fixme" v="consider natural=peak for the most distinct mountains in the district" />
		<tag k="name" v="Hardåsen" />
		<tag k="natural" v="hill" />
		<tag k="place" v="locality" />
		<tag k="ssr:stedsnr" v="89621" />
	</node>
	<node lat="59.16815833468345" lon="9.741372221242191" id="-34730">
		<tag k="name" v="Tveitkollen" />
		<tag k="natural" v="hill" />
		<tag k="old_name" v="Tveitåsen" />
		<tag k="place" v="locality" />
		<tag k="ssr:stedsnr" v="122484" />
	</node>
	<node lat="59.30488611217417" lon="9.609430556075958" id="-34732">
		<tag k="fixme" v="consider natural=peak for the most distinct mountains in the district" />
		<tag k="name" v="Dansaren" />
		<tag k="natural" v="hill" />
		<tag k="place" v="locality" />
		<tag k="ssr:stedsnr" v="123466" />
	</node>
	<node lat="59.25314166736649" lon="9.509177770330487" id="-34734">
		<tag k="fixme" v="consider natural=peak for the most distinct mountains in the district" />
		<tag k="name" v="Ulvskollen" />
		<tag k="natural" v="hill" />
		<tag k="place" v="locality" />
		<tag k="ssr:stedsnr" v="123703" />
	</node>
	<node lat="59.094908329757054" lon="9.307919451460677" id="-34737">
		<tag k="alt_name" v="Tjærevassåsen" />
		<tag k="fixme" v="consider natural=peak for the most distinct mountains in the district" />
		<tag k="name" v="Tjærevannsåsen" />
		<tag k="natural" v="hill" />
		<tag k="place" v="locality" />
		<tag k="ssr:stedsnr" v="123772" />
	</node>
	<node lat="59.2107416691881" lon="9.346925003075526" id="-34741">
		<tag k="fixme" v="consider natural=peak for the most distinct mountains in the district" />
		<tag k="name" v="Hotellåsane" />
		<tag k="natural" v="hill" />
		<tag k="place" v="locality" />
		<tag k="ssr:stedsnr" v="123924" />
	</node>
	<node lat="59.30324166652556" lon="9.590177772316736" id="-34742">
		<tag k="fixme" v="consider natural=peak for the most distinct mountains in the district" />
		<tag k="name" v="Seteråsen" />
		<tag k="natural" v="hill" />
		<tag k="place" v="locality" />
		<tag k="ssr:stedsnr" v="123805" />
	</node>
	<node lat="59.35221389261395" lon="9.514361113688214" id="-34744">
		<tag k="fixme" v="consider natural=peak for the most distinct mountains in the district" />
		<tag k="name" v="Hestefjella" />
		<tag k="natural" v="hill" />
		<tag k="place" v="locality" />
		<tag k="ssr:stedsnr" v="123860" />
	</node>
	<node lat="59.076672225083975" lon="9.459505550444698" id="-34746">
		<tag k="fixme" v="consider natural=peak for the most distinct mountains in the district" />
		<tag k="name" v="Storefjell" />
		<tag k="natural" v="hill" />
		<tag k="place" v="locality" />
		<tag k="ssr:stedsnr" v="123872" />
	</node>
	<node lat="59.42752778180136" lon="9.442675004569457" id="-34752">
		<tag k="name" v="Helvetesdalen" />
		<tag k="natural" v="valley" />
		<tag k="place" v="locality" />
		<tag k="ssr:stedsnr" v="142803" />
	</node>
	<node lat="59.30819722610876" lon="9.42469999710033" id="-34753">
		<tag k="fixme" v="consider natural=peak for the most distinct mountains in the district" />
		<tag k="name" v="Mellomåsen" />
		<tag k="natural" v="hill" />
		<tag k="place" v="locality" />
		<tag k="ssr:stedsnr" v="142807" />
	</node>
	<node lat="59.203397221886746" lon="9.342505561943428" id="-34757">
		<tag k="fixme" v="consider natural=peak for the most distinct mountains in the district" />
		<tag k="name" v="Husåsane" />
		<tag k="natural" v="hill" />
		<tag k="place" v="locality" />
		<tag k="ssr:stedsnr" v="146422" />
	</node>
	<node lat="59.20675000126435" lon="9.294049993630315" id="-34758">
		<tag k="name" v="Struven" />
		<tag k="natural" v="slope" />
		<tag k="place" v="locality" />
		<tag k="ssr:stedsnr" v="146661" />
	</node>
	<node lat="59.15800833215911" lon="9.587902773313454" id="-34759">
		<tag k="name" v="Leikrosdalen" />
		<tag k="natural" v="valley" />
		<tag k="place" v="locality" />
		<tag k="ssr:stedsnr" v="146864" />
	</node>
	<node lat="59.29794166495371" lon="9.52453333473429" id="-34763">
		<tag k="fixme" v="consider natural=peak for the most distinct mountains in the district" />
		<tag k="name" v="Askemyråsen" />
		<tag k="natural" v="hill" />
		<tag k="place" v="locality" />
		<tag k="ssr:stedsnr" v="147070" />
	</node>
	<node lat="59.2292666655864" lon="9.508641662773067" id="-34766">
		<tag k="fixme" v="consider natural=peak for the most distinct mountains in the district" />
		<tag k="name" v="Sollifjell" />
		<tag k="natural" v="hill" />
		<tag k="place" v="locality" />
		<tag k="ssr:stedsnr" v="147262" />
	</node>
	<node lat="59.30573055228741" lon="9.320933337913553" id="-34773">
		<tag k="name" v="Sagtangen" />
		<tag k="place" v="locality" />
		<tag k="ssr:stedsnr" v="147647" />
	</node>
	<node lat="59.24392499681101" lon="9.49524167133702" id="-34775">
		<tag k="fixme" v="consider natural=peak for the most distinct mountains in the district" />
		<tag k="name" v="Grunntjennkollen" />
		<tag k="natural" v="hill" />
		<tag k="place" v="locality" />
		<tag k="ssr:stedsnr" v="147513" />
	</node>
	<node lat="59.23688055131479" lon="9.476719442664832" id="-34776">
		<tag k="fixme" v="consider natural=peak for the most distinct mountains in the district" />
		<tag k="name" v="Sandskottåsen" />
		<tag k="natural" v="hill" />
		<tag k="place" v="locality" />
		<tag k="ssr:stedsnr" v="147516" />
	</node>
	<node lat="59.20840555692469" lon="9.302547217593567" id="-34778">
		<tag k="fixme" v="consider natural=peak for the most distinct mountains in the district" />
		<tag k="name" v="Høghaug" />
		<tag k="natural" v="hill" />
		<tag k="place" v="locality" />
		<tag k="ssr:stedsnr" v="147803" />
	</node>
	<node lat="59.0860249977011" lon="9.449713886714742" id="-34780">
		<tag k="name" v="Kirketårnet" />
		<tag k="natural" v="hill" />
		<tag k="place" v="locality" />
		<tag k="ssr:stedsnr" v="147863" />
	</node>
	<node lat="59.270341670403894" lon="9.420027772140585" id="-34786">
		<tag k="fixme" v="consider natural=peak for the most distinct mountains in the district" />
		<tag k="name" v="Bjørnemyråsen" />
		<tag k="natural" v="hill" />
		<tag k="place" v="locality" />
		<tag k="ssr:stedsnr" v="147970" />
	</node>
	<node lat="59.06008055606826" lon="9.388705551086264" id="-34790">
		<tag k="fixme" v="consider natural=peak for the most distinct mountains in the district" />
		<tag k="name" v="Kjellerheia" />
		<tag k="natural" v="hill" />
		<tag k="place" v="locality" />
		<tag k="ssr:stedsnr" v="148571" />
	</node>
	<node lat="59.175602774117806" lon="9.712352772723053" id="-34791">
		<tag k="name" v="Lillegårdsåsen" />
		<tag k="natural" v="hill" />
		<tag k="place" v="locality" />
		<tag k="ssr:stedsnr" v="149462" />
	</node>
	<node lat="59.28852222669645" lon="9.499513886137205" id="-34808">
		<tag k="name" v="Sysmerkleiv" />
		<tag k="natural" v="valley" />
		<tag k="place" v="locality" />
		<tag k="ssr:stedsnr" v="184704" />
	</node>
	<node lat="59.28643333571554" lon="9.494144442296008" id="-34809">
		<tag k="fixme" v="consider natural=peak for the most distinct mountains in the district" />
		<tag k="name" v="Seiersteinkollen" />
		<tag k="natural" v="hill" />
		<tag k="place" v="locality" />
		<tag k="ssr:stedsnr" v="184706" />
	</node>
	<node lat="59.32850555498797" lon="9.470052782067715" id="-34811">
		<tag k="fixme" v="consider natural=peak for the most distinct mountains in the district" />
		<tag k="name" v="Fagerliås" />
		<tag k="natural" v="hill" />
		<tag k="place" v="locality" />
		<tag k="ssr:stedsnr" v="184739" />
	</node>
	<node lat="59.3254027773291" lon="9.446586117719269" id="-34812">
		<tag k="fixme" v="consider natural=peak for the most distinct mountains in the district" />
		<tag k="name" v="Vestre Hoppefjell" />
		<tag k="natural" v="hill" />
		<tag k="place" v="locality" />
		<tag k="ssr:stedsnr" v="184744" />
	</node>
	<node lat="59.37278611450181" lon="9.443880558472856" id="-34815">
		<tag k="name" v="Gjengelihaugane" />
		<tag k="natural" v="hill" />
		<tag k="place" v="locality" />
		<tag k="ssr:stedsnr" v="184904" />
	</node>
	<node lat="59.25918333064988" lon="9.483811118836215" id="-34821">
		<tag k="alt_name" v="Nordre Siljuknatten" />
		<tag k="name" v="Siljuknattane" />
		<tag k="natural" v="hill" />
		<tag k="place" v="locality" />
		<tag k="ssr:stedsnr" v="184685" />
	</node>
	<node lat="59.28388055189771" lon="9.409541670007485" id="-34827">
		<tag k="alt_name" v="Kringletjernåsen" />
		<tag k="fixme" v="consider natural=peak for the most distinct mountains in the district" />
		<tag k="name" v="Kringletjennåsen" />
		<tag k="natural" v="hill" />
		<tag k="place" v="locality" />
		<tag k="ssr:stedsnr" v="184701" />
	</node>
	<node lat="59.33062499749099" lon="9.320858331506622" id="-34829">
		<tag k="fixme" v="consider natural=peak for the most distinct mountains in the district" />
		<tag k="name" v="Kongsåsen" />
		<tag k="natural" v="hill" />
		<tag k="place" v="locality" />
		<tag k="ssr:stedsnr" v="184833" />
	</node>
	<node lat="59.32925277381919" lon="9.293652782940946" id="-34831">
		<tag k="name" v="Småflatene" />
		<tag k="natural" v="hill" />
		<tag k="place" v="locality" />
		<tag k="ssr:stedsnr" v="184843" />
	</node>
	<node lat="59.28594722632572" lon="9.482961103458234" id="-34834">
		<tag k="name" v="Omnelidalen" />
		<tag k="natural" v="valley" />
		<tag k="place" v="locality" />
		<tag k="ssr:stedsnr" v="263763" />
	</node>
	<node lat="59.25673333574523" lon="9.46548055216448" id="-34835">
		<tag k="name" v="Sankthansliane" />
		<tag k="natural" v="slope" />
		<tag k="place" v="locality" />
		<tag k="ssr:stedsnr" v="263765" />
	</node>
	<node lat="59.33923611498655" lon="9.39230556338755" id="-34838">
		<tag k="name" v="Svartholet" />
		<tag k="natural" v="valley" />
		<tag k="place" v="locality" />
		<tag k="ssr:stedsnr" v="263786" />
	</node>
	<node lat="59.20411944410695" lon="9.753116672608062" id="-34839">
		<tag k="fixme" v="consider natural=peak for the most distinct mountains in the district" />
		<tag k="name" v="Bjønnespranget" />
		<tag k="natural" v="hill" />
		<tag k="place" v="locality" />
		<tag k="ssr:stedsnr" v="263937" />
	</node>
	<node lat="59.133891670572986" lon="9.367786102492195" id="-34840">
		<tag k="fixme" v="consider natural=peak for the most distinct mountains in the district" />
		<tag k="name" v="Hoppetjennfjellet" />
		<tag k="natural" v="hill" />
		<tag k="place" v="locality" />
		<tag k="ssr:stedsnr" v="268707" />
	</node>
	<node lat="59.30784166787939" lon="9.379649992452078" id="-34842">
		<tag k="fixme" v="consider natural=peak for the most distinct mountains in the district" />
		<tag k="name" v="Småmyråsane" />
		<tag k="natural" v="hill" />
		<tag k="place" v="locality" />
		<tag k="ssr:stedsnr" v="202798" />
	</node>
	<node lat="59.155991663566674" lon="9.547622218734805" id="-34850">
		<tag k="fixme" v="consider natural=peak for the most distinct mountains in the district" />
		<tag k="name" v="Apalsås" />
		<tag k="natural" v="hill" />
		<tag k="place" v="locality" />
		<tag k="ssr:stedsnr" v="268536" />
	</node>
	<node lat="59.319583331963514" lon="9.408344439898068" id="-34863">
		<tag k="name" v="Østre Langskotta" />
		<tag k="natural" v="valley" />
		<tag k="place" v="locality" />
		<tag k="ssr:stedsnr" v="208181" />
	</node>
	<node lat="59.25534722171362" lon="9.534372227329103" id="-34864">
		<tag k="name" v="Røverkollen" />
		<tag k="natural" v="hill" />
		<tag k="place" v="locality" />
		<tag k="ssr:stedsnr" v="208311" />
	</node>
	<node lat="59.22875555656771" lon="9.48847777186935" id="-34867">
		<tag k="fixme" v="consider natural=peak for the most distinct mountains in the district" />
		<tag k="name" v="Dalsåsen" />
		<tag k="natural" v="hill" />
		<tag k="place" v="locality" />
		<tag k="ssr:stedsnr" v="208517" />
	</node>
	<node lat="59.19782778109604" lon="9.529333325669988" id="-34868">
		<tag k="fixme" v="consider natural=peak for the most distinct mountains in the district" />
		<tag k="name" v="Åfossåsen" />
		<tag k="natural" v="hill" />
		<tag k="place" v="locality" />
		<tag k="ssr:stedsnr" v="208581" />
	</node>
	<node lat="59.299391665263045" lon="9.383024994003362" id="-34869">
		<tag k="fixme" v="consider natural=peak for the most distinct mountains in the district" />
		<tag k="name" v="Brudalsfjell" />
		<tag k="natural" v="hill" />
		<tag k="place" v="locality" />
		<tag k="ssr:stedsnr" v="208710" />
	</node>
	<node lat="59.16622777539842" lon="9.412513893054616" id="-34872">
		<tag k="fixme" v="consider natural=peak for the most distinct mountains in the district" />
		<tag k="name" v="Grasdalsknatten" />
		<tag k="natural" v="hill" />
		<tag k="place" v="locality" />
		<tag k="ssr:stedsnr" v="208847" />
	</node>
	<node lat="59.31011666386735" lon="9.56947499217104" id="-34873">
		<tag k="alt_name" v="Den rundehaugen" />
		<tag k="name" v="Den runde hauen" />
		<tag k="natural" v="hill" />
		<tag k="place" v="locality" />
		<tag k="ssr:stedsnr" v="208848" />
	</node>
	<node lat="59.22144444036831" lon="9.499436108493983" id="-34879">
		<tag k="name" v="Amurdalen" />
		<tag k="natural" v="valley" />
		<tag k="place" v="locality" />
		<tag k="ssr:stedsnr" v="269100" />
	</node>
	<node lat="59.204872217792094" lon="9.451024993150641" id="-34881">
		<tag k="fixme" v="consider natural=peak for the most distinct mountains in the district" />
		<tag k="name" v="Søndre Valsfjell" />
		<tag k="natural" v="hill" />
		<tag k="place" v="locality" />
		<tag k="ssr:stedsnr" v="269120" />
	</node>
	<node lat="59.11290833099832" lon="9.496916661485077" id="-34883">
		<tag k="name" v="Barlinddalen" />
		<tag k="natural" v="valley" />
		<tag k="place" v="locality" />
		<tag k="ssr:stedsnr" v="210012" />
	</node>
	<node lat="59.29236111417778" lon="9.426080549385917" id="-34884">
		<tag k="fixme" v="consider natural=peak for the most distinct mountains in the district" />
		<tag k="name" v="Fjelltjennknatten" />
		<tag k="natural" v="hill" />
		<tag k="place" v="locality" />
		<tag k="ssr:stedsnr" v="209874" />
	</node>
	<node lat="59.08115000167472" lon="9.435349998067965" id="-34889">
		<tag k="name" v="Bjønndalen" />
		<tag k="natural" v="valley" />
		<tag k="place" v="locality" />
		<tag k="ssr:stedsnr" v="210121" />
	</node>
	<node lat="59.07959722206903" lon="9.407341673145844" id="-34890">
		<tag k="fixme" v="consider natural=peak for the most distinct mountains in the district" />
		<tag k="name" v="Plassåsen" />
		<tag k="natural" v="hill" />
		<tag k="place" v="locality" />
		<tag k="ssr:stedsnr" v="210125" />
	</node>
	<node lat="59.14336666545055" lon="9.403775003172525" id="-34893">
		<tag k="name" v="Vierkåsdalen" />
		<tag k="natural" v="valley" />
		<tag k="place" v="locality" />
		<tag k="ssr:stedsnr" v="210408" />
	</node>
	<node lat="59.15124722011414" lon="9.710311119249848" id="-34895">
		<tag k="fixme" v="consider natural=peak for the most distinct mountains in the district" />
		<tag k="loc_name" v="Kleppfjellet" />
		<tag k="name" v="Kleppefjellet" />
		<tag k="natural" v="hill" />
		<tag k="place" v="locality" />
		<tag k="ssr:stedsnr" v="211303" />
	</node>
	<node lat="59.136313885077705" lon="9.25010556293977" id="-34897">
		<tag k="fixme" v="consider natural=peak for the most distinct mountains in the district" />
		<tag k="name" v="Gampås" />
		<tag k="natural" v="hill" />
		<tag k="place" v="locality" />
		<tag k="ssr:stedsnr" v="211536" />
	</node>
	<node lat="59.0898833335259" lon="9.303633325715213" id="-34901">
		<tag k="fixme" v="consider natural=peak for the most distinct mountains in the district" />
		<tag k="name" v="Skaumyrheia" />
		<tag k="natural" v="hill" />
		<tag k="place" v="locality" />
		<tag k="ssr:stedsnr" v="211804" />
	</node>
	<node lat="59.1591027772703" lon="9.298211119468549" id="-34902">
		<tag k="name" v="Bjellemyrdalen" />
		<tag k="natural" v="valley" />
		<tag k="place" v="locality" />
		<tag k="ssr:stedsnr" v="211912" />
	</node>
	<node lat="59.21377222093924" lon="9.549455555420387" id="-34906">
		<tag k="alt_name" v="Haseldalen" />
		<tag k="name" v="Hasledalen" />
		<tag k="natural" v="valley" />
		<tag k="place" v="locality" />
		<tag k="ssr:stedsnr" v="269756" />
	</node>
	<node lat="59.17217222319527" lon="9.41930277709615" id="-34907">
		<tag k="fixme" v="consider natural=peak for the most distinct mountains in the district" />
		<tag k="name" v="Børtåsen" />
		<tag k="natural" v="hill" />
		<tag k="place" v="locality" />
		<tag k="ssr:stedsnr" v="269862" />
	</node>
	<node lat="59.256983331982475" lon="9.480741673369776" id="-34908">
		<tag k="name" v="Siljuknattdalen" />
		<tag k="natural" v="valley" />
		<tag k="place" v="locality" />
		<tag k="ssr:stedsnr" v="269896" />
	</node>
	<node lat="59.05925833661035" lon="9.439280559907598" id="-34911">
		<tag k="fixme" v="consider natural=peak for the most distinct mountains in the district" />
		<tag k="name" v="Langseidkollen" />
		<tag k="natural" v="hill" />
		<tag k="place" v="locality" />
		<tag k="ssr:stedsnr" v="269944" />
	</node>
	<node lat="59.10780833278384" lon="9.462730547066181" id="-34913">
		<tag k="fixme" v="consider natural=peak for the most distinct mountains in the district" />
		<tag k="name" v="Trytetjennheia" />
		<tag k="natural" v="hill" />
		<tag k="place" v="locality" />
		<tag k="ssr:stedsnr" v="270053" />
	</node>
	<node lat="59.07160832944917" lon="9.361194452314738" id="-34918">
		<tag k="fixme" v="consider natural=peak for the most distinct mountains in the district" />
		<tag k="name" v="Rundekollen" />
		<tag k="natural" v="hill" />
		<tag k="place" v="locality" />
		<tag k="ssr:stedsnr" v="270541" />
	</node>
	<node lat="59.18739166821644" lon="9.749322225079613" id="-34919">
		<tag k="name" v="Ormeslokdalen" />
		<tag k="natural" v="valley" />
		<tag k="place" v="locality" />
		<tag k="ssr:stedsnr" v="271006" />
	</node>
	<node lat="59.197827777521375" lon="9.678149999347049" id="-34924">
		<tag k="fixme" v="consider natural=peak for the most distinct mountains in the district" />
		<tag k="name" v="Lauåsen" />
		<tag k="natural" v="hill" />
		<tag k="place" v="locality" />
		<tag k="ssr:stedsnr" v="271651" />
	</node>
	<node lat="59.0787916684975" lon="9.336699997533254" id="-34925">
		<tag k="name" v="Geiteryggen" />
		<tag k="natural" v="ridge" />
		<tag k="place" v="locality" />
		<tag k="ssr:stedsnr" v="271653" />
	</node>
	<node lat="59.31420832970501" lon="9.515311118649253" id="-34938">
		<tag k="fixme" v="consider natural=peak for the most distinct mountains in the district" />
		<tag k="name" v="Langåsen" />
		<tag k="natural" v="hill" />
		<tag k="place" v="locality" />
		<tag k="ssr:stedsnr" v="450034" />
	</node>
	<node lat="59.293191670804134" lon="9.537905563705083" id="-34940">
		<tag k="fixme" v="consider natural=peak for the most distinct mountains in the district" />
		<tag k="name" v="Plassåsen" />
		<tag k="natural" v="hill" />
		<tag k="place" v="locality" />
		<tag k="ssr:stedsnr" v="450057" />
	</node>
	<node lat="59.20056111415815" lon="9.296933328757692" id="-34944">
		<tag k="name" v="Goddalen" />
		<tag k="natural" v="valley" />
		<tag k="place" v="locality" />
		<tag k="ssr:stedsnr" v="450684" />
	</node>
	<node lat="59.20881667071731" lon="9.519913894025754" id="-34946">
		<tag k="fixme" v="consider natural=peak for the most distinct mountains in the district" />
		<tag k="name" v="Saglandåsen" />
		<tag k="natural" v="hill" />
		<tag k="place" v="locality" />
		<tag k="ssr:stedsnr" v="450646" />
	</node>
	<node lat="59.13413889088713" lon="9.53648889318599" id="-34949">
		<tag k="fixme" v="consider natural=peak for the most distinct mountains in the district" />
		<tag k="name" v="Grøtvikåsen" />
		<tag k="natural" v="hill" />
		<tag k="place" v="locality" />
		<tag k="ssr:stedsnr" v="450951" />
	</node>
	<node lat="59.23471944712597" lon="9.667455558424752" id="-34950">
		<tag k="fixme" v="consider natural=peak for the most distinct mountains in the district" />
		<tag k="name" v="Høgåsen" />
		<tag k="natural" v="hill" />
		<tag k="place" v="locality" />
		<tag k="ssr:stedsnr" v="450952" />
	</node>
	<node lat="59.243502776369034" lon="9.67988888314872" id="-34951">
		<tag k="fixme" v="consider natural=peak for the most distinct mountains in the district" />
		<tag k="name" v="Sems-Vealøs" />
		<tag k="natural" v="hill" />
		<tag k="place" v="locality" />
		<tag k="ssr:stedsnr" v="450956" />
	</node>
	<node lat="59.178397223372066" lon="9.469583331781372" id="-34952">
		<tag k="fixme" v="consider natural=peak for the most distinct mountains in the district" />
		<tag k="name" v="Melfallåsen" />
		<tag k="natural" v="hill" />
		<tag k="place" v="locality" />
		<tag k="ssr:stedsnr" v="451789" />
	</node>
	<node lat="59.17100555697672" lon="9.492555551218825" id="-34953">
		<tag k="name" v="Skjelbreiliane" />
		<tag k="natural" v="slope" />
		<tag k="place" v="locality" />
		<tag k="ssr:stedsnr" v="451794" />
	</node>
	<node lat="59.20885277917035" lon="9.459233337788373" id="-34954">
		<tag k="name" v="Djupedal" />
		<tag k="natural" v="valley" />
		<tag k="place" v="locality" />
		<tag k="ssr:stedsnr" v="451124" />
	</node>
	<node lat="59.332658328994334" lon="9.398858335665635" id="-34955">
		<tag k="fixme" v="consider natural=peak for the most distinct mountains in the district" />
		<tag k="name" v="Store Snipen" />
		<tag k="natural" v="hill" />
		<tag k="place" v="locality" />
		<tag k="ssr:stedsnr" v="451156" />
	</node>
	<node lat="59.15893055251947" lon="9.458061103487008" id="-34957">
		<tag k="name" v="Sandheia" />
		<tag k="natural" v="hill" />
		<tag k="place" v="locality" />
		<tag k="ssr:stedsnr" v="451286" />
	</node>
	<node lat="59.17395832916657" lon="9.442844447965118" id="-34962">
		<tag k="fixme" v="consider natural=peak for the most distinct mountains in the district" />
		<tag k="name" v="Lillemyråsen" />
		<tag k="natural" v="hill" />
		<tag k="place" v="locality" />
		<tag k="ssr:stedsnr" v="451890" />
	</node>
	<node lat="59.27128611402839" lon="9.441261116572218" id="-34963">
		<tag k="fixme" v="consider natural=peak for the most distinct mountains in the district" />
		<tag k="name" v="Smalemyråsen" />
		<tag k="natural" v="hill" />
		<tag k="place" v="locality" />
		<tag k="ssr:stedsnr" v="451973" />
	</node>
	<node lat="59.33649444630994" lon="9.389186108904598" id="-34965">
		<tag k="name" v="Barlinddalen" />
		<tag k="natural" v="valley" />
		<tag k="place" v="locality" />
		<tag k="ssr:stedsnr" v="451640" />
	</node>
	<node lat="59.063763889390756" lon="9.4191638827313" id="-34966">
		<tag k="fixme" v="consider natural=peak for the most distinct mountains in the district" />
		<tag k="name" v="Middagskollen" />
		<tag k="natural" v="hill" />
		<tag k="place" v="locality" />
		<tag k="ssr:stedsnr" v="451940" />
	</node>
	<node lat="59.10033333274817" lon="9.464274996987244" id="-34968">
		<tag k="name" v="Marumdalen" />
		<tag k="natural" v="valley" />
		<tag k="place" v="locality" />
		<tag k="ssr:stedsnr" v="452033" />
	</node>
	<node lat="59.169472222980005" lon="9.467677773239151" id="-34980">
		<tag k="fixme" v="consider natural=peak for the most distinct mountains in the district" />
		<tag k="name" v="Heggemyråsen" />
		<tag k="natural" v="hill" />
		<tag k="place" v="locality" />
		<tag k="ssr:stedsnr" v="244989" />
	</node>
	<node lat="59.26645000074166" lon="9.615058330185692" id="-34987">
		<tag k="name" v="Knip" />
		<tag k="natural" v="hill" />
		<tag k="place" v="locality" />
		<tag k="ssr:stedsnr" v="245442" />
	</node>
	<node lat="59.282486113394924" lon="9.587113880578872" id="-34991">
		<tag k="name" v="Skrehellelia" />
		<tag k="natural" v="slope" />
		<tag k="place" v="locality" />
		<tag k="ssr:stedsnr" v="245712" />
	</node>
	<node lat="59.27608610750132" lon="9.475475007406551" id="-34994">
		<tag k="fixme" v="consider natural=peak for the most distinct mountains in the district" />
		<tag k="name" v="Lillevarden" />
		<tag k="natural" v="hill" />
		<tag k="place" v="locality" />
		<tag k="ssr:stedsnr" v="245721" />
	</node>
	<node lat="59.32375555366275" lon="9.486433340640504" id="-34995">
		<tag k="name" v="Fagerlia" />
		<tag k="natural" v="valley" />
		<tag k="place" v="locality" />
		<tag k="ssr:stedsnr" v="245725" />
	</node>
	<node lat="59.313561110246454" lon="9.373408341344296" id="-34997">
		<tag k="fixme" v="consider natural=peak for the most distinct mountains in the district" />
		<tag k="name" v="Skavrilldalsfjell" />
		<tag k="natural" v="hill" />
		<tag k="place" v="locality" />
		<tag k="ssr:stedsnr" v="245736" />
	</node>
	<node lat="59.07700278194693" lon="9.400236117385518" id="-35009">
		<tag k="fixme" v="consider natural=peak for the most distinct mountains in the district" />
		<tag k="name" v="Kvernhusåsen" />
		<tag k="natural" v="hill" />
		<tag k="place" v="locality" />
		<tag k="ssr:stedsnr" v="453090" />
	</node>
	<node lat="59.18892499858571" lon="9.687377786150254" id="-35010">
		<tag k="fixme" v="consider natural=peak for the most distinct mountains in the district" />
		<tag k="name" v="Ryggen" />
		<tag k="natural" v="hill" />
		<tag k="place" v="locality" />
		<tag k="ssr:stedsnr" v="453614" />
	</node>
	<node lat="59.12324166779619" lon="9.316800005679854" id="-35012">
		<tag k="name" v="Nibudalen" />
		<tag k="natural" v="valley" />
		<tag k="place" v="locality" />
		<tag k="ssr:stedsnr" v="453655" />
	</node>
	<node lat="59.09311944016746" lon="9.282677783924527" id="-35016">
		<tag k="fixme" v="consider natural=peak for the most distinct mountains in the district" />
		<tag k="name" v="Store Urdeknuten" />
		<tag k="natural" v="hill" />
		<tag k="place" v="locality" />
		<tag k="ssr:stedsnr" v="453835" />
	</node>
	<node lat="59.13834167090888" lon="9.237891663103497" id="-35022">
		<tag k="fixme" v="consider natural=peak for the most distinct mountains in the district" />
		<tag k="name" v="Søndre Skremerud" />
		<tag k="natural" v="hill" />
		<tag k="old_name" v="Sønre Skremerud" />
		<tag k="place" v="locality" />
		<tag k="ssr:stedsnr" v="454537" />
	</node>
	<node lat="59.39222222396493" lon="9.39115555027658" id="-35025">
		<tag k="name" v="Rullane" />
		<tag k="place" v="locality" />
		<tag k="ssr:stedsnr" v="263788" />
	</node>
	<node lat="59.2103027736596" lon="9.769905557000856" id="-35026">
		<tag k="name" v="Austdalen" />
		<tag k="natural" v="valley" />
		<tag k="place" v="locality" />
		<tag k="ssr:stedsnr" v="263906" />
	</node>
	<node lat="59.23725000289958" lon="9.534852776903787" id="-35030">
		<tag k="fixme" v="consider natural=peak for the most distinct mountains in the district" />
		<tag k="name" v="Rødgangsåsen" />
		<tag k="natural" v="hill" />
		<tag k="place" v="locality" />
		<tag k="ssr:stedsnr" v="263999" />
	</node>
	<node lat="59.16204722384499" lon="9.337277773535797" id="-35031">
		<tag k="name" v="Myrbakken" />
		<tag k="natural" v="valley" />
		<tag k="place" v="locality" />
		<tag k="ssr:stedsnr" v="267614" />
	</node>
	<node lat="59.164658337706406" lon="9.359383333265374" id="-35033">
		<tag k="name" v="Uledalen" />
		<tag k="natural" v="valley" />
		<tag k="place" v="locality" />
		<tag k="ssr:stedsnr" v="267622" />
	</node>
	<node lat="59.13314166759692" lon="9.427455548864708" id="-35036">
		<tag k="fixme" v="consider natural=peak for the most distinct mountains in the district" />
		<tag k="name" v="Krekfjell" />
		<tag k="natural" v="hill" />
		<tag k="place" v="locality" />
		<tag k="ssr:stedsnr" v="268329" />
	</node>
	<node lat="59.148002778671426" lon="9.359872225429045" id="-35038">
		<tag k="name" v="Barlinddalen" />
		<tag k="natural" v="valley" />
		<tag k="place" v="locality" />
		<tag k="ssr:stedsnr" v="268674" />
	</node>
	<node lat="59.302063885393466" lon="9.38487499819554" id="-35039">
		<tag k="name" v="Brudalen" />
		<tag k="natural" v="valley" />
		<tag k="place" v="locality" />
		<tag k="ssr:stedsnr" v="268677" />
	</node>
	<node lat="59.14398889009949" lon="9.518786110860376" id="-35040">
		<tag k="name" v="Barlinddalen" />
		<tag k="natural" v="valley" />
		<tag k="place" v="locality" />
		<tag k="ssr:stedsnr" v="268525" />
	</node>
	<node lat="59.15564999642812" lon="9.376713894185247" id="-35042">
		<tag k="name" v="Seterstøa" />
		<tag k="natural" v="slope" />
		<tag k="place" v="locality" />
		<tag k="ssr:stedsnr" v="268781" />
	</node>
	<node lat="59.15629444344082" lon="9.369983327075808" id="-35043">
		<tag k="name" v="Hestekleiv" />
		<tag k="natural" v="slope" />
		<tag k="place" v="locality" />
		<tag k="ssr:stedsnr" v="268784" />
	</node>
	<node lat="59.32846111375718" lon="9.33587499530758" id="-35044">
		<tag k="name" v="Kvernhuskåsa" />
		<tag k="natural" v="slope" />
		<tag k="place" v="locality" />
		<tag k="ssr:stedsnr" v="268785" />
	</node>
	<node lat="59.30858611376188" lon="9.52165555611602" id="-35051">
		<tag k="name" v="Knatten" />
		<tag k="natural" v="hill" />
		<tag k="place" v="locality" />
		<tag k="ssr:stedsnr" v="269127" />
	</node>
	<node lat="59.1874222192621" lon="9.452791665173752" id="-35058">
		<tag k="fixme" v="consider natural=peak for the most distinct mountains in the district" />
		<tag k="name" v="Hustveitåsen" />
		<tag k="natural" v="hill" />
		<tag k="place" v="locality" />
		<tag k="ssr:stedsnr" v="269921" />
	</node>
	<node lat="59.177841670786215" lon="9.424283325968783" id="-35060">
		<tag k="fixme" v="consider natural=peak for the most distinct mountains in the district" />
		<tag k="name" v="Skrubbeliåsen" />
		<tag k="natural" v="hill" />
		<tag k="place" v="locality" />
		<tag k="ssr:stedsnr" v="269871" />
	</node>
	<node lat="59.13726666284152" lon="9.495486112565628" id="-35065">
		<tag k="name" v="Styggedal" />
		<tag k="natural" v="valley" />
		<tag k="place" v="locality" />
		<tag k="ssr:stedsnr" v="270174" />
	</node>
	<node lat="59.137061106905676" lon="9.499586105725836" id="-35066">
		<tag k="fixme" v="consider natural=peak for the most distinct mountains in the district" />
		<tag k="name" v="Kalkåsen" />
		<tag k="natural" v="hill" />
		<tag k="place" v="locality" />
		<tag k="ssr:stedsnr" v="270178" />
	</node>
	<node lat="59.15282500044866" lon="9.326397228891622" id="-35081">
		<tag k="fixme" v="consider natural=peak for the most distinct mountains in the district" />
		<tag k="name" v="Tomtjennheia" />
		<tag k="natural" v="hill" />
		<tag k="place" v="locality" />
		<tag k="ssr:stedsnr" v="271944" />
	</node>
	<node lat="59.2767250022755" lon="9.619686114532358" id="-35086">
		<tag k="fixme" v="consider natural=peak for the most distinct mountains in the district" />
		<tag k="name" v="Sankt Hansåsen" />
		<tag k="natural" v="hill" />
		<tag k="place" v="locality" />
		<tag k="ssr:stedsnr" v="305514" />
	</node>
	<node lat="59.26454722079616" lon="9.647261119782971" id="-35089">
		<tag k="fixme" v="consider natural=peak for the most distinct mountains in the district" />
		<tag k="name" v="Lauvåskollen" />
		<tag k="natural" v="hill" />
		<tag k="place" v="locality" />
		<tag k="ssr:stedsnr" v="305466" />
	</node>
	<node lat="59.30521111297893" lon="9.572011114098991" id="-35092">
		<tag k="name" v="Oredalen" />
		<tag k="natural" v="valley" />
		<tag k="place" v="locality" />
		<tag k="ssr:stedsnr" v="305808" />
	</node>
	<node lat="59.20400000080812" lon="9.333500000725937" id="-35102">
		<tag k="alt_name" v="Svarttjernsåsen" />
		<tag k="fixme" v="consider natural=peak for the most distinct mountains in the district" />
		<tag k="name" v="Svarttjennåsen" />
		<tag k="natural" v="hill" />
		<tag k="place" v="locality" />
		<tag k="ssr:stedsnr" v="305913" />
	</node>
	<node lat="59.43880555376616" lon="9.487163887645035" id="-35103">
		<tag k="fixme" v="consider natural=peak for the most distinct mountains in the district" />
		<tag k="name" v="Godliåsane" />
		<tag k="natural" v="hill" />
		<tag k="place" v="locality" />
		<tag k="ssr:stedsnr" v="305964" />
	</node>
	<node lat="59.291427776745365" lon="9.499149999816506" id="-35109">
		<tag k="fixme" v="consider natural=peak for the most distinct mountains in the district" />
		<tag k="name" v="Vindmyråsen" />
		<tag k="natural" v="hill" />
		<tag k="place" v="locality" />
		<tag k="ssr:stedsnr" v="306680" />
	</node>
	<node lat="59.26273055957341" lon="9.445799997549432" id="-35113">
		<tag k="name" v="Heikolliane" />
		<tag k="natural" v="slope" />
		<tag k="place" v="locality" />
		<tag k="ssr:stedsnr" v="324749" />
	</node>
	<node lat="59.27450277717498" lon="9.41612500255576" id="-35114">
		<tag k="name" v="Årbrudalen" />
		<tag k="natural" v="valley" />
		<tag k="place" v="locality" />
		<tag k="ssr:stedsnr" v="324752" />
	</node>
	<node lat="59.12978611162109" lon="9.440713884897574" id="-35115">
		<tag k="fixme" v="consider natural=peak for the most distinct mountains in the district" />
		<tag k="name" v="Sauholsheia" />
		<tag k="natural" v="hill" />
		<tag k="place" v="locality" />
		<tag k="ssr:stedsnr" v="329158" />
	</node>
	<node lat="59.335266670599935" lon="9.335852781775735" id="-35116">
		<tag k="name" v="Busholtdalen" />
		<tag k="natural" v="valley" />
		<tag k="place" v="locality" />
		<tag k="ssr:stedsnr" v="329518" />
	</node>
	<node lat="59.30021944007307" lon="9.357700002001422" id="-35117">
		<tag k="name" v="Osdalen" />
		<tag k="natural" v="valley" />
		<tag k="place" v="locality" />
		<tag k="ssr:stedsnr" v="329655" />
	</node>
	<node lat="59.29189167083151" lon="9.371908332812351" id="-35118">
		<tag k="name" v="Killingskogliane" />
		<tag k="natural" v="slope" />
		<tag k="place" v="locality" />
		<tag k="ssr:stedsnr" v="329658" />
	</node>
	<node lat="59.155400000164946" lon="9.373105560408858" id="-35127">
		<tag k="name" v="Amurdalen" />
		<tag k="natural" v="valley" />
		<tag k="place" v="locality" />
		<tag k="ssr:stedsnr" v="329762" />
	</node>
	<node lat="59.25614722536816" lon="9.431347220341951" id="-35130">
		<tag k="fixme" v="consider natural=peak for the most distinct mountains in the district" />
		<tag k="name" v="Eikås" />
		<tag k="natural" v="hill" />
		<tag k="place" v="locality" />
		<tag k="ssr:stedsnr" v="330619" />
	</node>
	<node lat="59.2196361074352" lon="9.343774992906678" id="-35131">
		<tag k="fixme" v="consider natural=peak for the most distinct mountains in the district" />
		<tag k="name" v="Nordleiken" />
		<tag k="natural" v="hill" />
		<tag k="place" v="locality" />
		<tag k="ssr:stedsnr" v="330357" />
	</node>
	<node lat="59.07218333686179" lon="9.397672217976496" id="-35136">
		<tag k="fixme" v="consider natural=peak for the most distinct mountains in the district" />
		<tag k="name" v="Hardåsen" />
		<tag k="natural" v="hill" />
		<tag k="place" v="locality" />
		<tag k="ssr:stedsnr" v="331067" />
	</node>
	<node lat="59.07701944678115" lon="9.378263896451976" id="-35141">
		<tag k="name" v="Rolighetsdalen" />
		<tag k="natural" v="valley" />
		<tag k="place" v="locality" />
		<tag k="ssr:stedsnr" v="331607" />
	</node>
	<node lat="59.12793611433186" lon="9.259849999389969" id="-35148">
		<tag k="name" v="Tjærildalen" />
		<tag k="natural" v="valley" />
		<tag k="place" v="locality" />
		<tag k="ssr:stedsnr" v="332551" />
	</node>
	<node lat="59.148611107139175" lon="9.308138882897978" id="-35153">
		<tag k="name" v="Bjørndalen" />
		<tag k="natural" v="valley" />
		<tag k="place" v="locality" />
		<tag k="ssr:stedsnr" v="332900" />
	</node>
	<node lat="59.26524999673899" lon="9.4893888869845" id="-35179">
		<tag k="fixme" v="consider natural=peak for the most distinct mountains in the district" />
		<tag k="name" v="Magnetpreb" />
		<tag k="natural" v="hill" />
		<tag k="place" v="locality" />
		<tag k="ssr:stedsnr" v="366688" />
	</node>
	<node lat="59.368327778978525" lon="9.418869445248681" id="-35180">
		<tag k="fixme" v="consider natural=peak for the most distinct mountains in the district" />
		<tag k="name" v="Godfjell" />
		<tag k="natural" v="hill" />
		<tag k="place" v="locality" />
		<tag k="ssr:stedsnr" v="366806" />
	</node>
	<node lat="59.39498055880789" lon="9.561686117411085" id="-35186">
		<tag k="fixme" v="consider natural=peak for the most distinct mountains in the district" />
		<tag k="name" v="Hellaråsen" />
		<tag k="natural" v="hill" />
		<tag k="place" v="locality" />
		<tag k="ssr:stedsnr" v="366909" />
	</node>
	<node lat="59.38971111330798" lon="9.50186388639255" id="-35187">
		<tag k="name" v="Lonsknatten" />
		<tag k="natural" v="hill" />
		<tag k="place" v="locality" />
		<tag k="ssr:stedsnr" v="366926" />
	</node>
	<node lat="59.45098888819997" lon="9.54316111371334" id="-35189">
		<tag k="fixme" v="consider natural=peak for the most distinct mountains in the district" />
		<tag k="name" v="Besstulåsen" />
		<tag k="natural" v="hill" />
		<tag k="place" v="locality" />
		<tag k="ssr:stedsnr" v="366930" />
	</node>
	<node lat="59.10518055921287" lon="9.327919436200666" id="-35190">
		<tag k="fixme" v="consider natural=peak for the most distinct mountains in the district" />
		<tag k="name" v="Haugarstjennåsen" />
		<tag k="natural" v="hill" />
		<tag k="place" v="locality" />
		<tag k="ssr:stedsnr" v="271960" />
	</node>
	<node lat="59.29014444801826" lon="9.61118055508003" id="-35199">
		<tag k="name" v="Smaltjennliane" />
		<tag k="natural" v="slope" />
		<tag k="place" v="locality" />
		<tag k="ssr:stedsnr" v="389741" />
	</node>
	<node lat="59.16013611366052" lon="9.590944441360675" id="-35202">
		<tag k="fixme" v="consider natural=peak for the most distinct mountains in the district" />
		<tag k="name" v="Mauråsen" />
		<tag k="natural" v="hill" />
		<tag k="place" v="locality" />
		<tag k="ssr:stedsnr" v="389908" />
	</node>
	<node lat="59.23234722295896" lon="9.496813880666565" id="-35209">
		<tag k="fixme" v="consider natural=peak for the most distinct mountains in the district" />
		<tag k="name" v="Lilletjennknatten" />
		<tag k="natural" v="hill" />
		<tag k="place" v="locality" />
		<tag k="ssr:stedsnr" v="390492" />
	</node>
	<node lat="59.10960833774477" lon="9.343525002907278" id="-35211">
		<tag k="name" v="Langangsmyrbråtta" />
		<tag k="natural" v="slope" />
		<tag k="place" v="locality" />
		<tag k="ssr:stedsnr" v="390639" />
	</node>
	<node lat="59.06938333338648" lon="9.430716665004823" id="-35212">
		<tag k="fixme" v="consider natural=peak for the most distinct mountains in the district" />
		<tag k="name" v="Oreholkollen" />
		<tag k="natural" v="hill" />
		<tag k="place" v="locality" />
		<tag k="ssr:stedsnr" v="390938" />
	</node>
	<node lat="59.18820555664077" lon="9.750052778024227" id="-35222">
		<tag k="fixme" v="consider natural=peak for the most distinct mountains in the district" />
		<tag k="name" v="Hestekleivåsen" />
		<tag k="natural" v="hill" />
		<tag k="place" v="locality" />
		<tag k="ssr:stedsnr" v="392003" />
	</node>
	<node lat="59.18484999597058" lon="9.753750004387138" id="-35223">
		<tag k="fixme" v="consider natural=peak for the most distinct mountains in the district" />
		<tag k="name" v="Gulldokk" />
		<tag k="natural" v="hill" />
		<tag k="place" v="locality" />
		<tag k="ssr:stedsnr" v="392014" />
	</node>
	<node lat="59.12302499966944" lon="9.323186116818375" id="-35225">
		<tag k="name" v="Klomrene" />
		<tag k="natural" v="valley" />
		<tag k="place" v="locality" />
		<tag k="ssr:stedsnr" v="392693" />
	</node>
	<node lat="59.165241669509555" lon="9.424916670801363" id="-35236">
		<tag k="fixme" v="consider natural=peak for the most distinct mountains in the district" />
		<tag k="name" v="Kittilskollen" />
		<tag k="natural" v="hill" />
		<tag k="place" v="locality" />
		<tag k="ssr:stedsnr" v="486978" />
	</node>
	<node lat="59.29695555655077" lon="9.613836116439385" id="-35237">
		<tag k="alt_name" v="Dansarfjell, s" />
		<tag k="fixme" v="consider natural=peak for the most distinct mountains in the district" />
		<tag k="name" v="Søndre Dansarfjell" />
		<tag k="natural" v="hill" />
		<tag k="place" v="locality" />
		<tag k="ssr:stedsnr" v="487426" />
	</node>
	<node lat="59.27188333483348" lon="9.472572218998964" id="-35242">
		<tag k="name" v="Skådalen" />
		<tag k="natural" v="valley" />
		<tag k="place" v="locality" />
		<tag k="ssr:stedsnr" v="487699" />
	</node>
	<node lat="59.30545833377179" lon="9.578761110700459" id="-35243">
		<tag k="name" v="Seterliane" />
		<tag k="natural" v="slope" />
		<tag k="place" v="locality" />
		<tag k="ssr:stedsnr" v="487811" />
	</node>
	<node lat="59.29246389194721" lon="9.527861106592056" id="-35245">
		<tag k="fixme" v="consider natural=peak for the most distinct mountains in the district" />
		<tag k="name" v="Dyrkollåsen" />
		<tag k="natural" v="hill" />
		<tag k="place" v="locality" />
		<tag k="ssr:stedsnr" v="487815" />
	</node>
	<node lat="59.32040277854853" lon="9.305125006419981" id="-35247">
		<tag k="alt_name" v="Hvalåsen" />
		<tag k="fixme" v="consider natural=peak for the most distinct mountains in the district" />
		<tag k="name" v="Valaåsen" />
		<tag k="natural" v="hill" />
		<tag k="place" v="locality" />
		<tag k="ssr:stedsnr" v="487784" />
	</node>
	<node lat="59.09668610935416" lon="9.475311118992531" id="-35250">
		<tag k="alt_name" v="Krokvassfjellet" />
		<tag k="fixme" v="consider natural=peak for the most distinct mountains in the district" />
		<tag k="name" v="Kroktjennfjellet" />
		<tag k="natural" v="hill" />
		<tag k="place" v="locality" />
		<tag k="ssr:stedsnr" v="487790" />
	</node>
	<node lat="59.348177782243255" lon="9.404716673457648" id="-35253">
		<tag k="name" v="Barlindholet" />
		<tag k="natural" v="valley" />
		<tag k="place" v="locality" />
		<tag k="ssr:stedsnr" v="487795" />
	</node>
	<node lat="59.420977779675944" lon="9.536124998407127" id="-35258">
		<tag k="fixme" v="consider natural=peak for the most distinct mountains in the district" />
		<tag k="name" v="Hestemyrfjellet" />
		<tag k="natural" v="hill" />
		<tag k="place" v="locality" />
		<tag k="ssr:stedsnr" v="487991" />
	</node>
	<node lat="59.276727778111734" lon="9.603144439220554" id="-35262">
		<tag k="fixme" v="consider natural=peak for the most distinct mountains in the district" />
		<tag k="name" v="Lille Skrehelle" />
		<tag k="natural" v="hill" />
		<tag k="place" v="locality" />
		<tag k="ssr:stedsnr" v="488684" />
	</node>
	<node lat="59.32995832981404" lon="9.385549999340903" id="-35269">
		<tag k="fixme" v="consider natural=peak for the most distinct mountains in the district" />
		<tag k="name" v="Hestfjella" />
		<tag k="natural" v="hill" />
		<tag k="place" v="locality" />
		<tag k="ssr:stedsnr" v="488863" />
	</node>
	<node lat="59.136836106743125" lon="9.430413891074224" id="-35277">
		<tag k="alt_name" v="Åletjernkollen" />
		<tag k="fixme" v="consider natural=peak for the most distinct mountains in the district" />
		<tag k="name" v="Åletjennkollen" />
		<tag k="natural" v="hill" />
		<tag k="place" v="locality" />
		<tag k="ssr:stedsnr" v="426803" />
	</node>
	<node lat="59.12888333386749" lon="9.470869452131238" id="-35278">
		<tag k="fixme" v="consider natural=peak for the most distinct mountains in the district" />
		<tag k="name" v="Hustømmeråsen" />
		<tag k="natural" v="hill" />
		<tag k="place" v="locality" />
		<tag k="ssr:stedsnr" v="426813" />
	</node>
	<node lat="59.16293055629422" lon="9.286111110415069" id="-35285">
		<tag k="fixme" v="consider natural=peak for the most distinct mountains in the district" />
		<tag k="name" v="Grasdalsfjellet" />
		<tag k="natural" v="hill" />
		<tag k="place" v="locality" />
		<tag k="ssr:stedsnr" v="426980" />
	</node>
	<node lat="59.38685000047488" lon="9.626775007236624" id="-35289">
		<tag k="loc_name" v="Sverjekollknattane" />
		<tag k="name" v="Svergekollknattane" />
		<tag k="natural" v="hill" />
		<tag k="place" v="locality" />
		<tag k="ssr:stedsnr" v="427311" />
	</node>
	<node lat="59.262761114526526" lon="9.458444448599286" id="-35295">
		<tag k="fixme" v="consider natural=peak for the most distinct mountains in the district" />
		<tag k="name" v="Heikollen" />
		<tag k="natural" v="hill" />
		<tag k="place" v="locality" />
		<tag k="ssr:stedsnr" v="427621" />
	</node>
	<node lat="59.297250001797785" lon="9.533724993751298" id="-35297">
		<tag k="alt_name" v="Stulsås" />
		<tag k="fixme" v="consider natural=peak for the most distinct mountains in the district" />
		<tag k="name" v="Tjønnåsen" />
		<tag k="natural" v="hill" />
		<tag k="place" v="locality" />
		<tag k="ssr:stedsnr" v="427767" />
	</node>
	<node lat="59.37966111257904" lon="9.535649991650486" id="-35298">
		<tag k="fixme" v="consider natural=peak for the most distinct mountains in the district" />
		<tag k="name" v="Smalsundåsen" />
		<tag k="natural" v="hill" />
		<tag k="place" v="locality" />
		<tag k="ssr:stedsnr" v="427777" />
	</node>
	<node lat="59.3382527733475" lon="9.358130551582596" id="-35300">
		<tag k="alt_name" v="Spiredalen" />
		<tag k="name" v="Spirdalen" />
		<tag k="natural" v="valley" />
		<tag k="place" v="locality" />
		<tag k="ssr:stedsnr" v="427812" />
	</node>
	<node lat="59.20144444068816" lon="9.42534445244016" id="-35303">
		<tag k="fixme" v="consider natural=peak for the most distinct mountains in the district" />
		<tag k="name" v="Kyrkjeåsen" />
		<tag k="natural" v="hill" />
		<tag k="place" v="locality" />
		<tag k="ssr:stedsnr" v="427867" />
	</node>
	<node lat="59.400861112804876" lon="9.491638880175854" id="-35316">
		<tag k="name" v="Bjørneholet" />
		<tag k="natural" v="valley" />
		<tag k="place" v="locality" />
		<tag k="ssr:stedsnr" v="446773" />
	</node>
	<node lat="59.136430552120814" lon="9.398555562189877" id="-35325">
		<tag k="name" v="Kjerringkovane" />
		<tag k="natural" v="valley" />
		<tag k="place" v="locality" />
		<tag k="ssr:stedsnr" v="450313" />
	</node>
	<node lat="59.13609722270605" lon="9.420505551889914" id="-35326">
		<tag k="name" v="Åletjenndalen" />
		<tag k="natural" v="valley" />
		<tag k="place" v="locality" />
		<tag k="ssr:stedsnr" v="450318" />
	</node>
	<node lat="59.20313055162753" lon="9.33955556372783" id="-35329">
		<tag k="name" v="Raumyrdalen" />
		<tag k="natural" v="valley" />
		<tag k="place" v="locality" />
		<tag k="ssr:stedsnr" v="450469" />
	</node>
	<node lat="59.143461115047295" lon="9.59449999256819" id="-35331">
		<tag k="name" v="Hegnadalen" />
		<tag k="natural" v="valley" />
		<tag k="place" v="locality" />
		<tag k="ssr:stedsnr" v="450864" />
	</node>
	<node lat="59.150861106725834" lon="9.575294437731648" id="-35332">
		<tag k="name" v="Finndalsdalen" />
		<tag k="natural" v="valley" />
		<tag k="place" v="locality" />
		<tag k="ssr:stedsnr" v="450868" />
	</node>
	<node lat="59.165077774900276" lon="9.449511112394802" id="-35335">
		<tag k="fixme" v="consider natural=peak for the most distinct mountains in the district" />
		<tag k="name" v="Falkemyråsen" />
		<tag k="natural" v="hill" />
		<tag k="place" v="locality" />
		<tag k="ssr:stedsnr" v="450769" />
	</node>
	<node lat="59.16752222230719" lon="9.588427784118448" id="-35336">
		<tag k="fixme" v="consider natural=peak for the most distinct mountains in the district" />
		<tag k="name" v="Rødmyråsen" />
		<tag k="natural" v="hill" />
		<tag k="place" v="locality" />
		<tag k="ssr:stedsnr" v="450925" />
	</node>
	<node lat="59.20905833252526" lon="9.344197220840051" id="-35339">
		<tag k="name" v="Grisebergdalen" />
		<tag k="natural" v="valley" />
		<tag k="place" v="locality" />
		<tag k="ssr:stedsnr" v="451313" />
	</node>
	<node lat="59.18508333718814" lon="9.331375005640066" id="-35343">
		<tag k="fixme" v="consider natural=peak for the most distinct mountains in the district" />
		<tag k="name" v="Felldalsfjellet" />
		<tag k="natural" v="hill" />
		<tag k="place" v="locality" />
		<tag k="ssr:stedsnr" v="451408" />
	</node>
	<node lat="59.113255554516854" lon="9.407052777825198" id="-35350">
		<tag k="name" v="Økteknatten" />
		<tag k="natural" v="hill" />
		<tag k="place" v="locality" />
		<tag k="ssr:stedsnr" v="452180" />
	</node>
	<node lat="59.066566667772456" lon="9.361886109693948" id="-35354">
		<tag k="fixme" v="consider natural=peak for the most distinct mountains in the district" />
		<tag k="name" v="Hefteheia" />
		<tag k="natural" v="hill" />
		<tag k="place" v="locality" />
		<tag k="ssr:stedsnr" v="452563" />
	</node>
	<node lat="59.05702222212248" lon="9.38577500128974" id="-35355">
		<tag k="fixme" v="consider natural=peak for the most distinct mountains in the district" />
		<tag k="name" v="Eikedokkheia" />
		<tag k="natural" v="hill" />
		<tag k="place" v="locality" />
		<tag k="ssr:stedsnr" v="452570" />
	</node>
	<node lat="59.079288888868625" lon="9.357261107251732" id="-35360">
		<tag k="name" v="Sælingen" />
		<tag k="natural" v="ridge" />
		<tag k="place" v="locality" />
		<tag k="ssr:stedsnr" v="453610" />
	</node>
	<node lat="59.095008329569566" lon="9.379655554026735" id="-35361">
		<tag k="name" v="Hulkedalen" />
		<tag k="natural" v="valley" />
		<tag k="place" v="locality" />
		<tag k="ssr:stedsnr" v="453711" />
	</node>
	<node lat="59.16038055399137" lon="9.259836110612026" id="-35363">
		<tag k="name" v="Langbrudalen" />
		<tag k="natural" v="valley" />
		<tag k="place" v="locality" />
		<tag k="ssr:stedsnr" v="454180" />
	</node>
	<node lat="59.20860277957287" lon="9.450352777594038" id="-35378">
		<tag k="alt_name" v="Valsåsen;Nordre Valsfjell" />
		<tag k="fixme" v="consider natural=peak for the most distinct mountains in the district" />
		<tag k="name" v="Valsfjell" />
		<tag k="natural" v="hill" />
		<tag k="place" v="locality" />
		<tag k="ssr:stedsnr" v="487914" />
	</node>
	<node lat="59.44331111513201" lon="9.460975007476225" id="-35380">
		<tag k="fixme" v="consider natural=peak for the most distinct mountains in the district" />
		<tag k="name" v="Bustulåsen" />
		<tag k="natural" v="hill" />
		<tag k="place" v="locality" />
		<tag k="ssr:stedsnr" v="487963" />
	</node>
	<node lat="59.06212777606911" lon="9.399919436849059" id="-35382">
		<tag k="fixme" v="consider natural=peak for the most distinct mountains in the district" />
		<tag k="name" v="Helvetesheia" />
		<tag k="natural" v="hill" />
		<tag k="place" v="locality" />
		<tag k="ssr:stedsnr" v="487862" />
	</node>
	<node lat="59.290080552766206" lon="9.519972229016144" id="-35383">
		<tag k="name" v="Skuggedalskollen" />
		<tag k="natural" v="hill" />
		<tag k="place" v="locality" />
		<tag k="ssr:stedsnr" v="488696" />
	</node>
	<node lat="59.280572221482096" lon="9.521113882629065" id="-35385">
		<tag k="name" v="Rokkedalen" />
		<tag k="natural" v="valley" />
		<tag k="place" v="locality" />
		<tag k="ssr:stedsnr" v="488742" />
	</node>
	<node lat="59.325897220404904" lon="9.380319450238487" id="-35386">
		<tag k="fixme" v="consider natural=peak for the most distinct mountains in the district" />
		<tag k="name" v="Siljuknatten" />
		<tag k="natural" v="hill" />
		<tag k="place" v="locality" />
		<tag k="ssr:stedsnr" v="488754" />
	</node>
	<node lat="59.30879166303935" lon="9.467772229254287" id="-35391">
		<tag k="name" v="Svartufs" />
		<tag k="natural" v="cliff" />
		<tag k="ssr:stedsnr" v="506763" />
	</node>
	<node lat="59.35545833627061" lon="9.610577774384861" id="-35392">
		<tag k="fixme" v="consider natural=peak for the most distinct mountains in the district" />
		<tag k="name" v="Stallbonnås" />
		<tag k="natural" v="hill" />
		<tag k="place" v="locality" />
		<tag k="ssr:stedsnr" v="506771" />
	</node>
	<node lat="59.114736108447374" lon="9.365177782986782" id="-35399">
		<tag k="name" v="Sperrdalen" />
		<tag k="natural" v="valley" />
		<tag k="place" v="locality" />
		<tag k="ssr:stedsnr" v="511597" />
	</node>
	<node lat="59.15041389122698" lon="9.580777773794372" id="-35403">
		<tag k="fixme" v="consider natural=peak for the most distinct mountains in the district" />
		<tag k="name" v="Kyrkjeåsen" />
		<tag k="natural" v="hill" />
		<tag k="place" v="locality" />
		<tag k="ssr:stedsnr" v="511867" />
	</node>
	<node lat="59.16300555722935" lon="9.405355563590108" id="-35404">
		<tag k="name" v="Lillekås" />
		<tag k="natural" v="slope" />
		<tag k="place" v="locality" />
		<tag k="ssr:stedsnr" v="511826" />
	</node>
	<node lat="59.30547499796032" lon="9.459680553800728" id="-35410">
		<tag k="name" v="Såteåsen" />
		<tag k="natural" v="hill" />
		<tag k="place" v="locality" />
		<tag k="ssr:stedsnr" v="512167" />
	</node>
	<node lat="59.21894722664189" lon="9.358063897130346" id="-35412">
		<tag k="fixme" v="consider natural=peak for the most distinct mountains in the district" />
		<tag k="name" v="Øktekollen" />
		<tag k="natural" v="hill" />
		<tag k="place" v="locality" />
		<tag k="ssr:stedsnr" v="512315" />
	</node>
	<node lat="59.265949999694" lon="9.544319446709974" id="-35413">
		<tag k="fixme" v="consider natural=peak for the most distinct mountains in the district" />
		<tag k="name" v="Ramseflog" />
		<tag k="natural" v="hill" />
		<tag k="place" v="locality" />
		<tag k="ssr:stedsnr" v="512321" />
	</node>
	<node lat="59.304830554639" lon="9.444930549774792" id="-35416">
		<tag k="fixme" v="consider natural=peak for the most distinct mountains in the district" />
		<tag k="name" v="Hestemyråsen" />
		<tag k="natural" v="hill" />
		<tag k="place" v="locality" />
		<tag k="ssr:stedsnr" v="512891" />
	</node>
	<node lat="59.13388332978404" lon="9.504005553414839" id="-35419">
		<tag k="fixme" v="consider natural=peak for the most distinct mountains in the district" />
		<tag k="name" v="Rabbergåsen" />
		<tag k="natural" v="hill" />
		<tag k="place" v="locality" />
		<tag k="ssr:stedsnr" v="513170" />
	</node>
	<node lat="59.09976666990913" lon="9.439388881010263" id="-35420">
		<tag k="name" v="Brekka" />
		<tag k="place" v="locality" />
		<tag k="ssr:stedsnr" v="513283" />
	</node>
	<node lat="59.0632888863389" lon="9.371608336148338" id="-35425">
		<tag k="fixme" v="consider natural=peak for the most distinct mountains in the district" />
		<tag k="name" v="Ørnhølheia" />
		<tag k="natural" v="hill" />
		<tag k="place" v="locality" />
		<tag k="ssr:stedsnr" v="513581" />
	</node>
	<node lat="59.17842777750516" lon="9.625675008223546" id="-35436">
		<tag k="name" v="Kjerringteigen" />
		<tag k="place" v="locality" />
		<tag k="ssr:stedsnr" v="534411" />
	</node>
	<node lat="59.18721666387129" lon="9.281883333846418" id="-35444">
		<tag k="fixme" v="consider natural=peak for the most distinct mountains in the district" />
		<tag k="name" v="Trolldalsfjellet" />
		<tag k="natural" v="hill" />
		<tag k="place" v="locality" />
		<tag k="ssr:stedsnr" v="547905" />
	</node>
	<node lat="59.16597500001282" lon="9.44620000105101" id="-35445">
		<tag k="fixme" v="consider natural=peak for the most distinct mountains in the district" />
		<tag k="name" v="Eikelikollen" />
		<tag k="natural" v="hill" />
		<tag k="place" v="locality" />
		<tag k="ssr:stedsnr" v="547969" />
	</node>
	<node lat="59.16529444811591" lon="9.307661116327049" id="-35448">
		<tag k="alt_name" v="Sandsæterfjellet" />
		<tag k="fixme" v="consider natural=peak for the most distinct mountains in the district" />
		<tag k="name" v="Sandseterfjellet" />
		<tag k="natural" v="hill" />
		<tag k="place" v="locality" />
		<tag k="ssr:stedsnr" v="547978" />
	</node>
	<node lat="59.48405000068117" lon="9.512008332950407" id="-35450">
		<tag k="fixme" v="consider natural=peak for the most distinct mountains in the district" />
		<tag k="name" v="Løkemyrfjellet" />
		<tag k="natural" v="hill" />
		<tag k="place" v="locality" />
		<tag k="ssr:stedsnr" v="548061" />
	</node>
	<node lat="59.259022221175854" lon="9.446916660043739" id="-35455">
		<tag k="name" v="Ålrodalen" />
		<tag k="natural" v="valley" />
		<tag k="place" v="locality" />
		<tag k="ssr:stedsnr" v="548673" />
	</node>
	<node lat="59.27733888850712" lon="9.533741661741452" id="-35461">
		<tag k="fixme" v="consider natural=peak for the most distinct mountains in the district" />
		<tag k="name" v="Kiseåsen" />
		<tag k="natural" v="hill" />
		<tag k="place" v="locality" />
		<tag k="ssr:stedsnr" v="548720" />
	</node>
	<node lat="59.22398055205823" lon="9.718191661535238" id="-35468">
		<tag k="fixme" v="consider natural=peak for the most distinct mountains in the district" />
		<tag k="name" v="Skodalsnabben" />
		<tag k="natural" v="hill" />
		<tag k="place" v="locality" />
		<tag k="ssr:stedsnr" v="688950" />
	</node>
	<node lat="59.28460555444077" lon="9.591202777172725" id="-35470">
		<tag k="fixme" v="consider natural=peak for the most distinct mountains in the district" />
		<tag k="name" v="Vestre Skrehelle" />
		<tag k="natural" v="hill" />
		<tag k="place" v="locality" />
		<tag k="ssr:stedsnr" v="688855" />
	</node>
	<node lat="59.21366111363247" lon="9.76007777551181" id="-35471">
		<tag k="name" v="Østdalen" />
		<tag k="natural" v="valley" />
		<tag k="place" v="locality" />
		<tag k="ssr:stedsnr" v="688878" />
	</node>
	<node lat="59.28883611266807" lon="9.426830550100952" id="-35476">
		<tag k="name" v="Kalde holet" />
		<tag k="natural" v="valley" />
		<tag k="place" v="locality" />
		<tag k="ssr:stedsnr" v="566761" />
	</node>
	<node lat="59.30451111208963" lon="9.429908332399274" id="-35477">
		<tag k="name" v="Sagtjernliane" />
		<tag k="natural" v="slope" />
		<tag k="place" v="locality" />
		<tag k="ssr:stedsnr" v="566763" />
	</node>
	<node lat="59.23399166966782" lon="9.678305559812273" id="-35478">
		<tag k="fixme" v="consider natural=peak for the most distinct mountains in the district" />
		<tag k="name" v="Skarvene" />
		<tag k="natural" v="hill" />
		<tag k="place" v="locality" />
		<tag k="ssr:stedsnr" v="566959" />
	</node>
	<node lat="59.35076944649442" lon="9.43639999473543" id="-35480">
		<tag k="fixme" v="consider natural=peak for the most distinct mountains in the district" />
		<tag k="name" v="Eikestulfjell" />
		<tag k="natural" v="hill" />
		<tag k="place" v="locality" />
		<tag k="ssr:stedsnr" v="567779" />
	</node>
	<node lat="59.31089166749499" lon="9.51458610913694" id="-35482">
		<tag k="fixme" v="consider natural=peak for the most distinct mountains in the district" />
		<tag k="name" v="Tollsås" />
		<tag k="natural" v="hill" />
		<tag k="place" v="locality" />
		<tag k="ssr:stedsnr" v="693050" />
	</node>
	<node lat="59.23646944885626" lon="9.545180554989273" id="-35487">
		<tag k="fixme" v="consider natural=peak for the most distinct mountains in the district" />
		<tag k="name" v="Langgangsåsen" />
		<tag k="natural" v="hill" />
		<tag k="place" v="locality" />
		<tag k="ssr:stedsnr" v="693293" />
	</node>
	<node lat="59.345888892620025" lon="9.322911106818763" id="-35490">
		<tag k="fixme" v="consider natural=peak for the most distinct mountains in the district" />
		<tag k="name" v="Gotholsåsane" />
		<tag k="natural" v="hill" />
		<tag k="place" v="locality" />
		<tag k="ssr:stedsnr" v="693518" />
	</node>
	<node lat="59.34136944844529" lon="9.303175004815696" id="-35492">
		<tag k="name" v="Kråkeknatten" />
		<tag k="natural" v="hill" />
		<tag k="place" v="locality" />
		<tag k="ssr:stedsnr" v="693537" />
	</node>
	<node lat="59.27947777952782" lon="9.385724994018647" id="-35505">
		<tag k="fixme" v="consider natural=peak for the most distinct mountains in the district" />
		<tag k="name" v="Reinsfjell" />
		<tag k="natural" v="hill" />
		<tag k="place" v="locality" />
		<tag k="ssr:stedsnr" v="693741" />
	</node>
	<node lat="59.30261389333825" lon="9.561566671429004" id="-35509">
		<tag k="fixme" v="consider natural=peak for the most distinct mountains in the district" />
		<tag k="name" v="Øyåsen" />
		<tag k="natural" v="hill" />
		<tag k="place" v="locality" />
		<tag k="ssr:stedsnr" v="571814" />
	</node>
	<node lat="59.33248888909217" lon="9.32774445235762" id="-35512">
		<tag k="name" v="Gaupetjenndalen" />
		<tag k="natural" v="valley" />
		<tag k="place" v="locality" />
		<tag k="ssr:stedsnr" v="693799" />
	</node>
	<node lat="59.119561112203336" lon="9.357300007519996" id="-35513">
		<tag k="name" v="Fjellåsane" />
		<tag k="natural" v="hill" />
		<tag k="place" v="locality" />
		<tag k="ssr:stedsnr" v="571702" />
	</node>
	<node lat="59.161780555191186" lon="9.428711107230221" id="-35518">
		<tag k="name" v="Saen" />
		<tag k="natural" v="slope" />
		<tag k="place" v="locality" />
		<tag k="ssr:stedsnr" v="693829" />
	</node>
	<node lat="59.22299721916225" lon="9.46969444138417" id="-35520">
		<tag k="name" v="Ramsdokk" />
		<tag k="natural" v="valley" />
		<tag k="place" v="locality" />
		<tag k="ssr:stedsnr" v="572112" />
	</node>
	<node lat="59.15838333357713" lon="9.471994441962515" id="-35522">
		<tag k="fixme" v="consider natural=peak for the most distinct mountains in the district" />
		<tag k="name" v="Dambekkåsen" />
		<tag k="natural" v="hill" />
		<tag k="place" v="locality" />
		<tag k="ssr:stedsnr" v="572302" />
	</node>
	<node lat="59.11221944811859" lon="9.4762250033807" id="-35528">
		<tag k="name" v="Bolvikleiken" />
		<tag k="place" v="locality" />
		<tag k="ssr:stedsnr" v="573002" />
	</node>
	<node lat="59.16846111060896" lon="9.481108333890978" id="-35530">
		<tag k="name" v="Bjørndalsbrottet" />
		<tag k="natural" v="slope" />
		<tag k="place" v="locality" />
		<tag k="ssr:stedsnr" v="572795" />
	</node>
	<node lat="59.18488055203672" lon="9.577880563271844" id="-35531">
		<tag k="fixme" v="consider natural=peak for the most distinct mountains in the district" />
		<tag k="name" v="Vinddalsåsen" />
		<tag k="natural" v="hill" />
		<tag k="place" v="locality" />
		<tag k="ssr:stedsnr" v="572914" />
	</node>
	<node lat="59.07192778031745" lon="9.409747225391525" id="-35534">
		<tag k="fixme" v="consider natural=peak for the most distinct mountains in the district" />
		<tag k="name" v="Osåsen" />
		<tag k="natural" v="hill" />
		<tag k="place" v="locality" />
		<tag k="ssr:stedsnr" v="572962" />
	</node>
	<node lat="59.15022500349437" lon="9.436591668985509" id="-35536">
		<tag k="fixme" v="consider natural=peak for the most distinct mountains in the district" />
		<tag k="name" v="Smaloddåsen" />
		<tag k="natural" v="hill" />
		<tag k="place" v="locality" />
		<tag k="ssr:stedsnr" v="573414" />
	</node>
	<node lat="59.28579166761957" lon="9.400719453143894" id="-35548">
		<tag k="name" v="Kirkeknatten" />
		<tag k="natural" v="hill" />
		<tag k="place" v="locality" />
		<tag k="ssr:stedsnr" v="694992" />
	</node>
	<node lat="59.09304167006789" lon="9.41451389292265" id="-35552">
		<tag k="fixme" v="consider natural=peak for the most distinct mountains in the district" />
		<tag k="name" v="Damåsen" />
		<tag k="natural" v="hill" />
		<tag k="place" v="locality" />
		<tag k="ssr:stedsnr" v="695101" />
	</node>
	<node lat="59.14351111389806" lon="9.407116662873772" id="-35554">
		<tag k="fixme" v="consider natural=peak for the most distinct mountains in the district" />
		<tag k="name" v="Vierkåsåsen" />
		<tag k="natural" v="hill" />
		<tag k="place" v="locality" />
		<tag k="ssr:stedsnr" v="695440" />
	</node>
	<node lat="59.130502779333995" lon="9.318500001733616" id="-35560">
		<tag k="name" v="Rørtjenndalen" />
		<tag k="natural" v="valley" />
		<tag k="place" v="locality" />
		<tag k="ssr:stedsnr" v="696587" />
	</node>
	<node lat="59.097799995713814" lon="9.333038894484185" id="-35566">
		<tag k="name" v="Spjuttjennheia" />
		<tag k="natural" v="ridge" />
		<tag k="place" v="locality" />
		<tag k="ssr:stedsnr" v="696957" />
	</node>
	<node lat="59.18195000394116" lon="9.454563891219573" id="-35576">
		<tag k="alt_name" v="Brentefjellet" />
		<tag k="fixme" v="consider natural=peak for the most distinct mountains in the district" />
		<tag k="name" v="Brentefjell" />
		<tag k="natural" v="hill" />
		<tag k="place" v="locality" />
		<tag k="ssr:stedsnr" v="607990" />
	</node>
	<node lat="59.31235277704793" lon="9.583886113712815" id="-35579">
		<tag k="name" v="Dansarfjelliane" />
		<tag k="natural" v="slope" />
		<tag k="place" v="locality" />
		<tag k="ssr:stedsnr" v="608814" />
	</node>
	<node lat="59.31114167080498" lon="9.58819445225311" id="-35580">
		<tag k="alt_name" v="Dansarfjell, nordre" />
		<tag k="fixme" v="consider natural=peak for the most distinct mountains in the district" />
		<tag k="name" v="Dansarfjell" />
		<tag k="natural" v="hill" />
		<tag k="place" v="locality" />
		<tag k="ssr:stedsnr" v="608815" />
	</node>
	<node lat="59.30129444557668" lon="9.511583331431508" id="-35581">
		<tag k="fixme" v="consider natural=peak for the most distinct mountains in the district" />
		<tag k="name" v="Åletjernåsane" />
		<tag k="natural" v="hill" />
		<tag k="place" v="locality" />
		<tag k="ssr:stedsnr" v="608824" />
	</node>
	<node lat="59.23013888889997" lon="9.466766672670902" id="-35588">
		<tag k="fixme" v="consider natural=peak for the most distinct mountains in the district" />
		<tag k="name" v="Storåsen" />
		<tag k="natural" v="hill" />
		<tag k="place" v="locality" />
		<tag k="ssr:stedsnr" v="608938" />
	</node>
	<node lat="59.38020277607938" lon="9.390347218992307" id="-35589">
		<tag k="fixme" v="consider natural=peak for the most distinct mountains in the district" />
		<tag k="name" v="Nybufjellet" />
		<tag k="natural" v="hill" />
		<tag k="place" v="locality" />
		<tag k="ssr:stedsnr" v="608941" />
	</node>
	<node lat="59.33116666783593" lon="9.454341672555369" id="-35597">
		<tag k="name" v="Lunddalen" />
		<tag k="natural" v="valley" />
		<tag k="place" v="locality" />
		<tag k="ssr:stedsnr" v="609841" />
	</node>
	<node lat="59.075636113169885" lon="9.451102770961146" id="-35599">
		<tag k="fixme" v="consider natural=peak for the most distinct mountains in the district" />
		<tag k="name" v="Uletjennheia" />
		<tag k="natural" v="hill" />
		<tag k="place" v="locality" />
		<tag k="ssr:stedsnr" v="632103" />
	</node>
	<node lat="59.1418666704693" lon="9.523241665370454" id="-35601">
		<tag k="fixme" v="consider natural=peak for the most distinct mountains in the district" />
		<tag k="name" v="Høgås" />
		<tag k="natural" v="hill" />
		<tag k="place" v="locality" />
		<tag k="ssr:stedsnr" v="632533" />
	</node>
	<node lat="59.123508331964814" lon="9.380430558679821" id="-35604">
		<tag k="name" v="Svartflau" />
		<tag k="place" v="locality" />
		<tag k="ssr:stedsnr" v="632693" />
	</node>
	<node lat="59.21399722063192" lon="9.287252785333475" id="-35606">
		<tag k="name" v="Kåsa" />
		<tag k="place" v="locality" />
		<tag k="ssr:stedsnr" v="632805" />
	</node>
	<node lat="59.06252221903979" lon="9.414925005801422" id="-35612">
		<tag k="fixme" v="consider natural=peak for the most distinct mountains in the district" />
		<tag k="name" v="Leirtjennkollen" />
		<tag k="natural" v="hill" />
		<tag k="place" v="locality" />
		<tag k="ssr:stedsnr" v="632933" />
	</node>
	<node lat="59.08095277901978" lon="9.467138889706037" id="-35613">
		<tag k="name" v="Slåttadalen" />
		<tag k="natural" v="valley" />
		<tag k="place" v="locality" />
		<tag k="ssr:stedsnr" v="632879" />
	</node>
	<node lat="59.13960555706667" lon="9.556713889238692" id="-35614">
		<tag k="fixme" v="consider natural=peak for the most distinct mountains in the district" />
		<tag k="name" v="Veholtåsen" />
		<tag k="natural" v="hill" />
		<tag k="place" v="locality" />
		<tag k="ssr:stedsnr" v="632886" />
	</node>
	<node lat="59.15889999948489" lon="9.464861110869089" id="-35616">
		<tag k="name" v="Seterdalen" />
		<tag k="natural" v="valley" />
		<tag k="place" v="locality" />
		<tag k="ssr:stedsnr" v="633291" />
	</node>
	<node lat="59.25068055985594" lon="9.440241667386367" id="-35617">
		<tag k="name" v="Legdehovet" />
		<tag k="natural" v="valley" />
		<tag k="place" v="locality" />
		<tag k="ssr:stedsnr" v="633595" />
	</node>
	<node lat="59.08423333534871" lon="9.445002784627926" id="-35622">
		<tag k="fixme" v="consider natural=peak for the most distinct mountains in the district" />
		<tag k="name" v="Langmyråsen" />
		<tag k="natural" v="hill" />
		<tag k="place" v="locality" />
		<tag k="ssr:stedsnr" v="634089" />
	</node>
	<node lat="59.09147222622922" lon="9.29465555699825" id="-35629">
		<tag k="name" v="Lille Urdedalen" />
		<tag k="natural" v="valley" />
		<tag k="place" v="locality" />
		<tag k="ssr:stedsnr" v="635807" />
	</node>
	<node lat="59.08485555828329" lon="9.325355557120085" id="-35630">
		<tag k="fixme" v="consider natural=peak for the most distinct mountains in the district" />
		<tag k="name" v="Langtjennåsen" />
		<tag k="natural" v="hill" />
		<tag k="place" v="locality" />
		<tag k="ssr:stedsnr" v="635815" />
	</node>
	<node lat="59.151697218096935" lon="9.612633324541576" id="-35631">
		<tag k="name" v="Klyveåsen" />
		<tag k="natural" v="hill" />
		<tag k="place" v="locality" />
		<tag k="ssr:stedsnr" v="635715" />
	</node>
	<node lat="59.15148611024989" lon="9.323144442371959" id="-35632">
		<tag k="name" v="Sandvanndalen" />
		<tag k="natural" v="valley" />
		<tag k="place" v="locality" />
		<tag k="ssr:stedsnr" v="635905" />
	</node>
	<node lat="59.13311666939673" lon="9.320686107799053" id="-35642">
		<tag k="alt_name" v="Rørtjernåsen" />
		<tag k="fixme" v="consider natural=peak for the most distinct mountains in the district" />
		<tag k="name" v="Rørtjennfjellet" />
		<tag k="natural" v="hill" />
		<tag k="place" v="locality" />
		<tag k="ssr:stedsnr" v="668817" />
	</node>
	<node lat="59.13706666323136" lon="9.378999992098148" id="-35643">
		<tag k="fixme" v="consider natural=peak for the most distinct mountains in the district" />
		<tag k="name" v="Øykollen" />
		<tag k="natural" v="hill" />
		<tag k="place" v="locality" />
		<tag k="ssr:stedsnr" v="668931" />
	</node>
	<node lat="59.455055555270505" lon="9.41305000801624" id="-35644">
		<tag k="fixme" v="consider natural=peak for the most distinct mountains in the district" />
		<tag k="name" v="Røysefjell" />
		<tag k="natural" v="hill" />
		<tag k="place" v="locality" />
		<tag k="ssr:stedsnr" v="669006" />
	</node>
	<node lat="59.31236944240366" lon="9.501588887556464" id="-35652">
		<tag k="fixme" v="consider natural=peak for the most distinct mountains in the district" />
		<tag k="name" v="Røyvassåsen" />
		<tag k="natural" v="hill" />
		<tag k="place" v="locality" />
		<tag k="ssr:stedsnr" v="669777" />
	</node>
	<node lat="59.306141665985244" lon="9.360661108543306" id="-35653">
		<tag k="fixme" v="consider natural=peak for the most distinct mountains in the district" />
		<tag k="name" v="Langeto" />
		<tag k="natural" v="hill" />
		<tag k="place" v="locality" />
		<tag k="ssr:stedsnr" v="669780" />
	</node>
	<node lat="59.32666389214445" lon="9.496136113123985" id="-35660">
		<tag k="fixme" v="consider natural=peak for the most distinct mountains in the district" />
		<tag k="name" v="Jordbruåsen" />
		<tag k="natural" v="hill" />
		<tag k="place" v="locality" />
		<tag k="ssr:stedsnr" v="670733" />
	</node>
	<node lat="59.35346944368674" lon="9.434677780566826" id="-35664">
		<tag k="fixme" v="consider natural=peak for the most distinct mountains in the district" />
		<tag k="name" v="Godfjellåven" />
		<tag k="natural" v="hill" />
		<tag k="place" v="locality" />
		<tag k="ssr:stedsnr" v="688799" />
	</node>
	<node lat="59.21900555749513" lon="9.64601666163077" id="-35665">
		<tag k="fixme" v="consider natural=peak for the most distinct mountains in the district" />
		<tag k="name" v="Sørbøåsen" />
		<tag k="natural" v="hill" />
		<tag k="place" v="locality" />
		<tag k="ssr:stedsnr" v="688912" />
	</node>
	<node lat="59.23955833408703" lon="9.63256111873491" id="-35670">
		<tag k="alt_name" v="Kjerråsen" />
		<tag k="fixme" v="consider natural=peak for the most distinct mountains in the district" />
		<tag k="loc_name" v="Tykes åser" />
		<tag k="name" v="Kjæråsen" />
		<tag k="natural" v="hill" />
		<tag k="place" v="locality" />
		<tag k="ssr:stedsnr" v="693227" />
	</node>
	<node lat="59.18993888785381" lon="9.380958324821082" id="-35674">
		<tag k="fixme" v="consider natural=peak for the most distinct mountains in the district" />
		<tag k="name" v="Svarttjennkollen" />
		<tag k="natural" v="hill" />
		<tag k="place" v="locality" />
		<tag k="ssr:stedsnr" v="693503" />
	</node>
	<node lat="59.18721944473916" lon="9.37283054977771" id="-35675">
		<tag k="fixme" v="consider natural=peak for the most distinct mountains in the district" />
		<tag k="name" v="Grønnkoll" />
		<tag k="natural" v="hill" />
		<tag k="place" v="locality" />
		<tag k="ssr:stedsnr" v="693505" />
	</node>
	<node lat="59.136747221428685" lon="9.581511104938706" id="-35679">
		<tag k="name" v="Barlinddalen" />
		<tag k="natural" v="valley" />
		<tag k="place" v="locality" />
		<tag k="ssr:stedsnr" v="693980" />
	</node>
	<node lat="59.131447223459965" lon="9.552813897394216" id="-35680">
		<tag k="fixme" v="consider natural=peak for the most distinct mountains in the district" />
		<tag k="name" v="Flogåsen" />
		<tag k="natural" v="hill" />
		<tag k="place" v="locality" />
		<tag k="ssr:stedsnr" v="693981" />
	</node>
	<node lat="59.22241944015575" lon="9.501113886435624" id="-35681">
		<tag k="fixme" v="consider natural=peak for the most distinct mountains in the district" />
		<tag k="name" v="Kvernhusåsen" />
		<tag k="natural" v="hill" />
		<tag k="place" v="locality" />
		<tag k="ssr:stedsnr" v="694077" />
	</node>
	<node lat="59.22346388533188" lon="9.386336105356369" id="-35684">
		<tag k="fixme" v="consider natural=peak for the most distinct mountains in the district" />
		<tag k="name" v="Guttefjell" />
		<tag k="natural" v="hill" />
		<tag k="place" v="locality" />
		<tag k="ssr:stedsnr" v="694270" />
	</node>
	<node lat="59.23029721924624" lon="9.50053055707253" id="-35687">
		<tag k="fixme" v="consider natural=peak for the most distinct mountains in the district" />
		<tag k="name" v="Polleheia" />
		<tag k="natural" v="hill" />
		<tag k="place" v="locality" />
		<tag k="ssr:stedsnr" v="694512" />
	</node>
	<node lat="59.34705555390863" lon="9.38151389012798" id="-35688">
		<tag k="fixme" v="consider natural=peak for the most distinct mountains in the district" />
		<tag k="name" v="Skarpenord" />
		<tag k="natural" v="hill" />
		<tag k="place" v="locality" />
		<tag k="ssr:stedsnr" v="694627" />
	</node>
	<node lat="59.099411114598276" lon="9.371091659632274" id="-35689">
		<tag k="name" v="Gislesjøheia" />
		<tag k="natural" v="hill" />
		<tag k="place" v="locality" />
		<tag k="ssr:stedsnr" v="694677" />
	</node>
	<node lat="59.19736389028831" lon="9.409994441886782" id="-35691">
		<tag k="fixme" v="consider natural=peak for the most distinct mountains in the district" />
		<tag k="name" v="Fjøsåsen" />
		<tag k="natural" v="hill" />
		<tag k="place" v="locality" />
		<tag k="ssr:stedsnr" v="694969" />
	</node>
	<node lat="59.07562500384438" lon="9.415838897637357" id="-35692">
		<tag k="name" v="Røydalen" />
		<tag k="natural" v="valley" />
		<tag k="place" v="locality" />
		<tag k="ssr:stedsnr" v="695117" />
	</node>
	<node lat="59.07899722311826" lon="9.403575002504244" id="-35694">
		<tag k="fixme" v="consider natural=peak for the most distinct mountains in the district" />
		<tag k="name" v="Sørenskåsåsen" />
		<tag k="natural" v="hill" />
		<tag k="place" v="locality" />
		<tag k="ssr:stedsnr" v="695125" />
	</node>
	<node lat="59.21682499973371" lon="9.757013895444102" id="-35702">
		<tag k="name" v="Vallerdalen" />
		<tag k="natural" v="valley" />
		<tag k="place" v="locality" />
		<tag k="ssr:stedsnr" v="696073" />
	</node>
	<node lat="59.08981944051634" lon="9.410055556935838" id="-35704">
		<tag k="name" v="Brånan" />
		<tag k="natural" v="hill" />
		<tag k="place" v="locality" />
		<tag k="ssr:stedsnr" v="696113" />
	</node>
	<node lat="59.08985833685952" lon="9.418500008079405" id="-35705">
		<tag k="name" v="Djupedal" />
		<tag k="natural" v="valley" />
		<tag k="place" v="locality" />
		<tag k="ssr:stedsnr" v="696115" />
	</node>
	<node lat="59.125277773988046" lon="9.303180559691745" id="-35727">
		<tag k="fixme" v="consider natural=peak for the most distinct mountains in the district" />
		<tag k="name" v="Stålfjellet" />
		<tag k="natural" v="hill" />
		<tag k="place" v="locality" />
		<tag k="ssr:stedsnr" v="729813" />
	</node>
	<node lat="59.45821110699412" lon="9.460716664829569" id="-35729">
		<tag k="name" v="Kleppenskarvet" />
		<tag k="natural" v="hill" />
		<tag k="place" v="locality" />
		<tag k="ssr:stedsnr" v="730008" />
	</node>
</osm>
