<?xml version="1.0" encoding="UTF-8"?>
<osm generator="osmapis" version="0.6">
	<node id="-805376" lat="70.9412500176" lon="28.4404048812">
		<tag k="fixme" v="consider natural=peak for the most distinct mountains in the district" />
		<tag k="name" v="Risdalsfjellet" />
		<tag k="natural" v="hill" />
		<tag k="place" v="locality" />
		<tag k="ssr:stedsnr" v="81929" />
	</node>
	<node id="-805886" lat="71.0012333465" lon="28.344118806">
		<tag k="alt_name" v="Teisteberga" />
		<tag k="name" v="Teistbergan" />
		<tag k="natural" v="hill" />
		<tag k="place" v="locality" />
		<tag k="ssr:stedsnr" v="687900" />
	</node>
	<node id="-805373" lat="70.9956527969" lon="28.4401687613">
		<tag k="name" v="Klubben" />
		<tag k="natural" v="hill" />
		<tag k="place" v="locality" />
		<tag k="ssr:stedsnr" v="81905" />
	</node>
	<node id="-805884" lat="70.792647237" lon="28.2106521303">
		<tag k="fixme" v="consider natural=peak for the most distinct mountains in the district" />
		<tag k="name" v="Klubben" />
		<tag k="natural" v="hill" />
		<tag k="place" v="locality" />
		<tag k="ssr:stedsnr" v="687886" />
	</node>
	<node id="-805366" lat="70.6780750101" lon="27.5558022483">
		<tag k="fixme" v="consider natural=peak for the most distinct mountains in the district" />
		<tag k="name" v="Stohpogielas" />
		<tag k="name:se" v="Stohpogielas" />
		<tag k="natural" v="hill" />
		<tag k="old_name:se" v="Ståppugielas" />
		<tag k="place" v="locality" />
		<tag k="ssr:stedsnr" v="81691" />
	</node>
	<node id="-805875" lat="70.9842444618" lon="28.2009743922">
		<tag k="fixme" v="consider natural=peak for the most distinct mountains in the district" />
		<tag k="name" v="Ørntind" />
		<tag k="natural" v="hill" />
		<tag k="place" v="locality" />
		<tag k="ssr:stedsnr" v="687838" />
	</node>
	<node id="-805874" lat="70.9923416804" lon="27.7788272489">
		<tag k="name" v="Ostebakkan" />
		<tag k="natural" v="slope" />
		<tag k="place" v="locality" />
		<tag k="ssr:stedsnr" v="687830" />
	</node>
	<node id="-805868" lat="71.0463916764" lon="27.9230911203">
		<tag k="fixme" v="consider natural=peak for the most distinct mountains in the district" />
		<tag k="name" v="Skipsviktuva" />
		<tag k="natural" v="hill" />
		<tag k="ssr:stedsnr" v="687429" />
	</node>
	<node id="-805352" lat="70.5573555701" lon="27.3813522805">
		<tag k="name" v="Lákkomohkki" />
		<tag k="name:se" v="Lákkomohkki" />
		<tag k="natural" v="valley" />
		<tag k="old_name:se" v="Laggumåkki" />
		<tag k="place" v="locality" />
		<tag k="ssr:stedsnr" v="80752" />
	</node>
	<node id="-805863" lat="70.7021666832" lon="28.0195743881">
		<tag k="fixme" v="consider natural=peak for the most distinct mountains in the district" />
		<tag k="name" v="Háldečohkka" />
		<tag k="name:se" v="Háldečohkka" />
		<tag k="natural" v="hill" />
		<tag k="old_name:se" v="Haldečåkka" />
		<tag k="place" v="locality" />
		<tag k="ssr:stedsnr" v="687296" />
	</node>
	<node id="-805862" lat="70.5610805727" lon="27.9218077037">
		<tag k="fixme" v="consider natural=peak for the most distinct mountains in the district" />
		<tag k="name" v="Duolbagáisá" />
		<tag k="name:se" v="Duolbagáisá" />
		<tag k="natural" v="hill" />
		<tag k="old_name:se" v="Duolbagaisa" />
		<tag k="place" v="locality" />
		<tag k="ssr:stedsnr" v="687250" />
	</node>
	<node id="-805861" lat="70.8099972367" lon="27.8675688772">
		<tag k="name" v="Kobbvikdalen" />
		<tag k="natural" v="valley" />
		<tag k="place" v="locality" />
		<tag k="ssr:stedsnr" v="639863" />
	</node>
	<node id="-805348" lat="70.6924277979" lon="28.2494937705">
		<tag k="fixme" v="consider natural=peak for the most distinct mountains in the district" />
		<tag k="name" v="Njuohkonjárgáisá" />
		<tag k="name:se" v="Njuohkonjárgáisá" />
		<tag k="natural" v="hill" />
		<tag k="old_name:se" v="Njuokkunjargaisa" />
		<tag k="place" v="locality" />
		<tag k="ssr:stedsnr" v="80353" />
	</node>
	<node id="-805526" lat="70.9301139094" lon="28.5217326163">
		<tag k="name" v="Staurabergan" />
		<tag k="natural" v="hill" />
		<tag k="place" v="locality" />
		<tag k="ssr:stedsnr" v="208063" />
	</node>
	<node id="-805858" lat="70.6719500144" lon="27.8560966308">
		<tag k="name" v="Sommerheimdalen" />
		<tag k="natural" v="valley" />
		<tag k="place" v="locality" />
		<tag k="ssr:stedsnr" v="636226" />
	</node>
	<node id="-805712" lat="70.8281527957" lon="28.0135355223">
		<tag k="name" v="Sløykhamran" />
		<tag k="natural" v="hill" />
		<tag k="place" v="locality" />
		<tag k="ssr:stedsnr" v="510773" />
	</node>
	<node id="-805340" lat="70.6657305728" lon="27.8535577382">
		<tag k="name" v="Kavelberget" />
		<tag k="natural" v="hill" />
		<tag k="place" v="locality" />
		<tag k="ssr:stedsnr" v="30254" />
	</node>
	<node id="-805851" lat="71.0305055654" lon="28.1076410848">
		<tag k="fixme" v="consider natural=peak for the most distinct mountains in the district" />
		<tag k="name" v="Middagsfjell" />
		<tag k="natural" v="hill" />
		<tag k="place" v="locality" />
		<tag k="ssr:stedsnr" v="631912" />
	</node>
	<node id="-805849" lat="71.0503222378" lon="28.0389966554">
		<tag k="fixme" v="consider natural=peak for the most distinct mountains in the district" />
		<tag k="name" v="Falkefjell" />
		<tag k="natural" v="hill" />
		<tag k="place" v="locality" />
		<tag k="ssr:stedsnr" v="631875" />
	</node>
	<node id="-805336" lat="71.0383666761" lon="28.1073160765">
		<tag k="name" v="Sandfjordskaret" />
		<tag k="natural" v="valley" />
		<tag k="place" v="locality" />
		<tag k="ssr:stedsnr" v="25924" />
	</node>
	<node id="-805334" lat="71.0240527863" lon="28.1003466444">
		<tag k="fixme" v="consider natural=peak for the most distinct mountains in the district" />
		<tag k="name" v="Semmeltoppen" />
		<tag k="natural" v="hill" />
		<tag k="ssr:stedsnr" v="25910" />
	</node>
	<node id="-805844" lat="70.8230000166" lon="28.0041244015">
		<tag k="name" v="Franslia" />
		<tag k="natural" v="slope" />
		<tag k="place" v="locality" />
		<tag k="ssr:stedsnr" v="631744" />
	</node>
	<node id="-805843" lat="70.8294389068" lon="28.1266688323">
		<tag k="name" v="Sæveråsdalen" />
		<tag k="natural" v="valley" />
		<tag k="place" v="locality" />
		<tag k="ssr:stedsnr" v="631725" />
	</node>
	<node id="-805842" lat="70.8104555659" lon="28.0821243847">
		<tag k="name" v="Olarsabakken" />
		<tag k="natural" v="slope" />
		<tag k="place" v="locality" />
		<tag k="ssr:stedsnr" v="631715" />
	</node>
	<node id="-805841" lat="70.8014444612" lon="28.1520771517">
		<tag k="name" v="Bjørnelvdalen" />
		<tag k="natural" v="valley" />
		<tag k="place" v="locality" />
		<tag k="ssr:stedsnr" v="631705" />
	</node>
	<node id="-805840" lat="70.7991416806" lon="28.1378549278">
		<tag k="name" v="Tverrdalen" />
		<tag k="natural" v="valley" />
		<tag k="place" v="locality" />
		<tag k="ssr:stedsnr" v="631701" />
	</node>
	<node id="-805624" lat="70.8164861218" lon="28.0506132862">
		<tag k="alt_name" v="Per, litle" />
		<tag k="fixme" v="consider natural=peak for the most distinct mountains in the district" />
		<tag k="name" v="Lille Per" />
		<tag k="natural" v="hill" />
		<tag k="place" v="locality" />
		<tag k="ssr:stedsnr" v="445868" />
	</node>
	<node id="-805835" lat="70.6876805717" lon="28.2134298851">
		<tag k="name" v="Digermuldalen" />
		<tag k="natural" v="valley" />
		<tag k="place" v="locality" />
		<tag k="ssr:stedsnr" v="631670" />
	</node>
	<node id="-805832" lat="70.6161055712" lon="27.9249938395">
		<tag k="fixme" v="consider natural=peak for the most distinct mountains in the district" />
		<tag k="name" v="Bealjáidgáisá" />
		<tag k="name:se" v="Bealjáidgáisá" />
		<tag k="natural" v="hill" />
		<tag k="old_name:se" v="Bælljaidgaisa" />
		<tag k="place" v="locality" />
		<tag k="ssr:stedsnr" v="627297" />
	</node>
	<node id="-805317" lat="70.9574916859" lon="28.4134326566">
		<tag k="name" v="Risdalen" />
		<tag k="natural" v="valley" />
		<tag k="place" v="locality" />
		<tag k="ssr:stedsnr" v="20922" />
	</node>
	<node id="-805828" lat="70.7611750114" lon="27.9033910794">
		<tag k="alt_name" v="Store Skogfjordfjellet" />
		<tag k="fixme" v="consider natural=peak for the most distinct mountains in the district" />
		<tag k="name" v="Skogfjordfjellet" />
		<tag k="natural" v="hill" />
		<tag k="place" v="locality" />
		<tag k="ssr:stedsnr" v="626895" />
	</node>
	<node id="-805274" lat="70.6094389023" lon="27.5353272624">
		<tag k="name" v="Statsteian" />
		<tag k="natural" v="slope" />
		<tag k="place" v="locality" />
		<tag k="ssr:stedsnr" v="394212" />
	</node>
	<node id="-805824" lat="70.8106138999" lon="27.7759577858">
		<tag k="fixme" v="consider natural=peak for the most distinct mountains in the district" />
		<tag k="name" v="Langnesaksla" />
		<tag k="natural" v="hill" />
		<tag k="place" v="locality" />
		<tag k="ssr:stedsnr" v="626870" />
	</node>
	<node id="-805823" lat="70.9103055738" lon="28.1822660306">
		<tag k="name" v="Tyfjordstrupen - Strumpu" />
		<tag k="name:no" v="Tyfjordstrupen" />
		<tag k="name:se" v="Strumpu" />
		<tag k="natural" v="valley" />
		<tag k="old_name:se" v="Strumpo" />
		<tag k="place" v="locality" />
		<tag k="ssr:stedsnr" v="626854" />
	</node>
	<node id="-805820" lat="70.9470305706" lon="27.9307438764">
		<tag k="fixme" v="consider natural=peak for the most distinct mountains in the district" />
		<tag k="name" v="Langvassfjellet" />
		<tag k="natural" v="hill" />
		<tag k="place" v="locality" />
		<tag k="ssr:stedsnr" v="626838" />
	</node>
	<node id="-805817" lat="70.957738904" lon="28.1147910588">
		<tag k="fixme" v="consider natural=peak for the most distinct mountains in the district" />
		<tag k="name" v="Vestfjellet" />
		<tag k="natural" v="hill" />
		<tag k="place" v="locality" />
		<tag k="ssr:stedsnr" v="626829" />
	</node>
	<node id="-805816" lat="70.5624250173" lon="27.5788689092">
		<tag k="name" v="Johkannjárga" />
		<tag k="name:se" v="Johkannjárga" />
		<tag k="natural" v="valley" />
		<tag k="old_name:se" v="Jåkkannjarga" />
		<tag k="place" v="locality" />
		<tag k="ssr:stedsnr" v="626761" />
	</node>
	<node id="-805302" lat="71.0469972359" lon="27.7309744859">
		<tag k="name" v="Kobbhaugan" />
		<tag k="natural" v="hill" />
		<tag k="place" v="locality" />
		<tag k="ssr:stedsnr" v="20409" />
	</node>
	<node id="-805812" lat="71.0806861216" lon="28.1374855141">
		<tag k="name" v="Veslevikhaugen" />
		<tag k="natural" v="hill" />
		<tag k="place" v="locality" />
		<tag k="ssr:stedsnr" v="626498" />
	</node>
	<node id="-805811" lat="71.0784472358" lon="28.03759666">
		<tag k="fixme" v="consider natural=peak for the most distinct mountains in the district" />
		<tag k="name" v="Bispen" />
		<tag k="natural" v="hill" />
		<tag k="place" v="locality" />
		<tag k="ssr:stedsnr" v="626492" />
	</node>
	<node id="-805808" lat="71.0261361268" lon="27.6466495094">
		<tag k="fixme" v="consider natural=peak for the most distinct mountains in the district" />
		<tag k="name" v="Bjørnviktuva" />
		<tag k="natural" v="hill" />
		<tag k="place" v="locality" />
		<tag k="ssr:stedsnr" v="626428" />
	</node>
	<node id="-805807" lat="71.0225611209" lon="27.8113578061">
		<tag k="name" v="Rundhaugen" />
		<tag k="natural" v="hill" />
		<tag k="place" v="locality" />
		<tag k="ssr:stedsnr" v="626427" />
	</node>
	<node id="-805294" lat="70.7279666802" lon="28.0824049071">
		<tag k="name" v="Brannberget" />
		<tag k="natural" v="hill" />
		<tag k="place" v="locality" />
		<tag k="ssr:stedsnr" v="20310" />
	</node>
	<node id="-805293" lat="70.7383055746" lon="28.0402882646">
		<tag k="alt_name" v="Skogfjorddalen, l" />
		<tag k="name" v="Lille Skogfjorddalen" />
		<tag k="natural" v="valley" />
		<tag k="place" v="locality" />
		<tag k="ssr:stedsnr" v="20307" />
	</node>
	<node id="-805804" lat="70.5521611253" lon="27.6852355497">
		<tag k="fixme" v="consider natural=peak for the most distinct mountains in the district" />
		<tag k="name" v="Bohkoščohkka" />
		<tag k="name:se" v="Bohkoščohkka" />
		<tag k="natural" v="hill" />
		<tag k="old_name:se" v="Båkkuščåkka" />
		<tag k="place" v="locality" />
		<tag k="ssr:stedsnr" v="626414" />
	</node>
	<node id="-805291" lat="70.7076833524" lon="27.7590188773">
		<tag k="fixme" v="consider natural=peak for the most distinct mountains in the district" />
		<tag k="name" v="Trolltind" />
		<tag k="natural" v="hill" />
		<tag k="place" v="locality" />
		<tag k="ssr:stedsnr" v="20299" />
	</node>
	<node id="-805801" lat="70.7180944589" lon="28.0018604922">
		<tag k="fixme" v="consider natural=peak for the most distinct mountains in the district" />
		<tag k="name" v="Bárši" />
		<tag k="name:se" v="Bárši" />
		<tag k="natural" v="hill" />
		<tag k="old_name:se" v="Barši" />
		<tag k="place" v="locality" />
		<tag k="ssr:stedsnr" v="626321" />
	</node>
	<node id="-805800" lat="70.7167500132" lon="27.7729688783">
		<tag k="fixme" v="consider natural=peak for the most distinct mountains in the district" />
		<tag k="name" v="Goalserášša" />
		<tag k="name:se" v="Goalserášša" />
		<tag k="natural" v="hill" />
		<tag k="old_name:se" v="Goalserašša" />
		<tag k="place" v="locality" />
		<tag k="ssr:stedsnr" v="626318" />
	</node>
	<node id="-805797" lat="70.655966684" lon="27.72840777">
		<tag k="name" v="Nerveidalen - Njereveaiávži" />
		<tag k="name:no" v="Nerveidalen" />
		<tag k="name:se" v="Njereveaiávži" />
		<tag k="natural" v="valley" />
		<tag k="old_name:se" v="Njerevæjavži" />
		<tag k="place" v="locality" />
		<tag k="ssr:stedsnr" v="626299" />
	</node>
	<node id="-805283" lat="70.8148611278" lon="27.9562188517">
		<tag k="fixme" v="consider natural=peak for the most distinct mountains in the district" />
		<tag k="name" v="Juliafjellet" />
		<tag k="natural" v="hill" />
		<tag k="place" v="locality" />
		<tag k="ssr:stedsnr" v="882833" />
	</node>
	<node id="-805279" lat="70.7962055699" lon="27.9270744237">
		<tag k="name" v="Værnesbergan" />
		<tag k="natural" v="hill" />
		<tag k="place" v="locality" />
		<tag k="ssr:stedsnr" v="396845" />
	</node>
	<node id="-805790" lat="70.7088944583" lon="28.0655243666">
		<tag k="name" v="Småskjærhøgda" />
		<tag k="natural" v="hill" />
		<tag k="place" v="locality" />
		<tag k="ssr:stedsnr" v="576207" />
	</node>
	<node id="-805789" lat="70.7043000197" lon="28.0250354916">
		<tag k="fixme" v="consider natural=peak for the most distinct mountains in the district" />
		<tag k="name" v="Havdaluovthøgda - Hávdačohkka" />
		<tag k="name:no" v="Havdaluovthøgda" />
		<tag k="name:se" v="Hávdačohkka" />
		<tag k="natural" v="hill" />
		<tag k="place" v="locality" />
		<tag k="ssr:stedsnr" v="576191" />
	</node>
	<node id="-805788" lat="70.7134889045" lon="28.0399660365">
		<tag k="name" v="Buktadalen" />
		<tag k="natural" v="valley" />
		<tag k="place" v="locality" />
		<tag k="ssr:stedsnr" v="576185" />
	</node>
	<node id="-805275" lat="70.8217777904" lon="27.9900466287">
		<tag k="name" v="Vårelvdalen" />
		<tag k="natural" v="valley" />
		<tag k="place" v="locality" />
		<tag k="ssr:stedsnr" v="396815" />
	</node>
	<node id="-805786" lat="70.855394463" lon="28.091179935">
		<tag k="fixme" v="consider natural=peak for the most distinct mountains in the district" />
		<tag k="name" v="Storvarden" />
		<tag k="natural" v="hill" />
		<tag k="ssr:stedsnr" v="572228" />
	</node>
	<node id="-805273" lat="70.7132555695" lon="28.0723743714">
		<tag k="name" v="Stoffalhøgda" />
		<tag k="natural" v="hill" />
		<tag k="place" v="locality" />
		<tag k="ssr:stedsnr" v="394207" />
	</node>
	<node id="-805784" lat="71.0403611279" lon="27.9161355672">
		<tag k="name" v="Bjørkviktua" />
		<tag k="natural" v="hill" />
		<tag k="place" v="locality" />
		<tag k="ssr:stedsnr" v="571999" />
	</node>
	<node id="-805782" lat="71.0300916788" lon="27.9465716621">
		<tag k="name" v="Storvasshøgda" />
		<tag k="natural" v="hill" />
		<tag k="place" v="locality" />
		<tag k="ssr:stedsnr" v="571967" />
	</node>
	<node id="-805777" lat="70.8231666794" lon="28.0099216073">
		<tag k="fixme" v="consider natural=peak for the most distinct mountains in the district" />
		<tag k="name" v="Spennfjellet" />
		<tag k="natural" v="hill" />
		<tag k="place" v="locality" />
		<tag k="ssr:stedsnr" v="571717" />
	</node>
	<node id="-805272" lat="70.6567861279" lon="27.8484994061">
		<tag k="fixme" v="consider natural=peak for the most distinct mountains in the district" />
		<tag k="name" v="Storfjellet - Stuorračohkka" />
		<tag k="name:no" v="Storfjellet" />
		<tag k="name:se" v="Stuorračohkka" />
		<tag k="natural" v="hill" />
		<tag k="place" v="locality" />
		<tag k="ssr:stedsnr" v="394178" />
	</node>
	<node id="-806171" lat="70.7662889046" lon="27.7830438894">
		<tag k="name" v="Liene" />
		<tag k="natural" v="slope" />
		<tag k="place" v="locality" />
		<tag k="ssr:stedsnr" v="930885" />
	</node>
	<node id="-805768" lat="70.7977944583" lon="28.1283049243">
		<tag k="name" v="Berget" />
		<tag k="natural" v="hill" />
		<tag k="place" v="locality" />
		<tag k="ssr:stedsnr" v="570661" />
	</node>
	<node id="-805441" lat="70.8516944584" lon="28.0042243974">
		<tag k="fixme" v="consider natural=peak for the most distinct mountains in the district" />
		<tag k="name" v="Hornslettfjellet - Rovru" />
		<tag k="name:no" v="Hornslettfjellet" />
		<tag k="name:se" v="Rovru" />
		<tag k="natural" v="hill" />
		<tag k="old_name:se" v="Råvro" />
		<tag k="place" v="locality" />
		<tag k="ssr:stedsnr" v="141826" />
	</node>
	<node id="-805251" lat="70.8075889065" lon="28.1080410364">
		<tag k="name" v="Hopdalen" />
		<tag k="natural" v="valley" />
		<tag k="place" v="locality" />
		<tag k="ssr:stedsnr" v="388673" />
	</node>
	<node id="-805762" lat="70.9724361302" lon="28.2528354731">
		<tag k="fixme" v="consider natural=peak for the most distinct mountains in the district" />
		<tag k="name" v="Tindan" />
		<tag k="natural" v="hill" />
		<tag k="place" v="locality" />
		<tag k="ssr:stedsnr" v="566926" />
	</node>
	<node id="-805249" lat="70.8065222384" lon="28.087493821">
		<tag k="alt_name" v="Lilleelvhøgda" />
		<tag k="name" v="Lillelvhøgda" />
		<tag k="natural" v="hill" />
		<tag k="place" v="locality" />
		<tag k="ssr:stedsnr" v="388661" />
	</node>
	<node id="-805760" lat="70.981291683" lon="28.3709993356">
		<tag k="fixme" v="consider natural=peak for the most distinct mountains in the district" />
		<tag k="name" v="Trolldalsaksla" />
		<tag k="natural" v="hill" />
		<tag k="place" v="locality" />
		<tag k="ssr:stedsnr" v="566917" />
	</node>
	<node id="-805184" lat="71.0580361217" lon="28.2266216236">
		<tag k="name" v="Kåvbakkan" />
		<tag k="natural" v="slope" />
		<tag k="place" v="locality" />
		<tag k="ssr:stedsnr" v="328821" />
	</node>
	<node id="-805245" lat="71.0246194562" lon="27.8659133426">
		<tag k="name" v="Torvemyrskaret" />
		<tag k="natural" v="valley" />
		<tag k="place" v="locality" />
		<tag k="ssr:stedsnr" v="389119" />
	</node>
	<node id="-805756" lat="71.0908833485" lon="27.6816245084">
		<tag k="fixme" v="consider natural=peak for the most distinct mountains in the district" />
		<tag k="name" v="Magkeilfjordfjellet" />
		<tag k="natural" v="hill" />
		<tag k="place" v="locality" />
		<tag k="ssr:stedsnr" v="566459" />
	</node>
	<node id="-805243" lat="70.8065500183" lon="28.2877798801">
		<tag k="name" v="Tuva - Ráigebákti" />
		<tag k="name:no" v="Tuva" />
		<tag k="name:se" v="Ráigebákti" />
		<tag k="natural" v="hill" />
		<tag k="old_name:se" v="Raigebakti" />
		<tag k="place" v="locality" />
		<tag k="ssr:stedsnr" v="384930" />
	</node>
	<node id="-805241" lat="70.8065166841" lon="28.2518548951">
		<tag k="name" v="Svensvikdalen" />
		<tag k="natural" v="valley" />
		<tag k="place" v="locality" />
		<tag k="ssr:stedsnr" v="384926" />
	</node>
	<node id="-805751" lat="70.673613905" lon="28.157515998">
		<tag k="name" v="Čillevággi" />
		<tag k="name:se" v="Čillevággi" />
		<tag k="natural" v="valley" />
		<tag k="old_name:se" v="Čillevaggi" />
		<tag k="place" v="locality" />
		<tag k="ssr:stedsnr" v="566307" />
	</node>
	<node id="-805750" lat="70.6775750129" lon="27.7993771953">
		<tag k="name" v="Stuorravággi" />
		<tag k="name:se" v="Stuorravággi" />
		<tag k="natural" v="valley" />
		<tag k="old_name:se" v="Stuorravaggi" />
		<tag k="place" v="locality" />
		<tag k="ssr:stedsnr" v="566305" />
	</node>
	<node id="-805456" lat="71.0433305687" lon="28.2113882706">
		<tag k="name" v="Storvikhøgda" />
		<tag k="natural" v="hill" />
		<tag k="place" v="locality" />
		<tag k="ssr:stedsnr" v="146829" />
	</node>
	<node id="-805743" lat="70.8734583444" lon="27.8931521968">
		<tag k="fixme" v="consider natural=peak for the most distinct mountains in the district" />
		<tag k="name" v="Juohkoaivi" />
		<tag k="name:se" v="Juohkoaivi" />
		<tag k="natural" v="hill" />
		<tag k="old_name:se" v="Juokkoaivi" />
		<tag k="place" v="locality" />
		<tag k="ssr:stedsnr" v="565837" />
	</node>
	<node id="-805739" lat="70.5221500166" lon="27.5530355797">
		<tag k="fixme" v="consider natural=peak for the most distinct mountains in the district" />
		<tag k="name" v="Beatnatgáisá" />
		<tag k="name:se" v="Beatnatgáisá" />
		<tag k="natural" v="hill" />
		<tag k="old_name:se" v="Bædnatgaisa" />
		<tag k="place" v="locality" />
		<tag k="ssr:stedsnr" v="565762" />
	</node>
	<node id="-805226" lat="71.0036666757" lon="27.8171744811">
		<tag k="alt_name" v="Fossbakkan" />
		<tag k="name" v="Fossbakkane" />
		<tag k="natural" v="slope" />
		<tag k="place" v="locality" />
		<tag k="ssr:stedsnr" v="384388" />
	</node>
	<node id="-805607" lat="70.6503027903" lon="27.9908910424">
		<tag k="name" v="Svartberga" />
		<tag k="natural" v="hill" />
		<tag k="place" v="locality" />
		<tag k="ssr:stedsnr" v="445281" />
	</node>
	<node id="-805736" lat="71.0544916834" lon="28.1064049766">
		<tag k="name" v="Tarevikaksla" />
		<tag k="natural" v="hill" />
		<tag k="place" v="locality" />
		<tag k="ssr:stedsnr" v="565392" />
	</node>
	<node id="-805221" lat="70.6011000197" lon="27.7845577391">
		<tag k="fixme" v="consider natural=peak for the most distinct mountains in the district" />
		<tag k="name" v="Ánotvákkejorbbut" />
		<tag k="name:se" v="Ánotvákkejorbbut" />
		<tag k="natural" v="hill" />
		<tag k="old_name:se" v="Anutvaggejårbot" />
		<tag k="place" v="locality" />
		<tag k="ssr:stedsnr" v="384266" />
	</node>
	<node id="-805732" lat="70.6623555737" lon="27.7794855323">
		<tag k="name" v="Stolpesletta - Čuoldaáidi" />
		<tag k="name:no" v="Stolpesletta" />
		<tag k="name:se" v="Čuoldaáidi" />
		<tag k="place" v="locality" />
		<tag k="ssr:stedsnr" v="515241" />
	</node>
	<node id="-805731" lat="70.6683611224" lon="27.7674827698">
		<tag k="fixme" v="consider natural=peak for the most distinct mountains in the district" />
		<tag k="name" v="Gállonurki" />
		<tag k="name:se" v="Gállonurki" />
		<tag k="natural" v="hill" />
		<tag k="place" v="locality" />
		<tag k="ssr:stedsnr" v="515234" />
	</node>
	<node id="-805217" lat="70.9886000125" lon="27.7458883626">
		<tag k="fixme" v="consider natural=peak for the most distinct mountains in the district" />
		<tag k="name" v="Medtuva" />
		<tag k="natural" v="hill" />
		<tag k="ssr:stedsnr" v="383842" />
	</node>
	<node id="-805216" lat="70.9692277874" lon="27.8556383321">
		<tag k="name" v="Hysvasskardet" />
		<tag k="natural" v="valley" />
		<tag k="place" v="locality" />
		<tag k="ssr:stedsnr" v="383833" />
	</node>
	<node id="-805727" lat="70.7734611243" lon="27.8862105223">
		<tag k="name" v="Tynnbergan" />
		<tag k="natural" v="slope" />
		<tag k="place" v="locality" />
		<tag k="ssr:stedsnr" v="512729" />
	</node>
	<node id="-805725" lat="70.8325472364" lon="28.223310456">
		<tag k="name" v="Rafjordfjellet" />
		<tag k="natural" v="hill" />
		<tag k="place" v="locality" />
		<tag k="ssr:stedsnr" v="512387" />
	</node>
	<node id="-805723" lat="71.0334444604" lon="27.9078800096">
		<tag k="name" v="Bjørkvikdøra" />
		<tag k="natural" v="hill" />
		<tag k="place" v="locality" />
		<tag k="ssr:stedsnr" v="510998" />
	</node>
	<node id="-805722" lat="71.0247277914" lon="27.887066143">
		<tag k="name" v="Nordre Vassdalen" />
		<tag k="natural" v="valley" />
		<tag k="place" v="locality" />
		<tag k="ssr:stedsnr" v="510982" />
	</node>
	<node id="-805263" lat="71.0594694574" lon="27.957443888">
		<tag k="name" v="Musbakken" />
		<tag k="natural" v="slope" />
		<tag k="place" v="locality" />
		<tag k="ssr:stedsnr" v="389965" />
	</node>
	<node id="-805717" lat="71.087127787" lon="28.1841660637">
		<tag k="alt_name" v="Hollendervikbakken" />
		<tag k="name" v="Hollendarvikbakken" />
		<tag k="natural" v="slope" />
		<tag k="place" v="locality" />
		<tag k="ssr:stedsnr" v="510872" />
	</node>
	<node id="-805716" lat="71.0679861266" lon="28.2367216008">
		<tag k="name" v="Skjørbebakken" />
		<tag k="natural" v="slope" />
		<tag k="place" v="locality" />
		<tag k="ssr:stedsnr" v="510848" />
	</node>
	<node id="-805714" lat="71.0549805704" lon="28.1970660547">
		<tag k="name" v="Tverrvikstrupen" />
		<tag k="natural" v="valley" />
		<tag k="place" v="locality" />
		<tag k="ssr:stedsnr" v="510811" />
	</node>
	<node id="-805713" lat="71.0506916848" lon="28.2423771583">
		<tag k="name" v="Tverrvikraet" />
		<tag k="natural" v="hill" />
		<tag k="place" v="locality" />
		<tag k="ssr:stedsnr" v="510808" />
	</node>
	<node id="-805200" lat="70.6073277902" lon="27.5055328188">
		<tag k="name" v="Statsteian" />
		<tag k="natural" v="slope" />
		<tag k="place" v="locality" />
		<tag k="ssr:stedsnr" v="333256" />
	</node>
	<node id="-805199" lat="70.708375013" lon="28.0511743756">
		<tag k="name" v="Kråkberget" />
		<tag k="natural" v="hill" />
		<tag k="place" v="locality" />
		<tag k="ssr:stedsnr" v="333233" />
	</node>
	<node id="-805191" lat="71.0282166839" lon="27.9048494492">
		<tag k="name" v="Bjørkvikhøgda" />
		<tag k="natural" v="hill" />
		<tag k="place" v="locality" />
		<tag k="ssr:stedsnr" v="328966" />
	</node>
	<node id="-805601" lat="70.9922694553" lon="27.7396467006">
		<tag k="name" v="Sørfjorddalen" />
		<tag k="natural" v="valley" />
		<tag k="place" v="locality" />
		<tag k="ssr:stedsnr" v="444792" />
	</node>
	<node id="-805188" lat="71.0009916775" lon="27.8438105809">
		<tag k="name" v="Svarthollhøgda" />
		<tag k="natural" v="hill" />
		<tag k="place" v="locality" />
		<tag k="ssr:stedsnr" v="328949" />
	</node>
	<node id="-805515" lat="71.0291777878" lon="27.7943883587">
		<tag k="name" v="Strupen" />
		<tag k="natural" v="valley" />
		<tag k="place" v="locality" />
		<tag k="ssr:stedsnr" v="207003" />
	</node>
	<node id="-806208" lat="70.6295416816" lon="27.6695327934">
		<tag k="name" v="Kobbelvdalen" />
		<tag k="natural" v="valley" />
		<tag k="place" v="locality" />
		<tag k="ssr:stedsnr" v="941640" />
	</node>
	<node id="-806206" lat="70.6566583517" lon="27.7779660951">
		<tag k="name" v="Grønnhaugen - Sitno-oaivi" />
		<tag k="name:no" v="Grønnhaugen" />
		<tag k="name:se" v="Sitno-oaivi" />
		<tag k="natural" v="hill" />
		<tag k="place" v="locality" />
		<tag k="ssr:stedsnr" v="940235" />
	</node>
	<node id="-805429" lat="70.6658777956" lon="27.9190938452">
		<tag k="name" v="Øybakken" />
		<tag k="natural" v="slope" />
		<tag k="place" v="locality" />
		<tag k="ssr:stedsnr" v="141289" />
	</node>
	<node id="-805179" lat="70.7976139053" lon="28.1118910306">
		<tag k="name" v="Ytterhopshalsen" />
		<tag k="natural" v="slope" />
		<tag k="place" v="locality" />
		<tag k="ssr:stedsnr" v="328697" />
	</node>
	<node id="-806202" lat="71.0094111252" lon="27.8249605752">
		<tag k="name" v="St. Ditlef" />
		<tag k="natural" v="hill" />
		<tag k="place" v="locality" />
		<tag k="ssr:stedsnr" v="935987" />
	</node>
	<node id="-806199" lat="71.005241676" lon="27.8397800201">
		<tag k="name" v="Flutubakken" />
		<tag k="natural" v="slope" />
		<tag k="place" v="locality" />
		<tag k="ssr:stedsnr" v="935958" />
	</node>
	<node id="-806197" lat="71.0284222382" lon="28.1388466406">
		<tag k="name" v="Kobbvikhøgda" />
		<tag k="natural" v="hill" />
		<tag k="place" v="locality" />
		<tag k="ssr:stedsnr" v="935917" />
	</node>
	<node id="-806194" lat="71.0372750144" lon="27.7893772641">
		<tag k="name" v="Steinfjordaksla" />
		<tag k="place" v="locality" />
		<tag k="ssr:stedsnr" v="936004" />
	</node>
	<node id="-805681" lat="71.0696972349" lon="28.1288910833">
		<tag k="fixme" v="consider natural=peak for the most distinct mountains in the district" />
		<tag k="name" v="Steinvågaksla" />
		<tag k="natural" v="hill" />
		<tag k="place" v="locality" />
		<tag k="ssr:stedsnr" v="505432" />
	</node>
	<node id="-806191" lat="71.0477694592" lon="28.1884438487">
		<tag k="fixme" v="consider natural=peak for the most distinct mountains in the district" />
		<tag k="name" v="Tverrvikpallen" />
		<tag k="natural" v="hill" />
		<tag k="place" v="locality" />
		<tag k="ssr:stedsnr" v="935784" />
	</node>
	<node id="-805165" lat="70.972450017" lon="28.5225548446">
		<tag k="fixme" v="consider natural=peak for the most distinct mountains in the district" />
		<tag k="name" v="Russevikhompen" />
		<tag k="natural" v="hill" />
		<tag k="place" v="locality" />
		<tag k="ssr:stedsnr" v="323916" />
	</node>
	<node id="-806187" lat="70.807780572" lon="28.1646521331">
		<tag k="name" v="Trolldalen" />
		<tag k="natural" v="valley" />
		<tag k="place" v="locality" />
		<tag k="ssr:stedsnr" v="935706" />
	</node>
	<node id="-806186" lat="70.8035250121" lon="28.1396965906">
		<tag k="name" v="Torvdalen" />
		<tag k="natural" v="valley" />
		<tag k="place" v="locality" />
		<tag k="ssr:stedsnr" v="935705" />
	</node>
	<node id="-805673" lat="70.5150750154" lon="27.4609605751">
		<tag k="name" v="Árasanleahki" />
		<tag k="name:se" v="Árasanleahki" />
		<tag k="natural" v="valley" />
		<tag k="old_name:se" v="Arasanlækki" />
		<tag k="place" v="locality" />
		<tag k="ssr:stedsnr" v="505318" />
	</node>
	<node id="-805158" lat="70.8991166799" lon="27.7250661424">
		<tag k="fixme" v="consider natural=peak for the most distinct mountains in the district" />
		<tag k="name" v="Guvvačohkka" />
		<tag k="name:se" v="Guvvačohkka" />
		<tag k="natural" v="hill" />
		<tag k="old_name:se" v="Guvvačåkka" />
		<tag k="place" v="locality" />
		<tag k="ssr:stedsnr" v="323837" />
	</node>
	<node id="-806180" lat="71.0600083439" lon="27.7829106015">
		<tag k="fixme" v="consider natural=peak for the most distinct mountains in the district" />
		<tag k="name" v="Kuskjelltua" />
		<tag k="natural" v="hill" />
		<tag k="place" v="locality" />
		<tag k="ssr:stedsnr" v="935009" />
	</node>
	<node id="-805665" lat="70.6729750168" lon="27.8109744121">
		<tag k="name" v="Guoddevággi" />
		<tag k="name:se" v="Guoddevággi" />
		<tag k="natural" v="valley" />
		<tag k="place" v="locality" />
		<tag k="ssr:stedsnr" v="459425" />
	</node>
	<node id="-805690" lat="70.6377250114" lon="27.46343281">
		<tag k="fixme" v="consider natural=peak for the most distinct mountains in the district" />
		<tag k="name" v="Miehterášša" />
		<tag k="name:se" v="Miehterášša" />
		<tag k="natural" v="hill" />
		<tag k="old_name:se" v="Mietterašša" />
		<tag k="place" v="locality" />
		<tag k="ssr:stedsnr" v="505715" />
	</node>
	<node id="-805661" lat="70.629138907" lon="27.7208216732">
		<tag k="name" v="Bukkeberget" />
		<tag k="natural" v="hill" />
		<tag k="place" v="locality" />
		<tag k="ssr:stedsnr" v="455622" />
	</node>
	<node id="-805660" lat="70.6653416769" lon="27.7938910979">
		<tag k="name" v="Øverste Rundhaugen - Badje boarka oaivi" />
		<tag k="name:no" v="Øverste Rundhaugen" />
		<tag k="name:se" v="Badje boarka oaivi" />
		<tag k="natural" v="hill" />
		<tag k="place" v="locality" />
		<tag k="ssr:stedsnr" v="455221" />
	</node>
	<node id="-805147" lat="71.0138916817" lon="27.8571105861">
		<tag k="fixme" v="consider natural=peak for the most distinct mountains in the district" />
		<tag k="name" v="Middagstuva" />
		<tag k="natural" v="hill" />
		<tag k="ssr:stedsnr" v="323383" />
	</node>
	<node id="-805167" lat="70.9461666783" lon="28.4224493234">
		<tag k="fixme" v="consider natural=peak for the most distinct mountains in the district" />
		<tag k="name" v="Risdalsbruna" />
		<tag k="natural" v="hill" />
		<tag k="place" v="locality" />
		<tag k="ssr:stedsnr" v="323919" />
	</node>
	<node id="-805144" lat="70.6270777911" lon="28.0125827055">
		<tag k="fixme" v="consider natural=peak for the most distinct mountains in the district" />
		<tag k="name" v="Gistočohkka" />
		<tag k="name:se" v="Gistočohkka" />
		<tag k="natural" v="hill" />
		<tag k="old_name:se" v="Gistučåkka" />
		<tag k="place" v="locality" />
		<tag k="ssr:stedsnr" v="323270" />
	</node>
	<node id="-805655" lat="70.7175472391" lon="28.0704660428">
		<tag k="alt_name" v="Berget" />
		<tag k="fixme" v="multiple name tags, choose one and add the other to alt_name" />
		<tag k="name" v="Jensenberget;Berg" />
		<tag k="natural" v="hill" />
		<tag k="place" v="locality" />
		<tag k="ssr:stedsnr" v="451734" />
	</node>
	<node id="-806166" lat="70.6065277914" lon="27.5618466866">
		<tag k="name" v="Langfjorddalen" />
		<tag k="natural" v="valley" />
		<tag k="place" v="locality" />
		<tag k="ssr:stedsnr" v="930744" />
	</node>
	<node id="-805141" lat="70.6660638993" lon="27.8255799797">
		<tag k="name" v="Skálnjuovčča" />
		<tag k="name:se" v="Skálnjuovčča" />
		<tag k="natural" v="hill" />
		<tag k="place" v="locality" />
		<tag k="ssr:stedsnr" v="277430" />
	</node>
	<node id="-805140" lat="70.8045889014" lon="27.7370466863">
		<tag k="name" v="Pakkhusdalen" />
		<tag k="natural" v="valley" />
		<tag k="place" v="locality" />
		<tag k="ssr:stedsnr" v="274516" />
	</node>
	<node id="-805650" lat="71.0009250154" lon="27.8254883603">
		<tag k="name" v="Flutua" />
		<tag k="natural" v="hill" />
		<tag k="place" v="locality" />
		<tag k="ssr:stedsnr" v="450967" />
	</node>
	<node id="-806161" lat="71.0593000157" lon="28.0002244454">
		<tag k="name" v="Futelvtuva" />
		<tag k="natural" v="hill" />
		<tag k="place" v="locality" />
		<tag k="ssr:stedsnr" v="930431" />
	</node>
	<node id="-805250" lat="70.7936972378" lon="28.064179939">
		<tag k="name" v="Gamberget" />
		<tag k="natural" v="hill" />
		<tag k="place" v="locality" />
		<tag k="ssr:stedsnr" v="388669" />
	</node>
	<node id="-806154" lat="70.7357750137" lon="27.7887633381">
		<tag k="fixme" v="consider natural=peak for the most distinct mountains in the district" />
		<tag k="name" v="Skremselsfjellet" />
		<tag k="natural" v="hill" />
		<tag k="place" v="locality" />
		<tag k="ssr:stedsnr" v="930310" />
	</node>
	<node id="-805641" lat="71.0525611272" lon="28.1744688487">
		<tag k="name" v="Grytvasstrupen" />
		<tag k="natural" v="valley" />
		<tag k="place" v="locality" />
		<tag k="ssr:stedsnr" v="449769" />
	</node>
	<node id="-805638" lat="70.7992777913" lon="28.0404799485">
		<tag k="name" v="Hopsnesholla" />
		<tag k="place" v="locality" />
		<tag k="ssr:stedsnr" v="449710" />
	</node>
	<node id="-805637" lat="70.793900018" lon="28.1491771274">
		<tag k="name" v="Bjørnhaugen" />
		<tag k="natural" v="hill" />
		<tag k="place" v="locality" />
		<tag k="ssr:stedsnr" v="449635" />
	</node>
	<node id="-806147" lat="70.5764389054" lon="27.8159299631">
		<tag k="alt_name:se" v="Anutvaggi" />
		<tag k="name" v="Ánotvággi" />
		<tag k="name:se" v="Ánotvággi" />
		<tag k="natural" v="valley" />
		<tag k="place" v="locality" />
		<tag k="ssr:stedsnr" v="930267" />
	</node>
	<node id="-805633" lat="70.9899750115" lon="28.4987020836">
		<tag k="name" v="Sumpan" />
		<tag k="place" v="locality" />
		<tag k="ssr:stedsnr" v="445918" />
	</node>
	<node id="-806144" lat="70.6668833461" lon="27.8147383067">
		<tag k="name" v="Nedre Rundhaugen - Vuolle boarka oaivi" />
		<tag k="name:no" v="Nedre Rundhaugen" />
		<tag k="name:se" v="Vuolle boarka oaivi" />
		<tag k="natural" v="hill" />
		<tag k="place" v="locality" />
		<tag k="ssr:stedsnr" v="879242" />
	</node>
	<node id="-805382" lat="70.8067194633" lon="28.0705354978">
		<tag k="name" v="Lillelvdalen" />
		<tag k="natural" v="valley" />
		<tag k="place" v="locality" />
		<tag k="ssr:stedsnr" v="85644" />
	</node>
	<node id="-805589" lat="71.0656611296" lon="28.240185494">
		<tag k="name" v="Varen" />
		<tag k="natural" v="hill" />
		<tag k="place" v="locality" />
		<tag k="ssr:stedsnr" v="267782" />
	</node>
	<node id="-806136" lat="71.0333472333" lon="28.0917660931">
		<tag k="name" v="Sandfjordskarshøgda" />
		<tag k="natural" v="hill" />
		<tag k="place" v="locality" />
		<tag k="ssr:stedsnr" v="875882" />
	</node>
	<node id="-806003" lat="70.8210305673" lon="27.9906382813">
		<tag k="name" v="Maritbakken" />
		<tag k="natural" v="slope" />
		<tag k="place" v="locality" />
		<tag k="ssr:stedsnr" v="760839" />
	</node>
	<node id="-806134" lat="71.0212111236" lon="27.7742189221">
		<tag k="fixme" v="consider natural=peak for the most distinct mountains in the district" />
		<tag k="name" v="Sørfjellet" />
		<tag k="natural" v="hill" />
		<tag k="place" v="locality" />
		<tag k="ssr:stedsnr" v="875003" />
	</node>
	<node id="-805417" lat="70.9546750145" lon="28.1707327153">
		<tag k="fixme" v="consider natural=peak for the most distinct mountains in the district" />
		<tag k="name" v="Prestbakktuva" />
		<tag k="natural" v="hill" />
		<tag k="place" v="locality" />
		<tag k="ssr:stedsnr" v="140835" />
	</node>
	<node id="-806129" lat="71.0396611218" lon="28.1698355075">
		<tag k="name" v="Hestevassbakkan" />
		<tag k="natural" v="slope" />
		<tag k="place" v="locality" />
		<tag k="ssr:stedsnr" v="874842" />
	</node>
	<node id="-806128" lat="71.0590833449" lon="28.1828966338">
		<tag k="name" v="Astribakken" />
		<tag k="natural" v="slope" />
		<tag k="place" v="locality" />
		<tag k="ssr:stedsnr" v="874819" />
	</node>
	<node id="-806127" lat="70.8152555678" lon="28.0107743887">
		<tag k="fixme" v="consider natural=peak for the most distinct mountains in the district" />
		<tag k="name" v="Sukkertoppen" />
		<tag k="natural" v="hill" />
		<tag k="ssr:stedsnr" v="874754" />
	</node>
	<node id="-806124" lat="71.0388889039" lon="27.8613300147">
		<tag k="name" v="Mehamnhaugen" />
		<tag k="natural" v="hill" />
		<tag k="place" v="locality" />
		<tag k="ssr:stedsnr" v="874122" />
	</node>
	<node id="-805611" lat="70.69738057" lon="27.7171438825">
		<tag k="fixme" v="consider natural=peak for the most distinct mountains in the district" />
		<tag k="name" v="Slettfjellet" />
		<tag k="natural" v="hill" />
		<tag k="place" v="locality" />
		<tag k="ssr:stedsnr" v="445308" />
	</node>
	<node id="-806121" lat="71.0443166802" lon="27.8061772669">
		<tag k="name" v="Steinfjordaksla" />
		<tag k="place" v="locality" />
		<tag k="ssr:stedsnr" v="874025" />
	</node>
	<node id="-806120" lat="71.014208346" lon="27.7747133729">
		<tag k="name" v="Metudalen" />
		<tag k="natural" v="valley" />
		<tag k="place" v="locality" />
		<tag k="ssr:stedsnr" v="874016" />
	</node>
	<node id="-806119" lat="71.0485694571" lon="27.7787105989">
		<tag k="name" v="Kuskjellhamnhøgda" />
		<tag k="natural" v="hill" />
		<tag k="place" v="locality" />
		<tag k="ssr:stedsnr" v="874013" />
	</node>
	<node id="-805606" lat="70.6404694622" lon="28.0057299172">
		<tag k="name" v="Kistedalen - Gistovággi" />
		<tag k="name:no" v="Kistedalen" />
		<tag k="name:se" v="Gistovággi" />
		<tag k="natural" v="valley" />
		<tag k="old_name:se" v="Gistuvaggi" />
		<tag k="place" v="locality" />
		<tag k="ssr:stedsnr" v="445280" />
	</node>
	<node id="-805605" lat="70.6408583477" lon="28.131177118">
		<tag k="fixme" v="consider natural=peak for the most distinct mountains in the district" />
		<tag k="name" v="Bearalgáisá" />
		<tag k="name:se" v="Bearalgáisá" />
		<tag k="natural" v="hill" />
		<tag k="old_name:se" v="Bæralgaisa" />
		<tag k="place" v="locality" />
		<tag k="ssr:stedsnr" v="445270" />
	</node>
	<node id="-806116" lat="71.040558347" lon="28.1209688696">
		<tag k="name" v="Finnan" />
		<tag k="natural" v="hill" />
		<tag k="place" v="locality" />
		<tag k="ssr:stedsnr" v="874908" />
	</node>
	<node id="-805602" lat="70.968711123" lon="28.1457021776">
		<tag k="name" v="Bastiandalen" />
		<tag k="natural" v="valley" />
		<tag k="place" v="locality" />
		<tag k="ssr:stedsnr" v="444814" />
	</node>
	<node id="-806113" lat="70.9314194572" lon="28.2484548997">
		<tag k="fixme" v="consider natural=peak for the most distinct mountains in the district" />
		<tag k="name" v="Koifjordfjellet - Vuokkarášša" />
		<tag k="name:no" v="Koifjordfjellet" />
		<tag k="name:se" v="Vuokkarášša" />
		<tag k="natural" v="hill" />
		<tag k="old_name:se" v="Vuoggarašša" />
		<tag k="place" v="locality" />
		<tag k="ssr:stedsnr" v="870918" />
	</node>
	<node id="-806112" lat="70.9711277979" lon="28.4442298728">
		<tag k="fixme" v="consider natural=peak for the most distinct mountains in the district" />
		<tag k="name" v="Lauparen" />
		<tag k="natural" v="hill" />
		<tag k="place" v="locality" />
		<tag k="ssr:stedsnr" v="870908" />
	</node>
	<node id="-805328" lat="70.8097111291" lon="28.1005271625">
		<tag k="name" v="Sennavannsdalen" />
		<tag k="natural" v="valley" />
		<tag k="place" v="locality" />
		<tag k="ssr:stedsnr" v="25723" />
	</node>
	<node id="-805595" lat="71.0482361231" lon="27.9866466719">
		<tag k="name" v="Skjettenfjordtua" />
		<tag k="natural" v="hill" />
		<tag k="place" v="locality" />
		<tag k="ssr:stedsnr" v="268947" />
	</node>
	<node id="-805594" lat="71.042044458" lon="27.8488967014">
		<tag k="name" v="Åshaugen" />
		<tag k="natural" v="hill" />
		<tag k="place" v="locality" />
		<tag k="ssr:stedsnr" v="268042" />
	</node>
	<node id="-805327" lat="70.8176583512" lon="28.092896598">
		<tag k="name" v="Stakselvdalen" />
		<tag k="natural" v="valley" />
		<tag k="place" v="locality" />
		<tag k="ssr:stedsnr" v="25720" />
	</node>
	<node id="-805592" lat="71.0130666746" lon="27.8166661492">
		<tag k="name" v="Rundhaugaksla" />
		<tag k="place" v="locality" />
		<tag k="ssr:stedsnr" v="268015" />
	</node>
	<node id="-806101" lat="70.6933694582" lon="28.2028409994">
		<tag k="name" v="Indre Liver - Siskkit Liivvar" />
		<tag k="name:no" v="Indre Liver" />
		<tag k="name:se" v="Siskkit Liivvar" />
		<tag k="natural" v="valley" />
		<tag k="old_name:se" v="Liivar, siskit" />
		<tag k="place" v="locality" />
		<tag k="ssr:stedsnr" v="870312" />
	</node>
	<node id="-806100" lat="70.688952797" lon="28.179093768">
		<tag k="name" v="Heandaratvággi" />
		<tag k="name:se" v="Heandaratvággi" />
		<tag k="natural" v="valley" />
		<tag k="old_name:se" v="Hændaratvaggi" />
		<tag k="place" v="locality" />
		<tag k="ssr:stedsnr" v="870314" />
	</node>
	<node id="-805585" lat="70.8050055747" lon="28.0854966013">
		<tag k="name" v="Torvberget" />
		<tag k="natural" v="hill" />
		<tag k="place" v="locality" />
		<tag k="ssr:stedsnr" v="267670" />
	</node>
	<node id="-805583" lat="70.8578972405" lon="28.2742243529">
		<tag k="fixme" v="consider natural=peak for the most distinct mountains in the district" />
		<tag k="name" v="Skarfjordtuva" />
		<tag k="natural" v="hill" />
		<tag k="place" v="locality" />
		<tag k="ssr:stedsnr" v="263933" />
	</node>
	<node id="-805244" lat="70.79679446" lon="28.2406298842">
		<tag k="fixme" v="consider natural=peak for the most distinct mountains in the district" />
		<tag k="name" v="Segelnesfjellet - Liehppegeahči" />
		<tag k="name:no" v="Segelnesfjellet" />
		<tag k="name:se" v="Liehppegeahči" />
		<tag k="natural" v="hill" />
		<tag k="old_name:se" v="Lieppegæčči" />
		<tag k="place" v="locality" />
		<tag k="ssr:stedsnr" v="384929" />
	</node>
	<node id="-805581" lat="70.939233353" lon="28.5151548468">
		<tag k="fixme" v="consider natural=peak for the most distinct mountains in the district" />
		<tag k="name" v="Stauran - Loddebávttit" />
		<tag k="name:no" v="Stauran" />
		<tag k="name:se" v="Loddebávttit" />
		<tag k="natural" v="hill" />
		<tag k="old_name:se" v="Låddebavtit" />
		<tag k="place" v="locality" />
		<tag k="ssr:stedsnr" v="263927" />
	</node>
	<node id="-805295" lat="71.0145500112" lon="27.8957661119">
		<tag k="name" v="Olufaksla" />
		<tag k="place" v="locality" />
		<tag k="ssr:stedsnr" v="20373" />
	</node>
	<node id="-805577" lat="70.9836222358" lon="28.3245049168">
		<tag k="name" v="Trolldalen" />
		<tag k="natural" v="valley" />
		<tag k="place" v="locality" />
		<tag k="ssr:stedsnr" v="263903" />
	</node>
	<node id="-806087" lat="70.5210194636" lon="27.6740438776">
		<tag k="fixme" v="consider natural=peak for the most distinct mountains in the district" />
		<tag k="name" v="Beatnatgáisá" />
		<tag k="name:se" v="Beatnatgáisá" />
		<tag k="natural" v="hill" />
		<tag k="old_name:se" v="Bædnatgaisa" />
		<tag k="place" v="locality" />
		<tag k="ssr:stedsnr" v="869410" />
	</node>
	<node id="-806086" lat="70.5071889058" lon="27.48493837">
		<tag k="name" v="Telegrafsletta" />
		<tag k="place" v="locality" />
		<tag k="ssr:stedsnr" v="869347" />
	</node>
	<node id="-805572" lat="70.7969166873" lon="28.1998104574">
		<tag k="name" v="Kjeskelvikdalen" />
		<tag k="natural" v="valley" />
		<tag k="place" v="locality" />
		<tag k="ssr:stedsnr" v="263885" />
	</node>
	<node id="-806082" lat="70.667255569" lon="27.7939827558">
		<tag k="name" v="Stuoravággi" />
		<tag k="name:se" v="Stuoravággi" />
		<tag k="natural" v="valley" />
		<tag k="place" v="locality" />
		<tag k="ssr:stedsnr" v="823451" />
	</node>
	<node id="-806081" lat="70.8169500142" lon="27.9496910653">
		<tag k="fixme" v="consider natural=peak for the most distinct mountains in the district" />
		<tag k="name" v="Rustadheia" />
		<tag k="natural" v="hill" />
		<tag k="place" v="locality" />
		<tag k="ssr:stedsnr" v="821880" />
	</node>
	<node id="-805664" lat="70.8162805698" lon="27.9680938651">
		<tag k="name" v="Knutnesbakkan" />
		<tag k="natural" v="slope" />
		<tag k="place" v="locality" />
		<tag k="ssr:stedsnr" v="457859" />
	</node>
	<node id="-806074" lat="70.7172416802" lon="28.0670799237">
		<tag k="name" v="Jensenlia" />
		<tag k="natural" v="slope" />
		<tag k="place" v="locality" />
		<tag k="ssr:stedsnr" v="819222" />
	</node>
	<node id="-805561" lat="70.6781527982" lon="28.1426382191">
		<tag k="fixme" v="consider natural=peak for the most distinct mountains in the district" />
		<tag k="name" v="Stuorra Uffir" />
		<tag k="name:se" v="Stuorra Uffir" />
		<tag k="natural" v="hill" />
		<tag k="old_name:se" v="Uffir, stuorra" />
		<tag k="place" v="locality" />
		<tag k="ssr:stedsnr" v="263324" />
	</node>
	<node id="-805560" lat="70.679741678" lon="27.9062077334">
		<tag k="name" v="Skálnjuovčča" />
		<tag k="name:se" v="Skálnjuovčča" />
		<tag k="natural" v="valley" />
		<tag k="old_name:se" v="Skalnjuovča" />
		<tag k="place" v="locality" />
		<tag k="ssr:stedsnr" v="263322" />
	</node>
	<node id="-806069" lat="71.0201944526" lon="27.8920439036">
		<tag k="name" v="Storvassdalen" />
		<tag k="natural" v="valley" />
		<tag k="place" v="locality" />
		<tag k="ssr:stedsnr" v="814975" />
	</node>
	<node id="-805556" lat="70.4980416855" lon="27.4326355957">
		<tag k="fixme" v="consider natural=peak for the most distinct mountains in the district" />
		<tag k="name" v="Árasangáisá" />
		<tag k="name:se" v="Árasangáisá" />
		<tag k="natural" v="hill" />
		<tag k="old_name:se" v="Arasangaisa" />
		<tag k="place" v="locality" />
		<tag k="ssr:stedsnr" v="263259" />
	</node>
	<node id="-806067" lat="71.026802788" lon="28.1922854991">
		<tag k="name" v="Bangsundhøgda" />
		<tag k="natural" v="hill" />
		<tag k="place" v="locality" />
		<tag k="ssr:stedsnr" v="814852" />
	</node>
	<node id="-806066" lat="71.0388333486" lon="28.2058743953">
		<tag k="fixme" v="consider natural=peak for the most distinct mountains in the district" />
		<tag k="name" v="Gunnarsfjell" />
		<tag k="natural" v="hill" />
		<tag k="place" v="locality" />
		<tag k="ssr:stedsnr" v="814844" />
	</node>
	<node id="-806065" lat="71.0782805739" lon="28.1982299482">
		<tag k="name" v="Vesterhaugen" />
		<tag k="natural" v="hill" />
		<tag k="place" v="locality" />
		<tag k="ssr:stedsnr" v="814841" />
	</node>
	<node id="-806062" lat="71.0773583472" lon="28.2020549569">
		<tag k="name" v="Kråketua" />
		<tag k="natural" v="hill" />
		<tag k="place" v="locality" />
		<tag k="ssr:stedsnr" v="814829" />
	</node>
	<node id="-806061" lat="70.8268805689" lon="28.0117466139">
		<tag k="name" v="Urpersastrupem" />
		<tag k="natural" v="valley" />
		<tag k="place" v="locality" />
		<tag k="ssr:stedsnr" v="814764" />
	</node>
	<node id="-805649" lat="71.0013083456" lon="27.8319605761">
		<tag k="name" v="Flutudalen" />
		<tag k="natural" v="valley" />
		<tag k="place" v="locality" />
		<tag k="ssr:stedsnr" v="450965" />
	</node>
	<node id="-805542" lat="71.0464000085" lon="28.1869632886">
		<tag k="fixme" v="consider natural=peak for the most distinct mountains in the district" />
		<tag k="name" v="Einerfjellet" />
		<tag k="natural" v="hill" />
		<tag k="place" v="locality" />
		<tag k="ssr:stedsnr" v="262441" />
	</node>
	<node id="-805540" lat="70.7318333494" lon="27.6619300111">
		<tag k="name" v="Caganávži" />
		<tag k="name:se" v="Caganávži" />
		<tag k="natural" v="valley" />
		<tag k="old_name:se" v="Caganavži" />
		<tag k="place" v="locality" />
		<tag k="ssr:stedsnr" v="262287" />
	</node>
	<node id="-805538" lat="71.0091083455" lon="27.8458439205">
		<tag k="name" v="Svartholldalen" />
		<tag k="natural" v="valley" />
		<tag k="place" v="locality" />
		<tag k="ssr:stedsnr" v="268990" />
	</node>
	<node id="-806049" lat="71.0553861276" lon="28.2373021775">
		<tag k="name" v="Ramberget" />
		<tag k="natural" v="hill" />
		<tag k="place" v="locality" />
		<tag k="ssr:stedsnr" v="813779" />
	</node>
	<node id="-806045" lat="70.797877794" lon="28.1252493587">
		<tag k="name" v="Grønnranda" />
		<tag k="natural" v="hill" />
		<tag k="place" v="locality" />
		<tag k="ssr:stedsnr" v="813696" />
	</node>
	<node id="-806043" lat="70.6156305759" lon="27.8054438568">
		<tag k="fixme" v="consider natural=peak for the most distinct mountains in the district" />
		<tag k="name" v="Holmsvikfjellet - Nurki" />
		<tag k="name:no" v="Holmsvikfjellet" />
		<tag k="name:se" v="Nurki" />
		<tag k="natural" v="hill" />
		<tag k="place" v="locality" />
		<tag k="ssr:stedsnr" v="813209" />
	</node>
	<node id="-805475" lat="70.929169456" lon="28.176177141">
		<tag k="fixme" v="consider natural=peak for the most distinct mountains in the district" />
		<tag k="name" v="Sandfjellet" />
		<tag k="natural" v="hill" />
		<tag k="place" v="locality" />
		<tag k="ssr:stedsnr" v="163493" />
	</node>
	<node id="-805316" lat="70.7605750135" lon="27.8571494166">
		<tag k="fixme" v="consider natural=peak for the most distinct mountains in the district" />
		<tag k="name" v="Sørtind" />
		<tag k="natural" v="hill" />
		<tag k="place" v="locality" />
		<tag k="ssr:stedsnr" v="20910" />
	</node>
	<node id="-806038" lat="70.7988944626" lon="28.1650687909">
		<tag k="alt_name" v="Hamnesfjellet" />
		<tag k="fixme" v="consider natural=peak for the most distinct mountains in the district" />
		<tag k="name" v="Hamnnesfjellet" />
		<tag k="natural" v="hill" />
		<tag k="place" v="locality" />
		<tag k="ssr:stedsnr" v="809893" />
	</node>
	<node id="-806035" lat="70.8279333474" lon="28.1720326867">
		<tag k="fixme" v="consider natural=peak for the most distinct mountains in the district" />
		<tag k="name" v="Vuohpperášša" />
		<tag k="name:se" v="Vuohpperášša" />
		<tag k="natural" v="hill" />
		<tag k="old_name:se" v="Vuopperašša" />
		<tag k="place" v="locality" />
		<tag k="ssr:stedsnr" v="809868" />
	</node>
	<node id="-806034" lat="70.8826333513" lon="28.1461382649">
		<tag k="fixme" v="consider natural=peak for the most distinct mountains in the district" />
		<tag k="name" v="Sandfjellet - Rovrorášša" />
		<tag k="name:no" v="Sandfjellet" />
		<tag k="name:se" v="Rovrorášša" />
		<tag k="natural" v="hill" />
		<tag k="old_name:se" v="Råvruašša" />
		<tag k="place" v="locality" />
		<tag k="ssr:stedsnr" v="809853" />
	</node>
	<node id="-806033" lat="70.8551166854" lon="28.0910160483">
		<tag k="fixme" v="consider natural=peak for the most distinct mountains in the district" />
		<tag k="name" v="Storvarden" />
		<tag k="natural" v="hill" />
		<tag k="place" v="locality" />
		<tag k="ssr:stedsnr" v="809844" />
	</node>
	<node id="-806032" lat="70.8836250118" lon="27.969846648">
		<tag k="fixme" v="consider natural=peak for the most distinct mountains in the district" />
		<tag k="name" v="Kvitstein - Vilgesgeađgi" />
		<tag k="name:no" v="Kvitstein" />
		<tag k="name:se" v="Vilgesgeađgi" />
		<tag k="natural" v="hill" />
		<tag k="old_name:se" v="Vilgesgæđgi" />
		<tag k="place" v="locality" />
		<tag k="ssr:stedsnr" v="809841" />
	</node>
	<node id="-805519" lat="71.0689250141" lon="28.1888910793">
		<tag k="name" v="Gamvikvasshøgda" />
		<tag k="natural" v="hill" />
		<tag k="place" v="locality" />
		<tag k="ssr:stedsnr" v="207824" />
	</node>
	<node id="-806027" lat="71.0422277946" lon="28.232454934">
		<tag k="name" v="Brattbakken" />
		<tag k="natural" v="slope" />
		<tag k="place" v="locality" />
		<tag k="ssr:stedsnr" v="809449" />
	</node>
	<node id="-806024" lat="71.0067250091" lon="27.8534300196">
		<tag k="name" v="Svartholet" />
		<tag k="natural" v="valley" />
		<tag k="place" v="locality" />
		<tag k="ssr:stedsnr" v="809407" />
	</node>
	<node id="-806021" lat="70.723241681" lon="28.0499716021">
		<tag k="fixme" v="consider natural=peak for the most distinct mountains in the district" />
		<tag k="name" v="Ørnfjellet" />
		<tag k="natural" v="hill" />
		<tag k="place" v="locality" />
		<tag k="ssr:stedsnr" v="809325" />
	</node>
	<node id="-805508" lat="70.8092888989" lon="28.0380605097">
		<tag k="alt_name" v="Per, store" />
		<tag k="fixme" v="consider natural=peak for the most distinct mountains in the district" />
		<tag k="name" v="Store-Per" />
		<tag k="natural" v="hill" />
		<tag k="place" v="locality" />
		<tag k="ssr:stedsnr" v="202886" />
	</node>
	<node id="-805398" lat="70.8275389095" lon="28.2579271071">
		<tag k="name" v="Dalen" />
		<tag k="natural" v="valley" />
		<tag k="place" v="locality" />
		<tag k="ssr:stedsnr" v="87361" />
	</node>
	<node id="-805506" lat="70.6213750158" lon="27.5699994548">
		<tag k="name" v="Himmelberget" />
		<tag k="natural" v="hill" />
		<tag k="place" v="locality" />
		<tag k="ssr:stedsnr" v="202725" />
	</node>
	<node id="-805505" lat="71.1098389008" lon="27.6744661748">
		<tag k="fixme" v="consider natural=peak for the most distinct mountains in the district" />
		<tag k="name" v="Reipnakktinden" />
		<tag k="natural" v="hill" />
		<tag k="ssr:stedsnr" v="202497" />
	</node>
	<node id="-805311" lat="70.8071000182" lon="27.9458605196">
		<tag k="name" v="Stappan" />
		<tag k="natural" v="hill" />
		<tag k="place" v="locality" />
		<tag k="ssr:stedsnr" v="20878" />
	</node>
	<node id="-805491" lat="71.0525333452" lon="28.1954854963">
		<tag k="alt_name" v="Holmfjell" />
		<tag k="name" v="Holmevasshøgda" />
		<tag k="natural" v="hill" />
		<tag k="place" v="locality" />
		<tag k="ssr:stedsnr" v="202415" />
	</node>
	<node id="-805488" lat="70.5300250206" lon="27.6591355364">
		<tag k="name" v="Bohkošleahki" />
		<tag k="name:se" v="Bohkošleahki" />
		<tag k="natural" v="valley" />
		<tag k="old_name:se" v="Båkkušlækki" />
		<tag k="place" v="locality" />
		<tag k="ssr:stedsnr" v="202377" />
	</node>
	<node id="-805487" lat="70.7093361256" lon="28.2432743063">
		<tag k="name" v="Ytre Liver - Olggut Liivvar" />
		<tag k="name:no" v="Ytre Liver" />
		<tag k="name:se" v="Olggut Liivvar" />
		<tag k="natural" v="valley" />
		<tag k="old_name:se" v="Liivar, ålgot" />
		<tag k="place" v="locality" />
		<tag k="ssr:stedsnr" v="202356" />
	</node>
	<node id="-805996" lat="71.0187111234" lon="27.835205027">
		<tag k="name" v="Øverdalsraet" />
		<tag k="natural" v="hill" />
		<tag k="place" v="locality" />
		<tag k="ssr:stedsnr" v="753980" />
	</node>
	<node id="-805995" lat="71.026611127" lon="27.9701300106">
		<tag k="fixme" v="consider natural=peak for the most distinct mountains in the district" />
		<tag k="name" v="Futelvtoppan" />
		<tag k="natural" v="hill" />
		<tag k="ssr:stedsnr" v="753959" />
	</node>
	<node id="-805482" lat="70.6831972376" lon="27.8586994009">
		<tag k="name" v="Davvevággi" />
		<tag k="name:se" v="Davvevággi" />
		<tag k="natural" v="valley" />
		<tag k="old_name:se" v="Davvevaggi" />
		<tag k="place" v="locality" />
		<tag k="ssr:stedsnr" v="202288" />
	</node>
	<node id="-805992" lat="71.03965279" lon="28.0205522042">
		<tag k="name" v="Rypetoppan" />
		<tag k="natural" v="hill" />
		<tag k="place" v="locality" />
		<tag k="ssr:stedsnr" v="753922" />
	</node>
	<node id="-805991" lat="71.0401111234" lon="27.9937299835">
		<tag k="name" v="Futelvhøgda" />
		<tag k="natural" v="hill" />
		<tag k="place" v="locality" />
		<tag k="ssr:stedsnr" v="753920" />
	</node>
	<node id="-805411" lat="71.0868889014" lon="28.0536105571">
		<tag k="name" v="Bispen" />
		<tag k="natural" v="hill" />
		<tag k="place" v="locality" />
		<tag k="ssr:stedsnr" v="140453" />
	</node>
	<node id="-805137" lat="70.7110722408" lon="28.079257706">
		<tag k="name" v="Stoffari" />
		<tag k="natural" v="hill" />
		<tag k="place" v="locality" />
		<tag k="ssr:stedsnr" v="273219" />
	</node>
	<node id="-805987" lat="71.0755166831" lon="28.2150605164">
		<tag k="name" v="Austerhaugen" />
		<tag k="natural" v="hill" />
		<tag k="place" v="locality" />
		<tag k="ssr:stedsnr" v="753808" />
	</node>
	<node id="-805473" lat="70.8197472381" lon="27.9923466213">
		<tag k="fixme" v="consider natural=peak for the most distinct mountains in the district" />
		<tag k="name" v="Ørntind" />
		<tag k="natural" v="hill" />
		<tag k="ssr:stedsnr" v="153869" />
	</node>
	<node id="-805983" lat="70.8109527893" lon="28.1137132555">
		<tag k="fixme" v="consider natural=peak for the most distinct mountains in the district" />
		<tag k="name" v="Sukkertoppen" />
		<tag k="natural" v="hill" />
		<tag k="place" v="locality" />
		<tag k="ssr:stedsnr" v="753683" />
	</node>
	<node id="-805470" lat="70.7142277973" lon="28.0627688234">
		<tag k="name" v="Skoahppa" />
		<tag k="name:se" v="Skoahppa" />
		<tag k="place" v="locality" />
		<tag k="ssr:stedsnr" v="151224" />
	</node>
	<node id="-805981" lat="70.7949444583" lon="28.1087493663">
		<tag k="name" v="Ramnbergan" />
		<tag k="natural" v="hill" />
		<tag k="place" v="locality" />
		<tag k="ssr:stedsnr" v="753663" />
	</node>
	<node id="-805468" lat="70.7410000131" lon="27.9965410559">
		<tag k="name" v="Litle Skogfjordbotn" />
		<tag k="natural" v="valley" />
		<tag k="place" v="locality" />
		<tag k="ssr:stedsnr" v="147672" />
	</node>
	<node id="-805978" lat="71.0236361264" lon="27.8719494756">
		<tag k="name" v="Vassdalsryggen" />
		<tag k="natural" v="ridge" />
		<tag k="place" v="locality" />
		<tag k="ssr:stedsnr" v="753086" />
	</node>
	<node id="-805277" lat="70.7994500128" lon="27.8037438968">
		<tag k="name" v="Rislia" />
		<tag k="natural" v="slope" />
		<tag k="place" v="locality" />
		<tag k="ssr:stedsnr" v="396832" />
	</node>
	<node id="-805462" lat="71.0307916761" lon="27.8763439163">
		<tag k="name" v="Lillevassdalen" />
		<tag k="natural" v="valley" />
		<tag k="place" v="locality" />
		<tag k="ssr:stedsnr" v="146989" />
	</node>
	<node id="-805972" lat="70.9781722347" lon="28.4181659805">
		<tag k="fixme" v="consider natural=peak for the most distinct mountains in the district" />
		<tag k="name" v="Tverrfjellet" />
		<tag k="natural" v="hill" />
		<tag k="place" v="locality" />
		<tag k="ssr:stedsnr" v="748924" />
	</node>
	<node id="-805459" lat="71.0448361243" lon="28.1596466342">
		<tag k="fixme" v="consider natural=peak for the most distinct mountains in the district" />
		<tag k="name" v="Einefjell" />
		<tag k="natural" v="hill" />
		<tag k="place" v="locality" />
		<tag k="ssr:stedsnr" v="146915" />
	</node>
	<node id="-805458" lat="71.0285055634" lon="28.1233049717">
		<tag k="name" v="Gunnarsfjordstrupen" />
		<tag k="natural" v="valley" />
		<tag k="place" v="locality" />
		<tag k="ssr:stedsnr" v="146897" />
	</node>
	<node id="-805969" lat="70.9948055728" lon="28.324488235">
		<tag k="name" v="Teisteberghaugen" />
		<tag k="natural" v="hill" />
		<tag k="place" v="locality" />
		<tag k="ssr:stedsnr" v="748910" />
	</node>
	<node id="-805968" lat="70.7783500173" lon="27.8186105448">
		<tag k="alt_name" v="Skarvberget" />
		<tag k="name" v="Bergan" />
		<tag k="natural" v="hill" />
		<tag k="place" v="locality" />
		<tag k="ssr:stedsnr" v="748906" />
	</node>
	<node id="-805967" lat="70.7608500133" lon="27.758610558">
		<tag k="name" v="Tverrelvberget" />
		<tag k="natural" v="hill" />
		<tag k="place" v="locality" />
		<tag k="ssr:stedsnr" v="748902" />
	</node>
	<node id="-805966" lat="70.8080389037" lon="28.1420799143">
		<tag k="fixme" v="consider natural=peak for the most distinct mountains in the district" />
		<tag k="name" v="Kjosfjellet" />
		<tag k="natural" v="hill" />
		<tag k="place" v="locality" />
		<tag k="ssr:stedsnr" v="748885" />
	</node>
	<node id="-805451" lat="71.0720833464" lon="28.1704188529">
		<tag k="name" v="Steinrabban" />
		<tag k="natural" v="hill" />
		<tag k="place" v="locality" />
		<tag k="ssr:stedsnr" v="146798" />
	</node>
	<node id="-805304" lat="71.111250008" lon="27.7341717154">
		<tag k="fixme" v="consider natural=peak for the most distinct mountains in the district" />
		<tag k="name" v="Magkeilhetta" />
		<tag k="natural" v="hill" />
		<tag k="ssr:stedsnr" v="20440" />
	</node>
	<node id="-805448" lat="71.0276083467" lon="27.8414577939">
		<tag k="name" v="Leiknesbakken" />
		<tag k="natural" v="slope" />
		<tag k="place" v="locality" />
		<tag k="ssr:stedsnr" v="146096" />
	</node>
	<node id="-805444" lat="70.9107055754" lon="28.4529659659">
		<tag k="name" v="Finnkongkeila" />
		<tag k="natural" v="valley" />
		<tag k="place" v="locality" />
		<tag k="ssr:stedsnr" v="141911" />
	</node>
	<node id="-805443" lat="70.8168333449" lon="27.980557742">
		<tag k="name" v="Vassberget" />
		<tag k="natural" v="hill" />
		<tag k="place" v="locality" />
		<tag k="ssr:stedsnr" v="141845" />
	</node>
	<node id="-805953" lat="71.0460833423" lon="28.1161855201">
		<tag k="fixme" v="consider natural=peak for the most distinct mountains in the district" />
		<tag k="name" v="Trollhetta" />
		<tag k="natural" v="hill" />
		<tag k="place" v="locality" />
		<tag k="ssr:stedsnr" v="748439" />
	</node>
	<node id="-805440" lat="70.9009333443" lon="27.9532049757">
		<tag k="fixme" v="consider natural=peak for the most distinct mountains in the district" />
		<tag k="name" v="Vuoidul" />
		<tag k="name:se" v="Vuoidul" />
		<tag k="natural" v="hill" />
		<tag k="old_name:se" v="Vuoidol" />
		<tag k="place" v="locality" />
		<tag k="ssr:stedsnr" v="141820" />
	</node>
	<node id="-805437" lat="70.965041677" lon="28.4593104296">
		<tag k="fixme" v="consider natural=peak for the most distinct mountains in the district" />
		<tag k="name" v="Anderfjellet" />
		<tag k="natural" v="hill" />
		<tag k="place" v="locality" />
		<tag k="ssr:stedsnr" v="141894" />
	</node>
	<node id="-805642" lat="71.0549805704" lon="28.1970660547">
		<tag k="name" v="Holmvasshøgda" />
		<tag k="natural" v="hill" />
		<tag k="place" v="locality" />
		<tag k="ssr:stedsnr" v="449770" />
	</node>
	<node id="-805946" lat="71.0562000168" lon="28.171988291">
		<tag k="name" v="Grytvasshøgda" />
		<tag k="natural" v="hill" />
		<tag k="place" v="locality" />
		<tag k="ssr:stedsnr" v="748402" />
	</node>
	<node id="-805215" lat="70.5450666856" lon="27.4999161427">
		<tag k="fixme" v="consider natural=peak for the most distinct mountains in the district" />
		<tag k="name" v="Digermulfjellet" />
		<tag k="natural" v="hill" />
		<tag k="place" v="locality" />
		<tag k="ssr:stedsnr" v="383747" />
	</node>
	<node id="-805256" lat="71.0578722306" lon="27.7862494819">
		<tag k="name" v="Smørbringaksla" />
		<tag k="place" v="locality" />
		<tag k="ssr:stedsnr" v="389019" />
	</node>
	<node id="-805942" lat="70.6534555673" lon="27.725066093">
		<tag k="fixme" v="consider natural=peak for the most distinct mountains in the district" />
		<tag k="name" v="Sukkertoppen" />
		<tag k="natural" v="hill" />
		<tag k="place" v="locality" />
		<tag k="ssr:stedsnr" v="748293" />
	</node>
	<node id="-805941" lat="70.6620222381" lon="27.6298022418">
		<tag k="name" v="Njereveaiávžžegeahči" />
		<tag k="name:se" v="Njereveaiávžžegeahči" />
		<tag k="natural" v="valley" />
		<tag k="old_name:se" v="Njerevæjavžegæčči" />
		<tag k="place" v="locality" />
		<tag k="ssr:stedsnr" v="748287" />
	</node>
	<node id="-805427" lat="71.0367139024" lon="28.0579494298">
		<tag k="alt_name" v="Middagstua" />
		<tag k="name" v="Middagstuva" />
		<tag k="natural" v="hill" />
		<tag k="place" v="locality" />
		<tag k="ssr:stedsnr" v="141439" />
	</node>
	<node id="-805933" lat="70.9732750144" lon="28.1814743779">
		<tag k="fixme" v="consider natural=peak for the most distinct mountains in the district" />
		<tag k="name" v="Skardangen" />
		<tag k="natural" v="hill" />
		<tag k="place" v="locality" />
		<tag k="ssr:stedsnr" v="747817" />
	</node>
	<node id="-805929" lat="70.6186194606" lon="27.748013306">
		<tag k="name" v="Grønnsletta" />
		<tag k="place" v="locality" />
		<tag k="ssr:stedsnr" v="698628" />
	</node>
	<node id="-805925" lat="70.673858353" lon="27.8229827552">
		<tag k="name" v="Ellevággi" />
		<tag k="name:se" v="Ellevággi" />
		<tag k="natural" v="valley" />
		<tag k="place" v="locality" />
		<tag k="ssr:stedsnr" v="697253" />
	</node>
	<node id="-805924" lat="70.7063472364" lon="28.0435271431">
		<tag k="name" v="Skoahppa-leahki" />
		<tag k="name:se" v="Skoahppa-leahki" />
		<tag k="natural" v="valley" />
		<tag k="place" v="locality" />
		<tag k="ssr:stedsnr" v="697225" />
	</node>
	<node id="-805923" lat="70.743919459" lon="28.0430715988">
		<tag k="fixme" v="consider natural=peak for the most distinct mountains in the district" />
		<tag k="name" v="Litle Skogfjordfjellet" />
		<tag k="natural" v="hill" />
		<tag k="place" v="locality" />
		<tag k="ssr:stedsnr" v="694701" />
	</node>
	<node id="-805922" lat="70.8045750183" lon="27.8603105361">
		<tag k="name" v="Lauvlia" />
		<tag k="natural" v="slope" />
		<tag k="place" v="locality" />
		<tag k="ssr:stedsnr" v="694442" />
	</node>
	<node id="-805211" lat="71.0916083418" lon="28.1851521804">
		<tag k="name" v="Vardnessletta" />
		<tag k="place" v="locality" />
		<tag k="ssr:stedsnr" v="383464" />
	</node>
	<node id="-805919" lat="71.0356750155" lon="28.1443521803">
		<tag k="fixme" v="consider natural=peak for the most distinct mountains in the district" />
		<tag k="name" v="Urvasstoppan" />
		<tag k="natural" v="hill" />
		<tag k="ssr:stedsnr" v="693902" />
	</node>
	<node id="-805404" lat="70.6647527965" lon="27.8056688649">
		<tag k="name" v="Midtre Rundhaugen - Gaska boarka oaivi" />
		<tag k="name:no" v="Midtre Rundhaugen" />
		<tag k="name:se" v="Gaska boarka oaivi" />
		<tag k="natural" v="hill" />
		<tag k="place" v="locality" />
		<tag k="ssr:stedsnr" v="91250" />
	</node>
	<node id="-805913" lat="71.0286944579" lon="27.8696355841">
		<tag k="name" v="Vassdalen" />
		<tag k="natural" v="valley" />
		<tag k="place" v="locality" />
		<tag k="ssr:stedsnr" v="692982" />
	</node>
	<node id="-805912" lat="71.0165666827" lon="27.854393916">
		<tag k="name" v="Pakkhusdalen" />
		<tag k="natural" v="valley" />
		<tag k="place" v="locality" />
		<tag k="ssr:stedsnr" v="692978" />
	</node>
	<node id="-805911" lat="71.0205527892" lon="27.8580883575">
		<tag k="name" v="Klondyke" />
		<tag k="natural" v="slope" />
		<tag k="place" v="locality" />
		<tag k="ssr:stedsnr" v="692950" />
	</node>
	<node id="-805910" lat="71.0342166801" lon="28.0133133361">
		<tag k="fixme" v="consider natural=peak for the most distinct mountains in the district" />
		<tag k="name" v="Futfjell" />
		<tag k="natural" v="hill" />
		<tag k="place" v="locality" />
		<tag k="ssr:stedsnr" v="692929" />
	</node>
	<node id="-805397" lat="71.0231027893" lon="27.8854522301">
		<tag k="name" v="Søndre Vassdalen" />
		<tag k="natural" v="valley" />
		<tag k="place" v="locality" />
		<tag k="ssr:stedsnr" v="86989" />
	</node>
	<node id="-805908" lat="71.046783346" lon="28.0195994394">
		<tag k="name" v="Futelvdalen" />
		<tag k="natural" v="valley" />
		<tag k="place" v="locality" />
		<tag k="ssr:stedsnr" v="692846" />
	</node>
	<node id="-805905" lat="71.0567972362" lon="28.2284410507">
		<tag k="name" v="Karlbakken" />
		<tag k="natural" v="slope" />
		<tag k="place" v="locality" />
		<tag k="ssr:stedsnr" v="692819" />
	</node>
	<node id="-805391" lat="71.0549111245" lon="27.7870467125">
		<tag k="name" v="Kuskjellhamnskaret" />
		<tag k="natural" v="valley" />
		<tag k="place" v="locality" />
		<tag k="ssr:stedsnr" v="86024" />
	</node>
	<node id="-805390" lat="71.0234361241" lon="27.795096697">
		<tag k="name" v="Sørfjorddalen" />
		<tag k="natural" v="valley" />
		<tag k="place" v="locality" />
		<tag k="ssr:stedsnr" v="86012" />
	</node>
	<node id="-805901" lat="70.8003139044" lon="28.0642604927">
		<tag k="name" v="Breivikdalen" />
		<tag k="natural" v="valley" />
		<tag k="place" v="locality" />
		<tag k="ssr:stedsnr" v="692675" />
	</node>
	<node id="-805387" lat="71.089352795" lon="28.1455966314">
		<tag k="name" v="Mikkelberget" />
		<tag k="natural" v="hill" />
		<tag k="place" v="locality" />
		<tag k="ssr:stedsnr" v="85816" />
	</node>
	<node id="-805898" lat="71.02844168" lon="27.8977022374">
		<tag k="fixme" v="consider natural=peak for the most distinct mountains in the district" />
		<tag k="name" v="Bjørkvikfjellet" />
		<tag k="natural" v="hill" />
		<tag k="place" v="locality" />
		<tag k="ssr:stedsnr" v="692115" />
	</node>
	<node id="-805205" lat="70.7888722325" lon="27.768763335">
		<tag k="name" v="Raet" />
		<tag k="place" v="locality" />
		<tag k="ssr:stedsnr" v="336841" />
	</node>
	<node id="-805383" lat="70.8299055736" lon="28.1288576966">
		<tag k="alt_name" v="Strupen" />
		<tag k="name" v="Storviastrupen" />
		<tag k="natural" v="valley" />
		<tag k="place" v="locality" />
		<tag k="ssr:stedsnr" v="85676" />
	</node>
	<node id="-805894" lat="70.8428611279" lon="28.3125798801">
		<tag k="fixme" v="consider natural=peak for the most distinct mountains in the district" />
		<tag k="name" v="Dæigofjellet - Deaigu" />
		<tag k="name:no" v="Dæigofjellet" />
		<tag k="name:se" v="Deaigu" />
		<tag k="natural" v="hill" />
		<tag k="old_name:se" v="Dæigo" />
		<tag k="place" v="locality" />
		<tag k="ssr:stedsnr" v="688952" />
	</node>
</osm>
