<?xml version="1.0" encoding="UTF-8"?>
<<<<<<< HEAD
<osm version="0.6" generator="osmapis">
	<node lat="62.500694446833585" lon="6.134736101839764" id="-5778">
		<tag k="alt_name" v="Giske" />
		<tag k="name" v="Giske kommune" />
		<tag k="ssr:date" v="2016-05-10" />
=======
<osm generator="osmapis" version="0.6">
	<node id="-70653" lat="62.5671361135" lon="5.72760556144">
		<tag k="name" v="Fauskane lysbøye" />
		<tag k="ssr:date" v="2016-05-10" />
		<tag k="ssr:gruppe" v="navigasjon" />
		<tag k="ssr:hovedgruppe" v="infrastruktur" />
		<tag k="ssr:stedsnr" v="234003" />
		<tag k="ssr:type" v="lysbøye" />
	</node>
	<node id="-71132" lat="62.4884861099" lon="6.06304722998">
		<tag k="name" v="Havstein" />
		<tag k="ssr:date" v="2016-05-10" />
		<tag k="ssr:gruppe" v="navigasjon" />
		<tag k="ssr:hovedgruppe" v="infrastruktur" />
		<tag k="ssr:stedsnr" v="557981" />
		<tag k="ssr:type" v="fyrlykt" />
	</node>
	<node id="-70786" lat="62.4868138922" lon="5.97954167159">
		<tag k="alt_name" v="Alnes havn, n molo" />
		<tag k="name" v="Alnes hamn n molo" />
		<tag k="ssr:date" v="2016-05-11" />
		<tag k="ssr:gruppe" v="navigasjon" />
		<tag k="ssr:hovedgruppe" v="infrastruktur" />
		<tag k="ssr:stedsnr" v="708932" />
		<tag k="ssr:type" v="lanterne" />
	</node>
	<node id="-71321" lat="69.6388889725" lon="30.5666644427">
		<tag k="fixme" v="multiple name tags, choose one and add the other to alt_name" />
		<tag k="loc_name:se" v="Norgga gonagasriika" />
		<tag k="loc_name:sma" v="Nöörjen gånkarïjhke" />
		<tag k="loc_name:smj" v="Vuona gånågisrijkka" />
		<tag k="name" v="Noreg;Norge" />
		<tag k="name:en" v="Norway" />
		<tag k="name:no" v="Noreg;Norge" />
		<tag k="ssr:date" v="2020-06-04" />
>>>>>>> e1d4bc35ff8a6074a6f2e91616a996b547c36f15
		<tag k="ssr:gruppe" v="administrativeIndelinger" />
		<tag k="ssr:hovedgruppe" v="offentligAdministrasjon" />
		<tag k="ssr:stedsnr" v="26330" />
		<tag k="ssr:type" v="nasjon" />
	</node>
<<<<<<< HEAD
	<node lat="62.730555556350446" lon="5.666666657603738" id="-5793">
		<tag k="name" v="Medseta" />
		<tag k="ssr:date" v="2016-05-10" />
		<tag k="ssr:gruppe" v="sjøbunn" />
		<tag k="ssr:hovedgruppe" v="sjø" />
		<tag k="ssr:stedsnr" v="42313" />
		<tag k="ssr:type" v="eggISjø" />
	</node>
	<node lat="62.6332138902842" lon="5.696527782789839" id="-5796">
		<tag k="name" v="Veten" />
=======
	<node id="-71320" lat="62.4648122336" lon="6.01975060149">
		<tag k="name" v="Geilevika ytre" />
		<tag k="ssr:date" v="2018-08-07" />
		<tag k="ssr:gruppe" v="navigasjon" />
		<tag k="ssr:hovedgruppe" v="infrastruktur" />
		<tag k="ssr:stedsnr" v="985853" />
		<tag k="ssr:type" v="lanterne" />
	</node>
	<node id="-70658" lat="62.6430249975" lon="5.92369999991">
		<tag k="name" v="Storholmen" />
>>>>>>> e1d4bc35ff8a6074a6f2e91616a996b547c36f15
		<tag k="ssr:date" v="2016-05-10" />
		<tag k="ssr:gruppe" v="sjøbunn" />
		<tag k="ssr:hovedgruppe" v="sjø" />
		<tag k="ssr:stedsnr" v="53007" />
		<tag k="ssr:type" v="eggISjø" />
	</node>
	<node lat="62.65634722329256" lon="5.7814111063178695" id="-5806">
		<tag k="name" v="Kringlebakken" />
		<tag k="ssr:date" v="2016-05-10" />
		<tag k="ssr:gruppe" v="sjøbunn" />
		<tag k="ssr:hovedgruppe" v="sjø" />
		<tag k="ssr:stedsnr" v="113016" />
		<tag k="ssr:type" v="bakkeISjø" />
	</node>
	<node lat="62.64316666280747" lon="5.953988891975545" id="-5807">
		<tag k="name" v="Rosseskallsøyla" />
		<tag k="ssr:date" v="2016-05-10" />
		<tag k="ssr:gruppe" v="sjøbunn" />
		<tag k="ssr:hovedgruppe" v="sjø" />
		<tag k="ssr:stedsnr" v="113017" />
		<tag k="ssr:type" v="renneKløftISjø" />
	</node>
	<node lat="62.56852298057996" lon="6.053026445392081" id="-5816">
		<tag k="name" v="Blindheim" />
		<tag k="ssr:date" v="2021-06-08" />
		<tag k="ssr:gruppe" v="navigasjon" />
		<tag k="ssr:hovedgruppe" v="infrastruktur" />
<<<<<<< HEAD
		<tag k="ssr:stedsnr" v="254779" />
		<tag k="ssr:type" v="fyrlykt" />
	</node>
	<node lat="62.56713611350756" lon="5.727605561439906" id="-5842">
		<tag k="name" v="Fauskane lysbøye" />
		<tag k="ssr:date" v="2016-05-10" />
		<tag k="ssr:gruppe" v="navigasjon" />
		<tag k="ssr:hovedgruppe" v="infrastruktur" />
		<tag k="ssr:stedsnr" v="234003" />
		<tag k="ssr:type" v="lysbøye" />
	</node>
	<node lat="62.642958291887886" lon="5.923820002735571" id="-5851">
		<tag k="name" v="Storholmen" />
		<tag k="ssr:date" v="2021-06-08" />
		<tag k="ssr:gruppe" v="navigasjon" />
		<tag k="ssr:hovedgruppe" v="infrastruktur" />
		<tag k="ssr:stedsnr" v="254667" />
		<tag k="ssr:type" v="fyrstasjon" />
	</node>
	<node lat="62.65000000157582" lon="5.558333327777496" id="-5876">
		<tag k="name" v="Neteskallen" />
		<tag k="ssr:date" v="2019-09-11" />
		<tag k="ssr:gruppe" v="sjøbunn" />
		<tag k="ssr:hovedgruppe" v="sjø" />
		<tag k="ssr:stedsnr" v="285628" />
		<tag k="ssr:type" v="bakketoppISjø" />
	</node>
	<node lat="62.57549444213179" lon="5.869361119771392" id="-5879">
		<tag k="name" v="Knutsråsa" />
		<tag k="ssr:date" v="2016-05-10" />
		<tag k="ssr:gruppe" v="sjøbunn" />
		<tag k="ssr:hovedgruppe" v="sjø" />
		<tag k="ssr:stedsnr" v="295097" />
		<tag k="ssr:type" v="søkkISjø" />
	</node>
	<node lat="62.69583333508683" lon="5.406666667018299" id="-5881">
		<tag k="name" v="Piparseta" />
		<tag k="ssr:date" v="2019-09-11" />
		<tag k="ssr:gruppe" v="sjøbunn" />
		<tag k="ssr:hovedgruppe" v="sjø" />
		<tag k="ssr:stedsnr" v="466658" />
		<tag k="ssr:type" v="eggISjø" />
	</node>
	<node lat="62.628166663407164" lon="5.869813882543417" id="-5937">
		<tag k="name" v="Steinsgrynnsøyla" />
		<tag k="ssr:date" v="2016-05-10" />
		<tag k="ssr:gruppe" v="sjøbunn" />
		<tag k="ssr:hovedgruppe" v="sjø" />
		<tag k="ssr:stedsnr" v="477020" />
		<tag k="ssr:type" v="renneKløftISjø" />
	</node>
	<node lat="62.61303610704287" lon="5.819125001067149" id="-5972">
		<tag k="name" v="Litledjupet" />
		<tag k="ssr:date" v="2016-05-11" />
		<tag k="ssr:gruppe" v="sjøbunn" />
		<tag k="ssr:hovedgruppe" v="sjø" />
		<tag k="ssr:stedsnr" v="692596" />
		<tag k="ssr:type" v="havdyp" />
	</node>
	<node lat="62.635241662689495" lon="5.997188892176428" id="-5985">
		<tag k="name" v="Sjurhanshola" />
		<tag k="ssr:date" v="2016-05-10" />
		<tag k="ssr:gruppe" v="sjøbunn" />
		<tag k="ssr:hovedgruppe" v="sjø" />
		<tag k="ssr:stedsnr" v="597914" />
		<tag k="ssr:type" v="renneKløftISjø" />
	</node>
	<node lat="62.69647222098241" lon="5.872427785384045" id="-5987">
		<tag k="name" v="Utgrunnen" />
		<tag k="ssr:date" v="2019-12-27" />
		<tag k="ssr:gruppe" v="sjøbunn" />
		<tag k="ssr:hovedgruppe" v="sjø" />
		<tag k="ssr:stedsnr" v="598316" />
		<tag k="ssr:type" v="eggISjø" />
	</node>
	<node lat="62.48681389217524" lon="5.979541671592479" id="-6034">
		<tag k="alt_name" v="Alnes havn, n molo" />
		<tag k="name" v="Alnes hamn n molo" />
		<tag k="ssr:date" v="2016-05-11" />
		<tag k="ssr:gruppe" v="navigasjon" />
		<tag k="ssr:hovedgruppe" v="infrastruktur" />
		<tag k="ssr:stedsnr" v="708932" />
		<tag k="ssr:type" v="lanterne" />
	</node>
	<node lat="62.621286109728764" lon="6.063883342531595" id="-6044">
		<tag k="name" v="Innholmsøyla" />
		<tag k="ssr:date" v="2016-05-11" />
		<tag k="ssr:gruppe" v="sjøbunn" />
		<tag k="ssr:hovedgruppe" v="sjø" />
		<tag k="ssr:stedsnr" v="720916" />
		<tag k="ssr:type" v="renneKløftISjø" />
	</node>
	<node lat="62.65706110720533" lon="5.680724998155396" id="-6079">
		<tag k="name" v="Storedjupet" />
		<tag k="ssr:date" v="2016-05-11" />
		<tag k="ssr:gruppe" v="sjøbunn" />
		<tag k="ssr:hovedgruppe" v="sjø" />
		<tag k="ssr:stedsnr" v="842011" />
		<tag k="ssr:type" v="havdyp" />
	</node>
	<node lat="62.48995638072451" lon="5.967327170009041" id="-6082">
		<tag k="name" v="Alnes fyr" />
		<tag k="ssr:date" v="2021-06-08" />
		<tag k="ssr:gruppe" v="navigasjon" />
		<tag k="ssr:hovedgruppe" v="infrastruktur" />
		<tag k="ssr:stedsnr" v="861988" />
		<tag k="ssr:type" v="fyrstasjon" />
	</node>
	<node lat="62.68283889257597" lon="5.84524999973662" id="-6093">
		<tag k="name" v="Skulegga" />
		<tag k="ssr:date" v="2016-05-11" />
		<tag k="ssr:gruppe" v="sjøbunn" />
		<tag k="ssr:hovedgruppe" v="sjø" />
		<tag k="ssr:stedsnr" v="902011" />
		<tag k="ssr:type" v="eggISjø" />
	</node>
	<node lat="62.599999999379044" lon="5.584999997120145" id="-6110">
		<tag k="name" v="Djupseta" />
		<tag k="ssr:date" v="2019-09-12" />
		<tag k="ssr:gruppe" v="sjøbunn" />
		<tag k="ssr:hovedgruppe" v="sjø" />
		<tag k="ssr:stedsnr" v="952609" />
		<tag k="ssr:type" v="eggISjø" />
	</node>
	<node lat="62.582640258258785" lon="6.071546329600054" id="-6144">
		<tag k="name" v="Molneset" />
		<tag k="ssr:date" v="2021-06-08" />
		<tag k="ssr:gruppe" v="navigasjon" />
		<tag k="ssr:hovedgruppe" v="infrastruktur" />
		<tag k="ssr:stedsnr" v="72773" />
		<tag k="ssr:type" v="fyrlykt" />
	</node>
	<node lat="62.46312395423961" lon="6.03132425824301" id="-6147">
		<tag k="name" v="Høgsteinen" />
		<tag k="ssr:date" v="2021-06-08" />
		<tag k="ssr:gruppe" v="navigasjon" />
		<tag k="ssr:hovedgruppe" v="infrastruktur" />
		<tag k="ssr:stedsnr" v="71963" />
		<tag k="ssr:type" v="fyrlykt" />
	</node>
	<node lat="62.60713611413765" lon="6.116927775112691" id="-6167">
		<tag k="name" v="Flatskjeret" />
		<tag k="ssr:date" v="2019-12-27" />
		<tag k="ssr:gruppe" v="navigasjon" />
		<tag k="ssr:hovedgruppe" v="infrastruktur" />
		<tag k="ssr:stedsnr" v="101859" />
		<tag k="ssr:type" v="lanterne" />
	</node>
	<node lat="62.73392710705581" lon="7.14918030614603" id="-6178">
		<tag k="alt_name" v="Møre og Romsdal" />
		<tag k="name" v="Møre og Romsdal fylke" />
		<tag k="ssr:date" v="2021-09-21" />
		<tag k="ssr:gruppe" v="administrativeIndelinger" />
		<tag k="ssr:hovedgruppe" v="offentligAdministrasjon" />
		<tag k="ssr:stedsnr" v="145583" />
		<tag k="ssr:type" v="fylke" />
	</node>
	<node lat="62.5501611085548" lon="5.9400388806184194" id="-6207">
		<tag k="alt_name" v="Erkna" />
		<tag k="name" v="Erkna fyr" />
=======
		<tag k="ssr:stedsnr" v="254667" />
		<tag k="ssr:type" v="fyrlykt" />
	</node>
	<node id="-71286" lat="62.4899563807" lon="5.96732717001">
		<tag k="name" v="Alnes fyr" />
		<tag k="ssr:date" v="2018-05-15" />
		<tag k="ssr:gruppe" v="navigasjon" />
		<tag k="ssr:hovedgruppe" v="infrastruktur" />
		<tag k="ssr:stedsnr" v="861988" />
		<tag k="ssr:type" v="fyrstasjon" />
	</node>
	<node id="-70920" lat="62.5006944468" lon="6.13473610184">
		<tag k="alt_name" v="Giske" />
		<tag k="name" v="Giske kommune" />
		<tag k="ssr:date" v="2016-05-10" />
		<tag k="ssr:gruppe" v="administrativeIndelinger" />
		<tag k="ssr:hovedgruppe" v="offentligAdministrasjon" />
		<tag k="ssr:stedsnr" v="25772" />
		<tag k="ssr:type" v="kommune" />
	</node>
	<node id="-71282" lat="62.536166666" lon="6.01622778452">
		<tag k="name" v="Synes" />
		<tag k="old_name" v="Synnes lykt" />
		<tag k="ssr:date" v="2016-05-11" />
		<tag k="ssr:gruppe" v="navigasjon" />
		<tag k="ssr:hovedgruppe" v="infrastruktur" />
		<tag k="ssr:stedsnr" v="861762" />
		<tag k="ssr:type" v="fyrlykt" />
	</node>
	<node id="-70840" lat="62.6023416682" lon="6.05495554756">
		<tag k="name" v="Rosholmen" />
		<tag k="ssr:date" v="2016-05-11" />
		<tag k="ssr:gruppe" v="navigasjon" />
		<tag k="ssr:hovedgruppe" v="infrastruktur" />
		<tag k="ssr:stedsnr" v="739813" />
		<tag k="ssr:type" v="fyrlykt" />
	</node>
	<node id="-71087" lat="62.5100611138" lon="6.15003889474">
		<tag k="name" v="Oksebåsen" />
		<tag k="old_name" v="Uksebåsen;Uksebåsen lykt" />
		<tag k="ssr:date" v="2016-05-10" />
		<tag k="ssr:gruppe" v="navigasjon" />
		<tag k="ssr:hovedgruppe" v="infrastruktur" />
		<tag k="ssr:stedsnr" v="436745" />
		<tag k="ssr:type" v="fyrlykt" />
	</node>
	<node id="-71058" lat="62.4972027796" lon="6.1322138835">
		<tag k="alt_name" v="Valderhaug" />
		<tag k="name" v="Valderhaug molo" />
		<tag k="ssr:date" v="2016-05-10" />
		<tag k="ssr:gruppe" v="navigasjon" />
		<tag k="ssr:hovedgruppe" v="infrastruktur" />
		<tag k="ssr:stedsnr" v="375971" />
		<tag k="ssr:type" v="fyrlykt" />
	</node>
	<node id="-70600" lat="62.5685361089" lon="6.05300834205">
		<tag k="name" v="Blindheim" />
>>>>>>> e1d4bc35ff8a6074a6f2e91616a996b547c36f15
		<tag k="ssr:date" v="2016-05-10" />
		<tag k="ssr:gruppe" v="navigasjon" />
		<tag k="ssr:hovedgruppe" v="infrastruktur" />
		<tag k="ssr:stedsnr" v="193770" />
		<tag k="ssr:type" v="fyrlykt" />
	</node>
<<<<<<< HEAD
	<node lat="62.49720277958531" lon="6.132213883497384" id="-6268">
		<tag k="alt_name" v="Valderhaug" />
		<tag k="name" v="Valderhaug molo" />
		<tag k="ssr:date" v="2016-05-10" />
		<tag k="ssr:gruppe" v="navigasjon" />
		<tag k="ssr:hovedgruppe" v="infrastruktur" />
		<tag k="ssr:stedsnr" v="375971" />
		<tag k="ssr:type" v="fyrlykt" />
	</node>
	<node lat="62.510068159830986" lon="6.150040844845575" id="-6292">
		<tag k="name" v="Oksebåsen" />
		<tag k="old_name" v="Uksebåsen;Uksebåsen lykt" />
		<tag k="ssr:date" v="2020-09-10" />
		<tag k="ssr:gruppe" v="navigasjon" />
		<tag k="ssr:hovedgruppe" v="infrastruktur" />
		<tag k="ssr:stedsnr" v="436745" />
		<tag k="ssr:type" v="fyrlykt" />
	</node>
	<node lat="62.48857112666843" lon="6.063207049204472" id="-6333">
		<tag k="name" v="Havstein" />
		<tag k="ssr:date" v="2020-09-08" />
=======
	<node id="-70952" lat="62.5825000001" lon="6.07154999269">
		<tag k="name" v="Molneset" />
		<tag k="ssr:date" v="2016-05-10" />
		<tag k="ssr:gruppe" v="navigasjon" />
		<tag k="ssr:hovedgruppe" v="infrastruktur" />
		<tag k="ssr:stedsnr" v="72773" />
		<tag k="ssr:type" v="fyrlykt" />
	</node>
	<node id="-70950" lat="62.4631222214" lon="6.03133611041">
		<tag k="name" v="Høgsteinen" />
		<tag k="ssr:date" v="2016-05-10" />
		<tag k="ssr:gruppe" v="navigasjon" />
		<tag k="ssr:hovedgruppe" v="infrastruktur" />
		<tag k="ssr:stedsnr" v="71963" />
		<tag k="ssr:type" v="fyrlykt" />
	</node>
	<node id="-71013" lat="62.5501611086" lon="5.94003888062">
		<tag k="alt_name" v="Erkna" />
		<tag k="name" v="Erkna fyr" />
		<tag k="ssr:date" v="2016-05-10" />
>>>>>>> e1d4bc35ff8a6074a6f2e91616a996b547c36f15
		<tag k="ssr:gruppe" v="navigasjon" />
		<tag k="ssr:hovedgruppe" v="infrastruktur" />
		<tag k="ssr:stedsnr" v="557981" />
		<tag k="ssr:type" v="fyrlykt" />
	</node>
<<<<<<< HEAD
	<node lat="62.57588610908546" lon="6.052122226401833" id="-6387">
		<tag k="name" v="Blindheimsklovningen" />
		<tag k="ssr:date" v="2021-06-08" />
		<tag k="ssr:gruppe" v="sjøbunn" />
		<tag k="ssr:hovedgruppe" v="sjø" />
		<tag k="ssr:stedsnr" v="654264" />
		<tag k="ssr:type" v="renneKløftISjø" />
	</node>
	<node lat="62.53874166878999" lon="5.692244448463892" id="-6389">
		<tag k="name" v="Sildestøbotnen" />
		<tag k="ssr:date" v="2016-05-10" />
		<tag k="ssr:gruppe" v="sjøbunn" />
		<tag k="ssr:hovedgruppe" v="sjø" />
		<tag k="ssr:stedsnr" v="659009" />
		<tag k="ssr:type" v="bankeISjø" />
	</node>
	<node lat="62.630136109940835" lon="5.906233340452018" id="-6392">
		<tag k="name" v="Djupsøyla" />
		<tag k="ssr:date" v="2016-05-10" />
		<tag k="ssr:gruppe" v="sjøbunn" />
		<tag k="ssr:hovedgruppe" v="sjø" />
		<tag k="ssr:stedsnr" v="659026" />
		<tag k="ssr:type" v="renneKløftISjø" />
	</node>
	<node lat="62.67900000143444" lon="5.69693332636942" id="-6397">
		<tag k="name" v="Heldet" />
		<tag k="ssr:date" v="2016-05-11" />
		<tag k="ssr:gruppe" v="sjøbunn" />
		<tag k="ssr:hovedgruppe" v="sjø" />
		<tag k="ssr:stedsnr" v="720016" />
		<tag k="ssr:type" v="havdyp" />
	</node>
	<node lat="62.6263583342349" lon="5.926447221179263" id="-6398">
		<tag k="name" v="Skjersøyla" />
		<tag k="ssr:date" v="2016-05-11" />
		<tag k="ssr:gruppe" v="sjøbunn" />
		<tag k="ssr:hovedgruppe" v="sjø" />
		<tag k="ssr:stedsnr" v="720021" />
		<tag k="ssr:type" v="renneKløftISjø" />
	</node>
	<node lat="62.602384527628146" lon="6.054807189517886" id="-6406">
		<tag k="name" v="Rosholmen" />
		<tag k="ssr:date" v="2021-06-08" />
		<tag k="ssr:gruppe" v="navigasjon" />
		<tag k="ssr:hovedgruppe" v="infrastruktur" />
		<tag k="ssr:stedsnr" v="739813" />
		<tag k="ssr:type" v="fyrlykt" />
	</node>
	<node lat="62.53617334238301" lon="6.016235032014792" id="-6461">
		<tag k="name" v="Synes" />
		<tag k="old_name" v="Synnes lykt" />
		<tag k="ssr:date" v="2021-06-08" />
=======
	<node id="-70614" lat="62.6071361141" lon="6.11692777511">
		<tag k="name" v="Flatskjeret" />
		<tag k="ssr:date" v="2019-12-27" />
>>>>>>> e1d4bc35ff8a6074a6f2e91616a996b547c36f15
		<tag k="ssr:gruppe" v="navigasjon" />
		<tag k="ssr:hovedgruppe" v="infrastruktur" />
		<tag k="ssr:stedsnr" v="101859" />
		<tag k="ssr:type" v="lanterne" />
	</node>
<<<<<<< HEAD
	<node lat="62.48646142983639" lon="5.971247837972224" id="-6503">
		<tag k="name" v="Åkresundet" />
		<tag k="ssr:date" v="2016-12-08" />
		<tag k="ssr:gruppe" v="veg" />
		<tag k="ssr:hovedgruppe" v="infrastruktur" />
		<tag k="ssr:stedsnr" v="973242" />
		<tag k="ssr:type" v="vegstrekning" />
	</node>
	<node lat="62.464812233564544" lon="6.019750601489698" id="-6523">
		<tag k="name" v="Geilevika ytre" />
		<tag k="ssr:date" v="2018-08-07" />
		<tag k="ssr:gruppe" v="navigasjon" />
		<tag k="ssr:hovedgruppe" v="infrastruktur" />
		<tag k="ssr:stedsnr" v="985853" />
		<tag k="ssr:type" v="lanterne" />
	</node>
	<node lat="62.58643020377776" lon="6.111658028527552" id="-6527">
		<tag k="name" v="Ranskarrema" />
		<tag k="ssr:date" v="2021-05-19" />
		<tag k="ssr:gruppe" v="veg" />
		<tag k="ssr:hovedgruppe" v="infrastruktur" />
		<tag k="ssr:stedsnr" v="1081287" />
		<tag k="ssr:type" v="adressenavn" />
=======
	<node id="-71298" lat="62.4864614298" lon="5.97124783797">
		<tag k="name" v="Åkresundet" />
		<tag k="ssr:date" v="2016-12-08" />
		<tag k="ssr:gruppe" v="veg" />
		<tag k="ssr:hovedgruppe" v="infrastruktur" />
		<tag k="ssr:stedsnr" v="973242" />
		<tag k="ssr:type" v="vegstrekning" />
>>>>>>> e1d4bc35ff8a6074a6f2e91616a996b547c36f15
	</node>
</osm>
