<?xml version="1.0" encoding="UTF-8"?>
<osm generator="osmapis" version="0.6">
	<node id="-420603" lat="59.161955554" lon="5.94674444255">
		<tag k="man_made" v="quay" />
		<tag k="name" v="Bokn kai" />
		<tag k="place" v="locality" />
		<tag k="ssr:stedsnr" v="902269" />
	</node>
	<node id="-420524" lat="59.2535944446" lon="5.83680277382">
		<tag k="bridge" v="yes" />
		<tag k="layer" v="1" />
		<tag k="name" v="Eriksholmen" />
		<tag k="ssr:stedsnr" v="836453" />
	</node>
	<node id="-420727" lat="59.1059613573" lon="5.85846133195">
		<tag k="fixme" v="verify maritime location" />
		<tag k="mooring" v="yes" />
		<tag k="name" v="Gongstø" />
		<tag k="place" v="locality" />
		<tag k="ssr:stedsnr" v="980665" />
	</node>
	<node id="-419958" lat="59.1557750044" lon="5.90990278599">
		<tag k="highway" v="path" />
		<tag k="name" v="Sandvikfjellet" />
		<tag k="ssr:stedsnr" v="235665" />
	</node>
	<node id="-420082" lat="59.2411805542" lon="5.88647499843">
		<tag k="amenity" v="ferry_terminal" />
		<tag k="name" v="Nord-Hidle ferjestø" />
		<tag k="ssr:stedsnr" v="472475" />
	</node>
	<node id="-420206" lat="59.2511694405" lon="5.82024166195">
		<tag k="man_made" v="quay" />
		<tag k="name" v="Eik kai" />
		<tag k="place" v="locality" />
		<tag k="ssr:stedsnr" v="593447" />
	</node>
	<node id="-420205" lat="59.2257055521" lon="5.84272500253">
		<tag k="bridge" v="yes" />
		<tag k="layer" v="1" />
		<tag k="name" v="Helgøysund" />
		<tag k="ssr:stedsnr" v="593445" />
	</node>
	<node id="-420453" lat="59.1257944488" lon="5.927272225">
		<tag k="landuse" v="harbour" />
		<tag k="name" v="Gjerdet" />
		<tag k="seamark:type" v="harbour" />
		<tag k="ssr:stedsnr" v="782286" />
	</node>
	<node id="-419812" lat="59.1221527793" lon="5.79824721907">
		<tag k="layer" v="-1" />
		<tag k="name" v="Finnøytunnelen" />
		<tag k="ssr:stedsnr" v="116217" />
		<tag k="tunnel" v="yes" />
	</node>
	<node id="-419554" lat="59.1477972258" lon="5.84430832475">
		<tag k="man_made" v="quay" />
		<tag k="name" v="Reilstad kai" />
		<tag k="place" v="locality" />
		<tag k="ssr:stedsnr" v="357560" />
	</node>
	<node id="-420705" lat="59.228625004" lon="5.85395278477">
		<tag k="alt_name" v="Sjernarøyane ferjekai" />
		<tag k="amenity" v="ferry_terminal" />
		<tag k="name" v="Helgøy ferjekai" />
		<tag k="ssr:stedsnr" v="965702" />
	</node>
	<node id="-419808" lat="59.1939472238" lon="5.84556666412">
		<tag k="alt_name" v="Kjellstø" />
		<tag k="fixme" v="verify maritime location" />
		<tag k="mooring" v="yes" />
		<tag k="name" v="Kilstø" />
		<tag k="place" v="locality" />
		<tag k="ssr:stedsnr" v="115826" />
	</node>
	<node id="-419550" lat="59.1392222213" lon="5.89796666494">
		<tag k="fixme" v="verify maritime location" />
		<tag k="mooring" v="yes" />
		<tag k="name" v="Holmastø" />
		<tag k="place" v="locality" />
		<tag k="ssr:stedsnr" v="357301" />
	</node>
	<node id="-420559" lat="59.2602443381" lon="5.88391491752">
		<tag k="amenity" v="ferry_terminal" />
		<tag k="name" v="Nesheim ferjestø" />
		<tag k="ssr:stedsnr" v="849521" />
	</node>
	<node id="-420452" lat="59.1988944462" lon="5.82170278485">
		<tag k="fixme" v="verify maritime location" />
		<tag k="mooring" v="yes" />
		<tag k="name" v="Haukåsstøa" />
		<tag k="place" v="locality" />
		<tag k="ssr:stedsnr" v="782226" />
	</node>
	<node id="-419539" lat="59.1416444426" lon="5.8158166628">
		<tag k="amenity" v="ferry_terminal" />
		<tag k="name" v="Ladstein ferjekai" />
		<tag k="ssr:stedsnr" v="350465" />
	</node>
	<node id="-420687" lat="59.1617694418" lon="5.86274167007">
		<tag k="man_made" v="quay" />
		<tag k="name" v="Kolkaien" />
		<tag k="place" v="locality" />
		<tag k="ssr:stedsnr" v="963637" />
	</node>
	<node id="-419788" lat="59.2243166674" lon="5.83627776981">
		<tag k="bridge" v="yes" />
		<tag k="layer" v="1" />
		<tag k="name" v="Talgje" />
		<tag k="ssr:stedsnr" v="108497" />
	</node>
	<node id="-420450" lat="59.170952781" lon="5.7779444395">
		<tag k="fixme" v="verify maritime location" />
		<tag k="mooring" v="yes" />
		<tag k="name" v="Torgeinstø" />
		<tag k="place" v="locality" />
		<tag k="ssr:stedsnr" v="782111" />
	</node>
	<node id="-420298" lat="59.1744444429" lon="5.80723888957">
		<tag k="fixme" v="verify maritime location" />
		<tag k="mooring" v="yes" />
		<tag k="name" v="Fudastøa" />
		<tag k="place" v="locality" />
		<tag k="ssr:stedsnr" v="660138" />
	</node>
	<node id="-419529" lat="59.2349861424" lon="5.93834160531">
		<tag k="amenity" v="ferry_terminal" />
		<tag k="fixme" v="multiple name tags, choose one and add the other to alt_name" />
		<tag k="name" v="Eidssund ferjekai;Eidssund" />
		<tag k="ssr:stedsnr" v="305999" />
	</node>
	<node id="-420295" lat="59.2528077563" lon="5.85210462128">
		<tag k="bridge" v="yes" />
		<tag k="layer" v="1" />
		<tag k="name" v="Aubøsund" />
		<tag k="ssr:stedsnr" v="654610" />
	</node>
	<node id="-420677" lat="59.1718444442" lon="5.87703334182">
		<tag k="amenity" v="ferry_terminal" />
		<tag k="name" v="Judaberg ferjekai" />
		<tag k="ssr:stedsnr" v="957493" />
	</node>
	<node id="-419638" lat="59.1591916674" lon="5.96984167287">
		<tag k="man_made" v="quay" />
		<tag k="name" v="Byre kai" />
		<tag k="place" v="locality" />
		<tag k="ssr:stedsnr" v="720268" />
	</node>
	<node id="-419634" lat="59.1617277746" lon="5.96305555799">
		<tag k="fixme" v="verify maritime location" />
		<tag k="mooring" v="yes" />
		<tag k="name" v="Tobbestø" />
		<tag k="place" v="locality" />
		<tag k="ssr:stedsnr" v="417262" />
	</node>
	<node id="-419887" lat="59.1141777739" lon="5.80944166126">
		<tag k="layer" v="-1" />
		<tag k="name" v="Talgjetunnelen" />
		<tag k="ssr:stedsnr" v="177212" />
		<tag k="tunnel" v="yes" />
	</node>
	<node id="-420142" lat="59.1049722207" lon="5.85876945272">
		<tag k="man_made" v="quay" />
		<tag k="name" v="Talgje kai" />
		<tag k="place" v="locality" />
		<tag k="ssr:stedsnr" v="532493" />
	</node>
	<node id="-420525" lat="59.2513833331" lon="5.83976666747">
		<tag k="bridge" v="yes" />
		<tag k="layer" v="1" />
		<tag k="name" v="Bjergøy" />
		<tag k="ssr:stedsnr" v="836593" />
	</node>
	<node id="-420140" lat="59.1256222228" lon="5.92681666174">
		<tag k="fixme" v="verify maritime location" />
		<tag k="mooring" v="yes" />
		<tag k="name" v="Utstø" />
		<tag k="place" v="locality" />
		<tag k="ssr:stedsnr" v="526124" />
	</node>
	<node id="-419871" lat="59.1704555549" lon="5.81056945294">
		<tag k="fixme" v="verify maritime location" />
		<tag k="mooring" v="yes" />
		<tag k="name" v="Engelstøa" />
		<tag k="place" v="locality" />
		<tag k="ssr:stedsnr" v="175130" />
	</node>
	<node id="-420143" lat="59.1430888873" lon="5.83000555509">
		<tag k="bridge" v="yes" />
		<tag k="layer" v="1" />
		<tag k="name" v="Bjøravågen" />
		<tag k="ssr:stedsnr" v="533498" />
	</node>
	<node id="-419608" lat="59.1480805576" lon="5.83755832699">
		<tag k="bridge" v="yes" />
		<tag k="layer" v="1" />
		<tag k="name" v="Reilstad" />
		<tag k="ssr:stedsnr" v="411460" />
	</node>
	<node id="-419609" lat="59.2697888859" lon="6.00193056011">
		<tag k="bridge" v="yes" />
		<tag k="layer" v="1" />
		<tag k="name" v="Vasshus" />
		<tag k="ssr:stedsnr" v="411483" />
	</node>
	<node id="-420242" lat="59.2438138902" lon="5.9440527724">
		<tag k="highway" v="path" />
		<tag k="name" v="Stegane" />
		<tag k="ssr:stedsnr" v="605640" />
	</node>
	<node id="-420239" lat="59.2282250006" lon="5.83193333854">
		<tag k="fixme" v="verify maritime location" />
		<tag k="mooring" v="yes" />
		<tag k="name" v="Skrivarstøa" />
		<tag k="place" v="locality" />
		<tag k="ssr:stedsnr" v="605613" />
	</node>
	<node id="-419724" lat="59.1526055517" lon="5.92063332999">
		<tag k="junction" v="yes" />
		<tag k="name" v="Sæbøkrossen" />
		<tag k="place" v="locality" />
		<tag k="ssr:stedsnr" v="53640" />
	</node>
	<node id="-419864" lat="59.2552555565" lon="5.83642500369">
		<tag k="bridge" v="yes" />
		<tag k="layer" v="1" />
		<tag k="name" v="Kyrkjøy" />
		<tag k="ssr:stedsnr" v="168476" />
	</node>
	<node id="-420360" lat="59.2046771414" lon="5.92514071272">
		<tag k="alt_name" v="Halsne ferjekai" />
		<tag k="amenity" v="ferry_terminal" />
		<tag k="name" v="Halsne ferjestø" />
		<tag k="ssr:stedsnr" v="715508" />
	</node>
	<node id="-420359" lat="59.2785583356" lon="5.95738888334">
		<tag k="bridge" v="yes" />
		<tag k="layer" v="1" />
		<tag k="name" v="Jørstad" />
		<tag k="ssr:stedsnr" v="715506" />
	</node>
	<node id="-419715" lat="59.1372972257" lon="5.90043888776">
		<tag k="amenity" v="ferry_terminal" />
		<tag k="name" v="Fogn ferjekai" />
		<tag k="ssr:stedsnr" v="47481" />
	</node>
</osm>
