<?xml version="1.0" encoding="UTF-8"?>
<osm generator="osmapis" version="0.6">
	<node id="-419840" lat="59.1782777804" lon="5.70740832923">
		<tag k="name" v="Åtholmsflua" />
		<tag k="natural" v="shoal" />
		<tag k="place" v="locality" />
		<tag k="ssr:stedsnr" v="123320" />
	</node>
	<node id="-419837" lat="59.268405557" lon="5.81416389432">
		<tag k="name" v="Bukkholmen" />
		<tag k="place" v="islet" />
		<tag k="ssr:stedsnr" v="123291" />
	</node>
	<node id="-419836" lat="59.2710388858" lon="5.8300527724">
		<tag k="alt_name" v="Nordheimsneset" />
		<tag k="name" v="Norheimsneset" />
		<tag k="natural" v="cape" />
		<tag k="ssr:stedsnr" v="123286" />
	</node>
	<node id="-419832" lat="59.1663888894" lon="5.9664055623">
		<tag k="name" v="Naustholmen" />
		<tag k="place" v="islet" />
		<tag k="ssr:stedsnr" v="122586" />
	</node>
	<node id="-419831" lat="59.1178429035" lon="5.89011485461">
		<tag k="alt_name" v="Nodavågen" />
		<tag k="name" v="Hovdavågen" />
		<tag k="natural" v="bay" />
		<tag k="ssr:stedsnr" v="122507" />
	</node>
	<node id="-419830" lat="59.1224166661" lon="5.91736388843">
		<tag k="name" v="Låvvika" />
		<tag k="natural" v="bay" />
		<tag k="ssr:stedsnr" v="122504" />
	</node>
	<node id="-419829" lat="59.1428361068" lon="5.82141944812">
		<tag k="name" v="Kindingstadvågen" />
		<tag k="natural" v="bay" />
		<tag k="ssr:stedsnr" v="122293" />
	</node>
	<node id="-419827" lat="59.1575027752" lon="5.72816665902">
		<tag k="name" v="Vågholmane" />
		<tag k="place" v="islet" />
		<tag k="ssr:stedsnr" v="122268" />
	</node>
	<node id="-419826" lat="59.2569055555" lon="5.78921944018">
		<tag k="fixme" v="consider seamark:type=rock or natural=shoal" />
		<tag k="name" v="Mortaskjeret" />
		<tag k="place" v="islet" />
		<tag k="ssr:stedsnr" v="120705" />
	</node>
	<node id="-419825" lat="59.2526694412" lon="5.7821972162">
		<tag k="name" v="Glupse" />
		<tag k="place" v="islet" />
		<tag k="ssr:stedsnr" v="120703" />
	</node>
	<node id="-419824" lat="59.2604333295" lon="5.7926444369">
		<tag k="name" v="Hedlevik" />
		<tag k="natural" v="bay" />
		<tag k="ssr:stedsnr" v="120695" />
	</node>
	<node id="-419820" lat="59.230116669" lon="5.88495833531">
		<tag k="name" v="Jektavikneset" />
		<tag k="natural" v="cape" />
		<tag k="ssr:stedsnr" v="120581" />
	</node>
	<node id="-419818" lat="59.2087222223" lon="5.81421944268">
		<tag k="name" v="Kvalen" />
		<tag k="natural" v="cape" />
		<tag k="ssr:stedsnr" v="120550" />
	</node>
	<node id="-419817" lat="59.2259222202" lon="5.80910555377">
		<tag k="name" v="Høgås" />
		<tag k="place" v="islet" />
		<tag k="ssr:stedsnr" v="120543" />
	</node>
	<node id="-419813" lat="59.2296111109" lon="5.8538638802">
		<tag k="name" v="Kvitenesvika" />
		<tag k="natural" v="bay" />
		<tag k="ssr:stedsnr" v="120018" />
	</node>
	<node id="-419810" lat="59.2052138898" lon="5.92262499838">
		<tag k="name" v="Klubbane" />
		<tag k="natural" v="cape" />
		<tag k="ssr:stedsnr" v="115846" />
	</node>
	<node id="-419809" lat="59.2023833343" lon="5.92142499464">
		<tag k="name" v="Skibet" />
		<tag k="natural" v="cape" />
		<tag k="ssr:stedsnr" v="115837" />
	</node>
	<node id="-419806" lat="59.1186555514" lon="5.89848056123">
		<tag k="name" v="Lyngskjeret" />
		<tag k="natural" v="cape" />
		<tag k="ssr:stedsnr" v="114781" />
	</node>
	<node id="-419804" lat="59.1591222186" lon="5.93859722288">
		<tag k="name" v="Riseraua" />
		<tag k="natural" v="cape" />
		<tag k="ssr:stedsnr" v="114623" />
	</node>
	<node id="-419803" lat="59.1815305543" lon="5.95671111794">
		<tag k="name" v="Espenes" />
		<tag k="natural" v="cape" />
		<tag k="ssr:stedsnr" v="114476" />
	</node>
	<node id="-419802" lat="59.171405557" lon="5.94231110278">
		<tag k="name" v="Storavika" />
		<tag k="natural" v="bay" />
		<tag k="ssr:stedsnr" v="114474" />
	</node>
	<node id="-419800" lat="59.1278888885" lon="5.89154443634">
		<tag k="name" v="Vaulavika" />
		<tag k="natural" v="bay" />
		<tag k="ssr:stedsnr" v="114356" />
	</node>
	<node id="-419798" lat="59.1381388892" lon="5.89280000539">
		<tag k="name" v="Bøholmsundet" />
		<tag k="natural" v="strait" />
		<tag k="ssr:stedsnr" v="114344" />
	</node>
	<node id="-419797" lat="59.1371591432" lon="5.89983202568">
		<tag k="name" v="Gjellarvika" />
		<tag k="natural" v="bay" />
		<tag k="ssr:stedsnr" v="114341" />
	</node>
	<node id="-419793" lat="59.1744305594" lon="5.73871667071">
		<tag k="name" v="Indre Alnaskjer" />
		<tag k="place" v="islet" />
		<tag k="ssr:stedsnr" v="114196" />
	</node>
	<node id="-419790" lat="59.2006750031" lon="5.82546388169">
		<tag k="name" v="Austra Bragavika" />
		<tag k="natural" v="bay" />
		<tag k="ssr:stedsnr" v="114241" />
	</node>
	<node id="-419789" lat="59.1681166637" lon="5.74528610333">
		<tag k="name" v="Anisholmen" />
		<tag k="place" v="islet" />
		<tag k="ssr:stedsnr" v="114227" />
	</node>
	<node id="-419787" lat="59.2341027763" lon="5.74927500211">
		<tag k="name" v="Andreggrunnen" />
		<tag k="natural" v="shoal" />
		<tag k="place" v="locality" />
		<tag k="ssr:stedsnr" v="102355" />
	</node>
	<node id="-419786" lat="59.225241664" lon="5.84861945186">
		<tag k="name" v="Kobbavika" />
		<tag k="natural" v="bay" />
		<tag k="ssr:stedsnr" v="102337" />
	</node>
	<node id="-419785" lat="59.1837805591" lon="5.80284722673">
		<tag k="name" v="Vestbøneset" />
		<tag k="natural" v="cape" />
		<tag k="ssr:stedsnr" v="102227" />
	</node>
	<node id="-419783" lat="59.2279055593" lon="5.88598610887">
		<tag k="name" v="Finnøyvika" />
		<tag k="natural" v="bay" />
		<tag k="ssr:stedsnr" v="100683" />
	</node>
	<node id="-419782" lat="59.2451194421" lon="5.79127777827">
		<tag k="name" v="Hestatangane" />
		<tag k="natural" v="cape" />
		<tag k="ssr:stedsnr" v="100297" />
	</node>
	<node id="-419781" lat="59.2551750045" lon="5.77669444366">
		<tag k="name" v="Finnborgskallane" />
		<tag k="natural" v="shoal" />
		<tag k="place" v="locality" />
		<tag k="ssr:stedsnr" v="100288" />
	</node>
	<node id="-419780" lat="59.1745805562" lon="5.94129167202">
		<tag k="name" v="Brørne" />
		<tag k="natural" v="shoal" />
		<tag k="place" v="locality" />
		<tag k="ssr:stedsnr" v="86987" />
	</node>
	<node id="-419779" lat="59.1564333372" lon="5.97530000692">
		<tag k="name" v="Djupevik" />
		<tag k="natural" v="bay" />
		<tag k="ssr:stedsnr" v="86044" />
	</node>
	<node id="-419778" lat="59.2559999984" lon="5.8844000024">
		<tag k="alt_name" v="Kvedlandsneset" />
		<tag k="name" v="Kvellandsneset" />
		<tag k="natural" v="cape" />
		<tag k="ssr:stedsnr" v="63677" />
	</node>
	<node id="-419774" lat="59.1054666707" lon="5.85863888732">
		<tag k="alt_name" v="Gongstøvik" />
		<tag k="name" v="Gongstødvika" />
		<tag k="natural" v="bay" />
		<tag k="ssr:stedsnr" v="63534" />
	</node>
	<node id="-419773" lat="59.2517861154" lon="5.78813333336">
		<tag k="name" v="Tønnesundet" />
		<tag k="natural" v="strait" />
		<tag k="ssr:stedsnr" v="63295" />
	</node>
	<node id="-419772" lat="59.2636388877" lon="5.81959999226">
		<tag k="name" v="Skipavågen" />
		<tag k="natural" v="bay" />
		<tag k="ssr:stedsnr" v="63285" />
	</node>
	<node id="-419771" lat="59.2558527809" lon="5.78357500503">
		<tag k="name" v="Finnborg" />
		<tag k="place" v="islet" />
		<tag k="ssr:stedsnr" v="63278" />
	</node>
	<node id="-419770" lat="59.1928500035" lon="5.86352778191">
		<tag k="name" v="Skallen" />
		<tag k="natural" v="shoal" />
		<tag k="place" v="locality" />
		<tag k="ssr:stedsnr" v="62934" />
	</node>
	<node id="-419768" lat="59.1953611081" lon="5.84561110273">
		<tag k="name" v="Sandvika" />
		<tag k="natural" v="bay" />
		<tag k="ssr:stedsnr" v="62919" />
	</node>
	<node id="-419767" lat="59.199275001" lon="5.93335278606">
		<tag k="alt_name" v="Hellestød;Hedlestød" />
		<tag k="name" v="Hellestø" />
		<tag k="natural" v="bay" />
		<tag k="ssr:stedsnr" v="62916" />
	</node>
	<node id="-419766" lat="59.1457833328" lon="5.84647777492">
		<tag k="name" v="Krossnes" />
		<tag k="natural" v="cape" />
		<tag k="ssr:stedsnr" v="62591" />
	</node>
	<node id="-419764" lat="59.1388888878" lon="5.90000000528">
		<tag k="name" v="Fogn" />
		<tag k="place" v="island" />
		<tag k="ssr:stedsnr" v="62546" />
	</node>
	<node id="-419763" lat="59.2451991147" lon="5.78575704022">
		<tag k="fixme" v="consider seamark:type=rock or natural=shoal" />
		<tag k="name" v="Mele" />
		<tag k="place" v="islet" />
		<tag k="ssr:stedsnr" v="62445" />
	</node>
	<node id="-419762" lat="59.1673222185" lon="5.73911388098">
		<tag k="loc_name" v="Fladholmane" />
		<tag k="name" v="Flatholmane" />
		<tag k="place" v="islet" />
		<tag k="ssr:stedsnr" v="62291" />
	</node>
	<node id="-419761" lat="59.1700444414" lon="5.71546667481">
		<tag k="name" v="Skallen" />
		<tag k="natural" v="shoal" />
		<tag k="place" v="locality" />
		<tag k="ssr:stedsnr" v="62290" />
	</node>
	<node id="-419760" lat="59.1745194452" lon="5.73890277983">
		<tag k="fixme" v="consider seamark:type=rock or natural=shoal" />
		<tag k="name" v="Alneskjera" />
		<tag k="place" v="islet" />
		<tag k="ssr:stedsnr" v="62285" />
	</node>
	<node id="-419759" lat="59.1462555523" lon="5.77788888361">
		<tag k="alt_name" v="Risnes" />
		<tag k="name" v="Risneset" />
		<tag k="natural" v="cape" />
		<tag k="ssr:stedsnr" v="62265" />
	</node>
	<node id="-419757" lat="59.2771138902" lon="5.87278056037">
		<tag k="name" v="Nordevågen" />
		<tag k="natural" v="bay" />
		<tag k="ssr:stedsnr" v="60748" />
	</node>
	<node id="-419751" lat="59.2085111147" lon="5.93315554985">
		<tag k="name" v="Brattestøvik" />
		<tag k="natural" v="bay" />
		<tag k="ssr:stedsnr" v="60575" />
	</node>
	<node id="-419750" lat="59.2457361115" lon="5.82807778354">
		<tag k="name" v="Tjularkjeringa" />
		<tag k="natural" v="shoal" />
		<tag k="place" v="locality" />
		<tag k="ssr:stedsnr" v="60550" />
	</node>
	<node id="-419748" lat="59.217614125" lon="5.8070258031">
		<tag k="name" v="Søre Svorteskjera" />
		<tag k="place" v="islet" />
		<tag k="ssr:stedsnr" v="60537" />
	</node>
	<node id="-419747" lat="59.2278194402" lon="5.78690554861">
		<tag k="name" v="Strekkjavika" />
		<tag k="natural" v="bay" />
		<tag k="ssr:stedsnr" v="60504" />
	</node>
	<node id="-419746" lat="59.2428111133" lon="5.81535278505">
		<tag k="name" v="Kattholmen" />
		<tag k="place" v="islet" />
		<tag k="ssr:stedsnr" v="60500" />
	</node>
	<node id="-419745" lat="59.2716861098" lon="5.88105555656">
		<tag k="name" v="Kvednavika" />
		<tag k="natural" v="bay" />
		<tag k="ssr:stedsnr" v="60467" />
	</node>
	<node id="-419744" lat="59.2507888877" lon="5.88284443725">
		<tag k="fixme" v="consider seamark:type=rock or natural=shoal" />
		<tag k="name" v="Kvedlandsskjera" />
		<tag k="place" v="islet" />
		<tag k="ssr:stedsnr" v="60465" />
	</node>
	<node id="-419736" lat="59.204474996" lon="5.92856111554">
		<tag k="alt_name" v="Bådavika" />
		<tag k="name" v="Båtavika" />
		<tag k="natural" v="bay" />
		<tag k="ssr:stedsnr" v="54877" />
	</node>
	<node id="-419734" lat="59.1193555553" lon="5.89319167234">
		<tag k="name" v="Naustvågen" />
		<tag k="natural" v="bay" />
		<tag k="ssr:stedsnr" v="54768" />
	</node>
	<node id="-419732" lat="59.1715777785" lon="5.97077499157">
		<tag k="name" v="Klubben" />
		<tag k="natural" v="cape" />
		<tag k="ssr:stedsnr" v="54464" />
	</node>
	<node id="-419730" lat="59.1876222235" lon="5.80952777611">
		<tag k="name" v="Stabbanes" />
		<tag k="natural" v="cape" />
		<tag k="ssr:stedsnr" v="54247" />
	</node>
	<node id="-419729" lat="59.1658083303" lon="5.75038888158">
		<tag k="name" v="Litle Kobbholmen" />
		<tag k="place" v="islet" />
		<tag k="ssr:stedsnr" v="54244" />
	</node>
	<node id="-419726" lat="59.1762999989" lon="5.9690638886">
		<tag k="name" v="Ørnakulholmen" />
		<tag k="place" v="islet" />
		<tag k="ssr:stedsnr" v="54061" />
	</node>
	<node id="-419722" lat="59.158113892" lon="5.86470556269">
		<tag k="name" v="Buvika" />
		<tag k="natural" v="bay" />
		<tag k="ssr:stedsnr" v="53630" />
	</node>
	<node id="-419719" lat="59.1332833298" lon="5.88860555221">
		<tag k="name" v="Foreholmen" />
		<tag k="place" v="islet" />
		<tag k="ssr:stedsnr" v="53352" />
	</node>
	<node id="-419717" lat="59.1864987953" lon="5.94789516688">
		<tag k="name" v="Nordra Nødvika" />
		<tag k="natural" v="bay" />
		<tag k="ssr:stedsnr" v="53327" />
	</node>
	<node id="-419714" lat="59.2254305535" lon="5.83599721831">
		<tag k="name" v="Talgjevågen" />
		<tag k="natural" v="bay" />
		<tag k="ssr:stedsnr" v="41307" />
	</node>
	<node id="-419713" lat="59.225288886" lon="5.80346665906">
		<tag k="name" v="Skadfluneset" />
		<tag k="natural" v="cape" />
		<tag k="ssr:stedsnr" v="41302" />
	</node>
	<node id="-419712" lat="59.1060444456" lon="5.85919166593">
		<tag k="name" v="Gongstøholmen" />
		<tag k="place" v="islet" />
		<tag k="ssr:stedsnr" v="41088" />
	</node>
	<node id="-419711" lat="59.1711944442" lon="5.76918611579">
		<tag k="name" v="Abalflua" />
		<tag k="natural" v="shoal" />
		<tag k="place" v="locality" />
		<tag k="ssr:stedsnr" v="40249" />
	</node>
	<node id="-419710" lat="59.1628527802" lon="5.73222221578">
		<tag k="fixme" v="consider seamark:type=rock or natural=shoal" />
		<tag k="name" v="Basen" />
		<tag k="place" v="islet" />
		<tag k="ssr:stedsnr" v="40254" />
	</node>
	<node id="-419709" lat="59.2946388846" lon="6.03759167442">
		<tag k="name" v="Kunes" />
		<tag k="natural" v="cape" />
		<tag k="ssr:stedsnr" v="39480" />
	</node>
	<node id="-419708" lat="59.2890583363" lon="5.80045277258">
		<tag k="alt_name" v="Rinkeneset" />
		<tag k="name" v="Rinkenes" />
		<tag k="natural" v="cape" />
		<tag k="ssr:stedsnr" v="39306" />
	</node>
	<node id="-419705" lat="59.163413891" lon="5.96329166817">
		<tag k="name" v="Åsneset" />
		<tag k="natural" v="cape" />
		<tag k="ssr:stedsnr" v="25037" />
	</node>
	<node id="-419704" lat="59.126447223" lon="5.93097221862">
		<tag k="name" v="Vardnesvika" />
		<tag k="natural" v="bay" />
		<tag k="ssr:stedsnr" v="25030" />
	</node>
	<node id="-419701" lat="59.2498500014" lon="5.88462500028">
		<tag k="alt_name" v="Kvedlandsholmen" />
		<tag k="name" v="Kvellandsholmen" />
		<tag k="place" v="islet" />
		<tag k="ssr:stedsnr" v="2683" />
	</node>
	<node id="-419700" lat="59.2816000038" lon="5.87134999472">
		<tag k="alt_name" v="Tennholmane" />
		<tag k="name" v="Ternholmane" />
		<tag k="place" v="islet" />
		<tag k="ssr:stedsnr" v="2631" />
	</node>
	<node id="-419699" lat="59.2803750042" lon="5.86169999399">
		<tag k="name" v="Dyrnes" />
		<tag k="natural" v="cape" />
		<tag k="ssr:stedsnr" v="2628" />
	</node>
	<node id="-419698" lat="59.2908999995" lon="5.98717500835">
		<tag k="fixme" v="consider seamark:type=rock or natural=shoal" />
		<tag k="name" v="Hagaskjeret" />
		<tag k="place" v="islet" />
		<tag k="ssr:stedsnr" v="2626" />
	</node>
	<node id="-419696" lat="59.2514331366" lon="5.85337918548">
		<tag k="alt_name" v="Aubesundet;Audbøsundet" />
		<tag k="name" v="Aubøsundet" />
		<tag k="natural" v="strait" />
		<tag k="ssr:stedsnr" v="2584" />
	</node>
	<node id="-419695" lat="59.1290698839" lon="5.94334669718">
		<tag k="loc_name" v="Søravåggrunnen" />
		<tag k="name" v="Sørvåggrunnen" />
		<tag k="natural" v="shoal" />
		<tag k="place" v="locality" />
		<tag k="ssr:stedsnr" v="2560" />
	</node>
	<node id="-419693" lat="59.1723472197" lon="5.70106389468">
		<tag k="alt_name" v="Ådholmane" />
		<tag k="name" v="Åtholmane" />
		<tag k="place" v="islet" />
		<tag k="ssr:stedsnr" v="2326" />
	</node>
	<node id="-419692" lat="59.2537974489" lon="5.7865134715">
		<tag k="alt_name" v="Lundarøyna;Lundaøya" />
		<tag k="name" v="Lundarøy" />
		<tag k="place" v="islet" />
		<tag k="ssr:stedsnr" v="2286" />
	</node>
	<node id="-419691" lat="59.2665861133" lon="5.75995832754">
		<tag k="name" v="Arsteingrunnen" />
		<tag k="natural" v="shoal" />
		<tag k="place" v="locality" />
		<tag k="ssr:stedsnr" v="2275" />
	</node>
	<node id="-419690" lat="59.1872666628" lon="5.87291943979">
		<tag k="alt_name" v="Nordre Høynes" />
		<tag k="name" v="Høynes" />
		<tag k="natural" v="cape" />
		<tag k="ssr:stedsnr" v="1925" />
	</node>
	<node id="-419689" lat="59.1967916623" lon="5.84461388689">
		<tag k="alt_name" v="Varanes" />
		<tag k="name" v="Vardanes" />
		<tag k="natural" v="cape" />
		<tag k="ssr:stedsnr" v="1907" />
	</node>
	<node id="-419688" lat="59.1630138866" lon="5.95931667508">
		<tag k="alt_name" v="Tjødnasundet" />
		<tag k="name" v="Tjørnasundet" />
		<tag k="natural" v="strait" />
		<tag k="ssr:stedsnr" v="1604" />
	</node>
	<node id="-419687" lat="59.1502972209" lon="5.95999444387">
		<tag k="fixme" v="consider seamark:type=rock or natural=shoal" />
		<tag k="name" v="Gulaskjer" />
		<tag k="place" v="islet" />
		<tag k="ssr:stedsnr" v="1575" />
	</node>
	<node id="-419686" lat="59.1387361136" lon="5.89150000077">
		<tag k="name" v="Bøholmen" />
		<tag k="place" v="islet" />
		<tag k="ssr:stedsnr" v="1571" />
	</node>
	<node id="-419685" lat="59.1324416648" lon="5.88383889631">
		<tag k="name" v="Ytstholmsundet" />
		<tag k="natural" v="strait" />
		<tag k="ssr:stedsnr" v="1555" />
	</node>
	<node id="-419684" lat="59.2402138895" lon="5.82464444635">
		<tag k="name" v="Tjul" />
		<tag k="place" v="island" />
		<tag k="ssr:stedsnr" v="1469" />
	</node>
	<node id="-419683" lat="59.1828083365" lon="5.95761110967">
		<tag k="name" v="Djupevik" />
		<tag k="natural" v="bay" />
		<tag k="ssr:stedsnr" v="1359" />
	</node>
	<node id="-419682" lat="59.1313111086" lon="5.80125555711">
		<tag k="name" v="Navarflua" />
		<tag k="natural" v="shoal" />
		<tag k="place" v="locality" />
		<tag k="ssr:stedsnr" v="1346" />
	</node>
	<node id="-419647" lat="59.158133333" lon="5.98701388171">
		<tag k="name" v="Foreholmen" />
		<tag k="place" v="islet" />
		<tag k="ssr:stedsnr" v="903291" />
	</node>
	<node id="-419646" lat="59.1589416703" lon="5.99084444169">
		<tag k="name" v="Sloane" />
		<tag k="place" v="locality" />
		<tag k="seamark:type" v="rock" />
		<tag k="ssr:stedsnr" v="721238" />
	</node>
	<node id="-419644" lat="59.1633611127" lon="5.98804166508">
		<tag k="name" v="Saltkil" />
		<tag k="natural" v="bay" />
		<tag k="ssr:stedsnr" v="235265" />
	</node>
	<node id="-419643" lat="59.1574972227" lon="5.98546111445">
		<tag k="name" v="Såmet" />
		<tag k="natural" v="shoal" />
		<tag k="place" v="locality" />
		<tag k="ssr:stedsnr" v="114300" />
	</node>
	<node id="-419642" lat="59.1602305583" lon="5.99024165995">
		<tag k="name" v="Sloane" />
		<tag k="natural" v="shoal" />
		<tag k="place" v="locality" />
		<tag k="ssr:stedsnr" v="114260" />
	</node>
	<node id="-419637" lat="59.1560305544" lon="5.97650833804">
		<tag k="name" v="Ropenes" />
		<tag k="natural" v="cape" />
		<tag k="ssr:stedsnr" v="599271" />
	</node>
	<node id="-419633" lat="59.1621722242" lon="5.95437221968">
		<tag k="name" v="Kokesund" />
		<tag k="natural" v="strait" />
		<tag k="ssr:stedsnr" v="356258" />
	</node>
	<node id="-419632" lat="59.1551277765" lon="5.97326388926">
		<tag k="name" v="Orreholmane" />
		<tag k="place" v="islet" />
		<tag k="ssr:stedsnr" v="235316" />
	</node>
	<node id="-419630" lat="59.2319762" lon="5.80423205951">
		<tag k="alt_name" v="Nordre Rossmarkvågen" />
		<tag k="name" v="Nordre Rossmorkvågen" />
		<tag k="natural" v="bay" />
		<tag k="ssr:stedsnr" v="891342" />
	</node>
	<node id="-419628" lat="59.1189027202" lon="5.90023656905">
		<tag k="name" v="Sandvik" />
		<tag k="natural" v="bay" />
		<tag k="ssr:stedsnr" v="891139" />
	</node>
	<node id="-419626" lat="59.2455426354" lon="5.93216419696">
		<tag k="name" v="Støvika" />
		<tag k="natural" v="bay" />
		<tag k="ssr:stedsnr" v="889699" />
	</node>
	<node id="-419625" lat="59.2595916637" lon="5.92375556032">
		<tag k="alt_name" v="Klubben" />
		<tag k="name" v="Klubbane" />
		<tag k="natural" v="cape" />
		<tag k="ssr:stedsnr" v="889671" />
	</node>
	<node id="-419624" lat="59.2548249994" lon="5.79374999803">
		<tag k="name" v="Bekkjarvika" />
		<tag k="natural" v="bay" />
		<tag k="ssr:stedsnr" v="889331" />
	</node>
	<node id="-419622" lat="59.1129527754" lon="5.8564611031">
		<tag k="name" v="Forekongsvika" />
		<tag k="natural" v="bay" />
		<tag k="ssr:stedsnr" v="478982" />
	</node>
	<node id="-419620" lat="59.1577222211" lon="5.93186389464">
		<tag k="name" v="Aplanes" />
		<tag k="natural" v="cape" />
		<tag k="ssr:stedsnr" v="478612" />
	</node>
	<node id="-419618" lat="59.1562805522" lon="5.85245000717">
		<tag k="name" v="Leirå" />
		<tag k="natural" v="bay" />
		<tag k="ssr:stedsnr" v="478595" />
	</node>
	<node id="-419617" lat="59.1243777759" lon="5.87518610894">
		<tag k="fixme" v="consider seamark:type=rock or natural=shoal" />
		<tag k="name" v="Oksen" />
		<tag k="place" v="islet" />
		<tag k="ssr:stedsnr" v="478351" />
	</node>
	<node id="-419613" lat="59.1709252342" lon="5.80924976067">
		<tag k="name" v="Naustvika" />
		<tag k="natural" v="bay" />
		<tag k="ssr:stedsnr" v="478126" />
	</node>
	<node id="-419612" lat="59.1773305537" lon="5.7789388918">
		<tag k="fixme" v="consider seamark:type=rock or natural=shoal" />
		<tag k="name" v="Galten" />
		<tag k="place" v="islet" />
		<tag k="ssr:stedsnr" v="478111" />
	</node>
	<node id="-419610" lat="59.1555361068" lon="5.77271110869">
		<tag k="name" v="Stokkevika" />
		<tag k="natural" v="bay" />
		<tag k="ssr:stedsnr" v="477568" />
	</node>
	<node id="-419607" lat="59.2232916626" lon="5.82166111008">
		<tag k="name" v="Ulsvik" />
		<tag k="natural" v="bay" />
		<tag k="ssr:stedsnr" v="405287" />
	</node>
	<node id="-419606" lat="59.228419444" lon="5.83587778583">
		<tag k="name" v="Nesodden" />
		<tag k="natural" v="cape" />
		<tag k="ssr:stedsnr" v="405283" />
	</node>
	<node id="-419605" lat="59.2027138861" lon="5.95766389428">
		<tag k="name" v="Skardtveitgrunnen" />
		<tag k="natural" v="shoal" />
		<tag k="place" v="locality" />
		<tag k="ssr:stedsnr" v="405224" />
	</node>
	<node id="-419604" lat="59.1393694482" lon="5.84324722587">
		<tag k="name" v="Reilstadhausen" />
		<tag k="natural" v="shoal" />
		<tag k="place" v="locality" />
		<tag k="ssr:stedsnr" v="405069" />
	</node>
	<node id="-419603" lat="59.1466805554" lon="5.96052499433">
		<tag k="name" v="Bjørkholmgrunnen" />
		<tag k="natural" v="shoal" />
		<tag k="place" v="locality" />
		<tag k="ssr:stedsnr" v="405004" />
	</node>
	<node id="-419601" lat="59.3021944445" lon="6.07339165841">
		<tag k="name" v="Ryggen" />
		<tag k="natural" v="shoal" />
		<tag k="place" v="locality" />
		<tag k="ssr:stedsnr" v="403902" />
	</node>
	<node id="-419600" lat="59.228766666" lon="5.89688334088">
		<tag k="alt_name" v="Morkeneset" />
		<tag k="name" v="Mørkeneset" />
		<tag k="natural" v="cape" />
		<tag k="ssr:stedsnr" v="403705" />
	</node>
	<node id="-419598" lat="59.261338886" lon="5.76723056352">
		<tag k="name" v="Midtflua" />
		<tag k="natural" v="shoal" />
		<tag k="place" v="locality" />
		<tag k="ssr:stedsnr" v="403308" />
	</node>
	<node id="-419597" lat="59.2320944431" lon="5.91080278276">
		<tag k="bay" v="fjord" />
		<tag k="name" v="Ombofjorden" />
		<tag k="natural" v="bay" />
		<tag k="ssr:stedsnr" v="366987" />
	</node>
	<node id="-419596" lat="59.2399467026" lon="5.93147852523">
		<tag k="name" v="Knarravika" />
		<tag k="natural" v="bay" />
		<tag k="ssr:stedsnr" v="366985" />
	</node>
	<node id="-419592" lat="59.1734222223" lon="5.98584443664">
		<tag k="name" v="Forøya" />
		<tag k="place" v="islet" />
		<tag k="ssr:stedsnr" v="366616" />
	</node>
	<node id="-419590" lat="59.2768750042" lon="5.94197499238">
		<tag k="name" v="Heggvika" />
		<tag k="natural" v="bay" />
		<tag k="ssr:stedsnr" v="366609" />
	</node>
	<node id="-419587" lat="59.1094111098" lon="5.88614999265">
		<tag k="name" v="Kyrkjeskjeret" />
		<tag k="place" v="islet" />
		<tag k="ssr:stedsnr" v="366523" />
	</node>
	<node id="-419586" lat="59.1705444459" lon="5.82779165987">
		<tag k="name" v="Finnøy" />
		<tag k="place" v="island" />
		<tag k="ssr:stedsnr" v="366303" />
	</node>
	<node id="-419585" lat="59.1942500034" lon="5.93816388266">
		<tag k="alt_name" v="Vearvika" />
		<tag k="name" v="Vedarvika" />
		<tag k="natural" v="bay" />
		<tag k="ssr:stedsnr" v="365938" />
	</node>
	<node id="-419584" lat="59.1903277746" lon="5.98446110648">
		<tag k="name" v="Herøya" />
		<tag k="place" v="islet" />
		<tag k="ssr:stedsnr" v="365937" />
	</node>
	<node id="-419583" lat="59.1695500032" lon="5.97245832896">
		<tag k="alt_name" v="Hedleholmen" />
		<tag k="name" v="Helleholmen" />
		<tag k="place" v="islet" />
		<tag k="ssr:stedsnr" v="365610" />
	</node>
	<node id="-419582" lat="59.1497638887" lon="5.98339166409">
		<tag k="alt_name" v="Storavik" />
		<tag k="name" v="Storavika" />
		<tag k="natural" v="bay" />
		<tag k="ssr:stedsnr" v="365572" />
	</node>
	<node id="-419581" lat="59.1487638909" lon="5.98008889129">
		<tag k="name" v="Buøytangane" />
		<tag k="natural" v="cape" />
		<tag k="ssr:stedsnr" v="365569" />
	</node>
	<node id="-419579" lat="59.1212555517" lon="5.87830000146">
		<tag k="alt_name" v="Skjøljarvikane" />
		<tag k="name" v="Skyljavika" />
		<tag k="natural" v="bay" />
		<tag k="ssr:stedsnr" v="365532" />
	</node>
	<node id="-419578" lat="59.118638893" lon="5.90777500339">
		<tag k="name" v="Trollaneset" />
		<tag k="natural" v="cape" />
		<tag k="ssr:stedsnr" v="365528" />
	</node>
	<node id="-419576" lat="59.2415388882" lon="5.81918056072">
		<tag k="alt_name" v="Kvednavika" />
		<tag k="name" v="Kverravika" />
		<tag k="natural" v="bay" />
		<tag k="ssr:stedsnr" v="365479" />
	</node>
	<node id="-419575" lat="59.2282499994" lon="5.7846388898">
		<tag k="name" v="Talgjeholmen" />
		<tag k="place" v="islet" />
		<tag k="ssr:stedsnr" v="365468" />
	</node>
	<node id="-419574" lat="59.1721444487" lon="5.77703332779">
		<tag k="name" v="Apalvika" />
		<tag k="natural" v="bay" />
		<tag k="ssr:stedsnr" v="365321" />
	</node>
	<node id="-419573" lat="59.1582194489" lon="5.77246388737">
		<tag k="name" v="Sævheimneset" />
		<tag k="natural" v="cape" />
		<tag k="ssr:stedsnr" v="365262" />
	</node>
	<node id="-419570" lat="59.2675416642" lon="5.81163611825">
		<tag k="name" v="Gannholmen" />
		<tag k="place" v="islet" />
		<tag k="ssr:stedsnr" v="363689" />
	</node>
	<node id="-419569" lat="59.2571666634" lon="5.78708889139">
		<tag k="loc_name" v="Skuta" />
		<tag k="name" v="Skudå" />
		<tag k="place" v="islet" />
		<tag k="ssr:stedsnr" v="363684" />
	</node>
	<node id="-419565" lat="59.23427741" lon="5.9405807596">
		<tag k="name" v="Savika" />
		<tag k="natural" v="bay" />
		<tag k="ssr:stedsnr" v="363585" />
	</node>
	<node id="-419563" lat="59.2214500034" lon="5.80626389704">
		<tag k="name" v="Nordre Svorteskjera" />
		<tag k="place" v="islet" />
		<tag k="ssr:stedsnr" v="363517" />
	</node>
	<node id="-419561" lat="59.2796583359" lon="5.94738889402">
		<tag k="name" v="Laksstø" />
		<tag k="natural" v="bay" />
		<tag k="ssr:stedsnr" v="363416" />
	</node>
	<node id="-419555" lat="59.1453444411" lon="5.84360556296">
		<tag k="name" v="Djupevik" />
		<tag k="natural" v="bay" />
		<tag k="ssr:stedsnr" v="357561" />
	</node>
	<node id="-419547" lat="59.1687750029" lon="5.73685555295">
		<tag k="alt_name" v="Vestre Fladholmen" />
		<tag k="name" v="Vestre Flatholmen" />
		<tag k="place" v="islet" />
		<tag k="ssr:stedsnr" v="357232" />
	</node>
	<node id="-419546" lat="59.1667916625" lon="5.73195277696">
		<tag k="name" v="Varøyvågen" />
		<tag k="natural" v="bay" />
		<tag k="ssr:stedsnr" v="357227" />
	</node>
	<node id="-419543" lat="59.166149998" lon="5.79226110742">
		<tag k="name" v="Svinsnes" />
		<tag k="natural" v="cape" />
		<tag k="ssr:stedsnr" v="357124" />
	</node>
	<node id="-419542" lat="59.1736960701" lon="5.79559029518">
		<tag k="name" v="Hesbyvågen" />
		<tag k="natural" v="bay" />
		<tag k="ssr:stedsnr" v="357121" />
	</node>
	<node id="-419538" lat="59.2204441731" lon="5.84701412131">
		<tag k="fixme" v="consider seamark:type=rock or natural=shoal" />
		<tag k="name" v="Helgøyhunden" />
		<tag k="place" v="islet" />
		<tag k="ssr:stedsnr" v="344278" />
	</node>
	<node id="-419535" lat="59.2256527782" lon="5.95476111336">
		<tag k="name" v="Gardvikneset" />
		<tag k="natural" v="cape" />
		<tag k="ssr:stedsnr" v="342648" />
	</node>
	<node id="-419534" lat="59.2825638853" lon="5.90151944197">
		<tag k="name" v="Nordgrunnen" />
		<tag k="natural" v="shoal" />
		<tag k="place" v="locality" />
		<tag k="ssr:stedsnr" v="342626" />
	</node>
	<node id="-419533" lat="59.2886305581" lon="5.93460554984">
		<tag k="name" v="Jørstadgrunnen" />
		<tag k="natural" v="shoal" />
		<tag k="place" v="locality" />
		<tag k="ssr:stedsnr" v="342623" />
	</node>
	<node id="-419530" lat="59.2900000007" lon="5.96437499755">
		<tag k="fixme" v="consider seamark:type=rock or natural=shoal" />
		<tag k="name" v="Rørheimsskjera" />
		<tag k="place" v="islet" />
		<tag k="ssr:stedsnr" v="306566" />
	</node>
	<node id="-419526" lat="59.1944750026" lon="5.96960555293">
		<tag k="name" v="Gullholmsundet" />
		<tag k="natural" v="strait" />
		<tag k="ssr:stedsnr" v="305923" />
	</node>
	<node id="-419522" lat="59.1019999969" lon="5.84524167496">
		<tag k="alt_name" v="Gardsvåg" />
		<tag k="name" v="Gardsvågen" />
		<tag k="natural" v="bay" />
		<tag k="ssr:stedsnr" v="305729" />
	</node>
	<node id="-419521" lat="59.1699638867" lon="5.98028055068">
		<tag k="fixme" v="consider seamark:type=rock or natural=shoal" />
		<tag k="name" v="Skarvaskjera" />
		<tag k="place" v="islet" />
		<tag k="ssr:stedsnr" v="305658" />
	</node>
	<node id="-419517" lat="59.1506472221" lon="5.9546083318">
		<tag k="name" v="Teistholmen" />
		<tag k="place" v="island" />
		<tag k="ssr:stedsnr" v="305632" />
	</node>
	<node id="-419516" lat="59.1483138856" lon="5.95938055058">
		<tag k="name" v="Bjørkholmen" />
		<tag k="place" v="islet" />
		<tag k="ssr:stedsnr" v="305623" />
	</node>
	<node id="-419511" lat="59.1039388899" lon="5.85866666878">
		<tag k="name" v="Gardsneset" />
		<tag k="natural" v="cape" />
		<tag k="ssr:stedsnr" v="305566" />
	</node>
	<node id="-419510" lat="59.1111416655" lon="5.89285277744">
		<tag k="name" v="Rossøysundet" />
		<tag k="natural" v="strait" />
		<tag k="ssr:stedsnr" v="305563" />
	</node>
	<node id="-419509" lat="59.2254361138" lon="5.75313889323">
		<tag k="alt_name" v="Andreg, store" />
		<tag k="fixme" v="consider seamark:type=rock or natural=shoal" />
		<tag k="name" v="Store Andreg" />
		<tag k="place" v="islet" />
		<tag k="ssr:stedsnr" v="305486" />
	</node>
	<node id="-419508" lat="59.2225744928" lon="5.83046201948">
		<tag k="alt_name" v="Nord-Talgje" />
		<tag k="name" v="Talgje" />
		<tag k="place" v="island" />
		<tag k="ssr:stedsnr" v="305482" />
	</node>
	<node id="-419507" lat="59.112608336" lon="5.83305000458">
		<tag k="name" v="Nordstø" />
		<tag k="natural" v="bay" />
		<tag k="ssr:stedsnr" v="305331" />
	</node>
	<node id="-419506" lat="59.1751499961" lon="5.77396666485">
		<tag k="alt_name" v="Habnene" />
		<tag k="name" v="Hamnene" />
		<tag k="natural" v="bay" />
		<tag k="ssr:stedsnr" v="305312" />
	</node>
	<node id="-419505" lat="59.1979749963" lon="5.81760278489">
		<tag k="name" v="Skjortevika" />
		<tag k="natural" v="bay" />
		<tag k="ssr:stedsnr" v="305300" />
	</node>
	<node id="-419502" lat="59.275075003" lon="5.81183888955">
		<tag k="alt_name" v="Staub" />
		<tag k="name" v="Staup" />
		<tag k="place" v="islet" />
		<tag k="ssr:stedsnr" v="305255" />
	</node>
	<node id="-419499" lat="59.1653750017" lon="5.95536111668">
		<tag k="name" v="Tjørna" />
		<tag k="place" v="island" />
		<tag k="ssr:stedsnr" v="304608" />
	</node>
	<node id="-419497" lat="59.1653111094" lon="5.74882500789">
		<tag k="name" v="Kobbholmane" />
		<tag k="place" v="islet" />
		<tag k="ssr:stedsnr" v="304297" />
	</node>
	<node id="-419496" lat="59.1672777824" lon="5.80084167364">
		<tag k="alt_name" v="Steinneset" />
		<tag k="name" v="Steinnes" />
		<tag k="natural" v="cape" />
		<tag k="ssr:stedsnr" v="304244" />
	</node>
	<node id="-419495" lat="59.2473027821" lon="5.78571944583">
		<tag k="fixme" v="consider seamark:type=rock or natural=shoal" />
		<tag k="name" v="Låven" />
		<tag k="place" v="islet" />
		<tag k="ssr:stedsnr" v="302796" />
	</node>
	<node id="-419494" lat="59.2626416635" lon="5.79991389624">
		<tag k="name" v="Krabbavad" />
		<tag k="natural" v="bay" />
		<tag k="ssr:stedsnr" v="302724" />
	</node>
	<node id="-419493" lat="59.279630553" lon="5.80290277042">
		<tag k="name" v="Sjellågo" />
		<tag k="place" v="islet" />
		<tag k="ssr:stedsnr" v="302715" />
	</node>
	<node id="-419492" lat="59.2490916695" lon="5.92964999182">
		<tag k="name" v="Naustneset" />
		<tag k="natural" v="cape" />
		<tag k="ssr:stedsnr" v="302631" />
	</node>
	<node id="-419491" lat="59.2262277817" lon="5.83516943677">
		<tag k="name" v="Brommaneset" />
		<tag k="natural" v="cape" />
		<tag k="ssr:stedsnr" v="302624" />
	</node>
	<node id="-419490" lat="59.2476857189" lon="5.86721451083">
		<tag k="name" v="Skjelsneshammaren" />
		<tag k="natural" v="cape" />
		<tag k="ssr:stedsnr" v="302579" />
	</node>
	<node id="-419489" lat="59.2101250031" lon="5.80253888076">
		<tag k="name" v="Ytre Seiavågen" />
		<tag k="natural" v="bay" />
		<tag k="ssr:stedsnr" v="302575" />
	</node>
	<node id="-419488" lat="59.2847833369" lon="5.95326944888">
		<tag k="name" v="Jørstadvågen" />
		<tag k="natural" v="bay" />
		<tag k="ssr:stedsnr" v="302477" />
	</node>
	<node id="-419481" lat="59.1126777796" lon="5.79708610622">
		<tag k="name" v="Bruarvik" />
		<tag k="natural" v="bay" />
		<tag k="ssr:stedsnr" v="297966" />
	</node>
	<node id="-419479" lat="59.1124888917" lon="5.89391667333">
		<tag k="name" v="Skogholmen" />
		<tag k="natural" v="cape" />
		<tag k="ssr:stedsnr" v="296759" />
	</node>
	<node id="-419477" lat="59.1590416631" lon="5.92828056269">
		<tag k="name" v="Saltkjernes" />
		<tag k="natural" v="cape" />
		<tag k="ssr:stedsnr" v="296580" />
	</node>
	<node id="-419476" lat="59.1511166697" lon="5.84783333817">
		<tag k="name" v="Nærlandsvågen" />
		<tag k="natural" v="bay" />
		<tag k="ssr:stedsnr" v="296559" />
	</node>
	<node id="-419471" lat="59.1920361156" lon="5.97327222613">
		<tag k="name" v="Skjeret" />
		<tag k="place" v="islet" />
		<tag k="ssr:stedsnr" v="296276" />
	</node>
	<node id="-419470" lat="59.1847138863" lon="5.80309166489">
		<tag k="name" v="Vestbøflua" />
		<tag k="place" v="locality" />
		<tag k="seamark:type" v="rock" />
		<tag k="ssr:stedsnr" v="296138" />
	</node>
	<node id="-419464" lat="59.2269527756" lon="5.76789167403">
		<tag k="name" v="Flaken" />
		<tag k="place" v="locality" />
		<tag k="seamark:type" v="rock" />
		<tag k="ssr:stedsnr" v="284304" />
	</node>
	<node id="-419460" lat="59.2674055576" lon="5.89742221576">
		<tag k="name" v="Tjostovgrunnen" />
		<tag k="natural" v="shoal" />
		<tag k="place" v="locality" />
		<tag k="ssr:stedsnr" v="282650" />
	</node>
	<node id="-419458" lat="59.2565460644" lon="5.84907955601">
		<tag k="name" v="Furareina" />
		<tag k="natural" v="beach" />
		<tag k="place" v="locality" />
		<tag k="ssr:stedsnr" v="282327" />
	</node>
	<node id="-419457" lat="59.2728333373" lon="5.81753333788">
		<tag k="name" v="Djupeflu" />
		<tag k="place" v="locality" />
		<tag k="seamark:type" v="rock" />
		<tag k="ssr:stedsnr" v="282311" />
	</node>
	<node id="-419456" lat="59.241811115" lon="5.79958610503">
		<tag k="fixme" v="multiple name tags, choose one and add the other to alt_name" />
		<tag k="name" v="Kattaneset;Kjellaneset" />
		<tag k="natural" v="cape" />
		<tag k="ssr:stedsnr" v="282277" />
	</node>
	<node id="-419455" lat="59.1898694412" lon="5.97286943644">
		<tag k="name" v="Sirihola" />
		<tag k="natural" v="bay" />
		<tag k="ssr:stedsnr" v="284240" />
	</node>
	<node id="-420723" lat="59.2354304555" lon="5.84831292821">
		<tag k="alt_name" v="Audbøneset;Aubeneset" />
		<tag k="name" v="Aubøneset" />
		<tag k="natural" v="cape" />
		<tag k="ssr:stedsnr" v="978827" />
	</node>
	<node id="-420717" lat="59.2768777751" lon="5.92818333752">
		<tag k="name" v="Fagervik" />
		<tag k="natural" v="bay" />
		<tag k="ssr:stedsnr" v="970720" />
	</node>
	<node id="-420714" lat="59.2633805547" lon="5.92280000401">
		<tag k="name" v="Fløodden" />
		<tag k="natural" v="cape" />
		<tag k="ssr:stedsnr" v="970671" />
	</node>
	<node id="-420711" lat="59.2579416694" lon="5.79115832667">
		<tag k="name" v="Talgerholmen" />
		<tag k="place" v="islet" />
		<tag k="ssr:stedsnr" v="970334" />
	</node>
	<node id="-420710" lat="59.2580577356" lon="5.78500442692">
		<tag k="name" v="Tednholmen" />
		<tag k="place" v="islet" />
		<tag k="ssr:stedsnr" v="970331" />
	</node>
	<node id="-420706" lat="59.2343638918" lon="5.79640833966">
		<tag k="name" v="Sandsundholmen" />
		<tag k="place" v="islet" />
		<tag k="ssr:stedsnr" v="970051" />
	</node>
	<node id="-420704" lat="59.1181666702" lon="5.80573333458">
		<tag k="name" v="Meavåg" />
		<tag k="natural" v="bay" />
		<tag k="ssr:stedsnr" v="964949" />
	</node>
	<node id="-420703" lat="59.2011359131" lon="5.93062727685">
		<tag k="name" v="Osvika" />
		<tag k="natural" v="bay" />
		<tag k="ssr:stedsnr" v="964836" />
	</node>
	<node id="-420699" lat="59.1723805531" lon="5.9474416702">
		<tag k="name" v="Sørenesholmen" />
		<tag k="place" v="islet" />
		<tag k="ssr:stedsnr" v="964462" />
	</node>
	<node id="-420697" lat="59.2069472252" lon="5.81699443565">
		<tag k="name" v="Litla Steinsvika" />
		<tag k="natural" v="bay" />
		<tag k="ssr:stedsnr" v="964279" />
	</node>
	<node id="-420695" lat="59.1669388867" lon="5.7420388862">
		<tag k="alt_name" v="Austre Fladholmen" />
		<tag k="name" v="Austre Flatholmen" />
		<tag k="place" v="islet" />
		<tag k="ssr:stedsnr" v="964264" />
	</node>
	<node id="-420694" lat="59.1705055176" lon="5.80768300417">
		<tag k="name" v="Sjøbuneset" />
		<tag k="natural" v="cape" />
		<tag k="ssr:stedsnr" v="964171" />
	</node>
	<node id="-420693" lat="59.1651916624" lon="5.69282777011">
		<tag k="fixme" v="consider seamark:type=rock or natural=shoal" />
		<tag k="name" v="Litle Svorteskjer" />
		<tag k="place" v="islet" />
		<tag k="ssr:stedsnr" v="964070" />
	</node>
	<node id="-420692" lat="59.1085666702" lon="5.85980000295">
		<tag k="name" v="Fognalendingane" />
		<tag k="natural" v="bay" />
		<tag k="ssr:stedsnr" v="963992" />
	</node>
	<node id="-420691" lat="59.1194277762" lon="5.89201388213">
		<tag k="name" v="Gunnarsneset" />
		<tag k="natural" v="cape" />
		<tag k="ssr:stedsnr" v="963804" />
	</node>
	<node id="-420688" lat="59.1509944402" lon="5.85094167322">
		<tag k="name" v="Kallhagneset" />
		<tag k="natural" v="cape" />
		<tag k="ssr:stedsnr" v="963641" />
	</node>
	<node id="-420686" lat="59.1389277752" lon="5.7988666679">
		<tag k="name" v="Navarvika" />
		<tag k="natural" v="bay" />
		<tag k="ssr:stedsnr" v="963633" />
	</node>
	<node id="-420685" lat="59.1555277776" lon="5.72356110844">
		<tag k="name" v="Gåsholmen" />
		<tag k="place" v="islet" />
		<tag k="ssr:stedsnr" v="963566" />
	</node>
	<node id="-420683" lat="59.2061111082" lon="5.95301389575">
		<tag k="name" v="Hola" />
		<tag k="natural" v="bay" />
		<tag k="ssr:stedsnr" v="963459" />
	</node>
	<node id="-420680" lat="59.1635694464" lon="5.95041388328">
		<tag k="name" v="Kuskjer" />
		<tag k="natural" v="cape" />
		<tag k="ssr:stedsnr" v="963274" />
	</node>
	<node id="-420676" lat="59.1749480277" lon="5.80376268606">
		<tag k="name" v="Kalvhagflua" />
		<tag k="natural" v="shoal" />
		<tag k="place" v="locality" />
		<tag k="ssr:stedsnr" v="951323" />
	</node>
	<node id="-420675" lat="59.2371222253" lon="5.8191083366">
		<tag k="alt_name" v="Longaneset" />
		<tag k="name" v="Langenes" />
		<tag k="natural" v="cape" />
		<tag k="ssr:stedsnr" v="951270" />
	</node>
	<node id="-420674" lat="59.2189833309" lon="5.82810833827">
		<tag k="name" v="Hildrabåane" />
		<tag k="place" v="locality" />
		<tag k="seamark:type" v="rock" />
		<tag k="ssr:stedsnr" v="951268" />
	</node>
	<node id="-420672" lat="59.2675472206" lon="5.82440000025">
		<tag k="name" v="Norevågen" />
		<tag k="natural" v="bay" />
		<tag k="ssr:stedsnr" v="949604" />
	</node>
	<node id="-420671" lat="59.2928055563" lon="6.01134722547">
		<tag k="name" v="Sponavika" />
		<tag k="natural" v="bay" />
		<tag k="ssr:stedsnr" v="949478" />
	</node>
	<node id="-420670" lat="59.2804638932" lon="5.79190000115">
		<tag k="name" v="Navarskallen" />
		<tag k="natural" v="shoal" />
		<tag k="place" v="locality" />
		<tag k="ssr:stedsnr" v="949311" />
	</node>
	<node id="-420669" lat="59.1600416681" lon="5.93454167238">
		<tag k="fixme" v="consider seamark:type=rock or natural=shoal" />
		<tag k="name" v="Torskjeret" />
		<tag k="place" v="islet" />
		<tag k="ssr:stedsnr" v="936973" />
	</node>
	<node id="-420665" lat="59.2261194473" lon="5.89326110955">
		<tag k="name" v="Halsnevikneset" />
		<tag k="natural" v="cape" />
		<tag k="ssr:stedsnr" v="912947" />
	</node>
	<node id="-420664" lat="59.1730083373" lon="5.94558054905">
		<tag k="name" v="Stretaren" />
		<tag k="place" v="islet" />
		<tag k="ssr:stedsnr" v="912897" />
	</node>
	<node id="-420661" lat="59.2781000015" lon="5.87479999454">
		<tag k="name" v="Slåttholmen" />
		<tag k="place" v="islet" />
		<tag k="ssr:stedsnr" v="912632" />
	</node>
	<node id="-420660" lat="59.1545194421" lon="5.86231667012">
		<tag k="name" v="Nådøya" />
		<tag k="place" v="island" />
		<tag k="ssr:stedsnr" v="912628" />
	</node>
	<node id="-420655" lat="59.1943277771" lon="5.81766944406">
		<tag k="name" v="Døvika" />
		<tag k="natural" v="bay" />
		<tag k="ssr:stedsnr" v="912303" />
	</node>
	<node id="-420652" lat="59.2668697305" lon="5.80903562259">
		<tag k="alt_name" v="Lundalamholmen;Lamholmen" />
		<tag k="name" v="Lundarlamholmen" />
		<tag k="place" v="islet" />
		<tag k="ssr:stedsnr" v="912277" />
	</node>
	<node id="-420651" lat="59.2760277806" lon="5.79920000793">
		<tag k="alt_name" v="Ådnholmen" />
		<tag k="name" v="Ådnaholmen" />
		<tag k="place" v="islet" />
		<tag k="ssr:stedsnr" v="912267" />
	</node>
	<node id="-420650" lat="59.2090888853" lon="5.93443332571">
		<tag k="alt_name" v="Brattestøneset" />
		<tag k="name" v="Brattestødneset" />
		<tag k="natural" v="cape" />
		<tag k="ssr:stedsnr" v="911958" />
	</node>
	<node id="-420649" lat="59.159308335" lon="5.86488888574">
		<tag k="name" v="Urholmen" />
		<tag k="place" v="islet" />
		<tag k="ssr:stedsnr" v="911635" />
	</node>
	<node id="-420648" lat="59.1673861108" lon="5.93228888321">
		<tag k="name" v="Skiftesvika" />
		<tag k="natural" v="bay" />
		<tag k="ssr:stedsnr" v="911631" />
	</node>
	<node id="-420646" lat="59.1218472231" lon="5.91659721822">
		<tag k="name" v="Skinnvikodden" />
		<tag k="natural" v="cape" />
		<tag k="ssr:stedsnr" v="911531" />
	</node>
	<node id="-420643" lat="59.1671000035" lon="5.72940556176">
		<tag k="alt_name" v="Varøyna" />
		<tag k="name" v="Varøya" />
		<tag k="place" v="island" />
		<tag k="ssr:stedsnr" v="911318" />
	</node>
	<node id="-420642" lat="59.1685555565" lon="5.70671667344">
		<tag k="name" v="Flugene" />
		<tag k="natural" v="shoal" />
		<tag k="place" v="locality" />
		<tag k="ssr:stedsnr" v="911316" />
	</node>
	<node id="-420639" lat="59.2358444435" lon="5.93196388449">
		<tag k="name" v="Søylå" />
		<tag k="natural" v="bay" />
		<tag k="ssr:stedsnr" v="909613" />
	</node>
	<node id="-420638" lat="59.237636114" lon="5.93134721629">
		<tag k="alt_name" v="Norda Sundet" />
		<tag k="name" v="Nordra Sundet" />
		<tag k="natural" v="strait" />
		<tag k="ssr:stedsnr" v="909612" />
	</node>
	<node id="-420633" lat="59.2677722227" lon="5.88615278539">
		<tag k="name" v="Nygårdsneset" />
		<tag k="natural" v="cape" />
		<tag k="ssr:stedsnr" v="909498" />
	</node>
	<node id="-420622" lat="59.1681666638" lon="5.69749444003">
		<tag k="fixme" v="consider seamark:type=rock or natural=shoal" />
		<tag k="name" v="Store Svorteskjer" />
		<tag k="place" v="islet" />
		<tag k="ssr:stedsnr" v="904062" />
	</node>
	<node id="-420620" lat="59.1070083308" lon="5.89392500864">
		<tag k="name" v="Austra Klubbavika" />
		<tag k="natural" v="bay" />
		<tag k="ssr:stedsnr" v="903763" />
	</node>
	<node id="-420617" lat="59.1416888847" lon="5.81249444301">
		<tag k="name" v="Indra Lastevika" />
		<tag k="natural" v="bay" />
		<tag k="ssr:stedsnr" v="903557" />
	</node>
	<node id="-420612" lat="59.193624996" lon="5.96945278002">
		<tag k="name" v="Neset" />
		<tag k="natural" v="cape" />
		<tag k="ssr:stedsnr" v="903310" />
	</node>
	<node id="-420611" lat="59.1319055546" lon="5.93796945067">
		<tag k="name" v="Kuneset" />
		<tag k="natural" v="cape" />
		<tag k="ssr:stedsnr" v="903305" />
	</node>
	<node id="-420608" lat="59.1839638926" lon="5.80363610219">
		<tag k="name" v="Vestbøkroken" />
		<tag k="natural" v="bay" />
		<tag k="ssr:stedsnr" v="903158" />
	</node>
	<node id="-420606" lat="59.1628055556" lon="5.74421666873">
		<tag k="fixme" v="consider seamark:type=rock or natural=shoal" />
		<tag k="name" v="Gulaskjer" />
		<tag k="place" v="islet" />
		<tag k="ssr:stedsnr" v="902544" />
	</node>
	<node id="-420605" lat="59.1374027738" lon="5.94896667251">
		<tag k="loc_name" v="Tangane" />
		<tag k="name" v="Tongane" />
		<tag k="natural" v="cape" />
		<tag k="ssr:stedsnr" v="902293" />
	</node>
	<node id="-420604" lat="59.1424277819" lon="5.94748611604">
		<tag k="name" v="Skreddarvika" />
		<tag k="natural" v="bay" />
		<tag k="ssr:stedsnr" v="902290" />
	</node>
	<node id="-420602" lat="59.2654333359" lon="5.81258889157">
		<tag k="name" v="Varnesholmane" />
		<tag k="place" v="islet" />
		<tag k="ssr:stedsnr" v="909717" />
	</node>
	<node id="-420589" lat="59.2840166627" lon="5.80658332628">
		<tag k="fixme" v="consider seamark:type=rock or natural=shoal" />
		<tag k="name" v="Skarvaskjeret" />
		<tag k="place" v="islet" />
		<tag k="ssr:stedsnr" v="852230" />
	</node>
	<node id="-420588" lat="59.231512593" lon="5.88365881281">
		<tag k="name" v="Hidlesundet" />
		<tag k="natural" v="strait" />
		<tag k="ssr:stedsnr" v="851993" />
	</node>
	<node id="-420587" lat="59.1606305577" lon="5.9476499949">
		<tag k="alt_name" v="Boknasund" />
		<tag k="name" v="Boknasundet" />
		<tag k="natural" v="strait" />
		<tag k="ssr:stedsnr" v="851619" />
	</node>
	<node id="-420586" lat="59.1522444422" lon="5.93619999664">
		<tag k="name" v="Kobbavika" />
		<tag k="natural" v="bay" />
		<tag k="ssr:stedsnr" v="851600" />
	</node>
	<node id="-420585" lat="59.1540499963" lon="5.90737778032">
		<tag k="name" v="Bøvågen" />
		<tag k="natural" v="bay" />
		<tag k="ssr:stedsnr" v="851599" />
	</node>
	<node id="-420583" lat="59.1405583376" lon="5.849147229">
		<tag k="name" v="Espholmflua" />
		<tag k="natural" v="shoal" />
		<tag k="place" v="locality" />
		<tag k="ssr:stedsnr" v="851577" />
	</node>
	<node id="-420582" lat="59.1417194406" lon="5.88136111524">
		<tag k="bay" v="fjord" />
		<tag k="name" v="Finnøyfjorden" />
		<tag k="natural" v="bay" />
		<tag k="ssr:stedsnr" v="851543" />
	</node>
	<node id="-420581" lat="59.13890278" lon="5.95159165882">
		<tag k="name" v="Selvågklubben" />
		<tag k="natural" v="cape" />
		<tag k="ssr:stedsnr" v="851540" />
	</node>
	<node id="-420577" lat="59.2492680425" lon="5.84382491892">
		<tag k="alt_name" v="Audbø" />
		<tag k="name" v="Aubø" />
		<tag k="place" v="island" />
		<tag k="ssr:stedsnr" v="851403" />
	</node>
	<node id="-420576" lat="59.119708335" lon="5.79528054731">
		<tag k="alt_name" v="Talje-Odda" />
		<tag k="name" v="Odda" />
		<tag k="natural" v="cape" />
		<tag k="ssr:stedsnr" v="851346" />
	</node>
	<node id="-420575" lat="59.2215194449" lon="5.84704443889">
		<tag k="name" v="Klubben" />
		<tag k="natural" v="cape" />
		<tag k="ssr:stedsnr" v="851341" />
	</node>
	<node id="-420574" lat="59.1033416671" lon="5.81978611111">
		<tag k="alt_name" v="Prestnes" />
		<tag k="name" v="Prestaneset" />
		<tag k="natural" v="cape" />
		<tag k="ssr:stedsnr" v="851315" />
	</node>
	<node id="-420568" lat="59.1698749988" lon="5.78536943746">
		<tag k="name" v="Kalhagstranda" />
		<tag k="natural" v="beach" />
		<tag k="place" v="locality" />
		<tag k="ssr:stedsnr" v="851249" />
	</node>
	<node id="-420567" lat="59.1715453549" lon="5.81031438648">
		<tag k="alt_name" v="Hesby - Kvernvika" />
		<tag k="name" v="Kvernvika" />
		<tag k="natural" v="bay" />
		<tag k="ssr:stedsnr" v="851248" />
	</node>
	<node id="-420566" lat="59.2589527781" lon="5.78330555886">
		<tag k="fixme" v="consider seamark:type=rock or natural=shoal" />
		<tag k="name" v="Salstut" />
		<tag k="place" v="islet" />
		<tag k="ssr:stedsnr" v="849744" />
	</node>
	<node id="-420563" lat="59.2281861081" lon="5.88008611587">
		<tag k="fixme" v="consider seamark:type=rock or natural=shoal" />
		<tag k="name" v="Kobbaskjeret" />
		<tag k="place" v="islet" />
		<tag k="ssr:stedsnr" v="849644" />
	</node>
	<node id="-420562" lat="59.221977776" lon="5.84520555305">
		<tag k="name" v="Tjødnaholmen" />
		<tag k="place" v="islet" />
		<tag k="ssr:stedsnr" v="849642" />
	</node>
	<node id="-420561" lat="59.2334388868" lon="5.88184999648">
		<tag k="fixme" v="consider seamark:type=rock or natural=shoal" />
		<tag k="name" v="Toreskjeret" />
		<tag k="place" v="islet" />
		<tag k="ssr:stedsnr" v="849633" />
	</node>
	<node id="-420558" lat="59.255194444" lon="5.83676110955">
		<tag k="fixme" v="consider seamark:type=rock or natural=shoal" />
		<tag k="name" v="Gjøaskjeret" />
		<tag k="place" v="islet" />
		<tag k="ssr:stedsnr" v="849506" />
	</node>
	<node id="-420552" lat="59.2271611087" lon="5.8016805561">
		<tag k="name" v="Skjenabergholmen" />
		<tag k="place" v="islet" />
		<tag k="ssr:stedsnr" v="849591" />
	</node>
	<node id="-420551" lat="59.2276527799" lon="5.78998888819">
		<tag k="name" v="Bjønnbærholmen" />
		<tag k="place" v="islet" />
		<tag k="ssr:stedsnr" v="849564" />
	</node>
	<node id="-420548" lat="59.1981972183" lon="5.83811389459">
		<tag k="name" v="Kunes" />
		<tag k="natural" v="cape" />
		<tag k="ssr:stedsnr" v="843857" />
	</node>
	<node id="-420546" lat="59.1118666706" lon="5.9006138823">
		<tag k="name" v="Rossøytånå" />
		<tag k="natural" v="cape" />
		<tag k="ssr:stedsnr" v="843787" />
	</node>
	<node id="-420545" lat="59.1171194443" lon="5.89510554859">
		<tag k="name" v="Basthabn" />
		<tag k="natural" v="bay" />
		<tag k="ssr:stedsnr" v="843786" />
	</node>
	<node id="-420543" lat="59.1402972186" lon="5.80478889502">
		<tag k="name" v="Ytra Lastevika" />
		<tag k="natural" v="bay" />
		<tag k="ssr:stedsnr" v="843582" />
	</node>
	<node id="-420539" lat="59.1926833344" lon="5.81254166548">
		<tag k="name" v="Hopastranda" />
		<tag k="natural" v="beach" />
		<tag k="place" v="locality" />
		<tag k="ssr:stedsnr" v="843238" />
	</node>
	<node id="-420538" lat="59.1759055561" lon="5.73582499845">
		<tag k="name" v="Ytre Alnaskjer" />
		<tag k="place" v="islet" />
		<tag k="ssr:stedsnr" v="843204" />
	</node>
	<node id="-420534" lat="59.1531166653" lon="5.87021944025">
		<tag k="name" v="Stora Slottvika" />
		<tag k="natural" v="bay" />
		<tag k="ssr:stedsnr" v="842618" />
	</node>
	<node id="-420533" lat="59.1575527753" lon="5.86862222314">
		<tag k="name" v="Austra Torvvika" />
		<tag k="natural" v="bay" />
		<tag k="ssr:stedsnr" v="842617" />
	</node>
	<node id="-420532" lat="59.1468777783" lon="5.84607222054">
		<tag k="fixme" v="consider seamark:type=rock or natural=shoal" />
		<tag k="name" v="Adlafestet" />
		<tag k="place" v="islet" />
		<tag k="ssr:stedsnr" v="842595" />
	</node>
	<node id="-420527" lat="59.1417361144" lon="5.89747499826">
		<tag k="name" v="Grobå" />
		<tag k="natural" v="bay" />
		<tag k="ssr:stedsnr" v="842309" />
	</node>
	<node id="-420526" lat="59.0991694398" lon="5.84687499227">
		<tag k="name" v="Longholmen" />
		<tag k="place" v="islet" />
		<tag k="ssr:stedsnr" v="842808" />
	</node>
	<node id="-420523" lat="59.2106222206" lon="5.94614444086">
		<tag k="name" v="Sandskjer" />
		<tag k="natural" v="cape" />
		<tag k="ssr:stedsnr" v="830197" />
	</node>
	<node id="-420522" lat="59.2103416711" lon="5.94030000255">
		<tag k="name" v="Djupevik" />
		<tag k="natural" v="bay" />
		<tag k="ssr:stedsnr" v="830196" />
	</node>
	<node id="-420521" lat="59.1924888882" lon="5.84836389158">
		<tag k="name" v="Klistøvika" />
		<tag k="natural" v="bay" />
		<tag k="ssr:stedsnr" v="830171" />
	</node>
	<node id="-420519" lat="59.2396973315" lon="5.88315448133">
		<tag k="name" v="Ådnanesvika" />
		<tag k="natural" v="bay" />
		<tag k="ssr:stedsnr" v="828700" />
	</node>
	<node id="-420518" lat="59.2799972256" lon="5.90883055151">
		<tag k="fixme" v="consider seamark:type=rock or natural=shoal" />
		<tag k="name" v="Austrestaken" />
		<tag k="place" v="islet" />
		<tag k="ssr:stedsnr" v="828656" />
	</node>
	<node id="-420516" lat="59.2406583356" lon="5.83877778191">
		<tag k="alt_name" v="Tjularflu" />
		<tag k="name" v="Tjularflua" />
		<tag k="place" v="locality" />
		<tag k="seamark:type" v="rock" />
		<tag k="ssr:stedsnr" v="828618" />
	</node>
	<node id="-420515" lat="59.2595444445" lon="5.88327222765">
		<tag k="name" v="Nesheimsvika" />
		<tag k="natural" v="bay" />
		<tag k="ssr:stedsnr" v="828605" />
	</node>
	<node id="-420505" lat="59.2328416705" lon="5.85582500736">
		<tag k="alt_name" v="Kunes" />
		<tag k="name" v="Kuneset" />
		<tag k="natural" v="cape" />
		<tag k="ssr:stedsnr" v="790971" />
	</node>
	<node id="-420502" lat="59.2257277746" lon="5.96032777803">
		<tag k="name" v="Djupevik" />
		<tag k="natural" v="bay" />
		<tag k="ssr:stedsnr" v="790947" />
	</node>
	<node id="-420501" lat="59.1981444414" lon="5.867036113">
		<tag k="name" v="Kjeringgrunnen" />
		<tag k="natural" v="shoal" />
		<tag k="place" v="locality" />
		<tag k="ssr:stedsnr" v="790929" />
	</node>
	<node id="-420500" lat="59.1862500029" lon="5.94987778336">
		<tag k="alt_name" v="Kroganeset" />
		<tag k="name" v="Krokanes" />
		<tag k="natural" v="cape" />
		<tag k="ssr:stedsnr" v="790893" />
	</node>
	<node id="-420499" lat="59.1664055599" lon="5.94054999278">
		<tag k="name" v="Bokn" />
		<tag k="place" v="island" />
		<tag k="ssr:stedsnr" v="790667" />
	</node>
	<node id="-420498" lat="59.1487611086" lon="5.8564583294">
		<tag k="name" v="Langøya" />
		<tag k="place" v="islet" />
		<tag k="ssr:stedsnr" v="790645" />
	</node>
	<node id="-420497" lat="59.1477555567" lon="5.85109999799">
		<tag k="name" v="Skogholmen" />
		<tag k="place" v="islet" />
		<tag k="ssr:stedsnr" v="790629" />
	</node>
	<node id="-420496" lat="59.1539583369" lon="5.97212500068">
		<tag k="name" v="Årholmen" />
		<tag k="place" v="islet" />
		<tag k="ssr:stedsnr" v="790612" />
	</node>
	<node id="-420493" lat="59.1138999971" lon="5.8918638957">
		<tag k="name" v="Sylsøya" />
		<tag k="place" v="islet" />
		<tag k="ssr:stedsnr" v="790553" />
	</node>
	<node id="-420492" lat="59.1107083368" lon="5.88743056314">
		<tag k="alt_name" v="Longaskjeret" />
		<tag k="fixme" v="consider seamark:type=rock or natural=shoal" />
		<tag k="name" v="Langaskjeret" />
		<tag k="place" v="islet" />
		<tag k="ssr:stedsnr" v="790536" />
	</node>
	<node id="-420491" lat="59.238930555" lon="5.83052777391">
		<tag k="name" v="Storåkervika" />
		<tag k="natural" v="bay" />
		<tag k="ssr:stedsnr" v="790470" />
	</node>
	<node id="-420490" lat="59.2318000032" lon="5.78203333541">
		<tag k="name" v="Ærholmen" />
		<tag k="place" v="islet" />
		<tag k="ssr:stedsnr" v="790460" />
	</node>
	<node id="-420489" lat="59.2326750043" lon="5.8065194517">
		<tag k="name" v="Seianeset" />
		<tag k="natural" v="cape" />
		<tag k="ssr:stedsnr" v="790458" />
	</node>
	<node id="-420488" lat="59.2559638883" lon="5.81161388725">
		<tag k="alt_name" v="Kyrkjøy;Kyrkjøyni" />
		<tag k="name" v="Kyrkjøyna" />
		<tag k="place" v="island" />
		<tag k="ssr:stedsnr" v="790450" />
	</node>
	<node id="-420487" lat="59.1199944486" lon="5.85253055614">
		<tag k="alt_name" v="Taljefjorden" />
		<tag k="bay" v="fjord" />
		<tag k="name" v="Talgjefjorden" />
		<tag k="natural" v="bay" />
		<tag k="ssr:stedsnr" v="790343" />
	</node>
	<node id="-420482" lat="59.1993583326" lon="5.82304443887">
		<tag k="name" v="Taravika" />
		<tag k="natural" v="bay" />
		<tag k="ssr:stedsnr" v="790275" />
	</node>
	<node id="-420481" lat="59.2215555579" lon="5.80619999395">
		<tag k="name" v="Ulsvikholmen" />
		<tag k="place" v="islet" />
		<tag k="ssr:stedsnr" v="790270" />
	</node>
	<node id="-420480" lat="59.2134250003" lon="5.81781944497">
		<tag k="alt_name" v="Alneskjer" />
		<tag k="fixme" v="consider seamark:type=rock or natural=shoal" />
		<tag k="name" v="Alnaskjer" />
		<tag k="place" v="islet" />
		<tag k="ssr:stedsnr" v="790265" />
	</node>
	<node id="-420479" lat="59.143141666" lon="5.78892777595">
		<tag k="alt_name" v="Kvidevik" />
		<tag k="name" v="Kvitevika" />
		<tag k="natural" v="bay" />
		<tag k="ssr:stedsnr" v="790252" />
	</node>
	<node id="-420478" lat="59.15370556" lon="5.73358889531">
		<tag k="alt_name" v="Flataskjera;Fladaskjer" />
		<tag k="name" v="Flataskjer" />
		<tag k="place" v="islet" />
		<tag k="ssr:stedsnr" v="790234" />
	</node>
	<node id="-420471" lat="59.241658338" lon="5.89481667454">
		<tag k="fixme" v="consider seamark:type=rock or natural=shoal" />
		<tag k="name" v="Hallingskjer" />
		<tag k="place" v="islet" />
		<tag k="ssr:stedsnr" v="788577" />
	</node>
	<node id="-420469" lat="59.2439361085" lon="5.83273611732">
		<tag k="name" v="Tausagrunnen" />
		<tag k="natural" v="shoal" />
		<tag k="place" v="locality" />
		<tag k="ssr:stedsnr" v="788558" />
	</node>
	<node id="-420468" lat="59.2544222211" lon="5.84151943875">
		<tag k="name" v="Dronningvika" />
		<tag k="natural" v="bay" />
		<tag k="ssr:stedsnr" v="788487" />
	</node>
	<node id="-420467" lat="59.2687777815" lon="5.85095000549">
		<tag k="name" v="Veavika" />
		<tag k="natural" v="bay" />
		<tag k="ssr:stedsnr" v="788478" />
	</node>
	<node id="-420466" lat="59.260322226" lon="5.84025278163">
		<tag k="name" v="Forkeneset" />
		<tag k="natural" v="cape" />
		<tag k="ssr:stedsnr" v="788468" />
	</node>
	<node id="-420461" lat="59.291349996" lon="5.98212222717">
		<tag k="name" v="Krogjen" />
		<tag k="natural" v="bay" />
		<tag k="ssr:stedsnr" v="788444" />
	</node>
	<node id="-420460" lat="59.2916972203" lon="6.00492777488">
		<tag k="name" v="Klområ" />
		<tag k="natural" v="bay" />
		<tag k="ssr:stedsnr" v="788441" />
	</node>
	<node id="-420458" lat="59.2706638932" lon="5.92347499638">
		<tag k="name" v="Vongsen" />
		<tag k="natural" v="cape" />
		<tag k="ssr:stedsnr" v="788425" />
	</node>
	<node id="-420454" lat="59.1015888869" lon="5.85037499501">
		<tag k="name" v="Tjeldsnes" />
		<tag k="natural" v="cape" />
		<tag k="ssr:stedsnr" v="782973" />
	</node>
	<node id="-420449" lat="59.1596444428" lon="5.92381666895">
		<tag k="alt_name" v="Sæbønestånå" />
		<tag k="name" v="Sæbøneset" />
		<tag k="natural" v="cape" />
		<tag k="ssr:stedsnr" v="781623" />
	</node>
	<node id="-420448" lat="59.1546527744" lon="5.85754999422">
		<tag k="fixme" v="consider seamark:type=rock or natural=shoal" />
		<tag k="name" v="Gulaskjer" />
		<tag k="place" v="islet" />
		<tag k="ssr:stedsnr" v="781613" />
	</node>
	<node id="-420447" lat="59.1600055577" lon="5.7720805588">
		<tag k="name" v="Sævheimskjeret" />
		<tag k="place" v="islet" />
		<tag k="ssr:stedsnr" v="781511" />
	</node>
	<node id="-420446" lat="59.1346967445" lon="5.90011108407">
		<tag k="name" v="Djupevika" />
		<tag k="natural" v="bay" />
		<tag k="ssr:stedsnr" v="781331" />
	</node>
	<node id="-420442" lat="59.2076666681" lon="5.8059916578">
		<tag k="alt_name" v="Tedneskjer" />
		<tag k="fixme" v="consider seamark:type=rock or natural=shoal" />
		<tag k="name" v="Terneskjer" />
		<tag k="place" v="islet" />
		<tag k="ssr:stedsnr" v="769278" />
	</node>
	<node id="-420441" lat="59.234147218" lon="5.84525555793">
		<tag k="name" v="Djupevik" />
		<tag k="natural" v="bay" />
		<tag k="ssr:stedsnr" v="769274" />
	</node>
	<node id="-420440" lat="59.2290972235" lon="5.85417222415">
		<tag k="name" v="Kvitenes" />
		<tag k="natural" v="cape" />
		<tag k="ssr:stedsnr" v="769272" />
	</node>
	<node id="-420434" lat="59.2331499486" lon="5.936965442">
		<tag k="name" v="Eidsvågen" />
		<tag k="natural" v="bay" />
		<tag k="ssr:stedsnr" v="767693" />
	</node>
	<node id="-420433" lat="59.2304416629" lon="5.87753055204">
		<tag k="name" v="Holmavågen" />
		<tag k="natural" v="bay" />
		<tag k="ssr:stedsnr" v="767708" />
	</node>
	<node id="-420432" lat="59.262111107" lon="5.80830000233">
		<tag k="name" v="Lundarvågen" />
		<tag k="natural" v="bay" />
		<tag k="ssr:stedsnr" v="767363" />
	</node>
	<node id="-420430" lat="59.1435138887" lon="5.84043333386">
		<tag k="name" v="Badevika" />
		<tag k="natural" v="bay" />
		<tag k="ssr:stedsnr" v="753026" />
	</node>
	<node id="-420429" lat="59.1389666681" lon="5.95540278505">
		<tag k="name" v="Klubbagrunnen" />
		<tag k="natural" v="shoal" />
		<tag k="place" v="locality" />
		<tag k="ssr:stedsnr" v="753025" />
	</node>
	<node id="-420428" lat="59.1245138863" lon="5.87671111836">
		<tag k="name" v="Oksa" />
		<tag k="natural" v="cape" />
		<tag k="ssr:stedsnr" v="753023" />
	</node>
	<node id="-420426" lat="59.2848250012" lon="5.94889999682">
		<tag k="name" v="Neset" />
		<tag k="natural" v="cape" />
		<tag k="ssr:stedsnr" v="731477" />
	</node>
	<node id="-420425" lat="59.2303384049" lon="5.93231244352">
		<tag k="alt_name" v="Eidsund" />
		<tag k="name" v="Eidssundet" />
		<tag k="natural" v="strait" />
		<tag k="ssr:stedsnr" v="730950" />
	</node>
	<node id="-420423" lat="59.2556750029" lon="5.92399999507">
		<tag k="name" v="Sølbergsvika" />
		<tag k="natural" v="bay" />
		<tag k="ssr:stedsnr" v="730720" />
	</node>
	<node id="-420422" lat="59.2785999993" lon="5.85780000146">
		<tag k="name" v="Dyrholmen" />
		<tag k="place" v="islet" />
		<tag k="ssr:stedsnr" v="730680" />
	</node>
	<node id="-420420" lat="59.2667333298" lon="5.84391944582">
		<tag k="name" v="Fyrholmen" />
		<tag k="place" v="islet" />
		<tag k="ssr:stedsnr" v="730659" />
	</node>
	<node id="-420415" lat="59.1353416702" lon="5.8844944378">
		<tag k="name" v="Ytstholmen" />
		<tag k="place" v="islet" />
		<tag k="ssr:stedsnr" v="730592" />
	</node>
	<node id="-420414" lat="59.1295750009" lon="5.90112777043">
		<tag k="name" v="Eidsvågen" />
		<tag k="natural" v="bay" />
		<tag k="ssr:stedsnr" v="730590" />
	</node>
	<node id="-420413" lat="59.2273805517" lon="5.75933611856">
		<tag k="alt_name" v="Andreg, litle" />
		<tag k="fixme" v="consider seamark:type=rock or natural=shoal" />
		<tag k="name" v="Litle Andreg" />
		<tag k="place" v="islet" />
		<tag k="ssr:stedsnr" v="730480" />
	</node>
	<node id="-420412" lat="59.1552833364" lon="5.90669722813">
		<tag k="name" v="Stavnes" />
		<tag k="natural" v="cape" />
		<tag k="ssr:stedsnr" v="730379" />
	</node>
	<node id="-420411" lat="59.1368666636" lon="5.79763054946">
		<tag k="alt_name" v="Navarholmen" />
		<tag k="name" v="Navar" />
		<tag k="place" v="islet" />
		<tag k="ssr:stedsnr" v="730363" />
	</node>
	<node id="-420409" lat="59.1599722242" lon="5.93458332518">
		<tag k="fixme" v="consider seamark:type=rock or natural=shoal" />
		<tag k="name" v="Turrskjeret" />
		<tag k="place" v="islet" />
		<tag k="ssr:stedsnr" v="729636" />
	</node>
	<node id="-420407" lat="59.1616777751" lon="5.99765554849">
		<tag k="name" v="Hattholmen" />
		<tag k="place" v="islet" />
		<tag k="ssr:stedsnr" v="729604" />
	</node>
	<node id="-420406" lat="59.1655166675" lon="5.98139167435">
		<tag k="name" v="Krossneset" />
		<tag k="natural" v="cape" />
		<tag k="ssr:stedsnr" v="729601" />
	</node>
	<node id="-420405" lat="59.1621638895" lon="5.97097777131">
		<tag k="name" v="Byre" />
		<tag k="place" v="island" />
		<tag k="ssr:stedsnr" v="729597" />
	</node>
	<node id="-420402" lat="59.1542861098" lon="5.7727416644">
		<tag k="name" v="Kvalen" />
		<tag k="natural" v="cape" />
		<tag k="ssr:stedsnr" v="729291" />
	</node>
	<node id="-420399" lat="59.2637972239" lon="5.81437500801">
		<tag k="name" v="Varnes" />
		<tag k="natural" v="cape" />
		<tag k="ssr:stedsnr" v="727736" />
	</node>
	<node id="-420398" lat="59.2381916649" lon="5.90049721909">
		<tag k="name" v="Sanden" />
		<tag k="natural" v="beach" />
		<tag k="place" v="locality" />
		<tag k="ssr:stedsnr" v="727594" />
	</node>
	<node id="-420397" lat="59.2399388887" lon="5.83389722447">
		<tag k="name" v="Kalvaklubben" />
		<tag k="natural" v="cape" />
		<tag k="ssr:stedsnr" v="727572" />
	</node>
	<node id="-420396" lat="59.2085805534" lon="5.80592499844">
		<tag k="name" v="Indre Seiavågen" />
		<tag k="natural" v="bay" />
		<tag k="ssr:stedsnr" v="727564" />
	</node>
	<node id="-420393" lat="59.25552222" lon="5.84240000792">
		<tag k="name" v="Kalvaneset" />
		<tag k="natural" v="cape" />
		<tag k="ssr:stedsnr" v="727498" />
	</node>
	<node id="-420388" lat="59.1102888927" lon="5.85962499658">
		<tag k="name" v="Seiakroken" />
		<tag k="natural" v="bay" />
		<tag k="ssr:stedsnr" v="721981" />
	</node>
	<node id="-420387" lat="59.1934916672" lon="5.84716666233">
		<tag k="name" v="Klubben" />
		<tag k="natural" v="cape" />
		<tag k="ssr:stedsnr" v="721843" />
	</node>
	<node id="-420386" lat="59.2011111107" lon="5.83150278446">
		<tag k="name" v="Tapp" />
		<tag k="natural" v="cape" />
		<tag k="ssr:stedsnr" v="721834" />
	</node>
	<node id="-420384" lat="59.1563694433" lon="5.87021944188">
		<tag k="name" v="Slottvika" />
		<tag k="natural" v="bay" />
		<tag k="ssr:stedsnr" v="721587" />
	</node>
	<node id="-420381" lat="59.1595305566" lon="5.85680555303">
		<tag k="name" v="Søylå" />
		<tag k="natural" v="bay" />
		<tag k="ssr:stedsnr" v="721562" />
	</node>
	<node id="-420379" lat="59.0992583337" lon="5.84424722785">
		<tag k="name" v="Storholmen" />
		<tag k="place" v="islet" />
		<tag k="ssr:stedsnr" v="721756" />
	</node>
	<node id="-420378" lat="59.100463886" lon="5.83513889779">
		<tag k="name" v="Steinulvsneset" />
		<tag k="natural" v="cape" />
		<tag k="ssr:stedsnr" v="721750" />
	</node>
	<node id="-420377" lat="59.1064666634" lon="5.89154445043">
		<tag k="name" v="Klubbane" />
		<tag k="natural" v="cape" />
		<tag k="ssr:stedsnr" v="721746" />
	</node>
	<node id="-420370" lat="59.1642388889" lon="5.7475972276">
		<tag k="name" v="Store Kobbholmen" />
		<tag k="place" v="islet" />
		<tag k="ssr:stedsnr" v="721214" />
	</node>
	<node id="-420369" lat="59.1677027787" lon="5.73596111111">
		<tag k="name" v="Skarvholmen" />
		<tag k="place" v="islet" />
		<tag k="ssr:stedsnr" v="721202" />
	</node>
	<node id="-420367" lat="59.1607000005" lon="5.77441111894">
		<tag k="name" v="Andersklubben" />
		<tag k="natural" v="cape" />
		<tag k="ssr:stedsnr" v="720553" />
	</node>
	<node id="-420364" lat="59.1565722248" lon="5.77212499596">
		<tag k="name" v="Vassvika" />
		<tag k="natural" v="bay" />
		<tag k="ssr:stedsnr" v="720522" />
	</node>
	<node id="-420363" lat="59.2259388852" lon="5.79693610363">
		<tag k="alt_name" v="Flataskjeret;Fladeskjera" />
		<tag k="name" v="Flateskjera" />
		<tag k="place" v="islet" />
		<tag k="ssr:stedsnr" v="708303" />
	</node>
	<node id="-420362" lat="59.098419447" lon="5.84939166537">
		<tag k="name" v="Gardsgrunnane" />
		<tag k="natural" v="shoal" />
		<tag k="place" v="locality" />
		<tag k="ssr:stedsnr" v="708100" />
	</node>
	<node id="-420358" lat="59.2575472196" lon="5.76795832974">
		<tag k="name" v="Fiskholmflua" />
		<tag k="natural" v="shoal" />
		<tag k="place" v="locality" />
		<tag k="ssr:stedsnr" v="707346" />
	</node>
	<node id="-420357" lat="59.2626583312" lon="5.77584721579">
		<tag k="fixme" v="consider seamark:type=rock or natural=shoal" />
		<tag k="name" v="Skarvaskjer" />
		<tag k="place" v="islet" />
		<tag k="ssr:stedsnr" v="707335" />
	</node>
	<node id="-420355" lat="59.1730916687" lon="5.87684723077">
		<tag k="name" v="Leirå" />
		<tag k="natural" v="bay" />
		<tag k="ssr:stedsnr" v="674251" />
	</node>
	<node id="-420354" lat="59.1835833375" lon="5.87625832444">
		<tag k="name" v="Trommeneset" />
		<tag k="natural" v="cape" />
		<tag k="ssr:stedsnr" v="674250" />
	</node>
	<node id="-420352" lat="59.1877027796" lon="5.86267500687">
		<tag k="name" v="Lausnesvågen" />
		<tag k="natural" v="bay" />
		<tag k="ssr:stedsnr" v="669926" />
	</node>
	<node id="-420351" lat="59.1982111114" lon="5.93316943701">
		<tag k="name" v="Akteneset" />
		<tag k="natural" v="cape" />
		<tag k="ssr:stedsnr" v="669905" />
	</node>
	<node id="-420350" lat="59.2747166626" lon="5.86206111359">
		<tag k="name" v="Giljevågen" />
		<tag k="natural" v="bay" />
		<tag k="ssr:stedsnr" v="669633" />
	</node>
	<node id="-420349" lat="59.1714851106" lon="5.96475946129">
		<tag k="name" v="Sauøya" />
		<tag k="place" v="islet" />
		<tag k="ssr:stedsnr" v="669621" />
	</node>
	<node id="-420347" lat="59.2696499978" lon="5.84547500475">
		<tag k="alt_name" v="Fåraholmane" />
		<tag k="name" v="Furaholmane" />
		<tag k="place" v="islet" />
		<tag k="ssr:stedsnr" v="669613" />
	</node>
	<node id="-420343" lat="59.1518527745" lon="5.98392499944">
		<tag k="alt_name" v="Buøy" />
		<tag k="name" v="Buøyna" />
		<tag k="place" v="island" />
		<tag k="ssr:stedsnr" v="669589" />
	</node>
	<node id="-420342" lat="59.1449916698" lon="5.94456110469">
		<tag k="alt_name" v="Litletongen" />
		<tag k="name" v="Litletangen" />
		<tag k="natural" v="cape" />
		<tag k="ssr:stedsnr" v="669580" />
	</node>
	<node id="-420339" lat="59.1371000015" lon="5.89365555765">
		<tag k="name" v="Oppsalholmen" />
		<tag k="place" v="islet" />
		<tag k="ssr:stedsnr" v="669561" />
	</node>
	<node id="-420338" lat="59.1306444427" lon="5.89737500208">
		<tag k="name" v="Vadholmen" />
		<tag k="place" v="islet" />
		<tag k="ssr:stedsnr" v="669556" />
	</node>
	<node id="-420337" lat="59.1266277768" lon="5.9323722206">
		<tag k="name" v="Vardneset" />
		<tag k="natural" v="cape" />
		<tag k="ssr:stedsnr" v="669552" />
	</node>
	<node id="-420336" lat="59.1405638855" lon="5.95041667219">
		<tag k="name" v="Sandvika" />
		<tag k="natural" v="bay" />
		<tag k="ssr:stedsnr" v="669368" />
	</node>
	<node id="-420335" lat="59.1270333302" lon="5.8797861053">
		<tag k="name" v="Kvernavika" />
		<tag k="natural" v="bay" />
		<tag k="ssr:stedsnr" v="669356" />
	</node>
	<node id="-420334" lat="59.1769499985" lon="5.94563055513">
		<tag k="name" v="Askholmen" />
		<tag k="place" v="islet" />
		<tag k="ssr:stedsnr" v="669887" />
	</node>
	<node id="-420330" lat="59.1091611103" lon="5.80388055058">
		<tag k="alt_name" v="Fladenes" />
		<tag k="name" v="Flatnes" />
		<tag k="natural" v="cape" />
		<tag k="ssr:stedsnr" v="669299" />
	</node>
	<node id="-420329" lat="59.1897722178" lon="5.81221666514">
		<tag k="alt_name" v="Landa - Kvednavika" />
		<tag k="name" v="Kvernavika" />
		<tag k="natural" v="bay" />
		<tag k="ssr:stedsnr" v="669278" />
	</node>
	<node id="-420328" lat="59.1897694422" lon="5.77891111319">
		<tag k="name" v="Hesbygrunnen" />
		<tag k="natural" v="shoal" />
		<tag k="place" v="locality" />
		<tag k="ssr:stedsnr" v="669277" />
	</node>
	<node id="-420327" lat="59.2118416668" lon="5.83710554968">
		<tag k="fixme" v="multiple name tags, choose one and add the other to alt_name" />
		<tag k="name" v="Helgeflua;Helgøyfluene" />
		<tag k="natural" v="shoal" />
		<tag k="place" v="locality" />
		<tag k="ssr:stedsnr" v="669262" />
	</node>
	<node id="-420326" lat="59.2093083359" lon="5.8043916711">
		<tag k="alt_name" v="Ytre Mjølsnesholmen" />
		<tag k="name" v="Mjølsnesholmane" />
		<tag k="place" v="islet" />
		<tag k="ssr:stedsnr" v="669260" />
	</node>
	<node id="-420323" lat="59.2505388894" lon="5.81897500104">
		<tag k="alt_name" v="Naustvik" />
		<tag k="name" v="Naustvika" />
		<tag k="natural" v="bay" />
		<tag k="ssr:stedsnr" v="669247" />
	</node>
	<node id="-420322" lat="59.2685083297" lon="5.81259999623">
		<tag k="name" v="Prestasundet" />
		<tag k="natural" v="strait" />
		<tag k="ssr:stedsnr" v="666709" />
	</node>
	<node id="-420318" lat="59.2229527774" lon="5.84830556432">
		<tag k="name" v="Sandvika" />
		<tag k="natural" v="bay" />
		<tag k="ssr:stedsnr" v="666597" />
	</node>
	<node id="-420316" lat="59.2244666631" lon="5.81055834145">
		<tag k="name" v="Høgåsvika" />
		<tag k="natural" v="bay" />
		<tag k="ssr:stedsnr" v="666557" />
	</node>
	<node id="-420312" lat="59.2969194404" lon="6.04508611132">
		<tag k="name" v="Neset" />
		<tag k="natural" v="cape" />
		<tag k="ssr:stedsnr" v="666437" />
	</node>
	<node id="-420311" lat="59.1178305528" lon="5.87789722229">
		<tag k="name" v="Fleskhudna" />
		<tag k="natural" v="cape" />
		<tag k="ssr:stedsnr" v="660979" />
	</node>
	<node id="-420310" lat="59.1031277765" lon="5.84712499191">
		<tag k="name" v="Habn" />
		<tag k="natural" v="bay" />
		<tag k="ssr:stedsnr" v="660752" />
	</node>
	<node id="-420309" lat="59.117111112" lon="5.89666389045">
		<tag k="name" v="Kalvaneset" />
		<tag k="natural" v="cape" />
		<tag k="ssr:stedsnr" v="660747" />
	</node>
	<node id="-420308" lat="59.1195111113" lon="5.89924167238">
		<tag k="name" v="Ladberget" />
		<tag k="natural" v="cape" />
		<tag k="ssr:stedsnr" v="660745" />
	</node>
	<node id="-420307" lat="59.1552472202" lon="5.91308333173">
		<tag k="name" v="Bratterein" />
		<tag k="natural" v="cape" />
		<tag k="ssr:stedsnr" v="660633" />
	</node>
	<node id="-420306" lat="59.151611115" lon="5.86519444902">
		<tag k="name" v="Djupevik" />
		<tag k="natural" v="bay" />
		<tag k="ssr:stedsnr" v="660617" />
	</node>
	<node id="-420305" lat="59.1717638913" lon="5.98884167111">
		<tag k="name" v="Eidet" />
		<tag k="place" v="locality" />
		<tag k="ssr:stedsnr" v="660468" />
	</node>
	<node id="-420302" lat="59.2068472223" lon="5.81553056358">
		<tag k="name" v="Stora Steinsvika" />
		<tag k="natural" v="bay" />
		<tag k="ssr:stedsnr" v="660244" />
	</node>
	<node id="-420301" lat="59.2001611129" lon="5.82472221744">
		<tag k="name" v="Vestra Bragavika" />
		<tag k="natural" v="bay" />
		<tag k="ssr:stedsnr" v="660243" />
	</node>
	<node id="-420300" lat="59.1863832478" lon="5.81014865821">
		<tag k="name" v="Landasjøen" />
		<tag k="natural" v="bay" />
		<tag k="ssr:stedsnr" v="660239" />
	</node>
	<node id="-420299" lat="59.182491664" lon="5.80149722193">
		<tag k="name" v="Hoggestabben" />
		<tag k="natural" v="cape" />
		<tag k="ssr:stedsnr" v="660163" />
	</node>
	<node id="-420297" lat="59.1585250038" lon="5.77183611333">
		<tag k="name" v="Varaneset" />
		<tag k="natural" v="cape" />
		<tag k="ssr:stedsnr" v="659508" />
	</node>
	<node id="-420296" lat="59.1554666704" lon="5.96973332722">
		<tag k="fixme" v="consider seamark:type=rock or natural=shoal" />
		<tag k="name" v="Søre Skarveskjer" />
		<tag k="place" v="islet" />
		<tag k="ssr:stedsnr" v="659264" />
	</node>
	<node id="-420294" lat="59.2283472239" lon="5.82224166215">
		<tag k="name" v="Svinholmen" />
		<tag k="place" v="islet" />
		<tag k="ssr:stedsnr" v="647321" />
	</node>
	<node id="-420293" lat="59.2257583353" lon="5.79286943792">
		<tag k="alt_name" v="Karsundholmen" />
		<tag k="name" v="Kårsundholmen" />
		<tag k="place" v="islet" />
		<tag k="ssr:stedsnr" v="647310" />
	</node>
	<node id="-420292" lat="59.2281549576" lon="5.82811661377">
		<tag k="name" v="Naustholmen" />
		<tag k="place" v="islet" />
		<tag k="ssr:stedsnr" v="647283" />
	</node>
	<node id="-420291" lat="59.1788944459" lon="5.95316388391">
		<tag k="name" v="Espegrunnen" />
		<tag k="place" v="locality" />
		<tag k="seamark:type" v="rock" />
		<tag k="ssr:stedsnr" v="647257" />
	</node>
	<node id="-420290" lat="59.1557722218" lon="5.75191943796">
		<tag k="name" v="Ryggjungflua" />
		<tag k="natural" v="shoal" />
		<tag k="place" v="locality" />
		<tag k="ssr:stedsnr" v="647251" />
	</node>
	<node id="-420289" lat="59.1615777783" lon="5.76307778058">
		<tag k="name" v="Kalvhagflua" />
		<tag k="natural" v="shoal" />
		<tag k="place" v="locality" />
		<tag k="ssr:stedsnr" v="647249" />
	</node>
	<node id="-420287" lat="59.1179749993" lon="5.8271805546">
		<tag k="name" v="Skifthaugflua" />
		<tag k="natural" v="shoal" />
		<tag k="place" v="locality" />
		<tag k="ssr:stedsnr" v="647106" />
	</node>
	<node id="-420285" lat="59.104111113" lon="5.8803666731">
		<tag k="name" v="Tådeflua" />
		<tag k="place" v="locality" />
		<tag k="seamark:type" v="rock" />
		<tag k="ssr:stedsnr" v="646441" />
	</node>
	<node id="-420284" lat="59.2269166643" lon="5.8867250003">
		<tag k="name" v="Finnøyneset" />
		<tag k="natural" v="cape" />
		<tag k="ssr:stedsnr" v="645712" />
	</node>
	<node id="-420283" lat="59.2267972203" lon="5.94380556276">
		<tag k="name" v="Flotaneset" />
		<tag k="natural" v="cape" />
		<tag k="ssr:stedsnr" v="645664" />
	</node>
	<node id="-420282" lat="59.2585333372" lon="5.83799721521">
		<tag k="name" v="Ramsvik" />
		<tag k="natural" v="bay" />
		<tag k="ssr:stedsnr" v="645349" />
	</node>
	<node id="-420280" lat="59.1707805531" lon="5.66644722547">
		<tag k="name" v="Brennevinsgrunnen" />
		<tag k="natural" v="shoal" />
		<tag k="place" v="locality" />
		<tag k="ssr:stedsnr" v="640925" />
	</node>
	<node id="-420279" lat="59.154922224" lon="5.9461111065">
		<tag k="name" v="Lindøygrunnen" />
		<tag k="natural" v="shoal" />
		<tag k="place" v="locality" />
		<tag k="ssr:stedsnr" v="632058" />
	</node>
	<node id="-420278" lat="59.1490138897" lon="5.95272500497">
		<tag k="name" v="Teistholmgrunnen" />
		<tag k="natural" v="shoal" />
		<tag k="place" v="locality" />
		<tag k="ssr:stedsnr" v="632054" />
	</node>
	<node id="-420270" lat="59.1097527799" lon="5.89548888702">
		<tag k="name" v="Rossøya" />
		<tag k="place" v="island" />
		<tag k="ssr:stedsnr" v="608774" />
	</node>
	<node id="-420269" lat="59.275249997" lon="5.85997499935">
		<tag k="alt_name" v="Fladholmen" />
		<tag k="name" v="Flatholmen" />
		<tag k="place" v="islet" />
		<tag k="ssr:stedsnr" v="608662" />
	</node>
	<node id="-420268" lat="59.1527499995" lon="5.90333611437">
		<tag k="name" v="Bøneset" />
		<tag k="natural" v="cape" />
		<tag k="ssr:stedsnr" v="608643" />
	</node>
	<node id="-420263" lat="59.261325" lon="5.9218999981">
		<tag k="name" v="Peraklubben" />
		<tag k="natural" v="cape" />
		<tag k="ssr:stedsnr" v="608607" />
	</node>
	<node id="-420260" lat="59.1224826295" lon="5.88378821713">
		<tag k="name" v="Fjellberg" />
		<tag k="natural" v="cape" />
		<tag k="ssr:stedsnr" v="608582" />
	</node>
	<node id="-420258" lat="59.1211166701" lon="5.81049999561">
		<tag k="alt_name" v="Longholmen" />
		<tag k="name" v="Langholmen" />
		<tag k="place" v="islet" />
		<tag k="ssr:stedsnr" v="608376" />
	</node>
	<node id="-420257" lat="59.176625" lon="5.77746945178">
		<tag k="name" v="Klubben" />
		<tag k="natural" v="cape" />
		<tag k="ssr:stedsnr" v="608306" />
	</node>
	<node id="-420255" lat="59.1996027746" lon="5.83528611336">
		<tag k="alt_name" v="Hesten" />
		<tag k="name" v="Høna" />
		<tag k="natural" v="cape" />
		<tag k="ssr:stedsnr" v="608292" />
	</node>
	<node id="-420250" lat="59.2846323627" lon="5.79865997042">
		<tag k="alt_name" v="Nordheimsøya;Norheimsøya" />
		<tag k="name" v="Norheimsøyna" />
		<tag k="place" v="island" />
		<tag k="ssr:stedsnr" v="608208" />
	</node>
	<node id="-420249" lat="59.1152861112" lon="5.84431943992">
		<tag k="name" v="Prestholmane" />
		<tag k="place" v="islet" />
		<tag k="ssr:stedsnr" v="607509" />
	</node>
	<node id="-420246" lat="59.167135792" lon="5.80620163902">
		<tag k="name" v="Steinnesvågen" />
		<tag k="natural" v="bay" />
		<tag k="ssr:stedsnr" v="607263" />
	</node>
	<node id="-420245" lat="59.2631118168" lon="5.81163158107">
		<tag k="name" v="Skjøljarvik" />
		<tag k="natural" v="bay" />
		<tag k="ssr:stedsnr" v="605719" />
	</node>
	<node id="-420244" lat="59.2615000019" lon="5.79470277042">
		<tag k="alt_name" v="Udskjer" />
		<tag k="name" v="Utskjer" />
		<tag k="natural" v="cape" />
		<tag k="ssr:stedsnr" v="605715" />
	</node>
	<node id="-420236" lat="59.2490305584" lon="5.85494999844">
		<tag k="name" v="Steinnes" />
		<tag k="natural" v="cape" />
		<tag k="ssr:stedsnr" v="605571" />
	</node>
	<node id="-420232" lat="59.2526972256" lon="5.88101943572">
		<tag k="name" v="Gullskår" />
		<tag k="natural" v="cape" />
		<tag k="ssr:stedsnr" v="605499" />
	</node>
	<node id="-420231" lat="59.2626999988" lon="5.84454444779">
		<tag k="name" v="Oksen" />
		<tag k="place" v="islet" />
		<tag k="ssr:stedsnr" v="605494" />
	</node>
	<node id="-420230" lat="59.2571138903" lon="5.83770834175">
		<tag k="name" v="Ramsvikholmen" />
		<tag k="place" v="islet" />
		<tag k="ssr:stedsnr" v="605493" />
	</node>
	<node id="-420229" lat="59.2685729195" lon="5.83633901283">
		<tag k="name" v="Grønnevik" />
		<tag k="natural" v="bay" />
		<tag k="ssr:stedsnr" v="605487" />
	</node>
	<node id="-420228" lat="59.2919055512" lon="5.98005278014">
		<tag k="name" v="Låvika" />
		<tag k="natural" v="bay" />
		<tag k="ssr:stedsnr" v="605475" />
	</node>
	<node id="-420221" lat="59.1077305592" lon="5.89073054658">
		<tag k="name" v="Vestra Klubbavika" />
		<tag k="natural" v="bay" />
		<tag k="ssr:stedsnr" v="599782" />
	</node>
	<node id="-420220" lat="59.1074083373" lon="5.88815832936">
		<tag k="fixme" v="consider seamark:type=rock or natural=shoal" />
		<tag k="name" v="Skarvaskjeret" />
		<tag k="place" v="islet" />
		<tag k="ssr:stedsnr" v="599779" />
	</node>
	<node id="-420219" lat="59.118455557" lon="5.90361943687">
		<tag k="name" v="Berlestonga" />
		<tag k="natural" v="cape" />
		<tag k="ssr:stedsnr" v="599769" />
	</node>
	<node id="-420216" lat="59.1677277766" lon="5.96480000389">
		<tag k="fixme" v="consider seamark:type=rock or natural=shoal" />
		<tag k="name" v="Skjøljaskjera" />
		<tag k="place" v="islet" />
		<tag k="ssr:stedsnr" v="599443" />
	</node>
	<node id="-420212" lat="59.1967638897" lon="5.81548888583">
		<tag k="name" v="Døvikneset" />
		<tag k="natural" v="cape" />
		<tag k="ssr:stedsnr" v="599224" />
	</node>
	<node id="-420211" lat="59.1686935435" lon="5.80754122246">
		<tag k="name" v="Storehamn" />
		<tag k="natural" v="bay" />
		<tag k="ssr:stedsnr" v="599133" />
	</node>
	<node id="-420210" lat="59.1814527751" lon="5.97494443646">
		<tag k="fixme" v="consider seamark:type=rock or natural=shoal" />
		<tag k="name" v="Lauvvikskjeret" />
		<tag k="place" v="islet" />
		<tag k="ssr:stedsnr" v="599048" />
	</node>
	<node id="-420209" lat="59.17813889" lon="5.96586944717">
		<tag k="name" v="Kunesvika" />
		<tag k="natural" v="bay" />
		<tag k="ssr:stedsnr" v="599044" />
	</node>
	<node id="-420207" lat="59.1413555549" lon="5.949208329">
		<tag k="name" v="Bjørkjevika" />
		<tag k="natural" v="bay" />
		<tag k="ssr:stedsnr" v="598274" />
	</node>
	<node id="-420203" lat="59.2239888869" lon="5.80313332766">
		<tag k="name" v="Skadflua" />
		<tag k="place" v="locality" />
		<tag k="seamark:type" v="rock" />
		<tag k="ssr:stedsnr" v="587323" />
	</node>
	<node id="-420202" lat="59.2274333311" lon="5.77996388699">
		<tag k="name" v="Litle Kubbholmen" />
		<tag k="place" v="islet" />
		<tag k="ssr:stedsnr" v="587321" />
	</node>
	<node id="-420200" lat="59.1891222206" lon="5.80879444206">
		<tag k="name" v="Landaflua" />
		<tag k="place" v="locality" />
		<tag k="seamark:type" v="rock" />
		<tag k="ssr:stedsnr" v="586178" />
	</node>
	<node id="-420198" lat="59.2337694483" lon="5.89904166881">
		<tag k="name" v="Naustberget" />
		<tag k="natural" v="cape" />
		<tag k="ssr:stedsnr" v="585698" />
	</node>
	<node id="-420197" lat="59.2268416677" lon="5.89495277094">
		<tag k="name" v="Halsnesvika" />
		<tag k="natural" v="bay" />
		<tag k="ssr:stedsnr" v="585693" />
	</node>
	<node id="-420196" lat="59.2903972262" lon="5.97091388752">
		<tag k="name" v="Saltkjervika" />
		<tag k="natural" v="bay" />
		<tag k="ssr:stedsnr" v="585520" />
	</node>
	<node id="-420195" lat="59.2912083297" lon="6.00159722186">
		<tag k="alt_name" v="Fåravika" />
		<tag k="name" v="Furevika" />
		<tag k="natural" v="bay" />
		<tag k="ssr:stedsnr" v="585504" />
	</node>
	<node id="-420194" lat="59.2525222225" lon="5.77838611268">
		<tag k="name" v="Brokarflua" />
		<tag k="place" v="locality" />
		<tag k="seamark:type" v="rock" />
		<tag k="ssr:stedsnr" v="585272" />
	</node>
	<node id="-420193" lat="59.2694638933" lon="5.84853610674">
		<tag k="name" v="Grunnasundholmen" />
		<tag k="place" v="islet" />
		<tag k="ssr:stedsnr" v="584383" />
	</node>
	<node id="-420192" lat="59.262188885" lon="5.84717222212">
		<tag k="name" v="Kalvaneset" />
		<tag k="natural" v="cape" />
		<tag k="ssr:stedsnr" v="584378" />
	</node>
	<node id="-420191" lat="59.2743750025" lon="5.8187583355">
		<tag k="name" v="Seiaskatet" />
		<tag k="place" v="locality" />
		<tag k="seamark:type" v="rock" />
		<tag k="ssr:stedsnr" v="584359" />
	</node>
	<node id="-420190" lat="59.1630638862" lon="5.8660888884">
		<tag k="name" v="Viga" />
		<tag k="natural" v="bay" />
		<tag k="ssr:stedsnr" v="571979" />
	</node>
	<node id="-420189" lat="59.1583833359" lon="5.97024722222">
		<tag k="name" v="Ladbergvika" />
		<tag k="natural" v="bay" />
		<tag k="ssr:stedsnr" v="571977" />
	</node>
	<node id="-420188" lat="59.2274361069" lon="5.93243611896">
		<tag k="alt_name" v="Eidsnes" />
		<tag k="name" v="Eidsneset" />
		<tag k="natural" v="cape" />
		<tag k="ssr:stedsnr" v="548936" />
	</node>
	<node id="-420187" lat="59.0963250024" lon="5.87568611919">
		<tag k="fixme" v="consider seamark:type=rock or natural=shoal" />
		<tag k="name" v="Tåde" />
		<tag k="place" v="islet" />
		<tag k="ssr:stedsnr" v="548713" />
	</node>
	<node id="-420186" lat="59.2783750043" lon="5.93327499528">
		<tag k="name" v="Selodden" />
		<tag k="natural" v="cape" />
		<tag k="ssr:stedsnr" v="548616" />
	</node>
	<node id="-420183" lat="59.2644805542" lon="5.90779721961">
		<tag k="alt_name" v="Gapafjorden;Gabafjorden" />
		<tag k="bay" v="fjord" />
		<tag k="name" v="Vestre Ombofjorden" />
		<tag k="natural" v="bay" />
		<tag k="old_name" v="Garpefjorden" />
		<tag k="ssr:stedsnr" v="548584" />
	</node>
	<node id="-420181" lat="59.1149000012" lon="5.82128332868">
		<tag k="name" v="Østabørorstø" />
		<tag k="natural" v="bay" />
		<tag k="ssr:stedsnr" v="548338" />
	</node>
	<node id="-420180" lat="59.2261583372" lon="5.7813888847">
		<tag k="alt_name" v="Kubbholmen" />
		<tag k="name" v="Store Kubbholmen" />
		<tag k="place" v="islet" />
		<tag k="ssr:stedsnr" v="548308" />
	</node>
	<node id="-420179" lat="59.252438889" lon="5.8371499978">
		<tag k="name" v="Eriksholmen" />
		<tag k="place" v="islet" />
		<tag k="ssr:stedsnr" v="548284" />
	</node>
	<node id="-420178" lat="59.2616083345" lon="5.77249999801">
		<tag k="name" v="Fiskholmane" />
		<tag k="place" v="islet" />
		<tag k="ssr:stedsnr" v="548264" />
	</node>
	<node id="-420177" lat="59.279405558" lon="5.80843610543">
		<tag k="alt_name" v="Nordheimslamholmen;Norheims-Lamholmen" />
		<tag k="name" v="Norheimslamholmen" />
		<tag k="place" v="islet" />
		<tag k="ssr:stedsnr" v="548258" />
	</node>
	<node id="-420176" lat="59.2687555553" lon="5.78355832554">
		<tag k="name" v="Sjernarøyane" />
		<tag k="place" v="island" />
		<tag k="ssr:stedsnr" v="548256" />
	</node>
	<node id="-420175" lat="59.2079999983" lon="5.95111110791">
		<tag k="name" v="Kunes" />
		<tag k="natural" v="cape" />
		<tag k="ssr:stedsnr" v="547972" />
	</node>
	<node id="-420172" lat="59.1611138879" lon="5.95166666466">
		<tag k="name" v="Måløya" />
		<tag k="place" v="island" />
		<tag k="ssr:stedsnr" v="547644" />
	</node>
	<node id="-420171" lat="59.134152781" lon="5.9479250023">
		<tag k="name" v="Selvågneset" />
		<tag k="natural" v="cape" />
		<tag k="ssr:stedsnr" v="547605" />
	</node>
	<node id="-420170" lat="59.137973655" lon="5.94521364175">
		<tag k="name" v="Selvågvågen" />
		<tag k="natural" v="bay" />
		<tag k="ssr:stedsnr" v="547600" />
	</node>
	<node id="-420169" lat="59.2395166665" lon="5.80596943728">
		<tag k="alt_name" v="Tungeholmen" />
		<tag k="name" v="Tungholmen" />
		<tag k="natural" v="cape" />
		<tag k="ssr:stedsnr" v="547505" />
	</node>
	<node id="-420168" lat="59.1386527791" lon="5.79753332542">
		<tag k="alt_name" v="Navar" />
		<tag k="name" v="Navarnes" />
		<tag k="natural" v="cape" />
		<tag k="ssr:stedsnr" v="547310" />
	</node>
	<node id="-420166" lat="59.1546111133" lon="5.77589999323">
		<tag k="alt_name" v="Skarvabergvågen" />
		<tag k="name" v="Skardabergvågen" />
		<tag k="natural" v="bay" />
		<tag k="ssr:stedsnr" v="547303" />
	</node>
	<node id="-420162" lat="59.2414194415" lon="5.81071111932">
		<tag k="name" v="Øygjaneset" />
		<tag k="natural" v="cape" />
		<tag k="ssr:stedsnr" v="545503" />
	</node>
	<node id="-420161" lat="59.2649861068" lon="5.88681111407">
		<tag k="name" v="Gabastneset" />
		<tag k="natural" v="cape" />
		<tag k="ssr:stedsnr" v="545467" />
	</node>
	<node id="-420157" lat="59.1085250027" lon="5.8874444398">
		<tag k="fixme" v="consider seamark:type=rock or natural=shoal" />
		<tag k="name" v="Goaskjeret" />
		<tag k="place" v="islet" />
		<tag k="ssr:stedsnr" v="539753" />
	</node>
	<node id="-420156" lat="59.1171500047" lon="5.88592778455">
		<tag k="name" v="Erenes" />
		<tag k="natural" v="cape" />
		<tag k="ssr:stedsnr" v="539744" />
	</node>
	<node id="-420155" lat="59.1533000018" lon="5.93554721538">
		<tag k="name" v="Kjørebergklubben" />
		<tag k="natural" v="cape" />
		<tag k="ssr:stedsnr" v="539626" />
	</node>
	<node id="-420154" lat="59.1570166701" lon="5.86282777996">
		<tag k="name" v="Torvvika" />
		<tag k="natural" v="bay" />
		<tag k="ssr:stedsnr" v="539600" />
	</node>
	<node id="-420153" lat="59.1624861132" lon="5.9360222216">
		<tag k="name" v="Steinsvik" />
		<tag k="natural" v="bay" />
		<tag k="ssr:stedsnr" v="539581" />
	</node>
	<node id="-420152" lat="59.153297226" lon="5.85286389138">
		<tag k="name" v="Blåskår" />
		<tag k="natural" v="cape" />
		<tag k="ssr:stedsnr" v="539565" />
	</node>
	<node id="-420151" lat="59.191030559" lon="5.98649722464">
		<tag k="name" v="Herøyvågen" />
		<tag k="natural" v="bay" />
		<tag k="ssr:stedsnr" v="539306" />
	</node>
	<node id="-420150" lat="59.1257166666" lon="5.87698610464">
		<tag k="name" v="Blåbærholet" />
		<tag k="natural" v="bay" />
		<tag k="ssr:stedsnr" v="539292" />
	</node>
	<node id="-420149" lat="59.1402781906" lon="5.82993364279">
		<tag k="name" v="Bjøravåg" />
		<tag k="natural" v="bay" />
		<tag k="ssr:stedsnr" v="539282" />
	</node>
	<node id="-420148" lat="59.1304535887" lon="5.93608587276">
		<tag k="name" v="Bekkjavika" />
		<tag k="natural" v="bay" />
		<tag k="ssr:stedsnr" v="539260" />
	</node>
	<node id="-420145" lat="59.164718316" lon="5.79587837273">
		<tag k="name" v="Sandvika" />
		<tag k="natural" v="bay" />
		<tag k="ssr:stedsnr" v="539110" />
	</node>
	<node id="-420144" lat="59.1821638927" lon="5.97381388803">
		<tag k="name" v="Lauvvika" />
		<tag k="natural" v="bay" />
		<tag k="ssr:stedsnr" v="539046" />
	</node>
	<node id="-420141" lat="59.2300320189" lon="5.79576215759">
		<tag k="alt_name" v="Røydevågen" />
		<tag k="name" v="Røytevågen" />
		<tag k="natural" v="bay" />
		<tag k="ssr:stedsnr" v="526292" />
	</node>
	<node id="-420139" lat="59.2102361126" lon="5.94731944114">
		<tag k="name" v="Djupevik" />
		<tag k="natural" v="bay" />
		<tag k="ssr:stedsnr" v="526028" />
	</node>
	<node id="-420135" lat="59.2527555511" lon="5.92619722071">
		<tag k="alt_name" v="Hedleneset" />
		<tag k="name" v="Helleneset" />
		<tag k="natural" v="cape" />
		<tag k="ssr:stedsnr" v="524641" />
	</node>
	<node id="-420134" lat="59.2622138874" lon="5.82126111396">
		<tag k="alt_name" v="Skitnavåg" />
		<tag k="name" v="Skitnavågen" />
		<tag k="natural" v="bay" />
		<tag k="ssr:stedsnr" v="524322" />
	</node>
	<node id="-420132" lat="59.2787388853" lon="5.79378333852">
		<tag k="name" v="Nordra Ådnaholmflua" />
		<tag k="place" v="locality" />
		<tag k="seamark:type" v="rock" />
		<tag k="ssr:stedsnr" v="524316" />
	</node>
	<node id="-420131" lat="59.2448415814" lon="5.79604290837">
		<tag k="name" v="Selsvika" />
		<tag k="natural" v="bay" />
		<tag k="ssr:stedsnr" v="524283" />
	</node>
	<node id="-420130" lat="59.1645472246" lon="5.87848332545">
		<tag k="name" v="Fåholmflua" />
		<tag k="natural" v="shoal" />
		<tag k="place" v="locality" />
		<tag k="ssr:stedsnr" v="511975" />
	</node>
	<node id="-420129" lat="59.1613583364" lon="5.99077222138">
		<tag k="name" v="Kuneset" />
		<tag k="natural" v="cape" />
		<tag k="ssr:stedsnr" v="511051" />
	</node>
	<node id="-420128" lat="59.1584527747" lon="5.92436111686">
		<tag k="name" v="Sæbøneset" />
		<tag k="natural" v="cape" />
		<tag k="ssr:stedsnr" v="511050" />
	</node>
	<node id="-420126" lat="59.2867750008" lon="5.94835000499">
		<tag k="fixme" v="consider seamark:type=rock or natural=shoal" />
		<tag k="name" v="Jørstadskjera" />
		<tag k="place" v="islet" />
		<tag k="ssr:stedsnr" v="488482" />
	</node>
	<node id="-420122" lat="59.2251611093" lon="5.84970833274">
		<tag k="name" v="Kobbholmen" />
		<tag k="place" v="islet" />
		<tag k="ssr:stedsnr" v="487983" />
	</node>
	<node id="-420121" lat="59.2282480196" lon="5.87532597564">
		<tag k="name" v="Dampagrunnen" />
		<tag k="natural" v="shoal" />
		<tag k="place" v="locality" />
		<tag k="ssr:stedsnr" v="487982" />
	</node>
	<node id="-420120" lat="59.1977927669" lon="5.95847563147">
		<tag k="alt_name" v="Skartveidvågen" />
		<tag k="name" v="Skardtveitvågen" />
		<tag k="natural" v="bay" />
		<tag k="ssr:stedsnr" v="487921" />
	</node>
	<node id="-420117" lat="59.2574749976" lon="5.84532499834">
		<tag k="alt_name" v="Fårasundet" />
		<tag k="name" v="Furasundet" />
		<tag k="natural" v="strait" />
		<tag k="ssr:stedsnr" v="487635" />
	</node>
	<node id="-420116" lat="59.2624249983" lon="5.86256111423">
		<tag k="alt_name" v="Bjergøyna" />
		<tag k="name" v="Bjergøy" />
		<tag k="place" v="island" />
		<tag k="ssr:stedsnr" v="487630" />
	</node>
	<node id="-420113" lat="59.222888888" lon="5.84198333662">
		<tag k="name" v="Helgøysundet" />
		<tag k="natural" v="strait" />
		<tag k="ssr:stedsnr" v="487496" />
	</node>
	<node id="-420112" lat="59.2350666621" lon="5.79205554752">
		<tag k="name" v="Risholmen" />
		<tag k="place" v="islet" />
		<tag k="ssr:stedsnr" v="487489" />
	</node>
	<node id="-420111" lat="59.1776916627" lon="5.96306943851">
		<tag k="name" v="Kunes" />
		<tag k="natural" v="cape" />
		<tag k="ssr:stedsnr" v="487384" />
	</node>
	<node id="-420110" lat="59.1097031969" lon="5.80843549687">
		<tag k="alt_name" v="Ystabøvågen" />
		<tag k="name" v="Østabøvågen" />
		<tag k="natural" v="bay" />
		<tag k="ssr:stedsnr" v="487351" />
	</node>
	<node id="-420109" lat="59.1853749969" lon="5.81128611103">
		<tag k="name" v="Nordbøvågen" />
		<tag k="natural" v="bay" />
		<tag k="ssr:stedsnr" v="487316" />
	</node>
	<node id="-420108" lat="59.1726444412" lon="5.75779721889">
		<tag k="name" v="Midflua" />
		<tag k="natural" v="shoal" />
		<tag k="place" v="locality" />
		<tag k="ssr:stedsnr" v="487310" />
	</node>
	<node id="-420107" lat="59.2007611082" lon="5.8249027777">
		<tag k="alt_name" v="Bragjen" />
		<tag k="name" v="Braken" />
		<tag k="natural" v="cape" />
		<tag k="ssr:stedsnr" v="487304" />
	</node>
	<node id="-420106" lat="59.2076416703" lon="5.81416944425">
		<tag k="alt_name" v="Foreholmen" />
		<tag k="name" v="Fureholmen" />
		<tag k="place" v="islet" />
		<tag k="ssr:stedsnr" v="487303" />
	</node>
	<node id="-420104" lat="59.264638893" lon="5.79152776988">
		<tag k="alt_name" v="Krågeholmen" />
		<tag k="fixme" v="consider seamark:type=rock or natural=shoal" />
		<tag k="name" v="Kråke" />
		<tag k="place" v="islet" />
		<tag k="ssr:stedsnr" v="487264" />
	</node>
	<node id="-420103" lat="59.2606355495" lon="5.80013394266">
		<tag k="alt_name" v="Skjæra;Skjerene" />
		<tag k="name" v="Skjera" />
		<tag k="natural" v="cape" />
		<tag k="ssr:stedsnr" v="487261" />
	</node>
	<node id="-420102" lat="59.2031111138" lon="5.92261666012">
		<tag k="alt_name" v="Øksneset" />
		<tag k="name" v="Øksnes" />
		<tag k="natural" v="cape" />
		<tag k="ssr:stedsnr" v="486910" />
	</node>
	<node id="-420101" lat="59.1594916658" lon="5.93105277465">
		<tag k="name" v="Sæbøsundet" />
		<tag k="natural" v="strait" />
		<tag k="ssr:stedsnr" v="486638" />
	</node>
	<node id="-420100" lat="59.1523555536" lon="5.97272222756">
		<tag k="name" v="Lyngholmen" />
		<tag k="place" v="islet" />
		<tag k="ssr:stedsnr" v="486587" />
	</node>
	<node id="-420099" lat="59.1814361092" lon="5.80250556268">
		<tag k="name" v="Kvernavika" />
		<tag k="natural" v="bay" />
		<tag k="ssr:stedsnr" v="486387" />
	</node>
	<node id="-420098" lat="59.1071444453" lon="5.82456944845">
		<tag k="name" v="Talgje" />
		<tag k="place" v="island" />
		<tag k="ssr:stedsnr" v="486385" />
	</node>
	<node id="-420096" lat="59.1724548484" lon="5.78586842836">
		<tag k="alt_name" v="Båsvika" />
		<tag k="name" v="Båsavika" />
		<tag k="natural" v="bay" />
		<tag k="ssr:stedsnr" v="486263" />
	</node>
	<node id="-420095" lat="59.2477305595" lon="5.78999722809">
		<tag k="name" v="Mannavik" />
		<tag k="natural" v="bay" />
		<tag k="ssr:stedsnr" v="484803" />
	</node>
	<node id="-420094" lat="59.2506833311" lon="5.82347777694">
		<tag k="name" v="Stornes" />
		<tag k="natural" v="cape" />
		<tag k="ssr:stedsnr" v="484727" />
	</node>
	<node id="-420093" lat="59.2782777822" lon="5.80717222712">
		<tag k="name" v="Svenskeval" />
		<tag k="natural" v="bay" />
		<tag k="ssr:stedsnr" v="484705" />
	</node>
	<node id="-420091" lat="59.2206861099" lon="5.83017777545">
		<tag k="name" v="Hildrane" />
		<tag k="natural" v="cape" />
		<tag k="ssr:stedsnr" v="484601" />
	</node>
	<node id="-420090" lat="59.2087527758" lon="5.93473055925">
		<tag k="name" v="Halsne" />
		<tag k="place" v="island" />
		<tag k="ssr:stedsnr" v="484589" />
	</node>
	<node id="-420089" lat="59.2312666696" lon="5.838786108">
		<tag k="fixme" v="consider seamark:type=rock or natural=shoal" />
		<tag k="name" v="Skarvaskjer" />
		<tag k="place" v="islet" />
		<tag k="ssr:stedsnr" v="484552" />
	</node>
	<node id="-420088" lat="59.2546777786" lon="5.8480250034">
		<tag k="loc_name" v="Meieriholmen" />
		<tag k="name" v="Naustholmen" />
		<tag k="place" v="islet" />
		<tag k="ssr:stedsnr" v="484479" />
	</node>
	<node id="-420087" lat="59.2543138901" lon="5.83014166386">
		<tag k="name" v="Grovik" />
		<tag k="natural" v="bay" />
		<tag k="ssr:stedsnr" v="484478" />
	</node>
	<node id="-420080" lat="59.1320888853" lon="5.88004167422">
		<tag k="name" v="Tangen" />
		<tag k="place" v="locality" />
		<tag k="seamark:type" v="rock" />
		<tag k="ssr:stedsnr" v="466112" />
	</node>
	<node id="-420079" lat="59.1005916708" lon="5.85740278146">
		<tag k="name" v="Håberggrunnen" />
		<tag k="natural" v="shoal" />
		<tag k="place" v="locality" />
		<tag k="ssr:stedsnr" v="466081" />
	</node>
	<node id="-420078" lat="59.1009166705" lon="5.81471110455">
		<tag k="name" v="Prestnesboen" />
		<tag k="natural" v="shoal" />
		<tag k="place" v="locality" />
		<tag k="ssr:stedsnr" v="466082" />
	</node>
	<node id="-420077" lat="59.185839362" lon="5.95452856438">
		<tag k="name" v="Søra Nødvika" />
		<tag k="natural" v="bay" />
		<tag k="ssr:stedsnr" v="465246" />
	</node>
	<node id="-420076" lat="59.1630361128" lon="5.71449443604">
		<tag k="name" v="Dåpsflua" />
		<tag k="natural" v="shoal" />
		<tag k="place" v="locality" />
		<tag k="ssr:stedsnr" v="465243" />
	</node>
	<node id="-420074" lat="59.2711166688" lon="5.77439721403">
		<tag k="name" v="Egga" />
		<tag k="natural" v="shoal" />
		<tag k="place" v="locality" />
		<tag k="ssr:stedsnr" v="464338" />
	</node>
	<node id="-420073" lat="59.2634166629" lon="5.81423333517">
		<tag k="name" v="Jonodden" />
		<tag k="natural" v="cape" />
		<tag k="ssr:stedsnr" v="464339" />
	</node>
	<node id="-420072" lat="59.2537249976" lon="5.82733611087">
		<tag k="name" v="Laugarvika" />
		<tag k="natural" v="bay" />
		<tag k="ssr:stedsnr" v="464331" />
	</node>
	<node id="-420071" lat="59.2695777813" lon="5.82398056169">
		<tag k="fixme" v="consider seamark:type=rock or natural=shoal" />
		<tag k="name" v="Konte" />
		<tag k="place" v="islet" />
		<tag k="ssr:stedsnr" v="463351" />
	</node>
	<node id="-420070" lat="59.2515777754" lon="5.8782611075">
		<tag k="name" v="Skjelsandvika" />
		<tag k="natural" v="bay" />
		<tag k="ssr:stedsnr" v="464732" />
	</node>
	<node id="-420069" lat="59.1477083353" lon="5.85098055734">
		<tag k="name" v="Lamholmen" />
		<tag k="place" v="islet" />
		<tag k="ssr:stedsnr" v="450030" />
	</node>
	<node id="-420067" lat="59.2269811585" lon="5.94721190536">
		<tag k="name" v="Sørevågen" />
		<tag k="natural" v="bay" />
		<tag k="ssr:stedsnr" v="427943" />
	</node>
	<node id="-420065" lat="59.1755194468" lon="5.96146111143">
		<tag k="alt_name" v="Saltkilholmane" />
		<tag k="name" v="Saltkjelholmen" />
		<tag k="place" v="islet" />
		<tag k="ssr:stedsnr" v="427870" />
	</node>
	<node id="-420064" lat="59.1797805575" lon="5.95842500392">
		<tag k="alt_name" v="Ligvika" />
		<tag k="name" v="Likvika" />
		<tag k="natural" v="bay" />
		<tag k="ssr:stedsnr" v="427848" />
	</node>
	<node id="-420063" lat="59.1860501503" lon="5.95241387046">
		<tag k="alt_name" v="Nødvika" />
		<tag k="name" v="Nautvika" />
		<tag k="natural" v="bay" />
		<tag k="ssr:stedsnr" v="427847" />
	</node>
	<node id="-420058" lat="59.1054138901" lon="5.82071111317">
		<tag k="name" v="Melingsvågen" />
		<tag k="natural" v="bay" />
		<tag k="ssr:stedsnr" v="427361" />
	</node>
	<node id="-420056" lat="59.2176833295" lon="5.6908499969">
		<tag k="name" v="Lyrgrunnen" />
		<tag k="natural" v="shoal" />
		<tag k="place" v="locality" />
		<tag k="ssr:stedsnr" v="427315" />
	</node>
	<node id="-420054" lat="59.1878694479" lon="5.86465000234">
		<tag k="name" v="Sjøbuneset" />
		<tag k="natural" v="cape" />
		<tag k="ssr:stedsnr" v="426930" />
	</node>
	<node id="-420052" lat="59.1428249982" lon="5.84869999589">
		<tag k="name" v="Espholmen" />
		<tag k="place" v="islet" />
		<tag k="ssr:stedsnr" v="426587" />
	</node>
	<node id="-420051" lat="59.1325333331" lon="5.89335278064">
		<tag k="name" v="Sauholmen" />
		<tag k="place" v="islet" />
		<tag k="ssr:stedsnr" v="426537" />
	</node>
	<node id="-420050" lat="59.1147000029" lon="5.84797500654">
		<tag k="alt_name" v="Jubenes" />
		<tag k="name" v="Djupaneset" />
		<tag k="natural" v="cape" />
		<tag k="ssr:stedsnr" v="426518" />
	</node>
	<node id="-420049" lat="59.2480861135" lon="5.82734722587">
		<tag k="name" v="Hestholmen" />
		<tag k="place" v="islet" />
		<tag k="ssr:stedsnr" v="426424" />
	</node>
	<node id="-420048" lat="59.1576777739" lon="5.91837499297">
		<tag k="name" v="Klubben" />
		<tag k="natural" v="cape" />
		<tag k="ssr:stedsnr" v="426353" />
	</node>
	<node id="-420047" lat="59.1205361125" lon="5.80296666577">
		<tag k="alt_name" v="Kubbholmen" />
		<tag k="name" v="Kobbholmen" />
		<tag k="place" v="islet" />
		<tag k="ssr:stedsnr" v="426350" />
	</node>
	<node id="-420045" lat="59.1608861089" lon="5.73715554864">
		<tag k="name" v="Sandøya" />
		<tag k="place" v="islet" />
		<tag k="ssr:stedsnr" v="426247" />
	</node>
	<node id="-420044" lat="59.1537749995" lon="5.74129999693">
		<tag k="fixme" v="consider seamark:type=rock or natural=shoal" />
		<tag k="name" v="Ryggjungskjera" />
		<tag k="place" v="islet" />
		<tag k="ssr:stedsnr" v="426246" />
	</node>
	<node id="-420043" lat="59.1645249972" lon="5.77573334177">
		<tag k="alt_name" v="Jonstø" />
		<tag k="name" v="Jonsstø" />
		<tag k="natural" v="bay" />
		<tag k="ssr:stedsnr" v="426245" />
	</node>
	<node id="-420042" lat="59.2699444406" lon="5.82617778165">
		<tag k="name" v="Tøgjevika" />
		<tag k="natural" v="bay" />
		<tag k="ssr:stedsnr" v="424711" />
	</node>
	<node id="-420041" lat="59.28277778" lon="5.80488889698">
		<tag k="name" v="Teineholmen" />
		<tag k="place" v="islet" />
		<tag k="ssr:stedsnr" v="424697" />
	</node>
	<node id="-420040" lat="59.2256777781" lon="5.84068889536">
		<tag k="name" v="Vardnes" />
		<tag k="natural" v="cape" />
		<tag k="ssr:stedsnr" v="424582" />
	</node>
	<node id="-420039" lat="59.2435027805" lon="5.81942777002">
		<tag k="name" v="Mørkevik" />
		<tag k="natural" v="bay" />
		<tag k="ssr:stedsnr" v="424517" />
	</node>
	<node id="-420038" lat="59.2691999993" lon="5.8841611172">
		<tag k="name" v="Fagervik" />
		<tag k="natural" v="bay" />
		<tag k="ssr:stedsnr" v="424465" />
	</node>
	<node id="-420035" lat="59.1085805562" lon="5.88529165969">
		<tag k="fixme" v="consider seamark:type=rock or natural=shoal" />
		<tag k="name" v="Påsken" />
		<tag k="place" v="islet" />
		<tag k="ssr:stedsnr" v="418747" />
	</node>
	<node id="-420034" lat="59.1655166706" lon="5.97757777411">
		<tag k="name" v="Jarvor" />
		<tag k="natural" v="cape" />
		<tag k="ssr:stedsnr" v="418448" />
	</node>
	<node id="-420033" lat="59.1687500044" lon="5.96133055798">
		<tag k="name" v="Sandholmen" />
		<tag k="place" v="islet" />
		<tag k="ssr:stedsnr" v="418442" />
	</node>
	<node id="-420032" lat="59.1744138883" lon="5.94226944309">
		<tag k="fixme" v="consider seamark:type=rock or natural=shoal" />
		<tag k="name" v="Brødne" />
		<tag k="place" v="islet" />
		<tag k="ssr:stedsnr" v="418438" />
	</node>
	<node id="-420030" lat="59.1235777787" lon="5.92397499994">
		<tag k="name" v="Kobbavika" />
		<tag k="natural" v="bay" />
		<tag k="ssr:stedsnr" v="418297" />
	</node>
	<node id="-420027" lat="59.1513722199" lon="5.85615555536">
		<tag k="name" v="Kattholmen" />
		<tag k="place" v="islet" />
		<tag k="ssr:stedsnr" v="417634" />
	</node>
	<node id="-420026" lat="59.1579368213" lon="5.77570507091">
		<tag k="name" v="Sævheimsvågen" />
		<tag k="natural" v="bay" />
		<tag k="ssr:stedsnr" v="417584" />
	</node>
	<node id="-420025" lat="59.1564166667" lon="5.74214721644">
		<tag k="fixme" v="consider seamark:type=rock or natural=shoal" />
		<tag k="name" v="Ryggjung" />
		<tag k="place" v="islet" />
		<tag k="ssr:stedsnr" v="417550" />
	</node>
	<node id="-420024" lat="59.1616250029" lon="5.73799444705">
		<tag k="name" v="Sandøyvågen" />
		<tag k="natural" v="bay" />
		<tag k="ssr:stedsnr" v="417546" />
	</node>
	<node id="-420023" lat="59.1941166707" lon="5.96620555384">
		<tag k="alt_name" v="Hadlevika" />
		<tag k="name" v="Hellevik" />
		<tag k="natural" v="bay" />
		<tag k="ssr:stedsnr" v="417343" />
	</node>
	<node id="-420020" lat="59.1126158265" lon="5.80535128381">
		<tag k="name" v="Ystabøhamna" />
		<tag k="natural" v="bay" />
		<tag k="ssr:stedsnr" v="479971" />
	</node>
	<node id="-420018" lat="59.1112416679" lon="5.80552222221">
		<tag k="name" v="Kjørpenes" />
		<tag k="natural" v="cape" />
		<tag k="ssr:stedsnr" v="479947" />
	</node>
	<node id="-420017" lat="59.154023711" lon="5.85553867006">
		<tag k="name" v="Nådesundet" />
		<tag k="natural" v="strait" />
		<tag k="ssr:stedsnr" v="268050" />
	</node>
	<node id="-420010" lat="59.2970499989" lon="6.05025000117">
		<tag k="name" v="Røykjanes" />
		<tag k="natural" v="cape" />
		<tag k="ssr:stedsnr" v="245497" />
	</node>
	<node id="-420009" lat="59.2696750033" lon="5.81619444229">
		<tag k="name" v="Bleie" />
		<tag k="place" v="islet" />
		<tag k="ssr:stedsnr" v="245245" />
	</node>
	<node id="-420008" lat="59.2341277767" lon="5.9303444431">
		<tag k="name" v="Eidsholmen" />
		<tag k="place" v="islet" />
		<tag k="ssr:stedsnr" v="244996" />
	</node>
	<node id="-420007" lat="59.2640888929" lon="6.00833332422">
		<tag k="name" v="Ombo" />
		<tag k="place" v="island" />
		<tag k="ssr:stedsnr" v="244974" />
	</node>
	<node id="-420004" lat="59.1667583353" lon="5.87958888017">
		<tag k="name" v="Fåholmen" />
		<tag k="place" v="islet" />
		<tag k="ssr:stedsnr" v="244895" />
	</node>
	<node id="-420003" lat="59.1737888904" lon="5.9261111024">
		<tag k="name" v="Viglaren" />
		<tag k="place" v="islet" />
		<tag k="ssr:stedsnr" v="244894" />
	</node>
	<node id="-420002" lat="59.1780583356" lon="5.87903611538">
		<tag k="alt_name" v="Smørhella" />
		<tag k="fixme" v="consider seamark:type=rock or natural=shoal" />
		<tag k="name" v="Smørhellene" />
		<tag k="place" v="islet" />
		<tag k="ssr:stedsnr" v="244881" />
	</node>
	<node id="-420000" lat="59.1771666691" lon="5.97310000436">
		<tag k="name" v="Stavnes" />
		<tag k="natural" v="cape" />
		<tag k="ssr:stedsnr" v="244650" />
	</node>
	<node id="-419999" lat="59.1559388917" lon="5.98223889103">
		<tag k="name" v="Buøysundet" />
		<tag k="natural" v="strait" />
		<tag k="ssr:stedsnr" v="244620" />
	</node>
	<node id="-419996" lat="59.1167750045" lon="5.8986611177">
		<tag k="name" v="Grasholmen" />
		<tag k="place" v="islet" />
		<tag k="ssr:stedsnr" v="244567" />
	</node>
	<node id="-419995" lat="59.1208699635" lon="5.90993604998">
		<tag k="name" v="Holevågen" />
		<tag k="natural" v="bay" />
		<tag k="ssr:stedsnr" v="244564" />
	</node>
	<node id="-419993" lat="59.1069027756" lon="5.88054166923">
		<tag k="name" v="Fiskholmen" />
		<tag k="place" v="islet" />
		<tag k="ssr:stedsnr" v="244540" />
	</node>
	<node id="-419991" lat="59.23090836" lon="5.84769925472">
		<tag k="name" v="Helgøy" />
		<tag k="place" v="island" />
		<tag k="ssr:stedsnr" v="244469" />
	</node>
	<node id="-419990" lat="59.1682861072" lon="5.69753611063">
		<tag k="fixme" v="consider seamark:type=rock or natural=shoal" />
		<tag k="name" v="Svortingane" />
		<tag k="place" v="islet" />
		<tag k="ssr:stedsnr" v="244302" />
	</node>
	<node id="-419989" lat="59.1657527753" lon="5.72389443726">
		<tag k="name" v="Vignesholmane" />
		<tag k="place" v="islet" />
		<tag k="ssr:stedsnr" v="244303" />
	</node>
	<node id="-419988" lat="59.1752111069" lon="5.75830833934">
		<tag k="name" v="Nordflua" />
		<tag k="natural" v="shoal" />
		<tag k="place" v="locality" />
		<tag k="ssr:stedsnr" v="244297" />
	</node>
	<node id="-419987" lat="59.19183333" lon="5.80966944422">
		<tag k="alt_name" v="Hopsneset" />
		<tag k="name" v="Disken" />
		<tag k="natural" v="cape" />
		<tag k="ssr:stedsnr" v="244289" />
	</node>
	<node id="-419986" lat="59.2178888861" lon="5.80756944074">
		<tag k="fixme" v="consider seamark:type=rock or natural=shoal" />
		<tag k="name" v="Svorteskjera" />
		<tag k="place" v="islet" />
		<tag k="ssr:stedsnr" v="244282" />
	</node>
	<node id="-419985" lat="59.1466000001" lon="5.78006666085">
		<tag k="name" v="Følavika" />
		<tag k="natural" v="bay" />
		<tag k="ssr:stedsnr" v="244273" />
	</node>
	<node id="-419984" lat="59.1612194478" lon="5.74722499526">
		<tag k="name" v="Kobbsloen" />
		<tag k="natural" v="shoal" />
		<tag k="place" v="locality" />
		<tag k="ssr:stedsnr" v="244253" />
	</node>
	<node id="-419983" lat="59.2648416691" lon="5.80783333973">
		<tag k="name" v="Nordskjersundet" />
		<tag k="natural" v="strait" />
		<tag k="ssr:stedsnr" v="242691" />
	</node>
	<node id="-419978" lat="59.2332166649" lon="5.84137777406">
		<tag k="name" v="Kjipeneset" />
		<tag k="natural" v="cape" />
		<tag k="ssr:stedsnr" v="242534" />
	</node>
	<node id="-419976" lat="59.2490666694" lon="5.85050834072">
		<tag k="name" v="Sandvika" />
		<tag k="natural" v="bay" />
		<tag k="ssr:stedsnr" v="242531" />
	</node>
	<node id="-419973" lat="59.2898438657" lon="5.96541349559">
		<tag k="name" v="Skjølevik" />
		<tag k="natural" v="bay" />
		<tag k="ssr:stedsnr" v="242420" />
	</node>
	<node id="-419964" lat="59.2060388925" lon="5.81150554691">
		<tag k="name" v="Lyrnes" />
		<tag k="natural" v="cape" />
		<tag k="ssr:stedsnr" v="236247" />
	</node>
	<node id="-419962" lat="59.1695665255" lon="5.78758502112">
		<tag k="name" v="Gardsvika" />
		<tag k="natural" v="bay" />
		<tag k="ssr:stedsnr" v="236130" />
	</node>
	<node id="-419961" lat="59.1762805594" lon="5.77430832558">
		<tag k="name" v="Hedlevika" />
		<tag k="natural" v="bay" />
		<tag k="ssr:stedsnr" v="236128" />
	</node>
	<node id="-419960" lat="59.100749996" lon="5.84213610956">
		<tag k="name" v="Sjubbenes" />
		<tag k="natural" v="cape" />
		<tag k="ssr:stedsnr" v="235793" />
	</node>
	<node id="-419954" lat="59.1603111089" lon="5.86112500514">
		<tag k="name" v="Søre Vågjen" />
		<tag k="natural" v="bay" />
		<tag k="ssr:stedsnr" v="235616" />
	</node>
	<node id="-419953" lat="59.1633638849" lon="5.87675555462">
		<tag k="fixme" v="consider seamark:type=rock or natural=shoal" />
		<tag k="name" v="Dravsekk" />
		<tag k="place" v="islet" />
		<tag k="ssr:stedsnr" v="235614" />
	</node>
	<node id="-419948" lat="59.1592472203" lon="5.91991389305">
		<tag k="name" v="Tausaskjergrunnen" />
		<tag k="natural" v="shoal" />
		<tag k="place" v="locality" />
		<tag k="ssr:stedsnr" v="268986" />
	</node>
	<node id="-419947" lat="59.1547527747" lon="5.95793610727">
		<tag k="name" v="Kråga" />
		<tag k="natural" v="shoal" />
		<tag k="place" v="locality" />
		<tag k="ssr:stedsnr" v="268985" />
	</node>
	<node id="-419946" lat="59.2017642824" lon="5.82883005564">
		<tag k="fixme" v="multiple name tags, choose one and add the other to alt_name; consider seamark:type=rock or natural=shoal" />
		<tag k="name" v="Høna;Hønå" />
		<tag k="place" v="islet" />
		<tag k="ssr:stedsnr" v="223879" />
	</node>
	<node id="-419945" lat="59.1809499962" lon="5.75853055126">
		<tag k="name" v="Serinagrunnen" />
		<tag k="natural" v="shoal" />
		<tag k="place" v="locality" />
		<tag k="ssr:stedsnr" v="223354" />
	</node>
	<node id="-419944" lat="59.2290082802" lon="5.80220692373">
		<tag k="alt_name" v="Søre Rossmarkvågen" />
		<tag k="name" v="Søre Rossmorkvågen" />
		<tag k="natural" v="bay" />
		<tag k="ssr:stedsnr" v="223306" />
	</node>
	<node id="-419943" lat="59.2220583317" lon="5.8234055553">
		<tag k="name" v="Gongstøneset" />
		<tag k="natural" v="cape" />
		<tag k="ssr:stedsnr" v="223289" />
	</node>
	<node id="-419942" lat="59.2321055572" lon="5.83997223044">
		<tag k="name" v="Kræmarholmen" />
		<tag k="place" v="islet" />
		<tag k="ssr:stedsnr" v="223286" />
	</node>
	<node id="-419941" lat="59.220408331" lon="5.83423611877">
		<tag k="alt_name" v="Småskjera" />
		<tag k="fixme" v="consider seamark:type=rock or natural=shoal" />
		<tag k="name" v="Sauaskjeret" />
		<tag k="place" v="islet" />
		<tag k="ssr:stedsnr" v="223282" />
	</node>
	<node id="-419940" lat="59.1927694407" lon="5.8079611082">
		<tag k="name" v="Hopsflua" />
		<tag k="natural" v="shoal" />
		<tag k="place" v="locality" />
		<tag k="ssr:stedsnr" v="223199" />
	</node>
	<node id="-419939" lat="59.1170555596" lon="5.87677777941">
		<tag k="name" v="Fleskhyrna" />
		<tag k="place" v="locality" />
		<tag k="seamark:type" v="rock" />
		<tag k="ssr:stedsnr" v="223121" />
	</node>
	<node id="-419938" lat="59.2308083319" lon="5.98943888375">
		<tag k="name" v="Urdvika" />
		<tag k="natural" v="bay" />
		<tag k="ssr:stedsnr" v="221658" />
	</node>
	<node id="-419937" lat="59.2532722243" lon="5.90549722907">
		<tag k="name" v="Storegrunnen" />
		<tag k="natural" v="shoal" />
		<tag k="place" v="locality" />
		<tag k="ssr:stedsnr" v="221630" />
	</node>
	<node id="-419934" lat="59.262316667" lon="5.83808611326">
		<tag k="alt_name" v="Fløyde" />
		<tag k="name" v="Fløytet" />
		<tag k="natural" v="bay" />
		<tag k="ssr:stedsnr" v="221352" />
	</node>
	<node id="-419933" lat="59.2735027779" lon="5.7997527858">
		<tag k="name" v="Søra Ådnaholmflua" />
		<tag k="place" v="locality" />
		<tag k="seamark:type" v="rock" />
		<tag k="ssr:stedsnr" v="221349" />
	</node>
	<node id="-419932" lat="59.2625666687" lon="5.84794444193">
		<tag k="name" v="Biskopvika" />
		<tag k="natural" v="bay" />
		<tag k="ssr:stedsnr" v="221345" />
	</node>
	<node id="-419930" lat="59.258925" lon="5.7953138922">
		<tag k="name" v="Djupevik" />
		<tag k="natural" v="bay" />
		<tag k="ssr:stedsnr" v="221322" />
	</node>
	<node id="-419929" lat="59.2482638879" lon="5.78722500115">
		<tag k="alt_name" v="Brodet" />
		<tag k="name" v="Brotet" />
		<tag k="natural" v="cape" />
		<tag k="ssr:stedsnr" v="221308" />
	</node>
	<node id="-419925" lat="59.2325388932" lon="5.87908610985">
		<tag k="name" v="Hidleholmen" />
		<tag k="place" v="islet" />
		<tag k="ssr:stedsnr" v="184991" />
	</node>
	<node id="-419924" lat="59.2457709935" lon="5.84021240492">
		<tag k="alt_name" v="Audbøneset;Aubeneset" />
		<tag k="name" v="Aubøneset" />
		<tag k="natural" v="cape" />
		<tag k="ssr:stedsnr" v="184965" />
	</node>
	<node id="-419923" lat="59.1930373545" lon="5.95026416651">
		<tag k="name" v="Halsnøya" />
		<tag k="old_name" v="Halsnøyna" />
		<tag k="place" v="island" />
		<tag k="ssr:stedsnr" v="184910" />
	</node>
	<node id="-419922" lat="59.1735555512" lon="5.87893332971">
		<tag k="name" v="Hauskjeneset" />
		<tag k="natural" v="cape" />
		<tag k="ssr:stedsnr" v="184871" />
	</node>
	<node id="-419919" lat="59.1812249978" lon="5.93803333801">
		<tag k="alt_name" v="Storøy" />
		<tag k="name" v="Storøyna" />
		<tag k="place" v="islet" />
		<tag k="ssr:stedsnr" v="184846" />
	</node>
	<node id="-419918" lat="59.2780250024" lon="5.90284999176">
		<tag k="alt_name" v="Gabeskjeret" />
		<tag k="fixme" v="consider seamark:type=rock or natural=shoal" />
		<tag k="name" v="Gapaskjeret" />
		<tag k="place" v="islet" />
		<tag k="ssr:stedsnr" v="184628" />
	</node>
	<node id="-419916" lat="59.2309062513" lon="5.81453229229">
		<tag k="alt_name" v="Nodholmen" />
		<tag k="name" v="Notaholmen" />
		<tag k="place" v="islet" />
		<tag k="ssr:stedsnr" v="184476" />
	</node>
	<node id="-419913" lat="59.1758888918" lon="5.77976110319">
		<tag k="alt_name" v="Oddnavika" />
		<tag k="name" v="Ådnavika" />
		<tag k="natural" v="bay" />
		<tag k="ssr:stedsnr" v="184301" />
	</node>
	<node id="-419912" lat="59.1753638888" lon="5.71219166197">
		<tag k="name" v="Litleflua" />
		<tag k="natural" v="shoal" />
		<tag k="place" v="locality" />
		<tag k="ssr:stedsnr" v="184295" />
	</node>
	<node id="-419911" lat="59.2074888906" lon="5.82150833121">
		<tag k="fixme" v="consider seamark:type=rock or natural=shoal" />
		<tag k="name" v="Krabbaskjer" />
		<tag k="place" v="islet" />
		<tag k="ssr:stedsnr" v="184289" />
	</node>
	<node id="-419910" lat="59.1958527753" lon="5.86707499795">
		<tag k="alt_name" v="Kjeringjå" />
		<tag k="fixme" v="consider seamark:type=rock or natural=shoal" />
		<tag k="name" v="Kjeringa" />
		<tag k="place" v="islet" />
		<tag k="ssr:stedsnr" v="183915" />
	</node>
	<node id="-419909" lat="59.1965999427" lon="5.97126292924">
		<tag k="name" v="Gullholmen" />
		<tag k="place" v="islet" />
		<tag k="ssr:stedsnr" v="183910" />
	</node>
	<node id="-419907" lat="59.1572626276" lon="5.92140669162">
		<tag k="name" v="Sæbøvågen" />
		<tag k="natural" v="bay" />
		<tag k="ssr:stedsnr" v="183613" />
	</node>
	<node id="-419905" lat="59.1553194417" lon="5.9335138887">
		<tag k="name" v="Førstevika" />
		<tag k="natural" v="bay" />
		<tag k="ssr:stedsnr" v="183596" />
	</node>
	<node id="-419904" lat="59.1564638862" lon="5.94807223">
		<tag k="name" v="Lindøya" />
		<tag k="place" v="islet" />
		<tag k="ssr:stedsnr" v="183555" />
	</node>
	<node id="-419903" lat="59.1530000018" lon="5.95955834188">
		<tag k="name" v="Kobbholmen" />
		<tag k="place" v="islet" />
		<tag k="ssr:stedsnr" v="183553" />
	</node>
	<node id="-419901" lat="59.2464999965" lon="5.77599999472">
		<tag k="alt_name" v="Svorteskjer" />
		<tag k="fixme" v="consider seamark:type=rock or natural=shoal" />
		<tag k="name" v="Svortingen" />
		<tag k="place" v="islet" />
		<tag k="ssr:stedsnr" v="183397" />
	</node>
	<node id="-419900" lat="59.1391833338" lon="5.82790000372">
		<tag k="alt_name" v="Vardenes;Varanes" />
		<tag k="name" v="Vardaneset" />
		<tag k="natural" v="cape" />
		<tag k="ssr:stedsnr" v="183327" />
	</node>
	<node id="-419899" lat="59.1701611134" lon="5.68751666982">
		<tag k="name" v="Djupeflu" />
		<tag k="natural" v="shoal" />
		<tag k="place" v="locality" />
		<tag k="ssr:stedsnr" v="183289" />
	</node>
	<node id="-419897" lat="59.2545333365" lon="5.78301945237">
		<tag k="name" v="Skåbet" />
		<tag k="natural" v="bay" />
		<tag k="ssr:stedsnr" v="181733" />
	</node>
	<node id="-419896" lat="59.2801611136" lon="5.80113056155">
		<tag k="name" v="Øynarsundet" />
		<tag k="natural" v="strait" />
		<tag k="ssr:stedsnr" v="181732" />
	</node>
	<node id="-419895" lat="59.2279697182" lon="5.94791339152">
		<tag k="name" v="Garavika" />
		<tag k="natural" v="bay" />
		<tag k="ssr:stedsnr" v="181691" />
	</node>
	<node id="-419892" lat="59.2276194445" lon="5.84249166901">
		<tag k="name" v="Naustvika" />
		<tag k="natural" v="bay" />
		<tag k="ssr:stedsnr" v="181613" />
	</node>
	<node id="-419891" lat="59.2447129968" lon="5.82697049186">
		<tag k="name" v="Tjularvika" />
		<tag k="natural" v="bay" />
		<tag k="ssr:stedsnr" v="181543" />
	</node>
	<node id="-419889" lat="59.2755833299" lon="6.01027777166">
		<tag k="name" v="Bjustveit" />
		<tag k="natural" v="bay" />
		<tag k="ssr:stedsnr" v="181472" />
	</node>
	<node id="-419888" lat="59.2880194435" lon="5.95826666869">
		<tag k="name" v="Naustneset" />
		<tag k="natural" v="cape" />
		<tag k="ssr:stedsnr" v="181470" />
	</node>
	<node id="-419885" lat="59.151063887" lon="5.86080278002">
		<tag k="name" v="Grunnevik" />
		<tag k="natural" v="bay" />
		<tag k="ssr:stedsnr" v="175581" />
	</node>
	<node id="-419884" lat="59.1603055533" lon="5.86282500062">
		<tag k="name" v="Klubben" />
		<tag k="natural" v="cape" />
		<tag k="ssr:stedsnr" v="175574" />
	</node>
	<node id="-419882" lat="59.1989444413" lon="5.95820833166">
		<tag k="name" v="Vågsnes" />
		<tag k="natural" v="cape" />
		<tag k="ssr:stedsnr" v="175333" />
	</node>
	<node id="-419880" lat="59.1954027731" lon="5.95969721466">
		<tag k="name" v="Trong" />
		<tag k="natural" v="bay" />
		<tag k="ssr:stedsnr" v="175314" />
	</node>
	<node id="-419879" lat="59.1896805547" lon="5.97668610471">
		<tag k="name" v="Herøysundet" />
		<tag k="natural" v="strait" />
		<tag k="ssr:stedsnr" v="175313" />
	</node>
	<node id="-419878" lat="59.1242805546" lon="5.92529444129">
		<tag k="name" v="Brunaberget" />
		<tag k="natural" v="cape" />
		<tag k="ssr:stedsnr" v="175310" />
	</node>
	<node id="-419876" lat="59.167822219" lon="5.93486111232">
		<tag k="name" v="Rabnås" />
		<tag k="natural" v="bay" />
		<tag k="ssr:stedsnr" v="175265" />
	</node>
	<node id="-419874" lat="59.1733166652" lon="5.77140277033">
		<tag k="name" v="Apalvikklubben" />
		<tag k="natural" v="cape" />
		<tag k="ssr:stedsnr" v="175198" />
	</node>
	<node id="-419870" lat="59.1669540984" lon="5.79128347143">
		<tag k="name" v="Vignesvågen" />
		<tag k="natural" v="bay" />
		<tag k="ssr:stedsnr" v="175118" />
	</node>
	<node id="-419869" lat="59.1685333361" lon="5.78988333508">
		<tag k="name" v="Krossnes" />
		<tag k="natural" v="cape" />
		<tag k="ssr:stedsnr" v="175113" />
	</node>
	<node id="-419865" lat="59.1549111105" lon="5.9582027832">
		<tag k="fixme" v="consider seamark:type=rock or natural=shoal" />
		<tag k="name" v="Kråka" />
		<tag k="place" v="islet" />
		<tag k="ssr:stedsnr" v="174287" />
	</node>
	<node id="-419863" lat="59.1660777807" lon="5.71747500121">
		<tag k="name" v="Varøygrunnen" />
		<tag k="natural" v="shoal" />
		<tag k="place" v="locality" />
		<tag k="ssr:stedsnr" v="162242" />
	</node>
	<node id="-419861" lat="59.2310333371" lon="5.99333054759">
		<tag k="name" v="Øksneset" />
		<tag k="natural" v="cape" />
		<tag k="ssr:stedsnr" v="160675" />
	</node>
	<node id="-419860" lat="59.2383583293" lon="5.93180833071">
		<tag k="name" v="Knarravikneset" />
		<tag k="natural" v="cape" />
		<tag k="ssr:stedsnr" v="160671" />
	</node>
	<node id="-419854" lat="59.2891499962" lon="6.06787500533">
		<tag k="name" v="Kjeahola" />
		<tag k="natural" v="bay" />
		<tag k="ssr:stedsnr" v="124540" />
	</node>
	<node id="-419853" lat="59.2421000028" lon="5.92733055766">
		<tag k="alt_name" v="Litleholm" />
		<tag k="name" v="Litleholmen" />
		<tag k="place" v="islet" />
		<tag k="ssr:stedsnr" v="123987" />
	</node>
	<node id="-419852" lat="59.2365361074" lon="5.88884444087">
		<tag k="fixme" v="multiple name tags, choose one and add the other to alt_name" />
		<tag k="name" v="Nord-Hidle;Hidle" />
		<tag k="place" v="island" />
		<tag k="ssr:stedsnr" v="123986" />
	</node>
	<node id="-419851" lat="59.2392111074" lon="5.87886389238">
		<tag k="name" v="Ådnaneset" />
		<tag k="natural" v="cape" />
		<tag k="ssr:stedsnr" v="123983" />
	</node>
	<node id="-419848" lat="59.1711194434" lon="5.95084165975">
		<tag k="name" v="Kattholmen" />
		<tag k="place" v="islet" />
		<tag k="ssr:stedsnr" v="123902" />
	</node>
	<node id="-419846" lat="59.2758000034" lon="5.87612500527">
		<tag k="name" v="Hønsaholmen" />
		<tag k="place" v="islet" />
		<tag k="ssr:stedsnr" v="123666" />
	</node>
	<node id="-419845" lat="59.2739527805" lon="5.92677777296">
		<tag k="name" v="Kveldhammar" />
		<tag k="natural" v="cape" />
		<tag k="ssr:stedsnr" v="123629" />
	</node>
	<node id="-419844" lat="59.1483749963" lon="5.96049444768">
		<tag k="name" v="Bjørkholmgrunnen" />
		<tag k="natural" v="shoal" />
		<tag k="place" v="locality" />
		<tag k="ssr:stedsnr" v="123612" />
	</node>
	<node id="-419842" lat="59.1608972244" lon="5.95915555965">
		<tag k="name" v="Trettholmen" />
		<tag k="place" v="islet" />
		<tag k="ssr:stedsnr" v="123406" />
	</node>
</osm>
