<?xml version="1.0" encoding="UTF-8"?>
<osm generator="osmapis" version="0.6">
	<node id="-420223" lat="59.1917499991" lon="5.83094999514">
		<tag k="name" v="Nedre Stemmen" />
		<tag k="natural" v="water" />
		<tag k="ssr:stedsnr" v="600832" />
	</node>
	<node id="-420475" lat="59.2613055563" lon="5.80361943894">
		<tag k="name" v="Krabbavadvatnet" />
		<tag k="natural" v="water" />
		<tag k="ssr:stedsnr" v="788725" />
		<tag k="water" v="lake" />
	</node>
	<node id="-420344" lat="59.2702499959" lon="5.98059999866">
		<tag k="name" v="Raudåstjørna" />
		<tag k="natural" v="water" />
		<tag k="ssr:stedsnr" v="669591" />
	</node>
	<node id="-419959" lat="59.11094722" lon="5.89889721765">
		<tag k="name" v="Rossøytjørna" />
		<tag k="natural" v="water" />
		<tag k="ssr:stedsnr" v="235784" />
	</node>
	<node id="-419702" lat="59.2564749983" lon="6.01785000518">
		<tag k="name" v="Undelitjørna" />
		<tag k="natural" v="water" />
		<tag k="ssr:stedsnr" v="2684" />
	</node>
	<node id="-420084" lat="59.2684222233" lon="5.97727222954">
		<tag k="name" v="Løgjen" />
		<tag k="natural" v="water" />
		<tag k="ssr:stedsnr" v="484420" />
	</node>
	<node id="-420083" lat="59.264316668" lon="5.97537222185">
		<tag k="name" v="Hoklongstjørna" />
		<tag k="natural" v="water" />
		<tag k="ssr:stedsnr" v="484418" />
	</node>
	<node id="-420465" lat="59.2646722186" lon="5.83367223044">
		<tag k="name" v="Nesstølsøylå" />
		<tag k="natural" v="water" />
		<tag k="ssr:stedsnr" v="788458" />
		<tag k="water" v="lake" />
	</node>
	<node id="-420383" lat="59.1616611141" lon="5.83280833313">
		<tag k="name" v="Flesjåstemmen" />
		<tag k="natural" v="water" />
		<tag k="ssr:stedsnr" v="721576" />
	</node>
	<node id="-420321" lat="59.2311444474" lon="5.96286389624">
		<tag k="name" v="Stegatjørna" />
		<tag k="natural" v="water" />
		<tag k="ssr:stedsnr" v="666629" />
	</node>
	<node id="-420320" lat="59.2357000016" lon="5.99305834016">
		<tag k="name" v="Svortetjørn" />
		<tag k="natural" v="water" />
		<tag k="ssr:stedsnr" v="666628" />
	</node>
	<node id="-420062" lat="59.2497722235" lon="5.96496110919">
		<tag k="name" v="Knoltavatnet" />
		<tag k="natural" v="water" />
		<tag k="ssr:stedsnr" v="427672" />
	</node>
	<node id="-420701" lat="59.1902555568" lon="5.83234999158">
		<tag k="name" v="Øvre Stemmen" />
		<tag k="natural" v="water" />
		<tag k="ssr:stedsnr" v="964816" />
	</node>
	<node id="-420060" lat="59.1255083332" lon="5.88523055264">
		<tag k="name" v="Fjellbergvatnet" />
		<tag k="natural" v="water" />
		<tag k="ssr:stedsnr" v="427553" />
		<tag k="water" v="lake" />
	</node>
	<node id="-420571" lat="59.1540138934" lon="5.79470000597">
		<tag k="name" v="Sævheimsvatnet" />
		<tag k="natural" v="water" />
		<tag k="ssr:stedsnr" v="851263" />
		<tag k="water" v="lake" />
	</node>
	<node id="-420698" lat="59.1768166627" lon="5.85281945107">
		<tag k="name" v="Hauskjevatnet" />
		<tag k="natural" v="water" />
		<tag k="ssr:stedsnr" v="964289" />
		<tag k="water" v="lake" />
	</node>
	<node id="-420564" lat="59.2365611099" lon="5.96469443637">
		<tag k="name" v="Kattatjørna" />
		<tag k="natural" v="water" />
		<tag k="ssr:stedsnr" v="849677" />
	</node>
	<node id="-420690" lat="59.1548888903" lon="5.86545555785">
		<tag k="name" v="Tjødnå" />
		<tag k="natural" v="water" />
		<tag k="ssr:stedsnr" v="963652" />
	</node>
	<node id="-419921" lat="59.1809166642" lon="5.85696944058">
		<tag k="name" v="Lausnesvatnet" />
		<tag k="natural" v="water" />
		<tag k="ssr:stedsnr" v="184856" />
		<tag k="water" v="lake" />
	</node>
	<node id="-420303" lat="59.126049997" lon="5.89052221748">
		<tag k="name" v="Vaudl" />
		<tag k="natural" v="shoal" />
		<tag k="place" v="locality" />
		<tag k="ssr:stedsnr" v="660347" />
	</node>
	<node id="-420557" lat="59.2748527775" lon="5.9918722204">
		<tag k="name" v="Runda Tjødna" />
		<tag k="natural" v="water" />
		<tag k="ssr:stedsnr" v="849485" />
	</node>
	<node id="-420555" lat="59.2654027753" lon="6.0088000055">
		<tag k="name" v="Geidatjørna" />
		<tag k="natural" v="water" />
		<tag k="ssr:stedsnr" v="849452" />
	</node>
	<node id="-419914" lat="59.2760499961" lon="6.02445000228">
		<tag k="name" v="Kalltveittjørna" />
		<tag k="natural" v="water" />
		<tag k="ssr:stedsnr" v="184588" />
	</node>
	<node id="-420163" lat="59.2418055518" lon="5.95005556091">
		<tag k="name" v="Stora Tjødnå" />
		<tag k="natural" v="water" />
		<tag k="ssr:stedsnr" v="545613" />
	</node>
	<node id="-419776" lat="59.2632000036" lon="5.9580499923">
		<tag k="alt_name" v="Løgjen" />
		<tag k="name" v="Løken" />
		<tag k="natural" v="water" />
		<tag k="ssr:stedsnr" v="63578" />
	</node>
	<node id="-420253" lat="59.1469555581" lon="5.80001111086">
		<tag k="name" v="Bleivatnet" />
		<tag k="natural" v="water" />
		<tag k="ssr:stedsnr" v="608262" />
		<tag k="water" v="lake" />
	</node>
	<node id="-420667" lat="59.2662319025" lon="5.99865812966">
		<tag k="name" v="Vatlandsvatnet" />
		<tag k="natural" v="water" />
		<tag k="ssr:stedsnr" v="913534" />
	</node>
	<node id="-419513" lat="59.2619750029" lon="5.98257499787">
		<tag k="name" v="Tverråna" />
		<tag k="ssr:stedsnr" v="305616" />
		<tag k="waterway" v="stream" />
	</node>
	<node id="-419890" lat="59.27719167" lon="6.05002776976">
		<tag k="name" v="Stora Vassnes" />
		<tag k="natural" v="cape" />
		<tag k="ssr:stedsnr" v="181478" />
	</node>
	<node id="-420654" lat="59.145263888" lon="5.79297778159">
		<tag k="alt_name" v="Lastevatnet" />
		<tag k="name" v="Lasteinvatnet" />
		<tag k="natural" v="water" />
		<tag k="ssr:stedsnr" v="912289" />
		<tag k="water" v="lake" />
	</node>
	<node id="-420637" lat="59.2282055565" lon="5.89063889242">
		<tag k="name" v="Tjødnå" />
		<tag k="natural" v="water" />
		<tag k="ssr:stedsnr" v="909602" />
	</node>
	<node id="-419756" lat="59.2587444481" lon="5.79889166494">
		<tag k="name" v="Dragjevatnet" />
		<tag k="natural" v="water" />
		<tag k="ssr:stedsnr" v="60729" />
		<tag k="water" v="lake" />
	</node>
	<node id="-420011" lat="59.2579540085" lon="5.97070791305">
		<tag k="alt_name" v="Kjylavatnet" />
		<tag k="name" v="Kylavatnet" />
		<tag k="natural" v="water" />
		<tag k="ssr:stedsnr" v="245542" />
	</node>
	<node id="-419881" lat="59.199205553" lon="5.9483222152">
		<tag k="name" v="Skartveitvatnet" />
		<tag k="natural" v="water" />
		<tag k="ssr:stedsnr" v="175318" />
		<tag k="water" v="lake" />
	</node>
	<node id="-420061" lat="59.2685849895" lon="5.8738813001">
		<tag k="name" v="Nesheimsvatnet" />
		<tag k="natural" v="water" />
		<tag k="ssr:stedsnr" v="427590" />
		<tag k="water" v="lake" />
	</node>
	<node id="-420390" lat="59.2653361141" lon="5.96396110557">
		<tag k="name" v="Jerstegtjørna" />
		<tag k="natural" v="water" />
		<tag k="ssr:stedsnr" v="727436" />
	</node>
	<node id="-420385" lat="59.1487111151" lon="5.9019861062">
		<tag k="name" v="Bøfossen" />
		<tag k="natural" v="waterfall" />
		<tag k="ssr:stedsnr" v="721603" />
	</node>
	<node id="-419743" lat="59.2750027777" lon="6.05056945268">
		<tag k="name" v="Stora Vassnes" />
		<tag k="natural" v="cape" />
		<tag k="ssr:stedsnr" v="60454" />
	</node>
	<node id="-419486" lat="59.2711861106" lon="6.01678888992">
		<tag k="name" v="Røldalbekken" />
		<tag k="ssr:stedsnr" v="302457" />
		<tag k="waterway" v="stream" />
	</node>
	<node id="-420509" lat="59.2603749978" lon="6.01522499985">
		<tag k="name" v="Medåstjørna" />
		<tag k="natural" v="water" />
		<tag k="ssr:stedsnr" v="791564" />
	</node>
	<node id="-420508" lat="59.2673000031" lon="6.03209999331">
		<tag k="name" v="Grasdalstjørna" />
		<tag k="natural" v="water" />
		<tag k="ssr:stedsnr" v="791563" />
	</node>
	<node id="-419994" lat="59.1122166707" lon="5.89189721483">
		<tag k="name" v="Pøydl" />
		<tag k="place" v="locality" />
		<tag k="ssr:stedsnr" v="244541" />
	</node>
	<node id="-420506" lat="59.2379977996" lon="5.95923090484">
		<tag k="name" v="Lauvåsvatnet" />
		<tag k="natural" v="water" />
		<tag k="ssr:stedsnr" v="790998" />
	</node>
	<node id="-420504" lat="59.2417932772" lon="5.97281697011">
		<tag k="name" v="Stemtjørna" />
		<tag k="natural" v="water" />
		<tag k="ssr:stedsnr" v="790968" />
	</node>
	<node id="-420119" lat="59.1820694442" lon="5.84751110363">
		<tag k="name" v="Spannevatnet" />
		<tag k="natural" v="water" />
		<tag k="ssr:stedsnr" v="487889" />
		<tag k="water" v="lake" />
	</node>
	<node id="-420086" lat="59.2762722225" lon="6.04046944181">
		<tag k="name" v="Middagstjørna" />
		<tag k="natural" v="water" />
		<tag k="ssr:stedsnr" v="484459" />
	</node>
	<node id="-420625" lat="59.2562888848" lon="5.975661112">
		<tag k="name" v="Krogå" />
		<tag k="ssr:stedsnr" v="909451" />
		<tag k="waterway" v="stream" />
	</node>
	<node id="-420248" lat="59.1737499995" lon="5.83484999218">
		<tag k="alt_name" v="Nykkjarvatnet" />
		<tag k="name" v="Nøkkjevatnet" />
		<tag k="natural" v="water" />
		<tag k="ssr:stedsnr" v="607326" />
	</node>
	<node id="-420013" lat="59.2732387306" lon="5.9479782666">
		<tag k="name" v="Slåttetjørna" />
		<tag k="natural" v="water" />
		<tag k="ssr:stedsnr" v="245561" />
	</node>
	<node id="-420105" lat="59.2571138893" lon="5.80420000526">
		<tag k="alt_name" v="Lundarsøylå;Søyla" />
		<tag k="name" v="Lundarsøyla" />
		<tag k="natural" v="water" />
		<tag k="ssr:stedsnr" v="487275" />
		<tag k="water" v="lake" />
	</node>
	<node id="-419970" lat="59.2700472234" lon="6.04288888377">
		<tag k="name" v="Den runda tjødnå" />
		<tag k="natural" v="water" />
		<tag k="ssr:stedsnr" v="242407" />
	</node>
</osm>
