<?xml version="1.0" encoding="UTF-8"?>
<osm generator="osmapis" version="0.6">
	<node id="-420864" lat="59.2400500033" lon="5.9440916645">
		<tag k="fixme" v="consider natural=peak for the most distinct mountains in the district" />
		<tag k="name" v="Holefjellet" />
		<tag k="natural" v="hill" />
		<tag k="place" v="locality" />
		<tag k="ssr:stedsnr" v="605643" />
	</node>
	<node id="-420352" lat="59.1864333316" lon="5.82520833137">
		<tag k="name" v="Landafjellet" />
		<tag k="place" v="locality" />
		<tag k="ssr:stedsnr" v="54249" />
	</node>
	<node id="-420862" lat="59.2467305527" lon="5.95807221643">
		<tag k="fixme" v="consider natural=peak for the most distinct mountains in the district" />
		<tag k="name" v="Knolten" />
		<tag k="natural" v="hill" />
		<tag k="place" v="locality" />
		<tag k="ssr:stedsnr" v="605634" />
	</node>
	<node id="-421205" lat="59.1542666635" lon="5.87063889336">
		<tag k="name" v="Slottet" />
		<tag k="natural" v="hill" />
		<tag k="place" v="locality" />
		<tag k="ssr:stedsnr" v="851596" />
	</node>
	<node id="-420348" lat="59.1106472252" lon="5.83919722742">
		<tag k="name" v="Svarthaug" />
		<tag k="natural" v="hill" />
		<tag k="place" v="locality" />
		<tag k="ssr:stedsnr" v="53987" />
	</node>
	<node id="-420859" lat="59.2228111147" lon="5.83103054759">
		<tag k="name" v="Kyrkjehaugen" />
		<tag k="natural" v="hill" />
		<tag k="place" v="locality" />
		<tag k="ssr:stedsnr" v="605611" />
	</node>
	<node id="-420342" lat="59.1554138915" lon="5.9258416601">
		<tag k="fixme" v="consider natural=peak for the most distinct mountains in the district" />
		<tag k="name" v="Slettåsen" />
		<tag k="natural" v="hill" />
		<tag k="place" v="locality" />
		<tag k="ssr:stedsnr" v="53626" />
	</node>
	<node id="-420339" lat="59.195100004" lon="5.94450277698">
		<tag k="fixme" v="consider natural=peak for the most distinct mountains in the district" />
		<tag k="name" v="Vidås" />
		<tag k="natural" v="hill" />
		<tag k="place" v="locality" />
		<tag k="ssr:stedsnr" v="53333" />
	</node>
	<node id="-420337" lat="59.1891305552" lon="5.95741667478">
		<tag k="fixme" v="consider natural=peak for the most distinct mountains in the district" />
		<tag k="name" v="Heståsen" />
		<tag k="natural" v="hill" />
		<tag k="place" v="locality" />
		<tag k="ssr:stedsnr" v="53314" />
	</node>
	<node id="-420846" lat="59.2607166624" lon="6.01012499952">
		<tag k="fixme" v="consider natural=peak for the most distinct mountains in the district" />
		<tag k="name" v="Medåsen" />
		<tag k="natural" v="hill" />
		<tag k="place" v="locality" />
		<tag k="ssr:stedsnr" v="605442" />
	</node>
	<node id="-420845" lat="59.2682416641" lon="5.96101389234">
		<tag k="fixme" v="consider natural=peak for the most distinct mountains in the district" />
		<tag k="name" v="Skafjellet" />
		<tag k="natural" v="hill" />
		<tag k="place" v="locality" />
		<tag k="ssr:stedsnr" v="605440" />
	</node>
	<node id="-420843" lat="59.1031138855" lon="5.85470833552">
		<tag k="name" v="Jonaraua" />
		<tag k="natural" v="hill" />
		<tag k="place" v="locality" />
		<tag k="ssr:stedsnr" v="599984" />
	</node>
	<node id="-420839" lat="59.1506861089" lon="5.91666111624">
		<tag k="name" v="Skorvahaugen" />
		<tag k="natural" v="hill" />
		<tag k="place" v="locality" />
		<tag k="ssr:stedsnr" v="599626" />
	</node>
	<node id="-420835" lat="59.1232666698" lon="5.92190555502">
		<tag k="name" v="Svehaug" />
		<tag k="natural" v="hill" />
		<tag k="place" v="locality" />
		<tag k="ssr:stedsnr" v="599297" />
	</node>
	<node id="-420834" lat="59.1267055546" lon="5.91831111844">
		<tag k="fixme" v="consider natural=peak for the most distinct mountains in the district" />
		<tag k="name" v="Niben" />
		<tag k="natural" v="hill" />
		<tag k="place" v="locality" />
		<tag k="ssr:stedsnr" v="599274" />
	</node>
	<node id="-420603" lat="59.2614861134" lon="5.79270277576">
		<tag k="name" v="Halvarsberget" />
		<tag k="natural" v="hill" />
		<tag k="place" v="locality" />
		<tag k="ssr:stedsnr" v="242680" />
	</node>
	<node id="-421337" lat="59.2821416711" lon="5.97333333595">
		<tag k="name" v="Medhaugen" />
		<tag k="natural" v="hill" />
		<tag k="place" v="locality" />
		<tag k="ssr:stedsnr" v="970695" />
	</node>
	<node id="-421336" lat="59.2722027736" lon="5.9705638937">
		<tag k="fixme" v="consider natural=peak for the most distinct mountains in the district" />
		<tag k="name" v="Stamperabben" />
		<tag k="natural" v="hill" />
		<tag k="place" v="locality" />
		<tag k="ssr:stedsnr" v="970680" />
	</node>
	<node id="-421334" lat="59.2693388904" lon="6.04454722327">
		<tag k="name" v="Nordre Hudalen" />
		<tag k="natural" v="valley" />
		<tag k="place" v="locality" />
		<tag k="ssr:stedsnr" v="970668" />
	</node>
	<node id="-421333" lat="59.2932388905" lon="6.03927500125">
		<tag k="name" v="Kunesbakkane" />
		<tag k="natural" v="slope" />
		<tag k="place" v="locality" />
		<tag k="ssr:stedsnr" v="970624" />
	</node>
	<node id="-421329" lat="59.2385638924" lon="5.98089999766">
		<tag k="fixme" v="consider natural=peak for the most distinct mountains in the district" />
		<tag k="name" v="Leidefjellet" />
		<tag k="natural" v="hill" />
		<tag k="place" v="locality" />
		<tag k="ssr:stedsnr" v="970214" />
	</node>
	<node id="-421328" lat="59.2305999961" lon="5.97846388289">
		<tag k="name" v="Friarhaugen" />
		<tag k="natural" v="hill" />
		<tag k="place" v="locality" />
		<tag k="ssr:stedsnr" v="970209" />
	</node>
	<node id="-421321" lat="59.1865777825" lon="5.87484445267">
		<tag k="fixme" v="consider natural=peak for the most distinct mountains in the district" />
		<tag k="name" v="Høynes" />
		<tag k="natural" v="hill" />
		<tag k="place" v="locality" />
		<tag k="ssr:stedsnr" v="964793" />
	</node>
	<node id="-421317" lat="59.1973555552" lon="5.82097221904">
		<tag k="name" v="Haukåsen" />
		<tag k="natural" v="hill" />
		<tag k="place" v="locality" />
		<tag k="ssr:stedsnr" v="964274" />
	</node>
	<node id="-421305" lat="59.2053805589" lon="5.94410833098">
		<tag k="name" v="Vedarhaugen" />
		<tag k="natural" v="hill" />
		<tag k="place" v="locality" />
		<tag k="ssr:stedsnr" v="963464" />
	</node>
	<node id="-421303" lat="59.1256027807" lon="5.89851666429">
		<tag k="name" v="Auglandsdalen" />
		<tag k="natural" v="valley" />
		<tag k="place" v="locality" />
		<tag k="ssr:stedsnr" v="963368" />
	</node>
	<node id="-421300" lat="59.1228444448" lon="5.89927222669">
		<tag k="name" v="Auglandshaugen" />
		<tag k="natural" v="hill" />
		<tag k="place" v="locality" />
		<tag k="ssr:stedsnr" v="963360" />
	</node>
	<node id="-421299" lat="59.2000416701" lon="5.9544833364">
		<tag k="name" v="Fladhaug" />
		<tag k="natural" v="hill" />
		<tag k="place" v="locality" />
		<tag k="ssr:stedsnr" v="963346" />
	</node>
	<node id="-420785" lat="59.2562916674" lon="5.79789444614">
		<tag k="name" v="Skjerhaugane" />
		<tag k="natural" v="hill" />
		<tag k="place" v="locality" />
		<tag k="ssr:stedsnr" v="545700" />
	</node>
	<node id="-420781" lat="59.2909416653" lon="6.04304166335">
		<tag k="fixme" v="consider natural=peak for the most distinct mountains in the district" />
		<tag k="name" v="Fagerskolt" />
		<tag k="natural" v="hill" />
		<tag k="place" v="locality" />
		<tag k="ssr:stedsnr" v="545443" />
	</node>
	<node id="-420780" lat="59.2793527741" lon="6.03129999537">
		<tag k="name" v="Skaret" />
		<tag k="natural" v="valley" />
		<tag k="place" v="locality" />
		<tag k="ssr:stedsnr" v="545444" />
	</node>
	<node id="-420779" lat="59.2847722246" lon="6.01797222459">
		<tag k="fixme" v="consider natural=peak for the most distinct mountains in the district" />
		<tag k="name" v="Geidaberget" />
		<tag k="natural" v="hill" />
		<tag k="place" v="locality" />
		<tag k="ssr:stedsnr" v="545435" />
	</node>
	<node id="-421287" lat="59.2372833362" lon="5.89042499396">
		<tag k="alt_name" v="Stora Sjydna;Litla Sjydna" />
		<tag k="fixme" v="consider natural=peak for the most distinct mountains in the district" />
		<tag k="name" v="Sjydna" />
		<tag k="natural" v="hill" />
		<tag k="place" v="locality" />
		<tag k="ssr:stedsnr" v="912994" />
	</node>
	<node id="-420422" lat="59.1314888887" lon="5.90826388089">
		<tag k="name" v="Torvhusdalen" />
		<tag k="natural" v="valley" />
		<tag k="place" v="locality" />
		<tag k="ssr:stedsnr" v="114360" />
	</node>
	<node id="-420767" lat="59.1827444414" lon="5.83351944602">
		<tag k="fixme" v="consider natural=peak for the most distinct mountains in the district" />
		<tag k="name" v="Kodnarkleivfjellet" />
		<tag k="natural" v="hill" />
		<tag k="place" v="locality" />
		<tag k="ssr:stedsnr" v="539227" />
	</node>
	<node id="-420078" lat="59.2651500008" lon="5.98402499941">
		<tag k="name" v="Klovsteinsheia" />
		<tag k="natural" v="hill" />
		<tag k="place" v="locality" />
		<tag k="ssr:stedsnr" v="305613" />
	</node>
	<node id="-421265" lat="59.1806333323" lon="5.83718055185">
		<tag k="fixme" v="consider natural=peak for the most distinct mountains in the district" />
		<tag k="name" v="Haråsen" />
		<tag k="natural" v="hill" />
		<tag k="place" v="locality" />
		<tag k="ssr:stedsnr" v="911323" />
	</node>
	<node id="-420504" lat="59.1201277775" lon="5.90512778056">
		<tag k="name" v="Eikehaugen" />
		<tag k="natural" v="hill" />
		<tag k="place" v="locality" />
		<tag k="ssr:stedsnr" v="175771" />
	</node>
	<node id="-421261" lat="59.2389222214" lon="5.94661389574">
		<tag k="name" v="Enghaug" />
		<tag k="natural" v="hill" />
		<tag k="place" v="locality" />
		<tag k="ssr:stedsnr" v="909631" />
	</node>
	<node id="-421257" lat="59.2339777754" lon="5.85196944677">
		<tag k="name" v="Skottlandsbakkane" />
		<tag k="natural" v="slope" />
		<tag k="place" v="locality" />
		<tag k="ssr:stedsnr" v="909580" />
	</node>
	<node id="-421256" lat="59.2501416702" lon="5.80833333691">
		<tag k="alt_name" v="Jonekulten" />
		<tag k="fixme" v="consider natural=peak for the most distinct mountains in the district" />
		<tag k="name" v="Tonekulten" />
		<tag k="natural" v="hill" />
		<tag k="place" v="locality" />
		<tag k="ssr:stedsnr" v="909550" />
	</node>
	<node id="-421255" lat="59.2293833342" lon="5.8138694472">
		<tag k="name" v="Varsku" />
		<tag k="place" v="locality" />
		<tag k="ssr:stedsnr" v="909548" />
	</node>
	<node id="-421252" lat="59.2705444416" lon="5.83265277303">
		<tag k="name" v="Tjøremila" />
		<tag k="place" v="locality" />
		<tag k="ssr:stedsnr" v="909487" />
	</node>
	<node id="-421251" lat="59.2832361086" lon="5.97128611786">
		<tag k="fixme" v="consider natural=peak for the most distinct mountains in the district" />
		<tag k="name" v="Storafjellet" />
		<tag k="natural" v="hill" />
		<tag k="place" v="locality" />
		<tag k="ssr:stedsnr" v="909479" />
	</node>
	<node id="-421250" lat="59.2749406781" lon="5.94820441841">
		<tag k="fixme" v="consider natural=peak for the most distinct mountains in the district" />
		<tag k="name" v="Havåsen" />
		<tag k="natural" v="hill" />
		<tag k="place" v="locality" />
		<tag k="ssr:stedsnr" v="909471" />
	</node>
	<node id="-421249" lat="59.2710638857" lon="6.02759721978">
		<tag k="fixme" v="consider natural=peak for the most distinct mountains in the district" />
		<tag k="name" v="Kodlafjellet" />
		<tag k="natural" v="hill" />
		<tag k="place" v="locality" />
		<tag k="ssr:stedsnr" v="909458" />
	</node>
	<node id="-421247" lat="59.2636000041" lon="6.03449444104">
		<tag k="fixme" v="consider natural=peak for the most distinct mountains in the district" />
		<tag k="name" v="Jengleheia" />
		<tag k="natural" v="hill" />
		<tag k="place" v="locality" />
		<tag k="ssr:stedsnr" v="909456" />
	</node>
	<node id="-421245" lat="59.255355559" lon="5.96684721935">
		<tag k="name" v="Tømmerdalen" />
		<tag k="natural" v="valley" />
		<tag k="place" v="locality" />
		<tag k="ssr:stedsnr" v="909447" />
	</node>
	<node id="-421244" lat="59.2590055541" lon="5.94774722931">
		<tag k="name" v="Vassle" />
		<tag k="place" v="locality" />
		<tag k="ssr:stedsnr" v="909442" />
	</node>
	<node id="-420218" lat="59.2367995683" lon="5.97080814373">
		<tag k="fixme" v="consider natural=peak for the most distinct mountains in the district" />
		<tag k="name" v="Havåsen" />
		<tag k="natural" v="hill" />
		<tag k="place" v="locality" />
		<tag k="ssr:stedsnr" v="1071971" />
	</node>
	<node id="-421240" lat="59.1474138846" lon="5.92680278274">
		<tag k="name" v="Trevlandsdalen" />
		<tag k="natural" v="valley" />
		<tag k="place" v="locality" />
		<tag k="ssr:stedsnr" v="903607" />
	</node>
	<node id="-421239" lat="59.1447472225" lon="5.91404721355">
		<tag k="fixme" v="consider natural=peak for the most distinct mountains in the district" />
		<tag k="name" v="Varhaug" />
		<tag k="natural" v="hill" />
		<tag k="place" v="locality" />
		<tag k="ssr:stedsnr" v="903604" />
	</node>
	<node id="-421237" lat="59.140644448" lon="5.83475277136">
		<tag k="fixme" v="consider natural=peak for the most distinct mountains in the district" />
		<tag k="name" v="Borgaråsen" />
		<tag k="natural" v="hill" />
		<tag k="place" v="locality" />
		<tag k="ssr:stedsnr" v="903338" />
	</node>
	<node id="-420211" lat="59.1593500014" lon="5.98251388429">
		<tag k="fixme" v="consider natural=peak for the most distinct mountains in the district" />
		<tag k="name" v="Lauvåsen" />
		<tag k="natural" v="hill" />
		<tag k="place" v="locality" />
		<tag k="ssr:stedsnr" v="538257" />
	</node>
	<node id="-420718" lat="59.1766111143" lon="5.82963055265">
		<tag k="name" v="Vestbøvarden" />
		<tag k="natural" v="hill" />
		<tag k="place" v="locality" />
		<tag k="ssr:stedsnr" v="486338" />
	</node>
	<node id="-421228" lat="59.1783111081" lon="5.82196945196">
		<tag k="fixme" v="consider natural=peak for the most distinct mountains in the district" />
		<tag k="name" v="Vestbøfjellet" />
		<tag k="natural" v="hill" />
		<tag k="place" v="locality" />
		<tag k="ssr:stedsnr" v="903155" />
	</node>
	<node id="-420498" lat="59.1913333345" lon="5.95979722875">
		<tag k="name" v="Skaret" />
		<tag k="natural" v="valley" />
		<tag k="place" v="locality" />
		<tag k="ssr:stedsnr" v="175308" />
	</node>
	<node id="-420202" lat="59.1615388877" lon="5.96994999999">
		<tag k="name" v="Skansen" />
		<tag k="natural" v="hill" />
		<tag k="place" v="locality" />
		<tag k="ssr:stedsnr" v="417274" />
	</node>
	<node id="-420197" lat="59.1632166677" lon="5.96287221693">
		<tag k="name" v="Åsen" />
		<tag k="natural" v="hill" />
		<tag k="place" v="locality" />
		<tag k="ssr:stedsnr" v="174300" />
	</node>
	<node id="-421220" lat="59.2898032073" lon="6.05460440765">
		<tag k="fixme" v="consider natural=peak for the most distinct mountains in the district" />
		<tag k="name" v="Bandåsen" />
		<tag k="natural" v="hill" />
		<tag k="place" v="locality" />
		<tag k="ssr:stedsnr" v="852593" />
	</node>
	<node id="-420706" lat="59.2869416663" lon="5.9853583253">
		<tag k="fixme" v="consider natural=peak for the most distinct mountains in the district" />
		<tag k="name" v="Hagafjellet" />
		<tag k="natural" v="hill" />
		<tag k="place" v="locality" />
		<tag k="ssr:stedsnr" v="484453" />
	</node>
	<node id="-421217" lat="59.2814750003" lon="6.00777499197">
		<tag k="alt_name" v="Brunastien" />
		<tag k="name" v="Brunastigen" />
		<tag k="natural" v="hill" />
		<tag k="place" v="locality" />
		<tag k="ssr:stedsnr" v="852580" />
	</node>
	<node id="-421216" lat="59.2775250039" lon="6.00197500331">
		<tag k="fixme" v="consider natural=peak for the most distinct mountains in the district" />
		<tag k="name" v="Haugåsen" />
		<tag k="natural" v="hill" />
		<tag k="place" v="locality" />
		<tag k="ssr:stedsnr" v="852579" />
	</node>
	<node id="-421213" lat="59.2657499986" lon="5.94377499343">
		<tag k="alt_name" v="Høgsteg" />
		<tag k="fixme" v="consider natural=peak for the most distinct mountains in the district" />
		<tag k="name" v="Høgstig" />
		<tag k="natural" v="hill" />
		<tag k="place" v="locality" />
		<tag k="ssr:stedsnr" v="852557" />
	</node>
	<node id="-421212" lat="59.2570999958" lon="5.93395000012">
		<tag k="alt_name" v="Søllbergsfjellet" />
		<tag k="fixme" v="consider natural=peak for the most distinct mountains in the district" />
		<tag k="name" v="Sølbergsfjellet" />
		<tag k="natural" v="hill" />
		<tag k="place" v="locality" />
		<tag k="ssr:stedsnr" v="852554" />
	</node>
	<node id="-420187" lat="59.1999499977" lon="5.93602777797">
		<tag k="name" v="Lyngholen" />
		<tag k="natural" v="hill" />
		<tag k="place" v="locality" />
		<tag k="ssr:stedsnr" v="478863" />
	</node>
	<node id="-420185" lat="59.1552166627" lon="5.8427305509">
		<tag k="fixme" v="consider natural=peak for the most distinct mountains in the district" />
		<tag k="name" v="Preikestolen" />
		<tag k="natural" v="hill" />
		<tag k="ssr:stedsnr" v="478606" />
	</node>
	<node id="-420696" lat="59.2830749998" lon="5.97173888603">
		<tag k="fixme" v="consider natural=peak for the most distinct mountains in the district" />
		<tag k="name" v="Ladberget" />
		<tag k="natural" v="hill" />
		<tag k="place" v="locality" />
		<tag k="ssr:stedsnr" v="464688" />
	</node>
	<node id="-420182" lat="59.1411388915" lon="5.84109167281">
		<tag k="fixme" v="consider natural=peak for the most distinct mountains in the district" />
		<tag k="name" v="Hausen" />
		<tag k="natural" v="hill" />
		<tag k="place" v="locality" />
		<tag k="ssr:stedsnr" v="478338" />
	</node>
	<node id="-420181" lat="59.1377833312" lon="5.92128332483">
		<tag k="name" v="Kodås" />
		<tag k="natural" v="hill" />
		<tag k="place" v="locality" />
		<tag k="ssr:stedsnr" v="478280" />
	</node>
	<node id="-420180" lat="59.1946444455" lon="5.82141666421">
		<tag k="name" v="Bukkevarden" />
		<tag k="natural" v="hill" />
		<tag k="place" v="locality" />
		<tag k="ssr:stedsnr" v="478229" />
	</node>
	<node id="-420177" lat="59.1729777794" lon="5.77293889303">
		<tag k="name" v="Ulvajuvet" />
		<tag k="natural" v="gorge" />
		<tag k="ssr:stedsnr" v="478109" />
	</node>
	<node id="-421200" lat="59.2420527737" lon="5.82478332799">
		<tag k="alt_name" v="Tjularåsen" />
		<tag k="fixme" v="consider natural=peak for the most distinct mountains in the district" />
		<tag k="name" v="Tjulåsen" />
		<tag k="natural" v="hill" />
		<tag k="place" v="locality" />
		<tag k="ssr:stedsnr" v="851431" />
	</node>
	<node id="-421199" lat="59.2482333295" lon="5.79754722299">
		<tag k="alt_name" v="Eikeåsen" />
		<tag k="fixme" v="consider natural=peak for the most distinct mountains in the district" />
		<tag k="name" v="Eikåsen" />
		<tag k="natural" v="hill" />
		<tag k="place" v="locality" />
		<tag k="ssr:stedsnr" v="851406" />
	</node>
	<node id="-420678" lat="59.1894305527" lon="5.83198056204">
		<tag k="fixme" v="consider natural=peak for the most distinct mountains in the district" />
		<tag k="name" v="Mjølsnesfjellet" />
		<tag k="natural" v="hill" />
		<tag k="place" v="locality" />
		<tag k="ssr:stedsnr" v="427317" />
	</node>
	<node id="-421186" lat="59.2340666643" lon="5.94953888132">
		<tag k="fixme" v="consider natural=peak for the most distinct mountains in the district" />
		<tag k="name" v="Myrafjellet" />
		<tag k="natural" v="hill" />
		<tag k="place" v="locality" />
		<tag k="ssr:stedsnr" v="849679" />
	</node>
	<node id="-420160" lat="59.1825555518" lon="5.86018888463">
		<tag k="fixme" v="consider natural=peak for the most distinct mountains in the district" />
		<tag k="name" v="Lausnesåsen" />
		<tag k="natural" v="hill" />
		<tag k="place" v="locality" />
		<tag k="ssr:stedsnr" v="366855" />
	</node>
	<node id="-421175" lat="59.2513972223" lon="5.96091943811">
		<tag k="name" v="Melkehaug" />
		<tag k="natural" v="hill" />
		<tag k="place" v="locality" />
		<tag k="ssr:stedsnr" v="849447" />
	</node>
	<node id="-421174" lat="59.2519333367" lon="5.956941664">
		<tag k="name" v="Trolldal" />
		<tag k="natural" v="valley" />
		<tag k="place" v="locality" />
		<tag k="ssr:stedsnr" v="849444" />
	</node>
	<node id="-421170" lat="59.1150305533" lon="5.8104999995">
		<tag k="name" v="Longafjellet" />
		<tag k="natural" v="hill" />
		<tag k="place" v="locality" />
		<tag k="ssr:stedsnr" v="843954" />
	</node>
	<node id="-421168" lat="59.1052666691" lon="5.83045277644">
		<tag k="name" v="Hønsabærhaugen" />
		<tag k="natural" v="hill" />
		<tag k="place" v="locality" />
		<tag k="ssr:stedsnr" v="843798" />
	</node>
	<node id="-421165" lat="59.1489861102" lon="5.92800833171">
		<tag k="fixme" v="consider natural=peak for the most distinct mountains in the district" />
		<tag k="name" v="Trevlandsåsen" />
		<tag k="natural" v="hill" />
		<tag k="place" v="locality" />
		<tag k="ssr:stedsnr" v="843632" />
	</node>
	<node id="-420652" lat="59.1389472239" lon="5.91199999823">
		<tag k="fixme" v="consider natural=peak for the most distinct mountains in the district" />
		<tag k="name" v="Peråsen" />
		<tag k="natural" v="hill" />
		<tag k="place" v="locality" />
		<tag k="ssr:stedsnr" v="418310" />
	</node>
	<node id="-420658" lat="59.2835388843" lon="6.02296110291">
		<tag k="name" v="Svartups" />
		<tag k="natural" v="cliff" />
		<tag k="ssr:stedsnr" v="424442" />
	</node>
	<node id="-421162" lat="59.1274944479" lon="5.89526943809">
		<tag k="name" v="Norddal" />
		<tag k="natural" v="valley" />
		<tag k="place" v="locality" />
		<tag k="ssr:stedsnr" v="843318" />
	</node>
	<node id="-420572" lat="59.1335111122" lon="5.92039166658">
		<tag k="fixme" v="consider natural=peak for the most distinct mountains in the district" />
		<tag k="name" v="Æråsfjellet" />
		<tag k="natural" v="hill" />
		<tag k="place" v="locality" />
		<tag k="ssr:stedsnr" v="235329" />
	</node>
	<node id="-421156" lat="59.1524388885" lon="5.90611111267">
		<tag k="name" v="Sandvikfjellet" />
		<tag k="natural" v="hill" />
		<tag k="place" v="locality" />
		<tag k="ssr:stedsnr" v="843622" />
	</node>
	<node id="-420643" lat="59.1639777824" lon="5.94479445084">
		<tag k="name" v="Øygjafjellet" />
		<tag k="natural" v="hill" />
		<tag k="place" v="locality" />
		<tag k="ssr:stedsnr" v="417265" />
	</node>
	<node id="-420571" lat="59.1447250022" lon="5.78105833049">
		<tag k="name" v="Rughola" />
		<tag k="place" v="locality" />
		<tag k="ssr:stedsnr" v="235556" />
	</node>
	<node id="-421152" lat="59.1613027793" lon="5.82251667444">
		<tag k="name" v="Øyardalen" />
		<tag k="natural" v="valley" />
		<tag k="place" v="locality" />
		<tag k="ssr:stedsnr" v="842532" />
	</node>
	<node id="-421150" lat="59.1609916622" lon="5.82489166432">
		<tag k="fixme" v="consider natural=peak for the most distinct mountains in the district" />
		<tag k="name" v="Øyardalsfjellet" />
		<tag k="natural" v="hill" />
		<tag k="place" v="locality" />
		<tag k="ssr:stedsnr" v="842522" />
	</node>
	<node id="-420125" lat="59.2674666671" lon="6.03619444634">
		<tag k="name" v="Hidleto" />
		<tag k="place" v="locality" />
		<tag k="ssr:stedsnr" v="363352" />
	</node>
	<node id="-420124" lat="59.2067444477" lon="5.93300000177">
		<tag k="name" v="Fjedlet" />
		<tag k="place" v="locality" />
		<tag k="ssr:stedsnr" v="357857" />
	</node>
	<node id="-420122" lat="59.1502638918" lon="5.93713055321">
		<tag k="name" v="Vedaberget" />
		<tag k="natural" v="slope" />
		<tag k="place" v="locality" />
		<tag k="ssr:stedsnr" v="357603" />
	</node>
	<node id="-420119" lat="59.142086112" lon="5.79496665935">
		<tag k="fixme" v="consider natural=peak for the most distinct mountains in the district" />
		<tag k="name" v="Lastefjellet" />
		<tag k="natural" v="hill" />
		<tag k="place" v="locality" />
		<tag k="ssr:stedsnr" v="357553" />
	</node>
	<node id="-420118" lat="59.1647500043" lon="5.9409805544">
		<tag k="fixme" v="consider natural=peak for the most distinct mountains in the district" />
		<tag k="name" v="Storafjell" />
		<tag k="natural" v="hill" />
		<tag k="place" v="locality" />
		<tag k="ssr:stedsnr" v="357436" />
	</node>
	<node id="-420825" lat="59.2873722245" lon="6.05917499872">
		<tag k="fixme" v="multiple name tags, choose one and add the other to alt_name; consider natural=peak for the most distinct mountains in the district" />
		<tag k="name" v="Lygaren;Søre Bandåsen" />
		<tag k="natural" v="hill" />
		<tag k="place" v="locality" />
		<tag k="ssr:stedsnr" v="587564" />
	</node>
	<node id="-420627" lat="59.1694305539" lon="5.85514443604">
		<tag k="name" v="Nådedalen" />
		<tag k="natural" v="valley" />
		<tag k="place" v="locality" />
		<tag k="ssr:stedsnr" v="244902" />
	</node>
	<node id="-421134" lat="59.1678222205" lon="5.86708888526">
		<tag k="name" v="Fåhaugen" />
		<tag k="natural" v="hill" />
		<tag k="place" v="locality" />
		<tag k="ssr:stedsnr" v="796262" />
	</node>
	<node id="-421132" lat="59.2774499998" lon="5.99125000364">
		<tag k="name" v="Bjergaheia" />
		<tag k="natural" v="hill" />
		<tag k="place" v="locality" />
		<tag k="ssr:stedsnr" v="791580" />
	</node>
	<node id="-420618" lat="59.1370666657" lon="5.93164999523">
		<tag k="fixme" v="consider natural=peak for the most distinct mountains in the district" />
		<tag k="name" v="Revåsen" />
		<tag k="natural" v="hill" />
		<tag k="place" v="locality" />
		<tag k="ssr:stedsnr" v="244600" />
	</node>
	<node id="-421128" lat="59.2610749986" lon="5.98830000355">
		<tag k="name" v="Gamlestølhammaren" />
		<tag k="natural" v="hill" />
		<tag k="place" v="locality" />
		<tag k="ssr:stedsnr" v="791546" />
	</node>
	<node id="-420094" lat="59.2372611133" lon="5.8875138947">
		<tag k="alt_name" v="Vedås" />
		<tag k="fixme" v="consider natural=peak for the most distinct mountains in the district" />
		<tag k="name" v="Vetås" />
		<tag k="natural" v="hill" />
		<tag k="place" v="locality" />
		<tag k="ssr:stedsnr" v="305994" />
	</node>
	<node id="-420053" lat="59.2828666681" lon="5.94813888879">
		<tag k="name" v="Storaflådå" />
		<tag k="place" v="locality" />
		<tag k="ssr:stedsnr" v="302476" />
	</node>
	<node id="-420091" lat="59.1969388848" lon="5.94778889577">
		<tag k="alt_name" v="Kregjebærhaugane" />
		<tag k="name" v="Krekebærhaugane" />
		<tag k="natural" v="hill" />
		<tag k="place" v="locality" />
		<tag k="ssr:stedsnr" v="305904" />
	</node>
	<node id="-420598" lat="59.2320805575" lon="5.84898889623">
		<tag k="fixme" v="consider natural=peak for the most distinct mountains in the district" />
		<tag k="name" v="Helgøyåsen" />
		<tag k="natural" v="hill" />
		<tag k="place" v="locality" />
		<tag k="ssr:stedsnr" v="242533" />
	</node>
	<node id="-420084" lat="59.2684500036" lon="5.93087500645">
		<tag k="fixme" v="consider natural=peak for the most distinct mountains in the district" />
		<tag k="name" v="Hesthagen" />
		<tag k="natural" v="hill" />
		<tag k="place" v="locality" />
		<tag k="ssr:stedsnr" v="305634" />
	</node>
	<node id="-421107" lat="59.1071916699" lon="5.81516388939">
		<tag k="fixme" v="consider natural=peak for the most distinct mountains in the district" />
		<tag k="name" v="Klubben" />
		<tag k="natural" v="hill" />
		<tag k="place" v="locality" />
		<tag k="ssr:stedsnr" v="790312" />
	</node>
	<node id="-420592" lat="59.2689888898" lon="6.02681110616">
		<tag k="name" v="Smalabakkane" />
		<tag k="natural" v="slope" />
		<tag k="place" v="locality" />
		<tag k="ssr:stedsnr" v="242406" />
	</node>
	<node id="-420590" lat="59.2616777752" lon="6.03324166735">
		<tag k="name" v="Flådaskaret" />
		<tag k="natural" v="valley" />
		<tag k="place" v="locality" />
		<tag k="ssr:stedsnr" v="242402" />
	</node>
	<node id="-420589" lat="59.2534583365" lon="5.94031110846">
		<tag k="name" v="Niben" />
		<tag k="natural" v="cliff" />
		<tag k="ssr:stedsnr" v="242395" />
	</node>
	<node id="-421093" lat="59.2468444457" lon="5.94837778395">
		<tag k="fixme" v="consider natural=peak for the most distinct mountains in the district" />
		<tag k="name" v="Bogskinnsfjellet" />
		<tag k="natural" v="hill" />
		<tag k="place" v="locality" />
		<tag k="ssr:stedsnr" v="788612" />
	</node>
	<node id="-420578" lat="59.147177775" lon="5.90140832765">
		<tag k="name" v="Vadlabergåsen" />
		<tag k="natural" v="hill" />
		<tag k="place" v="locality" />
		<tag k="ssr:stedsnr" v="235656" />
	</node>
	<node id="-420577" lat="59.154930559" lon="5.9281944376">
		<tag k="name" v="Sundafjellet" />
		<tag k="natural" v="hill" />
		<tag k="place" v="locality" />
		<tag k="ssr:stedsnr" v="235643" />
	</node>
	<node id="-420048" lat="59.1135583318" lon="5.82154166315">
		<tag k="name" v="Skifthaug" />
		<tag k="natural" v="hill" />
		<tag k="place" v="locality" />
		<tag k="ssr:stedsnr" v="297941" />
	</node>
	<node id="-421084" lat="59.2747499973" lon="6.01786389624">
		<tag k="name" v="Kleiva" />
		<tag k="natural" v="cliff" />
		<tag k="ssr:stedsnr" v="788451" />
	</node>
	<node id="-421083" lat="59.2849944447" lon="6.04864999666">
		<tag k="name" v="Skårane" />
		<tag k="natural" v="valley" />
		<tag k="place" v="locality" />
		<tag k="ssr:stedsnr" v="788447" />
	</node>
	<node id="-420650" lat="59.1687305539" lon="5.82889999437">
		<tag k="name" v="Falkasete" />
		<tag k="natural" v="hill" />
		<tag k="place" v="locality" />
		<tag k="ssr:stedsnr" v="418246" />
	</node>
	<node id="-421080" lat="59.2749555598" lon="5.95878333431">
		<tag k="name" v="Stampå" />
		<tag k="natural" v="valley" />
		<tag k="place" v="locality" />
		<tag k="ssr:stedsnr" v="788434" />
	</node>
	<node id="-420132" lat="59.244911109" lon="5.97831944761">
		<tag k="fixme" v="consider natural=peak for the most distinct mountains in the district" />
		<tag k="name" v="Karifjellet" />
		<tag k="natural" v="hill" />
		<tag k="place" v="locality" />
		<tag k="ssr:stedsnr" v="363594" />
	</node>
	<node id="-421078" lat="59.2603416669" lon="6.03190000792">
		<tag k="fixme" v="consider natural=peak for the most distinct mountains in the district" />
		<tag k="name" v="Varen" />
		<tag k="natural" v="hill" />
		<tag k="place" v="locality" />
		<tag k="ssr:stedsnr" v="788420" />
	</node>
	<node id="-421077" lat="59.2713305576" lon="5.95248889421">
		<tag k="fixme" v="consider natural=peak for the most distinct mountains in the district" />
		<tag k="name" v="Kallåsen" />
		<tag k="natural" v="hill" />
		<tag k="place" v="locality" />
		<tag k="ssr:stedsnr" v="788408" />
	</node>
	<node id="-421076" lat="59.2900513172" lon="6.05256181785">
		<tag k="fixme" v="consider natural=peak for the most distinct mountains in the district" />
		<tag k="name" v="Niben" />
		<tag k="natural" v="hill" />
		<tag k="place" v="locality" />
		<tag k="ssr:stedsnr" v="788401" />
	</node>
	<node id="-420051" lat="59.2546777762" lon="5.97098054833">
		<tag k="name" v="Beinvedlia" />
		<tag k="natural" v="slope" />
		<tag k="place" v="locality" />
		<tag k="ssr:stedsnr" v="302455" />
	</node>
	<node id="-420050" lat="59.2561027785" lon="5.94425000532">
		<tag k="name" v="Bygdarlia" />
		<tag k="natural" v="slope" />
		<tag k="place" v="locality" />
		<tag k="ssr:stedsnr" v="302452" />
	</node>
	<node id="-421072" lat="59.164166664" lon="5.79279444755">
		<tag k="name" v="Kobbhaug" />
		<tag k="natural" v="hill" />
		<tag k="place" v="locality" />
		<tag k="ssr:stedsnr" v="782113" />
	</node>
	<node id="-420046" lat="59.1728138878" lon="5.78410832673">
		<tag k="name" v="Høgestøl" />
		<tag k="natural" v="hill" />
		<tag k="place" v="locality" />
		<tag k="ssr:stedsnr" v="297156" />
	</node>
	<node id="-420044" lat="59.1440916628" lon="5.92503889448">
		<tag k="name" v="Ørnakula" />
		<tag k="natural" v="hill" />
		<tag k="place" v="locality" />
		<tag k="ssr:stedsnr" v="296615" />
	</node>
	<node id="-421066" lat="59.1404666642" lon="5.92111388956">
		<tag k="name" v="Åsdalen" />
		<tag k="natural" v="valley" />
		<tag k="place" v="locality" />
		<tag k="ssr:stedsnr" v="781327" />
	</node>
	<node id="-420041" lat="59.1607222264" lon="5.84847221687">
		<tag k="name" v="Veslelia" />
		<tag k="natural" v="slope" />
		<tag k="place" v="locality" />
		<tag k="ssr:stedsnr" v="296552" />
	</node>
	<node id="-421064" lat="59.1287166651" lon="5.91755277363">
		<tag k="fixme" v="consider natural=peak for the most distinct mountains in the district" />
		<tag k="name" v="Heimaråsen" />
		<tag k="natural" v="hill" />
		<tag k="place" v="locality" />
		<tag k="ssr:stedsnr" v="781303" />
	</node>
	<node id="-420039" lat="59.2011194443" lon="5.95401944786">
		<tag k="name" v="Stranddal" />
		<tag k="natural" v="valley" />
		<tag k="place" v="locality" />
		<tag k="ssr:stedsnr" v="296293" />
	</node>
	<node id="-420038" lat="59.188080556" lon="5.9502083403">
		<tag k="fixme" v="consider natural=peak for the most distinct mountains in the district" />
		<tag k="name" v="Linnåsen" />
		<tag k="natural" v="hill" />
		<tag k="place" v="locality" />
		<tag k="ssr:stedsnr" v="296285" />
	</node>
	<node id="-420547" lat="59.2370527739" lon="5.98392777095">
		<tag k="alt_name" v="Nygårdsheia" />
		<tag k="fixme" v="consider natural=peak for the most distinct mountains in the district" />
		<tag k="name" v="Nygardsheia" />
		<tag k="natural" v="hill" />
		<tag k="place" v="locality" />
		<tag k="ssr:stedsnr" v="184995" />
	</node>
	<node id="-420033" lat="59.1852694459" lon="5.96177222317">
		<tag k="name" v="Fjellsenden" />
		<tag k="natural" v="cliff" />
		<tag k="ssr:stedsnr" v="296035" />
	</node>
	<node id="-420128" lat="59.2866277796" lon="6.01231110292">
		<tag k="fixme" v="consider natural=peak for the most distinct mountains in the district" />
		<tag k="name" v="Kalltveitfjellet" />
		<tag k="natural" v="hill" />
		<tag k="place" v="locality" />
		<tag k="ssr:stedsnr" v="363418" />
	</node>
	<node id="-420541" lat="59.1776916659" lon="5.96937776952">
		<tag k="name" v="Ørnakula" />
		<tag k="natural" v="hill" />
		<tag k="place" v="locality" />
		<tag k="ssr:stedsnr" v="184853" />
	</node>
	<node id="-421052" lat="59.1648027732" lon="5.94094165884">
		<tag k="fixme" v="consider natural=peak for the most distinct mountains in the district" />
		<tag k="name" v="Storafjellet" />
		<tag k="natural" v="hill" />
		<tag k="place" v="locality" />
		<tag k="ssr:stedsnr" v="753979" />
	</node>
	<node id="-420025" lat="59.2570777821" lon="5.85248888677">
		<tag k="alt_name" v="Fåranibba" />
		<tag k="fixme" v="consider natural=peak for the most distinct mountains in the district" />
		<tag k="name" v="Furanibba" />
		<tag k="natural" v="hill" />
		<tag k="place" v="locality" />
		<tag k="ssr:stedsnr" v="282333" />
	</node>
	<node id="-420536" lat="59.2721000023" lon="6.03327499999">
		<tag k="fixme" v="consider natural=peak for the most distinct mountains in the district" />
		<tag k="name" v="Rundsfjellet" />
		<tag k="natural" v="hill" />
		<tag k="place" v="locality" />
		<tag k="ssr:stedsnr" v="184599" />
	</node>
	<node id="-420126" lat="59.2529861069" lon="5.97895555092">
		<tag k="name" v="Senaskårane" />
		<tag k="place" v="locality" />
		<tag k="ssr:stedsnr" v="363395" />
	</node>
	<node id="-420040" lat="59.1232138912" lon="5.89219445011">
		<tag k="fixme" v="consider natural=peak for the most distinct mountains in the district" />
		<tag k="name" v="Nodafjellet" />
		<tag k="natural" v="hill" />
		<tag k="place" v="locality" />
		<tag k="ssr:stedsnr" v="296297" />
	</node>
	<node id="-420519" lat="59.2552055575" lon="5.82690000501">
		<tag k="name" v="Skulehaugen" />
		<tag k="natural" v="hill" />
		<tag k="place" v="locality" />
		<tag k="ssr:stedsnr" v="181751" />
	</node>
	<node id="-420515" lat="59.2409305537" lon="5.99428333255">
		<tag k="fixme" v="consider natural=peak for the most distinct mountains in the district" />
		<tag k="name" v="Sjuråsen" />
		<tag k="natural" v="hill" />
		<tag k="place" v="locality" />
		<tag k="ssr:stedsnr" v="181652" />
	</node>
	<node id="-420514" lat="59.2456888901" lon="5.9835666578">
		<tag k="fixme" v="consider natural=peak for the most distinct mountains in the district" />
		<tag k="name" v="Varahei" />
		<tag k="natural" v="hill" />
		<tag k="place" v="locality" />
		<tag k="ssr:stedsnr" v="181651" />
	</node>
	<node id="-420507" lat="59.2035944424" lon="5.93314166636">
		<tag k="name" v="Kyrkjå" />
		<tag k="place" v="locality" />
		<tag k="ssr:stedsnr" v="175864" />
	</node>
	<node id="-421016" lat="59.2278416686" lon="5.81769444684">
		<tag k="name" v="Tonå" />
		<tag k="place" v="locality" />
		<tag k="ssr:stedsnr" v="727560" />
	</node>
	<node id="-420687" lat="59.1856999976" lon="5.96026111498">
		<tag k="name" v="Skrella" />
		<tag k="natural" v="hill" />
		<tag k="place" v="locality" />
		<tag k="ssr:stedsnr" v="427889" />
	</node>
	<node id="-421013" lat="59.2767305579" lon="6.02903333344">
		<tag k="name" v="Skansen" />
		<tag k="natural" v="cliff" />
		<tag k="ssr:stedsnr" v="727477" />
	</node>
	<node id="-421012" lat="59.2588861072" lon="6.01059999571">
		<tag k="name" v="Medåsskaret" />
		<tag k="natural" v="valley" />
		<tag k="place" v="locality" />
		<tag k="ssr:stedsnr" v="727444" />
	</node>
	<node id="-421010" lat="59.2887055569" lon="6.05373888086">
		<tag k="fixme" v="consider natural=peak for the most distinct mountains in the district" />
		<tag k="name" v="Varen" />
		<tag k="natural" v="hill" />
		<tag k="place" v="locality" />
		<tag k="ssr:stedsnr" v="727426" />
	</node>
	<node id="-420035" lat="59.1735583333" lon="5.82060833074">
		<tag k="name" v="Hauabrekka" />
		<tag k="natural" v="hill" />
		<tag k="place" v="locality" />
		<tag k="ssr:stedsnr" v="296134" />
	</node>
	<node id="-421001" lat="59.1654222201" lon="5.94503334027">
		<tag k="fixme" v="consider natural=peak for the most distinct mountains in the district" />
		<tag k="name" v="Hestås" />
		<tag k="natural" v="hill" />
		<tag k="place" v="locality" />
		<tag k="ssr:stedsnr" v="721444" />
	</node>
	<node id="-420488" lat="59.1819277742" lon="5.96492223115">
		<tag k="fixme" v="consider natural=peak for the most distinct mountains in the district" />
		<tag k="name" v="Lysåsen" />
		<tag k="natural" v="hill" />
		<tag k="place" v="locality" />
		<tag k="ssr:stedsnr" v="175035" />
	</node>
	<node id="-420487" lat="59.1471194481" lon="5.78454445046">
		<tag k="name" v="Vaberget" />
		<tag k="natural" v="hill" />
		<tag k="place" v="locality" />
		<tag k="ssr:stedsnr" v="174584" />
	</node>
	<node id="-420997" lat="59.1081555568" lon="5.89228333654">
		<tag k="name" v="Rossøyfjellet" />
		<tag k="natural" v="hill" />
		<tag k="place" v="locality" />
		<tag k="ssr:stedsnr" v="721743" />
	</node>
	<node id="-420995" lat="59.1315944484" lon="5.92287222169">
		<tag k="fixme" v="consider natural=peak for the most distinct mountains in the district" />
		<tag k="name" v="Husafjellet" />
		<tag k="natural" v="hill" />
		<tag k="place" v="locality" />
		<tag k="ssr:stedsnr" v="721287" />
	</node>
	<node id="-420994" lat="59.1843416702" lon="5.83377499837">
		<tag k="name" v="Rodatødne" />
		<tag k="natural" v="slope" />
		<tag k="place" v="locality" />
		<tag k="ssr:stedsnr" v="721251" />
	</node>
	<node id="-420993" lat="59.1840833324" lon="5.84418333215">
		<tag k="name" v="Golhaug" />
		<tag k="natural" v="hill" />
		<tag k="place" v="locality" />
		<tag k="ssr:stedsnr" v="721250" />
	</node>
	<node id="-420992" lat="59.1936999998" lon="5.82099444667">
		<tag k="name" v="Trolljuv" />
		<tag k="natural" v="gorge" />
		<tag k="ssr:stedsnr" v="721220" />
	</node>
	<node id="-420478" lat="59.1665777768" lon="5.86242500337">
		<tag k="name" v="Golhaug" />
		<tag k="natural" v="hill" />
		<tag k="place" v="locality" />
		<tag k="ssr:stedsnr" v="128239" />
	</node>
	<node id="-420117" lat="59.1399611114" lon="5.92327499239">
		<tag k="fixme" v="consider natural=peak for the most distinct mountains in the district" />
		<tag k="name" v="Åsen" />
		<tag k="natural" v="hill" />
		<tag k="place" v="locality" />
		<tag k="ssr:stedsnr" v="357307" />
	</node>
	<node id="-420476" lat="59.2915250036" lon="5.97307499461">
		<tag k="name" v="Låvaberga" />
		<tag k="natural" v="hill" />
		<tag k="place" v="locality" />
		<tag k="ssr:stedsnr" v="124545" />
	</node>
	<node id="-420031" lat="59.1328166626" lon="5.94194444352">
		<tag k="name" v="Asalfjellet" />
		<tag k="natural" v="hill" />
		<tag k="place" v="locality" />
		<tag k="ssr:stedsnr" v="295290" />
	</node>
	<node id="-420471" lat="59.2443388854" lon="5.95459999483">
		<tag k="alt_name" v="Vonuten" />
		<tag k="fixme" v="consider natural=peak for the most distinct mountains in the district" />
		<tag k="name" v="Vordnuten" />
		<tag k="natural" v="hill" />
		<tag k="place" v="locality" />
		<tag k="ssr:stedsnr" v="123971" />
	</node>
	<node id="-420470" lat="59.1702916712" lon="5.86141945109">
		<tag k="fixme" v="consider natural=peak for the most distinct mountains in the district" />
		<tag k="name" v="Raunehagen" />
		<tag k="natural" v="hill" />
		<tag k="place" v="locality" />
		<tag k="ssr:stedsnr" v="123908" />
	</node>
	<node id="-420456" lat="59.2272083378" lon="5.96559999995">
		<tag k="alt_name" v="Skibe" />
		<tag k="fixme" v="consider natural=peak for the most distinct mountains in the district" />
		<tag k="name" v="Skipet" />
		<tag k="natural" v="hill" />
		<tag k="place" v="locality" />
		<tag k="ssr:stedsnr" v="122950" />
	</node>
	<node id="-420455" lat="59.1972694401" lon="5.93931666319">
		<tag k="fixme" v="consider natural=peak for the most distinct mountains in the district" />
		<tag k="name" v="Lauvåsen" />
		<tag k="natural" v="hill" />
		<tag k="place" v="locality" />
		<tag k="ssr:stedsnr" v="122890" />
	</node>
	<node id="-420961" lat="59.1463527782" lon="5.92836945002">
		<tag k="name" v="Skjenåsen" />
		<tag k="natural" v="hill" />
		<tag k="place" v="locality" />
		<tag k="ssr:stedsnr" v="669576" />
	</node>
	<node id="-420444" lat="59.229341669" lon="5.9691777708">
		<tag k="fixme" v="consider natural=peak for the most distinct mountains in the district" />
		<tag k="name" v="Nonsås" />
		<tag k="natural" v="hill" />
		<tag k="place" v="locality" />
		<tag k="ssr:stedsnr" v="120636" />
	</node>
	<node id="-420443" lat="59.2398833315" lon="5.95966388956">
		<tag k="fixme" v="consider natural=peak for the most distinct mountains in the district" />
		<tag k="name" v="Lauvåsen" />
		<tag k="natural" v="hill" />
		<tag k="place" v="locality" />
		<tag k="ssr:stedsnr" v="120629" />
	</node>
	<node id="-420442" lat="59.2273565331" lon="5.83179718175">
		<tag k="name" v="Brådå" />
		<tag k="place" v="locality" />
		<tag k="ssr:stedsnr" v="120606" />
	</node>
	<node id="-420952" lat="59.159675002" lon="5.82789165909">
		<tag k="fixme" v="consider natural=peak for the most distinct mountains in the district" />
		<tag k="name" v="Kuhammar" />
		<tag k="natural" v="hill" />
		<tag k="place" v="locality" />
		<tag k="ssr:stedsnr" v="668287" />
	</node>
	<node id="-420436" lat="59.279819442" lon="6.04189999479">
		<tag k="fixme" v="consider natural=peak for the most distinct mountains in the district" />
		<tag k="name" v="Rossåsen" />
		<tag k="natural" v="hill" />
		<tag k="place" v="locality" />
		<tag k="ssr:stedsnr" v="120470" />
	</node>
	<node id="-420435" lat="59.2540027806" lon="5.95935276918">
		<tag k="name" v="Kjelane" />
		<tag k="natural" v="valley" />
		<tag k="place" v="locality" />
		<tag k="ssr:stedsnr" v="120425" />
	</node>
	<node id="-420432" lat="59.111038887" lon="5.82111110271">
		<tag k="name" v="Ringaberg" />
		<tag k="natural" v="hill" />
		<tag k="place" v="locality" />
		<tag k="ssr:stedsnr" v="115936" />
	</node>
	<node id="-420428" lat="59.1651277765" lon="5.85557500818">
		<tag k="name" v="Nådåtræ" />
		<tag k="place" v="locality" />
		<tag k="ssr:stedsnr" v="115271" />
	</node>
	<node id="-420426" lat="59.1441083293" lon="5.92157222892">
		<tag k="fixme" v="consider natural=peak for the most distinct mountains in the district" />
		<tag k="name" v="Kallebakk" />
		<tag k="natural" v="hill" />
		<tag k="place" v="locality" />
		<tag k="ssr:stedsnr" v="114647" />
	</node>
	<node id="-420936" lat="59.2644361138" lon="5.83943333581">
		<tag k="name" v="Norheimsberget" />
		<tag k="natural" v="hill" />
		<tag k="place" v="locality" />
		<tag k="ssr:stedsnr" v="666494" />
	</node>
	<node id="-420935" lat="59.2804388863" lon="6.02855276928">
		<tag k="name" v="Kalltveitheia" />
		<tag k="natural" v="hill" />
		<tag k="place" v="locality" />
		<tag k="ssr:stedsnr" v="666488" />
	</node>
	<node id="-420934" lat="59.276761115" lon="5.98304722502">
		<tag k="fixme" v="consider natural=peak for the most distinct mountains in the district" />
		<tag k="name" v="Bjergafjellet" />
		<tag k="natural" v="hill" />
		<tag k="place" v="locality" />
		<tag k="ssr:stedsnr" v="666474" />
	</node>
	<node id="-420193" lat="59.240986114" lon="5.88740555789">
		<tag k="name" v="Ladberget" />
		<tag k="natural" v="hill" />
		<tag k="place" v="locality" />
		<tag k="ssr:stedsnr" v="889716" />
	</node>
	<node id="-420420" lat="59.1418305519" lon="5.91268332917">
		<tag k="name" v="Pighaug" />
		<tag k="natural" v="hill" />
		<tag k="place" v="locality" />
		<tag k="ssr:stedsnr" v="114349" />
	</node>
	<node id="-420417" lat="59.1975194401" lon="5.95418333705">
		<tag k="name" v="Kvednarhaugen" />
		<tag k="natural" v="hill" />
		<tag k="place" v="locality" />
		<tag k="ssr:stedsnr" v="114333" />
	</node>
	<node id="-420416" lat="59.1272000035" lon="5.91688611904">
		<tag k="fixme" v="consider natural=peak for the most distinct mountains in the district" />
		<tag k="name" v="Borgaråsen" />
		<tag k="natural" v="hill" />
		<tag k="place" v="locality" />
		<tag k="ssr:stedsnr" v="114312" />
	</node>
	<node id="-420415" lat="59.1369833342" lon="5.92737222547">
		<tag k="name" v="Duedalen" />
		<tag k="natural" v="valley" />
		<tag k="place" v="locality" />
		<tag k="ssr:stedsnr" v="114287" />
	</node>
	<node id="-420925" lat="59.2035694443" lon="5.94625000427">
		<tag k="name" v="Kyrkjehaugen" />
		<tag k="natural" v="hill" />
		<tag k="place" v="locality" />
		<tag k="ssr:stedsnr" v="660424" />
	</node>
	<node id="-420412" lat="59.141519444" lon="5.9245527865">
		<tag k="name" v="Domfjelldalen" />
		<tag k="natural" v="valley" />
		<tag k="place" v="locality" />
		<tag k="ssr:stedsnr" v="114285" />
	</node>
	<node id="-420106" lat="59.1978000029" lon="5.9451027824">
		<tag k="name" v="Vassdal" />
		<tag k="natural" v="valley" />
		<tag k="place" v="locality" />
		<tag k="ssr:stedsnr" v="356320" />
	</node>
	<node id="-420360" lat="59.2911138906" lon="6.02575834005">
		<tag k="fixme" v="consider natural=peak for the most distinct mountains in the district" />
		<tag k="name" v="Rabnafjellet" />
		<tag k="natural" v="hill" />
		<tag k="place" v="locality" />
		<tag k="ssr:stedsnr" v="60399" />
	</node>
	<node id="-420189" lat="59.1827555527" lon="5.84915555498">
		<tag k="name" v="Grønhaug" />
		<tag k="natural" v="hill" />
		<tag k="place" v="locality" />
		<tag k="ssr:stedsnr" v="479262" />
	</node>
	<node id="-420390" lat="59.1871055547" lon="5.96194165912">
		<tag k="name" v="Eikefjellet" />
		<tag k="natural" v="hill" />
		<tag k="place" v="locality" />
		<tag k="ssr:stedsnr" v="62932" />
	</node>
	<node id="-420898" lat="59.2551250044" lon="5.95577499872">
		<tag k="alt_name" v="Skaraheia" />
		<tag k="name" v="Skoraheia" />
		<tag k="natural" v="hill" />
		<tag k="place" v="locality" />
		<tag k="ssr:stedsnr" v="609649" />
	</node>
	<node id="-420893" lat="59.1914388922" lon="5.95272777171">
		<tag k="alt_name" v="Bjødnnåsen" />
		<tag k="fixme" v="consider natural=peak for the most distinct mountains in the district" />
		<tag k="name" v="Bjørnåsen" />
		<tag k="natural" v="hill" />
		<tag k="place" v="locality" />
		<tag k="ssr:stedsnr" v="608943" />
	</node>
	<node id="-420379" lat="59.1506833307" lon="5.80214999324">
		<tag k="alt_name" v="Longabakka" />
		<tag k="name" v="Langebakk" />
		<tag k="natural" v="ridge" />
		<tag k="place" v="locality" />
		<tag k="ssr:stedsnr" v="62256" />
	</node>
	<node id="-420375" lat="59.2465305597" lon="5.97686110579">
		<tag k="name" v="Gudmundshidler" />
		<tag k="place" v="locality" />
		<tag k="ssr:stedsnr" v="60626" />
	</node>
	<node id="-420373" lat="59.2384749998" lon="5.93788333466">
		<tag k="name" v="Tinghaug" />
		<tag k="natural" v="hill" />
		<tag k="place" v="locality" />
		<tag k="ssr:stedsnr" v="60590" />
	</node>
	<node id="-420883" lat="59.1416527814" lon="5.92714166566">
		<tag k="fixme" v="consider natural=peak for the most distinct mountains in the district" />
		<tag k="name" v="Domfjellet" />
		<tag k="natural" v="hill" />
		<tag k="place" v="locality" />
		<tag k="ssr:stedsnr" v="608605" />
	</node>
	<node id="-420370" lat="59.2323944426" lon="5.84525832646">
		<tag k="fixme" v="consider natural=peak for the most distinct mountains in the district" />
		<tag k="name" v="Litleåsen" />
		<tag k="natural" v="hill" />
		<tag k="place" v="locality" />
		<tag k="ssr:stedsnr" v="60540" />
	</node>
	<node id="-420880" lat="59.1286388902" lon="5.88607222412">
		<tag k="fixme" v="consider natural=peak for the most distinct mountains in the district" />
		<tag k="name" v="Ørnakula" />
		<tag k="natural" v="hill" />
		<tag k="place" v="locality" />
		<tag k="ssr:stedsnr" v="608378" />
	</node>
	<node id="-420440" lat="59.2507807518" lon="5.84366851678">
		<tag k="alt_name" v="Aubeåsen" />
		<tag k="fixme" v="consider natural=peak for the most distinct mountains in the district" />
		<tag k="name" v="Aubøåsen" />
		<tag k="natural" v="hill" />
		<tag k="place" v="locality" />
		<tag k="ssr:stedsnr" v="120560" />
	</node>
	<node id="-420887" lat="59.2572999989" lon="5.87035000098">
		<tag k="fixme" v="consider natural=peak for the most distinct mountains in the district" />
		<tag k="name" v="Fuglahammaren" />
		<tag k="natural" v="hill" />
		<tag k="place" v="locality" />
		<tag k="ssr:stedsnr" v="608627" />
	</node>
	<node id="-420363" lat="59.273838885" lon="6.04849166625">
		<tag k="name" v="Hollahola" />
		<tag k="place" v="locality" />
		<tag k="ssr:stedsnr" v="60452" />
	</node>
	<node id="-420362" lat="59.2871861084" lon="5.97225278382">
		<tag k="name" v="Hammaren" />
		<tag k="natural" v="cliff" />
		<tag k="ssr:stedsnr" v="60441" />
	</node>
	<node id="-420361" lat="59.262638888" lon="5.94738610761">
		<tag k="fixme" v="consider natural=peak for the most distinct mountains in the district" />
		<tag k="name" v="Lauåsen" />
		<tag k="natural" v="hill" />
		<tag k="place" v="locality" />
		<tag k="ssr:stedsnr" v="60410" />
	</node>
	<node id="-420872" lat="59.1531666708" lon="5.82538888282">
		<tag k="fixme" v="consider natural=peak for the most distinct mountains in the district" />
		<tag k="name" v="Bergevarden" />
		<tag k="natural" v="hill" />
		<tag k="ssr:stedsnr" v="608257" />
	</node>
	<node id="-420356" lat="59.1153166706" lon="5.89229721933">
		<tag k="name" v="Nonshaug" />
		<tag k="natural" v="hill" />
		<tag k="place" v="locality" />
		<tag k="ssr:stedsnr" v="54770" />
	</node>
	<node id="-420354" lat="59.1194194467" lon="5.90640000219">
		<tag k="name" v="Ubårdalen" />
		<tag k="natural" v="valley" />
		<tag k="place" v="locality" />
		<tag k="ssr:stedsnr" v="54767" />
	</node>
</osm>
