<?xml version="1.0" encoding="UTF-8"?>
<osm generator="osmapis" version="0.6">
	<node id="-421248" lat="59.2654027793" lon="5.92435554906">
		<tag k="name" v="Urå Grå" />
		<tag k="natural" v="scree" />
		<tag k="ssr:stedsnr" v="909459" />
	</node>
	<node id="-420735" lat="59.2713999968" lon="5.99240000749">
		<tag k="name" v="Bjergamyra" />
		<tag k="natural" v="wetland" />
		<tag k="ssr:stedsnr" v="487621" />
	</node>
	<node id="-420861" lat="59.2473083367" lon="5.931441667">
		<tag k="name" v="Hagasteinen" />
		<tag k="natural" v="stone" />
		<tag k="ssr:stedsnr" v="605618" />
	</node>
	<node id="-421091" lat="59.2365305579" lon="5.87991945042">
		<tag k="name" v="Sundur" />
		<tag k="natural" v="scree" />
		<tag k="ssr:stedsnr" v="788575" />
	</node>
	<node id="-420858" lat="59.2301722245" lon="5.89249445242">
		<tag k="name" v="Morkjå" />
		<tag k="place" v="locality" />
		<tag k="ssr:stedsnr" v="605599" />
	</node>
	<node id="-420856" lat="59.2283416707" lon="5.80663610995">
		<tag k="name" v="Storskog" />
		<tag k="place" v="locality" />
		<tag k="ssr:stedsnr" v="605561" />
	</node>
	<node id="-420855" lat="59.2319750016" lon="5.79644166192">
		<tag k="name" v="Rossmorkjå" />
		<tag k="place" v="locality" />
		<tag k="ssr:stedsnr" v="605545" />
	</node>
	<node id="-421234" lat="59.1242722246" lon="5.91316388533">
		<tag k="name" v="Låvikmyra" />
		<tag k="natural" v="wetland" />
		<tag k="ssr:stedsnr" v="903312" />
	</node>
	<node id="-421105" lat="59.1791305524" lon="5.80551389253">
		<tag k="name" v="Brekkemyra" />
		<tag k="natural" v="wetland" />
		<tag k="ssr:stedsnr" v="790288" />
	</node>
	<node id="-421104" lat="59.1864750016" lon="5.83866388885">
		<tag k="name" v="Landastemmen" />
		<tag k="natural" v="wetland" />
		<tag k="ssr:stedsnr" v="790283" />
	</node>
	<node id="-420205" lat="59.1521583374" lon="5.98047222337">
		<tag k="historic" v="shieling" />
		<tag k="name" v="Stølen" />
		<tag k="place" v="locality" />
		<tag k="ssr:stedsnr" v="721273" />
	</node>
	<node id="-420587" lat="59.1891416674" lon="5.83416944353">
		<tag k="name" v="Årstein" />
		<tag k="place" v="locality" />
		<tag k="ssr:stedsnr" v="236836" />
	</node>
	<node id="-420586" lat="59.1749611138" lon="5.9840777692">
		<tag k="landuse" v="meadow" />
		<tag k="name" v="Fårøyplasset" />
		<tag k="ssr:stedsnr" v="236433" />
	</node>
	<node id="-420713" lat="59.2456944404" lon="5.96720000267">
		<tag k="name" v="Gamlestølsmyra" />
		<tag k="natural" v="wetland" />
		<tag k="ssr:stedsnr" v="484651" />
	</node>
	<node id="-420584" lat="59.1731138885" lon="5.80944721505">
		<tag k="name" v="Ladberget" />
		<tag k="place" v="locality" />
		<tag k="ssr:stedsnr" v="236146" />
	</node>
	<node id="-421095" lat="59.2545277799" lon="5.80869443732">
		<tag k="landuse" v="meadow" />
		<tag k="name" v="Lundarbøen" />
		<tag k="ssr:stedsnr" v="788709" />
	</node>
	<node id="-421094" lat="59.252394444" lon="5.79722499694">
		<tag k="name" v="Lundarmarkene" />
		<tag k="place" v="locality" />
		<tag k="ssr:stedsnr" v="788706" />
	</node>
	<node id="-421222" lat="59.1668166702" lon="5.87236111473">
		<tag k="landuse" v="meadow" />
		<tag k="name" v="Fåfeltet" />
		<tag k="ssr:stedsnr" v="857285" />
	</node>
	<node id="-420576" lat="59.1559277803" lon="5.93235555871">
		<tag k="name" v="Kjinnesteinen" />
		<tag k="natural" v="stone" />
		<tag k="ssr:stedsnr" v="235640" />
	</node>
	<node id="-421157" lat="59.1801888894" lon="5.96197777285">
		<tag k="name" v="Espenesmyra" />
		<tag k="natural" v="wetland" />
		<tag k="ssr:stedsnr" v="843052" />
	</node>
	<node id="-421242" lat="59.1109333312" lon="5.83515278632">
		<tag k="name" v="Legene" />
		<tag k="place" v="locality" />
		<tag k="ssr:stedsnr" v="903982" />
	</node>
	<node id="-420953" lat="59.1630250004" lon="5.83820277441">
		<tag k="name" v="Olamyra" />
		<tag k="natural" v="wetland" />
		<tag k="ssr:stedsnr" v="668289" />
	</node>
	<node id="-420437" lat="59.248401329" lon="5.80535564311">
		<tag k="name" v="Eikemarkene" />
		<tag k="place" v="locality" />
		<tag k="ssr:stedsnr" v="120529" />
	</node>
	<node id="-420049" lat="59.2639416677" lon="5.96011666993">
		<tag k="name" v="Øygarden" />
		<tag k="place" v="locality" />
		<tag k="ssr:stedsnr" v="302451" />
	</node>
	<node id="-420938" lat="59.2295638894" lon="5.87985277588">
		<tag k="name" v="Holmahagen" />
		<tag k="place" v="locality" />
		<tag k="ssr:stedsnr" v="666588" />
	</node>
	<node id="-420680" lat="59.1286888926" lon="5.91292222976">
		<tag k="name" v="Gangsmyr" />
		<tag k="natural" v="wetland" />
		<tag k="ssr:stedsnr" v="427547" />
	</node>
	<node id="-421191" lat="59.1556027756" lon="5.83345000486">
		<tag k="alt_name" v="Iglarmyra" />
		<tag k="name" v="Iglemyra" />
		<tag k="natural" v="wetland" />
		<tag k="ssr:stedsnr" v="851257" />
	</node>
	<node id="-420034" lat="59.1784833309" lon="5.80334166567">
		<tag k="name" v="Bergdråp" />
		<tag k="place" v="locality" />
		<tag k="ssr:stedsnr" v="296133" />
	</node>
	<node id="-420032" lat="59.1505750013" lon="5.79562499656">
		<tag k="loc_name" v="Pighella" />
		<tag k="name" v="Pigghella" />
		<tag k="natural" v="stone" />
		<tag k="ssr:stedsnr" v="295527" />
	</node>
	<node id="-421310" lat="59.1605972198" lon="5.84221666803">
		<tag k="name" v="Korsteinen" />
		<tag k="natural" v="stone" />
		<tag k="ssr:stedsnr" v="963648" />
	</node>
	<node id="-420413" lat="59.1760805592" lon="5.81865833891">
		<tag k="landuse" v="meadow" />
		<tag k="name" v="Slåttå" />
		<tag k="ssr:stedsnr" v="114155" />
	</node>
	<node id="-421163" lat="59.1674594786" lon="5.95705777384">
		<tag k="landuse" v="meadow" />
		<tag k="name" v="Plasså" />
		<tag k="ssr:stedsnr" v="843461" />
	</node>
	<node id="-420649" lat="59.1836694429" lon="5.96678054798">
		<tag k="name" v="Høgebrot" />
		<tag k="place" v="locality" />
		<tag k="ssr:stedsnr" v="418045" />
	</node>
	<node id="-420134" lat="59.2563305522" lon="5.82138888573">
		<tag k="name" v="Myrane" />
		<tag k="natural" v="wetland" />
		<tag k="ssr:stedsnr" v="363682" />
	</node>
	<node id="-420593" lat="59.2653083349" lon="5.93254165778">
		<tag k="name" v="Skitnemyr" />
		<tag k="natural" v="wetland" />
		<tag k="ssr:stedsnr" v="242410" />
	</node>
	<node id="-420642" lat="59.1175666662" lon="5.7963166643">
		<tag k="name" v="Oddamyr" />
		<tag k="natural" v="wetland" />
		<tag k="ssr:stedsnr" v="479977" />
	</node>
	<node id="-420640" lat="59.1157805527" lon="5.80373611182">
		<tag k="name" v="Jubemyr" />
		<tag k="natural" v="wetland" />
		<tag k="ssr:stedsnr" v="479969" />
	</node>
	<node id="-420602" lat="59.2491583355" lon="5.98782222074">
		<tag k="historic" v="shieling" />
		<tag k="name" v="Støl" />
		<tag k="place" v="locality" />
		<tag k="ssr:stedsnr" v="242625" />
	</node>
	<node id="-421149" lat="59.1260749965" lon="5.90165555456">
		<tag k="name" v="Eidsbrotet" />
		<tag k="place" v="locality" />
		<tag k="ssr:stedsnr" v="842315" />
	</node>
	<node id="-420376" lat="59.2326000037" lon="5.99655833358">
		<tag k="name" v="Talettasteinane" />
		<tag k="natural" v="stone" />
		<tag k="ssr:stedsnr" v="60665" />
	</node>
	<node id="-421015" lat="59.2390194402" lon="5.82389721798">
		<tag k="name" v="Tjularmyra" />
		<tag k="natural" v="wetland" />
		<tag k="ssr:stedsnr" v="727533" />
	</node>
	<node id="-420374" lat="59.2418138931" lon="5.96231666602">
		<tag k="name" v="Bjønnsmyr" />
		<tag k="natural" v="wetland" />
		<tag k="ssr:stedsnr" v="60611" />
	</node>
	<node id="-421268" lat="59.1213916679" lon="5.88246666687">
		<tag k="name" v="Oksamyra" />
		<tag k="natural" v="wetland" />
		<tag k="ssr:stedsnr" v="911533" />
	</node>
	<node id="-420114" lat="59.1871222268" lon="5.82503889324">
		<tag k="name" v="Landasteinen" />
		<tag k="natural" v="stone" />
		<tag k="ssr:stedsnr" v="357237" />
	</node>
	<node id="-420496" lat="59.1660777771" lon="5.84809999804">
		<tag k="name" v="Kvamefjellet" />
		<tag k="place" v="locality" />
		<tag k="ssr:stedsnr" v="175264" />
	</node>
	<node id="-420493" lat="59.1700777803" lon="5.82555277884">
		<tag k="name" v="Skudegjerd" />
		<tag k="place" v="locality" />
		<tag k="ssr:stedsnr" v="175129" />
	</node>
	<node id="-420107" lat="59.1427222207" lon="5.80587500053">
		<tag k="name" v="Lasteinen" />
		<tag k="natural" v="stone" />
		<tag k="ssr:stedsnr" v="356536" />
	</node>
	<node id="-420489" lat="59.1747305512" lon="5.78135277559">
		<tag k="name" v="Svaberget" />
		<tag k="place" v="locality" />
		<tag k="ssr:stedsnr" v="175109" />
	</node>
	<node id="-420358" lat="59.197761108" lon="5.93422500229">
		<tag k="name" v="Skarpaskottland" />
		<tag k="place" v="locality" />
		<tag k="ssr:stedsnr" v="54883" />
	</node>
</osm>
