<?xml version="1.0" encoding="UTF-8"?>
<osm generator="osmapis" version="0.6">
	<node id="-419839" lat="59.2631963193" lon="5.83022398437">
		<tag k="alt_name" v="Nordheim" />
		<tag k="fixme" v="consider place=hamlet" />
		<tag k="name" v="Norheim" />
		<tag k="place" v="farm" />
		<tag k="ssr:stedsnr" v="123300" />
	</node>
	<node id="-419838" lat="59.2521243383" lon="5.81292746411">
		<tag k="fixme" v="consider place=hamlet" />
		<tag k="name" v="Eik" />
		<tag k="place" v="farm" />
		<tag k="ssr:stedsnr" v="123299" />
	</node>
	<node id="-420348" lat="59.1532159023" lon="5.91662786463">
		<tag k="fixme" v="consider place=hamlet" />
		<tag k="name" v="Sæbø" />
		<tag k="place" v="farm" />
		<tag k="ssr:stedsnr" v="669617" />
	</node>
	<node id="-420346" lat="59.2776750029" lon="5.97402499288">
		<tag k="alt_name" v="Røkkin" />
		<tag k="name" v="Røkking" />
		<tag k="place" v="farm" />
		<tag k="ssr:stedsnr" v="669610" />
	</node>
	<node id="-419833" lat="59.1648136811" lon="5.86503820901">
		<tag k="fixme" v="consider place=hamlet" />
		<tag k="name" v="Vika" />
		<tag k="place" v="farm" />
		<tag k="ssr:stedsnr" v="122620" />
	</node>
	<node id="-420341" lat="59.2606194464" lon="5.88317221632">
		<tag k="alt_name" v="Neseim" />
		<tag k="name" v="Nesheim" />
		<tag k="place" v="village" />
		<tag k="ssr:stedsnr" v="669579" />
	</node>
	<node id="-419828" lat="59.1569138846" lon="5.81355277518">
		<tag k="name" v="Nyvoll" />
		<tag k="place" v="farm" />
		<tag k="ssr:stedsnr" v="122282" />
	</node>
	<node id="-420325" lat="59.1403037455" lon="5.80064820575">
		<tag k="alt_name" v="Lastein, ytre" />
		<tag k="fixme" v="consider place=hamlet" />
		<tag k="name" v="Ytre Lastein" />
		<tag k="place" v="farm" />
		<tag k="ssr:stedsnr" v="669253" />
	</node>
	<node id="-420324" lat="59.2590855442" lon="5.81700811763">
		<tag k="fixme" v="consider place=hamlet" />
		<tag k="name" v="Lund" />
		<tag k="place" v="farm" />
		<tag k="ssr:stedsnr" v="669250" />
	</node>
	<node id="-420319" lat="59.2384333305" lon="5.93467778214">
		<tag k="name" v="Sønningen" />
		<tag k="place" v="farm" />
		<tag k="ssr:stedsnr" v="666601" />
	</node>
	<node id="-419847" lat="59.252599997" lon="5.87112500568">
		<tag k="alt_name" v="Bjerga, austre;Bjerga" />
		<tag k="name" v="Austre Bjerga" />
		<tag k="place" v="farm" />
		<tag k="ssr:stedsnr" v="123715" />
	</node>
	<node id="-420345" lat="59.2709000033" lon="5.94802500106">
		<tag k="name" v="Norddal" />
		<tag k="place" v="farm" />
		<tag k="ssr:stedsnr" v="669597" />
	</node>
	<node id="-419998" lat="59.1467856479" lon="5.90924649902">
		<tag k="fixme" v="consider place=hamlet" />
		<tag k="name" v="Bø" />
		<tag k="place" v="farm" />
		<tag k="ssr:stedsnr" v="244607" />
	</node>
	<node id="-419777" lat="59.2732500035" lon="5.86247500034">
		<tag k="name" v="Dalen" />
		<tag k="place" v="farm" />
		<tag k="ssr:stedsnr" v="63611" />
	</node>
	<node id="-419775" lat="59.2636750025" lon="5.95505000442">
		<tag k="alt_name" v="Træ" />
		<tag k="name" v="Trædet" />
		<tag k="place" v="farm" />
		<tag k="ssr:stedsnr" v="63577" />
	</node>
	<node id="-420281" lat="59.2662000029" lon="5.83068610319">
		<tag k="alt_name" v="Nesstøl" />
		<tag k="name" v="Nesstølen" />
		<tag k="place" v="farm" />
		<tag k="ssr:stedsnr" v="645330" />
	</node>
	<node id="-419765" lat="59.1495127722" lon="5.92023832696">
		<tag k="fixme" v="consider place=hamlet" />
		<tag k="name" v="Trevland" />
		<tag k="place" v="farm" />
		<tag k="ssr:stedsnr" v="62563" />
	</node>
	<node id="-420276" lat="59.2885249979" lon="5.97692499287">
		<tag k="name" v="Låva" />
		<tag k="place" v="farm" />
		<tag k="ssr:stedsnr" v="609574" />
	</node>
	<node id="-420275" lat="59.2657899609" lon="6.02301469137">
		<tag k="fixme" v="consider place=hamlet" />
		<tag k="name" v="Nårstad" />
		<tag k="place" v="farm" />
		<tag k="ssr:stedsnr" v="609543" />
	</node>
	<node id="-420274" lat="59.2489263965" lon="5.8674222489">
		<tag k="fixme" v="consider place=hamlet" />
		<tag k="name" v="Skjelsnes" />
		<tag k="place" v="farm" />
		<tag k="ssr:stedsnr" v="608981" />
	</node>
	<node id="-420273" lat="59.2448130579" lon="5.93625131723">
		<tag k="alt_name" v="Håle" />
		<tag k="fixme" v="consider place=hamlet" />
		<tag k="name" v="Hole" />
		<tag k="place" v="farm" />
		<tag k="ssr:stedsnr" v="608980" />
	</node>
	<node id="-420271" lat="59.1774000004" lon="5.84578888546">
		<tag k="name" v="Harås" />
		<tag k="place" v="farm" />
		<tag k="ssr:stedsnr" v="608901" />
	</node>
	<node id="-420267" lat="59.2805500043" lon="5.97357500587">
		<tag k="name" v="Åsbø" />
		<tag k="place" v="farm" />
		<tag k="ssr:stedsnr" v="608638" />
	</node>
	<node id="-420167" lat="59.1542211336" lon="5.78394723405">
		<tag k="alt_name" v="Vignes, søre;Vignes;Søra Vignes" />
		<tag k="fixme" v="consider place=hamlet" />
		<tag k="name" v="Søre Vignes" />
		<tag k="place" v="farm" />
		<tag k="ssr:stedsnr" v="547305" />
	</node>
	<node id="-420264" lat="59.2682394701" lon="5.95076128608">
		<tag k="alt_name" v="Kylå" />
		<tag k="fixme" v="consider place=hamlet" />
		<tag k="name" v="Kyla" />
		<tag k="place" v="farm" />
		<tag k="ssr:stedsnr" v="608619" />
	</node>
	<node id="-420261" lat="59.1385192963" lon="5.93631138273">
		<tag k="fixme" v="consider place=hamlet" />
		<tag k="name" v="Selvåg" />
		<tag k="place" v="farm" />
		<tag k="ssr:stedsnr" v="608600" />
	</node>
	<node id="-420256" lat="59.1944507585" lon="5.8377897793">
		<tag k="alt_name" v="Mjølsnes, øvre" />
		<tag k="fixme" v="consider place=hamlet" />
		<tag k="name" v="Øvre Mjølsnes" />
		<tag k="place" v="farm" />
		<tag k="ssr:stedsnr" v="608296" />
	</node>
	<node id="-420254" lat="59.1461499955" lon="5.83374443916">
		<tag k="name" v="Reilstad" />
		<tag k="place" v="farm" />
		<tag k="ssr:stedsnr" v="608266" />
	</node>
	<node id="-420165" lat="59.1661753062" lon="5.78728460783">
		<tag k="alt_name" v="Vignes, nordre;Norda Vignes" />
		<tag k="fixme" v="consider place=hamlet" />
		<tag k="name" v="Nordre Vignes" />
		<tag k="place" v="farm" />
		<tag k="ssr:stedsnr" v="547297" />
	</node>
	<node id="-420252" lat="59.1512709488" lon="5.83935003453">
		<tag k="fixme" v="consider place=hamlet" />
		<tag k="name" v="Reilstad" />
		<tag k="place" v="farm" />
		<tag k="ssr:stedsnr" v="608259" />
	</node>
	<node id="-420133" lat="59.2660805568" lon="5.82432500837">
		<tag k="name" v="Raunen" />
		<tag k="place" v="farm" />
		<tag k="ssr:stedsnr" v="524321" />
	</node>
	<node id="-420247" lat="59.1562117786" lon="5.78893730309">
		<tag k="fixme" v="consider place=hamlet" />
		<tag k="name" v="Sævheim" />
		<tag k="place" v="farm" />
		<tag k="ssr:stedsnr" v="607269" />
	</node>
	<node id="-419728" lat="59.1853666699" lon="5.82458889194">
		<tag k="name" v="Stølen" />
		<tag k="place" v="farm" />
		<tag k="ssr:stedsnr" v="54159" />
	</node>
	<node id="-419725" lat="59.1506722522" lon="5.92654545822">
		<tag k="name" v="Egrå" />
		<tag k="place" v="locality" />
		<tag k="ssr:stedsnr" v="53655" />
	</node>
	<node id="-419723" lat="59.1444972263" lon="5.89948055249">
		<tag k="name" v="Stølane" />
		<tag k="place" v="farm" />
		<tag k="ssr:stedsnr" v="53638" />
	</node>
	<node id="-419720" lat="59.1578583299" lon="5.85491111614">
		<tag k="name" v="Svinhagen" />
		<tag k="place" v="isolated_dwelling" />
		<tag k="ssr:stedsnr" v="53612" />
	</node>
	<node id="-420227" lat="59.2842444403" lon="5.96176667383">
		<tag k="name" v="Haugen" />
		<tag k="place" v="farm" />
		<tag k="ssr:stedsnr" v="605467" />
	</node>
	<node id="-420226" lat="59.2574777775" lon="5.93994444269">
		<tag k="name" v="Søllberg" />
		<tag k="place" v="farm" />
		<tag k="ssr:stedsnr" v="605457" />
	</node>
	<node id="-420081" lat="59.2229888909" lon="5.83869444049">
		<tag k="name" v="Kvalen" />
		<tag k="place" v="farm" />
		<tag k="ssr:stedsnr" v="466313" />
	</node>
	<node id="-419707" lat="59.2444810666" lon="5.82474464225">
		<tag k="alt_name" v="Skude" />
		<tag k="name" v="Skute" />
		<tag k="place" v="farm" />
		<tag k="ssr:stedsnr" v="39262" />
	</node>
	<node id="-420217" lat="59.1615388871" lon="5.93894166716">
		<tag k="name" v="Nybø" />
		<tag k="place" v="farm" />
		<tag k="ssr:stedsnr" v="599610" />
	</node>
	<node id="-419703" lat="59.2341249988" lon="5.94519999312">
		<tag k="alt_name" v="Myrå" />
		<tag k="name" v="Myra" />
		<tag k="place" v="farm" />
		<tag k="ssr:stedsnr" v="2997" />
	</node>
	<node id="-420726" lat="59.2079881719" lon="5.94676889291">
		<tag k="name" v="Halsnesjøen" />
		<tag k="place" v="farm" />
		<tag k="ssr:stedsnr" v="484681" />
	</node>
	<node id="-420722" lat="59.1066962675" lon="5.85759999563">
		<tag k="name" v="Gongstø" />
		<tag k="place" v="farm" />
		<tag k="ssr:stedsnr" v="978683" />
	</node>
	<node id="-419697" lat="59.2883250035" lon="5.96730000343">
		<tag k="name" v="Golv" />
		<tag k="place" v="farm" />
		<tag k="ssr:stedsnr" v="2622" />
	</node>
	<node id="-420208" lat="59.1500111121" lon="5.8160944445">
		<tag k="name" v="Kjingestadtræ" />
		<tag k="place" v="farm" />
		<tag k="ssr:stedsnr" v="598509" />
	</node>
	<node id="-420719" lat="59.240810526" lon="5.88888419822">
		<tag k="fixme" v="consider place=hamlet" />
		<tag k="name" v="Nordre Hidle" />
		<tag k="place" v="farm" />
		<tag k="ssr:stedsnr" v="974423" />
	</node>
	<node id="-419694" lat="59.1129477248" lon="5.81656494694">
		<tag k="alt_name" v="Ystabø" />
		<tag k="fixme" v="consider place=hamlet" />
		<tag k="name" v="Østabø" />
		<tag k="place" v="farm" />
		<tag k="ssr:stedsnr" v="2341" />
	</node>
	<node id="-420201" lat="59.1451972205" lon="5.90055556313">
		<tag k="name" v="Kleiva" />
		<tag k="place" v="isolated_dwelling" />
		<tag k="ssr:stedsnr" v="587026" />
	</node>
	<node id="-420709" lat="59.2405749992" lon="5.95309445168">
		<tag k="name" v="Vodalen" />
		<tag k="place" v="farm" />
		<tag k="ssr:stedsnr" v="970223" />
	</node>
	<node id="-419681" lat="59.1717138935" lon="5.83700833639">
		<tag k="name" v="Kornbø" />
		<tag k="place" v="farm" />
		<tag k="ssr:stedsnr" v="1264" />
	</node>
	<node id="-420702" lat="59.1919333296" lon="5.84885278634">
		<tag k="name" v="Jammerdalen" />
		<tag k="place" v="farm" />
		<tag k="ssr:stedsnr" v="964827" />
	</node>
	<node id="-420185" lat="59.2689530798" lon="5.86070829241">
		<tag k="fixme" v="consider place=hamlet" />
		<tag k="name" v="Venja" />
		<tag k="place" v="farm" />
		<tag k="ssr:stedsnr" v="548597" />
	</node>
	<node id="-420184" lat="59.2820263393" lon="5.9610591655">
		<tag k="fixme" v="consider place=hamlet" />
		<tag k="name" v="Rørheim" />
		<tag k="place" v="farm" />
		<tag k="ssr:stedsnr" v="548593" />
	</node>
	<node id="-420068" lat="59.2316854513" lon="5.94457568581">
		<tag k="fixme" v="consider place=hamlet" />
		<tag k="name" v="Eide" />
		<tag k="place" v="farm" />
		<tag k="ssr:stedsnr" v="427999" />
	</node>
	<node id="-420182" lat="59.2610249993" lon="5.94437500688">
		<tag k="alt_name" v="Søllbergsmyra" />
		<tag k="name" v="Sølbergsmyra" />
		<tag k="place" v="farm" />
		<tag k="ssr:stedsnr" v="548569" />
	</node>
	<node id="-420174" lat="59.1908130529" lon="5.84636324051">
		<tag k="alt_name" v="Roda" />
		<tag k="fixme" v="consider place=hamlet" />
		<tag k="name" v="Rota" />
		<tag k="place" v="farm" />
		<tag k="ssr:stedsnr" v="547942" />
	</node>
	<node id="-420173" lat="59.149894445" lon="5.84594165852">
		<tag k="name" v="Relstad" />
		<tag k="place" v="farm" />
		<tag k="ssr:stedsnr" v="547654" />
	</node>
	<node id="-419656" lat="59.2962449138" lon="6.05114035227">
		<tag k="fixme" v="consider place=hamlet" />
		<tag k="name" v="Røykjanes" />
		<tag k="place" v="farm" />
		<tag k="ssr:stedsnr" v="1072020" />
	</node>
	<node id="-419655" lat="59.2302034502" lon="5.84635206837">
		<tag k="fixme" v="consider place=hamlet" />
		<tag k="name" v="Helgøy" />
		<tag k="place" v="farm" />
		<tag k="ssr:stedsnr" v="1072019" />
	</node>
	<node id="-419654" lat="59.2545343436" lon="5.86627858511">
		<tag k="name" v="Bjerga" />
		<tag k="place" v="hamlet" />
		<tag k="ssr:stedsnr" v="1072017" />
	</node>
	<node id="-419653" lat="59.1705599192" lon="5.82394903246">
		<tag k="fixme" v="consider place=hamlet" />
		<tag k="name" v="Finnøy prestegard" />
		<tag k="place" v="farm" />
		<tag k="ssr:stedsnr" v="1072015" />
	</node>
	<node id="-420673" lat="59.2409750035" lon="5.93457221993">
		<tag k="name" v="Vollaberg" />
		<tag k="place" v="farm" />
		<tag k="ssr:stedsnr" v="949678" />
	</node>
	<node id="-420147" lat="59.194028451" lon="5.95858289206">
		<tag k="fixme" v="consider place=hamlet" />
		<tag k="name" v="Øvre Eike" />
		<tag k="place" v="farm" />
		<tag k="ssr:stedsnr" v="539258" />
	</node>
	<node id="-420668" lat="59.2682999996" lon="6.0051499961">
		<tag k="name" v="Vasshus" />
		<tag k="place" v="farm" />
		<tag k="ssr:stedsnr" v="913536" />
	</node>
	<node id="-419641" lat="59.1580833291" lon="5.98330833216">
		<tag k="name" v="Sundet" />
		<tag k="place" v="farm" />
		<tag k="ssr:stedsnr" v="54266" />
	</node>
	<node id="-419640" lat="59.1623055542" lon="5.96695834046">
		<tag k="name" v="Storeflåt" />
		<tag k="place" v="farm" />
		<tag k="ssr:stedsnr" v="963283" />
	</node>
	<node id="-420663" lat="59.1845249991" lon="5.96836665876">
		<tag k="name" v="Eike" />
		<tag k="place" v="farm" />
		<tag k="ssr:stedsnr" v="912881" />
	</node>
	<node id="-420659" lat="59.2802277778" lon="5.95491388774">
		<tag k="alt_name" v="Jørstad, nedre" />
		<tag k="name" v="Nedre Jørstad" />
		<tag k="place" v="farm" />
		<tag k="ssr:stedsnr" v="912625" />
	</node>
	<node id="-420658" lat="59.285948253" lon="6.03413200038">
		<tag k="fixme" v="consider place=hamlet" />
		<tag k="name" v="Bandaberg" />
		<tag k="place" v="farm" />
		<tag k="ssr:stedsnr" v="912623" />
	</node>
	<node id="-420657" lat="59.2760505045" lon="5.98110403827">
		<tag k="fixme" v="consider place=hamlet" />
		<tag k="name" v="Bjerga" />
		<tag k="place" v="farm" />
		<tag k="ssr:stedsnr" v="912609" />
	</node>
	<node id="-420656" lat="59.1091537051" lon="5.82431417553">
		<tag k="fixme" v="consider place=hamlet" />
		<tag k="name" v="Meling" />
		<tag k="place" v="farm" />
		<tag k="ssr:stedsnr" v="912345" />
	</node>
	<node id="-419629" lat="59.1828027783" lon="5.96694444132">
		<tag k="name" v="Bøen" />
		<tag k="place" v="farm" />
		<tag k="ssr:stedsnr" v="891251" />
	</node>
	<node id="-420137" lat="59.2337499984" lon="5.8925027718">
		<tag k="name" v="Hidlesjøen" />
		<tag k="place" v="farm" />
		<tag k="ssr:stedsnr" v="524691" />
	</node>
	<node id="-420136" lat="59.2276644007" lon="5.97019932946">
		<tag k="name" v="Ramsdal" />
		<tag k="place" v="farm" />
		<tag k="ssr:stedsnr" v="524669" />
	</node>
	<node id="-420645" lat="59.1040805586" lon="5.84003611539">
		<tag k="name" v="Øygarden" />
		<tag k="place" v="farm" />
		<tag k="ssr:stedsnr" v="911350" />
	</node>
	<node id="-420641" lat="59.1657151525" lon="5.82259196914">
		<tag k="alt_name" v="Flesjå" />
		<tag k="fixme" v="consider place=hamlet" />
		<tag k="name" v="Flesjo" />
		<tag k="place" v="farm" />
		<tag k="ssr:stedsnr" v="911280" />
	</node>
	<node id="-420127" lat="59.2888909373" lon="6.0075047849">
		<tag k="fixme" v="consider place=hamlet" />
		<tag k="name" v="Bergaland" />
		<tag k="place" v="farm" />
		<tag k="ssr:stedsnr" v="488595" />
	</node>
	<node id="-420125" lat="59.238188885" lon="5.94146944798">
		<tag k="name" v="Holekro" />
		<tag k="place" v="farm" />
		<tag k="ssr:stedsnr" v="488000" />
	</node>
	<node id="-420124" lat="59.2344154388" lon="5.97994561906">
		<tag k="fixme" v="consider place=hamlet" />
		<tag k="name" v="Atlatveit" />
		<tag k="place" v="farm" />
		<tag k="ssr:stedsnr" v="487997" />
	</node>
	<node id="-420123" lat="59.2356793617" lon="5.88459864234">
		<tag k="name" v="Hidle" />
		<tag k="place" v="hamlet" />
		<tag k="ssr:stedsnr" v="487992" />
	</node>
	<node id="-420632" lat="59.2588222225" lon="5.83333610875">
		<tag k="name" v="Norheimsbøen" />
		<tag k="place" v="farm" />
		<tag k="ssr:stedsnr" v="909492" />
	</node>
	<node id="-419549" lat="59.1289089735" lon="5.90450574743">
		<tag k="fixme" v="consider place=hamlet" />
		<tag k="name" v="Nedre Eide" />
		<tag k="place" v="farm" />
		<tag k="ssr:stedsnr" v="357282" />
	</node>
	<node id="-420265" lat="59.2692000034" lon="5.88154999644">
		<tag k="name" v="Nygård" />
		<tag k="place" v="farm" />
		<tag k="ssr:stedsnr" v="608624" />
	</node>
	<node id="-419599" lat="59.2363305547" lon="5.9391638909">
		<tag k="name" v="Tingvik" />
		<tag k="place" v="farm" />
		<tag k="ssr:stedsnr" v="403686" />
	</node>
	<node id="-419595" lat="59.168424794" lon="5.87379900287">
		<tag k="fixme" v="consider place=hamlet" />
		<tag k="name" v="Få" />
		<tag k="place" v="farm" />
		<tag k="ssr:stedsnr" v="366878" />
	</node>
	<node id="-419593" lat="59.2760250037" lon="5.87042499566">
		<tag k="alt_name" v="Venja" />
		<tag k="name" v="Venjaneset" />
		<tag k="place" v="farm" />
		<tag k="ssr:stedsnr" v="366620" />
	</node>
	<node id="-420615" lat="59.1220250035" lon="5.89352500548">
		<tag k="name" v="Dal" />
		<tag k="place" v="farm" />
		<tag k="ssr:stedsnr" v="903328" />
	</node>
	<node id="-420614" lat="59.1399611069" lon="5.91876389123">
		<tag k="name" v="Høgaste" />
		<tag k="place" v="farm" />
		<tag k="ssr:stedsnr" v="903326" />
	</node>
	<node id="-419589" lat="59.2748102165" lon="5.96445599921">
		<tag k="fixme" v="consider place=hamlet" />
		<tag k="name" v="Hetletveit" />
		<tag k="place" v="farm" />
		<tag k="ssr:stedsnr" v="366591" />
	</node>
	<node id="-419588" lat="59.1222793273" lon="5.89505270787">
		<tag k="fixme" v="consider place=hamlet" />
		<tag k="name" v="Hovda" />
		<tag k="place" v="farm" />
		<tag k="ssr:stedsnr" v="366565" />
	</node>
	<node id="-420609" lat="59.1912888926" lon="5.81142777415">
		<tag k="name" v="Hopen" />
		<tag k="place" v="farm" />
		<tag k="ssr:stedsnr" v="903214" />
	</node>
	<node id="-419580" lat="59.1464085878" lon="5.91690346426">
		<tag k="alt_name" v="Varland" />
		<tag k="fixme" v="consider place=hamlet" />
		<tag k="name" v="Vardland" />
		<tag k="place" v="farm" />
		<tag k="ssr:stedsnr" v="365565" />
	</node>
	<node id="-419577" lat="59.2451551229" lon="5.81093110967">
		<tag k="alt_name" v="Tandravollen" />
		<tag k="fixme" v="consider place=hamlet" />
		<tag k="name" v="Tandravoll" />
		<tag k="place" v="farm" />
		<tag k="ssr:stedsnr" v="365481" />
	</node>
	<node id="-420600" lat="59.169159757" lon="5.94591451938">
		<tag k="alt_name" v="Indre Bokn" />
		<tag k="fixme" v="consider place=hamlet" />
		<tag k="name" v="Indrebokn" />
		<tag k="place" v="farm" />
		<tag k="ssr:stedsnr" v="852592" />
	</node>
	<node id="-420598" lat="59.2925750038" lon="6.03177500012">
		<tag k="alt_name" v="Bandura" />
		<tag k="name" v="Bandurda" />
		<tag k="place" v="farm" />
		<tag k="ssr:stedsnr" v="852591" />
	</node>
	<node id="-420597" lat="59.2904249983" lon="6.03295000612">
		<tag k="alt_name" v="Hidleren" />
		<tag k="name" v="Hilleren" />
		<tag k="place" v="farm" />
		<tag k="ssr:stedsnr" v="852590" />
	</node>
	<node id="-419572" lat="59.2595944486" lon="5.81013333322">
		<tag k="alt_name" v="Hauabøen" />
		<tag k="name" v="Haugabøen" />
		<tag k="place" v="farm" />
		<tag k="ssr:stedsnr" v="363695" />
	</node>
	<node id="-419571" lat="59.259844447" lon="5.8122694444">
		<tag k="fixme" v="consider place=hamlet" />
		<tag k="name" v="Hauge" />
		<tag k="place" v="farm" />
		<tag k="ssr:stedsnr" v="363694" />
	</node>
	<node id="-420594" lat="59.2579181018" lon="5.85171825529">
		<tag k="alt_name" v="Furre;Fåra" />
		<tag k="fixme" v="consider place=hamlet" />
		<tag k="name" v="Fura" />
		<tag k="place" v="farm" />
		<tag k="ssr:stedsnr" v="852572" />
	</node>
	<node id="-420593" lat="59.2704276059" lon="5.95599345909">
		<tag k="fixme" v="consider place=hamlet" />
		<tag k="name" v="Kalheim" />
		<tag k="place" v="farm" />
		<tag k="ssr:stedsnr" v="852567" />
	</node>
	<node id="-420590" lat="59.1057958445" lon="5.84620585148">
		<tag k="alt_name" v="Gard;Garå" />
		<tag k="fixme" v="consider place=hamlet" />
		<tag k="name" v="Garda" />
		<tag k="place" v="farm" />
		<tag k="ssr:stedsnr" v="852509" />
	</node>
	<node id="-419564" lat="59.2390138891" lon="5.89361944957">
		<tag k="name" v="Stykkjet" />
		<tag k="place" v="farm" />
		<tag k="ssr:stedsnr" v="363537" />
	</node>
	<node id="-419557" lat="59.1460555515" lon="5.93927499375">
		<tag k="name" v="Storevik" />
		<tag k="place" v="farm" />
		<tag k="ssr:stedsnr" v="357605" />
	</node>
	<node id="-420580" lat="59.1348820664" lon="5.93706931603">
		<tag k="name" v="Søravåg" />
		<tag k="place" v="farm" />
		<tag k="ssr:stedsnr" v="851535" />
	</node>
	<node id="-420573" lat="59.1906589314" lon="5.81599673759">
		<tag k="alt_name" v="Landa, nedre;Landa" />
		<tag k="fixme" v="consider place=hamlet" />
		<tag k="name" v="Nedre Landa" />
		<tag k="place" v="farm" />
		<tag k="ssr:stedsnr" v="851289" />
	</node>
	<node id="-420572" lat="59.1864462854" lon="5.82200175098">
		<tag k="alt_name" v="Landa, øvre;Øvre Landa" />
		<tag k="fixme" v="consider place=hamlet" />
		<tag k="name" v="Landa" />
		<tag k="place" v="farm" />
		<tag k="ssr:stedsnr" v="851288" />
	</node>
	<node id="-419545" lat="59.1845525507" lon="5.81373786985">
		<tag k="fixme" v="consider place=hamlet" />
		<tag k="name" v="Nordbø" />
		<tag k="place" v="farm" />
		<tag k="ssr:stedsnr" v="357150" />
	</node>
	<node id="-419544" lat="59.1716694481" lon="5.82486388327">
		<tag k="name" v="Lunden" />
		<tag k="place" v="farm" />
		<tag k="ssr:stedsnr" v="357136" />
	</node>
	<node id="-420055" lat="59.1915488486" lon="5.9683362269">
		<tag k="alt_name" v="Nedre Eike" />
		<tag k="fixme" v="consider place=hamlet" />
		<tag k="name" v="Eike" />
		<tag k="place" v="farm" />
		<tag k="ssr:stedsnr" v="426929" />
	</node>
	<node id="-420053" lat="59.1546879269" lon="5.84725813585">
		<tag k="fixme" v="consider place=hamlet" />
		<tag k="name" v="Nærland" />
		<tag k="place" v="farm" />
		<tag k="ssr:stedsnr" v="426603" />
	</node>
	<node id="-420560" lat="59.2337527755" lon="5.89486944679">
		<tag k="name" v="Strandvika" />
		<tag k="place" v="farm" />
		<tag k="ssr:stedsnr" v="849625" />
	</node>
	<node id="-420046" lat="59.1544249976" lon="5.8389444529">
		<tag k="name" v="Nerland" />
		<tag k="place" v="farm" />
		<tag k="ssr:stedsnr" v="426264" />
	</node>
	<node id="-420556" lat="59.2659472209" lon="6.0203361183">
		<tag k="name" v="Lindal" />
		<tag k="place" v="farm" />
		<tag k="ssr:stedsnr" v="849461" />
	</node>
	<node id="-420215" lat="59.1893000039" lon="5.94395278024">
		<tag k="name" v="Raudberg" />
		<tag k="place" v="farm" />
		<tag k="ssr:stedsnr" v="599307" />
	</node>
	<node id="-419532" lat="59.264097223" lon="5.87941388283">
		<tag k="name" v="Skallnes" />
		<tag k="place" v="farm" />
		<tag k="ssr:stedsnr" v="342579" />
	</node>
	<node id="-420550" lat="59.2434083342" lon="5.80826111966">
		<tag k="name" v="Ytrebøen" />
		<tag k="place" v="farm" />
		<tag k="ssr:stedsnr" v="849561" />
	</node>
	<node id="-419524" lat="59.1780684677" lon="5.87523881911">
		<tag k="fixme" v="consider place=hamlet" />
		<tag k="name" v="Hauskje" />
		<tag k="place" v="farm" />
		<tag k="ssr:stedsnr" v="305881" />
	</node>
	<node id="-419523" lat="59.1836725367" lon="5.86975228514">
		<tag k="fixme" v="consider place=hamlet" />
		<tag k="name" v="Lausnes" />
		<tag k="place" v="farm" />
		<tag k="ssr:stedsnr" v="305876" />
	</node>
	<node id="-419520" lat="59.2806954509" lon="6.02214568492">
		<tag k="fixme" v="consider place=hamlet" />
		<tag k="name" v="Kalltveit" />
		<tag k="place" v="farm" />
		<tag k="ssr:stedsnr" v="305646" />
	</node>
	<node id="-419519" lat="59.2616749984" lon="5.86675000113">
		<tag k="name" v="Djupemyr" />
		<tag k="place" v="farm" />
		<tag k="ssr:stedsnr" v="305639" />
	</node>
	<node id="-420540" lat="59.1243472231" lon="5.90798334127">
		<tag k="name" v="Haugen" />
		<tag k="place" v="farm" />
		<tag k="ssr:stedsnr" v="843316" />
	</node>
	<node id="-419515" lat="59.2630000039" lon="5.92792500624">
		<tag k="alt_name" v="Liå" />
		<tag k="name" v="Lia" />
		<tag k="place" v="farm" />
		<tag k="ssr:stedsnr" v="305621" />
	</node>
	<node id="-419514" lat="59.2570648884" lon="5.87887262395">
		<tag k="fixme" v="consider place=hamlet" />
		<tag k="name" v="Kvelland" />
		<tag k="place" v="farm" />
		<tag k="ssr:stedsnr" v="305622" />
	</node>
	<node id="-420537" lat="59.1840249974" lon="5.81639722552">
		<tag k="name" v="Ramsen" />
		<tag k="place" v="farm" />
		<tag k="ssr:stedsnr" v="843160" />
	</node>
	<node id="-420530" lat="59.1449583318" lon="5.80984722071">
		<tag k="name" v="Lasteintræ" />
		<tag k="place" v="farm" />
		<tag k="ssr:stedsnr" v="842525" />
	</node>
	<node id="-419504" lat="59.2241962358" lon="5.82894951109">
		<tag k="fixme" v="consider place=hamlet" />
		<tag k="name" v="Talgje" />
		<tag k="place" v="farm" />
		<tag k="ssr:stedsnr" v="305297" />
	</node>
	<node id="-419503" lat="59.151315658" lon="5.81405859502">
		<tag k="fixme" v="consider place=hamlet" />
		<tag k="name" v="Kindingstad" />
		<tag k="place" v="farm" />
		<tag k="ssr:stedsnr" v="305277" />
	</node>
	<node id="-420014" lat="59.277349996" lon="5.95592500095">
		<tag k="alt_name" v="Jørstad, øvre" />
		<tag k="name" v="Øvre Jørstad" />
		<tag k="place" v="farm" />
		<tag k="ssr:stedsnr" v="245575" />
	</node>
	<node id="-419501" lat="59.2292098912" lon="5.97450691947">
		<tag k="name" v="Atlatveitsjøen" />
		<tag k="place" v="farm" />
		<tag k="ssr:stedsnr" v="304945" />
	</node>
	<node id="-420012" lat="59.2518272124" lon="5.84621019149">
		<tag k="alt_name" v="Audbø" />
		<tag k="fixme" v="consider place=hamlet" />
		<tag k="name" v="Aubø" />
		<tag k="place" v="farm" />
		<tag k="ssr:stedsnr" v="245550" />
	</node>
	<node id="-419527" lat="59.1855365523" lon="5.85268736774">
		<tag k="fixme" v="consider place=hamlet" />
		<tag k="name" v="Spanne" />
		<tag k="place" v="farm" />
		<tag k="ssr:stedsnr" v="305927" />
	</node>
	<node id="-420005" lat="59.1720319797" lon="5.86882225317">
		<tag k="fixme" v="consider place=hamlet" />
		<tag k="name" v="Haga" />
		<tag k="place" v="farm" />
		<tag k="ssr:stedsnr" v="244901" />
	</node>
	<node id="-420001" lat="59.1638169167" lon="5.84371320339">
		<tag k="alt_name" v="Kvamme" />
		<tag k="fixme" v="consider place=hamlet" />
		<tag k="name" v="Kvame" />
		<tag k="place" v="farm" />
		<tag k="ssr:stedsnr" v="244658" />
	</node>
	<node id="-420512" lat="59.2745423212" lon="5.87435226579">
		<tag k="alt_name" v="Habn" />
		<tag k="name" v="Hamn" />
		<tag k="place" v="farm" />
		<tag k="ssr:stedsnr" v="791604" />
	</node>
	<node id="-420510" lat="59.2697304901" lon="6.01030377754">
		<tag k="fixme" v="consider place=hamlet" />
		<tag k="name" v="Vatland" />
		<tag k="place" v="farm" />
		<tag k="ssr:stedsnr" v="791566" />
	</node>
	<node id="-419992" lat="59.2426944426" lon="5.8308277717">
		<tag k="fixme" v="consider place=hamlet" />
		<tag k="name" v="Tjul" />
		<tag k="place" v="farm" />
		<tag k="ssr:stedsnr" v="244474" />
	</node>
	<node id="-420503" lat="59.2050786818" lon="5.93644594085">
		<tag k="fixme" v="consider place=hamlet" />
		<tag k="name" v="Halsne" />
		<tag k="place" v="farm" />
		<tag k="ssr:stedsnr" v="790960" />
	</node>
	<node id="-420718" lat="59.2368076434" lon="5.89406418812">
		<tag k="fixme" v="consider place=hamlet" />
		<tag k="name" v="Søre Hidle" />
		<tag k="place" v="farm" />
		<tag k="ssr:stedsnr" v="974422" />
	</node>
	<node id="-420495" lat="59.1358133872" lon="5.92062512544">
		<tag k="alt_name" v="Ærås" />
		<tag k="fixme" v="consider place=hamlet" />
		<tag k="name" v="Erås" />
		<tag k="place" v="farm" />
		<tag k="ssr:stedsnr" v="790570" />
	</node>
	<node id="-420494" lat="59.1244809433" lon="5.90811411795">
		<tag k="alt_name" v="Øvre Eide" />
		<tag k="fixme" v="consider place=hamlet" />
		<tag k="name" v="Eide" />
		<tag k="place" v="farm" />
		<tag k="ssr:stedsnr" v="790568" />
	</node>
	<node id="-419980" lat="59.2262055595" lon="5.84316667308">
		<tag k="name" v="Myrå" />
		<tag k="place" v="farm" />
		<tag k="ssr:stedsnr" v="242569" />
	</node>
	<node id="-419979" lat="59.2238472194" lon="5.83703610806">
		<tag k="name" v="Vigjå" />
		<tag k="place" v="farm" />
		<tag k="ssr:stedsnr" v="242566" />
	</node>
	<node id="-419975" lat="59.2524527758" lon="5.86523333523">
		<tag k="name" v="Tverrdal" />
		<tag k="place" v="farm" />
		<tag k="ssr:stedsnr" v="242464" />
	</node>
	<node id="-419974" lat="59.2561638887" lon="5.88136944928">
		<tag k="name" v="Kvedlandsvik" />
		<tag k="place" v="farm" />
		<tag k="ssr:stedsnr" v="242458" />
	</node>
	<node id="-419461" lat="59.1735944447" lon="5.87091944964">
		<tag k="name" v="Rygjabø" />
		<tag k="place" v="farm" />
		<tag k="ssr:stedsnr" v="284066" />
	</node>
	<node id="-420118" lat="59.2834984052" lon="6.04908884278">
		<tag k="fixme" v="consider place=hamlet" />
		<tag k="name" v="Seltveit" />
		<tag k="place" v="farm" />
		<tag k="ssr:stedsnr" v="487645" />
	</node>
	<node id="-419967" lat="59.2664472195" lon="5.95352221473">
		<tag k="name" v="Lamhagen" />
		<tag k="place" v="farm" />
		<tag k="ssr:stedsnr" v="242391" />
	</node>
	<node id="-420477" lat="59.173671207" lon="5.81787404035">
		<tag k="fixme" v="consider place=hamlet" />
		<tag k="name" v="Hesby" />
		<tag k="place" v="farm" />
		<tag k="ssr:stedsnr" v="790228" />
	</node>
	<node id="-420476" lat="59.1676323053" lon="5.83013948514">
		<tag k="name" v="Falkeid" />
		<tag k="place" v="farm" />
		<tag k="ssr:stedsnr" v="790226" />
	</node>
	<node id="-419906" lat="59.161405553" lon="5.85063888934">
		<tag k="fixme" v="consider place=hamlet" />
		<tag k="name" v="Nådå" />
		<tag k="place" v="farm" />
		<tag k="ssr:stedsnr" v="183611" />
	</node>
	<node id="-420464" lat="59.2789111157" lon="6.019397229">
		<tag k="name" v="Kalltveitbøen" />
		<tag k="place" v="farm" />
		<tag k="ssr:stedsnr" v="788452" />
	</node>
	<node id="-419949" lat="59.2665999981" lon="5.86479165994">
		<tag k="name" v="Venja" />
		<tag k="place" v="farm" />
		<tag k="ssr:stedsnr" v="268999" />
	</node>
	<node id="-419856" lat="59.2887249996" lon="5.9901000021">
		<tag k="name" v="Hagen" />
		<tag k="place" v="farm" />
		<tag k="ssr:stedsnr" v="124547" />
	</node>
	<node id="-420444" lat="59.1332527778" lon="5.92349167171">
		<tag k="name" v="Kalhagen" />
		<tag k="place" v="farm" />
		<tag k="ssr:stedsnr" v="781309" />
	</node>
	<node id="-419928" lat="59.2907750001" lon="6.0114999968">
		<tag k="name" v="Alveskjer" />
		<tag k="place" v="farm" />
		<tag k="ssr:stedsnr" v="185551" />
	</node>
	<node id="-419927" lat="59.2868724225" lon="5.98182396407">
		<tag k="fixme" v="consider place=hamlet" />
		<tag k="name" v="Nodland" />
		<tag k="place" v="farm" />
		<tag k="ssr:stedsnr" v="185559" />
	</node>
	<node id="-419917" lat="59.2502757605" lon="5.93674163262">
		<tag k="fixme" v="consider place=hamlet" />
		<tag k="name" v="Løland" />
		<tag k="place" v="farm" />
		<tag k="ssr:stedsnr" v="184683" />
	</node>
	<node id="-420424" lat="59.1720416674" lon="5.8761722284">
		<tag k="name" v="Judaberg" />
		<tag k="place" v="village" />
		<tag k="ssr:stedsnr" v="730902" />
	</node>
	<node id="-419908" lat="59.2011548963" lon="5.95171405274">
		<tag k="alt_name" v="Skartveit" />
		<tag k="fixme" v="consider place=hamlet" />
		<tag k="name" v="Skardtveit" />
		<tag k="place" v="farm" />
		<tag k="ssr:stedsnr" v="183909" />
	</node>
	<node id="-420419" lat="59.2832750037" lon="5.95492500749">
		<tag k="fixme" v="consider place=hamlet" />
		<tag k="name" v="Jørstadvågen" />
		<tag k="place" v="village" />
		<tag k="ssr:stedsnr" v="730655" />
	</node>
	<node id="-420418" lat="59.2645140587" lon="5.8816261336">
		<tag k="fixme" v="consider place=hamlet" />
		<tag k="name" v="Nesheim" />
		<tag k="place" v="farm" />
		<tag k="ssr:stedsnr" v="730615" />
	</node>
	<node id="-420417" lat="59.2558500007" lon="5.86232500617">
		<tag k="alt_name" v="Bjerga, vestre" />
		<tag k="name" v="Vestre Bjerga" />
		<tag k="place" v="farm" />
		<tag k="ssr:stedsnr" v="730616" />
	</node>
	<node id="-420416" lat="59.1415490409" lon="5.91424849397">
		<tag k="alt_name" v="Longaland" />
		<tag k="fixme" v="consider place=hamlet" />
		<tag k="name" v="Langaland" />
		<tag k="place" v="farm" />
		<tag k="ssr:stedsnr" v="730606" />
	</node>
	<node id="-419902" lat="59.1443209245" lon="5.91078935177">
		<tag k="fixme" v="consider place=hamlet" />
		<tag k="name" v="Oppsal" />
		<tag k="place" v="farm" />
		<tag k="ssr:stedsnr" v="183532" />
	</node>
	<node id="-420410" lat="59.1811409995" lon="5.8135445787">
		<tag k="fixme" v="consider place=hamlet" />
		<tag k="name" v="Vestbø" />
		<tag k="place" v="farm" />
		<tag k="ssr:stedsnr" v="730298" />
	</node>
	<node id="-420036" lat="59.1902499978" lon="5.85354444765">
		<tag k="name" v="Haredalen" />
		<tag k="place" v="farm" />
		<tag k="ssr:stedsnr" v="418841" />
	</node>
	<node id="-420408" lat="59.1624427206" lon="5.94213367011">
		<tag k="alt_name" v="Ytre Bokn" />
		<tag k="fixme" v="consider place=hamlet" />
		<tag k="name" v="Bokn" />
		<tag k="place" v="farm" />
		<tag k="ssr:stedsnr" v="729633" />
	</node>
	<node id="-420404" lat="59.1438568139" lon="5.81269436423">
		<tag k="alt_name" v="Lastein, indre;Lastein" />
		<tag k="fixme" v="consider place=hamlet" />
		<tag k="name" v="Indre Lastein" />
		<tag k="place" v="farm" />
		<tag k="ssr:stedsnr" v="729303" />
	</node>
	<node id="-420403" lat="59.1482041378" lon="5.82412293261">
		<tag k="fixme" v="consider place=hamlet" />
		<tag k="name" v="Berge" />
		<tag k="place" v="farm" />
		<tag k="ssr:stedsnr" v="729294" />
	</node>
	<node id="-420401" lat="59.16402639" lon="5.80772191061">
		<tag k="fixme" v="consider place=hamlet" />
		<tag k="name" v="Steinnes" />
		<tag k="place" v="farm" />
		<tag k="ssr:stedsnr" v="729289" />
	</node>
	<node id="-420400" lat="59.276051995" lon="5.87059067862">
		<tag k="name" v="Austbø" />
		<tag k="place" v="farm" />
		<tag k="ssr:stedsnr" v="727745" />
	</node>
	<node id="-419591" lat="59.2692000018" lon="5.85300000271">
		<tag k="alt_name" v="Kallhagen" />
		<tag k="name" v="Kalvhagen" />
		<tag k="place" v="farm" />
		<tag k="ssr:stedsnr" v="366611" />
	</node>
	<node id="-419873" lat="59.1798138934" lon="5.81218334085">
		<tag k="name" v="Brekke" />
		<tag k="place" v="farm" />
		<tag k="ssr:stedsnr" v="175148" />
	</node>
	<node id="-420382" lat="59.1474861079" lon="5.83704167414">
		<tag k="fixme" v="consider place=suburb, village or hamlet" />
		<tag k="name" v="Reilstad" />
		<tag k="place" v="quarter" />
		<tag k="ssr:stedsnr" v="721574" />
	</node>
	<node id="-420015" lat="59.2799578046" lon="5.95575043935">
		<tag k="fixme" v="consider place=hamlet" />
		<tag k="name" v="Jørstad" />
		<tag k="place" v="farm" />
		<tag k="ssr:stedsnr" v="263963" />
	</node>
	<node id="-420375" lat="59.1282742695" lon="5.93276375024">
		<tag k="name" v="Vareneset" />
		<tag k="place" v="farm" />
		<tag k="ssr:stedsnr" v="721292" />
	</node>
	<node id="-420485" lat="59.1799361126" lon="5.81638056193">
		<tag k="alt_name" v="Vettå" />
		<tag k="name" v="Vestbøhagen" />
		<tag k="place" v="farm" />
		<tag k="ssr:stedsnr" v="790289" />
	</node>
	<node id="-420368" lat="59.1482916638" lon="5.78061943936">
		<tag k="name" v="Sønstø" />
		<tag k="place" v="locality" />
		<tag k="ssr:stedsnr" v="720561" />
	</node>
	<node id="-420366" lat="59.1357672093" lon="5.90740888146">
		<tag k="name" v="Rossmorkjå" />
		<tag k="place" v="farm" />
		<tag k="ssr:stedsnr" v="721325" />
	</node>
	<node id="-420365" lat="59.1384766515" lon="5.9025086109">
		<tag k="amenity" v="school" />
		<tag k="name" v="Fogn skole" />
		<tag k="ssr:stedsnr" v="721309" />
	</node>
	<node id="-419500" lat="59.1618648094" lon="5.9731125008">
		<tag k="fixme" v="consider place=hamlet" />
		<tag k="name" v="Byre" />
		<tag k="place" v="farm" />
		<tag k="ssr:stedsnr" v="304610" />
	</node>
	<node id="-419841" lat="59.1978844057" lon="5.82870967663">
		<tag k="alt_name" v="Mjølsnes, nedre;Mjølsnes" />
		<tag k="fixme" v="consider place=hamlet" />
		<tag k="name" v="Nedre Mjølsnes" />
		<tag k="place" v="farm" />
		<tag k="ssr:stedsnr" v="123321" />
	</node>
	<node id="-419843" lat="59.1305341261" lon="5.92810935392">
		<tag k="fixme" v="consider place=hamlet" />
		<tag k="name" v="Runastad" />
		<tag k="place" v="farm" />
		<tag k="ssr:stedsnr" v="123581" />
	</node>
	<node id="-420353" lat="59.2270555565" lon="5.84632500242">
		<tag k="alt_name" v="Nestun" />
		<tag k="name" v="Nedsttun" />
		<tag k="place" v="farm" />
		<tag k="ssr:stedsnr" v="669986" />
	</node>
</osm>
