<?xml version="1.0" encoding="UTF-8"?>
<osm generator="osmapis" version="0.6">
	<node id="-200180" lat="59.2437749994" lon="10.2753888897">
		<tag k="name" v="Borgebekken" />
		<tag k="ssr:stedsnr" v="912304" />
		<tag k="waterway" v="stream" />
	</node>
	<node id="-199667" lat="59.2807014755" lon="10.0946541015">
		<tag k="name" v="Nordre Skarsholttjønn" />
		<tag k="natural" v="water" />
		<tag k="ssr:stedsnr" v="694809" />
	</node>
	<node id="-199154" lat="59.3619194472" lon="10.0400055501">
		<tag k="name" v="Svartvannet" />
		<tag k="natural" v="water" />
		<tag k="ssr:stedsnr" v="487218" />
	</node>
	<node id="-198129" lat="59.3172249982" lon="10.0457638822">
		<tag k="name" v="Sagbekken" />
		<tag k="ssr:stedsnr" v="391206" />
		<tag k="waterway" v="stream" />
	</node>
	<node id="-198640" lat="59.2871500039" lon="10.0337750006">
		<tag k="name" v="Bjønnevann" />
		<tag k="natural" v="water" />
		<tag k="ssr:stedsnr" v="124825" />
	</node>
	<node id="-199658" lat="59.1943972187" lon="10.1196111068">
		<tag k="name" v="Trollsåsbukta" />
		<tag k="natural" v="bay" />
		<tag k="ssr:stedsnr" v="694780" />
	</node>
	<node id="-198119" lat="59.2869861149" lon="10.1534083409">
		<tag k="name" v="Moafossane" />
		<tag k="natural" v="waterfall" />
		<tag k="ssr:stedsnr" v="390770" />
	</node>
	<node id="-198619" lat="59.0712138898" lon="10.2582250022">
		<tag k="name" v="Vøra" />
		<tag k="natural" v="beach" />
		<tag k="ssr:stedsnr" v="123158" />
	</node>
	<node id="-198562" lat="59.1791638896" lon="10.1401611161">
		<tag k="name" v="Matskapet" />
		<tag k="natural" v="cape" />
		<tag k="ssr:stedsnr" v="88737" />
	</node>
	<node id="-199619" lat="59.2589388904" lon="10.0362333342">
		<tag k="name" v="Svartåa" />
		<tag k="ssr:stedsnr" v="669932" />
		<tag k="waterway" v="stream" />
	</node>
	<node id="-199105" lat="59.1147055552" lon="10.2026194505">
		<tag k="name" v="Virikbekken" />
		<tag k="ssr:stedsnr" v="453582" />
		<tag k="waterway" v="stream" />
	</node>
	<node id="-198078" lat="59.3323944438" lon="10.132399997">
		<tag k="alt_name" v="Molandsvannet" />
		<tag k="name" v="Molandvannet" />
		<tag k="natural" v="water" />
		<tag k="ssr:stedsnr" v="366792" />
	</node>
	<node id="-199612" lat="59.3778611132" lon="10.0467583247">
		<tag k="name" v="Blokkvann" />
		<tag k="natural" v="water" />
		<tag k="ssr:stedsnr" v="669175" />
	</node>
	<node id="-198586" lat="59.2825972208" lon="10.2407527831">
		<tag k="name" v="Liadammen" />
		<tag k="natural" v="water" />
		<tag k="ssr:stedsnr" v="89449" />
		<tag k="water" v="lake" />
	</node>
	<node id="-200265" lat="59.3036777788" lon="10.0305916754">
		<tag k="name" v="Bjørkedalsbekken" />
		<tag k="ssr:stedsnr" v="937574" />
		<tag k="waterway" v="stream" />
	</node>
	<node id="-198579" lat="59.1573611087" lon="10.147424995">
		<tag k="name" v="Bøbukta" />
		<tag k="natural" v="bay" />
		<tag k="ssr:stedsnr" v="88852" />
	</node>
	<node id="-200114" lat="59.3250250014" lon="10.1827249968">
		<tag k="name" v="Stulsbekken" />
		<tag k="ssr:stedsnr" v="877453" />
		<tag k="waterway" v="stream" />
	</node>
	<node id="-199601" lat="59.2160249957" lon="10.089722215">
		<tag k="alt_name" v="Uletjønna" />
		<tag k="name" v="Uletjern" />
		<tag k="natural" v="water" />
		<tag k="ssr:stedsnr" v="668392" />
	</node>
	<node id="-199600" lat="59.1968250013" lon="10.1019305517">
		<tag k="name" v="Hagneselva" />
		<tag k="ssr:stedsnr" v="668164" />
		<tag k="waterway" v="river" />
	</node>
	<node id="-198573" lat="59.1938972188" lon="10.1221527715">
		<tag k="name" v="Kalven" />
		<tag k="natural" v="cape" />
		<tag k="ssr:stedsnr" v="88782" />
	</node>
	<node id="-198130" lat="59.2928916664" lon="10.1249527859">
		<tag k="name" v="Bergselva" />
		<tag k="ssr:stedsnr" v="391235" />
		<tag k="waterway" v="river" />
	</node>
	<node id="-198569" lat="59.2691194428" lon="10.1532444473">
		<tag k="name" v="Svartefossa" />
		<tag k="natural" v="waterfall" />
		<tag k="ssr:stedsnr" v="88754" />
	</node>
	<node id="-200104" lat="59.3079666693" lon="10.0924750084">
		<tag k="name" v="Halstvedtelva" />
		<tag k="ssr:stedsnr" v="877261" />
		<tag k="waterway" v="stream" />
	</node>
	<node id="-200098" lat="59.326024999" lon="10.1100249943">
		<tag k="name" v="Stutaua" />
		<tag k="natural" v="water" />
		<tag k="ssr:stedsnr" v="877210" />
	</node>
	<node id="-200097" lat="59.3338138866" lon="10.1055722288">
		<tag k="name" v="Skjauffbekken" />
		<tag k="ssr:stedsnr" v="877211" />
		<tag k="waterway" v="stream" />
	</node>
	<node id="-198384" lat="59.2422027767" lon="10.3105083305">
		<tag k="name" v="Haslestadbekken" />
		<tag k="ssr:stedsnr" v="25438" />
		<tag k="waterway" v="stream" />
	</node>
	<node id="-200091" lat="59.2723388902" lon="10.0803361056">
		<tag k="name" v="Slettingdalselva" />
		<tag k="ssr:stedsnr" v="876828" />
		<tag k="waterway" v="river" />
	</node>
	<node id="-198383" lat="59.2408361137" lon="10.3518111163">
		<tag k="name" v="Robergvannet" />
		<tag k="natural" v="water" />
		<tag k="ssr:stedsnr" v="25435" />
		<tag k="water" v="lake" />
	</node>
	<node id="-200087" lat="59.3335972252" lon="10.0401138935">
		<tag k="name" v="Missmørbekken" />
		<tag k="ssr:stedsnr" v="876648" />
		<tag k="waterway" v="stream" />
	</node>
	<node id="-198542" lat="59.3686750019" lon="10.0704833405">
		<tag k="name" v="Grønntjønnbekken" />
		<tag k="ssr:stedsnr" v="88202" />
		<tag k="waterway" v="stream" />
	</node>
	<node id="-199053" lat="59.36780278" lon="10.1060666676">
		<tag k="name" v="Aulesjordbekken" />
		<tag k="ssr:stedsnr" v="452129" />
		<tag k="waterway" v="stream" />
	</node>
	<node id="-198539" lat="59.3056333336" lon="10.0779861039">
		<tag k="name" v="Guslandbekken" />
		<tag k="ssr:stedsnr" v="88173" />
		<tag k="waterway" v="stream" />
	</node>
	<node id="-198533" lat="59.3578527813" lon="10.1126055613">
		<tag k="name" v="Skaugbekken" />
		<tag k="ssr:stedsnr" v="88103" />
		<tag k="waterway" v="stream" />
	</node>
	<node id="-199043" lat="59.3372147589" lon="10.0208207274">
		<tag k="name" v="Lorttjern" />
		<tag k="natural" v="water" />
		<tag k="ssr:stedsnr" v="451566" />
	</node>
	<node id="-198529" lat="59.2879888858" lon="10.1543305469">
		<tag k="name" v="Kjæråsdammen" />
		<tag k="natural" v="water" />
		<tag k="ssr:stedsnr" v="87786" />
	</node>
	<node id="-199546" lat="59.220175002" lon="10.2155583324">
		<tag k="name" v="Skjeldbredammen" />
		<tag k="natural" v="water" />
		<tag k="ssr:stedsnr" v="633714" />
	</node>
	<node id="-197780" lat="59.2910555539" lon="10.0866194465">
		<tag k="name" v="Bakkedamsbekken" />
		<tag k="ssr:stedsnr" v="269822" />
		<tag k="waterway" v="stream" />
	</node>
	<node id="-200054" lat="59.2695305596" lon="10.0198000028">
		<tag k="name" v="Heivannet" />
		<tag k="natural" v="water" />
		<tag k="ssr:stedsnr" v="852882" />
	</node>
	<node id="-198517" lat="59.2403611119" lon="10.3320527771">
		<tag k="name" v="Tryteknatten" />
		<tag k="place" v="islet" />
		<tag k="ssr:stedsnr" v="86441" />
	</node>
	<node id="-200047" lat="59.2191833353" lon="10.13676111">
		<tag k="name" v="Stisvannet" />
		<tag k="natural" v="water" />
		<tag k="ssr:stedsnr" v="852373" />
	</node>
	<node id="-197993" lat="59.1099277812" lon="10.1808833273">
		<tag k="name" v="Marumbekken" />
		<tag k="ssr:stedsnr" v="331555" />
		<tag k="waterway" v="stream" />
	</node>
	<node id="-199014" lat="59.2936194423" lon="10.119261111">
		<tag k="name" v="Stålerødvannet" />
		<tag k="natural" v="water" />
		<tag k="ssr:stedsnr" v="428873" />
	</node>
	<node id="-199013" lat="59.2887750039" lon="10.1896361153">
		<tag k="name" v="Askjemvannet" />
		<tag k="natural" v="water" />
		<tag k="ssr:stedsnr" v="428869" />
		<tag k="water" v="lake" />
	</node>
	<node id="-200036" lat="59.2429402098" lon="10.0581023374">
		<tag k="name" v="Gjerstaddammen" />
		<tag k="natural" v="water" />
		<tag k="ssr:stedsnr" v="851317" />
	</node>
	<node id="-199521" lat="59.3133361092" lon="10.0505722233">
		<tag k="name" v="Nøklegårdselva" />
		<tag k="ssr:stedsnr" v="633244" />
		<tag k="waterway" v="river" />
	</node>
	<node id="-199517" lat="59.3413277803" lon="10.0963083327">
		<tag k="name" v="Nesbekken" />
		<tag k="ssr:stedsnr" v="633179" />
		<tag k="waterway" v="stream" />
	</node>
	<node id="-199004" lat="59.3221861113" lon="10.115316669">
		<tag k="alt_name" v="Langevann" />
		<tag k="name" v="Langvannet" />
		<tag k="natural" v="water" />
		<tag k="ssr:stedsnr" v="427770" />
	</node>
	<node id="-198491" lat="59.3676148334" lon="10.1465836763">
		<tag k="alt_name" v="Ilestadvannet" />
		<tag k="name" v="Illestadvannet" />
		<tag k="natural" v="water" />
		<tag k="ssr:stedsnr" v="63226" />
	</node>
	<node id="-199000" lat="59.353558335" lon="10.033416672">
		<tag k="name" v="Trollsvannet" />
		<tag k="natural" v="water" />
		<tag k="ssr:stedsnr" v="427731" />
		<tag k="water" v="lake" />
	</node>
	<node id="-197975" lat="59.2737855119" lon="10.1006334427">
		<tag k="name" v="Søndre Skarsholttjønn" />
		<tag k="natural" v="water" />
		<tag k="ssr:stedsnr" v="330865" />
	</node>
	<node id="-197966" lat="59.1882861074" lon="10.1304888903">
		<tag k="name" v="Tryteskjæret" />
		<tag k="place" v="islet" />
		<tag k="ssr:stedsnr" v="330846" />
	</node>
	<node id="-198472" lat="59.1952916685" lon="10.1249833411">
		<tag k="alt_name" v="Trevlandbukta" />
		<tag k="name" v="Trevlandsbukta" />
		<tag k="natural" v="bay" />
		<tag k="ssr:stedsnr" v="62155" />
	</node>
	<node id="-197772" lat="59.3252527775" lon="10.0140611106">
		<tag k="name" v="Bølevannsfossen" />
		<tag k="natural" v="waterfall" />
		<tag k="ssr:stedsnr" v="269628" />
	</node>
	<node id="-199494" lat="59.275513431" lon="10.0059521823">
		<tag k="alt_name" v="Øvre Heivann" />
		<tag k="name" v="Lille Heivannet" />
		<tag k="natural" v="water" />
		<tag k="ssr:stedsnr" v="610922" />
	</node>
	<node id="-199475" lat="59.2353861105" lon="10.1010472143">
		<tag k="name" v="Skorgeelva" />
		<tag k="ssr:stedsnr" v="608334" />
		<tag k="waterway" v="river" />
	</node>
	<node id="-199468" lat="59.2472118984" lon="10.0290183379">
		<tag k="alt_name" v="Diplingene" />
		<tag k="name" v="Diplingane" />
		<tag k="natural" v="water" />
		<tag k="ssr:stedsnr" v="608276" />
	</node>
	<node id="-197931" lat="59.3666750044" lon="10.1009055535">
		<tag k="name" v="Vrangdalsbekken" />
		<tag k="ssr:stedsnr" v="330177" />
		<tag k="waterway" v="stream" />
	</node>
	<node id="-199460" lat="59.2074166659" lon="10.0718305635">
		<tag k="name" v="Svartåa" />
		<tag k="ssr:stedsnr" v="608147" />
		<tag k="waterway" v="river" />
	</node>
	<node id="-199970" lat="59.2827055581" lon="10.1928638935">
		<tag k="name" v="Lagårdsøya" />
		<tag k="natural" v="cape" />
		<tag k="ssr:stedsnr" v="816537" />
	</node>
	<node id="-199969" lat="59.2873277747" lon="10.2093472236">
		<tag k="name" v="Kullerødvannet" />
		<tag k="natural" v="water" />
		<tag k="ssr:stedsnr" v="816516" />
		<tag k="water" v="lake" />
	</node>
	<node id="-198429" lat="59.1027617177" lon="10.186903372">
		<tag k="name" v="Marumdammen" />
		<tag k="natural" v="water" />
		<tag k="ssr:stedsnr" v="27568" />
	</node>
	<node id="-199961" lat="59.2982694401" lon="10.1232527839">
		<tag k="name" v="Hegrebekk" />
		<tag k="ssr:stedsnr" v="816273" />
		<tag k="waterway" v="stream" />
	</node>
	<node id="-199959" lat="59.371652781" lon="10.0584861078">
		<tag k="name" v="Fiskebekk" />
		<tag k="ssr:stedsnr" v="816259" />
		<tag k="waterway" v="stream" />
	</node>
	<node id="-199445" lat="59.2228111114" lon="10.2142833295">
		<tag k="alt_name" v="Vesle-elv" />
		<tag k="name" v="Vesleelva" />
		<tag k="ssr:stedsnr" v="607393" />
		<tag k="waterway" v="stream" />
	</node>
	<node id="-199955" lat="59.3260108916" lon="10.125080463">
		<tag k="name" v="Lorttjønn" />
		<tag k="natural" v="water" />
		<tag k="ssr:stedsnr" v="816233" />
	</node>
	<node id="-199954" lat="59.3258111076" lon="10.113908326">
		<tag k="name" v="Veslevann" />
		<tag k="natural" v="water" />
		<tag k="ssr:stedsnr" v="816209" />
	</node>
	<node id="-198929" lat="59.315691669" lon="10.0941611059">
		<tag k="name" v="Bakkevannet" />
		<tag k="natural" v="water" />
		<tag k="ssr:stedsnr" v="245770" />
	</node>
	<node id="-199952" lat="59.3535249961" lon="10.1128111159">
		<tag k="name" v="Bergsbekken" />
		<tag k="ssr:stedsnr" v="816163" />
		<tag k="waterway" v="stream" />
	</node>
	<node id="-199947" lat="59.2772027797" lon="10.0186472188">
		<tag k="name" v="Heielva" />
		<tag k="ssr:stedsnr" v="815600" />
		<tag k="waterway" v="stream" />
	</node>
	<node id="-199945" lat="59.3188416706" lon="10.0297194434">
		<tag k="name" v="Kirilvaet" />
		<tag k="ssr:stedsnr" v="815577" />
		<tag k="waterway" v="stream" />
	</node>
	<node id="-197895" lat="59.3279749992" lon="10.0158055632">
		<tag k="name" v="Bølevannet" />
		<tag k="natural" v="water" />
		<tag k="ssr:stedsnr" v="306786" />
	</node>
	<node id="-197894" lat="59.3401875985" lon="10.1250159383">
		<tag k="name" v="Bergsvannet" />
		<tag k="natural" v="water" />
		<tag k="ssr:stedsnr" v="306742" />
	</node>
	<node id="-197893" lat="59.3108888923" lon="10.2384527697">
		<tag k="name" v="Grorødvannet" />
		<tag k="natural" v="water" />
		<tag k="ssr:stedsnr" v="306828" />
	</node>
	<node id="-198916" lat="59.2339222209" lon="10.2437250048">
		<tag k="name" v="Gjennestadvannet" />
		<tag k="natural" v="water" />
		<tag k="ssr:stedsnr" v="244324" />
	</node>
	<node id="-198914" lat="59.2287861101" lon="10.1407222242">
		<tag k="name" v="Gallisvannet" />
		<tag k="natural" v="water" />
		<tag k="ssr:stedsnr" v="244315" />
		<tag k="water" v="lake" />
	</node>
	<node id="-199419" lat="59.1580277806" lon="10.1415166661">
		<tag k="name" v="Neshella" />
		<tag k="natural" v="cape" />
		<tag k="ssr:stedsnr" v="573843" />
	</node>
	<node id="-197879" lat="59.2196555591" lon="10.1850944381">
		<tag k="alt_name" v="Storelv" />
		<tag k="name" v="Storelva" />
		<tag k="ssr:stedsnr" v="305310" />
		<tag k="waterway" v="river" />
	</node>
	<node id="-199408" lat="59.1799666675" lon="10.1411027727">
		<tag k="name" v="Langekilen" />
		<tag k="natural" v="bay" />
		<tag k="ssr:stedsnr" v="573762" />
	</node>
	<node id="-199407" lat="59.1710666668" lon="10.1538361157">
		<tag k="name" v="Wittenberg" />
		<tag k="natural" v="cape" />
		<tag k="ssr:stedsnr" v="573760" />
	</node>
	<node id="-199918" lat="59.2946472219" lon="10.0508750054">
		<tag k="name" v="Støfseren" />
		<tag k="natural" v="water" />
		<tag k="ssr:stedsnr" v="792801" />
	</node>
	<node id="-198368" lat="59.3536583303" lon="10.0697833259">
		<tag k="name" v="Sæterbekken" />
		<tag k="ssr:stedsnr" v="27139" />
		<tag k="waterway" v="stream" />
	</node>
	<node id="-198366" lat="59.3524111149" lon="10.0775694491">
		<tag k="name" v="Klosterbekken" />
		<tag k="ssr:stedsnr" v="27133" />
		<tag k="waterway" v="stream" />
	</node>
	<node id="-199378" lat="59.3579666659" lon="10.0517222234">
		<tag k="name" v="Enersrødkilen" />
		<tag k="natural" v="bay" />
		<tag k="ssr:stedsnr" v="573246" />
	</node>
	<node id="-198352" lat="59.2678666633" lon="10.025927781">
		<tag k="name" v="Stusserudvannet" />
		<tag k="natural" v="water" />
		<tag k="ssr:stedsnr" v="3897" />
	</node>
	<node id="-199375" lat="59.3135398842" lon="10.0654068736">
		<tag k="name" v="Oksenaua" />
		<tag k="natural" v="water" />
		<tag k="ssr:stedsnr" v="573215" />
	</node>
	<node id="-197838" lat="59.2085027815" lon="10.0729083357">
		<tag k="name" v="Liverødbekken" />
		<tag k="ssr:stedsnr" v="270971" />
		<tag k="waterway" v="stream" />
	</node>
	<node id="-198860" lat="59.1652555551" lon="10.1445027826">
		<tag k="name" v="Sandtangen" />
		<tag k="natural" v="cape" />
		<tag k="ssr:stedsnr" v="209774" />
	</node>
	<node id="-199882" lat="59.1501750014" lon="10.2617111025">
		<tag k="alt_name" v="Unnebergbekken" />
		<tag k="name" v="Unnebergsbekken" />
		<tag k="ssr:stedsnr" v="790004" />
		<tag k="waterway" v="stream" />
	</node>
	<node id="-199873" lat="59.2308916683" lon="10.2352749966">
		<tag k="name" v="Vassbonnen" />
		<tag k="natural" v="shoal" />
		<tag k="place" v="locality" />
		<tag k="ssr:stedsnr" v="756697" />
	</node>
	<node id="-197824" lat="59.2475750013" lon="10.06213611">
		<tag k="name" v="Kjerringdalsbekken" />
		<tag k="ssr:stedsnr" v="270768" />
		<tag k="waterway" v="stream" />
	</node>
	<node id="-199869" lat="59.2847777798" lon="10.217124993">
		<tag k="name" v="Kulerødvannet" />
		<tag k="natural" v="water" />
		<tag k="ssr:stedsnr" v="756417" />
		<tag k="water" v="lake" />
	</node>
	<node id="-198841" lat="59.1146222211" lon="10.2042194399">
		<tag k="name" v="Skaubekken" />
		<tag k="ssr:stedsnr" v="209607" />
		<tag k="waterway" v="stream" />
	</node>
	<node id="-198328" lat="59.3652833341" lon="10.0557499923">
		<tag k="alt_name" v="Åletjørn;Åetjønn" />
		<tag k="name" v="Åletjønn" />
		<tag k="natural" v="water" />
		<tag k="ssr:stedsnr" v="2212" />
		<tag k="water" v="lake" />
	</node>
	<node id="-198323" lat="59.2425861109" lon="10.179852782">
		<tag k="name" v="Sprena" />
		<tag k="ssr:stedsnr" v="1336" />
		<tag k="waterway" v="stream" />
	</node>
	<node id="-198320" lat="59.2441666633" lon="10.3276166709">
		<tag k="name" v="Akersvannet" />
		<tag k="natural" v="water" />
		<tag k="ssr:stedsnr" v="1331" />
		<tag k="water" v="lake" />
	</node>
	<node id="-199339" lat="59.3035333374" lon="10.0692555624">
		<tag k="name" v="Steinsvannet" />
		<tag k="natural" v="water" />
		<tag k="ssr:stedsnr" v="549808" />
	</node>
	<node id="-198825" lat="59.3706638858" lon="10.0812166583">
		<tag k="name" v="Hestedalsbekken" />
		<tag k="ssr:stedsnr" v="209262" />
		<tag k="waterway" v="stream" />
	</node>
	<node id="-198818" lat="59.3103694465" lon="10.0487583375">
		<tag k="name" v="Langevannsbekken" />
		<tag k="ssr:stedsnr" v="209226" />
		<tag k="waterway" v="stream" />
	</node>
	<node id="-198815" lat="59.3585805598" lon="10.1472111041">
		<tag k="name" v="Hålandbekken" />
		<tag k="ssr:stedsnr" v="209142" />
		<tag k="waterway" v="stream" />
	</node>
	<node id="-198810" lat="59.2886083327" lon="10.0174055562">
		<tag k="name" v="Svartåa" />
		<tag k="ssr:stedsnr" v="208616" />
		<tag k="waterway" v="stream" />
	</node>
	<node id="-199320" lat="59.3755777804" lon="10.0732083255">
		<tag k="alt_name" v="Grønntjønn" />
		<tag k="name" v="Grøntjernet" />
		<tag k="natural" v="water" />
		<tag k="ssr:stedsnr" v="548210" />
	</node>
	<node id="-199828" lat="59.1112222188" lon="10.1962305614">
		<tag k="name" v="Hanastadbekken" />
		<tag k="ssr:stedsnr" v="755610" />
		<tag k="waterway" v="stream" />
	</node>
	<node id="-199826" lat="59.2858500012" lon="10.1715638963">
		<tag k="name" v="Kjæråselva" />
		<tag k="ssr:stedsnr" v="755509" />
		<tag k="waterway" v="river" />
	</node>
	<node id="-199308" lat="59.1711388873" lon="10.2932222233">
		<tag k="name" v="Rovebekken" />
		<tag k="ssr:stedsnr" v="547233" />
		<tag k="waterway" v="stream" />
	</node>
	<node id="-199816" lat="59.2941527744" lon="10.1097722271">
		<tag k="name" v="Kolkinnelva" />
		<tag k="ssr:stedsnr" v="755266" />
		<tag k="waterway" v="river" />
	</node>
	<node id="-199815" lat="59.2942805517" lon="10.1202833285">
		<tag k="name" v="Rørodden" />
		<tag k="natural" v="cape" />
		<tag k="ssr:stedsnr" v="755267" />
	</node>
	<node id="-198781" lat="59.3326944437" lon="10.0800305506">
		<tag k="name" v="Kleiveren" />
		<tag k="natural" v="water" />
		<tag k="ssr:stedsnr" v="185793" />
	</node>
	<node id="-199804" lat="59.3265111149" lon="10.0472666679">
		<tag k="name" v="Hynneelva" />
		<tag k="ssr:stedsnr" v="755207" />
		<tag k="waterway" v="river" />
	</node>
	<node id="-198768" lat="59.2326138879" lon="10.120305563">
		<tag k="name" v="Ivjua" />
		<tag k="ssr:stedsnr" v="184311" />
		<tag k="waterway" v="stream" />
	</node>
	<node id="-197821" lat="59.1722916702" lon="10.1559055518">
		<tag k="name" v="Merkemellom" />
		<tag k="natural" v="cape" />
		<tag k="ssr:stedsnr" v="270756" />
	</node>
	<node id="-199781" lat="59.239991671" lon="10.334591667">
		<tag k="name" v="Englibukta" />
		<tag k="natural" v="bay" />
		<tag k="ssr:stedsnr" v="753387" />
	</node>
	<node id="-200284" lat="59.3339055564" lon="10.0488333396">
		<tag k="name" v="Åletjønnelva" />
		<tag k="ssr:stedsnr" v="937804" />
		<tag k="waterway" v="river" />
	</node>
	<node id="-198741" lat="59.0927777745" lon="10.2244444418">
		<tag k="name" v="Båtstangen" />
		<tag k="natural" v="cape" />
		<tag k="ssr:stedsnr" v="181589" />
	</node>
	<node id="-200266" lat="59.2970027767" lon="10.0294222151">
		<tag k="name" v="Steindalsbekken" />
		<tag k="ssr:stedsnr" v="937576" />
		<tag k="waterway" v="stream" />
	</node>
	<node id="-199241" lat="59.1308750044" lon="10.1943694506">
		<tag k="name" v="Bugårdsdammen" />
		<tag k="natural" v="water" />
		<tag k="ssr:stedsnr" v="512776" />
	</node>
	<node id="-199742" lat="59.1692499985" lon="10.1607611157">
		<tag k="name" v="Gubbetangen" />
		<tag k="natural" v="cape" />
		<tag k="ssr:stedsnr" v="730208" />
	</node>
	<node id="-199740" lat="59.183411114" lon="10.1737527854">
		<tag k="alt_name" v="Napperød tj." />
		<tag k="name" v="Napperødtjerna" />
		<tag k="natural" v="water" />
		<tag k="ssr:stedsnr" v="730176" />
	</node>
	<node id="-200250" lat="59.29526667" lon="10.1595861026">
		<tag k="name" v="Døvlebekken" />
		<tag k="ssr:stedsnr" v="937368" />
		<tag k="waterway" v="stream" />
	</node>
	<node id="-198711" lat="59.1851250024" lon="10.1404194453">
		<tag k="name" v="Boroa" />
		<tag k="natural" v="cape" />
		<tag k="ssr:stedsnr" v="148819" />
	</node>
	<node id="-198417" lat="59.1723805541" lon="10.1595222211">
		<tag k="name" v="Oddane" />
		<tag k="natural" v="beach" />
		<tag k="ssr:stedsnr" v="27751" />
	</node>
	<node id="-200238" lat="59.3752750043" lon="10.150688895">
		<tag k="name" v="Svællabekken" />
		<tag k="ssr:stedsnr" v="937166" />
		<tag k="waterway" v="stream" />
	</node>
	<node id="-198701" lat="59.1311111143" lon="10.2374444422">
		<tag k="name" v="Brydedammen" />
		<tag k="natural" v="water" />
		<tag k="ssr:stedsnr" v="148770" />
	</node>
	<node id="-199210" lat="59.3002888859" lon="10.1492194528">
		<tag k="name" v="Døvlebekken" />
		<tag k="ssr:stedsnr" v="512251" />
		<tag k="waterway" v="stream" />
	</node>
	<node id="-198183" lat="59.2897055592" lon="10.2547138877">
		<tag k="name" v="Fossnesdammen" />
		<tag k="natural" v="water" />
		<tag k="ssr:stedsnr" v="392540" />
		<tag k="water" v="lake" />
	</node>
	<node id="-199204" lat="59.3395611113" lon="10.1452777696">
		<tag k="name" v="Røbekk" />
		<tag k="ssr:stedsnr" v="512155" />
		<tag k="waterway" v="stream" />
	</node>
	<node id="-198177" lat="59.2325027767" lon="10.1027388898">
		<tag k="name" v="Skorgefossen" />
		<tag k="natural" v="waterfall" />
		<tag k="ssr:stedsnr" v="391987" />
	</node>
	<node id="-198687" lat="59.2899611104" lon="10.1865111197">
		<tag k="name" v="Åsenstranda" />
		<tag k="natural" v="beach" />
		<tag k="ssr:stedsnr" v="148513" />
	</node>
	<node id="-199707" lat="59.2607416625" lon="10.0461055564">
		<tag k="name" v="Ulevannet" />
		<tag k="natural" v="water" />
		<tag k="ssr:stedsnr" v="695787" />
	</node>
	<node id="-197892" lat="59.2985083334" lon="10.0375249982">
		<tag k="alt_name" v="Langevann" />
		<tag k="name" v="Langevannet" />
		<tag k="natural" v="water" />
		<tag k="ssr:stedsnr" v="306807" />
	</node>
	<node id="-198165" lat="59.3310000041" lon="10.045177778">
		<tag k="name" v="Trollvannselva" />
		<tag k="ssr:stedsnr" v="391806" />
		<tag k="waterway" v="river" />
	</node>
	<node id="-200155" lat="59.2520249986" lon="10.0269750031">
		<tag k="name" v="Diplingane" />
		<tag k="natural" v="water" />
		<tag k="ssr:stedsnr" v="913927" />
	</node>
	<node id="-198672" lat="59.2509138875" lon="10.0483722292">
		<tag k="name" v="Rønningsvannet" />
		<tag k="natural" v="water" />
		<tag k="ssr:stedsnr" v="147874" />
	</node>
	<node id="-197976" lat="59.2015611137" lon="10.1202055626">
		<tag k="name" v="Trollsåselva" />
		<tag k="ssr:stedsnr" v="330866" />
		<tag k="waterway" v="stream" />
	</node>
	<node id="-199177" lat="59.2778638868" lon="10.2974444443">
		<tag k="name" v="Merkedamselva" />
		<tag k="ssr:stedsnr" v="489886" />
		<tag k="waterway" v="stream" />
	</node>
	<node id="-198662" lat="59.30108611" lon="10.0134333416">
		<tag k="name" v="Rennesikdammen" />
		<tag k="natural" v="water" />
		<tag k="ssr:stedsnr" v="147556" />
	</node>
	<node id="-199173" lat="59.3216000006" lon="10.0617527751">
		<tag k="alt_name" v="Lakstjernet" />
		<tag k="name" v="Lakskjønnvannet" />
		<tag k="natural" v="water" />
		<tag k="ssr:stedsnr" v="488787" />
	</node>
	<node id="-199643" lat="59.2350388854" lon="10.3383805641">
		<tag k="name" v="Melsombekken" />
		<tag k="ssr:stedsnr" v="693453" />
		<tag k="waterway" v="stream" />
	</node>
	<node id="-200194" lat="59.3552444468" lon="10.0723749931">
		<tag k="name" v="Klostervannet" />
		<tag k="natural" v="water" />
		<tag k="ssr:stedsnr" v="913743" />
	</node>
</osm>
