<?xml version="1.0" encoding="UTF-8"?>
<osm generator="osmapis" version="0.6">
	<node id="-198912" lat="59.2329249956" lon="10.1788527804">
		<tag k="amenity" v="community_centre" />
		<tag k="name" v="Fjellvang" />
		<tag k="ssr:stedsnr" v="244311" />
	</node>
	<node id="-199967" lat="59.3030638844" lon="10.1736277824">
		<tag k="amenity" v="community_centre" />
		<tag k="name" v="Klokkergården" />
		<tag k="ssr:stedsnr" v="816427" />
	</node>
	<node id="-197883" lat="59.2365361112" lon="10.2810999943">
		<tag k="amenity" v="place_of_worship" />
		<tag k="denomination" v="lutheran" />
		<tag k="name" v="Skjee" />
		<tag k="religion" v="christian" />
		<tag k="ssr:stedsnr" v="305352" />
	</node>
	<node id="-200247" lat="59.2925694446" lon="10.1313722266">
		<tag k="amenity" v="community_centre" />
		<tag k="name" v="Solhaug ungdomslokale" />
		<tag k="ssr:stedsnr" v="937285" />
	</node>
	<node id="-198550" lat="59.1064055558" lon="10.2105333315">
		<tag k="amenity" v="community_centre" />
		<tag k="name" v="Sole lokale" />
		<tag k="ssr:stedsnr" v="88554" />
	</node>
	<node id="-198960" lat="59.2265555516" lon="10.2884972189">
		<tag k="amenity" v="community_centre" />
		<tag k="name" v="Myrvang" />
		<tag k="ssr:stedsnr" v="268426" />
	</node>
	<node id="-197874" lat="59.3673876918" lon="10.1211035463">
		<tag k="amenity" v="place_of_worship" />
		<tag k="denomination" v="lutheran" />
		<tag k="name" v="Høyjord" />
		<tag k="religion" v="christian" />
		<tag k="ssr:stedsnr" v="305214" />
	</node>
	<node id="-199472" lat="59.231355556" lon="10.1264166631">
		<tag k="alt_name" v="Kodal kirke" />
		<tag k="amenity" v="place_of_worship" />
		<tag k="denomination" v="lutheran" />
		<tag k="name" v="Kodal" />
		<tag k="religion" v="christian" />
		<tag k="ssr:stedsnr" v="608322" />
	</node>
	<node id="-198191" lat="59.1197222264" lon="10.2400000024">
		<tag k="amenity" v="place_of_worship" />
		<tag k="denomination" v="lutheran" />
		<tag k="name" v="Vesterøya" />
		<tag k="religion" v="christian" />
		<tag k="ssr:stedsnr" v="406773" />
	</node>
	<node id="-199884" lat="59.1407378768" lon="10.2529760118">
		<tag k="alt_name" v="Kongshaug" />
		<tag k="name" v="Gokstadhaugen" />
		<tag k="ssr:stedsnr" v="790012" />
		<tag k="tourism" v="attraction" />
	</node>
	<node id="-199314" lat="59.2205750011" lon="10.306325007">
		<tag k="amenity" v="place_of_worship" />
		<tag k="denomination" v="lutheran" />
		<tag k="name" v="Stokke" />
		<tag k="religion" v="christian" />
		<tag k="ssr:stedsnr" v="547386" />
	</node>
	<node id="-197898" lat="59.2898749959" lon="10.2511694519">
		<tag k="alt_name" v="Arnadal Kirke" />
		<tag k="amenity" v="place_of_worship" />
		<tag k="denomination" v="lutheran" />
		<tag k="name" v="Arnadal" />
		<tag k="religion" v="christian" />
		<tag k="ssr:stedsnr" v="307861" />
	</node>
	<node id="-198295" lat="59.1365703407" lon="10.1848404014">
		<tag k="amenity" v="place_of_worship" />
		<tag k="denomination" v="lutheran" />
		<tag k="name" v="Bugården kirke" />
		<tag k="religion" v="christian" />
		<tag k="ssr:stedsnr" v="991028" />
	</node>
	<node id="-199300" lat="59.2086638911" lon="10.1158277703">
		<tag k="alt_name" v="Vonheim ungdomslokale" />
		<tag k="amenity" v="community_centre" />
		<tag k="name" v="Vonheim" />
		<tag k="ssr:stedsnr" v="547148" />
	</node>
	<node id="-198341" lat="59.2534444487" lon="10.045416673">
		<tag k="name" v="Snappen" />
		<tag k="place" v="locality" />
		<tag k="ssr:stedsnr" v="2927" />
	</node>
	<node id="-199620" lat="59.3088555563" lon="10.1770249931">
		<tag k="alt_name" v="Andebu kirke" />
		<tag k="amenity" v="place_of_worship" />
		<tag k="denomination" v="lutheran" />
		<tag k="name" v="Andebu" />
		<tag k="religion" v="christian" />
		<tag k="ssr:stedsnr" v="670813" />
	</node>
	<node id="-198923" lat="59.0585034475" lon="10.3086570644">
		<tag k="name" v="Tønsberg tønne" />
		<tag k="ssr:stedsnr" v="245168" />
		<tag k="tourism" v="viewpoint" />
	</node>
</osm>
