<?xml version="1.0" encoding="UTF-8"?>
<osm version="0.6" generator="osmapis">
	<node lat="61.36689444316082" lon="5.28885277250655" id="-77241">
		<tag k="amenity" v="ferry_terminal" />
		<tag k="name" v="Eikenes ferjekai" />
		<tag k="ssr:stedsnr" v="47271" />
	</node>
	<node lat="61.371778351748056" lon="5.354961354375995" id="-77353">
		<tag k="layer" v="-1" />
		<tag k="name" v="Ottersteintunnelen" />
		<tag k="ssr:stedsnr" v="116603" />
		<tag k="tunnel" v="yes" />
	</node>
	<node lat="61.2960825025448" lon="4.659321973149114" id="-77522">
		<tag k="bridge" v="yes" />
		<tag k="layer" v="1" />
		<tag k="name" v="Ytre Melværsundbrua" />
		<tag k="ssr:stedsnr" v="289231" />
	</node>
	<node lat="61.445341663224845" lon="5.337091663702313" id="-77523">
		<tag k="bridge" v="yes" />
		<tag k="layer" v="1" />
		<tag k="name" v="Sagøyra" />
		<tag k="ssr:stedsnr" v="289232" />
	</node>
	<node lat="61.292729510881486" lon="4.64560949345282" id="-77563">
		<tag k="bridge" v="yes" />
		<tag k="layer" v="1" />
		<tag k="name" v="Olsundbrua" />
		<tag k="ssr:stedsnr" v="471249" />
	</node>
	<node lat="61.35710555193047" lon="5.114877773122034" id="-77564">
		<tag k="bridge" v="yes" />
		<tag k="layer" v="1" />
		<tag k="name" v="Ringstad" />
		<tag k="ssr:stedsnr" v="471252" />
	</node>
	<node lat="61.455672220878775" lon="5.395908335867527" id="-77565">
		<tag k="bridge" v="yes" />
		<tag k="layer" v="1" />
		<tag k="name" v="Gjelsvik" />
		<tag k="ssr:stedsnr" v="471259" />
	</node>
	<node lat="61.304007729681594" lon="4.739957610590366" id="-77586">
		<tag k="amenity" v="ferry_terminal" />
		<tag k="name" v="Værlandet ferjekai" />
		<tag k="ssr:stedsnr" v="350229" />
	</node>
	<node lat="61.29414815367342" lon="4.652501687870973" id="-77587">
		<tag k="bridge" v="yes" />
		<tag k="layer" v="1" />
		<tag k="name" v="Brattholmsundbrua" />
		<tag k="ssr:stedsnr" v="350234" />
	</node>
	<node lat="61.34767500414611" lon="5.07185556122276" id="-77588">
		<tag k="bridge" v="yes" />
		<tag k="layer" v="1" />
		<tag k="name" v="Askvoll" />
		<tag k="ssr:stedsnr" v="350235" />
	</node>
	<node lat="61.43491388777508" lon="5.314822229978963" id="-77660">
		<tag k="bridge" v="yes" />
		<tag k="layer" v="1" />
		<tag k="name" v="Skjerlid" />
		<tag k="ssr:stedsnr" v="411254" />
	</node>
	<node lat="61.370172406704555" lon="5.29906924310517" id="-77755">
		<tag k="layer" v="-1" />
		<tag k="name" v="Dalsfjordtunnelen" />
		<tag k="ssr:stedsnr" v="466506" />
		<tag k="tunnel" v="yes" />
	</node>
	<node lat="61.461494446204505" lon="5.31578056145037" id="-77858">
		<tag k="bridge" v="yes" />
		<tag k="layer" v="1" />
		<tag k="name" v="Skorven" />
		<tag k="ssr:stedsnr" v="532227" />
	</node>
	<node lat="61.28248055801996" lon="4.630138892182236" id="-77859">
		<tag k="bridge" v="yes" />
		<tag k="layer" v="1" />
		<tag k="name" v="Nikøysund" />
		<tag k="ssr:stedsnr" v="532231" />
	</node>
	<node lat="61.429488885767526" lon="5.210697219688867" id="-77912">
		<tag k="highway" v="path" />
		<tag k="name" v="Gravarstien" />
		<tag k="ssr:stedsnr" v="701188" />
	</node>
	<node lat="61.295972224083265" lon="4.656841669807365" id="-78006">
		<tag k="bridge" v="yes" />
		<tag k="layer" v="1" />
		<tag k="name" v="Åsgarden" />
		<tag k="ssr:stedsnr" v="653232" />
	</node>
	<node lat="61.45204722570821" lon="5.218897215100447" id="-78007">
		<tag k="bridge" v="yes" />
		<tag k="layer" v="1" />
		<tag k="name" v="Vågane" />
		<tag k="ssr:stedsnr" v="653234" />
	</node>
	<node lat="61.440098981763036" lon="5.348596682112728" id="-78008">
		<tag k="bridge" v="yes" />
		<tag k="layer" v="1" />
		<tag k="name" v="Storebrua" />
		<tag k="ssr:stedsnr" v="653236" />
	</node>
	<node lat="61.46014409295714" lon="5.321117117308333" id="-78052">
		<tag k="layer" v="-1" />
		<tag k="name" v="Skorve" />
		<tag k="ssr:stedsnr" v="894746" />
		<tag k="tunnel" v="yes" />
	</node>
	<node lat="61.45700277859083" lon="5.379138885783743" id="-78057">
		<tag k="highway" v="path" />
		<tag k="name" v="Kjellestien" />
		<tag k="ssr:stedsnr" v="703562" />
	</node>
	<node lat="61.42768333229178" lon="5.127841675281851" id="-78073">
		<tag k="bridge" v="yes" />
		<tag k="layer" v="1" />
		<tag k="name" v="Yndestad" />
		<tag k="ssr:stedsnr" v="714207" />
	</node>
	<node lat="61.36655555354725" lon="5.2649777689746085" id="-78074">
		<tag k="bridge" v="yes" />
		<tag k="layer" v="1" />
		<tag k="name" v="Hylset" />
		<tag k="ssr:stedsnr" v="714218" />
	</node>
	<node lat="61.29231667006005" lon="4.624824999111683" id="-78075">
		<tag k="bridge" v="yes" />
		<tag k="layer" v="1" />
		<tag k="name" v="Gjeldsøy-Hågøy" />
		<tag k="ssr:stedsnr" v="714220" />
	</node>
	<node lat="61.34567500329746" lon="5.064997229053357" id="-78076">
		<tag k="amenity" v="ferry_terminal" />
		<tag k="name" v="Askvoll ferjekai" />
		<tag k="ssr:stedsnr" v="714226" />
	</node>
	<node lat="61.35496318525206" lon="4.891544340081808" id="-78225">
		<tag k="landuse" v="harbour" />
		<tag k="name" v="Herlandshamnen" />
		<tag k="seamark:type" v="harbour" />
		<tag k="ssr:stedsnr" v="822610" />
	</node>
	<node lat="61.291258331919025" lon="4.621091658091099" id="-78238">
		<tag k="bridge" v="yes" />
		<tag k="layer" v="1" />
		<tag k="name" v="Holmsundet" />
		<tag k="ssr:stedsnr" v="836213" />
	</node>
	<node lat="61.38567778011125" lon="5.039188892740847" id="-78239">
		<tag k="bridge" v="yes" />
		<tag k="layer" v="1" />
		<tag k="name" v="Eidmint" />
		<tag k="ssr:stedsnr" v="836215" />
	</node>
	<node lat="61.360383330790256" lon="5.189152774091626" id="-78306">
		<tag k="bridge" v="yes" />
		<tag k="layer" v="1" />
		<tag k="name" v="Bakke" />
		<tag k="ssr:stedsnr" v="896263" />
	</node>
	<node lat="61.28039166341882" lon="4.621863894871936" id="-78370">
		<tag k="man_made" v="tower" />
		<tag k="name" v="Florø radio" />
		<tag k="ssr:stedsnr" v="949594" />
		<tag k="tower:type" v="communications" />
	</node>
	<node lat="61.43004295135314" lon="5.202204402991718" id="-78371">
		<tag k="alt_name" v="Håkleiv" />
		<tag k="layer" v="-1" />
		<tag k="name" v="Håkleivtunnelen" />
		<tag k="ssr:stedsnr" v="954252" />
		<tag k="tunnel" v="yes" />
	</node>
	<node lat="61.349522225880115" lon="5.104438889249984" id="-78372">
		<tag k="bridge" v="yes" />
		<tag k="layer" v="1" />
		<tag k="name" v="Strømmen" />
		<tag k="ssr:stedsnr" v="957249" />
	</node>
	<node lat="61.33368055449289" lon="4.999305563440623" id="-78483">
		<tag k="highway" v="path" />
		<tag k="name" v="Rånestien" />
		<tag k="ssr:stedsnr" v="33938" />
	</node>
	<node lat="61.35028055736273" lon="5.172219435630027" id="-78515">
		<tag k="bridge" v="yes" />
		<tag k="layer" v="1" />
		<tag k="name" v="Vik" />
		<tag k="ssr:stedsnr" v="47259" />
	</node>
	<node lat="61.294163320892395" lon="4.692639882335738" id="-78516">
		<tag k="bridge" v="yes" />
		<tag k="layer" v="1" />
		<tag k="name" v="Indre Melværsundbrua" />
		<tag k="ssr:stedsnr" v="47266" />
	</node>
	<node lat="61.43463888450375" lon="5.215311110671174" id="-78588">
		<tag k="bridge" v="yes" />
		<tag k="layer" v="1" />
		<tag k="name" v="Osland" />
		<tag k="ssr:stedsnr" v="229264" />
	</node>
	<node lat="61.28846666472185" lon="4.6272000013421115" id="-78589">
		<tag k="bridge" v="yes" />
		<tag k="layer" v="1" />
		<tag k="name" v="Håkesundet" />
		<tag k="ssr:stedsnr" v="229267" />
	</node>
	<node lat="61.37479606029219" lon="5.390422453249471" id="-78724">
		<tag k="bridge" v="yes" />
		<tag k="layer" v="1" />
		<tag k="name" v="Dalsfjordbrua" />
		<tag k="ssr:stedsnr" v="176495" />
	</node>
	<node lat="61.46861667001899" lon="5.257180549975039" id="-78844">
		<tag k="bridge" v="yes" />
		<tag k="layer" v="1" />
		<tag k="name" v="Flokenes" />
		<tag k="ssr:stedsnr" v="289240" />
	</node>
	<node lat="61.29384408779248" lon="4.640196366407628" id="-79128">
		<tag k="bridge" v="yes" />
		<tag k="layer" v="1" />
		<tag k="name" v="Langøysundbrua" />
		<tag k="ssr:stedsnr" v="532234" />
	</node>
	<node lat="61.43404166848137" lon="5.35338332486978" id="-79208">
		<tag k="highway" v="path" />
		<tag k="name" v="Siristien" />
		<tag k="ssr:stedsnr" v="583800" />
	</node>
	<node lat="61.396146138472304" lon="5.109568556460307" id="-79388">
		<tag k="alt_name" v="Stigaberg" />
		<tag k="layer" v="-1" />
		<tag k="name" v="Stigabergtunnelen" />
		<tag k="ssr:stedsnr" v="772735" />
		<tag k="tunnel" v="yes" />
	</node>
	<node lat="61.29254722407186" lon="4.625141658114969" id="-79467">
		<tag k="bridge" v="yes" />
		<tag k="layer" v="1" />
		<tag k="name" v="Fedøysundet" />
		<tag k="ssr:stedsnr" v="836217" />
	</node>
	<node lat="61.285405553168864" lon="4.63281667145149" id="-79585">
		<tag k="amenity" v="ferry_terminal" />
		<tag k="name" v="Bulandet ferjekai" />
		<tag k="ssr:stedsnr" v="957258" />
	</node>
	<node lat="61.34834008554916" lon="5.016186499988542" id="-79624">
		<tag k="amenity" v="ferry_terminal" />
		<tag k="name" v="Gjervik ferjekai" />
		<tag k="ssr:stedsnr" v="978645" />
	</node>
	<node lat="61.37011779299603" lon="4.887619347800691" id="-79642">
		<tag k="name" v="Hindøyhamn" />
		<tag k="place" v="locality" />
		<tag k="ssr:stedsnr" v="1072935" />
	</node>
	<node lat="61.416838648513824" lon="5.025863062050571" id="-79645">
		<tag k="man_made" v="cairn" />
		<tag k="name" v="Stavenes varde" />
		<tag k="place" v="locality" />
		<tag k="ssr:stedsnr" v="1073245" />
	</node>
	<node lat="61.400288549387305" lon="5.108196624829443" id="-79647">
		<tag k="layer" v="-1" />
		<tag k="name" v="Lynghogtunnelen" />
		<tag k="ssr:stedsnr" v="1079702" />
		<tag k="tunnel" v="yes" />
	</node>
</osm>
