<?xml version="1.0" encoding="UTF-8"?>
<osm generator="osmapis" version="0.6">
	<node id="-686080" lat="61.316469444" lon="5.05343888521">
		<tag k="name" v="Flatøyflua" />
		<tag k="natural" v="shoal" />
		<tag k="place" v="locality" />
		<tag k="ssr:stedsnr" v="780568" />
	</node>
	<node id="-686078" lat="61.2867277794" lon="4.56534721502">
		<tag k="name" v="Kyreflua" />
		<tag k="natural" v="shoal" />
		<tag k="place" v="locality" />
		<tag k="ssr:stedsnr" v="780151" />
	</node>
	<node id="-686077" lat="61.3288333365" lon="5.07337499135">
		<tag k="name" v="Kuholmen" />
		<tag k="place" v="islet" />
		<tag k="ssr:stedsnr" v="780089" />
	</node>
	<node id="-684028" lat="61.3240583362" lon="4.92112500401">
		<tag k="name" v="Kyrkjeholmen" />
		<tag k="place" v="islet" />
		<tag k="ssr:stedsnr" v="250188" />
	</node>
	<node id="-686075" lat="61.4564750039" lon="5.18917221702">
		<tag k="name" v="Botnavika" />
		<tag k="natural" v="bay" />
		<tag k="ssr:stedsnr" v="765994" />
	</node>
	<node id="-686071" lat="61.4596249991" lon="5.2237222211">
		<tag k="name" v="Storesundet" />
		<tag k="natural" v="strait" />
		<tag k="ssr:stedsnr" v="765647" />
	</node>
	<node id="-686070" lat="61.4511944489" lon="5.08366389614">
		<tag k="name" v="Hansvika" />
		<tag k="natural" v="bay" />
		<tag k="ssr:stedsnr" v="765543" />
	</node>
	<node id="-686069" lat="61.3057722203" lon="4.70018888988">
		<tag k="name" v="Slottholmen" />
		<tag k="place" v="islet" />
		<tag k="ssr:stedsnr" v="765251" />
	</node>
	<node id="-686068" lat="61.31129167" lon="4.7056249929">
		<tag k="name" v="Stroka" />
		<tag k="natural" v="strait" />
		<tag k="ssr:stedsnr" v="765244" />
	</node>
	<node id="-684019" lat="61.3322055543" lon="4.89523054739">
		<tag k="alt_name" v="Svartskjeret" />
		<tag k="fixme" v="consider seamark:type=rock or natural=shoal" />
		<tag k="name" v="Svarteskjeret" />
		<tag k="place" v="islet" />
		<tag k="ssr:stedsnr" v="250142" />
	</node>
	<node id="-686066" lat="61.3175166643" lon="4.70890555984">
		<tag k="name" v="Kalvøyhovudet" />
		<tag k="place" v="islet" />
		<tag k="ssr:stedsnr" v="765225" />
	</node>
	<node id="-686065" lat="61.282983329" lon="4.62080555457">
		<tag k="name" v="Svartholmen" />
		<tag k="place" v="islet" />
		<tag k="ssr:stedsnr" v="765208" />
	</node>
	<node id="-686061" lat="61.4807694441" lon="5.23597778108">
		<tag k="name" v="Nordre Breivik" />
		<tag k="natural" v="bay" />
		<tag k="ssr:stedsnr" v="764821" />
	</node>
	<node id="-684012" lat="61.2981138916" lon="4.88944999353">
		<tag k="name" v="Raudøyosen" />
		<tag k="natural" v="strait" />
		<tag k="ssr:stedsnr" v="250087" />
	</node>
	<node id="-684011" lat="61.4618777772" lon="5.22985555961">
		<tag k="name" v="Storevika" />
		<tag k="natural" v="bay" />
		<tag k="ssr:stedsnr" v="250082" />
	</node>
	<node id="-684010" lat="61.2829555587" lon="4.72295833592">
		<tag k="alt_name" v="Ånnaholmane" />
		<tag k="name" v="Ånneholmane" />
		<tag k="place" v="islet" />
		<tag k="ssr:stedsnr" v="250080" />
	</node>
	<node id="-684009" lat="61.45830911" lon="5.2304456588">
		<tag k="alt_name" v="Nervika" />
		<tag k="name" v="Nærvika" />
		<tag k="natural" v="bay" />
		<tag k="ssr:stedsnr" v="250079" />
	</node>
	<node id="-686055" lat="61.2818777793" lon="4.8678555528">
		<tag k="name" v="Degevika" />
		<tag k="natural" v="bay" />
		<tag k="ssr:stedsnr" v="764568" />
	</node>
	<node id="-684027" lat="61.3078305515" lon="4.91263055735">
		<tag k="name" v="Raudøytaren" />
		<tag k="natural" v="shoal" />
		<tag k="place" v="locality" />
		<tag k="ssr:stedsnr" v="250173" />
	</node>
	<node id="-686047" lat="61.3245555527" lon="5.00984722852">
		<tag k="name" v="Sporsholmen" />
		<tag k="place" v="islet" />
		<tag k="ssr:stedsnr" v="761975" />
	</node>
	<node id="-683997" lat="61.4167111137" lon="4.70036111559">
		<tag k="fixme" v="consider seamark:type=rock or natural=shoal" />
		<tag k="name" v="Erkna" />
		<tag k="place" v="islet" />
		<tag k="ssr:stedsnr" v="69403" />
	</node>
	<node id="-683996" lat="61.3967638869" lon="4.96913334246">
		<tag k="alt_name" v="Kjerringholmen" />
		<tag k="name" v="Kjeringeholmen" />
		<tag k="place" v="islet" />
		<tag k="ssr:stedsnr" v="68303" />
	</node>
	<node id="-683995" lat="61.3885638896" lon="4.93678888059">
		<tag k="name" v="Lauvholmen" />
		<tag k="place" v="islet" />
		<tag k="ssr:stedsnr" v="68302" />
	</node>
	<node id="-686038" lat="61.3735416631" lon="5.38245833315">
		<tag k="name" v="Klingehola" />
		<tag k="natural" v="bay" />
		<tag k="ssr:stedsnr" v="761560" />
	</node>
	<node id="-684069" lat="61.3710277746" lon="4.91735834211">
		<tag k="name" v="Nordre Stølsvika" />
		<tag k="natural" v="bay" />
		<tag k="ssr:stedsnr" v="113109" />
	</node>
	<node id="-686032" lat="61.2982444485" lon="4.68481665743">
		<tag k="alt_name" v="Indre Melværsund" />
		<tag k="name" v="Melværsundet" />
		<tag k="natural" v="strait" />
		<tag k="ssr:stedsnr" v="736422" />
	</node>
	<node id="-686031" lat="61.3965833373" lon="4.54804722293">
		<tag k="name" v="Gaulebåen" />
		<tag k="natural" v="shoal" />
		<tag k="place" v="locality" />
		<tag k="ssr:stedsnr" v="736385" />
	</node>
	<node id="-686030" lat="61.3923638849" lon="4.65738333622">
		<tag k="fixme" v="consider seamark:type=rock or natural=shoal" />
		<tag k="name" v="Hummarskjeret" />
		<tag k="place" v="islet" />
		<tag k="ssr:stedsnr" v="736371" />
	</node>
	<node id="-686029" lat="61.39217222" lon="4.45964443942">
		<tag k="name" v="Ryggsteingrunnen" />
		<tag k="natural" v="shoal" />
		<tag k="place" v="locality" />
		<tag k="ssr:stedsnr" v="736365" />
	</node>
	<node id="-683980" lat="61.3579833312" lon="4.85126943893">
		<tag k="alt_name" v="Søre Grunnevågen" />
		<tag k="name" v="Slettevika" />
		<tag k="natural" v="bay" />
		<tag k="ssr:stedsnr" v="68202" />
	</node>
	<node id="-683979" lat="61.3028695498" lon="4.65307172489">
		<tag k="alt_name" v="Hellaneven;Heljanevet" />
		<tag k="name" v="Hellerneven" />
		<tag k="place" v="islet" />
		<tag k="ssr:stedsnr" v="68424" />
	</node>
	<node id="-683978" lat="61.2986388887" lon="4.58261945189">
		<tag k="name" v="Fuglesteinen" />
		<tag k="place" v="islet" />
		<tag k="ssr:stedsnr" v="68421" />
	</node>
	<node id="-683977" lat="61.3436416622" lon="4.66650277049">
		<tag k="name" v="Gaulebåen" />
		<tag k="natural" v="shoal" />
		<tag k="place" v="locality" />
		<tag k="ssr:stedsnr" v="68415" />
	</node>
	<node id="-683975" lat="61.2645138902" lon="4.8478083256">
		<tag k="fixme" v="consider seamark:type=rock or natural=shoal" />
		<tag k="name" v="Kråka" />
		<tag k="place" v="islet" />
		<tag k="ssr:stedsnr" v="68119" />
	</node>
	<node id="-683966" lat="61.3573416673" lon="5.21149166712">
		<tag k="name" v="Kleppeneset" />
		<tag k="natural" v="cape" />
		<tag k="ssr:stedsnr" v="52422" />
	</node>
	<node id="-686013" lat="61.4761083298" lon="5.39778888097">
		<tag k="name" v="Sandvika" />
		<tag k="natural" v="bay" />
		<tag k="ssr:stedsnr" v="643471" />
	</node>
	<node id="-683963" lat="61.3775638916" lon="4.83148889702">
		<tag k="name" v="Tussenakken" />
		<tag k="natural" v="shoal" />
		<tag k="place" v="locality" />
		<tag k="ssr:stedsnr" v="234809" />
	</node>
	<node id="-686010" lat="61.2879694449" lon="4.72615833508">
		<tag k="alt_name" v="Soknevågholmen" />
		<tag k="name" v="Soknavågholmen" />
		<tag k="place" v="islet" />
		<tag k="ssr:stedsnr" v="643303" />
	</node>
	<node id="-686009" lat="61.3139972244" lon="4.75681110224">
		<tag k="name" v="Lindersnesvika" />
		<tag k="natural" v="bay" />
		<tag k="ssr:stedsnr" v="643292" />
	</node>
	<node id="-683960" lat="61.4622388895" lon="5.2324444407">
		<tag k="name" v="Holgerneset" />
		<tag k="natural" v="cape" />
		<tag k="ssr:stedsnr" v="234752" />
	</node>
	<node id="-686007" lat="61.3483083338" lon="4.82414722635">
		<tag k="name" v="Grønevika" />
		<tag k="natural" v="bay" />
		<tag k="ssr:stedsnr" v="643286" />
	</node>
	<node id="-686006" lat="61.3445194456" lon="4.82797777622">
		<tag k="name" v="Kalvågen" />
		<tag k="natural" v="bay" />
		<tag k="ssr:stedsnr" v="643284" />
	</node>
	<node id="-686005" lat="61.3120416705" lon="4.68905278108">
		<tag k="fixme" v="consider seamark:type=rock or natural=shoal" />
		<tag k="name" v="Beiteskia" />
		<tag k="place" v="islet" />
		<tag k="ssr:stedsnr" v="643267" />
	</node>
	<node id="-686003" lat="61.3206444489" lon="4.71401944393">
		<tag k="fixme" v="consider seamark:type=rock or natural=shoal" />
		<tag k="name" v="Pernilla" />
		<tag k="place" v="islet" />
		<tag k="ssr:stedsnr" v="643250" />
	</node>
	<node id="-686002" lat="61.2857916653" lon="4.62148055296">
		<tag k="name" v="Vadøy" />
		<tag k="place" v="island" />
		<tag k="ssr:stedsnr" v="643237" />
	</node>
	<node id="-683948" lat="61.2926416647" lon="4.69405832838">
		<tag k="name" v="Myrevågen" />
		<tag k="natural" v="bay" />
		<tag k="ssr:stedsnr" v="37265" />
	</node>
	<node id="-684018" lat="61.3182861115" lon="4.72685278592">
		<tag k="alt_name" v="Grisholmen" />
		<tag k="name" v="Griseholmen" />
		<tag k="place" v="islet" />
		<tag k="ssr:stedsnr" v="250136" />
	</node>
	<node id="-685994" lat="61.3218666697" lon="4.94680277699">
		<tag k="name" v="Starenes" />
		<tag k="natural" v="cape" />
		<tag k="ssr:stedsnr" v="642525" />
	</node>
	<node id="-685991" lat="61.2823472227" lon="4.76114166281">
		<tag k="fixme" v="consider seamark:type=rock or natural=shoal" />
		<tag k="name" v="Skarvågskjera" />
		<tag k="place" v="islet" />
		<tag k="ssr:stedsnr" v="642363" />
	</node>
	<node id="-685990" lat="61.2854138848" lon="4.76735556186">
		<tag k="name" v="Klubben" />
		<tag k="natural" v="cape" />
		<tag k="ssr:stedsnr" v="642360" />
	</node>
	<node id="-685989" lat="61.3137000014" lon="4.7640499965">
		<tag k="name" v="Skumannsvika" />
		<tag k="natural" v="bay" />
		<tag k="ssr:stedsnr" v="642294" />
	</node>
	<node id="-685987" lat="61.2871959907" lon="4.58505613756">
		<tag k="name" v="Grøneøyna" />
		<tag k="place" v="island" />
		<tag k="ssr:stedsnr" v="642198" />
	</node>
	<node id="-685986" lat="61.2837309753" lon="4.59180185785">
		<tag k="name" v="Litle-Mågøy" />
		<tag k="place" v="island" />
		<tag k="ssr:stedsnr" v="642183" />
	</node>
	<node id="-683937" lat="61.3856277754" lon="4.61203610648">
		<tag k="fixme" v="consider seamark:type=rock or natural=shoal" />
		<tag k="name" v="Finnsbåen" />
		<tag k="place" v="islet" />
		<tag k="ssr:stedsnr" v="8409" />
	</node>
	<node id="-683936" lat="61.4007694443" lon="4.69925554871">
		<tag k="name" v="Husøyna" />
		<tag k="place" v="islet" />
		<tag k="ssr:stedsnr" v="8405" />
	</node>
	<node id="-683935" lat="61.4077972193" lon="5.05502778313">
		<tag k="alt_name" v="Stangfjorden" />
		<tag k="bay" v="fjord" />
		<tag k="name" v="Stongfjorden" />
		<tag k="natural" v="bay" />
		<tag k="ssr:stedsnr" v="8314" />
	</node>
	<node id="-685973" lat="61.3788249956" lon="5.39500277196">
		<tag k="alt_name" v="Ospeneset" />
		<tag k="name" v="Espeneset" />
		<tag k="natural" v="cape" />
		<tag k="ssr:stedsnr" v="615666" />
	</node>
	<node id="-685971" lat="61.2475916709" lon="4.67021943875">
		<tag k="bay" v="fjord" />
		<tag k="name" v="Buefjorden" />
		<tag k="natural" v="bay" />
		<tag k="ssr:stedsnr" v="615817" />
	</node>
	<node id="-685969" lat="61.2689361122" lon="4.62495556312">
		<tag k="name" v="Storebåen" />
		<tag k="natural" v="shoal" />
		<tag k="place" v="locality" />
		<tag k="ssr:stedsnr" v="614329" />
	</node>
	<node id="-685968" lat="61.2589166669" lon="4.57588333814">
		<tag k="name" v="Seiskallen" />
		<tag k="natural" v="shoal" />
		<tag k="place" v="locality" />
		<tag k="ssr:stedsnr" v="614324" />
	</node>
	<node id="-685967" lat="61.2813916654" lon="4.56686667024">
		<tag k="name" v="Fiskeflesflua" />
		<tag k="natural" v="shoal" />
		<tag k="place" v="locality" />
		<tag k="ssr:stedsnr" v="614313" />
	</node>
	<node id="-685966" lat="61.3970999973" lon="4.78961666537">
		<tag k="name" v="Ingvaldsøyna" />
		<tag k="place" v="islet" />
		<tag k="ssr:stedsnr" v="614296" />
	</node>
	<node id="-685965" lat="61.3940111148" lon="4.79142221815">
		<tag k="fixme" v="consider seamark:type=rock or natural=shoal" />
		<tag k="name" v="Vardeskjeret" />
		<tag k="place" v="islet" />
		<tag k="ssr:stedsnr" v="614294" />
	</node>
	<node id="-685964" lat="61.4224277751" lon="5.02434166957">
		<tag k="name" v="Stavenesodden" />
		<tag k="natural" v="cape" />
		<tag k="ssr:stedsnr" v="614275" />
	</node>
	<node id="-683915" lat="61.4604250042" lon="5.22563332608">
		<tag k="name" v="Øyaholmen" />
		<tag k="place" v="islet" />
		<tag k="ssr:stedsnr" v="219690" />
	</node>
	<node id="-685962" lat="61.3546611083" lon="4.83173055947">
		<tag k="name" v="Skjenevågan" />
		<tag k="natural" v="bay" />
		<tag k="ssr:stedsnr" v="614257" />
	</node>
	<node id="-683912" lat="61.4516277801" lon="5.08657499705">
		<tag k="name" v="Tistelvika" />
		<tag k="natural" v="bay" />
		<tag k="ssr:stedsnr" v="219577" />
	</node>
	<node id="-685957" lat="61.2643583377" lon="4.83305833557">
		<tag k="alt_name" v="Brattholmen" />
		<tag k="name" v="Bunesholmen" />
		<tag k="place" v="islet" />
		<tag k="ssr:stedsnr" v="614120" />
	</node>
	<node id="-685954" lat="61.2928083324" lon="4.84935000706">
		<tag k="name" v="Hansholmen" />
		<tag k="place" v="islet" />
		<tag k="ssr:stedsnr" v="614094" />
	</node>
	<node id="-685951" lat="61.3196861119" lon="4.92746945173">
		<tag k="alt_name" v="Steinsøya" />
		<tag k="name" v="Steinsøyna" />
		<tag k="place" v="islet" />
		<tag k="ssr:stedsnr" v="614184" />
	</node>
	<node id="-685950" lat="61.3118444462" lon="4.84178333182">
		<tag k="bay" v="fjord" />
		<tag k="name" v="Aldefjorden" />
		<tag k="natural" v="bay" />
		<tag k="ssr:stedsnr" v="614180" />
	</node>
	<node id="-683901" lat="61.3783888927" lon="4.91113054998">
		<tag k="alt_name" v="Avløypsvågen" />
		<tag k="name" v="Avløypvågen" />
		<tag k="natural" v="bay" />
		<tag k="ssr:stedsnr" v="219442" />
	</node>
	<node id="-685946" lat="61.3082444444" lon="4.92998332975">
		<tag k="alt_name" v="Bleikeskjer" />
		<tag k="fixme" v="consider seamark:type=rock or natural=shoal" />
		<tag k="name" v="Bleikeskjeret" />
		<tag k="place" v="islet" />
		<tag k="ssr:stedsnr" v="614169" />
	</node>
	<node id="-685945" lat="61.3634388929" lon="5.27606111448">
		<tag k="name" v="Vikane" />
		<tag k="natural" v="bay" />
		<tag k="ssr:stedsnr" v="614167" />
	</node>
	<node id="-685944" lat="61.325002774" lon="5.0698138873">
		<tag k="fixme" v="consider seamark:type=rock or natural=shoal" />
		<tag k="name" v="Haneskjeret" />
		<tag k="place" v="islet" />
		<tag k="ssr:stedsnr" v="614165" />
	</node>
	<node id="-685943" lat="61.3522777814" lon="5.20811665694">
		<tag k="bay" v="fjord" />
		<tag k="name" v="Dalsfjorden" />
		<tag k="natural" v="bay" />
		<tag k="ssr:stedsnr" v="614084" />
	</node>
	<node id="-683894" lat="61.3761500013" lon="5.01446666964">
		<tag k="name" v="Røysaneset" />
		<tag k="natural" v="cape" />
		<tag k="ssr:stedsnr" v="218900" />
	</node>
	<node id="-685941" lat="61.4832111127" lon="5.19685555709">
		<tag k="name" v="Brugalten" />
		<tag k="natural" v="shoal" />
		<tag k="place" v="locality" />
		<tag k="ssr:stedsnr" v="614064" />
	</node>
	<node id="-683890" lat="61.2807888905" lon="4.88066943731">
		<tag k="name" v="Rekevika" />
		<tag k="natural" v="bay" />
		<tag k="ssr:stedsnr" v="218548" />
	</node>
	<node id="-685937" lat="61.4755888897" lon="5.27385833351">
		<tag k="alt_name" v="Storevik;Fluna" />
		<tag k="fixme" v="consider seamark:type=rock or natural=shoal" />
		<tag k="name" v="Storevikstaken" />
		<tag k="place" v="islet" />
		<tag k="ssr:stedsnr" v="614049" />
	</node>
	<node id="-683888" lat="61.2858694478" lon="4.7700416664">
		<tag k="name" v="Grudevågen" />
		<tag k="natural" v="bay" />
		<tag k="ssr:stedsnr" v="218373" />
	</node>
	<node id="-685934" lat="61.2804970102" lon="4.74039889418">
		<tag k="name" v="Indre Leiaholmane" />
		<tag k="place" v="islet" />
		<tag k="ssr:stedsnr" v="606969" />
	</node>
	<node id="-685932" lat="61.4533388925" lon="5.46728332817">
		<tag k="name" v="Nesskogneset" />
		<tag k="natural" v="cape" />
		<tag k="ssr:stedsnr" v="599997" />
	</node>
	<node id="-685930" lat="61.3007083317" lon="4.63198333017">
		<tag k="alt_name" v="Gjørineset;Gjørøynes" />
		<tag k="name" v="Gjørøyneset" />
		<tag k="natural" v="cape" />
		<tag k="ssr:stedsnr" v="598737" />
	</node>
	<node id="-685928" lat="61.4681972184" lon="5.29932222672">
		<tag k="name" v="Flea" />
		<tag k="natural" v="cape" />
		<tag k="ssr:stedsnr" v="598706" />
	</node>
	<node id="-685927" lat="61.3274666695" lon="4.731141658">
		<tag k="alt_name" v="Tjøraflua" />
		<tag k="name" v="Trolleskardflua" />
		<tag k="natural" v="shoal" />
		<tag k="place" v="locality" />
		<tag k="ssr:stedsnr" v="598689" />
	</node>
	<node id="-685925" lat="61.4555666638" lon="5.23109167479">
		<tag k="name" v="Kobbeneset" />
		<tag k="natural" v="cape" />
		<tag k="ssr:stedsnr" v="598525" />
	</node>
	<node id="-685924" lat="61.4600277789" lon="5.20397221696">
		<tag k="name" v="Gurifluna" />
		<tag k="natural" v="shoal" />
		<tag k="place" v="locality" />
		<tag k="ssr:stedsnr" v="598522" />
	</node>
	<node id="-685921" lat="61.326772218" lon="5.03710277989">
		<tag k="name" v="Søre Sauesundøyna" />
		<tag k="place" v="islet" />
		<tag k="ssr:stedsnr" v="598033" />
	</node>
	<node id="-685920" lat="61.3391944444" lon="5.03006667041">
		<tag k="name" v="Englandsflua" />
		<tag k="natural" v="shoal" />
		<tag k="place" v="locality" />
		<tag k="ssr:stedsnr" v="598025" />
	</node>
	<node id="-685918" lat="61.3813000005" lon="4.70276110538">
		<tag k="name" v="Nilsolanakken" />
		<tag k="natural" v="shoal" />
		<tag k="place" v="locality" />
		<tag k="ssr:stedsnr" v="598813" />
	</node>
	<node id="-685916" lat="61.3513222252" lon="4.67103889093">
		<tag k="name" v="Gabrielskjeret" />
		<tag k="place" v="islet" />
		<tag k="ssr:stedsnr" v="598769" />
	</node>
	<node id="-685911" lat="61.2945527745" lon="4.62344999979">
		<tag k="name" v="Kvatene" />
		<tag k="natural" v="cape" />
		<tag k="ssr:stedsnr" v="583207" />
	</node>
	<node id="-684215" lat="61.2836861106" lon="4.74170832867">
		<tag k="name" v="Notaholmen" />
		<tag k="place" v="islet" />
		<tag k="ssr:stedsnr" v="461364" />
	</node>
	<node id="-685908" lat="61.2893138856" lon="4.72778054707">
		<tag k="name" v="Uraholmen" />
		<tag k="place" v="islet" />
		<tag k="ssr:stedsnr" v="583273" />
	</node>
	<node id="-685907" lat="61.2897888924" lon="4.6834361189">
		<tag k="name" v="Bjørnøysundet" />
		<tag k="natural" v="strait" />
		<tag k="ssr:stedsnr" v="583263" />
	</node>
	<node id="-685901" lat="61.4729176643" lon="5.26855499114">
		<tag k="name" v="Storevika" />
		<tag k="natural" v="bay" />
		<tag k="ssr:stedsnr" v="582800" />
	</node>
	<node id="-685900" lat="61.4789666643" lon="5.26976666509">
		<tag k="name" v="Nordrevikane" />
		<tag k="natural" v="bay" />
		<tag k="ssr:stedsnr" v="582798" />
	</node>
	<node id="-685899" lat="61.2768361106" lon="4.86170555381">
		<tag k="name" v="Søreneset" />
		<tag k="natural" v="cape" />
		<tag k="ssr:stedsnr" v="582598" />
	</node>
	<node id="-685898" lat="61.3906777785" lon="4.93194166715">
		<tag k="alt_name" v="Skumsøysund" />
		<tag k="name" v="Skumsøysundet" />
		<tag k="natural" v="strait" />
		<tag k="ssr:stedsnr" v="582444" />
	</node>
	<node id="-685895" lat="61.4718916674" lon="5.42262500678">
		<tag k="name" v="Ospeneset" />
		<tag k="natural" v="cape" />
		<tag k="ssr:stedsnr" v="582385" />
	</node>
	<node id="-685893" lat="61.3024055583" lon="4.93442776934">
		<tag k="fixme" v="consider seamark:type=rock or natural=shoal" />
		<tag k="name" v="Guleskjer" />
		<tag k="place" v="islet" />
		<tag k="ssr:stedsnr" v="582487" />
	</node>
	<node id="-685892" lat="61.3057555518" lon="4.69766943732">
		<tag k="name" v="Kylpa" />
		<tag k="natural" v="cape" />
		<tag k="ssr:stedsnr" v="582292" />
	</node>
	<node id="-685889" lat="61.2974944429" lon="4.59959722983">
		<tag k="fixme" v="consider seamark:type=rock or natural=shoal" />
		<tag k="name" v="Lonneskjera" />
		<tag k="place" v="islet" />
		<tag k="ssr:stedsnr" v="582162" />
	</node>
	<node id="-685886" lat="61.4247888846" lon="4.99064721853">
		<tag k="name" v="Langenes" />
		<tag k="natural" v="cape" />
		<tag k="ssr:stedsnr" v="581865" />
	</node>
	<node id="-685880" lat="61.3339277773" lon="5.02808332749">
		<tag k="name" v="Risholmen" />
		<tag k="place" v="islet" />
		<tag k="ssr:stedsnr" v="579973" />
	</node>
	<node id="-684132" lat="61.3790083326" lon="4.92502778367">
		<tag k="name" v="Kjørvik" />
		<tag k="natural" v="bay" />
		<tag k="ssr:stedsnr" v="280485" />
	</node>
	<node id="-685874" lat="61.3445222208" lon="4.85752222178">
		<tag k="name" v="Tvibyrgjevågen" />
		<tag k="natural" v="bay" />
		<tag k="ssr:stedsnr" v="579635" />
	</node>
	<node id="-685867" lat="61.411869443" lon="4.87273610988">
		<tag k="fixme" v="consider seamark:type=rock or natural=shoal" />
		<tag k="name" v="Håskjeret" />
		<tag k="place" v="islet" />
		<tag k="ssr:stedsnr" v="554296" />
	</node>
	<node id="-685862" lat="61.3834416668" lon="4.51156666242">
		<tag k="name" v="Sjøværskallen" />
		<tag k="natural" v="shoal" />
		<tag k="place" v="locality" />
		<tag k="ssr:stedsnr" v="554396" />
	</node>
	<node id="-685861" lat="61.3830305562" lon="4.57438610243">
		<tag k="name" v="Sørefluene" />
		<tag k="natural" v="shoal" />
		<tag k="place" v="locality" />
		<tag k="ssr:stedsnr" v="554395" />
	</node>
	<node id="-685858" lat="61.2843666633" lon="4.75843610862">
		<tag k="alt_name" v="Fettlåtneset" />
		<tag k="name" v="Fitlåtneset" />
		<tag k="natural" v="cape" />
		<tag k="ssr:stedsnr" v="554091" />
	</node>
	<node id="-685856" lat="61.4823166661" lon="5.30860000151">
		<tag k="alt_name" v="Sunnfjord" />
		<tag k="bay" v="fjord" />
		<tag k="name" v="Førdefjorden" />
		<tag k="natural" v="bay" />
		<tag k="ssr:stedsnr" v="554047" />
	</node>
	<node id="-685853" lat="61.2734914293" lon="4.60926838077">
		<tag k="name" v="Bulandet" />
		<tag k="place" v="island" />
		<tag k="ssr:stedsnr" v="553409" />
	</node>
	<node id="-685852" lat="61.3156694454" lon="4.6936194475">
		<tag k="alt_name" v="Ytrekråka;Kråka, yt" />
		<tag k="name" v="Ytre Kråka" />
		<tag k="place" v="islet" />
		<tag k="ssr:stedsnr" v="553407" />
	</node>
	<node id="-685851" lat="61.2977916654" lon="4.5490305603">
		<tag k="name" v="Hammaren" />
		<tag k="natural" v="shoal" />
		<tag k="place" v="locality" />
		<tag k="ssr:stedsnr" v="553399" />
	</node>
	<node id="-685850" lat="61.4253111148" lon="4.92553054962">
		<tag k="name" v="Kråka" />
		<tag k="place" v="islet" />
		<tag k="ssr:stedsnr" v="553359" />
	</node>
	<node id="-685849" lat="61.4256305523" lon="4.90630832622">
		<tag k="name" v="Sandholmane" />
		<tag k="place" v="islet" />
		<tag k="ssr:stedsnr" v="553357" />
	</node>
	<node id="-685848" lat="61.4176416636" lon="4.95626667332">
		<tag k="alt_name" v="Faniskjera" />
		<tag k="fixme" v="consider seamark:type=rock or natural=shoal" />
		<tag k="name" v="Faneskjera" />
		<tag k="place" v="islet" />
		<tag k="ssr:stedsnr" v="553249" />
	</node>
	<node id="-685847" lat="61.4291427579" lon="5.00057320162">
		<tag k="name" v="Ospeneset" />
		<tag k="natural" v="cape" />
		<tag k="ssr:stedsnr" v="553239" />
	</node>
	<node id="-685845" lat="61.2715888859" lon="4.61328334019">
		<tag k="alt_name" v="Navarskjer;Navarskjera" />
		<tag k="fixme" v="consider seamark:type=rock or natural=shoal" />
		<tag k="name" v="Navreskjeret" />
		<tag k="place" v="islet" />
		<tag k="ssr:stedsnr" v="553319" />
	</node>
	<node id="-685843" lat="61.3903361108" lon="4.92740554948">
		<tag k="name" v="Vaulen" />
		<tag k="natural" v="strait" />
		<tag k="ssr:stedsnr" v="553283" />
	</node>
	<node id="-685841" lat="61.3128861103" lon="5.00289999414">
		<tag k="alt_name" v="Krabben" />
		<tag k="fixme" v="consider seamark:type=rock or natural=shoal" />
		<tag k="name" v="Krabbeskjeret" />
		<tag k="place" v="islet" />
		<tag k="ssr:stedsnr" v="553143" />
	</node>
	<node id="-685840" lat="61.3101055529" lon="5.0019083347">
		<tag k="name" v="Krabbeflua" />
		<tag k="natural" v="shoal" />
		<tag k="place" v="locality" />
		<tag k="ssr:stedsnr" v="553141" />
	</node>
	<node id="-685834" lat="61.3575111069" lon="4.83172500338">
		<tag k="fixme" v="consider seamark:type=rock or natural=shoal" />
		<tag k="name" v="Håskjeret" />
		<tag k="place" v="islet" />
		<tag k="ssr:stedsnr" v="553182" />
	</node>
	<node id="-685833" lat="61.3566361146" lon="4.84421944996">
		<tag k="alt_name" v="Nordre Kvernhusvågen" />
		<tag k="name" v="Kvernhusvågen" />
		<tag k="natural" v="bay" />
		<tag k="ssr:stedsnr" v="553181" />
	</node>
	<node id="-685831" lat="61.328741665" lon="4.92546945132">
		<tag k="name" v="Nærvika" />
		<tag k="natural" v="bay" />
		<tag k="ssr:stedsnr" v="553167" />
	</node>
	<node id="-685830" lat="61.3201805575" lon="4.99239444093">
		<tag k="name" v="Naustvika" />
		<tag k="natural" v="bay" />
		<tag k="ssr:stedsnr" v="553162" />
	</node>
	<node id="-685828" lat="61.3719555572" lon="5.36308055967">
		<tag k="alt_name" v="Steiehaken" />
		<tag k="name" v="Steihalsen" />
		<tag k="natural" v="cape" />
		<tag k="ssr:stedsnr" v="553157" />
	</node>
	<node id="-685827" lat="61.3135111139" lon="4.94797777265">
		<tag k="alt_name" v="Kalsjenes" />
		<tag k="name" v="Kalvskjenneset" />
		<tag k="natural" v="cape" />
		<tag k="ssr:stedsnr" v="553154" />
	</node>
	<node id="-685825" lat="61.3445527748" lon="5.01963333628">
		<tag k="name" v="Vikaneset" />
		<tag k="natural" v="cape" />
		<tag k="ssr:stedsnr" v="553130" />
	</node>
	<node id="-685824" lat="61.3298972261" lon="5.06392500549">
		<tag k="name" v="Lauvholmen" />
		<tag k="place" v="islet" />
		<tag k="ssr:stedsnr" v="553125" />
	</node>
	<node id="-685821" lat="61.4583416707" lon="5.43901111874">
		<tag k="alt_name" v="Lauvika" />
		<tag k="name" v="Lauvvika" />
		<tag k="natural" v="bay" />
		<tag k="ssr:stedsnr" v="553112" />
	</node>
	<node id="-685815" lat="61.4643777796" lon="5.22876110772">
		<tag k="alt_name" v="Brannholmen" />
		<tag k="name" v="Brandholmen" />
		<tag k="place" v="islet" />
		<tag k="ssr:stedsnr" v="553074" />
	</node>
	<node id="-685814" lat="61.4656333365" lon="5.23798332384">
		<tag k="alt_name" v="Båtevika" />
		<tag k="name" v="Bråtevika" />
		<tag k="natural" v="bay" />
		<tag k="ssr:stedsnr" v="553071" />
	</node>
	<node id="-685813" lat="61.4572222252" lon="5.20823888773">
		<tag k="alt_name" v="Tjereholmen" />
		<tag k="name" v="Tjæreholmen" />
		<tag k="place" v="islet" />
		<tag k="ssr:stedsnr" v="553065" />
	</node>
	<node id="-685812" lat="61.3160666664" lon="4.78749166555">
		<tag k="name" v="Korsnesflua" />
		<tag k="natural" v="shoal" />
		<tag k="place" v="locality" />
		<tag k="ssr:stedsnr" v="538926" />
	</node>
	<node id="-685811" lat="61.3366499991" lon="4.85621110755">
		<tag k="name" v="Reseflua" />
		<tag k="natural" v="shoal" />
		<tag k="place" v="locality" />
		<tag k="ssr:stedsnr" v="538859" />
	</node>
	<node id="-685810" lat="61.4142055567" lon="4.98280833708">
		<tag k="name" v="Staveneshamn" />
		<tag k="natural" v="bay" />
		<tag k="ssr:stedsnr" v="537451" />
	</node>
	<node id="-685809" lat="61.3614194456" lon="5.27048333825">
		<tag k="name" v="Ripeneset" />
		<tag k="natural" v="cape" />
		<tag k="ssr:stedsnr" v="537446" />
	</node>
	<node id="-685808" lat="61.4361861109" lon="5.03152500286">
		<tag k="name" v="Livika" />
		<tag k="natural" v="bay" />
		<tag k="ssr:stedsnr" v="537437" />
	</node>
	<node id="-685796" lat="61.2787583317" lon="4.87013610837">
		<tag k="name" v="Araldevågen" />
		<tag k="natural" v="bay" />
		<tag k="ssr:stedsnr" v="522587" />
	</node>
	<node id="-685792" lat="61.4773138863" lon="5.38915277078">
		<tag k="name" v="Verpeneset" />
		<tag k="natural" v="cape" />
		<tag k="ssr:stedsnr" v="522494" />
	</node>
	<node id="-685789" lat="61.3847111137" lon="4.96394444762">
		<tag k="name" v="Stavsnesvika" />
		<tag k="natural" v="bay" />
		<tag k="ssr:stedsnr" v="522468" />
	</node>
	<node id="-683983" lat="61.375386109" lon="4.94194999435">
		<tag k="name" v="Otrebuneset" />
		<tag k="natural" v="cape" />
		<tag k="ssr:stedsnr" v="68207" />
	</node>
	<node id="-685782" lat="61.2818083302" lon="4.73218055917">
		<tag k="name" v="Tolutaholmen" />
		<tag k="place" v="islet" />
		<tag k="ssr:stedsnr" v="522304" />
	</node>
	<node id="-685780" lat="61.3125527813" lon="4.69541666573">
		<tag k="fixme" v="consider seamark:type=rock or natural=shoal" />
		<tag k="name" v="Buaskjeret" />
		<tag k="place" v="islet" />
		<tag k="ssr:stedsnr" v="522272" />
	</node>
	<node id="-685779" lat="61.3143916669" lon="4.70973055267">
		<tag k="name" v="Kalvøyvågen" />
		<tag k="natural" v="bay" />
		<tag k="ssr:stedsnr" v="522255" />
	</node>
	<node id="-685778" lat="61.2925861084" lon="4.61047777775">
		<tag k="name" v="Leiraholmane" />
		<tag k="place" v="islet" />
		<tag k="ssr:stedsnr" v="522172" />
	</node>
	<node id="-685775" lat="61.433722218" lon="5.01648333958">
		<tag k="name" v="Klubben" />
		<tag k="place" v="islet" />
		<tag k="ssr:stedsnr" v="521848" />
	</node>
	<node id="-685771" lat="61.4631499983" lon="5.36150832703">
		<tag k="name" v="Selvikneset" />
		<tag k="natural" v="cape" />
		<tag k="ssr:stedsnr" v="521516" />
	</node>
	<node id="-685766" lat="61.2863944422" lon="4.76108611591">
		<tag k="name" v="Skarvågholmen" />
		<tag k="place" v="islet" />
		<tag k="ssr:stedsnr" v="521377" />
	</node>
	<node id="-685765" lat="61.2772722208" lon="4.74108054973">
		<tag k="name" v="Legrane" />
		<tag k="place" v="islet" />
		<tag k="ssr:stedsnr" v="521344" />
	</node>
	<node id="-685763" lat="61.2989345798" lon="4.65307317851">
		<tag k="name" v="Terneholmen" />
		<tag k="place" v="islet" />
		<tag k="ssr:stedsnr" v="521228" />
	</node>
	<node id="-685762" lat="61.2868416628" lon="4.63430277051">
		<tag k="name" v="Gjørøynes" />
		<tag k="natural" v="cape" />
		<tag k="ssr:stedsnr" v="521213" />
	</node>
	<node id="-685761" lat="61.339427782" lon="5.02181388732">
		<tag k="name" v="Kyraholmen" />
		<tag k="place" v="islet" />
		<tag k="ssr:stedsnr" v="519952" />
	</node>
	<node id="-685760" lat="61.3447944432" lon="5.06386667605">
		<tag k="name" v="Kråkeholmen" />
		<tag k="place" v="islet" />
		<tag k="ssr:stedsnr" v="519891" />
	</node>
	<node id="-685755" lat="61.411375003" lon="5.10586944373">
		<tag k="alt_name" v="Korsnes" />
		<tag k="name" v="Korsneset" />
		<tag k="natural" v="cape" />
		<tag k="ssr:stedsnr" v="433713" />
	</node>
	<node id="-685752" lat="61.3939444414" lon="5.10022499306">
		<tag k="bay" v="fjord" />
		<tag k="name" v="Eidsfjorden" />
		<tag k="natural" v="bay" />
		<tag k="ssr:stedsnr" v="433694" />
	</node>
	<node id="-685751" lat="61.3525861088" lon="4.67013333464">
		<tag k="name" v="Draget" />
		<tag k="place" v="islet" />
		<tag k="ssr:stedsnr" v="433375" />
	</node>
	<node id="-685750" lat="61.360322226" lon="4.67383888666">
		<tag k="fixme" v="consider seamark:type=rock or natural=shoal" />
		<tag k="name" v="Kroken" />
		<tag k="place" v="islet" />
		<tag k="ssr:stedsnr" v="433374" />
	</node>
	<node id="-685749" lat="61.3984694461" lon="4.66337777871">
		<tag k="fixme" v="consider seamark:type=rock or natural=shoal" />
		<tag k="name" v="Stemmeskjeret" />
		<tag k="place" v="islet" />
		<tag k="ssr:stedsnr" v="433368" />
	</node>
	<node id="-685748" lat="61.3929111153" lon="4.54628334054">
		<tag k="name" v="Langfallet" />
		<tag k="natural" v="shoal" />
		<tag k="place" v="locality" />
		<tag k="ssr:stedsnr" v="433353" />
	</node>
	<node id="-685745" lat="61.4519361134" lon="5.07661666837">
		<tag k="name" v="Staurholmen" />
		<tag k="place" v="islet" />
		<tag k="ssr:stedsnr" v="433346" />
	</node>
	<node id="-685743" lat="61.409508373" lon="4.9862495718">
		<tag k="alt_name" v="Kjeholmen" />
		<tag k="name" v="Kidholmen" />
		<tag k="place" v="islet" />
		<tag k="ssr:stedsnr" v="433269" />
	</node>
	<node id="-685742" lat="61.4065166684" lon="4.73607222034">
		<tag k="name" v="Skadbåane" />
		<tag k="natural" v="shoal" />
		<tag k="place" v="locality" />
		<tag k="ssr:stedsnr" v="433262" />
	</node>
	<node id="-685740" lat="61.41571667" lon="4.91860277803">
		<tag k="name" v="Hamneholmen" />
		<tag k="place" v="islet" />
		<tag k="ssr:stedsnr" v="433248" />
	</node>
	<node id="-685737" lat="61.3658194437" lon="5.02116111872">
		<tag k="alt_name" v="Trellevikneset" />
		<tag k="name" v="Trælevikneset" />
		<tag k="natural" v="cape" />
		<tag k="ssr:stedsnr" v="433184" />
	</node>
	<node id="-685735" lat="61.3055888855" lon="4.94963889197">
		<tag k="alt_name" v="Kjeøy;Kjeøyna" />
		<tag k="name" v="Kjøøyna" />
		<tag k="place" v="islet" />
		<tag k="ssr:stedsnr" v="433099" />
	</node>
	<node id="-685734" lat="61.2764083344" lon="4.75007777787">
		<tag k="alt_name" v="Storefluskjer" />
		<tag k="fixme" v="consider seamark:type=rock or natural=shoal" />
		<tag k="name" v="Storfluskjeret" />
		<tag k="place" v="islet" />
		<tag k="ssr:stedsnr" v="433072" />
	</node>
	<node id="-685732" lat="61.3250111126" lon="4.71426388304">
		<tag k="fixme" v="consider seamark:type=rock or natural=shoal" />
		<tag k="name" v="Håskjeret" />
		<tag k="place" v="islet" />
		<tag k="ssr:stedsnr" v="432394" />
	</node>
	<node id="-685731" lat="61.3139277782" lon="4.59763333845">
		<tag k="name" v="Hansnakken" />
		<tag k="natural" v="shoal" />
		<tag k="place" v="locality" />
		<tag k="ssr:stedsnr" v="432391" />
	</node>
	<node id="-685726" lat="61.3582861142" lon="4.85669722881">
		<tag k="alt_name" v="Grunnevågen" />
		<tag k="name" v="Nordre Grunnevågen" />
		<tag k="natural" v="bay" />
		<tag k="ssr:stedsnr" v="432178" />
	</node>
	<node id="-685722" lat="61.322192665" lon="5.07942799048">
		<tag k="name" v="Dørhelleneset" />
		<tag k="natural" v="cape" />
		<tag k="ssr:stedsnr" v="432158" />
	</node>
	<node id="-685721" lat="61.3212916675" lon="4.72260832628">
		<tag k="name" v="Nordnesholmane" />
		<tag k="place" v="islet" />
		<tag k="ssr:stedsnr" v="432141" />
	</node>
	<node id="-685718" lat="61.3411694446" lon="5.0195777793">
		<tag k="name" v="Ormeneset" />
		<tag k="natural" v="cape" />
		<tag k="ssr:stedsnr" v="432136" />
	</node>
	<node id="-685715" lat="61.3444888858" lon="4.68010833466">
		<tag k="name" v="Hammaren" />
		<tag k="natural" v="shoal" />
		<tag k="place" v="locality" />
		<tag k="ssr:stedsnr" v="432367" />
	</node>
	<node id="-685713" lat="61.3879472214" lon="4.96131111609">
		<tag k="name" v="Ytsteneset" />
		<tag k="natural" v="cape" />
		<tag k="ssr:stedsnr" v="432284" />
	</node>
	<node id="-685712" lat="61.4020138847" lon="5.00689445177">
		<tag k="name" v="Kvitsteinflua" />
		<tag k="natural" v="shoal" />
		<tag k="place" v="locality" />
		<tag k="ssr:stedsnr" v="432274" />
	</node>
	<node id="-685711" lat="61.40331184" lon="5.0724284265">
		<tag k="alt_name" v="Halsholmen" />
		<tag k="name" v="Holmen" />
		<tag k="natural" v="cape" />
		<tag k="ssr:stedsnr" v="432271" />
	</node>
	<node id="-685710" lat="61.3888000026" lon="4.74885832729">
		<tag k="name" v="Leiatarane" />
		<tag k="natural" v="shoal" />
		<tag k="place" v="locality" />
		<tag k="ssr:stedsnr" v="432270" />
	</node>
	<node id="-685709" lat="61.3981361085" lon="4.87488889727">
		<tag k="fixme" v="consider seamark:type=rock or natural=shoal" />
		<tag k="name" v="Bolteskjeret" />
		<tag k="place" v="islet" />
		<tag k="ssr:stedsnr" v="432263" />
	</node>
	<node id="-685704" lat="61.4742999767" lon="5.26706457609">
		<tag k="alt_name" v="Indre Flokenesvåg;Flokenesvågen, in" />
		<tag k="name" v="Indre Flokenesvågen" />
		<tag k="natural" v="bay" />
		<tag k="ssr:stedsnr" v="432025" />
	</node>
	<node id="-685702" lat="61.3448916669" lon="5.17686110272">
		<tag k="name" v="Fjellalandet" />
		<tag k="natural" v="cape" />
		<tag k="ssr:stedsnr" v="417776" />
	</node>
	<node id="-685699" lat="61.2933222227" lon="4.66884166676">
		<tag k="name" v="Lassvågen" />
		<tag k="natural" v="bay" />
		<tag k="ssr:stedsnr" v="416162" />
	</node>
	<node id="-685698" lat="61.3305638899" lon="5.03705278571">
		<tag k="name" v="Nordre Sauesundøyna" />
		<tag k="place" v="islet" />
		<tag k="ssr:stedsnr" v="416040" />
	</node>
	<node id="-685687" lat="61.4449638849" lon="5.06203610611">
		<tag k="name" v="Plassaneset" />
		<tag k="natural" v="cape" />
		<tag k="ssr:stedsnr" v="401559" />
	</node>
	<node id="-685684" lat="61.285402782" lon="4.70345555753">
		<tag k="name" v="Drengholmen" />
		<tag k="place" v="islet" />
		<tag k="ssr:stedsnr" v="401281" />
	</node>
	<node id="-685683" lat="61.2886972194" lon="4.69191666896">
		<tag k="name" v="Reseknappen" />
		<tag k="place" v="islet" />
		<tag k="ssr:stedsnr" v="401261" />
	</node>
	<node id="-685682" lat="61.2869388858" lon="4.70085277869">
		<tag k="name" v="Kjørvik" />
		<tag k="natural" v="bay" />
		<tag k="ssr:stedsnr" v="401260" />
	</node>
	<node id="-685681" lat="61.2783361108" lon="4.70666943935">
		<tag k="alt_name" v="Nordre Sengskjera;Nordre Sæingskjera" />
		<tag k="fixme" v="consider seamark:type=rock or natural=shoal" />
		<tag k="name" v="Nordre Sædingsskjera" />
		<tag k="place" v="islet" />
		<tag k="ssr:stedsnr" v="401259" />
	</node>
	<node id="-685680" lat="61.3073416671" lon="4.69560554859">
		<tag k="name" v="Kylpeholmane" />
		<tag k="place" v="islet" />
		<tag k="ssr:stedsnr" v="401249" />
	</node>
	<node id="-685679" lat="61.4512055548" lon="5.46644722752">
		<tag k="name" v="Joneset" />
		<tag k="natural" v="cape" />
		<tag k="ssr:stedsnr" v="401245" />
	</node>
	<node id="-685678" lat="61.3090638876" lon="4.70807500519">
		<tag k="alt_name" v="Straumane" />
		<tag k="name" v="Straumen" />
		<tag k="natural" v="strait" />
		<tag k="ssr:stedsnr" v="401244" />
	</node>
	<node id="-683965" lat="61.318827778" lon="4.93453889385">
		<tag k="name" v="Søre Bardsholmen" />
		<tag k="place" v="islet" />
		<tag k="ssr:stedsnr" v="234940" />
	</node>
	<node id="-685669" lat="61.4295321494" lon="4.9994686197">
		<tag k="name" v="Magnhildvika" />
		<tag k="natural" v="bay" />
		<tag k="ssr:stedsnr" v="400785" />
	</node>
	<node id="-685662" lat="61.3249749964" lon="4.94202499871">
		<tag k="fixme" v="consider seamark:type=rock or natural=shoal" />
		<tag k="name" v="Truglane" />
		<tag k="place" v="islet" />
		<tag k="ssr:stedsnr" v="400537" />
	</node>
	<node id="-685661" lat="61.3186277765" lon="4.96939721965">
		<tag k="name" v="Vilnesvågen" />
		<tag k="natural" v="bay" />
		<tag k="ssr:stedsnr" v="400529" />
	</node>
	<node id="-683962" lat="61.3764472256" lon="4.83467500571">
		<tag k="fixme" v="consider seamark:type=rock or natural=shoal" />
		<tag k="name" v="Tussen" />
		<tag k="place" v="islet" />
		<tag k="ssr:stedsnr" v="234807" />
	</node>
	<node id="-685656" lat="61.3201055558" lon="4.94436389097">
		<tag k="name" v="Nordreeidet" />
		<tag k="natural" v="bay" />
		<tag k="ssr:stedsnr" v="400482" />
	</node>
	<node id="-685653" lat="61.3890694479" lon="4.90252499793">
		<tag k="fixme" v="consider seamark:type=rock or natural=shoal" />
		<tag k="name" v="Klungreskjeret" />
		<tag k="place" v="islet" />
		<tag k="ssr:stedsnr" v="400447" />
	</node>
	<node id="-685652" lat="61.4229055544" lon="5.14705555639">
		<tag k="name" v="Nesavika" />
		<tag k="natural" v="bay" />
		<tag k="ssr:stedsnr" v="400438" />
	</node>
	<node id="-685650" lat="61.2932722186" lon="4.76697778369">
		<tag k="name" v="Sørværet" />
		<tag k="natural" v="cape" />
		<tag k="ssr:stedsnr" v="400345" />
	</node>
	<node id="-685649" lat="61.3139277806" lon="4.77303889229">
		<tag k="name" v="Grisholmen" />
		<tag k="place" v="islet" />
		<tag k="ssr:stedsnr" v="400308" />
	</node>
	<node id="-685648" lat="61.3208583331" lon="4.75073889409">
		<tag k="fixme" v="consider seamark:type=rock or natural=shoal" />
		<tag k="name" v="Levra" />
		<tag k="place" v="islet" />
		<tag k="ssr:stedsnr" v="400303" />
	</node>
	<node id="-685647" lat="61.2953286897" lon="4.60735251318">
		<tag k="name" v="Hareholmen" />
		<tag k="place" v="islet" />
		<tag k="ssr:stedsnr" v="400159" />
	</node>
	<node id="-685646" lat="61.3271944417" lon="5.03252500659">
		<tag k="name" v="Sauesundet" />
		<tag k="natural" v="strait" />
		<tag k="ssr:stedsnr" v="397985" />
	</node>
	<node id="-683959" lat="61.3207972241" lon="4.6896611018">
		<tag k="name" v="Smellebåen" />
		<tag k="natural" v="shoal" />
		<tag k="place" v="locality" />
		<tag k="ssr:stedsnr" v="234160" />
	</node>
	<node id="-685635" lat="61.2559194444" lon="4.56228610179">
		<tag k="alt_name" v="Breiskallen" />
		<tag k="name" v="Breidskallen" />
		<tag k="natural" v="shoal" />
		<tag k="place" v="locality" />
		<tag k="ssr:stedsnr" v="372348" />
	</node>
	<node id="-685634" lat="61.4012777817" lon="4.48137221675">
		<tag k="alt_name" v="Teinegrunnen" />
		<tag k="name" v="Ternegrunnen" />
		<tag k="natural" v="shoal" />
		<tag k="place" v="locality" />
		<tag k="ssr:stedsnr" v="372401" />
	</node>
	<node id="-685633" lat="61.4098750002" lon="4.89112222906">
		<tag k="name" v="Storøyna" />
		<tag k="place" v="islet" />
		<tag k="ssr:stedsnr" v="372298" />
	</node>
	<node id="-685627" lat="61.3962305534" lon="4.78532777234">
		<tag k="name" v="Husøyna" />
		<tag k="place" v="islet" />
		<tag k="ssr:stedsnr" v="372316" />
	</node>
	<node id="-685625" lat="61.3443527761" lon="4.82423055352">
		<tag k="name" v="Tobbeneset" />
		<tag k="natural" v="cape" />
		<tag k="ssr:stedsnr" v="372242" />
	</node>
	<node id="-685618" lat="61.3142305575" lon="4.68420555913">
		<tag k="alt_name" v="Drageskjeret" />
		<tag k="fixme" v="consider seamark:type=rock or natural=shoal" />
		<tag k="name" v="Drogeskjeret" />
		<tag k="place" v="islet" />
		<tag k="ssr:stedsnr" v="371401" />
	</node>
	<node id="-685617" lat="61.3159388921" lon="4.70863889557">
		<tag k="name" v="Kalvøyna" />
		<tag k="place" v="islet" />
		<tag k="ssr:stedsnr" v="371398" />
	</node>
	<node id="-685616" lat="61.3093361149" lon="4.55493055847">
		<tag k="alt_name" v="Håkjeringnakken" />
		<tag k="name" v="Håkjeringsnakkane" />
		<tag k="natural" v="shoal" />
		<tag k="place" v="locality" />
		<tag k="ssr:stedsnr" v="371391" />
	</node>
	<node id="-685615" lat="61.2972277762" lon="4.5360250037">
		<tag k="name" v="Grunneskallen" />
		<tag k="natural" v="shoal" />
		<tag k="place" v="locality" />
		<tag k="ssr:stedsnr" v="371388" />
	</node>
	<node id="-685614" lat="61.2803611099" lon="4.66737778137">
		<tag k="alt_name" v="Kattetaren" />
		<tag k="name" v="Kattataren" />
		<tag k="natural" v="shoal" />
		<tag k="place" v="locality" />
		<tag k="ssr:stedsnr" v="371317" />
	</node>
	<node id="-685610" lat="61.4764750038" lon="5.41505000569">
		<tag k="name" v="Hamnen" />
		<tag k="natural" v="bay" />
		<tag k="ssr:stedsnr" v="371039" />
	</node>
	<node id="-685608" lat="61.3854583359" lon="4.98228611696">
		<tag k="name" v="Insteneset" />
		<tag k="natural" v="cape" />
		<tag k="ssr:stedsnr" v="371200" />
	</node>
	<node id="-685605" lat="61.3673833321" lon="4.8687361051">
		<tag k="alt_name" v="Lamholmen" />
		<tag k="name" v="Lambholmen" />
		<tag k="place" v="islet" />
		<tag k="ssr:stedsnr" v="371190" />
	</node>
	<node id="-685590" lat="61.4698583356" lon="5.18272499339">
		<tag k="name" v="Seten" />
		<tag k="place" v="locality" />
		<tag k="ssr:stedsnr" v="356530" />
	</node>
	<node id="-685589" lat="61.4770194421" lon="5.21934166577">
		<tag k="name" v="Svarteskjertaren" />
		<tag k="natural" v="shoal" />
		<tag k="place" v="locality" />
		<tag k="ssr:stedsnr" v="356525" />
	</node>
	<node id="-685588" lat="61.4197472179" lon="4.91299166079">
		<tag k="name" v="Vardøyosen" />
		<tag k="natural" v="shoal" />
		<tag k="place" v="locality" />
		<tag k="ssr:stedsnr" v="356387" />
	</node>
	<node id="-685587" lat="61.2775194413" lon="4.69013333964">
		<tag k="name" v="Einstakken" />
		<tag k="natural" v="shoal" />
		<tag k="place" v="locality" />
		<tag k="ssr:stedsnr" v="356183" />
	</node>
	<node id="-685586" lat="61.3098444451" lon="4.6749361054">
		<tag k="name" v="Blesundbåen" />
		<tag k="natural" v="shoal" />
		<tag k="place" v="locality" />
		<tag k="ssr:stedsnr" v="356177" />
	</node>
	<node id="-685585" lat="61.3201305558" lon="4.93513610444">
		<tag k="name" v="Nordre Bardsholmen" />
		<tag k="place" v="islet" />
		<tag k="ssr:stedsnr" v="355930" />
	</node>
	<node id="-685583" lat="61.2577500027" lon="4.57942777346">
		<tag k="name" v="Indre Skallen" />
		<tag k="natural" v="shoal" />
		<tag k="place" v="locality" />
		<tag k="ssr:stedsnr" v="355168" />
	</node>
	<node id="-685582" lat="61.307166665" lon="4.61234721603">
		<tag k="name" v="Søre Skallen" />
		<tag k="natural" v="shoal" />
		<tag k="place" v="locality" />
		<tag k="ssr:stedsnr" v="355147" />
	</node>
	<node id="-685581" lat="61.3828277751" lon="4.93043334145">
		<tag k="fixme" v="consider seamark:type=rock or natural=shoal" />
		<tag k="name" v="Kjørrvikskjeret" />
		<tag k="place" v="islet" />
		<tag k="ssr:stedsnr" v="355121" />
	</node>
	<node id="-683947" lat="61.3041527765" lon="4.70164166988">
		<tag k="name" v="Vangerholmen" />
		<tag k="place" v="islet" />
		<tag k="ssr:stedsnr" v="37260" />
	</node>
	<node id="-683946" lat="61.282358335" lon="4.61695554693">
		<tag k="name" v="Middagsholmen" />
		<tag k="place" v="islet" />
		<tag k="ssr:stedsnr" v="37208" />
	</node>
	<node id="-685562" lat="61.296677774" lon="4.62389444914">
		<tag k="name" v="Gjørøyvika" />
		<tag k="natural" v="bay" />
		<tag k="ssr:stedsnr" v="340249" />
	</node>
	<node id="-685561" lat="61.3068527749" lon="4.67139999372">
		<tag k="name" v="Blesundet" />
		<tag k="natural" v="strait" />
		<tag k="ssr:stedsnr" v="340232" />
	</node>
	<node id="-684053" lat="61.4405138874" lon="5.04749165979">
		<tag k="alt_name" v="Nettaskjeret" />
		<tag k="fixme" v="consider seamark:type=rock or natural=shoal" />
		<tag k="name" v="Netterskjeret" />
		<tag k="place" v="islet" />
		<tag k="ssr:stedsnr" v="251380" />
	</node>
	<node id="-685552" lat="61.4731378724" lon="5.24182306443">
		<tag k="name" v="Bjørnaneset" />
		<tag k="natural" v="cape" />
		<tag k="ssr:stedsnr" v="339773" />
	</node>
	<node id="-685549" lat="61.3024166653" lon="4.91750278021">
		<tag k="name" v="Røykalvsundet" />
		<tag k="natural" v="strait" />
		<tag k="ssr:stedsnr" v="339470" />
	</node>
	<node id="-683943" lat="61.4339694434" lon="5.0185166592">
		<tag k="name" v="Olabåtvika" />
		<tag k="natural" v="bay" />
		<tag k="ssr:stedsnr" v="36864" />
	</node>
	<node id="-685544" lat="61.2826499985" lon="4.74771944137">
		<tag k="name" v="Grøneholmen" />
		<tag k="place" v="islet" />
		<tag k="ssr:stedsnr" v="339367" />
	</node>
	<node id="-685543" lat="61.2764277741" lon="4.74197499896">
		<tag k="name" v="Skåteholmane" />
		<tag k="place" v="islet" />
		<tag k="ssr:stedsnr" v="339344" />
	</node>
	<node id="-685542" lat="61.3250305558" lon="5.01913054736">
		<tag k="name" v="Grovavika" />
		<tag k="natural" v="bay" />
		<tag k="ssr:stedsnr" v="337954" />
	</node>
	<node id="-685541" lat="61.3311666702" lon="5.03172222976">
		<tag k="fixme" v="consider seamark:type=rock or natural=shoal" />
		<tag k="name" v="Skaffaren" />
		<tag k="place" v="islet" />
		<tag k="ssr:stedsnr" v="337948" />
	</node>
	<node id="-685534" lat="61.3559722214" lon="4.88376387968">
		<tag k="alt_name" v="Bjørneneset" />
		<tag k="name" v="Bjørnaneset" />
		<tag k="natural" v="cape" />
		<tag k="ssr:stedsnr" v="337556" />
	</node>
	<node id="-685529" lat="61.3501911136" lon="5.02321918654">
		<tag k="name" v="Litle Haugsnes" />
		<tag k="natural" v="cape" />
		<tag k="ssr:stedsnr" v="337534" />
	</node>
	<node id="-685526" lat="61.4736861079" lon="4.4883500067">
		<tag k="name" v="Temba" />
		<tag k="natural" v="shoal" />
		<tag k="place" v="locality" />
		<tag k="ssr:stedsnr" v="311529" />
	</node>
	<node id="-685525" lat="61.453430557" lon="4.59443055307">
		<tag k="alt_name" v="Gunnarskjeret" />
		<tag k="fixme" v="consider seamark:type=rock or natural=shoal" />
		<tag k="name" v="Gunnarsskjeret" />
		<tag k="place" v="islet" />
		<tag k="ssr:stedsnr" v="311526" />
	</node>
	<node id="-685524" lat="61.3088638869" lon="4.68793611311">
		<tag k="fixme" v="consider seamark:type=rock or natural=shoal" />
		<tag k="name" v="Krokskjeret" />
		<tag k="place" v="islet" />
		<tag k="ssr:stedsnr" v="311479" />
	</node>
	<node id="-685523" lat="61.3004451853" lon="4.65024794119">
		<tag k="alt_name" v="Stongarholmen" />
		<tag k="name" v="Stangarholmen" />
		<tag k="place" v="islet" />
		<tag k="ssr:stedsnr" v="311454" />
	</node>
	<node id="-685522" lat="61.2977166632" lon="4.60407777152">
		<tag k="alt_name" v="Svarteskjeret" />
		<tag k="fixme" v="consider seamark:type=rock or natural=shoal" />
		<tag k="name" v="Svartskjeret" />
		<tag k="place" v="islet" />
		<tag k="ssr:stedsnr" v="311450" />
	</node>
	<node id="-685521" lat="61.3549777743" lon="4.57472222565">
		<tag k="name" v="Seiskallane" />
		<tag k="natural" v="shoal" />
		<tag k="place" v="locality" />
		<tag k="ssr:stedsnr" v="311444" />
	</node>
	<node id="-685520" lat="61.3182055522" lon="4.61422222239">
		<tag k="name" v="Nakken" />
		<tag k="natural" v="shoal" />
		<tag k="place" v="locality" />
		<tag k="ssr:stedsnr" v="311443" />
	</node>
	<node id="-685519" lat="61.4476888897" lon="4.70273610792">
		<tag k="name" v="Bendiksbåane" />
		<tag k="natural" v="shoal" />
		<tag k="place" v="locality" />
		<tag k="ssr:stedsnr" v="311433" />
	</node>
	<node id="-685517" lat="61.4276833362" lon="4.75393888675">
		<tag k="name" v="Grunnefluene" />
		<tag k="natural" v="shoal" />
		<tag k="place" v="locality" />
		<tag k="ssr:stedsnr" v="311426" />
	</node>
	<node id="-685516" lat="61.2609750012" lon="4.56619999747">
		<tag k="alt_name" v="Lofteimsgrunnen;Loftsteingrunnen" />
		<tag k="name" v="Loftheimsgrunnen" />
		<tag k="natural" v="shoal" />
		<tag k="place" v="locality" />
		<tag k="ssr:stedsnr" v="311399" />
	</node>
	<node id="-683938" lat="61.4224250038" lon="4.63673889494">
		<tag k="fixme" v="consider seamark:type=rock or natural=shoal" />
		<tag k="name" v="Einstakken" />
		<tag k="place" v="islet" />
		<tag k="ssr:stedsnr" v="8412" />
	</node>
	<node id="-685514" lat="61.2877916681" lon="4.68738610618">
		<tag k="alt_name" v="Bjørnøyna, l;Litle-Bjørnøy;Litle Bjørnholmen" />
		<tag k="name" v="Litle Bjørnøyna" />
		<tag k="place" v="islet" />
		<tag k="ssr:stedsnr" v="311391" />
	</node>
	<node id="-685513" lat="61.2836972202" lon="4.64324443672">
		<tag k="name" v="Hovden" />
		<tag k="place" v="islet" />
		<tag k="ssr:stedsnr" v="311376" />
	</node>
	<node id="-685512" lat="61.3884694476" lon="4.87548889224">
		<tag k="name" v="Heggøyflua" />
		<tag k="natural" v="shoal" />
		<tag k="place" v="locality" />
		<tag k="ssr:stedsnr" v="311362" />
	</node>
	<node id="-685511" lat="61.4037111102" lon="5.04926389053">
		<tag k="name" v="Litleskallen" />
		<tag k="natural" v="shoal" />
		<tag k="place" v="locality" />
		<tag k="ssr:stedsnr" v="311358" />
	</node>
	<node id="-685509" lat="61.4178194465" lon="4.97740832454">
		<tag k="name" v="Gardvika" />
		<tag k="natural" v="bay" />
		<tag k="ssr:stedsnr" v="311333" />
	</node>
	<node id="-685508" lat="61.4225361095" lon="4.93317222526">
		<tag k="fixme" v="consider seamark:type=rock or natural=shoal" />
		<tag k="name" v="Godskjeret" />
		<tag k="place" v="islet" />
		<tag k="ssr:stedsnr" v="311331" />
	</node>
	<node id="-685500" lat="61.3317694449" lon="4.73077776909">
		<tag k="alt_name" v="Svarteskjeret;Svartskjera" />
		<tag k="fixme" v="consider seamark:type=rock or natural=shoal" />
		<tag k="name" v="Svarteskjera" />
		<tag k="place" v="islet" />
		<tag k="ssr:stedsnr" v="311280" />
	</node>
	<node id="-685496" lat="61.3774583318" lon="4.88495833169">
		<tag k="name" v="Svelungen" />
		<tag k="place" v="islet" />
		<tag k="ssr:stedsnr" v="311266" />
	</node>
	<node id="-685495" lat="61.3720166649" lon="4.88582777502">
		<tag k="alt_name" v="Kyrøyna, in;Inste Kuøyna" />
		<tag k="loc_name" v="Smaleøyna" />
		<tag k="name" v="Inste Kyrøyna" />
		<tag k="place" v="islet" />
		<tag k="ssr:stedsnr" v="311265" />
	</node>
	<node id="-685494" lat="61.399691665" lon="5.09474999516">
		<tag k="name" v="Hella" />
		<tag k="natural" v="cape" />
		<tag k="ssr:stedsnr" v="311262" />
	</node>
	<node id="-685492" lat="61.3738472191" lon="4.94999722052">
		<tag k="name" v="Tevika" />
		<tag k="natural" v="bay" />
		<tag k="ssr:stedsnr" v="311258" />
	</node>
	<node id="-685491" lat="61.3651722225" lon="4.85996111898">
		<tag k="name" v="Klauvholmen" />
		<tag k="place" v="islet" />
		<tag k="ssr:stedsnr" v="311248" />
	</node>
	<node id="-685487" lat="61.3128194461" lon="4.75722222379">
		<tag k="alt_name" v="Lindersnes" />
		<tag k="name" v="Lindersneset" />
		<tag k="natural" v="cape" />
		<tag k="ssr:stedsnr" v="311233" />
	</node>
	<node id="-685486" lat="61.3141083345" lon="4.75353054994">
		<tag k="alt_name" v="Guleskjer" />
		<tag k="fixme" v="consider seamark:type=rock or natural=shoal" />
		<tag k="name" v="Guleskjeret" />
		<tag k="place" v="islet" />
		<tag k="ssr:stedsnr" v="311230" />
	</node>
	<node id="-685483" lat="61.307566664" lon="4.90505555326">
		<tag k="alt_name" v="Grøneviknes" />
		<tag k="name" v="Grøneneset" />
		<tag k="natural" v="cape" />
		<tag k="ssr:stedsnr" v="311220" />
	</node>
	<node id="-685481" lat="61.3033333319" lon="4.75461666061">
		<tag k="name" v="Arusen" />
		<tag k="natural" v="shoal" />
		<tag k="place" v="locality" />
		<tag k="ssr:stedsnr" v="311209" />
	</node>
	<node id="-685478" lat="61.313680556" lon="5.01953332522">
		<tag k="name" v="Krokholmen" />
		<tag k="place" v="islet" />
		<tag k="ssr:stedsnr" v="311204" />
	</node>
	<node id="-685477" lat="61.3355972256" lon="4.76426110361">
		<tag k="name" v="Trolleneset" />
		<tag k="natural" v="cape" />
		<tag k="ssr:stedsnr" v="311194" />
	</node>
	<node id="-685476" lat="61.3282944434" lon="4.7391472232">
		<tag k="name" v="Hårtaren" />
		<tag k="natural" v="shoal" />
		<tag k="place" v="locality" />
		<tag k="ssr:stedsnr" v="311192" />
	</node>
	<node id="-685475" lat="61.3354361117" lon="4.82953611973">
		<tag k="alt_name" v="Lammeneset" />
		<tag k="name" v="Lambeneset" />
		<tag k="natural" v="cape" />
		<tag k="ssr:stedsnr" v="311189" />
	</node>
	<node id="-685474" lat="61.344130559" lon="5.08395834151">
		<tag k="name" v="Askvika" />
		<tag k="natural" v="bay" />
		<tag k="ssr:stedsnr" v="311184" />
	</node>
	<node id="-685473" lat="61.3384930418" lon="5.07275304834">
		<tag k="name" v="Olsetneset" />
		<tag k="natural" v="cape" />
		<tag k="ssr:stedsnr" v="311183" />
	</node>
	<node id="-685472" lat="61.323286112" lon="4.74115555398">
		<tag k="fixme" v="consider seamark:type=rock or natural=shoal" />
		<tag k="name" v="Kvalsida" />
		<tag k="place" v="islet" />
		<tag k="ssr:stedsnr" v="311181" />
	</node>
	<node id="-685469" lat="61.3820500024" lon="5.39841388798">
		<tag k="name" v="Fossvika" />
		<tag k="natural" v="bay" />
		<tag k="ssr:stedsnr" v="311163" />
	</node>
	<node id="-685468" lat="61.2731166626" lon="4.87337500868">
		<tag k="alt_name" v="Kjeskjeret;Tiskjeret" />
		<tag k="fixme" v="consider seamark:type=rock or natural=shoal" />
		<tag k="name" v="Kidskjeret" />
		<tag k="place" v="islet" />
		<tag k="ssr:stedsnr" v="311143" />
	</node>
	<node id="-685466" lat="61.4702944459" lon="5.42094444132">
		<tag k="alt_name" v="Runavika" />
		<tag k="name" v="Runnavika" />
		<tag k="natural" v="bay" />
		<tag k="ssr:stedsnr" v="311115" />
	</node>
	<node id="-685462" lat="61.2918361067" lon="4.78377500257">
		<tag k="name" v="Austnesholmen" />
		<tag k="place" v="islet" />
		<tag k="ssr:stedsnr" v="311104" />
	</node>
	<node id="-685461" lat="61.4596083293" lon="5.21072500192">
		<tag k="name" v="Høgeloftet" />
		<tag k="place" v="islet" />
		<tag k="ssr:stedsnr" v="311099" />
	</node>
	<node id="-685460" lat="61.4805138902" lon="5.2081249953">
		<tag k="name" v="Grunnefluna" />
		<tag k="natural" v="shoal" />
		<tag k="place" v="locality" />
		<tag k="ssr:stedsnr" v="311074" />
	</node>
	<node id="-685453" lat="61.4086611125" lon="5.1068638819">
		<tag k="alt_name" v="Årvika" />
		<tag k="name" v="Årevika" />
		<tag k="natural" v="bay" />
		<tag k="ssr:stedsnr" v="311053" />
	</node>
	<node id="-684171" lat="61.2917722202" lon="4.62085277317">
		<tag k="name" v="Grisholmen" />
		<tag k="place" v="islet" />
		<tag k="ssr:stedsnr" v="219224" />
	</node>
	<node id="-685444" lat="61.4814694473" lon="4.4869388878">
		<tag k="name" v="Taren" />
		<tag k="natural" v="shoal" />
		<tag k="place" v="locality" />
		<tag k="ssr:stedsnr" v="190501" />
	</node>
	<node id="-685443" lat="61.468930554" lon="4.47603056274">
		<tag k="name" v="Breidskallen" />
		<tag k="natural" v="shoal" />
		<tag k="place" v="locality" />
		<tag k="ssr:stedsnr" v="190496" />
	</node>
	<node id="-685440" lat="61.2650583325" lon="4.62738055552">
		<tag k="name" v="Storeflua" />
		<tag k="natural" v="shoal" />
		<tag k="place" v="locality" />
		<tag k="ssr:stedsnr" v="190339" />
	</node>
	<node id="-685437" lat="61.2581888916" lon="4.56655832976">
		<tag k="name" v="Lyrenakken" />
		<tag k="natural" v="shoal" />
		<tag k="place" v="locality" />
		<tag k="ssr:stedsnr" v="190332" />
	</node>
	<node id="-685436" lat="61.2766666678" lon="4.62710832482">
		<tag k="fixme" v="consider seamark:type=rock or natural=shoal" />
		<tag k="name" v="Skaldreskjeret" />
		<tag k="place" v="islet" />
		<tag k="ssr:stedsnr" v="190329" />
	</node>
	<node id="-685434" lat="61.4015583369" lon="4.87274721696">
		<tag k="name" v="Joseftarane" />
		<tag k="natural" v="shoal" />
		<tag k="place" v="locality" />
		<tag k="ssr:stedsnr" v="190299" />
	</node>
	<node id="-685432" lat="61.4104166692" lon="4.95720277374">
		<tag k="name" v="Follevågfluene" />
		<tag k="natural" v="shoal" />
		<tag k="place" v="locality" />
		<tag k="ssr:stedsnr" v="190288" />
	</node>
	<node id="-685431" lat="61.4121916656" lon="4.97830000249">
		<tag k="alt_name" v="Storøya" />
		<tag k="name" v="Storøyna" />
		<tag k="place" v="islet" />
		<tag k="ssr:stedsnr" v="190287" />
	</node>
	<node id="-685430" lat="61.4102944311" lon="4.83111396989">
		<tag k="fixme" v="consider seamark:type=rock or natural=shoal" />
		<tag k="name" v="Blåna" />
		<tag k="place" v="islet" />
		<tag k="ssr:stedsnr" v="190281" />
	</node>
	<node id="-683939" lat="61.3448861153" lon="4.59956945316">
		<tag k="name" v="Håsteinbåen" />
		<tag k="natural" v="shoal" />
		<tag k="place" v="locality" />
		<tag k="ssr:stedsnr" v="8431" />
	</node>
	<node id="-685423" lat="61.3496995226" lon="5.01553787861">
		<tag k="name" v="Gjervika" />
		<tag k="natural" v="bay" />
		<tag k="ssr:stedsnr" v="190228" />
	</node>
	<node id="-685422" lat="61.3867138866" lon="4.96883610638">
		<tag k="name" v="Raudøyna" />
		<tag k="place" v="island" />
		<tag k="ssr:stedsnr" v="190222" />
	</node>
	<node id="-685420" lat="61.3633472215" lon="4.89344721385">
		<tag k="name" v="Herlandsvika" />
		<tag k="natural" v="bay" />
		<tag k="ssr:stedsnr" v="190203" />
	</node>
	<node id="-685418" lat="61.3208694473" lon="4.9387805506">
		<tag k="alt_name" v="Klubbenes" />
		<tag k="name" v="Klubbeneset" />
		<tag k="natural" v="cape" />
		<tag k="ssr:stedsnr" v="190199" />
	</node>
	<node id="-685417" lat="61.3215184174" lon="4.92253512602">
		<tag k="alt_name" v="Krekeholmen" />
		<tag k="name" v="Krekebærholmen" />
		<tag k="place" v="islet" />
		<tag k="ssr:stedsnr" v="190197" />
	</node>
	<node id="-685414" lat="61.3206694449" lon="5.01298055862">
		<tag k="name" v="Leirvågneset" />
		<tag k="natural" v="cape" />
		<tag k="ssr:stedsnr" v="190184" />
	</node>
	<node id="-685412" lat="61.2969583375" lon="4.75078889042">
		<tag k="name" v="Kringlevågen" />
		<tag k="natural" v="bay" />
		<tag k="ssr:stedsnr" v="190172" />
	</node>
	<node id="-684048" lat="61.347838893" lon="4.67629444307">
		<tag k="name" v="Hellersøyna" />
		<tag k="place" v="islet" />
		<tag k="ssr:stedsnr" v="250385" />
	</node>
	<node id="-685409" lat="61.3342638881" lon="4.8918722293">
		<tag k="alt_name" v="Skarvikholmen;Skardvikholmen" />
		<tag k="name" v="Skardvikeholmen" />
		<tag k="place" v="islet" />
		<tag k="ssr:stedsnr" v="190158" />
	</node>
	<node id="-685406" lat="61.3189999962" lon="4.74895833917">
		<tag k="fixme" v="consider seamark:type=rock or natural=shoal" />
		<tag k="name" v="Skarveskjeret" />
		<tag k="place" v="islet" />
		<tag k="ssr:stedsnr" v="190143" />
	</node>
	<node id="-685405" lat="61.2894694414" lon="4.84432500232">
		<tag k="name" v="Kvitingane" />
		<tag k="place" v="island" />
		<tag k="ssr:stedsnr" v="190099" />
	</node>
	<node id="-685404" lat="61.3070055594" lon="5.0181944461">
		<tag k="name" v="Møkalasset" />
		<tag k="natural" v="shoal" />
		<tag k="place" v="locality" />
		<tag k="ssr:stedsnr" v="190091" />
	</node>
	<node id="-685403" lat="61.2868916627" lon="4.85076943722">
		<tag k="alt_name" v="Leirkviting" />
		<tag k="name" v="Leirkvitingen" />
		<tag k="place" v="islet" />
		<tag k="ssr:stedsnr" v="190074" />
	</node>
	<node id="-685401" lat="61.4679555525" lon="5.21737499605">
		<tag k="fixme" v="consider seamark:type=rock or natural=shoal" />
		<tag k="name" v="Kviteskjeret" />
		<tag k="place" v="islet" />
		<tag k="ssr:stedsnr" v="190041" />
	</node>
	<node id="-685397" lat="61.2989250007" lon="4.63920277091">
		<tag k="fixme" v="consider seamark:type=rock or natural=shoal" />
		<tag k="name" v="Brosma" />
		<tag k="place" v="islet" />
		<tag k="ssr:stedsnr" v="189389" />
	</node>
	<node id="-685396" lat="61.3373666675" lon="4.60700833017">
		<tag k="name" v="Synstetaren" />
		<tag k="natural" v="shoal" />
		<tag k="place" v="locality" />
		<tag k="ssr:stedsnr" v="189368" />
	</node>
	<node id="-685395" lat="61.3933083332" lon="4.96751666545">
		<tag k="alt_name" v="Kjerringrevet" />
		<tag k="name" v="Kjeringerevet" />
		<tag k="natural" v="shoal" />
		<tag k="place" v="locality" />
		<tag k="ssr:stedsnr" v="189267" />
	</node>
	<node id="-685394" lat="61.4011611129" lon="5.05372778457">
		<tag k="name" v="Follevågneset" />
		<tag k="natural" v="cape" />
		<tag k="ssr:stedsnr" v="189260" />
	</node>
	<node id="-685393" lat="61.3879055554" lon="4.73865000902">
		<tag k="name" v="Melskjeret" />
		<tag k="place" v="islet" />
		<tag k="ssr:stedsnr" v="189257" />
	</node>
	<node id="-685392" lat="61.3976805549" lon="4.89255555663">
		<tag k="alt_name" v="Smellværosen" />
		<tag k="name" v="Smelværosen" />
		<tag k="natural" v="strait" />
		<tag k="ssr:stedsnr" v="189254" />
	</node>
	<node id="-685387" lat="61.4575583307" lon="5.19393888727">
		<tag k="alt_name" v="Rognholmane" />
		<tag k="name" v="Rognholmen" />
		<tag k="place" v="islet" />
		<tag k="ssr:stedsnr" v="189065" />
	</node>
	<node id="-685384" lat="61.4172555552" lon="5.13089167287">
		<tag k="name" v="Ytstevika" />
		<tag k="natural" v="bay" />
		<tag k="ssr:stedsnr" v="189055" />
	</node>
	<node id="-685380" lat="61.4075083377" lon="5.10522777911">
		<tag k="name" v="Krokholmen" />
		<tag k="natural" v="cape" />
		<tag k="ssr:stedsnr" v="189036" />
	</node>
	<node id="-685379" lat="58.1513083303" lon="6.29712777181">
		<tag k="name" v="Nordsjøen" />
		<tag k="name:en" v="North Sea" />
		<tag k="name:no" v="Nordsjøen" />
		<tag k="place" v="sea" />
		<tag k="ssr:stedsnr" v="182096" />
	</node>
	<node id="-685378" lat="61.4667694421" lon="5.30460000643">
		<tag k="name" v="Skorvehammaren" />
		<tag k="natural" v="cape" />
		<tag k="ssr:stedsnr" v="174759" />
	</node>
	<node id="-685963" lat="61.4223527765" lon="4.99271666434">
		<tag k="name" v="Holevika" />
		<tag k="natural" v="bay" />
		<tag k="ssr:stedsnr" v="614270" />
	</node>
	<node id="-685376" lat="61.321680553" lon="4.68580000183">
		<tag k="name" v="Grimeskallen" />
		<tag k="natural" v="shoal" />
		<tag k="place" v="locality" />
		<tag k="ssr:stedsnr" v="174186" />
	</node>
	<node id="-685375" lat="61.3262444401" lon="4.92167777982">
		<tag k="name" v="Småskjera" />
		<tag k="natural" v="shoal" />
		<tag k="place" v="locality" />
		<tag k="ssr:stedsnr" v="173934" />
	</node>
	<node id="-685374" lat="61.3244333364" lon="4.81087500723">
		<tag k="name" v="Midfjordflua" />
		<tag k="natural" v="shoal" />
		<tag k="place" v="locality" />
		<tag k="ssr:stedsnr" v="173899" />
	</node>
	<node id="-685373" lat="61.3259694415" lon="4.71611666639">
		<tag k="name" v="Håskjerflua" />
		<tag k="natural" v="shoal" />
		<tag k="place" v="locality" />
		<tag k="ssr:stedsnr" v="173804" />
	</node>
	<node id="-685372" lat="61.3020472185" lon="4.9469388902">
		<tag k="name" v="Ryggen" />
		<tag k="natural" v="shoal" />
		<tag k="place" v="locality" />
		<tag k="ssr:stedsnr" v="173597" />
	</node>
	<node id="-685369" lat="61.4293498426" lon="5.00176355546">
		<tag k="name" v="Svartoksen" />
		<tag k="natural" v="cape" />
		<tag k="ssr:stedsnr" v="173431" />
	</node>
	<node id="-685367" lat="61.4526944415" lon="5.09385555219">
		<tag k="name" v="Gullnakkvika" />
		<tag k="natural" v="bay" />
		<tag k="ssr:stedsnr" v="159000" />
	</node>
	<node id="-685366" lat="61.4563555555" lon="5.20301388601">
		<tag k="name" v="Smelvernes" />
		<tag k="natural" v="cape" />
		<tag k="ssr:stedsnr" v="158995" />
	</node>
	<node id="-685357" lat="61.2794722238" lon="4.86363889552">
		<tag k="name" v="Rundeholmen" />
		<tag k="place" v="islet" />
		<tag k="ssr:stedsnr" v="158604" />
	</node>
	<node id="-685351" lat="61.4060027805" lon="5.10423889593">
		<tag k="name" v="Syhalsen" />
		<tag k="natural" v="cape" />
		<tag k="ssr:stedsnr" v="158477" />
	</node>
	<node id="-685350" lat="61.4689777786" lon="5.35674444388">
		<tag k="name" v="Storevika" />
		<tag k="natural" v="bay" />
		<tag k="ssr:stedsnr" v="158476" />
	</node>
	<node id="-685344" lat="61.2877388899" lon="4.71637500284">
		<tag k="alt_name" v="Sølvøy" />
		<tag k="name" v="Sølvøyna" />
		<tag k="place" v="island" />
		<tag k="ssr:stedsnr" v="158321" />
	</node>
	<node id="-685343" lat="61.3469055532" lon="4.82371666354">
		<tag k="name" v="Tobbenesvåg" />
		<tag k="natural" v="bay" />
		<tag k="ssr:stedsnr" v="158315" />
	</node>
	<node id="-685342" lat="61.2801166655" lon="4.7134555602">
		<tag k="fixme" v="consider seamark:type=rock or natural=shoal" />
		<tag k="name" v="Søre Leiaskjeret" />
		<tag k="place" v="islet" />
		<tag k="ssr:stedsnr" v="158303" />
	</node>
	<node id="-685341" lat="61.310819445" lon="4.69259722284">
		<tag k="name" v="Bjorholm" />
		<tag k="place" v="islet" />
		<tag k="ssr:stedsnr" v="158292" />
	</node>
	<node id="-685340" lat="61.3033277785" lon="4.70621111013">
		<tag k="name" v="Landøygarden" />
		<tag k="natural" v="bay" />
		<tag k="ssr:stedsnr" v="158290" />
	</node>
	<node id="-685339" lat="61.3202972236" lon="4.72316389565">
		<tag k="name" v="Nordnessundet" />
		<tag k="natural" v="strait" />
		<tag k="ssr:stedsnr" v="158271" />
	</node>
	<node id="-684182" lat="61.294108337" lon="4.65527499655">
		<tag k="alt_name" v="Vardøy" />
		<tag k="name" v="Vardøyna" />
		<tag k="place" v="islet" />
		<tag k="ssr:stedsnr" v="250422" />
	</node>
	<node id="-685323" lat="61.2779527768" lon="4.74821389338">
		<tag k="name" v="Storefluholmen" />
		<tag k="place" v="islet" />
		<tag k="ssr:stedsnr" v="157311" />
	</node>
	<node id="-685320" lat="61.2885722249" lon="4.64023055961">
		<tag k="name" v="Tenglesundet" />
		<tag k="natural" v="strait" />
		<tag k="ssr:stedsnr" v="157187" />
	</node>
	<node id="-685319" lat="61.2833027793" lon="4.58675278596">
		<tag k="fixme" v="consider seamark:type=rock or natural=shoal" />
		<tag k="name" v="Varpeskjera" />
		<tag k="place" v="islet" />
		<tag k="ssr:stedsnr" v="157160" />
	</node>
	<node id="-685318" lat="61.3287138913" lon="5.03143055123">
		<tag k="name" v="Sauesundkylleren" />
		<tag k="natural" v="bay" />
		<tag k="ssr:stedsnr" v="155956" />
	</node>
	<node id="-685305" lat="61.3737333318" lon="4.88696943777">
		<tag k="alt_name" v="Tjørneholmen" />
		<tag k="name" v="Tjernholmen" />
		<tag k="place" v="islet" />
		<tag k="ssr:stedsnr" v="130690" />
	</node>
	<node id="-685303" lat="61.3567749983" lon="4.69577222577">
		<tag k="name" v="Kvannskjeret" />
		<tag k="place" v="islet" />
		<tag k="ssr:stedsnr" v="129401" />
	</node>
	<node id="-685302" lat="61.391019441" lon="4.63709722992">
		<tag k="fixme" v="consider seamark:type=rock or natural=shoal" />
		<tag k="name" v="Småskjera" />
		<tag k="place" v="islet" />
		<tag k="ssr:stedsnr" v="129381" />
	</node>
	<node id="-685299" lat="61.4318333344" lon="4.86352499086">
		<tag k="alt_name" v="Teinegrunnen" />
		<tag k="name" v="Ternegrunnen" />
		<tag k="natural" v="shoal" />
		<tag k="place" v="locality" />
		<tag k="ssr:stedsnr" v="129365" />
	</node>
	<node id="-685298" lat="61.4320416635" lon="4.77840556271">
		<tag k="name" v="Mørebåane" />
		<tag k="natural" v="shoal" />
		<tag k="place" v="locality" />
		<tag k="ssr:stedsnr" v="129364" />
	</node>
	<node id="-685296" lat="61.2602749987" lon="4.61148611483">
		<tag k="name" v="Togeskallen" />
		<tag k="natural" v="shoal" />
		<tag k="place" v="locality" />
		<tag k="ssr:stedsnr" v="129334" />
	</node>
	<node id="-685295" lat="61.2870472191" lon="4.69971667512">
		<tag k="alt_name" v="Brimnes;Ytre Brimneset" />
		<tag k="name" v="Brimneset" />
		<tag k="natural" v="cape" />
		<tag k="ssr:stedsnr" v="129332" />
	</node>
	<node id="-685294" lat="61.2871611069" lon="4.66010555331">
		<tag k="name" v="Raudholmen" />
		<tag k="place" v="islet" />
		<tag k="ssr:stedsnr" v="129330" />
	</node>
	<node id="-685291" lat="61.4058555536" lon="4.88851666671">
		<tag k="name" v="Espøyna" />
		<tag k="place" v="islet" />
		<tag k="ssr:stedsnr" v="129285" />
	</node>
	<node id="-685289" lat="61.4199694458" lon="4.89918888925">
		<tag k="name" v="Ramsøyna" />
		<tag k="place" v="islet" />
		<tag k="ssr:stedsnr" v="129273" />
	</node>
	<node id="-685283" lat="61.3774555581" lon="5.1048305559">
		<tag k="name" v="Eidsvika" />
		<tag k="natural" v="bay" />
		<tag k="ssr:stedsnr" v="129251" />
	</node>
	<node id="-685278" lat="61.377483333" lon="4.88733889492">
		<tag k="fixme" v="consider seamark:type=rock or natural=shoal" />
		<tag k="name" v="Vikskjera" />
		<tag k="place" v="islet" />
		<tag k="ssr:stedsnr" v="129227" />
	</node>
	<node id="-685276" lat="61.3788611135" lon="5.00971666684">
		<tag k="name" v="Kviteneset" />
		<tag k="natural" v="cape" />
		<tag k="ssr:stedsnr" v="129220" />
	</node>
	<node id="-685274" lat="61.2878305533" lon="4.87026388094">
		<tag k="name" v="Rundtomtaren" />
		<tag k="natural" v="shoal" />
		<tag k="place" v="locality" />
		<tag k="ssr:stedsnr" v="129100" />
	</node>
	<node id="-683897" lat="61.4437333296" lon="5.47961665827">
		<tag k="name" v="Jaktevika" />
		<tag k="natural" v="bay" />
		<tag k="ssr:stedsnr" v="218960" />
	</node>
	<node id="-685268" lat="61.3825444462" lon="5.40825000652">
		<tag k="name" v="Vikaholmen" />
		<tag k="place" v="islet" />
		<tag k="ssr:stedsnr" v="129156" />
	</node>
	<node id="-685267" lat="61.2726222231" lon="4.71805554629">
		<tag k="alt_name" v="Søre Sengskjera;Sædingsskjera, s;Søre Sæingskjera" />
		<tag k="fixme" v="consider seamark:type=rock or natural=shoal" />
		<tag k="name" v="Søre Sædingsskjera" />
		<tag k="place" v="islet" />
		<tag k="ssr:stedsnr" v="129095" />
	</node>
	<node id="-685266" lat="61.278527775" lon="4.74570000375">
		<tag k="alt_name" v="Råtevikholmen" />
		<tag k="name" v="Rotevikholmen" />
		<tag k="place" v="islet" />
		<tag k="ssr:stedsnr" v="129086" />
	</node>
	<node id="-685264" lat="61.4186444473" lon="5.13250554942">
		<tag k="name" v="Florsvika" />
		<tag k="natural" v="bay" />
		<tag k="ssr:stedsnr" v="129080" />
	</node>
	<node id="-685263" lat="61.3214444437" lon="4.70184444835">
		<tag k="name" v="Værholmane" />
		<tag k="place" v="islet" />
		<tag k="ssr:stedsnr" v="128398" />
	</node>
	<node id="-685262" lat="61.3458638884" lon="4.66482778044">
		<tag k="fixme" v="consider seamark:type=rock or natural=shoal" />
		<tag k="name" v="Småskjera" />
		<tag k="place" v="islet" />
		<tag k="ssr:stedsnr" v="128386" />
	</node>
	<node id="-685261" lat="61.3375027817" lon="4.65335277243">
		<tag k="fixme" v="consider seamark:type=rock or natural=shoal" />
		<tag k="name" v="Flatskjeret" />
		<tag k="place" v="islet" />
		<tag k="ssr:stedsnr" v="128369" />
	</node>
	<node id="-685260" lat="61.3946388911" lon="4.91691388217">
		<tag k="alt_name" v="Tjørnholmen" />
		<tag k="name" v="Tjernholmen" />
		<tag k="place" v="islet" />
		<tag k="ssr:stedsnr" v="128271" />
	</node>
	<node id="-685259" lat="61.3275444425" lon="4.78628333262">
		<tag k="alt_name" v="Fløpollen" />
		<tag k="name" v="Fløpollneset" />
		<tag k="natural" v="cape" />
		<tag k="ssr:stedsnr" v="128099" />
	</node>
	<node id="-685252" lat="61.3507083312" lon="5.17575278256">
		<tag k="name" v="Vikavika" />
		<tag k="natural" v="bay" />
		<tag k="ssr:stedsnr" v="128124" />
	</node>
	<node id="-685250" lat="61.4214027786" lon="5.13476944879">
		<tag k="name" v="Sjøberget" />
		<tag k="natural" v="cape" />
		<tag k="ssr:stedsnr" v="128001" />
	</node>
	<node id="-685249" lat="61.4769805601" lon="5.39497778036">
		<tag k="name" v="Stølsneset" />
		<tag k="natural" v="cape" />
		<tag k="ssr:stedsnr" v="128036" />
	</node>
	<node id="-685247" lat="61.4781500023" lon="5.37396389157">
		<tag k="name" v="Dyvika" />
		<tag k="natural" v="bay" />
		<tag k="ssr:stedsnr" v="128033" />
	</node>
	<node id="-685245" lat="61.4745777753" lon="5.33584166329">
		<tag k="alt_name" v="Makrellvågen" />
		<tag k="name" v="Makrelevågen" />
		<tag k="natural" v="bay" />
		<tag k="ssr:stedsnr" v="128029" />
	</node>
	<node id="-685244" lat="61.3697972255" lon="5.29783887916">
		<tag k="name" v="Melberget" />
		<tag k="natural" v="cape" />
		<tag k="ssr:stedsnr" v="114245" />
	</node>
	<node id="-685243" lat="61.3424472236" lon="4.82095000563">
		<tag k="name" v="Kalvågbåane" />
		<tag k="natural" v="shoal" />
		<tag k="place" v="locality" />
		<tag k="ssr:stedsnr" v="113795" />
	</node>
	<node id="-685242" lat="61.3563027772" lon="4.87420833721">
		<tag k="name" v="Kiparholmen" />
		<tag k="place" v="islet" />
		<tag k="ssr:stedsnr" v="113840" />
	</node>
	<node id="-685241" lat="61.4566222249" lon="5.22767500838">
		<tag k="name" v="Buneset" />
		<tag k="natural" v="cape" />
		<tag k="ssr:stedsnr" v="113500" />
	</node>
	<node id="-685237" lat="61.285366663" lon="4.73410554769">
		<tag k="name" v="Bussaholmane" />
		<tag k="place" v="islet" />
		<tag k="ssr:stedsnr" v="113165" />
	</node>
	<node id="-685236" lat="61.2799916655" lon="4.66502221857">
		<tag k="name" v="Grunneflua" />
		<tag k="natural" v="shoal" />
		<tag k="place" v="locality" />
		<tag k="ssr:stedsnr" v="113162" />
	</node>
	<node id="-685235" lat="61.2673416698" lon="4.71819722019">
		<tag k="name" v="Braken" />
		<tag k="natural" v="shoal" />
		<tag k="place" v="locality" />
		<tag k="ssr:stedsnr" v="113160" />
	</node>
	<node id="-685234" lat="61.3123666628" lon="4.67060554813">
		<tag k="name" v="Langfallet" />
		<tag k="natural" v="shoal" />
		<tag k="place" v="locality" />
		<tag k="ssr:stedsnr" v="113151" />
	</node>
	<node id="-685230" lat="61.4553805568" lon="5.22389166698">
		<tag k="name" v="Husakyllaren" />
		<tag k="natural" v="bay" />
		<tag k="ssr:stedsnr" v="98684" />
	</node>
	<node id="-685226" lat="61.28786389" lon="4.71263889491">
		<tag k="name" v="Sølvøyholmane" />
		<tag k="place" v="islet" />
		<tag k="ssr:stedsnr" v="98275" />
	</node>
	<node id="-685222" lat="61.4559638934" lon="5.19492223091">
		<tag k="name" v="Hestegarden" />
		<tag k="natural" v="beach" />
		<tag k="place" v="locality" />
		<tag k="ssr:stedsnr" v="97985" />
	</node>
	<node id="-685220" lat="61.282183335" lon="4.77116389186">
		<tag k="name" v="Raudholmen" />
		<tag k="place" v="islet" />
		<tag k="ssr:stedsnr" v="97390" />
	</node>
	<node id="-685218" lat="61.2865083327" lon="4.74653333255">
		<tag k="name" v="Stabbevågosen" />
		<tag k="place" v="locality" />
		<tag k="ssr:stedsnr" v="97375" />
	</node>
	<node id="-685217" lat="61.2924194456" lon="4.5948722208">
		<tag k="name" v="Sandøyvågen" />
		<tag k="natural" v="bay" />
		<tag k="ssr:stedsnr" v="97145" />
	</node>
	<node id="-685216" lat="61.2851805581" lon="4.59796666356">
		<tag k="name" v="Litle-Bronkja" />
		<tag k="place" v="islet" />
		<tag k="ssr:stedsnr" v="97183" />
	</node>
	<node id="-685213" lat="61.4212555597" lon="5.13245278342">
		<tag k="name" v="Navaren" />
		<tag k="natural" v="cape" />
		<tag k="ssr:stedsnr" v="96505" />
	</node>
	<node id="-684054" lat="61.3532222184" lon="4.65817221663">
		<tag k="fixme" v="consider seamark:type=rock or natural=shoal" />
		<tag k="name" v="Skarveskjera" />
		<tag k="place" v="islet" />
		<tag k="ssr:stedsnr" v="251412" />
	</node>
	<node id="-685203" lat="61.3270111101" lon="5.07294723161">
		<tag k="name" v="Langeneset" />
		<tag k="natural" v="cape" />
		<tag k="ssr:stedsnr" v="69766" />
	</node>
	<node id="-685202" lat="61.3995499973" lon="4.70246111175">
		<tag k="name" v="Indrøyna" />
		<tag k="place" v="islet" />
		<tag k="ssr:stedsnr" v="69389" />
	</node>
	<node id="-685199" lat="61.3473888848" lon="4.8780027705">
		<tag k="alt_name" v="Flateskjer" />
		<tag k="fixme" v="consider seamark:type=rock or natural=shoal" />
		<tag k="name" v="Flateskjeret" />
		<tag k="place" v="islet" />
		<tag k="ssr:stedsnr" v="69239" />
	</node>
	<node id="-685195" lat="61.3986805522" lon="4.80344999276">
		<tag k="alt_name" v="Store Kvannskjeret" />
		<tag k="name" v="Kvannskjeret" />
		<tag k="place" v="islet" />
		<tag k="ssr:stedsnr" v="69308" />
	</node>
	<node id="-685194" lat="61.3945333301" lon="4.85342778525">
		<tag k="fixme" v="consider seamark:type=rock or natural=shoal" />
		<tag k="name" v="Midtfjordskjeret" />
		<tag k="place" v="islet" />
		<tag k="ssr:stedsnr" v="69307" />
	</node>
	<node id="-685192" lat="61.4008111104" lon="4.77790278286">
		<tag k="name" v="Djupetaren" />
		<tag k="natural" v="shoal" />
		<tag k="place" v="locality" />
		<tag k="ssr:stedsnr" v="69304" />
	</node>
	<node id="-685186" lat="61.2677333332" lon="4.72323889745">
		<tag k="fixme" v="consider seamark:type=rock or natural=shoal" />
		<tag k="name" v="Harrbaken" />
		<tag k="place" v="islet" />
		<tag k="ssr:stedsnr" v="69077" />
	</node>
	<node id="-685182" lat="61.3021027765" lon="4.70099721582">
		<tag k="name" v="Værlandet" />
		<tag k="place" v="island" />
		<tag k="ssr:stedsnr" v="68447" />
	</node>
	<node id="-685181" lat="61.2953611156" lon="4.6318472279">
		<tag k="alt_name" v="Gjørøy" />
		<tag k="name" v="Gjørøyna" />
		<tag k="place" v="island" />
		<tag k="ssr:stedsnr" v="68444" />
	</node>
	<node id="-685179" lat="61.2772527764" lon="4.67787500693">
		<tag k="name" v="Bjørnøybåane" />
		<tag k="natural" v="shoal" />
		<tag k="place" v="locality" />
		<tag k="ssr:stedsnr" v="68347" />
	</node>
	<node id="-685178" lat="61.2532777745" lon="4.57061111182">
		<tag k="name" v="Søreskallen" />
		<tag k="natural" v="shoal" />
		<tag k="place" v="locality" />
		<tag k="ssr:stedsnr" v="68343" />
	</node>
	<node id="-685177" lat="61.3553499971" lon="5.18323332634">
		<tag k="alt_name" v="Fargarfjæra" />
		<tag k="name" v="Fargarvika" />
		<tag k="natural" v="bay" />
		<tag k="ssr:stedsnr" v="68319" />
	</node>
	<node id="-685171" lat="61.3177527795" lon="4.75361665846">
		<tag k="fixme" v="consider seamark:type=rock or natural=shoal" />
		<tag k="name" v="Dova" />
		<tag k="place" v="islet" />
		<tag k="ssr:stedsnr" v="68183" />
	</node>
	<node id="-685170" lat="61.3606666682" lon="5.22224443704">
		<tag k="name" v="Bogevika" />
		<tag k="natural" v="bay" />
		<tag k="ssr:stedsnr" v="68181" />
	</node>
	<node id="-684060" lat="61.3068194481" lon="4.91269444367">
		<tag k="name" v="Kalvågnes" />
		<tag k="natural" v="cape" />
		<tag k="ssr:stedsnr" v="97504" />
	</node>
	<node id="-685161" lat="61.4186305543" lon="4.9219361198">
		<tag k="name" v="Rundholmen" />
		<tag k="place" v="islet" />
		<tag k="ssr:stedsnr" v="68264" />
	</node>
	<node id="-684220" lat="61.3181194429" lon="4.92891944391">
		<tag k="name" v="Bumanns-sundet" />
		<tag k="natural" v="strait" />
		<tag k="ssr:stedsnr" v="461490" />
	</node>
	<node id="-685158" lat="61.4652444468" lon="5.35626666121">
		<tag k="name" v="Gjelsvika" />
		<tag k="natural" v="bay" />
		<tag k="ssr:stedsnr" v="68087" />
	</node>
	<node id="-685157" lat="61.2891500036" lon="4.86311944771">
		<tag k="alt_name" v="Fjordamansegeren" />
		<tag k="fixme" v="consider seamark:type=rock or natural=shoal" />
		<tag k="name" v="Grøneskjeret" />
		<tag k="place" v="islet" />
		<tag k="ssr:stedsnr" v="68086" />
	</node>
	<node id="-685156" lat="61.2899888934" lon="4.72850278286">
		<tag k="alt_name" v="Soknevågen" />
		<tag k="name" v="Soknavågen" />
		<tag k="natural" v="bay" />
		<tag k="ssr:stedsnr" v="68075" />
	</node>
	<node id="-685154" lat="61.4794499972" lon="5.23372499637">
		<tag k="alt_name" v="Breivika;Breidvika" />
		<tag k="name" v="Breidvikane" />
		<tag k="natural" v="bay" />
		<tag k="ssr:stedsnr" v="68057" />
	</node>
	<node id="-685150" lat="61.4726861076" lon="5.34320278043">
		<tag k="name" v="Nesavika" />
		<tag k="natural" v="bay" />
		<tag k="ssr:stedsnr" v="68034" />
	</node>
	<node id="-685149" lat="61.4725288902" lon="5.24827844879">
		<tag k="alt_name" v="Ytre Flokenesvåg;Flokenesvågen, yt" />
		<tag k="name" v="Ytre Flokenesvågen" />
		<tag k="natural" v="bay" />
		<tag k="ssr:stedsnr" v="68029" />
	</node>
	<node id="-685145" lat="61.3326055539" lon="5.06962778086">
		<tag k="alt_name" v="Prestøysundet" />
		<tag k="name" v="Olssundet" />
		<tag k="natural" v="strait" />
		<tag k="ssr:stedsnr" v="68137" />
	</node>
	<node id="-685141" lat="61.2914138851" lon="4.69726944862">
		<tag k="name" v="Myrevågholmen" />
		<tag k="place" v="islet" />
		<tag k="ssr:stedsnr" v="53190" />
	</node>
	<node id="-685140" lat="61.2927388858" lon="4.82473055261">
		<tag k="name" v="Skardholmsundet" />
		<tag k="natural" v="strait" />
		<tag k="ssr:stedsnr" v="52829" />
	</node>
	<node id="-685139" lat="61.3178444453" lon="5.00062500316">
		<tag k="name" v="Brørne" />
		<tag k="natural" v="shoal" />
		<tag k="place" v="locality" />
		<tag k="ssr:stedsnr" v="52596" />
	</node>
	<node id="-685138" lat="61.3167250009" lon="5.016661111">
		<tag k="name" v="Jantaren" />
		<tag k="place" v="locality" />
		<tag k="seamark:type" v="rock" />
		<tag k="ssr:stedsnr" v="52594" />
	</node>
	<node id="-685137" lat="61.3820000043" lon="5.02811666563">
		<tag k="fixme" v="consider seamark:type=rock or natural=shoal" />
		<tag k="name" v="Bårskjeret" />
		<tag k="place" v="islet" />
		<tag k="ssr:stedsnr" v="52377" />
	</node>
	<node id="-685130" lat="61.2850083353" lon="4.73083332386">
		<tag k="name" v="Ytre Busaholmen" />
		<tag k="place" v="islet" />
		<tag k="ssr:stedsnr" v="37300" />
	</node>
	<node id="-685129" lat="61.2785972196" lon="4.73131111818">
		<tag k="name" v="Svartbakholmen" />
		<tag k="place" v="islet" />
		<tag k="ssr:stedsnr" v="37298" />
	</node>
	<node id="-685128" lat="61.2866444483" lon="4.60972499901">
		<tag k="loc_name" v="Ålettholmen" />
		<tag k="name" v="Åletholmen" />
		<tag k="place" v="islet" />
		<tag k="ssr:stedsnr" v="37200" />
	</node>
	<node id="-685126" lat="61.3143111087" lon="4.69974721898">
		<tag k="fixme" v="consider seamark:type=rock or natural=shoal" />
		<tag k="name" v="Landøyskjeret" />
		<tag k="place" v="islet" />
		<tag k="ssr:stedsnr" v="37247" />
	</node>
	<node id="-685124" lat="61.300413892" lon="4.68338333514">
		<tag k="name" v="Barsholmane" />
		<tag k="place" v="islet" />
		<tag k="ssr:stedsnr" v="37242" />
	</node>
	<node id="-684214" lat="61.2817472237" lon="4.6382055529">
		<tag k="alt_name" v="Myrbærskjeret" />
		<tag k="name" v="Myrebærskjeret" />
		<tag k="place" v="islet" />
		<tag k="ssr:stedsnr" v="461239" />
	</node>
	<node id="-685122" lat="61.2972361145" lon="4.62220555492">
		<tag k="name" v="Stongarholmen" />
		<tag k="place" v="islet" />
		<tag k="ssr:stedsnr" v="37233" />
	</node>
	<node id="-685120" lat="61.4762416669" lon="5.2335055615">
		<tag k="alt_name" v="Barholmsvika" />
		<tag k="name" v="Barholmvikane" />
		<tag k="natural" v="bay" />
		<tag k="ssr:stedsnr" v="36794" />
	</node>
	<node id="-684213" lat="61.2984193817" lon="4.61727022702">
		<tag k="fixme" v="consider seamark:type=rock or natural=shoal" />
		<tag k="name" v="Lakseskjeret" />
		<tag k="place" v="islet" />
		<tag k="ssr:stedsnr" v="461222" />
	</node>
	<node id="-683902" lat="61.3608750038" lon="4.93751667084">
		<tag k="name" v="Langeneset" />
		<tag k="natural" v="cape" />
		<tag k="ssr:stedsnr" v="219456" />
	</node>
	<node id="-685107" lat="61.4741500019" lon="5.33503333625">
		<tag k="name" v="Litleneset" />
		<tag k="natural" v="cape" />
		<tag k="ssr:stedsnr" v="36403" />
	</node>
	<node id="-685105" lat="61.285661115" lon="4.74820832728">
		<tag k="name" v="Pomholmen" />
		<tag k="place" v="islet" />
		<tag k="ssr:stedsnr" v="36341" />
	</node>
	<node id="-685104" lat="61.3020555535" lon="4.74217221995">
		<tag k="fixme" v="consider seamark:type=rock or natural=shoal" />
		<tag k="name" v="Kleivaskjeret" />
		<tag k="place" v="islet" />
		<tag k="ssr:stedsnr" v="36324" />
	</node>
	<node id="-685103" lat="61.3127138849" lon="4.76420277201">
		<tag k="name" v="Vikaholmen" />
		<tag k="place" v="islet" />
		<tag k="ssr:stedsnr" v="36296" />
	</node>
	<node id="-685101" lat="61.288050002" lon="4.63217778614">
		<tag k="fixme" v="consider seamark:type=rock or natural=shoal" />
		<tag k="name" v="Klungreskjeret" />
		<tag k="place" v="islet" />
		<tag k="ssr:stedsnr" v="36194" />
	</node>
	<node id="-685094" lat="61.4567361091" lon="5.17804445248">
		<tag k="name" v="Slåttevika" />
		<tag k="natural" v="bay" />
		<tag k="ssr:stedsnr" v="36979" />
	</node>
	<node id="-685091" lat="61.4270972193" lon="4.95140277764">
		<tag k="fixme" v="consider seamark:type=rock or natural=shoal" />
		<tag k="name" v="Ryggene" />
		<tag k="place" v="islet" />
		<tag k="ssr:stedsnr" v="8394" />
	</node>
	<node id="-685090" lat="61.4480333302" lon="5.07216944079">
		<tag k="alt_name" v="Røvingsbergtåa;Røvingsbergtåna" />
		<tag k="name" v="Revebergtåna" />
		<tag k="natural" v="cape" />
		<tag k="ssr:stedsnr" v="8386" />
	</node>
	<node id="-685088" lat="61.4352722232" lon="5.02949721833">
		<tag k="name" v="Apekrokneset" />
		<tag k="natural" v="cape" />
		<tag k="ssr:stedsnr" v="8381" />
	</node>
	<node id="-685086" lat="61.2556361083" lon="4.56738334019">
		<tag k="name" v="Midtskallen" />
		<tag k="natural" v="shoal" />
		<tag k="place" v="locality" />
		<tag k="ssr:stedsnr" v="8352" />
	</node>
	<node id="-685083" lat="61.4167888875" lon="4.88317222723">
		<tag k="fixme" v="consider seamark:type=rock or natural=shoal" />
		<tag k="name" v="Tåna" />
		<tag k="place" v="islet" />
		<tag k="ssr:stedsnr" v="8288" />
	</node>
	<node id="-685081" lat="61.3552933448" lon="4.88239329125">
		<tag k="name" v="Kiparholmen" />
		<tag k="place" v="islet" />
		<tag k="ssr:stedsnr" v="8276" />
	</node>
	<node id="-685073" lat="61.3547250004" lon="4.83438055699">
		<tag k="fixme" v="consider seamark:type=rock or natural=shoal" />
		<tag k="name" v="Grunnevågskjera" />
		<tag k="place" v="islet" />
		<tag k="ssr:stedsnr" v="8216" />
	</node>
	<node id="-685072" lat="61.3611194458" lon="4.90033333675">
		<tag k="name" v="Aurholmen" />
		<tag k="place" v="islet" />
		<tag k="ssr:stedsnr" v="8209" />
	</node>
	<node id="-685071" lat="61.3639027749" lon="5.10580555182">
		<tag k="name" v="Kylleren" />
		<tag k="natural" v="bay" />
		<tag k="ssr:stedsnr" v="8197" />
	</node>
	<node id="-685070" lat="61.3201999984" lon="5.00251110406">
		<tag k="name" v="Brørvika" />
		<tag k="natural" v="bay" />
		<tag k="ssr:stedsnr" v="8191" />
	</node>
	<node id="-685069" lat="61.3169361109" lon="4.96305832552">
		<tag k="name" v="Vilnesvika" />
		<tag k="natural" v="bay" />
		<tag k="ssr:stedsnr" v="8164" />
	</node>
	<node id="-685063" lat="61.2855138882" lon="4.7741972149">
		<tag k="fixme" v="multiple name tags, choose one and add the other to alt_name" />
		<tag k="name" v="Hestvika;Sanden" />
		<tag k="natural" v="bay" />
		<tag k="ssr:stedsnr" v="8099" />
	</node>
	<node id="-685061" lat="61.3000472184" lon="4.92222499218">
		<tag k="fixme" v="consider seamark:type=rock or natural=shoal" />
		<tag k="name" v="Perskjeret" />
		<tag k="place" v="islet" />
		<tag k="ssr:stedsnr" v="8090" />
	</node>
	<node id="-685060" lat="61.2840722192" lon="4.87238334064">
		<tag k="name" v="Nordneset" />
		<tag k="natural" v="cape" />
		<tag k="ssr:stedsnr" v="8085" />
	</node>
	<node id="-685059" lat="61.2868055562" lon="4.58181665946">
		<tag k="alt_name" v="Skoteskjer" />
		<tag k="fixme" v="consider seamark:type=rock or natural=shoal" />
		<tag k="name" v="Skoteskjeret" />
		<tag k="place" v="islet" />
		<tag k="ssr:stedsnr" v="7432" />
	</node>
	<node id="-685058" lat="61.309997224" lon="4.68396389208">
		<tag k="fixme" v="consider seamark:type=rock or natural=shoal" />
		<tag k="name" v="Leiaskjeret" />
		<tag k="place" v="islet" />
		<tag k="ssr:stedsnr" v="7419" />
	</node>
	<node id="-685057" lat="61.2982358757" lon="4.61353159495">
		<tag k="name" v="Klona" />
		<tag k="natural" v="cape" />
		<tag k="ssr:stedsnr" v="7410" />
	</node>
	<node id="-685056" lat="61.2975694418" lon="4.57052500741">
		<tag k="name" v="Ytstesteinen" />
		<tag k="place" v="islet" />
		<tag k="ssr:stedsnr" v="7407" />
	</node>
	<node id="-685055" lat="61.3347888922" lon="4.64416665925">
		<tag k="alt_name" v="Flatskjerflua, yt" />
		<tag k="name" v="Vestre Flatskjerflua" />
		<tag k="natural" v="shoal" />
		<tag k="place" v="locality" />
		<tag k="ssr:stedsnr" v="7395" />
	</node>
	<node id="-685054" lat="61.3818792407" lon="4.93079591783">
		<tag k="alt_name" v="Kjørvikneset" />
		<tag k="name" v="Kjørrvikeneset" />
		<tag k="natural" v="cape" />
		<tag k="ssr:stedsnr" v="7308" />
	</node>
	<node id="-685053" lat="61.379127579" lon="4.90838699599">
		<tag k="name" v="Avløypet" />
		<tag k="place" v="islet" />
		<tag k="ssr:stedsnr" v="7307" />
	</node>
	<node id="-685052" lat="61.3935111089" lon="4.92669722541">
		<tag k="alt_name" v="Heggøy" />
		<tag k="name" v="Heggøyna" />
		<tag k="place" v="islet" />
		<tag k="ssr:stedsnr" v="7301" />
	</node>
	<node id="-685051" lat="61.4016474044" lon="5.06944842326">
		<tag k="name" v="Steinebakkvika" />
		<tag k="natural" v="bay" />
		<tag k="ssr:stedsnr" v="7290" />
	</node>
	<node id="-685049" lat="61.379813892" lon="4.93848888118">
		<tag k="name" v="Bankeneset" />
		<tag k="natural" v="cape" />
		<tag k="ssr:stedsnr" v="7229" />
	</node>
	<node id="-685048" lat="61.3817416676" lon="4.99610556281">
		<tag k="alt_name" v="Høyvikneset" />
		<tag k="name" v="Høyvikeneset" />
		<tag k="natural" v="cape" />
		<tag k="ssr:stedsnr" v="7227" />
	</node>
	<node id="-685046" lat="61.3170611098" lon="4.78855555538">
		<tag k="name" v="Korsneset" />
		<tag k="natural" v="cape" />
		<tag k="ssr:stedsnr" v="7186" />
	</node>
	<node id="-685042" lat="61.3253555545" lon="4.91128054742">
		<tag k="name" v="Lauklandsøyna" />
		<tag k="place" v="islet" />
		<tag k="ssr:stedsnr" v="7151" />
	</node>
	<node id="-685041" lat="61.3229361075" lon="4.84525000202">
		<tag k="fixme" v="consider seamark:type=rock or natural=shoal" />
		<tag k="name" v="Senholmskjera" />
		<tag k="place" v="islet" />
		<tag k="ssr:stedsnr" v="7147" />
	</node>
	<node id="-685036" lat="61.4610111077" lon="5.34420000238">
		<tag k="name" v="Selvika" />
		<tag k="natural" v="bay" />
		<tag k="ssr:stedsnr" v="7127" />
	</node>
	<node id="-685031" lat="61.4682718719" lon="5.34391855478">
		<tag k="alt_name" v="Gjelsvik stake" />
		<tag k="fixme" v="consider seamark:type=rock or natural=shoal" />
		<tag k="name" v="Gjelsvikstaken" />
		<tag k="place" v="islet" />
		<tag k="ssr:stedsnr" v="7103" />
	</node>
	<node id="-685028" lat="61.4546249969" lon="5.15758333475">
		<tag k="name" v="Årebrotet" />
		<tag k="natural" v="strait" />
		<tag k="ssr:stedsnr" v="7074" />
	</node>
	<node id="-685024" lat="61.4760500015" lon="5.33343054766">
		<tag k="name" v="Salmonvika" />
		<tag k="natural" v="bay" />
		<tag k="ssr:stedsnr" v="7048" />
	</node>
	<node id="-685022" lat="61.4734729987" lon="5.27267304432">
		<tag k="name" v="Storevikneset" />
		<tag k="natural" v="cape" />
		<tag k="ssr:stedsnr" v="7045" />
	</node>
	<node id="-685016" lat="61.4571222259" lon="4.63561945204">
		<tag k="name" v="Blåsebåen" />
		<tag k="natural" v="shoal" />
		<tag k="place" v="locality" />
		<tag k="ssr:stedsnr" v="8515" />
	</node>
	<node id="-685015" lat="61.287936109" lon="4.82994999538">
		<tag k="name" v="Kvitingtaren" />
		<tag k="natural" v="shoal" />
		<tag k="place" v="locality" />
		<tag k="ssr:stedsnr" v="962825" />
	</node>
	<node id="-685013" lat="61.4562972197" lon="5.20884166539">
		<tag k="name" v="Låsvågen" />
		<tag k="natural" v="bay" />
		<tag k="ssr:stedsnr" v="962514" />
	</node>
	<node id="-685012" lat="61.359488887" lon="5.03764166825">
		<tag k="name" v="Leitingnes" />
		<tag k="natural" v="cape" />
		<tag k="ssr:stedsnr" v="962418" />
	</node>
	<node id="-685005" lat="61.282588893" lon="4.87092500075">
		<tag k="name" v="Steinvika" />
		<tag k="natural" v="bay" />
		<tag k="ssr:stedsnr" v="947556" />
	</node>
	<node id="-684081" lat="61.2897583295" lon="4.58712222931">
		<tag k="name" v="Tussesenga" />
		<tag k="place" v="islet" />
		<tag k="ssr:stedsnr" v="129440" />
	</node>
	<node id="-685001" lat="61.3947000007" lon="4.92777222361">
		<tag k="name" v="Heggøyvågen" />
		<tag k="natural" v="bay" />
		<tag k="ssr:stedsnr" v="947468" />
	</node>
	<node id="-684997" lat="61.2910314738" lon="4.59855196458">
		<tag k="name" v="Kyrkjeøyna" />
		<tag k="place" v="island" />
		<tag k="ssr:stedsnr" v="947163" />
	</node>
	<node id="-684995" lat="61.2966352994" lon="4.59238883082">
		<tag k="loc_name" v="Sandøyneset" />
		<tag k="name" v="Sandøynes" />
		<tag k="natural" v="cape" />
		<tag k="ssr:stedsnr" v="947153" />
	</node>
	<node id="-684994" lat="61.4333111107" lon="5.01462221599">
		<tag k="name" v="Klubbevika" />
		<tag k="natural" v="bay" />
		<tag k="ssr:stedsnr" v="946848" />
	</node>
	<node id="-684993" lat="61.3041111078" lon="4.90819999321">
		<tag k="name" v="Raudøyna" />
		<tag k="place" v="island" />
		<tag k="ssr:stedsnr" v="919722" />
	</node>
	<node id="-684992" lat="61.4253777809" lon="5.12224999968">
		<tag k="name" v="Kviteneset" />
		<tag k="natural" v="cape" />
		<tag k="ssr:stedsnr" v="919677" />
	</node>
	<node id="-684988" lat="61.3179805551" lon="4.68903888514">
		<tag k="alt_name" v="Smellebodskjeret" />
		<tag k="fixme" v="consider seamark:type=rock or natural=shoal" />
		<tag k="name" v="Smellebåskjeret" />
		<tag k="place" v="islet" />
		<tag k="ssr:stedsnr" v="918471" />
	</node>
	<node id="-684987" lat="61.3543194436" lon="4.67964999244">
		<tag k="name" v="Kalvøyna" />
		<tag k="place" v="islet" />
		<tag k="ssr:stedsnr" v="918461" />
	</node>
	<node id="-684986" lat="61.3608722207" lon="4.69402778001">
		<tag k="alt_name" v="Bottenskjera" />
		<tag k="fixme" v="consider seamark:type=rock or natural=shoal" />
		<tag k="name" v="Botnaskjeret" />
		<tag k="place" v="islet" />
		<tag k="ssr:stedsnr" v="918460" />
	</node>
	<node id="-684985" lat="61.4053138905" lon="4.68624999914">
		<tag k="fixme" v="consider seamark:type=rock or natural=shoal" />
		<tag k="name" v="Skjerdingane" />
		<tag k="place" v="islet" />
		<tag k="ssr:stedsnr" v="918427" />
	</node>
	<node id="-684984" lat="61.4457999967" lon="4.83659999926">
		<tag k="name" v="Ånaldeflua" />
		<tag k="natural" v="shoal" />
		<tag k="place" v="locality" />
		<tag k="ssr:stedsnr" v="918416" />
	</node>
	<node id="-684983" lat="61.4507666679" lon="5.07066111344">
		<tag k="name" v="Staurholmflua" />
		<tag k="natural" v="shoal" />
		<tag k="place" v="locality" />
		<tag k="ssr:stedsnr" v="918414" />
	</node>
	<node id="-684979" lat="61.3583916668" lon="4.9625416754">
		<tag k="alt_name" v="Vassbotn" />
		<tag k="name" v="Vassbotnen" />
		<tag k="natural" v="bay" />
		<tag k="ssr:stedsnr" v="918276" />
	</node>
	<node id="-684976" lat="61.2842749992" lon="4.67896388051">
		<tag k="fixme" v="consider seamark:type=rock or natural=shoal" />
		<tag k="name" v="Bjørnøyskjera" />
		<tag k="place" v="islet" />
		<tag k="ssr:stedsnr" v="918374" />
	</node>
	<node id="-684975" lat="61.2805277757" lon="4.57818055664">
		<tag k="alt_name" v="Leikaren" />
		<tag k="fixme" v="consider seamark:type=rock or natural=shoal" />
		<tag k="name" v="Leikarane" />
		<tag k="place" v="islet" />
		<tag k="ssr:stedsnr" v="918370" />
	</node>
	<node id="-684974" lat="61.2824416662" lon="4.62796667131">
		<tag k="name" v="Kjempeneset" />
		<tag k="place" v="islet" />
		<tag k="ssr:stedsnr" v="918368" />
	</node>
	<node id="-684972" lat="61.3978182442" lon="5.04890894223">
		<tag k="name" v="Kobbeneset" />
		<tag k="natural" v="cape" />
		<tag k="ssr:stedsnr" v="918358" />
	</node>
	<node id="-684971" lat="61.3958777808" lon="5.04974722938">
		<tag k="alt_name" v="Breivika;Breidvika" />
		<tag k="name" v="Breidevika" />
		<tag k="natural" v="bay" />
		<tag k="ssr:stedsnr" v="918354" />
	</node>
	<node id="-684970" lat="61.4105975513" lon="4.88558046703">
		<tag k="alt_name" v="Smellværet;Smelvær" />
		<tag k="name" v="Smelværet" />
		<tag k="place" v="island" />
		<tag k="ssr:stedsnr" v="918306" />
	</node>
	<node id="-684969" lat="61.4180500003" lon="4.80159444573">
		<tag k="alt_name" v="Kvannskjerflua, l" />
		<tag k="name" v="LItle Kvannskjerflua" />
		<tag k="natural" v="shoal" />
		<tag k="place" v="locality" />
		<tag k="ssr:stedsnr" v="918303" />
	</node>
	<node id="-684968" lat="61.3184305526" lon="4.93062499928">
		<tag k="alt_name" v="Barsholmane" />
		<tag k="name" v="Bardsholmen" />
		<tag k="place" v="islet" />
		<tag k="ssr:stedsnr" v="918205" />
	</node>
	<node id="-684962" lat="61.4597694465" lon="5.45002499205">
		<tag k="name" v="Ålasundet" />
		<tag k="natural" v="strait" />
		<tag k="ssr:stedsnr" v="918128" />
	</node>
	<node id="-684961" lat="61.2736777762" lon="4.86288056114">
		<tag k="alt_name" v="Litle Aralden" />
		<tag k="name" v="Litlaralden" />
		<tag k="place" v="islet" />
		<tag k="ssr:stedsnr" v="918123" />
	</node>
	<node id="-684960" lat="61.2675722202" lon="4.7357916752">
		<tag k="alt_name" v="Harrbakskjera" />
		<tag k="fixme" v="consider seamark:type=rock or natural=shoal" />
		<tag k="name" v="Harrbakeskjera" />
		<tag k="place" v="islet" />
		<tag k="ssr:stedsnr" v="918120" />
	</node>
	<node id="-684959" lat="61.3397194435" lon="4.54977222713">
		<tag k="alt_name" v="Svineflua" />
		<tag k="name" v="Sveineflua" />
		<tag k="natural" v="shoal" />
		<tag k="place" v="locality" />
		<tag k="ssr:stedsnr" v="917370" />
	</node>
	<node id="-684958" lat="61.3310111077" lon="4.78381665957">
		<tag k="name" v="Fløpolltaren" />
		<tag k="natural" v="shoal" />
		<tag k="place" v="locality" />
		<tag k="ssr:stedsnr" v="902874" />
	</node>
	<node id="-684957" lat="61.4588527746" lon="5.17547221637">
		<tag k="name" v="Strandafluna" />
		<tag k="natural" v="shoal" />
		<tag k="place" v="locality" />
		<tag k="ssr:stedsnr" v="902562" />
	</node>
	<node id="-684956" lat="61.4304666705" lon="4.95278611321">
		<tag k="fixme" v="consider seamark:type=rock or natural=shoal" />
		<tag k="name" v="Ryggeskallene" />
		<tag k="place" v="islet" />
		<tag k="ssr:stedsnr" v="902406" />
	</node>
	<node id="-684955" lat="61.2903166673" lon="4.57007221635">
		<tag k="name" v="Håbåen" />
		<tag k="natural" v="shoal" />
		<tag k="place" v="locality" />
		<tag k="ssr:stedsnr" v="902153" />
	</node>
	<node id="-684954" lat="61.3953361147" lon="4.90776945058">
		<tag k="name" v="Sørevågen" />
		<tag k="natural" v="bay" />
		<tag k="ssr:stedsnr" v="902117" />
	</node>
	<node id="-684953" lat="61.3620916691" lon="4.90503887962">
		<tag k="name" v="Beinvikneset" />
		<tag k="natural" v="cape" />
		<tag k="ssr:stedsnr" v="902111" />
	</node>
	<node id="-684952" lat="61.3678638894" lon="4.91468056403">
		<tag k="name" v="Søre Stølsvika" />
		<tag k="natural" v="bay" />
		<tag k="ssr:stedsnr" v="902109" />
	</node>
	<node id="-684951" lat="61.3387944474" lon="5.08000555026">
		<tag k="name" v="Klokkarneset" />
		<tag k="natural" v="cape" />
		<tag k="ssr:stedsnr" v="902078" />
	</node>
	<node id="-684948" lat="61.2778138903" lon="4.72289445278">
		<tag k="fixme" v="consider seamark:type=rock or natural=shoal" />
		<tag k="name" v="Kløvdeskjeret" />
		<tag k="place" v="islet" />
		<tag k="ssr:stedsnr" v="887305" />
	</node>
	<node id="-684947" lat="61.4507194426" lon="5.46405833216">
		<tag k="name" v="Andersvika" />
		<tag k="natural" v="bay" />
		<tag k="ssr:stedsnr" v="887263" />
	</node>
	<node id="-684945" lat="61.4118416636" lon="4.89784721831">
		<tag k="name" v="Melkeneset" />
		<tag k="place" v="islet" />
		<tag k="ssr:stedsnr" v="886408" />
	</node>
	<node id="-684944" lat="61.4179805566" lon="4.89774999613">
		<tag k="name" v="Droga" />
		<tag k="natural" v="strait" />
		<tag k="ssr:stedsnr" v="886406" />
	</node>
	<node id="-684184" lat="61.4224027821" lon="4.80973610672">
		<tag k="alt_name" v="Kvannskjerflua, store" />
		<tag k="name" v="Store Kvannskjerflua" />
		<tag k="natural" v="shoal" />
		<tag k="place" v="locality" />
		<tag k="ssr:stedsnr" v="250264" />
	</node>
	<node id="-684942" lat="61.2870833378" lon="4.75986389374">
		<tag k="alt_name" v="Skar - vågane" />
		<tag k="name" v="Skarevågane" />
		<tag k="natural" v="bay" />
		<tag k="ssr:stedsnr" v="886365" />
	</node>
	<node id="-684939" lat="61.2834638855" lon="4.64004999795">
		<tag k="name" v="Hovdesundet" />
		<tag k="natural" v="strait" />
		<tag k="ssr:stedsnr" v="886222" />
	</node>
	<node id="-684183" lat="61.4259361144" lon="4.99621388249">
		<tag k="name" v="Ospevika" />
		<tag k="natural" v="bay" />
		<tag k="ssr:stedsnr" v="250261" />
	</node>
	<node id="-684936" lat="61.3565694418" lon="5.19600834237">
		<tag k="name" v="Bakkeneståa" />
		<tag k="natural" v="bay" />
		<tag k="ssr:stedsnr" v="883706" />
	</node>
	<node id="-684933" lat="61.4543111138" lon="5.13567777149">
		<tag k="name" v="Båtevika" />
		<tag k="natural" v="bay" />
		<tag k="ssr:stedsnr" v="947942" />
	</node>
	<node id="-684931" lat="61.3762472226" lon="4.98760278488">
		<tag k="name" v="Kalvik" />
		<tag k="natural" v="bay" />
		<tag k="ssr:stedsnr" v="947837" />
	</node>
	<node id="-684924" lat="61.291297222" lon="4.86311389391">
		<tag k="fixme" v="consider seamark:type=rock or natural=shoal" />
		<tag k="name" v="Eineskjera" />
		<tag k="place" v="islet" />
		<tag k="ssr:stedsnr" v="947551" />
	</node>
	<node id="-684922" lat="61.3690944464" lon="5.10631389445">
		<tag k="name" v="Klubben" />
		<tag k="natural" v="cape" />
		<tag k="ssr:stedsnr" v="947381" />
	</node>
	<node id="-684180" lat="61.2931081807" lon="4.65106732237">
		<tag k="name" v="Brattholmen" />
		<tag k="place" v="islet" />
		<tag k="ssr:stedsnr" v="250419" />
	</node>
	<node id="-684918" lat="61.2851083295" lon="4.61625000354">
		<tag k="name" v="Halsøyvåg" />
		<tag k="natural" v="bay" />
		<tag k="ssr:stedsnr" v="947195" />
	</node>
	<node id="-684917" lat="61.2752305569" lon="4.72484999343">
		<tag k="fixme" v="consider seamark:type=rock or natural=shoal" />
		<tag k="name" v="Skrubbeholmskjera" />
		<tag k="place" v="islet" />
		<tag k="ssr:stedsnr" v="947316" />
	</node>
	<node id="-684915" lat="61.2981750035" lon="4.66429721683">
		<tag k="name" v="Melværvågen" />
		<tag k="natural" v="bay" />
		<tag k="ssr:stedsnr" v="947229" />
	</node>
	<node id="-684179" lat="61.2991333328" lon="4.66082222569">
		<tag k="alt_name" v="Ytre Melværsund" />
		<tag k="name" v="Ytre Melværsundet" />
		<tag k="natural" v="strait" />
		<tag k="ssr:stedsnr" v="250417" />
	</node>
	<node id="-684178" lat="61.2903583326" lon="4.62405276867">
		<tag k="name" v="Gjelsa" />
		<tag k="place" v="island" />
		<tag k="ssr:stedsnr" v="250413" />
	</node>
	<node id="-684902" lat="61.3164916643" lon="4.94479166496">
		<tag k="name" v="Søreeidet" />
		<tag k="natural" v="bay" />
		<tag k="ssr:stedsnr" v="946447" />
	</node>
	<node id="-684899" lat="61.3281888852" lon="4.77766666333">
		<tag k="name" v="Korsen" />
		<tag k="natural" v="cape" />
		<tag k="ssr:stedsnr" v="946299" />
	</node>
	<node id="-684897" lat="61.3472351285" lon="5.01865658699">
		<tag k="name" v="Klebergneset" />
		<tag k="natural" v="cape" />
		<tag k="ssr:stedsnr" v="944942" />
	</node>
	<node id="-684175" lat="61.299807409" lon="4.57586945369">
		<tag k="name" v="Buesteinane" />
		<tag k="place" v="islet" />
		<tag k="ssr:stedsnr" v="250402" />
	</node>
	<node id="-684888" lat="61.3721972186" lon="4.90256667506">
		<tag k="fixme" v="consider seamark:type=rock or natural=shoal" />
		<tag k="name" v="Vikskjera" />
		<tag k="place" v="islet" />
		<tag k="ssr:stedsnr" v="944606" />
	</node>
	<node id="-684884" lat="61.3375111095" lon="4.89238888383">
		<tag k="name" v="Skarvika" />
		<tag k="natural" v="bay" />
		<tag k="ssr:stedsnr" v="944591" />
	</node>
	<node id="-684880" lat="61.334292504" lon="5.17047270759">
		<tag k="alt_name" v="Vårdalsnes" />
		<tag k="name" v="Vårdalsneset" />
		<tag k="natural" v="cape" />
		<tag k="ssr:stedsnr" v="858377" />
	</node>
	<node id="-684878" lat="61.4391499971" lon="5.04597500391">
		<tag k="fixme" v="consider seamark:type=rock or natural=shoal" />
		<tag k="name" v="Geitaskjeret" />
		<tag k="place" v="islet" />
		<tag k="ssr:stedsnr" v="858364" />
	</node>
	<node id="-684876" lat="61.3360916709" lon="4.91611111737">
		<tag k="name" v="Lauklandsvika" />
		<tag k="natural" v="bay" />
		<tag k="ssr:stedsnr" v="858160" />
	</node>
	<node id="-684875" lat="61.2818305541" lon="4.75321111415">
		<tag k="alt_name" v="Kjerringa" />
		<tag k="name" v="Kjeringa" />
		<tag k="place" v="islet" />
		<tag k="ssr:stedsnr" v="858063" />
	</node>
	<node id="-684873" lat="61.3366222223" lon="4.66182221413">
		<tag k="alt_name" v="Flatskjerflua" />
		<tag k="name" v="Austflatskjerflua" />
		<tag k="natural" v="shoal" />
		<tag k="place" v="locality" />
		<tag k="ssr:stedsnr" v="857423" />
	</node>
	<node id="-684872" lat="61.3357388867" lon="4.57820833683">
		<tag k="name" v="Ulketaren" />
		<tag k="natural" v="shoal" />
		<tag k="place" v="locality" />
		<tag k="ssr:stedsnr" v="857422" />
	</node>
	<node id="-684870" lat="61.4575250028" lon="5.18556666646">
		<tag k="name" v="Verpingsholmen" />
		<tag k="place" v="islet" />
		<tag k="ssr:stedsnr" v="857081" />
	</node>
	<node id="-684868" lat="61.4560027806" lon="5.16032499959">
		<tag k="fixme" v="consider seamark:type=rock or natural=shoal" />
		<tag k="name" v="Fluskjeret" />
		<tag k="place" v="islet" />
		<tag k="ssr:stedsnr" v="857067" />
	</node>
	<node id="-684865" lat="61.4119722241" lon="5.10911944532">
		<tag k="name" v="Skjevika" />
		<tag k="natural" v="bay" />
		<tag k="ssr:stedsnr" v="857059" />
	</node>
	<node id="-684863" lat="61.4022722195" lon="4.88655000331">
		<tag k="alt_name" v="Ongholmen" />
		<tag k="name" v="Ognholmane" />
		<tag k="place" v="islet" />
		<tag k="ssr:stedsnr" v="857311" />
	</node>
	<node id="-684862" lat="61.3252666683" lon="5.07696388165">
		<tag k="name" v="Kobbevika" />
		<tag k="natural" v="bay" />
		<tag k="ssr:stedsnr" v="857179" />
	</node>
	<node id="-684858" lat="61.2625888891" lon="4.83540277854">
		<tag k="alt_name" v="Flategrunnen" />
		<tag k="name" v="Flotegrunnen" />
		<tag k="natural" v="shoal" />
		<tag k="place" v="locality" />
		<tag k="ssr:stedsnr" v="857126" />
	</node>
	<node id="-684854" lat="61.4817000001" lon="5.23375832586">
		<tag k="name" v="Saltkjelen" />
		<tag k="natural" v="cape" />
		<tag k="ssr:stedsnr" v="946793" />
	</node>
	<node id="-684853" lat="61.4817805531" lon="5.23844444468">
		<tag k="alt_name" v="Silvågen" />
		<tag k="name" v="Sølsvåg" />
		<tag k="natural" v="bay" />
		<tag k="ssr:stedsnr" v="946783" />
	</node>
	<node id="-684852" lat="61.4824262501" lon="5.24382555849">
		<tag k="fixme" v="consider seamark:type=rock or natural=shoal" />
		<tag k="name" v="Haneskjeret" />
		<tag k="place" v="islet" />
		<tag k="ssr:stedsnr" v="946780" />
	</node>
	<node id="-684851" lat="61.4743288605" lon="5.21963033741">
		<tag k="name" v="Breidfluna" />
		<tag k="natural" v="shoal" />
		<tag k="place" v="locality" />
		<tag k="ssr:stedsnr" v="842513" />
	</node>
	<node id="-684850" lat="61.3115083355" lon="4.76665834001">
		<tag k="name" v="Straumålen" />
		<tag k="natural" v="bay" />
		<tag k="ssr:stedsnr" v="841818" />
	</node>
	<node id="-684849" lat="61.3967416674" lon="4.628216664">
		<tag k="name" v="Eivindbåen" />
		<tag k="natural" v="shoal" />
		<tag k="place" v="locality" />
		<tag k="ssr:stedsnr" v="841758" />
	</node>
	<node id="-684846" lat="61.4108861139" lon="5.03597777082">
		<tag k="name" v="Åreskogvika" />
		<tag k="natural" v="bay" />
		<tag k="ssr:stedsnr" v="841311" />
	</node>
	<node id="-684845" lat="61.2728111074" lon="4.63913333752">
		<tag k="alt_name" v="Sæingskjerfluene" />
		<tag k="name" v="Sædingsskjerfluene" />
		<tag k="natural" v="shoal" />
		<tag k="place" v="locality" />
		<tag k="ssr:stedsnr" v="841169" />
	</node>
	<node id="-684844" lat="61.3361250021" lon="5.02408889334">
		<tag k="name" v="Englandsvika" />
		<tag k="natural" v="bay" />
		<tag k="ssr:stedsnr" v="216936" />
	</node>
	<node id="-684843" lat="61.2987444485" lon="4.58632778461">
		<tag k="fixme" v="consider seamark:type=rock or natural=shoal" />
		<tag k="name" v="Skatesteinen" />
		<tag k="place" v="islet" />
		<tag k="ssr:stedsnr" v="825127" />
	</node>
	<node id="-684842" lat="61.3242722262" lon="5.03179722344">
		<tag k="name" v="Bolholmen" />
		<tag k="place" v="islet" />
		<tag k="ssr:stedsnr" v="823961" />
	</node>
	<node id="-684167" lat="61.4670555598" lon="5.36338888241">
		<tag k="name" v="Holmane" />
		<tag k="place" v="islet" />
		<tag k="ssr:stedsnr" v="218507" />
	</node>
	<node id="-684837" lat="61.4039472208" lon="4.67162221988">
		<tag k="name" v="Ryggsteinen" />
		<tag k="place" v="island" />
		<tag k="ssr:stedsnr" v="797360" />
	</node>
	<node id="-684836" lat="61.272069445" lon="4.62558334078">
		<tag k="name" v="Årebrotet" />
		<tag k="natural" v="shoal" />
		<tag k="place" v="locality" />
		<tag k="ssr:stedsnr" v="797308" />
	</node>
	<node id="-684833" lat="61.3170138929" lon="4.96809721691">
		<tag k="name" v="Lundaneset" />
		<tag k="natural" v="cape" />
		<tag k="ssr:stedsnr" v="797161" />
	</node>
	<node id="-684832" lat="61.2967944457" lon="4.59665555334">
		<tag k="name" v="Hylen" />
		<tag k="natural" v="strait" />
		<tag k="ssr:stedsnr" v="796430" />
	</node>
	<node id="-684827" lat="61.3700916701" lon="4.84473610529">
		<tag k="name" v="Grunneflua" />
		<tag k="natural" v="shoal" />
		<tag k="place" v="locality" />
		<tag k="ssr:stedsnr" v="796210" />
	</node>
	<node id="-684825" lat="61.3107972246" lon="4.77531667164">
		<tag k="alt_name" v="Aldeøyna" />
		<tag k="name" v="Aldøyna" />
		<tag k="place" v="island" />
		<tag k="ssr:stedsnr" v="796169" />
	</node>
	<node id="-684817" lat="61.2753718102" lon="4.71567459392">
		<tag k="alt_name" v="Midtre Sengskjera;Midtre Sæingsskjera" />
		<tag k="fixme" v="consider seamark:type=rock or natural=shoal" />
		<tag k="name" v="Midtre Sædingsskjera" />
		<tag k="place" v="islet" />
		<tag k="ssr:stedsnr" v="788953" />
	</node>
	<node id="-684816" lat="61.3544638936" lon="4.83226389409">
		<tag k="name" v="Pøylene" />
		<tag k="natural" v="bay" />
		<tag k="ssr:stedsnr" v="780820" />
	</node>
	<node id="-684815" lat="61.2955777795" lon="4.85926666105">
		<tag k="name" v="Hjelpartåa" />
		<tag k="natural" v="shoal" />
		<tag k="place" v="locality" />
		<tag k="ssr:stedsnr" v="780814" />
	</node>
	<node id="-684813" lat="61.3687055577" lon="4.89489999443">
		<tag k="name" v="Hindøysundet" />
		<tag k="natural" v="strait" />
		<tag k="ssr:stedsnr" v="780124" />
	</node>
	<node id="-684812" lat="61.3048027795" lon="4.65986944939">
		<tag k="alt_name" v="Testholmen" />
		<tag k="name" v="Teistholmen" />
		<tag k="place" v="islet" />
		<tag k="ssr:stedsnr" v="918489" />
	</node>
	<node id="-684811" lat="61.2916249961" lon="4.56112221592">
		<tag k="name" v="Storebåen" />
		<tag k="natural" v="shoal" />
		<tag k="place" v="locality" />
		<tag k="ssr:stedsnr" v="918488" />
	</node>
	<node id="-684810" lat="61.2956138907" lon="4.63833611628">
		<tag k="name" v="Taska" />
		<tag k="place" v="islet" />
		<tag k="ssr:stedsnr" v="918480" />
	</node>
	<node id="-684806" lat="61.4085777805" lon="4.59740277595">
		<tag k="fixme" v="multiple name tags, choose one and add the other to alt_name" />
		<tag k="name" v="Oddeskallen;Oldungen" />
		<tag k="natural" v="shoal" />
		<tag k="place" v="locality" />
		<tag k="ssr:stedsnr" v="918438" />
	</node>
	<node id="-684805" lat="61.4173583307" lon="4.56411388514">
		<tag k="name" v="Storbåen" />
		<tag k="natural" v="shoal" />
		<tag k="place" v="locality" />
		<tag k="ssr:stedsnr" v="918436" />
	</node>
	<node id="-684804" lat="61.4304194403" lon="4.50784721416">
		<tag k="name" v="Ryggsteinhavet" />
		<tag k="place" v="sea" />
		<tag k="ssr:stedsnr" v="918435" />
	</node>
	<node id="-684802" lat="61.3902750011" lon="4.77797777469">
		<tag k="name" v="Storøyna" />
		<tag k="place" v="islet" />
		<tag k="ssr:stedsnr" v="918346" />
	</node>
	<node id="-684801" lat="61.3921749978" lon="4.89805832499">
		<tag k="alt_name" v="Kua" />
		<tag k="name" v="Leikua" />
		<tag k="place" v="islet" />
		<tag k="ssr:stedsnr" v="918342" />
	</node>
	<node id="-684800" lat="61.3851222262" lon="4.7227972282">
		<tag k="name" v="Nilsolabåane" />
		<tag k="natural" v="shoal" />
		<tag k="place" v="locality" />
		<tag k="ssr:stedsnr" v="918338" />
	</node>
	<node id="-684799" lat="61.4053722214" lon="4.99969443755">
		<tag k="name" v="Råneset" />
		<tag k="natural" v="cape" />
		<tag k="ssr:stedsnr" v="918330" />
	</node>
	<node id="-684798" lat="61.352002234" lon="5.02688085283">
		<tag k="alt_name" v="Haugsnes" />
		<tag k="name" v="Haugsneset" />
		<tag k="natural" v="cape" />
		<tag k="ssr:stedsnr" v="918252" />
	</node>
	<node id="-684792" lat="61.3222777814" lon="5.05502499646">
		<tag k="alt_name" v="Flatøya" />
		<tag k="name" v="Flatøyna" />
		<tag k="place" v="islet" />
		<tag k="ssr:stedsnr" v="918193" />
	</node>
	<node id="-684791" lat="61.3203861133" lon="4.97839721294">
		<tag k="alt_name" v="Garvika" />
		<tag k="name" v="Gardvika" />
		<tag k="natural" v="bay" />
		<tag k="ssr:stedsnr" v="918188" />
	</node>
	<node id="-684788" lat="61.384713886" lon="4.96170833039">
		<tag k="alt_name" v="Stavsnes" />
		<tag k="name" v="Stavsneset" />
		<tag k="natural" v="cape" />
		<tag k="ssr:stedsnr" v="918243" />
	</node>
	<node id="-684781" lat="61.3127250041" lon="4.95711110386">
		<tag k="alt_name" v="Bukkehornet" />
		<tag k="name" v="Bukkhornet" />
		<tag k="natural" v="cape" />
		<tag k="ssr:stedsnr" v="918172" />
	</node>
	<node id="-684780" lat="61.3347944416" lon="4.87561665874">
		<tag k="fixme" v="consider seamark:type=rock or natural=shoal" />
		<tag k="name" v="Bleikeskjeret" />
		<tag k="place" v="islet" />
		<tag k="ssr:stedsnr" v="918170" />
	</node>
	<node id="-684779" lat="61.331991665" lon="4.76884445079">
		<tag k="name" v="Stølsneset" />
		<tag k="natural" v="cape" />
		<tag k="ssr:stedsnr" v="918167" />
	</node>
	<node id="-684767" lat="61.4618444444" lon="5.33540278679">
		<tag k="name" v="Halsen" />
		<tag k="natural" v="cape" />
		<tag k="ssr:stedsnr" v="917074" />
	</node>
	<node id="-684765" lat="61.4577583312" lon="5.16649167461">
		<tag k="alt_name" v="Strandeskjera" />
		<tag k="fixme" v="consider seamark:type=rock or natural=shoal" />
		<tag k="name" v="Strandaskjera" />
		<tag k="place" v="islet" />
		<tag k="ssr:stedsnr" v="917033" />
	</node>
	<node id="-684760" lat="61.4764694457" lon="5.38496666997">
		<tag k="name" v="Leknesstranda" />
		<tag k="natural" v="beach" />
		<tag k="place" v="locality" />
		<tag k="ssr:stedsnr" v="765476" />
	</node>
	<node id="-684759" lat="61.2775888895" lon="4.73208054899">
		<tag k="name" v="Hytteholmen" />
		<tag k="place" v="islet" />
		<tag k="ssr:stedsnr" v="765286" />
	</node>
	<node id="-684757" lat="61.3619222187" lon="4.84210556237">
		<tag k="fixme" v="consider seamark:type=rock or natural=shoal" />
		<tag k="name" v="Grunnevågskjera" />
		<tag k="place" v="islet" />
		<tag k="ssr:stedsnr" v="765266" />
	</node>
	<node id="-684751" lat="61.3070222264" lon="4.90288889617">
		<tag k="name" v="Grønevika" />
		<tag k="natural" v="bay" />
		<tag k="ssr:stedsnr" v="764495" />
	</node>
	<node id="-683958" lat="61.2894666639" lon="4.5644361119">
		<tag k="name" v="Skaflua" />
		<tag k="natural" v="shoal" />
		<tag k="place" v="locality" />
		<tag k="ssr:stedsnr" v="234141" />
	</node>
	<node id="-684746" lat="61.3963138919" lon="4.70693888771">
		<tag k="name" v="Tallanakken" />
		<tag k="natural" v="shoal" />
		<tag k="place" v="locality" />
		<tag k="ssr:stedsnr" v="902836" />
	</node>
	<node id="-684745" lat="61.4754222179" lon="5.32349166606">
		<tag k="name" v="Vestre Tongaflua" />
		<tag k="natural" v="shoal" />
		<tag k="place" v="locality" />
		<tag k="ssr:stedsnr" v="902748" />
	</node>
	<node id="-684744" lat="61.4083888905" lon="4.71668333767">
		<tag k="name" v="Kjervikflua" />
		<tag k="natural" v="shoal" />
		<tag k="place" v="locality" />
		<tag k="ssr:stedsnr" v="902784" />
	</node>
	<node id="-684743" lat="61.3054194457" lon="4.60137221908">
		<tag k="name" v="Søre Taren" />
		<tag k="natural" v="shoal" />
		<tag k="place" v="locality" />
		<tag k="ssr:stedsnr" v="902133" />
	</node>
	<node id="-684742" lat="61.3099305544" lon="4.61158612002">
		<tag k="name" v="Midtskallen" />
		<tag k="natural" v="shoal" />
		<tag k="place" v="locality" />
		<tag k="ssr:stedsnr" v="902198" />
	</node>
	<node id="-684741" lat="61.4190666657" lon="4.53493333418">
		<tag k="name" v="Sørenfluene" />
		<tag k="natural" v="shoal" />
		<tag k="place" v="locality" />
		<tag k="ssr:stedsnr" v="901947" />
	</node>
	<node id="-684740" lat="61.3603833374" lon="4.87714443989">
		<tag k="name" v="Terneholmane" />
		<tag k="place" v="islet" />
		<tag k="ssr:stedsnr" v="724812" />
	</node>
	<node id="-684739" lat="61.2896388928" lon="4.75992777321">
		<tag k="name" v="Grindavika" />
		<tag k="natural" v="bay" />
		<tag k="ssr:stedsnr" v="720853" />
	</node>
	<node id="-684738" lat="61.388255551" lon="4.7100333287">
		<tag k="fixme" v="consider seamark:type=rock or natural=shoal" />
		<tag k="name" v="Kråka" />
		<tag k="place" v="islet" />
		<tag k="ssr:stedsnr" v="720835" />
	</node>
	<node id="-684737" lat="61.3731416663" lon="4.65038611552">
		<tag k="name" v="Austre Nygrunnen" />
		<tag k="natural" v="shoal" />
		<tag k="place" v="locality" />
		<tag k="ssr:stedsnr" v="720784" />
	</node>
	<node id="-684736" lat="61.4027249973" lon="4.87565278072">
		<tag k="name" v="Joseftarane" />
		<tag k="natural" v="shoal" />
		<tag k="place" v="locality" />
		<tag k="ssr:stedsnr" v="720379" />
	</node>
	<node id="-684735" lat="61.4171000044" lon="4.98010834057">
		<tag k="name" v="Stavenes" />
		<tag k="natural" v="cape" />
		<tag k="ssr:stedsnr" v="719438" />
	</node>
	<node id="-684726" lat="61.4648083318" lon="5.23664165777">
		<tag k="name" v="Krabbeholmen" />
		<tag k="place" v="islet" />
		<tag k="ssr:stedsnr" v="887691" />
	</node>
	<node id="-684721" lat="61.2797944472" lon="4.6129694519">
		<tag k="name" v="Klovøyna" />
		<tag k="place" v="island" />
		<tag k="ssr:stedsnr" v="887193" />
	</node>
	<node id="-684720" lat="61.283688892" lon="4.62125833185">
		<tag k="name" v="Tistelsund" />
		<tag k="natural" v="strait" />
		<tag k="ssr:stedsnr" v="887213" />
	</node>
	<node id="-684719" lat="61.2864166649" lon="4.62878056494">
		<tag k="name" v="Litle Nikøy" />
		<tag k="place" v="islet" />
		<tag k="ssr:stedsnr" v="887206" />
	</node>
	<node id="-684715" lat="61.4753526488" lon="5.26506155455">
		<tag k="name" v="Ungsmalevika" />
		<tag k="natural" v="bay" />
		<tag k="ssr:stedsnr" v="886792" />
	</node>
	<node id="-684713" lat="61.2842888862" lon="4.87971945101">
		<tag k="fixme" v="consider seamark:type=rock or natural=shoal" />
		<tag k="name" v="Kobbevikskjeret" />
		<tag k="place" v="islet" />
		<tag k="ssr:stedsnr" v="886583" />
	</node>
	<node id="-684709" lat="61.331841666" lon="4.76730000416">
		<tag k="name" v="Klenevågen" />
		<tag k="natural" v="bay" />
		<tag k="ssr:stedsnr" v="886336" />
	</node>
	<node id="-684705" lat="61.4618166673" lon="5.36939444374">
		<tag k="name" v="Klubbevika" />
		<tag k="natural" v="bay" />
		<tag k="ssr:stedsnr" v="885529" />
	</node>
	<node id="-684700" lat="61.2806777814" lon="4.63202499309">
		<tag k="name" v="Årebrot" />
		<tag k="place" v="islet" />
		<tag k="ssr:stedsnr" v="885242" />
	</node>
	<node id="-684699" lat="61.2796027774" lon="4.63127222934">
		<tag k="fixme" v="consider seamark:type=rock or natural=shoal" />
		<tag k="name" v="Skuffa" />
		<tag k="place" v="islet" />
		<tag k="ssr:stedsnr" v="885241" />
	</node>
	<node id="-684695" lat="61.4639583334" lon="5.4243805496">
		<tag k="name" v="Kvamsvika" />
		<tag k="natural" v="bay" />
		<tag k="ssr:stedsnr" v="883087" />
	</node>
	<node id="-684693" lat="61.3554555533" lon="4.66170277696">
		<tag k="fixme" v="consider seamark:type=rock or natural=shoal" />
		<tag k="name" v="Ausa" />
		<tag k="place" v="islet" />
		<tag k="ssr:stedsnr" v="675424" />
	</node>
	<node id="-684692" lat="61.3482833321" lon="4.68802778514">
		<tag k="name" v="Hatlemannsflua" />
		<tag k="natural" v="shoal" />
		<tag k="place" v="locality" />
		<tag k="ssr:stedsnr" v="675418" />
	</node>
	<node id="-684691" lat="61.3992666683" lon="4.56634443551">
		<tag k="alt_name" v="Gardbåskjeret, s" />
		<tag k="fixme" v="consider seamark:type=rock or natural=shoal" />
		<tag k="name" v="Søre Gardbåskjeret" />
		<tag k="place" v="islet" />
		<tag k="ssr:stedsnr" v="675416" />
	</node>
	<node id="-684690" lat="61.4043916626" lon="4.50037500806">
		<tag k="alt_name" v="Ystnesskallen" />
		<tag k="name" v="Austnesskallen" />
		<tag k="natural" v="shoal" />
		<tag k="place" v="locality" />
		<tag k="ssr:stedsnr" v="675414" />
	</node>
	<node id="-684689" lat="61.4129472245" lon="4.68230555895">
		<tag k="name" v="Lyretarane" />
		<tag k="natural" v="shoal" />
		<tag k="place" v="locality" />
		<tag k="ssr:stedsnr" v="675411" />
	</node>
	<node id="-684685" lat="61.3919888899" lon="4.78252499255">
		<tag k="fixme" v="multiple name tags, choose one and add the other to alt_name" />
		<tag k="name" v="Moldvær;Moldøyna" />
		<tag k="place" v="island" />
		<tag k="ssr:stedsnr" v="675327" />
	</node>
	<node id="-684684" lat="61.4045222222" lon="4.91168333262">
		<tag k="name" v="Midtfjordbåen" />
		<tag k="natural" v="shoal" />
		<tag k="place" v="locality" />
		<tag k="ssr:stedsnr" v="675321" />
	</node>
	<node id="-684683" lat="61.4034083348" lon="4.952261112">
		<tag k="name" v="Melsholmen" />
		<tag k="place" v="islet" />
		<tag k="ssr:stedsnr" v="675320" />
	</node>
	<node id="-684681" lat="61.4059138916" lon="4.89722777985">
		<tag k="alt_name" v="Guriøyna" />
		<tag k="name" v="Guridøyna" />
		<tag k="place" v="islet" />
		<tag k="ssr:stedsnr" v="675311" />
	</node>
	<node id="-684679" lat="61.3333611135" lon="4.76198055379">
		<tag k="name" v="Øyna" />
		<tag k="place" v="islet" />
		<tag k="ssr:stedsnr" v="675176" />
	</node>
	<node id="-684676" lat="61.3322861118" lon="4.9303777868">
		<tag k="name" v="Djupevika" />
		<tag k="natural" v="bay" />
		<tag k="ssr:stedsnr" v="675156" />
	</node>
	<node id="-684670" lat="61.3653916636" lon="5.01666389832">
		<tag k="alt_name" v="Trellevika" />
		<tag k="name" v="Trælevika" />
		<tag k="natural" v="bay" />
		<tag k="ssr:stedsnr" v="675216" />
	</node>
	<node id="-684667" lat="61.4548777814" lon="5.12316111049">
		<tag k="alt_name" v="Molvikneset;Moldvikneset" />
		<tag k="name" v="Moldvikeneset" />
		<tag k="natural" v="cape" />
		<tag k="ssr:stedsnr" v="675075" />
	</node>
	<node id="-683893" lat="61.4137277739" lon="4.98323333669">
		<tag k="name" v="Vaulen" />
		<tag k="natural" v="strait" />
		<tag k="ssr:stedsnr" v="218701" />
	</node>
	<node id="-684658" lat="61.3257333351" lon="4.85170833255">
		<tag k="name" v="Senholmsflua" />
		<tag k="natural" v="shoal" />
		<tag k="place" v="locality" />
		<tag k="ssr:stedsnr" v="659934" />
	</node>
	<node id="-684657" lat="61.4226333318" lon="5.14349444718">
		<tag k="name" v="Stavnesvika" />
		<tag k="natural" v="bay" />
		<tag k="ssr:stedsnr" v="659294" />
	</node>
	<node id="-684655" lat="61.2707750041" lon="4.81201944957">
		<tag k="alt_name" v="Inste - Geita" />
		<tag k="name" v="Instegeita" />
		<tag k="place" v="islet" />
		<tag k="ssr:stedsnr" v="736112" />
	</node>
	<node id="-684654" lat="61.3036472187" lon="4.92237221995">
		<tag k="alt_name" v="Røykalven" />
		<tag k="name" v="Raudøykalven" />
		<tag k="place" v="islet" />
		<tag k="ssr:stedsnr" v="736090" />
	</node>
	<node id="-684653" lat="61.2868805561" lon="4.75024722703">
		<tag k="alt_name" v="Stabbevågane" />
		<tag k="name" v="Stabbevågen" />
		<tag k="natural" v="bay" />
		<tag k="ssr:stedsnr" v="736086" />
	</node>
	<node id="-684652" lat="61.2814972257" lon="4.87961667186">
		<tag k="name" v="Aralden" />
		<tag k="place" v="island" />
		<tag k="ssr:stedsnr" v="736085" />
	</node>
	<node id="-684651" lat="61.2801288565" lon="4.73424587781">
		<tag k="name" v="Leiaholmane" />
		<tag k="place" v="islet" />
		<tag k="ssr:stedsnr" v="736072" />
	</node>
	<node id="-684650" lat="61.2762416686" lon="4.78590554909">
		<tag k="alt_name" v="Ytste-Geita" />
		<tag k="name" v="Ytstegeita" />
		<tag k="place" v="islet" />
		<tag k="ssr:stedsnr" v="736068" />
	</node>
	<node id="-684647" lat="61.4259333309" lon="4.81988333203">
		<tag k="alt_name" v="Smellværbåane" />
		<tag k="name" v="Smelværbåane" />
		<tag k="natural" v="shoal" />
		<tag k="place" v="locality" />
		<tag k="ssr:stedsnr" v="736354" />
	</node>
	<node id="-684646" lat="61.4603805536" lon="5.01358333261">
		<tag k="bay" v="fjord" />
		<tag k="name" v="Stavfjorden" />
		<tag k="natural" v="bay" />
		<tag k="ssr:stedsnr" v="736352" />
	</node>
	<node id="-684645" lat="61.4459166644" lon="5.06950832582">
		<tag k="name" v="Hyttevika" />
		<tag k="natural" v="bay" />
		<tag k="ssr:stedsnr" v="736350" />
	</node>
	<node id="-684642" lat="61.3418694471" lon="4.61717777684">
		<tag k="name" v="Bergeflua" />
		<tag k="natural" v="shoal" />
		<tag k="place" v="locality" />
		<tag k="ssr:stedsnr" v="735383" />
	</node>
	<node id="-684641" lat="61.3804833361" lon="4.9009222294">
		<tag k="name" v="Måsnesholmen" />
		<tag k="place" v="islet" />
		<tag k="ssr:stedsnr" v="735316" />
	</node>
	<node id="-684633" lat="61.3598638932" lon="5.23026111767">
		<tag k="alt_name" v="Gjildringsneset" />
		<tag k="name" v="Gildringeneset" />
		<tag k="natural" v="cape" />
		<tag k="ssr:stedsnr" v="735169" />
	</node>
	<node id="-684631" lat="61.3580972238" lon="5.1925638829">
		<tag k="name" v="Bakkevika" />
		<tag k="natural" v="bay" />
		<tag k="ssr:stedsnr" v="735150" />
	</node>
	<node id="-684630" lat="61.3384858017" lon="5.07692751079">
		<tag k="name" v="Vikane" />
		<tag k="natural" v="bay" />
		<tag k="ssr:stedsnr" v="735137" />
	</node>
	<node id="-684629" lat="61.3254888855" lon="4.78901111489">
		<tag k="name" v="Svinehamnen" />
		<tag k="natural" v="bay" />
		<tag k="ssr:stedsnr" v="735126" />
	</node>
	<node id="-684623" lat="61.4685249997" lon="5.29693055041">
		<tag k="alt_name" v="Flevika" />
		<tag k="name" v="Flævika" />
		<tag k="natural" v="bay" />
		<tag k="ssr:stedsnr" v="735074" />
	</node>
	<node id="-684619" lat="61.4576833351" lon="5.1758027813">
		<tag k="fixme" v="consider seamark:type=rock or natural=shoal" />
		<tag k="name" v="Langeskjeret" />
		<tag k="place" v="islet" />
		<tag k="ssr:stedsnr" v="735041" />
	</node>
	<node id="-684612" lat="61.316277781" lon="4.69832499805">
		<tag k="alt_name" v="Indrekråka;Kråka, in" />
		<tag k="name" v="Indre Kråka" />
		<tag k="place" v="islet" />
		<tag k="ssr:stedsnr" v="614425" />
	</node>
	<node id="-684611" lat="61.31171111" lon="4.69663332985">
		<tag k="name" v="Landøyna" />
		<tag k="place" v="islet" />
		<tag k="ssr:stedsnr" v="614424" />
	</node>
	<node id="-684610" lat="61.3074777737" lon="4.4587527708">
		<tag k="name" v="Værøygrunnen" />
		<tag k="natural" v="shoal" />
		<tag k="place" v="locality" />
		<tag k="ssr:stedsnr" v="614415" />
	</node>
	<node id="-684608" lat="61.3468499998" lon="4.61273610853">
		<tag k="name" v="Olataren" />
		<tag k="natural" v="shoal" />
		<tag k="place" v="locality" />
		<tag k="ssr:stedsnr" v="614403" />
	</node>
	<node id="-684607" lat="61.3465638914" lon="4.58036666515">
		<tag k="name" v="Håsteingrunnen" />
		<tag k="natural" v="shoal" />
		<tag k="place" v="locality" />
		<tag k="ssr:stedsnr" v="614394" />
	</node>
	<node id="-684606" lat="61.3537555521" lon="4.68618889674">
		<tag k="fixme" v="consider seamark:type=rock or natural=shoal" />
		<tag k="name" v="Bolten" />
		<tag k="place" v="islet" />
		<tag k="ssr:stedsnr" v="614387" />
	</node>
	<node id="-684605" lat="61.3943611158" lon="4.64679167251">
		<tag k="fixme" v="consider seamark:type=rock or natural=shoal" />
		<tag k="name" v="Hetteskjeret" />
		<tag k="place" v="islet" />
		<tag k="ssr:stedsnr" v="614376" />
	</node>
	<node id="-684602" lat="61.3539361127" lon="5.10586666458">
		<tag k="name" v="Leira" />
		<tag k="natural" v="bay" />
		<tag k="ssr:stedsnr" v="614161" />
	</node>
	<node id="-684598" lat="61.349338891" lon="5.04805833244">
		<tag k="alt_name" v="Røysetneset" />
		<tag k="name" v="Røyseteneset" />
		<tag k="natural" v="cape" />
		<tag k="ssr:stedsnr" v="614227" />
	</node>
	<node id="-684591" lat="61.3609055518" lon="4.87517222213">
		<tag k="alt_name" v="Tennholmen" />
		<tag k="name" v="Tinnholmen" />
		<tag k="place" v="islet" />
		<tag k="ssr:stedsnr" v="614202" />
	</node>
	<node id="-684587" lat="61.2945777736" lon="4.8348972287">
		<tag k="name" v="Kvitholmsflua" />
		<tag k="natural" v="shoal" />
		<tag k="place" v="locality" />
		<tag k="ssr:stedsnr" v="720871" />
	</node>
	<node id="-684586" lat="61.2767722203" lon="4.85965556002">
		<tag k="name" v="Nesflua" />
		<tag k="natural" v="shoal" />
		<tag k="place" v="locality" />
		<tag k="ssr:stedsnr" v="720868" />
	</node>
	<node id="-684585" lat="61.4713583343" lon="5.22031111986">
		<tag k="name" v="Hølen" />
		<tag k="natural" v="bay" />
		<tag k="ssr:stedsnr" v="720529" />
	</node>
	<node id="-684583" lat="61.3804861118" lon="5.40028333065">
		<tag k="name" v="Fossevikgrunnen" />
		<tag k="natural" v="shoal" />
		<tag k="place" v="locality" />
		<tag k="ssr:stedsnr" v="720257" />
	</node>
	<node id="-684582" lat="61.3397888909" lon="5.09673888365">
		<tag k="name" v="Nesberget" />
		<tag k="natural" v="cape" />
		<tag k="ssr:stedsnr" v="719059" />
	</node>
	<node id="-684097" lat="61.4021003295" lon="5.06251890693">
		<tag k="name" v="Smeneset" />
		<tag k="natural" v="cape" />
		<tag k="ssr:stedsnr" v="278774" />
	</node>
	<node id="-684578" lat="61.4553138907" lon="5.2321833267">
		<tag k="name" v="Pollakyllaren" />
		<tag k="natural" v="bay" />
		<tag k="ssr:stedsnr" v="583663" />
	</node>
	<node id="-684123" lat="61.2835777751" lon="4.61160277775">
		<tag k="name" v="Slotteholmen" />
		<tag k="place" v="islet" />
		<tag k="ssr:stedsnr" v="280142" />
	</node>
	<node id="-684570" lat="61.3199111673" lon="4.93620674846">
		<tag k="name" v="Barsundet" />
		<tag k="natural" v="strait" />
		<tag k="ssr:stedsnr" v="581515" />
	</node>
	<node id="-684020" lat="61.3308666689" lon="4.87862222046">
		<tag k="name" v="Bolten" />
		<tag k="natural" v="shoal" />
		<tag k="place" v="locality" />
		<tag k="ssr:stedsnr" v="250144" />
	</node>
	<node id="-684560" lat="61.4571500014" lon="5.21261110748">
		<tag k="name" v="Vågesundet" />
		<tag k="natural" v="strait" />
		<tag k="ssr:stedsnr" v="704650" />
	</node>
	<node id="-684559" lat="61.4598999971" lon="5.23067500225">
		<tag k="name" v="Svaneholmen" />
		<tag k="place" v="islet" />
		<tag k="ssr:stedsnr" v="704642" />
	</node>
	<node id="-684552" lat="61.2861527789" lon="4.71853055907">
		<tag k="fixme" v="consider seamark:type=rock or natural=shoal" />
		<tag k="name" v="Sølvøyskjeret" />
		<tag k="place" v="islet" />
		<tag k="ssr:stedsnr" v="704289" />
	</node>
	<node id="-684550" lat="61.2926111136" lon="4.71527221324">
		<tag k="name" v="Sølvøybotnen" />
		<tag k="natural" v="bay" />
		<tag k="ssr:stedsnr" v="704257" />
	</node>
	<node id="-684549" lat="61.2951305587" lon="4.62622222685">
		<tag k="name" v="Gjørøystraumen" />
		<tag k="natural" v="strait" />
		<tag k="ssr:stedsnr" v="704218" />
	</node>
	<node id="-684546" lat="61.4549194408" lon="5.16089999667">
		<tag k="fixme" v="consider seamark:type=rock or natural=shoal" />
		<tag k="name" v="Tjeldplass-skjeret" />
		<tag k="place" v="islet" />
		<tag k="ssr:stedsnr" v="703979" />
	</node>
	<node id="-684543" lat="61.4820685376" lon="5.23187919421">
		<tag k="name" v="Lammeskjersundet" />
		<tag k="natural" v="strait" />
		<tag k="ssr:stedsnr" v="703805" />
	</node>
	<node id="-684541" lat="61.4716610523" lon="5.24680595052">
		<tag k="fixme" v="consider seamark:type=rock or natural=shoal" />
		<tag k="name" v="Småskjera" />
		<tag k="place" v="islet" />
		<tag k="ssr:stedsnr" v="703790" />
	</node>
	<node id="-684533" lat="61.2853194478" lon="4.64763333963">
		<tag k="alt_name" v="Oldsundet;Olssundet" />
		<tag k="name" v="Olsundet" />
		<tag k="natural" v="strait" />
		<tag k="ssr:stedsnr" v="703261" />
	</node>
	<node id="-684527" lat="61.4631694425" lon="5.3562555578">
		<tag k="fixme" v="consider seamark:type=rock or natural=shoal" />
		<tag k="name" v="Selvikskjeret" />
		<tag k="place" v="islet" />
		<tag k="ssr:stedsnr" v="703559" />
	</node>
	<node id="-684525" lat="61.3482056913" lon="5.01682127901">
		<tag k="name" v="Sjåberget" />
		<tag k="natural" v="cape" />
		<tag k="ssr:stedsnr" v="701942" />
	</node>
	<node id="-684523" lat="61.3197999994" lon="5.01583056112">
		<tag k="name" v="Gullholmen" />
		<tag k="place" v="islet" />
		<tag k="ssr:stedsnr" v="701965" />
	</node>
	<node id="-684514" lat="61.4117305585" lon="4.51320278098">
		<tag k="name" v="Herlandsbotnen" />
		<tag k="natural" v="shoal" />
		<tag k="place" v="locality" />
		<tag k="ssr:stedsnr" v="554403" />
	</node>
	<node id="-684513" lat="61.2740055556" lon="4.8836611138">
		<tag k="fixme" v="consider seamark:type=rock or natural=shoal" />
		<tag k="name" v="Hakeskjeret" />
		<tag k="place" v="islet" />
		<tag k="ssr:stedsnr" v="554118" />
	</node>
	<node id="-684507" lat="61.3482027753" lon="4.67105833306">
		<tag k="name" v="Geiteskjeret" />
		<tag k="place" v="islet" />
		<tag k="ssr:stedsnr" v="538803" />
	</node>
	<node id="-684502" lat="61.4134777822" lon="4.91323055409">
		<tag k="name" v="Vardøyna" />
		<tag k="place" v="islet" />
		<tag k="ssr:stedsnr" v="736289" />
	</node>
	<node id="-684500" lat="61.419452775" lon="4.87083333132">
		<tag k="name" v="Naustholmflua" />
		<tag k="natural" v="shoal" />
		<tag k="place" v="locality" />
		<tag k="ssr:stedsnr" v="736268" />
	</node>
	<node id="-684498" lat="61.4308361076" lon="5.00087777688">
		<tag k="fixme" v="consider seamark:type=rock or natural=shoal" />
		<tag k="name" v="Svarteskjeret" />
		<tag k="place" v="islet" />
		<tag k="ssr:stedsnr" v="736262" />
	</node>
	<node id="-684493" lat="61.3631555587" lon="5.02839167056">
		<tag k="name" v="Granesundet" />
		<tag k="natural" v="strait" />
		<tag k="ssr:stedsnr" v="736246" />
	</node>
	<node id="-684484" lat="61.4791194402" lon="5.36928332511">
		<tag k="alt_name" v="Dyvikneset" />
		<tag k="name" v="Dyvikeneset" />
		<tag k="natural" v="cape" />
		<tag k="ssr:stedsnr" v="492031" />
	</node>
	<node id="-684478" lat="61.2784138927" lon="4.66604166986">
		<tag k="name" v="Håflua" />
		<tag k="natural" v="shoal" />
		<tag k="place" v="locality" />
		<tag k="ssr:stedsnr" v="675348" />
	</node>
	<node id="-684477" lat="61.2713749969" lon="4.60334166461">
		<tag k="name" v="Langfalltaren" />
		<tag k="natural" v="shoal" />
		<tag k="place" v="locality" />
		<tag k="ssr:stedsnr" v="675347" />
	</node>
	<node id="-684476" lat="61.2833472242" lon="4.56729999865">
		<tag k="alt_name" v="Fiskeflesa" />
		<tag k="fixme" v="consider seamark:type=rock or natural=shoal" />
		<tag k="name" v="Fiskefleset" />
		<tag k="place" v="islet" />
		<tag k="ssr:stedsnr" v="675342" />
	</node>
	<node id="-684475" lat="61.2862083342" lon="4.63188888816">
		<tag k="name" v="Nikkjøyna" />
		<tag k="place" v="islet" />
		<tag k="ssr:stedsnr" v="675340" />
	</node>
	<node id="-684474" lat="61.3562083303" lon="5.20999445103">
		<tag k="name" v="Naustneset" />
		<tag k="natural" v="cape" />
		<tag k="ssr:stedsnr" v="675337" />
	</node>
	<node id="-684473" lat="61.378794443" lon="4.87418055146">
		<tag k="fixme" v="consider seamark:type=rock or natural=shoal" />
		<tag k="name" v="Guleskjeret" />
		<tag k="place" v="islet" />
		<tag k="ssr:stedsnr" v="675335" />
	</node>
	<node id="-684472" lat="61.4147" lon="4.86324444778">
		<tag k="name" v="Kallsflua" />
		<tag k="natural" v="shoal" />
		<tag k="place" v="locality" />
		<tag k="ssr:stedsnr" v="675296" />
	</node>
	<node id="-684471" lat="61.2973861132" lon="4.67424165845">
		<tag k="name" v="Melværet" />
		<tag k="place" v="island" />
		<tag k="ssr:stedsnr" v="675444" />
	</node>
	<node id="-684470" lat="61.3140027809" lon="4.61385832986">
		<tag k="name" v="Revet" />
		<tag k="natural" v="shoal" />
		<tag k="place" v="locality" />
		<tag k="ssr:stedsnr" v="675434" />
	</node>
	<node id="-684466" lat="61.4437472211" lon="4.76566666619">
		<tag k="name" v="Ørjebåen" />
		<tag k="natural" v="shoal" />
		<tag k="place" v="locality" />
		<tag k="ssr:stedsnr" v="675398" />
	</node>
	<node id="-684465" lat="61.2721333317" lon="4.71683332716">
		<tag k="name" v="Sørværet" />
		<tag k="place" v="island" />
		<tag k="ssr:stedsnr" v="675364" />
	</node>
	<node id="-684463" lat="61.2802194444" lon="4.70726666997">
		<tag k="name" v="Brimnesflua" />
		<tag k="natural" v="shoal" />
		<tag k="place" v="locality" />
		<tag k="ssr:stedsnr" v="675359" />
	</node>
	<node id="-684461" lat="61.3709388861" lon="4.97339722688">
		<tag k="name" v="Høyvika" />
		<tag k="natural" v="bay" />
		<tag k="ssr:stedsnr" v="675234" />
	</node>
	<node id="-684458" lat="61.3510333322" lon="4.87006945006">
		<tag k="alt_name" v="Tvibyrgjesundet;Tvibyrgesundet" />
		<tag k="name" v="Tvibyrgssundet" />
		<tag k="natural" v="strait" />
		<tag k="ssr:stedsnr" v="675280" />
	</node>
	<node id="-684453" lat="61.2736055566" lon="4.79854999938">
		<tag k="alt_name" v="Midtgeita" />
		<tag k="name" v="Medgeita" />
		<tag k="place" v="island" />
		<tag k="ssr:stedsnr" v="675134" />
	</node>
	<node id="-684452" lat="61.2884555561" lon="4.77213888272">
		<tag k="name" v="Austneset" />
		<tag k="natural" v="cape" />
		<tag k="ssr:stedsnr" v="675101" />
	</node>
	<node id="-684451" lat="61.2902277787" lon="4.96359721495">
		<tag k="bay" v="fjord" />
		<tag k="name" v="Vilnesfjorden" />
		<tag k="natural" v="bay" />
		<tag k="ssr:stedsnr" v="675096" />
	</node>
	<node id="-684450" lat="61.4563666663" lon="5.21391944552">
		<tag k="name" v="Naustholmen" />
		<tag k="place" v="islet" />
		<tag k="ssr:stedsnr" v="675082" />
	</node>
	<node id="-684445" lat="61.367697218" lon="4.88594722259">
		<tag k="alt_name" v="Hindøy" />
		<tag k="name" v="Hindøyna" />
		<tag k="place" v="island" />
		<tag k="ssr:stedsnr" v="675219" />
	</node>
	<node id="-684443" lat="61.3124861132" lon="4.76057778251">
		<tag k="alt_name" v="Kalvaneset" />
		<tag k="name" v="Kallaneset" />
		<tag k="natural" v="cape" />
		<tag k="ssr:stedsnr" v="675193" />
	</node>
	<node id="-684440" lat="61.4733916672" lon="5.23710277724">
		<tag k="alt_name" v="Kobbeskjeret" />
		<tag k="fixme" v="consider seamark:type=rock or natural=shoal" />
		<tag k="name" v="Kobbeskjera" />
		<tag k="place" v="islet" />
		<tag k="ssr:stedsnr" v="675042" />
	</node>
	<node id="-684438" lat="61.3481280573" lon="5.02156109709">
		<tag k="fixme" v="consider seamark:type=rock or natural=shoal" />
		<tag k="name" v="Gjervikeskjera" />
		<tag k="place" v="islet" />
		<tag k="ssr:stedsnr" v="477759" />
	</node>
	<node id="-684437" lat="61.4595444429" lon="5.18026944457">
		<tag k="name" v="Botnafluna" />
		<tag k="natural" v="shoal" />
		<tag k="place" v="locality" />
		<tag k="ssr:stedsnr" v="477553" />
	</node>
	<node id="-684436" lat="61.3649499994" lon="4.90949722033">
		<tag k="name" v="Søre Rishaugvika" />
		<tag k="natural" v="bay" />
		<tag k="ssr:stedsnr" v="477120" />
	</node>
	<node id="-684434" lat="61.3587499959" lon="4.84487499254">
		<tag k="alt_name" v="Ytre Fugleneset;Indre Fugleneset;Nordre Fugleneset" />
		<tag k="name" v="Fugleneset" />
		<tag k="natural" v="cape" />
		<tag k="ssr:stedsnr" v="736211" />
	</node>
	<node id="-684432" lat="61.3217472246" lon="4.83429445347">
		<tag k="name" v="Senholmtaren" />
		<tag k="natural" v="shoal" />
		<tag k="place" v="locality" />
		<tag k="ssr:stedsnr" v="736192" />
	</node>
	<node id="-684431" lat="61.3155805523" lon="4.78231945153">
		<tag k="name" v="Rokvika" />
		<tag k="natural" v="bay" />
		<tag k="ssr:stedsnr" v="736191" />
	</node>
	<node id="-684430" lat="61.3132004907" lon="4.77736907842">
		<tag k="alt_name" v="Storenes" />
		<tag k="name" v="Storeneset" />
		<tag k="natural" v="cape" />
		<tag k="ssr:stedsnr" v="736190" />
	</node>
	<node id="-684428" lat="61.3007000014" lon="4.74571943504">
		<tag k="name" v="Kleivaholmen" />
		<tag k="place" v="islet" />
		<tag k="ssr:stedsnr" v="736171" />
	</node>
	<node id="-684427" lat="61.3304833331" lon="4.76134166566">
		<tag k="name" v="Storestølsvågen" />
		<tag k="natural" v="bay" />
		<tag k="ssr:stedsnr" v="736154" />
	</node>
	<node id="-684426" lat="61.310461108" lon="4.73753333158">
		<tag k="name" v="Tussaneset" />
		<tag k="natural" v="cape" />
		<tag k="ssr:stedsnr" v="659847" />
	</node>
	<node id="-684425" lat="61.3211388911" lon="4.71516945221">
		<tag k="name" v="Geiane" />
		<tag k="natural" v="shoal" />
		<tag k="place" v="locality" />
		<tag k="ssr:stedsnr" v="659844" />
	</node>
	<node id="-684424" lat="61.3397194453" lon="4.82992221882">
		<tag k="fixme" v="consider seamark:type=rock or natural=shoal" />
		<tag k="name" v="Sunnmørsskjera" />
		<tag k="place" v="islet" />
		<tag k="ssr:stedsnr" v="659817" />
	</node>
	<node id="-684423" lat="61.313019442" lon="4.95404722152">
		<tag k="name" v="Barsneset" />
		<tag k="natural" v="cape" />
		<tag k="ssr:stedsnr" v="659741" />
	</node>
	<node id="-684422" lat="61.4632611149" lon="5.21744165986">
		<tag k="name" v="Fora" />
		<tag k="natural" v="bay" />
		<tag k="ssr:stedsnr" v="659737" />
	</node>
	<node id="-684421" lat="61.2797555523" lon="4.64532499737">
		<tag k="name" v="Hovdeflua" />
		<tag k="natural" v="shoal" />
		<tag k="place" v="locality" />
		<tag k="ssr:stedsnr" v="659200" />
	</node>
	<node id="-684420" lat="61.2751499976" lon="4.75263888822">
		<tag k="name" v="Storeflua" />
		<tag k="natural" v="shoal" />
		<tag k="place" v="locality" />
		<tag k="ssr:stedsnr" v="659191" />
	</node>
	<node id="-684418" lat="61.3799357153" lon="5.01458251276">
		<tag k="name" v="Granebåen" />
		<tag k="place" v="locality" />
		<tag k="seamark:type" v="rock" />
		<tag k="ssr:stedsnr" v="659114" />
	</node>
	<node id="-684416" lat="61.3213277796" lon="4.70412500828">
		<tag k="name" v="Søre Værholmane" />
		<tag k="place" v="islet" />
		<tag k="ssr:stedsnr" v="658162" />
	</node>
	<node id="-684413" lat="61.3593249981" lon="4.93002499586">
		<tag k="name" v="Vassholmane" />
		<tag k="place" v="islet" />
		<tag k="ssr:stedsnr" v="433229" />
	</node>
	<node id="-684411" lat="61.3309750016" lon="4.74894444503">
		<tag k="alt_name" v="Fagrevikholmen" />
		<tag k="name" v="Fagervikholmen" />
		<tag k="place" v="islet" />
		<tag k="ssr:stedsnr" v="433216" />
	</node>
	<node id="-684409" lat="61.3324638897" lon="4.84518333512">
		<tag k="name" v="Trulstaren" />
		<tag k="natural" v="shoal" />
		<tag k="place" v="locality" />
		<tag k="ssr:stedsnr" v="433149" />
	</node>
	<node id="-684083" lat="61.2855222224" lon="4.61649444338">
		<tag k="name" v="Halsøyna" />
		<tag k="place" v="islet" />
		<tag k="ssr:stedsnr" v="129319" />
	</node>
	<node id="-684405" lat="61.292555551" lon="4.81212221758">
		<tag k="alt_name" v="Skardholmen, store;Skarvholmen;Skardholmen" />
		<tag k="name" v="Store Skardholmen" />
		<tag k="place" v="islet" />
		<tag k="ssr:stedsnr" v="433105" />
	</node>
	<node id="-684404" lat="61.2909222257" lon="4.87763054986">
		<tag k="alt_name" v="Hjelparen, s" />
		<tag k="name" v="Søre Hjelparen" />
		<tag k="place" v="islet" />
		<tag k="ssr:stedsnr" v="433103" />
	</node>
	<node id="-684403" lat="61.2954750032" lon="4.87006111901">
		<tag k="alt_name" v="Hjelparen;Hjelparen, nordre" />
		<tag k="name" v="Nordre Hjelparen" />
		<tag k="place" v="islet" />
		<tag k="ssr:stedsnr" v="433102" />
	</node>
	<node id="-684402" lat="61.2818164563" lon="4.58488773735">
		<tag k="fixme" v="consider seamark:type=rock or natural=shoal" />
		<tag k="name" v="Kubbeskjeret" />
		<tag k="place" v="islet" />
		<tag k="ssr:stedsnr" v="432303" />
	</node>
	<node id="-684396" lat="61.4252138895" lon="5.15049167464">
		<tag k="name" v="Oterstova" />
		<tag k="natural" v="cape" />
		<tag k="ssr:stedsnr" v="432003" />
	</node>
	<node id="-684391" lat="61.307894443" lon="4.66784443932">
		<tag k="alt_name" v="Blesundskjera" />
		<tag k="fixme" v="consider seamark:type=rock or natural=shoal" />
		<tag k="name" v="Blesundskjeret" />
		<tag k="place" v="islet" />
		<tag k="ssr:stedsnr" v="401225" />
	</node>
	<node id="-684389" lat="61.3475611121" lon="4.65013888395">
		<tag k="fixme" v="consider seamark:type=rock or natural=shoal" />
		<tag k="name" v="Kubbeskjeret" />
		<tag k="place" v="islet" />
		<tag k="ssr:stedsnr" v="372424" />
	</node>
	<node id="-684388" lat="61.3593972199" lon="4.64161945384">
		<tag k="name" v="Håsteinen" />
		<tag k="place" v="island" />
		<tag k="ssr:stedsnr" v="372420" />
	</node>
	<node id="-684387" lat="61.3575500041" lon="4.86973333773">
		<tag k="name" v="Kristiholmen" />
		<tag k="place" v="islet" />
		<tag k="ssr:stedsnr" v="372252" />
	</node>
	<node id="-684384" lat="61.3511527798" lon="5.04925278312">
		<tag k="name" v="Sandvika" />
		<tag k="natural" v="bay" />
		<tag k="ssr:stedsnr" v="372228" />
	</node>
	<node id="-684381" lat="61.2870916678" lon="4.86199167564">
		<tag k="alt_name" v="Vardeholmen" />
		<tag k="name" v="Vardholmen" />
		<tag k="place" v="islet" />
		<tag k="ssr:stedsnr" v="372067" />
	</node>
	<node id="-684380" lat="61.4790783181" lon="5.22015794027">
		<tag k="fixme" v="consider seamark:type=rock or natural=shoal" />
		<tag k="name" v="Svarteskjeret" />
		<tag k="place" v="islet" />
		<tag k="ssr:stedsnr" v="372062" />
	</node>
	<node id="-684379" lat="61.3344111084" lon="4.77083888204">
		<tag k="fixme" v="consider seamark:type=rock or natural=shoal" />
		<tag k="name" v="Lakseskjeret" />
		<tag k="place" v="islet" />
		<tag k="ssr:stedsnr" v="372155" />
	</node>
	<node id="-684376" lat="61.2743250007" lon="4.87491666393">
		<tag k="alt_name" v="Hamnaholmen" />
		<tag k="name" v="Hamneholmen" />
		<tag k="place" v="islet" />
		<tag k="ssr:stedsnr" v="372118" />
	</node>
	<node id="-684375" lat="61.2721972247" lon="4.89661666954">
		<tag k="name" v="Araldeflua" />
		<tag k="natural" v="shoal" />
		<tag k="place" v="locality" />
		<tag k="ssr:stedsnr" v="372117" />
	</node>
	<node id="-684374" lat="61.2878944399" lon="4.77783888329">
		<tag k="name" v="Austneshamnen" />
		<tag k="natural" v="bay" />
		<tag k="ssr:stedsnr" v="372102" />
	</node>
	<node id="-684373" lat="61.3292333305" lon="4.55605276993">
		<tag k="name" v="Sveineflunakkane" />
		<tag k="natural" v="shoal" />
		<tag k="place" v="locality" />
		<tag k="ssr:stedsnr" v="371376" />
	</node>
	<node id="-684372" lat="61.2859410869" lon="4.58798539684">
		<tag k="alt_name" v="Store - Mågøy" />
		<tag k="name" v="Mågøyna" />
		<tag k="place" v="islet" />
		<tag k="ssr:stedsnr" v="371309" />
	</node>
	<node id="-684371" lat="61.2947305566" lon="4.57086944953">
		<tag k="name" v="Tenglebåen" />
		<tag k="natural" v="shoal" />
		<tag k="place" v="locality" />
		<tag k="ssr:stedsnr" v="371418" />
	</node>
	<node id="-684369" lat="61.2971722262" lon="4.65797221364">
		<tag k="alt_name" v="Søre Guriøyna;Guridøyna, s;Litle Guriøyna" />
		<tag k="name" v="Søre Guridøyna" />
		<tag k="place" v="islet" />
		<tag k="ssr:stedsnr" v="371404" />
	</node>
	<node id="-684368" lat="61.3983444403" lon="4.93379167329">
		<tag k="alt_name" v="Einebærskjer" />
		<tag k="name" v="Einebærskjeret" />
		<tag k="place" v="islet" />
		<tag k="ssr:stedsnr" v="371273" />
	</node>
	<node id="-684361" lat="61.4553583337" lon="5.14796944948">
		<tag k="name" v="Holmen" />
		<tag k="place" v="islet" />
		<tag k="ssr:stedsnr" v="371056" />
	</node>
	<node id="-684360" lat="61.4774560239" lon="5.32702764395">
		<tag k="alt_name" v="Hegrenes" />
		<tag k="name" v="Hegreneset" />
		<tag k="natural" v="cape" />
		<tag k="ssr:stedsnr" v="371028" />
	</node>
	<node id="-684017" lat="61.3345548956" lon="5.06001736153">
		<tag k="alt_name" v="Prestøy" />
		<tag k="name" v="Prestøyna" />
		<tag k="place" v="islet" />
		<tag k="ssr:stedsnr" v="250129" />
	</node>
	<node id="-685377" lat="61.2702111142" lon="4.72538889455">
		<tag k="name" v="Harrbakålen" />
		<tag k="place" v="locality" />
		<tag k="ssr:stedsnr" v="174195" />
	</node>
	<node id="-684353" lat="61.3387845008" lon="5.02363955085">
		<tag k="name" v="Kvannholmen" />
		<tag k="place" v="islet" />
		<tag k="ssr:stedsnr" v="371144" />
	</node>
	<node id="-684013" lat="61.2913055529" lon="4.8490083287">
		<tag k="name" v="Jørnkvitingen" />
		<tag k="place" v="islet" />
		<tag k="ssr:stedsnr" v="250092" />
	</node>
	<node id="-684349" lat="61.2624722241" lon="4.84775832935">
		<tag k="name" v="Kråkeflua" />
		<tag k="natural" v="shoal" />
		<tag k="place" v="locality" />
		<tag k="ssr:stedsnr" v="371112" />
	</node>
	<node id="-684346" lat="61.2964611089" lon="4.76803333344">
		<tag k="alt_name" v="Stølsnes" />
		<tag k="name" v="Stølsneset" />
		<tag k="natural" v="cape" />
		<tag k="ssr:stedsnr" v="494714" />
	</node>
	<node id="-684344" lat="61.2930305563" lon="4.58378333771">
		<tag k="fixme" v="consider seamark:type=rock or natural=shoal" />
		<tag k="name" v="Leiaskjeret" />
		<tag k="place" v="islet" />
		<tag k="ssr:stedsnr" v="493423" />
	</node>
	<node id="-684343" lat="61.289642731" lon="4.6005993891">
		<tag k="alt_name" v="Kvaløy" />
		<tag k="name" v="Kvaløyna" />
		<tag k="place" v="islet" />
		<tag k="ssr:stedsnr" v="493419" />
	</node>
	<node id="-684341" lat="61.2904673453" lon="4.64292813203">
		<tag k="alt_name" v="Langøy" />
		<tag k="name" v="Langøyna" />
		<tag k="place" v="islet" />
		<tag k="ssr:stedsnr" v="493408" />
	</node>
	<node id="-684340" lat="61.2979886871" lon="4.58894480122">
		<tag k="alt_name" v="Hølesteinen" />
		<tag k="fixme" v="consider seamark:type=rock or natural=shoal" />
		<tag k="name" v="Hylsteinen" />
		<tag k="place" v="islet" />
		<tag k="ssr:stedsnr" v="493398" />
	</node>
	<node id="-684339" lat="61.2982249088" lon="4.57597155116">
		<tag k="name" v="Tindesteinen" />
		<tag k="place" v="islet" />
		<tag k="ssr:stedsnr" v="493395" />
	</node>
	<node id="-684338" lat="61.3579277761" lon="4.66725833726">
		<tag k="fixme" v="consider seamark:type=rock or natural=shoal" />
		<tag k="name" v="Svartskjera" />
		<tag k="place" v="islet" />
		<tag k="ssr:stedsnr" v="493391" />
	</node>
	<node id="-684337" lat="61.3994027741" lon="4.55201666832">
		<tag k="name" v="Gardbåane" />
		<tag k="natural" v="shoal" />
		<tag k="place" v="locality" />
		<tag k="ssr:stedsnr" v="493381" />
	</node>
	<node id="-684336" lat="61.409397226" lon="4.66911944849">
		<tag k="name" v="Skyttarflua" />
		<tag k="natural" v="shoal" />
		<tag k="place" v="locality" />
		<tag k="ssr:stedsnr" v="493379" />
	</node>
	<node id="-684335" lat="61.3753750042" lon="4.68294166844">
		<tag k="bay" v="fjord" />
		<tag k="name" v="Ryggsteinosen" />
		<tag k="natural" v="bay" />
		<tag k="ssr:stedsnr" v="493372" />
	</node>
	<node id="-684334" lat="61.394113892" lon="4.68046667475">
		<tag k="name" v="Paradis" />
		<tag k="place" v="islet" />
		<tag k="ssr:stedsnr" v="493368" />
	</node>
	<node id="-684333" lat="61.395647223" lon="4.68856110354">
		<tag k="name" v="Ytrøyna" />
		<tag k="place" v="islet" />
		<tag k="ssr:stedsnr" v="493367" />
	</node>
	<node id="-684332" lat="61.3874611149" lon="4.52606110172">
		<tag k="name" v="Sjøværskallflua" />
		<tag k="natural" v="shoal" />
		<tag k="place" v="locality" />
		<tag k="ssr:stedsnr" v="493365" />
	</node>
	<node id="-684082" lat="61.2814333327" lon="4.60460278659">
		<tag k="alt_name" v="Vassøy" />
		<tag k="name" v="Vassøyna" />
		<tag k="place" v="islet" />
		<tag k="ssr:stedsnr" v="129317" />
	</node>
	<node id="-684330" lat="61.4331111097" lon="4.9868472219">
		<tag k="name" v="Holevikflua" />
		<tag k="natural" v="shoal" />
		<tag k="place" v="locality" />
		<tag k="ssr:stedsnr" v="493356" />
	</node>
	<node id="-684329" lat="61.444405552" lon="5.05734443987">
		<tag k="alt_name" v="Verpeneset;Varpeneset" />
		<tag k="name" v="Verpet" />
		<tag k="natural" v="cape" />
		<tag k="ssr:stedsnr" v="493354" />
	</node>
	<node id="-684327" lat="61.2755333291" lon="4.6699500003">
		<tag k="name" v="Søreflua" />
		<tag k="natural" v="shoal" />
		<tag k="place" v="locality" />
		<tag k="ssr:stedsnr" v="493332" />
	</node>
	<node id="-684326" lat="61.27704444" lon="4.57939999856">
		<tag k="alt_name" v="Tångefluene" />
		<tag k="name" v="Tangeflua" />
		<tag k="natural" v="shoal" />
		<tag k="place" v="locality" />
		<tag k="ssr:stedsnr" v="493328" />
	</node>
	<node id="-684325" lat="61.2786055558" lon="4.62588611651">
		<tag k="name" v="Hellersøyna" />
		<tag k="place" v="island" />
		<tag k="ssr:stedsnr" v="493324" />
	</node>
	<node id="-684323" lat="61.3994777732" lon="5.05203055043">
		<tag k="name" v="Mekevika" />
		<tag k="natural" v="bay" />
		<tag k="ssr:stedsnr" v="493320" />
	</node>
	<node id="-684320" lat="61.4063694478" lon="4.93548611967">
		<tag k="fixme" v="consider seamark:type=rock or natural=shoal" />
		<tag k="name" v="Kulten" />
		<tag k="place" v="islet" />
		<tag k="ssr:stedsnr" v="493281" />
	</node>
	<node id="-684319" lat="61.4090249975" lon="4.78013055257">
		<tag k="name" v="Langfalla" />
		<tag k="natural" v="shoal" />
		<tag k="place" v="locality" />
		<tag k="ssr:stedsnr" v="493279" />
	</node>
	<node id="-684318" lat="61.4020249989" lon="4.74763889689">
		<tag k="fixme" v="consider seamark:type=rock or natural=shoal" />
		<tag k="name" v="Votten" />
		<tag k="place" v="islet" />
		<tag k="ssr:stedsnr" v="493277" />
	</node>
	<node id="-684080" lat="61.3002156918" lon="4.65735890502">
		<tag k="alt_name" v="Nordre Guriøyna;Guridøyna, nordre;Store Guriøyna" />
		<tag k="name" v="Nordre Guridøyna" />
		<tag k="place" v="islet" />
		<tag k="ssr:stedsnr" v="129423" />
	</node>
	<node id="-684315" lat="61.3522749991" lon="4.72666944563">
		<tag k="name" v="Storefluene" />
		<tag k="natural" v="shoal" />
		<tag k="place" v="locality" />
		<tag k="ssr:stedsnr" v="493259" />
	</node>
	<node id="-684079" lat="61.3612750008" lon="4.87751943972">
		<tag k="alt_name" v="Griseskjeret, l" />
		<tag k="fixme" v="consider seamark:type=rock or natural=shoal" />
		<tag k="name" v="Litle Griseskjeret" />
		<tag k="place" v="islet" />
		<tag k="ssr:stedsnr" v="129214" />
	</node>
	<node id="-684312" lat="61.3412027809" lon="4.76550555028">
		<tag k="name" v="Trolleflua" />
		<tag k="natural" v="shoal" />
		<tag k="place" v="locality" />
		<tag k="ssr:stedsnr" v="493245" />
	</node>
	<node id="-684309" lat="61.3332777736" lon="4.96772778678">
		<tag k="name" v="Atløyna" />
		<tag k="place" v="island" />
		<tag k="ssr:stedsnr" v="493229" />
	</node>
	<node id="-684299" lat="61.3016555522" lon="4.74037499774">
		<tag k="name" v="Kleivavågen" />
		<tag k="natural" v="bay" />
		<tag k="ssr:stedsnr" v="493181" />
	</node>
	<node id="-684298" lat="61.3247138881" lon="4.84516388246">
		<tag k="fixme" v="consider seamark:type=rock or natural=shoal" />
		<tag k="name" v="Kulten" />
		<tag k="place" v="islet" />
		<tag k="ssr:stedsnr" v="493150" />
	</node>
	<node id="-684296" lat="61.268072221" lon="4.89670555764">
		<tag k="fixme" v="consider seamark:type=rock or natural=shoal" />
		<tag k="name" v="Midtfjordskjeret" />
		<tag k="place" v="islet" />
		<tag k="ssr:stedsnr" v="493129" />
	</node>
	<node id="-684295" lat="61.2685138895" lon="4.80141666858">
		<tag k="alt_name" v="Geiteflua" />
		<tag k="name" v="Geitungsflua" />
		<tag k="natural" v="shoal" />
		<tag k="place" v="locality" />
		<tag k="ssr:stedsnr" v="493128" />
	</node>
	<node id="-684292" lat="61.2954638914" lon="4.94025554787">
		<tag k="name" v="Håskallen" />
		<tag k="natural" v="shoal" />
		<tag k="place" v="locality" />
		<tag k="ssr:stedsnr" v="493101" />
	</node>
	<node id="-684290" lat="61.454599998" lon="5.13159167119">
		<tag k="alt_name" v="Molvika" />
		<tag k="name" v="Moldvika" />
		<tag k="natural" v="bay" />
		<tag k="ssr:stedsnr" v="493073" />
	</node>
	<node id="-684075" lat="61.2771833333" lon="4.8858972149">
		<tag k="alt_name" v="Florsskjeret" />
		<tag k="fixme" v="consider seamark:type=rock or natural=shoal" />
		<tag k="name" v="Florskjeret" />
		<tag k="place" v="islet" />
		<tag k="ssr:stedsnr" v="129129" />
	</node>
	<node id="-684288" lat="61.4823000024" lon="5.22995556193">
		<tag k="alt_name" v="Lammeskjeret" />
		<tag k="fixme" v="consider seamark:type=rock or natural=shoal" />
		<tag k="name" v="Lambeskjeret" />
		<tag k="place" v="islet" />
		<tag k="ssr:stedsnr" v="493071" />
	</node>
	<node id="-684282" lat="61.4814496582" lon="5.2643564979">
		<tag k="alt_name" v="Matvikneset;Mastreneset" />
		<tag k="name" v="Matvikeneset" />
		<tag k="natural" v="cape" />
		<tag k="ssr:stedsnr" v="493043" />
	</node>
	<node id="-684073" lat="61.4760480915" lon="5.22985270221">
		<tag k="alt_name" v="Barholmen" />
		<tag k="name" v="Bardholmen" />
		<tag k="place" v="islet" />
		<tag k="ssr:stedsnr" v="129045" />
	</node>
	<node id="-684274" lat="61.4578722217" lon="5.18935832911">
		<tag k="name" v="Fureholmen" />
		<tag k="place" v="islet" />
		<tag k="ssr:stedsnr" v="492059" />
	</node>
	<node id="-684270" lat="61.3666472264" lon="5.30725556266">
		<tag k="name" v="Eikenesskolten" />
		<tag k="natural" v="shoal" />
		<tag k="place" v="locality" />
		<tag k="ssr:stedsnr" v="477495" />
	</node>
	<node id="-684269" lat="61.2751694446" lon="4.58973333468">
		<tag k="name" v="Tångeflunakken" />
		<tag k="natural" v="shoal" />
		<tag k="place" v="locality" />
		<tag k="ssr:stedsnr" v="477153" />
	</node>
	<node id="-684268" lat="61.3100416669" lon="4.59670277343">
		<tag k="name" v="Hola" />
		<tag k="place" v="locality" />
		<tag k="ssr:stedsnr" v="477137" />
	</node>
	<node id="-684267" lat="61.3504750005" lon="5.02633332993">
		<tag k="name" v="Haugsflua" />
		<tag k="natural" v="shoal" />
		<tag k="place" v="locality" />
		<tag k="ssr:stedsnr" v="477022" />
	</node>
	<node id="-684263" lat="61.3229777785" lon="4.70651666101">
		<tag k="name" v="Nordre Værholmane" />
		<tag k="place" v="islet" />
		<tag k="ssr:stedsnr" v="476161" />
	</node>
	<node id="-684070" lat="61.3280888894" lon="5.15691389421">
		<tag k="name" v="Vårdalsflua" />
		<tag k="natural" v="shoal" />
		<tag k="place" v="locality" />
		<tag k="ssr:stedsnr" v="114760" />
	</node>
	<node id="-684253" lat="61.4382694409" lon="5.04133332645">
		<tag k="name" v="Jektevika" />
		<tag k="natural" v="bay" />
		<tag k="ssr:stedsnr" v="462681" />
	</node>
	<node id="-684251" lat="61.4445305584" lon="5.06523888503">
		<tag k="name" v="Elvevika" />
		<tag k="natural" v="bay" />
		<tag k="ssr:stedsnr" v="462577" />
	</node>
	<node id="-684247" lat="61.2765638865" lon="4.73197222591">
		<tag k="name" v="Skrubbeholmen" />
		<tag k="place" v="islet" />
		<tag k="ssr:stedsnr" v="462269" />
	</node>
	<node id="-684243" lat="61.4542583341" lon="5.1122583331">
		<tag k="name" v="Brokelivika" />
		<tag k="natural" v="bay" />
		<tag k="ssr:stedsnr" v="461995" />
	</node>
	<node id="-684234" lat="61.4714246518" lon="5.24242927887">
		<tag k="fixme" v="consider seamark:type=rock or natural=shoal" />
		<tag k="name" v="Flateskjeret" />
		<tag k="place" v="islet" />
		<tag k="ssr:stedsnr" v="461798" />
	</node>
	<node id="-684233" lat="61.4694166661" lon="5.24169721808">
		<tag k="name" v="Vagevika" />
		<tag k="natural" v="bay" />
		<tag k="ssr:stedsnr" v="461797" />
	</node>
	<node id="-684232" lat="61.4018895414" lon="5.05363588526">
		<tag k="name" v="Vikane" />
		<tag k="natural" v="bay" />
		<tag k="ssr:stedsnr" v="461761" />
	</node>
	<node id="-686272" lat="61.3896168234" lon="4.92841644618">
		<tag k="name" v="Heggøyane" />
		<tag k="place" v="island" />
		<tag k="ssr:stedsnr" v="1072936" />
	</node>
	<node id="-686270" lat="61.3875175906" lon="4.80607490602">
		<tag k="name" v="Moldværleia" />
		<tag k="natural" v="strait" />
		<tag k="ssr:stedsnr" v="1072934" />
	</node>
	<node id="-686269" lat="61.2751286002" lon="4.87256648754">
		<tag k="name" v="Hamna" />
		<tag k="natural" v="bay" />
		<tag k="ssr:stedsnr" v="1072929" />
	</node>
	<node id="-686268" lat="61.2910330338" lon="4.85537423033">
		<tag k="name" v="Kvitingshamn" />
		<tag k="place" v="locality" />
		<tag k="ssr:stedsnr" v="1072928" />
	</node>
	<node id="-686267" lat="61.3934263705" lon="4.78339076627">
		<tag k="name" v="Moldværet" />
		<tag k="place" v="island" />
		<tag k="ssr:stedsnr" v="1072920" />
	</node>
	<node id="-686266" lat="61.2857484673" lon="4.64121314471">
		<tag k="name" v="Hovdevågen" />
		<tag k="natural" v="bay" />
		<tag k="ssr:stedsnr" v="1072898" />
	</node>
	<node id="-686265" lat="61.2806139897" lon="4.6371197968">
		<tag k="name" v="Klubben" />
		<tag k="place" v="islet" />
		<tag k="ssr:stedsnr" v="1072897" />
	</node>
	<node id="-686264" lat="61.2867057679" lon="4.64065681899">
		<tag k="name" v="Søre Tengla" />
		<tag k="place" v="islet" />
		<tag k="ssr:stedsnr" v="1072896" />
	</node>
	<node id="-686263" lat="61.2879890439" lon="4.63888683407">
		<tag k="name" v="Nordre Tengla" />
		<tag k="place" v="islet" />
		<tag k="ssr:stedsnr" v="1072895" />
	</node>
	<node id="-686262" lat="61.2881991219" lon="4.64283333769">
		<tag k="name" v="Søre Langevika" />
		<tag k="natural" v="bay" />
		<tag k="ssr:stedsnr" v="1072893" />
	</node>
	<node id="-686261" lat="61.2899650217" lon="4.6404028753">
		<tag k="name" v="Nordre Langevika" />
		<tag k="natural" v="bay" />
		<tag k="ssr:stedsnr" v="1072892" />
	</node>
	<node id="-684212" lat="61.289315826" lon="4.59198314375">
		<tag k="name" v="Djupmannsholmen" />
		<tag k="place" v="islet" />
		<tag k="ssr:stedsnr" v="461164" />
	</node>
	<node id="-684211" lat="61.2934332797" lon="4.60160597188">
		<tag k="name" v="Grisholmen" />
		<tag k="place" v="islet" />
		<tag k="ssr:stedsnr" v="461163" />
	</node>
	<node id="-684209" lat="61.2784083302" lon="4.62353055236">
		<tag k="name" v="Sarvågen" />
		<tag k="natural" v="bay" />
		<tag k="ssr:stedsnr" v="278249" />
	</node>
	<node id="-684205" lat="61.3329777811" lon="5.02673332855">
		<tag k="name" v="Kumlevika" />
		<tag k="natural" v="bay" />
		<tag k="ssr:stedsnr" v="458966" />
	</node>
	<node id="-683919" lat="61.4697416643" lon="5.28369444376">
		<tag k="name" v="Strandalandet" />
		<tag k="natural" v="beach" />
		<tag k="place" v="locality" />
		<tag k="ssr:stedsnr" v="219809" />
	</node>
	<node id="-684199" lat="61.35553611" lon="4.86166110259">
		<tag k="name" v="Sælevika" />
		<tag k="natural" v="bay" />
		<tag k="ssr:stedsnr" v="458640" />
	</node>
	<node id="-684190" lat="61.4047388929" lon="4.85560000372">
		<tag k="alt_name" v="Storflua" />
		<tag k="name" v="Storeflua" />
		<tag k="natural" v="shoal" />
		<tag k="place" v="locality" />
		<tag k="ssr:stedsnr" v="251300" />
	</node>
	<node id="-684189" lat="61.4024555576" lon="4.79499167437">
		<tag k="name" v="Nordfartaren" />
		<tag k="natural" v="shoal" />
		<tag k="place" v="locality" />
		<tag k="ssr:stedsnr" v="251295" />
	</node>
	<node id="-686236" lat="61.3919416651" lon="4.69128610806">
		<tag k="fixme" v="consider seamark:type=rock or natural=shoal" />
		<tag k="name" v="Kråkungen" />
		<tag k="place" v="islet" />
		<tag k="ssr:stedsnr" v="962794" />
	</node>
	<node id="-684058" lat="61.2905500014" lon="4.63872499367">
		<tag k="name" v="Langøysund" />
		<tag k="natural" v="strait" />
		<tag k="ssr:stedsnr" v="96266" />
	</node>
	<node id="-686232" lat="61.2485583326" lon="4.81662221672">
		<tag k="alt_name" v="Svartskjera" />
		<tag k="fixme" v="consider seamark:type=rock or natural=shoal" />
		<tag k="name" v="Svarteskjera" />
		<tag k="place" v="islet" />
		<tag k="ssr:stedsnr" v="859976" />
	</node>
	<node id="-686231" lat="61.4166527822" lon="4.60440834201">
		<tag k="alt_name" v="Gardbåskjeret, nordre" />
		<tag k="fixme" v="consider seamark:type=rock or natural=shoal" />
		<tag k="name" v="Nordre Gardbåskjeret" />
		<tag k="place" v="islet" />
		<tag k="ssr:stedsnr" v="858388" />
	</node>
	<node id="-686230" lat="61.3483138895" lon="4.8616499956">
		<tag k="name" v="Staurvika" />
		<tag k="natural" v="bay" />
		<tag k="ssr:stedsnr" v="858242" />
	</node>
	<node id="-684181" lat="61.2924138903" lon="4.66128333428">
		<tag k="name" v="Senholmane" />
		<tag k="place" v="islet" />
		<tag k="ssr:stedsnr" v="250420" />
	</node>
	<node id="-686228" lat="61.4468166627" lon="4.68769999389">
		<tag k="alt_name" v="Bendikskjeret" />
		<tag k="fixme" v="consider seamark:type=rock or natural=shoal" />
		<tag k="name" v="Bendiksskjeret" />
		<tag k="place" v="islet" />
		<tag k="ssr:stedsnr" v="858514" />
	</node>
	<node id="-686227" lat="61.3983083302" lon="4.81681388562">
		<tag k="name" v="Landøynakken" />
		<tag k="natural" v="shoal" />
		<tag k="place" v="locality" />
		<tag k="ssr:stedsnr" v="858295" />
	</node>
	<node id="-686226" lat="61.4028138898" lon="4.72320556325">
		<tag k="fixme" v="consider seamark:type=rock or natural=shoal" />
		<tag k="name" v="Småskjeret" />
		<tag k="place" v="islet" />
		<tag k="ssr:stedsnr" v="858274" />
	</node>
	<node id="-684177" lat="61.295561112" lon="4.65146667421">
		<tag k="name" v="Hågøyna" />
		<tag k="place" v="islet" />
		<tag k="ssr:stedsnr" v="250412" />
	</node>
	<node id="-684176" lat="61.2984722196" lon="4.62743332438">
		<tag k="fixme" v="consider seamark:type=rock or natural=shoal" />
		<tag k="name" v="Lodna" />
		<tag k="place" v="islet" />
		<tag k="ssr:stedsnr" v="250403" />
	</node>
	<node id="-686223" lat="61.2737638886" lon="4.73205555085">
		<tag k="alt_name" v="Lamholmen" />
		<tag k="name" v="Lambholmen" />
		<tag k="place" v="islet" />
		<tag k="ssr:stedsnr" v="858114" />
	</node>
	<node id="-684174" lat="61.2799035159" lon="4.7270941265">
		<tag k="name" v="Ytre Leiaholmen" />
		<tag k="place" v="islet" />
		<tag k="ssr:stedsnr" v="242968" />
	</node>
	<node id="-686221" lat="61.2959972254" lon="4.77329166021">
		<tag k="alt_name" v="Austnesholmen, l" />
		<tag k="name" v="Litle Austnesholmen" />
		<tag k="place" v="islet" />
		<tag k="ssr:stedsnr" v="858083" />
	</node>
	<node id="-686220" lat="61.300341671" lon="4.93239167347">
		<tag k="alt_name" v="Kobbeskjer" />
		<tag k="fixme" v="consider seamark:type=rock or natural=shoal" />
		<tag k="name" v="Kobbeskjeret" />
		<tag k="place" v="islet" />
		<tag k="ssr:stedsnr" v="858082" />
	</node>
	<node id="-686219" lat="61.4753983514" lon="5.23108799502">
		<tag k="fixme" v="consider seamark:type=rock or natural=shoal" />
		<tag k="name" v="Larsskjeret" />
		<tag k="place" v="islet" />
		<tag k="ssr:stedsnr" v="858032" />
	</node>
	<node id="-686218" lat="61.2930111144" lon="4.61641945172">
		<tag k="alt_name" v="Fedøy;Fitlåta" />
		<tag k="name" v="Fedøyna" />
		<tag k="place" v="island" />
		<tag k="ssr:stedsnr" v="857445" />
	</node>
	<node id="-686216" lat="61.3118444452" lon="4.62464999628">
		<tag k="alt_name" v="Remmane" />
		<tag k="name" v="Rimmane" />
		<tag k="natural" v="shoal" />
		<tag k="place" v="locality" />
		<tag k="ssr:stedsnr" v="857437" />
	</node>
	<node id="-686215" lat="61.3235083299" lon="4.64650278684">
		<tag k="bay" v="fjord" />
		<tag k="name" v="Håsteinosen" />
		<tag k="natural" v="bay" />
		<tag k="ssr:stedsnr" v="857434" />
	</node>
	<node id="-686211" lat="61.3710277789" lon="4.87484999419">
		<tag k="alt_name" v="Kyrøyna, yt;Ytste Kuøyna;Kuøyna" />
		<tag k="loc_name" v="Kyraøyna" />
		<tag k="name" v="Ytste Kyrøyna" />
		<tag k="place" v="islet" />
		<tag k="ssr:stedsnr" v="857231" />
	</node>
	<node id="-686207" lat="61.3748583354" lon="4.95642500493">
		<tag k="name" v="Hjartneset" />
		<tag k="natural" v="cape" />
		<tag k="ssr:stedsnr" v="857220" />
	</node>
	<node id="-684158" lat="61.2795222181" lon="4.88319999333">
		<tag k="name" v="Florskjertaren" />
		<tag k="natural" v="shoal" />
		<tag k="place" v="locality" />
		<tag k="ssr:stedsnr" v="295859" />
	</node>
	<node id="-684157" lat="61.3732611104" lon="4.63225000947">
		<tag k="name" v="Vestre Nygrunnen" />
		<tag k="natural" v="shoal" />
		<tag k="place" v="locality" />
		<tag k="ssr:stedsnr" v="295772" />
	</node>
	<node id="-684156" lat="61.3765555514" lon="5.02702777353">
		<tag k="name" v="Trettenes" />
		<tag k="natural" v="cape" />
		<tag k="ssr:stedsnr" v="295419" />
	</node>
	<node id="-684155" lat="61.3360055572" lon="5.03406389531">
		<tag k="name" v="Torholmen" />
		<tag k="place" v="islet" />
		<tag k="ssr:stedsnr" v="295040" />
	</node>
	<node id="-686201" lat="61.3245916695" lon="5.01332221273">
		<tag k="name" v="Leirvågvika" />
		<tag k="natural" v="bay" />
		<tag k="ssr:stedsnr" v="857192" />
	</node>
	<node id="-686200" lat="61.3212944491" lon="5.02226945174">
		<tag k="alt_name" v="Grovholmen" />
		<tag k="name" v="Grovaholmen" />
		<tag k="place" v="islet" />
		<tag k="ssr:stedsnr" v="857190" />
	</node>
	<node id="-684151" lat="61.3315083326" lon="4.88169999906">
		<tag k="name" v="Boltetaren" />
		<tag k="natural" v="shoal" />
		<tag k="place" v="locality" />
		<tag k="ssr:stedsnr" v="189124" />
	</node>
	<node id="-684150" lat="61.4630666647" lon="5.42735278639">
		<tag k="name" v="Ålaneset" />
		<tag k="natural" v="cape" />
		<tag k="ssr:stedsnr" v="189109" />
	</node>
	<node id="-686197" lat="61.4739527801" lon="5.42161388152">
		<tag k="name" v="Lekneshella" />
		<tag k="natural" v="cape" />
		<tag k="ssr:stedsnr" v="857042" />
	</node>
	<node id="-686196" lat="61.4766111069" lon="5.40963889318">
		<tag k="name" v="Kåpa" />
		<tag k="natural" v="cape" />
		<tag k="ssr:stedsnr" v="857041" />
	</node>
	<node id="-686193" lat="61.4692166629" lon="5.23989999997">
		<tag k="name" v="Brimneset" />
		<tag k="natural" v="cape" />
		<tag k="ssr:stedsnr" v="857034" />
	</node>
	<node id="-686191" lat="61.4082444455" lon="4.90005554664">
		<tag k="name" v="Langeneset" />
		<tag k="natural" v="cape" />
		<tag k="ssr:stedsnr" v="857286" />
	</node>
	<node id="-686190" lat="61.418697225" lon="4.89188889067">
		<tag k="name" v="Naustholmen" />
		<tag k="place" v="islet" />
		<tag k="ssr:stedsnr" v="857283" />
	</node>
	<node id="-686189" lat="61.3277666665" lon="4.84941667458">
		<tag k="name" v="Senholmen" />
		<tag k="place" v="islet" />
		<tag k="ssr:stedsnr" v="857148" />
	</node>
	<node id="-686188" lat="61.335330559" lon="5.02585833096">
		<tag k="name" v="Kumleneset" />
		<tag k="natural" v="cape" />
		<tag k="ssr:stedsnr" v="857135" />
	</node>
	<node id="-684050" lat="61.3229888847" lon="4.55673333552">
		<tag k="name" v="Håskallen" />
		<tag k="natural" v="shoal" />
		<tag k="place" v="locality" />
		<tag k="ssr:stedsnr" v="250389" />
	</node>
	<node id="-686180" lat="61.4806472219" lon="5.24942500188">
		<tag k="name" v="Flokeneset" />
		<tag k="natural" v="cape" />
		<tag k="ssr:stedsnr" v="841540" />
	</node>
	<node id="-686178" lat="61.2726388934" lon="4.70974167167">
		<tag k="alt_name" v="Sæingskjerbåane" />
		<tag k="name" v="Sædingsskjerbåane" />
		<tag k="natural" v="shoal" />
		<tag k="place" v="locality" />
		<tag k="ssr:stedsnr" v="841182" />
	</node>
	<node id="-684129" lat="61.2783222177" lon="4.73741944068">
		<tag k="name" v="Fløpoll-holmane" />
		<tag k="place" v="islet" />
		<tag k="ssr:stedsnr" v="280251" />
	</node>
	<node id="-684127" lat="61.3158055522" lon="4.68334444679">
		<tag k="fixme" v="consider seamark:type=rock or natural=shoal" />
		<tag k="name" v="Metteskjeret" />
		<tag k="place" v="islet" />
		<tag k="ssr:stedsnr" v="280190" />
	</node>
	<node id="-684126" lat="61.3183194416" lon="4.69593054871">
		<tag k="fixme" v="consider seamark:type=rock or natural=shoal" />
		<tag k="name" v="Punshovudet" />
		<tag k="place" v="islet" />
		<tag k="ssr:stedsnr" v="280189" />
	</node>
	<node id="-684125" lat="61.2898472227" lon="4.62993054855">
		<tag k="name" v="Bumannsneset" />
		<tag k="natural" v="cape" />
		<tag k="ssr:stedsnr" v="280173" />
	</node>
	<node id="-684124" lat="61.2880222196" lon="4.62036944117">
		<tag k="name" v="Kråka" />
		<tag k="place" v="islet" />
		<tag k="ssr:stedsnr" v="280163" />
	</node>
	<node id="-686171" lat="61.4419638852" lon="5.04951666716">
		<tag k="name" v="Våganeset" />
		<tag k="natural" v="cape" />
		<tag k="ssr:stedsnr" v="826660" />
	</node>
	<node id="-686168" lat="61.3187083375" lon="4.71690277472">
		<tag k="name" v="Kvernhusvågen" />
		<tag k="natural" v="bay" />
		<tag k="ssr:stedsnr" v="826257" />
	</node>
	<node id="-686167" lat="61.3201666693" lon="4.72746387939">
		<tag k="name" v="Kulten" />
		<tag k="place" v="islet" />
		<tag k="ssr:stedsnr" v="826255" />
	</node>
	<node id="-684116" lat="61.4702777761" lon="5.25062499841">
		<tag k="name" v="Havnen" />
		<tag k="natural" v="bay" />
		<tag k="ssr:stedsnr" v="279786" />
	</node>
	<node id="-686160" lat="61.4673638879" lon="5.23916111613">
		<tag k="name" v="Sjøburvik" />
		<tag k="natural" v="bay" />
		<tag k="ssr:stedsnr" v="825783" />
	</node>
	<node id="-684111" lat="61.3896861104" lon="4.88436943678">
		<tag k="fixme" v="consider seamark:type=rock or natural=shoal" />
		<tag k="name" v="Heggeskjeret" />
		<tag k="place" v="islet" />
		<tag k="ssr:stedsnr" v="279448" />
	</node>
	<node id="-686158" lat="61.4314305528" lon="5.00486666418">
		<tag k="name" v="Svarteskjervika" />
		<tag k="natural" v="bay" />
		<tag k="ssr:stedsnr" v="825759" />
	</node>
	<node id="-684108" lat="61.3299194423" lon="4.76904166874">
		<tag k="name" v="Litlestølsvågen" />
		<tag k="natural" v="bay" />
		<tag k="ssr:stedsnr" v="279332" />
	</node>
	<node id="-684044" lat="61.3753944487" lon="4.79153055223">
		<tag k="name" v="Tussenakken" />
		<tag k="natural" v="shoal" />
		<tag k="place" v="locality" />
		<tag k="ssr:stedsnr" v="250304" />
	</node>
	<node id="-686149" lat="61.3281194435" lon="4.93883332884">
		<tag k="name" v="Lokkvika" />
		<tag k="natural" v="bay" />
		<tag k="ssr:stedsnr" v="825483" />
	</node>
	<node id="-686148" lat="61.2868555534" lon="4.76418333347">
		<tag k="name" v="Amarkholmen" />
		<tag k="place" v="islet" />
		<tag k="ssr:stedsnr" v="825329" />
	</node>
	<node id="-686147" lat="61.2880416677" lon="4.76040277853">
		<tag k="name" v="Ganedalholmen" />
		<tag k="place" v="islet" />
		<tag k="ssr:stedsnr" v="825315" />
	</node>
	<node id="-684098" lat="61.4738444485" lon="5.24548333689">
		<tag k="name" v="Rognaldevika" />
		<tag k="natural" v="bay" />
		<tag k="ssr:stedsnr" v="278799" />
	</node>
	<node id="-686145" lat="61.3059027753" lon="4.91354999526">
		<tag k="name" v="Kalvågvika" />
		<tag k="natural" v="bay" />
		<tag k="ssr:stedsnr" v="825448" />
	</node>
	<node id="-686144" lat="61.296008331" lon="4.58988889825">
		<tag k="alt_name" v="N. Sandøyvåg" />
		<tag k="loc_name" v="Nordre Sandøyvågen" />
		<tag k="name" v="Nordre Sandøyvåg" />
		<tag k="natural" v="bay" />
		<tag k="ssr:stedsnr" v="825101" />
	</node>
	<node id="-686142" lat="61.3156249996" lon="4.7731361106">
		<tag k="name" v="Aldevågen" />
		<tag k="natural" v="bay" />
		<tag k="ssr:stedsnr" v="825260" />
	</node>
	<node id="-684084" lat="61.2759194452" lon="4.63739444623">
		<tag k="alt_name" v="Sæingsskjeret;Sengskjera" />
		<tag k="fixme" v="consider seamark:type=rock or natural=shoal" />
		<tag k="name" v="Sædingsskjeret" />
		<tag k="place" v="islet" />
		<tag k="ssr:stedsnr" v="129325" />
	</node>
	<node id="-686131" lat="61.3371111084" lon="5.17344999947">
		<tag k="name" v="Nolteskjeret" />
		<tag k="natural" v="shoal" />
		<tag k="place" v="locality" />
		<tag k="ssr:stedsnr" v="797349" />
	</node>
	<node id="-686130" lat="61.2746818646" lon="4.70751826049">
		<tag k="alt_name" v="Midtre Sengskjera;Midtre Sæingsskjera" />
		<tag k="fixme" v="consider seamark:type=rock or natural=shoal" />
		<tag k="name" v="Sædingsskjera" />
		<tag k="place" v="islet" />
		<tag k="ssr:stedsnr" v="797324" />
	</node>
	<node id="-686129" lat="61.4471249965" lon="4.66175556038">
		<tag k="alt_name" v="Lønnefallet" />
		<tag k="name" v="Lodnefallet" />
		<tag k="natural" v="shoal" />
		<tag k="place" v="locality" />
		<tag k="ssr:stedsnr" v="797482" />
	</node>
	<node id="-686128" lat="61.3584388905" lon="4.69181667574">
		<tag k="alt_name" v="Lamholmen" />
		<tag k="name" v="Lambholmen" />
		<tag k="place" v="islet" />
		<tag k="ssr:stedsnr" v="797392" />
	</node>
	<node id="-686127" lat="61.3256305556" lon="4.76231666784">
		<tag k="name" v="Alden" />
		<tag k="place" v="island" />
		<tag k="ssr:stedsnr" v="797151" />
	</node>
	<node id="-686123" lat="61.2897194486" lon="4.83972499378">
		<tag k="alt_name" v="Geitkvitingan" />
		<tag k="name" v="Geitekvitingen" />
		<tag k="place" v="islet" />
		<tag k="ssr:stedsnr" v="797095" />
	</node>
	<node id="-684074" lat="61.2958444405" lon="4.81469165795">
		<tag k="alt_name" v="Skardholmen, l" />
		<tag k="name" v="Litle Skardholmen" />
		<tag k="place" v="islet" />
		<tag k="ssr:stedsnr" v="129108" />
	</node>
	<node id="-686121" lat="61.2846222202" lon="4.86592221683">
		<tag k="name" v="Araldesundet" />
		<tag k="natural" v="strait" />
		<tag k="ssr:stedsnr" v="797081" />
	</node>
	<node id="-686120" lat="61.2836777817" lon="4.8266083346">
		<tag k="fixme" v="consider seamark:type=rock or natural=shoal" />
		<tag k="name" v="Stabben" />
		<tag k="place" v="islet" />
		<tag k="ssr:stedsnr" v="797068" />
	</node>
	<node id="-686119" lat="61.4781604295" lon="5.23058543979">
		<tag k="fixme" v="consider seamark:type=rock or natural=shoal" />
		<tag k="name" v="Røysekattskjeret" />
		<tag k="place" v="islet" />
		<tag k="ssr:stedsnr" v="797063" />
	</node>
	<node id="-686118" lat="61.2740722202" lon="4.57264445405">
		<tag k="name" v="Eliasnakken" />
		<tag k="natural" v="shoal" />
		<tag k="place" v="locality" />
		<tag k="ssr:stedsnr" v="797318" />
	</node>
	<node id="-686117" lat="61.2822861095" lon="4.71292500035">
		<tag k="alt_name" v="Nordre Leiaskjera;Leiaskjera" />
		<tag k="fixme" v="consider seamark:type=rock or natural=shoal" />
		<tag k="name" v="Leiaskjeret" />
		<tag k="place" v="islet" />
		<tag k="ssr:stedsnr" v="797317" />
	</node>
	<node id="-686116" lat="61.2879694456" lon="4.68114722273">
		<tag k="alt_name" v="Bjørnøyna, st;Store-Bjørnøy;Store Bjørnholmen" />
		<tag k="name" v="Store Bjørnøyna" />
		<tag k="place" v="islet" />
		<tag k="ssr:stedsnr" v="797316" />
	</node>
	<node id="-686115" lat="61.2822964123" lon="4.63920033667">
		<tag k="alt_name" v="Steinsøy" />
		<tag k="name" v="Steinsøyna" />
		<tag k="place" v="islet" />
		<tag k="ssr:stedsnr" v="797314" />
	</node>
	<node id="-686114" lat="61.4089583298" lon="4.99028889358">
		<tag k="alt_name" v="Illevika" />
		<tag k="name" v="Ilevika" />
		<tag k="natural" v="bay" />
		<tag k="ssr:stedsnr" v="797265" />
	</node>
	<node id="-686113" lat="61.4089638935" lon="4.75995555697">
		<tag k="name" v="Håbåane" />
		<tag k="natural" v="shoal" />
		<tag k="place" v="locality" />
		<tag k="ssr:stedsnr" v="797255" />
	</node>
	<node id="-686112" lat="61.3509555569" lon="4.83368333008">
		<tag k="name" v="Tvibyrge" />
		<tag k="place" v="island" />
		<tag k="ssr:stedsnr" v="797234" />
	</node>
	<node id="-684061" lat="61.3027305533" lon="4.90368055287">
		<tag k="name" v="Steinevika" />
		<tag k="natural" v="bay" />
		<tag k="ssr:stedsnr" v="97515" />
	</node>
	<node id="-686108" lat="61.2985444412" lon="4.70015834265">
		<tag k="name" v="Værøyna" />
		<tag k="place" v="island" />
		<tag k="ssr:stedsnr" v="796315" />
	</node>
	<node id="-686106" lat="61.3836416627" lon="4.91589444001">
		<tag k="name" v="Heggøyosen" />
		<tag k="natural" v="strait" />
		<tag k="ssr:stedsnr" v="796310" />
	</node>
	<node id="-686105" lat="61.3939166676" lon="5.03606666767">
		<tag k="name" v="Sanden" />
		<tag k="natural" v="bay" />
		<tag k="ssr:stedsnr" v="796306" />
	</node>
	<node id="-686104" lat="61.3866638869" lon="4.77029165859">
		<tag k="name" v="Klubben" />
		<tag k="place" v="islet" />
		<tag k="ssr:stedsnr" v="796302" />
	</node>
	<node id="-686103" lat="61.3925027751" lon="4.89347777883">
		<tag k="alt_name" v="Spongja" />
		<tag k="name" v="Sponga" />
		<tag k="place" v="islet" />
		<tag k="ssr:stedsnr" v="796300" />
	</node>
	<node id="-686102" lat="61.4004611125" lon="4.87898611369">
		<tag k="name" v="Ognholmdraga" />
		<tag k="natural" v="shoal" />
		<tag k="place" v="locality" />
		<tag k="ssr:stedsnr" v="796294" />
	</node>
	<node id="-686101" lat="61.3296194466" lon="5.11893610248">
		<tag k="alt_name" v="Hellestrand" />
		<tag k="name" v="Hellestranda" />
		<tag k="natural" v="beach" />
		<tag k="place" v="locality" />
		<tag k="ssr:stedsnr" v="796266" />
	</node>
	<node id="-684051" lat="61.3337555536" lon="4.74871666263">
		<tag k="alt_name" v="Terneskjer" />
		<tag k="fixme" v="consider seamark:type=rock or natural=shoal" />
		<tag k="name" v="Terneskjeret" />
		<tag k="place" v="islet" />
		<tag k="ssr:stedsnr" v="251243" />
	</node>
	<node id="-686098" lat="61.3579694467" lon="4.87677776983">
		<tag k="alt_name" v="Griseskjeret, store;Grisskjeret" />
		<tag k="fixme" v="consider seamark:type=rock or natural=shoal" />
		<tag k="name" v="Store Griseskjeret" />
		<tag k="place" v="islet" />
		<tag k="ssr:stedsnr" v="796197" />
	</node>
	<node id="-684049" lat="61.3499722252" lon="4.67695556136">
		<tag k="name" v="Andersøyna" />
		<tag k="place" v="islet" />
		<tag k="ssr:stedsnr" v="250387" />
	</node>
	<node id="-686096" lat="61.4484055586" lon="5.45257500269">
		<tag k="name" v="Løvika" />
		<tag k="natural" v="bay" />
		<tag k="ssr:stedsnr" v="796097" />
	</node>
	<node id="-686094" lat="61.4531777771" lon="5.10553054879">
		<tag k="name" v="Stølsvika" />
		<tag k="natural" v="bay" />
		<tag k="ssr:stedsnr" v="796082" />
	</node>
	<node id="-684045" lat="61.2860777772" lon="4.60307500091">
		<tag k="alt_name" v="Store-Bronkja" />
		<tag k="name" v="Bronkja" />
		<tag k="place" v="islet" />
		<tag k="ssr:stedsnr" v="250313" />
	</node>
	<node id="-686092" lat="61.4596277753" lon="5.21790000547">
		<tag k="name" v="Vågøyna" />
		<tag k="place" v="islet" />
		<tag k="ssr:stedsnr" v="796071" />
	</node>
	<node id="-684043" lat="61.3907416654" lon="4.93834167524">
		<tag k="alt_name" v="Skumsøyna" />
		<tag k="name" v="Skomsøyna" />
		<tag k="place" v="islet" />
		<tag k="ssr:stedsnr" v="250298" />
	</node>
	<node id="-686088" lat="61.4571250023" lon="5.12750277857">
		<tag k="alt_name" v="Moldvikflu;Moldvikflua" />
		<tag k="name" v="Moldvikefluna" />
		<tag k="natural" v="shoal" />
		<tag k="place" v="locality" />
		<tag k="ssr:stedsnr" v="796059" />
	</node>
	<node id="-686086" lat="61.32573056" lon="5.04086111625">
		<tag k="alt_name" v="Sauesundøyane" />
		<tag k="name" v="Sauesundøyna" />
		<tag k="place" v="islet" />
		<tag k="ssr:stedsnr" v="796178" />
	</node>
	<node id="-684037" lat="61.3804555517" lon="4.9833027779">
		<tag k="name" v="Saltholmen" />
		<tag k="place" v="islet" />
		<tag k="ssr:stedsnr" v="250228" />
	</node>
	<node id="-686083" lat="61.2938916659" lon="4.59237777513">
		<tag k="alt_name" v="Sandøy" />
		<tag k="name" v="Sandøyna" />
		<tag k="place" v="island" />
		<tag k="ssr:stedsnr" v="781905" />
	</node>
	<node id="-686082" lat="61.4681027796" lon="5.34400834043">
		<tag k="name" v="Hellefluna" />
		<tag k="place" v="locality" />
		<tag k="seamark:type" v="rock" />
		<tag k="ssr:stedsnr" v="781673" />
	</node>
	<node id="-684033" lat="61.370183332" lon="4.89370278484">
		<tag k="alt_name" v="Hamnaholmen" />
		<tag k="name" v="Hansholmen" />
		<tag k="place" v="islet" />
		<tag k="ssr:stedsnr" v="250217" />
	</node>
</osm>
