<?xml version="1.0" encoding="UTF-8"?>
<osm version="0.6" generator="osmapis">
	<node lat="61.36245555425907" lon="5.185563890535696" id="-84575">
		<tag k="name" v="Teigamyra" />
		<tag k="natural" v="wetland" />
		<tag k="ssr:stedsnr" v="33813" />
	</node>
	<node lat="61.45424722513489" lon="5.242541660419032" id="-84581">
		<tag k="name" v="Bordmyra" />
		<tag k="natural" v="wetland" />
		<tag k="ssr:stedsnr" v="36613" />
	</node>
	<node lat="61.44105833242728" lon="5.358494436047858" id="-84595">
		<tag k="name" v="Løkemyra" />
		<tag k="natural" v="wetland" />
		<tag k="ssr:stedsnr" v="37815" />
	</node>
	<node lat="61.45048333613232" lon="5.319661109985722" id="-84635">
		<tag k="name" v="Oksehagen" />
		<tag k="place" v="locality" />
		<tag k="ssr:stedsnr" v="97710" />
	</node>
	<node lat="61.41395555521527" lon="5.014652783774609" id="-84717">
		<tag k="alt_name" v="Dyttingmyra" />
		<tag k="name" v="Dyttinga" />
		<tag k="natural" v="wetland" />
		<tag k="ssr:stedsnr" v="251315" />
	</node>
	<node lat="61.45885832948246" lon="5.387669446319658" id="-84749">
		<tag k="name" v="Reinene" />
		<tag k="place" v="locality" />
		<tag k="ssr:stedsnr" v="157496" />
	</node>
	<node lat="61.46825555664853" lon="5.37910277007384" id="-84814">
		<tag k="name" v="Fjellsmyra" />
		<tag k="natural" v="wetland" />
		<tag k="ssr:stedsnr" v="219506" />
	</node>
	<node lat="61.43088055691083" lon="5.315755555160766" id="-84831">
		<tag k="name" v="Løkane" />
		<tag k="natural" v="wetland" />
		<tag k="ssr:stedsnr" v="219877" />
	</node>
	<node lat="61.438252777503926" lon="5.484216658748272" id="-84860">
		<tag k="name" v="Skogen" />
		<tag k="place" v="locality" />
		<tag k="ssr:stedsnr" v="279966" />
	</node>
	<node lat="61.419247224155505" lon="5.181866660372924" id="-84863">
		<tag k="name" v="Slette-vollen" />
		<tag k="place" v="locality" />
		<tag k="ssr:stedsnr" v="280420" />
	</node>
	<node lat="61.44760277718214" lon="5.0720583304972875" id="-84864">
		<tag k="name" v="Røvemyra" />
		<tag k="natural" v="wetland" />
		<tag k="ssr:stedsnr" v="280585" />
	</node>
	<node lat="61.456877774976334" lon="5.2550194541391875" id="-84873">
		<tag k="name" v="Hyljemyra" />
		<tag k="natural" v="wetland" />
		<tag k="ssr:stedsnr" v="461681" />
	</node>
	<node lat="61.46328333018182" lon="5.249941668614749" id="-84875">
		<tag k="name" v="Merkesvikmyrane" />
		<tag k="natural" v="wetland" />
		<tag k="ssr:stedsnr" v="461686" />
	</node>
	<node lat="61.45570000244211" lon="5.32505000593492" id="-84876">
		<tag k="name" v="Slokkemyra" />
		<tag k="natural" v="wetland" />
		<tag k="ssr:stedsnr" v="461710" />
	</node>
	<node lat="61.4112027761779" lon="4.991033331002611" id="-84877">
		<tag k="name" v="Illevikura" />
		<tag k="natural" v="scree" />
		<tag k="ssr:stedsnr" v="461717" />
	</node>
	<node lat="61.451308330974435" lon="5.108822220248399" id="-84887">
		<tag k="name" v="Stølsura" />
		<tag k="natural" v="scree" />
		<tag k="ssr:stedsnr" v="461998" />
	</node>
	<node lat="61.35996944660826" lon="4.9958027805862555" id="-84889">
		<tag k="name" v="Illebergmyra" />
		<tag k="natural" v="wetland" />
		<tag k="ssr:stedsnr" v="461916" />
	</node>
	<node lat="61.4168027765958" lon="5.129738891033497" id="-84931">
		<tag k="name" v="Stafsnesurene" />
		<tag k="natural" v="scree" />
		<tag k="ssr:stedsnr" v="339458" />
	</node>
	<node lat="61.46298611147107" lon="5.396997222638024" id="-84987">
		<tag k="name" v="Løkemyra" />
		<tag k="natural" v="wetland" />
		<tag k="ssr:stedsnr" v="397178" />
	</node>
	<node lat="61.341363893214464" lon="4.881297225558673" id="-84989">
		<tag k="name" v="Brurasteinen" />
		<tag k="natural" v="stone" />
		<tag k="ssr:stedsnr" v="397606" />
	</node>
	<node lat="61.37679722133594" lon="5.0077277809633935" id="-85102">
		<tag k="name" v="Hola" />
		<tag k="place" v="locality" />
		<tag k="ssr:stedsnr" v="461881" />
	</node>
	<node lat="61.42721666817835" lon="5.522469448396624" id="-85197">
		<tag k="name" v="Blåfonna" />
		<tag k="natural" v="glacier" />
		<tag k="ssr:stedsnr" v="493843" />
	</node>
	<node lat="61.35325000242109" lon="4.859805558919057" id="-85200">
		<tag k="name" v="Sælemyra" />
		<tag k="natural" v="wetland" />
		<tag k="ssr:stedsnr" v="519605" />
	</node>
	<node lat="61.45811667088539" lon="5.395674993143366" id="-85245">
		<tag k="name" v="Krinsmyra" />
		<tag k="natural" v="wetland" />
		<tag k="ssr:stedsnr" v="579143" />
	</node>
	<node lat="61.35570555638526" lon="5.050080555874494" id="-85247">
		<tag k="name" v="Slettevollen" />
		<tag k="place" v="locality" />
		<tag k="ssr:stedsnr" v="579898" />
	</node>
	<node lat="61.370624998190074" lon="5.207350008402599" id="-85298">
		<tag k="name" v="Ullsteinen" />
		<tag k="natural" v="stone" />
		<tag k="ssr:stedsnr" v="701298" />
	</node>
	<node lat="61.40931111099399" lon="5.122038885971688" id="-85310">
		<tag k="name" v="Sætura" />
		<tag k="natural" v="scree" />
		<tag k="ssr:stedsnr" v="703487" />
	</node>
	<node lat="61.42583888500334" lon="5.355161110363204" id="-85319">
		<tag k="name" v="Kurvura" />
		<tag k="natural" v="scree" />
		<tag k="ssr:stedsnr" v="703794" />
	</node>
	<node lat="61.45331944259174" lon="5.161938889516439" id="-85320">
		<tag k="name" v="Storesteinen" />
		<tag k="natural" v="stone" />
		<tag k="ssr:stedsnr" v="703976" />
	</node>
	<node lat="61.4078250030544" lon="5.110888885049244" id="-85337">
		<tag k="name" v="Skreda" />
		<tag k="natural" v="scree" />
		<tag k="ssr:stedsnr" v="705553" />
	</node>
	<node lat="61.362530551395274" lon="5.0470305618379845" id="-85387">
		<tag k="alt_name" v="Blåfjellsurane" />
		<tag k="name" v="Blåfjellsurdene" />
		<tag k="natural" v="scree" />
		<tag k="ssr:stedsnr" v="675266" />
	</node>
	<node lat="61.438966667069145" lon="5.209205552688137" id="-85409">
		<tag k="name" v="Liasteinane" />
		<tag k="natural" v="stone" />
		<tag k="ssr:stedsnr" v="701163" />
	</node>
	<node lat="61.437547224501934" lon="5.217769445337211" id="-85423">
		<tag k="name" v="Myrane" />
		<tag k="natural" v="wetland" />
		<tag k="ssr:stedsnr" v="704603" />
	</node>
	<node lat="61.43042500037187" lon="5.060980551731718" id="-85424">
		<tag k="name" v="Myrane" />
		<tag k="natural" v="wetland" />
		<tag k="ssr:stedsnr" v="704622" />
	</node>
	<node lat="61.37067499555048" lon="5.218586110867691" id="-85425">
		<tag k="name" v="Åsendemyra" />
		<tag k="natural" v="wetland" />
		<tag k="ssr:stedsnr" v="704763" />
	</node>
	<node lat="61.444999996154046" lon="5.357186117615071" id="-85426">
		<tag k="name" v="Storemyra" />
		<tag k="natural" v="wetland" />
		<tag k="ssr:stedsnr" v="704777" />
	</node>
	<node lat="61.466352777688094" lon="5.375222214309088" id="-85475">
		<tag k="name" v="Hagen" />
		<tag k="place" v="locality" />
		<tag k="ssr:stedsnr" v="764517" />
	</node>
	<node lat="61.45000555524255" lon="5.092869444936538" id="-85482">
		<tag k="name" v="Ramsura" />
		<tag k="natural" v="scree" />
		<tag k="ssr:stedsnr" v="765000" />
	</node>
	<node lat="61.424732938166834" lon="5.1546670417396765" id="-85493">
		<tag k="name" v="Urdheim" />
		<tag k="place" v="locality" />
		<tag k="ssr:stedsnr" v="796011" />
	</node>
	<node lat="61.36988333133476" lon="5.225925005375761" id="-85539">
		<tag k="name" v="Storemyra" />
		<tag k="natural" v="wetland" />
		<tag k="ssr:stedsnr" v="918147" />
	</node>
	<node lat="61.45567777844475" lon="5.451277774923809" id="-85603">
		<tag k="name" v="Tjernamyra" />
		<tag k="natural" v="wetland" />
		<tag k="ssr:stedsnr" v="857024" />
	</node>
	<node lat="61.44486388560105" lon="5.397863893700706" id="-85612">
		<tag k="historic" v="shieling" />
		<tag k="name" v="Gjelsvikestølen" />
		<tag k="place" v="locality" />
		<tag k="ssr:stedsnr" v="857113" />
	</node>
	<node lat="61.436855559117035" lon="5.362005553538523" id="-85789">
		<tag k="name" v="Myrane" />
		<tag k="natural" v="wetland" />
		<tag k="ssr:stedsnr" v="7011" />
	</node>
	<node lat="61.32036388893136" lon="4.792711106769464" id="-85804">
		<tag k="alt_name" v="Henjesteinen" />
		<tag k="name" v="Hengesteinen" />
		<tag k="natural" v="stone" />
		<tag k="ssr:stedsnr" v="7184" />
	</node>
	<node lat="61.410205559563224" lon="5.2302999954842635" id="-85809">
		<tag k="alt_name" v="Kvangremyra" />
		<tag k="name" v="Kvanngrødmyra" />
		<tag k="natural" v="wetland" />
		<tag k="ssr:stedsnr" v="7230" />
	</node>
	<node lat="61.45534722518332" lon="5.2009972248060095" id="-85843">
		<tag k="name" v="Rotemyra" />
		<tag k="natural" v="wetland" />
		<tag k="ssr:stedsnr" v="36994" />
	</node>
	<node lat="61.43112499632591" lon="5.2123027727098785" id="-85849">
		<tag k="name" v="Småforsteinen" />
		<tag k="natural" v="stone" />
		<tag k="ssr:stedsnr" v="36589" />
	</node>
	<node lat="61.414047225578216" lon="5.040208330877212" id="-85850">
		<tag k="name" v="Røvura" />
		<tag k="natural" v="scree" />
		<tag k="ssr:stedsnr" v="36591" />
	</node>
	<node lat="61.34000000014075" lon="5.11914999320756" id="-85941">
		<tag k="name" v="Myrane" />
		<tag k="natural" v="wetland" />
		<tag k="ssr:stedsnr" v="69369" />
	</node>
	<node lat="61.3627638869301" lon="5.247591665549596" id="-85961">
		<tag k="name" v="Lingjemyra" />
		<tag k="natural" v="wetland" />
		<tag k="ssr:stedsnr" v="97999" />
	</node>
	<node lat="61.3815333288913" lon="5.195436109051632" id="-85962">
		<tag k="name" v="Dyresteinen" />
		<tag k="natural" v="stone" />
		<tag k="ssr:stedsnr" v="98389" />
	</node>
	<node lat="61.36822777915166" lon="5.036438896642133" id="-85967">
		<tag k="name" v="Storurda" />
		<tag k="natural" v="scree" />
		<tag k="ssr:stedsnr" v="113399" />
	</node>
	<node lat="61.38832777728919" lon="5.058405550114694" id="-86021">
		<tag k="alt_name" v="Løkjene" />
		<tag k="name" v="Løkene" />
		<tag k="natural" v="wetland" />
		<tag k="ssr:stedsnr" v="129234" />
	</node>
	<node lat="61.3353388917404" lon="5.109950008961291" id="-86034">
		<tag k="name" v="Straumenmyrane" />
		<tag k="natural" v="wetland" />
		<tag k="ssr:stedsnr" v="155856" />
	</node>
	<node lat="61.368383336044765" lon="5.1823527829644025" id="-86041">
		<tag k="name" v="Holmedalsmarka" />
		<tag k="place" v="locality" />
		<tag k="ssr:stedsnr" v="155778" />
	</node>
	<node lat="61.415747225457864" lon="5.124919453065022" id="-86044">
		<tag k="name" v="Størdalsurene" />
		<tag k="natural" v="scree" />
		<tag k="ssr:stedsnr" v="157434" />
	</node>
	<node lat="61.42642222089884" lon="5.213833331217127" id="-86067">
		<tag k="name" v="Myrane" />
		<tag k="natural" v="wetland" />
		<tag k="ssr:stedsnr" v="158640" />
	</node>
	<node lat="61.42145555906991" lon="5.174649996378955" id="-86083">
		<tag k="alt_name" v="Skarmyra" />
		<tag k="name" v="Skardmyra" />
		<tag k="natural" v="wetland" />
		<tag k="ssr:stedsnr" v="189007" />
	</node>
	<node lat="61.35923055380104" lon="5.1466750042630975" id="-86146">
		<tag k="name" v="Løykene" />
		<tag k="natural" v="wetland" />
		<tag k="ssr:stedsnr" v="218371" />
	</node>
	<node lat="61.461149998823004" lon="5.363597218002387" id="-86161">
		<tag k="name" v="Myrane" />
		<tag k="natural" v="wetland" />
		<tag k="ssr:stedsnr" v="219551" />
	</node>
	<node lat="61.4396555536164" lon="5.221836109786146" id="-86185">
		<tag k="name" v="Merkingsgarden" />
		<tag k="place" v="locality" />
		<tag k="ssr:stedsnr" v="279662" />
	</node>
	<node lat="61.473280559022" lon="5.377041671400681" id="-86289">
		<tag k="name" v="Myrane" />
		<tag k="natural" v="wetland" />
		<tag k="ssr:stedsnr" v="340481" />
	</node>
	<node lat="61.45040555960976" lon="5.236494448367492" id="-86293">
		<tag k="name" v="Revura" />
		<tag k="natural" v="scree" />
		<tag k="ssr:stedsnr" v="340675" />
	</node>
	<node lat="61.44121388799152" lon="5.475975001406286" id="-86345">
		<tag k="name" v="Rundeseten" />
		<tag k="natural" v="scree" />
		<tag k="ssr:stedsnr" v="371845" />
	</node>
	<node lat="61.428627777694246" lon="5.22797777120618" id="-86368">
		<tag k="name" v="Båtesteinane" />
		<tag k="natural" v="stone" />
		<tag k="ssr:stedsnr" v="400623" />
	</node>
	<node lat="61.437872219671156" lon="5.454255558173701" id="-86375">
		<tag k="name" v="Botnaura" />
		<tag k="natural" v="scree" />
		<tag k="ssr:stedsnr" v="400947" />
	</node>
	<node lat="61.46001389189942" lon="5.339916665818592" id="-86457">
		<tag k="name" v="Selvikurane" />
		<tag k="natural" v="scree" />
		<tag k="ssr:stedsnr" v="521532" />
	</node>
	<node lat="61.42181666241666" lon="5.073075002320201" id="-86458">
		<tag k="name" v="Kvalsida" />
		<tag k="place" v="locality" />
		<tag k="ssr:stedsnr" v="521755" />
	</node>
	<node lat="61.36167499899615" lon="5.256199995087569" id="-86464">
		<tag k="name" v="Minne" />
		<tag k="place" v="locality" />
		<tag k="ssr:stedsnr" v="521996" />
	</node>
	<node lat="61.352277776093786" lon="4.989016669287127" id="-86528">
		<tag k="name" v="Bukkemyrane" />
		<tag k="natural" v="wetland" />
		<tag k="ssr:stedsnr" v="579574" />
	</node>
	<node lat="61.36643332994001" lon="5.158508328986717" id="-86533">
		<tag k="name" v="Teigane" />
		<tag k="place" v="locality" />
		<tag k="ssr:stedsnr" v="579784" />
	</node>
	<node lat="61.39045833701187" lon="5.1789666644104635" id="-86562">
		<tag k="historic" v="shieling" />
		<tag k="name" v="Nagelfloren" />
		<tag k="place" v="locality" />
		<tag k="ssr:stedsnr" v="583371" />
	</node>
	<node lat="61.33865833344264" lon="5.168122214892646" id="-86611">
		<tag k="name" v="Sudalsmyra" />
		<tag k="natural" v="wetland" />
		<tag k="ssr:stedsnr" v="639220" />
	</node>
	<node lat="61.4533194406635" lon="5.127024997330376" id="-86643">
		<tag k="name" v="Molvikmyrane" />
		<tag k="natural" v="wetland" />
		<tag k="ssr:stedsnr" v="643946" />
	</node>
	<node lat="61.406719445754966" lon="5.018652785989102" id="-86675">
		<tag k="name" v="Kvitsteinen" />
		<tag k="natural" v="stone" />
		<tag k="ssr:stedsnr" v="735281" />
	</node>
	<node lat="61.37337500013861" lon="5.304583331774055" id="-86776">
		<tag k="fixme" v="multiple name tags, choose one and add the other to alt_name" />
		<tag k="name" v="Stølsmyra;Storemyra" />
		<tag k="natural" v="wetland" />
		<tag k="ssr:stedsnr" v="797136" />
	</node>
	<node lat="61.330047224706504" lon="5.005088883754069" id="-86802">
		<tag k="name" v="Keipsvollen" />
		<tag k="place" v="locality" />
		<tag k="ssr:stedsnr" v="823908" />
	</node>
	<node lat="61.438194444448996" lon="5.504905561528479" id="-86813">
		<tag k="name" v="Hestvikrimma" />
		<tag k="natural" v="scree" />
		<tag k="ssr:stedsnr" v="825925" />
	</node>
	<node lat="61.29089166383735" lon="4.7630638962161695" id="-86818">
		<tag k="name" v="Amarkemyrane" />
		<tag k="natural" v="wetland" />
		<tag k="ssr:stedsnr" v="826362" />
	</node>
	<node lat="61.443338890615244" lon="5.456455562671608" id="-86822">
		<tag k="name" v="Brendesteinen" />
		<tag k="natural" v="stone" />
		<tag k="ssr:stedsnr" v="826976" />
	</node>
	<node lat="61.305513891659835" lon="4.709494448463049" id="-86883">
		<tag k="name" v="Vaulemyrane" />
		<tag k="natural" v="wetland" />
		<tag k="ssr:stedsnr" v="886281" />
	</node>
	<node lat="61.418680556999185" lon="5.028483342443791" id="-86896">
		<tag k="name" v="Løsteinen" />
		<tag k="natural" v="stone" />
		<tag k="ssr:stedsnr" v="887773" />
	</node>
	<node lat="61.41294166992836" lon="5.028166663505099" id="-86897">
		<tag k="name" v="Slettebakkura" />
		<tag k="natural" v="scree" />
		<tag k="ssr:stedsnr" v="887783" />
	</node>
	<node lat="61.314016667267296" lon="4.949638880982054" id="-86906">
		<tag k="name" v="Storemyra" />
		<tag k="natural" v="wetland" />
		<tag k="ssr:stedsnr" v="946492" />
	</node>
</osm>
