<?xml version="1.0" encoding="UTF-8"?>
<osm version="0.6" generator="osmapis">
	<node id="775350216" lat="62.260986" lon="5.5793196" version="4" timestamp="2022-08-15T18:47:50Z" changeset="124941285" uid="3497659" user="NKA">
		<tag k="name" v="Gjerde" />
		<tag k="place" v="hamlet" />
		<tag k="ssr:stedsnr" v="874894" />
	</node>
	<node id="775350217" lat="62.2578561" lon="5.583845" version="4" timestamp="2022-08-15T18:47:50Z" changeset="124941285" uid="3497659" user="NKA">
		<tag k="name" v="Gjerdsvika" />
		<tag k="place" v="village" />
		<tag k="ssr:stedsnr" v="476574" />
	</node>
	<node id="775358388" lat="62.235448" lon="5.5829377" version="10" timestamp="2022-08-15T18:47:50Z" changeset="124941285" uid="3497659" user="NKA">
		<tag k="name" v="Haugsbygda" />
		<tag k="place" v="village" />
		<tag k="population" v="280" />
		<tag k="population:date" v="2021-01-01" />
		<tag k="ref:ssb_tettsted" v="6032" />
		<tag k="source:population" v="SSB - befolkning i tettstedet" />
		<tag k="ssr:stedsnr" v="779595" />
	</node>
	<node id="775358752" lat="62.2246472" lon="5.6450224" version="6" timestamp="2022-08-15T18:47:50Z" changeset="124941285" uid="3497659" user="NKA">
		<tag k="name" v="Gurskebotn" />
		<tag k="place" v="hamlet" />
		<tag k="ssr:stedsnr" v="52411" />
	</node>
	<node id="775359627" lat="62.2068371" lon="5.5716078" version="10" timestamp="2022-08-15T18:47:50Z" changeset="124941285" uid="3497659" user="NKA">
		<tag k="name" v="Larsnes" />
		<tag k="place" v="village" />
		<tag k="population" v="668" />
		<tag k="population:date" v="2021-01-01" />
		<tag k="ref:ssb_tettsted" v="6031" />
		<tag k="source:population" v="SSB - befolkning i tettstedet" />
		<tag k="ssr:stedsnr" v="193559" />
	</node>
	<node id="775360097" lat="62.2208722" lon="5.5439428" version="5" timestamp="2022-08-15T18:47:50Z" changeset="124941285" uid="3497659" user="NKA">
		<tag k="name" v="Hallebygda" />
		<tag k="place" v="hamlet" />
		<tag k="ssr:stedsnr" v="291528" />
	</node>
	<node id="775779810" lat="62.1919617" lon="5.6318099" version="3" timestamp="2022-08-15T18:47:50Z" changeset="124941285" uid="3497659" user="NKA">
		<tag k="name" v="Årvika" />
		<tag k="place" v="hamlet" />
		<tag k="ssr:stedsnr" v="495488" />
	</node>
	<node id="2852903982" lat="62.2544876" lon="5.5806344" version="2" timestamp="2022-08-15T18:47:50Z" changeset="124941285" uid="3497659" user="NKA">
		<tag k="name" v="Sandanger" />
		<tag k="place" v="hamlet" />
		<tag k="ssr:stedsnr" v="375958" />
	</node>
	<node id="6167931892" lat="62.2098555" lon="5.3472699" version="2" timestamp="2022-08-15T18:47:50Z" changeset="124941285" uid="3497659" user="NKA">
		<tag k="name" v="Vestnes" />
		<tag k="place" v="farm" />
		<tag k="ssr:stedsnr" v="827317" />
	</node>
	<node id="6216715420" lat="62.2530933" lon="5.4801807" version="2" timestamp="2022-08-15T18:47:50Z" changeset="124941285" uid="3497659" user="NKA">
		<tag k="name" v="Sandshamn" />
		<tag k="place" v="village" />
		<tag k="ssr:stedsnr" v="739504" />
	</node>
	<node id="9955371063" lat="62.2416072" lon="5.4403845" version="1" timestamp="2022-08-15T18:47:50Z" changeset="124941285" uid="3497659" user="NKA">
		<tag k="name" v="Sande" />
		<tag k="place" v="hamlet" />
		<tag k="ssr:stedsnr" v="523285" />
	</node>
	<node id="9955371064" lat="62.1981616" lon="5.5963957" version="1" timestamp="2022-08-15T18:47:50Z" changeset="124941285" uid="3497659" user="NKA">
		<tag k="name" v="Dalen" />
		<tag k="place" v="hamlet" />
		<tag k="ssr:stedsnr" v="314579" />
	</node>
	<node id="9955371065" lat="62.2774546" lon="5.5522736" version="1" timestamp="2022-08-15T18:47:50Z" changeset="124941285" uid="3497659" user="NKA">
		<tag k="name" v="Hide" />
		<tag k="place" v="hamlet" />
		<tag k="ssr:stedsnr" v="314562" />
	</node>
	<node id="9955371066" lat="62.2184" lon="5.3666865" version="1" timestamp="2022-08-15T18:47:50Z" changeset="124941285" uid="3497659" user="NKA">
		<tag k="name" v="Støylen" />
		<tag k="place" v="farm" />
		<tag k="ssr:stedsnr" v="705339" />
	</node>
	<node id="9955371067" lat="62.2435027" lon="5.4348913" version="1" timestamp="2022-08-15T18:47:50Z" changeset="124941285" uid="3497659" user="NKA">
		<tag k="name" v="Lund" />
		<tag k="place" v="farm" />
		<tag k="ssr:stedsnr" v="887289" />
	</node>
	<node id="9955371068" lat="62.2439864" lon="5.4182392" version="1" timestamp="2022-08-15T18:47:50Z" changeset="124941285" uid="3497659" user="NKA">
		<tag k="name" v="Skare" />
		<tag k="place" v="hamlet" />
		<tag k="ssr:stedsnr" v="131652" />
	</node>
	<node id="9955371069" lat="62.2280277" lon="5.6842254" version="1" timestamp="2022-08-15T18:47:50Z" changeset="124941285" uid="3497659" user="NKA">
		<tag k="name" v="Høgestøylen" />
		<tag k="place" v="locality" />
		<tag k="ssr:stedsnr" v="584102" />
	</node>
	<node id="9955371070" lat="62.2322488" lon="5.6179556" version="1" timestamp="2022-08-15T18:47:50Z" changeset="124941285" uid="3497659" user="NKA">
		<tag k="name" v="Teige" />
		<tag k="place" v="isolated_dwelling" />
		<tag k="ssr:stedsnr" v="112599" />
	</node>
	<node id="9955371071" lat="62.2395074" lon="5.5655302" version="1" timestamp="2022-08-15T18:47:50Z" changeset="124941285" uid="3497659" user="NKA">
		<tag k="name" v="Saure" />
		<tag k="place" v="hamlet" />
		<tag k="ssr:stedsnr" v="10615" />
	</node>
	<node id="9955371072" lat="62.2343578" lon="5.6013172" version="1" timestamp="2022-08-15T18:47:50Z" changeset="124941285" uid="3497659" user="NKA">
		<tag k="name" v="Grøthaug" />
		<tag k="place" v="farm" />
		<tag k="ssr:stedsnr" v="173539" />
	</node>
	<node id="9955371073" lat="62.2220456" lon="5.7099125" version="1" timestamp="2022-08-15T18:47:50Z" changeset="124941285" uid="3497659" user="NKA">
		<tag k="name" v="Skoge" />
		<tag k="place" v="hamlet" />
		<tag k="ssr:stedsnr" v="556613" />
	</node>
	<node id="9955371074" lat="62.2287552" lon="5.368805" version="1" timestamp="2022-08-15T18:47:50Z" changeset="124941285" uid="3497659" user="NKA">
		<tag k="name" v="Riste" />
		<tag k="place" v="farm" />
		<tag k="ssr:stedsnr" v="220336" />
	</node>
	<node id="9955371075" lat="62.2228269" lon="5.6549312" version="1" timestamp="2022-08-15T18:47:50Z" changeset="124941285" uid="3497659" user="NKA">
		<tag k="name" v="Myklebust" />
		<tag k="place" v="hamlet" />
		<tag k="ssr:stedsnr" v="11578" />
	</node>
	<node id="9955371076" lat="62.2688451" lon="5.5542194" version="1" timestamp="2022-08-15T18:47:50Z" changeset="124941285" uid="3497659" user="NKA">
		<tag k="name" v="Nedre Stokkset" />
		<tag k="place" v="farm" />
		<tag k="ssr:stedsnr" v="354606" />
	</node>
	<node id="9955371077" lat="62.2263043" lon="5.6376703" version="1" timestamp="2022-08-15T18:47:50Z" changeset="124941285" uid="3497659" user="NKA">
		<tag k="alt_name" v="Sætre, yt" />
		<tag k="name" v="Ytre Sætre" />
		<tag k="place" v="farm" />
		<tag k="ssr:stedsnr" v="253593" />
	</node>
	<node id="9955371078" lat="62.2348395" lon="5.5811545" version="1" timestamp="2022-08-15T18:47:50Z" changeset="124941285" uid="3497659" user="NKA">
		<tag k="name" v="Hauge" />
		<tag k="place" v="farm" />
		<tag k="ssr:stedsnr" v="948235" />
	</node>
	<node id="9955371079" lat="62.1999916" lon="5.6730587" version="1" timestamp="2022-08-15T18:47:50Z" changeset="124941285" uid="3497659" user="NKA">
		<tag k="name" v="Storesætra" />
		<tag k="place" v="locality" />
		<tag k="ssr:stedsnr" v="280050" />
	</node>
	<node id="9955371080" lat="62.1910328" lon="5.608002" version="1" timestamp="2022-08-15T18:47:50Z" changeset="124941285" uid="3497659" user="NKA">
		<tag k="name" v="Leitet" />
		<tag k="place" v="farm" />
		<tag k="ssr:stedsnr" v="220292" />
	</node>
	<node id="9955371081" lat="62.2612361" lon="5.4054116" version="1" timestamp="2022-08-15T18:47:50Z" changeset="124941285" uid="3497659" user="NKA">
		<tag k="name" v="Grøtbuda" />
		<tag k="place" v="locality" />
		<tag k="ssr:stedsnr" v="827227" />
	</node>
	<node id="9955371082" lat="62.2646091" lon="5.5647669" version="1" timestamp="2022-08-15T18:47:50Z" changeset="124941285" uid="3497659" user="NKA">
		<tag k="name" v="Hageselle" />
		<tag k="place" v="hamlet" />
		<tag k="ssr:stedsnr" v="617536" />
	</node>
	<node id="9955371083" lat="62.2667031" lon="5.5589373" version="1" timestamp="2022-08-15T18:47:50Z" changeset="124941285" uid="3497659" user="NKA">
		<tag k="name" v="Øvre Stokkset" />
		<tag k="place" v="farm" />
		<tag k="ssr:stedsnr" v="779598" />
	</node>
	<node id="9955371084" lat="62.2136757" lon="5.6797845" version="1" timestamp="2022-08-15T18:47:50Z" changeset="124941285" uid="3497659" user="NKA">
		<tag k="name" v="Almestad" />
		<tag k="place" v="hamlet" />
		<tag k="ssr:stedsnr" v="678536" />
	</node>
	<node id="9955371085" lat="62.1996858" lon="5.7011582" version="1" timestamp="2022-08-15T18:47:50Z" changeset="124941285" uid="3497659" user="NKA">
		<tag k="name" v="Tødenes" />
		<tag k="place" v="farm" />
		<tag k="ssr:stedsnr" v="374491" />
	</node>
	<node id="9955371086" lat="62.2198791" lon="5.5525021" version="1" timestamp="2022-08-15T18:47:50Z" changeset="124941285" uid="3497659" user="NKA">
		<tag k="alt_name" v="Halle, indre" />
		<tag k="name" v="Indre Halle" />
		<tag k="place" v="farm" />
		<tag k="ssr:stedsnr" v="556614" />
	</node>
	<node id="9955371087" lat="62.2628459" lon="5.44923" version="1" timestamp="2022-08-15T18:47:50Z" changeset="124941285" uid="3497659" user="NKA">
		<tag k="name" v="Våge" />
		<tag k="place" v="hamlet" />
		<tag k="ssr:stedsnr" v="314551" />
	</node>
	<node id="9955371088" lat="62.2146367" lon="5.6472285" version="1" timestamp="2022-08-15T18:47:50Z" changeset="124941285" uid="3497659" user="NKA">
		<tag k="name" v="Gamlesætra" />
		<tag k="place" v="farm" />
		<tag k="ssr:stedsnr" v="678529" />
	</node>
	<node id="9955371089" lat="62.1948613" lon="5.4053402" version="1" timestamp="2022-08-15T18:47:50Z" changeset="124941285" uid="3497659" user="NKA">
		<tag k="name" v="Simonnes" />
		<tag k="place" v="farm" />
		<tag k="ssr:stedsnr" v="583266" />
	</node>
	<node id="9955371090" lat="62.2155855" lon="5.6499737" version="1" timestamp="2022-08-15T18:47:50Z" changeset="124941285" uid="3497659" user="NKA">
		<tag k="name" v="Vågen" />
		<tag k="place" v="hamlet" />
		<tag k="ssr:stedsnr" v="739588" />
	</node>
	<node id="9955371091" lat="62.2161988" lon="5.5619477" version="1" timestamp="2022-08-15T18:47:50Z" changeset="124941285" uid="3497659" user="NKA">
		<tag k="alt_name" v="Storegjerde" />
		<tag k="name" v="Stauregjerde" />
		<tag k="place" v="hamlet" />
		<tag k="ssr:stedsnr" v="132576" />
	</node>
	<node id="9955371092" lat="62.2194949" lon="5.3935562" version="1" timestamp="2022-08-15T18:47:50Z" changeset="124941285" uid="3497659" user="NKA">
		<tag k="name" v="Skaremyra" />
		<tag k="place" v="farm" />
		<tag k="ssr:stedsnr" v="38067" />
	</node>
	<node id="9955371093" lat="62.2013814" lon="5.3904694" version="1" timestamp="2022-08-15T18:47:50Z" changeset="124941285" uid="3497659" user="NKA">
		<tag k="name" v="Myra" />
		<tag k="place" v="farm" />
		<tag k="ssr:stedsnr" v="72570" />
	</node>
	<node id="9955371094" lat="62.2220917" lon="5.5440615" version="1" timestamp="2022-08-15T18:47:50Z" changeset="124941285" uid="3497659" user="NKA">
		<tag k="alt_name" v="Halle, ytre" />
		<tag k="name" v="Ytre Halle" />
		<tag k="place" v="farm" />
		<tag k="ssr:stedsnr" v="193586" />
	</node>
	<node id="9955371095" lat="62.247706" lon="5.475424" version="1" timestamp="2022-08-15T18:47:50Z" changeset="124941285" uid="3497659" user="NKA">
		<tag k="alt_name" v="Hauge" />
		<tag k="name" v="Haugen" />
		<tag k="place" v="farm" />
		<tag k="ssr:stedsnr" v="583183" />
	</node>
	<node id="9955371096" lat="62.2717148" lon="5.5522506" version="1" timestamp="2022-08-15T18:47:50Z" changeset="124941285" uid="3497659" user="NKA">
		<tag k="name" v="Gota" />
		<tag k="place" v="hamlet" />
		<tag k="ssr:stedsnr" v="132504" />
	</node>
	<node id="9955371097" lat="62.1943586" lon="5.6487007" version="1" timestamp="2022-08-15T18:47:50Z" changeset="124941285" uid="3497659" user="NKA">
		<tag k="name" v="Liset" />
		<tag k="place" v="hamlet" />
		<tag k="ssr:stedsnr" v="556535" />
	</node>
	<node id="9955371098" lat="62.2679169" lon="5.5568698" version="1" timestamp="2022-08-15T18:47:50Z" changeset="124941285" uid="3497659" user="NKA">
		<tag k="name" v="Stokkset" />
		<tag k="place" v="hamlet" />
		<tag k="ssr:stedsnr" v="71558" />
	</node>
	<node id="9955371099" lat="62.2415844" lon="5.5580091" version="1" timestamp="2022-08-15T18:47:50Z" changeset="124941285" uid="3497659" user="NKA">
		<tag k="name" v="Hagen" />
		<tag k="place" v="farm" />
		<tag k="ssr:stedsnr" v="112597" />
	</node>
	<node id="9955371100" lat="62.2238859" lon="5.6924499" version="1" timestamp="2022-08-15T18:47:50Z" changeset="124941285" uid="3497659" user="NKA">
		<tag k="name" v="Brekke" />
		<tag k="place" v="hamlet" />
		<tag k="ssr:stedsnr" v="556611" />
	</node>
	<node id="9955371101" lat="62.2302611" lon="5.6233505" version="1" timestamp="2022-08-15T18:47:50Z" changeset="124941285" uid="3497659" user="NKA">
		<tag k="name" v="Urene" />
		<tag k="place" v="farm" />
		<tag k="ssr:stedsnr" v="556598" />
	</node>
	<node id="9955371102" lat="62.1984174" lon="5.4177627" version="1" timestamp="2022-08-15T18:47:50Z" changeset="124941285" uid="3497659" user="NKA">
		<tag k="name" v="Bringsinghaug" />
		<tag k="place" v="village" />
		<tag k="ssr:stedsnr" v="11585" />
	</node>
	<node id="9955371103" lat="62.2179972" lon="5.376631" version="1" timestamp="2022-08-15T18:47:50Z" changeset="124941285" uid="3497659" user="NKA">
		<tag k="name" v="Dysa" />
		<tag k="place" v="farm" />
		<tag k="ssr:stedsnr" v="827316" />
	</node>
	<node id="9955371104" lat="62.2169694" lon="5.3725589" version="1" timestamp="2022-08-15T18:47:50Z" changeset="124941285" uid="3497659" user="NKA">
		<tag k="name" v="Nybakken" />
		<tag k="place" v="farm" />
		<tag k="ssr:stedsnr" v="766269" />
	</node>
	<node id="9955371105" lat="62.2164131" lon="5.5699301" version="1" timestamp="2022-08-15T18:47:50Z" changeset="124941285" uid="3497659" user="NKA">
		<tag k="name" v="Legene" />
		<tag k="place" v="farm" />
		<tag k="ssr:stedsnr" v="860629" />
	</node>
	<node id="9955371106" lat="62.198467" lon="5.5854542" version="1" timestamp="2022-08-15T18:47:50Z" changeset="124941285" uid="3497659" user="NKA">
		<tag k="name" v="Vasstranda" />
		<tag k="place" v="farm" />
		<tag k="ssr:stedsnr" v="159130" />
	</node>
	<node id="9955371107" lat="62.2061897" lon="5.3681602" version="1" timestamp="2022-08-15T18:47:50Z" changeset="124941285" uid="3497659" user="NKA">
		<tag k="name" v="Kvamme" />
		<tag k="place" v="hamlet" />
		<tag k="ssr:stedsnr" v="193602" />
	</node>
	<node id="9955371108" lat="62.2546052" lon="5.4659478" version="1" timestamp="2022-08-15T18:47:50Z" changeset="124941285" uid="3497659" user="NKA">
		<tag k="name" v="Myrane" />
		<tag k="place" v="farm" />
		<tag k="ssr:stedsnr" v="583241" />
	</node>
	<node id="9955371109" lat="62.2028236" lon="5.5802227" version="1" timestamp="2022-08-15T18:47:50Z" changeset="124941285" uid="3497659" user="NKA">
		<tag k="name" v="Ytre Saude" />
		<tag k="place" v="farm" />
		<tag k="ssr:stedsnr" v="887291" />
	</node>
	<node id="9955371110" lat="62.2458137" lon="5.4135924" version="1" timestamp="2022-08-15T18:47:50Z" changeset="124941285" uid="3497659" user="NKA">
		<tag k="name" v="Sandsenden" />
		<tag k="place" v="farm" />
		<tag k="ssr:stedsnr" v="51477" />
	</node>
	<node id="9955371111" lat="62.2448405" lon="5.463398" version="1" timestamp="2022-08-15T18:47:50Z" changeset="124941285" uid="3497659" user="NKA">
		<tag k="name" v="Bringsvor" />
		<tag k="place" v="hamlet" />
		<tag k="ssr:stedsnr" v="799671" />
	</node>
	<node id="9955371112" lat="62.215257" lon="5.4732059" version="1" timestamp="2022-08-15T18:47:50Z" changeset="124941285" uid="3497659" user="NKA">
		<tag k="name" v="Voksa" />
		<tag k="place" v="hamlet" />
		<tag k="ssr:stedsnr" v="71618" />
	</node>
	<node id="9955371113" lat="62.2461453" lon="5.4856252" version="1" timestamp="2022-08-15T18:47:50Z" changeset="124941285" uid="3497659" user="NKA">
		<tag k="name" v="Toftesund" />
		<tag k="place" v="farm" />
		<tag k="ssr:stedsnr" v="644176" />
	</node>
	<node id="9955371114" lat="62.2183393" lon="5.6364968" version="1" timestamp="2022-08-15T18:47:50Z" changeset="124941285" uid="3497659" user="NKA">
		<tag k="name" v="Vågstrand" />
		<tag k="place" v="farm" />
		<tag k="ssr:stedsnr" v="962448" />
	</node>
	<node id="9955371115" lat="62.2501833" lon="5.4775865" version="1" timestamp="2022-08-15T18:47:50Z" changeset="124941285" uid="3497659" user="NKA">
		<tag k="name" v="Leina" />
		<tag k="place" v="farm" />
		<tag k="ssr:stedsnr" v="341289" />
	</node>
	<node id="9955371116" lat="62.218669" lon="5.6340688" version="1" timestamp="2022-08-15T18:47:50Z" changeset="124941285" uid="3497659" user="NKA">
		<tag k="name" v="Langberg" />
		<tag k="place" v="farm" />
		<tag k="ssr:stedsnr" v="987303" />
	</node>
	<node id="9955446517" lat="62.2398497" lon="5.4774043" version="1" timestamp="2022-08-15T18:47:50Z" changeset="124941285" uid="3497659" user="NKA">
		<tag k="name" v="Voren" />
		<tag k="place" v="hamlet" />
		<tag k="ssr:stedsnr" v="799675" />
	</node>
	<node id="9955446518" lat="62.2418592" lon="5.4524256" version="1" timestamp="2022-08-15T18:47:50Z" changeset="124941285" uid="3497659" user="NKA">
		<tag k="name" v="Støyle" />
		<tag k="place" v="hamlet" />
		<tag k="ssr:stedsnr" v="192684" />
	</node>
	<node id="9955446519" lat="62.2191389" lon="5.386331" version="1" timestamp="2022-08-15T18:47:50Z" changeset="124941285" uid="3497659" user="NKA">
		<tag k="name" v="Rada" />
		<tag k="place" v="farm" />
		<tag k="ssr:stedsnr" v="644072" />
	</node>
	<node id="9955446520" lat="62.2562625" lon="5.4739593" version="1" timestamp="2022-08-15T18:47:50Z" changeset="124941285" uid="3497659" user="NKA">
		<tag k="alt_name" v="Sandsbakk;Sandebakken" />
		<tag k="name" v="Sandsbakken" />
		<tag k="place" v="farm" />
		<tag k="ssr:stedsnr" v="193523" />
	</node>
	<node id="9955446521" lat="62.2207064" lon="5.5495733" version="1" timestamp="2022-08-15T18:47:50Z" changeset="124941285" uid="3497659" user="NKA">
		<tag k="name" v="Halle" />
		<tag k="place" v="farm" />
		<tag k="ssr:stedsnr" v="412469" />
	</node>
	<node id="9955446522" lat="62.2238556" lon="5.5931599" version="1" timestamp="2022-08-15T18:47:50Z" changeset="124941285" uid="3497659" user="NKA">
		<tag k="name" v="Sandvik" />
		<tag k="place" v="hamlet" />
		<tag k="ssr:stedsnr" v="739625" />
	</node>
	<node id="9955446523" lat="62.2221587" lon="5.6649948" version="1" timestamp="2022-08-15T18:47:50Z" changeset="124941285" uid="3497659" user="NKA">
		<tag k="name" v="Bøen" />
		<tag k="place" v="farm" />
		<tag k="ssr:stedsnr" v="462194" />
	</node>
	<node id="9955446524" lat="62.2600945" lon="5.4139976" version="1" timestamp="2022-08-15T18:47:50Z" changeset="124941285" uid="3497659" user="NKA">
		<tag k="name" v="Vågane" />
		<tag k="place" v="locality" />
		<tag k="ssr:stedsnr" v="496529" />
	</node>
	<node id="9955446525" lat="62.2246214" lon="5.6111885" version="1" timestamp="2022-08-15T18:47:50Z" changeset="124941285" uid="3497659" user="NKA">
		<tag k="name" v="Storskar" />
		<tag k="place" v="farm" />
		<tag k="ssr:stedsnr" v="476582" />
	</node>
	<node id="9955446526" lat="62.2624834" lon="5.4278671" version="1" timestamp="2022-08-15T18:47:50Z" changeset="124941285" uid="3497659" user="NKA">
		<tag k="name" v="Plassen" />
		<tag k="place" v="locality" />
		<tag k="ssr:stedsnr" v="280225" />
	</node>
	<node id="9955446527" lat="62.2368627" lon="5.578474" version="1" timestamp="2022-08-15T18:47:50Z" changeset="124941285" uid="3497659" user="NKA">
		<tag k="alt_name" v="Hauge, yt" />
		<tag k="name" v="Ytre Hauge" />
		<tag k="place" v="farm" />
		<tag k="ssr:stedsnr" v="496616" />
	</node>
	<node id="9955446528" lat="62.2236285" lon="5.5373355" version="1" timestamp="2022-08-15T18:47:50Z" changeset="124941285" uid="3497659" user="NKA">
		<tag k="name" v="Nupen" />
		<tag k="place" v="hamlet" />
		<tag k="ssr:stedsnr" v="921639" />
	</node>
	<node id="9955446529" lat="62.2549488" lon="5.4795397" version="1" timestamp="2022-08-15T18:47:50Z" changeset="124941285" uid="3497659" user="NKA">
		<tag k="alt_name" v="Sande" />
		<tag k="name" v="Nørdre Sande" />
		<tag k="place" v="farm" />
		<tag k="ssr:stedsnr" v="827300" />
	</node>
	<node id="9955446530" lat="62.2032926" lon="5.7267923" version="1" timestamp="2022-08-15T18:47:50Z" changeset="124941285" uid="3497659" user="NKA">
		<tag k="name" v="Skrede" />
		<tag k="place" v="farm" />
		<tag k="ssr:stedsnr" v="982646" />
	</node>
	<node id="9955446531" lat="62.2567586" lon="5.5600021" version="1" timestamp="2022-08-15T18:47:50Z" changeset="124941285" uid="3497659" user="NKA">
		<tag k="name" v="Muren" />
		<tag k="place" v="hamlet" />
		<tag k="ssr:stedsnr" v="436480" />
	</node>
	<node id="9955446532" lat="62.1988555" lon="5.6734225" version="1" timestamp="2022-08-15T18:47:50Z" changeset="124941285" uid="3497659" user="NKA">
		<tag k="name" v="Litlesætra" />
		<tag k="place" v="locality" />
		<tag k="ssr:stedsnr" v="827149" />
	</node>
	<node id="9955446533" lat="62.190796" lon="5.6227303" version="1" timestamp="2022-08-15T18:47:50Z" changeset="124941285" uid="3497659" user="NKA">
		<tag k="name" v="Gjerdet" />
		<tag k="place" v="farm" />
		<tag k="ssr:stedsnr" v="401271" />
	</node>
	<node id="9955446534" lat="62.2161033" lon="5.4080055" version="1" timestamp="2022-08-15T18:47:50Z" changeset="124941285" uid="3497659" user="NKA">
		<tag k="name" v="Kalsnes" />
		<tag k="place" v="farm" />
		<tag k="ssr:stedsnr" v="38316" />
	</node>
	<node id="9955446535" lat="62.2006028" lon="5.3948171" version="1" timestamp="2022-08-15T18:47:50Z" changeset="124941285" uid="3497659" user="NKA">
		<tag k="name" v="Kvia" />
		<tag k="place" v="farm" />
		<tag k="ssr:stedsnr" v="719398" />
	</node>
	<node id="9955446536" lat="62.2241423" lon="5.7075778" version="1" timestamp="2022-08-15T18:47:50Z" changeset="124941285" uid="3497659" user="NKA">
		<tag k="name" v="Aurvoll" />
		<tag k="place" v="farm" />
		<tag k="ssr:stedsnr" v="72553" />
	</node>
	<node id="9955446537" lat="62.2014559" lon="5.5864914" version="1" timestamp="2022-08-15T18:47:50Z" changeset="124941285" uid="3497659" user="NKA">
		<tag k="name" v="Kvalen" />
		<tag k="place" v="hamlet" />
		<tag k="ssr:stedsnr" v="678546" />
	</node>
	<node id="9955446538" lat="62.2021046" lon="5.4163236" version="1" timestamp="2022-08-15T18:47:50Z" changeset="124941285" uid="3497659" user="NKA">
		<tag k="name" v="Hauge" />
		<tag k="place" v="farm" />
		<tag k="ssr:stedsnr" v="642382" />
	</node>
	<node id="9955446539" lat="62.1894269" lon="5.6002665" version="1" timestamp="2022-08-15T18:47:50Z" changeset="124941285" uid="3497659" user="NKA">
		<tag k="name" v="Saudane" />
		<tag k="place" v="hamlet" />
		<tag k="ssr:stedsnr" v="739517" />
	</node>
	<node id="9955446540" lat="62.2260152" lon="5.6408195" version="1" timestamp="2022-08-15T18:47:50Z" changeset="124941285" uid="3497659" user="NKA">
		<tag k="alt_name" v="Sætre, midtre" />
		<tag k="name" v="Midtre Sætre" />
		<tag k="place" v="farm" />
		<tag k="ssr:stedsnr" v="921600" />
	</node>
	<node id="9955446541" lat="62.1990194" lon="5.6493338" version="1" timestamp="2022-08-15T18:47:50Z" changeset="124941285" uid="3497659" user="NKA">
		<tag k="name" v="Lisetsætra" />
		<tag k="place" v="locality" />
		<tag k="ssr:stedsnr" v="402145" />
	</node>
	<node id="9955446542" lat="62.1992713" lon="5.3947724" version="1" timestamp="2022-08-15T18:47:50Z" changeset="124941285" uid="3497659" user="NKA">
		<tag k="alt_name" v="Hatlebrekke" />
		<tag k="name" v="Brekke" />
		<tag k="place" v="hamlet" />
		<tag k="ssr:stedsnr" v="436516" />
	</node>
	<node id="9955446543" lat="62.2583515" lon="5.5501456" version="1" timestamp="2022-08-15T18:47:50Z" changeset="124941285" uid="3497659" user="NKA">
		<tag k="name" v="Holane" />
		<tag k="place" v="farm" />
		<tag k="ssr:stedsnr" v="341228" />
	</node>
	<node id="9955446544" lat="62.2269672" lon="5.6414853" version="1" timestamp="2022-08-15T18:47:50Z" changeset="124941285" uid="3497659" user="NKA">
		<tag k="name" v="Sætre" />
		<tag k="place" v="hamlet" />
		<tag k="ssr:stedsnr" v="464124" />
	</node>
	<node id="9955446545" lat="62.2245185" lon="5.6804999" version="1" timestamp="2022-08-15T18:47:50Z" changeset="124941285" uid="3497659" user="NKA">
		<tag k="alt_name" v="Holte" />
		<tag k="name" v="Holtane" />
		<tag k="place" v="farm" />
		<tag k="ssr:stedsnr" v="341308" />
	</node>
	<node id="9955446546" lat="62.2078366" lon="5.4170282" version="1" timestamp="2022-08-15T18:47:50Z" changeset="124941285" uid="3497659" user="NKA">
		<tag k="name" v="Vonheim" />
		<tag k="place" v="farm" />
		<tag k="ssr:stedsnr" v="988098" />
	</node>
	<node id="9955446547" lat="62.2024785" lon="5.3825223" version="1" timestamp="2022-08-15T18:47:50Z" changeset="124941285" uid="3497659" user="NKA">
		<tag k="name" v="Støylen" />
		<tag k="place" v="hamlet" />
		<tag k="ssr:stedsnr" v="678584" />
	</node>
	<node id="9955446548" lat="62.1918228" lon="5.6243849" version="1" timestamp="2022-08-15T18:47:50Z" changeset="124941285" uid="3497659" user="NKA">
		<tag k="name" v="Mellagen" />
		<tag k="place" v="farm" />
		<tag k="ssr:stedsnr" v="341294" />
	</node>
	<node id="9955446549" lat="62.2202575" lon="5.3822232" version="1" timestamp="2022-08-15T18:47:50Z" changeset="124941285" uid="3497659" user="NKA">
		<tag k="name" v="Ristesundet" />
		<tag k="place" v="hamlet" />
		<tag k="ssr:stedsnr" v="10629" />
	</node>
	<node id="9955446550" lat="62.2572194" lon="5.5885114" version="1" timestamp="2022-08-15T18:47:50Z" changeset="124941285" uid="3497659" user="NKA">
		<tag k="name" v="Rise" />
		<tag k="place" v="neighbourhood" />
		<tag k="ssr:stedsnr" v="161125" />
	</node>
	<node id="9955446551" lat="62.2316646" lon="5.6169269" version="1" timestamp="2022-08-15T18:47:50Z" changeset="124941285" uid="3497659" user="NKA">
		<tag k="name" v="Vik" />
		<tag k="place" v="hamlet" />
		<tag k="ssr:stedsnr" v="132567" />
	</node>
	<node id="9955446552" lat="62.1932916" lon="5.5841894" version="1" timestamp="2022-08-15T18:47:50Z" changeset="124941285" uid="3497659" user="NKA">
		<tag k="name" v="Breivikneset" />
		<tag k="place" v="neighbourhood" />
		<tag k="ssr:stedsnr" v="950114" />
	</node>
	<node id="9955446553" lat="62.2211966" lon="5.6482351" version="1" timestamp="2022-08-15T18:47:50Z" changeset="124941285" uid="3497659" user="NKA">
		<tag k="name" v="Vågsneset" />
		<tag k="place" v="neighbourhood" />
		<tag k="ssr:stedsnr" v="161126" />
	</node>
	<node id="9955446554" lat="62.2032332" lon="5.7287241" version="1" timestamp="2022-08-15T18:47:50Z" changeset="124941285" uid="3497659" user="NKA">
		<tag k="alt_name" v="Skrede" />
		<tag k="name" v="Indre Skrede" />
		<tag k="place" v="farm" />
		<tag k="ssr:stedsnr" v="678089" />
	</node>
	<node id="9955446555" lat="62.172427" lon="5.3957963" version="1" timestamp="2022-08-15T18:47:50Z" changeset="124941285" uid="3497659" user="NKA">
		<tag k="name" v="Haugsholmen" />
		<tag k="place" v="farm" />
		<tag k="ssr:stedsnr" v="982631" />
	</node>
	<node id="9955446556" lat="62.1964362" lon="5.6683378" version="1" timestamp="2022-08-15T18:47:50Z" changeset="124941285" uid="3497659" user="NKA">
		<tag k="name" v="Torset" />
		<tag k="place" v="hamlet" />
		<tag k="ssr:stedsnr" v="71530" />
	</node>
	<node id="9955446557" lat="62.1977902" lon="5.6826402" version="1" timestamp="2022-08-15T18:47:50Z" changeset="124941285" uid="3497659" user="NKA">
		<tag k="alt_name" v="Oksavik" />
		<tag k="name" v="Oksavika" />
		<tag k="place" v="hamlet" />
		<tag k="ssr:stedsnr" v="10486" />
	</node>
	<node id="9955446558" lat="62.2059721" lon="5.5772767" version="1" timestamp="2022-08-15T18:47:50Z" changeset="124941285" uid="3497659" user="NKA">
		<tag k="name" v="Haugen" />
		<tag k="place" v="farm" />
		<tag k="ssr:stedsnr" v="766291" />
	</node>
	<node id="9955446559" lat="62.1994333" lon="5.6621893" version="1" timestamp="2022-08-15T18:47:50Z" changeset="124941285" uid="3497659" user="NKA">
		<tag k="name" v="Lisetsætra" />
		<tag k="place" v="locality" />
		<tag k="ssr:stedsnr" v="131530" />
	</node>
	<node id="9955446560" lat="62.2077433" lon="5.7722245" version="1" timestamp="2022-08-15T18:47:50Z" changeset="124941285" uid="3497659" user="NKA">
		<tag k="name" v="Laupen" />
		<tag k="place" v="farm" />
		<tag k="ssr:stedsnr" v="921072" />
	</node>
	<node id="9955446561" lat="62.1912004" lon="5.5933558" version="1" timestamp="2022-08-15T18:47:50Z" changeset="124941285" uid="3497659" user="NKA">
		<tag k="name" v="Breivika" />
		<tag k="place" v="hamlet" />
		<tag k="ssr:stedsnr" v="192580" />
	</node>
	<node id="9955446562" lat="62.1991341" lon="5.5821152" version="1" timestamp="2022-08-15T18:47:50Z" changeset="124941285" uid="3497659" user="NKA">
		<tag k="name" v="Gjerdet" />
		<tag k="place" v="farm" />
		<tag k="ssr:stedsnr" v="887264" />
	</node>
	<node id="9955446563" lat="62.1937138" lon="5.6426671" version="1" timestamp="2022-08-15T18:47:50Z" changeset="124941285" uid="3497659" user="NKA">
		<tag k="name" v="Rustene" />
		<tag k="place" v="neighbourhood" />
		<tag k="ssr:stedsnr" v="585104" />
	</node>
	<node id="9955446564" lat="62.2230913" lon="5.5416561" version="1" timestamp="2022-08-15T18:47:50Z" changeset="124941285" uid="3497659" user="NKA">
		<tag k="name" v="Kråna" />
		<tag k="place" v="farm" />
		<tag k="ssr:stedsnr" v="678615" />
	</node>
	<node id="9955446565" lat="62.1989" lon="5.5763781" version="1" timestamp="2022-08-15T18:47:50Z" changeset="124941285" uid="3497659" user="NKA">
		<tag k="alt_name" v="Vikane" />
		<tag k="name" v="Vika" />
		<tag k="place" v="farm" />
		<tag k="ssr:stedsnr" v="617555" />
	</node>
	<node id="9955446566" lat="62.2231666" lon="5.7099346" version="1" timestamp="2022-08-15T18:47:50Z" changeset="124941285" uid="3497659" user="NKA">
		<tag k="name" v="Seljeset" />
		<tag k="place" v="farm" />
		<tag k="ssr:stedsnr" v="193596" />
	</node>
	<node id="9955446567" lat="62.2348081" lon="5.5853309" version="1" timestamp="2022-08-15T18:47:50Z" changeset="124941285" uid="3497659" user="NKA">
		<tag k="alt_name" v="Hauge;Hauge, in" />
		<tag k="name" v="Indre Hauge" />
		<tag k="place" v="farm" />
		<tag k="ssr:stedsnr" v="678594" />
	</node>
	<node id="9955446568" lat="62.2540999" lon="5.5665395" version="1" timestamp="2022-08-15T18:47:50Z" changeset="124941285" uid="3497659" user="NKA">
		<tag k="name" v="Sætra" />
		<tag k="place" v="farm" />
		<tag k="ssr:stedsnr" v="597596" />
	</node>
	<node id="9955446569" lat="62.1923943" lon="5.6387945" version="1" timestamp="2022-08-15T18:47:50Z" changeset="124941285" uid="3497659" user="NKA">
		<tag k="name" v="Støylane" />
		<tag k="place" v="hamlet" />
		<tag k="ssr:stedsnr" v="192529" />
	</node>
	<node id="9955446570" lat="62.2348092" lon="5.5913686" version="1" timestamp="2022-08-15T18:47:50Z" changeset="124941285" uid="3497659" user="NKA">
		<tag k="name" v="Garden" />
		<tag k="place" v="farm" />
		<tag k="ssr:stedsnr" v="280227" />
	</node>
	<node id="9955446571" lat="62.1972022" lon="5.5796946" version="1" timestamp="2022-08-15T18:47:50Z" changeset="124941285" uid="3497659" user="NKA">
		<tag k="name" v="Grønevika" />
		<tag k="place" v="farm" />
		<tag k="ssr:stedsnr" v="705128" />
	</node>
	<node id="9955446572" lat="62.2438277" lon="5.430411" version="1" timestamp="2022-08-15T18:47:50Z" changeset="124941285" uid="3497659" user="NKA">
		<tag k="name" v="Kinna" />
		<tag k="place" v="hamlet" />
		<tag k="ssr:stedsnr" v="495645" />
	</node>
	<node id="9955446573" lat="62.225108" lon="5.6466584" version="1" timestamp="2022-08-15T18:47:50Z" changeset="124941285" uid="3497659" user="NKA">
		<tag k="alt_name" v="Sætre, in" />
		<tag k="name" v="Indre Sætre" />
		<tag k="place" v="farm" />
		<tag k="ssr:stedsnr" v="132570" />
	</node>
	<node id="9955446574" lat="62.2237995" lon="5.5777427" version="1" timestamp="2022-08-15T18:47:50Z" changeset="124941285" uid="3497659" user="NKA">
		<tag k="name" v="Strand" />
		<tag k="place" v="farm" />
		<tag k="ssr:stedsnr" v="739585" />
	</node>
	<node id="9955446575" lat="62.2624077" lon="5.4352223" version="1" timestamp="2022-08-15T18:47:50Z" changeset="124941285" uid="3497659" user="NKA">
		<tag k="name" v="Helland" />
		<tag k="place" v="hamlet" />
		<tag k="ssr:stedsnr" v="800496" />
	</node>
	<node id="9955446576" lat="62.228025" lon="5.621867" version="1" timestamp="2022-08-15T18:47:50Z" changeset="124941285" uid="3497659" user="NKA">
		<tag k="alt_name" v="Leirvika" />
		<tag k="name" v="Leirvik" />
		<tag k="place" v="farm" />
		<tag k="ssr:stedsnr" v="860611" />
	</node>
	<node id="9955446577" lat="62.2448073" lon="5.5429264" version="1" timestamp="2022-08-15T18:47:50Z" changeset="124941285" uid="3497659" user="NKA">
		<tag k="name" v="Røyset" />
		<tag k="place" v="hamlet" />
		<tag k="ssr:stedsnr" v="131593" />
	</node>
	<node id="9955446578" lat="62.2168235" lon="5.5713137" version="1" timestamp="2022-08-15T18:47:50Z" changeset="124941285" uid="3497659" user="NKA">
		<tag k="name" v="Nygard" />
		<tag k="place" v="farm" />
		<tag k="ssr:stedsnr" v="280231" />
	</node>
	<node id="9955446579" lat="62.2033402" lon="5.5787052" version="1" timestamp="2022-08-15T18:47:50Z" changeset="124941285" uid="3497659" user="NKA">
		<tag k="name" v="Garden" />
		<tag k="place" v="farm" />
		<tag k="ssr:stedsnr" v="280226" />
	</node>
	<node id="9955446580" lat="62.2336028" lon="5.6077162" version="1" timestamp="2022-08-15T18:47:50Z" changeset="124941285" uid="3497659" user="NKA">
		<tag k="name" v="Litlebøen" />
		<tag k="place" v="hamlet" />
		<tag k="ssr:stedsnr" v="617604" />
	</node>
	<node id="9955446581" lat="62.2222718" lon="5.6193997" version="1" timestamp="2022-08-15T18:47:50Z" changeset="124941285" uid="3497659" user="NKA">
		<tag k="name" v="Knotten" />
		<tag k="place" v="hamlet" />
		<tag k="ssr:stedsnr" v="860632" />
	</node>
</osm>
