<?xml version="1.0" encoding="UTF-8"?>
<osm version="0.6" generator="osmapis">
	<node lat="61.23638610782304" lon="7.702044446892415" id="-78519">
		<tag k="alt_name" v="Årdal" />
		<tag k="name" v="Årdal kommune" />
		<tag k="ssr:date" v="2019-12-27" />
		<tag k="ssr:gruppe" v="administrativeIndelinger" />
		<tag k="ssr:hovedgruppe" v="offentligAdministrasjon" />
		<tag k="ssr:stedsnr" v="208522" />
		<tag k="ssr:type" v="kommune" />
	</node>
	<node lat="61.188208333757956" lon="7.621908326282752" id="-78567">
		<tag k="name" v="Nysetvegen" />
		<tag k="ssr:date" v="2019-12-27" />
		<tag k="ssr:gruppe" v="veg" />
		<tag k="ssr:hovedgruppe" v="infrastruktur" />
		<tag k="ssr:stedsnr" v="363902" />
		<tag k="ssr:type" v="adressenavn" />
	</node>
	<node lat="61.274649996329785" lon="8.02364721416286" id="-78598">
		<tag k="name" v="Sletterust" />
		<tag k="ssr:date" v="2019-12-27" />
		<tag k="ssr:gruppe" v="veg" />
		<tag k="ssr:hovedgruppe" v="infrastruktur" />
		<tag k="ssr:stedsnr" v="424910" />
		<tag k="ssr:type" v="adressenavn" />
	</node>
	<node lat="61.271475002885715" lon="8.111697214436612" id="-78892">
		<tag k="name" v="Langleiskardvegen" />
		<tag k="ssr:date" v="2019-12-27" />
		<tag k="ssr:gruppe" v="veg" />
		<tag k="ssr:hovedgruppe" v="infrastruktur" />
		<tag k="ssr:stedsnr" v="849929" />
		<tag k="ssr:type" v="adressenavn" />
	</node>
	<node lat="61.273866663763464" lon="8.015744436732346" id="-78893">
		<tag k="name" v="Mannsbergi" />
		<tag k="ssr:date" v="2019-12-27" />
		<tag k="ssr:gruppe" v="veg" />
		<tag k="ssr:hovedgruppe" v="infrastruktur" />
		<tag k="ssr:stedsnr" v="849931" />
		<tag k="ssr:type" v="adressenavn" />
	</node>
	<node lat="61.206080116248096" lon="7.39483379857872" id="-79034">
		<tag k="alt_name" v="Kvarvnes" />
		<tag k="name" v="Kvarvnes lykt" />
		<tag k="ssr:date" v="2019-12-27" />
		<tag k="ssr:gruppe" v="navigasjon" />
		<tag k="ssr:hovedgruppe" v="infrastruktur" />
		<tag k="ssr:stedsnr" v="115246" />
		<tag k="ssr:type" v="fyrlykt" />
	</node>
	<node lat="61.213916808491106" lon="7.624821589403788" id="-79162">
		<tag k="name" v="Resnestangen lanterne" />
		<tag k="ssr:date" v="2022-01-11" />
		<tag k="ssr:gruppe" v="navigasjon" />
		<tag k="ssr:hovedgruppe" v="infrastruktur" />
		<tag k="ssr:stedsnr" v="360850" />
		<tag k="ssr:type" v="lanterne" />
	</node>
	<node lat="61.192438887829354" lon="7.625630563322982" id="-79461">
		<tag k="name" v="Hovlandsvegen" />
		<tag k="ssr:date" v="2019-12-27" />
		<tag k="ssr:gruppe" v="veg" />
		<tag k="ssr:hovedgruppe" v="infrastruktur" />
		<tag k="ssr:stedsnr" v="849921" />
		<tag k="ssr:type" v="adressenavn" />
	</node>
	<node lat="61.234755554438166" lon="7.715216657430004" id="-79462">
		<tag k="name" v="Vikadalsvegen" />
		<tag k="ssr:date" v="2019-12-27" />
		<tag k="ssr:gruppe" v="veg" />
		<tag k="ssr:hovedgruppe" v="infrastruktur" />
		<tag k="ssr:stedsnr" v="849925" />
		<tag k="ssr:type" v="adressenavn" />
	</node>
	<node lat="61.23848615699246" lon="7.716482430433252" id="-79513">
		<tag k="name" v="Huldrevegen" />
		<tag k="ssr:date" v="2019-12-27" />
		<tag k="ssr:gruppe" v="veg" />
		<tag k="ssr:hovedgruppe" v="infrastruktur" />
		<tag k="ssr:stedsnr" v="1052487" />
		<tag k="ssr:type" v="adressenavn" />
	</node>
	<node lat="61.2399101244157" lon="7.720037325400434" id="-79514">
		<tag k="name" v="Vasstakvegen" />
		<tag k="ssr:date" v="2019-12-27" />
		<tag k="ssr:gruppe" v="veg" />
		<tag k="ssr:hovedgruppe" v="infrastruktur" />
		<tag k="ssr:stedsnr" v="1052489" />
		<tag k="ssr:type" v="adressenavn" />
	</node>
	<node lat="61.2417713912065" lon="7.723846281790921" id="-79515">
		<tag k="name" v="Humlevegen" />
		<tag k="ssr:date" v="2019-12-27" />
		<tag k="ssr:gruppe" v="veg" />
		<tag k="ssr:hovedgruppe" v="infrastruktur" />
		<tag k="ssr:stedsnr" v="1052492" />
		<tag k="ssr:type" v="adressenavn" />
	</node>
	<node lat="61.24099468488415" lon="7.722443862580399" id="-79517">
		<tag k="name" v="Kvilevegen" />
		<tag k="ssr:date" v="2019-12-27" />
		<tag k="ssr:gruppe" v="veg" />
		<tag k="ssr:hovedgruppe" v="infrastruktur" />
		<tag k="ssr:stedsnr" v="1052495" />
		<tag k="ssr:type" v="adressenavn" />
	</node>
	<node lat="61.24136673865875" lon="7.723306686980592" id="-79518">
		<tag k="name" v="Mjølkevegen" />
		<tag k="ssr:date" v="2019-12-27" />
		<tag k="ssr:gruppe" v="veg" />
		<tag k="ssr:hovedgruppe" v="infrastruktur" />
		<tag k="ssr:stedsnr" v="1052498" />
		<tag k="ssr:type" v="adressenavn" />
	</node>
	<node lat="61.32257329232624" lon="7.8322041515036815" id="-79519">
		<tag k="name" v="Volldalsvegen" />
		<tag k="ssr:date" v="2019-12-27" />
		<tag k="ssr:gruppe" v="veg" />
		<tag k="ssr:hovedgruppe" v="infrastruktur" />
		<tag k="ssr:stedsnr" v="1052246" />
		<tag k="ssr:type" v="adressenavn" />
	</node>
	<node lat="61.32205066072015" lon="7.8322434747154155" id="-79520">
		<tag k="name" v="Prestteigvegen" />
		<tag k="ssr:date" v="2019-12-27" />
		<tag k="ssr:gruppe" v="veg" />
		<tag k="ssr:hovedgruppe" v="infrastruktur" />
		<tag k="ssr:stedsnr" v="1052247" />
		<tag k="ssr:type" v="adressenavn" />
	</node>
	<node lat="61.321334619451925" lon="7.83448429898901" id="-79521">
		<tag k="name" v="Utlavegen" />
		<tag k="ssr:date" v="2019-12-27" />
		<tag k="ssr:gruppe" v="veg" />
		<tag k="ssr:hovedgruppe" v="infrastruktur" />
		<tag k="ssr:stedsnr" v="1052248" />
		<tag k="ssr:type" v="adressenavn" />
	</node>
	<node lat="61.32257329232624" lon="7.8322041515036815" id="-79522">
		<tag k="name" v="Holevegen" />
		<tag k="ssr:date" v="2019-12-27" />
		<tag k="ssr:gruppe" v="veg" />
		<tag k="ssr:hovedgruppe" v="infrastruktur" />
		<tag k="ssr:stedsnr" v="1052249" />
		<tag k="ssr:type" v="adressenavn" />
	</node>
	<node lat="61.32330738002487" lon="7.831969976121833" id="-79523">
		<tag k="name" v="Ekrevegen" />
		<tag k="ssr:date" v="2019-12-27" />
		<tag k="ssr:gruppe" v="veg" />
		<tag k="ssr:hovedgruppe" v="infrastruktur" />
		<tag k="ssr:stedsnr" v="1052250" />
		<tag k="ssr:type" v="adressenavn" />
	</node>
	<node lat="61.32266819707837" lon="7.833279746157388" id="-79524">
		<tag k="name" v="Teigavegen" />
		<tag k="ssr:date" v="2019-12-27" />
		<tag k="ssr:gruppe" v="veg" />
		<tag k="ssr:hovedgruppe" v="infrastruktur" />
		<tag k="ssr:stedsnr" v="1052251" />
		<tag k="ssr:type" v="adressenavn" />
	</node>
	<node lat="61.322415905131066" lon="7.847410008422926" id="-79526">
		<tag k="name" v="Storøyni" />
		<tag k="ssr:date" v="2019-12-27" />
		<tag k="ssr:gruppe" v="veg" />
		<tag k="ssr:hovedgruppe" v="infrastruktur" />
		<tag k="ssr:stedsnr" v="1052253" />
		<tag k="ssr:type" v="adressenavn" />
	</node>
	<node lat="61.32875243060744" lon="7.857631691948236" id="-79528">
		<tag k="name" v="Myri" />
		<tag k="ssr:date" v="2019-12-27" />
		<tag k="ssr:gruppe" v="veg" />
		<tag k="ssr:hovedgruppe" v="infrastruktur" />
		<tag k="ssr:stedsnr" v="1052255" />
		<tag k="ssr:type" v="adressenavn" />
	</node>
	<node lat="61.32913562659023" lon="7.857455089017757" id="-79530">
		<tag k="name" v="Tråi" />
		<tag k="ssr:date" v="2019-12-27" />
		<tag k="ssr:gruppe" v="veg" />
		<tag k="ssr:hovedgruppe" v="infrastruktur" />
		<tag k="ssr:stedsnr" v="1052257" />
		<tag k="ssr:type" v="adressenavn" />
	</node>
	<node lat="61.24334233782754" lon="7.649694273604939" id="-79536">
		<tag k="name" v="Bringevegen" />
		<tag k="ssr:date" v="2019-12-27" />
		<tag k="ssr:gruppe" v="veg" />
		<tag k="ssr:hovedgruppe" v="infrastruktur" />
		<tag k="ssr:stedsnr" v="1052273" />
		<tag k="ssr:type" v="adressenavn" />
	</node>
	<node lat="61.24417403842371" lon="7.648028031941765" id="-79537">
		<tag k="name" v="Reina" />
		<tag k="ssr:date" v="2019-12-27" />
		<tag k="ssr:gruppe" v="veg" />
		<tag k="ssr:hovedgruppe" v="infrastruktur" />
		<tag k="ssr:stedsnr" v="1052274" />
		<tag k="ssr:type" v="adressenavn" />
	</node>
	<node lat="61.2423579513572" lon="7.651388767986221" id="-79538">
		<tag k="name" v="Holmavegen" />
		<tag k="ssr:date" v="2019-12-27" />
		<tag k="ssr:gruppe" v="veg" />
		<tag k="ssr:hovedgruppe" v="infrastruktur" />
		<tag k="ssr:stedsnr" v="1052275" />
		<tag k="ssr:type" v="adressenavn" />
	</node>
	<node lat="61.24300103467741" lon="7.650844864098044" id="-79539">
		<tag k="name" v="Gamlevegen" />
		<tag k="ssr:date" v="2019-12-27" />
		<tag k="ssr:gruppe" v="veg" />
		<tag k="ssr:hovedgruppe" v="infrastruktur" />
		<tag k="ssr:stedsnr" v="1052276" />
		<tag k="ssr:type" v="adressenavn" />
	</node>
	<node lat="61.248556184792605" lon="7.650883121040198" id="-79540">
		<tag k="name" v="Haugahaugen" />
		<tag k="ssr:date" v="2019-12-27" />
		<tag k="ssr:gruppe" v="veg" />
		<tag k="ssr:hovedgruppe" v="infrastruktur" />
		<tag k="ssr:stedsnr" v="1052277" />
		<tag k="ssr:type" v="adressenavn" />
	</node>
	<node lat="61.24794720554172" lon="7.649801920388825" id="-79541">
		<tag k="name" v="Tungeteigen" />
		<tag k="ssr:date" v="2019-12-27" />
		<tag k="ssr:gruppe" v="veg" />
		<tag k="ssr:hovedgruppe" v="infrastruktur" />
		<tag k="ssr:stedsnr" v="1052278" />
		<tag k="ssr:type" v="adressenavn" />
	</node>
	<node lat="61.24241106715333" lon="7.654499720054844" id="-79542">
		<tag k="name" v="Øyane" />
		<tag k="ssr:date" v="2019-12-27" />
		<tag k="ssr:gruppe" v="veg" />
		<tag k="ssr:hovedgruppe" v="infrastruktur" />
		<tag k="ssr:stedsnr" v="1052279" />
		<tag k="ssr:type" v="adressenavn" />
	</node>
	<node lat="61.249821759927904" lon="7.654284909738413" id="-79543">
		<tag k="name" v="Seimshagane" />
		<tag k="ssr:date" v="2019-12-27" />
		<tag k="ssr:gruppe" v="veg" />
		<tag k="ssr:hovedgruppe" v="infrastruktur" />
		<tag k="ssr:stedsnr" v="1052280" />
		<tag k="ssr:type" v="adressenavn" />
	</node>
	<node lat="61.2441308901021" lon="7.652780654349698" id="-79544">
		<tag k="name" v="Seimsvegen" />
		<tag k="ssr:date" v="2019-12-27" />
		<tag k="ssr:gruppe" v="veg" />
		<tag k="ssr:hovedgruppe" v="infrastruktur" />
		<tag k="ssr:stedsnr" v="1052281" />
		<tag k="ssr:type" v="adressenavn" />
	</node>
	<node lat="61.23879507838562" lon="7.664144217517086" id="-79546">
		<tag k="name" v="Dalavegen" />
		<tag k="ssr:date" v="2019-12-27" />
		<tag k="ssr:gruppe" v="veg" />
		<tag k="ssr:hovedgruppe" v="infrastruktur" />
		<tag k="ssr:stedsnr" v="1052283" />
		<tag k="ssr:type" v="adressenavn" />
	</node>
	<node lat="61.24171109216331" lon="7.718889904981804" id="-79547">
		<tag k="name" v="Torvald Lægreids veg" />
		<tag k="ssr:date" v="2019-12-27" />
		<tag k="ssr:gruppe" v="veg" />
		<tag k="ssr:hovedgruppe" v="infrastruktur" />
		<tag k="ssr:stedsnr" v="1052423" />
		<tag k="ssr:type" v="adressenavn" />
	</node>
	<node lat="61.24087885556947" lon="7.720345656906627" id="-79548">
		<tag k="name" v="Nordahl Griegs veg" />
		<tag k="ssr:date" v="2019-12-27" />
		<tag k="ssr:gruppe" v="veg" />
		<tag k="ssr:hovedgruppe" v="infrastruktur" />
		<tag k="ssr:stedsnr" v="1052425" />
		<tag k="ssr:type" v="adressenavn" />
	</node>
	<node lat="61.238507468872115" lon="7.715440900414657" id="-79549">
		<tag k="name" v="Langvollvegen" />
		<tag k="ssr:date" v="2019-12-27" />
		<tag k="ssr:gruppe" v="veg" />
		<tag k="ssr:hovedgruppe" v="infrastruktur" />
		<tag k="ssr:stedsnr" v="1052427" />
		<tag k="ssr:type" v="adressenavn" />
	</node>
	<node lat="61.24171109216331" lon="7.718889904981804" id="-79550">
		<tag k="name" v="Rindevegen" />
		<tag k="ssr:date" v="2019-12-27" />
		<tag k="ssr:gruppe" v="veg" />
		<tag k="ssr:hovedgruppe" v="infrastruktur" />
		<tag k="ssr:stedsnr" v="1052429" />
		<tag k="ssr:type" v="adressenavn" />
	</node>
	<node lat="61.23650166856397" lon="7.697356701447956" id="-79551">
		<tag k="name" v="Hæreidsvegen" />
		<tag k="ssr:date" v="2019-12-27" />
		<tag k="ssr:gruppe" v="veg" />
		<tag k="ssr:hovedgruppe" v="infrastruktur" />
		<tag k="ssr:stedsnr" v="1052431" />
		<tag k="ssr:type" v="adressenavn" />
	</node>
	<node lat="61.237377388303976" lon="7.697126383368941" id="-79552">
		<tag k="name" v="Kringlevegen" />
		<tag k="ssr:date" v="2019-12-27" />
		<tag k="ssr:gruppe" v="veg" />
		<tag k="ssr:hovedgruppe" v="infrastruktur" />
		<tag k="ssr:stedsnr" v="1052433" />
		<tag k="ssr:type" v="adressenavn" />
	</node>
	<node lat="61.241912680447825" lon="7.718812554336201" id="-79553">
		<tag k="name" v="Vassbugvegen" />
		<tag k="ssr:date" v="2019-12-27" />
		<tag k="ssr:gruppe" v="veg" />
		<tag k="ssr:hovedgruppe" v="infrastruktur" />
		<tag k="ssr:stedsnr" v="1052435" />
		<tag k="ssr:type" v="adressenavn" />
	</node>
	<node lat="61.2365305473556" lon="7.699039469992568" id="-79554">
		<tag k="name" v="Hydrovegen" />
		<tag k="ssr:date" v="2019-12-27" />
		<tag k="ssr:gruppe" v="veg" />
		<tag k="ssr:hovedgruppe" v="infrastruktur" />
		<tag k="ssr:stedsnr" v="1052437" />
		<tag k="ssr:type" v="adressenavn" />
	</node>
	<node lat="61.23911938546867" lon="7.712396536589128" id="-79555">
		<tag k="name" v="Lægreidsvegen" />
		<tag k="ssr:date" v="2019-12-27" />
		<tag k="ssr:gruppe" v="veg" />
		<tag k="ssr:hovedgruppe" v="infrastruktur" />
		<tag k="ssr:stedsnr" v="1052439" />
		<tag k="ssr:type" v="adressenavn" />
	</node>
	<node lat="61.23602221305245" lon="7.702209452653661" id="-79556">
		<tag k="name" v="Tangevegen" />
		<tag k="ssr:date" v="2019-12-27" />
		<tag k="ssr:gruppe" v="veg" />
		<tag k="ssr:hovedgruppe" v="infrastruktur" />
		<tag k="ssr:stedsnr" v="1052440" />
		<tag k="ssr:type" v="adressenavn" />
	</node>
	<node lat="61.23984346819144" lon="7.7105629516348735" id="-79557">
		<tag k="name" v="Sandgota" />
		<tag k="ssr:date" v="2019-12-27" />
		<tag k="ssr:gruppe" v="veg" />
		<tag k="ssr:hovedgruppe" v="infrastruktur" />
		<tag k="ssr:stedsnr" v="1052442" />
		<tag k="ssr:type" v="adressenavn" />
	</node>
	<node lat="61.23797764311142" lon="7.71262658559383" id="-79558">
		<tag k="name" v="Hagavegen" />
		<tag k="ssr:date" v="2019-12-27" />
		<tag k="ssr:gruppe" v="veg" />
		<tag k="ssr:hovedgruppe" v="infrastruktur" />
		<tag k="ssr:stedsnr" v="1052443" />
		<tag k="ssr:type" v="adressenavn" />
	</node>
	<node lat="61.238938769168634" lon="7.7201949308220845" id="-79559">
		<tag k="name" v="Vardevegen" />
		<tag k="ssr:date" v="2019-12-27" />
		<tag k="ssr:gruppe" v="veg" />
		<tag k="ssr:hovedgruppe" v="infrastruktur" />
		<tag k="ssr:stedsnr" v="1052444" />
		<tag k="ssr:type" v="adressenavn" />
	</node>
	<node lat="61.239221419429164" lon="7.7217501805317585" id="-79560">
		<tag k="name" v="Skåravegen" />
		<tag k="ssr:date" v="2019-12-27" />
		<tag k="ssr:gruppe" v="veg" />
		<tag k="ssr:hovedgruppe" v="infrastruktur" />
		<tag k="ssr:stedsnr" v="1052446" />
		<tag k="ssr:type" v="adressenavn" />
	</node>
	<node lat="61.23820524614502" lon="7.7243847317522025" id="-79561">
		<tag k="name" v="Kvernavegen" />
		<tag k="ssr:date" v="2019-12-27" />
		<tag k="ssr:gruppe" v="veg" />
		<tag k="ssr:hovedgruppe" v="infrastruktur" />
		<tag k="ssr:stedsnr" v="1052448" />
		<tag k="ssr:type" v="adressenavn" />
	</node>
	<node lat="61.237377388303976" lon="7.697126383368941" id="-79562">
		<tag k="name" v="Utdalsdokki" />
		<tag k="ssr:date" v="2019-12-27" />
		<tag k="ssr:gruppe" v="veg" />
		<tag k="ssr:hovedgruppe" v="infrastruktur" />
		<tag k="ssr:stedsnr" v="1052449" />
		<tag k="ssr:type" v="adressenavn" />
	</node>
	<node lat="61.23853771351515" lon="7.72019682709434" id="-79563">
		<tag k="name" v="Blitseskredvegen" />
		<tag k="ssr:date" v="2019-12-27" />
		<tag k="ssr:gruppe" v="veg" />
		<tag k="ssr:hovedgruppe" v="infrastruktur" />
		<tag k="ssr:stedsnr" v="1052450" />
		<tag k="ssr:type" v="adressenavn" />
	</node>
	<node lat="61.23963137546264" lon="7.722509847382847" id="-79564">
		<tag k="name" v="Kyrfossvegen" />
		<tag k="ssr:date" v="2019-12-27" />
		<tag k="ssr:gruppe" v="veg" />
		<tag k="ssr:hovedgruppe" v="infrastruktur" />
		<tag k="ssr:stedsnr" v="1052452" />
		<tag k="ssr:type" v="adressenavn" />
	</node>
	<node lat="61.23670916696439" lon="7.699224227843647" id="-79565">
		<tag k="name" v="Eriksvegen" />
		<tag k="ssr:date" v="2019-12-27" />
		<tag k="ssr:gruppe" v="veg" />
		<tag k="ssr:hovedgruppe" v="infrastruktur" />
		<tag k="ssr:stedsnr" v="1052454" />
		<tag k="ssr:type" v="adressenavn" />
	</node>
	<node lat="61.239945459078065" lon="7.702141229405223" id="-79566">
		<tag k="name" v="Sløbakkvegen" />
		<tag k="ssr:date" v="2019-12-27" />
		<tag k="ssr:gruppe" v="veg" />
		<tag k="ssr:hovedgruppe" v="infrastruktur" />
		<tag k="ssr:stedsnr" v="1052455" />
		<tag k="ssr:type" v="adressenavn" />
	</node>
	<node lat="61.241149779581264" lon="7.708988200008177" id="-79567">
		<tag k="name" v="Vollevegen" />
		<tag k="ssr:date" v="2019-12-27" />
		<tag k="ssr:gruppe" v="veg" />
		<tag k="ssr:hovedgruppe" v="infrastruktur" />
		<tag k="ssr:stedsnr" v="1052457" />
		<tag k="ssr:type" v="adressenavn" />
	</node>
	<node lat="61.23828177018405" lon="7.696509531052737" id="-79568">
		<tag k="name" v="Løytnant Lems veg" />
		<tag k="ssr:date" v="2019-12-27" />
		<tag k="ssr:gruppe" v="veg" />
		<tag k="ssr:hovedgruppe" v="infrastruktur" />
		<tag k="ssr:stedsnr" v="1052458" />
		<tag k="ssr:type" v="adressenavn" />
	</node>
	<node lat="61.23786156836541" lon="7.702890508948841" id="-79569">
		<tag k="name" v="Krokabakken" />
		<tag k="ssr:date" v="2019-12-27" />
		<tag k="ssr:gruppe" v="veg" />
		<tag k="ssr:hovedgruppe" v="infrastruktur" />
		<tag k="ssr:stedsnr" v="1052460" />
		<tag k="ssr:type" v="adressenavn" />
	</node>
	<node lat="61.23775219830343" lon="7.718002434382728" id="-79570">
		<tag k="name" v="Geisdalsvegen" />
		<tag k="ssr:date" v="2019-12-27" />
		<tag k="ssr:gruppe" v="veg" />
		<tag k="ssr:hovedgruppe" v="infrastruktur" />
		<tag k="ssr:stedsnr" v="1052462" />
		<tag k="ssr:type" v="adressenavn" />
	</node>
	<node lat="61.237119979874244" lon="7.71977730803573" id="-79571">
		<tag k="name" v="Lauvnesvegen" />
		<tag k="ssr:date" v="2019-12-27" />
		<tag k="ssr:gruppe" v="veg" />
		<tag k="ssr:hovedgruppe" v="infrastruktur" />
		<tag k="ssr:stedsnr" v="1052464" />
		<tag k="ssr:type" v="adressenavn" />
	</node>
	<node lat="61.23578655461833" lon="7.703770439479869" id="-79572">
		<tag k="name" v="Statsråd Evensens veg" />
		<tag k="ssr:date" v="2019-12-27" />
		<tag k="ssr:gruppe" v="veg" />
		<tag k="ssr:hovedgruppe" v="infrastruktur" />
		<tag k="ssr:stedsnr" v="1052466" />
		<tag k="ssr:type" v="adressenavn" />
	</node>
	<node lat="61.2365305473556" lon="7.699039469992568" id="-79573">
		<tag k="name" v="Seimsdalsvegen" />
		<tag k="ssr:date" v="2019-12-27" />
		<tag k="ssr:gruppe" v="veg" />
		<tag k="ssr:hovedgruppe" v="infrastruktur" />
		<tag k="ssr:stedsnr" v="1052470" />
		<tag k="ssr:type" v="adressenavn" />
	</node>
	<node lat="61.24097440567263" lon="7.7187127343437725" id="-79575">
		<tag k="name" v="Rolf Wickstrøms veg" />
		<tag k="ssr:date" v="2019-12-27" />
		<tag k="ssr:gruppe" v="veg" />
		<tag k="ssr:hovedgruppe" v="infrastruktur" />
		<tag k="ssr:stedsnr" v="1052473" />
		<tag k="ssr:type" v="adressenavn" />
	</node>
	<node lat="61.23522776362743" lon="7.701075508973787" id="-79576">
		<tag k="name" v="Torget" />
		<tag k="ssr:date" v="2019-12-27" />
		<tag k="ssr:gruppe" v="veg" />
		<tag k="ssr:hovedgruppe" v="infrastruktur" />
		<tag k="ssr:stedsnr" v="1052476" />
		<tag k="ssr:type" v="adressenavn" />
	</node>
	<node lat="61.23542475267927" lon="7.70354971960146" id="-79578">
		<tag k="name" v="Kaivegen" />
		<tag k="ssr:date" v="2019-12-27" />
		<tag k="ssr:gruppe" v="veg" />
		<tag k="ssr:hovedgruppe" v="infrastruktur" />
		<tag k="ssr:stedsnr" v="1052480" />
		<tag k="ssr:type" v="adressenavn" />
	</node>
	<node lat="61.234746753759204" lon="7.700734812481772" id="-79579">
		<tag k="name" v="Meierigata" />
		<tag k="ssr:date" v="2019-12-27" />
		<tag k="ssr:gruppe" v="veg" />
		<tag k="ssr:hovedgruppe" v="infrastruktur" />
		<tag k="ssr:stedsnr" v="1052482" />
		<tag k="ssr:type" v="adressenavn" />
	</node>
	<node lat="61.24028827853896" lon="7.720854138885743" id="-79580">
		<tag k="name" v="Veidavegen" />
		<tag k="ssr:date" v="2019-12-27" />
		<tag k="ssr:gruppe" v="veg" />
		<tag k="ssr:hovedgruppe" v="infrastruktur" />
		<tag k="ssr:stedsnr" v="1052483" />
		<tag k="ssr:type" v="adressenavn" />
	</node>
	<node lat="61.240637248237405" lon="7.7216549399130106" id="-79581">
		<tag k="name" v="Markavegen" />
		<tag k="ssr:date" v="2019-12-27" />
		<tag k="ssr:gruppe" v="veg" />
		<tag k="ssr:hovedgruppe" v="infrastruktur" />
		<tag k="ssr:stedsnr" v="1052485" />
		<tag k="ssr:type" v="adressenavn" />
	</node>
	<node lat="61.30984916194297" lon="7.816884754107687" id="-79582">
		<tag k="name" v="Jens Davidsons veg" />
		<tag k="ssr:date" v="2019-12-27" />
		<tag k="ssr:gruppe" v="veg" />
		<tag k="ssr:hovedgruppe" v="infrastruktur" />
		<tag k="ssr:stedsnr" v="1052507" />
		<tag k="ssr:type" v="adressenavn" />
	</node>
	<node lat="61.307896479104286" lon="7.815293728907077" id="-79583">
		<tag k="name" v="Grandavegen" />
		<tag k="ssr:date" v="2019-12-27" />
		<tag k="ssr:gruppe" v="veg" />
		<tag k="ssr:hovedgruppe" v="infrastruktur" />
		<tag k="ssr:stedsnr" v="1052514" />
		<tag k="ssr:type" v="adressenavn" />
	</node>
	<node lat="61.30767687910791" lon="7.8164879554016515" id="-79584">
		<tag k="name" v="Risevegen" />
		<tag k="ssr:date" v="2019-12-27" />
		<tag k="ssr:gruppe" v="veg" />
		<tag k="ssr:hovedgruppe" v="infrastruktur" />
		<tag k="ssr:stedsnr" v="1052515" />
		<tag k="ssr:type" v="adressenavn" />
	</node>
	<node lat="61.30715870049849" lon="7.8154240142715405" id="-79585">
		<tag k="name" v="Vesvegen" />
		<tag k="ssr:date" v="2019-12-27" />
		<tag k="ssr:gruppe" v="veg" />
		<tag k="ssr:hovedgruppe" v="infrastruktur" />
		<tag k="ssr:stedsnr" v="1052517" />
		<tag k="ssr:type" v="adressenavn" />
	</node>
	<node lat="61.30770368818303" lon="7.8153643007730755" id="-79586">
		<tag k="name" v="Ivar Noreviks veg" />
		<tag k="ssr:date" v="2019-12-27" />
		<tag k="ssr:gruppe" v="veg" />
		<tag k="ssr:hovedgruppe" v="infrastruktur" />
		<tag k="ssr:stedsnr" v="1052518" />
		<tag k="ssr:type" v="adressenavn" />
	</node>
	<node lat="61.30785799278641" lon="7.818215929521229" id="-79587">
		<tag k="name" v="Sitlevegen" />
		<tag k="ssr:date" v="2019-12-27" />
		<tag k="ssr:gruppe" v="veg" />
		<tag k="ssr:hovedgruppe" v="infrastruktur" />
		<tag k="ssr:stedsnr" v="1052519" />
		<tag k="ssr:type" v="adressenavn" />
	</node>
	<node lat="61.31050380511192" lon="7.830308144870746" id="-79588">
		<tag k="name" v="Moa" />
		<tag k="ssr:date" v="2019-12-27" />
		<tag k="ssr:gruppe" v="veg" />
		<tag k="ssr:hovedgruppe" v="infrastruktur" />
		<tag k="ssr:stedsnr" v="1052521" />
		<tag k="ssr:type" v="adressenavn" />
	</node>
	<node lat="61.30597853688603" lon="7.813661145719142" id="-79589">
		<tag k="name" v="Huldrebakken" />
		<tag k="ssr:date" v="2019-12-27" />
		<tag k="ssr:gruppe" v="veg" />
		<tag k="ssr:hovedgruppe" v="infrastruktur" />
		<tag k="ssr:stedsnr" v="1052522" />
		<tag k="ssr:type" v="adressenavn" />
	</node>
	<node lat="61.30605608231705" lon="7.797739575655345" id="-79590">
		<tag k="name" v="Bungalowvegen" />
		<tag k="ssr:date" v="2019-12-27" />
		<tag k="ssr:gruppe" v="veg" />
		<tag k="ssr:hovedgruppe" v="infrastruktur" />
		<tag k="ssr:stedsnr" v="1052523" />
		<tag k="ssr:type" v="adressenavn" />
	</node>
	<node lat="61.30731826781743" lon="7.81013553796378" id="-79591">
		<tag k="name" v="Årdalsvegen" />
		<tag k="ssr:date" v="2019-12-27" />
		<tag k="ssr:gruppe" v="veg" />
		<tag k="ssr:hovedgruppe" v="infrastruktur" />
		<tag k="ssr:stedsnr" v="1052525" />
		<tag k="ssr:type" v="adressenavn" />
	</node>
	<node lat="61.309274065577995" lon="7.81627633690801" id="-79592">
		<tag k="name" v="Verksvegen" />
		<tag k="ssr:date" v="2019-12-27" />
		<tag k="ssr:gruppe" v="veg" />
		<tag k="ssr:hovedgruppe" v="infrastruktur" />
		<tag k="ssr:stedsnr" v="1052527" />
		<tag k="ssr:type" v="adressenavn" />
	</node>
	<node lat="61.30804286152018" lon="7.821372551437286" id="-79593">
		<tag k="name" v="Røtisvegen" />
		<tag k="ssr:date" v="2019-12-27" />
		<tag k="ssr:gruppe" v="veg" />
		<tag k="ssr:hovedgruppe" v="infrastruktur" />
		<tag k="ssr:stedsnr" v="1052528" />
		<tag k="ssr:type" v="adressenavn" />
	</node>
	<node lat="61.304087787315886" lon="7.7955786771226645" id="-79594">
		<tag k="name" v="Buktvegen" />
		<tag k="ssr:date" v="2019-12-27" />
		<tag k="ssr:gruppe" v="veg" />
		<tag k="ssr:hovedgruppe" v="infrastruktur" />
		<tag k="ssr:stedsnr" v="1052533" />
		<tag k="ssr:type" v="adressenavn" />
	</node>
	<node lat="61.303946165512244" lon="7.796625594610766" id="-79596">
		<tag k="name" v="Naustvegen" />
		<tag k="ssr:date" v="2019-12-27" />
		<tag k="ssr:gruppe" v="veg" />
		<tag k="ssr:hovedgruppe" v="infrastruktur" />
		<tag k="ssr:stedsnr" v="1052535" />
		<tag k="ssr:type" v="adressenavn" />
	</node>
	<node lat="61.31046978667647" lon="7.8087392538202485" id="-79597">
		<tag k="name" v="Farnesvegen" />
		<tag k="ssr:date" v="2019-12-27" />
		<tag k="ssr:gruppe" v="veg" />
		<tag k="ssr:hovedgruppe" v="infrastruktur" />
		<tag k="ssr:stedsnr" v="1052587" />
		<tag k="ssr:type" v="adressenavn" />
	</node>
	<node lat="61.310320347068675" lon="7.810819070282157" id="-79598">
		<tag k="name" v="Elvavegen" />
		<tag k="ssr:date" v="2019-12-27" />
		<tag k="ssr:gruppe" v="veg" />
		<tag k="ssr:hovedgruppe" v="infrastruktur" />
		<tag k="ssr:stedsnr" v="1052589" />
		<tag k="ssr:type" v="adressenavn" />
	</node>
	<node lat="61.30913125135206" lon="7.816320429719696" id="-79599">
		<tag k="name" v="Storevegen" />
		<tag k="ssr:date" v="2019-12-27" />
		<tag k="ssr:gruppe" v="veg" />
		<tag k="ssr:hovedgruppe" v="infrastruktur" />
		<tag k="ssr:stedsnr" v="1052590" />
		<tag k="ssr:type" v="adressenavn" />
	</node>
	<node lat="61.3102716822464" lon="7.803068990243355" id="-79600">
		<tag k="name" v="Fridtjof Nansens veg" />
		<tag k="ssr:date" v="2019-12-27" />
		<tag k="ssr:gruppe" v="veg" />
		<tag k="ssr:hovedgruppe" v="infrastruktur" />
		<tag k="ssr:stedsnr" v="1052591" />
		<tag k="ssr:type" v="adressenavn" />
	</node>
	<node lat="61.310994397479114" lon="7.801922876673353" id="-79601">
		<tag k="name" v="Parkvegen" />
		<tag k="ssr:date" v="2019-12-27" />
		<tag k="ssr:gruppe" v="veg" />
		<tag k="ssr:hovedgruppe" v="infrastruktur" />
		<tag k="ssr:stedsnr" v="1052592" />
		<tag k="ssr:type" v="adressenavn" />
	</node>
	<node lat="61.31001634507919" lon="7.806062423085559" id="-79602">
		<tag k="name" v="Jotunvegen" />
		<tag k="ssr:date" v="2019-12-27" />
		<tag k="ssr:gruppe" v="veg" />
		<tag k="ssr:hovedgruppe" v="infrastruktur" />
		<tag k="ssr:stedsnr" v="1052593" />
		<tag k="ssr:type" v="adressenavn" />
	</node>
	<node lat="61.30981638644073" lon="7.803582293854216" id="-79603">
		<tag k="name" v="Torgvegen" />
		<tag k="ssr:date" v="2019-12-27" />
		<tag k="ssr:gruppe" v="veg" />
		<tag k="ssr:hovedgruppe" v="infrastruktur" />
		<tag k="ssr:stedsnr" v="1052595" />
		<tag k="ssr:type" v="adressenavn" />
	</node>
	<node lat="61.309226271245954" lon="7.797341350305263" id="-79604">
		<tag k="name" v="Vesvollvegen" />
		<tag k="ssr:date" v="2019-12-27" />
		<tag k="ssr:gruppe" v="veg" />
		<tag k="ssr:hovedgruppe" v="infrastruktur" />
		<tag k="ssr:stedsnr" v="1052597" />
		<tag k="ssr:type" v="adressenavn" />
	</node>
	<node lat="61.311026699304044" lon="7.7962014421086385" id="-79605">
		<tag k="name" v="Flotavegen" />
		<tag k="ssr:date" v="2019-12-27" />
		<tag k="ssr:gruppe" v="veg" />
		<tag k="ssr:hovedgruppe" v="infrastruktur" />
		<tag k="ssr:stedsnr" v="1052599" />
		<tag k="ssr:type" v="adressenavn" />
	</node>
	<node lat="61.31063340878719" lon="7.79474021282548" id="-79606">
		<tag k="name" v="Midtunsvegen" />
		<tag k="ssr:date" v="2019-12-27" />
		<tag k="ssr:gruppe" v="veg" />
		<tag k="ssr:hovedgruppe" v="infrastruktur" />
		<tag k="ssr:stedsnr" v="1052601" />
		<tag k="ssr:type" v="adressenavn" />
	</node>
	<node lat="61.30932066312933" lon="7.793751213843001" id="-79607">
		<tag k="name" v="Viggo Hansteens veg" />
		<tag k="ssr:date" v="2019-12-27" />
		<tag k="ssr:gruppe" v="veg" />
		<tag k="ssr:hovedgruppe" v="infrastruktur" />
		<tag k="ssr:stedsnr" v="1052602" />
		<tag k="ssr:type" v="adressenavn" />
	</node>
	<node lat="61.307753843528936" lon="7.800401489224942" id="-79608">
		<tag k="name" v="Strandvegen" />
		<tag k="ssr:date" v="2019-12-27" />
		<tag k="ssr:gruppe" v="veg" />
		<tag k="ssr:hovedgruppe" v="infrastruktur" />
		<tag k="ssr:stedsnr" v="1052603" />
		<tag k="ssr:type" v="adressenavn" />
	</node>
	<node lat="61.30900568627299" lon="7.7918420664889325" id="-79609">
		<tag k="name" v="Ulriksvegen" />
		<tag k="ssr:date" v="2019-12-27" />
		<tag k="ssr:gruppe" v="veg" />
		<tag k="ssr:hovedgruppe" v="infrastruktur" />
		<tag k="ssr:stedsnr" v="1052605" />
		<tag k="ssr:type" v="adressenavn" />
	</node>
	<node lat="61.30987595797388" lon="7.790081671908672" id="-79610">
		<tag k="name" v="Øvstetunsvegen" />
		<tag k="ssr:date" v="2019-12-27" />
		<tag k="ssr:gruppe" v="veg" />
		<tag k="ssr:hovedgruppe" v="infrastruktur" />
		<tag k="ssr:stedsnr" v="1052606" />
		<tag k="ssr:type" v="adressenavn" />
	</node>
	<node lat="61.31000649550857" lon="7.792276635750917" id="-79612">
		<tag k="name" v="Øyravegen" />
		<tag k="ssr:date" v="2019-12-27" />
		<tag k="ssr:gruppe" v="veg" />
		<tag k="ssr:hovedgruppe" v="infrastruktur" />
		<tag k="ssr:stedsnr" v="1052608" />
		<tag k="ssr:type" v="adressenavn" />
	</node>
	<node lat="61.31029009643609" lon="7.80863247891047" id="-79613">
		<tag k="name" v="Almenningsvegen" />
		<tag k="ssr:date" v="2019-12-27" />
		<tag k="ssr:gruppe" v="veg" />
		<tag k="ssr:hovedgruppe" v="infrastruktur" />
		<tag k="ssr:stedsnr" v="1052609" />
		<tag k="ssr:type" v="adressenavn" />
	</node>
	<node lat="61.30970307093946" lon="7.800349785005925" id="-79614">
		<tag k="name" v="Per K Hestetuns veg" />
		<tag k="ssr:date" v="2019-12-27" />
		<tag k="ssr:gruppe" v="veg" />
		<tag k="ssr:hovedgruppe" v="infrastruktur" />
		<tag k="ssr:stedsnr" v="1052611" />
		<tag k="ssr:type" v="adressenavn" />
	</node>
	<node lat="61.3106301564652" lon="7.797850243029668" id="-79615">
		<tag k="name" v="Håkon VII veg" />
		<tag k="ssr:date" v="2019-12-27" />
		<tag k="ssr:gruppe" v="veg" />
		<tag k="ssr:hovedgruppe" v="infrastruktur" />
		<tag k="ssr:stedsnr" v="1052612" />
		<tag k="ssr:type" v="adressenavn" />
	</node>
	<node lat="61.30924464464325" lon="7.799191601856617" id="-79616">
		<tag k="name" v="Trygve Lies veg" />
		<tag k="ssr:date" v="2019-12-27" />
		<tag k="ssr:gruppe" v="veg" />
		<tag k="ssr:hovedgruppe" v="infrastruktur" />
		<tag k="ssr:stedsnr" v="1052614" />
		<tag k="ssr:type" v="adressenavn" />
	</node>
	<node lat="61.30970307093946" lon="7.800349785005925" id="-79617">
		<tag k="name" v="Ivar Sterris veg" />
		<tag k="ssr:date" v="2019-12-27" />
		<tag k="ssr:gruppe" v="veg" />
		<tag k="ssr:hovedgruppe" v="infrastruktur" />
		<tag k="ssr:stedsnr" v="1052617" />
		<tag k="ssr:type" v="adressenavn" />
	</node>
	<node lat="61.310551212653074" lon="7.807145356184034" id="-79620">
		<tag k="name" v="Mjøbakken" />
		<tag k="ssr:date" v="2019-12-27" />
		<tag k="ssr:gruppe" v="veg" />
		<tag k="ssr:hovedgruppe" v="infrastruktur" />
		<tag k="ssr:stedsnr" v="1052621" />
		<tag k="ssr:type" v="adressenavn" />
	</node>
	<node lat="61.311020759548164" lon="7.79373462157401" id="-79621">
		<tag k="name" v="Uravegen" />
		<tag k="ssr:date" v="2019-12-27" />
		<tag k="ssr:gruppe" v="veg" />
		<tag k="ssr:hovedgruppe" v="infrastruktur" />
		<tag k="ssr:stedsnr" v="1052623" />
		<tag k="ssr:type" v="adressenavn" />
	</node>
	<node lat="61.31770630071462" lon="7.8161582958565905" id="-79622">
		<tag k="name" v="Ålmennhagen" />
		<tag k="ssr:date" v="2019-12-27" />
		<tag k="ssr:gruppe" v="veg" />
		<tag k="ssr:hovedgruppe" v="infrastruktur" />
		<tag k="ssr:stedsnr" v="1052624" />
		<tag k="ssr:type" v="adressenavn" />
	</node>
	<node lat="61.31782611619858" lon="7.816753626433461" id="-79623">
		<tag k="name" v="Øyni" />
		<tag k="ssr:date" v="2019-12-27" />
		<tag k="ssr:gruppe" v="veg" />
		<tag k="ssr:hovedgruppe" v="infrastruktur" />
		<tag k="ssr:stedsnr" v="1052625" />
		<tag k="ssr:type" v="adressenavn" />
	</node>
	<node lat="61.31035634811695" lon="7.8106382708049775" id="-79625">
		<tag k="name" v="Utladalsvegen" />
		<tag k="ssr:date" v="2019-12-27" />
		<tag k="ssr:gruppe" v="veg" />
		<tag k="ssr:hovedgruppe" v="infrastruktur" />
		<tag k="ssr:stedsnr" v="1052628" />
		<tag k="ssr:type" v="adressenavn" />
	</node>
	<node lat="61.308743628516424" lon="7.794055526876068" id="-79627">
		<tag k="name" v="Håvardsvegen" />
		<tag k="ssr:date" v="2019-12-27" />
		<tag k="ssr:gruppe" v="veg" />
		<tag k="ssr:hovedgruppe" v="infrastruktur" />
		<tag k="ssr:stedsnr" v="1052631" />
		<tag k="ssr:type" v="adressenavn" />
	</node>
	<node lat="61.30858385031999" lon="7.79503929351923" id="-79628">
		<tag k="name" v="Endrevegen" />
		<tag k="ssr:date" v="2019-12-27" />
		<tag k="ssr:gruppe" v="veg" />
		<tag k="ssr:hovedgruppe" v="infrastruktur" />
		<tag k="ssr:stedsnr" v="1052632" />
		<tag k="ssr:type" v="adressenavn" />
	</node>
	<node lat="61.30751667004227" lon="7.79221543543727" id="-79629">
		<tag k="name" v="Skorpevegen" />
		<tag k="ssr:date" v="2019-12-27" />
		<tag k="ssr:gruppe" v="veg" />
		<tag k="ssr:hovedgruppe" v="infrastruktur" />
		<tag k="ssr:stedsnr" v="1052633" />
		<tag k="ssr:type" v="adressenavn" />
	</node>
	<node lat="61.30817505951001" lon="7.793233569895808" id="-79630">
		<tag k="name" v="Kvevegen" />
		<tag k="ssr:date" v="2019-12-27" />
		<tag k="ssr:gruppe" v="veg" />
		<tag k="ssr:hovedgruppe" v="infrastruktur" />
		<tag k="ssr:stedsnr" v="1052635" />
		<tag k="ssr:type" v="adressenavn" />
	</node>
	<node lat="61.30790741583784" lon="7.7966516517999" id="-79631">
		<tag k="name" v="Haugavegen" />
		<tag k="ssr:date" v="2019-12-27" />
		<tag k="ssr:gruppe" v="veg" />
		<tag k="ssr:hovedgruppe" v="infrastruktur" />
		<tag k="ssr:stedsnr" v="1052636" />
		<tag k="ssr:type" v="adressenavn" />
	</node>
	<node lat="61.30740786948233" lon="7.780089376741904" id="-79632">
		<tag k="name" v="Børtnes" />
		<tag k="ssr:date" v="2019-12-27" />
		<tag k="ssr:gruppe" v="veg" />
		<tag k="ssr:hovedgruppe" v="infrastruktur" />
		<tag k="ssr:stedsnr" v="1052637" />
		<tag k="ssr:type" v="adressenavn" />
	</node>
	<node lat="61.307699681712016" lon="7.7940069990808105" id="-79633">
		<tag k="name" v="Smedhaugvegen" />
		<tag k="ssr:date" v="2019-12-27" />
		<tag k="ssr:gruppe" v="veg" />
		<tag k="ssr:hovedgruppe" v="infrastruktur" />
		<tag k="ssr:stedsnr" v="1052639" />
		<tag k="ssr:type" v="adressenavn" />
	</node>
	<node lat="61.24943864177078" lon="7.596416314941034" id="-79639">
		<tag k="name" v="Seimsåsen" />
		<tag k="ssr:date" v="2020-09-01" />
		<tag k="ssr:gruppe" v="veg" />
		<tag k="ssr:hovedgruppe" v="infrastruktur" />
		<tag k="ssr:stedsnr" v="1078109" />
		<tag k="ssr:type" v="adressenavn" />
	</node>
</osm>
