<?xml version="1.0" encoding="UTF-8"?>
<osm version="0.6" generator="osmapis">
	<node lat="59.667424997963984" lon="8.060105548438145" id="-35850">
		<tag k="bridge" v="yes" />
		<tag k="layer" v="1" />
		<tag k="name" v="Tanselv" />
		<tag k="ssr:stedsnr" v="46406" />
	</node>
	<node lat="59.56963333061663" lon="8.184230557878173" id="-35851">
		<tag k="bridge" v="yes" />
		<tag k="layer" v="1" />
		<tag k="name" v="Storå" />
		<tag k="ssr:stedsnr" v="46408" />
	</node>
	<node lat="59.80731666667852" lon="8.090280558968656" id="-36113">
		<tag k="alt_name" v="Kråmvikbryggja" />
		<tag k="man_made" v="quay" />
		<tag k="name" v="Kromvikbryggja" />
		<tag k="place" v="locality" />
		<tag k="ssr:stedsnr" v="124264" />
	</node>
	<node lat="59.62166111083735" lon="7.8216027819073375" id="-36222">
		<tag k="bridge" v="yes" />
		<tag k="layer" v="1" />
		<tag k="name" v="Vinje" />
		<tag k="ssr:stedsnr" v="168376" />
	</node>
	<node lat="59.5874888859606" lon="8.13162777499943" id="-36223">
		<tag k="bridge" v="yes" />
		<tag k="layer" v="1" />
		<tag k="name" v="Sondovsli" />
		<tag k="ssr:stedsnr" v="168380" />
	</node>
	<node lat="59.8032916664202" lon="7.580827783314999" id="-36233">
		<tag k="ford" v="yes" />
		<tag k="name" v="Vadet" />
		<tag k="place" v="locality" />
		<tag k="ssr:stedsnr" v="172702" />
	</node>
	<node lat="59.78849444682499" lon="7.402705551630061" id="-36236">
		<tag k="highway" v="path" />
		<tag k="name" v="Hestegretbakken" />
		<tag k="ssr:stedsnr" v="178118" />
	</node>
</osm>
