<?xml version="1.0" encoding="UTF-8"?>
<osm version="0.6" generator="osmapis">
	<node lat="59.80185832965274" lon="8.137522227746551" id="-32217">
		<tag k="alt_name" v="Martinviki" />
		<tag k="name" v="Martinsviki" />
		<tag k="natural" v="bay" />
		<tag k="old_name" v="Martisnviki" />
		<tag k="ssr:stedsnr" v="3384" />
	</node>
	<node lat="59.908074998201485" lon="7.734788887106429" id="-32221">
		<tag k="name" v="Hokkebrotvatn" />
		<tag k="natural" v="water" />
		<tag k="ssr:stedsnr" v="3602" />
		<tag k="water" v="lake" />
	</node>
	<node lat="59.66667222550612" lon="7.956872219025462" id="-32230">
		<tag k="alt_name" v="Urdeidtjørn" />
		<tag k="name" v="Urdeitjønni" />
		<tag k="natural" v="water" />
		<tag k="ssr:stedsnr" v="3744" />
	</node>
	<node lat="59.65827778012485" lon="7.849883327695445" id="-32233">
		<tag k="alt_name" v="Dikekvævtjørn" />
		<tag k="name" v="Dikekvævtjønn" />
		<tag k="natural" v="water" />
		<tag k="ssr:stedsnr" v="3754" />
	</node>
	<node lat="59.65021944502528" lon="7.779949999250576" id="-32234">
		<tag k="name" v="Klevastøylåi" />
		<tag k="old_name" v="Klevastølåi" />
		<tag k="ssr:stedsnr" v="3770" />
		<tag k="waterway" v="stream" />
	</node>
	<node lat="59.614036111774254" lon="7.842674995688431" id="-32245">
		<tag k="name" v="Neset" />
		<tag k="natural" v="cape" />
		<tag k="ssr:stedsnr" v="4103" />
	</node>
	<node lat="59.62413888525701" lon="8.071458327288376" id="-32246">
		<tag k="alt_name" v="Svartetjørn" />
		<tag k="name" v="Svartetjønn" />
		<tag k="natural" v="water" />
		<tag k="ssr:stedsnr" v="4105" />
	</node>
	<node lat="59.60139722173329" lon="8.055697220592334" id="-32249">
		<tag k="alt_name" v="Mærstøltjørn;Merdstøyltjørni" />
		<tag k="name" v="Mærstøyltjønn" />
		<tag k="natural" v="water" />
		<tag k="ssr:stedsnr" v="3888" />
	</node>
	<node lat="59.937461107499296" lon="7.640608325217485" id="-32250">
		<tag k="name" v="Raudåi" />
		<tag k="ssr:stedsnr" v="3890" />
		<tag k="waterway" v="river" />
	</node>
	<node lat="60.037038890621034" lon="7.984788893798665" id="-32252">
		<tag k="loc_name" v="Torstjønn" />
		<tag k="name" v="Torstjønni" />
		<tag k="natural" v="water" />
		<tag k="ssr:stedsnr" v="4515" />
	</node>
	<node lat="59.785711106858756" lon="7.628530549235104" id="-32254">
		<tag k="name" v="Fjelltjønn" />
		<tag k="natural" v="water" />
		<tag k="ssr:stedsnr" v="4518" />
	</node>
	<node lat="59.95685833759649" lon="7.896277776124129" id="-32262">
		<tag k="alt_name" v="Vatndalstjørnane" />
		<tag k="name" v="Vatndalstjønnane" />
		<tag k="natural" v="water" />
		<tag k="ssr:stedsnr" v="4559" />
		<tag k="water" v="lake" />
	</node>
	<node lat="59.86700278068986" lon="8.137752773761862" id="-32264">
		<tag k="name" v="Sandøyan" />
		<tag k="place" v="island" />
		<tag k="ssr:stedsnr" v="4468" />
	</node>
	<node lat="60.078822218431974" lon="7.766247221317685" id="-32266">
		<tag k="name" v="Gisletjønnbekken" />
		<tag k="ssr:stedsnr" v="4612" />
		<tag k="waterway" v="stream" />
	</node>
	<node lat="59.94770277479034" lon="8.062241658118309" id="-32268">
		<tag k="name" v="Løyningbekken" />
		<tag k="ssr:stedsnr" v="4682" />
		<tag k="waterway" v="stream" />
	</node>
	<node lat="59.566441663657244" lon="8.162063888345287" id="-32279">
		<tag k="name" v="Hakksteinbekken" />
		<tag k="ssr:stedsnr" v="231966" />
		<tag k="waterway" v="stream" />
	</node>
	<node lat="60.08543888800927" lon="7.5658500059501534" id="-32286">
		<tag k="name" v="Sigmundtjønn" />
		<tag k="natural" v="water" />
		<tag k="ssr:stedsnr" v="21497" />
	</node>
	<node lat="59.59088055323549" lon="8.060622228965233" id="-32304">
		<tag k="name" v="Vermoltjønni" />
		<tag k="natural" v="water" />
		<tag k="ssr:stedsnr" v="28976" />
	</node>
	<node lat="59.68292351612457" lon="8.116030372351426" id="-32309">
		<tag k="name" v="Hamarsnesodden" />
		<tag k="natural" v="cape" />
		<tag k="ssr:stedsnr" v="31507" />
	</node>
	<node lat="59.735022218216464" lon="7.822327779257825" id="-32311">
		<tag k="name" v="Svindsbekkvikje" />
		<tag k="natural" v="bay" />
		<tag k="ssr:stedsnr" v="31570" />
	</node>
	<node lat="59.68606998569066" lon="8.207031724980718" id="-32312">
		<tag k="alt_name" v="Grostøltjønni" />
		<tag k="loc_name" v="Grostaultjønn" />
		<tag k="name" v="Grostøyltjønni" />
		<tag k="natural" v="water" />
		<tag k="ssr:stedsnr" v="31708" />
	</node>
	<node lat="59.84296944820303" lon="8.156902775051833" id="-32313">
		<tag k="name" v="Kophaugbukti" />
		<tag k="natural" v="bay" />
		<tag k="ssr:stedsnr" v="31715" />
	</node>
	<node lat="59.68997777501789" lon="8.021758333422298" id="-32319">
		<tag k="name" v="Bliksnesoddane" />
		<tag k="natural" v="cape" />
		<tag k="ssr:stedsnr" v="31819" />
	</node>
	<node lat="59.80334444303493" lon="7.704149992777964" id="-32322">
		<tag k="name" v="Øvre Damtjønn" />
		<tag k="natural" v="water" />
		<tag k="ssr:stedsnr" v="32011" />
	</node>
	<node lat="59.65617777843058" lon="7.992505561519071" id="-32323">
		<tag k="name" v="Skrivarhylen" />
		<tag k="place" v="locality" />
		<tag k="ssr:stedsnr" v="32012" />
	</node>
	<node lat="59.799650003861395" lon="7.795613890647861" id="-32325">
		<tag k="name" v="Rjupedalstjønn" />
		<tag k="natural" v="water" />
		<tag k="ssr:stedsnr" v="32017" />
	</node>
	<node lat="59.822297224147036" lon="8.110450000352225" id="-32326">
		<tag k="name" v="Dragarfjordan" />
		<tag k="natural" v="water" />
		<tag k="ssr:stedsnr" v="32672" />
	</node>
	<node lat="59.67783611332957" lon="8.059947228203722" id="-32327">
		<tag k="name" v="Troddetjønnbekken" />
		<tag k="ssr:stedsnr" v="32875" />
		<tag k="waterway" v="stream" />
	</node>
	<node lat="59.788013892293485" lon="7.255030554257773" id="-32333">
		<tag k="name" v="Sandviktjønni" />
		<tag k="natural" v="water" />
		<tag k="ssr:stedsnr" v="238218" />
	</node>
	<node lat="59.78962500016606" lon="7.4785055495912305" id="-32334">
		<tag k="name" v="Sløymune" />
		<tag k="natural" v="water" />
		<tag k="ssr:stedsnr" v="238644" />
		<tag k="water" v="lake" />
	</node>
	<node lat="59.789172223203714" lon="7.251786104620744" id="-32343">
		<tag k="name" v="Sandvikneset" />
		<tag k="natural" v="cape" />
		<tag k="ssr:stedsnr" v="56207" />
	</node>
	<node lat="59.633447220038846" lon="8.06975000708309" id="-32344">
		<tag k="alt_name" v="Bekkjeskardtjørn" />
		<tag k="name" v="Rekkjeskartjønn" />
		<tag k="natural" v="water" />
		<tag k="ssr:stedsnr" v="56569" />
		<tag k="water" v="lake" />
	</node>
	<node lat="59.790430552112795" lon="7.261538892129599" id="-32345">
		<tag k="name" v="Sandviki" />
		<tag k="natural" v="bay" />
		<tag k="ssr:stedsnr" v="240093" />
	</node>
	<node lat="59.56641666489815" lon="7.998977769382919" id="-32352">
		<tag k="name" v="Åmothylen" />
		<tag k="place" v="locality" />
		<tag k="ssr:stedsnr" v="63123" />
	</node>
	<node lat="59.59864722611851" lon="8.118841672047562" id="-32354">
		<tag k="alt_name" v="Grønufstjørn" />
		<tag k="name" v="Grønufstjønn" />
		<tag k="natural" v="water" />
		<tag k="ssr:stedsnr" v="63269" />
	</node>
	<node lat="59.73854154548675" lon="7.483652806390699" id="-32356">
		<tag k="alt_name" v="Lomstjørnane" />
		<tag k="name" v="Lomstjønnane" />
		<tag k="natural" v="water" />
		<tag k="ssr:stedsnr" v="63377" />
	</node>
	<node lat="59.56637222410816" lon="7.868719438197055" id="-32359">
		<tag k="alt_name" v="Vingeråsvatnet" />
		<tag k="name" v="Vingeråsvatn" />
		<tag k="natural" v="water" />
		<tag k="ssr:stedsnr" v="64103" />
		<tag k="water" v="lake" />
	</node>
	<node lat="59.78476666914934" lon="8.29268888499322" id="-32368">
		<tag k="alt_name" v="Sveivetjørn" />
		<tag k="name" v="Sveivetjønn" />
		<tag k="natural" v="water" />
		<tag k="ssr:stedsnr" v="64076" />
	</node>
	<node lat="59.65587499606042" lon="8.195188882004397" id="-32369">
		<tag k="alt_name" v="Stavatjørn" />
		<tag k="name" v="Stavatjønn" />
		<tag k="natural" v="water" />
		<tag k="ssr:stedsnr" v="64366" />
	</node>
	<node lat="59.58969722162438" lon="8.106041675508953" id="-32381">
		<tag k="alt_name" v="Trælemotjørn, øvre" />
		<tag k="name" v="Øvre Trælemotjønn" />
		<tag k="natural" v="water" />
		<tag k="ssr:stedsnr" v="64265" />
	</node>
	<node lat="59.62644999842564" lon="7.687174999608369" id="-32384">
		<tag k="alt_name" v="Supsavatn, midtre" />
		<tag k="name" v="Midtre Supsavatn" />
		<tag k="natural" v="water" />
		<tag k="ssr:stedsnr" v="64724" />
	</node>
	<node lat="59.9296250002445" lon="7.6051472140157985" id="-32388">
		<tag k="alt_name" v="Ugletjønn" />
		<tag k="name" v="Ugletjønni" />
		<tag k="natural" v="water" />
		<tag k="ssr:stedsnr" v="64907" />
	</node>
	<node lat="59.60042777842006" lon="7.874358334800428" id="-32389">
		<tag k="alt_name" v="Storeholmen" />
		<tag k="name" v="Storholmen" />
		<tag k="place" v="islet" />
		<tag k="ssr:stedsnr" v="64916" />
	</node>
	<node lat="59.649422226339894" lon="7.944755556251068" id="-32391">
		<tag k="alt_name" v="Lomtjørn" />
		<tag k="name" v="Lomtjønn" />
		<tag k="natural" v="water" />
		<tag k="ssr:stedsnr" v="64807" />
	</node>
	<node lat="59.64202500386987" lon="7.833855550579957" id="-32393">
		<tag k="alt_name" v="Hermodtjørn" />
		<tag k="name" v="Hermodtjønn" />
		<tag k="natural" v="water" />
		<tag k="ssr:stedsnr" v="64817" />
	</node>
	<node lat="60.061269443686115" lon="7.638986106990533" id="-32401">
		<tag k="name" v="Tjønndalstjønnane" />
		<tag k="natural" v="water" />
		<tag k="ssr:stedsnr" v="65610" />
	</node>
	<node lat="60.08168055678263" lon="7.715800005558333" id="-32402">
		<tag k="name" v="Grunntjønn" />
		<tag k="natural" v="water" />
		<tag k="ssr:stedsnr" v="65627" />
	</node>
	<node lat="59.780355555437225" lon="7.560486113151201" id="-32410">
		<tag k="alt_name" v="Trolletjønn" />
		<tag k="name" v="Troddetjønn" />
		<tag k="natural" v="water" />
		<tag k="ssr:stedsnr" v="65519" />
	</node>
	<node lat="59.59859721925198" lon="8.260013880470913" id="-32421">
		<tag k="alt_name" v="Svarttjørn" />
		<tag k="name" v="Svarttjønn" />
		<tag k="natural" v="water" />
		<tag k="ssr:stedsnr" v="245244" />
	</node>
	<node lat="59.73245277456725" lon="7.503738895508932" id="-32424">
		<tag k="alt_name" v="Varhovdbekken" />
		<tag k="name" v="Vardhovdbekken" />
		<tag k="ssr:stedsnr" v="245342" />
		<tag k="waterway" v="stream" />
	</node>
	<node lat="59.63903889017818" lon="7.361699993408101" id="-32427">
		<tag k="alt_name" v="Nørdre Kaldsvatn;Kaldsvatn, øvre" />
		<tag k="name" v="Øvre Kaldsvatn" />
		<tag k="natural" v="water" />
		<tag k="ssr:stedsnr" v="245531" />
		<tag k="water" v="lake" />
	</node>
	<node lat="59.70263055969552" lon="7.500058324978542" id="-32429">
		<tag k="alt_name" v="Hestekvævtjørni" />
		<tag k="name" v="Hestekvævtjønni" />
		<tag k="natural" v="water" />
		<tag k="ssr:stedsnr" v="245551" />
	</node>
	<node lat="59.70647777903388" lon="7.804211104250254" id="-32430">
		<tag k="name" v="Nystøylbekken" />
		<tag k="ssr:stedsnr" v="88028" />
		<tag k="waterway" v="stream" />
	</node>
	<node lat="59.6669055566387" lon="7.730808338513097" id="-32432">
		<tag k="alt_name" v="Dokketjørni" />
		<tag k="name" v="Dokketjønni" />
		<tag k="natural" v="water" />
		<tag k="ssr:stedsnr" v="88084" />
	</node>
	<node lat="59.54916388440232" lon="7.874497217240207" id="-32441">
		<tag k="name" v="Kjeringsundet" />
		<tag k="natural" v="strait" />
		<tag k="ssr:stedsnr" v="88385" />
	</node>
	<node lat="59.6084416671988" lon="7.8540500018717445" id="-32443">
		<tag k="name" v="Vinjevatn" />
		<tag k="natural" v="water" />
		<tag k="ssr:stedsnr" v="245879" />
		<tag k="water" v="lake" />
	</node>
	<node lat="59.76666388448752" lon="8.282133335167083" id="-32447">
		<tag k="alt_name" v="Valatjørn, nordre" />
		<tag k="name" v="Vesle Valatjønn" />
		<tag k="natural" v="water" />
		<tag k="ssr:stedsnr" v="246067" />
	</node>
	<node lat="59.570038889938886" lon="7.95638055477993" id="-32451">
		<tag k="name" v="Tveitodam" />
		<tag k="ssr:stedsnr" v="89594" />
		<tag k="waterway" v="dam" />
	</node>
	<node lat="59.70670997756331" lon="8.20570954845271" id="-32462">
		<tag k="alt_name" v="Storrtjørn" />
		<tag k="name" v="Storrtjønn" />
		<tag k="natural" v="water" />
		<tag k="ssr:stedsnr" v="246196" />
	</node>
	<node lat="59.73961944813479" lon="7.706702774327758" id="-32463">
		<tag k="alt_name" v="Ufsetjørnane" />
		<tag k="name" v="Ufsetjønnane" />
		<tag k="natural" v="water" />
		<tag k="ssr:stedsnr" v="246339" />
	</node>
	<node lat="59.68382777779929" lon="7.329972223260449" id="-32469">
		<tag k="name" v="Langetjønnane" />
		<tag k="natural" v="water" />
		<tag k="ssr:stedsnr" v="246449" />
	</node>
	<node lat="59.66307499725468" lon="7.68840278016522" id="-32471">
		<tag k="name" v="Fitjevatn" />
		<tag k="natural" v="water" />
		<tag k="ssr:stedsnr" v="246482" />
	</node>
	<node lat="59.67105277562989" lon="7.446816663974531" id="-32476">
		<tag k="name" v="Kvikkåi" />
		<tag k="ssr:stedsnr" v="246561" />
		<tag k="waterway" v="stream" />
	</node>
	<node lat="59.76040277644955" lon="7.6445527757359" id="-32478">
		<tag k="alt_name" v="Kyrkjestøltjønnane" />
		<tag k="name" v="Kyrkjestøyltjønni" />
		<tag k="natural" v="water" />
		<tag k="ssr:stedsnr" v="246564" />
	</node>
	<node lat="59.89082777777094" lon="8.067547220665475" id="-32481">
		<tag k="alt_name" v="Hovstjørni, l" />
		<tag k="name" v="Vesle Hovstjønn" />
		<tag k="natural" v="water" />
		<tag k="ssr:stedsnr" v="246593" />
	</node>
	<node lat="59.65489166968368" lon="7.7274083301595775" id="-32491">
		<tag k="alt_name" v="Kvævetjørn" />
		<tag k="name" v="Kvævetjønn" />
		<tag k="natural" v="water" />
		<tag k="ssr:stedsnr" v="246746" />
	</node>
	<node lat="59.62808610745587" lon="8.199683331946229" id="-32496">
		<tag k="name" v="Domåi" />
		<tag k="ssr:stedsnr" v="92516" />
		<tag k="waterway" v="stream" />
	</node>
	<node lat="59.81433610888278" lon="8.16273611046778" id="-32498">
		<tag k="name" v="Hovassbekken" />
		<tag k="ssr:stedsnr" v="92704" />
		<tag k="waterway" v="stream" />
	</node>
	<node lat="59.68506384373327" lon="7.8542160578650435" id="-32499">
		<tag k="alt_name" v="Svartetjørn" />
		<tag k="name" v="Svartetjønn" />
		<tag k="natural" v="water" />
		<tag k="ssr:stedsnr" v="246836" />
	</node>
	<node lat="59.67407499568597" lon="8.010130557079021" id="-32502">
		<tag k="name" v="Fiskejohomen" />
		<tag k="place" v="islet" />
		<tag k="ssr:stedsnr" v="93004" />
	</node>
	<node lat="60.01712777875648" lon="7.791258329565372" id="-32507">
		<tag k="name" v="Sandhøl" />
		<tag k="place" v="locality" />
		<tag k="ssr:stedsnr" v="247477" />
	</node>
	<node lat="59.74011388925072" lon="8.029638889852968" id="-32510">
		<tag k="name" v="Terpebekk" />
		<tag k="ssr:stedsnr" v="92979" />
		<tag k="waterway" v="stream" />
	</node>
	<node lat="59.91734166380171" lon="7.509624998151242" id="-32512">
		<tag k="name" v="Nedre Berutjønn" />
		<tag k="natural" v="water" />
		<tag k="ssr:stedsnr" v="246894" />
	</node>
	<node lat="59.916588885896516" lon="7.391325008049318" id="-32513">
		<tag k="name" v="Storhelleråi" />
		<tag k="ssr:stedsnr" v="246897" />
		<tag k="waterway" v="river" />
	</node>
	<node lat="59.7538444430344" lon="7.196588895169944" id="-32516">
		<tag k="alt_name" v="Engjelstjørn" />
		<tag k="name" v="Engjelstjønn" />
		<tag k="natural" v="water" />
		<tag k="ssr:stedsnr" v="246928" />
	</node>
	<node lat="59.62155135459004" lon="7.740852219849974" id="-32521">
		<tag k="alt_name" v="Deildetjørn" />
		<tag k="name" v="Deildetjønn" />
		<tag k="natural" v="water" />
		<tag k="ssr:stedsnr" v="246958" />
	</node>
	<node lat="59.62494999823458" lon="8.022433335193204" id="-32523">
		<tag k="alt_name" v="Hampetjørn" />
		<tag k="name" v="Hampetjønn" />
		<tag k="natural" v="water" />
		<tag k="ssr:stedsnr" v="246980" />
	</node>
	<node lat="59.88910277946852" lon="7.4348694494741485" id="-32524">
		<tag k="alt_name" v="Vrålsbuvatnet" />
		<tag k="name" v="Vrålsbutjønni" />
		<tag k="natural" v="water" />
		<tag k="ssr:stedsnr" v="246982" />
	</node>
	<node lat="59.856827778777465" lon="7.635724992250697" id="-32531">
		<tag k="name" v="Saltpyttåi" />
		<tag k="ssr:stedsnr" v="246999" />
		<tag k="waterway" v="stream" />
	</node>
	<node lat="59.604922218356" lon="8.162833327524602" id="-32533">
		<tag k="name" v="Robekken" />
		<tag k="ssr:stedsnr" v="247099" />
		<tag k="waterway" v="stream" />
	</node>
	<node lat="59.772541670364284" lon="7.735558327362819" id="-32534">
		<tag k="name" v="Flatastøylneset" />
		<tag k="natural" v="cape" />
		<tag k="ssr:stedsnr" v="247324" />
	</node>
	<node lat="59.772677781008554" lon="8.090536115902918" id="-32539">
		<tag k="name" v="Eideåi" />
		<tag k="ssr:stedsnr" v="247353" />
		<tag k="waterway" v="stream" />
	</node>
	<node lat="60.007938885960705" lon="7.818891668635598" id="-32540">
		<tag k="name" v="Bunuttjønni" />
		<tag k="natural" v="water" />
		<tag k="ssr:stedsnr" v="247529" />
	</node>
	<node lat="60.04329166293472" lon="8.018080552344887" id="-32542">
		<tag k="alt_name" v="Vråsjåen, vesle" />
		<tag k="name" v="Vesle Vråsjåen" />
		<tag k="natural" v="water" />
		<tag k="ssr:stedsnr" v="247498" />
	</node>
	<node lat="59.85956666796654" lon="8.076061113260769" id="-32547">
		<tag k="name" v="Storfjorden" />
		<tag k="natural" v="water" />
		<tag k="ssr:stedsnr" v="247586" />
	</node>
	<node lat="60.087705555735596" lon="7.748280551608342" id="-32549">
		<tag k="name" v="Gjuvsjååi" />
		<tag k="ssr:stedsnr" v="247596" />
		<tag k="waterway" v="river" />
	</node>
	<node lat="59.856061108845665" lon="7.954441670218134" id="-32551">
		<tag k="name" v="Vonskinåi" />
		<tag k="ssr:stedsnr" v="247712" />
		<tag k="waterway" v="river" />
	</node>
	<node lat="59.861161114691704" lon="7.884450007336429" id="-32552">
		<tag k="name" v="Vonskinvatnet" />
		<tag k="natural" v="water" />
		<tag k="ssr:stedsnr" v="247714" />
		<tag k="water" v="lake" />
	</node>
	<node lat="59.839574998475" lon="7.750861113066019" id="-32556">
		<tag k="alt_name" v="Hallbjørgkvamtjørni" />
		<tag k="name" v="Hallbjørgkvamtjønni" />
		<tag k="natural" v="water" />
		<tag k="ssr:stedsnr" v="247729" />
	</node>
	<node lat="59.89596389066837" lon="7.3329916746610735" id="-32560">
		<tag k="name" v="Storhellervatnet" />
		<tag k="natural" v="water" />
		<tag k="ssr:stedsnr" v="247834" />
		<tag k="water" v="lake" />
	</node>
	<node lat="59.93803610901722" lon="7.245124994355577" id="-32561">
		<tag k="name" v="Midnutvatnet" />
		<tag k="natural" v="water" />
		<tag k="ssr:stedsnr" v="247842" />
	</node>
	<node lat="59.764952774569586" lon="7.34958333255679" id="-32576">
		<tag k="name" v="Nystøyllii" />
		<tag k="natural" v="cape" />
		<tag k="ssr:stedsnr" v="117417" />
	</node>
	<node lat="59.801791663660424" lon="7.497397228123243" id="-32578">
		<tag k="name" v="Ålbogtjønn" />
		<tag k="natural" v="water" />
		<tag k="ssr:stedsnr" v="117634" />
	</node>
	<node lat="59.51323888660083" lon="7.952050004271956" id="-32582">
		<tag k="alt_name" v="Koddesætjønni" />
		<tag k="name" v="Koddesæ" />
		<tag k="natural" v="water" />
		<tag k="ssr:stedsnr" v="124004" />
	</node>
	<node lat="59.749247220205014" lon="7.652000005384277" id="-32587">
		<tag k="name" v="Mauretjønn" />
		<tag k="natural" v="water" />
		<tag k="ssr:stedsnr" v="124314" />
	</node>
	<node lat="59.71110277790389" lon="7.2851666717541095" id="-32588">
		<tag k="name" v="Langesæneset" />
		<tag k="natural" v="cape" />
		<tag k="ssr:stedsnr" v="124324" />
	</node>
	<node lat="59.59476388936637" lon="8.098166670908872" id="-32592">
		<tag k="alt_name" v="Grisetjørn" />
		<tag k="name" v="Grisetjønn" />
		<tag k="natural" v="water" />
		<tag k="ssr:stedsnr" v="124213" />
	</node>
	<node lat="59.5920694471688" lon="8.306013883931692" id="-32595">
		<tag k="name" v="Gjevarvatn" />
		<tag k="natural" v="water" />
		<tag k="ssr:stedsnr" v="124414" />
		<tag k="water" v="lake" />
	</node>
	<node lat="59.71568889204722" lon="7.527049992708416" id="-32596">
		<tag k="alt_name" v="Langetjørn" />
		<tag k="name" v="Langetjønn" />
		<tag k="natural" v="water" />
		<tag k="ssr:stedsnr" v="124504" />
	</node>
	<node lat="59.722408332452225" lon="7.536925006429922" id="-32597">
		<tag k="alt_name" v="Oddetjørn" />
		<tag k="name" v="Oddetjønn" />
		<tag k="natural" v="water" />
		<tag k="ssr:stedsnr" v="124517" />
	</node>
	<node lat="59.68597500218043" lon="7.6011500025149505" id="-32599">
		<tag k="alt_name" v="Tangevatn" />
		<tag k="name" v="Tangavatn" />
		<tag k="natural" v="water" />
		<tag k="ssr:stedsnr" v="124526" />
	</node>
	<node lat="59.69955833114234" lon="7.5892944473293955" id="-32600">
		<tag k="alt_name" v="Gjuvsviktjørni;Gjusviktjønn" />
		<tag k="name" v="Gjuvsviktjønni" />
		<tag k="natural" v="water" />
		<tag k="ssr:stedsnr" v="124552" />
	</node>
	<node lat="59.74667777958459" lon="7.958316673682052" id="-32601">
		<tag k="alt_name" v="Breidalstjønnan;Breiddalstjørn" />
		<tag k="name" v="Breidalstjønnane" />
		<tag k="natural" v="water" />
		<tag k="ssr:stedsnr" v="124560" />
	</node>
	<node lat="59.71069999761227" lon="7.621569451085391" id="-32603">
		<tag k="alt_name" v="Tjørnane under løypet" />
		<tag k="name" v="Tjønnane under løypet" />
		<tag k="natural" v="water" />
		<tag k="ssr:stedsnr" v="124500" />
	</node>
	<node lat="59.93315555147527" lon="7.953397223129076" id="-32604">
		<tag k="name" v="Reinarvatnet" />
		<tag k="natural" v="water" />
		<tag k="ssr:stedsnr" v="124610" />
		<tag k="water" v="lake" />
	</node>
	<node lat="59.73238611437354" lon="7.805630550682281" id="-32605">
		<tag k="alt_name" v="Svinnsbekk" />
		<tag k="name" v="Svindsbekk" />
		<tag k="old_name" v="Svindsbekken" />
		<tag k="ssr:stedsnr" v="124620" />
		<tag k="waterway" v="stream" />
	</node>
	<node lat="59.62125000340827" lon="7.59623332820564" id="-32607">
		<tag k="alt_name" v="Rassteintjørnane, store" />
		<tag k="name" v="Store Rassteintjønnane" />
		<tag k="natural" v="water" />
		<tag k="ssr:stedsnr" v="124667" />
	</node>
	<node lat="59.60516389193801" lon="7.860255555397446" id="-32612">
		<tag k="name" v="Hanaholmen" />
		<tag k="place" v="islet" />
		<tag k="ssr:stedsnr" v="124867" />
	</node>
	<node lat="59.65573055397604" lon="7.949791659964202" id="-32616">
		<tag k="alt_name" v="Vegglitjørn" />
		<tag k="name" v="Vegglitjønn" />
		<tag k="natural" v="water" />
		<tag k="ssr:stedsnr" v="124757" />
	</node>
	<node lat="59.762366664526" lon="7.166888897495484" id="-32618">
		<tag k="name" v="Vassdalstjønn" />
		<tag k="natural" v="water" />
		<tag k="ssr:stedsnr" v="124916" />
	</node>
	<node lat="59.78111389282327" lon="8.22180278345018" id="-32623">
		<tag k="alt_name" v="Flokketjørni" />
		<tag k="name" v="Floketjønn" />
		<tag k="natural" v="water" />
		<tag k="ssr:stedsnr" v="125100" />
	</node>
	<node lat="59.82135000400174" lon="8.18678889378275" id="-32624">
		<tag k="alt_name" v="Urdtjørn" />
		<tag k="name" v="Urdtjønn" />
		<tag k="natural" v="water" />
		<tag k="ssr:stedsnr" v="125408" />
	</node>
	<node lat="59.8100527750801" lon="8.163274996347779" id="-32625">
		<tag k="alt_name" v="Bergetjørn" />
		<tag k="name" v="Bergetjønn" />
		<tag k="natural" v="water" />
		<tag k="ssr:stedsnr" v="125428" />
	</node>
	<node lat="59.90804999902381" lon="8.137977770976248" id="-32627">
		<tag k="alt_name" v="Tuddøltjørn" />
		<tag k="name" v="Tuddøltjønn" />
		<tag k="natural" v="water" />
		<tag k="ssr:stedsnr" v="125463" />
	</node>
	<node lat="59.78183888609035" lon="8.051855557229967" id="-32631">
		<tag k="alt_name" v="Bakketjørnane" />
		<tag k="name" v="Bakketjønnane" />
		<tag k="natural" v="water" />
		<tag k="ssr:stedsnr" v="125371" />
	</node>
	<node lat="59.7915638929067" lon="7.400483338975949" id="-32634">
		<tag k="alt_name" v="Margittjønni" />
		<tag k="name" v="Margittjønn" />
		<tag k="natural" v="water" />
		<tag k="ssr:stedsnr" v="125551" />
	</node>
	<node lat="59.80279167000691" lon="7.4207111165663395" id="-32636">
		<tag k="alt_name" v="Skarstøyltjønni" />
		<tag k="name" v="Skardtjønn" />
		<tag k="natural" v="water" />
		<tag k="ssr:stedsnr" v="125556" />
	</node>
	<node lat="59.97791110937914" lon="7.87244999349347" id="-32641">
		<tag k="alt_name" v="Midtjørnbekken" />
		<tag k="name" v="Midtjønnbekken" />
		<tag k="ssr:stedsnr" v="125596" />
		<tag k="waterway" v="stream" />
	</node>
	<node lat="59.984083336796935" lon="7.898205556468403" id="-32642">
		<tag k="alt_name" v="Tommetjørni" />
		<tag k="name" v="Tommetjønni" />
		<tag k="natural" v="water" />
		<tag k="ssr:stedsnr" v="125600" />
		<tag k="water" v="lake" />
	</node>
	<node lat="59.90985833501528" lon="8.041530551929233" id="-32645">
		<tag k="name" v="Rautuva" />
		<tag k="place" v="islet" />
		<tag k="ssr:stedsnr" v="125647" />
	</node>
	<node lat="59.96417778103178" lon="7.932450005865495" id="-32648">
		<tag k="alt_name" v="Mortåtjørni" />
		<tag k="loc_name" v="Mortåvatn" />
		<tag k="name" v="Mortåtjønni" />
		<tag k="natural" v="water" />
		<tag k="ssr:stedsnr" v="125698" />
	</node>
	<node lat="59.836866671129805" lon="7.269619440830393" id="-32649">
		<tag k="alt_name" v="Tjørnlegbekken" />
		<tag k="name" v="Tjønnlegbekken" />
		<tag k="ssr:stedsnr" v="125834" />
		<tag k="waterway" v="stream" />
	</node>
	<node lat="59.805638888988035" lon="7.331475007052927" id="-32651">
		<tag k="name" v="Smørviktjønnane" />
		<tag k="natural" v="water" />
		<tag k="ssr:stedsnr" v="125843" />
	</node>
	<node lat="59.9507500019414" lon="7.589019451757356" id="-32652">
		<tag k="name" v="Ormetjønnbekken" />
		<tag k="ssr:stedsnr" v="125904" />
		<tag k="waterway" v="stream" />
	</node>
	<node lat="60.02001944031127" lon="7.57767500167588" id="-32655">
		<tag k="name" v="Flådalsbekken" />
		<tag k="ssr:stedsnr" v="142433" />
		<tag k="waterway" v="stream" />
	</node>
	<node lat="59.60382778044172" lon="7.813919448272304" id="-32659">
		<tag k="name" v="Løkjine" />
		<tag k="natural" v="water" />
		<tag k="ssr:stedsnr" v="149063" />
	</node>
	<node lat="59.605719442453704" lon="7.807341660421354" id="-32660">
		<tag k="name" v="Steintjønn" />
		<tag k="natural" v="water" />
		<tag k="ssr:stedsnr" v="149066" />
	</node>
	<node lat="59.54945277572191" lon="7.912477773908484" id="-32669">
		<tag k="name" v="Juvstøylbekken" />
		<tag k="ssr:stedsnr" v="149434" />
		<tag k="waterway" v="stream" />
	</node>
	<node lat="59.688766668117296" lon="7.876338884282927" id="-32677">
		<tag k="name" v="Tatretjønn" />
		<tag k="natural" v="water" />
		<tag k="ssr:stedsnr" v="149708" />
	</node>
	<node lat="59.621661110716566" lon="8.171330547508605" id="-32684">
		<tag k="name" v="Storebekk" />
		<tag k="ssr:stedsnr" v="152608" />
		<tag k="waterway" v="stream" />
	</node>
	<node lat="59.66911364330961" lon="8.161572720658224" id="-32686">
		<tag k="name" v="Berganes" />
		<tag k="natural" v="cape" />
		<tag k="ssr:stedsnr" v="152820" />
	</node>
	<node lat="59.69491940122595" lon="8.121265771191222" id="-32693">
		<tag k="name" v="Langetjønnbekken" />
		<tag k="ssr:stedsnr" v="153520" />
		<tag k="waterway" v="stream" />
	</node>
	<node lat="59.76150277410921" lon="8.067752786647704" id="-32697">
		<tag k="name" v="Egilstjønn" />
		<tag k="natural" v="water" />
		<tag k="ssr:stedsnr" v="153765" />
	</node>
	<node lat="59.643180552059086" lon="7.56678888136009" id="-32707">
		<tag k="name" v="Juvendbekken" />
		<tag k="ssr:stedsnr" v="170860" />
		<tag k="waterway" v="stream" />
	</node>
	<node lat="59.721613885674245" lon="7.5881666752742385" id="-32710">
		<tag k="name" v="Mjølstøyltjønni" />
		<tag k="natural" v="water" />
		<tag k="ssr:stedsnr" v="171305" />
	</node>
	<node lat="59.72525833576229" lon="7.622791662408897" id="-32712">
		<tag k="name" v="Trolldaltjønn" />
		<tag k="natural" v="water" />
		<tag k="ssr:stedsnr" v="171710" />
	</node>
	<node lat="59.73640278170776" lon="7.5977694401431695" id="-32713">
		<tag k="name" v="Kjela" />
		<tag k="ssr:stedsnr" v="171711" />
		<tag k="waterway" v="river" />
	</node>
	<node lat="59.76842777947964" lon="7.388808336566661" id="-32722">
		<tag k="name" v="Sandnes" />
		<tag k="natural" v="cape" />
		<tag k="ssr:stedsnr" v="179815" />
	</node>
	<node lat="59.726361113416225" lon="7.481458329924561" id="-32727">
		<tag k="name" v="Flothylåi" />
		<tag k="ssr:stedsnr" v="185305" />
		<tag k="waterway" v="river" />
	</node>
	<node lat="59.71351666644891" lon="7.597702770473366" id="-32742">
		<tag k="alt_name" v="Kroktjørn" />
		<tag k="name" v="Kroktjønn" />
		<tag k="natural" v="water" />
		<tag k="ssr:stedsnr" v="185510" />
	</node>
	<node lat="59.72599999787551" lon="7.674433341406927" id="-32743">
		<tag k="alt_name" v="Tveitevatn" />
		<tag k="name" v="Tveitevatnet" />
		<tag k="natural" v="water" />
		<tag k="ssr:stedsnr" v="185532" />
		<tag k="water" v="lake" />
	</node>
	<node lat="59.70883055586155" lon="8.08662778013308" id="-32751">
		<tag k="alt_name" v="Åsbogtjørn;Åsboktjørni" />
		<tag k="name" v="Åsboktjønni" />
		<tag k="natural" v="water" />
		<tag k="ssr:stedsnr" v="185833" />
	</node>
	<node lat="59.995502782087414" lon="7.506630546843172" id="-32753">
		<tag k="name" v="Brutjønnane" />
		<tag k="natural" v="water" />
		<tag k="ssr:stedsnr" v="185927" />
	</node>
	<node lat="59.763736110740275" lon="7.307780559016163" id="-32754">
		<tag k="name" v="Skåfonnbekken" />
		<tag k="ssr:stedsnr" v="185928" />
		<tag k="waterway" v="stream" />
	</node>
	<node lat="59.6243250039863" lon="7.887652774013907" id="-32756">
		<tag k="name" v="Kåvsåi" />
		<tag k="ssr:stedsnr" v="185948" />
		<tag k="waterway" v="river" />
	</node>
	<node lat="59.998361107516516" lon="7.993613895971862" id="-32758">
		<tag k="alt_name" v="Bekkestaultjørni" />
		<tag k="name" v="Bekkestøyltjønni" />
		<tag k="natural" v="water" />
		<tag k="ssr:stedsnr" v="186635" />
	</node>
	<node lat="59.79080277958321" lon="7.61192222397871" id="-32761">
		<tag k="name" v="Spærutjønni" />
		<tag k="natural" v="water" />
		<tag k="ssr:stedsnr" v="186581" />
	</node>
	<node lat="60.01941389151454" lon="7.857611115888199" id="-32767">
		<tag k="name" v="Plassefoss" />
		<tag k="natural" v="waterfall" />
		<tag k="ssr:stedsnr" v="187475" />
	</node>
	<node lat="59.771388890697075" lon="7.412519435599458" id="-32771">
		<tag k="name" v="Damtjønnane" />
		<tag k="natural" v="water" />
		<tag k="ssr:stedsnr" v="208605" />
	</node>
	<node lat="59.66535833300995" lon="7.977855547345294" id="-32782">
		<tag k="alt_name" v="Storhomen" />
		<tag k="name" v="Storhome" />
		<tag k="place" v="islet" />
		<tag k="ssr:stedsnr" v="210532" />
	</node>
	<node lat="59.68104999831335" lon="7.970894436456894" id="-32789">
		<tag k="name" v="Husebøviki" />
		<tag k="natural" v="water" />
		<tag k="ssr:stedsnr" v="210585" />
		<tag k="water" v="lake" />
	</node>
	<node lat="59.69935000061938" lon="7.884972230106883" id="-32790">
		<tag k="name" v="Grungestø" />
		<tag k="natural" v="bay" />
		<tag k="ssr:stedsnr" v="210728" />
	</node>
	<node lat="59.60705278057759" lon="8.159152777145003" id="-32794">
		<tag k="alt_name" v="Bosstaultjønni" />
		<tag k="name" v="Bosstøyltjønni" />
		<tag k="natural" v="water" />
		<tag k="ssr:stedsnr" v="213832" />
	</node>
	<node lat="59.6719083335467" lon="8.008469448481748" id="-32795">
		<tag k="name" v="Brendehomen" />
		<tag k="place" v="islet" />
		<tag k="ssr:stedsnr" v="214006" />
	</node>
	<node lat="59.74214166259356" lon="8.231155558632668" id="-32798">
		<tag k="name" v="Lonin" />
		<tag k="ssr:stedsnr" v="214179" />
		<tag k="waterway" v="stream" />
	</node>
	<node lat="59.69398332903305" lon="8.078044441156504" id="-32802">
		<tag k="name" v="Rugebekk" />
		<tag k="ssr:stedsnr" v="214774" />
		<tag k="waterway" v="stream" />
	</node>
	<node lat="59.78738055445769" lon="8.0826583281595" id="-32805">
		<tag k="name" v="Raunerobekken" />
		<tag k="ssr:stedsnr" v="214683" />
		<tag k="waterway" v="stream" />
	</node>
	<node lat="59.76905833572994" lon="8.141524999246544" id="-32806">
		<tag k="name" v="Aratjønn" />
		<tag k="natural" v="water" />
		<tag k="ssr:stedsnr" v="214824" />
		<tag k="water" v="pond" />
	</node>
	<node lat="59.67438055193923" lon="7.924127773928163" id="-32812">
		<tag k="name" v="Djupetjønn" />
		<tag k="natural" v="water" />
		<tag k="ssr:stedsnr" v="270300" />
	</node>
	<node lat="59.69021944702614" lon="7.783397228279782" id="-32821">
		<tag k="name" v="Øvre Bjønnesundtjønn" />
		<tag k="natural" v="water" />
		<tag k="ssr:stedsnr" v="270514" />
	</node>
	<node lat="59.712994446546844" lon="7.722994436887098" id="-32822">
		<tag k="name" v="Flishøvelbekken" />
		<tag k="ssr:stedsnr" v="271058" />
		<tag k="waterway" v="stream" />
	</node>
	<node lat="59.592052782244046" lon="7.717938884357741" id="-32823">
		<tag k="name" v="Finnebuåi" />
		<tag k="ssr:stedsnr" v="271123" />
		<tag k="waterway" v="river" />
	</node>
	<node lat="59.648780557910285" lon="7.896422213398496" id="-32825">
		<tag k="name" v="Vindgaulen" />
		<tag k="natural" v="bay" />
		<tag k="ssr:stedsnr" v="271329" />
	</node>
	<node lat="59.65714444228133" lon="7.866505551555905" id="-32828">
		<tag k="name" v="Lislebekk" />
		<tag k="ssr:stedsnr" v="271350" />
		<tag k="waterway" v="stream" />
	</node>
	<node lat="59.644027774645195" lon="7.97001665992275" id="-32829">
		<tag k="name" v="Bjølleteigtjønn" />
		<tag k="natural" v="water" />
		<tag k="ssr:stedsnr" v="271618" />
	</node>
	<node lat="59.68580833620144" lon="7.966324992750207" id="-32831">
		<tag k="name" v="Milebotn" />
		<tag k="natural" v="bay" />
		<tag k="ssr:stedsnr" v="271629" />
	</node>
	<node lat="59.63777500397031" lon="8.061116661389187" id="-32846">
		<tag k="name" v="Vågsbekk" />
		<tag k="ssr:stedsnr" v="271980" />
		<tag k="waterway" v="stream" />
	</node>
	<node lat="59.62031110756977" lon="8.087452770195638" id="-32848">
		<tag k="name" v="Lomdalsbekken" />
		<tag k="ssr:stedsnr" v="271983" />
		<tag k="waterway" v="stream" />
	</node>
	<node lat="59.77616666705336" lon="7.325966662645952" id="-32855">
		<tag k="name" v="Tyrvelitjønn" />
		<tag k="natural" v="water" />
		<tag k="ssr:stedsnr" v="238385" />
	</node>
	<node lat="59.67198611527332" lon="7.812961111729242" id="-32862">
		<tag k="name" v="Lonine" />
		<tag k="natural" v="bay" />
		<tag k="ssr:stedsnr" v="452079" />
	</node>
	<node lat="59.71449444042578" lon="7.738019450003003" id="-32863">
		<tag k="name" v="Odden" />
		<tag k="natural" v="cape" />
		<tag k="ssr:stedsnr" v="452049" />
	</node>
	<node lat="59.49801666395887" lon="7.950700005651786" id="-32864">
		<tag k="name" v="Sprena" />
		<tag k="ssr:stedsnr" v="452256" />
		<tag k="waterway" v="stream" />
	</node>
	<node lat="59.55943467699204" lon="8.135954490201637" id="-32867">
		<tag k="alt_name" v="Loslitjørn" />
		<tag k="name" v="Loslitjønn" />
		<tag k="natural" v="water" />
		<tag k="ssr:stedsnr" v="245403" />
	</node>
	<node lat="59.634774997434725" lon="7.914847219490209" id="-32868">
		<tag k="name" v="Salamandertjønni" />
		<tag k="natural" v="water" />
		<tag k="ssr:stedsnr" v="452355" />
	</node>
	<node lat="59.661241669914034" lon="7.998708333031375" id="-32871">
		<tag k="name" v="Sagahylen" />
		<tag k="place" v="locality" />
		<tag k="ssr:stedsnr" v="245750" />
	</node>
	<node lat="59.57679166622095" lon="7.838805548090742" id="-32872">
		<tag k="name" v="Bulitjønn" />
		<tag k="natural" v="water" />
		<tag k="ssr:stedsnr" v="452418" />
	</node>
	<node lat="59.591616667834" lon="8.194169452052602" id="-32878">
		<tag k="alt_name" v="Øyfjellselvi" />
		<tag k="name" v="Vikåi" />
		<tag k="ssr:stedsnr" v="246272" />
		<tag k="waterway" v="river" />
	</node>
	<node lat="59.617394441977886" lon="8.196269444135577" id="-32880">
		<tag k="name" v="Straume" />
		<tag k="place" v="locality" />
		<tag k="ssr:stedsnr" v="246288" />
	</node>
	<node lat="59.79270833291632" lon="7.73074721609789" id="-32885">
		<tag k="alt_name" v="Langtjørni" />
		<tag k="name" v="Langetjønn" />
		<tag k="natural" v="water" />
		<tag k="ssr:stedsnr" v="246302" />
	</node>
	<node lat="59.727088890399195" lon="7.465366661343207" id="-32887">
		<tag k="alt_name" v="Flothylhylen" />
		<tag k="name" v="Flothyl" />
		<tag k="place" v="locality" />
		<tag k="ssr:stedsnr" v="246308" />
	</node>
	<node lat="59.788830865625116" lon="7.434307216117153" id="-32893">
		<tag k="name" v="Langetjønn" />
		<tag k="natural" v="water" />
		<tag k="ssr:stedsnr" v="246515" />
	</node>
	<node lat="59.72800278225579" lon="7.799766670344311" id="-32896">
		<tag k="name" v="Svindsbekktjønni" />
		<tag k="natural" v="water" />
		<tag k="ssr:stedsnr" v="452456" />
	</node>
	<node lat="59.645241664513165" lon="7.830780556691976" id="-32898">
		<tag k="alt_name" v="Vasslaustjørn" />
		<tag k="name" v="Vasslaustjønni" />
		<tag k="natural" v="water" />
		<tag k="ssr:stedsnr" v="246774" />
	</node>
	<node lat="59.59539166890977" lon="8.065008327657463" id="-32901">
		<tag k="alt_name" v="Kastetjørn" />
		<tag k="name" v="Kastetjønn" />
		<tag k="natural" v="water" />
		<tag k="ssr:stedsnr" v="246909" />
	</node>
	<node lat="59.72851388819362" lon="8.063252784418292" id="-32906">
		<tag k="alt_name" v="Karlsbutjørn" />
		<tag k="name" v="Karlsbutjønni" />
		<tag k="natural" v="water" />
		<tag k="ssr:stedsnr" v="246627" />
	</node>
	<node lat="59.95107499862429" lon="7.502416664829164" id="-32912">
		<tag k="name" v="Øvre Berutjønn" />
		<tag k="natural" v="water" />
		<tag k="ssr:stedsnr" v="246871" />
		<tag k="water" v="lake" />
	</node>
	<node lat="59.75965555455933" lon="8.104586117006471" id="-32915">
		<tag k="name" v="Liåi" />
		<tag k="ssr:stedsnr" v="247060" />
		<tag k="waterway" v="stream" />
	</node>
	<node lat="59.81335555667281" lon="7.513219445016024" id="-32916">
		<tag k="name" v="Ufartjønnane" />
		<tag k="natural" v="water" />
		<tag k="ssr:stedsnr" v="246960" />
	</node>
	<node lat="60.0489333371151" lon="7.92306666576092" id="-32919">
		<tag k="name" v="Tjønndalstjønnan" />
		<tag k="natural" v="water" />
		<tag k="ssr:stedsnr" v="247503" />
	</node>
	<node lat="59.7812750028298" lon="7.449305561387838" id="-32920">
		<tag k="alt_name" v="Kroketjønn" />
		<tag k="name" v="Kroktjønn" />
		<tag k="natural" v="water" />
		<tag k="ssr:stedsnr" v="247505" />
	</node>
	<node lat="59.798497225169044" lon="7.702449998254404" id="-32921">
		<tag k="alt_name" v="Nedre Damtjønn" />
		<tag k="name" v="Damtjønn" />
		<tag k="natural" v="water" />
		<tag k="ssr:stedsnr" v="247511" />
	</node>
	<node lat="59.84487499801327" lon="7.3362916656494805" id="-32926">
		<tag k="alt_name" v="Bakkelegtjørn" />
		<tag k="name" v="Bakkelegtjønn" />
		<tag k="natural" v="water" />
		<tag k="ssr:stedsnr" v="247804" />
	</node>
	<node lat="59.719625000472575" lon="7.713616663675247" id="-32929">
		<tag k="name" v="Furuneset" />
		<tag k="natural" v="cape" />
		<tag k="old_name" v="Furunsetet" />
		<tag k="ssr:stedsnr" v="453067" />
	</node>
	<node lat="59.7205361067069" lon="7.719011115589283" id="-32933">
		<tag k="alt_name" v="Stampebekken" />
		<tag k="name" v="Stampebekk" />
		<tag k="ssr:stedsnr" v="453052" />
		<tag k="waterway" v="stream" />
	</node>
	<node lat="59.683255552675966" lon="8.07727222131301" id="-32938">
		<tag k="name" v="Sveltehome" />
		<tag k="place" v="islet" />
		<tag k="ssr:stedsnr" v="453145" />
	</node>
	<node lat="59.64803333602445" lon="7.965122228117228" id="-32942">
		<tag k="name" v="Bjølleteigtjønn" />
		<tag k="natural" v="water" />
		<tag k="ssr:stedsnr" v="453586" />
	</node>
	<node lat="59.69732777969509" lon="7.906200007216721" id="-32948">
		<tag k="name" v="Vesle Myrstø" />
		<tag k="natural" v="bay" />
		<tag k="ssr:stedsnr" v="453746" />
	</node>
	<node lat="59.63618611045167" lon="8.069597221742143" id="-32952">
		<tag k="alt_name" v="Bekkjeskardtjørn, vesle" />
		<tag k="name" v="Vesle Reinstjønn" />
		<tag k="natural" v="water" />
		<tag k="ssr:stedsnr" v="453979" />
	</node>
	<node lat="59.62492777387123" lon="8.206186115573733" id="-32959">
		<tag k="name" v="Deildebekk" />
		<tag k="ssr:stedsnr" v="456557" />
		<tag k="waterway" v="stream" />
	</node>
	<node lat="59.72179888185664" lon="8.104829752713975" id="-32963">
		<tag k="name" v="Løyningtjønn" />
		<tag k="natural" v="water" />
		<tag k="ssr:stedsnr" v="456656" />
	</node>
	<node lat="59.79919166227433" lon="8.150866665661471" id="-32967">
		<tag k="name" v="Kvennhusbekken" />
		<tag k="ssr:stedsnr" v="456742" />
		<tag k="waterway" v="stream" />
	</node>
	<node lat="59.66148560267317" lon="8.188665314049688" id="-32968">
		<tag k="name" v="Stykkebekken" />
		<tag k="ssr:stedsnr" v="456816" />
		<tag k="waterway" v="stream" />
	</node>
	<node lat="59.70968055253104" lon="8.052349998352282" id="-32973">
		<tag k="name" v="Juvsbekken" />
		<tag k="ssr:stedsnr" v="457201" />
		<tag k="waterway" v="stream" />
	</node>
	<node lat="59.74170833345737" lon="8.081174995663066" id="-32974">
		<tag k="name" v="Bekkeselbekken" />
		<tag k="ssr:stedsnr" v="457294" />
		<tag k="waterway" v="stream" />
	</node>
	<node lat="59.88511666290495" lon="8.153663897771919" id="-32980">
		<tag k="name" v="Napalibekken" />
		<tag k="ssr:stedsnr" v="457751" />
		<tag k="waterway" v="stream" />
	</node>
	<node lat="59.674011108237075" lon="8.086375007589357" id="-32982">
		<tag k="name" v="Deildebekk" />
		<tag k="ssr:stedsnr" v="457874" />
		<tag k="waterway" v="stream" />
	</node>
	<node lat="59.644722224900214" lon="8.086477779896287" id="-32983">
		<tag k="name" v="Tjønnestaultjønni" />
		<tag k="natural" v="water" />
		<tag k="ssr:stedsnr" v="457934" />
	</node>
	<node lat="59.704630553442975" lon="7.781919450921141" id="-32985">
		<tag k="name" v="Myreneset" />
		<tag k="natural" v="cape" />
		<tag k="ssr:stedsnr" v="270026" />
	</node>
	<node lat="59.60051388742025" lon="7.77180832952498" id="-32986">
		<tag k="name" v="Hestekvævbekken" />
		<tag k="ssr:stedsnr" v="270074" />
		<tag k="waterway" v="stream" />
	</node>
	<node lat="59.65414166521373" lon="7.847299991883654" id="-32987">
		<tag k="name" v="Langetjønn" />
		<tag k="natural" v="water" />
		<tag k="ssr:stedsnr" v="270303" />
	</node>
	<node lat="59.65381944333388" lon="7.852788883083741" id="-32988">
		<tag k="name" v="Steintjønn" />
		<tag k="natural" v="water" />
		<tag k="ssr:stedsnr" v="270289" />
	</node>
	<node lat="59.69513611358804" lon="7.764488897662845" id="-32992">
		<tag k="name" v="Gloslitjønn" />
		<tag k="natural" v="water" />
		<tag k="ssr:stedsnr" v="270505" />
	</node>
	<node lat="59.835124997504856" lon="7.188366672019434" id="-32994">
		<tag k="name" v="Vargeskortjønn" />
		<tag k="natural" v="water" />
		<tag k="ssr:stedsnr" v="270895" />
	</node>
	<node lat="59.602233329618905" lon="8.036202778438266" id="-32995">
		<tag k="name" v="Ålandslibekken" />
		<tag k="ssr:stedsnr" v="271180" />
		<tag k="waterway" v="stream" />
	</node>
	<node lat="59.648291665792954" lon="7.922424995980701" id="-32997">
		<tag k="name" v="Prestmyrtjønni" />
		<tag k="natural" v="water" />
		<tag k="ssr:stedsnr" v="271314" />
	</node>
	<node lat="59.801930559688664" lon="7.674766663293751" id="-33003">
		<tag k="name" v="Saubrekktjønni" />
		<tag k="natural" v="water" />
		<tag k="ssr:stedsnr" v="274089" />
	</node>
	<node lat="59.77218611178571" lon="7.676897220322248" id="-33004">
		<tag k="alt_name" v="Ondålmålsskardtjønni" />
		<tag k="name" v="Ondålmålsskartjønni" />
		<tag k="natural" v="water" />
		<tag k="ssr:stedsnr" v="274207" />
	</node>
	<node lat="59.73594167087756" lon="7.857766664027443" id="-33009">
		<tag k="name" v="Ågebekk" />
		<tag k="ssr:stedsnr" v="274505" />
		<tag k="waterway" v="stream" />
	</node>
	<node lat="59.88127777928469" lon="8.131152773709253" id="-33013">
		<tag k="name" v="Stogubekken" />
		<tag k="ssr:stedsnr" v="274823" />
		<tag k="waterway" v="stream" />
	</node>
	<node lat="59.63860000246884" lon="7.994680554877619" id="-33016">
		<tag k="name" v="Klokkarviki" />
		<tag k="natural" v="bay" />
		<tag k="ssr:stedsnr" v="275023" />
	</node>
	<node lat="59.737241664581184" lon="7.695544446512893" id="-33030">
		<tag k="name" v="Den lange tjønni" />
		<tag k="natural" v="water" />
		<tag k="ssr:stedsnr" v="293236" />
	</node>
	<node lat="59.75616110915461" lon="7.362738886662141" id="-33034">
		<tag k="name" v="Storfisktjønni" />
		<tag k="natural" v="water" />
		<tag k="ssr:stedsnr" v="299911" />
	</node>
	<node lat="59.775419443144735" lon="7.292077785978619" id="-33036">
		<tag k="name" v="Hestevollbekken" />
		<tag k="ssr:stedsnr" v="300826" />
		<tag k="waterway" v="stream" />
	</node>
	<node lat="59.72496666778346" lon="8.109938895465453" id="-33042">
		<tag k="alt_name" v="Trettetjørn" />
		<tag k="name" v="Trettetjønn" />
		<tag k="natural" v="water" />
		<tag k="ssr:stedsnr" v="306210" />
	</node>
	<node lat="59.74877222528758" lon="8.143541662209964" id="-33044">
		<tag k="alt_name" v="Farhovdtjørn" />
		<tag k="name" v="Farhovdtjønn" />
		<tag k="natural" v="water" />
		<tag k="ssr:stedsnr" v="306227" />
	</node>
	<node lat="59.71533889190955" lon="7.609149996074636" id="-33047">
		<tag k="alt_name" v="Kietil støltjørnane;Kjetilstøyltjørnane" />
		<tag k="name" v="Kjetilstøyltjønnane" />
		<tag k="natural" v="water" />
		<tag k="ssr:stedsnr" v="306527" />
	</node>
	<node lat="59.71320833576893" lon="7.339247230065912" id="-33052">
		<tag k="name" v="Hasletjønni" />
		<tag k="natural" v="water" />
		<tag k="ssr:stedsnr" v="306458" />
	</node>
	<node lat="59.668344444656974" lon="7.558083329270888" id="-33054">
		<tag k="alt_name" v="Langeidvatn, øvre" />
		<tag k="name" v="Øvre Langeidvatn" />
		<tag k="natural" v="water" />
		<tag k="ssr:stedsnr" v="306496" />
		<tag k="water" v="lake" />
	</node>
	<node lat="59.67007499853681" lon="7.540911113537832" id="-33055">
		<tag k="alt_name" v="Flotatjørni" />
		<tag k="name" v="Flotatjønn" />
		<tag k="natural" v="water" />
		<tag k="ssr:stedsnr" v="306498" />
	</node>
	<node lat="59.653202779329604" lon="7.8578972160030816" id="-33059">
		<tag k="alt_name" v="Mosekvævtjørni;Mosakvævtjørnin" />
		<tag k="name" v="Mosekvævtjønnane" />
		<tag k="natural" v="water" />
		<tag k="ssr:stedsnr" v="306773" />
	</node>
	<node lat="59.65596389053223" lon="7.990272213568329" id="-33061">
		<tag k="name" v="Sveivarhylen" />
		<tag k="place" v="locality" />
		<tag k="ssr:stedsnr" v="306782" />
	</node>
	<node lat="59.61102499956005" lon="7.994233334375717" id="-33071">
		<tag k="alt_name" v="Utgardstjørn" />
		<tag k="name" v="Utgardstjønn" />
		<tag k="natural" v="water" />
		<tag k="ssr:stedsnr" v="306872" />
	</node>
	<node lat="59.79287499994541" lon="8.046258338429965" id="-33073">
		<tag k="name" v="Rusbubekken" />
		<tag k="ssr:stedsnr" v="307334" />
		<tag k="waterway" v="stream" />
	</node>
	<node lat="60.0684805568639" lon="8.011202770720377" id="-33076">
		<tag k="name" v="Sletteåi" />
		<tag k="ssr:stedsnr" v="307612" />
		<tag k="waterway" v="river" />
	</node>
	<node lat="60.081522224940244" lon="7.808824994857561" id="-33079">
		<tag k="name" v="Gamalbusundet" />
		<tag k="natural" v="strait" />
		<tag k="ssr:stedsnr" v="307624" />
	</node>
	<node lat="59.88206110720829" lon="7.940241665535858" id="-33080">
		<tag k="name" v="Navarsøyane" />
		<tag k="place" v="islet" />
		<tag k="ssr:stedsnr" v="307649" />
	</node>
	<node lat="59.660649998648424" lon="7.518674991424499" id="-33085">
		<tag k="name" v="Slengja" />
		<tag k="ssr:stedsnr" v="307525" />
		<tag k="waterway" v="stream" />
	</node>
	<node lat="59.777730555049416" lon="7.658441675464071" id="-33086">
		<tag k="name" v="Sagabekken" />
		<tag k="ssr:stedsnr" v="307528" />
		<tag k="waterway" v="stream" />
	</node>
	<node lat="59.71976944769926" lon="7.450019451049987" id="-33089">
		<tag k="name" v="Tverråi" />
		<tag k="ssr:stedsnr" v="307598" />
		<tag k="waterway" v="stream" />
	</node>
	<node lat="59.83212500078632" lon="7.900586113306803" id="-33090">
		<tag k="name" v="Store Skitfalktjønn" />
		<tag k="natural" v="water" />
		<tag k="ssr:stedsnr" v="307719" />
	</node>
	<node lat="59.81825000091347" lon="8.0229777758725" id="-33092">
		<tag k="name" v="Åstaulåi" />
		<tag k="ssr:stedsnr" v="307697" />
		<tag k="waterway" v="river" />
	</node>
	<node lat="59.78472222109297" lon="7.258777769094175" id="-33093">
		<tag k="alt_name" v="Kjelavatn, vesle" />
		<tag k="name" v="Vesle Kjelavatn" />
		<tag k="natural" v="water" />
		<tag k="ssr:stedsnr" v="307901" />
	</node>
	<node lat="59.89141389236206" lon="8.086702779115818" id="-33094">
		<tag k="alt_name" v="Kvitebekktjørnane" />
		<tag k="name" v="Kvitetjønn" />
		<tag k="natural" v="water" />
		<tag k="ssr:stedsnr" v="307748" />
	</node>
	<node lat="59.797525001349015" lon="7.2107861192254195" id="-33095">
		<tag k="name" v="Kjelaneset" />
		<tag k="place" v="island" />
		<tag k="ssr:stedsnr" v="307902" />
	</node>
	<node lat="59.828255554567356" lon="7.640511115102721" id="-33098">
		<tag k="name" v="Hoggufstjønni" />
		<tag k="natural" v="water" />
		<tag k="ssr:stedsnr" v="307946" />
	</node>
	<node lat="60.09160000337328" lon="7.8591055479782135" id="-33111">
		<tag k="name" v="Fisketjønnan" />
		<tag k="natural" v="water" />
		<tag k="ssr:stedsnr" v="309473" />
	</node>
	<node lat="59.67354444490011" lon="8.161341673001782" id="-33114">
		<tag k="name" v="Snauhome" />
		<tag k="place" v="islet" />
		<tag k="ssr:stedsnr" v="331019" />
	</node>
	<node lat="59.58653888964269" lon="7.910527775968639" id="-33117">
		<tag k="name" v="Vesleholmen" />
		<tag k="place" v="island" />
		<tag k="ssr:stedsnr" v="331415" />
	</node>
	<node lat="59.68601111424402" lon="7.909072228714242" id="-33119">
		<tag k="name" v="Godmærla" />
		<tag k="ssr:stedsnr" v="331717" />
		<tag k="waterway" v="stream" />
	</node>
	<node lat="59.70847222368466" lon="7.916169448049243" id="-33131">
		<tag k="name" v="Granviki" />
		<tag k="natural" v="bay" />
		<tag k="ssr:stedsnr" v="335202" />
	</node>
	<node lat="59.618002775726914" lon="8.223888883885177" id="-33132">
		<tag k="alt_name" v="Berstaulbekken" />
		<tag k="name" v="Berstøylbekken" />
		<tag k="ssr:stedsnr" v="335504" />
		<tag k="waterway" v="stream" />
	</node>
	<node lat="59.868799998702386" lon="8.097280546995314" id="-33134">
		<tag k="name" v="Kvamsfjorden" />
		<tag k="natural" v="bay" />
		<tag k="ssr:stedsnr" v="335710" />
	</node>
	<node lat="59.78455555204225" lon="7.880122229850987" id="-33138">
		<tag k="name" v="Gygregråten" />
		<tag k="natural" v="waterfall" />
		<tag k="ssr:stedsnr" v="335807" />
	</node>
	<node lat="59.728616664528644" lon="7.655974998745193" id="-33154">
		<tag k="name" v="Kleivodden" />
		<tag k="natural" v="cape" />
		<tag k="ssr:stedsnr" v="474327" />
	</node>
	<node lat="59.728336110213064" lon="7.671786116438834" id="-33155">
		<tag k="name" v="Svemyrodden" />
		<tag k="natural" v="cape" />
		<tag k="ssr:stedsnr" v="474332" />
	</node>
	<node lat="59.727472219485335" lon="7.68158056156537" id="-33156">
		<tag k="name" v="Vasen" />
		<tag k="natural" v="beach" />
		<tag k="ssr:stedsnr" v="474334" />
	</node>
	<node lat="59.73011666701874" lon="7.643338892275025" id="-33163">
		<tag k="name" v="Nesodden" />
		<tag k="natural" v="cape" />
		<tag k="ssr:stedsnr" v="353665" />
	</node>
	<node lat="59.764913889147124" lon="8.076719444351081" id="-33171">
		<tag k="name" v="Homvatn" />
		<tag k="natural" v="water" />
		<tag k="ssr:stedsnr" v="367202" />
		<tag k="water" v="lake" />
	</node>
	<node lat="59.567038886416356" lon="8.19125832938403" id="-33177">
		<tag k="name" v="Vesleåi" />
		<tag k="ssr:stedsnr" v="367396" />
		<tag k="waterway" v="stream" />
	</node>
	<node lat="59.710582962818656" lon="7.59202232751642" id="-33178">
		<tag k="alt_name" v="Måketjørn" />
		<tag k="name" v="Måketjønn" />
		<tag k="natural" v="water" />
		<tag k="ssr:stedsnr" v="367504" />
	</node>
	<node lat="59.62419444331242" lon="7.520524992338703" id="-33184">
		<tag k="name" v="Hemla" />
		<tag k="ssr:stedsnr" v="367481" />
		<tag k="waterway" v="river" />
	</node>
	<node lat="59.6965166626973" lon="7.508202776243132" id="-33188">
		<tag k="alt_name" v="Fisketjørni" />
		<tag k="name" v="Fisketjønni" />
		<tag k="natural" v="water" />
		<tag k="ssr:stedsnr" v="367570" />
	</node>
	<node lat="59.75390277863636" lon="7.416611105321279" id="-33189">
		<tag k="alt_name" v="Grevshyl" />
		<tag k="name" v="Greivshyl" />
		<tag k="natural" v="water" />
		<tag k="ssr:stedsnr" v="367575" />
	</node>
	<node lat="59.69413888726092" lon="7.557083330002872" id="-33190">
		<tag k="name" v="Kvervesjåosen" />
		<tag k="natural" v="bay" />
		<tag k="ssr:stedsnr" v="367589" />
	</node>
	<node lat="59.621388885931" lon="7.614525003569648" id="-33191">
		<tag k="alt_name" v="Rassteintjørnane, midtre" />
		<tag k="name" v="Midtre Rassteintjønnane" />
		<tag k="natural" v="water" />
		<tag k="ssr:stedsnr" v="367706" />
	</node>
	<node lat="59.65349444292389" lon="8.02712500569005" id="-33192">
		<tag k="alt_name" v="Vågi" />
		<tag k="name" v="Vågen" />
		<tag k="natural" v="bay" />
		<tag k="ssr:stedsnr" v="367780" />
	</node>
	<node lat="59.96526666860631" lon="7.63250277603284" id="-33199">
		<tag k="name" v="Møra" />
		<tag k="ssr:stedsnr" v="367873" />
		<tag k="waterway" v="river" />
	</node>
	<node lat="59.75532499815286" lon="7.246550002505437" id="-33205">
		<tag k="name" v="Fonntjønn" />
		<tag k="natural" v="water" />
		<tag k="ssr:stedsnr" v="367924" />
	</node>
	<node lat="59.80189722240273" lon="7.6253111147540755" id="-33208">
		<tag k="name" v="Brothyl" />
		<tag k="place" v="locality" />
		<tag k="ssr:stedsnr" v="368576" />
	</node>
	<node lat="60.05585833707254" lon="7.481850003568308" id="-33210">
		<tag k="name" v="Sandvatn" />
		<tag k="natural" v="water" />
		<tag k="ssr:stedsnr" v="368669" />
		<tag k="water" v="lake" />
	</node>
	<node lat="60.09521111120214" lon="7.514999999346043" id="-33212">
		<tag k="name" v="Blånuttjønnane" />
		<tag k="natural" v="water" />
		<tag k="ssr:stedsnr" v="368681" />
	</node>
	<node lat="59.948255551717395" lon="7.991605560574033" id="-33213">
		<tag k="alt_name" v="Slækjetjørni" />
		<tag k="name" v="Slækjetjønni" />
		<tag k="natural" v="water" />
		<tag k="ssr:stedsnr" v="368700" />
	</node>
	<node lat="60.043955553095465" lon="7.523263880427336" id="-33214">
		<tag k="name" v="Kvenna" />
		<tag k="ssr:stedsnr" v="369588" />
		<tag k="waterway" v="river" />
	</node>
	<node lat="59.79050277763059" lon="7.3329916682722205" id="-33221">
		<tag k="name" v="Nettetjønni" />
		<tag k="natural" v="water" />
		<tag k="ssr:stedsnr" v="481494" />
	</node>
	<node lat="59.74862222441921" lon="7.427219446852311" id="-33223">
		<tag k="loc_name" v="Gamlestaulitjønn" />
		<tag k="name" v="Gamlestøyltjønni" />
		<tag k="natural" v="water" />
		<tag k="ssr:stedsnr" v="481936" />
	</node>
	<node lat="60.06896666284014" lon="7.6204888880272525" id="-33224">
		<tag k="name" v="Kringlesjåpytten" />
		<tag k="natural" v="water" />
		<tag k="ssr:stedsnr" v="384446" />
	</node>
	<node lat="60.07404166586605" lon="7.677783334579255" id="-33226">
		<tag k="name" v="Tjønndalsbekken" />
		<tag k="ssr:stedsnr" v="384449" />
		<tag k="waterway" v="stream" />
	</node>
	<node lat="59.66624167087794" lon="8.073825001662964" id="-33228">
		<tag k="name" v="Øyestaulbekken" />
		<tag k="ssr:stedsnr" v="392111" />
		<tag k="waterway" v="stream" />
	</node>
	<node lat="59.552572224500956" lon="7.926708336363089" id="-33237">
		<tag k="name" v="Løkjine" />
		<tag k="natural" v="water" />
		<tag k="ssr:stedsnr" v="392414" />
	</node>
	<node lat="59.58570277994554" lon="7.828797227425803" id="-33238">
		<tag k="name" v="Nørstetjønn" />
		<tag k="natural" v="water" />
		<tag k="ssr:stedsnr" v="392445" />
	</node>
	<node lat="59.5431059045733" lon="7.875568979697276" id="-33239">
		<tag k="name" v="Karteimtjønni" />
		<tag k="natural" v="water" />
		<tag k="ssr:stedsnr" v="392494" />
	</node>
	<node lat="59.688672225606275" lon="7.966491658442518" id="-33250">
		<tag k="name" v="Trosaviki" />
		<tag k="natural" v="bay" />
		<tag k="ssr:stedsnr" v="392635" />
	</node>
	<node lat="59.63523611408516" lon="7.997505558088548" id="-33253">
		<tag k="name" v="Løyningtjønn" />
		<tag k="natural" v="water" />
		<tag k="ssr:stedsnr" v="392691" />
	</node>
	<node lat="59.662122221707556" lon="8.064927780533425" id="-33255">
		<tag k="name" v="Stavsåi" />
		<tag k="ssr:stedsnr" v="392833" />
		<tag k="waterway" v="stream" />
	</node>
	<node lat="59.63727499881512" lon="7.393824994559686" id="-33259">
		<tag k="name" v="Hyttevoddtjønn" />
		<tag k="natural" v="water" />
		<tag k="ssr:stedsnr" v="395706" />
	</node>
	<node lat="59.82932221923423" lon="8.200074994215706" id="-33260">
		<tag k="name" v="Deildebekken" />
		<tag k="ssr:stedsnr" v="395729" />
		<tag k="waterway" v="stream" />
	</node>
	<node lat="59.97591389171573" lon="7.84995832872589" id="-33281">
		<tag k="name" v="Metjønn" />
		<tag k="natural" v="water" />
		<tag k="ssr:stedsnr" v="489618" />
		<tag k="water" v="lake" />
	</node>
	<node lat="59.62493055709601" lon="8.262572224814344" id="-33283">
		<tag k="alt_name" v="Homvatnet" />
		<tag k="name" v="Homvatn" />
		<tag k="natural" v="water" />
		<tag k="ssr:stedsnr" v="488253" />
		<tag k="water" v="lake" />
	</node>
	<node lat="59.61200833286648" lon="8.20990278618269" id="-33287">
		<tag k="alt_name" v="Vikvatnet" />
		<tag k="name" v="Vikvatn" />
		<tag k="natural" v="water" />
		<tag k="ssr:stedsnr" v="488283" />
		<tag k="water" v="lake" />
	</node>
	<node lat="59.629724995637055" lon="7.513669440102915" id="-33293">
		<tag k="alt_name" v="Ånondtjørni, l;Ånondtjørni, lisle" />
		<tag k="name" v="Lisle Ånondtjønni" />
		<tag k="natural" v="water" />
		<tag k="ssr:stedsnr" v="488525" />
	</node>
	<node lat="59.635536115179555" lon="7.650211113518566" id="-33294">
		<tag k="name" v="Tarjeisdokk" />
		<tag k="natural" v="water" />
		<tag k="ssr:stedsnr" v="488529" />
	</node>
	<node lat="59.73214166714247" lon="8.042524998225522" id="-33300">
		<tag k="alt_name" v="Kroktjørn" />
		<tag k="name" v="Kroktjønn" />
		<tag k="natural" v="water" />
		<tag k="ssr:stedsnr" v="488641" />
	</node>
	<node lat="59.63997777775254" lon="7.738602782521012" id="-33304">
		<tag k="name" v="Rjodbekken" />
		<tag k="old_name" v="Rubekken" />
		<tag k="ssr:stedsnr" v="488801" />
		<tag k="waterway" v="stream" />
	</node>
	<node lat="59.63637499698917" lon="7.827558325747852" id="-33310">
		<tag k="alt_name" v="Svindalstjørn" />
		<tag k="name" v="Svindalstjønn" />
		<tag k="natural" v="water" />
		<tag k="ssr:stedsnr" v="488939" />
	</node>
	<node lat="59.60199444176133" lon="7.797055551331177" id="-33313">
		<tag k="name" v="Steinshovdbekken" />
		<tag k="ssr:stedsnr" v="488878" />
		<tag k="waterway" v="stream" />
	</node>
	<node lat="59.62944722629563" lon="7.979727782156021" id="-33319">
		<tag k="alt_name" v="Langtjørn" />
		<tag k="name" v="Langetjønn" />
		<tag k="natural" v="water" />
		<tag k="ssr:stedsnr" v="488984" />
	</node>
	<node lat="59.629133330633096" lon="7.92237499944351" id="-33320">
		<tag k="alt_name" v="Sigrøstjørn;Sigrostjørni" />
		<tag k="name" v="Sigrostjønni" />
		<tag k="natural" v="water" />
		<tag k="ssr:stedsnr" v="488987" />
	</node>
	<node lat="59.608666670542945" lon="7.8396166652108565" id="-33321">
		<tag k="alt_name" v="Gaukslandevja" />
		<tag k="name" v="Evja" />
		<tag k="place" v="locality" />
		<tag k="ssr:stedsnr" v="488989" />
	</node>
	<node lat="59.78433055566092" lon="7.386000006034895" id="-33322">
		<tag k="name" v="Tvillingtjønnane" />
		<tag k="natural" v="water" />
		<tag k="ssr:stedsnr" v="421108" />
	</node>
	<node lat="59.79529999678203" lon="7.793591662014564" id="-33327">
		<tag k="alt_name" v="Bosshovdtjørni, øvre" />
		<tag k="name" v="Øvre Boshovdtjønn" />
		<tag k="natural" v="water" />
		<tag k="ssr:stedsnr" v="489329" />
	</node>
	<node lat="59.716431619560154" lon="7.357648961993251" id="-33328">
		<tag k="alt_name" v="Hestekvævtjørn;Hestekvævtjørni" />
		<tag k="name" v="Hestekvævtjønni" />
		<tag k="natural" v="water" />
		<tag k="ssr:stedsnr" v="489330" />
	</node>
	<node lat="59.74604444843224" lon="7.405505553840605" id="-33332">
		<tag k="alt_name" v="Langtjørn;Den lange tjønni" />
		<tag k="name" v="Langtjønn" />
		<tag k="natural" v="water" />
		<tag k="ssr:stedsnr" v="489372" />
	</node>
	<node lat="59.75708889098" lon="7.808591673980668" id="-33333">
		<tag k="name" v="Lauvgjuvbekken" />
		<tag k="ssr:stedsnr" v="489377" />
		<tag k="waterway" v="stream" />
	</node>
	<node lat="59.777300003516466" lon="7.6947138878845776" id="-33334">
		<tag k="name" v="Urdbøtjønni" />
		<tag k="natural" v="water" />
		<tag k="ssr:stedsnr" v="489523" />
	</node>
	<node lat="59.657308335409006" lon="7.412755557850979" id="-33335">
		<tag k="name" v="Nipaåi" />
		<tag k="ssr:stedsnr" v="489524" />
		<tag k="waterway" v="river" />
	</node>
	<node lat="59.778002777638186" lon="7.620094438674242" id="-33336">
		<tag k="name" v="Løyningtjønn" />
		<tag k="natural" v="water" />
		<tag k="ssr:stedsnr" v="489526" />
	</node>
	<node lat="59.77253333618503" lon="7.477777770380406" id="-33337">
		<tag k="name" v="Strandbekktjønni" />
		<tag k="natural" v="water" />
		<tag k="ssr:stedsnr" v="489531" />
	</node>
	<node lat="59.92416110904849" lon="8.128705553004131" id="-33338">
		<tag k="alt_name" v="Tuddøltjørnan" />
		<tag k="name" v="Tuddøltjønnane" />
		<tag k="natural" v="water" />
		<tag k="ssr:stedsnr" v="489471" />
	</node>
	<node lat="59.91005555256518" lon="8.103575001147123" id="-33339">
		<tag k="alt_name" v="Sandtjørn" />
		<tag k="name" v="Sandtjønn" />
		<tag k="natural" v="water" />
		<tag k="ssr:stedsnr" v="489475" />
	</node>
	<node lat="59.64797777488469" lon="7.33454167405595" id="-33340">
		<tag k="name" v="Viervadet" />
		<tag k="place" v="locality" />
		<tag k="ssr:stedsnr" v="489482" />
	</node>
	<node lat="60.10415833227458" lon="7.854408342345469" id="-33348">
		<tag k="alt_name" v="Fisketjønnane" />
		<tag k="name" v="Fisketjønnan" />
		<tag k="natural" v="water" />
		<tag k="ssr:stedsnr" v="489646" />
	</node>
	<node lat="59.764277779794874" lon="7.575975005762168" id="-33350">
		<tag k="name" v="Gravdalstjønnane" />
		<tag k="natural" v="water" />
		<tag k="ssr:stedsnr" v="489655" />
	</node>
	<node lat="59.75002499944756" lon="7.435983333316544" id="-33351">
		<tag k="name" v="Øykjelihylen" />
		<tag k="natural" v="water" />
		<tag k="ssr:stedsnr" v="489623" />
	</node>
	<node lat="59.88662499791899" lon="7.919066673377301" id="-33355">
		<tag k="name" v="Øyvollen" />
		<tag k="natural" v="cape" />
		<tag k="ssr:stedsnr" v="489666" />
	</node>
	<node lat="59.929280558765484" lon="7.780588894611826" id="-33356">
		<tag k="name" v="Kollsnutgryslene" />
		<tag k="natural" v="water" />
		<tag k="ssr:stedsnr" v="489693" />
		<tag k="water" v="lake" />
	</node>
	<node lat="59.94675555304366" lon="8.008625002096815" id="-33358">
		<tag k="name" v="Rudningbekken" />
		<tag k="ssr:stedsnr" v="489696" />
		<tag k="waterway" v="stream" />
	</node>
	<node lat="59.81464999746774" lon="8.031747219524304" id="-33361">
		<tag k="name" v="Haugestaulbekken" />
		<tag k="ssr:stedsnr" v="489725" />
		<tag k="waterway" v="stream" />
	</node>
	<node lat="59.80693333510495" lon="7.765227776925982" id="-33362">
		<tag k="alt_name" v="Kaldebekken" />
		<tag k="name" v="Kaldebekk" />
		<tag k="ssr:stedsnr" v="489726" />
		<tag k="waterway" v="stream" />
	</node>
	<node lat="59.89968333749607" lon="7.231558337201208" id="-33365">
		<tag k="alt_name" v="Poddevatnet, nedre" />
		<tag k="name" v="Nedre Poddevatnet" />
		<tag k="natural" v="water" />
		<tag k="ssr:stedsnr" v="489851" />
		<tag k="water" v="lake" />
	</node>
	<node lat="59.99600277874093" lon="7.672916672675267" id="-33366">
		<tag k="name" v="Urevassbekken" />
		<tag k="ssr:stedsnr" v="489875" />
		<tag k="waterway" v="stream" />
	</node>
	<node lat="59.87795555148081" lon="7.4275444442370855" id="-33368">
		<tag k="name" v="Beruhalltjønni" />
		<tag k="natural" v="water" />
		<tag k="ssr:stedsnr" v="489985" />
	</node>
	<node lat="59.82084999604913" lon="7.645219444130181" id="-33371">
		<tag k="name" v="Hjasatjønni" />
		<tag k="natural" v="water" />
		<tag k="ssr:stedsnr" v="489961" />
	</node>
	<node lat="59.66550278112738" lon="7.976147230492231" id="-33376">
		<tag k="alt_name" v="Bjortjørn;Bjårtjørn" />
		<tag k="name" v="Bjårtjønn" />
		<tag k="natural" v="water" />
		<tag k="ssr:stedsnr" v="427727" />
		<tag k="water" v="lake" />
	</node>
	<node lat="59.6803972237604" lon="8.21681666956167" id="-33381">
		<tag k="alt_name" v="Sprettedalstjørn" />
		<tag k="name" v="Sprettedalstjønni" />
		<tag k="natural" v="water" />
		<tag k="ssr:stedsnr" v="428118" />
	</node>
	<node lat="60.02003333380496" lon="7.802874999241659" id="-33384">
		<tag k="loc_name" v="Kræhyl" />
		<tag k="name" v="Kræhøl" />
		<tag k="place" v="locality" />
		<tag k="ssr:stedsnr" v="490486" />
	</node>
	<node lat="59.63370555171166" lon="7.682030555876446" id="-33393">
		<tag k="alt_name" v="Gravstjørni" />
		<tag k="name" v="Gravstjønni" />
		<tag k="natural" v="water" />
		<tag k="ssr:stedsnr" v="428509" />
	</node>
	<node lat="59.65067499643367" lon="7.349666660039866" id="-33394">
		<tag k="alt_name" v="Veslebudalstjørni" />
		<tag k="name" v="Veslebudalstjønni" />
		<tag k="natural" v="water" />
		<tag k="ssr:stedsnr" v="428514" />
	</node>
	<node lat="59.76497640656138" lon="7.434696161398269" id="-33395">
		<tag k="alt_name" v="Isbenttjønnane" />
		<tag k="name" v="Isbenttjønn" />
		<tag k="natural" v="water" />
		<tag k="ssr:stedsnr" v="428458" />
	</node>
	<node lat="59.87715277954932" lon="7.7564027689050885" id="-33401">
		<tag k="alt_name" v="Stokkholmstjørni" />
		<tag k="name" v="Stokkholmstjønni" />
		<tag k="natural" v="water" />
		<tag k="ssr:stedsnr" v="428602" />
	</node>
	<node lat="59.81873055641533" lon="7.927402779825235" id="-33403">
		<tag k="name" v="Vesle Skitfalktjønn" />
		<tag k="natural" v="water" />
		<tag k="ssr:stedsnr" v="428673" />
	</node>
	<node lat="60.078299999215574" lon="7.693802777121985" id="-33407">
		<tag k="name" v="Skardvatnet" />
		<tag k="natural" v="water" />
		<tag k="ssr:stedsnr" v="490644" />
		<tag k="water" v="lake" />
	</node>
	<node lat="59.75900555769169" lon="7.51193334004608" id="-33409">
		<tag k="name" v="Nasatjønn" />
		<tag k="natural" v="water" />
		<tag k="ssr:stedsnr" v="428557" />
	</node>
	<node lat="59.92534726685791" lon="7.710698280514929" id="-33411">
		<tag k="name" v="Sandtjønn" />
		<tag k="natural" v="water" />
		<tag k="ssr:stedsnr" v="428904" />
	</node>
	<node lat="59.57889444252851" lon="7.835225008466891" id="-33412">
		<tag k="alt_name" v="Skoralitjørn" />
		<tag k="name" v="Skoralitjønni" />
		<tag k="natural" v="water" />
		<tag k="ssr:stedsnr" v="428907" />
	</node>
	<node lat="60.01117500167306" lon="7.920850003371802" id="-33424">
		<tag k="name" v="Skuta" />
		<tag k="place" v="islet" />
		<tag k="ssr:stedsnr" v="429516" />
	</node>
	<node lat="59.79980555577931" lon="7.461883326035393" id="-33426">
		<tag k="name" v="Dalakvamtjønni" />
		<tag k="natural" v="water" />
		<tag k="ssr:stedsnr" v="429520" />
	</node>
	<node lat="59.95421051365776" lon="7.298759852299518" id="-33432">
		<tag k="name" v="Sakrisvatn" />
		<tag k="natural" v="water" />
		<tag k="ssr:stedsnr" v="429765" />
		<tag k="water" v="lake" />
	</node>
	<node lat="59.94828055843769" lon="7.225461104105639" id="-33433">
		<tag k="name" v="Simletindvatnet" />
		<tag k="natural" v="water" />
		<tag k="ssr:stedsnr" v="429766" />
		<tag k="water" v="lake" />
	</node>
	<node lat="60.0141277808772" lon="8.053297229170086" id="-33435">
		<tag k="alt_name" v="Vesle Saura;Saure, vesle" />
		<tag k="name" v="Vesle Saure" />
		<tag k="natural" v="water" />
		<tag k="ssr:stedsnr" v="430555" />
		<tag k="water" v="lake" />
	</node>
	<node lat="59.77983611157492" lon="8.117286117943802" id="-33442">
		<tag k="alt_name" v="Tippetjørn" />
		<tag k="name" v="Tippetjønn" />
		<tag k="natural" v="water" />
		<tag k="ssr:stedsnr" v="671087" />
	</node>
	<node lat="59.72843333268358" lon="7.54311666821896" id="-33445">
		<tag k="name" v="Vadfoss" />
		<tag k="natural" v="waterfall" />
		<tag k="ssr:stedsnr" v="671313" />
	</node>
	<node lat="59.824186114736584" lon="8.318224991310975" id="-33451">
		<tag k="name" v="Møsvassdammen" />
		<tag k="ssr:stedsnr" v="671385" />
		<tag k="waterway" v="dam" />
	</node>
	<node lat="59.77636944684786" lon="7.800072219232655" id="-33452">
		<tag k="alt_name" v="Tangetjørni" />
		<tag k="loc_name" v="Tangetjønn" />
		<tag k="name" v="Tangetjønni" />
		<tag k="natural" v="water" />
		<tag k="ssr:stedsnr" v="671341" />
	</node>
	<node lat="59.74740555907905" lon="7.707327777608872" id="-33454">
		<tag k="alt_name" v="Nystøltjørni;Nystøyltjørni;Nystøltjørn" />
		<tag k="name" v="Nystøyltjønni" />
		<tag k="natural" v="water" />
		<tag k="ssr:stedsnr" v="671348" />
	</node>
	<node lat="59.73965832965288" lon="7.347949992655487" id="-33455">
		<tag k="name" v="Fossebekken" />
		<tag k="ssr:stedsnr" v="671356" />
		<tag k="waterway" v="stream" />
	</node>
	<node lat="59.74811666286522" lon="7.4410750069933" id="-33456">
		<tag k="alt_name" v="Eikelihylen;Øykjelihylen" />
		<tag k="name" v="Øykelihylen" />
		<tag k="natural" v="water" />
		<tag k="ssr:stedsnr" v="671358" />
	</node>
	<node lat="59.749323809839225" lon="7.3936999014664755" id="-33457">
		<tag k="name" v="Nordsjøen" />
		<tag k="natural" v="water" />
		<tag k="ssr:stedsnr" v="671359" />
	</node>
	<node lat="59.90427221875522" lon="8.167733337694596" id="-33459">
		<tag k="alt_name" v="Grytåi" />
		<tag k="name" v="Grytåe" />
		<tag k="ssr:stedsnr" v="671458" />
		<tag k="waterway" v="river" />
	</node>
	<node lat="59.56358333376612" lon="8.12483610808361" id="-33460">
		<tag k="alt_name" v="Flottjørnane;Flottjønnan" />
		<tag k="name" v="Flottjønnane" />
		<tag k="natural" v="water" />
		<tag k="ssr:stedsnr" v="671460" />
	</node>
	<node lat="59.90265277850425" lon="8.05873888447215" id="-33462">
		<tag k="alt_name" v="Hovstjørni, store" />
		<tag k="name" v="Hovstjønn" />
		<tag k="natural" v="water" />
		<tag k="ssr:stedsnr" v="671631" />
	</node>
	<node lat="59.99526389012795" lon="7.832377779380402" id="-33470">
		<tag k="alt_name" v="Stavatjørnan" />
		<tag k="name" v="Stavatjønnane" />
		<tag k="natural" v="water" />
		<tag k="ssr:stedsnr" v="671582" />
		<tag k="water" v="lake" />
	</node>
	<node lat="60.06585277815093" lon="7.788363881979799" id="-33473">
		<tag k="name" v="Grisletjønni" />
		<tag k="natural" v="water" />
		<tag k="ssr:stedsnr" v="671600" />
	</node>
	<node lat="59.89053333470497" lon="7.985436102669897" id="-33478">
		<tag k="name" v="Lysåi" />
		<tag k="ssr:stedsnr" v="671734" />
		<tag k="waterway" v="stream" />
	</node>
	<node lat="59.66233888713271" lon="7.891352779874888" id="-33479">
		<tag k="name" v="Kjøytevikje" />
		<tag k="natural" v="bay" />
		<tag k="ssr:stedsnr" v="452308" />
	</node>
	<node lat="59.86643055805029" lon="8.041086117064886" id="-33481">
		<tag k="name" v="Hovdetangen" />
		<tag k="natural" v="cape" />
		<tag k="ssr:stedsnr" v="671740" />
	</node>
	<node lat="59.701897223309054" lon="7.747088895367994" id="-33484">
		<tag k="name" v="Geitebekk" />
		<tag k="ssr:stedsnr" v="452016" />
		<tag k="waterway" v="stream" />
	</node>
	<node lat="59.73366110695713" lon="7.727802777430942" id="-33485">
		<tag k="name" v="Rondetjønn" />
		<tag k="natural" v="water" />
		<tag k="ssr:stedsnr" v="452467" />
	</node>
	<node lat="59.80698055126618" lon="7.2505916687561225" id="-33486">
		<tag k="alt_name" v="Hermodholtjørni;Hermodsholtjønn" />
		<tag k="name" v="Hermodholtjønni" />
		<tag k="natural" v="water" />
		<tag k="ssr:stedsnr" v="671836" />
	</node>
	<node lat="59.82846666321455" lon="7.327286111374328" id="-33487">
		<tag k="alt_name" v="Borddalsvatn" />
		<tag k="name" v="Bordalsvatn" />
		<tag k="natural" v="water" />
		<tag k="ssr:stedsnr" v="671841" />
		<tag k="water" v="lake" />
	</node>
	<node lat="59.95168055121262" lon="7.54563054767753" id="-33492">
		<tag k="name" v="Ormetjønni" />
		<tag k="natural" v="water" />
		<tag k="ssr:stedsnr" v="671882" />
		<tag k="water" v="lake" />
	</node>
	<node lat="59.87865833299899" lon="7.404391661064729" id="-33495">
		<tag k="name" v="Kroktjønn" />
		<tag k="natural" v="water" />
		<tag k="ssr:stedsnr" v="671978" />
	</node>
	<node lat="59.65973888539708" lon="7.959208342083316" id="-33504">
		<tag k="alt_name" v="Røyrtjørn" />
		<tag k="name" v="Røyrtjønn" />
		<tag k="natural" v="water" />
		<tag k="ssr:stedsnr" v="453570" />
	</node>
	<node lat="59.57519444039105" lon="7.994733341079474" id="-33506">
		<tag k="name" v="Galthyl" />
		<tag k="ssr:stedsnr" v="453710" />
		<tag k="waterway" v="river" />
	</node>
	<node lat="60.01615833665137" lon="7.524194449046981" id="-33515">
		<tag k="name" v="Merakkåi" />
		<tag k="ssr:stedsnr" v="672661" />
		<tag k="waterway" v="stream" />
	</node>
	<node lat="60.05157499815492" lon="7.516761115480779" id="-33521">
		<tag k="loc_name" v="Breivadhylen" />
		<tag k="name" v="Breidvadhølen" />
		<tag k="place" v="locality" />
		<tag k="ssr:stedsnr" v="672600" />
	</node>
	<node lat="60.028033329981646" lon="7.624380562749544" id="-33523">
		<tag k="loc_name" v="Briskevatn" />
		<tag k="name" v="Briskevatnet" />
		<tag k="natural" v="water" />
		<tag k="ssr:stedsnr" v="672654" />
		<tag k="water" v="lake" />
	</node>
	<node lat="59.776858330798504" lon="7.97313056317187" id="-33525">
		<tag k="name" v="Stritubakkbekken" />
		<tag k="ssr:stedsnr" v="457153" />
		<tag k="waterway" v="stream" />
	</node>
	<node lat="59.61201944096192" lon="8.182447222481604" id="-33527">
		<tag k="name" v="Kleivdalstjønni" />
		<tag k="natural" v="water" />
		<tag k="ssr:stedsnr" v="456810" />
	</node>
	<node lat="59.72959444649107" lon="8.111541659451282" id="-33530">
		<tag k="name" v="Svarthyl" />
		<tag k="place" v="locality" />
		<tag k="ssr:stedsnr" v="457081" />
	</node>
	<node lat="59.69936098105733" lon="8.092965338176596" id="-33537">
		<tag k="name" v="Lintjønn" />
		<tag k="natural" v="water" />
		<tag k="ssr:stedsnr" v="457761" />
	</node>
	<node lat="59.76641944437655" lon="7.572819452257159" id="-33542">
		<tag k="name" v="Torvehylen" />
		<tag k="place" v="locality" />
		<tag k="ssr:stedsnr" v="473461" />
	</node>
	<node lat="59.69064166958684" lon="7.623708325360317" id="-33543">
		<tag k="name" v="Vikestråndbekken" />
		<tag k="ssr:stedsnr" v="474415" />
		<tag k="waterway" v="stream" />
	</node>
	<node lat="59.68551111268798" lon="7.556538888534661" id="-33545">
		<tag k="name" v="Lomtjønn" />
		<tag k="natural" v="water" />
		<tag k="ssr:stedsnr" v="474393" />
	</node>
	<node lat="59.740869444497946" lon="7.448444443519561" id="-33550">
		<tag k="name" v="Hyljelihyl" />
		<tag k="natural" v="water" />
		<tag k="ssr:stedsnr" v="481905" />
	</node>
	<node lat="59.75628889285405" lon="7.30811111564388" id="-33551">
		<tag k="alt_name" v="Arbunuttjønni, øvre" />
		<tag k="name" v="Øvre Arbunuttjønni" />
		<tag k="natural" v="water" />
		<tag k="ssr:stedsnr" v="481973" />
	</node>
	<node lat="59.5758583336178" lon="7.936930559687904" id="-33553">
		<tag k="name" v="Vinjeåi" />
		<tag k="ssr:stedsnr" v="488107" />
		<tag k="waterway" v="river" />
	</node>
	<node lat="59.64132499610816" lon="8.249055547302827" id="-33556">
		<tag k="alt_name" v="Øykjatjørn" />
		<tag k="name" v="Øykjetjønn" />
		<tag k="natural" v="water" />
		<tag k="ssr:stedsnr" v="488301" />
	</node>
	<node lat="59.583755557001226" lon="8.131644438226912" id="-33557">
		<tag k="alt_name" v="Sondovlivatn" />
		<tag k="name" v="Sundovlivatnet" />
		<tag k="natural" v="water" />
		<tag k="ssr:stedsnr" v="488435" />
		<tag k="water" v="lake" />
	</node>
	<node lat="59.664055557707535" lon="7.253838896249498" id="-33558">
		<tag k="alt_name" v="Dei lange tjørnane" />
		<tag k="name" v="Dei lange tjønnane" />
		<tag k="natural" v="water" />
		<tag k="ssr:stedsnr" v="488442" />
	</node>
	<node lat="59.686655553016806" lon="7.267372215866191" id="-33559">
		<tag k="name" v="Skjulstjønnane" />
		<tag k="natural" v="water" />
		<tag k="ssr:stedsnr" v="488454" />
	</node>
	<node lat="59.686216670792746" lon="7.206641661729735" id="-33560">
		<tag k="name" v="Bamsebubukta" />
		<tag k="natural" v="bay" />
		<tag k="ssr:stedsnr" v="488460" />
	</node>
	<node lat="59.69969722267717" lon="7.272166667040665" id="-33561">
		<tag k="name" v="Skjulsbekk" />
		<tag k="ssr:stedsnr" v="488461" />
		<tag k="waterway" v="stream" />
	</node>
	<node lat="59.74177777913233" lon="7.474091658357672" id="-33566">
		<tag k="alt_name" v="Hyljetjørn;Hyljetjørni" />
		<tag k="name" v="Hyljelitjønni" />
		<tag k="natural" v="water" />
		<tag k="ssr:stedsnr" v="488320" />
	</node>
	<node lat="59.70650277473115" lon="7.153294448077018" id="-33567">
		<tag k="name" v="Vivik" />
		<tag k="natural" v="cape" />
		<tag k="ssr:stedsnr" v="488356" />
	</node>
	<node lat="59.744897223023905" lon="7.256883327386052" id="-33569">
		<tag k="alt_name" v="Skarstjønn" />
		<tag k="name" v="Skardstjønnane" />
		<tag k="natural" v="water" />
		<tag k="ssr:stedsnr" v="488365" />
	</node>
	<node lat="59.552561107387405" lon="8.12839722012338" id="-33570">
		<tag k="alt_name" v="Urdtjørn" />
		<tag k="name" v="Urdtjønn" />
		<tag k="natural" v="water" />
		<tag k="ssr:stedsnr" v="488397" />
	</node>
	<node lat="59.640627775911966" lon="7.7674722193126255" id="-33575">
		<tag k="alt_name" v="Hagadalsbekk" />
		<tag k="name" v="Hagadalsbekken" />
		<tag k="ssr:stedsnr" v="488808" />
		<tag k="waterway" v="stream" />
	</node>
	<node lat="59.694544297063445" lon="7.880360593063688" id="-33578">
		<tag k="alt_name" v="Sleppekattjørn" />
		<tag k="name" v="Sleppekattjønn" />
		<tag k="natural" v="water" />
		<tag k="ssr:stedsnr" v="488845" />
	</node>
	<node lat="59.63424686606937" lon="7.739846306677114" id="-33585">
		<tag k="alt_name" v="Steindalstjørn" />
		<tag k="name" v="Steindalstjønn" />
		<tag k="natural" v="water" />
		<tag k="ssr:stedsnr" v="488946" />
	</node>
	<node lat="59.77804166643841" lon="7.934408331448424" id="-33590">
		<tag k="alt_name" v="Fallbrotdalbekken" />
		<tag k="loc_name" v="Fallbrodalsbekken" />
		<tag k="name" v="Fallbrotdalsbekken" />
		<tag k="ssr:stedsnr" v="489354" />
		<tag k="waterway" v="stream" />
	</node>
	<node lat="59.983102781977074" lon="8.065758331779985" id="-33598">
		<tag k="alt_name" v="Langetjørni" />
		<tag k="loc_name" v="Langetjønn" />
		<tag k="name" v="Langetjønni" />
		<tag k="natural" v="water" />
		<tag k="ssr:stedsnr" v="489608" />
		<tag k="water" v="lake" />
	</node>
	<node lat="59.8161694429731" lon="7.634602780082697" id="-33600">
		<tag k="name" v="Reinekvamtjønni" />
		<tag k="natural" v="water" />
		<tag k="ssr:stedsnr" v="489586" />
	</node>
	<node lat="59.92380277910992" lon="7.9136916717693655" id="-33603">
		<tag k="alt_name" v="Krakavasstjørnane" />
		<tag k="name" v="Krakavasstjønnane" />
		<tag k="natural" v="water" />
		<tag k="ssr:stedsnr" v="489702" />
	</node>
	<node lat="59.76477499855106" lon="7.2206750010869065" id="-33609">
		<tag k="name" v="Kjelatindtjønn" />
		<tag k="natural" v="water" />
		<tag k="ssr:stedsnr" v="489926" />
	</node>
	<node lat="60.04090000054401" lon="7.4512055627887595" id="-33618">
		<tag k="alt_name" v="Brisketjørnane" />
		<tag k="name" v="Brisketjønnane" />
		<tag k="natural" v="water" />
		<tag k="ssr:stedsnr" v="490630" />
	</node>
	<node lat="60.0315222232066" lon="7.962002769714166" id="-33620">
		<tag k="name" v="Brisketjønni" />
		<tag k="natural" v="water" />
		<tag k="ssr:stedsnr" v="490508" />
	</node>
	<node lat="60.03855555838003" lon="7.936633324524945" id="-33621">
		<tag k="name" v="Urdetjønn" />
		<tag k="natural" v="water" />
		<tag k="ssr:stedsnr" v="490512" />
	</node>
	<node lat="60.00271667032711" lon="7.996599993294599" id="-33622">
		<tag k="alt_name" v="Bekkestøltjønni, øvre" />
		<tag k="name" v="Øvre Bekkestøltjønni" />
		<tag k="natural" v="water" />
		<tag k="ssr:stedsnr" v="490527" />
	</node>
	<node lat="59.769558331192094" lon="7.382972219742268" id="-33623">
		<tag k="name" v="Vågslidnes" />
		<tag k="natural" v="cape" />
		<tag k="ssr:stedsnr" v="681631" />
	</node>
	<node lat="59.70360833218862" lon="7.788391674752641" id="-33625">
		<tag k="name" v="Skjenarneset" />
		<tag k="natural" v="bay" />
		<tag k="ssr:stedsnr" v="513026" />
	</node>
	<node lat="59.56439166349856" lon="7.926411108037346" id="-33632">
		<tag k="name" v="Åvoldgravtjønni" />
		<tag k="natural" v="water" />
		<tag k="ssr:stedsnr" v="513421" />
	</node>
	<node lat="59.5646694454435" lon="7.912475008314033" id="-33634">
		<tag k="name" v="Fossane" />
		<tag k="natural" v="waterfall" />
		<tag k="ssr:stedsnr" v="513425" />
	</node>
	<node lat="59.73611944756307" lon="7.755499999391112" id="-33638">
		<tag k="name" v="Havregil" />
		<tag k="ssr:stedsnr" v="513512" />
		<tag k="waterway" v="stream" />
	</node>
	<node lat="59.52002777733093" lon="7.991677777754012" id="-33644">
		<tag k="name" v="Slottshylen" />
		<tag k="place" v="locality" />
		<tag k="ssr:stedsnr" v="513683" />
	</node>
	<node lat="59.5394611106148" lon="7.9992027761357845" id="-33645">
		<tag k="name" v="Gøytilshylen" />
		<tag k="natural" v="water" />
		<tag k="ssr:stedsnr" v="513770" />
	</node>
	<node lat="59.578555552877724" lon="8.051008331575048" id="-33646">
		<tag k="name" v="Vesle Murtetjønn" />
		<tag k="natural" v="water" />
		<tag k="ssr:stedsnr" v="513967" />
	</node>
	<node lat="59.76932777558479" lon="7.799408334702027" id="-33647">
		<tag k="name" v="Hestehovtjønni" />
		<tag k="natural" v="water" />
		<tag k="ssr:stedsnr" v="517213" />
	</node>
	<node lat="59.65103632493751" lon="8.185949154673402" id="-33649">
		<tag k="name" v="Saltpytt" />
		<tag k="natural" v="water" />
		<tag k="ssr:stedsnr" v="517420" />
		<tag k="water" v="pond" />
	</node>
	<node lat="59.87361111425968" lon="8.117180561798117" id="-33656">
		<tag k="name" v="Majorbukti" />
		<tag k="natural" v="bay" />
		<tag k="ssr:stedsnr" v="517777" />
	</node>
	<node lat="59.64248333754512" lon="7.9998305627578175" id="-33660">
		<tag k="name" v="Øyehylen" />
		<tag k="place" v="locality" />
		<tag k="ssr:stedsnr" v="518026" />
	</node>
	<node lat="59.68713332968299" lon="8.089433334690668" id="-33662">
		<tag k="name" v="Podden" />
		<tag k="natural" v="bay" />
		<tag k="ssr:stedsnr" v="518740" />
	</node>
	<node lat="59.552588892336345" lon="8.166824998870467" id="-33668">
		<tag k="name" v="Kråkebøbekken" />
		<tag k="ssr:stedsnr" v="534968" />
		<tag k="waterway" v="stream" />
	</node>
	<node lat="59.760494444892736" lon="7.354472225743613" id="-33675">
		<tag k="name" v="Arbuviki" />
		<tag k="natural" v="bay" />
		<tag k="ssr:stedsnr" v="541972" />
	</node>
	<node lat="59.774394443144665" lon="7.319080561916679" id="-33676">
		<tag k="name" v="Sveivihylen" />
		<tag k="place" v="locality" />
		<tag k="ssr:stedsnr" v="542384" />
	</node>
	<node lat="59.76235833484481" lon="7.371338881971101" id="-33677">
		<tag k="name" v="Svartetjønn" />
		<tag k="natural" v="water" />
		<tag k="ssr:stedsnr" v="542918" />
	</node>
	<node lat="59.597499998421895" lon="8.236141669570904" id="-33680">
		<tag k="alt_name" v="Breidvatnet, l" />
		<tag k="name" v="Vesle Breivatn" />
		<tag k="natural" v="water" />
		<tag k="ssr:stedsnr" v="548268" />
		<tag k="water" v="lake" />
	</node>
	<node lat="59.60366388779325" lon="8.201272217001296" id="-33681">
		<tag k="name" v="Bjorhyl" />
		<tag k="natural" v="water" />
		<tag k="ssr:stedsnr" v="548274" />
		<tag k="water" v="lake" />
	</node>
	<node lat="59.643327781225416" lon="7.375749999980542" id="-33682">
		<tag k="alt_name" v="Halselegtjørni" />
		<tag k="name" v="Halselegtjønni" />
		<tag k="natural" v="water" />
		<tag k="ssr:stedsnr" v="548563" />
	</node>
	<node lat="59.80026111409591" lon="8.102761106669318" id="-33689">
		<tag k="name" v="Deildeodden" />
		<tag k="natural" v="cape" />
		<tag k="ssr:stedsnr" v="549399" />
	</node>
	<node lat="59.730274999855325" lon="7.4069861025005075" id="-33690">
		<tag k="name" v="Førsvatn" />
		<tag k="natural" v="water" />
		<tag k="ssr:stedsnr" v="549350" />
		<tag k="water" v="lake" />
	</node>
	<node lat="59.72556666531634" lon="7.362338890377181" id="-33691">
		<tag k="name" v="Hestekvævbekken" />
		<tag k="ssr:stedsnr" v="549352" />
		<tag k="waterway" v="stream" />
	</node>
	<node lat="59.62063610665908" lon="7.5194055499251995" id="-33695">
		<tag k="alt_name" v="Fisketjørni" />
		<tag k="name" v="Fisketjønni" />
		<tag k="natural" v="water" />
		<tag k="ssr:stedsnr" v="549520" />
	</node>
	<node lat="59.76375833312081" lon="7.39178889132472" id="-33699">
		<tag k="alt_name" v="Kvernhushylen" />
		<tag k="name" v="Kvennhushylen" />
		<tag k="natural" v="water" />
		<tag k="ssr:stedsnr" v="549466" />
	</node>
	<node lat="59.74381388480741" lon="8.057483332706774" id="-33706">
		<tag k="alt_name" v="Kvernmotjørn" />
		<tag k="name" v="Kvennmotjønni" />
		<tag k="natural" v="water" />
		<tag k="ssr:stedsnr" v="549661" />
	</node>
	<node lat="59.76910000280033" lon="7.321902778922763" id="-33712">
		<tag k="name" v="Eivindbuvatn" />
		<tag k="natural" v="water" />
		<tag k="ssr:stedsnr" v="549930" />
		<tag k="water" v="lake" />
	</node>
	<node lat="59.8225861140794" lon="7.709608342128067" id="-33716">
		<tag k="loc_name" v="Valasjåvatn" />
		<tag k="name" v="Valasjøvatnet" />
		<tag k="natural" v="water" />
		<tag k="ssr:stedsnr" v="549964" />
	</node>
	<node lat="59.80981666372214" lon="7.538125002997703" id="-33717">
		<tag k="alt_name" v="Kaldebekken" />
		<tag k="name" v="Kaldebekk" />
		<tag k="ssr:stedsnr" v="549966" />
		<tag k="waterway" v="stream" />
	</node>
	<node lat="59.63710832955699" lon="8.029738888699123" id="-33718">
		<tag k="name" v="Solheimsbekken" />
		<tag k="ssr:stedsnr" v="549968" />
		<tag k="waterway" v="stream" />
	</node>
	<node lat="59.61164999589924" lon="8.009258328083131" id="-33719">
		<tag k="name" v="Neset" />
		<tag k="natural" v="cape" />
		<tag k="ssr:stedsnr" v="550108" />
	</node>
	<node lat="59.94181666301071" lon="8.047533336713883" id="-33729">
		<tag k="name" v="Løytodden" />
		<tag k="natural" v="cape" />
		<tag k="ssr:stedsnr" v="550656" />
	</node>
	<node lat="59.954547222403534" lon="8.042999992895462" id="-33730">
		<tag k="name" v="Bjønnurbekken" />
		<tag k="ssr:stedsnr" v="550658" />
		<tag k="waterway" v="stream" />
	</node>
	<node lat="59.96281666811398" lon="8.066669445140406" id="-33731">
		<tag k="name" v="Nedre Bjønnurtjønni" />
		<tag k="natural" v="water" />
		<tag k="ssr:stedsnr" v="550661" />
	</node>
	<node lat="59.9619666629856" lon="7.9931027853036" id="-33732">
		<tag k="name" v="Juvikfjorden" />
		<tag k="natural" v="water" />
		<tag k="ssr:stedsnr" v="550662" />
		<tag k="water" v="lake" />
	</node>
	<node lat="59.79981111101385" lon="7.353441664481663" id="-33735">
		<tag k="name" v="Smørviktjønni" />
		<tag k="natural" v="water" />
		<tag k="ssr:stedsnr" v="550543" />
	</node>
	<node lat="60.01109999752386" lon="7.961999993012336" id="-33741">
		<tag k="name" v="Skrubbsteintjønni" />
		<tag k="natural" v="water" />
		<tag k="ssr:stedsnr" v="551548" />
	</node>
	<node lat="60.08003611011847" lon="7.56428610550667" id="-33744">
		<tag k="name" v="Pannefisktjønn" />
		<tag k="natural" v="water" />
		<tag k="ssr:stedsnr" v="566470" />
	</node>
	<node lat="59.74094444510982" lon="7.858391675192875" id="-33763">
		<tag k="alt_name" v="Skridubekken" />
		<tag k="name" v="Skredubekken" />
		<tag k="ssr:stedsnr" v="574103" />
		<tag k="waterway" v="stream" />
	</node>
	<node lat="59.63208055145444" lon="7.9700472234162465" id="-33766">
		<tag k="name" v="Røyrtjønn" />
		<tag k="natural" v="water" />
		<tag k="ssr:stedsnr" v="574645" />
	</node>
	<node lat="59.62715555851884" lon="7.978094438743916" id="-33767">
		<tag k="name" v="Langetjønnbekken" />
		<tag k="ssr:stedsnr" v="574652" />
		<tag k="waterway" v="stream" />
	</node>
	<node lat="59.652310824590494" lon="8.198801237848553" id="-33781">
		<tag k="name" v="Stavastaulbekken" />
		<tag k="ssr:stedsnr" v="577410" />
		<tag k="waterway" v="stream" />
	</node>
	<node lat="59.76534999902451" lon="8.121744436808834" id="-33784">
		<tag k="name" v="Syrebekkbekken" />
		<tag k="ssr:stedsnr" v="577510" />
		<tag k="waterway" v="stream" />
	</node>
	<node lat="59.67428152802011" lon="8.110793161734735" id="-33792">
		<tag k="alt_name" v="Flærestølbekken" />
		<tag k="loc_name" v="Flærestaulvegen" />
		<tag k="name" v="Flærestøylbekken" />
		<tag k="ssr:stedsnr" v="578557" />
		<tag k="waterway" v="stream" />
	</node>
	<node lat="59.73328888961654" lon="8.081766669451712" id="-33793">
		<tag k="name" v="Svarttjønnbekken" />
		<tag k="ssr:stedsnr" v="578301" />
		<tag k="waterway" v="stream" />
	</node>
	<node lat="59.607297221144606" lon="7.930705547432854" id="-33799">
		<tag k="name" v="Lauvstøyltjønni" />
		<tag k="natural" v="water" />
		<tag k="ssr:stedsnr" v="695332" />
	</node>
	<node lat="59.6825555533288" lon="7.813530556392565" id="-33805">
		<tag k="name" v="Lonine" />
		<tag k="natural" v="water" />
		<tag k="ssr:stedsnr" v="695496" />
		<tag k="water" v="lake" />
	</node>
	<node lat="59.66430833568498" lon="7.964030549893207" id="-33806">
		<tag k="alt_name" v="Kosebekk" />
		<tag k="name" v="Kosebekken" />
		<tag k="ssr:stedsnr" v="695558" />
		<tag k="waterway" v="stream" />
	</node>
	<node lat="59.63811388944123" lon="7.98555555933691" id="-33807">
		<tag k="name" v="Valabekk" />
		<tag k="ssr:stedsnr" v="695562" />
		<tag k="waterway" v="stream" />
	</node>
	<node lat="59.693427780089245" lon="7.964000003480928" id="-33808">
		<tag k="name" v="Aslaksvik" />
		<tag k="natural" v="bay" />
		<tag k="ssr:stedsnr" v="695584" />
	</node>
	<node lat="59.687605554020614" lon="7.95642221536326" id="-33809">
		<tag k="name" v="Løkjebekken" />
		<tag k="ssr:stedsnr" v="695596" />
		<tag k="waterway" v="stream" />
	</node>
	<node lat="59.73479166594997" lon="7.978099999849812" id="-33811">
		<tag k="name" v="Sandbekk" />
		<tag k="ssr:stedsnr" v="695788" />
		<tag k="waterway" v="stream" />
	</node>
	<node lat="59.71788055481049" lon="7.906666670037614" id="-33814">
		<tag k="name" v="Tutebekk" />
		<tag k="ssr:stedsnr" v="695838" />
		<tag k="waterway" v="stream" />
	</node>
	<node lat="59.58340833554871" lon="8.12499166143283" id="-33816">
		<tag k="name" v="Vaddetjuvtjønn" />
		<tag k="natural" v="water" />
		<tag k="ssr:stedsnr" v="695943" />
	</node>
	<node lat="59.57778055748321" lon="8.169102779921047" id="-33825">
		<tag k="name" v="Kyrkjebekken" />
		<tag k="ssr:stedsnr" v="698035" />
		<tag k="waterway" v="stream" />
	</node>
	<node lat="59.75175277850375" lon="7.51132499848107" id="-33827">
		<tag k="name" v="Toretjønnane" />
		<tag k="natural" v="water" />
		<tag k="ssr:stedsnr" v="602309" />
	</node>
	<node lat="59.748622223119504" lon="7.51873611915801" id="-33829">
		<tag k="name" v="Varatjønn" />
		<tag k="natural" v="water" />
		<tag k="ssr:stedsnr" v="602311" />
	</node>
	<node lat="59.70795277468817" lon="7.90614166046087" id="-33830">
		<tag k="name" v="Lomvikodden" />
		<tag k="natural" v="cape" />
		<tag k="ssr:stedsnr" v="699188" />
	</node>
	<node lat="59.71240000122281" lon="7.879300000334145" id="-33832">
		<tag k="name" v="Skoftnes" />
		<tag k="natural" v="cape" />
		<tag k="ssr:stedsnr" v="699224" />
	</node>
	<node lat="59.75313611074779" lon="7.42210833592573" id="-33833">
		<tag k="name" v="Puklehyl" />
		<tag k="place" v="locality" />
		<tag k="ssr:stedsnr" v="602951" />
	</node>
	<node lat="59.727500001670315" lon="7.468355551437993" id="-33834">
		<tag k="name" v="Brentnes" />
		<tag k="natural" v="cape" />
		<tag k="ssr:stedsnr" v="602957" />
	</node>
	<node lat="59.79317499820257" lon="7.912105561782029" id="-33838">
		<tag k="name" v="Deildebekken" />
		<tag k="ssr:stedsnr" v="699420" />
		<tag k="waterway" v="stream" />
	</node>
	<node lat="59.63099166918052" lon="8.217283329419294" id="-33841">
		<tag k="name" v="Løyningbekken" />
		<tag k="ssr:stedsnr" v="699482" />
		<tag k="waterway" v="stream" />
	</node>
	<node lat="59.67254855476966" lon="8.16987113446294" id="-33849">
		<tag k="name" v="Bjårnesodden" />
		<tag k="natural" v="cape" />
		<tag k="ssr:stedsnr" v="699788" />
	</node>
	<node lat="59.88398610942879" lon="8.096505559524582" id="-33858">
		<tag k="name" v="Grånbekk" />
		<tag k="ssr:stedsnr" v="699862" />
		<tag k="waterway" v="stream" />
	</node>
	<node lat="59.712191665647985" lon="7.961141674212615" id="-33860">
		<tag k="name" v="Fjosneset" />
		<tag k="natural" v="cape" />
		<tag k="ssr:stedsnr" v="699935" />
	</node>
	<node lat="59.70979722237313" lon="7.935658338073192" id="-33861">
		<tag k="name" v="Digernes" />
		<tag k="natural" v="cape" />
		<tag k="ssr:stedsnr" v="699936" />
	</node>
	<node lat="59.6682111118567" lon="8.041213890553848" id="-33862">
		<tag k="name" v="Vombeskjer" />
		<tag k="place" v="islet" />
		<tag k="ssr:stedsnr" v="700002" />
	</node>
	<node lat="59.73618055453495" lon="8.254191666423377" id="-33870">
		<tag k="alt_name" v="Veisvikvatnet" />
		<tag k="name" v="Veisfitvatn" />
		<tag k="natural" v="water" />
		<tag k="ssr:stedsnr" v="609213" />
		<tag k="water" v="lake" />
	</node>
	<node lat="59.581730554743444" lon="8.115141665057562" id="-33880">
		<tag k="name" v="Mjåvassåi" />
		<tag k="ssr:stedsnr" v="609444" />
		<tag k="waterway" v="stream" />
	</node>
	<node lat="59.680808332886414" lon="7.308100000864363" id="-33881">
		<tag k="name" v="Skurevasstjønni" />
		<tag k="natural" v="water" />
		<tag k="ssr:stedsnr" v="609465" />
	</node>
	<node lat="59.7082689900442" lon="7.409350169898492" id="-33883">
		<tag k="alt_name" v="Fisketjørni" />
		<tag k="name" v="Fisketjønni" />
		<tag k="natural" v="water" />
		<tag k="ssr:stedsnr" v="609550" />
	</node>
	<node lat="59.72296944054587" lon="7.648680559845756" id="-33884">
		<tag k="name" v="Kyrsveltbekken" />
		<tag k="ssr:stedsnr" v="609553" />
		<tag k="waterway" v="stream" />
	</node>
	<node lat="59.58184468694206" lon="7.857796975544722" id="-33885">
		<tag k="alt_name" v="Fagerdalstjørn" />
		<tag k="name" v="Fagerdaltjønni" />
		<tag k="natural" v="water" />
		<tag k="ssr:stedsnr" v="609909" />
	</node>
	<node lat="59.585999998395316" lon="8.001991662886097" id="-33887">
		<tag k="name" v="Hyllandshylen" />
		<tag k="natural" v="water" />
		<tag k="ssr:stedsnr" v="609913" />
	</node>
	<node lat="59.73876388830038" lon="8.066869449179636" id="-33895">
		<tag k="name" v="Kvennmobekken" />
		<tag k="ssr:stedsnr" v="700446" />
		<tag k="waterway" v="stream" />
	</node>
	<node lat="59.777291669156426" lon="8.236972224927168" id="-33896">
		<tag k="name" v="Arabekken" />
		<tag k="ssr:stedsnr" v="610101" />
		<tag k="waterway" v="stream" />
	</node>
	<node lat="59.83314999795688" lon="8.132452773649957" id="-33898">
		<tag k="alt_name" v="Varddalstjørni" />
		<tag k="name" v="Varddalstjønn" />
		<tag k="natural" v="water" />
		<tag k="ssr:stedsnr" v="610404" />
	</node>
	<node lat="59.79532500107651" lon="8.167300005334273" id="-33901">
		<tag k="name" v="Homvatn" />
		<tag k="natural" v="water" />
		<tag k="ssr:stedsnr" v="610476" />
		<tag k="water" v="lake" />
	</node>
	<node lat="59.72272499964786" lon="7.546405562651338" id="-33903">
		<tag k="alt_name" v="Vadtjørn, nedre" />
		<tag k="name" v="Vatjønni" />
		<tag k="natural" v="water" />
		<tag k="ssr:stedsnr" v="610612" />
	</node>
	<node lat="59.98982222185152" lon="7.7907305466121874" id="-33907">
		<tag k="name" v="Meinsvassbekken" />
		<tag k="ssr:stedsnr" v="610626" />
		<tag k="waterway" v="stream" />
	</node>
	<node lat="59.67390000361617" lon="7.374927776013251" id="-33908">
		<tag k="name" v="Nipavatnet" />
		<tag k="natural" v="water" />
		<tag k="ssr:stedsnr" v="610629" />
		<tag k="water" v="lake" />
	</node>
	<node lat="59.76801388630238" lon="7.66918889164497" id="-33909">
		<tag k="name" v="Storenuttjønnane" />
		<tag k="natural" v="water" />
		<tag k="ssr:stedsnr" v="610633" />
	</node>
	<node lat="59.56417500094697" lon="8.165933336308465" id="-33911">
		<tag k="name" v="Buvassåi" />
		<tag k="ssr:stedsnr" v="610503" />
		<tag k="waterway" v="stream" />
	</node>
	<node lat="59.562336109393065" lon="8.146813887672087" id="-33912">
		<tag k="alt_name" v="Langetjørn" />
		<tag k="name" v="Langetjønn" />
		<tag k="natural" v="water" />
		<tag k="ssr:stedsnr" v="610504" />
	</node>
	<node lat="59.796163885234904" lon="7.577374999651122" id="-33913">
		<tag k="name" v="Lomstjønn" />
		<tag k="natural" v="water" />
		<tag k="ssr:stedsnr" v="610584" />
	</node>
	<node lat="59.6475916629234" lon="7.67426388550728" id="-33915">
		<tag k="alt_name" v="Berbutjørni" />
		<tag k="name" v="Berbutjønni" />
		<tag k="natural" v="water" />
		<tag k="ssr:stedsnr" v="610591" />
	</node>
	<node lat="59.94483889291124" lon="7.850655554659247" id="-33916">
		<tag k="alt_name" v="Vasstjørni, s" />
		<tag k="name" v="Søndre Vasstjønni" />
		<tag k="natural" v="water" />
		<tag k="ssr:stedsnr" v="610599" />
	</node>
	<node lat="59.95473889032829" lon="8.09071110618504" id="-33917">
		<tag k="alt_name" v="Tullstaultjørni, nedre" />
		<tag k="name" v="Nedre Tullstøyltjønni" />
		<tag k="natural" v="water" />
		<tag k="ssr:stedsnr" v="610707" />
	</node>
	<node lat="59.804427779528886" lon="7.734924992312405" id="-33919">
		<tag k="name" v="Sverven" />
		<tag k="natural" v="water" />
		<tag k="ssr:stedsnr" v="610721" />
	</node>
	<node lat="59.828724835906" lon="7.1600177301255785" id="-33920">
		<tag k="name" v="Ståvatn" />
		<tag k="natural" v="water" />
		<tag k="ssr:stedsnr" v="610829" />
		<tag k="water" v="lake" />
	</node>
	<node lat="59.85256944047722" lon="7.237025006650731" id="-33923">
		<tag k="name" v="Veslenuptjønni" />
		<tag k="natural" v="water" />
		<tag k="ssr:stedsnr" v="610840" />
	</node>
	<node lat="59.93149999959177" lon="7.49916666940442" id="-33929">
		<tag k="name" v="Midtre Berutjønn" />
		<tag k="natural" v="water" />
		<tag k="ssr:stedsnr" v="610915" />
	</node>
	<node lat="59.75291944444561" lon="8.151141663703568" id="-33939">
		<tag k="name" v="Fossetjønn" />
		<tag k="natural" v="water" />
		<tag k="ssr:stedsnr" v="700990" />
	</node>
	<node lat="59.659844443923205" lon="7.915672221851663" id="-33945">
		<tag k="alt_name" v="Grøhovdtjønni" />
		<tag k="name" v="Grøhøvdtjønni" />
		<tag k="natural" v="water" />
		<tag k="ssr:stedsnr" v="634335" />
	</node>
	<node lat="59.68400555565675" lon="7.963694440942048" id="-33948">
		<tag k="name" v="Flotutjønn" />
		<tag k="natural" v="water" />
		<tag k="ssr:stedsnr" v="634613" />
	</node>
	<node lat="59.562041668451705" lon="7.934805548996322" id="-33949">
		<tag k="name" v="Bjortjønn" />
		<tag k="natural" v="water" />
		<tag k="ssr:stedsnr" v="634626" />
	</node>
	<node lat="59.633447220038846" lon="8.06975000708309" id="-33954">
		<tag k="alt_name" v="Reinstjørn" />
		<tag k="name" v="Store Reinstjønn" />
		<tag k="natural" v="water" />
		<tag k="ssr:stedsnr" v="634980" />
		<tag k="water" v="lake" />
	</node>
	<node lat="59.6896055540691" lon="7.879788880638845" id="-33959">
		<tag k="name" v="Husdalbekken" />
		<tag k="ssr:stedsnr" v="635688" />
		<tag k="waterway" v="stream" />
	</node>
	<node lat="59.588947226300704" lon="8.23907499731781" id="-33964">
		<tag k="name" v="Tusseøyi" />
		<tag k="place" v="islet" />
		<tag k="ssr:stedsnr" v="637130" />
	</node>
	<node lat="59.719141664845836" lon="7.973722220160302" id="-33974">
		<tag k="name" v="Fivlandsbekken" />
		<tag k="ssr:stedsnr" v="638926" />
		<tag k="waterway" v="stream" />
	</node>
	<node lat="59.75568888984913" lon="8.169572229264604" id="-33979">
		<tag k="name" v="Kovatjønnbekken" />
		<tag k="ssr:stedsnr" v="639823" />
		<tag k="waterway" v="stream" />
	</node>
	<node lat="59.68421111027319" lon="7.526052777555582" id="-33992">
		<tag k="name" v="Herbrandtjønnbekken" />
		<tag k="ssr:stedsnr" v="657919" />
		<tag k="waterway" v="stream" />
	</node>
	<node lat="59.766236111045465" lon="7.398094446287846" id="-33994">
		<tag k="name" v="Kjakanes" />
		<tag k="natural" v="cape" />
		<tag k="ssr:stedsnr" v="665841" />
	</node>
	<node lat="59.78433055850089" lon="7.283983328034528" id="-33995">
		<tag k="name" v="Finnebubekken" />
		<tag k="ssr:stedsnr" v="665893" />
		<tag k="waterway" v="stream" />
	</node>
	<node lat="59.545538885915775" lon="7.895313889578958" id="-34000">
		<tag k="alt_name" v="Nystøltjørnane;Nystøyltjørnane" />
		<tag k="name" v="Nystøyltjønnane" />
		<tag k="natural" v="water" />
		<tag k="ssr:stedsnr" v="670085" />
	</node>
	<node lat="59.71372221986084" lon="8.137099992518086" id="-34002">
		<tag k="name" v="Holtarbekken" />
		<tag k="ssr:stedsnr" v="670214" />
		<tag k="waterway" v="stream" />
	</node>
	<node lat="59.68381388735981" lon="8.098802784904601" id="-34007">
		<tag k="name" v="Laupet" />
		<tag k="natural" v="strait" />
		<tag k="ssr:stedsnr" v="670181" />
	</node>
	<node lat="59.71691666249548" lon="7.327950008429833" id="-34009">
		<tag k="name" v="Kartehylen" />
		<tag k="natural" v="water" />
		<tag k="ssr:stedsnr" v="670373" />
	</node>
	<node lat="59.68054444855653" lon="7.637144448630032" id="-34012">
		<tag k="alt_name" v="Vrongavatn, nedre" />
		<tag k="name" v="Nedre Vrångevatn" />
		<tag k="natural" v="water" />
		<tag k="ssr:stedsnr" v="670480" />
	</node>
	<node lat="59.62976389127811" lon="7.988527777401829" id="-34024">
		<tag k="alt_name" v="Øygardstjørn, l" />
		<tag k="name" v="Drambreitjønn" />
		<tag k="natural" v="water" />
		<tag k="ssr:stedsnr" v="670985" />
	</node>
	<node lat="59.61536111403255" lon="8.052380555759798" id="-34026">
		<tag k="alt_name" v="Skåletjørnane" />
		<tag k="name" v="Skåletjønnane" />
		<tag k="natural" v="water" />
		<tag k="ssr:stedsnr" v="670992" />
	</node>
	<node lat="59.79448333019563" lon="8.231194452619162" id="-34028">
		<tag k="alt_name" v="Flokketjørnbekken" />
		<tag k="name" v="Floketjønnbekken" />
		<tag k="ssr:stedsnr" v="671420" />
		<tag k="waterway" v="stream" />
	</node>
	<node lat="59.93617222633479" lon="8.151225003089062" id="-34030">
		<tag k="alt_name" v="Bukketjørn" />
		<tag k="name" v="Bukketjønn" />
		<tag k="natural" v="water" />
		<tag k="ssr:stedsnr" v="671305" />
	</node>
	<node lat="59.656000004397846" lon="7.660074998687921" id="-34036">
		<tag k="alt_name" v="Brutjørnane" />
		<tag k="name" v="Brutjønnane" />
		<tag k="natural" v="water" />
		<tag k="ssr:stedsnr" v="671515" />
	</node>
	<node lat="59.81117500150594" lon="7.680058335894278" id="-34042">
		<tag k="name" v="Vondetjønn" />
		<tag k="natural" v="water" />
		<tag k="ssr:stedsnr" v="671547" />
	</node>
	<node lat="59.80749166656928" lon="7.571705553281489" id="-34043">
		<tag k="name" v="Songeøyi" />
		<tag k="place" v="island" />
		<tag k="ssr:stedsnr" v="671551" />
	</node>
	<node lat="60.071613888250816" lon="7.835663897201956" id="-34045">
		<tag k="name" v="Gjuvsjåen" />
		<tag k="natural" v="water" />
		<tag k="ssr:stedsnr" v="671607" />
		<tag k="water" v="lake" />
	</node>
	<node lat="59.93123055329181" lon="8.019266660340573" id="-34050">
		<tag k="alt_name" v="Nekkjetjørnane" />
		<tag k="name" v="Nekkjetjønnane" />
		<tag k="natural" v="water" />
		<tag k="ssr:stedsnr" v="671675" />
	</node>
	<node lat="59.97492222342647" lon="7.947475007975746" id="-34053">
		<tag k="name" v="Tommåi" />
		<tag k="ssr:stedsnr" v="671687" />
		<tag k="waterway" v="river" />
	</node>
	<node lat="59.84928056001397" lon="8.063552770543337" id="-34056">
		<tag k="name" v="Hovdesundet" />
		<tag k="natural" v="strait" />
		<tag k="ssr:stedsnr" v="671713" />
	</node>
	<node lat="59.77691111473816" lon="7.123074991963497" id="-34061">
		<tag k="alt_name" v="Lisledalstjørn" />
		<tag k="name" v="Lisledalstjønn" />
		<tag k="natural" v="water" />
		<tag k="ssr:stedsnr" v="671917" />
	</node>
	<node lat="59.83348333626777" lon="7.465630554963992" id="-34065">
		<tag k="name" v="Sandvatn" />
		<tag k="natural" v="water" />
		<tag k="ssr:stedsnr" v="671935" />
	</node>
	<node lat="59.83787499798756" lon="7.501652771797917" id="-34066">
		<tag k="name" v="Sandvasstjønnane" />
		<tag k="natural" v="water" />
		<tag k="ssr:stedsnr" v="671946" />
	</node>
	<node lat="59.81914166979546" lon="7.380255557733506" id="-34067">
		<tag k="name" v="Storegutvollbekken" />
		<tag k="ssr:stedsnr" v="671950" />
		<tag k="waterway" v="stream" />
	</node>
	<node lat="59.80561944135115" lon="7.369111105829836" id="-34068">
		<tag k="name" v="Smørviki" />
		<tag k="natural" v="bay" />
		<tag k="ssr:stedsnr" v="671965" />
	</node>
	<node lat="59.64582500314596" lon="7.969955548726002" id="-34076">
		<tag k="alt_name" v="Bjølleteigtjørnane" />
		<tag k="name" v="Bjølleteigtjønnane" />
		<tag k="natural" v="water" />
		<tag k="ssr:stedsnr" v="695173" />
	</node>
	<node lat="59.55598889035659" lon="7.925466660411517" id="-34078">
		<tag k="name" v="Vakose" />
		<tag k="place" v="locality" />
		<tag k="ssr:stedsnr" v="695404" />
	</node>
	<node lat="59.55640000073982" lon="7.880827781551748" id="-34081">
		<tag k="name" v="Trosavikje" />
		<tag k="natural" v="bay" />
		<tag k="ssr:stedsnr" v="695424" />
	</node>
	<node lat="59.57547221795081" lon="7.937511109682929" id="-34090">
		<tag k="name" v="Kikhyl" />
		<tag k="natural" v="water" />
		<tag k="ssr:stedsnr" v="695681" />
		<tag k="water" v="lake" />
	</node>
	<node lat="59.719644440508176" lon="7.895877774631649" id="-34096">
		<tag k="name" v="Ækstjønn" />
		<tag k="natural" v="water" />
		<tag k="ssr:stedsnr" v="699264" />
		<tag k="water" v="pond" />
	</node>
	<node lat="59.683097338016076" lon="8.170187326399917" id="-34099">
		<tag k="name" v="Nystølbekken" />
		<tag k="ssr:stedsnr" v="699663" />
		<tag k="waterway" v="stream" />
	</node>
	<node lat="59.738005553033446" lon="8.26490555755123" id="-34104">
		<tag k="name" v="Libekken" />
		<tag k="ssr:stedsnr" v="700223" />
		<tag k="waterway" v="stream" />
	</node>
	<node lat="59.80576667097465" lon="7.483944449120856" id="-34109">
		<tag k="name" v="Videmotjønnane" />
		<tag k="natural" v="water" />
		<tag k="ssr:stedsnr" v="898381" />
	</node>
	<node lat="59.7074194459254" lon="7.672977780045267" id="-34114">
		<tag k="name" v="Jamrotjønnane" />
		<tag k="natural" v="water" />
		<tag k="ssr:stedsnr" v="717303" />
	</node>
	<node lat="59.70239999718684" lon="7.669427781860502" id="-34115">
		<tag k="name" v="Gurivassosen" />
		<tag k="natural" v="bay" />
		<tag k="ssr:stedsnr" v="899299" />
	</node>
	<node lat="59.728094442107796" lon="7.662102769267795" id="-34116">
		<tag k="name" v="Åsnes" />
		<tag k="natural" v="cape" />
		<tag k="ssr:stedsnr" v="899335" />
	</node>
	<node lat="59.69918055655621" lon="7.577813887900666" id="-34118">
		<tag k="name" v="Gjusvikneset" />
		<tag k="natural" v="cape" />
		<tag k="ssr:stedsnr" v="899389" />
	</node>
	<node lat="59.56395555516147" lon="8.17902777492904" id="-34119">
		<tag k="name" v="Storeå" />
		<tag k="ssr:stedsnr" v="899947" />
		<tag k="waterway" v="river" />
	</node>
	<node lat="59.560902779619234" lon="7.92232500271544" id="-34124">
		<tag k="name" v="Fossåi" />
		<tag k="ssr:stedsnr" v="731076" />
		<tag k="waterway" v="stream" />
	</node>
	<node lat="59.590380552042625" lon="8.203680549933392" id="-34125">
		<tag k="alt_name" v="Sosåstjørn" />
		<tag k="name" v="Sosåstjønn" />
		<tag k="natural" v="water" />
		<tag k="ssr:stedsnr" v="731221" />
	</node>
	<node lat="59.73598889169239" lon="7.580861115193314" id="-34127">
		<tag k="name" v="Kjela" />
		<tag k="ssr:stedsnr" v="731265" />
		<tag k="waterway" v="river" />
	</node>
	<node lat="59.6429972212409" lon="8.189155559018364" id="-34130">
		<tag k="alt_name" v="Rorgevatnet" />
		<tag k="name" v="Rorgevatn" />
		<tag k="natural" v="water" />
		<tag k="ssr:stedsnr" v="731268" />
		<tag k="water" v="lake" />
	</node>
	<node lat="59.81666110991698" lon="8.181527778380692" id="-34140">
		<tag k="alt_name" v="Kulingstjønn;Kulingstjørni" />
		<tag k="name" v="Kulingstjønni" />
		<tag k="natural" v="water" />
		<tag k="ssr:stedsnr" v="731390" />
		<tag k="water" v="lake" />
	</node>
	<node lat="59.76035277974045" lon="7.360455546628746" id="-34143">
		<tag k="name" v="Sundet" />
		<tag k="natural" v="strait" />
		<tag k="ssr:stedsnr" v="731468" />
	</node>
	<node lat="59.66335000151797" lon="7.5344250021701535" id="-34147">
		<tag k="alt_name" v="Stokketjørni" />
		<tag k="name" v="Stokketjønn" />
		<tag k="natural" v="water" />
		<tag k="ssr:stedsnr" v="731491" />
	</node>
	<node lat="59.707086112542726" lon="7.68815832779926" id="-34152">
		<tag k="name" v="Kolddalsbekken" />
		<tag k="ssr:stedsnr" v="731568" />
		<tag k="waterway" v="stream" />
	</node>
	<node lat="59.697877779853094" lon="7.658469442494027" id="-34153">
		<tag k="name" v="Gurivatn" />
		<tag k="natural" v="water" />
		<tag k="ssr:stedsnr" v="731571" />
		<tag k="water" v="lake" />
	</node>
	<node lat="59.695766666472615" lon="7.693041659374377" id="-34154">
		<tag k="alt_name" v="Rodalstjørni" />
		<tag k="name" v="Rodalstjønn" />
		<tag k="natural" v="water" />
		<tag k="ssr:stedsnr" v="731572" />
	</node>
	<node lat="59.65988333329509" lon="7.95931667190081" id="-34155">
		<tag k="alt_name" v="Gåsvasstjørn;Gåsvatn" />
		<tag k="name" v="Gåsvasstjønn" />
		<tag k="natural" v="water" />
		<tag k="ssr:stedsnr" v="731756" />
	</node>
	<node lat="59.581769446841136" lon="7.894883330058478" id="-34159">
		<tag k="alt_name" v="Engeskrøyvbekken" />
		<tag k="name" v="Engesgrovbekken" />
		<tag k="ssr:stedsnr" v="731902" />
		<tag k="waterway" v="stream" />
	</node>
	<node lat="59.63854722135762" lon="8.08069167407525" id="-34161">
		<tag k="alt_name" v="Svartetjørn" />
		<tag k="name" v="Svartetjønn" />
		<tag k="natural" v="water" />
		<tag k="ssr:stedsnr" v="731967" />
	</node>
	<node lat="59.96018055374711" lon="8.09658055761812" id="-34167">
		<tag k="alt_name" v="Tullstaultjørnan" />
		<tag k="loc_name" v="Tullestaultjønnane" />
		<tag k="name" v="Tullstøyltjønnane" />
		<tag k="natural" v="water" />
		<tag k="ssr:stedsnr" v="732301" />
	</node>
	<node lat="59.82477221856558" lon="8.305941671843557" id="-34170">
		<tag k="alt_name" v="Hardingviki" />
		<tag k="name" v="Hardingbukte" />
		<tag k="natural" v="bay" />
		<tag k="ssr:stedsnr" v="732410" />
	</node>
	<node lat="59.82516110673284" lon="8.167652773580452" id="-34171">
		<tag k="name" v="Varddalsbekken" />
		<tag k="ssr:stedsnr" v="732416" />
		<tag k="waterway" v="stream" />
	</node>
	<node lat="59.78766388891886" lon="8.095350006399281" id="-34172">
		<tag k="alt_name" v="Slåttebekken" />
		<tag k="name" v="Slåttebekk" />
		<tag k="ssr:stedsnr" v="732448" />
		<tag k="waterway" v="stream" />
	</node>
	<node lat="59.77665000372358" lon="7.568891672862434" id="-34180">
		<tag k="name" v="Ormetjønn" />
		<tag k="natural" v="water" />
		<tag k="ssr:stedsnr" v="732547" />
	</node>
	<node lat="59.96857499645925" lon="8.065683326599087" id="-34184">
		<tag k="name" v="Øvre Bjønnurtjønni" />
		<tag k="natural" v="water" />
		<tag k="ssr:stedsnr" v="732700" />
	</node>
	<node lat="59.84556388510754" lon="7.28954999699973" id="-34186">
		<tag k="name" v="Svartevadet" />
		<tag k="place" v="locality" />
		<tag k="ssr:stedsnr" v="732826" />
	</node>
	<node lat="59.84091388520823" lon="7.2214305476424725" id="-34187">
		<tag k="name" v="Loftsdokktjønn" />
		<tag k="natural" v="water" />
		<tag k="ssr:stedsnr" v="732828" />
	</node>
	<node lat="59.781736113443706" lon="7.298924996331622" id="-34192">
		<tag k="name" v="Løyningvatn" />
		<tag k="natural" v="water" />
		<tag k="ssr:stedsnr" v="732914" />
	</node>
	<node lat="59.9167611085895" lon="7.212277772732005" id="-34194">
		<tag k="name" v="Sandflofossen" />
		<tag k="natural" v="waterfall" />
		<tag k="ssr:stedsnr" v="732849" />
	</node>
	<node lat="59.614141665276655" lon="8.048288891197684" id="-34201">
		<tag k="alt_name" v="Varmekrotjørni" />
		<tag k="name" v="Varmekrotjønni" />
		<tag k="natural" v="water" />
		<tag k="ssr:stedsnr" v="756151" />
	</node>
	<node lat="59.78501388936145" lon="7.232105549303544" id="-34202">
		<tag k="name" v="Bøkreviki" />
		<tag k="natural" v="bay" />
		<tag k="ssr:stedsnr" v="906221" />
	</node>
	<node lat="59.709583336767594" lon="7.762922223051144" id="-34203">
		<tag k="name" v="Rusviki" />
		<tag k="natural" v="bay" />
		<tag k="ssr:stedsnr" v="756003" />
	</node>
	<node lat="59.66530833003663" lon="7.888247217548549" id="-34209">
		<tag k="name" v="Budalsvikje" />
		<tag k="natural" v="bay" />
		<tag k="ssr:stedsnr" v="756309" />
	</node>
	<node lat="59.59250277371264" lon="7.883466669515061" id="-34215">
		<tag k="name" v="Revasanden" />
		<tag k="natural" v="bay" />
		<tag k="ssr:stedsnr" v="756406" />
	</node>
	<node lat="59.653637202131755" lon="8.168942891513339" id="-34228">
		<tag k="name" v="Nordstaulbekken" />
		<tag k="ssr:stedsnr" v="759412" />
		<tag k="waterway" v="stream" />
	</node>
	<node lat="59.7367583351064" lon="7.919130550834277" id="-34229">
		<tag k="name" v="Midtbekken" />
		<tag k="ssr:stedsnr" v="759446" />
		<tag k="waterway" v="stream" />
	</node>
	<node lat="59.7728388912076" lon="7.446458338606675" id="-34235">
		<tag k="name" v="Madvasstjønn" />
		<tag k="natural" v="water" />
		<tag k="ssr:stedsnr" v="906078" />
	</node>
	<node lat="59.81083888790794" lon="8.103952773799815" id="-34239">
		<tag k="name" v="Damtjønn" />
		<tag k="natural" v="water" />
		<tag k="ssr:stedsnr" v="760706" />
	</node>
	<node lat="59.87692221827461" lon="8.12233054694676" id="-34243">
		<tag k="name" v="Vågenkilen" />
		<tag k="natural" v="bay" />
		<tag k="ssr:stedsnr" v="760847" />
	</node>
	<node lat="59.77428055663058" lon="7.323677784246966" id="-34246">
		<tag k="name" v="Bukkeneset" />
		<tag k="natural" v="cape" />
		<tag k="ssr:stedsnr" v="906378" />
	</node>
	<node lat="59.79245555784106" lon="7.329011115764748" id="-34250">
		<tag k="loc_name" v="Langetjønn" />
		<tag k="name" v="Langetjønni" />
		<tag k="natural" v="water" />
		<tag k="ssr:stedsnr" v="906494" />
	</node>
	<node lat="59.760336108478434" lon="7.34472499673212" id="-34252">
		<tag k="name" v="Storrlitjønni" />
		<tag k="natural" v="water" />
		<tag k="ssr:stedsnr" v="906977" />
	</node>
	<node lat="59.56843888470846" lon="8.181422225437105" id="-34257">
		<tag k="name" v="Vikåi" />
		<tag k="ssr:stedsnr" v="777972" />
		<tag k="waterway" v="river" />
	</node>
	<node lat="59.79203055762801" lon="8.282533331466864" id="-34283">
		<tag k="alt_name" v="Sveivetjørnbekken" />
		<tag k="name" v="Sveivetjønnbekken" />
		<tag k="ssr:stedsnr" v="792412" />
		<tag k="waterway" v="stream" />
	</node>
	<node lat="59.630069448670426" lon="8.198397227907988" id="-34290">
		<tag k="alt_name" v="Skåletjørn" />
		<tag k="name" v="Skåletjønn" />
		<tag k="natural" v="water" />
		<tag k="ssr:stedsnr" v="792335" />
	</node>
	<node lat="59.73421666692441" lon="7.4330916737707895" id="-34291">
		<tag k="name" v="Førsvassåi" />
		<tag k="ssr:stedsnr" v="792338" />
		<tag k="waterway" v="river" />
	</node>
	<node lat="59.69316667018813" lon="7.149019452778036" id="-34299">
		<tag k="alt_name" v="Holmavassdammen" />
		<tag k="name" v="Holmavatnet" />
		<tag k="natural" v="water" />
		<tag k="ssr:stedsnr" v="792484" />
		<tag k="water" v="lake" />
	</node>
	<node lat="59.925841669677" lon="8.018258333750332" id="-34302">
		<tag k="name" v="Reinaråi" />
		<tag k="ssr:stedsnr" v="792627" />
		<tag k="waterway" v="river" />
	</node>
	<node lat="59.72192777675169" lon="8.079383341228885" id="-34303">
		<tag k="alt_name" v="Deildebekk" />
		<tag k="name" v="Deildebekken" />
		<tag k="ssr:stedsnr" v="792636" />
		<tag k="waterway" v="stream" />
	</node>
	<node lat="59.61272500342157" lon="7.6997777714741105" id="-34305">
		<tag k="alt_name" v="Supsavatn, heimste" />
		<tag k="name" v="Heimste Supsavatn" />
		<tag k="natural" v="water" />
		<tag k="ssr:stedsnr" v="792696" />
	</node>
	<node lat="59.69698610705907" lon="7.453294439855521" id="-34310">
		<tag k="alt_name" v="Egiltjørni" />
		<tag k="name" v="Egiltjønni" />
		<tag k="natural" v="water" />
		<tag k="ssr:stedsnr" v="792588" />
	</node>
	<node lat="59.697180557973965" lon="7.4791555555752804" id="-34311">
		<tag k="alt_name" v="Sæsvasstjørni, øvre;Sæsvassdalstjønn øvre" />
		<tag k="name" v="Øvre Sæsvassdalstjønn" />
		<tag k="natural" v="water" />
		<tag k="ssr:stedsnr" v="792590" />
	</node>
	<node lat="59.56526944321448" lon="8.18869999636602" id="-34320">
		<tag k="name" v="Vikåi" />
		<tag k="ssr:stedsnr" v="793104" />
		<tag k="waterway" v="river" />
	</node>
	<node lat="60.06415000253046" lon="7.588094453120953" id="-34323">
		<tag k="name" v="Kringlesjåbekken" />
		<tag k="ssr:stedsnr" v="793675" />
		<tag k="waterway" v="stream" />
	</node>
	<node lat="59.95422825217464" lon="8.06752301595259" id="-34327">
		<tag k="alt_name" v="Løyningtjørni" />
		<tag k="name" v="Løyningtjønni" />
		<tag k="natural" v="water" />
		<tag k="ssr:stedsnr" v="793703" />
	</node>
	<node lat="59.827411111346905" lon="8.077122215254146" id="-34329">
		<tag k="alt_name" v="Vetltjørnane" />
		<tag k="name" v="Vetlestjønnane" />
		<tag k="natural" v="strait" />
		<tag k="ssr:stedsnr" v="793713" />
	</node>
	<node lat="59.568630557150705" lon="8.145024998056357" id="-34346">
		<tag k="alt_name" v="Bjortjørn" />
		<tag k="name" v="Bjortjønn" />
		<tag k="natural" v="water" />
		<tag k="ssr:stedsnr" v="913438" />
	</node>
	<node lat="59.56339444609517" lon="8.156325003712887" id="-34347">
		<tag k="alt_name" v="Hermodstjørn" />
		<tag k="name" v="Hermodstjønn" />
		<tag k="natural" v="water" />
		<tag k="ssr:stedsnr" v="913440" />
	</node>
	<node lat="59.670941666357216" lon="7.267152784938126" id="-34348">
		<tag k="name" v="Einarshuttbekken" />
		<tag k="ssr:stedsnr" v="913447" />
		<tag k="waterway" v="stream" />
	</node>
	<node lat="59.69713611405908" lon="7.324033324560781" id="-34350">
		<tag k="name" v="Flottenuttjønnane" />
		<tag k="natural" v="water" />
		<tag k="ssr:stedsnr" v="913464" />
	</node>
	<node lat="59.6849055514638" lon="7.895719451857381" id="-34358">
		<tag k="alt_name" v="Langetjørn" />
		<tag k="name" v="Langetjønn" />
		<tag k="natural" v="water" />
		<tag k="ssr:stedsnr" v="913844" />
	</node>
	<node lat="59.691316336719076" lon="7.839099539765893" id="-34359">
		<tag k="alt_name" v="Hometjønn" />
		<tag k="name" v="Homevatn" />
		<tag k="natural" v="water" />
		<tag k="ssr:stedsnr" v="913850" />
	</node>
	<node lat="59.6134888921559" lon="7.867136105553312" id="-34363">
		<tag k="alt_name" v="Otjørn" />
		<tag k="name" v="Otjønn" />
		<tag k="natural" v="water" />
		<tag k="ssr:stedsnr" v="914000" />
	</node>
	<node lat="59.777555554485126" lon="8.130336110422707" id="-34365">
		<tag k="name" v="Nesbukti" />
		<tag k="natural" v="bay" />
		<tag k="ssr:stedsnr" v="914096" />
	</node>
	<node lat="59.70180278033578" lon="7.532616672946523" id="-34366">
		<tag k="alt_name" v="Langetjørn" />
		<tag k="name" v="Langetjønn" />
		<tag k="natural" v="water" />
		<tag k="ssr:stedsnr" v="914117" />
	</node>
	<node lat="59.568258335034734" lon="8.097530558775146" id="-34367">
		<tag k="alt_name" v="Homvatn" />
		<tag k="name" v="Homvatnet" />
		<tag k="natural" v="water" />
		<tag k="ssr:stedsnr" v="914124" />
		<tag k="water" v="lake" />
	</node>
	<node lat="59.753550004208" lon="7.739374992320995" id="-34369">
		<tag k="name" v="Gravdøla" />
		<tag k="ssr:stedsnr" v="914269" />
		<tag k="waterway" v="river" />
	</node>
	<node lat="59.76179444368988" lon="7.377941674371202" id="-34381">
		<tag k="name" v="Åmliviki" />
		<tag k="natural" v="bay" />
		<tag k="ssr:stedsnr" v="914523" />
	</node>
	<node lat="59.67074444380165" lon="7.694780551178934" id="-34382">
		<tag k="name" v="Kise" />
		<tag k="ssr:stedsnr" v="914522" />
		<tag k="waterway" v="stream" />
	</node>
	<node lat="59.65767500297435" lon="7.457658339257408" id="-34390">
		<tag k="name" v="Sæsvatn" />
		<tag k="natural" v="water" />
		<tag k="ssr:stedsnr" v="914526" />
		<tag k="water" v="lake" />
	</node>
	<node lat="59.776974996276635" lon="7.452477783455445" id="-34393">
		<tag k="name" v="Grønetjønn" />
		<tag k="natural" v="water" />
		<tag k="ssr:stedsnr" v="914536" />
	</node>
	<node lat="59.77900000061746" lon="7.346305552343325" id="-34394">
		<tag k="name" v="Tvitjønnbekken" />
		<tag k="ssr:stedsnr" v="914548" />
		<tag k="waterway" v="stream" />
	</node>
	<node lat="59.797918173800994" lon="7.561390100378012" id="-34395">
		<tag k="name" v="Flottjønn" />
		<tag k="natural" v="water" />
		<tag k="ssr:stedsnr" v="914553" />
	</node>
	<node lat="59.79098135566336" lon="7.526205910192627" id="-34396">
		<tag k="fixme" v="multiple name tags, choose one and add the other to alt_name" />
		<tag k="name" v="Kvernhustjønnane;Langetjønn" />
		<tag k="natural" v="water" />
		<tag k="ssr:stedsnr" v="914557" />
	</node>
	<node lat="59.790801567029426" lon="7.453900976185506" id="-34397">
		<tag k="name" v="Dalakvamvatnet" />
		<tag k="natural" v="water" />
		<tag k="ssr:stedsnr" v="914559" />
	</node>
	<node lat="59.897380557105514" lon="8.06593054756745" id="-34404">
		<tag k="loc_name" v="Galarbekken" />
		<tag k="name" v="Gardarbekken" />
		<tag k="ssr:stedsnr" v="914648" />
		<tag k="waterway" v="stream" />
	</node>
	<node lat="59.852527780485225" lon="8.024472214654999" id="-34407">
		<tag k="name" v="Vaddebukti" />
		<tag k="natural" v="bay" />
		<tag k="ssr:stedsnr" v="914721" />
	</node>
	<node lat="59.86882394272912" lon="7.892823927666774" id="-34411">
		<tag k="name" v="Nekkjetjønnan" />
		<tag k="natural" v="water" />
		<tag k="ssr:stedsnr" v="914740" />
	</node>
	<node lat="59.87983611461489" lon="8.021813880218211" id="-34412">
		<tag k="name" v="Hamrefjorden" />
		<tag k="natural" v="water" />
		<tag k="ssr:stedsnr" v="914749" />
		<tag k="water" v="lake" />
	</node>
	<node lat="59.87783055917099" lon="8.073766669605888" id="-34413">
		<tag k="alt_name" v="Svarttjørnane" />
		<tag k="name" v="Svarttjønnane" />
		<tag k="natural" v="water" />
		<tag k="ssr:stedsnr" v="914752" />
	</node>
	<node lat="59.928774996682634" lon="7.397624994782665" id="-34418">
		<tag k="name" v="Songemotjønni" />
		<tag k="natural" v="water" />
		<tag k="ssr:stedsnr" v="914891" />
	</node>
	<node lat="59.8515000019949" lon="7.508377780836487" id="-34421">
		<tag k="alt_name" v="Songevatnet;Songavatn" />
		<tag k="name" v="Songavatnet" />
		<tag k="natural" v="water" />
		<tag k="ssr:stedsnr" v="914997" />
		<tag k="water" v="lake" />
	</node>
	<node lat="59.699222180978055" lon="8.180448016591814" id="-34454">
		<tag k="name" v="Bratteskardtjønn" />
		<tag k="natural" v="water" />
		<tag k="ssr:stedsnr" v="820686" />
	</node>
	<node lat="59.674374996253725" lon="8.004838880843309" id="-34457">
		<tag k="name" v="Lauvhomen" />
		<tag k="place" v="islet" />
		<tag k="ssr:stedsnr" v="821004" />
	</node>
	<node lat="59.65778889135779" lon="8.00577221481502" id="-34458">
		<tag k="name" v="Vetlestjønni" />
		<tag k="natural" v="water" />
		<tag k="ssr:stedsnr" v="821020" />
	</node>
	<node lat="59.64921389088371" lon="8.030344452556127" id="-34459">
		<tag k="name" v="Vågsbekken" />
		<tag k="ssr:stedsnr" v="821021" />
		<tag k="waterway" v="stream" />
	</node>
	<node lat="59.738316670512916" lon="8.123311113811477" id="-34462">
		<tag k="name" v="Gunnarhusbekken" />
		<tag k="ssr:stedsnr" v="821108" />
		<tag k="waterway" v="stream" />
	</node>
	<node lat="59.81764444227014" lon="8.10450000533048" id="-34466">
		<tag k="name" v="Fisketjønn" />
		<tag k="natural" v="bay" />
		<tag k="ssr:stedsnr" v="821716" />
	</node>
	<node lat="59.717294448200455" lon="7.965874994454633" id="-34470">
		<tag k="name" v="Flatlandsbekken" />
		<tag k="ssr:stedsnr" v="821924" />
		<tag k="waterway" v="stream" />
	</node>
	<node lat="59.79257778212974" lon="7.4929388963476224" id="-34481">
		<tag k="name" v="Videmobekken" />
		<tag k="ssr:stedsnr" v="846612" />
		<tag k="waterway" v="stream" />
	</node>
	<node lat="59.740324999226935" lon="7.457688892035386" id="-34482">
		<tag k="name" v="Hyljelibekken" />
		<tag k="ssr:stedsnr" v="846909" />
		<tag k="waterway" v="stream" />
	</node>
	<node lat="59.51012968614984" lon="7.922204329998027" id="-34483">
		<tag k="alt_name" v="Kroktjørn" />
		<tag k="name" v="Kroktjønn" />
		<tag k="natural" v="water" />
		<tag k="ssr:stedsnr" v="852004" />
	</node>
	<node lat="59.50531666681426" lon="7.943180555853252" id="-34485">
		<tag k="alt_name" v="Torfesttjørn" />
		<tag k="name" v="Torfesttjønni" />
		<tag k="natural" v="water" />
		<tag k="ssr:stedsnr" v="852012" />
	</node>
	<node lat="59.795974689935235" lon="7.860747937734663" id="-34490">
		<tag k="name" v="Bitdalsvatn" />
		<tag k="natural" v="water" />
		<tag k="ssr:stedsnr" v="853304" />
		<tag k="water" v="lake" />
	</node>
	<node lat="59.787613251242675" lon="7.780245921558874" id="-34495">
		<tag k="alt_name" v="Grandetjørnane" />
		<tag k="name" v="Grandetjønnane" />
		<tag k="natural" v="water" />
		<tag k="ssr:stedsnr" v="853320" />
	</node>
	<node lat="59.74370833119106" lon="7.741955554581921" id="-34506">
		<tag k="alt_name" v="Stavtjørn" />
		<tag k="name" v="Stavtjønn" />
		<tag k="natural" v="water" />
		<tag k="ssr:stedsnr" v="853603" />
	</node>
	<node lat="59.707911110413846" lon="7.759224995638885" id="-34511">
		<tag k="name" v="Grungevatn" />
		<tag k="natural" v="water" />
		<tag k="ssr:stedsnr" v="853818" />
		<tag k="water" v="lake" />
	</node>
	<node lat="59.57904721863019" lon="7.906061107882557" id="-34516">
		<tag k="alt_name" v="Langetjørn" />
		<tag k="name" v="Langetjønn" />
		<tag k="natural" v="water" />
		<tag k="ssr:stedsnr" v="853918" />
	</node>
	<node lat="59.64310277884984" lon="7.947472223503963" id="-34518">
		<tag k="alt_name" v="Grunntjørn" />
		<tag k="name" v="Grunntjønn" />
		<tag k="natural" v="water" />
		<tag k="ssr:stedsnr" v="853950" />
	</node>
	<node lat="59.63098888875754" lon="7.904761106885341" id="-34520">
		<tag k="alt_name" v="Skinandbekken" />
		<tag k="name" v="Skjenanbekken" />
		<tag k="old_name" v="Skjenanbekk" />
		<tag k="ssr:stedsnr" v="853956" />
		<tag k="waterway" v="stream" />
	</node>
	<node lat="59.80795833115596" lon="7.40823610267627" id="-34521">
		<tag k="name" v="Lomtjønn" />
		<tag k="natural" v="water" />
		<tag k="ssr:stedsnr" v="853966" />
	</node>
	<node lat="59.810825653949586" lon="7.422179878631875" id="-34523">
		<tag k="name" v="Kråkemohylen" />
		<tag k="natural" v="water" />
		<tag k="ssr:stedsnr" v="853969" />
	</node>
	<node lat="59.85631389262611" lon="7.453350005370144" id="-34524">
		<tag k="name" v="Grønåi" />
		<tag k="ssr:stedsnr" v="853999" />
		<tag k="waterway" v="river" />
	</node>
	<node lat="59.84596111509799" lon="7.362263894389593" id="-34525">
		<tag k="name" v="Midtlægertjønni" />
		<tag k="natural" v="water" />
		<tag k="ssr:stedsnr" v="854000" />
	</node>
	<node lat="59.81740000259633" lon="7.22784166772335" id="-34535">
		<tag k="fixme" v="multiple name tags, choose one and add the other to alt_name" />
		<tag k="name" v="Tjønnlegbekken;Tjønnbekken" />
		<tag k="ssr:stedsnr" v="854818" />
		<tag k="waterway" v="stream" />
	</node>
	<node lat="60.00389999864888" lon="7.741424998018598" id="-34538">
		<tag k="name" v="Vollenuttjønnan" />
		<tag k="natural" v="water" />
		<tag k="ssr:stedsnr" v="855538" />
	</node>
	<node lat="59.683274996185204" lon="7.789247219140849" id="-34543">
		<tag k="alt_name" v="Langetjørn" />
		<tag k="name" v="Langetjønn" />
		<tag k="natural" v="water" />
		<tag k="ssr:stedsnr" v="877114" />
	</node>
	<node lat="59.70982778123531" lon="7.711224998285069" id="-34544">
		<tag k="name" v="Hidretjønn" />
		<tag k="natural" v="water" />
		<tag k="ssr:stedsnr" v="877054" />
	</node>
	<node lat="59.69771944840176" lon="7.789388894253625" id="-34548">
		<tag k="name" v="Bjønnesundbekken" />
		<tag k="ssr:stedsnr" v="877524" />
		<tag k="waterway" v="stream" />
	</node>
	<node lat="59.67654166467242" lon="7.972319451270866" id="-34549">
		<tag k="name" v="Fløyta" />
		<tag k="natural" v="bay" />
		<tag k="ssr:stedsnr" v="877560" />
	</node>
	<node lat="59.74024167099528" lon="7.7031222239839785" id="-34550">
		<tag k="name" v="Langetjønn" />
		<tag k="natural" v="water" />
		<tag k="ssr:stedsnr" v="877463" />
	</node>
	<node lat="59.689594448639454" lon="7.962388897351671" id="-34553">
		<tag k="name" v="Trosaviktjønni" />
		<tag k="natural" v="water" />
		<tag k="ssr:stedsnr" v="877605" />
	</node>
	<node lat="59.62943611152572" lon="8.262983329690325" id="-34566">
		<tag k="name" v="Ståloddan" />
		<tag k="natural" v="cape" />
		<tag k="ssr:stedsnr" v="881464" />
	</node>
	<node lat="59.721605553649866" lon="7.8442000041828654" id="-34568">
		<tag k="name" v="Nonskarvikje" />
		<tag k="natural" v="bay" />
		<tag k="ssr:stedsnr" v="881355" />
	</node>
	<node lat="59.63180555725774" lon="8.207530549849933" id="-34570">
		<tag k="name" v="Ljosbekk" />
		<tag k="ssr:stedsnr" v="881505" />
		<tag k="waterway" v="stream" />
	</node>
	<node lat="59.737838892922454" lon="7.854500007967068" id="-34572">
		<tag k="name" v="Kyrsvelt" />
		<tag k="natural" v="waterfall" />
		<tag k="ssr:stedsnr" v="881514" />
	</node>
	<node lat="59.67474824786169" lon="8.173777189679083" id="-34574">
		<tag k="name" v="Fundlibekken" />
		<tag k="ssr:stedsnr" v="881799" />
		<tag k="waterway" v="stream" />
	</node>
	<node lat="59.71348610944083" lon="7.961872225650459" id="-34576">
		<tag k="name" v="Vesle Totak" />
		<tag k="natural" v="bay" />
		<tag k="ssr:stedsnr" v="881925" />
	</node>
	<node lat="59.664472045146006" lon="8.204768858135226" id="-34577">
		<tag k="name" v="Juvsbekken" />
		<tag k="ssr:stedsnr" v="881805" />
		<tag k="waterway" v="stream" />
	</node>
	<node lat="59.65064444534748" lon="8.15030556392231" id="-34583">
		<tag k="name" v="Nordstaulbekken" />
		<tag k="ssr:stedsnr" v="882909" />
		<tag k="waterway" v="stream" />
	</node>
	<node lat="59.7537249969533" lon="7.662791662795936" id="-34587">
		<tag k="name" v="Mauretjønnviki" />
		<tag k="natural" v="bay" />
		<tag k="ssr:stedsnr" v="900259" />
	</node>
	<node lat="59.72894444280299" lon="7.601108330122026" id="-34588">
		<tag k="name" v="Tjønndaltjønni" />
		<tag k="natural" v="water" />
		<tag k="ssr:stedsnr" v="900668" />
	</node>
	<node lat="59.73179166934606" lon="8.117866664355526" id="-34599">
		<tag k="alt_name" v="Svarttjørn" />
		<tag k="name" v="Svarttjønn" />
		<tag k="natural" v="water" />
		<tag k="ssr:stedsnr" v="913221" />
	</node>
	<node lat="59.749197220801555" lon="8.167822218240222" id="-34600">
		<tag k="name" v="Uvatn" />
		<tag k="natural" v="water" />
		<tag k="ssr:stedsnr" v="913236" />
		<tag k="water" v="lake" />
	</node>
	<node lat="59.60301111552949" lon="8.097308334286234" id="-34601">
		<tag k="alt_name" v="Sondhyl" />
		<tag k="name" v="Sundhyl" />
		<tag k="natural" v="water" />
		<tag k="ssr:stedsnr" v="913238" />
	</node>
	<node lat="59.59984166402001" lon="8.145844447676003" id="-34603">
		<tag k="name" v="Verkhusbekken" />
		<tag k="ssr:stedsnr" v="913248" />
		<tag k="waterway" v="stream" />
	</node>
	<node lat="59.64176944451164" lon="7.723594446100373" id="-34614">
		<tag k="name" v="Heftebekken" />
		<tag k="ssr:stedsnr" v="913792" />
		<tag k="waterway" v="stream" />
	</node>
	<node lat="59.60216944323743" lon="7.537794445779678" id="-34617">
		<tag k="name" v="Skurevassfossen" />
		<tag k="natural" v="waterfall" />
		<tag k="ssr:stedsnr" v="913680" />
	</node>
	<node lat="59.71117222093848" lon="8.07189443901867" id="-34619">
		<tag k="fixme" v="multiple name tags, choose one and add the other to alt_name" />
		<tag k="name" v="Rukke;Liåi" />
		<tag k="ssr:stedsnr" v="913832" />
		<tag k="waterway" v="river" />
	</node>
	<node lat="59.613994448346865" lon="7.733244438643526" id="-34624">
		<tag k="name" v="Kvævetjørn" />
		<tag k="natural" v="water" />
		<tag k="ssr:stedsnr" v="913977" />
	</node>
	<node lat="59.61839000463921" lon="7.74316971208571" id="-34625">
		<tag k="alt_name" v="Eklingtjørn" />
		<tag k="name" v="Eklingtjønn" />
		<tag k="natural" v="water" />
		<tag k="ssr:stedsnr" v="913978" />
	</node>
	<node lat="59.79450277877616" lon="7.942150005828323" id="-34629">
		<tag k="name" v="Bergsbekken" />
		<tag k="ssr:stedsnr" v="914330" />
		<tag k="waterway" v="stream" />
	</node>
	<node lat="59.80736666489886" lon="8.14747777890418" id="-34630">
		<tag k="alt_name" v="Store Skarbjåtjønn;Skardbjåtjørni" />
		<tag k="name" v="Skarbjåtjønn" />
		<tag k="natural" v="water" />
		<tag k="ssr:stedsnr" v="914411" />
	</node>
	<node lat="59.89873611543115" lon="8.148924995344535" id="-34638">
		<tag k="name" v="Tuddølbekken" />
		<tag k="ssr:stedsnr" v="914481" />
		<tag k="waterway" v="stream" />
	</node>
	<node lat="59.75285833044965" lon="7.6401055473475745" id="-34639">
		<tag k="alt_name" v="Kroketjønn" />
		<tag k="name" v="Kroktjønn" />
		<tag k="natural" v="water" />
		<tag k="ssr:stedsnr" v="914607" />
	</node>
	<node lat="59.98519999940881" lon="7.7826249998144315" id="-34640">
		<tag k="alt_name" v="Meinsvasstjørnane" />
		<tag k="name" v="Meinsvasstjønnane" />
		<tag k="natural" v="water" />
		<tag k="ssr:stedsnr" v="914610" />
	</node>
	<node lat="59.75135277876089" lon="7.696300000775138" id="-34642">
		<tag k="name" v="Vasslaustjønn" />
		<tag k="natural" v="water" />
		<tag k="ssr:stedsnr" v="914616" />
	</node>
	<node lat="59.79292500446211" lon="7.224575001598664" id="-34645">
		<tag k="name" v="Kjelavatn" />
		<tag k="natural" v="water" />
		<tag k="ssr:stedsnr" v="914908" />
		<tag k="water" v="lake" />
	</node>
	<node lat="59.75171388895551" lon="7.315936115357012" id="-34647">
		<tag k="name" v="Setebekken" />
		<tag k="ssr:stedsnr" v="914943" />
		<tag k="waterway" v="stream" />
	</node>
	<node lat="60.05930555869617" lon="7.9044055614164614" id="-34650">
		<tag k="alt_name" v="Hellegjuvtjønnane" />
		<tag k="name" v="Hellegjuvtjønnan" />
		<tag k="natural" v="water" />
		<tag k="ssr:stedsnr" v="915571" />
	</node>
	<node lat="59.634750001425715" lon="7.492588891384395" id="-34651">
		<tag k="alt_name" v="Bjørkevolltjørni" />
		<tag k="name" v="Bjørkevolltjønni" />
		<tag k="natural" v="water" />
		<tag k="ssr:stedsnr" v="933250" />
	</node>
	<node lat="59.71097499916209" lon="7.752827771299285" id="-34652">
		<tag k="name" v="Veslenes" />
		<tag k="natural" v="cape" />
		<tag k="ssr:stedsnr" v="938008" />
	</node>
	<node lat="59.70768333272102" lon="7.755608330515285" id="-34654">
		<tag k="name" v="Mokarodden" />
		<tag k="natural" v="cape" />
		<tag k="ssr:stedsnr" v="938017" />
	</node>
	<node lat="59.68447777604686" lon="7.72981388651174" id="-34655">
		<tag k="name" v="Rjupedalsneset" />
		<tag k="natural" v="cape" />
		<tag k="ssr:stedsnr" v="938023" />
	</node>
	<node lat="59.68174166904505" lon="8.079061116111633" id="-34658">
		<tag k="name" v="Snauhome" />
		<tag k="place" v="islet" />
		<tag k="ssr:stedsnr" v="938105" />
	</node>
	<node lat="59.600913890400896" lon="7.894638885069185" id="-34659">
		<tag k="name" v="Svartetjønn" />
		<tag k="natural" v="water" />
		<tag k="ssr:stedsnr" v="938332" />
	</node>
	<node lat="59.66388888720037" lon="7.982808333666759" id="-34662">
		<tag k="name" v="Revsnes" />
		<tag k="natural" v="cape" />
		<tag k="ssr:stedsnr" v="938536" />
	</node>
	<node lat="59.63119722481774" lon="7.964641674352009" id="-34663">
		<tag k="name" v="Grastjønn" />
		<tag k="natural" v="water" />
		<tag k="ssr:stedsnr" v="938606" />
	</node>
	<node lat="59.62730000149432" lon="8.003352772621207" id="-34666">
		<tag k="name" v="Verstohylane" />
		<tag k="place" v="locality" />
		<tag k="ssr:stedsnr" v="938633" />
	</node>
	<node lat="59.5154527792259" lon="7.94661665960848" id="-34667">
		<tag k="name" v="Koddesæbekken" />
		<tag k="ssr:stedsnr" v="938637" />
		<tag k="waterway" v="stream" />
	</node>
	<node lat="59.77310832889363" lon="7.56129999742898" id="-34671">
		<tag k="name" v="Bjønnelauget" />
		<tag k="natural" v="water" />
		<tag k="ssr:stedsnr" v="959392" />
		<tag k="water" v="pond" />
	</node>
	<node lat="59.762488885175706" lon="7.645447226510284" id="-34674">
		<tag k="name" v="Dalamillomtjønn" />
		<tag k="natural" v="water" />
		<tag k="ssr:stedsnr" v="960005" />
	</node>
	<node lat="59.74666944560665" lon="8.212441668117838" id="-34716">
		<tag k="alt_name" v="Torvetjørn" />
		<tag k="name" v="Torvetjønni" />
		<tag k="natural" v="water" />
		<tag k="ssr:stedsnr" v="3218" />
		<tag k="water" v="lake" />
	</node>
	<node lat="59.605513888287234" lon="8.252925003724036" id="-34717">
		<tag k="alt_name" v="Motjørn" />
		<tag k="name" v="Motjønn" />
		<tag k="natural" v="water" />
		<tag k="ssr:stedsnr" v="3228" />
	</node>
	<node lat="59.6863055551532" lon="7.17535277580839" id="-34718">
		<tag k="name" v="Høgeholmen" />
		<tag k="place" v="islet" />
		<tag k="ssr:stedsnr" v="3439" />
	</node>
	<node lat="59.63889166949004" lon="7.500672223637828" id="-34723">
		<tag k="alt_name" v="Ånondtjørni;Ånundtjørni" />
		<tag k="name" v="Ånundtjønn" />
		<tag k="natural" v="water" />
		<tag k="ssr:stedsnr" v="3484" />
	</node>
	<node lat="59.63075277828912" lon="7.657375000534041" id="-34724">
		<tag k="alt_name" v="Supsavatn, nordre" />
		<tag k="name" v="Nordre Supsavatn" />
		<tag k="natural" v="water" />
		<tag k="ssr:stedsnr" v="3491" />
	</node>
	<node lat="59.65866666892212" lon="8.011263889683887" id="-34725">
		<tag k="name" v="Øyi" />
		<tag k="place" v="island" />
		<tag k="ssr:stedsnr" v="3758" />
	</node>
	<node lat="59.6300888872105" lon="8.263205562017777" id="-34728">
		<tag k="alt_name" v="Rotjørn" />
		<tag k="name" v="Rotjønn" />
		<tag k="natural" v="water" />
		<tag k="ssr:stedsnr" v="3261" />
	</node>
	<node lat="59.757861111105186" lon="7.916486113525326" id="-34730">
		<tag k="name" v="Vesle Kvikkevatn" />
		<tag k="natural" v="water" />
		<tag k="ssr:stedsnr" v="3331" />
		<tag k="water" v="lake" />
	</node>
	<node lat="59.820424997192625" lon="8.20385278340498" id="-34736">
		<tag k="alt_name" v="Tangåi" />
		<tag k="name" v="Tangeåi" />
		<tag k="ssr:stedsnr" v="3366" />
		<tag k="waterway" v="river" />
	</node>
	<node lat="59.815716664226414" lon="8.117919448134908" id="-34737">
		<tag k="name" v="Draghaugøyan" />
		<tag k="place" v="islet" />
		<tag k="ssr:stedsnr" v="3367" />
	</node>
	<node lat="59.908613893328415" lon="7.344838893495442" id="-34740">
		<tag k="name" v="Vassdalsvatnet" />
		<tag k="natural" v="water" />
		<tag k="ssr:stedsnr" v="3903" />
	</node>
	<node lat="59.62616944367478" lon="7.986547221621213" id="-34742">
		<tag k="alt_name" v="Øygardstjørn, store" />
		<tag k="name" v="Øygardstjønn" />
		<tag k="natural" v="water" />
		<tag k="ssr:stedsnr" v="3991" />
	</node>
	<node lat="59.62145833426256" lon="7.906613889635056" id="-34743">
		<tag k="alt_name" v="Haugsætjørnane;Haugesætjørnane" />
		<tag k="name" v="Haugesætjønnane" />
		<tag k="natural" v="water" />
		<tag k="ssr:stedsnr" v="3993" />
	</node>
	<node lat="59.730533330585885" lon="7.352258340250013" id="-34749">
		<tag k="name" v="Langesæåi" />
		<tag k="ssr:stedsnr" v="3305" />
		<tag k="waterway" v="stream" />
	</node>
	<node lat="59.70763055377846" lon="7.461800000173519" id="-34753">
		<tag k="alt_name" v="Tandreskeidtjørnane" />
		<tag k="name" v="Tandreskeidtjønnane" />
		<tag k="natural" v="water" />
		<tag k="ssr:stedsnr" v="3522" />
	</node>
	<node lat="59.71325000160902" lon="7.4492527704279885" id="-34754">
		<tag k="name" v="Mosedalsbekken" />
		<tag k="ssr:stedsnr" v="3523" />
		<tag k="waterway" v="stream" />
	</node>
	<node lat="59.704680555677704" lon="7.456261114523921" id="-34756">
		<tag k="alt_name" v="Holmetjørn" />
		<tag k="name" v="Holmetjønn" />
		<tag k="natural" v="water" />
		<tag k="ssr:stedsnr" v="3529" />
	</node>
	<node lat="59.69408055603449" lon="7.647324994778722" id="-34761">
		<tag k="alt_name" v="Gravtjørni;Gravtjønn" />
		<tag k="name" v="Gravtjønni" />
		<tag k="natural" v="water" />
		<tag k="ssr:stedsnr" v="3573" />
	</node>
	<node lat="59.88832500021197" lon="7.849388894445271" id="-34765">
		<tag k="name" v="Tverråi" />
		<tag k="ssr:stedsnr" v="3597" />
		<tag k="waterway" v="stream" />
	</node>
	<node lat="59.734366669154916" lon="7.912622228122517" id="-34767">
		<tag k="name" v="Kvikkevatn" />
		<tag k="natural" v="water" />
		<tag k="ssr:stedsnr" v="3648" />
		<tag k="water" v="lake" />
	</node>
	<node lat="59.81407500237301" lon="7.897599998153764" id="-34768">
		<tag k="name" v="Vesle Bitdalsvatn" />
		<tag k="natural" v="water" />
		<tag k="ssr:stedsnr" v="3663" />
		<tag k="water" v="lake" />
	</node>
	<node lat="59.81332777563422" lon="8.076397223596786" id="-34769">
		<tag k="name" v="Kråmviksundet" />
		<tag k="natural" v="strait" />
		<tag k="ssr:stedsnr" v="3665" />
	</node>
	<node lat="59.760902778792264" lon="7.333158326438602" id="-34772">
		<tag k="name" v="Arbuvatn" />
		<tag k="natural" v="water" />
		<tag k="ssr:stedsnr" v="3940" />
		<tag k="water" v="lake" />
	</node>
	<node lat="59.576858330602164" lon="7.998755555902041" id="-34773">
		<tag k="name" v="Hyllandsfossen" />
		<tag k="natural" v="waterfall" />
		<tag k="ssr:stedsnr" v="3941" />
	</node>
	<node lat="59.63725277450569" lon="7.890974998916855" id="-34774">
		<tag k="name" v="Drengshyl" />
		<tag k="natural" v="water" />
		<tag k="ssr:stedsnr" v="3945" />
	</node>
	<node lat="59.838858276110564" lon="7.7007137453989" id="-34775">
		<tag k="name" v="Vonevatn" />
		<tag k="natural" v="water" />
		<tag k="ssr:stedsnr" v="3952" />
	</node>
	<node lat="59.82611110837477" lon="7.534430552980504" id="-34776">
		<tag k="name" v="Deildebekken" />
		<tag k="ssr:stedsnr" v="3955" />
		<tag k="waterway" v="stream" />
	</node>
	<node lat="59.987205551237146" lon="8.023436103006675" id="-34780">
		<tag k="alt_name" v="Kyrbekktjørnane" />
		<tag k="name" v="Kyrbekktjønnane" />
		<tag k="natural" v="water" />
		<tag k="ssr:stedsnr" v="4567" />
		<tag k="water" v="lake" />
	</node>
	<node lat="59.67983611510348" lon="7.924336103838031" id="-34782">
		<tag k="alt_name" v="Svartetjørn" />
		<tag k="name" v="Svartetjønn" />
		<tag k="natural" v="water" />
		<tag k="ssr:stedsnr" v="3863" />
	</node>
	<node lat="59.681852774438546" lon="7.905588894664391" id="-34783">
		<tag k="alt_name" v="Åmlitjørn" />
		<tag k="name" v="Øvre Åmlitjønn" />
		<tag k="natural" v="water" />
		<tag k="ssr:stedsnr" v="3865" />
	</node>
	<node lat="59.9159083371675" lon="8.72982222840822" id="-34784">
		<tag k="name" v="Måna" />
		<tag k="ssr:stedsnr" v="4195" />
		<tag k="waterway" v="river" />
	</node>
	<node lat="59.94402500003463" lon="8.109638888554478" id="-34785">
		<tag k="alt_name" v="Langetjørni" />
		<tag k="name" v="Langetjønn" />
		<tag k="natural" v="water" />
		<tag k="ssr:stedsnr" v="4295" />
	</node>
	<node lat="60.06770833611786" lon="7.822738896240409" id="-34798">
		<tag k="name" v="Grislebukti" />
		<tag k="natural" v="bay" />
		<tag k="ssr:stedsnr" v="4597" />
	</node>
	<node lat="59.82216388870907" lon="7.9797611025700315" id="-34801">
		<tag k="name" v="Eggetjønn" />
		<tag k="natural" v="water" />
		<tag k="ssr:stedsnr" v="4689" />
	</node>
	<node lat="59.82918333660462" lon="7.219099992517281" id="-34804">
		<tag k="alt_name" v="Venaretjønn, store" />
		<tag k="name" v="Store Venaretjønn" />
		<tag k="natural" v="water" />
		<tag k="ssr:stedsnr" v="4844" />
	</node>
	<node lat="59.90850000077983" lon="7.276600004726288" id="-34806">
		<tag k="name" v="Årmotvatni" />
		<tag k="natural" v="water" />
		<tag k="ssr:stedsnr" v="4859" />
		<tag k="water" v="lake" />
	</node>
	<node lat="59.84212778191566" lon="8.043005553396656" id="-34808">
		<tag k="name" v="Skipdrett" />
		<tag k="place" v="locality" />
		<tag k="ssr:stedsnr" v="4718" />
	</node>
	<node lat="59.85946111378437" lon="7.991813897713441" id="-34810">
		<tag k="alt_name" v="Laksatjørni" />
		<tag k="name" v="Laksatjønni" />
		<tag k="natural" v="water" />
		<tag k="ssr:stedsnr" v="4749" />
	</node>
	<node lat="59.857188892043176" lon="8.053377775390684" id="-34812">
		<tag k="alt_name" v="Hovden" />
		<tag k="name" v="Hovdeøyi" />
		<tag k="place" v="island" />
		<tag k="ssr:stedsnr" v="4752" />
	</node>
	<node lat="59.874061110121154" lon="7.246549996977108" id="-34814">
		<tag k="name" v="Mannevassåi" />
		<tag k="ssr:stedsnr" v="4890" />
		<tag k="waterway" v="stream" />
	</node>
	<node lat="60.00822222082656" lon="8.068886108434622" id="-34815">
		<tag k="name" v="Storfisktjønni" />
		<tag k="natural" v="water" />
		<tag k="ssr:stedsnr" v="5531" />
	</node>
	<node lat="60.01672777571644" lon="8.00758333591485" id="-34816">
		<tag k="name" v="Fiskelaustjønni" />
		<tag k="natural" v="water" />
		<tag k="ssr:stedsnr" v="5544" />
	</node>
	<node lat="60.0132583337559" lon="7.788497223178581" id="-34817">
		<tag k="name" v="Sandhølpollen" />
		<tag k="place" v="locality" />
		<tag k="ssr:stedsnr" v="5554" />
	</node>
	<node lat="59.63702222328705" lon="7.938202769099382" id="-34820">
		<tag k="name" v="Stukkenutetjønni" />
		<tag k="natural" v="water" />
		<tag k="ssr:stedsnr" v="28636" />
	</node>
	<node lat="59.62259999953788" lon="7.8145388862012055" id="-34824">
		<tag k="name" v="Plassøyi" />
		<tag k="place" v="island" />
		<tag k="ssr:stedsnr" v="28132" />
	</node>
	<node lat="59.607822223799" lon="7.887919442320179" id="-34833">
		<tag k="name" v="Tuftevadbekken" />
		<tag k="ssr:stedsnr" v="28348" />
		<tag k="waterway" v="stream" />
	</node>
	<node lat="59.54919722456752" lon="7.8664638820688175" id="-34837">
		<tag k="name" v="Myrseltjønni" />
		<tag k="natural" v="water" />
		<tag k="ssr:stedsnr" v="28445" />
	</node>
	<node lat="59.69594166217791" lon="7.785205548336624" id="-34838">
		<tag k="name" v="Bjønnesund" />
		<tag k="natural" v="strait" />
		<tag k="ssr:stedsnr" v="28525" />
	</node>
	<node lat="59.68702777811946" lon="7.784874998019478" id="-34839">
		<tag k="alt_name" v="Skardstjørn" />
		<tag k="name" v="Skartjønn" />
		<tag k="natural" v="water" />
		<tag k="ssr:stedsnr" v="28529" />
	</node>
	<node lat="59.7562277738753" lon="7.758127777537668" id="-34843">
		<tag k="name" v="Olavstøylvikje" />
		<tag k="natural" v="bay" />
		<tag k="ssr:stedsnr" v="28496" />
	</node>
	<node lat="59.69461666530392" lon="7.967925001003095" id="-34845">
		<tag k="name" v="Raulandshaugodden" />
		<tag k="natural" v="cape" />
		<tag k="ssr:stedsnr" v="28595" />
	</node>
	<node lat="59.69701666716402" lon="7.9026722287284965" id="-34853">
		<tag k="name" v="Trøsavikje" />
		<tag k="natural" v="bay" />
		<tag k="ssr:stedsnr" v="28751" />
	</node>
	<node lat="59.60948332966664" lon="8.119419449066951" id="-34855">
		<tag k="alt_name" v="Deildestaulbekken" />
		<tag k="name" v="Deildestøylbekken" />
		<tag k="ssr:stedsnr" v="28959" />
		<tag k="waterway" v="stream" />
	</node>
	<node lat="59.76981388774853" lon="7.679991673571352" id="-34858">
		<tag k="name" v="Storenuttjønnane" />
		<tag k="natural" v="water" />
		<tag k="ssr:stedsnr" v="31155" />
	</node>
	<node lat="59.64963914182779" lon="8.192025781098652" id="-34859">
		<tag k="name" v="Raudbekk" />
		<tag k="ssr:stedsnr" v="31333" />
		<tag k="waterway" v="stream" />
	</node>
	<node lat="59.67360003375022" lon="8.167684909390163" id="-34865">
		<tag k="name" v="Viki" />
		<tag k="natural" v="bay" />
		<tag k="ssr:stedsnr" v="31797" />
	</node>
	<node lat="59.78843610932928" lon="7.88782778055358" id="-34869">
		<tag k="name" v="Hillejuvsbekken" />
		<tag k="old_name" v="Hilllejuvsbekken" />
		<tag k="ssr:stedsnr" v="31457" />
		<tag k="waterway" v="stream" />
	</node>
	<node lat="59.74924444562768" lon="7.861999995550937" id="-34874">
		<tag k="name" v="Mossbekkjuvet" />
		<tag k="ssr:stedsnr" v="31688" />
		<tag k="waterway" v="stream" />
	</node>
	<node lat="59.721355556855954" lon="7.901700004097265" id="-34878">
		<tag k="name" v="Juvsbekken" />
		<tag k="ssr:stedsnr" v="32218" />
		<tag k="waterway" v="stream" />
	</node>
	<node lat="59.71836944651086" lon="7.876900001258997" id="-34882">
		<tag k="name" v="Skullvassbekken" />
		<tag k="ssr:stedsnr" v="32199" />
		<tag k="waterway" v="stream" />
	</node>
	<node lat="59.674804528487634" lon="8.155212524922883" id="-34884">
		<tag k="name" v="Brandlandsodden" />
		<tag k="natural" v="cape" />
		<tag k="ssr:stedsnr" v="32536" />
	</node>
	<node lat="59.821577775522584" lon="8.058691667935554" id="-34887">
		<tag k="name" v="Kråmvatnet" />
		<tag k="natural" v="water" />
		<tag k="ssr:stedsnr" v="32655" />
	</node>
	<node lat="59.83477777999956" lon="8.0683333386523" id="-34889">
		<tag k="alt_name" v="Vetlestjønnan" />
		<tag k="name" v="Vetlestjønnane" />
		<tag k="natural" v="bay" />
		<tag k="ssr:stedsnr" v="32658" />
	</node>
	<node lat="59.7186750038047" lon="7.988141665932877" id="-34892">
		<tag k="name" v="Bakkebekken" />
		<tag k="ssr:stedsnr" v="32836" />
		<tag k="waterway" v="stream" />
	</node>
	<node lat="59.87614166305724" lon="8.08870000373055" id="-34893">
		<tag k="name" v="Dalsbekken" />
		<tag k="ssr:stedsnr" v="32854" />
		<tag k="waterway" v="stream" />
	</node>
	<node lat="59.75047222155913" lon="8.133480551064578" id="-34896">
		<tag k="name" v="Dikehylen" />
		<tag k="place" v="locality" />
		<tag k="ssr:stedsnr" v="32947" />
	</node>
	<node lat="59.73494166977196" lon="7.557300008117059" id="-34900">
		<tag k="name" v="Kjelaåi" />
		<tag k="ssr:stedsnr" v="49229" />
		<tag k="waterway" v="river" />
	</node>
	<node lat="59.56886944872025" lon="8.175688889059614" id="-34904">
		<tag k="name" v="Kyrkjebøbekken" />
		<tag k="ssr:stedsnr" v="49947" />
		<tag k="waterway" v="stream" />
	</node>
	<node lat="59.66460277837745" lon="7.560266669795382" id="-34909">
		<tag k="name" v="Slengjeneset" />
		<tag k="natural" v="cape" />
		<tag k="ssr:stedsnr" v="50659" />
	</node>
	<node lat="59.772061109604245" lon="7.41855276911754" id="-34912">
		<tag k="name" v="Stutetjønn" />
		<tag k="natural" v="water" />
		<tag k="ssr:stedsnr" v="56074" />
	</node>
	<node lat="59.82013889134131" lon="7.2980055481705906" id="-34913">
		<tag k="alt_name" v="Haringhytt-tjønn, nedre" />
		<tag k="name" v="Nedre Haringhyttjønn" />
		<tag k="natural" v="water" />
		<tag k="ssr:stedsnr" v="56134" />
	</node>
	<node lat="59.7976499997134" lon="7.19434722870686" id="-34915">
		<tag k="name" v="Kjelaneset" />
		<tag k="natural" v="cape" />
		<tag k="ssr:stedsnr" v="56143" />
	</node>
	<node lat="59.79106111400101" lon="7.328752785493292" id="-34920">
		<tag k="name" v="Finnflattjønni" />
		<tag k="natural" v="water" />
		<tag k="ssr:stedsnr" v="56494" />
	</node>
	<node lat="59.75885833332421" lon="7.370325004609818" id="-34921">
		<tag k="name" v="Kartetjønni" />
		<tag k="natural" v="water" />
		<tag k="ssr:stedsnr" v="56917" />
	</node>
	<node lat="59.765522222608446" lon="7.379750007225301" id="-34924">
		<tag k="name" v="Holmen" />
		<tag k="place" v="islet" />
		<tag k="ssr:stedsnr" v="58835" />
	</node>
	<node lat="59.638455551688736" lon="7.391155547572478" id="-34931">
		<tag k="alt_name" v="Kiletjørnin;Kiletjørnan" />
		<tag k="name" v="Kiletjønnane" />
		<tag k="natural" v="water" />
		<tag k="ssr:stedsnr" v="64550" />
	</node>
	<node lat="59.53181666341539" lon="7.92151944742425" id="-34947">
		<tag k="name" v="Liabekken" />
		<tag k="ssr:stedsnr" v="64048" />
		<tag k="waterway" v="stream" />
	</node>
	<node lat="59.83669999884725" lon="7.512713897085673" id="-34952">
		<tag k="name" v="Knutsvolltjønnane" />
		<tag k="natural" v="water" />
		<tag k="ssr:stedsnr" v="64962" />
	</node>
	<node lat="59.869305554723255" lon="7.362580553898698" id="-34954">
		<tag k="name" v="Kroktjønnane" />
		<tag k="natural" v="water" />
		<tag k="ssr:stedsnr" v="64989" />
	</node>
	<node lat="59.855155557919524" lon="7.382541665363516" id="-34956">
		<tag k="name" v="Edlandsgrøvatnet, øvre" />
		<tag k="natural" v="water" />
		<tag k="ssr:stedsnr" v="64996" />
		<tag k="water" v="lake" />
	</node>
	<node lat="59.55147777756558" lon="8.149300000424901" id="-34967">
		<tag k="alt_name" v="Litjørn" />
		<tag k="name" v="Litjønn" />
		<tag k="natural" v="water" />
		<tag k="ssr:stedsnr" v="64422" />
	</node>
	<node lat="59.65910555990024" lon="7.314766660847542" id="-34968">
		<tag k="name" v="Storebudalstjønni" />
		<tag k="natural" v="water" />
		<tag k="ssr:stedsnr" v="64452" />
	</node>
	<node lat="59.899719446662594" lon="7.9824250042977445" id="-34973">
		<tag k="alt_name" v="Fossegrøtjørni" />
		<tag k="name" v="Fossegrøtjønni" />
		<tag k="natural" v="water" />
		<tag k="ssr:stedsnr" v="64619" />
	</node>
	<node lat="59.75003610978033" lon="7.6804250015495095" id="-34976">
		<tag k="alt_name" v="Tveitetjønn, nedre" />
		<tag k="name" v="Nedre Tveitetjønn" />
		<tag k="natural" v="water" />
		<tag k="ssr:stedsnr" v="64589" />
	</node>
	<node lat="59.7218444451119" lon="7.925561102900981" id="-34980">
		<tag k="alt_name" v="Kvikke" />
		<tag k="name" v="Kvikkeåi" />
		<tag k="ssr:stedsnr" v="64666" />
		<tag k="waterway" v="river" />
	</node>
	<node lat="59.73262222371557" lon="8.076777777722132" id="-34981">
		<tag k="alt_name" v="Svarttjørn" />
		<tag k="name" v="Svarttjønn" />
		<tag k="natural" v="water" />
		<tag k="ssr:stedsnr" v="64674" />
	</node>
	<node lat="59.594433334459666" lon="7.594888885941707" id="-34982">
		<tag k="name" v="Blankevatn" />
		<tag k="natural" v="water" />
		<tag k="ssr:stedsnr" v="64700" />
	</node>
	<node lat="59.89207778179883" lon="7.919658339734938" id="-34986">
		<tag k="name" v="Lauvnes" />
		<tag k="natural" v="cape" />
		<tag k="ssr:stedsnr" v="64645" />
	</node>
	<node lat="59.667188887041895" lon="8.045111105364079" id="-34987">
		<tag k="name" v="Bernes" />
		<tag k="place" v="islet" />
		<tag k="ssr:stedsnr" v="64788" />
	</node>
	<node lat="59.86640278174163" lon="8.058816663651074" id="-34992">
		<tag k="name" v="Førnessundet" />
		<tag k="natural" v="strait" />
		<tag k="ssr:stedsnr" v="65720" />
	</node>
	<node lat="59.816874718582696" lon="7.299697636054607" id="-34995">
		<tag k="alt_name" v="Hardinghyttjørn" />
		<tag k="name" v="Hardinghyttjønn" />
		<tag k="natural" v="water" />
		<tag k="ssr:stedsnr" v="65826" />
	</node>
	<node lat="59.75972777705974" lon="7.264761102776284" id="-34998">
		<tag k="name" v="Nordre Skåfonntjønni" />
		<tag k="natural" v="water" />
		<tag k="ssr:stedsnr" v="64951" />
	</node>
	<node lat="59.980777781005536" lon="8.105499996944607" id="-34999">
		<tag k="alt_name" v="Steintjørnan" />
		<tag k="name" v="Steintjønnane" />
		<tag k="natural" v="water" />
		<tag k="ssr:stedsnr" v="65254" />
	</node>
	<node lat="59.948638886348974" lon="7.845708336456123" id="-35004">
		<tag k="alt_name" v="Vasstjørni, midtre" />
		<tag k="name" v="Midtre Vasstjønni" />
		<tag k="natural" v="water" />
		<tag k="ssr:stedsnr" v="65549" />
		<tag k="water" v="lake" />
	</node>
	<node lat="60.058122219341826" lon="7.722625005059575" id="-35009">
		<tag k="name" v="Mjågevatn" />
		<tag k="natural" v="water" />
		<tag k="ssr:stedsnr" v="65588" />
		<tag k="water" v="lake" />
	</node>
	<node lat="59.97026666306369" lon="7.982875002314528" id="-35013">
		<tag k="name" v="Sandodden" />
		<tag k="natural" v="cape" />
		<tag k="ssr:stedsnr" v="65668" />
	</node>
	<node lat="59.90446388617546" lon="7.1943472226279965" id="-35017">
		<tag k="loc_name" v="Holmesjøen" />
		<tag k="name" v="Holmasjøen" />
		<tag k="natural" v="water" />
		<tag k="ssr:stedsnr" v="65854" />
		<tag k="water" v="lake" />
	</node>
	<node lat="59.88200000398428" lon="7.260211109901686" id="-35018">
		<tag k="name" v="Slirdokkhølen" />
		<tag k="natural" v="water" />
		<tag k="ssr:stedsnr" v="65885" />
	</node>
	<node lat="59.8745999955398" lon="7.152249999947441" id="-35019">
		<tag k="alt_name" v="Trolltjørn" />
		<tag k="name" v="Trolltjønn" />
		<tag k="natural" v="water" />
		<tag k="ssr:stedsnr" v="65887" />
	</node>
	<node lat="60.08840277369127" lon="7.590891663864728" id="-35022">
		<tag k="name" v="Dargesjåbekken" />
		<tag k="ssr:stedsnr" v="81491" />
		<tag k="waterway" v="stream" />
	</node>
	<node lat="60.05028610845814" lon="7.553024998897873" id="-35023">
		<tag k="name" v="Venedokktjønn" />
		<tag k="natural" v="water" />
		<tag k="ssr:stedsnr" v="81476" />
	</node>
	<node lat="59.54929167104287" lon="8.137222230954498" id="-35026">
		<tag k="name" v="Sandbekk" />
		<tag k="ssr:stedsnr" v="88494" />
		<tag k="waterway" v="stream" />
	</node>
	<node lat="59.643522221668604" lon="7.835777775590214" id="-35028">
		<tag k="name" v="Løkjine" />
		<tag k="natural" v="water" />
		<tag k="ssr:stedsnr" v="88245" />
	</node>
	<node lat="59.61232500232312" lon="7.906827777324658" id="-35029">
		<tag k="name" v="Steintjønnbekken" />
		<tag k="ssr:stedsnr" v="88268" />
		<tag k="waterway" v="stream" />
	</node>
	<node lat="59.661644440396806" lon="7.779005556824744" id="-35032">
		<tag k="name" v="Fossebekken" />
		<tag k="ssr:stedsnr" v="88051" />
		<tag k="waterway" v="stream" />
	</node>
	<node lat="59.73103055903385" lon="7.71649999228914" id="-35034">
		<tag k="name" v="Røyetjønn" />
		<tag k="natural" v="water" />
		<tag k="ssr:stedsnr" v="88394" />
	</node>
	<node lat="59.68705278171482" lon="7.772908326886213" id="-35035">
		<tag k="name" v="Fiskemostrandi" />
		<tag k="natural" v="beach" />
		<tag k="ssr:stedsnr" v="88444" />
	</node>
	<node lat="59.68172499851318" lon="7.861558330882094" id="-35039">
		<tag k="name" v="Gloslibekken" />
		<tag k="ssr:stedsnr" v="89284" />
		<tag k="waterway" v="stream" />
	</node>
	<node lat="59.668669441054575" lon="7.953447215069275" id="-35040">
		<tag k="name" v="Vesle Nystøyltjønni" />
		<tag k="natural" v="water" />
		<tag k="ssr:stedsnr" v="89542" />
	</node>
	<node lat="59.66756111194584" lon="7.97665833637804" id="-35042">
		<tag k="name" v="Vesleholme" />
		<tag k="place" v="island" />
		<tag k="ssr:stedsnr" v="89563" />
	</node>
	<node lat="59.57869166502694" lon="8.125655561055826" id="-35050">
		<tag k="name" v="Reiuvstjønn" />
		<tag k="natural" v="water" />
		<tag k="ssr:stedsnr" v="89945" />
	</node>
	<node lat="59.793761112807715" lon="7.807527776999346" id="-35052">
		<tag k="name" v="Rjupedalstjønn" />
		<tag k="natural" v="water" />
		<tag k="ssr:stedsnr" v="92020" />
	</node>
	<node lat="59.69187599704444" lon="8.135953038901047" id="-35054">
		<tag k="name" v="Troddetjønn" />
		<tag k="natural" v="water" />
		<tag k="ssr:stedsnr" v="92737" />
	</node>
	<node lat="59.80878055497912" lon="7.92104166374512" id="-35061">
		<tag k="name" v="Bergsbekken" />
		<tag k="ssr:stedsnr" v="92457" />
		<tag k="waterway" v="stream" />
	</node>
	<node lat="59.63109721811907" lon="8.178891670234352" id="-35064">
		<tag k="name" v="Fagerlibekken" />
		<tag k="ssr:stedsnr" v="92498" />
		<tag k="waterway" v="stream" />
	</node>
	<node lat="59.59840833283567" lon="8.19156111530182" id="-35070">
		<tag k="name" v="Djupedalshylen" />
		<tag k="natural" v="water" />
		<tag k="ssr:stedsnr" v="92901" />
		<tag k="water" v="lake" />
	</node>
	<node lat="59.69653888731996" lon="8.062747223379379" id="-35072">
		<tag k="name" v="Sautjønn" />
		<tag k="natural" v="water" />
		<tag k="ssr:stedsnr" v="93796" />
	</node>
	<node lat="59.76179166475859" lon="7.389755561666676" id="-35099">
		<tag k="name" v="Osetjønni" />
		<tag k="natural" v="water" />
		<tag k="ssr:stedsnr" v="117901" />
	</node>
	<node lat="59.77369444717769" lon="7.295088891306573" id="-35101">
		<tag k="name" v="Hestevolltjønni, søndre" />
		<tag k="natural" v="water" />
		<tag k="ssr:stedsnr" v="118858" />
	</node>
	<node lat="59.77605000219657" lon="7.2868055586959875" id="-35102">
		<tag k="name" v="Hestevolltjønni, nordre" />
		<tag k="natural" v="water" />
		<tag k="ssr:stedsnr" v="118860" />
	</node>
	<node lat="59.66238610742342" lon="7.511991664138031" id="-35106">
		<tag k="alt_name" v="Sæsvasstjørni" />
		<tag k="name" v="Sæssvasstjønni" />
		<tag k="natural" v="water" />
		<tag k="ssr:stedsnr" v="124451" />
	</node>
	<node lat="59.690436110527465" lon="7.4932305552887835" id="-35110">
		<tag k="alt_name" v="Viketjønn" />
		<tag k="name" v="Holmetjørn" />
		<tag k="natural" v="water" />
		<tag k="ssr:stedsnr" v="124542" />
	</node>
	<node lat="59.73926388471604" lon="7.648702771267252" id="-35115">
		<tag k="alt_name" v="Stemmetjørn;Stemmetjørni" />
		<tag k="name" v="Stemmetjønn" />
		<tag k="natural" v="water" />
		<tag k="ssr:stedsnr" v="124277" />
	</node>
	<node lat="59.69253055280237" lon="7.233772216115446" id="-35122">
		<tag k="name" v="Skurvenuttjønnane" />
		<tag k="natural" v="water" />
		<tag k="ssr:stedsnr" v="124423" />
	</node>
	<node lat="59.916338886683796" lon="8.008436108730235" id="-35125">
		<tag k="name" v="Langevollbekken" />
		<tag k="ssr:stedsnr" v="124576" />
		<tag k="waterway" v="stream" />
	</node>
	<node lat="59.55893055475129" lon="8.109972223533436" id="-35126">
		<tag k="alt_name" v="Leirtjørn" />
		<tag k="name" v="Leirtjønn" />
		<tag k="natural" v="water" />
		<tag k="ssr:stedsnr" v="124395" />
	</node>
	<node lat="59.64167222661784" lon="7.861947221573871" id="-35128">
		<tag k="alt_name" v="Skentjørn;Skintjørn" />
		<tag k="name" v="Skjentjønn" />
		<tag k="natural" v="water" />
		<tag k="ssr:stedsnr" v="124779" />
	</node>
	<node lat="59.9129194469117" lon="8.161830547192453" id="-35131">
		<tag k="alt_name" v="Fossetjørn" />
		<tag k="name" v="Fossetjønn" />
		<tag k="natural" v="water" />
		<tag k="ssr:stedsnr" v="125472" />
	</node>
	<node lat="59.766097222900164" lon="7.687847220518214" id="-35135">
		<tag k="name" v="Åsovtjønni" />
		<tag k="natural" v="water" />
		<tag k="ssr:stedsnr" v="125618" />
	</node>
	<node lat="59.764311108166424" lon="7.660474992409074" id="-35136">
		<tag k="name" v="Måketjønni" />
		<tag k="natural" v="water" />
		<tag k="ssr:stedsnr" v="125622" />
	</node>
	<node lat="60.09141388620048" lon="7.964222214826698" id="-35138">
		<tag k="name" v="Den brende tangen" />
		<tag k="natural" v="cape" />
		<tag k="ssr:stedsnr" v="125626" />
	</node>
	<node lat="59.63081944579071" lon="7.876322226506202" id="-35144">
		<tag k="alt_name" v="Fetveittjørn" />
		<tag k="name" v="Fetveittjønni" />
		<tag k="natural" v="water" />
		<tag k="ssr:stedsnr" v="124935" />
	</node>
	<node lat="59.641302777858186" lon="8.010358341092596" id="-35145">
		<tag k="alt_name" v="Mostølhylen" />
		<tag k="name" v="Mostøylhylen" />
		<tag k="place" v="locality" />
		<tag k="ssr:stedsnr" v="124938" />
	</node>
	<node lat="59.637813984957894" lon="7.730255557342039" id="-35146">
		<tag k="alt_name" v="Rutjørn;Rjodtjørni" />
		<tag k="name" v="Rjodtjønni" />
		<tag k="natural" v="water" />
		<tag k="ssr:stedsnr" v="124940" />
	</node>
	<node lat="59.64235277779053" lon="7.959149997062705" id="-35148">
		<tag k="alt_name" v="Åsbrekktjørn" />
		<tag k="name" v="Åsbrekktjønni" />
		<tag k="natural" v="water" />
		<tag k="ssr:stedsnr" v="124948" />
	</node>
	<node lat="59.613838263416305" lon="7.911287560043565" id="-35157">
		<tag k="alt_name" v="Steintjørn" />
		<tag k="name" v="Steintjønn" />
		<tag k="natural" v="water" />
		<tag k="ssr:stedsnr" v="124996" />
	</node>
	<node lat="59.76035277331607" lon="7.751363887270343" id="-35160">
		<tag k="name" v="Bjølleneset" />
		<tag k="natural" v="cape" />
		<tag k="ssr:stedsnr" v="125385" />
	</node>
	<node lat="59.75913055379507" lon="8.00909721510174" id="-35161">
		<tag k="name" v="Ljoså" />
		<tag k="ssr:stedsnr" v="125387" />
		<tag k="waterway" v="river" />
	</node>
	<node lat="59.7613999872897" lon="8.045995113698192" id="-35162">
		<tag k="alt_name" v="Primtjørni" />
		<tag k="name" v="Primtjønn" />
		<tag k="natural" v="water" />
		<tag k="ssr:stedsnr" v="125279" />
	</node>
	<node lat="59.76322500125679" lon="8.016274998271902" id="-35165">
		<tag k="alt_name" v="Sprengebekken" />
		<tag k="name" v="Sprengebekk" />
		<tag k="ssr:stedsnr" v="125390" />
		<tag k="waterway" v="stream" />
	</node>
	<node lat="59.77799444832591" lon="7.4236499914121605" id="-35166">
		<tag k="alt_name" v="Raftdøla" />
		<tag k="name" v="Rafdøla" />
		<tag k="ssr:stedsnr" v="125525" />
		<tag k="waterway" v="stream" />
	</node>
	<node lat="59.79405277367905" lon="7.444422227326788" id="-35167">
		<tag k="name" v="Bora" />
		<tag k="ssr:stedsnr" v="125534" />
		<tag k="waterway" v="river" />
	</node>
	<node lat="59.96013333656154" lon="7.827150000796079" id="-35170">
		<tag k="alt_name" v="Vasstjørni, vestre;Vestre Vasstjørni" />
		<tag k="loc_name" v="Vestre Vasstjønn" />
		<tag k="name" v="Vestre Vasstjønni" />
		<tag k="natural" v="water" />
		<tag k="ssr:stedsnr" v="125568" />
		<tag k="water" v="lake" />
	</node>
	<node lat="59.98121944100448" lon="8.052250000321928" id="-35173">
		<tag k="alt_name" v="Rundetjørni" />
		<tag k="loc_name" v="Rundetjønn" />
		<tag k="name" v="Rundetjønni" />
		<tag k="natural" v="water" />
		<tag k="ssr:stedsnr" v="125580" />
	</node>
	<node lat="59.94878055715426" lon="8.004566662512346" id="-35176">
		<tag k="name" v="Oddanbekken" />
		<tag k="ssr:stedsnr" v="125681" />
		<tag k="waterway" v="stream" />
	</node>
	<node lat="59.85133889231149" lon="8.079788896784404" id="-35179">
		<tag k="alt_name" v="Skåkji" />
		<tag k="name" v="Skåki" />
		<tag k="place" v="locality" />
		<tag k="seamark:type" v="rock" />
		<tag k="ssr:stedsnr" v="125726" />
	</node>
	<node lat="59.829761114629534" lon="7.2636138939065855" id="-35182">
		<tag k="alt_name" v="Havrå" />
		<tag k="name" v="Havråi" />
		<tag k="ssr:stedsnr" v="125851" />
		<tag k="waterway" v="stream" />
	</node>
	<node lat="59.97895278104028" lon="7.5242388902043" id="-35184">
		<tag k="name" v="Merakktjønni" />
		<tag k="natural" v="water" />
		<tag k="ssr:stedsnr" v="125893" />
	</node>
	<node lat="59.83749167042543" lon="7.6470416750784365" id="-35186">
		<tag k="loc_name" v="Valasjååi" />
		<tag k="name" v="Valasjøåi" />
		<tag k="ssr:stedsnr" v="125951" />
		<tag k="waterway" v="stream" />
	</node>
	<node lat="59.838250001180896" lon="7.6657111141812" id="-35187">
		<tag k="name" v="Vonevassbekken" />
		<tag k="ssr:stedsnr" v="125953" />
		<tag k="waterway" v="stream" />
	</node>
	<node lat="59.82743888447646" lon="7.672030558559478" id="-35188">
		<tag k="name" v="Sandodden" />
		<tag k="natural" v="cape" />
		<tag k="ssr:stedsnr" v="125965" />
	</node>
	<node lat="59.81942500354269" lon="7.565805558786688" id="-35189">
		<tag k="alt_name" v="Songedammen" />
		<tag k="name" v="Songadammen" />
		<tag k="ssr:stedsnr" v="125969" />
		<tag k="waterway" v="dam" />
	</node>
	<node lat="59.87686388686451" lon="7.383236111615303" id="-35190">
		<tag k="name" v="Trolletjønn" />
		<tag k="natural" v="water" />
		<tag k="ssr:stedsnr" v="125986" />
	</node>
	<node lat="59.86313333638849" lon="7.3672944355034815" id="-35191">
		<tag k="name" v="Kroktjønnbekken" />
		<tag k="ssr:stedsnr" v="125991" />
		<tag k="waterway" v="stream" />
	</node>
	<node lat="60.01568055834548" lon="8.080124993191825" id="-35195">
		<tag k="name" v="Gronuttjønni" />
		<tag k="natural" v="water" />
		<tag k="ssr:stedsnr" v="126540" />
	</node>
	<node lat="60.00613889157596" lon="7.680563897249462" id="-35196">
		<tag k="name" v="Tosketjønn" />
		<tag k="natural" v="water" />
		<tag k="ssr:stedsnr" v="126641" />
	</node>
	<node lat="60.017794442919644" lon="7.460594444800487" id="-35199">
		<tag k="loc_name" v="Brasfitåi" />
		<tag k="name" v="Brasfetåi" />
		<tag k="ssr:stedsnr" v="126668" />
		<tag k="waterway" v="stream" />
	</node>
	<node lat="59.61580832959715" lon="8.030694445175271" id="-35209">
		<tag k="alt_name" v="Rotvelttjørnane" />
		<tag k="name" v="Rotvelttjønnane" />
		<tag k="natural" v="water" />
		<tag k="ssr:stedsnr" v="149143" />
	</node>
	<node lat="59.669588885497724" lon="7.861475005578787" id="-35210">
		<tag k="name" v="Brilletjønn" />
		<tag k="natural" v="water" />
		<tag k="ssr:stedsnr" v="149306" />
	</node>
	<node lat="59.662038885791304" lon="7.875847215237969" id="-35211">
		<tag k="name" v="Langebekkvikje" />
		<tag k="natural" v="bay" />
		<tag k="ssr:stedsnr" v="149311" />
	</node>
	<node lat="59.66984721934185" lon="7.8887777860083705" id="-35215">
		<tag k="name" v="Hestevikje" />
		<tag k="natural" v="bay" />
		<tag k="ssr:stedsnr" v="149293" />
	</node>
	<node lat="59.7515361079515" lon="7.72046944679781" id="-35226">
		<tag k="name" v="Nystøylbekken" />
		<tag k="ssr:stedsnr" v="149492" />
		<tag k="waterway" v="stream" />
	</node>
	<node lat="59.69388333131822" lon="7.75794999891702" id="-35228">
		<tag k="name" v="Gloslineset" />
		<tag k="natural" v="bay" />
		<tag k="ssr:stedsnr" v="149501" />
	</node>
	<node lat="59.50108611094825" lon="7.98335278280552" id="-35232">
		<tag k="name" v="Sandane" />
		<tag k="natural" v="water" />
		<tag k="ssr:stedsnr" v="149750" />
		<tag k="water" v="lake" />
	</node>
	<node lat="59.8050972222697" lon="7.593005563744328" id="-35237">
		<tag k="name" v="Trolldalsbekken" />
		<tag k="ssr:stedsnr" v="152050" />
		<tag k="waterway" v="stream" />
	</node>
	<node lat="59.62817296512075" lon="8.222792436156569" id="-35240">
		<tag k="name" v="Løyningtjønn" />
		<tag k="natural" v="water" />
		<tag k="ssr:stedsnr" v="152539" />
	</node>
	<node lat="59.68474722659434" lon="8.090341664991337" id="-35247">
		<tag k="name" v="Kjenes" />
		<tag k="natural" v="cape" />
		<tag k="ssr:stedsnr" v="153782" />
	</node>
	<node lat="59.793530556503036" lon="8.238730560164571" id="-35255">
		<tag k="name" v="Mørepyttan" />
		<tag k="natural" v="water" />
		<tag k="ssr:stedsnr" v="153734" />
		<tag k="water" v="pond" />
	</node>
	<node lat="59.87139999787196" lon="8.120625000538729" id="-35258">
		<tag k="name" v="Storoddan" />
		<tag k="place" v="island" />
		<tag k="ssr:stedsnr" v="153840" />
	</node>
	<node lat="59.75078055285009" lon="7.466033330314634" id="-35260">
		<tag k="alt_name" v="Tjønndaltjønnane" />
		<tag k="name" v="Tjønndalstjønnane" />
		<tag k="natural" v="water" />
		<tag k="ssr:stedsnr" v="170390" />
	</node>
	<node lat="59.73659721894211" lon="7.635263884385243" id="-35270">
		<tag k="name" v="Sagabekken" />
		<tag k="ssr:stedsnr" v="171686" />
		<tag k="waterway" v="stream" />
	</node>
	<node lat="59.79873889012434" lon="7.322202775859429" id="-35273">
		<tag k="name" v="Trolltjønn" />
		<tag k="natural" v="water" />
		<tag k="ssr:stedsnr" v="177427" />
	</node>
	<node lat="59.78257636051323" lon="7.475511137667011" id="-35276">
		<tag k="name" v="Kvævetjønnane" />
		<tag k="natural" v="water" />
		<tag k="ssr:stedsnr" v="178638" />
	</node>
	<node lat="59.73105833077355" lon="7.425252778627455" id="-35277">
		<tag k="name" v="Førsvassdammen" />
		<tag k="ssr:stedsnr" v="178897" />
		<tag k="waterway" v="dam" />
	</node>
	<node lat="59.701902774719834" lon="7.390050004792306" id="-35281">
		<tag k="name" v="Grunnevatn" />
		<tag k="natural" v="water" />
		<tag k="ssr:stedsnr" v="185519" />
		<tag k="water" v="lake" />
	</node>
	<node lat="59.949530558105174" lon="8.131530551218395" id="-35284">
		<tag k="alt_name" v="Svartetjørn" />
		<tag k="name" v="Svartetjønn" />
		<tag k="natural" v="water" />
		<tag k="ssr:stedsnr" v="186297" />
	</node>
	<node lat="59.58780555544915" lon="8.12224167152982" id="-35288">
		<tag k="alt_name" v="Jordtjørn" />
		<tag k="name" v="Jordtjønn" />
		<tag k="natural" v="water" />
		<tag k="ssr:stedsnr" v="185266" />
	</node>
	<node lat="59.62168610832532" lon="8.174344446843794" id="-35292">
		<tag k="name" v="Storbekken" />
		<tag k="ssr:stedsnr" v="185284" />
		<tag k="waterway" v="stream" />
	</node>
	<node lat="59.88736111436487" lon="8.14970000371912" id="-35297">
		<tag k="alt_name" v="Napalitjørni" />
		<tag k="name" v="Napalitjønn" />
		<tag k="natural" v="water" />
		<tag k="ssr:stedsnr" v="185423" />
	</node>
	<node lat="59.67346110888839" lon="7.984480558811643" id="-35299">
		<tag k="alt_name" v="Trolletjørn" />
		<tag k="name" v="Troddetjønn" />
		<tag k="natural" v="water" />
		<tag k="ssr:stedsnr" v="185748" />
	</node>
	<node lat="59.73442499607956" lon="7.69518333478444" id="-35302">
		<tag k="alt_name" v="Straumstøltjørn;Straumstøyltjørn" />
		<tag k="name" v="Straumstøyltjønni" />
		<tag k="natural" v="water" />
		<tag k="ssr:stedsnr" v="185307" />
	</node>
	<node lat="59.649549996987666" lon="8.146124999878138" id="-35309">
		<tag k="alt_name" v="Damtjørn" />
		<tag k="name" v="Damtjønn" />
		<tag k="natural" v="water" />
		<tag k="ssr:stedsnr" v="185360" />
	</node>
	<node lat="59.70331388553054" lon="7.583591673165998" id="-35317">
		<tag k="alt_name" v="Gjusviki" />
		<tag k="name" v="Gjuvsviki" />
		<tag k="natural" v="bay" />
		<tag k="ssr:stedsnr" v="185554" />
	</node>
	<node lat="59.766411112198654" lon="7.544633337463235" id="-35318">
		<tag k="alt_name" v="Venemobassenget" />
		<tag k="name" v="Venemodammen" />
		<tag k="natural" v="water" />
		<tag k="ssr:stedsnr" v="185563" />
		<tag k="water" v="lake" />
	</node>
	<node lat="59.69034166586136" lon="7.547863893771992" id="-35320">
		<tag k="alt_name" v="Kvervesjåtjørni" />
		<tag k="name" v="Kvervesjåtjønni" />
		<tag k="natural" v="water" />
		<tag k="ssr:stedsnr" v="185569" />
	</node>
	<node lat="59.934066670376154" lon="7.575825006387851" id="-35332">
		<tag k="name" v="Gjevdøltjønni" />
		<tag k="natural" v="water" />
		<tag k="ssr:stedsnr" v="185885" />
	</node>
	<node lat="59.90695277577505" lon="7.368916675409118" id="-35334">
		<tag k="name" v="Ormevatnet" />
		<tag k="natural" v="water" />
		<tag k="ssr:stedsnr" v="185889" />
	</node>
	<node lat="59.79253611077934" lon="7.324200005873089" id="-35336">
		<tag k="alt_name" v="Knævetjønn" />
		<tag k="fixme" v="multiple name tags, choose one and add the other to alt_name" />
		<tag k="name" v="Storetjønni;Kvævetjønn" />
		<tag k="natural" v="water" />
		<tag k="ssr:stedsnr" v="185908" />
	</node>
	<node lat="59.675416669654055" lon="7.778074998716644" id="-35339">
		<tag k="alt_name" v="Geisåi" />
		<tag k="name" v="Gjesåi" />
		<tag k="ssr:stedsnr" v="185866" />
		<tag k="waterway" v="stream" />
	</node>
	<node lat="59.67818055213454" lon="7.744408334443833" id="-35340">
		<tag k="alt_name" v="Skintjørn" />
		<tag k="name" v="Skintjønn" />
		<tag k="natural" v="water" />
		<tag k="ssr:stedsnr" v="185867" />
	</node>
	<node lat="59.61319167116171" lon="7.855925007363109" id="-35343">
		<tag k="name" v="Sandnes" />
		<tag k="natural" v="cape" />
		<tag k="ssr:stedsnr" v="185961" />
	</node>
	<node lat="59.751524996007234" lon="7.792838882122051" id="-35351">
		<tag k="alt_name" v="Holmane" />
		<tag k="name" v="Homane" />
		<tag k="place" v="islet" />
		<tag k="ssr:stedsnr" v="186258" />
	</node>
	<node lat="59.78635277723519" lon="7.584333326190129" id="-35361">
		<tag k="alt_name" v="Flatatjønn;Flatastøyltjønni" />
		<tag k="name" v="Flatastøltjønni" />
		<tag k="natural" v="water" />
		<tag k="ssr:stedsnr" v="186568" />
	</node>
	<node lat="60.030891668334185" lon="7.461674993933526" id="-35362">
		<tag k="name" v="Bjønna" />
		<tag k="ssr:stedsnr" v="187591" />
		<tag k="waterway" v="river" />
	</node>
	<node lat="59.78271388685102" lon="8.042149997341891" id="-35366">
		<tag k="alt_name" v="Englandsmotjørni" />
		<tag k="name" v="Englandsmotjønni" />
		<tag k="natural" v="water" />
		<tag k="ssr:stedsnr" v="186355" />
	</node>
	<node lat="59.774069442892255" lon="8.045863887513724" id="-35367">
		<tag k="alt_name" v="Haddelandshylen" />
		<tag k="name" v="Haddlandshylen" />
		<tag k="place" v="locality" />
		<tag k="ssr:stedsnr" v="186370" />
	</node>
	<node lat="59.763280558440634" lon="7.885830556729494" id="-35368">
		<tag k="alt_name" v="Ånundstjønnan;Ånundstjørnane" />
		<tag k="name" v="Ånundstjønnane" />
		<tag k="natural" v="water" />
		<tag k="ssr:stedsnr" v="186389" />
	</node>
	<node lat="59.756241668223744" lon="7.431899992543146" id="-35383">
		<tag k="name" v="Kovatjønn" />
		<tag k="natural" v="water" />
		<tag k="ssr:stedsnr" v="186667" />
	</node>
	<node lat="59.82961111167208" lon="7.204391672918628" id="-35386">
		<tag k="alt_name" v="Venaretjønn, lille" />
		<tag k="name" v="Lille Venaretjønn" />
		<tag k="natural" v="water" />
		<tag k="ssr:stedsnr" v="186832" />
	</node>
	<node lat="59.80925000060449" lon="7.17618889632154" id="-35387">
		<tag k="alt_name" v="Kistetjønni" />
		<tag k="name" v="Kistetjønn" />
		<tag k="natural" v="water" />
		<tag k="ssr:stedsnr" v="186840" />
	</node>
	<node lat="59.90619999764291" lon="7.229244437586304" id="-35391">
		<tag k="alt_name" v="Poddevatnet, øvre" />
		<tag k="name" v="Øvre Poddevatnet" />
		<tag k="natural" v="water" />
		<tag k="ssr:stedsnr" v="186848" />
		<tag k="water" v="lake" />
	</node>
	<node lat="59.80301389192168" lon="7.310888886569604" id="-35392">
		<tag k="name" v="Deildetjønni" />
		<tag k="natural" v="water" />
		<tag k="ssr:stedsnr" v="186916" />
	</node>
	<node lat="59.81799444859529" lon="7.3573583298922625" id="-35393">
		<tag k="name" v="Storholme" />
		<tag k="place" v="islet" />
		<tag k="ssr:stedsnr" v="186958" />
	</node>
	<node lat="60.01016388513067" lon="7.795322224101671" id="-35394">
		<tag k="name" v="Meinvassbekken" />
		<tag k="ssr:stedsnr" v="187524" />
		<tag k="waterway" v="stream" />
	</node>
	<node lat="60.01077222355061" lon="7.72837500357743" id="-35395">
		<tag k="name" v="Vollenutbekken" />
		<tag k="ssr:stedsnr" v="187526" />
		<tag k="waterway" v="stream" />
	</node>
	<node lat="60.03087500260197" lon="7.545938895145865" id="-35396">
		<tag k="name" v="Gunleiksbuvatnet" />
		<tag k="natural" v="water" />
		<tag k="ssr:stedsnr" v="187643" />
		<tag k="water" v="lake" />
	</node>
	<node lat="59.61381944246575" lon="7.833580555829231" id="-35401">
		<tag k="name" v="Gaukslandstoe" />
		<tag k="natural" v="bay" />
		<tag k="ssr:stedsnr" v="210366" />
	</node>
	<node lat="59.717677779528664" lon="7.714755559491843" id="-35408">
		<tag k="name" v="Jønnholmen" />
		<tag k="place" v="island" />
		<tag k="ssr:stedsnr" v="210061" />
	</node>
	<node lat="59.65065833510987" lon="7.923730561376553" id="-35409">
		<tag k="name" v="Nystøyltjønni" />
		<tag k="natural" v="water" />
		<tag k="ssr:stedsnr" v="210299" />
	</node>
	<node lat="59.64509722009556" lon="7.823361116623623" id="-35410">
		<tag k="name" v="Helleskartjønn" />
		<tag k="natural" v="water" />
		<tag k="ssr:stedsnr" v="210323" />
	</node>
	<node lat="59.698063884774555" lon="7.813880561022752" id="-35413">
		<tag k="name" v="Grungebruhylen" />
		<tag k="place" v="locality" />
		<tag k="ssr:stedsnr" v="210497" />
	</node>
	<node lat="59.60217222598814" lon="8.027816669177282" id="-35415">
		<tag k="name" v="Plassebekken" />
		<tag k="ssr:stedsnr" v="210520" />
		<tag k="waterway" v="stream" />
	</node>
	<node lat="59.624763889503704" lon="8.02688888008235" id="-35416">
		<tag k="alt_name" v="Fossandbekken" />
		<tag k="name" v="Fossanbekken" />
		<tag k="ssr:stedsnr" v="210647" />
		<tag k="waterway" v="stream" />
	</node>
	<node lat="59.6603472218956" lon="7.9820611098901955" id="-35420">
		<tag k="name" v="Vasahomen" />
		<tag k="place" v="island" />
		<tag k="ssr:stedsnr" v="210542" />
	</node>
	<node lat="59.672338888479295" lon="7.964297223913624" id="-35421">
		<tag k="name" v="Libekken" />
		<tag k="ssr:stedsnr" v="210545" />
		<tag k="waterway" v="stream" />
	</node>
	<node lat="59.69838888463743" lon="7.957569449364715" id="-35422">
		<tag k="name" v="Flykseoddane" />
		<tag k="natural" v="cape" />
		<tag k="ssr:stedsnr" v="210593" />
	</node>
	<node lat="59.567274999582885" lon="7.9395194470968145" id="-35423">
		<tag k="name" v="Løyningstjønni" />
		<tag k="natural" v="water" />
		<tag k="ssr:stedsnr" v="210608" />
	</node>
	<node lat="59.623333332920865" lon="8.019838883709625" id="-35425">
		<tag k="name" v="Berrtjønn" />
		<tag k="natural" v="water" />
		<tag k="ssr:stedsnr" v="210661" />
	</node>
	<node lat="59.70958888988971" lon="7.98524722088273" id="-35429">
		<tag k="alt_name" v="Raulandsholmen" />
		<tag k="name" v="Raulandshomen" />
		<tag k="place" v="islet" />
		<tag k="ssr:stedsnr" v="210800" />
	</node>
	<node lat="59.6958472208832" lon="8.008269450672016" id="-35430">
		<tag k="name" v="Skogstølbekken" />
		<tag k="ssr:stedsnr" v="210801" />
		<tag k="waterway" v="stream" />
	</node>
	<node lat="59.57030277710772" lon="8.025805560672515" id="-35432">
		<tag k="name" v="Hugarostjønni" />
		<tag k="natural" v="water" />
		<tag k="ssr:stedsnr" v="210616" />
	</node>
	<node lat="59.69660833410246" lon="7.898727769538723" id="-35434">
		<tag k="name" v="Brøttestø" />
		<tag k="natural" v="bay" />
		<tag k="ssr:stedsnr" v="210738" />
	</node>
	<node lat="59.696522224919896" lon="7.9111222210714205" id="-35435">
		<tag k="name" v="Store Myrstø" />
		<tag k="natural" v="bay" />
		<tag k="ssr:stedsnr" v="210741" />
	</node>
	<node lat="59.50371111447496" lon="7.973458329932841" id="-35436">
		<tag k="name" v="Gardslibekken" />
		<tag k="ssr:stedsnr" v="210757" />
		<tag k="waterway" v="stream" />
	</node>
	<node lat="59.624249999726786" lon="8.088641658110802" id="-35440">
		<tag k="alt_name" v="Lomedalstjørni" />
		<tag k="name" v="Lomdalstjønn" />
		<tag k="natural" v="water" />
		<tag k="ssr:stedsnr" v="210981" />
	</node>
	<node lat="59.57066388512506" lon="8.05716389226212" id="-35441">
		<tag k="name" v="Nystøyltjønni" />
		<tag k="natural" v="water" />
		<tag k="ssr:stedsnr" v="210960" />
	</node>
	<node lat="59.637263889370246" lon="8.238047226005792" id="-35446">
		<tag k="name" v="Hoddetjønnane" />
		<tag k="natural" v="water" />
		<tag k="ssr:stedsnr" v="213520" />
	</node>
	<node lat="59.603430556374995" lon="8.242802777408455" id="-35449">
		<tag k="name" v="Myrselbekken" />
		<tag k="ssr:stedsnr" v="213531" />
		<tag k="waterway" v="stream" />
	</node>
	<node lat="59.762802774520736" lon="7.858761109804406" id="-35452">
		<tag k="name" v="Nystøylbekken" />
		<tag k="ssr:stedsnr" v="213700" />
		<tag k="waterway" v="stream" />
	</node>
	<node lat="59.65857778045515" lon="7.996024993626635" id="-35454">
		<tag k="name" v="Kjershyl" />
		<tag k="place" v="locality" />
		<tag k="ssr:stedsnr" v="215017" />
	</node>
	<node lat="59.84177499946311" lon="8.045416661881895" id="-35458">
		<tag k="name" v="Skipdrettøyi" />
		<tag k="place" v="islet" />
		<tag k="ssr:stedsnr" v="214722" />
	</node>
	<node lat="59.81379166750891" lon="8.050266667406074" id="-35459">
		<tag k="name" v="Haugestaulbekken" />
		<tag k="ssr:stedsnr" v="214735" />
		<tag k="waterway" v="stream" />
	</node>
	<node lat="59.823158330190786" lon="8.307997224937205" id="-35460">
		<tag k="name" v="Odden" />
		<tag k="natural" v="cape" />
		<tag k="ssr:stedsnr" v="214753" />
	</node>
	<node lat="59.68370515617811" lon="8.133940882972688" id="-35462">
		<tag k="name" v="Vetnes" />
		<tag k="natural" v="cape" />
		<tag k="ssr:stedsnr" v="214765" />
	</node>
	<node lat="59.754197217928834" lon="8.019897227471262" id="-35473">
		<tag k="name" v="Deildebekk" />
		<tag k="ssr:stedsnr" v="274053" />
		<tag k="waterway" v="stream" />
	</node>
	<node lat="59.73124166981646" lon="7.927405546582212" id="-35476">
		<tag k="name" v="Breidalsbekken" />
		<tag k="ssr:stedsnr" v="274419" />
		<tag k="waterway" v="stream" />
	</node>
	<node lat="59.757730557153785" lon="8.05186665850909" id="-35480">
		<tag k="name" v="Meheibekken" />
		<tag k="ssr:stedsnr" v="274717" />
		<tag k="waterway" v="stream" />
	</node>
	<node lat="59.77200555232496" lon="8.078813881669593" id="-35487">
		<tag k="name" v="Reggjetjønnbekken" />
		<tag k="ssr:stedsnr" v="274653" />
		<tag k="waterway" v="stream" />
	</node>
	<node lat="59.6985222235345" lon="8.030652776018567" id="-35488">
		<tag k="name" v="Saunesodden" />
		<tag k="natural" v="cape" />
		<tag k="ssr:stedsnr" v="274785" />
	</node>
	<node lat="59.69794166334059" lon="8.032505561811632" id="-35489">
		<tag k="name" v="Fiskebuviki" />
		<tag k="natural" v="bay" />
		<tag k="ssr:stedsnr" v="274786" />
	</node>
	<node lat="59.7078722246285" lon="7.894416671554784" id="-35491">
		<tag k="loc_name" v="Kjelingtveitøyane" />
		<tag k="name" v="Killingtveitøyane" />
		<tag k="place" v="island" />
		<tag k="ssr:stedsnr" v="275194" />
	</node>
	<node lat="59.70968333586946" lon="7.89401666447967" id="-35496">
		<tag k="name" v="Høneviksandodden" />
		<tag k="natural" v="cape" />
		<tag k="ssr:stedsnr" v="275233" />
	</node>
	<node lat="59.68181666766147" lon="8.100291658363961" id="-35498">
		<tag k="name" v="Torrlaup" />
		<tag k="natural" v="strait" />
		<tag k="ssr:stedsnr" v="275733" />
	</node>
	<node lat="59.6510833351548" lon="8.092522216136517" id="-35502">
		<tag k="name" v="Øyestaulbekken" />
		<tag k="ssr:stedsnr" v="275936" />
		<tag k="waterway" v="stream" />
	</node>
	<node lat="59.67332778154743" lon="8.066963893393265" id="-35503">
		<tag k="name" v="Tansosen" />
		<tag k="natural" v="bay" />
		<tag k="ssr:stedsnr" v="275861" />
	</node>
	<node lat="59.64328333350393" lon="7.559038897150264" id="-35505">
		<tag k="name" v="Rusbekken" />
		<tag k="ssr:stedsnr" v="292776" />
		<tag k="waterway" v="stream" />
	</node>
	<node lat="59.76824166452478" lon="7.3488583340629825" id="-35512">
		<tag k="name" v="Blåbernuten" />
		<tag k="natural" v="cape" />
		<tag k="ssr:stedsnr" v="299443" />
	</node>
	<node lat="59.767888891164645" lon="7.33051943906585" id="-35513">
		<tag k="name" v="Arbustubben" />
		<tag k="ssr:stedsnr" v="299389" />
		<tag k="waterway" v="river" />
	</node>
	<node lat="59.76740833629964" lon="7.3275611131097325" id="-35514">
		<tag k="name" v="Arbuneset" />
		<tag k="natural" v="cape" />
		<tag k="ssr:stedsnr" v="299390" />
	</node>
	<node lat="59.60419166868609" lon="8.11557777152812" id="-35517">
		<tag k="fixme" v="multiple name tags, choose one and add the other to alt_name" />
		<tag k="name" v="Brannkvåltjønni;Brannkvålvatn" />
		<tag k="natural" v="water" />
		<tag k="ssr:stedsnr" v="306230" />
	</node>
	<node lat="59.68839999932052" lon="8.234002769843938" id="-35520">
		<tag k="alt_name" v="Aurbakktjønn" />
		<tag k="name" v="Kvanntjørn" />
		<tag k="natural" v="water" />
		<tag k="ssr:stedsnr" v="306145" />
	</node>
	<node lat="59.74166388902409" lon="7.6241916594121095" id="-35533">
		<tag k="name" v="Sagabekken" />
		<tag k="ssr:stedsnr" v="306317" />
		<tag k="waterway" v="stream" />
	</node>
	<node lat="59.62949166261664" lon="8.116738896419037" id="-35536">
		<tag k="alt_name" v="Stavsvatnet" />
		<tag k="name" v="Stavsvatn" />
		<tag k="natural" v="water" />
		<tag k="ssr:stedsnr" v="306328" />
		<tag k="water" v="lake" />
	</node>
	<node lat="59.625366666769565" lon="8.099313883018404" id="-35537">
		<tag k="alt_name" v="Rotanuttjørn" />
		<tag k="name" v="Rotanuttjønn" />
		<tag k="natural" v="water" />
		<tag k="ssr:stedsnr" v="306329" />
	</node>
	<node lat="59.65209722164108" lon="8.193766671199855" id="-35541">
		<tag k="name" v="Deildebekk" />
		<tag k="ssr:stedsnr" v="306353" />
		<tag k="waterway" v="stream" />
	</node>
	<node lat="59.72991944295502" lon="7.252558324589539" id="-35543">
		<tag k="name" v="Ingelssløymane" />
		<tag k="natural" v="water" />
		<tag k="ssr:stedsnr" v="306384" />
		<tag k="water" v="lake" />
	</node>
	<node lat="59.68037778068561" lon="7.206613893279132" id="-35546">
		<tag k="name" v="Skurvenutkilen" />
		<tag k="natural" v="bay" />
		<tag k="ssr:stedsnr" v="306450" />
	</node>
	<node lat="59.573930554154124" lon="8.152324991859112" id="-35547">
		<tag k="alt_name" v="Hakksteintjørn" />
		<tag k="name" v="Hakksteintjønn" />
		<tag k="natural" v="water" />
		<tag k="ssr:stedsnr" v="306452" />
	</node>
	<node lat="59.704299998530104" lon="7.409677784673087" id="-35548">
		<tag k="alt_name" v="Kroktjørn" />
		<tag k="name" v="Kroktjønn" />
		<tag k="natural" v="water" />
		<tag k="ssr:stedsnr" v="306540" />
	</node>
	<node lat="59.578974999110805" lon="8.072630556341561" id="-35562">
		<tag k="alt_name" v="Mjåvatn" />
		<tag k="name" v="Mjåvatnet" />
		<tag k="natural" v="water" />
		<tag k="ssr:stedsnr" v="306932" />
	</node>
	<node lat="59.613930557902115" lon="7.769016670014853" id="-35567">
		<tag k="alt_name" v="Russåi" />
		<tag k="name" v="Rusåi" />
		<tag k="ssr:stedsnr" v="306977" />
		<tag k="waterway" v="stream" />
	</node>
	<node lat="59.62052500188604" lon="7.938480546852702" id="-35568">
		<tag k="name" v="Langesæ" />
		<tag k="natural" v="water" />
		<tag k="ssr:stedsnr" v="306994" />
		<tag k="water" v="lake" />
	</node>
	<node lat="59.62743287738373" lon="7.736349537608205" id="-35571">
		<tag k="alt_name" v="Mjaugedalstjørn" />
		<tag k="name" v="Mjaugedalstjønn" />
		<tag k="natural" v="water" />
		<tag k="ssr:stedsnr" v="306947" />
	</node>
	<node lat="59.80406111446857" lon="8.158433337676206" id="-35574">
		<tag k="alt_name" v="Langetjørn" />
		<tag k="name" v="Langetjønn" />
		<tag k="natural" v="water" />
		<tag k="ssr:stedsnr" v="307417" />
	</node>
	<node lat="59.9725499980754" lon="7.919277773296328" id="-35577">
		<tag k="name" v="Vatndalsbekken" />
		<tag k="ssr:stedsnr" v="307578" />
		<tag k="waterway" v="stream" />
	</node>
	<node lat="59.93981666783463" lon="7.8955249959682074" id="-35578">
		<tag k="alt_name" v="Reinshorntjørni" />
		<tag k="name" v="Reinshorntjønni" />
		<tag k="natural" v="water" />
		<tag k="ssr:stedsnr" v="307579" />
	</node>
	<node lat="59.969436110479755" lon="8.001277779751579" id="-35583">
		<tag k="name" v="Kyrbekken" />
		<tag k="ssr:stedsnr" v="307684" />
		<tag k="waterway" v="stream" />
	</node>
	<node lat="59.76978611389162" lon="8.031758325821627" id="-35587">
		<tag k="name" v="Sveigetjønn" />
		<tag k="natural" v="water" />
		<tag k="ssr:stedsnr" v="307358" />
	</node>
	<node lat="59.84823610793046" lon="8.105541663976267" id="-35592">
		<tag k="name" v="Tangen" />
		<tag k="natural" v="cape" />
		<tag k="ssr:stedsnr" v="307391" />
	</node>
	<node lat="59.85040555315857" lon="7.879119453151183" id="-35602">
		<tag k="name" v="Skålevatn" />
		<tag k="natural" v="water" />
		<tag k="ssr:stedsnr" v="307733" />
	</node>
	<node lat="59.85551110981271" lon="8.004138894683967" id="-35603">
		<tag k="name" v="Laksåi" />
		<tag k="ssr:stedsnr" v="307737" />
		<tag k="waterway" v="river" />
	</node>
	<node lat="59.957811114436545" lon="7.963091671560475" id="-35605">
		<tag k="name" v="Mortåi" />
		<tag k="ssr:stedsnr" v="307691" />
		<tag k="waterway" v="river" />
	</node>
	<node lat="59.9879583370465" lon="7.30319999675324" id="-35607">
		<tag k="fixme" v="multiple name tags, choose one and add the other to alt_name" />
		<tag k="name" v="Urevassbekken;Urabekken" />
		<tag k="ssr:stedsnr" v="307778" />
		<tag k="waterway" v="stream" />
	</node>
	<node lat="59.984863890786485" lon="7.274374993267824" id="-35608">
		<tag k="name" v="Sandvika" />
		<tag k="natural" v="bay" />
		<tag k="ssr:stedsnr" v="307779" />
	</node>
	<node lat="59.868986113728205" lon="7.268875007072457" id="-35611">
		<tag k="name" v="Sandvatn" />
		<tag k="natural" v="water" />
		<tag k="ssr:stedsnr" v="307871" />
	</node>
	<node lat="59.77906840536996" lon="7.462650203432046" id="-35620">
		<tag k="name" v="Langetjønn" />
		<tag k="natural" v="water" />
		<tag k="ssr:stedsnr" v="308580" />
	</node>
	<node lat="59.827200003397536" lon="7.362186104288402" id="-35622">
		<tag k="alt_name" v="Drifteskardbekken" />
		<tag k="name" v="Drifteskarbekken" />
		<tag k="ssr:stedsnr" v="307943" />
		<tag k="waterway" v="stream" />
	</node>
	<node lat="60.03943889250121" lon="7.740861112552472" id="-35628">
		<tag k="name" v="Skvæta" />
		<tag k="ssr:stedsnr" v="308489" />
		<tag k="waterway" v="river" />
	</node>
	<node lat="60.02303888701605" lon="7.707019444609899" id="-35633">
		<tag k="name" v="Honserudfossen" />
		<tag k="natural" v="waterfall" />
		<tag k="ssr:stedsnr" v="308658" />
	</node>
	<node lat="60.09098889141685" lon="7.666316662917925" id="-35634">
		<tag k="name" v="Fjellsjåbekken" />
		<tag k="ssr:stedsnr" v="324457" />
		<tag k="waterway" v="stream" />
	</node>
	<node lat="59.5625722200248" lon="7.886508325842043" id="-35640">
		<tag k="name" v="Murterotjønni" />
		<tag k="natural" v="water" />
		<tag k="ssr:stedsnr" v="331400" />
	</node>
	<node lat="59.747108331908976" lon="7.853727780104382" id="-35649">
		<tag k="alt_name" v="Mosbekk" />
		<tag k="name" v="Mossbekk" />
		<tag k="ssr:stedsnr" v="331094" />
		<tag k="waterway" v="stream" />
	</node>
	<node lat="59.66126111358147" lon="7.881011119800954" id="-35650">
		<tag k="name" v="Langenes" />
		<tag k="natural" v="cape" />
		<tag k="ssr:stedsnr" v="331326" />
	</node>
	<node lat="59.699761106659096" lon="7.948152777940022" id="-35661">
		<tag k="name" v="Mæren" />
		<tag k="natural" v="bay" />
		<tag k="ssr:stedsnr" v="331577" />
	</node>
	<node lat="59.60999166816333" lon="8.092088888814622" id="-35670">
		<tag k="name" v="Brannkvålåi" />
		<tag k="ssr:stedsnr" v="331936" />
		<tag k="waterway" v="stream" />
	</node>
	<node lat="59.63910277998333" lon="7.867863880669369" id="-35672">
		<tag k="name" v="Ugleflottjønni" />
		<tag k="natural" v="water" />
		<tag k="ssr:stedsnr" v="332277" />
	</node>
	<node lat="59.632333337047214" lon="8.21250834168975" id="-35675">
		<tag k="name" v="Listaulbekken" />
		<tag k="ssr:stedsnr" v="335586" />
		<tag k="waterway" v="stream" />
	</node>
	<node lat="59.70443036935284" lon="8.111131375139744" id="-35676">
		<tag k="name" v="Halvfarbekk" />
		<tag k="ssr:stedsnr" v="335671" />
		<tag k="waterway" v="stream" />
	</node>
	<node lat="59.77855278031652" lon="7.730794451934152" id="-35678">
		<tag k="name" v="Farastadbekken" />
		<tag k="ssr:stedsnr" v="335332" />
		<tag k="waterway" v="stream" />
	</node>
	<node lat="59.635763885874674" lon="8.196058336932486" id="-35681">
		<tag k="name" v="Saltpyttodden" />
		<tag k="natural" v="cape" />
		<tag k="ssr:stedsnr" v="335536" />
	</node>
	<node lat="59.69320832927231" lon="8.024583328910921" id="-35686">
		<tag k="name" v="Vesletotak" />
		<tag k="natural" v="bay" />
		<tag k="ssr:stedsnr" v="335846" />
	</node>
	<node lat="59.820855559628995" lon="7.598888895975299" id="-35699">
		<tag k="name" v="Trolldalsdammen" />
		<tag k="ssr:stedsnr" v="352390" />
		<tag k="waterway" v="dam" />
	</node>
	<node lat="59.77591388569407" lon="7.470172222416181" id="-35702">
		<tag k="name" v="Vesle Strandbekktjønn" />
		<tag k="natural" v="water" />
		<tag k="ssr:stedsnr" v="359071" />
	</node>
</osm>
