<?xml version="1.0" encoding="UTF-8"?>
<osm version="0.6" generator="osmapis">
	<node lat="59.56973611561439" lon="7.988705563926606" id="-23855">
		<tag k="name" v="Åmot" />
		<tag k="place" v="village" />
		<tag k="ssr:stedsnr" v="3105" />
	</node>
	<node lat="59.786890896204184" lon="8.174247632193746" id="-23856">
		<tag k="historic" v="shieling" />
		<tag k="name" v="Listaul" />
		<tag k="place" v="isolated_dwelling" />
		<tag k="ssr:stedsnr" v="3374" />
	</node>
	<node lat="59.80185832965274" lon="8.137522227746551" id="-23857">
		<tag k="alt_name" v="Martinviki" />
		<tag k="name" v="Martinsviki" />
		<tag k="natural" v="bay" />
		<tag k="old_name" v="Martisnviki" />
		<tag k="ssr:stedsnr" v="3384" />
	</node>
	<node lat="59.56802500136409" lon="8.112250007636286" id="-23858">
		<tag k="fixme" v="consider natural=peak for the most distinct mountains in the district" />
		<tag k="name" v="Valskarvet" />
		<tag k="natural" v="hill" />
		<tag k="place" v="locality" />
		<tag k="ssr:stedsnr" v="3391" />
	</node>
	<node lat="59.65720277380156" lon="7.6815333356391555" id="-23859">
		<tag k="fixme" v="consider natural=peak for the most distinct mountains in the district" />
		<tag k="name" v="Berbunuten" />
		<tag k="natural" v="hill" />
		<tag k="place" v="locality" />
		<tag k="ssr:stedsnr" v="3507" />
	</node>
	<node lat="59.649658331684236" lon="7.709438893161143" id="-23860">
		<tag k="name" v="Gjuvet" />
		<tag k="place" v="locality" />
		<tag k="ssr:stedsnr" v="3508" />
	</node>
	<node lat="59.908074998201485" lon="7.734788887106429" id="-23861">
		<tag k="name" v="Hokkebrotvatn" />
		<tag k="natural" v="water" />
		<tag k="ssr:stedsnr" v="3602" />
		<tag k="water" v="lake" />
	</node>
	<node lat="59.713854298991805" lon="7.757148866854796" id="-23862">
		<tag k="alt_name" v="Svalestuen" />
		<tag k="fixme" v="consider place=hamlet" />
		<tag k="name" v="Svalastog" />
		<tag k="place" v="farm" />
		<tag k="ssr:stedsnr" v="3620" />
	</node>
	<node lat="59.62122500324279" lon="7.5889833355768985" id="-23863">
		<tag k="name" v="Rassteindalen" />
		<tag k="natural" v="valley" />
		<tag k="place" v="locality" />
		<tag k="ssr:stedsnr" v="3695" />
	</node>
	<node lat="59.646848448865455" lon="7.8663637014557235" id="-23864">
		<tag k="name" v="Myrkvæven" />
		<tag k="place" v="locality" />
		<tag k="ssr:stedsnr" v="3805" />
	</node>
	<node lat="59.714558337283535" lon="7.969338884733977" id="-23865">
		<tag k="name" v="Flatland" />
		<tag k="place" v="farm" />
		<tag k="ssr:stedsnr" v="3806" />
	</node>
	<node lat="59.7114250001179" lon="7.923324999773289" id="-23866">
		<tag k="fixme" v="consider place=hamlet" />
		<tag k="name" v="Aksvik" />
		<tag k="place" v="farm" />
		<tag k="ssr:stedsnr" v="3816" />
	</node>
	<node lat="59.7201416672984" lon="7.931430551491721" id="-23867">
		<tag k="alt_name" v="Dalsstøyl" />
		<tag k="historic" v="shieling" />
		<tag k="loc_name" v="Dalstaul" />
		<tag k="name" v="Dalstøyl" />
		<tag k="old_name" v="Dalstøl" />
		<tag k="place" v="isolated_dwelling" />
		<tag k="ssr:stedsnr" v="3818" />
	</node>
	<node lat="59.70411031787146" lon="7.7976572100577135" id="-23868">
		<tag k="alt_name" v="Breiarbekken" />
		<tag k="name" v="Breidarbekken" />
		<tag k="place" v="locality" />
		<tag k="ssr:stedsnr" v="3821" />
	</node>
	<node lat="59.67146111248945" lon="7.79604166082676" id="-23869">
		<tag k="name" v="Eggi" />
		<tag k="place" v="isolated_dwelling" />
		<tag k="ssr:stedsnr" v="3741" />
	</node>
	<node lat="59.66667222550612" lon="7.956872219025462" id="-23870">
		<tag k="alt_name" v="Urdeidtjørn" />
		<tag k="name" v="Urdeitjønni" />
		<tag k="natural" v="water" />
		<tag k="ssr:stedsnr" v="3744" />
	</node>
	<node lat="59.66901666603482" lon="8.072897229281242" id="-23871">
		<tag k="name" v="Homme" />
		<tag k="place" v="farm" />
		<tag k="ssr:stedsnr" v="3749" />
	</node>
	<node lat="59.67323751657348" lon="8.044177707120268" id="-23872">
		<tag k="fixme" v="consider place=hamlet" />
		<tag k="name" v="Lofthus" />
		<tag k="place" v="farm" />
		<tag k="ssr:stedsnr" v="3750" />
	</node>
	<node lat="59.65827778012485" lon="7.849883327695445" id="-23873">
		<tag k="alt_name" v="Dikekvævtjørn" />
		<tag k="name" v="Dikekvævtjønn" />
		<tag k="natural" v="water" />
		<tag k="ssr:stedsnr" v="3754" />
	</node>
	<node lat="59.65021944502528" lon="7.779949999250576" id="-23874">
		<tag k="name" v="Klevastøylåi" />
		<tag k="old_name" v="Klevastølåi" />
		<tag k="ssr:stedsnr" v="3770" />
		<tag k="waterway" v="stream" />
	</node>
	<node lat="59.6420611139027" lon="7.800736113659777" id="-23875">
		<tag k="name" v="Smørklepp" />
		<tag k="place" v="hamlet" />
		<tag k="ssr:stedsnr" v="3771" />
	</node>
	<node lat="59.64889999762757" lon="7.978849992603915" id="-23876">
		<tag k="alt_name" v="Øde-Vågsli" />
		<tag k="fixme" v="consider place=hamlet" />
		<tag k="name" v="Øyvågsli" />
		<tag k="place" v="farm" />
		<tag k="ssr:stedsnr" v="3784" />
	</node>
	<node lat="59.65512499912272" lon="7.964947222958762" id="-23877">
		<tag k="alt_name" v="Rottjørn" />
		<tag k="fixme" v="consider place=hamlet" />
		<tag k="name" v="Rottjønn" />
		<tag k="place" v="farm" />
		<tag k="ssr:stedsnr" v="3787" />
	</node>
	<node lat="59.81132499685349" lon="7.556494436103948" id="-23878">
		<tag k="historic" v="shieling" />
		<tag k="name" v="Leirhyl" />
		<tag k="place" v="isolated_dwelling" />
		<tag k="ssr:stedsnr" v="3969" />
	</node>
	<node lat="59.62038333076081" lon="7.8329222184210785" id="-23879">
		<tag k="fixme" v="consider place=hamlet" />
		<tag k="name" v="Vinje" />
		<tag k="place" v="village" />
		<tag k="ssr:stedsnr" v="3977" />
	</node>
	<node lat="59.61358055884874" lon="7.820852783584039" id="-23880">
		<tag k="name" v="Timbåsen" />
		<tag k="place" v="farm" />
		<tag k="ssr:stedsnr" v="3978" />
	</node>
	<node lat="59.891377779804266" lon="7.392988885160861" id="-23881">
		<tag k="name" v="Fjølabu" />
		<tag k="place" v="locality" />
		<tag k="ssr:stedsnr" v="3985" />
	</node>
	<node lat="59.625823060440595" lon="8.041531313255799" id="-23882">
		<tag k="name" v="Grydalen" />
		<tag k="place" v="locality" />
		<tag k="ssr:stedsnr" v="3986" />
	</node>
	<node lat="59.89073333522023" lon="7.512355559542641" id="-23883">
		<tag k="fixme" v="consider natural=peak for the most distinct mountains in the district" />
		<tag k="name" v="Berunuten, vesle" />
		<tag k="natural" v="hill" />
		<tag k="place" v="locality" />
		<tag k="ssr:stedsnr" v="3988" />
	</node>
	<node lat="59.62470277468523" lon="8.01486666538214" id="-23884">
		<tag k="name" v="Knatten" />
		<tag k="place" v="isolated_dwelling" />
		<tag k="ssr:stedsnr" v="3990" />
	</node>
	<node lat="59.614036111774254" lon="7.842674995688431" id="-23885">
		<tag k="name" v="Neset" />
		<tag k="natural" v="cape" />
		<tag k="ssr:stedsnr" v="4103" />
	</node>
	<node lat="59.62413888525701" lon="8.071458327288376" id="-23886">
		<tag k="alt_name" v="Svartetjørn" />
		<tag k="name" v="Svartetjønn" />
		<tag k="natural" v="water" />
		<tag k="ssr:stedsnr" v="4105" />
	</node>
	<node lat="59.61136814657923" lon="8.053801692267381" id="-23887">
		<tag k="name" v="Skålen" />
		<tag k="place" v="locality" />
		<tag k="ssr:stedsnr" v="3874" />
	</node>
	<node lat="59.95054444854008" lon="7.378091659706538" id="-23888">
		<tag k="fixme" v="consider natural=peak for the most distinct mountains in the district" />
		<tag k="name" v="Urdeggi" />
		<tag k="natural" v="hill" />
		<tag k="place" v="locality" />
		<tag k="ssr:stedsnr" v="3882" />
	</node>
	<node lat="59.60139722173329" lon="8.055697220592334" id="-23889">
		<tag k="alt_name" v="Mærstøltjørn;Merdstøyltjørni" />
		<tag k="name" v="Mærstøyltjønn" />
		<tag k="natural" v="water" />
		<tag k="ssr:stedsnr" v="3888" />
	</node>
	<node lat="59.937461107499296" lon="7.640608325217485" id="-23890">
		<tag k="name" v="Raudåi" />
		<tag k="ssr:stedsnr" v="3890" />
		<tag k="waterway" v="river" />
	</node>
	<node lat="59.75661944666601" lon="8.146936115142212" id="-23891">
		<tag k="name" v="Flotubu" />
		<tag k="place" v="farm" />
		<tag k="ssr:stedsnr" v="4087" />
	</node>
	<node lat="60.037038890621034" lon="7.984788893798665" id="-23892">
		<tag k="loc_name" v="Torstjønn" />
		<tag k="name" v="Torstjønni" />
		<tag k="natural" v="water" />
		<tag k="ssr:stedsnr" v="4515" />
	</node>
	<node lat="60.04868610879989" lon="7.897524992938301" id="-23893">
		<tag k="fixme" v="consider natural=peak for the most distinct mountains in the district" />
		<tag k="name" v="Skriudalseggi" />
		<tag k="natural" v="hill" />
		<tag k="place" v="locality" />
		<tag k="ssr:stedsnr" v="4517" />
	</node>
	<node lat="59.785711106858756" lon="7.628530549235104" id="-23894">
		<tag k="name" v="Fjelltjønn" />
		<tag k="natural" v="water" />
		<tag k="ssr:stedsnr" v="4518" />
	</node>
	<node lat="59.78708888892594" lon="7.662402782367105" id="-23895">
		<tag k="alt_name" v="Årdalen" />
		<tag k="historic" v="shieling" />
		<tag k="name" v="Årdalen, s" />
		<tag k="place" v="isolated_dwelling" />
		<tag k="ssr:stedsnr" v="4521" />
	</node>
	<node lat="59.7837166677116" lon="7.379355563089748" id="-23896">
		<tag k="alt_name" v="Ufornuten" />
		<tag k="fixme" v="consider natural=peak for the most distinct mountains in the district" />
		<tag k="name" v="Uførenuten" />
		<tag k="natural" v="hill" />
		<tag k="place" v="locality" />
		<tag k="ssr:stedsnr" v="4529" />
	</node>
	<node lat="59.78852222033055" lon="7.641144442016004" id="-23897">
		<tag k="fixme" v="consider natural=peak for the most distinct mountains in the district" />
		<tag k="name" v="Tverrfjellet" />
		<tag k="natural" v="hill" />
		<tag k="place" v="locality" />
		<tag k="ssr:stedsnr" v="4532" />
	</node>
	<node lat="59.79150555240921" lon="7.582563893112382" id="-23898">
		<tag k="name" v="Hågehaug" />
		<tag k="natural" v="hill" />
		<tag k="place" v="locality" />
		<tag k="ssr:stedsnr" v="4533" />
	</node>
	<node lat="59.79689166807362" lon="7.347775006975892" id="-23899">
		<tag k="fixme" v="consider natural=peak for the most distinct mountains in the district" />
		<tag k="name" v="Vågsliheii" />
		<tag k="natural" v="hill" />
		<tag k="place" v="locality" />
		<tag k="ssr:stedsnr" v="4545" />
	</node>
	<node lat="59.81076944421472" lon="7.644808336109867" id="-23900">
		<tag k="fixme" v="consider natural=peak for the most distinct mountains in the district" />
		<tag k="name" v="Ruvlenut" />
		<tag k="natural" v="hill" />
		<tag k="place" v="locality" />
		<tag k="ssr:stedsnr" v="4550" />
	</node>
	<node lat="59.963683333134384" lon="7.845886117461835" id="-23901">
		<tag k="alt_name" v="Vasstjørnflotti" />
		<tag k="name" v="Vasstjønnflotti" />
		<tag k="natural" v="slope" />
		<tag k="place" v="locality" />
		<tag k="ssr:stedsnr" v="4555" />
	</node>
	<node lat="59.95685833759649" lon="7.896277776124129" id="-23902">
		<tag k="alt_name" v="Vatndalstjørnane" />
		<tag k="name" v="Vatndalstjønnane" />
		<tag k="natural" v="water" />
		<tag k="ssr:stedsnr" v="4559" />
		<tag k="water" v="lake" />
	</node>
	<node lat="59.867136113648954" lon="8.16439444177491" id="-23903">
		<tag k="name" v="Kolbotn" />
		<tag k="place" v="isolated_dwelling" />
		<tag k="ssr:stedsnr" v="4466" />
	</node>
	<node lat="59.86700278068986" lon="8.137752773761862" id="-23904">
		<tag k="name" v="Sandøyan" />
		<tag k="place" v="island" />
		<tag k="ssr:stedsnr" v="4468" />
	</node>
	<node lat="59.890672226243645" lon="7.483155561755102" id="-23905">
		<tag k="name" v="Hola" />
		<tag k="place" v="isolated_dwelling" />
		<tag k="ssr:stedsnr" v="4602" />
	</node>
	<node lat="60.078822218431974" lon="7.766247221317685" id="-23906">
		<tag k="name" v="Gisletjønnbekken" />
		<tag k="ssr:stedsnr" v="4612" />
		<tag k="waterway" v="stream" />
	</node>
	<node lat="59.96847778176611" lon="7.961700000957645" id="-23907">
		<tag k="name" v="Mortålii" />
		<tag k="natural" v="slope" />
		<tag k="place" v="locality" />
		<tag k="ssr:stedsnr" v="4677" />
	</node>
	<node lat="59.94770277479034" lon="8.062241658118309" id="-23908">
		<tag k="name" v="Løyningbekken" />
		<tag k="ssr:stedsnr" v="4682" />
		<tag k="waterway" v="stream" />
	</node>
	<node lat="59.83650833040602" lon="7.957230560456281" id="-23909">
		<tag k="name" v="Vesle Kråmdalen" />
		<tag k="natural" v="valley" />
		<tag k="place" v="locality" />
		<tag k="ssr:stedsnr" v="4710" />
	</node>
	<node lat="59.84196526449942" lon="8.00152169569024" id="-23910">
		<tag k="name" v="Tippetjønnslega" />
		<tag k="place" v="locality" />
		<tag k="ssr:stedsnr" v="4711" />
	</node>
	<node lat="59.865883330711455" lon="7.747338897214508" id="-23911">
		<tag k="fixme" v="consider natural=peak for the most distinct mountains in the district" />
		<tag k="name" v="Stoleggi" />
		<tag k="natural" v="hill" />
		<tag k="place" v="locality" />
		<tag k="ssr:stedsnr" v="4767" />
	</node>
	<node lat="60.01962222578942" lon="7.873427768750801" id="-23912">
		<tag k="fixme" v="consider place=hamlet" />
		<tag k="name" v="Argehovd" />
		<tag k="place" v="farm" />
		<tag k="ssr:stedsnr" v="5479" />
	</node>
	<node lat="60.00472777624677" lon="7.917974999036199" id="-23913">
		<tag k="fixme" v="consider natural=peak for the most distinct mountains in the district" />
		<tag k="loc_name" v="Gurpestigoksli" />
		<tag k="name" v="Gurpestigaksli" />
		<tag k="natural" v="hill" />
		<tag k="place" v="locality" />
		<tag k="ssr:stedsnr" v="5522" />
	</node>
	<node lat="60.0146249959618" lon="7.487561118209122" id="-23914">
		<tag k="fixme" v="consider natural=peak for the most distinct mountains in the district" />
		<tag k="name" v="Falkenuten" />
		<tag k="natural" v="hill" />
		<tag k="place" v="locality" />
		<tag k="ssr:stedsnr" v="5659" />
	</node>
	<node lat="59.74601110896355" lon="7.579294436215917" id="-23915">
		<tag k="historic" v="shieling" />
		<tag k="name" v="Kleivedalen" />
		<tag k="place" v="isolated_dwelling" />
		<tag k="ssr:stedsnr" v="231147" />
	</node>
	<node lat="59.761791666686364" lon="7.49211111136054" id="-23916">
		<tag k="historic" v="shieling" />
		<tag k="name" v="Breidalen" />
		<tag k="place" v="isolated_dwelling" />
		<tag k="ssr:stedsnr" v="231467" />
	</node>
	<node lat="59.74157499829878" lon="7.603888885758919" id="-23917">
		<tag k="name" v="Uppigard" />
		<tag k="place" v="farm" />
		<tag k="ssr:stedsnr" v="231619" />
	</node>
	<node lat="59.648597226621725" lon="7.563144452247241" id="-23918">
		<tag k="name" v="Slavehytta" />
		<tag k="place" v="locality" />
		<tag k="ssr:stedsnr" v="231814" />
	</node>
	<node lat="59.566441663657244" lon="8.162063888345287" id="-23919">
		<tag k="name" v="Hakksteinbekken" />
		<tag k="ssr:stedsnr" v="231966" />
		<tag k="waterway" v="stream" />
	</node>
	<node lat="59.74446944540041" lon="7.6400138869044" id="-23920">
		<tag k="historic" v="shieling" />
		<tag k="name" v="Finnebu" />
		<tag k="place" v="isolated_dwelling" />
		<tag k="ssr:stedsnr" v="232050" />
	</node>
	<node lat="59.71966666658144" lon="7.665394444837457" id="-23921">
		<tag k="name" v="Granastøyljuvet" />
		<tag k="natural" v="gorge" />
		<tag k="ssr:stedsnr" v="232315" />
	</node>
	<node lat="59.718900003704725" lon="7.658622226002392" id="-23922">
		<tag k="name" v="Nonuten" />
		<tag k="natural" v="hill" />
		<tag k="place" v="locality" />
		<tag k="ssr:stedsnr" v="232317" />
	</node>
	<node lat="59.69751944018924" lon="7.538036114686128" id="-23923">
		<tag k="name" v="Suledalen" />
		<tag k="natural" v="valley" />
		<tag k="place" v="locality" />
		<tag k="ssr:stedsnr" v="232370" />
	</node>
	<node lat="59.69715832970231" lon="7.603969438690775" id="-23924">
		<tag k="name" v="Vesle Strånddalen" />
		<tag k="natural" v="valley" />
		<tag k="place" v="locality" />
		<tag k="ssr:stedsnr" v="232416" />
	</node>
	<node lat="59.77975277745061" lon="7.532311105740233" id="-23925">
		<tag k="name" v="Gisløysdalen" />
		<tag k="natural" v="valley" />
		<tag k="place" v="locality" />
		<tag k="ssr:stedsnr" v="232559" />
	</node>
	<node lat="60.08543888800927" lon="7.5658500059501534" id="-23926">
		<tag k="name" v="Sigmundtjønn" />
		<tag k="natural" v="water" />
		<tag k="ssr:stedsnr" v="21497" />
	</node>
	<node lat="59.695355555776736" lon="7.729758327263402" id="-23927">
		<tag k="alt_name" v="Aslaugskard" />
		<tag k="name" v="Aslaugskar" />
		<tag k="natural" v="valley" />
		<tag k="place" v="locality" />
		<tag k="ssr:stedsnr" v="28031" />
	</node>
	<node lat="59.70295555956203" lon="7.713436114804341" id="-23928">
		<tag k="name" v="Piggnuten" />
		<tag k="natural" v="hill" />
		<tag k="place" v="locality" />
		<tag k="ssr:stedsnr" v="28068" />
	</node>
	<node lat="59.61013332934334" lon="7.802191663988071" id="-23929">
		<tag k="name" v="Øykteliåsen" />
		<tag k="natural" v="hill" />
		<tag k="place" v="locality" />
		<tag k="ssr:stedsnr" v="28078" />
	</node>
	<node lat="59.66530000446875" lon="7.800125005065677" id="-23930">
		<tag k="name" v="Brattenos" />
		<tag k="natural" v="ridge" />
		<tag k="place" v="locality" />
		<tag k="ssr:stedsnr" v="28101" />
	</node>
	<node lat="59.714577777537194" lon="7.856013886817476" id="-23931">
		<tag k="alt_name" v="Hamrane" />
		<tag k="name" v="Lytingshamaren" />
		<tag k="natural" v="hill" />
		<tag k="place" v="locality" />
		<tag k="ssr:stedsnr" v="28104" />
	</node>
	<node lat="59.67331666842046" lon="7.908641663802901" id="-23932">
		<tag k="historic" v="shieling" />
		<tag k="name" v="Kvæven" />
		<tag k="place" v="locality" />
		<tag k="ssr:stedsnr" v="28319" />
	</node>
	<node lat="59.68589166280709" lon="7.826541658759401" id="-23933">
		<tag k="historic" v="shieling" />
		<tag k="name" v="Låvedalen" />
		<tag k="place" v="locality" />
		<tag k="ssr:stedsnr" v="28288" />
	</node>
	<node lat="59.56402222446118" lon="7.884891669863838" id="-23934">
		<tag k="historic" v="shieling" />
		<tag k="name" v="Murteroi" />
		<tag k="place" v="locality" />
		<tag k="ssr:stedsnr" v="28420" />
	</node>
	<node lat="59.69085000388356" lon="7.79597777391307" id="-23935">
		<tag k="name" v="Gregarsholune" />
		<tag k="natural" v="slope" />
		<tag k="place" v="locality" />
		<tag k="ssr:stedsnr" v="28521" />
	</node>
	<node lat="59.5880805548623" lon="7.991908327166883" id="-23936">
		<tag k="name" v="Harkjellmyr" />
		<tag k="natural" v="wetland" />
		<tag k="ssr:stedsnr" v="28713" />
	</node>
	<node lat="59.579863891166845" lon="7.986144440927197" id="-23937">
		<tag k="name" v="Midtbø, nordistog" />
		<tag k="place" v="farm" />
		<tag k="ssr:stedsnr" v="28716" />
	</node>
	<node lat="59.52805555154021" lon="7.97387777764149" id="-23938">
		<tag k="name" v="Jønnbekkriset" />
		<tag k="natural" v="hill" />
		<tag k="place" v="locality" />
		<tag k="ssr:stedsnr" v="28668" />
	</node>
	<node lat="59.50871388735557" lon="7.972783324801471" id="-23939">
		<tag k="name" v="Kjella" />
		<tag k="natural" v="slope" />
		<tag k="place" v="locality" />
		<tag k="ssr:stedsnr" v="28672" />
	</node>
	<node lat="59.52132499591253" lon="7.9795583293750445" id="-23940">
		<tag k="name" v="Snipekleiv" />
		<tag k="natural" v="slope" />
		<tag k="place" v="locality" />
		<tag k="ssr:stedsnr" v="28678" />
	</node>
	<node lat="59.51795000103209" lon="7.9439972241523815" id="-23941">
		<tag k="name" v="Koddesæhaugen" />
		<tag k="natural" v="hill" />
		<tag k="place" v="locality" />
		<tag k="ssr:stedsnr" v="28802" />
	</node>
	<node lat="59.498169441662334" lon="7.96839999209829" id="-23942">
		<tag k="name" v="Maurehaugen" />
		<tag k="place" v="farm" />
		<tag k="ssr:stedsnr" v="28769" />
	</node>
	<node lat="59.50626944750314" lon="7.974330549535789" id="-23943">
		<tag k="name" v="Nedsteli" />
		<tag k="natural" v="slope" />
		<tag k="place" v="locality" />
		<tag k="ssr:stedsnr" v="28770" />
	</node>
	<node lat="59.59088055323549" lon="8.060622228965233" id="-23944">
		<tag k="name" v="Vermoltjønni" />
		<tag k="natural" v="water" />
		<tag k="ssr:stedsnr" v="28976" />
	</node>
	<node lat="59.58623333178175" lon="8.080738892370768" id="-23945">
		<tag k="name" v="Trogadalen" />
		<tag k="natural" v="valley" />
		<tag k="place" v="locality" />
		<tag k="ssr:stedsnr" v="28980" />
	</node>
	<node lat="59.63122221866958" lon="8.075283342015524" id="-23946">
		<tag k="fixme" v="consider natural=peak for the most distinct mountains in the district" />
		<tag k="name" v="Kyrkjenuten" />
		<tag k="natural" v="hill" />
		<tag k="place" v="locality" />
		<tag k="ssr:stedsnr" v="28990" />
	</node>
	<node lat="59.783811113863756" lon="7.663702775420098" id="-23947">
		<tag k="fixme" v="consider natural=peak for the most distinct mountains in the district" />
		<tag k="name" v="Oksli" />
		<tag k="natural" v="hill" />
		<tag k="place" v="locality" />
		<tag k="ssr:stedsnr" v="31210" />
	</node>
	<node lat="59.64039790136969" lon="8.210369282727578" id="-23948">
		<tag k="name" v="Bakkanjuvet" />
		<tag k="natural" v="gorge" />
		<tag k="ssr:stedsnr" v="31411" />
	</node>
	<node lat="59.68292351612457" lon="8.116030372351426" id="-23949">
		<tag k="name" v="Hamarsnesodden" />
		<tag k="natural" v="cape" />
		<tag k="ssr:stedsnr" v="31507" />
	</node>
	<node lat="59.70017372086545" lon="8.116245489146456" id="-23950">
		<tag k="name" v="Kjelingjuv" />
		<tag k="natural" v="gorge" />
		<tag k="ssr:stedsnr" v="31515" />
	</node>
	<node lat="59.735022218216464" lon="7.822327779257825" id="-23951">
		<tag k="name" v="Svindsbekkvikje" />
		<tag k="natural" v="bay" />
		<tag k="ssr:stedsnr" v="31570" />
	</node>
	<node lat="59.68606998569066" lon="8.207031724980718" id="-23952">
		<tag k="alt_name" v="Grostøltjønni" />
		<tag k="loc_name" v="Grostaultjønn" />
		<tag k="name" v="Grostøyltjønni" />
		<tag k="natural" v="water" />
		<tag k="ssr:stedsnr" v="31708" />
	</node>
	<node lat="59.84296944820303" lon="8.156902775051833" id="-23953">
		<tag k="name" v="Kophaugbukti" />
		<tag k="natural" v="bay" />
		<tag k="ssr:stedsnr" v="31715" />
	</node>
	<node lat="59.74774999573901" lon="8.089174995012923" id="-23954">
		<tag k="name" v="Gråtarmyri" />
		<tag k="natural" v="wetland" />
		<tag k="ssr:stedsnr" v="31721" />
	</node>
	<node lat="59.70486806536522" lon="8.117928480477383" id="-23955">
		<tag k="historic" v="shieling" />
		<tag k="name" v="Fitevad" />
		<tag k="place" v="isolated_dwelling" />
		<tag k="ssr:stedsnr" v="31665" />
	</node>
	<node lat="59.72200620416494" lon="8.106233739770936" id="-23956">
		<tag k="name" v="Løyning" />
		<tag k="place" v="locality" />
		<tag k="ssr:stedsnr" v="31670" />
	</node>
	<node lat="59.75957327353358" lon="7.845060932487199" id="-23957">
		<tag k="name" v="Kåvetekkja" />
		<tag k="place" v="locality" />
		<tag k="ssr:stedsnr" v="31682" />
	</node>
	<node lat="59.66932830810171" lon="8.192176967261334" id="-23958">
		<tag k="name" v="Kroi" />
		<tag k="place" v="isolated_dwelling" />
		<tag k="ssr:stedsnr" v="31805" />
	</node>
	<node lat="59.68997777501789" lon="8.021758333422298" id="-23959">
		<tag k="name" v="Bliksnesoddane" />
		<tag k="natural" v="cape" />
		<tag k="ssr:stedsnr" v="31819" />
	</node>
	<node lat="59.604880554762794" lon="8.204327772034658" id="-23960">
		<tag k="fixme" v="consider natural=peak for the most distinct mountains in the district" />
		<tag k="name" v="Bjordalshovet" />
		<tag k="natural" v="hill" />
		<tag k="place" v="locality" />
		<tag k="ssr:stedsnr" v="31921" />
	</node>
	<node lat="59.72898889338097" lon="8.136541672213758" id="-23961">
		<tag k="loc_name" v="Listaul" />
		<tag k="name" v="Listøl" />
		<tag k="place" v="isolated_dwelling" />
		<tag k="ssr:stedsnr" v="32106" />
	</node>
	<node lat="59.80334444303493" lon="7.704149992777964" id="-23962">
		<tag k="name" v="Øvre Damtjønn" />
		<tag k="natural" v="water" />
		<tag k="ssr:stedsnr" v="32011" />
	</node>
	<node lat="59.65617777843058" lon="7.992505561519071" id="-23963">
		<tag k="name" v="Skrivarhylen" />
		<tag k="place" v="locality" />
		<tag k="ssr:stedsnr" v="32012" />
	</node>
	<node lat="59.657316669155385" lon="8.013175001695386" id="-23964">
		<tag k="name" v="Tråtjønnmyrane" />
		<tag k="natural" v="wetland" />
		<tag k="ssr:stedsnr" v="32016" />
	</node>
	<node lat="59.799650003861395" lon="7.795613890647861" id="-23965">
		<tag k="name" v="Rjupedalstjønn" />
		<tag k="natural" v="water" />
		<tag k="ssr:stedsnr" v="32017" />
	</node>
	<node lat="59.822297224147036" lon="8.110450000352225" id="-23966">
		<tag k="name" v="Dragarfjordan" />
		<tag k="natural" v="water" />
		<tag k="ssr:stedsnr" v="32672" />
	</node>
	<node lat="59.67783611332957" lon="8.059947228203722" id="-23967">
		<tag k="name" v="Troddetjønnbekken" />
		<tag k="ssr:stedsnr" v="32875" />
		<tag k="waterway" v="stream" />
	</node>
	<node lat="59.70347221818757" lon="8.032944435852167" id="-23968">
		<tag k="name" v="Nigard" />
		<tag k="place" v="farm" />
		<tag k="ssr:stedsnr" v="32910" />
	</node>
	<node lat="59.79256111456944" lon="7.336630547948185" id="-23969">
		<tag k="historic" v="shieling" />
		<tag k="name" v="Tyrvelii" />
		<tag k="place" v="locality" />
		<tag k="ssr:stedsnr" v="238483" />
	</node>
	<node lat="59.77569444240925" lon="7.390763890811534" id="-23970">
		<tag k="name" v="Dikekvæven" />
		<tag k="natural" v="valley" />
		<tag k="place" v="locality" />
		<tag k="ssr:stedsnr" v="238058" />
	</node>
	<node lat="59.667424997963984" lon="8.060105548438145" id="-23971">
		<tag k="bridge" v="yes" />
		<tag k="layer" v="1" />
		<tag k="name" v="Tanselv" />
		<tag k="ssr:stedsnr" v="46406" />
	</node>
	<node lat="59.56963333061663" lon="8.184230557878173" id="-23972">
		<tag k="bridge" v="yes" />
		<tag k="layer" v="1" />
		<tag k="name" v="Storå" />
		<tag k="ssr:stedsnr" v="46408" />
	</node>
	<node lat="59.788013892293485" lon="7.255030554257773" id="-23973">
		<tag k="name" v="Sandviktjønni" />
		<tag k="natural" v="water" />
		<tag k="ssr:stedsnr" v="238218" />
	</node>
	<node lat="59.78962500016606" lon="7.4785055495912305" id="-23974">
		<tag k="name" v="Sløymune" />
		<tag k="natural" v="water" />
		<tag k="ssr:stedsnr" v="238644" />
		<tag k="water" v="lake" />
	</node>
	<node lat="59.56610277595798" lon="8.159111113040032" id="-23975">
		<tag k="fixme" v="consider natural=peak for the most distinct mountains in the district" />
		<tag k="name" v="Skolås Hermodshov" />
		<tag k="natural" v="hill" />
		<tag k="place" v="locality" />
		<tag k="ssr:stedsnr" v="49968" />
	</node>
	<node lat="59.68377777455487" lon="7.547650007973781" id="-23976">
		<tag k="name" v="Finnane" />
		<tag k="natural" v="wetland" />
		<tag k="ssr:stedsnr" v="50378" />
	</node>
	<node lat="59.72055277904258" lon="7.6012000053809405" id="-23977">
		<tag k="name" v="Grånhyttekvæven" />
		<tag k="natural" v="valley" />
		<tag k="place" v="locality" />
		<tag k="ssr:stedsnr" v="50386" />
	</node>
	<node lat="59.72763055120832" lon="7.5974250009140425" id="-23978">
		<tag k="name" v="Grånlii" />
		<tag k="natural" v="slope" />
		<tag k="place" v="locality" />
		<tag k="ssr:stedsnr" v="50612" />
	</node>
	<node lat="59.7648694439071" lon="7.62371944393351" id="-23979">
		<tag k="name" v="Kyrkjestøylhaugen" />
		<tag k="natural" v="hill" />
		<tag k="place" v="locality" />
		<tag k="ssr:stedsnr" v="50771" />
	</node>
	<node lat="59.72783610711857" lon="7.475455547943532" id="-23980">
		<tag k="name" v="Flothyl nedre" />
		<tag k="place" v="farm" />
		<tag k="ssr:stedsnr" v="239247" />
	</node>
	<node lat="59.76251944377499" lon="7.509352780932402" id="-23981">
		<tag k="historic" v="shieling" />
		<tag k="name" v="Skarsli" />
		<tag k="place" v="locality" />
		<tag k="ssr:stedsnr" v="239320" />
	</node>
	<node lat="59.789172223203714" lon="7.251786104620744" id="-23983">
		<tag k="name" v="Sandvikneset" />
		<tag k="natural" v="cape" />
		<tag k="ssr:stedsnr" v="56207" />
	</node>
	<node lat="59.633447220038846" lon="8.06975000708309" id="-23984">
		<tag k="alt_name" v="Bekkjeskardtjørn" />
		<tag k="name" v="Rekkjeskartjønn" />
		<tag k="natural" v="water" />
		<tag k="ssr:stedsnr" v="56569" />
		<tag k="water" v="lake" />
	</node>
	<node lat="59.790430552112795" lon="7.261538892129599" id="-23985">
		<tag k="name" v="Sandviki" />
		<tag k="natural" v="bay" />
		<tag k="ssr:stedsnr" v="240093" />
	</node>
	<node lat="59.762041664132006" lon="7.507655562814856" id="-23986">
		<tag k="historic" v="shieling" />
		<tag k="name" v="Torilldalen" />
		<tag k="place" v="locality" />
		<tag k="ssr:stedsnr" v="57302" />
	</node>
	<node lat="59.75716111096157" lon="7.4803305595107865" id="-23987">
		<tag k="name" v="Måketjønn-nuten" />
		<tag k="natural" v="hill" />
		<tag k="place" v="locality" />
		<tag k="ssr:stedsnr" v="57304" />
	</node>
	<node lat="59.78464166370332" lon="7.330788889728219" id="-23988">
		<tag k="historic" v="shieling" />
		<tag k="name" v="Stuvestøyl" />
		<tag k="place" v="isolated_dwelling" />
		<tag k="ssr:stedsnr" v="240024" />
	</node>
	<node lat="59.78030833664031" lon="7.261877770078148" id="-23989">
		<tag k="name" v="Kvanngrøvollen" />
		<tag k="place" v="locality" />
		<tag k="ssr:stedsnr" v="58881" />
	</node>
	<node lat="59.78275833205501" lon="7.295877775295246" id="-23990">
		<tag k="historic" v="shieling" />
		<tag k="name" v="Løyning" />
		<tag k="place" v="isolated_dwelling" />
		<tag k="ssr:stedsnr" v="58885" />
	</node>
	<node lat="59.56374999692996" lon="7.9460555593074975" id="-23991">
		<tag k="alt_name" v="Brastøyl" />
		<tag k="historic" v="shieling" />
		<tag k="name" v="Brattstøyl" />
		<tag k="old_name" v="Brattstøl" />
		<tag k="place" v="isolated_dwelling" />
		<tag k="ssr:stedsnr" v="63119" />
	</node>
	<node lat="59.56641666489815" lon="7.998977769382919" id="-23992">
		<tag k="name" v="Åmothylen" />
		<tag k="place" v="locality" />
		<tag k="ssr:stedsnr" v="63123" />
	</node>
	<node lat="59.74283333748995" lon="8.196527774089514" id="-23993">
		<tag k="historic" v="shieling" />
		<tag k="name" v="Heimvegli" />
		<tag k="place" v="isolated_dwelling" />
		<tag k="ssr:stedsnr" v="63263" />
	</node>
	<node lat="59.59864722611851" lon="8.118841672047562" id="-23994">
		<tag k="alt_name" v="Grønufstjørn" />
		<tag k="name" v="Grønufstjønn" />
		<tag k="natural" v="water" />
		<tag k="ssr:stedsnr" v="63269" />
	</node>
	<node lat="59.773286113882115" lon="7.382077780260423" id="-23995">
		<tag k="name" v="Fjøllehalsen" />
		<tag k="natural" v="ridge" />
		<tag k="place" v="locality" />
		<tag k="ssr:stedsnr" v="63323" />
	</node>
	<node lat="59.73854154548675" lon="7.483652806390699" id="-23996">
		<tag k="alt_name" v="Lomstjørnane" />
		<tag k="name" v="Lomstjønnane" />
		<tag k="natural" v="water" />
		<tag k="ssr:stedsnr" v="63377" />
	</node>
	<node lat="59.705400002168275" lon="8.059419438830064" id="-23997">
		<tag k="alt_name" v="Juvland nordre" />
		<tag k="fixme" v="consider place=hamlet" />
		<tag k="name" v="Gjuvland" />
		<tag k="place" v="farm" />
		<tag k="ssr:stedsnr" v="63819" />
	</node>
	<node lat="59.66193610760778" lon="7.934633333411633" id="-23998">
		<tag k="alt_name" v="Øyvåaslid-Trogadalane" />
		<tag k="name" v="Trogadalane" />
		<tag k="natural" v="valley" />
		<tag k="place" v="locality" />
		<tag k="ssr:stedsnr" v="63767" />
	</node>
	<node lat="59.56637222410816" lon="7.868719438197055" id="-23999">
		<tag k="alt_name" v="Vingeråsvatnet" />
		<tag k="name" v="Vingeråsvatn" />
		<tag k="natural" v="water" />
		<tag k="ssr:stedsnr" v="64103" />
		<tag k="water" v="lake" />
	</node>
	<node lat="59.57131110956002" lon="7.88967222331062" id="-24000">
		<tag k="historic" v="shieling" />
		<tag k="name" v="Engeskrøyv" />
		<tag k="old_name" v="Engesgrov" />
		<tag k="place" v="isolated_dwelling" />
		<tag k="ssr:stedsnr" v="64106" />
	</node>
	<node lat="59.689743053270185" lon="8.232204611838805" id="-24001">
		<tag k="alt_name" v="Austerstaul;Østrestøl" />
		<tag k="historic" v="shieling" />
		<tag k="name" v="Austerstøyl" />
		<tag k="place" v="isolated_dwelling" />
		<tag k="ssr:stedsnr" v="64142" />
	</node>
	<node lat="59.68384728637121" lon="8.175961135036781" id="-24002">
		<tag k="alt_name" v="Nystøl" />
		<tag k="historic" v="shieling" />
		<tag k="name" v="Nystaul" />
		<tag k="place" v="isolated_dwelling" />
		<tag k="ssr:stedsnr" v="64153" />
	</node>
	<node lat="59.687177780162386" lon="8.20791943971341" id="-24003">
		<tag k="alt_name" v="Grostøl;Grostaul" />
		<tag k="historic" v="shieling" />
		<tag k="name" v="Grostøyl" />
		<tag k="place" v="isolated_dwelling" />
		<tag k="ssr:stedsnr" v="64154" />
	</node>
	<node lat="59.69053610661826" lon="8.103338884113237" id="-24004">
		<tag k="name" v="Bøen" />
		<tag k="place" v="farm" />
		<tag k="ssr:stedsnr" v="64161" />
	</node>
	<node lat="59.51862777612878" lon="7.939052783614115" id="-24005">
		<tag k="historic" v="shieling" />
		<tag k="name" v="Furustøyl" />
		<tag k="old_name" v="Furustøl" />
		<tag k="place" v="isolated_dwelling" />
		<tag k="ssr:stedsnr" v="64016" />
	</node>
	<node lat="59.78354166896344" lon="8.163227776729752" id="-24006">
		<tag k="name" v="Sandhaug" />
		<tag k="place" v="locality" />
		<tag k="ssr:stedsnr" v="64071" />
	</node>
	<node lat="59.54923055447535" lon="7.92029166895359" id="-24007">
		<tag k="name" v="Bakken" />
		<tag k="place" v="farm" />
		<tag k="ssr:stedsnr" v="64072" />
	</node>
	<node lat="59.78476666914934" lon="8.29268888499322" id="-24008">
		<tag k="alt_name" v="Sveivetjørn" />
		<tag k="name" v="Sveivetjønn" />
		<tag k="natural" v="water" />
		<tag k="ssr:stedsnr" v="64076" />
	</node>
	<node lat="59.65587499606042" lon="8.195188882004397" id="-24009">
		<tag k="alt_name" v="Stavatjørn" />
		<tag k="name" v="Stavatjønn" />
		<tag k="natural" v="water" />
		<tag k="ssr:stedsnr" v="64366" />
	</node>
	<node lat="59.663022223172774" lon="7.692791658766625" id="-24010">
		<tag k="name" v="Fitjevasstøylen" />
		<tag k="old_name" v="Fitjevasstølen" />
		<tag k="place" v="locality" />
		<tag k="ssr:stedsnr" v="64503" />
	</node>
	<node lat="59.65871111238782" lon="7.599000006221283" id="-24011">
		<tag k="name" v="Den lange halli" />
		<tag k="natural" v="slope" />
		<tag k="place" v="locality" />
		<tag k="ssr:stedsnr" v="64508" />
	</node>
	<node lat="59.66334166543609" lon="7.454027779919624" id="-24012">
		<tag k="historic" v="shieling" />
		<tag k="name" v="Kvikkevollen" />
		<tag k="place" v="isolated_dwelling" />
		<tag k="ssr:stedsnr" v="64516" />
	</node>
	<node lat="59.66714166421981" lon="7.4678777855584215" id="-24013">
		<tag k="name" v="Benken" />
		<tag k="natural" v="hill" />
		<tag k="place" v="locality" />
		<tag k="ssr:stedsnr" v="64521" />
	</node>
	<node lat="59.66715555945641" lon="7.351233327698061" id="-24014">
		<tag k="name" v="Benkjedalen" />
		<tag k="natural" v="valley" />
		<tag k="place" v="locality" />
		<tag k="ssr:stedsnr" v="64524" />
	</node>
	<node lat="59.62665277454782" lon="7.595244439884862" id="-24015">
		<tag k="fixme" v="consider natural=peak for the most distinct mountains in the district" />
		<tag k="name" v="Rassteinnutane" />
		<tag k="natural" v="hill" />
		<tag k="place" v="locality" />
		<tag k="ssr:stedsnr" v="64531" />
	</node>
	<node lat="59.79666388587465" lon="7.534744444552684" id="-24016">
		<tag k="historic" v="shieling" />
		<tag k="name" v="Veadalen" />
		<tag k="place" v="isolated_dwelling" />
		<tag k="ssr:stedsnr" v="64535" />
	</node>
	<node lat="59.630052775499415" lon="7.644277786459081" id="-24017">
		<tag k="name" v="Steinsbu" />
		<tag k="place" v="isolated_dwelling" />
		<tag k="ssr:stedsnr" v="64536" />
	</node>
	<node lat="59.78818888900925" lon="7.494952780232046" id="-24018">
		<tag k="historic" v="shieling" />
		<tag k="name" v="Videmo" />
		<tag k="place" v="isolated_dwelling" />
		<tag k="ssr:stedsnr" v="64537" />
	</node>
	<node lat="59.80792500256574" lon="7.533286102652939" id="-24019">
		<tag k="fixme" v="consider natural=peak for the most distinct mountains in the district" />
		<tag k="name" v="Kaldebekknuten" />
		<tag k="natural" v="hill" />
		<tag k="place" v="locality" />
		<tag k="ssr:stedsnr" v="64544" />
	</node>
	<node lat="59.63859999586159" lon="7.3817638959663965" id="-24020">
		<tag k="fixme" v="consider natural=peak for the most distinct mountains in the district" />
		<tag k="name" v="Mosanibba" />
		<tag k="natural" v="hill" />
		<tag k="place" v="locality" />
		<tag k="ssr:stedsnr" v="64549" />
	</node>
	<node lat="59.58969722162438" lon="8.106041675508953" id="-24021">
		<tag k="alt_name" v="Trælemotjørn, øvre" />
		<tag k="name" v="Øvre Trælemotjønn" />
		<tag k="natural" v="water" />
		<tag k="ssr:stedsnr" v="64265" />
	</node>
	<node lat="59.59688333307226" lon="8.267408335580134" id="-24022">
		<tag k="alt_name" v="Stabben" />
		<tag k="fixme" v="consider natural=peak for the most distinct mountains in the district" />
		<tag k="name" v="Stabbenuten" />
		<tag k="natural" v="hill" />
		<tag k="place" v="locality" />
		<tag k="ssr:stedsnr" v="64467" />
	</node>
	<node lat="59.60440833105771" lon="7.636361104603106" id="-24023">
		<tag k="fixme" v="consider natural=peak for the most distinct mountains in the district" />
		<tag k="name" v="Storemidtfjell" />
		<tag k="natural" v="hill" />
		<tag k="place" v="locality" />
		<tag k="ssr:stedsnr" v="64710" />
	</node>
	<node lat="59.62644999842564" lon="7.687174999608369" id="-24024">
		<tag k="alt_name" v="Supsavatn, midtre" />
		<tag k="name" v="Midtre Supsavatn" />
		<tag k="natural" v="water" />
		<tag k="ssr:stedsnr" v="64724" />
	</node>
	<node lat="59.680022220047185" lon="8.034080553842319" id="-24025">
		<tag k="name" v="Nordbø" />
		<tag k="place" v="farm" />
		<tag k="ssr:stedsnr" v="64762" />
	</node>
	<node lat="59.605583337752414" lon="7.898744442977684" id="-24026">
		<tag k="alt_name" v="Kose" />
		<tag k="name" v="Kåsi" />
		<tag k="place" v="farm" />
		<tag k="ssr:stedsnr" v="64902" />
	</node>
	<node lat="59.96120833029291" lon="7.62697500698698" id="-24027">
		<tag k="name" v="Sørenssteinen" />
		<tag k="place" v="locality" />
		<tag k="ssr:stedsnr" v="64904" />
	</node>
	<node lat="59.9296250002445" lon="7.6051472140157985" id="-24028">
		<tag k="alt_name" v="Ugletjønn" />
		<tag k="name" v="Ugletjønni" />
		<tag k="natural" v="water" />
		<tag k="ssr:stedsnr" v="64907" />
	</node>
	<node lat="59.60042777842006" lon="7.874358334800428" id="-24029">
		<tag k="alt_name" v="Storeholmen" />
		<tag k="name" v="Storholmen" />
		<tag k="place" v="islet" />
		<tag k="ssr:stedsnr" v="64916" />
	</node>
	<node lat="59.59595000335667" lon="7.9892083357549755" id="-24030">
		<tag k="name" v="Sveigen" />
		<tag k="place" v="locality" />
		<tag k="ssr:stedsnr" v="64922" />
	</node>
	<node lat="59.649422226339894" lon="7.944755556251068" id="-24031">
		<tag k="alt_name" v="Lomtjørn" />
		<tag k="name" v="Lomtjønn" />
		<tag k="natural" v="water" />
		<tag k="ssr:stedsnr" v="64807" />
	</node>
	<node lat="59.65492500035524" lon="8.066597215840805" id="-24032">
		<tag k="alt_name" v="Gamlestaul" />
		<tag k="historic" v="shieling" />
		<tag k="name" v="Gamlestøyl" />
		<tag k="old_name" v="Gamlestøl" />
		<tag k="place" v="isolated_dwelling" />
		<tag k="ssr:stedsnr" v="64808" />
	</node>
	<node lat="59.64202500386987" lon="7.833855550579957" id="-24033">
		<tag k="alt_name" v="Hermodtjørn" />
		<tag k="name" v="Hermodtjønn" />
		<tag k="natural" v="water" />
		<tag k="ssr:stedsnr" v="64817" />
	</node>
	<node lat="59.71336111398311" lon="7.818130555651217" id="-24034">
		<tag k="alt_name" v="Trodstøylnuten" />
		<tag k="fixme" v="consider natural=peak for the most distinct mountains in the district" />
		<tag k="name" v="Tråstøylnuten" />
		<tag k="natural" v="hill" />
		<tag k="old_name" v="Tråstølnut" />
		<tag k="place" v="locality" />
		<tag k="ssr:stedsnr" v="64826" />
	</node>
	<node lat="59.7160862047352" lon="8.081914013549165" id="-24035">
		<tag k="name" v="Skytja" />
		<tag k="old_name" v="Skykja" />
		<tag k="place" v="locality" />
		<tag k="ssr:stedsnr" v="64833" />
	</node>
	<node lat="59.70734444386015" lon="7.826391662853874" id="-24036">
		<tag k="name" v="Heggtveitgjuvet" />
		<tag k="natural" v="gorge" />
		<tag k="ssr:stedsnr" v="64838" />
	</node>
	<node lat="59.7081888887458" lon="7.910011112389868" id="-24037">
		<tag k="name" v="Dalen" />
		<tag k="place" v="farm" />
		<tag k="ssr:stedsnr" v="64853" />
	</node>
	<node lat="59.68428611480126" lon="8.029816664700292" id="-24038">
		<tag k="alt_name" v="Neslandsgrend" />
		<tag k="name" v="Nesland" />
		<tag k="place" v="hamlet" />
		<tag k="ssr:stedsnr" v="64877" />
	</node>
	<node lat="59.9008916687362" lon="7.510738886985531" id="-24039">
		<tag k="fixme" v="consider natural=peak for the most distinct mountains in the district" />
		<tag k="name" v="Rioshorn" />
		<tag k="natural" v="hill" />
		<tag k="place" v="locality" />
		<tag k="ssr:stedsnr" v="64978" />
	</node>
	<node lat="60.02296389328741" lon="7.890183325273426" id="-24040">
		<tag k="fixme" v="consider tourism=alpine_hut or tourism=chalet" />
		<tag k="name" v="Mogen" />
		<tag k="old_name" v="Mogen turisthotell" />
		<tag k="ssr:stedsnr" v="65499" />
		<tag k="tourism" v="wilderness_hut" />
	</node>
	<node lat="60.061269443686115" lon="7.638986106990533" id="-24041">
		<tag k="name" v="Tjønndalstjønnane" />
		<tag k="natural" v="water" />
		<tag k="ssr:stedsnr" v="65610" />
	</node>
	<node lat="60.08168055678263" lon="7.715800005558333" id="-24042">
		<tag k="name" v="Grunntjønn" />
		<tag k="natural" v="water" />
		<tag k="ssr:stedsnr" v="65627" />
	</node>
	<node lat="60.06872777487034" lon="7.716322223471558" id="-24043">
		<tag k="name" v="Mjågebu" />
		<tag k="place" v="locality" />
		<tag k="ssr:stedsnr" v="65629" />
	</node>
	<node lat="60.02551666842905" lon="7.8653305536620355" id="-24044">
		<tag k="fixme" v="consider natural=peak for the most distinct mountains in the district" />
		<tag k="name" v="Argehovd" />
		<tag k="natural" v="hill" />
		<tag k="place" v="locality" />
		<tag k="ssr:stedsnr" v="65502" />
	</node>
	<node lat="60.03786411622305" lon="7.867471660369341" id="-24045">
		<tag k="name" v="Løyning" />
		<tag k="place" v="locality" />
		<tag k="ssr:stedsnr" v="65507" />
	</node>
	<node lat="59.76988055712624" lon="7.435266661337068" id="-24046">
		<tag k="name" v="Teigen" />
		<tag k="place" v="farm" />
		<tag k="ssr:stedsnr" v="65508" />
	</node>
	<node lat="60.03590277430278" lon="7.891647225436379" id="-24047">
		<tag k="fixme" v="consider natural=peak for the most distinct mountains in the district" />
		<tag k="name" v="Hellegjuvnuten" />
		<tag k="natural" v="hill" />
		<tag k="place" v="locality" />
		<tag k="ssr:stedsnr" v="65509" />
	</node>
	<node lat="59.77056944524269" lon="7.380294436649301" id="-24048">
		<tag k="name" v="Nesheim" />
		<tag k="place" v="farm" />
		<tag k="ssr:stedsnr" v="65512" />
	</node>
	<node lat="59.78783610805038" lon="7.6280194476513445" id="-24049">
		<tag k="historic" v="shieling" />
		<tag k="name" v="Fjelltjønn" />
		<tag k="place" v="isolated_dwelling" />
		<tag k="ssr:stedsnr" v="65515" />
	</node>
	<node lat="59.780355555437225" lon="7.560486113151201" id="-24050">
		<tag k="alt_name" v="Trolletjønn" />
		<tag k="name" v="Troddetjønn" />
		<tag k="natural" v="water" />
		<tag k="ssr:stedsnr" v="65519" />
	</node>
	<node lat="59.78020555303624" lon="7.394774999418164" id="-24051">
		<tag k="alt_name" v="Råsenuten" />
		<tag k="fixme" v="consider natural=peak for the most distinct mountains in the district" />
		<tag k="name" v="Råsunuten" />
		<tag k="natural" v="hill" />
		<tag k="place" v="locality" />
		<tag k="ssr:stedsnr" v="65522" />
	</node>
	<node lat="59.860063884937205" lon="7.306286105110156" id="-24052">
		<tag k="alt_name" v="Drifteskard" />
		<tag k="name" v="Drifteskar" />
		<tag k="natural" v="valley" />
		<tag k="place" v="locality" />
		<tag k="ssr:stedsnr" v="65875" />
	</node>
	<node lat="59.889966664956695" lon="8.07260832647" id="-24053">
		<tag k="alt_name" v="Dalstauldalen" />
		<tag k="name" v="Dalstøyldalen" />
		<tag k="natural" v="valley" />
		<tag k="place" v="locality" />
		<tag k="ssr:stedsnr" v="65753" />
	</node>
	<node lat="59.86680000393359" lon="7.955122218002508" id="-24054">
		<tag k="fixme" v="consider natural=peak for the most distinct mountains in the district" />
		<tag k="name" v="Magnusgrønutane" />
		<tag k="natural" v="hill" />
		<tag k="place" v="locality" />
		<tag k="ssr:stedsnr" v="65756" />
	</node>
	<node lat="60.00347499590694" lon="7.71206945204367" id="-24055">
		<tag k="fixme" v="consider natural=peak for the most distinct mountains in the district" />
		<tag k="name" v="Tosketjønnuten" />
		<tag k="natural" v="hill" />
		<tag k="place" v="locality" />
		<tag k="ssr:stedsnr" v="66645" />
	</node>
	<node lat="60.01819444587058" lon="7.618636118104132" id="-24056">
		<tag k="fixme" v="consider natural=peak for the most distinct mountains in the district" />
		<tag k="name" v="Bergenuten" />
		<tag k="natural" v="hill" />
		<tag k="place" v="locality" />
		<tag k="ssr:stedsnr" v="66668" />
	</node>
	<node lat="60.020636113512005" lon="7.709033337537907" id="-24057">
		<tag k="name" v="Simlenuthytta" />
		<tag k="place" v="isolated_dwelling" />
		<tag k="ssr:stedsnr" v="66678" />
	</node>
	<node lat="59.72823332974535" lon="8.101261113048809" id="-24058">
		<tag k="historic" v="shieling" />
		<tag k="name" v="Vemork" />
		<tag k="place" v="isolated_dwelling" />
		<tag k="ssr:stedsnr" v="245214" />
	</node>
	<node lat="59.50444999728123" lon="7.973341674781955" id="-24059">
		<tag k="name" v="Lunden" />
		<tag k="place" v="isolated_dwelling" />
		<tag k="ssr:stedsnr" v="245230" />
	</node>
	<node lat="60.09894999981634" lon="7.487983339709965" id="-24060">
		<tag k="name" v="Hardangervidda" />
		<tag k="natural" v="plateau" />
		<tag k="ssr:stedsnr" v="85109" />
	</node>
	<node lat="59.59859721925198" lon="8.260013880470913" id="-24061">
		<tag k="alt_name" v="Svarttjørn" />
		<tag k="name" v="Svarttjønn" />
		<tag k="natural" v="water" />
		<tag k="ssr:stedsnr" v="245244" />
	</node>
	<node lat="59.60360000390606" lon="8.219902785408282" id="-24062">
		<tag k="name" v="Venli" />
		<tag k="natural" v="slope" />
		<tag k="place" v="locality" />
		<tag k="ssr:stedsnr" v="245246" />
	</node>
	<node lat="59.60690555737242" lon="8.235113886687584" id="-24063">
		<tag k="name" v="Drivarbekk" />
		<tag k="place" v="farm" />
		<tag k="ssr:stedsnr" v="245293" />
	</node>
	<node lat="59.73245277456725" lon="7.503738895508932" id="-24064">
		<tag k="alt_name" v="Varhovdbekken" />
		<tag k="name" v="Vardhovdbekken" />
		<tag k="ssr:stedsnr" v="245342" />
		<tag k="waterway" v="stream" />
	</node>
	<node lat="59.73887222060203" lon="7.289277769141046" id="-24065">
		<tag k="fixme" v="consider natural=peak for the most distinct mountains in the district" />
		<tag k="name" v="Simleskjåen" />
		<tag k="natural" v="hill" />
		<tag k="place" v="locality" />
		<tag k="ssr:stedsnr" v="245367" />
	</node>
	<node lat="59.62692499681186" lon="7.489374993696804" id="-24066">
		<tag k="fixme" v="consider natural=peak for the most distinct mountains in the district" />
		<tag k="name" v="Bueggi" />
		<tag k="natural" v="hill" />
		<tag k="place" v="locality" />
		<tag k="ssr:stedsnr" v="245515" />
	</node>
	<node lat="59.63903889017818" lon="7.361699993408101" id="-24067">
		<tag k="alt_name" v="Nørdre Kaldsvatn;Kaldsvatn, øvre" />
		<tag k="name" v="Øvre Kaldsvatn" />
		<tag k="natural" v="water" />
		<tag k="ssr:stedsnr" v="245531" />
		<tag k="water" v="lake" />
	</node>
	<node lat="59.71317499983631" lon="7.642874997016715" id="-24068">
		<tag k="fixme" v="consider natural=peak for the most distinct mountains in the district" />
		<tag k="name" v="Solnos" />
		<tag k="natural" v="hill" />
		<tag k="place" v="locality" />
		<tag k="ssr:stedsnr" v="245540" />
	</node>
	<node lat="59.70263055969552" lon="7.500058324978542" id="-24069">
		<tag k="alt_name" v="Hestekvævtjørni" />
		<tag k="name" v="Hestekvævtjønni" />
		<tag k="natural" v="water" />
		<tag k="ssr:stedsnr" v="245551" />
	</node>
	<node lat="59.70647777903388" lon="7.804211104250254" id="-24070">
		<tag k="name" v="Nystøylbekken" />
		<tag k="ssr:stedsnr" v="88028" />
		<tag k="waterway" v="stream" />
	</node>
	<node lat="59.70335000017688" lon="7.801138895681572" id="-24071">
		<tag k="historic" v="shieling" />
		<tag k="name" v="Nystøyl" />
		<tag k="place" v="locality" />
		<tag k="ssr:stedsnr" v="88029" />
	</node>
	<node lat="59.6669055566387" lon="7.730808338513097" id="-24072">
		<tag k="alt_name" v="Dokketjørni" />
		<tag k="name" v="Dokketjønni" />
		<tag k="natural" v="water" />
		<tag k="ssr:stedsnr" v="88084" />
	</node>
	<node lat="59.55425555188429" lon="8.105219452146166" id="-24073">
		<tag k="name" v="Stutenuten" />
		<tag k="natural" v="hill" />
		<tag k="place" v="locality" />
		<tag k="ssr:stedsnr" v="88192" />
	</node>
	<node lat="59.61910277656988" lon="7.888916672733248" id="-24074">
		<tag k="fixme" v="consider place=hamlet" />
		<tag k="name" v="Løk" />
		<tag k="place" v="farm" />
		<tag k="ssr:stedsnr" v="88302" />
	</node>
	<node lat="59.62326666979553" lon="7.870224994765779" id="-24075">
		<tag k="name" v="Lauvås" />
		<tag k="place" v="farm" />
		<tag k="ssr:stedsnr" v="88311" />
	</node>
	<node lat="59.69889599485713" lon="7.858591035411899" id="-24076">
		<tag k="name" v="Flotebu" />
		<tag k="place" v="locality" />
		<tag k="ssr:stedsnr" v="245827" />
	</node>
	<node lat="59.691650000221266" lon="7.74601944744263" id="-24077">
		<tag k="name" v="Fiskemo" />
		<tag k="place" v="isolated_dwelling" />
		<tag k="ssr:stedsnr" v="245830" />
	</node>
	<node lat="59.752500002835816" lon="7.7513805603730574" id="-24078">
		<tag k="name" v="Dogurdsteigen" />
		<tag k="natural" v="slope" />
		<tag k="place" v="locality" />
		<tag k="ssr:stedsnr" v="88410" />
	</node>
	<node lat="59.75564721956727" lon="7.741511104668883" id="-24079">
		<tag k="historic" v="shieling" />
		<tag k="loc_name" v="Listaul" />
		<tag k="name" v="Listøyl" />
		<tag k="place" v="locality" />
		<tag k="ssr:stedsnr" v="88411" />
	</node>
	<node lat="59.54286667030306" lon="7.863024994197116" id="-24080">
		<tag k="name" v="Djupedal" />
		<tag k="natural" v="valley" />
		<tag k="place" v="locality" />
		<tag k="ssr:stedsnr" v="88383" />
	</node>
	<node lat="59.54916388440232" lon="7.874497217240207" id="-24081">
		<tag k="name" v="Kjeringsundet" />
		<tag k="natural" v="strait" />
		<tag k="ssr:stedsnr" v="88385" />
	</node>
	<node lat="59.72561110686138" lon="7.718502781166824" id="-24082">
		<tag k="historic" v="shieling" />
		<tag k="name" v="Haugebu" />
		<tag k="place" v="locality" />
		<tag k="ssr:stedsnr" v="88392" />
	</node>
	<node lat="59.6084416671988" lon="7.8540500018717445" id="-24083">
		<tag k="name" v="Vinjevatn" />
		<tag k="natural" v="water" />
		<tag k="ssr:stedsnr" v="245879" />
		<tag k="water" v="lake" />
	</node>
	<node lat="59.72715000418242" lon="7.941933337049225" id="-24084">
		<tag k="name" v="Skardsnutdalen" />
		<tag k="natural" v="valley" />
		<tag k="place" v="locality" />
		<tag k="ssr:stedsnr" v="88886" />
	</node>
	<node lat="59.60747543366054" lon="7.744006023649311" id="-24085">
		<tag k="name" v="Horsekvommi" />
		<tag k="old_name" v="Horsekvam" />
		<tag k="place" v="locality" />
		<tag k="ssr:stedsnr" v="245984" />
	</node>
	<node lat="59.61353888948638" lon="8.069466660775" id="-24086">
		<tag k="name" v="Haugebu" />
		<tag k="place" v="isolated_dwelling" />
		<tag k="ssr:stedsnr" v="89172" />
	</node>
	<node lat="59.76666388448752" lon="8.282133335167083" id="-24087">
		<tag k="alt_name" v="Valatjørn, nordre" />
		<tag k="name" v="Vesle Valatjønn" />
		<tag k="natural" v="water" />
		<tag k="ssr:stedsnr" v="246067" />
	</node>
	<node lat="59.54826389216649" lon="7.928230550093929" id="-24088">
		<tag k="name" v="Landsverk" />
		<tag k="place" v="farm" />
		<tag k="ssr:stedsnr" v="246072" />
	</node>
	<node lat="59.5251749992432" lon="7.998961115037211" id="-24089">
		<tag k="name" v="Nipen" />
		<tag k="natural" v="hill" />
		<tag k="place" v="locality" />
		<tag k="ssr:stedsnr" v="246052" />
	</node>
	<node lat="59.68979166934347" lon="7.952227784269761" id="-24090">
		<tag k="historic" v="shieling" />
		<tag k="name" v="Olsnes-Færdalen" />
		<tag k="place" v="locality" />
		<tag k="ssr:stedsnr" v="89589" />
	</node>
	<node lat="59.570038889938886" lon="7.95638055477993" id="-24091">
		<tag k="name" v="Tveitodam" />
		<tag k="ssr:stedsnr" v="89594" />
		<tag k="waterway" v="dam" />
	</node>
	<node lat="59.57171944048835" lon="7.952005556889428" id="-24092">
		<tag k="name" v="Gryteland" />
		<tag k="natural" v="slope" />
		<tag k="place" v="locality" />
		<tag k="ssr:stedsnr" v="89597" />
	</node>
	<node lat="59.8126111079472" lon="8.136105556499981" id="-24093">
		<tag k="historic" v="shieling" />
		<tag k="name" v="Nystaul" />
		<tag k="place" v="isolated_dwelling" />
		<tag k="ssr:stedsnr" v="246391" />
	</node>
	<node lat="59.57434722622545" lon="7.937624998120005" id="-24094">
		<tag k="name" v="Ufshusdalen" />
		<tag k="natural" v="valley" />
		<tag k="place" v="locality" />
		<tag k="ssr:stedsnr" v="89674" />
	</node>
	<node lat="59.58226944208962" lon="7.949683334251113" id="-24095">
		<tag k="name" v="Bergkjosine" />
		<tag k="natural" v="hill" />
		<tag k="place" v="locality" />
		<tag k="ssr:stedsnr" v="89682" />
	</node>
	<node lat="59.5586444484196" lon="7.985813880709818" id="-24096">
		<tag k="fixme" v="consider place=hamlet" />
		<tag k="name" v="Hovdestad" />
		<tag k="place" v="farm" />
		<tag k="ssr:stedsnr" v="246090" />
	</node>
	<node lat="59.5651425035" lon="8.071853108968991" id="-24097">
		<tag k="alt_name" v="Langelimyrane" />
		<tag k="name" v="Langlimyri" />
		<tag k="natural" v="wetland" />
		<tag k="ssr:stedsnr" v="246094" />
	</node>
	<node lat="59.67801389136913" lon="8.113083327719542" id="-24098">
		<tag k="alt_name" v="Flærestøl;Flærestaul" />
		<tag k="name" v="Flærestøyl" />
		<tag k="place" v="farm" />
		<tag k="ssr:stedsnr" v="246171" />
	</node>
	<node lat="59.68004271443448" lon="8.15388815538522" id="-24099">
		<tag k="fixme" v="consider natural=peak for the most distinct mountains in the district" />
		<tag k="name" v="Brandås" />
		<tag k="natural" v="hill" />
		<tag k="place" v="locality" />
		<tag k="ssr:stedsnr" v="246172" />
	</node>
	<node lat="59.69081666686652" lon="8.211227773320102" id="-24100">
		<tag k="alt_name" v="Grostølnuten;Grostaulnuten" />
		<tag k="fixme" v="consider natural=peak for the most distinct mountains in the district" />
		<tag k="name" v="Grostøylnuten" />
		<tag k="natural" v="hill" />
		<tag k="place" v="locality" />
		<tag k="ssr:stedsnr" v="246173" />
	</node>
	<node lat="59.68830277618061" lon="8.119552778348112" id="-24101">
		<tag k="name" v="Nymoen" />
		<tag k="place" v="farm" />
		<tag k="ssr:stedsnr" v="246176" />
	</node>
	<node lat="59.70670997756331" lon="8.20570954845271" id="-24102">
		<tag k="alt_name" v="Storrtjørn" />
		<tag k="name" v="Storrtjønn" />
		<tag k="natural" v="water" />
		<tag k="ssr:stedsnr" v="246196" />
	</node>
	<node lat="59.73961944813479" lon="7.706702774327758" id="-24103">
		<tag k="alt_name" v="Ufsetjørnane" />
		<tag k="name" v="Ufsetjønnane" />
		<tag k="natural" v="water" />
		<tag k="ssr:stedsnr" v="246339" />
	</node>
	<node lat="59.73953055934802" lon="7.555924999524339" id="-24104">
		<tag k="fixme" v="consider place=hamlet" />
		<tag k="name" v="Groven" />
		<tag k="place" v="farm" />
		<tag k="ssr:stedsnr" v="246346" />
	</node>
	<node lat="59.65149444370122" lon="8.21723333864447" id="-24105">
		<tag k="fixme" v="consider natural=peak for the most distinct mountains in the district" />
		<tag k="name" v="Mjøltenuten" />
		<tag k="natural" v="hill" />
		<tag k="place" v="locality" />
		<tag k="ssr:stedsnr" v="246355" />
	</node>
	<node lat="59.69969999719827" lon="7.306950006409825" id="-24106">
		<tag k="fixme" v="consider natural=peak for the most distinct mountains in the district" />
		<tag k="name" v="Flottenuten" />
		<tag k="natural" v="hill" />
		<tag k="place" v="locality" />
		<tag k="ssr:stedsnr" v="246462" />
	</node>
	<node lat="59.88192778042601" lon="8.163669445246905" id="-24107">
		<tag k="name" v="Åmot" />
		<tag k="place" v="isolated_dwelling" />
		<tag k="ssr:stedsnr" v="246443" />
	</node>
	<node lat="59.87909166538741" lon="8.13354722650159" id="-24108">
		<tag k="alt_name" v="Vågen sud;Søndre Vågen" />
		<tag k="fixme" v="consider place=hamlet" />
		<tag k="loc_name" v="Vågi" />
		<tag k="name" v="Vågen" />
		<tag k="place" v="farm" />
		<tag k="ssr:stedsnr" v="246445" />
	</node>
	<node lat="59.68382777779929" lon="7.329972223260449" id="-24109">
		<tag k="name" v="Langetjønnane" />
		<tag k="natural" v="water" />
		<tag k="ssr:stedsnr" v="246449" />
	</node>
	<node lat="59.65892499557988" lon="7.4857527773090755" id="-24110">
		<tag k="historic" v="shieling" />
		<tag k="name" v="Vassenden" />
		<tag k="place" v="isolated_dwelling" />
		<tag k="ssr:stedsnr" v="246475" />
	</node>
	<node lat="59.66307499725468" lon="7.68840278016522" id="-24111">
		<tag k="name" v="Fitjevatn" />
		<tag k="natural" v="water" />
		<tag k="ssr:stedsnr" v="246482" />
	</node>
	<node lat="59.68079444163929" lon="7.6671277824296284" id="-24112">
		<tag k="historic" v="shieling" />
		<tag k="name" v="Tuddalsholet" />
		<tag k="place" v="isolated_dwelling" />
		<tag k="ssr:stedsnr" v="246489" />
	</node>
	<node lat="59.67744999838673" lon="7.659783328100563" id="-24113">
		<tag k="historic" v="shieling" />
		<tag k="name" v="Finnroi" />
		<tag k="place" v="isolated_dwelling" />
		<tag k="ssr:stedsnr" v="246490" />
	</node>
	<node lat="59.725549997133506" lon="7.599405547535283" id="-24114">
		<tag k="fixme" v="consider natural=peak for the most distinct mountains in the district" />
		<tag k="name" v="Signesnuten" />
		<tag k="natural" v="hill" />
		<tag k="place" v="locality" />
		<tag k="ssr:stedsnr" v="246542" />
	</node>
	<node lat="59.681438893488014" lon="7.481005563715644" id="-24115">
		<tag k="fixme" v="consider natural=peak for the most distinct mountains in the district" />
		<tag k="name" v="Lågefjell" />
		<tag k="natural" v="hill" />
		<tag k="place" v="locality" />
		<tag k="ssr:stedsnr" v="246556" />
	</node>
	<node lat="59.67105277562989" lon="7.446816663974531" id="-24116">
		<tag k="name" v="Kvikkåi" />
		<tag k="ssr:stedsnr" v="246561" />
		<tag k="waterway" v="stream" />
	</node>
	<node lat="59.93272777756129" lon="7.993222215178545" id="-24117">
		<tag k="name" v="Reinardalen" />
		<tag k="natural" v="valley" />
		<tag k="place" v="locality" />
		<tag k="ssr:stedsnr" v="246637" />
	</node>
	<node lat="59.76040277644955" lon="7.6445527757359" id="-24118">
		<tag k="alt_name" v="Kyrkjestøltjønnane" />
		<tag k="name" v="Kyrkjestøyltjønni" />
		<tag k="natural" v="water" />
		<tag k="ssr:stedsnr" v="246564" />
	</node>
	<node lat="59.695205553412706" lon="7.467661105897747" id="-24119">
		<tag k="name" v="Sæsvassdalen" />
		<tag k="natural" v="valley" />
		<tag k="place" v="locality" />
		<tag k="ssr:stedsnr" v="246571" />
	</node>
	<node lat="59.763702775227806" lon="7.6071361040317305" id="-24120">
		<tag k="historic" v="shieling" />
		<tag k="name" v="Kabrettroi" />
		<tag k="place" v="isolated_dwelling" />
		<tag k="ssr:stedsnr" v="246589" />
	</node>
	<node lat="59.89082777777094" lon="8.067547220665475" id="-24121">
		<tag k="alt_name" v="Hovstjørni, l" />
		<tag k="name" v="Vesle Hovstjønn" />
		<tag k="natural" v="water" />
		<tag k="ssr:stedsnr" v="246593" />
	</node>
	<node lat="59.91536111040516" lon="8.056075005165754" id="-24122">
		<tag k="name" v="Bekkestaulen" />
		<tag k="place" v="locality" />
		<tag k="ssr:stedsnr" v="246597" />
	</node>
	<node lat="59.599900003307006" lon="7.565319441751055" id="-24123">
		<tag k="name" v="Haukhelleren" />
		<tag k="place" v="locality" />
		<tag k="ssr:stedsnr" v="246668" />
	</node>
	<node lat="59.601752777098525" lon="7.708280551188663" id="-24124">
		<tag k="alt_name" v="Den lange dalen / Sveinsgard" />
		<tag k="name" v="Den lange dalen" />
		<tag k="natural" v="valley" />
		<tag k="place" v="locality" />
		<tag k="ssr:stedsnr" v="246673" />
	</node>
	<node lat="59.61838611221816" lon="7.496191662443128" id="-24125">
		<tag k="fixme" v="consider natural=peak for the most distinct mountains in the district" />
		<tag k="name" v="Bukkenuten" />
		<tag k="natural" v="hill" />
		<tag k="place" v="locality" />
		<tag k="ssr:stedsnr" v="246684" />
	</node>
	<node lat="59.72137988627941" lon="7.758222215038314" id="-24126">
		<tag k="name" v="Ormås" />
		<tag k="old_name" v="Ormåstøl" />
		<tag k="place" v="locality" />
		<tag k="ssr:stedsnr" v="246648" />
	</node>
	<node lat="59.644466667725055" lon="8.240019452420839" id="-24127">
		<tag k="fixme" v="consider natural=peak for the most distinct mountains in the district" />
		<tag k="name" v="Skinnuten" />
		<tag k="natural" v="hill" />
		<tag k="place" v="locality" />
		<tag k="ssr:stedsnr" v="92311" />
	</node>
	<node lat="59.642169446685735" lon="8.218008338316668" id="-24128">
		<tag k="fixme" v="consider natural=peak for the most distinct mountains in the district" />
		<tag k="name" v="Lotlinuten" />
		<tag k="natural" v="hill" />
		<tag k="place" v="locality" />
		<tag k="ssr:stedsnr" v="92313" />
	</node>
	<node lat="59.68968033835324" lon="8.163613165329004" id="-24129">
		<tag k="name" v="Fjosdalen" />
		<tag k="natural" v="valley" />
		<tag k="place" v="locality" />
		<tag k="ssr:stedsnr" v="92325" />
	</node>
	<node lat="59.6527745175569" lon="7.925510038458518" id="-24130">
		<tag k="historic" v="shieling" />
		<tag k="name" v="Nystøyl" />
		<tag k="old_name" v="Nystøl" />
		<tag k="place" v="locality" />
		<tag k="ssr:stedsnr" v="246763" />
	</node>
	<node lat="59.65489166968368" lon="7.7274083301595775" id="-24131">
		<tag k="alt_name" v="Kvævetjørn" />
		<tag k="name" v="Kvævetjønn" />
		<tag k="natural" v="water" />
		<tag k="ssr:stedsnr" v="246746" />
	</node>
	<node lat="59.5783656171526" lon="7.988205980050989" id="-24132">
		<tag k="alt_name" v="Åbø Groven" />
		<tag k="fixme" v="consider place=hamlet" />
		<tag k="name" v="Groven" />
		<tag k="place" v="farm" />
		<tag k="ssr:stedsnr" v="246927" />
	</node>
	<node lat="59.72060458934882" lon="8.134877432477401" id="-24133">
		<tag k="historic" v="shieling" />
		<tag k="name" v="Leirgravstølen" />
		<tag k="place" v="isolated_dwelling" />
		<tag k="ssr:stedsnr" v="92666" />
	</node>
	<node lat="59.686074705296015" lon="8.126694822433594" id="-24134">
		<tag k="name" v="Geiteløyni" />
		<tag k="natural" v="valley" />
		<tag k="place" v="locality" />
		<tag k="ssr:stedsnr" v="92505" />
	</node>
	<node lat="59.69349839329526" lon="8.105030975408066" id="-24135">
		<tag k="name" v="Nystad" />
		<tag k="place" v="farm" />
		<tag k="ssr:stedsnr" v="92509" />
	</node>
	<node lat="59.62808610745587" lon="8.199683331946229" id="-24136">
		<tag k="name" v="Domåi" />
		<tag k="ssr:stedsnr" v="92516" />
		<tag k="waterway" v="stream" />
	</node>
	<node lat="59.728763889445396" lon="7.826236109303144" id="-24137">
		<tag k="name" v="Midtstøylen" />
		<tag k="place" v="locality" />
		<tag k="ssr:stedsnr" v="92568" />
	</node>
	<node lat="59.81433610888278" lon="8.16273611046778" id="-24138">
		<tag k="name" v="Hovassbekken" />
		<tag k="ssr:stedsnr" v="92704" />
		<tag k="waterway" v="stream" />
	</node>
	<node lat="59.68506384373327" lon="7.8542160578650435" id="-24139">
		<tag k="alt_name" v="Svartetjørn" />
		<tag k="name" v="Svartetjønn" />
		<tag k="natural" v="water" />
		<tag k="ssr:stedsnr" v="246836" />
	</node>
	<node lat="59.68821944813202" lon="8.05856388155713" id="-24140">
		<tag k="name" v="Myran" />
		<tag k="place" v="locality" />
		<tag k="ssr:stedsnr" v="246847" />
	</node>
	<node lat="59.69012777612983" lon="8.027438887587122" id="-24141">
		<tag k="name" v="Heddeli" />
		<tag k="place" v="farm" />
		<tag k="ssr:stedsnr" v="246848" />
	</node>
	<node lat="59.67407499568597" lon="8.010130557079021" id="-24142">
		<tag k="name" v="Fiskejohomen" />
		<tag k="place" v="islet" />
		<tag k="ssr:stedsnr" v="93004" />
	</node>
	<node lat="59.68140832896552" lon="7.885158325300181" id="-24143">
		<tag k="name" v="Åkre" />
		<tag k="place" v="farm" />
		<tag k="ssr:stedsnr" v="246853" />
	</node>
	<node lat="59.67539166785104" lon="7.809080554748181" id="-24144">
		<tag k="name" v="Kringlebu" />
		<tag k="old_name" v="Kringleby" />
		<tag k="place" v="farm" />
		<tag k="ssr:stedsnr" v="246854" />
	</node>
	<node lat="59.67469444138598" lon="7.71932500418868" id="-24145">
		<tag k="name" v="Bøkreviki" />
		<tag k="place" v="isolated_dwelling" />
		<tag k="ssr:stedsnr" v="246855" />
	</node>
	<node lat="59.96964999729514" lon="7.422733333873397" id="-24146">
		<tag k="fixme" v="consider natural=peak for the most distinct mountains in the district" />
		<tag k="name" v="Skorene" />
		<tag k="natural" v="hill" />
		<tag k="place" v="locality" />
		<tag k="ssr:stedsnr" v="246857" />
	</node>
	<node lat="60.01712777875648" lon="7.791258329565372" id="-24147">
		<tag k="name" v="Sandhøl" />
		<tag k="place" v="locality" />
		<tag k="ssr:stedsnr" v="247477" />
	</node>
	<node lat="59.87210833580471" lon="8.087252768887415" id="-24148">
		<tag k="alt_name" v="Nedre Førnes" />
		<tag k="fixme" v="consider place=hamlet" />
		<tag k="name" v="Førnes austre" />
		<tag k="place" v="farm" />
		<tag k="ssr:stedsnr" v="92778" />
	</node>
	<node lat="59.73433610835391" lon="8.011191658126098" id="-24149">
		<tag k="name" v="Hjeddin" />
		<tag k="place" v="farm" />
		<tag k="ssr:stedsnr" v="92974" />
	</node>
	<node lat="59.74011388925072" lon="8.029638889852968" id="-24150">
		<tag k="name" v="Terpebekk" />
		<tag k="ssr:stedsnr" v="92979" />
		<tag k="waterway" v="stream" />
	</node>
	<node lat="59.950858331052544" lon="7.681005549608267" id="-24151">
		<tag k="name" v="Grasdalen" />
		<tag k="natural" v="valley" />
		<tag k="place" v="locality" />
		<tag k="ssr:stedsnr" v="246888" />
	</node>
	<node lat="59.91734166380171" lon="7.509624998151242" id="-24152">
		<tag k="name" v="Nedre Berutjønn" />
		<tag k="natural" v="water" />
		<tag k="ssr:stedsnr" v="246894" />
	</node>
	<node lat="59.916588885896516" lon="7.391325008049318" id="-24153">
		<tag k="name" v="Storhelleråi" />
		<tag k="ssr:stedsnr" v="246897" />
		<tag k="waterway" v="river" />
	</node>
	<node lat="59.788225000310725" lon="7.298399991775341" id="-24154">
		<tag k="historic" v="shieling" />
		<tag k="name" v="Løyningroi" />
		<tag k="place" v="isolated_dwelling" />
		<tag k="ssr:stedsnr" v="246898" />
	</node>
	<node lat="59.585830552499885" lon="7.918219444773419" id="-24155">
		<tag k="alt_name" v="Særend" />
		<tag k="fixme" v="consider place=hamlet" />
		<tag k="name" v="Særen" />
		<tag k="place" v="farm" />
		<tag k="ssr:stedsnr" v="246900" />
	</node>
	<node lat="59.7538444430344" lon="7.196588895169944" id="-24156">
		<tag k="alt_name" v="Engjelstjørn" />
		<tag k="name" v="Engjelstjønn" />
		<tag k="natural" v="water" />
		<tag k="ssr:stedsnr" v="246928" />
	</node>
	<node lat="59.629555554923364" lon="7.798486105871169" id="-24157">
		<tag k="alt_name" v="Storemyr" />
		<tag k="name" v="Stormyr" />
		<tag k="place" v="farm" />
		<tag k="ssr:stedsnr" v="246934" />
	</node>
	<node lat="59.8331611116398" lon="7.66077499940132" id="-24158">
		<tag k="name" v="Torsmoen" />
		<tag k="place" v="locality" />
		<tag k="ssr:stedsnr" v="246938" />
	</node>
	<node lat="59.62638333168837" lon="7.8525861058748845" id="-24159">
		<tag k="name" v="Huso" />
		<tag k="place" v="farm" />
		<tag k="ssr:stedsnr" v="246942" />
	</node>
	<node lat="59.81993888529508" lon="7.43805555424714" id="-24160">
		<tag k="fixme" v="consider natural=peak for the most distinct mountains in the district" />
		<tag k="name" v="Kråkemonuten" />
		<tag k="natural" v="hill" />
		<tag k="place" v="locality" />
		<tag k="ssr:stedsnr" v="246943" />
	</node>
	<node lat="59.62155135459004" lon="7.740852219849974" id="-24161">
		<tag k="alt_name" v="Deildetjørn" />
		<tag k="name" v="Deildetjønn" />
		<tag k="natural" v="water" />
		<tag k="ssr:stedsnr" v="246958" />
	</node>
	<node lat="59.69488888477" lon="8.078247223749981" id="-24162">
		<tag k="name" v="Bakken" />
		<tag k="place" v="farm" />
		<tag k="ssr:stedsnr" v="93704" />
	</node>
	<node lat="59.62494999823458" lon="8.022433335193204" id="-24163">
		<tag k="alt_name" v="Hampetjørn" />
		<tag k="name" v="Hampetjønn" />
		<tag k="natural" v="water" />
		<tag k="ssr:stedsnr" v="246980" />
	</node>
	<node lat="59.88910277946852" lon="7.4348694494741485" id="-24164">
		<tag k="alt_name" v="Vrålsbuvatnet" />
		<tag k="name" v="Vrålsbutjønni" />
		<tag k="natural" v="water" />
		<tag k="ssr:stedsnr" v="246982" />
	</node>
	<node lat="59.62505000392843" lon="8.017750000584341" id="-24165">
		<tag k="name" v="Skogly" />
		<tag k="place" v="farm" />
		<tag k="ssr:stedsnr" v="246983" />
	</node>
	<node lat="59.894466662474464" lon="7.585508338375643" id="-24166">
		<tag k="historic" v="shieling" />
		<tag k="name" v="Viervollen" />
		<tag k="place" v="locality" />
		<tag k="ssr:stedsnr" v="246986" />
	</node>
	<node lat="59.88515832931827" lon="7.535055557107597" id="-24167">
		<tag k="name" v="Berudalen, nedre" />
		<tag k="place" v="isolated_dwelling" />
		<tag k="ssr:stedsnr" v="246991" />
	</node>
	<node lat="59.88971111296227" lon="7.675875004172037" id="-24168">
		<tag k="fixme" v="consider natural=peak for the most distinct mountains in the district" />
		<tag k="name" v="Saltpytteggi" />
		<tag k="natural" v="hill" />
		<tag k="place" v="locality" />
		<tag k="ssr:stedsnr" v="246994" />
	</node>
	<node lat="59.75248611496866" lon="8.25700833706249" id="-24169">
		<tag k="name" v="Storstaul" />
		<tag k="place" v="locality" />
		<tag k="ssr:stedsnr" v="93778" />
	</node>
	<node lat="59.75070555838357" lon="8.254613888846789" id="-24170">
		<tag k="name" v="Snusli" />
		<tag k="natural" v="slope" />
		<tag k="place" v="locality" />
		<tag k="ssr:stedsnr" v="93781" />
	</node>
	<node lat="59.856827778777465" lon="7.635724992250697" id="-24171">
		<tag k="name" v="Saltpyttåi" />
		<tag k="ssr:stedsnr" v="246999" />
		<tag k="waterway" v="stream" />
	</node>
	<node lat="59.98561110775248" lon="8.119277779587659" id="-24172">
		<tag k="fixme" v="consider natural=peak for the most distinct mountains in the district" />
		<tag k="name" v="Store Grasdalshovda" />
		<tag k="natural" v="hill" />
		<tag k="place" v="locality" />
		<tag k="ssr:stedsnr" v="247245" />
	</node>
	<node lat="59.604922218356" lon="8.162833327524602" id="-24173">
		<tag k="name" v="Robekken" />
		<tag k="ssr:stedsnr" v="247099" />
		<tag k="waterway" v="stream" />
	</node>
	<node lat="59.772541670364284" lon="7.735558327362819" id="-24174">
		<tag k="name" v="Flatastøylneset" />
		<tag k="natural" v="cape" />
		<tag k="ssr:stedsnr" v="247324" />
	</node>
	<node lat="59.783191665517094" lon="8.044130555962862" id="-24175">
		<tag k="name" v="Steinhaugen" />
		<tag k="place" v="isolated_dwelling" />
		<tag k="ssr:stedsnr" v="247328" />
	</node>
	<node lat="59.76408055475512" lon="7.800338887921656" id="-24176">
		<tag k="fixme" v="consider natural=peak for the most distinct mountains in the district" />
		<tag k="name" v="Åshyttnuten" />
		<tag k="natural" v="hill" />
		<tag k="place" v="locality" />
		<tag k="ssr:stedsnr" v="247330" />
	</node>
	<node lat="59.76478611162161" lon="7.766530556689077" id="-24177">
		<tag k="name" v="Midtgarden" />
		<tag k="place" v="isolated_dwelling" />
		<tag k="ssr:stedsnr" v="247334" />
	</node>
	<node lat="59.76522777342766" lon="7.848313891840208" id="-24178">
		<tag k="historic" v="shieling" />
		<tag k="name" v="Fauskestøyl" />
		<tag k="place" v="isolated_dwelling" />
		<tag k="ssr:stedsnr" v="247341" />
	</node>
	<node lat="59.772677781008554" lon="8.090536115902918" id="-24179">
		<tag k="name" v="Eideåi" />
		<tag k="ssr:stedsnr" v="247353" />
		<tag k="waterway" v="stream" />
	</node>
	<node lat="60.007938885960705" lon="7.818891668635598" id="-24180">
		<tag k="name" v="Bunuttjønni" />
		<tag k="natural" v="water" />
		<tag k="ssr:stedsnr" v="247529" />
	</node>
	<node lat="60.01683728588895" lon="7.864180523598542" id="-24181">
		<tag k="name" v="Lægeret" />
		<tag k="place" v="locality" />
		<tag k="ssr:stedsnr" v="247482" />
	</node>
	<node lat="60.04329166293472" lon="8.018080552344887" id="-24182">
		<tag k="alt_name" v="Vråsjåen, vesle" />
		<tag k="name" v="Vesle Vråsjåen" />
		<tag k="natural" v="water" />
		<tag k="ssr:stedsnr" v="247498" />
	</node>
	<node lat="60.028883336731916" lon="7.732811111129505" id="-24183">
		<tag k="name" v="Grindebotn" />
		<tag k="natural" v="valley" />
		<tag k="place" v="locality" />
		<tag k="ssr:stedsnr" v="247500" />
	</node>
	<node lat="59.96708888658805" lon="7.890116665224238" id="-24184">
		<tag k="alt_name" v="Vatndalen, vesle" />
		<tag k="name" v="Vesle Vatndalen" />
		<tag k="natural" v="valley" />
		<tag k="place" v="locality" />
		<tag k="ssr:stedsnr" v="247538" />
	</node>
	<node lat="59.975105551873966" lon="8.039105548150886" id="-24185">
		<tag k="fixme" v="consider natural=peak for the most distinct mountains in the district" />
		<tag k="name" v="Langenuten" />
		<tag k="natural" v="hill" />
		<tag k="place" v="locality" />
		<tag k="ssr:stedsnr" v="247550" />
	</node>
	<node lat="60.069333336197865" lon="7.481824992699698" id="-24186">
		<tag k="alt_name" v="Sandvasslega, øvre" />
		<tag k="name" v="Øvre Sandvasslega" />
		<tag k="place" v="locality" />
		<tag k="ssr:stedsnr" v="247629" />
	</node>
	<node lat="59.85956666796654" lon="8.076061113260769" id="-24187">
		<tag k="name" v="Storfjorden" />
		<tag k="natural" v="water" />
		<tag k="ssr:stedsnr" v="247586" />
	</node>
	<node lat="60.08177500447123" lon="7.876074999417922" id="-24188">
		<tag k="name" v="Gjuvsjåflotti" />
		<tag k="natural" v="slope" />
		<tag k="place" v="locality" />
		<tag k="ssr:stedsnr" v="247592" />
	</node>
	<node lat="60.087705555735596" lon="7.748280551608342" id="-24189">
		<tag k="name" v="Gjuvsjååi" />
		<tag k="ssr:stedsnr" v="247596" />
		<tag k="waterway" v="river" />
	</node>
	<node lat="60.108284088534006" lon="7.834744454752598" id="-24190">
		<tag k="name" v="Vierhyttlega" />
		<tag k="place" v="locality" />
		<tag k="ssr:stedsnr" v="247600" />
	</node>
	<node lat="59.856061108845665" lon="7.954441670218134" id="-24191">
		<tag k="name" v="Vonskinåi" />
		<tag k="ssr:stedsnr" v="247712" />
		<tag k="waterway" v="river" />
	</node>
	<node lat="59.861161114691704" lon="7.884450007336429" id="-24192">
		<tag k="name" v="Vonskinvatnet" />
		<tag k="natural" v="water" />
		<tag k="ssr:stedsnr" v="247714" />
		<tag k="water" v="lake" />
	</node>
	<node lat="59.85461111097163" lon="8.051422216640585" id="-24193">
		<tag k="fixme" v="consider natural=peak for the most distinct mountains in the district" />
		<tag k="name" v="Hovdenuten" />
		<tag k="natural" v="hill" />
		<tag k="place" v="locality" />
		<tag k="ssr:stedsnr" v="247718" />
	</node>
	<node lat="59.84247221932009" lon="7.959936104197089" id="-24194">
		<tag k="name" v="Kråmdalslega" />
		<tag k="place" v="locality" />
		<tag k="ssr:stedsnr" v="247722" />
	</node>
	<node lat="60.11845278136544" lon="7.609127769084977" id="-24195">
		<tag k="fixme" v="consider natural=peak for the most distinct mountains in the district" />
		<tag k="name" v="Fjellsjåeggi" />
		<tag k="natural" v="hill" />
		<tag k="place" v="locality" />
		<tag k="ssr:stedsnr" v="247723" />
	</node>
	<node lat="59.839574998475" lon="7.750861113066019" id="-24196">
		<tag k="alt_name" v="Hallbjørgkvamtjørni" />
		<tag k="name" v="Hallbjørgkvamtjønni" />
		<tag k="natural" v="water" />
		<tag k="ssr:stedsnr" v="247729" />
	</node>
	<node lat="59.8330083331712" lon="8.009236113173868" id="-24197">
		<tag k="loc_name" v="Hestebotn" />
		<tag k="name" v="Hestabotn" />
		<tag k="natural" v="valley" />
		<tag k="place" v="locality" />
		<tag k="ssr:stedsnr" v="247697" />
	</node>
	<node lat="59.8656833308763" lon="7.812100008161324" id="-24198">
		<tag k="fixme" v="consider natural=peak for the most distinct mountains in the district" />
		<tag k="name" v="Meinsvassnuten" />
		<tag k="natural" v="hill" />
		<tag k="place" v="locality" />
		<tag k="ssr:stedsnr" v="247738" />
	</node>
	<node lat="59.868277780760955" lon="7.989452768852049" id="-24199">
		<tag k="fixme" v="consider natural=peak for the most distinct mountains in the district" />
		<tag k="name" v="Driftenutane" />
		<tag k="natural" v="hill" />
		<tag k="place" v="locality" />
		<tag k="ssr:stedsnr" v="247744" />
	</node>
	<node lat="59.89596389066837" lon="7.3329916746610735" id="-24200">
		<tag k="name" v="Storhellervatnet" />
		<tag k="natural" v="water" />
		<tag k="ssr:stedsnr" v="247834" />
		<tag k="water" v="lake" />
	</node>
	<node lat="59.93803610901722" lon="7.245124994355577" id="-24201">
		<tag k="name" v="Midnutvatnet" />
		<tag k="natural" v="water" />
		<tag k="ssr:stedsnr" v="247842" />
	</node>
	<node lat="59.75570833769846" lon="7.556625005565811" id="-24203">
		<tag k="name" v="Venestøylhaugen" />
		<tag k="natural" v="hill" />
		<tag k="place" v="locality" />
		<tag k="ssr:stedsnr" v="110114" />
	</node>
	<node lat="59.74857499659163" lon="7.568238890708777" id="-24204">
		<tag k="name" v="Mosakjerrhaugen" />
		<tag k="natural" v="hill" />
		<tag k="place" v="locality" />
		<tag k="ssr:stedsnr" v="110116" />
	</node>
	<node lat="59.68069722387609" lon="7.671702774970728" id="-24205">
		<tag k="historic" v="shieling" />
		<tag k="loc_name" v="Gamlestaul" />
		<tag k="name" v="Gamlestøyl" />
		<tag k="place" v="isolated_dwelling" />
		<tag k="ssr:stedsnr" v="110527" />
	</node>
	<node lat="59.67079167002089" lon="7.493991673749153" id="-24206">
		<tag k="name" v="Ormekullen" />
		<tag k="natural" v="hill" />
		<tag k="place" v="locality" />
		<tag k="ssr:stedsnr" v="110908" />
	</node>
	<node lat="59.56615278015333" lon="8.183894443345258" id="-24207">
		<tag k="name" v="Barstad" />
		<tag k="place" v="isolated_dwelling" />
		<tag k="ssr:stedsnr" v="110972" />
	</node>
	<node lat="59.71562777946197" lon="7.5764916629249095" id="-24208">
		<tag k="historic" v="shieling" />
		<tag k="name" v="Hønefoss" />
		<tag k="place" v="isolated_dwelling" />
		<tag k="ssr:stedsnr" v="111322" />
	</node>
	<node lat="59.77759722171817" lon="7.412194452558171" id="-24211">
		<tag k="alt_name" v="Storåkskardet" />
		<tag k="name" v="Storåkskaret" />
		<tag k="natural" v="valley" />
		<tag k="place" v="locality" />
		<tag k="ssr:stedsnr" v="117046" />
	</node>
	<node lat="59.782761113202824" lon="7.4509333291624715" id="-24212">
		<tag k="name" v="Kroketjønnskaret" />
		<tag k="natural" v="valley" />
		<tag k="place" v="locality" />
		<tag k="ssr:stedsnr" v="117123" />
	</node>
	<node lat="59.735472222748626" lon="7.511786115370308" id="-24213">
		<tag k="name" v="Mosli" />
		<tag k="natural" v="slope" />
		<tag k="place" v="locality" />
		<tag k="ssr:stedsnr" v="117303" />
	</node>
	<node lat="59.736997223133855" lon="7.510591671994026" id="-24214">
		<tag k="name" v="Bronaberget" />
		<tag k="natural" v="hill" />
		<tag k="place" v="locality" />
		<tag k="ssr:stedsnr" v="117307" />
	</node>
	<node lat="59.7391138894868" lon="7.508847226847491" id="-24215">
		<tag k="name" v="Redvangsmyri" />
		<tag k="natural" v="wetland" />
		<tag k="ssr:stedsnr" v="117315" />
	</node>
	<node lat="59.764952774569586" lon="7.34958333255679" id="-24216">
		<tag k="name" v="Nystøyllii" />
		<tag k="natural" v="cape" />
		<tag k="ssr:stedsnr" v="117417" />
	</node>
	<node lat="59.790883329608874" lon="7.53772499588952" id="-24217">
		<tag k="name" v="Vierdalen" />
		<tag k="natural" v="valley" />
		<tag k="place" v="locality" />
		<tag k="ssr:stedsnr" v="117710" />
	</node>
	<node lat="59.801791663660424" lon="7.497397228123243" id="-24218">
		<tag k="name" v="Ålbogtjønn" />
		<tag k="natural" v="water" />
		<tag k="ssr:stedsnr" v="117634" />
	</node>
	<node lat="59.72765555894635" lon="7.442397214192001" id="-24219">
		<tag k="name" v="Storemyrdalen" />
		<tag k="natural" v="valley" />
		<tag k="place" v="locality" />
		<tag k="ssr:stedsnr" v="117903" />
	</node>
	<node lat="59.75583610847238" lon="7.367250002241977" id="-24220">
		<tag k="name" v="Kartedalen" />
		<tag k="natural" v="valley" />
		<tag k="place" v="locality" />
		<tag k="ssr:stedsnr" v="117914" />
	</node>
	<node lat="59.74821389197063" lon="7.335233327266071" id="-24221">
		<tag k="name" v="Kvennhusskaret" />
		<tag k="natural" v="valley" />
		<tag k="place" v="locality" />
		<tag k="ssr:stedsnr" v="117975" />
	</node>
	<node lat="59.51323888660083" lon="7.952050004271956" id="-24222">
		<tag k="alt_name" v="Koddesætjønni" />
		<tag k="name" v="Koddesæ" />
		<tag k="natural" v="water" />
		<tag k="ssr:stedsnr" v="124004" />
	</node>
	<node lat="59.516552777766165" lon="7.913397224360691" id="-24223">
		<tag k="fixme" v="consider natural=peak for the most distinct mountains in the district" />
		<tag k="name" v="Skarven" />
		<tag k="natural" v="hill" />
		<tag k="place" v="locality" />
		<tag k="ssr:stedsnr" v="124020" />
	</node>
	<node lat="59.693422225879566" lon="8.106211112000652" id="-24224">
		<tag k="name" v="Austbø" />
		<tag k="place" v="hamlet" />
		<tag k="ssr:stedsnr" v="124160" />
	</node>
	<node lat="59.715475002403146" lon="8.153808324600005" id="-24225">
		<tag k="historic" v="shieling" />
		<tag k="name" v="Løyning" />
		<tag k="place" v="isolated_dwelling" />
		<tag k="ssr:stedsnr" v="124182" />
	</node>
	<node lat="59.72400555496241" lon="8.145233332283773" id="-24226">
		<tag k="historic" v="shieling" />
		<tag k="name" v="Haugeset" />
		<tag k="place" v="isolated_dwelling" />
		<tag k="ssr:stedsnr" v="124185" />
	</node>
	<node lat="59.749247220205014" lon="7.652000005384277" id="-24227">
		<tag k="name" v="Mauretjønn" />
		<tag k="natural" v="water" />
		<tag k="ssr:stedsnr" v="124314" />
	</node>
	<node lat="59.71110277790389" lon="7.2851666717541095" id="-24228">
		<tag k="name" v="Langesæneset" />
		<tag k="natural" v="cape" />
		<tag k="ssr:stedsnr" v="124324" />
	</node>
	<node lat="59.61326944297975" lon="8.124397214243647" id="-24229">
		<tag k="alt_name" v="Lega, midtre" />
		<tag k="historic" v="shieling" />
		<tag k="name" v="Midtlega" />
		<tag k="place" v="isolated_dwelling" />
		<tag k="ssr:stedsnr" v="124254" />
	</node>
	<node lat="59.60808611115906" lon="8.164033337719658" id="-24230">
		<tag k="alt_name" v="Bosstaulflæi;Bosstaulflæin" />
		<tag k="name" v="Bosstøylflæi" />
		<tag k="place" v="locality" />
		<tag k="ssr:stedsnr" v="124258" />
	</node>
	<node lat="59.60122500043656" lon="8.269294442336154" id="-24231">
		<tag k="alt_name" v="Hyttedal" />
		<tag k="name" v="Hyttedalen" />
		<tag k="place" v="farm" />
		<tag k="ssr:stedsnr" v="124211" />
	</node>
	<node lat="59.59476388936637" lon="8.098166670908872" id="-24232">
		<tag k="alt_name" v="Grisetjørn" />
		<tag k="name" v="Grisetjønn" />
		<tag k="natural" v="water" />
		<tag k="ssr:stedsnr" v="124213" />
	</node>
	<node lat="59.801736109372776" lon="8.064711119880112" id="-24233">
		<tag k="fixme" v="consider natural=peak for the most distinct mountains in the district" />
		<tag k="name" v="Falkenuten" />
		<tag k="natural" v="hill" />
		<tag k="place" v="locality" />
		<tag k="ssr:stedsnr" v="124259" />
	</node>
	<node lat="59.80731666667852" lon="8.090280558968656" id="-24234">
		<tag k="alt_name" v="Kråmvikbryggja" />
		<tag k="man_made" v="quay" />
		<tag k="name" v="Kromvikbryggja" />
		<tag k="place" v="locality" />
		<tag k="ssr:stedsnr" v="124264" />
	</node>
	<node lat="59.5920694471688" lon="8.306013883931692" id="-24235">
		<tag k="name" v="Gjevarvatn" />
		<tag k="natural" v="water" />
		<tag k="ssr:stedsnr" v="124414" />
		<tag k="water" v="lake" />
	</node>
	<node lat="59.71568889204722" lon="7.527049992708416" id="-24236">
		<tag k="alt_name" v="Langetjørn" />
		<tag k="name" v="Langetjønn" />
		<tag k="natural" v="water" />
		<tag k="ssr:stedsnr" v="124504" />
	</node>
	<node lat="59.722408332452225" lon="7.536925006429922" id="-24237">
		<tag k="alt_name" v="Oddetjørn" />
		<tag k="name" v="Oddetjønn" />
		<tag k="natural" v="water" />
		<tag k="ssr:stedsnr" v="124517" />
	</node>
	<node lat="59.72490277360142" lon="7.687766675629488" id="-24238">
		<tag k="name" v="Nesheim" />
		<tag k="place" v="farm" />
		<tag k="ssr:stedsnr" v="124524" />
	</node>
	<node lat="59.68597500218043" lon="7.6011500025149505" id="-24239">
		<tag k="alt_name" v="Tangevatn" />
		<tag k="name" v="Tangavatn" />
		<tag k="natural" v="water" />
		<tag k="ssr:stedsnr" v="124526" />
	</node>
	<node lat="59.69955833114234" lon="7.5892944473293955" id="-24240">
		<tag k="alt_name" v="Gjuvsviktjørni;Gjusviktjønn" />
		<tag k="name" v="Gjuvsviktjønni" />
		<tag k="natural" v="water" />
		<tag k="ssr:stedsnr" v="124552" />
	</node>
	<node lat="59.74667777958459" lon="7.958316673682052" id="-24241">
		<tag k="alt_name" v="Breidalstjønnan;Breiddalstjørn" />
		<tag k="name" v="Breidalstjønnane" />
		<tag k="natural" v="water" />
		<tag k="ssr:stedsnr" v="124560" />
	</node>
	<node lat="59.71375277527842" lon="7.7576749923838495" id="-24242">
		<tag k="alt_name" v="Reini" />
		<tag k="name" v="Reine" />
		<tag k="place" v="farm" />
		<tag k="ssr:stedsnr" v="124601" />
	</node>
	<node lat="59.71069999761227" lon="7.621569451085391" id="-24243">
		<tag k="alt_name" v="Tjørnane under løypet" />
		<tag k="name" v="Tjønnane under løypet" />
		<tag k="natural" v="water" />
		<tag k="ssr:stedsnr" v="124500" />
	</node>
	<node lat="59.93315555147527" lon="7.953397223129076" id="-24244">
		<tag k="name" v="Reinarvatnet" />
		<tag k="natural" v="water" />
		<tag k="ssr:stedsnr" v="124610" />
		<tag k="water" v="lake" />
	</node>
	<node lat="59.73238611437354" lon="7.805630550682281" id="-24245">
		<tag k="alt_name" v="Svinnsbekk" />
		<tag k="name" v="Svindsbekk" />
		<tag k="old_name" v="Svindsbekken" />
		<tag k="ssr:stedsnr" v="124620" />
		<tag k="waterway" v="stream" />
	</node>
	<node lat="59.80186389294742" lon="8.03448888393934" id="-24246">
		<tag k="name" v="Rusbudalen" />
		<tag k="natural" v="valley" />
		<tag k="place" v="locality" />
		<tag k="ssr:stedsnr" v="124651" />
	</node>
	<node lat="59.62125000340827" lon="7.59623332820564" id="-24247">
		<tag k="alt_name" v="Rassteintjørnane, store" />
		<tag k="name" v="Store Rassteintjønnane" />
		<tag k="natural" v="water" />
		<tag k="ssr:stedsnr" v="124667" />
	</node>
	<node lat="59.68201012079356" lon="7.833305544776665" id="-24248">
		<tag k="historic" v="shieling" />
		<tag k="name" v="Furustøyl" />
		<tag k="old_name" v="Furustøl" />
		<tag k="place" v="isolated_dwelling" />
		<tag k="ssr:stedsnr" v="124851" />
	</node>
	<node lat="59.60448055726703" lon="8.036619445101419" id="-24249">
		<tag k="alt_name" v="Revamyrane" />
		<tag k="name" v="Røramyrane" />
		<tag k="natural" v="wetland" />
		<tag k="ssr:stedsnr" v="124858" />
	</node>
	<node lat="59.60672777575799" lon="8.020852773217706" id="-24250">
		<tag k="name" v="Hommostøylen" />
		<tag k="old_name" v="Hommostølen" />
		<tag k="place" v="farm" />
		<tag k="ssr:stedsnr" v="124859" />
	</node>
	<node lat="59.602308335901306" lon="7.786861102239114" id="-24251">
		<tag k="alt_name" v="Steinshovdnut" />
		<tag k="name" v="Steinshovdnuten" />
		<tag k="natural" v="hill" />
		<tag k="place" v="locality" />
		<tag k="ssr:stedsnr" v="124866" />
	</node>
	<node lat="59.60516389193801" lon="7.860255555397446" id="-24252">
		<tag k="name" v="Hanaholmen" />
		<tag k="place" v="islet" />
		<tag k="ssr:stedsnr" v="124867" />
	</node>
	<node lat="59.609050001868596" lon="7.902761115181744" id="-24253">
		<tag k="name" v="Fossland" />
		<tag k="place" v="farm" />
		<tag k="ssr:stedsnr" v="124868" />
	</node>
	<node lat="59.649613888765536" lon="7.797161116050992" id="-24254">
		<tag k="fixme" v="consider place=hamlet" />
		<tag k="name" v="Rui" />
		<tag k="place" v="farm" />
		<tag k="ssr:stedsnr" v="124751" />
	</node>
	<node lat="59.654922222067725" lon="7.741677776224912" id="-24255">
		<tag k="name" v="Tredalsnuten" />
		<tag k="natural" v="hill" />
		<tag k="old_name" v="Tredalsnut" />
		<tag k="place" v="locality" />
		<tag k="ssr:stedsnr" v="124753" />
	</node>
	<node lat="59.65573055397604" lon="7.949791659964202" id="-24256">
		<tag k="alt_name" v="Vegglitjørn" />
		<tag k="name" v="Vegglitjønn" />
		<tag k="natural" v="water" />
		<tag k="ssr:stedsnr" v="124757" />
	</node>
	<node lat="59.78687777391818" lon="7.323075008158645" id="-24257">
		<tag k="alt_name" v="Rauberg" />
		<tag k="historic" v="shieling" />
		<tag k="name" v="Raudberg" />
		<tag k="place" v="isolated_dwelling" />
		<tag k="ssr:stedsnr" v="124912" />
	</node>
	<node lat="59.762366664526" lon="7.166888897495484" id="-24258">
		<tag k="name" v="Vassdalstjønn" />
		<tag k="natural" v="water" />
		<tag k="ssr:stedsnr" v="124916" />
	</node>
	<node lat="59.57948816256157" lon="7.990131597267718" id="-24259">
		<tag k="fixme" v="consider place=hamlet" />
		<tag k="name" v="Drotning" />
		<tag k="place" v="farm" />
		<tag k="ssr:stedsnr" v="124926" />
	</node>
	<node lat="59.61106388609557" lon="7.784024993990592" id="-24260">
		<tag k="alt_name" v="Snehaddine" />
		<tag k="fixme" v="consider natural=peak for the most distinct mountains in the district" />
		<tag k="name" v="Snehalline" />
		<tag k="natural" v="hill" />
		<tag k="old_name" v="Snehaddene" />
		<tag k="place" v="locality" />
		<tag k="ssr:stedsnr" v="124973" />
	</node>
	<node lat="59.619658330893145" lon="7.824594447125843" id="-24261">
		<tag k="alt_name" v="Sondrisland" />
		<tag k="name" v="Sundrisland" />
		<tag k="place" v="farm" />
		<tag k="ssr:stedsnr" v="125000" />
	</node>
	<node lat="59.77367778180773" lon="8.233783328471159" id="-24262">
		<tag k="name" v="Arasteinen" />
		<tag k="natural" v="stone" />
		<tag k="ssr:stedsnr" v="125102" />
	</node>
	<node lat="59.78111389282327" lon="8.22180278345018" id="-24263">
		<tag k="alt_name" v="Flokketjørni" />
		<tag k="name" v="Floketjønn" />
		<tag k="natural" v="water" />
		<tag k="ssr:stedsnr" v="125100" />
	</node>
	<node lat="59.82135000400174" lon="8.18678889378275" id="-24264">
		<tag k="alt_name" v="Urdtjørn" />
		<tag k="name" v="Urdtjønn" />
		<tag k="natural" v="water" />
		<tag k="ssr:stedsnr" v="125408" />
	</node>
	<node lat="59.8100527750801" lon="8.163274996347779" id="-24265">
		<tag k="alt_name" v="Bergetjørn" />
		<tag k="name" v="Bergetjønn" />
		<tag k="natural" v="water" />
		<tag k="ssr:stedsnr" v="125428" />
	</node>
	<node lat="59.78596944118051" lon="8.151033328166646" id="-24266">
		<tag k="fixme" v="consider place=hamlet" />
		<tag k="name" v="Skinnarland" />
		<tag k="place" v="farm" />
		<tag k="ssr:stedsnr" v="125448" />
	</node>
	<node lat="59.90804999902381" lon="8.137977770976248" id="-24267">
		<tag k="alt_name" v="Tuddøltjørn" />
		<tag k="name" v="Tuddøltjønn" />
		<tag k="natural" v="water" />
		<tag k="ssr:stedsnr" v="125463" />
	</node>
	<node lat="59.78522221829678" lon="8.084247215332217" id="-24268">
		<tag k="alt_name" v="Haugestøylen" />
		<tag k="loc_name" v="Haugestaul" />
		<tag k="name" v="Haugestøl" />
		<tag k="place" v="isolated_dwelling" />
		<tag k="ssr:stedsnr" v="125359" />
	</node>
	<node lat="59.77835833354241" lon="7.722766659727654" id="-24269">
		<tag k="alt_name" v="Øygarden, nordre" />
		<tag k="fixme" v="consider place=hamlet" />
		<tag k="name" v="Nordre Øygarden" />
		<tag k="place" v="farm" />
		<tag k="ssr:stedsnr" v="125362" />
	</node>
	<node lat="59.774488889924946" lon="7.738722218159442" id="-24270">
		<tag k="alt_name" v="Subø" />
		<tag k="name" v="Sudbø" />
		<tag k="place" v="farm" />
		<tag k="ssr:stedsnr" v="125369" />
	</node>
	<node lat="59.78183888609035" lon="8.051855557229967" id="-24271">
		<tag k="alt_name" v="Bakketjørnane" />
		<tag k="name" v="Bakketjønnane" />
		<tag k="natural" v="water" />
		<tag k="ssr:stedsnr" v="125371" />
	</node>
	<node lat="59.768583328926994" lon="7.761288890428198" id="-24272">
		<tag k="alt_name" v="Romtveit søndre;Romtveit, s" />
		<tag k="fixme" v="consider place=hamlet" />
		<tag k="loc_name" v="Romtveit" />
		<tag k="name" v="Søndre Romtveit" />
		<tag k="place" v="farm" />
		<tag k="ssr:stedsnr" v="125374" />
	</node>
	<node lat="59.802652774410575" lon="7.631761109456" id="-24273">
		<tag k="historic" v="shieling" />
		<tag k="name" v="Reinekvåmmi" />
		<tag k="place" v="isolated_dwelling" />
		<tag k="ssr:stedsnr" v="125548" />
	</node>
	<node lat="59.7915638929067" lon="7.400483338975949" id="-24274">
		<tag k="alt_name" v="Margittjønni" />
		<tag k="name" v="Margittjønn" />
		<tag k="natural" v="water" />
		<tag k="ssr:stedsnr" v="125551" />
	</node>
	<node lat="59.79986389243639" lon="7.58546943612661" id="-24275">
		<tag k="alt_name" v="Skardstølfloti" />
		<tag k="name" v="Skardstøylflotti" />
		<tag k="place" v="locality" />
		<tag k="ssr:stedsnr" v="125552" />
	</node>
	<node lat="59.80279167000691" lon="7.4207111165663395" id="-24276">
		<tag k="alt_name" v="Skarstøyltjønni" />
		<tag k="name" v="Skardtjønn" />
		<tag k="natural" v="water" />
		<tag k="ssr:stedsnr" v="125556" />
	</node>
	<node lat="59.802759635361255" lon="7.394202766414886" id="-24277">
		<tag k="alt_name" v="Nystøl" />
		<tag k="historic" v="shieling" />
		<tag k="name" v="Nystøyl" />
		<tag k="place" v="locality" />
		<tag k="ssr:stedsnr" v="125558" />
	</node>
	<node lat="59.81458055676767" lon="7.676036117303384" id="-24278">
		<tag k="fixme" v="consider natural=peak for the most distinct mountains in the district" />
		<tag k="name" v="Fugltuva" />
		<tag k="natural" v="hill" />
		<tag k="place" v="locality" />
		<tag k="ssr:stedsnr" v="125561" />
	</node>
	<node lat="59.80968611043878" lon="7.591952770049719" id="-24279">
		<tag k="historic" v="shieling" />
		<tag k="name" v="Trolldal" />
		<tag k="place" v="isolated_dwelling" />
		<tag k="ssr:stedsnr" v="125564" />
	</node>
	<node lat="59.807530557483325" lon="7.606722229193785" id="-24280">
		<tag k="alt_name" v="Gamlestøl" />
		<tag k="historic" v="shieling" />
		<tag k="loc_name" v="Gamlestaul" />
		<tag k="name" v="Gamlestøyl" />
		<tag k="place" v="isolated_dwelling" />
		<tag k="ssr:stedsnr" v="125566" />
	</node>
	<node lat="59.97791110937914" lon="7.87244999349347" id="-24281">
		<tag k="alt_name" v="Midtjørnbekken" />
		<tag k="name" v="Midtjønnbekken" />
		<tag k="ssr:stedsnr" v="125596" />
		<tag k="waterway" v="stream" />
	</node>
	<node lat="59.984083336796935" lon="7.898205556468403" id="-24282">
		<tag k="alt_name" v="Tommetjørni" />
		<tag k="name" v="Tommetjønni" />
		<tag k="natural" v="water" />
		<tag k="ssr:stedsnr" v="125600" />
		<tag k="water" v="lake" />
	</node>
	<node lat="59.87940833174677" lon="8.087669439313766" id="-24283">
		<tag k="alt_name" v="Dalstaul;Dalstaulen" />
		<tag k="historic" v="shieling" />
		<tag k="name" v="Dalstøyl" />
		<tag k="place" v="isolated_dwelling" />
		<tag k="ssr:stedsnr" v="125758" />
	</node>
	<node lat="59.87038611154942" lon="7.981352774994781" id="-24284">
		<tag k="fixme" v="consider natural=peak for the most distinct mountains in the district" />
		<tag k="name" v="Veslefjell" />
		<tag k="natural" v="hill" />
		<tag k="place" v="locality" />
		<tag k="ssr:stedsnr" v="125763" />
	</node>
	<node lat="59.90985833501528" lon="8.041530551929233" id="-24285">
		<tag k="name" v="Rautuva" />
		<tag k="place" v="islet" />
		<tag k="ssr:stedsnr" v="125647" />
	</node>
	<node lat="59.8771333369005" lon="7.851547216802683" id="-24286">
		<tag k="alt_name" v="Skindalen, vestre" />
		<tag k="name" v="Vestre Skindalen" />
		<tag k="natural" v="valley" />
		<tag k="place" v="locality" />
		<tag k="ssr:stedsnr" v="125649" />
	</node>
	<node lat="59.87964999969559" lon="7.861927772747654" id="-24287">
		<tag k="historic" v="shieling" />
		<tag k="name" v="Kollsnutvollen" />
		<tag k="place" v="isolated_dwelling" />
		<tag k="ssr:stedsnr" v="125655" />
	</node>
	<node lat="59.96417778103178" lon="7.932450005865495" id="-24288">
		<tag k="alt_name" v="Mortåtjørni" />
		<tag k="loc_name" v="Mortåvatn" />
		<tag k="name" v="Mortåtjønni" />
		<tag k="natural" v="water" />
		<tag k="ssr:stedsnr" v="125698" />
	</node>
	<node lat="59.836866671129805" lon="7.269619440830393" id="-24289">
		<tag k="alt_name" v="Tjørnlegbekken" />
		<tag k="name" v="Tjønnlegbekken" />
		<tag k="ssr:stedsnr" v="125834" />
		<tag k="waterway" v="stream" />
	</node>
	<node lat="59.854586111239975" lon="7.285469445481565" id="-24290">
		<tag k="name" v="Skreduvollen" />
		<tag k="place" v="locality" />
		<tag k="ssr:stedsnr" v="125835" />
	</node>
	<node lat="59.805638888988035" lon="7.331475007052927" id="-24291">
		<tag k="name" v="Smørviktjønnane" />
		<tag k="natural" v="water" />
		<tag k="ssr:stedsnr" v="125843" />
	</node>
	<node lat="59.9507500019414" lon="7.589019451757356" id="-24292">
		<tag k="name" v="Ormetjønnbekken" />
		<tag k="ssr:stedsnr" v="125904" />
		<tag k="waterway" v="stream" />
	</node>
	<node lat="60.02710278029141" lon="7.828022215582606" id="-24293">
		<tag k="fixme" v="consider natural=peak for the most distinct mountains in the district" />
		<tag k="name" v="Gluggebrotnuten" />
		<tag k="natural" v="hill" />
		<tag k="place" v="locality" />
		<tag k="ssr:stedsnr" v="126512" />
	</node>
	<node lat="60.055149997776105" lon="7.647302770496435" id="-24294">
		<tag k="name" v="Skardbu-Tjønndalen" />
		<tag k="natural" v="valley" />
		<tag k="place" v="locality" />
		<tag k="ssr:stedsnr" v="126608" />
	</node>
	<node lat="60.02001944031127" lon="7.57767500167588" id="-24295">
		<tag k="name" v="Flådalsbekken" />
		<tag k="ssr:stedsnr" v="142433" />
		<tag k="waterway" v="stream" />
	</node>
	<node lat="59.61602500015622" lon="7.790774996733513" id="-24296">
		<tag k="name" v="Varmekro" />
		<tag k="natural" v="slope" />
		<tag k="place" v="locality" />
		<tag k="ssr:stedsnr" v="149116" />
	</node>
	<node lat="59.69174444328716" lon="7.732522214273394" id="-24297">
		<tag k="name" v="Hidrehjellen" />
		<tag k="natural" v="cliff" />
		<tag k="ssr:stedsnr" v="149018" />
	</node>
	<node lat="59.720374999855586" lon="7.717227773227413" id="-24298">
		<tag k="historic" v="shieling" />
		<tag k="loc_name" v="Flatastaul" />
		<tag k="name" v="Flatastøyl" />
		<tag k="place" v="locality" />
		<tag k="ssr:stedsnr" v="149056" />
	</node>
	<node lat="59.60382778044172" lon="7.813919448272304" id="-24299">
		<tag k="name" v="Løkjine" />
		<tag k="natural" v="water" />
		<tag k="ssr:stedsnr" v="149063" />
	</node>
	<node lat="59.605719442453704" lon="7.807341660421354" id="-24300">
		<tag k="name" v="Steintjønn" />
		<tag k="natural" v="water" />
		<tag k="ssr:stedsnr" v="149066" />
	</node>
	<node lat="59.60854722595659" lon="7.787466671546357" id="-24301">
		<tag k="name" v="Revajuvet" />
		<tag k="natural" v="slope" />
		<tag k="place" v="locality" />
		<tag k="ssr:stedsnr" v="149070" />
	</node>
	<node lat="59.68914999608718" lon="7.7724555543122715" id="-24302">
		<tag k="name" v="Kabrettkleivi" />
		<tag k="natural" v="slope" />
		<tag k="place" v="locality" />
		<tag k="ssr:stedsnr" v="149516" />
	</node>
	<node lat="59.666313893133065" lon="7.943352785643273" id="-24303">
		<tag k="historic" v="shieling" />
		<tag k="name" v="Ånonstøyl" />
		<tag k="place" v="locality" />
		<tag k="ssr:stedsnr" v="149519" />
	</node>
	<node lat="59.66683055548595" lon="7.938133328447987" id="-24304">
		<tag k="name" v="Sudigards-Trogadalane" />
		<tag k="natural" v="valley" />
		<tag k="place" v="locality" />
		<tag k="ssr:stedsnr" v="149523" />
	</node>
	<node lat="59.67495000079731" lon="7.976147225010039" id="-24305">
		<tag k="name" v="Fredheim" />
		<tag k="place" v="farm" />
		<tag k="ssr:stedsnr" v="149535" />
	</node>
	<node lat="59.58998055183833" lon="7.905688893082092" id="-24306">
		<tag k="name" v="Skelvik" />
		<tag k="place" v="farm" />
		<tag k="ssr:stedsnr" v="149423" />
	</node>
	<node lat="59.53865555542021" lon="7.877186107943276" id="-24307">
		<tag k="name" v="Bjønnemyr" />
		<tag k="natural" v="wetland" />
		<tag k="ssr:stedsnr" v="149432" />
	</node>
	<node lat="59.550180558524396" lon="7.931361104610366" id="-24308">
		<tag k="historic" v="shieling" />
		<tag k="name" v="Spektveit" />
		<tag k="place" v="locality" />
		<tag k="ssr:stedsnr" v="149433" />
	</node>
	<node lat="59.54945277572191" lon="7.912477773908484" id="-24309">
		<tag k="name" v="Juvstøylbekken" />
		<tag k="ssr:stedsnr" v="149434" />
		<tag k="waterway" v="stream" />
	</node>
	<node lat="59.75804721777483" lon="7.741022214242622" id="-24310">
		<tag k="name" v="Vidsyn" />
		<tag k="natural" v="slope" />
		<tag k="place" v="locality" />
		<tag k="ssr:stedsnr" v="149470" />
	</node>
	<node lat="59.75612222479562" lon="7.746033327575326" id="-24311">
		<tag k="historic" v="shieling" />
		<tag k="name" v="Dikje" />
		<tag k="place" v="locality" />
		<tag k="ssr:stedsnr" v="149472" />
	</node>
	<node lat="59.56983610673047" lon="8.00824444809202" id="-24312">
		<tag k="name" v="Hyllandskasine" />
		<tag k="natural" v="valley" />
		<tag k="place" v="locality" />
		<tag k="ssr:stedsnr" v="149603" />
	</node>
	<node lat="59.510380552607245" lon="7.978441673904428" id="-24313">
		<tag k="name" v="Syrbrekkskotet" />
		<tag k="natural" v="slope" />
		<tag k="place" v="locality" />
		<tag k="ssr:stedsnr" v="149656" />
	</node>
	<node lat="59.52201944571262" lon="7.9805083260301775" id="-24314">
		<tag k="name" v="Snipekleivnuten" />
		<tag k="natural" v="hill" />
		<tag k="place" v="locality" />
		<tag k="ssr:stedsnr" v="149659" />
	</node>
	<node lat="59.659291667515426" lon="8.032666659425558" id="-24315">
		<tag k="name" v="Totak" />
		<tag k="place" v="farm" />
		<tag k="ssr:stedsnr" v="149804" />
	</node>
	<node lat="59.5856611134495" lon="7.996447213679508" id="-24316">
		<tag k="name" v="Hyljås" />
		<tag k="natural" v="hill" />
		<tag k="place" v="locality" />
		<tag k="ssr:stedsnr" v="149704" />
	</node>
	<node lat="59.688766668117296" lon="7.876338884282927" id="-24317">
		<tag k="name" v="Tatretjønn" />
		<tag k="natural" v="water" />
		<tag k="ssr:stedsnr" v="149708" />
	</node>
	<node lat="59.54205277566249" lon="7.975972221185447" id="-24318">
		<tag k="historic" v="shieling" />
		<tag k="name" v="Sudmosli" />
		<tag k="place" v="locality" />
		<tag k="ssr:stedsnr" v="149763" />
	</node>
	<node lat="59.59058333051908" lon="8.116952784092385" id="-24319">
		<tag k="name" v="Bjønndal" />
		<tag k="natural" v="valley" />
		<tag k="place" v="locality" />
		<tag k="ssr:stedsnr" v="149954" />
	</node>
	<node lat="59.56369721787891" lon="8.052924995507746" id="-24320">
		<tag k="name" v="Hauskvårn" />
		<tag k="natural" v="hill" />
		<tag k="place" v="locality" />
		<tag k="ssr:stedsnr" v="149956" />
	</node>
	<node lat="59.56843611295739" lon="8.060816660432804" id="-24321">
		<tag k="name" v="Storeli" />
		<tag k="natural" v="slope" />
		<tag k="place" v="locality" />
		<tag k="ssr:stedsnr" v="149962" />
	</node>
	<node lat="59.65010992740752" lon="8.209366401377872" id="-24322">
		<tag k="fixme" v="consider natural=peak for the most distinct mountains in the district" />
		<tag k="name" v="Langenut" />
		<tag k="natural" v="hill" />
		<tag k="place" v="locality" />
		<tag k="ssr:stedsnr" v="152463" />
	</node>
	<node lat="59.64392690808624" lon="8.158234745231665" id="-24323">
		<tag k="alt_name" v="Skardalskardet" />
		<tag k="name" v="Skardalskaret" />
		<tag k="natural" v="valley" />
		<tag k="place" v="locality" />
		<tag k="ssr:stedsnr" v="152369" />
	</node>
	<node lat="59.621661110716566" lon="8.171330547508605" id="-24324">
		<tag k="name" v="Storebekk" />
		<tag k="ssr:stedsnr" v="152608" />
		<tag k="waterway" v="stream" />
	</node>
	<node lat="59.64267778101826" lon="8.23926388064115" id="-24325">
		<tag k="name" v="Glupen" />
		<tag k="natural" v="valley" />
		<tag k="place" v="locality" />
		<tag k="ssr:stedsnr" v="152802" />
	</node>
	<node lat="59.66911364330961" lon="8.161572720658224" id="-24326">
		<tag k="name" v="Berganes" />
		<tag k="natural" v="cape" />
		<tag k="ssr:stedsnr" v="152820" />
	</node>
	<node lat="59.663287458278475" lon="8.19990521398387" id="-24327">
		<tag k="historic" v="shieling" />
		<tag k="loc_name" v="Steinstaulen" />
		<tag k="name" v="Steinstøl" />
		<tag k="place" v="isolated_dwelling" />
		<tag k="ssr:stedsnr" v="152823" />
	</node>
	<node lat="59.74999444104765" lon="7.867877783680647" id="-24328">
		<tag k="fixme" v="consider natural=peak for the most distinct mountains in the district" />
		<tag k="name" v="Piggenuten" />
		<tag k="natural" v="hill" />
		<tag k="place" v="locality" />
		<tag k="ssr:stedsnr" v="152703" />
	</node>
	<node lat="59.64128888587839" lon="8.00223889495054" id="-24329">
		<tag k="fixme" v="consider natural=peak for the most distinct mountains in the district" />
		<tag k="name" v="Bronane" />
		<tag k="natural" v="hill" />
		<tag k="place" v="locality" />
		<tag k="ssr:stedsnr" v="153021" />
	</node>
	<node lat="59.67719721836223" lon="8.03836944422453" id="-24330">
		<tag k="name" v="Neslandsgrend" />
		<tag k="place" v="hamlet" />
		<tag k="ssr:stedsnr" v="153001" />
	</node>
	<node lat="59.74364722181669" lon="8.086099993650633" id="-24331">
		<tag k="name" v="Storlistølnuten" />
		<tag k="natural" v="hill" />
		<tag k="place" v="locality" />
		<tag k="ssr:stedsnr" v="153305" />
	</node>
	<node lat="59.6930185090404" lon="8.10521816044875" id="-24332">
		<tag k="building" v="commercial" />
		<tag k="name" v="Mobakken" />
		<tag k="ssr:stedsnr" v="153514" />
	</node>
	<node lat="59.69491940122595" lon="8.121265771191222" id="-24333">
		<tag k="name" v="Langetjønnbekken" />
		<tag k="ssr:stedsnr" v="153520" />
		<tag k="waterway" v="stream" />
	</node>
	<node lat="59.68751574258952" lon="8.145566470440095" id="-24334">
		<tag k="name" v="Tjøruhjedd-dalen" />
		<tag k="natural" v="valley" />
		<tag k="place" v="locality" />
		<tag k="ssr:stedsnr" v="153750" />
	</node>
	<node lat="59.75573333425022" lon="8.057633342138601" id="-24335">
		<tag k="name" v="Bukselauskjosi" />
		<tag k="place" v="locality" />
		<tag k="ssr:stedsnr" v="153758" />
	</node>
	<node lat="59.68938850344837" lon="8.235008955098829" id="-24336">
		<tag k="historic" v="shieling" />
		<tag k="name" v="Glosimot" />
		<tag k="place" v="isolated_dwelling" />
		<tag k="ssr:stedsnr" v="153761" />
	</node>
	<node lat="59.76150277410921" lon="8.067752786647704" id="-24337">
		<tag k="name" v="Egilstjønn" />
		<tag k="natural" v="water" />
		<tag k="ssr:stedsnr" v="153765" />
	</node>
	<node lat="59.68716029433537" lon="8.139141885786858" id="-24338">
		<tag k="fixme" v="consider natural=peak for the most distinct mountains in the district" />
		<tag k="name" v="Buktenuten" />
		<tag k="natural" v="hill" />
		<tag k="place" v="locality" />
		<tag k="ssr:stedsnr" v="153768" />
	</node>
	<node lat="59.67309721923585" lon="8.057011109364078" id="-24339">
		<tag k="name" v="Langåshaugen" />
		<tag k="natural" v="hill" />
		<tag k="place" v="locality" />
		<tag k="ssr:stedsnr" v="153902" />
	</node>
	<node lat="59.66485833378423" lon="8.086616672653236" id="-24340">
		<tag k="historic" v="shieling" />
		<tag k="loc_name" v="Listaul" />
		<tag k="name" v="Listøl" />
		<tag k="place" v="isolated_dwelling" />
		<tag k="ssr:stedsnr" v="153905" />
	</node>
	<node lat="59.70647664079655" lon="8.145966807568968" id="-24341">
		<tag k="name" v="Juvet" />
		<tag k="natural" v="gorge" />
		<tag k="ssr:stedsnr" v="153652" />
	</node>
	<node lat="59.714619448445355" lon="8.025841658111295" id="-24342">
		<tag k="name" v="Bitubekk" />
		<tag k="place" v="isolated_dwelling" />
		<tag k="ssr:stedsnr" v="153859" />
	</node>
	<node lat="59.62166111083735" lon="7.8216027819073375" id="-24343">
		<tag k="bridge" v="yes" />
		<tag k="layer" v="1" />
		<tag k="name" v="Vinje" />
		<tag k="ssr:stedsnr" v="168376" />
	</node>
	<node lat="59.5874888859606" lon="8.13162777499943" id="-24344">
		<tag k="bridge" v="yes" />
		<tag k="layer" v="1" />
		<tag k="name" v="Sondovsli" />
		<tag k="ssr:stedsnr" v="168380" />
	</node>
	<node lat="59.75240555755034" lon="7.564997223962145" id="-24345">
		<tag k="name" v="Surtekjerrlii" />
		<tag k="natural" v="slope" />
		<tag k="place" v="locality" />
		<tag k="ssr:stedsnr" v="170069" />
	</node>
	<node lat="59.73907777465628" lon="7.561466669514141" id="-24346">
		<tag k="name" v="Gunvaldjord vesle" />
		<tag k="place" v="farm" />
		<tag k="ssr:stedsnr" v="170215" />
	</node>
	<node lat="59.643180552059086" lon="7.56678888136009" id="-24347">
		<tag k="name" v="Juvendbekken" />
		<tag k="ssr:stedsnr" v="170860" />
		<tag k="waterway" v="stream" />
	</node>
	<node lat="59.75873888944273" lon="7.655636110679328" id="-24348">
		<tag k="name" v="Gaukekullen" />
		<tag k="natural" v="hill" />
		<tag k="place" v="locality" />
		<tag k="ssr:stedsnr" v="171009" />
	</node>
	<node lat="59.68466944632188" lon="7.649836109631225" id="-24349">
		<tag k="name" v="Skoralii" />
		<tag k="natural" v="slope" />
		<tag k="place" v="locality" />
		<tag k="ssr:stedsnr" v="171265" />
	</node>
	<node lat="59.721613885674245" lon="7.5881666752742385" id="-24350">
		<tag k="name" v="Mjølstøyltjønni" />
		<tag k="natural" v="water" />
		<tag k="ssr:stedsnr" v="171305" />
	</node>
	<node lat="59.727955554493214" lon="7.637344441828775" id="-24351">
		<tag k="historic" v="shieling" />
		<tag k="name" v="Nesstøyl" />
		<tag k="place" v="isolated_dwelling" />
		<tag k="ssr:stedsnr" v="171709" />
	</node>
	<node lat="59.72525833576229" lon="7.622791662408897" id="-24352">
		<tag k="name" v="Trolldaltjønn" />
		<tag k="natural" v="water" />
		<tag k="ssr:stedsnr" v="171710" />
	</node>
	<node lat="59.73640278170776" lon="7.5977694401431695" id="-24353">
		<tag k="name" v="Kjela" />
		<tag k="ssr:stedsnr" v="171711" />
		<tag k="waterway" v="river" />
	</node>
	<node lat="59.8032916664202" lon="7.580827783314999" id="-24354">
		<tag k="ford" v="yes" />
		<tag k="name" v="Vadet" />
		<tag k="place" v="locality" />
		<tag k="ssr:stedsnr" v="172702" />
	</node>
	<node lat="59.77548888620085" lon="7.371027782311043" id="-24355">
		<tag k="name" v="Såviskor" />
		<tag k="place" v="locality" />
		<tag k="ssr:stedsnr" v="178075" />
	</node>
	<node lat="59.80278610740941" lon="7.445436115967769" id="-24356">
		<tag k="name" v="Spækjebekklii" />
		<tag k="natural" v="slope" />
		<tag k="place" v="locality" />
		<tag k="ssr:stedsnr" v="178107" />
	</node>
	<node lat="59.78849444682499" lon="7.402705551630061" id="-24357">
		<tag k="highway" v="path" />
		<tag k="name" v="Hestegretbakken" />
		<tag k="ssr:stedsnr" v="178118" />
	</node>
	<node lat="59.778191670045096" lon="7.305924993797341" id="-24358">
		<tag k="name" v="Løyningristi" />
		<tag k="natural" v="ridge" />
		<tag k="place" v="locality" />
		<tag k="ssr:stedsnr" v="178304" />
	</node>
	<node lat="59.77354999878088" lon="7.3444916751095874" id="-24359">
		<tag k="name" v="Arbulii" />
		<tag k="natural" v="slope" />
		<tag k="place" v="locality" />
		<tag k="ssr:stedsnr" v="178365" />
	</node>
	<node lat="59.78762777993512" lon="7.566497227447268" id="-24360">
		<tag k="name" v="Høyseli" />
		<tag k="place" v="locality" />
		<tag k="ssr:stedsnr" v="178802" />
	</node>
	<node lat="59.78740833465614" lon="7.555888897554233" id="-24361">
		<tag k="name" v="Maurbulii" />
		<tag k="natural" v="slope" />
		<tag k="place" v="locality" />
		<tag k="ssr:stedsnr" v="178813" />
	</node>
	<node lat="59.76842777947964" lon="7.388808336566661" id="-24362">
		<tag k="name" v="Sandnes" />
		<tag k="natural" v="cape" />
		<tag k="ssr:stedsnr" v="179815" />
	</node>
	<node lat="59.56465994282167" lon="8.015465237280395" id="-24363">
		<tag k="name" v="Fonnli" />
		<tag k="place" v="farm" />
		<tag k="ssr:stedsnr" v="185102" />
	</node>
	<node lat="59.56764999811558" lon="8.00635834122126" id="-24364">
		<tag k="name" v="Haugen" />
		<tag k="place" v="farm" />
		<tag k="ssr:stedsnr" v="185104" />
	</node>
	<node lat="59.668230557680594" lon="8.176113881922467" id="-24365">
		<tag k="alt_name" v="Stuvestaul" />
		<tag k="historic" v="shieling" />
		<tag k="name" v="Stuvestøl" />
		<tag k="place" v="isolated_dwelling" />
		<tag k="ssr:stedsnr" v="185140" />
	</node>
	<node lat="59.70665277787534" lon="8.105269448979747" id="-24366">
		<tag k="alt_name" v="Nåtteberg" />
		<tag k="historic" v="shieling" />
		<tag k="name" v="Notteberg" />
		<tag k="place" v="isolated_dwelling" />
		<tag k="ssr:stedsnr" v="185186" />
	</node>
	<node lat="59.726361113416225" lon="7.481458329924561" id="-24367">
		<tag k="name" v="Flothylåi" />
		<tag k="ssr:stedsnr" v="185305" />
		<tag k="waterway" v="river" />
	</node>
	<node lat="59.72679444096918" lon="7.428975008758541" id="-24368">
		<tag k="fixme" v="consider natural=peak for the most distinct mountains in the district" />
		<tag k="name" v="Klypenuten" />
		<tag k="natural" v="hill" />
		<tag k="place" v="locality" />
		<tag k="ssr:stedsnr" v="185324" />
	</node>
	<node lat="59.738086114623314" lon="7.553249991492664" id="-24370">
		<tag k="name" v="Nigard Kvålen" />
		<tag k="old_name" v="Nigard" />
		<tag k="place" v="farm" />
		<tag k="ssr:stedsnr" v="185337" />
	</node>
	<node lat="59.73800833497798" lon="7.558802769718037" id="-24371">
		<tag k="fixme" v="consider place=hamlet" />
		<tag k="name" v="Gugarden" />
		<tag k="place" v="farm" />
		<tag k="ssr:stedsnr" v="185340" />
	</node>
	<node lat="59.51697777590368" lon="7.982908326181911" id="-24372">
		<tag k="name" v="Sveigen" />
		<tag k="place" v="farm" />
		<tag k="ssr:stedsnr" v="185034" />
	</node>
	<node lat="59.531408331395575" lon="7.958400006179086" id="-24373">
		<tag k="alt_name" v="Rugi" />
		<tag k="name" v="Rugli" />
		<tag k="place" v="farm" />
		<tag k="ssr:stedsnr" v="185040" />
	</node>
	<node lat="59.55388333076139" lon="7.973541671311403" id="-24374">
		<tag k="fixme" v="consider place=hamlet" />
		<tag k="name" v="Mannåsgrend" />
		<tag k="old_name" v="Mannås-grend" />
		<tag k="place" v="village" />
		<tag k="ssr:stedsnr" v="185096" />
	</node>
	<node lat="59.56343888871689" lon="7.918280547411519" id="-24375">
		<tag k="historic" v="shieling" />
		<tag k="name" v="Fossane" />
		<tag k="place" v="isolated_dwelling" />
		<tag k="ssr:stedsnr" v="185099" />
	</node>
	<node lat="59.57867777490722" lon="8.196455563153675" id="-24376">
		<tag k="name" v="Ålandsli" />
		<tag k="place" v="farm" />
		<tag k="ssr:stedsnr" v="185430" />
	</node>
	<node lat="59.89492777553622" lon="7.842888886026115" id="-24377">
		<tag k="name" v="Fosseggi" />
		<tag k="place" v="isolated_dwelling" />
		<tag k="ssr:stedsnr" v="185604" />
	</node>
	<node lat="59.74476944629187" lon="8.031847220999596" id="-24378">
		<tag k="alt_name" v="Hoskuldsmoen" />
		<tag k="name" v="Hoskuldsmogen" />
		<tag k="place" v="locality" />
		<tag k="ssr:stedsnr" v="185641" />
	</node>
	<node lat="59.91677777783353" lon="7.891077772854832" id="-24379">
		<tag k="name" v="Krakavassgjuvet" />
		<tag k="natural" v="valley" />
		<tag k="place" v="locality" />
		<tag k="ssr:stedsnr" v="185610" />
	</node>
	<node lat="59.73127500043079" lon="7.825394453265246" id="-24380">
		<tag k="name" v="Haugevikje" />
		<tag k="old_name" v="Haugviki" />
		<tag k="place" v="locality" />
		<tag k="ssr:stedsnr" v="185648" />
	</node>
	<node lat="59.55330555391974" lon="8.164025006132293" id="-24381">
		<tag k="fixme" v="consider place=hamlet" />
		<tag k="name" v="Berge" />
		<tag k="place" v="farm" />
		<tag k="ssr:stedsnr" v="185390" />
	</node>
	<node lat="59.71351666644891" lon="7.597702770473366" id="-24382">
		<tag k="alt_name" v="Kroktjørn" />
		<tag k="name" v="Kroktjønn" />
		<tag k="natural" v="water" />
		<tag k="ssr:stedsnr" v="185510" />
	</node>
	<node lat="59.72599999787551" lon="7.674433341406927" id="-24383">
		<tag k="alt_name" v="Tveitevatn" />
		<tag k="name" v="Tveitevatnet" />
		<tag k="natural" v="water" />
		<tag k="ssr:stedsnr" v="185532" />
		<tag k="water" v="lake" />
	</node>
	<node lat="59.67765278098974" lon="7.466633339121519" id="-24384">
		<tag k="fixme" v="consider natural=peak for the most distinct mountains in the district" />
		<tag k="name" v="Vardenutane" />
		<tag k="natural" v="hill" />
		<tag k="place" v="locality" />
		<tag k="ssr:stedsnr" v="185542" />
	</node>
	<node lat="59.923363888840015" lon="8.048391661662514" id="-24385">
		<tag k="fixme" v="consider place=hamlet" />
		<tag k="name" v="Kovesand" />
		<tag k="place" v="farm" />
		<tag k="ssr:stedsnr" v="185597" />
	</node>
	<node lat="59.898100000906695" lon="7.9273805612210495" id="-24386">
		<tag k="fixme" v="consider natural=peak for the most distinct mountains in the district" />
		<tag k="name" v="Skinnuten" />
		<tag k="natural" v="hill" />
		<tag k="place" v="locality" />
		<tag k="ssr:stedsnr" v="185601" />
	</node>
	<node lat="59.68203055515587" lon="8.029800001446661" id="-24387">
		<tag k="name" v="Nesheim" />
		<tag k="place" v="farm" />
		<tag k="ssr:stedsnr" v="185728" />
	</node>
	<node lat="59.67648611182801" lon="8.037933332611393" id="-24388">
		<tag k="fixme" v="consider place=hamlet" />
		<tag k="name" v="Vasshus" />
		<tag k="place" v="farm" />
		<tag k="ssr:stedsnr" v="185730" />
	</node>
	<node lat="59.68244722436265" lon="8.055836117738838" id="-24389">
		<tag k="name" v="Landsverk" />
		<tag k="place" v="farm" />
		<tag k="ssr:stedsnr" v="185733" />
	</node>
	<node lat="59.717941663983716" lon="8.019941671529745" id="-24390">
		<tag k="name" v="Åmyri" />
		<tag k="place" v="farm" />
		<tag k="ssr:stedsnr" v="185812" />
	</node>
	<node lat="59.70883055586155" lon="8.08662778013308" id="-24391">
		<tag k="alt_name" v="Åsbogtjørn;Åsboktjørni" />
		<tag k="name" v="Åsboktjønni" />
		<tag k="natural" v="water" />
		<tag k="ssr:stedsnr" v="185833" />
	</node>
	<node lat="59.69126944647341" lon="7.905527775081763" id="-24392">
		<tag k="alt_name" v="Brottestodhaugen;Brøttestøhaugane" />
		<tag k="name" v="Brøttestøhaugen" />
		<tag k="old_name" v="Broddestøhaug" />
		<tag k="place" v="farm" />
		<tag k="ssr:stedsnr" v="185844" />
	</node>
	<node lat="59.995502782087414" lon="7.506630546843172" id="-24393">
		<tag k="name" v="Brutjønnane" />
		<tag k="natural" v="water" />
		<tag k="ssr:stedsnr" v="185927" />
	</node>
	<node lat="59.763736110740275" lon="7.307780559016163" id="-24394">
		<tag k="name" v="Skåfonnbekken" />
		<tag k="ssr:stedsnr" v="185928" />
		<tag k="waterway" v="stream" />
	</node>
	<node lat="59.637313887062064" lon="7.7373861104066055" id="-24395">
		<tag k="fixme" v="consider natural=peak for the most distinct mountains in the district" />
		<tag k="name" v="Hagadalstind" />
		<tag k="natural" v="hill" />
		<tag k="place" v="locality" />
		<tag k="ssr:stedsnr" v="185935" />
	</node>
	<node lat="59.6243250039863" lon="7.887652774013907" id="-24396">
		<tag k="name" v="Kåvsåi" />
		<tag k="ssr:stedsnr" v="185948" />
		<tag k="waterway" v="river" />
	</node>
	<node lat="59.95915277398622" lon="7.875874993170948" id="-24397">
		<tag k="fixme" v="consider natural=peak for the most distinct mountains in the district" />
		<tag k="name" v="Vatndalshovda" />
		<tag k="natural" v="hill" />
		<tag k="place" v="locality" />
		<tag k="ssr:stedsnr" v="186608" />
	</node>
	<node lat="59.998361107516516" lon="7.993613895971862" id="-24398">
		<tag k="alt_name" v="Bekkestaultjørni" />
		<tag k="name" v="Bekkestøyltjønni" />
		<tag k="natural" v="water" />
		<tag k="ssr:stedsnr" v="186635" />
	</node>
	<node lat="59.988627773888275" lon="8.004697222426042" id="-24399">
		<tag k="name" v="Yvershyttbotnen" />
		<tag k="natural" v="valley" />
		<tag k="place" v="locality" />
		<tag k="ssr:stedsnr" v="186636" />
	</node>
	<node lat="59.800288893073485" lon="7.65363611854315" id="-24400">
		<tag k="name" v="Årdalsdokki" />
		<tag k="natural" v="valley" />
		<tag k="place" v="locality" />
		<tag k="ssr:stedsnr" v="186580" />
	</node>
	<node lat="59.79080277958321" lon="7.61192222397871" id="-24401">
		<tag k="name" v="Spærutjønni" />
		<tag k="natural" v="water" />
		<tag k="ssr:stedsnr" v="186581" />
	</node>
	<node lat="59.96146110764008" lon="8.034988883855041" id="-24402">
		<tag k="fixme" v="consider natural=peak for the most distinct mountains in the district" />
		<tag k="name" v="Bjønnurnibba" />
		<tag k="natural" v="hill" />
		<tag k="place" v="locality" />
		<tag k="ssr:stedsnr" v="186706" />
	</node>
	<node lat="59.82186389297054" lon="7.998313884463042" id="-24403">
		<tag k="fixme" v="consider natural=peak for the most distinct mountains in the district" />
		<tag k="name" v="Himmelsynnettane" />
		<tag k="natural" v="hill" />
		<tag k="place" v="locality" />
		<tag k="ssr:stedsnr" v="186713" />
	</node>
	<node lat="59.836275002783594" lon="7.946927769278109" id="-24404">
		<tag k="alt_name" v="Åndeskard" />
		<tag k="name" v="Åndeskar" />
		<tag k="natural" v="valley" />
		<tag k="place" v="locality" />
		<tag k="ssr:stedsnr" v="186739" />
	</node>
	<node lat="59.867738889192395" lon="7.521133337917366" id="-24405">
		<tag k="fixme" v="consider tourism=alpine_hut or tourism=chalet" />
		<tag k="name" v="Berunuten" />
		<tag k="ssr:stedsnr" v="186990" />
		<tag k="tourism" v="wilderness_hut" />
	</node>
	<node lat="59.86325000353685" lon="7.634638894626019" id="-24406">
		<tag k="name" v="Saltpytt, øvre" />
		<tag k="place" v="locality" />
		<tag k="ssr:stedsnr" v="186996" />
	</node>
	<node lat="60.01941389151454" lon="7.857611115888199" id="-24407">
		<tag k="name" v="Plassefoss" />
		<tag k="natural" v="waterfall" />
		<tag k="ssr:stedsnr" v="187475" />
	</node>
	<node lat="60.02801388919444" lon="7.9214305475150715" id="-24408">
		<tag k="name" v="Lidalen" />
		<tag k="natural" v="valley" />
		<tag k="place" v="locality" />
		<tag k="ssr:stedsnr" v="187480" />
	</node>
	<node lat="60.0319222265495" lon="7.902799990890441" id="-24409">
		<tag k="name" v="Hyttekvæven" />
		<tag k="natural" v="valley" />
		<tag k="place" v="locality" />
		<tag k="ssr:stedsnr" v="187482" />
	</node>
	<node lat="60.01294166615753" lon="7.99602500883303" id="-24410">
		<tag k="fixme" v="consider natural=peak for the most distinct mountains in the district" />
		<tag k="name" v="Haukereirnuten" />
		<tag k="natural" v="hill" />
		<tag k="place" v="locality" />
		<tag k="ssr:stedsnr" v="188479" />
	</node>
	<node lat="59.771388890697075" lon="7.412519435599458" id="-24411">
		<tag k="name" v="Damtjønnane" />
		<tag k="natural" v="water" />
		<tag k="ssr:stedsnr" v="208605" />
	</node>
	<node lat="59.71426389004464" lon="7.752488889546996" id="-24412">
		<tag k="name" v="Lunden" />
		<tag k="place" v="farm" />
		<tag k="ssr:stedsnr" v="210011" />
	</node>
	<node lat="59.71705000446654" lon="7.976183338228589" id="-24413">
		<tag k="name" v="Fivlandsdalen" />
		<tag k="natural" v="valley" />
		<tag k="place" v="locality" />
		<tag k="ssr:stedsnr" v="210106" />
	</node>
	<node lat="59.62880555422864" lon="7.807338882810652" id="-24414">
		<tag k="historic" v="shieling" />
		<tag k="name" v="Sudlii" />
		<tag k="place" v="locality" />
		<tag k="ssr:stedsnr" v="210115" />
	</node>
	<node lat="59.611083331727976" lon="7.813347218212194" id="-24415">
		<tag k="name" v="Stakksteindalen" />
		<tag k="natural" v="valley" />
		<tag k="place" v="locality" />
		<tag k="ssr:stedsnr" v="210117" />
	</node>
	<node lat="59.65388611222609" lon="7.783205551798501" id="-24416">
		<tag k="alt_name" v="Seljeskard" />
		<tag k="name" v="Seljeskar" />
		<tag k="natural" v="valley" />
		<tag k="place" v="locality" />
		<tag k="ssr:stedsnr" v="210132" />
	</node>
	<node lat="59.661061108397185" lon="7.908524992604554" id="-24417">
		<tag k="name" v="Huskebu" />
		<tag k="natural" v="slope" />
		<tag k="place" v="locality" />
		<tag k="ssr:stedsnr" v="210332" />
	</node>
	<node lat="59.66630833440944" lon="7.906294438543459" id="-24418">
		<tag k="name" v="Hattemyrane" />
		<tag k="natural" v="wetland" />
		<tag k="ssr:stedsnr" v="210333" />
	</node>
	<node lat="59.6201166661816" lon="7.909211115003537" id="-24419">
		<tag k="name" v="Steintjønnlie" />
		<tag k="natural" v="slope" />
		<tag k="place" v="locality" />
		<tag k="ssr:stedsnr" v="210376" />
	</node>
	<node lat="59.62005833407214" lon="7.848619440963281" id="-24420">
		<tag k="historic" v="shieling" />
		<tag k="name" v="Øvrebø" />
		<tag k="place" v="locality" />
		<tag k="ssr:stedsnr" v="210387" />
	</node>
	<node lat="59.610841670401655" lon="8.019900000913879" id="-24421">
		<tag k="name" v="Steinsrud" />
		<tag k="place" v="farm" />
		<tag k="ssr:stedsnr" v="210526" />
	</node>
	<node lat="59.66535833300995" lon="7.977855547345294" id="-24422">
		<tag k="alt_name" v="Storhomen" />
		<tag k="name" v="Storhome" />
		<tag k="place" v="islet" />
		<tag k="ssr:stedsnr" v="210532" />
	</node>
	<node lat="59.741911109461114" lon="7.7870111093086445" id="-24423">
		<tag k="name" v="Rodalen" />
		<tag k="natural" v="valley" />
		<tag k="place" v="locality" />
		<tag k="ssr:stedsnr" v="210474" />
	</node>
	<node lat="59.735097219538346" lon="7.791730553178245" id="-24424">
		<tag k="historic" v="shieling" />
		<tag k="name" v="Gamle Tjønnestøyl" />
		<tag k="place" v="locality" />
		<tag k="ssr:stedsnr" v="210475" />
	</node>
	<node lat="59.76400555849765" lon="7.741263885503188" id="-24425">
		<tag k="name" v="Haugås" />
		<tag k="natural" v="slope" />
		<tag k="place" v="locality" />
		<tag k="ssr:stedsnr" v="210479" />
	</node>
	<node lat="59.753783336021364" lon="7.741944436965999" id="-24426">
		<tag k="historic" v="shieling" />
		<tag k="name" v="Augonslistøyl" />
		<tag k="place" v="locality" />
		<tag k="ssr:stedsnr" v="210480" />
	</node>
	<node lat="59.75856944174332" lon="7.735880560974747" id="-24427">
		<tag k="name" v="Jasasteinane" />
		<tag k="natural" v="slope" />
		<tag k="place" v="locality" />
		<tag k="ssr:stedsnr" v="210483" />
	</node>
	<node lat="59.627772219784035" lon="7.967436118316291" id="-24428">
		<tag k="name" v="Løkestøyl" />
		<tag k="place" v="farm" />
		<tag k="ssr:stedsnr" v="210628" />
	</node>
	<node lat="59.68104999831335" lon="7.970894436456894" id="-24429">
		<tag k="name" v="Husebøviki" />
		<tag k="natural" v="water" />
		<tag k="ssr:stedsnr" v="210585" />
		<tag k="water" v="lake" />
	</node>
	<node lat="59.69935000061938" lon="7.884972230106883" id="-24430">
		<tag k="name" v="Grungestø" />
		<tag k="natural" v="bay" />
		<tag k="ssr:stedsnr" v="210728" />
	</node>
	<node lat="59.79862777805502" lon="7.908233329819024" id="-24431">
		<tag k="name" v="Bjønnebu" />
		<tag k="place" v="locality" />
		<tag k="ssr:stedsnr" v="213479" />
	</node>
	<node lat="59.621288889748755" lon="8.26506943979795" id="-24432">
		<tag k="fixme" v="consider natural=peak for the most distinct mountains in the district" />
		<tag k="name" v="Brendås" />
		<tag k="natural" v="hill" />
		<tag k="place" v="locality" />
		<tag k="ssr:stedsnr" v="213510" />
	</node>
	<node lat="59.618388888519384" lon="8.248016668706507" id="-24433">
		<tag k="name" v="Fjøllii" />
		<tag k="natural" v="cliff" />
		<tag k="ssr:stedsnr" v="213515" />
	</node>
	<node lat="59.60705278057759" lon="8.159152777145003" id="-24434">
		<tag k="alt_name" v="Bosstaultjønni" />
		<tag k="name" v="Bosstøyltjønni" />
		<tag k="natural" v="water" />
		<tag k="ssr:stedsnr" v="213832" />
	</node>
	<node lat="59.6719083335467" lon="8.008469448481748" id="-24435">
		<tag k="name" v="Brendehomen" />
		<tag k="place" v="islet" />
		<tag k="ssr:stedsnr" v="214006" />
	</node>
	<node lat="59.74403055586005" lon="8.170608334105028" id="-24436">
		<tag k="aerialway" v="drag_lift" />
		<tag k="fixme" v="consider the other aerialway types" />
		<tag k="name" v="Vierli skiheis" />
		<tag k="ssr:stedsnr" v="214205" />
	</node>
	<node lat="59.77991389008274" lon="7.714244446479132" id="-24437">
		<tag k="name" v="Nipalie" />
		<tag k="place" v="isolated_dwelling" />
		<tag k="ssr:stedsnr" v="214234" />
	</node>
	<node lat="59.74214166259356" lon="8.231155558632668" id="-24438">
		<tag k="name" v="Lonin" />
		<tag k="ssr:stedsnr" v="214179" />
		<tag k="waterway" v="stream" />
	</node>
	<node lat="59.735102781488386" lon="8.045230560927775" id="-24439">
		<tag k="historic" v="shieling" />
		<tag k="name" v="Gamle Sponshov" />
		<tag k="place" v="isolated_dwelling" />
		<tag k="ssr:stedsnr" v="214411" />
	</node>
	<node lat="59.74064166227917" lon="8.082144437405885" id="-24440">
		<tag k="name" v="Toskeholet" />
		<tag k="natural" v="valley" />
		<tag k="place" v="locality" />
		<tag k="ssr:stedsnr" v="214416" />
	</node>
	<node lat="59.684543016577635" lon="8.156814868613845" id="-24441">
		<tag k="name" v="Hovet" />
		<tag k="place" v="locality" />
		<tag k="ssr:stedsnr" v="214630" />
	</node>
	<node lat="59.69398332903305" lon="8.078044441156504" id="-24442">
		<tag k="name" v="Rugebekk" />
		<tag k="ssr:stedsnr" v="214774" />
		<tag k="waterway" v="stream" />
	</node>
	<node lat="59.879835960611736" lon="8.143500096450778" id="-24443">
		<tag k="name" v="Torveroet" />
		<tag k="place" v="isolated_dwelling" />
		<tag k="ssr:stedsnr" v="214790" />
	</node>
	<node lat="59.657808336956656" lon="8.141741667675703" id="-24444">
		<tag k="name" v="Tessungdalen" />
		<tag k="natural" v="valley" />
		<tag k="place" v="locality" />
		<tag k="ssr:stedsnr" v="214933" />
	</node>
	<node lat="59.78738055445769" lon="8.0826583281595" id="-24445">
		<tag k="name" v="Raunerobekken" />
		<tag k="ssr:stedsnr" v="214683" />
		<tag k="waterway" v="stream" />
	</node>
	<node lat="59.76905833572994" lon="8.141524999246544" id="-24446">
		<tag k="name" v="Aratjønn" />
		<tag k="natural" v="water" />
		<tag k="ssr:stedsnr" v="214824" />
		<tag k="water" v="pond" />
	</node>
	<node lat="59.679588887804705" lon="8.061349999569702" id="-24447">
		<tag k="fixme" v="consider natural=peak for the most distinct mountains in the district" />
		<tag k="name" v="Timbåsen" />
		<tag k="natural" v="hill" />
		<tag k="place" v="locality" />
		<tag k="ssr:stedsnr" v="214898" />
	</node>
	<node lat="59.64275277453249" lon="7.8010722171022016" id="-24448">
		<tag k="alt_name" v="Austerhus" />
		<tag k="name" v="Austrhus" />
		<tag k="place" v="farm" />
		<tag k="ssr:stedsnr" v="270030" />
	</node>
	<node lat="59.67804722094828" lon="7.774861108747796" id="-24449">
		<tag k="historic" v="shieling" />
		<tag k="loc_name" v="Gamlestaul" />
		<tag k="name" v="Gamlestøyl" />
		<tag k="place" v="locality" />
		<tag k="ssr:stedsnr" v="270098" />
	</node>
	<node lat="59.655980554447524" lon="7.784730552412254" id="-24450">
		<tag k="name" v="Skinnuten" />
		<tag k="natural" v="hill" />
		<tag k="place" v="locality" />
		<tag k="ssr:stedsnr" v="270040" />
	</node>
	<node lat="59.59569444400483" lon="7.903069443548712" id="-24451">
		<tag k="name" v="Kjeringdalen" />
		<tag k="natural" v="valley" />
		<tag k="place" v="locality" />
		<tag k="ssr:stedsnr" v="270338" />
	</node>
	<node lat="59.67438055193923" lon="7.924127773928163" id="-24452">
		<tag k="name" v="Djupetjønn" />
		<tag k="natural" v="water" />
		<tag k="ssr:stedsnr" v="270300" />
	</node>
	<node lat="59.67256666308936" lon="7.914699997431159" id="-24453">
		<tag k="historic" v="shieling" />
		<tag k="name" v="Beltroslie" />
		<tag k="place" v="locality" />
		<tag k="ssr:stedsnr" v="270320" />
	</node>
	<node lat="59.740577779359164" lon="7.800922224504701" id="-24454">
		<tag k="historic" v="shieling" />
		<tag k="name" v="Store Ramberg" />
		<tag k="place" v="locality" />
		<tag k="ssr:stedsnr" v="270436" />
	</node>
	<node lat="59.6003499956186" lon="7.866147227283855" id="-24455">
		<tag k="name" v="Hovudduk" />
		<tag k="natural" v="hill" />
		<tag k="place" v="locality" />
		<tag k="ssr:stedsnr" v="270354" />
	</node>
	<node lat="59.631388892152636" lon="7.9135777697999945" id="-24456">
		<tag k="name" v="Rakkedalen" />
		<tag k="natural" v="valley" />
		<tag k="place" v="locality" />
		<tag k="ssr:stedsnr" v="270360" />
	</node>
	<node lat="59.61774444104068" lon="7.890938886853027" id="-24457">
		<tag k="alt_name" v="Flåten" />
		<tag k="fixme" v="consider place=hamlet" />
		<tag k="name" v="Floten" />
		<tag k="place" v="farm" />
		<tag k="ssr:stedsnr" v="270367" />
	</node>
	<node lat="59.73935555136452" lon="7.785236117991009" id="-24458">
		<tag k="historic" v="shieling" />
		<tag k="name" v="Nybu" />
		<tag k="place" v="locality" />
		<tag k="ssr:stedsnr" v="270462" />
	</node>
	<node lat="59.73336666965026" lon="7.777152780264343" id="-24459">
		<tag k="name" v="Tjønnestøylnuten" />
		<tag k="natural" v="hill" />
		<tag k="place" v="locality" />
		<tag k="ssr:stedsnr" v="270470" />
	</node>
	<node lat="59.689019442568245" lon="7.741213887418971" id="-24460">
		<tag k="name" v="Smylekullen" />
		<tag k="natural" v="ridge" />
		<tag k="place" v="locality" />
		<tag k="ssr:stedsnr" v="270511" />
	</node>
	<node lat="59.69021944702614" lon="7.783397228279782" id="-24461">
		<tag k="name" v="Øvre Bjønnesundtjønn" />
		<tag k="natural" v="water" />
		<tag k="ssr:stedsnr" v="270514" />
	</node>
</osm>
