<?xml version="1.0" encoding="UTF-8"?>
<osm version="0.6" generator="osmapis">
	<node lat="59.56802500136409" lon="8.112250007636286" id="-35737">
		<tag k="fixme" v="consider natural=peak for the most distinct mountains in the district" />
		<tag k="name" v="Valskarvet" />
		<tag k="natural" v="hill" />
		<tag k="place" v="locality" />
		<tag k="ssr:stedsnr" v="3391" />
	</node>
	<node lat="59.65720277380156" lon="7.6815333356391555" id="-35738">
		<tag k="fixme" v="consider natural=peak for the most distinct mountains in the district" />
		<tag k="name" v="Berbunuten" />
		<tag k="natural" v="hill" />
		<tag k="place" v="locality" />
		<tag k="ssr:stedsnr" v="3507" />
	</node>
	<node lat="59.62122500324279" lon="7.5889833355768985" id="-35742">
		<tag k="name" v="Rassteindalen" />
		<tag k="natural" v="valley" />
		<tag k="place" v="locality" />
		<tag k="ssr:stedsnr" v="3695" />
	</node>
	<node lat="59.89073333522023" lon="7.512355559542641" id="-35762">
		<tag k="fixme" v="consider natural=peak for the most distinct mountains in the district" />
		<tag k="name" v="Berunuten, vesle" />
		<tag k="natural" v="hill" />
		<tag k="place" v="locality" />
		<tag k="ssr:stedsnr" v="3988" />
	</node>
	<node lat="59.95054444854008" lon="7.378091659706538" id="-35767">
		<tag k="fixme" v="consider natural=peak for the most distinct mountains in the district" />
		<tag k="name" v="Urdeggi" />
		<tag k="natural" v="hill" />
		<tag k="place" v="locality" />
		<tag k="ssr:stedsnr" v="3882" />
	</node>
	<node lat="60.04868610879989" lon="7.897524992938301" id="-35772">
		<tag k="fixme" v="consider natural=peak for the most distinct mountains in the district" />
		<tag k="name" v="Skriudalseggi" />
		<tag k="natural" v="hill" />
		<tag k="place" v="locality" />
		<tag k="ssr:stedsnr" v="4517" />
	</node>
	<node lat="59.7837166677116" lon="7.379355563089748" id="-35775">
		<tag k="alt_name" v="Ufornuten" />
		<tag k="fixme" v="consider natural=peak for the most distinct mountains in the district" />
		<tag k="name" v="Uførenuten" />
		<tag k="natural" v="hill" />
		<tag k="place" v="locality" />
		<tag k="ssr:stedsnr" v="4529" />
	</node>
	<node lat="59.78852222033055" lon="7.641144442016004" id="-35776">
		<tag k="fixme" v="consider natural=peak for the most distinct mountains in the district" />
		<tag k="name" v="Tverrfjellet" />
		<tag k="natural" v="hill" />
		<tag k="place" v="locality" />
		<tag k="ssr:stedsnr" v="4532" />
	</node>
	<node lat="59.79150555240921" lon="7.582563893112382" id="-35777">
		<tag k="name" v="Hågehaug" />
		<tag k="natural" v="hill" />
		<tag k="place" v="locality" />
		<tag k="ssr:stedsnr" v="4533" />
	</node>
	<node lat="59.79689166807362" lon="7.347775006975892" id="-35778">
		<tag k="fixme" v="consider natural=peak for the most distinct mountains in the district" />
		<tag k="name" v="Vågsliheii" />
		<tag k="natural" v="hill" />
		<tag k="place" v="locality" />
		<tag k="ssr:stedsnr" v="4545" />
	</node>
	<node lat="59.81076944421472" lon="7.644808336109867" id="-35779">
		<tag k="fixme" v="consider natural=peak for the most distinct mountains in the district" />
		<tag k="name" v="Ruvlenut" />
		<tag k="natural" v="hill" />
		<tag k="place" v="locality" />
		<tag k="ssr:stedsnr" v="4550" />
	</node>
	<node lat="59.963683333134384" lon="7.845886117461835" id="-35780">
		<tag k="alt_name" v="Vasstjørnflotti" />
		<tag k="name" v="Vasstjønnflotti" />
		<tag k="natural" v="slope" />
		<tag k="place" v="locality" />
		<tag k="ssr:stedsnr" v="4555" />
	</node>
	<node lat="59.96847778176611" lon="7.961700000957645" id="-35786">
		<tag k="name" v="Mortålii" />
		<tag k="natural" v="slope" />
		<tag k="place" v="locality" />
		<tag k="ssr:stedsnr" v="4677" />
	</node>
	<node lat="59.83650833040602" lon="7.957230560456281" id="-35788">
		<tag k="name" v="Vesle Kråmdalen" />
		<tag k="natural" v="valley" />
		<tag k="place" v="locality" />
		<tag k="ssr:stedsnr" v="4710" />
	</node>
	<node lat="59.865883330711455" lon="7.747338897214508" id="-35790">
		<tag k="fixme" v="consider natural=peak for the most distinct mountains in the district" />
		<tag k="name" v="Stoleggi" />
		<tag k="natural" v="hill" />
		<tag k="place" v="locality" />
		<tag k="ssr:stedsnr" v="4767" />
	</node>
	<node lat="60.00472777624677" lon="7.917974999036199" id="-35792">
		<tag k="fixme" v="consider natural=peak for the most distinct mountains in the district" />
		<tag k="loc_name" v="Gurpestigoksli" />
		<tag k="name" v="Gurpestigaksli" />
		<tag k="natural" v="hill" />
		<tag k="place" v="locality" />
		<tag k="ssr:stedsnr" v="5522" />
	</node>
	<node lat="60.0146249959618" lon="7.487561118209122" id="-35793">
		<tag k="fixme" v="consider natural=peak for the most distinct mountains in the district" />
		<tag k="name" v="Falkenuten" />
		<tag k="natural" v="hill" />
		<tag k="place" v="locality" />
		<tag k="ssr:stedsnr" v="5659" />
	</node>
	<node lat="59.71966666658144" lon="7.665394444837457" id="-35800">
		<tag k="name" v="Granastøyljuvet" />
		<tag k="natural" v="gorge" />
		<tag k="ssr:stedsnr" v="232315" />
	</node>
	<node lat="59.718900003704725" lon="7.658622226002392" id="-35801">
		<tag k="name" v="Nonuten" />
		<tag k="natural" v="hill" />
		<tag k="place" v="locality" />
		<tag k="ssr:stedsnr" v="232317" />
	</node>
	<node lat="59.69751944018924" lon="7.538036114686128" id="-35802">
		<tag k="name" v="Suledalen" />
		<tag k="natural" v="valley" />
		<tag k="place" v="locality" />
		<tag k="ssr:stedsnr" v="232370" />
	</node>
	<node lat="59.69715832970231" lon="7.603969438690775" id="-35803">
		<tag k="name" v="Vesle Strånddalen" />
		<tag k="natural" v="valley" />
		<tag k="place" v="locality" />
		<tag k="ssr:stedsnr" v="232416" />
	</node>
	<node lat="59.77975277745061" lon="7.532311105740233" id="-35804">
		<tag k="name" v="Gisløysdalen" />
		<tag k="natural" v="valley" />
		<tag k="place" v="locality" />
		<tag k="ssr:stedsnr" v="232559" />
	</node>
	<node lat="59.695355555776736" lon="7.729758327263402" id="-35806">
		<tag k="alt_name" v="Aslaugskard" />
		<tag k="name" v="Aslaugskar" />
		<tag k="natural" v="valley" />
		<tag k="place" v="locality" />
		<tag k="ssr:stedsnr" v="28031" />
	</node>
	<node lat="59.70295555956203" lon="7.713436114804341" id="-35807">
		<tag k="name" v="Piggnuten" />
		<tag k="natural" v="hill" />
		<tag k="place" v="locality" />
		<tag k="ssr:stedsnr" v="28068" />
	</node>
	<node lat="59.61013332934334" lon="7.802191663988071" id="-35808">
		<tag k="name" v="Øykteliåsen" />
		<tag k="natural" v="hill" />
		<tag k="place" v="locality" />
		<tag k="ssr:stedsnr" v="28078" />
	</node>
	<node lat="59.66530000446875" lon="7.800125005065677" id="-35809">
		<tag k="name" v="Brattenos" />
		<tag k="natural" v="ridge" />
		<tag k="place" v="locality" />
		<tag k="ssr:stedsnr" v="28101" />
	</node>
	<node lat="59.714577777537194" lon="7.856013886817476" id="-35810">
		<tag k="alt_name" v="Hamrane" />
		<tag k="name" v="Lytingshamaren" />
		<tag k="natural" v="hill" />
		<tag k="place" v="locality" />
		<tag k="ssr:stedsnr" v="28104" />
	</node>
	<node lat="59.69085000388356" lon="7.79597777391307" id="-35814">
		<tag k="name" v="Gregarsholune" />
		<tag k="natural" v="slope" />
		<tag k="place" v="locality" />
		<tag k="ssr:stedsnr" v="28521" />
	</node>
	<node lat="59.52805555154021" lon="7.97387777764149" id="-35817">
		<tag k="name" v="Jønnbekkriset" />
		<tag k="natural" v="hill" />
		<tag k="place" v="locality" />
		<tag k="ssr:stedsnr" v="28668" />
	</node>
	<node lat="59.50871388735557" lon="7.972783324801471" id="-35818">
		<tag k="name" v="Kjella" />
		<tag k="natural" v="slope" />
		<tag k="place" v="locality" />
		<tag k="ssr:stedsnr" v="28672" />
	</node>
	<node lat="59.52132499591253" lon="7.9795583293750445" id="-35819">
		<tag k="name" v="Snipekleiv" />
		<tag k="natural" v="slope" />
		<tag k="place" v="locality" />
		<tag k="ssr:stedsnr" v="28678" />
	</node>
	<node lat="59.51795000103209" lon="7.9439972241523815" id="-35820">
		<tag k="name" v="Koddesæhaugen" />
		<tag k="natural" v="hill" />
		<tag k="place" v="locality" />
		<tag k="ssr:stedsnr" v="28802" />
	</node>
	<node lat="59.50626944750314" lon="7.974330549535789" id="-35822">
		<tag k="name" v="Nedsteli" />
		<tag k="natural" v="slope" />
		<tag k="place" v="locality" />
		<tag k="ssr:stedsnr" v="28770" />
	</node>
	<node lat="59.58623333178175" lon="8.080738892370768" id="-35824">
		<tag k="name" v="Trogadalen" />
		<tag k="natural" v="valley" />
		<tag k="place" v="locality" />
		<tag k="ssr:stedsnr" v="28980" />
	</node>
	<node lat="59.63122221866958" lon="8.075283342015524" id="-35825">
		<tag k="fixme" v="consider natural=peak for the most distinct mountains in the district" />
		<tag k="name" v="Kyrkjenuten" />
		<tag k="natural" v="hill" />
		<tag k="place" v="locality" />
		<tag k="ssr:stedsnr" v="28990" />
	</node>
	<node lat="59.783811113863756" lon="7.663702775420098" id="-35826">
		<tag k="fixme" v="consider natural=peak for the most distinct mountains in the district" />
		<tag k="name" v="Oksli" />
		<tag k="natural" v="hill" />
		<tag k="place" v="locality" />
		<tag k="ssr:stedsnr" v="31210" />
	</node>
	<node lat="59.64039790136969" lon="8.210369282727578" id="-35827">
		<tag k="name" v="Bakkanjuvet" />
		<tag k="natural" v="gorge" />
		<tag k="ssr:stedsnr" v="31411" />
	</node>
	<node lat="59.70017372086545" lon="8.116245489146456" id="-35829">
		<tag k="name" v="Kjelingjuv" />
		<tag k="natural" v="gorge" />
		<tag k="ssr:stedsnr" v="31515" />
	</node>
	<node lat="59.604880554762794" lon="8.204327772034658" id="-35839">
		<tag k="fixme" v="consider natural=peak for the most distinct mountains in the district" />
		<tag k="name" v="Bjordalshovet" />
		<tag k="natural" v="hill" />
		<tag k="place" v="locality" />
		<tag k="ssr:stedsnr" v="31921" />
	</node>
	<node lat="59.77569444240925" lon="7.390763890811534" id="-35849">
		<tag k="name" v="Dikekvæven" />
		<tag k="natural" v="valley" />
		<tag k="place" v="locality" />
		<tag k="ssr:stedsnr" v="238058" />
	</node>
	<node lat="59.56610277595798" lon="8.159111113040032" id="-35854">
		<tag k="fixme" v="consider natural=peak for the most distinct mountains in the district" />
		<tag k="name" v="Skolås Hermodshov" />
		<tag k="natural" v="hill" />
		<tag k="place" v="locality" />
		<tag k="ssr:stedsnr" v="49968" />
	</node>
	<node lat="59.72055277904258" lon="7.6012000053809405" id="-35856">
		<tag k="name" v="Grånhyttekvæven" />
		<tag k="natural" v="valley" />
		<tag k="place" v="locality" />
		<tag k="ssr:stedsnr" v="50386" />
	</node>
	<node lat="59.72763055120832" lon="7.5974250009140425" id="-35857">
		<tag k="name" v="Grånlii" />
		<tag k="natural" v="slope" />
		<tag k="place" v="locality" />
		<tag k="ssr:stedsnr" v="50612" />
	</node>
	<node lat="59.7648694439071" lon="7.62371944393351" id="-35858">
		<tag k="name" v="Kyrkjestøylhaugen" />
		<tag k="natural" v="hill" />
		<tag k="place" v="locality" />
		<tag k="ssr:stedsnr" v="50771" />
	</node>
	<node lat="59.75716111096157" lon="7.4803305595107865" id="-35866">
		<tag k="name" v="Måketjønn-nuten" />
		<tag k="natural" v="hill" />
		<tag k="place" v="locality" />
		<tag k="ssr:stedsnr" v="57304" />
	</node>
	<node lat="59.773286113882115" lon="7.382077780260423" id="-35874">
		<tag k="name" v="Fjøllehalsen" />
		<tag k="natural" v="ridge" />
		<tag k="place" v="locality" />
		<tag k="ssr:stedsnr" v="63323" />
	</node>
	<node lat="59.66193610760778" lon="7.934633333411633" id="-35877">
		<tag k="alt_name" v="Øyvåaslid-Trogadalane" />
		<tag k="name" v="Trogadalane" />
		<tag k="natural" v="valley" />
		<tag k="place" v="locality" />
		<tag k="ssr:stedsnr" v="63767" />
	</node>
	<node lat="59.65871111238782" lon="7.599000006221283" id="-35890">
		<tag k="name" v="Den lange halli" />
		<tag k="natural" v="slope" />
		<tag k="place" v="locality" />
		<tag k="ssr:stedsnr" v="64508" />
	</node>
	<node lat="59.66714166421981" lon="7.4678777855584215" id="-35892">
		<tag k="name" v="Benken" />
		<tag k="natural" v="hill" />
		<tag k="place" v="locality" />
		<tag k="ssr:stedsnr" v="64521" />
	</node>
	<node lat="59.66715555945641" lon="7.351233327698061" id="-35893">
		<tag k="name" v="Benkjedalen" />
		<tag k="natural" v="valley" />
		<tag k="place" v="locality" />
		<tag k="ssr:stedsnr" v="64524" />
	</node>
	<node lat="59.62665277454782" lon="7.595244439884862" id="-35894">
		<tag k="fixme" v="consider natural=peak for the most distinct mountains in the district" />
		<tag k="name" v="Rassteinnutane" />
		<tag k="natural" v="hill" />
		<tag k="place" v="locality" />
		<tag k="ssr:stedsnr" v="64531" />
	</node>
	<node lat="59.80792500256574" lon="7.533286102652939" id="-35898">
		<tag k="fixme" v="consider natural=peak for the most distinct mountains in the district" />
		<tag k="name" v="Kaldebekknuten" />
		<tag k="natural" v="hill" />
		<tag k="place" v="locality" />
		<tag k="ssr:stedsnr" v="64544" />
	</node>
	<node lat="59.63859999586159" lon="7.3817638959663965" id="-35899">
		<tag k="fixme" v="consider natural=peak for the most distinct mountains in the district" />
		<tag k="name" v="Mosanibba" />
		<tag k="natural" v="hill" />
		<tag k="place" v="locality" />
		<tag k="ssr:stedsnr" v="64549" />
	</node>
	<node lat="59.59688333307226" lon="8.267408335580134" id="-35901">
		<tag k="alt_name" v="Stabben" />
		<tag k="fixme" v="consider natural=peak for the most distinct mountains in the district" />
		<tag k="name" v="Stabbenuten" />
		<tag k="natural" v="hill" />
		<tag k="place" v="locality" />
		<tag k="ssr:stedsnr" v="64467" />
	</node>
	<node lat="59.60440833105771" lon="7.636361104603106" id="-35902">
		<tag k="fixme" v="consider natural=peak for the most distinct mountains in the district" />
		<tag k="name" v="Storemidtfjell" />
		<tag k="natural" v="hill" />
		<tag k="place" v="locality" />
		<tag k="ssr:stedsnr" v="64710" />
	</node>
	<node lat="59.71336111398311" lon="7.818130555651217" id="-35913">
		<tag k="alt_name" v="Trodstøylnuten" />
		<tag k="fixme" v="consider natural=peak for the most distinct mountains in the district" />
		<tag k="name" v="Tråstøylnuten" />
		<tag k="natural" v="hill" />
		<tag k="old_name" v="Tråstølnut" />
		<tag k="place" v="locality" />
		<tag k="ssr:stedsnr" v="64826" />
	</node>
	<node lat="59.70734444386015" lon="7.826391662853874" id="-35915">
		<tag k="name" v="Heggtveitgjuvet" />
		<tag k="natural" v="gorge" />
		<tag k="ssr:stedsnr" v="64838" />
	</node>
	<node lat="59.9008916687362" lon="7.510738886985531" id="-35918">
		<tag k="fixme" v="consider natural=peak for the most distinct mountains in the district" />
		<tag k="name" v="Rioshorn" />
		<tag k="natural" v="hill" />
		<tag k="place" v="locality" />
		<tag k="ssr:stedsnr" v="64978" />
	</node>
	<node lat="60.06872777487034" lon="7.716322223471558" id="-35922">
		<tag k="name" v="Mjågebu" />
		<tag k="place" v="locality" />
		<tag k="ssr:stedsnr" v="65629" />
	</node>
	<node lat="60.02551666842905" lon="7.8653305536620355" id="-35923">
		<tag k="fixme" v="consider natural=peak for the most distinct mountains in the district" />
		<tag k="name" v="Argehovd" />
		<tag k="natural" v="hill" />
		<tag k="place" v="locality" />
		<tag k="ssr:stedsnr" v="65502" />
	</node>
	<node lat="60.03590277430278" lon="7.891647225436379" id="-35926">
		<tag k="fixme" v="consider natural=peak for the most distinct mountains in the district" />
		<tag k="name" v="Hellegjuvnuten" />
		<tag k="natural" v="hill" />
		<tag k="place" v="locality" />
		<tag k="ssr:stedsnr" v="65509" />
	</node>
	<node lat="59.78020555303624" lon="7.394774999418164" id="-35930">
		<tag k="alt_name" v="Råsenuten" />
		<tag k="fixme" v="consider natural=peak for the most distinct mountains in the district" />
		<tag k="name" v="Råsunuten" />
		<tag k="natural" v="hill" />
		<tag k="place" v="locality" />
		<tag k="ssr:stedsnr" v="65522" />
	</node>
	<node lat="59.860063884937205" lon="7.306286105110156" id="-35931">
		<tag k="alt_name" v="Drifteskard" />
		<tag k="name" v="Drifteskar" />
		<tag k="natural" v="valley" />
		<tag k="place" v="locality" />
		<tag k="ssr:stedsnr" v="65875" />
	</node>
	<node lat="59.889966664956695" lon="8.07260832647" id="-35932">
		<tag k="alt_name" v="Dalstauldalen" />
		<tag k="name" v="Dalstøyldalen" />
		<tag k="natural" v="valley" />
		<tag k="place" v="locality" />
		<tag k="ssr:stedsnr" v="65753" />
	</node>
	<node lat="59.86680000393359" lon="7.955122218002508" id="-35933">
		<tag k="fixme" v="consider natural=peak for the most distinct mountains in the district" />
		<tag k="name" v="Magnusgrønutane" />
		<tag k="natural" v="hill" />
		<tag k="place" v="locality" />
		<tag k="ssr:stedsnr" v="65756" />
	</node>
	<node lat="60.00347499590694" lon="7.71206945204367" id="-35934">
		<tag k="fixme" v="consider natural=peak for the most distinct mountains in the district" />
		<tag k="name" v="Tosketjønnuten" />
		<tag k="natural" v="hill" />
		<tag k="place" v="locality" />
		<tag k="ssr:stedsnr" v="66645" />
	</node>
	<node lat="60.01819444587058" lon="7.618636118104132" id="-35935">
		<tag k="fixme" v="consider natural=peak for the most distinct mountains in the district" />
		<tag k="name" v="Bergenuten" />
		<tag k="natural" v="hill" />
		<tag k="place" v="locality" />
		<tag k="ssr:stedsnr" v="66668" />
	</node>
	<node lat="60.09894999981634" lon="7.487983339709965" id="-35939">
		<tag k="name" v="Hardangervidda" />
		<tag k="natural" v="plateau" />
		<tag k="ssr:stedsnr" v="85109" />
	</node>
	<node lat="59.60360000390606" lon="8.219902785408282" id="-35941">
		<tag k="name" v="Venli" />
		<tag k="natural" v="slope" />
		<tag k="place" v="locality" />
		<tag k="ssr:stedsnr" v="245246" />
	</node>
	<node lat="59.73887222060203" lon="7.289277769141046" id="-35944">
		<tag k="fixme" v="consider natural=peak for the most distinct mountains in the district" />
		<tag k="name" v="Simleskjåen" />
		<tag k="natural" v="hill" />
		<tag k="place" v="locality" />
		<tag k="ssr:stedsnr" v="245367" />
	</node>
	<node lat="59.62692499681186" lon="7.489374993696804" id="-35945">
		<tag k="fixme" v="consider natural=peak for the most distinct mountains in the district" />
		<tag k="name" v="Bueggi" />
		<tag k="natural" v="hill" />
		<tag k="place" v="locality" />
		<tag k="ssr:stedsnr" v="245515" />
	</node>
	<node lat="59.71317499983631" lon="7.642874997016715" id="-35947">
		<tag k="fixme" v="consider natural=peak for the most distinct mountains in the district" />
		<tag k="name" v="Solnos" />
		<tag k="natural" v="hill" />
		<tag k="place" v="locality" />
		<tag k="ssr:stedsnr" v="245540" />
	</node>
	<node lat="59.55425555188429" lon="8.105219452146166" id="-35952">
		<tag k="name" v="Stutenuten" />
		<tag k="natural" v="hill" />
		<tag k="place" v="locality" />
		<tag k="ssr:stedsnr" v="88192" />
	</node>
	<node lat="59.752500002835816" lon="7.7513805603730574" id="-35957">
		<tag k="name" v="Dogurdsteigen" />
		<tag k="natural" v="slope" />
		<tag k="place" v="locality" />
		<tag k="ssr:stedsnr" v="88410" />
	</node>
	<node lat="59.54286667030306" lon="7.863024994197116" id="-35959">
		<tag k="name" v="Djupedal" />
		<tag k="natural" v="valley" />
		<tag k="place" v="locality" />
		<tag k="ssr:stedsnr" v="88383" />
	</node>
	<node lat="59.72715000418242" lon="7.941933337049225" id="-35963">
		<tag k="name" v="Skardsnutdalen" />
		<tag k="natural" v="valley" />
		<tag k="place" v="locality" />
		<tag k="ssr:stedsnr" v="88886" />
	</node>
	<node lat="59.5251749992432" lon="7.998961115037211" id="-35968">
		<tag k="name" v="Nipen" />
		<tag k="natural" v="hill" />
		<tag k="place" v="locality" />
		<tag k="ssr:stedsnr" v="246052" />
	</node>
	<node lat="59.57171944048835" lon="7.952005556889428" id="-35971">
		<tag k="name" v="Gryteland" />
		<tag k="natural" v="slope" />
		<tag k="place" v="locality" />
		<tag k="ssr:stedsnr" v="89597" />
	</node>
	<node lat="59.57434722622545" lon="7.937624998120005" id="-35973">
		<tag k="name" v="Ufshusdalen" />
		<tag k="natural" v="valley" />
		<tag k="place" v="locality" />
		<tag k="ssr:stedsnr" v="89674" />
	</node>
	<node lat="59.58226944208962" lon="7.949683334251113" id="-35974">
		<tag k="name" v="Bergkjosine" />
		<tag k="natural" v="hill" />
		<tag k="place" v="locality" />
		<tag k="ssr:stedsnr" v="89682" />
	</node>
	<node lat="59.68004271443448" lon="8.15388815538522" id="-35978">
		<tag k="fixme" v="consider natural=peak for the most distinct mountains in the district" />
		<tag k="name" v="Brandås" />
		<tag k="natural" v="hill" />
		<tag k="place" v="locality" />
		<tag k="ssr:stedsnr" v="246172" />
	</node>
	<node lat="59.69081666686652" lon="8.211227773320102" id="-35979">
		<tag k="alt_name" v="Grostølnuten;Grostaulnuten" />
		<tag k="fixme" v="consider natural=peak for the most distinct mountains in the district" />
		<tag k="name" v="Grostøylnuten" />
		<tag k="natural" v="hill" />
		<tag k="place" v="locality" />
		<tag k="ssr:stedsnr" v="246173" />
	</node>
	<node lat="59.65149444370122" lon="8.21723333864447" id="-35984">
		<tag k="fixme" v="consider natural=peak for the most distinct mountains in the district" />
		<tag k="name" v="Mjøltenuten" />
		<tag k="natural" v="hill" />
		<tag k="place" v="locality" />
		<tag k="ssr:stedsnr" v="246355" />
	</node>
	<node lat="59.69969999719827" lon="7.306950006409825" id="-35985">
		<tag k="fixme" v="consider natural=peak for the most distinct mountains in the district" />
		<tag k="name" v="Flottenuten" />
		<tag k="natural" v="hill" />
		<tag k="place" v="locality" />
		<tag k="ssr:stedsnr" v="246462" />
	</node>
	<node lat="59.725549997133506" lon="7.599405547535283" id="-35993">
		<tag k="fixme" v="consider natural=peak for the most distinct mountains in the district" />
		<tag k="name" v="Signesnuten" />
		<tag k="natural" v="hill" />
		<tag k="place" v="locality" />
		<tag k="ssr:stedsnr" v="246542" />
	</node>
	<node lat="59.681438893488014" lon="7.481005563715644" id="-35994">
		<tag k="fixme" v="consider natural=peak for the most distinct mountains in the district" />
		<tag k="name" v="Lågefjell" />
		<tag k="natural" v="hill" />
		<tag k="place" v="locality" />
		<tag k="ssr:stedsnr" v="246556" />
	</node>
	<node lat="59.93272777756129" lon="7.993222215178545" id="-35996">
		<tag k="name" v="Reinardalen" />
		<tag k="natural" v="valley" />
		<tag k="place" v="locality" />
		<tag k="ssr:stedsnr" v="246637" />
	</node>
	<node lat="59.695205553412706" lon="7.467661105897747" id="-35998">
		<tag k="name" v="Sæsvassdalen" />
		<tag k="natural" v="valley" />
		<tag k="place" v="locality" />
		<tag k="ssr:stedsnr" v="246571" />
	</node>
	<node lat="59.599900003307006" lon="7.565319441751055" id="-36002">
		<tag k="name" v="Haukhelleren" />
		<tag k="place" v="locality" />
		<tag k="ssr:stedsnr" v="246668" />
	</node>
	<node lat="59.601752777098525" lon="7.708280551188663" id="-36003">
		<tag k="alt_name" v="Den lange dalen / Sveinsgard" />
		<tag k="name" v="Den lange dalen" />
		<tag k="natural" v="valley" />
		<tag k="place" v="locality" />
		<tag k="ssr:stedsnr" v="246673" />
	</node>
	<node lat="59.61838611221816" lon="7.496191662443128" id="-36004">
		<tag k="fixme" v="consider natural=peak for the most distinct mountains in the district" />
		<tag k="name" v="Bukkenuten" />
		<tag k="natural" v="hill" />
		<tag k="place" v="locality" />
		<tag k="ssr:stedsnr" v="246684" />
	</node>
	<node lat="59.644466667725055" lon="8.240019452420839" id="-36006">
		<tag k="fixme" v="consider natural=peak for the most distinct mountains in the district" />
		<tag k="name" v="Skinnuten" />
		<tag k="natural" v="hill" />
		<tag k="place" v="locality" />
		<tag k="ssr:stedsnr" v="92311" />
	</node>
	<node lat="59.642169446685735" lon="8.218008338316668" id="-36007">
		<tag k="fixme" v="consider natural=peak for the most distinct mountains in the district" />
		<tag k="name" v="Lotlinuten" />
		<tag k="natural" v="hill" />
		<tag k="place" v="locality" />
		<tag k="ssr:stedsnr" v="92313" />
	</node>
	<node lat="59.68968033835324" lon="8.163613165329004" id="-36008">
		<tag k="name" v="Fjosdalen" />
		<tag k="natural" v="valley" />
		<tag k="place" v="locality" />
		<tag k="ssr:stedsnr" v="92325" />
	</node>
	<node lat="59.686074705296015" lon="8.126694822433594" id="-36013">
		<tag k="name" v="Geiteløyni" />
		<tag k="natural" v="valley" />
		<tag k="place" v="locality" />
		<tag k="ssr:stedsnr" v="92505" />
	</node>
	<node lat="59.96964999729514" lon="7.422733333873397" id="-36025">
		<tag k="fixme" v="consider natural=peak for the most distinct mountains in the district" />
		<tag k="name" v="Skorene" />
		<tag k="natural" v="hill" />
		<tag k="place" v="locality" />
		<tag k="ssr:stedsnr" v="246857" />
	</node>
	<node lat="59.950858331052544" lon="7.681005549608267" id="-36030">
		<tag k="name" v="Grasdalen" />
		<tag k="natural" v="valley" />
		<tag k="place" v="locality" />
		<tag k="ssr:stedsnr" v="246888" />
	</node>
	<node lat="59.81993888529508" lon="7.43805555424714" id="-36039">
		<tag k="fixme" v="consider natural=peak for the most distinct mountains in the district" />
		<tag k="name" v="Kråkemonuten" />
		<tag k="natural" v="hill" />
		<tag k="place" v="locality" />
		<tag k="ssr:stedsnr" v="246943" />
	</node>
	<node lat="59.88971111296227" lon="7.675875004172037" id="-36047">
		<tag k="fixme" v="consider natural=peak for the most distinct mountains in the district" />
		<tag k="name" v="Saltpytteggi" />
		<tag k="natural" v="hill" />
		<tag k="place" v="locality" />
		<tag k="ssr:stedsnr" v="246994" />
	</node>
	<node lat="59.75070555838357" lon="8.254613888846789" id="-36049">
		<tag k="name" v="Snusli" />
		<tag k="natural" v="slope" />
		<tag k="place" v="locality" />
		<tag k="ssr:stedsnr" v="93781" />
	</node>
	<node lat="59.98561110775248" lon="8.119277779587659" id="-36051">
		<tag k="fixme" v="consider natural=peak for the most distinct mountains in the district" />
		<tag k="name" v="Store Grasdalshovda" />
		<tag k="natural" v="hill" />
		<tag k="place" v="locality" />
		<tag k="ssr:stedsnr" v="247245" />
	</node>
	<node lat="59.76408055475512" lon="7.800338887921656" id="-36055">
		<tag k="fixme" v="consider natural=peak for the most distinct mountains in the district" />
		<tag k="name" v="Åshyttnuten" />
		<tag k="natural" v="hill" />
		<tag k="place" v="locality" />
		<tag k="ssr:stedsnr" v="247330" />
	</node>
	<node lat="60.028883336731916" lon="7.732811111129505" id="-36062">
		<tag k="name" v="Grindebotn" />
		<tag k="natural" v="valley" />
		<tag k="place" v="locality" />
		<tag k="ssr:stedsnr" v="247500" />
	</node>
	<node lat="59.96708888658805" lon="7.890116665224238" id="-36063">
		<tag k="alt_name" v="Vatndalen, vesle" />
		<tag k="name" v="Vesle Vatndalen" />
		<tag k="natural" v="valley" />
		<tag k="place" v="locality" />
		<tag k="ssr:stedsnr" v="247538" />
	</node>
	<node lat="59.975105551873966" lon="8.039105548150886" id="-36064">
		<tag k="fixme" v="consider natural=peak for the most distinct mountains in the district" />
		<tag k="name" v="Langenuten" />
		<tag k="natural" v="hill" />
		<tag k="place" v="locality" />
		<tag k="ssr:stedsnr" v="247550" />
	</node>
	<node lat="60.08177500447123" lon="7.876074999417922" id="-36067">
		<tag k="name" v="Gjuvsjåflotti" />
		<tag k="natural" v="slope" />
		<tag k="place" v="locality" />
		<tag k="ssr:stedsnr" v="247592" />
	</node>
	<node lat="59.85461111097163" lon="8.051422216640585" id="-36072">
		<tag k="fixme" v="consider natural=peak for the most distinct mountains in the district" />
		<tag k="name" v="Hovdenuten" />
		<tag k="natural" v="hill" />
		<tag k="place" v="locality" />
		<tag k="ssr:stedsnr" v="247718" />
	</node>
	<node lat="60.11845278136544" lon="7.609127769084977" id="-36074">
		<tag k="fixme" v="consider natural=peak for the most distinct mountains in the district" />
		<tag k="name" v="Fjellsjåeggi" />
		<tag k="natural" v="hill" />
		<tag k="place" v="locality" />
		<tag k="ssr:stedsnr" v="247723" />
	</node>
	<node lat="59.8330083331712" lon="8.009236113173868" id="-36076">
		<tag k="loc_name" v="Hestebotn" />
		<tag k="name" v="Hestabotn" />
		<tag k="natural" v="valley" />
		<tag k="place" v="locality" />
		<tag k="ssr:stedsnr" v="247697" />
	</node>
	<node lat="59.8656833308763" lon="7.812100008161324" id="-36077">
		<tag k="fixme" v="consider natural=peak for the most distinct mountains in the district" />
		<tag k="name" v="Meinsvassnuten" />
		<tag k="natural" v="hill" />
		<tag k="place" v="locality" />
		<tag k="ssr:stedsnr" v="247738" />
	</node>
	<node lat="59.868277780760955" lon="7.989452768852049" id="-36078">
		<tag k="fixme" v="consider natural=peak for the most distinct mountains in the district" />
		<tag k="name" v="Driftenutane" />
		<tag k="natural" v="hill" />
		<tag k="place" v="locality" />
		<tag k="ssr:stedsnr" v="247744" />
	</node>
	<node lat="59.75570833769846" lon="7.556625005565811" id="-36082">
		<tag k="name" v="Venestøylhaugen" />
		<tag k="natural" v="hill" />
		<tag k="place" v="locality" />
		<tag k="ssr:stedsnr" v="110114" />
	</node>
	<node lat="59.74857499659163" lon="7.568238890708777" id="-36083">
		<tag k="name" v="Mosakjerrhaugen" />
		<tag k="natural" v="hill" />
		<tag k="place" v="locality" />
		<tag k="ssr:stedsnr" v="110116" />
	</node>
	<node lat="59.67079167002089" lon="7.493991673749153" id="-36085">
		<tag k="name" v="Ormekullen" />
		<tag k="natural" v="hill" />
		<tag k="place" v="locality" />
		<tag k="ssr:stedsnr" v="110908" />
	</node>
	<node lat="59.77759722171817" lon="7.412194452558171" id="-36090">
		<tag k="alt_name" v="Storåkskardet" />
		<tag k="name" v="Storåkskaret" />
		<tag k="natural" v="valley" />
		<tag k="place" v="locality" />
		<tag k="ssr:stedsnr" v="117046" />
	</node>
	<node lat="59.782761113202824" lon="7.4509333291624715" id="-36091">
		<tag k="name" v="Kroketjønnskaret" />
		<tag k="natural" v="valley" />
		<tag k="place" v="locality" />
		<tag k="ssr:stedsnr" v="117123" />
	</node>
	<node lat="59.735472222748626" lon="7.511786115370308" id="-36092">
		<tag k="name" v="Mosli" />
		<tag k="natural" v="slope" />
		<tag k="place" v="locality" />
		<tag k="ssr:stedsnr" v="117303" />
	</node>
	<node lat="59.736997223133855" lon="7.510591671994026" id="-36093">
		<tag k="name" v="Bronaberget" />
		<tag k="natural" v="hill" />
		<tag k="place" v="locality" />
		<tag k="ssr:stedsnr" v="117307" />
	</node>
	<node lat="59.790883329608874" lon="7.53772499588952" id="-36096">
		<tag k="name" v="Vierdalen" />
		<tag k="natural" v="valley" />
		<tag k="place" v="locality" />
		<tag k="ssr:stedsnr" v="117710" />
	</node>
	<node lat="59.72765555894635" lon="7.442397214192001" id="-36098">
		<tag k="name" v="Storemyrdalen" />
		<tag k="natural" v="valley" />
		<tag k="place" v="locality" />
		<tag k="ssr:stedsnr" v="117903" />
	</node>
	<node lat="59.75583610847238" lon="7.367250002241977" id="-36099">
		<tag k="name" v="Kartedalen" />
		<tag k="natural" v="valley" />
		<tag k="place" v="locality" />
		<tag k="ssr:stedsnr" v="117914" />
	</node>
	<node lat="59.74821389197063" lon="7.335233327266071" id="-36100">
		<tag k="name" v="Kvennhusskaret" />
		<tag k="natural" v="valley" />
		<tag k="place" v="locality" />
		<tag k="ssr:stedsnr" v="117975" />
	</node>
	<node lat="59.516552777766165" lon="7.913397224360691" id="-36102">
		<tag k="fixme" v="consider natural=peak for the most distinct mountains in the district" />
		<tag k="name" v="Skarven" />
		<tag k="natural" v="hill" />
		<tag k="place" v="locality" />
		<tag k="ssr:stedsnr" v="124020" />
	</node>
	<node lat="59.60808611115906" lon="8.164033337719658" id="-36109">
		<tag k="alt_name" v="Bosstaulflæi;Bosstaulflæin" />
		<tag k="name" v="Bosstøylflæi" />
		<tag k="place" v="locality" />
		<tag k="ssr:stedsnr" v="124258" />
	</node>
	<node lat="59.801736109372776" lon="8.064711119880112" id="-36112">
		<tag k="fixme" v="consider natural=peak for the most distinct mountains in the district" />
		<tag k="name" v="Falkenuten" />
		<tag k="natural" v="hill" />
		<tag k="place" v="locality" />
		<tag k="ssr:stedsnr" v="124259" />
	</node>
	<node lat="59.80186389294742" lon="8.03448888393934" id="-36125">
		<tag k="name" v="Rusbudalen" />
		<tag k="natural" v="valley" />
		<tag k="place" v="locality" />
		<tag k="ssr:stedsnr" v="124651" />
	</node>
	<node lat="59.602308335901306" lon="7.786861102239114" id="-36130">
		<tag k="alt_name" v="Steinshovdnut" />
		<tag k="name" v="Steinshovdnuten" />
		<tag k="natural" v="hill" />
		<tag k="place" v="locality" />
		<tag k="ssr:stedsnr" v="124866" />
	</node>
	<node lat="59.654922222067725" lon="7.741677776224912" id="-36134">
		<tag k="name" v="Tredalsnuten" />
		<tag k="natural" v="hill" />
		<tag k="old_name" v="Tredalsnut" />
		<tag k="place" v="locality" />
		<tag k="ssr:stedsnr" v="124753" />
	</node>
	<node lat="59.61106388609557" lon="7.784024993990592" id="-36139">
		<tag k="alt_name" v="Snehaddine" />
		<tag k="fixme" v="consider natural=peak for the most distinct mountains in the district" />
		<tag k="name" v="Snehalline" />
		<tag k="natural" v="hill" />
		<tag k="old_name" v="Snehaddene" />
		<tag k="place" v="locality" />
		<tag k="ssr:stedsnr" v="124973" />
	</node>
	<node lat="59.79986389243639" lon="7.58546943612661" id="-36154">
		<tag k="alt_name" v="Skardstølfloti" />
		<tag k="name" v="Skardstøylflotti" />
		<tag k="place" v="locality" />
		<tag k="ssr:stedsnr" v="125552" />
	</node>
	<node lat="59.81458055676767" lon="7.676036117303384" id="-36157">
		<tag k="fixme" v="consider natural=peak for the most distinct mountains in the district" />
		<tag k="name" v="Fugltuva" />
		<tag k="natural" v="hill" />
		<tag k="place" v="locality" />
		<tag k="ssr:stedsnr" v="125561" />
	</node>
	<node lat="59.87038611154942" lon="7.981352774994781" id="-36163">
		<tag k="fixme" v="consider natural=peak for the most distinct mountains in the district" />
		<tag k="name" v="Veslefjell" />
		<tag k="natural" v="hill" />
		<tag k="place" v="locality" />
		<tag k="ssr:stedsnr" v="125763" />
	</node>
	<node lat="59.8771333369005" lon="7.851547216802683" id="-36165">
		<tag k="alt_name" v="Skindalen, vestre" />
		<tag k="name" v="Vestre Skindalen" />
		<tag k="natural" v="valley" />
		<tag k="place" v="locality" />
		<tag k="ssr:stedsnr" v="125649" />
	</node>
	<node lat="60.02710278029141" lon="7.828022215582606" id="-36172">
		<tag k="fixme" v="consider natural=peak for the most distinct mountains in the district" />
		<tag k="name" v="Gluggebrotnuten" />
		<tag k="natural" v="hill" />
		<tag k="place" v="locality" />
		<tag k="ssr:stedsnr" v="126512" />
	</node>
	<node lat="60.055149997776105" lon="7.647302770496435" id="-36173">
		<tag k="name" v="Skardbu-Tjønndalen" />
		<tag k="natural" v="valley" />
		<tag k="place" v="locality" />
		<tag k="ssr:stedsnr" v="126608" />
	</node>
	<node lat="59.61602500015622" lon="7.790774996733513" id="-36175">
		<tag k="name" v="Varmekro" />
		<tag k="natural" v="slope" />
		<tag k="place" v="locality" />
		<tag k="ssr:stedsnr" v="149116" />
	</node>
	<node lat="59.69174444328716" lon="7.732522214273394" id="-36176">
		<tag k="name" v="Hidrehjellen" />
		<tag k="natural" v="cliff" />
		<tag k="ssr:stedsnr" v="149018" />
	</node>
	<node lat="59.60854722595659" lon="7.787466671546357" id="-36180">
		<tag k="name" v="Revajuvet" />
		<tag k="natural" v="slope" />
		<tag k="place" v="locality" />
		<tag k="ssr:stedsnr" v="149070" />
	</node>
	<node lat="59.68914999608718" lon="7.7724555543122715" id="-36181">
		<tag k="name" v="Kabrettkleivi" />
		<tag k="natural" v="slope" />
		<tag k="place" v="locality" />
		<tag k="ssr:stedsnr" v="149516" />
	</node>
	<node lat="59.66683055548595" lon="7.938133328447987" id="-36183">
		<tag k="name" v="Sudigards-Trogadalane" />
		<tag k="natural" v="valley" />
		<tag k="place" v="locality" />
		<tag k="ssr:stedsnr" v="149523" />
	</node>
	<node lat="59.75804721777483" lon="7.741022214242622" id="-36189">
		<tag k="name" v="Vidsyn" />
		<tag k="natural" v="slope" />
		<tag k="place" v="locality" />
		<tag k="ssr:stedsnr" v="149470" />
	</node>
	<node lat="59.56983610673047" lon="8.00824444809202" id="-36191">
		<tag k="name" v="Hyllandskasine" />
		<tag k="natural" v="valley" />
		<tag k="place" v="locality" />
		<tag k="ssr:stedsnr" v="149603" />
	</node>
	<node lat="59.510380552607245" lon="7.978441673904428" id="-36192">
		<tag k="name" v="Syrbrekkskotet" />
		<tag k="natural" v="slope" />
		<tag k="place" v="locality" />
		<tag k="ssr:stedsnr" v="149656" />
	</node>
	<node lat="59.52201944571262" lon="7.9805083260301775" id="-36193">
		<tag k="name" v="Snipekleivnuten" />
		<tag k="natural" v="hill" />
		<tag k="place" v="locality" />
		<tag k="ssr:stedsnr" v="149659" />
	</node>
	<node lat="59.5856611134495" lon="7.996447213679508" id="-36195">
		<tag k="name" v="Hyljås" />
		<tag k="natural" v="hill" />
		<tag k="place" v="locality" />
		<tag k="ssr:stedsnr" v="149704" />
	</node>
	<node lat="59.59058333051908" lon="8.116952784092385" id="-36198">
		<tag k="name" v="Bjønndal" />
		<tag k="natural" v="valley" />
		<tag k="place" v="locality" />
		<tag k="ssr:stedsnr" v="149954" />
	</node>
	<node lat="59.56369721787891" lon="8.052924995507746" id="-36199">
		<tag k="name" v="Hauskvårn" />
		<tag k="natural" v="hill" />
		<tag k="place" v="locality" />
		<tag k="ssr:stedsnr" v="149956" />
	</node>
	<node lat="59.56843611295739" lon="8.060816660432804" id="-36200">
		<tag k="name" v="Storeli" />
		<tag k="natural" v="slope" />
		<tag k="place" v="locality" />
		<tag k="ssr:stedsnr" v="149962" />
	</node>
	<node lat="59.65010992740752" lon="8.209366401377872" id="-36201">
		<tag k="fixme" v="consider natural=peak for the most distinct mountains in the district" />
		<tag k="name" v="Langenut" />
		<tag k="natural" v="hill" />
		<tag k="place" v="locality" />
		<tag k="ssr:stedsnr" v="152463" />
	</node>
	<node lat="59.64392690808624" lon="8.158234745231665" id="-36202">
		<tag k="alt_name" v="Skardalskardet" />
		<tag k="name" v="Skardalskaret" />
		<tag k="natural" v="valley" />
		<tag k="place" v="locality" />
		<tag k="ssr:stedsnr" v="152369" />
	</node>
	<node lat="59.64267778101826" lon="8.23926388064115" id="-36204">
		<tag k="name" v="Glupen" />
		<tag k="natural" v="valley" />
		<tag k="place" v="locality" />
		<tag k="ssr:stedsnr" v="152802" />
	</node>
	<node lat="59.74999444104765" lon="7.867877783680647" id="-36207">
		<tag k="fixme" v="consider natural=peak for the most distinct mountains in the district" />
		<tag k="name" v="Piggenuten" />
		<tag k="natural" v="hill" />
		<tag k="place" v="locality" />
		<tag k="ssr:stedsnr" v="152703" />
	</node>
	<node lat="59.64128888587839" lon="8.00223889495054" id="-36208">
		<tag k="fixme" v="consider natural=peak for the most distinct mountains in the district" />
		<tag k="name" v="Bronane" />
		<tag k="natural" v="hill" />
		<tag k="place" v="locality" />
		<tag k="ssr:stedsnr" v="153021" />
	</node>
	<node lat="59.74364722181669" lon="8.086099993650633" id="-36210">
		<tag k="name" v="Storlistølnuten" />
		<tag k="natural" v="hill" />
		<tag k="place" v="locality" />
		<tag k="ssr:stedsnr" v="153305" />
	</node>
	<node lat="59.68751574258952" lon="8.145566470440095" id="-36213">
		<tag k="name" v="Tjøruhjedd-dalen" />
		<tag k="natural" v="valley" />
		<tag k="place" v="locality" />
		<tag k="ssr:stedsnr" v="153750" />
	</node>
	<node lat="59.75573333425022" lon="8.057633342138601" id="-36214">
		<tag k="name" v="Bukselauskjosi" />
		<tag k="place" v="locality" />
		<tag k="ssr:stedsnr" v="153758" />
	</node>
	<node lat="59.68716029433537" lon="8.139141885786858" id="-36217">
		<tag k="fixme" v="consider natural=peak for the most distinct mountains in the district" />
		<tag k="name" v="Buktenuten" />
		<tag k="natural" v="hill" />
		<tag k="place" v="locality" />
		<tag k="ssr:stedsnr" v="153768" />
	</node>
	<node lat="59.67309721923585" lon="8.057011109364078" id="-36218">
		<tag k="name" v="Langåshaugen" />
		<tag k="natural" v="hill" />
		<tag k="place" v="locality" />
		<tag k="ssr:stedsnr" v="153902" />
	</node>
	<node lat="59.70647664079655" lon="8.145966807568968" id="-36220">
		<tag k="name" v="Juvet" />
		<tag k="natural" v="gorge" />
		<tag k="ssr:stedsnr" v="153652" />
	</node>
	<node lat="59.75240555755034" lon="7.564997223962145" id="-36224">
		<tag k="name" v="Surtekjerrlii" />
		<tag k="natural" v="slope" />
		<tag k="place" v="locality" />
		<tag k="ssr:stedsnr" v="170069" />
	</node>
	<node lat="59.75873888944273" lon="7.655636110679328" id="-36227">
		<tag k="name" v="Gaukekullen" />
		<tag k="natural" v="hill" />
		<tag k="place" v="locality" />
		<tag k="ssr:stedsnr" v="171009" />
	</node>
	<node lat="59.68466944632188" lon="7.649836109631225" id="-36228">
		<tag k="name" v="Skoralii" />
		<tag k="natural" v="slope" />
		<tag k="place" v="locality" />
		<tag k="ssr:stedsnr" v="171265" />
	</node>
	<node lat="59.77548888620085" lon="7.371027782311043" id="-36234">
		<tag k="name" v="Såviskor" />
		<tag k="place" v="locality" />
		<tag k="ssr:stedsnr" v="178075" />
	</node>
	<node lat="59.80278610740941" lon="7.445436115967769" id="-36235">
		<tag k="name" v="Spækjebekklii" />
		<tag k="natural" v="slope" />
		<tag k="place" v="locality" />
		<tag k="ssr:stedsnr" v="178107" />
	</node>
	<node lat="59.778191670045096" lon="7.305924993797341" id="-36237">
		<tag k="name" v="Løyningristi" />
		<tag k="natural" v="ridge" />
		<tag k="place" v="locality" />
		<tag k="ssr:stedsnr" v="178304" />
	</node>
	<node lat="59.77354999878088" lon="7.3444916751095874" id="-36238">
		<tag k="name" v="Arbulii" />
		<tag k="natural" v="slope" />
		<tag k="place" v="locality" />
		<tag k="ssr:stedsnr" v="178365" />
	</node>
	<node lat="59.78740833465614" lon="7.555888897554233" id="-36240">
		<tag k="name" v="Maurbulii" />
		<tag k="natural" v="slope" />
		<tag k="place" v="locality" />
		<tag k="ssr:stedsnr" v="178813" />
	</node>
	<node lat="59.72679444096918" lon="7.428975008758541" id="-36247">
		<tag k="fixme" v="consider natural=peak for the most distinct mountains in the district" />
		<tag k="name" v="Klypenuten" />
		<tag k="natural" v="hill" />
		<tag k="place" v="locality" />
		<tag k="ssr:stedsnr" v="185324" />
	</node>
	<node lat="59.91677777783353" lon="7.891077772854832" id="-36258">
		<tag k="name" v="Krakavassgjuvet" />
		<tag k="natural" v="valley" />
		<tag k="place" v="locality" />
		<tag k="ssr:stedsnr" v="185610" />
	</node>
	<node lat="59.67765278098974" lon="7.466633339121519" id="-36263">
		<tag k="fixme" v="consider natural=peak for the most distinct mountains in the district" />
		<tag k="name" v="Vardenutane" />
		<tag k="natural" v="hill" />
		<tag k="place" v="locality" />
		<tag k="ssr:stedsnr" v="185542" />
	</node>
	<node lat="59.898100000906695" lon="7.9273805612210495" id="-36265">
		<tag k="fixme" v="consider natural=peak for the most distinct mountains in the district" />
		<tag k="name" v="Skinnuten" />
		<tag k="natural" v="hill" />
		<tag k="place" v="locality" />
		<tag k="ssr:stedsnr" v="185601" />
	</node>
	<node lat="59.637313887062064" lon="7.7373861104066055" id="-36274">
		<tag k="fixme" v="consider natural=peak for the most distinct mountains in the district" />
		<tag k="name" v="Hagadalstind" />
		<tag k="natural" v="hill" />
		<tag k="place" v="locality" />
		<tag k="ssr:stedsnr" v="185935" />
	</node>
	<node lat="59.95915277398622" lon="7.875874993170948" id="-36276">
		<tag k="fixme" v="consider natural=peak for the most distinct mountains in the district" />
		<tag k="name" v="Vatndalshovda" />
		<tag k="natural" v="hill" />
		<tag k="place" v="locality" />
		<tag k="ssr:stedsnr" v="186608" />
	</node>
	<node lat="59.988627773888275" lon="8.004697222426042" id="-36278">
		<tag k="name" v="Yvershyttbotnen" />
		<tag k="natural" v="valley" />
		<tag k="place" v="locality" />
		<tag k="ssr:stedsnr" v="186636" />
	</node>
	<node lat="59.800288893073485" lon="7.65363611854315" id="-36279">
		<tag k="name" v="Årdalsdokki" />
		<tag k="natural" v="valley" />
		<tag k="place" v="locality" />
		<tag k="ssr:stedsnr" v="186580" />
	</node>
	<node lat="59.96146110764008" lon="8.034988883855041" id="-36281">
		<tag k="fixme" v="consider natural=peak for the most distinct mountains in the district" />
		<tag k="name" v="Bjønnurnibba" />
		<tag k="natural" v="hill" />
		<tag k="place" v="locality" />
		<tag k="ssr:stedsnr" v="186706" />
	</node>
	<node lat="59.82186389297054" lon="7.998313884463042" id="-36282">
		<tag k="fixme" v="consider natural=peak for the most distinct mountains in the district" />
		<tag k="name" v="Himmelsynnettane" />
		<tag k="natural" v="hill" />
		<tag k="place" v="locality" />
		<tag k="ssr:stedsnr" v="186713" />
	</node>
	<node lat="59.836275002783594" lon="7.946927769278109" id="-36283">
		<tag k="alt_name" v="Åndeskard" />
		<tag k="name" v="Åndeskar" />
		<tag k="natural" v="valley" />
		<tag k="place" v="locality" />
		<tag k="ssr:stedsnr" v="186739" />
	</node>
	<node lat="60.02801388919444" lon="7.9214305475150715" id="-36287">
		<tag k="name" v="Lidalen" />
		<tag k="natural" v="valley" />
		<tag k="place" v="locality" />
		<tag k="ssr:stedsnr" v="187480" />
	</node>
	<node lat="60.0319222265495" lon="7.902799990890441" id="-36288">
		<tag k="name" v="Hyttekvæven" />
		<tag k="natural" v="valley" />
		<tag k="place" v="locality" />
		<tag k="ssr:stedsnr" v="187482" />
	</node>
	<node lat="60.01294166615753" lon="7.99602500883303" id="-36289">
		<tag k="fixme" v="consider natural=peak for the most distinct mountains in the district" />
		<tag k="name" v="Haukereirnuten" />
		<tag k="natural" v="hill" />
		<tag k="place" v="locality" />
		<tag k="ssr:stedsnr" v="188479" />
	</node>
	<node lat="59.71705000446654" lon="7.976183338228589" id="-36292">
		<tag k="name" v="Fivlandsdalen" />
		<tag k="natural" v="valley" />
		<tag k="place" v="locality" />
		<tag k="ssr:stedsnr" v="210106" />
	</node>
	<node lat="59.611083331727976" lon="7.813347218212194" id="-36294">
		<tag k="name" v="Stakksteindalen" />
		<tag k="natural" v="valley" />
		<tag k="place" v="locality" />
		<tag k="ssr:stedsnr" v="210117" />
	</node>
	<node lat="59.65388611222609" lon="7.783205551798501" id="-36295">
		<tag k="alt_name" v="Seljeskard" />
		<tag k="name" v="Seljeskar" />
		<tag k="natural" v="valley" />
		<tag k="place" v="locality" />
		<tag k="ssr:stedsnr" v="210132" />
	</node>
	<node lat="59.661061108397185" lon="7.908524992604554" id="-36296">
		<tag k="name" v="Huskebu" />
		<tag k="natural" v="slope" />
		<tag k="place" v="locality" />
		<tag k="ssr:stedsnr" v="210332" />
	</node>
	<node lat="59.6201166661816" lon="7.909211115003537" id="-36298">
		<tag k="name" v="Steintjønnlie" />
		<tag k="natural" v="slope" />
		<tag k="place" v="locality" />
		<tag k="ssr:stedsnr" v="210376" />
	</node>
	<node lat="59.741911109461114" lon="7.7870111093086445" id="-36302">
		<tag k="name" v="Rodalen" />
		<tag k="natural" v="valley" />
		<tag k="place" v="locality" />
		<tag k="ssr:stedsnr" v="210474" />
	</node>
	<node lat="59.76400555849765" lon="7.741263885503188" id="-36304">
		<tag k="name" v="Haugås" />
		<tag k="natural" v="slope" />
		<tag k="place" v="locality" />
		<tag k="ssr:stedsnr" v="210479" />
	</node>
	<node lat="59.75856944174332" lon="7.735880560974747" id="-36306">
		<tag k="name" v="Jasasteinane" />
		<tag k="natural" v="slope" />
		<tag k="place" v="locality" />
		<tag k="ssr:stedsnr" v="210483" />
	</node>
	<node lat="59.621288889748755" lon="8.26506943979795" id="-36311">
		<tag k="fixme" v="consider natural=peak for the most distinct mountains in the district" />
		<tag k="name" v="Brendås" />
		<tag k="natural" v="hill" />
		<tag k="place" v="locality" />
		<tag k="ssr:stedsnr" v="213510" />
	</node>
	<node lat="59.618388888519384" lon="8.248016668706507" id="-36312">
		<tag k="name" v="Fjøllii" />
		<tag k="natural" v="cliff" />
		<tag k="ssr:stedsnr" v="213515" />
	</node>
	<node lat="59.74064166227917" lon="8.082144437405885" id="-36319">
		<tag k="name" v="Toskeholet" />
		<tag k="natural" v="valley" />
		<tag k="place" v="locality" />
		<tag k="ssr:stedsnr" v="214416" />
	</node>
	<node lat="59.657808336956656" lon="8.141741667675703" id="-36323">
		<tag k="name" v="Tessungdalen" />
		<tag k="natural" v="valley" />
		<tag k="place" v="locality" />
		<tag k="ssr:stedsnr" v="214933" />
	</node>
	<node lat="59.679588887804705" lon="8.061349999569702" id="-36326">
		<tag k="fixme" v="consider natural=peak for the most distinct mountains in the district" />
		<tag k="name" v="Timbåsen" />
		<tag k="natural" v="hill" />
		<tag k="place" v="locality" />
		<tag k="ssr:stedsnr" v="214898" />
	</node>
	<node lat="59.655980554447524" lon="7.784730552412254" id="-36329">
		<tag k="name" v="Skinnuten" />
		<tag k="natural" v="hill" />
		<tag k="place" v="locality" />
		<tag k="ssr:stedsnr" v="270040" />
	</node>
	<node lat="59.59569444400483" lon="7.903069443548712" id="-36330">
		<tag k="name" v="Kjeringdalen" />
		<tag k="natural" v="valley" />
		<tag k="place" v="locality" />
		<tag k="ssr:stedsnr" v="270338" />
	</node>
	<node lat="59.6003499956186" lon="7.866147227283855" id="-36334">
		<tag k="name" v="Hovudduk" />
		<tag k="natural" v="hill" />
		<tag k="place" v="locality" />
		<tag k="ssr:stedsnr" v="270354" />
	</node>
	<node lat="59.631388892152636" lon="7.9135777697999945" id="-36335">
		<tag k="name" v="Rakkedalen" />
		<tag k="natural" v="valley" />
		<tag k="place" v="locality" />
		<tag k="ssr:stedsnr" v="270360" />
	</node>
	<node lat="59.73336666965026" lon="7.777152780264343" id="-36338">
		<tag k="name" v="Tjønnestøylnuten" />
		<tag k="natural" v="hill" />
		<tag k="place" v="locality" />
		<tag k="ssr:stedsnr" v="270470" />
	</node>
	<node lat="59.689019442568245" lon="7.741213887418971" id="-36339">
		<tag k="name" v="Smylekullen" />
		<tag k="natural" v="ridge" />
		<tag k="place" v="locality" />
		<tag k="ssr:stedsnr" v="270511" />
	</node>
</osm>
