<?xml version="1.0" encoding="UTF-8"?>
<osm version="0.6" generator="osmapis">
	<node lat="59.67331666842046" lon="7.908641663802901" id="-26654">
		<tag k="historic" v="shieling" />
		<tag k="name" v="Kvæven" />
		<tag k="place" v="locality" />
		<tag k="ssr:stedsnr" v="28319" />
	</node>
	<node lat="59.68589166280709" lon="7.826541658759401" id="-26655">
		<tag k="historic" v="shieling" />
		<tag k="name" v="Låvedalen" />
		<tag k="place" v="locality" />
		<tag k="ssr:stedsnr" v="28288" />
	</node>
	<node lat="59.56402222446118" lon="7.884891669863838" id="-26656">
		<tag k="historic" v="shieling" />
		<tag k="name" v="Murteroi" />
		<tag k="place" v="locality" />
		<tag k="ssr:stedsnr" v="28420" />
	</node>
	<node lat="59.5880805548623" lon="7.991908327166883" id="-26658">
		<tag k="name" v="Harkjellmyr" />
		<tag k="natural" v="wetland" />
		<tag k="ssr:stedsnr" v="28713" />
	</node>
	<node lat="59.74774999573901" lon="8.089174995012923" id="-26676">
		<tag k="name" v="Gråtarmyri" />
		<tag k="natural" v="wetland" />
		<tag k="ssr:stedsnr" v="31721" />
	</node>
	<node lat="59.657316669155385" lon="8.013175001695386" id="-26686">
		<tag k="name" v="Tråtjønnmyrane" />
		<tag k="natural" v="wetland" />
		<tag k="ssr:stedsnr" v="32016" />
	</node>
	<node lat="59.79256111456944" lon="7.336630547948185" id="-26691">
		<tag k="historic" v="shieling" />
		<tag k="name" v="Tyrvelii" />
		<tag k="place" v="locality" />
		<tag k="ssr:stedsnr" v="238483" />
	</node>
	<node lat="59.68377777455487" lon="7.547650007973781" id="-26698">
		<tag k="name" v="Finnane" />
		<tag k="natural" v="wetland" />
		<tag k="ssr:stedsnr" v="50378" />
	</node>
	<node lat="59.76251944377499" lon="7.509352780932402" id="-26703">
		<tag k="historic" v="shieling" />
		<tag k="name" v="Skarsli" />
		<tag k="place" v="locality" />
		<tag k="ssr:stedsnr" v="239320" />
	</node>
	<node lat="59.762041664132006" lon="7.507655562814856" id="-26708">
		<tag k="historic" v="shieling" />
		<tag k="name" v="Torilldalen" />
		<tag k="place" v="locality" />
		<tag k="ssr:stedsnr" v="57302" />
	</node>
	<node lat="59.78030833664031" lon="7.261877770078148" id="-26711">
		<tag k="name" v="Kvanngrøvollen" />
		<tag k="place" v="locality" />
		<tag k="ssr:stedsnr" v="58881" />
	</node>
	<node lat="59.70335000017688" lon="7.801138895681572" id="-26793">
		<tag k="historic" v="shieling" />
		<tag k="name" v="Nystøyl" />
		<tag k="place" v="locality" />
		<tag k="ssr:stedsnr" v="88029" />
	</node>
	<node lat="59.75564721956727" lon="7.741511104668883" id="-26801">
		<tag k="historic" v="shieling" />
		<tag k="loc_name" v="Listaul" />
		<tag k="name" v="Listøyl" />
		<tag k="place" v="locality" />
		<tag k="ssr:stedsnr" v="88411" />
	</node>
	<node lat="59.72561110686138" lon="7.718502781166824" id="-26804">
		<tag k="historic" v="shieling" />
		<tag k="name" v="Haugebu" />
		<tag k="place" v="locality" />
		<tag k="ssr:stedsnr" v="88392" />
	</node>
	<node lat="59.68979166934347" lon="7.952227784269761" id="-26812">
		<tag k="historic" v="shieling" />
		<tag k="name" v="Olsnes-Færdalen" />
		<tag k="place" v="locality" />
		<tag k="ssr:stedsnr" v="89589" />
	</node>
	<node lat="59.5651425035" lon="8.071853108968991" id="-26819">
		<tag k="alt_name" v="Langelimyrane" />
		<tag k="name" v="Langlimyri" />
		<tag k="natural" v="wetland" />
		<tag k="ssr:stedsnr" v="246094" />
	</node>
	<node lat="59.6527745175569" lon="7.925510038458518" id="-26852">
		<tag k="historic" v="shieling" />
		<tag k="name" v="Nystøyl" />
		<tag k="old_name" v="Nystøl" />
		<tag k="place" v="locality" />
		<tag k="ssr:stedsnr" v="246763" />
	</node>
	<node lat="59.894466662474464" lon="7.585508338375643" id="-26888">
		<tag k="historic" v="shieling" />
		<tag k="name" v="Viervollen" />
		<tag k="place" v="locality" />
		<tag k="ssr:stedsnr" v="246986" />
	</node>
	<node lat="59.7391138894868" lon="7.508847226847491" id="-26937">
		<tag k="name" v="Redvangsmyri" />
		<tag k="natural" v="wetland" />
		<tag k="ssr:stedsnr" v="117315" />
	</node>
	<node lat="59.60448055726703" lon="8.036619445101419" id="-26971">
		<tag k="alt_name" v="Revamyrane" />
		<tag k="name" v="Røramyrane" />
		<tag k="natural" v="wetland" />
		<tag k="ssr:stedsnr" v="124858" />
	</node>
	<node lat="59.77367778180773" lon="8.233783328471159" id="-26984">
		<tag k="name" v="Arasteinen" />
		<tag k="natural" v="stone" />
		<tag k="ssr:stedsnr" v="125102" />
	</node>
	<node lat="59.802759635361255" lon="7.394202766414886" id="-26999">
		<tag k="alt_name" v="Nystøl" />
		<tag k="historic" v="shieling" />
		<tag k="name" v="Nystøyl" />
		<tag k="place" v="locality" />
		<tag k="ssr:stedsnr" v="125558" />
	</node>
	<node lat="59.720374999855586" lon="7.717227773227413" id="-27020">
		<tag k="historic" v="shieling" />
		<tag k="loc_name" v="Flatastaul" />
		<tag k="name" v="Flatastøyl" />
		<tag k="place" v="locality" />
		<tag k="ssr:stedsnr" v="149056" />
	</node>
	<node lat="59.666313893133065" lon="7.943352785643273" id="-27025">
		<tag k="historic" v="shieling" />
		<tag k="name" v="Ånonstøyl" />
		<tag k="place" v="locality" />
		<tag k="ssr:stedsnr" v="149519" />
	</node>
	<node lat="59.53865555542021" lon="7.877186107943276" id="-27029">
		<tag k="name" v="Bjønnemyr" />
		<tag k="natural" v="wetland" />
		<tag k="ssr:stedsnr" v="149432" />
	</node>
	<node lat="59.550180558524396" lon="7.931361104610366" id="-27030">
		<tag k="historic" v="shieling" />
		<tag k="name" v="Spektveit" />
		<tag k="place" v="locality" />
		<tag k="ssr:stedsnr" v="149433" />
	</node>
	<node lat="59.75612222479562" lon="7.746033327575326" id="-27033">
		<tag k="historic" v="shieling" />
		<tag k="name" v="Dikje" />
		<tag k="place" v="locality" />
		<tag k="ssr:stedsnr" v="149472" />
	</node>
	<node lat="59.54205277566249" lon="7.975972221185447" id="-27040">
		<tag k="historic" v="shieling" />
		<tag k="name" v="Sudmosli" />
		<tag k="place" v="locality" />
		<tag k="ssr:stedsnr" v="149763" />
	</node>
</osm>
