<?xml version="1.0" encoding="UTF-8"?>
<osm version="0.6" generator="osmapis">
	<node lat="59.646848448865455" lon="7.8663637014557235" id="-54257">
		<tag k="name" v="Myrkvæven" />
		<tag k="place" v="locality" />
		<tag k="ssr:stedsnr" v="3805" />
	</node>
	<node lat="59.96120833029291" lon="7.62697500698698" id="-54406">
		<tag k="name" v="Sørenssteinen" />
		<tag k="place" v="locality" />
		<tag k="ssr:stedsnr" v="64904" />
	</node>
	<node lat="60.108284088534006" lon="7.834744454752598" id="-54726">
		<tag k="name" v="Vierhyttlega" />
		<tag k="place" v="locality" />
		<tag k="ssr:stedsnr" v="247600" />
	</node>
	<node lat="59.78762777993512" lon="7.566497227447268" id="-54737">
		<tag k="name" v="Høyseli" />
		<tag k="place" v="locality" />
		<tag k="ssr:stedsnr" v="178802" />
	</node>
	<node lat="59.62070833065318" lon="7.829913895779834" id="-54814">
		<tag k="amenity" v="community_centre" />
		<tag k="name" v="Vinjar" />
		<tag k="ssr:stedsnr" v="210397" />
	</node>
	<node lat="59.8331611116398" lon="7.66077499940132" id="-54888">
		<tag k="name" v="Torsmoen" />
		<tag k="place" v="locality" />
		<tag k="ssr:stedsnr" v="246938" />
	</node>
	<node lat="60.01683728588895" lon="7.864180523598542" id="-54896">
		<tag k="name" v="Lægeret" />
		<tag k="place" v="locality" />
		<tag k="ssr:stedsnr" v="247482" />
	</node>
	<node lat="60.069333336197865" lon="7.481824992699698" id="-54900">
		<tag k="alt_name" v="Sandvasslega, øvre" />
		<tag k="name" v="Øvre Sandvasslega" />
		<tag k="place" v="locality" />
		<tag k="ssr:stedsnr" v="247629" />
	</node>
	<node lat="59.720005553194014" lon="8.097991671392355" id="-54957">
		<tag k="name" v="Sortekjeldskytja" />
		<tag k="place" v="locality" />
		<tag k="ssr:stedsnr" v="275098" />
	</node>
	<node lat="59.74475018475495" lon="7.659216984854021" id="-55051">
		<tag k="name" v="Liestøyl" />
		<tag k="old_name" v="Listøl" />
		<tag k="place" v="locality" />
		<tag k="ssr:stedsnr" v="307367" />
	</node>
	<node lat="60.03133333019323" lon="7.4826500040161905" id="-55085">
		<tag k="alt_name" v="Kvelven, vesle" />
		<tag k="name" v="Vesle Kvelven" />
		<tag k="place" v="locality" />
		<tag k="ssr:stedsnr" v="308608" />
	</node>
	<node lat="60.00853333597454" lon="7.683963897401851" id="-55087">
		<tag k="name" v="Tosketjønnlega" />
		<tag k="place" v="locality" />
		<tag k="ssr:stedsnr" v="308655" />
	</node>
	<node lat="59.76381666795223" lon="7.357927776018927" id="-55287">
		<tag k="name" v="Kolabui" />
		<tag k="place" v="locality" />
		<tag k="ssr:stedsnr" v="420460" />
	</node>
	<node lat="60.02319999472084" lon="7.845751225474657" id="-55354">
		<tag k="name" v="Plassen" />
		<tag k="place" v="locality" />
		<tag k="ssr:stedsnr" v="429480" />
	</node>
	<node lat="59.7804972246364" lon="7.4185194468252" id="-55392">
		<tag k="name" v="Kvennhusselet" />
		<tag k="place" v="locality" />
		<tag k="ssr:stedsnr" v="663123" />
	</node>
	<node lat="59.68535086848136" lon="7.917044919539841" id="-55461">
		<tag k="alt_name" v="Løkjeroe" />
		<tag k="name" v="Løkjeroi" />
		<tag k="place" v="locality" />
		<tag k="ssr:stedsnr" v="488865" />
	</node>
	<node lat="59.58570431742509" lon="7.933530351874262" id="-55521">
		<tag k="alt_name" v="Stakkstølie" />
		<tag k="loc_name" v="Li" />
		<tag k="name" v="Lii" />
		<tag k="place" v="locality" />
		<tag k="ssr:stedsnr" v="670892" />
	</node>
	<node lat="59.67533077016325" lon="7.796104138691904" id="-55537">
		<tag k="name" v="Klypa" />
		<tag k="place" v="locality" />
		<tag k="ssr:stedsnr" v="670870" />
	</node>
	<node lat="60.036635083141846" lon="7.826680875458221" id="-55602">
		<tag k="loc_name" v="Steinstaulen" />
		<tag k="name" v="Steinstøl" />
		<tag k="place" v="locality" />
		<tag k="ssr:stedsnr" v="672493" />
	</node>
	<node lat="59.619333335411746" lon="7.84318610556072" id="-55665">
		<tag k="alt_name" v="Vinje" />
		<tag k="amenity" v="place_of_worship" />
		<tag k="denomination" v="lutheran" />
		<tag k="name" v="Vinje kyrkje" />
		<tag k="religion" v="christian" />
		<tag k="ssr:stedsnr" v="548961" />
	</node>
	<node lat="59.743544448320264" lon="8.06922499246856" id="-55695">
		<tag k="name" v="Veggli" />
		<tag k="place" v="locality" />
		<tag k="ssr:stedsnr" v="549659" />
	</node>
	<node lat="59.91862499569789" lon="7.413494444719194" id="-55704">
		<tag k="name" v="Klovsteinvollen" />
		<tag k="place" v="locality" />
		<tag k="ssr:stedsnr" v="549904" />
	</node>
	<node lat="60.03438055417156" lon="7.547005551505232" id="-55738">
		<tag k="name" v="Klovsteinlega" />
		<tag k="place" v="locality" />
		<tag k="ssr:stedsnr" v="551667" />
	</node>
	<node lat="59.932152775126234" lon="7.665983338674388" id="-55862">
		<tag k="name" v="Raudåsteinane" />
		<tag k="place" v="locality" />
		<tag k="ssr:stedsnr" v="610928" />
	</node>
	<node lat="59.64881388914244" lon="7.790377782863127" id="-55900">
		<tag k="name" v="Vinje Billedgalleri" />
		<tag k="ssr:stedsnr" v="692868" />
		<tag k="tourism" v="museum" />
	</node>
	<node lat="59.52204722505585" lon="7.983233329145204" id="-55982">
		<tag k="amenity" v="community_centre" />
		<tag k="name" v="Tonna" />
		<tag k="ssr:stedsnr" v="671031" />
	</node>
	<node lat="60.080486194496345" lon="7.775442651354722" id="-55993">
		<tag k="name" v="Merakklega" />
		<tag k="place" v="locality" />
		<tag k="ssr:stedsnr" v="671613" />
	</node>
	<node lat="59.85975000377535" lon="7.638333340487102" id="-56026">
		<tag k="name" v="Saltpytt, nedre" />
		<tag k="place" v="locality" />
		<tag k="ssr:stedsnr" v="672000" />
	</node>
	<node lat="60.030090220371925" lon="7.762364272775823" id="-56032">
		<tag k="name" v="Vollan" />
		<tag k="place" v="locality" />
		<tag k="ssr:stedsnr" v="672469" />
	</node>
	<node lat="59.72413860715083" lon="8.09147017126263" id="-56116">
		<tag k="name" v="Rukkemo" />
		<tag k="place" v="locality" />
		<tag k="ssr:stedsnr" v="731611" />
	</node>
	<node lat="59.893011112837215" lon="7.576952770410247" id="-56260">
		<tag k="name" v="Ormelega" />
		<tag k="ssr:stedsnr" v="792982" />
		<tag k="tourism" v="attraction" />
	</node>
	<node lat="60.01723408212732" lon="7.8586336224657405" id="-56270">
		<tag k="name" v="Maurset" />
		<tag k="place" v="locality" />
		<tag k="ssr:stedsnr" v="793534" />
	</node>
	<node lat="59.72296389330724" lon="7.696819442392151" id="-56360">
		<tag k="alt_name" v="Grunge kyrkje" />
		<tag k="amenity" v="place_of_worship" />
		<tag k="denomination" v="lutheran" />
		<tag k="name" v="Grungedal" />
		<tag k="religion" v="christian" />
		<tag k="ssr:stedsnr" v="913561" />
	</node>
	<node lat="59.7277777797912" lon="7.373119439261793" id="-56394">
		<tag k="name" v="Bjørnhaug" />
		<tag k="place" v="locality" />
		<tag k="ssr:stedsnr" v="913333" />
	</node>
	<node lat="59.71627024619423" lon="7.998983578687552" id="-56423">
		<tag k="alt_name" v="Rauland" />
		<tag k="amenity" v="place_of_worship" />
		<tag k="denomination" v="lutheran" />
		<tag k="name" v="Rauland kyrkje" />
		<tag k="religion" v="christian" />
		<tag k="ssr:stedsnr" v="913805" />
	</node>
	<node lat="59.74681389287131" lon="8.05841388482647" id="-56436">
		<tag k="name" v="Nordhei" />
		<tag k="place" v="locality" />
		<tag k="ssr:stedsnr" v="913653" />
	</node>
	<node lat="59.595142048283606" lon="7.985877912688778" id="-56451">
		<tag k="name" v="Reisbekk" />
		<tag k="place" v="locality" />
		<tag k="ssr:stedsnr" v="913915" />
	</node>
	<node lat="59.75945130877592" lon="7.847163102477396" id="-56466">
		<tag k="alt_name" v="Nystøylen" />
		<tag k="name" v="Nystøyl" />
		<tag k="place" v="locality" />
		<tag k="ssr:stedsnr" v="914367" />
	</node>
	<node lat="59.87696344430422" lon="7.84296929287878" id="-56490">
		<tag k="loc_name" v="Bustø" />
		<tag k="name" v="Bustå" />
		<tag k="place" v="locality" />
		<tag k="ssr:stedsnr" v="914661" />
	</node>
	<node lat="59.81733610986681" lon="7.302000001224893" id="-56497">
		<tag k="name" v="Hardinghytta" />
		<tag k="place" v="locality" />
		<tag k="ssr:stedsnr" v="914826" />
	</node>
	<node lat="59.512197083621096" lon="7.969478217492808" id="-56567">
		<tag k="name" v="Hommo" />
		<tag k="place" v="locality" />
		<tag k="ssr:stedsnr" v="913003" />
	</node>
	<node lat="59.72733055577514" lon="8.094283328273958" id="-56667">
		<tag k="name" v="Finnane" />
		<tag k="place" v="locality" />
		<tag k="ssr:stedsnr" v="943336" />
	</node>
	<node lat="59.891377779804266" lon="7.392988885160861" id="-56893">
		<tag k="name" v="Fjølabu" />
		<tag k="place" v="locality" />
		<tag k="ssr:stedsnr" v="3985" />
	</node>
	<node lat="59.75957327353358" lon="7.845060932487199" id="-57009">
		<tag k="name" v="Kåvetekkja" />
		<tag k="place" v="locality" />
		<tag k="ssr:stedsnr" v="31682" />
	</node>
	<node lat="59.7160862047352" lon="8.081914013549165" id="-57097">
		<tag k="name" v="Skytja" />
		<tag k="old_name" v="Skykja" />
		<tag k="place" v="locality" />
		<tag k="ssr:stedsnr" v="64833" />
	</node>
	<node lat="59.68110555456492" lon="7.680977784736103" id="-57215">
		<tag k="name" v="Myrselet" />
		<tag k="place" v="locality" />
		<tag k="ssr:stedsnr" v="110510" />
	</node>
	<node lat="59.57481726830367" lon="8.17407570981032" id="-57254">
		<tag k="alt_name" v="Øyfjell" />
		<tag k="amenity" v="place_of_worship" />
		<tag k="denomination" v="lutheran" />
		<tag k="name" v="Øyfjell kyrkje" />
		<tag k="religion" v="christian" />
		<tag k="ssr:stedsnr" v="124429" />
	</node>
	<node lat="59.78016803312751" lon="7.417722793047716" id="-57288">
		<tag k="alt_name" v="Kvernhusflott" />
		<tag k="name" v="Kvernhusflotti" />
		<tag k="place" v="locality" />
		<tag k="ssr:stedsnr" v="125536" />
	</node>
	<node lat="60.06174027784797" lon="7.9895194441922746" id="-57324">
		<tag k="name" v="Storfjellægret" />
		<tag k="place" v="locality" />
		<tag k="ssr:stedsnr" v="126589" />
	</node>
	<node lat="59.74476944629187" lon="8.031847220999596" id="-57442">
		<tag k="alt_name" v="Hoskuldsmoen" />
		<tag k="name" v="Hoskuldsmogen" />
		<tag k="place" v="locality" />
		<tag k="ssr:stedsnr" v="185641" />
	</node>
	<node lat="59.79862777805502" lon="7.908233329819024" id="-57563">
		<tag k="name" v="Bjønnebu" />
		<tag k="place" v="locality" />
		<tag k="ssr:stedsnr" v="213479" />
	</node>
	<node lat="59.68192499564453" lon="7.353402779946285" id="-57692">
		<tag k="name" v="Nipalega" />
		<tag k="place" v="locality" />
		<tag k="ssr:stedsnr" v="306561" />
	</node>
	<node lat="59.6858151289148" lon="7.8350714111022945" id="-57714">
		<tag k="alt_name" v="Omboroe" />
		<tag k="name" v="Omboroi" />
		<tag k="place" v="locality" />
		<tag k="ssr:stedsnr" v="306848" />
	</node>
	<node lat="59.69109196175354" lon="7.961896301566958" id="-57716">
		<tag k="name" v="Trosaviki" />
		<tag k="place" v="locality" />
		<tag k="ssr:stedsnr" v="306862" />
	</node>
	<node lat="59.84151666882481" lon="7.697791664144097" id="-57871">
		<tag k="name" v="Jaranshytta" />
		<tag k="place" v="locality" />
		<tag k="ssr:stedsnr" v="367936" />
	</node>
	<node lat="59.89265833424835" lon="7.523169439525316" id="-57933">
		<tag k="name" v="Berudalen, øvre" />
		<tag k="place" v="locality" />
		<tag k="ssr:stedsnr" v="367977" />
	</node>
	<node lat="59.78926110747949" lon="7.559602769368189" id="-57939">
		<tag k="name" v="Maurebu" />
		<tag k="ssr:stedsnr" v="368565" />
		<tag k="tourism" v="attraction" />
	</node>
	<node lat="60.08530736905969" lon="7.874312455766014" id="-57943">
		<tag k="alt_name" v="Gjuvsjålega, vesle" />
		<tag k="name" v="Vesle Gjuvsjålega" />
		<tag k="place" v="locality" />
		<tag k="ssr:stedsnr" v="368647" />
	</node>
	<node lat="59.69138574362002" lon="7.845973741468377" id="-58099">
		<tag k="alt_name" v="Brosti" />
		<tag k="name" v="Brusli" />
		<tag k="place" v="locality" />
		<tag k="ssr:stedsnr" v="428863" />
	</node>
	<node lat="59.824369442057936" lon="7.69250555395116" id="-58106">
		<tag k="name" v="Inngjerda" />
		<tag k="place" v="locality" />
		<tag k="ssr:stedsnr" v="428955" />
	</node>
	<node lat="59.7892666661575" lon="7.655572228147458" id="-58127">
		<tag k="name" v="Årdalen, nordre" />
		<tag k="place" v="locality" />
		<tag k="ssr:stedsnr" v="429499" />
	</node>
	<node lat="60.006263542974615" lon="7.940440144883958" id="-58131">
		<tag k="name" v="Toresmoen" />
		<tag k="ssr:stedsnr" v="430548" />
		<tag k="tourism" v="museum" />
	</node>
	<node lat="60.05227721684593" lon="7.954046838026694" id="-58132">
		<tag k="name" v="Tjønndalslægret" />
		<tag k="place" v="locality" />
		<tag k="ssr:stedsnr" v="660762" />
	</node>
	<node lat="59.52385036151313" lon="7.985942486074525" id="-58152">
		<tag k="alt_name" v="Nesland kyrkje" />
		<tag k="amenity" v="place_of_worship" />
		<tag k="denomination" v="lutheran" />
		<tag k="name" v="Nesland" />
		<tag k="religion" v="christian" />
		<tag k="ssr:stedsnr" v="488049" />
	</node>
	<node lat="59.63685888790113" lon="7.8431743635097835" id="-58176">
		<tag k="name" v="Prestmo" />
		<tag k="place" v="locality" />
		<tag k="ssr:stedsnr" v="488940" />
	</node>
	<node lat="59.85231605135822" lon="8.065356232074429" id="-58228">
		<tag k="alt_name" v="Møsstrånd kyrkje;Møsstrand kyrkje" />
		<tag k="amenity" v="place_of_worship" />
		<tag k="denomination" v="lutheran" />
		<tag k="name" v="Møsstrond kyrkje" />
		<tag k="religion" v="christian" />
		<tag k="ssr:stedsnr" v="489735" />
	</node>
	<node lat="60.05289999561577" lon="7.523188887823073" id="-58241">
		<tag k="alt_name" v="Sandvasslegene, nedre" />
		<tag k="name" v="Nedre Sandvasslega" />
		<tag k="place" v="locality" />
		<tag k="ssr:stedsnr" v="490622" />
	</node>
	<node lat="60.05718055150827" lon="7.506166659130553" id="-58242">
		<tag k="name" v="Midtre Sandvasslega" />
		<tag k="place" v="locality" />
		<tag k="ssr:stedsnr" v="490624" />
	</node>
	<node lat="59.575075003791504" lon="8.182391660501217" id="-58290">
		<tag k="amenity" v="place_of_worship" />
		<tag k="fixme" v="specify religion=*, denomination=*, building=* etc" />
		<tag k="name" v="Betania" />
		<tag k="ssr:stedsnr" v="516054" />
	</node>
	<node lat="59.746302777443994" lon="7.446352777150532" id="-58341">
		<tag k="name" v="Vågslisagi" />
		<tag k="place" v="locality" />
		<tag k="ssr:stedsnr" v="542945" />
	</node>
	<node lat="59.63063055892604" lon="8.201599991495709" id="-58370">
		<tag k="amenity" v="community_centre" />
		<tag k="name" v="Rorge skule" />
		<tag k="ssr:stedsnr" v="549355" />
	</node>
	<node lat="59.62144386953463" lon="7.898149802707196" id="-58423">
		<tag k="name" v="Ometo" />
		<tag k="place" v="locality" />
		<tag k="ssr:stedsnr" v="549955" />
	</node>
	<node lat="59.83028204793876" lon="7.27742342344443" id="-58439">
		<tag k="name" v="Tjønnlega" />
		<tag k="place" v="locality" />
		<tag k="ssr:stedsnr" v="550841" />
	</node>
	<node lat="60.05714722308199" lon="7.506222214226954" id="-58546">
		<tag k="name" v="Sandvasslegene" />
		<tag k="place" v="locality" />
		<tag k="ssr:stedsnr" v="603999" />
	</node>
	<node lat="59.675293656854684" lon="8.157259399874755" id="-58550">
		<tag k="name" v="Brandland" />
		<tag k="place" v="locality" />
		<tag k="ssr:stedsnr" v="609166" />
	</node>
	<node lat="59.790877689167196" lon="7.995661386296767" id="-58597">
		<tag k="name" v="Kroken" />
		<tag k="place" v="locality" />
		<tag k="ssr:stedsnr" v="610369" />
	</node>
	<node lat="59.83870951817242" lon="7.322654646724763" id="-58875">
		<tag k="name" v="Bakkelega" />
		<tag k="place" v="locality" />
		<tag k="ssr:stedsnr" v="732833" />
	</node>
	<node lat="59.76892997315663" lon="7.721858221113794" id="-58881">
		<tag k="name" v="Farastadstøylen" />
		<tag k="place" v="locality" />
		<tag k="ssr:stedsnr" v="732349" />
	</node>
	<node lat="59.95504444026454" lon="7.568299993339281" id="-58901">
		<tag k="name" v="Klovstein" />
		<tag k="place" v="locality" />
		<tag k="ssr:stedsnr" v="732877" />
	</node>
	<node lat="59.91336110974809" lon="7.375130556821408" id="-58902">
		<tag k="name" v="Vassdalslega" />
		<tag k="place" v="locality" />
		<tag k="ssr:stedsnr" v="732896" />
	</node>
	<node lat="59.89454444868242" lon="7.375030560900253" id="-58905">
		<tag k="name" v="Neslega" />
		<tag k="place" v="locality" />
		<tag k="ssr:stedsnr" v="732975" />
	</node>
	<node lat="59.78486666928663" lon="7.819933331359828" id="-58969">
		<tag k="name" v="Stakkstøet" />
		<tag k="place" v="locality" />
		<tag k="ssr:stedsnr" v="759987" />
	</node>
	<node lat="59.567016667240644" lon="8.185430553497568" id="-58997">
		<tag k="name" v="Øyfjell bygdemuseum" />
		<tag k="ssr:stedsnr" v="777987" />
		<tag k="tourism" v="museum" />
	</node>
	<node lat="59.76356666722219" lon="7.345513884825675" id="-59011">
		<tag k="name" v="Stabben" />
		<tag k="place" v="locality" />
		<tag k="ssr:stedsnr" v="784416" />
	</node>
	<node lat="59.57857500010611" lon="7.9270361034062296" id="-59071">
		<tag k="name" v="Neset" />
		<tag k="place" v="locality" />
		<tag k="ssr:stedsnr" v="792924" />
	</node>
	<node lat="59.755511109082484" lon="7.566966674716742" id="-59076">
		<tag k="name" v="Dokki" />
		<tag k="place" v="locality" />
		<tag k="ssr:stedsnr" v="792575" />
	</node>
	<node lat="59.847077776866335" lon="7.679955550763919" id="-59115">
		<tag k="name" v="Ivarsheller" />
		<tag k="place" v="locality" />
		<tag k="ssr:stedsnr" v="793000" />
	</node>
	<node lat="59.634722218718935" lon="7.800480548471823" id="-59137">
		<tag k="name" v="Mjonøy" />
		<tag k="ssr:stedsnr" v="817129" />
		<tag k="tourism" v="museum" />
	</node>
	<node lat="59.782408330229714" lon="7.750197226997412" id="-59190">
		<tag k="name" v="Tjønnestøyllega" />
		<tag k="place" v="locality" />
		<tag k="ssr:stedsnr" v="821352" />
	</node>
	<node lat="59.76896666345813" lon="7.438541666327158" id="-59214">
		<tag k="name" v="Flotteselet" />
		<tag k="place" v="locality" />
		<tag k="ssr:stedsnr" v="845656" />
	</node>
	<node lat="59.89541666636959" lon="7.399091669696512" id="-59287">
		<tag k="name" v="Hola" />
		<tag k="place" v="locality" />
		<tag k="ssr:stedsnr" v="853984" />
	</node>
	<node lat="59.886300000118524" lon="7.59855277789438" id="-59288">
		<tag k="loc_name" v="Skreuhaddine" />
		<tag k="name" v="Skreuhallet" />
		<tag k="place" v="locality" />
		<tag k="ssr:stedsnr" v="853989" />
	</node>
	<node lat="59.76221111154003" lon="8.124327780411273" id="-59293">
		<tag k="name" v="Syrbekk" />
		<tag k="ssr:stedsnr" v="854049" />
		<tag k="tourism" v="attraction" />
	</node>
</osm>
