<?xml version="1.0" encoding="UTF-8"?>
<osm version="0.6" generator="osmapis">
	<node lat="59.56973611561439" lon="7.988705563926606" id="-26577">
		<tag k="name" v="Åmot" />
		<tag k="place" v="village" />
		<tag k="ssr:stedsnr" v="3105" />
	</node>
	<node lat="59.786890896204184" lon="8.174247632193746" id="-26578">
		<tag k="historic" v="shieling" />
		<tag k="name" v="Listaul" />
		<tag k="place" v="isolated_dwelling" />
		<tag k="ssr:stedsnr" v="3374" />
	</node>
	<node lat="59.649658331684236" lon="7.709438893161143" id="-26582">
		<tag k="name" v="Gjuvet" />
		<tag k="place" v="locality" />
		<tag k="ssr:stedsnr" v="3508" />
	</node>
	<node lat="59.713854298991805" lon="7.757148866854796" id="-26584">
		<tag k="alt_name" v="Svalestuen" />
		<tag k="fixme" v="consider place=hamlet" />
		<tag k="name" v="Svalastog" />
		<tag k="place" v="farm" />
		<tag k="ssr:stedsnr" v="3620" />
	</node>
	<node lat="59.714558337283535" lon="7.969338884733977" id="-26587">
		<tag k="name" v="Flatland" />
		<tag k="place" v="farm" />
		<tag k="ssr:stedsnr" v="3806" />
	</node>
	<node lat="59.7114250001179" lon="7.923324999773289" id="-26588">
		<tag k="fixme" v="consider place=hamlet" />
		<tag k="name" v="Aksvik" />
		<tag k="place" v="farm" />
		<tag k="ssr:stedsnr" v="3816" />
	</node>
	<node lat="59.7201416672984" lon="7.931430551491721" id="-26589">
		<tag k="alt_name" v="Dalsstøyl" />
		<tag k="historic" v="shieling" />
		<tag k="loc_name" v="Dalstaul" />
		<tag k="name" v="Dalstøyl" />
		<tag k="old_name" v="Dalstøl" />
		<tag k="place" v="isolated_dwelling" />
		<tag k="ssr:stedsnr" v="3818" />
	</node>
	<node lat="59.70411031787146" lon="7.7976572100577135" id="-26590">
		<tag k="alt_name" v="Breiarbekken" />
		<tag k="name" v="Breidarbekken" />
		<tag k="place" v="locality" />
		<tag k="ssr:stedsnr" v="3821" />
	</node>
	<node lat="59.67146111248945" lon="7.79604166082676" id="-26591">
		<tag k="name" v="Eggi" />
		<tag k="place" v="isolated_dwelling" />
		<tag k="ssr:stedsnr" v="3741" />
	</node>
	<node lat="59.66901666603482" lon="8.072897229281242" id="-26593">
		<tag k="name" v="Homme" />
		<tag k="place" v="farm" />
		<tag k="ssr:stedsnr" v="3749" />
	</node>
	<node lat="59.67323751657348" lon="8.044177707120268" id="-26594">
		<tag k="fixme" v="consider place=hamlet" />
		<tag k="name" v="Lofthus" />
		<tag k="place" v="farm" />
		<tag k="ssr:stedsnr" v="3750" />
	</node>
	<node lat="59.6420611139027" lon="7.800736113659777" id="-26597">
		<tag k="name" v="Smørklepp" />
		<tag k="place" v="hamlet" />
		<tag k="ssr:stedsnr" v="3771" />
	</node>
	<node lat="59.64889999762757" lon="7.978849992603915" id="-26598">
		<tag k="alt_name" v="Øde-Vågsli" />
		<tag k="fixme" v="consider place=hamlet" />
		<tag k="name" v="Øyvågsli" />
		<tag k="place" v="farm" />
		<tag k="ssr:stedsnr" v="3784" />
	</node>
	<node lat="59.65512499912272" lon="7.964947222958762" id="-26599">
		<tag k="alt_name" v="Rottjørn" />
		<tag k="fixme" v="consider place=hamlet" />
		<tag k="name" v="Rottjønn" />
		<tag k="place" v="farm" />
		<tag k="ssr:stedsnr" v="3787" />
	</node>
	<node lat="59.81132499685349" lon="7.556494436103948" id="-26600">
		<tag k="historic" v="shieling" />
		<tag k="name" v="Leirhyl" />
		<tag k="place" v="isolated_dwelling" />
		<tag k="ssr:stedsnr" v="3969" />
	</node>
	<node lat="59.62038333076081" lon="7.8329222184210785" id="-26601">
		<tag k="fixme" v="consider place=hamlet" />
		<tag k="name" v="Vinje" />
		<tag k="place" v="village" />
		<tag k="ssr:stedsnr" v="3977" />
	</node>
	<node lat="59.61358055884874" lon="7.820852783584039" id="-26602">
		<tag k="name" v="Timbåsen" />
		<tag k="place" v="farm" />
		<tag k="ssr:stedsnr" v="3978" />
	</node>
	<node lat="59.625823060440595" lon="8.041531313255799" id="-26604">
		<tag k="name" v="Grydalen" />
		<tag k="place" v="locality" />
		<tag k="ssr:stedsnr" v="3986" />
	</node>
	<node lat="59.62470277468523" lon="8.01486666538214" id="-26606">
		<tag k="name" v="Knatten" />
		<tag k="place" v="isolated_dwelling" />
		<tag k="ssr:stedsnr" v="3990" />
	</node>
	<node lat="59.61136814657923" lon="8.053801692267381" id="-26609">
		<tag k="name" v="Skålen" />
		<tag k="place" v="locality" />
		<tag k="ssr:stedsnr" v="3874" />
	</node>
	<node lat="59.75661944666601" lon="8.146936115142212" id="-26613">
		<tag k="name" v="Flotubu" />
		<tag k="place" v="farm" />
		<tag k="ssr:stedsnr" v="4087" />
	</node>
	<node lat="59.78708888892594" lon="7.662402782367105" id="-26617">
		<tag k="alt_name" v="Årdalen" />
		<tag k="historic" v="shieling" />
		<tag k="name" v="Årdalen, s" />
		<tag k="place" v="isolated_dwelling" />
		<tag k="ssr:stedsnr" v="4521" />
	</node>
	<node lat="59.867136113648954" lon="8.16439444177491" id="-26625">
		<tag k="name" v="Kolbotn" />
		<tag k="place" v="isolated_dwelling" />
		<tag k="ssr:stedsnr" v="4466" />
	</node>
	<node lat="59.890672226243645" lon="7.483155561755102" id="-26627">
		<tag k="name" v="Hola" />
		<tag k="place" v="isolated_dwelling" />
		<tag k="ssr:stedsnr" v="4602" />
	</node>
	<node lat="60.01962222578942" lon="7.873427768750801" id="-26634">
		<tag k="fixme" v="consider place=hamlet" />
		<tag k="name" v="Argehovd" />
		<tag k="place" v="farm" />
		<tag k="ssr:stedsnr" v="5479" />
	</node>
	<node lat="59.74601110896355" lon="7.579294436215917" id="-26637">
		<tag k="historic" v="shieling" />
		<tag k="name" v="Kleivedalen" />
		<tag k="place" v="isolated_dwelling" />
		<tag k="ssr:stedsnr" v="231147" />
	</node>
	<node lat="59.761791666686364" lon="7.49211111136054" id="-26638">
		<tag k="historic" v="shieling" />
		<tag k="name" v="Breidalen" />
		<tag k="place" v="isolated_dwelling" />
		<tag k="ssr:stedsnr" v="231467" />
	</node>
	<node lat="59.74157499829878" lon="7.603888885758919" id="-26639">
		<tag k="name" v="Uppigard" />
		<tag k="place" v="farm" />
		<tag k="ssr:stedsnr" v="231619" />
	</node>
	<node lat="59.648597226621725" lon="7.563144452247241" id="-26640">
		<tag k="name" v="Slavehytta" />
		<tag k="place" v="locality" />
		<tag k="ssr:stedsnr" v="231814" />
	</node>
	<node lat="59.74446944540041" lon="7.6400138869044" id="-26642">
		<tag k="historic" v="shieling" />
		<tag k="name" v="Finnebu" />
		<tag k="place" v="isolated_dwelling" />
		<tag k="ssr:stedsnr" v="232050" />
	</node>
	<node lat="59.579863891166845" lon="7.986144440927197" id="-26659">
		<tag k="name" v="Midtbø, nordistog" />
		<tag k="place" v="farm" />
		<tag k="ssr:stedsnr" v="28716" />
	</node>
	<node lat="59.498169441662334" lon="7.96839999209829" id="-26664">
		<tag k="name" v="Maurehaugen" />
		<tag k="place" v="farm" />
		<tag k="ssr:stedsnr" v="28769" />
	</node>
	<node lat="59.70486806536522" lon="8.117928480477383" id="-26677">
		<tag k="historic" v="shieling" />
		<tag k="name" v="Fitevad" />
		<tag k="place" v="isolated_dwelling" />
		<tag k="ssr:stedsnr" v="31665" />
	</node>
	<node lat="59.72200620416494" lon="8.106233739770936" id="-26678">
		<tag k="name" v="Løyning" />
		<tag k="place" v="locality" />
		<tag k="ssr:stedsnr" v="31670" />
	</node>
	<node lat="59.66932830810171" lon="8.192176967261334" id="-26680">
		<tag k="name" v="Kroi" />
		<tag k="place" v="isolated_dwelling" />
		<tag k="ssr:stedsnr" v="31805" />
	</node>
	<node lat="59.72898889338097" lon="8.136541672213758" id="-26683">
		<tag k="loc_name" v="Listaul" />
		<tag k="name" v="Listøl" />
		<tag k="place" v="isolated_dwelling" />
		<tag k="ssr:stedsnr" v="32106" />
	</node>
	<node lat="59.70347221818757" lon="8.032944435852167" id="-26690">
		<tag k="name" v="Nigard" />
		<tag k="place" v="farm" />
		<tag k="ssr:stedsnr" v="32910" />
	</node>
	<node lat="59.72783610711857" lon="7.475455547943532" id="-26702">
		<tag k="name" v="Flothyl nedre" />
		<tag k="place" v="farm" />
		<tag k="ssr:stedsnr" v="239247" />
	</node>
	<node lat="59.78464166370332" lon="7.330788889728219" id="-26710">
		<tag k="historic" v="shieling" />
		<tag k="name" v="Stuvestøyl" />
		<tag k="place" v="isolated_dwelling" />
		<tag k="ssr:stedsnr" v="240024" />
	</node>
	<node lat="59.78275833205501" lon="7.295877775295246" id="-26712">
		<tag k="historic" v="shieling" />
		<tag k="name" v="Løyning" />
		<tag k="place" v="isolated_dwelling" />
		<tag k="ssr:stedsnr" v="58885" />
	</node>
	<node lat="59.56374999692996" lon="7.9460555593074975" id="-26713">
		<tag k="alt_name" v="Brastøyl" />
		<tag k="historic" v="shieling" />
		<tag k="name" v="Brattstøyl" />
		<tag k="old_name" v="Brattstøl" />
		<tag k="place" v="isolated_dwelling" />
		<tag k="ssr:stedsnr" v="63119" />
	</node>
	<node lat="59.74283333748995" lon="8.196527774089514" id="-26715">
		<tag k="historic" v="shieling" />
		<tag k="name" v="Heimvegli" />
		<tag k="place" v="isolated_dwelling" />
		<tag k="ssr:stedsnr" v="63263" />
	</node>
	<node lat="59.705400002168275" lon="8.059419438830064" id="-26719">
		<tag k="alt_name" v="Juvland nordre" />
		<tag k="fixme" v="consider place=hamlet" />
		<tag k="name" v="Gjuvland" />
		<tag k="place" v="farm" />
		<tag k="ssr:stedsnr" v="63819" />
	</node>
	<node lat="59.57131110956002" lon="7.88967222331062" id="-26722">
		<tag k="historic" v="shieling" />
		<tag k="name" v="Engeskrøyv" />
		<tag k="old_name" v="Engesgrov" />
		<tag k="place" v="isolated_dwelling" />
		<tag k="ssr:stedsnr" v="64106" />
	</node>
	<node lat="59.689743053270185" lon="8.232204611838805" id="-26723">
		<tag k="alt_name" v="Austerstaul;Østrestøl" />
		<tag k="historic" v="shieling" />
		<tag k="name" v="Austerstøyl" />
		<tag k="place" v="isolated_dwelling" />
		<tag k="ssr:stedsnr" v="64142" />
	</node>
	<node lat="59.68384728637121" lon="8.175961135036781" id="-26724">
		<tag k="alt_name" v="Nystøl" />
		<tag k="historic" v="shieling" />
		<tag k="name" v="Nystaul" />
		<tag k="place" v="isolated_dwelling" />
		<tag k="ssr:stedsnr" v="64153" />
	</node>
	<node lat="59.687177780162386" lon="8.20791943971341" id="-26725">
		<tag k="alt_name" v="Grostøl;Grostaul" />
		<tag k="historic" v="shieling" />
		<tag k="name" v="Grostøyl" />
		<tag k="place" v="isolated_dwelling" />
		<tag k="ssr:stedsnr" v="64154" />
	</node>
	<node lat="59.69053610661826" lon="8.103338884113237" id="-26726">
		<tag k="name" v="Bøen" />
		<tag k="place" v="farm" />
		<tag k="ssr:stedsnr" v="64161" />
	</node>
	<node lat="59.51862777612878" lon="7.939052783614115" id="-26727">
		<tag k="historic" v="shieling" />
		<tag k="name" v="Furustøyl" />
		<tag k="old_name" v="Furustøl" />
		<tag k="place" v="isolated_dwelling" />
		<tag k="ssr:stedsnr" v="64016" />
	</node>
	<node lat="59.78354166896344" lon="8.163227776729752" id="-26728">
		<tag k="name" v="Sandhaug" />
		<tag k="place" v="locality" />
		<tag k="ssr:stedsnr" v="64071" />
	</node>
	<node lat="59.54923055447535" lon="7.92029166895359" id="-26729">
		<tag k="name" v="Bakken" />
		<tag k="place" v="farm" />
		<tag k="ssr:stedsnr" v="64072" />
	</node>
	<node lat="59.663022223172774" lon="7.692791658766625" id="-26732">
		<tag k="name" v="Fitjevasstøylen" />
		<tag k="old_name" v="Fitjevasstølen" />
		<tag k="place" v="locality" />
		<tag k="ssr:stedsnr" v="64503" />
	</node>
	<node lat="59.66334166543609" lon="7.454027779919624" id="-26734">
		<tag k="historic" v="shieling" />
		<tag k="name" v="Kvikkevollen" />
		<tag k="place" v="isolated_dwelling" />
		<tag k="ssr:stedsnr" v="64516" />
	</node>
	<node lat="59.79666388587465" lon="7.534744444552684" id="-26738">
		<tag k="historic" v="shieling" />
		<tag k="name" v="Veadalen" />
		<tag k="place" v="isolated_dwelling" />
		<tag k="ssr:stedsnr" v="64535" />
	</node>
	<node lat="59.630052775499415" lon="7.644277786459081" id="-26739">
		<tag k="name" v="Steinsbu" />
		<tag k="place" v="isolated_dwelling" />
		<tag k="ssr:stedsnr" v="64536" />
	</node>
	<node lat="59.78818888900925" lon="7.494952780232046" id="-26740">
		<tag k="historic" v="shieling" />
		<tag k="name" v="Videmo" />
		<tag k="place" v="isolated_dwelling" />
		<tag k="ssr:stedsnr" v="64537" />
	</node>
	<node lat="59.680022220047185" lon="8.034080553842319" id="-26747">
		<tag k="name" v="Nordbø" />
		<tag k="place" v="farm" />
		<tag k="ssr:stedsnr" v="64762" />
	</node>
	<node lat="59.605583337752414" lon="7.898744442977684" id="-26748">
		<tag k="alt_name" v="Kose" />
		<tag k="name" v="Kåsi" />
		<tag k="place" v="farm" />
		<tag k="ssr:stedsnr" v="64902" />
	</node>
	<node lat="59.59595000335667" lon="7.9892083357549755" id="-26752">
		<tag k="name" v="Sveigen" />
		<tag k="place" v="locality" />
		<tag k="ssr:stedsnr" v="64922" />
	</node>
	<node lat="59.65492500035524" lon="8.066597215840805" id="-26754">
		<tag k="alt_name" v="Gamlestaul" />
		<tag k="historic" v="shieling" />
		<tag k="name" v="Gamlestøyl" />
		<tag k="old_name" v="Gamlestøl" />
		<tag k="place" v="isolated_dwelling" />
		<tag k="ssr:stedsnr" v="64808" />
	</node>
	<node lat="59.7081888887458" lon="7.910011112389868" id="-26759">
		<tag k="name" v="Dalen" />
		<tag k="place" v="farm" />
		<tag k="ssr:stedsnr" v="64853" />
	</node>
	<node lat="59.68428611480126" lon="8.029816664700292" id="-26760">
		<tag k="alt_name" v="Neslandsgrend" />
		<tag k="name" v="Nesland" />
		<tag k="place" v="hamlet" />
		<tag k="ssr:stedsnr" v="64877" />
	</node>
	<node lat="60.02296389328741" lon="7.890183325273426" id="-26762">
		<tag k="fixme" v="consider tourism=alpine_hut or tourism=chalet" />
		<tag k="name" v="Mogen" />
		<tag k="old_name" v="Mogen turisthotell" />
		<tag k="ssr:stedsnr" v="65499" />
		<tag k="tourism" v="wilderness_hut" />
	</node>
	<node lat="60.03786411622305" lon="7.867471660369341" id="-26767">
		<tag k="name" v="Løyning" />
		<tag k="place" v="locality" />
		<tag k="ssr:stedsnr" v="65507" />
	</node>
	<node lat="59.76988055712624" lon="7.435266661337068" id="-26768">
		<tag k="name" v="Teigen" />
		<tag k="place" v="farm" />
		<tag k="ssr:stedsnr" v="65508" />
	</node>
	<node lat="59.77056944524269" lon="7.380294436649301" id="-26770">
		<tag k="name" v="Nesheim" />
		<tag k="place" v="farm" />
		<tag k="ssr:stedsnr" v="65512" />
	</node>
	<node lat="59.78783610805038" lon="7.6280194476513445" id="-26771">
		<tag k="historic" v="shieling" />
		<tag k="name" v="Fjelltjønn" />
		<tag k="place" v="isolated_dwelling" />
		<tag k="ssr:stedsnr" v="65515" />
	</node>
	<node lat="60.020636113512005" lon="7.709033337537907" id="-26779">
		<tag k="name" v="Simlenuthytta" />
		<tag k="place" v="isolated_dwelling" />
		<tag k="ssr:stedsnr" v="66678" />
	</node>
	<node lat="59.72823332974535" lon="8.101261113048809" id="-26780">
		<tag k="historic" v="shieling" />
		<tag k="name" v="Vemork" />
		<tag k="place" v="isolated_dwelling" />
		<tag k="ssr:stedsnr" v="245214" />
	</node>
	<node lat="59.50444999728123" lon="7.973341674781955" id="-26781">
		<tag k="name" v="Lunden" />
		<tag k="place" v="isolated_dwelling" />
		<tag k="ssr:stedsnr" v="245230" />
	</node>
	<node lat="59.60690555737242" lon="8.235113886687584" id="-26785">
		<tag k="name" v="Drivarbekk" />
		<tag k="place" v="farm" />
		<tag k="ssr:stedsnr" v="245293" />
	</node>
	<node lat="59.61910277656988" lon="7.888916672733248" id="-26796">
		<tag k="fixme" v="consider place=hamlet" />
		<tag k="name" v="Løk" />
		<tag k="place" v="farm" />
		<tag k="ssr:stedsnr" v="88302" />
	</node>
	<node lat="59.62326666979553" lon="7.870224994765779" id="-26797">
		<tag k="name" v="Lauvås" />
		<tag k="place" v="farm" />
		<tag k="ssr:stedsnr" v="88311" />
	</node>
	<node lat="59.69889599485713" lon="7.858591035411899" id="-26798">
		<tag k="name" v="Flotebu" />
		<tag k="place" v="locality" />
		<tag k="ssr:stedsnr" v="245827" />
	</node>
	<node lat="59.691650000221266" lon="7.74601944744263" id="-26799">
		<tag k="name" v="Fiskemo" />
		<tag k="place" v="isolated_dwelling" />
		<tag k="ssr:stedsnr" v="245830" />
	</node>
	<node lat="59.60747543366054" lon="7.744006023649311" id="-26807">
		<tag k="name" v="Horsekvommi" />
		<tag k="old_name" v="Horsekvam" />
		<tag k="place" v="locality" />
		<tag k="ssr:stedsnr" v="245984" />
	</node>
	<node lat="59.61353888948638" lon="8.069466660775" id="-26808">
		<tag k="name" v="Haugebu" />
		<tag k="place" v="isolated_dwelling" />
		<tag k="ssr:stedsnr" v="89172" />
	</node>
	<node lat="59.54826389216649" lon="7.928230550093929" id="-26810">
		<tag k="name" v="Landsverk" />
		<tag k="place" v="farm" />
		<tag k="ssr:stedsnr" v="246072" />
	</node>
	<node lat="59.8126111079472" lon="8.136105556499981" id="-26815">
		<tag k="historic" v="shieling" />
		<tag k="name" v="Nystaul" />
		<tag k="place" v="isolated_dwelling" />
		<tag k="ssr:stedsnr" v="246391" />
	</node>
	<node lat="59.5586444484196" lon="7.985813880709818" id="-26818">
		<tag k="fixme" v="consider place=hamlet" />
		<tag k="name" v="Hovdestad" />
		<tag k="place" v="farm" />
		<tag k="ssr:stedsnr" v="246090" />
	</node>
	<node lat="59.67801389136913" lon="8.113083327719542" id="-26820">
		<tag k="alt_name" v="Flærestøl;Flærestaul" />
		<tag k="name" v="Flærestøyl" />
		<tag k="place" v="farm" />
		<tag k="ssr:stedsnr" v="246171" />
	</node>
	<node lat="59.68830277618061" lon="8.119552778348112" id="-26823">
		<tag k="name" v="Nymoen" />
		<tag k="place" v="farm" />
		<tag k="ssr:stedsnr" v="246176" />
	</node>
	<node lat="59.73953055934802" lon="7.555924999524339" id="-26826">
		<tag k="fixme" v="consider place=hamlet" />
		<tag k="name" v="Groven" />
		<tag k="place" v="farm" />
		<tag k="ssr:stedsnr" v="246346" />
	</node>
	<node lat="59.88192778042601" lon="8.163669445246905" id="-26829">
		<tag k="name" v="Åmot" />
		<tag k="place" v="isolated_dwelling" />
		<tag k="ssr:stedsnr" v="246443" />
	</node>
	<node lat="59.87909166538741" lon="8.13354722650159" id="-26830">
		<tag k="alt_name" v="Vågen sud;Søndre Vågen" />
		<tag k="fixme" v="consider place=hamlet" />
		<tag k="loc_name" v="Vågi" />
		<tag k="name" v="Vågen" />
		<tag k="place" v="farm" />
		<tag k="ssr:stedsnr" v="246445" />
	</node>
	<node lat="59.65892499557988" lon="7.4857527773090755" id="-26832">
		<tag k="historic" v="shieling" />
		<tag k="name" v="Vassenden" />
		<tag k="place" v="isolated_dwelling" />
		<tag k="ssr:stedsnr" v="246475" />
	</node>
	<node lat="59.68079444163929" lon="7.6671277824296284" id="-26834">
		<tag k="historic" v="shieling" />
		<tag k="name" v="Tuddalsholet" />
		<tag k="place" v="isolated_dwelling" />
		<tag k="ssr:stedsnr" v="246489" />
	</node>
	<node lat="59.67744999838673" lon="7.659783328100563" id="-26835">
		<tag k="historic" v="shieling" />
		<tag k="name" v="Finnroi" />
		<tag k="place" v="isolated_dwelling" />
		<tag k="ssr:stedsnr" v="246490" />
	</node>
	<node lat="59.763702775227806" lon="7.6071361040317305" id="-26842">
		<tag k="historic" v="shieling" />
		<tag k="name" v="Kabrettroi" />
		<tag k="place" v="isolated_dwelling" />
		<tag k="ssr:stedsnr" v="246589" />
	</node>
	<node lat="59.91536111040516" lon="8.056075005165754" id="-26844">
		<tag k="name" v="Bekkestaulen" />
		<tag k="place" v="locality" />
		<tag k="ssr:stedsnr" v="246597" />
	</node>
	<node lat="59.72137988627941" lon="7.758222215038314" id="-26848">
		<tag k="name" v="Ormås" />
		<tag k="old_name" v="Ormåstøl" />
		<tag k="place" v="locality" />
		<tag k="ssr:stedsnr" v="246648" />
	</node>
	<node lat="59.5783656171526" lon="7.988205980050989" id="-26854">
		<tag k="alt_name" v="Åbø Groven" />
		<tag k="fixme" v="consider place=hamlet" />
		<tag k="name" v="Groven" />
		<tag k="place" v="farm" />
		<tag k="ssr:stedsnr" v="246927" />
	</node>
	<node lat="59.72060458934882" lon="8.134877432477401" id="-26855">
		<tag k="historic" v="shieling" />
		<tag k="name" v="Leirgravstølen" />
		<tag k="place" v="isolated_dwelling" />
		<tag k="ssr:stedsnr" v="92666" />
	</node>
	<node lat="59.69349839329526" lon="8.105030975408066" id="-26857">
		<tag k="name" v="Nystad" />
		<tag k="place" v="farm" />
		<tag k="ssr:stedsnr" v="92509" />
	</node>
	<node lat="59.728763889445396" lon="7.826236109303144" id="-26859">
		<tag k="name" v="Midtstøylen" />
		<tag k="place" v="locality" />
		<tag k="ssr:stedsnr" v="92568" />
	</node>
	<node lat="59.68821944813202" lon="8.05856388155713" id="-26862">
		<tag k="name" v="Myran" />
		<tag k="place" v="locality" />
		<tag k="ssr:stedsnr" v="246847" />
	</node>
	<node lat="59.69012777612983" lon="8.027438887587122" id="-26863">
		<tag k="name" v="Heddeli" />
		<tag k="place" v="farm" />
		<tag k="ssr:stedsnr" v="246848" />
	</node>
	<node lat="59.68140832896552" lon="7.885158325300181" id="-26865">
		<tag k="name" v="Åkre" />
		<tag k="place" v="farm" />
		<tag k="ssr:stedsnr" v="246853" />
	</node>
	<node lat="59.67539166785104" lon="7.809080554748181" id="-26866">
		<tag k="name" v="Kringlebu" />
		<tag k="old_name" v="Kringleby" />
		<tag k="place" v="farm" />
		<tag k="ssr:stedsnr" v="246854" />
	</node>
	<node lat="59.67469444138598" lon="7.71932500418868" id="-26867">
		<tag k="name" v="Bøkreviki" />
		<tag k="place" v="isolated_dwelling" />
		<tag k="ssr:stedsnr" v="246855" />
	</node>
	<node lat="59.87210833580471" lon="8.087252768887415" id="-26870">
		<tag k="alt_name" v="Nedre Førnes" />
		<tag k="fixme" v="consider place=hamlet" />
		<tag k="name" v="Førnes austre" />
		<tag k="place" v="farm" />
		<tag k="ssr:stedsnr" v="92778" />
	</node>
	<node lat="59.73433610835391" lon="8.011191658126098" id="-26871">
		<tag k="name" v="Hjeddin" />
		<tag k="place" v="farm" />
		<tag k="ssr:stedsnr" v="92974" />
	</node>
	<node lat="59.788225000310725" lon="7.298399991775341" id="-26876">
		<tag k="historic" v="shieling" />
		<tag k="name" v="Løyningroi" />
		<tag k="place" v="isolated_dwelling" />
		<tag k="ssr:stedsnr" v="246898" />
	</node>
	<node lat="59.585830552499885" lon="7.918219444773419" id="-26877">
		<tag k="alt_name" v="Særend" />
		<tag k="fixme" v="consider place=hamlet" />
		<tag k="name" v="Særen" />
		<tag k="place" v="farm" />
		<tag k="ssr:stedsnr" v="246900" />
	</node>
	<node lat="59.629555554923364" lon="7.798486105871169" id="-26879">
		<tag k="alt_name" v="Storemyr" />
		<tag k="name" v="Stormyr" />
		<tag k="place" v="farm" />
		<tag k="ssr:stedsnr" v="246934" />
	</node>
	<node lat="59.62638333168837" lon="7.8525861058748845" id="-26881">
		<tag k="name" v="Huso" />
		<tag k="place" v="farm" />
		<tag k="ssr:stedsnr" v="246942" />
	</node>
	<node lat="59.69488888477" lon="8.078247223749981" id="-26884">
		<tag k="name" v="Bakken" />
		<tag k="place" v="farm" />
		<tag k="ssr:stedsnr" v="93704" />
	</node>
	<node lat="59.62505000392843" lon="8.017750000584341" id="-26887">
		<tag k="name" v="Skogly" />
		<tag k="place" v="farm" />
		<tag k="ssr:stedsnr" v="246983" />
	</node>
	<node lat="59.88515832931827" lon="7.535055557107597" id="-26889">
		<tag k="name" v="Berudalen, nedre" />
		<tag k="place" v="isolated_dwelling" />
		<tag k="ssr:stedsnr" v="246991" />
	</node>
	<node lat="59.75248611496866" lon="8.25700833706249" id="-26891">
		<tag k="name" v="Storstaul" />
		<tag k="place" v="locality" />
		<tag k="ssr:stedsnr" v="93778" />
	</node>
	<node lat="59.783191665517094" lon="8.044130555962862" id="-26897">
		<tag k="name" v="Steinhaugen" />
		<tag k="place" v="isolated_dwelling" />
		<tag k="ssr:stedsnr" v="247328" />
	</node>
	<node lat="59.76468503655326" lon="7.765215446935714" id="-26899">
		<tag k="name" v="Midtgarden" />
		<tag k="place" v="farm" />
		<tag k="ssr:stedsnr" v="247334" />
	</node>
	<node lat="59.76522777342766" lon="7.848313891840208" id="-26900">
		<tag k="historic" v="shieling" />
		<tag k="name" v="Fauskestøyl" />
		<tag k="place" v="isolated_dwelling" />
		<tag k="ssr:stedsnr" v="247341" />
	</node>
	<node lat="59.84247221932009" lon="7.959936104197089" id="-26916">
		<tag k="name" v="Kråmdalslega" />
		<tag k="place" v="locality" />
		<tag k="ssr:stedsnr" v="247722" />
	</node>
	<node lat="59.68069722387609" lon="7.671702774970728" id="-26927">
		<tag k="historic" v="shieling" />
		<tag k="loc_name" v="Gamlestaul" />
		<tag k="name" v="Gamlestøyl" />
		<tag k="place" v="isolated_dwelling" />
		<tag k="ssr:stedsnr" v="110527" />
	</node>
	<node lat="59.56615278015333" lon="8.183894443345258" id="-26929">
		<tag k="name" v="Barstad" />
		<tag k="place" v="isolated_dwelling" />
		<tag k="ssr:stedsnr" v="110972" />
	</node>
	<node lat="59.71562777946197" lon="7.5764916629249095" id="-26930">
		<tag k="historic" v="shieling" />
		<tag k="name" v="Hønefoss" />
		<tag k="place" v="isolated_dwelling" />
		<tag k="ssr:stedsnr" v="111322" />
	</node>
	<node lat="59.693422225879566" lon="8.106211112000652" id="-26946">
		<tag k="name" v="Austbø" />
		<tag k="place" v="hamlet" />
		<tag k="ssr:stedsnr" v="124160" />
	</node>
	<node lat="59.715475002403146" lon="8.153808324600005" id="-26947">
		<tag k="historic" v="shieling" />
		<tag k="name" v="Løyning" />
		<tag k="place" v="isolated_dwelling" />
		<tag k="ssr:stedsnr" v="124182" />
	</node>
	<node lat="59.72400555496241" lon="8.145233332283773" id="-26948">
		<tag k="historic" v="shieling" />
		<tag k="name" v="Haugeset" />
		<tag k="place" v="isolated_dwelling" />
		<tag k="ssr:stedsnr" v="124185" />
	</node>
	<node lat="59.61326944297975" lon="8.124397214243647" id="-26951">
		<tag k="alt_name" v="Lega, midtre" />
		<tag k="historic" v="shieling" />
		<tag k="name" v="Midtlega" />
		<tag k="place" v="isolated_dwelling" />
		<tag k="ssr:stedsnr" v="124254" />
	</node>
	<node lat="59.60122500043656" lon="8.269294442336154" id="-26953">
		<tag k="alt_name" v="Hyttedal" />
		<tag k="name" v="Hyttedalen" />
		<tag k="place" v="farm" />
		<tag k="ssr:stedsnr" v="124211" />
	</node>
	<node lat="59.72490277360142" lon="7.687766675629488" id="-26960">
		<tag k="name" v="Nesheim" />
		<tag k="place" v="farm" />
		<tag k="ssr:stedsnr" v="124524" />
	</node>
	<node lat="59.71375277527842" lon="7.7576749923838495" id="-26964">
		<tag k="alt_name" v="Reini" />
		<tag k="name" v="Reine" />
		<tag k="place" v="farm" />
		<tag k="ssr:stedsnr" v="124601" />
	</node>
	<node lat="59.68201012079356" lon="7.833305544776665" id="-26970">
		<tag k="historic" v="shieling" />
		<tag k="name" v="Furustøyl" />
		<tag k="old_name" v="Furustøl" />
		<tag k="place" v="isolated_dwelling" />
		<tag k="ssr:stedsnr" v="124851" />
	</node>
	<node lat="59.60672777575799" lon="8.020852773217706" id="-26972">
		<tag k="name" v="Hommostøylen" />
		<tag k="old_name" v="Hommostølen" />
		<tag k="place" v="farm" />
		<tag k="ssr:stedsnr" v="124859" />
	</node>
	<node lat="59.609050001868596" lon="7.902761115181744" id="-26975">
		<tag k="name" v="Fossland" />
		<tag k="place" v="farm" />
		<tag k="ssr:stedsnr" v="124868" />
	</node>
	<node lat="59.649613888765536" lon="7.797161116050992" id="-26976">
		<tag k="fixme" v="consider place=hamlet" />
		<tag k="name" v="Rui" />
		<tag k="place" v="farm" />
		<tag k="ssr:stedsnr" v="124751" />
	</node>
	<node lat="59.78687777391818" lon="7.323075008158645" id="-26979">
		<tag k="alt_name" v="Rauberg" />
		<tag k="historic" v="shieling" />
		<tag k="name" v="Raudberg" />
		<tag k="place" v="isolated_dwelling" />
		<tag k="ssr:stedsnr" v="124912" />
	</node>
	<node lat="59.57948816256157" lon="7.990131597267718" id="-26981">
		<tag k="fixme" v="consider place=hamlet" />
		<tag k="name" v="Drotning" />
		<tag k="place" v="farm" />
		<tag k="ssr:stedsnr" v="124926" />
	</node>
	<node lat="59.619658330893145" lon="7.824594447125843" id="-26983">
		<tag k="alt_name" v="Sondrisland" />
		<tag k="name" v="Sundrisland" />
		<tag k="place" v="farm" />
		<tag k="ssr:stedsnr" v="125000" />
	</node>
	<node lat="59.78596944118051" lon="8.151033328166646" id="-26988">
		<tag k="fixme" v="consider place=hamlet" />
		<tag k="name" v="Skinnarland" />
		<tag k="place" v="farm" />
		<tag k="ssr:stedsnr" v="125448" />
	</node>
	<node lat="59.78522221829678" lon="8.084247215332217" id="-26990">
		<tag k="alt_name" v="Haugestøylen" />
		<tag k="loc_name" v="Haugestaul" />
		<tag k="name" v="Haugestøl" />
		<tag k="place" v="isolated_dwelling" />
		<tag k="ssr:stedsnr" v="125359" />
	</node>
	<node lat="59.77835833354241" lon="7.722766659727654" id="-26991">
		<tag k="alt_name" v="Øygarden, nordre" />
		<tag k="fixme" v="consider place=hamlet" />
		<tag k="name" v="Nordre Øygarden" />
		<tag k="place" v="farm" />
		<tag k="ssr:stedsnr" v="125362" />
	</node>
	<node lat="59.774488889924946" lon="7.738722218159442" id="-26992">
		<tag k="alt_name" v="Subø" />
		<tag k="name" v="Sudbø" />
		<tag k="place" v="farm" />
		<tag k="ssr:stedsnr" v="125369" />
	</node>
	<node lat="59.768583328926994" lon="7.761288890428198" id="-26994">
		<tag k="alt_name" v="Romtveit søndre;Romtveit, s" />
		<tag k="fixme" v="consider place=hamlet" />
		<tag k="loc_name" v="Romtveit" />
		<tag k="name" v="Søndre Romtveit" />
		<tag k="place" v="farm" />
		<tag k="ssr:stedsnr" v="125374" />
	</node>
	<node lat="59.802652774410575" lon="7.631761109456" id="-26995">
		<tag k="historic" v="shieling" />
		<tag k="name" v="Reinekvåmmi" />
		<tag k="place" v="isolated_dwelling" />
		<tag k="ssr:stedsnr" v="125548" />
	</node>
	<node lat="59.80968611043878" lon="7.591952770049719" id="-27001">
		<tag k="historic" v="shieling" />
		<tag k="name" v="Trolldal" />
		<tag k="place" v="isolated_dwelling" />
		<tag k="ssr:stedsnr" v="125564" />
	</node>
	<node lat="59.807530557483325" lon="7.606722229193785" id="-27002">
		<tag k="alt_name" v="Gamlestøl" />
		<tag k="historic" v="shieling" />
		<tag k="loc_name" v="Gamlestaul" />
		<tag k="name" v="Gamlestøyl" />
		<tag k="place" v="isolated_dwelling" />
		<tag k="ssr:stedsnr" v="125566" />
	</node>
	<node lat="59.87940833174677" lon="8.087669439313766" id="-27005">
		<tag k="alt_name" v="Dalstaul;Dalstaulen" />
		<tag k="historic" v="shieling" />
		<tag k="name" v="Dalstøyl" />
		<tag k="place" v="isolated_dwelling" />
		<tag k="ssr:stedsnr" v="125758" />
	</node>
	<node lat="59.87964999969559" lon="7.861927772747654" id="-27009">
		<tag k="historic" v="shieling" />
		<tag k="name" v="Kollsnutvollen" />
		<tag k="place" v="isolated_dwelling" />
		<tag k="ssr:stedsnr" v="125655" />
	</node>
	<node lat="59.854586111239975" lon="7.285469445481565" id="-27012">
		<tag k="name" v="Skreduvollen" />
		<tag k="place" v="locality" />
		<tag k="ssr:stedsnr" v="125835" />
	</node>
	<node lat="59.67495000079731" lon="7.976147225010039" id="-27027">
		<tag k="name" v="Fredheim" />
		<tag k="place" v="farm" />
		<tag k="ssr:stedsnr" v="149535" />
	</node>
	<node lat="59.58998055183833" lon="7.905688893082092" id="-27028">
		<tag k="name" v="Skelvik" />
		<tag k="place" v="farm" />
		<tag k="ssr:stedsnr" v="149423" />
	</node>
	<node lat="59.659291667515426" lon="8.032666659425558" id="-27037">
		<tag k="name" v="Totak" />
		<tag k="place" v="farm" />
		<tag k="ssr:stedsnr" v="149804" />
	</node>
</osm>
