<?xml version="1.0" encoding="UTF-8"?>
<osm generator="osmapis" version="0.6">
	<node id="-899867" lat="63.9481499958" lon="10.881897228">
		<tag k="name" v="Synnavindstjønnin" />
		<tag k="ssr:date" v="2019-05-30" />
		<tag k="ssr:gruppe" v="veg" />
		<tag k="ssr:hovedgruppe" v="infrastruktur" />
		<tag k="ssr:stedsnr" v="849246" />
		<tag k="ssr:type" v="adressenavn" />
	</node>
	<node id="-900476" lat="64.0113222196" lon="11.0495444534">
		<tag k="name" v="Nordlisetran" />
		<tag k="ssr:date" v="2019-05-30" />
		<tag k="ssr:gruppe" v="veg" />
		<tag k="ssr:hovedgruppe" v="infrastruktur" />
		<tag k="ssr:stedsnr" v="788220" />
		<tag k="ssr:type" v="adressenavn" />
	</node>
	<node id="-899626" lat="63.9845111121" lon="10.8912083427">
		<tag k="name" v="Straumsetervatnet" />
		<tag k="ssr:date" v="2019-05-30" />
		<tag k="ssr:gruppe" v="veg" />
		<tag k="ssr:hovedgruppe" v="infrastruktur" />
		<tag k="ssr:stedsnr" v="970291" />
		<tag k="ssr:type" v="adressenavn" />
	</node>
	<node id="-900471" lat="63.9980583307" lon="11.0287166669">
		<tag k="name" v="Todalsetran" />
		<tag k="ssr:date" v="2019-05-30" />
		<tag k="ssr:gruppe" v="veg" />
		<tag k="ssr:hovedgruppe" v="infrastruktur" />
		<tag k="ssr:stedsnr" v="788223" />
		<tag k="ssr:type" v="adressenavn" />
	</node>
	<node id="-900338" lat="63.9849083362" lon="10.8717555646">
		<tag k="name" v="Selavatnet" />
		<tag k="ssr:date" v="2019-05-30" />
		<tag k="ssr:gruppe" v="veg" />
		<tag k="ssr:hovedgruppe" v="infrastruktur" />
		<tag k="ssr:stedsnr" v="909214" />
		<tag k="ssr:type" v="adressenavn" />
	</node>
	<node id="-900464" lat="64.0707361132" lon="11.2177277699">
		<tag k="name" v="Verran kommune" />
		<tag k="ssr:date" v="2018-01-09" />
		<tag k="ssr:gruppe" v="administrativeIndelinger" />
		<tag k="ssr:hovedgruppe" v="offentligAdministrasjon" />
		<tag k="ssr:stedsnr" v="814219" />
		<tag k="ssr:type" v="kommune" />
	</node>
	<node id="-900840" lat="64.1292583364" lon="11.0756999918">
		<tag k="name" v="Rundhaugvatnet" />
		<tag k="ssr:date" v="2019-05-30" />
		<tag k="ssr:gruppe" v="veg" />
		<tag k="ssr:hovedgruppe" v="infrastruktur" />
		<tag k="ssr:stedsnr" v="727224" />
		<tag k="ssr:type" v="adressenavn" />
	</node>
	<node id="-900461" lat="63.9296027768" lon="10.8901388914">
		<tag k="name" v="Langådalsvatnet" />
		<tag k="ssr:date" v="2019-05-30" />
		<tag k="ssr:gruppe" v="veg" />
		<tag k="ssr:hovedgruppe" v="infrastruktur" />
		<tag k="ssr:stedsnr" v="363206" />
		<tag k="ssr:type" v="adressenavn" />
	</node>
	<node id="-900456" lat="64.036150003" lon="10.9367472252">
		<tag k="name" v="Grunntjønna" />
		<tag k="ssr:date" v="2019-05-30" />
		<tag k="ssr:gruppe" v="veg" />
		<tag k="ssr:hovedgruppe" v="infrastruktur" />
		<tag k="ssr:stedsnr" v="788195" />
		<tag k="ssr:type" v="adressenavn" />
	</node>
	<node id="-899559" lat="64.1103833334" lon="10.969405558">
		<tag k="name" v="Nordesplingen" />
		<tag k="ssr:date" v="2019-05-30" />
		<tag k="ssr:gruppe" v="veg" />
		<tag k="ssr:hovedgruppe" v="infrastruktur" />
		<tag k="ssr:stedsnr" v="424203" />
		<tag k="ssr:type" v="adressenavn" />
	</node>
	<node id="-900966" lat="63.9043723761" lon="10.9234989962">
		<tag k="name" v="Verrasundet" />
		<tag k="old_name" v="Værrasundet" />
		<tag k="ssr:date" v="2018-01-30" />
		<tag k="ssr:gruppe" v="navigasjon" />
		<tag k="ssr:hovedgruppe" v="infrastruktur" />
		<tag k="ssr:stedsnr" v="335900" />
		<tag k="ssr:type" v="fyrlykt" />
	</node>
	<node id="-899685" lat="63.9937777776" lon="11.0611222231">
		<tag k="name" v="Follahøgda" />
		<tag k="ssr:date" v="2019-05-30" />
		<tag k="ssr:gruppe" v="veg" />
		<tag k="ssr:hovedgruppe" v="infrastruktur" />
		<tag k="ssr:stedsnr" v="666245" />
		<tag k="ssr:type" v="adressenavn" />
	</node>
	<node id="-900198" lat="63.9069666645" lon="10.6474027853">
		<tag k="name" v="Vestre Steintjønna" />
		<tag k="ssr:date" v="2019-05-30" />
		<tag k="ssr:gruppe" v="veg" />
		<tag k="ssr:hovedgruppe" v="infrastruktur" />
		<tag k="ssr:stedsnr" v="303215" />
		<tag k="ssr:type" v="adressenavn" />
	</node>
	<node id="-899937" lat="63.7883972228" lon="10.4823333403">
		<tag k="name" v="Valtjønnin" />
		<tag k="ssr:date" v="2019-05-30" />
		<tag k="ssr:gruppe" v="veg" />
		<tag k="ssr:hovedgruppe" v="infrastruktur" />
		<tag k="ssr:stedsnr" v="484156" />
		<tag k="ssr:type" v="adressenavn" />
	</node>
	<node id="-900191" lat="63.9025722234" lon="10.7233222233">
		<tag k="name" v="Holmtjønna" />
		<tag k="ssr:date" v="2019-05-30" />
		<tag k="ssr:gruppe" v="veg" />
		<tag k="ssr:hovedgruppe" v="infrastruktur" />
		<tag k="ssr:stedsnr" v="606207" />
		<tag k="ssr:type" v="adressenavn" />
	</node>
	<node id="-900828" lat="63.8439000001" lon="10.5396916737">
		<tag k="name" v="Lisskjerivatnet" />
		<tag k="ssr:date" v="2019-05-30" />
		<tag k="ssr:gruppe" v="veg" />
		<tag k="ssr:hovedgruppe" v="infrastruktur" />
		<tag k="ssr:stedsnr" v="727225" />
		<tag k="ssr:type" v="adressenavn" />
	</node>
	<node id="-900047" lat="64.1401833296" lon="11.1212249938">
		<tag k="name" v="Setterstjønna" />
		<tag k="ssr:date" v="2019-05-30" />
		<tag k="ssr:gruppe" v="veg" />
		<tag k="ssr:hovedgruppe" v="infrastruktur" />
		<tag k="ssr:stedsnr" v="181216" />
		<tag k="ssr:type" v="adressenavn" />
	</node>
	<node id="-900439" lat="64.0116500031" lon="10.9402055593">
		<tag k="name" v="Kjåppåhaugen" />
		<tag k="ssr:date" v="2019-05-30" />
		<tag k="ssr:gruppe" v="veg" />
		<tag k="ssr:hovedgruppe" v="infrastruktur" />
		<tag k="ssr:stedsnr" v="788197" />
		<tag k="ssr:type" v="adressenavn" />
	</node>
	<node id="-901025" lat="64.0750134156" lon="11.224079598">
		<tag k="name" v="Tjuinvegen" />
		<tag k="ssr:date" v="2019-05-30" />
		<tag k="ssr:gruppe" v="veg" />
		<tag k="ssr:hovedgruppe" v="infrastruktur" />
		<tag k="ssr:stedsnr" v="1023816" />
		<tag k="ssr:type" v="adressenavn" />
	</node>
	<node id="-899413" lat="64.0283472198" lon="10.9116999981">
		<tag k="name" v="Sandvatna" />
		<tag k="ssr:date" v="2019-05-30" />
		<tag k="ssr:gruppe" v="veg" />
		<tag k="ssr:hovedgruppe" v="infrastruktur" />
		<tag k="ssr:stedsnr" v="120197" />
		<tag k="ssr:type" v="adressenavn" />
	</node>
	<node id="-899540" lat="64.1007416694" lon="10.9264611052">
		<tag k="name" v="Torsvatnet" />
		<tag k="ssr:date" v="2019-05-30" />
		<tag k="ssr:gruppe" v="veg" />
		<tag k="ssr:hovedgruppe" v="infrastruktur" />
		<tag k="ssr:stedsnr" v="666217" />
		<tag k="ssr:type" v="adressenavn" />
	</node>
	<node id="-900176" lat="63.9363388921" lon="10.7807749989">
		<tag k="name" v="Otertjønnin" />
		<tag k="ssr:date" v="2019-05-30" />
		<tag k="ssr:gruppe" v="veg" />
		<tag k="ssr:hovedgruppe" v="infrastruktur" />
		<tag k="ssr:stedsnr" v="484211" />
		<tag k="ssr:type" v="adressenavn" />
	</node>
	<node id="-900303" lat="64.1273000018" lon="11.1250083436">
		<tag k="name" v="Storferja" />
		<tag k="ssr:date" v="2019-05-30" />
		<tag k="ssr:gruppe" v="veg" />
		<tag k="ssr:hovedgruppe" v="infrastruktur" />
		<tag k="ssr:stedsnr" v="363189" />
		<tag k="ssr:type" v="adressenavn" />
	</node>
	<node id="-899452" lat="64.0075055535" lon="10.9128333371">
		<tag k="name" v="Jovatnet" />
		<tag k="ssr:date" v="2019-05-30" />
		<tag k="ssr:gruppe" v="veg" />
		<tag k="ssr:hovedgruppe" v="infrastruktur" />
		<tag k="ssr:stedsnr" v="120199" />
		<tag k="ssr:type" v="adressenavn" />
	</node>
	<node id="-900130" lat="63.7952305551" lon="10.5023222279">
		<tag k="name" v="Anderstjønna" />
		<tag k="ssr:date" v="2019-05-30" />
		<tag k="ssr:gruppe" v="veg" />
		<tag k="ssr:hovedgruppe" v="infrastruktur" />
		<tag k="ssr:stedsnr" v="363156" />
		<tag k="ssr:type" v="adressenavn" />
	</node>
	<node id="-900343" lat="64.03679167" lon="10.8367944529">
		<tag k="name" v="Øver-Silderen" />
		<tag k="ssr:date" v="2019-05-30" />
		<tag k="ssr:gruppe" v="veg" />
		<tag k="ssr:hovedgruppe" v="infrastruktur" />
		<tag k="ssr:stedsnr" v="909215" />
		<tag k="ssr:type" v="adressenavn" />
	</node>
	<node id="-900513" lat="63.9131749974" lon="10.711191661">
		<tag k="name" v="Midtre Trevatnet" />
		<tag k="ssr:date" v="2019-05-30" />
		<tag k="ssr:gruppe" v="veg" />
		<tag k="ssr:hovedgruppe" v="infrastruktur" />
		<tag k="ssr:stedsnr" v="788214" />
		<tag k="ssr:type" v="adressenavn" />
	</node>
	<node id="-899906" lat="64.0233500012" lon="10.9903888983">
		<tag k="name" v="Medterheia" />
		<tag k="ssr:date" v="2019-05-30" />
		<tag k="ssr:gruppe" v="veg" />
		<tag k="ssr:hovedgruppe" v="infrastruktur" />
		<tag k="ssr:stedsnr" v="545183" />
		<tag k="ssr:type" v="adressenavn" />
	</node>
	<node id="-900160" lat="64.0121527808" lon="11.1540861211">
		<tag k="name" v="Tømsevatnet" />
		<tag k="ssr:date" v="2019-05-30" />
		<tag k="ssr:gruppe" v="veg" />
		<tag k="ssr:hovedgruppe" v="infrastruktur" />
		<tag k="ssr:stedsnr" v="484195" />
		<tag k="ssr:type" v="adressenavn" />
	</node>
	<node id="-899488" lat="63.8498305541" lon="10.5764666618">
		<tag k="name" v="Bogatjønna" />
		<tag k="ssr:date" v="2019-05-30" />
		<tag k="ssr:gruppe" v="veg" />
		<tag k="ssr:hovedgruppe" v="infrastruktur" />
		<tag k="ssr:stedsnr" v="666232" />
		<tag k="ssr:type" v="adressenavn" />
	</node>
	<node id="-900284" lat="64.0721000013" lon="11.0894055482">
		<tag k="name" v="Fagerlisetran" />
		<tag k="ssr:date" v="2019-05-30" />
		<tag k="ssr:gruppe" v="veg" />
		<tag k="ssr:hovedgruppe" v="infrastruktur" />
		<tag k="ssr:stedsnr" v="363187" />
		<tag k="ssr:type" v="adressenavn" />
	</node>
	<node id="-899553" lat="64.0972472227" lon="11.069722219">
		<tag k="name" v="Svartvatnet" />
		<tag k="ssr:date" v="2019-05-30" />
		<tag k="ssr:gruppe" v="veg" />
		<tag k="ssr:hovedgruppe" v="infrastruktur" />
		<tag k="ssr:stedsnr" v="424204" />
		<tag k="ssr:type" v="adressenavn" />
	</node>
	<node id="-900277" lat="64.1308388856" lon="11.1413694359">
		<tag k="name" v="Lissferja" />
		<tag k="ssr:date" v="2019-05-30" />
		<tag k="ssr:gruppe" v="veg" />
		<tag k="ssr:hovedgruppe" v="infrastruktur" />
		<tag k="ssr:stedsnr" v="363188" />
		<tag k="ssr:type" v="adressenavn" />
	</node>
	<node id="-900148" lat="63.783055556" lon="10.4374111015">
		<tag k="name" v="Skurvtjønna" />
		<tag k="ssr:date" v="2019-05-30" />
		<tag k="ssr:gruppe" v="veg" />
		<tag k="ssr:hovedgruppe" v="infrastruktur" />
		<tag k="ssr:stedsnr" v="363152" />
		<tag k="ssr:type" v="adressenavn" />
	</node>
	<node id="-900145" lat="64.1170305588" lon="11.1006666641">
		<tag k="name" v="Nordre Langvatnet" />
		<tag k="ssr:date" v="2019-05-30" />
		<tag k="ssr:gruppe" v="veg" />
		<tag k="ssr:hovedgruppe" v="infrastruktur" />
		<tag k="ssr:stedsnr" v="606197" />
		<tag k="ssr:type" v="adressenavn" />
	</node>
	<node id="-899529" lat="64.0972527749" lon="11.1481472287">
		<tag k="name" v="Måggåtjønna" />
		<tag k="ssr:date" v="2019-05-30" />
		<tag k="ssr:gruppe" v="veg" />
		<tag k="ssr:hovedgruppe" v="infrastruktur" />
		<tag k="ssr:stedsnr" v="424209" />
		<tag k="ssr:type" v="adressenavn" />
	</node>
	<node id="-900269" lat="63.8339444468" lon="10.5532777837">
		<tag k="name" v="Søndre Langvatnet" />
		<tag k="ssr:date" v="2019-05-30" />
		<tag k="ssr:gruppe" v="veg" />
		<tag k="ssr:hovedgruppe" v="infrastruktur" />
		<tag k="ssr:stedsnr" v="484214" />
		<tag k="ssr:type" v="adressenavn" />
	</node>
	<node id="-900268" lat="64.0016972266" lon="11.0027361116">
		<tag k="name" v="Åsavatnet" />
		<tag k="ssr:date" v="2019-05-30" />
		<tag k="ssr:gruppe" v="veg" />
		<tag k="ssr:hovedgruppe" v="infrastruktur" />
		<tag k="ssr:stedsnr" v="606213" />
		<tag k="ssr:type" v="adressenavn" />
	</node>
	<node id="-899570" lat="63.9531972192" lon="10.8831944475">
		<tag k="name" v="Reinstjønna" />
		<tag k="ssr:date" v="2019-05-30" />
		<tag k="ssr:gruppe" v="veg" />
		<tag k="ssr:hovedgruppe" v="infrastruktur" />
		<tag k="ssr:stedsnr" v="120220" />
		<tag k="ssr:type" v="adressenavn" />
	</node>
	<node id="-900522" lat="63.9659499985" lon="10.8122333235">
		<tag k="name" v="Simadalsvatnet" />
		<tag k="ssr:date" v="2019-05-30" />
		<tag k="ssr:gruppe" v="veg" />
		<tag k="ssr:hovedgruppe" v="infrastruktur" />
		<tag k="ssr:stedsnr" v="788215" />
		<tag k="ssr:type" v="adressenavn" />
	</node>
	<node id="-899463" lat="64.0290277807" lon="11.2276250086">
		<tag k="name" v="Beitstadsundet" />
		<tag k="ssr:date" v="2018-01-09" />
		<tag k="ssr:gruppe" v="navigasjon" />
		<tag k="ssr:hovedgruppe" v="infrastruktur" />
		<tag k="ssr:stedsnr" v="408169" />
		<tag k="ssr:type" v="fyrlykt" />
	</node>
	<node id="-900008" lat="63.8673027807" lon="10.6542194347">
		<tag k="name" v="Småtjønnin" />
		<tag k="ssr:date" v="2019-05-30" />
		<tag k="ssr:gruppe" v="veg" />
		<tag k="ssr:hovedgruppe" v="infrastruktur" />
		<tag k="ssr:stedsnr" v="545204" />
		<tag k="ssr:type" v="adressenavn" />
	</node>
	<node id="-899751" lat="63.975169446" lon="10.9094583413">
		<tag k="name" v="Høytjønnin" />
		<tag k="ssr:date" v="2019-05-30" />
		<tag k="ssr:gruppe" v="veg" />
		<tag k="ssr:hovedgruppe" v="infrastruktur" />
		<tag k="ssr:stedsnr" v="970313" />
		<tag k="ssr:type" v="adressenavn" />
	</node>
	<node id="-899633" lat="63.9926777807" lon="10.9072999929">
		<tag k="name" v="Gåtvatnet" />
		<tag k="ssr:date" v="2019-05-30" />
		<tag k="ssr:gruppe" v="veg" />
		<tag k="ssr:hovedgruppe" v="infrastruktur" />
		<tag k="ssr:stedsnr" v="849220" />
		<tag k="ssr:type" v="adressenavn" />
	</node>
	<node id="-901027" lat="64.098101613" lon="10.9641032163">
		<tag k="name" v="Søresplingen" />
		<tag k="ssr:date" v="2019-05-30" />
		<tag k="ssr:gruppe" v="veg" />
		<tag k="ssr:hovedgruppe" v="infrastruktur" />
		<tag k="ssr:stedsnr" v="1026777" />
		<tag k="ssr:type" v="adressenavn" />
	</node>
	<node id="-901026" lat="63.792226291" lon="10.5570106309">
		<tag k="name" v="Setranvegen" />
		<tag k="ssr:date" v="2019-05-30" />
		<tag k="ssr:gruppe" v="veg" />
		<tag k="ssr:hovedgruppe" v="infrastruktur" />
		<tag k="ssr:stedsnr" v="1024406" />
		<tag k="ssr:type" v="adressenavn" />
	</node>
	<node id="-900763" lat="63.8124861077" lon="10.5544305641">
		<tag k="name" v="Kjerringtjønna" />
		<tag k="ssr:date" v="2019-05-30" />
		<tag k="ssr:gruppe" v="veg" />
		<tag k="ssr:hovedgruppe" v="infrastruktur" />
		<tag k="ssr:stedsnr" v="727229" />
		<tag k="ssr:type" v="adressenavn" />
	</node>
	<node id="-901024" lat="64.0741538048" lon="11.1254482216">
		<tag k="name" v="Seterlisetran" />
		<tag k="ssr:date" v="2019-05-30" />
		<tag k="ssr:gruppe" v="veg" />
		<tag k="ssr:hovedgruppe" v="infrastruktur" />
		<tag k="ssr:stedsnr" v="1023231" />
		<tag k="ssr:type" v="adressenavn" />
	</node>
	<node id="-901023" lat="63.9557501929" lon="10.8366478015">
		<tag k="name" v="Feskløysa" />
		<tag k="ssr:date" v="2019-05-30" />
		<tag k="ssr:gruppe" v="veg" />
		<tag k="ssr:hovedgruppe" v="infrastruktur" />
		<tag k="ssr:stedsnr" v="1026750" />
		<tag k="ssr:type" v="adressenavn" />
	</node>
	<node id="-901022" lat="64.1271288394" lon="11.1315773572">
		<tag k="name" v="Ferjengan" />
		<tag k="ssr:date" v="2019-05-30" />
		<tag k="ssr:gruppe" v="veg" />
		<tag k="ssr:hovedgruppe" v="infrastruktur" />
		<tag k="ssr:stedsnr" v="1026779" />
		<tag k="ssr:type" v="adressenavn" />
	</node>
	<node id="-899604" lat="63.9386805544" lon="10.8156944497">
		<tag k="name" v="Lysvatnet" />
		<tag k="ssr:date" v="2019-05-30" />
		<tag k="ssr:gruppe" v="veg" />
		<tag k="ssr:hovedgruppe" v="infrastruktur" />
		<tag k="ssr:stedsnr" v="424221" />
		<tag k="ssr:type" v="adressenavn" />
	</node>
	<node id="-901019" lat="64.0826833688" lon="11.1889085405">
		<tag k="name" v="Tortåsvegen" />
		<tag k="ssr:date" v="2018-11-14" />
		<tag k="ssr:gruppe" v="veg" />
		<tag k="ssr:hovedgruppe" v="infrastruktur" />
		<tag k="ssr:stedsnr" v="988361" />
		<tag k="ssr:type" v="vegstrekning" />
	</node>
	<node id="-900207" lat="63.8133083356" lon="10.5151083405">
		<tag k="name" v="Augvatnet" />
		<tag k="ssr:date" v="2019-05-30" />
		<tag k="ssr:gruppe" v="veg" />
		<tag k="ssr:hovedgruppe" v="infrastruktur" />
		<tag k="ssr:stedsnr" v="484203" />
		<tag k="ssr:type" v="adressenavn" />
	</node>
	<node id="-901015" lat="63.5169210211" lon="10.4860505232">
		<tag k="name" v="Trøndelag fylke - Trööndelagen fylhke" />
		<tag k="name:no" v="Trøndelag fylke" />
		<tag k="name:sma" v="Trööndelagen fylhke" />
		<tag k="ssr:date" v="2018-06-27" />
		<tag k="ssr:gruppe" v="administrativeIndelinger" />
		<tag k="ssr:hovedgruppe" v="offentligAdministrasjon" />
		<tag k="ssr:stedsnr" v="980645" />
		<tag k="ssr:type" v="fylke" />
	</node>
	<node id="-900116" lat="64.0840805595" lon="11.0745694392">
		<tag k="name" v="Skardssetran" />
		<tag k="ssr:date" v="2019-05-30" />
		<tag k="ssr:gruppe" v="veg" />
		<tag k="ssr:hovedgruppe" v="infrastruktur" />
		<tag k="ssr:stedsnr" v="303199" />
		<tag k="ssr:type" v="adressenavn" />
	</node>
	<node id="-900880" lat="64.0313416682" lon="10.7834305651">
		<tag k="name" v="Skamna" />
		<tag k="ssr:date" v="2019-05-30" />
		<tag k="ssr:gruppe" v="veg" />
		<tag k="ssr:hovedgruppe" v="infrastruktur" />
		<tag k="ssr:stedsnr" v="666165" />
		<tag k="ssr:type" v="adressenavn" />
	</node>
	<node id="-900111" lat="63.925494448" lon="10.846211105">
		<tag k="name" v="Østre Steintjønna" />
		<tag k="ssr:date" v="2019-05-30" />
		<tag k="ssr:gruppe" v="veg" />
		<tag k="ssr:hovedgruppe" v="infrastruktur" />
		<tag k="ssr:stedsnr" v="181232" />
		<tag k="ssr:type" v="adressenavn" />
	</node>
	<node id="-899693" lat="63.9134472202" lon="10.823441661">
		<tag k="name" v="Sørenvatnet" />
		<tag k="ssr:date" v="2019-05-30" />
		<tag k="ssr:gruppe" v="veg" />
		<tag k="ssr:hovedgruppe" v="infrastruktur" />
		<tag k="ssr:stedsnr" v="424227" />
		<tag k="ssr:type" v="adressenavn" />
	</node>
	<node id="-899944" lat="63.8424444488" lon="10.6621750045">
		<tag k="name" v="Trongsundmasta" />
		<tag k="ssr:date" v="2019-05-30" />
		<tag k="ssr:gruppe" v="veg" />
		<tag k="ssr:hovedgruppe" v="infrastruktur" />
		<tag k="ssr:stedsnr" v="545196" />
		<tag k="ssr:type" v="adressenavn" />
	</node>
	<node id="-899593" lat="63.9475222249" lon="10.7588249904">
		<tag k="name" v="Svarttjønna" />
		<tag k="ssr:date" v="2019-05-30" />
		<tag k="ssr:gruppe" v="veg" />
		<tag k="ssr:hovedgruppe" v="infrastruktur" />
		<tag k="ssr:stedsnr" v="120225" />
		<tag k="ssr:type" v="adressenavn" />
	</node>
	<node id="-900012" lat="63.9325833331" lon="10.6981333325">
		<tag k="name" v="Midtre Langvatnet" />
		<tag k="ssr:date" v="2019-05-30" />
		<tag k="ssr:gruppe" v="veg" />
		<tag k="ssr:hovedgruppe" v="infrastruktur" />
		<tag k="ssr:stedsnr" v="545203" />
		<tag k="ssr:type" v="adressenavn" />
	</node>
	<node id="-900102" lat="64.0806388888" lon="10.8285888964">
		<tag k="name" v="Tekssjøen" />
		<tag k="ssr:date" v="2019-05-30" />
		<tag k="ssr:gruppe" v="veg" />
		<tag k="ssr:hovedgruppe" v="infrastruktur" />
		<tag k="ssr:stedsnr" v="606188" />
		<tag k="ssr:type" v="adressenavn" />
	</node>
	<node id="-900485" lat="63.8861833309" lon="10.7425638961">
		<tag k="name" v="Rørtjønna" />
		<tag k="ssr:date" v="2019-05-30" />
		<tag k="ssr:gruppe" v="veg" />
		<tag k="ssr:hovedgruppe" v="infrastruktur" />
		<tag k="ssr:stedsnr" v="242196" />
		<tag k="ssr:type" v="adressenavn" />
	</node>
	<node id="-899718" lat="63.8271166631" lon="10.585236103">
		<tag k="name" v="Orvatnet" />
		<tag k="ssr:date" v="2019-05-30" />
		<tag k="ssr:gruppe" v="veg" />
		<tag k="ssr:hovedgruppe" v="infrastruktur" />
		<tag k="ssr:stedsnr" v="849234" />
		<tag k="ssr:type" v="adressenavn" />
	</node>
	<node id="-899970" lat="64.0106833317" lon="10.9799333431">
		<tag k="name" v="Kjåppån" />
		<tag k="ssr:date" v="2019-05-30" />
		<tag k="ssr:gruppe" v="veg" />
		<tag k="ssr:hovedgruppe" v="infrastruktur" />
		<tag k="ssr:stedsnr" v="970685" />
		<tag k="ssr:type" v="adressenavn" />
	</node>
</osm>
