<?xml version="1.0" encoding="UTF-8"?>
<osm generator="osmapis" version="0.6">
	<node id="-22016" lat="59.7164536456" lon="10.8241867556">
		<tag k="name" v="Magasinparken" />
		<tag k="ssr:date" v="2019-05-31" />
		<tag k="ssr:gruppe" v="veg" />
		<tag k="ssr:hovedgruppe" v="infrastruktur" />
		<tag k="ssr:stedsnr" v="988159" />
		<tag k="ssr:type" v="adressenavn" />
	</node>
	<node id="-22014" lat="59.7276741461" lon="10.8664226192">
		<tag k="name" v="Furumogrenda" />
		<tag k="ssr:date" v="2019-05-31" />
		<tag k="ssr:gruppe" v="veg" />
		<tag k="ssr:hovedgruppe" v="infrastruktur" />
		<tag k="ssr:stedsnr" v="981874" />
		<tag k="ssr:type" v="adressenavn" />
	</node>
	<node id="-22300" lat="59.7019055571" lon="10.9233888861">
		<tag k="name" v="Follo" />
		<tag k="ssr:date" v="2016-05-10" />
		<tag k="ssr:gruppe" v="terrengområder" />
		<tag k="ssr:hovedgruppe" v="terreng" />
		<tag k="ssr:stedsnr" v="267868" />
		<tag k="ssr:type" v="landskapsområde" />
	</node>
	<node id="-22010" lat="59.7204861082" lon="10.8388166686">
		<tag k="loc_name" v="Ski" />
		<tag k="name" v="Ski kommune" />
		<tag k="ssr:date" v="2019-01-28" />
		<tag k="ssr:gruppe" v="administrativeIndelinger" />
		<tag k="ssr:hovedgruppe" v="offentligAdministrasjon" />
		<tag k="ssr:stedsnr" v="387845" />
		<tag k="ssr:type" v="kommune" />
	</node>
	<node id="-22718" lat="59.7999055571" lon="10.8429361024">
		<tag k="name" v="Europaveien" />
		<tag k="ssr:date" v="2019-05-31" />
		<tag k="ssr:gruppe" v="veg" />
		<tag k="ssr:hovedgruppe" v="infrastruktur" />
		<tag k="ssr:stedsnr" v="909415" />
		<tag k="ssr:type" v="adressenavn" />
	</node>
	<node id="-22763" lat="60.5908609473" lon="9.63819281559">
		<tag k="fixme" v="multiple name tags, choose one and add the other to alt_name" />
		<tag k="name" v="Austlandet;Østlandet" />
		<tag k="ssr:date" v="2018-01-09" />
		<tag k="ssr:gruppe" v="administrativeIndelinger" />
		<tag k="ssr:hovedgruppe" v="offentligAdministrasjon" />
		<tag k="ssr:stedsnr" v="974775" />
		<tag k="ssr:type" v="annenAdministrativInndeling" />
	</node>
	<node id="-22625" lat="59.7218972221" lon="10.8733750061">
		<tag k="name" v="Nordre Follo prosti" />
		<tag k="ssr:date" v="2016-05-11" />
		<tag k="ssr:gruppe" v="administrativeIndelinger" />
		<tag k="ssr:hovedgruppe" v="offentligAdministrasjon" />
		<tag k="ssr:stedsnr" v="785412" />
		<tag k="ssr:type" v="annenAdministrativInndeling" />
	</node>
	<node id="-22761" lat="59.6369402502" lon="10.9588783171">
		<tag k="name" v="Gusrudveien" />
		<tag k="ssr:date" v="2019-05-31" />
		<tag k="ssr:gruppe" v="veg" />
		<tag k="ssr:hovedgruppe" v="infrastruktur" />
		<tag k="ssr:stedsnr" v="971233" />
		<tag k="ssr:type" v="adressenavn" />
	</node>
	<node id="-22760" lat="59.7019055571" lon="10.9233888861">
		<tag k="name" v="Søndre Follo prosti" />
		<tag k="ssr:date" v="2016-05-11" />
		<tag k="ssr:gruppe" v="administrativeIndelinger" />
		<tag k="ssr:hovedgruppe" v="offentligAdministrasjon" />
		<tag k="ssr:stedsnr" v="967401" />
		<tag k="ssr:type" v="annenAdministrativInndeling" />
	</node>
	<node id="-22021" lat="59.8001083302" lon="10.8393713625">
		<tag k="name" v="Taraldrudveien" />
		<tag k="ssr:date" v="2019-05-30" />
		<tag k="ssr:gruppe" v="veg" />
		<tag k="ssr:hovedgruppe" v="infrastruktur" />
		<tag k="ssr:stedsnr" v="994912" />
		<tag k="ssr:type" v="adressenavn" />
	</node>
	<node id="-22018" lat="59.7200752621" lon="10.8390581212">
		<tag k="name" v="Brageveien" />
		<tag k="ssr:date" v="2019-05-31" />
		<tag k="ssr:gruppe" v="veg" />
		<tag k="ssr:hovedgruppe" v="infrastruktur" />
		<tag k="ssr:stedsnr" v="988175" />
		<tag k="ssr:type" v="adressenavn" />
	</node>
	<node id="-22017" lat="59.7156513092" lon="10.8278269655">
		<tag k="name" v="Magasinveien" />
		<tag k="ssr:date" v="2019-05-31" />
		<tag k="ssr:gruppe" v="veg" />
		<tag k="ssr:hovedgruppe" v="infrastruktur" />
		<tag k="ssr:stedsnr" v="988160" />
		<tag k="ssr:type" v="adressenavn" />
	</node>
</osm>
