<?xml version="1.0" encoding="UTF-8"?>
<osm generator="osmapis" version="0.6">
	<node id="-474012" lat="60.2433500033" lon="4.9803388822">
		<tag k="name" v="Telavågen lykt" />
		<tag k="ssr:date" v="2016-05-11" />
		<tag k="ssr:gruppe" v="navigasjon" />
		<tag k="ssr:hovedgruppe" v="infrastruktur" />
		<tag k="ssr:stedsnr" v="754332" />
		<tag k="ssr:type" v="fyrlykt" />
	</node>
	<node id="-473467" lat="60.3023444477" lon="5.14366111622">
		<tag k="name" v="Kobbaleia" />
		<tag k="ssr:date" v="2016-05-10" />
		<tag k="ssr:gruppe" v="navigasjon" />
		<tag k="ssr:hovedgruppe" v="infrastruktur" />
		<tag k="ssr:stedsnr" v="206120" />
		<tag k="ssr:type" v="fyrlykt" />
	</node>
	<node id="-474234" lat="60.8816104596" lon="6.30047518531">
		<tag k="name" v="Vestlandet" />
		<tag k="ssr:date" v="2019-01-06" />
		<tag k="ssr:gruppe" v="administrativeIndelinger" />
		<tag k="ssr:hovedgruppe" v="offentligAdministrasjon" />
		<tag k="ssr:stedsnr" v="974777" />
		<tag k="ssr:type" v="annenAdministrativInndeling" />
	</node>
	<node id="-473903" lat="60.2271694438" lon="5.17251110805">
		<tag k="name" v="Lerøyna" />
		<tag k="ssr:date" v="2016-05-10" />
		<tag k="ssr:gruppe" v="navigasjon" />
		<tag k="ssr:hovedgruppe" v="infrastruktur" />
		<tag k="ssr:stedsnr" v="672817" />
		<tag k="ssr:type" v="fyrlykt" />
	</node>
	<node id="-473748" lat="60.1547166632" lon="5.00620278685">
		<tag k="alt_name" v="Tekslo" />
		<tag k="name" v="Tekslo lykt" />
		<tag k="ssr:date" v="2016-05-10" />
		<tag k="ssr:gruppe" v="navigasjon" />
		<tag k="ssr:hovedgruppe" v="infrastruktur" />
		<tag k="ssr:stedsnr" v="551751" />
		<tag k="ssr:type" v="fyrlykt" />
	</node>
	<node id="-472981" lat="60.182978227" lon="5.13586339931">
		<tag k="name" v="Nedre Fiksnesvika" />
		<tag k="ssr:date" v="2019-05-31" />
		<tag k="ssr:gruppe" v="veg" />
		<tag k="ssr:hovedgruppe" v="infrastruktur" />
		<tag k="ssr:stedsnr" v="1040327" />
		<tag k="ssr:type" v="adressenavn" />
	</node>
	<node id="-472980" lat="60.170956439" lon="5.01135853926">
		<tag k="name" v="Vardøyna" />
		<tag k="ssr:date" v="2019-05-30" />
		<tag k="ssr:gruppe" v="veg" />
		<tag k="ssr:hovedgruppe" v="infrastruktur" />
		<tag k="ssr:stedsnr" v="1040159" />
		<tag k="ssr:type" v="adressenavn" />
	</node>
	<node id="-472979" lat="60.2174423676" lon="5.05302792654">
		<tag k="name" v="Stille" />
		<tag k="ssr:date" v="2019-05-30" />
		<tag k="ssr:gruppe" v="veg" />
		<tag k="ssr:hovedgruppe" v="infrastruktur" />
		<tag k="ssr:stedsnr" v="1040147" />
		<tag k="ssr:type" v="adressenavn" />
	</node>
	<node id="-472978" lat="60.1819147594" lon="5.10244799449">
		<tag k="name" v="Sollia" />
		<tag k="ssr:date" v="2019-05-30" />
		<tag k="ssr:gruppe" v="veg" />
		<tag k="ssr:hovedgruppe" v="infrastruktur" />
		<tag k="ssr:stedsnr" v="1040133" />
		<tag k="ssr:type" v="adressenavn" />
	</node>
	<node id="-472977" lat="60.18095449" lon="5.09270346571">
		<tag k="name" v="Austefjordstunet" />
		<tag k="ssr:date" v="2019-05-30" />
		<tag k="ssr:gruppe" v="veg" />
		<tag k="ssr:hovedgruppe" v="infrastruktur" />
		<tag k="ssr:stedsnr" v="1040125" />
		<tag k="ssr:type" v="adressenavn" />
	</node>
	<node id="-472976" lat="60.2467426073" lon="5.1342590723">
		<tag k="name" v="Grøningasundet" />
		<tag k="ssr:date" v="2019-05-30" />
		<tag k="ssr:gruppe" v="veg" />
		<tag k="ssr:hovedgruppe" v="infrastruktur" />
		<tag k="ssr:stedsnr" v="1040102" />
		<tag k="ssr:type" v="adressenavn" />
	</node>
	<node id="-472975" lat="60.2533208485" lon="5.12735448085">
		<tag k="name" v="Sangoltshedlo" />
		<tag k="ssr:date" v="2019-05-30" />
		<tag k="ssr:gruppe" v="veg" />
		<tag k="ssr:hovedgruppe" v="infrastruktur" />
		<tag k="ssr:stedsnr" v="1040041" />
		<tag k="ssr:type" v="adressenavn" />
	</node>
	<node id="-473209" lat="60.2019583361" lon="5.17020000483">
		<tag k="alt_name" v="Børnestangen" />
		<tag k="name" v="Børnestangen lykt" />
		<tag k="ssr:date" v="2016-05-10" />
		<tag k="ssr:gruppe" v="navigasjon" />
		<tag k="ssr:hovedgruppe" v="infrastruktur" />
		<tag k="ssr:stedsnr" v="4866" />
		<tag k="ssr:type" v="fyrlykt" />
	</node>
	<node id="-474057" lat="60.1870111128" lon="5.04041944292">
		<tag k="alt_name" v="Toftøyosen" />
		<tag k="name" v="Toftøyosen lykt" />
		<tag k="ssr:date" v="2016-05-11" />
		<tag k="ssr:gruppe" v="navigasjon" />
		<tag k="ssr:hovedgruppe" v="infrastruktur" />
		<tag k="ssr:stedsnr" v="793729" />
		<tag k="ssr:type" v="fyrlykt" />
	</node>
	<node id="-473095" lat="60.1746111112" lon="5.08533333618">
		<tag k="alt_name" v="Austefjorden" />
		<tag k="name" v="Austefjorden  lykt" />
		<tag k="ssr:date" v="2016-05-10" />
		<tag k="ssr:gruppe" v="navigasjon" />
		<tag k="ssr:hovedgruppe" v="infrastruktur" />
		<tag k="ssr:stedsnr" v="389341" />
		<tag k="ssr:type" v="fyrlykt" />
	</node>
	<node id="-474149" lat="60.2701888852" lon="5.07227500478">
		<tag k="alt_name" v="Sund" />
		<tag k="name" v="Sund kommune" />
		<tag k="ssr:date" v="2019-03-20" />
		<tag k="ssr:gruppe" v="administrativeIndelinger" />
		<tag k="ssr:hovedgruppe" v="offentligAdministrasjon" />
		<tag k="ssr:stedsnr" v="877941" />
		<tag k="ssr:type" v="kommune" />
	</node>
	<node id="-473732" lat="60.207429798" lon="5.01317703245">
		<tag k="alt_name" v="Glesvær" />
		<tag k="name" v="Glesvær lykt" />
		<tag k="ssr:date" v="2019-04-23" />
		<tag k="ssr:gruppe" v="navigasjon" />
		<tag k="ssr:hovedgruppe" v="infrastruktur" />
		<tag k="ssr:stedsnr" v="550671" />
		<tag k="ssr:type" v="fyrlykt" />
	</node>
	<node id="-473555" lat="60.1708716628" lon="5.11122113655">
		<tag k="fixme" v="multiple name tags, choose one and add the other to alt_name" />
		<tag k="name" v="Ytstaskjeret lykt;Ytstaskjeret" />
		<tag k="ssr:date" v="2017-11-09" />
		<tag k="ssr:gruppe" v="navigasjon" />
		<tag k="ssr:hovedgruppe" v="infrastruktur" />
		<tag k="ssr:stedsnr" v="268322" />
		<tag k="ssr:type" v="fyrlykt" />
	</node>
	<node id="-473762" lat="60.2417805523" lon="5.16361111411">
		<tag k="alt_name" v="Tangaflu" />
		<tag k="name" v="Tangaflu lykt" />
		<tag k="ssr:date" v="2016-05-10" />
		<tag k="ssr:gruppe" v="navigasjon" />
		<tag k="ssr:hovedgruppe" v="infrastruktur" />
		<tag k="ssr:stedsnr" v="571348" />
		<tag k="ssr:type" v="fyrlykt" />
	</node>
</osm>
