<?xml version="1.0" encoding="UTF-8"?>
<osm generator="osmapis" version="0.6">
	<node id="-212991" lat="59.3688638845" lon="9.39440555409">
		<tag k="name" v="Torshøltjønn" />
		<tag k="natural" v="water" />
		<tag k="ssr:stedsnr" v="385786" />
	</node>
	<node id="-212988" lat="59.2247138882" lon="9.52589721396">
		<tag k="name" v="Nordre Trytetjern" />
		<tag k="natural" v="water" />
		<tag k="ssr:stedsnr" v="384999" />
	</node>
	<node id="-215035" lat="59.2892999962" lon="9.48088055097">
		<tag k="name" v="Svarttjenn" />
		<tag k="natural" v="water" />
		<tag k="ssr:stedsnr" v="755154" />
		<tag k="water" v="pond" />
	</node>
	<node id="-215033" lat="59.0722527747" lon="9.41165833124">
		<tag k="name" v="Ormeholet" />
		<tag k="natural" v="bay" />
		<tag k="ssr:stedsnr" v="754955" />
	</node>
	<node id="-212983" lat="59.2158111085" lon="9.48296665945">
		<tag k="name" v="Gisholtholmane" />
		<tag k="place" v="islet" />
		<tag k="ssr:stedsnr" v="384761" />
	</node>
	<node id="-215030" lat="59.0644027743" lon="9.40415556053">
		<tag k="name" v="Småtjennane" />
		<tag k="natural" v="water" />
		<tag k="ssr:stedsnr" v="754937" />
	</node>
	<node id="-215029" lat="59.1805666702" lon="9.58848611035">
		<tag k="name" v="Jomfrudalen vannbasseng" />
		<tag k="ssr:stedsnr" v="754903" />
		<tag k="waterway" v="dam" />
	</node>
	<node id="-215028" lat="59.093608336" lon="9.45774722235">
		<tag k="name" v="Jordstjenn" />
		<tag k="natural" v="water" />
		<tag k="ssr:stedsnr" v="754895" />
	</node>
	<node id="-212976" lat="59.1497333363" lon="9.39831388579">
		<tag k="name" v="Viklefjorden" />
		<tag k="natural" v="water" />
		<tag k="ssr:stedsnr" v="366947" />
	</node>
	<node id="-212973" lat="59.1443527787" lon="9.37476111012">
		<tag k="name" v="Ulebekken" />
		<tag k="ssr:stedsnr" v="366938" />
		<tag k="waterway" v="stream" />
	</node>
	<node id="-212970" lat="59.3834055596" lon="9.47232778359">
		<tag k="name" v="Grønlitjønn" />
		<tag k="natural" v="water" />
		<tag k="ssr:stedsnr" v="366927" />
	</node>
	<node id="-212965" lat="59.3924333322" lon="9.45454165795">
		<tag k="name" v="Furustulvatna" />
		<tag k="natural" v="water" />
		<tag k="ssr:stedsnr" v="366875" />
	</node>
	<node id="-215009" lat="59.1111194429" lon="9.35912222754">
		<tag k="name" v="Harpetjenn" />
		<tag k="natural" v="water" />
		<tag k="ssr:stedsnr" v="754623" />
		<tag k="water" v="pond" />
	</node>
	<node id="-212959" lat="59.3135805532" lon="9.39592499461">
		<tag k="name" v="Lille Belerstjern" />
		<tag k="natural" v="water" />
		<tag k="ssr:stedsnr" v="366756" />
	</node>
	<node id="-212958" lat="59.3180166652" lon="9.28961943572">
		<tag k="name" v="Orekåsodden" />
		<tag k="natural" v="cape" />
		<tag k="ssr:stedsnr" v="366752" />
	</node>
	<node id="-215003" lat="59.2376361132" lon="9.51254166695">
		<tag k="name" v="Tvittingbekken" />
		<tag k="ssr:stedsnr" v="754309" />
		<tag k="waterway" v="stream" />
	</node>
	<node id="-212954" lat="59.2923750028" lon="9.41336388575">
		<tag k="alt_name" v="Rumpetjørn;Rumpetjenn" />
		<tag k="name" v="Rompetjenn" />
		<tag k="natural" v="water" />
		<tag k="ssr:stedsnr" v="366708" />
	</node>
	<node id="-215001" lat="59.2361583306" lon="9.63594443751">
		<tag k="name" v="Åmotbekken" />
		<tag k="ssr:stedsnr" v="754228" />
		<tag k="waterway" v="stream" />
	</node>
	<node id="-215000" lat="59.1215583368" lon="9.42682221971">
		<tag k="name" v="Bergantangen" />
		<tag k="natural" v="cape" />
		<tag k="ssr:stedsnr" v="754223" />
	</node>
	<node id="-214999" lat="59.1196222257" lon="9.39428610937">
		<tag k="name" v="Myrabekken" />
		<tag k="ssr:stedsnr" v="754218" />
		<tag k="waterway" v="stream" />
	</node>
	<node id="-214997" lat="59.217047224" lon="9.45421943627">
		<tag k="name" v="Melumøya" />
		<tag k="place" v="island" />
		<tag k="ssr:stedsnr" v="754119" />
	</node>
	<node id="-212948" lat="59.4268916628" lon="9.60576943831">
		<tag k="alt_name" v="Sakseren, vesle" />
		<tag k="name" v="Vesle Sakseren" />
		<tag k="natural" v="water" />
		<tag k="ssr:stedsnr" v="366570" />
	</node>
	<node id="-212946" lat="59.2918916707" lon="9.62431944998">
		<tag k="name" v="Frotjenn" />
		<tag k="natural" v="water" />
		<tag k="ssr:stedsnr" v="366508" />
	</node>
	<node id="-212945" lat="59.2849833359" lon="9.61029722896">
		<tag k="name" v="Svarttjenn" />
		<tag k="natural" v="water" />
		<tag k="ssr:stedsnr" v="366507" />
	</node>
	<node id="-214991" lat="59.2193722221" lon="9.32956389309">
		<tag k="name" v="Gudmundsbekken" />
		<tag k="ssr:stedsnr" v="753814" />
		<tag k="waterway" v="stream" />
	</node>
	<node id="-212942" lat="59.3761666641" lon="9.62617778618">
		<tag k="name" v="Smalvann" />
		<tag k="natural" v="water" />
		<tag k="ssr:stedsnr" v="366265" />
	</node>
	<node id="-212940" lat="59.2542222236" lon="9.68013888978">
		<tag k="name" v="Meitjenn" />
		<tag k="natural" v="water" />
		<tag k="ssr:stedsnr" v="366036" />
	</node>
	<node id="-212642" lat="59.2467833308" lon="9.42920278307">
		<tag k="name" v="Kjempeholmen" />
		<tag k="place" v="islet" />
		<tag k="ssr:stedsnr" v="269576" />
	</node>
	<node id="-214986" lat="59.1836972241" lon="9.54546388185">
		<tag k="name" v="Brudalsbekken" />
		<tag k="ssr:stedsnr" v="753562" />
		<tag k="waterway" v="stream" />
	</node>
	<node id="-212935" lat="59.1330083299" lon="9.31255555397">
		<tag k="alt_name" v="Rørtjern" />
		<tag k="name" v="Store Rørtjenn" />
		<tag k="natural" v="water" />
		<tag k="ssr:stedsnr" v="365954" />
	</node>
	<node id="-212934" lat="59.2249500019" lon="9.45911666929">
		<tag k="name" v="Norsjø" />
		<tag k="natural" v="water" />
		<tag k="ssr:stedsnr" v="365936" />
		<tag k="water" v="lake" />
	</node>
	<node id="-214981" lat="59.1637416691" lon="9.39166943948">
		<tag k="name" v="Leikvollholmen" />
		<tag k="place" v="islet" />
		<tag k="ssr:stedsnr" v="752611" />
	</node>
	<node id="-214976" lat="59.4020055534" lon="9.42120833672">
		<tag k="name" v="Blekketjønnbekken" />
		<tag k="natural" v="water" />
		<tag k="ssr:stedsnr" v="749807" />
	</node>
	<node id="-214975" lat="59.3124277765" lon="9.44906388446">
		<tag k="name" v="Fransetjern" />
		<tag k="natural" v="water" />
		<tag k="ssr:stedsnr" v="749791" />
		<tag k="water" v="lake" />
	</node>
	<node id="-212925" lat="59.199030553" lon="9.73515833883">
		<tag k="name" v="Rekåa" />
		<tag k="ssr:stedsnr" v="365731" />
		<tag k="waterway" v="stream" />
	</node>
	<node id="-212922" lat="59.2349249997" lon="9.5051638885">
		<tag k="alt_name" v="Tvittingen, store" />
		<tag k="name" v="Tvittingen" />
		<tag k="natural" v="water" />
		<tag k="ssr:stedsnr" v="365053" />
	</node>
	<node id="-214687" lat="59.08553611" lon="9.41123610949">
		<tag k="name" v="Krokmyrbekken" />
		<tag k="ssr:stedsnr" v="634086" />
		<tag k="waterway" v="stream" />
	</node>
	<node id="-214962" lat="59.3850111101" lon="9.41849722627">
		<tag k="name" v="Flekkeren" />
		<tag k="natural" v="water" />
		<tag k="ssr:stedsnr" v="730947" />
		<tag k="water" v="lake" />
	</node>
	<node id="-214961" lat="59.384986115" lon="9.54678889426">
		<tag k="name" v="Bløyen" />
		<tag k="natural" v="cape" />
		<tag k="ssr:stedsnr" v="730941" />
	</node>
	<node id="-214955" lat="59.3084638861" lon="9.40328332955">
		<tag k="name" v="Brånatjenn" />
		<tag k="natural" v="water" />
		<tag k="ssr:stedsnr" v="730820" />
	</node>
	<node id="-212906" lat="59.1413499991" lon="9.33287778587">
		<tag k="name" v="Nedre Sandvann" />
		<tag k="natural" v="water" />
		<tag k="ssr:stedsnr" v="427942" />
	</node>
	<node id="-212905" lat="59.3287055531" lon="9.54599444379">
		<tag k="name" v="Libekken" />
		<tag k="ssr:stedsnr" v="427831" />
		<tag k="waterway" v="stream" />
	</node>
	<node id="-214952" lat="59.3118055596" lon="9.47773610241">
		<tag k="name" v="Svarvarmyrbekken" />
		<tag k="ssr:stedsnr" v="730809" />
		<tag k="waterway" v="stream" />
	</node>
	<node id="-212902" lat="59.1498555542" lon="9.29062499574">
		<tag k="name" v="Lille Barlindtjenn" />
		<tag k="natural" v="water" />
		<tag k="ssr:stedsnr" v="332898" />
		<tag k="water" v="pond" />
	</node>
	<node id="-214949" lat="59.1118999965" lon="9.46500554811">
		<tag k="alt_name" v="Trytetjern" />
		<tag k="name" v="Trytetjenn" />
		<tag k="natural" v="water" />
		<tag k="ssr:stedsnr" v="730800" />
	</node>
	<node id="-212900" lat="59.1455527736" lon="9.31772222252">
		<tag k="name" v="Lindskorttjønn" />
		<tag k="natural" v="water" />
		<tag k="ssr:stedsnr" v="332894" />
	</node>
	<node id="-214947" lat="59.0808638868" lon="9.33850278105">
		<tag k="name" v="Majer" />
		<tag k="natural" v="water" />
		<tag k="ssr:stedsnr" v="730796" />
	</node>
	<node id="-214946" lat="59.0909749995" lon="9.28243333861">
		<tag k="name" v="Urdputtane" />
		<tag k="natural" v="water" />
		<tag k="ssr:stedsnr" v="730793" />
	</node>
	<node id="-214944" lat="59.2860194419" lon="9.41774445129">
		<tag k="name" v="Stultjenn" />
		<tag k="natural" v="water" />
		<tag k="old_name" v="Stultjørn" />
		<tag k="ssr:stedsnr" v="730740" />
	</node>
	<node id="-214939" lat="59.2543916703" lon="9.44884165918">
		<tag k="name" v="Svarttjenn" />
		<tag k="natural" v="water" />
		<tag k="old_name" v="Svarttjørn" />
		<tag k="ssr:stedsnr" v="730708" />
	</node>
	<node id="-212889" lat="59.1368472194" lon="9.24407222165">
		<tag k="name" v="Stillene" />
		<tag k="natural" v="strait" />
		<tag k="ssr:stedsnr" v="332528" />
	</node>
	<node id="-212888" lat="59.1362638917" lon="9.27250000751">
		<tag k="name" v="Lillemostjenn" />
		<tag k="natural" v="water" />
		<tag k="ssr:stedsnr" v="332520" />
	</node>
	<node id="-214934" lat="59.4348138929" lon="9.6086749943">
		<tag k="name" v="Sakseren" />
		<tag k="natural" v="water" />
		<tag k="ssr:stedsnr" v="730539" />
		<tag k="water" v="lake" />
	</node>
	<node id="-214933" lat="59.2749861143" lon="9.6526499989">
		<tag k="name" v="Havretjennbekken" />
		<tag k="ssr:stedsnr" v="730493" />
		<tag k="waterway" v="stream" />
	</node>
	<node id="-212881" lat="59.1888166668" lon="9.71247222787">
		<tag k="name" v="Langerødbekken" />
		<tag k="ssr:stedsnr" v="332025" />
		<tag k="waterway" v="stream" />
	</node>
	<node id="-212879" lat="59.0911055513" lon="9.35813611682">
		<tag k="name" v="Tussetjenn" />
		<tag k="natural" v="water" />
		<tag k="ssr:stedsnr" v="331699" />
	</node>
	<node id="-212878" lat="59.0758972248" lon="9.36874444883">
		<tag k="name" v="Eriksøy" />
		<tag k="place" v="islet" />
		<tag k="ssr:stedsnr" v="331608" />
	</node>
	<node id="-214925" lat="59.1675555518" lon="9.58379165988">
		<tag k="alt_name" v="Hvitsteintjern" />
		<tag k="name" v="Hvitsteintjenn" />
		<tag k="natural" v="water" />
		<tag k="ssr:stedsnr" v="729979" />
	</node>
	<node id="-212876" lat="59.0724583342" lon="9.36531666847">
		<tag k="name" v="Småbekken" />
		<tag k="ssr:stedsnr" v="331539" />
		<tag k="waterway" v="stream" />
	</node>
	<node id="-212875" lat="59.2031305551" lon="9.60965277726">
		<tag k="alt_name" v="Damfossen" />
		<tag k="name" v="Damfoss" />
		<tag k="natural" v="waterfall" />
		<tag k="ssr:stedsnr" v="331408" />
	</node>
	<node id="-212874" lat="59.1531916704" lon="9.42060278026">
		<tag k="name" v="Skurvehetta" />
		<tag k="place" v="islet" />
		<tag k="ssr:stedsnr" v="331406" />
	</node>
	<node id="-212871" lat="59.0997527818" lon="9.39696667119">
		<tag k="name" v="Bukketangen" />
		<tag k="natural" v="cape" />
		<tag k="ssr:stedsnr" v="331232" />
	</node>
	<node id="-212868" lat="59.0849555544" lon="9.39719166038">
		<tag k="name" v="Svimyrbekken" />
		<tag k="ssr:stedsnr" v="331118" />
		<tag k="waterway" v="stream" />
	</node>
	<node id="-212865" lat="59.1013027775" lon="9.45680277176">
		<tag k="name" v="Barlindtjenn" />
		<tag k="natural" v="water" />
		<tag k="ssr:stedsnr" v="331033" />
	</node>
	<node id="-212863" lat="59.1853611149" lon="9.47853334163">
		<tag k="name" v="Ådnadammen" />
		<tag k="natural" v="water" />
		<tag k="ssr:stedsnr" v="330951" />
	</node>
	<node id="-212861" lat="59.1877861153" lon="9.49237777424">
		<tag k="name" v="Hanesbukta" />
		<tag k="natural" v="water" />
		<tag k="ssr:stedsnr" v="330918" />
	</node>
	<node id="-212860" lat="59.1721166695" lon="9.44740556269">
		<tag k="name" v="Kroktjenn" />
		<tag k="natural" v="water" />
		<tag k="ssr:stedsnr" v="330905" />
	</node>
	<node id="-212859" lat="59.1811472197" lon="9.46181667106">
		<tag k="name" v="Lindtjenn" />
		<tag k="natural" v="water" />
		<tag k="ssr:stedsnr" v="330827" />
		<tag k="water" v="pond" />
	</node>
	<node id="-212858" lat="59.1608805529" lon="9.36534166378">
		<tag k="name" v="Lilleøya" />
		<tag k="place" v="islet" />
		<tag k="ssr:stedsnr" v="330773" />
	</node>
	<node id="-212855" lat="59.1743361082" lon="9.33751389379">
		<tag k="name" v="Reiersbekk" />
		<tag k="ssr:stedsnr" v="330695" />
		<tag k="waterway" v="stream" />
	</node>
	<node id="-212853" lat="59.2664000017" lon="9.42126111082">
		<tag k="name" v="Kvernhusbekken" />
		<tag k="ssr:stedsnr" v="330636" />
		<tag k="waterway" v="stream" />
	</node>
	<node id="-214899" lat="59.1605027769" lon="9.3008888923">
		<tag k="name" v="Bikkjetjenn" />
		<tag k="natural" v="water" />
		<tag k="ssr:stedsnr" v="696925" />
	</node>
	<node id="-214898" lat="59.1021083296" lon="9.28882777142">
		<tag k="name" v="Lomtjennputtane" />
		<tag k="natural" v="water" />
		<tag k="ssr:stedsnr" v="696908" />
		<tag k="water" v="pond" />
	</node>
	<node id="-214896" lat="59.0931638914" lon="9.27751944178">
		<tag k="name" v="Urdputtane" />
		<tag k="natural" v="water" />
		<tag k="ssr:stedsnr" v="696781" />
	</node>
	<node id="-214895" lat="59.0979083297" lon="9.29740833694">
		<tag k="name" v="Tjærevannsmellom" />
		<tag k="natural" v="strait" />
		<tag k="ssr:stedsnr" v="696762" />
	</node>
	<node id="-214894" lat="59.1239611086" lon="9.31297777121">
		<tag k="name" v="Nibutjenn" />
		<tag k="natural" v="water" />
		<tag k="ssr:stedsnr" v="696634" />
	</node>
	<node id="-214893" lat="59.0756000007" lon="9.3461166644">
		<tag k="name" v="Håvtjennane" />
		<tag k="natural" v="water" />
		<tag k="ssr:stedsnr" v="696612" />
	</node>
	<node id="-212844" lat="59.0692777785" lon="9.4664944496">
		<tag k="name" v="Øvereidet" />
		<tag k="natural" v="strait" />
		<tag k="ssr:stedsnr" v="329991" />
	</node>
	<node id="-212841" lat="59.061072226" lon="9.42786667228">
		<tag k="name" v="Auretjenn" />
		<tag k="natural" v="water" />
		<tag k="ssr:stedsnr" v="329949" />
	</node>
	<node id="-213307" lat="59.1926027796" lon="9.33399999151">
		<tag k="alt_name" v="Tveitstultjern" />
		<tag k="name" v="Tveitstultjenn" />
		<tag k="natural" v="water" />
		<tag k="ssr:stedsnr" v="62889" />
	</node>
	<node id="-214878" lat="59.2922888896" lon="9.38920555713">
		<tag k="name" v="Solbergbekken" />
		<tag k="ssr:stedsnr" v="695718" />
		<tag k="waterway" v="stream" />
	</node>
	<node id="-212829" lat="59.1630027805" lon="9.39897221772">
		<tag k="name" v="Gåsoddtjenn" />
		<tag k="natural" v="water" />
		<tag k="ssr:stedsnr" v="329814" />
	</node>
	<node id="-214875" lat="59.1468305564" lon="9.413280555">
		<tag k="name" v="Nesodden" />
		<tag k="natural" v="cape" />
		<tag k="ssr:stedsnr" v="695437" />
	</node>
	<node id="-214874" lat="59.143727779" lon="9.39206111078">
		<tag k="name" v="Øyfjorden" />
		<tag k="natural" v="water" />
		<tag k="ssr:stedsnr" v="695416" />
	</node>
	<node id="-214873" lat="59.143566663" lon="9.41361944136">
		<tag k="name" v="Øyrodden" />
		<tag k="natural" v="cape" />
		<tag k="ssr:stedsnr" v="695413" />
	</node>
	<node id="-214871" lat="59.1163861126" lon="9.42223056046">
		<tag k="name" v="Brentetangen" />
		<tag k="natural" v="cape" />
		<tag k="ssr:stedsnr" v="695268" />
	</node>
	<node id="-212822" lat="59.2852111153" lon="9.37913611734">
		<tag k="name" v="Glaholtstranda" />
		<tag k="natural" v="beach" />
		<tag k="ssr:stedsnr" v="329695" />
	</node>
	<node id="-214866" lat="59.0693500019" lon="9.40429999254">
		<tag k="name" v="Godtjenn" />
		<tag k="natural" v="water" />
		<tag k="ssr:stedsnr" v="694964" />
	</node>
	<node id="-212816" lat="59.3084555553" lon="9.29979723014">
		<tag k="name" v="Brudeskjær" />
		<tag k="place" v="islet" />
		<tag k="ssr:stedsnr" v="329634" />
	</node>
	<node id="-212808" lat="59.1352777755" lon="9.43421111536">
		<tag k="name" v="Åletjenn" />
		<tag k="natural" v="water" />
		<tag k="ssr:stedsnr" v="329341" />
	</node>
	<node id="-214854" lat="59.2149249991" lon="9.46126111379">
		<tag k="name" v="Leirodden" />
		<tag k="natural" v="cape" />
		<tag k="ssr:stedsnr" v="694086" />
	</node>
	<node id="-212804" lat="59.1212444482" lon="9.42551943928">
		<tag k="name" v="Skysskafferen" />
		<tag k="place" v="islet" />
		<tag k="ssr:stedsnr" v="329183" />
	</node>
	<node id="-212803" lat="59.1275555514" lon="9.4050694466">
		<tag k="name" v="Loatjenn" />
		<tag k="natural" v="water" />
		<tag k="ssr:stedsnr" v="329171" />
	</node>
	<node id="-214850" lat="59.0569333357" lon="9.42685277296">
		<tag k="name" v="Småslåttbukta" />
		<tag k="natural" v="water" />
		<tag k="ssr:stedsnr" v="693950" />
	</node>
	<node id="-214849" lat="59.0633944477" lon="9.41611944557">
		<tag k="name" v="Leirtjenn" />
		<tag k="natural" v="water" />
		<tag k="ssr:stedsnr" v="693947" />
	</node>
	<node id="-214843" lat="59.2122555531" lon="9.31161388037">
		<tag k="name" v="Torgersrødtjenn" />
		<tag k="natural" v="bay" />
		<tag k="ssr:stedsnr" v="693817" />
	</node>
	<node id="-212794" lat="59.2342750024" lon="9.55632499371">
		<tag k="name" v="Skotlandsbekken" />
		<tag k="ssr:stedsnr" v="324997" />
		<tag k="waterway" v="stream" />
	</node>
	<node id="-214841" lat="59.120236113" lon="9.37619721474">
		<tag k="name" v="Fjellelva" />
		<tag k="ssr:stedsnr" v="693752" />
		<tag k="waterway" v="river" />
	</node>
	<node id="-215006" lat="59.341786114" lon="9.33926666485">
		<tag k="name" v="Tverrbekk" />
		<tag k="ssr:stedsnr" v="754521" />
		<tag k="waterway" v="stream" />
	</node>
	<node id="-212782" lat="59.4474611073" lon="9.49467777179">
		<tag k="name" v="Albogatjønn" />
		<tag k="natural" v="water" />
		<tag k="ssr:stedsnr" v="306954" />
	</node>
	<node id="-212781" lat="59.4009111104" lon="9.44970833427">
		<tag k="alt_name" v="Langeløk, austre" />
		<tag k="name" v="Austre Langeløk" />
		<tag k="natural" v="water" />
		<tag k="ssr:stedsnr" v="306905" />
	</node>
	<node id="-212779" lat="59.4058833315" lon="9.44487499978">
		<tag k="name" v="Uvassvatna" />
		<tag k="natural" v="water" />
		<tag k="ssr:stedsnr" v="306876" />
	</node>
	<node id="-212777" lat="59.3491749996" lon="9.49398611714">
		<tag k="name" v="Stengestadvann" />
		<tag k="natural" v="water" />
		<tag k="ssr:stedsnr" v="306838" />
		<tag k="water" v="lake" />
	</node>
	<node id="-214824" lat="59.2378861131" lon="9.60699722819">
		<tag k="name" v="Limibekken" />
		<tag k="ssr:stedsnr" v="693238" />
		<tag k="waterway" v="stream" />
	</node>
	<node id="-212773" lat="59.3274249996" lon="9.50570000697">
		<tag k="alt_name" v="Blæsa, nedre" />
		<tag k="name" v="Nedre Blæsa" />
		<tag k="natural" v="water" />
		<tag k="ssr:stedsnr" v="306731" />
	</node>
	<node id="-212772" lat="59.3268972247" lon="9.47778334183">
		<tag k="name" v="Fagerlitjenn" />
		<tag k="natural" v="water" />
		<tag k="ssr:stedsnr" v="306728" />
	</node>
	<node id="-212771" lat="59.2947194409" lon="9.54592500455">
		<tag k="name" v="Slettevann" />
		<tag k="natural" v="water" />
		<tag k="ssr:stedsnr" v="306693" />
		<tag k="water" v="lake" />
	</node>
	<node id="-212769" lat="59.2873777802" lon="9.54346666894">
		<tag k="name" v="Dyrkolltjenn" />
		<tag k="natural" v="water" />
		<tag k="ssr:stedsnr" v="306667" />
	</node>
	<node id="-214816" lat="59.152886115" lon="9.54540277481">
		<tag k="name" v="Hvalsbekken" />
		<tag k="ssr:stedsnr" v="693559" />
		<tag k="waterway" v="stream" />
	</node>
	<node id="-214813" lat="59.1482972227" lon="9.53944443598">
		<tag k="name" v="Meltveitbekken" />
		<tag k="ssr:stedsnr" v="693542" />
		<tag k="waterway" v="stream" />
	</node>
	<node id="-212764" lat="59.4262472228" lon="9.58986389145">
		<tag k="name" v="Brudetjenn" />
		<tag k="natural" v="water" />
		<tag k="ssr:stedsnr" v="305993" />
	</node>
	<node id="-212754" lat="59.2258916689" lon="9.43941111422">
		<tag k="name" v="Marodden" />
		<tag k="natural" v="cape" />
		<tag k="ssr:stedsnr" v="305922" />
	</node>
	<node id="-214798" lat="59.3823722225" lon="9.61634444977">
		<tag k="name" v="Svergekolltjern" />
		<tag k="natural" v="water" />
		<tag k="ssr:stedsnr" v="688785" />
	</node>
	<node id="-214794" lat="59.4524055512" lon="9.41758888511">
		<tag k="name" v="Grøntjønn" />
		<tag k="natural" v="water" />
		<tag k="ssr:stedsnr" v="670950" />
	</node>
	<node id="-214792" lat="59.4066305522" lon="9.41733889321">
		<tag k="name" v="Blekketjønn" />
		<tag k="natural" v="water" />
		<tag k="ssr:stedsnr" v="670875" />
	</node>
	<node id="-214791" lat="59.3411916708" lon="9.57704167432">
		<tag k="name" v="Stutebekk" />
		<tag k="ssr:stedsnr" v="670845" />
		<tag k="waterway" v="stream" />
	</node>
	<node id="-213035" lat="59.1484222179" lon="9.37701110759">
		<tag k="name" v="Kverndalsbekken" />
		<tag k="ssr:stedsnr" v="390681" />
		<tag k="waterway" v="stream" />
	</node>
	<node id="-214789" lat="59.3444249966" lon="9.51867778047">
		<tag k="name" v="Smalvann" />
		<tag k="natural" v="water" />
		<tag k="ssr:stedsnr" v="670838" />
	</node>
	<node id="-212740" lat="59.1114555538" lon="9.29247499315">
		<tag k="alt_name" v="Kroktjern" />
		<tag k="name" v="Kroktjenn" />
		<tag k="natural" v="water" />
		<tag k="ssr:stedsnr" v="305800" />
	</node>
	<node id="-214782" lat="59.4354333368" lon="9.40921944075">
		<tag k="name" v="Kroktjønn" />
		<tag k="natural" v="water" />
		<tag k="ssr:stedsnr" v="669975" />
	</node>
	<node id="-212733" lat="59.0949000037" lon="9.29845555424">
		<tag k="name" v="Søndre Tjærevanna" />
		<tag k="natural" v="water" />
		<tag k="ssr:stedsnr" v="305769" />
	</node>
	<node id="-214780" lat="59.156241668" lon="9.28768332974">
		<tag k="alt_name" v="Barlindtjern, nordre;Store Barlindtjenn" />
		<tag k="name" v="Nordre Barlindtjern" />
		<tag k="natural" v="water" />
		<tag k="ssr:stedsnr" v="669959" />
	</node>
	<node id="-212730" lat="59.0866444434" lon="9.32180278239">
		<tag k="alt_name" v="Langetjern" />
		<tag k="name" v="Langetjenn" />
		<tag k="natural" v="water" />
		<tag k="ssr:stedsnr" v="305752" />
	</node>
	<node id="-214777" lat="59.1572444472" lon="9.44823888514">
		<tag k="alt_name" v="Sandtjern" />
		<tag k="name" v="Sandtjenn" />
		<tag k="natural" v="water" />
		<tag k="ssr:stedsnr" v="669949" />
	</node>
	<node id="-214774" lat="59.1482055565" lon="9.33222777764">
		<tag k="name" v="Øvre Sandvann" />
		<tag k="natural" v="water" />
		<tag k="ssr:stedsnr" v="669944" />
	</node>
	<node id="-214772" lat="59.2173472229" lon="9.30089443877">
		<tag k="name" v="Ulevann" />
		<tag k="natural" v="water" />
		<tag k="ssr:stedsnr" v="669913" />
		<tag k="water" v="lake" />
	</node>
	<node id="-212722" lat="59.2605527742" lon="9.43195555468">
		<tag k="name" v="Ålrobekken" />
		<tag k="ssr:stedsnr" v="305667" />
		<tag k="waterway" v="stream" />
	</node>
	<node id="-214769" lat="59.1045999958" lon="9.27687499386">
		<tag k="name" v="Mjåvann" />
		<tag k="natural" v="water" />
		<tag k="ssr:stedsnr" v="669784" />
	</node>
	<node id="-212720" lat="59.2894583329" lon="9.61483611539">
		<tag k="name" v="Smaltjenn" />
		<tag k="natural" v="water" />
		<tag k="ssr:stedsnr" v="305530" />
	</node>
	<node id="-212716" lat="59.2841222223" lon="9.59776111984">
		<tag k="name" v="Olaugtjenn" />
		<tag k="natural" v="water" />
		<tag k="ssr:stedsnr" v="305390" />
	</node>
	<node id="-214760" lat="59.0860333343" lon="9.34602499932">
		<tag k="name" v="Bjørvann" />
		<tag k="natural" v="water" />
		<tag k="ssr:stedsnr" v="669753" />
		<tag k="water" v="lake" />
	</node>
	<node id="-214758" lat="59.2599888909" lon="9.55845276972">
		<tag k="name" v="Kisebekken" />
		<tag k="ssr:stedsnr" v="669681" />
		<tag k="waterway" v="stream" />
	</node>
	<node id="-213102" lat="59.1571888862" lon="9.64588611786">
		<tag k="name" v="Legravstranda" />
		<tag k="natural" v="beach" />
		<tag k="ssr:stedsnr" v="898441" />
	</node>
	<node id="-214749" lat="59.1454972202" lon="9.65458054853">
		<tag k="name" v="Skienselva" />
		<tag k="ssr:stedsnr" v="669553" />
		<tag k="waterway" v="river" />
	</node>
	<node id="-214746" lat="59.1881527775" lon="9.5288888908">
		<tag k="name" v="Fjærekilen" />
		<tag k="natural" v="water" />
		<tag k="ssr:stedsnr" v="669892" />
	</node>
	<node id="-214737" lat="59.1318666675" lon="9.26010555082">
		<tag k="name" v="Mosvannet" />
		<tag k="natural" v="water" />
		<tag k="ssr:stedsnr" v="668811" />
		<tag k="water" v="lake" />
	</node>
	<node id="-214736" lat="59.1398999988" lon="9.43775832485">
		<tag k="name" v="Oterkilfjorden" />
		<tag k="natural" v="water" />
		<tag k="ssr:stedsnr" v="668808" />
	</node>
	<node id="-212684" lat="59.1105638883" lon="9.29938332617">
		<tag k="name" v="Hulka" />
		<tag k="natural" v="water" />
		<tag k="ssr:stedsnr" v="271943" />
	</node>
	<node id="-212683" lat="59.1044444435" lon="9.28208054717">
		<tag k="name" v="Lomtjenn" />
		<tag k="natural" v="water" />
		<tag k="ssr:stedsnr" v="271937" />
	</node>
	<node id="-212681" lat="59.1635861112" lon="9.64261666802">
		<tag k="name" v="Borgestadholmen" />
		<tag k="place" v="islet" />
		<tag k="ssr:stedsnr" v="271878" />
	</node>
	<node id="-212677" lat="59.0942500028" lon="9.35909721515">
		<tag k="name" v="Lille Hestnes" />
		<tag k="place" v="island" />
		<tag k="ssr:stedsnr" v="271742" />
	</node>
	<node id="-212672" lat="59.1874749997" lon="9.70378055369">
		<tag k="name" v="Svarttangtjenna" />
		<tag k="natural" v="water" />
		<tag k="ssr:stedsnr" v="271641" />
		<tag k="water" v="pond" />
	</node>
	<node id="-212671" lat="59.0818500028" lon="9.37238610436">
		<tag k="name" v="Buktetjenn" />
		<tag k="natural" v="water" />
		<tag k="ssr:stedsnr" v="271635" />
		<tag k="water" v="lake" />
	</node>
	<node id="-212670" lat="59.1650861101" lon="9.71913333755">
		<tag k="name" v="Ramsåstjenna" />
		<tag k="natural" v="water" />
		<tag k="ssr:stedsnr" v="271541" />
	</node>
	<node id="-212665" lat="59.1492916657" lon="9.42885555962">
		<tag k="name" v="Nordbukta" />
		<tag k="natural" v="water" />
		<tag k="ssr:stedsnr" v="270429" />
	</node>
	<node id="-212662" lat="59.1408666655" lon="9.4009055469">
		<tag k="name" v="Bjørnskåsodden" />
		<tag k="natural" v="cape" />
		<tag k="ssr:stedsnr" v="270399" />
	</node>
	<node id="-214706" lat="59.1261972206" lon="9.33041665942">
		<tag k="name" v="Ristjenn" />
		<tag k="natural" v="water" />
		<tag k="ssr:stedsnr" v="635568" />
	</node>
	<node id="-212656" lat="59.0941916709" lon="9.4031694428">
		<tag k="name" v="Lauvsmyrbekken" />
		<tag k="ssr:stedsnr" v="270107" />
		<tag k="waterway" v="stream" />
	</node>
	<node id="-212653" lat="59.2847888912" lon="9.41523611823">
		<tag k="name" v="Kringletjenn" />
		<tag k="natural" v="water" />
		<tag k="ssr:stedsnr" v="269979" />
	</node>
	<node id="-212652" lat="59.0724861135" lon="9.40624166633">
		<tag k="name" v="Kåsaosen" />
		<tag k="natural" v="bay" />
		<tag k="ssr:stedsnr" v="269955" />
	</node>
	<node id="-214697" lat="59.0958555575" lon="9.35205833722">
		<tag k="name" v="Skrublebukta" />
		<tag k="natural" v="bay" />
		<tag k="ssr:stedsnr" v="634730" />
	</node>
	<node id="-214696" lat="59.07967778" lon="9.36740555897">
		<tag k="name" v="Skærketangen" />
		<tag k="natural" v="cape" />
		<tag k="ssr:stedsnr" v="634619" />
	</node>
	<node id="-214982" lat="59.2181472221" lon="9.44355277373">
		<tag k="name" v="Melumbukta" />
		<tag k="natural" v="bay" />
		<tag k="ssr:stedsnr" v="753129" />
	</node>
	<node id="-214690" lat="59.1720222244" lon="9.61688888697">
		<tag k="alt_name" v="Såmundbekken" />
		<tag k="name" v="Kjørbekken" />
		<tag k="ssr:stedsnr" v="634246" />
		<tag k="waterway" v="stream" />
	</node>
	<node id="-212641" lat="59.2499361109" lon="9.43122778323">
		<tag k="name" v="Langodden" />
		<tag k="natural" v="cape" />
		<tag k="ssr:stedsnr" v="269573" />
	</node>
	<node id="-212639" lat="59.210491668" lon="9.38627500484">
		<tag k="name" v="Siljantjenn" />
		<tag k="natural" v="water" />
		<tag k="ssr:stedsnr" v="269303" />
	</node>
	<node id="-212638" lat="59.2083777779" lon="9.35000834032">
		<tag k="name" v="Grisebergtjenn" />
		<tag k="natural" v="water" />
		<tag k="ssr:stedsnr" v="269304" />
	</node>
	<node id="-212637" lat="59.209122221" lon="9.37623888384">
		<tag k="name" v="Trolldalstjenn" />
		<tag k="natural" v="water" />
		<tag k="ssr:stedsnr" v="269299" />
	</node>
	<node id="-214684" lat="59.0962916687" lon="9.46796943626">
		<tag k="name" v="Kroktjenn" />
		<tag k="natural" v="water" />
		<tag k="ssr:stedsnr" v="634030" />
	</node>
	<node id="-214680" lat="59.1793666709" lon="9.45751111903">
		<tag k="name" v="Bjørntjenn" />
		<tag k="natural" v="water" />
		<tag k="ssr:stedsnr" v="633810" />
	</node>
	<node id="-214679" lat="59.1784666633" lon="9.48476943659">
		<tag k="name" v="Rugstadtjenn" />
		<tag k="natural" v="water" />
		<tag k="ssr:stedsnr" v="633806" />
	</node>
	<node id="-214674" lat="59.2540972214" lon="9.47595278059">
		<tag k="name" v="Svinetjenn" />
		<tag k="natural" v="water" />
		<tag k="ssr:stedsnr" v="633657" />
	</node>
	<node id="-214673" lat="59.2525333309" lon="9.47407778407">
		<tag k="name" v="Kroktjenn" />
		<tag k="natural" v="water" />
		<tag k="ssr:stedsnr" v="633655" />
	</node>
	<node id="-214666" lat="59.3148472237" lon="9.41030833999">
		<tag k="name" v="Stutøye" />
		<tag k="natural" v="water" />
		<tag k="ssr:stedsnr" v="633222" />
		<tag k="water" v="pond" />
	</node>
	<node id="-214665" lat="59.3174527774" lon="9.41572778302">
		<tag k="name" v="Skotfoss" />
		<tag k="natural" v="waterfall" />
		<tag k="ssr:stedsnr" v="633220" />
	</node>
	<node id="-214662" lat="59.2100611107" lon="9.48567222169">
		<tag k="name" v="Svarthøl" />
		<tag k="natural" v="bay" />
		<tag k="ssr:stedsnr" v="633136" />
	</node>
	<node id="-214658" lat="59.0573555522" lon="9.43239166246">
		<tag k="name" v="Aurtjennbekken" />
		<tag k="ssr:stedsnr" v="632939" />
		<tag k="waterway" v="stream" />
	</node>
	<node id="-214649" lat="59.2947305595" lon="9.55444721359">
		<tag k="name" v="Spirøya" />
		<tag k="place" v="island" />
		<tag k="ssr:stedsnr" v="632810" />
	</node>
	<node id="-214643" lat="59.1338694431" lon="9.37316667231">
		<tag k="name" v="Endebekken" />
		<tag k="ssr:stedsnr" v="632703" />
		<tag k="waterway" v="stream" />
	</node>
	<node id="-214630" lat="59.2334388852" lon="9.63501389141">
		<tag k="name" v="Bugodtdammen" />
		<tag k="natural" v="water" />
		<tag k="ssr:stedsnr" v="632208" />
		<tag k="water" v="pond" />
	</node>
	<node id="-214625" lat="59.1670472234" lon="9.37621944211">
		<tag k="name" v="Tangen" />
		<tag k="place" v="island" />
		<tag k="ssr:stedsnr" v="631647" />
	</node>
	<node id="-214970" lat="59.4529388896" lon="9.42403055174">
		<tag k="alt_name" v="Steinbruvatnet, vesle" />
		<tag k="name" v="Vesle Steinbruvatnet" />
		<tag k="natural" v="water" />
		<tag k="ssr:stedsnr" v="731946" />
		<tag k="water" v="lake" />
	</node>
	<node id="-214614" lat="59.4139666655" lon="9.4118611096">
		<tag k="name" v="Tvitjønnane" />
		<tag k="natural" v="water" />
		<tag k="ssr:stedsnr" v="609876" />
	</node>
	<node id="-214610" lat="59.281988892" lon="9.41969444227">
		<tag k="name" v="Geitebutjenn" />
		<tag k="natural" v="water" />
		<tag k="old_name" v="Geitebutjørn" />
		<tag k="ssr:stedsnr" v="609703" />
	</node>
	<node id="-214601" lat="59.4622055528" lon="9.46103610279">
		<tag k="name" v="Grantjønn" />
		<tag k="natural" v="water" />
		<tag k="ssr:stedsnr" v="609002" />
	</node>
	<node id="-214598" lat="59.1538611124" lon="9.46313056226">
		<tag k="alt_name" v="Eltveittjernet" />
		<tag k="name" v="Eltveittjenn" />
		<tag k="natural" v="water" />
		<tag k="ssr:stedsnr" v="608967" />
	</node>
	<node id="-214578" lat="59.1907416708" lon="9.75773056041">
		<tag k="name" v="Mjøvann" />
		<tag k="natural" v="water" />
		<tag k="ssr:stedsnr" v="608737" />
		<tag k="water" v="lake" />
	</node>
	<node id="-214576" lat="59.251325004" lon="9.4528666613">
		<tag k="name" v="Vasdalstjern" />
		<tag k="natural" v="water" />
		<tag k="ssr:stedsnr" v="608695" />
	</node>
	<node id="-214571" lat="59.3620777793" lon="9.60763610357">
		<tag k="name" v="Lilleøkteren" />
		<tag k="natural" v="water" />
		<tag k="ssr:stedsnr" v="608247" />
		<tag k="water" v="lake" />
	</node>
	<node id="-214540" lat="59.1093972183" lon="9.26520833073">
		<tag k="name" v="Svarttjenn" />
		<tag k="natural" v="water" />
		<tag k="ssr:stedsnr" v="574926" />
		<tag k="water" v="pond" />
	</node>
	<node id="-214538" lat="59.0901055536" lon="9.31410556413">
		<tag k="name" v="Langtjennbekken" />
		<tag k="ssr:stedsnr" v="574848" />
		<tag k="waterway" v="stream" />
	</node>
	<node id="-214535" lat="59.0991861103" lon="9.29972777402">
		<tag k="name" v="Trytetjenn" />
		<tag k="natural" v="water" />
		<tag k="ssr:stedsnr" v="574817" />
	</node>
	<node id="-214533" lat="59.0943055555" lon="9.33810832478">
		<tag k="name" v="Bjørkelva" />
		<tag k="ssr:stedsnr" v="574738" />
		<tag k="waterway" v="river" />
	</node>
	<node id="-214532" lat="59.0870749997" lon="9.33720833508">
		<tag k="name" v="Susslebekktjenn" />
		<tag k="natural" v="water" />
		<tag k="ssr:stedsnr" v="574727" />
		<tag k="water" v="pond" />
	</node>
	<node id="-214531" lat="59.091450004" lon="9.35151389277">
		<tag k="name" v="Vintereidet" />
		<tag k="natural" v="strait" />
		<tag k="ssr:stedsnr" v="574725" />
	</node>
	<node id="-214526" lat="59.0806749995" lon="9.38616667181">
		<tag k="name" v="Bjorvannselva" />
		<tag k="ssr:stedsnr" v="574628" />
		<tag k="waterway" v="river" />
	</node>
	<node id="-214519" lat="59.1993472236" lon="9.60601388427">
		<tag k="alt_name" v="Bukkeholmen" />
		<tag k="name" v="Bokholmen" />
		<tag k="place" v="islet" />
		<tag k="ssr:stedsnr" v="574353" />
	</node>
	<node id="-214516" lat="59.1631305598" lon="9.30017221458">
		<tag k="name" v="Moltetjenn" />
		<tag k="natural" v="water" />
		<tag k="ssr:stedsnr" v="574242" />
	</node>
	<node id="-214505" lat="59.1316027747" lon="9.45352221393">
		<tag k="name" v="Svarttjenn" />
		<tag k="natural" v="water" />
		<tag k="ssr:stedsnr" v="573233" />
	</node>
	<node id="-214499" lat="59.0680611072" lon="9.43413054733">
		<tag k="name" v="Oreholet" />
		<tag k="natural" v="bay" />
		<tag k="ssr:stedsnr" v="572944" />
	</node>
	<node id="-214494" lat="59.0545944472" lon="9.41491388088">
		<tag k="name" v="Seterkilen" />
		<tag k="natural" v="water" />
		<tag k="ssr:stedsnr" v="572951" />
	</node>
	<node id="-214492" lat="59.257080557" lon="9.42469444069">
		<tag k="name" v="Malmskjæret" />
		<tag k="place" v="islet" />
		<tag k="ssr:stedsnr" v="572578" />
	</node>
	<node id="-214486" lat="59.2148805583" lon="9.37130833208">
		<tag k="name" v="Trolldalsbekken" />
		<tag k="ssr:stedsnr" v="572328" />
		<tag k="waterway" v="stream" />
	</node>
	<node id="-214485" lat="59.2051638909" lon="9.38932500526">
		<tag k="name" v="Gjærumtjenn" />
		<tag k="natural" v="water" />
		<tag k="ssr:stedsnr" v="572314" />
	</node>
	<node id="-214479" lat="59.1309500037" lon="9.4333972203">
		<tag k="name" v="Heitjenn" />
		<tag k="natural" v="water" />
		<tag k="ssr:stedsnr" v="572195" />
		<tag k="water" v="pond" />
	</node>
	<node id="-214477" lat="59.2160861142" lon="9.45634166109">
		<tag k="name" v="Andøya" />
		<tag k="place" v="islet" />
		<tag k="ssr:stedsnr" v="572131" />
	</node>
	<node id="-214471" lat="59.2191111115" lon="9.30798054881">
		<tag k="name" v="Sunda" />
		<tag k="natural" v="strait" />
		<tag k="ssr:stedsnr" v="571832" />
	</node>
	<node id="-214469" lat="59.1626666631" lon="9.40172499878">
		<tag k="name" v="Kvellro" />
		<tag k="natural" v="cape" />
		<tag k="ssr:stedsnr" v="571816" />
	</node>
	<node id="-214464" lat="59.2170861125" lon="9.30757777454">
		<tag k="name" v="Øyane" />
		<tag k="place" v="island" />
		<tag k="ssr:stedsnr" v="571781" />
	</node>
	<node id="-214462" lat="59.3129944487" lon="9.30034166099">
		<tag k="name" v="Hasledokka" />
		<tag k="natural" v="bay" />
		<tag k="ssr:stedsnr" v="571761" />
	</node>
	<node id="-214461" lat="59.1600805581" lon="9.36680555282">
		<tag k="name" v="Storeøya" />
		<tag k="place" v="island" />
		<tag k="ssr:stedsnr" v="571759" />
	</node>
	<node id="-213236" lat="59.071083331" lon="9.41333333821">
		<tag k="name" v="Matøya" />
		<tag k="place" v="islet" />
		<tag k="ssr:stedsnr" v="26956" />
	</node>
	<node id="-214454" lat="59.1538833339" lon="9.34404444059">
		<tag k="name" v="Svarttjenn" />
		<tag k="natural" v="water" />
		<tag k="ssr:stedsnr" v="571656" />
	</node>
	<node id="-214453" lat="59.2925555535" lon="9.36829444067">
		<tag k="name" v="Sprakevik" />
		<tag k="natural" v="bay" />
		<tag k="ssr:stedsnr" v="571649" />
	</node>
	<node id="-214446" lat="59.3450472252" lon="9.32877777245">
		<tag k="name" v="Gotholsbekk" />
		<tag k="ssr:stedsnr" v="571505" />
		<tag k="waterway" v="stream" />
	</node>
	<node id="-214445" lat="59.2435444409" lon="9.52885833427">
		<tag k="name" v="Breigangsbukta" />
		<tag k="natural" v="bay" />
		<tag k="ssr:stedsnr" v="571252" />
	</node>
	<node id="-214444" lat="59.2314138913" lon="9.55040555599">
		<tag k="name" v="Salmakerdammen" />
		<tag k="natural" v="water" />
		<tag k="ssr:stedsnr" v="571241" />
		<tag k="water" v="pond" />
	</node>
	<node id="-214441" lat="59.2123861114" lon="9.50066666561">
		<tag k="name" v="Lagune" />
		<tag k="natural" v="water" />
		<tag k="ssr:stedsnr" v="571062" />
		<tag k="water" v="pond" />
	</node>
	<node id="-214440" lat="59.2071361132" lon="9.50338333291">
		<tag k="name" v="Suttervika" />
		<tag k="natural" v="bay" />
		<tag k="ssr:stedsnr" v="571058" />
	</node>
	<node id="-213233" lat="59.2383055535" lon="9.68111666541">
		<tag k="name" v="Smalvann" />
		<tag k="natural" v="water" />
		<tag k="ssr:stedsnr" v="26923" />
	</node>
	<node id="-214433" lat="59.3185805536" lon="9.39206666799">
		<tag k="name" v="Store Belerstjern" />
		<tag k="natural" v="water" />
		<tag k="ssr:stedsnr" v="567785" />
	</node>
	<node id="-214431" lat="59.4128583316" lon="9.39668056234">
		<tag k="name" v="Sjøknattjønn" />
		<tag k="natural" v="water" />
		<tag k="ssr:stedsnr" v="567775" />
	</node>
	<node id="-214411" lat="59.411625002" lon="9.45953888493">
		<tag k="name" v="Håkastulelva" />
		<tag k="ssr:stedsnr" v="548875" />
		<tag k="waterway" v="stream" />
	</node>
	<node id="-214410" lat="59.4065777777" lon="9.39352500308">
		<tag k="name" v="Gullbutjønn" />
		<tag k="natural" v="water" />
		<tag k="ssr:stedsnr" v="548864" />
	</node>
	<node id="-214407" lat="59.3507999989" lon="9.38745000675">
		<tag k="name" v="Midtbutjenn" />
		<tag k="natural" v="water" />
		<tag k="old_name" v="Midtbutjørn" />
		<tag k="ssr:stedsnr" v="548836" />
	</node>
	<node id="-214406" lat="59.3580472225" lon="9.5212944484">
		<tag k="name" v="Blokkevann" />
		<tag k="natural" v="water" />
		<tag k="ssr:stedsnr" v="548823" />
	</node>
	<node id="-214405" lat="59.3694111155" lon="9.55285833619">
		<tag k="name" v="Fjellvannet" />
		<tag k="natural" v="water" />
		<tag k="ssr:stedsnr" v="548814" />
		<tag k="water" v="lake" />
	</node>
	<node id="-214404" lat="59.3718138923" lon="9.38746110981">
		<tag k="name" v="Stulstjønn" />
		<tag k="natural" v="water" />
		<tag k="ssr:stedsnr" v="548808" />
	</node>
	<node id="-214403" lat="59.2947638912" lon="9.41893889071">
		<tag k="alt_name" v="Fjelltjørn;Fjelltjønn" />
		<tag k="name" v="Fjelltjenn" />
		<tag k="natural" v="water" />
		<tag k="ssr:stedsnr" v="548801" />
	</node>
	<node id="-214402" lat="59.3105388869" lon="9.43974999527">
		<tag k="name" v="Sagtjernelva" />
		<tag k="ssr:stedsnr" v="548789" />
		<tag k="waterway" v="river" />
	</node>
	<node id="-214401" lat="59.3038444476" lon="9.47713055646">
		<tag k="name" v="Såtebekken" />
		<tag k="ssr:stedsnr" v="548781" />
		<tag k="waterway" v="stream" />
	</node>
	<node id="-214400" lat="59.3071055563" lon="9.50801944122">
		<tag k="name" v="Nordre Åletjenn" />
		<tag k="natural" v="water" />
		<tag k="old_name" v="Åletjørn" />
		<tag k="ssr:stedsnr" v="548780" />
	</node>
	<node id="-213567" lat="59.339069446" lon="9.30733056025">
		<tag k="name" v="Serketjenn" />
		<tag k="natural" v="water" />
		<tag k="ssr:stedsnr" v="147503" />
		<tag k="water" v="pond" />
	</node>
	<node id="-213566" lat="59.2258583362" lon="9.46349444502">
		<tag k="name" v="Mikkelsodden" />
		<tag k="natural" v="cape" />
		<tag k="ssr:stedsnr" v="147497" />
	</node>
	<node id="-214386" lat="59.2699416624" lon="9.46951111912">
		<tag k="name" v="Skådalstjenn" />
		<tag k="natural" v="water" />
		<tag k="old_name" v="Skådaltjørn" />
		<tag k="ssr:stedsnr" v="548665" />
	</node>
	<node id="-214382" lat="59.4217749958" lon="9.61092778301">
		<tag k="name" v="Blokketjern" />
		<tag k="natural" v="water" />
		<tag k="ssr:stedsnr" v="548559" />
	</node>
	<node id="-214381" lat="59.2771527752" lon="9.64082777208">
		<tag k="name" v="Havretjenn" />
		<tag k="natural" v="water" />
		<tag k="ssr:stedsnr" v="548492" />
	</node>
	<node id="-214370" lat="59.2005999999" lon="9.57878611063">
		<tag k="alt_name" v="Elstrøm" />
		<tag k="name" v="Farelva" />
		<tag k="ssr:stedsnr" v="547903" />
		<tag k="waterway" v="river" />
	</node>
	<node id="-214368" lat="59.1074527816" lon="9.36308332959">
		<tag k="alt_name" v="Røsstjern" />
		<tag k="name" v="Rosstjenn" />
		<tag k="natural" v="water" />
		<tag k="ssr:stedsnr" v="547819" />
	</node>
	<node id="-214367" lat="59.117558335" lon="9.25940555567">
		<tag k="name" v="Lille Eftan" />
		<tag k="natural" v="water" />
		<tag k="ssr:stedsnr" v="547809" />
	</node>
	<node id="-214365" lat="59.0804305594" lon="9.36179166026">
		<tag k="name" v="Gjerdefjorden" />
		<tag k="natural" v="water" />
		<tag k="ssr:stedsnr" v="547796" />
		<tag k="water" v="lake" />
	</node>
	<node id="-214341" lat="59.2073277739" lon="9.52848888822">
		<tag k="name" v="Skotfoss" />
		<tag k="natural" v="waterfall" />
		<tag k="ssr:stedsnr" v="533052" />
	</node>
	<node id="-214337" lat="59.1562805562" lon="9.33042500827">
		<tag k="name" v="Løkane" />
		<tag k="natural" v="water" />
		<tag k="ssr:stedsnr" v="514907" />
		<tag k="water" v="lake" />
	</node>
	<node id="-214336" lat="59.1086611107" lon="9.29285832783">
		<tag k="name" v="Kroktjennbekken" />
		<tag k="ssr:stedsnr" v="514901" />
		<tag k="waterway" v="stream" />
	</node>
	<node id="-214335" lat="59.0862055532" lon="9.31464722101">
		<tag k="name" v="Gotjenn" />
		<tag k="natural" v="water" />
		<tag k="ssr:stedsnr" v="514808" />
	</node>
	<node id="-214333" lat="59.096294446" lon="9.33119999365">
		<tag k="name" v="Elvekjeften" />
		<tag k="ssr:stedsnr" v="514784" />
		<tag k="waterway" v="river" />
	</node>
	<node id="-214332" lat="59.09793611" lon="9.28699165876">
		<tag k="name" v="Krigstjenn" />
		<tag k="natural" v="water" />
		<tag k="ssr:stedsnr" v="514771" />
	</node>
	<node id="-214321" lat="59.1950666694" lon="9.76735556239">
		<tag k="name" v="Lillebroken" />
		<tag k="natural" v="water" />
		<tag k="ssr:stedsnr" v="514037" />
	</node>
	<node id="-214318" lat="59.0851249992" lon="9.35473889753">
		<tag k="name" v="Gullskjær" />
		<tag k="place" v="islet" />
		<tag k="ssr:stedsnr" v="513714" />
	</node>
	<node id="-214317" lat="59.0608166693" lon="9.38492499803">
		<tag k="name" v="Beatestjenn" />
		<tag k="natural" v="water" />
		<tag k="ssr:stedsnr" v="513589" />
	</node>
	<node id="-214315" lat="59.060522221" lon="9.37780555909">
		<tag k="name" v="Ørnhøltjenn" />
		<tag k="natural" v="water" />
		<tag k="ssr:stedsnr" v="513582" />
	</node>
	<node id="-213212" lat="59.1186361093" lon="9.41024999425">
		<tag k="name" v="Solumkilen" />
		<tag k="natural" v="water" />
		<tag k="ssr:stedsnr" v="26219" />
	</node>
	<node id="-214306" lat="59.1409777792" lon="9.41631943665">
		<tag k="name" v="Stobukta" />
		<tag k="natural" v="bay" />
		<tag k="old_name" v="Stobukkta" />
		<tag k="ssr:stedsnr" v="513443" />
	</node>
	<node id="-214305" lat="59.1415250003" lon="9.39246666612">
		<tag k="name" v="Ulbekktangen" />
		<tag k="natural" v="cape" />
		<tag k="ssr:stedsnr" v="513435" />
	</node>
	<node id="-214298" lat="59.2726666699" lon="9.39826111373">
		<tag k="name" v="Grauteknatten" />
		<tag k="natural" v="cape" />
		<tag k="ssr:stedsnr" v="512988" />
	</node>
	<node id="-215599" lat="59.3106555573" lon="9.41251944586">
		<tag k="name" v="Brånatjennelva" />
		<tag k="ssr:stedsnr" v="937900" />
		<tag k="waterway" v="stream" />
	</node>
	<node id="-214293" lat="59.3090083299" lon="9.43452499934">
		<tag k="name" v="Sagtjenndammen" />
		<tag k="ssr:stedsnr" v="512893" />
		<tag k="waterway" v="dam" />
	</node>
	<node id="-214291" lat="59.2545027816" lon="9.42945555809">
		<tag k="name" v="Dilsdalskjæret" />
		<tag k="place" v="islet" />
		<tag k="ssr:stedsnr" v="512602" />
	</node>
	<node id="-214285" lat="59.2135083342" lon="9.37685555434">
		<tag k="name" v="Trytetjenn" />
		<tag k="natural" v="water" />
		<tag k="ssr:stedsnr" v="512312" />
	</node>
	<node id="-214281" lat="59.2221666667" lon="9.42502499429">
		<tag k="name" v="Berganbukta" />
		<tag k="natural" v="bay" />
		<tag k="ssr:stedsnr" v="512181" />
	</node>
	<node id="-214279" lat="59.2110499965" lon="9.48120555006">
		<tag k="name" v="Skurvehetta" />
		<tag k="place" v="islet" />
		<tag k="ssr:stedsnr" v="512118" />
	</node>
	<node id="-214278" lat="59.2111083316" lon="9.48607499675">
		<tag k="name" v="Sandodden" />
		<tag k="natural" v="cape" />
		<tag k="ssr:stedsnr" v="512117" />
	</node>
	<node id="-213205" lat="59.2146166623" lon="9.49165000639">
		<tag k="name" v="Ruglapollen" />
		<tag k="natural" v="bay" />
		<tag k="ssr:stedsnr" v="26078" />
	</node>
	<node id="-214260" lat="59.2209194433" lon="9.28722500268">
		<tag k="name" v="Putrevika" />
		<tag k="natural" v="bay" />
		<tag k="ssr:stedsnr" v="511814" />
	</node>
	<node id="-214250" lat="59.1514944468" lon="9.49788610977">
		<tag k="name" v="Lintjennbekken" />
		<tag k="ssr:stedsnr" v="511360" />
		<tag k="waterway" v="stream" />
	</node>
	<node id="-214248" lat="59.1303555564" lon="9.40873333189">
		<tag k="name" v="Tombukta" />
		<tag k="natural" v="water" />
		<tag k="ssr:stedsnr" v="511311" />
	</node>
	<node id="-214242" lat="59.2013555549" lon="9.33679444525">
		<tag k="name" v="Svarttjenn" />
		<tag k="natural" v="water" />
		<tag k="ssr:stedsnr" v="510395" />
	</node>
	<node id="-214235" lat="59.4453416653" lon="9.59279999528">
		<tag k="name" v="Lauvrydningsfjorden" />
		<tag k="natural" v="water" />
		<tag k="ssr:stedsnr" v="506901" />
		<tag k="water" v="lake" />
	</node>
	<node id="-213199" lat="59.1476111153" lon="9.57940278555">
		<tag k="name" v="Finndalsbekken" />
		<tag k="ssr:stedsnr" v="25872" />
		<tag k="waterway" v="stream" />
	</node>
	<node id="-214229" lat="59.337361108" lon="9.56518889405">
		<tag k="name" v="Moelva" />
		<tag k="ssr:stedsnr" v="494653" />
		<tag k="waterway" v="river" />
	</node>
	<node id="-214225" lat="59.3367583373" lon="9.44997221946">
		<tag k="name" v="Rolighetstjenn" />
		<tag k="natural" v="water" />
		<tag k="ssr:stedsnr" v="488859" />
	</node>
	<node id="-214224" lat="59.3354861153" lon="9.48659722831">
		<tag k="alt_name" v="Blæsa, øvre" />
		<tag k="name" v="Øvre Blæsa" />
		<tag k="natural" v="water" />
		<tag k="ssr:stedsnr" v="488855" />
	</node>
	<node id="-214218" lat="59.2889416668" lon="9.43306944036">
		<tag k="name" v="Ormetjenn" />
		<tag k="natural" v="water" />
		<tag k="old_name" v="Ormtjørn" />
		<tag k="ssr:stedsnr" v="488689" />
	</node>
	<node id="-214216" lat="59.4486805534" lon="9.42292221469">
		<tag k="name" v="Grotjønn" />
		<tag k="natural" v="water" />
		<tag k="ssr:stedsnr" v="488949" />
	</node>
	<node id="-214215" lat="59.3920111094" lon="9.49681110619">
		<tag k="name" v="Kleivedalsbekken" />
		<tag k="ssr:stedsnr" v="488923" />
		<tag k="waterway" v="stream" />
	</node>
	<node id="-214210" lat="59.423433336" lon="9.3955749966">
		<tag k="name" v="Sandtjønn" />
		<tag k="natural" v="water" />
		<tag k="ssr:stedsnr" v="487967" />
	</node>
	<node id="-214208" lat="59.1572888893" lon="9.37375277662">
		<tag k="name" v="Ulevannet" />
		<tag k="natural" v="water" />
		<tag k="ssr:stedsnr" v="487960" />
	</node>
	<node id="-214204" lat="59.3604249985" lon="9.55555832502">
		<tag k="name" v="Kalveøyane" />
		<tag k="place" v="islet" />
		<tag k="ssr:stedsnr" v="487843" />
	</node>
	<node id="-214203" lat="59.3677722212" lon="9.37688611661">
		<tag k="name" v="Belatjønn" />
		<tag k="natural" v="water" />
		<tag k="ssr:stedsnr" v="487833" />
	</node>
	<node id="-214200" lat="59.3027194423" lon="9.53355833428">
		<tag k="name" v="Stulvann" />
		<tag k="natural" v="water" />
		<tag k="ssr:stedsnr" v="487813" />
	</node>
	<node id="-214198" lat="59.3085000031" lon="9.49103332983">
		<tag k="name" v="Røyvannet" />
		<tag k="natural" v="water" />
		<tag k="ssr:stedsnr" v="487803" />
		<tag k="water" v="lake" />
	</node>
	<node id="-214194" lat="59.3154000033" lon="9.53018056199">
		<tag k="name" v="Ormtjenn" />
		<tag k="natural" v="water" />
		<tag k="old_name" v="Ormtjørn" />
		<tag k="ssr:stedsnr" v="487793" />
	</node>
	<node id="-214193" lat="59.3143416649" lon="9.50181111025">
		<tag k="alt_name" v="Bjørtjern" />
		<tag k="name" v="Bevertjenn" />
		<tag k="natural" v="water" />
		<tag k="ssr:stedsnr" v="487789" />
	</node>
	<node id="-214192" lat="59.1049277793" lon="9.34074167383">
		<tag k="alt_name" v="Grevstjern" />
		<tag k="name" v="Grevstjenn" />
		<tag k="natural" v="water" />
		<tag k="ssr:stedsnr" v="487785" />
	</node>
	<node id="-214190" lat="59.3126444421" lon="9.40845278466">
		<tag k="name" v="Mortetjenn" />
		<tag k="natural" v="water" />
		<tag k="old_name" v="Mortetjørn" />
		<tag k="ssr:stedsnr" v="487783" />
	</node>
	<node id="-214189" lat="59.1937027783" lon="9.65550833568">
		<tag k="name" v="Leirkup" />
		<tag k="ssr:stedsnr" v="487743" />
		<tag k="waterway" v="stream" />
	</node>
	<node id="-212850" lat="59.242150003" lon="9.46703888164">
		<tag k="name" v="Svartebekk" />
		<tag k="ssr:stedsnr" v="330575" />
		<tag k="waterway" v="stream" />
	</node>
	<node id="-214181" lat="59.2959361131" lon="9.60112499272">
		<tag k="name" v="Venstøptjenn" />
		<tag k="natural" v="water" />
		<tag k="ssr:stedsnr" v="487427" />
		<tag k="water" v="lake" />
	</node>
	<node id="-213190" lat="59.1931333338" lon="9.32165555577">
		<tag k="name" v="Perskåsbekken" />
		<tag k="ssr:stedsnr" v="25400" />
		<tag k="waterway" v="stream" />
	</node>
	<node id="-212848" lat="59.2204000033" lon="9.27502222709">
		<tag k="name" v="Tolløya" />
		<tag k="natural" v="cape" />
		<tag k="ssr:stedsnr" v="330399" />
	</node>
	<node id="-214173" lat="59.1298333345" lon="9.38843610894">
		<tag k="alt_name" v="Frønestjern" />
		<tag k="name" v="Frønestjenn" />
		<tag k="natural" v="water" />
		<tag k="ssr:stedsnr" v="486806" />
	</node>
	<node id="-214172" lat="59.2466249957" lon="9.52725000116">
		<tag k="name" v="Ulvsvann" />
		<tag k="natural" v="water" />
		<tag k="ssr:stedsnr" v="486047" />
	</node>
	<node id="-214161" lat="59.1857361106" lon="9.68164999438">
		<tag k="name" v="Grønnerødbekken" />
		<tag k="ssr:stedsnr" v="454600" />
		<tag k="waterway" v="stream" />
	</node>
	<node id="-214158" lat="59.1493833326" lon="9.25707499675">
		<tag k="name" v="Høydalselva" />
		<tag k="ssr:stedsnr" v="454191" />
		<tag k="waterway" v="river" />
	</node>
	<node id="-214155" lat="59.1026027815" lon="9.3191222277">
		<tag k="name" v="Gibuelva" />
		<tag k="ssr:stedsnr" v="453928" />
		<tag k="waterway" v="river" />
	</node>
	<node id="-214154" lat="59.1137972228" lon="9.30018611463">
		<tag k="name" v="Gibuputt" />
		<tag k="natural" v="water" />
		<tag k="ssr:stedsnr" v="453927" />
		<tag k="water" v="pond" />
	</node>
	<node id="-214152" lat="59.0956833308" lon="9.28567499194">
		<tag k="name" v="Småtjennane" />
		<tag k="natural" v="water" />
		<tag k="ssr:stedsnr" v="453831" />
	</node>
	<node id="-214892" lat="59.1346444487" lon="9.30533611906">
		<tag k="name" v="Lille Rørtjenn" />
		<tag k="natural" v="water" />
		<tag k="ssr:stedsnr" v="696605" />
	</node>
	<node id="-214143" lat="59.0808777739" lon="9.3703861091">
		<tag k="name" v="Smauet" />
		<tag k="natural" v="strait" />
		<tag k="ssr:stedsnr" v="453609" />
	</node>
	<node id="-214139" lat="59.0744333342" lon="9.40178333848">
		<tag k="name" v="Sandtangen" />
		<tag k="natural" v="cape" />
		<tag k="ssr:stedsnr" v="453089" />
	</node>
	<node id="-214124" lat="59.1054083329" lon="9.4531583268">
		<tag k="name" v="Svarttjenn" />
		<tag k="natural" v="water" />
		<tag k="ssr:stedsnr" v="452056" />
		<tag k="water" v="pond" />
	</node>
	<node id="-214122" lat="59.2807749991" lon="9.4177638854">
		<tag k="name" v="Harafjellmyr" />
		<tag k="natural" v="water" />
		<tag k="ssr:stedsnr" v="451978" />
	</node>
	<node id="-214120" lat="59.057266663" lon="9.39367778643">
		<tag k="name" v="Svarttjenn" />
		<tag k="natural" v="water" />
		<tag k="ssr:stedsnr" v="451943" />
	</node>
	<node id="-214118" lat="59.1871249958" lon="9.45743611823">
		<tag k="name" v="Kroktjenn" />
		<tag k="natural" v="water" />
		<tag k="ssr:stedsnr" v="451929" />
		<tag k="water" v="pond" />
	</node>
	<node id="-214116" lat="59.0938277794" lon="9.45086388249">
		<tag k="name" v="Vassbotkilen" />
		<tag k="natural" v="bay" />
		<tag k="ssr:stedsnr" v="451912" />
	</node>
	<node id="-213520" lat="59.3582638858" lon="9.58600555">
		<tag k="name" v="Lilleøkterelva" />
		<tag k="ssr:stedsnr" v="141758" />
		<tag k="waterway" v="river" />
	</node>
	<node id="-214105" lat="59.2413111076" lon="9.5132250086">
		<tag k="name" v="Svarttjenn" />
		<tag k="natural" v="water" />
		<tag k="ssr:stedsnr" v="451304" />
	</node>
	<node id="-213176" lat="59.4200111091" lon="9.51308056169">
		<tag k="name" v="Besstulelva" />
		<tag k="ssr:stedsnr" v="2973" />
		<tag k="waterway" v="river" />
	</node>
	<node id="-214090" lat="59.1887166649" lon="9.49785000654">
		<tag k="name" v="Lomøya" />
		<tag k="place" v="island" />
		<tag k="ssr:stedsnr" v="450881" />
	</node>
	<node id="-214082" lat="59.1398416632" lon="9.52069444966">
		<tag k="name" v="Eltveitbekken" />
		<tag k="ssr:stedsnr" v="450536" />
		<tag k="waterway" v="stream" />
	</node>
	<node id="-214079" lat="59.2021555557" lon="9.32666388568">
		<tag k="name" v="Kvernhustrangen" />
		<tag k="place" v="locality" />
		<tag k="ssr:stedsnr" v="450402" />
	</node>
	<node id="-214069" lat="59.2579749969" lon="9.61060000312">
		<tag k="name" v="Holmseterbekken" />
		<tag k="ssr:stedsnr" v="446903" />
		<tag k="waterway" v="stream" />
	</node>
	<node id="-214068" lat="59.3679444427" lon="9.401433334">
		<tag k="name" v="Skrubbfoss" />
		<tag k="natural" v="waterfall" />
		<tag k="ssr:stedsnr" v="446783" />
	</node>
	<node id="-214067" lat="59.4287305531" lon="9.48323055103">
		<tag k="name" v="Lauvseterbekken" />
		<tag k="ssr:stedsnr" v="446775" />
		<tag k="waterway" v="stream" />
	</node>
	<node id="-214877" lat="59.1586250018" lon="9.41121944905">
		<tag k="name" v="Øvre Bjørnsund" />
		<tag k="natural" v="strait" />
		<tag k="ssr:stedsnr" v="695600" />
	</node>
	<node id="-214060" lat="59.2466194422" lon="9.42981111769">
		<tag k="name" v="Vasdalsholmane" />
		<tag k="place" v="islet" />
		<tag k="ssr:stedsnr" v="445773" />
	</node>
	<node id="-214055" lat="59.4315138865" lon="9.41941111198">
		<tag k="name" v="Mjågetjønn" />
		<tag k="natural" v="water" />
		<tag k="ssr:stedsnr" v="427976" />
	</node>
	<node id="-214054" lat="59.4316861096" lon="9.45498055357">
		<tag k="name" v="Ørjevatnet" />
		<tag k="natural" v="water" />
		<tag k="ssr:stedsnr" v="427975" />
		<tag k="water" v="lake" />
	</node>
	<node id="-214052" lat="59.438433333" lon="9.43773888308">
		<tag k="name" v="Blekktjønn" />
		<tag k="natural" v="water" />
		<tag k="ssr:stedsnr" v="427960" />
	</node>
	<node id="-214050" lat="59.152741663" lon="9.35983055328">
		<tag k="name" v="Dønjanbekken" />
		<tag k="ssr:stedsnr" v="427953" />
		<tag k="waterway" v="stream" />
	</node>
	<node id="-214049" lat="59.441741664" lon="9.56339722363">
		<tag k="name" v="Storøya" />
		<tag k="place" v="islet" />
		<tag k="ssr:stedsnr" v="427948" />
	</node>
	<node id="-214046" lat="59.375280552" lon="9.40598888422">
		<tag k="name" v="Gyristulvatn" />
		<tag k="natural" v="water" />
		<tag k="ssr:stedsnr" v="427915" />
	</node>
	<node id="-214045" lat="59.3940999987" lon="9.48190832601">
		<tag k="name" v="Grantjønn" />
		<tag k="natural" v="water" />
		<tag k="ssr:stedsnr" v="427913" />
	</node>
	<node id="-214043" lat="59.4019444445" lon="9.4419361102">
		<tag k="alt_name" v="Langeløk, vestre" />
		<tag k="name" v="Vestre Langeløk" />
		<tag k="natural" v="water" />
		<tag k="ssr:stedsnr" v="427888" />
	</node>
	<node id="-214041" lat="59.3988416687" lon="9.55763055273">
		<tag k="name" v="Økterelva" />
		<tag k="ssr:stedsnr" v="427879" />
		<tag k="waterway" v="river" />
	</node>
	<node id="-214032" lat="59.3304638877" lon="9.40960000617">
		<tag k="name" v="Store Gardvann" />
		<tag k="natural" v="water" />
		<tag k="ssr:stedsnr" v="427824" />
		<tag k="water" v="lake" />
	</node>
	<node id="-214031" lat="59.343697218" lon="9.29900000427">
		<tag k="name" v="Kroktjenn" />
		<tag k="natural" v="water" />
		<tag k="ssr:stedsnr" v="427815" />
	</node>
	<node id="-214028" lat="59.3693750022" lon="9.4971000046">
		<tag k="name" v="Døletjenn" />
		<tag k="natural" v="water" />
		<tag k="ssr:stedsnr" v="427783" />
	</node>
	<node id="-214024" lat="59.3090499999" lon="9.39460834051">
		<tag k="name" v="Drivetjern" />
		<tag k="natural" v="water" />
		<tag k="ssr:stedsnr" v="427760" />
	</node>
	<node id="-214022" lat="59.3116749981" lon="9.56839166511">
		<tag k="name" v="Skriusæterbekken" />
		<tag k="ssr:stedsnr" v="427742" />
		<tag k="waterway" v="stream" />
	</node>
	<node id="-214870" lat="59.1153861123" lon="9.41366388884">
		<tag k="name" v="Grindebekken" />
		<tag k="ssr:stedsnr" v="695210" />
		<tag k="waterway" v="stream" />
	</node>
	<node id="-214017" lat="59.2625638894" lon="9.49723054876">
		<tag k="name" v="Magnettjenn" />
		<tag k="natural" v="water" />
		<tag k="old_name" v="Magnettjørn" />
		<tag k="ssr:stedsnr" v="427677" />
	</node>
	<node id="-214012" lat="59.26578889" lon="9.53410832899">
		<tag k="alt_name" v="Skriubekken" />
		<tag k="name" v="Grønsteinbekken" />
		<tag k="ssr:stedsnr" v="427641" />
		<tag k="waterway" v="stream" />
	</node>
	<node id="-214009" lat="59.2470694477" lon="9.71668889187">
		<tag k="name" v="Skisjø" />
		<tag k="natural" v="water" />
		<tag k="ssr:stedsnr" v="427626" />
		<tag k="water" v="lake" />
	</node>
	<node id="-214005" lat="59.2808833353" lon="9.61767499921">
		<tag k="name" v="Setertjenn" />
		<tag k="natural" v="water" />
		<tag k="ssr:stedsnr" v="427490" />
	</node>
	<node id="-214004" lat="59.275624998" lon="9.62030277664">
		<tag k="name" v="Linddalstjenn" />
		<tag k="natural" v="water" />
		<tag k="ssr:stedsnr" v="427489" />
	</node>
	<node id="-214000" lat="59.3839361088" lon="9.60730554922">
		<tag k="name" v="Blåfjellstjernet" />
		<tag k="natural" v="water" />
		<tag k="ssr:stedsnr" v="427312" />
	</node>
	<node id="-213996" lat="59.1768250038" lon="9.29313888369">
		<tag k="name" v="Reiarsvann" />
		<tag k="natural" v="water" />
		<tag k="ssr:stedsnr" v="426991" />
		<tag k="water" v="lake" />
	</node>
	<node id="-213988" lat="59.1903833355" lon="9.39111944357">
		<tag k="alt_name" v="Marumtjern" />
		<tag k="name" v="Marumtjenn" />
		<tag k="natural" v="water" />
		<tag k="ssr:stedsnr" v="426890" />
	</node>
	<node id="-213983" lat="59.10144167" lon="9.4396499967">
		<tag k="name" v="Brekkefjorden" />
		<tag k="natural" v="water" />
		<tag k="ssr:stedsnr" v="426779" />
		<tag k="water" v="lake" />
	</node>
	<node id="-213962" lat="59.2121805561" lon="9.32828055048">
		<tag k="name" v="Blautebekk" />
		<tag k="ssr:stedsnr" v="268814" />
		<tag k="waterway" v="stream" />
	</node>
	<node id="-213955" lat="59.1898805596" lon="9.38414167435">
		<tag k="name" v="Svarttjenn" />
		<tag k="natural" v="water" />
		<tag k="ssr:stedsnr" v="268461" />
	</node>
	<node id="-213953" lat="59.2266527789" lon="9.52828055371">
		<tag k="name" v="Hesjebekken" />
		<tag k="ssr:stedsnr" v="268242" />
		<tag k="waterway" v="stream" />
	</node>
	<node id="-213948" lat="59.2218083296" lon="9.28975277379">
		<tag k="name" v="Håtveitdammen" />
		<tag k="ssr:stedsnr" v="267859" />
		<tag k="waterway" v="dam" />
	</node>
	<node id="-214175" lat="59.2216416672" lon="9.71409445208">
		<tag k="name" v="Blåfjellbekken" />
		<tag k="ssr:stedsnr" v="486749" />
		<tag k="waterway" v="stream" />
	</node>
	<node id="-213941" lat="59.1962111154" lon="9.77413056267">
		<tag k="name" v="Gorrtjenn" />
		<tag k="natural" v="water" />
		<tag k="ssr:stedsnr" v="263989" />
	</node>
	<node id="-213934" lat="59.3706472185" lon="9.39794721603">
		<tag k="name" v="Gyristulelva" />
		<tag k="ssr:stedsnr" v="263784" />
		<tag k="waterway" v="river" />
	</node>
	<node id="-213929" lat="59.4285194428" lon="9.43146667277">
		<tag k="name" v="Grantjønn" />
		<tag k="natural" v="water" />
		<tag k="ssr:stedsnr" v="245975" />
	</node>
	<node id="-213928" lat="59.4412027741" lon="9.49957777251">
		<tag k="name" v="Åslivasselva" />
		<tag k="ssr:stedsnr" v="245963" />
		<tag k="waterway" v="stream" />
	</node>
	<node id="-213927" lat="59.4420499994" lon="9.40700555017">
		<tag k="name" v="Steintjønn" />
		<tag k="natural" v="water" />
		<tag k="ssr:stedsnr" v="245957" />
	</node>
	<node id="-213926" lat="59.4459222246" lon="9.56217778532">
		<tag k="name" v="Økteren" />
		<tag k="natural" v="water" />
		<tag k="ssr:stedsnr" v="245945" />
		<tag k="water" v="lake" />
	</node>
	<node id="-213922" lat="59.3805416624" lon="9.40072222837">
		<tag k="name" v="Langvatn" />
		<tag k="natural" v="water" />
		<tag k="ssr:stedsnr" v="245916" />
	</node>
	<node id="-213919" lat="59.416052777" lon="9.45315555518">
		<tag k="name" v="Håkastultjønn" />
		<tag k="natural" v="water" />
		<tag k="ssr:stedsnr" v="245884" />
	</node>
	<node id="-213918" lat="59.3222472205" lon="9.28958610502">
		<tag k="name" v="Kjosvikbukta" />
		<tag k="natural" v="bay" />
		<tag k="ssr:stedsnr" v="245869" />
	</node>
	<node id="-213913" lat="59.3001833349" lon="9.33321111477">
		<tag k="name" v="Høgsetodden" />
		<tag k="natural" v="cape" />
		<tag k="ssr:stedsnr" v="245795" />
	</node>
	<node id="-213912" lat="59.2948583339" lon="9.52176388518">
		<tag k="name" v="Sandåa" />
		<tag k="ssr:stedsnr" v="245786" />
		<tag k="waterway" v="stream" />
	</node>
	<node id="-213908" lat="59.3213138877" lon="9.51261111537">
		<tag k="name" v="Lindalselva" />
		<tag k="ssr:stedsnr" v="245726" />
		<tag k="waterway" v="river" />
	</node>
	<node id="-213905" lat="59.275933334" lon="9.43503611759">
		<tag k="name" v="Kvernhusbekken" />
		<tag k="ssr:stedsnr" v="245714" />
		<tag k="waterway" v="stream" />
	</node>
	<node id="-213901" lat="59.2862416701" lon="9.46867500651">
		<tag k="name" v="Vardetjenn" />
		<tag k="natural" v="water" />
		<tag k="old_name" v="Vardetjørn" />
		<tag k="ssr:stedsnr" v="245681" />
	</node>
	<node id="-213896" lat="59.2495277747" lon="9.47370277067">
		<tag k="name" v="Langetjenn" />
		<tag k="natural" v="water" />
		<tag k="old_name" v="Langetjørn" />
		<tag k="ssr:stedsnr" v="245645" />
	</node>
	<node id="-213893" lat="59.2614055588" lon="9.42383888845">
		<tag k="name" v="Ålroen" />
		<tag k="natural" v="bay" />
		<tag k="ssr:stedsnr" v="245604" />
	</node>
	<node id="-213892" lat="59.429466665" lon="9.59756388609">
		<tag k="name" v="Kroktjern" />
		<tag k="natural" v="water" />
		<tag k="ssr:stedsnr" v="245502" />
	</node>
	<node id="-213887" lat="59.4555611132" lon="9.57130556336">
		<tag k="name" v="Dugurdstjenn" />
		<tag k="natural" v="water" />
		<tag k="ssr:stedsnr" v="245008" />
	</node>
	<node id="-213886" lat="59.1675305574" lon="9.29532499964">
		<tag k="name" v="Grasdalsvannet" />
		<tag k="natural" v="water" />
		<tag k="ssr:stedsnr" v="244991" />
		<tag k="water" v="lake" />
	</node>
	<node id="-213884" lat="59.1440305548" lon="9.28816944653">
		<tag k="alt_name" v="Haugtjerna, nedre" />
		<tag k="name" v="Nedre Haugtjenn" />
		<tag k="natural" v="water" />
		<tag k="ssr:stedsnr" v="244958" />
	</node>
	<node id="-213879" lat="59.2268611121" lon="9.53342778545">
		<tag k="name" v="Åletjern" />
		<tag k="natural" v="water" />
		<tag k="ssr:stedsnr" v="244937" />
	</node>
	<node id="-213877" lat="59.2115166658" lon="9.47677777031">
		<tag k="name" v="Kjeøya" />
		<tag k="place" v="island" />
		<tag k="ssr:stedsnr" v="244928" />
	</node>
	<node id="-213874" lat="59.0766861145" lon="9.33125277317">
		<tag k="name" v="Håvannet" />
		<tag k="natural" v="water" />
		<tag k="ssr:stedsnr" v="244875" />
		<tag k="water" v="lake" />
	</node>
	<node id="-213843" lat="59.196641668" lon="9.61403333478">
		<tag k="name" v="Måkeodden" />
		<tag k="natural" v="cape" />
		<tag k="ssr:stedsnr" v="231337" />
	</node>
	<node id="-213842" lat="59.2009444404" lon="9.61409444904">
		<tag k="name" v="Katteskjæret" />
		<tag k="place" v="islet" />
		<tag k="ssr:stedsnr" v="230267" />
	</node>
	<node id="-213132" lat="59.0469777761" lon="9.42125555074">
		<tag k="alt_name" v="Rørholtlangen" />
		<tag k="name" v="Langen" />
		<tag k="natural" v="water" />
		<tag k="ssr:stedsnr" v="1836" />
		<tag k="water" v="lake" />
	</node>
	<node id="-213827" lat="59.1395611133" lon="9.28913055962">
		<tag k="name" v="Tvitindtjenn" />
		<tag k="natural" v="water" />
		<tag k="ssr:stedsnr" v="211591" />
	</node>
	<node id="-213826" lat="59.1308805581" lon="9.30549722709">
		<tag k="name" v="Dauhaugtjenn" />
		<tag k="natural" v="water" />
		<tag k="ssr:stedsnr" v="211586" />
	</node>
	<node id="-213825" lat="59.1391138926" lon="9.24187500541">
		<tag k="name" v="Sagtjenn" />
		<tag k="natural" v="water" />
		<tag k="ssr:stedsnr" v="211535" />
		<tag k="water" v="pond" />
	</node>
	<node id="-213821" lat="59.161849998" lon="9.30461389541">
		<tag k="name" v="Serktjenn" />
		<tag k="natural" v="water" />
		<tag k="ssr:stedsnr" v="211219" />
		<tag k="water" v="pond" />
	</node>
	<node id="-213820" lat="59.1728361076" lon="9.25670832802">
		<tag k="name" v="Butjern" />
		<tag k="natural" v="water" />
		<tag k="ssr:stedsnr" v="211018" />
	</node>
	<node id="-213807" lat="59.134755556" lon="9.46420555338">
		<tag k="name" v="Bjorstadbekken" />
		<tag k="ssr:stedsnr" v="210174" />
		<tag k="waterway" v="stream" />
	</node>
	<node id="-213804" lat="59.0827777777" lon="9.42953888949">
		<tag k="name" v="Åslandsdammen" />
		<tag k="ssr:stedsnr" v="210120" />
		<tag k="waterway" v="dam" />
	</node>
	<node id="-213802" lat="59.0856722206" lon="9.4381027816">
		<tag k="name" v="Kjennkåstjenn" />
		<tag k="natural" v="water" />
		<tag k="ssr:stedsnr" v="210104" />
	</node>
	<node id="-213801" lat="59.0867777808" lon="9.40282777219">
		<tag k="name" v="Bleikelibekken" />
		<tag k="ssr:stedsnr" v="210098" />
		<tag k="waterway" v="stream" />
	</node>
	<node id="-213797" lat="59.2938444414" lon="9.40520554707">
		<tag k="name" v="Rompetjennbekken" />
		<tag k="ssr:stedsnr" v="209873" />
		<tag k="waterway" v="stream" />
	</node>
	<node id="-213788" lat="59.0607444403" lon="9.40364444535">
		<tag k="name" v="Gryttjenn" />
		<tag k="natural" v="water" />
		<tag k="ssr:stedsnr" v="208944" />
	</node>
	<node id="-214830" lat="59.1336999991" lon="9.39782777245">
		<tag k="name" v="Svarttjennbekken" />
		<tag k="ssr:stedsnr" v="693361" />
		<tag k="waterway" v="stream" />
	</node>
	<node id="-213777" lat="59.3173999994" lon="9.55363333955">
		<tag k="name" v="Kvernhusfossen" />
		<tag k="ssr:stedsnr" v="208780" />
		<tag k="waterway" v="rapids" />
	</node>
	<node id="-213775" lat="59.2214749961" lon="9.53220556351">
		<tag k="name" v="Søndre Trytetjenn" />
		<tag k="natural" v="water" />
		<tag k="ssr:stedsnr" v="208716" />
	</node>
	<node id="-213773" lat="59.0983083353" lon="9.34666388703">
		<tag k="name" v="Kallestadtjenn" />
		<tag k="natural" v="water" />
		<tag k="ssr:stedsnr" v="208672" />
	</node>
	<node id="-213761" lat="59.1360277809" lon="9.40205278557">
		<tag k="name" v="Grindstøholmane" />
		<tag k="place" v="island" />
		<tag k="ssr:stedsnr" v="208327" />
	</node>
	<node id="-213759" lat="59.2454416689" lon="9.52040555989">
		<tag k="name" v="Sæterbekken" />
		<tag k="ssr:stedsnr" v="208283" />
		<tag k="waterway" v="stream" />
	</node>
	<node id="-213752" lat="59.2068916639" lon="9.4510499923">
		<tag k="name" v="Valsfjelltjenn" />
		<tag k="natural" v="water" />
		<tag k="ssr:stedsnr" v="208107" />
	</node>
	<node id="-213751" lat="59.2050944424" lon="9.48586388586">
		<tag k="name" v="Haukenesbogen" />
		<tag k="natural" v="bay" />
		<tag k="ssr:stedsnr" v="208105" />
	</node>
	<node id="-213743" lat="59.1856611132" lon="9.37201667127">
		<tag k="name" v="Paddetjenn" />
		<tag k="natural" v="water" />
		<tag k="ssr:stedsnr" v="207438" />
		<tag k="water" v="pond" />
	</node>
	<node id="-213742" lat="59.1930638865" lon="9.38579165925">
		<tag k="name" v="Nordtjenn" />
		<tag k="natural" v="water" />
		<tag k="ssr:stedsnr" v="207427" />
	</node>
	<node id="-213740" lat="59.2154666709" lon="9.43327777078">
		<tag k="name" v="Melumbekken" />
		<tag k="ssr:stedsnr" v="207146" />
		<tag k="waterway" v="stream" />
	</node>
	<node id="-213737" lat="59.2041888858" lon="9.73627778076">
		<tag k="name" v="Igletjenn" />
		<tag k="natural" v="water" />
		<tag k="ssr:stedsnr" v="203879" />
	</node>
	<node id="-213730" lat="59.2678861079" lon="9.41029166189">
		<tag k="name" v="Mastdalsskjæret" />
		<tag k="place" v="islet" />
		<tag k="ssr:stedsnr" v="202766" />
	</node>
	<node id="-213727" lat="59.4151000027" lon="9.39244723042">
		<tag k="name" v="Naretjønn" />
		<tag k="natural" v="water" />
		<tag k="ssr:stedsnr" v="184986" />
	</node>
	<node id="-213725" lat="59.4455833297" lon="9.53087777448">
		<tag k="name" v="Besstultjenn" />
		<tag k="natural" v="water" />
		<tag k="ssr:stedsnr" v="184942" />
	</node>
	<node id="-213724" lat="59.4524805561" lon="9.46810000549">
		<tag k="name" v="Eiangselva" />
		<tag k="ssr:stedsnr" v="184939" />
		<tag k="waterway" v="stream" />
	</node>
	<node id="-213722" lat="59.4534166691" lon="9.4311083415">
		<tag k="name" v="Steinbruvatn" />
		<tag k="natural" v="water" />
		<tag k="ssr:stedsnr" v="184936" />
		<tag k="water" v="lake" />
	</node>
	<node id="-213719" lat="59.3944805516" lon="9.42580000222">
		<tag k="name" v="Svanstulvatn" />
		<tag k="natural" v="water" />
		<tag k="ssr:stedsnr" v="184879" />
		<tag k="water" v="lake" />
	</node>
	<node id="-213716" lat="59.326572219" lon="9.3481805494">
		<tag k="alt_name" v="Dalstjern" />
		<tag k="name" v="Dalstjenn" />
		<tag k="natural" v="water" />
		<tag k="ssr:stedsnr" v="184840" />
	</node>
	<node id="-213713" lat="59.353602775" lon="9.40860000821">
		<tag k="name" v="Nedre Kjerringtjern" />
		<tag k="natural" v="water" />
		<tag k="ssr:stedsnr" v="184814" />
	</node>
	<node id="-213709" lat="59.292922222" lon="9.32428888571">
		<tag k="name" v="Valøya" />
		<tag k="place" v="island" />
		<tag k="ssr:stedsnr" v="184714" />
	</node>
	<node id="-213703" lat="59.2969305521" lon="9.39801944321">
		<tag k="name" v="Igletjenn" />
		<tag k="natural" v="water" />
		<tag k="old_name" v="Igletjørn" />
		<tag k="ssr:stedsnr" v="184790" />
	</node>
	<node id="-213702" lat="59.2993472221" lon="9.49441111307">
		<tag k="name" v="Nisterudtjenn" />
		<tag k="natural" v="water" />
		<tag k="old_name" v="Nisterudtjørn" />
		<tag k="ssr:stedsnr" v="184789" />
	</node>
	<node id="-214817" lat="59.2045222212" lon="9.32599166002">
		<tag k="name" v="Blivarevet" />
		<tag k="place" v="locality" />
		<tag k="ssr:stedsnr" v="692624" />
	</node>
	<node id="-213696" lat="59.2878722196" lon="9.57872499146">
		<tag k="name" v="Brynebekken" />
		<tag k="ssr:stedsnr" v="184697" />
		<tag k="waterway" v="stream" />
	</node>
	<node id="-213686" lat="59.2916638918" lon="9.59372223054">
		<tag k="name" v="Levorstjenn" />
		<tag k="natural" v="water" />
		<tag k="ssr:stedsnr" v="184380" />
	</node>
	<node id="-213685" lat="59.1728361076" lon="9.25670832802">
		<tag k="alt_name" v="Butjern" />
		<tag k="name" v="Butjenn" />
		<tag k="natural" v="water" />
		<tag k="ssr:stedsnr" v="184248" />
	</node>
	<node id="-213683" lat="59.4723944456" lon="9.5115305608">
		<tag k="name" v="Midttjønn" />
		<tag k="natural" v="water" />
		<tag k="ssr:stedsnr" v="184031" />
	</node>
	<node id="-213682" lat="59.1751250008" lon="9.34465834132">
		<tag k="alt_name" v="Skiftestjern" />
		<tag k="name" v="Skiftetjenn" />
		<tag k="natural" v="water" />
		<tag k="ssr:stedsnr" v="183993" />
	</node>
	<node id="-213681" lat="59.1782555584" lon="9.47705277934">
		<tag k="alt_name" v="Dammyr" />
		<tag k="name" v="Dammyrtjenn" />
		<tag k="natural" v="water" />
		<tag k="ssr:stedsnr" v="183987" />
	</node>
	<node id="-213680" lat="59.1717416708" lon="9.39803055291">
		<tag k="alt_name" v="Almundtjern" />
		<tag k="name" v="Almundtjenn" />
		<tag k="natural" v="water" />
		<tag k="ssr:stedsnr" v="183973" />
	</node>
	<node id="-213671" lat="59.4771583293" lon="9.50595555804">
		<tag k="name" v="Kroktjønn" />
		<tag k="natural" v="water" />
		<tag k="ssr:stedsnr" v="184029" />
	</node>
	<node id="-213670" lat="59.4697083357" lon="9.49643333041">
		<tag k="name" v="Sondalstjønn" />
		<tag k="natural" v="water" />
		<tag k="ssr:stedsnr" v="184020" />
	</node>
	<node id="-213669" lat="59.4628166644" lon="9.47459999951">
		<tag k="name" v="Bruretjønn" />
		<tag k="natural" v="water" />
		<tag k="ssr:stedsnr" v="184009" />
	</node>
	<node id="-213667" lat="59.1367194409" lon="9.40657500009">
		<tag k="name" v="Kilevann" />
		<tag k="natural" v="water" />
		<tag k="ssr:stedsnr" v="183813" />
		<tag k="water" v="lake" />
	</node>
	<node id="-213665" lat="59.1127111078" lon="9.36929166123">
		<tag k="alt_name" v="Igletjern" />
		<tag k="name" v="Igletjenn" />
		<tag k="natural" v="water" />
		<tag k="ssr:stedsnr" v="183809" />
	</node>
	<node id="-213663" lat="59.2287111116" lon="9.61614166296">
		<tag k="name" v="Børsesjø" />
		<tag k="natural" v="water" />
		<tag k="ssr:stedsnr" v="183741" />
		<tag k="water" v="lake" />
	</node>
	<node id="-213657" lat="59.2392888866" lon="9.50103332605">
		<tag k="alt_name" v="Grunntjern" />
		<tag k="name" v="Grunntjenn" />
		<tag k="natural" v="water" />
		<tag k="ssr:stedsnr" v="183054" />
	</node>
	<node id="-213651" lat="59.1066888848" lon="9.34271111499">
		<tag k="name" v="Håvardstjennbekken" />
		<tag k="ssr:stedsnr" v="268642" />
		<tag k="waterway" v="stream" />
	</node>
	<node id="-213640" lat="59.1901978352" lon="9.62295761711">
		<tag k="name" v="Mørkholbåen" />
		<tag k="place" v="locality" />
		<tag k="seamark:type" v="rock" />
		<tag k="ssr:stedsnr" v="170410" />
	</node>
	<node id="-213638" lat="59.2003388932" lon="9.54841110627">
		<tag k="name" v="Hentibekken" />
		<tag k="ssr:stedsnr" v="169037" />
		<tag k="waterway" v="stream" />
	</node>
	<node id="-213633" lat="59.2130166668" lon="9.50763888911">
		<tag k="name" v="Omdalsbekken" />
		<tag k="ssr:stedsnr" v="268626" />
		<tag k="waterway" v="stream" />
	</node>
	<node id="-213631" lat="59.1968055575" lon="9.51141111752">
		<tag k="name" v="Steinsvika" />
		<tag k="natural" v="water" />
		<tag k="ssr:stedsnr" v="268593" />
	</node>
	<node id="-213625" lat="59.1265444421" lon="9.25298611523">
		<tag k="name" v="Mosvannselva" />
		<tag k="ssr:stedsnr" v="150552" />
		<tag k="waterway" v="river" />
	</node>
	<node id="-213623" lat="59.1817722264" lon="9.32503888705">
		<tag k="name" v="Gåstjenn" />
		<tag k="natural" v="water" />
		<tag k="ssr:stedsnr" v="150233" />
	</node>
	<node id="-213622" lat="59.0914944473" lon="9.31086388099">
		<tag k="name" v="Elgstjenn" />
		<tag k="natural" v="water" />
		<tag k="ssr:stedsnr" v="149825" />
	</node>
	<node id="-213619" lat="59.1700361099" lon="9.6953111189">
		<tag k="name" v="Fossejordbekken" />
		<tag k="ssr:stedsnr" v="149776" />
		<tag k="waterway" v="stream" />
	</node>
	<node id="-213618" lat="59.1748305546" lon="9.69997777786">
		<tag k="name" v="Langerødbekken" />
		<tag k="ssr:stedsnr" v="149773" />
		<tag k="waterway" v="stream" />
	</node>
	<node id="-213615" lat="59.0767388926" lon="9.35823611294">
		<tag k="name" v="Småtjennane" />
		<tag k="natural" v="water" />
		<tag k="ssr:stedsnr" v="149610" />
	</node>
	<node id="-213607" lat="59.0729888909" lon="9.35185000311">
		<tag k="name" v="Håvtjennane" />
		<tag k="natural" v="water" />
		<tag k="ssr:stedsnr" v="148560" />
	</node>
	<node id="-213605" lat="59.1552666692" lon="9.41690554858">
		<tag k="name" v="Nedre Bjørnsund" />
		<tag k="natural" v="strait" />
		<tag k="ssr:stedsnr" v="148443" />
	</node>
	<node id="-213604" lat="59.1487749971" lon="9.40438888855">
		<tag k="name" v="Lurodden" />
		<tag k="natural" v="cape" />
		<tag k="ssr:stedsnr" v="148418" />
	</node>
	<node id="-213602" lat="59.1238805553" lon="9.4701861168">
		<tag k="name" v="Bolvikelva" />
		<tag k="ssr:stedsnr" v="148249" />
		<tag k="waterway" v="river" />
	</node>
	<node id="-213598" lat="59.1039972217" lon="9.48245555389">
		<tag k="name" v="Høltjenn" />
		<tag k="natural" v="water" />
		<tag k="ssr:stedsnr" v="148054" />
		<tag k="water" v="pond" />
	</node>
	<node id="-213595" lat="59.0694666624" lon="9.40991943574">
		<tag k="name" v="Godtjennbukta" />
		<tag k="natural" v="bay" />
		<tag k="ssr:stedsnr" v="147955" />
	</node>
	<node id="-213594" lat="59.0718111071" lon="9.42229999245">
		<tag k="name" v="Sønstvedtstrand" />
		<tag k="natural" v="beach" />
		<tag k="ssr:stedsnr" v="147947" />
	</node>
	<node id="-213591" lat="59.1770416656" lon="9.60226388799">
		<tag k="name" v="Skogbekken" />
		<tag k="ssr:stedsnr" v="147924" />
		<tag k="waterway" v="stream" />
	</node>
	<node id="-213589" lat="59.0718444455" lon="9.43164721644">
		<tag k="name" v="Sankedam" />
		<tag k="ssr:stedsnr" v="147886" />
		<tag k="waterway" v="dam" />
	</node>
	<node id="-215635" lat="59.1956972251" lon="9.6163444472">
		<tag k="name" v="Klosterstranda" />
		<tag k="natural" v="beach" />
		<tag k="ssr:stedsnr" v="959267" />
	</node>
	<node id="-214768" lat="59.3048138867" lon="9.31091945294">
		<tag k="alt_name" v="Dollvika" />
		<tag k="name" v="Dølvika" />
		<tag k="natural" v="bay" />
		<tag k="ssr:stedsnr" v="669781" />
	</node>
	<node id="-215631" lat="59.2087472229" lon="9.5123833322">
		<tag k="name" v="Omdalsøya" />
		<tag k="place" v="islet" />
		<tag k="ssr:stedsnr" v="958037" />
	</node>
	<node id="-213581" lat="59.1678277785" lon="9.45367222954">
		<tag k="name" v="Setertjenn" />
		<tag k="natural" v="water" />
		<tag k="ssr:stedsnr" v="147761" />
	</node>
	<node id="-215627" lat="59.1094500029" lon="9.30933888505">
		<tag k="name" v="Lille Gibutjenn" />
		<tag k="natural" v="water" />
		<tag k="ssr:stedsnr" v="939937" />
	</node>
	<node id="-215625" lat="59.0959222212" lon="9.31168056031">
		<tag k="name" v="Tytetjenn" />
		<tag k="natural" v="water" />
		<tag k="ssr:stedsnr" v="939813" />
		<tag k="water" v="pond" />
	</node>
	<node id="-213576" lat="59.1078111084" lon="9.34858888643">
		<tag k="name" v="Håvardstjenn" />
		<tag k="natural" v="water" />
		<tag k="ssr:stedsnr" v="147626" />
	</node>
	<node id="-213573" lat="59.2127944471" lon="9.5330888835">
		<tag k="name" v="Tangen" />
		<tag k="natural" v="cape" />
		<tag k="ssr:stedsnr" v="147603" />
	</node>
	<node id="-213572" lat="59.2506944441" lon="9.48772778417">
		<tag k="name" v="Svinetjennbekken" />
		<tag k="ssr:stedsnr" v="147590" />
		<tag k="waterway" v="stream" />
	</node>
	<node id="-215619" lat="59.1652249979" lon="9.26315833884">
		<tag k="alt_name" v="Lomtjønn" />
		<tag k="name" v="Lomtjenn" />
		<tag k="natural" v="water" />
		<tag k="ssr:stedsnr" v="939046" />
	</node>
	<node id="-215615" lat="59.0815111144" lon="9.36112500094">
		<tag k="name" v="Eriksøy" />
		<tag k="place" v="island" />
		<tag k="ssr:stedsnr" v="938583" />
	</node>
	<node id="-215614" lat="59.2051527742" lon="9.6108138837">
		<tag k="name" v="Bryggevannet" />
		<tag k="natural" v="water" />
		<tag k="ssr:stedsnr" v="938411" />
		<tag k="water" v="lake" />
	</node>
	<node id="-213565" lat="59.2287250033" lon="9.46104444665">
		<tag k="name" v="Skrubbevika" />
		<tag k="natural" v="bay" />
		<tag k="ssr:stedsnr" v="147495" />
	</node>
	<node id="-215611" lat="59.1102555545" lon="9.41747222773">
		<tag k="name" v="Kvernbekken" />
		<tag k="ssr:stedsnr" v="938188" />
		<tag k="waterway" v="stream" />
	</node>
	<node id="-213562" lat="59.2457750001" lon="9.54584722977">
		<tag k="name" v="Kvernhusbekken" />
		<tag k="ssr:stedsnr" v="147325" />
		<tag k="waterway" v="stream" />
	</node>
	<node id="-213561" lat="59.2074527755" lon="9.35845556048">
		<tag k="name" v="Orsjøtjennane" />
		<tag k="natural" v="water" />
		<tag k="ssr:stedsnr" v="147289" />
	</node>
	<node id="-215608" lat="59.0818361093" lon="9.39516389641">
		<tag k="name" v="Langebekk" />
		<tag k="ssr:stedsnr" v="938109" />
		<tag k="waterway" v="stream" />
	</node>
	<node id="-215603" lat="59.1211388872" lon="9.30577778076">
		<tag k="name" v="Stålfjelltjenn" />
		<tag k="natural" v="water" />
		<tag k="ssr:stedsnr" v="939636" />
	</node>
	<node id="-215601" lat="59.2110111094" lon="9.58100000352">
		<tag k="name" v="Falkumelva" />
		<tag k="ssr:stedsnr" v="937927" />
		<tag k="waterway" v="river" />
	</node>
	<node id="-212744" lat="59.2957611125" lon="9.43179999785">
		<tag k="name" v="Søndre Elgtjenn" />
		<tag k="natural" v="water" />
		<tag k="ssr:stedsnr" v="305818" />
	</node>
	<node id="-215598" lat="59.1753305552" lon="9.44384723034">
		<tag k="name" v="Bjørktjenn" />
		<tag k="natural" v="water" />
		<tag k="ssr:stedsnr" v="937891" />
		<tag k="water" v="pond" />
	</node>
	<node id="-215592" lat="59.2295749976" lon="9.45676111277">
		<tag k="name" v="Eikon" />
		<tag k="natural" v="cape" />
		<tag k="ssr:stedsnr" v="937560" />
	</node>
	<node id="-215587" lat="59.0657861069" lon="9.42691110894">
		<tag k="name" v="Halvfarøya" />
		<tag k="natural" v="cape" />
		<tag k="ssr:stedsnr" v="936960" />
	</node>
	<node id="-215585" lat="59.1349083359" lon="9.53967499664">
		<tag k="name" v="Bratsbergbekken" />
		<tag k="ssr:stedsnr" v="936927" />
		<tag k="waterway" v="stream" />
	</node>
	<node id="-213531" lat="59.206580552" lon="9.73792499154">
		<tag k="name" v="Ormetjenn" />
		<tag k="natural" v="water" />
		<tag k="ssr:stedsnr" v="142878" />
	</node>
	<node id="-215577" lat="59.1799805596" lon="9.42398056253">
		<tag k="name" v="Rosmyr" />
		<tag k="natural" v="water" />
		<tag k="ssr:stedsnr" v="936840" />
		<tag k="water" v="pond" />
	</node>
	<node id="-214788" lat="59.3233388859" lon="9.40470832851">
		<tag k="name" v="Vesle Gardvann" />
		<tag k="natural" v="water" />
		<tag k="ssr:stedsnr" v="670738" />
	</node>
	<node id="-213402" lat="59.2155499979" lon="9.36078610255">
		<tag k="name" v="Langtjennbekken" />
		<tag k="ssr:stedsnr" v="87293" />
		<tag k="waterway" v="stream" />
	</node>
	<node id="-215568" lat="59.2879472251" lon="9.37475834089">
		<tag k="name" v="Tjærehjellbukta" />
		<tag k="natural" v="bay" />
		<tag k="ssr:stedsnr" v="936702" />
	</node>
	<node id="-215563" lat="59.1397083341" lon="9.36092778505">
		<tag k="name" v="Andtjenn" />
		<tag k="natural" v="water" />
		<tag k="ssr:stedsnr" v="936667" />
		<tag k="water" v="pond" />
	</node>
	<node id="-213511" lat="59.270027778" lon="9.53702223021">
		<tag k="name" v="Bøelva" />
		<tag k="ssr:stedsnr" v="124584" />
		<tag k="waterway" v="river" />
	</node>
	<node id="-213506" lat="59.4368416623" lon="9.46226111924">
		<tag k="name" v="Bustulvatn" />
		<tag k="natural" v="water" />
		<tag k="ssr:stedsnr" v="123978" />
	</node>
	<node id="-213505" lat="59.4238527805" lon="9.53476665963">
		<tag k="name" v="Grønekolltjenn" />
		<tag k="natural" v="water" />
		<tag k="ssr:stedsnr" v="123972" />
	</node>
	<node id="-213504" lat="59.151936114" lon="9.29351111091">
		<tag k="alt_name" v="Lomtjern" />
		<tag k="name" v="Lomtjenn" />
		<tag k="natural" v="water" />
		<tag k="ssr:stedsnr" v="123965" />
	</node>
	<node id="-215551" lat="59.1343472184" lon="9.40583055233">
		<tag k="name" v="Asbjørnstangen" />
		<tag k="natural" v="cape" />
		<tag k="ssr:stedsnr" v="936312" />
	</node>
	<node id="-215550" lat="59.2343916663" lon="9.50986111376">
		<tag k="name" v="Ulka" />
		<tag k="natural" v="water" />
		<tag k="ssr:stedsnr" v="936233" />
		<tag k="water" v="pond" />
	</node>
	<node id="-213497" lat="59.333202777" lon="9.31900000005">
		<tag k="alt_name" v="Gaupetjern" />
		<tag k="name" v="Gaupetjenn" />
		<tag k="natural" v="water" />
		<tag k="ssr:stedsnr" v="123866" />
	</node>
	<node id="-215544" lat="59.2177055577" lon="9.48512778155">
		<tag k="name" v="Gisholtstranda" />
		<tag k="natural" v="bay" />
		<tag k="ssr:stedsnr" v="936069" />
	</node>
	<node id="-215542" lat="59.1857777809" lon="9.38738056315">
		<tag k="name" v="Erikstadtjenn" />
		<tag k="natural" v="water" />
		<tag k="ssr:stedsnr" v="935480" />
	</node>
	<node id="-213493" lat="59.3735472262" lon="9.49349999794">
		<tag k="name" v="Belatjenn" />
		<tag k="natural" v="water" />
		<tag k="ssr:stedsnr" v="123811" />
	</node>
	<node id="-215539" lat="59.2228416636" lon="9.33859167011">
		<tag k="name" v="Lønntjenn" />
		<tag k="natural" v="water" />
		<tag k="ssr:stedsnr" v="935672" />
	</node>
	<node id="-215538" lat="59.1661194459" lon="9.38123056227">
		<tag k="name" v="Bjørbekktjenn" />
		<tag k="natural" v="water" />
		<tag k="ssr:stedsnr" v="935661" />
	</node>
	<node id="-213489" lat="59.3179499982" lon="9.44483332886">
		<tag k="name" v="Persholbekken" />
		<tag k="ssr:stedsnr" v="123780" />
		<tag k="waterway" v="stream" />
	</node>
	<node id="-213416" lat="59.2445805513" lon="9.43202777993">
		<tag k="name" v="Mærraholmen" />
		<tag k="place" v="island" />
		<tag k="ssr:stedsnr" v="88102" />
	</node>
	<node id="-215534" lat="59.1719527801" lon="9.72356667528">
		<tag k="name" v="Jarsengtjenna" />
		<tag k="natural" v="water" />
		<tag k="ssr:stedsnr" v="931904" />
	</node>
	<node id="-213484" lat="59.2942611089" lon="9.57950833794">
		<tag k="name" v="Ålbekken" />
		<tag k="ssr:stedsnr" v="123736" />
		<tag k="waterway" v="stream" />
	</node>
	<node id="-213074" lat="59.1314833352" lon="9.24764167362">
		<tag k="name" v="Bjortjenn" />
		<tag k="natural" v="water" />
		<tag k="ssr:stedsnr" v="393567" />
	</node>
	<node id="-213481" lat="59.2568722201" lon="9.47460278169">
		<tag k="name" v="Svinebekken" />
		<tag k="ssr:stedsnr" v="123717" />
		<tag k="waterway" v="stream" />
	</node>
	<node id="-215527" lat="59.4009777784" lon="9.47894167342">
		<tag k="name" v="Lona" />
		<tag k="natural" v="water" />
		<tag k="ssr:stedsnr" v="913898" />
		<tag k="water" v="lake" />
	</node>
	<node id="-215526" lat="59.3364222232" lon="9.56731110915">
		<tag k="name" v="Teigbekken" />
		<tag k="ssr:stedsnr" v="913855" />
		<tag k="waterway" v="stream" />
	</node>
	<node id="-215525" lat="59.3389361068" lon="9.41104444615">
		<tag k="name" v="Gardvann" />
		<tag k="natural" v="water" />
		<tag k="ssr:stedsnr" v="913848" />
		<tag k="water" v="lake" />
	</node>
	<node id="-215524" lat="59.3395000015" lon="9.53686388999">
		<tag k="name" v="Hellerbekken" />
		<tag k="ssr:stedsnr" v="913845" />
		<tag k="waterway" v="stream" />
	</node>
	<node id="-215521" lat="59.3172861138" lon="9.34796389509">
		<tag k="alt_name" v="Gravarelva" />
		<tag k="name" v="Graverelva" />
		<tag k="ssr:stedsnr" v="913731" />
		<tag k="waterway" v="stream" />
	</node>
	<node id="-213072" lat="59.1381833355" lon="9.27373610615">
		<tag k="name" v="Kroktjenn" />
		<tag k="natural" v="water" />
		<tag k="ssr:stedsnr" v="393519" />
	</node>
	<node id="-215518" lat="59.2937833365" lon="9.35421667091">
		<tag k="name" v="Osdalholmen" />
		<tag k="place" v="islet" />
		<tag k="ssr:stedsnr" v="913696" />
	</node>
	<node id="-215517" lat="59.2993444471" lon="9.57580832461">
		<tag k="name" v="Seterbekken" />
		<tag k="ssr:stedsnr" v="913693" />
		<tag k="waterway" v="stream" />
	</node>
	<node id="-215514" lat="59.266508335" lon="9.51120832499">
		<tag k="name" v="Armodsholbekken" />
		<tag k="ssr:stedsnr" v="913621" />
		<tag k="waterway" v="stream" />
	</node>
	<node id="-213465" lat="59.1726999997" lon="9.43047499575">
		<tag k="alt_name" v="Børten, store" />
		<tag k="name" v="Store Børten" />
		<tag k="natural" v="water" />
		<tag k="ssr:stedsnr" v="122983" />
		<tag k="water" v="lake" />
	</node>
	<node id="-215512" lat="59.2630055563" lon="9.56784443804">
		<tag k="name" v="Hoppestadelva" />
		<tag k="ssr:stedsnr" v="913609" />
		<tag k="waterway" v="river" />
	</node>
	<node id="-213412" lat="59.0867722267" lon="9.46810555798">
		<tag k="name" v="Ormemyrtjenn" />
		<tag k="natural" v="water" />
		<tag k="ssr:stedsnr" v="87885" />
		<tag k="water" v="pond" />
	</node>
	<node id="-212729" lat="59.2009305517" lon="9.75409999984">
		<tag k="name" v="Broken" />
		<tag k="natural" v="water" />
		<tag k="ssr:stedsnr" v="305723" />
		<tag k="water" v="lake" />
	</node>
	<node id="-215507" lat="59.383966666" lon="9.6380999925">
		<tag k="name" v="Rumpetjenn" />
		<tag k="natural" v="water" />
		<tag k="ssr:stedsnr" v="913280" />
	</node>
	<node id="-215506" lat="59.419849997" lon="9.42077777558">
		<tag k="name" v="Fjellstulvatnet" />
		<tag k="natural" v="water" />
		<tag k="ssr:stedsnr" v="912970" />
	</node>
	<node id="-215504" lat="59.3915055534" lon="9.39740000123">
		<tag k="name" v="Velenvatna" />
		<tag k="natural" v="water" />
		<tag k="ssr:stedsnr" v="912938" />
	</node>
	<node id="-213455" lat="59.2478027809" lon="9.4899305509">
		<tag k="alt_name" v="Langetjernbekken" />
		<tag k="name" v="Langetjennbekken" />
		<tag k="ssr:stedsnr" v="122056" />
		<tag k="waterway" v="stream" />
	</node>
	<node id="-215498" lat="59.3624722223" lon="9.48218888624">
		<tag k="name" v="Bukketjenn" />
		<tag k="natural" v="water" />
		<tag k="ssr:stedsnr" v="912847" />
	</node>
	<node id="-213449" lat="59.2059833344" lon="9.52531666473">
		<tag k="name" v="Firingfoss" />
		<tag k="ssr:stedsnr" v="109059" />
		<tag k="waterway" v="rapids" />
	</node>
	<node id="-213447" lat="59.2121694472" lon="9.52358888709">
		<tag k="name" v="Hølen" />
		<tag k="place" v="locality" />
		<tag k="ssr:stedsnr" v="109038" />
	</node>
	<node id="-215493" lat="59.3185888867" lon="9.4956222179">
		<tag k="alt_name" v="Skarkotjernene" />
		<tag k="name" v="Skarkotjennane" />
		<tag k="natural" v="water" />
		<tag k="ssr:stedsnr" v="912786" />
	</node>
	<node id="-215492" lat="59.3161472179" lon="9.48781943679">
		<tag k="name" v="Røybekken" />
		<tag k="ssr:stedsnr" v="912785" />
		<tag k="waterway" v="stream" />
	</node>
	<node id="-215491" lat="59.3111999999" lon="9.29953889208">
		<tag k="name" v="Hasledokka" />
		<tag k="natural" v="bay" />
		<tag k="ssr:stedsnr" v="912781" />
	</node>
	<node id="-213442" lat="59.1407666651" lon="9.2848833391">
		<tag k="name" v="Tvitindtjennane" />
		<tag k="natural" v="water" />
		<tag k="ssr:stedsnr" v="89982" />
		<tag k="water" v="pond" />
	</node>
	<node id="-213441" lat="59.1030638907" lon="9.33262500698">
		<tag k="name" v="Haugarstjenn" />
		<tag k="natural" v="water" />
		<tag k="ssr:stedsnr" v="89958" />
	</node>
	<node id="-213440" lat="59.0866472205" lon="9.321805548">
		<tag k="name" v="Moltetjenn" />
		<tag k="natural" v="water" />
		<tag k="ssr:stedsnr" v="89871" />
	</node>
	<node id="-213408" lat="59.2131749983" lon="9.53392500226">
		<tag k="name" v="Evja" />
		<tag k="natural" v="water" />
		<tag k="ssr:stedsnr" v="87625" />
		<tag k="water" v="lake" />
	</node>
	<node id="-215486" lat="59.2028638911" lon="9.76490000757">
		<tag k="name" v="Storfiskvann" />
		<tag k="natural" v="water" />
		<tag k="old_name" v="Storfisktjernet" />
		<tag k="ssr:stedsnr" v="912709" />
	</node>
	<node id="-213429" lat="59.1981305517" lon="9.61079443982">
		<tag k="name" v="Klosterfossen" />
		<tag k="natural" v="waterfall" />
		<tag k="ssr:stedsnr" v="89346" />
	</node>
	<node id="-213194" lat="59.2274833311" lon="9.36073888166">
		<tag k="name" v="Damtjønn" />
		<tag k="natural" v="water" />
		<tag k="old_name" v="Dammtjenn" />
		<tag k="ssr:stedsnr" v="25472" />
	</node>
	<node id="-215466" lat="59.1155444487" lon="9.27622500175">
		<tag k="name" v="Korsholttjenn" />
		<tag k="natural" v="water" />
		<tag k="ssr:stedsnr" v="878912" />
	</node>
	<node id="-215464" lat="59.0845138891" lon="9.3227638857">
		<tag k="name" v="Bakfutjenn" />
		<tag k="natural" v="water" />
		<tag k="ssr:stedsnr" v="878863" />
	</node>
	<node id="-213404" lat="59.2170083372" lon="9.36995000141">
		<tag k="name" v="Tveitandammen" />
		<tag k="natural" v="water" />
		<tag k="ssr:stedsnr" v="87297" />
	</node>
	<node id="-215460" lat="59.0892499973" lon="9.35891944203">
		<tag k="name" v="Hestnes" />
		<tag k="natural" v="cape" />
		<tag k="ssr:stedsnr" v="878713" />
	</node>
	<node id="-215457" lat="59.198708336" lon="9.68386110645">
		<tag k="name" v="Skyerløken" />
		<tag k="ssr:stedsnr" v="878648" />
		<tag k="waterway" v="stream" />
	</node>
	<node id="-215456" lat="59.085194444" lon="9.37413888702">
		<tag k="name" v="Bjorvannsdammen" />
		<tag k="ssr:stedsnr" v="878641" />
		<tag k="waterway" v="dam" />
	</node>
	<node id="-215455" lat="59.085236114" lon="9.35652221975">
		<tag k="name" v="Ingeborgstangen" />
		<tag k="natural" v="cape" />
		<tag k="ssr:stedsnr" v="878642" />
	</node>
	<node id="-215454" lat="59.1302972207" lon="9.6036111069">
		<tag k="name" v="Lakåsbekken" />
		<tag k="ssr:stedsnr" v="878389" />
		<tag k="waterway" v="stream" />
	</node>
	<node id="-215452" lat="59.161488892" lon="9.31526943997">
		<tag k="name" v="Blautdalstjenn" />
		<tag k="natural" v="water" />
		<tag k="ssr:stedsnr" v="878234" />
	</node>
	<node id="-215451" lat="59.0897916623" lon="9.42155000074">
		<tag k="name" v="Perskåstjenn" />
		<tag k="natural" v="water" />
		<tag k="ssr:stedsnr" v="878113" />
		<tag k="water" v="lake" />
	</node>
	<node id="-215450" lat="59.2074222219" lon="9.71750554828">
		<tag k="name" v="Dalatjenn" />
		<tag k="natural" v="water" />
		<tag k="ssr:stedsnr" v="878066" />
	</node>
	<node id="-215449" lat="59.179330553" lon="9.27205832689">
		<tag k="name" v="Lauvrostjenn" />
		<tag k="natural" v="water" />
		<tag k="ssr:stedsnr" v="878019" />
	</node>
	<node id="-213399" lat="59.2292555532" lon="9.62330554935">
		<tag k="name" v="Kjærrabekken" />
		<tag k="ssr:stedsnr" v="87174" />
		<tag k="waterway" v="stream" />
	</node>
	<node id="-215445" lat="59.152036114" lon="9.41904722236">
		<tag k="name" v="Nesøya" />
		<tag k="place" v="island" />
		<tag k="ssr:stedsnr" v="877423" />
	</node>
	<node id="-215441" lat="59.1142138845" lon="9.3924694417">
		<tag k="name" v="Rørbottstjenn" />
		<tag k="natural" v="water" />
		<tag k="ssr:stedsnr" v="877203" />
		<tag k="water" v="pond" />
	</node>
	<node id="-213388" lat="59.254883332" lon="9.57323611567">
		<tag k="name" v="Mortensbekk" />
		<tag k="ssr:stedsnr" v="86856" />
		<tag k="waterway" v="stream" />
	</node>
	<node id="-213384" lat="59.2151194489" lon="9.29885555705">
		<tag k="name" v="Buringstjenn" />
		<tag k="natural" v="water" />
		<tag k="ssr:stedsnr" v="86807" />
		<tag k="water" v="pond" />
	</node>
	<node id="-215429" lat="59.2212444481" lon="9.54102499895">
		<tag k="name" v="Åletjennbekken" />
		<tag k="ssr:stedsnr" v="876718" />
		<tag k="waterway" v="stream" />
	</node>
	<node id="-215428" lat="59.2634777798" lon="9.41859443846">
		<tag k="name" v="Børståskjær" />
		<tag k="place" v="islet" />
		<tag k="ssr:stedsnr" v="876609" />
	</node>
	<node id="-215427" lat="59.2476472225" lon="9.43138610462">
		<tag k="name" v="Jordholmen" />
		<tag k="place" v="island" />
		<tag k="ssr:stedsnr" v="876592" />
	</node>
	<node id="-215426" lat="59.23399722" lon="9.45292221706">
		<tag k="name" v="Trollbukta" />
		<tag k="natural" v="bay" />
		<tag k="ssr:stedsnr" v="876553" />
	</node>
	<node id="-215424" lat="59.1870527785" lon="9.30712500149">
		<tag k="name" v="Reiersbekk" />
		<tag k="ssr:stedsnr" v="876402" />
		<tag k="waterway" v="stream" />
	</node>
	<node id="-213374" lat="59.1345722215" lon="9.40199445188">
		<tag k="name" v="Hestetangen" />
		<tag k="natural" v="cape" />
		<tag k="ssr:stedsnr" v="86337" />
	</node>
	<node id="-215419" lat="59.2208777809" lon="9.40149999584">
		<tag k="name" v="Brusetbekken" />
		<tag k="ssr:stedsnr" v="876249" />
		<tag k="waterway" v="stream" />
	</node>
	<node id="-215417" lat="59.3041916641" lon="9.50860833916">
		<tag k="name" v="Søndre Åletjenn" />
		<tag k="natural" v="water" />
		<tag k="ssr:stedsnr" v="876138" />
	</node>
	<node id="-215415" lat="59.1854694426" lon="9.40194443636">
		<tag k="name" v="Rosbekk" />
		<tag k="ssr:stedsnr" v="876041" />
		<tag k="waterway" v="stream" />
	</node>
	<node id="-215412" lat="59.1338999963" lon="9.53097777527">
		<tag k="name" v="Skjellbekken" />
		<tag k="ssr:stedsnr" v="875936" />
		<tag k="waterway" v="stream" />
	</node>
	<node id="-215406" lat="59.2161666645" lon="9.55139166727">
		<tag k="name" v="Åletjennbekken" />
		<tag k="ssr:stedsnr" v="875803" />
		<tag k="waterway" v="stream" />
	</node>
	<node id="-215405" lat="59.2125083361" lon="9.3224777825">
		<tag k="name" v="Pinesund" />
		<tag k="natural" v="strait" />
		<tag k="ssr:stedsnr" v="875804" />
	</node>
	<node id="-215404" lat="59.2216138914" lon="9.56416388325">
		<tag k="name" v="Skjoldebekken" />
		<tag k="ssr:stedsnr" v="875797" />
		<tag k="waterway" v="stream" />
	</node>
	<node id="-212726" lat="59.2645277739" lon="9.52033611457">
		<tag k="name" v="Hyttebekken" />
		<tag k="ssr:stedsnr" v="305703" />
		<tag k="waterway" v="stream" />
	</node>
	<node id="-213349" lat="59.4498500003" lon="9.50645833267">
		<tag k="name" v="Åslivatn" />
		<tag k="natural" v="water" />
		<tag k="ssr:stedsnr" v="63952" />
		<tag k="water" v="lake" />
	</node>
	<node id="-213346" lat="59.343844441" lon="9.50630833864">
		<tag k="name" v="Merratjenn" />
		<tag k="natural" v="water" />
		<tag k="ssr:stedsnr" v="63847" />
	</node>
	<node id="-213345" lat="59.3490750015" lon="9.56200000641">
		<tag k="name" v="Vassenden" />
		<tag k="natural" v="bay" />
		<tag k="ssr:stedsnr" v="63835" />
	</node>
	<node id="-215391" lat="59.1992500004" lon="9.35703888633">
		<tag k="name" v="Galtebekk" />
		<tag k="ssr:stedsnr" v="875472" />
		<tag k="waterway" v="stream" />
	</node>
	<node id="-215388" lat="59.2865250017" lon="9.62156388966">
		<tag k="name" v="Smaltjennbekken" />
		<tag k="ssr:stedsnr" v="875746" />
		<tag k="waterway" v="stream" />
	</node>
	<node id="-213338" lat="59.316927781" lon="9.5471694483">
		<tag k="name" v="Haugmobekken" />
		<tag k="ssr:stedsnr" v="63768" />
		<tag k="waterway" v="stream" />
	</node>
	<node id="-213337" lat="59.308763888" lon="9.32233333138">
		<tag k="name" v="Brennelva" />
		<tag k="ssr:stedsnr" v="63765" />
		<tag k="waterway" v="river" />
	</node>
	<node id="-215380" lat="59.123622223" lon="9.42459723025">
		<tag k="name" v="Kalletangane" />
		<tag k="natural" v="cape" />
		<tag k="ssr:stedsnr" v="875167" />
	</node>
	<node id="-213331" lat="59.2862722194" lon="9.55852777547">
		<tag k="name" v="Oterholttjenna" />
		<tag k="natural" v="water" />
		<tag k="ssr:stedsnr" v="63692" />
	</node>
	<node id="-215373" lat="59.2467138852" lon="9.6499972291">
		<tag k="name" v="Kikuttjenn" />
		<tag k="natural" v="water" />
		<tag k="ssr:stedsnr" v="870887" />
	</node>
	<node id="-215370" lat="59.3000472213" lon="9.55972222759">
		<tag k="name" v="Modammen" />
		<tag k="ssr:stedsnr" v="870755" />
		<tag k="waterway" v="dam" />
	</node>
	<node id="-215369" lat="59.3957666662" lon="9.44120554694">
		<tag k="name" v="Holmevatn" />
		<tag k="natural" v="water" />
		<tag k="ssr:stedsnr" v="859644" />
		<tag k="water" v="lake" />
	</node>
	<node id="-215368" lat="59.392963893" lon="9.38475556388">
		<tag k="name" v="Våtkleivvatn" />
		<tag k="natural" v="water" />
		<tag k="ssr:stedsnr" v="852923" />
		<tag k="water" v="lake" />
	</node>
	<node id="-215367" lat="59.3719527798" lon="9.46361111014">
		<tag k="name" v="Hortavatn" />
		<tag k="natural" v="water" />
		<tag k="ssr:stedsnr" v="852911" />
		<tag k="water" v="lake" />
	</node>
	<node id="-215366" lat="59.4027888912" lon="9.46186667444">
		<tag k="name" v="Raufansvatnet" />
		<tag k="natural" v="water" />
		<tag k="ssr:stedsnr" v="852892" />
	</node>
	<node id="-213317" lat="59.158013892" lon="9.30657777174">
		<tag k="alt_name" v="Bjortjern" />
		<tag k="name" v="Bjortjenn" />
		<tag k="natural" v="water" />
		<tag k="ssr:stedsnr" v="62960" />
	</node>
	<node id="-215364" lat="59.3523305521" lon="9.47222499311">
		<tag k="name" v="Linddalselva" />
		<tag k="ssr:stedsnr" v="852831" />
		<tag k="waterway" v="river" />
	</node>
	<node id="-215363" lat="59.3558777811" lon="9.41872500342">
		<tag k="name" v="Eikstulbekken" />
		<tag k="ssr:stedsnr" v="852822" />
		<tag k="waterway" v="stream" />
	</node>
	<node id="-213314" lat="59.1417916677" lon="9.30523054869">
		<tag k="alt_name" v="Haugtjerna, øvre" />
		<tag k="name" v="Øvre Haugtjenn" />
		<tag k="natural" v="water" />
		<tag k="ssr:stedsnr" v="62950" />
	</node>
	<node id="-213313" lat="59.2341083373" lon="9.54442778166">
		<tag k="alt_name" v="Limitjern" />
		<tag k="name" v="Limitjenn" />
		<tag k="natural" v="water" />
		<tag k="ssr:stedsnr" v="62937" />
	</node>
	<node id="-215359" lat="59.3054611116" lon="9.41678889686">
		<tag k="alt_name" v="Elgtjernsbekken" />
		<tag k="name" v="Elgtjennbekken" />
		<tag k="ssr:stedsnr" v="852768" />
		<tag k="waterway" v="stream" />
	</node>
	<node id="-213309" lat="59.2099777809" lon="9.36113611806">
		<tag k="name" v="Orsjø" />
		<tag k="natural" v="water" />
		<tag k="ssr:stedsnr" v="62914" />
	</node>
	<node id="-215356" lat="59.3203277819" lon="9.41428610287">
		<tag k="name" v="Gardvasselva" />
		<tag k="ssr:stedsnr" v="852721" />
		<tag k="waterway" v="river" />
	</node>
	<node id="-215355" lat="59.2749027756" lon="9.41765833344">
		<tag k="name" v="Årbrudalsbekken" />
		<tag k="ssr:stedsnr" v="852708" />
		<tag k="waterway" v="stream" />
	</node>
	<node id="-215353" lat="59.259861114" lon="9.42165832625">
		<tag k="name" v="Eikodden" />
		<tag k="natural" v="cape" />
		<tag k="ssr:stedsnr" v="852608" />
	</node>
	<node id="-213301" lat="59.113458333" lon="9.30649721457">
		<tag k="alt_name" v="Gjibuetjerna" />
		<tag k="name" v="Store Gibutjenn" />
		<tag k="natural" v="water" />
		<tag k="ssr:stedsnr" v="62798" />
	</node>
	<node id="-213299" lat="59.1036333308" lon="9.3042972145">
		<tag k="alt_name" v="Sætertjern" />
		<tag k="name" v="Setertjenn" />
		<tag k="natural" v="water" />
		<tag k="ssr:stedsnr" v="62794" />
		<tag k="water" v="lake" />
	</node>
	<node id="-213297" lat="59.0998888865" lon="9.39955276992">
		<tag k="name" v="Gislesjøen" />
		<tag k="natural" v="water" />
		<tag k="ssr:stedsnr" v="62779" />
		<tag k="water" v="lake" />
	</node>
	<node id="-215331" lat="59.1867694449" lon="9.34009999809">
		<tag k="alt_name" v="Øvre Veiåa" />
		<tag k="name" v="Veiåa" />
		<tag k="ssr:stedsnr" v="851883" />
		<tag k="waterway" v="river" />
	</node>
	<node id="-213276" lat="59.1969305527" lon="9.59453611693">
		<tag k="name" v="Galgebukta" />
		<tag k="natural" v="bay" />
		<tag k="ssr:stedsnr" v="49351" />
	</node>
	<node id="-215322" lat="59.1320111141" lon="9.39522777781">
		<tag k="alt_name" v="Svarttjern" />
		<tag k="name" v="Svarttjenn" />
		<tag k="natural" v="water" />
		<tag k="ssr:stedsnr" v="851800" />
	</node>
	<node id="-213271" lat="59.1042583311" lon="9.31855555535">
		<tag k="name" v="Sankedammen" />
		<tag k="ssr:stedsnr" v="29916" />
		<tag k="waterway" v="dam" />
	</node>
	<node id="-215318" lat="59.0866750037" lon="9.30154167335">
		<tag k="name" v="Søndre Urdvann" />
		<tag k="natural" v="water" />
		<tag k="ssr:stedsnr" v="851752" />
		<tag k="water" v="lake" />
	</node>
	<node id="-213264" lat="59.2032083326" lon="9.74544165875">
		<tag k="name" v="Ålekaret" />
		<tag k="natural" v="water" />
		<tag k="ssr:stedsnr" v="29028" />
		<tag k="water" v="pond" />
	</node>
	<node id="-213263" lat="59.1937944427" lon="9.72471388118">
		<tag k="name" v="Bikkjeholbekken" />
		<tag k="ssr:stedsnr" v="29025" />
		<tag k="waterway" v="stream" />
	</node>
	<node id="-213262" lat="59.1073166674" lon="9.26873332967">
		<tag k="name" v="Mjåvannsløken" />
		<tag k="ssr:stedsnr" v="28930" />
		<tag k="waterway" v="stream" />
	</node>
	<node id="-214061" lat="59.3593249974" lon="9.54908333176">
		<tag k="name" v="Bråtatangen" />
		<tag k="natural" v="cape" />
		<tag k="ssr:stedsnr" v="445789" />
	</node>
	<node id="-213258" lat="59.2384444441" lon="9.49788611498">
		<tag k="alt_name" v="Tvittingen, l" />
		<tag k="name" v="Lille Tvittingen" />
		<tag k="natural" v="water" />
		<tag k="ssr:stedsnr" v="28719" />
	</node>
	<node id="-213257" lat="59.0891777787" lon="9.36738056275">
		<tag k="name" v="Sunna" />
		<tag k="natural" v="strait" />
		<tag k="ssr:stedsnr" v="28711" />
	</node>
	<node id="-213255" lat="59.0628416634" lon="9.38540277977">
		<tag k="name" v="Halvorstjennane" />
		<tag k="natural" v="water" />
		<tag k="ssr:stedsnr" v="28574" />
	</node>
	<node id="-213254" lat="59.0712444408" lon="9.36803610797">
		<tag k="name" v="Småtjennane" />
		<tag k="natural" v="water" />
		<tag k="ssr:stedsnr" v="28566" />
	</node>
	<node id="-213249" lat="59.2003972187" lon="9.59980000569">
		<tag k="name" v="Bakkestranda" />
		<tag k="natural" v="beach" />
		<tag k="ssr:stedsnr" v="28340" />
	</node>
	<node id="-213244" lat="59.2071722242" lon="9.68559999538">
		<tag k="name" v="Skyerbekken" />
		<tag k="ssr:stedsnr" v="27989" />
		<tag k="waterway" v="stream" />
	</node>
	<node id="-213242" lat="59.2258444442" lon="9.70719166477">
		<tag k="name" v="Ulka" />
		<tag k="natural" v="water" />
		<tag k="ssr:stedsnr" v="27956" />
		<tag k="water" v="pond" />
	</node>
	<node id="-215284" lat="59.1042583368" lon="9.3010333381">
		<tag k="name" v="Nåsa" />
		<tag k="natural" v="cape" />
		<tag k="ssr:stedsnr" v="818913" />
	</node>
	<node id="-215283" lat="59.1129833328" lon="9.26971667129">
		<tag k="name" v="Mjåvannselva" />
		<tag k="ssr:stedsnr" v="818897" />
		<tag k="waterway" v="stream" />
	</node>
	<node id="-215282" lat="59.1142611097" lon="9.26810832878">
		<tag k="name" v="Puttjenn" />
		<tag k="natural" v="water" />
		<tag k="ssr:stedsnr" v="818891" />
	</node>
	<node id="-215281" lat="59.1280500012" lon="9.28923055885">
		<tag k="name" v="Løkane" />
		<tag k="ssr:stedsnr" v="818600" />
		<tag k="waterway" v="stream" />
	</node>
	<node id="-215280" lat="59.1313555573" lon="9.25448611088">
		<tag k="name" v="Langvik" />
		<tag k="natural" v="bay" />
		<tag k="ssr:stedsnr" v="818588" />
	</node>
	<node id="-213032" lat="59.1017666644" lon="9.35002500641">
		<tag k="name" v="Greivstjennbekken" />
		<tag k="ssr:stedsnr" v="390629" />
		<tag k="waterway" v="stream" />
	</node>
	<node id="-215277" lat="59.1373500009" lon="9.27747221483">
		<tag k="name" v="Serktjenn" />
		<tag k="natural" v="water" />
		<tag k="ssr:stedsnr" v="818543" />
	</node>
	<node id="-215276" lat="59.2045805528" lon="9.72387221656">
		<tag k="name" v="Skifjelløken" />
		<tag k="natural" v="water" />
		<tag k="ssr:stedsnr" v="818055" />
		<tag k="water" v="lake" />
	</node>
	<node id="-215274" lat="59.0981138913" lon="9.32051666651">
		<tag k="name" v="Setertjennelva" />
		<tag k="ssr:stedsnr" v="818000" />
		<tag k="waterway" v="river" />
	</node>
	<node id="-215273" lat="59.0852333358" lon="9.30628333672">
		<tag k="name" v="Tolvmannselderen" />
		<tag k="natural" v="cape" />
		<tag k="ssr:stedsnr" v="817864" />
	</node>
	<node id="-215271" lat="59.1431694422" lon="9.62115555265">
		<tag k="name" v="Kverndammen" />
		<tag k="natural" v="water" />
		<tag k="ssr:stedsnr" v="817734" />
	</node>
	<node id="-215270" lat="59.1428916644" lon="9.60653888125">
		<tag k="name" v="Klyvebekken" />
		<tag k="ssr:stedsnr" v="817731" />
		<tag k="waterway" v="stream" />
	</node>
	<node id="-213221" lat="59.1116888881" lon="9.38925277937">
		<tag k="name" v="Knepletjenn" />
		<tag k="natural" v="water" />
		<tag k="ssr:stedsnr" v="26634" />
		<tag k="water" v="pond" />
	</node>
	<node id="-213217" lat="59.1498027755" lon="9.49522778415">
		<tag k="name" v="Lintjenn" />
		<tag k="natural" v="water" />
		<tag k="ssr:stedsnr" v="26393" />
	</node>
	<node id="-215262" lat="59.0866472205" lon="9.321805548">
		<tag k="name" v="Urdevannselva" />
		<tag k="ssr:stedsnr" v="817257" />
		<tag k="waterway" v="river" />
	</node>
	<node id="-213213" lat="59.2086583339" lon="9.39017777533">
		<tag k="name" v="Tomtjenn" />
		<tag k="natural" v="water" />
		<tag k="ssr:stedsnr" v="26304" />
	</node>
	<node id="-215260" lat="59.2270055532" lon="9.67697776917">
		<tag k="name" v="Djupedalsbekken" />
		<tag k="ssr:stedsnr" v="816983" />
		<tag k="waterway" v="stream" />
	</node>
	<node id="-215257" lat="59.1496249994" lon="9.42412777085">
		<tag k="name" v="Storoddtangane" />
		<tag k="natural" v="cape" />
		<tag k="ssr:stedsnr" v="816440" />
	</node>
	<node id="-215256" lat="59.1597000005" lon="9.43404999153">
		<tag k="name" v="Seterbukta" />
		<tag k="natural" v="bay" />
		<tag k="ssr:stedsnr" v="816432" />
	</node>
	<node id="-213206" lat="59.2044361111" lon="9.46816388194">
		<tag k="name" v="Valstranda" />
		<tag k="natural" v="beach" />
		<tag k="ssr:stedsnr" v="26114" />
	</node>
	<node id="-215253" lat="59.1413444454" lon="9.42471667063">
		<tag k="name" v="Uresund" />
		<tag k="natural" v="strait" />
		<tag k="ssr:stedsnr" v="816412" />
	</node>
	<node id="-213204" lat="59.2098138906" lon="9.49989722445">
		<tag k="name" v="Svenshøl" />
		<tag k="natural" v="bay" />
		<tag k="ssr:stedsnr" v="26077" />
	</node>
	<node id="-215247" lat="59.1140583371" lon="9.46778056277">
		<tag k="name" v="Trytetjennbekken" />
		<tag k="ssr:stedsnr" v="816014" />
		<tag k="waterway" v="stream" />
	</node>
	<node id="-213198" lat="59.1433694463" lon="9.57381389096">
		<tag k="name" v="Kjendalstjenn" />
		<tag k="natural" v="water" />
		<tag k="ssr:stedsnr" v="25869" />
	</node>
	<node id="-215244" lat="59.177438886" lon="9.55850555667">
		<tag k="name" v="Brudalsbekken" />
		<tag k="ssr:stedsnr" v="815930" />
		<tag k="waterway" v="stream" />
	</node>
	<node id="-215242" lat="59.2403750023" lon="9.56091666969">
		<tag k="name" v="Tømmerrenne" />
		<tag k="place" v="locality" />
		<tag k="ssr:stedsnr" v="815884" />
	</node>
	<node id="-215238" lat="59.1632027764" lon="9.43286388447">
		<tag k="name" v="Børtebekk" />
		<tag k="ssr:stedsnr" v="815852" />
		<tag k="waterway" v="stream" />
	</node>
	<node id="-215237" lat="59.199455559" lon="9.59347776964">
		<tag k="name" v="Fartangen" />
		<tag k="natural" v="cape" />
		<tag k="ssr:stedsnr" v="815845" />
	</node>
	<node id="-213188" lat="59.1245416706" lon="9.45181666946">
		<tag k="name" v="Hauglandbekken" />
		<tag k="ssr:stedsnr" v="27224" />
		<tag k="waterway" v="stream" />
	</node>
	<node id="-213185" lat="59.2242194416" lon="9.43083056282">
		<tag k="name" v="Haukeliøya" />
		<tag k="place" v="island" />
		<tag k="ssr:stedsnr" v="25150" />
	</node>
	<node id="-215232" lat="59.1527361142" lon="9.38433610973">
		<tag k="name" v="Skrubbeholmen" />
		<tag k="place" v="island" />
		<tag k="ssr:stedsnr" v="815695" />
	</node>
	<node id="-213024" lat="59.2234666625" lon="9.36841944762">
		<tag k="name" v="Damtjennbekken" />
		<tag k="ssr:stedsnr" v="390301" />
		<tag k="waterway" v="stream" />
	</node>
	<node id="-213182" lat="59.4146722185" lon="9.39141667114">
		<tag k="name" v="Naretjønn" />
		<tag k="natural" v="water" />
		<tag k="ssr:stedsnr" v="21785" />
	</node>
	<node id="-213180" lat="59.2059388884" lon="9.76850555096">
		<tag k="name" v="Kalveskinnstjenn" />
		<tag k="natural" v="water" />
		<tag k="ssr:stedsnr" v="20921" />
	</node>
	<node id="-215224" lat="59.1775444462" lon="9.35532223068">
		<tag k="name" v="Vebergtjenn" />
		<tag k="natural" v="water" />
		<tag k="ssr:stedsnr" v="815602" />
	</node>
	<node id="-215223" lat="59.1784361121" lon="9.37793054692">
		<tag k="name" v="Høgsettjenn" />
		<tag k="natural" v="water" />
		<tag k="ssr:stedsnr" v="815601" />
	</node>
	<node id="-213174" lat="59.4431111143" lon="9.42216111347">
		<tag k="name" v="Bølevatn" />
		<tag k="natural" v="water" />
		<tag k="ssr:stedsnr" v="2959" />
		<tag k="water" v="lake" />
	</node>
	<node id="-214729" lat="59.3592000016" lon="9.63198332724">
		<tag k="name" v="Todalsbekken" />
		<tag k="ssr:stedsnr" v="669238" />
		<tag k="waterway" v="stream" />
	</node>
	<node id="-213172" lat="59.4373638892" lon="9.58296388571">
		<tag k="name" v="Svartebekk" />
		<tag k="ssr:stedsnr" v="2945" />
		<tag k="waterway" v="stream" />
	</node>
	<node id="-213171" lat="59.1538750032" lon="9.42259722907">
		<tag k="name" v="Sandfjorden" />
		<tag k="natural" v="water" />
		<tag k="ssr:stedsnr" v="2944" />
	</node>
	<node id="-215217" lat="59.2524277755" lon="9.43626389354">
		<tag k="name" v="Dilsdalbekken" />
		<tag k="ssr:stedsnr" v="815530" />
		<tag k="waterway" v="stream" />
	</node>
	<node id="-215216" lat="59.3517249972" lon="9.34749166031">
		<tag k="name" v="Mjågetjennbekken" />
		<tag k="ssr:stedsnr" v="815522" />
		<tag k="waterway" v="stream" />
	</node>
	<node id="-213165" lat="59.0700972223" lon="9.37729721952">
		<tag k="name" v="Krokvannet" />
		<tag k="natural" v="water" />
		<tag k="ssr:stedsnr" v="2855" />
		<tag k="water" v="lake" />
	</node>
	<node id="-213163" lat="59.3410888858" lon="9.29334166155">
		<tag k="name" v="Fagervatn" />
		<tag k="natural" v="water" />
		<tag k="ssr:stedsnr" v="2838" />
	</node>
	<node id="-215210" lat="59.1406638925" lon="9.46727500592">
		<tag k="name" v="Kjerrgrassbekken" />
		<tag k="ssr:stedsnr" v="815365" />
		<tag k="waterway" v="stream" />
	</node>
	<node id="-213161" lat="59.3616527741" lon="9.40912222765">
		<tag k="name" v="Løntjønn" />
		<tag k="natural" v="water" />
		<tag k="ssr:stedsnr" v="2813" />
	</node>
	<node id="-213160" lat="59.3682138871" lon="9.5211166706">
		<tag k="name" v="Stodalstjenn" />
		<tag k="natural" v="water" />
		<tag k="ssr:stedsnr" v="2802" />
	</node>
	<node id="-215207" lat="59.1286555514" lon="9.3973999958">
		<tag k="name" v="Frøneselva" />
		<tag k="ssr:stedsnr" v="815319" />
		<tag k="waterway" v="river" />
	</node>
	<node id="-215206" lat="59.2140777783" lon="9.34773333209">
		<tag k="name" v="Langtjennane" />
		<tag k="natural" v="water" />
		<tag k="ssr:stedsnr" v="815303" />
	</node>
	<node id="-213157" lat="59.3266416705" lon="9.41732222996">
		<tag k="name" v="Delerøysbekken" />
		<tag k="ssr:stedsnr" v="2750" />
		<tag k="waterway" v="stream" />
	</node>
	<node id="-213152" lat="59.2911361072" lon="9.46625000202">
		<tag k="alt_name" v="Bjørketjenn" />
		<tag k="name" v="Berketjern" />
		<tag k="natural" v="water" />
		<tag k="ssr:stedsnr" v="2698" />
	</node>
	<node id="-215199" lat="59.1869777819" lon="9.39957500374">
		<tag k="name" v="Nordkåbekken" />
		<tag k="ssr:stedsnr" v="815036" />
		<tag k="waterway" v="stream" />
	</node>
	<node id="-215196" lat="59.1288305573" lon="9.54680833749">
		<tag k="alt_name" v="Røraelva" />
		<tag k="name" v="Rørabekken" />
		<tag k="ssr:stedsnr" v="814945" />
		<tag k="waterway" v="stream" />
	</node>
	<node id="-213145" lat="59.4600166678" lon="9.48927500266">
		<tag k="name" v="Sondalsvatn" />
		<tag k="natural" v="water" />
		<tag k="ssr:stedsnr" v="2007" />
	</node>
	<node id="-213144" lat="59.1786277801" lon="9.26498055528">
		<tag k="alt_name" v="Kroktjern" />
		<tag k="name" v="Kroktjenn" />
		<tag k="natural" v="water" />
		<tag k="ssr:stedsnr" v="1996" />
	</node>
	<node id="-213142" lat="59.1715972236" lon="9.31024444525">
		<tag k="alt_name" v="Trytetjern, øvre" />
		<tag k="name" v="Øvre Trytetjenn" />
		<tag k="natural" v="water" />
		<tag k="ssr:stedsnr" v="1985" />
	</node>
	<node id="-215189" lat="59.2139305555" lon="9.3210111198">
		<tag k="name" v="Pina" />
		<tag k="natural" v="cape" />
		<tag k="ssr:stedsnr" v="814811" />
	</node>
	<node id="-213138" lat="59.1634583357" lon="9.3278388926">
		<tag k="alt_name" v="Trytetjern" />
		<tag k="name" v="Trytetjenn" />
		<tag k="natural" v="water" />
		<tag k="ssr:stedsnr" v="1977" />
	</node>
	<node id="-213137" lat="59.1367055525" lon="9.36855000563">
		<tag k="alt_name" v="Hoppetjern" />
		<tag k="name" v="Hoppetjenn" />
		<tag k="natural" v="water" />
		<tag k="ssr:stedsnr" v="1942" />
	</node>
	<node id="-215183" lat="59.1832249969" lon="9.52454444384">
		<tag k="name" v="Kirkebekken" />
		<tag k="ssr:stedsnr" v="814630" />
		<tag k="waterway" v="stream" />
	</node>
	<node id="-213357" lat="59.1693555594" lon="9.72434166989">
		<tag k="name" v="Ormetjenn" />
		<tag k="natural" v="water" />
		<tag k="ssr:stedsnr" v="81907" />
	</node>
	<node id="-215180" lat="59.1898305565" lon="9.34622221873">
		<tag k="name" v="Dalsetertjenn" />
		<tag k="natural" v="water" />
		<tag k="ssr:stedsnr" v="814497" />
	</node>
	<node id="-213129" lat="59.0844500034" lon="9.42927500602">
		<tag k="alt_name" v="Åslandstjern" />
		<tag k="name" v="Åslandstjenn" />
		<tag k="natural" v="water" />
		<tag k="ssr:stedsnr" v="1764" />
	</node>
	<node id="-213126" lat="59.2186555556" lon="9.68885832505">
		<tag k="name" v="Ørnstjenn" />
		<tag k="natural" v="water" />
		<tag k="ssr:stedsnr" v="1745" />
	</node>
	<node id="-213124" lat="59.2269249989" lon="9.69510834187">
		<tag k="name" v="Tverråa" />
		<tag k="ssr:stedsnr" v="1725" />
		<tag k="waterway" v="stream" />
	</node>
	<node id="-213122" lat="59.210477775" lon="9.74758056002">
		<tag k="name" v="Mensvann" />
		<tag k="natural" v="water" />
		<tag k="ssr:stedsnr" v="1695" />
		<tag k="water" v="lake" />
	</node>
	<node id="-215169" lat="59.2125499997" lon="9.70277222261">
		<tag k="name" v="Steinsrødtjenn" />
		<tag k="natural" v="water" />
		<tag k="ssr:stedsnr" v="810912" />
	</node>
	<node id="-215168" lat="59.1736694411" lon="9.72491388036">
		<tag k="name" v="Bakketjenn" />
		<tag k="natural" v="water" />
		<tag k="ssr:stedsnr" v="810908" />
	</node>
	<node id="-213117" lat="59.4452424061" lon="9.60009397694">
		<tag k="name" v="Ausetjern" />
		<tag k="natural" v="water" />
		<tag k="ssr:stedsnr" v="852515" />
	</node>
	<node id="-215161" lat="59.347947224" lon="9.47329165913">
		<tag k="name" v="Linddalsfossen" />
		<tag k="natural" v="waterfall" />
		<tag k="ssr:stedsnr" v="809773" />
	</node>
	<node id="-215157" lat="59.4476944482" lon="9.59060277533">
		<tag k="name" v="Holmevannet" />
		<tag k="natural" v="water" />
		<tag k="ssr:stedsnr" v="791929" />
		<tag k="water" v="lake" />
	</node>
	<node id="-215155" lat="59.3331666635" lon="9.51431666488">
		<tag k="name" v="Rullebekken" />
		<tag k="ssr:stedsnr" v="791867" />
		<tag k="waterway" v="stream" />
	</node>
	<node id="-215153" lat="59.3585416655" lon="9.58307222487">
		<tag k="name" v="Vesleøkterbekken" />
		<tag k="ssr:stedsnr" v="791839" />
		<tag k="waterway" v="stream" />
	</node>
	<node id="-215152" lat="59.2979527784" lon="9.35961944274">
		<tag k="name" v="Osdalsbukta" />
		<tag k="natural" v="bay" />
		<tag k="ssr:stedsnr" v="791815" />
	</node>
	<node id="-215151" lat="59.3018000002" lon="9.40734444432">
		<tag k="name" v="Jonstjern" />
		<tag k="natural" v="water" />
		<tag k="ssr:stedsnr" v="791813" />
	</node>
	<node id="-215150" lat="59.3076166656" lon="9.43118055783">
		<tag k="name" v="Sagtjenn" />
		<tag k="natural" v="water" />
		<tag k="old_name" v="Sagtjørn" />
		<tag k="ssr:stedsnr" v="791799" />
	</node>
	<node id="-213101" lat="59.1921111087" lon="9.62095555635">
		<tag k="name" v="Gråtenløpet" />
		<tag k="natural" v="strait" />
		<tag k="ssr:stedsnr" v="898385" />
	</node>
	<node id="-215145" lat="59.2731666656" lon="9.51807777052">
		<tag k="name" v="Bjordamsbekken" />
		<tag k="ssr:stedsnr" v="791644" />
		<tag k="waterway" v="stream" />
	</node>
	<node id="-215135" lat="59.1666500029" lon="9.43039722697">
		<tag k="alt_name" v="Børten, l" />
		<tag k="name" v="Lille Børten" />
		<tag k="natural" v="water" />
		<tag k="ssr:stedsnr" v="790966" />
	</node>
	<node id="-215133" lat="59.1620805566" lon="9.58875278082">
		<tag k="alt_name" v="Søretjern" />
		<tag k="name" v="Søretjenn" />
		<tag k="natural" v="water" />
		<tag k="ssr:stedsnr" v="790956" />
	</node>
	<node id="-215131" lat="59.2151749971" lon="9.31787777735">
		<tag k="alt_name" v="Stavsjø, nedre" />
		<tag k="name" v="Nedre Stavsjø" />
		<tag k="natural" v="water" />
		<tag k="ssr:stedsnr" v="790931" />
		<tag k="water" v="lake" />
	</node>
	<node id="-213082" lat="59.1854847696" lon="9.62509995492">
		<tag k="name" v="Eikornrødbåen" />
		<tag k="place" v="locality" />
		<tag k="seamark:type" v="rock" />
		<tag k="ssr:stedsnr" v="473454" />
	</node>
	<node id="-215123" lat="59.1311444432" lon="9.41448611332">
		<tag k="alt_name" v="Flåtesundet" />
		<tag k="name" v="Flåtesund" />
		<tag k="natural" v="strait" />
		<tag k="ssr:stedsnr" v="790829" />
	</node>
	<node id="-215122" lat="59.1323916655" lon="9.283616666">
		<tag k="alt_name" v="Lomtjern" />
		<tag k="name" v="Lomtjenn" />
		<tag k="natural" v="water" />
		<tag k="ssr:stedsnr" v="790826" />
	</node>
	<node id="-215120" lat="59.0928055574" lon="9.36259721915">
		<tag k="name" v="Kallestadvannet" />
		<tag k="natural" v="water" />
		<tag k="ssr:stedsnr" v="790794" />
		<tag k="water" v="lake" />
	</node>
	<node id="-215119" lat="59.1015499991" lon="9.29554999428">
		<tag k="name" v="Nordre Tjærevann" />
		<tag k="natural" v="water" />
		<tag k="ssr:stedsnr" v="790789" />
		<tag k="water" v="lake" />
	</node>
	<node id="-214819" lat="59.2168472216" lon="9.48793888039">
		<tag k="name" v="Katthølet" />
		<tag k="natural" v="bay" />
		<tag k="ssr:stedsnr" v="693081" />
	</node>
	<node id="-215115" lat="59.2108111113" lon="9.70672777202">
		<tag k="name" v="Dalabekken" />
		<tag k="ssr:stedsnr" v="790739" />
		<tag k="waterway" v="stream" />
	</node>
	<node id="-215114" lat="59.1989111103" lon="9.60013055974">
		<tag k="name" v="Hjellevannet" />
		<tag k="natural" v="water" />
		<tag k="old_name" v="Hjellevatn" />
		<tag k="ssr:stedsnr" v="790729" />
		<tag k="water" v="lake" />
	</node>
	<node id="-213065" lat="59.0796749986" lon="9.33628889294">
		<tag k="name" v="Håvassdammen" />
		<tag k="ssr:stedsnr" v="392659" />
		<tag k="waterway" v="dam" />
	</node>
	<node id="-213064" lat="59.0841055553" lon="9.37665554733">
		<tag k="name" v="Svinehølen" />
		<tag k="place" v="locality" />
		<tag k="ssr:stedsnr" v="392649" />
	</node>
	<node id="-213062" lat="59.2004027754" lon="9.61058332563">
		<tag k="name" v="Klosterøya" />
		<tag k="place" v="island" />
		<tag k="ssr:stedsnr" v="392358" />
	</node>
	<node id="-213052" lat="59.0664194436" lon="9.37318054813">
		<tag k="name" v="Ospetjenn" />
		<tag k="natural" v="water" />
		<tag k="ssr:stedsnr" v="391573" />
	</node>
	<node id="-213050" lat="59.1310666627" lon="9.49930277296">
		<tag k="name" v="Dammen" />
		<tag k="natural" v="water" />
		<tag k="ssr:stedsnr" v="391243" />
	</node>
	<node id="-213049" lat="59.128288893" lon="9.44824721945">
		<tag k="name" v="Hauglandtjenn" />
		<tag k="natural" v="water" />
		<tag k="ssr:stedsnr" v="391239" />
	</node>
	<node id="-213041" lat="59.2972333338" lon="9.43088055063">
		<tag k="name" v="Nordre Elgtjenn" />
		<tag k="natural" v="water" />
		<tag k="ssr:stedsnr" v="390837" />
	</node>
	<node id="-213040" lat="59.171508329" lon="9.47868889147">
		<tag k="name" v="Bjørndaltjenn" />
		<tag k="natural" v="water" />
		<tag k="ssr:stedsnr" v="390758" />
		<tag k="water" v="pond" />
	</node>
	<node id="-215085" lat="59.2037499991" lon="9.60917222991">
		<tag k="name" v="Smieøya" />
		<tag k="place" v="island" />
		<tag k="ssr:stedsnr" v="767312" />
	</node>
	<node id="-215083" lat="59.0989611128" lon="9.33240832907">
		<tag k="name" v="Spjuttjenn" />
		<tag k="natural" v="water" />
		<tag k="ssr:stedsnr" v="757959" />
	</node>
	<node id="-213034" lat="59.142074996" lon="9.35049444409">
		<tag k="name" v="Svarttjenn" />
		<tag k="natural" v="water" />
		<tag k="ssr:stedsnr" v="390674" />
	</node>
	<node id="-215080" lat="59.109038888" lon="9.27959999865">
		<tag k="name" v="Langtjenn" />
		<tag k="natural" v="water" />
		<tag k="ssr:stedsnr" v="757898" />
	</node>
	<node id="-215079" lat="59.1334138911" lon="9.24063334143">
		<tag k="name" v="Skremerudtangen" />
		<tag k="natural" v="cape" />
		<tag k="ssr:stedsnr" v="757548" />
	</node>
	<node id="-215076" lat="59.1423750006" lon="9.23363889009">
		<tag k="name" v="Granhaugtjenn" />
		<tag k="natural" v="water" />
		<tag k="ssr:stedsnr" v="757178" />
	</node>
	<node id="-213027" lat="59.2324861094" lon="9.49956665925">
		<tag k="name" v="Lilletjenn" />
		<tag k="natural" v="water" />
		<tag k="ssr:stedsnr" v="390478" />
	</node>
	<node id="-215074" lat="59.1768499985" lon="9.27500000188">
		<tag k="name" v="Gullrostjenn" />
		<tag k="natural" v="water" />
		<tag k="ssr:stedsnr" v="757013" />
	</node>
	<node id="-213025" lat="59.2501916642" lon="9.5214027695">
		<tag k="name" v="Kremmerdalsbekken" />
		<tag k="ssr:stedsnr" v="390306" />
		<tag k="waterway" v="stream" />
	</node>
	<node id="-215072" lat="59.0928305566" lon="9.29317222877">
		<tag k="name" v="Svarteputten" />
		<tag k="natural" v="water" />
		<tag k="ssr:stedsnr" v="756857" />
		<tag k="water" v="pond" />
	</node>
	<node id="-215497" lat="59.3765777792" lon="9.52553333581">
		<tag k="name" v="Grønsjøbekken" />
		<tag k="ssr:stedsnr" v="912821" />
		<tag k="waterway" v="stream" />
	</node>
	<node id="-213021" lat="59.2387027821" lon="9.61194721747">
		<tag k="name" v="Sembekken" />
		<tag k="ssr:stedsnr" v="390221" />
		<tag k="waterway" v="stream" />
	</node>
	<node id="-213018" lat="59.124327782" lon="9.41352778097">
		<tag k="name" v="Loakilen" />
		<tag k="natural" v="water" />
		<tag k="ssr:stedsnr" v="390185" />
	</node>
	<node id="-213009" lat="59.3089361099" lon="9.57815554703">
		<tag k="name" v="Skriuseterbekken" />
		<tag k="ssr:stedsnr" v="389831" />
		<tag k="waterway" v="stream" />
	</node>
	<node id="-215056" lat="59.1422222185" lon="9.39507221787">
		<tag k="name" v="Såta" />
		<tag k="place" v="islet" />
		<tag k="ssr:stedsnr" v="756394" />
	</node>
	<node id="-215052" lat="59.0772777757" lon="9.40983889387">
		<tag k="name" v="Plasstjenn" />
		<tag k="natural" v="water" />
		<tag k="ssr:stedsnr" v="756095" />
	</node>
	<node id="-213003" lat="59.2126749985" lon="9.52833888122">
		<tag k="name" v="Meierelva" />
		<tag k="ssr:stedsnr" v="389636" />
		<tag k="waterway" v="river" />
	</node>
	<node id="-215048" lat="59.170038889" lon="9.3626472242">
		<tag k="name" v="Timlandtjenn" />
		<tag k="natural" v="water" />
		<tag k="ssr:stedsnr" v="755646" />
	</node>
	<node id="-214700" lat="59.2187083318" lon="9.7449638853">
		<tag k="name" v="Nordlandbekken" />
		<tag k="ssr:stedsnr" v="635052" />
		<tag k="waterway" v="stream" />
	</node>
	<node id="-212997" lat="59.1328527769" lon="9.44019722589">
		<tag k="name" v="Skottjenn" />
		<tag k="natural" v="water" />
		<tag k="ssr:stedsnr" v="389350" />
	</node>
	<node id="-215362" lat="59.3588333353" lon="9.52990278235">
		<tag k="name" v="Kalvebekken" />
		<tag k="ssr:stedsnr" v="852812" />
		<tag k="waterway" v="stream" />
	</node>
</osm>
