<?xml version="1.0" encoding="UTF-8"?>
<osm generator="osmapis" version="0.6">
	<node id="-215295" lat="59.1183833349" lon="9.59127221772">
		<tag k="name" v="Seierbukta" />
		<tag k="natural" v="bay" />
		<tag k="ssr:stedsnr" v="838659" />
	</node>
	<node id="-214905" lat="59.1304166628" lon="9.51970277977">
		<tag k="name" v="Nibben" />
		<tag k="natural" v="cape" />
		<tag k="ssr:stedsnr" v="716714" />
	</node>
	<node id="-215288" lat="59.1234388879" lon="9.58899167378">
		<tag k="name" v="Fantøya" />
		<tag k="place" v="island" />
		<tag k="ssr:stedsnr" v="834352" />
	</node>
	<node id="-214903" lat="59.1284361092" lon="9.51689444347">
		<tag k="name" v="Rambekkbåen" />
		<tag k="place" v="locality" />
		<tag k="seamark:type" v="rock" />
		<tag k="ssr:stedsnr" v="715686" />
	</node>
	<node id="-213108" lat="59.1311055587" lon="9.53402500332">
		<tag k="name" v="Skjellbekkbukta" />
		<tag k="natural" v="bay" />
		<tag k="ssr:stedsnr" v="413717" />
	</node>
	<node id="-214770" lat="59.1204083375" lon="9.56824166801">
		<tag k="alt_name" v="Kjeøya" />
		<tag k="name" v="Kjeøy" />
		<tag k="natural" v="cape" />
		<tag k="ssr:stedsnr" v="669786" />
	</node>
	<node id="-213103" lat="59.1184027782" lon="9.58280278574">
		<tag k="name" v="Bråtabukta" />
		<tag k="natural" v="bay" />
		<tag k="ssr:stedsnr" v="898633" />
	</node>
	<node id="-214624" lat="59.1231944452" lon="9.58709721732">
		<tag k="name" v="Flakvarpbukta" />
		<tag k="natural" v="bay" />
		<tag k="ssr:stedsnr" v="631213" />
	</node>
	<node id="-213083" lat="59.1304944451" lon="9.52272777328">
		<tag k="name" v="Rambekkbukta" />
		<tag k="natural" v="bay" />
		<tag k="ssr:stedsnr" v="473698" />
	</node>
	<node id="-213846" lat="59.121183335" lon="9.57783610667">
		<tag k="name" v="Torskeholet" />
		<tag k="natural" v="bay" />
		<tag k="ssr:stedsnr" v="231701" />
	</node>
	<node id="-214993" lat="59.1284166637" lon="9.52639443658">
		<tag k="name" v="Leirholmen" />
		<tag k="place" v="island" />
		<tag k="ssr:stedsnr" v="753949" />
	</node>
	<node id="-213835" lat="59.1208249984" lon="9.57678334035">
		<tag k="name" v="Torskeholet" />
		<tag k="natural" v="bay" />
		<tag k="ssr:stedsnr" v="268979" />
	</node>
	<node id="-213834" lat="59.1237166683" lon="9.51867499742">
		<tag k="name" v="Hytterødbukta" />
		<tag k="natural" v="bay" />
		<tag k="ssr:stedsnr" v="268975" />
	</node>
	<node id="-212930" lat="59.1207194436" lon="9.5840249942">
		<tag k="name" v="Balsøya" />
		<tag k="natural" v="cape" />
		<tag k="ssr:stedsnr" v="365814" />
	</node>
	<node id="-212928" lat="59.1254749958" lon="9.53316388971">
		<tag k="name" v="Langøya" />
		<tag k="place" v="islet" />
		<tag k="ssr:stedsnr" v="365808" />
	</node>
	<node id="-214075" lat="59.1157222204" lon="9.58172500285">
		<tag k="alt_name" v="Lagmannsskjær" />
		<tag k="fixme" v="consider seamark:type=rock or natural=shoal" />
		<tag k="name" v="Lagmannsskjæret" />
		<tag k="place" v="islet" />
		<tag k="ssr:stedsnr" v="450234" />
	</node>
	<node id="-214074" lat="59.1285666633" lon="9.52654166192">
		<tag k="name" v="Leirholmen" />
		<tag k="place" v="islet" />
		<tag k="ssr:stedsnr" v="450230" />
	</node>
	<node id="-212916" lat="59.1178944434" lon="9.5860249993">
		<tag k="name" v="Kua" />
		<tag k="natural" v="cape" />
		<tag k="ssr:stedsnr" v="352628" />
	</node>
	<node id="-212914" lat="59.1232027771" lon="9.5634583268">
		<tag k="name" v="Lauvøyene" />
		<tag k="natural" v="cape" />
		<tag k="ssr:stedsnr" v="351714" />
	</node>
	<node id="-213674" lat="59.12857778" lon="9.5317083322">
		<tag k="bay" v="fjord" />
		<tag k="name" v="Vollsfjorden" />
		<tag k="natural" v="bay" />
		<tag k="ssr:stedsnr" v="183801" />
	</node>
	<node id="-213280" lat="59.1258027808" lon="9.51731110702">
		<tag k="name" v="Vollsholmene" />
		<tag k="place" v="islet" />
		<tag k="ssr:stedsnr" v="49716" />
	</node>
	<node id="-213279" lat="59.1207361154" lon="9.57332222964">
		<tag k="name" v="Skutodden" />
		<tag k="natural" v="cape" />
		<tag k="ssr:stedsnr" v="49684" />
	</node>
	<node id="-213016" lat="59.1290833353" lon="9.52021389288">
		<tag k="name" v="Rambekkholmen" />
		<tag k="place" v="islet" />
		<tag k="ssr:stedsnr" v="389959" />
	</node>
	<node id="-214551" lat="59.1301027752" lon="9.5309861184">
		<tag k="fixme" v="consider seamark:type=rock or natural=shoal" />
		<tag k="name" v="Konta" />
		<tag k="place" v="islet" />
		<tag k="ssr:stedsnr" v="594669" />
	</node>
	<node id="-214806" lat="59.1222194483" lon="9.56651667044">
		<tag k="name" v="Kidøya" />
		<tag k="natural" v="cape" />
		<tag k="ssr:stedsnr" v="692213" />
	</node>
	<node id="-215177" lat="59.1218638854" lon="9.56970833678">
		<tag k="alt_name" v="Kjeøysund" />
		<tag k="name" v="Kjeøysundet" />
		<tag k="natural" v="strait" />
		<tag k="ssr:stedsnr" v="814294" />
	</node>
	<node id="-214550" lat="59.1146888922" lon="9.57976944766">
		<tag k="name" v="Lagmannsbåen" />
		<tag k="place" v="locality" />
		<tag k="seamark:type" v="rock" />
		<tag k="ssr:stedsnr" v="594626" />
	</node>
</osm>
