<?xml version="1.0" encoding="UTF-8"?>
<osm generator="osmapis" version="0.6">
	<node id="-215040" lat="59.0992055562" lon="9.3944722141">
		<tag k="name" v="Mørkedalen" />
		<tag k="natural" v="wetland" />
		<tag k="ssr:stedsnr" v="755234" />
	</node>
	<node id="-214528" lat="59.135711114" lon="9.28894167502">
		<tag k="name" v="Hestemyr" />
		<tag k="natural" v="wetland" />
		<tag k="ssr:stedsnr" v="574632" />
	</node>
	<node id="-215037" lat="59.1049916658" lon="9.40068056094">
		<tag k="name" v="Rolighetsmyr" />
		<tag k="natural" v="wetland" />
		<tag k="ssr:stedsnr" v="755211" />
	</node>
	<node id="-215036" lat="59.3035944472" lon="9.45696944615">
		<tag k="name" v="Såtemyra" />
		<tag k="natural" v="wetland" />
		<tag k="ssr:stedsnr" v="755163" />
	</node>
	<node id="-213332" lat="59.284644446" lon="9.51423056015">
		<tag k="name" v="Tømmermarka" />
		<tag k="place" v="locality" />
		<tag k="ssr:stedsnr" v="63696" />
	</node>
	<node id="-215537" lat="59.1634944443" lon="9.36989445153">
		<tag k="name" v="Jonskås" />
		<tag k="place" v="locality" />
		<tag k="ssr:stedsnr" v="935650" />
	</node>
	<node id="-214525" lat="59.1727583292" lon="9.73835555657">
		<tag k="name" v="Langemyra" />
		<tag k="natural" v="wetland" />
		<tag k="ssr:stedsnr" v="574515" />
	</node>
	<node id="-215019" lat="59.1716833367" lon="9.4640388915">
		<tag k="name" v="Bormyr" />
		<tag k="natural" v="wetland" />
		<tag k="ssr:stedsnr" v="754770" />
	</node>
	<node id="-215016" lat="59.3120055577" lon="9.56391667234">
		<tag k="name" v="Eriksrødmyr" />
		<tag k="natural" v="wetland" />
		<tag k="ssr:stedsnr" v="754764" />
	</node>
	<node id="-214503" lat="59.0812583291" lon="9.40369445267">
		<tag k="name" v="Svimyr" />
		<tag k="natural" v="wetland" />
		<tag k="ssr:stedsnr" v="573105" />
	</node>
	<node id="-214495" lat="59.291352781" lon="9.44440833514">
		<tag k="name" v="Samlingsmyr" />
		<tag k="natural" v="wetland" />
		<tag k="ssr:stedsnr" v="572873" />
	</node>
	<node id="-215005" lat="59.2172472194" lon="9.37762777448">
		<tag k="name" v="Hestemyr" />
		<tag k="natural" v="wetland" />
		<tag k="ssr:stedsnr" v="754349" />
	</node>
	<node id="-215004" lat="59.2300472263" lon="9.51374722752">
		<tag k="name" v="Omdalsmyrane" />
		<tag k="natural" v="wetland" />
		<tag k="ssr:stedsnr" v="754318" />
	</node>
	<node id="-213467" lat="59.3810361104" lon="9.62524166873">
		<tag k="name" v="Svergekollmyra" />
		<tag k="natural" v="wetland" />
		<tag k="ssr:stedsnr" v="123297" />
	</node>
	<node id="-214489" lat="59.1849611084" lon="9.3271361184">
		<tag k="name" v="Lange Tveitstulmyra" />
		<tag k="natural" v="wetland" />
		<tag k="ssr:stedsnr" v="572413" />
	</node>
	<node id="-213156" lat="59.2823972243" lon="9.51576945185">
		<tag k="name" v="Tømmermarkmyr" />
		<tag k="natural" v="wetland" />
		<tag k="ssr:stedsnr" v="2743" />
	</node>
	<node id="-214998" lat="59.2917583305" lon="9.51604443989">
		<tag k="name" v="Skuggedalsmyr" />
		<tag k="natural" v="wetland" />
		<tag k="ssr:stedsnr" v="754140" />
	</node>
	<node id="-214995" lat="59.2965638895" lon="9.52499722161">
		<tag k="name" v="Askemyr" />
		<tag k="natural" v="wetland" />
		<tag k="ssr:stedsnr" v="754083" />
	</node>
	<node id="-213450" lat="59.2172972188" lon="9.55181667033">
		<tag k="name" v="Moen" />
		<tag k="place" v="locality" />
		<tag k="ssr:stedsnr" v="109158" />
	</node>
	<node id="-213960" lat="59.2127611079" lon="9.33468889118">
		<tag k="name" v="Torvdammen" />
		<tag k="natural" v="wetland" />
		<tag k="ssr:stedsnr" v="268797" />
	</node>
	<node id="-213956" lat="59.1932055597" lon="9.37657222777">
		<tag k="name" v="Dalsmyra" />
		<tag k="natural" v="wetland" />
		<tag k="ssr:stedsnr" v="268464" />
	</node>
	<node id="-214977" lat="59.3072444451" lon="9.41241667291">
		<tag k="name" v="Tjærehjellmyra" />
		<tag k="natural" v="wetland" />
		<tag k="ssr:stedsnr" v="749815" />
	</node>
	<node id="-213951" lat="59.3159611107" lon="9.47367222326">
		<tag k="name" v="Svarvarmyr" />
		<tag k="natural" v="wetland" />
		<tag k="ssr:stedsnr" v="268210" />
	</node>
	<node id="-213950" lat="59.3239138849" lon="9.51203055366">
		<tag k="name" v="Holka" />
		<tag k="natural" v="wetland" />
		<tag k="ssr:stedsnr" v="268187" />
	</node>
	<node id="-213436" lat="59.1201999994" lon="9.31022222133">
		<tag k="name" v="Stålfjellmyrane" />
		<tag k="natural" v="wetland" />
		<tag k="ssr:stedsnr" v="89648" />
	</node>
	<node id="-215483" lat="59.2538194488" lon="9.491191663">
		<tag k="name" v="Elgmyr" />
		<tag k="natural" v="wetland" />
		<tag k="ssr:stedsnr" v="912682" />
	</node>
	<node id="-213945" lat="59.206591668" lon="9.3351472146">
		<tag k="name" v="Raumyr" />
		<tag k="natural" v="wetland" />
		<tag k="ssr:stedsnr" v="267618" />
	</node>
	<node id="-213432" lat="59.191752779" lon="9.66398610339">
		<tag k="name" v="Storemyr" />
		<tag k="natural" v="wetland" />
		<tag k="ssr:stedsnr" v="89595" />
	</node>
	<node id="-213431" lat="59.15823056" lon="9.71721943843">
		<tag k="name" v="Gårmyr" />
		<tag k="natural" v="wetland" />
		<tag k="ssr:stedsnr" v="89386" />
	</node>
	<node id="-213942" lat="59.2542888907" lon="9.54038055198">
		<tag k="name" v="Bjørndalsmyr" />
		<tag k="natural" v="wetland" />
		<tag k="ssr:stedsnr" v="263997" />
	</node>
	<node id="-213426" lat="59.2248555596" lon="9.70701111738">
		<tag k="name" v="Den grønne myra" />
		<tag k="natural" v="wetland" />
		<tag k="ssr:stedsnr" v="88936" />
	</node>
	<node id="-214447" lat="59.2407333325" lon="9.50214722577">
		<tag k="name" v="Grunntjennmyr" />
		<tag k="natural" v="wetland" />
		<tag k="ssr:stedsnr" v="571529" />
	</node>
	<node id="-215469" lat="59.1050416703" lon="9.32201666238">
		<tag k="name" v="Nedre Mastemyr" />
		<tag k="natural" v="wetland" />
		<tag k="ssr:stedsnr" v="878935" />
	</node>
	<node id="-215468" lat="59.1078472245" lon="9.32265000181">
		<tag k="name" v="Øvre Mastemyr" />
		<tag k="natural" v="wetland" />
		<tag k="ssr:stedsnr" v="878934" />
	</node>
	<node id="-214001" lat="59.3949305572" lon="9.60317499911">
		<tag k="name" v="Nordsjømyra" />
		<tag k="natural" v="wetland" />
		<tag k="ssr:stedsnr" v="427335" />
	</node>
	<node id="-214948" lat="59.0768916652" lon="9.3508972265">
		<tag k="name" v="Håvassleiken" />
		<tag k="place" v="locality" />
		<tag k="ssr:stedsnr" v="730797" />
	</node>
	<node id="-213411" lat="59.0825277768" lon="9.46143333854">
		<tag k="name" v="Toremyr" />
		<tag k="natural" v="wetland" />
		<tag k="ssr:stedsnr" v="87879" />
	</node>
	<node id="-214426" lat="59.4376027745" lon="9.51156666855">
		<tag k="name" v="Festningsbrumyr" />
		<tag k="natural" v="wetland" />
		<tag k="ssr:stedsnr" v="566785" />
	</node>
	<node id="-213911" lat="59.3214055547" lon="9.37057499621">
		<tag k="name" v="Hovdåsmyra" />
		<tag k="natural" v="wetland" />
		<tag k="ssr:stedsnr" v="245738" />
	</node>
	<node id="-213398" lat="59.1225944461" lon="9.40909443963">
		<tag k="name" v="Skrikenes" />
		<tag k="place" v="locality" />
		<tag k="ssr:stedsnr" v="87175" />
	</node>
	<node id="-214420" lat="59.4350777786" lon="9.59011667015">
		<tag k="name" v="Fugleleikmyra" />
		<tag k="natural" v="wetland" />
		<tag k="ssr:stedsnr" v="548978" />
	</node>
	<node id="-214419" lat="59.4334361154" lon="9.47481666944">
		<tag k="name" v="Lauvsetermyra" />
		<tag k="natural" v="wetland" />
		<tag k="ssr:stedsnr" v="548972" />
	</node>
	<node id="-215442" lat="59.1148138926" lon="9.41238888863">
		<tag k="name" v="Hestekåsa" />
		<tag k="place" v="locality" />
		<tag k="ssr:stedsnr" v="877207" />
	</node>
	<node id="-213393" lat="59.2347416694" lon="9.69124722882">
		<tag k="name" v="Bjønnemyr" />
		<tag k="natural" v="wetland" />
		<tag k="ssr:stedsnr" v="86947" />
	</node>
	<node id="-215440" lat="59.0791305527" lon="9.41299723007">
		<tag k="name" v="Orekåsmyra" />
		<tag k="natural" v="wetland" />
		<tag k="ssr:stedsnr" v="877108" />
	</node>
	<node id="-215439" lat="59.0790361089" lon="9.40790278575">
		<tag k="name" v="Hustvedtplassen" />
		<tag k="place" v="locality" />
		<tag k="ssr:stedsnr" v="877107" />
	</node>
	<node id="-213386" lat="59.2083249964" lon="9.29475556289">
		<tag k="name" v="Rundemyra" />
		<tag k="natural" v="wetland" />
		<tag k="ssr:stedsnr" v="86816" />
	</node>
	<node id="-214920" lat="59.1107888928" lon="9.40104445208">
		<tag k="name" v="Solumskogen" />
		<tag k="place" v="locality" />
		<tag k="ssr:stedsnr" v="729801" />
	</node>
	<node id="-213380" lat="59.1353305576" lon="9.3614694429">
		<tag k="name" v="Klopmyr" />
		<tag k="natural" v="wetland" />
		<tag k="ssr:stedsnr" v="86711" />
	</node>
	<node id="-212867" lat="59.0918972264" lon="9.43300833273">
		<tag k="name" v="Lyngmyr" />
		<tag k="natural" v="wetland" />
		<tag k="ssr:stedsnr" v="331103" />
	</node>
	<node id="-212864" lat="59.1858999981" lon="9.43477778189">
		<tag k="name" v="Oleskås" />
		<tag k="place" v="locality" />
		<tag k="ssr:stedsnr" v="330965" />
	</node>
	<node id="-214080" lat="59.1937555512" lon="9.34471944334">
		<tag k="name" v="Svendstjenn" />
		<tag k="natural" v="wetland" />
		<tag k="ssr:stedsnr" v="450467" />
	</node>
	<node id="-213372" lat="59.24336389" lon="9.54415278025">
		<tag k="name" v="Lysane" />
		<tag k="place" v="locality" />
		<tag k="ssr:stedsnr" v="86262" />
	</node>
	<node id="-214932" lat="59.2693194438" lon="9.63257221967">
		<tag k="name" v="Stakamyr" />
		<tag k="natural" v="wetland" />
		<tag k="ssr:stedsnr" v="730478" />
	</node>
	<node id="-212854" lat="59.3404944476" lon="9.37178055391">
		<tag k="name" v="Teimyr" />
		<tag k="natural" v="wetland" />
		<tag k="ssr:stedsnr" v="330660" />
	</node>
	<node id="-212882" lat="59.2157333351" lon="9.73002500785">
		<tag k="name" v="Fugleleikmyra" />
		<tag k="natural" v="wetland" />
		<tag k="ssr:stedsnr" v="332039" />
	</node>
	<node id="-215400" lat="59.1354166667" lon="9.3462361161">
		<tag k="name" v="Moltemyr" />
		<tag k="natural" v="wetland" />
		<tag k="ssr:stedsnr" v="875697" />
	</node>
	<node id="-213564" lat="59.1549611112" lon="9.49791111216">
		<tag k="name" v="Svens" />
		<tag k="place" v="locality" />
		<tag k="ssr:stedsnr" v="147378" />
	</node>
	<node id="-215397" lat="59.3088611111" lon="9.38451110263">
		<tag k="name" v="Moltemyr" />
		<tag k="natural" v="wetland" />
		<tag k="ssr:stedsnr" v="875668" />
	</node>
	<node id="-215396" lat="59.3064888905" lon="9.37290833231">
		<tag k="name" v="Graverskog" />
		<tag k="place" v="locality" />
		<tag k="ssr:stedsnr" v="875666" />
	</node>
	<node id="-214881" lat="59.1824750017" lon="9.75548056397">
		<tag k="name" v="Flatamyra" />
		<tag k="natural" v="wetland" />
		<tag k="ssr:stedsnr" v="696006" />
	</node>
	<node id="-212880" lat="59.084341669" lon="9.33547777141">
		<tag k="name" v="Vestre Tangane" />
		<tag k="place" v="locality" />
		<tag k="ssr:stedsnr" v="331704" />
	</node>
	<node id="-212830" lat="59.2983972187" lon="9.55411111797">
		<tag k="name" v="Lauvhagen" />
		<tag k="place" v="locality" />
		<tag k="ssr:stedsnr" v="329813" />
	</node>
	<node id="-214872" lat="59.0990277813" lon="9.42945555279">
		<tag k="name" v="Langemyr" />
		<tag k="natural" v="wetland" />
		<tag k="ssr:stedsnr" v="695270" />
	</node>
	<node id="-212820" lat="59.29981389" lon="9.39365833727">
		<tag k="name" v="Storemyr" />
		<tag k="natural" v="wetland" />
		<tag k="ssr:stedsnr" v="329662" />
	</node>
	<node id="-213731" lat="59.2972611123" lon="9.40802776967">
		<tag k="name" v="Jonstjernmyra" />
		<tag k="natural" v="wetland" />
		<tag k="ssr:stedsnr" v="202769" />
	</node>
	<node id="-214859" lat="59.2144638862" lon="9.36576388094">
		<tag k="name" v="Høgebru" />
		<tag k="place" v="locality" />
		<tag k="ssr:stedsnr" v="694287" />
	</node>
	<node id="-214858" lat="59.2484027748" lon="9.53789166929">
		<tag k="name" v="Trættarholet" />
		<tag k="place" v="locality" />
		<tag k="ssr:stedsnr" v="694278" />
	</node>
	<node id="-213668" lat="59.4561055527" lon="9.451005557">
		<tag k="name" v="Brennemyra" />
		<tag k="natural" v="wetland" />
		<tag k="ssr:stedsnr" v="184007" />
	</node>
	<node id="-213558" lat="59.2397666626" lon="9.53882778568">
		<tag k="name" v="Langgangsmyra" />
		<tag k="natural" v="wetland" />
		<tag k="ssr:stedsnr" v="147253" />
	</node>
	<node id="-214327" lat="59.1324833331" lon="9.29974166228">
		<tag k="name" v="Dauhaugane" />
		<tag k="place" v="locality" />
		<tag k="ssr:stedsnr" v="514614" />
	</node>
	<node id="-214837" lat="59.0792250004" lon="9.39275000594">
		<tag k="name" v="Småkåsene" />
		<tag k="place" v="locality" />
		<tag k="ssr:stedsnr" v="695129" />
	</node>
	<node id="-215348" lat="59.3627416699" lon="9.63792500621">
		<tag k="loc_name" v="Rundemyr" />
		<tag k="name" v="Rundemyra" />
		<tag k="natural" v="wetland" />
		<tag k="ssr:stedsnr" v="852267" />
	</node>
	<node id="-214831" lat="59.1464722196" lon="9.36998055564">
		<tag k="name" v="Fjellmyrane" />
		<tag k="natural" v="wetland" />
		<tag k="ssr:stedsnr" v="693708" />
	</node>
	<node id="-214316" lat="59.0634722218" lon="9.38648332918">
		<tag k="name" v="Halvorsmyr" />
		<tag k="natural" v="wetland" />
		<tag k="ssr:stedsnr" v="513586" />
	</node>
	<node id="-214825" lat="59.3178027806" lon="9.46909444825">
		<tag k="name" v="Kisesetermyr" />
		<tag k="natural" v="wetland" />
		<tag k="ssr:stedsnr" v="693266" />
	</node>
	<node id="-214309" lat="59.1509000005" lon="9.40718056074">
		<tag k="name" v="Vikleskogen" />
		<tag k="place" v="locality" />
		<tag k="ssr:stedsnr" v="513450" />
	</node>
	<node id="-214820" lat="59.0754277759" lon="9.45460277342">
		<tag k="name" v="Langemyr" />
		<tag k="natural" v="wetland" />
		<tag k="ssr:stedsnr" v="693090" />
	</node>
	<node id="-213794" lat="59.0971027802" lon="9.44546666353">
		<tag k="name" v="Roparkåsa" />
		<tag k="place" v="locality" />
		<tag k="ssr:stedsnr" v="209274" />
	</node>
	<node id="-213793" lat="59.1025611127" lon="9.42109999542">
		<tag k="name" v="Munkeholet" />
		<tag k="natural" v="wetland" />
		<tag k="ssr:stedsnr" v="209236" />
	</node>
	<node id="-213791" lat="59.1035277759" lon="9.45788332685">
		<tag k="name" v="Rundemyra" />
		<tag k="natural" v="wetland" />
		<tag k="ssr:stedsnr" v="209057" />
	</node>
	<node id="-213790" lat="59.0510555525" lon="9.4096666683">
		<tag k="name" v="Lingårdsmyra" />
		<tag k="natural" v="wetland" />
		<tag k="ssr:stedsnr" v="208988" />
	</node>
	<node id="-213783" lat="59.1588861132" lon="9.58234999946">
		<tag k="name" v="Leikaren" />
		<tag k="place" v="locality" />
		<tag k="ssr:stedsnr" v="208883" />
	</node>
	<node id="-214804" lat="59.2305027752" lon="9.70258610809">
		<tag k="name" v="Vealøsmyra" />
		<tag k="natural" v="wetland" />
		<tag k="ssr:stedsnr" v="688978" />
	</node>
	<node id="-213778" lat="59.2906499994" lon="9.55611389536">
		<tag k="name" v="Oterholtskogen" />
		<tag k="place" v="locality" />
		<tag k="ssr:stedsnr" v="208845" />
	</node>
	<node id="-214289" lat="59.2226361079" lon="9.34855277307">
		<tag k="name" v="Springvassmyrane" />
		<tag k="natural" v="wetland" />
		<tag k="ssr:stedsnr" v="512338" />
	</node>
	<node id="-214288" lat="59.2141888852" lon="9.34602221593">
		<tag k="name" v="Bjelken" />
		<tag k="natural" v="wetland" />
		<tag k="ssr:stedsnr" v="512323" />
	</node>
	<node id="-213772" lat="59.1092527757" lon="9.38488610704">
		<tag k="name" v="Neverstokkmyrane" />
		<tag k="natural" v="wetland" />
		<tag k="ssr:stedsnr" v="208654" />
	</node>
	<node id="-213036" lat="59.2937972181" lon="9.39500556331">
		<tag k="name" v="Haraldkås" />
		<tag k="place" v="locality" />
		<tag k="ssr:stedsnr" v="390694" />
	</node>
	<node id="-214790" lat="59.3324972184" lon="9.29419443964">
		<tag k="alt_name" v="Flåtemyrane" />
		<tag k="name" v="Flottemyrane" />
		<tag k="natural" v="wetland" />
		<tag k="ssr:stedsnr" v="670841" />
	</node>
	<node id="-214276" lat="59.1831527772" lon="9.40666945071">
		<tag k="name" v="Rosmyr" />
		<tag k="natural" v="wetland" />
		<tag k="ssr:stedsnr" v="512029" />
	</node>
	<node id="-213763" lat="59.1849888881" lon="9.32304445069">
		<tag k="name" v="Runde Tveitstulmyr" />
		<tag k="natural" v="wetland" />
		<tag k="ssr:stedsnr" v="208386" />
	</node>
	<node id="-212725" lat="59.2519722248" lon="9.53638055445">
		<tag k="name" v="Livesmyr" />
		<tag k="natural" v="wetland" />
		<tag k="ssr:stedsnr" v="305689" />
	</node>
	<node id="-213748" lat="59.2101944406" lon="9.28923888639">
		<tag k="name" v="Diplemyr" />
		<tag k="natural" v="wetland" />
		<tag k="ssr:stedsnr" v="207809" />
	</node>
	<node id="-213203" lat="59.3149333341" lon="9.53512500419">
		<tag k="name" v="Eriksmyr" />
		<tag k="natural" v="wetland" />
		<tag k="ssr:stedsnr" v="26057" />
	</node>
	<node id="-214256" lat="59.3200166641" lon="9.57233611094">
		<tag k="name" v="Moltemyr" />
		<tag k="natural" v="wetland" />
		<tag k="ssr:stedsnr" v="511751" />
	</node>
	<node id="-214255" lat="59.318247225" lon="9.57930000842">
		<tag k="name" v="Sverigmyr" />
		<tag k="natural" v="wetland" />
		<tag k="ssr:stedsnr" v="511734" />
	</node>
	<node id="-213230" lat="59.2622527785" lon="9.48622222924">
		<tag k="name" v="Bjørkholt" />
		<tag k="place" v="locality" />
		<tag k="ssr:stedsnr" v="26866" />
	</node>
	<node id="-213202" lat="59.1918111075" lon="9.40146944272">
		<tag k="name" v="Potetholet" />
		<tag k="place" v="locality" />
		<tag k="ssr:stedsnr" v="26023" />
	</node>
	<node id="-214249" lat="59.1367555538" lon="9.44908888578">
		<tag k="name" v="Bjorstad" />
		<tag k="place" v="locality" />
		<tag k="ssr:stedsnr" v="511351" />
	</node>
	<node id="-213735" lat="59.4008222262" lon="9.50220556314">
		<tag k="name" v="Kleivdalsmyr" />
		<tag k="natural" v="wetland" />
		<tag k="ssr:stedsnr" v="203775" />
	</node>
	<node id="-214244" lat="59.1617111091" lon="9.34146666027">
		<tag k="name" v="Husmyr" />
		<tag k="natural" v="wetland" />
		<tag k="ssr:stedsnr" v="510668" />
	</node>
	<node id="-214243" lat="59.202291667" lon="9.35225832578">
		<tag k="name" v="Storemyr" />
		<tag k="natural" v="wetland" />
		<tag k="ssr:stedsnr" v="510458" />
	</node>
	<node id="-214241" lat="59.1888055559" lon="9.30911389475">
		<tag k="name" v="Myrhagan" />
		<tag k="natural" v="wetland" />
		<tag k="ssr:stedsnr" v="510380" />
	</node>
	<node id="-213214" lat="59.2084750009" lon="9.35971110515">
		<tag k="name" v="Orsjømyrane" />
		<tag k="natural" v="wetland" />
		<tag k="ssr:stedsnr" v="26308" />
	</node>
	<node id="-215261" lat="59.0877805564" lon="9.40324166972">
		<tag k="name" v="Stomyr" />
		<tag k="natural" v="wetland" />
		<tag k="ssr:stedsnr" v="817112" />
	</node>
	<node id="-213211" lat="59.3160611145" lon="9.40077499231">
		<tag k="name" v="Søndagsholet" />
		<tag k="place" v="locality" />
		<tag k="ssr:stedsnr" v="26217" />
	</node>
	<node id="-214223" lat="59.3436166625" lon="9.53049167071">
		<tag k="name" v="Hellermyra" />
		<tag k="natural" v="wetland" />
		<tag k="ssr:stedsnr" v="488847" />
	</node>
	<node id="-214231" lat="59.2527972215" lon="9.46144999838">
		<tag k="name" v="Svennungsmyr" />
		<tag k="natural" v="wetland" />
		<tag k="ssr:stedsnr" v="506752" />
	</node>
	<node id="-215251" lat="59.1131861103" lon="9.42162776979">
		<tag k="name" v="Nepekåsa" />
		<tag k="place" v="locality" />
		<tag k="ssr:stedsnr" v="816214" />
	</node>
	<node id="-215250" lat="59.0870916705" lon="9.39598332799">
		<tag k="name" v="Bjørkemyr" />
		<tag k="natural" v="wetland" />
		<tag k="ssr:stedsnr" v="816133" />
	</node>
	<node id="-215249" lat="59.08758056" lon="9.3918111047">
		<tag k="name" v="Springvassmyr" />
		<tag k="natural" v="wetland" />
		<tag k="ssr:stedsnr" v="816132" />
	</node>
	<node id="-212687" lat="59.1803055514" lon="9.32797221583">
		<tag k="name" v="Århanemyra" />
		<tag k="natural" v="wetland" />
		<tag k="ssr:stedsnr" v="272227" />
	</node>
	<node id="-213193" lat="59.2789027739" lon="9.51400555339">
		<tag k="name" v="Tømmermannsbakkmyra" />
		<tag k="natural" v="wetland" />
		<tag k="ssr:stedsnr" v="25469" />
	</node>
	<node id="-213191" lat="59.1992222203" lon="9.32903333961">
		<tag k="name" v="Veiåjordet" />
		<tag k="place" v="locality" />
		<tag k="ssr:stedsnr" v="25404" />
	</node>
	<node id="-212676" lat="59.0782944479" lon="9.34706388302">
		<tag k="name" v="Ørknane" />
		<tag k="natural" v="wetland" />
		<tag k="ssr:stedsnr" v="271663" />
	</node>
	<node id="-213187" lat="59.1004555542" lon="9.41827777279">
		<tag k="name" v="Langmyr" />
		<tag k="natural" v="wetland" />
		<tag k="ssr:stedsnr" v="27215" />
	</node>
	<node id="-213524" lat="59.2493111149" lon="9.48570278241">
		<tag k="name" v="Blåmyrane" />
		<tag k="natural" v="wetland" />
		<tag k="ssr:stedsnr" v="141740" />
	</node>
	<node id="-212668" lat="59.1891638894" lon="9.72591389195">
		<tag k="name" v="Vossermarka" />
		<tag k="place" v="locality" />
		<tag k="ssr:stedsnr" v="271029" />
	</node>
	<node id="-212664" lat="59.1488777812" lon="9.3923694449">
		<tag k="name" v="Leirgrava" />
		<tag k="place" v="locality" />
		<tag k="ssr:stedsnr" v="270415" />
	</node>
	<node id="-213620" lat="59.1575805597" lon="9.65257776945">
		<tag k="name" v="Borgestadjordet" />
		<tag k="place" v="locality" />
		<tag k="ssr:stedsnr" v="149792" />
	</node>
	<node id="-215220" lat="59.2671999976" lon="9.43596389477">
		<tag k="name" v="Lille Haugmyr" />
		<tag k="natural" v="wetland" />
		<tag k="ssr:stedsnr" v="815552" />
	</node>
	<node id="-215219" lat="59.2650250038" lon="9.44057778198">
		<tag k="name" v="Store Haugmyr" />
		<tag k="natural" v="wetland" />
		<tag k="ssr:stedsnr" v="815545" />
	</node>
	<node id="-215218" lat="59.2594805554" lon="9.4412138965">
		<tag k="name" v="Geitebumyr" />
		<tag k="natural" v="wetland" />
		<tag k="ssr:stedsnr" v="815542" />
	</node>
	<node id="-212657" lat="59.086461111" lon="9.40076110378">
		<tag k="name" v="Moltemyr" />
		<tag k="natural" v="wetland" />
		<tag k="ssr:stedsnr" v="270132" />
	</node>
	<node id="-212998" lat="59.1955333321" lon="9.30486944966">
		<tag k="name" v="Snømyr" />
		<tag k="natural" v="wetland" />
		<tag k="ssr:stedsnr" v="389422" />
	</node>
	<node id="-215212" lat="59.2756527736" lon="9.52524722913">
		<tag k="name" v="Gromstulskogen" />
		<tag k="place" v="locality" />
		<tag k="ssr:stedsnr" v="815468" />
	</node>
	<node id="-214642" lat="59.1259861133" lon="9.38168889587">
		<tag k="name" v="Slåtten" />
		<tag k="natural" v="wetland" />
		<tag k="ssr:stedsnr" v="632698" />
	</node>
	<node id="-214698" lat="59.2160916623" lon="9.70119444311">
		<tag k="name" v="Tverråmyra" />
		<tag k="natural" v="wetland" />
		<tag k="ssr:stedsnr" v="634945" />
	</node>
	<node id="-212648" lat="59.2934805568" lon="9.43067778135">
		<tag k="name" v="Elgtjennmarka" />
		<tag k="place" v="locality" />
		<tag k="ssr:stedsnr" v="269873" />
	</node>
	<node id="-215204" lat="59.2189833346" lon="9.40853611765">
		<tag k="name" v="Vidda" />
		<tag k="place" v="locality" />
		<tag k="ssr:stedsnr" v="815216" />
	</node>
	<node id="-212643" lat="59.3519249966" lon="9.3950722165">
		<tag k="name" v="Nibbemyr" />
		<tag k="natural" v="wetland" />
		<tag k="ssr:stedsnr" v="269648" />
	</node>
	<node id="-215201" lat="59.3089499962" lon="9.53446944895">
		<tag k="name" v="Liajordet" />
		<tag k="place" v="locality" />
		<tag k="ssr:stedsnr" v="815128" />
	</node>
	<node id="-212636" lat="59.1557638854" lon="9.46434167135">
		<tag k="name" v="Muren" />
		<tag k="place" v="locality" />
		<tag k="ssr:stedsnr" v="269282" />
	</node>
	<node id="-214681" lat="59.2968527772" lon="9.42909721667">
		<tag k="name" v="Elgtjennmyra" />
		<tag k="natural" v="wetland" />
		<tag k="ssr:stedsnr" v="633900" />
	</node>
	<node id="-215190" lat="59.2145083353" lon="9.29521665959">
		<tag k="name" v="Vintermyr" />
		<tag k="natural" v="wetland" />
		<tag k="ssr:stedsnr" v="814813" />
	</node>
	<node id="-215188" lat="59.27055" lon="9.61873055963">
		<tag k="name" v="Ramsmyr" />
		<tag k="natural" v="wetland" />
		<tag k="ssr:stedsnr" v="814753" />
	</node>
	<node id="-215187" lat="59.1313444482" lon="9.35574722581">
		<tag k="name" v="Dansamyr" />
		<tag k="natural" v="wetland" />
		<tag k="ssr:stedsnr" v="814724" />
	</node>
	<node id="-214159" lat="59.1700638912" lon="9.32520556123">
		<tag k="name" v="Bjørkesto" />
		<tag k="place" v="locality" />
		<tag k="ssr:stedsnr" v="454217" />
	</node>
	<node id="-215178" lat="59.1997750039" lon="9.33335555982">
		<tag k="name" v="Arnesmyrer" />
		<tag k="natural" v="wetland" />
		<tag k="ssr:stedsnr" v="814438" />
	</node>
	<node id="-214151" lat="59.092988885" lon="9.32758610383">
		<tag k="name" v="Tangane" />
		<tag k="place" v="locality" />
		<tag k="ssr:stedsnr" v="453826" />
	</node>
	<node id="-215684" lat="59.1323955783" lon="9.5078654171">
		<tag k="name" v="Grøtviken" />
		<tag k="place" v="locality" />
		<tag k="ssr:stedsnr" v="980201" />
	</node>
	<node id="-213355" lat="59.3234916635" lon="9.52742221519">
		<tag k="name" v="Kaldholt" />
		<tag k="place" v="locality" />
		<tag k="ssr:stedsnr" v="81783" />
	</node>
	<node id="-213632" lat="59.1147194406" lon="9.34813610378">
		<tag k="name" v="Årmyr" />
		<tag k="natural" v="wetland" />
		<tag k="ssr:stedsnr" v="268613" />
	</node>
	<node id="-213629" lat="59.1007055583" lon="9.27317222076">
		<tag k="name" v="Mjåvannsmarka" />
		<tag k="place" v="locality" />
		<tag k="ssr:stedsnr" v="150867" />
	</node>
	<node id="-215163" lat="59.185505553" lon="9.7588583281">
		<tag k="name" v="Donsmyr" />
		<tag k="natural" v="wetland" />
		<tag k="ssr:stedsnr" v="809920" />
	</node>
	<node id="-215160" lat="59.2960194406" lon="9.51837777562">
		<tag k="name" v="Sagvegmyr" />
		<tag k="natural" v="wetland" />
		<tag k="ssr:stedsnr" v="809766" />
	</node>
	<node id="-214036" lat="59.4178972227" lon="9.54495832895">
		<tag k="name" v="Diplemyr" />
		<tag k="natural" v="wetland" />
		<tag k="ssr:stedsnr" v="427861" />
	</node>
	<node id="-214644" lat="59.3138666644" lon="9.5794472219">
		<tag k="name" v="Flatmarken" />
		<tag k="place" v="locality" />
		<tag k="ssr:stedsnr" v="632738" />
	</node>
	<node id="-215667" lat="59.191679369" lon="9.76159766913">
		<tag k="name" v="Haukeråsen" />
		<tag k="place" v="locality" />
		<tag k="ssr:stedsnr" v="980134" />
	</node>
	<node id="-215666" lat="59.1959998903" lon="9.74761544436">
		<tag k="name" v="Låven" />
		<tag k="place" v="locality" />
		<tag k="ssr:stedsnr" v="980132" />
	</node>
	<node id="-214035" lat="59.3252583315" lon="9.30858888659">
		<tag k="name" v="Kjosvikmyra" />
		<tag k="natural" v="wetland" />
		<tag k="ssr:stedsnr" v="427841" />
	</node>
	<node id="-214125" lat="59.0911833373" lon="9.40327222779">
		<tag k="name" v="Lauvsmyr" />
		<tag k="natural" v="wetland" />
		<tag k="ssr:stedsnr" v="452095" />
	</node>
	<node id="-213010" lat="59.3079722223" lon="9.56672221705">
		<tag k="name" v="Moltemyr" />
		<tag k="natural" v="wetland" />
		<tag k="ssr:stedsnr" v="389833" />
	</node>
	<node id="-215146" lat="59.2707055575" lon="9.51494444736">
		<tag k="name" v="Den lange myra" />
		<tag k="natural" v="wetland" />
		<tag k="ssr:stedsnr" v="791645" />
	</node>
	<node id="-214716" lat="59.1146361092" lon="9.28545555003">
		<tag k="name" v="Grønnmyr" />
		<tag k="natural" v="wetland" />
		<tag k="ssr:stedsnr" v="635890" />
	</node>
	<node id="-213603" lat="59.1179000001" lon="9.49049444009">
		<tag k="name" v="Bolvikliane" />
		<tag k="place" v="locality" />
		<tag k="ssr:stedsnr" v="148253" />
	</node>
	<node id="-213812" lat="59.087563891" lon="9.34301389614">
		<tag k="name" v="Østre Tangane" />
		<tag k="place" v="locality" />
		<tag k="ssr:stedsnr" v="210712" />
	</node>
	<node id="-214459" lat="59.3265083303" lon="9.55939721486">
		<tag k="name" v="Meiseholtet" />
		<tag k="place" v="locality" />
		<tag k="ssr:stedsnr" v="571740" />
	</node>
	<node id="-213600" lat="59.0822805554" lon="9.4153416647">
		<tag k="name" v="Kasmyr" />
		<tag k="natural" v="wetland" />
		<tag k="ssr:stedsnr" v="148112" />
	</node>
	<node id="-213599" lat="59.0954027822" lon="9.39388888432">
		<tag k="name" v="Den låge myra" />
		<tag k="natural" v="wetland" />
		<tag k="ssr:stedsnr" v="148096" />
	</node>
	<node id="-215645" lat="59.2193666646" lon="9.66624166245">
		<tag k="name" v="Rustaden" />
		<tag k="place" v="locality" />
		<tag k="ssr:stedsnr" v="970357" />
	</node>
	<node id="-214620" lat="59.2428083305" lon="9.47838055658">
		<tag k="name" v="Godalsmyra" />
		<tag k="natural" v="wetland" />
		<tag k="ssr:stedsnr" v="627782" />
	</node>
	<node id="-214107" lat="59.1439944411" lon="9.47622222709">
		<tag k="name" v="Rønningen" />
		<tag k="place" v="locality" />
		<tag k="ssr:stedsnr" v="451380" />
	</node>
	<node id="-213592" lat="59.1758166638" lon="9.57104722959">
		<tag k="landuse" v="quarry" />
		<tag k="name" v="Sandtak" />
		<tag k="ssr:stedsnr" v="147927" />
	</node>
	<node id="-213590" lat="59.1641083328" lon="9.58016666517">
		<tag k="name" v="Langemyra" />
		<tag k="natural" v="wetland" />
		<tag k="old_name" v="Lamgemyr" />
		<tag k="ssr:stedsnr" v="147911" />
	</node>
	<node id="-213433" lat="59.0873583356" lon="9.38459722672">
		<tag k="name" v="Store Eikelimyra" />
		<tag k="natural" v="wetland" />
		<tag k="ssr:stedsnr" v="89598" />
	</node>
	<node id="-213587" lat="59.0809083296" lon="9.46401665831">
		<tag k="name" v="Toremyrkollen" />
		<tag k="natural" v="wetland" />
		<tag k="ssr:stedsnr" v="147864" />
	</node>
	<node id="-212872" lat="59.1224166646" lon="9.49663054772">
		<tag k="name" v="Kåsene" />
		<tag k="place" v="locality" />
		<tag k="ssr:stedsnr" v="331237" />
	</node>
	<node id="-214089" lat="59.1587972179" lon="9.57439999409">
		<tag k="name" v="Storemyr" />
		<tag k="natural" v="wetland" />
		<tag k="ssr:stedsnr" v="450873" />
	</node>
	<node id="-213575" lat="59.1142111137" lon="9.37993333873">
		<tag k="name" v="Stutaumyra" />
		<tag k="natural" v="wetland" />
		<tag k="ssr:stedsnr" v="147604" />
	</node>
	<node id="-213574" lat="59.1158416659" lon="9.35761388793">
		<tag k="name" v="Dammyra" />
		<tag k="natural" v="wetland" />
		<tag k="ssr:stedsnr" v="147602" />
	</node>
	<node id="-213061" lat="59.0888194414" lon="9.41726389004">
		<tag k="name" v="Rødmyr" />
		<tag k="natural" v="wetland" />
		<tag k="ssr:stedsnr" v="392114" />
	</node>
	<node id="-215620" lat="59.2357499992" lon="9.71700555724">
		<tag k="name" v="Sandmyrane" />
		<tag k="natural" v="wetland" />
		<tag k="ssr:stedsnr" v="939070" />
	</node>
	<node id="-215616" lat="59.0861055544" lon="9.34946388415">
		<tag k="name" v="Granlien" />
		<tag k="place" v="locality" />
		<tag k="ssr:stedsnr" v="938689" />
	</node>
	<node id="-214113" lat="59.2982805532" lon="9.41860834204">
		<tag k="name" v="Skabbmyrane" />
		<tag k="natural" v="wetland" />
		<tag k="ssr:stedsnr" v="451884" />
	</node>
	<node id="-215612" lat="59.1087055511" lon="9.40216943939">
		<tag k="name" v="Melkemyr" />
		<tag k="natural" v="wetland" />
		<tag k="ssr:stedsnr" v="938190" />
	</node>
	<node id="-215610" lat="59.1082694413" lon="9.41566666105">
		<tag k="name" v="Storemyr" />
		<tag k="natural" v="wetland" />
		<tag k="ssr:stedsnr" v="938187" />
	</node>
	<node id="-213560" lat="59.2430999988" lon="9.50751666587">
		<tag k="name" v="Droplemyra" />
		<tag k="natural" v="wetland" />
		<tag k="ssr:stedsnr" v="147279" />
	</node>
	<node id="-212660" lat="59.1031305554" lon="9.4033472168">
		<tag k="name" v="Stakemyr" />
		<tag k="natural" v="wetland" />
		<tag k="ssr:stedsnr" v="270225" />
	</node>
	<node id="-215606" lat="59.0901250003" lon="9.40519722915">
		<tag k="name" v="Krokmyr" />
		<tag k="natural" v="wetland" />
		<tag k="ssr:stedsnr" v="938093" />
	</node>
	<node id="-213557" lat="59.2411805579" lon="9.53642222124">
		<tag k="name" v="Breigangsmyra" />
		<tag k="natural" v="wetland" />
		<tag k="ssr:stedsnr" v="147252" />
	</node>
	<node id="-213042" lat="59.0844305563" lon="9.45261111627">
		<tag k="name" v="Tørrgranmyra" />
		<tag k="natural" v="wetland" />
		<tag k="ssr:stedsnr" v="390885" />
	</node>
	<node id="-214707" lat="59.1188888916" lon="9.28441388675">
		<tag k="name" v="Storemyr" />
		<tag k="natural" v="wetland" />
		<tag k="ssr:stedsnr" v="635571" />
	</node>
	<node id="-213552" lat="59.3149416677" lon="9.42351943674">
		<tag k="name" v="Raumyr" />
		<tag k="natural" v="wetland" />
		<tag k="ssr:stedsnr" v="147193" />
	</node>
	<node id="-213039" lat="59.2733805551" lon="9.49200000659">
		<tag k="name" v="Preberkollmyr" />
		<tag k="natural" v="wetland" />
		<tag k="ssr:stedsnr" v="390753" />
	</node>
	<node id="-213550" lat="59.127508336" lon="9.4438388802">
		<tag k="name" v="Sauholsmyr" />
		<tag k="natural" v="wetland" />
		<tag k="ssr:stedsnr" v="147173" />
	</node>
	<node id="-213597" lat="59.272938885" lon="9.44896111706">
		<tag k="name" v="Storemyr" />
		<tag k="natural" v="wetland" />
		<tag k="ssr:stedsnr" v="147973" />
	</node>
	<node id="-215084" lat="59.177836113" lon="9.56943889749">
		<tag k="name" v="Skyggestein" />
		<tag k="natural" v="stone" />
		<tag k="ssr:stedsnr" v="762544" />
	</node>
	<node id="-214187" lat="59.2516166706" lon="9.47316944895">
		<tag k="name" v="Underdalsmyrane" />
		<tag k="natural" v="wetland" />
		<tag k="ssr:stedsnr" v="487712" />
	</node>
	<node id="-212999" lat="59.3445611144" lon="9.33530278235">
		<tag k="name" v="Rolighetsmyr" />
		<tag k="natural" v="wetland" />
		<tag k="ssr:stedsnr" v="389513" />
	</node>
	<node id="-214705" lat="59.1813999979" lon="9.73425832897">
		<tag k="name" v="Sannimyra" />
		<tag k="natural" v="wetland" />
		<tag k="ssr:stedsnr" v="635461" />
	</node>
	<node id="-215588" lat="59.1296888894" lon="9.58728333273">
		<tag k="name" v="Stormyr" />
		<tag k="natural" v="wetland" />
		<tag k="ssr:stedsnr" v="936977" />
	</node>
	<node id="-215075" lat="59.2258444468" lon="9.71882222239">
		<tag k="name" v="Vealøsmyra" />
		<tag k="natural" v="wetland" />
		<tag k="ssr:stedsnr" v="757060" />
	</node>
	<node id="-213026" lat="59.2141333297" lon="9.2789416741">
		<tag k="name" v="Svartufsmyra" />
		<tag k="natural" v="wetland" />
		<tag k="ssr:stedsnr" v="390359" />
	</node>
	<node id="-213537" lat="59.3379499994" lon="9.33337778323">
		<tag k="name" v="Blaksmyr" />
		<tag k="natural" v="wetland" />
		<tag k="ssr:stedsnr" v="146485" />
	</node>
	<node id="-213023" lat="59.2233111139" lon="9.35177500377">
		<tag k="name" v="Tjønnkåsane" />
		<tag k="place" v="locality" />
		<tag k="ssr:stedsnr" v="390297" />
	</node>
	<node id="-213019" lat="59.3241888903" lon="9.41635000266">
		<tag k="name" v="Brente" />
		<tag k="place" v="locality" />
		<tag k="ssr:stedsnr" v="390194" />
	</node>
	<node id="-213764" lat="59.186258337" lon="9.29982499358">
		<tag k="name" v="Stulsmyr" />
		<tag k="natural" v="wetland" />
		<tag k="ssr:stedsnr" v="208387" />
	</node>
	<node id="-213526" lat="59.2517499994" lon="9.66514167538">
		<tag k="name" v="Vegmyrane" />
		<tag k="natural" v="wetland" />
		<tag k="ssr:stedsnr" v="141929" />
	</node>
	<node id="-215060" lat="59.1550111082" lon="9.44096666655">
		<tag k="name" v="Langemyr" />
		<tag k="natural" v="wetland" />
		<tag k="ssr:stedsnr" v="756436" />
	</node>
	<node id="-215059" lat="59.1471166637" lon="9.39829444763">
		<tag k="name" v="Vierkåsa" />
		<tag k="place" v="locality" />
		<tag k="ssr:stedsnr" v="756416" />
	</node>
	<node id="-213522" lat="59.277472223" lon="9.52043054774">
		<tag k="name" v="Raudmyr" />
		<tag k="natural" v="wetland" />
		<tag k="ssr:stedsnr" v="141734" />
	</node>
	<node id="-213521" lat="59.2782833321" lon="9.4338805623">
		<tag k="name" v="Halvfarsmyr" />
		<tag k="natural" v="wetland" />
		<tag k="ssr:stedsnr" v="141725" />
	</node>
	<node id="-213080" lat="59.1939527773" lon="9.63537778012">
		<tag k="name" v="Brattsbergskogen" />
		<tag k="place" v="locality" />
		<tag k="ssr:stedsnr" v="473381" />
	</node>
	<node id="-215566" lat="59.1497777745" lon="9.35300000644">
		<tag k="name" v="Øyseter" />
		<tag k="natural" v="wetland" />
		<tag k="ssr:stedsnr" v="936679" />
	</node>
	<node id="-213004" lat="59.3169083363" lon="9.35411666901">
		<tag k="name" v="Rossmyr" />
		<tag k="natural" v="wetland" />
		<tag k="ssr:stedsnr" v="389659" />
	</node>
	<node id="-212994" lat="59.3186694448" lon="9.54197778259">
		<tag k="name" v="Hestemyr" />
		<tag k="natural" v="wetland" />
		<tag k="ssr:stedsnr" v="389030" />
	</node>
	<node id="-213001" lat="59.1113305563" lon="9.33901667143">
		<tag k="name" v="Langgangsmyrane" />
		<tag k="natural" v="wetland" />
		<tag k="ssr:stedsnr" v="389628" />
	</node>
	<node id="-215559" lat="59.112827781" lon="9.35134722169">
		<tag k="name" v="Skærkemyr" />
		<tag k="natural" v="wetland" />
		<tag k="ssr:stedsnr" v="936607" />
	</node>
	<node id="-215046" lat="59.0963083335" lon="9.42953056376">
		<tag k="name" v="Storemyr" />
		<tag k="natural" v="wetland" />
		<tag k="ssr:stedsnr" v="755261" />
	</node>
	<node id="-215045" lat="59.098330555" lon="9.42238332752">
		<tag k="name" v="Leikmyr" />
		<tag k="natural" v="wetland" />
		<tag k="ssr:stedsnr" v="755257" />
	</node>
	<node id="-215044" lat="59.1201833319" lon="9.46779722414">
		<tag k="name" v="Eikebrekkollen" />
		<tag k="place" v="locality" />
		<tag k="ssr:stedsnr" v="755245" />
	</node>
	<node id="-214530" lat="59.137719448" lon="9.28251389477">
		<tag k="name" v="Briskemyr" />
		<tag k="natural" v="wetland" />
		<tag k="ssr:stedsnr" v="574641" />
	</node>
	<node id="-215041" lat="59.1264333369" lon="9.45213888218">
		<tag k="name" v="Haugland" />
		<tag k="place" v="locality" />
		<tag k="ssr:stedsnr" v="755238" />
	</node>
</osm>
