<?xml version="1.0" encoding="UTF-8"?>
<osm generator="osmapis" version="0.6">
	<node id="-89941" lat="69.032981729" lon="17.4616617659">
		<tag k="fixme" v="consider place=hamlet" />
		<tag k="name" v="Forså" />
		<tag k="place" v="farm" />
		<tag k="ssr:stedsnr" v="868302" />
	</node>
	<node id="-89080" lat="68.9811972195" lon="17.4933360996">
		<tag k="name" v="Steinvoll" />
		<tag k="place" v="farm" />
		<tag k="ssr:stedsnr" v="901802" />
	</node>
	<node id="-89428" lat="69.0721805541" lon="17.5491277702">
		<tag k="name" v="Dalvik" />
		<tag k="place" v="farm" />
		<tag k="ssr:stedsnr" v="200369" />
	</node>
	<node id="-88745" lat="69.1126971677" lon="17.682776224">
		<tag k="alt_name" v="Betholmen" />
		<tag k="fixme" v="consider place=hamlet" />
		<tag k="name" v="Bettholmen" />
		<tag k="place" v="farm" />
		<tag k="ssr:stedsnr" v="451389" />
	</node>
	<node id="-89070" lat="69.0329694416" lon="17.5582583217">
		<tag k="name" v="Vollstad" />
		<tag k="place" v="farm" />
		<tag k="ssr:stedsnr" v="901346" />
	</node>
	<node id="-89579" lat="69.0604305587" lon="17.4326055544">
		<tag k="name" v="Gårdan" />
		<tag k="place" v="locality" />
		<tag k="ssr:stedsnr" v="416747" />
	</node>
	<node id="-88535" lat="68.9885500031" lon="17.4874833364">
		<tag k="name" v="Tufteteigen" />
		<tag k="place" v="isolated_dwelling" />
		<tag k="ssr:stedsnr" v="233826" />
	</node>
	<node id="-89556" lat="69.0747611102" lon="17.5488499895">
		<tag k="name" v="Furuheim" />
		<tag k="place" v="farm" />
		<tag k="ssr:stedsnr" v="404115" />
	</node>
	<node id="-89090" lat="69.0180861154" lon="17.8662444398">
		<tag k="name" v="Bjørklund" />
		<tag k="place" v="isolated_dwelling" />
		<tag k="ssr:stedsnr" v="746615" />
	</node>
	<node id="-88823" lat="69.0575544039" lon="17.6245801475">
		<tag k="fixme" v="consider place=hamlet" />
		<tag k="name" v="Søre Sæter" />
		<tag k="old_name" v="Sæter, s" />
		<tag k="place" v="farm" />
		<tag k="ssr:stedsnr" v="504322" />
	</node>
	<node id="-89029" lat="69.0282250029" lon="17.8548500021">
		<tag k="historic" v="shieling" />
		<tag k="name" v="Anekåken" />
		<tag k="place" v="locality" />
		<tag k="ssr:stedsnr" v="887785" />
	</node>
	<node id="-88513" lat="69.0252111094" lon="17.6907305577">
		<tag k="name" v="Plassen" />
		<tag k="place" v="locality" />
		<tag k="ssr:stedsnr" v="38303" />
	</node>
	<node id="-89535" lat="69.0689499977" lon="17.3980861025">
		<tag k="alt_name" v="Storelv" />
		<tag k="name" v="Berglund" />
		<tag k="place" v="farm" />
		<tag k="ssr:stedsnr" v="384622" />
	</node>
	<node id="-89532" lat="69.0788361088" lon="17.7522388907">
		<tag k="alt_name" v="Finnfjellet, s" />
		<tag k="name" v="Søre Finnfjellet" />
		<tag k="old_name" v="Finnfjellet" />
		<tag k="place" v="farm" />
		<tag k="ssr:stedsnr" v="382347" />
	</node>
	<node id="-89531" lat="69.0505388924" lon="17.5282527846">
		<tag k="alt_name" v="Utenga" />
		<tag k="name" v="Uteng" />
		<tag k="place" v="farm" />
		<tag k="ssr:stedsnr" v="382327" />
	</node>
	<node id="-89530" lat="69.1237180195" lon="17.8214595887">
		<tag k="alt_name" v="Enga" />
		<tag k="name" v="Engen" />
		<tag k="place" v="farm" />
		<tag k="ssr:stedsnr" v="382272" />
	</node>
	<node id="-89529" lat="69.1177249973" lon="17.7393999942">
		<tag k="name" v="Espenes" />
		<tag k="place" v="farm" />
		<tag k="ssr:stedsnr" v="382268" />
	</node>
	<node id="-89528" lat="69.0863111136" lon="17.4972749938">
		<tag k="name" v="Seljevoll" />
		<tag k="place" v="farm" />
		<tag k="ssr:stedsnr" v="382240" />
	</node>
	<node id="-88820" lat="69.1088999988" lon="17.7447472296">
		<tag k="name" v="Storhaugen" />
		<tag k="place" v="farm" />
		<tag k="ssr:stedsnr" v="504239" />
	</node>
	<node id="-89014" lat="68.9975277786" lon="17.4149583245">
		<tag k="name" v="Nordhus" />
		<tag k="place" v="farm" />
		<tag k="ssr:stedsnr" v="879926" />
	</node>
	<node id="-88485" lat="69.0321888939" lon="17.7436110991">
		<tag k="fixme" v="consider place=hamlet" />
		<tag k="name" v="Innigårdan" />
		<tag k="place" v="farm" />
		<tag k="ssr:stedsnr" v="220328" />
	</node>
	<node id="-88990" lat="69.0290444472" lon="17.357319443">
		<tag k="name" v="Teien" />
		<tag k="place" v="farm" />
		<tag k="ssr:stedsnr" v="719892" />
	</node>
	<node id="-89582" lat="69.0608805548" lon="17.389794434">
		<tag k="fixme" v="consider place=hamlet" />
		<tag k="name" v="Storelva" />
		<tag k="place" v="farm" />
		<tag k="ssr:stedsnr" v="416757" />
	</node>
	<node id="-88977" lat="69.0649444781" lon="17.3909637237">
		<tag k="name" v="Storelvhaugen" />
		<tag k="place" v="locality" />
		<tag k="ssr:stedsnr" v="719768" />
	</node>
	<node id="-88976" lat="69.0790944435" lon="17.6845833397">
		<tag k="fixme" v="consider place=hamlet" />
		<tag k="name" v="Brøstad" />
		<tag k="place" v="village" />
		<tag k="ssr:stedsnr" v="719509" />
	</node>
	<node id="-88728" lat="69.1128444486" lon="17.7469527666">
		<tag k="name" v="Skogstad" />
		<tag k="place" v="farm" />
		<tag k="ssr:stedsnr" v="443274" />
	</node>
	<node id="-88971" lat="69.0395666666" lon="17.5044777678">
		<tag k="name" v="Framnes" />
		<tag k="place" v="farm" />
		<tag k="ssr:stedsnr" v="719149" />
	</node>
	<node id="-89986" lat="68.9942456469" lon="17.9887123148">
		<tag k="name" v="Synnerdalen" />
		<tag k="place" v="locality" />
		<tag k="ssr:stedsnr" v="1077654" />
	</node>
	<node id="-89985" lat="69.0323592929" lon="17.4565964513">
		<tag k="fixme" v="consider place=hamlet" />
		<tag k="name" v="Øvre Forså" />
		<tag k="place" v="farm" />
		<tag k="ssr:stedsnr" v="1077645" />
	</node>
	<node id="-89984" lat="69.0261536009" lon="17.4533897635">
		<tag k="fixme" v="consider place=hamlet" />
		<tag k="name" v="Liasletta" />
		<tag k="place" v="farm" />
		<tag k="ssr:stedsnr" v="1077644" />
	</node>
	<node id="-89983" lat="68.9236517932" lon="17.4746411209">
		<tag k="alt_name" v="Søndre Giskevik" />
		<tag k="name" v="Søre Gjeskevika" />
		<tag k="place" v="locality" />
		<tag k="ssr:stedsnr" v="1077638" />
	</node>
	<node id="-89982" lat="68.9468204647" lon="17.4789685317">
		<tag k="alt_name" v="Nordre Giskevik" />
		<tag k="name" v="Nordre Gjeskevika" />
		<tag k="place" v="locality" />
		<tag k="ssr:stedsnr" v="1077637" />
	</node>
	<node id="-89981" lat="69.0620119844" lon="17.6436152577">
		<tag k="name" v="Sæter" />
		<tag k="place" v="hamlet" />
		<tag k="ssr:stedsnr" v="1077636" />
	</node>
	<node id="-89980" lat="69.0788687225" lon="17.6816706814">
		<tag k="fixme" v="consider place=hamlet" />
		<tag k="name" v="Nergård" />
		<tag k="place" v="farm" />
		<tag k="ssr:stedsnr" v="1077635" />
	</node>
	<node id="-89979" lat="69.0928457129" lon="17.6703528134">
		<tag k="fixme" v="consider place=hamlet" />
		<tag k="name" v="Finnland" />
		<tag k="place" v="farm" />
		<tag k="ssr:stedsnr" v="1077633" />
	</node>
	<node id="-89978" lat="69.0936118883" lon="17.624228528">
		<tag k="alt_name" v="Finnlandsnesset" />
		<tag k="fixme" v="consider place=hamlet" />
		<tag k="name" v="Finnlandsneset" />
		<tag k="place" v="farm" />
		<tag k="ssr:stedsnr" v="1077632" />
	</node>
	<node id="-89977" lat="69.6807751959" lon="19.0868014399">
		<tag k="fixme" v="consider place=hamlet" />
		<tag k="name" v="Krokelv" />
		<tag k="place" v="farm" />
		<tag k="ssr:stedsnr" v="1076826" />
	</node>
	<node id="-89976" lat="69.6548386171" lon="18.9540555979">
		<tag k="amenity" v="school" />
		<tag k="name" v="Ishavsbyen videregående skole" />
		<tag k="ssr:stedsnr" v="1075695" />
	</node>
	<node id="-89973" lat="69.1226310015" lon="17.8170976912">
		<tag k="name" v="Bråten" />
		<tag k="place" v="farm" />
		<tag k="ssr:stedsnr" v="975601" />
	</node>
	<node id="-89775" lat="69.0152055576" lon="17.4406527659">
		<tag k="alt_name" v="Stølfest" />
		<tag k="name" v="Sølvfest" />
		<tag k="place" v="farm" />
		<tag k="ssr:stedsnr" v="746620" />
	</node>
	<node id="-89455" lat="69.0633676661" lon="17.5428012879">
		<tag k="fixme" v="consider place=hamlet" />
		<tag k="name" v="Langhamn" />
		<tag k="place" v="farm" />
		<tag k="ssr:stedsnr" v="322322" />
	</node>
	<node id="-89452" lat="69.0391277812" lon="17.7313166566">
		<tag k="name" v="Myrvang" />
		<tag k="place" v="isolated_dwelling" />
		<tag k="ssr:stedsnr" v="322298" />
	</node>
	<node id="-89451" lat="69.1302882594" lon="17.8727089609">
		<tag k="name" v="Solstrand" />
		<tag k="place" v="farm" />
		<tag k="ssr:stedsnr" v="322268" />
	</node>
	<node id="-89450" lat="69.1272598345" lon="17.8481819301">
		<tag k="name" v="Forstrand" />
		<tag k="place" v="hamlet" />
		<tag k="ssr:stedsnr" v="322266" />
	</node>
	<node id="-89449" lat="69.1163527752" lon="17.7989638889">
		<tag k="name" v="Moen" />
		<tag k="place" v="hamlet" />
		<tag k="ssr:stedsnr" v="322252" />
	</node>
	<node id="-89447" lat="68.9847580534" lon="17.5504295206">
		<tag k="alt_name" v="Finnobakken" />
		<tag k="fixme" v="consider place=hamlet" />
		<tag k="name" v="Frimobakken" />
		<tag k="place" v="farm" />
		<tag k="ssr:stedsnr" v="321883" />
	</node>
	<node id="-89446" lat="68.9574548089" lon="17.5642267117">
		<tag k="fixme" v="consider place=hamlet" />
		<tag k="name" v="Sørfjorden" />
		<tag k="place" v="farm" />
		<tag k="ssr:stedsnr" v="321857" />
	</node>
	<node id="-88721" lat="68.9991277823" lon="17.8368333323">
		<tag k="alt_name" v="Skjelhaugan" />
		<tag k="name" v="Skjellhaugan" />
		<tag k="place" v="locality" />
		<tag k="ssr:stedsnr" v="442965" />
	</node>
	<node id="-89443" lat="69.084925002" lon="17.7635805472">
		<tag k="name" v="Skoglund" />
		<tag k="place" v="farm" />
		<tag k="ssr:stedsnr" v="321346" />
	</node>
	<node id="-89437" lat="68.9876194436" lon="17.3749916555">
		<tag k="name" v="Hagenes" />
		<tag k="place" v="farm" />
		<tag k="ssr:stedsnr" v="212647" />
	</node>
	<node id="-89436" lat="69.0800004173" lon="17.7522606902">
		<tag k="fixme" v="consider place=hamlet" />
		<tag k="name" v="Finnfjellet" />
		<tag k="place" v="farm" />
		<tag k="ssr:stedsnr" v="211379" />
	</node>
	<node id="-89946" lat="69.0321944439" lon="17.5572388986">
		<tag k="name" v="Berglund" />
		<tag k="place" v="farm" />
		<tag k="ssr:stedsnr" v="870275" />
	</node>
	<node id="-89429" lat="69.0833055512" lon="17.6950027803">
		<tag k="name" v="Brøstad" />
		<tag k="place" v="quarter" />
		<tag k="ssr:stedsnr" v="200374" />
	</node>
	<node id="-89940" lat="69.1165638866" lon="17.7714583279">
		<tag k="name" v="Haug" />
		<tag k="place" v="farm" />
		<tag k="ssr:stedsnr" v="868263" />
	</node>
	<node id="-89427" lat="69.0639861144" lon="17.7457138751">
		<tag k="name" v="Lunde" />
		<tag k="place" v="farm" />
		<tag k="ssr:stedsnr" v="200357" />
	</node>
	<node id="-88912" lat="69.0085305564" lon="17.3760277741">
		<tag k="name" v="Vinje" />
		<tag k="place" v="hamlet" />
		<tag k="ssr:stedsnr" v="688637" />
	</node>
	<node id="-89423" lat="69.0909027814" lon="17.6780555619">
		<tag k="name" v="Sollia" />
		<tag k="place" v="farm" />
		<tag k="ssr:stedsnr" v="200249" />
	</node>
	<node id="-89422" lat="69.0945065064" lon="17.6665296058">
		<tag k="fixme" v="consider place=hamlet" />
		<tag k="name" v="Finnland" />
		<tag k="place" v="farm" />
		<tag k="ssr:stedsnr" v="200247" />
	</node>
	<node id="-89421" lat="69.08453611" lon="17.6980972182">
		<tag k="name" v="Lia" />
		<tag k="place" v="farm" />
		<tag k="ssr:stedsnr" v="200240" />
	</node>
	<node id="-89926" lat="69.0073861099" lon="17.3753888901">
		<tag k="name" v="Brenna" />
		<tag k="place" v="farm" />
		<tag k="ssr:stedsnr" v="841828" />
	</node>
	<node id="-88901" lat="69.027383336" lon="17.4570027872">
		<tag k="name" v="Sletta" />
		<tag k="place" v="farm" />
		<tag k="ssr:stedsnr" v="686639" />
	</node>
	<node id="-88899" lat="69.080275001" lon="17.7401638858">
		<tag k="name" v="Rydningen" />
		<tag k="place" v="farm" />
		<tag k="ssr:stedsnr" v="686349" />
	</node>
	<node id="-88897" lat="69.0639500032" lon="17.7542972323">
		<tag k="name" v="Solbakken" />
		<tag k="place" v="farm" />
		<tag k="ssr:stedsnr" v="686344" />
	</node>
	<node id="-88895" lat="69.0630790219" lon="17.6421633143">
		<tag k="alt_name" v="Sæter, nordre;Sæter" />
		<tag k="fixme" v="consider place=hamlet" />
		<tag k="name" v="Nordre Sæter" />
		<tag k="place" v="farm" />
		<tag k="ssr:stedsnr" v="686328" />
	</node>
	<node id="-88892" lat="69.0309138846" lon="17.5511305606">
		<tag k="name" v="Ryvoll" />
		<tag k="place" v="farm" />
		<tag k="ssr:stedsnr" v="686290" />
	</node>
	<node id="-88891" lat="69.0361372547" lon="17.4709843241">
		<tag k="fixme" v="consider place=hamlet" />
		<tag k="name" v="Hals" />
		<tag k="place" v="farm" />
		<tag k="ssr:stedsnr" v="686285" />
	</node>
	<node id="-88799" lat="68.9223138873" lon="17.4669138984">
		<tag k="name" v="Sætran" />
		<tag k="place" v="locality" />
		<tag k="ssr:stedsnr" v="476896" />
	</node>
	<node id="-88887" lat="68.987677583" lon="17.4903932615">
		<tag k="fixme" v="consider place=hamlet" />
		<tag k="name" v="Kastnes" />
		<tag k="place" v="farm" />
		<tag k="ssr:stedsnr" v="515518" />
	</node>
	<node id="-88885" lat="69.0869666686" lon="17.5642555588">
		<tag k="name" v="Sandvik" />
		<tag k="place" v="farm" />
		<tag k="ssr:stedsnr" v="685248" />
	</node>
	<node id="-89905" lat="69.0760249973" lon="17.5489722279">
		<tag k="name" v="Furuheim hyttefelt" />
		<tag k="place" v="neighbourhood" />
		<tag k="ssr:stedsnr" v="829119" />
	</node>
	<node id="-89898" lat="69.0438808819" lon="17.5983560409">
		<tag k="fixme" v="consider place=hamlet" />
		<tag k="name" v="Hundstrand" />
		<tag k="place" v="farm" />
		<tag k="ssr:stedsnr" v="828316" />
	</node>
	<node id="-89897" lat="69.0409305529" lon="17.9184860978">
		<tag k="name" v="Vangen" />
		<tag k="place" v="farm" />
		<tag k="ssr:stedsnr" v="827874" />
	</node>
	<node id="-89384" lat="69.0550125884" lon="17.5317750176">
		<tag k="fixme" v="consider place=hamlet" />
		<tag k="name" v="Klubbenes" />
		<tag k="place" v="farm" />
		<tag k="ssr:stedsnr" v="172296" />
	</node>
	<node id="-88596" lat="69.0020111085" lon="17.4195333356">
		<tag k="name" v="Holtet" />
		<tag k="place" v="farm" />
		<tag k="ssr:stedsnr" v="260672" />
	</node>
	<node id="-89367" lat="69.0429847499" lon="17.5198644306">
		<tag k="fixme" v="consider place=hamlet" />
		<tag k="name" v="Merkesnes" />
		<tag k="place" v="farm" />
		<tag k="ssr:stedsnr" v="151974" />
	</node>
	<node id="-89366" lat="69.0545861078" lon="17.6214583279">
		<tag k="name" v="Lilleng" />
		<tag k="place" v="farm" />
		<tag k="ssr:stedsnr" v="151946" />
	</node>
	<node id="-89364" lat="69.011294446" lon="17.8976222147">
		<tag k="name" v="Strandly" />
		<tag k="place" v="farm" />
		<tag k="ssr:stedsnr" v="141247" />
	</node>
	<node id="-89363" lat="69.0891555546" lon="17.7020499868">
		<tag k="name" v="Finnlandsmoan" />
		<tag k="place" v="quarter" />
		<tag k="ssr:stedsnr" v="141245" />
	</node>
	<node id="-89872" lat="69.0904138895" lon="17.67273333">
		<tag k="name" v="Lindberget" />
		<tag k="place" v="farm" />
		<tag k="ssr:stedsnr" v="818386" />
	</node>
	<node id="-89871" lat="69.0586694409" lon="17.6301388936">
		<tag k="name" v="Sæter" />
		<tag k="place" v="hamlet" />
		<tag k="ssr:stedsnr" v="817389" />
	</node>
	<node id="-89358" lat="69.0128390054" lon="17.7249608541">
		<tag k="fixme" v="consider place=hamlet" />
		<tag k="name" v="Rubbåsen" />
		<tag k="place" v="farm" />
		<tag k="ssr:stedsnr" v="139638" />
	</node>
	<node id="-89355" lat="69.0821055597" lon="17.5293666707">
		<tag k="name" v="Aspelia" />
		<tag k="place" v="farm" />
		<tag k="ssr:stedsnr" v="139382" />
	</node>
	<node id="-89866" lat="69.0310666664" lon="17.5546027756">
		<tag k="name" v="Bergli" />
		<tag k="place" v="farm" />
		<tag k="ssr:stedsnr" v="809255" />
	</node>
	<node id="-89047" lat="69.0713861142" lon="17.3999472304">
		<tag k="name" v="Storelvhaug" />
		<tag k="place" v="farm" />
		<tag k="ssr:stedsnr" v="719174" />
	</node>
	<node id="-89858" lat="69.0725388849" lon="17.6640777836">
		<tag k="name" v="Bergan" />
		<tag k="place" v="farm" />
		<tag k="ssr:stedsnr" v="807351" />
	</node>
	<node id="-89857" lat="69.088599997" lon="17.6925833242">
		<tag k="fixme" v="consider place=hamlet" />
		<tag k="name" v="Brøstadbotn" />
		<tag k="place" v="village" />
		<tag k="ssr:stedsnr" v="807350" />
	</node>
	<node id="-89472" lat="69.0339694426" lon="17.741152763">
		<tag k="name" v="Dalgård" />
		<tag k="place" v="farm" />
		<tag k="ssr:stedsnr" v="341305" />
	</node>
	<node id="-89854" lat="69.050824996" lon="17.612322226">
		<tag k="fixme" v="consider place=hamlet" />
		<tag k="name" v="Hundstrand" />
		<tag k="place" v="village" />
		<tag k="ssr:stedsnr" v="807328" />
	</node>
	<node id="-89853" lat="69.0395965915" lon="17.4974953739">
		<tag k="fixme" v="consider place=hamlet" />
		<tag k="name" v="Holm" />
		<tag k="place" v="farm" />
		<tag k="ssr:stedsnr" v="807315" />
	</node>
	<node id="-88826" lat="69.0264250037" lon="17.5450555657">
		<tag k="name" v="Rye" />
		<tag k="place" v="farm" />
		<tag k="ssr:stedsnr" v="504636" />
	</node>
	<node id="-88824" lat="69.0702166667" lon="17.7360194511">
		<tag k="name" v="Elvevoll" />
		<tag k="place" v="farm" />
		<tag k="ssr:stedsnr" v="504330" />
	</node>
	<node id="-89847" lat="69.000163885" lon="17.4170305633">
		<tag k="name" v="Myrlund" />
		<tag k="place" v="farm" />
		<tag k="ssr:stedsnr" v="807417" />
	</node>
	<node id="-88822" lat="69.0494416662" lon="17.7475861176">
		<tag k="name" v="Blindfinnheimen" />
		<tag k="place" v="locality" />
		<tag k="ssr:stedsnr" v="504315" />
	</node>
	<node id="-88821" lat="69.0373944485" lon="17.5722361001">
		<tag k="alt_name" v="Steffanes, nedre" />
		<tag k="name" v="Nedre Steffanes" />
		<tag k="place" v="farm" />
		<tag k="ssr:stedsnr" v="504289" />
	</node>
	<node id="-89844" lat="69.1092444423" lon="17.6646750038">
		<tag k="name" v="Betholmen vestre" />
		<tag k="place" v="farm" />
		<tag k="ssr:stedsnr" v="787191" />
	</node>
	<node id="-88819" lat="69.0238861096" lon="17.4528722133">
		<tag k="name" v="Kjerrvik" />
		<tag k="place" v="farm" />
		<tag k="ssr:stedsnr" v="393959" />
	</node>
	<node id="-88817" lat="69.0352749963" lon="17.5665166547">
		<tag k="alt_name" v="Steffanes, øvre" />
		<tag k="name" v="Øvre Steffanes" />
		<tag k="old_name" v="Steffanes" />
		<tag k="place" v="farm" />
		<tag k="ssr:stedsnr" v="504288" />
	</node>
	<node id="-89328" lat="69.1244166667" lon="17.9068277629">
		<tag k="name" v="Vakkerheimen" />
		<tag k="place" v="locality" />
		<tag k="ssr:stedsnr" v="112769" />
	</node>
	<node id="-89325" lat="69.0774111149" lon="17.6787583276">
		<tag k="name" v="Sørsjøen" />
		<tag k="place" v="farm" />
		<tag k="ssr:stedsnr" v="112538" />
	</node>
	<node id="-88809" lat="69.0983916666" lon="17.6498138841">
		<tag k="name" v="Finnlandsvika" />
		<tag k="place" v="hamlet" />
		<tag k="ssr:stedsnr" v="503244" />
	</node>
	<node id="-88808" lat="69.093830552" lon="17.6956888761">
		<tag k="name" v="Lundheim" />
		<tag k="place" v="farm" />
		<tag k="ssr:stedsnr" v="503231" />
	</node>
	<node id="-89823" lat="69.035421985" lon="17.4657943942">
		<tag k="name" v="Hagan" />
		<tag k="place" v="locality" />
		<tag k="ssr:stedsnr" v="780181" />
	</node>
	<node id="-89310" lat="69.1122222273" lon="17.6791222092">
		<tag k="name" v="Betholmen vestre" />
		<tag k="place" v="farm" />
		<tag k="ssr:stedsnr" v="99579" />
	</node>
	<node id="-89303" lat="69.0415916641" lon="17.8157944417">
		<tag k="historic" v="shieling" />
		<tag k="name" v="Lars-Olsabua" />
		<tag k="place" v="locality" />
		<tag k="ssr:stedsnr" v="98516" />
	</node>
	<node id="-89208" lat="68.9946511027" lon="17.4039787195">
		<tag k="fixme" v="consider place=hamlet" />
		<tag k="name" v="Mikkelbostad" />
		<tag k="place" v="farm" />
		<tag k="ssr:stedsnr" v="17138" />
	</node>
	<node id="-89293" lat="68.9948672598" lon="17.4838777713">
		<tag k="fixme" v="consider place=hamlet" />
		<tag k="name" v="Kastneshamn" />
		<tag k="place" v="farm" />
		<tag k="ssr:stedsnr" v="86181" />
	</node>
	<node id="-89292" lat="69.130064062" lon="17.8709744205">
		<tag k="name" v="Lavika" />
		<tag k="place" v="farm" />
		<tag k="ssr:stedsnr" v="85192" />
	</node>
	<node id="-88779" lat="69.1154007131" lon="17.7945157791">
		<tag k="alt_name" v="Mobakken søndre" />
		<tag k="fixme" v="consider place=hamlet" />
		<tag k="loc_name" v="Søndre Mobakken" />
		<tag k="name" v="Søre Mobakken" />
		<tag k="place" v="farm" />
		<tag k="ssr:stedsnr" v="463849" />
	</node>
	<node id="-89290" lat="68.9809250041" lon="17.4983333224">
		<tag k="name" v="Ås" />
		<tag k="place" v="farm" />
		<tag k="ssr:stedsnr" v="79880" />
	</node>
	<node id="-89288" lat="69.0175611104" lon="17.4443249918">
		<tag k="name" v="Haug" />
		<tag k="place" v="farm" />
		<tag k="ssr:stedsnr" v="79613" />
	</node>
	<node id="-89287" lat="69.0188001899" lon="17.5369255001">
		<tag k="fixme" v="consider place=hamlet" />
		<tag k="name" v="Sortevik" />
		<tag k="place" v="farm" />
		<tag k="ssr:stedsnr" v="79611" />
	</node>
	<node id="-89283" lat="69.0540138928" lon="17.7323805472">
		<tag k="alt_name" v="Huldrehågen" />
		<tag k="name" v="Huldrehaugen" />
		<tag k="place" v="farm" />
		<tag k="ssr:stedsnr" v="79334" />
	</node>
	<node id="-89281" lat="69.0413408769" lon="17.5170326416">
		<tag k="name" v="Bakaromnen" />
		<tag k="place" v="farm" />
		<tag k="ssr:stedsnr" v="79320" />
	</node>
	<node id="-89278" lat="69.0413944459" lon="17.7259833241">
		<tag k="alt_name" v="Morstad;Nordahl" />
		<tag k="name" v="Norstad" />
		<tag k="place" v="farm" />
		<tag k="ssr:stedsnr" v="79309" />
	</node>
	<node id="-89277" lat="69.0360212538" lon="17.9038718293">
		<tag k="fixme" v="consider place=hamlet" />
		<tag k="name" v="Brattli" />
		<tag k="place" v="farm" />
		<tag k="ssr:stedsnr" v="79300" />
	</node>
	<node id="-89276" lat="69.0125777788" lon="17.3855750085">
		<tag k="name" v="Skaubu" />
		<tag k="place" v="farm" />
		<tag k="ssr:stedsnr" v="79095" />
	</node>
	<node id="-88762" lat="69.0406916681" lon="17.7237888854">
		<tag k="fixme" v="consider place=hamlet" />
		<tag k="name" v="Hisia" />
		<tag k="place" v="farm" />
		<tag k="ssr:stedsnr" v="462228" />
	</node>
	<node id="-89271" lat="69.071508043" lon="17.3998376606">
		<tag k="name" v="Nordstorelva" />
		<tag k="place" v="locality" />
		<tag k="ssr:stedsnr" v="79007" />
	</node>
	<node id="-89268" lat="68.9567739357" lon="17.5003612271">
		<tag k="name" v="Kvalnes" />
		<tag k="place" v="locality" />
		<tag k="ssr:stedsnr" v="78902" />
	</node>
	<node id="-89267" lat="69.0084972247" lon="17.4305805618">
		<tag k="alt_name" v="Hågen" />
		<tag k="name" v="Haugen" />
		<tag k="place" v="farm" />
		<tag k="ssr:stedsnr" v="78635" />
	</node>
	<node id="-88751" lat="69.1034666714" lon="17.7626555472">
		<tag k="name" v="Kvanto" />
		<tag k="place" v="farm" />
		<tag k="ssr:stedsnr" v="462028" />
	</node>
	<node id="-89771" lat="69.0831027792" lon="17.4355944527">
		<tag k="name" v="Sandnes" />
		<tag k="place" v="farm" />
		<tag k="ssr:stedsnr" v="746358" />
	</node>
	<node id="-89769" lat="69.0464666705" lon="17.7443944319">
		<tag k="name" v="Birgerheimen" />
		<tag k="place" v="locality" />
		<tag k="ssr:stedsnr" v="746328" />
	</node>
	<node id="-88744" lat="69.0346000981" lon="17.7358877406">
		<tag k="name" v="Bjørkebakken" />
		<tag k="place" v="hamlet" />
		<tag k="ssr:stedsnr" v="445250" />
	</node>
	<node id="-89767" lat="69.1246277821" lon="17.830377774">
		<tag k="name" v="Bekkevoll" />
		<tag k="place" v="farm" />
		<tag k="ssr:stedsnr" v="746273" />
	</node>
	<node id="-89766" lat="69.0819416638" lon="17.6852638843">
		<tag k="name" v="Lauvset" />
		<tag k="place" v="farm" />
		<tag k="ssr:stedsnr" v="746236" />
	</node>
	<node id="-88740" lat="69.0171444403" lon="17.736327784">
		<tag k="name" v="Rubben" />
		<tag k="place" v="locality" />
		<tag k="ssr:stedsnr" v="443627" />
	</node>
	<node id="-88739" lat="69.0216722211" lon="17.4491444414">
		<tag k="name" v="Lia" />
		<tag k="place" v="farm" />
		<tag k="ssr:stedsnr" v="443624" />
	</node>
	<node id="-88738" lat="69.0324833341" lon="17.7455805544">
		<tag k="alt_name" v="Bjørkebakken, s" />
		<tag k="name" v="Søre Bjørkebakken" />
		<tag k="place" v="farm" />
		<tag k="ssr:stedsnr" v="443603" />
	</node>
	<node id="-88735" lat="69.0553805559" lon="17.8048472102">
		<tag k="name" v="Molund" />
		<tag k="place" v="farm" />
		<tag k="ssr:stedsnr" v="443359" />
	</node>
	<node id="-88734" lat="69.0624111143" lon="17.7648888924">
		<tag k="name" v="Underberg" />
		<tag k="place" v="farm" />
		<tag k="ssr:stedsnr" v="443358" />
	</node>
	<node id="-88732" lat="69.0365254685" lon="17.7385684061">
		<tag k="fixme" v="consider place=hamlet" />
		<tag k="name" v="Bjørkebakken" />
		<tag k="old_name" v="Bjørkebakken, nordre" />
		<tag k="place" v="farm" />
		<tag k="ssr:stedsnr" v="443337" />
	</node>
	<node id="-88731" lat="69.1339611101" lon="17.8944499843">
		<tag k="alt_name" v="Lavika, s" />
		<tag k="fixme" v="multiple name tags, choose one and add the other to alt_name" />
		<tag k="name" v="Lavik;Søre Lavika" />
		<tag k="place" v="farm" />
		<tag k="ssr:stedsnr" v="443297" />
	</node>
	<node id="-88730" lat="69.1352527749" lon="17.899819435">
		<tag k="alt_name" v="Lavika, nordre" />
		<tag k="name" v="Nordre Lavika" />
		<tag k="place" v="farm" />
		<tag k="ssr:stedsnr" v="443295" />
	</node>
	<node id="-88943" lat="69.0175611125" lon="17.8602027838">
		<tag k="name" v="Sætra" />
		<tag k="place" v="isolated_dwelling" />
		<tag k="ssr:stedsnr" v="705862" />
	</node>
	<node id="-89240" lat="69.1267277788" lon="17.8363027719">
		<tag k="name" v="Strand" />
		<tag k="place" v="farm" />
		<tag k="ssr:stedsnr" v="38150" />
	</node>
	<node id="-89751" lat="69.1185948084" lon="17.8019613461">
		<tag k="alt_name" v="Mobakken nordre" />
		<tag k="fixme" v="consider place=hamlet" />
		<tag k="name" v="Nordre Mobakken" />
		<tag k="place" v="farm" />
		<tag k="ssr:stedsnr" v="644855" />
	</node>
	<node id="-88726" lat="69.0884166715" lon="17.7076527677">
		<tag k="name" v="Elvetun" />
		<tag k="place" v="farm" />
		<tag k="ssr:stedsnr" v="443240" />
	</node>
	<node id="-88506" lat="69.028908335" lon="17.5491083255">
		<tag k="name" v="Elvebakken" />
		<tag k="place" v="farm" />
		<tag k="ssr:stedsnr" v="19603" />
	</node>
	<node id="-89233" lat="69.0544950785" lon="17.7963394332">
		<tag k="fixme" v="consider place=hamlet" />
		<tag k="name" v="Langmyrmo" />
		<tag k="place" v="farm" />
		<tag k="ssr:stedsnr" v="37275" />
	</node>
	<node id="-88719" lat="68.9253305592" lon="17.4703722314">
		<tag k="name" v="Slåtta" />
		<tag k="place" v="locality" />
		<tag k="ssr:stedsnr" v="442931" />
	</node>
	<node id="-89230" lat="69.0558722197" lon="17.8125583254">
		<tag k="name" v="Gammelheimen" />
		<tag k="place" v="locality" />
		<tag k="ssr:stedsnr" v="36266" />
	</node>
	<node id="-88717" lat="69.0062861084" lon="17.4288472115">
		<tag k="name" v="Nyset" />
		<tag k="place" v="farm" />
		<tag k="ssr:stedsnr" v="442651" />
	</node>
	<node id="-89223" lat="68.9808666647" lon="17.4937277766">
		<tag k="name" v="Steinvollen" />
		<tag k="place" v="farm" />
		<tag k="ssr:stedsnr" v="18987" />
	</node>
	<node id="-89217" lat="69.0157944414" lon="17.8775333415">
		<tag k="name" v="Sæter" />
		<tag k="place" v="isolated_dwelling" />
		<tag k="ssr:stedsnr" v="18595" />
	</node>
	<node id="-89216" lat="69.0942833317" lon="17.5767861081">
		<tag k="name" v="Klauvhamn" />
		<tag k="place" v="farm" />
		<tag k="ssr:stedsnr" v="18246" />
	</node>
	<node id="-89215" lat="69.0098638907" lon="17.3889194374">
		<tag k="name" v="Solstad" />
		<tag k="place" v="farm" />
		<tag k="ssr:stedsnr" v="18085" />
	</node>
	<node id="-89725" lat="69.0641813374" lon="17.7587791073">
		<tag k="fixme" v="consider place=hamlet" />
		<tag k="name" v="Storli" />
		<tag k="place" v="farm" />
		<tag k="ssr:stedsnr" v="625353" />
	</node>
	<node id="-89724" lat="69.055799999" lon="17.7917999864">
		<tag k="alt_name" v="Langbakkan" />
		<tag k="name" v="Langbakken" />
		<tag k="place" v="farm" />
		<tag k="ssr:stedsnr" v="625350" />
	</node>
	<node id="-89721" lat="69.0396416671" lon="17.8452777835">
		<tag k="alt_name" v="Rud" />
		<tag k="name" v="Ruud" />
		<tag k="place" v="farm" />
		<tag k="ssr:stedsnr" v="625325" />
	</node>
	<node id="-89720" lat="69.0402749981" lon="17.5837777703">
		<tag k="name" v="Eineset" />
		<tag k="place" v="farm" />
		<tag k="ssr:stedsnr" v="625322" />
	</node>
	<node id="-89719" lat="69.0446055586" lon="17.6034722275">
		<tag k="name" v="Høglund" />
		<tag k="place" v="farm" />
		<tag k="ssr:stedsnr" v="625320" />
	</node>
	<node id="-89718" lat="69.0433777758" lon="17.7288360982">
		<tag k="alt_name" v="Høymoen" />
		<tag k="name" v="Høgmo" />
		<tag k="place" v="farm" />
		<tag k="ssr:stedsnr" v="625318" />
	</node>
	<node id="-89717" lat="69.0349651127" lon="17.5608086078">
		<tag k="alt_name" v="Skjeret" />
		<tag k="fixme" v="consider place=hamlet" />
		<tag k="name" v="Skjæret" />
		<tag k="place" v="farm" />
		<tag k="ssr:stedsnr" v="625315" />
	</node>
	<node id="-89714" lat="69.1127055579" lon="17.790688885">
		<tag k="name" v="Einemo" />
		<tag k="place" v="farm" />
		<tag k="ssr:stedsnr" v="625278" />
	</node>
	<node id="-89712" lat="68.9755805591" lon="17.5499277765">
		<tag k="name" v="Solvang" />
		<tag k="place" v="farm" />
		<tag k="ssr:stedsnr" v="624892" />
	</node>
	<node id="-89709" lat="69.02253123" lon="17.9199647017">
		<tag k="alt_name" v="Sandvik" />
		<tag k="fixme" v="consider place=hamlet" />
		<tag k="name" v="Sandvika" />
		<tag k="place" v="farm" />
		<tag k="ssr:stedsnr" v="624644" />
	</node>
	<node id="-89705" lat="69.0820833329" lon="17.692105555">
		<tag k="name" v="Nyrud" />
		<tag k="place" v="farm" />
		<tag k="ssr:stedsnr" v="624259" />
	</node>
	<node id="-89704" lat="69.0851944448" lon="17.7198027636">
		<tag k="alt_name" v="Fossmoen" />
		<tag k="name" v="Fossmo" />
		<tag k="place" v="farm" />
		<tag k="ssr:stedsnr" v="624257" />
	</node>
	<node id="-88507" lat="69.0230916639" lon="17.5404944299">
		<tag k="name" v="Rognstad" />
		<tag k="place" v="farm" />
		<tag k="ssr:stedsnr" v="19607" />
	</node>
	<node id="-88671" lat="69.0508250019" lon="17.5166611185">
		<tag k="name" v="Litje-Perheimen" />
		<tag k="place" v="locality" />
		<tag k="ssr:stedsnr" v="294116" />
	</node>
	<node id="-89274" lat="69.0298455591" lon="17.356715009">
		<tag k="fixme" v="consider place=hamlet" />
		<tag k="name" v="Berg" />
		<tag k="place" v="farm" />
		<tag k="ssr:stedsnr" v="79084" />
	</node>
	<node id="-88664" lat="69.0811194397" lon="17.6856666737">
		<tag k="name" v="Brøstad boligfelt" />
		<tag k="place" v="farm" />
		<tag k="ssr:stedsnr" v="282116" />
	</node>
	<node id="-89173" lat="68.9251277757" lon="17.4923388832">
		<tag k="name" v="Sommarheimen" />
		<tag k="place" v="locality" />
		<tag k="ssr:stedsnr" v="901907" />
	</node>
	<node id="-88931" lat="69.0847750048" lon="17.7751444312">
		<tag k="historic" v="shieling" />
		<tag k="name" v="Fjellset" />
		<tag k="place" v="locality" />
		<tag k="ssr:stedsnr" v="705202" />
	</node>
	<node id="-88606" lat="69.1118000001" lon="17.7533111129">
		<tag k="name" v="Myrset" />
		<tag k="place" v="farm" />
		<tag k="ssr:stedsnr" v="261272" />
	</node>
	<node id="-89163" lat="69.1279427863" lon="17.849539867">
		<tag k="alt_name" v="Forstrand" />
		<tag k="fixme" v="consider place=hamlet" />
		<tag k="name" v="Furstrand" />
		<tag k="place" v="farm" />
		<tag k="ssr:stedsnr" v="888114" />
	</node>
	<node id="-89153" lat="69.0712277827" lon="17.6597499923">
		<tag k="name" v="Bergan" />
		<tag k="place" v="quarter" />
		<tag k="ssr:stedsnr" v="950143" />
	</node>
	<node id="-89152" lat="69.0818444445" lon="17.6936916628">
		<tag k="name" v="Korgedalen boligfelt" />
		<tag k="place" v="quarter" />
		<tag k="ssr:stedsnr" v="950141" />
	</node>
	<node id="-89663" lat="69.0847222776" lon="17.5024378454">
		<tag k="fixme" v="consider place=hamlet" />
		<tag k="name" v="Skogshamn" />
		<tag k="place" v="farm" />
		<tag k="ssr:stedsnr" v="597196" />
	</node>
	<node id="-89659" lat="69.1151055524" lon="17.6915499872">
		<tag k="name" v="Nordhus" />
		<tag k="place" v="farm" />
		<tag k="ssr:stedsnr" v="584146" />
	</node>
	<node id="-89146" lat="69.0853972226" lon="17.7632666541">
		<tag k="alt_name" v="Finnfjellet, nordre;Finnefjellet nordre" />
		<tag k="name" v="Nordre Finnfjellet" />
		<tag k="place" v="farm" />
		<tag k="ssr:stedsnr" v="868354" />
	</node>
	<node id="-89865" lat="68.9826666675" lon="17.5310055551">
		<tag k="alt_name" v="Stigen" />
		<tag k="name" v="Stien" />
		<tag k="place" v="farm" />
		<tag k="ssr:stedsnr" v="807888" />
	</node>
	<node id="-88622" lat="69.0844611108" lon="17.5101166645">
		<tag k="alt_name" v="Skarli" />
		<tag k="name" v="Skardlia" />
		<tag k="place" v="farm" />
		<tag k="ssr:stedsnr" v="139256" />
	</node>
	<node id="-88623" lat="69.0938972257" lon="17.7516472156">
		<tag k="alt_name" v="Espenes, øvre" />
		<tag k="name" v="Øvre Espenes" />
		<tag k="place" v="farm" />
		<tag k="ssr:stedsnr" v="139259" />
	</node>
	<node id="-89646" lat="69.1144527764" lon="17.6868666735">
		<tag k="name" v="Betholmen" />
		<tag k="old_name" v="Bettholmen" />
		<tag k="place" v="farm" />
		<tag k="ssr:stedsnr" v="571614" />
	</node>
	<node id="-89644" lat="69.011517246" lon="17.4347793469">
		<tag k="alt_name" v="Hamn" />
		<tag k="fixme" v="consider place=hamlet" />
		<tag k="name" v="Dyrøyhamn" />
		<tag k="place" v="farm" />
		<tag k="ssr:stedsnr" v="564643" />
	</node>
	<node id="-88616" lat="68.9964027783" lon="17.4059916657">
		<tag k="name" v="Strand" />
		<tag k="place" v="farm" />
		<tag k="ssr:stedsnr" v="112822" />
	</node>
	<node id="-88612" lat="69.0812037122" lon="17.5352277543">
		<tag k="alt_name" v="Espejorda" />
		<tag k="fixme" v="consider place=hamlet" />
		<tag k="name" v="Espejord" />
		<tag k="place" v="farm" />
		<tag k="ssr:stedsnr" v="261378" />
	</node>
	<node id="-89635" lat="69.0542222231" lon="17.7999527714">
		<tag k="name" v="Øverli" />
		<tag k="place" v="farm" />
		<tag k="ssr:stedsnr" v="564342" />
	</node>
	<node id="-88610" lat="69.0600027819" lon="17.5382027706">
		<tag k="alt_name" v="Djupvika" />
		<tag k="name" v="Djupvik" />
		<tag k="place" v="farm" />
		<tag k="ssr:stedsnr" v="261348" />
	</node>
	<node id="-89121" lat="69.0407000044" lon="17.7258055444">
		<tag k="name" v="Nordheim" />
		<tag k="place" v="farm" />
		<tag k="ssr:stedsnr" v="929289" />
	</node>
	<node id="-88608" lat="69.1172250029" lon="17.7999222311">
		<tag k="name" v="Mohamn" />
		<tag k="place" v="farm" />
		<tag k="ssr:stedsnr" v="261283" />
	</node>
	<node id="-88607" lat="69.1134461213" lon="17.7506917876">
		<tag k="fixme" v="consider place=hamlet" />
		<tag k="name" v="Espenes" />
		<tag k="place" v="farm" />
		<tag k="ssr:stedsnr" v="261273" />
	</node>
	<node id="-89118" lat="69.1248882352" lon="17.8284093866">
		<tag k="name" v="Lynghaug" />
		<tag k="place" v="farm" />
		<tag k="ssr:stedsnr" v="929260" />
	</node>
	<node id="-89093" lat="69.1288055559" lon="17.8604111052">
		<tag k="name" v="Holtet hyttefelt" />
		<tag k="place" v="neighbourhood" />
		<tag k="ssr:stedsnr" v="768115" />
	</node>
	<node id="-89434" lat="69.0252333375" lon="17.4549888827">
		<tag k="name" v="Fagerli" />
		<tag k="place" v="farm" />
		<tag k="ssr:stedsnr" v="201603" />
	</node>
	<node id="-89113" lat="69.0828777771" lon="17.746525">
		<tag k="name" v="Solbakken" />
		<tag k="place" v="farm" />
		<tag k="ssr:stedsnr" v="928343" />
	</node>
	<node id="-88600" lat="68.9829566642" lon="17.5514820127">
		<tag k="alt_name" v="Faksfjord" />
		<tag k="fixme" v="consider place=hamlet" />
		<tag k="name" v="Faksfjorden" />
		<tag k="place" v="farm" />
		<tag k="ssr:stedsnr" v="260935" />
	</node>
	<node id="-88599" lat="68.9808722247" lon="17.5161722234">
		<tag k="name" v="Lasletta" />
		<tag k="place" v="farm" />
		<tag k="ssr:stedsnr" v="260934" />
	</node>
	<node id="-89109" lat="69.0843693709" lon="17.550756377">
		<tag k="fixme" v="consider place=hamlet" />
		<tag k="name" v="Dyrøyklauva" />
		<tag k="place" v="farm" />
		<tag k="ssr:stedsnr" v="928222" />
	</node>
	<node id="-89620" lat="68.9455944461" lon="17.4839888875">
		<tag k="name" v="Sommarheimen" />
		<tag k="place" v="locality" />
		<tag k="ssr:stedsnr" v="537856" />
	</node>
	<node id="-89105" lat="69.0102916703" lon="17.5241888914">
		<tag k="name" v="Rydningen" />
		<tag k="place" v="farm" />
		<tag k="ssr:stedsnr" v="927643" />
	</node>
	<node id="-89354" lat="69.0832611151" lon="17.4993861218">
		<tag k="name" v="Skogshamn" />
		<tag k="place" v="farm" />
		<tag k="ssr:stedsnr" v="139379" />
	</node>
	<node id="-89346" lat="69.0082951359" lon="17.3668547857">
		<tag k="alt_name" v="Vinje, store" />
		<tag k="fixme" v="consider place=hamlet" />
		<tag k="name" v="Store Vinje" />
		<tag k="place" v="farm" />
		<tag k="ssr:stedsnr" v="139088" />
	</node>
	<node id="-88585" lat="69.0822277789" lon="17.7426444422">
		<tag k="name" v="Nyheim" />
		<tag k="place" v="farm" />
		<tag k="ssr:stedsnr" v="79233" />
	</node>
	<node id="-89094" lat="69.0915027765" lon="17.5750444388">
		<tag k="name" v="Ørnneset hyttefelt" />
		<tag k="place" v="neighbourhood" />
		<tag k="ssr:stedsnr" v="768116" />
	</node>
	<node id="-89345" lat="69.0146231961" lon="17.364536576">
		<tag k="alt_name" v="Vinje, l;Vinje, lille" />
		<tag k="fixme" v="consider place=hamlet" />
		<tag k="name" v="Litje Vinje" />
		<tag k="place" v="farm" />
		<tag k="ssr:stedsnr" v="139087" />
	</node>
	<node id="-89602" lat="69.0276722242" lon="17.6883749899">
		<tag k="name" v="Kristian-Mikkelsaplassen" />
		<tag k="place" v="locality" />
		<tag k="ssr:stedsnr" v="524241" />
	</node>
</osm>
