<?xml version="1.0" encoding="UTF-8"?>
<osm generator="osmapis" version="0.6">
	<node id="-110591" lat="69.0234611099" lon="17.5573750045">
		<tag k="name" v="Kopparberget" />
		<tag k="natural" v="hill" />
		<tag k="place" v="locality" />
		<tag k="ssr:stedsnr" v="415272" />
	</node>
	<node id="-110587" lat="69.0954444413" lon="17.6562083421">
		<tag k="name" v="Langedalen" />
		<tag k="natural" v="valley" />
		<tag k="place" v="locality" />
		<tag k="ssr:stedsnr" v="403682" />
	</node>
	<node id="-110586" lat="69.0612500019" lon="17.6917638799">
		<tag k="fixme" v="consider natural=peak for the most distinct mountains in the district" />
		<tag k="name" v="Storaksla" />
		<tag k="natural" v="hill" />
		<tag k="place" v="locality" />
		<tag k="ssr:stedsnr" v="403497" />
	</node>
	<node id="-110585" lat="69.0432972182" lon="17.60536666">
		<tag k="name" v="Dalan" />
		<tag k="natural" v="valley" />
		<tag k="place" v="locality" />
		<tag k="ssr:stedsnr" v="402789" />
	</node>
	<node id="-110584" lat="69.0202305522" lon="17.6860611144">
		<tag k="name" v="Okselia" />
		<tag k="natural" v="slope" />
		<tag k="place" v="locality" />
		<tag k="ssr:stedsnr" v="402595" />
	</node>
	<node id="-110583" lat="69.0649888879" lon="17.6766111008">
		<tag k="name" v="Vedheggen" />
		<tag k="natural" v="slope" />
		<tag k="place" v="locality" />
		<tag k="ssr:stedsnr" v="402349" />
	</node>
	<node id="-110582" lat="69.0630833294" lon="17.6514083357">
		<tag k="name" v="Tøen" />
		<tag k="natural" v="hill" />
		<tag k="place" v="locality" />
		<tag k="ssr:stedsnr" v="402348" />
	</node>
	<node id="-110580" lat="69.0426916714" lon="17.7543277659">
		<tag k="name" v="Tveita" />
		<tag k="natural" v="slope" />
		<tag k="place" v="locality" />
		<tag k="ssr:stedsnr" v="402282" />
	</node>
	<node id="-110579" lat="69.0256972228" lon="17.7555027844">
		<tag k="name" v="Tortenbakken" />
		<tag k="natural" v="slope" />
		<tag k="place" v="locality" />
		<tag k="ssr:stedsnr" v="402277" />
	</node>
	<node id="-110578" lat="69.1084833341" lon="17.7809944535">
		<tag k="name" v="Lamoen" />
		<tag k="place" v="locality" />
		<tag k="ssr:stedsnr" v="402194" />
	</node>
	<node id="-110576" lat="69.0040444443" lon="17.3567305585">
		<tag k="name" v="Akselklubben" />
		<tag k="natural" v="hill" />
		<tag k="place" v="locality" />
		<tag k="ssr:stedsnr" v="401898" />
	</node>
	<node id="-110575" lat="69.0174833338" lon="17.3589611103">
		<tag k="name" v="Ingeborgvika" />
		<tag k="place" v="locality" />
		<tag k="ssr:stedsnr" v="401893" />
	</node>
	<node id="-110573" lat="69.0704638886" lon="17.7463444491">
		<tag k="name" v="Ranan" />
		<tag k="natural" v="slope" />
		<tag k="place" v="locality" />
		<tag k="ssr:stedsnr" v="401180" />
	</node>
	<node id="-110571" lat="69.0124222235" lon="17.5257722304">
		<tag k="name" v="Hesteberget" />
		<tag k="natural" v="hill" />
		<tag k="place" v="locality" />
		<tag k="ssr:stedsnr" v="394000" />
	</node>
	<node id="-110570" lat="69.0756611158" lon="17.408427773">
		<tag k="name" v="Skarvberget" />
		<tag k="natural" v="hill" />
		<tag k="place" v="locality" />
		<tag k="ssr:stedsnr" v="393441" />
	</node>
	<node id="-110568" lat="68.970019443" lon="17.6077055471">
		<tag k="name" v="Storvasshøgda" />
		<tag k="natural" v="hill" />
		<tag k="place" v="locality" />
		<tag k="ssr:stedsnr" v="382899" />
	</node>
	<node id="-110560" lat="69.0225972182" lon="17.3633527723">
		<tag k="fixme" v="consider natural=peak for the most distinct mountains in the district" />
		<tag k="name" v="Kjerringkollen" />
		<tag k="natural" v="hill" />
		<tag k="place" v="locality" />
		<tag k="ssr:stedsnr" v="382083" />
	</node>
	<node id="-110557" lat="68.9466999973" lon="17.6142361177">
		<tag k="fixme" v="consider natural=peak for the most distinct mountains in the district" />
		<tag k="name" v="Løkseskardtinden" />
		<tag k="natural" v="hill" />
		<tag k="place" v="locality" />
		<tag k="ssr:stedsnr" v="381936" />
	</node>
	<node id="-110556" lat="68.9952833297" lon="17.3628388815">
		<tag k="name" v="Dyrøygommen" />
		<tag k="natural" v="hill" />
		<tag k="place" v="locality" />
		<tag k="ssr:stedsnr" v="381142" />
	</node>
	<node id="-110554" lat="68.9529805584" lon="17.4855083356">
		<tag k="name" v="Myrlia" />
		<tag k="natural" v="slope" />
		<tag k="place" v="locality" />
		<tag k="ssr:stedsnr" v="355866" />
	</node>
	<node id="-110551" lat="69.0039527812" lon="17.3952638902">
		<tag k="name" v="Vassbrekken" />
		<tag k="natural" v="slope" />
		<tag k="place" v="locality" />
		<tag k="ssr:stedsnr" v="355816" />
	</node>
	<node id="-110549" lat="68.98479444" lon="17.5202861133">
		<tag k="name" v="Sauhollan" />
		<tag k="natural" v="valley" />
		<tag k="place" v="locality" />
		<tag k="ssr:stedsnr" v="355792" />
	</node>
	<node id="-110548" lat="68.9822583311" lon="17.5078527731">
		<tag k="fixme" v="consider natural=peak for the most distinct mountains in the district" />
		<tag k="name" v="Trondsåsen" />
		<tag k="natural" v="hill" />
		<tag k="place" v="locality" />
		<tag k="ssr:stedsnr" v="355791" />
	</node>
	<node id="-110546" lat="69.054647223" lon="17.4348249995">
		<tag k="name" v="Skjellhågen" />
		<tag k="natural" v="hill" />
		<tag k="place" v="locality" />
		<tag k="ssr:stedsnr" v="355758" />
	</node>
	<node id="-110545" lat="69.0503916668" lon="17.3822111124">
		<tag k="name" v="Helledalen" />
		<tag k="natural" v="valley" />
		<tag k="place" v="locality" />
		<tag k="ssr:stedsnr" v="355757" />
	</node>
	<node id="-110544" lat="69.0607777773" lon="17.4066861088">
		<tag k="name" v="Pålvassheia" />
		<tag k="natural" v="hill" />
		<tag k="place" v="locality" />
		<tag k="ssr:stedsnr" v="355749" />
	</node>
	<node id="-110543" lat="69.0568694457" lon="17.3929916755">
		<tag k="name" v="Fjellsletten" />
		<tag k="place" v="locality" />
		<tag k="ssr:stedsnr" v="355746" />
	</node>
	<node id="-110542" lat="69.0528388877" lon="17.5048694296">
		<tag k="fixme" v="consider natural=peak for the most distinct mountains in the district" />
		<tag k="name" v="Klubbkollen" />
		<tag k="natural" v="hill" />
		<tag k="place" v="locality" />
		<tag k="ssr:stedsnr" v="355741" />
	</node>
	<node id="-110540" lat="69.0495499966" lon="17.6983527758">
		<tag k="fixme" v="consider natural=peak for the most distinct mountains in the district" />
		<tag k="name" v="Stortrollvasshøgda" />
		<tag k="natural" v="hill" />
		<tag k="place" v="locality" />
		<tag k="ssr:stedsnr" v="355577" />
	</node>
	<node id="-110539" lat="69.0539861104" lon="17.7272222303">
		<tag k="name" v="Geitbrekket" />
		<tag k="natural" v="slope" />
		<tag k="place" v="locality" />
		<tag k="ssr:stedsnr" v="355573" />
	</node>
	<node id="-110537" lat="69.0771583313" lon="17.6840249901">
		<tag k="name" v="Gullbakken" />
		<tag k="natural" v="slope" />
		<tag k="place" v="locality" />
		<tag k="ssr:stedsnr" v="355493" />
	</node>
	<node id="-110533" lat="69.0152055531" lon="17.3882833201">
		<tag k="fixme" v="consider natural=peak for the most distinct mountains in the district" />
		<tag k="name" v="Åsen" />
		<tag k="natural" v="hill" />
		<tag k="place" v="locality" />
		<tag k="ssr:stedsnr" v="355394" />
	</node>
	<node id="-110532" lat="69.0492694482" lon="17.6795611198">
		<tag k="name" v="Finnskaret" />
		<tag k="natural" v="valley" />
		<tag k="place" v="locality" />
		<tag k="ssr:stedsnr" v="355340" />
	</node>
	<node id="-110531" lat="68.9775083365" lon="17.6225583344">
		<tag k="name" v="Langedalen" />
		<tag k="natural" v="valley" />
		<tag k="place" v="locality" />
		<tag k="ssr:stedsnr" v="355231" />
	</node>
	<node id="-110530" lat="68.965724996" lon="17.5980944384">
		<tag k="name" v="Storvasshøgda" />
		<tag k="natural" v="hill" />
		<tag k="place" v="locality" />
		<tag k="ssr:stedsnr" v="355229" />
	</node>
	<node id="-110529" lat="68.9654277799" lon="17.5764416685">
		<tag k="name" v="Hertvikberget" />
		<tag k="natural" v="hill" />
		<tag k="place" v="locality" />
		<tag k="ssr:stedsnr" v="355226" />
	</node>
	<node id="-110527" lat="69.0752500038" lon="17.5040833372">
		<tag k="fixme" v="consider natural=peak for the most distinct mountains in the district" />
		<tag k="name" v="Tortenlikollen" />
		<tag k="natural" v="hill" />
		<tag k="place" v="locality" />
		<tag k="ssr:stedsnr" v="355202" />
	</node>
	<node id="-110525" lat="69.0355861104" lon="17.3702305574">
		<tag k="name" v="Løflaten" />
		<tag k="place" v="locality" />
		<tag k="ssr:stedsnr" v="355158" />
	</node>
	<node id="-110524" lat="69.0494111155" lon="17.5084027713">
		<tag k="name" v="Nøkkelia" />
		<tag k="natural" v="slope" />
		<tag k="place" v="locality" />
		<tag k="ssr:stedsnr" v="355144" />
	</node>
	<node id="-110523" lat="69.1127305545" lon="17.9199166754">
		<tag k="fixme" v="consider natural=peak for the most distinct mountains in the district" />
		<tag k="name" v="Kvitfløy" />
		<tag k="natural" v="hill" />
		<tag k="place" v="locality" />
		<tag k="ssr:stedsnr" v="354763" />
	</node>
	<node id="-110522" lat="68.9994944464" lon="17.5850416758">
		<tag k="name" v="Snærlia" />
		<tag k="natural" v="slope" />
		<tag k="place" v="locality" />
		<tag k="ssr:stedsnr" v="354327" />
	</node>
	<node id="-110520" lat="68.9518000002" lon="17.5743805512">
		<tag k="name" v="Svarteberget" />
		<tag k="natural" v="hill" />
		<tag k="place" v="locality" />
		<tag k="ssr:stedsnr" v="354281" />
	</node>
	<node id="-110516" lat="69.1001500031" lon="17.6826472226">
		<tag k="name" v="Rødbrekken" />
		<tag k="natural" v="slope" />
		<tag k="place" v="locality" />
		<tag k="ssr:stedsnr" v="342633" />
	</node>
	<node id="-110515" lat="69.0551027788" lon="17.7042805584">
		<tag k="name" v="Sangstolan" />
		<tag k="natural" v="hill" />
		<tag k="place" v="locality" />
		<tag k="ssr:stedsnr" v="342463" />
	</node>
	<node id="-110514" lat="69.0190388868" lon="17.3573000089">
		<tag k="name" v="Holbergan" />
		<tag k="natural" v="hill" />
		<tag k="place" v="locality" />
		<tag k="ssr:stedsnr" v="341923" />
	</node>
	<node id="-110511" lat="69.014397226" lon="17.918894446">
		<tag k="name" v="Blomholla" />
		<tag k="natural" v="valley" />
		<tag k="place" v="locality" />
		<tag k="ssr:stedsnr" v="341860" />
	</node>
	<node id="-110508" lat="69.0995499978" lon="17.6577611091">
		<tag k="fixme" v="consider natural=peak for the most distinct mountains in the district" />
		<tag k="name" v="Stridsfjellet" />
		<tag k="natural" v="hill" />
		<tag k="place" v="locality" />
		<tag k="ssr:stedsnr" v="341767" />
	</node>
	<node id="-110507" lat="69.0506083317" lon="17.8095750011">
		<tag k="name" v="Suolodievvá" />
		<tag k="name:se" v="Suolodievvá" />
		<tag k="natural" v="hill" />
		<tag k="place" v="locality" />
		<tag k="ssr:stedsnr" v="341311" />
	</node>
	<node id="-110505" lat="69.0806638853" lon="17.7506611127">
		<tag k="name" v="Rundhågen" />
		<tag k="natural" v="hill" />
		<tag k="place" v="locality" />
		<tag k="ssr:stedsnr" v="341229" />
	</node>
	<node id="-110504" lat="69.0805222223" lon="17.763905542">
		<tag k="name" v="Finnefjelldalen" />
		<tag k="natural" v="valley" />
		<tag k="place" v="locality" />
		<tag k="ssr:stedsnr" v="341225" />
	</node>
	<node id="-110503" lat="69.1126972227" lon="17.7658833296">
		<tag k="name" v="Skjærneshågen" />
		<tag k="natural" v="hill" />
		<tag k="place" v="locality" />
		<tag k="ssr:stedsnr" v="341138" />
	</node>
	<node id="-110502" lat="69.0272666715" lon="17.777274994">
		<tag k="name" v="Andreloftet" />
		<tag k="natural" v="slope" />
		<tag k="place" v="locality" />
		<tag k="ssr:stedsnr" v="341028" />
	</node>
	<node id="-110501" lat="69.0205305562" lon="17.3582305536">
		<tag k="name" v="Skredbakken" />
		<tag k="natural" v="slope" />
		<tag k="place" v="locality" />
		<tag k="ssr:stedsnr" v="340927" />
	</node>
	<node id="-110498" lat="69.0935638858" lon="17.7632916541">
		<tag k="name" v="Aksellia" />
		<tag k="natural" v="slope" />
		<tag k="place" v="locality" />
		<tag k="ssr:stedsnr" v="340241" />
	</node>
	<node id="-110497" lat="69.0980694414" lon="17.7138111045">
		<tag k="fixme" v="consider natural=peak for the most distinct mountains in the district" />
		<tag k="name" v="Rubbåsen" />
		<tag k="natural" v="hill" />
		<tag k="place" v="locality" />
		<tag k="ssr:stedsnr" v="340237" />
	</node>
	<node id="-110496" lat="69.0903361153" lon="17.7010944335">
		<tag k="name" v="Stormoan" />
		<tag k="place" v="locality" />
		<tag k="ssr:stedsnr" v="340227" />
	</node>
	<node id="-110492" lat="69.0939111112" lon="17.8800972304">
		<tag k="fixme" v="consider natural=peak for the most distinct mountains in the district" />
		<tag k="name" v="Børingen - Skuddovárri" />
		<tag k="name:no" v="Børingen" />
		<tag k="name:se" v="Skuddovárri" />
		<tag k="natural" v="hill" />
		<tag k="place" v="locality" />
		<tag k="ssr:stedsnr" v="323271" />
	</node>
	<node id="-110491" lat="69.0353333312" lon="17.5979555477">
		<tag k="name" v="Tolvklubben" />
		<tag k="natural" v="hill" />
		<tag k="place" v="locality" />
		<tag k="ssr:stedsnr" v="323249" />
	</node>
	<node id="-110479" lat="69.0228111145" lon="17.635544442">
		<tag k="fixme" v="consider natural=peak for the most distinct mountains in the district" />
		<tag k="name" v="Stortinden" />
		<tag k="natural" v="hill" />
		<tag k="place" v="locality" />
		<tag k="ssr:stedsnr" v="321597" />
	</node>
	<node id="-110478" lat="69.0250555542" lon="17.6515555529">
		<tag k="name" v="Stortindlia" />
		<tag k="natural" v="slope" />
		<tag k="place" v="locality" />
		<tag k="ssr:stedsnr" v="321596" />
	</node>
	<node id="-110476" lat="69.066188892" lon="17.7239305643">
		<tag k="name" v="Evertmoen" />
		<tag k="place" v="locality" />
		<tag k="ssr:stedsnr" v="321330" />
	</node>
	<node id="-110467" lat="69.0231000006" lon="17.5970111207">
		<tag k="fixme" v="consider natural=peak for the most distinct mountains in the district" />
		<tag k="name" v="Storviktinden" />
		<tag k="natural" v="hill" />
		<tag k="place" v="locality" />
		<tag k="ssr:stedsnr" v="201598" />
	</node>
	<node id="-110465" lat="68.9938194448" lon="17.9520416556">
		<tag k="fixme" v="consider natural=peak for the most distinct mountains in the district" />
		<tag k="name" v="Stellet" />
		<tag k="natural" v="hill" />
		<tag k="place" v="locality" />
		<tag k="ssr:stedsnr" v="200984" />
	</node>
	<node id="-110460" lat="69.0457472259" lon="17.6865583213">
		<tag k="name" v="Trollhøgda" />
		<tag k="natural" v="hill" />
		<tag k="place" v="locality" />
		<tag k="ssr:stedsnr" v="200332" />
	</node>
	<node id="-110459" lat="68.9560166639" lon="17.5898805417">
		<tag k="name" v="Storvasshøgda" />
		<tag k="natural" v="hill" />
		<tag k="place" v="locality" />
		<tag k="ssr:stedsnr" v="200296" />
	</node>
	<node id="-110458" lat="69.1026083312" lon="17.8132611117">
		<tag k="name" v="Vardtuva" />
		<tag k="natural" v="hill" />
		<tag k="place" v="locality" />
		<tag k="ssr:stedsnr" v="200259" />
	</node>
	<node id="-110454" lat="69.0255166671" lon="17.6071916568">
		<tag k="fixme" v="consider natural=peak for the most distinct mountains in the district" />
		<tag k="name" v="Blåfjellet" />
		<tag k="natural" v="hill" />
		<tag k="place" v="locality" />
		<tag k="ssr:stedsnr" v="200081" />
	</node>
	<node id="-110451" lat="69.0303416671" lon="17.3525166709">
		<tag k="name" v="Håmannen" />
		<tag k="natural" v="hill" />
		<tag k="place" v="locality" />
		<tag k="ssr:stedsnr" v="173896" />
	</node>
	<node id="-110450" lat="69.0320194427" lon="17.3556972318">
		<tag k="name" v="Storlia" />
		<tag k="natural" v="slope" />
		<tag k="place" v="locality" />
		<tag k="ssr:stedsnr" v="173895" />
	</node>
	<node id="-110448" lat="68.9329138908" lon="17.4844861086">
		<tag k="name" v="Sjåberget" />
		<tag k="natural" v="hill" />
		<tag k="place" v="locality" />
		<tag k="ssr:stedsnr" v="173889" />
	</node>
	<node id="-110447" lat="69.0192944444" lon="17.3638999963">
		<tag k="name" v="Karvidalen" />
		<tag k="natural" v="valley" />
		<tag k="place" v="locality" />
		<tag k="ssr:stedsnr" v="173857" />
	</node>
	<node id="-110446" lat="69.0101888898" lon="17.4274861209">
		<tag k="name" v="Vinjeholla" />
		<tag k="natural" v="valley" />
		<tag k="place" v="locality" />
		<tag k="ssr:stedsnr" v="173853" />
	</node>
	<node id="-110445" lat="69.0161166673" lon="17.4200833364">
		<tag k="name" v="Blåfjellskaret" />
		<tag k="natural" v="valley" />
		<tag k="place" v="locality" />
		<tag k="ssr:stedsnr" v="173846" />
	</node>
	<node id="-110443" lat="69.0563638914" lon="17.4245555594">
		<tag k="name" v="Hammaren" />
		<tag k="natural" v="hill" />
		<tag k="place" v="locality" />
		<tag k="ssr:stedsnr" v="173752" />
	</node>
	<node id="-110442" lat="69.0492305548" lon="17.4469249886">
		<tag k="name" v="Langhågen" />
		<tag k="natural" v="hill" />
		<tag k="place" v="locality" />
		<tag k="ssr:stedsnr" v="173744" />
	</node>
	<node id="-110441" lat="69.0655194409" lon="17.4767805489">
		<tag k="name" v="Mosheiskaret" />
		<tag k="natural" v="valley" />
		<tag k="place" v="locality" />
		<tag k="ssr:stedsnr" v="173739" />
	</node>
	<node id="-110440" lat="69.05330556" lon="17.6359027796">
		<tag k="name" v="Hellarkråa" />
		<tag k="natural" v="slope" />
		<tag k="place" v="locality" />
		<tag k="ssr:stedsnr" v="173339" />
	</node>
	<node id="-110438" lat="68.9611027803" lon="17.561494443">
		<tag k="name" v="Tangberget" />
		<tag k="natural" v="hill" />
		<tag k="place" v="locality" />
		<tag k="ssr:stedsnr" v="173210" />
	</node>
	<node id="-110434" lat="69.0434555518" lon="17.4873000047">
		<tag k="name" v="Kvitfløy" />
		<tag k="natural" v="hill" />
		<tag k="place" v="locality" />
		<tag k="ssr:stedsnr" v="173153" />
	</node>
	<node id="-110432" lat="69.0432833349" lon="17.452830554">
		<tag k="name" v="Vedheggen" />
		<tag k="natural" v="slope" />
		<tag k="place" v="locality" />
		<tag k="ssr:stedsnr" v="173144" />
	</node>
	<node id="-110430" lat="69.0483250002" lon="17.4952527731">
		<tag k="name" v="Grønnlia" />
		<tag k="natural" v="slope" />
		<tag k="place" v="locality" />
		<tag k="ssr:stedsnr" v="173113" />
	</node>
	<node id="-110429" lat="69.0540222212" lon="17.8461472176">
		<tag k="name" v="Storhumpen" />
		<tag k="natural" v="hill" />
		<tag k="place" v="locality" />
		<tag k="ssr:stedsnr" v="173017" />
	</node>
	<node id="-110427" lat="68.9903944476" lon="17.4902944347">
		<tag k="name" v="Hamneskolten" />
		<tag k="natural" v="hill" />
		<tag k="place" v="locality" />
		<tag k="ssr:stedsnr" v="172856" />
	</node>
	<node id="-110426" lat="69.1182500004" lon="17.891916658">
		<tag k="name" v="Finnfjellia" />
		<tag k="natural" v="slope" />
		<tag k="place" v="locality" />
		<tag k="ssr:stedsnr" v="172792" />
	</node>
	<node id="-110425" lat="68.9968305526" lon="17.5345638803">
		<tag k="name" v="Vakkerbakkan" />
		<tag k="natural" v="slope" />
		<tag k="place" v="locality" />
		<tag k="ssr:stedsnr" v="172322" />
	</node>
	<node id="-110424" lat="68.9943416673" lon="17.5491388953">
		<tag k="fixme" v="consider natural=peak for the most distinct mountains in the district" />
		<tag k="name" v="Taggefjellet" />
		<tag k="natural" v="hill" />
		<tag k="place" v="locality" />
		<tag k="ssr:stedsnr" v="172321" />
	</node>
	<node id="-110423" lat="68.9915750021" lon="17.5835083313">
		<tag k="name" v="Nerbrenna" />
		<tag k="natural" v="hill" />
		<tag k="place" v="locality" />
		<tag k="ssr:stedsnr" v="172319" />
	</node>
	<node id="-110422" lat="68.9877222214" lon="17.5657027791">
		<tag k="name" v="Stormoen" />
		<tag k="place" v="locality" />
		<tag k="ssr:stedsnr" v="172313" />
	</node>
	<node id="-110421" lat="68.9844138875" lon="17.5636166591">
		<tag k="name" v="Brekken" />
		<tag k="natural" v="slope" />
		<tag k="place" v="locality" />
		<tag k="ssr:stedsnr" v="172311" />
	</node>
	<node id="-110420" lat="69.0592666682" lon="17.5388444529">
		<tag k="name" v="Vollen" />
		<tag k="place" v="locality" />
		<tag k="ssr:stedsnr" v="172300" />
	</node>
	<node id="-110417" lat="69.0648749974" lon="17.757288892">
		<tag k="name" v="Slettlia" />
		<tag k="natural" v="slope" />
		<tag k="place" v="locality" />
		<tag k="ssr:stedsnr" v="173476" />
	</node>
	<node id="-110415" lat="69.1052027786" lon="17.6792194305">
		<tag k="fixme" v="consider natural=peak for the most distinct mountains in the district" />
		<tag k="name" v="Trollvasshøgden" />
		<tag k="natural" v="hill" />
		<tag k="place" v="locality" />
		<tag k="ssr:stedsnr" v="160645" />
	</node>
	<node id="-110414" lat="69.0098444481" lon="17.7378194467">
		<tag k="name" v="Gali-Jonsenhågen" />
		<tag k="natural" v="hill" />
		<tag k="place" v="locality" />
		<tag k="ssr:stedsnr" v="160433" />
	</node>
	<node id="-110412" lat="69.0227666645" lon="17.3591138866">
		<tag k="name" v="Fløyan" />
		<tag k="natural" v="hill" />
		<tag k="place" v="locality" />
		<tag k="ssr:stedsnr" v="159933" />
	</node>
	<node id="-110411" lat="69.0434611091" lon="17.852066651">
		<tag k="name" v="Vedhaugen" />
		<tag k="natural" v="hill" />
		<tag k="place" v="locality" />
		<tag k="ssr:stedsnr" v="159889" />
	</node>
	<node id="-110407" lat="69.0353277767" lon="17.7433777866">
		<tag k="name" v="Hågen" />
		<tag k="natural" v="hill" />
		<tag k="place" v="locality" />
		<tag k="ssr:stedsnr" v="159278" />
	</node>
	<node id="-110406" lat="69.1012638916" lon="17.752924993">
		<tag k="name" v="Tømmermoen" />
		<tag k="place" v="locality" />
		<tag k="ssr:stedsnr" v="159245" />
	</node>
	<node id="-110404" lat="69.0681972236" lon="17.7106388791">
		<tag k="name" v="Lasletta" />
		<tag k="place" v="locality" />
		<tag k="ssr:stedsnr" v="159162" />
	</node>
	<node id="-110403" lat="69.0749694413" lon="17.7086166513">
		<tag k="name" v="Brattbakken" />
		<tag k="natural" v="slope" />
		<tag k="place" v="locality" />
		<tag k="ssr:stedsnr" v="159161" />
	</node>
	<node id="-110393" lat="69.0109888886" lon="17.9671138912">
		<tag k="name" v="Synnerdalen" />
		<tag k="natural" v="valley" />
		<tag k="place" v="locality" />
		<tag k="ssr:stedsnr" v="139642" />
	</node>
	<node id="-110387" lat="69.0682333361" lon="17.5327500032">
		<tag k="fixme" v="multiple name tags, choose one and add the other to alt_name" />
		<tag k="name" v="Forholtet;Furholttinden;Holtet" />
		<tag k="natural" v="hill" />
		<tag k="place" v="locality" />
		<tag k="ssr:stedsnr" v="139375" />
	</node>
	<node id="-110382" lat="69.0352555596" lon="17.3748277861">
		<tag k="fixme" v="consider natural=peak for the most distinct mountains in the district" />
		<tag k="name" v="Håmannen" />
		<tag k="natural" v="hill" />
		<tag k="place" v="locality" />
		<tag k="ssr:stedsnr" v="139119" />
	</node>
	<node id="-110378" lat="69.0006305532" lon="17.6434277796">
		<tag k="fixme" v="consider natural=peak for the most distinct mountains in the district" />
		<tag k="name" v="Oksen" />
		<tag k="natural" v="hill" />
		<tag k="place" v="locality" />
		<tag k="ssr:stedsnr" v="139083" />
	</node>
	<node id="-110377" lat="68.9920361145" lon="17.5491694533">
		<tag k="fixme" v="consider natural=peak for the most distinct mountains in the district" />
		<tag k="name" v="Grønlikollen" />
		<tag k="natural" v="hill" />
		<tag k="place" v="locality" />
		<tag k="ssr:stedsnr" v="138997" />
	</node>
	<node id="-110374" lat="68.9803888878" lon="17.5209083224">
		<tag k="name" v="Rødberget" />
		<tag k="natural" v="hill" />
		<tag k="place" v="locality" />
		<tag k="ssr:stedsnr" v="112887" />
	</node>
	<node id="-110372" lat="68.9518749987" lon="17.4723194463">
		<tag k="name" v="Orresletta" />
		<tag k="place" v="locality" />
		<tag k="ssr:stedsnr" v="112870" />
	</node>
	<node id="-110370" lat="69.0096305579" lon="17.413622214">
		<tag k="name" v="Hamnebakkan" />
		<tag k="natural" v="slope" />
		<tag k="place" v="locality" />
		<tag k="ssr:stedsnr" v="112852" />
	</node>
	<node id="-110369" lat="69.0118499976" lon="17.3634527709">
		<tag k="name" v="Åttelia" />
		<tag k="natural" v="slope" />
		<tag k="place" v="locality" />
		<tag k="ssr:stedsnr" v="112850" />
	</node>
	<node id="-110368" lat="69.0507166709" lon="17.7407861008">
		<tag k="name" v="Blindfinnmoan" />
		<tag k="place" v="locality" />
		<tag k="ssr:stedsnr" v="112619" />
	</node>
	<node id="-110365" lat="69.056186114" lon="17.4775527865">
		<tag k="name" v="Rishågen" />
		<tag k="natural" v="hill" />
		<tag k="place" v="locality" />
		<tag k="ssr:stedsnr" v="112778" />
	</node>
	<node id="-110364" lat="69.1234250021" lon="17.8541444472">
		<tag k="name" v="Blåbærhågen" />
		<tag k="natural" v="hill" />
		<tag k="place" v="locality" />
		<tag k="ssr:stedsnr" v="112776" />
	</node>
	<node id="-110363" lat="69.0560194474" lon="17.4900055566">
		<tag k="fixme" v="consider natural=peak for the most distinct mountains in the district" />
		<tag k="name" v="Kubergstinden" />
		<tag k="natural" v="hill" />
		<tag k="place" v="locality" />
		<tag k="ssr:stedsnr" v="112771" />
	</node>
	<node id="-110361" lat="69.0176722256" lon="17.5481861178">
		<tag k="fixme" v="consider natural=peak for the most distinct mountains in the district" />
		<tag k="name" v="Sortevikkollen" />
		<tag k="natural" v="hill" />
		<tag k="place" v="locality" />
		<tag k="ssr:stedsnr" v="112288" />
	</node>
	<node id="-110360" lat="69.0689194479" lon="17.6719722268">
		<tag k="name" v="Langdalen" />
		<tag k="natural" v="valley" />
		<tag k="place" v="locality" />
		<tag k="ssr:stedsnr" v="112550" />
	</node>
	<node id="-110357" lat="69.0619833341" lon="17.6982777774">
		<tag k="fixme" v="consider natural=peak for the most distinct mountains in the district" />
		<tag k="name" v="Stomparfjellet" />
		<tag k="natural" v="hill" />
		<tag k="place" v="locality" />
		<tag k="ssr:stedsnr" v="112533" />
	</node>
	<node id="-110356" lat="69.0534222206" lon="17.5244472225">
		<tag k="name" v="Asphaugen" />
		<tag k="natural" v="hill" />
		<tag k="place" v="locality" />
		<tag k="ssr:stedsnr" v="112373" />
	</node>
	<node id="-110355" lat="69.0384888886" lon="17.4829777736">
		<tag k="name" v="Nausthågen" />
		<tag k="natural" v="hill" />
		<tag k="place" v="locality" />
		<tag k="ssr:stedsnr" v="112201" />
	</node>
	<node id="-110352" lat="69.0441527758" lon="17.4945888787">
		<tag k="name" v="Øverlandshaugen" />
		<tag k="natural" v="hill" />
		<tag k="place" v="locality" />
		<tag k="ssr:stedsnr" v="112181" />
	</node>
	<node id="-110351" lat="69.0336722206" lon="17.3663583212">
		<tag k="name" v="Moseholtan" />
		<tag k="natural" v="hill" />
		<tag k="place" v="locality" />
		<tag k="ssr:stedsnr" v="112176" />
	</node>
	<node id="-110350" lat="69.0424222191" lon="17.3973749918">
		<tag k="fixme" v="consider natural=peak for the most distinct mountains in the district" />
		<tag k="name" v="Sørvarden" />
		<tag k="natural" v="hill" />
		<tag k="place" v="locality" />
		<tag k="ssr:stedsnr" v="112170" />
	</node>
	<node id="-110349" lat="69.0472916702" lon="17.4782527829">
		<tag k="name" v="Monsdalshøgden" />
		<tag k="natural" v="hill" />
		<tag k="place" v="locality" />
		<tag k="ssr:stedsnr" v="112166" />
	</node>
	<node id="-110348" lat="69.1330305512" lon="17.8810277759">
		<tag k="name" v="Steinnesberget" />
		<tag k="natural" v="hill" />
		<tag k="place" v="locality" />
		<tag k="ssr:stedsnr" v="111077" />
	</node>
	<node id="-110347" lat="69.0959666665" lon="17.6780888879">
		<tag k="name" v="Verslet" />
		<tag k="place" v="locality" />
		<tag k="ssr:stedsnr" v="99749" />
	</node>
	<node id="-110346" lat="69.0954555528" lon="17.6316805628">
		<tag k="name" v="Knut-finnhågen" />
		<tag k="natural" v="hill" />
		<tag k="place" v="locality" />
		<tag k="ssr:stedsnr" v="99744" />
	</node>
	<node id="-110342" lat="69.1112111074" lon="17.7104888736">
		<tag k="name" v="Tennelia" />
		<tag k="natural" v="slope" />
		<tag k="place" v="locality" />
		<tag k="ssr:stedsnr" v="99145" />
	</node>
	<node id="-110341" lat="69.1121388881" lon="17.6901555644">
		<tag k="name" v="Olahågen" />
		<tag k="natural" v="hill" />
		<tag k="place" v="locality" />
		<tag k="ssr:stedsnr" v="99144" />
	</node>
	<node id="-110339" lat="69.0140805532" lon="17.8708916636">
		<tag k="name" v="Sæterhågan" />
		<tag k="natural" v="hill" />
		<tag k="place" v="locality" />
		<tag k="ssr:stedsnr" v="98840" />
	</node>
	<node id="-110338" lat="69.0090916665" lon="17.8593999925">
		<tag k="name" v="Moen" />
		<tag k="place" v="locality" />
		<tag k="ssr:stedsnr" v="98832" />
	</node>
	<node id="-110336" lat="69.0423583366" lon="17.6860111108">
		<tag k="name" v="Skjellhågen" />
		<tag k="natural" v="hill" />
		<tag k="place" v="locality" />
		<tag k="ssr:stedsnr" v="98234" />
	</node>
	<node id="-110333" lat="69.1069083322" lon="17.8176361028">
		<tag k="fixme" v="consider natural=peak for the most distinct mountains in the district" />
		<tag k="name" v="Kvitfløy" />
		<tag k="natural" v="hill" />
		<tag k="place" v="locality" />
		<tag k="ssr:stedsnr" v="98173" />
	</node>
	<node id="-110332" lat="69.0303722222" lon="17.8114222249">
		<tag k="name" v="Storholla" />
		<tag k="natural" v="slope" />
		<tag k="place" v="locality" />
		<tag k="ssr:stedsnr" v="98027" />
	</node>
	<node id="-110325" lat="68.9680694418" lon="17.5498055438">
		<tag k="alt_name" v="Brattberget" />
		<tag k="name" v="Bratteberget" />
		<tag k="natural" v="hill" />
		<tag k="place" v="locality" />
		<tag k="ssr:stedsnr" v="79889" />
	</node>
	<node id="-110323" lat="68.9795833367" lon="17.6120250021">
		<tag k="fixme" v="consider natural=peak for the most distinct mountains in the district" />
		<tag k="name" v="Oksen" />
		<tag k="natural" v="hill" />
		<tag k="place" v="locality" />
		<tag k="ssr:stedsnr" v="79873" />
	</node>
	<node id="-110316" lat="69.0499444427" lon="17.4854055451">
		<tag k="name" v="Monsdalen" />
		<tag k="natural" v="valley" />
		<tag k="place" v="locality" />
		<tag k="ssr:stedsnr" v="79324" />
	</node>
	<node id="-110314" lat="69.0464583341" lon="17.873322226">
		<tag k="fixme" v="consider natural=peak for the most distinct mountains in the district" />
		<tag k="name" v="Skøvassåsen" />
		<tag k="natural" v="hill" />
		<tag k="place" v="locality" />
		<tag k="ssr:stedsnr" v="79317" />
	</node>
	<node id="-110313" lat="69.0379999966" lon="17.7763555405">
		<tag k="alt_name" v="Rødrape" />
		<tag k="name" v="Rødrapet" />
		<tag k="natural" v="cliff" />
		<tag k="ssr:stedsnr" v="79313" />
	</node>
	<node id="-110303" lat="68.9253166652" lon="17.4876666592">
		<tag k="name" v="Slåttedalen" />
		<tag k="natural" v="valley" />
		<tag k="place" v="locality" />
		<tag k="ssr:stedsnr" v="78929" />
	</node>
	<node id="-110300" lat="69.015244448" lon="17.3638694324">
		<tag k="fixme" v="consider natural=peak for the most distinct mountains in the district" />
		<tag k="name" v="Almåsan" />
		<tag k="natural" v="hill" />
		<tag k="place" v="locality" />
		<tag k="ssr:stedsnr" v="52839" />
	</node>
	<node id="-110299" lat="68.9823555552" lon="17.5205472243">
		<tag k="name" v="Langberget" />
		<tag k="natural" v="hill" />
		<tag k="place" v="locality" />
		<tag k="ssr:stedsnr" v="52798" />
	</node>
	<node id="-110298" lat="68.9860722221" lon="17.5050694416">
		<tag k="name" v="Åselia" />
		<tag k="natural" v="slope" />
		<tag k="place" v="locality" />
		<tag k="ssr:stedsnr" v="52792" />
	</node>
	<node id="-110297" lat="68.983824997" lon="17.5005250043">
		<tag k="name" v="Bukkelia" />
		<tag k="natural" v="slope" />
		<tag k="place" v="locality" />
		<tag k="ssr:stedsnr" v="52790" />
	</node>
	<node id="-110296" lat="68.9846805569" lon="17.498461114">
		<tag k="name" v="Kvitebergan" />
		<tag k="natural" v="hill" />
		<tag k="place" v="locality" />
		<tag k="ssr:stedsnr" v="52787" />
	</node>
	<node id="-110294" lat="69.0490722221" lon="17.6169611006">
		<tag k="name" v="Brekken" />
		<tag k="natural" v="hill" />
		<tag k="place" v="locality" />
		<tag k="ssr:stedsnr" v="52342" />
	</node>
	<node id="-110293" lat="69.0509083346" lon="17.6178083397">
		<tag k="name" v="Slåkken" />
		<tag k="natural" v="slope" />
		<tag k="place" v="locality" />
		<tag k="ssr:stedsnr" v="52340" />
	</node>
	<node id="-110292" lat="69.060297223" lon="17.7247694471">
		<tag k="name" v="Stuggedalen" />
		<tag k="natural" v="valley" />
		<tag k="place" v="locality" />
		<tag k="ssr:stedsnr" v="52467" />
	</node>
	<node id="-110291" lat="69.0146083289" lon="17.3715416647">
		<tag k="name" v="Storlia" />
		<tag k="natural" v="slope" />
		<tag k="place" v="locality" />
		<tag k="ssr:stedsnr" v="52392" />
	</node>
	<node id="-110290" lat="68.9752194484" lon="17.5587638943">
		<tag k="name" v="Bjørnbåsen" />
		<tag k="natural" v="slope" />
		<tag k="place" v="locality" />
		<tag k="ssr:stedsnr" v="52194" />
	</node>
	<node id="-110289" lat="69.0840388917" lon="17.5190166584">
		<tag k="name" v="Tippen" />
		<tag k="natural" v="hill" />
		<tag k="place" v="locality" />
		<tag k="ssr:stedsnr" v="52175" />
	</node>
	<node id="-110288" lat="69.0423361062" lon="17.4782472301">
		<tag k="name" v="Mangelihågen" />
		<tag k="natural" v="hill" />
		<tag k="place" v="locality" />
		<tag k="ssr:stedsnr" v="52148" />
	</node>
	<node id="-110287" lat="69.0386222222" lon="17.3855055425">
		<tag k="fixme" v="consider natural=peak for the most distinct mountains in the district" />
		<tag k="name" v="Kollan" />
		<tag k="natural" v="hill" />
		<tag k="place" v="locality" />
		<tag k="ssr:stedsnr" v="52134" />
	</node>
	<node id="-110286" lat="68.992816666" lon="17.395688896">
		<tag k="name" v="Kvitberget" />
		<tag k="natural" v="hill" />
		<tag k="place" v="locality" />
		<tag k="ssr:stedsnr" v="51844" />
	</node>
	<node id="-110282" lat="69.0656166697" lon="17.5439972086">
		<tag k="name" v="Preikestolen" />
		<tag k="natural" v="hill" />
		<tag k="place" v="locality" />
		<tag k="ssr:stedsnr" v="51333" />
	</node>
	<node id="-110281" lat="69.064052782" lon="17.5416583401">
		<tag k="fixme" v="consider natural=peak for the most distinct mountains in the district" />
		<tag k="name" v="Hamnåsen" />
		<tag k="natural" v="hill" />
		<tag k="place" v="locality" />
		<tag k="ssr:stedsnr" v="51331" />
	</node>
	<node id="-110280" lat="69.0415555567" lon="17.6278000075">
		<tag k="fixme" v="consider natural=peak for the most distinct mountains in the district" />
		<tag k="name" v="Vasslegda" />
		<tag k="natural" v="hill" />
		<tag k="place" v="locality" />
		<tag k="ssr:stedsnr" v="38787" />
	</node>
	<node id="-110277" lat="69.1010916718" lon="17.6345694318">
		<tag k="name" v="Rambergan" />
		<tag k="natural" v="hill" />
		<tag k="place" v="locality" />
		<tag k="ssr:stedsnr" v="38734" />
	</node>
	<node id="-110276" lat="69.0246555588" lon="17.5434611014">
		<tag k="name" v="Steinbakken" />
		<tag k="natural" v="slope" />
		<tag k="place" v="locality" />
		<tag k="ssr:stedsnr" v="38755" />
	</node>
	<node id="-110273" lat="69.0664305541" lon="17.7678277806">
		<tag k="name" v="Vargelia" />
		<tag k="natural" v="slope" />
		<tag k="place" v="locality" />
		<tag k="ssr:stedsnr" v="38122" />
	</node>
	<node id="-110272" lat="69.0221277806" lon="17.3577416762">
		<tag k="name" v="Under Kjerringa" />
		<tag k="natural" v="slope" />
		<tag k="place" v="locality" />
		<tag k="ssr:stedsnr" v="37934" />
	</node>
	<node id="-110270" lat="69.0149250047" lon="17.9352916578">
		<tag k="name" v="Reet" />
		<tag k="natural" v="slope" />
		<tag k="place" v="locality" />
		<tag k="ssr:stedsnr" v="37837" />
	</node>
	<node id="-110266" lat="69.0952638921" lon="17.7028333294">
		<tag k="fixme" v="consider natural=peak for the most distinct mountains in the district" />
		<tag k="name" v="Gåsåsen" />
		<tag k="natural" v="hill" />
		<tag k="place" v="locality" />
		<tag k="ssr:stedsnr" v="37227" />
	</node>
	<node id="-110262" lat="69.0288222245" lon="17.8030555562">
		<tag k="alt_name" v="Rundfjellet, l" />
		<tag k="fixme" v="multiple name tags, choose one and add the other to alt_name; consider natural=peak for the most distinct mountains in the district" />
		<tag k="name" v="Rundfjellet;Litje Rundfjellet" />
		<tag k="natural" v="hill" />
		<tag k="place" v="locality" />
		<tag k="ssr:stedsnr" v="19595" />
	</node>
	<node id="-110261" lat="69.038205557" lon="17.6565694369">
		<tag k="name" v="Reinlia" />
		<tag k="natural" v="slope" />
		<tag k="place" v="locality" />
		<tag k="ssr:stedsnr" v="19310" />
	</node>
	<node id="-110260" lat="69.036647219" lon="17.4219166731">
		<tag k="name" v="Bergskardet" />
		<tag k="natural" v="valley" />
		<tag k="place" v="locality" />
		<tag k="ssr:stedsnr" v="19290" />
	</node>
	<node id="-110258" lat="69.1119055564" lon="17.8481777806">
		<tag k="fixme" v="consider natural=peak for the most distinct mountains in the district" />
		<tag k="name" v="Innerfjellet" />
		<tag k="natural" v="hill" />
		<tag k="place" v="locality" />
		<tag k="ssr:stedsnr" v="19252" />
	</node>
	<node id="-110254" lat="68.9702027738" lon="17.5581722164">
		<tag k="fixme" v="consider natural=peak for the most distinct mountains in the district" />
		<tag k="name" v="Brenna" />
		<tag k="natural" v="hill" />
		<tag k="place" v="locality" />
		<tag k="ssr:stedsnr" v="18870" />
	</node>
	<node id="-110248" lat="69.0660583296" lon="17.4021166687">
		<tag k="name" v="Storelvhaugen" />
		<tag k="natural" v="hill" />
		<tag k="place" v="locality" />
		<tag k="ssr:stedsnr" v="18033" />
	</node>
	<node id="-110245" lat="68.9319111099" lon="17.5594888778">
		<tag k="fixme" v="consider natural=peak for the most distinct mountains in the district" />
		<tag k="name" v="Løksetinden - Leakšogáisá" />
		<tag k="name:no" v="Løksetinden" />
		<tag k="name:se" v="Leakšogáisá" />
		<tag k="natural" v="hill" />
		<tag k="place" v="locality" />
		<tag k="ssr:stedsnr" v="17927" />
	</node>
	<node id="-110240" lat="69.0526138871" lon="17.4584499942">
		<tag k="fixme" v="consider natural=peak for the most distinct mountains in the district" />
		<tag k="name" v="Tverrelvdalshøgden" />
		<tag k="natural" v="hill" />
		<tag k="place" v="locality" />
		<tag k="ssr:stedsnr" v="962755" />
	</node>
	<node id="-110239" lat="69.0177638935" lon="17.4006916584">
		<tag k="name" v="Hullhågen" />
		<tag k="natural" v="hill" />
		<tag k="place" v="locality" />
		<tag k="ssr:stedsnr" v="962865" />
	</node>
	<node id="-110233" lat="68.996694448" lon="17.4996527863">
		<tag k="name" v="Hammaren" />
		<tag k="natural" v="hill" />
		<tag k="place" v="locality" />
		<tag k="ssr:stedsnr" v="962423" />
	</node>
	<node id="-110232" lat="69.0354666684" lon="17.5765444343">
		<tag k="name" v="Hetta" />
		<tag k="natural" v="slope" />
		<tag k="place" v="locality" />
		<tag k="ssr:stedsnr" v="962317" />
	</node>
	<node id="-110231" lat="69.0337611074" lon="17.4623444394">
		<tag k="name" v="Kirkebakken" />
		<tag k="natural" v="slope" />
		<tag k="place" v="locality" />
		<tag k="ssr:stedsnr" v="962176" />
	</node>
	<node id="-110229" lat="69.0252333288" lon="17.9548305584">
		<tag k="name" v="Holla" />
		<tag k="natural" v="valley" />
		<tag k="place" v="locality" />
		<tag k="ssr:stedsnr" v="962061" />
	</node>
	<node id="-110227" lat="69.0202972192" lon="17.5665750036">
		<tag k="name" v="Fintelia" />
		<tag k="natural" v="slope" />
		<tag k="place" v="locality" />
		<tag k="ssr:stedsnr" v="961266" />
	</node>
	<node id="-110226" lat="69.0952805548" lon="17.6788583249">
		<tag k="fixme" v="consider natural=peak for the most distinct mountains in the district" />
		<tag k="name" v="Åsan" />
		<tag k="natural" v="hill" />
		<tag k="place" v="locality" />
		<tag k="ssr:stedsnr" v="949671" />
	</node>
	<node id="-110219" lat="69.0575888907" lon="17.7521083287">
		<tag k="fixme" v="consider natural=peak for the most distinct mountains in the district" />
		<tag k="name" v="Tverråsen" />
		<tag k="natural" v="hill" />
		<tag k="place" v="locality" />
		<tag k="ssr:stedsnr" v="929320" />
	</node>
	<node id="-110215" lat="69.0773694452" lon="17.7890638851">
		<tag k="name" v="Ettvassdalen" />
		<tag k="natural" v="valley" />
		<tag k="place" v="locality" />
		<tag k="ssr:stedsnr" v="928333" />
	</node>
	<node id="-110214" lat="69.0236777796" lon="17.3974666594">
		<tag k="name" v="Moan" />
		<tag k="place" v="locality" />
		<tag k="ssr:stedsnr" v="901866" />
	</node>
	<node id="-110213" lat="69.0230194412" lon="17.3840888891">
		<tag k="name" v="Talgerotbergan" />
		<tag k="natural" v="hill" />
		<tag k="place" v="locality" />
		<tag k="ssr:stedsnr" v="901861" />
	</node>
	<node id="-110211" lat="68.9381611127" lon="17.4845750056">
		<tag k="name" v="Klemningan" />
		<tag k="natural" v="hill" />
		<tag k="place" v="locality" />
		<tag k="ssr:stedsnr" v="901859" />
	</node>
	<node id="-110210" lat="69.0111555562" lon="17.3778249973">
		<tag k="name" v="Heståkerskaret" />
		<tag k="natural" v="valley" />
		<tag k="place" v="locality" />
		<tag k="ssr:stedsnr" v="901856" />
	</node>
	<node id="-110209" lat="69.0007833346" lon="17.5023805657">
		<tag k="name" v="Stibergan" />
		<tag k="natural" v="hill" />
		<tag k="place" v="locality" />
		<tag k="ssr:stedsnr" v="901827" />
	</node>
	<node id="-110208" lat="68.9337333318" lon="17.4862777655">
		<tag k="name" v="Stormolla" />
		<tag k="natural" v="slope" />
		<tag k="place" v="locality" />
		<tag k="ssr:stedsnr" v="901912" />
	</node>
	<node id="-110206" lat="69.058616663" lon="17.4717388911">
		<tag k="name" v="Hulderstudalen" />
		<tag k="natural" v="valley" />
		<tag k="place" v="locality" />
		<tag k="ssr:stedsnr" v="901774" />
	</node>
	<node id="-110204" lat="69.059169444" lon="17.821186115">
		<tag k="name" v="Tunghågen" />
		<tag k="natural" v="hill" />
		<tag k="place" v="locality" />
		<tag k="ssr:stedsnr" v="901608" />
	</node>
	<node id="-110194" lat="69.0079055561" lon="17.3600722303">
		<tag k="name" v="Kattebergan" />
		<tag k="natural" v="hill" />
		<tag k="place" v="locality" />
		<tag k="ssr:stedsnr" v="887921" />
	</node>
	<node id="-110193" lat="69.0399805584" lon="17.8388277709">
		<tag k="name" v="Brentebergan" />
		<tag k="natural" v="hill" />
		<tag k="place" v="locality" />
		<tag k="ssr:stedsnr" v="887514" />
	</node>
	<node id="-110191" lat="69.0415750041" lon="17.700883329">
		<tag k="name" v="Skavhågen" />
		<tag k="natural" v="hill" />
		<tag k="place" v="locality" />
		<tag k="ssr:stedsnr" v="887268" />
	</node>
	<node id="-110190" lat="69.0324499956" lon="17.7753722216">
		<tag k="name" v="Sløkjedalen" />
		<tag k="natural" v="valley" />
		<tag k="place" v="locality" />
		<tag k="ssr:stedsnr" v="887010" />
	</node>
	<node id="-110189" lat="69.0317916692" lon="17.7672194431">
		<tag k="name" v="Roliholla" />
		<tag k="natural" v="valley" />
		<tag k="place" v="locality" />
		<tag k="ssr:stedsnr" v="887006" />
	</node>
	<node id="-110184" lat="69.0998472239" lon="17.6795694484">
		<tag k="name" v="Steinskaret" />
		<tag k="natural" v="valley" />
		<tag k="place" v="locality" />
		<tag k="ssr:stedsnr" v="949646" />
	</node>
	<node id="-110182" lat="69.0422805524" lon="17.911516672">
		<tag k="name" v="Grønhaugen" />
		<tag k="natural" v="hill" />
		<tag k="place" v="locality" />
		<tag k="ssr:stedsnr" v="948902" />
	</node>
	<node id="-110178" lat="69.0721416658" lon="17.7980499988">
		<tag k="fixme" v="consider natural=peak for the most distinct mountains in the district" />
		<tag k="name" v="Storlikollen" />
		<tag k="natural" v="hill" />
		<tag k="place" v="locality" />
		<tag k="ssr:stedsnr" v="948201" />
	</node>
	<node id="-110177" lat="69.081799996" lon="17.7782083267">
		<tag k="name" v="Skjellarsletta" />
		<tag k="place" v="locality" />
		<tag k="ssr:stedsnr" v="948198" />
	</node>
	<node id="-110176" lat="69.0718361111" lon="17.73908333">
		<tag k="name" v="Ryet" />
		<tag k="natural" v="slope" />
		<tag k="place" v="locality" />
		<tag k="ssr:stedsnr" v="948191" />
	</node>
	<node id="-110174" lat="69.0739722208" lon="17.7870861202">
		<tag k="name" v="Rødrapet" />
		<tag k="natural" v="valley" />
		<tag k="place" v="locality" />
		<tag k="ssr:stedsnr" v="948142" />
	</node>
	<node id="-110168" lat="69.0166888929" lon="17.3977861142">
		<tag k="name" v="Høgebakken" />
		<tag k="natural" v="slope" />
		<tag k="place" v="locality" />
		<tag k="ssr:stedsnr" v="841854" />
	</node>
	<node id="-110167" lat="69.0511138859" lon="17.4381110973">
		<tag k="name" v="Forsådalen" />
		<tag k="natural" v="valley" />
		<tag k="place" v="locality" />
		<tag k="ssr:stedsnr" v="841769" />
	</node>
	<node id="-110166" lat="69.0572388854" lon="17.5012083327">
		<tag k="fixme" v="consider natural=peak for the most distinct mountains in the district" />
		<tag k="name" v="Høgkollen" />
		<tag k="natural" v="hill" />
		<tag k="place" v="locality" />
		<tag k="ssr:stedsnr" v="841757" />
	</node>
	<node id="-110164" lat="69.1111416687" lon="17.8493722165">
		<tag k="name" v="Børingsrabben" />
		<tag k="natural" v="hill" />
		<tag k="place" v="locality" />
		<tag k="ssr:stedsnr" v="840764" />
	</node>
	<node id="-110163" lat="68.988622222" lon="17.3643166539">
		<tag k="name" v="Kopparlia" />
		<tag k="natural" v="slope" />
		<tag k="place" v="locality" />
		<tag k="ssr:stedsnr" v="840856" />
	</node>
	<node id="-110162" lat="68.992738893" lon="17.3886416706">
		<tag k="name" v="Mørkedalen" />
		<tag k="natural" v="valley" />
		<tag k="place" v="locality" />
		<tag k="ssr:stedsnr" v="840854" />
	</node>
	<node id="-110161" lat="69.0113083318" lon="17.5363083234">
		<tag k="name" v="Mørkedalen" />
		<tag k="natural" v="valley" />
		<tag k="place" v="locality" />
		<tag k="ssr:stedsnr" v="840258" />
	</node>
	<node id="-110160" lat="69.012886113" lon="17.5362666744">
		<tag k="fixme" v="consider natural=peak for the most distinct mountains in the district" />
		<tag k="name" v="Forrafjellet" />
		<tag k="natural" v="hill" />
		<tag k="place" v="locality" />
		<tag k="ssr:stedsnr" v="840257" />
	</node>
	<node id="-110159" lat="69.0304749959" lon="17.7666027692">
		<tag k="name" v="Svarteberget" />
		<tag k="natural" v="hill" />
		<tag k="place" v="locality" />
		<tag k="ssr:stedsnr" v="827003" />
	</node>
	<node id="-110158" lat="68.9908722182" lon="17.3594638851">
		<tag k="name" v="Tverrlia" />
		<tag k="natural" v="slope" />
		<tag k="place" v="locality" />
		<tag k="ssr:stedsnr" v="826916" />
	</node>
	<node id="-110157" lat="69.0503555576" lon="17.8051555595">
		<tag k="name" v="Mevasshalsen" />
		<tag k="natural" v="valley" />
		<tag k="place" v="locality" />
		<tag k="ssr:stedsnr" v="826307" />
	</node>
	<node id="-110154" lat="69.0627888898" lon="17.4200166596">
		<tag k="alt_name" v="Storhaugen" />
		<tag k="name" v="Storhågen" />
		<tag k="natural" v="hill" />
		<tag k="place" v="locality" />
		<tag k="ssr:stedsnr" v="929336" />
	</node>
	<node id="-110135" lat="69.0134027783" lon="17.3681333403">
		<tag k="name" v="Stokkelia" />
		<tag k="natural" v="slope" />
		<tag k="place" v="locality" />
		<tag k="ssr:stedsnr" v="780824" />
	</node>
	<node id="-110134" lat="69.0155666675" lon="17.3773972278">
		<tag k="name" v="Taushågen" />
		<tag k="natural" v="hill" />
		<tag k="place" v="locality" />
		<tag k="ssr:stedsnr" v="780822" />
	</node>
	<node id="-110133" lat="69.0135833362" lon="17.3803805562">
		<tag k="name" v="Steinbakken" />
		<tag k="natural" v="slope" />
		<tag k="place" v="locality" />
		<tag k="ssr:stedsnr" v="780821" />
	</node>
	<node id="-110132" lat="69.00222778" lon="17.4212666744">
		<tag k="name" v="Storholtet" />
		<tag k="natural" v="hill" />
		<tag k="place" v="locality" />
		<tag k="ssr:stedsnr" v="780813" />
	</node>
	<node id="-110131" lat="69.0529638843" lon="17.5170500076">
		<tag k="name" v="Utenglian" />
		<tag k="natural" v="slope" />
		<tag k="place" v="locality" />
		<tag k="ssr:stedsnr" v="780731" />
	</node>
	<node id="-110130" lat="69.0650972222" lon="17.4876222145">
		<tag k="name" v="Mørkedalen" />
		<tag k="natural" v="valley" />
		<tag k="place" v="locality" />
		<tag k="ssr:stedsnr" v="780724" />
	</node>
	<node id="-110125" lat="69.0320000002" lon="17.3527416639">
		<tag k="name" v="Oksepallen" />
		<tag k="natural" v="hill" />
		<tag k="place" v="locality" />
		<tag k="ssr:stedsnr" v="765908" />
	</node>
	<node id="-110123" lat="69.0336111069" lon="17.5948694506">
		<tag k="fixme" v="consider natural=peak for the most distinct mountains in the district" />
		<tag k="name" v="Hundstrandfjellet" />
		<tag k="natural" v="hill" />
		<tag k="place" v="locality" />
		<tag k="ssr:stedsnr" v="746308" />
	</node>
	<node id="-110119" lat="68.9564444453" lon="17.5049722292">
		<tag k="name" v="Skjolbakken" />
		<tag k="natural" v="slope" />
		<tag k="place" v="locality" />
		<tag k="ssr:stedsnr" v="901895" />
	</node>
	<node id="-110117" lat="68.9455805594" lon="17.4784472179">
		<tag k="name" v="Sørlia" />
		<tag k="natural" v="slope" />
		<tag k="place" v="locality" />
		<tag k="ssr:stedsnr" v="901881" />
	</node>
	<node id="-110115" lat="68.9906333366" lon="17.3676388846">
		<tag k="name" v="Bladet" />
		<tag k="natural" v="hill" />
		<tag k="place" v="locality" />
		<tag k="ssr:stedsnr" v="901841" />
	</node>
	<node id="-110113" lat="69.0316972186" lon="17.9182861111">
		<tag k="name" v="Jonhaugen" />
		<tag k="natural" v="hill" />
		<tag k="place" v="locality" />
		<tag k="ssr:stedsnr" v="901793" />
	</node>
	<node id="-110112" lat="69.0336166663" lon="17.3938777828">
		<tag k="name" v="Vassbakken" />
		<tag k="natural" v="slope" />
		<tag k="place" v="locality" />
		<tag k="ssr:stedsnr" v="901792" />
	</node>
	<node id="-110111" lat="69.1215861134" lon="17.8675444539">
		<tag k="name" v="Durmålslia" />
		<tag k="natural" v="slope" />
		<tag k="place" v="locality" />
		<tag k="ssr:stedsnr" v="901789" />
	</node>
	<node id="-110109" lat="69.0548222186" lon="17.509977769">
		<tag k="name" v="Klubban" />
		<tag k="natural" v="hill" />
		<tag k="place" v="locality" />
		<tag k="ssr:stedsnr" v="901782" />
	</node>
	<node id="-110108" lat="69.0659638921" lon="17.4927555668">
		<tag k="name" v="Ryggen" />
		<tag k="natural" v="ridge" />
		<tag k="place" v="locality" />
		<tag k="ssr:stedsnr" v="901779" />
	</node>
	<node id="-110105" lat="68.9830138934" lon="17.5039805462">
		<tag k="name" v="Breilia" />
		<tag k="natural" v="slope" />
		<tag k="place" v="locality" />
		<tag k="ssr:stedsnr" v="901448" />
	</node>
	<node id="-110102" lat="69.0573638904" lon="17.6608027725">
		<tag k="name" v="Sæterlia" />
		<tag k="natural" v="slope" />
		<tag k="place" v="locality" />
		<tag k="ssr:stedsnr" v="901326" />
	</node>
	<node id="-110101" lat="68.9954749961" lon="17.5968277853">
		<tag k="name" v="Næverbotn" />
		<tag k="natural" v="valley" />
		<tag k="place" v="locality" />
		<tag k="ssr:stedsnr" v="901296" />
	</node>
	<node id="-110100" lat="69.0414083311" lon="17.5022527778">
		<tag k="name" v="Kalvegårdslia" />
		<tag k="natural" v="slope" />
		<tag k="place" v="locality" />
		<tag k="ssr:stedsnr" v="901143" />
	</node>
	<node id="-110099" lat="69.0451083337" lon="17.4707749983">
		<tag k="name" v="Gårdselvskaret" />
		<tag k="natural" v="valley" />
		<tag k="place" v="locality" />
		<tag k="ssr:stedsnr" v="901133" />
	</node>
	<node id="-110098" lat="68.9569888857" lon="17.5759861059">
		<tag k="name" v="Skaret" />
		<tag k="natural" v="valley" />
		<tag k="place" v="locality" />
		<tag k="ssr:stedsnr" v="901237" />
	</node>
	<node id="-110097" lat="68.9678777766" lon="17.5571360976">
		<tag k="name" v="Gammelhågen" />
		<tag k="natural" v="hill" />
		<tag k="place" v="locality" />
		<tag k="ssr:stedsnr" v="901189" />
	</node>
	<node id="-110096" lat="68.9804527759" lon="17.5475138851">
		<tag k="name" v="Katteberget" />
		<tag k="natural" v="hill" />
		<tag k="place" v="locality" />
		<tag k="ssr:stedsnr" v="901185" />
	</node>
	<node id="-110095" lat="68.9764305581" lon="17.5653527643">
		<tag k="name" v="Kleiva" />
		<tag k="natural" v="valley" />
		<tag k="place" v="locality" />
		<tag k="ssr:stedsnr" v="901182" />
	</node>
	<node id="-110094" lat="69.0311750006" lon="17.396436115">
		<tag k="name" v="Trollerhågen" />
		<tag k="natural" v="hill" />
		<tag k="place" v="locality" />
		<tag k="ssr:stedsnr" v="901130" />
	</node>
	<node id="-110093" lat="69.0596972258" lon="17.3979750065">
		<tag k="name" v="Kristianlia" />
		<tag k="natural" v="slope" />
		<tag k="place" v="locality" />
		<tag k="ssr:stedsnr" v="719756" />
	</node>
	<node id="-110089" lat="68.9959527824" lon="17.4127499939">
		<tag k="name" v="Olahågen" />
		<tag k="natural" v="hill" />
		<tag k="place" v="locality" />
		<tag k="ssr:stedsnr" v="719812" />
	</node>
	<node id="-110087" lat="69.0555111095" lon="17.8028277826">
		<tag k="name" v="Laberget" />
		<tag k="natural" v="hill" />
		<tag k="place" v="locality" />
		<tag k="ssr:stedsnr" v="719568" />
	</node>
	<node id="-110086" lat="68.9722888859" lon="17.638386095">
		<tag k="fixme" v="multiple name tags, choose one and add the other to alt_name" />
		<tag k="name" v="Salangsskaret;Sørfjordskaret" />
		<tag k="natural" v="valley" />
		<tag k="place" v="locality" />
		<tag k="ssr:stedsnr" v="719221" />
	</node>
	<node id="-110085" lat="68.9657277793" lon="17.5609972123">
		<tag k="name" v="Kjellarberget" />
		<tag k="natural" v="hill" />
		<tag k="place" v="locality" />
		<tag k="ssr:stedsnr" v="719212" />
	</node>
	<node id="-110084" lat="69.0860416704" lon="17.4838083384">
		<tag k="fixme" v="consider natural=peak for the most distinct mountains in the district" />
		<tag k="name" v="Gjerdfjellet" />
		<tag k="natural" v="hill" />
		<tag k="place" v="locality" />
		<tag k="ssr:stedsnr" v="719190" />
	</node>
	<node id="-110083" lat="69.0343111148" lon="17.470705557">
		<tag k="name" v="Morteberget" />
		<tag k="natural" v="hill" />
		<tag k="place" v="locality" />
		<tag k="ssr:stedsnr" v="719184" />
	</node>
	<node id="-110082" lat="69.0326472228" lon="17.4648805462">
		<tag k="name" v="Bukkeberget" />
		<tag k="natural" v="hill" />
		<tag k="place" v="locality" />
		<tag k="ssr:stedsnr" v="719179" />
	</node>
	<node id="-110079" lat="69.0343861158" lon="17.9285666601">
		<tag k="name" v="Skoglia" />
		<tag k="natural" v="slope" />
		<tag k="place" v="locality" />
		<tag k="ssr:stedsnr" v="719048" />
	</node>
	<node id="-110078" lat="69.0493583368" lon="17.8619694332">
		<tag k="name" v="Fjelldal" />
		<tag k="natural" v="valley" />
		<tag k="place" v="locality" />
		<tag k="ssr:stedsnr" v="719014" />
	</node>
	<node id="-110077" lat="69.049666666" lon="17.8411111026">
		<tag k="name" v="Skjellberget" />
		<tag k="natural" v="hill" />
		<tag k="place" v="locality" />
		<tag k="ssr:stedsnr" v="705308" />
	</node>
	<node id="-110076" lat="69.0352166676" lon="17.7596555598">
		<tag k="name" v="Hesjeliberget" />
		<tag k="natural" v="hill" />
		<tag k="place" v="locality" />
		<tag k="ssr:stedsnr" v="705303" />
	</node>
	<node id="-110074" lat="69.1171916642" lon="17.8374805477">
		<tag k="name" v="Fjellmobakken" />
		<tag k="natural" v="slope" />
		<tag k="place" v="locality" />
		<tag k="ssr:stedsnr" v="888829" />
	</node>
	<node id="-110069" lat="69.0376916702" lon="17.7570583202">
		<tag k="name" v="Skjellholla" />
		<tag k="natural" v="valley" />
		<tag k="place" v="locality" />
		<tag k="ssr:stedsnr" v="888249" />
	</node>
	<node id="-110066" lat="69.0431555558" lon="17.7750722307">
		<tag k="name" v="Brannhågen" />
		<tag k="natural" v="hill" />
		<tag k="place" v="locality" />
		<tag k="ssr:stedsnr" v="888227" />
	</node>
	<node id="-110065" lat="69.0191694453" lon="17.3596861171">
		<tag k="name" v="Asphaugen" />
		<tag k="natural" v="hill" />
		<tag k="place" v="locality" />
		<tag k="ssr:stedsnr" v="887929" />
	</node>
	<node id="-110062" lat="69.1136388848" lon="17.8106805534">
		<tag k="fixme" v="consider natural=peak for the most distinct mountains in the district" />
		<tag k="name" v="Ramfløy" />
		<tag k="natural" v="hill" />
		<tag k="place" v="locality" />
		<tag k="ssr:stedsnr" v="887840" />
	</node>
	<node id="-110061" lat="69.0083166701" lon="17.8558944307">
		<tag k="name" v="Innerreingjerdet" />
		<tag k="place" v="locality" />
		<tag k="ssr:stedsnr" v="887836" />
	</node>
	<node id="-110060" lat="69.1037638905" lon="17.8052888766">
		<tag k="name" v="Kvitebergan" />
		<tag k="natural" v="hill" />
		<tag k="place" v="locality" />
		<tag k="ssr:stedsnr" v="887189" />
	</node>
	<node id="-110059" lat="69.0909166653" lon="17.7387833332">
		<tag k="name" v="Samuelmoan" />
		<tag k="place" v="locality" />
		<tag k="ssr:stedsnr" v="887220" />
	</node>
	<node id="-110058" lat="69.0880138923" lon="17.7055805479">
		<tag k="name" v="Dalan" />
		<tag k="natural" v="valley" />
		<tag k="place" v="locality" />
		<tag k="ssr:stedsnr" v="887205" />
	</node>
	<node id="-110057" lat="69.1005472177" lon="17.6985583384">
		<tag k="name" v="Brattlia" />
		<tag k="natural" v="slope" />
		<tag k="place" v="locality" />
		<tag k="ssr:stedsnr" v="887037" />
	</node>
	<node id="-110056" lat="69.0243222252" lon="17.7844916617">
		<tag k="name" v="Tredjeloftet" />
		<tag k="natural" v="slope" />
		<tag k="place" v="locality" />
		<tag k="ssr:stedsnr" v="887032" />
	</node>
	<node id="-110055" lat="69.1054305523" lon="17.8037416699">
		<tag k="name" v="Svartebergan" />
		<tag k="natural" v="hill" />
		<tag k="place" v="locality" />
		<tag k="ssr:stedsnr" v="887187" />
	</node>
	<node id="-110054" lat="69.1036694477" lon="17.8236555554">
		<tag k="name" v="Steikarmoen" />
		<tag k="place" v="locality" />
		<tag k="ssr:stedsnr" v="887186" />
	</node>
	<node id="-110053" lat="69.0867583334" lon="17.7757222209">
		<tag k="name" v="Kimahågen" />
		<tag k="natural" v="hill" />
		<tag k="place" v="locality" />
		<tag k="ssr:stedsnr" v="887182" />
	</node>
	<node id="-110044" lat="69.0304388927" lon="17.359547222">
		<tag k="name" v="Brekka" />
		<tag k="natural" v="slope" />
		<tag k="place" v="locality" />
		<tag k="ssr:stedsnr" v="658888" />
	</node>
	<node id="-110043" lat="68.9244527766" lon="17.469538892">
		<tag k="name" v="Kornhellaren" />
		<tag k="natural" v="hill" />
		<tag k="place" v="locality" />
		<tag k="ssr:stedsnr" v="658875" />
	</node>
	<node id="-110042" lat="68.9536166639" lon="17.487180541">
		<tag k="name" v="Tømmervollen" />
		<tag k="place" v="locality" />
		<tag k="ssr:stedsnr" v="658862" />
	</node>
	<node id="-110041" lat="68.9526361097" lon="17.4778444525">
		<tag k="name" v="Vinerbotnan" />
		<tag k="natural" v="valley" />
		<tag k="place" v="locality" />
		<tag k="ssr:stedsnr" v="658859" />
	</node>
	<node id="-110038" lat="68.9909611119" lon="17.5266611146">
		<tag k="fixme" v="consider natural=peak for the most distinct mountains in the district" />
		<tag k="name" v="Trollvasshøgda" />
		<tag k="natural" v="hill" />
		<tag k="place" v="locality" />
		<tag k="ssr:stedsnr" v="658313" />
	</node>
	<node id="-110037" lat="68.9856055565" lon="17.5644555429">
		<tag k="name" v="Slåttemoen" />
		<tag k="place" v="locality" />
		<tag k="ssr:stedsnr" v="658303" />
	</node>
	<node id="-110036" lat="69.0512999965" lon="17.5055666521">
		<tag k="name" v="Klubbedalen" />
		<tag k="natural" v="valley" />
		<tag k="place" v="locality" />
		<tag k="ssr:stedsnr" v="658137" />
	</node>
	<node id="-110034" lat="68.9528249969" lon="17.5551999906">
		<tag k="name" v="Storskapet" />
		<tag k="natural" v="hill" />
		<tag k="place" v="locality" />
		<tag k="ssr:stedsnr" v="658276" />
	</node>
	<node id="-110033" lat="69.0213249997" lon="17.5542222299">
		<tag k="name" v="Legdekulen" />
		<tag k="natural" v="hill" />
		<tag k="place" v="locality" />
		<tag k="ssr:stedsnr" v="658269" />
	</node>
	<node id="-110032" lat="69.018808337" lon="17.5425583374">
		<tag k="name" v="Hulderberghågen" />
		<tag k="natural" v="hill" />
		<tag k="place" v="locality" />
		<tag k="ssr:stedsnr" v="658263" />
	</node>
	<node id="-110028" lat="69.0164722202" lon="17.6951194391">
		<tag k="name" v="Vedhøggan" />
		<tag k="natural" v="slope" />
		<tag k="place" v="locality" />
		<tag k="ssr:stedsnr" v="645517" />
	</node>
	<node id="-110027" lat="69.1073750033" lon="17.6912527805">
		<tag k="name" v="Vassdalan" />
		<tag k="natural" v="valley" />
		<tag k="place" v="locality" />
		<tag k="ssr:stedsnr" v="644019" />
	</node>
	<node id="-110022" lat="68.9285833319" lon="17.4755916698">
		<tag k="name" v="Sildegarnberget" />
		<tag k="natural" v="hill" />
		<tag k="place" v="locality" />
		<tag k="ssr:stedsnr" v="719872" />
	</node>
	<node id="-110020" lat="68.9548444434" lon="17.5057500013">
		<tag k="name" v="Bjørnholla" />
		<tag k="natural" v="valley" />
		<tag k="place" v="locality" />
		<tag k="ssr:stedsnr" v="719860" />
	</node>
	<node id="-110018" lat="69.0113444423" lon="17.3795222075">
		<tag k="name" v="Storhågen" />
		<tag k="natural" v="hill" />
		<tag k="place" v="locality" />
		<tag k="ssr:stedsnr" v="719832" />
	</node>
	<node id="-110015" lat="69.0539277767" lon="17.4694555573">
		<tag k="fixme" v="consider natural=peak for the most distinct mountains in the district" />
		<tag k="name" v="Kvitfløy" />
		<tag k="natural" v="hill" />
		<tag k="place" v="locality" />
		<tag k="ssr:stedsnr" v="719749" />
	</node>
	<node id="-110013" lat="69.1118444407" lon="17.8922277853">
		<tag k="name" v="Svineryggen" />
		<tag k="natural" v="ridge" />
		<tag k="place" v="locality" />
		<tag k="ssr:stedsnr" v="719736" />
	</node>
	<node id="-110012" lat="68.9840972248" lon="17.5058861128">
		<tag k="fixme" v="consider natural=peak for the most distinct mountains in the district" />
		<tag k="name" v="Åsen" />
		<tag k="natural" v="hill" />
		<tag k="place" v="locality" />
		<tag k="ssr:stedsnr" v="719797" />
	</node>
	<node id="-110009" lat="69.0748694481" lon="17.6834944529">
		<tag k="fixme" v="consider natural=peak for the most distinct mountains in the district" />
		<tag k="name" v="Aksla" />
		<tag k="natural" v="hill" />
		<tag k="place" v="locality" />
		<tag k="ssr:stedsnr" v="719493" />
	</node>
	<node id="-110007" lat="69.0542944456" lon="17.6767861214">
		<tag k="fixme" v="consider natural=peak for the most distinct mountains in the district" />
		<tag k="name" v="Stuggefjellet" />
		<tag k="natural" v="hill" />
		<tag k="place" v="locality" />
		<tag k="ssr:stedsnr" v="719342" />
	</node>
	<node id="-110004" lat="69.0358277769" lon="17.377363899">
		<tag k="name" v="Bergslian" />
		<tag k="natural" v="slope" />
		<tag k="place" v="locality" />
		<tag k="ssr:stedsnr" v="719136" />
	</node>
	<node id="-110002" lat="69.0278972251" lon="17.4213194437">
		<tag k="name" v="Blåfjellskaret" />
		<tag k="natural" v="valley" />
		<tag k="place" v="locality" />
		<tag k="ssr:stedsnr" v="719125" />
	</node>
	<node id="-110000" lat="69.0398638877" lon="17.4218777748">
		<tag k="name" v="Grønnbakken" />
		<tag k="natural" v="slope" />
		<tag k="place" v="locality" />
		<tag k="ssr:stedsnr" v="597135" />
	</node>
	<node id="-109999" lat="69.1180472212" lon="17.8061388802">
		<tag k="name" v="Moen" />
		<tag k="place" v="locality" />
		<tag k="ssr:stedsnr" v="584862" />
	</node>
	<node id="-109997" lat="69.0647888894" lon="17.6990749857">
		<tag k="name" v="Salangsbakken" />
		<tag k="natural" v="slope" />
		<tag k="place" v="locality" />
		<tag k="ssr:stedsnr" v="584535" />
	</node>
	<node id="-109996" lat="69.0710888882" lon="17.7488333244">
		<tag k="name" v="Bjørnforratoppen" />
		<tag k="natural" v="hill" />
		<tag k="place" v="locality" />
		<tag k="ssr:stedsnr" v="584525" />
	</node>
	<node id="-109995" lat="69.0284638915" lon="17.7160833199">
		<tag k="name" v="Sørsteberget" />
		<tag k="natural" v="hill" />
		<tag k="place" v="locality" />
		<tag k="ssr:stedsnr" v="584277" />
	</node>
	<node id="-109994" lat="69.0366305589" lon="17.8969055444">
		<tag k="name" v="Grindhaugen" />
		<tag k="natural" v="hill" />
		<tag k="place" v="locality" />
		<tag k="ssr:stedsnr" v="583855" />
	</node>
	<node id="-109989" lat="69.1070472213" lon="17.739847228">
		<tag k="name" v="Hundneset" />
		<tag k="natural" v="ridge" />
		<tag k="place" v="locality" />
		<tag k="ssr:stedsnr" v="583202" />
	</node>
	<node id="-109988" lat="69.0247777733" lon="17.5753388975">
		<tag k="fixme" v="consider natural=peak for the most distinct mountains in the district" />
		<tag k="name" v="Heikollen" />
		<tag k="natural" v="hill" />
		<tag k="place" v="locality" />
		<tag k="ssr:stedsnr" v="706714" />
	</node>
	<node id="-109986" lat="69.1004777768" lon="17.6417111202">
		<tag k="fixme" v="consider natural=peak for the most distinct mountains in the district" />
		<tag k="name" v="Geitbrekken" />
		<tag k="natural" v="hill" />
		<tag k="place" v="locality" />
		<tag k="ssr:stedsnr" v="706677" />
	</node>
	<node id="-109985" lat="69.0236833359" lon="17.7293472307">
		<tag k="name" v="Trollbakken" />
		<tag k="natural" v="slope" />
		<tag k="place" v="locality" />
		<tag k="ssr:stedsnr" v="706249" />
	</node>
	<node id="-109984" lat="69.0254944462" lon="17.724561112">
		<tag k="name" v="Seljebakken" />
		<tag k="natural" v="slope" />
		<tag k="place" v="locality" />
		<tag k="ssr:stedsnr" v="706248" />
	</node>
	<node id="-109982" lat="69.0298694414" lon="17.7473305404">
		<tag k="name" v="Mari-kusletta" />
		<tag k="place" v="locality" />
		<tag k="ssr:stedsnr" v="706245" />
	</node>
	<node id="-109981" lat="69.0401638927" lon="17.7690777872">
		<tag k="name" v="Småvasshaugen" />
		<tag k="natural" v="hill" />
		<tag k="place" v="locality" />
		<tag k="ssr:stedsnr" v="706237" />
	</node>
	<node id="-109978" lat="69.0390861096" lon="17.8478388849">
		<tag k="name" v="Berget" />
		<tag k="natural" v="hill" />
		<tag k="place" v="locality" />
		<tag k="ssr:stedsnr" v="705877" />
	</node>
	<node id="-109976" lat="69.0650611138" lon="17.4002555635">
		<tag k="name" v="Mellalegden" />
		<tag k="natural" v="slope" />
		<tag k="place" v="locality" />
		<tag k="ssr:stedsnr" v="705842" />
	</node>
	<node id="-109972" lat="69.0363749994" lon="17.6506388795">
		<tag k="fixme" v="consider natural=peak for the most distinct mountains in the district" />
		<tag k="name" v="Sæterbotnhøgda" />
		<tag k="natural" v="hill" />
		<tag k="place" v="locality" />
		<tag k="ssr:stedsnr" v="705792" />
	</node>
	<node id="-109970" lat="69.0405527743" lon="17.7173055532">
		<tag k="name" v="Storbakken" />
		<tag k="natural" v="slope" />
		<tag k="place" v="locality" />
		<tag k="ssr:stedsnr" v="705300" />
	</node>
	<node id="-109969" lat="69.0961944465" lon="17.7560833345">
		<tag k="name" v="Olderbakken" />
		<tag k="natural" v="slope" />
		<tag k="place" v="locality" />
		<tag k="ssr:stedsnr" v="705260" />
	</node>
	<node id="-109968" lat="69.0812722211" lon="17.6954055485">
		<tag k="name" v="Korgedalen" />
		<tag k="natural" v="valley" />
		<tag k="place" v="locality" />
		<tag k="ssr:stedsnr" v="705228" />
	</node>
	<node id="-109967" lat="69.0815861134" lon="17.7209138943">
		<tag k="name" v="Kvitfløysletta" />
		<tag k="place" v="locality" />
		<tag k="ssr:stedsnr" v="705224" />
	</node>
	<node id="-109961" lat="69.0165583334" lon="17.3754555503">
		<tag k="name" v="Svabrekklian" />
		<tag k="natural" v="slope" />
		<tag k="place" v="locality" />
		<tag k="ssr:stedsnr" v="537824" />
	</node>
	<node id="-109960" lat="69.0484027767" lon="17.7085444465">
		<tag k="name" v="Nattmålshågen" />
		<tag k="natural" v="hill" />
		<tag k="place" v="locality" />
		<tag k="ssr:stedsnr" v="537590" />
	</node>
	<node id="-109959" lat="69.0631527814" lon="17.7811416639">
		<tag k="name" v="Slåttelia" />
		<tag k="natural" v="slope" />
		<tag k="place" v="locality" />
		<tag k="ssr:stedsnr" v="537584" />
	</node>
	<node id="-109958" lat="69.059441665" lon="17.7808722162">
		<tag k="name" v="Vakkersletta" />
		<tag k="place" v="locality" />
		<tag k="ssr:stedsnr" v="537582" />
	</node>
	<node id="-109956" lat="69.0576333321" lon="17.7915833298">
		<tag k="name" v="Seljebakkhågen" />
		<tag k="natural" v="hill" />
		<tag k="place" v="locality" />
		<tag k="ssr:stedsnr" v="537574" />
	</node>
	<node id="-109953" lat="68.9619499978" lon="17.5906527705">
		<tag k="name" v="Lensmannsberget" />
		<tag k="natural" v="hill" />
		<tag k="place" v="locality" />
		<tag k="ssr:stedsnr" v="537216" />
	</node>
	<node id="-109951" lat="69.1214166674" lon="17.8909277639">
		<tag k="name" v="Rundvasshågen" />
		<tag k="natural" v="hill" />
		<tag k="place" v="locality" />
		<tag k="ssr:stedsnr" v="536766" />
	</node>
	<node id="-109950" lat="69.1271638927" lon="17.889297209">
		<tag k="name" v="Mølnelia" />
		<tag k="natural" v="slope" />
		<tag k="place" v="locality" />
		<tag k="ssr:stedsnr" v="536764" />
	</node>
	<node id="-109949" lat="68.994372222" lon="17.3685972099">
		<tag k="name" v="Gommelia" />
		<tag k="natural" v="slope" />
		<tag k="place" v="locality" />
		<tag k="ssr:stedsnr" v="536843" />
	</node>
	<node id="-109948" lat="68.9887722209" lon="17.3786055625">
		<tag k="name" v="Storlia" />
		<tag k="natural" v="slope" />
		<tag k="place" v="locality" />
		<tag k="ssr:stedsnr" v="536840" />
	</node>
	<node id="-109947" lat="69.1166222229" lon="17.9059944535">
		<tag k="name" v="Lapptelthågen" />
		<tag k="natural" v="hill" />
		<tag k="place" v="locality" />
		<tag k="ssr:stedsnr" v="536816" />
	</node>
	<node id="-109942" lat="69.0255999982" lon="17.5583749931">
		<tag k="fixme" v="consider natural=peak for the most distinct mountains in the district" />
		<tag k="name" v="Åsen" />
		<tag k="natural" v="hill" />
		<tag k="place" v="locality" />
		<tag k="ssr:stedsnr" v="523780" />
	</node>
	<node id="-109941" lat="69.0333472249" lon="17.55216112">
		<tag k="name" v="Hella" />
		<tag k="natural" v="hill" />
		<tag k="place" v="locality" />
		<tag k="ssr:stedsnr" v="523778" />
	</node>
	<node id="-109939" lat="69.0666388861" lon="17.7267138975">
		<tag k="name" v="Bumannshågen" />
		<tag k="natural" v="hill" />
		<tag k="place" v="locality" />
		<tag k="ssr:stedsnr" v="523189" />
	</node>
	<node id="-109938" lat="69.1113583324" lon="17.7631499921">
		<tag k="name" v="Krakkmyrbakkan" />
		<tag k="natural" v="slope" />
		<tag k="place" v="locality" />
		<tag k="ssr:stedsnr" v="523162" />
	</node>
	<node id="-109936" lat="69.0837666644" lon="17.7187222104">
		<tag k="name" v="Vargedalen" />
		<tag k="natural" v="valley" />
		<tag k="place" v="locality" />
		<tag k="ssr:stedsnr" v="523219" />
	</node>
	<node id="-109934" lat="69.0781194448" lon="17.4320833285">
		<tag k="name" v="Grønlia" />
		<tag k="natural" v="slope" />
		<tag k="place" v="locality" />
		<tag k="ssr:stedsnr" v="686370" />
	</node>
	<node id="-109928" lat="69.062886108" lon="17.4806500058">
		<tag k="fixme" v="multiple name tags, choose one and add the other to alt_name" />
		<tag k="name" v="Langhaugen;Mosheia" />
		<tag k="natural" v="hill" />
		<tag k="place" v="locality" />
		<tag k="ssr:stedsnr" v="686326" />
	</node>
	<node id="-109924" lat="69.1251222267" lon="17.904455546">
		<tag k="alt_name" v="Mellomfjellet" />
		<tag k="fixme" v="consider natural=peak for the most distinct mountains in the district" />
		<tag k="name" v="Mellafjellet" />
		<tag k="natural" v="hill" />
		<tag k="place" v="locality" />
		<tag k="ssr:stedsnr" v="686263" />
	</node>
	<node id="-109923" lat="68.9370916669" lon="17.5250555572">
		<tag k="fixme" v="consider natural=peak for the most distinct mountains in the district" />
		<tag k="name" v="Fakstinden" />
		<tag k="natural" v="hill" />
		<tag k="place" v="locality" />
		<tag k="ssr:stedsnr" v="685927" />
	</node>
	<node id="-109920" lat="69.0894916694" lon="17.905297229">
		<tag k="fixme" v="consider natural=peak for the most distinct mountains in the district" />
		<tag k="name" v="Børingstinden" />
		<tag k="natural" v="hill" />
		<tag k="place" v="locality" />
		<tag k="ssr:stedsnr" v="685253" />
	</node>
	<node id="-109918" lat="69.0460555539" lon="17.8443555422">
		<tag k="name" v="Nova" />
		<tag k="natural" v="hill" />
		<tag k="place" v="locality" />
		<tag k="ssr:stedsnr" v="504304" />
	</node>
	<node id="-109916" lat="69.0212083339" lon="17.3684972217">
		<tag k="name" v="Mørkedalen" />
		<tag k="natural" v="valley" />
		<tag k="place" v="locality" />
		<tag k="ssr:stedsnr" v="476852" />
	</node>
	<node id="-109915" lat="69.0192861147" lon="17.5429638819">
		<tag k="name" v="Gnitreholla" />
		<tag k="natural" v="valley" />
		<tag k="place" v="locality" />
		<tag k="ssr:stedsnr" v="476256" />
	</node>
	<node id="-109914" lat="69.0613944468" lon="17.7549694312">
		<tag k="name" v="Storlia" />
		<tag k="natural" v="slope" />
		<tag k="place" v="locality" />
		<tag k="ssr:stedsnr" v="476515" />
	</node>
	<node id="-109913" lat="69.0560666687" lon="17.7328250011">
		<tag k="name" v="Hulderhågen" />
		<tag k="natural" v="hill" />
		<tag k="place" v="locality" />
		<tag k="ssr:stedsnr" v="476509" />
	</node>
	<node id="-109912" lat="69.0642388844" lon="17.7444611113">
		<tag k="name" v="Trettholla" />
		<tag k="natural" v="valley" />
		<tag k="place" v="locality" />
		<tag k="ssr:stedsnr" v="476505" />
	</node>
	<node id="-109911" lat="69.0473333335" lon="17.608505556">
		<tag k="name" v="Ilebakken" />
		<tag k="natural" v="slope" />
		<tag k="place" v="locality" />
		<tag k="ssr:stedsnr" v="476371" />
	</node>
	<node id="-109909" lat="69.05242778" lon="17.6281472256">
		<tag k="name" v="Brenslet" />
		<tag k="natural" v="slope" />
		<tag k="place" v="locality" />
		<tag k="ssr:stedsnr" v="476367" />
	</node>
	<node id="-109908" lat="69.0503305534" lon="17.6599249913">
		<tag k="name" v="Kvanndalen" />
		<tag k="natural" v="valley" />
		<tag k="place" v="locality" />
		<tag k="ssr:stedsnr" v="476360" />
	</node>
	<node id="-109907" lat="69.0359750013" lon="17.7420555586">
		<tag k="name" v="Johågen" />
		<tag k="natural" v="hill" />
		<tag k="place" v="locality" />
		<tag k="ssr:stedsnr" v="463258" />
	</node>
	<node id="-109902" lat="68.9207638914" lon="17.4570750081">
		<tag k="name" v="Rødberget" />
		<tag k="natural" v="hill" />
		<tag k="place" v="locality" />
		<tag k="ssr:stedsnr" v="446652" />
	</node>
	<node id="-109901" lat="68.9424833305" lon="17.4829611012">
		<tag k="name" v="Rabben" />
		<tag k="natural" v="hill" />
		<tag k="place" v="locality" />
		<tag k="ssr:stedsnr" v="658847" />
	</node>
	<node id="-109900" lat="69.0160916651" lon="17.3886361143">
		<tag k="name" v="Kaldverslet" />
		<tag k="place" v="locality" />
		<tag k="ssr:stedsnr" v="658825" />
	</node>
	<node id="-109899" lat="68.9962194414" lon="17.3701194427">
		<tag k="name" v="Heihågen" />
		<tag k="natural" v="hill" />
		<tag k="place" v="locality" />
		<tag k="ssr:stedsnr" v="658817" />
	</node>
	<node id="-109893" lat="69.0586333306" lon="17.4895361071">
		<tag k="fixme" v="consider natural=peak for the most distinct mountains in the district" />
		<tag k="name" v="Djupvikheia" />
		<tag k="natural" v="hill" />
		<tag k="place" v="locality" />
		<tag k="ssr:stedsnr" v="658753" />
	</node>
	<node id="-109891" lat="69.0621333323" lon="17.7693166648">
		<tag k="name" v="Plassbergan" />
		<tag k="natural" v="hill" />
		<tag k="place" v="locality" />
		<tag k="ssr:stedsnr" v="658606" />
	</node>
	<node id="-109890" lat="69.0623805555" lon="17.8206722216">
		<tag k="name" v="Utsearpiken" />
		<tag k="natural" v="hill" />
		<tag k="place" v="locality" />
		<tag k="ssr:stedsnr" v="658604" />
	</node>
	<node id="-109888" lat="69.0529361114" lon="17.5276277766">
		<tag k="name" v="Kuberget" />
		<tag k="natural" v="hill" />
		<tag k="place" v="locality" />
		<tag k="ssr:stedsnr" v="658350" />
	</node>
	<node id="-109886" lat="69.0848333306" lon="17.4866166665">
		<tag k="name" v="Storhaugen" />
		<tag k="natural" v="hill" />
		<tag k="place" v="locality" />
		<tag k="ssr:stedsnr" v="658197" />
	</node>
	<node id="-109885" lat="69.033888887" lon="17.4593138895">
		<tag k="name" v="Loftan" />
		<tag k="natural" v="slope" />
		<tag k="place" v="locality" />
		<tag k="ssr:stedsnr" v="658187" />
	</node>
	<node id="-109878" lat="69.0037527796" lon="17.4297333326">
		<tag k="name" v="Kuberget" />
		<tag k="natural" v="hill" />
		<tag k="place" v="locality" />
		<tag k="ssr:stedsnr" v="416818" />
	</node>
	<node id="-109877" lat="69.0056277744" lon="17.3805888745">
		<tag k="name" v="Villebakkan" />
		<tag k="natural" v="slope" />
		<tag k="place" v="locality" />
		<tag k="ssr:stedsnr" v="416815" />
	</node>
	<node id="-109875" lat="69.0660305539" lon="17.4754416689">
		<tag k="fixme" v="consider natural=peak for the most distinct mountains in the district" />
		<tag k="name" v="Skogshamnkollen" />
		<tag k="natural" v="hill" />
		<tag k="place" v="locality" />
		<tag k="ssr:stedsnr" v="416732" />
	</node>
	<node id="-109874" lat="69.0465805566" lon="17.6505194399">
		<tag k="name" v="Kvitebergan" />
		<tag k="natural" v="hill" />
		<tag k="place" v="locality" />
		<tag k="ssr:stedsnr" v="416331" />
	</node>
	<node id="-109872" lat="68.9643138853" lon="17.5823138821">
		<tag k="name" v="Bjørnstuven" />
		<tag k="natural" v="hill" />
		<tag k="place" v="locality" />
		<tag k="ssr:stedsnr" v="416211" />
	</node>
	<node id="-109871" lat="68.9663111083" lon="17.5919027806">
		<tag k="name" v="Mellahøgda" />
		<tag k="natural" v="hill" />
		<tag k="place" v="locality" />
		<tag k="ssr:stedsnr" v="416209" />
	</node>
	<node id="-109870" lat="69.0360138891" lon="17.3733444421">
		<tag k="name" v="Maldrenaskaret" />
		<tag k="natural" v="valley" />
		<tag k="place" v="locality" />
		<tag k="ssr:stedsnr" v="416142" />
	</node>
	<node id="-109869" lat="69.0452611087" lon="17.4300777749">
		<tag k="name" v="Rødrapet" />
		<tag k="natural" v="valley" />
		<tag k="place" v="locality" />
		<tag k="ssr:stedsnr" v="416131" />
	</node>
	<node id="-109868" lat="69.0739930196" lon="17.894887576">
		<tag k="fixme" v="consider natural=peak for the most distinct mountains in the district" />
		<tag k="name" v="Store Børingsfjellet" />
		<tag k="natural" v="hill" />
		<tag k="place" v="locality" />
		<tag k="ssr:stedsnr" v="509228" />
	</node>
	<node id="-109867" lat="69.1101583324" lon="17.7911694407">
		<tag k="name" v="Mørkedalen" />
		<tag k="natural" v="valley" />
		<tag k="place" v="locality" />
		<tag k="ssr:stedsnr" v="402874" />
	</node>
	<node id="-109866" lat="69.0131527751" lon="17.8635833404">
		<tag k="name" v="Svarteberget" />
		<tag k="natural" v="hill" />
		<tag k="place" v="locality" />
		<tag k="ssr:stedsnr" v="402865" />
	</node>
	<node id="-109864" lat="69.0966972196" lon="17.7070805626">
		<tag k="name" v="Olderdalen" />
		<tag k="natural" v="valley" />
		<tag k="place" v="locality" />
		<tag k="ssr:stedsnr" v="401221" />
	</node>
	<node id="-109862" lat="69.0802472262" lon="17.7591749935">
		<tag k="name" v="Storberget" />
		<tag k="natural" v="hill" />
		<tag k="place" v="locality" />
		<tag k="ssr:stedsnr" v="401212" />
	</node>
	<node id="-109861" lat="69.0825166676" lon="17.7046999856">
		<tag k="name" v="Hestdalbakken" />
		<tag k="natural" v="slope" />
		<tag k="place" v="locality" />
		<tag k="ssr:stedsnr" v="401207" />
	</node>
	<node id="-109848" lat="68.9279138898" lon="17.4758749935">
		<tag k="alt_name" v="Slåttaberga" />
		<tag k="name" v="Slåttebergan" />
		<tag k="natural" v="hill" />
		<tag k="place" v="locality" />
		<tag k="ssr:stedsnr" v="503899" />
	</node>
	<node id="-109845" lat="68.9650361102" lon="17.9903472118">
		<tag k="name" v="Stortindskardet" />
		<tag k="natural" v="valley" />
		<tag k="place" v="locality" />
		<tag k="ssr:stedsnr" v="503830" />
	</node>
	<node id="-109844" lat="68.9138833295" lon="17.4838999876">
		<tag k="alt_name" v="Rødbergtinden" />
		<tag k="fixme" v="consider natural=peak for the most distinct mountains in the district" />
		<tag k="name" v="Raudbergtinden" />
		<tag k="natural" v="hill" />
		<tag k="place" v="locality" />
		<tag k="ssr:stedsnr" v="503803" />
	</node>
	<node id="-109840" lat="69.0045527771" lon="17.4117722251">
		<tag k="fixme" v="consider natural=peak for the most distinct mountains in the district" />
		<tag k="name" v="Hamnåsen" />
		<tag k="natural" v="hill" />
		<tag k="place" v="locality" />
		<tag k="ssr:stedsnr" v="503082" />
	</node>
	<node id="-109839" lat="68.9900638875" lon="17.3809972129">
		<tag k="name" v="Aspelia" />
		<tag k="natural" v="slope" />
		<tag k="place" v="locality" />
		<tag k="ssr:stedsnr" v="354842" />
	</node>
	<node id="-109838" lat="68.9943694419" lon="17.4101055571">
		<tag k="name" v="Fjøshågen" />
		<tag k="natural" v="hill" />
		<tag k="place" v="locality" />
		<tag k="ssr:stedsnr" v="354828" />
	</node>
	<node id="-109837" lat="68.9960805574" lon="17.4013388874">
		<tag k="name" v="Veltelien" />
		<tag k="natural" v="slope" />
		<tag k="place" v="locality" />
		<tag k="ssr:stedsnr" v="354826" />
	</node>
	<node id="-109835" lat="69.0427611135" lon="17.7987166629">
		<tag k="name" v="Mevassdalen" />
		<tag k="natural" v="valley" />
		<tag k="place" v="locality" />
		<tag k="ssr:stedsnr" v="341547" />
	</node>
	<node id="-109834" lat="69.0387388891" lon="17.838066665">
		<tag k="name" v="Båtberget" />
		<tag k="natural" v="hill" />
		<tag k="place" v="locality" />
		<tag k="ssr:stedsnr" v="341540" />
	</node>
	<node id="-109832" lat="69.0148333309" lon="17.3988166614">
		<tag k="name" v="Asphågen" />
		<tag k="natural" v="hill" />
		<tag k="place" v="locality" />
		<tag k="ssr:stedsnr" v="476841" />
	</node>
	<node id="-109830" lat="69.0465666658" lon="17.4053499896">
		<tag k="fixme" v="consider natural=peak for the most distinct mountains in the district" />
		<tag k="name" v="Nordvarden" />
		<tag k="natural" v="hill" />
		<tag k="place" v="locality" />
		<tag k="ssr:stedsnr" v="476786" />
	</node>
	<node id="-109829" lat="69.053994441" lon="17.4023000066">
		<tag k="name" v="Heidalen" />
		<tag k="natural" v="valley" />
		<tag k="place" v="locality" />
		<tag k="ssr:stedsnr" v="476779" />
	</node>
	<node id="-109828" lat="69.0585916656" lon="17.7857083384">
		<tag k="name" v="Seljebakken" />
		<tag k="natural" v="slope" />
		<tag k="place" v="locality" />
		<tag k="ssr:stedsnr" v="476603" />
	</node>
	<node id="-109827" lat="68.9494888926" lon="17.4855916692">
		<tag k="name" v="Måjordaksla" />
		<tag k="place" v="locality" />
		<tag k="ssr:stedsnr" v="476876" />
	</node>
	<node id="-109826" lat="68.9833249964" lon="17.5125111133">
		<tag k="name" v="Rødberget" />
		<tag k="natural" v="hill" />
		<tag k="place" v="locality" />
		<tag k="ssr:stedsnr" v="476428" />
	</node>
	<node id="-109824" lat="69.0473166623" lon="17.6196361162">
		<tag k="name" v="Fridalshågen" />
		<tag k="natural" v="hill" />
		<tag k="place" v="locality" />
		<tag k="ssr:stedsnr" v="476316" />
	</node>
	<node id="-109822" lat="69.0638861111" lon="17.656325002">
		<tag k="name" v="Lasletta" />
		<tag k="place" v="locality" />
		<tag k="ssr:stedsnr" v="476310" />
	</node>
	<node id="-109821" lat="68.9857444399" lon="17.5503666725">
		<tag k="name" v="Frimobakken" />
		<tag k="natural" v="slope" />
		<tag k="place" v="locality" />
		<tag k="ssr:stedsnr" v="476296" />
	</node>
	<node id="-109820" lat="69.0612111145" lon="17.5269500086">
		<tag k="fixme" v="consider natural=peak for the most distinct mountains in the district" />
		<tag k="name" v="Beretfjellet" />
		<tag k="natural" v="hill" />
		<tag k="place" v="locality" />
		<tag k="ssr:stedsnr" v="476280" />
	</node>
	<node id="-109818" lat="69.0320583372" lon="17.4524138948">
		<tag k="name" v="Svarthammaren" />
		<tag k="natural" v="hill" />
		<tag k="place" v="locality" />
		<tag k="ssr:stedsnr" v="476178" />
	</node>
	<node id="-109817" lat="69.0370527818" lon="17.4664027815">
		<tag k="name" v="St.Hanshaugen" />
		<tag k="natural" v="hill" />
		<tag k="place" v="locality" />
		<tag k="ssr:stedsnr" v="476169" />
	</node>
	<node id="-109816" lat="69.0330027763" lon="17.4211138944">
		<tag k="fixme" v="consider natural=peak for the most distinct mountains in the district" />
		<tag k="name" v="Kvitfløy" />
		<tag k="natural" v="hill" />
		<tag k="place" v="locality" />
		<tag k="ssr:stedsnr" v="476150" />
	</node>
	<node id="-109814" lat="69.1094861111" lon="17.819755558">
		<tag k="name" v="Andmyrnesen" />
		<tag k="natural" v="ridge" />
		<tag k="place" v="locality" />
		<tag k="ssr:stedsnr" v="463851" />
	</node>
	<node id="-109810" lat="69.0959083326" lon="17.6540777805">
		<tag k="name" v="Laukeberget" />
		<tag k="natural" v="hill" />
		<tag k="place" v="locality" />
		<tag k="ssr:stedsnr" v="463687" />
	</node>
	<node id="-109809" lat="69.1062194483" lon="17.6664166554">
		<tag k="name" v="Trongskaret" />
		<tag k="natural" v="valley" />
		<tag k="place" v="locality" />
		<tag k="ssr:stedsnr" v="463683" />
	</node>
	<node id="-109808" lat="69.0317944449" lon="17.5814249931">
		<tag k="name" v="Tiskaret" />
		<tag k="natural" v="valley" />
		<tag k="place" v="locality" />
		<tag k="ssr:stedsnr" v="463734" />
	</node>
	<node id="-109806" lat="69.0174305519" lon="17.6861444391">
		<tag k="name" v="Mellalia" />
		<tag k="natural" v="slope" />
		<tag k="place" v="locality" />
		<tag k="ssr:stedsnr" v="463539" />
	</node>
	<node id="-109803" lat="69.038094442" lon="17.9121666722">
		<tag k="name" v="Ryet" />
		<tag k="natural" v="slope" />
		<tag k="place" v="locality" />
		<tag k="ssr:stedsnr" v="462870" />
	</node>
	<node id="-109802" lat="69.0433277735" lon="17.8702805635">
		<tag k="name" v="Hitterstorlia" />
		<tag k="natural" v="slope" />
		<tag k="place" v="locality" />
		<tag k="ssr:stedsnr" v="462869" />
	</node>
	<node id="-109801" lat="69.0364166681" lon="17.9009638807">
		<tag k="name" v="Brattlia" />
		<tag k="natural" v="slope" />
		<tag k="place" v="locality" />
		<tag k="ssr:stedsnr" v="462855" />
	</node>
	<node id="-109799" lat="69.0194583371" lon="17.9427110985">
		<tag k="name" v="Ørnberget" />
		<tag k="natural" v="hill" />
		<tag k="place" v="locality" />
		<tag k="ssr:stedsnr" v="462825" />
	</node>
	<node id="-109798" lat="69.0497916657" lon="17.7909111083">
		<tag k="name" v="Svarteberget" />
		<tag k="natural" v="hill" />
		<tag k="place" v="locality" />
		<tag k="ssr:stedsnr" v="462241" />
	</node>
	<node id="-109795" lat="69.0942888905" lon="17.7405610994">
		<tag k="name" v="Vedheggen" />
		<tag k="natural" v="slope" />
		<tag k="place" v="locality" />
		<tag k="ssr:stedsnr" v="462185" />
	</node>
	<node id="-109790" lat="69.0667805555" lon="17.6921916574">
		<tag k="fixme" v="consider natural=peak for the most distinct mountains in the district" />
		<tag k="name" v="Stubbefjellet" />
		<tag k="natural" v="hill" />
		<tag k="place" v="locality" />
		<tag k="ssr:stedsnr" v="462137" />
	</node>
	<node id="-109788" lat="69.0671750012" lon="17.7144555459">
		<tag k="name" v="Vargedalen" />
		<tag k="natural" v="valley" />
		<tag k="place" v="locality" />
		<tag k="ssr:stedsnr" v="462134" />
	</node>
	<node id="-109787" lat="69.0995138876" lon="17.68948055">
		<tag k="name" v="Brattliskaret" />
		<tag k="natural" v="valley" />
		<tag k="place" v="locality" />
		<tag k="ssr:stedsnr" v="462037" />
	</node>
	<node id="-109782" lat="69.0322138855" lon="17.7867499987">
		<tag k="fixme" v="consider natural=peak for the most distinct mountains in the district" />
		<tag k="name" v="Rødrapkollen" />
		<tag k="natural" v="hill" />
		<tag k="place" v="locality" />
		<tag k="ssr:stedsnr" v="261335" />
	</node>
	<node id="-109777" lat="69.0525777738" lon="17.7220055486">
		<tag k="name" v="Bjørnbærholtet" />
		<tag k="natural" v="hill" />
		<tag k="place" v="locality" />
		<tag k="ssr:stedsnr" v="234503" />
	</node>
	<node id="-109776" lat="68.9994027757" lon="17.3920055567">
		<tag k="name" v="Vassholtan" />
		<tag k="natural" v="hill" />
		<tag k="place" v="locality" />
		<tag k="ssr:stedsnr" v="233866" />
	</node>
	<node id="-109775" lat="69.0616027769" lon="17.8477416613">
		<tag k="name" v="Lappteltan" />
		<tag k="natural" v="hill" />
		<tag k="place" v="locality" />
		<tag k="ssr:stedsnr" v="233023" />
	</node>
	<node id="-109771" lat="69.08613056" lon="17.8342666568">
		<tag k="fixme" v="consider natural=peak for the most distinct mountains in the district" />
		<tag k="name" v="Rundkollen" />
		<tag k="natural" v="hill" />
		<tag k="place" v="locality" />
		<tag k="ssr:stedsnr" v="443382" />
	</node>
	<node id="-109770" lat="69.0672166631" lon="17.504869438">
		<tag k="name" v="Nonshaugen" />
		<tag k="natural" v="hill" />
		<tag k="place" v="locality" />
		<tag k="ssr:stedsnr" v="443375" />
	</node>
	<node id="-109767" lat="69.0595333334" lon="17.6728555418">
		<tag k="fixme" v="multiple name tags, choose one and add the other to alt_name" />
		<tag k="name" v="Hildran;Storaksla" />
		<tag k="natural" v="hill" />
		<tag k="place" v="locality" />
		<tag k="ssr:stedsnr" v="443355" />
	</node>
	<node id="-109750" lat="69.0708805546" lon="17.7774027768">
		<tag k="name" v="Storlikollbruna" />
		<tag k="natural" v="ridge" />
		<tag k="place" v="locality" />
		<tag k="ssr:stedsnr" v="220137" />
	</node>
	<node id="-109749" lat="69.0879555551" lon="17.7385888751">
		<tag k="name" v="Heggelia" />
		<tag k="natural" v="slope" />
		<tag k="place" v="locality" />
		<tag k="ssr:stedsnr" v="219220" />
	</node>
	<node id="-109748" lat="69.0968694468" lon="17.6881249989">
		<tag k="fixme" v="consider natural=peak for the most distinct mountains in the district" />
		<tag k="name" v="Åsendan" />
		<tag k="natural" v="hill" />
		<tag k="place" v="locality" />
		<tag k="ssr:stedsnr" v="219212" />
	</node>
	<node id="-109747" lat="68.9575805564" lon="17.5226361006">
		<tag k="name" v="Rubbelia" />
		<tag k="natural" v="slope" />
		<tag k="place" v="locality" />
		<tag k="ssr:stedsnr" v="212512" />
	</node>
	<node id="-109746" lat="68.9550361124" lon="17.5098944412">
		<tag k="fixme" v="consider natural=peak for the most distinct mountains in the district" />
		<tag k="name" v="Sølvfjellet" />
		<tag k="natural" v="hill" />
		<tag k="place" v="locality" />
		<tag k="ssr:stedsnr" v="294885" />
	</node>
	<node id="-109744" lat="69.0229222226" lon="17.3760833282">
		<tag k="name" v="Hattelia" />
		<tag k="natural" v="slope" />
		<tag k="place" v="locality" />
		<tag k="ssr:stedsnr" v="294874" />
	</node>
	<node id="-109742" lat="69.0254333316" lon="17.3946722181">
		<tag k="name" v="Vasskaret" />
		<tag k="natural" v="valley" />
		<tag k="place" v="locality" />
		<tag k="ssr:stedsnr" v="294861" />
	</node>
	<node id="-109740" lat="68.9931555515" lon="17.3633916603">
		<tag k="name" v="Slåkabakkan" />
		<tag k="natural" v="slope" />
		<tag k="place" v="locality" />
		<tag k="ssr:stedsnr" v="294841" />
	</node>
	<node id="-109739" lat="68.9885500034" lon="17.3739638786">
		<tag k="name" v="Steinsrånja" />
		<tag k="natural" v="slope" />
		<tag k="place" v="locality" />
		<tag k="ssr:stedsnr" v="294838" />
	</node>
	<node id="-109738" lat="69.0167888853" lon="17.4455083414">
		<tag k="name" v="Hauglibergan" />
		<tag k="natural" v="hill" />
		<tag k="place" v="locality" />
		<tag k="ssr:stedsnr" v="294835" />
	</node>
	<node id="-109737" lat="68.9828361089" lon="17.4873222226">
		<tag k="name" v="Laukhaugen" />
		<tag k="natural" v="hill" />
		<tag k="place" v="locality" />
		<tag k="ssr:stedsnr" v="294810" />
	</node>
	<node id="-109736" lat="69.0515833294" lon="17.4360277818">
		<tag k="name" v="Katthågen" />
		<tag k="natural" v="hill" />
		<tag k="place" v="locality" />
		<tag k="ssr:stedsnr" v="294789" />
	</node>
	<node id="-109735" lat="69.0596166667" lon="17.3908305573">
		<tag k="name" v="Gårdslia" />
		<tag k="natural" v="slope" />
		<tag k="place" v="locality" />
		<tag k="ssr:stedsnr" v="294782" />
	</node>
	<node id="-109733" lat="69.057977781" lon="17.5168555654">
		<tag k="name" v="Høydalen" />
		<tag k="natural" v="valley" />
		<tag k="place" v="locality" />
		<tag k="ssr:stedsnr" v="294773" />
	</node>
	<node id="-109731" lat="69.117152782" lon="17.8844999899">
		<tag k="name" v="Sløkjebakken" />
		<tag k="natural" v="slope" />
		<tag k="place" v="locality" />
		<tag k="ssr:stedsnr" v="294761" />
	</node>
	<node id="-109730" lat="69.1112500009" lon="17.8970527646">
		<tag k="name" v="Josvadalen" />
		<tag k="natural" v="valley" />
		<tag k="place" v="locality" />
		<tag k="ssr:stedsnr" v="294759" />
	</node>
	<node id="-109728" lat="69.0647444455" lon="17.7753694374">
		<tag k="name" v="Kvannlia" />
		<tag k="natural" v="slope" />
		<tag k="place" v="locality" />
		<tag k="ssr:stedsnr" v="294636" />
	</node>
	<node id="-109727" lat="69.0655083293" lon="17.7958972187">
		<tag k="name" v="Svarthammaren" />
		<tag k="natural" v="hill" />
		<tag k="place" v="locality" />
		<tag k="ssr:stedsnr" v="294631" />
	</node>
	<node id="-109726" lat="69.071627776" lon="17.6739083246">
		<tag k="fixme" v="consider natural=peak for the most distinct mountains in the district" />
		<tag k="name" v="Stihøgda" />
		<tag k="natural" v="hill" />
		<tag k="place" v="locality" />
		<tag k="ssr:stedsnr" v="294565" />
	</node>
	<node id="-109725" lat="69.0633916675" lon="17.7040222103">
		<tag k="fixme" v="consider natural=peak for the most distinct mountains in the district" />
		<tag k="name" v="Stuggefjellet" />
		<tag k="natural" v="hill" />
		<tag k="place" v="locality" />
		<tag k="ssr:stedsnr" v="294540" />
	</node>
	<node id="-109724" lat="69.0463333306" lon="17.6104916562">
		<tag k="name" v="Bjørnholla" />
		<tag k="natural" v="valley" />
		<tag k="place" v="locality" />
		<tag k="ssr:stedsnr" v="294392" />
	</node>
	<node id="-109722" lat="69.0361777812" lon="17.5800111114">
		<tag k="name" v="Tommålsbakkan" />
		<tag k="natural" v="slope" />
		<tag k="place" v="locality" />
		<tag k="ssr:stedsnr" v="294362" />
	</node>
	<node id="-109718" lat="68.9924972243" lon="17.594299987">
		<tag k="name" v="Øverbrenna" />
		<tag k="natural" v="hill" />
		<tag k="place" v="locality" />
		<tag k="ssr:stedsnr" v="294294" />
	</node>
	<node id="-109716" lat="69.058349999" lon="17.5419999888">
		<tag k="name" v="Nausthågen" />
		<tag k="natural" v="hill" />
		<tag k="place" v="locality" />
		<tag k="ssr:stedsnr" v="294277" />
	</node>
	<node id="-109714" lat="68.9642916653" lon="17.5901916614">
		<tag k="name" v="Litjevasskråa" />
		<tag k="natural" v="valley" />
		<tag k="place" v="locality" />
		<tag k="ssr:stedsnr" v="294216" />
	</node>
	<node id="-109713" lat="68.9624416643" lon="17.5771805461">
		<tag k="name" v="Litjevasshågen" />
		<tag k="natural" v="hill" />
		<tag k="place" v="locality" />
		<tag k="ssr:stedsnr" v="294215" />
	</node>
	<node id="-109711" lat="68.9689111085" lon="17.549272225">
		<tag k="name" v="Hestholla" />
		<tag k="natural" v="valley" />
		<tag k="place" v="locality" />
		<tag k="ssr:stedsnr" v="294194" />
	</node>
	<node id="-109710" lat="69.0403083342" lon="17.4849944526">
		<tag k="name" v="Saubakksletta" />
		<tag k="place" v="locality" />
		<tag k="ssr:stedsnr" v="294146" />
	</node>
	<node id="-109709" lat="69.0363777788" lon="17.4286638842">
		<tag k="name" v="Rishågen" />
		<tag k="natural" v="hill" />
		<tag k="place" v="locality" />
		<tag k="ssr:stedsnr" v="294140" />
	</node>
	<node id="-109708" lat="69.040644442" lon="17.3970638847">
		<tag k="fixme" v="consider natural=peak for the most distinct mountains in the district" />
		<tag k="name" v="Nattmålstuva" />
		<tag k="natural" v="hill" />
		<tag k="place" v="locality" />
		<tag k="ssr:stedsnr" v="294125" />
	</node>
	<node id="-109704" lat="69.0074861142" lon="17.5493861019">
		<tag k="fixme" v="consider natural=peak for the most distinct mountains in the district" />
		<tag k="name" v="Vardefjellet" />
		<tag k="natural" v="hill" />
		<tag k="place" v="locality" />
		<tag k="ssr:stedsnr" v="202241" />
	</node>
	<node id="-109703" lat="69.0448694443" lon="17.9034222257">
		<tag k="name" v="Høghaugen" />
		<tag k="natural" v="hill" />
		<tag k="place" v="locality" />
		<tag k="ssr:stedsnr" v="294016" />
	</node>
	<node id="-109700" lat="69.0388416707" lon="17.7513666719">
		<tag k="name" v="Bjørkebakkdalen" />
		<tag k="natural" v="valley" />
		<tag k="place" v="locality" />
		<tag k="ssr:stedsnr" v="201308" />
	</node>
	<node id="-109699" lat="69.0424944424" lon="17.7654361017">
		<tag k="alt_name" v="Bjørnhaugen" />
		<tag k="name" v="Bjørnmyrhågen" />
		<tag k="natural" v="hill" />
		<tag k="place" v="locality" />
		<tag k="ssr:stedsnr" v="201307" />
	</node>
	<node id="-109697" lat="69.1106472256" lon="17.8249860989">
		<tag k="fixme" v="consider natural=peak for the most distinct mountains in the district" />
		<tag k="name" v="Andmyrfjellet" />
		<tag k="natural" v="hill" />
		<tag k="place" v="locality" />
		<tag k="ssr:stedsnr" v="281872" />
	</node>
	<node id="-109695" lat="69.0439499983" lon="17.6090805415">
		<tag k="name" v="Moan" />
		<tag k="place" v="locality" />
		<tag k="ssr:stedsnr" v="281778" />
	</node>
	<node id="-109694" lat="69.0337638846" lon="17.5734611112">
		<tag k="name" v="Munnarbakken" />
		<tag k="natural" v="slope" />
		<tag k="place" v="locality" />
		<tag k="ssr:stedsnr" v="281772" />
	</node>
	<node id="-109692" lat="69.0393638859" lon="17.6014666749">
		<tag k="name" v="Bukkeberget" />
		<tag k="natural" v="hill" />
		<tag k="place" v="locality" />
		<tag k="ssr:stedsnr" v="281761" />
	</node>
	<node id="-109690" lat="69.0635805539" lon="17.6982499904">
		<tag k="name" v="Litjeaksla" />
		<tag k="natural" v="hill" />
		<tag k="place" v="locality" />
		<tag k="ssr:stedsnr" v="281552" />
	</node>
	<node id="-109688" lat="69.0636722245" lon="17.6901027672">
		<tag k="name" v="Baklia" />
		<tag k="natural" v="slope" />
		<tag k="place" v="locality" />
		<tag k="ssr:stedsnr" v="281547" />
	</node>
	<node id="-109686" lat="69.0222722266" lon="17.7194777792">
		<tag k="name" v="Seljebakken" />
		<tag k="natural" v="slope" />
		<tag k="place" v="locality" />
		<tag k="ssr:stedsnr" v="281521" />
	</node>
	<node id="-109685" lat="69.0303277782" lon="17.7152111102">
		<tag k="name" v="Nordsteberget" />
		<tag k="natural" v="hill" />
		<tag k="place" v="locality" />
		<tag k="ssr:stedsnr" v="281288" />
	</node>
	<node id="-109683" lat="68.9921083325" lon="17.3580083428">
		<tag k="name" v="Saulibenkan" />
		<tag k="natural" v="hill" />
		<tag k="place" v="locality" />
		<tag k="ssr:stedsnr" v="280916" />
	</node>
	<node id="-109682" lat="69.0415083366" lon="17.8673083383">
		<tag k="name" v="Olderbakkan" />
		<tag k="natural" v="slope" />
		<tag k="place" v="locality" />
		<tag k="ssr:stedsnr" v="280863" />
	</node>
	<node id="-109679" lat="69.004944445" lon="17.9009416719">
		<tag k="name" v="Geithammaren" />
		<tag k="natural" v="hill" />
		<tag k="place" v="locality" />
		<tag k="ssr:stedsnr" v="280824" />
	</node>
	<node id="-109677" lat="69.0483166638" lon="17.7761249957">
		<tag k="name" v="Trolldalen" />
		<tag k="natural" v="valley" />
		<tag k="place" v="locality" />
		<tag k="ssr:stedsnr" v="280223" />
	</node>
	<node id="-109676" lat="69.1066583351" lon="17.7861694385">
		<tag k="name" v="Litjedalen" />
		<tag k="natural" v="valley" />
		<tag k="place" v="locality" />
		<tag k="ssr:stedsnr" v="280175" />
	</node>
	<node id="-109675" lat="69.0952861136" lon="17.7202277706">
		<tag k="name" v="Kråkhågen" />
		<tag k="natural" v="hill" />
		<tag k="place" v="locality" />
		<tag k="ssr:stedsnr" v="280167" />
	</node>
	<node id="-109674" lat="69.0802222247" lon="17.7238083437">
		<tag k="fixme" v="consider natural=peak for the most distinct mountains in the district" />
		<tag k="name" v="Kvitfløya" />
		<tag k="natural" v="hill" />
		<tag k="place" v="locality" />
		<tag k="ssr:stedsnr" v="280155" />
	</node>
	<node id="-109672" lat="69.098083337" lon="17.8226583197">
		<tag k="fixme" v="consider natural=peak for the most distinct mountains in the district" />
		<tag k="name" v="Gillaråsen" />
		<tag k="natural" v="hill" />
		<tag k="place" v="locality" />
		<tag k="ssr:stedsnr" v="280141" />
	</node>
	<node id="-109671" lat="69.0749250002" lon="17.6868138957">
		<tag k="fixme" v="consider natural=peak for the most distinct mountains in the district" />
		<tag k="name" v="Bakåsen" />
		<tag k="natural" v="hill" />
		<tag k="place" v="locality" />
		<tag k="ssr:stedsnr" v="280119" />
	</node>
	<node id="-109668" lat="69.1029750016" lon="17.7237749906">
		<tag k="name" v="Teorhågen" />
		<tag k="natural" v="hill" />
		<tag k="place" v="locality" />
		<tag k="ssr:stedsnr" v="280023" />
	</node>
	<node id="-109666" lat="69.0618111073" lon="17.7114055494">
		<tag k="name" v="Evertmokråa" />
		<tag k="natural" v="slope" />
		<tag k="place" v="locality" />
		<tag k="ssr:stedsnr" v="160455" />
	</node>
	<node id="-109665" lat="69.0429361135" lon="17.882816653">
		<tag k="name" v="Humpen" />
		<tag k="natural" v="hill" />
		<tag k="place" v="locality" />
		<tag k="ssr:stedsnr" v="159874" />
	</node>
	<node id="-109663" lat="69.0045083357" lon="17.8817583329">
		<tag k="name" v="Johannesberget" />
		<tag k="natural" v="hill" />
		<tag k="place" v="locality" />
		<tag k="ssr:stedsnr" v="159857" />
	</node>
	<node id="-109661" lat="69.0015527786" lon="17.8935361195">
		<tag k="name" v="Hollelvbergan" />
		<tag k="natural" v="hill" />
		<tag k="place" v="locality" />
		<tag k="ssr:stedsnr" v="159852" />
	</node>
	<node id="-109660" lat="69.0951194421" lon="17.8123472302">
		<tag k="name" v="Lappetelthågen" />
		<tag k="natural" v="hill" />
		<tag k="place" v="locality" />
		<tag k="ssr:stedsnr" v="159212" />
	</node>
	<node id="-109659" lat="69.0673722232" lon="17.7965638862">
		<tag k="name" v="Ørnskardalen" />
		<tag k="natural" v="valley" />
		<tag k="place" v="locality" />
		<tag k="ssr:stedsnr" v="159202" />
	</node>
	<node id="-109658" lat="69.1000638868" lon="17.8003388734">
		<tag k="name" v="Rundtuva" />
		<tag k="natural" v="hill" />
		<tag k="place" v="locality" />
		<tag k="ssr:stedsnr" v="139267" />
	</node>
	<node id="-109654" lat="69.0250333336" lon="17.3570583285">
		<tag k="name" v="Brottliholla" />
		<tag k="natural" v="valley" />
		<tag k="place" v="locality" />
		<tag k="ssr:stedsnr" v="112902" />
	</node>
	<node id="-109653" lat="69.0044527765" lon="17.3636999875">
		<tag k="name" v="Slåttebakkan" />
		<tag k="natural" v="slope" />
		<tag k="place" v="locality" />
		<tag k="ssr:stedsnr" v="112837" />
	</node>
	<node id="-109652" lat="69.0036222238" lon="17.3745083313">
		<tag k="name" v="Veltebakkan" />
		<tag k="natural" v="slope" />
		<tag k="place" v="locality" />
		<tag k="ssr:stedsnr" v="112835" />
	</node>
	<node id="-109651" lat="69.0079055514" lon="17.3875777797">
		<tag k="name" v="Bjørnbakken" />
		<tag k="natural" v="slope" />
		<tag k="place" v="locality" />
		<tag k="ssr:stedsnr" v="112833" />
	</node>
	<node id="-109649" lat="68.9813666716" lon="17.5076194343">
		<tag k="name" v="Perhågen" />
		<tag k="natural" v="hill" />
		<tag k="place" v="locality" />
		<tag k="ssr:stedsnr" v="112817" />
	</node>
	<node id="-109648" lat="68.9834777805" lon="17.4971499959">
		<tag k="name" v="Åsebakkan" />
		<tag k="natural" v="slope" />
		<tag k="place" v="locality" />
		<tag k="ssr:stedsnr" v="112803" />
	</node>
	<node id="-109645" lat="69.085816663" lon="17.8661027848">
		<tag k="name" v="Børingshola" />
		<tag k="natural" v="valley" />
		<tag k="place" v="locality" />
		<tag k="ssr:stedsnr" v="261374" />
	</node>
	<node id="-109638" lat="69.0977027766" lon="17.8503499923">
		<tag k="name" v="Svinryggen - Spiinnehárji" />
		<tag k="name:no" v="Svinryggen" />
		<tag k="name:se" v="Spiinnehárji" />
		<tag k="natural" v="ridge" />
		<tag k="place" v="locality" />
		<tag k="ssr:stedsnr" v="261257" />
	</node>
	<node id="-109635" lat="68.9559972265" lon="17.5166888859">
		<tag k="name" v="Kvanntoberget" />
		<tag k="natural" v="hill" />
		<tag k="place" v="locality" />
		<tag k="ssr:stedsnr" v="260957" />
	</node>
	<node id="-109632" lat="68.9852388928" lon="17.6170472295">
		<tag k="fixme" v="consider natural=peak for the most distinct mountains in the district" />
		<tag k="name" v="Tuva" />
		<tag k="natural" v="hill" />
		<tag k="place" v="locality" />
		<tag k="ssr:stedsnr" v="260344" />
	</node>
	<node id="-109628" lat="68.9966722227" lon="17.3441805623">
		<tag k="name" v="Kalvekleiva" />
		<tag k="natural" v="slope" />
		<tag k="place" v="locality" />
		<tag k="ssr:stedsnr" v="98902" />
	</node>
	<node id="-109626" lat="69.0231722184" lon="17.8526888874">
		<tag k="name" v="Klubbenesdalen" />
		<tag k="natural" v="valley" />
		<tag k="place" v="locality" />
		<tag k="ssr:stedsnr" v="98852" />
	</node>
	<node id="-109625" lat="69.0087611101" lon="17.9266833204">
		<tag k="name" v="Lahollberget" />
		<tag k="natural" v="hill" />
		<tag k="place" v="locality" />
		<tag k="ssr:stedsnr" v="98821" />
	</node>
	<node id="-109624" lat="69.0047083318" lon="17.9058916608">
		<tag k="name" v="Skjellelvdalen" />
		<tag k="natural" v="valley" />
		<tag k="place" v="locality" />
		<tag k="ssr:stedsnr" v="98819" />
	</node>
	<node id="-109623" lat="69.0724777772" lon="17.7451138809">
		<tag k="name" v="Svartebergan" />
		<tag k="natural" v="hill" />
		<tag k="place" v="locality" />
		<tag k="ssr:stedsnr" v="98162" />
	</node>
	<node id="-109622" lat="69.099027777" lon="17.7851722229">
		<tag k="fixme" v="consider natural=peak for the most distinct mountains in the district" />
		<tag k="name" v="Grønnkollen" />
		<tag k="natural" v="hill" />
		<tag k="place" v="locality" />
		<tag k="ssr:stedsnr" v="98204" />
	</node>
	<node id="-109621" lat="69.1067444425" lon="17.7004805643">
		<tag k="fixme" v="consider natural=peak for the most distinct mountains in the district" />
		<tag k="name" v="Skredderlikollen" />
		<tag k="natural" v="hill" />
		<tag k="place" v="locality" />
		<tag k="ssr:stedsnr" v="98013" />
	</node>
	<node id="-109620" lat="69.0411666695" lon="17.8193000034">
		<tag k="name" v="Nova" />
		<tag k="natural" v="slope" />
		<tag k="place" v="locality" />
		<tag k="ssr:stedsnr" v="98005" />
	</node>
	<node id="-109618" lat="68.9276027771" lon="17.4742527659">
		<tag k="name" v="Skarveberget" />
		<tag k="natural" v="hill" />
		<tag k="place" v="locality" />
		<tag k="ssr:stedsnr" v="52895" />
	</node>
	<node id="-109616" lat="68.9543638918" lon="17.4902361">
		<tag k="name" v="Labakken" />
		<tag k="natural" v="slope" />
		<tag k="place" v="locality" />
		<tag k="ssr:stedsnr" v="52887" />
	</node>
	<node id="-109615" lat="68.9526999968" lon="17.5133111194">
		<tag k="name" v="Kvanntoaksla" />
		<tag k="place" v="locality" />
		<tag k="ssr:stedsnr" v="52886" />
	</node>
	<node id="-109614" lat="68.9385999975" lon="17.4836055436">
		<tag k="name" v="Litjemolla" />
		<tag k="natural" v="slope" />
		<tag k="place" v="locality" />
		<tag k="ssr:stedsnr" v="52877" />
	</node>
	<node id="-109613" lat="69.021011113" lon="17.395725008">
		<tag k="name" v="Trønom" />
		<tag k="natural" v="slope" />
		<tag k="place" v="locality" />
		<tag k="ssr:stedsnr" v="52867" />
	</node>
	<node id="-109612" lat="69.0086777737" lon="17.439805562">
		<tag k="name" v="Likberget" />
		<tag k="natural" v="hill" />
		<tag k="place" v="locality" />
		<tag k="ssr:stedsnr" v="52856" />
	</node>
	<node id="-109611" lat="69.0099055532" lon="17.40919445">
		<tag k="name" v="Riddershågen" />
		<tag k="natural" v="hill" />
		<tag k="place" v="locality" />
		<tag k="ssr:stedsnr" v="52850" />
	</node>
	<node id="-109608" lat="69.0560805594" lon="17.5211222327">
		<tag k="name" v="Rotlia" />
		<tag k="natural" v="slope" />
		<tag k="place" v="locality" />
		<tag k="ssr:stedsnr" v="52751" />
	</node>
	<node id="-109607" lat="69.0634694464" lon="17.7738527782">
		<tag k="name" v="Storbakken" />
		<tag k="natural" v="slope" />
		<tag k="place" v="locality" />
		<tag k="ssr:stedsnr" v="52566" />
	</node>
	<node id="-109606" lat="69.0602444474" lon="17.8244888802">
		<tag k="name" v="Rundhågen" />
		<tag k="natural" v="hill" />
		<tag k="place" v="locality" />
		<tag k="ssr:stedsnr" v="52560" />
	</node>
	<node id="-109605" lat="69.0729583348" lon="17.6811999913">
		<tag k="name" v="Gråsteinporten" />
		<tag k="natural" v="hill" />
		<tag k="place" v="locality" />
		<tag k="ssr:stedsnr" v="52505" />
	</node>
	<node id="-109604" lat="68.9781805578" lon="17.5720833364">
		<tag k="name" v="Okselegden" />
		<tag k="natural" v="slope" />
		<tag k="place" v="locality" />
		<tag k="ssr:stedsnr" v="52202" />
	</node>
	<node id="-109602" lat="69.0346499977" lon="17.462702767">
		<tag k="name" v="Stortøa" />
		<tag k="natural" v="slope" />
		<tag k="place" v="locality" />
		<tag k="ssr:stedsnr" v="52168" />
	</node>
	<node id="-109601" lat="69.0365222231" lon="17.4650333245">
		<tag k="name" v="Edalen" />
		<tag k="natural" v="valley" />
		<tag k="place" v="locality" />
		<tag k="ssr:stedsnr" v="52157" />
	</node>
	<node id="-109600" lat="68.9925777805" lon="17.4785305625">
		<tag k="name" v="Matildehågen" />
		<tag k="natural" v="hill" />
		<tag k="place" v="locality" />
		<tag k="ssr:stedsnr" v="51853" />
	</node>
	<node id="-109599" lat="69.0012611109" lon="17.4081777693">
		<tag k="name" v="Kvitfløy" />
		<tag k="natural" v="hill" />
		<tag k="place" v="locality" />
		<tag k="ssr:stedsnr" v="51852" />
	</node>
	<node id="-109597" lat="68.954805552" lon="17.4999361059">
		<tag k="name" v="Storliberget" />
		<tag k="natural" v="hill" />
		<tag k="place" v="locality" />
		<tag k="ssr:stedsnr" v="234904" />
	</node>
	<node id="-109596" lat="68.9533999999" lon="17.509327772">
		<tag k="name" v="Bjørnbåsen" />
		<tag k="natural" v="valley" />
		<tag k="place" v="locality" />
		<tag k="ssr:stedsnr" v="234902" />
	</node>
	<node id="-109594" lat="68.9446111102" lon="17.4768527734">
		<tag k="name" v="Gammelheimsletta" />
		<tag k="place" v="locality" />
		<tag k="ssr:stedsnr" v="234896" />
	</node>
	<node id="-109590" lat="69.0601277756" lon="17.3911249892">
		<tag k="name" v="Veltelia" />
		<tag k="natural" v="slope" />
		<tag k="place" v="locality" />
		<tag k="ssr:stedsnr" v="234816" />
	</node>
	<node id="-109588" lat="69.0627444424" lon="17.518533333">
		<tag k="name" v="Ramnfløylia" />
		<tag k="natural" v="slope" />
		<tag k="place" v="locality" />
		<tag k="ssr:stedsnr" v="234779" />
	</node>
	<node id="-109587" lat="69.0608111108" lon="17.7788361025">
		<tag k="name" v="Seljebakklia" />
		<tag k="natural" v="slope" />
		<tag k="place" v="locality" />
		<tag k="ssr:stedsnr" v="234590" />
	</node>
	<node id="-109586" lat="69.0603583292" lon="17.7669361158">
		<tag k="name" v="Strupen" />
		<tag k="natural" v="valley" />
		<tag k="place" v="locality" />
		<tag k="ssr:stedsnr" v="234588" />
	</node>
	<node id="-109584" lat="69.050241666" lon="17.619008322">
		<tag k="name" v="Bjørnkalmoen" />
		<tag k="place" v="locality" />
		<tag k="ssr:stedsnr" v="234366" />
	</node>
	<node id="-109582" lat="69.0660166639" lon="17.6618277652">
		<tag k="name" v="Sæterhågen" />
		<tag k="natural" v="hill" />
		<tag k="place" v="locality" />
		<tag k="ssr:stedsnr" v="234306" />
	</node>
	<node id="-109581" lat="68.9774361111" lon="17.6266722196">
		<tag k="fixme" v="consider natural=peak for the most distinct mountains in the district" />
		<tag k="name" v="Langedalshøgda" />
		<tag k="natural" v="hill" />
		<tag k="place" v="locality" />
		<tag k="ssr:stedsnr" v="234222" />
	</node>
	<node id="-109580" lat="68.9636000003" lon="17.5668027656">
		<tag k="name" v="Hestebergkråa" />
		<tag k="natural" v="slope" />
		<tag k="place" v="locality" />
		<tag k="ssr:stedsnr" v="234218" />
	</node>
	<node id="-109579" lat="68.9681944468" lon="17.5643861223">
		<tag k="name" v="Storlia" />
		<tag k="natural" v="slope" />
		<tag k="place" v="locality" />
		<tag k="ssr:stedsnr" v="234204" />
	</node>
	<node id="-109578" lat="69.0281749994" lon="17.4531916536">
		<tag k="name" v="Stabben" />
		<tag k="natural" v="slope" />
		<tag k="place" v="locality" />
		<tag k="ssr:stedsnr" v="234173" />
	</node>
	<node id="-109577" lat="69.0268694447" lon="17.4417444526">
		<tag k="name" v="Finnheimen" />
		<tag k="natural" v="slope" />
		<tag k="place" v="locality" />
		<tag k="ssr:stedsnr" v="234153" />
	</node>
	<node id="-109576" lat="69.0476333375" lon="17.5054499967">
		<tag k="name" v="Elvedalsbakken" />
		<tag k="natural" v="slope" />
		<tag k="place" v="locality" />
		<tag k="ssr:stedsnr" v="234128" />
	</node>
	<node id="-109574" lat="69.0680166706" lon="17.6503000103">
		<tag k="name" v="Bergan" />
		<tag k="natural" v="hill" />
		<tag k="place" v="locality" />
		<tag k="ssr:stedsnr" v="234529" />
	</node>
	<node id="-109573" lat="69.0668638846" lon="17.6482277764">
		<tag k="name" v="Stibergan" />
		<tag k="natural" v="hill" />
		<tag k="place" v="locality" />
		<tag k="ssr:stedsnr" v="234528" />
	</node>
	<node id="-109571" lat="68.9869861096" lon="17.3727194348">
		<tag k="name" v="Gomhågen" />
		<tag k="natural" v="hill" />
		<tag k="place" v="locality" />
		<tag k="ssr:stedsnr" v="233864" />
	</node>
	<node id="-109570" lat="68.9930777777" lon="17.4072361144">
		<tag k="name" v="Smihågen" />
		<tag k="natural" v="hill" />
		<tag k="place" v="locality" />
		<tag k="ssr:stedsnr" v="233847" />
	</node>
	<node id="-109568" lat="69.124080556" lon="17.8691805637">
		<tag k="name" v="Langemarklia" />
		<tag k="natural" v="slope" />
		<tag k="place" v="locality" />
		<tag k="ssr:stedsnr" v="233804" />
	</node>
	<node id="-109567" lat="69.1135194488" lon="17.8495555537">
		<tag k="name" v="Syvklubben" />
		<tag k="natural" v="hill" />
		<tag k="place" v="locality" />
		<tag k="ssr:stedsnr" v="233794" />
	</node>
	<node id="-109566" lat="69.0456611136" lon="17.5272416769">
		<tag k="name" v="Klokkarsletta" />
		<tag k="place" v="locality" />
		<tag k="ssr:stedsnr" v="233379" />
	</node>
	<node id="-109565" lat="68.9865388912" lon="17.5457583246">
		<tag k="name" v="Bruberget" />
		<tag k="natural" v="hill" />
		<tag k="place" v="locality" />
		<tag k="ssr:stedsnr" v="233338" />
	</node>
	<node id="-109564" lat="68.9888500047" lon="17.5604805488">
		<tag k="name" v="Bumoen" />
		<tag k="place" v="locality" />
		<tag k="ssr:stedsnr" v="233329" />
	</node>
	<node id="-109563" lat="68.9809999961" lon="17.5650944483">
		<tag k="name" v="Asphågen" />
		<tag k="natural" v="hill" />
		<tag k="place" v="locality" />
		<tag k="ssr:stedsnr" v="233328" />
	</node>
	<node id="-109562" lat="68.9818249963" lon="17.6329694455">
		<tag k="name" v="Langdalen" />
		<tag k="natural" v="valley" />
		<tag k="place" v="locality" />
		<tag k="ssr:stedsnr" v="233326" />
	</node>
	<node id="-109561" lat="69.0634666631" lon="17.5279888865">
		<tag k="name" v="Langhamnlia" />
		<tag k="natural" v="slope" />
		<tag k="place" v="locality" />
		<tag k="ssr:stedsnr" v="233322" />
	</node>
	<node id="-109559" lat="68.9540222206" lon="17.5710444395">
		<tag k="name" v="Blomlia" />
		<tag k="natural" v="slope" />
		<tag k="place" v="locality" />
		<tag k="ssr:stedsnr" v="233298" />
	</node>
	<node id="-109558" lat="68.952208337" lon="17.5470638933">
		<tag k="name" v="Storlemmen" />
		<tag k="natural" v="hill" />
		<tag k="place" v="locality" />
		<tag k="ssr:stedsnr" v="233296" />
	</node>
	<node id="-109557" lat="68.9561916687" lon="17.5729694524">
		<tag k="name" v="Hestholla" />
		<tag k="natural" v="valley" />
		<tag k="place" v="locality" />
		<tag k="ssr:stedsnr" v="233295" />
	</node>
	<node id="-109556" lat="68.9530305556" lon="17.5837138863">
		<tag k="name" v="Botn" />
		<tag k="natural" v="valley" />
		<tag k="place" v="locality" />
		<tag k="ssr:stedsnr" v="233292" />
	</node>
	<node id="-109555" lat="68.9589361097" lon="17.5665972233">
		<tag k="name" v="Slåtteberget" />
		<tag k="natural" v="hill" />
		<tag k="place" v="locality" />
		<tag k="ssr:stedsnr" v="233290" />
	</node>
	<node id="-109554" lat="69.0190083329" lon="17.553802782">
		<tag k="name" v="Durmålsbergan" />
		<tag k="natural" v="hill" />
		<tag k="place" v="locality" />
		<tag k="ssr:stedsnr" v="233287" />
	</node>
	<node id="-109553" lat="69.0176416677" lon="17.5570222238">
		<tag k="name" v="Litjemørkedalen" />
		<tag k="natural" v="valley" />
		<tag k="place" v="locality" />
		<tag k="ssr:stedsnr" v="233284" />
	</node>
	<node id="-109552" lat="69.036291667" lon="17.9387055596">
		<tag k="name" v="Erikbergan" />
		<tag k="natural" v="hill" />
		<tag k="place" v="locality" />
		<tag k="ssr:stedsnr" v="233062" />
	</node>
	<node id="-109551" lat="69.1164416656" lon="17.8122222094">
		<tag k="name" v="Mohågen" />
		<tag k="natural" v="hill" />
		<tag k="place" v="locality" />
		<tag k="ssr:stedsnr" v="38874" />
	</node>
	<node id="-109550" lat="69.1171583365" lon="17.80733332">
		<tag k="name" v="Langebakken" />
		<tag k="natural" v="slope" />
		<tag k="place" v="locality" />
		<tag k="ssr:stedsnr" v="38871" />
	</node>
	<node id="-109549" lat="69.103208333" lon="17.6672583344">
		<tag k="fixme" v="consider natural=peak for the most distinct mountains in the district" />
		<tag k="name" v="Høgden" />
		<tag k="natural" v="hill" />
		<tag k="place" v="locality" />
		<tag k="ssr:stedsnr" v="38725" />
	</node>
	<node id="-109548" lat="69.0474305536" lon="17.828580558">
		<tag k="name" v="Rundhågen" />
		<tag k="natural" v="hill" />
		<tag k="place" v="locality" />
		<tag k="ssr:stedsnr" v="38311" />
	</node>
	<node id="-109545" lat="69.0371694453" lon="17.9021666532">
		<tag k="name" v="Storbakken" />
		<tag k="natural" v="slope" />
		<tag k="place" v="locality" />
		<tag k="ssr:stedsnr" v="37859" />
	</node>
	<node id="-109544" lat="69.0370388905" lon="17.6948861022">
		<tag k="name" v="Leirgruva" />
		<tag k="natural" v="valley" />
		<tag k="place" v="locality" />
		<tag k="ssr:stedsnr" v="37266" />
	</node>
	<node id="-109543" lat="69.1011777734" lon="17.7582944485">
		<tag k="name" v="Kvanntohågen" />
		<tag k="natural" v="hill" />
		<tag k="place" v="locality" />
		<tag k="ssr:stedsnr" v="37022" />
	</node>
	<node id="-109537" lat="69.0645611091" lon="17.7944111105">
		<tag k="name" v="Ørnskardhammaren" />
		<tag k="natural" v="hill" />
		<tag k="place" v="locality" />
		<tag k="ssr:stedsnr" v="18313" />
	</node>
	<node id="-109532" lat="69.0937833325" lon="17.67940277">
		<tag k="fixme" v="consider natural=peak for the most distinct mountains in the district" />
		<tag k="name" v="Foråsen" />
		<tag k="natural" v="hill" />
		<tag k="place" v="locality" />
		<tag k="ssr:stedsnr" v="221648" />
	</node>
	<node id="-109528" lat="69.1168416686" lon="17.8184388832">
		<tag k="name" v="Sendarhågen" />
		<tag k="natural" v="hill" />
		<tag k="place" v="locality" />
		<tag k="ssr:stedsnr" v="220862" />
	</node>
	<node id="-109527" lat="69.0170361154" lon="17.9215972222">
		<tag k="fixme" v="consider natural=peak for the most distinct mountains in the district" />
		<tag k="name" v="Soppåsen" />
		<tag k="natural" v="hill" />
		<tag k="place" v="locality" />
		<tag k="ssr:stedsnr" v="220857" />
	</node>
	<node id="-109525" lat="69.0327111131" lon="17.5795777677">
		<tag k="name" v="Hesjeholla" />
		<tag k="natural" v="valley" />
		<tag k="place" v="locality" />
		<tag k="ssr:stedsnr" v="220792" />
	</node>
	<node id="-109524" lat="69.0291444406" lon="17.5793583231">
		<tag k="fixme" v="consider natural=peak for the most distinct mountains in the district" />
		<tag k="name" v="Tuva" />
		<tag k="natural" v="hill" />
		<tag k="place" v="locality" />
		<tag k="ssr:stedsnr" v="220787" />
	</node>
	<node id="-109515" lat="69.0794277783" lon="17.7482972274">
		<tag k="name" v="Hesthågen" />
		<tag k="natural" v="hill" />
		<tag k="place" v="locality" />
		<tag k="ssr:stedsnr" v="220265" />
	</node>
	<node id="-109514" lat="69.0813250002" lon="17.7835999884">
		<tag k="name" v="Slettlia" />
		<tag k="natural" v="slope" />
		<tag k="place" v="locality" />
		<tag k="ssr:stedsnr" v="220223" />
	</node>
	<node id="-109513" lat="69.0839333374" lon="17.7382111144">
		<tag k="name" v="Finnefjellia" />
		<tag k="natural" v="slope" />
		<tag k="place" v="locality" />
		<tag k="ssr:stedsnr" v="220211" />
	</node>
	<node id="-109512" lat="69.0670333347" lon="17.7069083423">
		<tag k="name" v="Storstubbenden" />
		<tag k="natural" v="slope" />
		<tag k="place" v="locality" />
		<tag k="ssr:stedsnr" v="220185" />
	</node>
	<node id="-109508" lat="69.0573666665" lon="17.8100916623">
		<tag k="name" v="Kvitbergan" />
		<tag k="natural" v="hill" />
		<tag k="place" v="locality" />
		<tag k="ssr:stedsnr" v="219294" />
	</node>
	<node id="-109507" lat="69.0522861104" lon="17.8292833365">
		<tag k="name" v="Lappeteltan" />
		<tag k="natural" v="slope" />
		<tag k="place" v="locality" />
		<tag k="ssr:stedsnr" v="219283" />
	</node>
	<node id="-109506" lat="69.1015611098" lon="17.7683749909">
		<tag k="name" v="Vedryet" />
		<tag k="natural" v="cliff" />
		<tag k="ssr:stedsnr" v="219227" />
	</node>
	<node id="-111006" lat="69.0128944454" lon="17.3763333396">
		<tag k="name" v="Brekken" />
		<tag k="natural" v="slope" />
		<tag k="place" v="locality" />
		<tag k="ssr:stedsnr" v="962842" />
	</node>
	<node id="-111005" lat="68.9834805525" lon="17.4898194315">
		<tag k="name" v="Haugbakken" />
		<tag k="natural" v="slope" />
		<tag k="place" v="locality" />
		<tag k="ssr:stedsnr" v="962796" />
	</node>
	<node id="-111004" lat="68.9895805577" lon="17.5014083204">
		<tag k="name" v="Brennsletta" />
		<tag k="place" v="locality" />
		<tag k="ssr:stedsnr" v="962795" />
	</node>
	<node id="-111003" lat="68.9559083318" lon="17.5064805498">
		<tag k="name" v="Storholla" />
		<tag k="natural" v="valley" />
		<tag k="place" v="locality" />
		<tag k="ssr:stedsnr" v="962881" />
	</node>
	<node id="-111002" lat="69.062766669" lon="17.5111472106">
		<tag k="name" v="Ramnfløyhaugen" />
		<tag k="natural" v="hill" />
		<tag k="place" v="locality" />
		<tag k="ssr:stedsnr" v="962750" />
	</node>
	<node id="-111001" lat="69.0613777822" lon="17.4675027791">
		<tag k="name" v="Fiskevasslian" />
		<tag k="natural" v="slope" />
		<tag k="place" v="locality" />
		<tag k="ssr:stedsnr" v="962749" />
	</node>
	<node id="-110999" lat="69.0564666705" lon="17.8288694417">
		<tag k="name" v="Bukkebergan" />
		<tag k="natural" v="hill" />
		<tag k="place" v="locality" />
		<tag k="ssr:stedsnr" v="962608" />
	</node>
	<node id="-110998" lat="69.0640361101" lon="17.8312999867">
		<tag k="name" v="Børingsholla" />
		<tag k="natural" v="valley" />
		<tag k="place" v="locality" />
		<tag k="ssr:stedsnr" v="962607" />
	</node>
	<node id="-110997" lat="69.0471638908" lon="17.6604194432">
		<tag k="name" v="Sæterbotn" />
		<tag k="natural" v="valley" />
		<tag k="place" v="locality" />
		<tag k="ssr:stedsnr" v="962337" />
	</node>
	<node id="-110995" lat="69.0499138849" lon="17.4750972228">
		<tag k="name" v="Skjellbrekken" />
		<tag k="natural" v="slope" />
		<tag k="place" v="locality" />
		<tag k="ssr:stedsnr" v="962130" />
	</node>
	<node id="-110994" lat="69.0488472225" lon="17.5019944493">
		<tag k="name" v="Elvedalen" />
		<tag k="natural" v="valley" />
		<tag k="place" v="locality" />
		<tag k="ssr:stedsnr" v="962126" />
	</node>
	<node id="-110993" lat="68.9702083347" lon="17.6135027634">
		<tag k="name" v="Hesjan" />
		<tag k="natural" v="slope" />
		<tag k="place" v="locality" />
		<tag k="ssr:stedsnr" v="962218" />
	</node>
	<node id="-110992" lat="69.0702333301" lon="17.470572223">
		<tag k="fixme" v="consider natural=peak for the most distinct mountains in the district" />
		<tag k="name" v="Storholtet" />
		<tag k="natural" v="hill" />
		<tag k="place" v="locality" />
		<tag k="ssr:stedsnr" v="962184" />
	</node>
	<node id="-110989" lat="68.9960416672" lon="17.4149138863">
		<tag k="name" v="Gångstøsletten" />
		<tag k="place" v="locality" />
		<tag k="ssr:stedsnr" v="961852" />
	</node>
	<node id="-110988" lat="68.9969999968" lon="17.3998860993">
		<tag k="name" v="Tortenlia" />
		<tag k="natural" v="slope" />
		<tag k="place" v="locality" />
		<tag k="ssr:stedsnr" v="961851" />
	</node>
	<node id="-110987" lat="68.9935222211" lon="17.3950222113">
		<tag k="name" v="Skarsliaksla" />
		<tag k="natural" v="slope" />
		<tag k="place" v="locality" />
		<tag k="ssr:stedsnr" v="961850" />
	</node>
	<node id="-110986" lat="68.987183331" lon="17.4921583306">
		<tag k="name" v="Seljestuven" />
		<tag k="natural" v="slope" />
		<tag k="place" v="locality" />
		<tag k="ssr:stedsnr" v="961834" />
	</node>
	<node id="-110984" lat="68.9868833323" lon="17.5498249861">
		<tag k="name" v="Veltelia" />
		<tag k="natural" v="slope" />
		<tag k="place" v="locality" />
		<tag k="ssr:stedsnr" v="961307" />
	</node>
	<node id="-110982" lat="69.058852782" lon="17.5249472127">
		<tag k="name" v="Litjelia" />
		<tag k="natural" v="slope" />
		<tag k="place" v="locality" />
		<tag k="ssr:stedsnr" v="961292" />
	</node>
	<node id="-110979" lat="69.0138027772" lon="17.5616583329">
		<tag k="alt_name" v="Sløkjebotnen" />
		<tag k="name" v="Sløkjebotn" />
		<tag k="natural" v="valley" />
		<tag k="place" v="locality" />
		<tag k="ssr:stedsnr" v="868619" />
	</node>
	<node id="-110976" lat="68.9942833304" lon="18.0366722141">
		<tag k="fixme" v="consider natural=peak for the most distinct mountains in the district" />
		<tag k="name" v="Steinfjellet - Stuorageađgoaivi" />
		<tag k="name:no" v="Steinfjellet" />
		<tag k="name:se" v="Stuorageađgoaivi" />
		<tag k="natural" v="hill" />
		<tag k="place" v="locality" />
		<tag k="ssr:stedsnr" v="868596" />
	</node>
	<node id="-110973" lat="69.1184000004" lon="17.8941249951">
		<tag k="name" v="Reingjerdmoen" />
		<tag k="place" v="locality" />
		<tag k="ssr:stedsnr" v="868259" />
	</node>
	<node id="-110972" lat="69.1065638914" lon="17.9225166608">
		<tag k="name" v="Storbergan" />
		<tag k="natural" v="hill" />
		<tag k="place" v="locality" />
		<tag k="ssr:stedsnr" v="868253" />
	</node>
	<node id="-110968" lat="68.9868250005" lon="17.53020555">
		<tag k="fixme" v="multiple name tags, choose one and add the other to alt_name; consider natural=peak for the most distinct mountains in the district" />
		<tag k="name" v="Kastnesåsen;Nattmålstuva" />
		<tag k="natural" v="hill" />
		<tag k="place" v="locality" />
		<tag k="ssr:stedsnr" v="867971" />
	</node>
	<node id="-110967" lat="68.9465777785" lon="17.5664999902">
		<tag k="fixme" v="consider natural=peak for the most distinct mountains in the district" />
		<tag k="name" v="Breidtinden" />
		<tag k="natural" v="hill" />
		<tag k="place" v="locality" />
		<tag k="ssr:stedsnr" v="867943" />
	</node>
	<node id="-110966" lat="68.9495527739" lon="17.5048416553">
		<tag k="fixme" v="consider natural=peak for the most distinct mountains in the district" />
		<tag k="name" v="Tomasfjellet" />
		<tag k="natural" v="hill" />
		<tag k="place" v="locality" />
		<tag k="ssr:stedsnr" v="867939" />
	</node>
	<node id="-110964" lat="68.9271527816" lon="17.4842805635">
		<tag k="name" v="Gaphaugen" />
		<tag k="natural" v="hill" />
		<tag k="place" v="locality" />
		<tag k="ssr:stedsnr" v="841902" />
	</node>
	<node id="-110962" lat="68.951808337" lon="17.4870444319">
		<tag k="fixme" v="consider natural=peak for the most distinct mountains in the district" />
		<tag k="name" v="Myrkollen" />
		<tag k="natural" v="hill" />
		<tag k="place" v="locality" />
		<tag k="ssr:stedsnr" v="841886" />
	</node>
	<node id="-110961" lat="69.0604027787" lon="17.4847333305">
		<tag k="fixme" v="consider natural=peak for the most distinct mountains in the district" />
		<tag k="name" v="Hulderstudalsheia" />
		<tag k="natural" v="hill" />
		<tag k="place" v="locality" />
		<tag k="ssr:stedsnr" v="841745" />
	</node>
	<node id="-110959" lat="69.0030083337" lon="17.387933333">
		<tag k="name" v="Munsletten" />
		<tag k="place" v="locality" />
		<tag k="ssr:stedsnr" v="841825" />
	</node>
	<node id="-110958" lat="68.9837500037" lon="17.5161472204">
		<tag k="name" v="Bjørnlemmen" />
		<tag k="natural" v="hill" />
		<tag k="place" v="locality" />
		<tag k="ssr:stedsnr" v="841802" />
	</node>
	<node id="-110957" lat="69.0548138889" lon="17.7303361194">
		<tag k="name" v="Joholla" />
		<tag k="natural" v="valley" />
		<tag k="place" v="locality" />
		<tag k="ssr:stedsnr" v="841595" />
	</node>
	<node id="-110956" lat="69.0591194461" lon="17.7652722324">
		<tag k="name" v="Tverråshalsen" />
		<tag k="natural" v="valley" />
		<tag k="place" v="locality" />
		<tag k="ssr:stedsnr" v="841588" />
	</node>
	<node id="-110955" lat="69.0566194418" lon="17.7292055476">
		<tag k="name" v="Jensabakken" />
		<tag k="natural" v="slope" />
		<tag k="place" v="locality" />
		<tag k="ssr:stedsnr" v="841508" />
	</node>
	<node id="-110954" lat="69.0636416666" lon="17.7491277724">
		<tag k="name" v="Møllebakken" />
		<tag k="natural" v="slope" />
		<tag k="place" v="locality" />
		<tag k="ssr:stedsnr" v="841499" />
	</node>
	<node id="-110951" lat="69.0285000011" lon="17.3952472136">
		<tag k="name" v="Vakkermarka" />
		<tag k="natural" v="slope" />
		<tag k="place" v="locality" />
		<tag k="ssr:stedsnr" v="841152" />
	</node>
	<node id="-110950" lat="69.0255611111" lon="17.4032499927">
		<tag k="fixme" v="consider natural=peak for the most distinct mountains in the district" />
		<tag k="name" v="Mokollen" />
		<tag k="natural" v="hill" />
		<tag k="place" v="locality" />
		<tag k="ssr:stedsnr" v="841150" />
	</node>
	<node id="-110948" lat="69.0829666673" lon="17.5094861104">
		<tag k="fixme" v="consider natural=peak for the most distinct mountains in the district" />
		<tag k="name" v="Ramnfløy" />
		<tag k="natural" v="hill" />
		<tag k="place" v="locality" />
		<tag k="ssr:stedsnr" v="841201" />
	</node>
	<node id="-110946" lat="69.0450277797" lon="17.5009472166">
		<tag k="name" v="Ramnøyhammaren" />
		<tag k="natural" v="hill" />
		<tag k="place" v="locality" />
		<tag k="ssr:stedsnr" v="841176" />
	</node>
	<node id="-110944" lat="68.9913583344" lon="17.5097111086">
		<tag k="name" v="Legda" />
		<tag k="natural" v="slope" />
		<tag k="place" v="locality" />
		<tag k="ssr:stedsnr" v="840842" />
	</node>
	<node id="-110942" lat="69.1294388895" lon="17.8604944373">
		<tag k="name" v="Oppskipsberget" />
		<tag k="natural" v="hill" />
		<tag k="place" v="locality" />
		<tag k="ssr:stedsnr" v="840779" />
	</node>
	<node id="-110941" lat="68.9885611154" lon="17.5797555568">
		<tag k="name" v="Mosseberget" />
		<tag k="natural" v="hill" />
		<tag k="place" v="locality" />
		<tag k="ssr:stedsnr" v="840298" />
	</node>
	<node id="-110940" lat="68.9919249963" lon="17.5715694416">
		<tag k="name" v="Strupen" />
		<tag k="natural" v="valley" />
		<tag k="place" v="locality" />
		<tag k="ssr:stedsnr" v="840296" />
	</node>
	<node id="-110938" lat="69.0864583334" lon="17.5353888991">
		<tag k="fixme" v="consider natural=peak for the most distinct mountains in the district" />
		<tag k="name" v="Høgda" />
		<tag k="natural" v="hill" />
		<tag k="place" v="locality" />
		<tag k="ssr:stedsnr" v="828685" />
	</node>
	<node id="-110936" lat="69.0846166662" lon="17.5263083226">
		<tag k="name" v="Aspelia" />
		<tag k="natural" v="slope" />
		<tag k="place" v="locality" />
		<tag k="ssr:stedsnr" v="828682" />
	</node>
	<node id="-110935" lat="69.1073583353" lon="17.6646194376">
		<tag k="name" v="Storhågen" />
		<tag k="natural" v="hill" />
		<tag k="place" v="locality" />
		<tag k="ssr:stedsnr" v="828666" />
	</node>
	<node id="-110934" lat="69.0580750026" lon="17.7082111117">
		<tag k="name" v="Rødrapet" />
		<tag k="natural" v="valley" />
		<tag k="place" v="locality" />
		<tag k="ssr:stedsnr" v="828499" />
	</node>
	<node id="-110933" lat="69.0194888925" lon="17.7194333253">
		<tag k="name" v="Einhågen" />
		<tag k="natural" v="hill" />
		<tag k="place" v="locality" />
		<tag k="ssr:stedsnr" v="828476" />
	</node>
	<node id="-110926" lat="69.0175222265" lon="17.9352138847">
		<tag k="name" v="Botn" />
		<tag k="natural" v="valley" />
		<tag k="place" v="locality" />
		<tag k="ssr:stedsnr" v="827859" />
	</node>
	<node id="-110924" lat="69.0277472209" lon="17.5532888823">
		<tag k="name" v="Kolldalen" />
		<tag k="natural" v="valley" />
		<tag k="place" v="locality" />
		<tag k="ssr:stedsnr" v="827790" />
	</node>
	<node id="-110923" lat="69.028580558" lon="17.5565166692">
		<tag k="fixme" v="consider natural=peak for the most distinct mountains in the district" />
		<tag k="name" v="Kollen" />
		<tag k="natural" v="hill" />
		<tag k="place" v="locality" />
		<tag k="ssr:stedsnr" v="827777" />
	</node>
	<node id="-110922" lat="69.039030555" lon="17.5920527637">
		<tag k="name" v="Skanshågen" />
		<tag k="natural" v="hill" />
		<tag k="place" v="locality" />
		<tag k="ssr:stedsnr" v="827774" />
	</node>
	<node id="-110920" lat="69.0899722215" lon="17.5484083212">
		<tag k="name" v="Nordhøgda" />
		<tag k="natural" v="hill" />
		<tag k="place" v="locality" />
		<tag k="ssr:stedsnr" v="827740" />
	</node>
	<node id="-110918" lat="69.0387083301" lon="17.7542027723">
		<tag k="name" v="Per-Henriksahågen" />
		<tag k="natural" v="hill" />
		<tag k="place" v="locality" />
		<tag k="ssr:stedsnr" v="827297" />
	</node>
	<node id="-110917" lat="69.0408472235" lon="17.7622694522">
		<tag k="name" v="St.Hansberget" />
		<tag k="natural" v="hill" />
		<tag k="place" v="locality" />
		<tag k="ssr:stedsnr" v="827296" />
	</node>
	<node id="-110915" lat="69.0788500005" lon="17.7129638991">
		<tag k="name" v="Børingsdalen" />
		<tag k="natural" v="valley" />
		<tag k="place" v="locality" />
		<tag k="ssr:stedsnr" v="827225" />
	</node>
	<node id="-110914" lat="69.0745333334" lon="17.7461249942">
		<tag k="name" v="Bolsarbakken" />
		<tag k="natural" v="slope" />
		<tag k="place" v="locality" />
		<tag k="ssr:stedsnr" v="827182" />
	</node>
	<node id="-110912" lat="69.0916694416" lon="17.7213361078">
		<tag k="name" v="Langhågen" />
		<tag k="natural" v="hill" />
		<tag k="place" v="locality" />
		<tag k="ssr:stedsnr" v="826229" />
	</node>
	<node id="-110910" lat="69.0913249989" lon="17.6993555523">
		<tag k="name" v="Finnlandsmoan" />
		<tag k="place" v="locality" />
		<tag k="ssr:stedsnr" v="826211" />
	</node>
	<node id="-110909" lat="69.1057416699" lon="17.7043027792">
		<tag k="name" v="Skredderlia" />
		<tag k="natural" v="slope" />
		<tag k="place" v="locality" />
		<tag k="ssr:stedsnr" v="826035" />
	</node>
	<node id="-110907" lat="69.1031333302" lon="17.6938749926">
		<tag k="name" v="Henningskaret" />
		<tag k="natural" v="valley" />
		<tag k="place" v="locality" />
		<tag k="ssr:stedsnr" v="826020" />
	</node>
	<node id="-110903" lat="69.024516671" lon="17.9793472152">
		<tag k="fixme" v="consider natural=peak for the most distinct mountains in the district" />
		<tag k="name" v="Stortind" />
		<tag k="natural" v="hill" />
		<tag k="place" v="locality" />
		<tag k="ssr:stedsnr" v="808624" />
	</node>
	<node id="-110894" lat="68.985808337" lon="17.5778805609">
		<tag k="alt_name" v="Omkollen" />
		<tag k="name" v="Omnkollen" />
		<tag k="natural" v="hill" />
		<tag k="place" v="locality" />
		<tag k="ssr:stedsnr" v="807978" />
	</node>
	<node id="-110893" lat="69.071425001" lon="17.7926805631">
		<tag k="fixme" v="consider natural=peak for the most distinct mountains in the district" />
		<tag k="name" v="Vardefjellet" />
		<tag k="natural" v="hill" />
		<tag k="place" v="locality" />
		<tag k="ssr:stedsnr" v="807360" />
	</node>
	<node id="-110885" lat="69.0371111072" lon="17.4516833259">
		<tag k="fixme" v="multiple name tags, choose one and add the other to alt_name" />
		<tag k="name" v="Holtan;Høgholtet" />
		<tag k="natural" v="hill" />
		<tag k="place" v="locality" />
		<tag k="ssr:stedsnr" v="807295" />
	</node>
	<node id="-110883" lat="69.1030361118" lon="17.6774249884">
		<tag k="fixme" v="multiple name tags, choose one and add the other to alt_name; consider natural=peak for the most distinct mountains in the district" />
		<tag k="name" v="Storlihøgden;Stridsfjellet" />
		<tag k="natural" v="hill" />
		<tag k="place" v="locality" />
		<tag k="ssr:stedsnr" v="807251" />
	</node>
	<node id="-110874" lat="68.9290527771" lon="17.4792361171">
		<tag k="name" v="Smågamman" />
		<tag k="natural" v="hill" />
		<tag k="place" v="locality" />
		<tag k="ssr:stedsnr" v="780876" />
	</node>
	<node id="-110870" lat="68.9516722266" lon="17.4790472188">
		<tag k="fixme" v="consider natural=peak for the most distinct mountains in the district" />
		<tag k="name" v="Myrhammaren" />
		<tag k="natural" v="hill" />
		<tag k="place" v="locality" />
		<tag k="ssr:stedsnr" v="780860" />
	</node>
	<node id="-110867" lat="69.0235749962" lon="17.3751472235">
		<tag k="fixme" v="consider natural=peak for the most distinct mountains in the district" />
		<tag k="name" v="Hatten" />
		<tag k="natural" v="hill" />
		<tag k="place" v="locality" />
		<tag k="ssr:stedsnr" v="780842" />
	</node>
	<node id="-110866" lat="68.984080556" lon="17.4967555609">
		<tag k="name" v="Ventarhågen" />
		<tag k="natural" v="hill" />
		<tag k="place" v="locality" />
		<tag k="ssr:stedsnr" v="780775" />
	</node>
	<node id="-110862" lat="68.9655027748" lon="17.5681555509">
		<tag k="name" v="Urkråa" />
		<tag k="natural" v="slope" />
		<tag k="place" v="locality" />
		<tag k="ssr:stedsnr" v="780222" />
	</node>
	<node id="-110859" lat="69.07536389" lon="17.4860000053">
		<tag k="name" v="Nonshaugen" />
		<tag k="natural" v="hill" />
		<tag k="place" v="locality" />
		<tag k="ssr:stedsnr" v="780194" />
	</node>
	<node id="-110858" lat="69.0800305523" lon="17.4748722315">
		<tag k="name" v="Bråtten" />
		<tag k="natural" v="slope" />
		<tag k="place" v="locality" />
		<tag k="ssr:stedsnr" v="780193" />
	</node>
	<node id="-110856" lat="69.0448844779" lon="17.4968175455">
		<tag k="name" v="Bettomsletta" />
		<tag k="place" v="locality" />
		<tag k="ssr:stedsnr" v="780165" />
	</node>
	<node id="-110855" lat="69.0262611068" lon="17.3878416731">
		<tag k="fixme" v="consider natural=peak for the most distinct mountains in the district" />
		<tag k="name" v="Åsen" />
		<tag k="natural" v="hill" />
		<tag k="place" v="locality" />
		<tag k="ssr:stedsnr" v="780152" />
	</node>
	<node id="-110853" lat="69.0500916687" lon="17.4995861015">
		<tag k="name" v="Høglia" />
		<tag k="natural" v="slope" />
		<tag k="place" v="locality" />
		<tag k="ssr:stedsnr" v="780141" />
	</node>
	<node id="-110852" lat="69.0484305563" lon="17.5128249899">
		<tag k="fixme" v="consider natural=peak for the most distinct mountains in the district" />
		<tag k="name" v="Åsen" />
		<tag k="natural" v="hill" />
		<tag k="place" v="locality" />
		<tag k="ssr:stedsnr" v="780139" />
	</node>
	<node id="-110851" lat="68.9930638913" lon="17.4764000103">
		<tag k="name" v="Geitholla" />
		<tag k="natural" v="valley" />
		<tag k="place" v="locality" />
		<tag k="ssr:stedsnr" v="779828" />
	</node>
	<node id="-110849" lat="69.0005861119" lon="17.4017027828">
		<tag k="name" v="Munnsletta" />
		<tag k="place" v="locality" />
		<tag k="ssr:stedsnr" v="779819" />
	</node>
	<node id="-110848" lat="68.9993694429" lon="17.4057083319">
		<tag k="name" v="Grønnlien" />
		<tag k="natural" v="slope" />
		<tag k="place" v="locality" />
		<tag k="ssr:stedsnr" v="779818" />
	</node>
	<node id="-110846" lat="69.1272361085" lon="17.9031000013">
		<tag k="fixme" v="consider natural=peak for the most distinct mountains in the district" />
		<tag k="name" v="Memertuva" />
		<tag k="natural" v="hill" />
		<tag k="place" v="locality" />
		<tag k="ssr:stedsnr" v="779758" />
	</node>
	<node id="-110845" lat="68.9995055522" lon="17.5919722142">
		<tag k="name" v="Nerbotn" />
		<tag k="natural" v="valley" />
		<tag k="place" v="locality" />
		<tag k="ssr:stedsnr" v="779319" />
	</node>
	<node id="-110844" lat="68.9891472256" lon="17.5381833276">
		<tag k="fixme" v="consider natural=peak for the most distinct mountains in the district" />
		<tag k="name" v="Stabbsteinåsen" />
		<tag k="natural" v="hill" />
		<tag k="place" v="locality" />
		<tag k="ssr:stedsnr" v="779306" />
	</node>
	<node id="-110843" lat="68.9573555555" lon="17.5275055577">
		<tag k="name" v="Kvanntoberget" />
		<tag k="natural" v="hill" />
		<tag k="place" v="locality" />
		<tag k="ssr:stedsnr" v="779273" />
	</node>
	<node id="-110841" lat="69.1337444434" lon="17.9046499921">
		<tag k="name" v="Ramnfløy" />
		<tag k="natural" v="hill" />
		<tag k="place" v="locality" />
		<tag k="ssr:stedsnr" v="779090" />
	</node>
	<node id="-110839" lat="69.0951111116" lon="17.6741638792">
		<tag k="name" v="Skjellevollan" />
		<tag k="place" v="locality" />
		<tag k="ssr:stedsnr" v="767684" />
	</node>
	<node id="-110835" lat="69.0169583323" lon="17.9024277619">
		<tag k="name" v="Båtberget" />
		<tag k="natural" v="hill" />
		<tag k="place" v="locality" />
		<tag k="ssr:stedsnr" v="766832" />
	</node>
	<node id="-110832" lat="69.0441277789" lon="17.7245416744">
		<tag k="name" v="Stembrekkhågen" />
		<tag k="natural" v="hill" />
		<tag k="place" v="locality" />
		<tag k="ssr:stedsnr" v="766279" />
	</node>
	<node id="-110830" lat="69.034819444" lon="17.7018333408">
		<tag k="name" v="Grønndalen" />
		<tag k="natural" v="valley" />
		<tag k="place" v="locality" />
		<tag k="ssr:stedsnr" v="766275" />
	</node>
	<node id="-110829" lat="69.1037749963" lon="17.7847222264">
		<tag k="name" v="Lemman" />
		<tag k="natural" v="hill" />
		<tag k="place" v="locality" />
		<tag k="ssr:stedsnr" v="766193" />
	</node>
	<node id="-110826" lat="69.081075004" lon="17.7786444488">
		<tag k="name" v="Skjellbergan" />
		<tag k="natural" v="hill" />
		<tag k="place" v="locality" />
		<tag k="ssr:stedsnr" v="765174" />
	</node>
	<node id="-110825" lat="69.0718499994" lon="17.7202555597">
		<tag k="name" v="Støytfossmoan" />
		<tag k="place" v="locality" />
		<tag k="ssr:stedsnr" v="765156" />
	</node>
	<node id="-110823" lat="69.1010583317" lon="17.7160944353">
		<tag k="name" v="Tennelia" />
		<tag k="natural" v="slope" />
		<tag k="place" v="locality" />
		<tag k="ssr:stedsnr" v="757389" />
	</node>
	<node id="-110822" lat="69.0296416689" lon="17.91760556">
		<tag k="fixme" v="consider natural=peak for the most distinct mountains in the district" />
		<tag k="name" v="Ryggen" />
		<tag k="natural" v="hill" />
		<tag k="place" v="locality" />
		<tag k="ssr:stedsnr" v="747627" />
	</node>
	<node id="-110818" lat="68.9952416665" lon="17.5182583301">
		<tag k="name" v="Brenna" />
		<tag k="natural" v="hill" />
		<tag k="place" v="locality" />
		<tag k="ssr:stedsnr" v="746977" />
	</node>
	<node id="-110816" lat="68.9985888887" lon="17.6482388925">
		<tag k="alt_name" v="Elveskardtinden" />
		<tag k="fixme" v="consider natural=peak for the most distinct mountains in the district" />
		<tag k="name" v="Elveskartinden" />
		<tag k="natural" v="hill" />
		<tag k="place" v="locality" />
		<tag k="ssr:stedsnr" v="746968" />
	</node>
	<node id="-110807" lat="69.0558750036" lon="17.4899472239">
		<tag k="fixme" v="consider natural=peak for the most distinct mountains in the district" />
		<tag k="name" v="Holmheia" />
		<tag k="natural" v="hill" />
		<tag k="place" v="locality" />
		<tag k="ssr:stedsnr" v="746336" />
	</node>
	<node id="-110806" lat="69.0863527817" lon="17.4771222189">
		<tag k="name" v="Teisteberget" />
		<tag k="natural" v="hill" />
		<tag k="place" v="locality" />
		<tag k="ssr:stedsnr" v="746360" />
	</node>
	<node id="-110799" lat="69.045516667" lon="17.4044444499">
		<tag k="fixme" v="consider natural=peak for the most distinct mountains in the district" />
		<tag k="name" v="Bergsheia" />
		<tag k="natural" v="hill" />
		<tag k="place" v="locality" />
		<tag k="ssr:stedsnr" v="746126" />
	</node>
	<node id="-110798" lat="69.0042916674" lon="17.3973944522">
		<tag k="fixme" v="multiple name tags, choose one and add the other to alt_name" />
		<tag k="name" v="Dalen;Tverrdalen" />
		<tag k="natural" v="valley" />
		<tag k="place" v="locality" />
		<tag k="ssr:stedsnr" v="746088" />
	</node>
	<node id="-110793" lat="69.0407916636" lon="17.739547216">
		<tag k="name" v="Einehågen" />
		<tag k="natural" v="hill" />
		<tag k="place" v="locality" />
		<tag k="ssr:stedsnr" v="645243" />
	</node>
	<node id="-110791" lat="69.0069166663" lon="17.9779861008">
		<tag k="name" v="Ramneberget" />
		<tag k="natural" v="hill" />
		<tag k="place" v="locality" />
		<tag k="ssr:stedsnr" v="644887" />
	</node>
	<node id="-110790" lat="69.041750003" lon="17.897305558">
		<tag k="name" v="Storhaugen" />
		<tag k="natural" v="hill" />
		<tag k="place" v="locality" />
		<tag k="ssr:stedsnr" v="644870" />
	</node>
	<node id="-110789" lat="69.0355749973" lon="17.8870888905">
		<tag k="name" v="Rødberget" />
		<tag k="natural" v="hill" />
		<tag k="place" v="locality" />
		<tag k="ssr:stedsnr" v="644867" />
	</node>
	<node id="-110787" lat="69.1102972242" lon="17.8250138953">
		<tag k="name" v="Storelvdalen" />
		<tag k="natural" v="valley" />
		<tag k="place" v="locality" />
		<tag k="ssr:stedsnr" v="644861" />
	</node>
	<node id="-110778" lat="69.0983111139" lon="17.7628083234">
		<tag k="name" v="Hallen" />
		<tag k="natural" v="slope" />
		<tag k="place" v="locality" />
		<tag k="ssr:stedsnr" v="644231" />
	</node>
	<node id="-110777" lat="69.0913361069" lon="17.6900611125">
		<tag k="name" v="Småmoan" />
		<tag k="place" v="locality" />
		<tag k="ssr:stedsnr" v="644230" />
	</node>
	<node id="-110776" lat="69.1056749981" lon="17.7969583347">
		<tag k="name" v="Litjedalsbergan" />
		<tag k="natural" v="hill" />
		<tag k="place" v="locality" />
		<tag k="ssr:stedsnr" v="644188" />
	</node>
	<node id="-110775" lat="69.0663805597" lon="17.7423444342">
		<tag k="name" v="Trolldalen" />
		<tag k="natural" v="valley" />
		<tag k="place" v="locality" />
		<tag k="ssr:stedsnr" v="644167" />
	</node>
	<node id="-110773" lat="69.1095277822" lon="17.7445583319">
		<tag k="name" v="Storhågen" />
		<tag k="natural" v="hill" />
		<tag k="place" v="locality" />
		<tag k="ssr:stedsnr" v="644138" />
	</node>
	<node id="-110772" lat="69.0728805559" lon="17.7862166625">
		<tag k="name" v="Styggholla" />
		<tag k="natural" v="valley" />
		<tag k="place" v="locality" />
		<tag k="ssr:stedsnr" v="644108" />
	</node>
	<node id="-110763" lat="69.025886107" lon="17.4268999993">
		<tag k="fixme" v="consider natural=peak for the most distinct mountains in the district" />
		<tag k="name" v="Liaheia" />
		<tag k="natural" v="hill" />
		<tag k="place" v="locality" />
		<tag k="ssr:stedsnr" v="625623" />
	</node>
	<node id="-110761" lat="69.0741050119" lon="17.8951382817">
		<tag k="alt_name" v="Børingsfjellet, s" />
		<tag k="fixme" v="consider natural=peak for the most distinct mountains in the district" />
		<tag k="name" v="Søre Børingsfjellet" />
		<tag k="natural" v="hill" />
		<tag k="old_name" v="Børingsfjellet" />
		<tag k="place" v="locality" />
		<tag k="ssr:stedsnr" v="625364" />
	</node>
	<node id="-110760" lat="69.0779944443" lon="17.7385472177">
		<tag k="fixme" v="consider natural=peak for the most distinct mountains in the district" />
		<tag k="name" v="Gaukåsen" />
		<tag k="natural" v="hill" />
		<tag k="place" v="locality" />
		<tag k="ssr:stedsnr" v="625362" />
	</node>
	<node id="-110745" lat="68.9597277784" lon="17.5680694325">
		<tag k="fixme" v="consider natural=peak for the most distinct mountains in the district" />
		<tag k="name" v="Styggefjellet" />
		<tag k="natural" v="hill" />
		<tag k="place" v="locality" />
		<tag k="ssr:stedsnr" v="624863" />
	</node>
	<node id="-110744" lat="69.0132777813" lon="17.7639805465">
		<tag k="fixme" v="consider natural=peak for the most distinct mountains in the district" />
		<tag k="name" v="Svartrubb" />
		<tag k="natural" v="hill" />
		<tag k="place" v="locality" />
		<tag k="ssr:stedsnr" v="624650" />
	</node>
	<node id="-110740" lat="69.091983332" lon="17.7917388959">
		<tag k="name" v="Hompan" />
		<tag k="natural" v="hill" />
		<tag k="old_name" v="Kompan" />
		<tag k="place" v="locality" />
		<tag k="ssr:stedsnr" v="624264" />
	</node>
	<node id="-110735" lat="69.0208805531" lon="17.3590250001">
		<tag k="name" v="Kallen" />
		<tag k="natural" v="hill" />
		<tag k="place" v="locality" />
		<tag k="ssr:stedsnr" v="598421" />
	</node>
	<node id="-110732" lat="69.0313166656" lon="17.3552138887">
		<tag k="name" v="Ramnfløyet" />
		<tag k="natural" v="hill" />
		<tag k="place" v="locality" />
		<tag k="ssr:stedsnr" v="597918" />
	</node>
	<node id="-110731" lat="68.9542083352" lon="17.4831388951">
		<tag k="name" v="Mellalia" />
		<tag k="natural" v="slope" />
		<tag k="place" v="locality" />
		<tag k="ssr:stedsnr" v="597890" />
	</node>
	<node id="-110730" lat="68.9476305592" lon="17.4829388839">
		<tag k="name" v="Hollaksla" />
		<tag k="place" v="locality" />
		<tag k="ssr:stedsnr" v="597883" />
	</node>
	<node id="-110729" lat="69.017980559" lon="17.4328333257">
		<tag k="name" v="Liaaksla" />
		<tag k="place" v="locality" />
		<tag k="ssr:stedsnr" v="597875" />
	</node>
	<node id="-110723" lat="69.0147888933" lon="17.4129305547">
		<tag k="name" v="Grønnbakken" />
		<tag k="natural" v="slope" />
		<tag k="place" v="locality" />
		<tag k="ssr:stedsnr" v="597857" />
	</node>
	<node id="-110722" lat="69.0053499964" lon="17.3865694297">
		<tag k="name" v="Durmålshågen" />
		<tag k="natural" v="hill" />
		<tag k="place" v="locality" />
		<tag k="ssr:stedsnr" v="597839" />
	</node>
	<node id="-110721" lat="68.9907694456" lon="17.5068277758">
		<tag k="name" v="Svartfløya" />
		<tag k="natural" v="hill" />
		<tag k="place" v="locality" />
		<tag k="ssr:stedsnr" v="597831" />
	</node>
	<node id="-110719" lat="68.995475004" lon="17.4089222138">
		<tag k="name" v="Hushågen" />
		<tag k="natural" v="hill" />
		<tag k="place" v="locality" />
		<tag k="ssr:stedsnr" v="597825" />
	</node>
	<node id="-110718" lat="68.9830138865" lon="17.5184166688">
		<tag k="name" v="Storskreda" />
		<tag k="natural" v="hill" />
		<tag k="place" v="locality" />
		<tag k="ssr:stedsnr" v="597824" />
	</node>
	<node id="-110715" lat="69.0279916675" lon="17.9219027849">
		<tag k="name" v="Slåttelia" />
		<tag k="natural" v="slope" />
		<tag k="place" v="locality" />
		<tag k="ssr:stedsnr" v="597789" />
	</node>
	<node id="-110714" lat="69.0592333371" lon="17.3917722135">
		<tag k="name" v="Gårdslihammaren" />
		<tag k="natural" v="hill" />
		<tag k="place" v="locality" />
		<tag k="ssr:stedsnr" v="597785" />
	</node>
	<node id="-110712" lat="69.1264000051" lon="17.8758527668">
		<tag k="name" v="Formyrhågen" />
		<tag k="natural" v="hill" />
		<tag k="place" v="locality" />
		<tag k="ssr:stedsnr" v="597777" />
	</node>
	<node id="-110711" lat="69.0502694468" lon="17.461888892">
		<tag k="name" v="Tverrelvdalen" />
		<tag k="natural" v="valley" />
		<tag k="place" v="locality" />
		<tag k="ssr:stedsnr" v="597776" />
	</node>
	<node id="-110710" lat="69.1218555523" lon="17.9054305604">
		<tag k="name" v="Andreasholla" />
		<tag k="natural" v="valley" />
		<tag k="place" v="locality" />
		<tag k="ssr:stedsnr" v="597773" />
	</node>
	<node id="-110709" lat="69.0605805572" lon="17.4828472334">
		<tag k="name" v="Hulderstua" />
		<tag k="natural" v="slope" />
		<tag k="place" v="locality" />
		<tag k="ssr:stedsnr" v="597767" />
	</node>
	<node id="-110708" lat="69.0489138877" lon="17.7591472184">
		<tag k="name" v="Blindfinnskaret" />
		<tag k="natural" v="valley" />
		<tag k="place" v="locality" />
		<tag k="ssr:stedsnr" v="597620" />
	</node>
	<node id="-110706" lat="69.0722555516" lon="17.5314861026">
		<tag k="fixme" v="consider natural=peak for the most distinct mountains in the district" />
		<tag k="name" v="Kvitfløy" />
		<tag k="natural" v="hill" />
		<tag k="place" v="locality" />
		<tag k="ssr:stedsnr" v="597542" />
	</node>
	<node id="-110705" lat="69.069433336" lon="17.5286999967">
		<tag k="fixme" v="consider natural=peak for the most distinct mountains in the district" />
		<tag k="name" v="Rundfjellet" />
		<tag k="natural" v="hill" />
		<tag k="place" v="locality" />
		<tag k="ssr:stedsnr" v="597539" />
	</node>
	<node id="-110703" lat="69.0344361156" lon="17.5718360985">
		<tag k="name" v="Knivsletta" />
		<tag k="place" v="locality" />
		<tag k="ssr:stedsnr" v="597367" />
	</node>
	<node id="-110702" lat="69.0574555593" lon="17.669219436">
		<tag k="name" v="Vakkersletta" />
		<tag k="place" v="locality" />
		<tag k="ssr:stedsnr" v="597326" />
	</node>
	<node id="-110701" lat="68.9875611099" lon="17.5500527671">
		<tag k="name" v="Svartefløya" />
		<tag k="natural" v="hill" />
		<tag k="place" v="locality" />
		<tag k="ssr:stedsnr" v="597312" />
	</node>
	<node id="-110700" lat="69.0552944411" lon="17.539286116">
		<tag k="name" v="Klubben" />
		<tag k="natural" v="hill" />
		<tag k="place" v="locality" />
		<tag k="ssr:stedsnr" v="597295" />
	</node>
	<node id="-110699" lat="69.0155472236" lon="17.5378000043">
		<tag k="name" v="Bjørnhollia" />
		<tag k="natural" v="slope" />
		<tag k="place" v="locality" />
		<tag k="ssr:stedsnr" v="597270" />
	</node>
	<node id="-110698" lat="68.9602111151" lon="17.5689305438">
		<tag k="fixme" v="consider natural=peak for the most distinct mountains in the district" />
		<tag k="name" v="Holtan" />
		<tag k="natural" v="hill" />
		<tag k="place" v="locality" />
		<tag k="ssr:stedsnr" v="597240" />
	</node>
	<node id="-110694" lat="69.1142916701" lon="17.707977767">
		<tag k="name" v="Vakkerbakkan" />
		<tag k="natural" v="slope" />
		<tag k="place" v="locality" />
		<tag k="ssr:stedsnr" v="584149" />
	</node>
	<node id="-110691" lat="69.0196416684" lon="17.9512527779">
		<tag k="fixme" v="consider natural=peak for the most distinct mountains in the district" />
		<tag k="name" v="Dalfjellet" />
		<tag k="natural" v="hill" />
		<tag k="place" v="locality" />
		<tag k="ssr:stedsnr" v="583828" />
	</node>
	<node id="-110689" lat="69.0606111133" lon="17.3914722297">
		<tag k="name" v="Karalia" />
		<tag k="natural" v="slope" />
		<tag k="place" v="locality" />
		<tag k="ssr:stedsnr" v="583797" />
	</node>
	<node id="-110688" lat="69.0389694413" lon="17.6914388736">
		<tag k="name" v="Revhågen" />
		<tag k="natural" v="hill" />
		<tag k="place" v="locality" />
		<tag k="ssr:stedsnr" v="583247" />
	</node>
	<node id="-110686" lat="69.0303444397" lon="17.7746555605">
		<tag k="name" v="Førsteloftet" />
		<tag k="natural" v="slope" />
		<tag k="place" v="locality" />
		<tag k="ssr:stedsnr" v="583010" />
	</node>
	<node id="-110685" lat="69.0840583291" lon="17.7122027729">
		<tag k="name" v="Dalan" />
		<tag k="natural" v="valley" />
		<tag k="place" v="locality" />
		<tag k="ssr:stedsnr" v="583187" />
	</node>
	<node id="-110684" lat="69.0716250029" lon="17.7495277864">
		<tag k="name" v="Litjelia" />
		<tag k="natural" v="slope" />
		<tag k="place" v="locality" />
		<tag k="ssr:stedsnr" v="583159" />
	</node>
	<node id="-110683" lat="69.0718722186" lon="17.7742388931">
		<tag k="name" v="Styggholla" />
		<tag k="natural" v="valley" />
		<tag k="place" v="locality" />
		<tag k="ssr:stedsnr" v="583124" />
	</node>
	<node id="-110676" lat="69.0111611098" lon="17.5267555446">
		<tag k="name" v="Skåbakken" />
		<tag k="natural" v="slope" />
		<tag k="place" v="locality" />
		<tag k="ssr:stedsnr" v="564634" />
	</node>
	<node id="-110675" lat="69.0237749997" lon="17.6906249928">
		<tag k="name" v="Vassrabban" />
		<tag k="natural" v="hill" />
		<tag k="place" v="locality" />
		<tag k="ssr:stedsnr" v="564633" />
	</node>
	<node id="-110672" lat="69.0817694487" lon="17.7863361131">
		<tag k="name" v="Elvedalen" />
		<tag k="natural" v="valley" />
		<tag k="place" v="locality" />
		<tag k="ssr:stedsnr" v="564364" />
	</node>
	<node id="-110671" lat="69.0676611117" lon="17.6655500089">
		<tag k="name" v="Haugen" />
		<tag k="natural" v="hill" />
		<tag k="place" v="locality" />
		<tag k="ssr:stedsnr" v="564346" />
	</node>
	<node id="-110661" lat="68.9953833361" lon="17.5873638996">
		<tag k="name" v="Snadden" />
		<tag k="natural" v="hill" />
		<tag k="place" v="locality" />
		<tag k="ssr:stedsnr" v="564000" />
	</node>
	<node id="-110660" lat="68.9497388919" lon="17.5447805625">
		<tag k="fixme" v="consider natural=peak for the most distinct mountains in the district" />
		<tag k="name" v="Rundfjellet" />
		<tag k="natural" v="hill" />
		<tag k="place" v="locality" />
		<tag k="ssr:stedsnr" v="563947" />
	</node>
	<node id="-110659" lat="68.9549611134" lon="17.6599166758">
		<tag k="name" v="Middagshøgda" />
		<tag k="natural" v="hill" />
		<tag k="place" v="locality" />
		<tag k="ssr:stedsnr" v="563909" />
	</node>
	<node id="-110657" lat="69.0317388927" lon="17.3590305638">
		<tag k="name" v="Slemmeskaret" />
		<tag k="natural" v="valley" />
		<tag k="place" v="locality" />
		<tag k="ssr:stedsnr" v="537892" />
	</node>
	<node id="-110653" lat="69.0173666678" lon="17.4051944432">
		<tag k="name" v="Vedheggen" />
		<tag k="natural" v="slope" />
		<tag k="place" v="locality" />
		<tag k="ssr:stedsnr" v="537849" />
	</node>
	<node id="-110652" lat="69.0504361133" lon="17.4547611068">
		<tag k="name" v="Travebakken" />
		<tag k="natural" v="slope" />
		<tag k="place" v="locality" />
		<tag k="ssr:stedsnr" v="537750" />
	</node>
	<node id="-110651" lat="69.0513444409" lon="17.6876388858">
		<tag k="fixme" v="consider natural=peak for the most distinct mountains in the district" />
		<tag k="name" v="Litjetrollvasshøgda" />
		<tag k="natural" v="hill" />
		<tag k="place" v="locality" />
		<tag k="ssr:stedsnr" v="537499" />
	</node>
	<node id="-110649" lat="69.0390166698" lon="17.4885861134">
		<tag k="name" v="Steinhågen" />
		<tag k="natural" v="hill" />
		<tag k="place" v="locality" />
		<tag k="ssr:stedsnr" v="537146" />
	</node>
	<node id="-110648" lat="69.0277666634" lon="17.4149972295">
		<tag k="fixme" v="consider natural=peak for the most distinct mountains in the district" />
		<tag k="name" v="Ol-Andersaheia" />
		<tag k="natural" v="hill" />
		<tag k="place" v="locality" />
		<tag k="ssr:stedsnr" v="537128" />
	</node>
	<node id="-110647" lat="69.0416527743" lon="17.4275805591">
		<tag k="name" v="Kvitsteinlia" />
		<tag k="natural" v="slope" />
		<tag k="place" v="locality" />
		<tag k="ssr:stedsnr" v="537121" />
	</node>
	<node id="-110645" lat="68.9799833373" lon="17.5474111127">
		<tag k="name" v="Styrmannshågen" />
		<tag k="natural" v="hill" />
		<tag k="place" v="locality" />
		<tag k="ssr:stedsnr" v="537191" />
	</node>
	<node id="-110644" lat="68.9795305536" lon="17.5547388962">
		<tag k="fixme" v="consider natural=peak for the most distinct mountains in the district" />
		<tag k="name" v="Holtan" />
		<tag k="natural" v="hill" />
		<tag k="place" v="locality" />
		<tag k="ssr:stedsnr" v="537190" />
	</node>
	<node id="-110642" lat="69.0552916659" lon="17.5248388853">
		<tag k="name" v="Glanhaugen" />
		<tag k="natural" v="hill" />
		<tag k="place" v="locality" />
		<tag k="ssr:stedsnr" v="536346" />
	</node>
	<node id="-110641" lat="69.0016833332" lon="17.5963833224">
		<tag k="name" v="Storbakken" />
		<tag k="natural" v="slope" />
		<tag k="place" v="locality" />
		<tag k="ssr:stedsnr" v="536312" />
	</node>
	<node id="-110640" lat="68.9907277812" lon="17.5525972234">
		<tag k="name" v="Grønnlia" />
		<tag k="natural" v="slope" />
		<tag k="place" v="locality" />
		<tag k="ssr:stedsnr" v="536307" />
	</node>
	<node id="-110639" lat="68.9861527776" lon="17.5734222261">
		<tag k="name" v="Omnen" />
		<tag k="natural" v="hill" />
		<tag k="place" v="locality" />
		<tag k="ssr:stedsnr" v="536300" />
	</node>
	<node id="-110638" lat="69.0983833375" lon="17.6680527797">
		<tag k="name" v="Vingelberget" />
		<tag k="natural" v="hill" />
		<tag k="place" v="locality" />
		<tag k="ssr:stedsnr" v="524654" />
	</node>
	<node id="-110635" lat="69.0367750005" lon="17.7542861103">
		<tag k="name" v="Asphågen" />
		<tag k="natural" v="hill" />
		<tag k="place" v="locality" />
		<tag k="ssr:stedsnr" v="524235" />
	</node>
	<node id="-110634" lat="69.0612361085" lon="17.6932916586">
		<tag k="name" v="Sæterlia" />
		<tag k="natural" v="slope" />
		<tag k="place" v="locality" />
		<tag k="ssr:stedsnr" v="524458" />
	</node>
	<node id="-110633" lat="69.0216722198" lon="17.3607749966">
		<tag k="name" v="Kjerringa" />
		<tag k="natural" v="hill" />
		<tag k="place" v="locality" />
		<tag k="ssr:stedsnr" v="523923" />
	</node>
	<node id="-110632" lat="69.0051194452" lon="17.3586555587">
		<tag k="name" v="Svinlia" />
		<tag k="natural" v="slope" />
		<tag k="place" v="locality" />
		<tag k="ssr:stedsnr" v="523918" />
	</node>
	<node id="-110631" lat="69.0169444479" lon="17.3580500004">
		<tag k="name" v="Mortenbergan" />
		<tag k="natural" v="hill" />
		<tag k="place" v="locality" />
		<tag k="ssr:stedsnr" v="523916" />
	</node>
	<node id="-110630" lat="69.0392472237" lon="17.8506916562">
		<tag k="name" v="Oppsynsberget" />
		<tag k="natural" v="hill" />
		<tag k="place" v="locality" />
		<tag k="ssr:stedsnr" v="523872" />
	</node>
	<node id="-110629" lat="69.0396416656" lon="17.8496416727">
		<tag k="name" v="Rundhaugen" />
		<tag k="natural" v="hill" />
		<tag k="place" v="locality" />
		<tag k="ssr:stedsnr" v="523864" />
	</node>
	<node id="-110628" lat="69.0369583301" lon="17.9040694291">
		<tag k="name" v="Dalen" />
		<tag k="natural" v="valley" />
		<tag k="place" v="locality" />
		<tag k="ssr:stedsnr" v="523859" />
	</node>
	<node id="-110626" lat="69.0435277746" lon="17.6209138754">
		<tag k="name" v="Tægran" />
		<tag k="natural" v="slope" />
		<tag k="place" v="locality" />
		<tag k="ssr:stedsnr" v="523797" />
	</node>
	<node id="-110625" lat="69.1042999986" lon="17.7125999949">
		<tag k="name" v="Småforrbakken" />
		<tag k="natural" v="slope" />
		<tag k="place" v="locality" />
		<tag k="ssr:stedsnr" v="523025" />
	</node>
	<node id="-110623" lat="68.9339333301" lon="17.490713896">
		<tag k="name" v="Langlia" />
		<tag k="natural" v="slope" />
		<tag k="place" v="locality" />
		<tag k="ssr:stedsnr" v="416882" />
	</node>
	<node id="-110620" lat="68.953388889" lon="17.478297221">
		<tag k="name" v="Storlia" />
		<tag k="natural" v="slope" />
		<tag k="place" v="locality" />
		<tag k="ssr:stedsnr" v="416859" />
	</node>
	<node id="-110619" lat="68.9429472205" lon="17.4831611177">
		<tag k="name" v="Storlia" />
		<tag k="natural" v="slope" />
		<tag k="place" v="locality" />
		<tag k="ssr:stedsnr" v="416856" />
	</node>
	<node id="-110618" lat="68.9827222251" lon="17.5076055427">
		<tag k="name" v="Futslåtta" />
		<tag k="natural" v="slope" />
		<tag k="place" v="locality" />
		<tag k="ssr:stedsnr" v="416780" />
	</node>
	<node id="-110617" lat="68.9843749973" lon="17.5032888979">
		<tag k="name" v="Sandbakken" />
		<tag k="natural" v="slope" />
		<tag k="place" v="locality" />
		<tag k="ssr:stedsnr" v="416777" />
	</node>
	<node id="-110615" lat="69.060191664" lon="17.3946277864">
		<tag k="name" v="Karalihøgda" />
		<tag k="natural" v="hill" />
		<tag k="place" v="locality" />
		<tag k="ssr:stedsnr" v="416755" />
	</node>
	<node id="-110614" lat="69.0576111122" lon="17.3864666687">
		<tag k="name" v="Skinnhågen" />
		<tag k="natural" v="hill" />
		<tag k="place" v="locality" />
		<tag k="ssr:stedsnr" v="416750" />
	</node>
	<node id="-110612" lat="69.0586305532" lon="17.5219972195">
		<tag k="name" v="Bergan" />
		<tag k="natural" v="hill" />
		<tag k="place" v="locality" />
		<tag k="ssr:stedsnr" v="416741" />
	</node>
	<node id="-110611" lat="69.0522222221" lon="17.4694305521">
		<tag k="name" v="Botn" />
		<tag k="natural" v="valley" />
		<tag k="place" v="locality" />
		<tag k="ssr:stedsnr" v="416737" />
	</node>
	<node id="-110609" lat="69.0570361126" lon="17.7741944343">
		<tag k="name" v="Hundholmdalen" />
		<tag k="natural" v="valley" />
		<tag k="place" v="locality" />
		<tag k="ssr:stedsnr" v="416562" />
	</node>
	<node id="-110607" lat="69.0470305546" lon="17.6288805554">
		<tag k="name" v="Dombakken" />
		<tag k="natural" v="slope" />
		<tag k="place" v="locality" />
		<tag k="ssr:stedsnr" v="416344" />
	</node>
	<node id="-110605" lat="69.0611888902" lon="17.6796361031">
		<tag k="name" v="Litjeaksla" />
		<tag k="natural" v="hill" />
		<tag k="place" v="locality" />
		<tag k="ssr:stedsnr" v="416299" />
	</node>
	<node id="-110602" lat="69.0761305539" lon="17.6838750044">
		<tag k="name" v="Verselbakken" />
		<tag k="natural" v="slope" />
		<tag k="place" v="locality" />
		<tag k="ssr:stedsnr" v="416487" />
	</node>
	<node id="-110599" lat="69.0868500016" lon="17.5203805533">
		<tag k="name" v="Karlsbakkan" />
		<tag k="natural" v="slope" />
		<tag k="place" v="locality" />
		<tag k="ssr:stedsnr" v="416169" />
	</node>
	<node id="-110597" lat="68.9905277789" lon="17.5191027636">
		<tag k="fixme" v="consider natural=peak for the most distinct mountains in the district" />
		<tag k="name" v="Atterholtet" />
		<tag k="natural" v="hill" />
		<tag k="place" v="locality" />
		<tag k="ssr:stedsnr" v="415851" />
	</node>
	<node id="-110594" lat="68.9561777793" lon="17.5566361155">
		<tag k="name" v="Naustsletta" />
		<tag k="place" v="locality" />
		<tag k="ssr:stedsnr" v="415284" />
	</node>
	<node id="-110593" lat="68.9542333333" lon="17.5274972121">
		<tag k="name" v="Loftan" />
		<tag k="natural" v="slope" />
		<tag k="place" v="locality" />
		<tag k="ssr:stedsnr" v="415280" />
	</node>
</osm>
