<?xml version="1.0" encoding="UTF-8"?>
<osm version="0.6" generator="osmapis">
	<node lat="69.0473222193693" lon="17.615725001870747" id="-35752">
		<tag k="highway" v="path" />
		<tag k="name" v="Fridalsveien" />
		<tag k="ssr:stedsnr" v="234368" />
	</node>
	<node lat="69.07434166396754" lon="17.683477769252793" id="-35753">
		<tag k="highway" v="path" />
		<tag k="name" v="Gråsteinveien" />
		<tag k="ssr:stedsnr" v="234525" />
	</node>
	<node lat="69.0290833367494" lon="17.590527780374337" id="-35771">
		<tag k="highway" v="path" />
		<tag k="name" v="Blåfjellveien" />
		<tag k="ssr:stedsnr" v="38770" />
	</node>
	<node lat="69.07080278167626" lon="17.47550278129368" id="-35845">
		<tag k="highway" v="path" />
		<tag k="name" v="Kalvøyveien" />
		<tag k="ssr:stedsnr" v="173176" />
	</node>
	<node lat="69.0750972192699" lon="17.707224986282107" id="-35924">
		<tag k="ford" v="yes" />
		<tag k="name" v="Tømmervaet" />
		<tag k="place" v="locality" />
		<tag k="ssr:stedsnr" v="462136" />
	</node>
	<node lat="69.0628055594071" lon="17.665102767815643" id="-35936">
		<tag k="highway" v="path" />
		<tag k="name" v="Salangsveien" />
		<tag k="ssr:stedsnr" v="294332" />
	</node>
	<node lat="69.01187222049299" lon="17.909041657955793" id="-35967">
		<tag k="ford" v="yes" />
		<tag k="name" v="Mellavaet" />
		<tag k="place" v="locality" />
		<tag k="ssr:stedsnr" v="341854" />
	</node>
	<node lat="69.06269721829602" lon="17.544811102991023" id="-35978">
		<tag k="amenity" v="ferry_terminal" />
		<tag k="name" v="Langhamn" />
		<tag k="ssr:stedsnr" v="475242" />
	</node>
	<node lat="69.06108333044962" lon="17.657516656186175" id="-36017">
		<tag k="highway" v="path" />
		<tag k="name" v="Rødsandveien" />
		<tag k="ssr:stedsnr" v="416303" />
	</node>
	<node lat="69.10452221877595" lon="17.73880277649613" id="-36036">
		<tag k="ford" v="yes" />
		<tag k="name" v="Vintervaet" />
		<tag k="place" v="locality" />
		<tag k="ssr:stedsnr" v="462176" />
	</node>
	<node lat="69.01281389083945" lon="17.711397220611676" id="-36072">
		<tag k="highway" v="path" />
		<tag k="name" v="Skogveien" />
		<tag k="ssr:stedsnr" v="524429" />
	</node>
	<node lat="69.033802779974" lon="17.748349989840257" id="-36109">
		<tag k="highway" v="path" />
		<tag k="name" v="Beineveien" />
		<tag k="ssr:stedsnr" v="583255" />
	</node>
	<node lat="69.01745555229748" lon="17.41507777000452" id="-36238">
		<tag k="highway" v="path" />
		<tag k="name" v="Akselveien" />
		<tag k="ssr:stedsnr" v="901874" />
	</node>
	<node lat="69.08003332935206" lon="17.703891660650765" id="-36360">
		<tag k="highway" v="path" />
		<tag k="name" v="Mølneveien" />
		<tag k="ssr:stedsnr" v="948217" />
	</node>
	<node lat="69.02155555341267" lon="17.542400005168226" id="-36419">
		<tag k="highway" v="path" />
		<tag k="name" v="Rødsandbuveien" />
		<tag k="ssr:stedsnr" v="51295" />
	</node>
	<node lat="69.01818055397209" lon="17.36601388255008" id="-36501">
		<tag k="highway" v="path" />
		<tag k="name" v="Kleivvegen" />
		<tag k="ssr:stedsnr" v="112856" />
	</node>
	<node lat="69.09116388548644" lon="17.566613879765782" id="-36534">
		<tag k="highway" v="path" />
		<tag k="name" v="Klauvhamnveien" />
		<tag k="ssr:stedsnr" v="159744" />
	</node>
	<node lat="69.01500832919643" lon="17.91424167413949" id="-36608">
		<tag k="ford" v="yes" />
		<tag k="name" v="Øvervaet" />
		<tag k="place" v="locality" />
		<tag k="ssr:stedsnr" v="220856" />
	</node>
	<node lat="69.01290833532777" lon="17.731338878944744" id="-36611">
		<tag k="highway" v="path" />
		<tag k="name" v="Legdveien" />
		<tag k="ssr:stedsnr" v="221469" />
	</node>
	<node lat="69.07802500061862" lon="17.535191664424158" id="-36613">
		<tag k="highway" v="path" />
		<tag k="name" v="Steinveien" />
		<tag k="ssr:stedsnr" v="221654" />
	</node>
	<node lat="68.99623333355004" lon="17.487733328192252" id="-36675">
		<tag k="landuse" v="harbour" />
		<tag k="name" v="Kastneshamn" />
		<tag k="seamark:type" v="harbour" />
		<tag k="ssr:stedsnr" v="321996" />
	</node>
	<node lat="69.00854444669702" lon="17.399547218493854" id="-36779">
		<tag k="highway" v="path" />
		<tag k="name" v="Stortømmerveien" />
		<tag k="ssr:stedsnr" v="416814" />
	</node>
	<node lat="69.0144722270725" lon="17.391083326225036" id="-36782">
		<tag k="highway" v="path" />
		<tag k="name" v="Olderveien" />
		<tag k="ssr:stedsnr" v="416829" />
	</node>
	<node lat="69.02063333575887" lon="17.391500008403675" id="-36904">
		<tag k="highway" v="path" />
		<tag k="name" v="Trondheimsveien" />
		<tag k="ssr:stedsnr" v="597867" />
	</node>
	<node lat="69.06623610944156" lon="17.73183332237353" id="-36965">
		<tag k="ford" v="yes" />
		<tag k="name" v="Pålvaet" />
		<tag k="place" v="locality" />
		<tag k="ssr:stedsnr" v="644158" />
	</node>
	<node lat="69.05398889285333" lon="17.633527778794004" id="-37003">
		<tag k="highway" v="path" />
		<tag k="name" v="Hellarveien" />
		<tag k="ssr:stedsnr" v="719348" />
	</node>
	<node lat="69.0155861070364" lon="17.405083327516" id="-37004">
		<tag k="highway" v="path" />
		<tag k="name" v="Høgebakkveien" />
		<tag k="ssr:stedsnr" v="719831" />
	</node>
	<node lat="68.99290832918808" lon="17.49459721521007" id="-37014">
		<tag k="highway" v="path" />
		<tag k="name" v="Steinveien" />
		<tag k="ssr:stedsnr" v="719818" />
	</node>
	<node lat="69.07206944523577" lon="17.658730559841256" id="-37026">
		<tag k="amenity" v="ferry_terminal" />
		<tag k="name" v="Brøstadbotn" />
		<tag k="ssr:stedsnr" v="746343" />
	</node>
	<node lat="69.06017777711982" lon="17.508897229480258" id="-37220">
		<tag k="highway" v="path" />
		<tag k="name" v="Spelbuveian" />
		<tag k="ssr:stedsnr" v="962764" />
	</node>
</osm>
