<?xml version="1.0" encoding="UTF-8"?>
<osm generator="osmapis" version="0.6">
	<node id="-859642" lat="69.1251555578" lon="17.8418111219">
		<tag k="name" v="Svartemyra" />
		<tag k="natural" v="wetland" />
		<tag k="ssr:stedsnr" v="463843" />
	</node>
	<node id="-860149" lat="69.0334861132" lon="17.7334277785">
		<tag k="name" v="Stormyra" />
		<tag k="natural" v="wetland" />
		<tag k="ssr:stedsnr" v="79593" />
	</node>
	<node id="-860243" lat="69.0648916673" lon="17.4101555421">
		<tag k="name" v="Stormyra" />
		<tag k="natural" v="wetland" />
		<tag k="ssr:stedsnr" v="159836" />
	</node>
	<node id="-860654" lat="68.9381694465" lon="17.4846361001">
		<tag k="name" v="Klemmingan" />
		<tag k="natural" v="scree" />
		<tag k="ssr:stedsnr" v="757528" />
	</node>
	<node id="-859627" lat="69.0534500025" lon="17.8048222281">
		<tag k="name" v="Fattigmannsjorda" />
		<tag k="place" v="locality" />
		<tag k="ssr:stedsnr" v="462238" />
	</node>
	<node id="-859623" lat="69.0780194423" lon="17.7425694361">
		<tag k="name" v="Nordmarka" />
		<tag k="place" v="locality" />
		<tag k="ssr:stedsnr" v="462173" />
	</node>
	<node id="-859622" lat="69.1050555602" lon="17.8281861024">
		<tag k="name" v="Langmyra" />
		<tag k="natural" v="wetland" />
		<tag k="ssr:stedsnr" v="462168" />
	</node>
	<node id="-859621" lat="69.0771777776" lon="17.788572225">
		<tag k="name" v="Purkesteinen" />
		<tag k="natural" v="stone" />
		<tag k="ssr:stedsnr" v="462155" />
	</node>
	<node id="-859616" lat="69.1018222189" lon="17.7251638937">
		<tag k="name" v="Godmyra" />
		<tag k="natural" v="wetland" />
		<tag k="ssr:stedsnr" v="462031" />
	</node>
	<node id="-859614" lat="69.0245861089" lon="17.7815694352">
		<tag k="name" v="Huarsteinen" />
		<tag k="natural" v="stone" />
		<tag k="ssr:stedsnr" v="462007" />
	</node>
	<node id="-860666" lat="69.1126361075" lon="17.8154555511">
		<tag k="name" v="Hesjemyra" />
		<tag k="natural" v="wetland" />
		<tag k="ssr:stedsnr" v="766841" />
	</node>
	<node id="-860751" lat="69.090413888" lon="17.5632333239">
		<tag k="name" v="Gårdsmyra" />
		<tag k="natural" v="wetland" />
		<tag k="ssr:stedsnr" v="827743" />
	</node>
	<node id="-860115" lat="69.1266694437" lon="17.8822833366">
		<tag k="name" v="Tjyvteigen" />
		<tag k="place" v="locality" />
		<tag k="ssr:stedsnr" v="51780" />
	</node>
	<node id="-860114" lat="68.9819277785" lon="17.5582249962">
		<tag k="name" v="Skrintekjerran" />
		<tag k="place" v="locality" />
		<tag k="ssr:stedsnr" v="51350" />
	</node>
	<node id="-860579" lat="69.1221694412" lon="17.8320666748">
		<tag k="name" v="Grindbergmyra" />
		<tag k="natural" v="wetland" />
		<tag k="ssr:stedsnr" v="625284" />
	</node>
	<node id="-860622" lat="68.9888805564" lon="17.3595166534">
		<tag k="name" v="Nærkomststeinen" />
		<tag k="natural" v="stone" />
		<tag k="ssr:stedsnr" v="644928" />
	</node>
	<node id="-860105" lat="69.0189361062" lon="17.7400277854">
		<tag k="name" v="Steinjorda" />
		<tag k="place" v="locality" />
		<tag k="ssr:stedsnr" v="38525" />
	</node>
	<node id="-860614" lat="69.1145750038" lon="17.8224472159">
		<tag k="name" v="Rundmyra" />
		<tag k="natural" v="wetland" />
		<tag k="ssr:stedsnr" v="644849" />
	</node>
	<node id="-860065" lat="69.0731638894" lon="17.6790416629">
		<tag k="name" v="Jotemyra" />
		<tag k="natural" v="wetland" />
		<tag k="ssr:stedsnr" v="962516" />
	</node>
	<node id="-860099" lat="69.0086500011" lon="17.9603444398">
		<tag k="name" v="Stormyra" />
		<tag k="natural" v="wetland" />
		<tag k="ssr:stedsnr" v="37834" />
	</node>
	<node id="-860661" lat="69.036074998" lon="17.6974000011">
		<tag k="name" v="Fossemyra" />
		<tag k="natural" v="wetland" />
		<tag k="ssr:stedsnr" v="766276" />
	</node>
	<node id="-860095" lat="69.0576111107" lon="17.820861109">
		<tag k="name" v="Elvdalholtan" />
		<tag k="place" v="locality" />
		<tag k="ssr:stedsnr" v="36268" />
	</node>
	<node id="-859637" lat="69.0906583336" lon="17.5780861022">
		<tag k="name" v="Andreasmyra" />
		<tag k="natural" v="wetland" />
		<tag k="ssr:stedsnr" v="463671" />
	</node>
	<node id="-859573" lat="69.0183555544" lon="17.4138277876">
		<tag k="name" v="Lomtjønnmyra" />
		<tag k="natural" v="wetland" />
		<tag k="ssr:stedsnr" v="294871" />
	</node>
	<node id="-859571" lat="69.0148361098" lon="17.4044555414">
		<tag k="name" v="Kalvegårdsholtan" />
		<tag k="place" v="locality" />
		<tag k="ssr:stedsnr" v="294850" />
	</node>
	<node id="-859564" lat="69.0570444484" lon="17.4369222261">
		<tag k="name" v="Langmyra" />
		<tag k="natural" v="wetland" />
		<tag k="ssr:stedsnr" v="294775" />
	</node>
	<node id="-860165" lat="69.0814555569" lon="17.7510138761">
		<tag k="name" v="Karenmyra" />
		<tag k="natural" v="wetland" />
		<tag k="ssr:stedsnr" v="98144" />
	</node>
	<node id="-859562" lat="69.1281388874" lon="17.8599972275">
		<tag k="name" v="Holtet" />
		<tag k="place" v="locality" />
		<tag k="ssr:stedsnr" v="294766" />
	</node>
	<node id="-860071" lat="68.9368361139" lon="17.485136105">
		<tag k="name" v="Mollura" />
		<tag k="natural" v="scree" />
		<tag k="ssr:stedsnr" v="962903" />
	</node>
	<node id="-860068" lat="69.0214222183" lon="17.4015972215">
		<tag k="name" v="Rabbskogen" />
		<tag k="place" v="locality" />
		<tag k="ssr:stedsnr" v="962862" />
	</node>
	<node id="-860067" lat="69.0194000045" lon="17.3934805552">
		<tag k="name" v="Skjellmyra" />
		<tag k="natural" v="wetland" />
		<tag k="ssr:stedsnr" v="962860" />
	</node>
	<node id="-860066" lat="69.0211805573" lon="17.3884027804">
		<tag k="name" v="Myran" />
		<tag k="natural" v="wetland" />
		<tag k="ssr:stedsnr" v="962856" />
	</node>
	<node id="-859553" lat="69.0519361153" lon="17.6651861029">
		<tag k="name" v="Forsamyra" />
		<tag k="natural" v="wetland" />
		<tag k="ssr:stedsnr" v="294382" />
	</node>
	<node id="-860064" lat="69.0580416694" lon="17.7412249865">
		<tag k="name" v="Permyra" />
		<tag k="natural" v="wetland" />
		<tag k="ssr:stedsnr" v="962504" />
	</node>
	<node id="-859550" lat="69.0474611076" lon="17.6236916554">
		<tag k="name" v="Oksholmyra" />
		<tag k="natural" v="wetland" />
		<tag k="ssr:stedsnr" v="294317" />
	</node>
	<node id="-859549" lat="68.9920555563" lon="17.5747611103">
		<tag k="name" v="Storholtmyra" />
		<tag k="natural" v="wetland" />
		<tag k="ssr:stedsnr" v="294296" />
	</node>
	<node id="-859547" lat="68.9905361113" lon="17.5702805509">
		<tag k="name" v="Storholtet" />
		<tag k="place" v="locality" />
		<tag k="ssr:stedsnr" v="294287" />
	</node>
	<node id="-860058" lat="68.9951222258" lon="17.4887388905">
		<tag k="name" v="Hamneleira" />
		<tag k="place" v="locality" />
		<tag k="ssr:stedsnr" v="961858" />
	</node>
	<node id="-859545" lat="69.0075222201" lon="17.5258861196">
		<tag k="name" v="Mørkedalsmyra" />
		<tag k="natural" v="wetland" />
		<tag k="ssr:stedsnr" v="294247" />
	</node>
	<node id="-859537" lat="69.0395138908" lon="17.4421277716">
		<tag k="name" v="Kvitmyra" />
		<tag k="natural" v="wetland" />
		<tag k="ssr:stedsnr" v="294122" />
	</node>
	<node id="-859536" lat="69.0412888913" lon="17.4367972329">
		<tag k="name" v="Røystadskogen" />
		<tag k="place" v="locality" />
		<tag k="ssr:stedsnr" v="294121" />
	</node>
	<node id="-860558" lat="69.0213611082" lon="17.4136888813">
		<tag k="name" v="Skredmyran" />
		<tag k="natural" v="wetland" />
		<tag k="ssr:stedsnr" v="597871" />
	</node>
	<node id="-860557" lat="69.019605559" lon="17.4057277888">
		<tag k="name" v="Fjellmyran" />
		<tag k="natural" v="wetland" />
		<tag k="ssr:stedsnr" v="597869" />
	</node>
	<node id="-860555" lat="69.019413891" lon="17.3902472218">
		<tag k="name" v="Gnagskogen" />
		<tag k="place" v="locality" />
		<tag k="ssr:stedsnr" v="597865" />
	</node>
	<node id="-860042" lat="69.0180305604" lon="17.3753611037">
		<tag k="name" v="Holtet" />
		<tag k="place" v="locality" />
		<tag k="ssr:stedsnr" v="901860" />
	</node>
	<node id="-859526" lat="69.064619441" lon="17.4027416628">
		<tag k="name" v="Langmyra" />
		<tag k="natural" v="wetland" />
		<tag k="ssr:stedsnr" v="281838" />
	</node>
	<node id="-859523" lat="69.0296555536" lon="17.5679444383">
		<tag k="name" v="Tannskjellholtet" />
		<tag k="place" v="locality" />
		<tag k="ssr:stedsnr" v="281771" />
	</node>
	<node id="-859521" lat="69.1034222242" lon="17.6754555476">
		<tag k="name" v="Borkebakkmyra" />
		<tag k="natural" v="wetland" />
		<tag k="ssr:stedsnr" v="281725" />
	</node>
	<node id="-859519" lat="69.0569472213" lon="17.7192611181">
		<tag k="name" v="Forraholtan" />
		<tag k="place" v="locality" />
		<tag k="ssr:stedsnr" v="281548" />
	</node>
	<node id="-860030" lat="69.1339777828" lon="17.8867610979">
		<tag k="name" v="Øyra" />
		<tag k="place" v="locality" />
		<tag k="ssr:stedsnr" v="900114" />
	</node>
	<node id="-859517" lat="69.0179888882" lon="17.7155416632">
		<tag k="name" v="Bjørnmyran" />
		<tag k="natural" v="wetland" />
		<tag k="ssr:stedsnr" v="281526" />
	</node>
	<node id="-859511" lat="69.0193305593" lon="17.9081000058">
		<tag k="name" v="Høgholtet" />
		<tag k="place" v="locality" />
		<tag k="ssr:stedsnr" v="280840" />
	</node>
	<node id="-860022" lat="69.0384861123" lon="17.7395111086">
		<tag k="name" v="Gammeljorda" />
		<tag k="place" v="locality" />
		<tag k="ssr:stedsnr" v="887271" />
	</node>
	<node id="-860018" lat="69.0754416657" lon="17.719044431">
		<tag k="name" v="Brandholtan" />
		<tag k="place" v="locality" />
		<tag k="ssr:stedsnr" v="887159" />
	</node>
	<node id="-860015" lat="69.1042861144" lon="17.6544916626">
		<tag k="name" v="Betholmmyra" />
		<tag k="natural" v="wetland" />
		<tag k="ssr:stedsnr" v="949647" />
	</node>
	<node id="-859500" lat="69.0775111127" lon="17.7232944448">
		<tag k="name" v="Gaukåsmyra" />
		<tag k="natural" v="wetland" />
		<tag k="ssr:stedsnr" v="280116" />
	</node>
	<node id="-860009" lat="69.0376055579" lon="17.7473722285">
		<tag k="name" v="Huarsteinen" />
		<tag k="natural" v="stone" />
		<tag k="ssr:stedsnr" v="948297" />
	</node>
	<node id="-860005" lat="69.1040166694" lon="17.7458027776">
		<tag k="name" v="Slåtten" />
		<tag k="place" v="locality" />
		<tag k="ssr:stedsnr" v="948231" />
	</node>
	<node id="-860003" lat="69.1033500026" lon="17.7153472158">
		<tag k="name" v="Hans-Persamyra" />
		<tag k="natural" v="wetland" />
		<tag k="ssr:stedsnr" v="948022" />
	</node>
	<node id="-860512" lat="69.0553583326" lon="17.8361277725">
		<tag k="name" v="Sangarsteinen" />
		<tag k="natural" v="stone" />
		<tag k="ssr:stedsnr" v="582327" />
	</node>
	<node id="-859999" lat="69.0103138853" lon="17.4419944334">
		<tag k="name" v="Hamnøra" />
		<tag k="place" v="locality" />
		<tag k="ssr:stedsnr" v="841858" />
	</node>
	<node id="-859995" lat="69.0807972245" lon="17.5233777673">
		<tag k="name" v="Bjørnskottmyra" />
		<tag k="natural" v="wetland" />
		<tag k="ssr:stedsnr" v="841208" />
	</node>
	<node id="-859477" lat="68.9992972244" lon="17.5891694447">
		<tag k="name" v="Snærlimyra" />
		<tag k="natural" v="wetland" />
		<tag k="ssr:stedsnr" v="112342" />
	</node>
	<node id="-860216" lat="69.0692527747" lon="17.6942527712">
		<tag k="name" v="Svamyrholtan" />
		<tag k="place" v="locality" />
		<tag k="ssr:stedsnr" v="139363" />
	</node>
	<node id="-859974" lat="69.0943694431" lon="17.7185805486">
		<tag k="alt_name" v="Finnlandsmyra" />
		<tag k="name" v="Finnlandsmyran" />
		<tag k="natural" v="wetland" />
		<tag k="ssr:stedsnr" v="928227" />
	</node>
	<node id="-860485" lat="68.9542138914" lon="17.5087999876">
		<tag k="name" v="Skjellura" />
		<tag k="natural" v="scree" />
		<tag k="ssr:stedsnr" v="537865" />
	</node>
	<node id="-859457" lat="69.041055557" lon="17.915391671">
		<tag k="name" v="Slåttemyra" />
		<tag k="natural" v="wetland" />
		<tag k="ssr:stedsnr" v="98854" />
	</node>
	<node id="-860480" lat="69.040255555" lon="17.4445388757">
		<tag k="name" v="Lyttarsteinen" />
		<tag k="natural" v="stone" />
		<tag k="ssr:stedsnr" v="537149" />
	</node>
	<node id="-859967" lat="69.0110166706" lon="17.3839361007">
		<tag k="name" v="Bergemyra" />
		<tag k="natural" v="wetland" />
		<tag k="ssr:stedsnr" v="780838" />
	</node>
	<node id="-859966" lat="69.0144444473" lon="17.3833444407">
		<tag k="name" v="Rishågmyra" />
		<tag k="natural" v="wetland" />
		<tag k="ssr:stedsnr" v="780826" />
	</node>
	<node id="-860476" lat="69.0568138848" lon="17.6775722166">
		<tag k="name" v="Stomparfjellmyra" />
		<tag k="natural" v="wetland" />
		<tag k="ssr:stedsnr" v="537292" />
	</node>
	<node id="-860554" lat="69.0158833356" lon="17.4085944343">
		<tag k="name" v="Gråsteinmyra" />
		<tag k="natural" v="wetland" />
		<tag k="ssr:stedsnr" v="597858" />
	</node>
	<node id="-860473" lat="68.9983194416" lon="17.3934083196">
		<tag k="name" v="Storskogen" />
		<tag k="place" v="locality" />
		<tag k="ssr:stedsnr" v="536847" />
	</node>
	<node id="-859959" lat="69.0654611101" lon="17.5195583194">
		<tag k="name" v="Nattmålsmyra" />
		<tag k="natural" v="wetland" />
		<tag k="ssr:stedsnr" v="780722" />
	</node>
	<node id="-859956" lat="69.0396444412" lon="17.766227776">
		<tag k="name" v="Borkemyra" />
		<tag k="natural" v="wetland" />
		<tag k="ssr:stedsnr" v="766498" />
	</node>
	<node id="-860382" lat="69.0117750019" lon="17.4211916672">
		<tag k="name" v="Blåfjellmyra" />
		<tag k="natural" v="wetland" />
		<tag k="ssr:stedsnr" v="355845" />
	</node>
	<node id="-859440" lat="69.0138305535" lon="17.4181499888">
		<tag k="name" v="Håkamyra" />
		<tag k="natural" v="wetland" />
		<tag k="ssr:stedsnr" v="52848" />
	</node>
	<node id="-859439" lat="69.0125333372" lon="17.3932555545">
		<tag k="name" v="Kumyra" />
		<tag k="natural" v="wetland" />
		<tag k="ssr:stedsnr" v="52847" />
	</node>
	<node id="-860454" lat="69.0505888867" lon="17.7987111033">
		<tag k="name" v="Andersmyra" />
		<tag k="natural" v="wetland" />
		<tag k="ssr:stedsnr" v="522291" />
	</node>
	<node id="-859423" lat="69.0184861071" lon="17.3854611123">
		<tag k="name" v="Rødmyra" />
		<tag k="natural" v="wetland" />
		<tag k="ssr:stedsnr" v="234885" />
	</node>
	<node id="-859422" lat="69.015652775" lon="17.3683861197">
		<tag k="name" v="Jåtålen" />
		<tag k="natural" v="stone" />
		<tag k="ssr:stedsnr" v="234870" />
	</node>
	<node id="-859933" lat="69.0592055544" lon="17.6594472195">
		<tag k="name" v="Jordbærsteinen" />
		<tag k="natural" v="stone" />
		<tag k="ssr:stedsnr" v="901327" />
	</node>
	<node id="-859419" lat="69.0553888915" lon="17.4501694461">
		<tag k="name" v="Sompen" />
		<tag k="natural" v="wetland" />
		<tag k="ssr:stedsnr" v="234790" />
	</node>
	<node id="-860440" lat="68.9394388872" lon="17.4820222301">
		<tag k="name" v="Rødsteinen" />
		<tag k="natural" v="stone" />
		<tag k="ssr:stedsnr" v="416850" />
	</node>
	<node id="-859413" lat="69.0574777758" lon="17.6441083199">
		<tag k="name" v="Bjørnteigkjerran" />
		<tag k="place" v="locality" />
		<tag k="ssr:stedsnr" v="234317" />
	</node>
	<node id="-860436" lat="69.045924996" lon="17.6331861037">
		<tag k="name" v="Stroskredholtet" />
		<tag k="place" v="locality" />
		<tag k="ssr:stedsnr" v="416336" />
	</node>
	<node id="-859922" lat="68.9986999982" lon="17.3876388985">
		<tag k="name" v="Stormyra" />
		<tag k="natural" v="wetland" />
		<tag k="ssr:stedsnr" v="719825" />
	</node>
	<node id="-860433" lat="69.0697500012" lon="17.6785999968">
		<tag k="name" v="Stimyran" />
		<tag k="natural" v="wetland" />
		<tag k="ssr:stedsnr" v="416491" />
	</node>
	<node id="-860431" lat="69.0646388894" lon="17.7642888852">
		<tag k="name" v="Uran" />
		<tag k="natural" v="scree" />
		<tag k="ssr:stedsnr" v="416463" />
	</node>
	<node id="-859405" lat="69.0483444476" lon="17.5089750016">
		<tag k="name" v="Nøkkelimyra" />
		<tag k="natural" v="wetland" />
		<tag k="ssr:stedsnr" v="234127" />
	</node>
	<node id="-860426" lat="68.990280555" lon="17.5149388942">
		<tag k="name" v="Holtemyra" />
		<tag k="natural" v="wetland" />
		<tag k="ssr:stedsnr" v="415850" />
	</node>
	<node id="-860425" lat="68.9935472207" lon="17.4776749889">
		<tag k="name" v="Kjerkenesskogen" />
		<tag k="place" v="locality" />
		<tag k="ssr:stedsnr" v="415846" />
	</node>
	<node id="-860422" lat="68.9556416708" lon="17.5642666739">
		<tag k="name" v="St.Hanssteinen" />
		<tag k="natural" v="stone" />
		<tag k="ssr:stedsnr" v="415279" />
	</node>
	<node id="-860033" lat="69.051811111" lon="17.6489166593">
		<tag k="name" v="Tømmermyra" />
		<tag k="natural" v="wetland" />
		<tag k="ssr:stedsnr" v="901372" />
	</node>
	<node id="-859902" lat="69.1232249993" lon="17.8342110987">
		<tag k="name" v="Kvittuvmyra" />
		<tag k="natural" v="wetland" />
		<tag k="ssr:stedsnr" v="888825" />
	</node>
	<node id="-860411" lat="69.0422972225" lon="17.7581138926">
		<tag k="name" v="Holtan" />
		<tag k="place" v="locality" />
		<tag k="ssr:stedsnr" v="402293" />
	</node>
	<node id="-860543" lat="69.1255972194" lon="17.8702110953">
		<tag k="name" v="Kvanntoslåtten" />
		<tag k="place" v="locality" />
		<tag k="ssr:stedsnr" v="597781" />
	</node>
	<node id="-860404" lat="69.0982166692" lon="17.7306472137">
		<tag k="name" v="Tjukkskogen" />
		<tag k="place" v="locality" />
		<tag k="ssr:stedsnr" v="401230" />
	</node>
	<node id="-860402" lat="69.0710000013" lon="17.7609722207">
		<tag k="name" v="Bjørnformyra" />
		<tag k="natural" v="wetland" />
		<tag k="ssr:stedsnr" v="401177" />
	</node>
	<node id="-860626" lat="69.057938886" lon="17.6386194297">
		<tag k="name" v="Seljholtan" />
		<tag k="place" v="locality" />
		<tag k="ssr:stedsnr" v="645298" />
	</node>
	<node id="-859882" lat="69.0521888877" lon="17.7852694433">
		<tag k="name" v="Sveinmyra" />
		<tag k="natural" v="wetland" />
		<tag k="ssr:stedsnr" v="886291" />
	</node>
	<node id="-859870" lat="68.9511194482" lon="17.4810083205">
		<tag k="name" v="Stormyra" />
		<tag k="natural" v="wetland" />
		<tag k="ssr:stedsnr" v="658856" />
	</node>
	<node id="-859869" lat="69.0606555552" lon="17.7552277709">
		<tag k="name" v="Litjejorda" />
		<tag k="place" v="locality" />
		<tag k="ssr:stedsnr" v="658516" />
	</node>
	<node id="-860380" lat="69.0060499984" lon="17.4027110998">
		<tag k="name" v="Dalmyran" />
		<tag k="natural" v="wetland" />
		<tag k="ssr:stedsnr" v="355814" />
	</node>
	<node id="-859353" lat="69.0912916641" lon="17.5652472299">
		<tag k="name" v="Skogemyra" />
		<tag k="natural" v="wetland" />
		<tag k="ssr:stedsnr" v="220753" />
	</node>
	<node id="-860371" lat="69.0574277744" lon="17.4671361154">
		<tag k="name" v="Bukkemyra" />
		<tag k="natural" v="wetland" />
		<tag k="ssr:stedsnr" v="355737" />
	</node>
	<node id="-860368" lat="69.0635055577" lon="17.7676333425">
		<tag k="landuse" v="meadow" />
		<tag k="name" v="Hulderstua" />
		<tag k="ssr:stedsnr" v="355562" />
	</node>
	<node id="-860366" lat="69.0652833305" lon="17.7603777632">
		<tag k="name" v="Urtegården" />
		<tag k="place" v="locality" />
		<tag k="ssr:stedsnr" v="355478" />
	</node>
	<node id="-859853" lat="68.9358805536" lon="17.4837638959">
		<tag k="name" v="Utborsteinen" />
		<tag k="natural" v="stone" />
		<tag k="ssr:stedsnr" v="719876" />
	</node>
	<node id="-859340" lat="69.1109805556" lon="17.730077775">
		<tag k="name" v="Sennemyra" />
		<tag k="natural" v="wetland" />
		<tag k="ssr:stedsnr" v="220166" />
	</node>
	<node id="-859339" lat="69.0424416639" lon="17.8066499991">
		<tag k="name" v="Holtan" />
		<tag k="place" v="locality" />
		<tag k="ssr:stedsnr" v="220009" />
	</node>
	<node id="-859849" lat="69.0206805531" lon="17.418461098">
		<tag k="name" v="Skredmyrskogen" />
		<tag k="place" v="locality" />
		<tag k="ssr:stedsnr" v="719842" />
	</node>
	<node id="-860358" lat="69.0732027818" lon="17.5165444545">
		<tag k="name" v="Gluntemyra" />
		<tag k="natural" v="wetland" />
		<tag k="ssr:stedsnr" v="355209" />
	</node>
	<node id="-860351" lat="68.9811166699" lon="17.577633323">
		<tag k="name" v="Durmålsmarkmyra" />
		<tag k="natural" v="wetland" />
		<tag k="ssr:stedsnr" v="354316" />
	</node>
	<node id="-860349" lat="69.0146333351" lon="17.557099993">
		<tag k="name" v="Holtan" />
		<tag k="place" v="locality" />
		<tag k="ssr:stedsnr" v="354280" />
	</node>
	<node id="-859836" lat="68.9892666673" lon="17.5776111018">
		<tag k="name" v="Kromholtan" />
		<tag k="place" v="locality" />
		<tag k="ssr:stedsnr" v="719302" />
	</node>
	<node id="-859833" lat="69.0306916654" lon="17.3897694497">
		<tag k="name" v="Trollora" />
		<tag k="natural" v="scree" />
		<tag k="ssr:stedsnr" v="719131" />
	</node>
	<node id="-859831" lat="68.9953027827" lon="17.3714222124">
		<tag k="name" v="Tålesteinen" />
		<tag k="natural" v="stone" />
		<tag k="ssr:stedsnr" v="718821" />
	</node>
	<node id="-859823" lat="69.0391666636" lon="17.9109055483">
		<tag k="name" v="Olderskogen" />
		<tag k="place" v="locality" />
		<tag k="ssr:stedsnr" v="583854" />
	</node>
	<node id="-859822" lat="69.0215527802" lon="17.3555555449">
		<tag k="name" v="Skjellsteinen" />
		<tag k="natural" v="stone" />
		<tag k="ssr:stedsnr" v="583923" />
	</node>
	<node id="-859421" lat="68.9890749976" lon="17.5086472154">
		<tag k="name" v="Framholtet" />
		<tag k="place" v="locality" />
		<tag k="ssr:stedsnr" v="234827" />
	</node>
	<node id="-859813" lat="69.0245416688" lon="17.7430583235">
		<tag k="name" v="Rundjorda" />
		<tag k="place" v="locality" />
		<tag k="ssr:stedsnr" v="706247" />
	</node>
	<node id="-859810" lat="69.0325972255" lon="17.3533444328">
		<tag k="name" v="Kvitsteinan" />
		<tag k="natural" v="stone" />
		<tag k="ssr:stedsnr" v="705918" />
	</node>
	<node id="-860613" lat="69.1127444432" lon="17.8241999877">
		<tag k="name" v="Fjellmyra" />
		<tag k="natural" v="wetland" />
		<tag k="ssr:stedsnr" v="644848" />
	</node>
	<node id="-859801" lat="69.0424083301" lon="17.7723194305">
		<tag k="name" v="Brentemyra" />
		<tag k="natural" v="wetland" />
		<tag k="ssr:stedsnr" v="705567" />
	</node>
	<node id="-860820" lat="68.9925722188" lon="17.5075416695">
		<tag k="name" v="Brennmyra" />
		<tag k="natural" v="wetland" />
		<tag k="ssr:stedsnr" v="961864" />
	</node>
	<node id="-859793" lat="69.0524083303" lon="17.7944805595">
		<tag k="name" v="Stormyra" />
		<tag k="natural" v="wetland" />
		<tag k="ssr:stedsnr" v="704283" />
	</node>
	<node id="-860813" lat="68.9910194429" lon="17.5660110996">
		<tag k="name" v="Kvilesteinen" />
		<tag k="natural" v="stone" />
		<tag k="ssr:stedsnr" v="961301" />
	</node>
	<node id="-860811" lat="68.9551499979" lon="17.54420555">
		<tag k="name" v="Ku-ura" />
		<tag k="natural" v="scree" />
		<tag k="ssr:stedsnr" v="961273" />
	</node>
	<node id="-859784" lat="69.0346111096" lon="17.4464833397">
		<tag k="name" v="Saltsteinen" />
		<tag k="natural" v="stone" />
		<tag k="ssr:stedsnr" v="537166" />
	</node>
	<node id="-860801" lat="69.1022583378" lon="17.7378638863">
		<tag k="alt_name" v="Espenesmyra" />
		<tag k="name" v="Espenesmyran" />
		<tag k="natural" v="wetland" />
		<tag k="ssr:stedsnr" v="868242" />
	</node>
	<node id="-859773" lat="69.0252083306" lon="17.5593583352">
		<tag k="name" v="Langemyra" />
		<tag k="natural" v="wetland" />
		<tag k="ssr:stedsnr" v="523781" />
	</node>
	<node id="-859767" lat="69.115883333" lon="17.7215333299">
		<tag k="name" v="Geitnesmyra" />
		<tag k="natural" v="wetland" />
		<tag k="ssr:stedsnr" v="523157" />
	</node>
	<node id="-859497" lat="69.0993500006" lon="17.7153027746">
		<tag k="name" v="Skjellmyra" />
		<tag k="natural" v="wetland" />
		<tag k="ssr:stedsnr" v="280015" />
	</node>
	<node id="-859762" lat="69.0741222256" lon="17.6953027833">
		<tag k="name" v="Stormyra" />
		<tag k="natural" v="wetland" />
		<tag k="ssr:stedsnr" v="686347" />
	</node>
	<node id="-860783" lat="69.0610638921" lon="17.7458944401">
		<tag k="name" v="Bjørnmyra" />
		<tag k="natural" v="wetland" />
		<tag k="ssr:stedsnr" v="841497" />
	</node>
	<node id="-860782" lat="69.0563472239" lon="17.639455552">
		<tag k="name" v="Rødmyra" />
		<tag k="natural" v="wetland" />
		<tag k="ssr:stedsnr" v="841326" />
	</node>
	<node id="-860269" lat="69.0503666623" lon="17.6749277773">
		<tag k="name" v="Sennevassmyran" />
		<tag k="natural" v="wetland" />
		<tag k="ssr:stedsnr" v="173336" />
	</node>
	<node id="-860434" lat="69.0592999968" lon="17.6546138785">
		<tag k="name" v="Stormyra" />
		<tag k="natural" v="wetland" />
		<tag k="ssr:stedsnr" v="416290" />
	</node>
	<node id="-860775" lat="68.9926250008" lon="17.519347208">
		<tag k="name" v="Peder-Lindura" />
		<tag k="natural" v="scree" />
		<tag k="ssr:stedsnr" v="840845" />
	</node>
	<node id="-860773" lat="68.9916750025" lon="17.4822055464">
		<tag k="name" v="Hamnemyra" />
		<tag k="natural" v="wetland" />
		<tag k="ssr:stedsnr" v="840838" />
	</node>
	<node id="-860258" lat="69.0009638894" lon="17.3965555582">
		<tag k="name" v="Langmyra" />
		<tag k="natural" v="wetland" />
		<tag k="ssr:stedsnr" v="172868" />
	</node>
	<node id="-860261" lat="69.045024996" lon="17.4380972161">
		<tag k="name" v="Skjellmyra" />
		<tag k="natural" v="wetland" />
		<tag k="ssr:stedsnr" v="173119" />
	</node>
	<node id="-860755" lat="69.0443583304" lon="17.6106583176">
		<tag k="name" v="Geitklovmyra" />
		<tag k="natural" v="wetland" />
		<tag k="ssr:stedsnr" v="827799" />
	</node>
	<node id="-859727" lat="68.9970861095" lon="17.4789110992">
		<tag k="name" v="Dorditindan" />
		<tag k="place" v="locality" />
		<tag k="ssr:stedsnr" v="658806" />
	</node>
	<node id="-859725" lat="69.047697221" lon="17.4378888855">
		<tag k="name" v="Svarttjønnholtet" />
		<tag k="place" v="locality" />
		<tag k="ssr:stedsnr" v="658766" />
	</node>
	<node id="-860746" lat="69.0823944475" lon="17.699361118">
		<tag k="name" v="Stormyra" />
		<tag k="natural" v="wetland" />
		<tag k="ssr:stedsnr" v="827247" />
	</node>
	<node id="-860232" lat="69.0526333367" lon="17.8136222232">
		<tag k="name" v="Jo-Persamyra" />
		<tag k="natural" v="wetland" />
		<tag k="ssr:stedsnr" v="158311" />
	</node>
	<node id="-860743" lat="69.1192194469" lon="17.7119083216">
		<tag k="name" v="Karonskogen" />
		<tag k="place" v="locality" />
		<tag k="ssr:stedsnr" v="827139" />
	</node>
	<node id="-859714" lat="69.0428194433" lon="17.4625138854">
		<tag k="name" v="Småskogan" />
		<tag k="place" v="locality" />
		<tag k="ssr:stedsnr" v="658170" />
	</node>
	<node id="-859713" lat="69.0314499989" lon="17.3698861122">
		<tag k="name" v="Bergsholtan" />
		<tag k="place" v="locality" />
		<tag k="ssr:stedsnr" v="658156" />
	</node>
	<node id="-860239" lat="69.0382638881" lon="17.8195527696">
		<tag k="name" v="Rotmyra" />
		<tag k="natural" v="wetland" />
		<tag k="ssr:stedsnr" v="159546" />
	</node>
	<node id="-860728" lat="68.9813638911" lon="17.5864222328">
		<tag k="name" v="Durmålsmarka" />
		<tag k="place" v="locality" />
		<tag k="ssr:stedsnr" v="807885" />
	</node>
	<node id="-860705" lat="68.9365249993" lon="17.4866583338">
		<tag k="name" v="Melkehella" />
		<tag k="natural" v="stone" />
		<tag k="ssr:stedsnr" v="780878" />
	</node>
	<node id="-860677" lat="69.1243388927" lon="17.8520249874">
		<tag k="name" v="Labbemyra" />
		<tag k="natural" v="wetland" />
		<tag k="ssr:stedsnr" v="779766" />
	</node>
	<node id="-860699" lat="69.0222805569" lon="17.4125861107">
		<tag k="name" v="Dagmyrskogen" />
		<tag k="place" v="locality" />
		<tag k="ssr:stedsnr" v="780852" />
	</node>
	<node id="-860698" lat="69.0177166683" lon="17.3916277877">
		<tag k="name" v="Kvitholtet" />
		<tag k="place" v="locality" />
		<tag k="ssr:stedsnr" v="780847" />
	</node>
	<node id="-860184" lat="68.9660194473" lon="17.5692250029">
		<tag k="name" v="Storura" />
		<tag k="natural" v="scree" />
		<tag k="ssr:stedsnr" v="112245" />
	</node>
	<node id="-860183" lat="69.074702779" lon="17.4809305551">
		<tag k="name" v="Reinmyra" />
		<tag k="natural" v="wetland" />
		<tag k="ssr:stedsnr" v="112206" />
	</node>
	<node id="-860694" lat="69.0526888925" lon="17.6386638859">
		<tag k="name" v="Hågmyra" />
		<tag k="natural" v="wetland" />
		<tag k="ssr:stedsnr" v="780307" />
	</node>
	<node id="-860690" lat="69.0789444458" lon="17.5227916544">
		<tag k="name" v="Ramnesteinen" />
		<tag k="natural" v="stone" />
		<tag k="ssr:stedsnr" v="780198" />
	</node>
	<node id="-860684" lat="69.0426944476" lon="17.4409833335">
		<tag k="name" v="Eienmyra" />
		<tag k="natural" v="wetland" />
		<tag k="ssr:stedsnr" v="780143" />
	</node>
	<node id="-860680" lat="68.9996416633" lon="17.4122472079">
		<tag k="name" v="Langstrandskogen" />
		<tag k="place" v="locality" />
		<tag k="ssr:stedsnr" v="779823" />
	</node>
	<node id="-859655" lat="69.0492583374" lon="17.6247083309">
		<tag k="name" v="Nesmyra" />
		<tag k="natural" v="wetland" />
		<tag k="ssr:stedsnr" v="476318" />
	</node>
	<node id="-859653" lat="69.0634361075" lon="17.6679138945">
		<tag k="name" v="Vedheggmyra" />
		<tag k="natural" v="wetland" />
		<tag k="ssr:stedsnr" v="476314" />
	</node>
	<node id="-859649" lat="69.0150527769" lon="17.5476083401">
		<tag k="name" v="Gårdsmyra" />
		<tag k="natural" v="wetland" />
		<tag k="ssr:stedsnr" v="476247" />
	</node>
</osm>
