<?xml version="1.0" encoding="UTF-8"?>
<<<<<<< HEAD
<osm version="0.6" generator="osmapis">
	<node lat="69.04691111210671" lon="17.81336666856416" id="-48842">
		<tag k="name" v="Hønsneset" />
		<tag k="natural" v="cape" />
		<tag k="ssr:stedsnr" v="37280" />
	</node>
	<node lat="69.03188610921205" lon="17.462369441836852" id="-48854">
		<tag k="name" v="Forselva" />
		<tag k="ssr:stedsnr" v="52170" />
		<tag k="waterway" v="stream" />
	</node>
	<node lat="69.05400000219835" lon="17.687663885742293" id="-48858">
		<tag k="name" v="Litjetrollvatnet" />
=======
<osm generator="osmapis" version="0.6">
	<node id="-868744" lat="69.011744445" lon="17.5833583394">
		<tag k="name" v="Styggvatnet" />
		<tag k="natural" v="water" />
		<tag k="ssr:stedsnr" v="320633" />
	</node>
	<node id="-868341" lat="69.0216083342" lon="17.7346499864">
		<tag k="name" v="Rubbåsvatnet" />
>>>>>>> e1d4bc35ff8a6074a6f2e91616a996b547c36f15
		<tag k="natural" v="water" />
		<tag k="ssr:stedsnr" v="52574" />
	</node>
<<<<<<< HEAD
	<node lat="69.03003610935713" lon="17.601588873913663" id="-48866">
		<tag k="name" v="Blåfjellvatnet" />
		<tag k="natural" v="water" />
		<tag k="ssr:stedsnr" v="79595" />
	</node>
	<node lat="69.08324166747181" lon="17.71325556042986" id="-48876">
		<tag k="name" v="Olderneset" />
=======
	<node id="-868339" lat="69.0358666677" lon="17.7354972237">
		<tag k="name" v="Skjellneset" />
>>>>>>> e1d4bc35ff8a6074a6f2e91616a996b547c36f15
		<tag k="natural" v="cape" />
		<tag k="ssr:stedsnr" v="98180" />
	</node>
<<<<<<< HEAD
	<node lat="69.03203333795125" lon="17.91446943411491" id="-48880">
		<tag k="name" v="Jonhaugneset" />
		<tag k="natural" v="cape" />
		<tag k="ssr:stedsnr" v="98780" />
	</node>
	<node lat="69.0277527761634" lon="17.69414720790786" id="-48882">
		<tag k="name" v="Mellavatnet" />
=======
	<node id="-868338" lat="69.0304805522" lon="17.6901472228">
		<tag k="name" v="Litjevatnet" />
>>>>>>> e1d4bc35ff8a6074a6f2e91616a996b547c36f15
		<tag k="natural" v="water" />
		<tag k="ssr:stedsnr" v="99264" />
	</node>
<<<<<<< HEAD
	<node lat="69.04593610929103" lon="17.73713055124444" id="-48888">
		<tag k="name" v="Elveneset" />
		<tag k="natural" v="cape" />
		<tag k="ssr:stedsnr" v="112617" />
	</node>
	<node lat="69.12513611014622" lon="17.880622209958556" id="-48894">
		<tag k="name" v="Heimerelva" />
		<tag k="ssr:stedsnr" v="112779" />
		<tag k="waterway" v="stream" />
	</node>
	<node lat="68.95508611441204" lon="17.52552778690466" id="-48900">
		<tag k="name" v="Kvanntoelva" />
		<tag k="ssr:stedsnr" v="112874" />
		<tag k="waterway" v="stream" />
	</node>
	<node lat="69.01172222527047" lon="17.384644433426846" id="-48906">
=======
	<node id="-868335" lat="69.0656805516" lon="17.4195444384">
		<tag k="name" v="Stenget" />
		<tag k="natural" v="bay" />
		<tag k="ssr:stedsnr" v="887795" />
	</node>
	<node id="-868539" lat="69.0469111121" lon="17.8133666686">
		<tag k="name" v="Hønsneset" />
		<tag k="natural" v="cape" />
		<tag k="ssr:stedsnr" v="37280" />
	</node>
	<node id="-867817" lat="69.1128611073" lon="17.7298333209">
		<tag k="name" v="Tverrelva" />
		<tag k="ssr:stedsnr" v="38153" />
		<tag k="waterway" v="stream" />
	</node>
	<node id="-868838" lat="69.0711805587" lon="17.7267749937">
		<tag k="name" v="Støytfossen" />
		<tag k="natural" v="waterfall" />
		<tag k="ssr:stedsnr" v="382349" />
	</node>
	<node id="-868322" lat="69.0430749969" lon="17.4428527663">
>>>>>>> e1d4bc35ff8a6074a6f2e91616a996b547c36f15
		<tag k="fixme" v="multiple name tags, choose one and add the other to alt_name" />
		<tag k="name" v="Tverrdalselva;Tverrelva" />
		<tag k="ssr:stedsnr" v="139089" />
		<tag k="waterway" v="stream" />
	</node>
<<<<<<< HEAD
	<node lat="69.09779722442042" lon="17.901733343009095" id="-48909">
		<tag k="name" v="Blåvatnan" />
		<tag k="natural" v="water" />
		<tag k="ssr:stedsnr" v="141240" />
	</node>
	<node lat="69.05540000280362" lon="17.7290527818128" id="-48924">
		<tag k="name" v="Hans-Monsabekken" />
		<tag k="ssr:stedsnr" v="173474" />
		<tag k="waterway" v="stream" />
	</node>
	<node lat="69.03076110811372" lon="17.65601388634891" id="-48940">
		<tag k="name" v="Godvarlevatnet" />
=======
	<node id="-868321" lat="69.0195694455" lon="17.813216676">
		<tag k="name" v="Rundfjellvatnet" />
		<tag k="natural" v="water" />
		<tag k="ssr:stedsnr" v="685623" />
	</node>
	<node id="-868320" lat="68.9897611113" lon="18.0233499858">
		<tag k="name" v="Steinfjellvatnet" />
		<tag k="natural" v="water" />
		<tag k="ssr:stedsnr" v="685615" />
	</node>
	<node id="-868829" lat="68.979808337" lon="17.9939499864">
		<tag k="name" v="Langvatnet" />
>>>>>>> e1d4bc35ff8a6074a6f2e91616a996b547c36f15
		<tag k="natural" v="water" />
		<tag k="ssr:stedsnr" v="201592" />
	</node>
<<<<<<< HEAD
	<node lat="69.03001666814033" lon="17.685305564273577" id="-48946">
		<tag k="name" v="Djupelva" />
		<tag k="ssr:stedsnr" v="220312" />
		<tag k="waterway" v="river" />
	</node>
	<node lat="69.06486666876002" lon="17.70430555647566" id="-48951">
=======
	<node id="-867802" lat="69.0648666688" lon="17.7043055565">
>>>>>>> e1d4bc35ff8a6074a6f2e91616a996b547c36f15
		<tag k="name" v="Salangsbekken" />
		<tag k="ssr:stedsnr" v="221480" />
		<tag k="waterway" v="stream" />
	</node>
<<<<<<< HEAD
	<node lat="69.01633611272639" lon="17.900491669085437" id="-48992">
		<tag k="name" v="Sennaloken" />
=======
	<node id="-868687" lat="69.0554000028" lon="17.7290527818">
		<tag k="name" v="Hans-Monsabekken" />
		<tag k="ssr:stedsnr" v="173474" />
		<tag k="waterway" v="stream" />
	</node>
	<node id="-867800" lat="69.0076777795" lon="17.9692527651">
		<tag k="name" v="Kroken" />
>>>>>>> e1d4bc35ff8a6074a6f2e91616a996b547c36f15
		<tag k="natural" v="bay" />
		<tag k="ssr:stedsnr" v="280827" />
	</node>
<<<<<<< HEAD
	<node lat="69.0209416681377" lon="17.893483341738" id="-49008">
		<tag k="name" v="Hans-skjæret" />
		<tag k="place" v="islet" />
		<tag k="ssr:stedsnr" v="462838" />
	</node>
	<node lat="69.02965833426057" lon="17.741441654247733" id="-49021">
		<tag k="name" v="Sævan" />
		<tag k="natural" v="water" />
		<tag k="ssr:stedsnr" v="463247" />
		<tag k="water" v="pond" />
	</node>
	<node lat="69.01954166205059" lon="17.70876944769134" id="-49022">
		<tag k="name" v="Bjørnmyrelva" />
		<tag k="ssr:stedsnr" v="463487" />
		<tag k="waterway" v="stream" />
	</node>
	<node lat="69.11630278132111" lon="17.834722221171504" id="-49027">
		<tag k="name" v="Ramfløyelva" />
		<tag k="ssr:stedsnr" v="463839" />
		<tag k="waterway" v="stream" />
	</node>
	<node lat="69.01174444495838" lon="17.583358339365937" id="-49032">
		<tag k="name" v="Styggvatnet" />
		<tag k="natural" v="water" />
		<tag k="ssr:stedsnr" v="320633" />
	</node>
	<node lat="69.03628333137003" lon="17.837772221788224" id="-49033">
		<tag k="alt_name" v="Langneset" />
		<tag k="name" v="Langodden" />
		<tag k="natural" v="cape" />
		<tag k="ssr:stedsnr" v="321094" />
	</node>
	<node lat="69.04785833536032" lon="17.814591659183943" id="-49035">
		<tag k="name" v="Mevatnet" />
		<tag k="natural" v="water" />
		<tag k="ssr:stedsnr" v="322305" />
	</node>
	<node lat="69.05328332989653" lon="17.620374996639452" id="-49127">
		<tag k="name" v="Årsandelva" />
		<tag k="ssr:stedsnr" v="476369" />
		<tag k="waterway" v="stream" />
	</node>
	<node lat="68.99034999920373" lon="17.511391667253644" id="-49133">
		<tag k="name" v="Kastneselva" />
		<tag k="ssr:stedsnr" v="503970" />
		<tag k="waterway" v="river" />
	</node>
	<node lat="69.0330361080688" lon="17.83765554458019" id="-49140">
		<tag k="name" v="Ørretholmen" />
		<tag k="place" v="islet" />
		<tag k="ssr:stedsnr" v="523564" />
	</node>
	<node lat="68.9897611112558" lon="18.02334998579685" id="-49153">
		<tag k="name" v="Steinfjellvatnet" />
		<tag k="natural" v="water" />
		<tag k="ssr:stedsnr" v="685615" />
	</node>
	<node lat="69.01956944551547" lon="17.813216675968185" id="-49154">
		<tag k="name" v="Rundfjellvatnet" />
		<tag k="natural" v="water" />
		<tag k="ssr:stedsnr" v="685623" />
	</node>
	<node lat="69.0383694492339" lon="17.827288878407042" id="-49158">
		<tag k="alt_name" v="Litlevatnet" />
		<tag k="name" v="Litjevatnet" />
=======
	<node id="-868306" lat="69.049511107" lon="17.4582972277">
		<tag k="name" v="Tverrelva" />
		<tag k="ssr:stedsnr" v="658133" />
		<tag k="waterway" v="stream" />
	</node>
	<node id="-867793" lat="69.0391888872" lon="17.8400305506">
		<tag k="name" v="Vassenden" />
		<tag k="natural" v="bay" />
		<tag k="ssr:stedsnr" v="220550" />
	</node>
	<node id="-867792" lat="69.0332777819" lon="17.8305916716">
		<tag k="name" v="Rundfjellbukta" />
		<tag k="natural" v="bay" />
		<tag k="ssr:stedsnr" v="220546" />
	</node>
	<node id="-867791" lat="69.037747223" lon="17.8365833427">
		<tag k="name" v="Skjæran" />
		<tag k="place" v="islet" />
		<tag k="ssr:stedsnr" v="220543" />
	</node>
	<node id="-868302" lat="69.0352527754" lon="17.9282694477">
		<tag k="name" v="Skjellelva" />
		<tag k="ssr:stedsnr" v="658055" />
		<tag k="waterway" v="stream" />
	</node>
	<node id="-867789" lat="69.03502778" lon="17.732336104">
		<tag k="name" v="Henrikelva" />
		<tag k="ssr:stedsnr" v="220319" />
		<tag k="waterway" v="stream" />
	</node>
	<node id="-867788" lat="69.0300166681" lon="17.6853055643">
		<tag k="name" v="Djupelva" />
		<tag k="ssr:stedsnr" v="220312" />
		<tag k="waterway" v="river" />
	</node>
	<node id="-867787" lat="69.0800888909" lon="17.7095000067">
		<tag k="name" v="Gammelbrufossen" />
		<tag k="natural" v="waterfall" />
		<tag k="ssr:stedsnr" v="220269" />
	</node>
	<node id="-868296" lat="69.0335472193" lon="17.6441833277">
		<tag k="name" v="Sætervatnet" />
		<tag k="natural" v="water" />
		<tag k="ssr:stedsnr" v="625620" />
	</node>
	<node id="-868806" lat="69.0623000019" lon="17.7539305614">
		<tag k="name" v="Pålelva" />
		<tag k="ssr:stedsnr" v="355472" />
		<tag k="waterway" v="stream" />
	</node>
	<node id="-868805" lat="69.0356305582" lon="17.8386166611">
		<tag k="name" v="Spiskammersdøra" />
		<tag k="place" v="islet" />
		<tag k="ssr:stedsnr" v="355437" />
	</node>
	<node id="-868285" lat="69.1195000029" lon="17.8879805661">
		<tag k="name" v="Rundvatnan" />
>>>>>>> e1d4bc35ff8a6074a6f2e91616a996b547c36f15
		<tag k="natural" v="water" />
		<tag k="ssr:stedsnr" v="686297" />
	</node>
<<<<<<< HEAD
	<node lat="69.04307499693456" lon="17.442852766332994" id="-49159">
		<tag k="fixme" v="multiple name tags, choose one and add the other to alt_name" />
		<tag k="name" v="Forsåelva;Halselva" />
		<tag k="ssr:stedsnr" v="686311" />
		<tag k="waterway" v="stream" />
	</node>
	<node lat="69.05334722166022" lon="17.860119443518833" id="-49162">
		<tag k="alt_name" v="Lappeteltvatnet" />
		<tag k="name" v="Lappteltvatnet" />
		<tag k="natural" v="water" />
		<tag k="ssr:stedsnr" v="686338" />
	</node>
	<node lat="69.05637500257382" lon="17.773533340667733" id="-49179">
		<tag k="name" v="Litjeelva" />
		<tag k="ssr:stedsnr" v="537576" />
		<tag k="waterway" v="stream" />
	</node>
	<node lat="69.07720833625329" lon="17.48522500811044" id="-49184">
		<tag k="fixme" v="multiple name tags, choose one and add the other to alt_name" />
		<tag k="name" v="Skogshamnelva;Reinmyrelva" />
		<tag k="ssr:stedsnr" v="564369" />
		<tag k="waterway" v="stream" />
	</node>
	<node lat="69.03967777499595" lon="17.83384998576693" id="-49188">
=======
	<node id="-868789" lat="69.0225749969" lon="17.541994441">
		<tag k="name" v="Kvalelva" />
		<tag k="ssr:stedsnr" v="354278" />
		<tag k="waterway" v="stream" />
	</node>
	<node id="-868784" lat="69.0415416638" lon="17.8551027614">
		<tag k="name" v="Skjellbekken" />
		<tag k="ssr:stedsnr" v="341883" />
		<tag k="waterway" v="stream" />
	</node>
	<node id="-868780" lat="69.0371194403" lon="17.6668222289">
		<tag k="name" v="Finnskarelva" />
		<tag k="ssr:stedsnr" v="341796" />
		<tag k="waterway" v="stream" />
	</node>
	<node id="-868262" lat="69.039677775" lon="17.8338499858">
>>>>>>> e1d4bc35ff8a6074a6f2e91616a996b547c36f15
		<tag k="name" v="Tjønna" />
		<tag k="natural" v="water" />
		<tag k="ssr:stedsnr" v="583505" />
	</node>
<<<<<<< HEAD
	<node lat="69.00956388735948" lon="17.89694444977429" id="-49189">
		<tag k="name" v="Hollelva" />
		<tag k="ssr:stedsnr" v="583840" />
		<tag k="waterway" v="stream" />
	</node>
	<node lat="69.0479694460211" lon="17.727802780586128" id="-49199">
		<tag k="name" v="Labekken" />
		<tag k="ssr:stedsnr" v="597618" />
		<tag k="waterway" v="stream" />
	</node>
	<node lat="69.07470833437635" lon="17.782683339316794" id="-49217">
		<tag k="name" v="Ettvasselva" />
		<tag k="ssr:stedsnr" v="705180" />
		<tag k="waterway" v="stream" />
	</node>
	<node lat="69.06285278143648" lon="17.438538875902257" id="-49227">
=======
	<node id="-868770" lat="69.0583416649" lon="17.8256472079">
		<tag k="name" v="Tverrelva" />
		<tag k="ssr:stedsnr" v="340305" />
		<tag k="waterway" v="stream" />
	</node>
	<node id="-869099" lat="69.0087305587" lon="17.98153611">
		<tag k="name" v="Sandelva" />
		<tag k="ssr:stedsnr" v="765857" />
		<tag k="waterway" v="stream" />
	</node>
	<node id="-868761" lat="69.0548916649" lon="17.7401305642">
		<tag k="name" v="Blindfinnvatnet" />
		<tag k="natural" v="water" />
		<tag k="ssr:stedsnr" v="322325" />
	</node>
	<node id="-868759" lat="69.0480333322" lon="17.6407638871">
		<tag k="name" v="Hundstrandelva" />
		<tag k="ssr:stedsnr" v="322320" />
		<tag k="waterway" v="river" />
	</node>
	<node id="-868246" lat="69.0628527814" lon="17.4385388759">
>>>>>>> e1d4bc35ff8a6074a6f2e91616a996b547c36f15
		<tag k="name" v="Kalvøya" />
		<tag k="natural" v="cape" />
		<tag k="ssr:stedsnr" v="705839" />
	</node>
<<<<<<< HEAD
	<node lat="69.05290555660162" lon="17.784808322828734" id="-49232">
		<tag k="name" v="Stillelva" />
		<tag k="ssr:stedsnr" v="643281" />
		<tag k="waterway" v="stream" />
	</node>
	<node lat="69.04748889151679" lon="17.816325003219436" id="-49233">
		<tag k="name" v="Andneset" />
=======
	<node id="-868244" lat="69.0318444442" lon="17.8471749954">
		<tag k="name" v="Båegrunnen" />
		<tag k="natural" v="shoal" />
		<tag k="place" v="locality" />
		<tag k="ssr:stedsnr" v="705821" />
	</node>
	<node id="-869267" lat="69.0342361097" lon="17.4129888802">
		<tag k="name" v="Sandneset" />
>>>>>>> e1d4bc35ff8a6074a6f2e91616a996b547c36f15
		<tag k="natural" v="cape" />
		<tag k="ssr:stedsnr" v="643282" />
	</node>
<<<<<<< HEAD
	<node lat="69.03818889132752" lon="17.834836112243625" id="-49244">
		<tag k="name" v="Sandbukta" />
=======
	<node id="-869262" lat="69.0394083287" lon="17.932202781">
		<tag k="name" v="Lappvika" />
>>>>>>> e1d4bc35ff8a6074a6f2e91616a996b547c36f15
		<tag k="natural" v="bay" />
		<tag k="ssr:stedsnr" v="644531" />
	</node>
	<node lat="69.01285000110879" lon="17.71816111438845" id="-49249">
		<tag k="name" v="Elveneset" />
		<tag k="natural" v="cape" />
		<tag k="ssr:stedsnr" v="645479" />
	</node>
<<<<<<< HEAD
	<node lat="69.04951110696726" lon="17.458297227689368" id="-49252">
=======
	<node id="-868237" lat="69.0880222263" lon="17.8111110995">
>>>>>>> e1d4bc35ff8a6074a6f2e91616a996b547c36f15
		<tag k="name" v="Tverrelva" />
		<tag k="ssr:stedsnr" v="658133" />
		<tag k="waterway" v="stream" />
	</node>
<<<<<<< HEAD
	<node lat="69.00491666637889" lon="17.368233341784414" id="-49262">
		<tag k="name" v="Gommelva" />
		<tag k="ssr:stedsnr" v="658811" />
		<tag k="waterway" v="stream" />
	</node>
	<node lat="69.08802222633523" lon="17.811111099498376" id="-49268">
		<tag k="name" v="Tverrelva" />
		<tag k="ssr:stedsnr" v="705219" />
		<tag k="waterway" v="stream" />
	</node>
	<node lat="69.03184444424116" lon="17.847174995390233" id="-49269">
		<tag k="name" v="Båegrunnen" />
		<tag k="natural" v="shoal" />
		<tag k="place" v="locality" />
		<tag k="ssr:stedsnr" v="705821" />
	</node>
	<node lat="69.05506388548994" lon="17.73392776140374" id="-49282">
		<tag k="name" v="Mølnefossen" />
		<tag k="natural" v="waterfall" />
		<tag k="ssr:stedsnr" v="719578" />
	</node>
	<node lat="69.05993610999296" lon="17.486941675993517" id="-49289">
		<tag k="name" v="Klubbetrollvatnet" />
=======
	<node id="-868235" lat="69.0747083344" lon="17.7826833393">
		<tag k="name" v="Ettvasselva" />
		<tag k="ssr:stedsnr" v="705180" />
		<tag k="waterway" v="stream" />
	</node>
	<node id="-868746" lat="69.1084111094" lon="17.6939222162">
		<tag k="fixme" v="multiple name tags, choose one and add the other to alt_name" />
		<tag k="name" v="Litjevatnet;Trollvatnet" />
		<tag k="natural" v="water" />
		<tag k="ssr:stedsnr" v="321250" />
	</node>
	<node id="-868745" lat="69.0362833314" lon="17.8377722218">
		<tag k="alt_name" v="Langneset" />
		<tag k="name" v="Langodden" />
		<tag k="natural" v="cape" />
		<tag k="ssr:stedsnr" v="321094" />
	</node>
	<node id="-869256" lat="69.1230361143" lon="17.8611916573">
		<tag k="name" v="Gårdselva" />
		<tag k="ssr:stedsnr" v="961791" />
		<tag k="waterway" v="stream" />
	</node>
	<node id="-868417" lat="68.9784166706" lon="17.9722277737">
		<tag k="name" v="Mølnvatnan" />
		<tag k="natural" v="water" />
		<tag k="ssr:stedsnr" v="807903" />
		<tag k="water" v="lake" />
	</node>
	<node id="-868228" lat="69.0563750026" lon="17.7735333407">
		<tag k="name" v="Litjeelva" />
		<tag k="ssr:stedsnr" v="537576" />
		<tag k="waterway" v="stream" />
	</node>
	<node id="-868758" lat="69.0478583354" lon="17.8145916592">
		<tag k="name" v="Mevatnet" />
		<tag k="natural" v="water" />
		<tag k="ssr:stedsnr" v="322305" />
	</node>
	<node id="-869249" lat="69.0251388885" lon="17.7371944512">
		<tag k="name" v="Trollbakkvatnet" />
>>>>>>> e1d4bc35ff8a6074a6f2e91616a996b547c36f15
		<tag k="natural" v="water" />
		<tag k="ssr:stedsnr" v="901772" />
	</node>
<<<<<<< HEAD
	<node lat="69.05605833497638" lon="17.725447214519928" id="-49303">
		<tag k="name" v="Stuggetjønna" />
=======
	<node id="-868735" lat="69.0758749976" lon="17.5185305403">
		<tag k="alt_name" v="Storlomtjørna" />
		<tag k="name" v="Storlomtjønna" />
>>>>>>> e1d4bc35ff8a6074a6f2e91616a996b547c36f15
		<tag k="natural" v="water" />
		<tag k="ssr:stedsnr" v="901537" />
	</node>
<<<<<<< HEAD
	<node lat="69.12720833343406" lon="17.875305561152125" id="-49308">
		<tag k="name" v="Mølnefossen" />
=======
	<node id="-869241" lat="69.0851722191" lon="17.7149777821">
		<tag k="alt_name" v="Simofossen" />
		<tag k="name" v="Simafossen" />
>>>>>>> e1d4bc35ff8a6074a6f2e91616a996b547c36f15
		<tag k="natural" v="waterfall" />
		<tag k="ssr:stedsnr" v="901785" />
	</node>
<<<<<<< HEAD
	<node lat="69.03822500075073" lon="17.685572228910292" id="-49320">
		<tag k="name" v="Tverrelva" />
		<tag k="ssr:stedsnr" v="746112" />
		<tag k="waterway" v="stream" />
	</node>
	<node lat="68.96603610940659" lon="17.585591667190755" id="-49325">
		<tag k="name" v="Pålsfjordelva" />
		<tag k="ssr:stedsnr" v="746870" />
		<tag k="waterway" v="stream" />
	</node>
	<node lat="68.99784722401822" lon="17.8157750000679" id="-49327">
		<tag k="name" v="Salangseidet - Rásseloháidi" />
		<tag k="name:no" v="Salangseidet" />
		<tag k="name:se" v="Rásseloháidi" />
		<tag k="place" v="locality" />
		<tag k="ssr:stedsnr" v="746969" />
	</node>
	<node lat="69.05090833004299" lon="17.81701388629451" id="-49331">
		<tag k="name" v="Sagelva" />
		<tag k="ssr:stedsnr" v="766293" />
		<tag k="waterway" v="stream" />
	</node>
	<node lat="69.02223889244036" lon="17.904402775383037" id="-49333">
		<tag k="name" v="Litjeneset" />
		<tag k="natural" v="cape" />
		<tag k="ssr:stedsnr" v="766800" />
	</node>
	<node lat="69.1251373855976" lon="17.82876882966214" id="-49336">
		<tag k="name" v="Blomsterbekken" />
		<tag k="ssr:stedsnr" v="766846" />
		<tag k="waterway" v="stream" />
	</node>
	<node lat="69.09226944714891" lon="17.701005564334046" id="-49357">
		<tag k="name" v="Litjelva" />
		<tag k="ssr:stedsnr" v="826214" />
		<tag k="waterway" v="stream" />
	</node>
	<node lat="69.04469166305682" lon="17.807438882007254" id="-49362">
		<tag k="name" v="Mevassdalelva" />
		<tag k="ssr:stedsnr" v="827321" />
		<tag k="waterway" v="stream" />
	</node>
	<node lat="69.00934722566" lon="17.926133320796648" id="-49365">
		<tag k="name" v="Lahollelva" />
		<tag k="ssr:stedsnr" v="827862" />
		<tag k="waterway" v="stream" />
	</node>
	<node lat="69.01547499954214" lon="17.880841668365495" id="-49366">
=======
	<node id="-868215" lat="69.0418833345" lon="17.6003611103">
		<tag k="name" v="Bogelva" />
		<tag k="ssr:stedsnr" v="523783" />
		<tag k="waterway" v="stream" />
	</node>
	<node id="-868724" lat="69.0297222222" lon="17.4063527709">
		<tag k="alt_name" v="Vinjevatnet, l" />
		<tag k="name" v="Litje Vinjevatnet" />
		<tag k="natural" v="water" />
		<tag k="ssr:stedsnr" v="200079" />
	</node>
	<node id="-868158" lat="69.0333750009" lon="17.4083638905">
		<tag k="name" v="Bergsvatnet" />
		<tag k="natural" v="water" />
		<tag k="ssr:stedsnr" v="443115" />
	</node>
	<node id="-868201" lat="69.0533472217" lon="17.8601194435">
		<tag k="alt_name" v="Lappeteltvatnet" />
		<tag k="name" v="Lappteltvatnet" />
		<tag k="natural" v="water" />
		<tag k="ssr:stedsnr" v="686338" />
	</node>
	<node id="-868198" lat="69.0383694492" lon="17.8272888784">
		<tag k="alt_name" v="Litlevatnet" />
		<tag k="name" v="Litjevatnet" />
		<tag k="natural" v="water" />
		<tag k="ssr:stedsnr" v="686297" />
	</node>
	<node id="-868708" lat="69.0776972221" lon="17.5065833431">
		<tag k="name" v="Vaelva" />
		<tag k="ssr:stedsnr" v="173190" />
		<tag k="waterway" v="stream" />
	</node>
	<node id="-869218" lat="69.0387972215" lon="17.4760555572">
		<tag k="name" v="Gårdselva" />
		<tag k="ssr:stedsnr" v="841181" />
		<tag k="waterway" v="stream" />
	</node>
	<node id="-868667" lat="69.0977972244" lon="17.901733343">
		<tag k="name" v="Blåvatnan" />
		<tag k="natural" v="water" />
		<tag k="ssr:stedsnr" v="141240" />
	</node>
	<node id="-868704" lat="69.0401555601" lon="17.4674833256">
		<tag k="name" v="Lomtjønna" />
		<tag k="natural" v="water" />
		<tag k="ssr:stedsnr" v="173149" />
	</node>
	<node id="-868181" lat="69.0532833299" lon="17.6203749966">
		<tag k="name" v="Årsandelva" />
		<tag k="ssr:stedsnr" v="476369" />
		<tag k="waterway" v="stream" />
	</node>
	<node id="-869201" lat="69.1222472192" lon="17.8144055625">
		<tag k="name" v="Bogelva" />
		<tag k="ssr:stedsnr" v="827870" />
		<tag k="waterway" v="stream" />
	</node>
	<node id="-869200" lat="69.0154749995" lon="17.8808416684">
>>>>>>> e1d4bc35ff8a6074a6f2e91616a996b547c36f15
		<tag k="name" v="Johannesneset" />
		<tag k="natural" v="cape" />
		<tag k="ssr:stedsnr" v="827864" />
	</node>
<<<<<<< HEAD
	<node lat="69.12224721918825" lon="17.8144055625239" id="-49367">
		<tag k="name" v="Bogelva" />
		<tag k="ssr:stedsnr" v="827870" />
		<tag k="waterway" v="stream" />
	</node>
	<node lat="68.99846388949047" lon="17.60826944344471" id="-49394">
		<tag k="name" v="Geitfjellvatnet" />
		<tag k="natural" v="water" />
		<tag k="ssr:stedsnr" v="928996" />
	</node>
	<node lat="68.9944805556594" lon="17.61386110311883" id="-49395">
		<tag k="name" v="Elveskardvatnet" />
		<tag k="natural" v="water" />
		<tag k="ssr:stedsnr" v="928997" />
	</node>
	<node lat="69.0619805549683" lon="17.459319449996197" id="-49398">
		<tag k="name" v="Fiskevatnet" />
		<tag k="natural" v="water" />
		<tag k="ssr:stedsnr" v="929335" />
	</node>
	<node lat="69.08517221909123" lon="17.71497778213062" id="-49404">
		<tag k="alt_name" v="Simofossen" />
		<tag k="name" v="Simafossen" />
		<tag k="natural" v="waterfall" />
		<tag k="ssr:stedsnr" v="868224" />
	</node>
	<node lat="69.02513888851686" lon="17.737194451223843" id="-49405">
		<tag k="name" v="Trollbakkvatnet" />
		<tag k="natural" v="water" />
		<tag k="ssr:stedsnr" v="868607" />
	</node>
	<node lat="69.06568055157983" lon="17.419544438388545" id="-49414">
		<tag k="name" v="Stenget" />
		<tag k="natural" v="bay" />
		<tag k="ssr:stedsnr" v="887795" />
	</node>
	<node lat="69.131875000065" lon="17.906424997734298" id="-49425">
		<tag k="name" v="Lavikelva" />
		<tag k="ssr:stedsnr" v="900116" />
		<tag k="waterway" v="stream" />
	</node>
	<node lat="68.92188055382603" lon="17.491988891077344" id="-49436">
		<tag k="fixme" v="multiple name tags, choose one and add the other to alt_name" />
		<tag k="name" v="Øvervatnet;Slåttevatnet" />
=======
	<node id="-869199" lat="69.0093472257" lon="17.9261333208">
		<tag k="name" v="Lahollelva" />
		<tag k="ssr:stedsnr" v="827862" />
		<tag k="waterway" v="stream" />
	</node>
	<node id="-869198" lat="69.0217777762" lon="17.9050666515">
		<tag k="name" v="Halsen" />
		<tag k="natural" v="strait" />
		<tag k="ssr:stedsnr" v="827861" />
	</node>
	<node id="-868169" lat="69.0049166664" lon="17.3682333418">
		<tag k="name" v="Gommelva" />
		<tag k="ssr:stedsnr" v="658811" />
		<tag k="waterway" v="stream" />
	</node>
	<node id="-868679" lat="69.1071527786" lon="17.6778472207">
		<tag k="name" v="Trollvatnet" />
>>>>>>> e1d4bc35ff8a6074a6f2e91616a996b547c36f15
		<tag k="natural" v="water" />
		<tag k="ssr:stedsnr" v="928816" />
	</node>
<<<<<<< HEAD
	<node lat="69.12303611428023" lon="17.86119165725395" id="-49443">
		<tag k="name" v="Gårdselva" />
		<tag k="ssr:stedsnr" v="961791" />
		<tag k="waterway" v="stream" />
	</node>
	<node lat="69.03940832872324" lon="17.932202781007348" id="-49444">
		<tag k="name" v="Lappvika" />
		<tag k="natural" v="bay" />
		<tag k="ssr:stedsnr" v="962052" />
	</node>
	<node lat="69.03423610974399" lon="17.412988880213458" id="-49448">
		<tag k="name" v="Sandneset" />
		<tag k="natural" v="cape" />
		<tag k="ssr:stedsnr" v="962142" />
	</node>
	<node lat="69.00838055906009" lon="17.628877770401193" id="-49464">
		<tag k="name" v="Kuskardvatnet" />
		<tag k="natural" v="water" />
		<tag k="ssr:stedsnr" v="17687" />
	</node>
	<node lat="68.961975003561" lon="17.585355562416513" id="-49471">
		<tag k="fixme" v="multiple name tags, choose one and add the other to alt_name" />
		<tag k="name" v="Litlevatnet;Nervatnet" />
		<tag k="natural" v="water" />
		<tag k="ssr:stedsnr" v="18848" />
	</node>
	<node lat="68.95858888693496" lon="17.572374993781686" id="-49472">
		<tag k="name" v="Storelva" />
		<tag k="ssr:stedsnr" v="18849" />
		<tag k="waterway" v="stream" />
	</node>
	<node lat="69.11314166228141" lon="17.93171944804449" id="-49478">
		<tag k="alt_name" v="Kvitflogvatnet" />
		<tag k="name" v="Kvitfløyvatnet" />
		<tag k="natural" v="water" />
		<tag k="ssr:stedsnr" v="19255" />
	</node>
	<node lat="69.11286110730806" lon="17.72983332087104" id="-49491">
		<tag k="name" v="Tverrelva" />
		<tag k="ssr:stedsnr" v="38153" />
		<tag k="waterway" v="stream" />
	</node>
	<node lat="69.04067222286187" lon="17.62621387871624" id="-49492">
		<tag k="name" v="Durmålsvatnet" />
		<tag k="natural" v="water" />
		<tag k="ssr:stedsnr" v="38786" />
	</node>
	<node lat="69.06897222193827" lon="17.400894442286493" id="-49530">
		<tag k="name" v="Storelva" />
		<tag k="ssr:stedsnr" v="79008" />
		<tag k="waterway" v="stream" />
	</node>
	<node lat="69.00079166869136" lon="17.390050003461855" id="-49542">
		<tag k="name" v="Mikkelbostadvatnet" />
=======
	<node id="-869190" lat="69.0446916631" lon="17.807438882">
		<tag k="name" v="Mevassdalelva" />
		<tag k="ssr:stedsnr" v="827321" />
		<tag k="waterway" v="stream" />
	</node>
	<node id="-868676" lat="69.0701666701" lon="17.7165583243">
		<tag k="name" v="Leirbakkfossen" />
		<tag k="natural" v="waterfall" />
		<tag k="ssr:stedsnr" v="159165" />
	</node>
	<node id="-868163" lat="69.0641277773" lon="17.7791833414">
		<tag k="name" v="Skarelva" />
		<tag k="ssr:stedsnr" v="658607" />
		<tag k="waterway" v="stream" />
	</node>
	<node id="-868832" lat="69.1102250016" lon="17.7938583435">
		<tag k="name" v="Storelva" />
		<tag k="ssr:stedsnr" v="382123" />
		<tag k="waterway" v="river" />
	</node>
	<node id="-869182" lat="69.0922694471" lon="17.7010055643">
		<tag k="name" v="Litjelva" />
		<tag k="ssr:stedsnr" v="826214" />
		<tag k="waterway" v="stream" />
	</node>
	<node id="-869179" lat="69.1166638888" lon="17.7310888774">
		<tag k="name" v="Espeneselva" />
		<tag k="ssr:stedsnr" v="826025" />
		<tag k="waterway" v="river" />
	</node>
	<node id="-868666" lat="68.9819361098" lon="17.5613777726">
		<tag k="name" v="Gardselva" />
		<tag k="ssr:stedsnr" v="139883" />
		<tag k="waterway" v="stream" />
	</node>
	<node id="-868662" lat="69.0327527763" lon="17.5958722269">
		<tag k="name" v="Heivatnet" />
>>>>>>> e1d4bc35ff8a6074a6f2e91616a996b547c36f15
		<tag k="natural" v="water" />
		<tag k="ssr:stedsnr" v="79408" />
	</node>
<<<<<<< HEAD
	<node lat="69.02973610926618" lon="17.735938886552272" id="-49594">
=======
	<node id="-868661" lat="69.0297361093" lon="17.7359388866">
>>>>>>> e1d4bc35ff8a6074a6f2e91616a996b547c36f15
		<tag k="alt_name" v="Indregårdsvatnet" />
		<tag k="name" v="Innigårdsvatnet" />
		<tag k="natural" v="water" />
		<tag k="ssr:stedsnr" v="139618" />
	</node>
<<<<<<< HEAD
	<node lat="69.03275277632372" lon="17.59587222690087" id="-49595">
		<tag k="name" v="Heivatnet" />
=======
	<node id="-869168" lat="69.0133583292" lon="17.6000638894">
		<tag k="name" v="Midtervatnet" />
>>>>>>> e1d4bc35ff8a6074a6f2e91616a996b547c36f15
		<tag k="natural" v="water" />
		<tag k="ssr:stedsnr" v="139622" />
	</node>
<<<<<<< HEAD
	<node lat="68.98193610983533" lon="17.561377772596764" id="-49597">
		<tag k="name" v="Gardselva" />
		<tag k="ssr:stedsnr" v="139883" />
		<tag k="waterway" v="stream" />
	</node>
	<node lat="69.10715277862022" lon="17.67784722066307" id="-49604">
		<tag k="name" v="Trollvatnet" />
		<tag k="natural" v="water" />
		<tag k="ssr:stedsnr" v="159281" />
	</node>
	<node lat="69.07016667014015" lon="17.716558324325245" id="-49609">
		<tag k="name" v="Leirbakkfossen" />
		<tag k="natural" v="waterfall" />
		<tag k="ssr:stedsnr" v="159165" />
	</node>
	<node lat="69.01164167027439" lon="17.88772778414761" id="-49614">
		<tag k="name" v="Eilertbekken" />
		<tag k="ssr:stedsnr" v="159854" />
		<tag k="waterway" v="stream" />
	</node>
	<node lat="69.04015556014032" lon="17.467483325550713" id="-49635">
		<tag k="name" v="Lomtjønna" />
=======
	<node id="-869167" lat="69.0134972195" lon="17.7472888766">
		<tag k="name" v="Steinjordelva" />
		<tag k="ssr:stedsnr" v="807633" />
		<tag k="waterway" v="stream" />
	</node>
	<node id="-869166" lat="69.0193472209" lon="17.9261638742">
		<tag k="alt_name" v="Kjellarelva" />
		<tag k="name" v="Kjellerelva" />
		<tag k="ssr:stedsnr" v="807631" />
		<tag k="waterway" v="stream" />
	</node>
	<node id="-868652" lat="69.0117222253" lon="17.3846444334">
		<tag k="fixme" v="multiple name tags, choose one and add the other to alt_name" />
		<tag k="name" v="Tverrdalselva;Tverrelva" />
		<tag k="ssr:stedsnr" v="139089" />
		<tag k="waterway" v="stream" />
	</node>
	<node id="-869161" lat="69.0528555597" lon="17.9021944378">
		<tag k="alt_name" v="Litlevatnet" />
		<tag k="name" v="Litjevatnet" />
>>>>>>> e1d4bc35ff8a6074a6f2e91616a996b547c36f15
		<tag k="natural" v="water" />
		<tag k="ssr:stedsnr" v="173149" />
	</node>
<<<<<<< HEAD
	<node lat="69.07769722205336" lon="17.506583343103078" id="-49637">
		<tag k="name" v="Vaelva" />
		<tag k="ssr:stedsnr" v="173190" />
		<tag k="waterway" v="stream" />
	</node>
	<node lat="69.02972222223897" lon="17.406352770875" id="-49650">
		<tag k="alt_name" v="Vinjevatnet, l" />
		<tag k="name" v="Litje Vinjevatnet" />
		<tag k="natural" v="water" />
		<tag k="ssr:stedsnr" v="200079" />
	</node>
	<node lat="69.07587499758863" lon="17.518530540272412" id="-49659">
		<tag k="alt_name" v="Storlomtjørna" />
		<tag k="name" v="Storlomtjønna" />
=======
	<node id="-868136" lat="69.0263944483" lon="17.5513777896">
		<tag k="name" v="Kråkelva" />
		<tag k="ssr:stedsnr" v="402766" />
		<tag k="waterway" v="stream" />
	</node>
	<node id="-868134" lat="69.0790361069" lon="17.7079638905">
		<tag k="name" v="Bongfossen" />
		<tag k="natural" v="waterfall" />
		<tag k="ssr:stedsnr" v="401219" />
	</node>
	<node id="-869157" lat="69.0509194488" lon="17.8693249902">
		<tag k="name" v="Magnusvatnet" />
>>>>>>> e1d4bc35ff8a6074a6f2e91616a996b547c36f15
		<tag k="natural" v="water" />
		<tag k="ssr:stedsnr" v="200375" />
	</node>
<<<<<<< HEAD
	<node lat="69.10658888668361" lon="17.84299445116946" id="-49663">
		<tag k="name" v="Børingsvatnet" />
		<tag k="natural" v="water" />
		<tag k="ssr:stedsnr" v="201253" />
	</node>
	<node lat="69.12790555432181" lon="17.883811095408085" id="-49664">
		<tag k="name" v="Mølnelva" />
		<tag k="ssr:stedsnr" v="201263" />
		<tag k="waterway" v="stream" />
	</node>
	<node lat="68.92315833612842" lon="17.479127774367935" id="-49667">
		<tag k="name" v="Nervatnet" />
=======
	<node id="-868644" lat="68.9550861144" lon="17.5255277869">
		<tag k="name" v="Kvanntoelva" />
		<tag k="ssr:stedsnr" v="112874" />
		<tag k="waterway" v="stream" />
	</node>
	<node id="-868130" lat="69.0652611099" lon="17.4356611031">
		<tag k="alt_name" v="Kvaløyvatnet" />
		<tag k="name" v="Kalvøyvatnet" />
>>>>>>> e1d4bc35ff8a6074a6f2e91616a996b547c36f15
		<tag k="natural" v="water" />
		<tag k="ssr:stedsnr" v="204612" />
	</node>
<<<<<<< HEAD
	<node lat="69.03502777996759" lon="17.73233610403569" id="-49677">
		<tag k="name" v="Henrikelva" />
		<tag k="ssr:stedsnr" v="220319" />
		<tag k="waterway" v="stream" />
	</node>
	<node lat="69.08008889087358" lon="17.70950000668601" id="-49680">
		<tag k="name" v="Gammelbrufossen" />
		<tag k="natural" v="waterfall" />
		<tag k="ssr:stedsnr" v="220269" />
	</node>
	<node lat="69.03774722302934" lon="17.836583342745293" id="-49681">
		<tag k="name" v="Skjæran" />
		<tag k="place" v="islet" />
		<tag k="ssr:stedsnr" v="220543" />
	</node>
	<node lat="69.03327778190268" lon="17.830591671649355" id="-49682">
		<tag k="name" v="Rundfjellbukta" />
		<tag k="natural" v="bay" />
		<tag k="ssr:stedsnr" v="220546" />
	</node>
	<node lat="69.03918888722896" lon="17.840030550561575" id="-49683">
		<tag k="name" v="Vassenden" />
		<tag k="natural" v="bay" />
		<tag k="ssr:stedsnr" v="220550" />
	</node>
	<node lat="69.00767777950777" lon="17.969252765057202" id="-49684">
		<tag k="name" v="Kroken" />
		<tag k="natural" v="bay" />
		<tag k="ssr:stedsnr" v="220882" />
	</node>
	<node lat="69.03188610737857" lon="17.841516671939825" id="-49694">
		<tag k="name" v="Innerholmen" />
		<tag k="place" v="islet" />
		<tag k="ssr:stedsnr" v="280026" />
	</node>
	<node lat="69.08700277415578" lon="17.71271665524649" id="-49697">
		<tag k="name" v="Langeneset" />
		<tag k="natural" v="cape" />
		<tag k="ssr:stedsnr" v="280154" />
	</node>
	<node lat="69.03097500300672" lon="17.850922217100116" id="-49704">
		<tag k="name" v="Skjæret" />
		<tag k="place" v="islet" />
		<tag k="ssr:stedsnr" v="280789" />
	</node>
	<node lat="69.04109721975458" lon="17.77022223061909" id="-49707">
		<tag k="name" v="Småvatnet" />
		<tag k="natural" v="water" />
		<tag k="ssr:stedsnr" v="281282" />
	</node>
	<node lat="69.04748611324115" lon="17.73406388007258" id="-49718">
		<tag k="name" v="Lafossen" />
		<tag k="natural" v="waterfall" />
		<tag k="ssr:stedsnr" v="294638" />
	</node>
	<node lat="69.10841110942802" lon="17.69392221621994" id="-49748">
		<tag k="fixme" v="multiple name tags, choose one and add the other to alt_name" />
		<tag k="name" v="Trollvatnet;Litjevatnet" />
=======
	<node id="-869153" lat="69.0500527819" lon="17.831388878">
		<tag k="alt_name" v="Skjelelva" />
		<tag k="name" v="Skjellelva" />
		<tag k="ssr:stedsnr" v="807123" />
		<tag k="waterway" v="stream" />
	</node>
	<node id="-869151" lat="68.9971194405" lon="17.928744433">
		<tag k="name" v="Skjelelva" />
		<tag k="ssr:stedsnr" v="806967" />
		<tag k="waterway" v="stream" />
	</node>
	<node id="-869150" lat="68.953019447" lon="17.5612388794">
		<tag k="name" v="Kaldelva" />
		<tag k="ssr:stedsnr" v="806940" />
		<tag k="waterway" v="stream" />
	</node>
	<node id="-868637" lat="69.1251361101" lon="17.88062221">
		<tag k="name" v="Heimerelva" />
		<tag k="ssr:stedsnr" v="112779" />
		<tag k="waterway" v="stream" />
	</node>
	<node id="-869147" lat="68.909097226" lon="17.4666833375">
		<tag k="name" v="Litjevatnet" />
		<tag k="natural" v="water" />
		<tag k="ssr:stedsnr" v="780881" />
	</node>
	<node id="-868515" lat="69.0083805591" lon="17.6288777704">
		<tag k="name" v="Kuskardvatnet" />
		<tag k="natural" v="water" />
		<tag k="ssr:stedsnr" v="17687" />
	</node>
	<node id="-868121" lat="68.9919166637" lon="17.5709083352">
		<tag k="name" v="Faksfjordelva" />
		<tag k="ssr:stedsnr" v="503995" />
		<tag k="waterway" v="river" />
	</node>
	<node id="-868120" lat="68.9903499992" lon="17.5113916673">
		<tag k="name" v="Kastneselva" />
		<tag k="ssr:stedsnr" v="503970" />
		<tag k="waterway" v="river" />
	</node>
	<node id="-868740" lat="68.9231583361" lon="17.4791277744">
		<tag k="name" v="Nervatnet" />
		<tag k="natural" v="water" />
		<tag k="ssr:stedsnr" v="204612" />
	</node>
	<node id="-868112" lat="68.9619166663" lon="17.6178611012">
		<tag k="name" v="Storvatnet" />
		<tag k="natural" v="water" />
		<tag k="ssr:stedsnr" v="502899" />
		<tag k="water" v="lake" />
	</node>
	<node id="-868107" lat="69.1148083325" lon="17.9065583223">
		<tag k="name" v="Stillelva" />
		<tag k="ssr:stedsnr" v="354824" />
		<tag k="waterway" v="stream" />
	</node>
	<node id="-868737" lat="69.0307611081" lon="17.6560138863">
		<tag k="name" v="Godvarlevatnet" />
>>>>>>> e1d4bc35ff8a6074a6f2e91616a996b547c36f15
		<tag k="natural" v="water" />
		<tag k="ssr:stedsnr" v="321250" />
	</node>
<<<<<<< HEAD
	<node lat="69.04803333220951" lon="17.640763887090486" id="-49757">
		<tag k="name" v="Hundstrandelva" />
		<tag k="ssr:stedsnr" v="322320" />
		<tag k="waterway" v="river" />
	</node>
	<node lat="69.05489166494728" lon="17.740130564199845" id="-49759">
		<tag k="name" v="Blindfinnvatnet" />
		<tag k="natural" v="water" />
		<tag k="ssr:stedsnr" v="322325" />
	</node>
	<node lat="69.05834166485558" lon="17.825647207911846" id="-49766">
		<tag k="name" v="Tverrelva" />
		<tag k="ssr:stedsnr" v="340305" />
		<tag k="waterway" v="stream" />
	</node>
	<node lat="69.03711944026496" lon="17.666822228884264" id="-49771">
		<tag k="name" v="Finnskarelva" />
		<tag k="ssr:stedsnr" v="341796" />
		<tag k="waterway" v="stream" />
	</node>
	<node lat="69.04154166379922" lon="17.855102761401096" id="-49773">
		<tag k="name" v="Skjellbekken" />
		<tag k="ssr:stedsnr" v="341883" />
		<tag k="waterway" v="stream" />
	</node>
	<node lat="69.02257499690161" lon="17.54199444100627" id="-49777">
		<tag k="name" v="Kvalelva" />
		<tag k="ssr:stedsnr" v="354278" />
		<tag k="waterway" v="stream" />
	</node>
	<node lat="69.11480833247892" lon="17.90655832228683" id="-49780">
		<tag k="name" v="Stillelva" />
		<tag k="ssr:stedsnr" v="354824" />
		<tag k="waterway" v="stream" />
	</node>
	<node lat="69.03563055824243" lon="17.83861666110588" id="-49791">
		<tag k="name" v="Spiskammersdøra" />
		<tag k="place" v="islet" />
		<tag k="ssr:stedsnr" v="355437" />
	</node>
	<node lat="69.0623000019429" lon="17.753930561420052" id="-49796">
		<tag k="name" v="Pålelva" />
		<tag k="ssr:stedsnr" v="355472" />
		<tag k="waterway" v="stream" />
	</node>
	<node lat="69.04751388628304" lon="17.40416665259759" id="-49807">
		<tag k="name" v="Blåsandvatnet" />
=======
	<node id="-868611" lat="69.032033338" lon="17.9144694341">
		<tag k="name" v="Jonhaugneset" />
		<tag k="natural" v="cape" />
		<tag k="ssr:stedsnr" v="98780" />
	</node>
	<node id="-868605" lat="69.0832416675" lon="17.7132555604">
		<tag k="name" v="Olderneset" />
		<tag k="natural" v="cape" />
		<tag k="ssr:stedsnr" v="98180" />
	</node>
	<node id="-869113" lat="68.9519972202" lon="17.5384999884">
		<tag k="name" v="Urelva" />
		<tag k="ssr:stedsnr" v="779272" />
		<tag k="waterway" v="stream" />
	</node>
	<node id="-869111" lat="69.0790638858" lon="17.5340305543">
		<tag k="name" v="Litjelomtjønna" />
		<tag k="natural" v="water" />
		<tag k="ssr:stedsnr" v="767699" />
	</node>
	<node id="-869109" lat="69.1251373856" lon="17.8287688297">
		<tag k="name" v="Blomsterbekken" />
		<tag k="ssr:stedsnr" v="766846" />
		<tag k="waterway" v="stream" />
	</node>
	<node id="-868082" lat="69.1163027813" lon="17.8347222212">
		<tag k="name" v="Ramfløyelva" />
		<tag k="ssr:stedsnr" v="463839" />
		<tag k="waterway" v="stream" />
	</node>
	<node id="-869105" lat="69.0222388924" lon="17.9044027754">
		<tag k="name" v="Litjeneset" />
		<tag k="natural" v="cape" />
		<tag k="ssr:stedsnr" v="766800" />
	</node>
	<node id="-869104" lat="69.05090833" lon="17.8170138863">
		<tag k="name" v="Sagelva" />
		<tag k="ssr:stedsnr" v="766293" />
		<tag k="waterway" v="stream" />
	</node>
	<node id="-868591" lat="69.0300361094" lon="17.6015888739">
		<tag k="name" v="Blåfjellvatnet" />
>>>>>>> e1d4bc35ff8a6074a6f2e91616a996b547c36f15
		<tag k="natural" v="water" />
		<tag k="ssr:stedsnr" v="355760" />
	</node>
<<<<<<< HEAD
	<node lat="68.97980833700707" lon="17.99394998636391" id="-49813">
		<tag k="name" v="Langvatnet" />
		<tag k="natural" v="water" />
		<tag k="ssr:stedsnr" v="381982" />
	</node>
	<node lat="69.11022500157914" lon="17.793858343488495" id="-49816">
		<tag k="name" v="Storelva" />
		<tag k="ssr:stedsnr" v="382123" />
		<tag k="waterway" v="river" />
	</node>
	<node lat="69.07118055867922" lon="17.72677499370284" id="-49822">
		<tag k="name" v="Støytfossen" />
		<tag k="natural" v="waterfall" />
		<tag k="ssr:stedsnr" v="382349" />
	</node>
	<node lat="69.0790361068709" lon="17.70796389048543" id="-49829">
		<tag k="name" v="Bongfossen" />
		<tag k="natural" v="waterfall" />
		<tag k="ssr:stedsnr" v="401219" />
	</node>
	<node lat="69.0263944482839" lon="17.551377789561386" id="-49835">
		<tag k="name" v="Kråkelva" />
		<tag k="ssr:stedsnr" v="402766" />
		<tag k="waterway" v="stream" />
	</node>
	<node lat="69.07823332922753" lon="17.681419443658754" id="-49855">
		<tag k="name" v="Magenelva" />
		<tag k="ssr:stedsnr" v="416497" />
		<tag k="waterway" v="stream" />
	</node>
	<node lat="68.91865000142911" lon="17.48780554163465" id="-49868">
		<tag k="name" v="Slåttelva" />
		<tag k="ssr:stedsnr" v="416877" />
		<tag k="waterway" v="stream" />
	</node>
	<node lat="69.01051666838968" lon="17.71802221231784" id="-49871">
		<tag k="name" v="Rubbåsvatnet" />
		<tag k="natural" v="water" />
		<tag k="ssr:stedsnr" v="442657" />
	</node>
	<node lat="68.99144722508652" lon="17.53201944488732" id="-49875">
		<tag k="name" v="Trollvatnet" />
=======
	<node id="-868589" lat="69.0007916687" lon="17.3900500035">
		<tag k="name" v="Mikkelbostadvatnet" />
		<tag k="natural" v="water" />
		<tag k="ssr:stedsnr" v="79408" />
	</node>
	<node id="-868076" lat="69.0195416621" lon="17.7087694477">
		<tag k="name" v="Bjørnmyrelva" />
		<tag k="ssr:stedsnr" v="463487" />
		<tag k="waterway" v="stream" />
	</node>
	<node id="-868075" lat="69.0296583343" lon="17.7414416542">
		<tag k="name" v="Sævan" />
		<tag k="natural" v="water" />
		<tag k="ssr:stedsnr" v="463247" />
		<tag k="water" v="pond" />
	</node>
	<node id="-869098" lat="69.0019305521" lon="17.9749833233">
		<tag k="name" v="Tjønna" />
		<tag k="natural" v="water" />
		<tag k="ssr:stedsnr" v="765856" />
	</node>
	<node id="-868071" lat="69.0209416681" lon="17.8934833417">
		<tag k="name" v="Hans-skjæret" />
		<tag k="place" v="islet" />
		<tag k="ssr:stedsnr" v="462838" />
	</node>
	<node id="-869091" lat="69.029875001" lon="17.87669723">
		<tag k="name" v="Skøvatnet - Skuođđojávri" />
		<tag k="name:no" v="Skøvatnet" />
		<tag k="name:se" v="Skuođđojávri" />
>>>>>>> e1d4bc35ff8a6074a6f2e91616a996b547c36f15
		<tag k="natural" v="water" />
		<tag k="ssr:stedsnr" v="442969" />
	</node>
<<<<<<< HEAD
	<node lat="68.9896277823741" lon="17.572152767177638" id="-49876">
		<tag k="alt_name" v="Krumelva" />
		<tag k="name" v="Kromelva" />
		<tag k="ssr:stedsnr" v="442971" />
		<tag k="waterway" v="river" />
	</node>
	<node lat="69.0333750009104" lon="17.408363890528694" id="-49878">
		<tag k="name" v="Bergsvatnet" />
		<tag k="natural" v="water" />
		<tag k="ssr:stedsnr" v="443115" />
	</node>
	<node lat="68.96191666632707" lon="17.61786110119149" id="-49890">
		<tag k="name" v="Storvatnet" />
		<tag k="natural" v="water" />
		<tag k="ssr:stedsnr" v="502899" />
		<tag k="water" v="lake" />
	</node>
	<node lat="68.99191666371478" lon="17.570908335175265" id="-49896">
		<tag k="name" v="Faksfjordelva" />
		<tag k="ssr:stedsnr" v="503995" />
		<tag k="waterway" v="river" />
	</node>
	<node lat="69.06526110989613" lon="17.435661103061335" id="-49901">
		<tag k="alt_name" v="Kvaløyvatnet" />
		<tag k="name" v="Kalvøyvatnet" />
		<tag k="natural" v="water" />
		<tag k="ssr:stedsnr" v="504337" />
		<tag k="water" v="lake" />
	</node>
	<node lat="69.06619167059664" lon="17.407958329581053" id="-49913">
		<tag k="name" v="Rundevatnet" />
=======
	<node id="-869090" lat="68.9914333301" lon="17.9841583182">
		<tag k="name" v="Mølnelva" />
		<tag k="ssr:stedsnr" v="746989" />
		<tag k="waterway" v="river" />
	</node>
	<node id="-868577" lat="69.0689722219" lon="17.4008944423">
		<tag k="name" v="Storelva" />
		<tag k="ssr:stedsnr" v="79008" />
		<tag k="waterway" v="stream" />
	</node>
	<node id="-869088" lat="68.997847224" lon="17.8157750001">
		<tag k="name" v="Salangseidet - Rásseloháidi" />
		<tag k="name:no" v="Salangseidet" />
		<tag k="name:se" v="Rásseloháidi" />
		<tag k="natural" v="strait" />
		<tag k="ssr:stedsnr" v="746969" />
	</node>
	<node id="-869086" lat="68.9966083373" lon="17.8822444436">
		<tag k="name" v="Johanneselva" />
		<tag k="ssr:stedsnr" v="746964" />
		<tag k="waterway" v="stream" />
	</node>
	<node id="-869085" lat="68.9660361094" lon="17.5855916672">
		<tag k="name" v="Pålsfjordelva" />
		<tag k="ssr:stedsnr" v="746870" />
		<tag k="waterway" v="stream" />
	</node>
	<node id="-869083" lat="69.0159277765" lon="17.6244944301">
		<tag k="name" v="Indrevatnet" />
>>>>>>> e1d4bc35ff8a6074a6f2e91616a996b547c36f15
		<tag k="natural" v="water" />
		<tag k="ssr:stedsnr" v="523830" />
	</node>
<<<<<<< HEAD
	<node lat="69.04188333452028" lon="17.600361110344405" id="-49914">
		<tag k="name" v="Bogelva" />
		<tag k="ssr:stedsnr" v="523783" />
		<tag k="waterway" v="stream" />
	</node>
	<node lat="69.00646110919983" lon="17.84950276831726" id="-49938">
		<tag k="name" v="Sæterelva" />
		<tag k="ssr:stedsnr" v="563661" />
		<tag k="waterway" v="stream" />
	</node>
	<node lat="69.0920361131533" lon="17.836655555354678" id="-49944">
		<tag k="name" v="Femvatnan" />
=======
	<node id="-869082" lat="69.0140083301" lon="17.6993749875">
		<tag k="name" v="Okselva" />
		<tag k="ssr:stedsnr" v="746623" />
		<tag k="waterway" v="stream" />
	</node>
	<node id="-869081" lat="69.0148444483" lon="17.9243361014">
		<tag k="name" v="Mølnfossen" />
		<tag k="natural" v="waterfall" />
		<tag k="ssr:stedsnr" v="746622" />
	</node>
	<node id="-868566" lat="69.0540000022" lon="17.6876638857">
		<tag k="name" v="Litjetrollvatnet" />
>>>>>>> e1d4bc35ff8a6074a6f2e91616a996b547c36f15
		<tag k="natural" v="water" />
		<tag k="ssr:stedsnr" v="564241" />
		<tag k="water" v="lake" />
	</node>
<<<<<<< HEAD
	<node lat="69.03378611089104" lon="17.835961114982975" id="-49946">
		<tag k="fixme" v="multiple name tags, choose one and add the other to alt_name" />
		<tag k="name" v="Langholmen;Flatholmen" />
		<tag k="place" v="islet" />
		<tag k="ssr:stedsnr" v="564302" />
	</node>
	<node lat="69.05022500087665" lon="17.693622214915127" id="-49948">
		<tag k="name" v="Stortrollvatnet" />
		<tag k="natural" v="water" />
		<tag k="ssr:stedsnr" v="564333" />
	</node>
	<node lat="69.05829166938145" lon="17.831361116143572" id="-49950">
		<tag k="name" v="Børingselva" />
		<tag k="ssr:stedsnr" v="564345" />
		<tag k="waterway" v="stream" />
	</node>
	<node lat="69.02575277713753" lon="17.686636098092656" id="-49954">
		<tag k="name" v="Stortindvatnet" />
		<tag k="natural" v="water" />
		<tag k="ssr:stedsnr" v="564632" />
	</node>
	<node lat="69.01438611166745" lon="17.588355565772996" id="-49956">
		<tag k="name" v="Holmevatnan" />
=======
	<node id="-869068" lat="69.0128500011" lon="17.7181611144">
		<tag k="name" v="Elveneset" />
		<tag k="natural" v="cape" />
		<tag k="ssr:stedsnr" v="645479" />
	</node>
	<node id="-868898" lat="69.0661916706" lon="17.4079583296">
		<tag k="name" v="Rundevatnet" />
		<tag k="natural" v="water" />
		<tag k="ssr:stedsnr" v="523830" />
	</node>
	<node id="-869066" lat="69.0260083351" lon="17.6926305584">
		<tag k="name" v="Halsen" />
		<tag k="natural" v="strait" />
		<tag k="ssr:stedsnr" v="645251" />
	</node>
	<node id="-869065" lat="69.0268305509" lon="17.683711118">
		<tag k="name" v="Neset" />
		<tag k="natural" v="cape" />
		<tag k="ssr:stedsnr" v="645247" />
	</node>
	<node id="-868550" lat="69.0406722229" lon="17.6262138787">
		<tag k="name" v="Durmålsvatnet" />
>>>>>>> e1d4bc35ff8a6074a6f2e91616a996b547c36f15
		<tag k="natural" v="water" />
		<tag k="ssr:stedsnr" v="564639" />
		<tag k="water" v="lake" />
	</node>
<<<<<<< HEAD
	<node lat="69.01326111567286" lon="17.79966387808287" id="-49958">
		<tag k="name" v="Rundfjellvatnan" />
=======
	<node id="-869053" lat="69.0623083358" lon="17.4034222138">
		<tag k="name" v="Pålsvatnet" />
>>>>>>> e1d4bc35ff8a6074a6f2e91616a996b547c36f15
		<tag k="natural" v="water" />
		<tag k="ssr:stedsnr" v="564645" />
	</node>
<<<<<<< HEAD
	<node lat="69.03253610791772" lon="17.840747224381065" id="-49964">
		<tag k="name" v="Ytterholmen" />
		<tag k="place" v="islet" />
		<tag k="ssr:stedsnr" v="583030" />
	</node>
	<node lat="69.01001111129648" lon="17.910874986447592" id="-49969">
		<tag k="name" v="Sauelva" />
		<tag k="ssr:stedsnr" v="583825" />
		<tag k="waterway" v="stream" />
	</node>
	<node lat="69.0460972252946" lon="17.62483334077404" id="-49988">
		<tag k="name" v="Russebekken" />
		<tag k="ssr:stedsnr" v="597381" />
		<tag k="waterway" v="stream" />
	</node>
	<node lat="69.05075833182227" lon="17.42961110859172" id="-49999">
		<tag k="name" v="Svartetjønnelva" />
		<tag k="ssr:stedsnr" v="597792" />
		<tag k="waterway" v="stream" />
	</node>
	<node lat="68.99791389213499" lon="17.416761107594425" id="-50003">
		<tag k="name" v="Mølnelva" />
		<tag k="ssr:stedsnr" v="597827" />
		<tag k="waterway" v="stream" />
	</node>
	<node lat="69.09804166362524" lon="17.775619431223603" id="-50010">
		<tag k="name" v="Kvanntoelva" />
		<tag k="ssr:stedsnr" v="624276" />
		<tag k="waterway" v="stream" />
	</node>
	<node lat="69.0243805556038" lon="17.754047222491675" id="-50012">
		<tag k="name" v="Bjørkebakkelva" />
		<tag k="ssr:stedsnr" v="624638" />
		<tag k="waterway" v="stream" />
	</node>
	<node lat="68.95435833543249" lon="17.567213883896603" id="-50015">
		<tag k="alt_name" v="Bromlielva" />
		<tag k="name" v="Blomlielva" />
		<tag k="ssr:stedsnr" v="624921" />
		<tag k="waterway" v="stream" />
	</node>
	<node lat="69.03354721930768" lon="17.64418332770426" id="-50017">
		<tag k="name" v="Sætervatnet" />
=======
	<node id="-868028" lat="68.9896277824" lon="17.5721527672">
		<tag k="alt_name" v="Krumelva" />
		<tag k="name" v="Kromelva" />
		<tag k="ssr:stedsnr" v="442971" />
		<tag k="waterway" v="river" />
	</node>
	<node id="-869051" lat="69.0381888913" lon="17.8348361122">
		<tag k="name" v="Sandbukta" />
		<tag k="natural" v="bay" />
		<tag k="ssr:stedsnr" v="644531" />
	</node>
	<node id="-869050" lat="69.0199416649" lon="17.7384000002">
		<tag k="name" v="Tverrelva" />
		<tag k="ssr:stedsnr" v="644279" />
		<tag k="waterway" v="stream" />
	</node>
	<node id="-868023" lat="69.0105166684" lon="17.7180222123">
		<tag k="name" v="Rubbåsvatnet" />
		<tag k="natural" v="water" />
		<tag k="ssr:stedsnr" v="442657" />
	</node>
	<node id="-868638" lat="69.0459361093" lon="17.7371305512">
		<tag k="name" v="Elveneset" />
		<tag k="natural" v="cape" />
		<tag k="ssr:stedsnr" v="112617" />
	</node>
	<node id="-869042" lat="69.0474888915" lon="17.8163250032">
		<tag k="name" v="Andneset" />
		<tag k="natural" v="cape" />
		<tag k="ssr:stedsnr" v="643282" />
	</node>
	<node id="-868211" lat="69.0330361081" lon="17.8376555446">
		<tag k="name" v="Ørretholmen" />
		<tag k="place" v="islet" />
		<tag k="ssr:stedsnr" v="523564" />
	</node>
	<node id="-868381" lat="69.1272083334" lon="17.8753055612">
		<tag k="name" v="Mølnefossen" />
		<tag k="natural" v="waterfall" />
		<tag k="ssr:stedsnr" v="901785" />
	</node>
	<node id="-868524" lat="68.9585888869" lon="17.5723749938">
		<tag k="name" v="Storelva" />
		<tag k="ssr:stedsnr" v="18849" />
		<tag k="waterway" v="stream" />
	</node>
	<node id="-868523" lat="68.9619750036" lon="17.5853555624">
		<tag k="fixme" v="multiple name tags, choose one and add the other to alt_name" />
		<tag k="name" v="Litlevatnet;Nervatnet" />
>>>>>>> e1d4bc35ff8a6074a6f2e91616a996b547c36f15
		<tag k="natural" v="water" />
		<tag k="ssr:stedsnr" v="625620" />
	</node>
<<<<<<< HEAD
	<node lat="69.07453055745883" lon="17.812647210884904" id="-50021">
=======
	<node id="-869033" lat="69.0745305575" lon="17.8126472109">
>>>>>>> e1d4bc35ff8a6074a6f2e91616a996b547c36f15
		<tag k="name" v="Ettvatnet" />
		<tag k="natural" v="water" />
		<tag k="ssr:stedsnr" v="625368" />
	</node>
<<<<<<< HEAD
	<node lat="69.05282499794791" lon="17.764811117382816" id="-50027">
		<tag k="fixme" v="multiple name tags, choose one and add the other to alt_name" />
		<tag k="name" v="Langbakkelva;Blindfinnelva" />
		<tag k="ssr:stedsnr" v="625333" />
		<tag k="waterway" v="stream" />
	</node>
	<node lat="69.05128055544773" lon="17.73307222965183" id="-50028">
=======
	<node id="-868818" lat="69.0475138863" lon="17.4041666526">
		<tag k="name" v="Blåsandvatnet" />
		<tag k="natural" v="water" />
		<tag k="ssr:stedsnr" v="355760" />
	</node>
	<node id="-869028" lat="69.0512805554" lon="17.7330722297">
>>>>>>> e1d4bc35ff8a6074a6f2e91616a996b547c36f15
		<tag k="name" v="Brøstadelva" />
		<tag k="ssr:stedsnr" v="625342" />
		<tag k="waterway" v="river" />
	</node>
<<<<<<< HEAD
	<node lat="69.01994166489406" lon="17.73840000017676" id="-50042">
		<tag k="name" v="Tverrelva" />
		<tag k="ssr:stedsnr" v="644279" />
		<tag k="waterway" v="stream" />
	</node>
	<node lat="69.06230833578144" lon="17.403422213781937" id="-50045">
		<tag k="name" v="Pålsvatnet" />
		<tag k="natural" v="water" />
		<tag k="ssr:stedsnr" v="644820" />
	</node>
	<node lat="69.02683055090596" lon="17.683711117968343" id="-50048">
		<tag k="name" v="Neset" />
		<tag k="natural" v="cape" />
		<tag k="ssr:stedsnr" v="645247" />
	</node>
	<node lat="69.02600833513142" lon="17.692630558390597" id="-50049">
		<tag k="name" v="Halsen" />
		<tag k="natural" v="strait" />
		<tag k="ssr:stedsnr" v="645251" />
	</node>
	<node lat="69.03525277536961" lon="17.928269447688375" id="-50051">
		<tag k="name" v="Skjellelva" />
		<tag k="ssr:stedsnr" v="658055" />
		<tag k="waterway" v="stream" />
	</node>
	<node lat="69.06412777730007" lon="17.77918334144256" id="-50055">
		<tag k="name" v="Skarelva" />
		<tag k="ssr:stedsnr" v="658607" />
		<tag k="waterway" v="stream" />
	</node>
	<node lat="69.11950000287408" lon="17.887980566073413" id="-50087">
		<tag k="name" v="Rundvatnan" />
		<tag k="natural" v="water" />
		<tag k="ssr:stedsnr" v="719747" />
		<tag k="water" v="lake" />
	</node>
	<node lat="69.01484444834165" lon="17.92433610139962" id="-50107">
		<tag k="name" v="Mølnfossen" />
		<tag k="natural" v="waterfall" />
		<tag k="ssr:stedsnr" v="746622" />
	</node>
	<node lat="69.01400833007109" lon="17.69937498754856" id="-50108">
		<tag k="name" v="Okselva" />
		<tag k="ssr:stedsnr" v="746623" />
		<tag k="waterway" v="stream" />
	</node>
	<node lat="69.01592777646462" lon="17.624494430103486" id="-50109">
		<tag k="name" v="Indrevatnet" />
=======
	<node id="-869027" lat="69.0528249979" lon="17.7648111174">
		<tag k="fixme" v="multiple name tags, choose one and add the other to alt_name" />
		<tag k="name" v="Blindfinnelva;Langbakkelva" />
		<tag k="ssr:stedsnr" v="625333" />
		<tag k="waterway" v="stream" />
	</node>
	<node id="-868000" lat="69.0474861132" lon="17.7340638801">
		<tag k="name" v="Lafossen" />
		<tag k="natural" v="waterfall" />
		<tag k="ssr:stedsnr" v="294638" />
	</node>
	<node id="-869018" lat="68.9543583354" lon="17.5672138839">
		<tag k="alt_name" v="Bromlielva" />
		<tag k="name" v="Blomlielva" />
		<tag k="ssr:stedsnr" v="624921" />
		<tag k="waterway" v="stream" />
	</node>
	<node id="-868975" lat="69.0460972253" lon="17.6248333408">
		<tag k="name" v="Russebekken" />
		<tag k="ssr:stedsnr" v="597381" />
		<tag k="waterway" v="stream" />
	</node>
	<node id="-869013" lat="69.0243805556" lon="17.7540472225">
		<tag k="name" v="Bjørkebakkelva" />
		<tag k="ssr:stedsnr" v="624638" />
		<tag k="waterway" v="stream" />
	</node>
	<node id="-869012" lat="69.0980416636" lon="17.7756194312">
		<tag k="name" v="Kvanntoelva" />
		<tag k="ssr:stedsnr" v="624276" />
		<tag k="waterway" v="stream" />
	</node>
	<node id="-868027" lat="68.9914472251" lon="17.5320194449">
		<tag k="name" v="Trollvatnet" />
		<tag k="natural" v="water" />
		<tag k="ssr:stedsnr" v="442969" />
	</node>
	<node id="-868495" lat="69.0157527754" lon="17.8913972157">
		<tag k="name" v="Notkastet" />
		<tag k="place" v="locality" />
		<tag k="ssr:stedsnr" v="948875" />
	</node>
	<node id="-868494" lat="69.0372277824" lon="17.8360416544">
		<tag k="name" v="Hølla" />
		<tag k="natural" v="bay" />
		<tag k="ssr:stedsnr" v="948562" />
	</node>
	<node id="-868493" lat="69.0345472189" lon="17.8396805477">
		<tag k="name" v="Fuglesangen" />
		<tag k="place" v="islet" />
		<tag k="ssr:stedsnr" v="948559" />
	</node>
	<node id="-868491" lat="69.0501999969" lon="17.8195583168">
		<tag k="name" v="Sagfossen" />
		<tag k="natural" v="waterfall" />
		<tag k="ssr:stedsnr" v="948309" />
	</node>
	<node id="-868487" lat="68.9218805538" lon="17.4919888911">
		<tag k="fixme" v="multiple name tags, choose one and add the other to alt_name" />
		<tag k="name" v="Slåttevatnet;Øvervatnet" />
		<tag k="natural" v="water" />
		<tag k="ssr:stedsnr" v="928816" />
	</node>
	<node id="-867973" lat="69.1279055543" lon="17.8838110954">
		<tag k="name" v="Mølnelva" />
		<tag k="ssr:stedsnr" v="201263" />
		<tag k="waterway" v="stream" />
	</node>
	<node id="-867972" lat="69.1065888867" lon="17.8429944512">
		<tag k="name" v="Børingsvatnet" />
>>>>>>> e1d4bc35ff8a6074a6f2e91616a996b547c36f15
		<tag k="natural" v="water" />
		<tag k="ssr:stedsnr" v="746624" />
	</node>
<<<<<<< HEAD
	<node lat="68.99143333011602" lon="17.984158318206774" id="-50110">
=======
	<node id="-868991" lat="68.9979138921" lon="17.4167611076">
>>>>>>> e1d4bc35ff8a6074a6f2e91616a996b547c36f15
		<tag k="name" v="Mølnelva" />
		<tag k="ssr:stedsnr" v="746989" />
		<tag k="waterway" v="river" />
	</node>
	<node lat="68.99660833725338" lon="17.882244443645167" id="-50111">
		<tag k="name" v="Johanneselva" />
		<tag k="ssr:stedsnr" v="746964" />
		<tag k="waterway" v="stream" />
	</node>
<<<<<<< HEAD
	<node lat="69.02987500104882" lon="17.876697229950782" id="-50112">
		<tag k="name" v="Skøvatnet - Skuođđojávri" />
		<tag k="name:no" v="Skøvatnet" />
		<tag k="name:se" v="Skuođđojávri" />
=======
	<node id="-868476" lat="69.05993611" lon="17.486941676">
		<tag k="name" v="Klubbetrollvatnet" />
>>>>>>> e1d4bc35ff8a6074a6f2e91616a996b547c36f15
		<tag k="natural" v="water" />
		<tag k="old_name:se" v="Skuoddujavri" />
		<tag k="ssr:stedsnr" v="747623" />
		<tag k="water" v="lake" />
	</node>
<<<<<<< HEAD
	<node lat="69.00193055205656" lon="17.974983323269026" id="-50119">
		<tag k="name" v="Tjønna" />
		<tag k="natural" v="water" />
		<tag k="ssr:stedsnr" v="765856" />
	</node>
	<node lat="69.0087305586911" lon="17.981536110035933" id="-50120">
		<tag k="name" v="Sandelva" />
		<tag k="ssr:stedsnr" v="765857" />
		<tag k="waterway" v="stream" />
	</node>
	<node lat="69.07906388576596" lon="17.53403055428649" id="-50125">
		<tag k="name" v="Litjelomtjønna" />
		<tag k="natural" v="water" />
		<tag k="ssr:stedsnr" v="767699" />
	</node>
	<node lat="68.95199722019362" lon="17.53849998841734" id="-50130">
		<tag k="name" v="Urelva" />
		<tag k="ssr:stedsnr" v="779272" />
		<tag k="waterway" v="stream" />
	</node>
	<node lat="69.05337778244248" lon="17.663630547102894" id="-50143">
		<tag k="name" v="Fossen" />
		<tag k="natural" v="waterfall" />
		<tag k="ssr:stedsnr" v="780329" />
	</node>
	<node lat="68.90909722598524" lon="17.466683337463348" id="-50148">
		<tag k="name" v="Litjevatnet" />
		<tag k="natural" v="water" />
		<tag k="ssr:stedsnr" v="780881" />
	</node>
	<node lat="69.01155555902524" lon="17.405666672208042" id="-50158">
		<tag k="name" v="Håkamyrelva" />
		<tag k="ssr:stedsnr" v="780839" />
		<tag k="waterway" v="stream" />
	</node>
	<node lat="68.95301944701201" lon="17.561238879439383" id="-50163">
		<tag k="name" v="Kaldelva" />
		<tag k="ssr:stedsnr" v="806940" />
		<tag k="waterway" v="stream" />
	</node>
	<node lat="68.99711944053143" lon="17.928744432950023" id="-50164">
		<tag k="name" v="Skjelelva" />
		<tag k="ssr:stedsnr" v="806967" />
		<tag k="waterway" v="stream" />
	</node>
	<node lat="69.05005278186069" lon="17.83138887797714" id="-50165">
		<tag k="alt_name" v="Skjelelva" />
		<tag k="name" v="Skjellelva" />
		<tag k="ssr:stedsnr" v="807123" />
		<tag k="waterway" v="stream" />
	</node>
	<node lat="69.05091944878859" lon="17.869324990211485" id="-50167">
		<tag k="name" v="Magnusvatnet" />
=======
	<node id="-868987" lat="69.0507583318" lon="17.4296111086">
		<tag k="name" v="Svartetjønnelva" />
		<tag k="ssr:stedsnr" v="597792" />
		<tag k="waterway" v="stream" />
	</node>
	<node id="-868472" lat="69.1318750001" lon="17.9064249977">
		<tag k="name" v="Lavikelva" />
		<tag k="ssr:stedsnr" v="900116" />
		<tag k="waterway" v="stream" />
	</node>
	<node id="-867955" lat="69.0410972198" lon="17.7702222306">
		<tag k="name" v="Småvatnet" />
		<tag k="natural" v="water" />
		<tag k="ssr:stedsnr" v="281282" />
	</node>
	<node id="-868978" lat="69.047969446" lon="17.7278027806">
		<tag k="name" v="Labekken" />
		<tag k="ssr:stedsnr" v="597618" />
		<tag k="waterway" v="stream" />
	</node>
	<node id="-867951" lat="69.0163361127" lon="17.9004916691">
		<tag k="name" v="Sennaloken" />
		<tag k="natural" v="bay" />
		<tag k="ssr:stedsnr" v="280827" />
	</node>
	<node id="-867949" lat="69.030975003" lon="17.8509222171">
		<tag k="name" v="Skjæret" />
		<tag k="place" v="islet" />
		<tag k="ssr:stedsnr" v="280789" />
	</node>
	<node id="-867944" lat="69.0870027742" lon="17.7127166552">
		<tag k="name" v="Langeneset" />
		<tag k="natural" v="cape" />
		<tag k="ssr:stedsnr" v="280154" />
	</node>
	<node id="-867940" lat="69.0318861074" lon="17.8415166719">
		<tag k="name" v="Innerholmen" />
		<tag k="place" v="islet" />
		<tag k="ssr:stedsnr" v="280026" />
	</node>
	<node id="-868963" lat="69.0095638874" lon="17.8969444498">
		<tag k="name" v="Hollelva" />
		<tag k="ssr:stedsnr" v="583840" />
		<tag k="waterway" v="stream" />
	</node>
	<node id="-868961" lat="69.0100111113" lon="17.9108749864">
		<tag k="name" v="Sauelva" />
		<tag k="ssr:stedsnr" v="583825" />
		<tag k="waterway" v="stream" />
	</node>
	<node id="-869136" lat="69.0533777824" lon="17.6636305471">
		<tag k="name" v="Fossen" />
		<tag k="natural" v="waterfall" />
		<tag k="ssr:stedsnr" v="780329" />
	</node>
	<node id="-868958" lat="69.0325361079" lon="17.8407472244">
		<tag k="name" v="Ytterholmen" />
		<tag k="place" v="islet" />
		<tag k="ssr:stedsnr" v="583030" />
	</node>
	<node id="-867933" lat="69.0116416703" lon="17.8877277841">
		<tag k="name" v="Eilertbekken" />
		<tag k="ssr:stedsnr" v="159854" />
		<tag k="waterway" v="stream" />
	</node>
	<node id="-868452" lat="69.0142444421" lon="17.8497277666">
		<tag k="name" v="Tverrelva" />
		<tag k="ssr:stedsnr" v="948887" />
		<tag k="waterway" v="stream" />
	</node>
	<node id="-868950" lat="69.0132611157" lon="17.7996638781">
		<tag k="name" v="Rundfjellvatnan" />
		<tag k="natural" v="water" />
		<tag k="ssr:stedsnr" v="564645" />
	</node>
	<node id="-868948" lat="69.0143861117" lon="17.5883555658">
		<tag k="name" v="Holmevatnan" />
>>>>>>> e1d4bc35ff8a6074a6f2e91616a996b547c36f15
		<tag k="natural" v="water" />
		<tag k="ssr:stedsnr" v="807311" />
	</node>
<<<<<<< HEAD
	<node lat="69.0528555597244" lon="17.902194437831124" id="-50173">
		<tag k="alt_name" v="Litlevatnet" />
		<tag k="name" v="Litjevatnet" />
=======
	<node id="-868945" lat="69.0257527771" lon="17.6866360981">
		<tag k="name" v="Stortindvatnet" />
>>>>>>> e1d4bc35ff8a6074a6f2e91616a996b547c36f15
		<tag k="natural" v="water" />
		<tag k="ssr:stedsnr" v="807340" />
	</node>
<<<<<<< HEAD
	<node lat="69.01934722089787" lon="17.926163874237318" id="-50176">
		<tag k="alt_name" v="Kjellarelva" />
		<tag k="name" v="Kjellerelva" />
		<tag k="ssr:stedsnr" v="807631" />
		<tag k="waterway" v="stream" />
	</node>
	<node lat="69.01349721948377" lon="17.74728887657965" id="-50177">
		<tag k="name" v="Steinjordelva" />
		<tag k="ssr:stedsnr" v="807633" />
		<tag k="waterway" v="stream" />
	</node>
	<node lat="69.01335832918497" lon="17.600063889409448" id="-50178">
		<tag k="name" v="Midtervatnet" />
=======
	<node id="-868944" lat="69.0772083363" lon="17.4852250081">
		<tag k="fixme" v="multiple name tags, choose one and add the other to alt_name" />
		<tag k="name" v="Reinmyrelva;Skogshamnelva" />
		<tag k="ssr:stedsnr" v="564369" />
		<tag k="waterway" v="stream" />
	</node>
	<node id="-868941" lat="69.0582916694" lon="17.8313611161">
		<tag k="name" v="Børingselva" />
		<tag k="ssr:stedsnr" v="564345" />
		<tag k="waterway" v="stream" />
	</node>
	<node id="-868939" lat="69.0502250009" lon="17.6936222149">
		<tag k="name" v="Stortrollvatnet" />
		<tag k="natural" v="water" />
		<tag k="ssr:stedsnr" v="564333" />
	</node>
	<node id="-868937" lat="69.0337861109" lon="17.835961115">
		<tag k="fixme" v="multiple name tags, choose one and add the other to alt_name" />
		<tag k="name" v="Flatholmen;Langholmen" />
		<tag k="place" v="islet" />
		<tag k="ssr:stedsnr" v="564302" />
	</node>
	<node id="-868424" lat="69.061980555" lon="17.45931945">
		<tag k="name" v="Fiskevatnet" />
>>>>>>> e1d4bc35ff8a6074a6f2e91616a996b547c36f15
		<tag k="natural" v="water" />
		<tag k="ssr:stedsnr" v="807635" />
	</node>
<<<<<<< HEAD
	<node lat="68.978416670624" lon="17.972227773657664" id="-50181">
		<tag k="name" v="Mølnvatnan" />
=======
	<node id="-868935" lat="69.0920361132" lon="17.8366555554">
		<tag k="name" v="Femvatnan" />
>>>>>>> e1d4bc35ff8a6074a6f2e91616a996b547c36f15
		<tag k="natural" v="water" />
		<tag k="ssr:stedsnr" v="807903" />
		<tag k="water" v="lake" />
	</node>
<<<<<<< HEAD
	<node lat="69.11666388877437" lon="17.7310888773601" id="-50189">
		<tag k="name" v="Espeneselva" />
		<tag k="ssr:stedsnr" v="826025" />
		<tag k="waterway" v="river" />
	</node>
	<node lat="69.0217777762201" lon="17.905066651458743" id="-50202">
		<tag k="name" v="Halsen" />
		<tag k="place" v="locality" />
		<tag k="ssr:stedsnr" v="827861" />
	</node>
	<node lat="69.03879722151002" lon="17.47605555721495" id="-50231">
		<tag k="name" v="Gårdselva" />
		<tag k="ssr:stedsnr" v="841181" />
		<tag k="waterway" v="stream" />
	</node>
	<node lat="69.03048055217495" lon="17.690147222801517" id="-50261">
		<tag k="name" v="Litjevatnet" />
		<tag k="natural" v="water" />
		<tag k="ssr:stedsnr" v="888231" />
	</node>
	<node lat="69.03586666772678" lon="17.735497223698285" id="-50262">
		<tag k="name" v="Skjellneset" />
		<tag k="natural" v="cape" />
		<tag k="ssr:stedsnr" v="888241" />
	</node>
	<node lat="69.02160833417275" lon="17.734649986408414" id="-50263">
		<tag k="name" v="Rubbåsvatnet" />
=======
	<node id="-868422" lat="68.9944805557" lon="17.6138611031">
		<tag k="name" v="Elveskardvatnet" />
		<tag k="natural" v="water" />
		<tag k="ssr:stedsnr" v="928997" />
	</node>
	<node id="-868421" lat="68.9984638895" lon="17.6082694434">
		<tag k="name" v="Geitfjellvatnet" />
		<tag k="natural" v="water" />
		<tag k="ssr:stedsnr" v="928996" />
	</node>
	<node id="-868929" lat="69.0064611092" lon="17.8495027683">
		<tag k="name" v="Sæterelva" />
		<tag k="ssr:stedsnr" v="563661" />
		<tag k="waterway" v="stream" />
	</node>
	<node id="-867900" lat="69.0277527762" lon="17.6941472079">
		<tag k="name" v="Mellavatnet" />
		<tag k="natural" v="water" />
		<tag k="ssr:stedsnr" v="99264" />
	</node>
	<node id="-868409" lat="69.011555559" lon="17.4056666722">
		<tag k="name" v="Håkamyrelva" />
		<tag k="ssr:stedsnr" v="780839" />
		<tag k="waterway" v="stream" />
	</node>
	<node id="-868530" lat="69.1131416623" lon="17.931719448">
		<tag k="alt_name" v="Kvitflogvatnet" />
		<tag k="name" v="Kvitfløyvatnet" />
>>>>>>> e1d4bc35ff8a6074a6f2e91616a996b547c36f15
		<tag k="natural" v="water" />
		<tag k="ssr:stedsnr" v="888470" />
	</node>
<<<<<<< HEAD
	<node lat="69.05019999693361" lon="17.819558316831838" id="-50274">
		<tag k="name" v="Sagfossen" />
		<tag k="natural" v="waterfall" />
		<tag k="ssr:stedsnr" v="948309" />
	</node>
	<node lat="69.03454721890024" lon="17.83968054770781" id="-50276">
		<tag k="name" v="Fuglesangen" />
		<tag k="place" v="islet" />
		<tag k="ssr:stedsnr" v="948559" />
	</node>
	<node lat="69.03722778240306" lon="17.836041654353266" id="-50277">
		<tag k="name" v="Hølla" />
		<tag k="natural" v="bay" />
		<tag k="ssr:stedsnr" v="948562" />
	</node>
	<node lat="69.01575277536087" lon="17.89139721568639" id="-50278">
		<tag k="name" v="Notkastet" />
		<tag k="place" v="locality" />
		<tag k="ssr:stedsnr" v="948875" />
	</node>
	<node lat="69.01424444214442" lon="17.84972776659249" id="-50279">
		<tag k="name" v="Tverrelva" />
		<tag k="ssr:stedsnr" v="948887" />
		<tag k="waterway" v="stream" />
	</node>
=======
	<node id="-868393" lat="69.0382250008" lon="17.6855722289">
		<tag k="name" v="Tverrelva" />
		<tag k="ssr:stedsnr" v="746112" />
		<tag k="waterway" v="stream" />
	</node>
	<node id="-869041" lat="69.0529055566" lon="17.7848083228">
		<tag k="name" v="Stillelva" />
		<tag k="ssr:stedsnr" v="643281" />
		<tag k="waterway" v="stream" />
	</node>
	<node id="-867874" lat="69.0318861092" lon="17.4623694418">
		<tag k="name" v="Forselva" />
		<tag k="ssr:stedsnr" v="52170" />
		<tag k="waterway" v="stream" />
	</node>
	<node id="-868893" lat="68.9186500014" lon="17.4878055416">
		<tag k="name" v="Slåttelva" />
		<tag k="ssr:stedsnr" v="416877" />
		<tag k="waterway" v="stream" />
	</node>
	<node id="-868377" lat="69.056058335" lon="17.7254472145">
		<tag k="name" v="Stuggetjønna" />
		<tag k="natural" v="water" />
		<tag k="ssr:stedsnr" v="901537" />
	</node>
	<node id="-868879" lat="69.0782333292" lon="17.6814194437">
		<tag k="name" v="Magenelva" />
		<tag k="ssr:stedsnr" v="416497" />
		<tag k="waterway" v="stream" />
	</node>
	<node id="-868359" lat="69.0550638855" lon="17.7339277614">
		<tag k="name" v="Mølnefossen" />
		<tag k="natural" v="waterfall" />
		<tag k="ssr:stedsnr" v="719578" />
	</node>
>>>>>>> e1d4bc35ff8a6074a6f2e91616a996b547c36f15
</osm>
