<?xml version="1.0" encoding="UTF-8"?>
<<<<<<< HEAD
<osm version="0.6" generator="osmapis">
	<node lat="69.11902778071399" lon="17.739361120690226" id="-48812">
		<tag k="name" v="Tenneset" />
		<tag k="natural" v="cape" />
		<tag k="ssr:stedsnr" v="18106" />
	</node>
	<node lat="69.01238056019784" lon="17.89040554317444" id="-48813">
=======
<osm generator="osmapis" version="0.6">
	<node id="-868351" lat="69.0393388882" lon="17.5143722269">
		<tag k="name" v="Myrneset" />
		<tag k="natural" v="cape" />
		<tag k="ssr:stedsnr" v="719170" />
	</node>
	<node id="-868860" lat="69.0856999955" lon="17.5634111176">
		<tag k="name" v="Sandvika" />
		<tag k="natural" v="bay" />
		<tag k="ssr:stedsnr" v="403695" />
	</node>
	<node id="-868859" lat="69.0828888873" lon="17.5503222133">
		<tag k="name" v="Skjellvika" />
		<tag k="natural" v="bay" />
		<tag k="ssr:stedsnr" v="403691" />
	</node>
	<node id="-868346" lat="69.0300111143" lon="17.4641777776">
		<tag k="name" v="Forsåbukta" />
		<tag k="natural" v="bay" />
		<tag k="ssr:stedsnr" v="697970" />
	</node>
	<node id="-868344" lat="69.117744444" lon="17.7823249876">
		<tag k="name" v="Mobogen" />
		<tag k="natural" v="bay" />
		<tag k="ssr:stedsnr" v="888827" />
	</node>
	<node id="-867831" lat="69.0579083314" lon="17.5444583262">
		<tag k="name" v="Djupvikholmen" />
		<tag k="place" v="islet" />
		<tag k="ssr:stedsnr" v="233319" />
	</node>
	<node id="-868342" lat="69.0432527751" lon="17.5934777831">
		<tag k="name" v="Bogen" />
		<tag k="natural" v="bay" />
		<tag k="ssr:stedsnr" v="888702" />
	</node>
	<node id="-868848" lat="69.1192553865" lon="17.7128263436">
		<tag k="name" v="Geitneset" />
		<tag k="natural" v="cape" />
		<tag k="ssr:stedsnr" v="402137" />
	</node>
	<node id="-867813" lat="69.0253416658" lon="17.5400333258">
		<tag k="name" v="Laneset" />
		<tag k="natural" v="cape" />
		<tag k="ssr:stedsnr" v="19608" />
	</node>
	<node id="-867810" lat="69.0374444421" lon="17.5365666723">
		<tag k="name" v="Dyrøysundet" />
		<tag k="natural" v="strait" />
		<tag k="ssr:stedsnr" v="19302" />
	</node>
	<node id="-867809" lat="69.0123805602" lon="17.8904055432">
>>>>>>> e1d4bc35ff8a6074a6f2e91616a996b547c36f15
		<tag k="name" v="Sørbukta" />
		<tag k="natural" v="bay" />
		<tag k="ssr:stedsnr" v="18605" />
	</node>
<<<<<<< HEAD
	<node lat="68.94848055244964" lon="17.474061117924915" id="-48835">
		<tag k="name" v="Gjeskeneset" />
		<tag k="natural" v="cape" />
		<tag k="ssr:stedsnr" v="234897" />
	</node>
	<node lat="68.9573130607484" lon="17.497359864417714" id="-48861">
		<tag k="name" v="Kvalnesodden" />
		<tag k="natural" v="cape" />
		<tag k="ssr:stedsnr" v="78943" />
	</node>
	<node lat="68.98073055447394" lon="17.47198888870869" id="-48870">
		<tag k="name" v="Lauknesgrunnen" />
		<tag k="natural" v="shoal" />
		<tag k="place" v="locality" />
		<tag k="ssr:stedsnr" v="90507" />
	</node>
	<node lat="69.07758611457253" lon="17.676316658741644" id="-48886">
		<tag k="name" v="Litjehavet" />
=======
	<node id="-867807" lat="69.087069449" lon="17.4953333235">
		<tag k="name" v="Sørneset" />
		<tag k="natural" v="cape" />
		<tag k="ssr:stedsnr" v="18232" />
	</node>
	<node id="-868318" lat="69.1089444442" lon="17.6508305632">
		<tag k="name" v="Krokvika" />
		<tag k="natural" v="bay" />
		<tag k="ssr:stedsnr" v="879428" />
	</node>
	<node id="-867805" lat="69.0806499962" lon="17.5487055613">
		<tag k="name" v="Vika" />
		<tag k="natural" v="bay" />
		<tag k="ssr:stedsnr" v="221661" />
	</node>
	<node id="-868316" lat="69.0692666703" lon="17.5537583302">
		<tag k="name" v="Forrholtet" />
		<tag k="natural" v="cape" />
		<tag k="ssr:stedsnr" v="879169" />
	</node>
	<node id="-868826" lat="68.9149777774" lon="17.448455543">
		<tag k="fixme" v="consider seamark:type=rock or natural=shoal" />
		<tag k="name" v="Gunhildsteinen" />
		<tag k="place" v="islet" />
		<tag k="ssr:stedsnr" v="355887" />
	</node>
	<node id="-868824" lat="68.9526638912" lon="17.4692944469">
		<tag k="fixme" v="consider seamark:type=rock or natural=shoal" />
		<tag k="name" v="Rissteinen" />
		<tag k="place" v="islet" />
		<tag k="ssr:stedsnr" v="355863" />
	</node>
	<node id="-868300" lat="69.1106500021" lon="17.6602694391">
		<tag k="name" v="Krokvika" />
>>>>>>> e1d4bc35ff8a6074a6f2e91616a996b547c36f15
		<tag k="natural" v="bay" />
		<tag k="ssr:stedsnr" v="112536" />
	</node>
<<<<<<< HEAD
	<node lat="68.9800749967147" lon="17.4968166585881" id="-48902">
		<tag k="name" v="Guraneset" />
		<tag k="natural" v="cape" />
		<tag k="ssr:stedsnr" v="112888" />
	</node>
	<node lat="69.04481666519322" lon="17.527811102846204" id="-48903">
		<tag k="name" v="Merkesneset" />
		<tag k="natural" v="cape" />
		<tag k="ssr:stedsnr" v="139341" />
	</node>
	<node lat="69.04448333512408" lon="17.59715833117598" id="-48904">
		<tag k="name" v="Kattebakken" />
=======
	<node id="-867782" lat="69.1218999992" lon="17.8028333362">
		<tag k="name" v="Myrneset" />
		<tag k="natural" v="cape" />
		<tag k="ssr:stedsnr" v="220179" />
	</node>
	<node id="-868292" lat="68.9236250023" lon="17.4626361161">
		<tag k="name" v="Lanesvika" />
		<tag k="natural" v="bay" />
		<tag k="ssr:stedsnr" v="719868" />
	</node>
	<node id="-868287" lat="69.1291500025" lon="17.8537083408">
		<tag k="name" v="Furstrandvika" />
		<tag k="natural" v="bay" />
		<tag k="ssr:stedsnr" v="719752" />
	</node>
	<node id="-868797" lat="69.0812861132" lon="17.4248833395">
		<tag k="name" v="Mellaneset" />
>>>>>>> e1d4bc35ff8a6074a6f2e91616a996b547c36f15
		<tag k="natural" v="cape" />
		<tag k="ssr:stedsnr" v="139343" />
	</node>
<<<<<<< HEAD
	<node lat="69.02947500320201" lon="17.912375000959283" id="-48918">
		<tag k="name" v="Nordneset" />
=======
	<node id="-868788" lat="69.0846861153" lon="17.5579166556">
		<tag k="name" v="Naustneset" />
>>>>>>> e1d4bc35ff8a6074a6f2e91616a996b547c36f15
		<tag k="natural" v="cape" />
		<tag k="ssr:stedsnr" v="261074" />
	</node>
<<<<<<< HEAD
	<node lat="69.03731666440284" lon="17.485372230723847" id="-48922">
		<tag k="name" v="Holmebukta" />
=======
	<node id="-868783" lat="69.0303444471" lon="17.8488861113">
		<tag k="name" v="Bukta" />
>>>>>>> e1d4bc35ff8a6074a6f2e91616a996b547c36f15
		<tag k="natural" v="bay" />
		<tag k="ssr:stedsnr" v="173157" />
	</node>
<<<<<<< HEAD
	<node lat="69.00894722607848" lon="17.518338892659532" id="-48926">
		<tag k="name" v="Karenvika" />
		<tag k="natural" v="bay" />
		<tag k="ssr:stedsnr" v="173817" />
	</node>
	<node lat="69.09563610690266" lon="17.58547499562662" id="-48927">
		<tag k="fixme" v="multiple name tags, choose one and add the other to alt_name" />
		<tag k="name" v="Klauvholmen;Holmen" />
=======
	<node id="-868269" lat="69.0970111127" lon="17.6460694353">
		<tag k="fixme" v="consider seamark:type=rock or natural=shoal" />
		<tag k="name" v="Skjæret" />
>>>>>>> e1d4bc35ff8a6074a6f2e91616a996b547c36f15
		<tag k="place" v="islet" />
		<tag k="ssr:stedsnr" v="261265" />
	</node>
<<<<<<< HEAD
	<node lat="69.08960277359495" lon="17.673352773394452" id="-48931">
		<tag k="name" v="Lindberget" />
		<tag k="natural" v="cape" />
		<tag k="ssr:stedsnr" v="261241" />
	</node>
	<node lat="69.04045000291791" lon="17.926147211756756" id="-48932">
		<tag k="name" v="Gammallappvika" />
		<tag k="natural" v="bay" />
		<tag k="ssr:stedsnr" v="261326" />
	</node>
	<node lat="69.03578055465128" lon="17.48650000674847" id="-48933">
		<tag k="fixme" v="multiple name tags, choose one and add the other to alt_name" />
		<tag k="name" v="Kjerkeholmen;Holmen;Holmsholmen" />
		<tag k="place" v="islet" />
		<tag k="ssr:stedsnr" v="261328" />
	</node>
	<node lat="69.05790833138542" lon="17.54445832622657" id="-48960">
		<tag k="name" v="Djupvikholmen" />
		<tag k="place" v="islet" />
		<tag k="ssr:stedsnr" v="233319" />
	</node>
	<node lat="68.97969166826782" lon="17.512494436962545" id="-48978">
		<tag k="name" v="Skjellgrunnen" />
=======
	<node id="-868771" lat="68.9953722268" lon="17.3426694391">
		<tag k="name" v="Mollgrunnen" />
>>>>>>> e1d4bc35ff8a6074a6f2e91616a996b547c36f15
		<tag k="natural" v="shoal" />
		<tag k="place" v="locality" />
		<tag k="ssr:stedsnr" v="454530" />
	</node>
<<<<<<< HEAD
	<node lat="68.99686389202236" lon="17.474577773294456" id="-48979">
		<tag k="fixme" v="consider seamark:type=rock or natural=shoal" />
		<tag k="name" v="Kastnesskjæret" />
		<tag k="place" v="islet" />
		<tag k="ssr:stedsnr" v="454532" />
	</node>
	<node lat="69.00447222155711" lon="17.483466654632576" id="-48980">
		<tag k="name" v="Nordgrunnen" />
		<tag k="natural" v="shoal" />
		<tag k="place" v="locality" />
		<tag k="ssr:stedsnr" v="454978" />
	</node>
	<node lat="69.0426750037143" lon="17.37033610954494" id="-48981">
		<tag k="name" v="Storvika" />
=======
	<node id="-868258" lat="69.0849277782" lon="17.5652555648">
		<tag k="name" v="Nils-holmen" />
		<tag k="place" v="islet" />
		<tag k="ssr:stedsnr" v="706692" />
	</node>
	<node id="-868766" lat="68.9992499972" lon="17.3480472218">
		<tag k="name" v="Gommeneset" />
		<tag k="natural" v="cape" />
		<tag k="ssr:stedsnr" v="333670" />
	</node>
	<node id="-868765" lat="69.0617055571" lon="17.5468555534">
		<tag k="name" v="Ringneset" />
		<tag k="natural" v="cape" />
		<tag k="ssr:stedsnr" v="332941" />
	</node>
	<node id="-868764" lat="69.0573416635" lon="17.5402777739">
		<tag k="alt_name" v="Sjebbeneset" />
		<tag k="name" v="Sjøbuneset" />
		<tag k="natural" v="cape" />
		<tag k="ssr:stedsnr" v="332931" />
	</node>
	<node id="-868250" lat="69.0366277786" lon="17.8800583281">
		<tag k="name" v="Garnsettodden" />
		<tag k="natural" v="cape" />
		<tag k="ssr:stedsnr" v="705878" />
	</node>
	<node id="-868420" lat="68.9801888864" lon="17.5075555507">
		<tag k="name" v="Labukta" />
		<tag k="natural" v="bay" />
		<tag k="ssr:stedsnr" v="928892" />
	</node>
	<node id="-868245" lat="69.0301916696" lon="17.8531749981">
		<tag k="name" v="Oksebåsen" />
>>>>>>> e1d4bc35ff8a6074a6f2e91616a996b547c36f15
		<tag k="natural" v="bay" />
		<tag k="ssr:stedsnr" v="260157" />
	</node>
<<<<<<< HEAD
	<node lat="69.14009444419409" lon="17.659849997745248" id="-48984">
		<tag k="bay" v="fjord" />
		<tag k="name" v="Solbergfjorden" />
=======
	<node id="-868419" lat="68.9581083313" lon="17.5125305432">
		<tag k="alt_name" v="Skjelvika" />
		<tag k="name" v="Skjellvika" />
		<tag k="natural" v="bay" />
		<tag k="ssr:stedsnr" v="928869" />
	</node>
	<node id="-868414" lat="69.0845750025" lon="17.5574305552">
		<tag k="name" v="Dyrøyklauva" />
		<tag k="natural" v="cape" />
		<tag k="ssr:stedsnr" v="928222" />
	</node>
	<node id="-868233" lat="69.0875194407" lon="17.6850944294">
		<tag k="name" v="Finnlandsleira" />
>>>>>>> e1d4bc35ff8a6074a6f2e91616a996b547c36f15
		<tag k="natural" v="bay" />
		<tag k="ssr:stedsnr" v="261296" />
	</node>
<<<<<<< HEAD
	<node lat="69.09178888705094" lon="17.543897226838403" id="-48986">
		<tag k="name" v="Hesteskjæret" />
=======
	<node id="-868743" lat="69.0509527815" lon="17.6088861204">
		<tag k="name" v="Hundstrandneset" />
>>>>>>> e1d4bc35ff8a6074a6f2e91616a996b547c36f15
		<tag k="natural" v="cape" />
		<tag k="ssr:stedsnr" v="272402" />
	</node>
<<<<<<< HEAD
	<node lat="68.99537222680827" lon="17.342669439084737" id="-49038">
		<tag k="name" v="Mollgrunnen" />
		<tag k="natural" v="shoal" />
		<tag k="place" v="locality" />
		<tag k="ssr:stedsnr" v="340911" />
	</node>
	<node lat="69.08128611320413" lon="17.424883339510046" id="-49052">
		<tag k="name" v="Mellaneset" />
		<tag k="natural" v="cape" />
		<tag k="ssr:stedsnr" v="355183" />
	</node>
	<node lat="68.95266389124566" lon="17.469294446871995" id="-49054">
		<tag k="fixme" v="consider seamark:type=rock or natural=shoal" />
		<tag k="name" v="Rissteinen" />
=======
	<node id="-868226" lat="69.0854944433" lon="17.462002783">
		<tag k="name" v="Litjevika" />
		<tag k="natural" v="bay" />
		<tag k="ssr:stedsnr" v="537175" />
	</node>
	<node id="-869248" lat="69.0227638888" lon="17.8930972303">
		<tag k="name" v="Storholmen" />
>>>>>>> e1d4bc35ff8a6074a6f2e91616a996b547c36f15
		<tag k="place" v="islet" />
		<tag k="ssr:stedsnr" v="355863" />
	</node>
<<<<<<< HEAD
	<node lat="69.00532777749294" lon="17.43413611436438" id="-49070">
		<tag k="name" v="Litjevika" />
		<tag k="natural" v="bay" />
		<tag k="ssr:stedsnr" v="476828" />
	</node>
	<node lat="68.97381388463201" lon="17.545252779961483" id="-49094">
		<tag k="name" v="Båtvika" />
		<tag k="natural" v="bay" />
		<tag k="ssr:stedsnr" v="416195" />
	</node>
	<node lat="68.95754999652216" lon="17.49889999172951" id="-49102">
		<tag k="name" v="Merra" />
		<tag k="natural" v="beach" />
		<tag k="ssr:stedsnr" v="416871" />
	</node>
	<node lat="68.9307305550766" lon="17.454052769174027" id="-49103">
		<tag k="name" v="Lysgrunnen" />
		<tag k="natural" v="shoal" />
		<tag k="place" v="locality" />
		<tag k="ssr:stedsnr" v="442937" />
	</node>
	<node lat="68.9901361083296" lon="17.354452763524733" id="-49118">
		<tag k="name" v="Kråa" />
		<tag k="natural" v="bay" />
		<tag k="ssr:stedsnr" v="462917" />
	</node>
	<node lat="68.91373889149766" lon="17.448930561326605" id="-49129">
		<tag k="name" v="Oterholla" />
		<tag k="natural" v="bay" />
		<tag k="ssr:stedsnr" v="476904" />
	</node>
	<node lat="69.06975833086103" lon="17.60344165226741" id="-49135">
		<tag k="name" v="Heibakken" />
		<tag k="natural" v="shoal" />
		<tag k="place" v="locality" />
		<tag k="ssr:stedsnr" v="515406" />
	</node>
	<node lat="68.95657777495852" lon="17.538177773935423" id="-49155">
=======
	<node id="-868223" lat="68.9656194471" lon="17.5570138958">
		<tag k="name" v="Rødsteinvika" />
		<tag k="natural" v="bay" />
		<tag k="ssr:stedsnr" v="537205" />
	</node>
	<node id="-869240" lat="68.9859944475" lon="17.4819361085">
		<tag k="name" v="Kastnesvika" />
		<tag k="natural" v="bay" />
		<tag k="ssr:stedsnr" v="867973" />
	</node>
	<node id="-869236" lat="69.0793305529" lon="17.4138944316">
		<tag k="name" v="Leverneset" />
		<tag k="natural" v="cape" />
		<tag k="ssr:stedsnr" v="867070" />
	</node>
	<node id="-868723" lat="68.9518500008" lon="17.4711222255">
		<tag k="name" v="Gjeskenesodden" />
		<tag k="natural" v="cape" />
		<tag k="ssr:stedsnr" v="199888" />
	</node>
	<node id="-869234" lat="68.9206611152" lon="17.454402768">
		<tag k="fixme" v="consider seamark:type=rock or natural=shoal" />
		<tag k="name" v="Taterhella" />
		<tag k="place" v="islet" />
		<tag k="ssr:stedsnr" v="841897" />
	</node>
	<node id="-868720" lat="68.9118666632" lon="17.4491055584">
		<tag k="name" v="Russebordan" />
		<tag k="natural" v="cape" />
		<tag k="ssr:stedsnr" v="173894" />
	</node>
	<node id="-868715" lat="69.0089472261" lon="17.5183388927">
		<tag k="name" v="Karenvika" />
		<tag k="natural" v="bay" />
		<tag k="ssr:stedsnr" v="173817" />
	</node>
	<node id="-869220" lat="68.9660500033" lon="17.5538472167">
		<tag k="name" v="Koppmålvika" />
		<tag k="natural" v="bay" />
		<tag k="ssr:stedsnr" v="841229" />
	</node>
	<node id="-868706" lat="69.0373166644" lon="17.4853722307">
		<tag k="name" v="Holmebukta" />
		<tag k="natural" v="bay" />
		<tag k="ssr:stedsnr" v="173157" />
	</node>
	<node id="-868193" lat="68.956577775" lon="17.5381777739">
>>>>>>> e1d4bc35ff8a6074a6f2e91616a996b547c36f15
		<tag k="name" v="Kvanntovika" />
		<tag k="natural" v="bay" />
		<tag k="ssr:stedsnr" v="685925" />
	</node>
<<<<<<< HEAD
	<node lat="69.0854944432509" lon="17.462002782989618" id="-49175">
		<tag k="name" v="Litjevika" />
		<tag k="natural" v="bay" />
		<tag k="ssr:stedsnr" v="537175" />
	</node>
	<node lat="68.96561944706286" lon="17.55701389583921" id="-49176">
		<tag k="name" v="Rødsteinvika" />
		<tag k="natural" v="bay" />
		<tag k="ssr:stedsnr" v="537205" />
	</node>
	<node lat="68.95699166705987" lon="17.494913885308065" id="-49182">
		<tag k="name" v="Kvalnesvika" />
		<tag k="natural" v="bay" />
		<tag k="ssr:stedsnr" v="537873" />
	</node>
	<node lat="69.09159999865736" lon="17.585986113790984" id="-49195">
		<tag k="name" v="Oldervika" />
		<tag k="natural" v="bay" />
		<tag k="ssr:stedsnr" v="584701" />
	</node>
	<node lat="69.08751944074483" lon="17.685094429384243" id="-49196">
		<tag k="name" v="Finnlandsleira" />
=======
	<node id="-868496" lat="69.0963138847" lon="17.642413885">
		<tag k="name" v="Langevika" />
		<tag k="natural" v="bay" />
		<tag k="ssr:stedsnr" v="949668" />
	</node>
	<node id="-868188" lat="68.9137388915" lon="17.4489305613">
		<tag k="name" v="Oterholla" />
		<tag k="natural" v="bay" />
		<tag k="ssr:stedsnr" v="476904" />
	</node>
	<node id="-869007" lat="69.0567666669" lon="17.5331360977">
		<tag k="name" v="Lunde" />
		<tag k="natural" v="cape" />
		<tag k="ssr:stedsnr" v="605505" />
	</node>
	<node id="-869208" lat="69.0801055552" lon="17.5467833366">
		<tag k="name" v="Bukkeneset" />
		<tag k="natural" v="cape" />
		<tag k="ssr:stedsnr" v="828683" />
	</node>
	<node id="-868580" lat="69.0176250001" lon="17.8927722175">
		<tag k="name" v="Sørneset" />
		<tag k="natural" v="cape" />
		<tag k="ssr:stedsnr" v="79089" />
	</node>
	<node id="-868665" lat="68.9625055512" lon="17.5624250063">
		<tag k="name" v="Hesteberget" />
		<tag k="natural" v="cape" />
		<tag k="ssr:stedsnr" v="139860" />
	</node>
	<node id="-868690" lat="69.0602277797" lon="17.5443000107">
		<tag k="fixme" v="consider seamark:type=rock or natural=shoal" />
		<tag k="name" v="Kattnesskjæran" />
		<tag k="place" v="islet" />
		<tag k="ssr:stedsnr" v="172299" />
	</node>
	<node id="-868177" lat="68.9901361083" lon="17.3544527635">
		<tag k="name" v="Kråa" />
>>>>>>> e1d4bc35ff8a6074a6f2e91616a996b547c36f15
		<tag k="natural" v="bay" />
		<tag k="ssr:stedsnr" v="697397" />
	</node>
<<<<<<< HEAD
	<node lat="69.02982778174523" lon="17.35031943289461" id="-49201">
		<tag k="name" v="Håmannsgrunnen" />
		<tag k="natural" v="shoal" />
		<tag k="place" v="locality" />
		<tag k="ssr:stedsnr" v="597919" />
	</node>
	<node lat="69.02473889087108" lon="17.350913878145644" id="-49202">
		<tag k="name" v="Mulgrunnen" />
=======
	<node id="-868176" lat="69.0044722216" lon="17.4834666546">
		<tag k="name" v="Nordgrunnen" />
		<tag k="natural" v="shoal" />
		<tag k="place" v="locality" />
		<tag k="ssr:stedsnr" v="454978" />
	</node>
	<node id="-868175" lat="68.996863892" lon="17.4745777733">
		<tag k="fixme" v="consider seamark:type=rock or natural=shoal" />
		<tag k="name" v="Kastnesskjæret" />
		<tag k="place" v="islet" />
		<tag k="ssr:stedsnr" v="454532" />
	</node>
	<node id="-868174" lat="68.9796916683" lon="17.512494437">
		<tag k="name" v="Skjellgrunnen" />
>>>>>>> e1d4bc35ff8a6074a6f2e91616a996b547c36f15
		<tag k="natural" v="shoal" />
		<tag k="place" v="locality" />
		<tag k="ssr:stedsnr" v="597920" />
	</node>
<<<<<<< HEAD
	<node lat="69.05676666694242" lon="17.533136097712248" id="-49204">
		<tag k="name" v="Lunde" />
		<tag k="natural" v="cape" />
		<tag k="ssr:stedsnr" v="605505" />
	</node>
	<node lat="69.12075000483325" lon="17.71220276888095" id="-49210">
		<tag k="name" v="Brursteinen" />
=======
	<node id="-868167" lat="69.0008694416" lon="17.490850009">
		<tag k="name" v="Hamnegrunnen" />
>>>>>>> e1d4bc35ff8a6074a6f2e91616a996b547c36f15
		<tag k="natural" v="shoal" />
		<tag k="place" v="locality" />
		<tag k="ssr:stedsnr" v="625288" />
	</node>
<<<<<<< HEAD
	<node lat="69.09665555831096" lon="17.648738894904273" id="-49213">
		<tag k="name" v="Finnlandsvika" />
		<tag k="natural" v="bay" />
		<tag k="ssr:stedsnr" v="636386" />
	</node>
	<node lat="69.08641110691032" lon="17.510169442267525" id="-49214">
		<tag k="name" v="Nordvika" />
		<tag k="natural" v="bay" />
		<tag k="ssr:stedsnr" v="636481" />
	</node>
	<node lat="69.00428333712219" lon="17.327813881326964" id="-49215">
		<tag k="name" v="Latræva" />
=======
	<node id="-868165" lat="69.0574027777" lon="17.3837888789">
		<tag k="name" v="Rørneset" />
		<tag k="natural" v="cape" />
		<tag k="ssr:stedsnr" v="658762" />
	</node>
	<node id="-868160" lat="69.0375999987" lon="17.5708027843">
		<tag k="name" v="Stefaneset" />
		<tag k="natural" v="cape" />
		<tag k="ssr:stedsnr" v="658368" />
	</node>
	<node id="-868670" lat="69.0869916677" lon="17.5980805635">
		<tag k="name" v="Lindberggrunnen" />
>>>>>>> e1d4bc35ff8a6074a6f2e91616a996b547c36f15
		<tag k="natural" v="shoal" />
		<tag k="place" v="locality" />
		<tag k="ssr:stedsnr" v="636704" />
	</node>
<<<<<<< HEAD
	<node lat="68.98567499813375" lon="17.37395276600704" id="-49216">
		<tag k="name" v="Gångstøneset" />
		<tag k="natural" v="cape" />
		<tag k="ssr:stedsnr" v="636711" />
	</node>
	<node lat="69.03662777857647" lon="17.880058328148433" id="-49230">
		<tag k="name" v="Garnsettodden" />
		<tag k="natural" v="cape" />
		<tag k="ssr:stedsnr" v="705878" />
	</node>
	<node lat="69.09021944272841" lon="17.53343887942613" id="-49245">
		<tag k="name" v="Rekvika" />
		<tag k="natural" v="bay" />
		<tag k="ssr:stedsnr" v="644728" />
	</node>
	<node lat="69.08492777823383" lon="17.56525556475694" id="-49250">
		<tag k="name" v="Nils-holmen" />
		<tag k="place" v="islet" />
		<tag k="ssr:stedsnr" v="706692" />
	</node>
	<node lat="69.00086944158014" lon="17.4908500090312" id="-49260">
		<tag k="name" v="Hamnegrunnen" />
=======
	<node id="-868153" lat="68.9931638911" lon="17.4126277745">
		<tag k="name" v="Hindgrunnen" />
		<tag k="natural" v="shoal" />
		<tag k="place" v="locality" />
		<tag k="ssr:stedsnr" v="516636" />
	</node>
	<node id="-868152" lat="69.0646333366" lon="17.5534444449">
		<tag k="name" v="Svinvikodden" />
		<tag k="natural" v="cape" />
		<tag k="ssr:stedsnr" v="515960" />
	</node>
	<node id="-868151" lat="69.0697583309" lon="17.6034416523">
		<tag k="name" v="Heibakken" />
		<tag k="natural" v="shoal" />
		<tag k="place" v="locality" />
		<tag k="ssr:stedsnr" v="515406" />
	</node>
	<node id="-869173" lat="69.1016805603" lon="17.5917610991">
		<tag k="name" v="Klauvholmgrunnen" />
>>>>>>> e1d4bc35ff8a6074a6f2e91616a996b547c36f15
		<tag k="natural" v="shoal" />
		<tag k="place" v="locality" />
		<tag k="ssr:stedsnr" v="658805" />
	</node>
<<<<<<< HEAD
	<node lat="69.03001111429154" lon="17.46417777755362" id="-49267">
		<tag k="name" v="Forsåbukta" />
=======
	<node id="-869172" lat="69.1027416662" lon="17.6353805417">
		<tag k="name" v="Slåttevika" />
>>>>>>> e1d4bc35ff8a6074a6f2e91616a996b547c36f15
		<tag k="natural" v="bay" />
		<tag k="ssr:stedsnr" v="697970" />
	</node>
<<<<<<< HEAD
	<node lat="69.03019166958278" lon="17.853174998110745" id="-49270">
		<tag k="name" v="Oksebåsen" />
		<tag k="natural" v="bay" />
		<tag k="ssr:stedsnr" v="705822" />
	</node>
	<node lat="69.03933888824862" lon="17.514372226885367" id="-49277">
		<tag k="name" v="Myrneset" />
=======
	<node id="-867806" lat="69.1190277807" lon="17.7393611207">
		<tag k="name" v="Tenneset" />
		<tag k="natural" v="cape" />
		<tag k="ssr:stedsnr" v="18106" />
	</node>
	<node id="-868656" lat="69.0444833351" lon="17.5971583312">
		<tag k="name" v="Kattebakken" />
		<tag k="natural" v="cape" />
		<tag k="ssr:stedsnr" v="139343" />
	</node>
	<node id="-868655" lat="69.0448166652" lon="17.5278111028">
		<tag k="name" v="Merkesneset" />
>>>>>>> e1d4bc35ff8a6074a6f2e91616a996b547c36f15
		<tag k="natural" v="cape" />
		<tag k="ssr:stedsnr" v="719170" />
	</node>
<<<<<<< HEAD
	<node lat="68.99847500149032" lon="17.420074987417753" id="-49284">
		<tag k="name" v="Jektevika" />
		<tag k="natural" v="bay" />
		<tag k="ssr:stedsnr" v="719813" />
	</node>
	<node lat="69.07692221888601" lon="17.675155541760674" id="-49304">
		<tag k="name" v="Orneset" />
=======
	<node id="-868654" lat="69.1080166651" lon="17.4078249883">
		<tag k="name" v="Mefjerdingen" />
		<tag k="natural" v="shoal" />
		<tag k="place" v="locality" />
		<tag k="ssr:stedsnr" v="139218" />
	</node>
	<node id="-868317" lat="69.0937000032" lon="17.5806055624">
		<tag k="name" v="Klauvhamna" />
		<tag k="natural" v="bay" />
		<tag k="ssr:stedsnr" v="879397" />
	</node>
	<node id="-869160" lat="69.0552499983" lon="17.5391749981">
		<tag k="name" v="Klubbneset" />
>>>>>>> e1d4bc35ff8a6074a6f2e91616a996b547c36f15
		<tag k="natural" v="cape" />
		<tag k="ssr:stedsnr" v="901541" />
	</node>
<<<<<<< HEAD
	<node lat="68.98685278127984" lon="17.368161118655657" id="-49314">
		<tag k="name" v="Gommestranda" />
		<tag k="natural" v="beach" />
		<tag k="ssr:stedsnr" v="901847" />
	</node>
	<node lat="68.94992777415264" lon="17.46850832352828" id="-49318">
=======
	<node id="-868647" lat="69.1167388863" lon="17.6882305467">
>>>>>>> e1d4bc35ff8a6074a6f2e91616a996b547c36f15
		<tag k="fixme" v="consider seamark:type=rock or natural=shoal" />
		<tag k="name" v="Per-Jensasteinen" />
		<tag k="place" v="islet" />
		<tag k="ssr:stedsnr" v="901884" />
	</node>
<<<<<<< HEAD
	<node lat="68.98121944858508" lon="17.54149444750678" id="-49324">
		<tag k="name" v="Faksfjordvika" />
		<tag k="natural" v="bay" />
		<tag k="ssr:stedsnr" v="746869" />
	</node>
	<node lat="69.12628055224357" lon="17.82194720920596" id="-49335">
		<tag k="name" v="Grindbergneset" />
=======
	<node id="-868646" lat="68.9800749967" lon="17.4968166586">
		<tag k="name" v="Guraneset" />
>>>>>>> e1d4bc35ff8a6074a6f2e91616a996b547c36f15
		<tag k="natural" v="cape" />
		<tag k="ssr:stedsnr" v="766844" />
	</node>
<<<<<<< HEAD
	<node lat="68.97218611171388" lon="17.546383321912256" id="-49341">
		<tag k="name" v="Mellavika" />
=======
	<node id="-869155" lat="69.1172694466" lon="17.7528277816">
		<tag k="name" v="Espenesbogen" />
>>>>>>> e1d4bc35ff8a6074a6f2e91616a996b547c36f15
		<tag k="natural" v="bay" />
		<tag k="ssr:stedsnr" v="780214" />
	</node>
<<<<<<< HEAD
	<node lat="69.04911666838875" lon="17.605733339951662" id="-49346">
		<tag k="name" v="Hundstrandvika" />
=======
	<node id="-869148" lat="68.9097361104" lon="17.4481777795">
		<tag k="name" v="Larsevika" />
>>>>>>> e1d4bc35ff8a6074a6f2e91616a996b547c36f15
		<tag k="natural" v="bay" />
		<tag k="ssr:stedsnr" v="780302" />
	</node>
<<<<<<< HEAD
	<node lat="68.98001666361442" lon="17.515063877188457" id="-49350">
		<tag k="name" v="Rødbergvika" />
		<tag k="natural" v="bay" />
		<tag k="ssr:stedsnr" v="780867" />
	</node>
	<node lat="68.98016666482252" lon="17.502130557853018" id="-49351">
		<tag k="name" v="Herborgneset" />
		<tag k="natural" v="cape" />
		<tag k="ssr:stedsnr" v="780868" />
	</node>
	<node lat="68.96605000327845" lon="17.553847216681188" id="-49373">
		<tag k="name" v="Koppmålvika" />
		<tag k="natural" v="bay" />
		<tag k="ssr:stedsnr" v="841229" />
	</node>
	<node lat="68.92066111521461" lon="17.454402768020568" id="-49381">
		<tag k="fixme" v="consider seamark:type=rock or natural=shoal" />
		<tag k="name" v="Taterhella" />
		<tag k="place" v="islet" />
		<tag k="ssr:stedsnr" v="841897" />
	</node>
	<node lat="68.98297778031386" lon="17.390522210224898" id="-49384">
		<tag k="name" v="Hagenesgrunnen" />
=======
	<node id="-868123" lat="69.0549694472" lon="17.5617250012">
		<tag k="name" v="Snaget" />
>>>>>>> e1d4bc35ff8a6074a6f2e91616a996b547c36f15
		<tag k="natural" v="shoal" />
		<tag k="place" v="locality" />
		<tag k="ssr:stedsnr" v="928112" />
	</node>
<<<<<<< HEAD
	<node lat="69.09475833613442" lon="17.625316666167446" id="-49387">
		<tag k="name" v="Finnlandsneset" />
=======
	<node id="-869144" lat="68.9239305538" lon="17.4651833307">
		<tag k="name" v="Laneset" />
>>>>>>> e1d4bc35ff8a6074a6f2e91616a996b547c36f15
		<tag k="natural" v="cape" />
		<tag k="ssr:stedsnr" v="928237" />
	</node>
<<<<<<< HEAD
	<node lat="68.95810833133378" lon="17.512530543155382" id="-49390">
		<tag k="alt_name" v="Skjelvika" />
		<tag k="name" v="Skjellvika" />
		<tag k="natural" v="bay" />
		<tag k="ssr:stedsnr" v="928869" />
	</node>
	<node lat="68.98018888637812" lon="17.507555550654637" id="-49391">
		<tag k="name" v="Labukta" />
		<tag k="natural" v="bay" />
		<tag k="ssr:stedsnr" v="928892" />
	</node>
	<node lat="68.96612777619714" lon="17.497041658806584" id="-49392">
		<tag k="bay" v="fjord" />
		<tag k="loc_name:se" v="Fáksfierda" />
		<tag k="name" v="Faksfjorden" />
		<tag k="name:no" v="Faksfjorden" />
		<tag k="natural" v="bay" />
		<tag k="ssr:stedsnr" v="928906" />
	</node>
	<node lat="68.92914999881634" lon="17.47882222841451" id="-49393">
		<tag k="name" v="Molla" />
		<tag k="natural" v="cape" />
		<tag k="ssr:stedsnr" v="928919" />
	</node>
	<node lat="68.98599444753813" lon="17.481936108483204" id="-49401">
		<tag k="name" v="Kastnesvika" />
		<tag k="natural" v="bay" />
		<tag k="ssr:stedsnr" v="867973" />
	</node>
	<node lat="69.06926667033565" lon="17.55375833020484" id="-49408">
		<tag k="name" v="Forrholtet" />
		<tag k="natural" v="cape" />
		<tag k="ssr:stedsnr" v="879169" />
	</node>
	<node lat="68.99885555237235" lon="17.343894448888634" id="-49416">
		<tag k="name" v="Vinjeneset" />
		<tag k="natural" v="cape" />
		<tag k="ssr:stedsnr" v="887923" />
	</node>
	<node lat="69.11891666418045" lon="17.718111111625507" id="-49418">
		<tag k="name" v="Geitnesvika" />
=======
	<node id="-869143" lat="68.9801666648" lon="17.5021305579">
		<tag k="name" v="Herborgneset" />
		<tag k="natural" v="cape" />
		<tag k="ssr:stedsnr" v="780868" />
	</node>
	<node id="-868118" lat="68.9442194444" lon="17.4765305435">
		<tag k="name" v="Rabben" />
		<tag k="natural" v="cape" />
		<tag k="ssr:stedsnr" v="503892" />
	</node>
	<node id="-868117" lat="68.9642138922" lon="17.5593583206">
		<tag k="name" v="Pålsfjorden" />
		<tag k="natural" v="bay" />
		<tag k="ssr:stedsnr" v="503832" />
	</node>
	<node id="-869134" lat="69.0491166684" lon="17.60573334">
		<tag k="name" v="Hundstrandvika" />
>>>>>>> e1d4bc35ff8a6074a6f2e91616a996b547c36f15
		<tag k="natural" v="bay" />
		<tag k="ssr:stedsnr" v="888111" />
	</node>
<<<<<<< HEAD
	<node lat="69.07025277905112" lon="17.553847208627914" id="-49421">
		<tag k="name" v="Dalvika" />
=======
	<node id="-869132" lat="68.9721861117" lon="17.5463833219">
		<tag k="name" v="Mellavika" />
>>>>>>> e1d4bc35ff8a6074a6f2e91616a996b547c36f15
		<tag k="natural" v="bay" />
		<tag k="ssr:stedsnr" v="888503" />
	</node>
<<<<<<< HEAD
	<node lat="69.04325277511968" lon="17.59347778308418" id="-49422">
		<tag k="name" v="Bogen" />
		<tag k="natural" v="bay" />
		<tag k="ssr:stedsnr" v="888702" />
	</node>
	<node lat="69.1343722246658" lon="17.892572225955288" id="-49423">
		<tag k="name" v="Indre Lavik" />
		<tag k="natural" v="bay" />
		<tag k="ssr:stedsnr" v="900113" />
	</node>
	<node lat="69.03813611407587" lon="17.485944442009426" id="-49426">
		<tag k="name" v="Finnevika" />
		<tag k="natural" v="bay" />
		<tag k="ssr:stedsnr" v="901155" />
	</node>
	<node lat="68.95596389295214" lon="17.54866944143956" id="-49460">
		<tag k="alt_name" v="Kuurdneset" />
		<tag k="name" v="Ku-urneset" />
=======
	<node id="-868616" lat="69.088536115" lon="17.6877055558">
		<tag k="name" v="Bogen" />
		<tag k="natural" v="bay" />
		<tag k="ssr:stedsnr" v="99741" />
	</node>
	<node id="-868102" lat="69.0053277775" lon="17.4341361144">
		<tag k="name" v="Litjevika" />
		<tag k="natural" v="bay" />
		<tag k="ssr:stedsnr" v="476828" />
	</node>
	<node id="-868602" lat="69.0631694408" lon="17.5737749883">
		<tag k="name" v="Forrholtsgrunnen" />
		<tag k="natural" v="shoal" />
		<tag k="place" v="locality" />
		<tag k="ssr:stedsnr" v="90940" />
	</node>
	<node id="-868601" lat="69.0654055552" lon="17.5540111183">
		<tag k="name" v="Svinvika" />
		<tag k="natural" v="bay" />
		<tag k="ssr:stedsnr" v="90921" />
	</node>
	<node id="-868600" lat="68.9807305545" lon="17.4719888887">
		<tag k="name" v="Lauknesgrunnen" />
		<tag k="natural" v="shoal" />
		<tag k="place" v="locality" />
		<tag k="ssr:stedsnr" v="90507" />
	</node>
	<node id="-868599" lat="69.0153138932" lon="17.357466669">
		<tag k="fixme" v="consider seamark:type=rock or natural=shoal" />
		<tag k="name" v="Flua" />
		<tag k="place" v="islet" />
		<tag k="ssr:stedsnr" v="90290" />
	</node>
	<node id="-869108" lat="69.1262805522" lon="17.8219472092">
		<tag k="name" v="Grindbergneset" />
>>>>>>> e1d4bc35ff8a6074a6f2e91616a996b547c36f15
		<tag k="natural" v="cape" />
		<tag k="ssr:stedsnr" v="17944" />
	</node>
<<<<<<< HEAD
	<node lat="68.93383888545407" lon="17.48139444301967" id="-49461">
		<tag k="name" v="Gjeskevika" />
=======
	<node id="-868051" lat="69.0404500029" lon="17.9261472118">
		<tag k="name" v="Gammallappvika" />
		<tag k="natural" v="bay" />
		<tag k="ssr:stedsnr" v="261326" />
	</node>
	<node id="-869092" lat="69.0217083321" lon="17.9129249962">
		<tag k="name" v="Sandvika" />
>>>>>>> e1d4bc35ff8a6074a6f2e91616a996b547c36f15
		<tag k="natural" v="bay" />
		<tag k="ssr:stedsnr" v="17947" />
	</node>
<<<<<<< HEAD
	<node lat="68.99374166927089" lon="17.3702611047057" id="-49463">
		<tag k="loc_name:se" v="Divrrát" />
		<tag k="name" v="Dyrøya" />
		<tag k="name:no" v="Dyrøya" />
		<tag k="place" v="island" />
		<tag k="ssr:stedsnr" v="17145" />
	</node>
	<node lat="69.08706944900848" lon="17.49533332345474" id="-49467">
		<tag k="name" v="Sørneset" />
		<tag k="natural" v="cape" />
		<tag k="ssr:stedsnr" v="18232" />
	</node>
	<node lat="68.97499444866162" lon="17.54489443788338" id="-49474">
		<tag k="name" v="Langeneset" />
=======
	<node id="-868578" lat="69.0246888875" lon="17.3552861123">
		<tag k="name" v="Mulen" />
		<tag k="natural" v="cape" />
		<tag k="ssr:stedsnr" v="79082" />
	</node>
	<node id="-868575" lat="68.9570888876" lon="17.4979222116">
		<tag k="name" v="Kvalnesodden" />
		<tag k="natural" v="cape" />
		<tag k="ssr:stedsnr" v="78943" />
	</node>
	<node id="-869084" lat="68.9812194486" lon="17.5414944475">
		<tag k="name" v="Faksfjordvika" />
		<tag k="natural" v="bay" />
		<tag k="ssr:stedsnr" v="746869" />
	</node>
	<node id="-868054" lat="69.0917888871" lon="17.5438972268">
		<tag k="name" v="Hesteskjæret" />
>>>>>>> e1d4bc35ff8a6074a6f2e91616a996b547c36f15
		<tag k="natural" v="cape" />
		<tag k="ssr:stedsnr" v="18879" />
	</node>
<<<<<<< HEAD
	<node lat="68.98282221807686" lon="17.483169449806006" id="-49475">
=======
	<node id="-868052" lat="69.0357805547" lon="17.4865000067">
>>>>>>> e1d4bc35ff8a6074a6f2e91616a996b547c36f15
		<tag k="fixme" v="multiple name tags, choose one and add the other to alt_name" />
		<tag k="name" v="Laukenesklubben;Laukneset" />
		<tag k="natural" v="cape" />
		<tag k="ssr:stedsnr" v="18985" />
	</node>
<<<<<<< HEAD
	<node lat="69.03744444212649" lon="17.536566672305508" id="-49480">
		<tag k="name" v="Dyrøysundet" />
		<tag k="natural" v="strait" />
		<tag k="ssr:stedsnr" v="19302" />
	</node>
	<node lat="69.02534166581076" lon="17.54003332582078" id="-49483">
		<tag k="name" v="Laneset" />
=======
	<node id="-869075" lat="69.0905027813" lon="17.5858944504">
		<tag k="alt_name" v="Urdneset" />
		<tag k="name" v="Ørnneset" />
>>>>>>> e1d4bc35ff8a6074a6f2e91616a996b547c36f15
		<tag k="natural" v="cape" />
		<tag k="ssr:stedsnr" v="19608" />
	</node>
<<<<<<< HEAD
	<node lat="69.01468055758741" lon="17.355141670750342" id="-49488">
		<tag k="name" v="Flugrunnen" />
=======
	<node id="-869073" lat="69.1173027805" lon="17.6866638749">
		<tag k="name" v="Bettholmgrunnen" />
>>>>>>> e1d4bc35ff8a6074a6f2e91616a996b547c36f15
		<tag k="natural" v="shoal" />
		<tag k="place" v="locality" />
		<tag k="ssr:stedsnr" v="37930" />
	</node>
<<<<<<< HEAD
	<node lat="69.13103055448984" lon="17.870308318696953" id="-49496">
		<tag k="name" v="Ytre Lavik" />
		<tag k="natural" v="bay" />
		<tag k="ssr:stedsnr" v="51064" />
	</node>
	<node lat="68.97981666459819" lon="17.4903777769639" id="-49521">
		<tag k="name" v="Laukeneset" />
=======
	<node id="-869059" lat="69.0411999976" lon="17.9211027667">
		<tag k="name" v="Marbakkodden" />
>>>>>>> e1d4bc35ff8a6074a6f2e91616a996b547c36f15
		<tag k="natural" v="cape" />
		<tag k="ssr:stedsnr" v="52892" />
	</node>
<<<<<<< HEAD
	<node lat="69.02468888752975" lon="17.355286112272633" id="-49533">
		<tag k="name" v="Mulen" />
=======
	<node id="-868034" lat="69.1173833316" lon="17.7692777811">
		<tag k="name" v="Skjerneset" />
>>>>>>> e1d4bc35ff8a6074a6f2e91616a996b547c36f15
		<tag k="natural" v="cape" />
		<tag k="ssr:stedsnr" v="79082" />
	</node>
<<<<<<< HEAD
	<node lat="69.01762500010436" lon="17.89277221750078" id="-49535">
		<tag k="name" v="Sørneset" />
		<tag k="natural" v="cape" />
		<tag k="ssr:stedsnr" v="79089" />
	</node>
	<node lat="69.01531389324468" lon="17.35746666899327" id="-49547">
		<tag k="fixme" v="consider seamark:type=rock or natural=shoal" />
		<tag k="name" v="Flua" />
		<tag k="place" v="islet" />
		<tag k="ssr:stedsnr" v="90290" />
	</node>
	<node lat="69.0654055551873" lon="17.554011118345077" id="-49548">
		<tag k="name" v="Svinvika" />
=======
	<node id="-869057" lat="69.1247111064" lon="17.813638893">
		<tag k="name" v="Hesjebogen" />
		<tag k="natural" v="bay" />
		<tag k="ssr:stedsnr" v="644857" />
	</node>
	<node id="-868032" lat="69.0865500006" lon="17.682897231">
		<tag k="name" v="Brøstadbotn" />
>>>>>>> e1d4bc35ff8a6074a6f2e91616a996b547c36f15
		<tag k="natural" v="bay" />
		<tag k="ssr:stedsnr" v="90921" />
	</node>
<<<<<<< HEAD
	<node lat="69.06316944075206" lon="17.573774988286242" id="-49549">
		<tag k="name" v="Forrholtsgrunnen" />
		<tag k="natural" v="shoal" />
		<tag k="place" v="locality" />
		<tag k="ssr:stedsnr" v="90940" />
	</node>
	<node lat="69.11681666327087" lon="17.74459445246594" id="-49554">
		<tag k="name" v="Vargeneset" />
=======
	<node id="-868030" lat="68.9962444443" lon="17.4793111147">
		<tag k="name" v="Løkteskjeret" />
		<tag k="natural" v="cape" />
		<tag k="ssr:stedsnr" v="443000" />
	</node>
	<node id="-868029" lat="68.9911361123" lon="17.475683332">
		<tag k="name" v="Kjerkeneset" />
>>>>>>> e1d4bc35ff8a6074a6f2e91616a996b547c36f15
		<tag k="natural" v="cape" />
		<tag k="ssr:stedsnr" v="99148" />
	</node>
<<<<<<< HEAD
	<node lat="69.08853611497803" lon="17.68770555582474" id="-49560">
		<tag k="name" v="Bogen" />
=======
	<node id="-869052" lat="69.0902194427" lon="17.5334388794">
		<tag k="name" v="Rekvika" />
>>>>>>> e1d4bc35ff8a6074a6f2e91616a996b547c36f15
		<tag k="natural" v="bay" />
		<tag k="ssr:stedsnr" v="99741" />
	</node>
<<<<<<< HEAD
	<node lat="69.11673888629919" lon="17.68823054671062" id="-49580">
		<tag k="fixme" v="consider seamark:type=rock or natural=shoal" />
		<tag k="name" v="Bettholmflua" />
		<tag k="place" v="islet" />
		<tag k="ssr:stedsnr" v="119205" />
	</node>
	<node lat="69.10801666511452" lon="17.40782498827076" id="-49585">
		<tag k="name" v="Mefjerdingen" />
=======
	<node id="-868025" lat="68.9307305551" lon="17.4540527692">
		<tag k="name" v="Lysgrunnen" />
>>>>>>> e1d4bc35ff8a6074a6f2e91616a996b547c36f15
		<tag k="natural" v="shoal" />
		<tag k="place" v="locality" />
		<tag k="ssr:stedsnr" v="139218" />
	</node>
<<<<<<< HEAD
	<node lat="69.0334666649801" lon="17.549430545169756" id="-49589">
		<tag k="alt_name" v="Skjeret" />
		<tag k="name" v="Storskjæret" />
		<tag k="natural" v="shoal" />
		<tag k="place" v="locality" />
		<tag k="ssr:stedsnr" v="139327" />
	</node>
	<node lat="68.96250555124324" lon="17.5624250063" id="-49596">
		<tag k="name" v="Hesteberget" />
		<tag k="natural" v="cape" />
		<tag k="ssr:stedsnr" v="139860" />
	</node>
	<node lat="69.08699166766847" lon="17.598080563531845" id="-49600">
		<tag k="name" v="Lindberggrunnen" />
		<tag k="natural" v="shoal" />
		<tag k="place" v="locality" />
		<tag k="ssr:stedsnr" v="150398" />
	</node>
	<node lat="69.03398055826166" lon="17.920244430566058" id="-49616">
		<tag k="name" v="Storbukta" />
=======
	<node id="-868467" lat="69.1189166642" lon="17.7181111116">
		<tag k="name" v="Geitnesvika" />
		<tag k="natural" v="bay" />
		<tag k="ssr:stedsnr" v="888111" />
	</node>
	<node id="-869040" lat="69.0405166634" lon="17.5232138885">
		<tag k="name" v="Bakaromnen" />
		<tag k="natural" v="shoal" />
		<tag k="place" v="locality" />
		<tag k="ssr:stedsnr" v="636968" />
	</node>
	<node id="-869039" lat="68.9856749981" lon="17.373952766">
		<tag k="name" v="Gångstøneset" />
		<tag k="natural" v="cape" />
		<tag k="ssr:stedsnr" v="636711" />
	</node>
	<node id="-869038" lat="69.0042833371" lon="17.3278138813">
		<tag k="name" v="Latræva" />
		<tag k="natural" v="shoal" />
		<tag k="place" v="locality" />
		<tag k="ssr:stedsnr" v="636704" />
	</node>
	<node id="-869037" lat="69.0864111069" lon="17.5101694423">
		<tag k="name" v="Nordvika" />
		<tag k="natural" v="bay" />
		<tag k="ssr:stedsnr" v="636481" />
	</node>
	<node id="-869036" lat="69.0966555583" lon="17.6487388949">
		<tag k="name" v="Finnlandsvika" />
		<tag k="natural" v="bay" />
		<tag k="ssr:stedsnr" v="636386" />
	</node>
	<node id="-869035" lat="69.0040388928" lon="17.5096277756">
		<tag k="name" v="Storvika" />
>>>>>>> e1d4bc35ff8a6074a6f2e91616a996b547c36f15
		<tag k="natural" v="bay" />
		<tag k="ssr:stedsnr" v="159865" />
	</node>
<<<<<<< HEAD
	<node lat="69.0602277796593" lon="17.544300010714274" id="-49625">
		<tag k="fixme" v="consider seamark:type=rock or natural=shoal" />
		<tag k="name" v="Kattnesskjæran" />
		<tag k="place" v="islet" />
		<tag k="ssr:stedsnr" v="172299" />
	</node>
	<node lat="68.9118666631575" lon="17.449105558389324" id="-49646">
		<tag k="name" v="Russebordan" />
		<tag k="natural" v="cape" />
		<tag k="ssr:stedsnr" v="173894" />
	</node>
	<node lat="68.95185000081912" lon="17.471122225523047" id="-49649">
		<tag k="name" v="Gjeskenesodden" />
		<tag k="natural" v="cape" />
		<tag k="ssr:stedsnr" v="199888" />
	</node>
	<node lat="69.05095278145794" lon="17.60888612036013" id="-49669">
		<tag k="name" v="Hundstrandneset" />
=======
	<node id="-868518" lat="68.9338388855" lon="17.481394443">
		<tag k="name" v="Gjeskevika" />
		<tag k="natural" v="bay" />
		<tag k="ssr:stedsnr" v="17947" />
	</node>
	<node id="-868517" lat="68.955963893" lon="17.5486694414">
		<tag k="alt_name" v="Kuurdneset" />
		<tag k="name" v="Ku-urneset" />
		<tag k="natural" v="cape" />
		<tag k="ssr:stedsnr" v="17944" />
	</node>
	<node id="-868514" lat="68.9937416693" lon="17.3702611047">
		<tag k="loc_name:se" v="Divrrát" />
		<tag k="name" v="Dyrøya" />
		<tag k="name:no" v="Dyrøya" />
		<tag k="place" v="island" />
		<tag k="ssr:stedsnr" v="17145" />
	</node>
	<node id="-869021" lat="69.1207500048" lon="17.7122027689">
		<tag k="name" v="Brursteinen" />
		<tag k="natural" v="shoal" />
		<tag k="place" v="locality" />
		<tag k="ssr:stedsnr" v="625288" />
	</node>
	<node id="-868378" lat="69.0769222189" lon="17.6751555418">
		<tag k="name" v="Orneset" />
		<tag k="natural" v="cape" />
		<tag k="ssr:stedsnr" v="901541" />
	</node>
	<node id="-868501" lat="69.0844749967" lon="17.4404999944">
		<tag k="name" v="Sandneset" />
>>>>>>> e1d4bc35ff8a6074a6f2e91616a996b547c36f15
		<tag k="natural" v="cape" />
		<tag k="ssr:stedsnr" v="212952" />
	</node>
<<<<<<< HEAD
	<node lat="69.1218999992309" lon="17.802833336194304" id="-49674">
		<tag k="name" v="Myrneset" />
=======
	<node id="-869008" lat="69.0301305559" lon="17.8514638883">
		<tag k="alt_name" v="Klubbneset" />
		<tag k="name" v="Klubbeneset" />
>>>>>>> e1d4bc35ff8a6074a6f2e91616a996b547c36f15
		<tag k="natural" v="cape" />
		<tag k="ssr:stedsnr" v="220179" />
	</node>
<<<<<<< HEAD
	<node lat="69.08064999616536" lon="17.548705561265454" id="-49692">
		<tag k="name" v="Vika" />
		<tag k="natural" v="bay" />
		<tag k="ssr:stedsnr" v="221661" />
	</node>
	<node lat="68.97676110675525" lon="17.544766671594775" id="-49727">
		<tag k="name" v="Heimstadvika" />
		<tag k="natural" v="bay" />
		<tag k="ssr:stedsnr" v="294197" />
	</node>
	<node lat="68.95538611469539" lon="17.483200000809642" id="-49735">
		<tag k="fixme" v="consider seamark:type=rock or natural=shoal" />
		<tag k="name" v="Skipssteinen" />
		<tag k="place" v="islet" />
		<tag k="ssr:stedsnr" v="294884" />
	</node>
	<node lat="69.0573416634711" lon="17.540277773851738" id="-49762">
		<tag k="alt_name" v="Sjebbeneset" />
		<tag k="name" v="Sjøbuneset" />
		<tag k="natural" v="cape" />
		<tag k="ssr:stedsnr" v="332931" />
	</node>
	<node lat="69.0617055571286" lon="17.54685555342651" id="-49763">
		<tag k="name" v="Ringneset" />
		<tag k="natural" v="cape" />
		<tag k="ssr:stedsnr" v="332941" />
	</node>
	<node lat="68.99924999719387" lon="17.348047221812937" id="-49764">
		<tag k="name" v="Gommeneset" />
=======
	<node id="-867983" lat="68.9767611068" lon="17.5447666716">
		<tag k="name" v="Heimstadvika" />
		<tag k="natural" v="bay" />
		<tag k="ssr:stedsnr" v="294197" />
	</node>
	<node id="-869005" lat="69.0247388909" lon="17.3509138781">
		<tag k="name" v="Mulgrunnen" />
		<tag k="natural" v="shoal" />
		<tag k="place" v="locality" />
		<tag k="ssr:stedsnr" v="597920" />
	</node>
	<node id="-869004" lat="69.0298277817" lon="17.3503194329">
		<tag k="name" v="Håmannsgrunnen" />
		<tag k="natural" v="shoal" />
		<tag k="place" v="locality" />
		<tag k="ssr:stedsnr" v="597919" />
	</node>
	<node id="-868489" lat="68.9291499988" lon="17.4788222284">
		<tag k="name" v="Molla" />
		<tag k="natural" v="cape" />
		<tag k="ssr:stedsnr" v="928919" />
	</node>
	<node id="-868488" lat="68.9661277762" lon="17.4970416588">
		<tag k="bay" v="fjord" />
		<tag k="loc_name:se" v="Fáksfierda" />
		<tag k="name" v="Faksfjorden" />
		<tag k="name:no" v="Faksfjorden" />
		<tag k="natural" v="bay" />
		<tag k="ssr:stedsnr" v="928906" />
	</node>
	<node id="-869142" lat="68.9800166636" lon="17.5150638772">
		<tag k="name" v="Rødbergvika" />
		<tag k="natural" v="bay" />
		<tag k="ssr:stedsnr" v="780867" />
	</node>
	<node id="-868629" lat="69.0775861146" lon="17.6763166587">
		<tag k="name" v="Litjehavet" />
		<tag k="natural" v="bay" />
		<tag k="ssr:stedsnr" v="112536" />
	</node>
	<node id="-868988" lat="68.9897361107" lon="17.4783861032">
		<tag k="name" v="Keisaren" />
>>>>>>> e1d4bc35ff8a6074a6f2e91616a996b547c36f15
		<tag k="natural" v="cape" />
		<tag k="ssr:stedsnr" v="333670" />
	</node>
<<<<<<< HEAD
	<node lat="69.03034444705176" lon="17.848886111254032" id="-49772">
		<tag k="name" v="Bukta" />
=======
	<node id="-868473" lat="69.0381361141" lon="17.485944442">
		<tag k="name" v="Finnevika" />
>>>>>>> e1d4bc35ff8a6074a6f2e91616a996b547c36f15
		<tag k="natural" v="bay" />
		<tag k="ssr:stedsnr" v="341879" />
	</node>
<<<<<<< HEAD
	<node lat="69.08468611526696" lon="17.557916655570242" id="-49775">
		<tag k="name" v="Naustneset" />
		<tag k="natural" v="cape" />
		<tag k="ssr:stedsnr" v="342649" />
	</node>
	<node lat="68.91497777736174" lon="17.448455542997394" id="-49810">
		<tag k="fixme" v="consider seamark:type=rock or natural=shoal" />
		<tag k="name" v="Gunhildsteinen" />
		<tag k="place" v="islet" />
		<tag k="ssr:stedsnr" v="355887" />
	</node>
	<node lat="69.04970278079823" lon="17.31619165989003" id="-49815">
		<tag k="bay" v="fjord" />
		<tag k="name" v="Tranøyfjorden" />
=======
	<node id="-868470" lat="69.1343722247" lon="17.892572226">
		<tag k="name" v="Indre Lavik" />
		<tag k="natural" v="bay" />
		<tag k="ssr:stedsnr" v="900113" />
	</node>
	<node id="-868469" lat="69.0702527791" lon="17.5538472086">
		<tag k="name" v="Dalvika" />
>>>>>>> e1d4bc35ff8a6074a6f2e91616a996b547c36f15
		<tag k="natural" v="bay" />
		<tag k="ssr:stedsnr" v="382027" />
	</node>
<<<<<<< HEAD
	<node lat="69.05496944715716" lon="17.561725001166522" id="-49827">
		<tag k="name" v="Snaget" />
		<tag k="natural" v="shoal" />
		<tag k="place" v="locality" />
		<tag k="ssr:stedsnr" v="393953" />
	</node>
	<node lat="69.11925538649636" lon="17.712826343562057" id="-49834">
		<tag k="name" v="Geitneset" />
=======
	<node id="-868542" lat="69.0146805576" lon="17.3551416708">
		<tag k="name" v="Flugrunnen" />
		<tag k="natural" v="shoal" />
		<tag k="place" v="locality" />
		<tag k="ssr:stedsnr" v="37930" />
	</node>
	<node id="-868466" lat="68.9988555524" lon="17.3438944489">
		<tag k="name" v="Vinjeneset" />
>>>>>>> e1d4bc35ff8a6074a6f2e91616a996b547c36f15
		<tag k="natural" v="cape" />
		<tag k="ssr:stedsnr" v="402137" />
	</node>
<<<<<<< HEAD
	<node lat="69.08288888725627" lon="17.550322213340436" id="-49839">
		<tag k="name" v="Skjellvika" />
		<tag k="natural" v="bay" />
		<tag k="ssr:stedsnr" v="403691" />
	</node>
	<node lat="69.08569999554756" lon="17.563411117617775" id="-49840">
		<tag k="name" v="Sandvika" />
		<tag k="natural" v="bay" />
		<tag k="ssr:stedsnr" v="403695" />
	</node>
	<node lat="69.07893055144211" lon="17.41064166206701" id="-49850">
		<tag k="fixme" v="consider seamark:type=rock or natural=shoal" />
		<tag k="name" v="Kavringen" />
		<tag k="place" v="islet" />
		<tag k="ssr:stedsnr" v="416160" />
	</node>
	<node lat="68.99624444425795" lon="17.479311114668754" id="-49873">
		<tag k="name" v="Løkteskjeret" />
=======
	<node id="-868967" lat="69.08158889" lon="17.550222213">
		<tag k="name" v="Forneset" />
>>>>>>> e1d4bc35ff8a6074a6f2e91616a996b547c36f15
		<tag k="natural" v="cape" />
		<tag k="ssr:stedsnr" v="443000" />
	</node>
<<<<<<< HEAD
	<node lat="68.99113611233648" lon="17.475683331960145" id="-49877">
		<tag k="name" v="Kjerkeneset" />
		<tag k="natural" v="cape" />
		<tag k="ssr:stedsnr" v="442975" />
	</node>
	<node lat="69.086550000617" lon="17.682897230993223" id="-49879">
		<tag k="name" v="Brøstadbotn" />
=======
	<node id="-868966" lat="69.0915999987" lon="17.5859861138">
		<tag k="name" v="Oldervika" />
		<tag k="natural" v="bay" />
		<tag k="ssr:stedsnr" v="584701" />
	</node>
	<node id="-868454" lat="69.0833027784" lon="17.5538361152">
		<tag k="name" v="Krøkebærholmen" />
		<tag k="place" v="islet" />
		<tag k="ssr:stedsnr" v="949676" />
	</node>
	<node id="-867935" lat="69.0339805583" lon="17.9202444306">
		<tag k="name" v="Storbukta" />
>>>>>>> e1d4bc35ff8a6074a6f2e91616a996b547c36f15
		<tag k="natural" v="bay" />
		<tag k="ssr:stedsnr" v="443243" />
	</node>
<<<<<<< HEAD
	<node lat="69.11738333157098" lon="17.7692777811312" id="-49881">
		<tag k="name" v="Skjerneset" />
		<tag k="natural" v="cape" />
		<tag k="ssr:stedsnr" v="443279" />
	</node>
	<node lat="68.94421944443329" lon="17.476530543508574" id="-49894">
		<tag k="name" v="Rabben" />
=======
	<node id="-868443" lat="69.0168250032" lon="17.5316111059">
		<tag k="name" v="Sortevika" />
		<tag k="natural" v="bay" />
		<tag k="ssr:stedsnr" v="940996" />
	</node>
	<node id="-868442" lat="68.9904333297" lon="17.3548305582">
		<tag k="name" v="Hesteneset" />
>>>>>>> e1d4bc35ff8a6074a6f2e91616a996b547c36f15
		<tag k="natural" v="cape" />
		<tag k="ssr:stedsnr" v="503892" />
	</node>
<<<<<<< HEAD
	<node lat="68.96421389223377" lon="17.55935832064026" id="-49897">
		<tag k="name" v="Pålsfjorden" />
=======
	<node id="-868441" lat="69.0278333382" lon="17.3514527654">
		<tag k="name" v="Bergsvika" />
>>>>>>> e1d4bc35ff8a6074a6f2e91616a996b547c36f15
		<tag k="natural" v="bay" />
		<tag k="ssr:stedsnr" v="503832" />
	</node>
<<<<<<< HEAD
	<node lat="69.06463333657024" lon="17.553444444868884" id="-49908">
		<tag k="name" v="Svinvikodden" />
=======
	<node id="-868952" lat="69.1048749998" lon="17.637188892">
		<tag k="name" v="Slåttevikneset" />
>>>>>>> e1d4bc35ff8a6074a6f2e91616a996b547c36f15
		<tag k="natural" v="cape" />
		<tag k="ssr:stedsnr" v="515960" />
	</node>
<<<<<<< HEAD
	<node lat="68.99316389107967" lon="17.412627774479105" id="-49909">
		<tag k="name" v="Hindgrunnen" />
=======
	<node id="-867926" lat="69.033466665" lon="17.5494305452">
		<tag k="alt_name" v="Skjeret" />
		<tag k="name" v="Storskjæret" />
>>>>>>> e1d4bc35ff8a6074a6f2e91616a996b547c36f15
		<tag k="natural" v="shoal" />
		<tag k="place" v="locality" />
		<tag k="ssr:stedsnr" v="516636" />
	</node>
<<<<<<< HEAD
	<node lat="69.06093333740745" lon="17.632380554850855" id="-49917">
		<tag k="name" v="Sæterneset" />
		<tag k="natural" v="cape" />
		<tag k="ssr:stedsnr" v="524289" />
	</node>
	<node lat="69.08927222103746" lon="17.618650000953107" id="-49942">
		<tag k="alt_name" v="Finnlandsholman" />
		<tag k="name" v="Finnlandsholmen" />
		<tag k="place" v="islet" />
		<tag k="ssr:stedsnr" v="564235" />
	</node>
	<node lat="69.09074722544698" lon="17.535741654805836" id="-49943">
		<tag k="name" v="Rekvikodden" />
		<tag k="natural" v="cape" />
		<tag k="ssr:stedsnr" v="564237" />
	</node>
	<node lat="69.11543333367072" lon="17.685574987200017" id="-49945">
=======
	<node id="-868427" lat="69.0920527768" lon="17.6116472141">
		<tag k="name" v="Klauvgrunnen" />
		<tag k="natural" v="shoal" />
		<tag k="place" v="locality" />
		<tag k="ssr:stedsnr" v="818464" />
	</node>
	<node id="-867914" lat="69.1400944442" lon="17.6598499977">
		<tag k="bay" v="fjord" />
		<tag k="name" v="Solbergfjorden" />
		<tag k="natural" v="bay" />
		<tag k="ssr:stedsnr" v="261296" />
	</node>
	<node id="-868936" lat="69.1154333337" lon="17.6855749872">
>>>>>>> e1d4bc35ff8a6074a6f2e91616a996b547c36f15
		<tag k="name" v="Bettholmen" />
		<tag k="old_name" v="Bøttholmen;Betholmen" />
		<tag k="place" v="islet" />
		<tag k="ssr:stedsnr" v="564259" />
	</node>
<<<<<<< HEAD
	<node lat="69.10487499975154" lon="17.63718889202718" id="-49960">
		<tag k="name" v="Slåttevikneset" />
=======
	<node id="-868934" lat="69.0907472254" lon="17.5357416548">
		<tag k="name" v="Rekvikodden" />
>>>>>>> e1d4bc35ff8a6074a6f2e91616a996b547c36f15
		<tag k="natural" v="cape" />
		<tag k="ssr:stedsnr" v="575421" />
	</node>
<<<<<<< HEAD
	<node lat="69.09701111271971" lon="17.64606943529224" id="-49973">
		<tag k="fixme" v="consider seamark:type=rock or natural=shoal" />
		<tag k="name" v="Skjæret" />
=======
	<node id="-868933" lat="69.089272221" lon="17.618650001">
		<tag k="alt_name" v="Finnlandsholman" />
		<tag k="name" v="Finnlandsholmen" />
>>>>>>> e1d4bc35ff8a6074a6f2e91616a996b547c36f15
		<tag k="place" v="islet" />
		<tag k="ssr:stedsnr" v="584724" />
	</node>
<<<<<<< HEAD
	<node lat="69.08158889001456" lon="17.550222212991976" id="-49974">
		<tag k="name" v="Forneset" />
		<tag k="natural" v="cape" />
		<tag k="ssr:stedsnr" v="584732" />
	</node>
	<node lat="68.98973611066636" lon="17.478386103244535" id="-50000">
		<tag k="name" v="Keisaren" />
		<tag k="natural" v="cape" />
		<tag k="ssr:stedsnr" v="597809" />
	</node>
	<node lat="69.03013055589277" lon="17.851463888329864" id="-50009">
		<tag k="alt_name" v="Klubbneset" />
		<tag k="name" v="Klubbeneset" />
=======
	<node id="-867908" lat="69.0896027736" lon="17.6733527734">
		<tag k="name" v="Lindberget" />
		<tag k="natural" v="cape" />
		<tag k="ssr:stedsnr" v="261241" />
	</node>
	<node id="-867907" lat="69.0294750032" lon="17.912375001">
		<tag k="name" v="Nordneset" />
		<tag k="natural" v="cape" />
		<tag k="ssr:stedsnr" v="261074" />
	</node>
	<node id="-868416" lat="69.0947583361" lon="17.6253166662">
		<tag k="name" v="Finnlandsneset" />
>>>>>>> e1d4bc35ff8a6074a6f2e91616a996b547c36f15
		<tag k="natural" v="cape" />
		<tag k="ssr:stedsnr" v="624121" />
	</node>
<<<<<<< HEAD
	<node lat="69.00403889277723" lon="17.509627775571587" id="-50031">
		<tag k="name" v="Storvika" />
		<tag k="natural" v="bay" />
		<tag k="ssr:stedsnr" v="635999" />
	</node>
	<node lat="69.04051666343237" lon="17.523213888543737" id="-50032">
		<tag k="name" v="Bakaromnen" />
=======
	<node id="-868927" lat="68.9569916671" lon="17.4949138853">
		<tag k="name" v="Kvalnesvika" />
		<tag k="natural" v="bay" />
		<tag k="ssr:stedsnr" v="537873" />
	</node>
	<node id="-867902" lat="69.0426750037" lon="17.3703361095">
		<tag k="name" v="Storvika" />
		<tag k="natural" v="bay" />
		<tag k="ssr:stedsnr" v="260157" />
	</node>
	<node id="-868413" lat="68.9829777803" lon="17.3905222102">
		<tag k="name" v="Hagenesgrunnen" />
>>>>>>> e1d4bc35ff8a6074a6f2e91616a996b547c36f15
		<tag k="natural" v="shoal" />
		<tag k="place" v="locality" />
		<tag k="ssr:stedsnr" v="636968" />
	</node>
<<<<<<< HEAD
	<node lat="69.1247111064246" lon="17.8136388930389" id="-50037">
		<tag k="name" v="Hesjebogen" />
		<tag k="natural" v="bay" />
		<tag k="ssr:stedsnr" v="644857" />
	</node>
	<node lat="69.04119999759052" lon="17.921102766738986" id="-50039">
		<tag k="name" v="Marbakkodden" />
=======
	<node id="-867888" lat="68.9798166646" lon="17.490377777">
		<tag k="name" v="Laukeneset" />
>>>>>>> e1d4bc35ff8a6074a6f2e91616a996b547c36f15
		<tag k="natural" v="cape" />
		<tag k="ssr:stedsnr" v="644863" />
	</node>
<<<<<<< HEAD
	<node lat="69.11065000212496" lon="17.66026943906172" id="-50046">
		<tag k="name" v="Krokvika" />
		<tag k="natural" v="bay" />
		<tag k="ssr:stedsnr" v="645527" />
	</node>
	<node lat="69.0375999986561" lon="17.570802784298014" id="-50060">
		<tag k="name" v="Stefaneset" />
=======
	<node id="-868908" lat="69.0609333374" lon="17.6323805549">
		<tag k="name" v="Sæterneset" />
>>>>>>> e1d4bc35ff8a6074a6f2e91616a996b547c36f15
		<tag k="natural" v="cape" />
		<tag k="ssr:stedsnr" v="658368" />
	</node>
	<node lat="69.05740277774058" lon="17.383788878889874" id="-50064">
		<tag k="name" v="Rørneset" />
		<tag k="natural" v="cape" />
		<tag k="ssr:stedsnr" v="658762" />
	</node>
	<node lat="69.12915000254283" lon="17.853708340828714" id="-50089">
		<tag k="name" v="Furstrandvika" />
		<tag k="natural" v="bay" />
		<tag k="ssr:stedsnr" v="719752" />
	</node>
	<node lat="68.92362500228953" lon="17.462636116144466" id="-50094">
		<tag k="name" v="Lanesvika" />
		<tag k="natural" v="bay" />
		<tag k="ssr:stedsnr" v="719868" />
	</node>
<<<<<<< HEAD
	<node lat="68.98613611491787" lon="17.376238882821028" id="-50095">
=======
	<node id="-868392" lat="68.9861361149" lon="17.3762388828">
>>>>>>> e1d4bc35ff8a6074a6f2e91616a996b547c36f15
		<tag k="fixme" v="multiple name tags, choose one and add the other to alt_name" />
		<tag k="name" v="Hagenes;Hagenesodden" />
		<tag k="natural" v="cape" />
		<tag k="ssr:stedsnr" v="745155" />
	</node>
<<<<<<< HEAD
	<node lat="69.11730278046251" lon="17.686663874912064" id="-50098">
		<tag k="name" v="Bettholmgrunnen" />
		<tag k="natural" v="shoal" />
		<tag k="old_name" v="Bøttholmgrunnen" />
=======
	<node id="-868391" lat="68.9868527813" lon="17.3681611187">
		<tag k="name" v="Gommestranda" />
		<tag k="natural" v="beach" />
>>>>>>> e1d4bc35ff8a6074a6f2e91616a996b547c36f15
		<tag k="place" v="locality" />
		<tag k="ssr:stedsnr" v="746282" />
	</node>
<<<<<<< HEAD
	<node lat="69.09050278130283" lon="17.585894450439223" id="-50100">
		<tag k="alt_name" v="Urdneset" />
		<tag k="name" v="Ørnneset" />
		<tag k="natural" v="cape" />
		<tag k="ssr:stedsnr" v="746239" />
	</node>
	<node lat="69.02170833212706" lon="17.912924996245394" id="-50113">
		<tag k="name" v="Sandvika" />
		<tag k="natural" v="bay" />
		<tag k="ssr:stedsnr" v="747624" />
	</node>
	<node lat="68.92393055377417" lon="17.465183330668154" id="-50145">
		<tag k="name" v="Laneset" />
		<tag k="natural" v="cape" />
		<tag k="ssr:stedsnr" v="780872" />
	</node>
	<node lat="68.90973611037764" lon="17.448177779488663" id="-50149">
		<tag k="name" v="Larsevika" />
		<tag k="natural" v="bay" />
		<tag k="ssr:stedsnr" v="780883" />
	</node>
	<node lat="69.05524999827298" lon="17.539174998076227" id="-50170">
		<tag k="name" v="Klubbneset" />
		<tag k="natural" v="cape" />
		<tag k="ssr:stedsnr" v="807330" />
	</node>
	<node lat="69.11726944659497" lon="17.75282778159247" id="-50172">
		<tag k="name" v="Espenesbogen" />
=======
	<node id="-868389" lat="68.9499277742" lon="17.4685083235">
		<tag k="fixme" v="consider seamark:type=rock or natural=shoal" />
		<tag k="name" v="Per-Jensasteinen" />
		<tag k="place" v="islet" />
		<tag k="ssr:stedsnr" v="901884" />
	</node>
	<node id="-868614" lat="69.1168166633" lon="17.7445944525">
		<tag k="name" v="Vargeneset" />
		<tag k="natural" v="cape" />
		<tag k="ssr:stedsnr" v="99148" />
	</node>
	<node id="-867910" lat="69.0956361069" lon="17.5854749956">
		<tag k="fixme" v="multiple name tags, choose one and add the other to alt_name" />
		<tag k="name" v="Holmen;Klauvholmen" />
		<tag k="place" v="islet" />
		<tag k="ssr:stedsnr" v="261265" />
	</node>
	<node id="-868016" lat="68.9553861147" lon="17.4832000008">
		<tag k="fixme" v="consider seamark:type=rock or natural=shoal" />
		<tag k="name" v="Skipssteinen" />
		<tag k="place" v="islet" />
		<tag k="ssr:stedsnr" v="294884" />
	</node>
	<node id="-867869" lat="69.1310305545" lon="17.8703083187">
		<tag k="name" v="Ytre Lavik" />
>>>>>>> e1d4bc35ff8a6074a6f2e91616a996b547c36f15
		<tag k="natural" v="bay" />
		<tag k="ssr:stedsnr" v="807263" />
	</node>
<<<<<<< HEAD
	<node lat="69.10274166615054" lon="17.635380541691873" id="-50183">
		<tag k="name" v="Slåttevika" />
		<tag k="natural" v="bay" />
		<tag k="ssr:stedsnr" v="808252" />
	</node>
	<node lat="69.10168056031748" lon="17.591761099138612" id="-50184">
		<tag k="name" v="Klauvholmgrunnen" />
		<tag k="natural" v="shoal" />
		<tag k="place" v="locality" />
		<tag k="ssr:stedsnr" v="808253" />
	</node>
	<node lat="69.09205277680323" lon="17.611647214147467" id="-50188">
		<tag k="name" v="Klauvgrunnen" />
		<tag k="natural" v="shoal" />
		<tag k="place" v="locality" />
		<tag k="ssr:stedsnr" v="818464" />
	</node>
	<node lat="69.08010555522476" lon="17.546783336615135" id="-50207">
		<tag k="name" v="Bukkeneset" />
		<tag k="natural" v="cape" />
		<tag k="ssr:stedsnr" v="828683" />
	</node>
	<node lat="69.07933055285804" lon="17.413894431580797" id="-50233">
		<tag k="name" v="Leverneset" />
		<tag k="natural" v="cape" />
		<tag k="ssr:stedsnr" v="867070" />
	</node>
	<node lat="69.02276388880635" lon="17.8930972302575" id="-50242">
		<tag k="name" v="Storholmen" />
		<tag k="place" v="islet" />
		<tag k="ssr:stedsnr" v="868599" />
	</node>
	<node lat="69.10894444422605" lon="17.650830563224144" id="-50244">
		<tag k="name" v="Krokvika" />
=======
	<node id="-868892" lat="68.9575499965" lon="17.4988999917">
		<tag k="name" v="Merra" />
		<tag k="natural" v="beach" />
		<tag k="place" v="locality" />
		<tag k="ssr:stedsnr" v="416871" />
	</node>
	<node id="-867866" lat="68.9484805524" lon="17.4740611179">
		<tag k="name" v="Gjeskeneset" />
		<tag k="natural" v="cape" />
		<tag k="ssr:stedsnr" v="234897" />
	</node>
	<node id="-868527" lat="68.9828222181" lon="17.4831694498">
		<tag k="fixme" v="multiple name tags, choose one and add the other to alt_name" />
		<tag k="name" v="Laukenesklubben;Laukneset" />
		<tag k="natural" v="cape" />
		<tag k="ssr:stedsnr" v="18985" />
	</node>
	<node id="-868526" lat="68.9749944487" lon="17.5448944379">
		<tag k="name" v="Langeneset" />
		<tag k="natural" v="cape" />
		<tag k="ssr:stedsnr" v="18879" />
	</node>
	<node id="-868830" lat="69.0497027808" lon="17.3161916599">
		<tag k="bay" v="fjord" />
		<tag k="name" v="Tranøyfjorden" />
		<tag k="natural" v="bay" />
		<tag k="ssr:stedsnr" v="382027" />
	</node>
	<node id="-868361" lat="68.9984750015" lon="17.4200749874">
		<tag k="name" v="Jektevika" />
>>>>>>> e1d4bc35ff8a6074a6f2e91616a996b547c36f15
		<tag k="natural" v="bay" />
		<tag k="ssr:stedsnr" v="879428" />
	</node>
<<<<<<< HEAD
	<node lat="69.09370000318965" lon="17.580605562432943" id="-50245">
		<tag k="name" v="Klauvhamna" />
=======
	<node id="-868871" lat="68.9738138846" lon="17.54525278">
		<tag k="name" v="Båtvika" />
>>>>>>> e1d4bc35ff8a6074a6f2e91616a996b547c36f15
		<tag k="natural" v="bay" />
		<tag k="ssr:stedsnr" v="879397" />
	</node>
<<<<<<< HEAD
	<node lat="69.11774444399776" lon="17.78232498764491" id="-50265">
		<tag k="name" v="Mobogen" />
		<tag k="natural" v="bay" />
		<tag k="ssr:stedsnr" v="888827" />
	</node>
	<node lat="69.02783333821048" lon="17.351452765406272" id="-50267">
		<tag k="name" v="Bergsvika" />
		<tag k="natural" v="bay" />
		<tag k="ssr:stedsnr" v="940315" />
	</node>
	<node lat="68.99043332971755" lon="17.354830558152052" id="-50268">
		<tag k="name" v="Hesteneset" />
		<tag k="natural" v="cape" />
		<tag k="ssr:stedsnr" v="940675" />
	</node>
	<node lat="69.01682500320037" lon="17.531611105882586" id="-50269">
		<tag k="name" v="Sortevika" />
		<tag k="natural" v="bay" />
		<tag k="ssr:stedsnr" v="940996" />
	</node>
	<node lat="69.09631388468637" lon="17.64241388496375" id="-50283">
		<tag k="name" v="Langevika" />
		<tag k="natural" v="bay" />
		<tag k="ssr:stedsnr" v="949668" />
	</node>
	<node lat="69.08330277841112" lon="17.55383611524229" id="-50285">
		<tag k="name" v="Krøkebærholmen" />
=======
	<node id="-868869" lat="69.0789305514" lon="17.4106416621">
		<tag k="fixme" v="consider seamark:type=rock or natural=shoal" />
		<tag k="name" v="Kavringen" />
>>>>>>> e1d4bc35ff8a6074a6f2e91616a996b547c36f15
		<tag k="place" v="islet" />
		<tag k="ssr:stedsnr" v="949676" />
	</node>
	<node lat="69.08447499670953" lon="17.440499994395747" id="-50300">
		<tag k="name" v="Sandneset" />
		<tag k="natural" v="cape" />
		<tag k="ssr:stedsnr" v="962167" />
	</node>
</osm>
