<?xml version="1.0" encoding="UTF-8"?>
<<<<<<< HEAD
<osm version="0.6" generator="osmapis">
	<node lat="59.722649995606034" lon="9.417647222274452" id="-11194">
		<tag k="alt_name" v="Hukamyrane" />
		<tag k="name" v="Hukumyrane" />
		<tag k="natural" v="wetland" />
		<tag k="ssr:stedsnr" v="3418" />
	</node>
	<node lat="59.645722220192724" lon="9.419725007370333" id="-11257">
		<tag k="name" v="Finnemyrene" />
		<tag k="natural" v="wetland" />
		<tag k="ssr:stedsnr" v="60025" />
	</node>
	<node lat="59.70618611185948" lon="9.571147222134977" id="-11339">
		<tag k="historic" v="shieling" />
		<tag k="name" v="Åmodtstul" />
		<tag k="place" v="locality" />
		<tag k="ssr:stedsnr" v="242074" />
	</node>
	<node lat="59.614347225976154" lon="9.807341672878046" id="-11373">
		<tag k="name" v="Kristenhogsten" />
		<tag k="place" v="locality" />
		<tag k="ssr:stedsnr" v="242935" />
	</node>
	<node lat="59.58003611528441" lon="9.672777784197883" id="-11387">
		<tag k="name" v="Hengsmyra" />
=======
<osm generator="osmapis" version="0.6">
	<node id="-223740" lat="59.5000499993" lon="9.74134166532">
		<tag k="name" v="Digerhaugmyra" />
		<tag k="natural" v="wetland" />
		<tag k="ssr:stedsnr" v="484392" />
	</node>
	<node id="-225275" lat="59.6849694412" lon="9.65543611181">
		<tag k="name" v="Vålahagan" />
		<tag k="place" v="locality" />
		<tag k="ssr:stedsnr" v="144924" />
	</node>
	<node id="-225786" lat="59.7221027745" lon="9.52303889061">
		<tag k="alt_name" v="Blåmyra" />
		<tag k="name" v="Blåmyr" />
		<tag k="natural" v="wetland" />
		<tag k="ssr:stedsnr" v="424154" />
	</node>
	<node id="-223734" lat="59.4834916681" lon="9.86267222222">
		<tag k="name" v="Kjerringfjellmyra" />
		<tag k="natural" v="wetland" />
		<tag k="ssr:stedsnr" v="484130" />
	</node>
	<node id="-226289" lat="59.7094861086" lon="9.38552776972">
		<tag k="name" v="Geitemyra" />
		<tag k="natural" v="wetland" />
		<tag k="ssr:stedsnr" v="788129" />
	</node>
	<node id="-224750" lat="59.7469944405" lon="9.43951665932">
		<tag k="name" v="Roligmyrene" />
>>>>>>> e1d4bc35ff8a6074a6f2e91616a996b547c36f15
		<tag k="natural" v="wetland" />
		<tag k="ssr:stedsnr" v="905927" />
	</node>
<<<<<<< HEAD
	<node lat="59.67276388733088" lon="9.699400004037619" id="-11404">
		<tag k="landuse" v="quarry" />
		<tag k="name" v="Pukkverket" />
		<tag k="ssr:stedsnr" v="85403" />
	</node>
	<node lat="59.49012500442677" lon="9.617775003506917" id="-11420">
		<tag k="name" v="Fagervassløkene" />
		<tag k="natural" v="wetland" />
		<tag k="ssr:stedsnr" v="245555" />
	</node>
	<node lat="59.68205000426724" lon="9.578233338119691" id="-11438">
		<tag k="landuse" v="quarry" />
		<tag k="name" v="Kronprinsens gruve" />
		<tag k="ssr:stedsnr" v="246955" />
	</node>
	<node lat="59.660644447199076" lon="9.578819444020146" id="-11439">
		<tag k="landuse" v="quarry" />
		<tag k="name" v="Mildigkeit Gottes gruve" />
		<tag k="ssr:stedsnr" v="303138" />
	</node>
	<node lat="59.56227222461036" lon="9.846936114853289" id="-11468">
		<tag k="name" v="Stulsmyr" />
=======
	<node id="-225772" lat="59.6658944443" lon="9.46937500157">
		<tag k="name" v="Søgmyrene" />
		<tag k="natural" v="wetland" />
		<tag k="ssr:stedsnr" v="424027" />
	</node>
	<node id="-225770" lat="59.7660055532" lon="9.37608333749">
		<tag k="name" v="Korslimyra" />
		<tag k="natural" v="wetland" />
		<tag k="ssr:stedsnr" v="419465" />
	</node>
	<node id="-223721" lat="59.7341444459" lon="9.36624722666">
		<tag k="name" v="Engane" />
		<tag k="natural" v="wetland" />
		<tag k="ssr:stedsnr" v="480922" />
	</node>
	<node id="-224230" lat="59.7377138856" lon="9.38386111384">
		<tag k="landuse" v="meadow" />
		<tag k="name" v="Hagan" />
		<tag k="ssr:stedsnr" v="605226" />
	</node>
	<node id="-225763" lat="59.6456805528" lon="9.780297228">
		<tag k="name" v="Tiursmyr" />
>>>>>>> e1d4bc35ff8a6074a6f2e91616a996b547c36f15
		<tag k="natural" v="wetland" />
		<tag k="ssr:stedsnr" v="388551" />
	</node>
<<<<<<< HEAD
	<node lat="59.61950277646658" lon="9.560863886912479" id="-11510">
		<tag k="name" v="Glomstulmyra" />
		<tag k="natural" v="wetland" />
		<tag k="ssr:stedsnr" v="181064" />
	</node>
	<node lat="59.472694442097236" lon="9.898930553031763" id="-11516">
		<tag k="name" v="Store Eknesmyr" />
		<tag k="natural" v="wetland" />
		<tag k="ssr:stedsnr" v="181166" />
	</node>
	<node lat="59.60231944692609" lon="9.468805551924271" id="-11528">
		<tag k="name" v="Bjørkemyra" />
		<tag k="natural" v="wetland" />
		<tag k="ssr:stedsnr" v="181551" />
	</node>
	<node lat="59.54337499683252" lon="9.961188882733099" id="-11541">
		<tag k="name" v="Flottmyr" />
		<tag k="natural" v="wetland" />
		<tag k="ssr:stedsnr" v="185387" />
	</node>
	<node lat="59.619736107457705" lon="9.641783337562794" id="-11566">
		<tag k="name" v="Landsverkhagan" />
		<tag k="place" v="locality" />
		<tag k="ssr:stedsnr" v="266675" />
	</node>
	<node lat="59.616547224523536" lon="9.68589444749393" id="-11567">
		<tag k="name" v="Gravshagan" />
		<tag k="place" v="locality" />
		<tag k="ssr:stedsnr" v="266680" />
	</node>
	<node lat="59.59210000229264" lon="9.686447223717565" id="-11590">
		<tag k="name" v="Lureplass" />
		<tag k="place" v="locality" />
		<tag k="ssr:stedsnr" v="205692" />
	</node>
	<node lat="59.51549721788931" lon="9.888661102325177" id="-11591">
		<tag k="name" v="Ulebergplassen" />
		<tag k="place" v="locality" />
		<tag k="ssr:stedsnr" v="205816" />
	</node>
	<node lat="59.65777222461326" lon="9.709733326267783" id="-11602">
		<tag k="name" v="Rosenmyr" />
		<tag k="natural" v="wetland" />
		<tag k="ssr:stedsnr" v="268996" />
	</node>
	<node lat="59.47069167006187" lon="9.845366658644037" id="-11619">
		<tag k="name" v="Kirkemyr" />
		<tag k="natural" v="wetland" />
		<tag k="ssr:stedsnr" v="241230" />
	</node>
	<node lat="59.55204722212108" lon="9.922166674723778" id="-11626">
		<tag k="name" v="Granamyrene" />
		<tag k="natural" v="wetland" />
		<tag k="ssr:stedsnr" v="241779" />
	</node>
	<node lat="59.705466662550265" lon="9.623147215097381" id="-11685">
		<tag k="name" v="Storemyr" />
		<tag k="natural" v="wetland" />
		<tag k="ssr:stedsnr" v="266943" />
	</node>
	<node lat="59.534777774208465" lon="9.929705555597325" id="-11706">
		<tag k="name" v="Glennehogslet" />
		<tag k="place" v="locality" />
		<tag k="ssr:stedsnr" v="302840" />
	</node>
	<node lat="59.57280277413124" lon="9.85980555451192" id="-11709">
		<tag k="name" v="Store Damvannsmyra" />
		<tag k="natural" v="wetland" />
		<tag k="ssr:stedsnr" v="302982" />
	</node>
	<node lat="59.46921388972208" lon="9.956686118662496" id="-11727">
		<tag k="alt_name" v="Langemyr" />
		<tag k="name" v="Langmyr" />
=======
	<node id="-224222" lat="59.7212305514" lon="9.47884444955">
		<tag k="historic" v="shieling" />
		<tag k="name" v="Jondalssetra" />
		<tag k="place" v="locality" />
		<tag k="ssr:stedsnr" v="605157" />
	</node>
	<node id="-225757" lat="59.6315416668" lon="9.74430555076">
		<tag k="name" v="Tjernsmyr" />
		<tag k="natural" v="wetland" />
		<tag k="ssr:stedsnr" v="387847" />
	</node>
	<node id="-223738" lat="59.518797223" lon="9.67210278133">
		<tag k="name" v="Godangen" />
		<tag k="natural" v="wetland" />
		<tag k="ssr:stedsnr" v="484369" />
	</node>
	<node id="-225754" lat="59.5143388875" lon="9.87535277452">
		<tag k="name" v="Lunden" />
		<tag k="place" v="locality" />
		<tag k="ssr:stedsnr" v="387796" />
	</node>
	<node id="-226265" lat="59.4190500032" lon="9.67955277374">
		<tag k="historic" v="shieling" />
		<tag k="name" v="Gåserudseter" />
		<tag k="place" v="locality" />
		<tag k="ssr:stedsnr" v="787645" />
	</node>
	<node id="-226264" lat="59.5385750042" lon="9.53290555092">
		<tag k="name" v="Rolighølet" />
		<tag k="natural" v="wetland" />
		<tag k="ssr:stedsnr" v="787601" />
	</node>
	<node id="-224164" lat="59.4871638882" lon="9.83860832474">
		<tag k="name" v="Bjørnestein" />
		<tag k="natural" v="stone" />
		<tag k="ssr:stedsnr" v="690833" />
	</node>
	<node id="-225748" lat="59.6251583342" lon="9.65864166126">
		<tag k="name" v="Sunnelanda" />
		<tag k="place" v="locality" />
		<tag k="ssr:stedsnr" v="387689" />
	</node>
	<node id="-225744" lat="59.6440611122" lon="9.61856943845">
		<tag k="landuse" v="quarry" />
		<tag k="name" v="Bestandige Liebe gruve" />
		<tag k="ssr:stedsnr" v="387542" />
	</node>
	<node id="-226251" lat="59.6147305561" lon="9.81688611141">
		<tag k="name" v="Sagmyra" />
		<tag k="natural" v="wetland" />
		<tag k="ssr:stedsnr" v="755927" />
	</node>
	<node id="-224844" lat="59.7226499956" lon="9.41764722227">
		<tag k="alt_name" v="Hukamyrane" />
		<tag k="name" v="Hukumyrane" />
		<tag k="natural" v="wetland" />
		<tag k="ssr:stedsnr" v="3418" />
	</node>
	<node id="-223686" lat="59.5586027761" lon="9.71010555589">
		<tag k="name" v="Telefonmyra" />
		<tag k="natural" v="wetland" />
		<tag k="ssr:stedsnr" v="302863" />
	</node>
	<node id="-225220" lat="59.518350003" lon="9.97909166516">
		<tag k="name" v="Gravdalsmarka" />
		<tag k="place" v="locality" />
		<tag k="ssr:stedsnr" v="124888" />
	</node>
	<node id="-226243" lat="59.5384444445" lon="9.9003749995">
		<tag k="name" v="Steinsmyr" />
		<tag k="natural" v="wetland" />
		<tag k="ssr:stedsnr" v="752765" />
	</node>
	<node id="-226241" lat="59.5392277763" lon="9.91440278485">
		<tag k="name" v="Ivarløkka" />
		<tag k="place" v="locality" />
		<tag k="ssr:stedsnr" v="752754" />
	</node>
	<node id="-224160" lat="59.63221389" lon="9.65626111164">
		<tag k="name" v="Tveitaskogen" />
		<tag k="place" v="locality" />
		<tag k="ssr:stedsnr" v="690740" />
	</node>
	<node id="-226237" lat="59.6410027767" lon="9.78695834085">
		<tag k="name" v="Dammyr" />
		<tag k="natural" v="wetland" />
		<tag k="ssr:stedsnr" v="752534" />
	</node>
	<node id="-223677" lat="59.5634472256" lon="9.68100832884">
		<tag k="name" v="Grønnhvila" />
		<tag k="natural" v="wetland" />
		<tag k="ssr:stedsnr" v="302357" />
	</node>
	<node id="-225212" lat="59.5862305586" lon="9.50376944971">
		<tag k="name" v="Kolsjødiplane" />
		<tag k="natural" v="wetland" />
		<tag k="ssr:stedsnr" v="124761" />
	</node>
	<node id="-224159" lat="59.6131638859" lon="9.65830278438">
		<tag k="name" v="Loftstuvollen" />
		<tag k="place" v="locality" />
		<tag k="ssr:stedsnr" v="690735" />
	</node>
	<node id="-224668" lat="59.6168750036" lon="9.73700832927">
		<tag k="name" v="Plassmyrene" />
		<tag k="natural" v="wetland" />
		<tag k="ssr:stedsnr" v="933884" />
	</node>
	<node id="-226220" lat="59.5179027811" lon="9.88744444265">
		<tag k="name" v="Ulebergplassen" />
		<tag k="place" v="locality" />
		<tag k="ssr:stedsnr" v="751827" />
	</node>
	<node id="-224170" lat="59.4828222251" lon="10.0373416747">
		<tag k="name" v="Hagebråten" />
		<tag k="place" v="locality" />
		<tag k="ssr:stedsnr" v="691216" />
	</node>
	<node id="-226053" lat="59.7428861139" lon="9.43873334149">
		<tag k="name" v="Rosendammen" />
		<tag k="natural" v="wetland" />
		<tag k="ssr:stedsnr" v="601911" />
	</node>
	<node id="-224167" lat="59.5315694439" lon="9.9017805599">
		<tag k="name" v="Moltemyr" />
		<tag k="natural" v="wetland" />
		<tag k="ssr:stedsnr" v="690852" />
	</node>
	<node id="-224753" lat="59.7231444438" lon="9.56642221377">
		<tag k="name" v="Gravningsmyr" />
		<tag k="natural" v="wetland" />
		<tag k="ssr:stedsnr" v="909624" />
	</node>
	<node id="-226212" lat="59.5651333301" lon="9.62677221624">
		<tag k="name" v="Syverslinna" />
		<tag k="place" v="locality" />
		<tag k="ssr:stedsnr" v="751737" />
	</node>
	<node id="-224672" lat="59.5791777764" lon="9.66516389158">
		<tag k="name" v="Skrubbebråtan" />
>>>>>>> e1d4bc35ff8a6074a6f2e91616a996b547c36f15
		<tag k="natural" v="wetland" />
		<tag k="ssr:stedsnr" v="933773" />
	</node>
<<<<<<< HEAD
	<node lat="59.75999999628674" lon="9.387391665666971" id="-11757">
		<tag k="name" v="Løkjamyra" />
		<tag k="natural" v="wetland" />
		<tag k="ssr:stedsnr" v="358460" />
	</node>
	<node lat="59.64077499695784" lon="9.680969438596605" id="-11816">
		<tag k="name" v="Steinmyr" />
		<tag k="natural" v="wetland" />
		<tag k="ssr:stedsnr" v="387526" />
	</node>
	<node lat="59.64406111218855" lon="9.618569438453495" id="-11818">
		<tag k="landuse" v="quarry" />
		<tag k="name" v="Bestandige Liebe gruve" />
		<tag k="ssr:stedsnr" v="387542" />
	</node>
	<node lat="59.5143388875194" lon="9.875352774515353" id="-11824">
		<tag k="name" v="Lunden" />
		<tag k="place" v="locality" />
		<tag k="ssr:stedsnr" v="387796" />
	</node>
	<node lat="59.63154166681588" lon="9.744305550762586" id="-11828">
		<tag k="name" v="Tjernsmyr" />
		<tag k="natural" v="wetland" />
		<tag k="ssr:stedsnr" v="387847" />
	</node>
	<node lat="59.645680552817765" lon="9.780297227998023" id="-11831">
		<tag k="name" v="Tiursmyr" />
		<tag k="natural" v="wetland" />
		<tag k="ssr:stedsnr" v="388551" />
	</node>
	<node lat="59.4834916681291" lon="9.862672222215759" id="-11847">
		<tag k="name" v="Kjerringfjellmyra" />
		<tag k="natural" v="wetland" />
		<tag k="ssr:stedsnr" v="484130" />
	</node>
	<node lat="59.50004999929266" lon="9.741341665324008" id="-11850">
		<tag k="name" v="Digerhaugmyra" />
		<tag k="natural" v="wetland" />
		<tag k="ssr:stedsnr" v="484392" />
	</node>
	<node lat="59.523536112706694" lon="9.988308337837994" id="-11863">
		<tag k="name" v="Dottmyr" />
=======
	<node id="-226207" lat="59.6208138853" lon="9.64814444053">
		<tag k="landuse" v="quarry" />
		<tag k="name" v="Blårud skjerp" />
		<tag k="ssr:stedsnr" v="751258" />
	</node>
	<node id="-226204" lat="59.6258416698" lon="9.62911111905">
		<tag k="name" v="Jordbrua" />
		<tag k="place" v="locality" />
		<tag k="ssr:stedsnr" v="751241" />
	</node>
	<node id="-223640" lat="59.6767749959" lon="9.60012499803">
		<tag k="landuse" v="quarry" />
		<tag k="name" v="Braunschweig gruve" />
		<tag k="ssr:stedsnr" v="448934" />
	</node>
	<node id="-223637" lat="59.4598388858" lon="10.0149694466">
		<tag k="name" v="Borgershamna" />
		<tag k="place" v="locality" />
		<tag k="ssr:stedsnr" v="448775" />
	</node>
	<node id="-223636" lat="59.5531805521" lon="9.81061388796">
		<tag k="landuse" v="meadow" />
		<tag k="name" v="Nordenga" />
		<tag k="ssr:stedsnr" v="448862" />
	</node>
	<node id="-224656" lat="59.5813666627" lon="9.59991667258">
		<tag k="name" v="Porsmyra" />
		<tag k="natural" v="wetland" />
		<tag k="ssr:stedsnr" v="933392" />
	</node>
	<node id="-226187" lat="59.6599444406" lon="9.73125554926">
		<tag k="name" v="Kapteinsbråten" />
		<tag k="place" v="locality" />
		<tag k="ssr:stedsnr" v="632990" />
	</node>
	<node id="-226185" lat="59.5359388906" lon="9.90304999438">
		<tag k="name" v="Den lange myra" />
		<tag k="natural" v="wetland" />
		<tag k="ssr:stedsnr" v="630739" />
	</node>
	<node id="-226184" lat="59.5379000015" lon="9.88300833642">
		<tag k="name" v="Magnusmyr" />
		<tag k="natural" v="wetland" />
		<tag k="ssr:stedsnr" v="630727" />
	</node>
	<node id="-225430" lat="59.5154972179" lon="9.88866110233">
		<tag k="name" v="Ulebergplassen" />
		<tag k="place" v="locality" />
		<tag k="ssr:stedsnr" v="205816" />
	</node>
	<node id="-225665" lat="59.5744027799" lon="9.85113610875">
		<tag k="name" v="Kråkemyr" />
		<tag k="natural" v="wetland" />
		<tag k="ssr:stedsnr" v="363998" />
	</node>
	<node id="-223612" lat="59.4901250044" lon="9.61777500351">
		<tag k="name" v="Fagervassløkene" />
		<tag k="natural" v="wetland" />
		<tag k="ssr:stedsnr" v="245555" />
	</node>
	<node id="-226170" lat="59.5217305571" lon="9.89379999351">
		<tag k="name" v="Rekstebråtan" />
		<tag k="place" v="locality" />
		<tag k="ssr:stedsnr" v="629739" />
	</node>
	<node id="-224745" lat="59.7191111133" lon="9.65391388902">
		<tag k="name" v="Skjærbenkmyra" />
		<tag k="natural" v="wetland" />
		<tag k="ssr:stedsnr" v="873968" />
	</node>
	<node id="-225138" lat="59.4911833336" lon="9.79108610784">
		<tag k="name" v="Storemyr" />
		<tag k="natural" v="wetland" />
		<tag k="ssr:stedsnr" v="120414" />
	</node>
	<node id="-225939" lat="59.5594166627" lon="9.7108499966">
		<tag k="name" v="Mortenshogst" />
		<tag k="place" v="locality" />
		<tag k="ssr:stedsnr" v="545860" />
	</node>
	<node id="-226536" lat="59.6426944422" lon="9.60942221863">
		<tag k="name" v="Veamyr" />
>>>>>>> e1d4bc35ff8a6074a6f2e91616a996b547c36f15
		<tag k="natural" v="wetland" />
		<tag k="ssr:stedsnr" v="484650" />
	</node>
<<<<<<< HEAD
	<node lat="59.511580553750896" lon="9.987463889805582" id="-11865">
		<tag k="name" v="Askedalsmyra" />
		<tag k="natural" v="wetland" />
		<tag k="ssr:stedsnr" v="484657" />
	</node>
	<node lat="59.57542777856161" lon="9.712902773484268" id="-11871">
		<tag k="landuse" v="quarry" />
		<tag k="name" v="Finnegurigruvene" />
		<tag k="ssr:stedsnr" v="484787" />
	</node>
	<node lat="59.47272222566309" lon="9.853413889741569" id="-11880">
		<tag k="name" v="Dritmyr" />
		<tag k="natural" v="wetland" />
		<tag k="ssr:stedsnr" v="485175" />
	</node>
	<node lat="59.41856666498872" lon="9.71331389576903" id="-11886">
		<tag k="alt_name" v="Limyrene" />
		<tag k="name" v="Limyrane" />
		<tag k="natural" v="wetland" />
		<tag k="ssr:stedsnr" v="487594" />
	</node>
	<node lat="59.665894444321594" lon="9.46937500156646" id="-11926">
		<tag k="name" v="Søgmyrene" />
		<tag k="natural" v="wetland" />
		<tag k="ssr:stedsnr" v="424027" />
	</node>
	<node lat="59.61987222120732" lon="9.453949993182807" id="-11941">
		<tag k="name" v="Briskemyra" />
		<tag k="natural" v="wetland" />
		<tag k="ssr:stedsnr" v="424654" />
	</node>
	<node lat="59.61962500157772" lon="9.559822220143467" id="-11974">
		<tag k="name" v="Storemyr" />
		<tag k="natural" v="wetland" />
		<tag k="ssr:stedsnr" v="428878" />
	</node>
	<node lat="59.518308329583185" lon="9.890499992605289" id="-11982">
		<tag k="name" v="Furumoen" />
		<tag k="place" v="locality" />
		<tag k="ssr:stedsnr" v="448820" />
	</node>
	<node lat="59.51714722120355" lon="9.871197214988776" id="-11983">
		<tag k="name" v="Tjubørje" />
		<tag k="place" v="locality" />
		<tag k="ssr:stedsnr" v="448822" />
	</node>
	<node lat="59.67677499589792" lon="9.60012499802745" id="-11991">
		<tag k="landuse" v="quarry" />
		<tag k="name" v="Braunschweig gruve" />
		<tag k="ssr:stedsnr" v="448934" />
	</node>
	<node lat="59.64911111387481" lon="9.77116110585572" id="-11995">
		<tag k="name" v="Hasselskogene" />
		<tag k="place" v="locality" />
		<tag k="ssr:stedsnr" v="449522" />
	</node>
	<node lat="59.734144445856806" lon="9.366247226662246" id="-12016">
		<tag k="name" v="Engane" />
		<tag k="natural" v="wetland" />
		<tag k="ssr:stedsnr" v="480922" />
	</node>
	<node lat="59.60809167110895" lon="9.627886115860523" id="-12024">
		<tag k="name" v="Delsmyr" />
		<tag k="natural" v="wetland" />
		<tag k="ssr:stedsnr" v="484166" />
	</node>
	<node lat="59.46991110937918" lon="9.980230556629971" id="-12026">
		<tag k="name" v="Matmåsan" />
		<tag k="natural" v="wetland" />
		<tag k="ssr:stedsnr" v="484176" />
	</node>
	<node lat="59.518797222970754" lon="9.672102781330281" id="-12032">
		<tag k="name" v="Godangen" />
		<tag k="natural" v="wetland" />
		<tag k="ssr:stedsnr" v="484369" />
	</node>
	<node lat="59.498416670738145" lon="10.017619443465316" id="-12085">
		<tag k="name" v="Nordrønningen" />
		<tag k="place" v="locality" />
		<tag k="ssr:stedsnr" v="508202" />
	</node>
	<node lat="59.512658334299985" lon="9.896105557690339" id="-12090">
		<tag k="name" v="Tveithavna" />
		<tag k="place" v="locality" />
		<tag k="ssr:stedsnr" v="508815" />
	</node>
	<node lat="59.54642499560274" lon="9.620527784829642" id="-12115">
		<tag k="name" v="Brennemyr" />
		<tag k="natural" v="wetland" />
		<tag k="ssr:stedsnr" v="545303" />
	</node>
	<node lat="59.57825277997925" lon="9.4956305476373" id="-12129">
		<tag k="name" v="Høymyra" />
		<tag k="natural" v="wetland" />
		<tag k="ssr:stedsnr" v="545575" />
	</node>
	<node lat="59.73100000136916" lon="9.373041669395155" id="-12151">
		<tag k="name" v="Fugleleikmyra" />
		<tag k="natural" v="wetland" />
		<tag k="ssr:stedsnr" v="549424" />
	</node>
	<node lat="59.49378333696665" lon="9.90638611685615" id="-12170">
		<tag k="name" v="Djupedalsenga" />
		<tag k="place" v="locality" />
		<tag k="ssr:stedsnr" v="690843" />
	</node>
	<node lat="59.53156944387656" lon="9.901780559899372" id="-12172">
		<tag k="name" v="Moltemyr" />
		<tag k="natural" v="wetland" />
		<tag k="ssr:stedsnr" v="690852" />
	</node>
	<node lat="59.550027778821345" lon="9.797352782195581" id="-12173">
		<tag k="name" v="Stormyra" />
=======
	<node id="-225640" lat="59.5549805549" lon="9.54861111514">
		<tag k="name" v="Hemyra" />
		<tag k="natural" v="wetland" />
		<tag k="ssr:stedsnr" v="363524" />
	</node>
	<node id="-223591" lat="59.7061861119" lon="9.57114722213">
		<tag k="historic" v="shieling" />
		<tag k="name" v="Åmodtstul" />
		<tag k="place" v="locality" />
		<tag k="ssr:stedsnr" v="242074" />
	</node>
	<node id="-224102" lat="59.6080916711" lon="9.62788611586">
		<tag k="name" v="Delsmyr" />
		<tag k="natural" v="wetland" />
		<tag k="ssr:stedsnr" v="484166" />
	</node>
	<node id="-225124" lat="59.7246722244" lon="9.53581110997">
		<tag k="name" v="Holbekkmyra" />
		<tag k="natural" v="wetland" />
		<tag k="ssr:stedsnr" v="120137" />
	</node>
	<node id="-223974" lat="59.70323056" lon="9.35887222983">
		<tag k="name" v="Hestemyra" />
		<tag k="natural" v="wetland" />
		<tag k="ssr:stedsnr" v="666128" />
	</node>
	<node id="-224609" lat="59.5349138856" lon="9.61992778654">
		<tag k="name" v="Dammyra" />
		<tag k="natural" v="wetland" />
		<tag k="ssr:stedsnr" v="787363" />
	</node>
	<node id="-223888" lat="59.5126583343" lon="9.89610555769">
		<tag k="name" v="Tveithavna" />
		<tag k="place" v="locality" />
		<tag k="ssr:stedsnr" v="508815" />
	</node>
	<node id="-226260" lat="59.469044442" lon="9.89428055592">
		<tag k="name" v="Bjørnemyr" />
		<tag k="natural" v="wetland" />
		<tag k="ssr:stedsnr" v="787152" />
	</node>
	<node id="-226138" lat="59.6926944428" lon="9.4002555626">
		<tag k="historic" v="shieling" />
		<tag k="name" v="Sleiken" />
		<tag k="place" v="locality" />
		<tag k="ssr:stedsnr" v="609946" />
	</node>
	<node id="-225625" lat="59.7278111135" lon="9.38639721691">
		<tag k="name" v="Andehølmyra" />
		<tag k="natural" v="wetland" />
		<tag k="ssr:stedsnr" v="363173" />
	</node>
	<node id="-223762" lat="59.5754277786" lon="9.71290277348">
		<tag k="landuse" v="quarry" />
		<tag k="name" v="Finnegurigruvene" />
		<tag k="ssr:stedsnr" v="484787" />
	</node>
	<node id="-226134" lat="59.6458249997" lon="9.44589999315">
		<tag k="alt_name" v="Diplemyr" />
		<tag k="name" v="Diplemyrane" />
		<tag k="natural" v="wetland" />
		<tag k="ssr:stedsnr" v="609868" />
	</node>
	<node id="-225615" lat="59.4809222245" lon="9.87916389483">
		<tag k="name" v="Køytemyra" />
		<tag k="natural" v="wetland" />
		<tag k="ssr:stedsnr" v="363132" />
	</node>
	<node id="-224590" lat="59.563963893" lon="9.73058333703">
		<tag k="alt_name" v="Stormyr" />
		<tag k="name" v="Storemyr" />
		<tag k="natural" v="wetland" />
		<tag k="ssr:stedsnr" v="914373" />
	</node>
	<node id="-225612" lat="59.4697250041" lon="9.95068333173">
		<tag k="name" v="Kakemyr" />
		<tag k="natural" v="wetland" />
		<tag k="ssr:stedsnr" v="363123" />
	</node>
	<node id="-225506" lat="59.51718333" lon="9.97550554794">
		<tag k="name" v="Lortemyr" />
		<tag k="natural" v="wetland" />
		<tag k="ssr:stedsnr" v="303686" />
	</node>
	<node id="-224069" lat="59.5169666644" lon="9.52941943884">
		<tag k="alt_name" v="Haugmyrene" />
		<tag k="name" v="Haugmyrane" />
		<tag k="natural" v="wetland" />
		<tag k="ssr:stedsnr" v="670687" />
	</node>
	<node id="-224579" lat="59.6423472204" lon="9.50682777322">
		<tag k="name" v="Kjelkemyra" />
		<tag k="natural" v="wetland" />
		<tag k="ssr:stedsnr" v="913883" />
	</node>
	<node id="-224480" lat="59.4700777793" lon="9.93154445227">
		<tag k="name" v="Breimyr" />
		<tag k="natural" v="wetland" />
		<tag k="ssr:stedsnr" v="909148" />
	</node>
	<node id="-223550" lat="59.6343277768" lon="9.45465832746">
		<tag k="name" v="Storemyr" />
		<tag k="natural" v="wetland" />
		<tag k="ssr:stedsnr" v="185853" />
	</node>
	<node id="-226109" lat="59.5477416631" lon="9.70115833728">
		<tag k="name" v="Kloppmyr" />
		<tag k="natural" v="wetland" />
		<tag k="ssr:stedsnr" v="606640" />
	</node>
	<node id="-226620" lat="59.4758999993" lon="9.71112222179">
		<tag k="name" v="Tretjernmyra" />
>>>>>>> e1d4bc35ff8a6074a6f2e91616a996b547c36f15
		<tag k="natural" v="wetland" />
		<tag k="ssr:stedsnr" v="970295" />
	</node>
<<<<<<< HEAD
	<node lat="59.627752779303904" lon="9.703933335715215" id="-12174">
		<tag k="name" v="Tubbemyra" />
		<tag k="natural" v="wetland" />
		<tag k="ssr:stedsnr" v="690866" />
	</node>
	<node lat="59.48688055686532" lon="10.03082222736352" id="-12189">
		<tag k="name" v="Jonsonløkka" />
		<tag k="place" v="locality" />
		<tag k="ssr:stedsnr" v="569222" />
	</node>
	<node lat="59.525519444994224" lon="9.898105563204942" id="-12199">
		<tag k="name" v="Klokkelunden" />
		<tag k="place" v="locality" />
		<tag k="ssr:stedsnr" v="569714" />
	</node>
	<node lat="59.74288611391" lon="9.438733341488547" id="-12210">
		<tag k="name" v="Rosendammen" />
		<tag k="natural" v="wetland" />
		<tag k="ssr:stedsnr" v="601911" />
	</node>
	<node lat="59.633352782199644" lon="9.47372499165056" id="-12214">
		<tag k="name" v="Gullikmyra" />
		<tag k="natural" v="wetland" />
		<tag k="ssr:stedsnr" v="605013" />
	</node>
	<node lat="59.721230551443696" lon="9.478844449547768" id="-12217">
		<tag k="historic" v="shieling" />
		<tag k="name" v="Jondalssetra" />
		<tag k="place" v="locality" />
		<tag k="ssr:stedsnr" v="605157" />
	</node>
	<node lat="59.69269444280832" lon="9.400255562599172" id="-12257">
		<tag k="historic" v="shieling" />
		<tag k="name" v="Sleiken" />
		<tag k="place" v="locality" />
		<tag k="ssr:stedsnr" v="609946" />
	</node>
	<node lat="59.61491111441746" lon="9.671886102753463" id="-12283">
		<tag k="name" v="Myrehagan" />
		<tag k="old_name" v="Myhrehagan" />
		<tag k="place" v="locality" />
		<tag k="ssr:stedsnr" v="629700" />
	</node>
	<node lat="59.53790000145508" lon="9.88300833642423" id="-12301">
		<tag k="name" v="Magnusmyr" />
		<tag k="natural" v="wetland" />
		<tag k="ssr:stedsnr" v="630727" />
	</node>
	<node lat="59.659944440648296" lon="9.73125554926222" id="-12302">
		<tag k="name" v="Kapteinsbråten" />
		<tag k="place" v="locality" />
		<tag k="ssr:stedsnr" v="632990" />
	</node>
	<node lat="59.69145555161298" lon="9.555494444658123" id="-12304">
		<tag k="name" v="Svartemyrene" />
		<tag k="natural" v="wetland" />
		<tag k="ssr:stedsnr" v="727098" />
	</node>
	<node lat="59.73068055946498" lon="9.390697220055015" id="-12314">
		<tag k="name" v="Svenskerud" />
		<tag k="natural" v="wetland" />
		<tag k="ssr:stedsnr" v="666206" />
	</node>
	<node lat="59.58297222242861" lon="9.849583332705516" id="-12322">
		<tag k="name" v="Villngsmyr" />
		<tag k="natural" v="wetland" />
		<tag k="ssr:stedsnr" v="666991" />
	</node>
	<node lat="59.51707499965908" lon="9.983880551670218" id="-12324">
		<tag k="name" v="Lynildmyra" />
		<tag k="natural" v="wetland" />
		<tag k="ssr:stedsnr" v="667610" />
	</node>
	<node lat="59.63659722106525" lon="9.745538897180277" id="-12325">
		<tag k="name" v="Blårudmyra" />
		<tag k="natural" v="wetland" />
		<tag k="ssr:stedsnr" v="667630" />
	</node>
	<node lat="59.613163885868914" lon="9.658302784381313" id="-12351">
		<tag k="name" v="Loftstuvollen" />
		<tag k="place" v="locality" />
		<tag k="ssr:stedsnr" v="690735" />
	</node>
	<node lat="59.63221389000187" lon="9.656261111636617" id="-12352">
		<tag k="name" v="Tveitaskogen" />
		<tag k="place" v="locality" />
		<tag k="ssr:stedsnr" v="690740" />
	</node>
	<node lat="59.48716388820747" lon="9.83860832473648" id="-12356">
		<tag k="name" v="Bjørnestein" />
		<tag k="natural" v="stone" />
		<tag k="ssr:stedsnr" v="690833" />
	</node>
	<node lat="59.48282222509497" lon="10.037341674678041" id="-12360">
		<tag k="name" v="Hagebråten" />
		<tag k="place" v="locality" />
		<tag k="ssr:stedsnr" v="691216" />
	</node>
	<node lat="59.7312499969642" lon="9.380388885714742" id="-12376">
		<tag k="name" v="Torvmyra" />
=======
	<node id="-226618" lat="59.5978250019" lon="9.63371666766">
		<tag k="name" v="Bleikemyr" />
		<tag k="natural" v="wetland" />
		<tag k="ssr:stedsnr" v="970272" />
	</node>
	<node id="-226617" lat="59.5994777784" lon="9.62464166935">
		<tag k="name" v="Limmyr" />
		<tag k="natural" v="wetland" />
		<tag k="ssr:stedsnr" v="970269" />
	</node>
	<node id="-224054" lat="59.7320916633" lon="9.41692777231">
		<tag k="name" v="Bleikemyr" />
		<tag k="natural" v="wetland" />
		<tag k="ssr:stedsnr" v="670433" />
	</node>
	<node id="-225161" lat="59.5622722246" lon="9.84693611485">
		<tag k="name" v="Stulsmyr" />
		<tag k="natural" v="wetland" />
		<tag k="ssr:stedsnr" v="120781" />
	</node>
	<node id="-226609" lat="59.6265472216" lon="9.75685832791">
		<tag k="name" v="Torvstrømyra" />
		<tag k="natural" v="wetland" />
		<tag k="ssr:stedsnr" v="970126" />
	</node>
	<node id="-225071" lat="59.5365472232" lon="9.90818055748">
		<tag k="name" v="Bergendalmyra" />
		<tag k="natural" v="wetland" />
		<tag k="ssr:stedsnr" v="84793" />
	</node>
	<node id="-226606" lat="59.633505556" lon="9.78166388931">
		<tag k="name" v="Klokkerhugsten" />
		<tag k="place" v="locality" />
		<tag k="ssr:stedsnr" v="970117" />
	</node>
	<node id="-224221" lat="59.6333527822" lon="9.47372499165">
		<tag k="name" v="Gullikmyra" />
		<tag k="natural" v="wetland" />
		<tag k="ssr:stedsnr" v="605013" />
	</node>
	<node id="-225066" lat="59.5800361153" lon="9.6727777842">
		<tag k="name" v="Hengsmyra" />
		<tag k="natural" v="wetland" />
		<tag k="ssr:stedsnr" v="84730" />
	</node>
	<node id="-223528" lat="59.6195027765" lon="9.56086388691">
		<tag k="name" v="Glomstulmyra" />
		<tag k="natural" v="wetland" />
		<tag k="ssr:stedsnr" v="181064" />
	</node>
	<node id="-226599" lat="59.7124944417" lon="9.39741666236">
		<tag k="name" v="Løkjamyra" />
		<tag k="natural" v="wetland" />
		<tag k="ssr:stedsnr" v="970177" />
	</node>
	<node id="-226086" lat="59.5519361081" lon="9.93659999966">
		<tag k="name" v="Steinsmyr" />
		<tag k="natural" v="wetland" />
		<tag k="ssr:stedsnr" v="605785" />
	</node>
	<node id="-226593" lat="59.5828083331" lon="9.84300832687">
		<tag k="name" v="Gravningsmyr" />
		<tag k="natural" v="wetland" />
		<tag k="ssr:stedsnr" v="969981" />
	</node>
	<node id="-223520" lat="59.6577722246" lon="9.70973332627">
		<tag k="name" v="Rosenmyr" />
		<tag k="natural" v="wetland" />
		<tag k="ssr:stedsnr" v="268996" />
	</node>
	<node id="-225055" lat="59.4601777789" lon="9.78488333173">
		<tag k="name" v="Diplemyr" />
>>>>>>> e1d4bc35ff8a6074a6f2e91616a996b547c36f15
		<tag k="natural" v="wetland" />
		<tag k="ssr:stedsnr" v="70687" />
	</node>
<<<<<<< HEAD
	<node lat="59.55561388604216" lon="9.667316658540404" id="-12381">
		<tag k="name" v="Brennemyr" />
		<tag k="natural" v="wetland" />
		<tag k="ssr:stedsnr" v="727313" />
	</node>
	<node lat="59.512438891796144" lon="9.619480559768473" id="-12383">
		<tag k="name" v="Bingen" />
		<tag k="natural" v="wetland" />
		<tag k="ssr:stedsnr" v="727386" />
	</node>
	<node lat="59.494397219560874" lon="9.509163890990186" id="-12385">
		<tag k="name" v="Dalsmyr" />
		<tag k="natural" v="wetland" />
		<tag k="ssr:stedsnr" v="727620" />
	</node>
	<node lat="59.45841944719988" lon="9.700100002875526" id="-12389">
		<tag k="name" v="Dansermyrene" />
		<tag k="natural" v="wetland" />
		<tag k="ssr:stedsnr" v="727631" />
	</node>
	<node lat="59.58857777685906" lon="9.737922230561097" id="-12392">
		<tag k="name" v="Kjørstadtajet" />
		<tag k="place" v="locality" />
		<tag k="ssr:stedsnr" v="727809" />
	</node>
	<node lat="59.47478333214799" lon="9.757961119873828" id="-12404">
		<tag k="name" v="Diplemyr" />
		<tag k="natural" v="wetland" />
		<tag k="ssr:stedsnr" v="730669" />
	</node>
	<node lat="59.62081388532592" lon="9.648144440526277" id="-12427">
		<tag k="landuse" v="quarry" />
		<tag k="name" v="Blårud skjerp" />
		<tag k="ssr:stedsnr" v="751258" />
	</node>
	<node lat="59.51790278113484" lon="9.887444442647144" id="-12432">
		<tag k="name" v="Ulebergplassen" />
		<tag k="place" v="locality" />
		<tag k="ssr:stedsnr" v="751827" />
	</node>
	<node lat="59.539227776289124" lon="9.91440278485116" id="-12437">
		<tag k="name" v="Ivarløkka" />
		<tag k="place" v="locality" />
		<tag k="ssr:stedsnr" v="752754" />
	</node>
	<node lat="59.53844444451182" lon="9.900374999496792" id="-12439">
		<tag k="name" v="Steinsmyr" />
		<tag k="natural" v="wetland" />
		<tag k="ssr:stedsnr" v="752765" />
	</node>
	<node lat="59.743636110559336" lon="9.34631667417189" id="-12446">
		<tag k="name" v="Kjørkeholtet" />
		<tag k="place" v="locality" />
		<tag k="ssr:stedsnr" v="905498" />
	</node>
	<node lat="59.74699444054749" lon="9.439516659315162" id="-12448">
		<tag k="name" v="Roligmyrene" />
		<tag k="natural" v="wetland" />
		<tag k="ssr:stedsnr" v="905927" />
	</node>
	<node lat="59.712494441683226" lon="9.397416662361403" id="-12449">
		<tag k="name" v="Løkjamyra" />
		<tag k="natural" v="wetland" />
		<tag k="ssr:stedsnr" v="970177" />
	</node>
	<node lat="59.47007777929983" lon="9.931544452268305" id="-12469">
		<tag k="name" v="Breimyr" />
		<tag k="natural" v="wetland" />
		<tag k="ssr:stedsnr" v="909148" />
	</node>
	<node lat="59.647941668597305" lon="9.707877778449623" id="-12502">
		<tag k="name" v="Langmyr" />
		<tag k="natural" v="wetland" />
		<tag k="ssr:stedsnr" v="910134" />
	</node>
	<node lat="59.419050003226474" lon="9.679552773743287" id="-12513">
		<tag k="historic" v="shieling" />
		<tag k="name" v="Gåserudseter" />
		<tag k="place" v="locality" />
		<tag k="ssr:stedsnr" v="787645" />
	</node>
	<node lat="59.53857500420169" lon="9.532905550919747" id="-12515">
		<tag k="name" v="Rolighølet" />
		<tag k="natural" v="wetland" />
		<tag k="ssr:stedsnr" v="787601" />
	</node>
	<node lat="59.47811110806655" lon="9.851977772309207" id="-12548">
		<tag k="name" v="Sagmyra" />
		<tag k="natural" v="wetland" />
		<tag k="ssr:stedsnr" v="791598" />
	</node>
	<node lat="59.56396389296821" lon="9.730583337027483" id="-12603">
		<tag k="alt_name" v="Stormyr" />
		<tag k="name" v="Storemyr" />
		<tag k="natural" v="wetland" />
		<tag k="ssr:stedsnr" v="914373" />
	</node>
	<node lat="59.51941666902937" lon="9.874208336660827" id="-12626">
		<tag k="name" v="Bråtan" />
=======
	<node id="-223518" lat="59.7054666626" lon="9.6231472151">
		<tag k="name" v="Storemyr" />
		<tag k="natural" v="wetland" />
		<tag k="ssr:stedsnr" v="266943" />
	</node>
	<node id="-224029" lat="59.5170749997" lon="9.98388055167">
		<tag k="name" v="Lynildmyra" />
		<tag k="natural" v="wetland" />
		<tag k="ssr:stedsnr" v="667610" />
	</node>
	<node id="-224629" lat="59.5841972185" lon="9.71664723009">
		<tag k="name" v="Tuvemyr" />
		<tag k="natural" v="wetland" />
		<tag k="ssr:stedsnr" v="788782" />
	</node>
	<node id="-225242" lat="59.6471527762" lon="9.6889166677">
		<tag k="name" v="Ruggesteinen" />
		<tag k="natural" v="stone" />
		<tag k="ssr:stedsnr" v="144533" />
	</node>
	<node id="-226451" lat="59.7086416648" lon="9.34700554927">
		<tag k="name" v="Tranebærroa" />
		<tag k="natural" v="wetland" />
		<tag k="ssr:stedsnr" v="849161" />
	</node>
	<node id="-226585" lat="59.4901805553" lon="9.56941944065">
		<tag k="name" v="Løkemyr" />
		<tag k="natural" v="wetland" />
		<tag k="ssr:stedsnr" v="969586" />
	</node>
	<node id="-224024" lat="59.4526944443" lon="9.60590000527">
		<tag k="historic" v="shieling" />
		<tag k="name" v="Ramsstul" />
		<tag k="place" v="locality" />
		<tag k="ssr:stedsnr" v="667471" />
	</node>
	<node id="-225241" lat="59.6411111132" lon="9.69270278287">
		<tag k="name" v="Bjørndalsmyr" />
		<tag k="natural" v="wetland" />
		<tag k="ssr:stedsnr" v="144522" />
	</node>
	<node id="-224530" lat="59.6479416686" lon="9.70787777845">
		<tag k="name" v="Langmyr" />
		<tag k="natural" v="wetland" />
		<tag k="ssr:stedsnr" v="910134" />
	</node>
	<node id="-226577" lat="59.4644250015" lon="9.93213055745">
		<tag k="name" v="Tretjernmyr" />
		<tag k="natural" v="wetland" />
		<tag k="ssr:stedsnr" v="969144" />
	</node>
	<node id="-226576" lat="59.7362694426" lon="9.45940277944">
		<tag k="name" v="Torvmyra" />
		<tag k="natural" v="wetland" />
		<tag k="ssr:stedsnr" v="969135" />
	</node>
	<node id="-224117" lat="59.5115805538" lon="9.98746388981">
		<tag k="name" v="Askedalsmyra" />
		<tag k="natural" v="wetland" />
		<tag k="ssr:stedsnr" v="484657" />
	</node>
	<node id="-226568" lat="59.7137638934" lon="9.59076944389">
		<tag k="name" v="Stordalsmyrene" />
		<tag k="natural" v="wetland" />
		<tag k="ssr:stedsnr" v="873998" />
	</node>
	<node id="-223494" lat="59.6165472245" lon="9.68589444749">
		<tag k="name" v="Gravshagan" />
		<tag k="place" v="locality" />
		<tag k="ssr:stedsnr" v="266680" />
	</node>
	<node id="-224129" lat="59.4727222257" lon="9.85341388974">
		<tag k="name" v="Dritmyr" />
		<tag k="natural" v="wetland" />
		<tag k="ssr:stedsnr" v="485175" />
	</node>
	<node id="-224918" lat="59.5418416634" lon="9.90829166994">
		<tag k="name" v="Hanseløkkene" />
		<tag k="place" v="locality" />
		<tag k="ssr:stedsnr" v="24780" />
	</node>
	<node id="-224299" lat="59.5256916696" lon="9.99181944672">
		<tag k="name" v="Blåkollmyra" />
		<tag k="natural" v="wetland" />
		<tag k="ssr:stedsnr" v="727665" />
	</node>
	<node id="-226048" lat="59.6409166696" lon="9.76511666717">
		<tag k="historic" v="shieling" />
		<tag k="name" v="Teigsetervollen" />
>>>>>>> e1d4bc35ff8a6074a6f2e91616a996b547c36f15
		<tag k="place" v="locality" />
		<tag k="ssr:stedsnr" v="570478" />
	</node>
	<node id="-225532" lat="59.4692138897" lon="9.95668611866">
		<tag k="alt_name" v="Langemyr" />
		<tag k="name" v="Langmyr" />
		<tag k="natural" v="wetland" />
		<tag k="ssr:stedsnr" v="306564" />
	</node>
<<<<<<< HEAD
	<node lat="59.486272219221185" lon="9.816413889107855" id="-12630">
		<tag k="name" v="Tjernmyr" />
		<tag k="natural" v="wetland" />
		<tag k="ssr:stedsnr" v="812885" />
	</node>
	<node lat="59.581366662745836" lon="9.5999166725752" id="-12706">
		<tag k="name" v="Porsmyra" />
		<tag k="natural" v="wetland" />
		<tag k="ssr:stedsnr" v="933392" />
	</node>
	<node lat="59.57917777639215" lon="9.665163891575007" id="-12720">
		<tag k="name" v="Skrubbebråtan" />
		<tag k="natural" v="wetland" />
		<tag k="ssr:stedsnr" v="933773" />
	</node>
	<node lat="59.61687500355337" lon="9.737008329269472" id="-12726">
		<tag k="name" v="Plassmyrene" />
		<tag k="natural" v="wetland" />
		<tag k="ssr:stedsnr" v="933884" />
	</node>
	<node lat="59.426211107973735" lon="9.738386116913848" id="-12738">
		<tag k="name" v="Nordidalsmyr" />
		<tag k="natural" v="wetland" />
		<tag k="ssr:stedsnr" v="909100" />
	</node>
	<node lat="59.723144443840084" lon="9.566422213771439" id="-12745">
		<tag k="name" v="Gravningsmyr" />
		<tag k="natural" v="wetland" />
		<tag k="ssr:stedsnr" v="909624" />
	</node>
	<node lat="59.64234722043705" lon="9.506827773219676" id="-12786">
		<tag k="name" v="Kjelkemyra" />
		<tag k="natural" v="wetland" />
		<tag k="ssr:stedsnr" v="913883" />
	</node>
	<node lat="59.46442500150872" lon="9.932130557452401" id="-12823">
		<tag k="name" v="Tretjernmyr" />
		<tag k="natural" v="wetland" />
		<tag k="ssr:stedsnr" v="969144" />
	</node>
	<node lat="59.490180555322276" lon="9.569419440652801" id="-12829">
		<tag k="name" v="Løkemyr" />
		<tag k="natural" v="wetland" />
		<tag k="ssr:stedsnr" v="969586" />
	</node>
	<node lat="59.582808333149636" lon="9.843008326871757" id="-12833">
		<tag k="name" v="Gravningsmyr" />
		<tag k="natural" v="wetland" />
		<tag k="ssr:stedsnr" v="969981" />
	</node>
	<node lat="59.47589999929787" lon="9.711122221793213" id="-12842">
		<tag k="name" v="Tretjernmyra" />
		<tag k="natural" v="wetland" />
		<tag k="ssr:stedsnr" v="970295" />
	</node>
	<node lat="59.551124999944435" lon="9.760855549090747" id="-12863">
		<tag k="name" v="Bjørndalsmyra" />
=======
	<node id="-223995" lat="59.6270805573" lon="9.53319166646">
		<tag k="name" v="Postmyra" />
		<tag k="natural" v="wetland" />
		<tag k="ssr:stedsnr" v="666553" />
	</node>
	<node id="-223992" lat="59.491636115" lon="9.62612778092">
		<tag k="name" v="Fagervannmyrene" />
		<tag k="natural" v="wetland" />
		<tag k="ssr:stedsnr" v="666546" />
	</node>
	<node id="-224212" lat="59.5312805595" lon="9.70592499723">
		<tag k="name" v="Smalska" />
		<tag k="natural" v="wetland" />
		<tag k="ssr:stedsnr" v="545632" />
	</node>
	<node id="-226545" lat="59.5273749987" lon="9.87506111405">
		<tag k="name" v="Gampemyr" />
		<tag k="natural" v="wetland" />
		<tag k="ssr:stedsnr" v="873762" />
	</node>
	<node id="-226032" lat="59.513063886" lon="9.87889722167">
		<tag k="name" v="Hedde" />
		<tag k="place" v="locality" />
		<tag k="ssr:stedsnr" v="569771" />
	</node>
	<node id="-223983" lat="59.7306805595" lon="9.39069722006">
		<tag k="name" v="Svenskerud" />
		<tag k="natural" v="wetland" />
		<tag k="ssr:stedsnr" v="666206" />
	</node>
	<node id="-226029" lat="59.525519445" lon="9.8981055632">
		<tag k="name" v="Klokkelunden" />
		<tag k="place" v="locality" />
		<tag k="ssr:stedsnr" v="569714" />
	</node>
	<node id="-226539" lat="59.5385805543" lon="9.90873610547">
		<tag k="name" v="Løkemyr" />
>>>>>>> e1d4bc35ff8a6074a6f2e91616a996b547c36f15
		<tag k="natural" v="wetland" />
		<tag k="ssr:stedsnr" v="873731" />
	</node>
<<<<<<< HEAD
	<node lat="59.645436111814995" lon="9.674886107916842" id="-12890">
		<tag k="name" v="Steinmyrløkka" />
		<tag k="place" v="locality" />
		<tag k="ssr:stedsnr" v="23565" />
	</node>
	<node lat="59.48865833211983" lon="9.850463890201064" id="-12899">
		<tag k="name" v="Langemyr" />
=======
	<node id="-225002" lat="59.4898361096" lon="9.50434445323">
		<tag k="name" v="Løkemyr" />
		<tag k="natural" v="wetland" />
		<tag k="ssr:stedsnr" v="60596" />
	</node>
	<node id="-226024" lat="59.6329472227" lon="9.69500555859">
		<tag k="name" v="Langmyr" />
>>>>>>> e1d4bc35ff8a6074a6f2e91616a996b547c36f15
		<tag k="natural" v="wetland" />
		<tag k="ssr:stedsnr" v="569680" />
	</node>
<<<<<<< HEAD
	<node lat="59.54184166336708" lon="9.908291669935197" id="-12912">
		<tag k="name" v="Hanseløkkene" />
		<tag k="place" v="locality" />
		<tag k="ssr:stedsnr" v="24780" />
	</node>
	<node lat="59.54068055405779" lon="9.88947777806817" id="-12913">
		<tag k="name" v="Bjørneskottet" />
		<tag k="natural" v="wetland" />
		<tag k="ssr:stedsnr" v="24786" />
	</node>
	<node lat="59.51945833754182" lon="9.866513885866985" id="-12914">
		<tag k="name" v="Borgehovet" />
		<tag k="place" v="locality" />
		<tag k="ssr:stedsnr" v="24793" />
	</node>
	<node lat="59.63986388485289" lon="9.767238880476903" id="-12917">
		<tag k="name" v="Teigenskogene" />
		<tag k="place" v="locality" />
		<tag k="ssr:stedsnr" v="24569" />
	</node>
	<node lat="59.46373611131086" lon="9.627605562029471" id="-12927">
		<tag k="historic" v="shieling" />
		<tag k="name" v="Bjørntjernseter" />
		<tag k="place" v="locality" />
		<tag k="ssr:stedsnr" v="59546" />
	</node>
	<node lat="59.704258330766564" lon="9.382411107778998" id="-12968">
		<tag k="historic" v="shieling" />
		<tag k="name" v="Gamlesetra" />
		<tag k="place" v="locality" />
		<tag k="ssr:stedsnr" v="60134" />
	</node>
	<node lat="59.52536666838971" lon="9.631719446148933" id="-12974">
		<tag k="name" v="Torskemyra" />
		<tag k="natural" v="wetland" />
		<tag k="ssr:stedsnr" v="60358" />
	</node>
	<node lat="59.48983610958819" lon="9.504344453227162" id="-12977">
		<tag k="name" v="Løkemyr" />
		<tag k="natural" v="wetland" />
		<tag k="ssr:stedsnr" v="60596" />
	</node>
	<node lat="59.46017777890309" lon="9.784883331727881" id="-13023">
		<tag k="name" v="Diplemyr" />
		<tag k="natural" v="wetland" />
		<tag k="ssr:stedsnr" v="70687" />
	</node>
	<node lat="59.53654722316453" lon="9.908180557475665" id="-13044">
		<tag k="name" v="Bergendalmyra" />
		<tag k="natural" v="wetland" />
		<tag k="ssr:stedsnr" v="84793" />
	</node>
	<node lat="59.49118333360366" lon="9.791086107840655" id="-13071">
		<tag k="name" v="Storemyr" />
		<tag k="natural" v="wetland" />
		<tag k="ssr:stedsnr" v="120414" />
	</node>
	<node lat="59.72467222438806" lon="9.535811109970194" id="-13080">
		<tag k="name" v="Holbekkmyra" />
		<tag k="natural" v="wetland" />
		<tag k="ssr:stedsnr" v="120137" />
	</node>
	<node lat="59.65662777774876" lon="9.528336104460582" id="-13081">
		<tag k="name" v="Florensmyrene" />
		<tag k="natural" v="wetland" />
		<tag k="ssr:stedsnr" v="120014" />
	</node>
	<node lat="59.5862305586392" lon="9.50376944970537" id="-13148">
		<tag k="name" v="Kolsjødiplane" />
		<tag k="natural" v="wetland" />
		<tag k="ssr:stedsnr" v="124761" />
	</node>
	<node lat="59.518350003045725" lon="9.979091665160578" id="-13162">
		<tag k="name" v="Gravdalsmarka" />
		<tag k="place" v="locality" />
		<tag k="ssr:stedsnr" v="124888" />
	</node>
	<node lat="59.64715277622898" lon="9.68891666769742" id="-13171">
		<tag k="name" v="Ruggesteinen" />
		<tag k="natural" v="stone" />
		<tag k="ssr:stedsnr" v="144533" />
	</node>
	<node lat="59.64111111319942" lon="9.69270278287418" id="-13184">
		<tag k="name" v="Bjørndalsmyr" />
		<tag k="natural" v="wetland" />
		<tag k="ssr:stedsnr" v="144522" />
	</node>
	<node lat="59.684969441218996" lon="9.655436111811763" id="-13201">
		<tag k="name" v="Vålahagan" />
		<tag k="place" v="locality" />
		<tag k="ssr:stedsnr" v="144924" />
	</node>
	<node lat="59.76721944093795" lon="9.393652772102492" id="-13222">
		<tag k="name" v="Brennrustin" />
=======
	<node id="-226534" lat="59.4694583315" lon="10.0438972279">
		<tag k="name" v="Bossmyr" />
		<tag k="natural" v="wetland" />
		<tag k="ssr:stedsnr" v="873243" />
	</node>
	<node id="-226532" lat="59.6242888919" lon="9.60766665974">
		<tag k="name" v="Kvennaløkka" />
		<tag k="place" v="locality" />
		<tag k="ssr:stedsnr" v="873233" />
	</node>
	<node id="-226530" lat="59.5614861094" lon="9.63730555221">
		<tag k="name" v="Lauareie" />
		<tag k="place" v="locality" />
		<tag k="ssr:stedsnr" v="872748" />
	</node>
	<node id="-224992" lat="59.5253666684" lon="9.63171944615">
		<tag k="name" v="Torskemyra" />
		<tag k="natural" v="wetland" />
		<tag k="ssr:stedsnr" v="60358" />
	</node>
	<node id="-223964" lat="59.6491111139" lon="9.77116110586">
		<tag k="name" v="Hasselskogene" />
		<tag k="place" v="locality" />
		<tag k="ssr:stedsnr" v="449522" />
	</node>
	<node id="-226011" lat="59.6509166687" lon="9.59304166491">
		<tag k="landuse" v="quarry" />
		<tag k="name" v="Armen gruve" />
		<tag k="ssr:stedsnr" v="569537" />
	</node>
	<node id="-224474" lat="59.426211108" lon="9.73838611691">
		<tag k="name" v="Nordidalsmyr" />
		<tag k="natural" v="wetland" />
		<tag k="ssr:stedsnr" v="909100" />
	</node>
	<node id="-226009" lat="59.4868805569" lon="10.0308222274">
		<tag k="name" v="Jonsonløkka" />
		<tag k="place" v="locality" />
		<tag k="ssr:stedsnr" v="569222" />
	</node>
	<node id="-223448" lat="59.6727638873" lon="9.69940000404">
		<tag k="landuse" v="quarry" />
		<tag k="name" v="Pukkverket" />
		<tag k="ssr:stedsnr" v="85403" />
	</node>
	<node id="-225495" lat="59.6606444472" lon="9.57881944402">
		<tag k="landuse" v="quarry" />
		<tag k="name" v="Mildigkeit Gottes gruve" />
		<tag k="ssr:stedsnr" v="303138" />
	</node>
	<node id="-225493" lat="59.582813888" lon="9.83066667213">
		<tag k="name" v="Langemyr" />
		<tag k="natural" v="wetland" />
		<tag k="ssr:stedsnr" v="302985" />
	</node>
	<node id="-225492" lat="59.5728027741" lon="9.85980555451">
		<tag k="name" v="Store Damvannsmyra" />
		<tag k="natural" v="wetland" />
		<tag k="ssr:stedsnr" v="302982" />
	</node>
	<node id="-223955" lat="59.5183083296" lon="9.89049999261">
		<tag k="name" v="Furumoen" />
		<tag k="place" v="locality" />
		<tag k="ssr:stedsnr" v="448820" />
	</node>
	<node id="-224463" lat="59.7436361106" lon="9.34631667417">
		<tag k="name" v="Kjørkeholtet" />
>>>>>>> e1d4bc35ff8a6074a6f2e91616a996b547c36f15
		<tag k="place" v="locality" />
		<tag k="ssr:stedsnr" v="905498" />
	</node>
<<<<<<< HEAD
	<node lat="59.7309863477367" lon="9.541897419567313" id="-13229">
		<tag k="name" v="Dyrmyra" />
		<tag k="natural" v="wetland" />
		<tag k="ssr:stedsnr" v="181149" />
	</node>
	<node lat="59.57462777674417" lon="9.506391672004295" id="-13257">
		<tag k="name" v="Bjørkesetermyrene" />
		<tag k="natural" v="wetland" />
		<tag k="ssr:stedsnr" v="181596" />
	</node>
	<node lat="59.53037222084812" lon="9.932783333320439" id="-13274">
		<tag k="name" v="Tretjernmyr" />
		<tag k="natural" v="wetland" />
		<tag k="ssr:stedsnr" v="181645" />
	</node>
	<node lat="59.501276862760605" lon="9.549236649429812" id="-13294">
		<tag k="historic" v="shieling" />
		<tag k="name" v="Bløyene" />
		<tag k="place" v="locality" />
		<tag k="ssr:stedsnr" v="185656" />
	</node>
	<node lat="59.63432777682117" lon="9.454658327456809" id="-13299">
		<tag k="name" v="Storemyr" />
		<tag k="natural" v="wetland" />
		<tag k="ssr:stedsnr" v="185853" />
	</node>
	<node lat="59.6753777802009" lon="9.602308334470148" id="-13319">
		<tag k="landuse" v="quarry" />
		<tag k="name" v="Blygangen gruve" />
		<tag k="ssr:stedsnr" v="205652" />
	</node>
	<node lat="59.6153027773507" lon="9.702230550889714" id="-13324">
		<tag k="name" v="Tofstadhagan" />
		<tag k="place" v="locality" />
		<tag k="ssr:stedsnr" v="205863" />
	</node>
	<node lat="59.53436666707996" lon="9.917794445699087" id="-13332">
		<tag k="name" v="Hedmyr" />
		<tag k="natural" v="wetland" />
		<tag k="ssr:stedsnr" v="206765" />
	</node>
	<node lat="59.48348055968363" lon="9.826672222333459" id="-13351">
		<tag k="name" v="Møymyr" />
		<tag k="natural" v="wetland" />
		<tag k="ssr:stedsnr" v="302256" />
	</node>
	<node lat="59.56344722559406" lon="9.681008328843493" id="-13354">
		<tag k="name" v="Grønnhvila" />
		<tag k="natural" v="wetland" />
		<tag k="ssr:stedsnr" v="302357" />
	</node>
	<node lat="59.55860277611056" lon="9.710105555888212" id="-13382">
		<tag k="name" v="Telefonmyra" />
		<tag k="natural" v="wetland" />
		<tag k="ssr:stedsnr" v="302863" />
	</node>
	<node lat="59.582813887955844" lon="9.830666672127277" id="-13389">
		<tag k="name" v="Langemyr" />
		<tag k="natural" v="wetland" />
		<tag k="ssr:stedsnr" v="302985" />
	</node>
	<node lat="59.517183329993024" lon="9.975505547944024" id="-13404">
		<tag k="name" v="Lortemyr" />
		<tag k="natural" v="wetland" />
		<tag k="ssr:stedsnr" v="303686" />
	</node>
	<node lat="59.72781111354692" lon="9.386397216908753" id="-13491">
		<tag k="name" v="Andehølmyra" />
		<tag k="natural" v="wetland" />
		<tag k="ssr:stedsnr" v="363173" />
	</node>
	<node lat="59.46972500406752" lon="9.950683331729975" id="-13498">
		<tag k="name" v="Kakemyr" />
		<tag k="natural" v="wetland" />
		<tag k="ssr:stedsnr" v="363123" />
	</node>
	<node lat="59.48092222448978" lon="9.879163894825597" id="-13501">
		<tag k="name" v="Køytemyra" />
		<tag k="natural" v="wetland" />
		<tag k="ssr:stedsnr" v="363132" />
	</node>
	<node lat="59.554980554945374" lon="9.548611115144116" id="-13514">
		<tag k="name" v="Hemyra" />
		<tag k="natural" v="wetland" />
		<tag k="ssr:stedsnr" v="363524" />
	</node>
	<node lat="59.57440277985513" lon="9.851136108754837" id="-13537">
		<tag k="name" v="Kråkemyr" />
		<tag k="natural" v="wetland" />
		<tag k="ssr:stedsnr" v="363998" />
	</node>
	<node lat="59.62515833418239" lon="9.658641661261365" id="-13591">
		<tag k="name" v="Sunnelanda" />
		<tag k="place" v="locality" />
		<tag k="ssr:stedsnr" v="387689" />
	</node>
	<node lat="59.53856944106089" lon="9.881124995301873" id="-13599">
		<tag k="name" v="Øyestul" />
		<tag k="place" v="locality" />
		<tag k="ssr:stedsnr" v="387778" />
	</node>
	<node lat="59.54314444265724" lon="9.912430555003834" id="-13600">
		<tag k="name" v="Stulsmyr" />
		<tag k="natural" v="wetland" />
		<tag k="ssr:stedsnr" v="387779" />
	</node>
	<node lat="59.553180552086346" lon="9.810613887955673" id="-13620">
		<tag k="landuse" v="meadow" />
		<tag k="name" v="Nordenga" />
		<tag k="ssr:stedsnr" v="448862" />
	</node>
	<node lat="59.76600555315711" lon="9.376083337488913" id="-13625">
		<tag k="name" v="Korslimyra" />
		<tag k="natural" v="wetland" />
		<tag k="ssr:stedsnr" v="419465" />
	</node>
	<node lat="59.69284166807393" lon="9.395836113907436" id="-13631">
		<tag k="name" v="Setermyrene" />
		<tag k="natural" v="wetland" />
		<tag k="ssr:stedsnr" v="424123" />
	</node>
	<node lat="59.72210277445931" lon="9.523038890607523" id="-13633">
		<tag k="alt_name" v="Blåmyra" />
		<tag k="name" v="Blåmyr" />
		<tag k="natural" v="wetland" />
		<tag k="ssr:stedsnr" v="424154" />
	</node>
	<node lat="59.53435277380751" lon="9.972252784829704" id="-13645">
		<tag k="name" v="Svaene" />
		<tag k="place" v="locality" />
		<tag k="ssr:stedsnr" v="424842" />
	</node>
	<node lat="59.52201666752013" lon="9.801936103043639" id="-13657">
		<tag k="name" v="Ospeholtet" />
		<tag k="place" v="locality" />
		<tag k="ssr:stedsnr" v="424558" />
	</node>
	<node lat="59.50879722016649" lon="9.946127783528274" id="-13685">
		<tag k="name" v="Reveura" />
		<tag k="natural" v="scree" />
		<tag k="ssr:stedsnr" v="424688" />
	</node>
	<node lat="59.459838885821476" lon="10.014969446565695" id="-13741">
		<tag k="name" v="Borgershamna" />
		<tag k="place" v="locality" />
		<tag k="ssr:stedsnr" v="448775" />
	</node>
	<node lat="59.65429444859964" lon="9.676261107888743" id="-13750">
		<tag k="name" v="Eilertsløkka" />
		<tag k="place" v="locality" />
		<tag k="ssr:stedsnr" v="508552" />
	</node>
	<node lat="59.50397222322165" lon="9.877552784062356" id="-13761">
		<tag k="landuse" v="meadow" />
		<tag k="name" v="Dorteajordet" />
		<tag k="ssr:stedsnr" v="508845" />
	</node>
	<node lat="59.60140277356408" lon="9.81207499153213" id="-13778">
		<tag k="name" v="Finneløkka" />
		<tag k="place" v="locality" />
		<tag k="ssr:stedsnr" v="512648" />
	</node>
	<node lat="59.751819445240876" lon="9.438563883329197" id="-13785">
		<tag k="name" v="Stubbmyra" />
		<tag k="natural" v="wetland" />
		<tag k="ssr:stedsnr" v="540871" />
	</node>
	<node lat="59.63539999912584" lon="9.471713891267655" id="-13794">
		<tag k="name" v="Brønstadmyra" />
		<tag k="natural" v="wetland" />
		<tag k="ssr:stedsnr" v="545134" />
	</node>
	<node lat="59.47454722083089" lon="9.911600008413712" id="-13795">
		<tag k="name" v="Elgmyr" />
		<tag k="natural" v="wetland" />
		<tag k="ssr:stedsnr" v="545152" />
	</node>
	<node lat="59.531280559491115" lon="9.705924997232332" id="-13817">
		<tag k="name" v="Smalska" />
		<tag k="natural" v="wetland" />
		<tag k="ssr:stedsnr" v="545632" />
	</node>
	<node lat="59.55941666268145" lon="9.710849996601564" id="-13822">
		<tag k="name" v="Mortenshogst" />
		<tag k="place" v="locality" />
		<tag k="ssr:stedsnr" v="545860" />
	</node>
	<node lat="59.513063885966815" lon="9.878897221668359" id="-13860">
		<tag k="name" v="Hedde" />
		<tag k="place" v="locality" />
		<tag k="ssr:stedsnr" v="569771" />
	</node>
	<node lat="59.65091666867619" lon="9.59304166491229" id="-13868">
		<tag k="landuse" v="quarry" />
		<tag k="name" v="Armen gruve" />
		<tag k="ssr:stedsnr" v="569537" />
	</node>
	<node lat="59.63294722267392" lon="9.695005558591921" id="-13875">
		<tag k="name" v="Langmyr" />
		<tag k="natural" v="wetland" />
		<tag k="ssr:stedsnr" v="569680" />
	</node>
	<node lat="59.640916669616416" lon="9.765116667167005" id="-13881">
		<tag k="historic" v="shieling" />
		<tag k="name" v="Teigsetervollen" />
		<tag k="place" v="locality" />
		<tag k="ssr:stedsnr" v="570478" />
	</node>
	<node lat="59.73771388560751" lon="9.383861113835488" id="-13898">
		<tag k="landuse" v="meadow" />
		<tag k="name" v="Hagan" />
		<tag k="ssr:stedsnr" v="605226" />
	</node>
	<node lat="59.55193610808088" lon="9.93659999965634" id="-13914">
		<tag k="name" v="Steinsmyr" />
		<tag k="natural" v="wetland" />
		<tag k="ssr:stedsnr" v="605785" />
	</node>
	<node lat="59.54774166306975" lon="9.701158337277205" id="-13933">
		<tag k="name" v="Kloppmyr" />
		<tag k="natural" v="wetland" />
		<tag k="ssr:stedsnr" v="606640" />
	</node>
	<node lat="59.64582499974049" lon="9.445899993147046" id="-13952">
		<tag k="alt_name" v="Diplemyr" />
		<tag k="name" v="Diplemyrane" />
		<tag k="natural" v="wetland" />
		<tag k="ssr:stedsnr" v="609868" />
	</node>
	<node lat="59.52173055709935" lon="9.893799993510049" id="-13984">
		<tag k="name" v="Rekstebråtan" />
		<tag k="place" v="locality" />
		<tag k="ssr:stedsnr" v="629739" />
	</node>
	<node lat="59.621077778204665" lon="9.733883333917536" id="-13987">
		<tag k="name" v="Wittenbergmyra" />
		<tag k="natural" v="wetland" />
		<tag k="ssr:stedsnr" v="629870" />
	</node>
	<node lat="59.53593889055504" lon="9.903049994381249" id="-13996">
		<tag k="name" v="Den lange myra" />
		<tag k="natural" v="wetland" />
		<tag k="ssr:stedsnr" v="630739" />
	</node>
	<node lat="59.6901749959857" lon="9.383777776943216" id="-14010">
		<tag k="name" v="Godtentjernmyrene" />
		<tag k="natural" v="wetland" />
		<tag k="ssr:stedsnr" v="666117" />
	</node>
	<node lat="59.70323055999753" lon="9.358872229832865" id="-14013">
		<tag k="name" v="Hestemyra" />
		<tag k="natural" v="wetland" />
		<tag k="ssr:stedsnr" v="666128" />
	</node>
	<node lat="59.67170277593527" lon="9.484191670231962" id="-14025">
		<tag k="name" v="Femtjernmyrene" />
		<tag k="natural" v="wetland" />
		<tag k="ssr:stedsnr" v="666029" />
	</node>
	<node lat="59.49163611499147" lon="9.626127780923401" id="-14037">
		<tag k="name" v="Fagervannmyrene" />
		<tag k="natural" v="wetland" />
		<tag k="ssr:stedsnr" v="666546" />
	</node>
	<node lat="59.50118332963327" lon="9.750302772674983" id="-14041">
		<tag k="name" v="Torkelkleivmyra" />
		<tag k="natural" v="wetland" />
		<tag k="ssr:stedsnr" v="666426" />
	</node>
	<node lat="59.6270805573098" lon="9.533191666463198" id="-14047">
		<tag k="name" v="Postmyra" />
		<tag k="natural" v="wetland" />
		<tag k="ssr:stedsnr" v="666553" />
	</node>
	<node lat="59.5561083289561" lon="9.848852776248869" id="-14058">
		<tag k="name" v="Bjørnemyr" />
		<tag k="natural" v="wetland" />
		<tag k="ssr:stedsnr" v="666821" />
	</node>
	<node lat="59.45269444426437" lon="9.605900005269035" id="-14069">
		<tag k="historic" v="shieling" />
		<tag k="name" v="Ramsstul" />
		<tag k="place" v="locality" />
		<tag k="ssr:stedsnr" v="667471" />
	</node>
	<node lat="59.73209166333795" lon="9.41692777230921" id="-14077">
		<tag k="name" v="Bleikemyr" />
		<tag k="natural" v="wetland" />
		<tag k="ssr:stedsnr" v="670433" />
	</node>
	<node lat="59.51696666440496" lon="9.529419438835497" id="-14094">
		<tag k="alt_name" v="Haugmyrene" />
		<tag k="name" v="Haugmyrane" />
		<tag k="natural" v="wetland" />
		<tag k="ssr:stedsnr" v="670687" />
	</node>
	<node lat="59.52569166962174" lon="9.991819446724733" id="-14133">
		<tag k="name" v="Blåkollmyra" />
		<tag k="natural" v="wetland" />
		<tag k="ssr:stedsnr" v="727665" />
	</node>
	<node lat="59.59180555155306" lon="9.84589166872951" id="-14144">
		<tag k="name" v="Sløgemyr" />
		<tag k="natural" v="wetland" />
		<tag k="ssr:stedsnr" v="727944" />
	</node>
	<node lat="59.56513333006444" lon="9.62677221623875" id="-14185">
		<tag k="name" v="Syverslinna" />
		<tag k="place" v="locality" />
		<tag k="ssr:stedsnr" v="751737" />
	</node>
	<node lat="59.62584166975507" lon="9.629111119045088" id="-14186">
		<tag k="name" v="Jordbrua" />
		<tag k="place" v="locality" />
		<tag k="ssr:stedsnr" v="751241" />
	</node>
	<node lat="59.64100277668644" lon="9.786958340849019" id="-14209">
		<tag k="name" v="Dammyr" />
		<tag k="natural" v="wetland" />
		<tag k="ssr:stedsnr" v="752534" />
	</node>
	<node lat="59.61473055606096" lon="9.81688611141275" id="-14217">
		<tag k="name" v="Sagmyra" />
		<tag k="natural" v="wetland" />
		<tag k="ssr:stedsnr" v="755927" />
	</node>
	<node lat="59.469044441962374" lon="9.894280555924063" id="-14229">
		<tag k="name" v="Bjørnemyr" />
		<tag k="natural" v="wetland" />
		<tag k="ssr:stedsnr" v="787152" />
	</node>
	<node lat="59.534913885593134" lon="9.619927786543931" id="-14235">
		<tag k="name" v="Dammyra" />
=======
	<node id="-225486" lat="59.5347777742" lon="9.9297055556">
		<tag k="name" v="Glennehogslet" />
		<tag k="place" v="locality" />
		<tag k="ssr:stedsnr" v="302840" />
	</node>
	<node id="-224973" lat="59.7042583308" lon="9.38241110778">
		<tag k="historic" v="shieling" />
		<tag k="name" v="Gamlesetra" />
		<tag k="place" v="locality" />
		<tag k="ssr:stedsnr" v="60134" />
	</node>
	<node id="-226506" lat="59.7272750029" lon="9.50910555812">
		<tag k="alt_name" v="Kalvemyr" />
		<tag k="name" v="Kalvemyra" />
		<tag k="natural" v="wetland" />
		<tag k="ssr:stedsnr" v="853448" />
	</node>
	<node id="-223428" lat="59.6820500043" lon="9.57823333812">
		<tag k="landuse" v="quarry" />
		<tag k="name" v="Kronprinsens gruve" />
		<tag k="ssr:stedsnr" v="246955" />
	</node>
	<node id="-224963" lat="59.6457222202" lon="9.41972500737">
		<tag k="name" v="Finnemyrene" />
		<tag k="natural" v="wetland" />
		<tag k="ssr:stedsnr" v="60025" />
	</node>
	<node id="-224449" lat="59.4584194472" lon="9.70010000288">
		<tag k="name" v="Dansermyrene" />
		<tag k="natural" v="wetland" />
		<tag k="ssr:stedsnr" v="727631" />
	</node>
	<node id="-226165" lat="59.6149111144" lon="9.67188610275">
		<tag k="name" v="Myrehagan" />
		<tag k="old_name" v="Myhrehagan" />
		<tag k="place" v="locality" />
		<tag k="ssr:stedsnr" v="629700" />
	</node>
	<node id="-224031" lat="59.6365972211" lon="9.74553889718">
		<tag k="name" v="Blårudmyra" />
		<tag k="natural" v="wetland" />
		<tag k="ssr:stedsnr" v="667630" />
	</node>
	<node id="-225464" lat="59.4834805597" lon="9.82667222233">
		<tag k="name" v="Møymyr" />
		<tag k="natural" v="wetland" />
		<tag k="ssr:stedsnr" v="302256" />
	</node>
	<node id="-225103" lat="59.6566277777" lon="9.52833610446">
		<tag k="name" v="Florensmyrene" />
		<tag k="natural" v="wetland" />
		<tag k="ssr:stedsnr" v="120014" />
	</node>
	<node id="-225971" lat="59.7310000014" lon="9.3730416694">
		<tag k="name" v="Fugleleikmyra" />
		<tag k="natural" v="wetland" />
		<tag k="ssr:stedsnr" v="549424" />
	</node>
	<node id="-224943" lat="59.4637361113" lon="9.62760556203">
		<tag k="historic" v="shieling" />
		<tag k="name" v="Bjørntjernseter" />
		<tag k="place" v="locality" />
		<tag k="ssr:stedsnr" v="59546" />
	</node>
	<node id="-224430" lat="59.555613886" lon="9.66731665854">
		<tag k="name" v="Brennemyr" />
		<tag k="natural" v="wetland" />
		<tag k="ssr:stedsnr" v="727313" />
	</node>
	<node id="-225450" lat="59.5343666671" lon="9.9177944457">
		<tag k="name" v="Hedmyr" />
		<tag k="natural" v="wetland" />
		<tag k="ssr:stedsnr" v="206765" />
	</node>
	<node id="-223911" lat="59.6928416681" lon="9.39583611391">
		<tag k="name" v="Setermyrene" />
		<tag k="natural" v="wetland" />
		<tag k="ssr:stedsnr" v="424123" />
	</node>
	<node id="-223907" lat="59.6014027736" lon="9.81207499153">
		<tag k="name" v="Finneløkka" />
		<tag k="place" v="locality" />
		<tag k="ssr:stedsnr" v="512648" />
	</node>
	<node id="-224417" lat="59.6277527793" lon="9.70393333572">
		<tag k="name" v="Tubbemyra" />
		<tag k="natural" v="wetland" />
		<tag k="ssr:stedsnr" v="690866" />
	</node>
	<node id="-224416" lat="59.5500277788" lon="9.7973527822">
		<tag k="name" v="Stormyra" />
		<tag k="natural" v="wetland" />
		<tag k="ssr:stedsnr" v="690860" />
	</node>
	<node id="-226463" lat="59.5657694446" lon="9.6915499956">
		<tag k="name" v="Storemyr" />
		<tag k="natural" v="wetland" />
		<tag k="ssr:stedsnr" v="849338" />
	</node>
	<node id="-225434" lat="59.6153027774" lon="9.70223055089">
		<tag k="name" v="Tofstadhagan" />
		<tag k="place" v="locality" />
		<tag k="ssr:stedsnr" v="205863" />
	</node>
	<node id="-224409" lat="59.556108329" lon="9.84885277625">
		<tag k="name" v="Bjørnemyr" />
		<tag k="natural" v="wetland" />
		<tag k="ssr:stedsnr" v="666821" />
	</node>
	<node id="-224920" lat="59.5194583375" lon="9.86651388587">
		<tag k="name" v="Borgehovet" />
		<tag k="place" v="locality" />
		<tag k="ssr:stedsnr" v="24793" />
	</node>
	<node id="-224919" lat="59.5406805541" lon="9.88947777807">
		<tag k="name" v="Bjørneskottet" />
		<tag k="natural" v="wetland" />
		<tag k="ssr:stedsnr" v="24786" />
	</node>
	<node id="-224406" lat="59.5011833296" lon="9.75030277267">
		<tag k="name" v="Torkelkleivmyra" />
		<tag k="natural" v="wetland" />
		<tag k="ssr:stedsnr" v="666426" />
	</node>
	<node id="-223893" lat="59.5039722232" lon="9.87755278406">
		<tag k="landuse" v="meadow" />
		<tag k="name" v="Dorteajordet" />
		<tag k="ssr:stedsnr" v="508845" />
	</node>
	<node id="-224915" lat="59.6398638849" lon="9.76723888048">
		<tag k="name" v="Teigenskogene" />
		<tag k="place" v="locality" />
		<tag k="ssr:stedsnr" v="24569" />
	</node>
	<node id="-223378" lat="59.614347226" lon="9.80734167288">
		<tag k="name" v="Kristenhogsten" />
		<tag k="place" v="locality" />
		<tag k="ssr:stedsnr" v="242935" />
	</node>
	<node id="-224400" lat="59.690174996" lon="9.38377777694">
		<tag k="name" v="Godtentjernmyrene" />
		<tag k="natural" v="wetland" />
		<tag k="ssr:stedsnr" v="666117" />
	</node>
	<node id="-225423" lat="59.5921000023" lon="9.68644722372">
		<tag k="name" v="Lureplass" />
		<tag k="place" v="locality" />
		<tag k="ssr:stedsnr" v="205692" />
	</node>
	<node id="-224398" lat="59.6717027759" lon="9.48419167023">
		<tag k="name" v="Femtjernmyrene" />
		<tag k="natural" v="wetland" />
		<tag k="ssr:stedsnr" v="666029" />
	</node>
	<node id="-225421" lat="59.6753777802" lon="9.60230833447">
		<tag k="landuse" v="quarry" />
		<tag k="name" v="Blygangen gruve" />
		<tag k="ssr:stedsnr" v="205652" />
	</node>
	<node id="-225928" lat="59.57825278" lon="9.49563054764">
		<tag k="name" v="Høymyra" />
		<tag k="natural" v="wetland" />
		<tag k="ssr:stedsnr" v="545575" />
	</node>
	<node id="-223878" lat="59.6542944486" lon="9.67626110789">
		<tag k="name" v="Eilertsløkka" />
		<tag k="place" v="locality" />
		<tag k="ssr:stedsnr" v="508552" />
	</node>
	<node id="-226437" lat="59.638477779" lon="9.44618332548">
		<tag k="name" v="Multedokka" />
		<tag k="natural" v="wetland" />
		<tag k="ssr:stedsnr" v="849034" />
	</node>
	<node id="-223873" lat="59.4984166707" lon="10.0176194435">
		<tag k="name" v="Nordrønningen" />
		<tag k="place" v="locality" />
		<tag k="ssr:stedsnr" v="508202" />
	</node>
	<node id="-225909" lat="59.5464249956" lon="9.62052778483">
		<tag k="name" v="Brennemyr" />
		<tag k="natural" v="wetland" />
		<tag k="ssr:stedsnr" v="545303" />
	</node>
	<node id="-223859" lat="59.5431444427" lon="9.912430555">
		<tag k="name" v="Stulsmyr" />
		<tag k="natural" v="wetland" />
		<tag k="ssr:stedsnr" v="387779" />
	</node>
	<node id="-223858" lat="59.5385694411" lon="9.8811249953">
		<tag k="name" v="Øyestul" />
		<tag k="place" v="locality" />
		<tag k="ssr:stedsnr" v="387778" />
	</node>
	<node id="-224881" lat="59.6454361118" lon="9.67488610792">
		<tag k="name" v="Steinmyrløkka" />
		<tag k="place" v="locality" />
		<tag k="ssr:stedsnr" v="23565" />
	</node>
	<node id="-224104" lat="59.4699111094" lon="9.98023055663">
		<tag k="name" v="Matmåsan" />
		<tag k="natural" v="wetland" />
		<tag k="ssr:stedsnr" v="484176" />
	</node>
	<node id="-224445" lat="59.4943972196" lon="9.50916389099">
		<tag k="name" v="Dalsmyr" />
		<tag k="natural" v="wetland" />
		<tag k="ssr:stedsnr" v="727620" />
	</node>
	<node id="-224018" lat="59.5829722224" lon="9.84958333271">
		<tag k="name" v="Villngsmyr" />
		<tag k="natural" v="wetland" />
		<tag k="ssr:stedsnr" v="666991" />
	</node>
	<node id="-225896" lat="59.4745472208" lon="9.91160000841">
		<tag k="name" v="Elgmyr" />
		<tag k="natural" v="wetland" />
		<tag k="ssr:stedsnr" v="545152" />
	</node>
	<node id="-225895" lat="59.6353999991" lon="9.47171389127">
		<tag k="name" v="Brønstadmyra" />
		<tag k="natural" v="wetland" />
		<tag k="ssr:stedsnr" v="545134" />
	</node>
	<node id="-226413" lat="59.5469583373" lon="9.91422221415">
		<tag k="name" v="Lortebrumyra" />
		<tag k="natural" v="wetland" />
		<tag k="ssr:stedsnr" v="813769" />
	</node>
	<node id="-224353" lat="59.4747833321" lon="9.75796111987">
		<tag k="name" v="Diplemyr" />
		<tag k="natural" v="wetland" />
		<tag k="ssr:stedsnr" v="730669" />
	</node>
	<node id="-226399" lat="59.4862722192" lon="9.81641388911">
		<tag k="name" v="Tjernmyr" />
		<tag k="natural" v="wetland" />
		<tag k="ssr:stedsnr" v="812885" />
	</node>
	<node id="-223835" lat="59.7599999963" lon="9.38739166567">
		<tag k="name" v="Løkjamyra" />
		<tag k="natural" v="wetland" />
		<tag k="ssr:stedsnr" v="358460" />
	</node>
	<node id="-225370" lat="59.5433749968" lon="9.96118888273">
		<tag k="name" v="Flottmyr" />
		<tag k="natural" v="wetland" />
		<tag k="ssr:stedsnr" v="185387" />
	</node>
	<node id="-226391" lat="59.519416669" lon="9.87420833666">
		<tag k="name" v="Bråtan" />
		<tag k="place" v="locality" />
		<tag k="ssr:stedsnr" v="812805" />
	</node>
	<node id="-223318" lat="59.5520472221" lon="9.92216667472">
		<tag k="name" v="Granamyrene" />
		<tag k="natural" v="wetland" />
		<tag k="ssr:stedsnr" v="241779" />
	</node>
	<node id="-224335" lat="59.5918055516" lon="9.84589166873">
		<tag k="name" v="Sløgemyr" />
		<tag k="natural" v="wetland" />
		<tag k="ssr:stedsnr" v="727944" />
	</node>
	<node id="-225868" lat="59.6196250016" lon="9.55982222014">
		<tag k="name" v="Storemyr" />
		<tag k="natural" v="wetland" />
		<tag k="ssr:stedsnr" v="428878" />
	</node>
	<node id="-224281" lat="59.731249997" lon="9.38038888571">
		<tag k="name" v="Torvmyra" />
		<tag k="natural" v="wetland" />
		<tag k="ssr:stedsnr" v="727203" />
	</node>
	<node id="-223303" lat="59.4706916701" lon="9.84536665864">
		<tag k="name" v="Kirkemyr" />
		<tag k="natural" v="wetland" />
		<tag k="ssr:stedsnr" v="241230" />
	</node>
	<node id="-224321" lat="59.5885777769" lon="9.73792223056">
		<tag k="name" v="Kjørstadtajet" />
		<tag k="place" v="locality" />
		<tag k="ssr:stedsnr" v="727809" />
	</node>
	<node id="-224165" lat="59.493783337" lon="9.90638611686">
		<tag k="name" v="Djupedalsenga" />
		<tag k="place" v="locality" />
		<tag k="ssr:stedsnr" v="690843" />
	</node>
	<node id="-224319" lat="59.6210777782" lon="9.73388333392">
		<tag k="name" v="Wittenbergmyra" />
		<tag k="natural" v="wetland" />
		<tag k="ssr:stedsnr" v="629870" />
	</node>
	<node id="-225341" lat="59.5746277767" lon="9.506391672">
		<tag k="name" v="Bjørkesetermyrene" />
		<tag k="natural" v="wetland" />
		<tag k="ssr:stedsnr" v="181596" />
	</node>
	<node id="-224827" lat="59.5511249999" lon="9.76085554909">
		<tag k="name" v="Bjørndalsmyra" />
		<tag k="natural" v="wetland" />
		<tag k="ssr:stedsnr" v="3362" />
	</node>
	<node id="-225887" lat="59.7518194452" lon="9.43856388333">
		<tag k="name" v="Stubbmyra" />
>>>>>>> e1d4bc35ff8a6074a6f2e91616a996b547c36f15
		<tag k="natural" v="wetland" />
		<tag k="ssr:stedsnr" v="540871" />
	</node>
<<<<<<< HEAD
	<node lat="59.709486108606036" lon="9.385527769719365" id="-14261">
		<tag k="name" v="Geitemyra" />
		<tag k="natural" v="wetland" />
		<tag k="ssr:stedsnr" v="788129" />
	</node>
	<node lat="59.58419721848286" lon="9.716647230090341" id="-14268">
		<tag k="name" v="Tuvemyr" />
		<tag k="natural" v="wetland" />
		<tag k="ssr:stedsnr" v="788782" />
	</node>
	<node lat="59.62125000168819" lon="9.552099994511487" id="-14279">
		<tag k="name" v="Langemyr" />
		<tag k="natural" v="wetland" />
		<tag k="ssr:stedsnr" v="791876" />
	</node>
	<node lat="59.546958337289226" lon="9.914222214150525" id="-14328">
		<tag k="name" v="Lortebrumyra" />
		<tag k="natural" v="wetland" />
		<tag k="ssr:stedsnr" v="813769" />
	</node>
	<node lat="59.638477778952534" lon="9.446183325477449" id="-14348">
		<tag k="name" v="Multedokka" />
		<tag k="natural" v="wetland" />
		<tag k="ssr:stedsnr" v="849034" />
	</node>
	<node lat="59.70864166478138" lon="9.347005549272923" id="-14357">
		<tag k="name" v="Tranebærroa" />
		<tag k="natural" v="wetland" />
		<tag k="ssr:stedsnr" v="849161" />
	</node>
	<node lat="59.56576944456649" lon="9.691549995598525" id="-14362">
		<tag k="name" v="Storemyr" />
		<tag k="natural" v="wetland" />
		<tag k="ssr:stedsnr" v="849338" />
	</node>
	<node lat="59.72727500289904" lon="9.509105558123213" id="-14388">
		<tag k="alt_name" v="Kalvemyr" />
		<tag k="name" v="Kalvemyra" />
		<tag k="natural" v="wetland" />
		<tag k="ssr:stedsnr" v="853448" />
	</node>
	<node lat="59.53858055433879" lon="9.908736105471284" id="-14417">
		<tag k="name" v="Løkemyr" />
		<tag k="natural" v="wetland" />
		<tag k="ssr:stedsnr" v="873731" />
	</node>
	<node lat="59.56148610944401" lon="9.637305552209458" id="-14423">
		<tag k="name" v="Lauareie" />
		<tag k="place" v="locality" />
		<tag k="ssr:stedsnr" v="872748" />
	</node>
	<node lat="59.62428889187443" lon="9.607666659744824" id="-14430">
		<tag k="name" v="Kvennaløkka" />
		<tag k="place" v="locality" />
		<tag k="ssr:stedsnr" v="873233" />
	</node>
	<node lat="59.469458331462036" lon="10.043897227885699" id="-14432">
		<tag k="name" v="Bossmyr" />
		<tag k="natural" v="wetland" />
		<tag k="ssr:stedsnr" v="873243" />
	</node>
	<node lat="59.642694442218165" lon="9.609422218628353" id="-14434">
		<tag k="name" v="Veamyr" />
		<tag k="natural" v="wetland" />
		<tag k="ssr:stedsnr" v="873484" />
	</node>
	<node lat="59.527374998748094" lon="9.875061114047348" id="-14447">
		<tag k="name" v="Gampemyr" />
		<tag k="natural" v="wetland" />
		<tag k="ssr:stedsnr" v="873762" />
	</node>
	<node lat="59.71911111330212" lon="9.653913889019261" id="-14474">
		<tag k="name" v="Skjærbenkmyra" />
		<tag k="natural" v="wetland" />
		<tag k="ssr:stedsnr" v="873968" />
	</node>
	<node lat="59.71376389336314" lon="9.59076944388979" id="-14477">
		<tag k="name" v="Stordalsmyrene" />
		<tag k="natural" v="wetland" />
		<tag k="ssr:stedsnr" v="873998" />
	</node>
	<node lat="59.73626944257653" lon="9.459402779444261" id="-14498">
		<tag k="name" v="Torvmyra" />
		<tag k="natural" v="wetland" />
		<tag k="ssr:stedsnr" v="969135" />
	</node>
	<node lat="59.63350555596954" lon="9.78166388931283" id="-14520">
		<tag k="name" v="Klokkerhugsten" />
		<tag k="place" v="locality" />
		<tag k="ssr:stedsnr" v="970117" />
	</node>
	<node lat="59.62654722163141" lon="9.756858327913843" id="-14523">
		<tag k="name" v="Torvstrømyra" />
		<tag k="natural" v="wetland" />
		<tag k="ssr:stedsnr" v="970126" />
	</node>
	<node lat="59.599477778408904" lon="9.624641669354823" id="-14528">
		<tag k="name" v="Limmyr" />
		<tag k="natural" v="wetland" />
		<tag k="ssr:stedsnr" v="970269" />
	</node>
	<node lat="59.5978250019188" lon="9.633716667660037" id="-14529">
		<tag k="name" v="Bleikemyr" />
		<tag k="natural" v="wetland" />
		<tag k="ssr:stedsnr" v="970272" />
=======
	<node id="-225334" lat="59.5303722208" lon="9.93278333332">
		<tag k="name" v="Tretjernmyr" />
		<tag k="natural" v="wetland" />
		<tag k="ssr:stedsnr" v="181645" />
	</node>
	<node id="-223283" lat="59.4886583321" lon="9.8504638902">
		<tag k="name" v="Langemyr" />
		<tag k="natural" v="wetland" />
		<tag k="ssr:stedsnr" v="23835" />
	</node>
	<node id="-225329" lat="59.6023194469" lon="9.46880555192">
		<tag k="name" v="Bjørkemyra" />
		<tag k="natural" v="wetland" />
		<tag k="ssr:stedsnr" v="181551" />
	</node>
	<node id="-225835" lat="59.5343527738" lon="9.97225278483">
		<tag k="name" v="Svaene" />
		<tag k="place" v="locality" />
		<tag k="ssr:stedsnr" v="424842" />
	</node>
	<node id="-223956" lat="59.5171472212" lon="9.87119721499">
		<tag k="name" v="Tjubørje" />
		<tag k="place" v="locality" />
		<tag k="ssr:stedsnr" v="448822" />
	</node>
	<node id="-224291" lat="59.5124388918" lon="9.61948055977">
		<tag k="name" v="Bingen" />
		<tag k="natural" v="wetland" />
		<tag k="ssr:stedsnr" v="727386" />
	</node>
	<node id="-225826" lat="59.5087972202" lon="9.94612778353">
		<tag k="name" v="Reveura" />
		<tag k="natural" v="scree" />
		<tag k="ssr:stedsnr" v="424688" />
	</node>
	<node id="-223774" lat="59.418566665" lon="9.71331389577">
		<tag k="alt_name" v="Limyrene" />
		<tag k="name" v="Limyrane" />
		<tag k="natural" v="wetland" />
		<tag k="ssr:stedsnr" v="487594" />
	</node>
	<node id="-225309" lat="59.4726944421" lon="9.89893055303">
		<tag k="name" v="Store Eknesmyr" />
		<tag k="natural" v="wetland" />
		<tag k="ssr:stedsnr" v="181166" />
	</node>
	<node id="-224284" lat="59.6914555516" lon="9.55549444466">
		<tag k="name" v="Svartemyrene" />
		<tag k="natural" v="wetland" />
		<tag k="ssr:stedsnr" v="727098" />
	</node>
	<node id="-226330" lat="59.6212500017" lon="9.55209999451">
		<tag k="name" v="Langemyr" />
		<tag k="natural" v="wetland" />
		<tag k="ssr:stedsnr" v="791876" />
	</node>
	<node id="-225305" lat="59.7309863477" lon="9.54189741957">
		<tag k="name" v="Dyrmyra" />
		<tag k="natural" v="wetland" />
		<tag k="ssr:stedsnr" v="181149" />
	</node>
	<node id="-223493" lat="59.6197361075" lon="9.64178333756">
		<tag k="name" v="Landsverkhagan" />
		<tag k="place" v="locality" />
		<tag k="ssr:stedsnr" v="266675" />
	</node>
	<node id="-225814" lat="59.5220166675" lon="9.80193610304">
		<tag k="name" v="Ospeholtet" />
		<tag k="place" v="locality" />
		<tag k="ssr:stedsnr" v="424558" />
	</node>
	<node id="-226325" lat="59.4781111081" lon="9.85197777231">
		<tag k="name" v="Sagmyra" />
		<tag k="natural" v="wetland" />
		<tag k="ssr:stedsnr" v="791598" />
	</node>
	<node id="-223853" lat="59.640774997" lon="9.6809694386">
		<tag k="name" v="Steinmyr" />
		<tag k="natural" v="wetland" />
		<tag k="ssr:stedsnr" v="387526" />
	</node>
	<node id="-225299" lat="59.7672194409" lon="9.3936527721">
		<tag k="name" v="Brennrustin" />
		<tag k="place" v="locality" />
		<tag k="ssr:stedsnr" v="176439" />
	</node>
	<node id="-225810" lat="59.6198722212" lon="9.45394999318">
		<tag k="name" v="Briskemyra" />
		<tag k="natural" v="wetland" />
		<tag k="ssr:stedsnr" v="424654" />
	</node>
	<node id="-223749" lat="59.5235361127" lon="9.98830833784">
		<tag k="name" v="Dottmyr" />
		<tag k="natural" v="wetland" />
		<tag k="ssr:stedsnr" v="484650" />
>>>>>>> e1d4bc35ff8a6074a6f2e91616a996b547c36f15
	</node>
</osm>
