<?xml version="1.0" encoding="UTF-8"?>
<<<<<<< HEAD
<osm version="0.6" generator="osmapis">
	<node lat="59.74729444773734" lon="9.365466659122214" id="-11245">
		<tag k="highway" v="path" />
		<tag k="name" v="Setervegen" />
		<tag k="ssr:stedsnr" v="237465" />
	</node>
	<node lat="59.565841669829425" lon="9.72820277189884" id="-11331">
		<tag k="highway" v="path" />
		<tag k="name" v="Moklestien" />
		<tag k="ssr:stedsnr" v="241872" />
	</node>
	<node lat="59.654030554318496" lon="9.605444437021399" id="-11418">
		<tag k="barrier" v="lift_gate" />
		<tag k="name" v="Korset" />
		<tag k="place" v="locality" />
		<tag k="ssr:stedsnr" v="245548" />
	</node>
	<node lat="59.59363333597091" lon="9.743097218571005" id="-11441">
		<tag k="bridge" v="yes" />
		<tag k="layer" v="1" />
		<tag k="name" v="Kjørstad" />
		<tag k="ssr:stedsnr" v="107832" />
	</node>
	<node lat="59.67143611408757" lon="9.59415833180581" id="-11559">
=======
<osm generator="osmapis" version="0.6">
	<node id="-223488" lat="59.6714361141" lon="9.59415833181">
>>>>>>> e1d4bc35ff8a6074a6f2e91616a996b547c36f15
		<tag k="highway" v="path" />
		<tag k="name" v="Kemnerløypa" />
		<tag k="ssr:stedsnr" v="266615" />
	</node>
<<<<<<< HEAD
	<node lat="59.67009999981991" lon="9.647608325874096" id="-11585">
		<tag k="junction" v="yes" />
		<tag k="name" v="Nymoens torg" />
		<tag k="place" v="locality" />
		<tag k="ssr:stedsnr" v="205593" />
	</node>
	<node lat="59.68645833731503" lon="9.65996388661514" id="-11597">
		<tag k="alt_name" v="Fauleplassganga" />
		<tag k="highway" v="path" />
		<tag k="name" v="Fugleplassganga" />
		<tag k="ssr:stedsnr" v="205936" />
	</node>
	<node lat="59.67247222108429" lon="9.650583335244152" id="-11676">
=======
	<node id="-224511" lat="59.5770833304" lon="9.72363055361">
		<tag k="highway" v="path" />
		<tag k="name" v="Elveveien" />
		<tag k="ssr:stedsnr" v="909792" />
	</node>
	<node id="-223486" lat="59.6724722211" lon="9.65058333524">
>>>>>>> e1d4bc35ff8a6074a6f2e91616a996b547c36f15
		<tag k="name" v="Kongsberg stasjon" />
		<tag k="railway" v="station" />
		<tag k="ssr:stedsnr" v="266554" />
		<tag k="train" v="yes" />
<<<<<<< HEAD
	</node>
	<node lat="59.63205833200988" lon="9.640322228128579" id="-11686">
		<tag k="bridge" v="yes" />
		<tag k="layer" v="1" />
		<tag k="name" v="Kongsgårdsmoen" />
		<tag k="ssr:stedsnr" v="288800" />
	</node>
	<node lat="59.544897224578115" lon="9.79636389039222" id="-11687">
		<tag k="bridge" v="yes" />
		<tag k="layer" v="1" />
		<tag k="name" v="Lindem" />
		<tag k="ssr:stedsnr" v="289879" />
	</node>
	<node lat="59.66768611011474" lon="9.645400001720011" id="-11754">
		<tag k="bridge" v="yes" />
		<tag k="layer" v="1" />
		<tag k="name" v="Golfstrømmen" />
		<tag k="ssr:stedsnr" v="470841" />
	</node>
	<node lat="59.62169722664836" lon="9.63149444132869" id="-11755">
		<tag k="bridge" v="yes" />
		<tag k="layer" v="1" />
		<tag k="name" v="Gustkiste" />
		<tag k="ssr:stedsnr" v="470846" />
	</node>
	<node lat="59.653988888290755" lon="9.637933326306618" id="-11756">
		<tag k="alt_name" v="Vennersborg" />
		<tag k="bridge" v="yes" />
		<tag k="layer" v="1" />
		<tag k="name" v="Sellik" />
		<tag k="ssr:stedsnr" v="531846" />
	</node>
	<node lat="59.510702779897166" lon="9.953055555180976" id="-11867">
		<tag k="alt_name" v="Gjeitevadet" />
		<tag k="ford" v="yes" />
		<tag k="name" v="Geitevadet" />
		<tag k="place" v="locality" />
		<tag k="ssr:stedsnr" v="484688" />
	</node>
	<node lat="59.61472778165539" lon="9.464422218046991" id="-11884">
		<tag k="bridge" v="yes" />
		<tag k="layer" v="1" />
		<tag k="name" v="Finnemyrbekk" />
		<tag k="ssr:stedsnr" v="410847" />
	</node>
	<node lat="59.6714611066723" lon="9.638941662736375" id="-12010">
		<tag k="bridge" v="yes" />
		<tag k="layer" v="1" />
		<tag k="name" v="Krutthuset" />
		<tag k="ssr:stedsnr" v="470817" />
	</node>
	<node lat="59.62459999571503" lon="9.610583328008987" id="-12011">
		<tag k="bridge" v="yes" />
		<tag k="layer" v="1" />
		<tag k="name" v="Kvenna" />
		<tag k="ssr:stedsnr" v="470818" />
	</node>
	<node lat="59.62053055964814" lon="9.679733325856862" id="-12012">
		<tag k="bridge" v="yes" />
		<tag k="layer" v="1" />
		<tag k="name" v="Rudsmoen" />
		<tag k="ssr:stedsnr" v="470825" />
	</node>
	<node lat="59.64001944612446" lon="9.642263882256053" id="-12013">
		<tag k="bridge" v="yes" />
		<tag k="layer" v="1" />
		<tag k="name" v="Veungsdalen" />
		<tag k="ssr:stedsnr" v="470867" />
	</node>
	<node lat="59.70318055734892" lon="9.504102786255284" id="-12014">
		<tag k="bridge" v="yes" />
		<tag k="layer" v="1" />
		<tag k="name" v="Storkuldalsbekk" />
		<tag k="ssr:stedsnr" v="470868" />
	</node>
	<node lat="59.5005111086967" lon="9.895880564301986" id="-12102">
		<tag k="bridge" v="yes" />
		<tag k="layer" v="1" />
		<tag k="name" v="Boserud" />
		<tag k="ssr:stedsnr" v="531852" />
	</node>
	<node lat="59.533124997885274" lon="9.894141666662948" id="-12166">
		<tag k="bridge" v="yes" />
		<tag k="layer" v="1" />
		<tag k="name" v="Elvebru" />
		<tag k="ssr:stedsnr" v="691746" />
	</node>
	<node lat="59.55889166689234" lon="9.588286107292983" id="-12198">
		<tag k="fixme" v="consider highway=path" />
		<tag k="highway" v="track" />
		<tag k="name" v="Bjørndalsveien" />
		<tag k="ssr:stedsnr" v="569713" />
	</node>
	<node lat="59.67172499984566" lon="9.63879445032552" id="-12207">
		<tag k="bridge" v="yes" />
		<tag k="layer" v="1" />
		<tag k="name" v="Kongsberg" />
		<tag k="ssr:stedsnr" v="591813" />
	</node>
	<node lat="59.66738333053596" lon="9.644166665940867" id="-12208">
		<tag k="bridge" v="yes" />
		<tag k="layer" v="1" />
		<tag k="name" v="Berg" />
		<tag k="ssr:stedsnr" v="591821" />
	</node>
	<node lat="59.573808336239175" lon="9.729580549188588" id="-12229">
		<tag k="highway" v="path" />
		<tag k="name" v="Delestien" />
		<tag k="ssr:stedsnr" v="605802" />
	</node>
	<node lat="59.63220277946128" lon="9.523722224100705" id="-12305">
		<tag k="bridge" v="yes" />
		<tag k="layer" v="1" />
		<tag k="name" v="Kullhusdal" />
		<tag k="ssr:stedsnr" v="652795" />
	</node>
	<node lat="59.48946388456465" lon="10.003747225870717" id="-12306">
		<tag k="bridge" v="yes" />
		<tag k="layer" v="1" />
		<tag k="name" v="Langtangen" />
		<tag k="ssr:stedsnr" v="652797" />
	</node>
	<node lat="59.59940555553672" lon="9.672605549646766" id="-12307">
		<tag k="bridge" v="yes" />
		<tag k="layer" v="1" />
		<tag k="name" v="Kløvstad" />
		<tag k="ssr:stedsnr" v="652799" />
	</node>
	<node lat="59.50921944084374" lon="9.91475833377631" id="-12421">
		<tag k="bridge" v="yes" />
		<tag k="layer" v="1" />
		<tag k="name" v="Komnes" />
		<tag k="ssr:stedsnr" v="228847" />
	</node>
	<node lat="59.62304166895875" lon="9.47348054912063" id="-12422">
		<tag k="bridge" v="yes" />
		<tag k="layer" v="1" />
		<tag k="name" v="Heia øvre" />
		<tag k="ssr:stedsnr" v="228859" />
	</node>
	<node lat="59.57063611563392" lon="9.812083326702737" id="-12423">
		<tag k="bridge" v="yes" />
		<tag k="layer" v="1" />
		<tag k="name" v="Haugnes" />
		<tag k="ssr:stedsnr" v="228861" />
	</node>
	<node lat="59.74155833402188" lon="9.38370832497115" id="-12443">
		<tag k="ford" v="yes" />
		<tag k="name" v="Storsteinvad" />
		<tag k="place" v="locality" />
		<tag k="ssr:stedsnr" v="905491" />
	</node>
	<node lat="59.742725001956" lon="9.3835250032295" id="-12444">
		<tag k="ford" v="yes" />
		<tag k="name" v="Mellomvad" />
		<tag k="place" v="locality" />
		<tag k="ssr:stedsnr" v="905492" />
	</node>
	<node lat="59.745063886529266" lon="9.40006388513378" id="-12445">
		<tag k="fixme" v="consider highway=path" />
		<tag k="highway" v="track" />
		<tag k="name" v="Fjellskarvegen" />
		<tag k="ssr:stedsnr" v="905495" />
	</node>
	<node lat="59.57708333036441" lon="9.72363055361074" id="-12490">
		<tag k="highway" v="path" />
		<tag k="name" v="Elveveien" />
		<tag k="ssr:stedsnr" v="909792" />
	</node>
	<node lat="59.70607777539344" lon="9.575672221488748" id="-12635">
		<tag k="bridge" v="yes" />
		<tag k="layer" v="1" />
		<tag k="name" v="Køyta" />
		<tag k="ssr:stedsnr" v="835827" />
	</node>
	<node lat="59.60189444039898" lon="9.792147230834544" id="-12636">
		<tag k="bridge" v="yes" />
		<tag k="layer" v="1" />
		<tag k="name" v="Seming" />
		<tag k="ssr:stedsnr" v="835834" />
	</node>
	<node lat="59.71694166418895" lon="9.383172229889496" id="-12637">
		<tag k="bridge" v="yes" />
		<tag k="layer" v="1" />
		<tag k="name" v="Vollan nedre" />
		<tag k="ssr:stedsnr" v="835882" />
	</node>
	<node lat="59.56055555223884" lon="9.531608334385949" id="-12662">
		<tag k="bridge" v="yes" />
		<tag k="layer" v="1" />
		<tag k="name" v="Springover" />
		<tag k="ssr:stedsnr" v="849628" />
	</node>
	<node lat="59.463241663899154" lon="9.842041665618197" id="-12731">
		<tag k="bridge" v="yes" />
		<tag k="layer" v="1" />
		<tag k="name" v="Vollane" />
		<tag k="ssr:stedsnr" v="895863" />
	</node>
	<node lat="59.68117222025935" lon="9.63081944152213" id="-12920">
		<tag k="bridge" v="yes" />
		<tag k="layer" v="1" />
		<tag k="name" v="Skavanger" />
		<tag k="ssr:stedsnr" v="46838" />
	</node>
	<node lat="59.489344446691824" lon="10.004136117515866" id="-12921">
		<tag k="bridge" v="yes" />
		<tag k="layer" v="1" />
		<tag k="name" v="Myra" />
		<tag k="ssr:stedsnr" v="46843" />
	</node>
	<node lat="59.54856666719651" lon="9.818447221457298" id="-12922">
		<tag k="bridge" v="yes" />
		<tag k="layer" v="1" />
		<tag k="name" v="Efteløt" />
		<tag k="ssr:stedsnr" v="46847" />
	</node>
	<node lat="59.52613888917697" lon="9.845841668004839" id="-13057">
=======
	</node>
	<node id="-223866" lat="59.6123000019" lon="9.72123611141">
		<tag k="landuse" v="industrial" />
		<tag k="name" v="Såtvedtverket" />
		<tag k="power" v="plant" />
		<tag k="ssr:stedsnr" v="387867" />
	</node>
	<node id="-225785" lat="59.4704305526" lon="9.96838611204">
		<tag k="man_made" v="cairn" />
		<tag k="name" v="Skinnesvarden" />
		<tag k="place" v="locality" />
		<tag k="ssr:stedsnr" v="424149" />
	</node>
	<node id="-226253" lat="59.5114027773" lon="9.82651665847">
		<tag k="bridge" v="yes" />
		<tag k="layer" v="1" />
		<tag k="name" v="Kvernsrud" />
		<tag k="ssr:stedsnr" v="774832" />
	</node>
	<node id="-226422" lat="59.7051388856" lon="9.4697972227">
>>>>>>> e1d4bc35ff8a6074a6f2e91616a996b547c36f15
		<tag k="bridge" v="yes" />
		<tag k="layer" v="1" />
		<tag k="name" v="Meskestad" />
		<tag k="ssr:stedsnr" v="107842" />
	</node>
<<<<<<< HEAD
	<node lat="59.48371667007723" lon="10.0143083378535" id="-13058">
		<tag k="bridge" v="yes" />
		<tag k="layer" v="1" />
		<tag k="name" v="Grøtterudbekken" />
		<tag k="ssr:stedsnr" v="107864" />
	</node>
	<node lat="59.51022499817643" lon="9.898091660788575" id="-13059">
		<tag k="bridge" v="yes" />
		<tag k="layer" v="1" />
		<tag k="name" v="Tveiten" />
		<tag k="ssr:stedsnr" v="107892" />
	</node>
	<node lat="59.6000079867804" lon="9.756228873268906" id="-13213">
		<tag k="alt_name" v="Volden" />
		<tag k="bridge" v="yes" />
		<tag k="layer" v="1" />
		<tag k="name" v="Volden bru" />
		<tag k="ssr:stedsnr" v="167884" />
	</node>
	<node lat="59.62628610698465" lon="9.633247214526158" id="-13214">
		<tag k="bridge" v="yes" />
		<tag k="layer" v="1" />
		<tag k="name" v="Jordbru" />
		<tag k="ssr:stedsnr" v="167831" />
	</node>
	<node lat="59.70815278049888" lon="9.443630556980382" id="-13215">
		<tag k="bridge" v="yes" />
		<tag k="layer" v="1" />
		<tag k="name" v="Rendla" />
		<tag k="ssr:stedsnr" v="167837" />
	</node>
	<node lat="59.558313890679756" lon="9.634241672601748" id="-13216">
=======
	<node id="-226421" lat="59.6018944404" lon="9.79214723083">
		<tag k="bridge" v="yes" />
		<tag k="layer" v="1" />
		<tag k="name" v="Seming" />
		<tag k="ssr:stedsnr" v="835834" />
	</node>
	<node id="-226420" lat="59.7169416642" lon="9.38317222989">
		<tag k="bridge" v="yes" />
		<tag k="layer" v="1" />
		<tag k="name" v="Vollan nedre" />
		<tag k="ssr:stedsnr" v="835882" />
	</node>
	<node id="-226195" lat="59.5994055555" lon="9.67260554965">
		<tag k="bridge" v="yes" />
		<tag k="layer" v="1" />
		<tag k="name" v="Kløvstad" />
		<tag k="ssr:stedsnr" v="652799" />
	</node>
	<node id="-224237" lat="59.5738083362" lon="9.72958054919">
		<tag k="highway" v="path" />
		<tag k="name" v="Delestien" />
		<tag k="ssr:stedsnr" v="605802" />
	</node>
	<node id="-226028" lat="59.5588916669" lon="9.58828610729">
		<tag k="fixme" v="consider highway=path" />
		<tag k="highway" v="track" />
		<tag k="name" v="Bjørndalsveien" />
		<tag k="ssr:stedsnr" v="569713" />
	</node>
	<node id="-225298" lat="59.7037888914" lon="9.56608611301">
		<tag k="bridge" v="yes" />
		<tag k="layer" v="1" />
		<tag k="name" v="Dokka" />
		<tag k="ssr:stedsnr" v="167844" />
	</node>
	<node id="-225769" lat="59.6147277817" lon="9.46442221805">
>>>>>>> e1d4bc35ff8a6074a6f2e91616a996b547c36f15
		<tag k="bridge" v="yes" />
		<tag k="layer" v="1" />
		<tag k="name" v="Sagvollen" />
		<tag k="ssr:stedsnr" v="167838" />
	</node>
<<<<<<< HEAD
	<node lat="59.62655833635288" lon="9.475155550806937" id="-13217">
=======
	<node id="-225768" lat="59.7236111119" lon="9.35534999939">
>>>>>>> e1d4bc35ff8a6074a6f2e91616a996b547c36f15
		<tag k="bridge" v="yes" />
		<tag k="layer" v="1" />
		<tag k="name" v="Moen" />
		<tag k="ssr:stedsnr" v="167841" />
	</node>
<<<<<<< HEAD
	<node lat="59.589977774907005" lon="9.802211112446072" id="-13218">
=======
	<node id="-225767" lat="59.594572226" lon="9.72514722114">
>>>>>>> e1d4bc35ff8a6074a6f2e91616a996b547c36f15
		<tag k="bridge" v="yes" />
		<tag k="layer" v="1" />
		<tag k="name" v="Bjerknes" />
		<tag k="ssr:stedsnr" v="167843" />
	</node>
<<<<<<< HEAD
	<node lat="59.70378889143513" lon="9.566086113005147" id="-13219">
		<tag k="bridge" v="yes" />
		<tag k="layer" v="1" />
		<tag k="name" v="Dokka" />
		<tag k="ssr:stedsnr" v="167844" />
	</node>
	<node lat="59.63163611514945" lon="9.514733331364903" id="-13220">
		<tag k="bridge" v="yes" />
		<tag k="layer" v="1" />
		<tag k="name" v="Helgebekk" />
		<tag k="ssr:stedsnr" v="167853" />
	</node>
	<node lat="59.608316671023836" lon="9.44486111979805" id="-13221">
		<tag k="bridge" v="yes" />
		<tag k="layer" v="1" />
		<tag k="name" v="Jerpetjern" />
		<tag k="ssr:stedsnr" v="167854" />
	</node>
	<node lat="59.63283156307824" lon="9.605055503915965" id="-13278">
=======
	<node id="-226193" lat="59.6322027795" lon="9.5237222241">
		<tag k="bridge" v="yes" />
		<tag k="layer" v="1" />
		<tag k="name" v="Kullhusdal" />
		<tag k="ssr:stedsnr" v="652795" />
	</node>
	<node id="-226404" lat="59.6829583351" lon="9.67655556098">
		<tag k="highway" v="path" />
		<tag k="name" v="Stretaliganga" />
		<tag k="ssr:stedsnr" v="812926" />
	</node>
	<node id="-223330" lat="59.5658416698" lon="9.7282027719">
		<tag k="highway" v="path" />
		<tag k="name" v="Moklestien" />
		<tag k="ssr:stedsnr" v="241872" />
	</node>
	<node id="-225377" lat="59.6328315631" lon="9.60505550392">
>>>>>>> e1d4bc35ff8a6074a6f2e91616a996b547c36f15
		<tag k="alt_name" v="Saggrenda" />
		<tag k="name" v="Saggrenda stasjon" />
		<tag k="railway" v="station" />
		<tag k="ssr:stedsnr" v="185481" />
		<tag k="train" v="yes" />
	</node>
<<<<<<< HEAD
	<node lat="59.572138892228665" lon="9.625133328365951" id="-13337">
=======
	<node id="-225296" lat="59.6265583364" lon="9.47515555081">
>>>>>>> e1d4bc35ff8a6074a6f2e91616a996b547c36f15
		<tag k="bridge" v="yes" />
		<tag k="layer" v="1" />
		<tag k="name" v="Flata" />
		<tag k="ssr:stedsnr" v="288835" />
	</node>
<<<<<<< HEAD
	<node lat="59.537408336737975" lon="9.831627770455382" id="-13338">
=======
	<node id="-225884" lat="59.4665111079" lon="10.0184388932">
>>>>>>> e1d4bc35ff8a6074a6f2e91616a996b547c36f15
		<tag k="bridge" v="yes" />
		<tag k="layer" v="1" />
		<tag k="name" v="Vines" />
		<tag k="ssr:stedsnr" v="288867" />
	</node>
<<<<<<< HEAD
	<node lat="59.64080277418396" lon="9.606744436497001" id="-13442">
		<tag k="highway" v="path" />
		<tag k="name" v="Bergmannsstien" />
		<tag k="ssr:stedsnr" v="326543" />
	</node>
	<node lat="59.70709722599495" lon="9.601044446508036" id="-13476">
=======
	<node id="-225883" lat="59.5005111087" lon="9.8958805643">
		<tag k="bridge" v="yes" />
		<tag k="layer" v="1" />
		<tag k="name" v="Boserud" />
		<tag k="ssr:stedsnr" v="531852" />
	</node>
	<node id="-225882" lat="59.6539888883" lon="9.63793332631">
		<tag k="alt_name" v="Vennersborg" />
>>>>>>> e1d4bc35ff8a6074a6f2e91616a996b547c36f15
		<tag k="bridge" v="yes" />
		<tag k="layer" v="1" />
		<tag k="name" v="Stengelsrud" />
		<tag k="ssr:stedsnr" v="349858" />
	</node>
<<<<<<< HEAD
	<node lat="59.47810278158575" lon="10.005427775852077" id="-13477">
=======
	<node id="-225881" lat="59.497813887" lon="9.96186666064">
>>>>>>> e1d4bc35ff8a6074a6f2e91616a996b547c36f15
		<tag k="bridge" v="yes" />
		<tag k="layer" v="1" />
		<tag k="name" v="Hvittingfoss" />
		<tag k="ssr:stedsnr" v="349877" />
	</node>
	<node lat="59.61230000190156" lon="9.72123611140684" id="-13603">
		<tag k="landuse" v="industrial" />
		<tag k="name" v="Såtvedtverket" />
		<tag k="power" v="plant" />
		<tag k="ssr:stedsnr" v="387867" />
	</node>
<<<<<<< HEAD
	<node lat="59.59457222604152" lon="9.725147221138547" id="-13623">
		<tag k="bridge" v="yes" />
		<tag k="layer" v="1" />
		<tag k="name" v="Mørk" />
		<tag k="ssr:stedsnr" v="410831" />
	</node>
	<node lat="59.72361111194069" lon="9.355349999393859" id="-13624">
=======
	<node id="-224216" lat="59.6673833305" lon="9.64416666594">
		<tag k="bridge" v="yes" />
		<tag k="layer" v="1" />
		<tag k="name" v="Berg" />
		<tag k="ssr:stedsnr" v="591821" />
	</node>
	<node id="-224215" lat="59.6717249998" lon="9.63879445033">
>>>>>>> e1d4bc35ff8a6074a6f2e91616a996b547c36f15
		<tag k="bridge" v="yes" />
		<tag k="layer" v="1" />
		<tag k="name" v="Bråtan" />
		<tag k="ssr:stedsnr" v="410836" />
	</node>
<<<<<<< HEAD
	<node lat="59.47043055262631" lon="9.968386112039001" id="-13632">
		<tag k="man_made" v="cairn" />
		<tag k="name" v="Skinnesvarden" />
		<tag k="place" v="locality" />
		<tag k="ssr:stedsnr" v="424149" />
	</node>
	<node lat="59.485855559666504" lon="9.724644451310265" id="-13642">
		<tag k="man_made" v="cairn" />
		<tag k="name" v="Røysa" />
		<tag k="place" v="locality" />
		<tag k="ssr:stedsnr" v="424267" />
	</node>
	<node lat="59.585138891811354" lon="9.6441777842508" id="-13755">
		<tag k="ford" v="yes" />
		<tag k="name" v="Øvre Grønnevad" />
		<tag k="place" v="locality" />
		<tag k="ssr:stedsnr" v="508743" />
	</node>
	<node lat="59.497813887044934" lon="9.961866660644795" id="-13782">
=======
	<node id="-223702" lat="59.6400194461" lon="9.64226388226">
		<tag k="bridge" v="yes" />
		<tag k="layer" v="1" />
		<tag k="name" v="Veungsdalen" />
		<tag k="ssr:stedsnr" v="470867" />
	</node>
	<node id="-223701" lat="59.6205305596" lon="9.67973332586">
		<tag k="bridge" v="yes" />
		<tag k="layer" v="1" />
		<tag k="name" v="Rudsmoen" />
		<tag k="ssr:stedsnr" v="470825" />
	</node>
	<node id="-223700" lat="59.6245999957" lon="9.61058332801">
		<tag k="bridge" v="yes" />
		<tag k="layer" v="1" />
		<tag k="name" v="Kvenna" />
		<tag k="ssr:stedsnr" v="470818" />
	</node>
	<node id="-223699" lat="59.6714611067" lon="9.63894166274">
>>>>>>> e1d4bc35ff8a6074a6f2e91616a996b547c36f15
		<tag k="bridge" v="yes" />
		<tag k="layer" v="1" />
		<tag k="name" v="Reine" />
		<tag k="ssr:stedsnr" v="531844" />
	</node>
<<<<<<< HEAD
	<node lat="59.46651110787286" lon="10.018438893228874" id="-13783">
		<tag k="bridge" v="yes" />
		<tag k="layer" v="1" />
		<tag k="name" v="Fossnesmoen" />
		<tag k="ssr:stedsnr" v="531867" />
	</node>
	<node lat="59.52068888997939" lon="9.726399994005996" id="-13814">
		<tag k="highway" v="path" />
		<tag k="name" v="Møklestien" />
		<tag k="ssr:stedsnr" v="545565" />
	</node>
	<node lat="59.59354166987519" lon="9.663633332433399" id="-14002">
		<tag k="bridge" v="yes" />
		<tag k="layer" v="1" />
		<tag k="name" v="Hillestad" />
		<tag k="ssr:stedsnr" v="652823" />
	</node>
	<node lat="59.703038888083654" lon="9.495130558712793" id="-14003">
		<tag k="bridge" v="yes" />
		<tag k="layer" v="1" />
		<tag k="name" v="Jondalen" />
		<tag k="ssr:stedsnr" v="652825" />
	</node>
	<node lat="59.55476944479944" lon="9.814477774091348" id="-14004">
		<tag k="bridge" v="yes" />
		<tag k="layer" v="1" />
		<tag k="name" v="Hvamsal" />
		<tag k="ssr:stedsnr" v="652830" />
	</node>
	<node lat="59.62013888789256" lon="9.657127773168943" id="-14095">
=======
	<node id="-226255" lat="59.6760694472" lon="9.63521389666">
		<tag k="bridge" v="yes" />
		<tag k="layer" v="1" />
		<tag k="name" v="Kongsberg bruk" />
		<tag k="ssr:stedsnr" v="774838" />
	</node>
	<node id="-224462" lat="59.7450638865" lon="9.40006388513">
		<tag k="fixme" v="consider highway=path" />
		<tag k="highway" v="track" />
		<tag k="name" v="Fjellskarvegen" />
		<tag k="ssr:stedsnr" v="905495" />
	</node>
	<node id="-224461" lat="59.742725002" lon="9.38352500323">
		<tag k="ford" v="yes" />
		<tag k="name" v="Mellomvad" />
		<tag k="place" v="locality" />
		<tag k="ssr:stedsnr" v="905492" />
	</node>
	<node id="-224460" lat="59.741558334" lon="9.38370832497">
		<tag k="ford" v="yes" />
		<tag k="name" v="Storsteinvad" />
		<tag k="place" v="locality" />
		<tag k="ssr:stedsnr" v="905491" />
	</node>
	<node id="-223563" lat="59.5706361156" lon="9.8120833267">
>>>>>>> e1d4bc35ff8a6074a6f2e91616a996b547c36f15
		<tag k="bridge" v="yes" />
		<tag k="layer" v="1" />
		<tag k="name" v="Lysemyr" />
		<tag k="ssr:stedsnr" v="713839" />
	</node>
<<<<<<< HEAD
	<node lat="59.49228611123042" lon="9.922124999350162" id="-14096">
=======
	<node id="-223562" lat="59.623041669" lon="9.47348054912">
>>>>>>> e1d4bc35ff8a6074a6f2e91616a996b547c36f15
		<tag k="bridge" v="yes" />
		<tag k="layer" v="1" />
		<tag k="name" v="Grette" />
		<tag k="ssr:stedsnr" v="713856" />
	</node>
<<<<<<< HEAD
	<node lat="59.74532221840893" lon="9.382861103060185" id="-14097">
		<tag k="ford" v="yes" />
		<tag k="name" v="Vollevad" />
		<tag k="place" v="locality" />
		<tag k="ssr:stedsnr" v="722464" />
	</node>
	<node lat="59.74471111441242" lon="9.357269444562085" id="-14098">
		<tag k="fixme" v="consider highway=path" />
		<tag k="highway" v="track" />
		<tag k="name" v="Pålsdalsvegen" />
		<tag k="ssr:stedsnr" v="722472" />
	</node>
	<node lat="59.511402777286825" lon="9.826516658471618" id="-14219">
=======
	<node id="-225095" lat="59.5102249982" lon="9.89809166079">
		<tag k="bridge" v="yes" />
		<tag k="layer" v="1" />
		<tag k="name" v="Tveiten" />
		<tag k="ssr:stedsnr" v="107892" />
	</node>
	<node id="-225094" lat="59.4837166701" lon="10.0143083379">
		<tag k="bridge" v="yes" />
		<tag k="layer" v="1" />
		<tag k="name" v="Grøtterudbekken" />
		<tag k="ssr:stedsnr" v="107864" />
	</node>
	<node id="-225093" lat="59.5261388892" lon="9.845841668">
		<tag k="bridge" v="yes" />
		<tag k="layer" v="1" />
		<tag k="name" v="Meskestad" />
		<tag k="ssr:stedsnr" v="107842" />
	</node>
	<node id="-225092" lat="59.593633336" lon="9.74309721857">
>>>>>>> e1d4bc35ff8a6074a6f2e91616a996b547c36f15
		<tag k="bridge" v="yes" />
		<tag k="layer" v="1" />
		<tag k="name" v="Kvernsrud" />
		<tag k="ssr:stedsnr" v="774832" />
	</node>
<<<<<<< HEAD
	<node lat="59.62934999729581" lon="9.558838891416661" id="-14220">
=======
	<node id="-223552" lat="59.5721388922" lon="9.62513332837">
>>>>>>> e1d4bc35ff8a6074a6f2e91616a996b547c36f15
		<tag k="bridge" v="yes" />
		<tag k="layer" v="1" />
		<tag k="name" v="Flata" />
		<tag k="ssr:stedsnr" v="288835" />
	</node>
<<<<<<< HEAD
	<node lat="59.676069447209926" lon="9.635213896661037" id="-14221">
		<tag k="bridge" v="yes" />
		<tag k="layer" v="1" />
		<tag k="name" v="Kongsberg bruk" />
		<tag k="ssr:stedsnr" v="774838" />
	</node>
	<node lat="59.5879833361513" lon="9.7333750086015" id="-14270">
=======
	<node id="-225599" lat="59.4781027816" lon="10.0054277759">
		<tag k="bridge" v="yes" />
		<tag k="layer" v="1" />
		<tag k="name" v="Hvittingfoss" />
		<tag k="ssr:stedsnr" v="349877" />
	</node>
	<node id="-225598" lat="59.707097226" lon="9.60104444651">
		<tag k="bridge" v="yes" />
		<tag k="layer" v="1" />
		<tag k="name" v="Stengelsrud" />
		<tag k="ssr:stedsnr" v="349858" />
	</node>
	<node id="-226254" lat="59.6293499973" lon="9.55883889142">
		<tag k="bridge" v="yes" />
		<tag k="layer" v="1" />
		<tag k="name" v="Kobbervoll" />
		<tag k="ssr:stedsnr" v="774837" />
	</node>
	<node id="-223292" lat="59.7472944477" lon="9.36546665912">
>>>>>>> e1d4bc35ff8a6074a6f2e91616a996b547c36f15
		<tag k="highway" v="path" />
		<tag k="name" v="Midtveien" />
		<tag k="ssr:stedsnr" v="788798" />
	</node>
<<<<<<< HEAD
	<node lat="59.68295833512208" lon="9.676555560980448" id="-14309">
		<tag k="highway" v="path" />
		<tag k="name" v="Stretaliganga" />
		<tag k="ssr:stedsnr" v="812926" />
	</node>
	<node lat="59.70513888557245" lon="9.469797222700723" id="-14333">
=======
	<node id="-224272" lat="59.7453222184" lon="9.38286110306">
		<tag k="ford" v="yes" />
		<tag k="name" v="Vollevad" />
		<tag k="place" v="locality" />
		<tag k="ssr:stedsnr" v="722464" />
	</node>
	<node id="-224191" lat="59.5331249979" lon="9.89414166666">
		<tag k="bridge" v="yes" />
		<tag k="layer" v="1" />
		<tag k="name" v="Elvebru" />
		<tag k="ssr:stedsnr" v="691746" />
	</node>
	<node id="-223289" lat="59.5092194408" lon="9.91475833378">
>>>>>>> e1d4bc35ff8a6074a6f2e91616a996b547c36f15
		<tag k="bridge" v="yes" />
		<tag k="layer" v="1" />
		<tag k="name" v="Deils" />
		<tag k="ssr:stedsnr" v="835844" />
	</node>
<<<<<<< HEAD
	<node lat="59.493716671137825" lon="9.997755549276018" id="-14334">
=======
	<node id="-225780" lat="59.4858555597" lon="9.72464445131">
		<tag k="man_made" v="cairn" />
		<tag k="name" v="Røysa" />
		<tag k="place" v="locality" />
		<tag k="ssr:stedsnr" v="424267" />
	</node>
	<node id="-225297" lat="59.5899777749" lon="9.80221111245">
		<tag k="bridge" v="yes" />
		<tag k="layer" v="1" />
		<tag k="name" v="Bjerknes" />
		<tag k="ssr:stedsnr" v="167843" />
	</node>
	<node id="-226477" lat="59.5605555522" lon="9.53160833439">
		<tag k="bridge" v="yes" />
		<tag k="layer" v="1" />
		<tag k="name" v="Springover" />
		<tag k="ssr:stedsnr" v="849628" />
	</node>
	<node id="-223760" lat="59.5107027799" lon="9.95305555518">
		<tag k="alt_name" v="Gjeitevadet" />
		<tag k="ford" v="yes" />
		<tag k="name" v="Geitevadet" />
		<tag k="place" v="locality" />
		<tag k="ssr:stedsnr" v="484688" />
	</node>
	<node id="-224682" lat="59.7060777754" lon="9.57567222149">
		<tag k="bridge" v="yes" />
		<tag k="layer" v="1" />
		<tag k="name" v="Køyta" />
		<tag k="ssr:stedsnr" v="835827" />
	</node>
	<node id="-223657" lat="59.5448972246" lon="9.79636389039">
		<tag k="bridge" v="yes" />
		<tag k="layer" v="1" />
		<tag k="name" v="Lindem" />
		<tag k="ssr:stedsnr" v="289879" />
	</node>
	<node id="-223656" lat="59.5374083367" lon="9.83162777046">
		<tag k="bridge" v="yes" />
		<tag k="layer" v="1" />
		<tag k="name" v="Vines" />
		<tag k="ssr:stedsnr" v="288867" />
	</node>
	<node id="-224423" lat="59.4632416639" lon="9.84204166562">
		<tag k="bridge" v="yes" />
		<tag k="layer" v="1" />
		<tag k="name" v="Vollane" />
		<tag k="ssr:stedsnr" v="895863" />
	</node>
	<node id="-223551" lat="59.632058332" lon="9.64032222813">
		<tag k="bridge" v="yes" />
		<tag k="layer" v="1" />
		<tag k="name" v="Kongsgårdsmoen" />
		<tag k="ssr:stedsnr" v="288800" />
	</node>
	<node id="-223525" lat="59.608316671" lon="9.4448611198">
		<tag k="bridge" v="yes" />
		<tag k="layer" v="1" />
		<tag k="name" v="Jerpetjern" />
		<tag k="ssr:stedsnr" v="167854" />
	</node>
	<node id="-223524" lat="59.6316361151" lon="9.51473333136">
		<tag k="bridge" v="yes" />
		<tag k="layer" v="1" />
		<tag k="name" v="Helgebekk" />
		<tag k="ssr:stedsnr" v="167853" />
	</node>
	<node id="-224035" lat="59.6216972266" lon="9.63149444133">
		<tag k="bridge" v="yes" />
		<tag k="layer" v="1" />
		<tag k="name" v="Gustkiste" />
		<tag k="ssr:stedsnr" v="470846" />
	</node>
	<node id="-224034" lat="59.6676861101" lon="9.64540000172">
>>>>>>> e1d4bc35ff8a6074a6f2e91616a996b547c36f15
		<tag k="bridge" v="yes" />
		<tag k="layer" v="1" />
		<tag k="name" v="Gravdal" />
		<tag k="ssr:stedsnr" v="835859" />
	</node>
	<node id="-225568" lat="59.6408027742" lon="9.6067444365">
		<tag k="highway" v="path" />
		<tag k="name" v="Bergmannsstien" />
		<tag k="ssr:stedsnr" v="326543" />
	</node>
	<node id="-223391" lat="59.6540305543" lon="9.60544443702">
		<tag k="barrier" v="lift_gate" />
		<tag k="name" v="Korset" />
		<tag k="place" v="locality" />
		<tag k="ssr:stedsnr" v="245548" />
	</node>
	<node id="-224926" lat="59.5485666672" lon="9.81844722146">
		<tag k="bridge" v="yes" />
		<tag k="layer" v="1" />
		<tag k="name" v="Efteløt" />
		<tag k="ssr:stedsnr" v="46847" />
	</node>
	<node id="-224925" lat="59.4893444467" lon="10.0041361175">
		<tag k="bridge" v="yes" />
		<tag k="layer" v="1" />
		<tag k="name" v="Myra" />
		<tag k="ssr:stedsnr" v="46843" />
	</node>
	<node id="-224924" lat="59.6811722203" lon="9.63081944152">
		<tag k="bridge" v="yes" />
		<tag k="layer" v="1" />
		<tag k="name" v="Skavanger" />
		<tag k="ssr:stedsnr" v="46838" />
	</node>
	<node id="-224218" lat="59.4922861112" lon="9.92212499935">
		<tag k="bridge" v="yes" />
		<tag k="layer" v="1" />
		<tag k="name" v="Grette" />
		<tag k="ssr:stedsnr" v="713856" />
	</node>
	<node id="-225440" lat="59.6864583373" lon="9.65996388662">
		<tag k="alt_name" v="Fauleplassganga" />
		<tag k="highway" v="path" />
		<tag k="name" v="Fugleplassganga" />
		<tag k="ssr:stedsnr" v="205936" />
	</node>
	<node id="-226198" lat="59.5547694448" lon="9.81447777409">
		<tag k="bridge" v="yes" />
		<tag k="layer" v="1" />
		<tag k="name" v="Hvamsal" />
		<tag k="ssr:stedsnr" v="652830" />
	</node>
	<node id="-226197" lat="59.7030388881" lon="9.49513055871">
		<tag k="bridge" v="yes" />
		<tag k="layer" v="1" />
		<tag k="name" v="Jondalen" />
		<tag k="ssr:stedsnr" v="652825" />
	</node>
	<node id="-226196" lat="59.5935416699" lon="9.66363333243">
		<tag k="bridge" v="yes" />
		<tag k="layer" v="1" />
		<tag k="name" v="Hillestad" />
		<tag k="ssr:stedsnr" v="652823" />
	</node>
	<node id="-224217" lat="59.6201388879" lon="9.65712777317">
		<tag k="bridge" v="yes" />
		<tag k="layer" v="1" />
		<tag k="name" v="Lysemyr" />
		<tag k="ssr:stedsnr" v="713839" />
	</node>
	<node id="-226194" lat="59.4894638846" lon="10.0037472259">
		<tag k="bridge" v="yes" />
		<tag k="layer" v="1" />
		<tag k="name" v="Langtangen" />
		<tag k="ssr:stedsnr" v="652797" />
	</node>
	<node id="-224273" lat="59.7447111144" lon="9.35726944456">
		<tag k="fixme" v="consider highway=path" />
		<tag k="highway" v="track" />
		<tag k="name" v="Pålsdalsvegen" />
		<tag k="ssr:stedsnr" v="722472" />
	</node>
	<node id="-224144" lat="59.5851388918" lon="9.64417778425">
		<tag k="ford" v="yes" />
		<tag k="name" v="Øvre Grønnevad" />
		<tag k="place" v="locality" />
		<tag k="ssr:stedsnr" v="508743" />
	</node>
	<node id="-225295" lat="59.5583138907" lon="9.6342416726">
		<tag k="bridge" v="yes" />
		<tag k="layer" v="1" />
		<tag k="name" v="Sagvollen" />
		<tag k="ssr:stedsnr" v="167838" />
	</node>
	<node id="-225294" lat="59.7081527805" lon="9.44363055698">
		<tag k="bridge" v="yes" />
		<tag k="layer" v="1" />
		<tag k="name" v="Rendla" />
		<tag k="ssr:stedsnr" v="167837" />
	</node>
	<node id="-225293" lat="59.626286107" lon="9.63324721453">
		<tag k="bridge" v="yes" />
		<tag k="layer" v="1" />
		<tag k="name" v="Jordbru" />
		<tag k="ssr:stedsnr" v="167831" />
	</node>
	<node id="-225292" lat="59.6000079868" lon="9.75622887327">
		<tag k="alt_name" v="Volden" />
		<tag k="bridge" v="yes" />
		<tag k="layer" v="1" />
		<tag k="name" v="Volden bru" />
		<tag k="ssr:stedsnr" v="167884" />
	</node>
	<node id="-225419" lat="59.6700999998" lon="9.64760832587">
		<tag k="junction" v="yes" />
		<tag k="name" v="Nymoens torg" />
		<tag k="place" v="locality" />
		<tag k="ssr:stedsnr" v="205593" />
	</node>
	<node id="-223703" lat="59.7031805573" lon="9.50410278626">
		<tag k="bridge" v="yes" />
		<tag k="layer" v="1" />
		<tag k="name" v="Storkuldalsbekk" />
		<tag k="ssr:stedsnr" v="470868" />
	</node>
	<node id="-225924" lat="59.52068889" lon="9.72639999401">
		<tag k="highway" v="path" />
		<tag k="name" v="Møklestien" />
		<tag k="ssr:stedsnr" v="545565" />
	</node>
	<node id="-226308" lat="59.5879833362" lon="9.7333750086">
		<tag k="highway" v="path" />
		<tag k="name" v="Midtveien" />
		<tag k="ssr:stedsnr" v="788798" />
	</node>
	<node id="-224683" lat="59.4937166711" lon="9.99775554928">
		<tag k="bridge" v="yes" />
		<tag k="layer" v="1" />
		<tag k="name" v="Gravdal" />
		<tag k="ssr:stedsnr" v="835859" />
	</node>
</osm>
