<?xml version="1.0" encoding="UTF-8"?>
<<<<<<< HEAD
<osm version="0.6" generator="osmapis">
	<node lat="59.61972499708081" lon="9.668552770326007" id="-11211">
		<tag k="name" v="Labru" />
		<tag k="old_name" v="Labro kraftverk" />
		<tag k="ssr:stedsnr" v="3469" />
		<tag k="tourism" v="museum" />
	</node>
	<node lat="59.64913611370019" lon="9.592822221161843" id="-11232">
		<tag k="name" v="Gamle Justits gruve" />
=======
<osm generator="osmapis" version="0.6">
	<node id="-224768" lat="59.5450527818" lon="9.79377500021">
		<tag k="amenity" v="community_centre" />
		<tag k="name" v="Skytteren" />
		<tag k="ssr:stedsnr" v="933916" />
	</node>
	<node id="-224764" lat="59.651324998" lon="9.59322221481">
		<tag k="name" v="Kongens gruve" />
		<tag k="place" v="locality" />
		<tag k="ssr:stedsnr" v="933550" />
	</node>
	<node id="-224763" lat="59.6544555515" lon="9.58387499391">
		<tag k="name" v="Rosengang gruve" />
		<tag k="place" v="locality" />
		<tag k="ssr:stedsnr" v="933549" />
	</node>
	<node id="-224762" lat="59.6462027741" lon="9.6183194479">
		<tag k="name" v="Fader Adam gruve" />
		<tag k="place" v="locality" />
		<tag k="ssr:stedsnr" v="933545" />
	</node>
	<node id="-225273" lat="59.6807972246" lon="9.59684722279">
		<tag k="name" v="Gamle Segen Gottes gruve" />
		<tag k="place" v="locality" />
		<tag k="ssr:stedsnr" v="144919" />
	</node>
	<node id="-225272" lat="59.678227775" lon="9.59903333244">
		<tag k="name" v="Gråterdypet" />
		<tag k="place" v="locality" />
		<tag k="ssr:stedsnr" v="144912" />
	</node>
	<node id="-225271" lat="59.6803999999" lon="9.59703611638">
		<tag k="name" v="Tyske skjerp" />
		<tag k="place" v="locality" />
		<tag k="ssr:stedsnr" v="144911" />
	</node>
	<node id="-225262" lat="59.4915833327" lon="9.88301667466">
		<tag k="name" v="Kølabånn" />
		<tag k="place" v="locality" />
		<tag k="ssr:stedsnr" v="144817" />
	</node>
	<node id="-223723" lat="59.4595888874" lon="9.75474444015">
		<tag k="name" v="Vindor" />
		<tag k="place" v="locality" />
		<tag k="ssr:stedsnr" v="484083" />
	</node>
	<node id="-224743" lat="59.6874333377" lon="9.59218888589">
		<tag k="name" v="Lovisa Augusta gruve" />
		<tag k="place" v="locality" />
		<tag k="ssr:stedsnr" v="873958" />
	</node>
	<node id="-224742" lat="59.6775138922" lon="9.5994944366">
		<tag k="name" v="Juel gruve" />
		<tag k="place" v="locality" />
		<tag k="ssr:stedsnr" v="873913" />
	</node>
	<node id="-224741" lat="59.6804027743" lon="9.60766110558">
		<tag k="name" v="Himmelfart gruve" />
		<tag k="place" v="locality" />
		<tag k="ssr:stedsnr" v="873908" />
	</node>
	<node id="-224740" lat="59.6824638905" lon="9.62448889696">
		<tag k="name" v="Rewentlow skjerp" />
		<tag k="place" v="locality" />
		<tag k="ssr:stedsnr" v="873905" />
	</node>
	<node id="-225250" lat="59.6645111081" lon="9.59687222209">
		<tag k="name" v="Else stoll" />
		<tag k="place" v="locality" />
		<tag k="ssr:stedsnr" v="144638" />
	</node>
	<node id="-225249" lat="59.668772223" lon="9.60764722206">
		<tag k="name" v="Gechworner gruve" />
		<tag k="place" v="locality" />
		<tag k="ssr:stedsnr" v="144635" />
	</node>
	<node id="-226270" lat="59.5604833365" lon="9.82725000121">
		<tag k="name" v="Andrilsløkka" />
		<tag k="place" v="locality" />
		<tag k="ssr:stedsnr" v="787773" />
	</node>
	<node id="-225245" lat="59.6437916663" lon="9.59367223077">
		<tag k="name" v="Nye Justits gruve" />
		<tag k="place" v="locality" />
		<tag k="ssr:stedsnr" v="144560" />
	</node>
	<node id="-225243" lat="59.6525000037" lon="9.58920278007">
		<tag k="name" v="Smedsrud skjerp" />
		<tag k="place" v="locality" />
		<tag k="ssr:stedsnr" v="144542" />
	</node>
	<node id="-224730" lat="59.6333055593" lon="9.59938610828">
		<tag k="name" v="Grev Bernsdorf gruve" />
		<tag k="place" v="locality" />
		<tag k="ssr:stedsnr" v="873158" />
	</node>
	<node id="-223696" lat="59.5247583372" lon="9.95909165985">
		<tag k="name" v="Furterud" />
		<tag k="place" v="locality" />
		<tag k="ssr:stedsnr" v="303674" />
	</node>
	<node id="-223693" lat="59.6284805584" lon="9.78971943683">
		<tag k="name" v="Halvfaret" />
		<tag k="place" v="locality" />
		<tag k="ssr:stedsnr" v="303577" />
	</node>
	<node id="-226231" lat="59.6819777808" lon="9.59609443826">
		<tag k="name" v="Sofie Magdalena gruve" />
		<tag k="place" v="locality" />
		<tag k="ssr:stedsnr" v="751937" />
	</node>
	<node id="-226229" lat="59.6852388931" lon="9.61798888799">
		<tag k="name" v="De 7 skjerp" />
		<tag k="place" v="locality" />
		<tag k="ssr:stedsnr" v="751927" />
	</node>
	<node id="-224180" lat="59.6707111132" lon="9.60516389648">
		<tag k="name" v="Salomon gruve" />
		<tag k="place" v="locality" />
		<tag k="ssr:stedsnr" v="691614" />
	</node>
	<node id="-224179" lat="59.6620083341" lon="9.61291111452">
		<tag k="name" v="Trefoldighets gruve" />
		<tag k="place" v="locality" />
		<tag k="ssr:stedsnr" v="691610" />
	</node>
	<node id="-226216" lat="59.5247527755" lon="9.92002500634">
		<tag k="name" v="Bjørnestilla" />
		<tag k="place" v="locality" />
		<tag k="ssr:stedsnr" v="751768" />
	</node>
	<node id="-224664" lat="59.659958332" lon="9.58348055682">
		<tag k="name" v="Krag gruve" />
		<tag k="place" v="locality" />
		<tag k="ssr:stedsnr" v="933671" />
	</node>
	<node id="-225175" lat="59.6392027735" lon="9.54420278121">
		<tag k="name" v="Bjørneskytterstein" />
		<tag k="place" v="locality" />
		<tag k="ssr:stedsnr" v="120951" />
	</node>
	<node id="-224655" lat="59.6293027779" lon="9.61742221947">
		<tag k="name" v="Oprindelse" />
		<tag k="place" v="locality" />
		<tag k="ssr:stedsnr" v="933150" />
	</node>
	<node id="-224654" lat="59.6201083318" lon="9.60461111374">
		<tag k="name" v="Olsrud skjerp" />
		<tag k="place" v="locality" />
		<tag k="ssr:stedsnr" v="933148" />
	</node>
	<node id="-224663" lat="59.671219447" lon="9.60484722082">
		<tag k="name" v="David gruve" />
		<tag k="place" v="locality" />
		<tag k="ssr:stedsnr" v="933668" />
	</node>
	<node id="-224647" lat="59.7545250037" lon="9.41335833962">
		<tag k="amenity" v="place_of_worship" />
		<tag k="denomination" v="lutheran" />
		<tag k="name" v="Ble sportskapell" />
		<tag k="religion" v="christian" />
		<tag k="ssr:stedsnr" v="792981" />
	</node>
	<node id="-226173" lat="59.6842388931" lon="9.58678332849">
		<tag k="name" v="Kunstbekk skjerp" />
		<tag k="place" v="locality" />
		<tag k="ssr:stedsnr" v="629930" />
	</node>
	<node id="-223604" lat="59.514519442" lon="9.77943889578">
		<tag k="name" v="Gjøva" />
		<tag k="place" v="locality" />
		<tag k="ssr:stedsnr" v="242554" />
	</node>
	<node id="-226159" lat="59.67032778" lon="9.60557777472">
		<tag k="name" v="Gott allein die Ehre gruve" />
		<tag k="place" v="locality" />
		<tag k="ssr:stedsnr" v="629633" />
	</node>
	<node id="-226157" lat="59.6391861144" lon="9.59662500142">
		<tag k="name" v="Fredriks stoll" />
		<tag k="place" v="locality" />
		<tag k="ssr:stedsnr" v="629546" />
	</node>
	<node id="-225642" lat="59.6299694444" lon="9.79175832608">
		<tag k="name" v="Passebekk" />
		<tag k="place" v="locality" />
		<tag k="ssr:stedsnr" v="363528" />
	</node>
	<node id="-223553" lat="59.630577778" lon="9.6004333329">
		<tag k="name" v="Sølvgruvene" />
		<tag k="ssr:stedsnr" v="294543" />
		<tag k="tourism" v="attraction" />
	</node>
	<node id="-226107" lat="59.5571972254" lon="9.56950555117">
		<tag k="name" v="Kobberskjerpa" />
		<tag k="place" v="locality" />
		<tag k="ssr:stedsnr" v="606296" />
	</node>
	<node id="-225246" lat="59.6356222253" lon="9.59779166072">
		<tag k="name" v="Gnade Gottes gruve" />
		<tag k="place" v="locality" />
		<tag k="ssr:stedsnr" v="144563" />
	</node>
	<node id="-226610" lat="59.5075916689" lon="9.76834166723">
		<tag k="name" v="KIppen" />
>>>>>>> e1d4bc35ff8a6074a6f2e91616a996b547c36f15
		<tag k="place" v="locality" />
		<tag k="ssr:stedsnr" v="23580" />
	</node>
<<<<<<< HEAD
	<node lat="59.514519441985456" lon="9.77943889577614" id="-11359">
		<tag k="name" v="Gjøva" />
=======
	<node id="-225075" lat="59.486261107" lon="9.9125333305">
		<tag k="name" v="Matbråtan" />
		<tag k="place" v="locality" />
		<tag k="ssr:stedsnr" v="84833" />
	</node>
	<node id="-226607" lat="59.6255638847" lon="9.78640832516">
		<tag k="name" v="Sersjantrinen" />
>>>>>>> e1d4bc35ff8a6074a6f2e91616a996b547c36f15
		<tag k="place" v="locality" />
		<tag k="ssr:stedsnr" v="242554" />
	</node>
<<<<<<< HEAD
	<node lat="59.48626110699371" lon="9.912533330501697" id="-11398">
		<tag k="name" v="Matbråtan" />
=======
	<node id="-225582" lat="59.6868194444" lon="9.59274166741">
		<tag k="name" v="Charlotte Lovisa gruve" />
>>>>>>> e1d4bc35ff8a6074a6f2e91616a996b547c36f15
		<tag k="place" v="locality" />
		<tag k="ssr:stedsnr" v="84833" />
	</node>
<<<<<<< HEAD
	<node lat="59.65842222037752" lon="9.474238889248229" id="-11509">
		<tag k="name" v="Søget" />
=======
	<node id="-225581" lat="59.6793361113" lon="9.59736944267">
		<tag k="name" v="Gud fryde håpet gruve" />
>>>>>>> e1d4bc35ff8a6074a6f2e91616a996b547c36f15
		<tag k="place" v="locality" />
		<tag k="ssr:stedsnr" v="181020" />
	</node>
<<<<<<< HEAD
	<node lat="59.468597223815166" lon="9.973186108084244" id="-11517">
		<tag k="name" v="Barlindhølet" />
=======
	<node id="-223623" lat="59.6164611122" lon="9.66461666432">
		<tag k="name" v="Myre skjerp" />
		<tag k="place" v="locality" />
		<tag k="ssr:stedsnr" v="448255" />
	</node>
	<node id="-225063" lat="59.6611277808" lon="9.58904166873">
		<tag k="name" v="Else gruve" />
>>>>>>> e1d4bc35ff8a6074a6f2e91616a996b547c36f15
		<tag k="place" v="locality" />
		<tag k="ssr:stedsnr" v="181204" />
	</node>
<<<<<<< HEAD
	<node lat="59.47750277744341" lon="9.798919442875587" id="-11518">
		<tag k="name" v="Rønningen" />
=======
	<node id="-225062" lat="59.6641972216" lon="9.58424721529">
		<tag k="name" v="Haus Oldenburg gruve" />
>>>>>>> e1d4bc35ff8a6074a6f2e91616a996b547c36f15
		<tag k="place" v="locality" />
		<tag k="ssr:stedsnr" v="181209" />
	</node>
<<<<<<< HEAD
	<node lat="59.659408333498654" lon="9.612936116789207" id="-11558">
		<tag k="name" v="Silberspur gruve" />
=======
	<node id="-225061" lat="59.6577861148" lon="9.61377221517">
		<tag k="name" v="Samuel gruve" />
>>>>>>> e1d4bc35ff8a6074a6f2e91616a996b547c36f15
		<tag k="place" v="locality" />
		<tag k="ssr:stedsnr" v="266613" />
	</node>
<<<<<<< HEAD
	<node lat="59.660638885566875" lon="9.587749998547944" id="-11560">
		<tag k="name" v="Gottes Hilfe in der Noth" />
=======
	<node id="-226082" lat="59.5620750026" lon="9.83001389417">
		<tag k="name" v="Dalaløkka" />
>>>>>>> e1d4bc35ff8a6074a6f2e91616a996b547c36f15
		<tag k="place" v="locality" />
		<tag k="ssr:stedsnr" v="266619" />
	</node>
<<<<<<< HEAD
	<node lat="59.65633333446015" lon="9.589902778327753" id="-11561">
		<tag k="name" v="Willen Gottes gruve" />
		<tag k="place" v="locality" />
		<tag k="ssr:stedsnr" v="266621" />
	</node>
	<node lat="59.6658194412634" lon="9.646274995214984" id="-11674">
		<tag k="alt_name" v="Kongsberg" />
		<tag k="amenity" v="place_of_worship" />
		<tag k="denomination" v="lutheran" />
		<tag k="name" v="Kongsberg kirke" />
		<tag k="religion" v="christian" />
		<tag k="ssr:stedsnr" v="266516" />
	</node>
	<node lat="59.68571944595605" lon="9.594047213643794" id="-11683">
		<tag k="name" v="Charlotte Amalie gruve" />
=======
	<node id="-224731" lat="59.6347555576" lon="9.61818611355">
		<tag k="name" v="Reichentrost skjerp" />
		<tag k="place" v="locality" />
		<tag k="ssr:stedsnr" v="873514" />
	</node>
	<node id="-224030" lat="59.5114805525" lon="9.98620834083">
		<tag k="name" v="Putten" />
		<tag k="place" v="locality" />
		<tag k="ssr:stedsnr" v="667619" />
	</node>
	<node id="-224540" lat="59.4328499961" lon="9.65194167511">
		<tag k="name" v="Arkosplassen" />
>>>>>>> e1d4bc35ff8a6074a6f2e91616a996b547c36f15
		<tag k="place" v="locality" />
		<tag k="ssr:stedsnr" v="266920" />
	</node>
<<<<<<< HEAD
	<node lat="59.62848055836271" lon="9.789719436832579" id="-11716">
		<tag k="name" v="Halvfaret" />
		<tag k="place" v="locality" />
		<tag k="ssr:stedsnr" v="303577" />
	</node>
	<node lat="59.66704444065862" lon="9.657174997401796" id="-11820">
		<tag k="name" v="Lågendalsmuseet" />
		<tag k="ssr:stedsnr" v="387562" />
		<tag k="tourism" v="attraction" />
	</node>
	<node lat="59.45958888735343" lon="9.754744440152008" id="-11839">
		<tag k="name" v="Vindor" />
=======
	<node id="-223533" lat="59.4685972238" lon="9.97318610808">
		<tag k="name" v="Barlindhølet" />
		<tag k="place" v="locality" />
		<tag k="ssr:stedsnr" v="181204" />
	</node>
	<node id="-224524" lat="59.5875861082" lon="9.83165277025">
		<tag k="name" v="Klokkerbråten" />
>>>>>>> e1d4bc35ff8a6074a6f2e91616a996b547c36f15
		<tag k="place" v="locality" />
		<tag k="ssr:stedsnr" v="484083" />
	</node>
<<<<<<< HEAD
	<node lat="59.420441664772426" lon="9.700286115412766" id="-11860">
		<tag k="name" v="Bråten" />
=======
	<node id="-223490" lat="59.6563333345" lon="9.58990277833">
		<tag k="name" v="Willen Gottes gruve" />
>>>>>>> e1d4bc35ff8a6074a6f2e91616a996b547c36f15
		<tag k="place" v="locality" />
		<tag k="ssr:stedsnr" v="484595" />
	</node>
<<<<<<< HEAD
	<node lat="59.495722219890176" lon="9.896691664234442" id="-11984">
		<tag k="name" v="Boserudbråtan" />
=======
	<node id="-223489" lat="59.6606388856" lon="9.58774999855">
		<tag k="name" v="Gottes Hilfe in der Noth" />
>>>>>>> e1d4bc35ff8a6074a6f2e91616a996b547c36f15
		<tag k="place" v="locality" />
		<tag k="ssr:stedsnr" v="448839" />
	</node>
<<<<<<< HEAD
	<node lat="59.49198333453465" lon="10.011244452865546" id="-12058">
		<tag k="alt_name" v="Tuft" />
		<tag k="amenity" v="place_of_worship" />
		<tag k="denomination" v="lutheran" />
		<tag k="name" v="Tuft kirke" />
		<tag k="religion" v="christian" />
		<tag k="ssr:stedsnr" v="488062" />
	</node>
	<node lat="59.70385277406937" lon="9.514222223161815" id="-12074">
		<tag k="alt_name" v="Jondalen" />
=======
	<node id="-223487" lat="59.6594083335" lon="9.61293611679">
		<tag k="name" v="Silberspur gruve" />
		<tag k="place" v="locality" />
		<tag k="ssr:stedsnr" v="266613" />
	</node>
	<node id="-223484" lat="59.6658194413" lon="9.64627499521">
		<tag k="alt_name" v="Kongsberg" />
>>>>>>> e1d4bc35ff8a6074a6f2e91616a996b547c36f15
		<tag k="amenity" v="place_of_worship" />
		<tag k="denomination" v="lutheran" />
		<tag k="name" v="Jondalen kirke" />
		<tag k="religion" v="christian" />
		<tag k="ssr:stedsnr" v="488996" />
	</node>
<<<<<<< HEAD
	<node lat="59.6493416681212" lon="9.613222220570046" id="-12087">
		<tag k="name" v="St. Jørgen skjerp" />
		<tag k="place" v="locality" />
		<tag k="ssr:stedsnr" v="508557" />
	</node>
	<node lat="59.68827778174427" lon="9.627877781840281" id="-12097">
		<tag k="name" v="Dildok skjerp" />
		<tag k="place" v="locality" />
		<tag k="ssr:stedsnr" v="508920" />
	</node>
	<node lat="59.680008329542076" lon="9.59724167219677" id="-12098">
		<tag k="name" v="Der Gleichen gruve" />
		<tag k="place" v="locality" />
		<tag k="ssr:stedsnr" v="508924" />
	</node>
	<node lat="59.480433336674494" lon="9.956227774231927" id="-12114">
		<tag k="name" v="Rognedokk" />
=======
	<node id="-226038" lat="59.686130557" lon="9.62222221882">
		<tag k="name" v="Dildok skjerp" />
		<tag k="place" v="locality" />
		<tag k="ssr:stedsnr" v="569886" />
	</node>
	<node id="-226542" lat="59.6666111131" lon="9.60810277152">
		<tag k="name" v="Commisarien gruve" />
		<tag k="place" v="locality" />
		<tag k="ssr:stedsnr" v="873581" />
	</node>
	<node id="-226538" lat="59.6219722198" lon="9.66384999657">
		<tag k="alt_name" v="Labrolokalet" />
		<tag k="amenity" v="community_centre" />
		<tag k="name" v="Labro" />
		<tag k="ssr:stedsnr" v="873646" />
	</node>
	<node id="-225000" lat="59.4896527793" lon="10.0128361031">
		<tag k="name" v="Solvang" />
>>>>>>> e1d4bc35ff8a6074a6f2e91616a996b547c36f15
		<tag k="place" v="locality" />
		<tag k="ssr:stedsnr" v="545168" />
	</node>
<<<<<<< HEAD
	<node lat="59.66200833414045" lon="9.612911114517765" id="-12179">
		<tag k="name" v="Trefoldighets gruve" />
=======
	<node id="-223526" lat="59.6584222204" lon="9.47423888925">
		<tag k="name" v="Søget" />
		<tag k="place" v="locality" />
		<tag k="ssr:stedsnr" v="181020" />
	</node>
	<node id="-226018" lat="59.6585555577" lon="9.58806944862">
		<tag k="name" v="Myhr gruve" />
>>>>>>> e1d4bc35ff8a6074a6f2e91616a996b547c36f15
		<tag k="place" v="locality" />
		<tag k="ssr:stedsnr" v="691610" />
	</node>
<<<<<<< HEAD
	<node lat="59.67071111317481" lon="9.605163896482098" id="-12180">
		<tag k="name" v="Salomon gruve" />
=======
	<node id="-224481" lat="59.6120000008" lon="9.60646110428">
		<tag k="name" v="Bratteskjerpet" />
>>>>>>> e1d4bc35ff8a6074a6f2e91616a996b547c36f15
		<tag k="place" v="locality" />
		<tag k="ssr:stedsnr" v="691614" />
	</node>
<<<<<<< HEAD
	<node lat="59.617955558764145" lon="9.605033329562074" id="-12188">
		<tag k="name" v="Nordre Statsmyr gruver" />
=======
	<node id="-226013" lat="59.6374777756" lon="9.61833333637">
		<tag k="name" v="Vaktmesterskjerp" />
>>>>>>> e1d4bc35ff8a6074a6f2e91616a996b547c36f15
		<tag k="place" v="locality" />
		<tag k="ssr:stedsnr" v="569164" />
	</node>
<<<<<<< HEAD
	<node lat="59.65855555774839" lon="9.588069448615972" id="-12191">
		<tag k="name" v="Myhr gruve" />
=======
	<node id="-226012" lat="59.6409722264" lon="9.62561110905">
		<tag k="name" v="Ollebakskjerp" />
>>>>>>> e1d4bc35ff8a6074a6f2e91616a996b547c36f15
		<tag k="place" v="locality" />
		<tag k="ssr:stedsnr" v="569617" />
	</node>
<<<<<<< HEAD
	<node lat="59.63918611442565" lon="9.596625001420598" id="-12281">
		<tag k="name" v="Fredriks stoll" />
=======
	<node id="-226008" lat="59.6179555588" lon="9.60503332956">
		<tag k="name" v="Nordre Statsmyr gruver" />
>>>>>>> e1d4bc35ff8a6074a6f2e91616a996b547c36f15
		<tag k="place" v="locality" />
		<tag k="ssr:stedsnr" v="629546" />
	</node>
<<<<<<< HEAD
	<node lat="59.57812499586996" lon="9.822266665911403" id="-12394">
		<tag k="name" v="Lundsvingen" />
=======
	<node id="-223957" lat="59.4957222199" lon="9.89669166423">
		<tag k="name" v="Boserudbråtan" />
>>>>>>> e1d4bc35ff8a6074a6f2e91616a996b547c36f15
		<tag k="place" v="locality" />
		<tag k="ssr:stedsnr" v="727984" />
	</node>
<<<<<<< HEAD
	<node lat="59.61200000080565" lon="9.606461104275072" id="-12470">
		<tag k="name" v="Bratteskjerpet" />
		<tag k="place" v="locality" />
		<tag k="ssr:stedsnr" v="909149" />
	</node>
	<node lat="59.587586108240615" lon="9.831652770248079" id="-12494">
		<tag k="name" v="Klokkerbråten" />
		<tag k="place" v="locality" />
		<tag k="ssr:stedsnr" v="909944" />
	</node>
	<node lat="59.432849996085615" lon="9.651941675106151" id="-12506">
		<tag k="name" v="Arkosplassen" />
=======
	<node id="-223950" lat="59.6396861077" lon="9.6658000051">
		<tag k="name" v="Gomsrud skjerp" />
		<tag k="place" v="locality" />
		<tag k="ssr:stedsnr" v="448534" />
	</node>
	<node id="-224450" lat="59.5781249959" lon="9.82226666591">
		<tag k="name" v="Lundsvingen" />
>>>>>>> e1d4bc35ff8a6074a6f2e91616a996b547c36f15
		<tag k="place" v="locality" />
		<tag k="ssr:stedsnr" v="910616" />
	</node>
<<<<<<< HEAD
	<node lat="59.7545250037054" lon="9.413358339621794" id="-12573">
		<tag k="amenity" v="place_of_worship" />
		<tag k="denomination" v="lutheran" />
		<tag k="name" v="Ble sportskapell" />
		<tag k="religion" v="christian" />
		<tag k="ssr:stedsnr" v="792981" />
	</node>
	<node lat="59.654900003821275" lon="9.615261119106874" id="-12611">
		<tag k="name" v="Krum Brügge" />
=======
	<node id="-225463" lat="59.7230611116" lon="9.39795277678">
		<tag k="name" v="Standarden" />
		<tag k="place" v="locality" />
		<tag k="ssr:stedsnr" v="302194" />
	</node>
	<node id="-225459" lat="59.6828388864" lon="9.54151667289">
		<tag k="name" v="Soldatergrava" />
>>>>>>> e1d4bc35ff8a6074a6f2e91616a996b547c36f15
		<tag k="place" v="locality" />
		<tag k="ssr:stedsnr" v="812539" />
	</node>
<<<<<<< HEAD
	<node lat="59.666019441901994" lon="9.650272230323495" id="-12613">
		<tag k="name" v="Bergverksmuseet" />
		<tag k="ssr:stedsnr" v="812560" />
		<tag k="tourism" v="attraction" />
	</node>
	<node lat="59.64620277413775" lon="9.618319447897864" id="-12708">
		<tag k="name" v="Fader Adam gruve" />
=======
	<node id="-224945" lat="59.4867916683" lon="9.67893611294">
		<tag k="name" v="Brennevinsletta" />
		<tag k="place" v="locality" />
		<tag k="ssr:stedsnr" v="59555" />
	</node>
	<node id="-223516" lat="59.685719446" lon="9.59404721364">
		<tag k="name" v="Charlotte Amalie gruve" />
		<tag k="place" v="locality" />
		<tag k="ssr:stedsnr" v="266920" />
	</node>
	<node id="-225444" lat="59.6918416682" lon="9.59216388234">
		<tag k="name" v="Kampenhaug skjerp" />
>>>>>>> e1d4bc35ff8a6074a6f2e91616a996b547c36f15
		<tag k="place" v="locality" />
		<tag k="ssr:stedsnr" v="933545" />
	</node>
<<<<<<< HEAD
	<node lat="59.654455551486514" lon="9.583874993908397" id="-12709">
		<tag k="name" v="Rosengang gruve" />
		<tag k="place" v="locality" />
		<tag k="ssr:stedsnr" v="933549" />
	</node>
	<node lat="59.65132499800428" lon="9.593222214805746" id="-12710">
		<tag k="name" v="Kongens gruve" />
=======
	<node id="-225439" lat="59.6781444454" lon="9.60982500874">
		<tag k="name" v="Steinbordet" />
		<tag k="ssr:stedsnr" v="205918" />
		<tag k="tourism" v="attraction" />
	</node>
	<node id="-223898" lat="59.7017555601" lon="9.64274722441">
		<tag k="name" v="Fredrik IVs gruve" />
>>>>>>> e1d4bc35ff8a6074a6f2e91616a996b547c36f15
		<tag k="place" v="locality" />
		<tag k="ssr:stedsnr" v="933550" />
	</node>
<<<<<<< HEAD
	<node lat="59.67121944700746" lon="9.604847220821208" id="-12713">
		<tag k="name" v="David gruve" />
=======
	<node id="-223895" lat="59.6800083295" lon="9.5972416722">
		<tag k="name" v="Der Gleichen gruve" />
>>>>>>> e1d4bc35ff8a6074a6f2e91616a996b547c36f15
		<tag k="place" v="locality" />
		<tag k="ssr:stedsnr" v="933668" />
	</node>
<<<<<<< HEAD
	<node lat="59.659958331982864" lon="9.583480556818216" id="-12714">
		<tag k="name" v="Krag gruve" />
		<tag k="place" v="locality" />
		<tag k="ssr:stedsnr" v="933671" />
	</node>
	<node lat="59.684399997572775" lon="9.594186111142065" id="-12722">
		<tag k="name" v="Gamle Quintus gruve" />
=======
	<node id="-224878" lat="59.6177944427" lon="9.60699444221">
		<tag k="name" v="Østre Statsmyr skjerp" />
		<tag k="place" v="locality" />
		<tag k="ssr:stedsnr" v="23173" />
	</node>
	<node id="-224399" lat="59.45316667" lon="9.74417777293">
		<tag k="name" v="Viern" />
>>>>>>> e1d4bc35ff8a6074a6f2e91616a996b547c36f15
		<tag k="place" v="locality" />
		<tag k="ssr:stedsnr" v="933929" />
	</node>
<<<<<<< HEAD
	<node lat="59.62010833179057" lon="9.604611113737873" id="-12800">
		<tag k="name" v="Olsrud skjerp" />
=======
	<node id="-225422" lat="59.6676749958" lon="9.58301943922">
		<tag k="name" v="Østre Morgenstjerne gruve" />
>>>>>>> e1d4bc35ff8a6074a6f2e91616a996b547c36f15
		<tag k="place" v="locality" />
		<tag k="ssr:stedsnr" v="933148" />
	</node>
<<<<<<< HEAD
	<node lat="59.62930277789006" lon="9.617422219467075" id="-12801">
		<tag k="name" v="Oprindelse" />
=======
	<node id="-225420" lat="59.6626527817" lon="9.6102777718">
		<tag k="name" v="Prinsen av Augustenborg gruve" />
>>>>>>> e1d4bc35ff8a6074a6f2e91616a996b547c36f15
		<tag k="place" v="locality" />
		<tag k="ssr:stedsnr" v="933150" />
	</node>
<<<<<<< HEAD
	<node lat="59.54505278178969" lon="9.793775000207233" id="-12809">
		<tag k="amenity" v="community_centre" />
		<tag k="name" v="Skytteren" />
		<tag k="ssr:stedsnr" v="933916" />
	</node>
	<node lat="59.50759166888732" lon="9.768341667227743" id="-12834">
		<tag k="name" v="KIppen" />
=======
	<node id="-223882" lat="59.6882777817" lon="9.62787778184">
		<tag k="name" v="Dildok skjerp" />
>>>>>>> e1d4bc35ff8a6074a6f2e91616a996b547c36f15
		<tag k="place" v="locality" />
		<tag k="ssr:stedsnr" v="970141" />
	</node>
<<<<<<< HEAD
	<node lat="59.458741670562425" lon="9.925641671838303" id="-12837">
		<tag k="name" v="Elgelund" />
=======
	<node id="-223881" lat="59.667275003" lon="9.60787778381">
		<tag k="name" v="Herzog Ulrichs gruve" />
>>>>>>> e1d4bc35ff8a6074a6f2e91616a996b547c36f15
		<tag k="place" v="locality" />
		<tag k="ssr:stedsnr" v="970305" />
	</node>
<<<<<<< HEAD
	<node lat="59.5061138885537" lon="9.912875005446523" id="-12866">
		<tag k="alt_name" v="Komnes" />
		<tag k="amenity" v="place_of_worship" />
		<tag k="denomination" v="lutheran" />
		<tag k="name" v="Komnes kirke" />
		<tag k="religion" v="christian" />
		<tag k="ssr:stedsnr" v="3301" />
	</node>
	<node lat="59.61779444274336" lon="9.60699444221114" id="-12882">
		<tag k="name" v="Østre Statsmyr skjerp" />
=======
	<node id="-223879" lat="59.6493416681" lon="9.61322222057">
		<tag k="name" v="St. Jørgen skjerp" />
>>>>>>> e1d4bc35ff8a6074a6f2e91616a996b547c36f15
		<tag k="place" v="locality" />
		<tag k="ssr:stedsnr" v="23173" />
	</node>
<<<<<<< HEAD
	<node lat="59.639527777612905" lon="9.61856388694117" id="-12885">
		<tag k="name" v="Figenbom skjerp" />
=======
	<node id="-225414" lat="59.6191694439" lon="9.66511388656">
		<tag k="name" v="Culmbach blygruve" />
>>>>>>> e1d4bc35ff8a6074a6f2e91616a996b547c36f15
		<tag k="place" v="locality" />
		<tag k="ssr:stedsnr" v="23583" />
	</node>
<<<<<<< HEAD
	<node lat="59.67646389332555" lon="9.60059443732812" id="-12893">
		<tag k="name" v="Hannibal gruve" />
=======
	<node id="-224896" lat="59.6777888851" lon="9.61149999498">
		<tag k="name" v="Kvartsdal gruve" />
>>>>>>> e1d4bc35ff8a6074a6f2e91616a996b547c36f15
		<tag k="place" v="locality" />
		<tag k="ssr:stedsnr" v="23657" />
	</node>
<<<<<<< HEAD
	<node lat="59.68422222117537" lon="9.61875277123951" id="-12903">
=======
	<node id="-224895" lat="59.6842222212" lon="9.61875277124">
>>>>>>> e1d4bc35ff8a6074a6f2e91616a996b547c36f15
		<tag k="name" v="Prins Carl skjerp" />
		<tag k="place" v="locality" />
		<tag k="ssr:stedsnr" v="23924" />
	</node>
<<<<<<< HEAD
	<node lat="59.67778888511246" lon="9.611499994980948" id="-12904">
		<tag k="name" v="Kvartsdal gruve" />
=======
	<node id="-226429" lat="59.4822944428" lon="9.87529999879">
		<tag k="name" v="Bekkelaget" />
>>>>>>> e1d4bc35ff8a6074a6f2e91616a996b547c36f15
		<tag k="place" v="locality" />
		<tag k="ssr:stedsnr" v="23926" />
	</node>
<<<<<<< HEAD
	<node lat="59.486791668268694" lon="9.678936112941521" id="-12929">
		<tag k="name" v="Brennevinsletta" />
=======
	<node id="-224890" lat="59.6764638933" lon="9.60059443733">
		<tag k="name" v="Hannibal gruve" />
>>>>>>> e1d4bc35ff8a6074a6f2e91616a996b547c36f15
		<tag k="place" v="locality" />
		<tag k="ssr:stedsnr" v="59555" />
	</node>
<<<<<<< HEAD
	<node lat="59.58362777400545" lon="9.751058338332339" id="-12950">
		<tag k="name" v="Rinen" />
=======
	<node id="-224885" lat="59.6395277776" lon="9.61856388694">
		<tag k="name" v="Figenbom skjerp" />
>>>>>>> e1d4bc35ff8a6074a6f2e91616a996b547c36f15
		<tag k="place" v="locality" />
		<tag k="ssr:stedsnr" v="59792" />
	</node>
<<<<<<< HEAD
	<node lat="59.48965277928421" lon="10.012836103088338" id="-12975">
		<tag k="name" v="Solvang" />
=======
	<node id="-224884" lat="59.6491361137" lon="9.59282222116">
		<tag k="name" v="Gamle Justits gruve" />
>>>>>>> e1d4bc35ff8a6074a6f2e91616a996b547c36f15
		<tag k="place" v="locality" />
		<tag k="ssr:stedsnr" v="60584" />
	</node>
<<<<<<< HEAD
	<node lat="59.65778611484292" lon="9.61377221517403" id="-13034">
		<tag k="name" v="Samuel gruve" />
=======
	<node id="-226414" lat="59.5270777779" lon="9.85261388585">
		<tag k="name" v="Meskestad mølle" />
>>>>>>> e1d4bc35ff8a6074a6f2e91616a996b547c36f15
		<tag k="place" v="locality" />
		<tag k="ssr:stedsnr" v="84635" />
	</node>
<<<<<<< HEAD
	<node lat="59.66419722162695" lon="9.584247215291082" id="-13035">
		<tag k="name" v="Haus Oldenburg gruve" />
		<tag k="place" v="locality" />
		<tag k="ssr:stedsnr" v="84640" />
	</node>
	<node lat="59.66112778081312" lon="9.589041668728017" id="-13036">
		<tag k="name" v="Else gruve" />
=======
	<node id="-225899" lat="59.4804333367" lon="9.95622777423">
		<tag k="name" v="Rognedokk" />
		<tag k="place" v="locality" />
		<tag k="ssr:stedsnr" v="545168" />
	</node>
	<node id="-224356" lat="59.5504638878" lon="9.80982777453">
		<tag k="alt_name" v="Efteløt" />
		<tag k="amenity" v="place_of_worship" />
		<tag k="denomination" v="lutheran" />
		<tag k="name" v="Efteløt kirke" />
		<tag k="religion" v="christian" />
		<tag k="ssr:stedsnr" v="731369" />
	</node>
	<node id="-226403" lat="59.6848833313" lon="9.59375000802">
		<tag k="name" v="Prins Christian gruve" />
>>>>>>> e1d4bc35ff8a6074a6f2e91616a996b547c36f15
		<tag k="place" v="locality" />
		<tag k="ssr:stedsnr" v="84642" />
	</node>
<<<<<<< HEAD
	<node lat="59.63920277346634" lon="9.544202781206671" id="-13117">
		<tag k="name" v="Bjørneskytterstein" />
		<tag k="place" v="locality" />
		<tag k="ssr:stedsnr" v="120951" />
	</node>
	<node lat="59.65250000372993" lon="9.58920278007452" id="-13172">
		<tag k="name" v="Smedsrud skjerp" />
		<tag k="place" v="locality" />
		<tag k="ssr:stedsnr" v="144542" />
	</node>
	<node lat="59.6437916662896" lon="9.593672230766126" id="-13174">
		<tag k="name" v="Nye Justits gruve" />
=======
	<node id="-224849" lat="59.6197249971" lon="9.66855277033">
		<tag k="name" v="Labru" />
		<tag k="old_name" v="Labro kraftverk" />
		<tag k="ssr:stedsnr" v="3469" />
		<tag k="tourism" v="museum" />
	</node>
	<node id="-223818" lat="59.7038527741" lon="9.51422222316">
		<tag k="alt_name" v="Jondalen" />
		<tag k="amenity" v="place_of_worship" />
		<tag k="denomination" v="lutheran" />
		<tag k="name" v="Jondalen kirke" />
		<tag k="religion" v="christian" />
		<tag k="ssr:stedsnr" v="488996" />
	</node>
	<node id="-225975" lat="59.6118880843" lon="9.65623819982">
		<tag k="alt_name" v="Hedenstad" />
		<tag k="amenity" v="place_of_worship" />
		<tag k="denomination" v="lutheran" />
		<tag k="name" v="Hedenstad kirke" />
		<tag k="religion" v="christian" />
		<tag k="ssr:stedsnr" v="549473" />
	</node>
	<node id="-226372" lat="59.6680083335" lon="9.60752499219">
		<tag k="name" v="Conkordia gruve" />
>>>>>>> e1d4bc35ff8a6074a6f2e91616a996b547c36f15
		<tag k="place" v="locality" />
		<tag k="ssr:stedsnr" v="144560" />
	</node>
<<<<<<< HEAD
	<node lat="59.63562222533307" lon="9.59779166072028" id="-13175">
		<tag k="name" v="Gnade Gottes gruve" />
=======
	<node id="-223297" lat="59.583627774" lon="9.75105833833">
		<tag k="name" v="Rinen" />
>>>>>>> e1d4bc35ff8a6074a6f2e91616a996b547c36f15
		<tag k="place" v="locality" />
		<tag k="ssr:stedsnr" v="144563" />
	</node>
<<<<<<< HEAD
	<node lat="59.66877222296965" lon="9.607647222064008" id="-13186">
		<tag k="name" v="Gechworner gruve" />
		<tag k="place" v="locality" />
		<tag k="ssr:stedsnr" v="144635" />
	</node>
	<node lat="59.66451110806032" lon="9.596872222087633" id="-13187">
		<tag k="name" v="Else stoll" />
=======
	<node id="-226367" lat="59.6660194419" lon="9.65027223032">
		<tag k="name" v="Bergverksmuseet" />
		<tag k="ssr:stedsnr" v="812560" />
		<tag k="tourism" v="attraction" />
	</node>
	<node id="-226365" lat="59.6549000038" lon="9.61526111911">
		<tag k="name" v="Krum Brügge" />
>>>>>>> e1d4bc35ff8a6074a6f2e91616a996b547c36f15
		<tag k="place" v="locality" />
		<tag k="ssr:stedsnr" v="144638" />
	</node>
<<<<<<< HEAD
	<node lat="59.68039999992882" lon="9.597036116380654" id="-13197">
		<tag k="name" v="Tyske skjerp" />
		<tag k="place" v="locality" />
		<tag k="ssr:stedsnr" v="144911" />
	</node>
	<node lat="59.67822777500587" lon="9.599033332437866" id="-13198">
		<tag k="name" v="Gråterdypet" />
		<tag k="place" v="locality" />
		<tag k="ssr:stedsnr" v="144912" />
	</node>
	<node lat="59.680797224609904" lon="9.5968472227879" id="-13199">
		<tag k="name" v="Gamle Segen Gottes gruve" />
=======
	<node id="-224824" lat="59.5061138886" lon="9.91287500545">
		<tag k="alt_name" v="Komnes" />
		<tag k="amenity" v="place_of_worship" />
		<tag k="denomination" v="lutheran" />
		<tag k="name" v="Komnes kirke" />
		<tag k="religion" v="christian" />
		<tag k="ssr:stedsnr" v="3301" />
	</node>
	<node id="-224308" lat="59.6451305591" lon="9.61856944742">
		<tag k="name" v="Mutter Eva gruve" />
>>>>>>> e1d4bc35ff8a6074a6f2e91616a996b547c36f15
		<tag k="place" v="locality" />
		<tag k="ssr:stedsnr" v="144919" />
	</node>
<<<<<<< HEAD
	<node lat="59.49158333274526" lon="9.883016674662546" id="-13207">
		<tag k="name" v="Kølabånn" />
=======
	<node id="-223854" lat="59.6670444407" lon="9.6571749974">
		<tag k="name" v="Lågendalsmuseet" />
		<tag k="ssr:stedsnr" v="387562" />
		<tag k="tourism" v="attraction" />
	</node>
	<node id="-225831" lat="59.5824138873" lon="9.701011111">
		<tag k="name" v="Limovnene" />
>>>>>>> e1d4bc35ff8a6074a6f2e91616a996b547c36f15
		<tag k="place" v="locality" />
		<tag k="ssr:stedsnr" v="144817" />
	</node>
<<<<<<< HEAD
	<node lat="59.59919444399265" lon="9.610374999029652" id="-13228">
		<tag k="name" v="Kisgruvene" />
		<tag k="place" v="locality" />
		<tag k="ssr:stedsnr" v="181148" />
	</node>
	<node lat="59.619169443922154" lon="9.665113886558226" id="-13316">
		<tag k="name" v="Culmbach blygruve" />
=======
	<node id="-223779" lat="59.4919833345" lon="10.0112444529">
		<tag k="alt_name" v="Tuft" />
		<tag k="amenity" v="place_of_worship" />
		<tag k="denomination" v="lutheran" />
		<tag k="name" v="Tuft kirke" />
		<tag k="religion" v="christian" />
		<tag k="ssr:stedsnr" v="488062" />
	</node>
	<node id="-226047" lat="59.6400666684" lon="9.65650278318">
		<tag k="name" v="Kongsberg gravlund" />
		<tag k="place" v="locality" />
		<tag k="ssr:stedsnr" v="569993" />
	</node>
	<node id="-224799" lat="59.4587416706" lon="9.92564167184">
		<tag k="name" v="Elgelund" />
>>>>>>> e1d4bc35ff8a6074a6f2e91616a996b547c36f15
		<tag k="place" v="locality" />
		<tag k="ssr:stedsnr" v="205262" />
	</node>
<<<<<<< HEAD
	<node lat="59.66265278170024" lon="9.610277771798794" id="-13318">
		<tag k="name" v="Prinsen av Augustenborg gruve" />
=======
	<node id="-225306" lat="59.4775027774" lon="9.79891944288">
		<tag k="name" v="Rønningen" />
>>>>>>> e1d4bc35ff8a6074a6f2e91616a996b547c36f15
		<tag k="place" v="locality" />
		<tag k="ssr:stedsnr" v="205649" />
	</node>
<<<<<<< HEAD
	<node lat="59.66767499575805" lon="9.583019439221006" id="-13320">
		<tag k="name" v="Østre Morgenstjerne gruve" />
=======
	<node id="-225304" lat="59.599194444" lon="9.61037499903">
		<tag k="name" v="Kisgruvene" />
>>>>>>> e1d4bc35ff8a6074a6f2e91616a996b547c36f15
		<tag k="place" v="locality" />
		<tag k="ssr:stedsnr" v="205658" />
	</node>
<<<<<<< HEAD
	<node lat="59.67814444535426" lon="9.609825008744302" id="-13323">
		<tag k="name" v="Steinbordet" />
		<tag k="ssr:stedsnr" v="205918" />
		<tag k="tourism" v="attraction" />
	</node>
	<node lat="59.69184166821496" lon="9.592163882344128" id="-13328">
		<tag k="name" v="Kampenhaug skjerp" />
=======
	<node id="-223746" lat="59.4204416648" lon="9.70028611541">
		<tag k="name" v="Bråten" />
>>>>>>> e1d4bc35ff8a6074a6f2e91616a996b547c36f15
		<tag k="place" v="locality" />
		<tag k="ssr:stedsnr" v="205963" />
	</node>
<<<<<<< HEAD
	<node lat="59.63057777802139" lon="9.60043333290487" id="-13339">
		<tag k="name" v="Sølvgruvene" />
		<tag k="ssr:stedsnr" v="294543" />
		<tag k="tourism" v="attraction" />
	</node>
	<node lat="59.72306111158344" lon="9.397952776784534" id="-13345">
		<tag k="name" v="Standarden" />
		<tag k="place" v="locality" />
		<tag k="ssr:stedsnr" v="302194" />
	</node>
	<node lat="59.6828388863917" lon="9.541516672891966" id="-13348">
		<tag k="name" v="Soldatergrava" />
		<tag k="place" v="locality" />
		<tag k="ssr:stedsnr" v="302048" />
	</node>
	<node lat="59.52475833721733" lon="9.959091659851694" id="-13402">
		<tag k="name" v="Furterud" />
		<tag k="place" v="locality" />
		<tag k="ssr:stedsnr" v="303674" />
	</node>
	<node lat="59.67933611129264" lon="9.597369442666853" id="-13464">
		<tag k="name" v="Gud fryde håpet gruve" />
		<tag k="place" v="locality" />
		<tag k="ssr:stedsnr" v="326929" />
	</node>
	<node lat="59.686819444418" lon="9.592741667408278" id="-13465">
		<tag k="name" v="Charlotte Lovisa gruve" />
=======
	<node id="-224770" lat="59.6843999976" lon="9.59418611114">
		<tag k="name" v="Gamle Quintus gruve" />
>>>>>>> e1d4bc35ff8a6074a6f2e91616a996b547c36f15
		<tag k="place" v="locality" />
		<tag k="ssr:stedsnr" v="326934" />
	</node>
<<<<<<< HEAD
	<node lat="59.62996944439739" lon="9.79175832608484" id="-13516">
		<tag k="name" v="Passebekk" />
		<tag k="place" v="locality" />
		<tag k="ssr:stedsnr" v="363528" />
	</node>
	<node lat="59.58241388726939" lon="9.701011111003048" id="-13694">
		<tag k="name" v="Limovnene" />
		<tag k="place" v="locality" />
		<tag k="ssr:stedsnr" v="424787" />
	</node>
	<node lat="59.616461112249915" lon="9.664616664323832" id="-13733">
		<tag k="name" v="Myre skjerp" />
		<tag k="place" v="locality" />
		<tag k="ssr:stedsnr" v="448255" />
	</node>
	<node lat="59.63968610765524" lon="9.665800005097307" id="-13734">
		<tag k="name" v="Gomsrud skjerp" />
		<tag k="place" v="locality" />
		<tag k="ssr:stedsnr" v="448534" />
	</node>
	<node lat="59.66727500295563" lon="9.607877783807401" id="-13751">
		<tag k="name" v="Herzog Ulrichs gruve" />
		<tag k="place" v="locality" />
		<tag k="ssr:stedsnr" v="508650" />
	</node>
	<node lat="59.70175556005123" lon="9.642747224414562" id="-13769">
		<tag k="name" v="Fredrik IVs gruve" />
		<tag k="place" v="locality" />
		<tag k="ssr:stedsnr" v="508976" />
	</node>
	<node lat="59.61188808425487" lon="9.656238199817274" id="-13842">
		<tag k="alt_name" v="Hedenstad" />
		<tag k="amenity" v="place_of_worship" />
		<tag k="denomination" v="lutheran" />
		<tag k="name" v="Hedenstad kirke" />
		<tag k="religion" v="christian" />
		<tag k="ssr:stedsnr" v="549473" />
	</node>
	<node lat="59.68613055697502" lon="9.622222218817013" id="-13859">
		<tag k="name" v="Dildok skjerp" />
		<tag k="place" v="locality" />
		<tag k="ssr:stedsnr" v="569886" />
	</node>
	<node lat="59.64006666839597" lon="9.656502783183518" id="-13867">
		<tag k="name" v="Kongsberg gravlund" />
		<tag k="place" v="locality" />
		<tag k="ssr:stedsnr" v="569993" />
	</node>
	<node lat="59.64097222635228" lon="9.625611109046682" id="-13869">
		<tag k="name" v="Ollebakskjerp" />
		<tag k="place" v="locality" />
		<tag k="ssr:stedsnr" v="569539" />
	</node>
	<node lat="59.63747777557466" lon="9.618333336374743" id="-13870">
		<tag k="name" v="Vaktmesterskjerp" />
		<tag k="place" v="locality" />
		<tag k="ssr:stedsnr" v="569541" />
	</node>
	<node lat="59.56207500258365" lon="9.830013894168497" id="-13910">
		<tag k="name" v="Dalaløkka" />
		<tag k="place" v="locality" />
		<tag k="ssr:stedsnr" v="605776" />
	</node>
	<node lat="59.55719722538631" lon="9.569505551170462" id="-13931">
		<tag k="name" v="Kobberskjerpa" />
		<tag k="place" v="locality" />
		<tag k="ssr:stedsnr" v="606296" />
	</node>
	<node lat="59.64513055910646" lon="9.618569447419105" id="-13976">
		<tag k="name" v="Mutter Eva gruve" />
		<tag k="place" v="locality" />
		<tag k="ssr:stedsnr" v="629526" />
	</node>
	<node lat="59.67032778002594" lon="9.605577774722368" id="-13978">
		<tag k="name" v="Gott allein die Ehre gruve" />
		<tag k="place" v="locality" />
		<tag k="ssr:stedsnr" v="629633" />
	</node>
	<node lat="59.68423889305873" lon="9.586783328486487" id="-13979">
		<tag k="name" v="Kunstbekk skjerp" />
		<tag k="place" v="locality" />
		<tag k="ssr:stedsnr" v="629930" />
	</node>
	<node lat="59.4531666699874" lon="9.744177772933554" id="-14009">
		<tag k="name" v="Viern" />
		<tag k="place" v="locality" />
		<tag k="ssr:stedsnr" v="666116" />
	</node>
	<node lat="59.51148055252951" lon="9.986208340829762" id="-14060">
		<tag k="name" v="Putten" />
		<tag k="place" v="locality" />
		<tag k="ssr:stedsnr" v="667619" />
	</node>
	<node lat="59.55046388779058" lon="9.809827774527783" id="-14161">
		<tag k="alt_name" v="Efteløt" />
		<tag k="amenity" v="place_of_worship" />
		<tag k="denomination" v="lutheran" />
		<tag k="name" v="Efteløt kirke" />
		<tag k="religion" v="christian" />
		<tag k="ssr:stedsnr" v="731369" />
	</node>
	<node lat="59.524752775507366" lon="9.920025006340879" id="-14191">
		<tag k="name" v="Bjørnestilla" />
		<tag k="place" v="locality" />
		<tag k="ssr:stedsnr" v="751768" />
	</node>
	<node lat="59.68523889310015" lon="9.6179888879903" id="-14198">
		<tag k="name" v="De 7 skjerp" />
		<tag k="place" v="locality" />
		<tag k="ssr:stedsnr" v="751927" />
	</node>
	<node lat="59.681977780848435" lon="9.596094438260693" id="-14200">
		<tag k="name" v="Sofie Magdalena gruve" />
		<tag k="place" v="locality" />
		<tag k="ssr:stedsnr" v="751937" />
	</node>
	<node lat="59.56048333649317" lon="9.827250001209999" id="-14245">
		<tag k="name" v="Andrilsløkka" />
		<tag k="place" v="locality" />
		<tag k="ssr:stedsnr" v="787773" />
	</node>
	<node lat="59.66800833347104" lon="9.60752499219116" id="-14302">
		<tag k="name" v="Conkordia gruve" />
		<tag k="place" v="locality" />
		<tag k="ssr:stedsnr" v="812639" />
	</node>
	<node lat="59.684883331260174" lon="9.59375000801659" id="-14308">
		<tag k="name" v="Prins Christian gruve" />
		<tag k="place" v="locality" />
		<tag k="ssr:stedsnr" v="812921" />
	</node>
	<node lat="59.527077777947476" lon="9.852613885848506" id="-14329">
		<tag k="name" v="Meskestad mølle" />
		<tag k="place" v="locality" />
		<tag k="ssr:stedsnr" v="813773" />
	</node>
	<node lat="59.482294442804815" lon="9.875299998790739" id="-14342">
		<tag k="name" v="Bekkelaget" />
		<tag k="place" v="locality" />
		<tag k="ssr:stedsnr" v="848151" />
	</node>
	<node lat="59.633305559288516" lon="9.599386108281923" id="-14428">
		<tag k="name" v="Grev Bernsdorf gruve" />
		<tag k="place" v="locality" />
		<tag k="ssr:stedsnr" v="873158" />
	</node>
	<node lat="59.63475555759622" lon="9.618186113547292" id="-14435">
		<tag k="name" v="Reichentrost skjerp" />
		<tag k="place" v="locality" />
		<tag k="ssr:stedsnr" v="873514" />
	</node>
	<node lat="59.66661111314003" lon="9.608102771518558" id="-14440">
		<tag k="name" v="Commisarien gruve" />
		<tag k="place" v="locality" />
		<tag k="ssr:stedsnr" v="873581" />
	</node>
	<node lat="59.62197221983988" lon="9.663849996572592" id="-14445">
		<tag k="alt_name" v="Labrolokalet" />
		<tag k="amenity" v="community_centre" />
		<tag k="name" v="Labro" />
		<tag k="ssr:stedsnr" v="873646" />
	</node>
	<node lat="59.68246389050132" lon="9.624488896958177" id="-14465">
		<tag k="name" v="Rewentlow skjerp" />
		<tag k="place" v="locality" />
		<tag k="ssr:stedsnr" v="873905" />
	</node>
	<node lat="59.680402774325124" lon="9.607661105577604" id="-14466">
		<tag k="name" v="Himmelfart gruve" />
		<tag k="place" v="locality" />
		<tag k="ssr:stedsnr" v="873908" />
	</node>
	<node lat="59.67751389215391" lon="9.599494436604283" id="-14467">
		<tag k="name" v="Juel gruve" />
		<tag k="place" v="locality" />
		<tag k="ssr:stedsnr" v="873913" />
	</node>
	<node lat="59.687433337719064" lon="9.5921888858869" id="-14472">
		<tag k="name" v="Lovisa Augusta gruve" />
		<tag k="place" v="locality" />
		<tag k="ssr:stedsnr" v="873958" />
	</node>
	<node lat="59.625563884707624" lon="9.786408325159694" id="-14521">
		<tag k="name" v="Sersjantrinen" />
		<tag k="place" v="locality" />
		<tag k="ssr:stedsnr" v="970122" />
	</node>
=======
>>>>>>> e1d4bc35ff8a6074a6f2e91616a996b547c36f15
</osm>
