<?xml version="1.0" encoding="UTF-8"?>
<osm generator="osmapis" version="0.6">
	<node id="-23633" lat="59.5959444411" lon="9.62524999914">
		<tag k="fixme" v="specify shooting=range, clay_pigeon etc" />
		<tag k="leisure" v="pitch" />
		<tag k="name" v="Heistadmoen skytebaner" />
		<tag k="sport" v="shooting" />
		<tag k="ssr:stedsnr" v="181193" />
	</node>
	<node id="-24972" lat="59.6859617568" lon="9.35671074299">
		<tag k="fixme" v="consider boundary=protected_area and relevant protect_class if not nature reserve" />
		<tag k="leisure" v="nature_reserve" />
		<tag k="name" v="Rupefjell og Selslinatten naturreservat" />
		<tag k="ssr:stedsnr" v="1077520" />
	</node>
	<node id="-24969" lat="59.479039738" lon="9.47562001218">
		<tag k="fixme" v="consider boundary=protected_area and relevant protect_class if not nature reserve" />
		<tag k="leisure" v="nature_reserve" />
		<tag k="name" v="Skrim og Sauheradfjella naturreservat" />
		<tag k="ssr:stedsnr" v="971505" />
	</node>
	<node id="-24968" lat="59.6219662725" lon="9.41049019003">
		<tag k="fixme" v="consider boundary=protected_area and relevant protect_class if not nature reserve" />
		<tag k="leisure" v="nature_reserve" />
		<tag k="name" v="Fjellstulfjellet naturreservat" />
		<tag k="ssr:stedsnr" v="982702" />
	</node>
	<node id="-24967" lat="59.596616389" lon="9.54031586858">
		<tag k="fixme" v="consider boundary=protected_area and relevant protect_class if not nature reserve" />
		<tag k="leisure" v="nature_reserve" />
		<tag k="name" v="Kolknuten naturreservat" />
		<tag k="ssr:stedsnr" v="1074742" />
	</node>
	<node id="-24966" lat="59.6300477841" lon="9.57309259343">
		<tag k="fixme" v="consider boundary=protected_area and relevant protect_class if not nature reserve" />
		<tag k="leisure" v="nature_reserve" />
		<tag k="name" v="Kjerkebergåsen naturreservat" />
		<tag k="ssr:stedsnr" v="1074741" />
	</node>
	<node id="-24965" lat="59.7119908272" lon="9.53313709024">
		<tag k="fixme" v="consider boundary=protected_area and relevant protect_class if not nature reserve" />
		<tag k="leisure" v="nature_reserve" />
		<tag k="name" v="Jondalsåsen naturreservat" />
		<tag k="ssr:stedsnr" v="1074740" />
	</node>
</osm>
