<?xml version="1.0" encoding="UTF-8"?>
<osm generator="osmapis" version="0.6">
	<node id="-212992" lat="59.7144944427" lon="9.6566611083">
		<tag k="historic" v="shieling" />
		<tag k="name" v="Brennsetra" />
		<tag k="place" v="locality" />
		<tag k="ssr:stedsnr" v="185594" />
	</node>
	<node id="-212991" lat="59.691494447" lon="9.60657777039">
		<tag k="name" v="Kjennerud" />
		<tag k="place" v="farm" />
		<tag k="ssr:stedsnr" v="185557" />
	</node>
	<node id="-212990" lat="59.6897138883" lon="9.60548056046">
		<tag k="name" v="Roa" />
		<tag k="place" v="farm" />
		<tag k="ssr:stedsnr" v="185556" />
	</node>
	<node id="-212989" lat="59.4641722236" lon="9.91306666984">
		<tag k="historic" v="shieling" />
		<tag k="name" v="Grettesetra" />
		<tag k="place" v="locality" />
		<tag k="ssr:stedsnr" v="185544" />
	</node>
	<node id="-212988" lat="59.6535138917" lon="9.75066944301">
		<tag k="name" v="Søndre Hassel" />
		<tag k="place" v="farm" />
		<tag k="ssr:stedsnr" v="185506" />
	</node>
	<node id="-210939" lat="59.7032722184" lon="9.55805277331">
		<tag k="name" v="Øvre Brumyr" />
		<tag k="place" v="farm" />
		<tag k="ssr:stedsnr" v="241871" />
	</node>
	<node id="-212986" lat="59.6171388874" lon="9.63619722552">
		<tag k="name" v="Tajet" />
		<tag k="place" v="farm" />
		<tag k="ssr:stedsnr" v="185473" />
	</node>
	<node id="-212985" lat="59.610362891" lon="9.65921905373">
		<tag k="alt_name" v="Hedenstad" />
		<tag k="fixme" v="consider place=hamlet" />
		<tag k="name" v="Heistad" />
		<tag k="place" v="farm" />
		<tag k="ssr:stedsnr" v="185456" />
	</node>
	<node id="-212984" lat="59.7462749961" lon="9.4047222297">
		<tag k="name" v="Lisetra" />
		<tag k="place" v="isolated_dwelling" />
		<tag k="ssr:stedsnr" v="185449" />
	</node>
	<node id="-210934" lat="59.5191044457" lon="9.8154711319">
		<tag k="fixme" v="consider place=hamlet" />
		<tag k="name" v="Omholt" />
		<tag k="place" v="farm" />
		<tag k="ssr:stedsnr" v="64324" />
	</node>
	<node id="-212981" lat="59.5294944464" lon="9.85362778039">
		<tag k="alt_name" v="Øvre Nårlien" />
		<tag k="name" v="Øvre Nårlia" />
		<tag k="place" v="farm" />
		<tag k="ssr:stedsnr" v="185398" />
	</node>
	<node id="-210932" lat="59.5072249989" lon="9.81375555815">
		<tag k="name" v="Ådalen" />
		<tag k="place" v="farm" />
		<tag k="ssr:stedsnr" v="64317" />
	</node>
	<node id="-210931" lat="59.5230638927" lon="9.96120000049">
		<tag k="alt_name" v="Reinesetra" />
		<tag k="historic" v="shieling" />
		<tag k="name" v="Reineseter" />
		<tag k="place" v="locality" />
		<tag k="ssr:stedsnr" v="64314" />
	</node>
	<node id="-212978" lat="59.5612305533" lon="9.62929167054">
		<tag k="name" v="Kvernåsen" />
		<tag k="place" v="farm" />
		<tag k="ssr:stedsnr" v="185372" />
	</node>
	<node id="-213452" lat="59.4315499968" lon="9.6578499916">
		<tag k="alt_name" v="Arkosstua" />
		<tag k="name" v="Arkoset" />
		<tag k="place" v="isolated_dwelling" />
		<tag k="ssr:stedsnr" v="427527" />
	</node>
	<node id="-212975" lat="59.4815027736" lon="9.79536111231">
		<tag k="name" v="Nordseter" />
		<tag k="place" v="farm" />
		<tag k="ssr:stedsnr" v="184583" />
	</node>
	<node id="-213179" lat="59.6665333302" lon="9.65583333037">
		<tag k="name" v="Glitre" />
		<tag k="place" v="farm" />
		<tag k="ssr:stedsnr" v="326549" />
	</node>
	<node id="-212967" lat="59.5632138918" lon="9.92130556271">
		<tag k="historic" v="shieling" />
		<tag k="name" v="Fisiko" />
		<tag k="place" v="locality" />
		<tag k="ssr:stedsnr" v="181801" />
	</node>
	<node id="-212966" lat="59.6116611068" lon="9.77307500498">
		<tag k="name" v="Dalen" />
		<tag k="place" v="locality" />
		<tag k="ssr:stedsnr" v="181909" />
	</node>
	<node id="-212965" lat="59.6208416711" lon="9.70076667247">
		<tag k="name" v="Hotvet" />
		<tag k="place" v="farm" />
		<tag k="ssr:stedsnr" v="181907" />
	</node>
	<node id="-212963" lat="59.5915944403" lon="9.74321388687">
		<tag k="name" v="Hvålahaugen" />
		<tag k="old_name" v="Wålahaugen" />
		<tag k="place" v="farm" />
		<tag k="ssr:stedsnr" v="181811" />
	</node>
	<node id="-212960" lat="59.6476972226" lon="9.73260277947">
		<tag k="name" v="Furukoll" />
		<tag k="place" v="isolated_dwelling" />
		<tag k="ssr:stedsnr" v="181692" />
	</node>
	<node id="-210911" lat="59.556625001" lon="9.85475833384">
		<tag k="name" v="Dørsjøstua" />
		<tag k="place" v="locality" />
		<tag k="ssr:stedsnr" v="60846" />
	</node>
	<node id="-210938" lat="59.5087466304" lon="9.83710655089">
		<tag k="fixme" v="consider place=hamlet" />
		<tag k="name" v="Rud" />
		<tag k="place" v="farm" />
		<tag k="ssr:stedsnr" v="64344" />
	</node>
	<node id="-212954" lat="59.5367027749" lon="9.71988332495">
		<tag k="historic" v="shieling" />
		<tag k="name" v="Matesonseter" />
		<tag k="place" v="locality" />
		<tag k="ssr:stedsnr" v="181656" />
	</node>
	<node id="-212952" lat="59.5081388886" lon="9.76042221412">
		<tag k="name" v="Fossumstua" />
		<tag k="place" v="locality" />
		<tag k="ssr:stedsnr" v="181597" />
	</node>
	<node id="-210937" lat="59.513932197" lon="9.8650510914">
		<tag k="fixme" v="consider place=hamlet" />
		<tag k="name" v="Gran" />
		<tag k="place" v="farm" />
		<tag k="ssr:stedsnr" v="64343" />
	</node>
	<node id="-210936" lat="59.5019777806" lon="9.8127472198">
		<tag k="name" v="Haugen" />
		<tag k="place" v="farm" />
		<tag k="ssr:stedsnr" v="64342" />
	</node>
	<node id="-210890" lat="59.4726055595" lon="10.034327786">
		<tag k="name" v="Gullihagen" />
		<tag k="place" v="farm" />
		<tag k="ssr:stedsnr" v="23237" />
	</node>
	<node id="-210889" lat="59.4782444488" lon="10.0102249958">
		<tag k="name" v="Nordre Foss" />
		<tag k="place" v="farm" />
		<tag k="ssr:stedsnr" v="23228" />
	</node>
	<node id="-210888" lat="59.6289000012" lon="9.68561111228">
		<tag k="name" v="Bråten" />
		<tag k="place" v="farm" />
		<tag k="ssr:stedsnr" v="306506" />
	</node>
	<node id="-210885" lat="59.5082499984" lon="9.59237500239">
		<tag k="historic" v="shieling" />
		<tag k="name" v="Skrimsetra" />
		<tag k="place" v="locality" />
		<tag k="ssr:stedsnr" v="3677" />
	</node>
	<node id="-210881" lat="59.5239527756" lon="9.57773055673">
		<tag k="historic" v="shieling" />
		<tag k="name" v="Grønlisetra" />
		<tag k="place" v="locality" />
		<tag k="ssr:stedsnr" v="3721" />
	</node>
	<node id="-214004" lat="59.5032277803" lon="9.84667500289">
		<tag k="name" v="Røsholt" />
		<tag k="place" v="farm" />
		<tag k="ssr:stedsnr" v="812822" />
	</node>
	<node id="-212917" lat="59.6276499976" lon="9.5559638834">
		<tag k="name" v="Kobbervollane" />
		<tag k="place" v="farm" />
		<tag k="ssr:stedsnr" v="181079" />
	</node>
	<node id="-212911" lat="59.7354694443" lon="9.44921945112">
		<tag k="name" v="Storli" />
		<tag k="place" v="locality" />
		<tag k="ssr:stedsnr" v="181142" />
	</node>
	<node id="-214002" lat="59.5043333365" lon="9.83716111373">
		<tag k="name" v="Steinbekk" />
		<tag k="place" v="farm" />
		<tag k="ssr:stedsnr" v="812810" />
	</node>
	<node id="-212901" lat="59.5048409362" lon="9.86758236858">
		<tag k="fixme" v="consider place=hamlet" />
		<tag k="name" v="Ånnestad" />
		<tag k="place" v="farm" />
		<tag k="ssr:stedsnr" v="163496" />
	</node>
	<node id="-212900" lat="59.5939361112" lon="9.4794944447">
		<tag k="fixme" v="consider tourism=alpine_hut or tourism=chalet" />
		<tag k="name" v="Løkemyrodden" />
		<tag k="ssr:stedsnr" v="161148" />
		<tag k="tourism" v="wilderness_hut" />
	</node>
	<node id="-212899" lat="59.5206346413" lon="9.64351115406">
		<tag k="fixme" v="consider tourism=alpine_hut or tourism=chalet" />
		<tag k="name" v="Styggemannshytta" />
		<tag k="ssr:stedsnr" v="157350" />
		<tag k="tourism" v="wilderness_hut" />
	</node>
	<node id="-212898" lat="59.589066666" lon="9.87748333381">
		<tag k="name" v="Buvannstua" />
		<tag k="place" v="isolated_dwelling" />
		<tag k="ssr:stedsnr" v="149520" />
	</node>
	<node id="-212892" lat="59.7069333307" lon="9.60736667332">
		<tag k="alt_name" v="Stengelsrud nedre" />
		<tag k="name" v="Nedre Stengelsrud" />
		<tag k="place" v="farm" />
		<tag k="ssr:stedsnr" v="144993" />
	</node>
	<node id="-213014" lat="59.5936387756" lon="9.72807614333">
		<tag k="fixme" v="consider place=hamlet" />
		<tag k="name" v="Lindtvet" />
		<tag k="place" v="farm" />
		<tag k="ssr:stedsnr" v="186518" />
	</node>
	<node id="-212889" lat="59.6920833353" lon="9.60537499505">
		<tag k="name" v="Bakken" />
		<tag k="place" v="farm" />
		<tag k="ssr:stedsnr" v="144952" />
	</node>
	<node id="-212878" lat="59.5761250011" lon="9.78066110876">
		<tag k="name" v="Harangen" />
		<tag k="place" v="farm" />
		<tag k="ssr:stedsnr" v="144890" />
	</node>
	<node id="-212876" lat="59.6254666697" lon="9.70433611046">
		<tag k="name" v="Torebråten" />
		<tag k="place" v="farm" />
		<tag k="ssr:stedsnr" v="144845" />
	</node>
	<node id="-212875" lat="59.5486194405" lon="9.82221110555">
		<tag k="name" v="Dokka" />
		<tag k="place" v="farm" />
		<tag k="ssr:stedsnr" v="144829" />
	</node>
	<node id="-212874" lat="59.5402416672" lon="9.82084722933">
		<tag k="name" v="Sommerstad" />
		<tag k="place" v="farm" />
		<tag k="ssr:stedsnr" v="144828" />
	</node>
	<node id="-212873" lat="59.4970666663" lon="9.90986944931">
		<tag k="name" v="Fredly" />
		<tag k="place" v="farm" />
		<tag k="ssr:stedsnr" v="144820" />
	</node>
	<node id="-212869" lat="59.5052166682" lon="9.85322499682">
		<tag k="name" v="Nygård" />
		<tag k="place" v="farm" />
		<tag k="ssr:stedsnr" v="144808" />
	</node>
	<node id="-212865" lat="59.4640138926" lon="10.0159722272">
		<tag k="name" v="Fossnesmoen" />
		<tag k="place" v="farm" />
		<tag k="ssr:stedsnr" v="144745" />
	</node>
	<node id="-212864" lat="59.5018138884" lon="9.95921389745">
		<tag k="name" v="Sagstua" />
		<tag k="place" v="isolated_dwelling" />
		<tag k="ssr:stedsnr" v="144742" />
	</node>
	<node id="-212862" lat="59.6640638896" lon="9.62793611894">
		<tag k="name" v="Kronene" />
		<tag k="place" v="farm" />
		<tag k="ssr:stedsnr" v="144645" />
	</node>
	<node id="-212858" lat="59.6591444456" lon="9.68733334049">
		<tag k="name" v="Kvisla" />
		<tag k="place" v="farm" />
		<tag k="ssr:stedsnr" v="144631" />
	</node>
	<node id="-213175" lat="59.6184861126" lon="9.62881944582">
		<tag k="name" v="Moen" />
		<tag k="place" v="farm" />
		<tag k="ssr:stedsnr" v="326229" />
	</node>
	<node id="-212847" lat="59.4744222199" lon="10.010486118">
		<tag k="name" v="Søndre Foss" />
		<tag k="place" v="farm" />
		<tag k="ssr:stedsnr" v="144214" />
	</node>
	<node id="-212846" lat="59.4773388856" lon="10.0186611178">
		<tag k="name" v="Storeng" />
		<tag k="place" v="farm" />
		<tag k="ssr:stedsnr" v="144210" />
	</node>
	<node id="-212845" lat="59.7095805517" lon="9.63002499119">
		<tag k="name" v="Beverplassen" />
		<tag k="place" v="farm" />
		<tag k="ssr:stedsnr" v="141900" />
	</node>
	<node id="-212843" lat="59.6055749972" lon="9.78930556223">
		<tag k="name" v="Haugen" />
		<tag k="place" v="farm" />
		<tag k="ssr:stedsnr" v="125482" />
	</node>
	<node id="-212842" lat="59.5967805562" lon="9.75624167107">
		<tag k="name" v="Vollen" />
		<tag k="place" v="farm" />
		<tag k="ssr:stedsnr" v="125477" />
	</node>
	<node id="-212841" lat="59.6009138886" lon="9.7446944406">
		<tag k="name" v="Hostvethaugen" />
		<tag k="place" v="farm" />
		<tag k="ssr:stedsnr" v="125467" />
	</node>
	<node id="-212840" lat="59.5614743616" lon="9.78045608326">
		<tag k="fixme" v="consider place=hamlet" />
		<tag k="name" v="Li" />
		<tag k="place" v="farm" />
		<tag k="ssr:stedsnr" v="125406" />
	</node>
	<node id="-212837" lat="59.7081166666" lon="9.51476944657">
		<tag k="name" v="Bjørnholt" />
		<tag k="place" v="farm" />
		<tag k="ssr:stedsnr" v="124979" />
	</node>
	<node id="-212836" lat="59.7150222233" lon="9.57712500657">
		<tag k="name" v="Engedalen" />
		<tag k="place" v="farm" />
		<tag k="ssr:stedsnr" v="124976" />
	</node>
	<node id="-213307" lat="59.5907553193" lon="9.75951526173">
		<tag k="fixme" v="consider place=hamlet" />
		<tag k="name" v="Ås" />
		<tag k="place" v="farm" />
		<tag k="ssr:stedsnr" v="367394" />
	</node>
	<node id="-212832" lat="59.6961027813" lon="9.52846110559">
		<tag k="name" v="Mobråten" />
		<tag k="place" v="farm" />
		<tag k="ssr:stedsnr" v="124942" />
	</node>
	<node id="-211716" lat="59.5422416701" lon="9.60290833637">
		<tag k="name" v="Lindåseie" />
		<tag k="place" v="isolated_dwelling" />
		<tag k="ssr:stedsnr" v="484306" />
	</node>
	<node id="-213305" lat="59.7263820383" lon="9.40060568287">
		<tag k="alt_name" v="Rydningen" />
		<tag k="name" v="Rudningen" />
		<tag k="place" v="farm" />
		<tag k="ssr:stedsnr" v="367380" />
	</node>
	<node id="-212820" lat="59.4706500005" lon="9.86808054809">
		<tag k="historic" v="shieling" />
		<tag k="name" v="Midtre Hvålssetra" />
		<tag k="place" v="locality" />
		<tag k="ssr:stedsnr" v="124548" />
	</node>
	<node id="-212819" lat="59.4719166624" lon="9.78450278206">
		<tag k="historic" v="shieling" />
		<tag k="name" v="Prestsetra" />
		<tag k="place" v="locality" />
		<tag k="ssr:stedsnr" v="124543" />
	</node>
	<node id="-210915" lat="59.4689999999" lon="9.87592500042">
		<tag k="fixme" v="multiple name tags, choose one and add the other to alt_name" />
		<tag k="historic" v="shieling" />
		<tag k="name" v="Busmo;Busmosetra" />
		<tag k="place" v="locality" />
		<tag k="ssr:stedsnr" v="63609" />
	</node>
	<node id="-212816" lat="59.6641833352" lon="9.70007221411">
		<tag k="name" v="Diseplass" />
		<tag k="place" v="farm" />
		<tag k="ssr:stedsnr" v="124509" />
	</node>
	<node id="-212815" lat="59.6430749989" lon="9.63504444643">
		<tag k="name" v="Rud" />
		<tag k="place" v="farm" />
		<tag k="ssr:stedsnr" v="124492" />
	</node>
	<node id="-212814" lat="59.6258994332" lon="9.67854028477">
		<tag k="fixme" v="consider place=hamlet" />
		<tag k="name" v="Rud" />
		<tag k="place" v="farm" />
		<tag k="ssr:stedsnr" v="124480" />
	</node>
	<node id="-212813" lat="59.6191833297" lon="9.62086389698">
		<tag k="alt_name" v="Moratplass" />
		<tag k="name" v="Moraplassen" />
		<tag k="place" v="farm" />
		<tag k="ssr:stedsnr" v="124461" />
	</node>
	<node id="-212812" lat="59.6174249959" lon="9.63089166833">
		<tag k="name" v="Jonsrud" />
		<tag k="place" v="farm" />
		<tag k="ssr:stedsnr" v="124456" />
	</node>
	<node id="-212811" lat="59.614255556" lon="9.6645250052">
		<tag k="name" v="Myre" />
		<tag k="old_name" v="Myhre" />
		<tag k="place" v="farm" />
		<tag k="ssr:stedsnr" v="124438" />
	</node>
	<node id="-212809" lat="59.7173023631" lon="9.43848700235">
		<tag k="alt_name" v="Rynjusdalen" />
		<tag k="fixme" v="consider place=hamlet" />
		<tag k="name" v="Rydningsdalen" />
		<tag k="place" v="farm" />
		<tag k="ssr:stedsnr" v="124401" />
	</node>
	<node id="-212806" lat="59.7341891183" lon="9.38970920815">
		<tag k="fixme" v="consider place=hamlet" />
		<tag k="name" v="Lia" />
		<tag k="place" v="farm" />
		<tag k="ssr:stedsnr" v="124383" />
	</node>
	<node id="-212802" lat="59.4801277806" lon="9.78065833197">
		<tag k="name" v="Solås" />
		<tag k="place" v="isolated_dwelling" />
		<tag k="ssr:stedsnr" v="123662" />
	</node>
	<node id="-212797" lat="59.4756501668" lon="10.0355188939">
		<tag k="fixme" v="consider place=hamlet" />
		<tag k="name" v="Glenne" />
		<tag k="place" v="farm" />
		<tag k="ssr:stedsnr" v="123024" />
	</node>
	<node id="-212796" lat="59.4759250039" lon="10.0274805535">
		<tag k="name" v="Bråten" />
		<tag k="place" v="farm" />
		<tag k="ssr:stedsnr" v="123022" />
	</node>
	<node id="-212795" lat="59.4835833313" lon="10.0014222161">
		<tag k="name" v="Nordre Eid" />
		<tag k="place" v="farm" />
		<tag k="ssr:stedsnr" v="123015" />
	</node>
	<node id="-213173" lat="59.5707361128" lon="9.65441666036">
		<tag k="name" v="Damtjernhaugen" />
		<tag k="place" v="isolated_dwelling" />
		<tag k="ssr:stedsnr" v="326386" />
	</node>
	<node id="-213299" lat="59.5047194412" lon="9.65184443562">
		<tag k="historic" v="shieling" />
		<tag k="name" v="Sørmyrsetra" />
		<tag k="place" v="locality" />
		<tag k="ssr:stedsnr" v="367282" />
	</node>
	<node id="-212783" lat="59.5940583303" lon="9.78687500496">
		<tag k="name" v="Gunnes" />
		<tag k="place" v="farm" />
		<tag k="ssr:stedsnr" v="120944" />
	</node>
	<node id="-212782" lat="59.5921888862" lon="9.76315277654">
		<tag k="name" v="Åsli" />
		<tag k="place" v="farm" />
		<tag k="ssr:stedsnr" v="120942" />
	</node>
	<node id="-212781" lat="59.6042611145" lon="9.7564277754">
		<tag k="alt_name" v="Hostvedt" />
		<tag k="name" v="Øvre Hostvet" />
		<tag k="place" v="farm" />
		<tag k="ssr:stedsnr" v="120927" />
	</node>
	<node id="-212778" lat="59.625513892" lon="9.71696111097">
		<tag k="alt_name" v="Wærp" />
		<tag k="name" v="Nordre Verp" />
		<tag k="place" v="farm" />
		<tag k="ssr:stedsnr" v="120894" />
	</node>
	<node id="-212776" lat="59.6291361069" lon="9.71884166906">
		<tag k="name" v="Nyhus" />
		<tag k="place" v="farm" />
		<tag k="ssr:stedsnr" v="120890" />
	</node>
	<node id="-212773" lat="59.5897722197" lon="9.75091111879">
		<tag k="name" v="Jutehaugen" />
		<tag k="place" v="farm" />
		<tag k="ssr:stedsnr" v="120793" />
	</node>
	<node id="-213637" lat="59.5724194429" lon="9.66693611066">
		<tag k="name" v="Trengen" />
		<tag k="place" v="farm" />
		<tag k="ssr:stedsnr" v="569710" />
	</node>
	<node id="-212763" lat="59.5069027736" lon="9.72355832864">
		<tag k="historic" v="shieling" />
		<tag k="name" v="Svarttjernstua" />
		<tag k="place" v="locality" />
		<tag k="ssr:stedsnr" v="120603" />
	</node>
	<node id="-212750" lat="59.4678805589" lon="9.67880278196">
		<tag k="name" v="Kittulsbekkstua" />
		<tag k="place" v="isolated_dwelling" />
		<tag k="ssr:stedsnr" v="120512" />
	</node>
	<node id="-212749" lat="59.4881083314" lon="9.93806389309">
		<tag k="name" v="Føske" />
		<tag k="place" v="farm" />
		<tag k="ssr:stedsnr" v="120431" />
	</node>
	<node id="-212738" lat="59.4801611138" lon="9.79723610816">
		<tag k="name" v="Sydsæter" />
		<tag k="place" v="farm" />
		<tag k="ssr:stedsnr" v="120201" />
	</node>
	<node id="-212730" lat="59.6246166624" lon="9.63109999143">
		<tag k="name" v="Dokka" />
		<tag k="place" v="isolated_dwelling" />
		<tag k="ssr:stedsnr" v="120114" />
	</node>
	<node id="-213122" lat="59.4303472246" lon="9.69856945193">
		<tag k="name" v="Gåserud" />
		<tag k="place" v="farm" />
		<tag k="ssr:stedsnr" v="305565" />
	</node>
	<node id="-212726" lat="59.7027361092" lon="9.56324999742">
		<tag k="name" v="Lofthusmyra" />
		<tag k="place" v="farm" />
		<tag k="ssr:stedsnr" v="120085" />
	</node>
	<node id="-212724" lat="59.7024444448" lon="9.44547221717">
		<tag k="historic" v="shieling" />
		<tag k="name" v="Lofthusseter" />
		<tag k="place" v="locality" />
		<tag k="ssr:stedsnr" v="120075" />
	</node>
	<node id="-212723" lat="59.7025583378" lon="9.5172972185">
		<tag k="name" v="Nedre Orlien" />
		<tag k="place" v="farm" />
		<tag k="ssr:stedsnr" v="120070" />
	</node>
	<node id="-213288" lat="59.482950001" lon="9.61227777253">
		<tag k="historic" v="shieling" />
		<tag k="name" v="Omliseter" />
		<tag k="place" v="locality" />
		<tag k="ssr:stedsnr" v="366593" />
	</node>
	<node id="-212716" lat="59.7034666666" lon="9.55674167271">
		<tag k="name" v="Vestre Brumyr" />
		<tag k="place" v="farm" />
		<tag k="ssr:stedsnr" v="120033" />
	</node>
	<node id="-213970" lat="59.48326389" lon="9.98735278645">
		<tag k="name" v="Åsen" />
		<tag k="place" v="farm" />
		<tag k="ssr:stedsnr" v="812226" />
	</node>
	<node id="-211203" lat="59.7400000026" lon="9.42593889258">
		<tag k="name" v="Steinåsen" />
		<tag k="place" v="neighbourhood" />
		<tag k="ssr:stedsnr" v="242153" />
	</node>
	<node id="-210895" lat="59.5043416651" lon="9.8567055587">
		<tag k="name" v="Nordre Ånnestad" />
		<tag k="place" v="farm" />
		<tag k="ssr:stedsnr" v="23847" />
	</node>
	<node id="-212695" lat="59.5943166644" lon="9.71741388692">
		<tag k="name" v="Mørk" />
		<tag k="place" v="farm" />
		<tag k="ssr:stedsnr" v="84877" />
	</node>
	<node id="-212694" lat="59.6307027734" lon="9.73539721698">
		<tag k="name" v="Huldraheimen" />
		<tag k="place" v="isolated_dwelling" />
		<tag k="ssr:stedsnr" v="84867" />
	</node>
	<node id="-212693" lat="59.6220888877" lon="9.7257972171">
		<tag k="name" v="Åsen" />
		<tag k="place" v="farm" />
		<tag k="ssr:stedsnr" v="84866" />
	</node>
	<node id="-214172" lat="59.7141249994" lon="9.61451667426">
		<tag k="name" v="Gåsevollen" />
		<tag k="place" v="farm" />
		<tag k="ssr:stedsnr" v="873933" />
	</node>
	<node id="-212691" lat="59.7055805572" lon="9.63245000412">
		<tag k="alt_name" v="Østby nedre" />
		<tag k="name" v="Nedre Østby" />
		<tag k="place" v="farm" />
		<tag k="ssr:stedsnr" v="84998" />
	</node>
	<node id="-212690" lat="59.7143666674" lon="9.60206111694">
		<tag k="name" v="Eikedokk" />
		<tag k="place" v="farm" />
		<tag k="ssr:stedsnr" v="84994" />
	</node>
	<node id="-213965" lat="59.7010527784" lon="9.51402221455">
		<tag k="alt_name" v="Kaldal" />
		<tag k="name" v="Kalddal" />
		<tag k="place" v="farm" />
		<tag k="ssr:stedsnr" v="792941" />
	</node>
	<node id="-212683" lat="59.6192305549" lon="9.69684722252">
		<tag k="alt_name" v="Hotvedt" />
		<tag k="name" v="Hotvet" />
		<tag k="place" v="farm" />
		<tag k="ssr:stedsnr" v="84693" />
	</node>
	<node id="-212682" lat="59.5264916644" lon="9.82975000871">
		<tag k="name" v="Vettestadplassen" />
		<tag k="place" v="farm" />
		<tag k="ssr:stedsnr" v="84797" />
	</node>
	<node id="-212679" lat="59.4871444475" lon="9.96994167102">
		<tag k="name" v="Bråten" />
		<tag k="place" v="farm" />
		<tag k="ssr:stedsnr" v="84768" />
	</node>
	<node id="-212674" lat="59.658516669" lon="9.60420278493">
		<tag k="landuse" v="winter_sports" />
		<tag k="name" v="Eksperten" />
		<tag k="piste:type" v="downhill" />
		<tag k="ssr:stedsnr" v="84643" />
	</node>
	<node id="-212669" lat="59.5754444416" lon="9.66625833566">
		<tag k="name" v="Finneplassene" />
		<tag k="place" v="isolated_dwelling" />
		<tag k="ssr:stedsnr" v="84357" />
	</node>
	<node id="-212667" lat="59.6184194481" lon="9.63023055581">
		<tag k="name" v="Rud" />
		<tag k="old_name" v="Ruud" />
		<tag k="place" v="farm" />
		<tag k="ssr:stedsnr" v="84237" />
	</node>
	<node id="-212664" lat="59.5622189273" lon="9.81141847091">
		<tag k="name" v="Moen" />
		<tag k="place" v="farm" />
		<tag k="ssr:stedsnr" v="65370" />
	</node>
	<node id="-212663" lat="59.7612833327" lon="9.37424999603">
		<tag k="historic" v="shieling" />
		<tag k="name" v="Listebusetra" />
		<tag k="place" v="locality" />
		<tag k="ssr:stedsnr" v="64999" />
	</node>
	<node id="-212662" lat="59.7111749974" lon="9.57529999137">
		<tag k="name" v="Liane" />
		<tag k="place" v="farm" />
		<tag k="ssr:stedsnr" v="64991" />
	</node>
	<node id="-212660" lat="59.7022085134" lon="9.53617402035">
		<tag k="alt_name" v="Thorsdalen" />
		<tag k="name" v="Torsdalen" />
		<tag k="place" v="farm" />
		<tag k="ssr:stedsnr" v="64963" />
	</node>
	<node id="-212656" lat="59.6191249957" lon="9.56628055012">
		<tag k="alt_name" v="Glomstul" />
		<tag k="name" v="Glomstulen" />
		<tag k="place" v="locality" />
		<tag k="ssr:stedsnr" v="64883" />
	</node>
	<node id="-212654" lat="59.6030499994" lon="9.58383611433">
		<tag k="historic" v="shieling" />
		<tag k="name" v="Sleiken" />
		<tag k="place" v="locality" />
		<tag k="ssr:stedsnr" v="64858" />
	</node>
	<node id="-212653" lat="59.6446333325" lon="9.73045555114">
		<tag k="alt_name" v="Brenneåsen" />
		<tag k="name" v="Brennåsen" />
		<tag k="place" v="farm" />
		<tag k="ssr:stedsnr" v="64555" />
	</node>
	<node id="-212652" lat="59.649183336" lon="9.72484166029">
		<tag k="name" v="Popperud" />
		<tag k="place" v="farm" />
		<tag k="ssr:stedsnr" v="64552" />
	</node>
	<node id="-212650" lat="59.638772222" lon="9.72454999639">
		<tag k="name" v="Brenneflata" />
		<tag k="place" v="farm" />
		<tag k="ssr:stedsnr" v="64547" />
	</node>
	<node id="-212649" lat="59.63758056" lon="9.65961666786">
		<tag k="name" v="Skriverplassen" />
		<tag k="place" v="farm" />
		<tag k="ssr:stedsnr" v="64545" />
	</node>
	<node id="-212647" lat="59.6370222201" lon="9.7770777748">
		<tag k="alt_name" v="Sotsetra" />
		<tag k="historic" v="shieling" />
		<tag k="name" v="Sotseter" />
		<tag k="place" v="locality" />
		<tag k="ssr:stedsnr" v="64532" />
	</node>
	<node id="-212646" lat="59.5806749985" lon="9.61731388156">
		<tag k="name" v="Dokka" />
		<tag k="place" v="farm" />
		<tag k="ssr:stedsnr" v="64462" />
	</node>
	<node id="-212645" lat="59.5940415218" lon="9.72273093799">
		<tag k="fixme" v="consider place=hamlet" />
		<tag k="name" v="Mørk" />
		<tag k="place" v="farm" />
		<tag k="ssr:stedsnr" v="64454" />
	</node>
	<node id="-212644" lat="59.5942638856" lon="9.6738333371">
		<tag k="name" v="Granbakken" />
		<tag k="place" v="farm" />
		<tag k="ssr:stedsnr" v="64450" />
	</node>
	<node id="-212643" lat="59.5926888879" lon="9.68627500628">
		<tag k="alt_name" v="Rogstadåsen" />
		<tag k="name" v="Rokstadåsen" />
		<tag k="place" v="farm" />
		<tag k="ssr:stedsnr" v="64448" />
	</node>
	<node id="-212642" lat="59.6390861131" lon="9.53769166318">
		<tag k="name" v="Korbu" />
		<tag k="place" v="farm" />
		<tag k="ssr:stedsnr" v="63894" />
	</node>
	<node id="-212641" lat="59.6282222257" lon="9.47352500079">
		<tag k="alt_name" v="Nedre Moen;Øvre Moen" />
		<tag k="name" v="Moen" />
		<tag k="place" v="farm" />
		<tag k="ssr:stedsnr" v="63849" />
	</node>
	<node id="-212639" lat="59.4873388886" lon="9.64562778269">
		<tag k="name" v="Sørmyr" />
		<tag k="place" v="farm" />
		<tag k="ssr:stedsnr" v="63591" />
	</node>
	<node id="-212637" lat="59.4825499961" lon="9.85961111554">
		<tag k="historic" v="shieling" />
		<tag k="name" v="Nordre Hvålssetra" />
		<tag k="place" v="locality" />
		<tag k="ssr:stedsnr" v="63582" />
	</node>
	<node id="-212636" lat="59.6518972267" lon="9.67243888363">
		<tag k="name" v="Stalsbergplassen" />
		<tag k="place" v="farm" />
		<tag k="ssr:stedsnr" v="63580" />
	</node>
	<node id="-212635" lat="59.4977715686" lon="9.95197988972">
		<tag k="name" v="Reine" />
		<tag k="place" v="farm" />
		<tag k="ssr:stedsnr" v="63576" />
	</node>
	<node id="-212633" lat="59.7197749977" lon="9.4508249929">
		<tag k="name" v="Aspelund" />
		<tag k="place" v="farm" />
		<tag k="ssr:stedsnr" v="63488" />
	</node>
	<node id="-212631" lat="59.50488844" lon="9.91166559063">
		<tag k="fixme" v="consider place=hamlet" />
		<tag k="name" v="Komnes" />
		<tag k="place" v="farm" />
		<tag k="ssr:stedsnr" v="63372" />
	</node>
	<node id="-212630" lat="59.4858388906" lon="10.0342277734">
		<tag k="name" v="Larønningen" />
		<tag k="place" v="farm" />
		<tag k="ssr:stedsnr" v="63013" />
	</node>
	<node id="-212627" lat="59.6087111149" lon="9.71196111328">
		<tag k="name" v="Hagen" />
		<tag k="place" v="farm" />
		<tag k="ssr:stedsnr" v="60956" />
	</node>
	<node id="-212625" lat="59.5925750026" lon="9.731527777">
		<tag k="name" v="Lindtvet" />
		<tag k="place" v="farm" />
		<tag k="ssr:stedsnr" v="60950" />
	</node>
	<node id="-212623" lat="59.6178722247" lon="9.77217222719">
		<tag k="name" v="Hvamsalhagen" />
		<tag k="place" v="farm" />
		<tag k="ssr:stedsnr" v="60938" />
	</node>
	<node id="-212617" lat="59.5107805574" lon="9.97434999739">
		<tag k="name" v="Gamlestul" />
		<tag k="place" v="locality" />
		<tag k="ssr:stedsnr" v="60674" />
	</node>
	<node id="-213099" lat="59.6160638884" lon="9.75594721378">
		<tag k="name" v="Hagen" />
		<tag k="place" v="farm" />
		<tag k="ssr:stedsnr" v="302933" />
	</node>
	<node id="-212611" lat="59.4935277738" lon="10.0202444524">
		<tag k="name" v="Øvre Tuft" />
		<tag k="place" v="farm" />
		<tag k="ssr:stedsnr" v="60587" />
	</node>
	<node id="-213950" lat="59.5450972209" lon="9.91182500449">
		<tag k="historic" v="shieling" />
		<tag k="name" v="Borgeseter" />
		<tag k="place" v="locality" />
		<tag k="ssr:stedsnr" v="792397" />
	</node>
	<node id="-212584" lat="59.6317611078" lon="9.59945834153">
		<tag k="name" v="Grosvold" />
		<tag k="place" v="isolated_dwelling" />
		<tag k="ssr:stedsnr" v="60136" />
	</node>
	<node id="-212581" lat="59.7025833292" lon="9.53108611671">
		<tag k="name" v="Moen" />
		<tag k="place" v="farm" />
		<tag k="ssr:stedsnr" v="60084" />
	</node>
	<node id="-213389" lat="59.4839388913" lon="10.0280611144">
		<tag k="name" v="Vesetrud" />
		<tag k="place" v="farm" />
		<tag k="ssr:stedsnr" v="424265" />
	</node>
	<node id="-212995" lat="59.5262454585" lon="9.55530396884">
		<tag k="historic" v="shieling" />
		<tag k="name" v="Gunnbøhaugen" />
		<tag k="place" v="locality" />
		<tag k="ssr:stedsnr" v="185704" />
	</node>
	<node id="-212565" lat="59.6490194453" lon="9.74490834111">
		<tag k="name" v="Teigen" />
		<tag k="place" v="farm" />
		<tag k="ssr:stedsnr" v="59661" />
	</node>
	<node id="-213260" lat="59.6443972209" lon="9.74796389144">
		<tag k="name" v="Liveløkka" />
		<tag k="place" v="locality" />
		<tag k="ssr:stedsnr" v="363633" />
	</node>
	<node id="-213601" lat="59.6565555526" lon="9.55230000109">
		<tag k="historic" v="shieling" />
		<tag k="name" v="Henschensetra" />
		<tag k="place" v="locality" />
		<tag k="ssr:stedsnr" v="549864" />
	</node>
	<node id="-213028" lat="59.6763027814" lon="9.68021110253">
		<tag k="name" v="Myra" />
		<tag k="place" v="farm" />
		<tag k="ssr:stedsnr" v="205590" />
	</node>
	<node id="-212531" lat="59.5107472241" lon="9.88804444895">
		<tag k="name" v="Fagerheim" />
		<tag k="place" v="farm" />
		<tag k="ssr:stedsnr" v="24795" />
	</node>
	<node id="-212527" lat="59.5464472202" lon="9.91070834175">
		<tag k="historic" v="shieling" />
		<tag k="name" v="Meskestadseter" />
		<tag k="place" v="locality" />
		<tag k="ssr:stedsnr" v="24779" />
	</node>
	<node id="-212526" lat="59.60634167" lon="9.64766666875">
		<tag k="alt_name" v="Mørk søndre" />
		<tag k="name" v="Søndre Mørk" />
		<tag k="place" v="farm" />
		<tag k="ssr:stedsnr" v="24657" />
	</node>
	<node id="-212518" lat="59.6316361084" lon="9.74904167017">
		<tag k="name" v="Nystul" />
		<tag k="place" v="isolated_dwelling" />
		<tag k="ssr:stedsnr" v="23886" />
	</node>
	<node id="-212516" lat="59.6243527734" lon="9.71409444649">
		<tag k="alt_name" v="Wærp" />
		<tag k="name" v="Søndre Verp" />
		<tag k="place" v="farm" />
		<tag k="ssr:stedsnr" v="23878" />
	</node>
	<node id="-212515" lat="59.6237944488" lon="9.69779999608">
		<tag k="name" v="Venelia" />
		<tag k="place" v="farm" />
		<tag k="ssr:stedsnr" v="23873" />
	</node>
	<node id="-212511" lat="59.4874138871" lon="9.97306665996">
		<tag k="name" v="Søndre Skinnes" />
		<tag k="place" v="farm" />
		<tag k="ssr:stedsnr" v="23784" />
	</node>
	<node id="-212507" lat="59.694522223" lon="9.63709166426">
		<tag k="alt_name" v="Spiten Søndre" />
		<tag k="name" v="Søndre Spiten" />
		<tag k="place" v="farm" />
		<tag k="ssr:stedsnr" v="23939" />
	</node>
	<node id="-212504" lat="59.6045055566" lon="9.66607222199">
		<tag k="amenity" v="school" />
		<tag k="name" v="Berg skole" />
		<tag k="ssr:stedsnr" v="23688" />
	</node>
	<node id="-212503" lat="59.5962611072" lon="9.69653333422">
		<tag k="name" v="Oreholtet" />
		<tag k="place" v="farm" />
		<tag k="ssr:stedsnr" v="23683" />
	</node>
	<node id="-213593" lat="59.6886527786" lon="9.64352778033">
		<tag k="name" v="Lia" />
		<tag k="place" v="farm" />
		<tag k="ssr:stedsnr" v="549593" />
	</node>
	<node id="-212498" lat="59.5573638919" lon="9.64036667457">
		<tag k="name" v="Dusum" />
		<tag k="place" v="farm" />
		<tag k="ssr:stedsnr" v="23751" />
	</node>
	<node id="-212497" lat="59.6739916624" lon="9.69162500268">
		<tag k="name" v="Knuteplass" />
		<tag k="place" v="farm" />
		<tag k="ssr:stedsnr" v="23589" />
	</node>
	<node id="-212496" lat="59.635783329" lon="9.63925556309">
		<tag k="name" v="Steinsholt" />
		<tag k="place" v="farm" />
		<tag k="ssr:stedsnr" v="23585" />
	</node>
	<node id="-212493" lat="59.6363888871" lon="9.58764444615">
		<tag k="alt_name" v="Medalen nordre" />
		<tag k="name" v="Nordre Medalen" />
		<tag k="place" v="farm" />
		<tag k="ssr:stedsnr" v="23577" />
	</node>
	<node id="-212487" lat="59.4973250034" lon="9.96950277128">
		<tag k="name" v="Pytte" />
		<tag k="place" v="farm" />
		<tag k="ssr:stedsnr" v="9659" />
	</node>
	<node id="-212484" lat="59.5751833318" lon="9.67143611567">
		<tag k="name" v="Trengen" />
		<tag k="place" v="farm" />
		<tag k="ssr:stedsnr" v="4487" />
	</node>
	<node id="-213590" lat="59.6634222243" lon="9.62265833561">
		<tag k="leisure" v="pitch" />
		<tag k="name" v="Persløkka" />
		<tag k="ssr:stedsnr" v="549546" />
	</node>
	<node id="-212480" lat="59.5677611093" lon="9.82118055328">
		<tag k="name" v="Skogplassen" />
		<tag k="place" v="isolated_dwelling" />
		<tag k="ssr:stedsnr" v="4374" />
	</node>
	<node id="-212479" lat="59.5609750037" lon="9.63682777404">
		<tag k="name" v="Sagvollen" />
		<tag k="place" v="farm" />
		<tag k="ssr:stedsnr" v="4361" />
	</node>
	<node id="-212477" lat="59.7178531977" lon="9.57206989629">
		<tag k="fixme" v="consider place=hamlet" />
		<tag k="name" v="Gravningen" />
		<tag k="place" v="farm" />
		<tag k="ssr:stedsnr" v="3984" />
	</node>
	<node id="-212476" lat="59.7189249984" lon="9.58320277133">
		<tag k="name" v="Stordalen" />
		<tag k="place" v="farm" />
		<tag k="ssr:stedsnr" v="3983" />
	</node>
	<node id="-212475" lat="59.6973694486" lon="9.51240277967">
		<tag k="name" v="Helliksbråten" />
		<tag k="place" v="farm" />
		<tag k="ssr:stedsnr" v="3946" />
	</node>
	<node id="-212471" lat="59.6771305568" lon="9.47879721652">
		<tag k="historic" v="shieling" />
		<tag k="name" v="Søndre Lisetra" />
		<tag k="place" v="locality" />
		<tag k="ssr:stedsnr" v="3914" />
	</node>
	<node id="-213284" lat="59.4325305571" lon="9.69510554974">
		<tag k="name" v="Løkka" />
		<tag k="place" v="locality" />
		<tag k="ssr:stedsnr" v="366532" />
	</node>
	<node id="-213584" lat="59.7384262342" lon="9.37357753416">
		<tag k="alt_name" v="Søndre Buen;Nordre Buen" />
		<tag k="fixme" v="consider place=hamlet" />
		<tag k="name" v="Buene" />
		<tag k="place" v="farm" />
		<tag k="ssr:stedsnr" v="549463" />
	</node>
	<node id="-212464" lat="59.7035666651" lon="9.62953055935">
		<tag k="name" v="Bevergrenda" />
		<tag k="place" v="hamlet" />
		<tag k="ssr:stedsnr" v="3611" />
	</node>
	<node id="-212463" lat="59.6966694474" lon="9.63990554696">
		<tag k="name" v="Spiten" />
		<tag k="place" v="farm" />
		<tag k="ssr:stedsnr" v="3589" />
	</node>
	<node id="-212462" lat="59.6940499958" lon="9.66384999249">
		<tag k="alt_name" v="Fauleplassen" />
		<tag k="name" v="Fugleplassen" />
		<tag k="place" v="isolated_dwelling" />
		<tag k="ssr:stedsnr" v="3569" />
	</node>
	<node id="-212461" lat="59.6366416636" lon="9.65891388055">
		<tag k="name" v="Bingeplassen" />
		<tag k="place" v="farm" />
		<tag k="ssr:stedsnr" v="3505" />
	</node>
	<node id="-212460" lat="59.6358333378" lon="9.7825500056">
		<tag k="alt_name" v="Rolighøla" />
		<tag k="name" v="Rolighølet" />
		<tag k="place" v="isolated_dwelling" />
		<tag k="ssr:stedsnr" v="3488" />
	</node>
	<node id="-212458" lat="59.6227750024" lon="9.60198888822">
		<tag k="name" v="Olsrud" />
		<tag k="place" v="farm" />
		<tag k="ssr:stedsnr" v="3464" />
	</node>
	<node id="-212457" lat="59.6192388891" lon="9.64819721527">
		<tag k="name" v="Blårud" />
		<tag k="place" v="farm" />
		<tag k="ssr:stedsnr" v="3462" />
	</node>
	<node id="-212456" lat="59.6141277791" lon="9.71496388463">
		<tag k="name" v="Helgeløkka" />
		<tag k="place" v="locality" />
		<tag k="ssr:stedsnr" v="3454" />
	</node>
	<node id="-212455" lat="59.615533332" lon="9.63331944803">
		<tag k="name" v="Bråten" />
		<tag k="place" v="farm" />
		<tag k="ssr:stedsnr" v="3452" />
	</node>
	<node id="-212453" lat="59.7172888864" lon="9.38261389346">
		<tag k="name" v="Vollan" />
		<tag k="place" v="farm" />
		<tag k="ssr:stedsnr" v="3417" />
	</node>
	<node id="-212450" lat="59.599491835" lon="9.79169827451">
		<tag k="fixme" v="consider place=hamlet" />
		<tag k="name" v="Haugnes" />
		<tag k="place" v="farm" />
		<tag k="ssr:stedsnr" v="3409" />
	</node>
	<node id="-212449" lat="59.6060888846" lon="9.84945554941">
		<tag k="fixme" v="multiple name tags, choose one and add the other to alt_name" />
		<tag k="historic" v="shieling" />
		<tag k="name" v="Nord-Bjertnes setra;Trasetra" />
		<tag k="place" v="locality" />
		<tag k="ssr:stedsnr" v="3406" />
	</node>
	<node id="-212448" lat="59.6044333366" lon="9.71191943961">
		<tag k="name" v="Landehagen" />
		<tag k="place" v="farm" />
		<tag k="ssr:stedsnr" v="3404" />
	</node>
	<node id="-212447" lat="59.6043970474" lon="9.67499051606">
		<tag k="fixme" v="consider place=hamlet" />
		<tag k="name" v="Berg" />
		<tag k="place" v="farm" />
		<tag k="ssr:stedsnr" v="3400" />
	</node>
	<node id="-212446" lat="59.729922225" lon="9.44687222988">
		<tag k="alt_name" v="Nordre Kasa;Søndre Kasa" />
		<tag k="name" v="Kasa" />
		<tag k="place" v="farm" />
		<tag k="ssr:stedsnr" v="3398" />
	</node>
	<node id="-212444" lat="59.6036250007" lon="9.64833055989">
		<tag k="name" v="Bråten" />
		<tag k="place" v="farm" />
		<tag k="ssr:stedsnr" v="3392" />
	</node>
	<node id="-212443" lat="59.5326594068" lon="9.83386008371">
		<tag k="fixme" v="consider place=hamlet" />
		<tag k="name" v="Vines" />
		<tag k="place" v="farm" />
		<tag k="ssr:stedsnr" v="3386" />
	</node>
	<node id="-212439" lat="59.5345570438" lon="9.82652623647">
		<tag k="fixme" v="consider place=hamlet" />
		<tag k="name" v="Vettestad" />
		<tag k="place" v="farm" />
		<tag k="ssr:stedsnr" v="3377" />
	</node>
	<node id="-212438" lat="59.5421583298" lon="9.66529444061">
		<tag k="historic" v="shieling" />
		<tag k="name" v="Evjusetra" />
		<tag k="place" v="locality" />
		<tag k="ssr:stedsnr" v="3364" />
	</node>
	<node id="-212436" lat="59.5579310809" lon="9.81445613423">
		<tag k="fixme" v="consider place=hamlet" />
		<tag k="name" v="Skullestad" />
		<tag k="place" v="farm" />
		<tag k="ssr:stedsnr" v="3356" />
	</node>
	<node id="-212435" lat="59.5610966433" lon="9.80763857145">
		<tag k="fixme" v="consider place=hamlet" />
		<tag k="name" v="Hov" />
		<tag k="place" v="farm" />
		<tag k="ssr:stedsnr" v="3354" />
	</node>
	<node id="-212431" lat="59.4723999973" lon="9.96440000161">
		<tag k="historic" v="shieling" />
		<tag k="name" v="Skinnessetra" />
		<tag k="place" v="locality" />
		<tag k="ssr:stedsnr" v="2632" />
	</node>
	<node id="-212430" lat="59.4611555542" lon="9.8644138916">
		<tag k="name" v="Saga" />
		<tag k="place" v="farm" />
		<tag k="ssr:stedsnr" v="2619" />
	</node>
	<node id="-213922" lat="59.5973555596" lon="9.78670555492">
		<tag k="name" v="Haugnes" />
		<tag k="place" v="farm" />
		<tag k="ssr:stedsnr" v="788906" />
	</node>
	<node id="-212426" lat="59.4915897108" lon="9.92503994477">
		<tag k="fixme" v="consider place=hamlet" />
		<tag k="name" v="Grette" />
		<tag k="place" v="farm" />
		<tag k="ssr:stedsnr" v="2581" />
	</node>
	<node id="-212425" lat="59.4966411424" lon="9.96665786749">
		<tag k="fixme" v="consider place=hamlet" />
		<tag k="name" v="Pytte" />
		<tag k="place" v="farm" />
		<tag k="ssr:stedsnr" v="2577" />
	</node>
	<node id="-212424" lat="59.4452777788" lon="9.64914166689">
		<tag k="alt_name" v="Krokvasstua" />
		<tag k="name" v="Krokvannstua" />
		<tag k="place" v="isolated_dwelling" />
		<tag k="ssr:stedsnr" v="2544" />
	</node>
	<node id="-212422" lat="59.4645936978" lon="10.0066223359">
		<tag k="fixme" v="consider place=hamlet" />
		<tag k="name" v="Fossnes" />
		<tag k="place" v="farm" />
		<tag k="ssr:stedsnr" v="2105" />
	</node>
	<node id="-212421" lat="59.4901359568" lon="10.0249198251">
		<tag k="fixme" v="consider place=hamlet" />
		<tag k="name" v="Grøterud" />
		<tag k="place" v="farm" />
		<tag k="ssr:stedsnr" v="2058" />
	</node>
	<node id="-212420" lat="59.4963863992" lon="10.0113672255">
		<tag k="fixme" v="consider place=hamlet" />
		<tag k="name" v="Ås" />
		<tag k="place" v="farm" />
		<tag k="ssr:stedsnr" v="2053" />
	</node>
	<node id="-212419" lat="59.4852737327" lon="9.97945620094">
		<tag k="fixme" v="consider place=hamlet" />
		<tag k="name" v="Eid" />
		<tag k="place" v="farm" />
		<tag k="ssr:stedsnr" v="2019" />
	</node>
	<node id="-212418" lat="59.4833236975" lon="10.0288122706">
		<tag k="fixme" v="consider place=hamlet" />
		<tag k="name" v="Vesetrud" />
		<tag k="place" v="farm" />
		<tag k="ssr:stedsnr" v="2013" />
	</node>
	<node id="-212413" lat="59.6257044597" lon="9.68226537448">
		<tag k="name" v="Skrubbmoen" />
		<tag k="place" v="quarter" />
		<tag k="ssr:stedsnr" v="981787" />
	</node>
	<node id="-212412" lat="59.6007895339" lon="9.664905444">
		<tag k="name" v="Heistadmoen" />
		<tag k="place" v="quarter" />
		<tag k="ssr:stedsnr" v="981785" />
	</node>
	<node id="-212411" lat="59.4940627538" lon="9.7617342455">
		<tag k="name" v="Omholtfjell" />
		<tag k="place" v="neighbourhood" />
		<tag k="ssr:stedsnr" v="981784" />
	</node>
	<node id="-213919" lat="59.5524361081" lon="9.70700833052">
		<tag k="historic" v="shieling" />
		<tag k="name" v="Fekjansetra" />
		<tag k="old_name" v="Fekjanseter" />
		<tag k="place" v="locality" />
		<tag k="ssr:stedsnr" v="788894" />
	</node>
	<node id="-212408" lat="59.5069666705" lon="9.70209444495">
		<tag k="historic" v="shieling" />
		<tag k="name" v="Støleseter" />
		<tag k="place" v="locality" />
		<tag k="ssr:stedsnr" v="970170" />
	</node>
	<node id="-212407" lat="59.4537388855" lon="9.74136666575">
		<tag k="name" v="Vierstua" />
		<tag k="place" v="isolated_dwelling" />
		<tag k="ssr:stedsnr" v="970166" />
	</node>
	<node id="-212401" lat="59.595283329" lon="9.78056388284">
		<tag k="name" v="Næss" />
		<tag k="place" v="farm" />
		<tag k="ssr:stedsnr" v="969928" />
	</node>
	<node id="-213160" lat="59.7159140058" lon="9.44427828914">
		<tag k="fixme" v="consider place=hamlet" />
		<tag k="name" v="Lofthus" />
		<tag k="place" v="farm" />
		<tag k="ssr:stedsnr" v="306983" />
	</node>
	<node id="-213917" lat="59.5900444476" lon="9.74374443711">
		<tag k="name" v="Daleløkken" />
		<tag k="place" v="farm" />
		<tag k="ssr:stedsnr" v="788796" />
	</node>
	<node id="-212395" lat="59.4886388863" lon="9.96634722329">
		<tag k="alt_name" v="Skinnes mellom" />
		<tag k="name" v="Mellom-Skinnes" />
		<tag k="place" v="farm" />
		<tag k="ssr:stedsnr" v="969462" />
	</node>
	<node id="-213829" lat="59.4949916658" lon="9.98506111027">
		<tag k="name" v="Åsheim" />
		<tag k="place" v="farm" />
		<tag k="ssr:stedsnr" v="751797" />
	</node>
	<node id="-212388" lat="59.4988833289" lon="9.80795556408">
		<tag k="name" v="Veierud" />
		<tag k="place" v="farm" />
		<tag k="ssr:stedsnr" v="949527" />
	</node>
	<node id="-212384" lat="59.6463249964" lon="9.75485555852">
		<tag k="historic" v="shieling" />
		<tag k="name" v="Teigenseter" />
		<tag k="place" v="locality" />
		<tag k="ssr:stedsnr" v="934508" />
	</node>
	<node id="-212381" lat="59.6899138902" lon="9.66123055515">
		<tag k="name" v="Kleivaplassen" />
		<tag k="place" v="isolated_dwelling" />
		<tag k="ssr:stedsnr" v="933937" />
	</node>
	<node id="-213297" lat="59.5128027802" lon="9.81017499205">
		<tag k="name" v="Løkka" />
		<tag k="place" v="farm" />
		<tag k="ssr:stedsnr" v="367265" />
	</node>
	<node id="-213572" lat="59.5162805544" lon="9.82701111003">
		<tag k="name" v="Haugmo" />
		<tag k="place" v="farm" />
		<tag k="ssr:stedsnr" v="549333" />
	</node>
	<node id="-212370" lat="59.4950277797" lon="9.95647500029">
		<tag k="name" v="Moen" />
		<tag k="place" v="farm" />
		<tag k="ssr:stedsnr" v="913535" />
	</node>
	<node id="-212369" lat="59.6432970664" lon="9.73185677919">
		<tag k="fixme" v="consider place=hamlet" />
		<tag k="name" v="Brenne" />
		<tag k="place" v="farm" />
		<tag k="ssr:stedsnr" v="913531" />
	</node>
	<node id="-212368" lat="59.6518916635" lon="9.67054167093">
		<tag k="fixme" v="consider place=suburb, village or hamlet" />
		<tag k="name" v="Gamlegrendåsen" />
		<tag k="place" v="quarter" />
		<tag k="ssr:stedsnr" v="913530" />
	</node>
	<node id="-212366" lat="59.6221166666" lon="9.69554443874">
		<tag k="fixme" v="consider place=suburb, village or hamlet" />
		<tag k="name" v="Skollenborg" />
		<tag k="place" v="quarter" />
		<tag k="ssr:stedsnr" v="913505" />
	</node>
	<node id="-214253" lat="59.6595962366" lon="9.57946601647">
		<tag k="fixme" v="consider tourism=alpine_hut or tourism=chalet" />
		<tag k="name" v="Mildigkeit" />
		<tag k="ssr:stedsnr" v="1073708" />
		<tag k="tourism" v="wilderness_hut" />
	</node>
	<node id="-214252" lat="59.6803657051" lon="9.53202245268">
		<tag k="fixme" v="consider tourism=alpine_hut or tourism=chalet" />
		<tag k="name" v="Kongsdamhytta" />
		<tag k="ssr:stedsnr" v="1073706" />
		<tag k="tourism" v="wilderness_hut" />
	</node>
	<node id="-212356" lat="59.6875750026" lon="9.67338333103">
		<tag k="name" v="Rambergplassen" />
		<tag k="place" v="locality" />
		<tag k="ssr:stedsnr" v="873861" />
	</node>
	<node id="-212354" lat="59.6916749997" lon="9.60158333861">
		<tag k="name" v="Seterdalen" />
		<tag k="place" v="farm" />
		<tag k="ssr:stedsnr" v="873960" />
	</node>
	<node id="-212349" lat="59.4901277759" lon="9.96108611392">
		<tag k="name" v="Nordre Skinnes" />
		<tag k="place" v="farm" />
		<tag k="ssr:stedsnr" v="873719" />
	</node>
	<node id="-212347" lat="59.6106833345" lon="9.6452611101">
		<tag k="alt_name" v="Landsverk søndre" />
		<tag k="name" v="Søndre Landsverk" />
		<tag k="place" v="farm" />
		<tag k="ssr:stedsnr" v="873625" />
	</node>
	<node id="-212346" lat="59.6061305585" lon="9.65576389498">
		<tag k="alt_name" v="Brønstad nordre" />
		<tag k="name" v="Nordre Brønstad" />
		<tag k="place" v="farm" />
		<tag k="ssr:stedsnr" v="873623" />
	</node>
	<node id="-212345" lat="59.5961666643" lon="9.67864999591">
		<tag k="name" v="Strengehagen" />
		<tag k="place" v="farm" />
		<tag k="ssr:stedsnr" v="873620" />
	</node>
	<node id="-212343" lat="59.6590166634" lon="9.68480832457">
		<tag k="name" v="Brekke" />
		<tag k="place" v="farm" />
		<tag k="ssr:stedsnr" v="873577" />
	</node>
	<node id="-214249" lat="59.6459453778" lon="9.5523193553">
		<tag k="fixme" v="consider tourism=alpine_hut or tourism=chalet" />
		<tag k="name" v="Barlinddalshytta" />
		<tag k="ssr:stedsnr" v="1073695" />
		<tag k="tourism" v="wilderness_hut" />
	</node>
	<node id="-212337" lat="59.5865916699" lon="9.66041111916">
		<tag k="name" v="Hagan" />
		<tag k="place" v="farm" />
		<tag k="ssr:stedsnr" v="872764" />
	</node>
	<node id="-212336" lat="59.5581055583" lon="9.64251945033">
		<tag k="name" v="Abrahamplassen" />
		<tag k="place" v="farm" />
		<tag k="ssr:stedsnr" v="872762" />
	</node>
	<node id="-212332" lat="59.5733305582" lon="9.63771111253">
		<tag k="name" v="Muggerudkleiva" />
		<tag k="place" v="farm" />
		<tag k="ssr:stedsnr" v="854476" />
	</node>
	<node id="-212331" lat="59.5751638887" lon="9.61494999822">
		<tag k="name" v="Åsland" />
		<tag k="place" v="farm" />
		<tag k="ssr:stedsnr" v="854472" />
	</node>
	<node id="-214247" lat="59.6117873151" lon="9.45273183148">
		<tag k="fixme" v="consider place=hamlet" />
		<tag k="name" v="Meheia" />
		<tag k="place" v="farm" />
		<tag k="ssr:stedsnr" v="1072278" />
	</node>
	<node id="-212323" lat="59.6799444476" lon="9.67324444123">
		<tag k="name" v="Stretalia" />
		<tag k="place" v="farm" />
		<tag k="ssr:stedsnr" v="853569" />
	</node>
	<node id="-212322" lat="59.5931750045" lon="9.76609166369">
		<tag k="name" v="Tyskland" />
		<tag k="place" v="farm" />
		<tag k="ssr:stedsnr" v="853458" />
	</node>
	<node id="-212321" lat="59.5508416634" lon="9.84935556157">
		<tag k="historic" v="shieling" />
		<tag k="name" v="Sommerstadsetra" />
		<tag k="place" v="locality" />
		<tag k="ssr:stedsnr" v="853406" />
	</node>
	<node id="-212320" lat="59.5175079444" lon="9.86669388441">
		<tag k="fixme" v="consider place=hamlet" />
		<tag k="name" v="Borge" />
		<tag k="place" v="farm" />
		<tag k="ssr:stedsnr" v="853314" />
	</node>
	<node id="-212197" lat="59.7129527799" lon="9.57209722996">
		<tag k="name" v="Dalen" />
		<tag k="place" v="farm" />
		<tag k="ssr:stedsnr" v="913993" />
	</node>
	<node id="-212315" lat="59.7102388919" lon="9.40363055188">
		<tag k="alt_name" v="Søndre Løkja;Nordre Løkja" />
		<tag k="name" v="Løkja" />
		<tag k="place" v="farm" />
		<tag k="ssr:stedsnr" v="852976" />
	</node>
	<node id="-212314" lat="59.7195805515" lon="9.53402221755">
		<tag k="alt_name" v="Surtlia" />
		<tag k="name" v="Surtelia" />
		<tag k="place" v="isolated_dwelling" />
		<tag k="ssr:stedsnr" v="852971" />
	</node>
	<node id="-213561" lat="59.7164750042" lon="9.41355278108">
		<tag k="loc_name" v="Klundelia" />
		<tag k="name" v="Solheim" />
		<tag k="place" v="farm" />
		<tag k="ssr:stedsnr" v="548473" />
	</node>
	<node id="-212308" lat="59.4877286438" lon="9.94052016475">
		<tag k="fixme" v="consider place=hamlet" />
		<tag k="name" v="Føske" />
		<tag k="place" v="farm" />
		<tag k="ssr:stedsnr" v="852564" />
	</node>
	<node id="-212307" lat="59.4883027745" lon="9.81248889463">
		<tag k="historic" v="shieling" />
		<tag k="name" v="Hjarnessetra" />
		<tag k="place" v="locality" />
		<tag k="ssr:stedsnr" v="852562" />
	</node>
	<node id="-212306" lat="59.4863333335" lon="9.76713611235">
		<tag k="historic" v="shieling" />
		<tag k="name" v="Haugmosetra" />
		<tag k="place" v="locality" />
		<tag k="ssr:stedsnr" v="852556" />
	</node>
	<node id="-214243" lat="59.5288046305" lon="9.85097852639">
		<tag k="fixme" v="consider place=hamlet" />
		<tag k="name" v="Nårlia" />
		<tag k="place" v="farm" />
		<tag k="ssr:stedsnr" v="1072272" />
	</node>
	<node id="-213560" lat="59.5043888897" lon="9.82446111553">
		<tag k="name" v="Langrind" />
		<tag k="place" v="farm" />
		<tag k="ssr:stedsnr" v="548364" />
	</node>
	<node id="-212301" lat="59.48832337" lon="9.99642566073">
		<tag k="fixme" v="consider place=hamlet" />
		<tag k="name" v="Evju" />
		<tag k="place" v="farm" />
		<tag k="ssr:stedsnr" v="852072" />
	</node>
	<node id="-212300" lat="59.4881887776" lon="9.98691996658">
		<tag k="alt_name" v="Grønvoll" />
		<tag k="fixme" v="consider place=hamlet" />
		<tag k="name" v="Grønnvoll" />
		<tag k="place" v="farm" />
		<tag k="ssr:stedsnr" v="852071" />
	</node>
	<node id="-212299" lat="59.4867805595" lon="10.0142277817">
		<tag k="alt_name" v="Solbakken" />
		<tag k="name" v="Solheim" />
		<tag k="place" v="farm" />
		<tag k="ssr:stedsnr" v="852016" />
	</node>
	<node id="-212298" lat="59.6063389437" lon="9.72737346891">
		<tag k="fixme" v="consider place=hamlet" />
		<tag k="name" v="Moen" />
		<tag k="place" v="farm" />
		<tag k="ssr:stedsnr" v="849956" />
	</node>
	<node id="-213559" lat="59.4724115974" lon="10.0279638141">
		<tag k="fixme" v="consider place=hamlet" />
		<tag k="name" v="Gulli" />
		<tag k="place" v="farm" />
		<tag k="ssr:stedsnr" v="548024" />
	</node>
	<node id="-212294" lat="59.7031666697" lon="9.52351666446">
		<tag k="fixme" v="consider place=hamlet" />
		<tag k="name" v="Jondalen" />
		<tag k="old_name" v="Jondal" />
		<tag k="place" v="village" />
		<tag k="ssr:stedsnr" v="941976" />
	</node>
	<node id="-212193" lat="59.7034377698" lon="9.55760713963">
		<tag k="fixme" v="consider place=hamlet" />
		<tag k="name" v="Brumyr" />
		<tag k="place" v="farm" />
		<tag k="ssr:stedsnr" v="913948" />
	</node>
	<node id="-212290" lat="59.5128666647" lon="9.88326944713">
		<tag k="name" v="Uleberg" />
		<tag k="place" v="farm" />
		<tag k="ssr:stedsnr" v="934763" />
	</node>
	<node id="-212289" lat="59.6171249961" lon="9.65375833359">
		<tag k="name" v="Myra" />
		<tag k="old_name" v="Myhra" />
		<tag k="place" v="farm" />
		<tag k="ssr:stedsnr" v="934638" />
	</node>
	<node id="-212286" lat="59.7033833349" lon="9.6185972281">
		<tag k="name" v="Brynsplass" />
		<tag k="place" v="farm" />
		<tag k="ssr:stedsnr" v="933963" />
	</node>
	<node id="-212285" lat="59.488113893" lon="10.0270194369">
		<tag k="name" v="Grøterud" />
		<tag k="place" v="farm" />
		<tag k="ssr:stedsnr" v="933795" />
	</node>
	<node id="-212281" lat="59.5848583305" lon="9.65246944589">
		<tag k="name" v="Sandbakk" />
		<tag k="place" v="farm" />
		<tag k="ssr:stedsnr" v="933767" />
	</node>
	<node id="-212280" lat="59.5558972187" lon="9.62729444461">
		<tag k="name" v="Bråten" />
		<tag k="place" v="farm" />
		<tag k="ssr:stedsnr" v="933765" />
	</node>
	<node id="-212279" lat="59.5579694403" lon="9.63222500033">
		<tag k="name" v="Vadet" />
		<tag k="place" v="farm" />
		<tag k="ssr:stedsnr" v="933764" />
	</node>
	<node id="-212276" lat="59.6295694401" lon="9.71579721764">
		<tag k="name" v="Haugom" />
		<tag k="place" v="farm" />
		<tag k="ssr:stedsnr" v="933879" />
	</node>
	<node id="-212271" lat="59.6303388929" lon="9.68079166036">
		<tag k="name" v="Styrstua" />
		<tag k="place" v="locality" />
		<tag k="ssr:stedsnr" v="933727" />
	</node>
	<node id="-212268" lat="59.5820222248" lon="9.62798889582">
		<tag k="name" v="Dalsplass" />
		<tag k="place" v="farm" />
		<tag k="ssr:stedsnr" v="933402" />
	</node>
	<node id="-214236" lat="59.6140722244" lon="9.77523889372">
		<tag k="name" v="Nedre Dalen" />
		<tag k="place" v="farm" />
		<tag k="ssr:stedsnr" v="970666" />
	</node>
	<node id="-214235" lat="59.5882305561" lon="9.74250000583">
		<tag k="name" v="Rognerud" />
		<tag k="place" v="locality" />
		<tag k="ssr:stedsnr" v="970471" />
	</node>
	<node id="-212253" lat="59.7112138918" lon="9.61443611333">
		<tag k="name" v="Lindteigen" />
		<tag k="place" v="farm" />
		<tag k="ssr:stedsnr" v="792630" />
	</node>
	<node id="-212252" lat="59.6996583367" lon="9.61732223037">
		<tag k="name" v="Røråsplassen" />
		<tag k="place" v="farm" />
		<tag k="ssr:stedsnr" v="792615" />
	</node>
	<node id="-212251" lat="59.6775333314" lon="9.65386388141">
		<tag k="fixme" v="consider place=suburb, village or hamlet" />
		<tag k="name" v="Raumyr" />
		<tag k="place" v="quarter" />
		<tag k="ssr:stedsnr" v="792572" />
	</node>
	<node id="-212250" lat="59.6482866085" lon="9.74426704316">
		<tag k="fixme" v="consider place=hamlet" />
		<tag k="name" v="Teigen" />
		<tag k="place" v="farm" />
		<tag k="ssr:stedsnr" v="792535" />
	</node>
	<node id="-212249" lat="59.6357781824" lon="9.72355599639">
		<tag k="fixme" v="consider place=hamlet" />
		<tag k="name" v="Grosvoll" />
		<tag k="place" v="farm" />
		<tag k="ssr:stedsnr" v="792523" />
	</node>
	<node id="-212248" lat="59.6211579233" lon="9.70166493036">
		<tag k="name" v="Hotvet" />
		<tag k="place" v="hamlet" />
		<tag k="ssr:stedsnr" v="792508" />
	</node>
	<node id="-212246" lat="59.7240333309" lon="9.439836113">
		<tag k="name" v="Tovsrud" />
		<tag k="place" v="isolated_dwelling" />
		<tag k="ssr:stedsnr" v="791442" />
	</node>
	<node id="-212244" lat="59.4882856173" lon="9.96585617234">
		<tag k="fixme" v="consider place=hamlet" />
		<tag k="name" v="Skinnes" />
		<tag k="place" v="farm" />
		<tag k="ssr:stedsnr" v="791554" />
	</node>
	<node id="-212243" lat="59.4612277765" lon="9.58549722268">
		<tag k="name" v="Brekke" />
		<tag k="place" v="farm" />
		<tag k="ssr:stedsnr" v="791003" />
	</node>
	<node id="-212241" lat="59.5575083324" lon="9.81343055154">
		<tag k="name" v="Østre Skullestad" />
		<tag k="place" v="farm" />
		<tag k="ssr:stedsnr" v="788819" />
	</node>
	<node id="-213018" lat="59.6628555548" lon="9.61734999251">
		<tag k="landuse" v="winter_sports" />
		<tag k="name" v="Funkelia" />
		<tag k="piste:type" v="downhill" />
		<tag k="ssr:stedsnr" v="204962" />
	</node>
	<node id="-212226" lat="59.6276722188" lon="9.47754721861">
		<tag k="name" v="Haugen" />
		<tag k="place" v="farm" />
		<tag k="ssr:stedsnr" v="787581" />
	</node>
	<node id="-213836" lat="59.5944805542" lon="9.70059721741">
		<tag k="name" v="Lund" />
		<tag k="place" v="farm" />
		<tag k="ssr:stedsnr" v="751887" />
	</node>
	<node id="-212220" lat="59.5342777779" lon="9.62343611155">
		<tag k="historic" v="shieling" />
		<tag k="name" v="Honseter" />
		<tag k="place" v="locality" />
		<tag k="ssr:stedsnr" v="787364" />
	</node>
	<node id="-212217" lat="59.4831805561" lon="9.98176388248">
		<tag k="name" v="Krona" />
		<tag k="place" v="locality" />
		<tag k="ssr:stedsnr" v="787177" />
	</node>
	<node id="-212212" lat="59.5820249982" lon="9.75116111082">
		<tag k="name" v="Hovdebø" />
		<tag k="place" v="locality" />
		<tag k="ssr:stedsnr" v="914507" />
	</node>
	<node id="-212211" lat="59.5860999977" lon="9.73703055009">
		<tag k="name" v="Bratterud" />
		<tag k="place" v="farm" />
		<tag k="ssr:stedsnr" v="914505" />
	</node>
	<node id="-212209" lat="59.593048347" lon="9.78659290108">
		<tag k="fixme" v="consider place=hamlet" />
		<tag k="name" v="Gunnes" />
		<tag k="place" v="farm" />
		<tag k="ssr:stedsnr" v="914496" />
	</node>
	<node id="-212208" lat="59.5895416676" lon="9.76790556093">
		<tag k="name" v="Myra" />
		<tag k="place" v="farm" />
		<tag k="ssr:stedsnr" v="914491" />
	</node>
	<node id="-212207" lat="59.5916500036" lon="9.67093054815">
		<tag k="alt_name" v="Kleven" />
		<tag k="name" v="Kleiva" />
		<tag k="place" v="farm" />
		<tag k="ssr:stedsnr" v="914486" />
	</node>
	<node id="-212206" lat="59.5904055593" lon="9.66582500499">
		<tag k="name" v="Dokka" />
		<tag k="place" v="farm" />
		<tag k="ssr:stedsnr" v="914484" />
	</node>
	<node id="-212205" lat="59.6010499993" lon="9.65318888095">
		<tag k="name" v="Hegna" />
		<tag k="place" v="farm" />
		<tag k="ssr:stedsnr" v="914457" />
	</node>
	<node id="-212204" lat="59.6048238376" lon="9.68564292955">
		<tag k="alt_name" v="Rogstad" />
		<tag k="fixme" v="consider place=hamlet" />
		<tag k="name" v="Rokstad" />
		<tag k="place" v="farm" />
		<tag k="ssr:stedsnr" v="914452" />
	</node>
	<node id="-214251" lat="59.5706701431" lon="9.52941933593">
		<tag k="fixme" v="consider tourism=alpine_hut or tourism=chalet" />
		<tag k="name" v="Fossvannskoia" />
		<tag k="ssr:stedsnr" v="1073697" />
		<tag k="tourism" v="wilderness_hut" />
	</node>
	<node id="-214250" lat="59.596392774" lon="9.52276857463">
		<tag k="name" v="Kolknutbrakka" />
		<tag k="place" v="locality" />
		<tag k="ssr:stedsnr" v="1073696" />
	</node>
	<node id="-212201" lat="59.5710666632" lon="9.60579165921">
		<tag k="name" v="Åsenplassen" />
		<tag k="place" v="isolated_dwelling" />
		<tag k="ssr:stedsnr" v="914381" />
	</node>
	<node id="-214248" lat="59.6542477106" lon="9.75158224226">
		<tag k="fixme" v="consider place=hamlet" />
		<tag k="name" v="Hassel" />
		<tag k="place" v="farm" />
		<tag k="ssr:stedsnr" v="1072279" />
	</node>
	<node id="-212199" lat="59.6401111096" lon="9.72493055476">
		<tag k="name" v="Brenne" />
		<tag k="place" v="farm" />
		<tag k="ssr:stedsnr" v="914017" />
	</node>
	<node id="-212198" lat="59.7048499996" lon="9.42804722965">
		<tag k="name" v="Øya" />
		<tag k="place" v="farm" />
		<tag k="ssr:stedsnr" v="913996" />
	</node>
	<node id="-214245" lat="59.5837946041" lon="9.64907733854">
		<tag k="fixme" v="consider place=hamlet" />
		<tag k="name" v="Bakstvål" />
		<tag k="place" v="farm" />
		<tag k="ssr:stedsnr" v="1072274" />
	</node>
	<node id="-214244" lat="59.6005785344" lon="9.70288697204">
		<tag k="fixme" v="consider place=hamlet" />
		<tag k="name" v="Lauerud" />
		<tag k="place" v="farm" />
		<tag k="ssr:stedsnr" v="1072273" />
	</node>
	<node id="-212195" lat="59.720550001" lon="9.55010000348">
		<tag k="name" v="Tangane" />
		<tag k="place" v="locality" />
		<tag k="ssr:stedsnr" v="913979" />
	</node>
	<node id="-214242" lat="59.5942843883" lon="9.73809462449">
		<tag k="fixme" v="consider place=hamlet" />
		<tag k="name" v="Kjørstad" />
		<tag k="place" v="farm" />
		<tag k="ssr:stedsnr" v="1072271" />
	</node>
	<node id="-214241" lat="59.5479637139" lon="9.80922066336">
		<tag k="alt_name" v="Efteløt prestegård" />
		<tag k="fixme" v="consider place=hamlet" />
		<tag k="name" v="Sandsvær prestegård" />
		<tag k="place" v="farm" />
		<tag k="ssr:stedsnr" v="1072270" />
	</node>
	<node id="-212191" lat="59.6331027741" lon="9.58850556108">
		<tag k="name" v="Medalen" />
		<tag k="place" v="farm" />
		<tag k="ssr:stedsnr" v="913895" />
	</node>
	<node id="-214238" lat="59.6702089216" lon="9.65157312056">
		<tag k="building" v="commercial" />
		<tag k="name" v="Stortorvet Senter" />
		<tag k="ssr:stedsnr" v="985821" />
	</node>
	<node id="-212188" lat="59.6175749989" lon="9.45170277409">
		<tag k="alt_name" v="Nordre Finnemyr" />
		<tag k="name" v="Finnemyr" />
		<tag k="place" v="farm" />
		<tag k="ssr:stedsnr" v="913852" />
	</node>
	<node id="-212187" lat="59.6105277776" lon="9.45316666159">
		<tag k="alt_name" v="Øvre Jerngruben;Nedre Jerngruben" />
		<tag k="name" v="Jerngruva" />
		<tag k="place" v="farm" />
		<tag k="ssr:stedsnr" v="913851" />
	</node>
	<node id="-212186" lat="59.6329972256" lon="9.48778332988">
		<tag k="historic" v="shieling" />
		<tag k="name" v="Bakkestul" />
		<tag k="place" v="locality" />
		<tag k="ssr:stedsnr" v="913849" />
	</node>
	<node id="-214232" lat="59.5868472233" lon="9.75038611398">
		<tag k="name" v="Stenbekk" />
		<tag k="place" v="farm" />
		<tag k="ssr:stedsnr" v="970452" />
	</node>
	<node id="-212181" lat="59.7128090163" lon="9.62769537593">
		<tag k="fixme" v="multiple name tags, choose one and add the other to alt_name" />
		<tag k="name" v="Hugsted;Søndre Hugsted;Hugsted Søndre" />
		<tag k="place" v="farm" />
		<tag k="ssr:stedsnr" v="913622" />
	</node>
	<node id="-213132" lat="59.620438887" lon="9.62375555234">
		<tag k="name" v="Nyhus" />
		<tag k="place" v="farm" />
		<tag k="ssr:stedsnr" v="306486" />
	</node>
	<node id="-214226" lat="59.6409027782" lon="9.72576667541">
		<tag k="name" v="Solbakken" />
		<tag k="place" v="farm" />
		<tag k="ssr:stedsnr" v="970265" />
	</node>
	<node id="-212177" lat="59.497658336" lon="9.90441667277">
		<tag k="name" v="Solum" />
		<tag k="place" v="farm" />
		<tag k="ssr:stedsnr" v="913560" />
	</node>
	<node id="-212176" lat="59.6713527761" lon="9.70121667465">
		<tag k="name" v="Minde" />
		<tag k="place" v="farm" />
		<tag k="ssr:stedsnr" v="913556" />
	</node>
	<node id="-212171" lat="59.6314944413" lon="9.74859444634">
		<tag k="alt_name" v="Nystul" />
		<tag k="historic" v="shieling" />
		<tag k="name" v="Såttvetsetra" />
		<tag k="place" v="locality" />
		<tag k="ssr:stedsnr" v="913490" />
	</node>
	<node id="-212170" lat="59.6221280774" lon="9.71203341021">
		<tag k="fixme" v="consider place=hamlet" />
		<tag k="name" v="Tubbe-Hotvet" />
		<tag k="place" v="farm" />
		<tag k="ssr:stedsnr" v="913485" />
	</node>
	<node id="-212169" lat="59.737150004" lon="9.37837500177">
		<tag k="name" v="Litlebuene" />
		<tag k="place" v="farm" />
		<tag k="ssr:stedsnr" v="913465" />
	</node>
	<node id="-212168" lat="59.5284500044" lon="9.84858056095">
		<tag k="alt_name" v="Nedre Nårlien" />
		<tag k="name" v="Nedre Nårlia" />
		<tag k="place" v="farm" />
		<tag k="ssr:stedsnr" v="913421" />
	</node>
	<node id="-212167" lat="59.5234606945" lon="9.85382771082">
		<tag k="fixme" v="consider place=hamlet" />
		<tag k="name" v="Meskestad" />
		<tag k="place" v="farm" />
		<tag k="ssr:stedsnr" v="913411" />
	</node>
	<node id="-212166" lat="59.533483334" lon="9.62327499388">
		<tag k="historic" v="shieling" />
		<tag k="name" v="Hoensetra" />
		<tag k="place" v="locality" />
		<tag k="ssr:stedsnr" v="913408" />
	</node>
	<node id="-212165" lat="59.5403111112" lon="9.9495944477">
		<tag k="historic" v="shieling" />
		<tag k="name" v="Bakkeseter" />
		<tag k="place" v="locality" />
		<tag k="ssr:stedsnr" v="913406" />
	</node>
	<node id="-212163" lat="59.5374416626" lon="9.64442500683">
		<tag k="historic" v="shieling" />
		<tag k="name" v="Rønsetra" />
		<tag k="place" v="locality" />
		<tag k="ssr:stedsnr" v="913403" />
	</node>
	<node id="-212162" lat="59.5521166636" lon="9.68624167359">
		<tag k="historic" v="shieling" />
		<tag k="name" v="Nybusetra" />
		<tag k="place" v="locality" />
		<tag k="ssr:stedsnr" v="913398" />
	</node>
	<node id="-212161" lat="59.5475531334" lon="9.78095411912">
		<tag k="alt_name" v="Lindem" />
		<tag k="fixme" v="consider place=hamlet" />
		<tag k="name" v="Lindum" />
		<tag k="place" v="farm" />
		<tag k="ssr:stedsnr" v="913395" />
	</node>
	<node id="-212160" lat="59.5019327517" lon="9.89899713633">
		<tag k="fixme" v="consider place=hamlet" />
		<tag k="name" v="Boserud" />
		<tag k="place" v="farm" />
		<tag k="ssr:stedsnr" v="913344" />
	</node>
	<node id="-212156" lat="59.4965527768" lon="9.79450555225">
		<tag k="name" v="Siljan" />
		<tag k="place" v="farm" />
		<tag k="ssr:stedsnr" v="912617" />
	</node>
	<node id="-212152" lat="59.5391249983" lon="9.70520555835">
		<tag k="name" v="Damtjernstua" />
		<tag k="place" v="isolated_dwelling" />
		<tag k="ssr:stedsnr" v="910641" />
	</node>
	<node id="-212145" lat="59.540916671" lon="9.57188332764">
		<tag k="historic" v="shieling" />
		<tag k="name" v="Rajeseter" />
		<tag k="place" v="locality" />
		<tag k="ssr:stedsnr" v="910158" />
	</node>
	<node id="-212138" lat="59.5900138884" lon="9.79930277499">
		<tag k="name" v="Bjerknes" />
		<tag k="place" v="farm" />
		<tag k="ssr:stedsnr" v="909997" />
	</node>
	<node id="-212133" lat="59.612129576" lon="9.77564242448">
		<tag k="alt_name" v="Hvamb" />
		<tag k="name" v="Hvam" />
		<tag k="place" v="farm" />
		<tag k="ssr:stedsnr" v="909918" />
	</node>
	<node id="-214179" lat="59.7086000038" lon="9.59185277898">
		<tag k="alt_name" v="Auensplass nedre" />
		<tag k="name" v="Nedre Auensplass" />
		<tag k="place" v="farm" />
		<tag k="ssr:stedsnr" v="874000" />
	</node>
	<node id="-212126" lat="59.5524388907" lon="9.81704167302">
		<tag k="name" v="Solbakken" />
		<tag k="place" v="locality" />
		<tag k="ssr:stedsnr" v="909840" />
	</node>
	<node id="-212125" lat="59.5672416688" lon="9.80352222465">
		<tag k="name" v="Åker" />
		<tag k="place" v="farm" />
		<tag k="ssr:stedsnr" v="909827" />
	</node>
	<node id="-212124" lat="59.5688972188" lon="9.70968610598">
		<tag k="name" v="Kilden" />
		<tag k="place" v="locality" />
		<tag k="ssr:stedsnr" v="909803" />
	</node>
	<node id="-212123" lat="59.5814705537" lon="9.73726832152">
		<tag k="fixme" v="consider place=hamlet" />
		<tag k="name" v="Landegga" />
		<tag k="place" v="farm" />
		<tag k="ssr:stedsnr" v="909802" />
	</node>
	<node id="-214170" lat="59.6026805597" lon="9.75341388303">
		<tag k="alt_name" v="Hostvedt" />
		<tag k="name" v="Østre Hostvet" />
		<tag k="place" v="farm" />
		<tag k="ssr:stedsnr" v="873844" />
	</node>
	<node id="-214169" lat="59.6126638875" lon="9.7334555643">
		<tag k="name" v="Gravningen" />
		<tag k="place" v="farm" />
		<tag k="ssr:stedsnr" v="873842" />
	</node>
	<node id="-214168" lat="59.6193749994" lon="9.72057222263">
		<tag k="alt_name" v="Såtvedthagen" />
		<tag k="name" v="Såttvethagen" />
		<tag k="place" v="farm" />
		<tag k="ssr:stedsnr" v="873836" />
	</node>
	<node id="-214166" lat="59.5530888912" lon="9.77963055694">
		<tag k="name" v="Plassen" />
		<tag k="place" v="farm" />
		<tag k="ssr:stedsnr" v="873821" />
	</node>
	<node id="-212117" lat="59.6740750039" lon="9.69921389004">
		<tag k="name" v="Hole" />
		<tag k="place" v="locality" />
		<tag k="ssr:stedsnr" v="909741" />
	</node>
	<node id="-214164" lat="59.5769194452" lon="9.78635278289">
		<tag k="name" v="Jåløkka" />
		<tag k="place" v="farm" />
		<tag k="ssr:stedsnr" v="873879" />
	</node>
	<node id="-214163" lat="59.5842111095" lon="9.78605555259">
		<tag k="name" v="Evju" />
		<tag k="place" v="farm" />
		<tag k="ssr:stedsnr" v="873878" />
	</node>
	<node id="-212111" lat="59.5222805533" lon="9.70158333413">
		<tag k="name" v="Skogstue" />
		<tag k="place" v="locality" />
		<tag k="ssr:stedsnr" v="909591" />
	</node>
	<node id="-214157" lat="59.5102444467" lon="9.83395833297">
		<tag k="name" v="Beggerud" />
		<tag k="place" v="farm" />
		<tag k="ssr:stedsnr" v="873767" />
	</node>
	<node id="-213185" lat="59.4877888894" lon="9.98240277287">
		<tag k="name" v="Søndre Moen" />
		<tag k="place" v="farm" />
		<tag k="ssr:stedsnr" v="326773" />
	</node>
	<node id="-212097" lat="59.466938888" lon="9.78593056381">
		<tag k="name" v="Trytetjernstulen" />
		<tag k="place" v="locality" />
		<tag k="ssr:stedsnr" v="909226" />
	</node>
	<node id="-212096" lat="59.479958329" lon="9.74970833607">
		<tag k="loc_name" v="Omholtstua" />
		<tag k="name" v="Omholtvannstua" />
		<tag k="place" v="isolated_dwelling" />
		<tag k="ssr:stedsnr" v="909224" />
	</node>
	<node id="-214143" lat="59.6330055585" lon="9.5881388843">
		<tag k="alt_name" v="Medalen søndre" />
		<tag k="name" v="Søndre Medalen" />
		<tag k="place" v="farm" />
		<tag k="ssr:stedsnr" v="873237" />
	</node>
	<node id="-214137" lat="59.5652518617" lon="9.79909455246">
		<tag k="fixme" v="consider place=hamlet" />
		<tag k="name" v="Åker" />
		<tag k="place" v="farm" />
		<tag k="ssr:stedsnr" v="854374" />
	</node>
	<node id="-214135" lat="59.7130277742" lon="9.56152222308">
		<tag k="name" v="Baklia" />
		<tag k="place" v="farm" />
		<tag k="ssr:stedsnr" v="853985" />
	</node>
	<node id="-212085" lat="59.4129972247" lon="9.74724167454">
		<tag k="name" v="Rauberstua" />
		<tag k="place" v="isolated_dwelling" />
		<tag k="ssr:stedsnr" v="909105" />
	</node>
	<node id="-212083" lat="59.703844447" lon="9.56245278644">
		<tag k="name" v="Nedre Dokka" />
		<tag k="place" v="isolated_dwelling" />
		<tag k="ssr:stedsnr" v="909087" />
	</node>
	<node id="-214127" lat="59.6206999981" lon="9.45065000181">
		<tag k="alt_name" v="Høgset" />
		<tag k="name" v="Hogset" />
		<tag k="place" v="farm" />
		<tag k="ssr:stedsnr" v="853848" />
	</node>
	<node id="-214123" lat="59.6572668305" lon="9.74523441795">
		<tag k="fixme" v="consider place=hamlet" />
		<tag k="name" v="Kjennerud" />
		<tag k="place" v="farm" />
		<tag k="ssr:stedsnr" v="853543" />
	</node>
	<node id="-214122" lat="59.6267638923" lon="9.65116945113">
		<tag k="name" v="Stranda" />
		<tag k="place" v="farm" />
		<tag k="ssr:stedsnr" v="853513" />
	</node>
	<node id="-214121" lat="59.6159250028" lon="9.82329444706">
		<tag k="alt_name" v="Nesseter" />
		<tag k="historic" v="shieling" />
		<tag k="name" v="Nessetra" />
		<tag k="place" v="locality" />
		<tag k="ssr:stedsnr" v="853488" />
	</node>
	<node id="-214120" lat="59.609427781" lon="9.74411666908">
		<tag k="name" v="Hostvethagen" />
		<tag k="place" v="farm" />
		<tag k="ssr:stedsnr" v="853483" />
	</node>
	<node id="-214119" lat="59.5898016808" lon="9.68793989685">
		<tag k="alt_name" v="Lureplass" />
		<tag k="name" v="Lureplassen" />
		<tag k="place" v="farm" />
		<tag k="ssr:stedsnr" v="853452" />
	</node>
	<node id="-212067" lat="59.5823749958" lon="9.73615833942">
		<tag k="alt_name" v="Haugen" />
		<tag k="name" v="Skarrebekk" />
		<tag k="place" v="farm" />
		<tag k="ssr:stedsnr" v="732512" />
	</node>
	<node id="-212065" lat="59.7194694466" lon="9.36368611766">
		<tag k="alt_name" v="Rua søndre" />
		<tag k="name" v="Søndre Rua" />
		<tag k="place" v="farm" />
		<tag k="ssr:stedsnr" v="731432" />
	</node>
	<node id="-212064" lat="59.7219499996" lon="9.34977500838">
		<tag k="name" v="Bråten" />
		<tag k="place" v="farm" />
		<tag k="ssr:stedsnr" v="731429" />
	</node>
	<node id="-214111" lat="59.5445277814" lon="9.91557499417">
		<tag k="historic" v="shieling" />
		<tag k="name" v="Skrettaseter" />
		<tag k="place" v="locality" />
		<tag k="ssr:stedsnr" v="853416" />
	</node>
	<node id="-214110" lat="59.5515694422" lon="9.81976111686">
		<tag k="fixme" v="multiple name tags, choose one and add the other to alt_name" />
		<tag k="name" v="Sauar;Sauarplassene" />
		<tag k="place" v="hamlet" />
		<tag k="ssr:stedsnr" v="853402" />
	</node>
	<node id="-213967" lat="59.5631388897" lon="9.65309722408">
		<tag k="alt_name" v="Vesle Lauar" />
		<tag k="name" v="Lille Lauar" />
		<tag k="place" v="farm" />
		<tag k="ssr:stedsnr" v="793392" />
	</node>
	<node id="-214101" lat="59.5010361085" lon="9.87277499971">
		<tag k="name" v="Hagen" />
		<tag k="place" v="farm" />
		<tag k="ssr:stedsnr" v="852356" />
	</node>
	<node id="-212052" lat="59.4150861101" lon="9.69938333552">
		<tag k="name" v="Damvokterbolig" />
		<tag k="place" v="locality" />
		<tag k="ssr:stedsnr" v="727608" />
	</node>
	<node id="-214099" lat="59.5954517541" lon="9.79937309747">
		<tag k="fixme" v="consider place=hamlet" />
		<tag k="name" v="Bredevju" />
		<tag k="place" v="farm" />
		<tag k="ssr:stedsnr" v="849946" />
	</node>
	<node id="-212050" lat="59.5602611126" lon="9.5399027775">
		<tag k="name" v="Sandoren" />
		<tag k="place" v="isolated_dwelling" />
		<tag k="ssr:stedsnr" v="727592" />
	</node>
	<node id="-214094" lat="59.5862083362" lon="9.74426388813">
		<tag k="name" v="Stenbekk" />
		<tag k="place" v="locality" />
		<tag k="ssr:stedsnr" v="849832" />
	</node>
	<node id="-214091" lat="59.635802778" lon="9.72535556251">
		<tag k="name" v="Grosvoll" />
		<tag k="place" v="farm" />
		<tag k="ssr:stedsnr" v="849703" />
	</node>
	<node id="-212042" lat="59.4906083333" lon="9.65600277387">
		<tag k="name" v="Damstua" />
		<tag k="place" v="locality" />
		<tag k="ssr:stedsnr" v="727554" />
	</node>
	<node id="-212041" lat="59.5038083375" lon="9.80136111804">
		<tag k="name" v="Gulsplass" />
		<tag k="place" v="locality" />
		<tag k="ssr:stedsnr" v="727407" />
	</node>
	<node id="-212034" lat="59.6397861131" lon="9.59570834062">
		<tag k="amenity" v="nursing_home" />
		<tag k="name" v="Fredheim Helsesenter" />
		<tag k="ssr:stedsnr" v="720014" />
	</node>
	<node id="-213059" lat="59.6227747735" lon="9.64848186667">
		<tag k="fixme" v="consider place=hamlet" />
		<tag k="name" v="Loftstukvern" />
		<tag k="place" v="farm" />
		<tag k="ssr:stedsnr" v="206657" />
	</node>
	<node id="-212032" lat="59.6142861081" lon="9.71556944399">
		<tag k="leisure" v="pitch" />
		<tag k="name" v="Kongsberg Golfbane" />
		<tag k="ssr:stedsnr" v="889592" />
	</node>
	<node id="-212029" lat="59.5890611143" lon="9.8085250026">
		<tag k="name" v="Bjerknes" />
		<tag k="place" v="farm" />
		<tag k="ssr:stedsnr" v="690911" />
	</node>
	<node id="-212028" lat="59.6273805567" lon="9.71197222955">
		<tag k="name" v="Wærpplass" />
		<tag k="place" v="farm" />
		<tag k="ssr:stedsnr" v="690868" />
	</node>
	<node id="-214075" lat="59.4923250022" lon="9.7222749996">
		<tag k="name" v="Krokvannstua" />
		<tag k="place" v="isolated_dwelling" />
		<tag k="ssr:stedsnr" v="849393" />
	</node>
	<node id="-213855" lat="59.5173833375" lon="9.82026667523">
		<tag k="name" v="Omholt" />
		<tag k="place" v="farm" />
		<tag k="ssr:stedsnr" v="752778" />
	</node>
	<node id="-212020" lat="59.5506500021" lon="9.82048332507">
		<tag k="name" v="Holtet" />
		<tag k="place" v="farm" />
		<tag k="ssr:stedsnr" v="666823" />
	</node>
	<node id="-214065" lat="59.6214138864" lon="9.66163611016">
		<tag k="name" v="Bratland" />
		<tag k="old_name" v="Brathland" />
		<tag k="place" v="isolated_dwelling" />
		<tag k="ssr:stedsnr" v="849168" />
	</node>
	<node id="-214060" lat="59.7286194438" lon="9.53059167437">
		<tag k="historic" v="shieling" />
		<tag k="name" v="Tverrelvstua" />
		<tag k="place" v="locality" />
		<tag k="ssr:stedsnr" v="849157" />
	</node>
	<node id="-212011" lat="59.4423833345" lon="9.71609722781">
		<tag k="name" v="Balangstua" />
		<tag k="place" v="isolated_dwelling" />
		<tag k="ssr:stedsnr" v="666118" />
	</node>
	<node id="-213488" lat="59.560130556" lon="9.61145278123">
		<tag k="name" v="Holmesli" />
		<tag k="place" v="farm" />
		<tag k="ssr:stedsnr" v="429364" />
	</node>
	<node id="-214050" lat="59.6796777775" lon="9.46438333333">
		<tag k="historic" v="shieling" />
		<tag k="name" v="Nordsetrene" />
		<tag k="place" v="locality" />
		<tag k="ssr:stedsnr" v="849066" />
	</node>
	<node id="-211998" lat="59.5909527777" lon="9.73244721407">
		<tag k="name" v="Løkka" />
		<tag k="place" v="farm" />
		<tag k="ssr:stedsnr" v="732491" />
	</node>
	<node id="-211997" lat="59.6023388847" lon="9.73271389473">
		<tag k="name" v="Lande" />
		<tag k="place" v="farm" />
		<tag k="ssr:stedsnr" v="732476" />
	</node>
	<node id="-211996" lat="59.6021292867" lon="9.77634407479">
		<tag k="fixme" v="consider place=hamlet" />
		<tag k="name" v="Øyen" />
		<tag k="old_name" v="Øen" />
		<tag k="place" v="farm" />
		<tag k="ssr:stedsnr" v="732471" />
	</node>
	<node id="-211995" lat="59.7030305532" lon="9.47563332463">
		<tag k="name" v="Storfossen" />
		<tag k="place" v="farm" />
		<tag k="ssr:stedsnr" v="731996" />
	</node>
	<node id="-211994" lat="59.6993722234" lon="9.51024722049">
		<tag k="name" v="Orlistulen" />
		<tag k="place" v="farm" />
		<tag k="ssr:stedsnr" v="731995" />
	</node>
	<node id="-211993" lat="59.706025002" lon="9.56027500605">
		<tag k="name" v="Saga" />
		<tag k="place" v="farm" />
		<tag k="ssr:stedsnr" v="731994" />
	</node>
	<node id="-214035" lat="59.7444750003" lon="9.40217499878">
		<tag k="name" v="Sløkedalen" />
		<tag k="place" v="isolated_dwelling" />
		<tag k="ssr:stedsnr" v="844458" />
	</node>
	<node id="-214034" lat="59.7456583332" lon="9.36936110399">
		<tag k="name" v="Hegna" />
		<tag k="place" v="isolated_dwelling" />
		<tag k="ssr:stedsnr" v="844444" />
	</node>
	<node id="-214033" lat="59.7451749958" lon="9.37209722912">
		<tag k="name" v="Kåsa" />
		<tag k="place" v="isolated_dwelling" />
		<tag k="ssr:stedsnr" v="844428" />
	</node>
	<node id="-213848" lat="59.6078222205" lon="9.6488277731">
		<tag k="alt_name" v="Mørk mellom" />
		<tag k="name" v="Mellom-Mørk" />
		<tag k="place" v="farm" />
		<tag k="ssr:stedsnr" v="752628" />
	</node>
	<node id="-211981" lat="59.4705749963" lon="9.82331665883">
		<tag k="name" v="Rundhaugen" />
		<tag k="place" v="isolated_dwelling" />
		<tag k="ssr:stedsnr" v="731567" />
	</node>
	<node id="-211980" lat="59.472333334" lon="9.8026277797">
		<tag k="name" v="Janshaug" />
		<tag k="place" v="farm" />
		<tag k="ssr:stedsnr" v="731565" />
	</node>
	<node id="-211979" lat="59.6722555582" lon="9.70011665814">
		<tag k="name" v="Pinsland" />
		<tag k="place" v="farm" />
		<tag k="ssr:stedsnr" v="731536" />
	</node>
	<node id="-211978" lat="59.6579888871" lon="9.63635833637">
		<tag k="name" v="Sandsværmoen" />
		<tag k="place" v="suburb" />
		<tag k="ssr:stedsnr" v="731525" />
	</node>
	<node id="-214025" lat="59.5179749974" lon="9.86851943852">
		<tag k="name" v="Løkkebu" />
		<tag k="place" v="isolated_dwelling" />
		<tag k="ssr:stedsnr" v="813774" />
	</node>
	<node id="-211975" lat="59.5023166662" lon="9.85140555787">
		<tag k="name" v="Rønningen" />
		<tag k="place" v="farm" />
		<tag k="ssr:stedsnr" v="731289" />
	</node>
	<node id="-211973" lat="59.6102985641" lon="9.66595733812">
		<tag k="name" v="Tveita" />
		<tag k="place" v="farm" />
		<tag k="ssr:stedsnr" v="731470" />
	</node>
	<node id="-214020" lat="59.6043617568" lon="9.66036933599">
		<tag k="alt_name" v="Brønstad søndre" />
		<tag k="name" v="Søndre Brønstad" />
		<tag k="place" v="farm" />
		<tag k="ssr:stedsnr" v="813652" />
	</node>
	<node id="-213846" lat="59.6426583325" lon="9.78366666483">
		<tag k="historic" v="shieling" />
		<tag k="name" v="Dammyrseter" />
		<tag k="place" v="locality" />
		<tag k="ssr:stedsnr" v="752533" />
	</node>
	<node id="-211968" lat="59.5456722235" lon="9.75061945266">
		<tag k="alt_name" v="Lindemseter" />
		<tag k="historic" v="shieling" />
		<tag k="name" v="Lindumsetra" />
		<tag k="place" v="locality" />
		<tag k="ssr:stedsnr" v="731382" />
	</node>
	<node id="-211965" lat="59.56068333" lon="9.64283888415">
		<tag k="name" v="Store Lauar" />
		<tag k="place" v="farm" />
		<tag k="ssr:stedsnr" v="731358" />
	</node>
	<node id="-214011" lat="59.5845166636" lon="9.79574444739">
		<tag k="name" v="Åsmundrud" />
		<tag k="place" v="farm" />
		<tag k="ssr:stedsnr" v="812907" />
	</node>
	<node id="-214010" lat="59.5812472198" lon="9.75608611522">
		<tag k="name" v="Østre Hovdebø" />
		<tag k="place" v="locality" />
		<tag k="ssr:stedsnr" v="812897" />
	</node>
	<node id="-211986" lat="59.6759094321" lon="9.43826189025">
		<tag k="fixme" v="consider place=hamlet" />
		<tag k="name" v="Barmen" />
		<tag k="place" v="farm" />
		<tag k="ssr:stedsnr" v="731905" />
	</node>
	<node id="-214006" lat="59.5052027768" lon="9.91680833546">
		<tag k="name" v="Nord-Bakke" />
		<tag k="place" v="farm" />
		<tag k="ssr:stedsnr" v="812836" />
	</node>
	<node id="-211957" lat="59.4442749961" lon="9.74168332875">
		<tag k="historic" v="shieling" />
		<tag k="name" v="Viersetra" />
		<tag k="place" v="locality" />
		<tag k="ssr:stedsnr" v="730531" />
	</node>
	<node id="-211956" lat="59.486830556" lon="9.59795834208">
		<tag k="historic" v="shieling" />
		<tag k="name" v="Paulstul" />
		<tag k="place" v="locality" />
		<tag k="ssr:stedsnr" v="730636" />
	</node>
	<node id="-211954" lat="59.4807777784" lon="9.93971388309">
		<tag k="historic" v="shieling" />
		<tag k="name" v="Føskesetra" />
		<tag k="place" v="locality" />
		<tag k="ssr:stedsnr" v="730627" />
	</node>
	<node id="-213999" lat="59.4968999994" lon="10.0010416637">
		<tag k="name" v="Sørli" />
		<tag k="place" v="farm" />
		<tag k="ssr:stedsnr" v="812784" />
	</node>
	<node id="-213998" lat="59.4885749961" lon="10.0069222274">
		<tag k="name" v="Myra" />
		<tag k="place" v="farm" />
		<tag k="ssr:stedsnr" v="812780" />
	</node>
	<node id="-213997" lat="59.4892805579" lon="9.95049722917">
		<tag k="name" v="Søndre Kleppan" />
		<tag k="place" v="farm" />
		<tag k="ssr:stedsnr" v="812772" />
	</node>
	<node id="-213994" lat="59.5114833291" lon="9.91584723043">
		<tag k="name" v="Sollia" />
		<tag k="place" v="farm" />
		<tag k="ssr:stedsnr" v="812760" />
	</node>
	<node id="-211944" lat="59.5975888864" lon="9.80446110248">
		<tag k="name" v="Bredevjuhaugen" />
		<tag k="place" v="farm" />
		<tag k="ssr:stedsnr" v="727939" />
	</node>
	<node id="-211943" lat="59.5963805533" lon="9.7677472224">
		<tag k="name" v="Eie" />
		<tag k="place" v="farm" />
		<tag k="ssr:stedsnr" v="727935" />
	</node>
	<node id="-211942" lat="59.5933749971" lon="9.7613722297">
		<tag k="name" v="Flata" />
		<tag k="place" v="isolated_dwelling" />
		<tag k="ssr:stedsnr" v="727933" />
	</node>
	<node id="-211940" lat="59.6115999956" lon="9.76219166037">
		<tag k="name" v="Ulleberg" />
		<tag k="place" v="farm" />
		<tag k="ssr:stedsnr" v="727905" />
	</node>
	<node id="-211939" lat="59.6014722226" lon="9.6592972197">
		<tag k="alt_name" v="Pålerud" />
		<tag k="name" v="Påterud" />
		<tag k="place" v="farm" />
		<tag k="ssr:stedsnr" v="630603" />
	</node>
	<node id="-211938" lat="59.7026361079" lon="9.56401388196">
		<tag k="name" v="Øvre Dokka" />
		<tag k="place" v="farm" />
		<tag k="ssr:stedsnr" v="727860" />
	</node>
	<node id="-213985" lat="59.6054888854" lon="9.68496666127">
		<tag k="name" v="Pekel-Rogstad" />
		<tag k="place" v="farm" />
		<tag k="ssr:stedsnr" v="812677" />
	</node>
	<node id="-213984" lat="59.6040361081" lon="9.69525833042">
		<tag k="name" v="Laugerud" />
		<tag k="place" v="farm" />
		<tag k="ssr:stedsnr" v="812676" />
	</node>
	<node id="-213983" lat="59.6621305601" lon="9.60505833045">
		<tag k="landuse" v="winter_sports" />
		<tag k="name" v="Ormen Lange" />
		<tag k="piste:type" v="downhill" />
		<tag k="ssr:stedsnr" v="812653" />
	</node>
	<node id="-211934" lat="59.5403083299" lon="9.92740000613">
		<tag k="name" v="Tveitseterstul" />
		<tag k="place" v="locality" />
		<tag k="ssr:stedsnr" v="727849" />
	</node>
	<node id="-213981" lat="59.6588333373" lon="9.67929444674">
		<tag k="name" v="Langekjenn" />
		<tag k="place" v="farm" />
		<tag k="ssr:stedsnr" v="812630" />
	</node>
	<node id="-213979" lat="59.6749861152" lon="9.65030278582">
		<tag k="landuse" v="military" />
		<tag k="name" v="Mønstreplassen" />
		<tag k="ssr:stedsnr" v="812594" />
	</node>
	<node id="-213978" lat="59.6683333323" lon="9.66998332667">
		<tag k="name" v="Setra" />
		<tag k="place" v="farm" />
		<tag k="ssr:stedsnr" v="812564" />
	</node>
	<node id="-211928" lat="59.6193083361" lon="9.7352333404">
		<tag k="name" v="Solli" />
		<tag k="place" v="isolated_dwelling" />
		<tag k="ssr:stedsnr" v="629868" />
	</node>
	<node id="-211926" lat="59.5550999977" lon="9.79172499187">
		<tag k="name" v="Wulfsberg" />
		<tag k="place" v="farm" />
		<tag k="ssr:stedsnr" v="629857" />
	</node>
	<node id="-211925" lat="59.501113885" lon="9.84766389751">
		<tag k="name" v="Albret" />
		<tag k="place" v="farm" />
		<tag k="ssr:stedsnr" v="629817" />
	</node>
	<node id="-211922" lat="59.5778361126" lon="9.80969166682">
		<tag k="name" v="Sending" />
		<tag k="place" v="farm" />
		<tag k="ssr:stedsnr" v="629906" />
	</node>
	<node id="-211921" lat="59.5835388921" lon="9.77478055654">
		<tag k="name" v="Balgen" />
		<tag k="place" v="farm" />
		<tag k="ssr:stedsnr" v="629903" />
	</node>
	<node id="-213968" lat="59.5602166693" lon="9.84670833918">
		<tag k="alt_name" v="Hovseter" />
		<tag k="historic" v="shieling" />
		<tag k="name" v="Hovsetra" />
		<tag k="place" v="locality" />
		<tag k="ssr:stedsnr" v="793402" />
	</node>
	<node id="-211919" lat="59.6582138851" lon="9.69077222338">
		<tag k="name" v="Brennemyr" />
		<tag k="place" v="farm" />
		<tag k="ssr:stedsnr" v="629627" />
	</node>
	<node id="-211917" lat="59.5798305534" lon="9.63316111568">
		<tag k="name" v="Muggerud" />
		<tag k="place" v="farm" />
		<tag k="ssr:stedsnr" v="629373" />
	</node>
	<node id="-213961" lat="59.5736722248" lon="9.50032499455">
		<tag k="alt_name" v="Bjørkeseter" />
		<tag k="historic" v="shieling" />
		<tag k="name" v="Bjørkestul" />
		<tag k="place" v="locality" />
		<tag k="ssr:stedsnr" v="792787" />
	</node>
	<node id="-211912" lat="59.636099998" lon="9.72066388018">
		<tag k="name" v="Grosvoll" />
		<tag k="place" v="farm" />
		<tag k="ssr:stedsnr" v="727690" />
	</node>
	<node id="-211911" lat="59.638958336" lon="9.72150555832">
		<tag k="name" v="Grosvoldplassen" />
		<tag k="place" v="farm" />
		<tag k="ssr:stedsnr" v="727689" />
	</node>
	<node id="-213958" lat="59.5977172654" lon="9.71102586378">
		<tag k="fixme" v="consider place=hamlet" />
		<tag k="name" v="Ristvet" />
		<tag k="place" v="farm" />
		<tag k="ssr:stedsnr" v="792432" />
	</node>
	<node id="-213957" lat="59.7316388855" lon="9.35380555465">
		<tag k="name" v="Bakken" />
		<tag k="place" v="farm" />
		<tag k="ssr:stedsnr" v="792428" />
	</node>
	<node id="-213956" lat="59.7282555563" lon="9.40552222597">
		<tag k="alt_name" v="Grønbakk" />
		<tag k="name" v="Grønbakke" />
		<tag k="place" v="farm" />
		<tag k="ssr:stedsnr" v="792423" />
	</node>
	<node id="-213955" lat="59.6133555547" lon="9.75585277389">
		<tag k="building" v="industrial" />
		<tag k="industrial" v="factory" />
		<tag k="name" v="Ulleberg" />
		<tag k="ssr:stedsnr" v="792421" />
	</node>
	<node id="-213954" lat="59.5331497904" lon="9.84242995669">
		<tag k="fixme" v="consider place=hamlet" />
		<tag k="name" v="Lia" />
		<tag k="place" v="farm" />
		<tag k="ssr:stedsnr" v="792416" />
	</node>
	<node id="-213951" lat="59.5305916625" lon="9.60221943814">
		<tag k="alt_name" v="Breistul" />
		<tag k="historic" v="shieling" />
		<tag k="name" v="Breidstul" />
		<tag k="place" v="locality" />
		<tag k="ssr:stedsnr" v="792401" />
	</node>
	<node id="-211902" lat="59.478413893" lon="10.0023083403">
		<tag k="name" v="Søndre Eid" />
		<tag k="place" v="farm" />
		<tag k="ssr:stedsnr" v="727272" />
	</node>
	<node id="-213946" lat="59.7081749993" lon="9.37082222665">
		<tag k="name" v="Sjåheim" />
		<tag k="place" v="locality" />
		<tag k="ssr:stedsnr" v="791982" />
	</node>
	<node id="-213833" lat="59.555891663" lon="9.81211667061">
		<tag k="name" v="Vestre Skullestad" />
		<tag k="place" v="farm" />
		<tag k="ssr:stedsnr" v="751872" />
	</node>
	<node id="-213939" lat="59.4924611073" lon="9.96406666005">
		<tag k="alt_name" v="Langtangen" />
		<tag k="name" v="Langetangen" />
		<tag k="place" v="farm" />
		<tag k="ssr:stedsnr" v="791552" />
	</node>
	<node id="-211890" lat="59.6120361141" lon="9.63481666236">
		<tag k="name" v="Thorsrud" />
		<tag k="place" v="farm" />
		<tag k="ssr:stedsnr" v="727197" />
	</node>
	<node id="-211888" lat="59.7251749962" lon="9.4061222198">
		<tag k="name" v="Øverli" />
		<tag k="place" v="isolated_dwelling" />
		<tag k="ssr:stedsnr" v="727169" />
	</node>
	<node id="-211887" lat="59.6990972179" lon="9.54083889696">
		<tag k="name" v="Bråten" />
		<tag k="place" v="locality" />
		<tag k="ssr:stedsnr" v="727067" />
	</node>
	<node id="-213934" lat="59.4774249976" lon="9.78961666788">
		<tag k="name" v="Surlia" />
		<tag k="place" v="farm" />
		<tag k="ssr:stedsnr" v="791597" />
	</node>
	<node id="-213149" lat="59.5539722252" lon="9.53492222519">
		<tag k="historic" v="shieling" />
		<tag k="name" v="Sandorsetra" />
		<tag k="place" v="locality" />
		<tag k="ssr:stedsnr" v="306729" />
	</node>
	<node id="-211880" lat="59.5183916688" lon="10.0059138943">
		<tag k="alt_name" v="Åssetra" />
		<tag k="historic" v="shieling" />
		<tag k="name" v="Åsseter" />
		<tag k="place" v="locality" />
		<tag k="ssr:stedsnr" v="610914" />
	</node>
	<node id="-211879" lat="59.6721416671" lon="9.60125834196">
		<tag k="leisure" v="pitch" />
		<tag k="name" v="Hannibalbakken" />
		<tag k="ssr:stedsnr" v="610617" />
	</node>
	<node id="-213926" lat="59.5976081972" lon="9.71082471767">
		<tag k="name" v="Ristvet" />
		<tag k="place" v="farm" />
		<tag k="ssr:stedsnr" v="788952" />
	</node>
	<node id="-211877" lat="59.5127314077" lon="9.87407003217">
		<tag k="fixme" v="consider place=hamlet" />
		<tag k="name" v="Skretta" />
		<tag k="place" v="farm" />
		<tag k="ssr:stedsnr" v="610379" />
	</node>
	<node id="-211875" lat="59.5245250026" lon="9.83431944125">
		<tag k="alt_name" v="Oterengene" />
		<tag k="name" v="Otterenga" />
		<tag k="place" v="farm" />
		<tag k="ssr:stedsnr" v="610358" />
	</node>
	<node id="-211874" lat="59.6075920799" lon="9.64682371421">
		<tag k="fixme" v="consider place=hamlet" />
		<tag k="name" v="Mørk" />
		<tag k="place" v="farm" />
		<tag k="ssr:stedsnr" v="610544" />
	</node>
	<node id="-211872" lat="59.5806833309" lon="9.86978056397">
		<tag k="alt_name" v="Sendingseter" />
		<tag k="historic" v="shieling" />
		<tag k="name" v="Senningsetra" />
		<tag k="place" v="locality" />
		<tag k="ssr:stedsnr" v="610530" />
	</node>
	<node id="-211871" lat="59.5848388908" lon="9.80647500403">
		<tag k="name" v="Engbråten" />
		<tag k="place" v="farm" />
		<tag k="ssr:stedsnr" v="610529" />
	</node>
	<node id="-211870" lat="59.5922250034" lon="9.80496943726">
		<tag k="alt_name" v="Øvre Bjerknes" />
		<tag k="name" v="Traet" />
		<tag k="place" v="farm" />
		<tag k="ssr:stedsnr" v="610520" />
	</node>
	<node id="-211869" lat="59.5980250041" lon="9.79653332831">
		<tag k="name" v="Oterbekk" />
		<tag k="place" v="farm" />
		<tag k="ssr:stedsnr" v="610519" />
	</node>
	<node id="-211868" lat="59.5952027764" lon="9.75907500841">
		<tag k="name" v="Åseng" />
		<tag k="place" v="farm" />
		<tag k="ssr:stedsnr" v="610518" />
	</node>
	<node id="-213487" lat="59.5652388905" lon="9.61908333223">
		<tag k="name" v="Bråten" />
		<tag k="place" v="farm" />
		<tag k="ssr:stedsnr" v="429358" />
	</node>
	<node id="-211860" lat="59.4690749999" lon="9.69786111727">
		<tag k="alt_name" v="Møklestulen" />
		<tag k="name" v="Myklestulen" />
		<tag k="place" v="isolated_dwelling" />
		<tag k="ssr:stedsnr" v="609556" />
	</node>
	<node id="-211858" lat="59.727263892" lon="9.64022222467">
		<tag k="alt_name" v="Nordseter" />
		<tag k="historic" v="shieling" />
		<tag k="name" v="Nordsetra" />
		<tag k="place" v="locality" />
		<tag k="ssr:stedsnr" v="609618" />
	</node>
	<node id="-211857" lat="59.7061555563" lon="9.6323277773">
		<tag k="name" v="Østby" />
		<tag k="place" v="farm" />
		<tag k="ssr:stedsnr" v="609608" />
	</node>
	<node id="-211856" lat="59.7203638873" lon="9.61296943939">
		<tag k="name" v="Svendsplassen" />
		<tag k="place" v="farm" />
		<tag k="ssr:stedsnr" v="609602" />
	</node>
	<node id="-211855" lat="59.539858329" lon="9.92060834189">
		<tag k="historic" v="shieling" />
		<tag k="name" v="Ulebergseter" />
		<tag k="place" v="locality" />
		<tag k="ssr:stedsnr" v="609417" />
	</node>
	<node id="-211854" lat="59.5489749974" lon="9.94626389757">
		<tag k="historic" v="shieling" />
		<tag k="name" v="Komnesseter" />
		<tag k="place" v="locality" />
		<tag k="ssr:stedsnr" v="609413" />
	</node>
	<node id="-211853" lat="59.5410000038" lon="9.60520277873">
		<tag k="name" v="Helgerud" />
		<tag k="place" v="farm" />
		<tag k="ssr:stedsnr" v="609406" />
	</node>
	<node id="-211852" lat="59.4857194403" lon="10.0117277807">
		<tag k="name" v="Hvittingfoss" />
		<tag k="place" v="village" />
		<tag k="ssr:stedsnr" v="609010" />
	</node>
	<node id="-213894" lat="59.6514499994" lon="9.69327778492">
		<tag k="name" v="Berganhytta" />
		<tag k="place" v="isolated_dwelling" />
		<tag k="ssr:stedsnr" v="788084" />
	</node>
	<node id="-213483" lat="59.7119500009" lon="9.55832499505">
		<tag k="name" v="Kalddal" />
		<tag k="place" v="farm" />
		<tag k="ssr:stedsnr" v="428986" />
	</node>
	<node id="-211839" lat="59.7374166698" lon="9.37818332801">
		<tag k="name" v="Nedre Lillebuen" />
		<tag k="place" v="farm" />
		<tag k="ssr:stedsnr" v="605219" />
	</node>
	<node id="-214165" lat="59.5582305538" lon="9.78156388389">
		<tag k="name" v="Nedre Li" />
		<tag k="place" v="farm" />
		<tag k="ssr:stedsnr" v="873819" />
	</node>
	<node id="-213482" lat="59.5865499995" lon="9.56362778385">
		<tag k="historic" v="shieling" />
		<tag k="name" v="Slåttemyrsetra" />
		<tag k="place" v="locality" />
		<tag k="ssr:stedsnr" v="428789" />
	</node>
	<node id="-211834" lat="59.5363138891" lon="9.5665555597">
		<tag k="historic" v="shieling" />
		<tag k="name" v="Gunnesseter" />
		<tag k="place" v="locality" />
		<tag k="ssr:stedsnr" v="605356" />
	</node>
	<node id="-213878" lat="59.5013361142" lon="9.89335000132">
		<tag k="name" v="Hvål" />
		<tag k="place" v="farm" />
		<tag k="ssr:stedsnr" v="787458" />
	</node>
	<node id="-211829" lat="59.7612249959" lon="9.37336110386">
		<tag k="historic" v="shieling" />
		<tag k="name" v="Veslestul" />
		<tag k="place" v="locality" />
		<tag k="ssr:stedsnr" v="600442" />
	</node>
	<node id="-211823" lat="59.6053166685" lon="9.47811943798">
		<tag k="fixme" v="consider tourism=alpine_hut or tourism=chalet" />
		<tag k="name" v="Gamle Øksne" />
		<tag k="ssr:stedsnr" v="708160" />
		<tag k="tourism" v="wilderness_hut" />
	</node>
	<node id="-213959" lat="59.5997777736" lon="9.70201111067">
		<tag k="alt_name" v="Laugerud øvre" />
		<tag k="name" v="Øvre Lauerud" />
		<tag k="place" v="farm" />
		<tag k="ssr:stedsnr" v="792434" />
	</node>
	<node id="-211818" lat="59.5430083377" lon="9.8928444362">
		<tag k="historic" v="shieling" />
		<tag k="name" v="Skogstue" />
		<tag k="place" v="locality" />
		<tag k="ssr:stedsnr" v="545623" />
	</node>
	<node id="-211814" lat="59.6587972217" lon="9.74079444262">
		<tag k="name" v="Plassen" />
		<tag k="place" v="isolated_dwelling" />
		<tag k="ssr:stedsnr" v="693994" />
	</node>
	<node id="-213856" lat="59.5169888916" lon="9.86821111704">
		<tag k="name" v="Borge" />
		<tag k="place" v="farm" />
		<tag k="ssr:stedsnr" v="752782" />
	</node>
	<node id="-211807" lat="59.5148777799" lon="9.72556665989">
		<tag k="fixme" v="consider tourism=alpine_hut or tourism=chalet" />
		<tag k="name" v="Ivarsbu" />
		<tag k="ssr:stedsnr" v="693201" />
		<tag k="tourism" v="wilderness_hut" />
	</node>
	<node id="-213849" lat="59.6116542318" lon="9.65408275085">
		<tag k="fixme" v="consider place=hamlet" />
		<tag k="name" v="Klokkerud" />
		<tag k="place" v="farm" />
		<tag k="ssr:stedsnr" v="752629" />
	</node>
	<node id="-211800" lat="59.4864527739" lon="9.9966888856">
		<tag k="name" v="Bommen" />
		<tag k="place" v="farm" />
		<tag k="ssr:stedsnr" v="691742" />
	</node>
	<node id="-211798" lat="59.6293027791" lon="9.63542499763">
		<tag k="name" v="Trollerudmoen" />
		<tag k="place" v="quarter" />
		<tag k="ssr:stedsnr" v="691728" />
	</node>
	<node id="-211797" lat="59.620475004" lon="9.6515250074">
		<tag k="name" v="Loftstukvern" />
		<tag k="place" v="farm" />
		<tag k="ssr:stedsnr" v="691672" />
	</node>
	<node id="-211796" lat="59.6233993298" lon="9.65256973705">
		<tag k="name" v="Sundet" />
		<tag k="place" v="farm" />
		<tag k="ssr:stedsnr" v="691670" />
	</node>
	<node id="-211795" lat="59.615408332" lon="9.65640278579">
		<tag k="name" v="Myren" />
		<tag k="old_name" v="Myhren" />
		<tag k="place" v="farm" />
		<tag k="ssr:stedsnr" v="691668" />
	</node>
	<node id="-211794" lat="59.6145638891" lon="9.65108055652">
		<tag k="name" v="Myreplass" />
		<tag k="old_name" v="Myhreplass" />
		<tag k="place" v="farm" />
		<tag k="ssr:stedsnr" v="691667" />
	</node>
	<node id="-211793" lat="59.6091249983" lon="9.6452750052">
		<tag k="alt_name" v="Mørk nordre" />
		<tag k="name" v="Nordre Mørk" />
		<tag k="place" v="farm" />
		<tag k="ssr:stedsnr" v="691655" />
	</node>
	<node id="-213838" lat="59.5784594875" lon="9.78275744032">
		<tag k="fixme" v="consider place=hamlet" />
		<tag k="name" v="Evju" />
		<tag k="place" v="farm" />
		<tag k="ssr:stedsnr" v="751917" />
	</node>
	<node id="-211788" lat="59.6482138861" lon="9.75713332537">
		<tag k="name" v="Finnerud" />
		<tag k="place" v="locality" />
		<tag k="ssr:stedsnr" v="691548" />
	</node>
	<node id="-211787" lat="59.6744194414" lon="9.69262499488">
		<tag k="name" v="Hillestad" />
		<tag k="place" v="farm" />
		<tag k="ssr:stedsnr" v="691527" />
	</node>
	<node id="-211785" lat="59.6245027804" lon="9.59291943782">
		<tag k="name" v="Stenset" />
		<tag k="place" v="farm" />
		<tag k="ssr:stedsnr" v="691267" />
	</node>
	<node id="-213832" lat="59.5446388889" lon="9.82320554793">
		<tag k="name" v="Nystad" />
		<tag k="place" v="farm" />
		<tag k="ssr:stedsnr" v="751860" />
	</node>
	<node id="-213831" lat="59.5044166669" lon="9.86664999633">
		<tag k="name" v="Nedre Ånnestad" />
		<tag k="place" v="farm" />
		<tag k="ssr:stedsnr" v="751846" />
	</node>
	<node id="-211781" lat="59.4681666645" lon="10.030938884">
		<tag k="name" v="Nedre Gulli" />
		<tag k="place" v="farm" />
		<tag k="ssr:stedsnr" v="691228" />
	</node>
	<node id="-213827" lat="59.4983055553" lon="9.96105554903">
		<tag k="name" v="Engerønningen" />
		<tag k="place" v="farm" />
		<tag k="ssr:stedsnr" v="751773" />
	</node>
	<node id="-213293" lat="59.7068416701" lon="9.39912777118">
		<tag k="name" v="Baklia" />
		<tag k="place" v="farm" />
		<tag k="ssr:stedsnr" v="366973" />
	</node>
	<node id="-213825" lat="59.5602500022" lon="9.63590000094">
		<tag k="name" v="Lauarhagen" />
		<tag k="place" v="farm" />
		<tag k="ssr:stedsnr" v="751751" />
	</node>
	<node id="-213821" lat="59.6024277821" lon="9.67426110843">
		<tag k="name" v="Åjordet" />
		<tag k="place" v="farm" />
		<tag k="ssr:stedsnr" v="751686" />
	</node>
	<node id="-211771" lat="59.6235638862" lon="9.64360555255">
		<tag k="leisure" v="pitch" />
		<tag k="name" v="Skrimsletta" />
		<tag k="ssr:stedsnr" v="690742" />
	</node>
	<node id="-213818" lat="59.5405527802" lon="9.52346943625">
		<tag k="fixme" v="consider tourism=alpine_hut or tourism=chalet" />
		<tag k="name" v="Sveinsbu" />
		<tag k="ssr:stedsnr" v="751260" />
		<tag k="tourism" v="wilderness_hut" />
	</node>
	<node id="-211779" lat="59.5958805533" lon="9.74907500761">
		<tag k="name" v="Tomta" />
		<tag k="place" v="farm" />
		<tag k="ssr:stedsnr" v="690888" />
	</node>
	<node id="-213815" lat="59.6236277817" lon="9.62185555646">
		<tag k="name" v="Myra" />
		<tag k="place" v="farm" />
		<tag k="ssr:stedsnr" v="751246" />
	</node>
	<node id="-211765" lat="59.6028500029" lon="9.84928056314">
		<tag k="historic" v="shieling" />
		<tag k="name" v="Bjertnesseter" />
		<tag k="place" v="locality" />
		<tag k="ssr:stedsnr" v="512652" />
	</node>
	<node id="-211761" lat="59.5746888896" lon="9.78266666778">
		<tag k="name" v="Jåløkka" />
		<tag k="place" v="farm" />
		<tag k="ssr:stedsnr" v="508909" />
	</node>
	<node id="-211760" lat="59.5905361087" lon="9.75902777348">
		<tag k="name" v="Søndre Ås" />
		<tag k="place" v="farm" />
		<tag k="ssr:stedsnr" v="508905" />
	</node>
	<node id="-211759" lat="59.695702774" lon="9.63847778449">
		<tag k="name" v="Spitengrenda" />
		<tag k="place" v="hamlet" />
		<tag k="ssr:stedsnr" v="508888" />
	</node>
	<node id="-211758" lat="59.6096999979" lon="9.72155278018">
		<tag k="name" v="Lillehagen" />
		<tag k="place" v="farm" />
		<tag k="ssr:stedsnr" v="508870" />
	</node>
	<node id="-211751" lat="59.566769446" lon="9.62107222635">
		<tag k="amenity" v="school" />
		<tag k="name" v="Ljøterud skole" />
		<tag k="ssr:stedsnr" v="508726" />
	</node>
	<node id="-211750" lat="59.6748388934" lon="9.65581110535">
		<tag k="leisure" v="pitch" />
		<tag k="name" v="Raumyr idrettsplass" />
		<tag k="ssr:stedsnr" v="508604" />
	</node>
	<node id="-211749" lat="59.6563666699" lon="9.66913611172">
		<tag k="name" v="Lauvås" />
		<tag k="place" v="farm" />
		<tag k="ssr:stedsnr" v="488553" />
	</node>
	<node id="-211748" lat="59.6587222199" lon="9.69686111937">
		<tag k="alt_name" v="Majorplass" />
		<tag k="name" v="Majorplassen" />
		<tag k="old_name" v="Majorpl.;Majorpladsen" />
		<tag k="place" v="farm" />
		<tag k="ssr:stedsnr" v="488552" />
	</node>
	<node id="-211747" lat="59.6355888874" lon="9.64324722141">
		<tag k="name" v="Veungsdalen" />
		<tag k="place" v="farm" />
		<tag k="ssr:stedsnr" v="488541" />
	</node>
	<node id="-211746" lat="59.6485722183" lon="9.80262777269">
		<tag k="alt_name" v="Hvamsetra" />
		<tag k="historic" v="shieling" />
		<tag k="name" v="Hvamsetrene" />
		<tag k="place" v="locality" />
		<tag k="ssr:stedsnr" v="488536" />
	</node>
	<node id="-211745" lat="59.6294017221" lon="9.71861535291">
		<tag k="fixme" v="consider place=hamlet" />
		<tag k="name" v="Nyhus" />
		<tag k="place" v="farm" />
		<tag k="ssr:stedsnr" v="488520" />
	</node>
	<node id="-211744" lat="59.470383331" lon="10.0211500054">
		<tag k="name" v="Skog" />
		<tag k="place" v="farm" />
		<tag k="ssr:stedsnr" v="488025" />
	</node>
	<node id="-213790" lat="59.6893972229" lon="9.60587500103">
		<tag k="alt_name" v="Roa nedre" />
		<tag k="name" v="Nedre Roa" />
		<tag k="place" v="farm" />
		<tag k="ssr:stedsnr" v="629968" />
	</node>
	<node id="-213788" lat="59.7068194487" lon="9.61401666994">
		<tag k="name" v="Vigersløv" />
		<tag k="place" v="farm" />
		<tag k="ssr:stedsnr" v="629962" />
	</node>
	<node id="-213779" lat="59.5817777735" lon="9.64420278362">
		<tag k="name" v="Haugen" />
		<tag k="place" v="farm" />
		<tag k="ssr:stedsnr" v="629732" />
	</node>
	<node id="-213777" lat="59.5561138926" lon="9.61308889038">
		<tag k="alt_name" v="Olledalen nedre" />
		<tag k="name" v="Nedre Olledalen" />
		<tag k="place" v="farm" />
		<tag k="ssr:stedsnr" v="629728" />
	</node>
	<node id="-213771" lat="59.6622527752" lon="9.63278333133">
		<tag k="name" v="Håvet" />
		<tag k="place" v="farm" />
		<tag k="ssr:stedsnr" v="629645" />
	</node>
	<node id="-213770" lat="59.6559805528" lon="9.61296388283">
		<tag k="landuse" v="winter_sports" />
		<tag k="name" v="Turisten" />
		<tag k="piste:type" v="downhill" />
		<tag k="ssr:stedsnr" v="629644" />
	</node>
	<node id="-213463" lat="59.5544527752" lon="9.62521943924">
		<tag k="name" v="Lindset" />
		<tag k="place" v="farm" />
		<tag k="ssr:stedsnr" v="428350" />
	</node>
	<node id="-211719" lat="59.7000583329" lon="9.51596110666">
		<tag k="name" v="Orlien" />
		<tag k="place" v="farm" />
		<tag k="ssr:stedsnr" v="484057" />
	</node>
	<node id="-213766" lat="59.5149861109" lon="9.99532223008">
		<tag k="historic" v="shieling" />
		<tag k="name" v="Gravdalssetra" />
		<tag k="place" v="locality" />
		<tag k="ssr:stedsnr" v="610981" />
	</node>
	<node id="-213764" lat="59.6874499957" lon="9.64932778471">
		<tag k="name" v="Kampestad" />
		<tag k="place" v="farm" />
		<tag k="ssr:stedsnr" v="610627" />
	</node>
	<node id="-211715" lat="59.5378833292" lon="9.56948055871">
		<tag k="name" v="Skrimhytta" />
		<tag k="place" v="isolated_dwelling" />
		<tag k="ssr:stedsnr" v="484303" />
	</node>
	<node id="-213762" lat="59.5967083321" lon="9.66363054802">
		<tag k="landuse" v="military" />
		<tag k="name" v="Heistadmoen" />
		<tag k="ssr:stedsnr" v="610489" />
	</node>
	<node id="-213760" lat="59.6096666659" lon="9.76571111769">
		<tag k="name" v="Tunga" />
		<tag k="place" v="farm" />
		<tag k="ssr:stedsnr" v="610478" />
	</node>
	<node id="-211711" lat="59.7368166633" lon="9.42140000502">
		<tag k="alt_name" v="Lortebu" />
		<tag k="historic" v="shieling" />
		<tag k="name" v="Lortebuseter" />
		<tag k="place" v="locality" />
		<tag k="ssr:stedsnr" v="484154" />
	</node>
	<node id="-211709" lat="59.7273472249" lon="9.48310832948">
		<tag k="fixme" v="consider tourism=alpine_hut or tourism=chalet" />
		<tag k="name" v="Porstjernhytta" />
		<tag k="ssr:stedsnr" v="484110" />
		<tag k="tourism" v="wilderness_hut" />
	</node>
	<node id="-213756" lat="59.5493805547" lon="9.79248055811">
		<tag k="name" v="Åsmyr" />
		<tag k="place" v="farm" />
		<tag k="ssr:stedsnr" v="610436" />
	</node>
	<node id="-213754" lat="59.5561611124" lon="9.61223055393">
		<tag k="name" v="Olledalen" />
		<tag k="place" v="farm" />
		<tag k="ssr:stedsnr" v="610429" />
	</node>
	<node id="-213753" lat="59.5596361073" lon="9.73070278472">
		<tag k="alt_name" v="Liseter" />
		<tag k="historic" v="shieling" />
		<tag k="name" v="Lisetra" />
		<tag k="place" v="locality" />
		<tag k="ssr:stedsnr" v="610420" />
	</node>
	<node id="-211704" lat="59.5750421291" lon="9.79689486268">
		<tag k="fixme" v="consider place=hamlet" />
		<tag k="name" v="Bø" />
		<tag k="place" v="farm" />
		<tag k="ssr:stedsnr" v="671501" />
	</node>
	<node id="-213751" lat="59.56862628" lon="9.61571151698">
		<tag k="fixme" v="consider place=hamlet" />
		<tag k="name" v="Ljøterud" />
		<tag k="place" v="farm" />
		<tag k="ssr:stedsnr" v="610410" />
	</node>
	<node id="-213750" lat="59.5648277811" lon="9.61488055081">
		<tag k="name" v="Åsen" />
		<tag k="place" v="farm" />
		<tag k="ssr:stedsnr" v="610409" />
	</node>
	<node id="-211701" lat="59.5815472243" lon="9.7816694411">
		<tag k="name" v="Evju" />
		<tag k="place" v="farm" />
		<tag k="ssr:stedsnr" v="671485" />
	</node>
	<node id="-211699" lat="59.5840444417" lon="9.64721111609">
		<tag k="alt_name" v="Nedre Baksteval" />
		<tag k="name" v="Nedre Bakstvål" />
		<tag k="place" v="farm" />
		<tag k="ssr:stedsnr" v="671483" />
	</node>
	<node id="-211698" lat="59.5831111098" lon="9.65236388263">
		<tag k="alt_name" v="Øvre Baksteval" />
		<tag k="name" v="Øvre Bakstvål" />
		<tag k="place" v="farm" />
		<tag k="ssr:stedsnr" v="671482" />
	</node>
	<node id="-211697" lat="59.5840333345" lon="9.6364444469">
		<tag k="alt_name" v="Tangane" />
		<tag k="name" v="Tangene" />
		<tag k="place" v="farm" />
		<tag k="ssr:stedsnr" v="671478" />
	</node>
	<node id="-211696" lat="59.5971389362" lon="9.68554817214">
		<tag k="fixme" v="consider place=hamlet" />
		<tag k="name" v="Strenge" />
		<tag k="place" v="farm" />
		<tag k="ssr:stedsnr" v="671461" />
	</node>
	<node id="-213743" lat="59.533136108" lon="9.98038056155">
		<tag k="historic" v="shieling" />
		<tag k="name" v="Pyttesetra" />
		<tag k="place" v="locality" />
		<tag k="ssr:stedsnr" v="609862" />
	</node>
	<node id="-211694" lat="59.6024337579" lon="9.75383381467">
		<tag k="fixme" v="consider place=hamlet" />
		<tag k="name" v="Hostvet" />
		<tag k="place" v="farm" />
		<tag k="ssr:stedsnr" v="671441" />
	</node>
	<node id="-211693" lat="59.5995585659" lon="9.67520943852">
		<tag k="fixme" v="consider place=hamlet" />
		<tag k="name" v="Kløvstad" />
		<tag k="place" v="farm" />
		<tag k="ssr:stedsnr" v="671438" />
	</node>
	<node id="-213740" lat="59.7062222196" lon="9.44408055439">
		<tag k="name" v="Haugen" />
		<tag k="place" v="farm" />
		<tag k="ssr:stedsnr" v="609994" />
	</node>
	<node id="-211690" lat="59.7045666698" lon="9.41109444404">
		<tag k="name" v="Viermyr" />
		<tag k="place" v="farm" />
		<tag k="ssr:stedsnr" v="670998" />
	</node>
	<node id="-213737" lat="59.6779861134" lon="9.6802749922">
		<tag k="name" v="Steneplassen" />
		<tag k="place" v="farm" />
		<tag k="ssr:stedsnr" v="609549" />
	</node>
	<node id="-213735" lat="59.4969985397" lon="9.94106005295">
		<tag k="fixme" v="consider place=hamlet" />
		<tag k="name" v="Søum" />
		<tag k="place" v="farm" />
		<tag k="ssr:stedsnr" v="609534" />
	</node>
	<node id="-211686" lat="59.6184250011" lon="9.53869721448">
		<tag k="historic" v="shieling" />
		<tag k="name" v="Spersetra" />
		<tag k="place" v="locality" />
		<tag k="ssr:stedsnr" v="670868" />
	</node>
	<node id="-211685" lat="59.6262250021" lon="9.46855556125">
		<tag k="name" v="Heia" />
		<tag k="place" v="farm" />
		<tag k="ssr:stedsnr" v="670846" />
	</node>
	<node id="-213732" lat="59.6331361078" lon="9.64104999221">
		<tag k="fixme" v="consider place=suburb, village or hamlet" />
		<tag k="name" v="Kongsgårdmoen" />
		<tag k="place" v="quarter" />
		<tag k="ssr:stedsnr" v="609497" />
	</node>
	<node id="-211681" lat="59.585272222" lon="9.54170000642">
		<tag k="historic" v="shieling" />
		<tag k="name" v="Kolknutsetra" />
		<tag k="place" v="locality" />
		<tag k="ssr:stedsnr" v="670775" />
	</node>
	<node id="-213456" lat="59.4929888913" lon="9.83432221577">
		<tag k="historic" v="shieling" />
		<tag k="name" v="Røsholtsetra" />
		<tag k="place" v="locality" />
		<tag k="ssr:stedsnr" v="427599" />
	</node>
	<node id="-213726" lat="59.4936908163" lon="9.96784770367">
		<tag k="name" v="Moen" />
		<tag k="place" v="farm" />
		<tag k="ssr:stedsnr" v="609062" />
	</node>
	<node id="-213725" lat="59.4969009077" lon="9.99917206181">
		<tag k="fixme" v="consider place=hamlet" />
		<tag k="name" v="Gravdal" />
		<tag k="place" v="farm" />
		<tag k="ssr:stedsnr" v="609049" />
	</node>
	<node id="-211676" lat="59.6964638918" lon="9.62296389114">
		<tag k="name" v="Bikjen" />
		<tag k="place" v="farm" />
		<tag k="ssr:stedsnr" v="670591" />
	</node>
	<node id="-213722" lat="59.6444944472" lon="9.74979167386">
		<tag k="name" v="Plassen" />
		<tag k="place" v="farm" />
		<tag k="ssr:stedsnr" v="606672" />
	</node>
	<node id="-211671" lat="59.4900457994" lon="9.94803080119">
		<tag k="fixme" v="consider place=hamlet" />
		<tag k="name" v="Kleppan" />
		<tag k="place" v="farm" />
		<tag k="ssr:stedsnr" v="670531" />
	</node>
	<node id="-213718" lat="59.5417883963" lon="9.82643866603">
		<tag k="name" v="Sommerstad" />
		<tag k="place" v="farm" />
		<tag k="ssr:stedsnr" v="606634" />
	</node>
	<node id="-211669" lat="59.6406472259" lon="9.7975805486">
		<tag k="alt_name" v="Mosebekksetra" />
		<tag k="historic" v="shieling" />
		<tag k="name" v="Mosebekkseter" />
		<tag k="place" v="locality" />
		<tag k="ssr:stedsnr" v="670499" />
	</node>
	<node id="-211668" lat="59.6248194474" lon="9.6487805634">
		<tag k="alt_name" v="Kongsgården" />
		<tag k="name" v="Kongsgård" />
		<tag k="old_name" v="Kongsgaarden" />
		<tag k="place" v="farm" />
		<tag k="ssr:stedsnr" v="670493" />
	</node>
	<node id="-211667" lat="59.6249555547" lon="9.60484999118">
		<tag k="name" v="Saggrenda" />
		<tag k="place" v="hamlet" />
		<tag k="ssr:stedsnr" v="670490" />
	</node>
	<node id="-211666" lat="59.6174000043" lon="9.6460999922">
		<tag k="name" v="Haugen" />
		<tag k="place" v="farm" />
		<tag k="ssr:stedsnr" v="670473" />
	</node>
	<node id="-211665" lat="59.723805552" lon="9.34813889105">
		<tag k="alt_name" v="Rua nordre" />
		<tag k="name" v="Nordre Rua" />
		<tag k="place" v="farm" />
		<tag k="ssr:stedsnr" v="670445" />
	</node>
	<node id="-213707" lat="59.6164166634" lon="9.70888055805">
		<tag k="name" v="Tofstad" />
		<tag k="place" v="farm" />
		<tag k="ssr:stedsnr" v="605911" />
	</node>
	<node id="-211426" lat="59.7065517224" lon="9.40266336684">
		<tag k="alt_name" v="Rønningen" />
		<tag k="name" v="Rydningen" />
		<tag k="place" v="farm" />
		<tag k="ssr:stedsnr" v="488982" />
	</node>
	<node id="-211657" lat="59.5435361086" lon="9.87448334057">
		<tag k="historic" v="shieling" />
		<tag k="name" v="Liaseter" />
		<tag k="place" v="locality" />
		<tag k="ssr:stedsnr" v="670398" />
	</node>
	<node id="-211656" lat="59.5519805546" lon="9.60277778101">
		<tag k="name" v="Myra" />
		<tag k="place" v="farm" />
		<tag k="ssr:stedsnr" v="670392" />
	</node>
	<node id="-211655" lat="59.5549055545" lon="9.60750000223">
		<tag k="name" v="Bakli" />
		<tag k="place" v="farm" />
		<tag k="ssr:stedsnr" v="670389" />
	</node>
	<node id="-211654" lat="59.5555479743" lon="9.61635188238">
		<tag k="alt_name" v="Lindås søndre;Lindås" />
		<tag k="name" v="Søndre Lindås" />
		<tag k="place" v="farm" />
		<tag k="ssr:stedsnr" v="670388" />
	</node>
	<node id="-211653" lat="59.5084083368" lon="9.87389166133">
		<tag k="name" v="Nedre Ånnestad" />
		<tag k="place" v="farm" />
		<tag k="ssr:stedsnr" v="670336" />
	</node>
	<node id="-211651" lat="59.4928805578" lon="9.97129999823">
		<tag k="name" v="Reinemoen" />
		<tag k="place" v="farm" />
		<tag k="ssr:stedsnr" v="670068" />
	</node>
	<node id="-211650" lat="59.4935527744" lon="9.82594721601">
		<tag k="historic" v="shieling" />
		<tag k="name" v="Rudsetra" />
		<tag k="place" v="locality" />
		<tag k="ssr:stedsnr" v="669601" />
	</node>
	<node id="-213703" lat="59.561363885" lon="9.81322223021">
		<tag k="name" v="Moen" />
		<tag k="place" v="farm" />
		<tag k="ssr:stedsnr" v="605834" />
	</node>
	<node id="-213792" lat="59.709183333" lon="9.59017778494">
		<tag k="alt_name" v="Auensplass øvre" />
		<tag k="name" v="Øvre Auensplass" />
		<tag k="place" v="farm" />
		<tag k="ssr:stedsnr" v="629995" />
	</node>
	<node id="-213694" lat="59.553441664" lon="9.81741945076">
		<tag k="name" v="Haugen" />
		<tag k="place" v="farm" />
		<tag k="ssr:stedsnr" v="605781" />
	</node>
	<node id="-211643" lat="59.7236109113" lon="9.35000620913">
		<tag k="name" v="Rua" />
		<tag k="place" v="hamlet" />
		<tag k="ssr:stedsnr" v="466559" />
	</node>
	<node id="-211642" lat="59.5249583308" lon="9.95396944424">
		<tag k="name" v="Gamlestul" />
		<tag k="place" v="locality" />
		<tag k="ssr:stedsnr" v="667641" />
	</node>
	<node id="-213793" lat="59.7122138853" lon="9.59166667418">
		<tag k="name" v="Snaret" />
		<tag k="place" v="isolated_dwelling" />
		<tag k="ssr:stedsnr" v="629999" />
	</node>
	<node id="-211636" lat="59.6924194473" lon="9.43449166409">
		<tag k="fixme" v="consider tourism=alpine_hut or tourism=chalet" />
		<tag k="name" v="Bjørndalshytta" />
		<tag k="ssr:stedsnr" v="465126" />
		<tag k="tourism" v="wilderness_hut" />
	</node>
	<node id="-213272" lat="59.6117908811" lon="9.75557461327">
		<tag k="alt_name" v="Ulleberg" />
		<tag k="fixme" v="consider place=hamlet" />
		<tag k="name" v="Uleberg" />
		<tag k="place" v="farm" />
		<tag k="ssr:stedsnr" v="363920" />
	</node>
	<node id="-211631" lat="59.6071750005" lon="9.78441945073">
		<tag k="name" v="Hvamb" />
		<tag k="place" v="farm" />
		<tag k="ssr:stedsnr" v="667168" />
	</node>
	<node id="-211626" lat="59.6195888919" lon="9.77660554931">
		<tag k="historic" v="shieling" />
		<tag k="name" v="Grønli" />
		<tag k="place" v="locality" />
		<tag k="ssr:stedsnr" v="666924" />
	</node>
	<node id="-211625" lat="59.6096166645" lon="9.76018056125">
		<tag k="name" v="Birkelund" />
		<tag k="place" v="isolated_dwelling" />
		<tag k="ssr:stedsnr" v="666895" />
	</node>
	<node id="-211623" lat="59.6159277751" lon="9.72600832839">
		<tag k="alt_name" v="Såtvedt" />
		<tag k="name" v="Øvre Såttvet" />
		<tag k="place" v="farm" />
		<tag k="ssr:stedsnr" v="666887" />
	</node>
	<node id="-211621" lat="59.5735680864" lon="9.78094033005">
		<tag k="name" v="Harangen" />
		<tag k="place" v="farm" />
		<tag k="ssr:stedsnr" v="666783" />
	</node>
	<node id="-211619" lat="59.5507361093" lon="9.9297722244">
		<tag k="name" v="Svartbekkstua" />
		<tag k="place" v="locality" />
		<tag k="ssr:stedsnr" v="666768" />
	</node>
	<node id="-211618" lat="59.5187472239" lon="9.86420833593">
		<tag k="name" v="Borge" />
		<tag k="place" v="farm" />
		<tag k="ssr:stedsnr" v="666693" />
	</node>
	<node id="-211617" lat="59.5163305574" lon="9.85066389077">
		<tag k="name" v="Hjarnes" />
		<tag k="place" v="farm" />
		<tag k="ssr:stedsnr" v="666690" />
	</node>
	<node id="-211615" lat="59.6480694413" lon="9.74332499592">
		<tag k="name" v="Teigen" />
		<tag k="place" v="farm" />
		<tag k="ssr:stedsnr" v="666646" />
	</node>
	<node id="-213661" lat="59.5607111936" lon="9.6451818367">
		<tag k="name" v="Lauar" />
		<tag k="place" v="hamlet" />
		<tag k="ssr:stedsnr" v="587577" />
	</node>
	<node id="-211608" lat="59.6185638852" lon="9.53879999232">
		<tag k="historic" v="shieling" />
		<tag k="name" v="Blårudstulen" />
		<tag k="place" v="locality" />
		<tag k="ssr:stedsnr" v="666559" />
	</node>
	<node id="-213654" lat="59.6349611099" lon="9.64144166164">
		<tag k="name" v="Fredriksdal" />
		<tag k="place" v="farm" />
		<tag k="ssr:stedsnr" v="569982" />
	</node>
	<node id="-213653" lat="59.7171500024" lon="9.60439999489">
		<tag k="name" v="Pikerplassen" />
		<tag k="place" v="farm" />
		<tag k="ssr:stedsnr" v="569936" />
	</node>
	<node id="-213652" lat="59.7178694432" lon="9.61683611194">
		<tag k="name" v="Myra" />
		<tag k="place" v="farm" />
		<tag k="ssr:stedsnr" v="569933" />
	</node>
	<node id="-213651" lat="59.699772224" lon="9.627138889">
		<tag k="name" v="Vesle-Bever" />
		<tag k="place" v="farm" />
		<tag k="ssr:stedsnr" v="569928" />
	</node>
	<node id="-211600" lat="59.6065361088" lon="9.73519721766">
		<tag k="name" v="Landemoen" />
		<tag k="place" v="farm" />
		<tag k="ssr:stedsnr" v="666468" />
	</node>
	<node id="-213646" lat="59.5328750025" lon="9.8281388807">
		<tag k="name" v="Vettestad" />
		<tag k="place" v="farm" />
		<tag k="ssr:stedsnr" v="569804" />
	</node>
	<node id="-211591" lat="59.7211166702" lon="9.43906945257">
		<tag k="name" v="Heimstul" />
		<tag k="place" v="isolated_dwelling" />
		<tag k="ssr:stedsnr" v="666179" />
	</node>
	<node id="-211589" lat="59.4721916698" lon="9.88440834139">
		<tag k="name" v="Trengsle" />
		<tag k="place" v="isolated_dwelling" />
		<tag k="ssr:stedsnr" v="666161" />
	</node>
	<node id="-213635" lat="59.5597999971" lon="9.63151388929">
		<tag k="name" v="Kvernåsen" />
		<tag k="place" v="farm" />
		<tag k="ssr:stedsnr" v="569706" />
	</node>
	<node id="-214224" lat="59.4505472179" lon="9.66499999555">
		<tag k="name" v="Sandvikstua" />
		<tag k="place" v="isolated_dwelling" />
		<tag k="ssr:stedsnr" v="970194" />
	</node>
	<node id="-213632" lat="59.6118388899" lon="9.66606389617">
		<tag k="name" v="Myre" />
		<tag k="old_name" v="Myhre" />
		<tag k="place" v="farm" />
		<tag k="ssr:stedsnr" v="569661" />
	</node>
	<node id="-213631" lat="59.5939777735" lon="9.69266388749">
		<tag k="name" v="Rogstadåsen" />
		<tag k="place" v="farm" />
		<tag k="ssr:stedsnr" v="569658" />
	</node>
	<node id="-211582" lat="59.6743888871" lon="9.69060832713">
		<tag k="name" v="Fjerdingstadgrenda" />
		<tag k="place" v="hamlet" />
		<tag k="ssr:stedsnr" v="666100" />
	</node>
	<node id="-213128" lat="59.5043700175" lon="9.92855901147">
		<tag k="fixme" v="consider place=hamlet" />
		<tag k="name" v="Bakke" />
		<tag k="place" v="farm" />
		<tag k="ssr:stedsnr" v="306347" />
	</node>
	<node id="-213626" lat="59.6608611109" lon="9.65512223106">
		<tag k="name" v="Tislegård" />
		<tag k="place" v="farm" />
		<tag k="ssr:stedsnr" v="569585" />
	</node>
	<node id="-211571" lat="59.5822277775" lon="9.81076389632">
		<tag k="name" v="Sending" />
		<tag k="place" v="farm" />
		<tag k="ssr:stedsnr" v="448909" />
	</node>
	<node id="-211570" lat="59.5776138867" lon="9.78852499154">
		<tag k="name" v="Brekka" />
		<tag k="place" v="farm" />
		<tag k="ssr:stedsnr" v="448907" />
	</node>
	<node id="-211568" lat="59.5399305544" lon="9.82984443745">
		<tag k="name" v="Sommerstad" />
		<tag k="place" v="farm" />
		<tag k="ssr:stedsnr" v="448854" />
	</node>
	<node id="-213612" lat="59.5813212393" lon="9.63764191116">
		<tag k="fixme" v="consider place=hamlet" />
		<tag k="name" v="Kroksrud" />
		<tag k="old_name" v="Koksrud" />
		<tag k="place" v="farm" />
		<tag k="ssr:stedsnr" v="550461" />
	</node>
	<node id="-213610" lat="59.698647221" lon="9.3444305533">
		<tag k="historic" v="shieling" />
		<tag k="name" v="Ruasetra" />
		<tag k="place" v="locality" />
		<tag k="ssr:stedsnr" v="549997" />
	</node>
	<node id="-213609" lat="59.7050972184" lon="9.45675000469">
		<tag k="name" v="Myra" />
		<tag k="place" v="farm" />
		<tag k="ssr:stedsnr" v="549994" />
	</node>
	<node id="-213608" lat="59.7079416669" lon="9.52063055871">
		<tag k="name" v="Stordalen" />
		<tag k="place" v="farm" />
		<tag k="ssr:stedsnr" v="549979" />
	</node>
	<node id="-213607" lat="59.6800999988" lon="9.46412499738">
		<tag k="historic" v="shieling" />
		<tag k="name" v="Nordre Lisetra" />
		<tag k="place" v="locality" />
		<tag k="ssr:stedsnr" v="549969" />
	</node>
	<node id="-211556" lat="59.5113343873" lon="9.88040887681">
		<tag k="fixme" v="consider place=hamlet" />
		<tag k="name" v="Uleberg" />
		<tag k="place" v="farm" />
		<tag k="ssr:stedsnr" v="428314" />
	</node>
	<node id="-211555" lat="59.519758334" lon="9.86138333429">
		<tag k="name" v="Nystua" />
		<tag k="place" v="farm" />
		<tag k="ssr:stedsnr" v="428303" />
	</node>
	<node id="-211554" lat="59.5904638915" lon="9.77218054695">
		<tag k="alt_name" v="Moen" />
		<tag k="name" v="Øyenmoen" />
		<tag k="place" v="farm" />
		<tag k="ssr:stedsnr" v="428427" />
	</node>
	<node id="-211553" lat="59.5956361136" lon="9.74269999351">
		<tag k="name" v="Nedre Kjørstad" />
		<tag k="place" v="farm" />
		<tag k="ssr:stedsnr" v="428425" />
	</node>
	<node id="-211552" lat="59.5954188532" lon="9.71494623844">
		<tag k="fixme" v="consider place=hamlet" />
		<tag k="name" v="Sørby" />
		<tag k="place" v="farm" />
		<tag k="ssr:stedsnr" v="428423" />
	</node>
	<node id="-211551" lat="59.6040833294" lon="9.7026861048">
		<tag k="alt_name" v="Laugerud nedre" />
		<tag k="name" v="Nedre Lauerud" />
		<tag k="place" v="farm" />
		<tag k="ssr:stedsnr" v="428415" />
	</node>
	<node id="-213598" lat="59.6235749995" lon="9.4656999965">
		<tag k="name" v="Snekkerplassen" />
		<tag k="place" v="farm" />
		<tag k="ssr:stedsnr" v="549832" />
	</node>
	<node id="-211547" lat="59.4738250007" lon="9.95132778054">
		<tag k="historic" v="shieling" />
		<tag k="name" v="Kleppansetra" />
		<tag k="place" v="locality" />
		<tag k="ssr:stedsnr" v="427614" />
	</node>
	<node id="-211546" lat="59.4764638907" lon="9.80994444728">
		<tag k="name" v="Kolsrud" />
		<tag k="place" v="farm" />
		<tag k="ssr:stedsnr" v="427612" />
	</node>
	<node id="-211545" lat="59.6062242066" lon="9.72750407624">
		<tag k="name" v="Moen" />
		<tag k="place" v="farm" />
		<tag k="ssr:stedsnr" v="424939" />
	</node>
	<node id="-213592" lat="59.6794916701" lon="9.63152777091">
		<tag k="name" v="Skavanger" />
		<tag k="place" v="suburb" />
		<tag k="ssr:stedsnr" v="549573" />
	</node>
	<node id="-211543" lat="59.6154138862" lon="9.761161109">
		<tag k="name" v="Solli" />
		<tag k="place" v="farm" />
		<tag k="ssr:stedsnr" v="424925" />
	</node>
	<node id="-211542" lat="59.6152861128" lon="9.7767027839">
		<tag k="name" v="Øvre Dalen" />
		<tag k="place" v="farm" />
		<tag k="ssr:stedsnr" v="424922" />
	</node>
	<node id="-211541" lat="59.6026750038" lon="9.77548889226">
		<tag k="name" v="Øyen" />
		<tag k="place" v="farm" />
		<tag k="ssr:stedsnr" v="424908" />
	</node>
	<node id="-213987" lat="59.6217861155" lon="9.6690999937">
		<tag k="name" v="Haugen" />
		<tag k="place" v="farm" />
		<tag k="ssr:stedsnr" v="812705" />
	</node>
	<node id="-213587" lat="59.6196340926" lon="9.72418379352">
		<tag k="fixme" v="multiple name tags, choose one and add the other to alt_name" />
		<tag k="name" v="Såttvetåsen;Åsen" />
		<tag k="place" v="farm" />
		<tag k="ssr:stedsnr" v="549492" />
	</node>
	<node id="-213586" lat="59.6142277775" lon="9.60593888611">
		<tag k="alt_name" v="Stavsmyr" />
		<tag k="name" v="Statsmyr" />
		<tag k="place" v="farm" />
		<tag k="ssr:stedsnr" v="549478" />
	</node>
	<node id="-214115" lat="59.6144026551" lon="9.77170138958">
		<tag k="alt_name" v="Hvambsal" />
		<tag k="fixme" v="consider place=hamlet" />
		<tag k="name" v="Hvamsal" />
		<tag k="place" v="farm" />
		<tag k="ssr:stedsnr" v="853436" />
	</node>
	<node id="-211536" lat="59.5347805586" lon="9.82601943841">
		<tag k="name" v="Vettestad" />
		<tag k="place" v="farm" />
		<tag k="ssr:stedsnr" v="424622" />
	</node>
	<node id="-213583" lat="59.5933416662" lon="9.73715833679">
		<tag k="name" v="Øvre Kjørstad" />
		<tag k="place" v="farm" />
		<tag k="ssr:stedsnr" v="549439" />
	</node>
	<node id="-213582" lat="59.5960249975" lon="9.70179166904">
		<tag k="name" v="Tubbehaugen" />
		<tag k="place" v="farm" />
		<tag k="ssr:stedsnr" v="549434" />
	</node>
	<node id="-213580" lat="59.6102500616" lon="9.77626648662">
		<tag k="fixme" v="consider place=hamlet" />
		<tag k="name" v="Hvam" />
		<tag k="place" v="farm" />
		<tag k="ssr:stedsnr" v="549421" />
	</node>
	<node id="-213813" lat="59.4900166698" lon="10.0146750028">
		<tag k="name" v="Bjørkebo" />
		<tag k="place" v="isolated_dwelling" />
		<tag k="ssr:stedsnr" v="751220" />
	</node>
	<node id="-213577" lat="59.5415249965" lon="9.89455555664">
		<tag k="alt_name" v="Nystuseter" />
		<tag k="historic" v="shieling" />
		<tag k="name" v="Nystusetra" />
		<tag k="place" v="locality" />
		<tag k="ssr:stedsnr" v="549407" />
	</node>
	<node id="-213575" lat="59.5549388926" lon="9.63789444192">
		<tag k="name" v="Dusum" />
		<tag k="place" v="farm" />
		<tag k="ssr:stedsnr" v="549389" />
	</node>
	<node id="-213574" lat="59.5102249962" lon="9.84903889159">
		<tag k="name" v="Neset" />
		<tag k="place" v="farm" />
		<tag k="ssr:stedsnr" v="549354" />
	</node>
	<node id="-214113" lat="59.5363249957" lon="9.80086667118">
		<tag k="name" v="Åsen" />
		<tag k="place" v="farm" />
		<tag k="ssr:stedsnr" v="853425" />
	</node>
	<node id="-211524" lat="59.533047219" lon="9.56814445165">
		<tag k="alt_name" v="Haugsplass" />
		<tag k="historic" v="shieling" />
		<tag k="name" v="Haugplass" />
		<tag k="old_name" v="Haugplasseter" />
		<tag k="place" v="locality" />
		<tag k="ssr:stedsnr" v="424315" />
	</node>
	<node id="-213190" lat="59.5477666631" lon="9.79423888231">
		<tag k="name" v="Skogmo" />
		<tag k="place" v="farm" />
		<tag k="ssr:stedsnr" v="326921" />
	</node>
	<node id="-211522" lat="59.4475111088" lon="9.7246361192">
		<tag k="name" v="Velestua" />
		<tag k="place" v="isolated_dwelling" />
		<tag k="ssr:stedsnr" v="424127" />
	</node>
	<node id="-213569" lat="59.6726027812" lon="9.53950554898">
		<tag k="fixme" v="consider tourism=alpine_hut or tourism=chalet" />
		<tag k="name" v="Knutehytta" />
		<tag k="ssr:stedsnr" v="548903" />
		<tag k="tourism" v="wilderness_hut" />
	</node>
	<node id="-214246" lat="59.6023935682" lon="9.66865258999">
		<tag k="fixme" v="consider place=hamlet" />
		<tag k="name" v="Muggeberg" />
		<tag k="place" v="farm" />
		<tag k="ssr:stedsnr" v="1072275" />
	</node>
	<node id="-211516" lat="59.657313887" lon="9.7273249959">
		<tag k="name" v="Nygårdsplass" />
		<tag k="place" v="farm" />
		<tag k="ssr:stedsnr" v="511991" />
	</node>
	<node id="-211515" lat="59.4903666643" lon="9.7482972147">
		<tag k="fixme" v="consider tourism=alpine_hut or tourism=chalet" />
		<tag k="name" v="Darrebu" />
		<tag k="ssr:stedsnr" v="511332" />
		<tag k="tourism" v="wilderness_hut" />
	</node>
	<node id="-211514" lat="59.6216944466" lon="9.65688333702">
		<tag k="name" v="Solstad" />
		<tag k="place" v="farm" />
		<tag k="ssr:stedsnr" v="509639" />
	</node>
	<node id="-211513" lat="59.6188777812" lon="9.65171667428">
		<tag k="name" v="Tandberghaugen" />
		<tag k="place" v="farm" />
		<tag k="ssr:stedsnr" v="509638" />
	</node>
	<node id="-211512" lat="59.6142027768" lon="9.65563611219">
		<tag k="name" v="Kirkevoll" />
		<tag k="place" v="farm" />
		<tag k="ssr:stedsnr" v="509635" />
	</node>
	<node id="-211511" lat="59.5105444416" lon="9.85448610687">
		<tag k="name" v="Nymoen" />
		<tag k="place" v="farm" />
		<tag k="ssr:stedsnr" v="509753" />
	</node>
	<node id="-211510" lat="59.704655556" lon="9.60206110668">
		<tag k="alt_name" v="Moen søndre" />
		<tag k="name" v="Søndre Moen" />
		<tag k="place" v="farm" />
		<tag k="ssr:stedsnr" v="508992" />
	</node>
	<node id="-213557" lat="59.5739972261" lon="9.83620277449">
		<tag k="name" v="Finneløkka" />
		<tag k="place" v="locality" />
		<tag k="ssr:stedsnr" v="545997" />
	</node>
	<node id="-211507" lat="59.6780694487" lon="9.62224999525">
		<tag k="name" v="Futentass" />
		<tag k="place" v="farm" />
		<tag k="ssr:stedsnr" v="508966" />
	</node>
	<node id="-213553" lat="59.5915290524" lon="9.78586269613">
		<tag k="name" v="Gunnes" />
		<tag k="place" v="farm" />
		<tag k="ssr:stedsnr" v="545928" />
	</node>
	<node id="-213552" lat="59.6075749991" lon="9.76706110446">
		<tag k="name" v="Hagen" />
		<tag k="place" v="farm" />
		<tag k="ssr:stedsnr" v="545903" />
	</node>
	<node id="-211501" lat="59.5064583329" lon="9.92391944449">
		<tag k="name" v="Mellom-Bakke" />
		<tag k="place" v="farm" />
		<tag k="ssr:stedsnr" v="508837" />
	</node>
	<node id="-211500" lat="59.5038555575" lon="9.8925861151">
		<tag k="name" v="Hvål" />
		<tag k="place" v="farm" />
		<tag k="ssr:stedsnr" v="508835" />
	</node>
	<node id="-213541" lat="59.5805833371" lon="9.70269167029">
		<tag k="name" v="Skogstue" />
		<tag k="place" v="locality" />
		<tag k="ssr:stedsnr" v="545772" />
	</node>
	<node id="-213047" lat="59.5916916632" lon="9.72054443652">
		<tag k="name" v="Torstuen" />
		<tag k="place" v="farm" />
		<tag k="ssr:stedsnr" v="205885" />
	</node>
	<node id="-211485" lat="59.6234222205" lon="9.63003889579">
		<tag k="alt_name" v="Guskiste" />
		<tag k="name" v="Gudskiste" />
		<tag k="place" v="farm" />
		<tag k="ssr:stedsnr" v="508234" />
	</node>
	<node id="-211484" lat="59.6261222259" lon="9.59340000556">
		<tag k="name" v="Tonhaugen" />
		<tag k="place" v="farm" />
		<tag k="ssr:stedsnr" v="508233" />
	</node>
	<node id="-214016" lat="59.717038886" lon="9.61135000575">
		<tag k="name" v="Moen" />
		<tag k="place" v="farm" />
		<tag k="ssr:stedsnr" v="812962" />
	</node>
	<node id="-211479" lat="59.6505777791" lon="9.76668611512">
		<tag k="name" v="Eriksplass" />
		<tag k="place" v="isolated_dwelling" />
		<tag k="ssr:stedsnr" v="388516" />
	</node>
	<node id="-213526" lat="59.62481389" lon="9.54072500089">
		<tag k="historic" v="shieling" />
		<tag k="name" v="Lassedalstua" />
		<tag k="place" v="locality" />
		<tag k="ssr:stedsnr" v="545535" />
	</node>
	<node id="-211477" lat="59.5930944409" lon="9.74423055162">
		<tag k="name" v="Kastet" />
		<tag k="place" v="farm" />
		<tag k="ssr:stedsnr" v="387870" />
	</node>
	<node id="-213161" lat="59.7102972222" lon="9.58522222168">
		<tag k="alt_name" v="Hagan" />
		<tag k="name" v="Hagen" />
		<tag k="place" v="farm" />
		<tag k="ssr:stedsnr" v="306991" />
	</node>
	<node id="-213061" lat="59.5215277774" lon="9.81561111713">
		<tag k="name" v="Omholt" />
		<tag k="place" v="farm" />
		<tag k="ssr:stedsnr" v="206773" />
	</node>
	<node id="-211474" lat="59.6092777821" lon="9.71734443778">
		<tag k="name" v="Hagen" />
		<tag k="place" v="farm" />
		<tag k="ssr:stedsnr" v="387857" />
	</node>
	<node id="-213763" lat="59.5966096215" lon="9.76147591609">
		<tag k="alt_name" v="Hørtvedt" />
		<tag k="fixme" v="consider place=hamlet" />
		<tag k="name" v="Hørtvet" />
		<tag k="place" v="farm" />
		<tag k="ssr:stedsnr" v="610497" />
	</node>
	<node id="-211471" lat="59.6989111107" lon="9.64106389547">
		<tag k="name" v="Nordre Spiten" />
		<tag k="place" v="farm" />
		<tag k="ssr:stedsnr" v="387966" />
	</node>
	<node id="-213514" lat="59.59393056" lon="9.50543055935">
		<tag k="fixme" v="consider tourism=alpine_hut or tourism=chalet" />
		<tag k="name" v="Kolsjø" />
		<tag k="ssr:stedsnr" v="545229" />
		<tag k="tourism" v="wilderness_hut" />
	</node>
	<node id="-211460" lat="59.4850388848" lon="9.98556110592">
		<tag k="name" v="Rinde" />
		<tag k="place" v="farm" />
		<tag k="ssr:stedsnr" v="387213" />
	</node>
	<node id="-211459" lat="59.516683329" lon="9.84908054843">
		<tag k="name" v="Hjarnes" />
		<tag k="place" v="farm" />
		<tag k="ssr:stedsnr" v="363667" />
	</node>
	<node id="-211458" lat="59.5189499992" lon="9.81584167011">
		<tag k="name" v="Omholt" />
		<tag k="place" v="farm" />
		<tag k="ssr:stedsnr" v="363656" />
	</node>
	<node id="-213503" lat="59.7204972212" lon="9.35884444008">
		<tag k="name" v="Åshagan" />
		<tag k="place" v="isolated_dwelling" />
		<tag k="ssr:stedsnr" v="545122" />
	</node>
	<node id="-213502" lat="59.7068388901" lon="9.36913054777">
		<tag k="historic" v="shieling" />
		<tag k="name" v="Sørsetra" />
		<tag k="place" v="locality" />
		<tag k="ssr:stedsnr" v="545116" />
	</node>
	<node id="-213498" lat="59.7038833288" lon="9.44193611992">
		<tag k="name" v="Kittilsbråten" />
		<tag k="place" v="isolated_dwelling" />
		<tag k="ssr:stedsnr" v="545070" />
	</node>
	<node id="-211443" lat="59.7520361119" lon="9.36873055954">
		<tag k="name" v="Ble fjellstue" />
		<tag k="ssr:stedsnr" v="489978" />
		<tag k="tourism" v="hotel" />
	</node>
	<node id="-211442" lat="59.6079666672" lon="9.60688610806">
		<tag k="name" v="Lybek" />
		<tag k="place" v="farm" />
		<tag k="ssr:stedsnr" v="489522" />
	</node>
	<node id="-211441" lat="59.5724388897" lon="9.62617499842">
		<tag k="name" v="Flata" />
		<tag k="place" v="farm" />
		<tag k="ssr:stedsnr" v="489511" />
	</node>
	<node id="-211440" lat="59.5726277795" lon="9.62168055081">
		<tag k="name" v="Hagen" />
		<tag k="place" v="farm" />
		<tag k="ssr:stedsnr" v="489510" />
	</node>
	<node id="-211439" lat="59.5783611097" lon="9.61684999926">
		<tag k="alt_name" v="Rustandlia" />
		<tag k="name" v="Rustanlia" />
		<tag k="place" v="farm" />
		<tag k="ssr:stedsnr" v="489508" />
	</node>
	<node id="-211438" lat="59.5954000038" lon="9.86447222589">
		<tag k="historic" v="shieling" />
		<tag k="name" v="Bjerknessetra" />
		<tag k="place" v="locality" />
		<tag k="ssr:stedsnr" v="489498" />
	</node>
	<node id="-211437" lat="59.5896877682" lon="9.79932082279">
		<tag k="fixme" v="consider place=hamlet" />
		<tag k="name" v="Bjerknes" />
		<tag k="place" v="farm" />
		<tag k="ssr:stedsnr" v="489496" />
	</node>
	<node id="-211436" lat="59.5881805561" lon="9.74788332984">
		<tag k="alt_name" v="Stenbekk" />
		<tag k="name" v="Steinbekk" />
		<tag k="place" v="farm" />
		<tag k="ssr:stedsnr" v="489493" />
	</node>
	<node id="-214098" lat="59.6135222256" lon="9.76074722569">
		<tag k="name" v="Ulleberg" />
		<tag k="place" v="farm" />
		<tag k="ssr:stedsnr" v="849937" />
	</node>
	<node id="-211434" lat="59.6054245201" lon="9.65744808931">
		<tag k="fixme" v="consider place=hamlet" />
		<tag k="name" v="Brønstad" />
		<tag k="place" v="farm" />
		<tag k="ssr:stedsnr" v="489470" />
	</node>
	<node id="-211433" lat="59.6000945204" lon="9.67001439964">
		<tag k="fixme" v="consider place=hamlet" />
		<tag k="loc_name" v="Dahl" />
		<tag k="name" v="Dal" />
		<tag k="place" v="farm" />
		<tag k="ssr:stedsnr" v="489468" />
	</node>
	<node id="-211432" lat="59.5980261265" lon="9.6928118341">
		<tag k="fixme" v="consider place=hamlet" />
		<tag k="name" v="Flogeland" />
		<tag k="place" v="farm" />
		<tag k="ssr:stedsnr" v="489465" />
	</node>
	<node id="-211431" lat="59.5629361132" lon="9.87944444573">
		<tag k="historic" v="shieling" />
		<tag k="name" v="Sauarsetra" />
		<tag k="place" v="locality" />
		<tag k="ssr:stedsnr" v="489393" />
	</node>
	<node id="-211430" lat="59.6324527799" lon="9.72210833354">
		<tag k="name" v="Grosvold" />
		<tag k="place" v="farm" />
		<tag k="ssr:stedsnr" v="489018" />
	</node>
	<node id="-211427" lat="59.7151277785" lon="9.40272778174">
		<tag k="alt_name" v="Løkemoen" />
		<tag k="name" v="Løkjamoen" />
		<tag k="place" v="farm" />
		<tag k="ssr:stedsnr" v="488985" />
	</node>
	<node id="-213474" lat="59.5037821669" lon="9.51548480314">
		<tag k="historic" v="shieling" />
		<tag k="name" v="Skulsbu" />
		<tag k="place" v="locality" />
		<tag k="ssr:stedsnr" v="428693" />
	</node>
	<node id="-211425" lat="59.7170500035" lon="9.5772500021">
		<tag k="name" v="Gravningsgrend" />
		<tag k="place" v="hamlet" />
		<tag k="ssr:stedsnr" v="488978" />
	</node>
	<node id="-213470" lat="59.5443722191" lon="9.9022194465">
		<tag k="alt_name" v="Meskestadseter" />
		<tag k="historic" v="shieling" />
		<tag k="name" v="Meskestadsetra" />
		<tag k="place" v="locality" />
		<tag k="ssr:stedsnr" v="428375" />
	</node>
	<node id="-213467" lat="59.5507249971" lon="9.8698527848">
		<tag k="alt_name" v="Vinesseter" />
		<tag k="historic" v="shieling" />
		<tag k="name" v="Vinessetra" />
		<tag k="place" v="locality" />
		<tag k="ssr:stedsnr" v="428367" />
	</node>
	<node id="-213466" lat="59.5420076001" lon="9.82627752619">
		<tag k="fixme" v="consider place=hamlet" />
		<tag k="name" v="Sommerstad" />
		<tag k="place" v="farm" />
		<tag k="ssr:stedsnr" v="428365" />
	</node>
	<node id="-213465" lat="59.5532999976" lon="9.60169166234">
		<tag k="name" v="Bakken" />
		<tag k="place" v="farm" />
		<tag k="ssr:stedsnr" v="428357" />
	</node>
	<node id="-213464" lat="59.5566277768" lon="9.61601110842">
		<tag k="alt_name" v="Lindås nordre" />
		<tag k="name" v="Nordre Lindås" />
		<tag k="place" v="farm" />
		<tag k="ssr:stedsnr" v="428353" />
	</node>
	<node id="-211415" lat="59.5377750007" lon="9.568975005">
		<tag k="alt_name" v="Rajehytta" />
		<tag k="name" v="Rajesetra" />
		<tag k="place" v="locality" />
		<tag k="ssr:stedsnr" v="488737" />
	</node>
	<node id="-213462" lat="59.617249874" lon="9.70885257692">
		<tag k="fixme" v="consider place=hamlet" />
		<tag k="name" v="Tofstad" />
		<tag k="place" v="farm" />
		<tag k="ssr:stedsnr" v="428476" />
	</node>
	<node id="-211705" lat="59.6083865668" lon="9.71239354487">
		<tag k="fixme" v="consider place=hamlet" />
		<tag k="name" v="Hagen" />
		<tag k="place" v="farm" />
		<tag k="ssr:stedsnr" v="671509" />
	</node>
	<node id="-211411" lat="59.4688416638" lon="9.8143444499">
		<tag k="name" v="Godli" />
		<tag k="place" v="farm" />
		<tag k="ssr:stedsnr" v="488581" />
	</node>
	<node id="-213809" lat="59.6744805571" lon="9.69105832696">
		<tag k="name" v="Bekken" />
		<tag k="place" v="farm" />
		<tag k="ssr:stedsnr" v="751571" />
	</node>
	<node id="-211409" lat="59.4913611148" lon="9.84311111153">
		<tag k="historic" v="shieling" />
		<tag k="name" v="Rønningsetra" />
		<tag k="place" v="locality" />
		<tag k="ssr:stedsnr" v="488576" />
	</node>
	<node id="-211408" lat="59.4972960811" lon="9.91014320486">
		<tag k="fixme" v="consider place=hamlet" />
		<tag k="name" v="Djupedal" />
		<tag k="place" v="farm" />
		<tag k="ssr:stedsnr" v="488573" />
	</node>
	<node id="-211407" lat="59.4991508522" lon="9.91816756429">
		<tag k="fixme" v="consider place=hamlet" />
		<tag k="name" v="Eknes" />
		<tag k="place" v="farm" />
		<tag k="ssr:stedsnr" v="488572" />
	</node>
	<node id="-211405" lat="59.4864138932" lon="9.85379445319">
		<tag k="historic" v="shieling" />
		<tag k="name" v="Ånnestadsetra" />
		<tag k="place" v="locality" />
		<tag k="ssr:stedsnr" v="488556" />
	</node>
	<node id="-211404" lat="59.4834027781" lon="9.89854443977">
		<tag k="historic" v="shieling" />
		<tag k="name" v="Eknessetra" />
		<tag k="place" v="locality" />
		<tag k="ssr:stedsnr" v="488555" />
	</node>
	<node id="-213195" lat="59.7088777766" lon="9.61396944909">
		<tag k="name" v="Skriverplassen" />
		<tag k="place" v="farm" />
		<tag k="ssr:stedsnr" v="326956" />
	</node>
	<node id="-211401" lat="59.5280876587" lon="9.80897100688">
		<tag k="name" v="Åsland" />
		<tag k="place" v="farm" />
		<tag k="ssr:stedsnr" v="488412" />
	</node>
	<node id="-213443" lat="59.5609138929" lon="9.80868054917">
		<tag k="name" v="Hov" />
		<tag k="place" v="farm" />
		<tag k="ssr:stedsnr" v="424815" />
	</node>
	<node id="-213442" lat="59.5898111135" lon="9.72153055365">
		<tag k="name" v="Bråten" />
		<tag k="place" v="farm" />
		<tag k="ssr:stedsnr" v="424801" />
	</node>
	<node id="-211393" lat="59.5035166708" lon="9.87388056108">
		<tag k="name" v="Haugen" />
		<tag k="place" v="farm" />
		<tag k="ssr:stedsnr" v="488328" />
	</node>
	<node id="-211392" lat="59.5121199021" lon="9.89267468677">
		<tag k="fixme" v="consider place=hamlet" />
		<tag k="name" v="Tveiten" />
		<tag k="place" v="farm" />
		<tag k="ssr:stedsnr" v="488306" />
	</node>
	<node id="-213986" lat="59.6099499964" lon="9.6696138838">
		<tag k="name" v="Tveita" />
		<tag k="place" v="farm" />
		<tag k="ssr:stedsnr" v="812684" />
	</node>
	<node id="-213437" lat="59.5745083295" lon="9.81185833154">
		<tag k="name" v="Øvre Sending" />
		<tag k="place" v="farm" />
		<tag k="ssr:stedsnr" v="424734" />
	</node>
	<node id="-211388" lat="59.4927055544" lon="10.0042333284">
		<tag k="name" v="Myra" />
		<tag k="place" v="farm" />
		<tag k="ssr:stedsnr" v="488061" />
	</node>
	<node id="-211386" lat="59.493655556" lon="9.75091388489">
		<tag k="historic" v="shieling" />
		<tag k="name" v="Omholtsetra" />
		<tag k="place" v="locality" />
		<tag k="ssr:stedsnr" v="487631" />
	</node>
	<node id="-213431" lat="59.4156861113" lon="9.70261943846">
		<tag k="name" v="Bergmo" />
		<tag k="place" v="isolated_dwelling" />
		<tag k="ssr:stedsnr" v="424589" />
	</node>
	<node id="-211378" lat="59.6142749958" lon="9.77013889097">
		<tag k="alt_name" v="Hvambsal" />
		<tag k="name" v="Hvamsal" />
		<tag k="place" v="farm" />
		<tag k="ssr:stedsnr" v="484932" />
	</node>
	<node id="-213425" lat="59.5120305532" lon="9.86398333937">
		<tag k="name" v="Gran" />
		<tag k="place" v="farm" />
		<tag k="ssr:stedsnr" v="424561" />
	</node>
	<node id="-211376" lat="59.6163583302" lon="9.72454721724">
		<tag k="alt_name" v="Såtvedt" />
		<tag k="name" v="Øvre Såttvet" />
		<tag k="place" v="farm" />
		<tag k="ssr:stedsnr" v="484902" />
	</node>
	<node id="-213423" lat="59.6197083372" lon="9.53782500855">
		<tag k="historic" v="shieling" />
		<tag k="name" v="Spærseter" />
		<tag k="place" v="locality" />
		<tag k="ssr:stedsnr" v="424553" />
	</node>
	<node id="-213418" lat="59.5049055556" lon="9.78170833167">
		<tag k="name" v="Åmot" />
		<tag k="place" v="isolated_dwelling" />
		<tag k="ssr:stedsnr" v="424385" />
	</node>
	<node id="-213410" lat="59.5516888929" lon="9.66062222847">
		<tag k="name" v="Krona" />
		<tag k="place" v="isolated_dwelling" />
		<tag k="ssr:stedsnr" v="424298" />
	</node>
	<node id="-211358" lat="59.4169111136" lon="9.70218611637">
		<tag k="name" v="Skogstue" />
		<tag k="place" v="isolated_dwelling" />
		<tag k="ssr:stedsnr" v="484599" />
	</node>
	<node id="-211357" lat="59.432408337" lon="9.69254723041">
		<tag k="name" v="Bomhus" />
		<tag k="place" v="isolated_dwelling" />
		<tag k="ssr:stedsnr" v="484597" />
	</node>
	<node id="-211351" lat="59.4875805556" lon="9.93416389001">
		<tag k="name" v="Skoli" />
		<tag k="place" v="farm" />
		<tag k="ssr:stedsnr" v="484414" />
	</node>
	<node id="-211349" lat="59.49858889" lon="9.79742222686">
		<tag k="name" v="Siljanplass" />
		<tag k="place" v="isolated_dwelling" />
		<tag k="ssr:stedsnr" v="484384" />
	</node>
	<node id="-213742" lat="59.630247224" lon="9.49529721826">
		<tag k="name" v="Bråten" />
		<tag k="place" v="farm" />
		<tag k="ssr:stedsnr" v="609835" />
	</node>
	<node id="-213393" lat="59.6913888857" lon="9.40970833627">
		<tag k="name" v="Baklifjellbrakka" />
		<tag k="place" v="isolated_dwelling" />
		<tag k="ssr:stedsnr" v="424062" />
	</node>
	<node id="-211343" lat="59.7025944433" lon="9.51941111184">
		<tag k="name" v="Nedre Lien" />
		<tag k="place" v="farm" />
		<tag k="ssr:stedsnr" v="484051" />
	</node>
	<node id="-213741" lat="59.7024555553" lon="9.46576388492">
		<tag k="alt_name" v="Mosestuen" />
		<tag k="name" v="Mosestua" />
		<tag k="place" v="isolated_dwelling" />
		<tag k="ssr:stedsnr" v="609995" />
	</node>
	<node id="-211010" lat="59.6404888876" lon="9.49913610228">
		<tag k="name" v="Brånabekk" />
		<tag k="place" v="isolated_dwelling" />
		<tag k="ssr:stedsnr" v="245896" />
	</node>
	<node id="-211338" lat="59.6214611102" lon="9.65410278603">
		<tag k="name" v="Uslerbakken" />
		<tag k="place" v="farm" />
		<tag k="ssr:stedsnr" v="484127" />
	</node>
	<node id="-213481" lat="59.6907000014" lon="9.39137500294">
		<tag k="historic" v="shieling" />
		<tag k="name" v="Baklisetra" />
		<tag k="place" v="locality" />
		<tag k="ssr:stedsnr" v="428941" />
	</node>
	<node id="-213383" lat="59.705538892" lon="9.55689999781">
		<tag k="name" v="Nedre Brumyr" />
		<tag k="place" v="farm" />
		<tag k="ssr:stedsnr" v="424037" />
	</node>
	<node id="-211329" lat="59.7448749998" lon="9.39783888999">
		<tag k="name" v="Bjønnedalen" />
		<tag k="place" v="isolated_dwelling" />
		<tag k="ssr:stedsnr" v="479448" />
	</node>
	<node id="-211328" lat="59.7503972222" lon="9.39733333693">
		<tag k="name" v="Sandkvila" />
		<tag k="place" v="isolated_dwelling" />
		<tag k="ssr:stedsnr" v="479444" />
	</node>
	<node id="-214080" lat="59.5217305559" lon="9.81207221669">
		<tag k="name" v="Omholt" />
		<tag k="place" v="farm" />
		<tag k="ssr:stedsnr" v="849606" />
	</node>
	<node id="-211325" lat="59.5913444472" lon="9.76933055525">
		<tag k="name" v="Skarplass" />
		<tag k="place" v="farm" />
		<tag k="ssr:stedsnr" v="326903" />
	</node>
	<node id="-213370" lat="59.7165444467" lon="9.58473055084">
		<tag k="alt_name" v="Stordalen Søndre" />
		<tag k="name" v="Søndre Stordalen" />
		<tag k="place" v="farm" />
		<tag k="ssr:stedsnr" v="387997" />
	</node>
	<node id="-213369" lat="59.7055111156" lon="9.59837777007">
		<tag k="alt_name" v="Moen nordre" />
		<tag k="name" v="Nordre Moen" />
		<tag k="place" v="farm" />
		<tag k="ssr:stedsnr" v="387988" />
	</node>
	<node id="-211319" lat="59.5588666709" lon="9.61812500541">
		<tag k="name" v="Rolfsbråten" />
		<tag k="place" v="farm" />
		<tag k="ssr:stedsnr" v="326738" />
	</node>
	<node id="-211317" lat="59.6587388886" lon="9.65443888324">
		<tag k="name" v="Fossan" />
		<tag k="place" v="farm" />
		<tag k="ssr:stedsnr" v="326627" />
	</node>
	<node id="-213588" lat="59.6276571634" lon="9.67205694634">
		<tag k="fixme" v="consider place=hamlet" />
		<tag k="name" v="Laugerud" />
		<tag k="place" v="farm" />
		<tag k="ssr:stedsnr" v="549510" />
	</node>
	<node id="-211314" lat="59.7297222232" lon="9.34875277517">
		<tag k="name" v="Moen" />
		<tag k="place" v="farm" />
		<tag k="ssr:stedsnr" v="306428" />
	</node>
	<node id="-213361" lat="59.5240777747" lon="9.90296111012">
		<tag k="name" v="Fremre Tveitsetra" />
		<tag k="place" v="locality" />
		<tag k="ssr:stedsnr" v="387737" />
	</node>
	<node id="-214112" lat="59.5327638852" lon="9.595836103">
		<tag k="historic" v="shieling" />
		<tag k="name" v="Bakvendtsetra" />
		<tag k="place" v="locality" />
		<tag k="ssr:stedsnr" v="853420" />
	</node>
	<node id="-213359" lat="59.5814083367" lon="9.62562221416">
		<tag k="name" v="Bråtan" />
		<tag k="place" v="farm" />
		<tag k="ssr:stedsnr" v="387381" />
	</node>
	<node id="-213356" lat="59.62281389" lon="9.69260000116">
		<tag k="name" v="Briskehaugen" />
		<tag k="place" v="farm" />
		<tag k="ssr:stedsnr" v="387674" />
	</node>
	<node id="-211307" lat="59.6432694466" lon="9.73105276962">
		<tag k="name" v="Brenne" />
		<tag k="place" v="farm" />
		<tag k="ssr:stedsnr" v="303676" />
	</node>
	<node id="-213352" lat="59.6201777793" lon="9.62381110416">
		<tag k="name" v="Mellemåsen" />
		<tag k="place" v="farm" />
		<tag k="ssr:stedsnr" v="387246" />
	</node>
	<node id="-213351" lat="59.6218027814" lon="9.68552222067">
		<tag k="fixme" v="consider place=suburb, village or hamlet" />
		<tag k="name" v="Rudsmoen" />
		<tag k="place" v="quarter" />
		<tag k="ssr:stedsnr" v="385963" />
	</node>
	<node id="-213350" lat="59.5760666633" lon="9.64921667461">
		<tag k="name" v="Åsen" />
		<tag k="place" v="farm" />
		<tag k="ssr:stedsnr" v="368528" />
	</node>
	<node id="-213349" lat="59.575609587" lon="9.63377764002">
		<tag k="fixme" v="consider place=hamlet" />
		<tag k="name" v="Muggerud" />
		<tag k="place" v="farm" />
		<tag k="ssr:stedsnr" v="368525" />
	</node>
	<node id="-213348" lat="59.5829138859" lon="9.79811944174">
		<tag k="name" v="Åsmundrud" />
		<tag k="place" v="farm" />
		<tag k="ssr:stedsnr" v="368518" />
	</node>
	<node id="-213347" lat="59.5635361141" lon="9.6148583253">
		<tag k="name" v="Brekkene" />
		<tag k="place" v="farm" />
		<tag k="ssr:stedsnr" v="368402" />
	</node>
	<node id="-213346" lat="59.7033805533" lon="9.50438888396">
		<tag k="name" v="Bråten" />
		<tag k="place" v="farm" />
		<tag k="ssr:stedsnr" v="367994" />
	</node>
	<node id="-213345" lat="59.7003948129" lon="9.48136498033">
		<tag k="name" v="Elveseter" />
		<tag k="place" v="farm" />
		<tag k="ssr:stedsnr" v="367991" />
	</node>
	<node id="-213344" lat="59.7098222221" lon="9.55475000142">
		<tag k="name" v="Bakken" />
		<tag k="place" v="farm" />
		<tag k="ssr:stedsnr" v="367988" />
	</node>
	<node id="-213343" lat="59.7090055538" lon="9.53590000179">
		<tag k="name" v="Jondalen" />
		<tag k="place" v="farm" />
		<tag k="ssr:stedsnr" v="367972" />
	</node>
	<node id="-211293" lat="59.5590472188" lon="9.81736111334">
		<tag k="name" v="Skullestadplass" />
		<tag k="place" v="locality" />
		<tag k="ssr:stedsnr" v="302768" />
	</node>
	<node id="-213337" lat="59.7045472181" lon="9.52857499391">
		<tag k="alt_name" v="Dunserud" />
		<tag k="name" v="Dunsrud" />
		<tag k="place" v="farm" />
		<tag k="ssr:stedsnr" v="367939" />
	</node>
	<node id="-213336" lat="59.6993766382" lon="9.52107463652">
		<tag k="alt_name" v="Lien" />
		<tag k="fixme" v="consider place=hamlet" />
		<tag k="name" v="Lia" />
		<tag k="place" v="farm" />
		<tag k="ssr:stedsnr" v="367933" />
	</node>
	<node id="-213331" lat="59.5266055531" lon="9.97674443843">
		<tag k="name" v="Pyttestua" />
		<tag k="place" v="isolated_dwelling" />
		<tag k="ssr:stedsnr" v="367863" />
	</node>
	<node id="-213330" lat="59.6190166672" lon="9.46262221904">
		<tag k="name" v="Veamyr" />
		<tag k="place" v="farm" />
		<tag k="ssr:stedsnr" v="367859" />
	</node>
	<node id="-213329" lat="59.6326722235" lon="9.55157221694">
		<tag k="loc_name" v="Brath" />
		<tag k="name" v="Bratt" />
		<tag k="place" v="farm" />
		<tag k="ssr:stedsnr" v="367842" />
	</node>
	<node id="-211279" lat="59.4242583355" lon="9.7675111141">
		<tag k="name" v="Saksdalseter" />
		<tag k="place" v="locality" />
		<tag k="ssr:stedsnr" v="302125" />
	</node>
	<node id="-211278" lat="59.7390138897" lon="9.37807499671">
		<tag k="name" v="Øvre Lillebuen" />
		<tag k="place" v="farm" />
		<tag k="ssr:stedsnr" v="302220" />
	</node>
	<node id="-212365" lat="59.6248940422" lon="9.71551237169">
		<tag k="fixme" v="consider place=hamlet" />
		<tag k="name" v="Verp" />
		<tag k="place" v="farm" />
		<tag k="ssr:stedsnr" v="913504" />
	</node>
	<node id="-211276" lat="59.7054444463" lon="9.54497500178">
		<tag k="name" v="Tangen" />
		<tag k="place" v="isolated_dwelling" />
		<tag k="ssr:stedsnr" v="302068" />
	</node>
	<node id="-213323" lat="59.5222472249" lon="9.55732222065">
		<tag k="name" v="Bustul" />
		<tag k="place" v="isolated_dwelling" />
		<tag k="ssr:stedsnr" v="367717" />
	</node>
	<node id="-211274" lat="59.6771194471" lon="9.47910277902">
		<tag k="historic" v="shieling" />
		<tag k="name" v="Sydsetrene" />
		<tag k="place" v="locality" />
		<tag k="ssr:stedsnr" v="302064" />
	</node>
	<node id="-213321" lat="59.7038694436" lon="9.63303055616">
		<tag k="name" v="Myra" />
		<tag k="place" v="farm" />
		<tag k="ssr:stedsnr" v="367608" />
	</node>
	<node id="-213320" lat="59.6780888925" lon="9.62170000718">
		<tag k="name" v="Bryn" />
		<tag k="place" v="farm" />
		<tag k="ssr:stedsnr" v="367536" />
	</node>
	<node id="-213319" lat="59.6745055573" lon="9.68646944751">
		<tag k="name" v="Haugen" />
		<tag k="place" v="farm" />
		<tag k="ssr:stedsnr" v="367530" />
	</node>
	<node id="-211270" lat="59.463131687" lon="9.59173951097">
		<tag k="fixme" v="consider place=hamlet" />
		<tag k="name" v="Hoppestul" />
		<tag k="old_name" v="Hobbelstad" />
		<tag k="place" v="farm" />
		<tag k="ssr:stedsnr" v="466032" />
	</node>
	<node id="-213317" lat="59.6558166692" lon="9.75290277715">
		<tag k="name" v="Nordre Hassel" />
		<tag k="place" v="farm" />
		<tag k="ssr:stedsnr" v="367502" />
	</node>
	<node id="-213316" lat="59.6445388911" lon="9.65701388049">
		<tag k="name" v="Gomsrud" />
		<tag k="place" v="farm" />
		<tag k="ssr:stedsnr" v="367499" />
	</node>
	<node id="-213312" lat="59.6225027818" lon="9.62104444406">
		<tag k="name" v="Vadet" />
		<tag k="place" v="farm" />
		<tag k="ssr:stedsnr" v="367452" />
	</node>
	<node id="-213311" lat="59.6160291281" lon="9.60904305764">
		<tag k="name" v="Ormåsen" />
		<tag k="place" v="farm" />
		<tag k="ssr:stedsnr" v="367450" />
	</node>
	<node id="-213310" lat="59.6158660536" lon="9.7279919735">
		<tag k="name" v="Såttvet" />
		<tag k="place" v="hamlet" />
		<tag k="ssr:stedsnr" v="367441" />
	</node>
	<node id="-213309" lat="59.611627227" lon="9.73394654827">
		<tag k="fixme" v="consider place=hamlet" />
		<tag k="name" v="Åsterud" />
		<tag k="place" v="farm" />
		<tag k="ssr:stedsnr" v="367434" />
	</node>
	<node id="-213308" lat="59.5924162368" lon="9.74961041155">
		<tag k="fixme" v="consider place=hamlet" />
		<tag k="name" v="Hvåla" />
		<tag k="old_name" v="Wåla" />
		<tag k="place" v="farm" />
		<tag k="ssr:stedsnr" v="367397" />
	</node>
	<node id="-211259" lat="59.6205083364" lon="9.6576472253">
		<tag k="name" v="Lysemyra" />
		<tag k="place" v="farm" />
		<tag k="ssr:stedsnr" v="449656" />
	</node>
	<node id="-213306" lat="59.5898929275" lon="9.65871925735">
		<tag k="fixme" v="consider place=hamlet" />
		<tag k="name" v="Hillestad" />
		<tag k="place" v="farm" />
		<tag k="ssr:stedsnr" v="367389" />
	</node>
	<node id="-211257" lat="59.6361388913" lon="9.79476943645">
		<tag k="name" v="Inntaket" />
		<tag k="place" v="isolated_dwelling" />
		<tag k="ssr:stedsnr" v="449542" />
	</node>
	<node id="-211256" lat="59.7190499971" lon="9.58318889292">
		<tag k="alt_name" v="Stordalen nordre" />
		<tag k="name" v="Nordre Stordalen" />
		<tag k="place" v="farm" />
		<tag k="ssr:stedsnr" v="448997" />
	</node>
	<node id="-211253" lat="59.6885416637" lon="9.60602777676">
		<tag k="alt_name" v="Roa øvre" />
		<tag k="name" v="Øvre Roa" />
		<tag k="place" v="farm" />
		<tag k="ssr:stedsnr" v="448964" />
	</node>
	<node id="-211252" lat="59.7148027776" lon="9.62455833474">
		<tag k="alt_name" v="Hugsted nordre" />
		<tag k="name" v="Nordre Hugsted" />
		<tag k="place" v="farm" />
		<tag k="ssr:stedsnr" v="448963" />
	</node>
	<node id="-211251" lat="59.6834027818" lon="9.62753333921">
		<tag k="name" v="Dyrgrav" />
		<tag k="place" v="neighbourhood" />
		<tag k="ssr:stedsnr" v="448944" />
	</node>
	<node id="-213298" lat="59.5097611108" lon="9.86563610902">
		<tag k="name" v="Støa" />
		<tag k="place" v="farm" />
		<tag k="ssr:stedsnr" v="367279" />
	</node>
	<node id="-211249" lat="59.4960416697" lon="9.99126110602">
		<tag k="name" v="Store Gravdal" />
		<tag k="place" v="farm" />
		<tag k="ssr:stedsnr" v="448797" />
	</node>
	<node id="-213295" lat="59.509969446" lon="9.76309165838">
		<tag k="historic" v="shieling" />
		<tag k="name" v="Vettestadsetra" />
		<tag k="place" v="locality" />
		<tag k="ssr:stedsnr" v="367263" />
	</node>
	<node id="-213294" lat="59.5114055523" lon="9.82963055861">
		<tag k="alt_name" v="Kvernerud" />
		<tag k="name" v="Kvernrud" />
		<tag k="place" v="farm" />
		<tag k="ssr:stedsnr" v="367262" />
	</node>
	<node id="-211677" lat="59.6964583332" lon="9.59669999891">
		<tag k="name" v="Småland" />
		<tag k="place" v="farm" />
		<tag k="ssr:stedsnr" v="670595" />
	</node>
	<node id="-213292" lat="59.706822224" lon="9.43632221704">
		<tag k="name" v="Narverud" />
		<tag k="place" v="farm" />
		<tag k="ssr:stedsnr" v="366970" />
	</node>
	<node id="-213290" lat="59.4678527782" lon="9.83570832892">
		<tag k="alt_name" v="Firingplassen" />
		<tag k="name" v="Firingsplassen" />
		<tag k="place" v="farm" />
		<tag k="ssr:stedsnr" v="366607" />
	</node>
	<node id="-211240" lat="59.5541666645" lon="9.60959166215">
		<tag k="alt_name" v="Olledalen øvre" />
		<tag k="name" v="Øvre Olledalen" />
		<tag k="place" v="farm" />
		<tag k="ssr:stedsnr" v="448744" />
	</node>
	<node id="-211237" lat="59.6561222207" lon="9.64576388737">
		<tag k="building" v="industrial" />
		<tag k="industrial" v="factory" />
		<tag k="name" v="Kongsberg våpenfabrikk" />
		<tag k="ssr:stedsnr" v="448559" />
	</node>
	<node id="-211236" lat="59.5720194401" lon="9.62894444982">
		<tag k="name" v="Kvernstuen" />
		<tag k="place" v="farm" />
		<tag k="ssr:stedsnr" v="448396" />
	</node>
	<node id="-213282" lat="59.501615552" lon="9.89339845588">
		<tag k="fixme" v="consider place=hamlet" />
		<tag k="name" v="Hvål" />
		<tag k="place" v="farm" />
		<tag k="ssr:stedsnr" v="366358" />
	</node>
	<node id="-213281" lat="59.5046448967" lon="9.8505772376">
		<tag k="fixme" v="consider place=hamlet" />
		<tag k="name" v="Røsholt" />
		<tag k="place" v="farm" />
		<tag k="ssr:stedsnr" v="366339" />
	</node>
	<node id="-213280" lat="59.5031111068" lon="9.85898610906">
		<tag k="alt_name" v="Søndre Ånnestad" />
		<tag k="name" v="Øvre Ånnestad" />
		<tag k="place" v="farm" />
		<tag k="ssr:stedsnr" v="366337" />
	</node>
	<node id="-213276" lat="59.5881972205" lon="9.79531111605">
		<tag k="name" v="Bjerknes" />
		<tag k="place" v="farm" />
		<tag k="ssr:stedsnr" v="363999" />
	</node>
	<node id="-211227" lat="59.4810416632" lon="10.028727777">
		<tag k="name" v="Søndre Vesetrud" />
		<tag k="place" v="farm" />
		<tag k="ssr:stedsnr" v="448199" />
	</node>
	<node id="-213274" lat="59.6023166678" lon="9.75702221539">
		<tag k="alt_name" v="Hostvedt" />
		<tag k="name" v="Vestre Hostvet" />
		<tag k="place" v="farm" />
		<tag k="ssr:stedsnr" v="363952" />
	</node>
	<node id="-211224" lat="59.4888083357" lon="9.99597499803">
		<tag k="name" v="Evju" />
		<tag k="place" v="farm" />
		<tag k="ssr:stedsnr" v="448217" />
	</node>
	<node id="-213271" lat="59.5991499957" lon="9.79170832451">
		<tag k="name" v="Haugnes" />
		<tag k="place" v="farm" />
		<tag k="ssr:stedsnr" v="363894" />
	</node>
	<node id="-211221" lat="59.4877249959" lon="9.96237778112">
		<tag k="name" v="Hegna" />
		<tag k="place" v="farm" />
		<tag k="ssr:stedsnr" v="245553" />
	</node>
	<node id="-213038" lat="59.5508527753" lon="9.59901388185">
		<tag k="name" v="Løkka" />
		<tag k="place" v="farm" />
		<tag k="ssr:stedsnr" v="205757" />
	</node>
	<node id="-213265" lat="59.5363972188" lon="9.95156945256">
		<tag k="name" v="Oset" />
		<tag k="place" v="isolated_dwelling" />
		<tag k="ssr:stedsnr" v="363839" />
	</node>
	<node id="-211212" lat="59.6100174971" lon="9.7763581629">
		<tag k="alt_name" v="Hvamb" />
		<tag k="name" v="Hvam" />
		<tag k="place" v="farm" />
		<tag k="ssr:stedsnr" v="242908" />
	</node>
	<node id="-213257" lat="59.6531194445" lon="9.73321666921">
		<tag k="name" v="Rud" />
		<tag k="place" v="farm" />
		<tag k="ssr:stedsnr" v="363616" />
	</node>
	<node id="-213562" lat="59.4892256173" lon="9.93106327569">
		<tag k="fixme" v="consider place=hamlet" />
		<tag k="name" v="Skoli" />
		<tag k="place" v="farm" />
		<tag k="ssr:stedsnr" v="548576" />
	</node>
	<node id="-213734" lat="59.6463527779" lon="9.75144999788">
		<tag k="name" v="Teigsplass" />
		<tag k="place" v="farm" />
		<tag k="ssr:stedsnr" v="609531" />
	</node>
	<node id="-211670" lat="59.4910888897" lon="9.9548500022">
		<tag k="name" v="Jordet" />
		<tag k="place" v="farm" />
		<tag k="ssr:stedsnr" v="670528" />
	</node>
	<node id="-213461" lat="59.6096055515" lon="9.68516388235">
		<tag k="name" v="Odden" />
		<tag k="place" v="farm" />
		<tag k="ssr:stedsnr" v="428463" />
	</node>
	<node id="-213485" lat="59.5754643931" lon="9.80893742608">
		<tag k="alt_name" v="Sending" />
		<tag k="fixme" v="consider place=hamlet" />
		<tag k="name" v="Senning" />
		<tag k="old_name" v="Senneng" />
		<tag k="place" v="farm" />
		<tag k="ssr:stedsnr" v="429474" />
	</node>
	<node id="-213240" lat="59.5661249958" lon="9.80110833563">
		<tag k="name" v="Åker" />
		<tag k="place" v="farm" />
		<tag k="ssr:stedsnr" v="363795" />
	</node>
	<node id="-213256" lat="59.6458333291" lon="9.73859443697">
		<tag k="name" v="Haugan" />
		<tag k="place" v="farm" />
		<tag k="ssr:stedsnr" v="363608" />
	</node>
	<node id="-211181" lat="59.6274416699" lon="9.49364167019">
		<tag k="name" v="Messingborg" />
		<tag k="place" v="isolated_dwelling" />
		<tag k="ssr:stedsnr" v="241555" />
	</node>
	<node id="-211179" lat="59.4840611088" lon="9.98313056214">
		<tag k="name" v="Øvre Eid" />
		<tag k="place" v="farm" />
		<tag k="ssr:stedsnr" v="241376" />
	</node>
	<node id="-211176" lat="59.4823388895" lon="10.0362222188">
		<tag k="name" v="Vesetrud" />
		<tag k="place" v="farm" />
		<tag k="ssr:stedsnr" v="241274" />
	</node>
	<node id="-213223" lat="59.479841663" lon="9.9159444373">
		<tag k="name" v="Gamlestul" />
		<tag k="place" v="locality" />
		<tag k="ssr:stedsnr" v="363129" />
	</node>
	<node id="-213051" lat="59.68972222" lon="9.63059722478">
		<tag k="name" v="Dildok" />
		<tag k="place" v="farm" />
		<tag k="ssr:stedsnr" v="205938" />
	</node>
	<node id="-213221" lat="59.4728444428" lon="9.93411111946">
		<tag k="historic" v="shieling" />
		<tag k="name" v="Stallen" />
		<tag k="place" v="locality" />
		<tag k="ssr:stedsnr" v="363122" />
	</node>
	<node id="-211166" lat="59.7497333329" lon="9.38818055577">
		<tag k="name" v="Slåtta" />
		<tag k="place" v="isolated_dwelling" />
		<tag k="ssr:stedsnr" v="298423" />
	</node>
	<node id="-213213" lat="59.7002111119" lon="9.51150277749">
		<tag k="name" v="Vetterud" />
		<tag k="place" v="farm" />
		<tag k="ssr:stedsnr" v="363064" />
	</node>
	<node id="-213212" lat="59.7045138922" lon="9.51329166554">
		<tag k="name" v="Bråten" />
		<tag k="place" v="farm" />
		<tag k="ssr:stedsnr" v="363059" />
	</node>
	<node id="-213210" lat="59.7465138906" lon="9.40196666004">
		<tag k="name" v="Lisetra" />
		<tag k="place" v="isolated_dwelling" />
		<tag k="ssr:stedsnr" v="358435" />
	</node>
	<node id="-211159" lat="59.4933225464" lon="10.0208614233">
		<tag k="fixme" v="consider place=hamlet" />
		<tag k="name" v="Tuft" />
		<tag k="place" v="farm" />
		<tag k="ssr:stedsnr" v="184037" />
	</node>
	<node id="-211158" lat="59.4764550118" lon="10.0114613315">
		<tag k="fixme" v="consider place=hamlet" />
		<tag k="name" v="Foss" />
		<tag k="place" v="farm" />
		<tag k="ssr:stedsnr" v="184018" />
	</node>
	<node id="-211155" lat="59.4846583339" lon="9.97892777805">
		<tag k="name" v="Nordre Eid" />
		<tag k="place" v="farm" />
		<tag k="ssr:stedsnr" v="181371" />
	</node>
	<node id="-213202" lat="59.7065861155" lon="9.59224166928">
		<tag k="name" v="Elvehøy" />
		<tag k="place" v="farm" />
		<tag k="ssr:stedsnr" v="326987" />
	</node>
	<node id="-211550" lat="59.6060138888" lon="9.64272500004">
		<tag k="name" v="Åsen" />
		<tag k="place" v="farm" />
		<tag k="ssr:stedsnr" v="428404" />
	</node>
	<node id="-213199" lat="59.6147611141" lon="9.72951110263">
		<tag k="alt_name" v="Såtvedt" />
		<tag k="name" v="Såttvet" />
		<tag k="place" v="farm" />
		<tag k="ssr:stedsnr" v="326853" />
	</node>
	<node id="-213198" lat="59.552313892" lon="9.78629166921">
		<tag k="name" v="Nordre Lindem" />
		<tag k="place" v="farm" />
		<tag k="ssr:stedsnr" v="326846" />
	</node>
	<node id="-213197" lat="59.500297222" lon="9.8919611191">
		<tag k="name" v="Tajet" />
		<tag k="place" v="isolated_dwelling" />
		<tag k="ssr:stedsnr" v="326827" />
	</node>
	<node id="-213196" lat="59.7123555588" lon="9.62291389689">
		<tag k="name" v="Larsplassen" />
		<tag k="place" v="isolated_dwelling" />
		<tag k="ssr:stedsnr" v="326962" />
	</node>
	<node id="-211147" lat="59.491011111" lon="9.80428888848">
		<tag k="historic" v="shieling" />
		<tag k="name" v="Nedre Hjarnessetra" />
		<tag k="place" v="locality" />
		<tag k="ssr:stedsnr" v="181420" />
	</node>
	<node id="-211142" lat="59.6168583308" lon="9.608375008">
		<tag k="name" v="Skogly" />
		<tag k="place" v="farm" />
		<tag k="ssr:stedsnr" v="181123" />
	</node>
	<node id="-213189" lat="59.5296388856" lon="9.80899165901">
		<tag k="name" v="Åsland" />
		<tag k="place" v="farm" />
		<tag k="ssr:stedsnr" v="326918" />
	</node>
	<node id="-213188" lat="59.4933638887" lon="10.0148361067">
		<tag k="name" v="Nedre Tuft" />
		<tag k="place" v="farm" />
		<tag k="ssr:stedsnr" v="326778" />
	</node>
	<node id="-213187" lat="59.5042138892" lon="9.92845556406">
		<tag k="name" v="Sør-Bakke" />
		<tag k="place" v="farm" />
		<tag k="ssr:stedsnr" v="326775" />
	</node>
	<node id="-213186" lat="59.4895805587" lon="9.93001666501">
		<tag k="name" v="Skoli" />
		<tag k="place" v="isolated_dwelling" />
		<tag k="ssr:stedsnr" v="326774" />
	</node>
	<node id="-211659" lat="59.531719441" lon="9.61114999525">
		<tag k="historic" v="shieling" />
		<tag k="name" v="Korpsetra" />
		<tag k="place" v="locality" />
		<tag k="ssr:stedsnr" v="670414" />
	</node>
	<node id="-211413" lat="59.6993114072" lon="9.6316316355">
		<tag k="fixme" v="consider place=hamlet" />
		<tag k="name" v="Bever" />
		<tag k="place" v="farm" />
		<tag k="ssr:stedsnr" v="488609" />
	</node>
	<node id="-213181" lat="59.674591664" lon="9.67805277264">
		<tag k="name" v="Frydenberg" />
		<tag k="place" v="farm" />
		<tag k="ssr:stedsnr" v="326560" />
	</node>
	<node id="-211131" lat="59.5037164888" lon="9.64854854152">
		<tag k="fixme" v="consider tourism=alpine_hut or tourism=chalet" />
		<tag k="name" v="Sørmyrseter" />
		<tag k="ssr:stedsnr" v="269198" />
		<tag k="tourism" v="wilderness_hut" />
	</node>
	<node id="-213177" lat="59.6244305516" lon="9.59906943866">
		<tag k="name" v="Gislerud" />
		<tag k="place" v="farm" />
		<tag k="ssr:stedsnr" v="326234" />
	</node>
	<node id="-211127" lat="59.7006111156" lon="9.62624443602">
		<tag k="name" v="Årdalsplass" />
		<tag k="place" v="farm" />
		<tag k="ssr:stedsnr" v="266942" />
	</node>
	<node id="-213616" lat="59.7641666652" lon="9.37374443883">
		<tag k="historic" v="shieling" />
		<tag k="name" v="Korslisetra" />
		<tag k="place" v="locality" />
		<tag k="ssr:stedsnr" v="550995" />
	</node>
	<node id="-211125" lat="59.5729000006" lon="9.80577778085">
		<tag k="name" v="Sending" />
		<tag k="place" v="farm" />
		<tag k="ssr:stedsnr" v="266899" />
	</node>
	<node id="-211120" lat="59.5636333325" lon="9.7811583311">
		<tag k="alt_name" v="Li øvre" />
		<tag k="name" v="Øvre Li" />
		<tag k="place" v="farm" />
		<tag k="ssr:stedsnr" v="266844" />
	</node>
	<node id="-211119" lat="59.4998444447" lon="9.88418611282">
		<tag k="name" v="Trengen" />
		<tag k="place" v="farm" />
		<tag k="ssr:stedsnr" v="266827" />
	</node>
	<node id="-213166" lat="59.6152527756" lon="9.65701110608">
		<tag k="fixme" v="consider place=hamlet" />
		<tag k="name" v="Loftstua" />
		<tag k="place" v="farm" />
		<tag k="ssr:stedsnr" v="307519" />
	</node>
	<node id="-213165" lat="59.578661111" lon="9.78766665959">
		<tag k="name" v="Engeland" />
		<tag k="place" v="farm" />
		<tag k="ssr:stedsnr" v="307502" />
	</node>
	<node id="-213164" lat="59.5814055568" lon="9.68402500352">
		<tag k="name" v="Dalen" />
		<tag k="place" v="locality" />
		<tag k="ssr:stedsnr" v="307498" />
	</node>
	<node id="-213162" lat="59.5651111153" lon="9.64486944855">
		<tag k="fixme" v="multiple name tags, choose one and add the other to alt_name" />
		<tag k="name" v="Myrane;Skogen" />
		<tag k="place" v="farm" />
		<tag k="ssr:stedsnr" v="307377" />
	</node>
	<node id="-211113" lat="59.4859305587" lon="9.98834999677">
		<tag k="name" v="Rønningen" />
		<tag k="place" v="farm" />
		<tag k="ssr:stedsnr" v="266758" />
	</node>
	<node id="-211112" lat="59.491186115" lon="10.0152888905">
		<tag k="name" v="Sand" />
		<tag k="place" v="farm" />
		<tag k="ssr:stedsnr" v="266754" />
	</node>
	<node id="-211110" lat="59.490249998" lon="9.94724166067">
		<tag k="name" v="Nordre Kleppan" />
		<tag k="place" v="farm" />
		<tag k="ssr:stedsnr" v="266747" />
	</node>
	<node id="-211106" lat="59.5537555522" lon="9.6250888888">
		<tag k="building" v="industrial" />
		<tag k="name" v="Lauarsaga" />
		<tag k="ssr:stedsnr" v="266702" />
	</node>
	<node id="-211105" lat="59.6126666645" lon="9.65126389064">
		<tag k="name" v="Grønvoll" />
		<tag k="place" v="farm" />
		<tag k="ssr:stedsnr" v="266681" />
	</node>
	<node id="-213360" lat="59.5535361107" lon="9.62012500587">
		<tag k="name" v="Flenderud" />
		<tag k="place" v="farm" />
		<tag k="ssr:stedsnr" v="387701" />
	</node>
	<node id="-211102" lat="59.5914472259" lon="9.66132500741">
		<tag k="name" v="Hillestad" />
		<tag k="place" v="farm" />
		<tag k="ssr:stedsnr" v="266652" />
	</node>
	<node id="-211101" lat="59.488222221" lon="9.97297500102">
		<tag k="name" v="Vestre Skinnes" />
		<tag k="place" v="farm" />
		<tag k="ssr:stedsnr" v="130624" />
	</node>
	<node id="-214042" lat="59.6527138874" lon="9.72839999726">
		<tag k="name" v="Rud" />
		<tag k="place" v="farm" />
		<tag k="ssr:stedsnr" v="848681" />
	</node>
	<node id="-213146" lat="59.7122250038" lon="9.63311944804">
		<tag k="alt_name" v="Balfot" />
		<tag k="name" v="Ballfot" />
		<tag k="place" v="farm" />
		<tag k="ssr:stedsnr" v="306600" />
	</node>
	<node id="-213145" lat="59.4736527756" lon="9.93025000334">
		<tag k="historic" v="shieling" />
		<tag k="name" v="Skolisetra" />
		<tag k="place" v="locality" />
		<tag k="ssr:stedsnr" v="306573" />
	</node>
	<node id="-213144" lat="59.4794611138" lon="9.83312500109">
		<tag k="name" v="Putten" />
		<tag k="place" v="isolated_dwelling" />
		<tag k="ssr:stedsnr" v="306568" />
	</node>
	<node id="-213139" lat="59.6525321887" lon="9.72925740674">
		<tag k="fixme" v="consider place=hamlet" />
		<tag k="name" v="Rud" />
		<tag k="place" v="farm" />
		<tag k="ssr:stedsnr" v="306525" />
	</node>
	<node id="-211090" lat="59.6125916689" lon="9.6079111132">
		<tag k="name" v="Statsmyr" />
		<tag k="place" v="farm" />
		<tag k="ssr:stedsnr" v="266233" />
	</node>
	<node id="-211089" lat="59.4950472247" lon="10.0330527755">
		<tag k="name" v="Langmo" />
		<tag k="place" v="farm" />
		<tag k="ssr:stedsnr" v="266219" />
	</node>
	<node id="-211087" lat="59.4766194488" lon="10.0108388912">
		<tag k="alt_name" v="Foss mellom" />
		<tag k="name" v="Mellom-Foss" />
		<tag k="place" v="farm" />
		<tag k="ssr:stedsnr" v="266194" />
	</node>
	<node id="-213134" lat="59.6247361149" lon="9.73502500378">
		<tag k="alt_name" v="Knivehytta" />
		<tag k="name" v="Nysetra" />
		<tag k="place" v="isolated_dwelling" />
		<tag k="ssr:stedsnr" v="306494" />
	</node>
	<node id="-213133" lat="59.6197742726" lon="9.69533380338">
		<tag k="fixme" v="consider place=hamlet" />
		<tag k="name" v="Graven" />
		<tag k="place" v="farm" />
		<tag k="ssr:stedsnr" v="306492" />
	</node>
	<node id="-211084" lat="59.5855435834" lon="9.65761169508">
		<tag k="fixme" v="consider place=hamlet" />
		<tag k="name" v="Oppjorda" />
		<tag k="place" v="farm" />
		<tag k="ssr:stedsnr" v="125505" />
	</node>
	<node id="-211083" lat="59.6397666679" lon="9.59559444809">
		<tag k="name" v="Fredheim" />
		<tag k="ssr:stedsnr" v="264239" />
		<tag k="tourism" v="guest_house" />
	</node>
	<node id="-211082" lat="59.5023944455" lon="9.83368889158">
		<tag k="name" v="Groland" />
		<tag k="place" v="isolated_dwelling" />
		<tag k="ssr:stedsnr" v="124284" />
	</node>
	<node id="-213129" lat="59.5564305535" lon="9.62495555507">
		<tag k="name" v="Vadet" />
		<tag k="place" v="farm" />
		<tag k="ssr:stedsnr" v="306383" />
	</node>
	<node id="-211080" lat="59.5115027737" lon="9.82633332846">
		<tag k="fixme" v="consider place=hamlet" />
		<tag k="name" v="Passebekk" />
		<tag k="place" v="village" />
		<tag k="ssr:stedsnr" v="124269" />
	</node>
	<node id="-211079" lat="59.5083666663" lon="9.59367499426">
		<tag k="historic" v="shieling" />
		<tag k="name" v="Skrimsetra" />
		<tag k="place" v="locality" />
		<tag k="ssr:stedsnr" v="124266" />
	</node>
	<node id="-211078" lat="59.5477975155" lon="9.81333873686">
		<tag k="name" v="Prestegarden" />
		<tag k="place" v="farm" />
		<tag k="ssr:stedsnr" v="124353" />
	</node>
	<node id="-211077" lat="59.559536115" lon="9.84784166708">
		<tag k="alt_name" v="Skullestadseter" />
		<tag k="historic" v="shieling" />
		<tag k="name" v="Skullestadsetra" />
		<tag k="place" v="locality" />
		<tag k="ssr:stedsnr" v="124345" />
	</node>
	<node id="-211075" lat="59.5538694438" lon="9.72785277879">
		<tag k="alt_name" v="Åkerseter" />
		<tag k="historic" v="shieling" />
		<tag k="name" v="Åkersetra" />
		<tag k="place" v="locality" />
		<tag k="ssr:stedsnr" v="124337" />
	</node>
	<node id="-211074" lat="59.5544936964" lon="9.77861917297">
		<tag k="fixme" v="consider place=hamlet" />
		<tag k="name" v="Steg" />
		<tag k="place" v="farm" />
		<tag k="ssr:stedsnr" v="124335" />
	</node>
	<node id="-213121" lat="59.6257416641" lon="9.62400833724">
		<tag k="alt_name" v="Moene" />
		<tag k="name" v="Moane" />
		<tag k="place" v="farm" />
		<tag k="ssr:stedsnr" v="306503" />
	</node>
	<node id="-213120" lat="59.5906027781" lon="9.73587777678">
		<tag k="name" v="Hvåla" />
		<tag k="place" v="farm" />
		<tag k="ssr:stedsnr" v="303797" />
	</node>
	<node id="-213119" lat="59.5917416694" lon="9.75492221678">
		<tag k="name" v="Nordre Ås" />
		<tag k="place" v="farm" />
		<tag k="ssr:stedsnr" v="303794" />
	</node>
	<node id="-213118" lat="59.5233416649" lon="9.85402222699">
		<tag k="name" v="Meskestad" />
		<tag k="place" v="farm" />
		<tag k="ssr:stedsnr" v="303694" />
	</node>
	<node id="-211068" lat="59.5489694403" lon="9.67266944512">
		<tag k="name" v="Skogstue" />
		<tag k="place" v="locality" />
		<tag k="ssr:stedsnr" v="120311" />
	</node>
	<node id="-211067" lat="59.5865754212" lon="9.52444841263">
		<tag k="fixme" v="consider tourism=alpine_hut or tourism=chalet" />
		<tag k="name" v="Pråmvika" />
		<tag k="ssr:stedsnr" v="118756" />
		<tag k="tourism" v="wilderness_hut" />
	</node>
	<node id="-213114" lat="59.5459027789" lon="9.74289722385">
		<tag k="historic" v="shieling" />
		<tag k="name" v="Nedre Listul" />
		<tag k="place" v="locality" />
		<tag k="ssr:stedsnr" v="303647" />
	</node>
	<node id="-211055" lat="59.7144249967" lon="9.61211944875">
		<tag k="name" v="Roshaugen" />
		<tag k="place" v="farm" />
		<tag k="ssr:stedsnr" v="84956" />
	</node>
	<node id="-211054" lat="59.5912361115" lon="9.79913610578">
		<tag k="name" v="Bjerknes" />
		<tag k="place" v="farm" />
		<tag k="ssr:stedsnr" v="84919" />
	</node>
	<node id="-211053" lat="59.5615972249" lon="9.77962778534">
		<tag k="alt_name" v="Li øvre" />
		<tag k="name" v="Øvre Li" />
		<tag k="place" v="farm" />
		<tag k="ssr:stedsnr" v="84908" />
	</node>
	<node id="-211051" lat="59.5153361147" lon="9.86053332937">
		<tag k="name" v="Granheim" />
		<tag k="place" v="farm" />
		<tag k="ssr:stedsnr" v="84810" />
	</node>
	<node id="-211050" lat="59.6077861083" lon="9.67568333818">
		<tag k="alt_name" v="Berg nedre" />
		<tag k="name" v="Nedre Berg" />
		<tag k="place" v="farm" />
		<tag k="ssr:stedsnr" v="84677" />
	</node>
	<node id="-211049" lat="59.6011861122" lon="9.69294722318">
		<tag k="name" v="Laugerud" />
		<tag k="place" v="farm" />
		<tag k="ssr:stedsnr" v="84673" />
	</node>
	<node id="-211048" lat="59.6646416698" lon="9.67027221493">
		<tag k="name" v="Stertebakke" />
		<tag k="place" v="farm" />
		<tag k="ssr:stedsnr" v="84620" />
	</node>
	<node id="-211046" lat="59.5531916677" lon="9.60674167481">
		<tag k="name" v="Bråten" />
		<tag k="place" v="farm" />
		<tag k="ssr:stedsnr" v="84724" />
	</node>
	<node id="-211044" lat="59.6738861087" lon="9.68499444936">
		<tag k="name" v="Fjerdingstad" />
		<tag k="place" v="farm" />
		<tag k="ssr:stedsnr" v="84563" />
	</node>
	<node id="-213091" lat="59.6160805582" lon="9.44960833882">
		<tag k="name" v="Søndre Finnemyr" />
		<tag k="place" v="farm" />
		<tag k="ssr:stedsnr" v="302686" />
	</node>
	<node id="-213183" lat="59.4997944448" lon="9.96745833999">
		<tag k="name" v="Berg" />
		<tag k="place" v="farm" />
		<tag k="ssr:stedsnr" v="326759" />
	</node>
	<node id="-211041" lat="59.5662416383" lon="9.78029887284">
		<tag k="fixme" v="consider place=hamlet" />
		<tag k="name" v="Lund" />
		<tag k="place" v="farm" />
		<tag k="ssr:stedsnr" v="247374" />
	</node>
	<node id="-211039" lat="59.6835999981" lon="9.43622777818">
		<tag k="name" v="Bjørndalen" />
		<tag k="place" v="locality" />
		<tag k="ssr:stedsnr" v="246963" />
	</node>
	<node id="-213690" lat="59.4815805576" lon="9.5988250081">
		<tag k="name" v="Buvannstua" />
		<tag k="place" v="locality" />
		<tag k="ssr:stedsnr" v="605550" />
	</node>
	<node id="-211034" lat="59.6045555598" lon="9.46308056303">
		<tag k="name" v="Knutsmyr" />
		<tag k="place" v="farm" />
		<tag k="ssr:stedsnr" v="246788" />
	</node>
	<node id="-211032" lat="59.7024967032" lon="9.60743492132">
		<tag k="fixme" v="consider place=hamlet" />
		<tag k="name" v="Stengelsrud" />
		<tag k="place" v="farm" />
		<tag k="ssr:stedsnr" v="246600" />
	</node>
	<node id="-211031" lat="59.6930666648" lon="9.62387499265">
		<tag k="name" v="Gomsrud" />
		<tag k="place" v="isolated_dwelling" />
		<tag k="ssr:stedsnr" v="246575" />
	</node>
	<node id="-211030" lat="59.6787499969" lon="9.67876111124">
		<tag k="alt_name" v="Rød" />
		<tag k="name" v="Rud" />
		<tag k="place" v="farm" />
		<tag k="ssr:stedsnr" v="246553" />
	</node>
	<node id="-211026" lat="59.6298611117" lon="9.7613833255">
		<tag k="name" v="Kvisthogst" />
		<tag k="place" v="isolated_dwelling" />
		<tag k="ssr:stedsnr" v="246498" />
	</node>
	<node id="-211025" lat="59.6221138881" lon="9.65640277249">
		<tag k="loc_name" v="Sundegrenda" />
		<tag k="name" v="Sunnegrenda" />
		<tag k="place" v="hamlet" />
		<tag k="ssr:stedsnr" v="246488" />
	</node>
	<node id="-211024" lat="59.6115305536" lon="9.68816388904">
		<tag k="building" v="industrial" />
		<tag k="industrial" v="factory" />
		<tag k="name" v="Gravenfoss" />
		<tag k="ssr:stedsnr" v="246476" />
	</node>
	<node id="-211023" lat="59.6134832571" lon="9.64342732439">
		<tag k="fixme" v="consider place=hamlet" />
		<tag k="name" v="Landsverk" />
		<tag k="place" v="farm" />
		<tag k="ssr:stedsnr" v="246471" />
	</node>
	<node id="-213070" lat="59.7128138899" lon="9.40161666645">
		<tag k="name" v="Gladheim" />
		<tag k="place" v="isolated_dwelling" />
		<tag k="ssr:stedsnr" v="302133" />
	</node>
	<node id="-214029" lat="59.6054249974" lon="9.47787221488">
		<tag k="fixme" v="consider tourism=alpine_hut or tourism=chalet" />
		<tag k="name" v="Nye Øksne" />
		<tag k="ssr:stedsnr" v="829139" />
		<tag k="tourism" v="wilderness_hut" />
	</node>
	<node id="-213067" lat="59.7034611085" lon="9.52539443974">
		<tag k="name" v="Nygård" />
		<tag k="place" v="farm" />
		<tag k="ssr:stedsnr" v="302086" />
	</node>
	<node id="-211017" lat="59.5007166659" lon="9.80658056144">
		<tag k="name" v="Finnerud" />
		<tag k="place" v="farm" />
		<tag k="ssr:stedsnr" v="246323" />
	</node>
	<node id="-211016" lat="59.5232444451" lon="9.86453611504">
		<tag k="name" v="Glenna" />
		<tag k="place" v="locality" />
		<tag k="ssr:stedsnr" v="246321" />
	</node>
	<node id="-211015" lat="59.5166901336" lon="9.8458508168">
		<tag k="fixme" v="consider place=hamlet" />
		<tag k="name" v="Hjarnes" />
		<tag k="place" v="farm" />
		<tag k="ssr:stedsnr" v="246319" />
	</node>
	<node id="-211297" lat="59.6033638847" lon="9.75934722209">
		<tag k="alt_name" v="Hostvet" />
		<tag k="name" v="Øvre Hostvet" />
		<tag k="place" v="farm" />
		<tag k="ssr:stedsnr" v="302954" />
	</node>
	<node id="-211011" lat="59.7062527764" lon="9.56630000569">
		<tag k="name" v="Åmot" />
		<tag k="place" v="farm" />
		<tag k="ssr:stedsnr" v="245988" />
	</node>
	<node id="-213058" lat="59.6020305562" lon="9.65588889488">
		<tag k="name" v="Hellebekk" />
		<tag k="place" v="farm" />
		<tag k="ssr:stedsnr" v="206633" />
	</node>
	<node id="-211009" lat="59.6338499986" lon="9.52577776904">
		<tag k="name" v="Kolhusdalen" />
		<tag k="place" v="isolated_dwelling" />
		<tag k="ssr:stedsnr" v="245848" />
	</node>
	<node id="-211008" lat="59.6281249988" lon="9.56693055415">
		<tag k="name" v="Kopparvollane" />
		<tag k="place" v="farm" />
		<tag k="ssr:stedsnr" v="245846" />
	</node>
	<node id="-211006" lat="59.4704249957" lon="9.61886389605">
		<tag k="name" v="Ramsoset" />
		<tag k="place" v="isolated_dwelling" />
		<tag k="ssr:stedsnr" v="245598" />
	</node>
	<node id="-211003" lat="59.4645166692" lon="9.84058333809">
		<tag k="name" v="Vollane" />
		<tag k="place" v="farm" />
		<tag k="ssr:stedsnr" v="245574" />
	</node>
	<node id="-211002" lat="59.6685527802" lon="9.65015832856">
		<tag k="name" v="Kongsberg" />
		<tag k="place" v="town" />
		<tag k="ssr:stedsnr" v="245560" />
	</node>
	<node id="-213318" lat="59.6530305525" lon="9.62465833818">
		<tag k="name" v="Knoffemyr" />
		<tag k="place" v="farm" />
		<tag k="ssr:stedsnr" v="367509" />
	</node>
	<node id="-211000" lat="59.6580916645" lon="9.69117499705">
		<tag k="name" v="Langtjern" />
		<tag k="place" v="farm" />
		<tag k="ssr:stedsnr" v="245545" />
	</node>
	<node id="-210999" lat="59.6558546981" lon="9.7340650609">
		<tag k="fixme" v="consider place=hamlet" />
		<tag k="name" v="Nygård" />
		<tag k="place" v="farm" />
		<tag k="ssr:stedsnr" v="245541" />
	</node>
	<node id="-213046" lat="59.631149998" lon="9.75077776945">
		<tag k="historic" v="shieling" />
		<tag k="name" v="Nyseter" />
		<tag k="place" v="locality" />
		<tag k="ssr:stedsnr" v="205877" />
	</node>
	<node id="-213045" lat="59.620133337" lon="9.70781389747">
		<tag k="name" v="Hotvet" />
		<tag k="place" v="farm" />
		<tag k="ssr:stedsnr" v="205864" />
	</node>
	<node id="-210994" lat="59.4217999973" lon="9.7000138968">
		<tag k="name" v="Arneplass" />
		<tag k="place" v="farm" />
		<tag k="ssr:stedsnr" v="245525" />
	</node>
	<node id="-213039" lat="59.4967500004" lon="9.9818194459">
		<tag k="name" v="Gravdal" />
		<tag k="place" v="farm" />
		<tag k="ssr:stedsnr" v="205774" />
	</node>
	<node id="-210990" lat="59.6140617185" lon="9.77196585123">
		<tag k="alt_name" v="Hvambsal" />
		<tag k="name" v="Hvamsal" />
		<tag k="place" v="farm" />
		<tag k="ssr:stedsnr" v="242942" />
	</node>
	<node id="-210986" lat="59.7334277742" lon="9.57616388062">
		<tag k="name" v="Skardet" />
		<tag k="place" v="locality" />
		<tag k="ssr:stedsnr" v="242592" />
	</node>
	<node id="-211019" lat="59.5511388919" lon="9.61026389618">
		<tag k="name" v="Høgbråten" />
		<tag k="place" v="farm" />
		<tag k="ssr:stedsnr" v="246383" />
	</node>
	<node id="-210981" lat="59.6428555541" lon="9.74391945294">
		<tag k="name" v="Haukelia" />
		<tag k="place" v="locality" />
		<tag k="ssr:stedsnr" v="242639" />
	</node>
	<node id="-210980" lat="59.6416055561" lon="9.72372500553">
		<tag k="name" v="Svartorbråten" />
		<tag k="place" v="farm" />
		<tag k="ssr:stedsnr" v="242637" />
	</node>
	<node id="-210978" lat="59.5132865928" lon="9.86526989675">
		<tag k="name" v="Gran" />
		<tag k="place" v="farm" />
		<tag k="ssr:stedsnr" v="242539" />
	</node>
	<node id="-213025" lat="59.5773027763" lon="9.67122500183">
		<tag k="name" v="Barbroplassen" />
		<tag k="place" v="isolated_dwelling" />
		<tag k="ssr:stedsnr" v="205397" />
	</node>
	<node id="-210976" lat="59.4974027759" lon="9.99883055447">
		<tag k="name" v="Gravdal" />
		<tag k="place" v="farm" />
		<tag k="ssr:stedsnr" v="242572" />
	</node>
	<node id="-213021" lat="59.6164029489" lon="9.60372405468">
		<tag k="alt_name" v="Ormåsen vestre" />
		<tag k="name" v="Vestre Ormåsen" />
		<tag k="place" v="farm" />
		<tag k="ssr:stedsnr" v="205240" />
	</node>
	<node id="-210970" lat="59.4628888855" lon="9.74472499769">
		<tag k="historic" v="shieling" />
		<tag k="name" v="Veleseter" />
		<tag k="place" v="locality" />
		<tag k="ssr:stedsnr" v="242188" />
	</node>
	<node id="-213017" lat="59.57318889" lon="9.63075833565">
		<tag k="name" v="Haugen" />
		<tag k="place" v="farm" />
		<tag k="ssr:stedsnr" v="186545" />
	</node>
	<node id="-213015" lat="59.5950668583" lon="9.7815856418">
		<tag k="fixme" v="consider place=hamlet" />
		<tag k="name" v="Nes" />
		<tag k="place" v="farm" />
		<tag k="ssr:stedsnr" v="186530" />
	</node>
	<node id="-213749" lat="59.5706000027" lon="9.66900833181">
		<tag k="name" v="Karlslauar" />
		<tag k="place" v="farm" />
		<tag k="ssr:stedsnr" v="610402" />
	</node>
	<node id="-213012" lat="59.5645166707" lon="9.82019999191">
		<tag k="name" v="Haugen" />
		<tag k="place" v="farm" />
		<tag k="ssr:stedsnr" v="186415" />
	</node>
	<node id="-213010" lat="59.5701111086" lon="9.62372500754">
		<tag k="name" v="Rønningen" />
		<tag k="place" v="farm" />
		<tag k="ssr:stedsnr" v="186401" />
	</node>
	<node id="-213009" lat="59.7013083356" lon="9.43371110572">
		<tag k="name" v="Barmsrud" />
		<tag k="place" v="farm" />
		<tag k="ssr:stedsnr" v="186000" />
	</node>
	<node id="-213008" lat="59.7061999967" lon="9.59177778502">
		<tag k="name" v="Auensplassen" />
		<tag k="place" v="farm" />
		<tag k="ssr:stedsnr" v="185989" />
	</node>
	<node id="-213007" lat="59.7136888905" lon="9.35656667063">
		<tag k="name" v="Åsen" />
		<tag k="place" v="locality" />
		<tag k="ssr:stedsnr" v="185979" />
	</node>
	<node id="-213005" lat="59.7022027788" lon="9.53863056324">
		<tag k="name" v="Haugen" />
		<tag k="place" v="farm" />
		<tag k="ssr:stedsnr" v="185936" />
	</node>
	<node id="-213004" lat="59.70243882" lon="9.56517712593">
		<tag k="fixme" v="consider place=hamlet" />
		<tag k="name" v="Dokka" />
		<tag k="place" v="farm" />
		<tag k="ssr:stedsnr" v="185933" />
	</node>
	<node id="-213003" lat="59.700212698" lon="9.54803319814">
		<tag k="fixme" v="consider place=hamlet" />
		<tag k="name" v="Fulsebakke" />
		<tag k="place" v="farm" />
		<tag k="ssr:stedsnr" v="185932" />
	</node>
	<node id="-213000" lat="59.6708027758" lon="9.57785000043">
		<tag k="name" v="Haus Sachsen" />
		<tag k="place" v="farm" />
		<tag k="ssr:stedsnr" v="185906" />
	</node>
	<node id="-212998" lat="59.6167750022" lon="9.57337221418">
		<tag k="historic" v="shieling" />
		<tag k="name" v="Mørksetra" />
		<tag k="place" v="locality" />
		<tag k="ssr:stedsnr" v="185865" />
	</node>
	<node id="-211228" lat="59.7307972223" lon="9.40220555542">
		<tag k="alt_name" v="Nordre Huka;Søndre Huka" />
		<tag k="name" v="Huka" />
		<tag k="place" v="farm" />
		<tag k="ssr:stedsnr" v="246410" />
	</node>
	<node id="-212996" lat="59.5612166692" lon="9.57886388441">
		<tag k="historic" v="shieling" />
		<tag k="name" v="Bjørndalsetra" />
		<tag k="place" v="locality" />
		<tag k="ssr:stedsnr" v="185732" />
	</node>
	<node id="-213589" lat="59.6303194484" lon="9.72750278472">
		<tag k="alt_name" v="Grosvoldeiet" />
		<tag k="name" v="Grosvolleie" />
		<tag k="place" v="farm" />
		<tag k="ssr:stedsnr" v="549513" />
	</node>
	<node id="-210946" lat="59.5493250016" lon="9.82257223041">
		<tag k="name" v="Sollien" />
		<tag k="place" v="farm" />
		<tag k="ssr:stedsnr" v="241831" />
	</node>
	<node id="-212993" lat="59.5009750004" lon="9.54844999904">
		<tag k="name" v="Bløyene" />
		<tag k="place" v="locality" />
		<tag k="ssr:stedsnr" v="185656" />
	</node>
</osm>
