<?xml version="1.0" encoding="UTF-8"?>
<osm generator="osmapis" version="0.6">
	<node id="-210942" lat="59.5495499958" lon="9.89446388912">
		<tag k="name" v="Svarttjern" />
		<tag k="natural" v="water" />
		<tag k="ssr:stedsnr" v="64407" />
	</node>
	<node id="-213333" lat="59.6456625072" lon="9.45560519176">
		<tag k="name" v="Sandtjern" />
		<tag k="natural" v="water" />
		<tag k="ssr:stedsnr" v="367871" />
	</node>
	<node id="-210935" lat="59.5051555547" lon="9.72505278489">
		<tag k="name" v="Svarttjern" />
		<tag k="natural" v="water" />
		<tag k="ssr:stedsnr" v="64336" />
	</node>
	<node id="-210933" lat="59.5249749464" lon="9.6717362124">
		<tag k="name" v="Svarttjern" />
		<tag k="natural" v="water" />
		<tag k="ssr:stedsnr" v="64321" />
	</node>
	<node id="-210930" lat="59.5164102997" lon="9.70524753646">
		<tag k="name" v="Store Stølevann" />
		<tag k="natural" v="water" />
		<tag k="ssr:stedsnr" v="64312" />
		<tag k="water" v="lake" />
	</node>
	<node id="-212977" lat="59.4953000012" lon="9.64431388704">
		<tag k="name" v="Fagervannet" />
		<tag k="natural" v="water" />
		<tag k="ssr:stedsnr" v="184664" />
		<tag k="water" v="lake" />
	</node>
	<node id="-210927" lat="59.5607250041" lon="9.90104722809">
		<tag k="name" v="Østre Krokvann" />
		<tag k="natural" v="water" />
		<tag k="ssr:stedsnr" v="241777" />
	</node>
	<node id="-212974" lat="59.4388527762" lon="9.63540555587">
		<tag k="alt_name" v="Lommetjern" />
		<tag k="name" v="Lometjern" />
		<tag k="natural" v="water" />
		<tag k="ssr:stedsnr" v="184531" />
	</node>
	<node id="-210925" lat="59.5696027818" lon="9.85476667502">
		<tag k="name" v="Vesle Hestedalstjern" />
		<tag k="natural" v="water" />
		<tag k="ssr:stedsnr" v="241771" />
	</node>
	<node id="-212972" lat="59.581819445" lon="9.85952222829">
		<tag k="name" v="Spannslokktjern" />
		<tag k="natural" v="water" />
		<tag k="ssr:stedsnr" v="181992" />
	</node>
	<node id="-213520" lat="59.5038249989" lon="9.57671389585">
		<tag k="name" v="Svarttjern" />
		<tag k="natural" v="water" />
		<tag k="ssr:stedsnr" v="545328" />
	</node>
	<node id="-210922" lat="59.6701805552" lon="9.53854445057">
		<tag k="alt_name" v="Jakobsdam" />
		<tag k="name" v="Jakobs dam" />
		<tag k="natural" v="water" />
		<tag k="ssr:stedsnr" v="63922" />
	</node>
	<node id="-210918" lat="59.5807916683" lon="9.5189833382">
		<tag k="name" v="Iversborg" />
		<tag k="natural" v="bay" />
		<tag k="ssr:stedsnr" v="241594" />
	</node>
	<node id="-210916" lat="59.4572361135" lon="9.77181388507">
		<tag k="name" v="Trytetjern" />
		<tag k="natural" v="water" />
		<tag k="ssr:stedsnr" v="63616" />
	</node>
	<node id="-212962" lat="59.5208249994" lon="9.95035277071">
		<tag k="name" v="Storefoss" />
		<tag k="natural" v="waterfall" />
		<tag k="ssr:stedsnr" v="181698" />
	</node>
	<node id="-212958" lat="59.6138777755" lon="9.43710278572">
		<tag k="name" v="Vindbekk" />
		<tag k="ssr:stedsnr" v="181678" />
		<tag k="waterway" v="stream" />
	</node>
	<node id="-212957" lat="59.624258331" lon="9.43115556104">
		<tag k="name" v="Svarttjern" />
		<tag k="natural" v="water" />
		<tag k="ssr:stedsnr" v="181672" />
	</node>
	<node id="-212955" lat="59.5332027817" lon="9.73522499566">
		<tag k="name" v="Moltetjern" />
		<tag k="natural" v="water" />
		<tag k="ssr:stedsnr" v="181657" />
	</node>
	<node id="-210906" lat="59.5637972261" lon="9.88766110497">
		<tag k="name" v="Vennemyrvannet" />
		<tag k="natural" v="water" />
		<tag k="ssr:stedsnr" v="59786" />
	</node>
	<node id="-210905" lat="59.5660388854" lon="9.85043055133">
		<tag k="name" v="Plommetjern" />
		<tag k="natural" v="water" />
		<tag k="ssr:stedsnr" v="59775" />
	</node>
	<node id="-210903" lat="59.7571638899" lon="9.35482222509">
		<tag k="name" v="Elgtjernbekken" />
		<tag k="ssr:stedsnr" v="237500" />
		<tag k="waterway" v="stream" />
	</node>
	<node id="-212950" lat="59.518086109" lon="9.54702222652">
		<tag k="name" v="Kalven" />
		<tag k="natural" v="water" />
		<tag k="ssr:stedsnr" v="181593" />
	</node>
	<node id="-212949" lat="59.5366972203" lon="9.53986111538">
		<tag k="name" v="Løken" />
		<tag k="natural" v="water" />
		<tag k="ssr:stedsnr" v="181585" />
	</node>
	<node id="-212948" lat="59.6192472189" lon="9.81928055438">
		<tag k="name" v="Store Ognevann" />
		<tag k="natural" v="water" />
		<tag k="ssr:stedsnr" v="181584" />
	</node>
	<node id="-210898" lat="59.7299833342" lon="9.64474999157">
		<tag k="alt_name" v="Store Olavstjern" />
		<tag k="name" v="Sankt Olavs tjern" />
		<tag k="natural" v="water" />
		<tag k="ssr:stedsnr" v="306616" />
	</node>
	<node id="-210897" lat="59.6958249971" lon="9.62637223053">
		<tag k="name" v="Bikjentangen" />
		<tag k="natural" v="cape" />
		<tag k="ssr:stedsnr" v="23922" />
	</node>
	<node id="-210896" lat="59.5451833342" lon="9.79918610552">
		<tag k="name" v="Lindembekken" />
		<tag k="ssr:stedsnr" v="23917" />
		<tag k="waterway" v="stream" />
	</node>
	<node id="-212943" lat="59.4608583338" lon="9.68929999964">
		<tag k="name" v="Sverige" />
		<tag k="place" v="island" />
		<tag k="ssr:stedsnr" v="181631" />
	</node>
	<node id="-210894" lat="59.5004305578" lon="9.82873889574">
		<tag k="name" v="Rudsbekken" />
		<tag k="ssr:stedsnr" v="23839" />
		<tag k="waterway" v="stream" />
	</node>
	<node id="-212941" lat="59.4321888849" lon="9.65309166546">
		<tag k="name" v="Arkevannsbekken" />
		<tag k="ssr:stedsnr" v="181627" />
		<tag k="waterway" v="stream" />
	</node>
	<node id="-212938" lat="59.4715722264" lon="9.63401666725">
		<tag k="name" v="Vesle Maurlivann" />
		<tag k="natural" v="water" />
		<tag k="ssr:stedsnr" v="181550" />
	</node>
	<node id="-210887" lat="59.7219555553" lon="9.6209500065">
		<tag k="name" v="Kastetbekken" />
		<tag k="ssr:stedsnr" v="224813" />
		<tag k="waterway" v="stream" />
	</node>
	<node id="-212934" lat="59.5249722219" lon="9.76912778181">
		<tag k="name" v="Tverrelva" />
		<tag k="ssr:stedsnr" v="181580" />
		<tag k="waterway" v="stream" />
	</node>
	<node id="-212932" lat="59.6309499993" lon="9.5226138899">
		<tag k="name" v="Gampehølen" />
		<tag k="place" v="locality" />
		<tag k="ssr:stedsnr" v="181568" />
	</node>
	<node id="-212931" lat="59.6133277751" lon="9.50727500385">
		<tag k="name" v="Delestjern" />
		<tag k="natural" v="water" />
		<tag k="ssr:stedsnr" v="181567" />
	</node>
	<node id="-212930" lat="59.6257500015" lon="9.4825361076">
		<tag k="name" v="Tangen" />
		<tag k="natural" v="cape" />
		<tag k="ssr:stedsnr" v="181560" />
	</node>
	<node id="-212929" lat="59.4736111117" lon="9.60923888895">
		<tag k="name" v="Buvannselva" />
		<tag k="ssr:stedsnr" v="181558" />
		<tag k="waterway" v="river" />
	</node>
	<node id="-212924" lat="59.4782611125" lon="9.93018054936">
		<tag k="name" v="Skolielva" />
		<tag k="ssr:stedsnr" v="181188" />
		<tag k="waterway" v="stream" />
	</node>
	<node id="-213450" lat="59.4905777762" lon="9.52628056118">
		<tag k="name" v="Blekketjern" />
		<tag k="natural" v="water" />
		<tag k="ssr:stedsnr" v="427066" />
	</node>
	<node id="-212912" lat="59.7239388928" lon="9.47712222628">
		<tag k="name" v="Porstjernbekken" />
		<tag k="ssr:stedsnr" v="181145" />
		<tag k="waterway" v="stream" />
	</node>
	<node id="-212910" lat="59.6650388893" lon="9.41118054791">
		<tag k="name" v="Bjørndalsbekken" />
		<tag k="ssr:stedsnr" v="181035" />
		<tag k="waterway" v="stream" />
	</node>
	<node id="-210929" lat="59.5098638915" lon="9.62734444493">
		<tag k="alt_name" v="Svarttjern" />
		<tag k="name" v="Svarttjernet" />
		<tag k="natural" v="water" />
		<tag k="ssr:stedsnr" v="64309" />
	</node>
	<node id="-212896" lat="59.5839722224" lon="9.89209167384">
		<tag k="name" v="Skrubbetjern" />
		<tag k="natural" v="water" />
		<tag k="ssr:stedsnr" v="147485" />
	</node>
	<node id="-212893" lat="59.7166222191" lon="9.59769445268">
		<tag k="name" v="Eikedokktjern" />
		<tag k="natural" v="water" />
		<tag k="ssr:stedsnr" v="144998" />
	</node>
	<node id="-212890" lat="59.7140666653" lon="9.65761944291">
		<tag k="name" v="Brennsetertjern" />
		<tag k="natural" v="water" />
		<tag k="ssr:stedsnr" v="144959" />
	</node>
	<node id="-212887" lat="59.7154027817" lon="9.60585834089">
		<tag k="name" v="Pikerfoss" />
		<tag k="natural" v="waterfall" />
		<tag k="ssr:stedsnr" v="144940" />
	</node>
	<node id="-210926" lat="59.5708388862" lon="9.87026943944">
		<tag k="name" v="Knimertjern" />
		<tag k="natural" v="water" />
		<tag k="ssr:stedsnr" v="241772" />
	</node>
	<node id="-212871" lat="59.4960750038" lon="9.86335000061">
		<tag k="name" v="Ånnestadbekken" />
		<tag k="ssr:stedsnr" v="144813" />
		<tag k="waterway" v="stream" />
	</node>
	<node id="-212863" lat="59.5210472261" lon="9.92950277038">
		<tag k="name" v="Komneselva" />
		<tag k="ssr:stedsnr" v="144737" />
		<tag k="waterway" v="river" />
	</node>
	<node id="-212849" lat="59.6230111126" lon="9.59311943848">
		<tag k="name" v="Lassedalsbekken" />
		<tag k="ssr:stedsnr" v="144251" />
		<tag k="waterway" v="stream" />
	</node>
	<node id="-212844" lat="59.7679750005" lon="9.35719445325">
		<tag k="alt_name" v="Skrubbenattjern" />
		<tag k="name" v="Skrubbenattjørna" />
		<tag k="natural" v="water" />
		<tag k="ssr:stedsnr" v="125998" />
	</node>
	<node id="-212839" lat="59.704874996" lon="9.44172499672">
		<tag k="name" v="Jondalselva" />
		<tag k="ssr:stedsnr" v="124999" />
		<tag k="waterway" v="river" />
	</node>
	<node id="-212838" lat="59.7048972243" lon="9.34435278239">
		<tag k="alt_name" v="Damtjern" />
		<tag k="name" v="Damtjørn" />
		<tag k="natural" v="water" />
		<tag k="ssr:stedsnr" v="124987" />
	</node>
	<node id="-212834" lat="59.6792972227" lon="9.56672777761">
		<tag k="name" v="Kunstbekken" />
		<tag k="ssr:stedsnr" v="124960" />
		<tag k="waterway" v="stream" />
	</node>
	<node id="-212833" lat="59.6894900899" lon="9.36991685786">
		<tag k="name" v="Storrtjørn" />
		<tag k="natural" v="water" />
		<tag k="ssr:stedsnr" v="124952" />
	</node>
	<node id="-212829" lat="59.6357500004" lon="9.56439721603">
		<tag k="name" v="Mørkedalstjern" />
		<tag k="natural" v="water" />
		<tag k="ssr:stedsnr" v="124887" />
	</node>
	<node id="-212828" lat="59.642224996" lon="9.43018054705">
		<tag k="name" v="Åstjern" />
		<tag k="natural" v="water" />
		<tag k="ssr:stedsnr" v="124886" />
	</node>
	<node id="-212827" lat="59.5310083378" lon="9.97890277154">
		<tag k="name" v="Pyttebekken" />
		<tag k="ssr:stedsnr" v="124862" />
		<tag k="waterway" v="stream" />
	</node>
	<node id="-212826" lat="59.598100004" lon="9.58630000759">
		<tag k="name" v="Sleikebekkdammen" />
		<tag k="natural" v="water" />
		<tag k="ssr:stedsnr" v="124816" />
	</node>
	<node id="-212825" lat="59.5983722186" lon="9.54643056349">
		<tag k="name" v="Kroktjern" />
		<tag k="natural" v="water" />
		<tag k="ssr:stedsnr" v="124784" />
	</node>
	<node id="-212824" lat="59.5989722228" lon="9.44869722232">
		<tag k="name" v="Bruretjerna" />
		<tag k="natural" v="water" />
		<tag k="ssr:stedsnr" v="124781" />
		<tag k="water" v="lake" />
	</node>
	<node id="-212818" lat="59.4661499972" lon="9.91334999454">
		<tag k="name" v="Grettevannet" />
		<tag k="natural" v="water" />
		<tag k="ssr:stedsnr" v="124531" />
	</node>
	<node id="-212817" lat="59.6629722267" lon="9.71632222268">
		<tag k="name" v="Store Haurevann" />
		<tag k="natural" v="water" />
		<tag k="ssr:stedsnr" v="124510" />
	</node>
	<node id="-212808" lat="59.7076750028" lon="9.52931667156">
		<tag k="name" v="Gravarbekken" />
		<tag k="ssr:stedsnr" v="124399" />
		<tag k="waterway" v="stream" />
	</node>
	<node id="-212805" lat="59.5272749987" lon="9.94540832812">
		<tag k="name" v="Sløgene" />
		<tag k="natural" v="water" />
		<tag k="ssr:stedsnr" v="124376" />
		<tag k="water" v="lake" />
	</node>
	<node id="-212803" lat="59.484719442" lon="9.58387500394">
		<tag k="name" v="Leivstulbekken" />
		<tag k="ssr:stedsnr" v="124064" />
		<tag k="waterway" v="stream" />
	</node>
	<node id="-212801" lat="59.4904527803" lon="9.89295834113">
		<tag k="name" v="Boserudbekken" />
		<tag k="ssr:stedsnr" v="123636" />
		<tag k="waterway" v="stream" />
	</node>
	<node id="-212800" lat="59.4830694417" lon="9.6627611054">
		<tag k="name" v="Tarmsvannet" />
		<tag k="natural" v="water" />
		<tag k="ssr:stedsnr" v="123614" />
	</node>
	<node id="-212798" lat="59.4307749962" lon="9.62344999885">
		<tag k="name" v="Båstjern" />
		<tag k="natural" v="water" />
		<tag k="ssr:stedsnr" v="123560" />
	</node>
	<node id="-213860" lat="59.6263750004" lon="9.82741944088">
		<tag k="name" v="Jartkjærroa" />
		<tag k="natural" v="bay" />
		<tag k="ssr:stedsnr" v="755922" />
	</node>
	<node id="-212784" lat="59.642433333" lon="9.53396665904">
		<tag k="name" v="Korbubekken" />
		<tag k="ssr:stedsnr" v="120949" />
		<tag k="waterway" v="stream" />
	</node>
	<node id="-213980" lat="59.6678777791" lon="9.64800555817">
		<tag k="name" v="Nybrufoss" />
		<tag k="natural" v="waterfall" />
		<tag k="ssr:stedsnr" v="812606" />
	</node>
	<node id="-212772" lat="59.5601194411" lon="9.92114999657">
		<tag k="name" v="Liabekken" />
		<tag k="ssr:stedsnr" v="120785" />
		<tag k="waterway" v="stream" />
	</node>
	<node id="-212768" lat="59.6541305525" lon="9.72383611399">
		<tag k="name" v="Haurevannsbekken" />
		<tag k="ssr:stedsnr" v="120664" />
		<tag k="waterway" v="stream" />
	</node>
	<node id="-212767" lat="59.5618666639" lon="9.51147500147">
		<tag k="name" v="Bjørnebekken" />
		<tag k="ssr:stedsnr" v="120642" />
		<tag k="waterway" v="stream" />
	</node>
	<node id="-213104" lat="59.679838892" lon="9.63378889243">
		<tag k="alt_name" v="Falketjern" />
		<tag k="name" v="Falkentjern" />
		<tag k="natural" v="water" />
		<tag k="ssr:stedsnr" v="303095" />
	</node>
	<node id="-212765" lat="59.5511027807" lon="9.50069722417">
		<tag k="name" v="Klauvtjern" />
		<tag k="natural" v="water" />
		<tag k="ssr:stedsnr" v="120640" />
	</node>
	<node id="-212764" lat="59.4269777749" lon="9.6714972181">
		<tag k="name" v="Gunnhildvika" />
		<tag k="natural" v="bay" />
		<tag k="ssr:stedsnr" v="120608" />
	</node>
	<node id="-212953" lat="59.5660368024" lon="9.51384045993">
		<tag k="name" v="Skulkebutjern" />
		<tag k="natural" v="water" />
		<tag k="ssr:stedsnr" v="181655" />
	</node>
	<node id="-212753" lat="59.6006138913" lon="9.50483332631">
		<tag k="name" v="Karlstjernroa" />
		<tag k="natural" v="strait" />
		<tag k="ssr:stedsnr" v="120523" />
	</node>
	<node id="-214036" lat="59.7504527741" lon="9.42256666898">
		<tag k="name" v="Lifjelltjern" />
		<tag k="natural" v="water" />
		<tag k="ssr:stedsnr" v="844929" />
	</node>
	<node id="-212751" lat="59.4667694489" lon="9.63191389017">
		<tag k="name" v="Bjørntjernbekken" />
		<tag k="ssr:stedsnr" v="120519" />
		<tag k="waterway" v="stream" />
	</node>
	<node id="-212747" lat="59.4971361135" lon="9.76065277068">
		<tag k="name" v="Nordre Støveltjern" />
		<tag k="natural" v="water" />
		<tag k="ssr:stedsnr" v="120400" />
	</node>
	<node id="-212745" lat="59.4940194445" lon="9.72443055612">
		<tag k="name" v="Blekketjern" />
		<tag k="natural" v="water" />
		<tag k="ssr:stedsnr" v="120393" />
	</node>
	<node id="-212743" lat="59.4409861098" lon="9.6503527796">
		<tag k="name" v="Ramselva" />
		<tag k="ssr:stedsnr" v="121627" />
		<tag k="waterway" v="river" />
	</node>
	<node id="-212737" lat="59.472380552" lon="9.95959999295">
		<tag k="name" v="Skinnesvannet" />
		<tag k="natural" v="water" />
		<tag k="ssr:stedsnr" v="120192" />
	</node>
	<node id="-210901" lat="59.5757083351" lon="9.52639444257">
		<tag k="alt_name" v="Slepua" />
		<tag k="name" v="Slepoa" />
		<tag k="natural" v="bay" />
		<tag k="ssr:stedsnr" v="236782" />
	</node>
	<node id="-212731" lat="59.7322444421" lon="9.43302777026">
		<tag k="name" v="Lortebubekken" />
		<tag k="ssr:stedsnr" v="120124" />
		<tag k="waterway" v="stream" />
	</node>
	<node id="-212729" lat="59.7150416682" lon="9.40468333937">
		<tag k="name" v="Ambjørghølen" />
		<tag k="place" v="locality" />
		<tag k="ssr:stedsnr" v="120111" />
	</node>
	<node id="-210900" lat="59.7626027736" lon="9.41727500154">
		<tag k="name" v="Skjentjennbekken" />
		<tag k="ssr:stedsnr" v="233791" />
		<tag k="waterway" v="stream" />
	</node>
	<node id="-213289" lat="59.4898555592" lon="9.74204722575">
		<tag k="name" v="Grønvannet" />
		<tag k="natural" v="water" />
		<tag k="ssr:stedsnr" v="366598" />
	</node>
	<node id="-212721" lat="59.6646444453" lon="9.42730832797">
		<tag k="name" v="Langøya" />
		<tag k="place" v="island" />
		<tag k="ssr:stedsnr" v="120052" />
	</node>
	<node id="-212719" lat="59.6659416628" lon="9.43206388541">
		<tag k="name" v="Lauvåssundet" />
		<tag k="natural" v="strait" />
		<tag k="ssr:stedsnr" v="120038" />
	</node>
	<node id="-212712" lat="59.5095805522" lon="9.58508056399">
		<tag k="name" v="Skrimsdammen" />
		<tag k="ssr:stedsnr" v="120371" />
		<tag k="waterway" v="dam" />
	</node>
	<node id="-212710" lat="59.5789178132" lon="9.5622525691">
		<tag k="name" v="Dyppetjern" />
		<tag k="natural" v="water" />
		<tag k="ssr:stedsnr" v="120292" />
	</node>
	<node id="-212709" lat="59.7543944414" lon="9.42847221536">
		<tag k="name" v="Svartetjern" />
		<tag k="natural" v="water" />
		<tag k="ssr:stedsnr" v="116862" />
	</node>
	<node id="-212706" lat="59.75345556" lon="9.37446666368">
		<tag k="name" v="Korslibekken" />
		<tag k="ssr:stedsnr" v="116454" />
		<tag k="waterway" v="stream" />
	</node>
	<node id="-212699" lat="59.5856237935" lon="9.90340562155">
		<tag k="name" v="Auretjern" />
		<tag k="natural" v="water" />
		<tag k="ssr:stedsnr" v="87506" />
	</node>
	<node id="-212696" lat="59.6868749963" lon="9.64290832569">
		<tag k="name" v="Lia hengsle" />
		<tag k="ssr:stedsnr" v="84893" />
		<tag k="waterway" v="rapids" />
	</node>
	<node id="-213449" lat="59.5771277814" lon="9.85478055476">
		<tag k="name" v="Fremre Damvann" />
		<tag k="natural" v="water" />
		<tag k="ssr:stedsnr" v="424983" />
		<tag k="water" v="lake" />
	</node>
	<node id="-213963" lat="59.5223000039" lon="9.56149721958">
		<tag k="name" v="Rosstjern" />
		<tag k="natural" v="water" />
		<tag k="ssr:stedsnr" v="792721" />
	</node>
	<node id="-212670" lat="59.6530194445" lon="9.59446666045">
		<tag k="name" v="Floddam" />
		<tag k="ssr:stedsnr" v="84539" />
		<tag k="waterway" v="dam" />
	</node>
	<node id="-212668" lat="59.5852510896" lon="9.58603377665">
		<tag k="name" v="Trytetjern" />
		<tag k="natural" v="water" />
		<tag k="ssr:stedsnr" v="84355" />
	</node>
	<node id="-212658" lat="59.5703135129" lon="9.5626026878">
		<tag k="alt_name" v="Anundtjern" />
		<tag k="name" v="Anundstjernet" />
		<tag k="natural" v="water" />
		<tag k="ssr:stedsnr" v="64768" />
	</node>
	<node id="-212657" lat="59.5316472224" lon="9.56029722434">
		<tag k="alt_name" v="Heivann" />
		<tag k="name" v="Heievannet" />
		<tag k="natural" v="water" />
		<tag k="ssr:stedsnr" v="64758" />
		<tag k="water" v="lake" />
	</node>
	<node id="-212655" lat="59.6076499983" lon="9.46453889708">
		<tag k="name" v="Svarttjern" />
		<tag k="natural" v="water" />
		<tag k="ssr:stedsnr" v="64870" />
	</node>
	<node id="-213929" lat="59.427324431" lon="9.63545322017">
		<tag k="name" v="Arkevanna" />
		<tag k="natural" v="water" />
		<tag k="ssr:stedsnr" v="791500" />
		<tag k="water" v="lake" />
	</node>
	<node id="-212651" lat="59.6508555543" lon="9.68101944204">
		<tag k="alt_name" v="Stalsbergtjern" />
		<tag k="name" v="Stalsbergtjernet" />
		<tag k="natural" v="water" />
		<tag k="ssr:stedsnr" v="64551" />
	</node>
	<node id="-212648" lat="59.6427388868" lon="9.81353888279">
		<tag k="alt_name" v="Trolldalstjernet" />
		<tag k="name" v="Trolldalstjern" />
		<tag k="natural" v="water" />
		<tag k="ssr:stedsnr" v="64542" />
	</node>
	<node id="-210886" lat="59.603625002" lon="9.50177778025">
		<tag k="name" v="Karlstjernet" />
		<tag k="natural" v="water" />
		<tag k="ssr:stedsnr" v="3807" />
	</node>
	<node id="-212640" lat="59.4969250042" lon="9.72704721941">
		<tag k="name" v="Øyangen" />
		<tag k="natural" v="water" />
		<tag k="ssr:stedsnr" v="63596" />
	</node>
	<node id="-212638" lat="59.4841888898" lon="9.78050000716">
		<tag k="name" v="Igletjern" />
		<tag k="natural" v="water" />
		<tag k="ssr:stedsnr" v="63584" />
	</node>
	<node id="-212626" lat="59.5902694477" lon="9.84174445211">
		<tag k="name" v="Merratjern" />
		<tag k="natural" v="water" />
		<tag k="ssr:stedsnr" v="60951" />
	</node>
	<node id="-210883" lat="59.5600249983" lon="9.57744722307">
		<tag k="alt_name" v="Bjørndalsvann" />
		<tag k="name" v="Bjørndalsvannet" />
		<tag k="natural" v="water" />
		<tag k="ssr:stedsnr" v="3736" />
	</node>
	<node id="-212624" lat="59.6507416657" lon="9.5312055522">
		<tag k="name" v="Svarttjern" />
		<tag k="natural" v="water" />
		<tag k="ssr:stedsnr" v="60946" />
	</node>
	<node id="-212622" lat="59.6207944421" lon="9.77608610274">
		<tag k="name" v="Hvamselva" />
		<tag k="ssr:stedsnr" v="60937" />
		<tag k="waterway" v="stream" />
	</node>
	<node id="-210882" lat="59.5356722254" lon="9.56994721923">
		<tag k="name" v="Laua" />
		<tag k="natural" v="water" />
		<tag k="ssr:stedsnr" v="3733" />
	</node>
	<node id="-212614" lat="59.4846555555" lon="9.53618888334">
		<tag k="name" v="Finnvollbekken" />
		<tag k="ssr:stedsnr" v="60604" />
		<tag k="waterway" v="stream" />
	</node>
	<node id="-212608" lat="59.5946555598" lon="9.4769527736">
		<tag k="name" v="Svartevika" />
		<tag k="natural" v="bay" />
		<tag k="ssr:stedsnr" v="60510" />
	</node>
	<node id="-212607" lat="59.5916694428" lon="9.46323889013">
		<tag k="name" v="Åstjern" />
		<tag k="natural" v="water" />
		<tag k="ssr:stedsnr" v="60506" />
	</node>
	<node id="-212606" lat="59.491786112" lon="9.76824722144">
		<tag k="name" v="Bjørkelundvannet" />
		<tag k="natural" v="water" />
		<tag k="ssr:stedsnr" v="60395" />
	</node>
	<node id="-213246" lat="59.4890361078" lon="9.6563444422">
		<tag k="name" v="Dammen" />
		<tag k="ssr:stedsnr" v="363500" />
		<tag k="waterway" v="dam" />
	</node>
	<node id="-212587" lat="59.7352944419" lon="9.40056944222">
		<tag k="name" v="Briskebekk" />
		<tag k="ssr:stedsnr" v="60166" />
		<tag k="waterway" v="stream" />
	</node>
	<node id="-212580" lat="59.6789666677" lon="9.4650111082">
		<tag k="name" v="Nordsetertjern" />
		<tag k="natural" v="water" />
		<tag k="ssr:stedsnr" v="60065" />
	</node>
	<node id="-212579" lat="59.6781472267" lon="9.47522777715">
		<tag k="name" v="Setertjern" />
		<tag k="natural" v="water" />
		<tag k="ssr:stedsnr" v="60063" />
	</node>
	<node id="-212571" lat="59.6455638927" lon="9.49167221766">
		<tag k="name" v="Brånabekkfossen" />
		<tag k="ssr:stedsnr" v="60006" />
		<tag k="waterway" v="rapids" />
	</node>
	<node id="-212563" lat="59.4221583339" lon="9.68493611142">
		<tag k="name" v="Seterbukta" />
		<tag k="natural" v="bay" />
		<tag k="ssr:stedsnr" v="59620" />
	</node>
	<node id="-212562" lat="59.4238333302" lon="9.67675833978">
		<tag k="name" v="Tråssavika" />
		<tag k="natural" v="bay" />
		<tag k="ssr:stedsnr" v="59619" />
	</node>
	<node id="-212561" lat="59.4326027775" lon="9.65863610864">
		<tag k="name" v="Arkosodden" />
		<tag k="natural" v="cape" />
		<tag k="ssr:stedsnr" v="59616" />
	</node>
	<node id="-212560" lat="59.4379083325" lon="9.69844167245">
		<tag k="name" v="Stokkoselva" />
		<tag k="ssr:stedsnr" v="59614" />
		<tag k="waterway" v="river" />
	</node>
	<node id="-212557" lat="59.6266555516" lon="9.52100278288">
		<tag k="name" v="Femtjern" />
		<tag k="natural" v="water" />
		<tag k="ssr:stedsnr" v="59571" />
		<tag k="water" v="lake" />
	</node>
	<node id="-212551" lat="59.4616611081" lon="9.60110278435">
		<tag k="name" v="Løvrydningsfjorden" />
		<tag k="natural" v="bay" />
		<tag k="ssr:stedsnr" v="59537" />
	</node>
	<node id="-213233" lat="59.7409555551" lon="9.38363056109">
		<tag k="name" v="Kåsafossen" />
		<tag k="natural" v="waterfall" />
		<tag k="ssr:stedsnr" v="363170" />
	</node>
	<node id="-213941" lat="59.6330194475" lon="9.50991388335">
		<tag k="alt_name" v="Helgevannsbekk" />
		<tag k="name" v="Helgevassbekken" />
		<tag k="ssr:stedsnr" v="791894" />
		<tag k="waterway" v="stream" />
	</node>
	<node id="-214051" lat="59.6850416634" lon="9.45829444358">
		<tag k="name" v="Gampigletjern" />
		<tag k="natural" v="water" />
		<tag k="ssr:stedsnr" v="849087" />
	</node>
	<node id="-212524" lat="59.6380222236" lon="9.80351110606">
		<tag k="name" v="Merratjern" />
		<tag k="natural" v="water" />
		<tag k="ssr:stedsnr" v="24558" />
	</node>
	<node id="-212522" lat="59.64025556" lon="9.64986667506">
		<tag k="name" v="Kloppfoss" />
		<tag k="natural" v="waterfall" />
		<tag k="ssr:stedsnr" v="23986" />
	</node>
	<node id="-212514" lat="59.5053666689" lon="9.87854722696">
		<tag k="name" v="Ånnestadevjua" />
		<tag k="natural" v="water" />
		<tag k="ssr:stedsnr" v="23858" />
		<tag k="water" v="lake" />
	</node>
	<node id="-213253" lat="59.5022194428" lon="9.50956388676">
		<tag k="name" v="Skulsbubekken" />
		<tag k="ssr:stedsnr" v="363563" />
		<tag k="waterway" v="stream" />
	</node>
	<node id="-212490" lat="59.6201456789" lon="9.60666392364">
		<tag k="name" v="Råstuedammen" />
		<tag k="natural" v="water" />
		<tag k="ssr:stedsnr" v="23261" />
	</node>
	<node id="-212486" lat="59.5735555575" lon="9.89736943693">
		<tag k="name" v="Senning-Grøntjern" />
		<tag k="natural" v="water" />
		<tag k="ssr:stedsnr" v="4494" />
	</node>
	<node id="-212483" lat="59.5866499994" lon="9.85638333956">
		<tag k="fixme" v="multiple name tags, choose one and add the other to alt_name" />
		<tag k="name" v="Store Ormevann;Ormevannet" />
		<tag k="natural" v="water" />
		<tag k="ssr:stedsnr" v="4481" />
	</node>
	<node id="-212482" lat="59.5777305591" lon="9.72594167228">
		<tag k="name" v="Kjørstadelva" />
		<tag k="ssr:stedsnr" v="4475" />
		<tag k="waterway" v="stream" />
	</node>
	<node id="-212481" lat="59.5854083343" lon="9.62118889344">
		<tag k="name" v="Tverrelva" />
		<tag k="ssr:stedsnr" v="4472" />
		<tag k="waterway" v="stream" />
	</node>
	<node id="-212478" lat="59.5675611087" lon="9.723922223">
		<tag k="name" v="Gravdøla" />
		<tag k="ssr:stedsnr" v="4359" />
		<tag k="waterway" v="stream" />
	</node>
	<node id="-212474" lat="59.6685916693" lon="9.58651944807">
		<tag k="name" v="Morgenstjerne dam" />
		<tag k="natural" v="water" />
		<tag k="ssr:stedsnr" v="3931" />
	</node>
	<node id="-212472" lat="59.672250975" lon="9.54278953034">
		<tag k="alt_name" v="Henriksdam" />
		<tag k="name" v="Henriks dam" />
		<tag k="natural" v="water" />
		<tag k="ssr:stedsnr" v="3918" />
	</node>
	<node id="-212470" lat="59.7731194404" lon="9.37368610626">
		<tag k="alt_name" v="Skjeentjern" />
		<tag k="name" v="Skintjørna" />
		<tag k="natural" v="water" />
		<tag k="ssr:stedsnr" v="3881" />
	</node>
	<node id="-212469" lat="59.7725671396" lon="9.3951881025">
		<tag k="name" v="Holkane" />
		<tag k="natural" v="water" />
		<tag k="ssr:stedsnr" v="3878" />
		<tag k="water" v="lake" />
	</node>
	<node id="-212468" lat="59.6547035026" lon="9.59193497408">
		<tag k="name" v="Kongens gruvedam" />
		<tag k="natural" v="water" />
		<tag k="ssr:stedsnr" v="3873" />
	</node>
	<node id="-212467" lat="59.6286999961" lon="9.49774999755">
		<tag k="alt_name" v="Bråtavann" />
		<tag k="name" v="Bråtavannet" />
		<tag k="natural" v="water" />
		<tag k="ssr:stedsnr" v="3856" />
		<tag k="water" v="lake" />
	</node>
	<node id="-212466" lat="59.5980499976" lon="9.52629722213">
		<tag k="name" v="Trytetjern" />
		<tag k="natural" v="water" />
		<tag k="ssr:stedsnr" v="3830" />
	</node>
	<node id="-212465" lat="59.610369447" lon="9.47522778414">
		<tag k="name" v="Øksneelva" />
		<tag k="ssr:stedsnr" v="3824" />
		<tag k="waterway" v="river" />
	</node>
	<node id="-212452" lat="59.7269416687" lon="9.4953916728">
		<tag k="name" v="Elgstjern" />
		<tag k="natural" v="water" />
		<tag k="ssr:stedsnr" v="3414" />
	</node>
	<node id="-212451" lat="59.5951861147" lon="9.61015832886">
		<tag k="alt_name" v="Mortenstjern" />
		<tag k="name" v="Morttjernet" />
		<tag k="natural" v="water" />
		<tag k="ssr:stedsnr" v="3411" />
	</node>
	<node id="-213243" lat="59.4667916628" lon="9.69113333474">
		<tag k="name" v="Ospetipp" />
		<tag k="natural" v="cape" />
		<tag k="ssr:stedsnr" v="363485" />
	</node>
	<node id="-212440" lat="59.5339499958" lon="9.90151110281">
		<tag k="alt_name" v="Ulebergtjern" />
		<tag k="name" v="Ulebergtjernet" />
		<tag k="natural" v="water" />
		<tag k="ssr:stedsnr" v="3378" />
	</node>
	<node id="-213924" lat="59.6203249975" lon="9.80927499354">
		<tag k="name" v="Svatjern" />
		<tag k="natural" v="water" />
		<tag k="ssr:stedsnr" v="788935" />
	</node>
	<node id="-212432" lat="59.4723999964" lon="9.62959722279">
		<tag k="name" v="Øyvannet" />
		<tag k="natural" v="water" />
		<tag k="ssr:stedsnr" v="2636" />
	</node>
	<node id="-212429" lat="59.4666666692" lon="9.89336389517">
		<tag k="name" v="Åsvannet" />
		<tag k="natural" v="water" />
		<tag k="ssr:stedsnr" v="2609" />
	</node>
	<node id="-212428" lat="59.4965750043" lon="9.75220832868">
		<tag k="alt_name" v="Stulstjern" />
		<tag k="name" v="Stulstjernet" />
		<tag k="natural" v="water" />
		<tag k="ssr:stedsnr" v="2604" />
	</node>
	<node id="-212427" lat="59.4809861079" lon="9.63199999512">
		<tag k="name" v="Tverrvannet" />
		<tag k="natural" v="water" />
		<tag k="ssr:stedsnr" v="2599" />
		<tag k="water" v="lake" />
	</node>
	<node id="-214263" lat="59.6857365517" lon="9.68190383698">
		<tag k="name" v="Kjennerudvannet" />
		<tag k="natural" v="water" />
		<tag k="ssr:stedsnr" v="64605" />
		<tag k="water" v="lake" />
	</node>
	<node id="-212423" lat="59.441581843" lon="9.67727136247">
		<tag k="alt_name" v="Møkle" />
		<tag k="name" v="Mykle" />
		<tag k="natural" v="water" />
		<tag k="ssr:stedsnr" v="2531" />
		<tag k="water" v="lake" />
	</node>
	<node id="-213238" lat="59.4748583339" lon="9.76955832758">
		<tag k="name" v="Damtjernbekken" />
		<tag k="ssr:stedsnr" v="363183" />
		<tag k="waterway" v="stream" />
	</node>
	<node id="-212402" lat="59.6916166627" lon="9.50430278124">
		<tag k="name" v="Storkullsdalsbekk" />
		<tag k="ssr:stedsnr" v="970113" />
		<tag k="waterway" v="stream" />
	</node>
	<node id="-212400" lat="59.457127779" lon="9.59678889358">
		<tag k="name" v="Plassefjorden" />
		<tag k="natural" v="bay" />
		<tag k="ssr:stedsnr" v="970023" />
	</node>
	<node id="-213576" lat="59.5425083362" lon="9.73908611697">
		<tag k="alt_name" v="Skjesvann" />
		<tag k="name" v="Skjesvannet" />
		<tag k="natural" v="water" />
		<tag k="ssr:stedsnr" v="549405" />
	</node>
	<node id="-212390" lat="59.6545472211" lon="9.43431389623">
		<tag k="name" v="Svartvika" />
		<tag k="natural" v="bay" />
		<tag k="ssr:stedsnr" v="969008" />
	</node>
	<node id="-212389" lat="59.7556833294" lon="9.43028610649">
		<tag k="name" v="Svartetjernbekken" />
		<tag k="ssr:stedsnr" v="965871" />
		<tag k="waterway" v="stream" />
	</node>
	<node id="-212387" lat="59.6204666661" lon="9.84200000537">
		<tag k="name" v="Trytetjern" />
		<tag k="natural" v="water" />
		<tag k="ssr:stedsnr" v="937924" />
	</node>
	<node id="-211974" lat="59.6197400578" lon="9.83162180034">
		<tag k="name" v="Jartkjær" />
		<tag k="natural" v="water" />
		<tag k="ssr:stedsnr" v="731471" />
		<tag k="water" v="lake" />
	</node>
	<node id="-212376" lat="59.5405222194" lon="9.80985555153">
		<tag k="name" v="Sommerstadneset" />
		<tag k="natural" v="cape" />
		<tag k="ssr:stedsnr" v="933850" />
	</node>
	<node id="-212371" lat="59.7666555531" lon="9.38258610437">
		<tag k="name" v="Korslivannet" />
		<tag k="natural" v="water" />
		<tag k="ssr:stedsnr" v="914999" />
	</node>
	<node id="-212367" lat="59.6359055575" lon="9.71086388542">
		<tag k="alt_name" v="Bukkåstjern" />
		<tag k="name" v="Bukkåstjernet" />
		<tag k="natural" v="water" />
		<tag k="ssr:stedsnr" v="913526" />
	</node>
	<node id="-212364" lat="59.5512055513" lon="9.48532500042">
		<tag k="name" v="Næråstjernet" />
		<tag k="natural" v="water" />
		<tag k="ssr:stedsnr" v="909645" />
	</node>
	<node id="-212362" lat="59.4239555516" lon="9.68428611969">
		<tag k="name" v="Brennesund" />
		<tag k="natural" v="strait" />
		<tag k="ssr:stedsnr" v="909611" />
	</node>
	<node id="-212358" lat="59.7735749983" lon="9.39087777723">
		<tag k="name" v="Vesle-Holmvann" />
		<tag k="natural" v="water" />
		<tag k="ssr:stedsnr" v="904464" />
	</node>
	<node id="-212357" lat="59.7634083332" lon="9.38276666162">
		<tag k="name" v="Vesle Korslivannet" />
		<tag k="natural" v="water" />
		<tag k="ssr:stedsnr" v="904459" />
	</node>
	<node id="-213910" lat="59.508561107" lon="9.73368333369">
		<tag k="name" v="Finnevika" />
		<tag k="natural" v="bay" />
		<tag k="ssr:stedsnr" v="788595" />
	</node>
	<node id="-213567" lat="59.476199997" lon="9.72688611144">
		<tag k="alt_name" v="Briskmyrtjern" />
		<tag k="name" v="Briskmyrtjernet" />
		<tag k="natural" v="water" />
		<tag k="ssr:stedsnr" v="548603" />
	</node>
	<node id="-213566" lat="59.4538277733" lon="9.67913333199">
		<tag k="name" v="Funtebukta" />
		<tag k="natural" v="bay" />
		<tag k="ssr:stedsnr" v="548598" />
	</node>
	<node id="-212335" lat="59.5661555567" lon="9.61828055041">
		<tag k="name" v="Vesleelva" />
		<tag k="ssr:stedsnr" v="872760" />
		<tag k="waterway" v="river" />
	</node>
	<node id="-212330" lat="59.6868168194" lon="9.42226718973">
		<tag k="name" v="Gørtjern" />
		<tag k="natural" v="water" />
		<tag k="ssr:stedsnr" v="853955" />
	</node>
	<node id="-212328" lat="59.5653071021" lon="9.53134774375">
		<tag k="alt_name" v="Fossvann" />
		<tag k="name" v="Fossvannet" />
		<tag k="natural" v="water" />
		<tag k="ssr:stedsnr" v="853789" />
		<tag k="water" v="lake" />
	</node>
	<node id="-212326" lat="59.5832472215" lon="9.5727250029">
		<tag k="alt_name" v="Ormtjern" />
		<tag k="name" v="Ormetjern" />
		<tag k="natural" v="water" />
		<tag k="ssr:stedsnr" v="853763" />
	</node>
	<node id="-212325" lat="59.5448805599" lon="9.54159999453">
		<tag k="name" v="Kringletjern" />
		<tag k="natural" v="water" />
		<tag k="ssr:stedsnr" v="853757" />
	</node>
	<node id="-212316" lat="59.6310222187" lon="9.52135000394">
		<tag k="name" v="Storelva" />
		<tag k="ssr:stedsnr" v="853004" />
		<tag k="waterway" v="river" />
	</node>
	<node id="-212313" lat="59.6576472224" lon="9.44784999883">
		<tag k="name" v="Ormetjern" />
		<tag k="natural" v="water" />
		<tag k="ssr:stedsnr" v="852924" />
	</node>
	<node id="-212312" lat="59.6775499961" lon="9.54132500771">
		<tag k="name" v="Stordammen" />
		<tag k="natural" v="water" />
		<tag k="ssr:stedsnr" v="852903" />
	</node>
	<node id="-212311" lat="59.6579927936" lon="9.58577890741">
		<tag k="alt_name" v="Granat dam" />
		<tag k="name" v="Granatdammen" />
		<tag k="natural" v="water" />
		<tag k="ssr:stedsnr" v="852864" />
	</node>
	<node id="-212310" lat="59.4905750016" lon="9.69501944632">
		<tag k="alt_name" v="Sløgedalstjern" />
		<tag k="name" v="Sløgedalstjernet" />
		<tag k="natural" v="water" />
		<tag k="ssr:stedsnr" v="852570" />
	</node>
	<node id="-212305" lat="59.4508305589" lon="9.74433055064">
		<tag k="name" v="Viervann" />
		<tag k="natural" v="water" />
		<tag k="ssr:stedsnr" v="852523" />
		<tag k="water" v="lake" />
	</node>
	<node id="-212304" lat="59.4505055524" lon="9.67010554908">
		<tag k="alt_name" v="Sandviktjern" />
		<tag k="name" v="Sandviktjernet" />
		<tag k="natural" v="water" />
		<tag k="ssr:stedsnr" v="852511" />
	</node>
	<node id="-212303" lat="59.4313111101" lon="9.71055000222">
		<tag k="name" v="Haldoren" />
		<tag k="natural" v="water" />
		<tag k="ssr:stedsnr" v="852510" />
	</node>
	<node id="-212302" lat="59.4375833355" lon="9.71089999528">
		<tag k="name" v="Smalvann" />
		<tag k="natural" v="water" />
		<tag k="ssr:stedsnr" v="852505" />
	</node>
	<node id="-212297" lat="59.5887694446" lon="9.86508333751">
		<tag k="name" v="Senning Fjellvann" />
		<tag k="natural" v="water" />
		<tag k="ssr:stedsnr" v="849953" />
	</node>
	<node id="-214240" lat="59.4252747937" lon="9.63731563515">
		<tag k="name" v="Øvre Arkevann" />
		<tag k="natural" v="water" />
		<tag k="ssr:stedsnr" v="991081" />
	</node>
	<node id="-213215" lat="59.4161791725" lon="9.75380527881">
		<tag k="name" v="Sverigekilen" />
		<tag k="natural" v="bay" />
		<tag k="ssr:stedsnr" v="363088" />
	</node>
	<node id="-212275" lat="59.6639138885" lon="9.59272777776">
		<tag k="name" v="Storbakk dam" />
		<tag k="ssr:stedsnr" v="933690" />
		<tag k="waterway" v="dam" />
	</node>
	<node id="-212259" lat="59.4944833297" lon="10.0281472158">
		<tag k="name" v="Tuftbekken" />
		<tag k="ssr:stedsnr" v="933211" />
		<tag k="waterway" v="stream" />
	</node>
	<node id="-212258" lat="59.7569000041" lon="9.38380832867">
		<tag k="name" v="Løkedalsbekken" />
		<tag k="ssr:stedsnr" v="792983" />
		<tag k="waterway" v="stream" />
	</node>
	<node id="-212255" lat="59.5957722189" lon="9.48180556165">
		<tag k="name" v="Øksne" />
		<tag k="natural" v="water" />
		<tag k="ssr:stedsnr" v="792820" />
		<tag k="water" v="lake" />
	</node>
	<node id="-213893" lat="59.6978833363" lon="9.40895278527">
		<tag k="name" v="Stølsskarbekk" />
		<tag k="ssr:stedsnr" v="788079" />
		<tag k="waterway" v="stream" />
	</node>
	<node id="-213155" lat="59.6499972258" lon="9.48691110584">
		<tag k="alt_name" v="Brånabekk" />
		<tag k="name" v="Brånabekken" />
		<tag k="ssr:stedsnr" v="306885" />
		<tag k="waterway" v="stream" />
	</node>
	<node id="-212245" lat="59.7220068767" lon="9.49342165562">
		<tag k="name" v="Gravartjern" />
		<tag k="natural" v="water" />
		<tag k="ssr:stedsnr" v="791438" />
	</node>
	<node id="-212242" lat="59.4592238533" lon="9.6102018825">
		<tag k="alt_name" v="Ramsvann" />
		<tag k="name" v="Ramsvannet" />
		<tag k="natural" v="water" />
		<tag k="ssr:stedsnr" v="789598" />
		<tag k="water" v="lake" />
	</node>
	<node id="-212237" lat="59.5102583366" lon="9.65057222019">
		<tag k="name" v="Silletjern" />
		<tag k="natural" v="water" />
		<tag k="ssr:stedsnr" v="788363" />
	</node>
	<node id="-212236" lat="59.543108337" lon="9.74322500803">
		<tag k="name" v="Vaskevann" />
		<tag k="natural" v="bay" />
		<tag k="ssr:stedsnr" v="788624" />
	</node>
	<node id="-212232" lat="59.4766166671" lon="9.75133055977">
		<tag k="name" v="Omholtvannsbekken" />
		<tag k="ssr:stedsnr" v="788203" />
		<tag k="waterway" v="stream" />
	</node>
	<node id="-212227" lat="59.62484722" lon="9.4764249964">
		<tag k="name" v="Tangane" />
		<tag k="natural" v="cape" />
		<tag k="ssr:stedsnr" v="787582" />
	</node>
	<node id="-212224" lat="59.587752779" lon="9.48609999731">
		<tag k="name" v="Svinhusknattroa" />
		<tag k="natural" v="bay" />
		<tag k="ssr:stedsnr" v="787619" />
	</node>
	<node id="-212223" lat="59.5114406604" lon="9.55220775883">
		<tag k="name" v="Skrimsøya" />
		<tag k="natural" v="cape" />
		<tag k="ssr:stedsnr" v="787606" />
	</node>
	<node id="-212222" lat="59.5127888932" lon="9.54896666535">
		<tag k="name" v="Trettetangen" />
		<tag k="natural" v="cape" />
		<tag k="ssr:stedsnr" v="787605" />
	</node>
	<node id="-212221" lat="59.5104221191" lon="9.55019924086">
		<tag k="alt_name" v="Store Gjeitøya" />
		<tag k="name" v="Store Geitøya" />
		<tag k="place" v="island" />
		<tag k="ssr:stedsnr" v="787604" />
	</node>
	<node id="-214264" lat="59.4452424061" lon="9.60009397694">
		<tag k="name" v="Ausetjern" />
		<tag k="natural" v="water" />
		<tag k="ssr:stedsnr" v="852515" />
	</node>
	<node id="-212215" lat="59.5073694418" lon="9.52391666994">
		<tag k="name" v="Stavatjern" />
		<tag k="natural" v="water" />
		<tag k="ssr:stedsnr" v="914726" />
	</node>
	<node id="-212214" lat="59.5831666689" lon="9.88241110881">
		<tag k="alt_name" v="Ålevannet" />
		<tag k="name" v="Ålevann" />
		<tag k="natural" v="water" />
		<tag k="ssr:stedsnr" v="914512" />
		<tag k="water" v="lake" />
	</node>
	<node id="-212213" lat="59.5868472201" lon="9.87190555771">
		<tag k="name" v="Buvannet" />
		<tag k="natural" v="water" />
		<tag k="ssr:stedsnr" v="914510" />
	</node>
	<node id="-212210" lat="59.5852888877" lon="9.64783611022">
		<tag k="name" v="Dalselva" />
		<tag k="ssr:stedsnr" v="914501" />
		<tag k="waterway" v="river" />
	</node>
	<node id="-214255" lat="59.6615395844" lon="9.45473588306">
		<tag k="name" v="Øvre Lauvåstjern" />
		<tag k="natural" v="water" />
		<tag k="ssr:stedsnr" v="1073956" />
	</node>
	<node id="-214254" lat="59.6594630641" lon="9.45538249618">
		<tag k="name" v="Nedre Lauvåstjern" />
		<tag k="natural" v="water" />
		<tag k="ssr:stedsnr" v="1073955" />
	</node>
	<node id="-212203" lat="59.609388893" lon="9.84691666881">
		<tag k="name" v="Hvitstein" />
		<tag k="natural" v="water" />
		<tag k="ssr:stedsnr" v="914437" />
		<tag k="water" v="lake" />
	</node>
	<node id="-212192" lat="59.6710499988" lon="9.449175007">
		<tag k="name" v="Tuvetjern" />
		<tag k="natural" v="water" />
		<tag k="ssr:stedsnr" v="913921" />
	</node>
	<node id="-214239" lat="59.4290827347" lon="9.63352462639">
		<tag k="name" v="Nedre Arkevann" />
		<tag k="natural" v="water" />
		<tag k="ssr:stedsnr" v="991080" />
	</node>
	<node id="-212185" lat="59.5943249985" lon="9.48104999586">
		<tag k="fixme" v="multiple name tags, choose one and add the other to alt_name" />
		<tag k="name" v="Bjørkodden;Løkemyrodden" />
		<tag k="natural" v="cape" />
		<tag k="ssr:stedsnr" v="913825" />
	</node>
	<node id="-212184" lat="59.5930222237" lon="9.49997499547">
		<tag k="name" v="Kolsjøelva" />
		<tag k="ssr:stedsnr" v="913824" />
		<tag k="waterway" v="river" />
	</node>
	<node id="-212183" lat="59.6088222229" lon="9.48846111942">
		<tag k="name" v="Igletjern" />
		<tag k="natural" v="water" />
		<tag k="ssr:stedsnr" v="913813" />
	</node>
	<node id="-212182" lat="59.6018983107" lon="9.52756174448">
		<tag k="alt_name" v="Vierskogtjern" />
		<tag k="name" v="Viertjern" />
		<tag k="natural" v="water" />
		<tag k="ssr:stedsnr" v="913802" />
	</node>
	<node id="-212179" lat="59.4795361145" lon="9.74406111683">
		<tag k="name" v="Omholtvannet" />
		<tag k="natural" v="water" />
		<tag k="ssr:stedsnr" v="913582" />
	</node>
	<node id="-212178" lat="59.4793166681" lon="9.71899167413">
		<tag k="name" v="Rørtjern" />
		<tag k="natural" v="water" />
		<tag k="ssr:stedsnr" v="913581" />
	</node>
	<node id="-212175" lat="59.4718254097" lon="9.64312093096">
		<tag k="name" v="Maurlivannet" />
		<tag k="natural" v="water" />
		<tag k="ssr:stedsnr" v="913552" />
	</node>
	<node id="-212173" lat="59.4149749965" lon="9.74426666337">
		<tag k="name" v="Kalven" />
		<tag k="natural" v="bay" />
		<tag k="ssr:stedsnr" v="913502" />
	</node>
	<node id="-214218" lat="59.6924055533" lon="9.48546665903">
		<tag k="name" v="Flåbergbekk" />
		<tag k="ssr:stedsnr" v="970123" />
		<tag k="waterway" v="stream" />
	</node>
	<node id="-214215" lat="59.6854787037" lon="9.43541341841">
		<tag k="name" v="Bjørndalstjern" />
		<tag k="natural" v="water" />
		<tag k="ssr:stedsnr" v="970098" />
	</node>
	<node id="-214213" lat="59.6846527785" lon="9.4646277856">
		<tag k="name" v="Vestre Knattetjern" />
		<tag k="natural" v="water" />
		<tag k="ssr:stedsnr" v="970079" />
	</node>
	<node id="-212164" lat="59.5376500023" lon="9.70640833296">
		<tag k="name" v="Damtjern" />
		<tag k="natural" v="water" />
		<tag k="ssr:stedsnr" v="913404" />
	</node>
	<node id="-214208" lat="59.4304250033" lon="9.62459166166">
		<tag k="name" v="Båstjern" />
		<tag k="natural" v="water" />
		<tag k="ssr:stedsnr" v="970176" />
	</node>
	<node id="-214206" lat="59.6653361074" lon="9.42241944607">
		<tag k="name" v="Langevannet" />
		<tag k="natural" v="water" />
		<tag k="ssr:stedsnr" v="970050" />
		<tag k="water" v="lake" />
	</node>
	<node id="-212157" lat="59.4966722267" lon="9.53535277317">
		<tag k="name" v="Bånntjern" />
		<tag k="natural" v="water" />
		<tag k="ssr:stedsnr" v="913076" />
	</node>
	<node id="-212155" lat="59.4702749986" lon="9.60737500494">
		<tag k="name" v="Pisttjern" />
		<tag k="natural" v="water" />
		<tag k="ssr:stedsnr" v="912615" />
	</node>
	<node id="-212154" lat="59.4198333348" lon="9.72626388686">
		<tag k="name" v="Bimplane" />
		<tag k="natural" v="water" />
		<tag k="ssr:stedsnr" v="912582" />
		<tag k="water" v="lake" />
	</node>
	<node id="-212153" lat="59.4186404145" lon="9.6618083655">
		<tag k="name" v="Øvre Setertjernet" />
		<tag k="natural" v="water" />
		<tag k="ssr:stedsnr" v="912578" />
	</node>
	<node id="-212151" lat="59.4516500004" lon="9.68964166671">
		<tag k="name" v="Granodden" />
		<tag k="natural" v="cape" />
		<tag k="ssr:stedsnr" v="910619" />
	</node>
	<node id="-214198" lat="59.422263886" lon="9.69024444132">
		<tag k="name" v="Damfjorden" />
		<tag k="natural" v="bay" />
		<tag k="ssr:stedsnr" v="969628" />
	</node>
	<node id="-212149" lat="59.4541555584" lon="9.5946361181">
		<tag k="name" v="Kvernbekken" />
		<tag k="ssr:stedsnr" v="910523" />
		<tag k="waterway" v="stream" />
	</node>
	<node id="-212147" lat="59.5066583331" lon="9.50818333761">
		<tag k="name" v="Primtjern" />
		<tag k="natural" v="water" />
		<tag k="ssr:stedsnr" v="910168" />
	</node>
	<node id="-214194" lat="59.4949750026" lon="9.671930556">
		<tag k="name" v="Kanolibekken" />
		<tag k="ssr:stedsnr" v="969584" />
		<tag k="waterway" v="stream" />
	</node>
	<node id="-214193" lat="59.6163805523" lon="9.481375004">
		<tag k="name" v="Geiteryggtjern" />
		<tag k="natural" v="water" />
		<tag k="ssr:stedsnr" v="969580" />
	</node>
	<node id="-214192" lat="59.5294555598" lon="9.56399999544">
		<tag k="name" v="Svensketjern" />
		<tag k="natural" v="water" />
		<tag k="ssr:stedsnr" v="969335" />
	</node>
	<node id="-214191" lat="59.5798499966" lon="9.58878056087">
		<tag k="name" v="Trytetjern" />
		<tag k="natural" v="water" />
		<tag k="ssr:stedsnr" v="969299" />
	</node>
	<node id="-214190" lat="59.5086666683" lon="9.5595722169">
		<tag k="name" v="Dagsbekk" />
		<tag k="ssr:stedsnr" v="969392" />
		<tag k="waterway" v="stream" />
	</node>
	<node id="-214185" lat="59.7209777765" lon="9.46363889138">
		<tag k="name" v="Deilesbekken" />
		<tag k="ssr:stedsnr" v="969134" />
		<tag k="waterway" v="stream" />
	</node>
	<node id="-212136" lat="59.5716999972" lon="9.85381110989">
		<tag k="name" v="Store Hestedalstjern" />
		<tag k="natural" v="water" />
		<tag k="ssr:stedsnr" v="909984" />
	</node>
	<node id="-214182" lat="59.745466666" lon="9.44504721608">
		<tag k="name" v="Roligmyrbekken" />
		<tag k="ssr:stedsnr" v="965932" />
		<tag k="waterway" v="stream" />
	</node>
	<node id="-214181" lat="59.7694833361" lon="9.38420555412">
		<tag k="name" v="Rundvassbekken" />
		<tag k="ssr:stedsnr" v="965494" />
		<tag k="waterway" v="stream" />
	</node>
	<node id="-214177" lat="59.7152000012" lon="9.59276667317">
		<tag k="name" v="Fuglemyrtjern" />
		<tag k="natural" v="water" />
		<tag k="ssr:stedsnr" v="873996" />
	</node>
	<node id="-212128" lat="59.5309527741" lon="9.94570555569">
		<tag k="name" v="Hulpen" />
		<tag k="natural" v="water" />
		<tag k="ssr:stedsnr" v="909859" />
	</node>
	<node id="-214175" lat="59.6862361089" lon="9.61129167436">
		<tag k="name" v="Tangen" />
		<tag k="natural" v="cape" />
		<tag k="ssr:stedsnr" v="873897" />
	</node>
	<node id="-214171" lat="59.7137472194" lon="9.60666388103">
		<tag k="name" v="Påløya" />
		<tag k="place" v="island" />
		<tag k="ssr:stedsnr" v="873929" />
	</node>
	<node id="-212120" lat="59.5576833353" lon="9.90084166881">
		<tag k="name" v="Fremre Krokvann" />
		<tag k="natural" v="water" />
		<tag k="ssr:stedsnr" v="909787" />
	</node>
	<node id="-212119" lat="59.5583916707" lon="9.91888889571">
		<tag k="name" v="Uletjern" />
		<tag k="natural" v="water" />
		<tag k="ssr:stedsnr" v="909785" />
	</node>
	<node id="-213529" lat="59.6290777815" lon="9.81857500344">
		<tag k="name" v="Øvre Timannstjern" />
		<tag k="natural" v="water" />
		<tag k="ssr:stedsnr" v="545546" />
	</node>
	<node id="-212115" lat="59.6517777803" lon="9.7385999925">
		<tag k="name" v="Løken" />
		<tag k="ssr:stedsnr" v="909665" />
		<tag k="waterway" v="stream" />
	</node>
	<node id="-212114" lat="59.5891333377" lon="9.51916667351">
		<tag k="name" v="Orevika" />
		<tag k="natural" v="bay" />
		<tag k="ssr:stedsnr" v="909599" />
	</node>
	<node id="-212113" lat="59.5159694405" lon="9.7906749986">
		<tag k="name" v="Vesle Granstjern" />
		<tag k="natural" v="water" />
		<tag k="ssr:stedsnr" v="909596" />
	</node>
	<node id="-212112" lat="59.51044444" lon="9.76846110903">
		<tag k="name" v="Farrisbekk" />
		<tag k="ssr:stedsnr" v="909594" />
		<tag k="waterway" v="stream" />
	</node>
	<node id="-212109" lat="59.5141805554" lon="9.51868611035">
		<tag k="name" v="Arebuelva" />
		<tag k="ssr:stedsnr" v="909583" />
		<tag k="waterway" v="river" />
	</node>
	<node id="-212108" lat="59.5289481252" lon="9.52646384379">
		<tag k="name" v="Svarttjern" />
		<tag k="natural" v="water" />
		<tag k="ssr:stedsnr" v="909578" />
	</node>
	<node id="-212107" lat="59.4804166672" lon="9.60606111072">
		<tag k="name" v="Maurtjern" />
		<tag k="natural" v="water" />
		<tag k="ssr:stedsnr" v="909552" />
	</node>
	<node id="-214154" lat="59.5253555552" lon="9.84536666209">
		<tag k="name" v="Meskestadelva" />
		<tag k="ssr:stedsnr" v="873761" />
		<tag k="waterway" v="stream" />
	</node>
	<node id="-212105" lat="59.607994447" lon="9.44035833774">
		<tag k="name" v="Nedre Jerpetjern" />
		<tag k="natural" v="water" />
		<tag k="ssr:stedsnr" v="909545" />
	</node>
	<node id="-214151" lat="59.6503527744" lon="9.59199721811">
		<tag k="name" v="Justitsdam" />
		<tag k="ssr:stedsnr" v="873500" />
		<tag k="waterway" v="dam" />
	</node>
	<node id="-212101" lat="59.514422219" lon="9.55367777181">
		<tag k="name" v="Kjelen" />
		<tag k="place" v="island" />
		<tag k="ssr:stedsnr" v="909371" />
	</node>
	<node id="-212100" lat="59.5184361111" lon="9.55558056198">
		<tag k="name" v="Dambukta" />
		<tag k="natural" v="bay" />
		<tag k="ssr:stedsnr" v="909369" />
	</node>
	<node id="-212094" lat="59.4775222238" lon="9.88260833876">
		<tag k="name" v="Tretjern" />
		<tag k="natural" v="water" />
		<tag k="ssr:stedsnr" v="909177" />
		<tag k="water" v="lake" />
	</node>
	<node id="-214139" lat="59.5865972219" lon="9.60053055912">
		<tag k="name" v="Jentetjernbekken" />
		<tag k="ssr:stedsnr" v="872394" />
		<tag k="waterway" v="stream" />
	</node>
	<node id="-214138" lat="59.7722333372" lon="9.35987499335">
		<tag k="name" v="Langevassbekken" />
		<tag k="ssr:stedsnr" v="854600" />
		<tag k="waterway" v="stream" />
	</node>
	<node id="-212086" lat="59.6894555521" lon="9.40469445256">
		<tag k="name" v="Stølsskartjern" />
		<tag k="natural" v="water" />
		<tag k="ssr:stedsnr" v="909109" />
	</node>
	<node id="-214133" lat="59.5272527806" lon="9.98466944651">
		<tag k="name" v="Stutauet" />
		<tag k="natural" v="water" />
		<tag k="ssr:stedsnr" v="853887" />
		<tag k="water" v="pond" />
	</node>
	<node id="-214131" lat="59.6143722239" lon="9.44084999703">
		<tag k="alt_name" v="Vindbekktjern" />
		<tag k="name" v="Vinbekktjern" />
		<tag k="natural" v="water" />
		<tag k="ssr:stedsnr" v="853868" />
	</node>
	<node id="-214130" lat="59.5255030243" lon="9.55123317792">
		<tag k="alt_name" v="Lille Mjøvann" />
		<tag k="name" v="Lille Mjøvannet" />
		<tag k="natural" v="water" />
		<tag k="ssr:stedsnr" v="853727" />
	</node>
	<node id="-212081" lat="59.6874361146" lon="9.44109721382">
		<tag k="name" v="Pipetjern" />
		<tag k="natural" v="water" />
		<tag k="ssr:stedsnr" v="909061" />
	</node>
	<node id="-212080" lat="59.681258329" lon="9.4158722238">
		<tag k="name" v="Øvre Kalvetjern" />
		<tag k="natural" v="water" />
		<tag k="ssr:stedsnr" v="909057" />
	</node>
	<node id="-212079" lat="59.7220055533" lon="9.59447499783">
		<tag k="name" v="Langeidfoss" />
		<tag k="ssr:stedsnr" v="909034" />
		<tag k="waterway" v="rapids" />
	</node>
	<node id="-212078" lat="59.6683611133" lon="9.4442194481">
		<tag k="name" v="Tuvetjernbekken" />
		<tag k="ssr:stedsnr" v="909031" />
		<tag k="waterway" v="stream" />
	</node>
	<node id="-214125" lat="59.5720416639" lon="9.52906388864">
		<tag k="alt_name" v="Slepehølen" />
		<tag k="name" v="Slepuhølen" />
		<tag k="place" v="locality" />
		<tag k="ssr:stedsnr" v="853795" />
	</node>
	<node id="-212076" lat="59.667497222" lon="9.53418610663">
		<tag k="name" v="Rypetjerna" />
		<tag k="natural" v="water" />
		<tag k="ssr:stedsnr" v="909014" />
		<tag k="water" v="lake" />
	</node>
	<node id="-212075" lat="59.6539194429" lon="9.44230833225">
		<tag k="name" v="Hengsdammen" />
		<tag k="ssr:stedsnr" v="909005" />
		<tag k="waterway" v="dam" />
	</node>
	<node id="-214118" lat="59.5984249968" lon="9.87679165819">
		<tag k="name" v="Utrygg" />
		<tag k="natural" v="water" />
		<tag k="ssr:stedsnr" v="853451" />
	</node>
	<node id="-212069" lat="59.5705248653" lon="9.91635175128">
		<tag k="name" v="Håken" />
		<tag k="natural" v="water" />
		<tag k="ssr:stedsnr" v="732538" />
	</node>
	<node id="-212068" lat="59.5731916679" lon="9.66031389707">
		<tag k="alt_name" v="Skumtjern" />
		<tag k="name" v="Skumtjernet" />
		<tag k="natural" v="water" />
		<tag k="ssr:stedsnr" v="732533" />
	</node>
	<node id="-214114" lat="59.5256250042" lon="9.77767499739">
		<tag k="name" v="Deilsvann" />
		<tag k="natural" v="water" />
		<tag k="ssr:stedsnr" v="853430" />
	</node>
	<node id="-212063" lat="59.726749997" lon="9.36164999167">
		<tag k="alt_name" v="Buvatnet" />
		<tag k="name" v="Buvannet" />
		<tag k="natural" v="water" />
		<tag k="ssr:stedsnr" v="731420" />
		<tag k="water" v="lake" />
	</node>
	<node id="-212061" lat="59.5839138896" lon="9.85399722098">
		<tag k="name" v="Vesle Ormevann" />
		<tag k="natural" v="water" />
		<tag k="ssr:stedsnr" v="727988" />
	</node>
	<node id="-214108" lat="59.5212450093" lon="9.95646535593">
		<tag k="alt_name" v="Uletjern" />
		<tag k="name" v="Uletjernet" />
		<tag k="natural" v="water" />
		<tag k="ssr:stedsnr" v="853301" />
	</node>
	<node id="-214107" lat="59.6597056301" lon="9.4181690462">
		<tag k="alt_name" v="Tyvetjern" />
		<tag k="name" v="Tuvetjern" />
		<tag k="natural" v="water" />
		<tag k="ssr:stedsnr" v="853101" />
	</node>
	<node id="-212058" lat="59.4389527817" lon="9.65494999138">
		<tag k="name" v="Ramsbukta" />
		<tag k="natural" v="bay" />
		<tag k="ssr:stedsnr" v="727628" />
	</node>
	<node id="-212057" lat="59.4369611078" lon="9.64355832687">
		<tag k="name" v="Fyrstikktjern" />
		<tag k="natural" v="water" />
		<tag k="ssr:stedsnr" v="727627" />
	</node>
	<node id="-212056" lat="59.4520388893" lon="9.69249166275">
		<tag k="name" v="Trulsebukta" />
		<tag k="natural" v="bay" />
		<tag k="ssr:stedsnr" v="727623" />
	</node>
	<node id="-214103" lat="59.4560250028" lon="9.73073889248">
		<tag k="alt_name" v="Medvelen" />
		<tag k="name" v="Midvelen" />
		<tag k="natural" v="water" />
		<tag k="ssr:stedsnr" v="852586" />
		<tag k="water" v="lake" />
	</node>
	<node id="-214102" lat="59.4609132254" lon="9.7367391413">
		<tag k="name" v="Storevelen" />
		<tag k="natural" v="water" />
		<tag k="ssr:stedsnr" v="852582" />
		<tag k="water" v="lake" />
	</node>
	<node id="-212053" lat="59.4380305525" lon="9.69093611347">
		<tag k="name" v="Stokkoset" />
		<tag k="natural" v="bay" />
		<tag k="ssr:stedsnr" v="727615" />
	</node>
	<node id="-214100" lat="59.6541805566" lon="9.53353333221">
		<tag k="name" v="Knutetjern" />
		<tag k="natural" v="water" />
		<tag k="ssr:stedsnr" v="849948" />
	</node>
	<node id="-212051" lat="59.4259694423" lon="9.69911388075">
		<tag k="name" v="Gåserudtjern" />
		<tag k="natural" v="water" />
		<tag k="ssr:stedsnr" v="727605" />
	</node>
	<node id="-213859" lat="59.619902774" lon="9.82500554919">
		<tag k="name" v="Jartkjærbekken" />
		<tag k="ssr:stedsnr" v="755920" />
		<tag k="waterway" v="stream" />
	</node>
	<node id="-214093" lat="59.5866777797" lon="9.74243056051">
		<tag k="name" v="Sagfossen" />
		<tag k="natural" v="waterfall" />
		<tag k="ssr:stedsnr" v="849831" />
	</node>
	<node id="-214199" lat="59.4202444411" lon="9.68988611732">
		<tag k="name" v="Grevle" />
		<tag k="natural" v="bay" />
		<tag k="ssr:stedsnr" v="969631" />
	</node>
	<node id="-212039" lat="59.6748194451" lon="9.43544443633">
		<tag k="name" v="Åstjernbekken" />
		<tag k="ssr:stedsnr" v="727027" />
		<tag k="waterway" v="stream" />
	</node>
	<node id="-212037" lat="59.6466388874" lon="9.44973333446">
		<tag k="name" v="Trytehølen" />
		<tag k="place" v="locality" />
		<tag k="ssr:stedsnr" v="727012" />
	</node>
	<node id="-214084" lat="59.5118027745" lon="9.70431667254">
		<tag k="name" v="Flærkilane" />
		<tag k="natural" v="bay" />
		<tag k="ssr:stedsnr" v="849619" />
	</node>
	<node id="-214083" lat="59.5791138893" lon="9.50736111204">
		<tag k="name" v="Bjørkeseterbekken" />
		<tag k="ssr:stedsnr" v="849618" />
		<tag k="waterway" v="stream" />
	</node>
	<node id="-214082" lat="59.5234194401" lon="9.54078055677">
		<tag k="name" v="Funten" />
		<tag k="natural" v="water" />
		<tag k="ssr:stedsnr" v="849612" />
	</node>
	<node id="-214081" lat="59.5508888845" lon="9.52103611302">
		<tag k="name" v="Krokvannsbekken" />
		<tag k="ssr:stedsnr" v="849608" />
		<tag k="waterway" v="stream" />
	</node>
	<node id="-214079" lat="59.5969138871" lon="9.4527194521">
		<tag k="name" v="Nedre Brudetjern" />
		<tag k="natural" v="water" />
		<tag k="ssr:stedsnr" v="849558" />
	</node>
	<node id="-212030" lat="59.5922216743" lon="9.85132489491">
		<tag k="name" v="Svinetjern" />
		<tag k="natural" v="water" />
		<tag k="ssr:stedsnr" v="694604" />
	</node>
	<node id="-214077" lat="59.460838893" lon="9.62151665862">
		<tag k="name" v="Folkevannsøya" />
		<tag k="place" v="island" />
		<tag k="ssr:stedsnr" v="849527" />
	</node>
	<node id="-214076" lat="59.4451277796" lon="9.64985000672">
		<tag k="name" v="Krokvanndammen" />
		<tag k="ssr:stedsnr" v="849523" />
		<tag k="waterway" v="dam" />
	</node>
	<node id="-214074" lat="59.5597527789" lon="9.6762805512">
		<tag k="name" v="Velen" />
		<tag k="natural" v="water" />
		<tag k="ssr:stedsnr" v="849340" />
		<tag k="water" v="lake" />
	</node>
	<node id="-214072" lat="59.490561114" lon="9.74567221687">
		<tag k="name" v="Grønlibekken" />
		<tag k="ssr:stedsnr" v="849296" />
		<tag k="waterway" v="stream" />
	</node>
	<node id="-212023" lat="59.5507444421" lon="9.71227499607">
		<tag k="name" v="Veslegravdøla" />
		<tag k="ssr:stedsnr" v="666856" />
		<tag k="waterway" v="stream" />
	</node>
	<node id="-213854" lat="59.5431166644" lon="9.89615000254">
		<tag k="name" v="Kleivtjern" />
		<tag k="natural" v="water" />
		<tag k="ssr:stedsnr" v="752768" />
	</node>
	<node id="-214063" lat="59.6101888854" lon="9.57796945284">
		<tag k="name" v="Setertjernet" />
		<tag k="natural" v="water" />
		<tag k="ssr:stedsnr" v="849163" />
	</node>
	<node id="-212014" lat="59.4947944466" lon="9.74021943679">
		<tag k="name" v="Stutauet" />
		<tag k="natural" v="water" />
		<tag k="ssr:stedsnr" v="666408" />
		<tag k="water" v="pond" />
	</node>
	<node id="-212013" lat="59.5758500021" lon="9.86997777759">
		<tag k="name" v="Indre Damvann" />
		<tag k="natural" v="water" />
		<tag k="ssr:stedsnr" v="878594" />
		<tag k="water" v="lake" />
	</node>
	<node id="-214056" lat="59.6989027778" lon="9.36841944369">
		<tag k="name" v="Nedre Fjeladam" />
		<tag k="natural" v="water" />
		<tag k="ssr:stedsnr" v="849138" />
	</node>
	<node id="-212005" lat="59.6419027736" lon="9.47136388773">
		<tag k="name" v="Reiertjern" />
		<tag k="natural" v="water" />
		<tag k="ssr:stedsnr" v="666015" />
	</node>
	<node id="-214052" lat="59.6926527799" lon="9.49659166541">
		<tag k="name" v="Langvannsbekk" />
		<tag k="ssr:stedsnr" v="849098" />
		<tag k="waterway" v="stream" />
	</node>
	<node id="-212003" lat="59.6078833302" lon="9.84225833381">
		<tag k="name" v="Nambergtjern" />
		<tag k="natural" v="water" />
		<tag k="ssr:stedsnr" v="876636" />
	</node>
	<node id="-212002" lat="59.7645892418" lon="9.3565796574">
		<tag k="name" v="Hestetjørn" />
		<tag k="natural" v="water" />
		<tag k="ssr:stedsnr" v="732995" />
	</node>
	<node id="-212001" lat="59.7780444452" lon="9.37805000001">
		<tag k="name" v="Fisketjern" />
		<tag k="natural" v="water" />
		<tag k="ssr:stedsnr" v="732875" />
	</node>
	<node id="-212000" lat="59.7758577739" lon="9.38830797477">
		<tag k="name" v="Holmevatnet" />
		<tag k="natural" v="water" />
		<tag k="ssr:stedsnr" v="732873" />
		<tag k="water" v="lake" />
	</node>
	<node id="-211999" lat="59.7713611127" lon="9.38242500253">
		<tag k="name" v="Rundvannet" />
		<tag k="natural" v="water" />
		<tag k="ssr:stedsnr" v="732871" />
	</node>
	<node id="-214041" lat="59.5408027763" lon="9.56717777519">
		<tag k="name" v="Merratjern" />
		<tag k="natural" v="water" />
		<tag k="ssr:stedsnr" v="848368" />
	</node>
	<node id="-211992" lat="59.6832972211" lon="9.42544999819">
		<tag k="name" v="Åstjern" />
		<tag k="natural" v="water" />
		<tag k="ssr:stedsnr" v="731960" />
	</node>
	<node id="-211991" lat="59.6825555528" lon="9.4145722191">
		<tag k="alt_name" v="Nedre Kalvetjern" />
		<tag k="name" v="Kalvetjern" />
		<tag k="natural" v="water" />
		<tag k="ssr:stedsnr" v="731958" />
	</node>
	<node id="-211989" lat="59.6935583313" lon="9.52442221514">
		<tag k="name" v="Rognlibekken" />
		<tag k="ssr:stedsnr" v="731944" />
		<tag k="waterway" v="stream" />
	</node>
	<node id="-211988" lat="59.6945472237" lon="9.5420972156">
		<tag k="alt_name" v="Storbekk" />
		<tag k="name" v="Storbekken" />
		<tag k="ssr:stedsnr" v="731941" />
		<tag k="waterway" v="stream" />
	</node>
	<node id="-211983" lat="59.5824305521" lon="9.58638055951">
		<tag k="name" v="Trytetjerna" />
		<tag k="natural" v="water" />
		<tag k="ssr:stedsnr" v="731770" />
		<tag k="water" v="lake" />
	</node>
	<node id="-211982" lat="59.5560249991" lon="9.47645000366">
		<tag k="alt_name" v="Olletjern" />
		<tag k="name" v="Ollantjern" />
		<tag k="natural" v="water" />
		<tag k="ssr:stedsnr" v="731747" />
	</node>
	<node id="-214028" lat="59.5802166652" lon="9.87480277857">
		<tag k="name" v="Vaskertjern" />
		<tag k="natural" v="water" />
		<tag k="ssr:stedsnr" v="817525" />
	</node>
	<node id="-214027" lat="59.4678833347" lon="9.82524167326">
		<tag k="name" v="Surlielva" />
		<tag k="ssr:stedsnr" v="816295" />
		<tag k="waterway" v="river" />
	</node>
	<node id="-214026" lat="59.6277583307" lon="9.81607499497">
		<tag k="name" v="Nedre Timannstjern" />
		<tag k="natural" v="water" />
		<tag k="ssr:stedsnr" v="815923" />
	</node>
	<node id="-211977" lat="59.5106388861" lon="9.61576944891">
		<tag k="alt_name" v="Øvre Ulstjern" />
		<tag k="name" v="Øvre Urdstjerna" />
		<tag k="natural" v="water" />
		<tag k="ssr:stedsnr" v="731300" />
	</node>
	<node id="-211976" lat="59.5049612166" lon="9.64333571684">
		<tag k="alt_name" v="Stulstjern" />
		<tag k="name" v="Stulstjernet" />
		<tag k="natural" v="water" />
		<tag k="ssr:stedsnr" v="731298" />
	</node>
	<node id="-214022" lat="59.5473638903" lon="9.88506667076">
		<tag k="name" v="Dalatjern" />
		<tag k="natural" v="water" />
		<tag k="ssr:stedsnr" v="813762" />
	</node>
	<node id="-211972" lat="59.6110816213" lon="9.61850064873">
		<tag k="alt_name" v="Ertstjern" />
		<tag k="name" v="Ertstjernet" />
		<tag k="natural" v="water" />
		<tag k="ssr:stedsnr" v="731463" />
	</node>
	<node id="-211971" lat="59.7476968909" lon="9.37945606088">
		<tag k="alt_name" v="Åkrokdammen" />
		<tag k="name" v="Åkroppdammen" />
		<tag k="natural" v="water" />
		<tag k="ssr:stedsnr" v="731450" />
	</node>
	<node id="-211970" lat="59.5497305522" lon="9.96317778185">
		<tag k="name" v="Flisestø" />
		<tag k="natural" v="bay" />
		<tag k="ssr:stedsnr" v="731393" />
	</node>
	<node id="-211969" lat="59.5420388921" lon="9.74759999724">
		<tag k="alt_name" v="Stælavann" />
		<tag k="name" v="Stelavannet" />
		<tag k="natural" v="water" />
		<tag k="ssr:stedsnr" v="731388" />
	</node>
	<node id="-211967" lat="59.5497527792" lon="9.65355833781">
		<tag k="alt_name" v="Skrekktjern" />
		<tag k="name" v="Skriketjernet" />
		<tag k="natural" v="water" />
		<tag k="ssr:stedsnr" v="731381" />
	</node>
	<node id="-211964" lat="59.4934472222" lon="9.61528055174">
		<tag k="name" v="Tråkleivvannet" />
		<tag k="natural" v="water" />
		<tag k="ssr:stedsnr" v="730702" />
	</node>
	<node id="-211962" lat="59.472427781" lon="9.71556111396">
		<tag k="alt_name" v="Lakstjern" />
		<tag k="name" v="Lakstjernet" />
		<tag k="natural" v="water" />
		<tag k="ssr:stedsnr" v="730666" />
	</node>
	<node id="-211961" lat="59.4509916695" lon="9.62850833704">
		<tag k="name" v="Ramsdammen" />
		<tag k="place" v="locality" />
		<tag k="ssr:stedsnr" v="730549" />
	</node>
	<node id="-211960" lat="59.4491499955" lon="9.66512223071">
		<tag k="name" v="Sandvika" />
		<tag k="natural" v="bay" />
		<tag k="ssr:stedsnr" v="730545" />
	</node>
	<node id="-211959" lat="59.4338138854" lon="9.63547500717">
		<tag k="alt_name" v="Fjøsåstjern" />
		<tag k="name" v="Fjøsåstjernet" />
		<tag k="natural" v="water" />
		<tag k="ssr:stedsnr" v="730538" />
	</node>
	<node id="-211955" lat="59.484588889" lon="9.62042778591">
		<tag k="name" v="Hestelivannet" />
		<tag k="natural" v="water" />
		<tag k="ssr:stedsnr" v="730630" />
	</node>
	<node id="-211953" lat="59.477877774" lon="9.90937499531">
		<tag k="name" v="Gretteelva" />
		<tag k="ssr:stedsnr" v="730624" />
		<tag k="waterway" v="stream" />
	</node>
	<node id="-213996" lat="59.4597833377" lon="10.0093777734">
		<tag k="name" v="Fossnesevjua" />
		<tag k="natural" v="water" />
		<tag k="ssr:stedsnr" v="812768" />
		<tag k="water" v="lake" />
	</node>
	<node id="-213992" lat="59.5227499968" lon="9.89036667247">
		<tag k="name" v="Damdalsbekken" />
		<tag k="ssr:stedsnr" v="812754" />
		<tag k="waterway" v="stream" />
	</node>
	<node id="-213991" lat="59.5606499975" lon="9.59278610398">
		<tag k="name" v="Bjørndalsbekken" />
		<tag k="ssr:stedsnr" v="812751" />
		<tag k="waterway" v="stream" />
	</node>
	<node id="-213990" lat="59.5668472184" lon="9.62941111612">
		<tag k="name" v="Rønningfossene" />
		<tag k="natural" v="waterfall" />
		<tag k="ssr:stedsnr" v="812733" />
	</node>
	<node id="-211932" lat="59.7068027768" lon="9.65942221917">
		<tag k="name" v="Rømmegrauten" />
		<tag k="natural" v="water" />
		<tag k="ssr:stedsnr" v="629955" />
	</node>
	<node id="-213976" lat="59.6540166624" lon="9.63620277494">
		<tag k="name" v="Sellikbekken" />
		<tag k="ssr:stedsnr" v="812550" />
		<tag k="waterway" v="stream" />
	</node>
	<node id="-213974" lat="59.6464222243" lon="9.66661111003">
		<tag k="name" v="Toppetjern" />
		<tag k="natural" v="water" />
		<tag k="ssr:stedsnr" v="812531" />
	</node>
	<node id="-213973" lat="59.5774305536" lon="9.58578333132">
		<tag k="name" v="Sølebot" />
		<tag k="natural" v="water" />
		<tag k="ssr:stedsnr" v="812356" />
	</node>
	<node id="-211924" lat="59.5524416669" lon="9.91076667178">
		<tag k="name" v="Lauptjern" />
		<tag k="natural" v="water" />
		<tag k="ssr:stedsnr" v="727791" />
	</node>
	<node id="-211923" lat="59.6916305535" lon="9.6332027703">
		<tag k="name" v="Bevertangen" />
		<tag k="natural" v="cape" />
		<tag k="ssr:stedsnr" v="629914" />
	</node>
	<node id="-213969" lat="59.5722888919" lon="9.65443889283">
		<tag k="alt_name" v="Damtjern" />
		<tag k="name" v="Damtjernet" />
		<tag k="natural" v="water" />
		<tag k="ssr:stedsnr" v="793527" />
	</node>
	<node id="-213966" lat="59.6998250028" lon="9.43941388529">
		<tag k="name" v="Bjørndalsbekken" />
		<tag k="ssr:stedsnr" v="792945" />
		<tag k="waterway" v="stream" />
	</node>
	<node id="-213964" lat="59.5430029725" lon="9.55131102007">
		<tag k="name" v="Abrahamtjern" />
		<tag k="natural" v="water" />
		<tag k="ssr:stedsnr" v="792732" />
	</node>
	<node id="-211915" lat="59.5718111128" lon="9.6450916584">
		<tag k="name" v="Damtjernbekken" />
		<tag k="ssr:stedsnr" v="629366" />
		<tag k="waterway" v="stream" />
	</node>
	<node id="-213960" lat="59.7381027819" lon="9.35424721894">
		<tag k="name" v="Kvitåa" />
		<tag k="ssr:stedsnr" v="792487" />
		<tag k="waterway" v="river" />
	</node>
	<node id="-211907" lat="59.475491668" lon="9.61239721435">
		<tag k="name" v="Bråtatjern" />
		<tag k="natural" v="water" />
		<tag k="ssr:stedsnr" v="727544" />
	</node>
	<node id="-211905" lat="59.7303972223" lon="9.58562500303">
		<tag k="name" v="Ekornbekken" />
		<tag k="ssr:stedsnr" v="727777" />
		<tag k="waterway" v="stream" />
	</node>
	<node id="-214176" lat="59.705688886" lon="9.5761138931">
		<tag k="alt_name" v="Kjøytabekk" />
		<tag k="name" v="Kjøytabekken" />
		<tag k="ssr:stedsnr" v="873991" />
		<tag k="waterway" v="stream" />
	</node>
	<node id="-213949" lat="59.5398388886" lon="9.76150277892">
		<tag k="alt_name" v="Fjellvann" />
		<tag k="name" v="Fjellvannet" />
		<tag k="natural" v="water" />
		<tag k="ssr:stedsnr" v="792394" />
	</node>
	<node id="-213948" lat="59.5638261025" lon="9.93266962489">
		<tag k="name" v="Hajeren" />
		<tag k="natural" v="water" />
		<tag k="ssr:stedsnr" v="792383" />
		<tag k="water" v="lake" />
	</node>
	<node id="-211899" lat="59.5169111116" lon="9.5575527774">
		<tag k="name" v="Grønlibukta" />
		<tag k="natural" v="bay" />
		<tag k="ssr:stedsnr" v="727368" />
	</node>
	<node id="-213945" lat="59.4476944482" lon="9.59060277533">
		<tag k="name" v="Holmevannet" />
		<tag k="natural" v="water" />
		<tag k="ssr:stedsnr" v="791929" />
		<tag k="water" v="lake" />
	</node>
	<node id="-213944" lat="59.6610222253" lon="9.52655833492">
		<tag k="name" v="Florenstjern" />
		<tag k="natural" v="water" />
		<tag k="ssr:stedsnr" v="791926" />
	</node>
	<node id="-213942" lat="59.6782250588" lon="9.53159290784">
		<tag k="alt_name" v="Kongens dam" />
		<tag k="name" v="Kongsdammen" />
		<tag k="natural" v="water" />
		<tag k="ssr:stedsnr" v="791905" />
	</node>
	<node id="-211893" lat="59.4733333314" lon="9.8560777865">
		<tag k="name" v="Svartebekk" />
		<tag k="ssr:stedsnr" v="727243" />
		<tag k="waterway" v="stream" />
	</node>
	<node id="-213938" lat="59.4220861153" lon="9.77482778132">
		<tag k="name" v="Grunntjerna" />
		<tag k="natural" v="water" />
		<tag k="ssr:stedsnr" v="791543" />
		<tag k="water" v="lake" />
	</node>
	<node id="-211885" lat="59.6614638877" lon="9.43667499586">
		<tag k="name" v="Langodden" />
		<tag k="natural" v="cape" />
		<tag k="ssr:stedsnr" v="727040" />
	</node>
	<node id="-213931" lat="59.4821277738" lon="9.61500000075">
		<tag k="alt_name" v="Stulstjern" />
		<tag k="name" v="Stulstjernet" />
		<tag k="natural" v="water" />
		<tag k="ssr:stedsnr" v="791567" />
	</node>
	<node id="-213930" lat="59.4495861121" lon="9.64268055569">
		<tag k="name" v="Krokvann" />
		<tag k="natural" v="water" />
		<tag k="ssr:stedsnr" v="791508" />
		<tag k="water" v="lake" />
	</node>
	<node id="-211881" lat="59.7359638914" lon="9.39570278292">
		<tag k="name" v="Libekk" />
		<tag k="ssr:stedsnr" v="722447" />
		<tag k="waterway" v="stream" />
	</node>
	<node id="-211878" lat="59.507452778" lon="9.61115278072">
		<tag k="alt_name" v="Midtre Ulstjern" />
		<tag k="name" v="Midtre Urdstjerna" />
		<tag k="natural" v="water" />
		<tag k="ssr:stedsnr" v="610384" />
	</node>
	<node id="-211876" lat="59.5248583341" lon="9.66254999414">
		<tag k="alt_name" v="Hesteskovannet" />
		<tag k="name" v="Hesteskotjernet" />
		<tag k="natural" v="water" />
		<tag k="ssr:stedsnr" v="610360" />
	</node>
	<node id="-213923" lat="59.6227805534" lon="9.80582499672">
		<tag k="name" v="Svensketjern" />
		<tag k="natural" v="water" />
		<tag k="ssr:stedsnr" v="788930" />
	</node>
	<node id="-211873" lat="59.5759753919" lon="9.85938846241">
		<tag k="name" v="Damvanna" />
		<tag k="natural" v="water" />
		<tag k="ssr:stedsnr" v="610540" />
		<tag k="water" v="lake" />
	</node>
	<node id="-213920" lat="59.6059499992" lon="9.77620278109">
		<tag k="name" v="Øyenlågen" />
		<tag k="ssr:stedsnr" v="788898" />
		<tag k="waterway" v="river" />
	</node>
	<node id="-211867" lat="59.6792250024" lon="9.55122500339">
		<tag k="alt_name" v="Gyldenløvedammen;Gyldenløvedam" />
		<tag k="name" v="Gyldenløve dam" />
		<tag k="natural" v="water" />
		<tag k="ssr:stedsnr" v="609973" />
	</node>
	<node id="-211864" lat="59.6072095706" lon="9.53269268361">
		<tag k="alt_name" v="Hestedalsvannet" />
		<tag k="name" v="Hestedalstjernet" />
		<tag k="natural" v="water" />
		<tag k="ssr:stedsnr" v="609783" />
	</node>
	<node id="-211863" lat="59.5742555577" lon="9.5559222257">
		<tag k="alt_name" v="Jerngruvevann" />
		<tag k="name" v="Jerngruvevannet" />
		<tag k="natural" v="water" />
		<tag k="ssr:stedsnr" v="609779" />
	</node>
	<node id="-211862" lat="59.4801694451" lon="9.68683332734">
		<tag k="alt_name" v="Fagervannselva" />
		<tag k="name" v="Fagervasselva" />
		<tag k="ssr:stedsnr" v="609567" />
		<tag k="waterway" v="river" />
	</node>
	<node id="-213909" lat="59.552572221" lon="9.65434166705">
		<tag k="name" v="Lauarvannselva" />
		<tag k="ssr:stedsnr" v="788307" />
		<tag k="waterway" v="river" />
	</node>
	<node id="-211859" lat="59.4933388877" lon="9.73099721466">
		<tag k="fixme" v="multiple name tags, choose one and add the other to alt_name" />
		<tag k="name" v="Fjellsetervannet;Fjellsetertjernet" />
		<tag k="natural" v="water" />
		<tag k="ssr:stedsnr" v="609552" />
	</node>
	<node id="-214233" lat="59.5534111083" lon="9.64432778355">
		<tag k="name" v="Midtre Mysutjern" />
		<tag k="natural" v="water" />
		<tag k="ssr:stedsnr" v="970461" />
	</node>
	<node id="-213902" lat="59.706930553" lon="9.34892500826">
		<tag k="name" v="Kvennebekken" />
		<tag k="ssr:stedsnr" v="788143" />
		<tag k="waterway" v="stream" />
	</node>
	<node id="-211851" lat="59.4467555557" lon="9.65541110386">
		<tag k="name" v="Laksetjern" />
		<tag k="natural" v="water" />
		<tag k="ssr:stedsnr" v="608559" />
	</node>
	<node id="-211850" lat="59.4480499962" lon="9.68024999284">
		<tag k="alt_name" v="Bjørkodden" />
		<tag k="name" v="Bjerkodden" />
		<tag k="natural" v="cape" />
		<tag k="ssr:stedsnr" v="608558" />
	</node>
	<node id="-213896" lat="59.4348805515" lon="9.71398333154">
		<tag k="name" v="Lille Haldoren" />
		<tag k="natural" v="water" />
		<tag k="ssr:stedsnr" v="788113" />
	</node>
	<node id="-211845" lat="59.551122224" lon="9.53908332763">
		<tag k="name" v="Mjøvannsbekken" />
		<tag k="ssr:stedsnr" v="605580" />
		<tag k="waterway" v="stream" />
	</node>
	<node id="-213888" lat="59.6650888879" lon="9.42898333825">
		<tag k="name" v="Trytesundet" />
		<tag k="natural" v="strait" />
		<tag k="ssr:stedsnr" v="788035" />
	</node>
	<node id="-213824" lat="59.5440194438" lon="9.57511944689">
		<tag k="name" v="Rajebekken" />
		<tag k="ssr:stedsnr" v="751748" />
		<tag k="waterway" v="stream" />
	</node>
	<node id="-211837" lat="59.5296083345" lon="9.64740833243">
		<tag k="name" v="Rønseterbekken" />
		<tag k="ssr:stedsnr" v="605377" />
		<tag k="waterway" v="stream" />
	</node>
	<node id="-211836" lat="59.5557805554" lon="9.6887638883">
		<tag k="name" v="Nybubekken" />
		<tag k="ssr:stedsnr" v="605366" />
		<tag k="waterway" v="stream" />
	</node>
	<node id="-211833" lat="59.7206694477" lon="9.47968889732">
		<tag k="name" v="Sautjern" />
		<tag k="natural" v="water" />
		<tag k="ssr:stedsnr" v="605158" />
	</node>
	<node id="-213879" lat="59.555638889" lon="9.91308334124">
		<tag k="name" v="Lammetjern" />
		<tag k="natural" v="water" />
		<tag k="ssr:stedsnr" v="787770" />
	</node>
	<node id="-211830" lat="59.6398722235" lon="9.48844999865">
		<tag k="name" v="Størrtjernbekk" />
		<tag k="ssr:stedsnr" v="605002" />
		<tag k="waterway" v="stream" />
	</node>
	<node id="-213877" lat="59.6501277806" lon="9.7363277845">
		<tag k="name" v="Teigtjern" />
		<tag k="natural" v="water" />
		<tag k="ssr:stedsnr" v="787685" />
	</node>
	<node id="-213868" lat="59.7744166637" lon="9.38243054807">
		<tag k="name" v="Holmvassbekken" />
		<tag k="ssr:stedsnr" v="783466" />
		<tag k="waterway" v="stream" />
	</node>
	<node id="-213867" lat="59.7577027736" lon="9.40487778376">
		<tag k="name" v="Lifjellstrengen" />
		<tag k="natural" v="water" />
		<tag k="ssr:stedsnr" v="783460" />
	</node>
	<node id="-211817" lat="59.4524305596" lon="9.69824721635">
		<tag k="name" v="Delsbekken" />
		<tag k="ssr:stedsnr" v="545602" />
		<tag k="waterway" v="stream" />
	</node>
	<node id="-211816" lat="59.5901138854" lon="9.45625834112">
		<tag k="name" v="Løkemyrtjern" />
		<tag k="natural" v="water" />
		<tag k="ssr:stedsnr" v="545507" />
	</node>
	<node id="-211813" lat="59.685436115" lon="9.53873610536">
		<tag k="name" v="Stordambekk" />
		<tag k="ssr:stedsnr" v="545046" />
		<tag k="waterway" v="stream" />
	</node>
	<node id="-211812" lat="59.6618138926" lon="9.41131666466">
		<tag k="name" v="Tyssjøbekken" />
		<tag k="ssr:stedsnr" v="545039" />
		<tag k="waterway" v="stream" />
	</node>
	<node id="-211811" lat="59.667536114" lon="9.43854722534">
		<tag k="name" v="Kvernhusroa" />
		<tag k="natural" v="bay" />
		<tag k="ssr:stedsnr" v="545030" />
	</node>
	<node id="-213858" lat="59.6591694448" lon="9.71377500137">
		<tag k="name" v="Lille Haurevann" />
		<tag k="natural" v="water" />
		<tag k="ssr:stedsnr" v="754992" />
	</node>
	<node id="-213857" lat="59.6009000024" lon="9.84876389505">
		<tag k="name" v="Fugleleiken" />
		<tag k="natural" v="water" />
		<tag k="ssr:stedsnr" v="754613" />
	</node>
	<node id="-214160" lat="59.4970944407" lon="9.85068611756">
		<tag k="name" v="Klingelfossbekken" />
		<tag k="ssr:stedsnr" v="873795" />
		<tag k="waterway" v="stream" />
	</node>
	<node id="-211806" lat="59.5639305577" lon="9.51585833999">
		<tag k="alt_name" v="Skautrostjern;Skortrostjern" />
		<tag k="name" v="Skautreitjern" />
		<tag k="natural" v="water" />
		<tag k="ssr:stedsnr" v="539778" />
	</node>
	<node id="-213842" lat="59.6926916643" lon="9.6350611085">
		<tag k="name" v="Spitenevja" />
		<tag k="natural" v="water" />
		<tag k="ssr:stedsnr" v="751943" />
		<tag k="water" v="lake" />
	</node>
	<node id="-213840" lat="59.6838027802" lon="9.58293055888">
		<tag k="name" v="Linnertdammen" />
		<tag k="ssr:stedsnr" v="751930" />
		<tag k="waterway" v="dam" />
	</node>
	<node id="-213837" lat="59.5303416656" lon="9.76146943683">
		<tag k="name" v="Korsbekk" />
		<tag k="ssr:stedsnr" v="751893" />
		<tag k="waterway" v="stream" />
	</node>
	<node id="-211786" lat="59.6409111145" lon="9.63339445079">
		<tag k="name" v="Svartåsbekken" />
		<tag k="ssr:stedsnr" v="691518" />
		<tag k="waterway" v="stream" />
	</node>
	<node id="-211784" lat="59.6310527777" lon="9.59389444202">
		<tag k="name" v="Malterenna" />
		<tag k="place" v="locality" />
		<tag k="ssr:stedsnr" v="691261" />
	</node>
	<node id="-214156" lat="59.511997221" lon="9.83308333554">
		<tag k="name" v="Kvernaelva" />
		<tag k="ssr:stedsnr" v="873764" />
		<tag k="waterway" v="river" />
	</node>
	<node id="-211776" lat="59.5466527754" lon="9.86513611445">
		<tag k="name" v="Dørsjødammen" />
		<tag k="ssr:stedsnr" v="690851" />
		<tag k="waterway" v="dam" />
	</node>
	<node id="-213823" lat="59.5523888873" lon="9.64279165814">
		<tag k="name" v="Vesle Mysutjern" />
		<tag k="natural" v="water" />
		<tag k="ssr:stedsnr" v="751744" />
	</node>
	<node id="-213820" lat="59.6059611094" lon="9.68336945297">
		<tag k="name" v="Kløvstadelva" />
		<tag k="ssr:stedsnr" v="751677" />
		<tag k="waterway" v="river" />
	</node>
	<node id="-213471" lat="59.5380527798" lon="9.75803333364">
		<tag k="alt_name" v="Ulstjern" />
		<tag k="name" v="Urdstjernet" />
		<tag k="natural" v="water" />
		<tag k="ssr:stedsnr" v="428390" />
	</node>
	<node id="-211767" lat="59.5943972265" lon="9.85227777358">
		<tag k="name" v="Krokvann" />
		<tag k="natural" v="water" />
		<tag k="ssr:stedsnr" v="512656" />
	</node>
	<node id="-211766" lat="59.599194444" lon="9.82102221671">
		<tag k="name" v="Bredevjuelva" />
		<tag k="ssr:stedsnr" v="512654" />
		<tag k="waterway" v="stream" />
	</node>
	<node id="-211764" lat="59.5834333361" lon="9.8893249922">
		<tag k="name" v="Karidulpen" />
		<tag k="natural" v="water" />
		<tag k="ssr:stedsnr" v="512534" />
	</node>
	<node id="-213811" lat="59.4736083371" lon="10.0049916654">
		<tag k="name" v="Øya" />
		<tag k="place" v="island" />
		<tag k="ssr:stedsnr" v="751210" />
	</node>
	<node id="-213802" lat="59.5236249973" lon="9.50638054966">
		<tag k="name" v="Bufinnbekken" />
		<tag k="ssr:stedsnr" v="649730" />
		<tag k="waterway" v="stream" />
	</node>
	<node id="-211753" lat="59.5870222221" lon="9.65094444025">
		<tag k="name" v="Nedre Grønnevad" />
		<tag k="natural" v="shoal" />
		<tag k="place" v="locality" />
		<tag k="ssr:stedsnr" v="508742" />
	</node>
	<node id="-213800" lat="59.5946138919" lon="9.86475556053">
		<tag k="name" v="Bikkjetjern" />
		<tag k="natural" v="water" />
		<tag k="ssr:stedsnr" v="633645" />
	</node>
	<node id="-213799" lat="59.5731027795" lon="9.88225556084">
		<tag k="name" v="Dortemyrtjern" />
		<tag k="natural" v="water" />
		<tag k="ssr:stedsnr" v="633549" />
	</node>
	<node id="-211741" lat="59.4572249965" lon="9.6066694356">
		<tag k="name" v="Furulågfjorden" />
		<tag k="natural" v="bay" />
		<tag k="ssr:stedsnr" v="485461" />
	</node>
	<node id="-211740" lat="59.4512583371" lon="9.60557500789">
		<tag k="name" v="Tarmen" />
		<tag k="natural" v="bay" />
		<tag k="ssr:stedsnr" v="485459" />
	</node>
	<node id="-213785" lat="59.6795527774" lon="9.67730555186">
		<tag k="name" v="Rødtjern" />
		<tag k="natural" v="water" />
		<tag k="ssr:stedsnr" v="629946" />
	</node>
	<node id="-213124" lat="59.4393277763" lon="9.66379167152">
		<tag k="name" v="Ramsodden" />
		<tag k="natural" v="cape" />
		<tag k="ssr:stedsnr" v="305583" />
	</node>
	<node id="-213781" lat="59.5996888934" lon="9.73306666053">
		<tag k="name" v="Lindtvetøya" />
		<tag k="place" v="island" />
		<tag k="ssr:stedsnr" v="629883" />
	</node>
	<node id="-211730" lat="59.5114333323" lon="9.52056943561">
		<tag k="name" v="Sjåen" />
		<tag k="natural" v="water" />
		<tag k="ssr:stedsnr" v="484559" />
	</node>
	<node id="-211728" lat="59.4660249961" lon="9.69856389256">
		<tag k="name" v="Haugbekken" />
		<tag k="ssr:stedsnr" v="484510" />
		<tag k="waterway" v="stream" />
	</node>
	<node id="-213773" lat="59.5089333301" lon="9.90793610969">
		<tag k="name" v="Fløa" />
		<tag k="natural" v="water" />
		<tag k="ssr:stedsnr" v="629793" />
		<tag k="water" v="lake" />
	</node>
	<node id="-211723" lat="59.5079555539" lon="9.53247499604">
		<tag k="name" v="Smalska" />
		<tag k="place" v="locality" />
		<tag k="ssr:stedsnr" v="484612" />
	</node>
	<node id="-211722" lat="59.4404083373" lon="9.69272778514">
		<tag k="name" v="Piggodden" />
		<tag k="natural" v="cape" />
		<tag k="ssr:stedsnr" v="484607" />
	</node>
	<node id="-211721" lat="59.4285361092" lon="9.68425555762">
		<tag k="name" v="Munken" />
		<tag k="natural" v="cape" />
		<tag k="ssr:stedsnr" v="484606" />
	</node>
	<node id="-213768" lat="59.6350555538" lon="9.5871055506">
		<tag k="name" v="Tverrelva" />
		<tag k="ssr:stedsnr" v="629552" />
		<tag k="waterway" v="river" />
	</node>
	<node id="-211717" lat="59.5349916643" lon="9.68715277004">
		<tag k="name" v="Spondalsbekken" />
		<tag k="ssr:stedsnr" v="484312" />
		<tag k="waterway" v="stream" />
	</node>
	<node id="-211713" lat="59.736725004" lon="9.36885278399">
		<tag k="name" v="Postmyrbekken" />
		<tag k="ssr:stedsnr" v="484173" />
		<tag k="waterway" v="stream" />
	</node>
	<node id="-211710" lat="59.7200222262" lon="9.34523888714">
		<tag k="name" v="Bråtabekken" />
		<tag k="ssr:stedsnr" v="484115" />
		<tag k="waterway" v="stream" />
	</node>
	<node id="-213757" lat="59.5472250027" lon="9.87876666032">
		<tag k="alt_name" v="Trytetjern" />
		<tag k="name" v="Tryttjernet" />
		<tag k="natural" v="water" />
		<tag k="ssr:stedsnr" v="610441" />
	</node>
	<node id="-211708" lat="59.7472000028" lon="9.35348889324">
		<tag k="name" v="Pålsdalsbekken" />
		<tag k="ssr:stedsnr" v="479456" />
		<tag k="waterway" v="stream" />
	</node>
	<node id="-211707" lat="59.5070273134" lon="9.59509894648">
		<tag k="name" v="Skrimsvannet" />
		<tag k="natural" v="water" />
		<tag k="ssr:stedsnr" v="671697" />
	</node>
	<node id="-213752" lat="59.5625999963" lon="9.85420000438">
		<tag k="alt_name" v="Fiskeløs" />
		<tag k="name" v="Fiskelaus" />
		<tag k="natural" v="water" />
		<tag k="ssr:stedsnr" v="610415" />
	</node>
	<node id="-211703" lat="59.5773388852" lon="9.60714443663">
		<tag k="alt_name" v="Svinetjern" />
		<tag k="name" v="Svinetjernet" />
		<tag k="natural" v="water" />
		<tag k="ssr:stedsnr" v="671491" />
	</node>
	<node id="-211702" lat="59.5805694464" lon="9.83988610868">
		<tag k="alt_name" v="Halvfartjern" />
		<tag k="name" v="Halvfartjernet" />
		<tag k="natural" v="water" />
		<tag k="ssr:stedsnr" v="671487" />
	</node>
	<node id="-213801" lat="59.6182250008" lon="9.84508889622">
		<tag k="name" v="Kalven" />
		<tag k="natural" v="water" />
		<tag k="ssr:stedsnr" v="633931" />
	</node>
	<node id="-211700" lat="59.582669441" lon="9.68945000223">
		<tag k="name" v="Helgebekk" />
		<tag k="ssr:stedsnr" v="671484" />
		<tag k="waterway" v="stream" />
	</node>
	<node id="-213747" lat="59.6716472229" lon="9.45775554966">
		<tag k="alt_name" v="Mevann" />
		<tag k="name" v="Mevannet" />
		<tag k="natural" v="water" />
		<tag k="ssr:stedsnr" v="609908" />
	</node>
	<node id="-213746" lat="59.6735555572" lon="9.47246665803">
		<tag k="name" v="Løkentjern" />
		<tag k="natural" v="water" />
		<tag k="old_name" v="Løken tjern" />
		<tag k="ssr:stedsnr" v="609907" />
	</node>
	<node id="-213745" lat="59.6334078798" lon="9.46628996317">
		<tag k="name" v="Hengselva" />
		<tag k="ssr:stedsnr" v="609883" />
		<tag k="waterway" v="river" />
	</node>
	<node id="-211752" lat="59.5726638928" lon="9.68007499575">
		<tag k="name" v="Store Brønntjern" />
		<tag k="natural" v="water" />
		<tag k="ssr:stedsnr" v="508740" />
	</node>
	<node id="-211692" lat="59.5724826443" lon="9.93152462494">
		<tag k="alt_name" v="Flårane" />
		<tag k="name" v="Flårevann" />
		<tag k="natural" v="water" />
		<tag k="ssr:stedsnr" v="671372" />
	</node>
	<node id="-211691" lat="59.5323444444" lon="9.54767777871">
		<tag k="alt_name" v="Krokvann" />
		<tag k="name" v="Krokvannet" />
		<tag k="natural" v="water" />
		<tag k="ssr:stedsnr" v="671005" />
	</node>
	<node id="-213738" lat="59.493825066" lon="9.71852523592">
		<tag k="name" v="Krokvannet" />
		<tag k="natural" v="water" />
		<tag k="ssr:stedsnr" v="609551" />
		<tag k="water" v="lake" />
	</node>
	<node id="-211687" lat="59.6490999984" lon="9.52656667191">
		<tag k="name" v="Jonstjernbekken" />
		<tag k="ssr:stedsnr" v="670880" />
		<tag k="waterway" v="stream" />
	</node>
	<node id="-213733" lat="59.4131777784" lon="9.73605277736">
		<tag k="name" v="Sandortjern" />
		<tag k="natural" v="water" />
		<tag k="ssr:stedsnr" v="609501" />
	</node>
	<node id="-211684" lat="59.5744128045" lon="9.58936940734">
		<tag k="alt_name" v="Vierbekkvann" />
		<tag k="name" v="Vierbekkvannet" />
		<tag k="natural" v="water" />
		<tag k="ssr:stedsnr" v="670795" />
	</node>
	<node id="-213731" lat="59.5048416629" lon="9.90575555181">
		<tag k="fixme" v="multiple name tags, choose one and add the other to alt_name" />
		<tag k="name" v="Boserudneset;Hvålsneset" />
		<tag k="natural" v="cape" />
		<tag k="ssr:stedsnr" v="609347" />
	</node>
	<node id="-213730" lat="59.5221555535" lon="9.63383055316">
		<tag k="alt_name" v="Korstjern" />
		<tag k="name" v="Korstjernet" />
		<tag k="natural" v="water" />
		<tag k="ssr:stedsnr" v="609318" />
	</node>
	<node id="-211680" lat="59.5287416711" lon="9.58106388589">
		<tag k="name" v="Ravalsjøelva" />
		<tag k="ssr:stedsnr" v="670730" />
		<tag k="waterway" v="river" />
	</node>
	<node id="-213727" lat="59.4919416652" lon="9.58203334089">
		<tag k="name" v="Korstjern" />
		<tag k="natural" v="water" />
		<tag k="ssr:stedsnr" v="609075" />
	</node>
	<node id="-213724" lat="59.4370111137" lon="9.72010277458">
		<tag k="name" v="Brenntjern" />
		<tag k="natural" v="water" />
		<tag k="ssr:stedsnr" v="608551" />
	</node>
	<node id="-211674" lat="59.460149999" lon="9.76544443966">
		<tag k="name" v="Bjørnetjern" />
		<tag k="natural" v="water" />
		<tag k="old_name" v="Brørnetjern" />
		<tag k="ssr:stedsnr" v="670582" />
	</node>
	<node id="-211672" lat="59.4853638896" lon="9.70824722265">
		<tag k="name" v="Maurlivannet" />
		<tag k="natural" v="water" />
		<tag k="ssr:stedsnr" v="670533" />
	</node>
	<node id="-213454" lat="59.412088892" lon="9.66983888584">
		<tag k="name" v="Nedre Setertjernet" />
		<tag k="natural" v="water" />
		<tag k="ssr:stedsnr" v="427545" />
	</node>
	<node id="-211663" lat="59.7330777756" lon="9.56609723006">
		<tag k="name" v="Ekornbekken" />
		<tag k="ssr:stedsnr" v="670428" />
		<tag k="waterway" v="stream" />
	</node>
	<node id="-211658" lat="59.5380361084" lon="9.93817221443">
		<tag k="name" v="Svartebekk" />
		<tag k="ssr:stedsnr" v="670410" />
		<tag k="waterway" v="stream" />
	</node>
	<node id="-211652" lat="59.5095194411" lon="9.67343334169">
		<tag k="name" v="Store Kongstjern" />
		<tag k="natural" v="water" />
		<tag k="ssr:stedsnr" v="670334" />
	</node>
	<node id="-213699" lat="59.5687750032" lon="9.86986110956">
		<tag k="name" v="Lorttjern" />
		<tag k="natural" v="water" />
		<tag k="ssr:stedsnr" v="605790" />
	</node>
	<node id="-213697" lat="59.5742250038" lon="9.8468472187">
		<tag k="name" v="Plommetjern" />
		<tag k="natural" v="water" />
		<tag k="ssr:stedsnr" v="605997" />
	</node>
	<node id="-211648" lat="59.4254749992" lon="9.68683054882">
		<tag k="name" v="Brennøya" />
		<tag k="place" v="island" />
		<tag k="ssr:stedsnr" v="669559" />
	</node>
	<node id="-213695" lat="59.5519805515" lon="9.9516388858">
		<tag k="name" v="Komnesodden" />
		<tag k="natural" v="cape" />
		<tag k="ssr:stedsnr" v="605784" />
	</node>
	<node id="-211646" lat="59.4382166669" lon="9.75655554998">
		<tag k="name" v="Jomfruvannet" />
		<tag k="natural" v="water" />
		<tag k="ssr:stedsnr" v="669519" />
	</node>
	<node id="-213691" lat="59.5540861099" lon="9.87473888383">
		<tag k="name" v="Vegavannsbekken" />
		<tag k="ssr:stedsnr" v="605772" />
		<tag k="waterway" v="stream" />
	</node>
	<node id="-213688" lat="59.5991472251" lon="9.44855000649">
		<tag k="name" v="Brudetjern" />
		<tag k="natural" v="water" />
		<tag k="ssr:stedsnr" v="605546" />
	</node>
	<node id="-213686" lat="59.6465833309" lon="9.71478610675">
		<tag k="name" v="Popperudbekken" />
		<tag k="ssr:stedsnr" v="605689" />
		<tag k="waterway" v="stream" />
	</node>
	<node id="-211637" lat="59.4391388853" lon="9.65883334109">
		<tag k="name" v="Ramshella" />
		<tag k="natural" v="cape" />
		<tag k="ssr:stedsnr" v="667580" />
	</node>
	<node id="-213684" lat="59.5257510411" lon="9.55673237885">
		<tag k="name" v="Gunnbøhaugvannet" />
		<tag k="natural" v="water" />
		<tag k="ssr:stedsnr" v="605350" />
	</node>
	<node id="-213681" lat="59.4999277788" lon="9.80174722152">
		<tag k="name" v="Styggebekk" />
		<tag k="ssr:stedsnr" v="605417" />
		<tag k="waterway" v="stream" />
	</node>
	<node id="-213678" lat="59.7390611069" lon="9.44131388526">
		<tag k="name" v="Rosendambekken" />
		<tag k="ssr:stedsnr" v="605147" />
		<tag k="waterway" v="stream" />
	</node>
	<node id="-213677" lat="59.4426388891" lon="9.71576944852">
		<tag k="name" v="Dammen" />
		<tag k="ssr:stedsnr" v="605125" />
		<tag k="waterway" v="dam" />
	</node>
	<node id="-213675" lat="59.6622499956" lon="9.42974444344">
		<tag k="name" v="Fugleøya" />
		<tag k="place" v="island" />
		<tag k="ssr:stedsnr" v="605050" />
	</node>
	<node id="-213673" lat="59.6657722249" lon="9.42879722689">
		<tag k="name" v="Storøya" />
		<tag k="place" v="island" />
		<tag k="ssr:stedsnr" v="605039" />
	</node>
	<node id="-213672" lat="59.7220085301" lon="9.61488856561">
		<tag k="name" v="Finnebråtatjern" />
		<tag k="natural" v="water" />
		<tag k="ssr:stedsnr" v="605035" />
	</node>
	<node id="-214129" lat="59.5099472199" lon="9.97519167528">
		<tag k="name" v="Trytetjern" />
		<tag k="natural" v="water" />
		<tag k="ssr:stedsnr" v="853979" />
	</node>
	<node id="-211620" lat="59.5613722187" lon="9.93173055901">
		<tag k="name" v="Myggbukta" />
		<tag k="natural" v="bay" />
		<tag k="ssr:stedsnr" v="666781" />
	</node>
	<node id="-213667" lat="59.4729805585" lon="9.87424722082">
		<tag k="name" v="Blekketjern" />
		<tag k="natural" v="water" />
		<tag k="ssr:stedsnr" v="605188" />
	</node>
	<node id="-213666" lat="59.4663527733" lon="9.90710833983">
		<tag k="name" v="Meisetjern" />
		<tag k="natural" v="water" />
		<tag k="ssr:stedsnr" v="605181" />
	</node>
	<node id="-211616" lat="59.515091671" lon="9.952136103">
		<tag k="name" v="Veslefoss" />
		<tag k="natural" v="waterfall" />
		<tag k="ssr:stedsnr" v="666669" />
	</node>
	<node id="-214128" lat="59.5078111067" lon="10.0063250004">
		<tag k="name" v="Seterbekken" />
		<tag k="ssr:stedsnr" v="853978" />
		<tag k="waterway" v="stream" />
	</node>
	<node id="-213662" lat="59.7695472227" lon="9.38997777884">
		<tag k="name" v="Holkebekken" />
		<tag k="ssr:stedsnr" v="600450" />
		<tag k="waterway" v="stream" />
	</node>
	<node id="-211613" lat="59.4161833358" lon="9.68205000016">
		<tag k="name" v="Elgtjern" />
		<tag k="natural" v="water" />
		<tag k="ssr:stedsnr" v="666598" />
	</node>
	<node id="-211612" lat="59.5830333377" lon="9.47041388493">
		<tag k="name" v="Svinhusknattjernet" />
		<tag k="natural" v="water" />
		<tag k="ssr:stedsnr" v="666580" />
	</node>
	<node id="-211611" lat="59.5199083354" lon="9.71993332634">
		<tag k="name" v="Tortjern" />
		<tag k="natural" v="water" />
		<tag k="ssr:stedsnr" v="666579" />
	</node>
	<node id="-211610" lat="59.5766805584" lon="9.49553611966">
		<tag k="name" v="Påterudbekken" />
		<tag k="ssr:stedsnr" v="666571" />
		<tag k="waterway" v="stream" />
	</node>
	<node id="-213647" lat="59.6365222178" lon="9.72852777933">
		<tag k="name" v="Dalabekken" />
		<tag k="ssr:stedsnr" v="569839" />
		<tag k="waterway" v="stream" />
	</node>
	<node id="-211598" lat="59.5194583339" lon="9.61421944508">
		<tag k="name" v="Stutaua" />
		<tag k="natural" v="water" />
		<tag k="ssr:stedsnr" v="666370" />
		<tag k="water" v="lake" />
	</node>
	<node id="-213645" lat="59.4949750005" lon="9.88221667529">
		<tag k="name" v="Kvernhusrønningbekken" />
		<tag k="ssr:stedsnr" v="569795" />
		<tag k="waterway" v="stream" />
	</node>
	<node id="-211594" lat="59.7405083378" lon="9.38892777849">
		<tag k="name" v="Svartebekk" />
		<tag k="ssr:stedsnr" v="666208" />
		<tag k="waterway" v="stream" />
	</node>
	<node id="-211592" lat="59.7276138911" lon="9.44324444323">
		<tag k="name" v="Tverrbekken" />
		<tag k="ssr:stedsnr" v="666181" />
		<tag k="waterway" v="stream" />
	</node>
	<node id="-213169" lat="59.7754861088" lon="9.37839443588">
		<tag k="name" v="Grastjern" />
		<tag k="natural" v="water" />
		<tag k="ssr:stedsnr" v="307878" />
	</node>
	<node id="-211586" lat="59.5974166663" lon="9.594719447">
		<tag k="name" v="Sleikebekken" />
		<tag k="ssr:stedsnr" v="666152" />
		<tag k="waterway" v="stream" />
	</node>
	<node id="-213633" lat="59.5955333348" lon="9.67213889539">
		<tag k="name" v="Jøgerfoss" />
		<tag k="natural" v="waterfall" />
		<tag k="ssr:stedsnr" v="569662" />
	</node>
	<node id="-211583" lat="59.7007361077" lon="9.38617222048">
		<tag k="name" v="Karusstjern" />
		<tag k="natural" v="water" />
		<tag k="ssr:stedsnr" v="666124" />
	</node>
	<node id="-211581" lat="59.7347630577" lon="9.46243675609">
		<tag k="name" v="Rendlasvingen" />
		<tag k="place" v="locality" />
		<tag k="ssr:stedsnr" v="665847" />
	</node>
	<node id="-211580" lat="59.7555250006" lon="9.4314416683">
		<tag k="name" v="Svartekulp" />
		<tag k="natural" v="water" />
		<tag k="ssr:stedsnr" v="661883" />
	</node>
	<node id="-213439" lat="59.7689333351" lon="9.40262778151">
		<tag k="name" v="Grastjern" />
		<tag k="natural" v="water" />
		<tag k="ssr:stedsnr" v="424765" />
	</node>
	<node id="-211576" lat="59.5984027804" lon="9.84734165821">
		<tag k="name" v="Mjøvann" />
		<tag k="natural" v="water" />
		<tag k="ssr:stedsnr" v="451624" />
	</node>
	<node id="-211575" lat="59.5944916711" lon="9.84646944486">
		<tag k="name" v="Vesle Fjellvann" />
		<tag k="natural" v="water" />
		<tag k="ssr:stedsnr" v="451621" />
	</node>
	<node id="-213617" lat="59.765999999" lon="9.39855000718">
		<tag k="alt_name" v="Steggevann" />
		<tag k="name" v="Steggevannet" />
		<tag k="natural" v="water" />
		<tag k="ssr:stedsnr" v="550996" />
	</node>
	<node id="-213614" lat="59.7553329865" lon="9.35284406502">
		<tag k="alt_name" v="Svarttjern" />
		<tag k="name" v="Svarttjørn" />
		<tag k="natural" v="water" />
		<tag k="ssr:stedsnr" v="550976" />
	</node>
	<node id="-211564" lat="59.625019447" lon="9.66453054767">
		<tag k="name" v="Sliperiøya" />
		<tag k="place" v="island" />
		<tag k="ssr:stedsnr" v="448718" />
	</node>
	<node id="-213611" lat="59.5935634932" lon="9.88722786327">
		<tag k="name" v="Senningsflåren" />
		<tag k="natural" v="water" />
		<tag k="ssr:stedsnr" v="550458" />
		<tag k="water" v="lake" />
	</node>
	<node id="-211561" lat="59.648641666" lon="9.68126666789">
		<tag k="name" v="Pekefingeren" />
		<tag k="natural" v="water" />
		<tag k="ssr:stedsnr" v="448538" />
	</node>
	<node id="-211559" lat="59.5592104182" lon="9.53445902158">
		<tag k="alt_name" v="Buvann" />
		<tag k="name" v="Buvannet" />
		<tag k="natural" v="water" />
		<tag k="ssr:stedsnr" v="428736" />
		<tag k="water" v="lake" />
	</node>
	<node id="-211558" lat="59.5303055538" lon="9.53724721833">
		<tag k="fixme" v="multiple name tags, choose one and add the other to alt_name" />
		<tag k="name" v="Mjøvann;Store Mjøvannet" />
		<tag k="natural" v="water" />
		<tag k="ssr:stedsnr" v="428730" />
	</node>
	<node id="-213605" lat="59.6955015785" lon="9.37262727778">
		<tag k="name" v="Plankedammane" />
		<tag k="natural" v="water" />
		<tag k="ssr:stedsnr" v="549949" />
		<tag k="water" v="lake" />
	</node>
	<node id="-213603" lat="59.7818138934" lon="9.36965277236">
		<tag k="name" v="Langevatnet" />
		<tag k="natural" v="water" />
		<tag k="ssr:stedsnr" v="549890" />
		<tag k="water" v="lake" />
	</node>
	<node id="-213602" lat="59.6480472219" lon="9.42023333779">
		<tag k="alt_name" v="Skalptjern" />
		<tag k="name" v="Skalpetjern" />
		<tag k="natural" v="water" />
		<tag k="ssr:stedsnr" v="549879" />
	</node>
	<node id="-213600" lat="59.6217722198" lon="9.47930555337">
		<tag k="name" v="Buvannet" />
		<tag k="natural" v="water" />
		<tag k="ssr:stedsnr" v="549863" />
		<tag k="water" v="lake" />
	</node>
	<node id="-213776" lat="59.5428972244" lon="9.62387778299">
		<tag k="name" v="Kroksbekk" />
		<tag k="ssr:stedsnr" v="629725" />
		<tag k="waterway" v="stream" />
	</node>
	<node id="-213597" lat="59.5765666712" lon="9.54678332799">
		<tag k="alt_name" v="Ringtjern" />
		<tag k="name" v="Ringtjernet" />
		<tag k="natural" v="water" />
		<tag k="ssr:stedsnr" v="549802" />
	</node>
	<node id="-211548" lat="59.4661662715" lon="9.59649018793">
		<tag k="name" v="Svarttjern" />
		<tag k="natural" v="water" />
		<tag k="ssr:stedsnr" v="427616" />
	</node>
	<node id="-213595" lat="59.5629999983" lon="9.48127222017">
		<tag k="alt_name" v="Helvetesdalstjernet" />
		<tag k="name" v="Helvetesdalstjern" />
		<tag k="natural" v="water" />
		<tag k="ssr:stedsnr" v="549791" />
	</node>
	<node id="-213594" lat="59.5863576143" lon="9.51598967449">
		<tag k="name" v="Kolsjø" />
		<tag k="natural" v="water" />
		<tag k="ssr:stedsnr" v="549782" />
		<tag k="water" v="lake" />
	</node>
	<node id="-213591" lat="59.6831388869" lon="9.61337500111">
		<tag k="alt_name" v="Tangentjern" />
		<tag k="name" v="Tangentjernet" />
		<tag k="natural" v="water" />
		<tag k="ssr:stedsnr" v="549568" />
	</node>
	<node id="-211540" lat="59.6286000021" lon="9.43850000249">
		<tag k="name" v="Rautjern" />
		<tag k="natural" v="water" />
		<tag k="ssr:stedsnr" v="424640" />
	</node>
	<node id="-211538" lat="59.5292888888" lon="9.70904721943">
		<tag k="name" v="Svartevann" />
		<tag k="natural" v="water" />
		<tag k="ssr:stedsnr" v="424631" />
	</node>
	<node id="-211535" lat="59.503047226" lon="9.63997500369">
		<tag k="name" v="Dagsbekk" />
		<tag k="ssr:stedsnr" v="424544" />
		<tag k="waterway" v="stream" />
	</node>
	<node id="-211533" lat="59.6098777756" lon="9.45425832809">
		<tag k="name" v="Jerpetjernbekken" />
		<tag k="ssr:stedsnr" v="424539" />
		<tag k="waterway" v="river" />
	</node>
	<node id="-211531" lat="59.4742583374" lon="9.60723888265">
		<tag k="name" v="Velen" />
		<tag k="place" v="island" />
		<tag k="ssr:stedsnr" v="424533" />
	</node>
	<node id="-211530" lat="59.478899999" lon="9.60573333146">
		<tag k="name" v="Flæretjern" />
		<tag k="natural" v="water" />
		<tag k="ssr:stedsnr" v="424530" />
	</node>
	<node id="-211529" lat="59.5044108008" lon="9.69975921107">
		<tag k="name" v="Grisevannet" />
		<tag k="natural" v="water" />
		<tag k="ssr:stedsnr" v="424527" />
	</node>
	<node id="-211528" lat="59.6047888918" lon="9.47128611814">
		<tag k="name" v="Branntjern" />
		<tag k="natural" v="water" />
		<tag k="ssr:stedsnr" v="424523" />
	</node>
	<node id="-213573" lat="59.5018478649" lon="9.72091756906">
		<tag k="name" v="Taraldsvannet" />
		<tag k="natural" v="water" />
		<tag k="ssr:stedsnr" v="549337" />
		<tag k="water" v="lake" />
	</node>
	<node id="-211519" lat="59.7309388872" lon="9.43960833961">
		<tag k="name" v="Lifjellbekken" />
		<tag k="ssr:stedsnr" v="419916" />
		<tag k="waterway" v="stream" />
	</node>
	<node id="-211518" lat="59.7308305539" lon="9.35408055043">
		<tag k="name" v="Mjaugetjernelva" />
		<tag k="ssr:stedsnr" v="419915" />
		<tag k="waterway" v="stream" />
	</node>
	<node id="-213564" lat="59.4790008568" lon="9.6011435885">
		<tag k="name" v="Buvann" />
		<tag k="natural" v="water" />
		<tag k="ssr:stedsnr" v="548582" />
		<tag k="water" v="lake" />
	</node>
	<node id="-213563" lat="59.4949152834" lon="9.71045327431">
		<tag k="name" v="Fantevannet" />
		<tag k="natural" v="water" />
		<tag k="ssr:stedsnr" v="548580" />
	</node>
	<node id="-213558" lat="59.5732527815" lon="9.82037777571">
		<tag k="name" v="Sendingelva" />
		<tag k="ssr:stedsnr" v="546000" />
		<tag k="waterway" v="stream" />
	</node>
	<node id="-211509" lat="59.6368305514" lon="9.64993610967">
		<tag k="name" v="Korsika" />
		<tag k="place" v="island" />
		<tag k="ssr:stedsnr" v="508989" />
	</node>
	<node id="-213554" lat="59.5878722212" lon="9.81912221507">
		<tag k="name" v="Bjertneselva" />
		<tag k="ssr:stedsnr" v="545937" />
		<tag k="waterway" v="stream" />
	</node>
	<node id="-211502" lat="59.5055666632" lon="9.88568055572">
		<tag k="name" v="Hvålsevjua" />
		<tag k="natural" v="water" />
		<tag k="ssr:stedsnr" v="508844" />
		<tag k="water" v="lake" />
	</node>
	<node id="-214109" lat="59.5542944481" lon="9.95606944084">
		<tag k="fixme" v="multiple name tags, choose one and add the other to alt_name" />
		<tag k="name" v="Bamle;Bamleøya" />
		<tag k="place" v="island" />
		<tag k="ssr:stedsnr" v="853399" />
	</node>
	<node id="-213548" lat="59.5640472231" lon="9.702983329">
		<tag k="name" v="Aslaktjern" />
		<tag k="natural" v="water" />
		<tag k="ssr:stedsnr" v="545859" />
	</node>
	<node id="-213547" lat="59.5491555527" lon="9.92854443692">
		<tag k="name" v="Lammetjernbekken" />
		<tag k="ssr:stedsnr" v="545854" />
		<tag k="waterway" v="stream" />
	</node>
	<node id="-213543" lat="59.5566694404" lon="9.95246111137">
		<tag k="name" v="Langtangen" />
		<tag k="place" v="island" />
		<tag k="ssr:stedsnr" v="545777" />
	</node>
	<node id="-213542" lat="59.5737722201" lon="9.74853888072">
		<tag k="name" v="Røytjern" />
		<tag k="natural" v="water" />
		<tag k="ssr:stedsnr" v="545775" />
	</node>
	<node id="-211493" lat="59.5054472188" lon="9.99067499674">
		<tag k="name" v="Putten" />
		<tag k="natural" v="water" />
		<tag k="ssr:stedsnr" v="508766" />
		<tag k="water" v="pond" />
	</node>
	<node id="-213539" lat="59.4265722255" lon="9.68536111515">
		<tag k="name" v="Pompevika" />
		<tag k="natural" v="bay" />
		<tag k="ssr:stedsnr" v="545589" />
	</node>
	<node id="-211481" lat="59.6149638925" lon="9.81934166501">
		<tag k="name" v="Neselva" />
		<tag k="ssr:stedsnr" v="390915" />
		<tag k="waterway" v="stream" />
	</node>
	<node id="-214105" lat="59.6704500041" lon="9.4385305519">
		<tag k="alt_name" v="Jordetjern" />
		<tag k="name" v="Jordestjern" />
		<tag k="natural" v="water" />
		<tag k="ssr:stedsnr" v="852900" />
	</node>
	<node id="-211475" lat="59.5999305577" lon="9.72675833966">
		<tag k="name" v="Landefoss" />
		<tag k="natural" v="waterfall" />
		<tag k="ssr:stedsnr" v="387860" />
	</node>
	<node id="-211472" lat="59.5009527809" lon="9.90780555245">
		<tag k="name" v="Komnesneset" />
		<tag k="natural" v="cape" />
		<tag k="ssr:stedsnr" v="387813" />
	</node>
	<node id="-214104" lat="59.6756833305" lon="9.50264166139">
		<tag k="alt_name" v="Langvann" />
		<tag k="loc_name" v="Kaldaldammen" />
		<tag k="name" v="Langvannet" />
		<tag k="natural" v="water" />
		<tag k="ssr:stedsnr" v="852897" />
	</node>
	<node id="-213517" lat="59.5671250038" lon="9.66225278045">
		<tag k="name" v="Spiketjern" />
		<tag k="natural" v="water" />
		<tag k="ssr:stedsnr" v="545294" />
	</node>
	<node id="-213512" lat="59.7376749963" lon="9.37578333458">
		<tag k="name" v="Liråa" />
		<tag k="ssr:stedsnr" v="545176" />
		<tag k="waterway" v="river" />
	</node>
	<node id="-213761" lat="59.7388472255" lon="9.45954722454">
		<tag k="name" v="Rendla" />
		<tag k="ssr:stedsnr" v="610484" />
		<tag k="waterway" v="river" />
	</node>
	<node id="-213606" lat="59.6871217991" lon="9.39331801546">
		<tag k="alt_name" v="Korstjønnan;Øvre Korstjern;Nedre Korstjern" />
		<tag k="name" v="Korstjørnene" />
		<tag k="natural" v="water" />
		<tag k="ssr:stedsnr" v="549953" />
		<tag k="water" v="lake" />
	</node>
	<node id="-211456" lat="59.5684805596" lon="9.86295277386">
		<tag k="name" v="Tretjern" />
		<tag k="natural" v="water" />
		<tag k="ssr:stedsnr" v="363743" />
		<tag k="water" v="lake" />
	</node>
	<node id="-213501" lat="59.7200000035" lon="9.3983055607">
		<tag k="name" v="Stampefossen" />
		<tag k="ssr:stedsnr" v="545109" />
		<tag k="waterway" v="rapids" />
	</node>
	<node id="-213500" lat="59.6974944479" lon="9.33793611803">
		<tag k="name" v="Hafsteinbubekken" />
		<tag k="ssr:stedsnr" v="545106" />
		<tag k="waterway" v="stream" />
	</node>
	<node id="-213499" lat="59.7029083344" lon="9.56739444861">
		<tag k="name" v="Dokkabekk" />
		<tag k="ssr:stedsnr" v="545081" />
		<tag k="waterway" v="stream" />
	</node>
	<node id="-211449" lat="59.5608972195" lon="9.67717221729">
		<tag k="name" v="Vreitadammen" />
		<tag k="ssr:stedsnr" v="363296" />
		<tag k="waterway" v="dam" />
	</node>
	<node id="-211447" lat="59.5617583338" lon="9.5530388967">
		<tag k="name" v="Lille Fjellvann" />
		<tag k="natural" v="water" />
		<tag k="ssr:stedsnr" v="363267" />
	</node>
	<node id="-211444" lat="59.7589111078" lon="9.35341666224">
		<tag k="alt_name" v="Elgtjern" />
		<tag k="name" v="Elgtjørn" />
		<tag k="natural" v="water" />
		<tag k="ssr:stedsnr" v="489979" />
	</node>
	<node id="-213490" lat="59.7591055511" lon="9.42258333613">
		<tag k="name" v="Rendledammen" />
		<tag k="natural" v="water" />
		<tag k="ssr:stedsnr" v="429984" />
	</node>
	<node id="-213489" lat="59.5698527803" lon="9.88018611211">
		<tag k="alt_name" v="Damvannskalven" />
		<tag k="name" v="Kalven" />
		<tag k="natural" v="water" />
		<tag k="ssr:stedsnr" v="429366" />
	</node>
	<node id="-213486" lat="59.5679999996" lon="9.68690277386">
		<tag k="name" v="Rosstjern" />
		<tag k="natural" v="water" />
		<tag k="ssr:stedsnr" v="429355" />
	</node>
	<node id="-213480" lat="59.6892222233" lon="9.40435277079">
		<tag k="name" v="Stølskardtjern" />
		<tag k="natural" v="water" />
		<tag k="ssr:stedsnr" v="428934" />
	</node>
	<node id="-211429" lat="59.7035750043" lon="9.37406944573">
		<tag k="alt_name" v="Fleskevolltjern" />
		<tag k="name" v="Fleskevolltjørna" />
		<tag k="natural" v="water" />
		<tag k="ssr:stedsnr" v="489000" />
	</node>
	<node id="-213476" lat="59.676025004" lon="9.61636666225">
		<tag k="name" v="Rundtjern" />
		<tag k="natural" v="water" />
		<tag k="ssr:stedsnr" v="428534" />
	</node>
	<node id="-213473" lat="59.7218277742" lon="9.59494999444">
		<tag k="name" v="Pikerfossen" />
		<tag k="natural" v="waterfall" />
		<tag k="ssr:stedsnr" v="428646" />
	</node>
	<node id="-211424" lat="59.6605246186" lon="9.45530765493">
		<tag k="name" v="Lauvåstjerna" />
		<tag k="natural" v="water" />
		<tag k="ssr:stedsnr" v="488934" />
		<tag k="water" v="lake" />
	</node>
	<node id="-211423" lat="59.6666222243" lon="9.55489721939">
		<tag k="name" v="Davids dam" />
		<tag k="natural" v="water" />
		<tag k="ssr:stedsnr" v="488929" />
	</node>
	<node id="-211422" lat="59.6611005354" lon="9.43235027817">
		<tag k="alt_name" v="Hengsvann" />
		<tag k="name" v="Hengsvannet" />
		<tag k="natural" v="water" />
		<tag k="old_name" v="Hengsvatnet" />
		<tag k="ssr:stedsnr" v="488926" />
		<tag k="water" v="lake" />
	</node>
	<node id="-211421" lat="59.6618614379" lon="9.49467851822">
		<tag k="alt_name" v="Helgevann" />
		<tag k="name" v="Helgevannet" />
		<tag k="natural" v="water" />
		<tag k="ssr:stedsnr" v="488925" />
		<tag k="water" v="lake" />
	</node>
	<node id="-211420" lat="59.52153611" lon="9.99021388164">
		<tag k="name" v="Mauretjern" />
		<tag k="natural" v="water" />
		<tag k="ssr:stedsnr" v="488891" />
	</node>
	<node id="-211418" lat="59.629872226" lon="9.42824999772">
		<tag k="alt_name" v="Deletjønn" />
		<tag k="name" v="Delestjern" />
		<tag k="natural" v="water" />
		<tag k="ssr:stedsnr" v="488851" />
	</node>
	<node id="-211416" lat="59.5655222264" lon="9.55327777796">
		<tag k="alt_name" v="Store Fjellvann" />
		<tag k="name" v="Fjellvanna" />
		<tag k="natural" v="water" />
		<tag k="ssr:stedsnr" v="488761" />
	</node>
	<node id="-211695" lat="59.5982836208" lon="9.85767597754">
		<tag k="name" v="Digertryte" />
		<tag k="natural" v="water" />
		<tag k="ssr:stedsnr" v="671448" />
	</node>
	<node id="-213458" lat="59.6686305546" lon="9.52675000799">
		<tag k="name" v="Jonstjern" />
		<tag k="natural" v="water" />
		<tag k="ssr:stedsnr" v="427920" />
	</node>
	<node id="-213468" lat="59.546216669" lon="9.68454999259">
		<tag k="name" v="Svarttjern" />
		<tag k="natural" v="water" />
		<tag k="ssr:stedsnr" v="428371" />
	</node>
	<node id="-211406" lat="59.4755194463" lon="9.66024723031">
		<tag k="alt_name" v="Kittulsbekk" />
		<tag k="name" v="Kittelsbekken" />
		<tag k="ssr:stedsnr" v="488560" />
		<tag k="waterway" v="stream" />
	</node>
	<node id="-213453" lat="59.4485083335" lon="9.60384722657">
		<tag k="name" v="Fiskelaus" />
		<tag k="natural" v="water" />
		<tag k="ssr:stedsnr" v="427530" />
	</node>
	<node id="-211403" lat="59.6323277739" lon="9.8198833366">
		<tag k="alt_name" v="Plometjern" />
		<tag k="name" v="Plommetjern" />
		<tag k="natural" v="water" />
		<tag k="ssr:stedsnr" v="488499" />
	</node>
	<node id="-211402" lat="59.728997223" lon="9.42338055876">
		<tag k="alt_name" v="Kloppåstjern" />
		<tag k="name" v="Kloppåstjørna" />
		<tag k="natural" v="water" />
		<tag k="ssr:stedsnr" v="488423" />
	</node>
	<node id="-212727" lat="59.6940388895" lon="9.37394445068">
		<tag k="name" v="Øvre Fjeladam" />
		<tag k="natural" v="water" />
		<tag k="ssr:stedsnr" v="120102" />
	</node>
	<node id="-211398" lat="59.544486107" lon="9.71760554751">
		<tag k="name" v="Matesonbekken" />
		<tag k="ssr:stedsnr" v="488391" />
		<tag k="waterway" v="stream" />
	</node>
	<node id="-211396" lat="59.5515444428" lon="9.86341667143">
		<tag k="name" v="Dørsjø" />
		<tag k="natural" v="water" />
		<tag k="ssr:stedsnr" v="488379" />
		<tag k="water" v="lake" />
	</node>
	<node id="-211395" lat="59.5515249956" lon="9.88676666912">
		<tag k="name" v="Vegavannet" />
		<tag k="natural" v="water" />
		<tag k="ssr:stedsnr" v="488376" />
	</node>
	<node id="-211394" lat="59.5577361145" lon="9.66480833529">
		<tag k="name" v="Store Lauarvannet" />
		<tag k="natural" v="water" />
		<tag k="ssr:stedsnr" v="488368" />
		<tag k="water" v="lake" />
	</node>
	<node id="-211391" lat="59.5055308613" lon="9.66599265933">
		<tag k="alt_name" v="Vesle Kongstjern" />
		<tag k="name" v="Lille Kongstjern" />
		<tag k="natural" v="water" />
		<tag k="ssr:stedsnr" v="488300" />
	</node>
	<node id="-211385" lat="59.4982249988" lon="9.66999165838">
		<tag k="name" v="Kanolivannet" />
		<tag k="natural" v="water" />
		<tag k="ssr:stedsnr" v="487624" />
	</node>
	<node id="-213430" lat="59.4337305535" lon="9.69026666612">
		<tag k="name" v="Plassesand" />
		<tag k="natural" v="beach" />
		<tag k="ssr:stedsnr" v="424587" />
	</node>
	<node id="-213429" lat="59.5825388885" lon="9.52496110477">
		<tag k="name" v="Kristinehølet" />
		<tag k="natural" v="bay" />
		<tag k="ssr:stedsnr" v="424575" />
	</node>
	<node id="-213428" lat="59.5079527794" lon="9.79349166137">
		<tag k="name" v="Eggartjern" />
		<tag k="natural" v="water" />
		<tag k="ssr:stedsnr" v="424571" />
	</node>
	<node id="-211373" lat="59.5719611073" lon="9.74968333187">
		<tag k="name" v="Kropletjern" />
		<tag k="natural" v="water" />
		<tag k="ssr:stedsnr" v="484789" />
	</node>
	<node id="-213419" lat="59.5024527789" lon="9.73252499316">
		<tag k="name" v="Dulpen" />
		<tag k="natural" v="water" />
		<tag k="ssr:stedsnr" v="424388" />
	</node>
	<node id="-213416" lat="59.5108252738" lon="9.69512303935">
		<tag k="name" v="Stølekilen" />
		<tag k="natural" v="bay" />
		<tag k="ssr:stedsnr" v="424370" />
	</node>
	<node id="-213414" lat="59.5345583317" lon="9.69625000773">
		<tag k="name" v="Lauvknattvannet" />
		<tag k="natural" v="water" />
		<tag k="ssr:stedsnr" v="424348" />
	</node>
	<node id="-211361" lat="59.6037749984" lon="9.47788056164">
		<tag k="name" v="Branntjernvika" />
		<tag k="natural" v="bay" />
		<tag k="ssr:stedsnr" v="484523" />
	</node>
	<node id="-213408" lat="59.5513611113" lon="9.65030277749">
		<tag k="name" v="Gladbakkodden" />
		<tag k="natural" v="cape" />
		<tag k="ssr:stedsnr" v="424295" />
	</node>
	<node id="-213407" lat="59.5817999975" lon="9.58432499292">
		<tag k="name" v="Trytetjern" />
		<tag k="natural" v="water" />
		<tag k="ssr:stedsnr" v="424486" />
	</node>
	<node id="-214085" lat="59.5117611125" lon="9.71551666607">
		<tag k="name" v="Staverbukta" />
		<tag k="natural" v="bay" />
		<tag k="ssr:stedsnr" v="849621" />
	</node>
	<node id="-211355" lat="59.5869448823" lon="9.52367708378">
		<tag k="name" v="Pråmvika" />
		<tag k="natural" v="bay" />
		<tag k="ssr:stedsnr" v="484588" />
	</node>
	<node id="-211354" lat="59.5756111153" lon="9.54128055403">
		<tag k="name" v="Stutaua" />
		<tag k="natural" v="water" />
		<tag k="ssr:stedsnr" v="484584" />
		<tag k="water" v="lake" />
	</node>
	<node id="-213401" lat="59.7377861139" lon="9.39898056066">
		<tag k="name" v="Søledemma" />
		<tag k="natural" v="water" />
		<tag k="ssr:stedsnr" v="424172" />
		<tag k="water" v="pond" />
	</node>
	<node id="-213399" lat="59.4812833323" lon="9.90117222542">
		<tag k="name" v="Furtekollbekken" />
		<tag k="ssr:stedsnr" v="424162" />
		<tag k="waterway" v="stream" />
	</node>
	<node id="-211353" lat="59.5160861084" lon="9.78509444309">
		<tag k="name" v="Store Granstjern" />
		<tag k="natural" v="water" />
		<tag k="ssr:stedsnr" v="484581" />
	</node>
	<node id="-211347" lat="59.501672218" lon="9.71099444852">
		<tag k="name" v="Pedervannet" />
		<tag k="natural" v="water" />
		<tag k="ssr:stedsnr" v="484367" />
	</node>
	<node id="-213392" lat="59.6852666707" lon="9.53003056448">
		<tag k="name" v="Kongsdambekk" />
		<tag k="ssr:stedsnr" v="424055" />
		<tag k="waterway" v="stream" />
	</node>
	<node id="-211341" lat="59.6803083353" lon="9.48618054948">
		<tag k="name" v="Orloktjern" />
		<tag k="natural" v="water" />
		<tag k="ssr:stedsnr" v="484042" />
	</node>
	<node id="-213388" lat="59.6836166665" lon="9.47285555795">
		<tag k="name" v="Søndre Knattetjern" />
		<tag k="natural" v="water" />
		<tag k="ssr:stedsnr" v="424052" />
	</node>
	<node id="-213387" lat="59.6570916695" lon="9.43606665971">
		<tag k="name" v="Garnøya" />
		<tag k="place" v="island" />
		<tag k="ssr:stedsnr" v="424046" />
	</node>
	<node id="-213386" lat="59.6585194479" lon="9.43913889112">
		<tag k="name" v="Elgøya" />
		<tag k="place" v="island" />
		<tag k="ssr:stedsnr" v="424044" />
	</node>
	<node id="-211336" lat="59.7200833311" lon="9.36886666903">
		<tag k="name" v="Kvennebekken" />
		<tag k="ssr:stedsnr" v="484094" />
		<tag k="waterway" v="stream" />
	</node>
	<node id="-211335" lat="59.695169448" lon="9.33716665935">
		<tag k="name" v="Solfoktjernet" />
		<tag k="natural" v="water" />
		<tag k="ssr:stedsnr" v="484086" />
	</node>
	<node id="-211334" lat="59.696622218" lon="9.38374444666">
		<tag k="name" v="Skortetjern" />
		<tag k="natural" v="water" />
		<tag k="ssr:stedsnr" v="484085" />
	</node>
	<node id="-211332" lat="59.649736114" lon="9.64345833646">
		<tag k="name" v="Sollibekken" />
		<tag k="ssr:stedsnr" v="484078" />
		<tag k="waterway" v="stream" />
	</node>
	<node id="-213739" lat="59.5924055598" lon="9.45580000535">
		<tag k="alt_name" v="Skortrostjern" />
		<tag k="name" v="Skautreitjern" />
		<tag k="natural" v="water" />
		<tag k="ssr:stedsnr" v="609807" />
	</node>
	<node id="-211324" lat="59.5137694422" lon="9.91543611645">
		<tag k="name" v="Sauebekken" />
		<tag k="ssr:stedsnr" v="326758" />
		<tag k="waterway" v="stream" />
	</node>
	<node id="-213368" lat="59.6261972216" lon="9.74887778441">
		<tag k="name" v="Plommetjernsbekken" />
		<tag k="ssr:stedsnr" v="387849" />
		<tag k="waterway" v="stream" />
	</node>
	<node id="-211318" lat="59.6157166625" lon="9.67832221908">
		<tag k="name" v="Gravenfoss" />
		<tag k="natural" v="waterfall" />
		<tag k="ssr:stedsnr" v="326710" />
	</node>
	<node id="-213365" lat="59.5385305512" lon="9.83599444954">
		<tag k="name" v="Kvennebekk" />
		<tag k="ssr:stedsnr" v="387826" />
		<tag k="waterway" v="stream" />
	</node>
	<node id="-211316" lat="59.5083972237" lon="9.76574722061">
		<tag k="name" v="Støleelva" />
		<tag k="ssr:stedsnr" v="306325" />
		<tag k="waterway" v="stream" />
	</node>
	<node id="-213363" lat="59.6953444429" lon="9.65262500277">
		<tag k="name" v="Heggerosbekken" />
		<tag k="ssr:stedsnr" v="387885" />
		<tag k="waterway" v="stream" />
	</node>
	<node id="-213355" lat="59.652897223" lon="9.59052499924">
		<tag k="name" v="Armen gruvedam" />
		<tag k="ssr:stedsnr" v="387547" />
		<tag k="waterway" v="dam" />
	</node>
	<node id="-211292" lat="59.5513722227" lon="9.89777222849">
		<tag k="name" v="Høymyrvannet" />
		<tag k="natural" v="water" />
		<tag k="ssr:stedsnr" v="302765" />
	</node>
	<node id="-213339" lat="59.6827972219" lon="9.44982499381">
		<tag k="alt_name" v="Nedre Trehynde;Øvre Trehynde" />
		<tag k="name" v="Trehyrna" />
		<tag k="natural" v="water" />
		<tag k="ssr:stedsnr" v="367959" />
	</node>
	<node id="-213338" lat="59.6912750018" lon="9.49722500053">
		<tag k="name" v="Tømmerkastbekken" />
		<tag k="ssr:stedsnr" v="367944" />
		<tag k="waterway" v="stream" />
	</node>
	<node id="-211289" lat="59.4973083308" lon="9.6287416661">
		<tag k="name" v="Granåsvannet" />
		<tag k="natural" v="water" />
		<tag k="ssr:stedsnr" v="302561" />
	</node>
	<node id="-213335" lat="59.6695083348" lon="9.46534166734">
		<tag k="alt_name" v="Villingbuvann" />
		<tag k="name" v="Villingbuvannet" />
		<tag k="natural" v="water" />
		<tag k="ssr:stedsnr" v="367916" />
	</node>
	<node id="-211286" lat="59.5840361078" lon="9.51158056298">
		<tag k="name" v="Bjørkesetervika" />
		<tag k="natural" v="bay" />
		<tag k="ssr:stedsnr" v="302604" />
	</node>
	<node id="-211285" lat="59.5197500016" lon="9.70762778263">
		<tag k="name" v="Fjellbekk" />
		<tag k="ssr:stedsnr" v="302603" />
		<tag k="waterway" v="stream" />
	</node>
	<node id="-213332" lat="59.7709864458" lon="9.39864198053">
		<tag k="alt_name" v="Andevann" />
		<tag k="name" v="Rundtjern" />
		<tag k="natural" v="water" />
		<tag k="ssr:stedsnr" v="367867" />
	</node>
	<node id="-211283" lat="59.7020222225" lon="9.34389721471">
		<tag k="name" v="Vesle Damtjern" />
		<tag k="natural" v="water" />
		<tag k="ssr:stedsnr" v="302172" />
	</node>
	<node id="-213328" lat="59.6281777737" lon="9.57576110762">
		<tag k="name" v="Bramsane" />
		<tag k="ssr:stedsnr" v="367837" />
		<tag k="waterway" v="river" />
	</node>
	<node id="-213326" lat="59.5637722221" lon="9.49846110852">
		<tag k="alt_name" v="Elgtjern" />
		<tag k="name" v="Elgstjern" />
		<tag k="natural" v="water" />
		<tag k="ssr:stedsnr" v="367782" />
	</node>
	<node id="-213325" lat="59.5446055519" lon="9.5134750033">
		<tag k="name" v="Krokvannet" />
		<tag k="natural" v="water" />
		<tag k="ssr:stedsnr" v="367757" />
	</node>
	<node id="-213324" lat="59.5386500007" lon="9.55895555679">
		<tag k="name" v="Råbakkvann" />
		<tag k="natural" v="water" />
		<tag k="ssr:stedsnr" v="367729" />
	</node>
	<node id="-211275" lat="59.6809070596" lon="9.5156304422">
		<tag k="loc_name" v="Kapteinsdam" />
		<tag k="name" v="Rognlidammen" />
		<tag k="natural" v="water" />
		<tag k="ssr:stedsnr" v="302065" />
	</node>
	<node id="-213322" lat="59.5137380996" lon="9.55208074402">
		<tag k="name" v="Ravalsjø" />
		<tag k="natural" v="water" />
		<tag k="ssr:stedsnr" v="367692" />
		<tag k="water" v="lake" />
	</node>
	<node id="-211273" lat="59.6818555516" lon="9.48028888094">
		<tag k="name" v="Rundetjern" />
		<tag k="natural" v="water" />
		<tag k="ssr:stedsnr" v="302059" />
	</node>
	<node id="-211272" lat="59.6443750027" lon="9.47560277865">
		<tag k="name" v="Størrtjern" />
		<tag k="natural" v="water" />
		<tag k="ssr:stedsnr" v="302015" />
	</node>
	<node id="-211271" lat="59.7802073275" lon="9.37351345699">
		<tag k="name" v="Kjørkjevatnet" />
		<tag k="natural" v="water" />
		<tag k="ssr:stedsnr" v="301852" />
	</node>
	<node id="-211268" lat="59.7571805578" lon="9.41140277396">
		<tag k="name" v="Svartetjern" />
		<tag k="natural" v="water" />
		<tag k="ssr:stedsnr" v="298838" />
	</node>
	<node id="-213315" lat="59.63085833" lon="9.6976194455">
		<tag k="name" v="Svarttjern" />
		<tag k="natural" v="water" />
		<tag k="ssr:stedsnr" v="367492" />
	</node>
	<node id="-213314" lat="59.6494666622" lon="9.79560556217">
		<tag k="name" v="Djuptjern" />
		<tag k="natural" v="water" />
		<tag k="ssr:stedsnr" v="367483" />
	</node>
	<node id="-213313" lat="59.6283638849" lon="9.81767777616">
		<tag k="name" v="Timannstjerna" />
		<tag k="natural" v="water" />
		<tag k="ssr:stedsnr" v="367460" />
		<tag k="water" v="lake" />
	</node>
	<node id="-213728" lat="59.4937555539" lon="9.56943610754">
		<tag k="name" v="Brudetjern" />
		<tag k="natural" v="water" />
		<tag k="ssr:stedsnr" v="609078" />
	</node>
	<node id="-211261" lat="59.5802277774" lon="9.88335278356">
		<tag k="name" v="Ålevannstangen" />
		<tag k="natural" v="cape" />
		<tag k="ssr:stedsnr" v="453548" />
	</node>
	<node id="-211258" lat="59.6378249959" lon="9.79094723024">
		<tag k="name" v="Rauodden" />
		<tag k="natural" v="cape" />
		<tag k="ssr:stedsnr" v="449544" />
	</node>
	<node id="-211255" lat="59.6350499967" lon="9.64604722409">
		<tag k="name" v="Svartåstjernbekken" />
		<tag k="ssr:stedsnr" v="448986" />
		<tag k="waterway" v="stream" />
	</node>
	<node id="-213301" lat="59.5287305569" lon="9.71682778653">
		<tag k="name" v="Hesteskoen" />
		<tag k="natural" v="water" />
		<tag k="ssr:stedsnr" v="367355" />
	</node>
	<node id="-213300" lat="59.5496292071" lon="9.64429283014">
		<tag k="alt_name" v="Vesle Lauarvannet" />
		<tag k="name" v="Lille Lauarvannet" />
		<tag k="natural" v="water" />
		<tag k="ssr:stedsnr" v="367347" />
		<tag k="water" v="lake" />
	</node>
	<node id="-213296" lat="59.5119388885" lon="9.73313610555">
		<tag k="name" v="Vesle Stølevann" />
		<tag k="natural" v="water" />
		<tag k="ssr:stedsnr" v="367264" />
	</node>
	<node id="-213384" lat="59.6681166631" lon="9.43404445258">
		<tag k="name" v="Elgodden" />
		<tag k="natural" v="cape" />
		<tag k="ssr:stedsnr" v="424039" />
	</node>
	<node id="-213291" lat="59.4750611138" lon="9.66963889386">
		<tag k="alt_name" v="Onsbutjern" />
		<tag k="name" v="Onsbytjernet" />
		<tag k="natural" v="water" />
		<tag k="ssr:stedsnr" v="366615" />
	</node>
	<node id="-211241" lat="59.6624777753" lon="9.62450555882">
		<tag k="name" v="Pukkverkelva" />
		<tag k="ssr:stedsnr" v="448663" />
		<tag k="waterway" v="river" />
	</node>
	<node id="-213287" lat="59.496725003" lon="9.92621943883">
		<tag k="alt_name" v="Numedalslågen" />
		<tag k="name" v="Lågen" />
		<tag k="ssr:stedsnr" v="366578" />
		<tag k="waterway" v="river" />
	</node>
	<node id="-211234" lat="59.5863249973" lon="9.59001111865">
		<tag k="alt_name" v="Pika" />
		<tag k="name" v="Jentetjern" />
		<tag k="natural" v="water" />
		<tag k="ssr:stedsnr" v="448388" />
	</node>
	<node id="-211231" lat="59.7277472263" lon="9.4728916662">
		<tag k="alt_name" v="Mordertjern" />
		<tag k="name" v="Mordartjern" />
		<tag k="natural" v="water" />
		<tag k="ssr:stedsnr" v="246415" />
	</node>
	<node id="-211230" lat="59.7286249982" lon="9.53093055115">
		<tag k="name" v="Tverrelva" />
		<tag k="ssr:stedsnr" v="246414" />
		<tag k="waterway" v="river" />
	</node>
	<node id="-211229" lat="59.6007405601" lon="9.8655170528">
		<tag k="alt_name" v="Mauretjernet" />
		<tag k="name" v="Mauretjern" />
		<tag k="natural" v="water" />
		<tag k="ssr:stedsnr" v="246413" />
	</node>
	<node id="-211225" lat="59.6772591264" lon="9.41302706578">
		<tag k="name" v="Gulbrandstjern" />
		<tag k="natural" v="water" />
		<tag k="ssr:stedsnr" v="245902" />
	</node>
	<node id="-211218" lat="59.4817472258" lon="9.57243056441">
		<tag k="name" v="Igletjern" />
		<tag k="natural" v="water" />
		<tag k="ssr:stedsnr" v="245053" />
	</node>
	<node id="-211215" lat="59.5206833366" lon="10.0041861181">
		<tag k="name" v="Åsseterbekken" />
		<tag k="ssr:stedsnr" v="242622" />
		<tag k="waterway" v="stream" />
	</node>
	<node id="-211213" lat="59.5997500007" lon="9.77533333739">
		<tag k="name" v="Nesrenna" />
		<tag k="natural" v="strait" />
		<tag k="ssr:stedsnr" v="242966" />
	</node>
	<node id="-213259" lat="59.6363444411" lon="9.71341389404">
		<tag k="name" v="Bukkåstjernbekken" />
		<tag k="ssr:stedsnr" v="363631" />
		<tag k="waterway" v="stream" />
	</node>
	<node id="-213258" lat="59.6542388858" lon="9.74330277978">
		<tag k="name" v="Kjennerudtjern" />
		<tag k="natural" v="water" />
		<tag k="ssr:stedsnr" v="363619" />
	</node>
	<node id="-211208" lat="59.5941416699" lon="9.4922333369">
		<tag k="name" v="Kolsjøoset" />
		<tag k="natural" v="bay" />
		<tag k="ssr:stedsnr" v="242509" />
	</node>
	<node id="-211207" lat="59.4952416689" lon="9.76370000786">
		<tag k="name" v="Søndre Støveltjern" />
		<tag k="natural" v="water" />
		<tag k="ssr:stedsnr" v="242372" />
	</node>
	<node id="-211205" lat="59.5167916626" lon="9.68651943833">
		<tag k="name" v="Lønnstøle" />
		<tag k="natural" v="bay" />
		<tag k="ssr:stedsnr" v="242354" />
	</node>
	<node id="-213251" lat="59.5568277735" lon="9.54895833469">
		<tag k="name" v="Kløvjatjern" />
		<tag k="natural" v="water" />
		<tag k="ssr:stedsnr" v="363525" />
	</node>
	<node id="-211202" lat="59.4596305535" lon="9.63719721528">
		<tag k="name" v="Dalstjern" />
		<tag k="natural" v="water" />
		<tag k="ssr:stedsnr" v="242477" />
	</node>
	<node id="-211200" lat="59.7008222261" lon="9.46307499546">
		<tag k="name" v="Stensrudbekk" />
		<tag k="ssr:stedsnr" v="242060" />
		<tag k="waterway" v="stream" />
	</node>
	<node id="-211198" lat="59.6694154422" lon="9.55025399497">
		<tag k="name" v="Zechenhausdam" />
		<tag k="natural" v="water" />
		<tag k="ssr:stedsnr" v="242015" />
	</node>
	<node id="-213245" lat="59.4801527746" lon="9.63684166008">
		<tag k="name" v="Kloppløk" />
		<tag k="natural" v="water" />
		<tag k="ssr:stedsnr" v="363496" />
	</node>
	<node id="-213244" lat="59.6081138933" lon="9.4601527866">
		<tag k="name" v="Løken" />
		<tag k="natural" v="water" />
		<tag k="ssr:stedsnr" v="363494" />
	</node>
	<node id="-211195" lat="59.5406694425" lon="9.95704999944">
		<tag k="name" v="Sprutebekk" />
		<tag k="ssr:stedsnr" v="241862" />
		<tag k="waterway" v="stream" />
	</node>
	<node id="-213239" lat="59.5683472211" lon="9.93861389732">
		<tag k="name" v="Kavlevika" />
		<tag k="natural" v="bay" />
		<tag k="ssr:stedsnr" v="363759" />
	</node>
	<node id="-211190" lat="59.7172805525" lon="9.39171389348">
		<tag k="name" v="Fleskevollbekken" />
		<tag k="ssr:stedsnr" v="242108" />
		<tag k="waterway" v="stream" />
	</node>
	<node id="-213236" lat="59.7280083322" lon="9.37108888639">
		<tag k="name" v="Damløken" />
		<tag k="natural" v="bay" />
		<tag k="ssr:stedsnr" v="363176" />
	</node>
	<node id="-211185" lat="59.4330305569" lon="9.66100555141">
		<tag k="name" v="Arkosøya" />
		<tag k="place" v="island" />
		<tag k="ssr:stedsnr" v="241621" />
	</node>
	<node id="-211183" lat="59.5096255428" lon="9.5474858207">
		<tag k="alt_name" v="Vesle Gjeitøya" />
		<tag k="name" v="Vesle Geitøya" />
		<tag k="place" v="island" />
		<tag k="ssr:stedsnr" v="241575" />
	</node>
	<node id="-213228" lat="59.5448305556" lon="9.56183333675">
		<tag k="name" v="Svarthullet" />
		<tag k="natural" v="water" />
		<tag k="ssr:stedsnr" v="363139" />
	</node>
	<node id="-211175" lat="59.7284361095" lon="9.3424972183">
		<tag k="name" v="Mobekken" />
		<tag k="ssr:stedsnr" v="237927" />
		<tag k="waterway" v="stream" />
	</node>
	<node id="-211174" lat="59.6608916693" lon="9.71453888078">
		<tag k="name" v="Haurevanna" />
		<tag k="natural" v="water" />
		<tag k="ssr:stedsnr" v="237924" />
		<tag k="water" v="lake" />
	</node>
	<node id="-213218" lat="59.494802778" lon="9.76658610441">
		<tag k="name" v="Fanten" />
		<tag k="natural" v="water" />
		<tag k="ssr:stedsnr" v="363365" />
	</node>
	<node id="-213216" lat="59.4562361076" lon="9.7441749945">
		<tag k="name" v="Merratjern" />
		<tag k="natural" v="water" />
		<tag k="ssr:stedsnr" v="363094" />
	</node>
	<node id="-211167" lat="59.7460777814" lon="9.38836944855">
		<tag k="name" v="Mellomvadbekken" />
		<tag k="ssr:stedsnr" v="298445" />
		<tag k="waterway" v="stream" />
	</node>
	<node id="-214053" lat="59.6966944425" lon="9.4438833406">
		<tag k="name" v="Tangenbekk" />
		<tag k="ssr:stedsnr" v="849107" />
		<tag k="waterway" v="stream" />
	</node>
	<node id="-213211" lat="59.7548055544" lon="9.40694445033">
		<tag k="name" v="Stortjern" />
		<tag k="natural" v="water" />
		<tag k="ssr:stedsnr" v="358438" />
	</node>
	<node id="-213207" lat="59.6134277798" lon="9.81663888919">
		<tag k="name" v="Aurekulpen" />
		<tag k="natural" v="water" />
		<tag k="ssr:stedsnr" v="330663" />
		<tag k="water" v="pond" />
	</node>
	<node id="-213205" lat="59.641805553" lon="9.78993332663">
		<tag k="name" v="Kvennebekk" />
		<tag k="ssr:stedsnr" v="327552" />
		<tag k="waterway" v="stream" />
	</node>
	<node id="-213204" lat="59.6299527794" lon="9.50890833361">
		<tag k="alt_name" v="Kobberbergelva" />
		<tag k="name" v="Kobberbergselva" />
		<tag k="ssr:stedsnr" v="327632" />
		<tag k="waterway" v="river" />
	</node>
	<node id="-211154" lat="59.5159250032" lon="9.56944722576">
		<tag k="name" v="Svarttjern" />
		<tag k="natural" v="water" />
		<tag k="ssr:stedsnr" v="181366" />
	</node>
	<node id="-211153" lat="59.510341666" lon="9.55698333094">
		<tag k="name" v="Skrimsbekken" />
		<tag k="ssr:stedsnr" v="181359" />
		<tag k="waterway" v="stream" />
	</node>
	<node id="-213200" lat="59.6054444488" lon="9.72718888148">
		<tag k="alt_name" v="Såtvedtbekken" />
		<tag k="name" v="Såttvetbekken" />
		<tag k="ssr:stedsnr" v="326866" />
		<tag k="waterway" v="stream" />
	</node>
	<node id="-211151" lat="59.5330083358" lon="9.55412222872">
		<tag k="name" v="Ormtjern" />
		<tag k="natural" v="water" />
		<tag k="ssr:stedsnr" v="181321" />
	</node>
	<node id="-211150" lat="59.5397444429" lon="9.63701110646">
		<tag k="name" v="Sandåa" />
		<tag k="ssr:stedsnr" v="181305" />
		<tag k="waterway" v="stream" />
	</node>
	<node id="-211146" lat="59.4974944475" lon="9.72164444491">
		<tag k="name" v="Fiskelaus" />
		<tag k="natural" v="water" />
		<tag k="ssr:stedsnr" v="181419" />
	</node>
	<node id="-211145" lat="59.5000222184" lon="9.78774167275">
		<tag k="name" v="Bjørklundbekken" />
		<tag k="ssr:stedsnr" v="181408" />
		<tag k="waterway" v="stream" />
	</node>
	<node id="-214049" lat="59.6644027794" lon="9.42485555711">
		<tag k="name" v="Mærrasundet" />
		<tag k="natural" v="strait" />
		<tag k="ssr:stedsnr" v="849057" />
	</node>
	<node id="-211140" lat="59.692016666" lon="9.40150832495">
		<tag k="name" v="Sleiktjern" />
		<tag k="natural" v="water" />
		<tag k="ssr:stedsnr" v="181109" />
	</node>
	<node id="-211137" lat="59.684706594" lon="9.50336063013">
		<tag k="name" v="Benkragtjern" />
		<tag k="natural" v="water" />
		<tag k="ssr:stedsnr" v="181052" />
	</node>
	<node id="-213184" lat="59.6683500026" lon="9.62161943629">
		<tag k="name" v="Trondhjemmertjern" />
		<tag k="natural" v="water" />
		<tag k="ssr:stedsnr" v="326664" />
	</node>
	<node id="-214048" lat="59.674513886" lon="9.5502416657">
		<tag k="name" v="Jerntjern" />
		<tag k="natural" v="water" />
		<tag k="ssr:stedsnr" v="849043" />
	</node>
	<node id="-211132" lat="59.6103499988" lon="9.85395554946">
		<tag k="name" v="Vesle Hvitstein" />
		<tag k="natural" v="water" />
		<tag k="ssr:stedsnr" v="269633" />
	</node>
	<node id="-213174" lat="59.5716416677" lon="9.59218055614">
		<tag k="name" v="Vierbekken" />
		<tag k="ssr:stedsnr" v="326388" />
		<tag k="waterway" v="stream" />
	</node>
	<node id="-213172" lat="59.5931694464" lon="9.5785972168">
		<tag k="name" v="Hestedalsbekken" />
		<tag k="ssr:stedsnr" v="326384" />
		<tag k="waterway" v="stream" />
	</node>
	<node id="-213171" lat="59.4548666654" lon="9.61556944523">
		<tag k="name" v="Storøya" />
		<tag k="place" v="island" />
		<tag k="ssr:stedsnr" v="313682" />
	</node>
	<node id="-211315" lat="59.7294861118" lon="9.4827861175">
		<tag k="name" v="Porstjerna" />
		<tag k="natural" v="water" />
		<tag k="ssr:stedsnr" v="306438" />
		<tag k="water" v="lake" />
	</node>
	<node id="-213167" lat="59.6157944404" lon="9.82143055749">
		<tag k="name" v="Ognevanna" />
		<tag k="natural" v="water" />
		<tag k="ssr:stedsnr" v="307527" />
		<tag k="water" v="lake" />
	</node>
	<node id="-213163" lat="59.5654888853" lon="9.90757499565">
		<tag k="name" v="Vines-Ålevann" />
		<tag k="natural" v="water" />
		<tag k="ssr:stedsnr" v="307387" />
	</node>
	<node id="-213084" lat="59.4891416656" lon="9.47941944902">
		<tag k="name" v="Svarttjern" />
		<tag k="natural" v="water" />
		<tag k="ssr:stedsnr" v="302637" />
	</node>
	<node id="-213158" lat="59.6673722198" lon="9.57062778112">
		<tag k="name" v="Nydammen" />
		<tag k="natural" v="water" />
		<tag k="ssr:stedsnr" v="306936" />
	</node>
	<node id="-213157" lat="59.6709972256" lon="9.41050000301">
		<tag k="name" v="Vierbekken" />
		<tag k="ssr:stedsnr" v="306919" />
		<tag k="waterway" v="stream" />
	</node>
	<node id="-213156" lat="59.6417" lon="9.56424999499">
		<tag k="name" v="Briskemyrdammen" />
		<tag k="natural" v="water" />
		<tag k="ssr:stedsnr" v="306886" />
	</node>
	<node id="-211107" lat="59.5750805595" lon="9.68910555995">
		<tag k="name" v="Vesle Brønntjern" />
		<tag k="natural" v="water" />
		<tag k="ssr:stedsnr" v="266720" />
	</node>
	<node id="-213152" lat="59.5900527819" lon="9.46617500087">
		<tag k="name" v="Løkemyrbekken" />
		<tag k="ssr:stedsnr" v="306817" />
		<tag k="waterway" v="stream" />
	</node>
	<node id="-213150" lat="59.5765166668" lon="9.55659165836">
		<tag k="name" v="Karikulp" />
		<tag k="natural" v="water" />
		<tag k="ssr:stedsnr" v="306793" />
	</node>
	<node id="-213148" lat="59.5386951747" lon="9.54709299611">
		<tag k="name" v="Bråtatjern" />
		<tag k="natural" v="water" />
		<tag k="ssr:stedsnr" v="306713" />
	</node>
	<node id="-213147" lat="59.5182194411" lon="9.55183055422">
		<tag k="name" v="Ormetangen" />
		<tag k="natural" v="cape" />
		<tag k="ssr:stedsnr" v="306707" />
	</node>
	<node id="-213143" lat="59.4800750014" lon="9.83135556019">
		<tag k="name" v="Lursbekk" />
		<tag k="ssr:stedsnr" v="306567" />
		<tag k="waterway" v="stream" />
	</node>
	<node id="-211092" lat="59.6439583293" lon="9.68032777108">
		<tag k="name" v="Svartkulp" />
		<tag k="natural" v="water" />
		<tag k="ssr:stedsnr" v="266494" />
	</node>
	<node id="-213138" lat="59.640850001" lon="9.62017499805">
		<tag k="alt_name" v="Svartåstjern" />
		<tag k="name" v="Svartåstjernet" />
		<tag k="natural" v="water" />
		<tag k="ssr:stedsnr" v="306518" />
	</node>
	<node id="-213136" lat="59.4158611964" lon="9.69979606749">
		<tag k="alt_name" v="Dammen;Møkledammen" />
		<tag k="name" v="Mykledammen" />
		<tag k="ssr:stedsnr" v="306499" />
		<tag k="waterway" v="dam" />
	</node>
	<node id="-213135" lat="59.625600003" lon="9.76133610496">
		<tag k="name" v="Vindortjern" />
		<tag k="natural" v="water" />
		<tag k="ssr:stedsnr" v="306495" />
	</node>
	<node id="-213131" lat="59.5599305527" lon="9.86798333709">
		<tag k="name" v="Havtjern" />
		<tag k="natural" v="water" />
		<tag k="ssr:stedsnr" v="306391" />
	</node>
	<node id="-213130" lat="59.5592972182" lon="9.90121945242">
		<tag k="name" v="Krokvanna" />
		<tag k="natural" v="water" />
		<tag k="ssr:stedsnr" v="306386" />
		<tag k="water" v="lake" />
	</node>
	<node id="-211081" lat="59.5012777788" lon="9.68941110481">
		<tag k="alt_name" v="Søletjern" />
		<tag k="name" v="Søletjernet" />
		<tag k="natural" v="water" />
		<tag k="ssr:stedsnr" v="124279" />
	</node>
	<node id="-213457" lat="59.4629055571" lon="9.7178305486">
		<tag k="name" v="Stubbsokktjern" />
		<tag k="natural" v="water" />
		<tag k="ssr:stedsnr" v="427600" />
	</node>
	<node id="-213126" lat="59.5040611083" lon="9.610900002">
		<tag k="alt_name" v="Nedre Ulstjern" />
		<tag k="name" v="Nedre Urdstjerna" />
		<tag k="natural" v="water" />
		<tag k="ssr:stedsnr" v="306333" />
	</node>
	<node id="-213125" lat="59.4733472253" lon="9.60275000126">
		<tag k="name" v="Merratjern" />
		<tag k="natural" v="water" />
		<tag k="ssr:stedsnr" v="305638" />
	</node>
	<node id="-211076" lat="59.5562388934" lon="9.6512416657">
		<tag k="alt_name" v="Store Mysutjern" />
		<tag k="name" v="Mysutjernet" />
		<tag k="natural" v="water" />
		<tag k="ssr:stedsnr" v="124338" />
	</node>
	<node id="-213123" lat="59.4468555531" lon="9.71974721892">
		<tag k="name" v="Balangen" />
		<tag k="natural" v="water" />
		<tag k="ssr:stedsnr" v="305571" />
		<tag k="water" v="lake" />
	</node>
	<node id="-211071" lat="59.5285138897" lon="9.66678054777">
		<tag k="name" v="Støledalsbekken" />
		<tag k="ssr:stedsnr" v="120351" />
		<tag k="waterway" v="stream" />
	</node>
	<node id="-211070" lat="59.5312000026" lon="9.69114445144">
		<tag k="name" v="Spondalsvannet" />
		<tag k="natural" v="water" />
		<tag k="ssr:stedsnr" v="120348" />
	</node>
	<node id="-211066" lat="59.7456583298" lon="9.41400277569">
		<tag k="name" v="Myrsrenna" />
		<tag k="ssr:stedsnr" v="116918" />
		<tag k="waterway" v="stream" />
	</node>
	<node id="-213113" lat="59.4143027791" lon="9.70111111553">
		<tag k="name" v="Møkleelva" />
		<tag k="ssr:stedsnr" v="303536" />
		<tag k="waterway" v="river" />
	</node>
	<node id="-211064" lat="59.7491333365" lon="9.41728334021">
		<tag k="name" v="Lifjelltjern" />
		<tag k="natural" v="water" />
		<tag k="ssr:stedsnr" v="116909" />
	</node>
	<node id="-211063" lat="59.6690722243" lon="9.57986944932">
		<tag k="name" v="Store Sachsendam" />
		<tag k="natural" v="water" />
		<tag k="ssr:stedsnr" v="111128" />
	</node>
	<node id="-211061" lat="59.6130277796" lon="9.8245000075">
		<tag k="alt_name" v="Søndre Ognevann" />
		<tag k="name" v="Vesle Ognevann" />
		<tag k="natural" v="water" />
		<tag k="ssr:stedsnr" v="87605" />
	</node>
	<node id="-211057" lat="59.7103972184" lon="9.6506527777">
		<tag k="name" v="Brennseterbekken" />
		<tag k="ssr:stedsnr" v="84961" />
		<tag k="waterway" v="stream" />
	</node>
	<node id="-211056" lat="59.7142138903" lon="9.60851111976">
		<tag k="name" v="Rosøya" />
		<tag k="place" v="island" />
		<tag k="ssr:stedsnr" v="84957" />
	</node>
	<node id="-213098" lat="59.5543694413" lon="9.73552778133">
		<tag k="name" v="Liseterbekken" />
		<tag k="ssr:stedsnr" v="302849" />
		<tag k="waterway" v="stream" />
	</node>
	<node id="-213097" lat="59.5420305525" lon="9.94879444716">
		<tag k="name" v="Bakkevika" />
		<tag k="natural" v="bay" />
		<tag k="ssr:stedsnr" v="302845" />
	</node>
	<node id="-211410" lat="59.4671242114" lon="9.6536012982">
		<tag k="alt_name" v="Jernlivannet" />
		<tag k="name" v="Jarnlifjelltjernet" />
		<tag k="natural" v="water" />
		<tag k="ssr:stedsnr" v="488579" />
	</node>
	<node id="-213090" lat="59.5484578035" lon="9.50398828623">
		<tag k="name" v="Steintjern" />
		<tag k="natural" v="water" />
		<tag k="ssr:stedsnr" v="302666" />
	</node>
	<node id="-213089" lat="59.5056888897" lon="9.55068889309">
		<tag k="name" v="Bløyebukta" />
		<tag k="natural" v="bay" />
		<tag k="ssr:stedsnr" v="302586" />
	</node>
	<node id="-213086" lat="59.5144861146" lon="9.57240833199">
		<tag k="name" v="Svarttjernbekken" />
		<tag k="ssr:stedsnr" v="302396" />
		<tag k="waterway" v="stream" />
	</node>
	<node id="-211037" lat="59.7766404367" lon="9.36908925723">
		<tag k="name" v="Andevann" />
		<tag k="natural" v="water" />
		<tag k="ssr:stedsnr" v="246867" />
	</node>
	<node id="-211036" lat="59.6098722222" lon="9.51594999719">
		<tag k="alt_name" v="Steinmanntjernet" />
		<tag k="name" v="Steinmannstjern" />
		<tag k="natural" v="water" />
		<tag k="ssr:stedsnr" v="246803" />
	</node>
	<node id="-213083" lat="59.4859861075" lon="9.48269444708">
		<tag k="name" v="Damtjern" />
		<tag k="natural" v="water" />
		<tag k="ssr:stedsnr" v="302635" />
	</node>
	<node id="-211033" lat="59.5551277772" lon="9.54556945253">
		<tag k="alt_name" v="Sandorvann" />
		<tag k="name" v="Sandorvannet" />
		<tag k="natural" v="water" />
		<tag k="ssr:stedsnr" v="246717" />
	</node>
	<node id="-213080" lat="59.4672750007" lon="9.62569444119">
		<tag k="name" v="Røstjern" />
		<tag k="natural" v="water" />
		<tag k="ssr:stedsnr" v="302541" />
	</node>
	<node id="-213078" lat="59.5383583307" lon="9.60138889532">
		<tag k="name" v="Guroroa" />
		<tag k="place" v="locality" />
		<tag k="ssr:stedsnr" v="302348" />
	</node>
	<node id="-213077" lat="59.5660250019" lon="9.64888610792">
		<tag k="name" v="Hvalpetjern" />
		<tag k="natural" v="water" />
		<tag k="ssr:stedsnr" v="302333" />
	</node>
	<node id="-211028" lat="59.6400750039" lon="9.7923861078">
		<tag k="name" v="Elgsjø" />
		<tag k="natural" v="water" />
		<tag k="ssr:stedsnr" v="246512" />
		<tag k="water" v="lake" />
	</node>
	<node id="-211027" lat="59.6407611082" lon="9.75990833707">
		<tag k="alt_name" v="Plometjern" />
		<tag k="name" v="Plommetjern" />
		<tag k="natural" v="water" />
		<tag k="ssr:stedsnr" v="246510" />
	</node>
	<node id="-213072" lat="59.5778833335" lon="9.55216945289">
		<tag k="name" v="Ringtjernløkane" />
		<tag k="natural" v="water" />
		<tag k="ssr:stedsnr" v="302328" />
	</node>
	<node id="-211022" lat="59.5868908727" lon="9.61178509922">
		<tag k="fixme" v="multiple name tags, choose one and add the other to alt_name" />
		<tag k="name" v="Volletjern;Vollevannet" />
		<tag k="natural" v="water" />
		<tag k="ssr:stedsnr" v="246437" />
	</node>
	<node id="-211021" lat="59.5959277745" lon="9.84283889341">
		<tag k="alt_name" v="Fjellvannet" />
		<tag k="name" v="Fjellvann" />
		<tag k="natural" v="water" />
		<tag k="ssr:stedsnr" v="246435" />
	</node>
	<node id="-211020" lat="59.5494111077" lon="9.69218332659">
		<tag k="alt_name" v="Killingtjern" />
		<tag k="name" v="Killingtjernet" />
		<tag k="natural" v="water" />
		<tag k="ssr:stedsnr" v="246388" />
	</node>
	<node id="-211018" lat="59.5103833352" lon="9.95341388596">
		<tag k="name" v="Reineelva" />
		<tag k="ssr:stedsnr" v="246340" />
		<tag k="waterway" v="stream" />
	</node>
	<node id="-213065" lat="59.6058472228" lon="9.86255833786">
		<tag k="name" v="Fiskelaus" />
		<tag k="natural" v="water" />
		<tag k="ssr:stedsnr" v="208594" />
	</node>
	<node id="-213063" lat="59.5829888887" lon="9.90084444247">
		<tag k="name" v="De små Mjøvann" />
		<tag k="natural" v="water" />
		<tag k="ssr:stedsnr" v="208511" />
		<tag k="water" v="lake" />
	</node>
	<node id="-211012" lat="59.6986805559" lon="9.34757500799">
		<tag k="name" v="Setertjerna" />
		<tag k="natural" v="water" />
		<tag k="ssr:stedsnr" v="245999" />
	</node>
	<node id="-211007" lat="59.4679833335" lon="9.63365833505">
		<tag k="name" v="Bjørntjern" />
		<tag k="natural" v="water" />
		<tag k="ssr:stedsnr" v="245599" />
	</node>
	<node id="-213052" lat="59.6773749989" lon="9.62761388962">
		<tag k="name" v="Postbrubekken" />
		<tag k="ssr:stedsnr" v="205942" />
		<tag k="waterway" v="stream" />
	</node>
	<node id="-210998" lat="59.4285750043" lon="9.72202500127">
		<tag k="name" v="Svarttjern" />
		<tag k="natural" v="water" />
		<tag k="ssr:stedsnr" v="245501" />
	</node>
	<node id="-210997" lat="59.4406666677" lon="9.71550833974">
		<tag k="name" v="Fosstjern" />
		<tag k="natural" v="water" />
		<tag k="ssr:stedsnr" v="245493" />
	</node>
	<node id="-210993" lat="59.4774055598" lon="9.58534723086">
		<tag k="alt_name" v="Svartufsvannet" />
		<tag k="name" v="Svartufstjern" />
		<tag k="natural" v="water" />
		<tag k="ssr:stedsnr" v="245039" />
	</node>
	<node id="-213036" lat="59.6308249997" lon="9.66116943637">
		<tag k="name" v="Laugerudevja" />
		<tag k="natural" v="water" />
		<tag k="ssr:stedsnr" v="205725" />
		<tag k="water" v="lake" />
	</node>
	<node id="-210987" lat="59.4432944412" lon="9.65013334071">
		<tag k="name" v="Hultjern" />
		<tag k="natural" v="water" />
		<tag k="ssr:stedsnr" v="242598" />
	</node>
	<node id="-210985" lat="59.4553916678" lon="9.69545278021">
		<tag k="name" v="Delsbukta" />
		<tag k="natural" v="bay" />
		<tag k="ssr:stedsnr" v="242589" />
	</node>
	<node id="-210983" lat="59.5278388889" lon="9.94324999667">
		<tag k="name" v="Bakke-Maurtjern" />
		<tag k="natural" v="water" />
		<tag k="ssr:stedsnr" v="242645" />
	</node>
	<node id="-210982" lat="59.5268166679" lon="9.94909166931">
		<tag k="name" v="Reine-Maurtjern" />
		<tag k="natural" v="water" />
		<tag k="ssr:stedsnr" v="242643" />
	</node>
	<node id="-210979" lat="59.5151166631" lon="9.72555555026">
		<tag k="name" v="Støledammen" />
		<tag k="ssr:stedsnr" v="242544" />
		<tag k="waterway" v="dam" />
	</node>
	<node id="-210975" lat="59.5063861149" lon="9.70280833523">
		<tag k="name" v="Binnetjern" />
		<tag k="natural" v="water" />
		<tag k="ssr:stedsnr" v="242571" />
	</node>
	<node id="-210971" lat="59.5552861152" lon="9.66120554965">
		<tag k="name" v="Skrekktjernoset" />
		<tag k="natural" v="bay" />
		<tag k="ssr:stedsnr" v="242284" />
	</node>
	<node id="-210963" lat="59.4828527743" lon="9.74746111341">
		<tag k="name" v="Omholtdiplene" />
		<tag k="natural" v="water" />
		<tag k="ssr:stedsnr" v="242181" />
		<tag k="water" v="lake" />
	</node>
	<node id="-210961" lat="59.7268805549" lon="9.38217222086">
		<tag k="name" v="Andehølen" />
		<tag k="place" v="locality" />
		<tag k="ssr:stedsnr" v="242172" />
	</node>
	<node id="-213112" lat="59.49113889" lon="9.76533888857">
		<tag k="name" v="Kariputten" />
		<tag k="natural" v="water" />
		<tag k="ssr:stedsnr" v="303399" />
	</node>
	<node id="-210957" lat="59.5960777784" lon="9.53242222104">
		<tag k="alt_name" v="Langtjern" />
		<tag k="name" v="Langetjern" />
		<tag k="natural" v="water" />
		<tag k="ssr:stedsnr" v="64849" />
	</node>
	<node id="-213001" lat="59.66354722" lon="9.58637221514">
		<tag k="alt_name" v="Else dam" />
		<tag k="name" v="Elsedammen" />
		<tag k="natural" v="water" />
		<tag k="ssr:stedsnr" v="185916" />
	</node>
	<node id="-210952" lat="59.6636249966" lon="9.4265861023">
		<tag k="name" v="Kragøya" />
		<tag k="place" v="island" />
		<tag k="ssr:stedsnr" v="242042" />
	</node>
	<node id="-212999" lat="59.6389496138" lon="9.50948982349">
		<tag k="alt_name" v="Torntjern" />
		<tag k="name" v="Tåråntjern" />
		<tag k="natural" v="water" />
		<tag k="ssr:stedsnr" v="185886" />
	</node>
	<node id="-210950" lat="59.5233288681" lon="9.53165778767">
		<tag k="name" v="Fagervannet" />
		<tag k="natural" v="water" />
		<tag k="ssr:stedsnr" v="64743" />
		<tag k="water" v="lake" />
	</node>
	<node id="-212997" lat="59.6274750034" lon="9.48707222636">
		<tag k="alt_name" v="Steingrimsvannet" />
		<tag k="name" v="Steingrunnsvannet" />
		<tag k="natural" v="water" />
		<tag k="ssr:stedsnr" v="185846" />
	</node>
	<node id="-212994" lat="59.5229500023" lon="9.50225833132">
		<tag k="alt_name" v="Arebuvatn" />
		<tag k="name" v="Arebuvatnet" />
		<tag k="natural" v="water" />
		<tag k="ssr:stedsnr" v="185702" />
	</node>
	<node id="-210945" lat="59.6035666709" lon="9.83785832708">
		<tag k="alt_name" v="Damtjernet" />
		<tag k="name" v="Damvann" />
		<tag k="natural" v="water" />
		<tag k="old_name" v="Damtvann" />
		<tag k="ssr:stedsnr" v="64441" />
	</node>
</osm>
