<?xml version="1.0" encoding="UTF-8"?>
<osm generator="osmapis" version="0.6">
	<node id="-415717" lat="59.3563999957" lon="6.03317500411">
		<tag k="name" v="Brurahella" />
		<tag k="natural" v="beach" />
		<tag k="place" v="locality" />
		<tag k="ssr:stedsnr" v="487540" />
	</node>
	<node id="-413656" lat="59.4896722187" lon="6.24782499876">
		<tag k="name" v="Svinavika" />
		<tag k="natural" v="bay" />
		<tag k="ssr:stedsnr" v="360342" />
	</node>
	<node id="-417737" lat="59.4166944429" lon="6.03137221724">
		<tag k="name" v="Vassbotn" />
		<tag k="natural" v="bay" />
		<tag k="ssr:stedsnr" v="904801" />
	</node>
	<node id="-417734" lat="59.5335833329" lon="6.33644165899">
		<tag k="alt_name" v="Bjødnavika" />
		<tag k="name" v="Bjørnavika" />
		<tag k="natural" v="bay" />
		<tag k="ssr:stedsnr" v="904767" />
	</node>
	<node id="-417733" lat="59.3853194406" lon="6.03429167119">
		<tag k="name" v="Tåbakskjeret" />
		<tag k="natural" v="cape" />
		<tag k="ssr:stedsnr" v="904754" />
	</node>
	<node id="-413633" lat="59.4297083338" lon="5.91362778581">
		<tag k="name" v="Nybøvika" />
		<tag k="natural" v="bay" />
		<tag k="ssr:stedsnr" v="358315" />
	</node>
	<node id="-417727" lat="59.4004638867" lon="6.05818611914">
		<tag k="name" v="Kalvikneset" />
		<tag k="natural" v="cape" />
		<tag k="ssr:stedsnr" v="904560" />
	</node>
	<node id="-417726" lat="59.333174996" lon="5.97456110683">
		<tag k="name" v="Varavikberget" />
		<tag k="natural" v="cape" />
		<tag k="ssr:stedsnr" v="904552" />
	</node>
	<node id="-417725" lat="59.5644833343" lon="6.28017499248">
		<tag k="name" v="Ytre Tømmerholmen" />
		<tag k="place" v="islet" />
		<tag k="ssr:stedsnr" v="904553" />
	</node>
	<node id="-417724" lat="59.3970194425" lon="6.09413054928">
		<tag k="name" v="Ottøyvika" />
		<tag k="natural" v="bay" />
		<tag k="ssr:stedsnr" v="904544" />
	</node>
	<node id="-417723" lat="59.4061749975" lon="6.06481111779">
		<tag k="name" v="Bukketoneset" />
		<tag k="natural" v="cape" />
		<tag k="ssr:stedsnr" v="904542" />
	</node>
	<node id="-417722" lat="59.4066194427" lon="6.13366666349">
		<tag k="name" v="Seljevika" />
		<tag k="natural" v="bay" />
		<tag k="ssr:stedsnr" v="904538" />
	</node>
	<node id="-417716" lat="59.4804111079" lon="6.21480833492">
		<tag k="name" v="Midtholmen" />
		<tag k="natural" v="cape" />
		<tag k="ssr:stedsnr" v="904455" />
	</node>
	<node id="-417713" lat="59.3294000035" lon="5.96133610807">
		<tag k="name" v="Fløholmen" />
		<tag k="place" v="islet" />
		<tag k="ssr:stedsnr" v="904378" />
	</node>
	<node id="-413616" lat="59.3936444434" lon="6.0459499955">
		<tag k="name" v="Skorpetåna" />
		<tag k="natural" v="cape" />
		<tag k="ssr:stedsnr" v="357744" />
	</node>
	<node id="-417708" lat="59.4474861111" lon="6.01776666425">
		<tag k="name" v="Hammaren" />
		<tag k="natural" v="cape" />
		<tag k="ssr:stedsnr" v="904277" />
	</node>
	<node id="-417707" lat="59.3247694402" lon="6.23081389139">
		<tag k="name" v="Hønevika" />
		<tag k="natural" v="bay" />
		<tag k="ssr:stedsnr" v="904272" />
	</node>
	<node id="-413610" lat="59.4056055578" lon="6.10610000421">
		<tag k="name" v="Litleholmen" />
		<tag k="place" v="islet" />
		<tag k="ssr:stedsnr" v="357537" />
	</node>
	<node id="-417703" lat="59.3570888865" lon="6.09666666841">
		<tag k="name" v="Seiasteinneset" />
		<tag k="natural" v="cape" />
		<tag k="ssr:stedsnr" v="904246" />
	</node>
	<node id="-417700" lat="59.3392916646" lon="5.98249444984">
		<tag k="name" v="Fuglaberget" />
		<tag k="natural" v="cape" />
		<tag k="ssr:stedsnr" v="904156" />
	</node>
	<node id="-413598" lat="59.3407611105" lon="5.9757333367">
		<tag k="name" v="Møllaren" />
		<tag k="natural" v="bay" />
		<tag k="ssr:stedsnr" v="357141" />
	</node>
	<node id="-413596" lat="59.3635999967" lon="5.94245277873">
		<tag k="name" v="Fantahamn" />
		<tag k="natural" v="bay" />
		<tag k="ssr:stedsnr" v="357129" />
	</node>
	<node id="-417691" lat="59.4335777758" lon="6.21432222198">
		<tag k="name" v="Habn" />
		<tag k="natural" v="bay" />
		<tag k="ssr:stedsnr" v="904036" />
	</node>
	<node id="-413594" lat="59.4437361108" lon="6.20984999722">
		<tag k="name" v="Fedlevika" />
		<tag k="natural" v="bay" />
		<tag k="ssr:stedsnr" v="357064" />
	</node>
	<node id="-417689" lat="59.4048555577" lon="5.91835833824">
		<tag k="name" v="Holmen" />
		<tag k="place" v="islet" />
		<tag k="ssr:stedsnr" v="903355" />
	</node>
	<node id="-417688" lat="59.4225416681" lon="5.91380555745">
		<tag k="name" v="Vormestrandneset" />
		<tag k="natural" v="cape" />
		<tag k="ssr:stedsnr" v="903336" />
	</node>
	<node id="-413580" lat="59.3488138919" lon="6.23423888475">
		<tag k="name" v="Giljeneset" />
		<tag k="natural" v="cape" />
		<tag k="ssr:stedsnr" v="344878" />
	</node>
	<node id="-413579" lat="59.523094448" lon="6.29284723028">
		<tag k="name" v="Hidleren" />
		<tag k="natural" v="cape" />
		<tag k="ssr:stedsnr" v="344621" />
	</node>
	<node id="-413578" lat="59.4557583301" lon="6.05050277118">
		<tag k="name" v="Kvernavika" />
		<tag k="natural" v="bay" />
		<tag k="ssr:stedsnr" v="344596" />
	</node>
	<node id="-413577" lat="59.4870111108" lon="6.24724722761">
		<tag k="name" v="Eidsneset" />
		<tag k="natural" v="cape" />
		<tag k="ssr:stedsnr" v="344583" />
	</node>
	<node id="-413576" lat="59.3540749971" lon="5.95941111383">
		<tag k="name" v="Fattigmannshamnen" />
		<tag k="natural" v="bay" />
		<tag k="ssr:stedsnr" v="344479" />
	</node>
	<node id="-415620" lat="59.4949416694" lon="6.24969166816">
		<tag k="name" v="Kjellevika" />
		<tag k="natural" v="bay" />
		<tag k="ssr:stedsnr" v="481373" />
	</node>
	<node id="-417967" lat="59.410113885" lon="5.92001389394">
		<tag k="name" v="Nordra Østabøvika" />
		<tag k="natural" v="bay" />
		<tag k="ssr:stedsnr" v="949891" />
	</node>
	<node id="-415614" lat="59.5182527812" lon="6.27560555507">
		<tag k="name" v="Flåtavika" />
		<tag k="natural" v="bay" />
		<tag k="ssr:stedsnr" v="481155" />
	</node>
	<node id="-414357" lat="59.4857583299" lon="6.27128054916">
		<tag k="alt_name" v="Garaneset" />
		<tag k="name" v="Gardaneset" />
		<tag k="natural" v="cape" />
		<tag k="ssr:stedsnr" v="63658" />
	</node>
	<node id="-415602" lat="59.5342611105" lon="6.4036083403">
		<tag k="name" v="Tveitaneset" />
		<tag k="natural" v="cape" />
		<tag k="ssr:stedsnr" v="466623" />
	</node>
	<node id="-415600" lat="59.4106027805" lon="6.20801388542">
		<tag k="name" v="Eidaholmen" />
		<tag k="place" v="islet" />
		<tag k="ssr:stedsnr" v="466580" />
	</node>
	<node id="-415599" lat="59.4403055585" lon="6.2007305617">
		<tag k="fixme" v="consider seamark:type=rock or natural=shoal" />
		<tag k="name" v="Døvikskjeret" />
		<tag k="place" v="islet" />
		<tag k="ssr:stedsnr" v="466577" />
	</node>
	<node id="-415598" lat="59.3574444413" lon="5.94823332707">
		<tag k="name" v="Torskabua" />
		<tag k="natural" v="bay" />
		<tag k="ssr:stedsnr" v="466472" />
	</node>
	<node id="-415597" lat="59.3387240351" lon="5.96478554083">
		<tag k="fixme" v="multiple name tags, choose one and add the other to alt_name" />
		<tag k="name" v="Nordra Breidvika;Nordre Breivik" />
		<tag k="natural" v="bay" />
		<tag k="ssr:stedsnr" v="466171" />
	</node>
	<node id="-415596" lat="59.3712277757" lon="6.02032777278">
		<tag k="name" v="Reiphammargrunnen" />
		<tag k="natural" v="shoal" />
		<tag k="place" v="locality" />
		<tag k="ssr:stedsnr" v="464247" />
	</node>
	<node id="-415595" lat="59.3354944424" lon="6.0395194407">
		<tag k="name" v="Vågasøyla" />
		<tag k="natural" v="bay" />
		<tag k="ssr:stedsnr" v="464152" />
	</node>
	<node id="-415594" lat="59.3269999983" lon="6.04804722531">
		<tag k="name" v="Giljeneset" />
		<tag k="natural" v="cape" />
		<tag k="ssr:stedsnr" v="464149" />
	</node>
	<node id="-415593" lat="59.3731722194" lon="6.21860833683">
		<tag k="name" v="Higlersneset" />
		<tag k="natural" v="cape" />
		<tag k="ssr:stedsnr" v="463811" />
	</node>
	<node id="-415592" lat="59.5453555577" lon="6.28449443615">
		<tag k="name" v="Sandvikneset" />
		<tag k="natural" v="cape" />
		<tag k="ssr:stedsnr" v="463583" />
	</node>
	<node id="-415591" lat="59.5588333362" lon="6.270749994">
		<tag k="name" v="Prostastigbukta" />
		<tag k="natural" v="bay" />
		<tag k="ssr:stedsnr" v="463578" />
	</node>
	<node id="-415590" lat="59.3919944414" lon="6.0624083274">
		<tag k="name" v="Fjordgrunnen" />
		<tag k="natural" v="shoal" />
		<tag k="place" v="locality" />
		<tag k="ssr:stedsnr" v="463059" />
	</node>
	<node id="-413527" lat="59.3383249969" lon="6.09107499361">
		<tag k="name" v="Hestholmsundet" />
		<tag k="natural" v="strait" />
		<tag k="ssr:stedsnr" v="306511" />
	</node>
	<node id="-415574" lat="59.5581750043" lon="6.54645555002">
		<tag k="alt_name" v="Sanes" />
		<tag k="name" v="Sagneset" />
		<tag k="natural" v="cape" />
		<tag k="ssr:stedsnr" v="429082" />
	</node>
	<node id="-413525" lat="59.3290000023" lon="6.07857500202">
		<tag k="name" v="Barkelandsvågen" />
		<tag k="natural" v="bay" />
		<tag k="ssr:stedsnr" v="306489" />
	</node>
	<node id="-413524" lat="59.3333000042" lon="6.03658056057">
		<tag k="name" v="Jelsavågen" />
		<tag k="natural" v="bay" />
		<tag k="ssr:stedsnr" v="306488" />
	</node>
	<node id="-415571" lat="59.5593305578" lon="6.29462777009">
		<tag k="alt_name" v="Kjelkanes" />
		<tag k="name" v="Kjelkaneset" />
		<tag k="natural" v="cape" />
		<tag k="ssr:stedsnr" v="428860" />
	</node>
	<node id="-413518" lat="59.3615250041" lon="5.94207499626">
		<tag k="alt_name" v="Sjenebergneset" />
		<tag k="name" v="Kvernaneset" />
		<tag k="natural" v="cape" />
		<tag k="ssr:stedsnr" v="306436" />
	</node>
	<node id="-417556" lat="59.5221611071" lon="6.35396388503">
		<tag k="fixme" v="consider seamark:type=rock or natural=shoal" />
		<tag k="name" v="Guroskjeret" />
		<tag k="place" v="islet" />
		<tag k="ssr:stedsnr" v="852173" />
	</node>
	<node id="-413510" lat="59.4035250016" lon="6.05365000071">
		<tag k="alt_name" v="Kalvika" />
		<tag k="name" v="Kallvika" />
		<tag k="natural" v="bay" />
		<tag k="ssr:stedsnr" v="306368" />
	</node>
	<node id="-413508" lat="59.4090750034" lon="6.08882499862">
		<tag k="alt_name" v="Hedlevikneset" />
		<tag k="name" v="Hellevikneset" />
		<tag k="natural" v="cape" />
		<tag k="ssr:stedsnr" v="306364" />
	</node>
	<node id="-413507" lat="59.4403777802" lon="5.92366388445">
		<tag k="alt_name" v="Habn;Hellandshamnen" />
		<tag k="name" v="Hamnen" />
		<tag k="natural" v="bay" />
		<tag k="ssr:stedsnr" v="306326" />
	</node>
	<node id="-415552" lat="59.518294446" lon="6.27121944873">
		<tag k="alt_name" v="Tongjen" />
		<tag k="name" v="Tangen" />
		<tag k="natural" v="cape" />
		<tag k="ssr:stedsnr" v="428150" />
	</node>
	<node id="-417590" lat="59.3411000045" lon="6.20907500172">
		<tag k="name" v="Skjerahaugholmen" />
		<tag k="place" v="islet" />
		<tag k="ssr:stedsnr" v="852535" />
	</node>
	<node id="-417585" lat="59.3140749982" lon="6.1535750076">
		<tag k="alt_name" v="Ytra Ormansvika" />
		<tag k="name" v="Årmannsvika" />
		<tag k="natural" v="bay" />
		<tag k="ssr:stedsnr" v="852508" />
	</node>
	<node id="-417584" lat="59.3222250024" lon="6.20959999276">
		<tag k="alt_name" v="Stora Stølsvika" />
		<tag k="name" v="Stølsvika" />
		<tag k="natural" v="bay" />
		<tag k="ssr:stedsnr" v="852504" />
	</node>
	<node id="-413320" lat="59.3323555594" lon="5.95433610949">
		<tag k="name" v="Flakke" />
		<tag k="place" v="locality" />
		<tag k="ssr:stedsnr" v="297385" />
	</node>
	<node id="-417580" lat="59.3616250042" lon="6.10125000267">
		<tag k="name" v="Lindevika" />
		<tag k="natural" v="bay" />
		<tag k="ssr:stedsnr" v="852460" />
	</node>
	<node id="-417579" lat="59.3747194487" lon="6.22198610329">
		<tag k="bay" v="fjord" />
		<tag k="name" v="Tyssefjorden" />
		<tag k="natural" v="bay" />
		<tag k="ssr:stedsnr" v="852440" />
	</node>
	<node id="-413482" lat="59.3315499989" lon="6.23451666559">
		<tag k="name" v="Giljevika" />
		<tag k="natural" v="bay" />
		<tag k="ssr:stedsnr" v="305878" />
	</node>
	<node id="-417576" lat="59.4059944444" lon="6.11999166265">
		<tag k="alt_name" v="Straumskårane" />
		<tag k="name" v="Straumskorane" />
		<tag k="natural" v="cape" />
		<tag k="ssr:stedsnr" v="852412" />
	</node>
	<node id="-417573" lat="59.4087000004" lon="6.12167499599">
		<tag k="alt_name" v="Åsarødholmen" />
		<tag k="name" v="Åsarøyholmen" />
		<tag k="place" v="islet" />
		<tag k="ssr:stedsnr" v="852401" />
	</node>
	<node id="-415522" lat="59.4377083332" lon="6.22680555547">
		<tag k="alt_name" v="Ørevika" />
		<tag k="name" v="Orevika" />
		<tag k="natural" v="bay" />
		<tag k="ssr:stedsnr" v="427690" />
	</node>
	<node id="-413317" lat="59.45136111" lon="6.03607777616">
		<tag k="name" v="Savika" />
		<tag k="natural" v="bay" />
		<tag k="ssr:stedsnr" v="297356" />
	</node>
	<node id="-417560" lat="59.5321972222" lon="6.32434444577">
		<tag k="name" v="Drarvika" />
		<tag k="natural" v="bay" />
		<tag k="ssr:stedsnr" v="852194" />
	</node>
	<node id="-416388" lat="59.3981000014" lon="6.12425555944">
		<tag k="alt_name" v="Jupevik" />
		<tag k="name" v="Djupevik" />
		<tag k="natural" v="bay" />
		<tag k="ssr:stedsnr" v="609598" />
	</node>
	<node id="-413461" lat="59.3304499957" lon="5.95840000455">
		<tag k="name" v="Tjuvholmen" />
		<tag k="place" v="islet" />
		<tag k="ssr:stedsnr" v="305590" />
	</node>
	<node id="-413460" lat="59.3559750013" lon="5.96262500396">
		<tag k="alt_name" v="Madlastovevika" />
		<tag k="name" v="Mallastovvika" />
		<tag k="natural" v="bay" />
		<tag k="ssr:stedsnr" v="305540" />
	</node>
	<node id="-415504" lat="59.4485000025" lon="6.17779999397">
		<tag k="name" v="Seljevika" />
		<tag k="natural" v="bay" />
		<tag k="ssr:stedsnr" v="427367" />
	</node>
	<node id="-415503" lat="59.444277776" lon="6.21336943889">
		<tag k="alt_name" v="Lovernestangen" />
		<tag k="name" v="Lovranestangen" />
		<tag k="natural" v="cape" />
		<tag k="ssr:stedsnr" v="427366" />
	</node>
	<node id="-415500" lat="59.448180554" lon="5.99439165827">
		<tag k="name" v="Nautadalsneset" />
		<tag k="natural" v="cape" />
		<tag k="ssr:stedsnr" v="427352" />
	</node>
	<node id="-413451" lat="59.4462750036" lon="6.01314999577">
		<tag k="name" v="Haukadal" />
		<tag k="natural" v="bay" />
		<tag k="ssr:stedsnr" v="305351" />
	</node>
	<node id="-413430" lat="59.5585527766" lon="6.46533889224">
		<tag k="name" v="Øyrå" />
		<tag k="natural" v="cape" />
		<tag k="ssr:stedsnr" v="303454" />
	</node>
	<node id="-415450" lat="59.5579694419" lon="6.49713888734">
		<tag k="fixme" v="consider seamark:type=rock or natural=shoal" />
		<tag k="name" v="Kobbaskjer" />
		<tag k="place" v="islet" />
		<tag k="ssr:stedsnr" v="424437" />
	</node>
	<node id="-417492" lat="59.5355722227" lon="6.41030000374">
		<tag k="name" v="Slåttevik" />
		<tag k="natural" v="bay" />
		<tag k="ssr:stedsnr" v="849143" />
	</node>
	<node id="-413373" lat="59.4973583314" lon="6.25350556362">
		<tag k="name" v="Kjeadalsneset" />
		<tag k="natural" v="cape" />
		<tag k="ssr:stedsnr" v="57344" />
	</node>
	<node id="-413368" lat="59.6104972233" lon="6.79226388645">
		<tag k="name" v="Forenes" />
		<tag k="natural" v="cape" />
		<tag k="ssr:stedsnr" v="299478" />
	</node>
	<node id="-417462" lat="59.5574500004" lon="6.51224167419">
		<tag k="name" v="Varmekro" />
		<tag k="natural" v="bay" />
		<tag k="ssr:stedsnr" v="848503" />
	</node>
	<node id="-417461" lat="59.5510000023" lon="6.50340832889">
		<tag k="name" v="Teiganeset" />
		<tag k="natural" v="cape" />
		<tag k="ssr:stedsnr" v="848018" />
	</node>
	<node id="-413361" lat="59.5141972226" lon="6.23525276908">
		<tag k="name" v="Tråsavika" />
		<tag k="natural" v="bay" />
		<tag k="ssr:stedsnr" v="299152" />
	</node>
	<node id="-413359" lat="59.5487472254" lon="6.28770834005">
		<tag k="name" v="Indra Sandvika" />
		<tag k="natural" v="bay" />
		<tag k="ssr:stedsnr" v="299146" />
	</node>
	<node id="-413348" lat="59.5103750016" lon="6.29563333751">
		<tag k="name" v="Hagastøvika" />
		<tag k="natural" v="bay" />
		<tag k="ssr:stedsnr" v="297782" />
	</node>
	<node id="-417440" lat="59.3450583311" lon="6.20147221889">
		<tag k="alt_name" v="Habn" />
		<tag k="name" v="Hamnen" />
		<tag k="natural" v="bay" />
		<tag k="ssr:stedsnr" v="844993" />
	</node>
	<node id="-417435" lat="59.5355083334" lon="6.34708055209">
		<tag k="name" v="Holsvika" />
		<tag k="natural" v="bay" />
		<tag k="ssr:stedsnr" v="844786" />
	</node>
	<node id="-415386" lat="59.5417027738" lon="6.35977499319">
		<tag k="alt_name" v="Garvika" />
		<tag k="name" v="Gardvika" />
		<tag k="natural" v="bay" />
		<tag k="ssr:stedsnr" v="419774" />
	</node>
	<node id="-413336" lat="59.4083250032" lon="6.09576944409">
		<tag k="fixme" v="consider seamark:type=rock or natural=shoal" />
		<tag k="name" v="Hedlevikskjera" />
		<tag k="place" v="islet" />
		<tag k="ssr:stedsnr" v="297548" />
	</node>
	<node id="-415382" lat="59.4059277733" lon="6.07017221716">
		<tag k="name" v="Lindetoneset" />
		<tag k="natural" v="cape" />
		<tag k="ssr:stedsnr" v="419575" />
	</node>
	<node id="-417427" lat="59.3311333305" lon="6.08396944059">
		<tag k="name" v="Hidlervika" />
		<tag k="natural" v="bay" />
		<tag k="ssr:stedsnr" v="844401" />
	</node>
	<node id="-417425" lat="59.3283583355" lon="6.06918889024">
		<tag k="name" v="Brennevinsneset" />
		<tag k="natural" v="cape" />
		<tag k="ssr:stedsnr" v="844395" />
	</node>
	<node id="-413326" lat="59.4852444434" lon="6.24663054906">
		<tag k="name" v="Einersneset" />
		<tag k="natural" v="cape" />
		<tag k="ssr:stedsnr" v="297465" />
	</node>
	<node id="-417420" lat="59.4312499977" lon="5.9146527782">
		<tag k="alt_name" v="Knavika" />
		<tag k="name" v="Knasvika" />
		<tag k="natural" v="bay" />
		<tag k="ssr:stedsnr" v="844306" />
	</node>
	<node id="-417416" lat="59.3213916649" lon="6.20521111323">
		<tag k="name" v="Litla Stølsvika" />
		<tag k="natural" v="bay" />
		<tag k="ssr:stedsnr" v="844256" />
	</node>
	<node id="-413319" lat="59.3362944487" lon="5.95293055134">
		<tag k="name" v="Flintavika" />
		<tag k="natural" v="bay" />
		<tag k="ssr:stedsnr" v="297379" />
	</node>
	<node id="-413318" lat="59.4519861153" lon="6.04137222574">
		<tag k="name" v="Bærvika" />
		<tag k="natural" v="bay" />
		<tag k="ssr:stedsnr" v="297357" />
	</node>
	<node id="-417413" lat="59.3364472241" lon="6.24336944301">
		<tag k="name" v="Osnes" />
		<tag k="natural" v="cape" />
		<tag k="ssr:stedsnr" v="844236" />
	</node>
	<node id="-413314" lat="59.3272222228" lon="6.19894722459">
		<tag k="name" v="Hattavågsholmen" />
		<tag k="place" v="islet" />
		<tag k="ssr:stedsnr" v="297273" />
	</node>
	<node id="-417402" lat="59.3537777734" lon="6.22976944209">
		<tag k="name" v="Hålandsundet" />
		<tag k="natural" v="strait" />
		<tag k="ssr:stedsnr" v="843937" />
	</node>
	<node id="-417398" lat="59.3969750045" lon="6.04333611177">
		<tag k="name" v="Svartaholet" />
		<tag k="natural" v="bay" />
		<tag k="ssr:stedsnr" v="843776" />
	</node>
	<node id="-413289" lat="59.5170222203" lon="6.2713027803">
		<tag k="name" v="Ausa" />
		<tag k="natural" v="shoal" />
		<tag k="place" v="locality" />
		<tag k="ssr:stedsnr" v="284596" />
	</node>
	<node id="-417396" lat="59.4074527815" lon="6.07405833452">
		<tag k="name" v="Isvik" />
		<tag k="natural" v="bay" />
		<tag k="ssr:stedsnr" v="843583" />
	</node>
	<node id="-417394" lat="59.553980552" lon="6.4267444449">
		<tag k="name" v="Nesakloppa" />
		<tag k="natural" v="beach" />
		<tag k="place" v="locality" />
		<tag k="ssr:stedsnr" v="843542" />
	</node>
	<node id="-415345" lat="59.3322305552" lon="6.03113333063">
		<tag k="name" v="Markusvika" />
		<tag k="natural" v="bay" />
		<tag k="ssr:stedsnr" v="418358" />
	</node>
	<node id="-413295" lat="59.3796194402" lon="5.93731110607">
		<tag k="name" v="Skjeret" />
		<tag k="natural" v="cape" />
		<tag k="ssr:stedsnr" v="295095" />
	</node>
	<node id="-413291" lat="59.3291805563" lon="6.23801388737">
		<tag k="name" v="Ternnes" />
		<tag k="natural" v="cape" />
		<tag k="ssr:stedsnr" v="284893" />
	</node>
	<node id="-413290" lat="59.325708334" lon="6.25691666178">
		<tag k="fixme" v="consider seamark:type=rock or natural=shoal" />
		<tag k="name" v="Åssjøskjeret" />
		<tag k="place" v="islet" />
		<tag k="ssr:stedsnr" v="284892" />
	</node>
	<node id="-415335" lat="59.3550555517" lon="5.9706222144">
		<tag k="name" v="Børevika" />
		<tag k="natural" v="bay" />
		<tag k="ssr:stedsnr" v="418139" />
	</node>
	<node id="-415336" lat="59.3380583307" lon="5.98358889395">
		<tag k="name" v="Klungen" />
		<tag k="natural" v="beach" />
		<tag k="place" v="locality" />
		<tag k="ssr:stedsnr" v="418141" />
	</node>
	<node id="-417383" lat="59.3455277777" lon="6.08315556319">
		<tag k="name" v="Grønnevik" />
		<tag k="natural" v="bay" />
		<tag k="ssr:stedsnr" v="843232" />
	</node>
	<node id="-413285" lat="59.4279250022" lon="5.90860556408">
		<tag k="name" v="Hellandsgrunnen" />
		<tag k="natural" v="shoal" />
		<tag k="place" v="locality" />
		<tag k="ssr:stedsnr" v="282921" />
	</node>
	<node id="-413284" lat="59.3613055574" lon="6.10647777968">
		<tag k="name" v="Raudaneset" />
		<tag k="natural" v="cape" />
		<tag k="ssr:stedsnr" v="282758" />
	</node>
	<node id="-415331" lat="59.3383527805" lon="5.96066111549">
		<tag k="name" v="Herborgvika" />
		<tag k="natural" v="bay" />
		<tag k="ssr:stedsnr" v="418119" />
	</node>
	<node id="-415329" lat="59.4276861072" lon="6.18763055034">
		<tag k="alt_name" v="Indra Vikjå" />
		<tag k="name" v="Indra Vika" />
		<tag k="natural" v="bay" />
		<tag k="ssr:stedsnr" v="418049" />
	</node>
	<node id="-417362" lat="59.4442472257" lon="5.97468056266">
		<tag k="name" v="Raudanesvika" />
		<tag k="natural" v="bay" />
		<tag k="ssr:stedsnr" v="830558" />
	</node>
	<node id="-417379" lat="59.4398805596" lon="6.20189443808">
		<tag k="name" v="Døvikneset" />
		<tag k="natural" v="cape" />
		<tag k="ssr:stedsnr" v="843058" />
	</node>
	<node id="-417359" lat="59.3788527742" lon="6.21618889129">
		<tag k="name" v="Herjesneset" />
		<tag k="natural" v="cape" />
		<tag k="ssr:stedsnr" v="828774" />
	</node>
	<node id="-415304" lat="59.3961333317" lon="6.04354999687">
		<tag k="name" v="Blånos" />
		<tag k="natural" v="cape" />
		<tag k="ssr:stedsnr" v="479760" />
	</node>
	<node id="-417333" lat="59.3896250004" lon="6.06082499878">
		<tag k="alt_name" v="Foreholmen" />
		<tag k="name" v="Fureholmen" />
		<tag k="place" v="islet" />
		<tag k="ssr:stedsnr" v="792628" />
	</node>
	<node id="-415280" lat="59.4864759604" lon="6.20967539622">
		<tag k="name" v="Holmaneset" />
		<tag k="natural" v="cape" />
		<tag k="ssr:stedsnr" v="479459" />
	</node>
	<node id="-415279" lat="59.3149222202" lon="6.15541943604">
		<tag k="name" v="Indra Ormansvika" />
		<tag k="natural" v="bay" />
		<tag k="ssr:stedsnr" v="479453" />
	</node>
	<node id="-417315" lat="59.5463194446" lon="6.28507221806">
		<tag k="name" v="Sandvika" />
		<tag k="natural" v="bay" />
		<tag k="ssr:stedsnr" v="792165" />
	</node>
	<node id="-413287" lat="59.5556555596" lon="6.58377221656">
		<tag k="name" v="Djupevika" />
		<tag k="natural" v="bay" />
		<tag k="ssr:stedsnr" v="284605" />
	</node>
	<node id="-415239" lat="59.3195694472" lon="6.28150556235">
		<tag k="alt_name" v="Kjilavågen" />
		<tag k="name" v="Kilavågen" />
		<tag k="natural" v="bay" />
		<tag k="ssr:stedsnr" v="245967" />
	</node>
	<node id="-417268" lat="59.3397638909" lon="6.2013611129">
		<tag k="bay" v="fjord" />
		<tag k="name" v="Bogsfjorden" />
		<tag k="natural" v="bay" />
		<tag k="ssr:stedsnr" v="791528" />
	</node>
	<node id="-417266" lat="59.333697226" lon="5.95217777754">
		<tag k="alt_name" v="Hidlerneset" />
		<tag k="name" v="Hellerneset" />
		<tag k="natural" v="cape" />
		<tag k="ssr:stedsnr" v="791516" />
	</node>
	<node id="-417263" lat="59.3316583343" lon="6.09946944262">
		<tag k="alt_name" v="Fureneset" />
		<tag k="name" v="Foreneset" />
		<tag k="natural" v="cape" />
		<tag k="ssr:stedsnr" v="791510" />
	</node>
	<node id="-417262" lat="59.328908329" lon="6.03905555616">
		<tag k="name" v="Klubbaneset" />
		<tag k="natural" v="cape" />
		<tag k="ssr:stedsnr" v="791506" />
	</node>
	<node id="-417261" lat="59.3284999964" lon="5.9560000039">
		<tag k="name" v="Klumpholmen" />
		<tag k="place" v="islet" />
		<tag k="ssr:stedsnr" v="791504" />
	</node>
	<node id="-417260" lat="59.3543861156" lon="6.09909722592">
		<tag k="name" v="Husgavlen" />
		<tag k="natural" v="cape" />
		<tag k="ssr:stedsnr" v="791463" />
	</node>
	<node id="-415211" lat="59.3507000038" lon="6.09504999178">
		<tag k="bay" v="fjord" />
		<tag k="name" v="Økstrafjorden" />
		<tag k="natural" v="bay" />
		<tag k="old_name" v="Økstrefjorden" />
		<tag k="ssr:stedsnr" v="245483" />
	</node>
	<node id="-415210" lat="59.3545999998" lon="6.03134999213">
		<tag k="name" v="Stigalibukta" />
		<tag k="natural" v="bay" />
		<tag k="ssr:stedsnr" v="245478" />
	</node>
	<node id="-417254" lat="59.3778750039" lon="6.04820000795">
		<tag k="name" v="Kjelsvika" />
		<tag k="natural" v="bay" />
		<tag k="ssr:stedsnr" v="791427" />
	</node>
	<node id="-415205" lat="59.3778555556" lon="5.99903611791">
		<tag k="name" v="Hildravika" />
		<tag k="natural" v="bay" />
		<tag k="ssr:stedsnr" v="245435" />
	</node>
	<node id="-417249" lat="59.3922638844" lon="6.02110555143">
		<tag k="name" v="Kjølaklubben" />
		<tag k="natural" v="cape" />
		<tag k="ssr:stedsnr" v="791383" />
	</node>
	<node id="-417245" lat="59.4384749981" lon="6.20277499361">
		<tag k="name" v="Døvika" />
		<tag k="natural" v="bay" />
		<tag k="ssr:stedsnr" v="791334" />
	</node>
	<node id="-415195" lat="59.3945750014" lon="6.09454999873">
		<tag k="name" v="Ottøysundet" />
		<tag k="natural" v="strait" />
		<tag k="ssr:stedsnr" v="245370" />
	</node>
	<node id="-417242" lat="59.4740916367" lon="6.21747528932">
		<tag k="alt_name" v="Kråke" />
		<tag k="name" v="Kråkeneset" />
		<tag k="natural" v="cape" />
		<tag k="ssr:stedsnr" v="791306" />
	</node>
	<node id="-413604" lat="59.3053888888" lon="6.26956944081">
		<tag k="bay" v="fjord" />
		<tag k="name" v="Eiavågflæet" />
		<tag k="natural" v="bay" />
		<tag k="ssr:stedsnr" v="357281" />
	</node>
	<node id="-415178" lat="59.3355222261" lon="6.10262221911">
		<tag k="name" v="Sørvik" />
		<tag k="natural" v="bay" />
		<tag k="ssr:stedsnr" v="479413" />
	</node>
	<node id="-417015" lat="59.3904694412" lon="6.0355333414">
		<tag k="name" v="Kjølvikskorpa" />
		<tag k="place" v="island" />
		<tag k="ssr:stedsnr" v="731378" />
	</node>
	<node id="-417013" lat="59.3956222257" lon="6.10438055192">
		<tag k="alt_name" v="Øspedalsvika" />
		<tag k="name" v="Ospedalsvika" />
		<tag k="natural" v="bay" />
		<tag k="ssr:stedsnr" v="731357" />
	</node>
	<node id="-415118" lat="59.55901667" lon="6.54287222629">
		<tag k="name" v="Lingvangsjøen" />
		<tag k="natural" v="cape" />
		<tag k="ssr:stedsnr" v="241456" />
	</node>
	<node id="-415112" lat="59.5197777764" lon="6.24980833804">
		<tag k="name" v="Smeavika" />
		<tag k="natural" v="bay" />
		<tag k="ssr:stedsnr" v="239170" />
	</node>
	<node id="-417155" lat="59.5576694487" lon="6.59173611449">
		<tag k="name" v="Kjeanes" />
		<tag k="natural" v="cape" />
		<tag k="ssr:stedsnr" v="787508" />
	</node>
	<node id="-415105" lat="59.5095638857" lon="6.289866668">
		<tag k="name" v="Bastaskjervika" />
		<tag k="natural" v="bay" />
		<tag k="ssr:stedsnr" v="237783" />
	</node>
	<node id="-417146" lat="59.5055916636" lon="6.27083055684">
		<tag k="name" v="Straumsteinen" />
		<tag k="natural" v="cape" />
		<tag k="ssr:stedsnr" v="785347" />
	</node>
	<node id="-417142" lat="59.5300361143" lon="6.25693056002">
		<tag k="name" v="Ørevika" />
		<tag k="natural" v="bay" />
		<tag k="ssr:stedsnr" v="785153" />
	</node>
	<node id="-415092" lat="59.4001583312" lon="6.00288055365">
		<tag k="name" v="Selvik" />
		<tag k="natural" v="bay" />
		<tag k="ssr:stedsnr" v="236735" />
	</node>
	<node id="-415078" lat="59.4509333308" lon="6.02988611863">
		<tag k="name" v="Naustvika" />
		<tag k="natural" v="bay" />
		<tag k="ssr:stedsnr" v="236277" />
	</node>
	<node id="-417124" lat="59.322938887" lon="6.18193056447">
		<tag k="name" v="Øspevika" />
		<tag k="natural" v="bay" />
		<tag k="ssr:stedsnr" v="783241" />
	</node>
	<node id="-417122" lat="59.4614722181" lon="6.08880833488">
		<tag k="name" v="Skyllsaga" />
		<tag k="natural" v="bay" />
		<tag k="ssr:stedsnr" v="783205" />
	</node>
	<node id="-415072" lat="59.3407000003" lon="5.97112777698">
		<tag k="name" v="Sandvikneset" />
		<tag k="natural" v="cape" />
		<tag k="ssr:stedsnr" v="236151" />
	</node>
	<node id="-417117" lat="59.3408833322" lon="6.21924721897">
		<tag k="name" v="Erøyvika" />
		<tag k="natural" v="bay" />
		<tag k="ssr:stedsnr" v="782979" />
	</node>
	<node id="-415065" lat="59.4257416651" lon="6.21798055201">
		<tag k="name" v="Tosleineset" />
		<tag k="natural" v="cape" />
		<tag k="ssr:stedsnr" v="236036" />
	</node>
	<node id="-417106" lat="59.4066138847" lon="6.02268333238">
		<tag k="name" v="Brustolen" />
		<tag k="natural" v="cape" />
		<tag k="ssr:stedsnr" v="782748" />
	</node>
	<node id="-415055" lat="59.5518972197" lon="6.53314444671">
		<tag k="name" v="Litla Kvitaneset" />
		<tag k="natural" v="cape" />
		<tag k="ssr:stedsnr" v="223634" />
	</node>
	<node id="-415053" lat="59.4937333351" lon="6.24901388571">
		<tag k="name" v="Eidsneset" />
		<tag k="natural" v="cape" />
		<tag k="ssr:stedsnr" v="223623" />
	</node>
	<node id="-415052" lat="59.4710694486" lon="6.15451665789">
		<tag k="name" v="Andvika" />
		<tag k="natural" v="bay" />
		<tag k="ssr:stedsnr" v="223615" />
	</node>
	<node id="-415051" lat="59.420336115" lon="6.17720278084">
		<tag k="name" v="Leirvika" />
		<tag k="natural" v="bay" />
		<tag k="ssr:stedsnr" v="223602" />
	</node>
	<node id="-415050" lat="59.4446916664" lon="5.9164083259">
		<tag k="name" v="Litle Djupevika" />
		<tag k="natural" v="bay" />
		<tag k="ssr:stedsnr" v="223591" />
	</node>
	<node id="-415049" lat="59.4029666681" lon="5.91600833313">
		<tag k="name" v="Gryta" />
		<tag k="natural" v="bay" />
		<tag k="ssr:stedsnr" v="221879" />
	</node>
	<node id="-415048" lat="59.3790638879" lon="5.93699167519">
		<tag k="name" v="Naustvika" />
		<tag k="natural" v="bay" />
		<tag k="ssr:stedsnr" v="221844" />
	</node>
	<node id="-415046" lat="59.3690100927" lon="6.11237388705">
		<tag k="name" v="Romsbotnkrossvika" />
		<tag k="natural" v="bay" />
		<tag k="ssr:stedsnr" v="221744" />
	</node>
	<node id="-415045" lat="59.3675265815" lon="6.11578773172">
		<tag k="name" v="Økstrakrossvika" />
		<tag k="natural" v="bay" />
		<tag k="ssr:stedsnr" v="221742" />
	</node>
	<node id="-415044" lat="59.3769972209" lon="6.04646667331">
		<tag k="name" v="Kjelsvikneset" />
		<tag k="natural" v="cape" />
		<tag k="ssr:stedsnr" v="221040" />
	</node>
	<node id="-417089" lat="59.3563444487" lon="6.10193888697">
		<tag k="name" v="Tjødnaneset" />
		<tag k="natural" v="cape" />
		<tag k="ssr:stedsnr" v="782220" />
	</node>
	<node id="-417087" lat="59.3376916684" lon="6.09028334104">
		<tag k="name" v="Hestholmen" />
		<tag k="place" v="islet" />
		<tag k="ssr:stedsnr" v="782219" />
	</node>
	<node id="-417084" lat="59.36188333" lon="5.95899444599">
		<tag k="name" v="Hebnes" />
		<tag k="natural" v="cape" />
		<tag k="ssr:stedsnr" v="782121" />
	</node>
	<node id="-417080" lat="59.4254611134" lon="6.14755555772">
		<tag k="name" v="Suldalskjelda" />
		<tag k="natural" v="bay" />
		<tag k="ssr:stedsnr" v="782086" />
	</node>
	<node id="-417073" lat="59.4315666659" lon="6.18085277131">
		<tag k="name" v="Øynatangen" />
		<tag k="natural" v="cape" />
		<tag k="ssr:stedsnr" v="782050" />
	</node>
	<node id="-417069" lat="59.4531694485" lon="5.92919167387">
		<tag k="name" v="Båsen" />
		<tag k="natural" v="bay" />
		<tag k="ssr:stedsnr" v="781820" />
	</node>
	<node id="-417068" lat="59.4545916635" lon="5.87593333418">
		<tag k="bay" v="fjord" />
		<tag k="name" v="Krossfjorden" />
		<tag k="natural" v="bay" />
		<tag k="ssr:stedsnr" v="781805" />
	</node>
	<node id="-415014" lat="59.3755249999" lon="6.0470499919">
		<tag k="alt_name" v="Kvednavika" />
		<tag k="name" v="Kvernavika" />
		<tag k="natural" v="bay" />
		<tag k="ssr:stedsnr" v="185424" />
	</node>
	<node id="-417057" lat="59.556913888" lon="6.48006666729">
		<tag k="name" v="Tengesdalsneset" />
		<tag k="natural" v="cape" />
		<tag k="ssr:stedsnr" v="769595" />
	</node>
	<node id="-417056" lat="59.4518250004" lon="5.92061110773">
		<tag k="name" v="Seglet" />
		<tag k="natural" v="shoal" />
		<tag k="place" v="locality" />
		<tag k="ssr:stedsnr" v="769568" />
	</node>
	<node id="-417054" lat="59.3181916637" lon="6.18552221961">
		<tag k="name" v="Litlegrunnen" />
		<tag k="natural" v="shoal" />
		<tag k="place" v="locality" />
		<tag k="ssr:stedsnr" v="767971" />
	</node>
	<node id="-417052" lat="59.3615694453" lon="6.10378055234">
		<tag k="name" v="Lindevikneset" />
		<tag k="natural" v="cape" />
		<tag k="ssr:stedsnr" v="767749" />
	</node>
	<node id="-417048" lat="59.3698361124" lon="6.03978333533">
		<tag k="name" v="Tjørnanesgrunnen" />
		<tag k="natural" v="shoal" />
		<tag k="place" v="locality" />
		<tag k="ssr:stedsnr" v="767049" />
	</node>
	<node id="-417036" lat="59.5005388902" lon="6.20795000047">
		<tag k="name" v="Østabøvika" />
		<tag k="natural" v="bay" />
		<tag k="ssr:stedsnr" v="731928" />
	</node>
	<node id="-414967" lat="59.3127583372" lon="6.2487861046">
		<tag k="alt_name" v="Langvika, in" />
		<tag k="name" v="Indre Langvika" />
		<tag k="natural" v="bay" />
		<tag k="ssr:stedsnr" v="184966" />
	</node>
	<node id="-414965" lat="59.3236027739" lon="6.22459722198">
		<tag k="name" v="Farmannsvika" />
		<tag k="natural" v="bay" />
		<tag k="ssr:stedsnr" v="184875" />
	</node>
	<node id="-417010" lat="59.4509750031" lon="6.02695000508">
		<tag k="name" v="Finnvikneset" />
		<tag k="natural" v="cape" />
		<tag k="ssr:stedsnr" v="731278" />
	</node>
	<node id="-414949" lat="59.4695000035" lon="6.25407499657">
		<tag k="name" v="Velabukta" />
		<tag k="natural" v="bay" />
		<tag k="ssr:stedsnr" v="184642" />
	</node>
	<node id="-414938" lat="59.3290749993" lon="6.07389999847">
		<tag k="name" v="Tandraneset" />
		<tag k="natural" v="cape" />
		<tag k="ssr:stedsnr" v="184521" />
	</node>
	<node id="-414920" lat="59.4388749988" lon="5.92013055815">
		<tag k="alt_name" v="Staurneset" />
		<tag k="name" v="Staurnes" />
		<tag k="natural" v="cape" />
		<tag k="ssr:stedsnr" v="184329" />
	</node>
	<node id="-414918" lat="59.4045027747" lon="6.10779721455">
		<tag k="name" v="Fureholmen" />
		<tag k="place" v="islet" />
		<tag k="ssr:stedsnr" v="184433" />
	</node>
	<node id="-414917" lat="59.3979500011" lon="6.11467500353">
		<tag k="alt_name" v="Grønnevik" />
		<tag k="name" v="Grønevik" />
		<tag k="natural" v="bay" />
		<tag k="ssr:stedsnr" v="184430" />
	</node>
	<node id="-414916" lat="59.4009777755" lon="6.00737222548">
		<tag k="name" v="Stokkavåg" />
		<tag k="natural" v="bay" />
		<tag k="ssr:stedsnr" v="184404" />
	</node>
	<node id="-416961" lat="59.3278249983" lon="5.9514500034">
		<tag k="fixme" v="consider seamark:type=rock or natural=shoal" />
		<tag k="name" v="Oksen" />
		<tag k="place" v="islet" />
		<tag k="ssr:stedsnr" v="730553" />
	</node>
	<node id="-416960" lat="59.3529750007" lon="5.9605500012">
		<tag k="alt_name" v="Omundsholmen" />
		<tag k="name" v="Ommundsholmen" />
		<tag k="place" v="islet" />
		<tag k="ssr:stedsnr" v="730524" />
	</node>
	<node id="-416956" lat="59.3847916678" lon="6.04978611677">
		<tag k="name" v="Grunnasundholmen" />
		<tag k="place" v="islet" />
		<tag k="ssr:stedsnr" v="730472" />
	</node>
	<node id="-416951" lat="59.394300003" lon="6.03087500839">
		<tag k="name" v="Skorpeholmane" />
		<tag k="place" v="islet" />
		<tag k="ssr:stedsnr" v="730406" />
	</node>
	<node id="-416947" lat="59.4369750005" lon="5.92562500844">
		<tag k="name" v="Nevravika" />
		<tag k="natural" v="bay" />
		<tag k="ssr:stedsnr" v="730350" />
	</node>
	<node id="-417648" lat="59.5372916685" lon="6.35624444994">
		<tag k="alt_name" v="Ullsnes, yt" />
		<tag k="name" v="Ytra Ullsnes" />
		<tag k="natural" v="cape" />
		<tag k="ssr:stedsnr" v="853130" />
	</node>
	<node id="-414863" lat="59.3774666662" lon="6.39108056332">
		<tag k="name" v="Sokkaneset" />
		<tag k="natural" v="cape" />
		<tag k="ssr:stedsnr" v="181278" />
	</node>
	<node id="-416373" lat="59.40988333" lon="6.12811943888">
		<tag k="name" v="Omsmaneset" />
		<tag k="natural" v="cape" />
		<tag k="ssr:stedsnr" v="609396" />
	</node>
	<node id="-416879" lat="59.5575916633" lon="6.51738055721">
		<tag k="name" v="Seljeneset" />
		<tag k="natural" v="cape" />
		<tag k="ssr:stedsnr" v="727458" />
	</node>
	<node id="-414829" lat="59.5318638913" lon="6.25842777962">
		<tag k="alt_name" v="Klubbavika" />
		<tag k="name" v="Søra Klubbavika" />
		<tag k="natural" v="bay" />
		<tag k="ssr:stedsnr" v="178132" />
	</node>
	<node id="-414812" lat="59.3853277761" lon="6.05203054868">
		<tag k="name" v="Grunnasund" />
		<tag k="natural" v="strait" />
		<tag k="ssr:stedsnr" v="176575" />
	</node>
	<node id="-414810" lat="59.4046805582" lon="6.10898054824">
		<tag k="name" v="Gjertruholmen" />
		<tag k="place" v="islet" />
		<tag k="ssr:stedsnr" v="176564" />
	</node>
	<node id="-414806" lat="59.4159750016" lon="6.13373888313">
		<tag k="alt_name" v="Hamborneset" />
		<tag k="name" v="Hamborgneset" />
		<tag k="natural" v="cape" />
		<tag k="ssr:stedsnr" v="176535" />
	</node>
	<node id="-417977" lat="59.3739972179" lon="5.93669166416">
		<tag k="name" v="Stongneshola" />
		<tag k="natural" v="bay" />
		<tag k="ssr:stedsnr" v="963097" />
	</node>
	<node id="-414799" lat="59.3236194487" lon="6.0992222235">
		<tag k="name" v="Sausaskjeret" />
		<tag k="natural" v="cape" />
		<tag k="ssr:stedsnr" v="176386" />
	</node>
	<node id="-414798" lat="59.3269166665" lon="6.08304722915">
		<tag k="name" v="Fattigmannshabn" />
		<tag k="natural" v="bay" />
		<tag k="ssr:stedsnr" v="176382" />
	</node>
	<node id="-414793" lat="59.330755558" lon="6.23683333175">
		<tag k="name" v="Sauaneset" />
		<tag k="natural" v="cape" />
		<tag k="ssr:stedsnr" v="176246" />
	</node>
	<node id="-416839" lat="59.6064111106" lon="6.79513610569">
		<tag k="name" v="Sandvika" />
		<tag k="natural" v="bay" />
		<tag k="ssr:stedsnr" v="724427" />
	</node>
	<node id="-414787" lat="59.425299998" lon="6.14964999832">
		<tag k="name" v="Ytre Trossavika" />
		<tag k="natural" v="bay" />
		<tag k="ssr:stedsnr" v="176124" />
	</node>
	<node id="-414771" lat="59.3332166666" lon="5.97278055639">
		<tag k="fixme" v="consider seamark:type=rock or natural=shoal" />
		<tag k="name" v="Mortesteinen" />
		<tag k="place" v="islet" />
		<tag k="ssr:stedsnr" v="175382" />
	</node>
	<node id="-414768" lat="59.3920055587" lon="6.03346111581">
		<tag k="name" v="Skorpehamna" />
		<tag k="natural" v="bay" />
		<tag k="ssr:stedsnr" v="175769" />
	</node>
	<node id="-414766" lat="59.4420416634" lon="6.2289916716">
		<tag k="name" v="Ersdalsneset" />
		<tag k="natural" v="cape" />
		<tag k="ssr:stedsnr" v="175752" />
	</node>
	<node id="-414763" lat="59.45130833" lon="6.03806111259">
		<tag k="name" v="Stuvika" />
		<tag k="natural" v="bay" />
		<tag k="ssr:stedsnr" v="175272" />
	</node>
	<node id="-414761" lat="59.4486055556" lon="6.01918611773">
		<tag k="name" v="Sjoarskår" />
		<tag k="natural" v="cape" />
		<tag k="ssr:stedsnr" v="175262" />
	</node>
	<node id="-414760" lat="59.4056750032" lon="5.91992222988">
		<tag k="alt_name" v="Østabøvika" />
		<tag k="name" v="Søra Østabøvika" />
		<tag k="natural" v="bay" />
		<tag k="ssr:stedsnr" v="175352" />
	</node>
	<node id="-417969" lat="59.553183336" lon="6.5532972139">
		<tag k="fixme" v="multiple name tags, choose one and add the other to alt_name" />
		<tag k="name" v="Bjelkavika;Djupevik" />
		<tag k="natural" v="bay" />
		<tag k="ssr:stedsnr" v="951618" />
	</node>
	<node id="-416803" lat="59.4513111073" lon="6.03385833646">
		<tag k="name" v="Ørevika" />
		<tag k="natural" v="bay" />
		<tag k="ssr:stedsnr" v="722364" />
	</node>
	<node id="-416802" lat="59.3749611132" lon="5.99358889064">
		<tag k="name" v="Jørundsvika" />
		<tag k="natural" v="bay" />
		<tag k="ssr:stedsnr" v="722354" />
	</node>
	<node id="-414753" lat="59.446013886" lon="5.9157944368">
		<tag k="alt_name" v="Djupavika" />
		<tag k="name" v="Store Djupevika" />
		<tag k="natural" v="bay" />
		<tag k="ssr:stedsnr" v="174819" />
	</node>
	<node id="-416800" lat="59.4445861103" lon="5.96838610607">
		<tag k="name" v="Raudaneset" />
		<tag k="natural" v="cape" />
		<tag k="ssr:stedsnr" v="722330" />
	</node>
	<node id="-416795" lat="59.456975002" lon="6.05655833569">
		<tag k="name" v="Ytre Råsa" />
		<tag k="natural" v="bay" />
		<tag k="ssr:stedsnr" v="722252" />
	</node>
	<node id="-416794" lat="59.4569833316" lon="6.05452499144">
		<tag k="name" v="Torsteinbøneset" />
		<tag k="natural" v="cape" />
		<tag k="ssr:stedsnr" v="722246" />
	</node>
	<node id="-416793" lat="59.3524638932" lon="6.08953055078">
		<tag k="name" v="Pysjevika" />
		<tag k="natural" v="bay" />
		<tag k="ssr:stedsnr" v="722243" />
	</node>
	<node id="-414743" lat="59.3400715303" lon="6.22790631002">
		<tag k="fixme" v="multiple name tags, choose one and add the other to alt_name" />
		<tag k="name" v="Hauasundet;Haugasundet" />
		<tag k="natural" v="strait" />
		<tag k="ssr:stedsnr" v="162940" />
	</node>
	<node id="-414742" lat="59.3605388898" lon="6.23203333021">
		<tag k="name" v="Laksatuna" />
		<tag k="natural" v="bay" />
		<tag k="ssr:stedsnr" v="160770" />
	</node>
	<node id="-414741" lat="59.3711194444" lon="6.11703333216">
		<tag k="name" v="Holmen" />
		<tag k="place" v="islet" />
		<tag k="ssr:stedsnr" v="160741" />
	</node>
	<node id="-414740" lat="59.3750666682" lon="6.02833889694">
		<tag k="name" v="Skolten" />
		<tag k="natural" v="shoal" />
		<tag k="place" v="locality" />
		<tag k="ssr:stedsnr" v="160185" />
	</node>
	<node id="-413870" lat="59.3859083351" lon="6.22085833399">
		<tag k="name" v="Halsaneset" />
		<tag k="natural" v="cape" />
		<tag k="ssr:stedsnr" v="403810" />
	</node>
	<node id="-416784" lat="59.3379611114" lon="5.9535527821">
		<tag k="name" v="Otraholet" />
		<tag k="natural" v="bay" />
		<tag k="ssr:stedsnr" v="722148" />
	</node>
	<node id="-416783" lat="59.3391750033" lon="5.95895000344">
		<tag k="name" v="Herborgvikneset" />
		<tag k="natural" v="cape" />
		<tag k="ssr:stedsnr" v="722146" />
	</node>
	<node id="-417965" lat="59.3656750006" lon="6.20987499893">
		<tag k="name" v="Nonsplassen" />
		<tag k="natural" v="beach" />
		<tag k="place" v="locality" />
		<tag k="ssr:stedsnr" v="949771" />
	</node>
	<node id="-414732" lat="59.3804444419" lon="6.04153333949">
		<tag k="name" v="Kviteholmen" />
		<tag k="place" v="islet" />
		<tag k="ssr:stedsnr" v="132758" />
	</node>
	<node id="-416777" lat="59.4256218669" lon="6.1860683863">
		<tag k="alt_name" v="Ytra Vikjå" />
		<tag k="name" v="Ytra Vika" />
		<tag k="natural" v="bay" />
		<tag k="ssr:stedsnr" v="722078" />
	</node>
	<node id="-417963" lat="59.4043611122" lon="6.13766389253">
		<tag k="name" v="Jårvika" />
		<tag k="natural" v="bay" />
		<tag k="ssr:stedsnr" v="949041" />
	</node>
	<node id="-416764" lat="59.5297722192" lon="6.27518889619">
		<tag k="name" v="Sellandsvåg" />
		<tag k="natural" v="bay" />
		<tag k="ssr:stedsnr" v="708591" />
	</node>
	<node id="-416763" lat="59.4476083353" lon="5.99140833051">
		<tag k="name" v="Bjelkavika" />
		<tag k="natural" v="bay" />
		<tag k="ssr:stedsnr" v="708569" />
	</node>
	<node id="-416762" lat="59.3312861079" lon="6.03028332921">
		<tag k="name" v="Jelsahunden" />
		<tag k="place" v="locality" />
		<tag k="seamark:type" v="rock" />
		<tag k="ssr:stedsnr" v="708226" />
	</node>
	<node id="-416761" lat="59.3645138891" lon="6.04205833434">
		<tag k="name" v="Berakvamsvika" />
		<tag k="natural" v="bay" />
		<tag k="ssr:stedsnr" v="708198" />
	</node>
	<node id="-416760" lat="59.3356722219" lon="6.0892777789">
		<tag k="name" v="Tjuvaholet" />
		<tag k="natural" v="bay" />
		<tag k="ssr:stedsnr" v="707149" />
	</node>
	<node id="-416757" lat="59.4023277773" lon="6.05640277223">
		<tag k="name" v="Nesaholet" />
		<tag k="natural" v="bay" />
		<tag k="ssr:stedsnr" v="706026" />
	</node>
	<node id="-413523" lat="59.3185083332" lon="6.18934722888">
		<tag k="alt_name" v="Tongjane" />
		<tag k="name" v="Tangane" />
		<tag k="natural" v="cape" />
		<tag k="ssr:stedsnr" v="306478" />
	</node>
	<node id="-414703" lat="59.3583499996" lon="5.97150000293">
		<tag k="name" v="Leirvika" />
		<tag k="natural" v="bay" />
		<tag k="ssr:stedsnr" v="124415" />
	</node>
	<node id="-416749" lat="59.3351999999" lon="5.95153334131">
		<tag k="name" v="Gjellerholmen" />
		<tag k="natural" v="cape" />
		<tag k="ssr:stedsnr" v="691432" />
	</node>
	<node id="-414700" lat="59.3678555514" lon="6.03918056018">
		<tag k="alt_name" v="Tjødnaneset" />
		<tag k="name" v="Tjørnaneset" />
		<tag k="natural" v="cape" />
		<tag k="ssr:stedsnr" v="124403" />
	</node>
	<node id="-414696" lat="59.3854166665" lon="6.05723611374">
		<tag k="name" v="Straumbergsundet" />
		<tag k="natural" v="strait" />
		<tag k="ssr:stedsnr" v="124379" />
	</node>
	<node id="-414686" lat="59.4794416703" lon="6.1984277862">
		<tag k="name" v="Sørvika" />
		<tag k="natural" v="bay" />
		<tag k="ssr:stedsnr" v="124267" />
	</node>
	<node id="-414681" lat="59.528683334" lon="6.36811111913">
		<tag k="bay" v="fjord" />
		<tag k="name" v="Hylsfjorden" />
		<tag k="natural" v="bay" />
		<tag k="ssr:stedsnr" v="124165" />
	</node>
	<node id="-414676" lat="59.5366111101" lon="6.26708332625">
		<tag k="name" v="Åsneset" />
		<tag k="natural" v="cape" />
		<tag k="ssr:stedsnr" v="124143" />
	</node>
	<node id="-416702" lat="59.3229750021" lon="6.18619999336">
		<tag k="name" v="Bogssundet" />
		<tag k="natural" v="strait" />
		<tag k="ssr:stedsnr" v="670465" />
	</node>
	<node id="-416701" lat="59.3635000014" lon="6.04092500358">
		<tag k="name" v="Ålavika" />
		<tag k="natural" v="bay" />
		<tag k="ssr:stedsnr" v="670455" />
	</node>
	<node id="-416699" lat="59.3723499968" lon="5.93952500155">
		<tag k="name" v="Hetlevika" />
		<tag k="natural" v="bay" />
		<tag k="ssr:stedsnr" v="670442" />
	</node>
	<node id="-414650" lat="59.3124722256" lon="6.28042500244">
		<tag k="alt_name" v="Midvågen" />
		<tag k="name" v="Midtvågen" />
		<tag k="natural" v="bay" />
		<tag k="ssr:stedsnr" v="123974" />
	</node>
	<node id="-414647" lat="59.3235527775" lon="6.22540554972">
		<tag k="name" v="Farmannsvikneset" />
		<tag k="natural" v="cape" />
		<tag k="ssr:stedsnr" v="123903" />
	</node>
	<node id="-416689" lat="59.4862194414" lon="6.20448888495">
		<tag k="name" v="Ropeidvika" />
		<tag k="natural" v="bay" />
		<tag k="ssr:stedsnr" v="670310" />
	</node>
	<node id="-417361" lat="59.334580559" lon="5.9661333311">
		<tag k="fixme" v="multiple name tags, choose one and add the other to alt_name" />
		<tag k="name" v="Breivik;Søra Breidvika" />
		<tag k="natural" v="bay" />
		<tag k="ssr:stedsnr" v="830393" />
	</node>
	<node id="-414629" lat="59.3404638849" lon="6.02058056149">
		<tag k="alt_name" v="Aslagholene" />
		<tag k="name" v="Aslakholene" />
		<tag k="natural" v="bay" />
		<tag k="ssr:stedsnr" v="123594" />
	</node>
	<node id="-414628" lat="59.349024998" lon="6.02479999933">
		<tag k="name" v="Ugrunn" />
		<tag k="place" v="locality" />
		<tag k="ssr:stedsnr" v="123593" />
	</node>
	<node id="-414623" lat="59.3750749994" lon="5.93600000774">
		<tag k="alt_name" v="Stongneset" />
		<tag k="name" v="Stangneset" />
		<tag k="natural" v="cape" />
		<tag k="ssr:stedsnr" v="123500" />
	</node>
	<node id="-414619" lat="59.4229166693" lon="6.16651389027">
		<tag k="name" v="Nevøysundet" />
		<tag k="natural" v="strait" />
		<tag k="ssr:stedsnr" v="123435" />
	</node>
	<node id="-414618" lat="59.4083245335" lon="6.02055688504">
		<tag k="alt_name" v="Vatlandsvåg" />
		<tag k="name" v="Vatlandsvågen" />
		<tag k="natural" v="bay" />
		<tag k="ssr:stedsnr" v="123426" />
	</node>
	<node id="-414614" lat="59.4315750009" lon="6.18067500085">
		<tag k="name" v="Tangen" />
		<tag k="natural" v="cape" />
		<tag k="ssr:stedsnr" v="123393" />
	</node>
	<node id="-414613" lat="59.4603916691" lon="6.2151666591">
		<tag k="bay" v="fjord" />
		<tag k="name" v="Sandsfjorden" />
		<tag k="natural" v="bay" />
		<tag k="ssr:stedsnr" v="123389" />
	</node>
	<node id="-415213" lat="59.3163500027" lon="6.17192499861">
		<tag k="alt_name" v="Håmmaneset" />
		<tag k="name" v="Hommaneset" />
		<tag k="natural" v="cape" />
		<tag k="ssr:stedsnr" v="245500" />
	</node>
	<node id="-416645" lat="59.3468416706" lon="6.09118889428">
		<tag k="alt_name" v="Skaholmen" />
		<tag k="name" v="Skadholmen" />
		<tag k="place" v="islet" />
		<tag k="ssr:stedsnr" v="669571" />
	</node>
	<node id="-416644" lat="59.33132222" lon="5.96517499525">
		<tag k="alt_name" v="Steganeset" />
		<tag k="name" v="Stiganeset" />
		<tag k="natural" v="cape" />
		<tag k="ssr:stedsnr" v="669546" />
	</node>
	<node id="-416636" lat="59.4246814955" lon="6.17919270234">
		<tag k="name" v="Nevøyvågen" />
		<tag k="natural" v="bay" />
		<tag k="ssr:stedsnr" v="669386" />
	</node>
	<node id="-416635" lat="59.4081249993" lon="5.91964999452">
		<tag k="alt_name" v="Hammaren" />
		<tag k="name" v="Østabøhammaren" />
		<tag k="natural" v="cape" />
		<tag k="ssr:stedsnr" v="669380" />
	</node>
	<node id="-416627" lat="59.4454833325" lon="5.96177499524">
		<tag k="alt_name" v="Tedneholmen" />
		<tag k="name" v="Terneholmen" />
		<tag k="place" v="islet" />
		<tag k="ssr:stedsnr" v="669312" />
	</node>
	<node id="-415206" lat="59.3809000003" lon="6.01861666026">
		<tag k="name" v="Tveitaneset" />
		<tag k="natural" v="cape" />
		<tag k="ssr:stedsnr" v="245438" />
	</node>
	<node id="-414536" lat="59.5492861087" lon="6.41278611719">
		<tag k="name" v="Almehola" />
		<tag k="natural" v="bay" />
		<tag k="ssr:stedsnr" v="120119" />
	</node>
	<node id="-415201" lat="59.3882333309" lon="6.04696665924">
		<tag k="name" v="Berakvamsskorpa" />
		<tag k="place" v="island" />
		<tag k="ssr:stedsnr" v="245417" />
	</node>
	<node id="-413833" lat="59.5301361109" lon="6.32389999548">
		<tag k="name" v="Drarvikneset" />
		<tag k="natural" v="cape" />
		<tag k="ssr:stedsnr" v="367154" />
	</node>
	<node id="-414510" lat="59.4185638919" lon="6.02024166616">
		<tag k="name" v="Stemnes" />
		<tag k="natural" v="cape" />
		<tag k="ssr:stedsnr" v="115775" />
	</node>
	<node id="-414493" lat="59.4716944479" lon="6.1750194406">
		<tag k="name" v="Drengstivika" />
		<tag k="natural" v="bay" />
		<tag k="ssr:stedsnr" v="115451" />
	</node>
	<node id="-414484" lat="59.3331750039" lon="5.96406110973">
		<tag k="name" v="Longanes" />
		<tag k="natural" v="cape" />
		<tag k="ssr:stedsnr" v="115390" />
	</node>
	<node id="-414481" lat="59.4558138893" lon="6.05016111685">
		<tag k="fixme" v="consider seamark:type=rock or natural=shoal" />
		<tag k="name" v="Torsteinbøskjeret" />
		<tag k="place" v="islet" />
		<tag k="ssr:stedsnr" v="115368" />
	</node>
	<node id="-414475" lat="59.4577722183" lon="6.06481945174">
		<tag k="name" v="Kappelberget" />
		<tag k="natural" v="cape" />
		<tag k="ssr:stedsnr" v="115252" />
	</node>
	<node id="-414472" lat="59.3399944412" lon="5.9698361068">
		<tag k="name" v="Lisbetstranda" />
		<tag k="natural" v="bay" />
		<tag k="ssr:stedsnr" v="115182" />
	</node>
	<node id="-414470" lat="59.3372166698" lon="5.95052499437">
		<tag k="name" v="Flåge" />
		<tag k="place" v="islet" />
		<tag k="ssr:stedsnr" v="115155" />
	</node>
	<node id="-417921" lat="59.448136113" lon="6.2363611077">
		<tag k="name" v="Stabbavika" />
		<tag k="natural" v="bay" />
		<tag k="ssr:stedsnr" v="913703" />
	</node>
	<node id="-414459" lat="59.4239666667" lon="6.21865555442">
		<tag k="name" v="Breivika" />
		<tag k="natural" v="bay" />
		<tag k="ssr:stedsnr" v="115045" />
	</node>
	<node id="-414453" lat="59.4176694481" lon="5.92020833511">
		<tag k="alt_name" v="Dysjavika" />
		<tag k="name" v="Døskjavika" />
		<tag k="natural" v="bay" />
		<tag k="ssr:stedsnr" v="114361" />
	</node>
	<node id="-416499" lat="59.5605666708" lon="6.27448889514">
		<tag k="name" v="Illstavika" />
		<tag k="natural" v="bay" />
		<tag k="ssr:stedsnr" v="661924" />
	</node>
	<node id="-416493" lat="59.4047583351" lon="6.01784166681">
		<tag k="alt_name" v="Nestongjen" />
		<tag k="name" v="Nestangen" />
		<tag k="natural" v="cape" />
		<tag k="ssr:stedsnr" v="661769" />
	</node>
	<node id="-414443" lat="59.3760179131" lon="6.00138245074">
		<tag k="name" v="Tveitavika" />
		<tag k="natural" v="bay" />
		<tag k="ssr:stedsnr" v="100213" />
	</node>
	<node id="-414442" lat="59.4165777789" lon="5.92157777647">
		<tag k="name" v="Dysjahammaren" />
		<tag k="natural" v="cape" />
		<tag k="ssr:stedsnr" v="99934" />
	</node>
	<node id="-414441" lat="59.3850805527" lon="5.93452777777">
		<tag k="name" v="Eiterbekkneset" />
		<tag k="natural" v="cape" />
		<tag k="ssr:stedsnr" v="99882" />
	</node>
	<node id="-414440" lat="59.3896055531" lon="6.21683888955">
		<tag k="name" v="Litleflua" />
		<tag k="place" v="locality" />
		<tag k="seamark:type" v="rock" />
		<tag k="ssr:stedsnr" v="99836" />
	</node>
	<node id="-414439" lat="59.5443027793" lon="6.26803333448">
		<tag k="name" v="Indra Åsneset" />
		<tag k="natural" v="cape" />
		<tag k="ssr:stedsnr" v="99623" />
	</node>
	<node id="-414438" lat="59.3546444425" lon="6.10429999328">
		<tag k="name" v="Økstrabukta" />
		<tag k="natural" v="bay" />
		<tag k="ssr:stedsnr" v="99125" />
	</node>
	<node id="-414437" lat="59.3356194466" lon="6.09698610341">
		<tag k="name" v="Holaneset" />
		<tag k="natural" v="cape" />
		<tag k="ssr:stedsnr" v="99126" />
	</node>
	<node id="-414436" lat="59.3735027774" lon="6.04497499352">
		<tag k="name" v="Kvernakulten" />
		<tag k="natural" v="cape" />
		<tag k="ssr:stedsnr" v="99044" />
	</node>
	<node id="-416472" lat="59.3138777807" lon="6.24523332677">
		<tag k="fixme" v="consider seamark:type=rock or natural=shoal" />
		<tag k="name" v="Longvikkjeringa" />
		<tag k="place" v="islet" />
		<tag k="ssr:stedsnr" v="661280" />
	</node>
	<node id="-416471" lat="59.3354777798" lon="6.20387777579">
		<tag k="name" v="Kvitaberg" />
		<tag k="natural" v="cape" />
		<tag k="ssr:stedsnr" v="661258" />
	</node>
	<node id="-416470" lat="59.4492583363" lon="6.02500277206">
		<tag k="alt_name" v="Finnvika" />
		<tag k="name" v="Ytra Finnvik" />
		<tag k="natural" v="bay" />
		<tag k="ssr:stedsnr" v="661257" />
	</node>
	<node id="-416469" lat="59.3266539852" lon="6.20035458799">
		<tag k="name" v="Hattavågen" />
		<tag k="natural" v="bay" />
		<tag k="ssr:stedsnr" v="661256" />
	</node>
	<node id="-416468" lat="59.4490555564" lon="6.02124445157">
		<tag k="name" v="Skvamphidler" />
		<tag k="natural" v="cape" />
		<tag k="ssr:stedsnr" v="661255" />
	</node>
	<node id="-416461" lat="59.3530388878" lon="5.97389999783">
		<tag k="name" v="Ørevika" />
		<tag k="natural" v="bay" />
		<tag k="ssr:stedsnr" v="661137" />
	</node>
	<node id="-416460" lat="59.3656527751" lon="5.94149167235">
		<tag k="name" v="Slettingshammaren" />
		<tag k="natural" v="cape" />
		<tag k="ssr:stedsnr" v="661128" />
	</node>
	<node id="-416455" lat="59.4525555545" lon="6.18328611265">
		<tag k="name" v="Strandaneset" />
		<tag k="natural" v="cape" />
		<tag k="ssr:stedsnr" v="661016" />
	</node>
	<node id="-416440" lat="59.5247083371" lon="6.37737500204">
		<tag k="name" v="Tømmervika" />
		<tag k="natural" v="bay" />
		<tag k="ssr:stedsnr" v="647613" />
	</node>
	<node id="-416439" lat="59.5295472226" lon="6.3943138953">
		<tag k="name" v="Vikaneset" />
		<tag k="natural" v="cape" />
		<tag k="ssr:stedsnr" v="647614" />
	</node>
	<node id="-416437" lat="59.4656555518" lon="6.12148055595">
		<tag k="fixme" v="consider seamark:type=rock or natural=shoal" />
		<tag k="name" v="Guleklumpen" />
		<tag k="place" v="islet" />
		<tag k="ssr:stedsnr" v="647584" />
	</node>
	<node id="-416435" lat="59.3890686179" lon="6.21814067643">
		<tag k="name" v="Tyssebotnen" />
		<tag k="natural" v="bay" />
		<tag k="ssr:stedsnr" v="645786" />
	</node>
	<node id="-416434" lat="59.4081027802" lon="6.09557778423">
		<tag k="fixme" v="consider seamark:type=rock or natural=shoal" />
		<tag k="name" v="Hellevikholmen" />
		<tag k="place" v="islet" />
		<tag k="ssr:stedsnr" v="645042" />
	</node>
	<node id="-416433" lat="59.339163891" lon="6.09390554882">
		<tag k="name" v="Stuvikholmen" />
		<tag k="place" v="islet" />
		<tag k="ssr:stedsnr" v="645117" />
	</node>
	<node id="-414382" lat="59.3366944482" lon="6.24420555611">
		<tag k="name" v="Osnes" />
		<tag k="natural" v="cape" />
		<tag k="ssr:stedsnr" v="63877" />
	</node>
	<node id="-413288" lat="59.4830972199" lon="6.19132223089">
		<tag k="name" v="Torskahola" />
		<tag k="natural" v="bay" />
		<tag k="ssr:stedsnr" v="284547" />
	</node>
	<node id="-416411" lat="59.31219167" lon="6.23708610412">
		<tag k="alt_name" v="Langvika, yt;Longvika" />
		<tag k="name" v="Ytre Langvika" />
		<tag k="natural" v="bay" />
		<tag k="ssr:stedsnr" v="609984" />
	</node>
	<node id="-416406" lat="59.3258694478" lon="6.23563055604">
		<tag k="fixme" v="consider seamark:type=rock or natural=shoal" />
		<tag k="name" v="Levardskjer" />
		<tag k="old_name" v="Levardskjær" />
		<tag k="place" v="islet" />
		<tag k="ssr:stedsnr" v="609881" />
	</node>
	<node id="-416405" lat="59.5656666687" lon="6.27958333496">
		<tag k="alt_name" v="Illstadvika" />
		<tag k="name" v="Ilstadvika" />
		<tag k="natural" v="bay" />
		<tag k="ssr:stedsnr" v="609854" />
	</node>
	<node id="-414346" lat="59.316349997" lon="6.00509721435">
		<tag k="bay" v="fjord" />
		<tag k="name" v="Jelsafjorden" />
		<tag k="natural" v="bay" />
		<tag k="ssr:stedsnr" v="63547" />
	</node>
	<node id="-414340" lat="59.3757749995" lon="6.01002499467">
		<tag k="name" v="Reiphammarodden" />
		<tag k="natural" v="cape" />
		<tag k="ssr:stedsnr" v="63493" />
	</node>
	<node id="-414337" lat="59.3890666624" lon="6.0429833342">
		<tag k="name" v="Midtsund" />
		<tag k="natural" v="strait" />
		<tag k="ssr:stedsnr" v="63431" />
	</node>
	<node id="-414336" lat="59.3849760774" lon="6.01519211952">
		<tag k="alt_name" v="Bjødnavågen" />
		<tag k="name" v="Bjørnavågen" />
		<tag k="natural" v="bay" />
		<tag k="ssr:stedsnr" v="63432" />
	</node>
	<node id="-414332" lat="59.3992027768" lon="6.0173083412">
		<tag k="name" v="Vintravika" />
		<tag k="natural" v="bay" />
		<tag k="ssr:stedsnr" v="63415" />
	</node>
	<node id="-414331" lat="59.403766665" lon="6.09129445179">
		<tag k="alt_name" v="Nordaneset" />
		<tag k="name" v="Nordra neset" />
		<tag k="natural" v="cape" />
		<tag k="ssr:stedsnr" v="63413" />
	</node>
	<node id="-414330" lat="59.4008416688" lon="6.05540277306">
		<tag k="alt_name" v="Kalvikneset" />
		<tag k="name" v="Kallvikneset" />
		<tag k="natural" v="cape" />
		<tag k="ssr:stedsnr" v="63412" />
	</node>
	<node id="-414328" lat="59.4213749975" lon="6.21277499239">
		<tag k="name" v="Klubben" />
		<tag k="natural" v="cape" />
		<tag k="ssr:stedsnr" v="63404" />
	</node>
	<node id="-415508" lat="59.3999083332" lon="6.0923666626">
		<tag k="alt_name" v="Ottøyna;Ottøy" />
		<tag k="name" v="Ottøya" />
		<tag k="place" v="island" />
		<tag k="ssr:stedsnr" v="427413" />
	</node>
	<node id="-414325" lat="59.4090500037" lon="6.01545000633">
		<tag k="alt_name" v="Heigraneset" />
		<tag k="name" v="Kloppaneset" />
		<tag k="natural" v="cape" />
		<tag k="ssr:stedsnr" v="63397" />
	</node>
	<node id="-414313" lat="59.4545798603" lon="6.04575518219">
		<tag k="name" v="Vikaneset" />
		<tag k="natural" v="cape" />
		<tag k="ssr:stedsnr" v="63353" />
	</node>
	<node id="-416331" lat="59.3452749972" lon="6.09039999359">
		<tag k="alt_name" v="Bergaholmane" />
		<tag k="name" v="Bergaholmen" />
		<tag k="place" v="islet" />
		<tag k="ssr:stedsnr" v="608597" />
	</node>
	<node id="-416327" lat="59.3684351594" lon="6.11435814399">
		<tag k="name" v="Krossvikane" />
		<tag k="natural" v="bay" />
		<tag k="ssr:stedsnr" v="608497" />
	</node>
	<node id="-416182" lat="59.4671249974" lon="6.25405555942">
		<tag k="name" v="Velastranda" />
		<tag k="natural" v="beach" />
		<tag k="place" v="locality" />
		<tag k="ssr:stedsnr" v="600462" />
	</node>
	<node id="-414193" lat="59.3413222213" lon="6.19569167305">
		<tag k="name" v="Austnestongjen" />
		<tag k="natural" v="cape" />
		<tag k="ssr:stedsnr" v="55946" />
	</node>
	<node id="-414185" lat="59.5194166628" lon="6.28453055343">
		<tag k="name" v="Vedvikneset" />
		<tag k="natural" v="cape" />
		<tag k="ssr:stedsnr" v="55769" />
	</node>
	<node id="-414184" lat="59.5111888918" lon="6.3002527739">
		<tag k="name" v="Juvaskjer" />
		<tag k="natural" v="cape" />
		<tag k="ssr:stedsnr" v="55767" />
	</node>
	<node id="-414183" lat="59.5424249974" lon="6.35948889675">
		<tag k="alt_name" v="Holmen" />
		<tag k="name" v="Gardvikholmen" />
		<tag k="place" v="islet" />
		<tag k="ssr:stedsnr" v="55747" />
	</node>
	<node id="-417872" lat="59.3411055544" lon="6.22724445312">
		<tag k="name" v="Erøyholmen" />
		<tag k="place" v="islet" />
		<tag k="ssr:stedsnr" v="912925" />
	</node>
	<node id="-414173" lat="59.4598694486" lon="6.07464721581">
		<tag k="name" v="Senganeset" />
		<tag k="natural" v="cape" />
		<tag k="ssr:stedsnr" v="55230" />
	</node>
	<node id="-416216" lat="59.4878416628" lon="6.2479555628">
		<tag k="name" v="Bjødnavika" />
		<tag k="natural" v="bay" />
		<tag k="ssr:stedsnr" v="602374" />
	</node>
	<node id="-414157" lat="59.4101055539" lon="6.01862222885">
		<tag k="name" v="Kloppå" />
		<tag k="natural" v="cape" />
		<tag k="ssr:stedsnr" v="54799" />
	</node>
	<node id="-414155" lat="59.407575004" lon="6.01598888146">
		<tag k="name" v="Rauneholmen" />
		<tag k="place" v="islet" />
		<tag k="ssr:stedsnr" v="54790" />
	</node>
	<node id="-414152" lat="59.3344277742" lon="5.9804277839">
		<tag k="name" v="Båteholet" />
		<tag k="natural" v="bay" />
		<tag k="ssr:stedsnr" v="54588" />
	</node>
	<node id="-413772" lat="59.3326638918" lon="6.21218054901">
		<tag k="alt_name" v="Erøyna" />
		<tag k="name" v="Erøy" />
		<tag k="place" v="island" />
		<tag k="ssr:stedsnr" v="366545" />
	</node>
	<node id="-413771" lat="59.3277555523" lon="6.05048056025">
		<tag k="name" v="Giljestranda" />
		<tag k="natural" v="beach" />
		<tag k="place" v="locality" />
		<tag k="ssr:stedsnr" v="366538" />
	</node>
	<node id="-414142" lat="59.4465972177" lon="6.00877499496">
		<tag k="name" v="Skjere" />
		<tag k="natural" v="cape" />
		<tag k="ssr:stedsnr" v="54273" />
	</node>
	<node id="-414141" lat="59.446113888" lon="6.01548610319">
		<tag k="name" v="Morthammar" />
		<tag k="natural" v="cape" />
		<tag k="ssr:stedsnr" v="54271" />
	</node>
	<node id="-414137" lat="59.3571611155" lon="6.10718333597">
		<tag k="name" v="Naustvik" />
		<tag k="natural" v="bay" />
		<tag k="ssr:stedsnr" v="54242" />
	</node>
	<node id="-414134" lat="59.3316055572" lon="5.96616944686">
		<tag k="fixme" v="consider seamark:type=rock or natural=shoal" />
		<tag k="name" v="Steganesskjeret" />
		<tag k="place" v="islet" />
		<tag k="ssr:stedsnr" v="54387" />
	</node>
	<node id="-413769" lat="59.3605249972" lon="6.04055000492">
		<tag k="name" v="Brennevika" />
		<tag k="natural" v="bay" />
		<tag k="ssr:stedsnr" v="366493" />
	</node>
	<node id="-414130" lat="59.369394444" lon="5.94046944704">
		<tag k="name" v="Likberget" />
		<tag k="natural" v="cape" />
		<tag k="ssr:stedsnr" v="54133" />
	</node>
	<node id="-414129" lat="59.3785388888" lon="6.01315278302">
		<tag k="name" v="Øspevika" />
		<tag k="natural" v="bay" />
		<tag k="ssr:stedsnr" v="54125" />
	</node>
	<node id="-414124" lat="59.3957861151" lon="5.92510277753">
		<tag k="name" v="Truaskår" />
		<tag k="natural" v="cape" />
		<tag k="ssr:stedsnr" v="53720" />
	</node>
	<node id="-414116" lat="59.480483331" lon="6.19759999397">
		<tag k="name" v="Sørvikneset" />
		<tag k="natural" v="cape" />
		<tag k="ssr:stedsnr" v="41578" />
	</node>
	<node id="-414113" lat="59.3679111088" lon="6.11219999595">
		<tag k="name" v="Eldhusneset" />
		<tag k="natural" v="cape" />
		<tag k="ssr:stedsnr" v="39734" />
	</node>
	<node id="-414112" lat="59.339438886" lon="6.02133888625">
		<tag k="name" v="Holeneset" />
		<tag k="natural" v="cape" />
		<tag k="ssr:stedsnr" v="39155" />
	</node>
	<node id="-414111" lat="59.3289083325" lon="6.0645527722">
		<tag k="name" v="Rongarvika" />
		<tag k="natural" v="bay" />
		<tag k="ssr:stedsnr" v="39114" />
	</node>
	<node id="-414110" lat="59.3858694463" lon="6.0629555473">
		<tag k="name" v="Straumbergneset" />
		<tag k="natural" v="cape" />
		<tag k="ssr:stedsnr" v="39023" />
	</node>
	<node id="-416154" lat="59.4257805543" lon="6.15193888879">
		<tag k="name" v="Indre Trossavika" />
		<tag k="natural" v="bay" />
		<tag k="ssr:stedsnr" v="600123" />
	</node>
	<node id="-414099" lat="59.3937500039" lon="5.92714999217">
		<tag k="name" v="Djupevik" />
		<tag k="natural" v="bay" />
		<tag k="ssr:stedsnr" v="3600" />
	</node>
	<node id="-416143" lat="59.5508250011" lon="6.50412777842">
		<tag k="name" v="Ormholtneset" />
		<tag k="natural" v="cape" />
		<tag k="ssr:stedsnr" v="587633" />
	</node>
	<node id="-414445" lat="59.5574333354" lon="6.50050554924">
		<tag k="name" v="Furanes" />
		<tag k="natural" v="cape" />
		<tag k="ssr:stedsnr" v="102650" />
	</node>
	<node id="-416140" lat="59.3738083371" lon="5.93746388592">
		<tag k="name" v="Oskvikstanga" />
		<tag k="natural" v="cape" />
		<tag k="ssr:stedsnr" v="584882" />
	</node>
	<node id="-416137" lat="59.334008334" lon="6.10123888462">
		<tag k="fixme" v="consider seamark:type=rock or natural=shoal" />
		<tag k="name" v="Kalvaskjeret" />
		<tag k="place" v="islet" />
		<tag k="ssr:stedsnr" v="584125" />
	</node>
	<node id="-416136" lat="59.3975527741" lon="6.06374166522">
		<tag k="bay" v="fjord" />
		<tag k="name" v="Kallvikhavet" />
		<tag k="natural" v="bay" />
		<tag k="ssr:stedsnr" v="584078" />
	</node>
	<node id="-416135" lat="59.4055805594" lon="6.13387778095">
		<tag k="name" v="Laksholmen" />
		<tag k="place" v="islet" />
		<tag k="ssr:stedsnr" v="584035" />
	</node>
	<node id="-417857" lat="59.4547416674" lon="6.23765834047">
		<tag k="alt_name" v="Ila" />
		<tag k="fixme" v="consider seamark:type=rock or natural=shoal" />
		<tag k="name" v="Ilasteinen" />
		<tag k="place" v="islet" />
		<tag k="ssr:stedsnr" v="912739" />
	</node>
	<node id="-416125" lat="59.3211694467" lon="6.26965833424">
		<tag k="name" v="Skiftesvika" />
		<tag k="natural" v="bay" />
		<tag k="ssr:stedsnr" v="565252" />
	</node>
	<node id="-416489" lat="59.3927500009" lon="6.01370000614">
		<tag k="name" v="Skåtaholmen" />
		<tag k="place" v="islet" />
		<tag k="ssr:stedsnr" v="661738" />
	</node>
	<node id="-416113" lat="59.5608749987" lon="6.27552500147">
		<tag k="name" v="Sjøbuneset" />
		<tag k="natural" v="cape" />
		<tag k="ssr:stedsnr" v="549843" />
	</node>
	<node id="-414057" lat="59.3444888858" lon="6.22872777794">
		<tag k="name" v="Siriholmen" />
		<tag k="place" v="islet" />
		<tag k="ssr:stedsnr" v="2926" />
	</node>
	<node id="-418128" lat="59.371860224" lon="6.04483435833">
		<tag k="name" v="Gongstøvika" />
		<tag k="natural" v="bay" />
		<tag k="ssr:stedsnr" v="974185" />
	</node>
	<node id="-418127" lat="59.3912811333" lon="6.01366698015">
		<tag k="alt_name" v="Sjubbeholsvågen" />
		<tag k="fixme" v="multiple name tags, choose one and add the other to alt_name" />
		<tag k="name" v="Kjølavågen;Sjøbuholsvågen" />
		<tag k="natural" v="bay" />
		<tag k="ssr:stedsnr" v="974182" />
	</node>
	<node id="-418126" lat="59.3897066361" lon="6.0408986063">
		<tag k="name" v="Skorpene" />
		<tag k="place" v="island" />
		<tag k="ssr:stedsnr" v="974180" />
	</node>
	<node id="-416141" lat="59.4458138928" lon="5.95200556189">
		<tag k="name" v="Notavollen" />
		<tag k="natural" v="cape" />
		<tag k="ssr:stedsnr" v="587593" />
	</node>
	<node id="-414024" lat="59.4805333303" lon="6.24580832639">
		<tag k="name" v="Fiskeberget" />
		<tag k="natural" v="cape" />
		<tag k="ssr:stedsnr" v="2670" />
	</node>
	<node id="-416068" lat="59.3113333325" lon="6.27148332598">
		<tag k="alt_name" v="Tånes" />
		<tag k="name" v="Tåneset" />
		<tag k="natural" v="cape" />
		<tag k="ssr:stedsnr" v="548966" />
	</node>
	<node id="-414013" lat="59.3538250007" lon="5.97577499563">
		<tag k="name" v="Vardnes" />
		<tag k="natural" v="cape" />
		<tag k="ssr:stedsnr" v="2521" />
	</node>
	<node id="-414011" lat="59.3669361135" lon="5.94287499951">
		<tag k="name" v="Slettingsvika" />
		<tag k="natural" v="bay" />
		<tag k="ssr:stedsnr" v="2486" />
	</node>
	<node id="-414010" lat="59.3824250026" lon="6.04619999402">
		<tag k="name" v="Midholmen" />
		<tag k="place" v="islet" />
		<tag k="ssr:stedsnr" v="2479" />
	</node>
	<node id="-414003" lat="59.4222888903" lon="6.17443056186">
		<tag k="name" v="Nevøyholet" />
		<tag k="natural" v="bay" />
		<tag k="ssr:stedsnr" v="2407" />
	</node>
	<node id="-417843" lat="59.4194444429" lon="6.21389722413">
		<tag k="bay" v="fjord" />
		<tag k="name" v="Lovrafjorden" />
		<tag k="natural" v="bay" />
		<tag k="ssr:stedsnr" v="912403" />
	</node>
	<node id="-417913" lat="59.3326000044" lon="6.19525000804">
		<tag k="name" v="Hattaneset" />
		<tag k="natural" v="cape" />
		<tag k="ssr:stedsnr" v="913489" />
	</node>
	<node id="-418086" lat="59.5361722256" lon="6.41476389567">
		<tag k="name" v="Skiftesgrinda" />
		<tag k="natural" v="beach" />
		<tag k="place" v="locality" />
		<tag k="ssr:stedsnr" v="970181" />
	</node>
	<node id="-416035" lat="59.3136828858" lon="6.15238801674">
		<tag k="alt_name" v="Ormansvikneset" />
		<tag k="fixme" v="multiple name tags, choose one and add the other to alt_name" />
		<tag k="name" v="Ormannsvikneset;Årmannsvikneset" />
		<tag k="natural" v="cape" />
		<tag k="ssr:stedsnr" v="548517" />
	</node>
	<node id="-416027" lat="59.4003250031" lon="5.91792499469">
		<tag k="name" v="Straumneset" />
		<tag k="natural" v="cape" />
		<tag k="ssr:stedsnr" v="548415" />
	</node>
	<node id="-416026" lat="59.4166000037" lon="6.12239999144">
		<tag k="name" v="Lauvnes" />
		<tag k="natural" v="cape" />
		<tag k="ssr:stedsnr" v="548411" />
	</node>
	<node id="-418049" lat="59.5500888892" lon="6.49710556378">
		<tag k="name" v="Ognajuvbukta" />
		<tag k="natural" v="bay" />
		<tag k="ssr:stedsnr" v="969025" />
	</node>
	<node id="-418047" lat="59.5373111122" lon="6.28180000414">
		<tag k="name" v="Bannstakvika" />
		<tag k="natural" v="bay" />
		<tag k="ssr:stedsnr" v="967803" />
	</node>
	<node id="-418034" lat="59.5366861142" lon="6.35026111495">
		<tag k="name" v="Haraholet" />
		<tag k="natural" v="bay" />
		<tag k="ssr:stedsnr" v="965772" />
	</node>
	<node id="-418031" lat="59.4569166699" lon="6.05993333567">
		<tag k="name" v="Indre Råsa" />
		<tag k="natural" v="bay" />
		<tag k="ssr:stedsnr" v="965242" />
	</node>
	<node id="-415980" lat="59.5600972214" lon="6.59533333744">
		<tag k="name" v="Lyvika" />
		<tag k="natural" v="bay" />
		<tag k="ssr:stedsnr" v="545459" />
	</node>
	<node id="-413931" lat="59.4620861125" lon="6.09463332649">
		<tag k="name" v="Ytra Buaneset" />
		<tag k="natural" v="cape" />
		<tag k="ssr:stedsnr" v="891593" />
	</node>
	<node id="-413930" lat="59.4752891697" lon="6.21775650286">
		<tag k="name" v="Kråkeholmen" />
		<tag k="place" v="islet" />
		<tag k="ssr:stedsnr" v="891592" />
	</node>
	<node id="-413928" lat="59.4011388906" lon="6.00420278482">
		<tag k="name" v="Selvikklubben" />
		<tag k="natural" v="cape" />
		<tag k="ssr:stedsnr" v="891033" />
	</node>
	<node id="-413927" lat="59.4432861132" lon="6.19091110909">
		<tag k="bay" v="fjord" />
		<tag k="name" v="Ryfylkefjordane" />
		<tag k="natural" v="bay" />
		<tag k="ssr:stedsnr" v="890767" />
	</node>
	<node id="-413926" lat="59.3266638862" lon="6.08422777589">
		<tag k="name" v="Barkaneset" />
		<tag k="natural" v="cape" />
		<tag k="ssr:stedsnr" v="889149" />
	</node>
	<node id="-418021" lat="59.3412805569" lon="6.21594167345">
		<tag k="name" v="Eie" />
		<tag k="place" v="locality" />
		<tag k="ssr:stedsnr" v="964977" />
	</node>
	<node id="-413924" lat="59.550125" lon="6.41935833398">
		<tag k="name" v="Bjerganeset" />
		<tag k="natural" v="cape" />
		<tag k="ssr:stedsnr" v="888540" />
	</node>
	<node id="-413923" lat="59.3428944483" lon="6.09961944334">
		<tag k="name" v="Stuvik" />
		<tag k="natural" v="bay" />
		<tag k="ssr:stedsnr" v="888089" />
	</node>
	<node id="-418017" lat="59.3537499965" lon="6.22639443771">
		<tag k="name" v="Vikeneset" />
		<tag k="natural" v="cape" />
		<tag k="ssr:stedsnr" v="964924" />
	</node>
	<node id="-418013" lat="59.4070083332" lon="6.01279721616">
		<tag k="name" v="Notaholmen" />
		<tag k="place" v="islet" />
		<tag k="ssr:stedsnr" v="964765" />
	</node>
	<node id="-418012" lat="59.4070166679" lon="6.0112083255">
		<tag k="name" v="Kjølvikstranda" />
		<tag k="natural" v="beach" />
		<tag k="place" v="locality" />
		<tag k="ssr:stedsnr" v="964761" />
	</node>
	<node id="-415098" lat="59.3452055534" lon="6.21713332769">
		<tag k="name" v="Erfjordvika" />
		<tag k="natural" v="bay" />
		<tag k="ssr:stedsnr" v="236992" />
	</node>
	<node id="-418009" lat="59.3856555538" lon="6.04950000846">
		<tag k="name" v="Gunnasund" />
		<tag k="natural" v="strait" />
		<tag k="ssr:stedsnr" v="964739" />
	</node>
	<node id="-413906" lat="59.3389861151" lon="5.95550277368">
		<tag k="name" v="Nordnesvika" />
		<tag k="natural" v="bay" />
		<tag k="ssr:stedsnr" v="479134" />
	</node>
	<node id="-418001" lat="59.3339722222" lon="5.95663610518">
		<tag k="name" v="Høllarvika" />
		<tag k="natural" v="bay" />
		<tag k="ssr:stedsnr" v="964389" />
	</node>
	<node id="-417997" lat="59.3574583331" lon="5.97382221965">
		<tag k="name" v="Litlanes" />
		<tag k="natural" v="cape" />
		<tag k="ssr:stedsnr" v="964173" />
	</node>
	<node id="-417996" lat="59.3770333314" lon="6.00551943808">
		<tag k="name" v="Geitaneset" />
		<tag k="natural" v="cape" />
		<tag k="ssr:stedsnr" v="964153" />
	</node>
	<node id="-417995" lat="59.3388805584" lon="5.9544027814">
		<tag k="name" v="Nordnes" />
		<tag k="natural" v="cape" />
		<tag k="ssr:stedsnr" v="964150" />
	</node>
	<node id="-413893" lat="59.335152774" lon="5.95292499752">
		<tag k="name" v="Storavika" />
		<tag k="natural" v="bay" />
		<tag k="ssr:stedsnr" v="479369" />
	</node>
	<node id="-413892" lat="59.4512444423" lon="6.03924722641">
		<tag k="fixme" v="consider seamark:type=rock or natural=shoal" />
		<tag k="name" v="Stuvikskjeret" />
		<tag k="place" v="islet" />
		<tag k="ssr:stedsnr" v="479350" />
	</node>
	<node id="-417985" lat="59.4556527822" lon="6.18650555212">
		<tag k="name" v="Ørevika" />
		<tag k="natural" v="bay" />
		<tag k="ssr:stedsnr" v="964015" />
	</node>
	<node id="-413881" lat="59.4271666694" lon="6.17268333435">
		<tag k="alt_name" v="Øyna;Øynå" />
		<tag k="name" v="Nevøyna" />
		<tag k="place" v="island" />
		<tag k="ssr:stedsnr" v="245347" />
	</node>
	<node id="-413879" lat="59.4511000038" lon="6.18105000464">
		<tag k="alt_name" v="Djupavik" />
		<tag k="name" v="Djupavika" />
		<tag k="natural" v="bay" />
		<tag k="ssr:stedsnr" v="245329" />
	</node>
	<node id="-413878" lat="59.4517999961" lon="5.92610000546">
		<tag k="name" v="Husvika" />
		<tag k="natural" v="bay" />
		<tag k="ssr:stedsnr" v="245316" />
	</node>
	<node id="-413876" lat="59.4679833301" lon="6.12928056104">
		<tag k="name" v="Kalvhagneset" />
		<tag k="natural" v="cape" />
		<tag k="ssr:stedsnr" v="405606" />
	</node>
	<node id="-413875" lat="59.472572218" lon="6.15703889428">
		<tag k="name" v="Andvikneset" />
		<tag k="natural" v="cape" />
		<tag k="ssr:stedsnr" v="405604" />
	</node>
	<node id="-413874" lat="59.4770000045" lon="6.19728611624">
		<tag k="name" v="Stigavika" />
		<tag k="natural" v="bay" />
		<tag k="ssr:stedsnr" v="405599" />
	</node>
	<node id="-413873" lat="59.3602580298" lon="5.97506820328">
		<tag k="fixme" v="multiple name tags, choose one and add the other to alt_name" />
		<tag k="name" v="Skorneset;Skår" />
		<tag k="natural" v="cape" />
		<tag k="ssr:stedsnr" v="405379" />
	</node>
	<node id="-417968" lat="59.3648750031" lon="6.04016110411">
		<tag k="name" v="Giljaneset" />
		<tag k="natural" v="cape" />
		<tag k="ssr:stedsnr" v="951196" />
	</node>
	<node id="-413871" lat="59.4026416638" lon="6.02468888605">
		<tag k="name" v="Djupedalsneset" />
		<tag k="natural" v="cape" />
		<tag k="ssr:stedsnr" v="405026" />
	</node>
	<node id="-415918" lat="59.3494805596" lon="6.21704723011">
		<tag k="name" v="Surnavika" />
		<tag k="natural" v="bay" />
		<tag k="ssr:stedsnr" v="540986" />
	</node>
	<node id="-413869" lat="59.3891499973" lon="6.21997777937">
		<tag k="name" v="Sørhusvik" />
		<tag k="natural" v="bay" />
		<tag k="ssr:stedsnr" v="403806" />
	</node>
	<node id="-413868" lat="59.5455083349" lon="6.38771944724">
		<tag k="name" v="Ørlandsneset" />
		<tag k="natural" v="cape" />
		<tag k="ssr:stedsnr" v="403574" />
	</node>
	<node id="-413867" lat="59.3435916641" lon="6.08126388176">
		<tag k="name" v="Bergavika" />
		<tag k="natural" v="bay" />
		<tag k="ssr:stedsnr" v="403131" />
	</node>
	<node id="-413544" lat="59.3162861138" lon="6.27121110686">
		<tag k="alt_name" v="Kjilaneset" />
		<tag k="name" v="Kilaneset" />
		<tag k="natural" v="cape" />
		<tag k="ssr:stedsnr" v="306978" />
	</node>
	<node id="-415903" lat="59.4098000045" lon="6.01468333655">
		<tag k="name" v="Djupevik" />
		<tag k="natural" v="bay" />
		<tag k="ssr:stedsnr" v="540785" />
	</node>
	<node id="-415890" lat="59.4103646621" lon="6.08603431033">
		<tag k="name" v="Fetavika" />
		<tag k="natural" v="bay" />
		<tag k="ssr:stedsnr" v="540567" />
	</node>
	<node id="-417936" lat="59.5393750008" lon="6.35970833726">
		<tag k="alt_name" v="Ullsnes, in" />
		<tag k="name" v="Indra Ullsnes" />
		<tag k="natural" v="cape" />
		<tag k="ssr:stedsnr" v="914164" />
	</node>
	<node id="-415887" lat="59.4150388912" lon="6.20791110983">
		<tag k="name" v="Kuneset" />
		<tag k="natural" v="cape" />
		<tag k="ssr:stedsnr" v="540507" />
	</node>
	<node id="-415881" lat="59.3280583335" lon="6.10115000843">
		<tag k="name" v="Naustaberget" />
		<tag k="natural" v="cape" />
		<tag k="ssr:stedsnr" v="540414" />
	</node>
	<node id="-415879" lat="59.3283749976" lon="6.08517222478">
		<tag k="name" v="Kaldveta" />
		<tag k="natural" v="bay" />
		<tag k="ssr:stedsnr" v="540403" />
	</node>
	<node id="-416790" lat="59.3950666647" lon="6.06707499305">
		<tag k="bay" v="fjord" />
		<tag k="name" v="Norefjorden" />
		<tag k="natural" v="bay" />
		<tag k="ssr:stedsnr" v="722198" />
	</node>
	<node id="-415873" lat="59.4474583301" lon="5.9423805494">
		<tag k="name" v="Jektavika" />
		<tag k="natural" v="bay" />
		<tag k="ssr:stedsnr" v="540321" />
	</node>
	<node id="-415872" lat="59.4471916665" lon="5.94716943619">
		<tag k="alt_name" v="Kobbaskjer" />
		<tag k="fixme" v="consider seamark:type=rock or natural=shoal" />
		<tag k="name" v="Ilageskjer" />
		<tag k="place" v="islet" />
		<tag k="ssr:stedsnr" v="540319" />
	</node>
	<node id="-415868" lat="59.3095305525" lon="6.2696083354">
		<tag k="name" v="Søra Tåvikneset" />
		<tag k="natural" v="cape" />
		<tag k="ssr:stedsnr" v="540285" />
	</node>
	<node id="-415867" lat="59.3324305527" lon="6.23318055787">
		<tag k="name" v="Jeljavika" />
		<tag k="natural" v="bay" />
		<tag k="ssr:stedsnr" v="540253" />
	</node>
	<node id="-415865" lat="59.4572472253" lon="6.06306388033">
		<tag k="name" v="Kappelbergvika" />
		<tag k="natural" v="bay" />
		<tag k="ssr:stedsnr" v="540236" />
	</node>
	<node id="-415862" lat="59.3495000021" lon="6.10127221944">
		<tag k="name" v="Kvednavika" />
		<tag k="natural" v="bay" />
		<tag k="ssr:stedsnr" v="540222" />
	</node>
	<node id="-417907" lat="59.366772225" lon="5.98058056091">
		<tag k="alt_name" v="Kålhammaren" />
		<tag k="name" v="Kolhammar" />
		<tag k="natural" v="cape" />
		<tag k="ssr:stedsnr" v="913452" />
	</node>
	<node id="-413810" lat="59.3112444466" lon="6.25728610459">
		<tag k="alt_name" v="Ruttnes" />
		<tag k="name" v="Rotnes" />
		<tag k="natural" v="cape" />
		<tag k="ssr:stedsnr" v="366963" />
	</node>
	<node id="-413808" lat="59.334952775" lon="6.24603611326">
		<tag k="name" v="Råsavika" />
		<tag k="natural" v="bay" />
		<tag k="ssr:stedsnr" v="366853" />
	</node>
	<node id="-413807" lat="59.3281194478" lon="6.23579721753">
		<tag k="name" v="Sjoarvika" />
		<tag k="natural" v="bay" />
		<tag k="ssr:stedsnr" v="366850" />
	</node>
	<node id="-415854" lat="59.6538999978" lon="6.8521555518">
		<tag k="name" v="Skivik" />
		<tag k="natural" v="bay" />
		<tag k="ssr:stedsnr" v="540107" />
	</node>
	<node id="-415853" lat="59.4436722185" lon="6.21490277105">
		<tag k="name" v="Tongavika" />
		<tag k="natural" v="bay" />
		<tag k="ssr:stedsnr" v="540079" />
	</node>
	<node id="-415851" lat="59.3597694484" lon="6.20110277714">
		<tag k="name" v="Strannå" />
		<tag k="natural" v="cape" />
		<tag k="ssr:stedsnr" v="540019" />
	</node>
	<node id="-415849" lat="59.4533972226" lon="5.93045833801">
		<tag k="alt_name" v="Dragnes" />
		<tag k="name" v="Dragneset" />
		<tag k="natural" v="cape" />
		<tag k="ssr:stedsnr" v="539783" />
	</node>
	<node id="-417895" lat="59.4489694456" lon="5.91494167302">
		<tag k="alt_name" v="Krokenes" />
		<tag k="name" v="Kråkenes" />
		<tag k="natural" v="cape" />
		<tag k="ssr:stedsnr" v="913315" />
	</node>
	<node id="-417893" lat="59.4636083326" lon="6.10204165931">
		<tag k="alt_name" v="Buaneset" />
		<tag k="name" v="Indra Buaneset" />
		<tag k="natural" v="cape" />
		<tag k="ssr:stedsnr" v="913310" />
	</node>
	<node id="-417890" lat="59.526099996" lon="6.36965555725">
		<tag k="alt_name" v="Flåtneset" />
		<tag k="name" v="Flotneset" />
		<tag k="natural" v="cape" />
		<tag k="ssr:stedsnr" v="913173" />
	</node>
	<node id="-415836" lat="59.4549416701" lon="6.04893334032">
		<tag k="name" v="Torsteinbøvika" />
		<tag k="natural" v="bay" />
		<tag k="ssr:stedsnr" v="539305" />
	</node>
	<node id="-415833" lat="59.3553638895" lon="5.95488055037">
		<tag k="name" v="Sauastranda" />
		<tag k="natural" v="beach" />
		<tag k="place" v="locality" />
		<tag k="ssr:stedsnr" v="539122" />
	</node>
	<node id="-415824" lat="59.5554944462" lon="6.56543054873">
		<tag k="alt_name" v="Kvitanes" />
		<tag k="name" v="Kvitaneset" />
		<tag k="natural" v="cape" />
		<tag k="ssr:stedsnr" v="526616" />
	</node>
	<node id="-417871" lat="59.3435361076" lon="6.22665833821">
		<tag k="name" v="Erfjordholmen" />
		<tag k="place" v="islet" />
		<tag k="ssr:stedsnr" v="912923" />
	</node>
	<node id="-413774" lat="59.3369000012" lon="5.97243333092">
		<tag k="alt_name" v="Foldøy" />
		<tag k="name" v="Foldøyna" />
		<tag k="place" v="island" />
		<tag k="ssr:stedsnr" v="366566" />
	</node>
	<node id="-415820" lat="59.3650138858" lon="6.10956110274">
		<tag k="name" v="Sundet" />
		<tag k="natural" v="strait" />
		<tag k="ssr:stedsnr" v="524756" />
	</node>
	<node id="-415819" lat="59.3948861127" lon="6.04355277692">
		<tag k="name" v="Skorpesundet" />
		<tag k="natural" v="strait" />
		<tag k="ssr:stedsnr" v="524065" />
	</node>
	<node id="-415818" lat="59.4045638908" lon="6.07628332673">
		<tag k="name" v="Bispen" />
		<tag k="natural" v="shoal" />
		<tag k="place" v="locality" />
		<tag k="ssr:stedsnr" v="524028" />
	</node>
	<node id="-415817" lat="59.4359694413" lon="5.92424166081">
		<tag k="fixme" v="consider seamark:type=rock or natural=shoal" />
		<tag k="name" v="Grotuskjeret" />
		<tag k="place" v="islet" />
		<tag k="ssr:stedsnr" v="522331" />
	</node>
	<node id="-413761" lat="59.3945500007" lon="6.08565000283">
		<tag k="name" v="Skreddarneset" />
		<tag k="natural" v="cape" />
		<tag k="ssr:stedsnr" v="366444" />
	</node>
	<node id="-415807" lat="59.420080555" lon="5.91773055602">
		<tag k="name" v="Vormestrandvika" />
		<tag k="natural" v="bay" />
		<tag k="ssr:stedsnr" v="502920" />
	</node>
	<node id="-413757" lat="59.4295329323" lon="6.17536116971">
		<tag k="alt_name" v="Breidavika" />
		<tag k="name" v="Breiavika" />
		<tag k="natural" v="bay" />
		<tag k="ssr:stedsnr" v="366377" />
	</node>
	<node id="-413756" lat="59.4285336427" lon="6.18032664821">
		<tag k="alt_name" v="Dyraleia" />
		<tag k="name" v="Dyralega" />
		<tag k="natural" v="bay" />
		<tag k="ssr:stedsnr" v="366375" />
	</node>
	<node id="-413747" lat="59.449100003" lon="5.94030000215">
		<tag k="alt_name" v="Mekjarvika" />
		<tag k="name" v="Mekjavika" />
		<tag k="natural" v="bay" />
		<tag k="ssr:stedsnr" v="366329" />
	</node>
	<node id="-415777" lat="59.3294749982" lon="6.18977499383">
		<tag k="name" v="Bogsholmen" />
		<tag k="place" v="islet" />
		<tag k="ssr:stedsnr" v="488497" />
	</node>
	<node id="-415758" lat="59.5316250025" lon="6.26157500406">
		<tag k="alt_name" v="Åsklubben" />
		<tag k="name" v="Klubben" />
		<tag k="natural" v="cape" />
		<tag k="ssr:stedsnr" v="488153" />
	</node>
</osm>
