<?xml version="1.0" encoding="UTF-8"?>
<osm version="0.6" generator="osmapis">
	<node lat="59.454191666769624" lon="6.264666665200531" id="-1544">
		<tag k="alt_name" v="Storemyra" />
		<tag k="name" v="Storemyr" />
		<tag k="natural" v="wetland" />
		<tag k="ssr:stedsnr" v="2725" />
	</node>
	<node lat="59.534558646298805" lon="6.832584458925019" id="-1565">
		<tag k="name" v="Kyrkjesteinen" />
		<tag k="natural" v="stone" />
		<tag k="ssr:stedsnr" v="3372" />
	</node>
	<node lat="59.455124998695005" lon="6.179561119169707" id="-1581">
		<tag k="name" v="Brakaflota" />
		<tag k="place" v="locality" />
		<tag k="ssr:stedsnr" v="236018" />
	</node>
	<node lat="59.432124999081985" lon="6.073586108046161" id="-1583">
		<tag k="name" v="Stemmyr" />
		<tag k="natural" v="wetland" />
		<tag k="ssr:stedsnr" v="236066" />
	</node>
	<node lat="59.339547224324825" lon="5.972655547760422" id="-1584">
		<tag k="name" v="Kjempesverda" />
		<tag k="natural" v="stone" />
		<tag k="ssr:stedsnr" v="236148" />
	</node>
	<node lat="59.3509305538032" lon="6.08279721426386" id="-1587">
		<tag k="name" v="Falkamyra" />
		<tag k="natural" v="wetland" />
		<tag k="ssr:stedsnr" v="236240" />
	</node>
	<node lat="59.42676110680949" lon="5.914036104285603" id="-1590">
		<tag k="landuse" v="meadow" />
		<tag k="name" v="Stølen" />
		<tag k="ssr:stedsnr" v="236316" />
	</node>
	<node lat="59.41454166696921" lon="5.922183327130808" id="-1601">
		<tag k="name" v="Flusteinen" />
		<tag k="natural" v="stone" />
		<tag k="ssr:stedsnr" v="39905" />
	</node>
	<node lat="59.54788055634514" lon="6.333913881221875" id="-1609">
		<tag k="landuse" v="meadow" />
		<tag k="name" v="Bulegdene" />
		<tag k="ssr:stedsnr" v="239163" />
	</node>
	<node lat="59.37417499606306" lon="6.3065083419162" id="-1637">
		<tag k="landuse" v="meadow" />
		<tag k="name" v="Bøen" />
		<tag k="ssr:stedsnr" v="55916" />
	</node>
	<node lat="59.664463892706465" lon="6.892583339390321" id="-1647">
		<tag k="historic" v="shieling" />
		<tag k="name" v="Litlestøl" />
		<tag k="place" v="locality" />
		<tag k="ssr:stedsnr" v="60121" />
	</node>
	<node lat="59.54912499703259" lon="6.520038887452751" id="-1650">
		<tag k="name" v="Hadlesteinen" />
		<tag k="natural" v="stone" />
		<tag k="ssr:stedsnr" v="60076" />
	</node>
	<node lat="59.46723333188325" lon="6.486977774053106" id="-1671">
		<tag k="historic" v="shieling" />
		<tag k="name" v="Brønnstøl" />
		<tag k="place" v="locality" />
		<tag k="ssr:stedsnr" v="60993" />
	</node>
	<node lat="59.480672219518155" lon="6.3540499916464865" id="-1736">
		<tag k="historic" v="shieling" />
		<tag k="name" v="Juvastølen" />
		<tag k="place" v="locality" />
		<tag k="ssr:stedsnr" v="242894" />
	</node>
	<node lat="59.68844167008399" lon="6.956388892601079" id="-1756">
		<tag k="name" v="Hestasteinen" />
		<tag k="natural" v="stone" />
		<tag k="ssr:stedsnr" v="242557" />
	</node>
	<node lat="59.50583611303357" lon="6.561888885276072" id="-1764">
		<tag k="landuse" v="meadow" />
		<tag k="name" v="Gamlatveit" />
		<tag k="ssr:stedsnr" v="242728" />
	</node>
	<node lat="59.48723333522087" lon="6.5770249916437855" id="-1768">
		<tag k="name" v="Stora Myro" />
		<tag k="natural" v="wetland" />
		<tag k="ssr:stedsnr" v="242736" />
	</node>
	<node lat="59.64677777366033" lon="6.852291663522767" id="-1855">
		<tag k="name" v="Kalvikurene" />
		<tag k="natural" v="scree" />
		<tag k="ssr:stedsnr" v="115129" />
	</node>
	<node lat="59.65313888458205" lon="6.897127770837191" id="-1858">
		<tag k="landuse" v="meadow" />
		<tag k="name" v="Kvamen" />
		<tag k="ssr:stedsnr" v="115095" />
	</node>
	<node lat="59.39579999544378" lon="5.996269437478755" id="-1875">
		<tag k="name" v="Torvmyra" />
		<tag k="natural" v="wetland" />
		<tag k="ssr:stedsnr" v="115727" />
	</node>
	<node lat="59.396597225414105" lon="5.9918472274312204" id="-1877">
		<tag k="name" v="Flaten" />
		<tag k="natural" v="wetland" />
		<tag k="ssr:stedsnr" v="115735" />
	</node>
	<node lat="59.370877780300574" lon="6.297950001860636" id="-1880">
		<tag k="landuse" v="meadow" />
		<tag k="name" v="Skorpheimyra" />
		<tag k="ssr:stedsnr" v="115904" />
	</node>
	<node lat="59.44901388552594" lon="6.309397220273355" id="-1881">
		<tag k="historic" v="shieling" />
		<tag k="name" v="Torgåstøl" />
		<tag k="place" v="locality" />
		<tag k="ssr:stedsnr" v="115676" />
	</node>
	<node lat="59.45748333334704" lon="6.378613887843855" id="-1896">
		<tag k="name" v="Krossøy" />
		<tag k="place" v="locality" />
		<tag k="ssr:stedsnr" v="120170" />
	</node>
	<node lat="59.37549166851171" lon="6.4701083295455595" id="-1903">
		<tag k="name" v="Fiskestiura" />
		<tag k="natural" v="scree" />
		<tag k="ssr:stedsnr" v="120283" />
	</node>
	<node lat="59.48159444515777" lon="6.544438891008024" id="-1912">
		<tag k="name" v="Kvednur" />
		<tag k="natural" v="scree" />
		<tag k="ssr:stedsnr" v="120778" />
	</node>
	<node lat="59.48867500401888" lon="6.474255555563524" id="-1916">
		<tag k="landuse" v="meadow" />
		<tag k="name" v="Stono" />
		<tag k="ssr:stedsnr" v="120933" />
	</node>
	<node lat="59.64421666230013" lon="6.803977782613359" id="-1922">
		<tag k="name" v="Nesflaten" />
		<tag k="place" v="locality" />
		<tag k="ssr:stedsnr" v="121665" />
	</node>
	<node lat="59.48234444121018" lon="6.591469451131324" id="-1925">
		<tag k="name" v="Løkjeslåtto" />
		<tag k="natural" v="wetland" />
		<tag k="ssr:stedsnr" v="121812" />
	</node>
	<node lat="59.51436388796349" lon="6.333905552542856" id="-1953">
		<tag k="name" v="Teigane" />
		<tag k="place" v="locality" />
		<tag k="ssr:stedsnr" v="124121" />
	</node>
	<node lat="59.44765000326255" lon="6.241905546518122" id="-1986">
		<tag k="name" v="Longemyr" />
		<tag k="natural" v="wetland" />
		<tag k="ssr:stedsnr" v="175023" />
	</node>
	<node lat="59.340619443200225" lon="6.251191665606037" id="-1992">
		<tag k="name" v="Osnesmyrane" />
		<tag k="natural" v="wetland" />
		<tag k="ssr:stedsnr" v="175916" />
	</node>
	<node lat="59.44310833314555" lon="6.211597214724518" id="-1994">
		<tag k="name" v="Fedlevikflotene" />
		<tag k="place" v="locality" />
		<tag k="ssr:stedsnr" v="176072" />
	</node>
	<node lat="59.42154721913921" lon="5.967608333433765" id="-2006">
		<tag k="name" v="Simonsdalsbrotet" />
		<tag k="place" v="locality" />
		<tag k="ssr:stedsnr" v="176805" />
	</node>
	<node lat="59.33848888928031" lon="6.296619437836354" id="-2007">
		<tag k="historic" v="shieling" />
		<tag k="name" v="Kleppstøl" />
		<tag k="place" v="locality" />
		<tag k="ssr:stedsnr" v="176812" />
	</node>
	<node lat="59.34139999910218" lon="6.313133338137329" id="-2009">
		<tag k="name" v="Boglandsmyrane" />
		<tag k="natural" v="wetland" />
		<tag k="ssr:stedsnr" v="176819" />
	</node>
	<node lat="59.376397221460365" lon="6.308444437221799" id="-2010">
		<tag k="landuse" v="meadow" />
		<tag k="name" v="Kalhagen" />
		<tag k="ssr:stedsnr" v="176868" />
	</node>
	<node lat="59.52153888625333" lon="6.228444443190737" id="-2015">
		<tag k="name" v="Skogastykket" />
		<tag k="place" v="locality" />
		<tag k="ssr:stedsnr" v="178160" />
	</node>
	<node lat="59.61719722333011" lon="6.799783338061638" id="-2016">
		<tag k="name" v="Lågastein" />
		<tag k="natural" v="stone" />
		<tag k="ssr:stedsnr" v="178305" />
	</node>
	<node lat="59.55567500034183" lon="6.346430546883094" id="-2017">
		<tag k="name" v="Storamyr" />
		<tag k="natural" v="wetland" />
		<tag k="ssr:stedsnr" v="178520" />
	</node>
	<node lat="59.45773888701107" lon="6.60710834139965" id="-2022">
		<tag k="historic" v="shieling" />
		<tag k="name" v="Trollkonestølen" />
		<tag k="place" v="locality" />
		<tag k="ssr:stedsnr" v="181117" />
	</node>
	<node lat="59.612247225156175" lon="6.759441658692772" id="-2029">
		<tag k="historic" v="shieling" />
		<tag k="name" v="Røynevardstølen" />
		<tag k="place" v="locality" />
		<tag k="ssr:stedsnr" v="181409" />
	</node>
	<node lat="59.69380833322976" lon="6.776047223297002" id="-2042">
		<tag k="name" v="Revasteinane" />
		<tag k="natural" v="stone" />
		<tag k="ssr:stedsnr" v="182930" />
	</node>
	<node lat="59.512358337081395" lon="6.663936109356752" id="-2080">
		<tag k="name" v="Kløvsmarka" />
		<tag k="place" v="locality" />
		<tag k="ssr:stedsnr" v="185380" />
	</node>
	<node lat="59.35925555106845" lon="6.083824995078929" id="-2118">
		<tag k="name" v="Poflot" />
		<tag k="place" v="locality" />
		<tag k="ssr:stedsnr" v="236194" />
	</node>
	<node lat="59.33571666328773" lon="6.079144439564554" id="-2124">
		<tag k="name" v="Vågamyra" />
		<tag k="natural" v="wetland" />
		<tag k="ssr:stedsnr" v="236380" />
	</node>
	<node lat="59.39080833459011" lon="5.998066674871966" id="-2125">
		<tag k="landuse" v="meadow" />
		<tag k="name" v="Øykhagen" />
		<tag k="ssr:stedsnr" v="236730" />
	</node>
	<node lat="59.3719638933736" lon="6.328794449231597" id="-2127">
		<tag k="historic" v="shieling" />
		<tag k="name" v="Helgelandsstølen" />
		<tag k="place" v="locality" />
		<tag k="ssr:stedsnr" v="236885" />
	</node>
	<node lat="59.495705557095455" lon="6.28187777425273" id="-2137">
		<tag k="name" v="Eidsleitet" />
		<tag k="place" v="locality" />
		<tag k="ssr:stedsnr" v="239111" />
	</node>
	<node lat="59.482605555184115" lon="6.298116657969385" id="-2155">
		<tag k="name" v="Mosmyra" />
		<tag k="natural" v="wetland" />
		<tag k="ssr:stedsnr" v="245641" />
	</node>
	<node lat="59.42636389172059" lon="6.125613882268405" id="-2204">
		<tag k="name" v="Slettå" />
		<tag k="place" v="locality" />
		<tag k="ssr:stedsnr" v="297129" />
	</node>
	<node lat="59.554122218265256" lon="6.417016661462869" id="-2214">
		<tag k="name" v="Halvardsteinen" />
		<tag k="natural" v="stone" />
		<tag k="ssr:stedsnr" v="297524" />
	</node>
	<node lat="59.45899166879066" lon="6.316544452523259" id="-2220">
		<tag k="name" v="Kjellarmyra" />
		<tag k="natural" v="wetland" />
		<tag k="ssr:stedsnr" v="297727" />
	</node>
	<node lat="59.404608330942565" lon="5.994061110232023" id="-2225">
		<tag k="name" v="To" />
		<tag k="place" v="locality" />
		<tag k="ssr:stedsnr" v="297799" />
	</node>
	<node lat="59.450880553313006" lon="6.3399694423923885" id="-2245">
		<tag k="name" v="Øvra Pøylo" />
		<tag k="natural" v="wetland" />
		<tag k="ssr:stedsnr" v="302203" />
	</node>
	<node lat="59.45319166863412" lon="6.343599993065832" id="-2247">
		<tag k="name" v="Nedra Pøylo" />
		<tag k="natural" v="wetland" />
		<tag k="ssr:stedsnr" v="302207" />
	</node>
	<node lat="59.443997219971735" lon="5.961555556512252" id="-2339">
		<tag k="landuse" v="meadow" />
		<tag k="name" v="Kringlå" />
		<tag k="ssr:stedsnr" v="357250" />
	</node>
	<node lat="59.54717500030369" lon="6.3394194522155995" id="-2350">
		<tag k="name" v="Storemyr" />
		<tag k="natural" v="wetland" />
		<tag k="ssr:stedsnr" v="358763" />
	</node>
	<node lat="59.64836944064211" lon="6.8148499986305655" id="-2373">
		<tag k="name" v="Kilen" />
		<tag k="place" v="locality" />
		<tag k="ssr:stedsnr" v="363610" />
	</node>
	<node lat="59.64875000210382" lon="6.93243333087837" id="-2423">
		<tag k="name" v="Åsamyro" />
		<tag k="natural" v="wetland" />
		<tag k="ssr:stedsnr" v="479049" />
	</node>
	<node lat="59.440355551357584" lon="6.210163885843097" id="-2425">
		<tag k="name" v="Longemyr" />
		<tag k="natural" v="wetland" />
		<tag k="ssr:stedsnr" v="479054" />
	</node>
	<node lat="59.44636666773043" lon="6.050333328017881" id="-2434">
		<tag k="name" v="Askaflota" />
		<tag k="place" v="locality" />
		<tag k="ssr:stedsnr" v="479265" />
	</node>
	<node lat="59.428797223849074" lon="5.939461107742345" id="-2441">
		<tag k="name" v="Romerike" />
		<tag k="natural" v="scree" />
		<tag k="ssr:stedsnr" v="479283" />
	</node>
	<node lat="59.408480552642914" lon="6.072225004039764" id="-2448">
		<tag k="name" v="Slåttå" />
		<tag k="place" v="locality" />
		<tag k="ssr:stedsnr" v="479578" />
	</node>
	<node lat="59.492408330161" lon="6.369333326863249" id="-2476">
		<tag k="historic" v="shieling" />
		<tag k="name" v="Hedlestølen" />
		<tag k="place" v="locality" />
		<tag k="ssr:stedsnr" v="484077" />
	</node>
	<node lat="59.458852776692616" lon="6.381913892432025" id="-2480">
		<tag k="name" v="Storur" />
		<tag k="natural" v="scree" />
		<tag k="ssr:stedsnr" v="484137" />
	</node>
	<node lat="59.45625833605937" lon="6.386033333699286" id="-2481">
		<tag k="name" v="Lamøy" />
		<tag k="place" v="locality" />
		<tag k="ssr:stedsnr" v="484141" />
	</node>
	<node lat="59.487769445190416" lon="6.564233328764348" id="-2494">
		<tag k="name" v="Øvre Tjordalsmoen" />
		<tag k="natural" v="wetland" />
		<tag k="ssr:stedsnr" v="484743" />
	</node>
	<node lat="59.47555000310558" lon="6.350919448794229" id="-2498">
		<tag k="name" v="Austmannsteinane" />
		<tag k="natural" v="stone" />
		<tag k="ssr:stedsnr" v="484896" />
	</node>
	<node lat="59.608669447463626" lon="6.743619448836322" id="-2506">
		<tag k="historic" v="shieling" />
		<tag k="name" v="Falkalistølen" />
		<tag k="place" v="locality" />
		<tag k="ssr:stedsnr" v="485331" />
	</node>
	<node lat="59.37531111123666" lon="6.369644438678721" id="-2537">
		<tag k="alt_name" v="Suggebermyrane" />
		<tag k="name" v="Suggemyrane" />
		<tag k="natural" v="wetland" />
		<tag k="ssr:stedsnr" v="487881" />
	</node>
	<node lat="59.72738611405004" lon="7.002411102149378" id="-2569">
		<tag k="name" v="Gråa Ura" />
		<tag k="natural" v="scree" />
		<tag k="ssr:stedsnr" v="488372" />
	</node>
	<node lat="59.3457027811555" lon="6.1217416703715575" id="-2571">
		<tag k="historic" v="shieling" />
		<tag k="name" v="Åslandstølen" />
		<tag k="place" v="locality" />
		<tag k="ssr:stedsnr" v="418006" />
	</node>
	<node lat="59.44317499922335" lon="5.9583305592013645" id="-2578">
		<tag k="name" v="Træ" />
		<tag k="place" v="locality" />
		<tag k="ssr:stedsnr" v="418237" />
	</node>
	<node lat="59.40925555348425" lon="5.988308330502818" id="-2587">
		<tag k="historic" v="shieling" />
		<tag k="name" v="Gamlestølen" />
		<tag k="place" v="locality" />
		<tag k="ssr:stedsnr" v="418798" />
	</node>
	<node lat="59.377091669972884" lon="6.290763889317941" id="-2599">
		<tag k="name" v="Storops" />
		<tag k="place" v="locality" />
		<tag k="ssr:stedsnr" v="419903" />
	</node>
	<node lat="59.49860833103001" lon="6.198905554529996" id="-2607">
		<tag k="name" v="Slåttemyra" />
		<tag k="natural" v="wetland" />
		<tag k="ssr:stedsnr" v="421342" />
	</node>
	<node lat="59.50053333055544" lon="6.576636102895741" id="-2640">
		<tag k="name" v="Holmane" />
		<tag k="natural" v="wetland" />
		<tag k="ssr:stedsnr" v="424743" />
	</node>
	<node lat="59.50047499779839" lon="6.603799991576518" id="-2668">
		<tag k="name" v="Skogen" />
		<tag k="place" v="locality" />
		<tag k="ssr:stedsnr" v="428369" />
	</node>
	<node lat="59.56041944378034" lon="6.301866663122917" id="-2671">
		<tag k="name" v="Nordskog" />
		<tag k="place" v="locality" />
		<tag k="ssr:stedsnr" v="428879" />
	</node>
	<node lat="59.47810555926609" lon="6.2463638964963355" id="-2708">
		<tag k="name" v="Strilasetet" />
		<tag k="place" v="locality" />
		<tag k="ssr:stedsnr" v="479479" />
	</node>
	<node lat="59.48588611379353" lon="6.320222214546884" id="-2720">
		<tag k="name" v="Hetleflotene" />
		<tag k="place" v="locality" />
		<tag k="ssr:stedsnr" v="481018" />
	</node>
	<node lat="59.6222277743455" lon="6.975202779362118" id="-2754">
		<tag k="name" v="Grene" />
		<tag k="natural" v="wetland" />
		<tag k="ssr:stedsnr" v="485320" />
	</node>
	<node lat="59.682058335731924" lon="6.814008336577446" id="-2757">
		<tag k="name" v="Uredne" />
		<tag k="natural" v="scree" />
		<tag k="ssr:stedsnr" v="485465" />
	</node>
	<node lat="59.432966670953256" lon="6.059455547015365" id="-2824">
		<tag k="name" v="Utlehagen" />
		<tag k="place" v="locality" />
		<tag k="ssr:stedsnr" v="540109" />
	</node>
	<node lat="59.3373750020855" lon="6.083838883312342" id="-2832">
		<tag k="name" v="Storamyra" />
		<tag k="natural" v="wetland" />
		<tag k="ssr:stedsnr" v="540221" />
	</node>
	<node lat="59.41321389220686" lon="6.114847224483918" id="-2842">
		<tag k="name" v="Spøneflota" />
		<tag k="place" v="locality" />
		<tag k="ssr:stedsnr" v="540587" />
	</node>
	<node lat="59.439719446649555" lon="6.31435000532846" id="-2848">
		<tag k="name" v="Vasstølsmyrane" />
		<tag k="natural" v="wetland" />
		<tag k="ssr:stedsnr" v="540683" />
	</node>
	<node lat="59.507075002482246" lon="6.289022228024963" id="-2856">
		<tag k="name" v="Liaskog" />
		<tag k="place" v="locality" />
		<tag k="ssr:stedsnr" v="542113" />
	</node>
	<node lat="59.47941388666708" lon="6.315649999772573" id="-2859">
		<tag k="name" v="Vargaskor" />
		<tag k="place" v="locality" />
		<tag k="ssr:stedsnr" v="542018" />
	</node>
	<node lat="59.41371110743852" lon="6.370999991964225" id="-2882">
		<tag k="name" v="Skipur" />
		<tag k="natural" v="scree" />
		<tag k="ssr:stedsnr" v="545326" />
	</node>
	<node lat="59.56606388568293" lon="6.635822216097709" id="-2893">
		<tag k="name" v="Steinaløypet" />
		<tag k="natural" v="scree" />
		<tag k="ssr:stedsnr" v="545604" />
	</node>
	<node lat="59.41230833619656" lon="6.236955554855523" id="-2976">
		<tag k="name" v="Rødstølen" />
		<tag k="place" v="locality" />
		<tag k="ssr:stedsnr" v="600503" />
	</node>
	<node lat="59.547069444981496" lon="6.3174861062569505" id="-2991">
		<tag k="name" v="Nuturane" />
		<tag k="natural" v="scree" />
		<tag k="ssr:stedsnr" v="602152" />
	</node>
	<node lat="59.50459166362524" lon="6.160672226104362" id="-2992">
		<tag k="name" v="Sellandskora" />
		<tag k="place" v="locality" />
		<tag k="ssr:stedsnr" v="602663" />
	</node>
	<node lat="59.503275001708886" lon="6.367675000288934" id="-2994">
		<tag k="historic" v="shieling" />
		<tag k="name" v="Augnastøl" />
		<tag k="place" v="locality" />
		<tag k="ssr:stedsnr" v="605102" />
	</node>
	<node lat="59.36530000221182" lon="6.4289944482968915" id="-2998">
		<tag k="name" v="Djupemyr" />
		<tag k="natural" v="wetland" />
		<tag k="ssr:stedsnr" v="605316" />
	</node>
	<node lat="59.32114999891013" lon="6.146355560063811" id="-3103">
		<tag k="name" v="Blautamyra" />
		<tag k="natural" v="wetland" />
		<tag k="ssr:stedsnr" v="661410" />
	</node>
	<node lat="59.39518332965439" lon="6.169552783153426" id="-3105">
		<tag k="name" v="Stølsle" />
		<tag k="place" v="locality" />
		<tag k="ssr:stedsnr" v="661481" />
	</node>
	<node lat="59.39696111229751" lon="6.4403722241842125" id="-3120">
		<tag k="historic" v="shieling" />
		<tag k="name" v="Bundingsstøl" />
		<tag k="place" v="locality" />
		<tag k="ssr:stedsnr" v="666334" />
	</node>
	<node lat="59.489008329770556" lon="6.557397226521562" id="-3130">
		<tag k="name" v="Brotet" />
		<tag k="natural" v="wetland" />
		<tag k="ssr:stedsnr" v="666733" />
	</node>
	<node lat="59.50740555690282" lon="6.573263894920739" id="-3131">
		<tag k="name" v="Kallhagen" />
		<tag k="place" v="locality" />
		<tag k="ssr:stedsnr" v="666736" />
	</node>
	<node lat="59.39453055460558" lon="5.996222220883091" id="-3227">
		<tag k="historic" v="shieling" />
		<tag k="name" v="Bøgdastølen" />
		<tag k="place" v="locality" />
		<tag k="ssr:stedsnr" v="722780" />
	</node>
	<node lat="59.554880557435204" lon="6.367255549481432" id="-3229">
		<tag k="name" v="Stakkstongmyrane" />
		<tag k="natural" v="wetland" />
		<tag k="ssr:stedsnr" v="724505" />
	</node>
	<node lat="59.50302221786296" lon="6.64749721792419" id="-3246">
		<tag k="name" v="Samyro" />
		<tag k="natural" v="wetland" />
		<tag k="ssr:stedsnr" v="727820" />
	</node>
	<node lat="59.47873611399079" lon="6.418891661697836" id="-3251">
		<tag k="landuse" v="meadow" />
		<tag k="name" v="Hetleflåto" />
		<tag k="ssr:stedsnr" v="727979" />
	</node>
	<node lat="59.42168611015768" lon="6.232308328112737" id="-3275">
		<tag k="historic" v="shieling" />
		<tag k="name" v="Ersdalsstølen" />
		<tag k="place" v="locality" />
		<tag k="ssr:stedsnr" v="730818" />
	</node>
	<node lat="59.48633889066774" lon="6.302044438328821" id="-3301">
		<tag k="alt_name" v="Mosurane" />
		<tag k="name" v="Mosurdane" />
		<tag k="natural" v="scree" />
		<tag k="ssr:stedsnr" v="731624" />
	</node>
	<node lat="59.31815277963228" lon="6.278372229250412" id="-3336">
		<tag k="name" v="Kobura" />
		<tag k="natural" v="scree" />
		<tag k="ssr:stedsnr" v="904297" />
	</node>
	<node lat="59.431377774855044" lon="6.017524991768828" id="-3364">
		<tag k="landuse" v="meadow" />
		<tag k="name" v="Skjenet" />
		<tag k="ssr:stedsnr" v="906186" />
	</node>
	<node lat="59.50301388782364" lon="6.618233337723547" id="-3373">
		<tag k="name" v="Vegmyro" />
		<tag k="natural" v="wetland" />
		<tag k="ssr:stedsnr" v="969816" />
	</node>
	<node lat="59.45824722297582" lon="6.3598472181460455" id="-3384">
		<tag k="landuse" v="meadow" />
		<tag k="name" v="Risøy" />
		<tag k="ssr:stedsnr" v="909183" />
	</node>
	<node lat="59.37650833682547" lon="6.327363892925842" id="-3421">
		<tag k="name" v="Skarpeskotland" />
		<tag k="place" v="locality" />
		<tag k="ssr:stedsnr" v="782861" />
	</node>
	<node lat="59.59832222521098" lon="6.92803611923305" id="-3433">
		<tag k="historic" v="shieling" />
		<tag k="name" v="Gamlestølen" />
		<tag k="place" v="locality" />
		<tag k="ssr:stedsnr" v="910375" />
	</node>
	<node lat="59.61075102366585" lon="6.750233707574019" id="-3434">
		<tag k="name" v="Liaslåttene" />
		<tag k="place" v="locality" />
		<tag k="ssr:stedsnr" v="910384" />
	</node>
	<node lat="59.54036111335758" lon="6.2144777702389735" id="-3443">
		<tag k="name" v="Løkjedn" />
		<tag k="natural" v="wetland" />
		<tag k="ssr:stedsnr" v="785204" />
	</node>
	<node lat="59.6636944449471" lon="6.839738897577249" id="-3450">
		<tag k="historic" v="shieling" />
		<tag k="name" v="Sommarstølen" />
		<tag k="place" v="locality" />
		<tag k="ssr:stedsnr" v="910700" />
	</node>
	<node lat="59.478869447486574" lon="6.6880611196888715" id="-3452">
		<tag k="name" v="Grunnavassurene" />
		<tag k="natural" v="scree" />
		<tag k="ssr:stedsnr" v="787635" />
	</node>
	<node lat="59.471547222912456" lon="6.4408583309044865" id="-3460">
		<tag k="name" v="Markurmyra" />
		<tag k="natural" v="wetland" />
		<tag k="ssr:stedsnr" v="910981" />
	</node>
	<node lat="59.460852780229196" lon="6.372299994578391" id="-3467">
		<tag k="name" v="Garlagmyro" />
		<tag k="natural" v="wetland" />
		<tag k="ssr:stedsnr" v="788166" />
	</node>
	<node lat="59.49102777741964" lon="6.562177773039189" id="-3473">
		<tag k="name" v="Nedre Tjordalsmoen" />
		<tag k="natural" v="wetland" />
		<tag k="ssr:stedsnr" v="788750" />
	</node>
	<node lat="59.48290555209669" lon="6.392716661350201" id="-3478">
		<tag k="name" v="Lunnamyrane" />
		<tag k="natural" v="wetland" />
		<tag k="ssr:stedsnr" v="788962" />
	</node>
	<node lat="59.462425000164004" lon="6.197600007718407" id="-3561">
		<tag k="name" v="Tjørekrossen" />
		<tag k="natural" v="scree" />
		<tag k="ssr:stedsnr" v="913309" />
	</node>
	<node lat="59.71538889179394" lon="7.004905559825542" id="-3568">
		<tag k="name" v="Raudmøra" />
		<tag k="natural" v="wetland" />
		<tag k="ssr:stedsnr" v="913377" />
	</node>
	<node lat="59.37265833320078" lon="5.965494439443741" id="-3612">
		<tag k="name" v="Hebnesmarka" />
		<tag k="place" v="locality" />
		<tag k="ssr:stedsnr" v="843331" />
	</node>
	<node lat="59.54046944518805" lon="6.320752785055119" id="-3648">
		<tag k="name" v="Stemmen" />
		<tag k="natural" v="wetland" />
		<tag k="ssr:stedsnr" v="846131" />
	</node>
	<node lat="59.542158336437694" lon="6.324688879836806" id="-3649">
		<tag k="name" v="Hetleflåtene" />
		<tag k="place" v="locality" />
		<tag k="ssr:stedsnr" v="846132" />
	</node>
	<node lat="59.43051944497253" lon="6.565000002241917" id="-3664">
		<tag k="name" v="Longe Myrane" />
		<tag k="natural" v="wetland" />
		<tag k="ssr:stedsnr" v="849114" />
	</node>
	<node lat="59.5614527737344" lon="6.648077775190205" id="-3687">
		<tag k="name" v="Løkjedn" />
		<tag k="natural" v="wetland" />
		<tag k="ssr:stedsnr" v="849673" />
	</node>
	<node lat="59.48951944606943" lon="6.553986104069118" id="-3691">
		<tag k="name" v="Stølsjo" />
		<tag k="natural" v="wetland" />
		<tag k="ssr:stedsnr" v="849781" />
	</node>
	<node lat="59.463341670953426" lon="6.279919444177818" id="-3713">
		<tag k="name" v="Horsmyrane" />
		<tag k="natural" v="wetland" />
		<tag k="ssr:stedsnr" v="852606" />
	</node>
	<node lat="59.33955555992745" lon="6.137177784232472" id="-3774">
		<tag k="name" v="Longemyr" />
		<tag k="natural" v="wetland" />
		<tag k="ssr:stedsnr" v="904252" />
	</node>
	<node lat="59.454241664124545" lon="6.088122230756927" id="-3775">
		<tag k="name" v="Skyllsagmyrane" />
		<tag k="natural" v="wetland" />
		<tag k="ssr:stedsnr" v="904253" />
	</node>
	<node lat="59.49401110681395" lon="6.198333338512575" id="-3791">
		<tag k="name" v="Vårstølmyra" />
		<tag k="natural" v="wetland" />
		<tag k="ssr:stedsnr" v="906355" />
	</node>
	<node lat="59.54203888810148" lon="6.626130549660603" id="-3794">
		<tag k="name" v="Flaturene" />
		<tag k="natural" v="scree" />
		<tag k="ssr:stedsnr" v="909253" />
	</node>
	<node lat="59.417872219368306" lon="6.248138884501031" id="-3895">
		<tag k="name" v="Finnflotene" />
		<tag k="place" v="locality" />
		<tag k="ssr:stedsnr" v="964507" />
	</node>
	<node lat="59.38356666501382" lon="5.967038885342008" id="-3899">
		<tag k="name" v="Almenningen" />
		<tag k="place" v="locality" />
		<tag k="ssr:stedsnr" v="964743" />
	</node>
	<node lat="59.655202776572146" lon="6.867602776076734" id="-3902">
		<tag k="landuse" v="meadow" />
		<tag k="name" v="Ripelen" />
		<tag k="ssr:stedsnr" v="965089" />
	</node>
	<node lat="59.46859722020231" lon="6.303477780652909" id="-3905">
		<tag k="name" v="Slettemyrane" />
		<tag k="natural" v="wetland" />
		<tag k="ssr:stedsnr" v="967025" />
	</node>
	<node lat="59.51948610724108" lon="6.195883325300155" id="-3907">
		<tag k="name" v="Myrane" />
		<tag k="natural" v="wetland" />
		<tag k="ssr:stedsnr" v="967144" />
	</node>
	<node lat="59.52098332896931" lon="6.633197225405739" id="-3912">
		<tag k="name" v="Øyro" />
		<tag k="place" v="locality" />
		<tag k="ssr:stedsnr" v="969389" />
	</node>
	<node lat="59.611622221280626" lon="6.590002781650156" id="-3920">
		<tag k="name" v="Viradn" />
		<tag k="place" v="locality" />
		<tag k="ssr:stedsnr" v="970094" />
	</node>
	<node lat="59.41004721788278" lon="6.376025003904918" id="-3930">
		<tag k="historic" v="shieling" />
		<tag k="name" v="Budalen" />
		<tag k="place" v="locality" />
		<tag k="ssr:stedsnr" v="970548" />
	</node>
	<node lat="59.47112499732733" lon="6.453177772320479" id="-3934">
		<tag k="name" v="Longemyr" />
		<tag k="natural" v="wetland" />
		<tag k="ssr:stedsnr" v="970717" />
	</node>
	<node lat="59.70447592419371" lon="7.091944167899645" id="-3949">
		<tag k="name" v="Nauststeinen" />
		<tag k="natural" v="stone" />
		<tag k="ssr:stedsnr" v="989105" />
	</node>
	<node lat="59.45015833432822" lon="6.583100000001468" id="-3989">
		<tag k="name" v="Skorvesteinane" />
		<tag k="natural" v="stone" />
		<tag k="ssr:stedsnr" v="2692" />
	</node>
	<node lat="59.74514722547322" lon="7.044294450472967" id="-4026">
		<tag k="historic" v="shieling" />
		<tag k="name" v="Gamlestølen" />
		<tag k="place" v="locality" />
		<tag k="ssr:stedsnr" v="3353" />
	</node>
	<node lat="59.426152775404326" lon="5.939366665740186" id="-4041">
		<tag k="name" v="Hondurene" />
		<tag k="natural" v="scree" />
		<tag k="ssr:stedsnr" v="54308" />
	</node>
	<node lat="59.43135277473485" lon="6.193091668336064" id="-4044">
		<tag k="name" v="Podlaskorane" />
		<tag k="place" v="locality" />
		<tag k="ssr:stedsnr" v="54062" />
	</node>
	<node lat="59.3764305585124" lon="5.939658331100568" id="-4047">
		<tag k="landuse" v="meadow" />
		<tag k="name" v="Nordbø" />
		<tag k="ssr:stedsnr" v="54126" />
	</node>
	<node lat="59.348541669103945" lon="6.135980556986359" id="-4053">
		<tag k="name" v="Skrubburane" />
		<tag k="natural" v="scree" />
		<tag k="ssr:stedsnr" v="54253" />
	</node>
	<node lat="59.522363892707574" lon="6.239038880822998" id="-4087">
		<tag k="name" v="Longe Myrane" />
		<tag k="natural" v="wetland" />
		<tag k="ssr:stedsnr" v="57134" />
	</node>
	<node lat="59.495372220545" lon="6.271549997494341" id="-4092">
		<tag k="name" v="Ormaskorane" />
		<tag k="place" v="locality" />
		<tag k="ssr:stedsnr" v="57360" />
	</node>
	<node lat="59.43654444198558" lon="6.37339166232996" id="-4115">
		<tag k="name" v="Hildrasteinen" />
		<tag k="natural" v="stone" />
		<tag k="ssr:stedsnr" v="60246" />
	</node>
	<node lat="59.68400555473969" lon="6.72759166617546" id="-4148">
		<tag k="historic" v="shieling" />
		<tag k="name" v="Tjødningestølen" />
		<tag k="place" v="locality" />
		<tag k="ssr:stedsnr" v="60962" />
	</node>
	<node lat="59.36823055747261" lon="6.091769445462864" id="-4154">
		<tag k="alt_name" v="Måveurane" />
		<tag k="name" v="Måreurda" />
		<tag k="natural" v="scree" />
		<tag k="ssr:stedsnr" v="63495" />
	</node>
	<node lat="59.66305833084085" lon="6.662800001400453" id="-4229">
		<tag k="name" v="Milasteinen" />
		<tag k="natural" v="stone" />
		<tag k="ssr:stedsnr" v="81098" />
	</node>
	<node lat="59.318602780967716" lon="6.137975005665819" id="-4254">
		<tag k="name" v="Øygjatomyra" />
		<tag k="natural" v="wetland" />
		<tag k="ssr:stedsnr" v="115426" />
	</node>
	<node lat="59.32231111116176" lon="6.124827785898806" id="-4256">
		<tag k="name" v="Myrå" />
		<tag k="natural" v="wetland" />
		<tag k="ssr:stedsnr" v="115430" />
	</node>
	<node lat="59.5889361137762" lon="6.793747220136153" id="-4287">
		<tag k="name" v="Guggedalshagen" />
		<tag k="place" v="locality" />
		<tag k="ssr:stedsnr" v="120565" />
	</node>
	<node lat="59.50311110795682" lon="6.708227780559492" id="-4297">
		<tag k="name" v="Leitesmyro" />
		<tag k="natural" v="wetland" />
		<tag k="ssr:stedsnr" v="120832" />
	</node>
	<node lat="59.68487777423197" lon="6.779552777666398" id="-4311">
		<tag k="name" v="Nybusteinen" />
		<tag k="natural" v="stone" />
		<tag k="ssr:stedsnr" v="121938" />
	</node>
	<node lat="59.339949998124865" lon="6.310130552615061" id="-4351">
		<tag k="historic" v="shieling" />
		<tag k="name" v="Vågastøl" />
		<tag k="place" v="locality" />
		<tag k="ssr:stedsnr" v="123939" />
	</node>
	<node lat="59.728155557445966" lon="7.025899996601551" id="-4382">
		<tag k="historic" v="shieling" />
		<tag k="name" v="Midvika" />
		<tag k="place" v="locality" />
		<tag k="ssr:stedsnr" v="124341" />
	</node>
	<node lat="59.44716110795571" lon="6.020900000559197" id="-4417">
		<tag k="name" v="Kusteinen" />
		<tag k="natural" v="stone" />
		<tag k="ssr:stedsnr" v="175271" />
	</node>
	<node lat="59.398611108364896" lon="6.298225006336836" id="-4422">
		<tag k="name" v="Himlaleitet" />
		<tag k="place" v="locality" />
		<tag k="ssr:stedsnr" v="175381" />
	</node>
	<node lat="59.43446388733433" lon="6.087300004511326" id="-4436">
		<tag k="name" v="Storemyr" />
		<tag k="natural" v="wetland" />
		<tag k="ssr:stedsnr" v="176177" />
	</node>
	<node lat="59.41386666797231" lon="6.066047222869349" id="-4450">
		<tag k="name" v="Marvikmyra" />
		<tag k="natural" v="wetland" />
		<tag k="ssr:stedsnr" v="176542" />
	</node>
	<node lat="59.39911111058792" lon="5.94004444302477" id="-4452">
		<tag k="historic" v="shieling" />
		<tag k="name" v="Vikastølen" />
		<tag k="place" v="locality" />
		<tag k="ssr:stedsnr" v="176770" />
	</node>
	<node lat="59.42808610783488" lon="6.294533330894651" id="-4464">
		<tag k="name" v="Kaldålegdene" />
		<tag k="place" v="locality" />
		<tag k="ssr:stedsnr" v="178647" />
	</node>
	<node lat="59.519783336951065" lon="6.547230549593234" id="-4465">
		<tag k="name" v="Kodle" />
		<tag k="natural" v="wetland" />
		<tag k="ssr:stedsnr" v="181028" />
	</node>
	<node lat="59.43584444711588" lon="5.926527772826265" id="-4589">
		<tag k="landuse" v="meadow" />
		<tag k="name" v="Stølen" />
		<tag k="ssr:stedsnr" v="192365" />
	</node>
	<node lat="59.44085277523524" lon="5.951974998784568" id="-4608">
		<tag k="name" v="Skrubbemyrane" />
		<tag k="natural" v="wetland" />
		<tag k="ssr:stedsnr" v="297248" />
	</node>
	<node lat="59.43570555585078" lon="6.092222225284329" id="-4625">
		<tag k="name" v="Nedre Slåttå" />
		<tag k="natural" v="wetland" />
		<tag k="ssr:stedsnr" v="297190" />
	</node>
	<node lat="59.39397777734392" lon="6.236547230295433" id="-4631">
		<tag k="name" v="Tyssehagen" />
		<tag k="place" v="locality" />
		<tag k="ssr:stedsnr" v="297469" />
	</node>
	<node lat="59.56316110691543" lon="6.310433327989593" id="-4636">
		<tag k="landuse" v="meadow" />
		<tag k="name" v="Kovaflåta" />
		<tag k="ssr:stedsnr" v="297576" />
	</node>
	<node lat="59.41760278021663" lon="6.06468332665369" id="-4638">
		<tag k="name" v="Løkjen" />
		<tag k="natural" v="wetland" />
		<tag k="ssr:stedsnr" v="297596" />
	</node>
	<node lat="59.4153305532731" lon="6.067561107014675" id="-4639">
		<tag k="name" v="Beitå" />
		<tag k="place" v="locality" />
		<tag k="ssr:stedsnr" v="297597" />
	</node>
	<node lat="59.536413888917366" lon="6.566027781754314" id="-4656">
		<tag k="name" v="Urihol" />
		<tag k="natural" v="scree" />
		<tag k="ssr:stedsnr" v="302079" />
	</node>
	<node lat="59.56523333346143" lon="6.850108326230588" id="-4668">
		<tag k="name" v="Vinjabakkane" />
		<tag k="natural" v="wetland" />
		<tag k="ssr:stedsnr" v="302538" />
	</node>
	<node lat="59.6927388882589" lon="6.981605558278309" id="-4733">
		<tag k="historic" v="shieling" />
		<tag k="name" v="Hellerberget" />
		<tag k="place" v="locality" />
		<tag k="ssr:stedsnr" v="306460" />
	</node>
	<node lat="59.40646111454766" lon="6.058741661684348" id="-4765">
		<tag k="name" v="Tretteto" />
		<tag k="place" v="locality" />
		<tag k="ssr:stedsnr" v="313568" />
	</node>
	<node lat="59.745675001055304" lon="6.897097217966763" id="-4775">
		<tag k="name" v="Breifonn" />
		<tag k="natural" v="glacier" />
		<tag k="ssr:stedsnr" v="356156" />
	</node>
	<node lat="59.42315000179572" lon="5.963108326551024" id="-4787">
		<tag k="historic" v="shieling" />
		<tag k="name" v="Jutastølen" />
		<tag k="place" v="locality" />
		<tag k="ssr:stedsnr" v="357285" />
	</node>
	<node lat="59.38122778203177" lon="6.007738887124371" id="-4792">
		<tag k="name" v="Storemyra" />
		<tag k="natural" v="wetland" />
		<tag k="ssr:stedsnr" v="357730" />
	</node>
	<node lat="59.38852221962149" lon="6.00924444775812" id="-4795">
		<tag k="historic" v="shieling" />
		<tag k="name" v="Stølen" />
		<tag k="place" v="locality" />
		<tag k="ssr:stedsnr" v="357736" />
	</node>
	<node lat="59.33509444163454" lon="6.1669250017126815" id="-4802">
		<tag k="historic" v="shieling" />
		<tag k="name" v="Bogstølen" />
		<tag k="place" v="locality" />
		<tag k="ssr:stedsnr" v="358234" />
	</node>
	<node lat="59.434891662091765" lon="6.1370777719459735" id="-4804">
		<tag k="name" v="Aramyr" />
		<tag k="natural" v="wetland" />
		<tag k="ssr:stedsnr" v="358135" />
	</node>
	<node lat="59.444166662647945" lon="6.086097221356872" id="-4805">
		<tag k="name" v="Loksteleite" />
		<tag k="place" v="locality" />
		<tag k="ssr:stedsnr" v="358157" />
	</node>
	<node lat="59.39600833337494" lon="6.336311114699334" id="-4807">
		<tag k="landuse" v="meadow" />
		<tag k="name" v="Hajen" />
		<tag k="ssr:stedsnr" v="358384" />
	</node>
	<node lat="59.51278611017817" lon="6.208583331728537" id="-4815">
		<tag k="name" v="Dyravad" />
		<tag k="place" v="locality" />
		<tag k="ssr:stedsnr" v="360132" />
	</node>
	<node lat="59.62789722342404" lon="6.921922223650684" id="-4843">
		<tag k="historic" v="shieling" />
		<tag k="name" v="Juvstøl" />
		<tag k="place" v="locality" />
		<tag k="ssr:stedsnr" v="363348" />
	</node>
	<node lat="59.632774995917806" lon="6.683019437777226" id="-4847">
		<tag k="name" v="Skrubbamyrbakkane" />
		<tag k="natural" v="wetland" />
		<tag k="ssr:stedsnr" v="363429" />
	</node>
	<node lat="59.576277774339964" lon="6.824274994061081" id="-4849">
		<tag k="name" v="Storemyr" />
		<tag k="natural" v="wetland" />
		<tag k="ssr:stedsnr" v="363509" />
	</node>
	<node lat="59.591433334962865" lon="6.695202772731389" id="-4859">
		<tag k="name" v="Stora Myro" />
		<tag k="natural" v="wetland" />
		<tag k="ssr:stedsnr" v="363564" />
	</node>
	<node lat="59.57115555669655" lon="6.630772215237413" id="-4860">
		<tag k="name" v="Takhaugmyrane" />
		<tag k="natural" v="wetland" />
		<tag k="ssr:stedsnr" v="363566" />
	</node>
	<node lat="59.48234444121018" lon="6.591469451131324" id="-4862">
		<tag k="name" v="Torsteinsslåtto" />
		<tag k="natural" v="wetland" />
		<tag k="ssr:stedsnr" v="363777" />
	</node>
	<node lat="59.37403888641851" lon="6.265300006927992" id="-4927">
		<tag k="historic" v="shieling" />
		<tag k="name" v="Hålandsstølen" />
		<tag k="place" v="locality" />
		<tag k="ssr:stedsnr" v="366830" />
	</node>
	<node lat="59.33790000046261" lon="5.967102783252805" id="-4992">
		<tag k="landuse" v="meadow" />
		<tag k="name" v="Nordbø" />
		<tag k="ssr:stedsnr" v="418149" />
	</node>
	<node lat="59.43237500101878" lon="6.069066672276245" id="-4996">
		<tag k="historic" v="shieling" />
		<tag k="name" v="Garstøl" />
		<tag k="place" v="locality" />
		<tag k="ssr:stedsnr" v="419076" />
	</node>
	<node lat="59.452449999628435" lon="6.303916669573365" id="-5006">
		<tag k="name" v="Slåttå" />
		<tag k="place" v="locality" />
		<tag k="ssr:stedsnr" v="418698" />
	</node>
	<node lat="59.5317972213203" lon="6.2530388922428415" id="-5028">
		<tag k="name" v="Åshagen" />
		<tag k="place" v="locality" />
		<tag k="ssr:stedsnr" v="421119" />
	</node>
	<node lat="59.429658331346154" lon="6.034802782431123" id="-5031">
		<tag k="name" v="Skeisvoll" />
		<tag k="place" v="locality" />
		<tag k="ssr:stedsnr" v="421164" />
	</node>
	<node lat="59.5113333356874" lon="6.382813886991327" id="-5046">
		<tag k="name" v="Storemyr" />
		<tag k="natural" v="wetland" />
		<tag k="ssr:stedsnr" v="424084" />
	</node>
	<node lat="59.478480559304394" lon="6.39201665993791" id="-5078">
		<tag k="name" v="Andorsmyra" />
		<tag k="natural" v="wetland" />
		<tag k="ssr:stedsnr" v="424954" />
	</node>
	<node lat="59.472666669548346" lon="6.429577784834684" id="-5080">
		<tag k="name" v="Gallandsuro" />
		<tag k="natural" v="scree" />
		<tag k="ssr:stedsnr" v="424976" />
	</node>
	<node lat="59.36040555112246" lon="6.062958332460696" id="-5113">
		<tag k="name" v="Jelsaheia" />
		<tag k="place" v="locality" />
		<tag k="ssr:stedsnr" v="427511" />
	</node>
	<node lat="59.55982500275522" lon="6.812350000276227" id="-5164">
		<tag k="name" v="Krossfonn" />
		<tag k="place" v="locality" />
		<tag k="ssr:stedsnr" v="506874" />
	</node>
	<node lat="59.63493333303104" lon="6.825216665715159" id="-5178">
		<tag k="name" v="Niperåso" />
		<tag k="natural" v="scree" />
		<tag k="ssr:stedsnr" v="540299" />
	</node>
	<node lat="59.38912222093402" lon="5.996683341598419" id="-5192">
		<tag k="landuse" v="meadow" />
		<tag k="name" v="Rabben" />
		<tag k="ssr:stedsnr" v="539730" />
	</node>
	<node lat="59.39932221794027" lon="5.981841662768453" id="-5204">
		<tag k="name" v="Mannamyrane" />
		<tag k="natural" v="wetland" />
		<tag k="ssr:stedsnr" v="540747" />
	</node>
	<node lat="59.394936108150624" lon="5.994619442891032" id="-5205">
		<tag k="name" v="Løypedne" />
		<tag k="place" v="locality" />
		<tag k="ssr:stedsnr" v="540753" />
	</node>
	<node lat="59.39420833644875" lon="5.991936119320206" id="-5206">
		<tag k="name" v="Kjorkjå" />
		<tag k="natural" v="stone" />
		<tag k="ssr:stedsnr" v="540754" />
	</node>
	<node lat="59.37708889224087" lon="6.309711108644444" id="-5213">
		<tag k="landuse" v="meadow" />
		<tag k="name" v="Varås" />
		<tag k="ssr:stedsnr" v="540883" />
	</node>
	<node lat="59.39096110756705" lon="5.961163894201004" id="-5217">
		<tag k="name" v="Nedre Moltemyr" />
		<tag k="natural" v="wetland" />
		<tag k="ssr:stedsnr" v="540761" />
	</node>
	<node lat="59.43359166327455" lon="6.283600008243963" id="-5224">
		<tag k="name" v="Bjødnastein" />
		<tag k="natural" v="stone" />
		<tag k="ssr:stedsnr" v="542659" />
	</node>
	<node lat="59.60335833013576" lon="6.677636103889332" id="-5259">
		<tag k="historic" v="shieling" />
		<tag k="name" v="Nystølen" />
		<tag k="place" v="locality" />
		<tag k="ssr:stedsnr" v="545461" />
	</node>
	<node lat="59.59704999711451" lon="6.7343888963877" id="-5334">
		<tag k="landuse" v="meadow" />
		<tag k="name" v="Falkalia" />
		<tag k="ssr:stedsnr" v="567898" />
	</node>
	<node lat="59.65361944853391" lon="6.86308888668648" id="-5353">
		<tag k="landuse" v="meadow" />
		<tag k="name" v="Øyno" />
		<tag k="ssr:stedsnr" v="600088" />
	</node>
	<node lat="59.3591305542443" lon="5.958027773580172" id="-5354">
		<tag k="name" v="Leite" />
		<tag k="place" v="locality" />
		<tag k="ssr:stedsnr" v="600154" />
	</node>
	<node lat="59.43547500405327" lon="6.118736103734952" id="-5357">
		<tag k="name" v="Løype" />
		<tag k="place" v="locality" />
		<tag k="ssr:stedsnr" v="600133" />
	</node>
	<node lat="59.44832221945265" lon="6.031950000562769" id="-5362">
		<tag k="landuse" v="meadow" />
		<tag k="name" v="Ortastykket" />
		<tag k="ssr:stedsnr" v="600278" />
	</node>
	<node lat="59.40401666377523" lon="6.001869447426612" id="-5377">
		<tag k="name" v="Kjorkjå" />
		<tag k="place" v="locality" />
		<tag k="ssr:stedsnr" v="600777" />
	</node>
	<node lat="59.69214999717621" lon="6.99058054967617" id="-5449">
		<tag k="historic" v="shieling" />
		<tag k="name" v="Slåttastølen" />
		<tag k="place" v="locality" />
		<tag k="ssr:stedsnr" v="606594" />
	</node>
	<node lat="59.36102500195503" lon="6.293502772054566" id="-5505">
		<tag k="name" v="Trongane" />
		<tag k="natural" v="wetland" />
		<tag k="ssr:stedsnr" v="609797" />
	</node>
	<node lat="59.64190555881417" lon="6.918783327609254" id="-5537">
		<tag k="name" v="Åimjødlo" />
		<tag k="place" v="locality" />
		<tag k="ssr:stedsnr" v="661071" />
	</node>
	<node lat="59.39114999895021" lon="6.237130548854705" id="-5554">
		<tag k="name" v="Sørhushagen" />
		<tag k="place" v="locality" />
		<tag k="ssr:stedsnr" v="661454" />
	</node>
	<node lat="59.49405555706916" lon="6.2666027716700405" id="-5574">
		<tag k="name" v="Øksmyr" />
		<tag k="natural" v="wetland" />
		<tag k="ssr:stedsnr" v="663356" />
	</node>
	<node lat="59.437744447523855" lon="6.297113895894623" id="-5577">
		<tag k="name" v="Kyrkjesteinane" />
		<tag k="natural" v="scree" />
		<tag k="ssr:stedsnr" v="663674" />
	</node>
	<node lat="59.539791663393444" lon="6.493250002350014" id="-5582">
		<tag k="alt_name" v="Vallskårmyrane" />
		<tag k="name" v="Vallskormyrane" />
		<tag k="natural" v="wetland" />
		<tag k="ssr:stedsnr" v="666022" />
	</node>
	<node lat="59.41052777727079" lon="6.379813889430074" id="-5593">
		<tag k="historic" v="shieling" />
		<tag k="name" v="Mjilkestølen" />
		<tag k="place" v="locality" />
		<tag k="ssr:stedsnr" v="666387" />
	</node>
	<node lat="59.37665555938192" lon="6.592261110483156" id="-5604">
		<tag k="name" v="Taklund" />
		<tag k="natural" v="wetland" />
		<tag k="ssr:stedsnr" v="666372" />
	</node>
	<node lat="59.623875002043086" lon="6.607213896369127" id="-5625">
		<tag k="name" v="Legdo" />
		<tag k="place" v="locality" />
		<tag k="ssr:stedsnr" v="667082" />
	</node>
	<node lat="59.60085000222163" lon="6.515572226204972" id="-5626">
		<tag k="historic" v="shieling" />
		<tag k="name" v="Kyrkjestølen" />
		<tag k="place" v="locality" />
		<tag k="ssr:stedsnr" v="667083" />
	</node>
	<node lat="59.61646944615034" lon="6.645702778302715" id="-5629">
		<tag k="name" v="Nonsfossflatene" />
		<tag k="place" v="locality" />
		<tag k="ssr:stedsnr" v="667425" />
	</node>
	<node lat="59.46750277820182" lon="6.461233329444971" id="-5657">
		<tag k="alt_name" v="Storemyr" />
		<tag k="name" v="Stormyr" />
		<tag k="natural" v="wetland" />
		<tag k="ssr:stedsnr" v="669739" />
	</node>
	<node lat="59.51642500438438" lon="6.560800002972683" id="-5692">
		<tag k="historic" v="shieling" />
		<tag k="name" v="Nedstastølen" />
		<tag k="place" v="locality" />
		<tag k="ssr:stedsnr" v="670129" />
	</node>
	<node lat="59.652924998505924" lon="6.870108340890539" id="-5705">
		<tag k="landuse" v="meadow" />
		<tag k="name" v="Runnane" />
		<tag k="ssr:stedsnr" v="722098" />
	</node>
	<node lat="59.432575001903764" lon="6.136813887534113" id="-5711">
		<tag k="name" v="Longemyr" />
		<tag k="natural" v="wetland" />
		<tag k="ssr:stedsnr" v="722141" />
	</node>
	<node lat="59.43980277941202" lon="5.963924991337362" id="-5721">
		<tag k="name" v="Tjelmane" />
		<tag k="place" v="locality" />
		<tag k="ssr:stedsnr" v="722263" />
	</node>
	<node lat="59.4987777796857" lon="6.266397223114357" id="-5739">
		<tag k="name" v="Hatlekjermyrane" />
		<tag k="natural" v="wetland" />
		<tag k="ssr:stedsnr" v="724350" />
	</node>
	<node lat="59.43769444255455" lon="6.014783325002986" id="-5748">
		<tag k="name" v="Løkjen" />
		<tag k="natural" v="wetland" />
		<tag k="ssr:stedsnr" v="724262" />
	</node>
	<node lat="59.43793611096955" lon="6.48467221737958" id="-5755">
		<tag k="historic" v="shieling" />
		<tag k="name" v="Bustølane" />
		<tag k="place" v="locality" />
		<tag k="ssr:stedsnr" v="727022" />
	</node>
	<node lat="59.38399444642045" lon="6.434361110817032" id="-5770">
		<tag k="name" v="Stakksflåto" />
		<tag k="natural" v="wetland" />
		<tag k="ssr:stedsnr" v="727332" />
	</node>
	<node lat="59.56143889023276" lon="6.507130554872486" id="-5784">
		<tag k="name" v="Brunnamarkjå" />
		<tag k="place" v="locality" />
		<tag k="ssr:stedsnr" v="727463" />
	</node>
	<node lat="59.48945277640631" lon="6.574038889834431" id="-5789">
		<tag k="name" v="Kaldemyr" />
		<tag k="natural" v="wetland" />
		<tag k="ssr:stedsnr" v="727778" />
	</node>
	<node lat="59.337158337722066" lon="5.973449998060185" id="-5906">
		<tag k="landuse" v="meadow" />
		<tag k="name" v="Midtbø" />
		<tag k="ssr:stedsnr" v="782134" />
	</node>
	<node lat="59.40342500130404" lon="6.243161118687971" id="-5910">
		<tag k="name" v="Nordmarka" />
		<tag k="place" v="locality" />
		<tag k="ssr:stedsnr" v="782489" />
	</node>
	<node lat="59.387741663416705" lon="5.993319445068744" id="-5919">
		<tag k="landuse" v="meadow" />
		<tag k="name" v="Baklia" />
		<tag k="ssr:stedsnr" v="782733" />
	</node>
	<node lat="59.46418611526908" lon="6.285769446421867" id="-5934">
		<tag k="name" v="Myrane" />
		<tag k="natural" v="wetland" />
		<tag k="ssr:stedsnr" v="783736" />
	</node>
	<node lat="59.68019166997992" lon="6.880208338774088" id="-5983">
		<tag k="name" v="Terningsteinen" />
		<tag k="natural" v="stone" />
		<tag k="ssr:stedsnr" v="788520" />
	</node>
	<node lat="59.39156666991531" lon="5.960527779201884" id="-6092">
		<tag k="name" v="Øvre Moltemyr" />
		<tag k="natural" v="wetland" />
		<tag k="ssr:stedsnr" v="843789" />
	</node>
	<node lat="59.39008055644258" lon="5.976269441457659" id="-6093">
		<tag k="name" v="Gaukstølsteinen" />
		<tag k="natural" v="stone" />
		<tag k="ssr:stedsnr" v="843792" />
	</node>
	<node lat="59.395894444832905" lon="5.974288897336369" id="-6094">
		<tag k="historic" v="shieling" />
		<tag k="name" v="Vasstøl" />
		<tag k="place" v="locality" />
		<tag k="ssr:stedsnr" v="843793" />
	</node>
	<node lat="59.6485638882679" lon="6.945238884860414" id="-6095">
		<tag k="name" v="Storemyr" />
		<tag k="natural" v="wetland" />
		<tag k="ssr:stedsnr" v="844070" />
	</node>
	<node lat="59.429844440028404" lon="6.05413610640553" id="-6103">
		<tag k="name" v="Nerabø" />
		<tag k="place" v="locality" />
		<tag k="ssr:stedsnr" v="844101" />
	</node>
	<node lat="59.64898055117871" lon="6.957991670664528" id="-6109">
		<tag k="name" v="Havrenosmyrane" />
		<tag k="natural" v="wetland" />
		<tag k="ssr:stedsnr" v="846055" />
	</node>
	<node lat="59.548802780624015" lon="6.4001527782073895" id="-6131">
		<tag k="landuse" v="meadow" />
		<tag k="name" v="Nedre Bøen" />
		<tag k="ssr:stedsnr" v="849145" />
	</node>
	<node lat="59.7123722259868" lon="6.8534055484451555" id="-6147">
		<tag k="historic" v="shieling" />
		<tag k="name" v="Tjødningstøl" />
		<tag k="place" v="locality" />
		<tag k="ssr:stedsnr" v="849534" />
	</node>
	<node lat="59.370438891753146" lon="6.1875305519445964" id="-6253">
		<tag k="name" v="Kallhajen" />
		<tag k="place" v="locality" />
		<tag k="ssr:stedsnr" v="964020" />
	</node>
	<node lat="59.45935000156579" lon="6.351730563089453" id="-6283">
		<tag k="name" v="Urene" />
		<tag k="natural" v="scree" />
		<tag k="ssr:stedsnr" v="970252" />
	</node>
	<node lat="59.43283333583851" lon="6.093633336016119" id="-6287">
		<tag k="name" v="Kjøredalsmyra" />
		<tag k="natural" v="wetland" />
		<tag k="ssr:stedsnr" v="965159" />
	</node>
	<node lat="59.538924997605065" lon="6.536924991918181" id="-6305">
		<tag k="name" v="Risabøro" />
		<tag k="natural" v="stone" />
		<tag k="ssr:stedsnr" v="969055" />
	</node>
	<node lat="59.560175003233084" lon="6.585822222710208" id="-6312">
		<tag k="name" v="Bjørkedn" />
		<tag k="natural" v="scree" />
		<tag k="ssr:stedsnr" v="969511" />
	</node>
	<node lat="59.43253055198936" lon="6.404899998421172" id="-6316">
		<tag k="historic" v="shieling" />
		<tag k="name" v="Geitastøl" />
		<tag k="place" v="locality" />
		<tag k="ssr:stedsnr" v="970061" />
	</node>
	<node lat="59.4260166662639" lon="6.402172225270157" id="-6321">
		<tag k="name" v="Mjelkesteinen" />
		<tag k="natural" v="stone" />
		<tag k="ssr:stedsnr" v="970029" />
	</node>
	<node lat="59.46462221872165" lon="6.373400004615952" id="-6328">
		<tag k="historic" v="shieling" />
		<tag k="name" v="Vårstøl" />
		<tag k="place" v="locality" />
		<tag k="ssr:stedsnr" v="970234" />
	</node>
	<node lat="59.6343222225838" lon="6.9535611057563536" id="-6339">
		<tag k="name" v="Skorvedne" />
		<tag k="place" v="locality" />
		<tag k="ssr:stedsnr" v="970580" />
	</node>
</osm>
