<?xml version="1.0" encoding="UTF-8"?>
<osm generator="osmapis" version="0.6">
	<node id="-3071" lat="59.4714638891" lon="6.33500833767">
		<tag k="bridge" v="yes" />
		<tag k="layer" v="1" />
		<tag k="name" v="Grov" />
		<tag k="ssr:stedsnr" v="471593" />
	</node>
	<node id="-3070" lat="59.6877833329" lon="6.75983610372">
		<tag k="bridge" v="yes" />
		<tag k="layer" v="1" />
		<tag k="name" v="Brattland" />
		<tag k="ssr:stedsnr" v="471579" />
	</node>
	<node id="-2941" lat="59.4211444414" lon="6.22212777012">
		<tag k="bridge" v="yes" />
		<tag k="layer" v="1" />
		<tag k="name" v="Breivik" />
		<tag k="ssr:stedsnr" v="229564" />
	</node>
	<node id="-4344" lat="59.5751277785" lon="6.66426389192">
		<tag k="highway" v="path" />
		<tag k="name" v="Stegadn" />
		<tag k="ssr:stedsnr" v="909443" />
	</node>
	<node id="-6297" lat="59.507799997" lon="6.57825277626">
		<tag k="bridge" v="yes" />
		<tag k="layer" v="1" />
		<tag k="name" v="Helganes" />
		<tag k="ssr:stedsnr" v="532569" />
	</node>
	<node id="-3444" lat="59.4585138854" lon="6.42770554743">
		<tag k="bridge" v="yes" />
		<tag k="layer" v="1" />
		<tag k="name" v="Førlandsåsane" />
		<tag k="ssr:stedsnr" v="666251" />
	</node>
	<node id="-3827" lat="59.5621694434" lon="6.30339444669">
		<tag k="fixme" v="verify maritime location" />
		<tag k="mooring" v="yes" />
		<tag k="name" v="Hundastøa" />
		<tag k="place" v="locality" />
		<tag k="ssr:stedsnr" v="600564" />
	</node>
	<node id="-2546" lat="59.5256888852" lon="6.59145832937">
		<tag k="bridge" v="yes" />
		<tag k="layer" v="1" />
		<tag k="name" v="Solheim" />
		<tag k="ssr:stedsnr" v="229598" />
	</node>
	<node id="-4593" lat="59.4629222252" lon="6.8147999976">
		<tag k="ford" v="yes" />
		<tag k="name" v="Kaldavadet" />
		<tag k="place" v="locality" />
		<tag k="ssr:stedsnr" v="852073" />
	</node>
	<node id="-3560" lat="59.5165638909" lon="6.63552777387">
		<tag k="bridge" v="yes" />
		<tag k="layer" v="1" />
		<tag k="name" v="Kvilldal" />
		<tag k="ssr:stedsnr" v="471602" />
	</node>
	<node id="-3822" lat="59.484822218" lon="6.21395000663">
		<tag k="man_made" v="quay" />
		<tag k="name" v="Ropeid kai" />
		<tag k="place" v="locality" />
		<tag k="ssr:stedsnr" v="600441" />
	</node>
	<node id="-3692" lat="59.5563888893" lon="6.85868888335">
		<tag k="highway" v="path" />
		<tag k="name" v="Løddeveien" />
		<tag k="ssr:stedsnr" v="484517" />
	</node>
	<node id="-3561" lat="59.3648916658" lon="6.26987500839">
		<tag k="bridge" v="yes" />
		<tag k="layer" v="1" />
		<tag k="name" v="Maribu" />
		<tag k="ssr:stedsnr" v="471606" />
	</node>
	<node id="-3816" lat="59.481147218" lon="6.26889999828">
		<tag k="bridge" v="yes" />
		<tag k="layer" v="1" />
		<tag k="name" v="Tjelmane" />
		<tag k="ssr:stedsnr" v="715601" />
	</node>
	<node id="-3815" lat="59.6428361069" lon="6.83912223073">
		<tag k="bridge" v="yes" />
		<tag k="layer" v="1" />
		<tag k="name" v="Flossåna" />
		<tag k="ssr:stedsnr" v="714530" />
	</node>
	<node id="-5222" lat="59.37771111" lon="6.46587499895">
		<tag k="highway" v="path" />
		<tag k="name" v="Fiskestien" />
		<tag k="ssr:stedsnr" v="120276" />
	</node>
	<node id="-3039" lat="59.4047174995" lon="6.41602737602">
		<tag k="name" v="Gråtekleiv" />
		<tag k="place" v="locality" />
		<tag k="ssr:stedsnr" v="302404" />
	</node>
	<node id="-5853" lat="59.3705846752" lon="6.04569521779">
		<tag k="fixme" v="verify maritime location" />
		<tag k="mooring" v="yes" />
		<tag k="name" v="Gongstø" />
		<tag k="place" v="locality" />
		<tag k="ssr:stedsnr" v="357120" />
	</node>
	<node id="-4572" lat="59.3349055556" lon="6.18592221832">
		<tag k="bridge" v="yes" />
		<tag k="layer" v="1" />
		<tag k="name" v="Slåttå" />
		<tag k="ssr:stedsnr" v="836557" />
	</node>
	<node id="-4571" lat="59.4127111101" lon="6.21697500261">
		<tag k="layer" v="-1" />
		<tag k="name" v="Lovraeidet I" />
		<tag k="ssr:stedsnr" v="833329" />
		<tag k="tunnel" v="yes" />
	</node>
	<node id="-4175" lat="59.3175722214" lon="6.29136111502">
		<tag k="bridge" v="yes" />
		<tag k="layer" v="1" />
		<tag k="name" v="Nordalselv Flomløp" />
		<tag k="ssr:stedsnr" v="896649" />
	</node>
	<node id="-5834" lat="59.4999472204" lon="6.6379277717">
		<tag k="bridge" v="yes" />
		<tag k="layer" v="1" />
		<tag k="name" v="Slagstad" />
		<tag k="ssr:stedsnr" v="350561" />
	</node>
	<node id="-4174" lat="59.4104361071" lon="6.07978611247">
		<tag k="bridge" v="yes" />
		<tag k="layer" v="1" />
		<tag k="name" v="Marvik" />
		<tag k="ssr:stedsnr" v="896643" />
	</node>
	<node id="-2769" lat="59.3854722178" lon="5.93406943871">
		<tag k="fixme" v="verify maritime location" />
		<tag k="mooring" v="yes" />
		<tag k="name" v="Kjeringstøa" />
		<tag k="place" v="locality" />
		<tag k="ssr:stedsnr" v="114734" />
	</node>
	<node id="-5839" lat="59.4986361089" lon="6.53479444452">
		<tag k="bridge" v="yes" />
		<tag k="layer" v="1" />
		<tag k="name" v="Veka" />
		<tag k="ssr:stedsnr" v="350573" />
	</node>
	<node id="-5838" lat="59.4148055523" lon="6.01833332526">
		<tag k="bridge" v="yes" />
		<tag k="layer" v="1" />
		<tag k="name" v="Vatlandsvåg" />
		<tag k="ssr:stedsnr" v="350572" />
	</node>
	<node id="-5837" lat="59.4003777783" lon="6.33015555998">
		<tag k="bridge" v="yes" />
		<tag k="layer" v="1" />
		<tag k="name" v="Østerhus" />
		<tag k="ssr:stedsnr" v="350571" />
	</node>
	<node id="-4172" lat="59.3891166626" lon="6.3408055482">
		<tag k="bridge" v="yes" />
		<tag k="layer" v="1" />
		<tag k="name" v="Natland" />
		<tag k="ssr:stedsnr" v="896637" />
	</node>
	<node id="-5835" lat="59.5051749959" lon="6.63010832993">
		<tag k="bridge" v="yes" />
		<tag k="layer" v="1" />
		<tag k="name" v="Storhaug" />
		<tag k="ssr:stedsnr" v="350567" />
	</node>
	<node id="-6090" lat="59.6788055555" lon="6.75800278497">
		<tag k="bridge" v="yes" />
		<tag k="layer" v="1" />
		<tag k="name" v="Tornes" />
		<tag k="ssr:stedsnr" v="411584" />
	</node>
	<node id="-6089" lat="59.3751944437" lon="6.29346944426">
		<tag k="bridge" v="yes" />
		<tag k="layer" v="1" />
		<tag k="name" v="Tveit" />
		<tag k="ssr:stedsnr" v="411582" />
	</node>
	<node id="-4168" lat="59.6166555514" lon="6.77459999988">
		<tag k="bridge" v="yes" />
		<tag k="layer" v="1" />
		<tag k="name" v="Bismarvik" />
		<tag k="ssr:stedsnr" v="896616" />
	</node>
	<node id="-5836" lat="59.5096527807" lon="6.20845555879">
		<tag k="bridge" v="yes" />
		<tag k="layer" v="1" />
		<tag k="name" v="Tysland" />
		<tag k="ssr:stedsnr" v="350569" />
	</node>
	<node id="-6086" lat="59.6509888919" lon="6.80799167047">
		<tag k="bridge" v="yes" />
		<tag k="layer" v="1" />
		<tag k="name" v="Kilen" />
		<tag k="ssr:stedsnr" v="411561" />
	</node>
	<node id="-3013" lat="59.4271361128" lon="6.05392222416">
		<tag k="bridge" v="yes" />
		<tag k="layer" v="1" />
		<tag k="name" v="Planen" />
		<tag k="ssr:stedsnr" v="289665" />
	</node>
	<node id="-6084" lat="59.3639277749" lon="6.44931667034">
		<tag k="bridge" v="yes" />
		<tag k="layer" v="1" />
		<tag k="name" v="Djupsåna" />
		<tag k="ssr:stedsnr" v="411551" />
	</node>
	<node id="-4661" lat="59.6542305571" lon="6.86199722495">
		<tag k="bridge" v="yes" />
		<tag k="layer" v="1" />
		<tag k="name" v="Øyno" />
		<tag k="ssr:stedsnr" v="897562" />
	</node>
	<node id="-4171" lat="59.3485194425" lon="6.23837221596">
		<tag k="bridge" v="yes" />
		<tag k="layer" v="1" />
		<tag k="name" v="Hålandsosen" />
		<tag k="ssr:stedsnr" v="896633" />
	</node>
	<node id="-2622" lat="59.5010388866" lon="6.5527444512">
		<tag k="highway" v="path" />
		<tag k="name" v="Tjordalsstien" />
		<tag k="ssr:stedsnr" v="60759" />
	</node>
	<node id="-5429" lat="59.3640611089" lon="6.10699444372">
		<tag k="bridge" v="yes" />
		<tag k="layer" v="1" />
		<tag k="name" v="Økstrafjord" />
		<tag k="ssr:stedsnr" v="168601" />
	</node>
	<node id="-4170" lat="59.4135083335" lon="6.07193610354">
		<tag k="bridge" v="yes" />
		<tag k="layer" v="1" />
		<tag k="name" v="Kjøreberget" />
		<tag k="ssr:stedsnr" v="896629" />
	</node>
	<node id="-4662" lat="59.3346083343" lon="6.24910555958">
		<tag k="bridge" v="yes" />
		<tag k="layer" v="1" />
		<tag k="name" v="Åsen" />
		<tag k="ssr:stedsnr" v="897563" />
	</node>
	<node id="-4169" lat="59.3254055522" lon="6.18739445018">
		<tag k="man_made" v="quay" />
		<tag k="name" v="Bogsund kai" />
		<tag k="place" v="locality" />
		<tag k="ssr:stedsnr" v="896618" />
	</node>
	<node id="-5428" lat="59.4828500013" lon="6.46797222433">
		<tag k="bridge" v="yes" />
		<tag k="layer" v="1" />
		<tag k="name" v="Lunde" />
		<tag k="ssr:stedsnr" v="168585" />
	</node>
	<node id="-5427" lat="59.5976333298" lon="6.80099999854">
		<tag k="bridge" v="yes" />
		<tag k="layer" v="1" />
		<tag k="name" v="Kvednåna" />
		<tag k="ssr:stedsnr" v="168575" />
	</node>
	<node id="-5426" lat="59.6501805528" lon="6.7998805544">
		<tag k="bridge" v="yes" />
		<tag k="layer" v="1" />
		<tag k="name" v="Hønsebærhaugen" />
		<tag k="ssr:stedsnr" v="168570" />
	</node>
	<node id="-5425" lat="59.50515278" lon="6.55558055332">
		<tag k="bridge" v="yes" />
		<tag k="layer" v="1" />
		<tag k="name" v="Brustveit" />
		<tag k="ssr:stedsnr" v="168565" />
	</node>
	<node id="-5168" lat="59.5915527787" lon="6.71311110399">
		<tag k="bridge" v="yes" />
		<tag k="layer" v="1" />
		<tag k="name" v="Lalid" />
		<tag k="ssr:stedsnr" v="107613" />
	</node>
	<node id="-6088" lat="59.4790527767" lon="6.43640555279">
		<tag k="bridge" v="yes" />
		<tag k="layer" v="1" />
		<tag k="name" v="Steine" />
		<tag k="ssr:stedsnr" v="411580" />
	</node>
	<node id="-2862" lat="59.416302774" lon="6.21919166165">
		<tag k="layer" v="-1" />
		<tag k="name" v="Lovraeidet II" />
		<tag k="ssr:stedsnr" v="287334" />
		<tag k="tunnel" v="yes" />
	</node>
	<node id="-4573" lat="59.5589249961" lon="6.46588334172">
		<tag k="bridge" v="yes" />
		<tag k="layer" v="1" />
		<tag k="name" v="Tengesdal" />
		<tag k="ssr:stedsnr" v="836561" />
	</node>
	<node id="-5170" lat="59.3177027796" lon="6.29127500034">
		<tag k="bridge" v="yes" />
		<tag k="layer" v="1" />
		<tag k="name" v="Nordalselv" />
		<tag k="ssr:stedsnr" v="107625" />
	</node>
	<node id="-5959" lat="59.4525777784" lon="6.88720554696">
		<tag k="ford" v="yes" />
		<tag k="name" v="Skorpevadet" />
		<tag k="place" v="locality" />
		<tag k="ssr:stedsnr" v="366035" />
	</node>
	<node id="-4892" lat="59.361613885" lon="6.25876667139">
		<tag k="bridge" v="yes" />
		<tag k="layer" v="1" />
		<tag k="name" v="Marahøl" />
		<tag k="ssr:stedsnr" v="46664" />
	</node>
	<node id="-5789" lat="59.4477249987" lon="6.58637777035">
		<tag k="alt_name" v="Stengjene" />
		<tag k="highway" v="path" />
		<tag k="name" v="Stengene" />
		<tag k="ssr:stedsnr" v="306662" />
	</node>
	<node id="-5169" lat="59.4061361079" lon="6.20031943951">
		<tag k="bridge" v="yes" />
		<tag k="layer" v="1" />
		<tag k="name" v="Lovraeidet" />
		<tag k="ssr:stedsnr" v="107615" />
	</node>
	<node id="-4166" lat="59.3529166623" lon="6.24126388586">
		<tag k="bridge" v="yes" />
		<tag k="layer" v="1" />
		<tag k="name" v="Sega" />
		<tag k="ssr:stedsnr" v="714564" />
	</node>
	<node id="-4891" lat="59.4528500022" lon="6.17856111038">
		<tag k="bridge" v="yes" />
		<tag k="layer" v="1" />
		<tag k="name" v="Midtvik" />
		<tag k="ssr:stedsnr" v="46661" />
	</node>
	<node id="-3103" lat="59.5689194404" lon="6.42528610629">
		<tag k="highway" v="path" />
		<tag k="name" v="Bjønnstien" />
		<tag k="ssr:stedsnr" v="479539" />
	</node>
	<node id="-5167" lat="59.6393138856" lon="6.77811111423">
		<tag k="bridge" v="yes" />
		<tag k="layer" v="1" />
		<tag k="name" v="Geitatangen" />
		<tag k="ssr:stedsnr" v="107609" />
	</node>
	<node id="-4893" lat="59.488891669" lon="6.49358056041">
		<tag k="bridge" v="yes" />
		<tag k="layer" v="1" />
		<tag k="name" v="Prestvik" />
		<tag k="ssr:stedsnr" v="46669" />
	</node>
	<node id="-5020" lat="59.7017972193" lon="6.80932500827">
		<tag k="ford" v="yes" />
		<tag k="name" v="Prestavadet" />
		<tag k="place" v="locality" />
		<tag k="ssr:stedsnr" v="60518" />
	</node>
	<node id="-6299" lat="59.5274944477" lon="6.24783054797">
		<tag k="bridge" v="yes" />
		<tag k="layer" v="1" />
		<tag k="name" v="Røyrvik" />
		<tag k="ssr:stedsnr" v="532593" />
	</node>
	<node id="-4890" lat="59.3452388932" lon="6.19588332962">
		<tag k="bridge" v="yes" />
		<tag k="layer" v="1" />
		<tag k="name" v="Kvernavik" />
		<tag k="ssr:stedsnr" v="46660" />
	</node>
	<node id="-3918" lat="59.3400129882" lon="5.978334194">
		<tag k="landuse" v="harbour" />
		<tag k="name" v="Fatighamn" />
		<tag k="seamark:type" v="harbour" />
		<tag k="ssr:stedsnr" v="722168" />
	</node>
	<node id="-3417" lat="59.5472666683" lon="6.36248889322">
		<tag k="junction" v="yes" />
		<tag k="name" v="Krossen" />
		<tag k="place" v="locality" />
		<tag k="ssr:stedsnr" v="661745" />
	</node>
	<node id="-4372" lat="59.7124638855" lon="6.97394722838">
		<tag k="highway" v="path" />
		<tag k="name" v="Nilsastien" />
		<tag k="ssr:stedsnr" v="910603" />
	</node>
	<node id="-6085" lat="59.3389666663" lon="5.96205832496">
		<tag k="amenity" v="ferry_terminal" />
		<tag k="name" v="Foldøy ferjekai" />
		<tag k="ssr:stedsnr" v="411556" />
	</node>
	<node id="-3983" lat="59.4328750037" lon="6.34923055049">
		<tag k="highway" v="path" />
		<tag k="name" v="Nibustien" />
		<tag k="ssr:stedsnr" v="727135" />
	</node>
	<node id="-3340" lat="59.5417361141" lon="6.44193889455">
		<tag k="fixme" v="verify maritime location" />
		<tag k="mooring" v="yes" />
		<tag k="name" v="Habn" />
		<tag k="place" v="locality" />
		<tag k="ssr:stedsnr" v="424121" />
	</node>
	<node id="-6087" lat="59.5996111119" lon="6.75087499423">
		<tag k="bridge" v="yes" />
		<tag k="layer" v="1" />
		<tag k="name" v="Røynevarden" />
		<tag k="ssr:stedsnr" v="411576" />
	</node>
	<node id="-6298" lat="59.4850055577" lon="6.21370555357">
		<tag k="amenity" v="ferry_terminal" />
		<tag k="name" v="Ropeid ferjekai" />
		<tag k="ssr:stedsnr" v="532590" />
	</node>
	<node id="-2545" lat="59.349675" lon="6.23448333931">
		<tag k="bridge" v="yes" />
		<tag k="layer" v="1" />
		<tag k="name" v="Rossejuvet" />
		<tag k="ssr:stedsnr" v="229594" />
	</node>
	<node id="-4173" lat="59.6535305565" lon="6.86207778154">
		<tag k="bridge" v="yes" />
		<tag k="layer" v="1" />
		<tag k="name" v="Nigard" />
		<tag k="ssr:stedsnr" v="896639" />
	</node>
</osm>
