<?xml version="1.0" encoding="UTF-8"?>
<osm generator="osmapis" version="0.6">
	<node id="-6141" lat="59.4493527763" lon="6.31889721679">
		<tag k="name" v="Lomatjørna" />
		<tag k="natural" v="water" />
		<tag k="ssr:stedsnr" v="419725" />
	</node>
	<node id="-4092" lat="59.4073999979" lon="6.34519166942">
		<tag k="alt_name" v="Skarabekken" />
		<tag k="name" v="Skardabekken" />
		<tag k="ssr:stedsnr" v="731745" />
		<tag k="waterway" v="stream" />
	</node>
	<node id="-6129" lat="59.4332444461" lon="6.10241666003">
		<tag k="name" v="Fossane" />
		<tag k="ssr:stedsnr" v="419164" />
		<tag k="waterway" v="stream" />
	</node>
	<node id="-2728" lat="59.4145277749" lon="6.33710554739">
		<tag k="alt_name" v="Skaravatnet" />
		<tag k="name" v="Skardavatnet" />
		<tag k="natural" v="water" />
		<tag k="ssr:stedsnr" v="245793" />
		<tag k="water" v="lake" />
	</node>
	<node id="-6125" lat="59.4280999967" lon="6.13103888161">
		<tag k="name" v="Løkjen" />
		<tag k="natural" v="water" />
		<tag k="ssr:stedsnr" v="419110" />
	</node>
	<node id="-4072" lat="59.5892027789" lon="6.83698889056">
		<tag k="alt_name" v="Stemvatnet" />
		<tag k="name" v="Tverravatnet" />
		<tag k="natural" v="water" />
		<tag k="ssr:stedsnr" v="731101" />
		<tag k="water" v="lake" />
	</node>
	<node id="-6119" lat="59.4183500024" lon="6.00742500506">
		<tag k="name" v="Skavsteinbekken" />
		<tag k="ssr:stedsnr" v="418765" />
		<tag k="waterway" v="stream" />
	</node>
	<node id="-4066" lat="59.6627250018" lon="6.84867500608">
		<tag k="name" v="Indre Strondebekken" />
		<tag k="ssr:stedsnr" v="731035" />
		<tag k="waterway" v="stream" />
	</node>
	<node id="-4065" lat="59.6181138907" lon="6.68026666449">
		<tag k="name" v="Hamrabøåa" />
		<tag k="ssr:stedsnr" v="731023" />
		<tag k="waterway" v="stream" />
	</node>
	<node id="-4053" lat="59.473588893" lon="6.40963888729">
		<tag k="name" v="Ritlandsvatnet" />
		<tag k="natural" v="water" />
		<tag k="ssr:stedsnr" v="730689" />
		<tag k="water" v="lake" />
	</node>
	<node id="-4050" lat="59.4679361076" lon="6.32527777718">
		<tag k="name" v="Grovafossen" />
		<tag k="natural" v="waterfall" />
		<tag k="ssr:stedsnr" v="730790" />
	</node>
	<node id="-4049" lat="59.4745249962" lon="6.4406111144">
		<tag k="name" v="Gallandstjørn" />
		<tag k="natural" v="water" />
		<tag k="ssr:stedsnr" v="730782" />
	</node>
	<node id="-6096" lat="59.3379083365" lon="6.16158888843">
		<tag k="name" v="Fuglatjørna" />
		<tag k="natural" v="water" />
		<tag k="ssr:stedsnr" v="418235" />
	</node>
	<node id="-4046" lat="59.447899998" lon="6.11460000664">
		<tag k="name" v="Tysingvatnet" />
		<tag k="natural" v="water" />
		<tag k="ssr:stedsnr" v="730347" />
		<tag k="water" v="lake" />
	</node>
	<node id="-4429" lat="59.5272805586" lon="6.56371111844">
		<tag k="name" v="Holmalivatnet" />
		<tag k="natural" v="water" />
		<tag k="ssr:stedsnr" v="913134" />
	</node>
	<node id="-6092" lat="59.3930666637" lon="5.93866945162">
		<tag k="name" v="Borgåna" />
		<tag k="ssr:stedsnr" v="417735" />
		<tag k="waterway" v="stream" />
	</node>
	<node id="-6091" lat="59.4714960125" lon="6.67984648514">
		<tag k="name" v="Grunnavatnet" />
		<tag k="natural" v="water" />
		<tag k="ssr:stedsnr" v="417016" />
		<tag k="water" v="lake" />
	</node>
	<node id="-4428" lat="59.5205260317" lon="6.47399178524">
		<tag k="name" v="Ådnebuvatnet" />
		<tag k="natural" v="water" />
		<tag k="ssr:stedsnr" v="913127" />
		<tag k="water" v="lake" />
	</node>
	<node id="-4034" lat="59.4458611077" lon="6.85428611052">
		<tag k="name" v="Breiavadet" />
		<tag k="place" v="locality" />
		<tag k="ssr:stedsnr" v="730035" />
	</node>
	<node id="-4033" lat="59.4504222188" lon="6.82375556295">
		<tag k="name" v="Grasdalsåa" />
		<tag k="ssr:stedsnr" v="730034" />
		<tag k="waterway" v="river" />
	</node>
	<node id="-4031" lat="59.4627388923" lon="6.98836943808">
		<tag k="name" v="Holmevasslaupet" />
		<tag k="natural" v="strait" />
		<tag k="ssr:stedsnr" v="730183" />
	</node>
	<node id="-6076" lat="59.5920916641" lon="6.67336666345">
		<tag k="name" v="Toskestøltjørna" />
		<tag k="natural" v="water" />
		<tag k="ssr:stedsnr" v="385888" />
	</node>
	<node id="-6075" lat="59.4270888848" lon="6.59769444266">
		<tag k="name" v="Setanes" />
		<tag k="natural" v="cape" />
		<tag k="ssr:stedsnr" v="384099" />
	</node>
	<node id="-6073" lat="59.4915972006" lon="6.79753089587">
		<tag k="loc_name" v="Vestra Kaldavatnet" />
		<tag k="name" v="Kaldevatn" />
		<tag k="natural" v="water" />
		<tag k="ssr:stedsnr" v="383028" />
		<tag k="water" v="lake" />
	</node>
	<node id="-4020" lat="59.6381499995" lon="6.68367777272">
		<tag k="name" v="Kleppheibekken" />
		<tag k="ssr:stedsnr" v="728267" />
		<tag k="waterway" v="stream" />
	</node>
	<node id="-6066" lat="59.5765271697" lon="6.43593259406">
		<tag k="name" v="Vønevatnet" />
		<tag k="natural" v="water" />
		<tag k="ssr:stedsnr" v="367828" />
		<tag k="water" v="lake" />
	</node>
	<node id="-3059" lat="59.4107800231" lon="6.24839427241">
		<tag k="name" v="Ullsvatnet" />
		<tag k="natural" v="water" />
		<tag k="ssr:stedsnr" v="305813" />
		<tag k="water" v="lake" />
	</node>
	<node id="-4016" lat="59.5068125333" lon="6.42653328376">
		<tag k="name" v="Taumetjørna" />
		<tag k="natural" v="water" />
		<tag k="ssr:stedsnr" v="727914" />
	</node>
	<node id="-6060" lat="59.545863887" lon="6.17547500245">
		<tag k="alt_name" v="Vinnvollsvatnet" />
		<tag k="name" v="Vindvollsvatnet" />
		<tag k="natural" v="water" />
		<tag k="ssr:stedsnr" v="367583" />
		<tag k="water" v="lake" />
	</node>
	<node id="-4011" lat="59.4844611123" lon="6.50551389241">
		<tag k="name" v="Notahølen" />
		<tag k="place" v="locality" />
		<tag k="ssr:stedsnr" v="727785" />
	</node>
	<node id="-6058" lat="59.69556111" lon="7.12153889511">
		<tag k="name" v="Naustdalsholmen" />
		<tag k="place" v="islet" />
		<tag k="ssr:stedsnr" v="367428" />
	</node>
	<node id="-4423" lat="59.5511728504" lon="6.73615364142">
		<tag k="name" v="Dørlevatnet" />
		<tag k="natural" v="water" />
		<tag k="ssr:stedsnr" v="913091" />
		<tag k="water" v="lake" />
	</node>
	<node id="-4008" lat="59.5643027791" lon="6.78153611948">
		<tag k="name" v="Nystølbekken" />
		<tag k="ssr:stedsnr" v="727539" />
		<tag k="waterway" v="stream" />
	</node>
	<node id="-4007" lat="59.5575583308" lon="6.92284167531">
		<tag k="name" v="Longa Tjødno" />
		<tag k="natural" v="water" />
		<tag k="ssr:stedsnr" v="727529" />
	</node>
	<node id="-6048" lat="59.5359805566" lon="6.22626388072">
		<tag k="name" v="Røyrvikvatnet" />
		<tag k="natural" v="water" />
		<tag k="ssr:stedsnr" v="367134" />
		<tag k="water" v="lake" />
	</node>
	<node id="-6046" lat="59.5303564021" lon="6.54662255403">
		<tag k="alt_name" v="Vasstølvatnet" />
		<tag k="name" v="Vasstølsvatnet" />
		<tag k="natural" v="water" />
		<tag k="ssr:stedsnr" v="367120" />
	</node>
	<node id="-6045" lat="59.5237000031" lon="6.49003611167">
		<tag k="alt_name" v="Frankhillervatnet, stora;Stora Frakhidlervatnet" />
		<tag k="name" v="Stora Frakhillervatnet" />
		<tag k="natural" v="water" />
		<tag k="ssr:stedsnr" v="367119" />
		<tag k="water" v="lake" />
	</node>
	<node id="-6044" lat="59.5214618603" lon="6.49778419349">
		<tag k="fixme" v="multiple name tags, choose one and add the other to alt_name" />
		<tag k="name" v="Smaladalsvatnet;Vatndalsvatnet" />
		<tag k="natural" v="water" />
		<tag k="ssr:stedsnr" v="367110" />
		<tag k="water" v="lake" />
	</node>
	<node id="-3989" lat="59.5160916671" lon="6.6480027825">
		<tag k="name" v="Kløvsbekken" />
		<tag k="ssr:stedsnr" v="727377" />
		<tag k="waterway" v="stream" />
	</node>
	<node id="-6036" lat="59.5681444429" lon="6.82927500108">
		<tag k="name" v="Mosvatnet" />
		<tag k="natural" v="water" />
		<tag k="ssr:stedsnr" v="367054" />
		<tag k="water" v="lake" />
	</node>
	<node id="-6035" lat="59.5776888915" lon="6.69248888954">
		<tag k="name" v="Seglet" />
		<tag k="natural" v="cape" />
		<tag k="ssr:stedsnr" v="367051" />
	</node>
	<node id="-6031" lat="59.6367250028" lon="6.62667777666">
		<tag k="name" v="Øyvatnet" />
		<tag k="natural" v="water" />
		<tag k="ssr:stedsnr" v="367007" />
		<tag k="water" v="lake" />
	</node>
	<node id="-4077" lat="59.5068379322" lon="6.60118073102">
		<tag k="name" v="Gjåvatnet" />
		<tag k="natural" v="water" />
		<tag k="ssr:stedsnr" v="731380" />
		<tag k="water" v="lake" />
	</node>
	<node id="-3979" lat="59.4575787108" lon="6.4291592812">
		<tag k="name" v="Kveisåno" />
		<tag k="ssr:stedsnr" v="727247" />
		<tag k="waterway" v="stream" />
	</node>
	<node id="-3978" lat="59.4524194422" lon="6.42483332798">
		<tag k="name" v="Jeiskarfossen" />
		<tag k="natural" v="waterfall" />
		<tag k="ssr:stedsnr" v="727246" />
	</node>
	<node id="-3977" lat="59.3822138851" lon="6.54581944767">
		<tag k="name" v="Fossane" />
		<tag k="natural" v="waterfall" />
		<tag k="ssr:stedsnr" v="727196" />
	</node>
	<node id="-6024" lat="59.393319446" lon="6.52475556101">
		<tag k="name" v="Krovatnet" />
		<tag k="natural" v="water" />
		<tag k="ssr:stedsnr" v="366836" />
		<tag k="water" v="lake" />
	</node>
	<node id="-3972" lat="59.4569749959" lon="6.36275277965">
		<tag k="name" v="Austmannsmogjet" />
		<tag k="place" v="locality" />
		<tag k="ssr:stedsnr" v="727174" />
	</node>
	<node id="-3971" lat="59.5408027758" lon="6.59787499821">
		<tag k="name" v="Djupevikåno" />
		<tag k="ssr:stedsnr" v="727069" />
		<tag k="waterway" v="river" />
	</node>
	<node id="-3970" lat="59.544551154" lon="6.53079274644">
		<tag k="name" v="Lomåstjørna" />
		<tag k="natural" v="water" />
		<tag k="ssr:stedsnr" v="727068" />
	</node>
	<node id="-6016" lat="59.4113888883" lon="6.30538055322">
		<tag k="name" v="Krotjørna" />
		<tag k="natural" v="water" />
		<tag k="ssr:stedsnr" v="366797" />
	</node>
	<node id="-3963" lat="59.6787493126" lon="7.14018028807">
		<tag k="name" v="Nedre Tormodsvatn" />
		<tag k="natural" v="water" />
		<tag k="ssr:stedsnr" v="724144" />
	</node>
	<node id="-6010" lat="59.4063865704" lon="6.4099384741">
		<tag k="loc_name" v="Kariholtjørn;Karitjørnene" />
		<tag k="name" v="Karitjørnane" />
		<tag k="natural" v="water" />
		<tag k="ssr:stedsnr" v="366754" />
		<tag k="water" v="lake" />
	</node>
	<node id="-6009" lat="59.4151805567" lon="6.47049166009">
		<tag k="alt_name" v="Breiastølsåno" />
		<tag k="name" v="Breidastølåna" />
		<tag k="ssr:stedsnr" v="366747" />
		<tag k="waterway" v="stream" />
	</node>
	<node id="-3958" lat="59.4800361079" lon="6.31017776991">
		<tag k="name" v="Kvednabekken" />
		<tag k="ssr:stedsnr" v="724024" />
		<tag k="waterway" v="stream" />
	</node>
	<node id="-6005" lat="59.4718000008" lon="6.5448444358">
		<tag k="name" v="Brunabrekktjørna" />
		<tag k="natural" v="water" />
		<tag k="ssr:stedsnr" v="366729" />
	</node>
	<node id="-3955" lat="59.4248916674" lon="6.0298416743">
		<tag k="name" v="Råtavika" />
		<tag k="natural" v="bay" />
		<tag k="ssr:stedsnr" v="724158" />
	</node>
	<node id="-3954" lat="59.4783861142" lon="6.28809167379">
		<tag k="name" v="Neset" />
		<tag k="natural" v="cape" />
		<tag k="ssr:stedsnr" v="724001" />
	</node>
	<node id="-5999" lat="59.4959916699" lon="6.29736943585">
		<tag k="alt_name" v="Longtjørn" />
		<tag k="name" v="Langtjørn" />
		<tag k="natural" v="water" />
		<tag k="ssr:stedsnr" v="366682" />
	</node>
	<node id="-3949" lat="59.417319448" lon="5.95467499462">
		<tag k="name" v="Stemmevatnet" />
		<tag k="natural" v="water" />
		<tag k="ssr:stedsnr" v="722828" />
		<tag k="water" v="lake" />
	</node>
	<node id="-5992" lat="59.3427000045" lon="6.16817499951">
		<tag k="alt_name" v="Jupavatnet" />
		<tag k="name" v="Djupavatnet" />
		<tag k="natural" v="water" />
		<tag k="ssr:stedsnr" v="366563" />
		<tag k="water" v="lake" />
	</node>
	<node id="-4223" lat="59.3959750039" lon="5.95627500463">
		<tag k="alt_name" v="Seilvatnet" />
		<tag k="name" v="Selvatnet" />
		<tag k="natural" v="water" />
		<tag k="ssr:stedsnr" v="730410" />
		<tag k="water" v="lake" />
	</node>
	<node id="-3925" lat="59.4330888874" lon="6.11484722733">
		<tag k="name" v="Fuglåstjørna" />
		<tag k="natural" v="water" />
		<tag k="ssr:stedsnr" v="722134" />
	</node>
	<node id="-5971" lat="59.4281250003" lon="6.0337999967">
		<tag k="name" v="Haugselva" />
		<tag k="ssr:stedsnr" v="366365" />
		<tag k="waterway" v="river" />
	</node>
	<node id="-5969" lat="59.4374749985" lon="5.99084999907">
		<tag k="name" v="Rødnetjørna" />
		<tag k="natural" v="water" />
		<tag k="ssr:stedsnr" v="366350" />
	</node>
	<node id="-3919" lat="59.4328777786" lon="6.10728055397">
		<tag k="name" v="Svartavatnet" />
		<tag k="natural" v="water" />
		<tag k="ssr:stedsnr" v="722177" />
		<tag k="water" v="lake" />
	</node>
	<node id="-5964" lat="59.4144944421" lon="6.90357222275">
		<tag k="name" v="Skreivatnet" />
		<tag k="natural" v="water" />
		<tag k="ssr:stedsnr" v="366204" />
		<tag k="water" v="lake" />
	</node>
	<node id="-6114" lat="59.3930194416" lon="6.29449443721">
		<tag k="name" v="Hauglandstjørna" />
		<tag k="natural" v="water" />
		<tag k="ssr:stedsnr" v="418369" />
	</node>
	<node id="-5962" lat="59.3818305576" lon="6.60802221958">
		<tag k="name" v="Flottåa" />
		<tag k="ssr:stedsnr" v="366192" />
		<tag k="waterway" v="stream" />
	</node>
	<node id="-5961" lat="59.4673638906" lon="6.89614999572">
		<tag k="name" v="Spranget" />
		<tag k="natural" v="cape" />
		<tag k="ssr:stedsnr" v="366050" />
	</node>
	<node id="-3912" lat="59.6282790793" lon="6.66773763274">
		<tag k="name" v="Vasslivatnet" />
		<tag k="natural" v="water" />
		<tag k="ssr:stedsnr" v="610021" />
	</node>
	<node id="-3910" lat="59.6394888871" lon="6.78151944538">
		<tag k="fixme" v="multiple name tags, choose one and add the other to alt_name" />
		<tag k="name" v="Geitatangen;Lyngskårneset" />
		<tag k="natural" v="cape" />
		<tag k="ssr:stedsnr" v="610013" />
	</node>
	<node id="-5957" lat="59.4354403001" lon="6.72118768508">
		<tag k="name" v="Stranddalsvatnet" />
		<tag k="natural" v="water" />
		<tag k="ssr:stedsnr" v="366030" />
		<tag k="water" v="lake" />
	</node>
	<node id="-3382" lat="59.4285333351" lon="6.02167499172">
		<tag k="name" v="Storeholmen" />
		<tag k="place" v="islet" />
		<tag k="ssr:stedsnr" v="299196" />
	</node>
	<node id="-3906" lat="59.3627333305" lon="6.3431972225">
		<tag k="alt_name" v="Fiskelauvatnet" />
		<tag k="name" v="Fiskelaugvatnet" />
		<tag k="natural" v="water" />
		<tag k="ssr:stedsnr" v="609802" />
		<tag k="water" v="lake" />
	</node>
	<node id="-3904" lat="59.7456861144" lon="6.97113056163">
		<tag k="name" v="Midtra Grubbedalstjørna" />
		<tag k="natural" v="water" />
		<tag k="ssr:stedsnr" v="609397" />
	</node>
	<node id="-5951" lat="59.4764138857" lon="6.43287776972">
		<tag k="name" v="Steinsholmen" />
		<tag k="place" v="islet" />
		<tag k="ssr:stedsnr" v="363980" />
	</node>
	<node id="-3901" lat="59.3940727426" lon="5.9698280655">
		<tag k="name" v="Vasstølvatnet" />
		<tag k="natural" v="water" />
		<tag k="ssr:stedsnr" v="609388" />
		<tag k="water" v="lake" />
	</node>
	<node id="-5948" lat="59.4828194412" lon="6.47614166475">
		<tag k="name" v="Bruhøl" />
		<tag k="place" v="locality" />
		<tag k="ssr:stedsnr" v="363964" />
	</node>
	<node id="-3896" lat="59.7184502455" lon="6.90629270128">
		<tag k="name" v="Finnabuvatnet" />
		<tag k="natural" v="water" />
		<tag k="ssr:stedsnr" v="609224" />
		<tag k="water" v="lake" />
	</node>
	<node id="-3892" lat="59.3929611138" lon="6.26740000331">
		<tag k="alt_name" v="Tomlongsvatnet" />
		<tag k="name" v="Tumlungsvatnet" />
		<tag k="natural" v="water" />
		<tag k="ssr:stedsnr" v="608812" />
		<tag k="water" v="lake" />
	</node>
	<node id="-3886" lat="59.3806916656" lon="6.60172778171">
		<tag k="name" v="Hølen" />
		<tag k="place" v="locality" />
		<tag k="ssr:stedsnr" v="608178" />
	</node>
	<node id="-5932" lat="59.5711805579" lon="6.66250277462">
		<tag k="name" v="Holmen" />
		<tag k="place" v="islet" />
		<tag k="ssr:stedsnr" v="363542" />
	</node>
	<node id="-3881" lat="59.4007888913" lon="6.66008611042">
		<tag k="name" v="Moavatnet" />
		<tag k="natural" v="water" />
		<tag k="ssr:stedsnr" v="608202" />
		<tag k="water" v="lake" />
	</node>
	<node id="-3880" lat="59.480408334" lon="6.75152778577">
		<tag k="name" v="Såtetjørna" />
		<tag k="natural" v="water" />
		<tag k="ssr:stedsnr" v="608002" />
	</node>
	<node id="-3878" lat="59.5602888913" lon="6.65183888759">
		<tag k="name" v="Myrbekk" />
		<tag k="ssr:stedsnr" v="606616" />
		<tag k="waterway" v="stream" />
	</node>
	<node id="-5918" lat="59.375761112" lon="6.4501749983">
		<tag k="name" v="Hjortelandsåna" />
		<tag k="ssr:stedsnr" v="363250" />
		<tag k="waterway" v="stream" />
	</node>
	<node id="-3869" lat="59.6179833313" lon="6.72004999776">
		<tag k="name" v="Gruvlestrondo" />
		<tag k="natural" v="beach" />
		<tag k="ssr:stedsnr" v="606428" />
	</node>
	<node id="-3867" lat="59.6286388855" lon="7.00025000522">
		<tag k="name" v="Spelefossen" />
		<tag k="natural" v="waterfall" />
		<tag k="ssr:stedsnr" v="606404" />
	</node>
	<node id="-5911" lat="59.3883305534" lon="6.53720556242">
		<tag k="name" v="Storefoss" />
		<tag k="natural" v="waterfall" />
		<tag k="ssr:stedsnr" v="363165" />
	</node>
	<node id="-3860" lat="59.5094055555" lon="6.55666388129">
		<tag k="name" v="Hundabekken" />
		<tag k="ssr:stedsnr" v="606035" />
		<tag k="waterway" v="stream" />
	</node>
	<node id="-5906" lat="59.6320138891" lon="6.67601110255">
		<tag k="name" v="Longe Løkjen" />
		<tag k="natural" v="water" />
		<tag k="ssr:stedsnr" v="363428" />
		<tag k="water" v="lake" />
	</node>
	<node id="-5903" lat="59.5702916664" lon="6.50116389269">
		<tag k="name" v="Almelibekken" />
		<tag k="ssr:stedsnr" v="363415" />
		<tag k="waterway" v="stream" />
	</node>
	<node id="-5902" lat="59.5884611079" lon="6.55514443612">
		<tag k="name" v="Storåno" />
		<tag k="ssr:stedsnr" v="363413" />
		<tag k="waterway" v="river" />
	</node>
	<node id="-5901" lat="59.6083250043" lon="6.77113611809">
		<tag k="name" v="Svones" />
		<tag k="natural" v="cape" />
		<tag k="ssr:stedsnr" v="363363" />
	</node>
	<node id="-3848" lat="59.4220499978" lon="6.3733500052">
		<tag k="name" v="Votno" />
		<tag k="natural" v="water" />
		<tag k="ssr:stedsnr" v="605383" />
		<tag k="water" v="lake" />
	</node>
	<node id="-3846" lat="59.384513892" lon="6.41059999597">
		<tag k="name" v="Stemtjørna" />
		<tag k="natural" v="water" />
		<tag k="ssr:stedsnr" v="605354" />
	</node>
	<node id="-5892" lat="59.4465472222" lon="6.48719166294">
		<tag k="name" v="Tjøstheimskartjørna" />
		<tag k="natural" v="water" />
		<tag k="ssr:stedsnr" v="363034" />
	</node>
	<node id="-3843" lat="59.4874888882" lon="6.26748611206">
		<tag k="name" v="Eisvika" />
		<tag k="natural" v="bay" />
		<tag k="ssr:stedsnr" v="602375" />
	</node>
	<node id="-5888" lat="59.5266472233" lon="6.40700555208">
		<tag k="name" v="Telgabekken" />
		<tag k="ssr:stedsnr" v="363027" />
		<tag k="waterway" v="stream" />
	</node>
	<node id="-5885" lat="59.5266944451" lon="6.1926472306">
		<tag k="name" v="Nordåna" />
		<tag k="ssr:stedsnr" v="360145" />
		<tag k="waterway" v="river" />
	</node>
	<node id="-5884" lat="59.516536113" lon="6.18486388636">
		<tag k="name" v="Tjødn" />
		<tag k="natural" v="water" />
		<tag k="ssr:stedsnr" v="360134" />
	</node>
	<node id="-5882" lat="59.6193083304" lon="6.79546111176">
		<tag k="name" v="Lågabekkneset" />
		<tag k="natural" v="cape" />
		<tag k="ssr:stedsnr" v="359328" />
	</node>
	<node id="-5880" lat="59.5772027777" lon="6.42302221563">
		<tag k="name" v="Himlasyntjørna" />
		<tag k="natural" v="water" />
		<tag k="ssr:stedsnr" v="358720" />
	</node>
	<node id="-3028" lat="59.5273083324" lon="6.4543527772">
		<tag k="name" v="Simletjørna" />
		<tag k="natural" v="water" />
		<tag k="ssr:stedsnr" v="302057" />
	</node>
	<node id="-3710" lat="59.327527782" lon="6.29041667472">
		<tag k="name" v="Stemtjørna" />
		<tag k="natural" v="water" />
		<tag k="ssr:stedsnr" v="487910" />
	</node>
	<node id="-4392" lat="59.3428000003" lon="6.06327500539">
		<tag k="name" v="Slåttetjørna" />
		<tag k="natural" v="water" />
		<tag k="ssr:stedsnr" v="912587" />
	</node>
	<node id="-3709" lat="59.3641249978" lon="6.13659999655">
		<tag k="name" v="Økstraelva" />
		<tag k="ssr:stedsnr" v="487514" />
		<tag k="waterway" v="river" />
	</node>
	<node id="-3367" lat="59.3958333365" lon="6.32802500595">
		<tag k="alt_name" v="Natlandsvatnet" />
		<tag k="name" v="Nattlandsvatnet" />
		<tag k="natural" v="water" />
		<tag k="ssr:stedsnr" v="427743" />
		<tag k="water" v="lake" />
	</node>
	<node id="-5859" lat="59.3795105433" lon="6.10973948736">
		<tag k="name" v="Tjødnane" />
		<tag k="natural" v="water" />
		<tag k="ssr:stedsnr" v="357196" />
		<tag k="water" v="lake" />
	</node>
	<node id="-5841" lat="59.3832583338" lon="6.0089333307">
		<tag k="name" v="Myratjørna" />
		<tag k="natural" v="water" />
		<tag k="ssr:stedsnr" v="357729" />
	</node>
	<node id="-3786" lat="59.5602805552" lon="6.74530276999">
		<tag k="name" v="Stilletjørn" />
		<tag k="natural" v="water" />
		<tag k="ssr:stedsnr" v="545508" />
	</node>
	<node id="-3785" lat="59.5555333296" lon="6.84101111262">
		<tag k="name" v="Kyrkjesteinåno" />
		<tag k="ssr:stedsnr" v="545502" />
		<tag k="waterway" v="river" />
	</node>
	<node id="-3783" lat="59.5188055527" lon="6.59017778443">
		<tag k="name" v="Ørevika" />
		<tag k="natural" v="bay" />
		<tag k="ssr:stedsnr" v="545041" />
	</node>
	<node id="-3361" lat="59.3899500027" lon="5.95437499375">
		<tag k="name" v="Djupadalsvatnet" />
		<tag k="natural" v="water" />
		<tag k="ssr:stedsnr" v="427431" />
		<tag k="water" v="lake" />
	</node>
	<node id="-3779" lat="59.4383766287" lon="6.45507279892">
		<tag k="name" v="Rapaskårtjørna" />
		<tag k="natural" v="water" />
		<tag k="ssr:stedsnr" v="545027" />
	</node>
	<node id="-3777" lat="59.4556888866" lon="6.55224722135">
		<tag k="name" v="Stemvatnet" />
		<tag k="natural" v="water" />
		<tag k="ssr:stedsnr" v="545003" />
		<tag k="water" v="lake" />
	</node>
	<node id="-5823" lat="59.5714793129" lon="6.66469623092">
		<tag k="name" v="Vågsvika" />
		<tag k="natural" v="bay" />
		<tag k="ssr:stedsnr" v="324929" />
	</node>
	<node id="-5820" lat="59.6306449465" lon="6.94998221933">
		<tag k="name" v="Grøtjørnane" />
		<tag k="natural" v="water" />
		<tag k="ssr:stedsnr" v="324898" />
		<tag k="water" v="lake" />
	</node>
	<node id="-5809" lat="59.6746662267" lon="6.80126842726">
		<tag k="name" v="Nutavatnet" />
		<tag k="natural" v="water" />
		<tag k="ssr:stedsnr" v="307231" />
		<tag k="water" v="lake" />
	</node>
	<node id="-5807" lat="59.5579777737" lon="6.40298610962">
		<tag k="name" v="Bjergaelva" />
		<tag k="ssr:stedsnr" v="307191" />
		<tag k="waterway" v="stream" />
	</node>
	<node id="-5805" lat="59.6203750018" lon="6.63875556064">
		<tag k="name" v="Tverrlibekken" />
		<tag k="ssr:stedsnr" v="307031" />
		<tag k="waterway" v="stream" />
	</node>
	<node id="-5802" lat="59.5390500022" lon="6.16208333056">
		<tag k="alt_name" v="Vatnastølvatn" />
		<tag k="name" v="Vasstølvatnet" />
		<tag k="natural" v="water" />
		<tag k="ssr:stedsnr" v="306898" />
		<tag k="water" v="lake" />
	</node>
	<node id="-5801" lat="59.5699194404" lon="6.53950555797">
		<tag k="name" v="Lingvangselva" />
		<tag k="ssr:stedsnr" v="306844" />
		<tag k="waterway" v="stream" />
	</node>
	<node id="-5799" lat="59.6077277792" lon="6.57760000012">
		<tag k="name" v="Kvannvatnet" />
		<tag k="natural" v="water" />
		<tag k="ssr:stedsnr" v="306825" />
		<tag k="water" v="lake" />
	</node>
	<node id="-5795" lat="59.4362166625" lon="6.45043610957">
		<tag k="name" v="Såtevatnet" />
		<tag k="natural" v="water" />
		<tag k="ssr:stedsnr" v="306760" />
	</node>
	<node id="-5794" lat="59.4055361143" lon="6.50011110732">
		<tag k="name" v="Heiavatnet" />
		<tag k="natural" v="water" />
		<tag k="ssr:stedsnr" v="306747" />
		<tag k="water" v="lake" />
	</node>
	<node id="-5793" lat="59.4198111114" lon="6.49863611586">
		<tag k="alt_name" v="Heiavatnet, l" />
		<tag k="name" v="Litla Heiavatnet" />
		<tag k="natural" v="water" />
		<tag k="ssr:stedsnr" v="306737" />
	</node>
	<node id="-5792" lat="59.4671555589" lon="6.55077778603">
		<tag k="name" v="Hundatjørna" />
		<tag k="natural" v="water" />
		<tag k="ssr:stedsnr" v="306702" />
	</node>
	<node id="-5791" lat="59.4463583306" lon="6.34838333764">
		<tag k="alt_name" v="Vasstølåno" />
		<tag k="name" v="Vasstølåna" />
		<tag k="ssr:stedsnr" v="306675" />
		<tag k="waterway" v="stream" />
	</node>
	<node id="-5785" lat="59.4848232153" lon="6.32315995509">
		<tag k="alt_name" v="Stemtjørna" />
		<tag k="name" v="Stemtjørnane" />
		<tag k="natural" v="water" />
		<tag k="ssr:stedsnr" v="306619" />
		<tag k="water" v="lake" />
	</node>
	<node id="-3736" lat="59.7262782908" lon="6.96581236917">
		<tag k="name" v="Bakkatjørna" />
		<tag k="natural" v="water" />
		<tag k="ssr:stedsnr" v="538216" />
	</node>
	<node id="-3734" lat="59.7214611077" lon="6.8825777784">
		<tag k="name" v="Puldra" />
		<tag k="ssr:stedsnr" v="688947" />
		<tag k="waterway" v="river" />
	</node>
	<node id="-3728" lat="59.5112861135" lon="6.73849999382">
		<tag k="name" v="Kaldeå" />
		<tag k="ssr:stedsnr" v="687917" />
		<tag k="waterway" v="stream" />
	</node>
	<node id="-3726" lat="59.4035527752" lon="6.79975555666">
		<tag k="name" v="Oddatjørndammen" />
		<tag k="ssr:stedsnr" v="509704" />
		<tag k="waterway" v="dam" />
	</node>
	<node id="-5773" lat="59.5034250004" lon="6.67077500465">
		<tag k="name" v="Stemmavatnet" />
		<tag k="natural" v="water" />
		<tag k="ssr:stedsnr" v="306387" />
	</node>
	<node id="-3724" lat="59.5989111079" lon="6.74427500894">
		<tag k="name" v="Juvvika" />
		<tag k="natural" v="bay" />
		<tag k="ssr:stedsnr" v="506887" />
	</node>
	<node id="-3723" lat="59.5977638861" lon="6.81136943909">
		<tag k="name" v="Kvernaåa" />
		<tag k="ssr:stedsnr" v="506885" />
		<tag k="waterway" v="stream" />
	</node>
	<node id="-3714" lat="59.334399996" lon="6.17829999561">
		<tag k="name" v="Bogstjørna" />
		<tag k="natural" v="water" />
		<tag k="ssr:stedsnr" v="488504" />
	</node>
	<node id="-2988" lat="59.456199999" lon="6.37731944036">
		<tag k="name" v="Suldalslågen" />
		<tag k="ssr:stedsnr" v="245704" />
		<tag k="waterway" v="river" />
	</node>
	<node id="-3008" lat="59.4461861074" lon="6.36544444477">
		<tag k="name" v="Laskaråno" />
		<tag k="ssr:stedsnr" v="545160" />
		<tag k="waterway" v="river" />
	</node>
	<node id="-5758" lat="59.6044184028" lon="6.66138098246">
		<tag k="name" v="Hundatjørna" />
		<tag k="natural" v="water" />
		<tag k="ssr:stedsnr" v="306097" />
	</node>
	<node id="-5757" lat="59.5466999991" lon="6.59821111424">
		<tag k="name" v="Paristjørna" />
		<tag k="natural" v="water" />
		<tag k="ssr:stedsnr" v="306087" />
	</node>
	<node id="-3708" lat="59.455591671" lon="6.68647500101">
		<tag k="name" v="Svartavatnet" />
		<tag k="natural" v="water" />
		<tag k="ssr:stedsnr" v="487049" />
	</node>
	<node id="-3707" lat="59.4491027773" lon="6.75267222531">
		<tag k="name" v="Osatjørna" />
		<tag k="natural" v="water" />
		<tag k="ssr:stedsnr" v="487038" />
	</node>
	<node id="-3706" lat="59.4382305595" lon="6.8305888926">
		<tag k="name" v="Gautevatnet" />
		<tag k="natural" v="water" />
		<tag k="ssr:stedsnr" v="487031" />
		<tag k="water" v="lake" />
	</node>
	<node id="-3704" lat="59.4707194485" lon="6.86315833473">
		<tag k="name" v="Nøvletjørna" />
		<tag k="natural" v="water" />
		<tag k="ssr:stedsnr" v="487007" />
	</node>
	<node id="-3703" lat="59.4668690714" lon="6.63014389624">
		<tag k="name" v="Fagravatnet" />
		<tag k="natural" v="water" />
		<tag k="ssr:stedsnr" v="487004" />
	</node>
	<node id="-5750" lat="59.617686455" lon="6.64988834185">
		<tag k="name" v="Fiskatjørnene" />
		<tag k="natural" v="water" />
		<tag k="ssr:stedsnr" v="306030" />
		<tag k="water" v="lake" />
	</node>
	<node id="-3701" lat="59.690652782" lon="6.75059721438">
		<tag k="name" v="Flesefossen" />
		<tag k="natural" v="waterfall" />
		<tag k="ssr:stedsnr" v="485957" />
	</node>
	<node id="-5748" lat="59.4702916629" lon="6.6078444368">
		<tag k="name" v="Vætingvatnet" />
		<tag k="natural" v="water" />
		<tag k="ssr:stedsnr" v="306010" />
		<tag k="water" v="lake" />
	</node>
	<node id="-5747" lat="59.3224647028" lon="6.32190910215">
		<tag k="name" v="Svartavatnet" />
		<tag k="natural" v="water" />
		<tag k="ssr:stedsnr" v="305897" />
		<tag k="water" v="lake" />
	</node>
	<node id="-3697" lat="59.7213518291" lon="6.91059862416">
		<tag k="name" v="Grøna Neset" />
		<tag k="natural" v="cape" />
		<tag k="ssr:stedsnr" v="485452" />
	</node>
	<node id="-5743" lat="59.4245111123" lon="6.24020555419">
		<tag k="alt_name" v="Blommedalstjørna" />
		<tag k="name" v="Blomedalstjørna" />
		<tag k="natural" v="water" />
		<tag k="ssr:stedsnr" v="305790" />
	</node>
	<node id="-5741" lat="59.3944361078" lon="6.38491110847">
		<tag k="name" v="Nutavatnet" />
		<tag k="natural" v="water" />
		<tag k="ssr:stedsnr" v="305780" />
		<tag k="water" v="lake" />
	</node>
	<node id="-5739" lat="59.3929527813" lon="6.32854999364">
		<tag k="alt_name" v="Natlandsholmen" />
		<tag k="name" v="Nattlandsholmen" />
		<tag k="place" v="islet" />
		<tag k="ssr:stedsnr" v="305777" />
	</node>
	<node id="-5737" lat="59.4720194422" lon="6.41927778272">
		<tag k="alt_name" v="Turketjørna" />
		<tag k="name" v="Tosketjørn" />
		<tag k="natural" v="water" />
		<tag k="ssr:stedsnr" v="305747" />
	</node>
	<node id="-3687" lat="59.4629722244" lon="6.4227083301">
		<tag k="name" v="Nærheimshølen" />
		<tag k="place" v="locality" />
		<tag k="ssr:stedsnr" v="484213" />
	</node>
	<node id="-5732" lat="59.3492249992" lon="6.03090000311">
		<tag k="name" v="Gjerdevatnet" />
		<tag k="natural" v="water" />
		<tag k="ssr:stedsnr" v="305606" />
		<tag k="water" v="lake" />
	</node>
	<node id="-3682" lat="59.3874916658" lon="6.53270554788">
		<tag k="name" v="Storefosstjørna" />
		<tag k="natural" v="water" />
		<tag k="ssr:stedsnr" v="484170" />
	</node>
	<node id="-4027" lat="59.6389611082" lon="6.84338888556">
		<tag k="name" v="Flossåno" />
		<tag k="ssr:stedsnr" v="728649" />
		<tag k="waterway" v="stream" />
	</node>
	<node id="-5728" lat="59.3661749975" lon="6.07352500368">
		<tag k="alt_name" v="Lometjørna" />
		<tag k="name" v="Lomatjørna" />
		<tag k="natural" v="water" />
		<tag k="ssr:stedsnr" v="305517" />
	</node>
	<node id="-5727" lat="59.4298999959" lon="6.10274999565">
		<tag k="alt_name" v="Kjøredalsvatnet;Marvikstemmen" />
		<tag k="name" v="Tjøredalsvatnet" />
		<tag k="natural" v="water" />
		<tag k="ssr:stedsnr" v="305376" />
		<tag k="water" v="lake" />
	</node>
	<node id="-3678" lat="59.5255684719" lon="6.21905132875">
		<tag k="name" v="Varmekråtjørna" />
		<tag k="natural" v="water" />
		<tag k="ssr:stedsnr" v="481173" />
	</node>
	<node id="-5725" lat="59.4418500042" lon="6.14112500662">
		<tag k="alt_name" v="Blokketjørn" />
		<tag k="name" v="Blokketjørna" />
		<tag k="natural" v="water" />
		<tag k="ssr:stedsnr" v="305365" />
	</node>
	<node id="-3674" lat="59.4734111156" lon="6.30390556348">
		<tag k="name" v="Neset" />
		<tag k="natural" v="cape" />
		<tag k="ssr:stedsnr" v="481022" />
	</node>
	<node id="-5720" lat="59.4017472189" lon="6.84900554937">
		<tag k="name" v="Holevatnet" />
		<tag k="natural" v="water" />
		<tag k="ssr:stedsnr" v="305188" />
		<tag k="water" v="lake" />
	</node>
	<node id="-3669" lat="59.3902138848" lon="5.97465555857">
		<tag k="name" v="Bøgdastemmen" />
		<tag k="natural" v="water" />
		<tag k="ssr:stedsnr" v="479774" />
		<tag k="water" v="lake" />
	</node>
	<node id="-5714" lat="59.5664027756" lon="6.72690555497">
		<tag k="name" v="Dørlevassbakken" />
		<tag k="ssr:stedsnr" v="303601" />
		<tag k="waterway" v="stream" />
	</node>
	<node id="-5713" lat="59.5534694466" lon="6.65123611105">
		<tag k="name" v="Nedra Røsseliland" />
		<tag k="natural" v="beach" />
		<tag k="ssr:stedsnr" v="303624" />
	</node>
	<node id="-5710" lat="59.5867694453" lon="6.77139167203">
		<tag k="name" v="Turrajuvneset" />
		<tag k="natural" v="cape" />
		<tag k="ssr:stedsnr" v="303580" />
	</node>
	<node id="-5708" lat="59.6145861127" lon="6.77375277226">
		<tag k="name" v="Skåro" />
		<tag k="natural" v="cape" />
		<tag k="ssr:stedsnr" v="303386" />
	</node>
	<node id="-5707" lat="59.3899499986" lon="6.49580277409">
		<tag k="name" v="Stølsjo" />
		<tag k="ssr:stedsnr" v="303328" />
		<tag k="waterway" v="stream" />
	</node>
	<node id="-5706" lat="59.3964805536" lon="6.45813333652">
		<tag k="name" v="Butjørn" />
		<tag k="natural" v="water" />
		<tag k="ssr:stedsnr" v="303322" />
	</node>
	<node id="-5704" lat="59.4889861138" lon="6.51664444482">
		<tag k="name" v="Strengjen" />
		<tag k="ssr:stedsnr" v="302979" />
		<tag k="waterway" v="rapids" />
	</node>
	<node id="-3654" lat="59.4411361141" lon="6.08757500152">
		<tag k="name" v="Fjelltjørna" />
		<tag k="natural" v="water" />
		<tag k="ssr:stedsnr" v="479169" />
	</node>
	<node id="-4418" lat="59.4463833321" lon="6.70731944425">
		<tag k="name" v="Stranddalsåa" />
		<tag k="ssr:stedsnr" v="913051" />
		<tag k="waterway" v="stream" />
	</node>
	<node id="-3680" lat="59.4268388908" lon="6.36612222044">
		<tag k="name" v="Løkjene" />
		<tag k="natural" v="water" />
		<tag k="ssr:stedsnr" v="484104" />
		<tag k="water" v="lake" />
	</node>
	<node id="-3646" lat="59.6521555591" lon="6.93655278559">
		<tag k="name" v="Stegabekken" />
		<tag k="ssr:stedsnr" v="479061" />
		<tag k="waterway" v="stream" />
	</node>
	<node id="-3644" lat="59.557341665" lon="6.2581805563">
		<tag k="name" v="Sagbekken" />
		<tag k="ssr:stedsnr" v="671852" />
		<tag k="waterway" v="stream" />
	</node>
	<node id="-3643" lat="59.6369000026" lon="7.01902222627">
		<tag k="name" v="Sandvassåna" />
		<tag k="ssr:stedsnr" v="671463" />
		<tag k="waterway" v="river" />
	</node>
	<node id="-3634" lat="59.6795416706" lon="6.83962500358">
		<tag k="name" v="Tangavatnet" />
		<tag k="natural" v="water" />
		<tag k="ssr:stedsnr" v="671034" />
		<tag k="water" v="lake" />
	</node>
	<node id="-5680" lat="59.4556972208" lon="6.36567499817">
		<tag k="name" v="Fosstraum" />
		<tag k="ssr:stedsnr" v="302198" />
		<tag k="waterway" v="rapids" />
	</node>
	<node id="-5679" lat="59.456327774" lon="6.37732776966">
		<tag k="name" v="Flotto" />
		<tag k="place" v="locality" />
		<tag k="ssr:stedsnr" v="302189" />
	</node>
	<node id="-5678" lat="59.5327083379" lon="6.64373056197">
		<tag k="name" v="Storevikneset" />
		<tag k="natural" v="cape" />
		<tag k="ssr:stedsnr" v="302244" />
	</node>
	<node id="-3629" lat="59.3412027808" lon="6.33420277911">
		<tag k="name" v="Boglandselva" />
		<tag k="ssr:stedsnr" v="670914" />
		<tag k="waterway" v="river" />
	</node>
	<node id="-5676" lat="59.5336803143" lon="6.48469604429">
		<tag k="name" v="Vasstølvatnet" />
		<tag k="natural" v="water" />
		<tag k="ssr:stedsnr" v="302021" />
		<tag k="water" v="lake" />
	</node>
	<node id="-2994" lat="59.3755971345" lon="6.39280641091">
		<tag k="alt_name" v="Stakksvatn;Staksvatnet" />
		<tag k="name" v="Stakksvatnet" />
		<tag k="natural" v="water" />
		<tag k="ssr:stedsnr" v="245864" />
		<tag k="water" v="lake" />
	</node>
	<node id="-5672" lat="59.6168305531" lon="6.68341111212">
		<tag k="name" v="Hestakvelvvatnet" />
		<tag k="natural" v="water" />
		<tag k="ssr:stedsnr" v="203904" />
		<tag k="water" v="lake" />
	</node>
	<node id="-3623" lat="59.5860657037" lon="6.4662385488">
		<tag k="alt_name" v="Ytra Vatnet" />
		<tag k="name" v="Ytravatnet" />
		<tag k="natural" v="water" />
		<tag k="ssr:stedsnr" v="670809" />
	</node>
	<node id="-5670" lat="59.6143611141" lon="6.88622499972">
		<tag k="name" v="Navarsvatnet" />
		<tag k="natural" v="water" />
		<tag k="ssr:stedsnr" v="203897" />
		<tag k="water" v="lake" />
	</node>
	<node id="-2993" lat="59.3729805588" lon="6.23594444305">
		<tag k="name" v="Fjerdingsskiftebekken" />
		<tag k="ssr:stedsnr" v="245855" />
		<tag k="waterway" v="stream" />
	</node>
	<node id="-5668" lat="59.6888611117" lon="6.8621250087">
		<tag k="name" v="Langatjørna" />
		<tag k="natural" v="water" />
		<tag k="ssr:stedsnr" v="202947" />
	</node>
	<node id="-5666" lat="59.5876019077" lon="6.88702560202">
		<tag k="name" v="Skitstølvatnet" />
		<tag k="natural" v="water" />
		<tag k="ssr:stedsnr" v="202897" />
		<tag k="water" v="lake" />
	</node>
	<node id="-5664" lat="59.5753361088" lon="6.81491111961">
		<tag k="name" v="Storåa" />
		<tag k="ssr:stedsnr" v="186101" />
		<tag k="waterway" v="river" />
	</node>
	<node id="-5661" lat="59.5200675142" lon="6.14139841044">
		<tag k="alt_name" v="Kaldavatnet, l;Litla Kallavatnet" />
		<tag k="name" v="Litla Kaldavatnet" />
		<tag k="natural" v="water" />
		<tag k="ssr:stedsnr" v="185871" />
		<tag k="water" v="lake" />
	</node>
	<node id="-5657" lat="59.5879805569" lon="6.41655833608">
		<tag k="name" v="Svartavatnet" />
		<tag k="natural" v="water" />
		<tag k="ssr:stedsnr" v="185808" />
		<tag k="water" v="lake" />
	</node>
	<node id="-5656" lat="59.4332388852" lon="6.50408055602">
		<tag k="alt_name" v="Torbjørnskartjørna" />
		<tag k="name" v="Torbjørnskardtjørna" />
		<tag k="natural" v="water" />
		<tag k="ssr:stedsnr" v="185772" />
	</node>
	<node id="-3607" lat="59.4708945103" lon="6.36311590243">
		<tag k="alt_name" v="Stemtjørnene" />
		<tag k="name" v="Stemtjørnane" />
		<tag k="natural" v="water" />
		<tag k="ssr:stedsnr" v="670631" />
		<tag k="water" v="lake" />
	</node>
	<node id="-3605" lat="59.4931138844" lon="6.44031665924">
		<tag k="alt_name" v="Tveitliåno" />
		<tag k="name" v="Tveitliåna" />
		<tag k="ssr:stedsnr" v="670627" />
		<tag k="waterway" v="stream" />
	</node>
	<node id="-5652" lat="59.4156611068" lon="6.43536110951">
		<tag k="name" v="Mosvatnet" />
		<tag k="natural" v="water" />
		<tag k="ssr:stedsnr" v="185735" />
		<tag k="water" v="lake" />
	</node>
	<node id="-5649" lat="59.4294692433" lon="6.25686041244">
		<tag k="name" v="Velavatnet" />
		<tag k="natural" v="water" />
		<tag k="ssr:stedsnr" v="185653" />
		<tag k="water" v="lake" />
	</node>
	<node id="-3591" lat="59.4095000001" lon="5.97315000059">
		<tag k="name" v="Stemvatnet" />
		<tag k="natural" v="water" />
		<tag k="ssr:stedsnr" v="670378" />
		<tag k="water" v="lake" />
	</node>
	<node id="-5630" lat="59.703338892" lon="6.99575833723">
		<tag k="name" v="Uførestronda" />
		<tag k="natural" v="beach" />
		<tag k="ssr:stedsnr" v="185361" />
	</node>
	<node id="-2645" lat="59.6848777762" lon="6.86153889135">
		<tag k="name" v="Stutatjørna" />
		<tag k="natural" v="water" />
		<tag k="ssr:stedsnr" v="64205" />
	</node>
	<node id="-3580" lat="59.5609002646" lon="6.64254282358">
		<tag k="name" v="Botnatjørna" />
		<tag k="natural" v="water" />
		<tag k="ssr:stedsnr" v="670091" />
	</node>
	<node id="-5623" lat="59.6094777763" lon="6.6936777867">
		<tag k="name" v="Kilavatnet" />
		<tag k="natural" v="water" />
		<tag k="ssr:stedsnr" v="185092" />
		<tag k="water" v="lake" />
	</node>
	<node id="-5622" lat="59.6023138893" lon="6.61138333918">
		<tag k="name" v="Snøvatnet" />
		<tag k="natural" v="water" />
		<tag k="ssr:stedsnr" v="185087" />
	</node>
	<node id="-5617" lat="59.6264805588" lon="6.78105000238">
		<tag k="name" v="Krokanesodden" />
		<tag k="natural" v="cape" />
		<tag k="ssr:stedsnr" v="185031" />
	</node>
	<node id="-5616" lat="59.4970916678" lon="6.88016667065">
		<tag k="name" v="Kringlevatnet" />
		<tag k="natural" v="water" />
		<tag k="ssr:stedsnr" v="185028" />
		<tag k="water" v="lake" />
	</node>
	<node id="-3565" lat="59.3430803435" lon="6.28374310767">
		<tag k="name" v="Butjørna" />
		<tag k="natural" v="water" />
		<tag k="ssr:stedsnr" v="669920" />
	</node>
	<node id="-3564" lat="59.3728500006" lon="6.30345832631">
		<tag k="name" v="Tveitåna" />
		<tag k="ssr:stedsnr" v="669865" />
		<tag k="waterway" v="stream" />
	</node>
	<node id="-5609" lat="59.3791000013" lon="6.24682499181">
		<tag k="name" v="Steintjørna" />
		<tag k="natural" v="water" />
		<tag k="ssr:stedsnr" v="184835" />
	</node>
	<node id="-5608" lat="59.388566664" lon="6.39383333772">
		<tag k="alt_name" v="Ytra Frøkjedalsvatnet" />
		<tag k="name" v="Håvardsvatnet" />
		<tag k="natural" v="water" />
		<tag k="ssr:stedsnr" v="184829" />
		<tag k="water" v="lake" />
	</node>
	<node id="-3559" lat="59.3849583351" lon="6.51738889105">
		<tag k="alt_name" v="Kvednåna" />
		<tag k="name" v="Kvennåna" />
		<tag k="ssr:stedsnr" v="669817" />
		<tag k="waterway" v="stream" />
	</node>
	<node id="-3557" lat="59.4249249985" lon="6.30460833362">
		<tag k="alt_name" v="Kaldatjørnane" />
		<tag k="name" v="Kaldåtjørnane" />
		<tag k="natural" v="water" />
		<tag k="ssr:stedsnr" v="669795" />
		<tag k="water" v="lake" />
	</node>
	<node id="-5603" lat="59.4388416676" lon="6.55434444929">
		<tag k="alt_name" v="Tongjatjørna" />
		<tag k="name" v="Tungatjørna" />
		<tag k="natural" v="water" />
		<tag k="ssr:stedsnr" v="184774" />
	</node>
	<node id="-5597" lat="59.4416916675" lon="6.41906666104">
		<tag k="alt_name" v="Mosåno" />
		<tag k="name" v="Mosåna" />
		<tag k="ssr:stedsnr" v="184713" />
		<tag k="waterway" v="stream" />
	</node>
	<node id="-5595" lat="59.4395416672" lon="6.28901110834">
		<tag k="alt_name" v="Midtstølsvatnet" />
		<tag k="name" v="Midtstølvatnet" />
		<tag k="natural" v="water" />
		<tag k="ssr:stedsnr" v="184703" />
		<tag k="water" v="lake" />
	</node>
	<node id="-5593" lat="59.4749527744" lon="6.39832500765">
		<tag k="name" v="Øykjabekken" />
		<tag k="ssr:stedsnr" v="184652" />
		<tag k="waterway" v="stream" />
	</node>
	<node id="-5592" lat="59.4744194451" lon="6.3779333322">
		<tag k="alt_name" v="Sandvatnet" />
		<tag k="name" v="Sandsvatnet" />
		<tag k="natural" v="water" />
		<tag k="ssr:stedsnr" v="184651" />
	</node>
	<node id="-5588" lat="59.3476232896" lon="6.1586752318">
		<tag k="alt_name" v="Krogavatnet" />
		<tag k="name" v="Krokavatnet" />
		<tag k="natural" v="water" />
		<tag k="ssr:stedsnr" v="184572" />
		<tag k="water" v="lake" />
	</node>
	<node id="-5579" lat="59.35995556" lon="6.20350000059">
		<tag k="name" v="Føljesvollvatnet" />
		<tag k="natural" v="water" />
		<tag k="ssr:stedsnr" v="184500" />
		<tag k="water" v="lake" />
	</node>
	<node id="-5578" lat="59.3827999963" lon="6.06929999248">
		<tag k="name" v="Straumbergstjørna" />
		<tag k="natural" v="water" />
		<tag k="ssr:stedsnr" v="184456" />
	</node>
	<node id="-5577" lat="59.3846500029" lon="6.13427500263">
		<tag k="name" v="Slåttevatnet" />
		<tag k="natural" v="water" />
		<tag k="ssr:stedsnr" v="184453" />
		<tag k="water" v="lake" />
	</node>
	<node id="-5576" lat="59.3930999984" lon="6.14017500071">
		<tag k="name" v="Jårviktjørna" />
		<tag k="natural" v="water" />
		<tag k="ssr:stedsnr" v="184446" />
	</node>
	<node id="-3527" lat="59.4084333293" lon="6.71230000266">
		<tag k="name" v="Ulla" />
		<tag k="ssr:stedsnr" v="669193" />
		<tag k="waterway" v="river" />
	</node>
	<node id="-3526" lat="59.4074722229" lon="6.78792499395">
		<tag k="name" v="Oddåa" />
		<tag k="ssr:stedsnr" v="669191" />
		<tag k="waterway" v="stream" />
	</node>
	<node id="-3525" lat="59.4223527814" lon="6.72742222709">
		<tag k="name" v="Langatjørna" />
		<tag k="natural" v="water" />
		<tag k="ssr:stedsnr" v="669186" />
	</node>
	<node id="-3523" lat="59.4521209161" lon="6.70738625167">
		<tag k="name" v="Langavatnet" />
		<tag k="natural" v="water" />
		<tag k="ssr:stedsnr" v="669043" />
	</node>
	<node id="-3522" lat="59.4671028198" lon="6.90907919644">
		<tag k="name" v="Krossvatnet" />
		<tag k="natural" v="water" />
		<tag k="ssr:stedsnr" v="669041" />
		<tag k="water" v="lake" />
	</node>
	<node id="-4000" lat="59.5923932368" lon="6.5201786941">
		<tag k="name" v="Ristjørn" />
		<tag k="natural" v="water" />
		<tag k="ssr:stedsnr" v="727456" />
	</node>
	<node id="-3516" lat="59.4831055521" lon="6.43830555148">
		<tag k="name" v="Glommedalstjørna" />
		<tag k="natural" v="water" />
		<tag k="ssr:stedsnr" v="667981" />
	</node>
	<node id="-5554" lat="59.4864972262" lon="6.47636110627">
		<tag k="name" v="Lundatjørna" />
		<tag k="natural" v="water" />
		<tag k="ssr:stedsnr" v="181974" />
	</node>
	<node id="-3505" lat="59.6372777792" lon="6.80950556242">
		<tag k="name" v="Breivik" />
		<tag k="natural" v="bay" />
		<tag k="ssr:stedsnr" v="667633" />
	</node>
	<node id="-5552" lat="59.4874472254" lon="6.49872222943">
		<tag k="name" v="Storøy" />
		<tag k="place" v="island" />
		<tag k="ssr:stedsnr" v="181960" />
	</node>
	<node id="-3503" lat="59.6437083314" lon="6.79286667276">
		<tag k="name" v="Kadlanes" />
		<tag k="natural" v="cape" />
		<tag k="ssr:stedsnr" v="667621" />
	</node>
	<node id="-5548" lat="59.4763416625" lon="6.54701111781">
		<tag k="name" v="Middagsfossen" />
		<tag k="natural" v="waterfall" />
		<tag k="ssr:stedsnr" v="181793" />
	</node>
	<node id="-5546" lat="59.4862055559" lon="6.51358333986">
		<tag k="name" v="Flotto" />
		<tag k="place" v="locality" />
		<tag k="ssr:stedsnr" v="181784" />
	</node>
	<node id="-3497" lat="59.6197333358" lon="6.76479444479">
		<tag k="name" v="Bismarebekken" />
		<tag k="ssr:stedsnr" v="667444" />
		<tag k="waterway" v="stream" />
	</node>
	<node id="-2971" lat="59.6931000001" lon="6.70463610895">
		<tag k="name" v="Vireholmane" />
		<tag k="place" v="islet" />
		<tag k="ssr:stedsnr" v="242962" />
	</node>
	<node id="-5532" lat="59.6284944443" lon="6.77181943629">
		<tag k="name" v="Krokanes" />
		<tag k="natural" v="cape" />
		<tag k="ssr:stedsnr" v="181492" />
	</node>
	<node id="-5531" lat="59.6331805587" lon="6.78651666172">
		<tag k="name" v="Dalane" />
		<tag k="natural" v="cape" />
		<tag k="ssr:stedsnr" v="181489" />
	</node>
	<node id="-5529" lat="59.4009388893" lon="6.5661027787">
		<tag k="name" v="Tytesbekken" />
		<tag k="ssr:stedsnr" v="181341" />
		<tag k="waterway" v="stream" />
	</node>
	<node id="-5526" lat="59.5388388929" lon="6.64942222223">
		<tag k="name" v="Vårvikneset" />
		<tag k="natural" v="cape" />
		<tag k="ssr:stedsnr" v="181225" />
	</node>
	<node id="-3476" lat="59.4889277821" lon="6.65501389056">
		<tag k="name" v="Holmaliåno" />
		<tag k="ssr:stedsnr" v="666799" />
		<tag k="waterway" v="river" />
	</node>
	<node id="-5523" lat="59.4916388927" lon="6.3357361085">
		<tag k="name" v="Stølsbekken" />
		<tag k="ssr:stedsnr" v="181094" />
		<tag k="waterway" v="stream" />
	</node>
	<node id="-5522" lat="59.432694443" lon="6.57616388651">
		<tag k="name" v="Tråsavika" />
		<tag k="natural" v="bay" />
		<tag k="ssr:stedsnr" v="181083" />
	</node>
	<node id="-3473" lat="59.4742638903" lon="6.5296444518">
		<tag k="name" v="Linsebufoss" />
		<tag k="natural" v="waterfall" />
		<tag k="ssr:stedsnr" v="666758" />
	</node>
	<node id="-2968" lat="59.5959472204" lon="6.73405277183">
		<tag k="name" v="Indrevik" />
		<tag k="natural" v="bay" />
		<tag k="ssr:stedsnr" v="242373" />
	</node>
	<node id="-5517" lat="59.515102779" lon="6.59351667249">
		<tag k="name" v="Stavanes" />
		<tag k="natural" v="cape" />
		<tag k="ssr:stedsnr" v="181041" />
	</node>
	<node id="-3468" lat="59.5646805595" lon="6.73491665815">
		<tag k="name" v="Longe Tjødnedn" />
		<tag k="natural" v="water" />
		<tag k="ssr:stedsnr" v="666556" />
	</node>
	<node id="-5515" lat="59.5208277743" lon="6.5376777733">
		<tag k="name" v="Tvitjørnene" />
		<tag k="natural" v="water" />
		<tag k="ssr:stedsnr" v="181029" />
		<tag k="water" v="lake" />
	</node>
	<node id="-3461" lat="59.4176333303" lon="6.40576110865">
		<tag k="name" v="Budalstjørnene" />
		<tag k="natural" v="water" />
		<tag k="ssr:stedsnr" v="666393" />
		<tag k="water" v="lake" />
	</node>
	<node id="-5507" lat="59.4291694438" lon="6.02200556123">
		<tag k="name" v="Holmsund" />
		<tag k="natural" v="strait" />
		<tag k="ssr:stedsnr" v="178179" />
	</node>
	<node id="-3450" lat="59.3783583306" lon="6.43978611118">
		<tag k="name" v="Fantåno" />
		<tag k="ssr:stedsnr" v="666290" />
		<tag k="waterway" v="river" />
	</node>
	<node id="-5496" lat="59.4057055601" lon="6.00150833969">
		<tag k="name" v="Tobekken" />
		<tag k="ssr:stedsnr" v="176799" />
		<tag k="waterway" v="stream" />
	</node>
	<node id="-3305" lat="59.5783138929" lon="6.71954999993">
		<tag k="name" v="Klungtveitstronda" />
		<tag k="natural" v="beach" />
		<tag k="ssr:stedsnr" v="384867" />
	</node>
	<node id="-3441" lat="59.3936527756" lon="6.54791666822">
		<tag k="name" v="Sandsavassdammen" />
		<tag k="ssr:stedsnr" v="666193" />
		<tag k="waterway" v="dam" />
	</node>
	<node id="-3439" lat="59.4613694464" lon="6.36676944431">
		<tag k="name" v="Løkjen" />
		<tag k="natural" v="water" />
		<tag k="ssr:stedsnr" v="666170" />
		<tag k="water" v="lake" />
	</node>
	<node id="-3438" lat="59.4565444421" lon="6.36449722779">
		<tag k="name" v="Øyno" />
		<tag k="place" v="island" />
		<tag k="ssr:stedsnr" v="666168" />
	</node>
	<node id="-5484" lat="59.4051333367" lon="6.25001944202">
		<tag k="name" v="Våjen" />
		<tag k="natural" v="bay" />
		<tag k="ssr:stedsnr" v="176486" />
	</node>
	<node id="-3428" lat="59.5241027819" lon="6.21509444054">
		<tag k="name" v="Øvre Tormodsvatn" />
		<tag k="natural" v="water" />
		<tag k="ssr:stedsnr" v="663168" />
		<tag k="water" v="lake" />
	</node>
	<node id="-3426" lat="59.4988305595" lon="6.17458889478">
		<tag k="name" v="Øyatjørn" />
		<tag k="natural" v="water" />
		<tag k="ssr:stedsnr" v="663339" />
	</node>
	<node id="-5471" lat="59.4320277745" lon="6.07888611039">
		<tag k="name" v="Storestem" />
		<tag k="natural" v="water" />
		<tag k="ssr:stedsnr" v="176180" />
	</node>
	<node id="-3301" lat="59.7022750038" lon="6.80951943935">
		<tag k="name" v="Skitliåa" />
		<tag k="ssr:stedsnr" v="367160" />
		<tag k="waterway" v="stream" />
	</node>
	<node id="-5464" lat="59.6480666647" lon="6.91939722612">
		<tag k="name" v="Kjellbergfossen" />
		<tag k="natural" v="waterfall" />
		<tag k="ssr:stedsnr" v="176091" />
	</node>
	<node id="-4342" lat="59.5869416624" lon="6.62238055481">
		<tag k="name" v="Stutatjørnene" />
		<tag k="natural" v="water" />
		<tag k="ssr:stedsnr" v="909408" />
		<tag k="water" v="lake" />
	</node>
	<node id="-3412" lat="59.3916611098" lon="6.18203889368">
		<tag k="name" v="Skarpanes" />
		<tag k="natural" v="cape" />
		<tag k="ssr:stedsnr" v="661487" />
	</node>
	<node id="-5452" lat="59.558599998" lon="6.43412777051">
		<tag k="name" v="Råsabekken" />
		<tag k="ssr:stedsnr" v="175529" />
		<tag k="waterway" v="stream" />
	</node>
	<node id="-3569" lat="59.49816962" lon="6.71052201686">
		<tag k="fixme" v="multiple name tags, choose one and add the other to alt_name" />
		<tag k="name" v="Steinsstølvatnet;Steinstølvatnet" />
		<tag k="natural" v="water" />
		<tag k="ssr:stedsnr" v="670019" />
	</node>
	<node id="-5450" lat="59.3970361151" lon="6.25120278464">
		<tag k="name" v="Fossabrekktjørna" />
		<tag k="natural" v="water" />
		<tag k="ssr:stedsnr" v="175491" />
	</node>
	<node id="-5443" lat="59.4236222187" lon="5.97966110613">
		<tag k="name" v="Skatjørna" />
		<tag k="natural" v="water" />
		<tag k="ssr:stedsnr" v="175297" />
	</node>
	<node id="-5439" lat="59.3427166684" lon="6.13421944542">
		<tag k="name" v="Lomatjørna" />
		<tag k="natural" v="water" />
		<tag k="ssr:stedsnr" v="175233" />
	</node>
	<node id="-3388" lat="59.6403555552" lon="6.91394721812">
		<tag k="name" v="Litleåa" />
		<tag k="ssr:stedsnr" v="446913" />
		<tag k="waterway" v="stream" />
	</node>
	<node id="-3386" lat="59.6286111703" lon="6.67605200167">
		<tag k="name" v="Svinstølvatnet" />
		<tag k="natural" v="water" />
		<tag k="ssr:stedsnr" v="446902" />
		<tag k="water" v="lake" />
	</node>
	<node id="-5430" lat="59.4881833355" lon="6.86920833534">
		<tag k="name" v="Kringleåa" />
		<tag k="ssr:stedsnr" v="174011" />
		<tag k="waterway" v="stream" />
	</node>
	<node id="-3379" lat="59.3569000033" lon="6.31672500674">
		<tag k="name" v="Kleivatjørna" />
		<tag k="natural" v="water" />
		<tag k="ssr:stedsnr" v="428630" />
	</node>
	<node id="-2611" lat="59.6412222197" lon="6.9392138879">
		<tag k="name" v="Sunnselifossen" />
		<tag k="natural" v="waterfall" />
		<tag k="ssr:stedsnr" v="56049" />
	</node>
	<node id="-5421" lat="59.64240073" lon="6.78587778095">
		<tag k="name" v="Vikane" />
		<tag k="natural" v="bay" />
		<tag k="ssr:stedsnr" v="142908" />
	</node>
	<node id="-3371" lat="59.3696361125" lon="6.56339445258">
		<tag k="name" v="Fiskafatet" />
		<tag k="natural" v="water" />
		<tag k="ssr:stedsnr" v="427903" />
	</node>
	<node id="-3370" lat="59.3612666621" lon="6.42339999321">
		<tag k="name" v="Djupsåna" />
		<tag k="ssr:stedsnr" v="427805" />
		<tag k="waterway" v="stream" />
	</node>
	<node id="-5415" lat="59.3833916689" lon="6.13612222596">
		<tag k="name" v="Hestaneset" />
		<tag k="natural" v="cape" />
		<tag k="ssr:stedsnr" v="140567" />
	</node>
	<node id="-3366" lat="59.3929027778" lon="6.23729999549">
		<tag k="alt_name" v="Sørhusåna" />
		<tag k="name" v="Sørhusbekken" />
		<tag k="ssr:stedsnr" v="427737" />
		<tag k="waterway" v="stream" />
	</node>
	<node id="-3365" lat="59.3998944405" lon="6.22706111471">
		<tag k="alt_name" v="Tysseåna" />
		<tag k="name" v="Tysseelva" />
		<tag k="ssr:stedsnr" v="427722" />
		<tag k="waterway" v="river" />
	</node>
	<node id="-5412" lat="59.3512166634" lon="6.31316110639">
		<tag k="name" v="Lomatjørna" />
		<tag k="natural" v="water" />
		<tag k="ssr:stedsnr" v="124897" />
	</node>
	<node id="-5411" lat="59.5271691688" lon="6.16662213336">
		<tag k="name" v="Krokavatnet" />
		<tag k="natural" v="water" />
		<tag k="ssr:stedsnr" v="124883" />
		<tag k="water" v="lake" />
	</node>
	<node id="-3362" lat="59.4858000039" lon="6.1833000033">
		<tag k="alt_name" v="Iglatjørn" />
		<tag k="name" v="Iglatjørna" />
		<tag k="natural" v="water" />
		<tag k="ssr:stedsnr" v="427342" />
	</node>
	<node id="-5409" lat="59.5190694451" lon="6.15262500035">
		<tag k="alt_name" v="Kaldavatnet, store;Stora Kallavatnet" />
		<tag k="name" v="Stora Kaldavatnet" />
		<tag k="natural" v="water" />
		<tag k="ssr:stedsnr" v="124861" />
		<tag k="water" v="lake" />
	</node>
	<node id="-5405" lat="59.6118916655" lon="6.58946111483">
		<tag k="name" v="Kvannvassflotene" />
		<tag k="natural" v="bay" />
		<tag k="ssr:stedsnr" v="124812" />
	</node>
	<node id="-5404" lat="59.6032458613" lon="6.49068484109">
		<tag k="alt_name" v="Tengesdals-Svartavatnet" />
		<tag k="name" v="Svartavatnet" />
		<tag k="natural" v="water" />
		<tag k="ssr:stedsnr" v="124810" />
	</node>
	<node id="-5402" lat="59.4111916659" lon="6.52153055864">
		<tag k="name" v="Sandvatnet" />
		<tag k="natural" v="water" />
		<tag k="ssr:stedsnr" v="124726" />
	</node>
	<node id="-3631" lat="59.318641671" lon="6.3095305528">
		<tag k="alt_name" v="Kjilatjørna" />
		<tag k="name" v="Kilatjørna" />
		<tag k="natural" v="water" />
		<tag k="ssr:stedsnr" v="670977" />
	</node>
	<node id="-5400" lat="59.4028743515" lon="6.29702174731">
		<tag k="name" v="Heiavatna" />
		<tag k="natural" v="water" />
		<tag k="ssr:stedsnr" v="124710" />
		<tag k="water" v="lake" />
	</node>
	<node id="-3351" lat="59.4975969649" lon="6.6966833473">
		<tag k="name" v="Lauvastølvatnet" />
		<tag k="natural" v="water" />
		<tag k="ssr:stedsnr" v="427015" />
		<tag k="water" v="lake" />
	</node>
	<node id="-5398" lat="59.4125545894" lon="6.4104475865">
		<tag k="alt_name" v="Langhaugvatnan;Longhaugvatnet" />
		<tag k="name" v="Langhaugvatnet" />
		<tag k="natural" v="water" />
		<tag k="ssr:stedsnr" v="124702" />
		<tag k="water" v="lake" />
	</node>
	<node id="-5397" lat="59.440183049" lon="6.45182502385">
		<tag k="name" v="Svartavatnet" />
		<tag k="natural" v="water" />
		<tag k="ssr:stedsnr" v="124643" />
		<tag k="water" v="lake" />
	</node>
	<node id="-5394" lat="59.4297833352" lon="6.29204999455">
		<tag k="name" v="Kaldåna" />
		<tag k="ssr:stedsnr" v="124626" />
		<tag k="waterway" v="stream" />
	</node>
	<node id="-6019" lat="59.3830286364" lon="6.5063182106">
		<tag k="name" v="Svartavatnet" />
		<tag k="natural" v="water" />
		<tag k="ssr:stedsnr" v="366802" />
		<tag k="water" v="lake" />
	</node>
	<node id="-5391" lat="59.4471583319" lon="6.86882778562">
		<tag k="name" v="Storåa" />
		<tag k="ssr:stedsnr" v="124597" />
		<tag k="waterway" v="river" />
	</node>
	<node id="-3342" lat="59.6383166662" lon="6.72392221947">
		<tag k="name" v="Ytra Åno" />
		<tag k="ssr:stedsnr" v="424306" />
		<tag k="waterway" v="stream" />
	</node>
	<node id="-5388" lat="59.4798305548" lon="6.58864444525">
		<tag k="alt_name" v="Helganesåno" />
		<tag k="name" v="Helganesåna" />
		<tag k="ssr:stedsnr" v="124585" />
		<tag k="waterway" v="stream" />
	</node>
	<node id="-3339" lat="59.4500972225" lon="6.5549111035">
		<tag k="name" v="Såmvatnet" />
		<tag k="natural" v="water" />
		<tag k="ssr:stedsnr" v="424009" />
		<tag k="water" v="lake" />
	</node>
	<node id="-5386" lat="59.6677500298" lon="7.09490868826">
		<tag k="name" v="Gravetjørn" />
		<tag k="natural" v="water" />
		<tag k="ssr:stedsnr" v="124421" />
	</node>
	<node id="-3628" lat="59.3244027763" lon="6.30540278166">
		<tag k="alt_name" v="Nordalselva" />
		<tag k="name" v="Norddalselva" />
		<tag k="ssr:stedsnr" v="670893" />
		<tag k="waterway" v="river" />
	</node>
	<node id="-3329" lat="59.3033583342" lon="6.29846110269">
		<tag k="name" v="Middagstjørna" />
		<tag k="natural" v="water" />
		<tag k="ssr:stedsnr" v="419305" />
	</node>
	<node id="-5376" lat="59.386875" lon="6.10085000573">
		<tag k="name" v="Vendalstjørna" />
		<tag k="natural" v="water" />
		<tag k="ssr:stedsnr" v="124374" />
	</node>
	<node id="-3968" lat="59.5247305537" lon="6.58519166229">
		<tag k="name" v="Tverråno" />
		<tag k="ssr:stedsnr" v="727043" />
		<tag k="waterway" v="river" />
	</node>
	<node id="-5365" lat="59.509088888" lon="6.51883611006">
		<tag k="alt_name" v="Vekaåno" />
		<tag k="name" v="Vekaåna" />
		<tag k="ssr:stedsnr" v="124137" />
		<tag k="waterway" v="stream" />
	</node>
	<node id="-3315" lat="59.700885365" lon="7.02333942222">
		<tag k="name" v="Raudbergstjørna" />
		<tag k="natural" v="water" />
		<tag k="ssr:stedsnr" v="510392" />
	</node>
	<node id="-3624" lat="59.5878527794" lon="6.50045832864">
		<tag k="name" v="Risvatnet" />
		<tag k="natural" v="water" />
		<tag k="ssr:stedsnr" v="670812" />
		<tag k="water" v="lake" />
	</node>
	<node id="-5357" lat="59.6138666643" lon="6.83834444445">
		<tag k="name" v="Flossetjørna" />
		<tag k="natural" v="water" />
		<tag k="ssr:stedsnr" v="124096" />
	</node>
	<node id="-5353" lat="59.5640745437" lon="6.62856341364">
		<tag k="name" v="Tjørna" />
		<tag k="natural" v="water" />
		<tag k="ssr:stedsnr" v="124079" />
	</node>
	<node id="-3304" lat="59.5687805544" lon="6.7016555498">
		<tag k="name" v="Litlehammarstronda" />
		<tag k="natural" v="beach" />
		<tag k="ssr:stedsnr" v="384863" />
	</node>
	<node id="-5351" lat="59.5867489405" lon="6.91238690136">
		<tag k="name" v="Krokvatnet" />
		<tag k="natural" v="water" />
		<tag k="ssr:stedsnr" v="124074" />
		<tag k="water" v="lake" />
	</node>
	<node id="-5349" lat="59.6614277738" lon="6.83929443946">
		<tag k="name" v="Ytre Strondebekken" />
		<tag k="ssr:stedsnr" v="124047" />
		<tag k="waterway" v="stream" />
	</node>
	<node id="-5344" lat="59.4908649655" lon="6.94587205692">
		<tag k="name" v="Leirdalsvatna" />
		<tag k="natural" v="water" />
		<tag k="ssr:stedsnr" v="124021" />
		<tag k="water" v="lake" />
	</node>
	<node id="-5342" lat="59.6482694421" lon="6.82526944457">
		<tag k="name" v="Digernes" />
		<tag k="natural" v="cape" />
		<tag k="ssr:stedsnr" v="124002" />
	</node>
	<node id="-3292" lat="59.6756222205" lon="6.68277777009">
		<tag k="name" v="Litla Vikjo" />
		<tag k="natural" v="bay" />
		<tag k="ssr:stedsnr" v="363260" />
	</node>
	<node id="-5328" lat="59.3967500034" lon="6.40116944888">
		<tag k="alt_name" v="Indra Frøkjedalsvatnet" />
		<tag k="name" v="Frøkedalsvatnet" />
		<tag k="natural" v="water" />
		<tag k="ssr:stedsnr" v="123791" />
	</node>
	<node id="-5326" lat="59.4726000025" lon="6.39002777793">
		<tag k="name" v="Porsmyrsåna" />
		<tag k="ssr:stedsnr" v="123765" />
		<tag k="waterway" v="stream" />
	</node>
	<node id="-5325" lat="59.4760944475" lon="6.5250388962">
		<tag k="alt_name" v="Stråpaåno" />
		<tag k="name" v="Stropaåna" />
		<tag k="ssr:stedsnr" v="123761" />
		<tag k="waterway" v="stream" />
	</node>
	<node id="-5316" lat="59.3361249989" lon="6.15142500382">
		<tag k="name" v="Fostølvatnet" />
		<tag k="natural" v="water" />
		<tag k="ssr:stedsnr" v="123586" />
		<tag k="water" v="lake" />
	</node>
	<node id="-3264" lat="59.5103499973" lon="6.61638611556">
		<tag k="name" v="Litla Gjåvatnet" />
		<tag k="natural" v="water" />
		<tag k="ssr:stedsnr" v="489435" />
	</node>
	<node id="-5310" lat="59.3964673256" lon="5.94643408262">
		<tag k="alt_name" v="Vikastølsvatnet" />
		<tag k="name" v="Vikastølvatnet" />
		<tag k="natural" v="water" />
		<tag k="ssr:stedsnr" v="123444" />
		<tag k="water" v="lake" />
	</node>
	<node id="-3259" lat="59.5634361104" lon="6.31687222566">
		<tag k="name" v="Kovabekken" />
		<tag k="ssr:stedsnr" v="488871" />
		<tag k="waterway" v="stream" />
	</node>
	<node id="-3257" lat="59.5572250034" lon="6.32925833503">
		<tag k="name" v="Totjørna" />
		<tag k="natural" v="water" />
		<tag k="ssr:stedsnr" v="488844" />
	</node>
	<node id="-3255" lat="59.5661000027" lon="6.51209444943">
		<tag k="name" v="Skakabekken" />
		<tag k="ssr:stedsnr" v="488832" />
		<tag k="waterway" v="stream" />
	</node>
	<node id="-3252" lat="59.3792333373" lon="6.55103332813">
		<tag k="alt_name" v="Einermotjørn" />
		<tag k="name" v="Einermotjørna" />
		<tag k="natural" v="water" />
		<tag k="ssr:stedsnr" v="488811" />
	</node>
	<node id="-5299" lat="59.4005333291" lon="6.69771667047">
		<tag k="name" v="Bjøllevatnet" />
		<tag k="natural" v="water" />
		<tag k="ssr:stedsnr" v="123242" />
		<tag k="water" v="lake" />
	</node>
	<node id="-3250" lat="59.4191694484" lon="6.5648083339">
		<tag k="name" v="Sandsavatnet" />
		<tag k="natural" v="water" />
		<tag k="ssr:stedsnr" v="488758" />
		<tag k="water" v="lake" />
	</node>
	<node id="-5296" lat="59.3741333339" lon="6.64562221735">
		<tag k="name" v="Annandalsvatnet" />
		<tag k="natural" v="water" />
		<tag k="ssr:stedsnr" v="123227" />
		<tag k="water" v="lake" />
	</node>
	<node id="-5295" lat="59.3647333345" lon="6.59912500082">
		<tag k="name" v="Litla Holevatnet" />
		<tag k="natural" v="water" />
		<tag k="ssr:stedsnr" v="123223" />
		<tag k="water" v="lake" />
	</node>
	<node id="-5293" lat="59.459724996" lon="6.69678054878">
		<tag k="name" v="Nystølvatnet" />
		<tag k="natural" v="water" />
		<tag k="ssr:stedsnr" v="123074" />
		<tag k="water" v="lake" />
	</node>
	<node id="-5292" lat="59.4434298767" lon="6.64409129991">
		<tag k="fixme" v="multiple name tags, choose one and add the other to alt_name" />
		<tag k="name" v="Kviavatnet;Svinstølvatnet" />
		<tag k="natural" v="water" />
		<tag k="ssr:stedsnr" v="123056" />
		<tag k="water" v="lake" />
	</node>
	<node id="-5289" lat="59.4648999994" lon="6.68248333522">
		<tag k="name" v="Saurdalsvatnet" />
		<tag k="natural" v="water" />
		<tag k="ssr:stedsnr" v="123006" />
		<tag k="water" v="lake" />
	</node>
	<node id="-5282" lat="59.6514055592" lon="6.72809445141">
		<tag k="name" v="Svartenuttjørna" />
		<tag k="natural" v="water" />
		<tag k="ssr:stedsnr" v="121687" />
	</node>
	<node id="-5281" lat="59.6463111134" lon="6.81145276901">
		<tag k="name" v="Årnes" />
		<tag k="natural" v="cape" />
		<tag k="ssr:stedsnr" v="121668" />
	</node>
	<node id="-3231" lat="59.6620777751" lon="7.04549722836">
		<tag k="name" v="Salttjørna" />
		<tag k="natural" v="water" />
		<tag k="ssr:stedsnr" v="488439" />
	</node>
	<node id="-3230" lat="59.3705000038" lon="5.97124999108">
		<tag k="name" v="Halvtjørna" />
		<tag k="natural" v="water" />
		<tag k="ssr:stedsnr" v="488432" />
	</node>
	<node id="-5277" lat="59.6137638876" lon="6.71297778376">
		<tag k="name" v="Kringlevatnet" />
		<tag k="natural" v="water" />
		<tag k="ssr:stedsnr" v="121500" />
	</node>
	<node id="-3609" lat="59.4870138931" lon="6.44955555543">
		<tag k="name" v="Underbakkatjørna" />
		<tag k="natural" v="water" />
		<tag k="ssr:stedsnr" v="670637" />
	</node>
	<node id="-3219" lat="59.7001916638" lon="6.86584167212">
		<tag k="name" v="Kvinarebekken" />
		<tag k="ssr:stedsnr" v="488168" />
		<tag k="waterway" v="stream" />
	</node>
	<node id="-5266" lat="59.51161667" lon="6.5119583314">
		<tag k="name" v="Vinjebekken" />
		<tag k="ssr:stedsnr" v="121047" />
		<tag k="waterway" v="stream" />
	</node>
	<node id="-5265" lat="59.5188638864" lon="6.55894999279">
		<tag k="name" v="Løkjene" />
		<tag k="natural" v="water" />
		<tag k="ssr:stedsnr" v="121044" />
		<tag k="water" v="lake" />
	</node>
	<node id="-5261" lat="59.4742444465" lon="6.40221389704">
		<tag k="name" v="Sandvassåno" />
		<tag k="ssr:stedsnr" v="120961" />
		<tag k="waterway" v="stream" />
	</node>
	<node id="-5260" lat="59.5003777739" lon="6.4871472186">
		<tag k="name" v="Kyrfonnsbekken" />
		<tag k="ssr:stedsnr" v="120935" />
		<tag k="waterway" v="stream" />
	</node>
	<node id="-3210" lat="59.5825999976" lon="6.88542778399">
		<tag k="name" v="Kvannvatnet" />
		<tag k="natural" v="water" />
		<tag k="ssr:stedsnr" v="488112" />
	</node>
	<node id="-5256" lat="59.4873777759" lon="6.41842778101">
		<tag k="alt_name" v="Røsåno" />
		<tag k="name" v="Røssåno" />
		<tag k="ssr:stedsnr" v="120921" />
		<tag k="waterway" v="river" />
	</node>
	<node id="-3206" lat="59.531466667" lon="6.62890278">
		<tag k="name" v="Bukkagjotfjorden" />
		<tag k="natural" v="water" />
		<tag k="ssr:stedsnr" v="488083" />
	</node>
	<node id="-3203" lat="59.5675111108" lon="6.68635278433">
		<tag k="name" v="Fjærnes" />
		<tag k="natural" v="cape" />
		<tag k="ssr:stedsnr" v="488077" />
	</node>
	<node id="-3201" lat="59.6563333318" lon="6.95856944176">
		<tag k="name" v="Havreåa" />
		<tag k="ssr:stedsnr" v="488070" />
		<tag k="waterway" v="stream" />
	</node>
	<node id="-3198" lat="59.6482861091" lon="6.74278333999">
		<tag k="name" v="Tyssdalsvatnet" />
		<tag k="natural" v="water" />
		<tag k="ssr:stedsnr" v="488001" />
		<tag k="water" v="lake" />
	</node>
	<node id="-5244" lat="59.5914027745" lon="6.8156444502">
		<tag k="name" v="Rosabekken" />
		<tag k="ssr:stedsnr" v="120562" />
		<tag k="waterway" v="stream" />
	</node>
	<node id="-3195" lat="59.3894048003" lon="6.56006897574">
		<tag k="name" v="Fuglavatnet" />
		<tag k="natural" v="water" />
		<tag k="ssr:stedsnr" v="487874" />
		<tag k="water" v="lake" />
	</node>
	<node id="-5242" lat="59.5840138862" lon="6.90656388408">
		<tag k="name" v="Ljosheitjørna" />
		<tag k="natural" v="water" />
		<tag k="ssr:stedsnr" v="120504" />
	</node>
	<node id="-5240" lat="59.4635138874" lon="6.41834167064">
		<tag k="name" v="Maurholm" />
		<tag k="place" v="islet" />
		<tag k="ssr:stedsnr" v="120238" />
	</node>
	<node id="-5239" lat="59.5310999981" lon="6.63729999989">
		<tag k="name" v="Lauvneset" />
		<tag k="natural" v="cape" />
		<tag k="ssr:stedsnr" v="120216" />
	</node>
	<node id="-5234" lat="59.4545138905" lon="6.37524444966">
		<tag k="name" v="Smørøyno" />
		<tag k="place" v="island" />
		<tag k="ssr:stedsnr" v="120166" />
	</node>
	<node id="-5232" lat="59.5443111126" lon="6.47874167332">
		<tag k="name" v="Midtlaupsbekken" />
		<tag k="ssr:stedsnr" v="120099" />
		<tag k="waterway" v="stream" />
	</node>
	<node id="-5230" lat="59.534174998" lon="6.60483888535">
		<tag k="name" v="Gundlaneset" />
		<tag k="natural" v="cape" />
		<tag k="ssr:stedsnr" v="120064" />
	</node>
	<node id="-5226" lat="59.4155027744" lon="6.42758610937">
		<tag k="name" v="Røytevågen" />
		<tag k="natural" v="bay" />
		<tag k="ssr:stedsnr" v="120376" />
	</node>
	<node id="-5224" lat="59.5278055519" lon="6.62210833084">
		<tag k="name" v="Otersteinsneset" />
		<tag k="natural" v="cape" />
		<tag k="ssr:stedsnr" v="120367" />
	</node>
	<node id="-3174" lat="59.3841111131" lon="6.70333888084">
		<tag k="name" v="Stovedalsvatnet" />
		<tag k="natural" v="water" />
		<tag k="ssr:stedsnr" v="487199" />
		<tag k="water" v="lake" />
	</node>
	<node id="-5216" lat="59.5487638872" lon="6.18638611394">
		<tag k="name" v="Longtjørn" />
		<tag k="natural" v="water" />
		<tag k="ssr:stedsnr" v="117267" />
	</node>
	<node id="-3167" lat="59.6691861113" lon="6.92790832696">
		<tag k="name" v="Skartjørn" />
		<tag k="natural" v="water" />
		<tag k="ssr:stedsnr" v="485436" />
	</node>
	<node id="-5214" lat="59.5184222246" lon="6.22516388331">
		<tag k="name" v="Tråsavikbekken" />
		<tag k="ssr:stedsnr" v="117183" />
		<tag k="waterway" v="stream" />
	</node>
	<node id="-5212" lat="59.5643805574" lon="6.42108054717">
		<tag k="name" v="Stutatjørn" />
		<tag k="natural" v="water" />
		<tag k="ssr:stedsnr" v="116551" />
	</node>
	<node id="-3161" lat="59.5159444427" lon="6.53555833551">
		<tag k="name" v="Altertjørna" />
		<tag k="natural" v="water" />
		<tag k="ssr:stedsnr" v="485036" />
	</node>
	<node id="-3152" lat="59.4780916636" lon="6.45475554895">
		<tag k="name" v="Vikjo" />
		<tag k="place" v="locality" />
		<tag k="ssr:stedsnr" v="484973" />
	</node>
	<node id="-5198" lat="59.3950250037" lon="6.32431944271">
		<tag k="name" v="Rørtveitneset" />
		<tag k="natural" v="cape" />
		<tag k="ssr:stedsnr" v="115393" />
	</node>
	<node id="-3147" lat="59.6016275767" lon="6.47816722818">
		<tag k="name" v="Bekkjadalstjørnene" />
		<tag k="natural" v="water" />
		<tag k="ssr:stedsnr" v="484746" />
		<tag k="water" v="lake" />
	</node>
	<node id="-5193" lat="59.432361115" lon="5.92779721731">
		<tag k="name" v="Pigsteinstjørn" />
		<tag k="natural" v="water" />
		<tag k="ssr:stedsnr" v="115336" />
	</node>
	<node id="-5192" lat="59.3850000009" lon="6.32569166848">
		<tag k="name" v="Lomatjørna" />
		<tag k="natural" v="water" />
		<tag k="ssr:stedsnr" v="115462" />
	</node>
	<node id="-3143" lat="59.5643722234" lon="6.82355555497">
		<tag k="name" v="Bekkjarøybekken" />
		<tag k="ssr:stedsnr" v="484528" />
		<tag k="waterway" v="stream" />
	</node>
	<node id="-3142" lat="59.5705833378" lon="6.84277221756">
		<tag k="name" v="Mosbekken" />
		<tag k="ssr:stedsnr" v="484526" />
		<tag k="waterway" v="stream" />
	</node>
	<node id="-3140" lat="59.480511114" lon="6.5303194454">
		<tag k="name" v="Lågjo" />
		<tag k="natural" v="water" />
		<tag k="ssr:stedsnr" v="484764" />
	</node>
	<node id="-3139" lat="59.4850416687" lon="6.51008333374">
		<tag k="name" v="Tjovøyr" />
		<tag k="place" v="islet" />
		<tag k="ssr:stedsnr" v="484755" />
	</node>
	<node id="-3136" lat="59.377550001" lon="6.52962500371">
		<tag k="name" v="Løkkjeåna" />
		<tag k="ssr:stedsnr" v="484339" />
		<tag k="waterway" v="river" />
	</node>
	<node id="-5183" lat="59.6511361088" lon="6.85071666094">
		<tag k="name" v="Roalkvamfjorden" />
		<tag k="natural" v="water" />
		<tag k="ssr:stedsnr" v="115091" />
	</node>
	<node id="-3134" lat="59.5813777747" lon="6.49321944704">
		<tag k="name" v="Kroktjørn" />
		<tag k="natural" v="water" />
		<tag k="ssr:stedsnr" v="484293" />
	</node>
	<node id="-4618" lat="59.4726194472" lon="6.40877777674">
		<tag k="alt_name" v="Foreneset" />
		<tag k="name" v="Fureneset" />
		<tag k="natural" v="cape" />
		<tag k="ssr:stedsnr" v="852714" />
	</node>
	<node id="-3129" lat="59.5295666673" lon="6.45920277913">
		<tag k="name" v="Urskartjørna" />
		<tag k="natural" v="water" />
		<tag k="ssr:stedsnr" v="484040" />
	</node>
	<node id="-3128" lat="59.4496333298" lon="6.47074721383">
		<tag k="name" v="Skutetjørn" />
		<tag k="natural" v="water" />
		<tag k="ssr:stedsnr" v="484029" />
	</node>
	<node id="-3127" lat="59.5089583309" lon="6.40390833714">
		<tag k="name" v="Stemmetjørna" />
		<tag k="natural" v="water" />
		<tag k="ssr:stedsnr" v="484027" />
	</node>
	<node id="-3251" lat="59.4004499966" lon="6.25007499341">
		<tag k="name" v="Mørketjørna" />
		<tag k="natural" v="water" />
		<tag k="ssr:stedsnr" v="488762" />
	</node>
	<node id="-5163" lat="59.4798166683" lon="6.26756111103">
		<tag k="name" v="Sandselva" />
		<tag k="ssr:stedsnr" v="102620" />
		<tag k="waterway" v="river" />
	</node>
	<node id="-3111" lat="59.3452888923" lon="6.26471388825">
		<tag k="name" v="Jentefjelltjørna" />
		<tag k="natural" v="water" />
		<tag k="ssr:stedsnr" v="479927" />
	</node>
	<node id="-3248" lat="59.4485194476" lon="6.30173610522">
		<tag k="alt_name" v="Hiimsvatnet" />
		<tag k="name" v="Heimsvatnet" />
		<tag k="natural" v="water" />
		<tag k="ssr:stedsnr" v="488717" />
		<tag k="water" v="lake" />
	</node>
	<node id="-3102" lat="59.5608222192" lon="6.44302223102">
		<tag k="name" v="Sabekken" />
		<tag k="ssr:stedsnr" v="479528" />
		<tag k="waterway" v="stream" />
	</node>
	<node id="-3101" lat="59.3834527802" lon="6.12746943731">
		<tag k="name" v="Vassvika" />
		<tag k="natural" v="bay" />
		<tag k="ssr:stedsnr" v="479584" />
	</node>
	<node id="-5147" lat="59.52043889" lon="6.18167500029">
		<tag k="name" v="Kaldåna" />
		<tag k="ssr:stedsnr" v="64896" />
		<tag k="waterway" v="stream" />
	</node>
	<node id="-5145" lat="59.576375002" lon="6.51331944821">
		<tag k="name" v="Tosketjørn" />
		<tag k="natural" v="water" />
		<tag k="ssr:stedsnr" v="64885" />
	</node>
	<node id="-3854" lat="59.5867666669" lon="6.74715833105">
		<tag k="name" v="Degernes" />
		<tag k="natural" v="cape" />
		<tag k="ssr:stedsnr" v="605578" />
	</node>
	<node id="-5139" lat="59.7047361127" lon="7.08332499643">
		<tag k="name" v="Litlavatnet" />
		<tag k="natural" v="water" />
		<tag k="ssr:stedsnr" v="64378" />
		<tag k="water" v="lake" />
	</node>
	<node id="-5137" lat="59.6849249994" lon="7.06276389673">
		<tag k="name" v="Tverråna" />
		<tag k="ssr:stedsnr" v="64481" />
		<tag k="waterway" v="river" />
	</node>
	<node id="-5133" lat="59.5493333328" lon="6.65726944901">
		<tag k="name" v="Vorvikefjorden" />
		<tag k="natural" v="water" />
		<tag k="ssr:stedsnr" v="64066" />
	</node>
	<node id="-5132" lat="59.5039668798" lon="6.45879072028">
		<tag k="alt_name" v="Nyastøltjørna" />
		<tag k="name" v="Nyastølstjørna" />
		<tag k="natural" v="water" />
		<tag k="ssr:stedsnr" v="64144" />
	</node>
	<node id="-3082" lat="59.4326444409" lon="6.12686111126">
		<tag k="name" v="Rapatjørna" />
		<tag k="natural" v="water" />
		<tag k="ssr:stedsnr" v="479100" />
	</node>
	<node id="-3244" lat="59.4547861101" lon="6.53988610643">
		<tag k="alt_name" v="Kjidlingevatnet" />
		<tag k="name" v="Killingevatnet" />
		<tag k="natural" v="water" />
		<tag k="ssr:stedsnr" v="488704" />
		<tag k="water" v="lake" />
	</node>
	<node id="-5126" lat="59.3045444438" lon="6.25689444402">
		<tag k="name" v="Brattåna" />
		<tag k="ssr:stedsnr" v="63995" />
		<tag k="waterway" v="stream" />
	</node>
	<node id="-5124" lat="59.425430557" lon="6.47281388689">
		<tag k="name" v="Stavastølåna" />
		<tag k="ssr:stedsnr" v="63800" />
		<tag k="waterway" v="stream" />
	</node>
	<node id="-5149" lat="59.7652361119" lon="7.03143889197">
		<tag k="name" v="Kvanndalstjørna" />
		<tag k="natural" v="water" />
		<tag k="ssr:stedsnr" v="64941" />
	</node>
	<node id="-5120" lat="59.4113135034" lon="6.40285867071">
		<tag k="name" v="Veneheivatnet" />
		<tag k="natural" v="water" />
		<tag k="ssr:stedsnr" v="63753" />
		<tag k="water" v="lake" />
	</node>
	<node id="-5119" lat="59.4067731562" lon="6.36797574061">
		<tag k="name" v="Budalsvatnet" />
		<tag k="natural" v="water" />
		<tag k="ssr:stedsnr" v="63750" />
		<tag k="water" v="lake" />
	</node>
	<node id="-3067" lat="59.6801416702" lon="6.99250832815">
		<tag k="name" v="Taklibekken" />
		<tag k="ssr:stedsnr" v="306448" />
		<tag k="waterway" v="stream" />
	</node>
	<node id="-3066" lat="59.6734499969" lon="7.1368416636">
		<tag k="name" v="Holmavassåna" />
		<tag k="old_name" v="Holmavassåno" />
		<tag k="ssr:stedsnr" v="306447" />
		<tag k="waterway" v="river" />
	</node>
	<node id="-3063" lat="59.4062277803" lon="6.20089999406">
		<tag k="name" v="Lovraeidet" />
		<tag k="natural" v="strait" />
		<tag k="ssr:stedsnr" v="306403" />
	</node>
	<node id="-3062" lat="59.4033168689" lon="6.59373635659">
		<tag k="name" v="Hestvatna" />
		<tag k="natural" v="water" />
		<tag k="ssr:stedsnr" v="305851" />
		<tag k="water" v="lake" />
	</node>
	<node id="-3060" lat="59.4153943637" lon="6.29913957257">
		<tag k="name" v="Krokavatnet" />
		<tag k="natural" v="water" />
		<tag k="ssr:stedsnr" v="305819" />
		<tag k="water" v="lake" />
	</node>
	<node id="-5107" lat="59.4385549762" lon="6.37267804998">
		<tag k="alt_name" v="Vassbottvatnet" />
		<tag k="name" v="Vassbotnvatnet" />
		<tag k="natural" v="water" />
		<tag k="ssr:stedsnr" v="63681" />
		<tag k="water" v="lake" />
	</node>
	<node id="-5105" lat="59.4613777757" lon="6.36339166723">
		<tag k="name" v="Hundabekken" />
		<tag k="ssr:stedsnr" v="63719" />
		<tag k="waterway" v="stream" />
	</node>
	<node id="-3056" lat="59.4241333369" lon="6.41571388862">
		<tag k="alt_name" v="Gamlaskarvatnet" />
		<tag k="name" v="Gamlaskardvatnet" />
		<tag k="natural" v="water" />
		<tag k="ssr:stedsnr" v="305802" />
		<tag k="water" v="lake" />
	</node>
	<node id="-3054" lat="59.4778722185" lon="6.40075000789">
		<tag k="name" v="Øykjagardsbekken" />
		<tag k="ssr:stedsnr" v="303960" />
		<tag k="waterway" v="stream" />
	</node>
	<node id="-3052" lat="59.5063805578" lon="6.6034166674">
		<tag k="name" v="Ormanes" />
		<tag k="natural" v="cape" />
		<tag k="ssr:stedsnr" v="303760" />
	</node>
	<node id="-5090" lat="59.3899250002" lon="6.00124999586">
		<tag k="alt_name" v="Bøgdatjørna" />
		<tag k="name" v="Bygdatjørna" />
		<tag k="natural" v="water" />
		<tag k="ssr:stedsnr" v="63429" />
	</node>
	<node id="-5085" lat="59.7459805521" lon="7.08938056217">
		<tag k="name" v="Isåna" />
		<tag k="ssr:stedsnr" v="63411" />
		<tag k="waterway" v="stream" />
	</node>
	<node id="-5076" lat="59.4172750018" lon="5.97162499621">
		<tag k="name" v="Simonsdalsvatnet" />
		<tag k="natural" v="water" />
		<tag k="ssr:stedsnr" v="63386" />
		<tag k="water" v="lake" />
	</node>
	<node id="-3027" lat="59.4516944458" lon="6.5400972142">
		<tag k="name" v="Gullsmedvika" />
		<tag k="natural" v="bay" />
		<tag k="ssr:stedsnr" v="302010" />
	</node>
	<node id="-3025" lat="59.6336472197" lon="6.79659721793">
		<tag k="name" v="Eiet" />
		<tag k="natural" v="strait" />
		<tag k="ssr:stedsnr" v="299352" />
	</node>
	<node id="-5065" lat="59.4168055525" lon="6.68316389198">
		<tag k="name" v="Napatjørna" />
		<tag k="natural" v="water" />
		<tag k="ssr:stedsnr" v="63213" />
	</node>
	<node id="-5063" lat="59.3735500028" lon="6.6605916595">
		<tag k="name" v="Moltehorttjørna" />
		<tag k="natural" v="water" />
		<tag k="ssr:stedsnr" v="63206" />
	</node>
	<node id="-5062" lat="59.3794000004" lon="6.69548888176">
		<tag k="name" v="Kvitserktjørna" />
		<tag k="natural" v="water" />
		<tag k="ssr:stedsnr" v="63200" />
	</node>
	<node id="-5060" lat="59.4620361122" lon="7.01353610883">
		<tag k="alt_name" v="Holmevatn" />
		<tag k="name" v="Holmevatnet" />
		<tag k="natural" v="water" />
		<tag k="ssr:stedsnr" v="63141" />
		<tag k="water" v="lake" />
	</node>
	<node id="-5058" lat="59.6119416689" lon="6.66090555122">
		<tag k="name" v="Øytjørn" />
		<tag k="natural" v="water" />
		<tag k="ssr:stedsnr" v="63118" />
	</node>
	<node id="-3915" lat="59.4508333364" lon="6.64152499923">
		<tag k="name" v="Litletjørn" />
		<tag k="natural" v="water" />
		<tag k="ssr:stedsnr" v="720060" />
	</node>
	<node id="-5056" lat="59.4575861144" lon="6.90866944283">
		<tag k="name" v="Krossvasskilane" />
		<tag k="place" v="locality" />
		<tag k="ssr:stedsnr" v="63076" />
	</node>
	<node id="-3006" lat="59.6815083288" lon="7.02335277123">
		<tag k="name" v="Reinatjørna" />
		<tag k="natural" v="water" />
		<tag k="ssr:stedsnr" v="450398" />
	</node>
	<node id="-5049" lat="59.6165861248" lon="6.71983192994">
		<tag k="name" v="Holmavatnet" />
		<tag k="natural" v="water" />
		<tag k="ssr:stedsnr" v="63034" />
		<tag k="water" v="lake" />
	</node>
	<node id="-5045" lat="59.4638052752" lon="6.61992917384">
		<tag k="name" v="Tvitjørnane" />
		<tag k="natural" v="water" />
		<tag k="ssr:stedsnr" v="63004" />
		<tag k="water" v="lake" />
	</node>
	<node id="-2996" lat="59.6515478005" lon="6.64956029709">
		<tag k="name" v="Vetratjørna" />
		<tag k="natural" v="water" />
		<tag k="ssr:stedsnr" v="246056" />
	</node>
	<node id="-5042" lat="59.4936388898" lon="6.52331666224">
		<tag k="name" v="Brakabekken" />
		<tag k="ssr:stedsnr" v="60985" />
		<tag k="waterway" v="stream" />
	</node>
	<node id="-5041" lat="59.4940305543" lon="6.53265277693">
		<tag k="name" v="Vikestraumen" />
		<tag k="ssr:stedsnr" v="60982" />
		<tag k="waterway" v="rapids" />
	</node>
	<node id="-2992" lat="59.3883249986" lon="6.26224444345">
		<tag k="name" v="Sørhustjørna" />
		<tag k="natural" v="water" />
		<tag k="ssr:stedsnr" v="245853" />
	</node>
	<node id="-2990" lat="59.4207666635" lon="6.26856111464">
		<tag k="name" v="Litlatjørna" />
		<tag k="natural" v="water" />
		<tag k="ssr:stedsnr" v="245779" />
	</node>
	<node id="-5036" lat="59.5079638857" lon="6.43951389448">
		<tag k="name" v="Hesttjørna" />
		<tag k="natural" v="water" />
		<tag k="ssr:stedsnr" v="60917" />
	</node>
	<node id="-2987" lat="59.4808333319" lon="6.57740833629">
		<tag k="name" v="Nyastølbekken" />
		<tag k="ssr:stedsnr" v="245603" />
		<tag k="waterway" v="stream" />
	</node>
	<node id="-2986" lat="59.3637880157" lon="5.96626563712">
		<tag k="alt_name" v="Råtatjørna" />
		<tag k="name" v="Rotatjørna" />
		<tag k="natural" v="water" />
		<tag k="ssr:stedsnr" v="245463" />
	</node>
	<node id="-3373" lat="59.5173155492" lon="6.5087105718">
		<tag k="name" v="Røyravatnet" />
		<tag k="natural" v="water" />
		<tag k="ssr:stedsnr" v="428111" />
	</node>
	<node id="-5031" lat="59.6510138903" lon="6.83663334179">
		<tag k="name" v="Vadlarvika" />
		<tag k="natural" v="bay" />
		<tag k="ssr:stedsnr" v="60660" />
	</node>
	<node id="-5029" lat="59.5576749996" lon="6.65830555198">
		<tag k="name" v="Lestanes" />
		<tag k="natural" v="cape" />
		<tag k="ssr:stedsnr" v="60606" />
	</node>
	<node id="-5028" lat="59.5553388902" lon="6.65478610231">
		<tag k="name" v="Øvra Røsseliland" />
		<tag k="natural" v="beach" />
		<tag k="ssr:stedsnr" v="60605" />
	</node>
	<node id="-5023" lat="59.5856666649" lon="6.76053611264">
		<tag k="name" v="Skotagiljo" />
		<tag k="natural" v="bay" />
		<tag k="ssr:stedsnr" v="60542" />
	</node>
	<node id="-3909" lat="59.6453833352" lon="6.84666667118">
		<tag k="name" v="Kalvavika" />
		<tag k="natural" v="bay" />
		<tag k="ssr:stedsnr" v="610008" />
	</node>
	<node id="-2972" lat="59.4813138929" lon="6.44914444978">
		<tag k="name" v="Steinshølen" />
		<tag k="place" v="locality" />
		<tag k="ssr:stedsnr" v="242974" />
	</node>
	<node id="-5019" lat="59.6660111125" lon="6.86270833102">
		<tag k="name" v="Kvednabekken" />
		<tag k="ssr:stedsnr" v="60478" />
		<tag k="waterway" v="stream" />
	</node>
	<node id="-2969" lat="59.4886000014" lon="6.40928888978">
		<tag k="name" v="Smidjebekken" />
		<tag k="ssr:stedsnr" v="242918" />
		<tag k="waterway" v="stream" />
	</node>
	<node id="-5016" lat="59.6159916707" lon="6.66878611459">
		<tag k="name" v="Lisbetsøten" />
		<tag k="ssr:stedsnr" v="60445" />
		<tag k="waterway" v="stream" />
	</node>
	<node id="-5011" lat="59.619872226" lon="6.96170834036">
		<tag k="name" v="Gamlestølbekken" />
		<tag k="ssr:stedsnr" v="60413" />
		<tag k="waterway" v="stream" />
	</node>
	<node id="-5009" lat="59.5937666291" lon="6.91595002083">
		<tag k="name" v="Geitatjørna" />
		<tag k="natural" v="water" />
		<tag k="ssr:stedsnr" v="60379" />
	</node>
	<node id="-5008" lat="59.4032833358" lon="6.42791388953">
		<tag k="name" v="Vassvikane" />
		<tag k="natural" v="bay" />
		<tag k="ssr:stedsnr" v="60364" />
	</node>
	<node id="-5006" lat="59.4085166682" lon="6.37043332622">
		<tag k="name" v="Sandvik" />
		<tag k="natural" v="bay" />
		<tag k="ssr:stedsnr" v="60348" />
	</node>
	<node id="-5003" lat="59.4008249984" lon="6.56147500626">
		<tag k="name" v="Vodlavika" />
		<tag k="natural" v="bay" />
		<tag k="ssr:stedsnr" v="60336" />
	</node>
	<node id="-4104" lat="59.7466888909" lon="7.08802500145">
		<tag k="name" v="Isåna" />
		<tag k="ssr:stedsnr" v="732922" />
		<tag k="waterway" v="stream" />
	</node>
	<node id="-2949" lat="59.5360333348" lon="6.31429443642">
		<tag k="name" v="Kaldebekk" />
		<tag k="ssr:stedsnr" v="239161" />
		<tag k="waterway" v="stream" />
	</node>
	<node id="-4996" lat="59.4580888911" lon="6.34268610957">
		<tag k="name" v="Kvamsøyno" />
		<tag k="place" v="island" />
		<tag k="ssr:stedsnr" v="60179" />
	</node>
	<node id="-4995" lat="59.4413888863" lon="6.34459721921">
		<tag k="name" v="Vetrhusbekken" />
		<tag k="ssr:stedsnr" v="60144" />
		<tag k="waterway" v="stream" />
	</node>
	<node id="-2942" lat="59.4730499995" lon="6.59954444796">
		<tag k="name" v="Litlåa" />
		<tag k="ssr:stedsnr" v="234012" />
		<tag k="waterway" v="stream" />
	</node>
	<node id="-3221" lat="59.5108111126" lon="6.97380554911">
		<tag k="name" v="Steinkilen" />
		<tag k="place" v="locality" />
		<tag k="ssr:stedsnr" v="488227" />
	</node>
	<node id="-4984" lat="59.5165250026" lon="6.58104167044">
		<tag k="name" v="Nutatjørna" />
		<tag k="natural" v="water" />
		<tag k="ssr:stedsnr" v="60054" />
	</node>
	<node id="-4983" lat="59.5137583701" lon="6.51084080818">
		<tag k="name" v="Midtåno" />
		<tag k="ssr:stedsnr" v="60053" />
		<tag k="waterway" v="stream" />
	</node>
	<node id="-4981" lat="59.5175333327" lon="6.52361667364">
		<tag k="name" v="Stølsåno" />
		<tag k="ssr:stedsnr" v="60044" />
		<tag k="waterway" v="stream" />
	</node>
	<node id="-4980" lat="59.4347111086" lon="6.4467805633">
		<tag k="name" v="Fossane" />
		<tag k="natural" v="waterfall" />
		<tag k="ssr:stedsnr" v="60040" />
	</node>
	<node id="-2878" lat="59.5177166678" lon="6.19758611349">
		<tag k="name" v="Østabøåna" />
		<tag k="ssr:stedsnr" v="299169" />
		<tag k="waterway" v="river" />
	</node>
	<node id="-4243" lat="59.6274186956" lon="6.68733061769">
		<tag k="name" v="Svartavatnet" />
		<tag k="natural" v="water" />
		<tag k="ssr:stedsnr" v="731011" />
	</node>
	<node id="-2928" lat="59.6272417527" lon="7.08726953214">
		<tag k="name" v="Glovretjørn" />
		<tag k="natural" v="water" />
		<tag k="ssr:stedsnr" v="210823" />
		<tag k="water" v="lake" />
	</node>
	<node id="-4964" lat="59.4838083359" lon="6.33391389514">
		<tag k="name" v="Brommelandsbekken" />
		<tag k="ssr:stedsnr" v="63666" />
		<tag k="waterway" v="stream" />
	</node>
	<node id="-3916" lat="59.6334333325" lon="6.76559999155">
		<tag k="name" v="Juvsåa" />
		<tag k="ssr:stedsnr" v="721017" />
		<tag k="waterway" v="stream" />
	</node>
	<node id="-2908" lat="59.3888749993" lon="6.27544999347">
		<tag k="name" v="Holmatjørna" />
		<tag k="natural" v="water" />
		<tag k="ssr:stedsnr" v="297421" />
	</node>
	<node id="-4954" lat="59.4329305519" lon="6.0135611031">
		<tag k="name" v="Vassenden" />
		<tag k="natural" v="bay" />
		<tag k="ssr:stedsnr" v="57252" />
	</node>
	<node id="-4953" lat="59.4261972183" lon="6.01138611687">
		<tag k="name" v="Kviklo" />
		<tag k="natural" v="bay" />
		<tag k="ssr:stedsnr" v="57249" />
	</node>
	<node id="-3555" lat="59.4682555552" lon="6.48619166598">
		<tag k="alt_name" v="Tjøstheimsåno" />
		<tag k="name" v="Tjøsteimsåna" />
		<tag k="ssr:stedsnr" v="669742" />
		<tag k="waterway" v="stream" />
	</node>
	<node id="-4942" lat="59.3710194477" lon="6.34721388406">
		<tag k="name" v="Longetjørna" />
		<tag k="natural" v="water" />
		<tag k="ssr:stedsnr" v="55849" />
	</node>
	<node id="-3213" lat="59.5150527737" lon="6.42491388329">
		<tag k="alt_name" v="Vasstølstjørn" />
		<tag k="name" v="Vasstølstjørna" />
		<tag k="natural" v="water" />
		<tag k="ssr:stedsnr" v="488127" />
	</node>
	<node id="-4935" lat="59.4525805558" lon="6.32197778043">
		<tag k="name" v="Pøylane" />
		<tag k="natural" v="water" />
		<tag k="ssr:stedsnr" v="55691" />
	</node>
	<node id="-2880" lat="59.7396714383" lon="6.96036641158">
		<tag k="name" v="Heimra Grubbedalstjørna" />
		<tag k="natural" v="water" />
		<tag k="ssr:stedsnr" v="295241" />
	</node>
	<node id="-4926" lat="59.4304777755" lon="6.06178888567">
		<tag k="name" v="Søråna" />
		<tag k="ssr:stedsnr" v="55093" />
		<tag k="waterway" v="river" />
	</node>
	<node id="-4922" lat="59.3651527792" lon="6.34464444077">
		<tag k="name" v="Mauralineset" />
		<tag k="natural" v="cape" />
		<tag k="ssr:stedsnr" v="54888" />
	</node>
	<node id="-2873" lat="59.58403889" lon="6.74124443597">
		<tag k="name" v="Hetlevika" />
		<tag k="natural" v="bay" />
		<tag k="ssr:stedsnr" v="185118" />
	</node>
	<node id="-4919" lat="59.4190472207" lon="6.00411667321">
		<tag k="name" v="Gråfossbekken" />
		<tag k="ssr:stedsnr" v="54795" />
		<tag k="waterway" v="stream" />
	</node>
	<node id="-2870" lat="59.5468064745" lon="6.88331637283">
		<tag k="name" v="Sandvatnet" />
		<tag k="natural" v="water" />
		<tag k="ssr:stedsnr" v="185085" />
		<tag k="water" v="lake" />
	</node>
	<node id="-2526" lat="59.4018666671" lon="6.81124444769">
		<tag k="name" v="Oddatjørna" />
		<tag k="natural" v="water" />
		<tag k="ssr:stedsnr" v="2207" />
	</node>
	<node id="-4913" lat="59.5570416653" lon="6.42936111048">
		<tag k="name" v="Stibekken" />
		<tag k="ssr:stedsnr" v="54545" />
		<tag k="waterway" v="stream" />
	</node>
	<node id="-2864" lat="59.6594916692" lon="6.8770194519">
		<tag k="name" v="Tverråa" />
		<tag k="ssr:stedsnr" v="185059" />
		<tag k="waterway" v="stream" />
	</node>
	<node id="-2860" lat="59.4810277743" lon="6.86566944013">
		<tag k="name" v="Gravetjørna" />
		<tag k="natural" v="water" />
		<tag k="ssr:stedsnr" v="184003" />
	</node>
	<node id="-2855" lat="59.5721694426" lon="6.66659444354">
		<tag k="name" v="Kjerringholmen" />
		<tag k="place" v="islet" />
		<tag k="ssr:stedsnr" v="181609" />
	</node>
	<node id="-4900" lat="59.4284361151" lon="5.96439721593">
		<tag k="name" v="Nutatjørna" />
		<tag k="natural" v="water" />
		<tag k="ssr:stedsnr" v="54264" />
	</node>
	<node id="-2842" lat="59.4599972205" lon="6.4100499915">
		<tag k="name" v="Herabakkahølen" />
		<tag k="place" v="locality" />
		<tag k="ssr:stedsnr" v="181253" />
	</node>
	<node id="-2841" lat="59.5352083367" lon="6.41915554816">
		<tag k="name" v="Liarbekken" />
		<tag k="ssr:stedsnr" v="181127" />
		<tag k="waterway" v="stream" />
	</node>
	<node id="-2838" lat="59.5346694465" lon="6.43700833305">
		<tag k="name" v="Liåno" />
		<tag k="ssr:stedsnr" v="181105" />
		<tag k="waterway" v="river" />
	</node>
	<node id="-4884" lat="59.5722694406" lon="6.77332777893">
		<tag k="name" v="Eivindsåa" />
		<tag k="ssr:stedsnr" v="20886" />
		<tag k="waterway" v="river" />
	</node>
	<node id="-5934" lat="59.6819583377" lon="6.86076943895">
		<tag k="name" v="Kvednabekken" />
		<tag k="ssr:stedsnr" v="363544" />
		<tag k="waterway" v="stream" />
	</node>
	<node id="-4882" lat="59.5846501749" lon="6.54450926676">
		<tag k="name" v="Grimsvatnet" />
		<tag k="natural" v="water" />
		<tag k="ssr:stedsnr" v="3827" />
		<tag k="water" v="lake" />
	</node>
	<node id="-4880" lat="59.583027779" lon="6.42399444213">
		<tag k="name" v="Kaldavatnet" />
		<tag k="natural" v="water" />
		<tag k="ssr:stedsnr" v="3820" />
		<tag k="water" v="lake" />
	</node>
	<node id="-4878" lat="59.6558111137" lon="7.06130277657">
		<tag k="name" v="Reinodden" />
		<tag k="natural" v="cape" />
		<tag k="ssr:stedsnr" v="3421" />
	</node>
	<node id="-4875" lat="59.5269333308" lon="6.62073332884">
		<tag k="name" v="Tjøreholmen" />
		<tag k="place" v="islet" />
		<tag k="ssr:stedsnr" v="3383" />
	</node>
	<node id="-4869" lat="59.7343027778" lon="7.09116667156">
		<tag k="name" v="Isvatnet" />
		<tag k="natural" v="water" />
		<tag k="ssr:stedsnr" v="3347" />
		<tag k="water" v="lake" />
	</node>
	<node id="-4859" lat="59.5267661586" lon="6.48698215963">
		<tag k="alt_name" v="Frankhillervatnet, litla;Litla Frakhidlervatnet" />
		<tag k="name" v="Litla Frakhillervatnet" />
		<tag k="natural" v="water" />
		<tag k="ssr:stedsnr" v="3120" />
	</node>
	<node id="-4857" lat="59.5850527749" lon="6.61361667049">
		<tag k="name" v="Fiskevatnet" />
		<tag k="natural" v="water" />
		<tag k="ssr:stedsnr" v="3114" />
	</node>
	<node id="-4853" lat="59.6003763198" lon="6.85978452351">
		<tag k="name" v="Kvernavatna" />
		<tag k="natural" v="water" />
		<tag k="ssr:stedsnr" v="3090" />
		<tag k="water" v="lake" />
	</node>
	<node id="-2685" lat="59.4943805522" lon="6.52683334218">
		<tag k="name" v="Vormevik" />
		<tag k="natural" v="bay" />
		<tag k="ssr:stedsnr" v="242993" />
	</node>
	<node id="-2803" lat="59.5599638867" lon="6.68439999988">
		<tag k="name" v="Steinsvikebekken" />
		<tag k="ssr:stedsnr" v="263944" />
		<tag k="waterway" v="stream" />
	</node>
	<node id="-2802" lat="59.518330559" lon="6.61263054834">
		<tag k="name" v="Fantanes" />
		<tag k="natural" v="cape" />
		<tag k="ssr:stedsnr" v="263943" />
	</node>
	<node id="-4848" lat="59.5609777793" lon="6.61860000243">
		<tag k="name" v="Hylsåa" />
		<tag k="ssr:stedsnr" v="3066" />
		<tag k="waterway" v="stream" />
	</node>
	<node id="-4843" lat="59.6586000001" lon="6.78481944171">
		<tag k="name" v="Brattlandsdalåa" />
		<tag k="ssr:stedsnr" v="3049" />
		<tag k="waterway" v="river" />
	</node>
	<node id="-4841" lat="59.6643333373" lon="6.66547778144">
		<tag k="name" v="Litlavatnet" />
		<tag k="natural" v="water" />
		<tag k="ssr:stedsnr" v="3040" />
		<tag k="water" v="lake" />
	</node>
	<node id="-4839" lat="59.6432944486" lon="6.93368610997">
		<tag k="name" v="Klauvfossen" />
		<tag k="natural" v="waterfall" />
		<tag k="ssr:stedsnr" v="3021" />
	</node>
	<node id="-2790" lat="59.5823055515" lon="6.44537778137">
		<tag k="name" v="Finnabutjørna" />
		<tag k="natural" v="water" />
		<tag k="ssr:stedsnr" v="116705" />
	</node>
	<node id="-4837" lat="59.6480305525" lon="6.89923610454">
		<tag k="name" v="Lomatjørna" />
		<tag k="natural" v="water" />
		<tag k="ssr:stedsnr" v="3012" />
	</node>
	<node id="-4833" lat="59.3423638883" lon="6.27027499568">
		<tag k="name" v="Lomatjørna" />
		<tag k="natural" v="water" />
		<tag k="ssr:stedsnr" v="2923" />
	</node>
	<node id="-4831" lat="59.3728583292" lon="6.28870278664">
		<tag k="alt_name" v="Storåna" />
		<tag k="name" v="Hålandselva" />
		<tag k="ssr:stedsnr" v="2850" />
		<tag k="waterway" v="river" />
	</node>
	<node id="-4829" lat="59.3964833337" lon="6.54809999155">
		<tag k="name" v="Sandsaosen" />
		<tag k="natural" v="bay" />
		<tag k="ssr:stedsnr" v="2833" />
	</node>
	<node id="-4827" lat="59.3685166707" lon="6.33524166487">
		<tag k="name" v="Kleivatjørna" />
		<tag k="natural" v="water" />
		<tag k="ssr:stedsnr" v="2806" />
	</node>
	<node id="-4824" lat="59.4302083322" lon="6.55768334158">
		<tag k="alt_name" v="Fiskåno" />
		<tag k="name" v="Fiskåna" />
		<tag k="ssr:stedsnr" v="2791" />
		<tag k="waterway" v="stream" />
	</node>
	<node id="-4822" lat="59.4203138876" lon="6.34321111654">
		<tag k="alt_name" v="Øykatjørnene;Øykatjørna" />
		<tag k="name" v="Øytjørnan" />
		<tag k="natural" v="water" />
		<tag k="ssr:stedsnr" v="2783" />
		<tag k="water" v="lake" />
	</node>
	<node id="-4820" lat="59.4228805542" lon="6.32419999956">
		<tag k="alt_name" v="Båsabudalsvatnet" />
		<tag k="name" v="Båsabuvatnet" />
		<tag k="natural" v="water" />
		<tag k="ssr:stedsnr" v="2775" />
		<tag k="water" v="lake" />
	</node>
	<node id="-4818" lat="59.3984250004" lon="6.25788888807">
		<tag k="name" v="Lomatjørna" />
		<tag k="natural" v="water" />
		<tag k="ssr:stedsnr" v="2759" />
	</node>
	<node id="-3192" lat="59.3828277763" lon="6.35510832907">
		<tag k="alt_name" v="Natlandsåna" />
		<tag k="name" v="Nattlandsåna" />
		<tag k="ssr:stedsnr" v="487865" />
		<tag k="waterway" v="stream" />
	</node>
	<node id="-2764" lat="59.6138138851" lon="6.74019166787">
		<tag k="name" v="Stemmatjørna" />
		<tag k="natural" v="water" />
		<tag k="ssr:stedsnr" v="82902" />
	</node>
	<node id="-4811" lat="59.4423138909" lon="6.39426666038">
		<tag k="name" v="Kvæstadbekken" />
		<tag k="ssr:stedsnr" v="2696" />
		<tag k="waterway" v="stream" />
	</node>
	<node id="-2761" lat="59.5097194483" lon="6.19375833155">
		<tag k="name" v="Sellandsvatnet" />
		<tag k="natural" v="water" />
		<tag k="ssr:stedsnr" v="246921" />
		<tag k="water" v="lake" />
	</node>
	<node id="-4808" lat="59.4287333354" lon="6.31202499958">
		<tag k="alt_name" v="Stora Hedlestølstjørna" />
		<tag k="name" v="Hellestølvatnet" />
		<tag k="natural" v="water" />
		<tag k="ssr:stedsnr" v="2689" />
	</node>
	<node id="-2760" lat="59.539219449" lon="6.14574445127">
		<tag k="alt_name" v="Istjørn" />
		<tag k="name" v="Istjørna" />
		<tag k="natural" v="water" />
		<tag k="ssr:stedsnr" v="246891" />
	</node>
	<node id="-4806" lat="59.4811083337" lon="6.25673333509">
		<tag k="name" v="Sandsfossen" />
		<tag k="natural" v="waterfall" />
		<tag k="ssr:stedsnr" v="2671" />
	</node>
	<node id="-4803" lat="59.4760250025" lon="6.35794166889">
		<tag k="alt_name" v="Storurtjørna" />
		<tag k="name" v="Storurdtjørna" />
		<tag k="natural" v="water" />
		<tag k="ssr:stedsnr" v="2657" />
	</node>
	<node id="-2754" lat="59.5801194409" lon="6.18694999397">
		<tag k="alt_name" v="Støda, øvre;Øvra Støå" />
		<tag k="name" v="Øvre Støda" />
		<tag k="natural" v="water" />
		<tag k="ssr:stedsnr" v="246546" />
	</node>
	<node id="-2753" lat="59.6890083351" lon="6.97456389689">
		<tag k="name" v="Sildatjørna" />
		<tag k="natural" v="water" />
		<tag k="ssr:stedsnr" v="246463" />
	</node>
	<node id="-2752" lat="59.6625194422" lon="7.00376943958">
		<tag k="name" v="Havrevatnet" />
		<tag k="natural" v="water" />
		<tag k="ssr:stedsnr" v="246444" />
		<tag k="water" v="lake" />
	</node>
	<node id="-2751" lat="59.6652830378" lon="7.07311016238">
		<tag k="name" v="Sandvatnet" />
		<tag k="natural" v="water" />
		<tag k="ssr:stedsnr" v="246431" />
		<tag k="water" v="lake" />
	</node>
	<node id="-2749" lat="59.7165666669" lon="6.8372166652">
		<tag k="name" v="Kornstøldalsåa" />
		<tag k="ssr:stedsnr" v="246238" />
		<tag k="waterway" v="stream" />
	</node>
	<node id="-3530" lat="59.4250500031" lon="6.01982499338">
		<tag k="alt_name" v="Vatlandsvatnet" />
		<tag k="name" v="Grytevatnet" />
		<tag k="natural" v="water" />
		<tag k="ssr:stedsnr" v="669337" />
		<tag k="water" v="lake" />
	</node>
	<node id="-2745" lat="59.5605305565" lon="6.53996111004">
		<tag k="name" v="Lingvangsfossen" />
		<tag k="natural" v="waterfall" />
		<tag k="ssr:stedsnr" v="246165" />
	</node>
	<node id="-2743" lat="59.5075416623" lon="6.39130554803">
		<tag k="alt_name" v="Nøkkjarvika" />
		<tag k="name" v="Nøkkjarvatnet" />
		<tag k="natural" v="water" />
		<tag k="ssr:stedsnr" v="246134" />
	</node>
	<node id="-4790" lat="59.3838499961" lon="6.20254999441">
		<tag k="name" v="Gåsvatnet" />
		<tag k="natural" v="water" />
		<tag k="ssr:stedsnr" v="2469" />
		<tag k="water" v="lake" />
	</node>
	<node id="-2741" lat="59.6245333311" lon="6.68759165834">
		<tag k="name" v="Villfarevatnet" />
		<tag k="natural" v="water" />
		<tag k="ssr:stedsnr" v="246025" />
	</node>
	<node id="-4786" lat="59.4126527768" lon="6.16920556104">
		<tag k="alt_name" v="Tjødnane" />
		<tag k="name" v="Tjørnene" />
		<tag k="natural" v="water" />
		<tag k="ssr:stedsnr" v="2420" />
		<tag k="water" v="lake" />
	</node>
	<node id="-3528" lat="59.3453563093" lon="6.63401596607">
		<tag k="name" v="Jonsokvatnet" />
		<tag k="natural" v="water" />
		<tag k="ssr:stedsnr" v="669219" />
		<tag k="water" v="lake" />
	</node>
	<node id="-2734" lat="59.5472888868" lon="6.67010000086">
		<tag k="name" v="Kvilldalsstronda" />
		<tag k="natural" v="beach" />
		<tag k="ssr:stedsnr" v="246093" />
	</node>
	<node id="-4778" lat="59.4392999972" lon="6.0154750073">
		<tag k="name" v="Rosseidtjørna" />
		<tag k="natural" v="water" />
		<tag k="ssr:stedsnr" v="2363" />
		<tag k="water" v="lake" />
	</node>
	<node id="-2729" lat="59.3567249998" lon="6.32842499237">
		<tag k="alt_name" v="Hedlestølvatnet" />
		<tag k="name" v="Hellerstølvatnet" />
		<tag k="natural" v="water" />
		<tag k="ssr:stedsnr" v="245813" />
		<tag k="water" v="lake" />
	</node>
	<node id="-4776" lat="59.4570361116" lon="6.07690278458">
		<tag k="name" v="Skjørbekk" />
		<tag k="ssr:stedsnr" v="2355" />
		<tag k="waterway" v="stream" />
	</node>
	<node id="-4775" lat="59.4347277757" lon="6.7873611116">
		<tag k="name" v="Pjåkavatnet" />
		<tag k="natural" v="water" />
		<tag k="ssr:stedsnr" v="2039" />
		<tag k="water" v="lake" />
	</node>
	<node id="-2726" lat="59.3938833306" lon="6.28226665883">
		<tag k="name" v="Midttjørna" />
		<tag k="natural" v="water" />
		<tag k="ssr:stedsnr" v="245742" />
	</node>
	<node id="-4773" lat="59.4321027793" lon="6.69428611531">
		<tag k="name" v="Stranddalsvatnet" />
		<tag k="natural" v="water" />
		<tag k="ssr:stedsnr" v="2034" />
		<tag k="water" v="lake" />
	</node>
	<node id="-2722" lat="59.4651083313" lon="6.5307333255">
		<tag k="alt_name" v="Rishaugtjørnene" />
		<tag k="name" v="Rishaugtjørnane" />
		<tag k="natural" v="water" />
		<tag k="ssr:stedsnr" v="245700" />
		<tag k="water" v="lake" />
	</node>
	<node id="-4768" lat="59.3964138853" lon="6.61936111886">
		<tag k="name" v="Krokavatnet" />
		<tag k="natural" v="water" />
		<tag k="ssr:stedsnr" v="2190" />
	</node>
	<node id="-2718" lat="59.3495926974" lon="6.17939763876">
		<tag k="name" v="Erfjordtjørna" />
		<tag k="natural" v="water" />
		<tag k="ssr:stedsnr" v="245537" />
	</node>
	<node id="-4762" lat="59.5275249989" lon="6.57255832765">
		<tag k="name" v="Stemvatnet" />
		<tag k="natural" v="water" />
		<tag k="ssr:stedsnr" v="970065" />
		<tag k="water" v="lake" />
	</node>
	<node id="-2712" lat="59.3772500025" lon="6.10827500206">
		<tag k="name" v="Leitetjørna" />
		<tag k="natural" v="water" />
		<tag k="ssr:stedsnr" v="245441" />
	</node>
	<node id="-4758" lat="59.5160638865" lon="6.35769722466">
		<tag k="name" v="Teigåno" />
		<tag k="ssr:stedsnr" v="970109" />
		<tag k="waterway" v="river" />
	</node>
	<node id="-2709" lat="59.3849999977" lon="6.19189999711">
		<tag k="alt_name" v="Breiviktjørna" />
		<tag k="name" v="Breidviktjørna" />
		<tag k="natural" v="water" />
		<tag k="ssr:stedsnr" v="245430" />
	</node>
	<node id="-4756" lat="59.7039194439" lon="6.87771388535">
		<tag k="name" v="Stutatjørna" />
		<tag k="natural" v="water" />
		<tag k="ssr:stedsnr" v="970016" />
	</node>
	<node id="-2705" lat="59.4189385553" lon="5.98565871182">
		<tag k="name" v="Krokavatnet" />
		<tag k="natural" v="water" />
		<tag k="ssr:stedsnr" v="245350" />
		<tag k="water" v="lake" />
	</node>
	<node id="-4750" lat="59.5878361099" lon="6.66208888655">
		<tag k="name" v="Slumpetjørn" />
		<tag k="natural" v="water" />
		<tag k="ssr:stedsnr" v="969455" />
	</node>
	<node id="-4748" lat="59.4316444431" lon="6.5878083409">
		<tag k="name" v="Turineset" />
		<tag k="natural" v="cape" />
		<tag k="ssr:stedsnr" v="969078" />
	</node>
	<node id="-4746" lat="59.5495194482" lon="6.59118611503">
		<tag k="name" v="Dalakleivtjørn" />
		<tag k="natural" v="water" />
		<tag k="ssr:stedsnr" v="969061" />
	</node>
	<node id="-5682" lat="59.4556222196" lon="6.39824166614">
		<tag k="name" v="Duøy" />
		<tag k="place" v="island" />
		<tag k="ssr:stedsnr" v="302269" />
	</node>
	<node id="-2688" lat="59.4266833336" lon="6.63592500849">
		<tag k="name" v="Grunnavatnet" />
		<tag k="natural" v="water" />
		<tag k="ssr:stedsnr" v="245030" />
	</node>
	<node id="-2686" lat="59.4828194412" lon="6.47614166475">
		<tag k="name" v="Torkjelhøl" />
		<tag k="place" v="locality" />
		<tag k="ssr:stedsnr" v="242999" />
	</node>
	<node id="-4733" lat="59.4268416707" lon="6.09691388728">
		<tag k="name" v="Litlatjørn" />
		<tag k="natural" v="water" />
		<tag k="ssr:stedsnr" v="965156" />
	</node>
	<node id="-4729" lat="59.4164055541" lon="6.01868610776">
		<tag k="name" v="Stemmen" />
		<tag k="ssr:stedsnr" v="964773" />
		<tag k="waterway" v="dam" />
	</node>
	<node id="-2680" lat="59.4719805563" lon="6.34496666627">
		<tag k="name" v="Kvednabekken" />
		<tag k="ssr:stedsnr" v="242899" />
		<tag k="waterway" v="stream" />
	</node>
	<node id="-2836" lat="59.5454527767" lon="6.59274999379">
		<tag k="name" v="Vasstølvatnet" />
		<tag k="natural" v="water" />
		<tag k="ssr:stedsnr" v="181058" />
		<tag k="water" v="lake" />
	</node>
	<node id="-4883" lat="59.5794805572" lon="6.53127778065">
		<tag k="name" v="Tvitjørnene" />
		<tag k="natural" v="water" />
		<tag k="ssr:stedsnr" v="3864" />
		<tag k="water" v="lake" />
	</node>
	<node id="-2672" lat="59.4887722218" lon="6.64343889282">
		<tag k="name" v="Kadlestølbekken" />
		<tag k="ssr:stedsnr" v="242796" />
		<tag k="waterway" v="stream" />
	</node>
	<node id="-2671" lat="59.6492305536" lon="6.75264445179">
		<tag k="name" v="Nutavatnet" />
		<tag k="natural" v="water" />
		<tag k="ssr:stedsnr" v="242687" />
		<tag k="water" v="lake" />
	</node>
	<node id="-2668" lat="59.5694305554" lon="6.71099444852">
		<tag k="name" v="Krokete Bekkjen" />
		<tag k="ssr:stedsnr" v="242567" />
		<tag k="waterway" v="stream" />
	</node>
	<node id="-2665" lat="59.3901111104" lon="6.41298889697">
		<tag k="name" v="Stemtjørn" />
		<tag k="natural" v="water" />
		<tag k="ssr:stedsnr" v="242296" />
	</node>
	<node id="-2662" lat="59.4071555596" lon="6.42664999686">
		<tag k="name" v="Snikjenes" />
		<tag k="natural" v="cape" />
		<tag k="ssr:stedsnr" v="242341" />
	</node>
	<node id="-2658" lat="59.464205555" lon="6.41429999641">
		<tag k="name" v="Moshølen" />
		<tag k="place" v="locality" />
		<tag k="ssr:stedsnr" v="242211" />
	</node>
	<node id="-4702" lat="59.6248534684" lon="6.72351576074">
		<tag k="name" v="Vasstølvatnet" />
		<tag k="natural" v="water" />
		<tag k="ssr:stedsnr" v="931910" />
		<tag k="water" v="lake" />
	</node>
	<node id="-4700" lat="59.6045861139" lon="6.69719166435">
		<tag k="name" v="Rykefossen" />
		<tag k="natural" v="waterfall" />
		<tag k="ssr:stedsnr" v="931903" />
	</node>
	<node id="-4698" lat="59.6909250025" lon="7.00161665822">
		<tag k="name" v="Viremyr" />
		<tag k="ssr:stedsnr" v="913459" />
		<tag k="waterway" v="stream" />
	</node>
	<node id="-4694" lat="59.4145805584" lon="6.63031666871">
		<tag k="name" v="Botnavatnet" />
		<tag k="natural" v="water" />
		<tag k="ssr:stedsnr" v="912206" />
		<tag k="water" v="lake" />
	</node>
	<node id="-4693" lat="59.5702999971" lon="6.47261944724">
		<tag k="name" v="Knubbabekken" />
		<tag k="ssr:stedsnr" v="910310" />
		<tag k="waterway" v="stream" />
	</node>
	<node id="-2644" lat="59.6678111138" lon="6.75404166198">
		<tag k="name" v="Åsheimbekken" />
		<tag k="ssr:stedsnr" v="64030" />
		<tag k="waterway" v="stream" />
	</node>
	<node id="-4691" lat="59.616594445" lon="6.68700555638">
		<tag k="name" v="Svartavatnet" />
		<tag k="natural" v="water" />
		<tag k="ssr:stedsnr" v="910444" />
		<tag k="water" v="lake" />
	</node>
	<node id="-4194" lat="59.586549999" lon="6.81594166429">
		<tag k="name" v="Kokebekken" />
		<tag k="ssr:stedsnr" v="727578" />
		<tag k="waterway" v="stream" />
	</node>
	<node id="-2633" lat="59.3954333307" lon="6.51218332772">
		<tag k="name" v="Heiabekken" />
		<tag k="ssr:stedsnr" v="63837" />
		<tag k="waterway" v="stream" />
	</node>
	<node id="-2632" lat="59.3728166638" lon="6.49931666536">
		<tag k="name" v="Krokabekken" />
		<tag k="ssr:stedsnr" v="63821" />
		<tag k="waterway" v="stream" />
	</node>
	<node id="-2625" lat="59.508352775" lon="6.5807416745">
		<tag k="name" v="Skumpanes" />
		<tag k="natural" v="cape" />
		<tag k="ssr:stedsnr" v="60766" />
	</node>
	<node id="-2624" lat="59.5056888929" lon="6.57174167179">
		<tag k="name" v="Bjørkenes" />
		<tag k="natural" v="cape" />
		<tag k="ssr:stedsnr" v="60761" />
	</node>
	<node id="-2619" lat="59.5043361109" lon="6.28344444057">
		<tag k="name" v="Eidstølsbekken" />
		<tag k="ssr:stedsnr" v="239116" />
		<tag k="waterway" v="river" />
	</node>
	<node id="-4666" lat="59.4376398413" lon="6.110305785">
		<tag k="name" v="Tritjørnene" />
		<tag k="natural" v="water" />
		<tag k="ssr:stedsnr" v="904122" />
		<tag k="water" v="lake" />
	</node>
	<node id="-4664" lat="59.4344833335" lon="6.12913889716">
		<tag k="name" v="Svartatjørna" />
		<tag k="natural" v="water" />
		<tag k="ssr:stedsnr" v="904106" />
	</node>
	<node id="-4659" lat="59.4397611129" lon="6.61281110374">
		<tag k="name" v="Kjellarbudammen" />
		<tag k="ssr:stedsnr" v="873518" />
		<tag k="waterway" v="dam" />
	</node>
	<node id="-4657" lat="59.5674861073" lon="6.82845833611">
		<tag k="name" v="Mosstronda" />
		<tag k="natural" v="beach" />
		<tag k="ssr:stedsnr" v="870873" />
	</node>
	<node id="-4653" lat="59.5530750026" lon="6.22483611557">
		<tag k="name" v="Stølsvatnet" />
		<tag k="natural" v="water" />
		<tag k="ssr:stedsnr" v="853854" />
	</node>
	<node id="-2604" lat="59.3656472263" lon="6.35833610258">
		<tag k="name" v="Søretjønnbotn" />
		<tag k="natural" v="water" />
		<tag k="ssr:stedsnr" v="54874" />
	</node>
	<node id="-4645" lat="59.7145583374" lon="7.00886666373">
		<tag k="name" v="Kvanndalsåna" />
		<tag k="ssr:stedsnr" v="853379" />
		<tag k="waterway" v="river" />
	</node>
	<node id="-4643" lat="59.6911638926" lon="6.86742778511">
		<tag k="name" v="Kvinaretjørna" />
		<tag k="natural" v="water" />
		<tag k="ssr:stedsnr" v="853161" />
	</node>
	<node id="-4640" lat="59.6129583376" lon="6.6756388892">
		<tag k="name" v="Hovdestøltjørna" />
		<tag k="natural" v="water" />
		<tag k="ssr:stedsnr" v="853079" />
	</node>
	<node id="-2589" lat="59.6159805589" lon="6.83011110256">
		<tag k="name" v="Lågabekktjørno" />
		<tag k="natural" v="water" />
		<tag k="ssr:stedsnr" v="237306" />
	</node>
	<node id="-4636" lat="59.3542111119" lon="6.27435555303">
		<tag k="alt_name" v="Liarstøltjørna" />
		<tag k="name" v="Liastøltjørna" />
		<tag k="natural" v="water" />
		<tag k="ssr:stedsnr" v="852904" />
	</node>
	<node id="-2584" lat="59.6523138897" lon="6.91192777123">
		<tag k="name" v="Tongjen" />
		<tag k="natural" v="cape" />
		<tag k="ssr:stedsnr" v="237056" />
	</node>
	<node id="-4627" lat="59.3761805538" lon="6.5410944452">
		<tag k="alt_name" v="Skabekk" />
		<tag k="name" v="Skadbekken" />
		<tag k="ssr:stedsnr" v="852811" />
		<tag k="waterway" v="stream" />
	</node>
	<node id="-2572" lat="59.3871999992" lon="6.17812777778">
		<tag k="name" v="Øreneset" />
		<tag k="natural" v="cape" />
		<tag k="ssr:stedsnr" v="236493" />
	</node>
	<node id="-4619" lat="59.4214777764" lon="6.51915555552">
		<tag k="alt_name" v="Reinsskårtjørn;Reinsskårtjørna" />
		<tag k="name" v="Reinsskortjørna" />
		<tag k="natural" v="water" />
		<tag k="ssr:stedsnr" v="852720" />
	</node>
	<node id="-2609" lat="59.3971666693" lon="6.3503666648">
		<tag k="name" v="Sveiatjørna" />
		<tag k="natural" v="water" />
		<tag k="ssr:stedsnr" v="55377" />
	</node>
	<node id="-4617" lat="59.4681749996" lon="6.35725000349">
		<tag k="alt_name" v="Uradalstjørna" />
		<tag k="name" v="Urdadalstjørna" />
		<tag k="natural" v="water" />
		<tag k="ssr:stedsnr" v="852711" />
	</node>
	<node id="-4615" lat="59.3285500015" lon="6.13772499513">
		<tag k="name" v="Landsnestjørna" />
		<tag k="natural" v="water" />
		<tag k="ssr:stedsnr" v="852513" />
	</node>
	<node id="-2556" lat="59.4355500041" lon="6.12904999499">
		<tag k="name" v="Bøatjørna" />
		<tag k="natural" v="water" />
		<tag k="ssr:stedsnr" v="236100" />
	</node>
	<node id="-2555" lat="59.4413277812" lon="6.05292500276">
		<tag k="name" v="Bratlandstjørna" />
		<tag k="natural" v="water" />
		<tag k="ssr:stedsnr" v="236084" />
	</node>
	<node id="-4602" lat="59.3864000034" lon="5.96534999787">
		<tag k="name" v="Askvikstemmen" />
		<tag k="natural" v="water" />
		<tag k="ssr:stedsnr" v="852407" />
		<tag k="water" v="lake" />
	</node>
	<node id="-4595" lat="59.4009510557" lon="6.59376259401">
		<tag k="name" v="Hestvatna" />
		<tag k="natural" v="water" />
		<tag k="ssr:stedsnr" v="852219" />
	</node>
	<node id="-2541" lat="59.5437750017" lon="6.46721111458">
		<tag k="name" v="Sabakkeelva" />
		<tag k="ssr:stedsnr" v="223631" />
		<tag k="waterway" v="river" />
	</node>
	<node id="-4587" lat="59.4836388885" lon="6.61013333551">
		<tag k="name" v="Småbekkane" />
		<tag k="ssr:stedsnr" v="848812" />
		<tag k="waterway" v="stream" />
	</node>
	<node id="-2529" lat="59.3666526677" lon="6.50351579458">
		<tag k="name" v="Krokavatnet" />
		<tag k="natural" v="water" />
		<tag k="ssr:stedsnr" v="2918" />
		<tag k="water" v="lake" />
	</node>
	<node id="-4574" lat="59.4940611156" lon="6.71051666341">
		<tag k="name" v="Krossbekkene" />
		<tag k="ssr:stedsnr" v="842018" />
		<tag k="waterway" v="stream" />
	</node>
	<node id="-4570" lat="59.5990150624" lon="6.65690482525">
		<tag k="name" v="Lalitjørnene" />
		<tag k="natural" v="water" />
		<tag k="ssr:stedsnr" v="931902" />
		<tag k="water" v="lake" />
	</node>
	<node id="-4569" lat="59.5452666712" lon="6.9258833347">
		<tag k="name" v="Salttjørn" />
		<tag k="natural" v="water" />
		<tag k="ssr:stedsnr" v="931893" />
	</node>
	<node id="-4567" lat="59.5774916642" lon="6.86466389688">
		<tag k="name" v="Gaukstølåa" />
		<tag k="ssr:stedsnr" v="931888" />
		<tag k="waterway" v="river" />
	</node>
	<node id="-4566" lat="59.5174583341" lon="6.60579999529">
		<tag k="name" v="Halvfjordevika" />
		<tag k="natural" v="bay" />
		<tag k="ssr:stedsnr" v="931945" />
	</node>
	<node id="-4565" lat="59.4461184569" lon="6.61224685407">
		<tag k="name" v="Veratjørna" />
		<tag k="natural" v="water" />
		<tag k="ssr:stedsnr" v="931218" />
	</node>
	<node id="-3150" lat="59.4872583375" lon="6.48926944267">
		<tag k="name" v="Presthølen" />
		<tag k="place" v="locality" />
		<tag k="ssr:stedsnr" v="484957" />
	</node>
	<node id="-3832" lat="59.3893361103" lon="5.99381110664">
		<tag k="name" v="Storebekk" />
		<tag k="ssr:stedsnr" v="600763" />
		<tag k="waterway" v="stream" />
	</node>
	<node id="-4557" lat="59.5878055533" lon="6.48063610296">
		<tag k="fixme" v="multiple name tags, choose one and add the other to alt_name" />
		<tag k="name" v="Indra Vatnet;Stølsvatnet" />
		<tag k="natural" v="water" />
		<tag k="ssr:stedsnr" v="792806" />
		<tag k="water" v="lake" />
	</node>
	<node id="-4554" lat="59.6888999961" lon="6.96420833983">
		<tag k="name" v="Flesåa" />
		<tag k="ssr:stedsnr" v="792209" />
		<tag k="waterway" v="stream" />
	</node>
	<node id="-3084" lat="59.4370861103" lon="6.135991667">
		<tag k="name" v="Heiafoss" />
		<tag k="natural" v="waterfall" />
		<tag k="ssr:stedsnr" v="479131" />
	</node>
	<node id="-4542" lat="59.40385278" lon="6.34136388243">
		<tag k="name" v="Budalsåna" />
		<tag k="ssr:stedsnr" v="791762" />
		<tag k="waterway" v="stream" />
	</node>
	<node id="-2805" lat="59.7216163972" lon="7.09267610215">
		<tag k="name" v="Djupetjørnane" />
		<tag k="natural" v="water" />
		<tag k="old_name" v="Øvra Djupetjørn;Nedra Djupetjørn" />
		<tag k="ssr:stedsnr" v="124332" />
		<tag k="water" v="lake" />
	</node>
	<node id="-4534" lat="59.3747583361" lon="6.44093333578">
		<tag k="name" v="Fjellbergsåna" />
		<tag k="ssr:stedsnr" v="791826" />
		<tag k="waterway" v="stream" />
	</node>
	<node id="-4652" lat="59.587555553" lon="6.52834999386">
		<tag k="name" v="Holmastølsbekken" />
		<tag k="ssr:stedsnr" v="853824" />
		<tag k="waterway" v="stream" />
	</node>
	<node id="-4525" lat="59.3901583309" lon="6.18110555451">
		<tag k="name" v="Lovravatnet" />
		<tag k="natural" v="water" />
		<tag k="ssr:stedsnr" v="791404" />
		<tag k="water" v="lake" />
	</node>
	<node id="-4167" lat="59.4774944436" lon="6.69009723051">
		<tag k="name" v="Grunnavassfossen" />
		<tag k="natural" v="waterfall" />
		<tag k="ssr:stedsnr" v="720018" />
	</node>
	<node id="-4513" lat="59.4686944435" lon="6.46912777736">
		<tag k="name" v="Middagsfossen" />
		<tag k="natural" v="waterfall" />
		<tag k="ssr:stedsnr" v="788978" />
	</node>
	<node id="-4510" lat="59.5515333309" lon="6.66906666539">
		<tag k="name" v="Rosakakkjen" />
		<tag k="natural" v="cape" />
		<tag k="ssr:stedsnr" v="788584" />
	</node>
	<node id="-4508" lat="59.5931694488" lon="6.72716944521">
		<tag k="name" v="Havnaflåto" />
		<tag k="natural" v="bay" />
		<tag k="ssr:stedsnr" v="788605" />
	</node>
	<node id="-4505" lat="59.4399194417" lon="6.44840000305">
		<tag k="name" v="Onglanutvatnet" />
		<tag k="natural" v="water" />
		<tag k="ssr:stedsnr" v="788016" />
		<tag k="water" v="lake" />
	</node>
	<node id="-4502" lat="59.576980554" lon="6.79279721519">
		<tag k="name" v="Trodledalstjørna" />
		<tag k="natural" v="water" />
		<tag k="ssr:stedsnr" v="787586" />
	</node>
	<node id="-4499" lat="59.589263892" lon="6.88175555687">
		<tag k="name" v="Tyskåno" />
		<tag k="ssr:stedsnr" v="787573" />
		<tag k="waterway" v="stream" />
	</node>
	<node id="-4498" lat="59.5691027759" lon="6.80830833057">
		<tag k="name" v="Botnabekken" />
		<tag k="ssr:stedsnr" v="787564" />
		<tag k="waterway" v="stream" />
	</node>
	<node id="-4497" lat="59.5879416702" lon="6.91236110755">
		<tag k="name" v="Sundet" />
		<tag k="natural" v="strait" />
		<tag k="ssr:stedsnr" v="787557" />
	</node>
	<node id="-4489" lat="59.5269305585" lon="6.6118027697">
		<tag k="name" v="Midtfjordeholmen" />
		<tag k="place" v="islet" />
		<tag k="ssr:stedsnr" v="914428" />
	</node>
	<node id="-6535" lat="59.3689388853" lon="6.74764721689">
		<tag k="name" v="Førrevassdammen" />
		<tag k="ssr:stedsnr" v="569720" />
		<tag k="waterway" v="dam" />
	</node>
	<node id="-4485" lat="59.6807833366" lon="6.75049167263">
		<tag k="name" v="Gjelå" />
		<tag k="ssr:stedsnr" v="914230" />
		<tag k="waterway" v="stream" />
	</node>
	<node id="-6530" lat="59.4500916681" lon="6.88213611228">
		<tag k="name" v="Skorpevadhølen" />
		<tag k="natural" v="water" />
		<tag k="ssr:stedsnr" v="566039" />
		<tag k="water" v="pond" />
	</node>
	<node id="-4481" lat="59.5451637223" lon="6.24069839239">
		<tag k="name" v="Åsvatnet" />
		<tag k="natural" v="water" />
		<tag k="ssr:stedsnr" v="914167" />
		<tag k="water" v="lake" />
	</node>
	<node id="-6527" lat="59.765925" lon="7.009327773">
		<tag k="name" v="Djupetjørn" />
		<tag k="natural" v="water" />
		<tag k="ssr:stedsnr" v="549925" />
	</node>
	<node id="-4478" lat="59.5899000001" lon="6.57075000797">
		<tag k="alt_name" v="Tverråno" />
		<tag k="name" v="Tverråna" />
		<tag k="ssr:stedsnr" v="914115" />
		<tag k="waterway" v="river" />
	</node>
	<node id="-6525" lat="59.5287187443" lon="6.20819298858">
		<tag k="alt_name" v="Tysselandsvatnet" />
		<tag k="name" v="Kallakhølen" />
		<tag k="natural" v="water" />
		<tag k="ssr:stedsnr" v="549883" />
		<tag k="water" v="lake" />
	</node>
	<node id="-6524" lat="59.5198194414" lon="6.20322499496">
		<tag k="name" v="Tysselandselva" />
		<tag k="ssr:stedsnr" v="549871" />
		<tag k="waterway" v="stream" />
	</node>
	<node id="-6517" lat="59.5554916676" lon="6.18151666208">
		<tag k="name" v="Søtestølsvatnet" />
		<tag k="natural" v="water" />
		<tag k="ssr:stedsnr" v="549588" />
		<tag k="water" v="lake" />
	</node>
	<node id="-6516" lat="59.5590527814" lon="6.21013055903">
		<tag k="name" v="Borgabuvatnet" />
		<tag k="natural" v="water" />
		<tag k="ssr:stedsnr" v="549587" />
		<tag k="water" v="lake" />
	</node>
	<node id="-6515" lat="59.5686000011" lon="6.20013611709">
		<tag k="alt_name" v="Revavatnet, in" />
		<tag k="name" v="Indre Revavatnet" />
		<tag k="natural" v="water" />
		<tag k="ssr:stedsnr" v="549571" />
		<tag k="water" v="lake" />
	</node>
	<node id="-4466" lat="59.4166611091" lon="6.57356945146">
		<tag k="alt_name" v="Longaneset" />
		<tag k="name" v="Langanes" />
		<tag k="natural" v="cape" />
		<tag k="ssr:stedsnr" v="913736" />
	</node>
	<node id="-6510" lat="59.5092955867" lon="6.85474660311">
		<tag k="name" v="Svartavatnet" />
		<tag k="natural" v="water" />
		<tag k="ssr:stedsnr" v="549393" />
		<tag k="water" v="lake" />
	</node>
	<node id="-4460" lat="59.4435916663" lon="6.46286666721">
		<tag k="alt_name" v="Skutevatnet" />
		<tag k="name" v="Skutevatna" />
		<tag k="natural" v="water" />
		<tag k="ssr:stedsnr" v="913671" />
	</node>
	<node id="-4459" lat="59.4346305519" lon="6.32621389774">
		<tag k="name" v="Goplegrødbekken" />
		<tag k="ssr:stedsnr" v="913661" />
		<tag k="waterway" v="stream" />
	</node>
	<node id="-4458" lat="59.4308250007" lon="6.39799166553">
		<tag k="alt_name" v="Nutatjørn" />
		<tag k="name" v="Nutatjørna" />
		<tag k="natural" v="water" />
		<tag k="ssr:stedsnr" v="913659" />
	</node>
	<node id="-4456" lat="59.4895499967" lon="6.42768888039">
		<tag k="alt_name" v="Steinsåno" />
		<tag k="name" v="Steinsåna" />
		<tag k="ssr:stedsnr" v="913618" />
		<tag k="waterway" v="stream" />
	</node>
	<node id="-4455" lat="59.5791250013" lon="6.21137499466">
		<tag k="alt_name" v="Kvannegrøvatnet" />
		<tag k="name" v="Kvannegrødvatnet" />
		<tag k="natural" v="water" />
		<tag k="ssr:stedsnr" v="913557" />
		<tag k="water" v="lake" />
	</node>
	<node id="-6500" lat="59.5379805547" lon="6.25500834068">
		<tag k="name" v="Åselva" />
		<tag k="ssr:stedsnr" v="549161" />
		<tag k="waterway" v="river" />
	</node>
	<node id="-4838" lat="59.6503083347" lon="6.9144999922">
		<tag k="name" v="Bleskestadåa" />
		<tag k="ssr:stedsnr" v="3019" />
		<tag k="waterway" v="river" />
	</node>
	<node id="-4444" lat="59.5169750019" lon="6.76766944123">
		<tag k="name" v="Botnavatnet" />
		<tag k="natural" v="water" />
		<tag k="ssr:stedsnr" v="913399" />
		<tag k="water" v="lake" />
	</node>
	<node id="-6491" lat="59.5456111133" lon="6.64259443651">
		<tag k="name" v="Kvernabekken" />
		<tag k="ssr:stedsnr" v="549092" />
		<tag k="waterway" v="stream" />
	</node>
	<node id="-4990" lat="59.6085111083" lon="6.58113055244">
		<tag k="name" v="Molteneset" />
		<tag k="natural" v="cape" />
		<tag k="ssr:stedsnr" v="60079" />
	</node>
	<node id="-4440" lat="59.452300002" lon="6.14152499703">
		<tag k="name" v="Stølavatnet" />
		<tag k="natural" v="water" />
		<tag k="ssr:stedsnr" v="913318" />
		<tag k="water" v="lake" />
	</node>
	<node id="-6487" lat="59.6689289705" lon="6.79223441075">
		<tag k="name" v="Anfinnstjørna" />
		<tag k="natural" v="water" />
		<tag k="ssr:stedsnr" v="549056" />
	</node>
	<node id="-6477" lat="59.3980055543" lon="6.482713884">
		<tag k="name" v="Leitestjørna" />
		<tag k="natural" v="water" />
		<tag k="ssr:stedsnr" v="548842" />
	</node>
	<node id="-6476" lat="59.3707388903" lon="6.33761945261">
		<tag k="name" v="Ongelstjørna" />
		<tag k="natural" v="water" />
		<tag k="ssr:stedsnr" v="548817" />
	</node>
	<node id="-4426" lat="59.5808371623" lon="6.6261348117">
		<tag k="name" v="Vormetjørn" />
		<tag k="natural" v="water" />
		<tag k="ssr:stedsnr" v="913121" />
	</node>
	<node id="-6471" lat="59.4399861124" lon="6.30266388925">
		<tag k="name" v="Hellestølsbekken" />
		<tag k="ssr:stedsnr" v="548697" />
		<tag k="waterway" v="stream" />
	</node>
	<node id="-4422" lat="59.5507555521" lon="6.71694999756">
		<tag k="name" v="Langatjørna" />
		<tag k="natural" v="water" />
		<tag k="ssr:stedsnr" v="913089" />
	</node>
	<node id="-4419" lat="59.4579583298" lon="6.63052778193">
		<tag k="name" v="Stølstjørna" />
		<tag k="natural" v="water" />
		<tag k="ssr:stedsnr" v="913056" />
	</node>
	<node id="-6466" lat="59.4983249967" lon="6.40058611061">
		<tag k="name" v="Markosvatnet" />
		<tag k="natural" v="water" />
		<tag k="ssr:stedsnr" v="548675" />
	</node>
	<node id="-3467" lat="59.5730555544" lon="6.80674166998">
		<tag k="name" v="Moskarbekken" />
		<tag k="ssr:stedsnr" v="666552" />
		<tag k="waterway" v="stream" />
	</node>
	<node id="-5671" lat="59.6210000023" lon="6.77731943705">
		<tag k="name" v="Lauvvik" />
		<tag k="natural" v="bay" />
		<tag k="ssr:stedsnr" v="203903" />
	</node>
	<node id="-4411" lat="59.3330388848" lon="6.32098056184">
		<tag k="alt_name" v="Nordalsvatnet" />
		<tag k="name" v="Norddalsvatnet" />
		<tag k="natural" v="water" />
		<tag k="ssr:stedsnr" v="912903" />
		<tag k="water" v="lake" />
	</node>
	<node id="-2783" lat="59.3914583375" lon="6.18518888943">
		<tag k="name" v="Jupevik" />
		<tag k="natural" v="bay" />
		<tag k="ssr:stedsnr" v="115505" />
	</node>
	<node id="-4407" lat="59.3764750015" lon="6.33195834003">
		<tag k="name" v="Skoråna" />
		<tag k="ssr:stedsnr" v="912876" />
		<tag k="waterway" v="stream" />
	</node>
	<node id="-4405" lat="59.4142280943" lon="6.29015500695">
		<tag k="name" v="Steinsvatnet" />
		<tag k="natural" v="water" />
		<tag k="ssr:stedsnr" v="912811" />
		<tag k="water" v="lake" />
	</node>
	<node id="-4402" lat="59.4228499988" lon="6.26136388526">
		<tag k="name" v="Vasstølvatnet" />
		<tag k="natural" v="water" />
		<tag k="ssr:stedsnr" v="912798" />
		<tag k="water" v="lake" />
	</node>
	<node id="-4401" lat="59.4380249977" lon="6.53473611521">
		<tag k="alt_name" v="Djupadalstjørnene" />
		<tag k="name" v="Djupadalstjørna" />
		<tag k="natural" v="water" />
		<tag k="ssr:stedsnr" v="912791" />
	</node>
	<node id="-3761" lat="59.6386444443" lon="7.0400666632">
		<tag k="name" v="Reinskvelvtjørna" />
		<tag k="natural" v="water" />
		<tag k="ssr:stedsnr" v="692323" />
	</node>
	<node id="-6440" lat="59.4270166686" lon="6.73319167263">
		<tag k="name" v="Veratjørna" />
		<tag k="natural" v="water" />
		<tag k="ssr:stedsnr" v="548218" />
	</node>
	<node id="-4389" lat="59.3558250008" lon="6.16212500479">
		<tag k="name" v="Økstravatnet" />
		<tag k="natural" v="water" />
		<tag k="ssr:stedsnr" v="912513" />
		<tag k="water" v="lake" />
	</node>
	<node id="-6433" lat="59.4343638865" lon="6.91421111635">
		<tag k="name" v="Pøyleåa" />
		<tag k="ssr:stedsnr" v="548038" />
		<tag k="waterway" v="river" />
	</node>
	<node id="-6431" lat="59.4721861103" lon="6.47693333663">
		<tag k="name" v="Storlifossen" />
		<tag k="natural" v="waterfall" />
		<tag k="ssr:stedsnr" v="545992" />
	</node>
	<node id="-4381" lat="59.3773805599" lon="6.80662777693">
		<tag k="name" v="Urdanutvatnet" />
		<tag k="natural" v="water" />
		<tag k="ssr:stedsnr" v="912194" />
		<tag k="water" v="lake" />
	</node>
	<node id="-4380" lat="59.3947089435" lon="6.64629057044">
		<tag k="name" v="Pråmvikvatnet" />
		<tag k="natural" v="water" />
		<tag k="ssr:stedsnr" v="912188" />
		<tag k="water" v="lake" />
	</node>
	<node id="-6426" lat="59.4798388927" lon="6.45132222312">
		<tag k="name" v="Devikshølen" />
		<tag k="place" v="locality" />
		<tag k="ssr:stedsnr" v="545964" />
	</node>
	<node id="-6425" lat="59.4795749987" lon="6.44837500868">
		<tag k="name" v="Tjøstheimsneset" />
		<tag k="natural" v="cape" />
		<tag k="ssr:stedsnr" v="545962" />
	</node>
	<node id="-6424" lat="59.6803777792" lon="6.75641944831">
		<tag k="name" v="Neset" />
		<tag k="natural" v="cape" />
		<tag k="ssr:stedsnr" v="545940" />
	</node>
	<node id="-6423" lat="59.5014444464" lon="6.42516388687">
		<tag k="name" v="Isdalstjørna" />
		<tag k="natural" v="water" />
		<tag k="ssr:stedsnr" v="545908" />
	</node>
	<node id="-6421" lat="59.4776055531" lon="6.3797555609">
		<tag k="name" v="Lomatjørn" />
		<tag k="natural" v="water" />
		<tag k="ssr:stedsnr" v="545882" />
	</node>
	<node id="-4370" lat="59.561144443" lon="6.68222778156">
		<tag k="name" v="Steinsvika" />
		<tag k="natural" v="bay" />
		<tag k="ssr:stedsnr" v="910601" />
	</node>
	<node id="-6417" lat="59.5063555597" lon="6.58199722178">
		<tag k="name" v="Kvednavika" />
		<tag k="natural" v="bay" />
		<tag k="ssr:stedsnr" v="545730" />
	</node>
	<node id="-6416" lat="59.5026583293" lon="6.56344166534">
		<tag k="name" v="Tårenes" />
		<tag k="natural" v="cape" />
		<tag k="ssr:stedsnr" v="545727" />
	</node>
	<node id="-4367" lat="59.6149444464" lon="6.68508055448">
		<tag k="name" v="Rundehølen" />
		<tag k="place" v="locality" />
		<tag k="ssr:stedsnr" v="910500" />
	</node>
	<node id="-4366" lat="59.5978916688" lon="6.7135972226">
		<tag k="name" v="Bastatjørna" />
		<tag k="natural" v="water" />
		<tag k="ssr:stedsnr" v="910498" />
	</node>
	<node id="-4364" lat="59.6155250035" lon="6.77455833444">
		<tag k="name" v="Ospehaugen" />
		<tag k="natural" v="cape" />
		<tag k="ssr:stedsnr" v="910487" />
	</node>
	<node id="-4357" lat="59.5045111116" lon="6.49039167306">
		<tag k="name" v="Bjønnskårbekken" />
		<tag k="ssr:stedsnr" v="909964" />
		<tag k="waterway" v="stream" />
	</node>
	<node id="-4354" lat="59.4977972257" lon="6.41515556309">
		<tag k="name" v="Lomatjørna" />
		<tag k="natural" v="water" />
		<tag k="ssr:stedsnr" v="909927" />
	</node>
	<node id="-6401" lat="59.6343694472" lon="6.78615556195">
		<tag k="name" v="Låvavika" />
		<tag k="natural" v="bay" />
		<tag k="ssr:stedsnr" v="545454" />
	</node>
	<node id="-6399" lat="59.5846666272" lon="6.59581770816">
		<tag k="name" v="Svarta Tjødnedn" />
		<tag k="natural" v="water" />
		<tag k="ssr:stedsnr" v="545441" />
	</node>
	<node id="-4350" lat="59.4989083309" lon="6.69441389229">
		<tag k="name" v="Lauvastølstrondo" />
		<tag k="natural" v="beach" />
		<tag k="ssr:stedsnr" v="909838" />
	</node>
	<node id="-6397" lat="59.6044027809" lon="6.62316666772">
		<tag k="name" v="Snøvatnet" />
		<tag k="natural" v="water" />
		<tag k="ssr:stedsnr" v="545431" />
	</node>
	<node id="-6395" lat="59.5992388854" lon="6.64162499207">
		<tag k="name" v="Rukjen" />
		<tag k="ssr:stedsnr" v="545429" />
		<tag k="waterway" v="stream" />
	</node>
	<node id="-4346" lat="59.5840888911" lon="6.82026388458">
		<tag k="name" v="Tverråno" />
		<tag k="ssr:stedsnr" v="909561" />
		<tag k="waterway" v="stream" />
	</node>
	<node id="-4345" lat="59.5851083302" lon="6.89921666584">
		<tag k="name" v="Ljosheiåno" />
		<tag k="ssr:stedsnr" v="909536" />
		<tag k="waterway" v="stream" />
	</node>
	<node id="-6392" lat="59.5863722258" lon="6.54861944658">
		<tag k="name" v="Bolarholmen" />
		<tag k="natural" v="cape" />
		<tag k="ssr:stedsnr" v="545424" />
	</node>
	<node id="-6390" lat="59.5831472197" lon="6.65650000122">
		<tag k="name" v="Lomtjørn" />
		<tag k="natural" v="water" />
		<tag k="ssr:stedsnr" v="545397" />
	</node>
	<node id="-4338" lat="59.4220611112" lon="6.40483889136">
		<tag k="name" v="Skorpeheitjørn" />
		<tag k="natural" v="water" />
		<tag k="ssr:stedsnr" v="909379" />
	</node>
	<node id="-4336" lat="59.5176111071" lon="6.63113611363">
		<tag k="name" v="Naustrabbane" />
		<tag k="natural" v="beach" />
		<tag k="ssr:stedsnr" v="909372" />
	</node>
	<node id="-4331" lat="59.4345999958" lon="6.36826945276">
		<tag k="name" v="Nøkjarevatnet" />
		<tag k="natural" v="water" />
		<tag k="ssr:stedsnr" v="909284" />
	</node>
	<node id="-4330" lat="59.4620638927" lon="6.4122749912">
		<tag k="name" v="Førlandsneset" />
		<tag k="natural" v="cape" />
		<tag k="ssr:stedsnr" v="909279" />
	</node>
	<node id="-6377" lat="59.3898694433" lon="6.48414999689">
		<tag k="name" v="Nebbtjørna" />
		<tag k="natural" v="water" />
		<tag k="ssr:stedsnr" v="545307" />
	</node>
	<node id="-6375" lat="59.5757555546" lon="6.49135555497">
		<tag k="name" v="Tengesdalselva" />
		<tag k="ssr:stedsnr" v="545295" />
		<tag k="waterway" v="river" />
	</node>
	<node id="-6371" lat="59.4599999997" lon="6.41241388131">
		<tag k="name" v="Viketeien" />
		<tag k="natural" v="cape" />
		<tag k="ssr:stedsnr" v="545228" />
	</node>
	<node id="-6370" lat="59.5197222226" lon="6.5916861036">
		<tag k="name" v="Ørevikneset" />
		<tag k="natural" v="cape" />
		<tag k="ssr:stedsnr" v="545215" />
	</node>
	<node id="-6368" lat="59.3795388886" lon="6.61075555628">
		<tag k="name" v="Hølaleitetjørna" />
		<tag k="natural" v="water" />
		<tag k="ssr:stedsnr" v="545167" />
	</node>
	<node id="-4133" lat="59.437825002" lon="6.39602777137">
		<tag k="name" v="Vassliholet" />
		<tag k="natural" v="water" />
		<tag k="ssr:stedsnr" v="666042" />
	</node>
	<node id="-6363" lat="59.4389472222" lon="6.54731944602">
		<tag k="name" v="Longavasstjørna" />
		<tag k="natural" v="water" />
		<tag k="ssr:stedsnr" v="545073" />
	</node>
	<node id="-4312" lat="59.42613333" lon="6.6082361182">
		<tag k="name" v="Vierevika" />
		<tag k="natural" v="bay" />
		<tag k="ssr:stedsnr" v="749074" />
	</node>
	<node id="-6353" lat="59.6016274556" lon="6.83354188136">
		<tag k="name" v="Løtjørn" />
		<tag k="natural" v="water" />
		<tag k="ssr:stedsnr" v="542269" />
	</node>
	<node id="-4303" lat="59.6320527782" lon="6.79217778278">
		<tag k="name" v="Tråsavika" />
		<tag k="natural" v="bay" />
		<tag k="ssr:stedsnr" v="906336" />
	</node>
	<node id="-4299" lat="59.5452638904" lon="6.23417499707">
		<tag k="name" v="Løkjen" />
		<tag k="natural" v="water" />
		<tag k="ssr:stedsnr" v="906123" />
	</node>
	<node id="-6346" lat="59.4026111095" lon="5.9919999963">
		<tag k="name" v="Selvikbekken" />
		<tag k="ssr:stedsnr" v="540793" />
		<tag k="waterway" v="stream" />
	</node>
	<node id="-4296" lat="59.5606472258" lon="6.18879167047">
		<tag k="name" v="Skiftestjørna" />
		<tag k="natural" v="water" />
		<tag k="ssr:stedsnr" v="904921" />
	</node>
	<node id="-4295" lat="59.3751222222" lon="6.31984999573">
		<tag k="name" v="Skiftesbekken" />
		<tag k="ssr:stedsnr" v="904893" />
		<tag k="waterway" v="stream" />
	</node>
	<node id="-4468" lat="59.5808472255" lon="6.4049944412">
		<tag k="name" v="Skitlivatnet" />
		<tag k="natural" v="water" />
		<tag k="ssr:stedsnr" v="913811" />
		<tag k="water" v="lake" />
	</node>
	<node id="-6325" lat="59.3635777799" lon="6.27302499403">
		<tag k="name" v="Brekkåna" />
		<tag k="ssr:stedsnr" v="540119" />
		<tag k="waterway" v="river" />
	</node>
	<node id="-4271" lat="59.440027776" lon="6.11086944719">
		<tag k="name" v="Markalitjørna" />
		<tag k="natural" v="water" />
		<tag k="ssr:stedsnr" v="904133" />
	</node>
	<node id="-6317" lat="59.6155194428" lon="6.79666666141">
		<tag k="name" v="Skiftesbekken" />
		<tag k="ssr:stedsnr" v="540307" />
		<tag k="waterway" v="stream" />
	</node>
	<node id="-4266" lat="59.3198666663" lon="6.29820556208">
		<tag k="name" v="Kjiljaelva" />
		<tag k="ssr:stedsnr" v="904298" />
		<tag k="waterway" v="river" />
	</node>
	<node id="-6312" lat="59.3353638886" lon="6.25464165981">
		<tag k="name" v="Åselva" />
		<tag k="ssr:stedsnr" v="540247" />
		<tag k="waterway" v="river" />
	</node>
	<node id="-2770" lat="59.3729777739" lon="6.25686667445">
		<tag k="name" v="Karidalstjørna" />
		<tag k="natural" v="water" />
		<tag k="ssr:stedsnr" v="115115" />
	</node>
	<node id="-4256" lat="59.4827555522" lon="6.31324166663">
		<tag k="name" v="Hanakamsvatnet" />
		<tag k="natural" v="water" />
		<tag k="ssr:stedsnr" v="731626" />
		<tag k="water" v="lake" />
	</node>
	<node id="-4253" lat="59.418114343" lon="6.39212138925">
		<tag k="fixme" v="multiple name tags, choose one and add the other to alt_name" />
		<tag k="name" v="Fantatjørna;Lundeskartjørna" />
		<tag k="natural" v="water" />
		<tag k="ssr:stedsnr" v="731734" />
	</node>
	<node id="-4249" lat="59.7256464783" lon="6.96691453931">
		<tag k="name" v="Bakkatjørna" />
		<tag k="natural" v="water" />
		<tag k="ssr:stedsnr" v="731351" />
	</node>
	<node id="-6291" lat="59.3911138912" lon="6.14616388167">
		<tag k="name" v="Åradalstjørna" />
		<tag k="natural" v="water" />
		<tag k="ssr:stedsnr" v="436565" />
	</node>
	<node id="-6290" lat="59.5916247711" lon="6.64089395578">
		<tag k="name" v="Svartavatnet" />
		<tag k="natural" v="water" />
		<tag k="ssr:stedsnr" v="429097" />
		<tag k="water" v="lake" />
	</node>
	<node id="-4241" lat="59.5021888881" lon="6.44468333054">
		<tag k="alt_name" v="Kroskartjørna" />
		<tag k="name" v="Kroskardtjørna" />
		<tag k="natural" v="water" />
		<tag k="ssr:stedsnr" v="731126" />
	</node>
	<node id="-6283" lat="59.5550862692" lon="6.20613289161">
		<tag k="name" v="Krokavatnet" />
		<tag k="natural" v="water" />
		<tag k="ssr:stedsnr" v="428571" />
		<tag k="water" v="lake" />
	</node>
	<node id="-6282" lat="59.5655722218" lon="6.1938361063">
		<tag k="alt_name" v="Revavatnet, yt" />
		<tag k="name" v="Ytre Revavatnet" />
		<tag k="natural" v="water" />
		<tag k="ssr:stedsnr" v="428548" />
		<tag k="water" v="lake" />
	</node>
	<node id="-4232" lat="59.3692653781" lon="6.35210267841">
		<tag k="alt_name" v="Noretjønnbotn" />
		<tag k="name" v="Nordtjørnbotnen" />
		<tag k="natural" v="water" />
		<tag k="ssr:stedsnr" v="730849" />
	</node>
	<node id="-4229" lat="59.4254496252" lon="6.39514020029">
		<tag k="fixme" v="multiple name tags, choose one and add the other to alt_name" />
		<tag k="name" v="Fantatjørn;Lundeskardtjørna" />
		<tag k="natural" v="water" />
		<tag k="ssr:stedsnr" v="730824" />
	</node>
	<node id="-6275" lat="59.6868527761" lon="6.7691499952">
		<tag k="name" v="Kalsabøåa" />
		<tag k="ssr:stedsnr" v="428188" />
		<tag k="waterway" v="stream" />
	</node>
	<node id="-6274" lat="59.6896583338" lon="6.8766194374">
		<tag k="name" v="Grjotdalsåa" />
		<tag k="ssr:stedsnr" v="428184" />
		<tag k="waterway" v="stream" />
	</node>
	<node id="-6273" lat="59.7020027774" lon="6.84848334099">
		<tag k="name" v="Vasstølsvatnet" />
		<tag k="natural" v="water" />
		<tag k="ssr:stedsnr" v="428173" />
		<tag k="water" v="lake" />
	</node>
	<node id="-6271" lat="59.6885638889" lon="6.69760555838">
		<tag k="name" v="Midtra Slettedalsvatnet" />
		<tag k="natural" v="water" />
		<tag k="ssr:stedsnr" v="428170" />
	</node>
	<node id="-6270" lat="59.6006166641" lon="6.69146666299">
		<tag k="name" v="Tverråa" />
		<tag k="ssr:stedsnr" v="428100" />
		<tag k="waterway" v="stream" />
	</node>
	<node id="-4217" lat="59.4597944446" lon="6.611991662">
		<tag k="name" v="Fardalstjørna" />
		<tag k="natural" v="water" />
		<tag k="ssr:stedsnr" v="730048" />
	</node>
	<node id="-4215" lat="59.7016138853" lon="6.99616389549">
		<tag k="name" v="Ungsmaleholmen" />
		<tag k="place" v="islet" />
		<tag k="ssr:stedsnr" v="728584" />
	</node>
	<node id="-6261" lat="59.3753750032" lon="6.55638055648">
		<tag k="name" v="Fagerdalsåna" />
		<tag k="ssr:stedsnr" v="427797" />
		<tag k="waterway" v="stream" />
	</node>
	<node id="-6259" lat="59.417075" lon="6.2301805474">
		<tag k="name" v="Ersdalstjørna" />
		<tag k="natural" v="water" />
		<tag k="ssr:stedsnr" v="427769" />
	</node>
	<node id="-6256" lat="59.4375333302" lon="6.58340000704">
		<tag k="alt_name" v="Valåno" />
		<tag k="name" v="Valåna" />
		<tag k="ssr:stedsnr" v="427754" />
		<tag k="waterway" v="stream" />
	</node>
	<node id="-4205" lat="59.6089666623" lon="6.90536667138">
		<tag k="name" v="Tjødnane" />
		<tag k="natural" v="water" />
		<tag k="ssr:stedsnr" v="728365" />
		<tag k="water" v="lake" />
	</node>
	<node id="-4114" lat="59.5739750008" lon="6.44156388958">
		<tag k="name" v="Svartavatnet" />
		<tag k="natural" v="water" />
		<tag k="ssr:stedsnr" v="661676" />
		<tag k="water" v="lake" />
	</node>
	<node id="-4200" lat="59.4676888852" lon="6.42646111524">
		<tag k="name" v="Bakkahølen" />
		<tag k="place" v="locality" />
		<tag k="ssr:stedsnr" v="727956" />
	</node>
	<node id="-4199" lat="59.5063305512" lon="6.55225555935">
		<tag k="name" v="Brustveitkilen" />
		<tag k="natural" v="bay" />
		<tag k="ssr:stedsnr" v="727764" />
	</node>
	<node id="-4196" lat="59.5845472209" lon="6.68479722254">
		<tag k="name" v="Mokleivtjørna" />
		<tag k="natural" v="water" />
		<tag k="ssr:stedsnr" v="727618" />
	</node>
	<node id="-4195" lat="59.5697555586" lon="6.70483056179">
		<tag k="name" v="Plasset" />
		<tag k="natural" v="cape" />
		<tag k="ssr:stedsnr" v="727607" />
	</node>
	<node id="-6242" lat="59.4507500021" lon="6.13347500433">
		<tag k="alt_name" v="Lyngrovatnet" />
		<tag k="name" v="Lyngravatnet" />
		<tag k="natural" v="water" />
		<tag k="ssr:stedsnr" v="427372" />
		<tag k="water" v="lake" />
	</node>
	<node id="-2747" lat="59.6944694417" lon="6.83080554938">
		<tag k="name" v="Vadholmane" />
		<tag k="place" v="islet" />
		<tag k="ssr:stedsnr" v="246192" />
	</node>
	<node id="-4188" lat="59.4273138926" lon="6.44291110371">
		<tag k="name" v="Fidjeåno" />
		<tag k="ssr:stedsnr" v="727016" />
		<tag k="waterway" v="river" />
	</node>
	<node id="-4187" lat="59.4463555527" lon="6.55278055457">
		<tag k="name" v="Krokavatnet" />
		<tag k="natural" v="water" />
		<tag k="ssr:stedsnr" v="727009" />
		<tag k="water" v="lake" />
	</node>
	<node id="-6227" lat="59.6971833354" lon="6.95590833939">
		<tag k="name" v="Flesatjørna" />
		<tag k="natural" v="water" />
		<tag k="ssr:stedsnr" v="425576" />
	</node>
	<node id="-4451" lat="59.3236749978" lon="6.15137500489">
		<tag k="name" v="Svortingvatnet" />
		<tag k="natural" v="water" />
		<tag k="ssr:stedsnr" v="913471" />
		<tag k="water" v="lake" />
	</node>
	<node id="-4176" lat="59.6779972206" lon="6.96286944341">
		<tag k="name" v="Kvanndalsdammen" />
		<tag k="natural" v="water" />
		<tag k="ssr:stedsnr" v="897016" />
		<tag k="water" v="lake" />
	</node>
	<node id="-6222" lat="59.661594445" lon="7.05028333257">
		<tag k="name" v="Sandvsasseidet" />
		<tag k="natural" v="strait" />
		<tag k="ssr:stedsnr" v="424978" />
	</node>
	<node id="-6215" lat="59.4958305544" lon="6.69103610681">
		<tag k="name" v="Djupadalsneset" />
		<tag k="natural" v="cape" />
		<tag k="ssr:stedsnr" v="424827" />
	</node>
	<node id="-2742" lat="59.6324534052" lon="6.72815398145">
		<tag k="name" v="Skaravatnet" />
		<tag k="natural" v="water" />
		<tag k="ssr:stedsnr" v="246026" />
	</node>
	<node id="-6210" lat="59.5047805571" lon="6.60246943837">
		<tag k="name" v="Skiftesvika" />
		<tag k="natural" v="bay" />
		<tag k="ssr:stedsnr" v="424751" />
	</node>
	<node id="-6205" lat="59.6364083376" lon="6.79570556257">
		<tag k="name" v="Øyno" />
		<tag k="place" v="island" />
		<tag k="ssr:stedsnr" v="424663" />
	</node>
	<node id="-4151" lat="59.6810297904" lon="6.79971778801">
		<tag k="name" v="Tyssdalsvatnet" />
		<tag k="natural" v="water" />
		<tag k="ssr:stedsnr" v="671215" />
	</node>
	<node id="-4144" lat="59.6433888932" lon="6.72633056144">
		<tag k="name" v="Indra Åno" />
		<tag k="ssr:stedsnr" v="667305" />
		<tag k="waterway" v="stream" />
	</node>
	<node id="-4143" lat="59.6750638913" lon="6.72228334016">
		<tag k="name" v="Novanuttjørna" />
		<tag k="natural" v="water" />
		<tag k="ssr:stedsnr" v="667260" />
	</node>
	<node id="-4140" lat="59.4966472244" lon="6.62840000679">
		<tag k="name" v="Brottlibekken" />
		<tag k="ssr:stedsnr" v="666811" />
		<tag k="waterway" v="stream" />
	</node>
	<node id="-6187" lat="59.5739555586" lon="6.47298333669">
		<tag k="name" v="Fossabekken" />
		<tag k="ssr:stedsnr" v="424297" />
		<tag k="waterway" v="stream" />
	</node>
	<node id="-4137" lat="59.5826750035" lon="6.66891388022">
		<tag k="name" v="Grovo" />
		<tag k="ssr:stedsnr" v="666449" />
		<tag k="waterway" v="stream" />
	</node>
	<node id="-4135" lat="59.5697111107" lon="6.48530556272">
		<tag k="name" v="Smaladalsbekken" />
		<tag k="ssr:stedsnr" v="666322" />
		<tag k="waterway" v="stream" />
	</node>
	<node id="-6181" lat="59.5833861115" lon="6.52938611881">
		<tag k="name" v="Holmen" />
		<tag k="place" v="islet" />
		<tag k="ssr:stedsnr" v="424435" />
	</node>
	<node id="-6180" lat="59.5799107303" lon="6.54080897481">
		<tag k="name" v="Grunnavatnet" />
		<tag k="natural" v="water" />
		<tag k="ssr:stedsnr" v="424433" />
		<tag k="water" v="lake" />
	</node>
	<node id="-6175" lat="59.4581805565" lon="6.3570111115">
		<tag k="name" v="Litlaneshølen" />
		<tag k="place" v="locality" />
		<tag k="ssr:stedsnr" v="424176" />
	</node>
	<node id="-4123" lat="59.5589361103" lon="6.36419722876">
		<tag k="name" v="Mestølstjørna" />
		<tag k="natural" v="water" />
		<tag k="ssr:stedsnr" v="663514" />
	</node>
	<node id="-3759" lat="59.3374722242" lon="6.29094999197">
		<tag k="name" v="Fåreholmen" />
		<tag k="place" v="islet" />
		<tag k="ssr:stedsnr" v="540812" />
	</node>
	<node id="-6247" lat="59.3243451437" lon="6.17109617357">
		<tag k="name" v="Sandviktjørna" />
		<tag k="natural" v="water" />
		<tag k="ssr:stedsnr" v="427516" />
	</node>
	<node id="-6165" lat="59.511583331" lon="6.58293332928">
		<tag k="name" v="Suldalsporten" />
		<tag k="natural" v="strait" />
		<tag k="ssr:stedsnr" v="424049" />
	</node>
	<node id="-6163" lat="59.6175916675" lon="6.58982222412">
		<tag k="name" v="Skaulåno" />
		<tag k="ssr:stedsnr" v="424042" />
		<tag k="waterway" v="river" />
	</node>
	<node id="-6162" lat="59.5229000045" lon="6.51905000341">
		<tag k="name" v="Indre Tjønndalsvatnet" />
		<tag k="natural" v="water" />
		<tag k="ssr:stedsnr" v="424036" />
		<tag k="water" v="lake" />
	</node>
	<node id="-6155" lat="59.4971777813" lon="6.19340556379">
		<tag k="name" v="Skiftestjørna" />
		<tag k="natural" v="water" />
		<tag k="ssr:stedsnr" v="421343" />
	</node>
	<node id="-6152" lat="59.4402166711" lon="6.03516667218">
		<tag k="name" v="Finnvikstemmen" />
		<tag k="natural" v="water" />
		<tag k="ssr:stedsnr" v="421180" />
		<tag k="water" v="lake" />
	</node>
	<node id="-3001" lat="59.525315051" lon="6.59292697159">
		<tag k="fixme" v="multiple name tags, choose one and add the other to alt_name" />
		<tag k="name" v="Strandanes;Solheimsvik" />
		<tag k="natural" v="cape" />
		<tag k="ssr:stedsnr" v="246403" />
	</node>
	<node id="-4100" lat="59.3659166631" lon="6.52801944031">
		<tag k="name" v="Tverrheivatnet" />
		<tag k="natural" v="water" />
		<tag k="ssr:stedsnr" v="731912" />
		<tag k="water" v="lake" />
	</node>
</osm>
