<?xml version="1.0" encoding="UTF-8"?>
<<<<<<< HEAD
<osm version="0.6" generator="osmapis">
	<node lat="59.41756596482018" lon="6.004990386978168" id="-2873">
		<tag k="name" v="Skavsteinshidleren" />
		<tag k="ssr:stedsnr" v="236770" />
		<tag k="tourism" v="attraction" />
	</node>
	<node lat="59.64530000363795" lon="6.805449998440236" id="-3446">
		<tag k="alt_name" v="Nesflaten" />
		<tag k="amenity" v="place_of_worship" />
		<tag k="denomination" v="lutheran" />
		<tag k="name" v="Nesflaten kapell" />
		<tag k="religion" v="christian" />
		<tag k="ssr:stedsnr" v="246006" />
	</node>
	<node lat="59.49012596759257" lon="6.494133152653113" id="-3856">
		<tag k="alt_name" v="Suldal" />
		<tag k="amenity" v="place_of_worship" />
		<tag k="denomination" v="lutheran" />
		<tag k="name" v="Suldal kyrkje" />
		<tag k="religion" v="christian" />
		<tag k="ssr:stedsnr" v="488626" />
	</node>
	<node lat="59.33007778139706" lon="6.102630555810371" id="-4119">
		<tag k="name" v="Bjergsted" />
=======
<osm generator="osmapis" version="0.6">
	<node id="-33946" lat="59.5343611117" lon="6.43099999336">
		<tag k="name" v="Litunet" />
		<tag k="place" v="locality" />
		<tag k="ssr:stedsnr" v="788104" />
	</node>
	<node id="-31353" lat="59.5489833303" lon="6.34786111935">
		<tag k="amenity" v="community_centre" />
		<tag k="name" v="Tunet" />
		<tag k="ssr:stedsnr" v="904749" />
	</node>
	<node id="-32023" lat="59.5404972199" lon="6.2824444469">
		<tag k="name" v="Allbergstøa" />
>>>>>>> e1d4bc35ff8a6074a6f2e91616a996b547c36f15
		<tag k="place" v="locality" />
		<tag k="ssr:stedsnr" v="540415" />
	</node>
<<<<<<< HEAD
	<node lat="59.532899996263055" lon="6.278316665447252" id="-4139">
=======
	<node id="-33430" lat="59.5328999963" lon="6.27831666545">
>>>>>>> e1d4bc35ff8a6074a6f2e91616a996b547c36f15
		<tag k="name" v="Seiasteinen" />
		<tag k="place" v="locality" />
		<tag k="ssr:stedsnr" v="542829" />
	</node>
<<<<<<< HEAD
	<node lat="59.534361111711554" lon="6.430999993355603" id="-4739">
		<tag k="name" v="Litunet" />
		<tag k="place" v="locality" />
		<tag k="ssr:stedsnr" v="788104" />
	</node>
	<node lat="59.33848610674297" lon="6.02572499526825" id="-4809">
		<tag k="alt_name" v="Jelsa" />
=======
	<node id="-34066" lat="59.4101902051" lon="6.07964565734">
>>>>>>> e1d4bc35ff8a6074a6f2e91616a996b547c36f15
		<tag k="amenity" v="place_of_worship" />
		<tag k="denomination" v="lutheran" />
		<tag k="name" v="Jelsa kyrkje" />
		<tag k="religion" v="christian" />
		<tag k="ssr:stedsnr" v="912569" />
	</node>
	<node lat="59.54898333031898" lon="6.347861119349852" id="-5057">
		<tag k="amenity" v="community_centre" />
		<tag k="name" v="Tunet" />
		<tag k="ssr:stedsnr" v="904749" />
	</node>
<<<<<<< HEAD
	<node lat="59.553944441499276" lon="6.348036111667846" id="-5358">
=======
	<node id="-32016" lat="59.5539444415" lon="6.34803611167">
>>>>>>> e1d4bc35ff8a6074a6f2e91616a996b547c36f15
		<tag k="name" v="Garlagjet" />
		<tag k="place" v="locality" />
		<tag k="ssr:stedsnr" v="56557" />
	</node>
<<<<<<< HEAD
	<node lat="59.54049721988973" lon="6.282444446896068" id="-5366">
		<tag k="name" v="Allbergstøa" />
		<tag k="place" v="locality" />
		<tag k="ssr:stedsnr" v="57832" />
	</node>
	<node lat="59.48318055681364" lon="6.252516662954732" id="-5659">
		<tag k="alt_name" v="Sand" />
=======
	<node id="-29647" lat="59.4175659648" lon="6.00499038698">
		<tag k="name" v="Skavsteinshidleren" />
		<tag k="ssr:stedsnr" v="236770" />
		<tag k="tourism" v="attraction" />
	</node>
	<node id="-29805" lat="59.6453000036" lon="6.80544999844">
		<tag k="alt_name" v="Nesflaten" />
>>>>>>> e1d4bc35ff8a6074a6f2e91616a996b547c36f15
		<tag k="amenity" v="place_of_worship" />
		<tag k="denomination" v="lutheran" />
		<tag k="name" v="Sand kyrkje" />
		<tag k="religion" v="christian" />
		<tag k="ssr:stedsnr" v="124594" />
	</node>
	<node lat="59.34729444536943" lon="6.239055552699957" id="-6029">
		<tag k="amenity" v="place_of_worship" />
		<tag k="denomination" v="lutheran" />
		<tag k="name" v="Erfjord kyrkje" />
		<tag k="religion" v="christian" />
		<tag k="ssr:stedsnr" v="306928" />
	</node>
	<node lat="59.41019020511753" lon="6.07964565733954" id="-7342">
		<tag k="amenity" v="place_of_worship" />
		<tag k="denomination" v="lutheran" />
		<tag k="name" v="Marvik kapell" />
		<tag k="religion" v="christian" />
		<tag k="ssr:stedsnr" v="828025" />
	</node>
	<node id="-31458" lat="59.3384861067" lon="6.02572499527">
		<tag k="alt_name" v="Jelsa" />
		<tag k="amenity" v="place_of_worship" />
		<tag k="denomination" v="lutheran" />
		<tag k="name" v="Jelsa kyrkje" />
		<tag k="religion" v="christian" />
		<tag k="ssr:stedsnr" v="912569" />
	</node>
	<node id="-32457" lat="59.4831805568" lon="6.25251666295">
		<tag k="alt_name" v="Sand" />
		<tag k="amenity" v="place_of_worship" />
		<tag k="denomination" v="lutheran" />
		<tag k="name" v="Sand kyrkje" />
		<tag k="religion" v="christian" />
		<tag k="ssr:stedsnr" v="124594" />
	</node>
	<node id="-32871" lat="59.3472944454" lon="6.2390555527">
		<tag k="amenity" v="place_of_worship" />
		<tag k="denomination" v="lutheran" />
		<tag k="name" v="Erfjord kyrkje" />
		<tag k="religion" v="christian" />
		<tag k="ssr:stedsnr" v="306928" />
	</node>
	<node id="-30818" lat="59.3300777814" lon="6.10263055581">
		<tag k="name" v="Bjergsted" />
		<tag k="place" v="locality" />
		<tag k="ssr:stedsnr" v="540415" />
	</node>
	<node id="-30305" lat="59.4895277811" lon="6.49289721433">
		<tag k="alt_name" v="Suldal" />
		<tag k="amenity" v="place_of_worship" />
		<tag k="denomination" v="lutheran" />
		<tag k="name" v="Suldal kyrkje" />
		<tag k="religion" v="christian" />
		<tag k="ssr:stedsnr" v="488626" />
	</node>
</osm>
