<?xml version="1.0" encoding="UTF-8"?>
<osm version="0.6" generator="osmapis">
	<node lat="59.409675003865615" lon="5.924500007452574" id="-3286">
		<tag k="alt_name" v="Høgabø" />
		<tag k="name" v="Hagabø" />
		<tag k="place" v="farm" />
		<tag k="ssr:stedsnr" v="2402" />
	</node>
	<node lat="59.48843610794996" lon="6.27903056462095" id="-3290">
		<tag k="name" v="Kløv" />
		<tag k="place" v="farm" />
		<tag k="ssr:stedsnr" v="2674" />
	</node>
	<node lat="59.348374998059604" lon="6.103350003160644" id="-3292">
		<tag k="name" v="Eskedal" />
		<tag k="place" v="farm" />
		<tag k="ssr:stedsnr" v="2575" />
	</node>
	<node lat="59.61609444376722" lon="6.6325666745942975" id="-3300">
		<tag k="historic" v="shieling" />
		<tag k="name" v="Vierestølen" />
		<tag k="place" v="isolated_dwelling" />
		<tag k="ssr:stedsnr" v="3029" />
	</node>
	<node lat="59.34072777595734" lon="6.217763887118432" id="-3307">
		<tag k="name" v="Erøyna" />
		<tag k="place" v="village" />
		<tag k="ssr:stedsnr" v="2924" />
	</node>
	<node lat="59.586680551798764" lon="6.67162499380493" id="-3309">
		<tag k="historic" v="shieling" />
		<tag k="name" v="Nedstastølen" />
		<tag k="place" v="isolated_dwelling" />
		<tag k="ssr:stedsnr" v="3109" />
	</node>
	<node lat="59.683102774276705" lon="6.965716658999554" id="-3317">
		<tag k="historic" v="shieling" />
		<tag k="name" v="Flesa" />
		<tag k="place" v="isolated_dwelling" />
		<tag k="ssr:stedsnr" v="3179" />
	</node>
	<node lat="59.59771944390607" lon="6.796683341555546" id="-3332">
		<tag k="name" v="Kvernaflota" />
		<tag k="place" v="locality" />
		<tag k="ssr:stedsnr" v="21886" />
	</node>
	<node lat="59.475391668060304" lon="6.682402770062438" id="-3342">
		<tag k="historic" v="shieling" />
		<tag k="name" v="Grunnavasstølen" />
		<tag k="place" v="isolated_dwelling" />
		<tag k="ssr:stedsnr" v="53016" />
	</node>
	<node lat="59.651933335545685" lon="6.862558340232197" id="-3356">
		<tag k="name" v="Skarpateig" />
		<tag k="place" v="farm" />
		<tag k="ssr:stedsnr" v="55077" />
	</node>
	<node lat="59.526422220042754" lon="6.290900004103653" id="-3365">
		<tag k="name" v="Gjerdet" />
		<tag k="place" v="locality" />
		<tag k="ssr:stedsnr" v="55773" />
	</node>
	<node lat="59.546280552490764" lon="6.213511109656505" id="-3368">
		<tag k="historic" v="shieling" />
		<tag k="name" v="Fossastøl" />
		<tag k="place" v="isolated_dwelling" />
		<tag k="ssr:stedsnr" v="56203" />
	</node>
	<node lat="59.62213611229683" lon="6.80118055442122" id="-3369">
		<tag k="name" v="Lågjen" />
		<tag k="place" v="farm" />
		<tag k="ssr:stedsnr" v="56318" />
	</node>
	<node lat="59.50834999751608" lon="6.407722217578014" id="-3397">
		<tag k="name" v="Øvre Tveitane" />
		<tag k="place" v="farm" />
		<tag k="ssr:stedsnr" v="60922" />
	</node>
	<node lat="59.60676110998587" lon="6.674258328569866" id="-3406">
		<tag k="historic" v="shieling" />
		<tag k="name" v="Moldbakkane" />
		<tag k="place" v="isolated_dwelling" />
		<tag k="ssr:stedsnr" v="63116" />
	</node>
	<node lat="59.52985555655349" lon="6.251669449777614" id="-3409">
		<tag k="name" v="Røyrvikhagen" />
		<tag k="place" v="farm" />
		<tag k="ssr:stedsnr" v="63187" />
	</node>
	<node lat="59.40730036002887" lon="5.922589350176811" id="-3415">
		<tag k="name" v="Østabø" />
		<tag k="place" v="farm" />
		<tag k="ssr:stedsnr" v="63402" />
	</node>
	<node lat="59.41122500290323" lon="6.118475004192021" id="-3421">
		<tag k="name" v="Dalen" />
		<tag k="place" v="farm" />
		<tag k="ssr:stedsnr" v="63427" />
	</node>
	<node lat="59.51014444674353" lon="6.711491663728178" id="-3423">
		<tag k="historic" v="shieling" />
		<tag k="name" v="Øyane" />
		<tag k="place" v="isolated_dwelling" />
		<tag k="ssr:stedsnr" v="63430" />
	</node>
	<node lat="59.39355000452416" lon="6.179200001047842" id="-3426">
		<tag k="name" v="Eskevika" />
		<tag k="place" v="farm" />
		<tag k="ssr:stedsnr" v="63446" />
	</node>
	<node lat="59.42597499963512" lon="5.915275006886221" id="-3429">
		<tag k="name" v="Nybøen" />
		<tag k="place" v="farm" />
		<tag k="ssr:stedsnr" v="63371" />
	</node>
	<node lat="59.42356782514756" lon="6.010169226948667" id="-3430">
		<tag k="name" v="Gryte" />
		<tag k="place" v="farm" />
		<tag k="ssr:stedsnr" v="63374" />
	</node>
	<node lat="59.354580368633684" lon="6.217039171195454" id="-3432">
		<tag k="name" v="Vik" />
		<tag k="place" v="farm" />
		<tag k="ssr:stedsnr" v="63514" />
	</node>
	<node lat="59.36037500125497" lon="5.953672219392923" id="-3433">
		<tag k="alt_name" v="Madlastova" />
		<tag k="name" v="Mallastova" />
		<tag k="place" v="farm" />
		<tag k="ssr:stedsnr" v="63523" />
	</node>
	<node lat="59.343800003864054" lon="6.04047499515566" id="-3434">
		<tag k="alt_name" v="Åsheim;Aseim" />
		<tag k="name" v="Asheim" />
		<tag k="place" v="farm" />
		<tag k="ssr:stedsnr" v="63564" />
	</node>
	<node lat="59.48735000324833" lon="6.5887249980794556" id="-3436">
		<tag k="alt_name" v="Lokkli" />
		<tag k="historic" v="shieling" />
		<tag k="name" v="Lottli" />
		<tag k="place" v="isolated_dwelling" />
		<tag k="ssr:stedsnr" v="63626" />
	</node>
	<node lat="59.493904477942316" lon="6.490132156660362" id="-3439">
		<tag k="alt_name" v="Mehus" />
		<tag k="name" v="Medhus" />
		<tag k="place" v="farm" />
		<tag k="ssr:stedsnr" v="63672" />
	</node>
	<node lat="59.645919823121105" lon="6.794366020694332" id="-3449">
		<tag k="name" v="Gauttun" />
		<tag k="place" v="farm" />
		<tag k="ssr:stedsnr" v="64002" />
	</node>
	<node lat="59.64678102663124" lon="6.916107318762542" id="-3450">
		<tag k="name" v="Tufteskog" />
		<tag k="place" v="farm" />
		<tag k="ssr:stedsnr" v="64009" />
	</node>
	<node lat="59.56125555727778" lon="6.761516668871768" id="-3452">
		<tag k="name" v="Reinskvelven" />
		<tag k="place" v="isolated_dwelling" />
		<tag k="ssr:stedsnr" v="64074" />
	</node>
	<node lat="59.595380558432396" lon="6.728116657836018" id="-3454">
		<tag k="name" v="Vikane" />
		<tag k="place" v="farm" />
		<tag k="ssr:stedsnr" v="64102" />
	</node>
	<node lat="59.51929444839603" lon="6.734350007769358" id="-3457">
		<tag k="historic" v="shieling" />
		<tag k="name" v="Hellestølen" />
		<tag k="place" v="isolated_dwelling" />
		<tag k="ssr:stedsnr" v="64403" />
	</node>
	<node lat="59.513015492921795" lon="6.63551815438313" id="-3459">
		<tag k="alt_name" v="Oppistov" />
		<tag k="name" v="Bakka" />
		<tag k="place" v="farm" />
		<tag k="ssr:stedsnr" v="64408" />
	</node>
	<node lat="59.517313890873496" lon="6.639144442520619" id="-3460">
		<tag k="name" v="Bruflota" />
		<tag k="place" v="farm" />
		<tag k="ssr:stedsnr" v="64418" />
	</node>
	<node lat="59.56503355723499" lon="6.547935987896275" id="-3463">
		<tag k="alt_name" v="Lingvang" />
		<tag k="loc_name" v="Lingvong" />
		<tag k="name" v="Lindvang" />
		<tag k="place" v="farm" />
		<tag k="ssr:stedsnr" v="64867" />
	</node>
	<node lat="59.57191944527317" lon="6.242855559937282" id="-3464">
		<tag k="alt_name" v="Illstadstølen" />
		<tag k="historic" v="shieling" />
		<tag k="name" v="Ilstadstølen" />
		<tag k="place" v="isolated_dwelling" />
		<tag k="ssr:stedsnr" v="64874" />
	</node>
	<node lat="59.53394444419981" lon="6.193599993002851" id="-3465">
		<tag k="alt_name" v="Tysselandsstøl" />
		<tag k="historic" v="shieling" />
		<tag k="name" v="Tysselandsstølen" />
		<tag k="place" v="isolated_dwelling" />
		<tag k="ssr:stedsnr" v="64915" />
	</node>
	<node lat="59.581338884763696" lon="6.680450000460084" id="-3469">
		<tag k="name" v="Vika" />
		<tag k="place" v="farm" />
		<tag k="ssr:stedsnr" v="81888" />
	</node>
	<node lat="59.582027780909186" lon="6.687008329897159" id="-3470">
		<tag k="name" v="Lund" />
		<tag k="place" v="farm" />
		<tag k="ssr:stedsnr" v="81892" />
	</node>
	<node lat="59.35927500040811" lon="5.961199992072958" id="-3489">
		<tag k="name" v="Framigard" />
		<tag k="place" v="farm" />
		<tag k="ssr:stedsnr" v="236138" />
	</node>
	<node lat="59.44806110768308" lon="6.033966671301332" id="-3506">
		<tag k="name" v="Bøen" />
		<tag k="place" v="farm" />
		<tag k="ssr:stedsnr" v="115282" />
	</node>
	<node lat="59.35650000183888" lon="5.9566083356148924" id="-3511">
		<tag k="name" v="Eiketun" />
		<tag k="place" v="farm" />
		<tag k="ssr:stedsnr" v="115177" />
	</node>
	<node lat="59.41348333704876" lon="6.028444445878963" id="-3519">
		<tag k="alt_name" v="Søreim" />
		<tag k="name" v="Sørheim" />
		<tag k="place" v="farm" />
		<tag k="ssr:stedsnr" v="236764" />
	</node>
	<node lat="59.423800001350166" lon="6.042280550562747" id="-3529">
		<tag k="alt_name" v="Refseim" />
		<tag k="name" v="Refsheim" />
		<tag k="place" v="farm" />
		<tag k="ssr:stedsnr" v="117222" />
	</node>
	<node lat="59.41402222044292" lon="6.070158340815563" id="-3580">
		<tag k="name" v="Bekkelund" />
		<tag k="place" v="farm" />
		<tag k="ssr:stedsnr" v="123407" />
	</node>
	<node lat="59.411300002095864" lon="6.078974994103476" id="-3581">
		<tag k="name" v="Gjerdsvoll" />
		<tag k="place" v="farm" />
		<tag k="ssr:stedsnr" v="123414" />
	</node>
	<node lat="59.41170078026396" lon="6.024650536727902" id="-3582">
		<tag k="alt_name" v="Vatlandsvåg" />
		<tag k="name" v="Vatlandsvågen" />
		<tag k="place" v="hamlet" />
		<tag k="ssr:stedsnr" v="123419" />
	</node>
	<node lat="59.322750000217" lon="6.111024996522438" id="-3584">
		<tag k="name" v="Kleiva" />
		<tag k="place" v="farm" />
		<tag k="ssr:stedsnr" v="123576" />
	</node>
	<node lat="59.467481630425034" lon="6.413724319617578" id="-3589">
		<tag k="name" v="Vasshus" />
		<tag k="place" v="farm" />
		<tag k="ssr:stedsnr" v="123766" />
	</node>
	<node lat="59.600783334110524" lon="6.709194438875181" id="-3598">
		<tag k="name" v="Hamrabø" />
		<tag k="place" v="farm" />
		<tag k="ssr:stedsnr" v="124101" />
	</node>
	<node lat="59.64812297210753" lon="6.801361101449408" id="-3599">
		<tag k="name" v="Haugen" />
		<tag k="place" v="farm" />
		<tag k="ssr:stedsnr" v="124001" />
	</node>
	<node lat="59.590577780503516" lon="6.890752776243385" id="-3600">
		<tag k="historic" v="shieling" />
		<tag k="name" v="Skitstølen" />
		<tag k="place" v="isolated_dwelling" />
		<tag k="ssr:stedsnr" v="124104" />
	</node>
	<node lat="59.68573332940571" lon="6.758850002393363" id="-3604">
		<tag k="name" v="Myrane" />
		<tag k="place" v="farm" />
		<tag k="ssr:stedsnr" v="124176" />
	</node>
	<node lat="59.515587994708405" lon="6.63276698228788" id="-3606">
		<tag k="name" v="Øystad" />
		<tag k="place" v="farm" />
		<tag k="ssr:stedsnr" v="124367" />
	</node>
	<node lat="59.51942499692259" lon="6.641136113904182" id="-3607">
		<tag k="name" v="Stuv" />
		<tag k="place" v="farm" />
		<tag k="ssr:stedsnr" v="124369" />
	</node>
	<node lat="59.663316670612765" lon="6.987777769724879" id="-3612">
		<tag k="historic" v="shieling" />
		<tag k="name" v="Monsabu" />
		<tag k="place" v="isolated_dwelling" />
		<tag k="ssr:stedsnr" v="124416" />
	</node>
	<node lat="59.405913888597546" lon="6.544630553428364" id="-3619">
		<tag k="alt_name" v="Haugastølane" />
		<tag k="historic" v="shieling" />
		<tag k="name" v="Haugastølen" />
		<tag k="place" v="isolated_dwelling" />
		<tag k="ssr:stedsnr" v="124724" />
	</node>
	<node lat="59.43270000409436" lon="6.444652771325412" id="-3620">
		<tag k="historic" v="shieling" />
		<tag k="name" v="Fossane" />
		<tag k="place" v="isolated_dwelling" />
		<tag k="ssr:stedsnr" v="124747" />
	</node>
	<node lat="59.52235491704965" lon="6.1955739966045575" id="-3626">
		<tag k="name" v="Østabø" />
		<tag k="place" v="farm" />
		<tag k="ssr:stedsnr" v="124863" />
	</node>
	<node lat="59.47437777945175" lon="6.327686106624772" id="-3629">
		<tag k="name" v="Myrabø" />
		<tag k="place" v="farm" />
		<tag k="ssr:stedsnr" v="239028" />
	</node>
	<node lat="59.6314944442275" lon="6.708138889833338" id="-3640">
		<tag k="historic" v="shieling" />
		<tag k="name" v="Nyastølen" />
		<tag k="place" v="isolated_dwelling" />
		<tag k="ssr:stedsnr" v="142901" />
	</node>
	<node lat="59.57860555933875" lon="6.652211107709486" id="-3646">
		<tag k="historic" v="shieling" />
		<tag k="name" v="Nyastølen" />
		<tag k="place" v="isolated_dwelling" />
		<tag k="ssr:stedsnr" v="241420" />
	</node>
	<node lat="59.64765555151408" lon="6.797363894919395" id="-3666">
		<tag k="name" v="Oppistov" />
		<tag k="place" v="farm" />
		<tag k="ssr:stedsnr" v="242629" />
	</node>
	<node lat="59.49446058619381" lon="6.65698696782122" id="-3684">
		<tag k="name" v="Kjetilstad" />
		<tag k="place" v="farm" />
		<tag k="ssr:stedsnr" v="245028" />
	</node>
	<node lat="59.41087773328439" lon="6.096568288290599" id="-3692">
		<tag k="alt_name" v="Hedlevik" />
		<tag k="name" v="Hellevika" />
		<tag k="place" v="farm" />
		<tag k="ssr:stedsnr" v="245359" />
	</node>
	<node lat="59.386675003482814" lon="6.0812000050639075" id="-3697">
		<tag k="name" v="Østabøflota" />
		<tag k="place" v="farm" />
		<tag k="ssr:stedsnr" v="245426" />
	</node>
	<node lat="59.344000004205014" lon="6.031449998352149" id="-3698">
		<tag k="alt_name" v="Mehus" />
		<tag k="name" v="Medhus" />
		<tag k="place" v="farm" />
		<tag k="ssr:stedsnr" v="245526" />
	</node>
	<node lat="59.484713886284155" lon="6.574516668112992" id="-3699">
		<tag k="historic" v="shieling" />
		<tag k="name" v="Tveitane" />
		<tag k="place" v="isolated_dwelling" />
		<tag k="ssr:stedsnr" v="245601" />
	</node>
	<node lat="59.372510822413695" lon="6.104840541981272" id="-3705">
		<tag k="name" v="Romsbotn" />
		<tag k="place" v="farm" />
		<tag k="ssr:stedsnr" v="245447" />
	</node>
	<node lat="59.402324995662575" lon="6.257888883979338" id="-3710">
		<tag k="alt_name" v="Vågstøl" />
		<tag k="historic" v="shieling" />
		<tag k="name" v="Tyssestølen" />
		<tag k="place" v="isolated_dwelling" />
		<tag k="ssr:stedsnr" v="245729" />
	</node>
	<node lat="59.629475002921964" lon="6.678541664587931" id="-3720">
		<tag k="historic" v="shieling" />
		<tag k="name" v="Moltemyra" />
		<tag k="place" v="isolated_dwelling" />
		<tag k="ssr:stedsnr" v="246022" />
	</node>
	<node lat="59.65508302162968" lon="6.9295262828202855" id="-3725">
		<tag k="name" v="Nordmork" />
		<tag k="place" v="farm" />
		<tag k="ssr:stedsnr" v="246060" />
	</node>
	<node lat="59.67007777879308" lon="6.766941666172058" id="-3727">
		<tag k="name" v="Åsheim" />
		<tag k="place" v="farm" />
		<tag k="ssr:stedsnr" v="246214" />
	</node>
	<node lat="59.47932500201563" lon="6.275561115011778" id="-3735">
		<tag k="name" v="Hauga" />
		<tag k="place" v="farm" />
		<tag k="ssr:stedsnr" v="246621" />
	</node>
	<node lat="59.559761107688814" lon="6.449786119395469" id="-3738">
		<tag k="alt_name" v="Ørå" />
		<tag k="name" v="Ora" />
		<tag k="place" v="farm" />
		<tag k="ssr:stedsnr" v="246842" />
	</node>
	<node lat="59.52479999930648" lon="6.386033332224164" id="-3785">
		<tag k="name" v="Kleivo" />
		<tag k="place" v="farm" />
		<tag k="ssr:stedsnr" v="181078" />
	</node>
	<node lat="59.38488610934072" lon="6.5272194463481075" id="-3810">
		<tag k="name" v="Bakkane" />
		<tag k="place" v="locality" />
		<tag k="ssr:stedsnr" v="184794" />
	</node>
	<node lat="59.6517583334394" lon="6.833600007295744" id="-3813">
		<tag k="name" v="Vallarevika" />
		<tag k="place" v="farm" />
		<tag k="ssr:stedsnr" v="185006" />
	</node>
	<node lat="59.596774995955684" lon="6.708102776738871" id="-3817">
		<tag k="name" v="Holane" />
		<tag k="place" v="farm" />
		<tag k="ssr:stedsnr" v="185112" />
	</node>
	<node lat="59.6731083292581" lon="6.76125277438785" id="-3819">
		<tag k="name" v="Øvrabø" />
		<tag k="place" v="farm" />
		<tag k="ssr:stedsnr" v="185182" />
	</node>
	<node lat="59.536436113869065" lon="6.688730559608224" id="-3823">
		<tag k="historic" v="shieling" />
		<tag k="name" v="Fossastølen" />
		<tag k="place" v="isolated_dwelling" />
		<tag k="ssr:stedsnr" v="185082" />
	</node>
	<node lat="59.6322000007062" lon="6.995283329996478" id="-3828">
		<tag k="name" v="Stovo" />
		<tag k="place" v="isolated_dwelling" />
		<tag k="ssr:stedsnr" v="185413" />
	</node>
	<node lat="59.498230454592104" lon="6.5526809237668475" id="-3835">
		<tag k="alt_name" v="Tjordalen" />
		<tag k="name" v="Tjøredalen" />
		<tag k="place" v="farm" />
		<tag k="ssr:stedsnr" v="185628" />
	</node>
	<node lat="59.591200000811256" lon="6.516100008392508" id="-3837">
		<tag k="alt_name" v="Breidastølen" />
		<tag k="name" v="Breiastølen" />
		<tag k="place" v="isolated_dwelling" />
		<tag k="ssr:stedsnr" v="185811" />
	</node>
	<node lat="59.35323610920796" lon="6.248747225738879" id="-3838">
		<tag k="name" v="Kvelvane" />
		<tag k="place" v="farm" />
		<tag k="ssr:stedsnr" v="185911" />
	</node>
	<node lat="59.59088888708621" lon="6.6119277706740185" id="-3906">
		<tag k="historic" v="shieling" />
		<tag k="name" v="Hellestølen" />
		<tag k="place" v="isolated_dwelling" />
		<tag k="ssr:stedsnr" v="245095" />
	</node>
	<node lat="59.43077755770092" lon="5.918937103084561" id="-3910">
		<tag k="alt_name" v="Hedland" />
		<tag k="name" v="Helland" />
		<tag k="place" v="farm" />
		<tag k="ssr:stedsnr" v="245333" />
	</node>
	<node lat="59.51305277575017" lon="6.71803055780588" id="-3911">
		<tag k="historic" v="shieling" />
		<tag k="name" v="Mæstølen" />
		<tag k="place" v="isolated_dwelling" />
		<tag k="ssr:stedsnr" v="245395" />
	</node>
	<node lat="59.39826317159367" lon="6.175525790896228" id="-3912">
		<tag k="name" v="Hamra" />
		<tag k="place" v="farm" />
		<tag k="ssr:stedsnr" v="245400" />
	</node>
	<node lat="59.461099997859236" lon="6.497136117388785" id="-3920">
		<tag k="historic" v="shieling" />
		<tag k="name" v="Øyane" />
		<tag k="place" v="isolated_dwelling" />
		<tag k="ssr:stedsnr" v="245695" />
	</node>
	<node lat="59.39021998507467" lon="6.222063878935134" id="-3925">
		<tag k="name" v="Sørhus" />
		<tag k="place" v="farm" />
		<tag k="ssr:stedsnr" v="245741" />
	</node>
	<node lat="59.64888570529231" lon="6.800913696957637" id="-3930">
		<tag k="name" v="Overskeid" />
		<tag k="place" v="farm" />
		<tag k="ssr:stedsnr" v="246002" />
	</node>
	<node lat="59.540421768048255" lon="6.64862273038953" id="-3933">
		<tag k="name" v="Vorvik" />
		<tag k="place" v="farm" />
		<tag k="ssr:stedsnr" v="246091" />
	</node>
	<node lat="59.696786113080655" lon="6.782299992242564" id="-3936">
		<tag k="historic" v="shieling" />
		<tag k="name" v="Haugastølen" />
		<tag k="place" v="isolated_dwelling" />
		<tag k="ssr:stedsnr" v="246190" />
	</node>
	<node lat="59.70743333467438" lon="6.8326916663955375" id="-3950">
		<tag k="historic" v="shieling" />
		<tag k="name" v="Eggjestølen" />
		<tag k="place" v="isolated_dwelling" />
		<tag k="ssr:stedsnr" v="263103" />
	</node>
	<node lat="59.51169722034446" lon="6.6358999965109255" id="-3952">
		<tag k="fixme" v="consider tourism=alpine_hut or tourism=chalet" />
		<tag k="name" v="Kvilldal" />
		<tag k="ssr:stedsnr" v="267049" />
		<tag k="tourism" v="wilderness_hut" />
	</node>
	<node lat="59.48418888727824" lon="6.512247228698231" id="-3954">
		<tag k="name" v="Sørestad" />
		<tag k="place" v="farm" />
		<tag k="ssr:stedsnr" v="270237" />
	</node>
	<node lat="59.33688610956905" lon="6.041402775824621" id="-3957">
		<tag k="name" v="Nygård" />
		<tag k="place" v="farm" />
		<tag k="ssr:stedsnr" v="282138" />
	</node>
	<node lat="59.450197219381984" lon="6.166913888776847" id="-3969">
		<tag k="name" v="Allmenningsteigen" />
		<tag k="place" v="locality" />
		<tag k="ssr:stedsnr" v="297009" />
	</node>
	<node lat="59.369158329968094" lon="6.1781138919308445" id="-3970">
		<tag k="name" v="Klungstveit" />
		<tag k="place" v="farm" />
		<tag k="ssr:stedsnr" v="297036" />
	</node>
	<node lat="59.367319444129535" lon="6.182913883889232" id="-3971">
		<tag k="name" v="Spøneflota" />
		<tag k="place" v="farm" />
		<tag k="ssr:stedsnr" v="297040" />
	</node>
	<node lat="59.64512221853617" lon="6.920074993920441" id="-3973">
		<tag k="name" v="Plasset" />
		<tag k="place" v="locality" />
		<tag k="ssr:stedsnr" v="297098" />
	</node>
	<node lat="59.39905278133501" lon="6.180666672728498" id="-3981">
		<tag k="name" v="Sveflot" />
		<tag k="place" v="locality" />
		<tag k="ssr:stedsnr" v="297495" />
	</node>
	<node lat="59.420219446621395" lon="6.038502782628972" id="-3985">
		<tag k="name" v="Torflot" />
		<tag k="place" v="farm" />
		<tag k="ssr:stedsnr" v="297788" />
	</node>
	<node lat="59.425108329914984" lon="6.032186107355278" id="-3992">
		<tag k="name" v="Bakkane" />
		<tag k="place" v="farm" />
		<tag k="ssr:stedsnr" v="299191" />
	</node>
	<node lat="59.60414166549433" lon="6.796277780870459" id="-3994">
		<tag k="name" v="Bjørnsonplasset" />
		<tag k="place" v="locality" />
		<tag k="ssr:stedsnr" v="299487" />
	</node>
	<node lat="59.43475555326428" lon="6.584977778482499" id="-3998">
		<tag k="historic" v="shieling" />
		<tag k="name" v="Stråpa-Sandsa" />
		<tag k="place" v="isolated_dwelling" />
		<tag k="ssr:stedsnr" v="302111" />
	</node>
	<node lat="59.59159167058118" lon="6.791466665395529" id="-4010">
		<tag k="name" v="Nybø" />
		<tag k="place" v="farm" />
		<tag k="ssr:stedsnr" v="302596" />
	</node>
	<node lat="59.605402408856314" lon="6.797768604245847" id="-4021">
		<tag k="name" v="Sandvika" />
		<tag k="place" v="farm" />
		<tag k="ssr:stedsnr" v="488097" />
	</node>
	<node lat="59.473921294219664" lon="6.283284988608991" id="-4025">
		<tag k="name" v="Berge" />
		<tag k="place" v="farm" />
		<tag k="ssr:stedsnr" v="305675" />
	</node>
	<node lat="59.42890277910064" lon="6.4786027732200715" id="-4028">
		<tag k="historic" v="shieling" />
		<tag k="name" v="Stavastølen" />
		<tag k="place" v="isolated_dwelling" />
		<tag k="ssr:stedsnr" v="305810" />
	</node>
	<node lat="59.462176302885766" lon="6.431389365248621" id="-4029">
		<tag k="alt_name" v="Nærheim" />
		<tag k="loc_name" v="Nerheim" />
		<tag k="name" v="Nereim" />
		<tag k="place" v="farm" />
		<tag k="ssr:stedsnr" v="305731" />
	</node>
	<node lat="59.40062948707139" lon="6.323148875191755" id="-4030">
		<tag k="name" v="Rørtveit" />
		<tag k="place" v="farm" />
		<tag k="ssr:stedsnr" v="305774" />
	</node>
	<node lat="59.399683007544645" lon="6.3288584975458395" id="-4032">
		<tag k="alt_name" v="Østrehus" />
		<tag k="name" v="Østerhus" />
		<tag k="place" v="farm" />
		<tag k="ssr:stedsnr" v="305779" />
	</node>
	<node lat="59.48281666965646" lon="6.659058335001117" id="-4038">
		<tag k="name" v="Holmalia" />
		<tag k="place" v="isolated_dwelling" />
		<tag k="ssr:stedsnr" v="306024" />
	</node>
	<node lat="59.52783055318462" lon="6.394561118408459" id="-4045">
		<tag k="alt_name" v="Vikjo" />
		<tag k="name" v="Vika" />
		<tag k="place" v="isolated_dwelling" />
		<tag k="ssr:stedsnr" v="306171" />
	</node>
	<node lat="59.535876370778496" lon="6.303013115219453" id="-4046">
		<tag k="name" v="Steinsland" />
		<tag k="place" v="farm" />
		<tag k="ssr:stedsnr" v="306174" />
	</node>
	<node lat="59.532702311810915" lon="6.320747969988562" id="-4047">
		<tag k="name" v="Drarvika" />
		<tag k="place" v="farm" />
		<tag k="ssr:stedsnr" v="306180" />
	</node>
	<node lat="59.4028257598267" lon="6.141991069893151" id="-4050">
		<tag k="alt_name" v="Jårvika, in" />
		<tag k="name" v="Indre Jårvik" />
		<tag k="place" v="farm" />
		<tag k="ssr:stedsnr" v="306409" />
	</node>
	<node lat="59.40766250792149" lon="6.00841148527169" id="-4056">
		<tag k="name" v="Kjølvik" />
		<tag k="place" v="farm" />
		<tag k="ssr:stedsnr" v="306374" />
	</node>
	<node lat="59.3366555577875" lon="6.099816671983604" id="-4058">
		<tag k="name" v="Hola" />
		<tag k="place" v="farm" />
		<tag k="ssr:stedsnr" v="306510" />
	</node>
	<node lat="59.49013611362635" lon="6.346825005775405" id="-4061">
		<tag k="historic" v="shieling" />
		<tag k="name" v="Brommelandsstølen" />
		<tag k="place" v="isolated_dwelling" />
		<tag k="ssr:stedsnr" v="306602" />
	</node>
	<node lat="59.37911110970197" lon="6.5283111126860245" id="-4067">
		<tag k="alt_name" v="Løkkja" />
		<tag k="name" v="Lykkja" />
		<tag k="place" v="farm" />
		<tag k="ssr:stedsnr" v="306818" />
	</node>
	<node lat="59.64999444291847" lon="6.817633340414174" id="-4071">
		<tag k="name" v="Kilen" />
		<tag k="place" v="farm" />
		<tag k="ssr:stedsnr" v="307002" />
	</node>
	<node lat="59.539739983222674" lon="6.451417394223548" id="-4074">
		<tag k="alt_name" v="Vallskår" />
		<tag k="name" v="Vallskor" />
		<tag k="place" v="farm" />
		<tag k="ssr:stedsnr" v="307177" />
	</node>
	<node lat="59.510736115337785" lon="6.359311116427496" id="-4076">
		<tag k="historic" v="shieling" />
		<tag k="name" v="Månastølen" />
		<tag k="place" v="isolated_dwelling" />
		<tag k="ssr:stedsnr" v="488123" />
	</node>
	<node lat="59.377699999924936" lon="6.504591674025454" id="-4081">
		<tag k="name" v="Bøen" />
		<tag k="place" v="farm" />
		<tag k="ssr:stedsnr" v="488820" />
	</node>
	<node lat="59.687536114234845" lon="6.760988882498392" id="-4083">
		<tag k="name" v="Kalsabø" />
		<tag k="place" v="farm" />
		<tag k="ssr:stedsnr" v="324086" />
	</node>
	<node lat="59.406922222588065" lon="6.7934055628998244" id="-4085">
		<tag k="name" v="Oddatjørnhytta" />
		<tag k="place" v="isolated_dwelling" />
		<tag k="ssr:stedsnr" v="327710" />
	</node>
	<node lat="59.648105558725796" lon="6.914958336364792" id="-4111">
		<tag k="name" v="Dokkjo" />
		<tag k="place" v="farm" />
		<tag k="ssr:stedsnr" v="358060" />
	</node>
	<node lat="59.531436111298895" lon="6.292141659459584" id="-4125">
		<tag k="name" v="Leite" />
		<tag k="place" v="farm" />
		<tag k="ssr:stedsnr" v="360812" />
	</node>
	<node lat="59.484805554520086" lon="6.644086115462847" id="-4157">
		<tag k="historic" v="shieling" />
		<tag k="name" v="Løkjahaugen" />
		<tag k="place" v="isolated_dwelling" />
		<tag k="ssr:stedsnr" v="366018" />
	</node>
	<node lat="59.38257510726619" lon="6.140331860435214" id="-4167">
		<tag k="name" v="Slåtta" />
		<tag k="place" v="farm" />
		<tag k="ssr:stedsnr" v="366448" />
	</node>
	<node lat="59.3612250037226" lon="6.044824992657941" id="-4169">
		<tag k="name" v="Meland" />
		<tag k="place" v="farm" />
		<tag k="ssr:stedsnr" v="366495" />
	</node>
	<node lat="59.44270000248411" lon="6.415975005418077" id="-4170">
		<tag k="name" v="Hustveit" />
		<tag k="place" v="locality" />
		<tag k="ssr:stedsnr" v="366702" />
	</node>
	<node lat="59.46966650449126" lon="6.333713696321997" id="-4172">
		<tag k="name" v="Grov" />
		<tag k="place" v="farm" />
		<tag k="ssr:stedsnr" v="366736" />
	</node>
	<node lat="59.4114527813877" lon="6.476569451621525" id="-4176">
		<tag k="alt_name" v="Breiastølen" />
		<tag k="historic" v="shieling" />
		<tag k="name" v="Breidastølen" />
		<tag k="place" v="isolated_dwelling" />
		<tag k="ssr:stedsnr" v="366759" />
	</node>
	<node lat="59.433194442554495" lon="6.302694446531127" id="-4181">
		<tag k="historic" v="shieling" />
		<tag k="name" v="Hellestølen" />
		<tag k="place" v="isolated_dwelling" />
		<tag k="ssr:stedsnr" v="366693" />
	</node>
	<node lat="59.441774998518234" lon="6.473763883131152" id="-4182">
		<tag k="historic" v="shieling" />
		<tag k="name" v="Skutestølen" />
		<tag k="place" v="isolated_dwelling" />
		<tag k="ssr:stedsnr" v="366700" />
	</node>
	<node lat="59.37930071214244" lon="6.5157975068981475" id="-4184">
		<tag k="name" v="Meland" />
		<tag k="place" v="farm" />
		<tag k="ssr:stedsnr" v="366803" />
	</node>
	<node lat="59.380766670090914" lon="6.529880555200254" id="-4185">
		<tag k="name" v="Ullatun" />
		<tag k="place" v="farm" />
		<tag k="ssr:stedsnr" v="366804" />
	</node>
	<node lat="59.590694440165976" lon="6.890752784914388" id="-4191">
		<tag k="historic" v="shieling" />
		<tag k="name" v="Gaukstølen" />
		<tag k="place" v="isolated_dwelling" />
		<tag k="ssr:stedsnr" v="367102" />
	</node>
	<node lat="59.583498098815134" lon="6.673908774712884" id="-4192">
		<tag k="name" v="Klungtveit" />
		<tag k="place" v="farm" />
		<tag k="ssr:stedsnr" v="367103" />
	</node>
	<node lat="59.66478789449445" lon="6.871132950329959" id="-4197">
		<tag k="historic" v="shieling" />
		<tag k="name" v="Liastølen" />
		<tag k="place" v="isolated_dwelling" />
		<tag k="ssr:stedsnr" v="367041" />
	</node>
	<node lat="59.596663884460774" lon="6.9137638870775096" id="-4199">
		<tag k="historic" v="shieling" />
		<tag k="name" v="Krokvasstølen" />
		<tag k="place" v="isolated_dwelling" />
		<tag k="ssr:stedsnr" v="367093" />
	</node>
	<node lat="59.563609245129186" lon="6.527204380949351" id="-4206">
		<tag k="name" v="Selland" />
		<tag k="place" v="farm" />
		<tag k="ssr:stedsnr" v="367844" />
	</node>
	<node lat="59.64649166330858" lon="6.79976389755921" id="-4211">
		<tag k="name" v="Nesflaten" />
		<tag k="place" v="hamlet" />
		<tag k="ssr:stedsnr" v="385114" />
	</node>
	<node lat="59.48459722179294" lon="6.4931583364695875" id="-4213">
		<tag k="name" v="Sørestad" />
		<tag k="place" v="farm" />
		<tag k="ssr:stedsnr" v="391231" />
	</node>
	<node lat="59.53934722209359" lon="6.442369453178072" id="-4221">
		<tag k="alt_name" v="Vallskårlio" />
		<tag k="name" v="Lia" />
		<tag k="place" v="isolated_dwelling" />
		<tag k="ssr:stedsnr" v="405621" />
	</node>
	<node lat="59.73231666698077" lon="6.924536113006486" id="-4228">
		<tag k="historic" v="shieling" />
		<tag k="name" v="Vassbotnen" />
		<tag k="place" v="isolated_dwelling" />
		<tag k="ssr:stedsnr" v="417220" />
	</node>
	<node lat="59.42546388639589" lon="6.631550003671092" id="-4274">
		<tag k="historic" v="shieling" />
		<tag k="name" v="Steinsstølen" />
		<tag k="place" v="isolated_dwelling" />
		<tag k="ssr:stedsnr" v="427035" />
	</node>
	<node lat="59.40807500126076" lon="6.025350001761391" id="-4278">
		<tag k="name" v="Skotavika" />
		<tag k="place" v="farm" />
		<tag k="ssr:stedsnr" v="427403" />
	</node>
	<node lat="59.36163055234871" lon="5.950005551502924" id="-4282">
		<tag k="alt_name" v="Myrå" />
		<tag k="name" v="Myra" />
		<tag k="place" v="farm" />
		<tag k="ssr:stedsnr" v="427486" />
	</node>
	<node lat="59.339064284481125" lon="6.187180848420818" id="-4284">
		<tag k="name" v="Bog" />
		<tag k="place" v="farm" />
		<tag k="ssr:stedsnr" v="427535" />
	</node>
	<node lat="59.454824620174534" lon="6.362402318306957" id="-4285">
		<tag k="name" v="Foss" />
		<tag k="place" v="farm" />
		<tag k="ssr:stedsnr" v="427705" />
	</node>
	<node lat="59.48033611471796" lon="6.5407111188937925" id="-4286">
		<tag k="historic" v="shieling" />
		<tag k="name" v="Vetrhusstølen" />
		<tag k="place" v="isolated_dwelling" />
		<tag k="ssr:stedsnr" v="427631" />
	</node>
	<node lat="59.513675000834695" lon="6.520338885334738" id="-4296">
		<tag k="name" v="Langhaug" />
		<tag k="place" v="isolated_dwelling" />
		<tag k="ssr:stedsnr" v="428126" />
	</node>
	<node lat="59.68943861699735" lon="6.761454272943795" id="-4297">
		<tag k="name" v="Brattland" />
		<tag k="place" v="farm" />
		<tag k="ssr:stedsnr" v="428172" />
	</node>
	<node lat="59.65170277786869" lon="6.927105557416777" id="-4308">
		<tag k="name" v="Hagjen" />
		<tag k="place" v="farm" />
		<tag k="ssr:stedsnr" v="479045" />
	</node>
	<node lat="59.39981388612623" lon="6.333069443932071" id="-4320">
		<tag k="name" v="Rabben" />
		<tag k="place" v="farm" />
		<tag k="ssr:stedsnr" v="661355" />
	</node>
	<node lat="59.490634772091276" lon="6.4926791115495925" id="-4355">
		<tag k="loc_name" v="Vinjar" />
		<tag k="name" v="Vinje" />
		<tag k="place" v="farm" />
		<tag k="ssr:stedsnr" v="449295" />
	</node>
	<node lat="59.484169447126774" lon="6.489391664491156" id="-4356">
		<tag k="name" v="Sørestad" />
		<tag k="place" v="farm" />
		<tag k="ssr:stedsnr" v="452213" />
	</node>
	<node lat="59.42691666348637" lon="6.009472226294975" id="-4363">
		<tag k="name" v="Veltå" />
		<tag k="place" v="locality" />
		<tag k="ssr:stedsnr" v="663272" />
	</node>
	<node lat="59.525436111294546" lon="6.387752784805681" id="-4377">
		<tag k="name" v="Laberget" />
		<tag k="place" v="isolated_dwelling" />
		<tag k="ssr:stedsnr" v="466626" />
	</node>
	<node lat="59.48228610819104" lon="6.271758340075334" id="-4417">
		<tag k="name" v="Tjelmane" />
		<tag k="place" v="locality" />
		<tag k="ssr:stedsnr" v="479473" />
	</node>
	<node lat="59.34467222137992" lon="6.329041666334333" id="-4427">
		<tag k="name" v="Bogland" />
		<tag k="place" v="farm" />
		<tag k="ssr:stedsnr" v="479823" />
	</node>
	<node lat="59.494988888112154" lon="6.526700006032478" id="-4453">
		<tag k="name" v="Jensaplasset" />
		<tag k="place" v="locality" />
		<tag k="ssr:stedsnr" v="666984" />
	</node>
	<node lat="59.48948888670025" lon="6.510055555876509" id="-4454">
		<tag k="name" v="Eriksmoen" />
		<tag k="place" v="farm" />
		<tag k="ssr:stedsnr" v="666987" />
	</node>
	<node lat="59.480033335289804" lon="6.467766660989352" id="-4481">
		<tag k="name" v="Teien" />
		<tag k="place" v="farm" />
		<tag k="ssr:stedsnr" v="484968" />
	</node>
	<node lat="59.38357499749656" lon="6.183425003733586" id="-4499">
		<tag k="alt_name" v="Breivik" />
		<tag k="name" v="Breidvika" />
		<tag k="place" v="farm" />
		<tag k="ssr:stedsnr" v="487476" />
	</node>
	<node lat="59.38457092429704" lon="5.994328982618549" id="-4500">
		<tag k="name" v="Tveita" />
		<tag k="place" v="farm" />
		<tag k="ssr:stedsnr" v="487478" />
	</node>
	<node lat="59.421851500457095" lon="5.920912887727056" id="-4503">
		<tag k="name" v="Vormestrand" />
		<tag k="place" v="farm" />
		<tag k="ssr:stedsnr" v="487376" />
	</node>
	<node lat="59.4273305546275" lon="6.550852781630812" id="-4509">
		<tag k="alt_name" v="Tjøstheim-Sandsa" />
		<tag k="historic" v="shieling" />
		<tag k="name" v="Tjøsteim-Sandsa" />
		<tag k="place" v="isolated_dwelling" />
		<tag k="ssr:stedsnr" v="487820" />
	</node>
	<node lat="59.59185277820994" lon="6.785366668825319" id="-4517">
		<tag k="name" v="Juvvik" />
		<tag k="place" v="farm" />
		<tag k="ssr:stedsnr" v="488104" />
	</node>
	<node lat="59.595495138791" lon="6.7988640190328296" id="-4518">
		<tag k="name" v="Bråtveit" />
		<tag k="place" v="farm" />
		<tag k="ssr:stedsnr" v="488106" />
	</node>
	<node lat="59.514516668944786" lon="6.441925008404029" id="-4520">
		<tag k="alt_name" v="Storedalen" />
		<tag k="name" v="Storedal" />
		<tag k="place" v="isolated_dwelling" />
		<tag k="ssr:stedsnr" v="488115" />
	</node>
	<node lat="59.701188891270725" lon="6.817252778707955" id="-4521">
		<tag k="historic" v="shieling" />
		<tag k="name" v="Hellerfjell" />
		<tag k="place" v="isolated_dwelling" />
		<tag k="ssr:stedsnr" v="488167" />
	</node>
	<node lat="59.644036111201885" lon="6.66231111495219" id="-4525">
		<tag k="name" v="Borgarbuene" />
		<tag k="place" v="locality" />
		<tag k="ssr:stedsnr" v="488071" />
	</node>
	<node lat="59.53742292352703" lon="6.617888618133136" id="-4528">
		<tag k="name" v="Litlevik" />
		<tag k="place" v="locality" />
		<tag k="ssr:stedsnr" v="488082" />
	</node>
	<node lat="59.485049413497876" lon="6.473709025867746" id="-4535">
		<tag k="name" v="Lunde" />
		<tag k="place" v="farm" />
		<tag k="ssr:stedsnr" v="488627" />
	</node>
	<node lat="59.45509616771475" lon="6.384972427331381" id="-4538">
		<tag k="name" v="Kvæstad" />
		<tag k="place" v="farm" />
		<tag k="ssr:stedsnr" v="488711" />
	</node>
	<node lat="59.4601444413675" lon="6.563569445833231" id="-4539">
		<tag k="name" v="Finnabu" />
		<tag k="place" v="locality" />
		<tag k="ssr:stedsnr" v="488713" />
	</node>
	<node lat="59.62655555229777" lon="6.649833341956521" id="-4546">
		<tag k="historic" v="shieling" />
		<tag k="name" v="Øystølen" />
		<tag k="place" v="isolated_dwelling" />
		<tag k="ssr:stedsnr" v="489015" />
	</node>
	<node lat="59.41790000154233" lon="6.471225007492201" id="-4547">
		<tag k="alt_name" v="Vindvollen" />
		<tag k="name" v="Vindvoll" />
		<tag k="place" v="locality" />
		<tag k="ssr:stedsnr" v="488753" />
	</node>
	<node lat="59.6861250017335" lon="6.741161104706145" id="-4549">
		<tag k="historic" v="shieling" />
		<tag k="name" v="Tornesstølen" />
		<tag k="place" v="isolated_dwelling" />
		<tag k="ssr:stedsnr" v="489249" />
	</node>
	<node lat="59.42905784149838" lon="6.189990565756202" id="-4553">
		<tag k="name" v="Kuvika" />
		<tag k="place" v="farm" />
		<tag k="ssr:stedsnr" v="669352" />
	</node>
	<node lat="59.420400000189" lon="6.075425004104635" id="-4557">
		<tag k="alt_name" v="Sjurflåt" />
		<tag k="name" v="Sjurdflot" />
		<tag k="place" v="farm" />
		<tag k="ssr:stedsnr" v="669362" />
	</node>
	<node lat="59.42118770190483" lon="6.068525612779108" id="-4558">
		<tag k="alt_name" v="Solland" />
		<tag k="name" v="Soland" />
		<tag k="place" v="farm" />
		<tag k="ssr:stedsnr" v="669364" />
	</node>
	<node lat="59.35334999767976" lon="6.10364999393866" id="-4564">
		<tag k="name" v="Båsen" />
		<tag k="place" v="farm" />
		<tag k="ssr:stedsnr" v="669502" />
	</node>
	<node lat="59.45924166443216" lon="6.347480558734103" id="-4565">
		<tag k="historic" v="shieling" />
		<tag k="name" v="Hatløyna" />
		<tag k="place" v="isolated_dwelling" />
		<tag k="ssr:stedsnr" v="669720" />
	</node>
	<node lat="59.34078888532234" lon="6.297327783509968" id="-4574">
		<tag k="historic" v="shieling" />
		<tag k="name" v="Åsstølen" />
		<tag k="place" v="isolated_dwelling" />
		<tag k="ssr:stedsnr" v="669924" />
	</node>
	<node lat="59.58814036471215" lon="6.808550717031431" id="-4575">
		<tag k="name" v="Vetrhus" />
		<tag k="place" v="farm" />
		<tag k="ssr:stedsnr" v="670117" />
	</node>
	<node lat="59.65869861853748" lon="6.816247014303111" id="-4576">
		<tag k="name" v="Rossmyr" />
		<tag k="place" v="farm" />
		<tag k="ssr:stedsnr" v="670051" />
	</node>
	<node lat="59.65366543467729" lon="6.866399403938929" id="-4578">
		<tag k="name" v="Roalkvam" />
		<tag k="place" v="farm" />
		<tag k="ssr:stedsnr" v="670054" />
	</node>
	<node lat="59.659175001019086" lon="6.809633340130025" id="-4580">
		<tag k="name" v="Gurogrov" />
		<tag k="place" v="farm" />
		<tag k="ssr:stedsnr" v="670059" />
	</node>
	<node lat="59.504107387821236" lon="6.538902383698909" id="-4584">
		<tag k="name" v="Veka" />
		<tag k="place" v="farm" />
		<tag k="ssr:stedsnr" v="670152" />
	</node>
	<node lat="59.45242499580411" lon="6.082874996808712" id="-4585">
		<tag k="name" v="Finnalandssaga" />
		<tag k="place" v="isolated_dwelling" />
		<tag k="ssr:stedsnr" v="670331" />
	</node>
	<node lat="59.37204631424904" lon="6.181627624812037" id="-4587">
		<tag k="name" v="Lovra" />
		<tag k="place" v="farm" />
		<tag k="ssr:stedsnr" v="670438" />
	</node>
	<node lat="59.36010523591529" lon="5.959402353650098" id="-4590">
		<tag k="name" v="Hebnes" />
		<tag k="place" v="farm" />
		<tag k="ssr:stedsnr" v="670454" />
	</node>
	<node lat="59.418499997854646" lon="6.460655562548179" id="-4598">
		<tag k="alt_name" v="Åsstølane" />
		<tag k="historic" v="shieling" />
		<tag k="name" v="Ås" />
		<tag k="place" v="isolated_dwelling" />
		<tag k="ssr:stedsnr" v="670737" />
	</node>
	<node lat="59.67663610739363" lon="6.854691670459179" id="-4604">
		<tag k="historic" v="shieling" />
		<tag k="name" v="Følhaug" />
		<tag k="place" v="isolated_dwelling" />
		<tag k="ssr:stedsnr" v="671036" />
	</node>
	<node lat="59.63419999631979" lon="6.983313881247255" id="-4608">
		<tag k="historic" v="shieling" />
		<tag k="name" v="Nystølen" />
		<tag k="place" v="isolated_dwelling" />
		<tag k="ssr:stedsnr" v="671450" />
	</node>
	<node lat="59.71601364981418" lon="6.917220776308893" id="-4609">
		<tag k="historic" v="shieling" />
		<tag k="name" v="Vika" />
		<tag k="place" v="isolated_dwelling" />
		<tag k="ssr:stedsnr" v="671246" />
	</node>
	<node lat="59.58433333249318" lon="6.808436111568501" id="-4612">
		<tag k="name" v="Indra Vetrhus" />
		<tag k="place" v="farm" />
		<tag k="ssr:stedsnr" v="506879" />
	</node>
	<node lat="59.58716388752519" lon="6.811102775130046" id="-4613">
		<tag k="name" v="Teigen" />
		<tag k="place" v="farm" />
		<tag k="ssr:stedsnr" v="506880" />
	</node>
	<node lat="59.33825277930816" lon="6.221361115884473" id="-4629">
		<tag k="name" v="Løyning" />
		<tag k="place" v="farm" />
		<tag k="ssr:stedsnr" v="539910" />
	</node>
	<node lat="59.53943333720416" lon="6.212236112367372" id="-4665">
		<tag k="historic" v="shieling" />
		<tag k="name" v="Røyrvikstølen" />
		<tag k="place" v="isolated_dwelling" />
		<tag k="ssr:stedsnr" v="542208" />
	</node>
	<node lat="59.55076389064415" lon="6.4071333320478745" id="-4667">
		<tag k="name" v="Bjerga" />
		<tag k="place" v="locality" />
		<tag k="ssr:stedsnr" v="542615" />
	</node>
	<node lat="59.464044441346466" lon="6.421036106405477" id="-4683">
		<tag k="name" v="Ritland" />
		<tag k="place" v="farm" />
		<tag k="ssr:stedsnr" v="545210" />
	</node>
	<node lat="59.43571797357307" lon="6.05784507657374" id="-4717">
		<tag k="name" v="Brattland" />
		<tag k="place" v="farm" />
		<tag k="ssr:stedsnr" v="548372" />
	</node>
	<node lat="59.42542376971236" lon="6.037503914347057" id="-4718">
		<tag k="name" v="Haug" />
		<tag k="place" v="farm" />
		<tag k="ssr:stedsnr" v="548381" />
	</node>
	<node lat="59.31897740646526" lon="6.168838101821189" id="-4719">
		<tag k="alt_name" v="Sandvik" />
		<tag k="name" v="Sandvika" />
		<tag k="place" v="farm" />
		<tag k="ssr:stedsnr" v="548515" />
	</node>
	<node lat="59.348074997392665" lon="6.105974993026603" id="-4721">
		<tag k="alt_name" v="Gjerdahaugen" />
		<tag k="name" v="Gjerdehaugen" />
		<tag k="place" v="farm" />
		<tag k="ssr:stedsnr" v="548565" />
	</node>
	<node lat="59.36420000049581" lon="6.186999997448146" id="-4724">
		<tag k="name" v="Vestly" />
		<tag k="place" v="farm" />
		<tag k="ssr:stedsnr" v="548481" />
	</node>
	<node lat="59.46782777972289" lon="6.555902773389053" id="-4728">
		<tag k="alt_name" v="Skarstølen" />
		<tag k="historic" v="shieling" />
		<tag k="name" v="Skardstølen" />
		<tag k="place" v="isolated_dwelling" />
		<tag k="ssr:stedsnr" v="548704" />
	</node>
	<node lat="59.45858878548684" lon="6.40276239649158" id="-4730">
		<tag k="name" v="Førland" />
		<tag k="place" v="farm" />
		<tag k="ssr:stedsnr" v="548719" />
	</node>
	<node lat="59.34829166884553" lon="6.239699993042352" id="-4732">
		<tag k="name" v="Hålandsosen" />
		<tag k="place" v="village" />
		<tag k="ssr:stedsnr" v="548909" />
	</node>
	<node lat="59.65316944412997" lon="6.865247216891642" id="-4738">
		<tag k="name" v="Nigard" />
		<tag k="place" v="farm" />
		<tag k="ssr:stedsnr" v="549007" />
	</node>
	<node lat="59.6513263365292" lon="6.9245378804938085" id="-4740">
		<tag k="name" v="Jordebrekk" />
		<tag k="place" v="farm" />
		<tag k="ssr:stedsnr" v="549012" />
	</node>
	<node lat="59.63069166255051" lon="6.65758054875451" id="-4742">
		<tag k="historic" v="shieling" />
		<tag k="name" v="Borgarbuhaugen" />
		<tag k="place" v="isolated_dwelling" />
		<tag k="ssr:stedsnr" v="549025" />
	</node>
	<node lat="59.62711944667557" lon="6.62779999802029" id="-4743">
		<tag k="historic" v="shieling" />
		<tag k="name" v="Fossane" />
		<tag k="place" v="isolated_dwelling" />
		<tag k="ssr:stedsnr" v="549026" />
	</node>
	<node lat="59.55019444805563" lon="6.75085556239561" id="-4747">
		<tag k="historic" v="shieling" />
		<tag k="name" v="Nyastølen" />
		<tag k="place" v="isolated_dwelling" />
		<tag k="ssr:stedsnr" v="549104" />
	</node>
	<node lat="59.60769167017134" lon="6.64831389249264" id="-4748">
		<tag k="historic" v="shieling" />
		<tag k="name" v="Nyastølen" />
		<tag k="place" v="isolated_dwelling" />
		<tag k="ssr:stedsnr" v="549116" />
	</node>
	<node lat="59.598506820403514" lon="6.7043363506537474" id="-4749">
		<tag k="name" v="Byrkjenes" />
		<tag k="place" v="farm" />
		<tag k="ssr:stedsnr" v="549121" />
	</node>
	<node lat="59.60100833071728" lon="6.709727169352325" id="-4750">
		<tag k="name" v="Havrevoll" />
		<tag k="place" v="farm" />
		<tag k="ssr:stedsnr" v="549122" />
	</node>
	<node lat="59.546729938346814" lon="6.388533038697519" id="-4754">
		<tag k="name" v="Ørland" />
		<tag k="place" v="farm" />
		<tag k="ssr:stedsnr" v="549167" />
	</node>
	<node lat="59.5530146072977" lon="6.4137126781717315" id="-4755">
		<tag k="alt_name" v="Bjerga, in;Bjerga" />
		<tag k="name" v="Indre Bjerga" />
		<tag k="place" v="farm" />
		<tag k="ssr:stedsnr" v="549173" />
	</node>
	<node lat="59.52267777620391" lon="6.358886109035822" id="-4756">
		<tag k="name" v="Løyning" />
		<tag k="place" v="farm" />
		<tag k="ssr:stedsnr" v="549177" />
	</node>
	<node lat="59.67831050125894" lon="6.758988703371559" id="-4757">
		<tag k="name" v="Tornes" />
		<tag k="place" v="farm" />
		<tag k="ssr:stedsnr" v="549207" />
	</node>
	<node lat="59.530144444859104" lon="6.59549999207108" id="-4762">
		<tag k="name" v="Ivarsflota" />
		<tag k="place" v="farm" />
		<tag k="ssr:stedsnr" v="549417" />
	</node>
	<node lat="59.563206402645235" lon="6.270566830658394" id="-4768">
		<tag k="alt_name" v="Illstad" />
		<tag k="name" v="Ilstad" />
		<tag k="place" v="farm" />
		<tag k="ssr:stedsnr" v="549857" />
	</node>
	<node lat="59.589766670307355" lon="6.807355557948632" id="-4770">
		<tag k="name" v="Haugane" />
		<tag k="place" v="farm" />
		<tag k="ssr:stedsnr" v="566906" />
	</node>
	<node lat="59.33889444463287" lon="6.2249833250378845" id="-4775">
		<tag k="name" v="Haugland" />
		<tag k="place" v="farm" />
		<tag k="ssr:stedsnr" v="584858" />
	</node>
	<node lat="59.49119166659648" lon="6.252966668410135" id="-4776">
		<tag k="name" v="Solbakken" />
		<tag k="place" v="farm" />
		<tag k="ssr:stedsnr" v="587624" />
	</node>
	<node lat="59.6400111100014" lon="6.953291660408235" id="-4778">
		<tag k="historic" v="shieling" />
		<tag k="name" v="Liastølen" />
		<tag k="place" v="isolated_dwelling" />
		<tag k="ssr:stedsnr" v="593360" />
	</node>
	<node lat="59.33560555850617" lon="5.975063893862714" id="-4790">
		<tag k="name" v="Nygård" />
		<tag k="place" v="farm" />
		<tag k="ssr:stedsnr" v="600366" />
	</node>
	<node lat="59.39516944425912" lon="6.297672214968833" id="-4792">
		<tag k="name" v="Bøen" />
		<tag k="place" v="farm" />
		<tag k="ssr:stedsnr" v="600368" />
	</node>
	<node lat="59.544650261313826" lon="6.355475064224929" id="-4800">
		<tag k="name" v="Ytre Vanvik" />
		<tag k="place" v="farm" />
		<tag k="ssr:stedsnr" v="600758" />
	</node>
	<node lat="59.548141665161666" lon="6.4627055549947015" id="-4814">
		<tag k="name" v="Sagjo" />
		<tag k="place" v="locality" />
		<tag k="ssr:stedsnr" v="605116" />
	</node>
	<node lat="59.696686107357884" lon="6.740880558110518" id="-4837">
		<tag k="name" v="Plasset" />
		<tag k="place" v="locality" />
		<tag k="ssr:stedsnr" v="606962" />
	</node>
	<node lat="59.431633336740994" lon="6.052180552397635" id="-4848">
		<tag k="name" v="Solbakk" />
		<tag k="place" v="farm" />
		<tag k="ssr:stedsnr" v="608353" />
	</node>
	<node lat="59.43524228792925" lon="6.1213052139739" id="-4849">
		<tag k="name" v="Øvrabø" />
		<tag k="place" v="farm" />
		<tag k="ssr:stedsnr" v="608358" />
	</node>
	<node lat="59.42427777767693" lon="6.2594638975680335" id="-4852">
		<tag k="name" v="Vasstøl" />
		<tag k="place" v="locality" />
		<tag k="ssr:stedsnr" v="608825" />
	</node>
	<node lat="59.45717017413264" lon="6.410867356494539" id="-4854">
		<tag k="name" v="Herabakka" />
		<tag k="place" v="farm" />
		<tag k="ssr:stedsnr" v="608749" />
	</node>
	<node lat="59.47238055749111" lon="6.651216660860138" id="-4860">
		<tag k="historic" v="shieling" />
		<tag k="name" v="Bukvelven" />
		<tag k="place" v="isolated_dwelling" />
		<tag k="ssr:stedsnr" v="609008" />
	</node>
	<node lat="59.505666331171184" lon="6.565877978454584" id="-4868">
		<tag k="name" v="Kolbeinstveit" />
		<tag k="place" v="farm" />
		<tag k="ssr:stedsnr" v="609153" />
	</node>
	<node lat="59.40292500178468" lon="6.180349993049049" id="-4870">
		<tag k="alt_name" v="Grave" />
		<tag k="name" v="Grava" />
		<tag k="place" v="farm" />
		<tag k="ssr:stedsnr" v="609407" />
	</node>
	<node lat="59.35914999795677" lon="5.959424991391212" id="-4871">
		<tag k="name" v="Prestastova" />
		<tag k="place" v="farm" />
		<tag k="ssr:stedsnr" v="609449" />
	</node>
	<node lat="59.323274997666246" lon="6.102599994099578" id="-4875">
		<tag k="alt_name" v="Udlestad" />
		<tag k="name" v="Ullestad" />
		<tag k="place" v="farm" />
		<tag k="ssr:stedsnr" v="609494" />
	</node>
	<node lat="59.51624444760818" lon="6.72589444317446" id="-4879">
		<tag k="historic" v="shieling" />
		<tag k="name" v="Eivindsstølen" />
		<tag k="place" v="isolated_dwelling" />
		<tag k="ssr:stedsnr" v="609400" />
	</node>
	<node lat="59.37885185970514" lon="6.4516906250089825" id="-4888">
		<tag k="name" v="Hjorteland" />
		<tag k="place" v="farm" />
		<tag k="ssr:stedsnr" v="609849" />
	</node>
	<node lat="59.379888887524" lon="6.523411119752071" id="-4891">
		<tag k="alt_name" v="Rabbane" />
		<tag k="name" v="Moen" />
		<tag k="place" v="farm" />
		<tag k="ssr:stedsnr" v="609788" />
	</node>
	<node lat="59.37549166269881" lon="6.419350007013123" id="-4892">
		<tag k="historic" v="shieling" />
		<tag k="name" v="Buhaugstølen" />
		<tag k="place" v="isolated_dwelling" />
		<tag k="ssr:stedsnr" v="609789" />
	</node>
	<node lat="59.53961111295795" lon="6.5122249968328605" id="-4900">
		<tag k="alt_name" v="Liastølen" />
		<tag k="historic" v="shieling" />
		<tag k="name" v="Liastøl" />
		<tag k="place" v="isolated_dwelling" />
		<tag k="ssr:stedsnr" v="610185" />
	</node>
	<node lat="59.63621666590587" lon="6.884100002311233" id="-4902">
		<tag k="historic" v="shieling" />
		<tag k="name" v="Gamlestølen" />
		<tag k="place" v="isolated_dwelling" />
		<tag k="ssr:stedsnr" v="688903" />
	</node>
	<node lat="59.457852774031934" lon="6.3346916674869025" id="-4918">
		<tag k="name" v="Kvamen" />
		<tag k="place" v="farm" />
		<tag k="ssr:stedsnr" v="658294" />
	</node>
	<node lat="59.39311666307211" lon="5.996452780032417" id="-4921">
		<tag k="name" v="Myraskar" />
		<tag k="place" v="farm" />
		<tag k="ssr:stedsnr" v="661736" />
	</node>
	<node lat="59.48558055158883" lon="6.513822223330273" id="-4954">
		<tag k="name" v="Teien" />
		<tag k="place" v="farm" />
		<tag k="ssr:stedsnr" v="666753" />
	</node>
	<node lat="59.46744721805566" lon="6.6099333264589735" id="-4971">
		<tag k="historic" v="shieling" />
		<tag k="name" v="Væting" />
		<tag k="place" v="isolated_dwelling" />
		<tag k="ssr:stedsnr" v="669002" />
	</node>
	<node lat="59.396771318167396" lon="6.198558311639684" id="-4973">
		<tag k="name" v="Kolstø" />
		<tag k="place" v="farm" />
		<tag k="ssr:stedsnr" v="669441" />
	</node>
	<node lat="59.42767499732454" lon="6.037374996540771" id="-4976">
		<tag k="name" v="Kleppa" />
		<tag k="place" v="farm" />
		<tag k="ssr:stedsnr" v="669339" />
	</node>
	<node lat="59.356346554691484" lon="6.111509647601763" id="-4979">
		<tag k="name" v="Økstra" />
		<tag k="place" v="farm" />
		<tag k="ssr:stedsnr" v="669505" />
	</node>
	<node lat="59.3595250014857" lon="6.200225005690806" id="-4980">
		<tag k="name" v="Vikestrand" />
		<tag k="place" v="farm" />
		<tag k="ssr:stedsnr" v="669506" />
	</node>
	<node lat="59.48225555428249" lon="6.386086117493741" id="-4983">
		<tag k="historic" v="shieling" />
		<tag k="name" v="Raudafjellstølen" />
		<tag k="place" v="isolated_dwelling" />
		<tag k="ssr:stedsnr" v="669639" />
	</node>
	<node lat="59.48535035393785" lon="6.5391406441577695" id="-4984">
		<tag k="name" v="Berge" />
		<tag k="place" v="farm" />
		<tag k="ssr:stedsnr" v="669640" />
	</node>
	<node lat="59.48002777826127" lon="6.4589666696767605" id="-4985">
		<tag k="name" v="Lindum" />
		<tag k="place" v="farm" />
		<tag k="ssr:stedsnr" v="669641" />
	</node>
	<node lat="59.473727777506" lon="6.520111110753009" id="-4987">
		<tag k="historic" v="shieling" />
		<tag k="name" v="Hiås" />
		<tag k="place" v="isolated_dwelling" />
		<tag k="ssr:stedsnr" v="669733" />
	</node>
	<node lat="59.57126683967749" lon="6.658820356437202" id="-4995">
		<tag k="name" v="Våge" />
		<tag k="place" v="farm" />
		<tag k="ssr:stedsnr" v="670082" />
	</node>
	<node lat="59.59271666566923" lon="6.659866658477676" id="-5000">
		<tag k="historic" v="shieling" />
		<tag k="name" v="Djupadal" />
		<tag k="place" v="isolated_dwelling" />
		<tag k="ssr:stedsnr" v="670115" />
	</node>
	<node lat="59.532863889136145" lon="6.544225001449514" id="-5001">
		<tag k="alt_name" v="Tveita Vasstøl" />
		<tag k="historic" v="shieling" />
		<tag k="name" v="Vasstøl" />
		<tag k="place" v="isolated_dwelling" />
		<tag k="ssr:stedsnr" v="670185" />
	</node>
	<node lat="59.44989939615597" lon="6.030652656683196" id="-5005">
		<tag k="name" v="Finnvik" />
		<tag k="place" v="farm" />
		<tag k="ssr:stedsnr" v="670326" />
	</node>
	<node lat="59.32652499679414" lon="6.181224998205628" id="-5008">
		<tag k="alt_name" v="Hajen" />
		<tag k="name" v="Hagen" />
		<tag k="place" v="farm" />
		<tag k="ssr:stedsnr" v="670483" />
	</node>
	<node lat="59.39789722255933" lon="6.013316670952694" id="-5010">
		<tag k="alt_name" v="Hauen" />
		<tag k="name" v="Haugen" />
		<tag k="place" v="farm" />
		<tag k="ssr:stedsnr" v="670386" />
	</node>
	<node lat="59.73710833424841" lon="7.033555549638779" id="-5011">
		<tag k="historic" v="shieling" />
		<tag k="name" v="Jensafita" />
		<tag k="old_name" v="Jensafet" />
		<tag k="place" v="isolated_dwelling" />
		<tag k="ssr:stedsnr" v="670391" />
	</node>
	<node lat="59.38923759445205" lon="5.989759823973039" id="-5012">
		<tag k="alt_name" v="Mehus" />
		<tag k="name" v="Medhus" />
		<tag k="place" v="farm" />
		<tag k="ssr:stedsnr" v="670397" />
	</node>
	<node lat="59.34379483351543" lon="6.215376277881695" id="-5013">
		<tag k="name" v="Erfjord" />
		<tag k="place" v="farm" />
		<tag k="ssr:stedsnr" v="670504" />
	</node>
	<node lat="59.45494999751512" lon="6.500661118546746" id="-5020">
		<tag k="historic" v="shieling" />
		<tag k="name" v="Nyastølen" />
		<tag k="place" v="isolated_dwelling" />
		<tag k="ssr:stedsnr" v="670700" />
	</node>
	<node lat="59.37439859112497" lon="6.432850082797118" id="-5021">
		<tag k="name" v="Fjellberg" />
		<tag k="place" v="farm" />
		<tag k="ssr:stedsnr" v="670806" />
	</node>
	<node lat="59.524606240991346" lon="6.199464054122427" id="-5024">
		<tag k="name" v="Tysseland" />
		<tag k="place" v="farm" />
		<tag k="ssr:stedsnr" v="670883" />
	</node>
	<node lat="59.35265284033789" lon="6.236342597689743" id="-5027">
		<tag k="name" v="Håland" />
		<tag k="place" v="farm" />
		<tag k="ssr:stedsnr" v="670925" />
	</node>
	<node lat="59.64898069941375" lon="6.92422441423748" id="-5030">
		<tag k="name" v="Bleskestad" />
		<tag k="place" v="farm" />
		<tag k="ssr:stedsnr" v="671010" />
	</node>
	<node lat="59.688966667999935" lon="6.81742500148593" id="-5032">
		<tag k="name" v="Nedstastølen" />
		<tag k="place" v="locality" />
		<tag k="ssr:stedsnr" v="671212" />
	</node>
	<node lat="59.681802779421744" lon="6.690083340440905" id="-5034">
		<tag k="historic" v="shieling" />
		<tag k="name" v="Slettedalen" />
		<tag k="place" v="isolated_dwelling" />
		<tag k="ssr:stedsnr" v="671218" />
	</node>
	<node lat="59.693661113712515" lon="6.789291667352201" id="-5035">
		<tag k="historic" v="shieling" />
		<tag k="name" v="Nyestølen" />
		<tag k="place" v="isolated_dwelling" />
		<tag k="ssr:stedsnr" v="671188" />
	</node>
	<node lat="59.69617778007264" lon="6.990016663148827" id="-5047">
		<tag k="fixme" v="consider tourism=alpine_hut or tourism=chalet" />
		<tag k="name" v="Kvanndalen" />
		<tag k="old_name" v="Kvanndalshytta" />
		<tag k="ssr:stedsnr" v="695803" />
		<tag k="tourism" v="wilderness_hut" />
	</node>
	<node lat="59.35755000426962" lon="6.110969440577322" id="-5058">
		<tag k="name" v="Tre" />
		<tag k="place" v="farm" />
		<tag k="ssr:stedsnr" v="722004" />
	</node>
	<node lat="59.4222583298788" lon="6.039666672012626" id="-5068">
		<tag k="name" v="Heggjaflot" />
		<tag k="place" v="farm" />
		<tag k="ssr:stedsnr" v="722812" />
	</node>
	<node lat="59.51734722123762" lon="6.399250001933734" id="-5081">
		<tag k="name" v="Nedre Tveitane" />
		<tag k="place" v="farm" />
		<tag k="ssr:stedsnr" v="727127" />
	</node>
	<node lat="59.37785277684688" lon="6.503949992361723" id="-5089">
		<tag k="name" v="Kalhus" />
		<tag k="place" v="farm" />
		<tag k="ssr:stedsnr" v="727290" />
	</node>
	<node lat="59.4826388919779" lon="6.490072221148959" id="-5105">
		<tag k="name" v="Runnane" />
		<tag k="place" v="farm" />
		<tag k="ssr:stedsnr" v="727992" />
	</node>
	<node lat="59.41954999988407" lon="6.030380549295365" id="-5124">
		<tag k="name" v="Reppsbygda" />
		<tag k="place" v="quarter" />
		<tag k="ssr:stedsnr" v="730376" />
	</node>
	<node lat="59.41165000400128" lon="6.07330000386604" id="-5125">
		<tag k="alt_name" v="Fredheim" />
		<tag k="name" v="Bakkane" />
		<tag k="place" v="farm" />
		<tag k="ssr:stedsnr" v="730388" />
	</node>
	<node lat="59.38046388609085" lon="5.9975555516862915" id="-5128">
		<tag k="name" v="Tveitasjøen" />
		<tag k="place" v="quarter" />
		<tag k="ssr:stedsnr" v="730474" />
	</node>
	<node lat="59.46198254062249" lon="6.416587433781618" id="-5132">
		<tag k="name" v="Mo" />
		<tag k="place" v="farm" />
		<tag k="ssr:stedsnr" v="730768" />
	</node>
	<node lat="59.39443351107366" lon="6.295791804424846" id="-5135">
		<tag k="alt_name" v="Haugsland" />
		<tag k="name" v="Hausland" />
		<tag k="place" v="farm" />
		<tag k="ssr:stedsnr" v="730806" />
	</node>
	<node lat="59.62644444622558" lon="6.722877771255007" id="-5141">
		<tag k="historic" v="shieling" />
		<tag k="name" v="Vasstølen" />
		<tag k="place" v="isolated_dwelling" />
		<tag k="ssr:stedsnr" v="731012" />
	</node>
	<node lat="59.634352775064855" lon="6.801730549105427" id="-5143">
		<tag k="name" v="Baksmett" />
		<tag k="place" v="farm" />
		<tag k="ssr:stedsnr" v="731016" />
	</node>
	<node lat="59.61610555564683" lon="6.606927782109143" id="-5144">
		<tag k="historic" v="shieling" />
		<tag k="name" v="Fidjane" />
		<tag k="place" v="isolated_dwelling" />
		<tag k="ssr:stedsnr" v="731018" />
	</node>
	<node lat="59.550516662921666" lon="6.596719451922065" id="-5146">
		<tag k="historic" v="shieling" />
		<tag k="name" v="Vasstølen" />
		<tag k="place" v="isolated_dwelling" />
		<tag k="ssr:stedsnr" v="731066" />
	</node>
	<node lat="59.504627779990884" lon="6.322411112367146" id="-5147">
		<tag k="alt_name" v="Hedlandsstølen" />
		<tag k="historic" v="shieling" />
		<tag k="name" v="Hellandsstølen" />
		<tag k="place" v="isolated_dwelling" />
		<tag k="ssr:stedsnr" v="731110" />
	</node>
	<node lat="59.51697150499016" lon="6.400489824838533" id="-5148">
		<tag k="name" v="Tveitane" />
		<tag k="place" v="farm" />
		<tag k="ssr:stedsnr" v="731114" />
	</node>
	<node lat="59.49433333026256" lon="6.3308777845005" id="-5157">
		<tag k="alt_name" v="Hanakamstølen" />
		<tag k="historic" v="shieling" />
		<tag k="name" v="Hanakamsstølen" />
		<tag k="place" v="isolated_dwelling" />
		<tag k="ssr:stedsnr" v="731628" />
	</node>
	<node lat="59.59258610863513" lon="6.578636115970296" id="-5163">
		<tag k="name" v="Steinbu" />
		<tag k="place" v="isolated_dwelling" />
		<tag k="ssr:stedsnr" v="731820" />
	</node>
	<node lat="59.48450555378969" lon="6.2050194420870906" id="-5170">
		<tag k="name" v="Holmen" />
		<tag k="place" v="isolated_dwelling" />
		<tag k="ssr:stedsnr" v="891587" />
	</node>
	<node lat="59.41194444336287" lon="6.019658341244417" id="-5206">
		<tag k="name" v="Fosse" />
		<tag k="place" v="locality" />
		<tag k="ssr:stedsnr" v="782762" />
	</node>
	<node lat="59.53019444443068" lon="6.276147219738173" id="-5218">
		<tag k="name" v="Sellandsøyna" />
		<tag k="place" v="isolated_dwelling" />
		<tag k="ssr:stedsnr" v="785155" />
	</node>
	<node lat="59.366437591153485" lon="6.189465005591778" id="-5253">
		<tag k="name" v="Føljesvoll" />
		<tag k="place" v="farm" />
		<tag k="ssr:stedsnr" v="791454" />
	</node>
	<node lat="59.46612238439839" lon="6.128342388206005" id="-5255">
		<tag k="name" v="Ersdalen" />
		<tag k="place" v="farm" />
		<tag k="ssr:stedsnr" v="791310" />
	</node>
	<node lat="59.32395894233469" lon="6.1098557987394475" id="-5265">
		<tag k="name" v="Fuglastein" />
		<tag k="place" v="farm" />
		<tag k="ssr:stedsnr" v="791511" />
	</node>
	<node lat="59.3411168178101" lon="6.034051220217112" id="-5268">
		<tag k="alt_name" v="Bergje;Prestagarden" />
		<tag k="name" v="Berget" />
		<tag k="place" v="farm" />
		<tag k="ssr:stedsnr" v="791520" />
	</node>
	<node lat="59.39683333572702" lon="6.445188884536468" id="-5274">
		<tag k="alt_name" v="Hedlebrekk" />
		<tag k="historic" v="shieling" />
		<tag k="name" v="Hellebrekk" />
		<tag k="place" v="isolated_dwelling" />
		<tag k="ssr:stedsnr" v="791848" />
	</node>
	<node lat="59.47127777835912" lon="6.540080560338419" id="-5277">
		<tag k="historic" v="shieling" />
		<tag k="name" v="Brunabrekk" />
		<tag k="place" v="isolated_dwelling" />
		<tag k="ssr:stedsnr" v="791727" />
	</node>
	<node lat="59.46749963269957" lon="6.435224236090434" id="-5278">
		<tag k="name" v="Galland" />
		<tag k="place" v="farm" />
		<tag k="ssr:stedsnr" v="791736" />
	</node>
	<node lat="59.47086944580675" lon="6.516136111144925" id="-5279">
		<tag k="alt_name" v="Bidling" />
		<tag k="historic" v="shieling" />
		<tag k="name" v="Billing" />
		<tag k="place" v="isolated_dwelling" />
		<tag k="ssr:stedsnr" v="791739" />
	</node>
	<node lat="59.674599997189276" lon="6.7838000052834975" id="-5286">
		<tag k="historic" v="shieling" />
		<tag k="name" v="Storedalen" />
		<tag k="place" v="isolated_dwelling" />
		<tag k="ssr:stedsnr" v="792205" />
	</node>
	<node lat="59.59258011093489" lon="6.795103965786877" id="-5289">
		<tag k="name" v="Guggedal" />
		<tag k="place" v="farm" />
		<tag k="ssr:stedsnr" v="792116" />
	</node>
	<node lat="59.589313891541984" lon="6.480169442659848" id="-5298">
		<tag k="historic" v="shieling" />
		<tag k="name" v="Tengesdalsstølen" />
		<tag k="place" v="isolated_dwelling" />
		<tag k="ssr:stedsnr" v="792805" />
	</node>
	<node lat="59.41293611443098" lon="6.072511118936673" id="-5302">
		<tag k="name" v="Martahaugen" />
		<tag k="place" v="farm" />
		<tag k="ssr:stedsnr" v="795607" />
	</node>
	<node lat="59.43486944239451" lon="6.125066658385235" id="-5311">
		<tag k="name" v="Bøen" />
		<tag k="place" v="farm" />
		<tag k="ssr:stedsnr" v="904125" />
	</node>
	<node lat="59.333991668458275" lon="6.186113880430121" id="-5319">
		<tag k="name" v="Holmestrand" />
		<tag k="place" v="farm" />
		<tag k="ssr:stedsnr" v="904268" />
	</node>
	<node lat="59.4808833331416" lon="6.266961108353127" id="-5324">
		<tag k="name" v="Sandholmen" />
		<tag k="place" v="farm" />
		<tag k="ssr:stedsnr" v="904468" />
	</node>
	<node lat="59.3837416659607" lon="6.013927775056006" id="-5329">
		<tag k="name" v="Bjødnavågen" />
		<tag k="place" v="farm" />
		<tag k="ssr:stedsnr" v="904734" />
	</node>
	<node lat="59.39228055139188" lon="6.009372218864189" id="-5330">
		<tag k="alt_name" v="Sjubbehola" />
		<tag k="historic" v="shieling" />
		<tag k="name" v="Sjøbuhola" />
		<tag k="place" v="isolated_dwelling" />
		<tag k="ssr:stedsnr" v="904741" />
	</node>
	<node lat="59.56095272177636" lon="6.859037904701316" id="-5361">
		<tag k="fixme" v="consider tourism=alpine_hut or tourism=chalet" />
		<tag k="name" v="Jonstølen" />
		<tag k="ssr:stedsnr" v="829970" />
		<tag k="tourism" v="wilderness_hut" />
	</node>
	<node lat="59.50478611443182" lon="6.544186114028456" id="-5385">
		<tag k="name" v="Vikane" />
		<tag k="place" v="farm" />
		<tag k="ssr:stedsnr" v="909744" />
	</node>
	<node lat="59.58343611011071" lon="6.677822222331953" id="-5457">
		<tag k="name" v="Tufto" />
		<tag k="place" v="farm" />
		<tag k="ssr:stedsnr" v="848633" />
	</node>
	<node lat="59.50311110831977" lon="6.536230550466964" id="-5492">
		<tag k="name" v="Dalane" />
		<tag k="place" v="farm" />
		<tag k="ssr:stedsnr" v="849777" />
	</node>
	<node lat="59.49094722180849" lon="6.446897213923151" id="-5497">
		<tag k="name" v="Steine" />
		<tag k="place" v="farm" />
		<tag k="ssr:stedsnr" v="849910" />
	</node>
	<node lat="59.47627989024024" lon="6.280307030216021" id="-5506">
		<tag k="alt_name" v="Hauge" />
		<tag k="name" v="Hauga" />
		<tag k="place" v="farm" />
		<tag k="ssr:stedsnr" v="912656" />
	</node>
	<node lat="59.47720009422644" lon="6.294519560054969" id="-5507">
		<tag k="name" v="Mo" />
		<tag k="place" v="farm" />
		<tag k="ssr:stedsnr" v="912662" />
	</node>
	<node lat="59.49305000266033" lon="6.519211107364333" id="-5508">
		<tag k="name" v="Suldalsosen" />
		<tag k="place" v="village" />
		<tag k="ssr:stedsnr" v="912671" />
	</node>
	<node lat="59.4572694431474" lon="6.33696111861566" id="-5509">
		<tag k="name" v="Kvamen" />
		<tag k="place" v="farm" />
		<tag k="ssr:stedsnr" v="912734" />
	</node>
	<node lat="59.4002111136675" lon="6.420444444623248" id="-5514">
		<tag k="alt_name" v="Vassvikane" />
		<tag k="historic" v="shieling" />
		<tag k="name" v="Vassvik" />
		<tag k="place" v="isolated_dwelling" />
		<tag k="ssr:stedsnr" v="912861" />
	</node>
	<node lat="59.657699997159824" lon="6.927563896727808" id="-5521">
		<tag k="name" v="Øvrabø" />
		<tag k="place" v="farm" />
		<tag k="ssr:stedsnr" v="913058" />
	</node>
	<node lat="59.33517500432911" lon="6.040824996279471" id="-5539">
		<tag k="name" v="Randiflota" />
		<tag k="place" v="farm" />
		<tag k="ssr:stedsnr" v="852530" />
	</node>
	<node lat="59.335600001599865" lon="6.026774998457376" id="-5540">
		<tag k="name" v="Sørnes" />
		<tag k="place" v="farm" />
		<tag k="ssr:stedsnr" v="852531" />
	</node>
	<node lat="59.39117060051884" lon="5.993096906887745" id="-5543">
		<tag k="name" v="Bjørklund" />
		<tag k="place" v="farm" />
		<tag k="ssr:stedsnr" v="852409" />
	</node>
	<node lat="59.38354275163987" lon="6.0824189162557305" id="-5546">
		<tag k="alt_name" v="Høyvik, yt" />
		<tag k="name" v="Ytre Høyvik" />
		<tag k="place" v="farm" />
		<tag k="ssr:stedsnr" v="852438" />
	</node>
	<node lat="59.36472499608202" lon="6.195250003938205" id="-5549">
		<tag k="name" v="Bøen" />
		<tag k="place" v="farm" />
		<tag k="ssr:stedsnr" v="852466" />
	</node>
	<node lat="59.44103333733052" lon="6.361802771542697" id="-5555">
		<tag k="historic" v="shieling" />
		<tag k="name" v="Kotli" />
		<tag k="place" v="isolated_dwelling" />
		<tag k="ssr:stedsnr" v="852669" />
	</node>
	<node lat="59.43960103687435" lon="6.235324187745436" id="-5558">
		<tag k="alt_name" v="Ersdal" />
		<tag k="name" v="Ersdalen" />
		<tag k="place" v="farm" />
		<tag k="ssr:stedsnr" v="852679" />
	</node>
	<node lat="59.45693333262837" lon="6.511899994178816" id="-5559">
		<tag k="alt_name" v="Foredalen" />
		<tag k="historic" v="shieling" />
		<tag k="name" v="Furedalen" />
		<tag k="place" v="isolated_dwelling" />
		<tag k="ssr:stedsnr" v="852681" />
	</node>
	<node lat="59.36886388736574" lon="6.254786108614705" id="-5560">
		<tag k="name" v="Karidalen" />
		<tag k="place" v="locality" />
		<tag k="ssr:stedsnr" v="852804" />
	</node>
	<node lat="59.36336666871461" lon="6.283863889857437" id="-5561">
		<tag k="name" v="Maribu" />
		<tag k="place" v="farm" />
		<tag k="ssr:stedsnr" v="852807" />
	</node>
	<node lat="59.35674999892125" lon="6.363105550765239" id="-5563">
		<tag k="historic" v="shieling" />
		<tag k="name" v="Erøystølen" />
		<tag k="place" v="isolated_dwelling" />
		<tag k="ssr:stedsnr" v="852818" />
	</node>
	<node lat="59.36084444208368" lon="6.334505558376797" id="-5564">
		<tag k="name" v="Randistova" />
		<tag k="place" v="isolated_dwelling" />
		<tag k="ssr:stedsnr" v="852820" />
	</node>
	<node lat="59.378636685361286" lon="6.307150191927729" id="-5566">
		<tag k="alt_name" v="Helgaland" />
		<tag k="name" v="Helgeland" />
		<tag k="place" v="farm" />
		<tag k="ssr:stedsnr" v="852863" />
	</node>
	<node lat="59.5496250003168" lon="6.632124992319439" id="-5568">
		<tag k="historic" v="shieling" />
		<tag k="name" v="Liastølen" />
		<tag k="place" v="isolated_dwelling" />
		<tag k="ssr:stedsnr" v="913085" />
	</node>
	<node lat="59.42395000319311" lon="6.275958327435562" id="-5574">
		<tag k="name" v="Reisgil" />
		<tag k="place" v="locality" />
		<tag k="ssr:stedsnr" v="852763" />
	</node>
	<node lat="59.42227777339473" lon="6.46450000399228" id="-5575">
		<tag k="historic" v="shieling" />
		<tag k="name" v="Nyastølen" />
		<tag k="place" v="isolated_dwelling" />
		<tag k="ssr:stedsnr" v="852781" />
	</node>
	<node lat="59.522991871865194" lon="6.250946553856047" id="-5577">
		<tag k="alt_name" v="Røyrvik" />
		<tag k="name" v="Røyrvika" />
		<tag k="place" v="farm" />
		<tag k="ssr:stedsnr" v="913169" />
	</node>
	<node lat="59.63382500203416" lon="6.726866671085498" id="-5581">
		<tag k="name" v="Fossastølen" />
		<tag k="place" v="locality" />
		<tag k="ssr:stedsnr" v="853012" />
	</node>
	<node lat="59.61934444787325" lon="6.60632499631302" id="-5582">
		<tag k="historic" v="shieling" />
		<tag k="name" v="Moen" />
		<tag k="place" v="isolated_dwelling" />
		<tag k="ssr:stedsnr" v="853021" />
	</node>
	<node lat="59.616008336287884" lon="6.774841662674249" id="-5585">
		<tag k="name" v="Bismarevika" />
		<tag k="place" v="locality" />
		<tag k="ssr:stedsnr" v="853078" />
	</node>
	<node lat="59.51490000424501" lon="6.638780561312457" id="-5594">
		<tag k="name" v="Lofthus" />
		<tag k="place" v="farm" />
		<tag k="ssr:stedsnr" v="853427" />
	</node>
	<node lat="59.661544440503924" lon="7.00695000413191" id="-5597">
		<tag k="historic" v="shieling" />
		<tag k="name" v="Fita" />
		<tag k="place" v="isolated_dwelling" />
		<tag k="ssr:stedsnr" v="853465" />
	</node>
	<node lat="59.69839352298202" lon="6.995838385509758" id="-5598">
		<tag k="historic" v="shieling" />
		<tag k="name" v="Fossaslåtta" />
		<tag k="place" v="isolated_dwelling" />
		<tag k="ssr:stedsnr" v="853480" />
	</node>
	<node lat="59.45165000034523" lon="6.042700001654865" id="-5600">
		<tag k="alt_name" v="Bærvik" />
		<tag k="name" v="Bardvika" />
		<tag k="place" v="farm" />
		<tag k="ssr:stedsnr" v="913325" />
	</node>
	<node lat="59.39157499845963" lon="6.082574998041468" id="-5609">
		<tag k="name" v="Hamnen" />
		<tag k="place" v="locality" />
		<tag k="ssr:stedsnr" v="913418" />
	</node>
	<node lat="59.68983611490735" lon="7.102547222618276" id="-5611">
		<tag k="name" v="Naustdalen" />
		<tag k="place" v="locality" />
		<tag k="ssr:stedsnr" v="913461" />
	</node>
	<node lat="59.339272158904514" lon="6.214190802594838" id="-5614">
		<tag k="alt_name" v="Erøy" />
		<tag k="name" v="Erøyna" />
		<tag k="place" v="farm" />
		<tag k="ssr:stedsnr" v="913481" />
	</node>
	<node lat="59.417505557209324" lon="6.42683055478237" id="-5623">
		<tag k="historic" v="shieling" />
		<tag k="name" v="Rota" />
		<tag k="place" v="isolated_dwelling" />
		<tag k="ssr:stedsnr" v="913730" />
	</node>
	<node lat="59.54027739003936" lon="6.258678275876194" id="-5628">
		<tag k="name" v="Ås" />
		<tag k="place" v="farm" />
		<tag k="ssr:stedsnr" v="914163" />
	</node>
	<node lat="59.55007899941548" lon="6.401682548094065" id="-5631">
		<tag k="alt_name" v="Bjerga, yt;Ytra Bjerga" />
		<tag k="name" v="Ytre Bjerga" />
		<tag k="place" v="farm" />
		<tag k="ssr:stedsnr" v="914175" />
	</node>
	<node lat="59.336111115591535" lon="5.968969446311943" id="-5650">
		<tag k="name" v="Vestbø" />
		<tag k="place" v="farm" />
		<tag k="ssr:stedsnr" v="904374" />
	</node>
	<node lat="59.42779166558291" lon="6.050363896574752" id="-5665">
		<tag k="name" v="Solhaug" />
		<tag k="place" v="farm" />
		<tag k="ssr:stedsnr" v="906183" />
	</node>
	<node lat="59.41767222655275" lon="6.6176222279126575" id="-5703">
		<tag k="historic" v="shieling" />
		<tag k="name" v="Osane" />
		<tag k="place" v="isolated_dwelling" />
		<tag k="ssr:stedsnr" v="912210" />
	</node>
	<node lat="59.35644999906482" lon="5.956199994488895" id="-5708">
		<tag k="name" v="Nedrebøen" />
		<tag k="place" v="farm" />
		<tag k="ssr:stedsnr" v="912524" />
	</node>
	<node lat="59.347849998655015" lon="6.083549995418778" id="-5711">
		<tag k="name" v="Grønevika" />
		<tag k="place" v="farm" />
		<tag k="ssr:stedsnr" v="912590" />
	</node>
	<node lat="59.48145126197617" lon="6.443051006208315" id="-5716">
		<tag k="name" v="Steine" />
		<tag k="place" v="farm" />
		<tag k="ssr:stedsnr" v="912647" />
	</node>
	<node lat="59.47163951084402" lon="6.178410138754271" id="-5721">
		<tag k="alt_name" v="Drengsti" />
		<tag k="name" v="Drengstig" />
		<tag k="place" v="farm" />
		<tag k="ssr:stedsnr" v="913304" />
	</node>
	<node lat="59.601241666684096" lon="6.655411106914994" id="-5728">
		<tag k="historic" v="shieling" />
		<tag k="name" v="Tjørnastølen" />
		<tag k="place" v="isolated_dwelling" />
		<tag k="ssr:stedsnr" v="913096" />
	</node>
	<node lat="59.3772999999762" lon="6.121924996801698" id="-5729">
		<tag k="name" v="Kalvhagen" />
		<tag k="place" v="farm" />
		<tag k="ssr:stedsnr" v="913436" />
	</node>
	<node lat="59.50439999685777" lon="6.704955547222786" id="-5734">
		<tag k="historic" v="shieling" />
		<tag k="name" v="Nyastølen" />
		<tag k="place" v="isolated_dwelling" />
		<tag k="ssr:stedsnr" v="913391" />
	</node>
	<node lat="59.50006959094675" lon="6.636365458433094" id="-5736">
		<tag k="name" v="Slagstad" />
		<tag k="place" v="farm" />
		<tag k="ssr:stedsnr" v="913401" />
	</node>
	<node lat="59.689788889077256" lon="6.782386108743895" id="-5744">
		<tag k="historic" v="shieling" />
		<tag k="name" v="Breiastølen" />
		<tag k="place" v="isolated_dwelling" />
		<tag k="ssr:stedsnr" v="914195" />
	</node>
	<node lat="59.694349996718955" lon="6.817608325771644" id="-5745">
		<tag k="historic" v="shieling" />
		<tag k="name" v="Skitli" />
		<tag k="place" v="isolated_dwelling" />
		<tag k="ssr:stedsnr" v="914196" />
	</node>
	<node lat="59.68553888951849" lon="6.742194452955848" id="-5747">
		<tag k="historic" v="shieling" />
		<tag k="name" v="Flotastølen" />
		<tag k="place" v="isolated_dwelling" />
		<tag k="ssr:stedsnr" v="914239" />
	</node>
	<node lat="59.51115833075085" lon="6.637169442370415" id="-5748">
		<tag k="name" v="Bakken" />
		<tag k="place" v="farm" />
		<tag k="ssr:stedsnr" v="914416" />
	</node>
	<node lat="59.623169445583734" lon="6.817924991766724" id="-5753">
		<tag k="historic" v="shieling" />
		<tag k="name" v="Stålavikstølen" />
		<tag k="place" v="isolated_dwelling" />
		<tag k="ssr:stedsnr" v="931905" />
	</node>
	<node lat="59.5207666655889" lon="6.76951388431735" id="-5754">
		<tag k="historic" v="shieling" />
		<tag k="name" v="Øvre Botnen" />
		<tag k="place" v="isolated_dwelling" />
		<tag k="ssr:stedsnr" v="931940" />
	</node>
	<node lat="59.39295277776809" lon="6.019461106581633" id="-5774">
		<tag k="name" v="Klubben" />
		<tag k="place" v="locality" />
		<tag k="ssr:stedsnr" v="964730" />
	</node>
	<node lat="59.35479722178487" lon="6.243130560815495" id="-5780">
		<tag k="name" v="Træhaugen" />
		<tag k="place" v="farm" />
		<tag k="ssr:stedsnr" v="964918" />
	</node>
	<node lat="59.53328435815905" lon="6.300448368683594" id="-5792">
		<tag k="name" v="Austre Fattnes" />
		<tag k="place" v="farm" />
		<tag k="ssr:stedsnr" v="967793" />
	</node>
	<node lat="59.41762982415961" lon="5.923000025789794" id="-5902">
		<tag k="alt_name" v="Døskja" />
		<tag k="name" v="Dysja" />
		<tag k="place" v="farm" />
		<tag k="ssr:stedsnr" v="2386" />
	</node>
	<node lat="59.410246980805965" lon="6.017995463342756" id="-5903">
		<tag k="name" v="Kloppa" />
		<tag k="place" v="farm" />
		<tag k="ssr:stedsnr" v="2398" />
	</node>
	<node lat="59.40002500083157" lon="6.001600005807049" id="-5905">
		<tag k="name" v="Selvika" />
		<tag k="place" v="farm" />
		<tag k="ssr:stedsnr" v="2413" />
	</node>
	<node lat="59.40247184861693" lon="6.2179761518261625" id="-5912">
		<tag k="name" v="Rød" />
		<tag k="place" v="farm" />
		<tag k="ssr:stedsnr" v="2440" />
	</node>
	<node lat="59.38854999829365" lon="6.082025002457413" id="-5914">
		<tag k="name" v="Høyviktrædet" />
		<tag k="place" v="farm" />
		<tag k="ssr:stedsnr" v="2463" />
	</node>
	<node lat="59.48204664171951" lon="6.492954111053301" id="-5918">
		<tag k="name" v="Sørestad" />
		<tag k="place" v="farm" />
		<tag k="ssr:stedsnr" v="2650" />
	</node>
	<node lat="59.47756747765706" lon="6.3264358478618385" id="-5921">
		<tag k="name" v="Brommeland" />
		<tag k="place" v="farm" />
		<tag k="ssr:stedsnr" v="2659" />
	</node>
	<node lat="59.477883331233755" lon="6.576294441933269" id="-5924">
		<tag k="historic" v="shieling" />
		<tag k="name" v="Nyastølen" />
		<tag k="place" v="isolated_dwelling" />
		<tag k="ssr:stedsnr" v="2733" />
	</node>
	<node lat="59.43881944610459" lon="6.433291670927702" id="-5927">
		<tag k="alt_name" v="Brønnstøl" />
		<tag k="name" v="Brønnstølen" />
		<tag k="place" v="locality" />
		<tag k="ssr:stedsnr" v="2766" />
	</node>
	<node lat="59.33272499934188" lon="6.029174997270062" id="-5931">
		<tag k="name" v="Markusvika" />
		<tag k="place" v="farm" />
		<tag k="ssr:stedsnr" v="2555" />
	</node>
	<node lat="59.33404999956981" lon="6.086075005982115" id="-5932">
		<tag k="name" v="Nyvoll" />
		<tag k="place" v="farm" />
		<tag k="ssr:stedsnr" v="2559" />
	</node>
	<node lat="59.34220000291818" lon="6.196599992643571" id="-5933">
		<tag k="name" v="Austnes" />
		<tag k="place" v="farm" />
		<tag k="ssr:stedsnr" v="2563" />
	</node>
	<node lat="59.31300374650223" lon="6.298172935125703" id="-5934">
		<tag k="name" v="Kilane" />
		<tag k="place" v="farm" />
		<tag k="ssr:stedsnr" v="2969" />
	</node>
	<node lat="59.57447499763703" lon="6.849283342083588" id="-5939">
		<tag k="historic" v="shieling" />
		<tag k="name" v="Håvestølen" />
		<tag k="place" v="isolated_dwelling" />
		<tag k="ssr:stedsnr" v="3057" />
	</node>
	<node lat="59.575530552328146" lon="6.6329749954196595" id="-5940">
		<tag k="historic" v="shieling" />
		<tag k="name" v="Liastølen" />
		<tag k="place" v="isolated_dwelling" />
		<tag k="ssr:stedsnr" v="3059" />
	</node>
	<node lat="59.57665277676844" lon="6.651758340063167" id="-5941">
		<tag k="name" v="Larshaugane" />
		<tag k="place" v="locality" />
		<tag k="ssr:stedsnr" v="3062" />
	</node>
	<node lat="59.379855558426904" lon="6.540527769585573" id="-5951">
		<tag k="alt_name" v="Sveå" />
		<tag k="name" v="Svida" />
		<tag k="place" v="locality" />
		<tag k="ssr:stedsnr" v="2798" />
	</node>
	<node lat="59.32091915333587" lon="6.282102222855323" id="-5952">
		<tag k="name" v="Vågane" />
		<tag k="place" v="farm" />
		<tag k="ssr:stedsnr" v="2897" />
	</node>
	<node lat="59.555891663390256" lon="6.652300008136363" id="-5958">
		<tag k="name" v="Røsselia" />
		<tag k="place" v="isolated_dwelling" />
		<tag k="ssr:stedsnr" v="3076" />
	</node>
	<node lat="59.59847778251979" lon="6.707314278037287" id="-5961">
		<tag k="name" v="Austarå" />
		<tag k="place" v="farm" />
		<tag k="ssr:stedsnr" v="3092" />
	</node>
	<node lat="59.40129444184133" lon="6.319297213922868" id="-5997">
		<tag k="name" v="Rørtveittræ" />
		<tag k="place" v="isolated_dwelling" />
		<tag k="ssr:stedsnr" v="54509" />
	</node>
	<node lat="59.42007499657691" lon="6.036558336681359" id="-6010">
		<tag k="name" v="Torland" />
		<tag k="place" v="farm" />
		<tag k="ssr:stedsnr" v="54800" />
	</node>
	<node lat="59.342205556774445" lon="6.191186107825044" id="-6025">
		<tag k="name" v="Norheim" />
		<tag k="place" v="farm" />
		<tag k="ssr:stedsnr" v="55948" />
	</node>
	<node lat="59.373525002377406" lon="6.43430556354477" id="-6060">
		<tag k="name" v="Aunå" />
		<tag k="place" v="farm" />
		<tag k="ssr:stedsnr" v="60266" />
	</node>
	<node lat="59.50624999817007" lon="6.451130553811475" id="-6087">
		<tag k="historic" v="shieling" />
		<tag k="name" v="Lundastølen" />
		<tag k="place" v="isolated_dwelling" />
		<tag k="ssr:stedsnr" v="60930" />
	</node>
	<node lat="59.4889988295446" lon="6.6668137076287675" id="-6091">
		<tag k="historic" v="shieling" />
		<tag k="name" v="Liastølen" />
		<tag k="place" v="isolated_dwelling" />
		<tag k="ssr:stedsnr" v="63040" />
	</node>
	<node lat="59.42210622281157" lon="6.0316639568218715" id="-6100">
		<tag k="name" v="Vatland" />
		<tag k="place" v="farm" />
		<tag k="ssr:stedsnr" v="63393" />
	</node>
	<node lat="59.41259999582763" lon="6.085599998610125" id="-6102">
		<tag k="alt_name" v="Øygarden" />
		<tag k="name" v="Øydgarden" />
		<tag k="place" v="farm" />
		<tag k="ssr:stedsnr" v="63395" />
	</node>
	<node lat="59.40750823082363" lon="6.047926499205119" id="-6103">
		<tag k="alt_name" v="Kalvika" />
		<tag k="name" v="Kallvika" />
		<tag k="place" v="farm" />
		<tag k="ssr:stedsnr" v="63396" />
	</node>
	<node lat="59.38003888892165" lon="6.0071916691529905" id="-6105">
		<tag k="name" v="Flatabø" />
		<tag k="place" v="farm" />
		<tag k="ssr:stedsnr" v="63470" />
	</node>
	<node lat="59.3619500033717" lon="5.946100007352667" id="-6108">
		<tag k="alt_name" v="Legdå" />
		<tag k="name" v="Lægda" />
		<tag k="place" v="farm" />
		<tag k="ssr:stedsnr" v="63500" />
	</node>
	<node lat="59.470311430507174" lon="6.154674000767351" id="-6110">
		<tag k="alt_name" v="Andvik" />
		<tag k="name" v="Andvika" />
		<tag k="place" v="farm" />
		<tag k="ssr:stedsnr" v="63343" />
	</node>
	<node lat="59.44375021847633" lon="5.9625126891794284" id="-6112">
		<tag k="alt_name" v="Rødne, yt" />
		<tag k="name" v="Ytre Rødne" />
		<tag k="place" v="farm" />
		<tag k="ssr:stedsnr" v="63355" />
	</node>
	<node lat="59.32799847869303" lon="6.232440732710333" id="-6115">
		<tag k="alt_name" v="Ternnes" />
		<tag k="name" v="Tednes" />
		<tag k="place" v="farm" />
		<tag k="ssr:stedsnr" v="63871" />
	</node>
	<node lat="59.33671110742004" lon="5.965433342387056" id="-6118">
		<tag k="alt_name" v="Breidvika" />
		<tag k="name" v="Breivik" />
		<tag k="place" v="farm" />
		<tag k="ssr:stedsnr" v="63548" />
	</node>
	<node lat="59.336244445856636" lon="5.980513883136772" id="-6119">
		<tag k="name" v="Austbø" />
		<tag k="place" v="farm" />
		<tag k="ssr:stedsnr" v="63551" />
	</node>
	<node lat="59.48534444512172" lon="6.556330557286947" id="-6121">
		<tag k="name" v="Seltveit" />
		<tag k="place" v="locality" />
		<tag k="ssr:stedsnr" v="63629" />
	</node>
	<node lat="59.48143055192374" lon="6.573905549240062" id="-6122">
		<tag k="historic" v="shieling" />
		<tag k="name" v="Tjukkris" />
		<tag k="place" v="isolated_dwelling" />
		<tag k="ssr:stedsnr" v="63631" />
	</node>
	<node lat="59.47209645552121" lon="6.308735103804732" id="-6123">
		<tag k="alt_name" v="Hiim;Him" />
		<tag k="name" v="Heim" />
		<tag k="place" v="farm" />
		<tag k="ssr:stedsnr" v="63633" />
	</node>
	<node lat="59.47284999834642" lon="6.319891665875368" id="-6125">
		<tag k="name" v="Gjuvåsen" />
		<tag k="place" v="farm" />
		<tag k="ssr:stedsnr" v="63649" />
	</node>
	<node lat="59.45696368207031" lon="6.247307472915703" id="-6128">
		<tag k="name" v="Vela" />
		<tag k="place" v="farm" />
		<tag k="ssr:stedsnr" v="63723" />
	</node>
	<node lat="59.47000555579029" lon="6.4674166712417" id="-6129">
		<tag k="name" v="Vidberg" />
		<tag k="place" v="locality" />
		<tag k="ssr:stedsnr" v="63736" />
	</node>
	<node lat="59.41128055831494" lon="6.428713883616043" id="-6132">
		<tag k="historic" v="shieling" />
		<tag k="name" v="Krukenes" />
		<tag k="place" v="isolated_dwelling" />
		<tag k="ssr:stedsnr" v="63755" />
	</node>
	<node lat="59.52014999656744" lon="6.526263885931473" id="-6137">
		<tag k="alt_name" v="Fodnastøl" />
		<tag k="name" v="Fornastøl" />
		<tag k="place" v="locality" />
		<tag k="ssr:stedsnr" v="64119" />
	</node>
	<node lat="59.39497499834527" lon="6.561169448244221" id="-6142">
		<tag k="historic" v="shieling" />
		<tag k="name" v="Gamlestølen" />
		<tag k="place" v="isolated_dwelling" />
		<tag k="ssr:stedsnr" v="63856" />
	</node>
	<node lat="59.32646666301541" lon="6.258824998059394" id="-6147">
		<tag k="name" v="Åssjøen" />
		<tag k="place" v="farm" />
		<tag k="ssr:stedsnr" v="63892" />
	</node>
	<node lat="59.32786411815527" lon="6.264782888464888" id="-6148">
		<tag k="name" v="Ås" />
		<tag k="place" v="farm" />
		<tag k="ssr:stedsnr" v="63893" />
	</node>
	<node lat="59.667525002590686" lon="6.894286103230929" id="-6150">
		<tag k="historic" v="shieling" />
		<tag k="name" v="Gjo" />
		<tag k="place" v="isolated_dwelling" />
		<tag k="ssr:stedsnr" v="64041" />
	</node>
	<node lat="59.58323611256799" lon="6.554277784784624" id="-6157">
		<tag k="historic" v="shieling" />
		<tag k="name" v="Grimsstølen" />
		<tag k="old_name" v="Lingvangstøl" />
		<tag k="place" v="isolated_dwelling" />
		<tag k="ssr:stedsnr" v="64882" />
	</node>
	<node lat="59.46702130457154" lon="6.899675446903631" id="-6166">
		<tag k="fixme" v="consider tourism=alpine_hut or tourism=chalet" />
		<tag k="name" v="Krossvatn" />
		<tag k="ssr:stedsnr" v="85455" />
		<tag k="tourism" v="wilderness_hut" />
	</node>
	<node lat="59.36485277652068" lon="6.18762499856841" id="-6180">
		<tag k="name" v="Myrane" />
		<tag k="place" v="farm" />
		<tag k="ssr:stedsnr" v="115033" />
	</node>
	<node lat="59.40964722291407" lon="6.0805861108658865" id="-6207">
		<tag k="name" v="Osnes" />
		<tag k="place" v="farm" />
		<tag k="ssr:stedsnr" v="115545" />
	</node>
	<node lat="59.410161113980855" lon="6.026549992806374" id="-6215">
		<tag k="name" v="Sillali" />
		<tag k="place" v="farm" />
		<tag k="ssr:stedsnr" v="115761" />
	</node>
	<node lat="59.43489060571757" lon="6.212788411439261" id="-6263">
		<tag k="alt_name" v="Lovernes" />
		<tag k="name" v="Lovranes" />
		<tag k="place" v="farm" />
		<tag k="ssr:stedsnr" v="123381" />
	</node>
	<node lat="59.43197500006756" lon="6.12352499258917" id="-6264">
		<tag k="alt_name" v="Utlebøen" />
		<tag k="name" v="Utløbøen" />
		<tag k="place" v="farm" />
		<tag k="ssr:stedsnr" v="123387" />
	</node>
	<node lat="59.599777773208444" lon="6.645836102932734" id="-6271">
		<tag k="historic" v="shieling" />
		<tag k="name" v="Nyastølen" />
		<tag k="place" v="isolated_dwelling" />
		<tag k="ssr:stedsnr" v="124092" />
	</node>
	<node lat="59.42083478384528" lon="6.642640350002515" id="-6278">
		<tag k="historic" v="shieling" />
		<tag k="name" v="Lånene" />
		<tag k="place" v="isolated_dwelling" />
		<tag k="ssr:stedsnr" v="123235" />
	</node>
	<node lat="59.39586944666942" lon="6.017758336631465" id="-6280">
		<tag k="alt_name" v="Jektaberget" />
		<tag k="name" v="Jektaberg" />
		<tag k="place" v="farm" />
		<tag k="ssr:stedsnr" v="123443" />
	</node>
	<node lat="59.34956944343588" lon="6.070580559484788" id="-6290">
		<tag k="name" v="Nodland" />
		<tag k="place" v="farm" />
		<tag k="ssr:stedsnr" v="123597" />
	</node>
	<node lat="59.34309999701196" lon="6.081900002742375" id="-6291">
		<tag k="alt_name" v="Berga" />
		<tag k="name" v="Berge" />
		<tag k="place" v="farm" />
		<tag k="ssr:stedsnr" v="123599" />
	</node>
	<node lat="59.34585000243153" lon="6.104924992743412" id="-6292">
		<tag k="alt_name" v="Flådå" />
		<tag k="name" v="Flota" />
		<tag k="place" v="farm" />
		<tag k="ssr:stedsnr" v="123604" />
	</node>
	<node lat="59.35540555993441" lon="6.216702784685622" id="-6294">
		<tag k="name" v="Vik" />
		<tag k="place" v="village" />
		<tag k="ssr:stedsnr" v="123837" />
	</node>
	<node lat="59.38953778894806" lon="6.340702072692953" id="-6297">
		<tag k="alt_name" v="Natland" />
		<tag k="name" v="Nattland" />
		<tag k="place" v="farm" />
		<tag k="ssr:stedsnr" v="123865" />
	</node>
	<node lat="59.38858610968512" lon="6.257608333275512" id="-6298">
		<tag k="historic" v="shieling" />
		<tag k="name" v="Sørhusstølen" />
		<tag k="place" v="isolated_dwelling" />
		<tag k="ssr:stedsnr" v="123868" />
	</node>
	<node lat="59.675288888196555" lon="6.860694443027297" id="-6301">
		<tag k="historic" v="shieling" />
		<tag k="name" v="Oppigardssteinbu" />
		<tag k="place" v="isolated_dwelling" />
		<tag k="ssr:stedsnr" v="124033" />
	</node>
	<node lat="59.67636111216688" lon="6.924741665069822" id="-6303">
		<tag k="historic" v="shieling" />
		<tag k="name" v="Skithaug" />
		<tag k="place" v="isolated_dwelling" />
		<tag k="ssr:stedsnr" v="124040" />
	</node>
	<node lat="59.58648885008827" lon="6.686919446717567" id="-6305">
		<tag k="name" v="Mokleiv" />
		<tag k="place" v="farm" />
		<tag k="ssr:stedsnr" v="124105" />
	</node>
	<node lat="59.58622500280029" lon="6.801449998453037" id="-6306">
		<tag k="name" v="Svortebekk" />
		<tag k="place" v="locality" />
		<tag k="ssr:stedsnr" v="124108" />
	</node>
	<node lat="59.58042777573673" lon="6.61224444210464" id="-6307">
		<tag k="historic" v="shieling" />
		<tag k="name" v="Hellestølen" />
		<tag k="place" v="isolated_dwelling" />
		<tag k="ssr:stedsnr" v="124112" />
	</node>
	<node lat="59.37422967753435" lon="5.944233602654631" id="-6323">
		<tag k="alt_name" v="Askvika" />
		<tag k="name" v="Oskvika" />
		<tag k="place" v="farm" />
		<tag k="ssr:stedsnr" v="124396" />
	</node>
	<node lat="59.48803891317245" lon="6.484225650974735" id="-6329">
		<tag k="name" v="Kariåsen" />
		<tag k="place" v="farm" />
		<tag k="ssr:stedsnr" v="124593" />
	</node>
	<node lat="59.48467500073481" lon="6.251091658293659" id="-6333">
		<tag k="name" v="Sand" />
		<tag k="place" v="village" />
		<tag k="ssr:stedsnr" v="124611" />
	</node>
	<node lat="59.57531111541045" lon="6.856513881619326" id="-6340">
		<tag k="historic" v="shieling" />
		<tag k="name" v="Moen" />
		<tag k="place" v="isolated_dwelling" />
		<tag k="ssr:stedsnr" v="141877" />
	</node>
	<node lat="59.33509999777491" lon="5.975708327084867" id="-6361">
		<tag k="name" v="Varavik" />
		<tag k="place" v="farm" />
		<tag k="ssr:stedsnr" v="175385" />
	</node>
	<node lat="59.38617500003553" lon="5.989969436283676" id="-6388">
		<tag k="name" v="Norebøen" />
		<tag k="place" v="locality" />
		<tag k="ssr:stedsnr" v="176766" />
	</node>
	<node lat="59.471886111931525" lon="6.302191674755609" id="-6399">
		<tag k="name" v="Kleivane" />
		<tag k="place" v="farm" />
		<tag k="ssr:stedsnr" v="178033" />
	</node>
	<node lat="59.500866665952415" lon="6.451113881879008" id="-6429">
		<tag k="historic" v="shieling" />
		<tag k="name" v="Åsstølen" />
		<tag k="place" v="isolated_dwelling" />
		<tag k="ssr:stedsnr" v="181924" />
	</node>
	<node lat="59.48432777893084" lon="6.516494447173134" id="-6432">
		<tag k="name" v="Håvoll" />
		<tag k="place" v="farm" />
		<tag k="ssr:stedsnr" v="181782" />
	</node>
	<node lat="59.44505000197021" lon="6.05684999683607" id="-6448">
		<tag k="name" v="Finnaland" />
		<tag k="place" v="farm" />
		<tag k="ssr:stedsnr" v="184335" />
	</node>
	<node lat="59.42481388926812" lon="5.9221333399104426" id="-6449">
		<tag k="name" v="Høgabø" />
		<tag k="place" v="farm" />
		<tag k="ssr:stedsnr" v="184357" />
	</node>
	<node lat="59.41383754315787" lon="6.018483955368075" id="-6451">
		<tag k="alt_name" v="Slåttå" />
		<tag k="name" v="Slåtta" />
		<tag k="place" v="locality" />
		<tag k="ssr:stedsnr" v="184374" />
	</node>
	<node lat="59.41973610942056" lon="6.027508332375567" id="-6452">
		<tag k="name" v="Holmen" />
		<tag k="place" v="farm" />
		<tag k="ssr:stedsnr" v="184378" />
	</node>
	<node lat="59.39730141615997" lon="6.130492254448392" id="-6455">
		<tag k="alt_name" v="Jårvika, yt" />
		<tag k="name" v="Ytre Jårvik" />
		<tag k="place" v="farm" />
		<tag k="ssr:stedsnr" v="184437" />
	</node>
	<node lat="59.45370000326051" lon="6.11620000844816" id="-6458">
		<tag k="historic" v="shieling" />
		<tag k="name" v="Brattlandsstølen" />
		<tag k="place" v="isolated_dwelling" />
		<tag k="ssr:stedsnr" v="184328" />
	</node>
	<node lat="59.410599999043846" lon="6.076374994293994" id="-6460">
		<tag k="name" v="Bjørkhaug" />
		<tag k="place" v="farm" />
		<tag k="ssr:stedsnr" v="184385" />
	</node>
	<node lat="59.42271071476054" lon="6.170132747925127" id="-6462">
		<tag k="name" v="Nevøyna" />
		<tag k="place" v="farm" />
		<tag k="ssr:stedsnr" v="184398" />
	</node>
	<node lat="59.32384166514044" lon="6.190822218121649" id="-6468">
		<tag k="alt_name" v="Smeavika" />
		<tag k="name" v="Smedavika" />
		<tag k="place" v="farm" />
		<tag k="ssr:stedsnr" v="184509" />
	</node>
	<node lat="59.47802777459848" lon="6.438808335548746" id="-6473">
		<tag k="name" v="Sundvoll" />
		<tag k="place" v="farm" />
		<tag k="ssr:stedsnr" v="184644" />
	</node>
	<node lat="59.49171388721585" lon="6.58674999521037" id="-6474">
		<tag k="historic" v="shieling" />
		<tag k="name" v="Djupadal" />
		<tag k="place" v="isolated_dwelling" />
		<tag k="ssr:stedsnr" v="184649" />
	</node>
	<node lat="59.39420833048821" lon="6.474505562837443" id="-6478">
		<tag k="alt_name" v="Finnadalsstølen" />
		<tag k="historic" v="shieling" />
		<tag k="name" v="Finnadalen" />
		<tag k="place" v="isolated_dwelling" />
		<tag k="ssr:stedsnr" v="184824" />
	</node>
	<node lat="59.67481944071206" lon="6.814811112730041" id="-6479">
		<tag k="historic" v="shieling" />
		<tag k="name" v="Heknestølen" />
		<tag k="place" v="isolated_dwelling" />
		<tag k="ssr:stedsnr" v="185041" />
	</node>
	<node lat="59.66448888793998" lon="6.812111117935741" id="-6482">
		<tag k="name" v="Stuvastølen" />
		<tag k="place" v="locality" />
		<tag k="ssr:stedsnr" v="185048" />
	</node>
	<node lat="59.33595000220367" lon="6.104674998833517" id="-6485">
		<tag k="name" v="Sørvika" />
		<tag k="place" v="farm" />
		<tag k="ssr:stedsnr" v="184547" />
	</node>
	<node lat="59.3432750034457" lon="6.1008000016706205" id="-6487">
		<tag k="alt_name" v="Kjelsvik" />
		<tag k="name" v="Kjelsvika" />
		<tag k="place" v="farm" />
		<tag k="ssr:stedsnr" v="184568" />
	</node>
	<node lat="59.521352779986984" lon="6.55307500800832" id="-6505">
		<tag k="name" v="Midtstølen" />
		<tag k="place" v="isolated_dwelling" />
		<tag k="ssr:stedsnr" v="185124" />
	</node>
	<node lat="59.5670749971181" lon="6.590577780562586" id="-6509">
		<tag k="name" v="Djupadal" />
		<tag k="place" v="isolated_dwelling" />
		<tag k="ssr:stedsnr" v="185147" />
	</node>
	<node lat="59.53443657285009" lon="6.292387433780437" id="-6510">
		<tag k="name" v="Fattnes" />
		<tag k="place" v="farm" />
		<tag k="ssr:stedsnr" v="185155" />
	</node>
	<node lat="59.53211111065657" lon="6.419725002642112" id="-6511">
		<tag k="alt_name" v="Listøl" />
		<tag k="historic" v="shieling" />
		<tag k="name" v="Listølen" />
		<tag k="place" v="isolated_dwelling" />
		<tag k="ssr:stedsnr" v="185158" />
	</node>
	<node lat="59.40990277785418" lon="6.447675008198046" id="-6530">
		<tag k="historic" v="shieling" />
		<tag k="name" v="Froa" />
		<tag k="place" v="isolated_dwelling" />
		<tag k="ssr:stedsnr" v="185750" />
	</node>
	<node lat="59.39223033935957" lon="6.222703851049763" id="-6531">
		<tag k="name" v="Tysse" />
		<tag k="place" v="farm" />
		<tag k="ssr:stedsnr" v="185755" />
	</node>
	<node lat="59.56371110991039" lon="6.416688883138028" id="-6534">
		<tag k="historic" v="shieling" />
		<tag k="name" v="Nastølen" />
		<tag k="place" v="isolated_dwelling" />
		<tag k="ssr:stedsnr" v="185851" />
	</node>
	<node lat="59.58339166990791" lon="6.683319440375664" id="-6538">
		<tag k="name" v="Kalvhagen" />
		<tag k="place" v="farm" />
		<tag k="ssr:stedsnr" v="202900" />
	</node>
	<node lat="59.59993610702975" lon="6.814541673345842" id="-6546">
		<tag k="name" v="Kverndalen" />
		<tag k="place" v="isolated_dwelling" />
		<tag k="ssr:stedsnr" v="264880" />
	</node>
	<node lat="59.62936111494695" lon="6.8957388908423844" id="-6547">
		<tag k="name" v="Gjo" />
		<tag k="place" v="isolated_dwelling" />
		<tag k="ssr:stedsnr" v="264893" />
	</node>
	<node lat="59.48427499699314" lon="6.4927472204852394" id="-6548">
		<tag k="name" v="Sørestad" />
		<tag k="place" v="farm" />
		<tag k="ssr:stedsnr" v="270235" />
	</node>
	<node lat="59.36335278049931" lon="6.198908338677398" id="-6567">
		<tag k="name" v="Bakken" />
		<tag k="place" v="farm" />
		<tag k="ssr:stedsnr" v="297021" />
	</node>
	<node lat="59.381355559747995" lon="6.313986109961657" id="-6576">
		<tag k="alt_name" v="Soleim" />
		<tag k="name" v="Solheim" />
		<tag k="old_name" v="Solhejm" />
		<tag k="place" v="farm" />
		<tag k="ssr:stedsnr" v="297458" />
	</node>
	<node lat="59.5530416667018" lon="6.22307500210337" id="-6596">
		<tag k="historic" v="shieling" />
		<tag k="name" v="Åsstølen" />
		<tag k="place" v="isolated_dwelling" />
		<tag k="ssr:stedsnr" v="297921" />
	</node>
	<node lat="59.535369445818525" lon="6.28858888548924" id="-6612">
		<tag k="name" v="Heggtveit" />
		<tag k="place" v="farm" />
		<tag k="ssr:stedsnr" v="299829" />
	</node>
	<node lat="59.52627500008565" lon="6.39184166779222" id="-6616">
		<tag k="name" v="Øykhagen" />
		<tag k="place" v="farm" />
		<tag k="ssr:stedsnr" v="302026" />
	</node>
	<node lat="59.37517221814329" lon="6.435783334780869" id="-6618">
		<tag k="name" v="Bøen" />
		<tag k="place" v="farm" />
		<tag k="ssr:stedsnr" v="302317" />
	</node>
	<node lat="59.53096944558941" lon="6.57174444188201" id="-6625">
		<tag k="historic" v="shieling" />
		<tag k="name" v="Nyastøl" />
		<tag k="place" v="isolated_dwelling" />
		<tag k="ssr:stedsnr" v="302077" />
	</node>
	<node lat="59.45773333490642" lon="6.403711108493844" id="-6629">
		<tag k="name" v="Nedpå Bøen" />
		<tag k="place" v="farm" />
		<tag k="ssr:stedsnr" v="302270" />
	</node>
	<node lat="59.44755000201237" lon="6.139875001124177" id="-6664">
		<tag k="historic" v="shieling" />
		<tag k="name" v="Åsarødstølen" />
		<tag k="place" v="isolated_dwelling" />
		<tag k="ssr:stedsnr" v="305356" />
	</node>
	<node lat="59.430925003492085" lon="5.9923249940833845" id="-6666">
		<tag k="historic" v="shieling" />
		<tag k="name" v="Grytestølen" />
		<tag k="place" v="isolated_dwelling" />
		<tag k="ssr:stedsnr" v="305362" />
	</node>
	<node lat="59.41404377426497" lon="6.1216294238226086" id="-6674">
		<tag k="alt_name" v="Åsarødna, yt;Ytra Åsarød" />
		<tag k="name" v="Ytra Åsarøy" />
		<tag k="place" v="farm" />
		<tag k="ssr:stedsnr" v="306394" />
	</node>
	<node lat="59.38136388767073" lon="6.540102773648501" id="-6679">
		<tag k="name" v="Hetleli" />
		<tag k="place" v="locality" />
		<tag k="ssr:stedsnr" v="305821" />
	</node>
	<node lat="59.32655833122737" lon="6.2313361105851115" id="-6680">
		<tag k="name" v="Bøen" />
		<tag k="place" v="farm" />
		<tag k="ssr:stedsnr" v="305892" />
	</node>
	<node lat="59.344413885555255" lon="6.033813883038533" id="-6683">
		<tag k="name" v="Kampenhaug" />
		<tag k="place" v="farm" />
		<tag k="ssr:stedsnr" v="305607" />
	</node>
	<node lat="59.58180555903486" lon="6.641550006107751" id="-6688">
		<tag k="historic" v="shieling" />
		<tag k="name" v="Myrastølen" />
		<tag k="place" v="isolated_dwelling" />
		<tag k="ssr:stedsnr" v="306117" />
	</node>
	<node lat="59.6561527760849" lon="6.810524991284142" id="-6691">
		<tag k="name" v="Lia" />
		<tag k="place" v="farm" />
		<tag k="ssr:stedsnr" v="306064" />
	</node>
	<node lat="59.65920555631951" lon="6.80657777839007" id="-6692">
		<tag k="name" v="Brekka" />
		<tag k="place" v="locality" />
		<tag k="ssr:stedsnr" v="306067" />
	</node>
	<node lat="59.51679167085882" lon="6.42011389567655" id="-6693">
		<tag k="name" v="Sletthaug" />
		<tag k="place" v="locality" />
		<tag k="ssr:stedsnr" v="306133" />
	</node>
	<node lat="59.412395994651455" lon="6.07938142984227" id="-6696">
		<tag k="name" v="Marvik" />
		<tag k="place" v="farm" />
		<tag k="ssr:stedsnr" v="306367" />
	</node>
	<node lat="59.63015000367715" lon="6.674525001075783" id="-6712">
		<tag k="historic" v="shieling" />
		<tag k="name" v="Svinstølen" />
		<tag k="place" v="isolated_dwelling" />
		<tag k="ssr:stedsnr" v="307023" />
	</node>
	<node lat="59.51340000374321" lon="6.667813891948571" id="-6724">
		<tag k="name" v="Kløv" />
		<tag k="place" v="isolated_dwelling" />
		<tag k="ssr:stedsnr" v="324925" />
	</node>
	<node lat="59.338366666853645" lon="6.0345722189266375" id="-6748">
		<tag k="name" v="Sandane" />
		<tag k="place" v="quarter" />
		<tag k="ssr:stedsnr" v="357148" />
	</node>
	<node lat="59.38260000301075" lon="6.018661108584608" id="-6756">
		<tag k="name" v="Jektavika" />
		<tag k="place" v="farm" />
		<tag k="ssr:stedsnr" v="357735" />
	</node>
	<node lat="59.39392499574865" lon="5.985105554271702" id="-6759">
		<tag k="name" v="Bjødland" />
		<tag k="place" v="locality" />
		<tag k="ssr:stedsnr" v="357747" />
	</node>
	<node lat="59.54396666835585" lon="6.359244435841267" id="-6771">
		<tag k="name" v="Bakkjen" />
		<tag k="place" v="farm" />
		<tag k="ssr:stedsnr" v="358769" />
	</node>
	<node lat="59.424072217748204" lon="6.039188881912306" id="-6778">
		<tag k="name" v="Øvregard" />
		<tag k="place" v="farm" />
		<tag k="ssr:stedsnr" v="360156" />
	</node>
	<node lat="59.54286111142453" lon="6.295452784466172" id="-6783">
		<tag k="name" v="Viland" />
		<tag k="place" v="locality" />
		<tag k="ssr:stedsnr" v="360823" />
	</node>
	<node lat="59.44401666698176" lon="6.465997228556088" id="-6789">
		<tag k="historic" v="shieling" />
		<tag k="name" v="Skutestøl" />
		<tag k="place" v="isolated_dwelling" />
		<tag k="ssr:stedsnr" v="363036" />
	</node>
	<node lat="59.45364444854841" lon="6.3846638950930465" id="-6796">
		<tag k="name" v="Øvrabø" />
		<tag k="place" v="farm" />
		<tag k="ssr:stedsnr" v="363147" />
	</node>
	<node lat="59.49188333472475" lon="6.507988893631282" id="-6826">
		<tag k="name" v="Olavsmoen" />
		<tag k="place" v="farm" />
		<tag k="ssr:stedsnr" v="363988" />
	</node>
	<node lat="59.429049999162764" lon="6.050174996881763" id="-6841">
		<tag k="name" v="Li" />
		<tag k="place" v="farm" />
		<tag k="ssr:stedsnr" v="366368" />
	</node>
	<node lat="59.42642777741937" lon="6.0535694431211535" id="-6842">
		<tag k="alt_name" v="Furulund" />
		<tag k="name" v="Furelund" />
		<tag k="place" v="farm" />
		<tag k="ssr:stedsnr" v="366369" />
	</node>
	<node lat="59.36332500239906" lon="6.198599997626733" id="-6849">
		<tag k="name" v="Austbø" />
		<tag k="place" v="farm" />
		<tag k="ssr:stedsnr" v="366483" />
	</node>
	<node lat="59.483664239461305" lon="6.44864350480432" id="-6857">
		<tag k="name" v="Underbakka" />
		<tag k="old_name" v="Underbakke" />
		<tag k="place" v="farm" />
		<tag k="ssr:stedsnr" v="366639" />
	</node>
	<node lat="59.4907829506521" lon="6.512252815101601" id="-6859">
		<tag k="name" v="Fisketjørn" />
		<tag k="place" v="farm" />
		<tag k="ssr:stedsnr" v="366654" />
	</node>
	<node lat="59.425005556992645" lon="6.460625000025" id="-6865">
		<tag k="historic" v="shieling" />
		<tag k="name" v="Hovestølen" />
		<tag k="place" v="isolated_dwelling" />
		<tag k="ssr:stedsnr" v="366783" />
	</node>
	<node lat="59.38796388960943" lon="6.432224995724789" id="-6870">
		<tag k="historic" v="shieling" />
		<tag k="name" v="Hovstølen" />
		<tag k="place" v="isolated_dwelling" />
		<tag k="ssr:stedsnr" v="366823" />
	</node>
	<node lat="59.675486114854124" lon="6.923286105301206" id="-6873">
		<tag k="historic" v="shieling" />
		<tag k="name" v="Steinbu" />
		<tag k="place" v="isolated_dwelling" />
		<tag k="ssr:stedsnr" v="367029" />
	</node>
	<node lat="59.504064614562196" lon="6.574983892708057" id="-6876">
		<tag k="name" v="Helganes" />
		<tag k="place" v="farm" />
		<tag k="ssr:stedsnr" v="367132" />
	</node>
	<node lat="59.66965277504607" lon="7.072383341038965" id="-6877">
		<tag k="name" v="Sandvasshytta" />
		<tag k="place" v="locality" />
		<tag k="ssr:stedsnr" v="367412" />
	</node>
	<node lat="59.69681944886534" lon="6.991019439512183" id="-6880">
		<tag k="historic" v="shieling" />
		<tag k="name" v="Svultanuten" />
		<tag k="place" v="isolated_dwelling" />
		<tag k="ssr:stedsnr" v="367429" />
	</node>
	<node lat="59.56641944625075" lon="6.611555552295479" id="-6887">
		<tag k="historic" v="shieling" />
		<tag k="name" v="Hyls-Liastølen" />
		<tag k="place" v="isolated_dwelling" />
		<tag k="ssr:stedsnr" v="367056" />
	</node>
	<node lat="59.52653889188131" lon="6.437850008373318" id="-6889">
		<tag k="historic" v="shieling" />
		<tag k="name" v="Stavastølen" />
		<tag k="place" v="isolated_dwelling" />
		<tag k="ssr:stedsnr" v="367148" />
	</node>
	<node lat="59.525950000625365" lon="6.3933999974338676" id="-6890">
		<tag k="name" v="Torsvik" />
		<tag k="place" v="farm" />
		<tag k="ssr:stedsnr" v="367149" />
	</node>
	<node lat="59.5229647407928" lon="6.387056270911721" id="-6891">
		<tag k="name" v="Vidvei" />
		<tag k="place" v="farm" />
		<tag k="ssr:stedsnr" v="367150" />
	</node>
	<node lat="59.534175749710876" lon="6.431580597326479" id="-6892">
		<tag k="name" v="Li" />
		<tag k="place" v="farm" />
		<tag k="ssr:stedsnr" v="367153" />
	</node>
	<node lat="59.69120000437137" lon="6.8226305475244216" id="-6894">
		<tag k="historic" v="shieling" />
		<tag k="name" v="Myrane" />
		<tag k="place" v="isolated_dwelling" />
		<tag k="ssr:stedsnr" v="367158" />
	</node>
	<node lat="59.50253888517409" lon="6.697819450755018" id="-6897">
		<tag k="historic" v="shieling" />
		<tag k="name" v="Lauvastølen" />
		<tag k="place" v="isolated_dwelling" />
		<tag k="ssr:stedsnr" v="367328" />
	</node>
	<node lat="59.42042500383055" lon="6.070769445945362" id="-6909">
		<tag k="name" v="Nyebøen" />
		<tag k="place" v="farm" />
		<tag k="ssr:stedsnr" v="479611" />
	</node>
	<node lat="59.358322221706366" lon="5.965033334673358" id="-6928">
		<tag k="name" v="Bakkjen" />
		<tag k="place" v="farm" />
		<tag k="ssr:stedsnr" v="418131" />
	</node>
	<node lat="59.35968888698556" lon="5.958505550294229" id="-6929">
		<tag k="name" v="Storstova" />
		<tag k="place" v="farm" />
		<tag k="ssr:stedsnr" v="418133" />
	</node>
	<node lat="59.35760277444095" lon="5.959605548441341" id="-6930">
		<tag k="name" v="Lindal" />
		<tag k="place" v="farm" />
		<tag k="ssr:stedsnr" v="418136" />
	</node>
	<node lat="59.341263887197364" lon="6.188783327622795" id="-6951">
		<tag k="name" v="Bøen" />
		<tag k="place" v="farm" />
		<tag k="ssr:stedsnr" v="418942" />
	</node>
	<node lat="59.54715950576379" lon="6.368212299558296" id="-6960">
		<tag k="name" v="Indre Vanvik" />
		<tag k="place" v="farm" />
		<tag k="ssr:stedsnr" v="419768" />
	</node>
	<node lat="59.53886184239399" lon="6.435469313805693" id="-6986">
		<tag k="alt_name" v="Vallskårnaustet" />
		<tag k="name" v="Vallskornaustet" />
		<tag k="place" v="locality" />
		<tag k="ssr:stedsnr" v="424138" />
	</node>
	<node lat="59.456863893135065" lon="6.394316670589222" id="-6999">
		<tag k="name" v="Gardvoll" />
		<tag k="place" v="farm" />
		<tag k="ssr:stedsnr" v="424238" />
	</node>
	<node lat="59.48513888476436" lon="6.538458328372582" id="-7007">
		<tag k="name" v="Rabbane" />
		<tag k="place" v="locality" />
		<tag k="ssr:stedsnr" v="424770" />
	</node>
	<node lat="59.47866110690694" lon="6.465997227347017" id="-7034">
		<tag k="name" v="Hauen" />
		<tag k="place" v="farm" />
		<tag k="ssr:stedsnr" v="424965" />
	</node>
	<node lat="59.49433611370941" lon="6.490191671564366" id="-7041">
		<tag k="name" v="Tjukkeng" />
		<tag k="place" v="farm" />
		<tag k="ssr:stedsnr" v="424951" />
	</node>
	<node lat="59.46104166323612" lon="6.698544444872987" id="-7051">
		<tag k="historic" v="shieling" />
		<tag k="name" v="Nystølen" />
		<tag k="place" v="isolated_dwelling" />
		<tag k="ssr:stedsnr" v="427067" />
	</node>
	<node lat="59.48485432444926" lon="6.200670047389002" id="-7053">
		<tag k="name" v="Ropeid" />
		<tag k="place" v="farm" />
		<tag k="ssr:stedsnr" v="427344" />
	</node>
	<node lat="59.45052500236879" lon="6.038775002640838" id="-7055">
		<tag k="alt_name" v="Stuvik" />
		<tag k="name" v="Stuvvika" />
		<tag k="place" v="farm" />
		<tag k="ssr:stedsnr" v="427353" />
	</node>
	<node lat="59.45368858111083" lon="6.0535255326679085" id="-7056">
		<tag k="alt_name" v="Torsteinbø" />
		<tag k="name" v="Torsteinbu" />
		<tag k="place" v="farm" />
		<tag k="ssr:stedsnr" v="427357" />
	</node>
	<node lat="59.37590000173468" lon="5.942975004457273" id="-7058">
		<tag k="name" v="Dalastykket" />
		<tag k="place" v="farm" />
		<tag k="ssr:stedsnr" v="427465" />
	</node>
	<node lat="59.48651518334045" lon="6.2764636608666695" id="-7060">
		<tag k="alt_name" v="Hedlastræ" />
		<tag k="name" v="Trædet" />
		<tag k="place" v="farm" />
		<tag k="ssr:stedsnr" v="427648" />
	</node>
	<node lat="59.322552774149415" lon="6.189047214805242" id="-7062">
		<tag k="name" v="Leirvika" />
		<tag k="place" v="farm" />
		<tag k="ssr:stedsnr" v="427514" />
	</node>
	<node lat="59.37682499909002" lon="6.376336110682685" id="-7070">
		<tag k="alt_name" v="Natlandstølen" />
		<tag k="historic" v="shieling" />
		<tag k="name" v="Nattlandsstølen" />
		<tag k="place" v="isolated_dwelling" />
		<tag k="ssr:stedsnr" v="427840" />
	</node>
	<node lat="59.37443702330818" lon="6.300959821289558" id="-7071">
		<tag k="name" v="Tveit" />
		<tag k="place" v="farm" />
		<tag k="ssr:stedsnr" v="427844" />
	</node>
	<node lat="59.43083611091056" lon="6.457844438525121" id="-7074">
		<tag k="alt_name" v="Storedalen" />
		<tag k="historic" v="shieling" />
		<tag k="name" v="Storrdalen" />
		<tag k="place" v="isolated_dwelling" />
		<tag k="ssr:stedsnr" v="427748" />
	</node>
	<node lat="59.43529166734812" lon="6.585383341462906" id="-7076">
		<tag k="fixme" v="consider tourism=alpine_hut or tourism=chalet" />
		<tag k="name" v="Sandsa" />
		<tag k="old_name" v="Sandsa turisthytte" />
		<tag k="ssr:stedsnr" v="427755" />
		<tag k="tourism" v="wilderness_hut" />
	</node>
	<node lat="59.421208336203584" lon="6.448780559115754" id="-7077">
		<tag k="historic" v="shieling" />
		<tag k="name" v="Mosstølen" />
		<tag k="place" v="isolated_dwelling" />
		<tag k="ssr:stedsnr" v="427761" />
	</node>
	<node lat="59.670491666089774" lon="6.812216672989903" id="-7080">
		<tag k="name" v="Varp" />
		<tag k="place" v="locality" />
		<tag k="ssr:stedsnr" v="428047" />
	</node>
	<node lat="59.66843611053709" lon="6.9593611133241735" id="-7081">
		<tag k="historic" v="shieling" />
		<tag k="name" v="Kvelvane" />
		<tag k="place" v="isolated_dwelling" />
		<tag k="ssr:stedsnr" v="428048" />
	</node>
	<node lat="59.65381388512232" lon="6.8689166729977815" id="-7084">
		<tag k="name" v="Oppigard" />
		<tag k="place" v="farm" />
		<tag k="ssr:stedsnr" v="428056" />
	</node>
	<node lat="59.51236716338239" lon="6.464179169938883" id="-7087">
		<tag k="fixme" v="multiple name tags, choose one and add the other to alt_name" />
		<tag k="historic" v="shieling" />
		<tag k="name" v="Øvrestølen;Øvre Prestastølen" />
		<tag k="place" v="isolated_dwelling" />
		<tag k="ssr:stedsnr" v="428108" />
	</node>
	<node lat="59.52704722140657" lon="6.31074721890016" id="-7092">
		<tag k="alt_name" v="Gongstø" />
		<tag k="name" v="Gongstød" />
		<tag k="place" v="locality" />
		<tag k="ssr:stedsnr" v="428148" />
	</node>
	<node lat="59.51942041097668" lon="6.638721216436617" id="-7096">
		<tag k="name" v="Sukka" />
		<tag k="place" v="farm" />
		<tag k="ssr:stedsnr" v="428388" />
	</node>
	<node lat="59.50131389239804" lon="6.715519442652711" id="-7097">
		<tag k="historic" v="shieling" />
		<tag k="name" v="Steinsstølen" />
		<tag k="place" v="isolated_dwelling" />
		<tag k="ssr:stedsnr" v="428359" />
	</node>
	<node lat="59.56532777574164" lon="6.398999999092501" id="-7101">
		<tag k="name" v="Slettedalen" />
		<tag k="place" v="isolated_dwelling" />
		<tag k="ssr:stedsnr" v="428852" />
	</node>
	<node lat="59.56198055415915" lon="6.361019449380321" id="-7102">
		<tag k="alt_name" v="Mestøl" />
		<tag k="historic" v="shieling" />
		<tag k="name" v="Medstølen" />
		<tag k="place" v="isolated_dwelling" />
		<tag k="ssr:stedsnr" v="428858" />
	</node>
	<node lat="59.38438888819424" lon="6.006544438118857" id="-7104">
		<tag k="name" v="Nymark" />
		<tag k="place" v="farm" />
		<tag k="ssr:stedsnr" v="479756" />
	</node>
	<node lat="59.546697218143755" lon="6.372672214759853" id="-7106">
		<tag k="name" v="Hedlesbø" />
		<tag k="place" v="farm" />
		<tag k="ssr:stedsnr" v="479761" />
	</node>
	<node lat="59.40211666657867" lon="6.018144442334535" id="-7110">
		<tag k="name" v="Liarheim" />
		<tag k="place" v="farm" />
		<tag k="ssr:stedsnr" v="479788" />
	</node>
	<node lat="59.52479166446555" lon="6.2971138844846" id="-7111">
		<tag k="name" v="Litlabøen" />
		<tag k="place" v="locality" />
		<tag k="ssr:stedsnr" v="479792" />
	</node>
	<node lat="59.34322222339356" lon="6.208447217804613" id="-7113">
		<tag k="name" v="Einarneset" />
		<tag k="place" v="farm" />
		<tag k="ssr:stedsnr" v="479993" />
	</node>
	<node lat="59.53673888535385" lon="6.420347214575397" id="-7128">
		<tag k="name" v="Linaustet" />
		<tag k="place" v="locality" />
		<tag k="ssr:stedsnr" v="484093" />
	</node>
	<node lat="59.54854166561971" lon="6.408347219149348" id="-7129">
		<tag k="building" v="industrial" />
		<tag k="name" v="Bjergasaga" />
		<tag k="ssr:stedsnr" v="484098" />
	</node>
	<node lat="59.37944444573371" lon="6.5135166660564146" id="-7136">
		<tag k="name" v="Garden" />
		<tag k="place" v="farm" />
		<tag k="ssr:stedsnr" v="484177" />
	</node>
	<node lat="59.339799997229406" lon="6.1014999935362315" id="-7173">
		<tag k="name" v="Buflota" />
		<tag k="place" v="farm" />
		<tag k="ssr:stedsnr" v="487587" />
	</node>
	<node lat="59.34114317624457" lon="6.0294646149765505" id="-7174">
		<tag k="name" v="Jelsa" />
		<tag k="place" v="farm" />
		<tag k="ssr:stedsnr" v="487597" />
	</node>
	<node lat="59.34589435474726" lon="6.031295535077664" id="-7175">
		<tag k="name" v="Gjerde" />
		<tag k="place" v="farm" />
		<tag k="ssr:stedsnr" v="487598" />
	</node>
	<node lat="59.443776986493575" lon="5.977585971067249" id="-7176">
		<tag k="alt_name" v="Rødne, in" />
		<tag k="name" v="Indre Rødne" />
		<tag k="place" v="farm" />
		<tag k="ssr:stedsnr" v="487349" />
	</node>
	<node lat="59.464326761453286" lon="6.437447795608794" id="-7177">
		<tag k="alt_name" v="Bergjorda" />
		<tag k="name" v="Bergjord" />
		<tag k="place" v="farm" />
		<tag k="ssr:stedsnr" v="487756" />
	</node>
	<node lat="59.47612871065368" lon="6.308403709299792" id="-7178">
		<tag k="name" v="Hanakam" />
		<tag k="place" v="farm" />
		<tag k="ssr:stedsnr" v="487688" />
	</node>
	<node lat="59.49115602863619" lon="6.5034864634860865" id="-7179">
		<tag k="alt_name" v="Hoftun" />
		<tag k="name" v="Hovtun" />
		<tag k="place" v="farm" />
		<tag k="ssr:stedsnr" v="487696" />
	</node>
	<node lat="59.47427500169447" lon="6.1939249964259995" id="-7181">
		<tag k="name" v="Sørli" />
		<tag k="place" v="locality" />
		<tag k="ssr:stedsnr" v="488288" />
	</node>
	<node lat="59.498572222876454" lon="6.637911106320254" id="-7185">
		<tag k="name" v="Bøen" />
		<tag k="place" v="isolated_dwelling" />
		<tag k="ssr:stedsnr" v="488030" />
	</node>
	<node lat="59.66492777616513" lon="6.8082638924558605" id="-7186">
		<tag k="name" v="Engjaland" />
		<tag k="place" v="isolated_dwelling" />
		<tag k="ssr:stedsnr" v="488045" />
	</node>
	<node lat="59.50768055813908" lon="6.458599992647075" id="-7191">
		<tag k="alt_name" v="Breiastølen" />
		<tag k="name" v="Breidastølen" />
		<tag k="place" v="isolated_dwelling" />
		<tag k="ssr:stedsnr" v="488136" />
	</node>
	<node lat="59.36917499853097" lon="6.11157500624322" id="-7195">
		<tag k="name" v="Krossvika" />
		<tag k="place" v="farm" />
		<tag k="ssr:stedsnr" v="488428" />
	</node>
	<node lat="59.35889999819721" lon="5.95147499927198" id="-7200">
		<tag k="name" v="Oppistova" />
		<tag k="place" v="farm" />
		<tag k="ssr:stedsnr" v="488444" />
	</node>
	<node lat="59.36655833405044" lon="6.042269437688245" id="-7201">
		<tag k="name" v="Naustmyra" />
		<tag k="place" v="farm" />
		<tag k="ssr:stedsnr" v="488448" />
	</node>
	<node lat="59.33782787143022" lon="6.186669475626114" id="-7202">
		<tag k="name" v="Bog" />
		<tag k="place" v="farm" />
		<tag k="ssr:stedsnr" v="488530" />
	</node>
	<node lat="59.625900001916605" lon="6.98419999448702" id="-7219">
		<tag k="fixme" v="consider tourism=alpine_hut or tourism=chalet" />
		<tag k="name" v="Bleskestadmoen" />
		<tag k="ssr:stedsnr" v="489473" />
		<tag k="tourism" v="wilderness_hut" />
	</node>
	<node lat="59.37061666964363" lon="6.047250005622588" id="-7228">
		<tag k="name" v="Berakvam" />
		<tag k="place" v="neighbourhood" />
		<tag k="ssr:stedsnr" v="517877" />
	</node>
	<node lat="59.49732222290897" lon="6.5346388863901925" id="-7325">
		<tag k="name" v="Vekamoen" />
		<tag k="place" v="farm" />
		<tag k="ssr:stedsnr" v="545721" />
	</node>
	<node lat="59.46768333543936" lon="6.434847215234252" id="-7332">
		<tag k="name" v="Moen" />
		<tag k="place" v="farm" />
		<tag k="ssr:stedsnr" v="545976" />
	</node>
	<node lat="59.31808806153121" lon="6.125421032825126" id="-7336">
		<tag k="name" v="Landsnes" />
		<tag k="place" v="farm" />
		<tag k="ssr:stedsnr" v="548536" />
	</node>
	<node lat="59.338853575113205" lon="6.068907990275274" id="-7337">
		<tag k="name" v="Barkeland" />
		<tag k="place" v="farm" />
		<tag k="ssr:stedsnr" v="548542" />
	</node>
	<node lat="59.3798916627192" lon="6.623794447235717" id="-7340">
		<tag k="name" v="Flottene" />
		<tag k="place" v="isolated_dwelling" />
		<tag k="ssr:stedsnr" v="548198" />
	</node>
	<node lat="59.392574997976695" lon="6.0867000017798505" id="-7346">
		<tag k="name" v="Lunden" />
		<tag k="place" v="farm" />
		<tag k="ssr:stedsnr" v="548447" />
	</node>
	<node lat="59.381074998445115" lon="5.997549992303193" id="-7347">
		<tag k="name" v="Sandsmark" />
		<tag k="place" v="farm" />
		<tag k="ssr:stedsnr" v="548456" />
	</node>
	<node lat="59.48994192035161" lon="6.519127399622688" id="-7349">
		<tag k="alt_name" v="Stropa" />
		<tag k="name" v="Stråpa" />
		<tag k="place" v="farm" />
		<tag k="ssr:stedsnr" v="548646" />
	</node>
	<node lat="59.49115097771285" lon="6.409223410317381" id="-7350">
		<tag k="name" v="Mork" />
		<tag k="old_name" v="Mørk" />
		<tag k="place" v="farm" />
		<tag k="ssr:stedsnr" v="548655" />
	</node>
	<node lat="59.43783055504635" lon="6.32197500236922" id="-7354">
		<tag k="alt_name" v="Vasstøl" />
		<tag k="historic" v="shieling" />
		<tag k="name" v="Vasstølen" />
		<tag k="place" v="isolated_dwelling" />
		<tag k="ssr:stedsnr" v="548696" />
	</node>
	<node lat="59.448086112190815" lon="6.285402771367872" id="-7356">
		<tag k="alt_name" v="Østøl" />
		<tag k="historic" v="shieling" />
		<tag k="name" v="Øystøl" />
		<tag k="place" v="isolated_dwelling" />
		<tag k="ssr:stedsnr" v="548698" />
	</node>
	<node lat="59.3977416682414" lon="6.398819437576608" id="-7361">
		<tag k="alt_name" v="Frøkjedal" />
		<tag k="historic" v="shieling" />
		<tag k="name" v="Frøkedalen" />
		<tag k="place" v="isolated_dwelling" />
		<tag k="ssr:stedsnr" v="548843" />
	</node>
	<node lat="59.55988153568735" lon="6.860732159757638" id="-7364">
		<tag k="historic" v="shieling" />
		<tag k="name" v="Jonsstølen" />
		<tag k="place" v="isolated_dwelling" />
		<tag k="ssr:stedsnr" v="549095" />
	</node>
	<node lat="59.62195555745999" lon="6.64573888783157" id="-7365">
		<tag k="historic" v="shieling" />
		<tag k="name" v="Skitli" />
		<tag k="place" v="isolated_dwelling" />
		<tag k="ssr:stedsnr" v="549036" />
	</node>
	<node lat="59.62114444044213" lon="6.666152783697852" id="-7366">
		<tag k="historic" v="shieling" />
		<tag k="name" v="Storemyr" />
		<tag k="place" v="isolated_dwelling" />
		<tag k="ssr:stedsnr" v="549038" />
	</node>
	<node lat="59.62436666449513" lon="6.7964972171892475" id="-7367">
		<tag k="name" v="Stålavika" />
		<tag k="place" v="farm" />
		<tag k="ssr:stedsnr" v="549047" />
	</node>
	<node lat="59.59320555880376" lon="6.672733336647833" id="-7370">
		<tag k="historic" v="shieling" />
		<tag k="name" v="Toskestølen" />
		<tag k="place" v="isolated_dwelling" />
		<tag k="ssr:stedsnr" v="549134" />
	</node>
	<node lat="59.52633113863028" lon="6.590808861586218" id="-7371">
		<tag k="alt_name" v="Soleim" />
		<tag k="name" v="Solheim" />
		<tag k="place" v="farm" />
		<tag k="ssr:stedsnr" v="549146" />
	</node>
	<node lat="59.52390294995336" lon="6.36945903743554" id="-7372">
		<tag k="alt_name" v="Flåtnes" />
		<tag k="name" v="Flotnes" />
		<tag k="place" v="farm" />
		<tag k="ssr:stedsnr" v="549186" />
	</node>
	<node lat="59.56539999848813" lon="6.399013882801407" id="-7383">
		<tag k="historic" v="shieling" />
		<tag k="name" v="Slettedalen" />
		<tag k="place" v="isolated_dwelling" />
		<tag k="ssr:stedsnr" v="550099" />
	</node>
	<node lat="59.38854721920285" lon="6.303747226908775" id="-7414">
		<tag k="name" v="Haukalia" />
		<tag k="place" v="farm" />
		<tag k="ssr:stedsnr" v="600445" />
	</node>
	<node lat="59.38558611156687" lon="6.3047916591719275" id="-7415">
		<tag k="name" v="Åbø" />
		<tag k="place" v="farm" />
		<tag k="ssr:stedsnr" v="600448" />
	</node>
	<node lat="59.41211666962359" lon="6.0181111123684685" id="-7419">
		<tag k="name" v="Sajå" />
		<tag k="place" v="locality" />
		<tag k="ssr:stedsnr" v="600780" />
	</node>
	<node lat="59.386686111642454" lon="6.016505555807861" id="-7424">
		<tag k="name" v="Hestnes" />
		<tag k="place" v="farm" />
		<tag k="ssr:stedsnr" v="600741" />
	</node>
	<node lat="59.39109721973812" lon="6.007080555001335" id="-7425">
		<tag k="name" v="Bakkadne" />
		<tag k="place" v="locality" />
		<tag k="ssr:stedsnr" v="600746" />
	</node>
	<node lat="59.55768611452597" lon="6.182224996690307" id="-7428">
		<tag k="historic" v="shieling" />
		<tag k="name" v="Søtestølen" />
		<tag k="place" v="isolated_dwelling" />
		<tag k="ssr:stedsnr" v="600917" />
	</node>
	<node lat="59.42378055978648" lon="6.039091670960237" id="-7436">
		<tag k="name" v="Austbø" />
		<tag k="place" v="farm" />
		<tag k="ssr:stedsnr" v="602181" />
	</node>
	<node lat="59.49585833297599" lon="6.535205553767543" id="-7474">
		<tag k="name" v="Rophaug" />
		<tag k="place" v="farm" />
		<tag k="ssr:stedsnr" v="605732" />
	</node>
	<node lat="59.499016665278766" lon="6.5359805481974425" id="-7475">
		<tag k="name" v="Litlamo" />
		<tag k="place" v="farm" />
		<tag k="ssr:stedsnr" v="605733" />
	</node>
	<node lat="59.443252773677166" lon="6.666130550032522" id="-7499">
		<tag k="historic" v="shieling" />
		<tag k="name" v="Månastølen" />
		<tag k="place" v="isolated_dwelling" />
		<tag k="ssr:stedsnr" v="608034" />
	</node>
	<node lat="59.446302778380975" lon="6.721774997224475" id="-7502">
		<tag k="historic" v="shieling" />
		<tag k="name" v="Proststøldalen" />
		<tag k="place" v="isolated_dwelling" />
		<tag k="ssr:stedsnr" v="608043" />
	</node>
	<node lat="59.453961113373126" lon="6.6365249933926584" id="-7503">
		<tag k="historic" v="shieling" />
		<tag k="name" v="Svinstølen" />
		<tag k="place" v="isolated_dwelling" />
		<tag k="ssr:stedsnr" v="608044" />
	</node>
	<node lat="59.42589999673801" lon="6.1682499984847174" id="-7504">
		<tag k="name" v="Øyna" />
		<tag k="place" v="farm" />
		<tag k="ssr:stedsnr" v="608370" />
	</node>
	<node lat="59.33975832993938" lon="6.026288884854685" id="-7508">
		<tag k="name" v="Klunghaug" />
		<tag k="place" v="farm" />
		<tag k="ssr:stedsnr" v="608576" />
	</node>
	<node lat="59.34109180882012" lon="6.024853729892832" id="-7509">
		<tag k="name" v="Holemyra" />
		<tag k="place" v="farm" />
		<tag k="ssr:stedsnr" v="608590" />
	</node>
	<node lat="59.40177499596688" lon="6.53140000263266" id="-7512">
		<tag k="name" v="Lundaheia" />
		<tag k="place" v="isolated_dwelling" />
		<tag k="ssr:stedsnr" v="608873" />
	</node>
	<node lat="59.354091529381115" lon="6.089161162923093" id="-7515">
		<tag k="alt_name" v="Tveitarå" />
		<tag k="name" v="Tveitaråna" />
		<tag k="place" v="farm" />
		<tag k="ssr:stedsnr" v="608539" />
	</node>
	<node lat="59.475988890799556" lon="6.570111109848673" id="-7518">
		<tag k="historic" v="shieling" />
		<tag k="name" v="Liastølen" />
		<tag k="place" v="isolated_dwelling" />
		<tag k="ssr:stedsnr" v="608773" />
	</node>
	<node lat="59.39428797398757" lon="6.509906307279407" id="-7519">
		<tag k="historic" v="shieling" />
		<tag k="name" v="Ørekvam" />
		<tag k="place" v="isolated_dwelling" />
		<tag k="ssr:stedsnr" v="608881" />
	</node>
	<node lat="59.53516666848777" lon="6.463374998619813" id="-7523">
		<tag k="alt_name" v="Heiastølen" />
		<tag k="name" v="Heiastøl" />
		<tag k="place" v="locality" />
		<tag k="ssr:stedsnr" v="609181" />
	</node>
	<node lat="59.489136113495064" lon="6.600380560913665" id="-7524">
		<tag k="historic" v="shieling" />
		<tag k="name" v="Myrløa" />
		<tag k="place" v="isolated_dwelling" />
		<tag k="ssr:stedsnr" v="609023" />
	</node>
	<node lat="59.6171611066739" lon="6.7994444451307405" id="-7525">
		<tag k="name" v="Lågasteinen" />
		<tag k="place" v="farm" />
		<tag k="ssr:stedsnr" v="609025" />
	</node>
	<node lat="59.72243333114644" lon="6.8852333252246165" id="-7531">
		<tag k="name" v="Finnabu" />
		<tag k="place" v="locality" />
		<tag k="ssr:stedsnr" v="609226" />
	</node>
	<node lat="59.393724998643165" lon="6.08887500106175" id="-7532">
		<tag k="name" v="Slettebø" />
		<tag k="place" v="farm" />
		<tag k="ssr:stedsnr" v="609425" />
	</node>
	<node lat="59.40306944537094" lon="6.047069437218785" id="-7533">
		<tag k="name" v="Løvika" />
		<tag k="place" v="farm" />
		<tag k="ssr:stedsnr" v="609384" />
	</node>
	<node lat="59.417811109796645" lon="6.378980551800734" id="-7536">
		<tag k="historic" v="shieling" />
		<tag k="name" v="Holestølen" />
		<tag k="place" v="isolated_dwelling" />
		<tag k="ssr:stedsnr" v="609707" />
	</node>
	<node lat="59.37370833416696" lon="6.119086115304773" id="-7541">
		<tag k="alt_name" v="Sagjå" />
		<tag k="name" v="Saga" />
		<tag k="place" v="locality" />
		<tag k="ssr:stedsnr" v="609435" />
	</node>
	<node lat="59.5077728909015" lon="6.174068552750253" id="-7547">
		<tag k="name" v="Selland" />
		<tag k="place" v="farm" />
		<tag k="ssr:stedsnr" v="609934" />
	</node>
	<node lat="59.63289444767657" lon="6.718733333400975" id="-7554">
		<tag k="historic" v="shieling" />
		<tag k="name" v="Skarstølen" />
		<tag k="place" v="isolated_dwelling" />
		<tag k="ssr:stedsnr" v="610014" />
	</node>
	<node lat="59.52066823681748" lon="6.6370476593892045" id="-7561">
		<tag k="name" v="Steinbru" />
		<tag k="place" v="farm" />
		<tag k="ssr:stedsnr" v="610464" />
	</node>
	<node lat="59.5610373024371" lon="6.482404324695961" id="-7563">
		<tag k="name" v="Tengesdal" />
		<tag k="place" v="farm" />
		<tag k="ssr:stedsnr" v="610877" />
	</node>
	<node lat="59.47929721850801" lon="6.594863894287441" id="-7576">
		<tag k="historic" v="shieling" />
		<tag k="name" v="Allberrestølen" />
		<tag k="place" v="isolated_dwelling" />
		<tag k="ssr:stedsnr" v="659032" />
	</node>
	<node lat="59.337427777742526" lon="6.026625006074929" id="-7578">
		<tag k="name" v="Jelsa" />
		<tag k="place" v="quarter" />
		<tag k="ssr:stedsnr" v="698828" />
	</node>
	<node lat="59.65566110714707" lon="6.926363886661163" id="-7591">
		<tag k="name" v="Kvednahaugen" />
		<tag k="place" v="farm" />
		<tag k="ssr:stedsnr" v="722074" />
	</node>
	<node lat="59.33719444745896" lon="5.979286112304616" id="-7601">
		<tag k="name" v="Frøkenstykket" />
		<tag k="place" v="farm" />
		<tag k="ssr:stedsnr" v="722166" />
	</node>
	<node lat="59.401402778837706" lon="6.018858337212191" id="-7615">
		<tag k="name" v="Ørestranda" />
		<tag k="place" v="farm" />
		<tag k="ssr:stedsnr" v="722802" />
	</node>
	<node lat="59.419619445459276" lon="6.062869437207031" id="-7616">
		<tag k="name" v="Træ" />
		<tag k="place" v="farm" />
		<tag k="ssr:stedsnr" v="722626" />
	</node>
	<node lat="59.57832499910916" lon="6.564630556807779" id="-7656">
		<tag k="historic" v="shieling" />
		<tag k="name" v="Skårastøl" />
		<tag k="place" v="isolated_dwelling" />
		<tag k="ssr:stedsnr" v="727469" />
	</node>
	<node lat="59.66708055738771" lon="6.771036109574673" id="-7677">
		<tag k="name" v="Tysdal" />
		<tag k="place" v="farm" />
		<tag k="ssr:stedsnr" v="728658" />
	</node>
	<node lat="59.43826123338555" lon="6.718751731964884" id="-7680">
		<tag k="alt_name" v="Stranddalen" />
		<tag k="fixme" v="consider tourism=alpine_hut or tourism=chalet" />
		<tag k="name" v="Stranddalen turisthytte" />
		<tag k="ssr:stedsnr" v="730040" />
		<tag k="tourism" v="wilderness_hut" />
	</node>
	<node lat="59.44790833728089" lon="6.685869436190064" id="-7681">
		<tag k="historic" v="shieling" />
		<tag k="name" v="Fagerstølen" />
		<tag k="place" v="isolated_dwelling" />
		<tag k="ssr:stedsnr" v="730041" />
	</node>
	<node lat="59.443843862087014" lon="6.018720209832288" id="-7684">
		<tag k="name" v="Rosseid" />
		<tag k="old_name" v="Roseid" />
		<tag k="place" v="farm" />
		<tag k="ssr:stedsnr" v="730339" />
	</node>
	<node lat="59.43297334651387" lon="6.06742046145813" id="-7687">
		<tag k="name" v="Fjetland" />
		<tag k="place" v="farm" />
		<tag k="ssr:stedsnr" v="730360" />
	</node>
	<node lat="59.367474997323896" lon="6.182574993323091" id="-7689">
		<tag k="name" v="Midttun" />
		<tag k="place" v="farm" />
		<tag k="ssr:stedsnr" v="730497" />
	</node>
	<node lat="59.42334444705398" lon="6.475913882469787" id="-7692">
		<tag k="historic" v="shieling" />
		<tag k="name" v="Reinsstølen" />
		<tag k="place" v="isolated_dwelling" />
		<tag k="ssr:stedsnr" v="730825" />
	</node>
	<node lat="59.35788333491333" lon="6.287861106824755" id="-7695">
		<tag k="alt_name" v="Liarstøl" />
		<tag k="name" v="Liastøl" />
		<tag k="place" v="farm" />
		<tag k="ssr:stedsnr" v="730850" />
	</node>
	<node lat="59.38672586950132" lon="6.090793580324964" id="-7704">
		<tag k="alt_name" v="Høyvik, in" />
		<tag k="name" v="Indre Høyvik" />
		<tag k="place" v="farm" />
		<tag k="ssr:stedsnr" v="730453" />
	</node>
	<node lat="59.43886666608097" lon="6.344894452558562" id="-7705">
		<tag k="historic" v="shieling" />
		<tag k="name" v="England" />
		<tag k="place" v="isolated_dwelling" />
		<tag k="ssr:stedsnr" v="730741" />
	</node>
	<node lat="59.45821110895443" lon="6.521672224978618" id="-7706">
		<tag k="name" v="Svartaberg" />
		<tag k="place" v="locality" />
		<tag k="ssr:stedsnr" v="730752" />
	</node>
	<node lat="59.45483611498605" lon="6.486730552504852" id="-7707">
		<tag k="alt_name" v="Breiastølen" />
		<tag k="historic" v="shieling" />
		<tag k="name" v="Breidastølen" />
		<tag k="place" v="isolated_dwelling" />
		<tag k="ssr:stedsnr" v="730756" />
	</node>
	<node lat="59.560003874477665" lon="6.598948813341219" id="-7709">
		<tag k="name" v="Hylen" />
		<tag k="place" v="farm" />
		<tag k="ssr:stedsnr" v="731059" />
	</node>
	<node lat="59.57295278046606" lon="6.775261114957314" id="-7710">
		<tag k="historic" v="shieling" />
		<tag k="name" v="Nystølen" />
		<tag k="place" v="isolated_dwelling" />
		<tag k="ssr:stedsnr" v="731061" />
	</node>
	<node lat="59.60155717787082" lon="6.703703211712941" id="-7716">
		<tag k="name" v="Tveitane" />
		<tag k="place" v="farm" />
		<tag k="ssr:stedsnr" v="731093" />
	</node>
	<node lat="59.59591383532862" lon="6.794231274734614" id="-7717">
		<tag k="name" v="Århus" />
		<tag k="place" v="farm" />
		<tag k="ssr:stedsnr" v="731098" />
	</node>
	<node lat="59.365333337545366" lon="6.31244999370973" id="-7719">
		<tag k="name" v="Trædet" />
		<tag k="place" v="locality" />
		<tag k="ssr:stedsnr" v="730852" />
	</node>
	<node lat="59.54886051414527" lon="6.354141517463817" id="-7723">
		<tag k="name" v="Fattland" />
		<tag k="place" v="farm" />
		<tag k="ssr:stedsnr" v="731135" />
	</node>
	<node lat="59.32417500237835" lon="6.19437500244443" id="-7726">
		<tag k="name" v="Flota" />
		<tag k="place" v="farm" />
		<tag k="ssr:stedsnr" v="731469" />
	</node>
	<node lat="59.43296111343653" lon="6.359413880447824" id="-7727">
		<tag k="alt_name" v="Grimstølen" />
		<tag k="historic" v="shieling" />
		<tag k="name" v="Grimsstølen" />
		<tag k="place" v="isolated_dwelling" />
		<tag k="ssr:stedsnr" v="731651" />
	</node>
	<node lat="59.51509166700214" lon="6.637530554384724" id="-7729">
		<tag k="name" v="Kvilldal" />
		<tag k="place" v="quarter" />
		<tag k="ssr:stedsnr" v="731377" />
	</node>
	<node lat="59.50304999738139" lon="6.631727776702794" id="-7732">
		<tag k="name" v="Haugen" />
		<tag k="place" v="locality" />
		<tag k="ssr:stedsnr" v="731383" />
	</node>
	<node lat="59.39858889128442" lon="6.102522224012755" id="-7734">
		<tag k="name" v="Neset" />
		<tag k="place" v="farm" />
		<tag k="ssr:stedsnr" v="731392" />
	</node>
	<node lat="59.55606388458583" lon="6.352149994575943" id="-7737">
		<tag k="alt_name" v="Fivarstøl" />
		<tag k="historic" v="shieling" />
		<tag k="name" v="Fivarstølen" />
		<tag k="place" v="isolated_dwelling" />
		<tag k="ssr:stedsnr" v="731849" />
	</node>
	<node lat="59.34310277701467" lon="6.070786115516404" id="-7745">
		<tag k="name" v="Varpet" />
		<tag k="place" v="farm" />
		<tag k="ssr:stedsnr" v="767129" />
	</node>
	<node lat="59.53163055972374" lon="6.2511416698125775" id="-7746">
		<tag k="name" v="Mørk" />
		<tag k="place" v="farm" />
		<tag k="ssr:stedsnr" v="767573" />
	</node>
	<node lat="59.421741670569" lon="5.916944441214666" id="-7758">
		<tag k="name" v="Vormestrand" />
		<tag k="place" v="hamlet" />
		<tag k="ssr:stedsnr" v="781339" />
	</node>
	<node lat="59.43661666343343" lon="6.058680555781634" id="-7759">
		<tag k="name" v="Austmanntveit" />
		<tag k="place" v="farm" />
		<tag k="ssr:stedsnr" v="782076" />
	</node>
	<node lat="59.43224999810698" lon="6.158908338866005" id="-7767">
		<tag k="name" v="Ara" />
		<tag k="place" v="isolated_dwelling" />
		<tag k="ssr:stedsnr" v="782085" />
	</node>
	<node lat="59.38018611536016" lon="6.3048333272272306" id="-7773">
		<tag k="name" v="Haugane" />
		<tag k="place" v="farm" />
		<tag k="ssr:stedsnr" v="782439" />
	</node>
	<node lat="59.33289133839311" lon="6.085161655669543" id="-7775">
		<tag k="alt_name" v="Soleim" />
		<tag k="name" v="Solheim" />
		<tag k="place" v="farm" />
		<tag k="ssr:stedsnr" v="782382" />
	</node>
	<node lat="59.406219442210435" lon="5.9828333298191" id="-7788">
		<tag k="name" v="Bakkabu" />
		<tag k="place" v="locality" />
		<tag k="ssr:stedsnr" v="782777" />
	</node>
	<node lat="59.35359444560603" lon="6.239797222889307" id="-7789">
		<tag k="name" v="Soltun" />
		<tag k="place" v="farm" />
		<tag k="ssr:stedsnr" v="782942" />
	</node>
	<node lat="59.52736110676174" lon="6.283341666533803" id="-7796">
		<tag k="name" v="Myro" />
		<tag k="place" v="locality" />
		<tag k="ssr:stedsnr" v="783797" />
	</node>
	<node lat="59.380230555118075" lon="6.527422229832326" id="-7844">
		<tag k="name" v="Holmen" />
		<tag k="place" v="farm" />
		<tag k="ssr:stedsnr" v="788190" />
	</node>
	<node lat="59.479561109025454" lon="6.462874993571" id="-7863">
		<tag k="name" v="Rydl" />
		<tag k="place" v="farm" />
		<tag k="ssr:stedsnr" v="788976" />
	</node>
	<node lat="59.38430000270607" lon="6.060775003977673" id="-7878">
		<tag k="name" v="Straumberget" />
		<tag k="place" v="farm" />
		<tag k="ssr:stedsnr" v="791429" />
	</node>
	<node lat="59.365424996866935" lon="6.045100003404093" id="-7882">
		<tag k="name" v="Berakvam" />
		<tag k="place" v="farm" />
		<tag k="ssr:stedsnr" v="791461" />
	</node>
	<node lat="59.40757499783111" lon="6.313808331325045" id="-7885">
		<tag k="alt_name" v="Hedlestølen" />
		<tag k="historic" v="shieling" />
		<tag k="name" v="Rørtveitstølen" />
		<tag k="place" v="isolated_dwelling" />
		<tag k="ssr:stedsnr" v="791761" />
	</node>
	<node lat="59.41248333533304" lon="6.574608341265134" id="-7888">
		<tag k="alt_name" v="Longanes" />
		<tag k="historic" v="shieling" />
		<tag k="name" v="Langanes" />
		<tag k="place" v="isolated_dwelling" />
		<tag k="ssr:stedsnr" v="791770" />
	</node>
	<node lat="59.493599818988784" lon="6.537372903155132" id="-7893">
		<tag k="name" v="Vik" />
		<tag k="place" v="farm" />
		<tag k="ssr:stedsnr" v="791634" />
	</node>
	<node lat="59.64942777416559" lon="6.66890832557417" id="-7898">
		<tag k="name" v="Slettedalen" />
		<tag k="place" v="locality" />
		<tag k="ssr:stedsnr" v="792064" />
	</node>
	<node lat="59.37658611294788" lon="6.446624999988108" id="-7900">
		<tag k="name" v="Li" />
		<tag k="place" v="farm" />
		<tag k="ssr:stedsnr" v="791825" />
	</node>
	<node lat="59.36705277985765" lon="6.338383338790055" id="-7902">
		<tag k="alt_name" v="Varåsstølen" />
		<tag k="historic" v="shieling" />
		<tag k="name" v="Vardåsstølen" />
		<tag k="place" v="isolated_dwelling" />
		<tag k="ssr:stedsnr" v="791830" />
	</node>
	<node lat="59.55009257870886" lon="6.337027471512031" id="-7910">
		<tag k="name" v="Løland" />
		<tag k="place" v="farm" />
		<tag k="ssr:stedsnr" v="792172" />
	</node>
	<node lat="59.706991667325" lon="6.854224996279185" id="-7916">
		<tag k="historic" v="shieling" />
		<tag k="name" v="Vasstølen" />
		<tag k="place" v="isolated_dwelling" />
		<tag k="ssr:stedsnr" v="792196" />
	</node>
	<node lat="59.699975004036894" lon="6.7747638877249745" id="-7917">
		<tag k="historic" v="shieling" />
		<tag k="name" v="Bergstølen" />
		<tag k="place" v="isolated_dwelling" />
		<tag k="ssr:stedsnr" v="792201" />
	</node>
	<node lat="59.58776111121531" lon="6.708530561689908" id="-7927">
		<tag k="name" v="Borddalen" />
		<tag k="place" v="farm" />
		<tag k="ssr:stedsnr" v="809899" />
	</node>
	<node lat="59.46768055913564" lon="6.607674992594988" id="-7928">
		<tag k="historic" v="shieling" />
		<tag k="name" v="Tjørdalsstølane" />
		<tag k="place" v="isolated_dwelling" />
		<tag k="ssr:stedsnr" v="809214" />
	</node>
	<node lat="59.606869442791755" lon="6.712086116874545" id="-7933">
		<tag k="name" v="Takfargli" />
		<tag k="place" v="isolated_dwelling" />
		<tag k="ssr:stedsnr" v="810907" />
	</node>
	<node lat="59.345500000429375" lon="6.10448055097633" id="-7936">
		<tag k="name" v="Furulund" />
		<tag k="place" v="farm" />
		<tag k="ssr:stedsnr" v="828122" />
	</node>
	<node lat="59.547833258860464" lon="6.394976549304008" id="-7939">
		<tag k="alt_name" v="Kuflåa" />
		<tag k="name" v="Kuflota" />
		<tag k="place" v="locality" />
		<tag k="ssr:stedsnr" v="828560" />
	</node>
	<node lat="59.36773333118614" lon="6.186647229438095" id="-7949">
		<tag k="name" v="Hola" />
		<tag k="place" v="farm" />
		<tag k="ssr:stedsnr" v="843014" />
	</node>
	<node lat="59.375772221272875" lon="6.18439445142677" id="-7950">
		<tag k="name" v="Kleivane" />
		<tag k="place" v="farm" />
		<tag k="ssr:stedsnr" v="843015" />
	</node>
	<node lat="59.425818440140155" lon="6.052243672966869" id="-7979">
		<tag k="name" v="Skimleim" />
		<tag k="place" v="farm" />
		<tag k="ssr:stedsnr" v="846159" />
	</node>
	<node lat="59.47802762587282" lon="6.464849033894775" id="-8034">
		<tag k="name" v="Tjøstheim" />
		<tag k="place" v="farm" />
		<tag k="ssr:stedsnr" v="852618" />
	</node>
	<node lat="59.47724381237738" lon="6.2747396862821265" id="-8035">
		<tag k="alt_name" v="Skeie" />
		<tag k="name" v="Skeide" />
		<tag k="place" v="farm" />
		<tag k="ssr:stedsnr" v="852622" />
	</node>
	<node lat="59.48797778133716" lon="6.622983340706807" id="-8038">
		<tag k="historic" v="shieling" />
		<tag k="name" v="Nyastølen" />
		<tag k="place" v="isolated_dwelling" />
		<tag k="ssr:stedsnr" v="852030" />
	</node>
	<node lat="59.49395277597326" lon="6.682047218351912" id="-8039">
		<tag k="historic" v="shieling" />
		<tag k="name" v="Vasslia" />
		<tag k="place" v="isolated_dwelling" />
		<tag k="ssr:stedsnr" v="852034" />
	</node>
	<node lat="59.53321111188979" lon="6.486161106660694" id="-8042">
		<tag k="alt_name" v="Vasstølen" />
		<tag k="historic" v="shieling" />
		<tag k="name" v="Vasstøl" />
		<tag k="place" v="isolated_dwelling" />
		<tag k="ssr:stedsnr" v="852178" />
	</node>
	<node lat="59.528017198942116" lon="6.287032059949068" id="-8043">
		<tag k="alt_name" v="Hjelmeland" />
		<tag k="name" v="Tjelmeland" />
		<tag k="place" v="farm" />
		<tag k="ssr:stedsnr" v="852183" />
	</node>
	<node lat="59.52324999861038" lon="6.392183337674543" id="-8044">
		<tag k="alt_name" v="Suldalseid" />
		<tag k="name" v="Suldalseidet" />
		<tag k="place" v="hamlet" />
		<tag k="ssr:stedsnr" v="852192" />
	</node>
	<node lat="59.41494166543463" lon="6.756575001465279" id="-8047">
		<tag k="name" v="Øvre Moen" />
		<tag k="place" v="isolated_dwelling" />
		<tag k="ssr:stedsnr" v="852223" />
	</node>
	<node lat="59.45560000139751" lon="6.182674994118539" id="-8052">
		<tag k="name" v="Midvik" />
		<tag k="place" v="locality" />
		<tag k="ssr:stedsnr" v="852336" />
	</node>
	<node lat="59.46589523071084" lon="6.418016591802361" id="-8056">
		<tag k="name" v="Ritland" />
		<tag k="place" v="farm" />
		<tag k="ssr:stedsnr" v="852691" />
	</node>
	<node lat="59.39051944521903" lon="6.589705552444349" id="-8060">
		<tag k="historic" v="shieling" />
		<tag k="name" v="Nyastølen" />
		<tag k="place" v="isolated_dwelling" />
		<tag k="ssr:stedsnr" v="852850" />
	</node>
	<node lat="59.422662314715325" lon="6.1274935299512965" id="-8062">
		<tag k="alt_name" v="Åsarødna, in;Indre Åsarødna" />
		<tag k="name" v="Indra Åsarøy" />
		<tag k="place" v="farm" />
		<tag k="ssr:stedsnr" v="852362" />
	</node>
	<node lat="59.34307777907308" lon="6.21334999781441" id="-8065">
		<tag k="alt_name" v="Skjerahaug" />
		<tag k="name" v="Skjerahaugen" />
		<tag k="place" v="farm" />
		<tag k="ssr:stedsnr" v="852537" />
	</node>
	<node lat="59.48208089398181" lon="6.2827137295571225" id="-8069">
		<tag k="alt_name" v="Hedland" />
		<tag k="name" v="Helland" />
		<tag k="place" v="farm" />
		<tag k="ssr:stedsnr" v="852639" />
	</node>
	<node lat="59.494445234281514" lon="6.254136517115591" id="-8071">
		<tag k="name" v="Eide" />
		<tag k="place" v="farm" />
		<tag k="ssr:stedsnr" v="852656" />
	</node>
	<node lat="59.590591235750644" lon="6.711404643687181" id="-8072">
		<tag k="name" v="Lali" />
		<tag k="place" v="farm" />
		<tag k="ssr:stedsnr" v="853089" />
	</node>
	<node lat="59.57740277471955" lon="6.774008335232955" id="-8076">
		<tag k="name" v="Rinden" />
		<tag k="place" v="locality" />
		<tag k="ssr:stedsnr" v="853052" />
	</node>
	<node lat="59.68262500126641" lon="6.756638894724386" id="-8078">
		<tag k="name" v="Flotene" />
		<tag k="place" v="farm" />
		<tag k="ssr:stedsnr" v="853186" />
	</node>
	<node lat="59.543838884445236" lon="6.35905277672511" id="-8079">
		<tag k="name" v="Vanvik" />
		<tag k="place" v="quarter" />
		<tag k="ssr:stedsnr" v="853128" />
	</node>
	<node lat="59.54322499890149" lon="6.354275005544627" id="-8080">
		<tag k="alt_name" v="Garvik" />
		<tag k="name" v="Gardvika" />
		<tag k="place" v="farm" />
		<tag k="ssr:stedsnr" v="853129" />
	</node>
	<node lat="59.524483333709156" lon="6.627680547584394" id="-8082">
		<tag k="name" v="Vika" />
		<tag k="place" v="farm" />
		<tag k="ssr:stedsnr" v="853431" />
	</node>
	<node lat="59.5006370009589" lon="6.9667147648771" id="-8089">
		<tag k="fixme" v="consider tourism=alpine_hut or tourism=chalet" />
		<tag k="name" v="Steinkilehytta" />
		<tag k="ssr:stedsnr" v="853404" />
		<tag k="tourism" v="wilderness_hut" />
	</node>
	<node lat="59.58113882706428" lon="6.676658870306637" id="-8092">
		<tag k="name" v="Litlehammar" />
		<tag k="place" v="farm" />
		<tag k="ssr:stedsnr" v="870881" />
	</node>
	<node lat="59.34250277424808" lon="6.023305559062974" id="-8102">
		<tag k="name" v="Fiskahonka" />
		<tag k="place" v="farm" />
		<tag k="ssr:stedsnr" v="949188" />
	</node>
	<node lat="59.557611112464556" lon="6.446063883730225" id="-8114">
		<tag k="name" v="Øranaustet" />
		<tag k="place" v="locality" />
		<tag k="ssr:stedsnr" v="964521" />
	</node>
	<node lat="59.33839547715112" lon="5.9726387270595795" id="-8124">
		<tag k="name" v="Haugen" />
		<tag k="place" v="farm" />
		<tag k="ssr:stedsnr" v="964178" />
	</node>
	<node lat="59.34334722543358" lon="6.193275003953184" id="-8135">
		<tag k="name" v="Vårli" />
		<tag k="place" v="farm" />
		<tag k="ssr:stedsnr" v="964934" />
	</node>
	<node lat="59.5086805555175" lon="6.464416658692552" id="-8154">
		<tag k="name" v="Mehus" />
		<tag k="place" v="farm" />
		<tag k="ssr:stedsnr" v="969054" />
	</node>
	<node lat="59.51511110870364" lon="6.637374991892485" id="-8173">
		<tag k="name" v="Nedstov" />
		<tag k="place" v="farm" />
		<tag k="ssr:stedsnr" v="970262" />
	</node>
	<node lat="59.377372218894884" lon="6.5014500034909215" id="-8188">
		<tag k="name" v="Bekkjene" />
		<tag k="place" v="farm" />
		<tag k="ssr:stedsnr" v="970421" />
	</node>
	<node lat="59.610836110963554" lon="6.6769249932350405" id="-8199">
		<tag k="historic" v="shieling" />
		<tag k="name" v="Hovdestølen" />
		<tag k="place" v="isolated_dwelling" />
		<tag k="ssr:stedsnr" v="970746" />
	</node>
	<node lat="59.6076305600576" lon="6.686594452663829" id="-8201">
		<tag k="historic" v="shieling" />
		<tag k="name" v="Børkjestølen" />
		<tag k="place" v="isolated_dwelling" />
		<tag k="ssr:stedsnr" v="970750" />
	</node>
	<node lat="59.33649871547582" lon="5.976906059035503" id="-8352">
		<tag k="name" v="Foldøyna" />
		<tag k="place" v="farm" />
		<tag k="ssr:stedsnr" v="1071978" />
	</node>
	<node lat="59.39127108394776" lon="5.994429208804538" id="-8353">
		<tag k="name" v="Østhus" />
		<tag k="place" v="farm" />
		<tag k="ssr:stedsnr" v="1071979" />
	</node>
	<node lat="59.39798160024991" lon="6.091964463419718" id="-8354">
		<tag k="name" v="Ottøya" />
		<tag k="place" v="farm" />
		<tag k="ssr:stedsnr" v="1071980" />
	</node>
	<node lat="59.4484814063351" lon="5.928664150428728" id="-8355">
		<tag k="name" v="Kråkenes" />
		<tag k="place" v="farm" />
		<tag k="ssr:stedsnr" v="1071981" />
	</node>
	<node lat="59.53511459602065" lon="6.290888236748129" id="-8361">
		<tag k="name" v="Vestre Fattnes" />
		<tag k="place" v="farm" />
		<tag k="ssr:stedsnr" v="1077469" />
	</node>
	<node lat="59.38450922396695" lon="6.087447504513585" id="-8367">
		<tag k="name" v="Høyvik" />
		<tag k="place" v="farm" />
		<tag k="ssr:stedsnr" v="1080322" />
	</node>
	<node lat="59.44349085391862" lon="5.970611851638446" id="-8368">
		<tag k="name" v="Rødne" />
		<tag k="place" v="farm" />
		<tag k="ssr:stedsnr" v="1080324" />
	</node>
	<node lat="59.463870852827405" lon="6.923605913331266" id="-8375">
		<tag k="fixme" v="consider tourism=alpine_hut or tourism=chalet" />
		<tag k="name" v="Grjotdalsneset" />
		<tag k="ssr:stedsnr" v="1085491" />
		<tag k="tourism" v="wilderness_hut" />
	</node>
</osm>
