<?xml version="1.0" encoding="UTF-8"?>
<<<<<<< HEAD
<osm version="0.6" generator="osmapis">
	<node lat="59.90645833293974" lon="10.523088890762626" id="-13246">
		<tag k="name" v="Kolsåsbanen" />
=======
<osm generator="osmapis" version="0.6">
	<node id="-248639" lat="59.88210556" lon="10.5371972141">
		<tag k="name" v="Nedre Kalvøya" />
		<tag k="ssr:date" v="2019-12-27" />
		<tag k="ssr:gruppe" v="navigasjon" />
		<tag k="ssr:hovedgruppe" v="infrastruktur" />
		<tag k="ssr:stedsnr" v="782041" />
		<tag k="ssr:type" v="fyrlykt" />
	</node>
	<node id="-247795" lat="59.8822388882" lon="10.6226305549">
		<tag k="fixme" v="multiple name tags, choose one and add the other to alt_name" />
		<tag k="name" v="Snarøykilen;Snarøykilen lykt" />
		<tag k="ssr:date" v="2019-12-27" />
		<tag k="ssr:gruppe" v="navigasjon" />
		<tag k="ssr:hovedgruppe" v="infrastruktur" />
		<tag k="ssr:stedsnr" v="660033" />
		<tag k="ssr:type" v="fyrlykt" />
	</node>
	<node id="-247662" lat="59.8396624462" lon="10.5864635455">
		<tag k="alt_name" v="Gåsungene" />
		<tag k="name" v="Gåsungene lykt" />
>>>>>>> e1d4bc35ff8a6074a6f2e91616a996b547c36f15
		<tag k="ssr:date" v="2019-12-27" />
		<tag k="ssr:gruppe" v="bane" />
		<tag k="ssr:hovedgruppe" v="infrastruktur" />
		<tag k="ssr:stedsnr" v="143901" />
		<tag k="ssr:type" v="banestrekning" />
	</node>
	<node lat="59.88352500146641" lon="10.535438889722458" id="-13422">
		<tag k="name" v="Øvre Kalvøya" />
		<tag k="ssr:date" v="2021-06-08" />
		<tag k="ssr:gruppe" v="navigasjon" />
		<tag k="ssr:hovedgruppe" v="infrastruktur" />
		<tag k="ssr:stedsnr" v="418038" />
		<tag k="ssr:type" v="fyrlykt" />
	</node>
<<<<<<< HEAD
	<node lat="59.88223888824484" lon="10.622630554871225" id="-13593">
		<tag k="fixme" v="multiple name tags, choose one and add the other to alt_name" />
		<tag k="name" v="Snarøykilen;Snarøykilen lykt" />
=======
	<node id="-247788" lat="59.8835250015" lon="10.5354388897">
		<tag k="name" v="Øvre Kalvøya" />
>>>>>>> e1d4bc35ff8a6074a6f2e91616a996b547c36f15
		<tag k="ssr:date" v="2019-12-27" />
		<tag k="ssr:gruppe" v="navigasjon" />
		<tag k="ssr:hovedgruppe" v="infrastruktur" />
		<tag k="ssr:stedsnr" v="660033" />
		<tag k="ssr:type" v="fyrlykt" />
	</node>
<<<<<<< HEAD
	<node lat="59.885960252574506" lon="10.536159109830995" id="-13797">
		<tag k="name" v="Kalvøya" />
=======
	<node id="-248636" lat="59.8514055591" lon="10.5886916691">
		<tag k="name" v="Gåsøya lykt" />
		<tag k="ssr:date" v="2019-12-27" />
		<tag k="ssr:gruppe" v="navigasjon" />
		<tag k="ssr:hovedgruppe" v="infrastruktur" />
		<tag k="ssr:stedsnr" v="751463" />
		<tag k="ssr:type" v="fyrlykt" />
	</node>
	<node id="-248162" lat="59.8797114011" lon="10.5415304279">
		<tag k="name" v="Kalvøygrunnen lanterne" />
>>>>>>> e1d4bc35ff8a6074a6f2e91616a996b547c36f15
		<tag k="ssr:date" v="2019-12-27" />
		<tag k="ssr:gruppe" v="veg" />
		<tag k="ssr:hovedgruppe" v="infrastruktur" />
		<tag k="ssr:stedsnr" v="992335" />
		<tag k="ssr:type" v="adressenavn" />
	</node>
	<node lat="59.9826333315184" lon="10.483411110667996" id="-13840">
		<tag k="name" v="Lommedalsbanen" />
		<tag k="ssr:date" v="2019-12-27" />
		<tag k="ssr:gruppe" v="bane" />
		<tag k="ssr:hovedgruppe" v="infrastruktur" />
		<tag k="ssr:stedsnr" v="58597" />
		<tag k="ssr:type" v="banestrekning" />
	</node>
	<node lat="59.879711401115834" lon="10.541530427858927" id="-13847">
		<tag k="name" v="Kalvøygrunnen lanterne" />
		<tag k="ssr:date" v="2021-06-08" />
		<tag k="ssr:gruppe" v="navigasjon" />
		<tag k="ssr:hovedgruppe" v="infrastruktur" />
		<tag k="ssr:stedsnr" v="67062" />
		<tag k="ssr:type" v="fyrlykt" />
	</node>
<<<<<<< HEAD
	<node lat="59.89732500205179" lon="10.630819435764" id="-13961">
		<tag k="name" v="Fornebu" />
		<tag k="ssr:date" v="2021-06-08" />
		<tag k="ssr:gruppe" v="administrativeIndelinger" />
		<tag k="ssr:hovedgruppe" v="offentligAdministrasjon" />
		<tag k="ssr:stedsnr" v="206680" />
		<tag k="ssr:type" v="poststed" />
	</node>
	<node lat="59.88995833376873" lon="10.526477772940938" id="-13962">
		<tag k="alt_name" v="Bærum" />
		<tag k="name" v="Bærum kommune" />
		<tag k="ssr:date" v="2019-12-27" />
		<tag k="ssr:gruppe" v="administrativeIndelinger" />
		<tag k="ssr:hovedgruppe" v="offentligAdministrasjon" />
		<tag k="ssr:stedsnr" v="207764" />
		<tag k="ssr:type" v="kommune" />
	</node>
	<node lat="59.83966244616497" lon="10.586463545473269" id="-13965">
		<tag k="alt_name" v="Gåsungene" />
		<tag k="name" v="Gåsungene lykt" />
		<tag k="ssr:date" v="2019-12-27" />
		<tag k="ssr:gruppe" v="navigasjon" />
		<tag k="ssr:hovedgruppe" v="infrastruktur" />
		<tag k="ssr:stedsnr" v="296514" />
		<tag k="ssr:type" v="fyrlykt" />
	</node>
	<node lat="59.8792694467444" lon="10.499108331379484" id="-14001">
=======
	<node id="-248789" lat="69.6388889725" lon="30.5666644427">
		<tag k="fixme" v="multiple name tags, choose one and add the other to alt_name" />
		<tag k="loc_name:se" v="Norgga gonagasriika" />
		<tag k="loc_name:sma" v="Nöörjen gånkarïjhke" />
		<tag k="loc_name:smj" v="Vuona gånågisrijkka" />
		<tag k="name" v="Noreg;Norge" />
		<tag k="name:en" v="Norway" />
		<tag k="name:no" v="Noreg;Norge" />
		<tag k="ssr:date" v="2020-06-04" />
		<tag k="ssr:gruppe" v="administrativeIndelinger" />
		<tag k="ssr:hovedgruppe" v="offentligAdministrasjon" />
		<tag k="ssr:stedsnr" v="26330" />
		<tag k="ssr:type" v="nasjon" />
	</node>
	<node id="-248380" lat="59.8792694467" lon="10.4991083314">
>>>>>>> e1d4bc35ff8a6074a6f2e91616a996b547c36f15
		<tag k="name" v="Drammensbanen" />
		<tag k="ssr:date" v="2019-12-27" />
		<tag k="ssr:gruppe" v="bane" />
		<tag k="ssr:hovedgruppe" v="infrastruktur" />
		<tag k="ssr:stedsnr" v="326555" />
		<tag k="ssr:type" v="banestrekning" />
	</node>
<<<<<<< HEAD
	<node lat="59.88647222075609" lon="10.415908333412407" id="-14004">
		<tag k="name" v="Mårledningen" />
		<tag k="ssr:date" v="2019-12-27" />
		<tag k="ssr:gruppe" v="energi" />
=======
	<node id="-248787" lat="59.9084487769" lon="10.4804225337">
		<tag k="name" v="Møllerløkka" />
		<tag k="ssr:date" v="2020-02-13" />
		<tag k="ssr:gruppe" v="veg" />
>>>>>>> e1d4bc35ff8a6074a6f2e91616a996b547c36f15
		<tag k="ssr:hovedgruppe" v="infrastruktur" />
		<tag k="ssr:stedsnr" v="326619" />
		<tag k="ssr:type" v="kraftledning" />
	</node>
	<node lat="59.88898055756939" lon="10.55120278676239" id="-14013">
		<tag k="name" v="Øvre Høvikodden" />
		<tag k="ssr:date" v="2021-06-08" />
		<tag k="ssr:gruppe" v="navigasjon" />
		<tag k="ssr:hovedgruppe" v="infrastruktur" />
		<tag k="ssr:stedsnr" v="357033" />
		<tag k="ssr:type" v="fyrlykt" />
	</node>
	<node lat="59.84436388692064" lon="10.57225832466179" id="-14100">
		<tag k="name" v="Gåsøyrenna" />
		<tag k="ssr:date" v="2019-12-27" />
		<tag k="ssr:gruppe" v="sjøbunn" />
		<tag k="ssr:hovedgruppe" v="sjø" />
		<tag k="ssr:stedsnr" v="448481" />
		<tag k="ssr:type" v="renneKløftISjø" />
	</node>
<<<<<<< HEAD
	<node lat="59.93936111085445" lon="10.610777777469456" id="-14151">
=======
	<node id="-248529" lat="59.9393611109" lon="10.6107777775">
>>>>>>> e1d4bc35ff8a6074a6f2e91616a996b547c36f15
		<tag k="name" v="Røabanen" />
		<tag k="ssr:date" v="2019-12-27" />
		<tag k="ssr:gruppe" v="bane" />
		<tag k="ssr:hovedgruppe" v="infrastruktur" />
		<tag k="ssr:stedsnr" v="567937" />
		<tag k="ssr:type" v="banestrekning" />
	</node>
<<<<<<< HEAD
	<node lat="59.85140555906202" lon="10.588691669100477" id="-14263">
		<tag k="name" v="Gåsøya lykt" />
		<tag k="ssr:date" v="2021-06-08" />
		<tag k="ssr:gruppe" v="navigasjon" />
=======
	<node id="-248144" lat="59.9826333315" lon="10.4834111107">
		<tag k="name" v="Lommedalsbanen" />
		<tag k="ssr:date" v="2019-12-27" />
		<tag k="ssr:gruppe" v="bane" />
>>>>>>> e1d4bc35ff8a6074a6f2e91616a996b547c36f15
		<tag k="ssr:hovedgruppe" v="infrastruktur" />
		<tag k="ssr:stedsnr" v="751463" />
		<tag k="ssr:type" v="fyrlykt" />
	</node>
<<<<<<< HEAD
	<node lat="59.888472224004296" lon="10.551019444910665" id="-14266">
		<tag k="name" v="Nedre Høvikodden" />
		<tag k="ssr:date" v="2021-06-08" />
		<tag k="ssr:gruppe" v="navigasjon" />
		<tag k="ssr:hovedgruppe" v="infrastruktur" />
		<tag k="ssr:stedsnr" v="782032" />
		<tag k="ssr:type" v="fyrlykt" />
	</node>
	<node lat="59.882105560025025" lon="10.537197214061088" id="-14267">
		<tag k="name" v="Nedre Kalvøya" />
		<tag k="ssr:date" v="2021-06-08" />
		<tag k="ssr:gruppe" v="navigasjon" />
		<tag k="ssr:hovedgruppe" v="infrastruktur" />
		<tag k="ssr:stedsnr" v="782041" />
		<tag k="ssr:type" v="fyrlykt" />
	</node>
	<node lat="59.840087305205245" lon="10.59117867322726" id="-14356">
		<tag k="name" v="Gåsungvarden" />
=======
	<node id="-248782" lat="59.9116896876" lon="10.7581882267">
		<tag k="name" v="Viken fylke" />
		<tag k="ssr:date" v="2020-01-13" />
		<tag k="ssr:gruppe" v="administrativeIndelinger" />
		<tag k="ssr:hovedgruppe" v="offentligAdministrasjon" />
		<tag k="ssr:stedsnr" v="1074403" />
		<tag k="ssr:type" v="fylke" />
	</node>
	<node id="-248781" lat="59.9426528251" lon="10.5664018461">
		<tag k="name" v="Ankerveien" />
>>>>>>> e1d4bc35ff8a6074a6f2e91616a996b547c36f15
		<tag k="ssr:date" v="2019-12-27" />
		<tag k="ssr:gruppe" v="navigasjon" />
		<tag k="ssr:hovedgruppe" v="infrastruktur" />
		<tag k="ssr:stedsnr" v="985691" />
		<tag k="ssr:type" v="sjøvarde" />
	</node>
<<<<<<< HEAD
	<node lat="59.86137750154168" lon="10.577626708863086" id="-14362">
		<tag k="name" v="Møystads vei" />
=======
	<node id="-248778" lat="59.8917015992" lon="10.5258969095">
		<tag k="name" v="Øvre torv" />
>>>>>>> e1d4bc35ff8a6074a6f2e91616a996b547c36f15
		<tag k="ssr:date" v="2019-12-27" />
		<tag k="ssr:gruppe" v="veg" />
		<tag k="ssr:hovedgruppe" v="infrastruktur" />
		<tag k="ssr:stedsnr" v="1066547" />
		<tag k="ssr:type" v="adressenavn" />
	</node>
<<<<<<< HEAD
	<node lat="59.92606200266341" lon="10.450362561260413" id="-14363">
		<tag k="name" v="Tyslandsløkka" />
=======
	<node id="-248777" lat="59.8931005698" lon="10.4057789705">
		<tag k="name" v="Grønlandsveien" />
>>>>>>> e1d4bc35ff8a6074a6f2e91616a996b547c36f15
		<tag k="ssr:date" v="2019-12-27" />
		<tag k="ssr:gruppe" v="veg" />
		<tag k="ssr:hovedgruppe" v="infrastruktur" />
		<tag k="ssr:stedsnr" v="1067432" />
		<tag k="ssr:type" v="adressenavn" />
	</node>
<<<<<<< HEAD
	<node lat="59.909637776494186" lon="10.641521566670697" id="-14364">
		<tag k="name" v="Lysaker brygge" />
=======
	<node id="-248776" lat="59.9938556721" lon="10.4940431968">
		<tag k="name" v="Vensåsseterveien" />
>>>>>>> e1d4bc35ff8a6074a6f2e91616a996b547c36f15
		<tag k="ssr:date" v="2019-12-27" />
		<tag k="ssr:gruppe" v="veg" />
		<tag k="ssr:hovedgruppe" v="infrastruktur" />
		<tag k="ssr:stedsnr" v="1067841" />
		<tag k="ssr:type" v="adressenavn" />
	</node>
<<<<<<< HEAD
	<node lat="59.96094023914252" lon="10.46931339464701" id="-14365">
		<tag k="name" v="Bjerkejordet" />
=======
	<node id="-248775" lat="59.911340024" lon="10.5902820193">
		<tag k="name" v="Skallumjordet" />
>>>>>>> e1d4bc35ff8a6074a6f2e91616a996b547c36f15
		<tag k="ssr:date" v="2019-12-27" />
		<tag k="ssr:gruppe" v="veg" />
		<tag k="ssr:hovedgruppe" v="infrastruktur" />
		<tag k="ssr:stedsnr" v="1067854" />
		<tag k="ssr:type" v="adressenavn" />
	</node>
<<<<<<< HEAD
	<node lat="59.932277237595" lon="10.46574952131723" id="-14366">
		<tag k="name" v="Bjerkeløkken" />
=======
	<node id="-248774" lat="59.9121368167" lon="10.6093616454">
		<tag k="name" v="Guderuds vei" />
>>>>>>> e1d4bc35ff8a6074a6f2e91616a996b547c36f15
		<tag k="ssr:date" v="2019-12-27" />
		<tag k="ssr:gruppe" v="veg" />
		<tag k="ssr:hovedgruppe" v="infrastruktur" />
		<tag k="ssr:stedsnr" v="1067936" />
		<tag k="ssr:type" v="adressenavn" />
	</node>
<<<<<<< HEAD
	<node lat="59.91603790535574" lon="10.580209559253143" id="-14367">
		<tag k="name" v="Gjønneshagen" />
=======
	<node id="-248773" lat="59.8738855396" lon="10.5613434765">
		<tag k="name" v="Ostøya" />
>>>>>>> e1d4bc35ff8a6074a6f2e91616a996b547c36f15
		<tag k="ssr:date" v="2019-12-27" />
		<tag k="ssr:gruppe" v="veg" />
		<tag k="ssr:hovedgruppe" v="infrastruktur" />
		<tag k="ssr:stedsnr" v="1067937" />
		<tag k="ssr:type" v="adressenavn" />
	</node>
<<<<<<< HEAD
	<node lat="59.960435245019376" lon="10.378793322562256" id="-14368">
		<tag k="name" v="Køllen" />
=======
	<node id="-248772" lat="59.9490238424" lon="10.4655793748">
		<tag k="name" v="Trulsrudkollen" />
>>>>>>> e1d4bc35ff8a6074a6f2e91616a996b547c36f15
		<tag k="ssr:date" v="2019-12-27" />
		<tag k="ssr:gruppe" v="veg" />
		<tag k="ssr:hovedgruppe" v="infrastruktur" />
		<tag k="ssr:stedsnr" v="1067939" />
		<tag k="ssr:type" v="adressenavn" />
	</node>
<<<<<<< HEAD
	<node lat="59.90962175660861" lon="10.634861069759074" id="-14369">
=======
	<node id="-248771" lat="59.9096217566" lon="10.6348610698">
>>>>>>> e1d4bc35ff8a6074a6f2e91616a996b547c36f15
		<tag k="name" v="Munthes plass" />
		<tag k="ssr:date" v="2019-12-27" />
		<tag k="ssr:gruppe" v="veg" />
		<tag k="ssr:hovedgruppe" v="infrastruktur" />
		<tag k="ssr:stedsnr" v="1067941" />
		<tag k="ssr:type" v="adressenavn" />
	</node>
<<<<<<< HEAD
	<node lat="59.94902384237405" lon="10.465579374758839" id="-14370">
		<tag k="name" v="Trulsrudkollen" />
=======
	<node id="-248770" lat="59.960435245" lon="10.3787933226">
		<tag k="name" v="Køllen" />
>>>>>>> e1d4bc35ff8a6074a6f2e91616a996b547c36f15
		<tag k="ssr:date" v="2019-12-27" />
		<tag k="ssr:gruppe" v="veg" />
		<tag k="ssr:hovedgruppe" v="infrastruktur" />
		<tag k="ssr:stedsnr" v="1067943" />
		<tag k="ssr:type" v="adressenavn" />
	</node>
<<<<<<< HEAD
	<node lat="59.87388553964738" lon="10.561343476542454" id="-14371">
		<tag k="name" v="Ostøya" />
=======
	<node id="-248769" lat="59.9160379054" lon="10.5802095593">
		<tag k="name" v="Gjønneshagen" />
>>>>>>> e1d4bc35ff8a6074a6f2e91616a996b547c36f15
		<tag k="ssr:date" v="2019-12-27" />
		<tag k="ssr:gruppe" v="veg" />
		<tag k="ssr:hovedgruppe" v="infrastruktur" />
		<tag k="ssr:stedsnr" v="1067946" />
		<tag k="ssr:type" v="adressenavn" />
	</node>
<<<<<<< HEAD
	<node lat="59.91213681670045" lon="10.609361645413317" id="-14372">
		<tag k="name" v="Guderuds vei" />
=======
	<node id="-248768" lat="59.9322772376" lon="10.4657495213">
		<tag k="name" v="Bjerkeløkken" />
>>>>>>> e1d4bc35ff8a6074a6f2e91616a996b547c36f15
		<tag k="ssr:date" v="2019-12-27" />
		<tag k="ssr:gruppe" v="veg" />
		<tag k="ssr:hovedgruppe" v="infrastruktur" />
		<tag k="ssr:stedsnr" v="1067948" />
		<tag k="ssr:type" v="adressenavn" />
	</node>
<<<<<<< HEAD
	<node lat="59.99385567214878" lon="10.4940431968187" id="-14373">
		<tag k="name" v="Vensåsseterveien" />
=======
	<node id="-248767" lat="59.9609402391" lon="10.4693133946">
		<tag k="name" v="Bjerkejordet" />
>>>>>>> e1d4bc35ff8a6074a6f2e91616a996b547c36f15
		<tag k="ssr:date" v="2019-12-27" />
		<tag k="ssr:gruppe" v="veg" />
		<tag k="ssr:hovedgruppe" v="infrastruktur" />
		<tag k="ssr:stedsnr" v="1067952" />
		<tag k="ssr:type" v="adressenavn" />
	</node>
<<<<<<< HEAD
	<node lat="59.89310056983517" lon="10.405778970549413" id="-14374">
		<tag k="name" v="Grønlandsveien" />
=======
	<node id="-248766" lat="59.9096377765" lon="10.6415215667">
		<tag k="name" v="Lysaker brygge" />
>>>>>>> e1d4bc35ff8a6074a6f2e91616a996b547c36f15
		<tag k="ssr:date" v="2019-12-27" />
		<tag k="ssr:gruppe" v="veg" />
		<tag k="ssr:hovedgruppe" v="infrastruktur" />
		<tag k="ssr:stedsnr" v="1067953" />
		<tag k="ssr:type" v="adressenavn" />
	</node>
<<<<<<< HEAD
	<node lat="59.891701599215104" lon="10.525896909525917" id="-14375">
		<tag k="name" v="Øvre torv" />
=======
	<node id="-248765" lat="59.8613775015" lon="10.5776267089">
		<tag k="name" v="Møystads vei" />
>>>>>>> e1d4bc35ff8a6074a6f2e91616a996b547c36f15
		<tag k="ssr:date" v="2019-12-27" />
		<tag k="ssr:gruppe" v="veg" />
		<tag k="ssr:hovedgruppe" v="infrastruktur" />
		<tag k="ssr:stedsnr" v="1068996" />
		<tag k="ssr:type" v="adressenavn" />
	</node>
<<<<<<< HEAD
	<node lat="59.942652825136456" lon="10.5664018461011" id="-14378">
		<tag k="name" v="Ankerveien" />
=======
	<node id="-248764" lat="59.8859602526" lon="10.5361591098">
		<tag k="name" v="Kalvøya" />
>>>>>>> e1d4bc35ff8a6074a6f2e91616a996b547c36f15
		<tag k="ssr:date" v="2019-12-27" />
		<tag k="ssr:gruppe" v="veg" />
		<tag k="ssr:hovedgruppe" v="infrastruktur" />
		<tag k="ssr:stedsnr" v="1073314" />
		<tag k="ssr:type" v="vegstrekning" />
	</node>
<<<<<<< HEAD
	<node lat="59.91168968762522" lon="10.758188226721538" id="-14379">
		<tag k="name" v="Viken fylke" />
		<tag k="ssr:date" v="2021-06-08" />
		<tag k="ssr:gruppe" v="administrativeIndelinger" />
		<tag k="ssr:hovedgruppe" v="offentligAdministrasjon" />
		<tag k="ssr:stedsnr" v="1074403" />
		<tag k="ssr:type" v="fylke" />
	</node>
	<node lat="59.908448776883695" lon="10.480422533705164" id="-14384">
		<tag k="name" v="Møllerløkka" />
		<tag k="ssr:date" v="2020-02-13" />
		<tag k="ssr:gruppe" v="veg" />
		<tag k="ssr:hovedgruppe" v="infrastruktur" />
		<tag k="ssr:stedsnr" v="1075112" />
		<tag k="ssr:type" v="adressenavn" />
	</node>
	<node lat="59.91892884154173" lon="10.458737065327702" id="-14392">
		<tag k="name" v="Jarenlia" />
		<tag k="ssr:date" v="2021-05-07" />
		<tag k="ssr:gruppe" v="veg" />
		<tag k="ssr:hovedgruppe" v="infrastruktur" />
		<tag k="ssr:stedsnr" v="1081205" />
		<tag k="ssr:type" v="adressenavn" />
	</node>
	<node lat="59.8968637145453" lon="10.610149427553116" id="-14393">
		<tag k="name" v="Dragehodesvingen" />
		<tag k="ssr:date" v="2021-07-02" />
		<tag k="ssr:gruppe" v="veg" />
		<tag k="ssr:hovedgruppe" v="infrastruktur" />
		<tag k="ssr:stedsnr" v="1081567" />
		<tag k="ssr:type" v="adressenavn" />
	</node>
	<node lat="59.91064327714505" lon="10.565613893728555" id="-14397">
		<tag k="name" v="Kornbråtan" />
		<tag k="ssr:date" v="2021-10-05" />
		<tag k="ssr:gruppe" v="veg" />
=======
	<node id="-248753" lat="59.8400873052" lon="10.5911786732">
		<tag k="name" v="Gåsungvarden" />
		<tag k="ssr:date" v="2019-12-27" />
		<tag k="ssr:gruppe" v="navigasjon" />
		<tag k="ssr:hovedgruppe" v="infrastruktur" />
		<tag k="ssr:stedsnr" v="985691" />
		<tag k="ssr:type" v="sjøvarde" />
	</node>
	<node id="-248391" lat="59.8889805576" lon="10.5512027868">
		<tag k="name" v="Øvre Høvikodden" />
		<tag k="ssr:date" v="2019-12-27" />
		<tag k="ssr:gruppe" v="navigasjon" />
		<tag k="ssr:hovedgruppe" v="infrastruktur" />
		<tag k="ssr:stedsnr" v="357033" />
		<tag k="ssr:type" v="fyrlykt" />
	</node>
	<node id="-247719" lat="59.8864722208" lon="10.4159083334">
		<tag k="name" v="Mårledningen" />
		<tag k="ssr:date" v="2019-12-27" />
		<tag k="ssr:gruppe" v="energi" />
>>>>>>> e1d4bc35ff8a6074a6f2e91616a996b547c36f15
		<tag k="ssr:hovedgruppe" v="infrastruktur" />
		<tag k="ssr:stedsnr" v="1082516" />
		<tag k="ssr:type" v="adressenavn" />
	</node>
<<<<<<< HEAD
	<node lat="59.88260425476" lon="10.494682273172925" id="-14398">
		<tag k="name" v="Ekkodalen" />
		<tag k="ssr:date" v="2021-10-15" />
		<tag k="ssr:gruppe" v="veg" />
=======
	<node id="-248227" lat="59.9064583329" lon="10.5230888908">
		<tag k="name" v="Kolsåsbanen" />
		<tag k="ssr:date" v="2019-12-27" />
		<tag k="ssr:gruppe" v="bane" />
>>>>>>> e1d4bc35ff8a6074a6f2e91616a996b547c36f15
		<tag k="ssr:hovedgruppe" v="infrastruktur" />
		<tag k="ssr:stedsnr" v="1082608" />
		<tag k="ssr:type" v="adressenavn" />
	</node>
<<<<<<< HEAD
	<node lat="59.89115510322635" lon="10.524997957204514" id="-14399">
		<tag k="name" v="Håkon Stenstavolds plass" />
		<tag k="ssr:date" v="2021-10-18" />
		<tag k="ssr:gruppe" v="veg" />
=======
	<node id="-248638" lat="59.888472224" lon="10.5510194449">
		<tag k="name" v="Nedre Høvikodden" />
		<tag k="ssr:date" v="2019-12-27" />
		<tag k="ssr:gruppe" v="navigasjon" />
>>>>>>> e1d4bc35ff8a6074a6f2e91616a996b547c36f15
		<tag k="ssr:hovedgruppe" v="infrastruktur" />
		<tag k="ssr:stedsnr" v="1082612" />
		<tag k="ssr:type" v="adressenavn" />
	</node>
<<<<<<< HEAD
	<node lat="59.89047665407826" lon="10.520946140239932" id="-14400">
		<tag k="name" v="Claude Monets plass" />
		<tag k="ssr:date" v="2021-10-18" />
=======
	<node id="-248083" lat="59.9260620027" lon="10.4503625613">
		<tag k="name" v="Tyslandsløkka" />
		<tag k="ssr:date" v="2019-12-27" />
>>>>>>> e1d4bc35ff8a6074a6f2e91616a996b547c36f15
		<tag k="ssr:gruppe" v="veg" />
		<tag k="ssr:hovedgruppe" v="infrastruktur" />
		<tag k="ssr:stedsnr" v="1082613" />
		<tag k="ssr:type" v="adressenavn" />
	</node>
<<<<<<< HEAD
	<node lat="59.926623738829484" lon="10.619424201666956" id="-14401">
		<tag k="name" v="Jarmyra" />
		<tag k="ssr:date" v="2021-10-19" />
		<tag k="ssr:gruppe" v="veg" />
		<tag k="ssr:hovedgruppe" v="infrastruktur" />
		<tag k="ssr:stedsnr" v="1082616" />
		<tag k="ssr:type" v="adressenavn" />
	</node>
	<node lat="59.891191673561046" lon="10.513559546175422" id="-14402">
		<tag k="name" v="Gamle Jongsåsvei" />
		<tag k="ssr:date" v="2021-10-29" />
		<tag k="ssr:gruppe" v="veg" />
		<tag k="ssr:hovedgruppe" v="infrastruktur" />
		<tag k="ssr:stedsnr" v="1082771" />
		<tag k="ssr:type" v="adressenavn" />
	</node>
	<node lat="59.885138302234296" lon="10.42710766722193" id="-14403">
		<tag k="name" v="Gupuveien" />
		<tag k="ssr:date" v="2021-11-01" />
		<tag k="ssr:gruppe" v="veg" />
		<tag k="ssr:hovedgruppe" v="infrastruktur" />
		<tag k="ssr:stedsnr" v="1082777" />
		<tag k="ssr:type" v="adressenavn" />
	</node>
	<node lat="59.915246012701054" lon="10.589975230467882" id="-14404">
		<tag k="name" v="2583 Midl. adresse" />
		<tag k="ssr:date" v="2021-11-05" />
		<tag k="ssr:gruppe" v="veg" />
		<tag k="ssr:hovedgruppe" v="infrastruktur" />
		<tag k="ssr:stedsnr" v="1082841" />
		<tag k="ssr:type" v="adressenavn" />
	</node>
=======
	<node id="-248334" lat="59.8899583338" lon="10.5264777729">
		<tag k="alt_name" v="Bærum" />
		<tag k="name" v="Bærum kommune" />
		<tag k="ssr:date" v="2019-12-27" />
		<tag k="ssr:gruppe" v="administrativeIndelinger" />
		<tag k="ssr:hovedgruppe" v="offentligAdministrasjon" />
		<tag k="ssr:stedsnr" v="207764" />
		<tag k="ssr:type" v="kommune" />
	</node>
	<node id="-248333" lat="59.8973250021" lon="10.6308194358">
		<tag k="name" v="Fornebu" />
		<tag k="ssr:date" v="2019-12-27" />
		<tag k="ssr:gruppe" v="administrativeIndelinger" />
		<tag k="ssr:hovedgruppe" v="offentligAdministrasjon" />
		<tag k="ssr:stedsnr" v="206680" />
		<tag k="ssr:type" v="poststed" />
	</node>
>>>>>>> e1d4bc35ff8a6074a6f2e91616a996b547c36f15
</osm>
