<?xml version="1.0" encoding="UTF-8"?>
<osm version="0.6" generator="osmapis">
	<node lat="58.276688892304904" lon="6.825088891182301" id="-65083">
		<tag k="alt_name" v="Revstien" />
		<tag k="fixme" v="consider place=hamlet" />
		<tag k="name" v="Refsti" />
		<tag k="place" v="farm" />
		<tag k="ssr:stedsnr" v="304" />
	</node>
	<node lat="58.50666666641445" lon="6.862813892286535" id="-65087">
		<tag k="name" v="Alfarheim" />
		<tag k="ssr:stedsnr" v="362" />
		<tag k="tourism" v="hotel" />
	</node>
	<node lat="58.74593715270529" lon="6.975728604239316" id="-65088">
		<tag k="name" v="Solhom" />
		<tag k="place" v="farm" />
		<tag k="ssr:stedsnr" v="366" />
	</node>
	<node lat="58.55831666547218" lon="6.98675833893242" id="-65089">
		<tag k="name" v="Kleivan" />
		<tag k="place" v="isolated_dwelling" />
		<tag k="ssr:stedsnr" v="397" />
	</node>
	<node lat="58.25077778102521" lon="7.0452833279957625" id="-65096">
		<tag k="alt_name" v="Trælskor" />
		<tag k="fixme" v="consider place=hamlet" />
		<tag k="name" v="Trælsgård" />
		<tag k="place" v="farm" />
		<tag k="ssr:stedsnr" v="604" />
	</node>
	<node lat="58.59733889192009" lon="6.89336666266826" id="-65097">
		<tag k="alt_name" v="Grunnsteinsli;Gunstensli" />
		<tag k="fixme" v="consider place=hamlet" />
		<tag k="name" v="Gunsteinsli" />
		<tag k="place" v="farm" />
		<tag k="ssr:stedsnr" v="645" />
	</node>
	<node lat="58.60230833044474" lon="6.910377778466937" id="-65098">
		<tag k="fixme" v="consider place=hamlet" />
		<tag k="name" v="Moland" />
		<tag k="place" v="farm" />
		<tag k="ssr:stedsnr" v="650" />
	</node>
	<node lat="58.59328333084559" lon="6.895538882960578" id="-65103">
		<tag k="name" v="Limoen" />
		<tag k="place" v="farm" />
		<tag k="ssr:stedsnr" v="709" />
	</node>
	<node lat="58.34756388987323" lon="7.070925008070249" id="-65104">
		<tag k="alt_name" v="Årlia" />
		<tag k="fixme" v="consider place=hamlet" />
		<tag k="name" v="Årli" />
		<tag k="place" v="farm" />
		<tag k="ssr:stedsnr" v="710" />
	</node>
	<node lat="58.3766277733682" lon="7.038430551934769" id="-65106">
		<tag k="alt_name" v="Dukan;Duken" />
		<tag k="fixme" v="consider place=hamlet" />
		<tag k="name" v="Dugan" />
		<tag k="place" v="farm" />
		<tag k="ssr:stedsnr" v="742" />
	</node>
	<node lat="58.28952777524097" lon="6.9057388902989665" id="-65121">
		<tag k="name" v="Mølle" />
		<tag k="place" v="farm" />
		<tag k="ssr:stedsnr" v="31012" />
	</node>
	<node lat="58.3103555546403" lon="6.963474996881343" id="-65136">
		<tag k="amenity" v="school" />
		<tag k="name" v="Kvinesdal ungdomsskole" />
		<tag k="ssr:stedsnr" v="31671" />
	</node>
	<node lat="58.235944449054955" lon="6.85588889491054" id="-65142">
		<tag k="name" v="Broddevollen" />
		<tag k="place" v="farm" />
		<tag k="ssr:stedsnr" v="32405" />
	</node>
	<node lat="58.5019055582757" lon="7.062669441332051" id="-65181">
		<tag k="fixme" v="consider place=hamlet" />
		<tag k="name" v="Åsen, indre" />
		<tag k="place" v="farm" />
		<tag k="ssr:stedsnr" v="35821" />
	</node>
	<node lat="58.27121111261892" lon="6.889588889793934" id="-65208">
		<tag k="alt_name" v="Gusevik" />
		<tag k="name" v="Gusevika" />
		<tag k="place" v="farm" />
		<tag k="ssr:stedsnr" v="61282" />
	</node>
	<node lat="58.46766111284091" lon="7.025550001953431" id="-65213">
		<tag k="alt_name" v="Veggjeland" />
		<tag k="fixme" v="consider place=hamlet" />
		<tag k="name" v="Veggeland" />
		<tag k="place" v="farm" />
		<tag k="ssr:stedsnr" v="61322" />
	</node>
	<node lat="58.3400472256476" lon="7.058416672042397" id="-65217">
		<tag k="alt_name" v="Bjørkeli" />
		<tag k="name" v="Bjørkelia" />
		<tag k="place" v="isolated_dwelling" />
		<tag k="ssr:stedsnr" v="61706" />
	</node>
	<node lat="58.35884999676291" lon="6.995469438816887" id="-65218">
		<tag k="alt_name" v="Rafossheia" />
		<tag k="name" v="Rafosshei" />
		<tag k="place" v="isolated_dwelling" />
		<tag k="ssr:stedsnr" v="61719" />
	</node>
	<node lat="58.348988892750675" lon="6.984916673913023" id="-65220">
		<tag k="alt_name" v="Trællandsheia" />
		<tag k="fixme" v="consider place=hamlet" />
		<tag k="name" v="Trælandshei" />
		<tag k="place" v="farm" />
		<tag k="ssr:stedsnr" v="61693" />
	</node>
	<node lat="58.35275555784134" lon="7.066991663805801" id="-65221">
		<tag k="alt_name" v="Eikeli" />
		<tag k="name" v="Eikelia" />
		<tag k="place" v="locality" />
		<tag k="ssr:stedsnr" v="61699" />
	</node>
	<node lat="58.33379166654241" lon="6.98055556161424" id="-65222">
		<tag k="name" v="Hamre" />
		<tag k="place" v="hamlet" />
		<tag k="ssr:stedsnr" v="61700" />
	</node>
	<node lat="58.231155552931405" lon="6.834780563929458" id="-65228">
		<tag k="alt_name" v="Ulleland" />
		<tag k="fixme" v="consider place=hamlet" />
		<tag k="name" v="Ulland" />
		<tag k="place" v="farm" />
		<tag k="ssr:stedsnr" v="243142" />
	</node>
	<node lat="58.51907777625323" lon="7.038758337320378" id="-65231">
		<tag k="alt_name" v="Vordalen" />
		<tag k="fixme" v="consider place=hamlet" />
		<tag k="name" v="Vordal" />
		<tag k="place" v="farm" />
		<tag k="ssr:stedsnr" v="243097" />
	</node>
	<node lat="58.29617500262046" lon="6.952130549716087" id="-65234">
		<tag k="fixme" v="consider place=hamlet" />
		<tag k="name" v="Liland" />
		<tag k="place" v="farm" />
		<tag k="ssr:stedsnr" v="243263" />
	</node>
	<node lat="58.278886111620054" lon="6.918113896238551" id="-65238">
		<tag k="name" v="Skjerli" />
		<tag k="place" v="farm" />
		<tag k="ssr:stedsnr" v="243282" />
	</node>
	<node lat="58.30980277546462" lon="7.057827775311079" id="-65246">
		<tag k="name" v="Stronda" />
		<tag k="place" v="locality" />
		<tag k="ssr:stedsnr" v="243550" />
	</node>
	<node lat="58.3110055551945" lon="7.006516664965177" id="-65247">
		<tag k="fixme" v="consider place=hamlet" />
		<tag k="name" v="Solås" />
		<tag k="place" v="farm" />
		<tag k="ssr:stedsnr" v="243561" />
	</node>
	<node lat="58.581186112120164" lon="7.068041673165098" id="-65250">
		<tag k="alt_name" v="Gurostolan" />
		<tag k="name" v="Gurostølen" />
		<tag k="place" v="locality" />
		<tag k="ssr:stedsnr" v="243409" />
	</node>
	<node lat="58.358711114158496" lon="6.965130561138764" id="-65252">
		<tag k="name" v="Lyding" />
		<tag k="place" v="hamlet" />
		<tag k="ssr:stedsnr" v="243450" />
	</node>
	<node lat="58.393391666041616" lon="7.039869443341668" id="-65254">
		<tag k="alt_name" v="Hola" />
		<tag k="name" v="Kleivan" />
		<tag k="place" v="farm" />
		<tag k="ssr:stedsnr" v="243660" />
	</node>
	<node lat="58.42389722355985" lon="6.97326665834704" id="-65256">
		<tag k="fixme" v="consider place=hamlet" />
		<tag k="name" v="Versland" />
		<tag k="place" v="farm" />
		<tag k="ssr:stedsnr" v="243692" />
	</node>
	<node lat="58.420044443560194" lon="7.040905562888177" id="-65257">
		<tag k="name" v="Ytstestøl" />
		<tag k="place" v="isolated_dwelling" />
		<tag k="ssr:stedsnr" v="243694" />
	</node>
	<node lat="58.361233334774546" lon="7.041624995364548" id="-65261">
		<tag k="name" v="Jerstad" />
		<tag k="place" v="farm" />
		<tag k="ssr:stedsnr" v="243725" />
	</node>
	<node lat="58.63838333441461" lon="6.940705563873983" id="-65368">
		<tag k="name" v="Fosseli" />
		<tag k="place" v="farm" />
		<tag k="ssr:stedsnr" v="96964" />
	</node>
	<node lat="58.526424998791626" lon="6.992077782092934" id="-65391">
		<tag k="fixme" v="consider place=hamlet" />
		<tag k="name" v="Fjotland" />
		<tag k="place" v="village" />
		<tag k="ssr:stedsnr" v="121117" />
	</node>
	<node lat="58.438325001074055" lon="7.032300003438165" id="-65393">
		<tag k="fixme" v="consider place=hamlet" />
		<tag k="name" v="Steintland" />
		<tag k="place" v="farm" />
		<tag k="ssr:stedsnr" v="121366" />
	</node>
	<node lat="58.51605277857318" lon="6.900102769686396" id="-65394">
		<tag k="fixme" v="consider place=hamlet" />
		<tag k="name" v="Stakkeland" />
		<tag k="place" v="farm" />
		<tag k="ssr:stedsnr" v="121369" />
	</node>
	<node lat="58.283505552926094" lon="6.898399997645841" id="-65397">
		<tag k="fixme" v="consider place=hamlet" />
		<tag k="name" v="Øye" />
		<tag k="place" v="village" />
		<tag k="ssr:stedsnr" v="121272" />
	</node>
	<node lat="58.56203611367976" lon="7.067969448859541" id="-65400">
		<tag k="alt_name" v="Mjåvassstølen" />
		<tag k="historic" v="shieling" />
		<tag k="name" v="Mjåvass-stølen" />
		<tag k="place" v="isolated_dwelling" />
		<tag k="ssr:stedsnr" v="121416" />
	</node>
	<node lat="58.34778888732151" lon="7.022780559424513" id="-65402">
		<tag k="name" v="Mjelkebakkan" />
		<tag k="place" v="farm" />
		<tag k="ssr:stedsnr" v="121704" />
	</node>
	<node lat="58.3422111089904" lon="7.0377888874022725" id="-65403">
		<tag k="fixme" v="consider place=hamlet" />
		<tag k="name" v="Moi" />
		<tag k="place" v="village" />
		<tag k="ssr:stedsnr" v="121714" />
	</node>
	<node lat="58.32629167066387" lon="6.8788666652824695" id="-65405">
		<tag k="name" v="Rudlend" />
		<tag k="place" v="locality" />
		<tag k="ssr:stedsnr" v="121465" />
	</node>
	<node lat="58.321277774788705" lon="6.934675007524499" id="-65437">
		<tag k="name" v="Knarvestøl" />
		<tag k="place" v="locality" />
		<tag k="ssr:stedsnr" v="152357" />
	</node>
	<node lat="58.34336111323826" lon="6.948099993482131" id="-65546">
		<tag k="alt_name" v="Kjeldås" />
		<tag k="name" v="Tjellås" />
		<tag k="place" v="isolated_dwelling" />
		<tag k="ssr:stedsnr" v="182459" />
	</node>
	<node lat="58.33535000357336" lon="6.902152774174636" id="-65547">
		<tag k="name" v="Våskeland" />
		<tag k="place" v="locality" />
		<tag k="ssr:stedsnr" v="182463" />
	</node>
	<node lat="58.31011110991715" lon="7.038077772558459" id="-65549">
		<tag k="name" v="Espeland" />
		<tag k="place" v="locality" />
		<tag k="ssr:stedsnr" v="182538" />
	</node>
	<node lat="58.353525002575516" lon="7.076158328068464" id="-65554">
		<tag k="name" v="Bø" />
		<tag k="place" v="locality" />
		<tag k="ssr:stedsnr" v="182702" />
	</node>
	<node lat="58.34962500062152" lon="6.9662750040510035" id="-65561">
		<tag k="name" v="Bergan" />
		<tag k="place" v="farm" />
		<tag k="ssr:stedsnr" v="213108" />
	</node>
	<node lat="58.52648889244535" lon="6.999830560063644" id="-65611">
		<tag k="name" v="Karsvoll" />
		<tag k="place" v="farm" />
		<tag k="ssr:stedsnr" v="217075" />
	</node>
	<node lat="58.76242777749881" lon="6.951477784016251" id="-65614">
		<tag k="name" v="Tjodnestøl" />
		<tag k="place" v="locality" />
		<tag k="ssr:stedsnr" v="217212" />
	</node>
	<node lat="58.26448333621293" lon="6.808483325240312" id="-65680">
		<tag k="name" v="Nygård" />
		<tag k="place" v="farm" />
		<tag k="ssr:stedsnr" v="242276" />
	</node>
	<node lat="58.26636666268536" lon="6.81890833639722" id="-65681">
		<tag k="name" v="Feda" />
		<tag k="place" v="village" />
		<tag k="ssr:stedsnr" v="242290" />
	</node>
	<node lat="58.26784166973072" lon="6.904136103832984" id="-65682">
		<tag k="name" v="Dyrli" />
		<tag k="place" v="locality" />
		<tag k="ssr:stedsnr" v="242292" />
	</node>
	<node lat="58.35641111350167" lon="7.0340777749802275" id="-65683">
		<tag k="amenity" v="school" />
		<tag k="name" v="Austerdalen skule" />
		<tag k="ssr:stedsnr" v="242492" />
	</node>
	<node lat="58.31138888771448" lon="6.825111113188998" id="-65685">
		<tag k="alt_name" v="Lone" />
		<tag k="fixme" v="consider place=hamlet" />
		<tag k="name" v="Lona" />
		<tag k="place" v="farm" />
		<tag k="ssr:stedsnr" v="243497" />
	</node>
	<node lat="58.260241662896796" lon="6.986775005966809" id="-65686">
		<tag k="alt_name" v="Nordhelle, litle" />
		<tag k="fixme" v="consider place=hamlet" />
		<tag k="name" v="Lille Nordhelle" />
		<tag k="place" v="farm" />
		<tag k="ssr:stedsnr" v="243613" />
	</node>
	<node lat="58.36106388902044" lon="7.029661117851394" id="-65687">
		<tag k="name" v="Voran" />
		<tag k="place" v="farm" />
		<tag k="ssr:stedsnr" v="243733" />
	</node>
	<node lat="58.37769999774627" lon="6.972155563853056" id="-65689">
		<tag k="fixme" v="consider place=hamlet" />
		<tag k="name" v="Skjekkeland" />
		<tag k="place" v="farm" />
		<tag k="ssr:stedsnr" v="243746" />
	</node>
	<node lat="58.37819721819825" lon="7.036627778706213" id="-65691">
		<tag k="alt_name" v="Haugland, ytre" />
		<tag k="fixme" v="consider place=hamlet" />
		<tag k="name" v="Ytre Haugland" />
		<tag k="place" v="farm" />
		<tag k="ssr:stedsnr" v="243751" />
	</node>
	<node lat="58.256902774108504" lon="6.874944450679856" id="-65780">
		<tag k="name" v="Ytre Guse" />
		<tag k="place" v="locality" />
		<tag k="ssr:stedsnr" v="457974" />
	</node>
	<node lat="58.347508335110994" lon="7.067424994249891" id="-65789">
		<tag k="name" v="Stolpan" />
		<tag k="place" v="farm" />
		<tag k="ssr:stedsnr" v="273309" />
	</node>
	<node lat="58.351133335003766" lon="7.075930547513714" id="-65792">
		<tag k="name" v="Fredheim" />
		<tag k="place" v="locality" />
		<tag k="ssr:stedsnr" v="273290" />
	</node>
	<node lat="58.2912194414116" lon="6.917441675054349" id="-65804">
		<tag k="amenity" v="school" />
		<tag k="name" v="Øye skole" />
		<tag k="ssr:stedsnr" v="274008" />
	</node>
	<node lat="58.25501389303205" lon="7.0441249988929595" id="-65835">
		<tag k="name" v="Himaløa" />
		<tag k="place" v="locality" />
		<tag k="ssr:stedsnr" v="275119" />
	</node>
	<node lat="58.27054166591351" lon="6.81710000310901" id="-65841">
		<tag k="amenity" v="school" />
		<tag k="name" v="Feda skole" />
		<tag k="ssr:stedsnr" v="275908" />
	</node>
	<node lat="58.50493055326669" lon="7.015633335095958" id="-65941">
		<tag k="name" v="Gamle Mygland" />
		<tag k="place" v="locality" />
		<tag k="ssr:stedsnr" v="460289" />
	</node>
	<node lat="58.45257499866089" lon="7.010333325356534" id="-65952">
		<tag k="name" v="Furøyna" />
		<tag k="place" v="farm" />
		<tag k="ssr:stedsnr" v="460443" />
	</node>
	<node lat="58.69698333120357" lon="7.039386105688674" id="-65993">
		<tag k="name" v="Persbu" />
		<tag k="place" v="locality" />
		<tag k="ssr:stedsnr" v="461039" />
	</node>
	<node lat="58.49136666372272" lon="6.9739027716754824" id="-66022">
		<tag k="alt_name" v="Sandviki" />
		<tag k="name" v="Sandvik" />
		<tag k="place" v="farm" />
		<tag k="ssr:stedsnr" v="303325" />
	</node>
	<node lat="58.50737222327739" lon="6.970877775676016" id="-66024">
		<tag k="name" v="Åsen" />
		<tag k="place" v="isolated_dwelling" />
		<tag k="ssr:stedsnr" v="303074" />
	</node>
	<node lat="58.51551944209451" lon="6.9857583399733265" id="-66025">
		<tag k="name" v="Åsemoen" />
		<tag k="place" v="farm" />
		<tag k="ssr:stedsnr" v="303076" />
	</node>
	<node lat="58.510702778906925" lon="7.040669440862404" id="-66026">
		<tag k="alt_name" v="Spillebrok, Øygarden" />
		<tag k="fixme" v="consider place=hamlet" />
		<tag k="name" v="Spillebrok" />
		<tag k="place" v="farm" />
		<tag k="ssr:stedsnr" v="303077" />
	</node>
	<node lat="58.39500277366343" lon="6.960111115510543" id="-66027">
		<tag k="alt_name" v="Hellestøl" />
		<tag k="name" v="Heddestøl" />
		<tag k="place" v="farm" />
		<tag k="ssr:stedsnr" v="303408" />
	</node>
	<node lat="58.268799996437245" lon="6.776450003893678" id="-66033">
		<tag k="fixme" v="consider place=hamlet" />
		<tag k="name" v="Fosseland" />
		<tag k="place" v="farm" />
		<tag k="ssr:stedsnr" v="304276" />
	</node>
	<node lat="58.27493332953833" lon="6.809561110081111" id="-66035">
		<tag k="fixme" v="consider place=hamlet" />
		<tag k="name" v="Birkeland" />
		<tag k="place" v="farm" />
		<tag k="ssr:stedsnr" v="304282" />
	</node>
	<node lat="58.70775833455378" lon="6.998488893074483" id="-66038">
		<tag k="historic" v="shieling" />
		<tag k="name" v="Nystøl" />
		<tag k="place" v="isolated_dwelling" />
		<tag k="ssr:stedsnr" v="304328" />
	</node>
	<node lat="58.28502499753046" lon="6.903569436063938" id="-66055">
		<tag k="name" v="Tua" />
		<tag k="place" v="farm" />
		<tag k="ssr:stedsnr" v="334112" />
	</node>
	<node lat="58.64244167043196" lon="6.939344442879983" id="-66143">
		<tag k="name" v="Smisnes" />
		<tag k="place" v="farm" />
		<tag k="ssr:stedsnr" v="339953" />
	</node>
	<node lat="58.232863891567966" lon="6.733424998151908" id="-66147">
		<tag k="name" v="Sveigenes" />
		<tag k="place" v="locality" />
		<tag k="ssr:stedsnr" v="364153" />
	</node>
	<node lat="58.2263430327683" lon="6.894883159333785" id="-66148">
		<tag k="fixme" v="consider place=hamlet" />
		<tag k="name" v="Vatland" />
		<tag k="place" v="farm" />
		<tag k="ssr:stedsnr" v="364165" />
	</node>
	<node lat="58.53049721774685" lon="6.983166659768651" id="-66149">
		<tag k="alt_name" v="Vikje" />
		<tag k="name" v="Viga" />
		<tag k="place" v="farm" />
		<tag k="ssr:stedsnr" v="364118" />
	</node>
	<node lat="58.700622223447404" lon="6.975433329314068" id="-66150">
		<tag k="name" v="Myrstøl" />
		<tag k="place" v="locality" />
		<tag k="ssr:stedsnr" v="364299" />
	</node>
	<node lat="58.308980552250624" lon="6.954188897212078" id="-66155">
		<tag k="name" v="Faret" />
		<tag k="place" v="isolated_dwelling" />
		<tag k="ssr:stedsnr" v="364501" />
	</node>
	<node lat="58.57690555154429" lon="6.8749333358422415" id="-66160">
		<tag k="alt_name" v="Lindefjell" />
		<tag k="name" v="Lindefjeld" />
		<tag k="place" v="hamlet" />
		<tag k="ssr:stedsnr" v="364711" />
	</node>
	<node lat="58.3316499965681" lon="7.028480550661872" id="-66162">
		<tag k="name" v="Lian" />
		<tag k="place" v="farm" />
		<tag k="ssr:stedsnr" v="364714" />
	</node>
	<node lat="58.23378333613998" lon="6.744744441986132" id="-66165">
		<tag k="name" v="Lia" />
		<tag k="place" v="farm" />
		<tag k="ssr:stedsnr" v="546147" />
	</node>
	<node lat="58.23009999756788" lon="6.784391659590016" id="-66167">
		<tag k="fixme" v="consider place=hamlet" />
		<tag k="name" v="Håland" />
		<tag k="place" v="farm" />
		<tag k="ssr:stedsnr" v="546152" />
	</node>
	<node lat="58.535383335336846" lon="6.941008325261148" id="-66212">
		<tag k="name" v="Plassen" />
		<tag k="place" v="farm" />
		<tag k="ssr:stedsnr" v="399028" />
	</node>
	<node lat="58.49030277953419" lon="7.027711116596625" id="-66299">
		<tag k="name" v="Grønnes" />
		<tag k="place" v="farm" />
		<tag k="ssr:stedsnr" v="485267" />
	</node>
	<node lat="58.48924166860462" lon="7.016619439327065" id="-66300">
		<tag k="name" v="Valdro" />
		<tag k="place" v="farm" />
		<tag k="ssr:stedsnr" v="485268" />
	</node>
	<node lat="58.66579999977096" lon="6.920961119576574" id="-66307">
		<tag k="name" v="Dyrlistølen" />
		<tag k="place" v="locality" />
		<tag k="ssr:stedsnr" v="485550" />
	</node>
	<node lat="58.359605556839185" lon="7.088769439125454" id="-66308">
		<tag k="name" v="Heiestøl" />
		<tag k="place" v="farm" />
		<tag k="ssr:stedsnr" v="485676" />
	</node>
	<node lat="58.76931111290517" lon="6.998600002373878" id="-66314">
		<tag k="name" v="Steinulvsstøl" />
		<tag k="old_name" v="Steinulvstøl" />
		<tag k="place" v="locality" />
		<tag k="ssr:stedsnr" v="486361" />
	</node>
	<node lat="58.77374999576751" lon="6.991261105694114" id="-66316">
		<tag k="historic" v="shieling" />
		<tag k="name" v="Snarbeinstøl" />
		<tag k="place" v="isolated_dwelling" />
		<tag k="ssr:stedsnr" v="486373" />
	</node>
	<node lat="58.46871111164741" lon="6.931249992951901" id="-66327">
		<tag k="fixme" v="consider place=hamlet" />
		<tag k="name" v="Helle" />
		<tag k="place" v="farm" />
		<tag k="ssr:stedsnr" v="425057" />
	</node>
	<node lat="58.443580557220535" lon="6.912936115088577" id="-66329">
		<tag k="fixme" v="consider place=hamlet" />
		<tag k="name" v="Narvestad" />
		<tag k="place" v="farm" />
		<tag k="ssr:stedsnr" v="425098" />
	</node>
	<node lat="58.238466662409486" lon="6.811061115296666" id="-66330">
		<tag k="fixme" v="consider place=hamlet" />
		<tag k="name" v="Skranefjell" />
		<tag k="place" v="farm" />
		<tag k="ssr:stedsnr" v="425117" />
	</node>
	<node lat="58.23098888641978" lon="6.890005550357527" id="-66332">
		<tag k="alt_name" v="Lande, øvre" />
		<tag k="name" v="Øvre Lande" />
		<tag k="place" v="farm" />
		<tag k="ssr:stedsnr" v="425149" />
	</node>
	<node lat="58.574400000519134" lon="6.989791668452296" id="-66337">
		<tag k="name" v="Førlandsås" />
		<tag k="place" v="isolated_dwelling" />
		<tag k="ssr:stedsnr" v="425412" />
	</node>
	<node lat="58.29635277472021" lon="7.075052772677081" id="-66343">
		<tag k="alt_name" v="Hitra" />
		<tag k="fixme" v="consider place=hamlet" />
		<tag k="name" v="Hidra" />
		<tag k="place" v="farm" />
		<tag k="ssr:stedsnr" v="425508" />
	</node>
	<node lat="58.322452782175986" lon="7.051533332430573" id="-66345">
		<tag k="name" v="Haddeland" />
		<tag k="place" v="locality" />
		<tag k="ssr:stedsnr" v="425530" />
	</node>
	<node lat="58.23887500134344" lon="6.873388887435826" id="-66376">
		<tag k="name" v="Avkom" />
		<tag k="place" v="farm" />
		<tag k="ssr:stedsnr" v="456108" />
	</node>
	<node lat="58.49059444238271" lon="7.015652777376381" id="-66425">
		<tag k="alt_name" v="Valdrio" />
		<tag k="fixme" v="consider place=hamlet" />
		<tag k="name" v="Valdro" />
		<tag k="place" v="farm" />
		<tag k="ssr:stedsnr" v="460510" />
	</node>
	<node lat="58.54419166746957" lon="6.915986119478375" id="-66441">
		<tag k="name" v="Åsheim" />
		<tag k="place" v="farm" />
		<tag k="ssr:stedsnr" v="460719" />
	</node>
	<node lat="58.23343778473124" lon="6.862396497686493" id="-66473">
		<tag k="alt_name" v="Oppåpta;Opofte" />
		<tag k="name" v="Oppofte" />
		<tag k="place" v="hamlet" />
		<tag k="ssr:stedsnr" v="485126" />
	</node>
	<node lat="58.4748972207211" lon="6.915936116416384" id="-66474">
		<tag k="alt_name" v="Kvinlog, nedre;Kvinlaug, nedre;Nedre Kvinlaug" />
		<tag k="fixme" v="consider place=hamlet" />
		<tag k="name" v="Nedre Kvinlog" />
		<tag k="place" v="farm" />
		<tag k="ssr:stedsnr" v="485064" />
	</node>
	<node lat="58.510341667014195" lon="7.017869451704567" id="-66476">
		<tag k="fixme" v="consider place=hamlet" />
		<tag k="name" v="Mygland" />
		<tag k="place" v="farm" />
		<tag k="ssr:stedsnr" v="485074" />
	</node>
	<node lat="58.54437499835649" lon="7.058786107151782" id="-66478">
		<tag k="name" v="Mjåvatn" />
		<tag k="place" v="locality" />
		<tag k="ssr:stedsnr" v="485328" />
	</node>
	<node lat="58.31628888491209" lon="6.962380550130816" id="-66483">
		<tag k="name" v="Åmot" />
		<tag k="place" v="village" />
		<tag k="ssr:stedsnr" v="485504" />
	</node>
	<node lat="58.38677777632369" lon="7.08478334103319" id="-66489">
		<tag k="name" v="Nekkland" />
		<tag k="place" v="locality" />
		<tag k="ssr:stedsnr" v="485590" />
	</node>
	<node lat="58.395513891622834" lon="6.947227771179294" id="-66509">
		<tag k="name" v="Hagan" />
		<tag k="place" v="farm" />
		<tag k="ssr:stedsnr" v="516217" />
	</node>
	<node lat="58.27689166372558" lon="6.888547219339937" id="-66543">
		<tag k="building" v="industrial" />
		<tag k="industrial" v="factory" />
		<tag k="name" v="Tinfos jernverk A/S" />
		<tag k="ssr:stedsnr" v="517965" />
	</node>
	<node lat="58.52632222264361" lon="7.028236119304451" id="-66611">
		<tag k="name" v="Kleivan" />
		<tag k="place" v="farm" />
		<tag k="ssr:stedsnr" v="546108" />
	</node>
	<node lat="58.56325277892785" lon="7.03621666970309" id="-66613">
		<tag k="alt_name" v="Eptestøl" />
		<tag k="fixme" v="consider place=hamlet" />
		<tag k="name" v="Eftestøl" />
		<tag k="place" v="farm" />
		<tag k="ssr:stedsnr" v="546402" />
	</node>
	<node lat="58.275150000226525" lon="7.044888896481993" id="-66615">
		<tag k="fixme" v="consider place=hamlet" />
		<tag k="name" v="Ågedal" />
		<tag k="place" v="farm" />
		<tag k="ssr:stedsnr" v="546478" />
	</node>
	<node lat="58.28469444660556" lon="7.107783327520112" id="-66616">
		<tag k="name" v="Eieland" />
		<tag k="place" v="locality" />
		<tag k="ssr:stedsnr" v="546484" />
	</node>
	<node lat="58.40358333336993" lon="7.043997223267673" id="-66619">
		<tag k="fixme" v="consider place=hamlet" />
		<tag k="name" v="Løland" />
		<tag k="place" v="farm" />
		<tag k="ssr:stedsnr" v="546607" />
	</node>
	<node lat="58.39167777510397" lon="7.025302784732947" id="-66620">
		<tag k="alt_name" v="Haugland, nedre" />
		<tag k="fixme" v="consider place=hamlet" />
		<tag k="name" v="Nedre Haugland" />
		<tag k="place" v="farm" />
		<tag k="ssr:stedsnr" v="546612" />
	</node>
	<node lat="58.31228055488143" lon="6.976933339609021" id="-66624">
		<tag k="alt_name" v="Røydland" />
		<tag k="fixme" v="consider place=hamlet" />
		<tag k="name" v="Rødland" />
		<tag k="place" v="farm" />
		<tag k="ssr:stedsnr" v="546508" />
	</node>
	<node lat="58.32104166837183" lon="6.9788583263558515" id="-66626">
		<tag k="alt_name" v="Egeland øvre;Eikeland, øvre;Eikeland;Egeland" />
		<tag k="fixme" v="consider place=hamlet" />
		<tag k="name" v="Øvre Egeland" />
		<tag k="place" v="farm" />
		<tag k="ssr:stedsnr" v="546517" />
	</node>
	<node lat="58.34500000028031" lon="7.027408328824808" id="-66629">
		<tag k="alt_name" v="Fjell" />
		<tag k="name" v="Slettebø" />
		<tag k="place" v="farm" />
		<tag k="ssr:stedsnr" v="546678" />
	</node>
	<node lat="58.66549444665968" lon="7.06649721461772" id="-66634">
		<tag k="fixme" v="consider place=hamlet" />
		<tag k="name" v="Knaben" />
		<tag k="place" v="village" />
		<tag k="ssr:stedsnr" v="547285" />
	</node>
	<node lat="58.34506944330986" lon="6.970580553641308" id="-66642">
		<tag k="name" v="Deilda" />
		<tag k="place" v="farm" />
		<tag k="ssr:stedsnr" v="576315" />
	</node>
	<node lat="58.37236111018177" lon="6.979763880472759" id="-66650">
		<tag k="name" v="Øvre Omland" />
		<tag k="place" v="hamlet" />
		<tag k="ssr:stedsnr" v="576604" />
	</node>
	<node lat="58.66694167119053" lon="6.858466672967156" id="-66758">
		<tag k="name" v="Falkefjell" />
		<tag k="place" v="locality" />
		<tag k="ssr:stedsnr" v="582701" />
	</node>
	<node lat="58.272919440653745" lon="6.800655559658591" id="-66767">
		<tag k="name" v="Tveita" />
		<tag k="place" v="farm" />
		<tag k="ssr:stedsnr" v="698130" />
	</node>
	<node lat="58.48031388634441" lon="6.959641671178316" id="-66850">
		<tag k="name" v="Årland" />
		<tag k="place" v="farm" />
		<tag k="ssr:stedsnr" v="606079" />
	</node>
	<node lat="58.291666670724595" lon="6.908333328061367" id="-66852">
		<tag k="name" v="Kvinesdal" />
		<tag k="place" v="village" />
		<tag k="ssr:stedsnr" v="606249" />
	</node>
	<node lat="58.46076666772811" lon="6.996800001628497" id="-66856">
		<tag k="name" v="Galdal" />
		<tag k="place" v="hamlet" />
		<tag k="ssr:stedsnr" v="606327" />
	</node>
	<node lat="58.32224167111588" lon="6.861755560434848" id="-66860">
		<tag k="name" v="Fondal" />
		<tag k="place" v="locality" />
		<tag k="ssr:stedsnr" v="606474" />
	</node>
	<node lat="58.360294446654365" lon="6.983124993472603" id="-66864">
		<tag k="fixme" v="consider place=hamlet" />
		<tag k="name" v="Solbarm" />
		<tag k="place" v="farm" />
		<tag k="ssr:stedsnr" v="606715" />
	</node>
	<node lat="58.35228055802978" lon="7.024083335569438" id="-66867">
		<tag k="fixme" v="consider place=hamlet" />
		<tag k="name" v="Gjemlestad" />
		<tag k="place" v="farm" />
		<tag k="ssr:stedsnr" v="606696" />
	</node>
	<node lat="58.27124166484654" lon="6.813952783421098" id="-66868">
		<tag k="name" v="Birkelandsstranda" />
		<tag k="place" v="quarter" />
		<tag k="ssr:stedsnr" v="699879" />
	</node>
	<node lat="58.65152500126431" lon="6.947272220900547" id="-66912">
		<tag k="name" v="Fredheim" />
		<tag k="place" v="farm" />
		<tag k="ssr:stedsnr" v="702792" />
	</node>
	<node lat="58.51305833410205" lon="6.908858328802729" id="-66939">
		<tag k="name" v="Hagen" />
		<tag k="place" v="farm" />
		<tag k="ssr:stedsnr" v="703187" />
	</node>
	<node lat="58.342886115140615" lon="6.955583334116849" id="-67006">
		<tag k="name" v="Øygarden" />
		<tag k="place" v="locality" />
		<tag k="ssr:stedsnr" v="637407" />
	</node>
	<node lat="58.454811113310534" lon="6.997855556040343" id="-67046">
		<tag k="name" v="Ytreland" />
		<tag k="place" v="farm" />
		<tag k="ssr:stedsnr" v="641330" />
	</node>
	<node lat="58.32801944898789" lon="6.79397777981186" id="-67122">
		<tag k="alt_name" v="Meland, store" />
		<tag k="fixme" v="consider place=hamlet" />
		<tag k="name" v="Store Meland" />
		<tag k="place" v="farm" />
		<tag k="ssr:stedsnr" v="667429" />
	</node>
	<node lat="58.25195278149417" lon="6.777119445726102" id="-67124">
		<tag k="alt_name" v="Slåtta;Slåtten" />
		<tag k="fixme" v="consider place=hamlet" />
		<tag k="name" v="Slåta" />
		<tag k="place" v="farm" />
		<tag k="ssr:stedsnr" v="667303" />
	</node>
	<node lat="58.30775277416454" lon="6.972916669556251" id="-67127">
		<tag k="name" v="Husefjell" />
		<tag k="place" v="farm" />
		<tag k="ssr:stedsnr" v="667508" />
	</node>
	<node lat="58.28726944476476" lon="7.091361105413556" id="-67129">
		<tag k="alt_name" v="Gauksdal" />
		<tag k="fixme" v="consider place=hamlet" />
		<tag k="name" v="Gaustad" />
		<tag k="place" v="farm" />
		<tag k="ssr:stedsnr" v="667489" />
	</node>
	<node lat="58.37958056006455" lon="7.103405563165649" id="-67132">
		<tag k="name" v="Gløvre" />
		<tag k="place" v="isolated_dwelling" />
		<tag k="ssr:stedsnr" v="667692" />
	</node>
	<node lat="58.6370166640274" lon="6.982802780936106" id="-67136">
		<tag k="fixme" v="consider place=hamlet" />
		<tag k="name" v="Håland" />
		<tag k="place" v="farm" />
		<tag k="ssr:stedsnr" v="668485" />
	</node>
	<node lat="58.790455559163625" lon="7.010450005782878" id="-67212">
		<tag k="name" v="Steinulvstølstølen" />
		<tag k="place" v="locality" />
		<tag k="ssr:stedsnr" v="703008" />
	</node>
	<node lat="58.24211666694116" lon="6.7669250018836005" id="-67261">
		<tag k="alt_name" v="Litlehamn" />
		<tag k="name" v="Lillehavn" />
		<tag k="place" v="locality" />
		<tag k="ssr:stedsnr" v="728104" />
	</node>
	<node lat="58.23733889221958" lon="6.932066660674296" id="-67262">
		<tag k="name" v="Busund" />
		<tag k="place" v="locality" />
		<tag k="ssr:stedsnr" v="728112" />
	</node>
	<node lat="58.401988885817296" lon="7.055669446730622" id="-67273">
		<tag k="fixme" v="consider place=hamlet" />
		<tag k="name" v="Kalvstøl" />
		<tag k="place" v="farm" />
		<tag k="ssr:stedsnr" v="728619" />
	</node>
	<node lat="58.36828055411938" lon="7.006983332243647" id="-67278">
		<tag k="fixme" v="consider place=hamlet" />
		<tag k="name" v="Li" />
		<tag k="place" v="farm" />
		<tag k="ssr:stedsnr" v="728712" />
	</node>
	<node lat="58.28120000046197" lon="6.889994449695608" id="-67298">
		<tag k="name" v="Ledål" />
		<tag k="place" v="farm" />
		<tag k="ssr:stedsnr" v="759122" />
	</node>
	<node lat="58.28738333044316" lon="6.93995556287255" id="-67309">
		<tag k="amenity" v="school" />
		<tag k="name" v="Åse skole" />
		<tag k="ssr:stedsnr" v="759031" />
	</node>
	<node lat="58.716919446169285" lon="6.913325006377284" id="-67351">
		<tag k="name" v="Skrøylestøl" />
		<tag k="place" v="locality" />
		<tag k="ssr:stedsnr" v="763245" />
	</node>
	<node lat="58.31302500408681" lon="6.961661102861778" id="-67375">
		<tag k="name" v="Lunden" />
		<tag k="place" v="quarter" />
		<tag k="ssr:stedsnr" v="763615" />
	</node>
	<node lat="58.51419444550796" lon="7.017822223833101" id="-67427">
		<tag k="alt_name" v="Fossdal" />
		<tag k="name" v="Fossdalen" />
		<tag k="place" v="farm" />
		<tag k="ssr:stedsnr" v="910092" />
	</node>
	<node lat="58.24326389319975" lon="6.982500005008707" id="-67434">
		<tag k="fixme" v="consider place=hamlet" />
		<tag k="name" v="Sørhelle" />
		<tag k="place" v="farm" />
		<tag k="ssr:stedsnr" v="910387" />
	</node>
	<node lat="58.3341444454436" lon="7.033497222001312" id="-67443">
		<tag k="alt_name" v="Maurlia" />
		<tag k="name" v="Teigen" />
		<tag k="place" v="farm" />
		<tag k="ssr:stedsnr" v="910686" />
	</node>
	<node lat="58.78194999987232" lon="6.9354861164241886" id="-67450">
		<tag k="historic" v="shieling" />
		<tag k="name" v="Meljestøl" />
		<tag k="place" v="isolated_dwelling" />
		<tag k="ssr:stedsnr" v="789054" />
	</node>
	<node lat="58.50586944010063" lon="6.993041659087037" id="-67451">
		<tag k="name" v="Rusteli" />
		<tag k="place" v="farm" />
		<tag k="ssr:stedsnr" v="789074" />
	</node>
	<node lat="58.66931666922281" lon="6.978372228582345" id="-67453">
		<tag k="alt_name" v="Knaben" />
		<tag k="fixme" v="consider place=hamlet" />
		<tag k="name" v="Knaben gard" />
		<tag k="place" v="farm" />
		<tag k="ssr:stedsnr" v="789315" />
	</node>
	<node lat="58.54046666496338" lon="6.943436109495278" id="-67456">
		<tag k="alt_name" v="Røynebu;Røynebuen" />
		<tag k="fixme" v="consider place=hamlet" />
		<tag k="name" v="Røynebuin" />
		<tag k="place" v="farm" />
		<tag k="ssr:stedsnr" v="789375" />
	</node>
	<node lat="58.264636114334365" lon="7.0224749954577526" id="-67457">
		<tag k="alt_name" v="Førland, austre;Østre Førland" />
		<tag k="fixme" v="consider place=hamlet" />
		<tag k="name" v="Austre Førland" />
		<tag k="place" v="farm" />
		<tag k="ssr:stedsnr" v="789503" />
	</node>
	<node lat="58.30396110963082" lon="6.924855552259559" id="-67459">
		<tag k="alt_name" v="Linland" />
		<tag k="fixme" v="consider place=hamlet" />
		<tag k="name" v="Lindland" />
		<tag k="place" v="farm" />
		<tag k="ssr:stedsnr" v="789256" />
	</node>
	<node lat="58.31530000429319" lon="6.985888894792213" id="-67464">
		<tag k="name" v="Skaren" />
		<tag k="place" v="farm" />
		<tag k="ssr:stedsnr" v="789550" />
	</node>
	<node lat="58.33508610690972" lon="7.011655556012509" id="-67465">
		<tag k="name" v="Jerdal" />
		<tag k="place" v="hamlet" />
		<tag k="ssr:stedsnr" v="789706" />
	</node>
	<node lat="58.336727781388824" lon="7.045519439980886" id="-67467">
		<tag k="name" v="Kleivan" />
		<tag k="place" v="farm" />
		<tag k="ssr:stedsnr" v="789723" />
	</node>
	<node lat="58.287783332009525" lon="6.923547217245741" id="-67484">
		<tag k="name" v="Rob" />
		<tag k="place" v="farm" />
		<tag k="ssr:stedsnr" v="820008" />
	</node>
	<node lat="58.280410386207116" lon="6.99774666932271" id="-67492">
		<tag k="alt_name" v="Tågås" />
		<tag k="name" v="Tågåsen" />
		<tag k="place" v="locality" />
		<tag k="ssr:stedsnr" v="820068" />
	</node>
	<node lat="58.238249996093074" lon="6.796505563071816" id="-67513">
		<tag k="alt_name" v="Dalen nedre" />
		<tag k="fixme" v="consider place=hamlet" />
		<tag k="name" v="Nedre Dalen" />
		<tag k="place" v="farm" />
		<tag k="ssr:stedsnr" v="821272" />
	</node>
	<node lat="58.31115555703762" lon="6.992805550202092" id="-67569">
		<tag k="leisure" v="pitch" />
		<tag k="name" v="Utsikten golfpark" />
		<tag k="ssr:stedsnr" v="829169" />
	</node>
	<node lat="58.481799996104144" lon="7.003961116270092" id="-67574">
		<tag k="alt_name" v="Høydal" />
		<tag k="fixme" v="consider place=hamlet" />
		<tag k="name" v="Høydalen" />
		<tag k="place" v="farm" />
		<tag k="ssr:stedsnr" v="850308" />
	</node>
	<node lat="58.498880555240234" lon="7.063130563927617" id="-67576">
		<tag k="alt_name" v="Åsen, yt" />
		<tag k="fixme" v="consider place=hamlet" />
		<tag k="name" v="Ytre Åsen" />
		<tag k="place" v="farm" />
		<tag k="ssr:stedsnr" v="850319" />
	</node>
	<node lat="58.47835277964331" lon="7.096516667752703" id="-67577">
		<tag k="alt_name" v="Hallelandsstølen" />
		<tag k="name" v="Haddelandstølen" />
		<tag k="place" v="locality" />
		<tag k="ssr:stedsnr" v="850335" />
	</node>
	<node lat="58.517369445061085" lon="6.923119452658378" id="-67578">
		<tag k="alt_name" v="Øvre Kvinlaug" />
		<tag k="fixme" v="consider place=hamlet" />
		<tag k="name" v="Kvinlog, øvre" />
		<tag k="place" v="farm" />
		<tag k="ssr:stedsnr" v="850380" />
	</node>
	<node lat="58.51818889201671" lon="6.96803055272504" id="-67579">
		<tag k="alt_name" v="Norås" />
		<tag k="name" v="Nordås" />
		<tag k="place" v="farm" />
		<tag k="ssr:stedsnr" v="850382" />
	</node>
	<node lat="58.42106389148772" lon="6.939658340906602" id="-67581">
		<tag k="alt_name" v="Sinland" />
		<tag k="fixme" v="consider place=hamlet" />
		<tag k="name" v="Sindland" />
		<tag k="place" v="farm" />
		<tag k="ssr:stedsnr" v="850394" />
	</node>
	<node lat="58.68800833470509" lon="7.08107777284279" id="-67583">
		<tag k="building" v="industrial" />
		<tag k="industrial" v="factory" />
		<tag k="name" v="Knaben 1" />
		<tag k="ssr:stedsnr" v="850294" />
	</node>
	<node lat="58.407952777010465" lon="6.945852781853049" id="-67584">
		<tag k="fixme" v="consider place=hamlet" />
		<tag k="name" v="Tjørnhom" />
		<tag k="place" v="farm" />
		<tag k="ssr:stedsnr" v="850406" />
	</node>
	<node lat="58.68648610899421" lon="6.911674997942066" id="-67585">
		<tag k="name" v="Ausdalstølen" />
		<tag k="place" v="isolated_dwelling" />
		<tag k="ssr:stedsnr" v="850602" />
	</node>
	<node lat="58.355866669808606" lon="6.971802231594027" id="-67586">
		<tag k="fixme" v="consider place=hamlet" />
		<tag k="name" v="Rafoss" />
		<tag k="place" v="farm" />
		<tag k="ssr:stedsnr" v="850710" />
	</node>
	<node lat="58.54529999946952" lon="6.900830554129934" id="-67588">
		<tag k="fixme" v="consider place=hamlet" />
		<tag k="name" v="Lindeland" />
		<tag k="place" v="farm" />
		<tag k="ssr:stedsnr" v="850715" />
	</node>
	<node lat="58.34722500120433" lon="7.059994436315776" id="-67593">
		<tag k="name" v="Lauvlia" />
		<tag k="place" v="farm" />
		<tag k="ssr:stedsnr" v="850692" />
	</node>
	<node lat="58.34362777703816" lon="7.024483335419302" id="-67594">
		<tag k="name" v="Slettebakk" />
		<tag k="place" v="farm" />
		<tag k="ssr:stedsnr" v="850699" />
	</node>
	<node lat="58.34820833504055" lon="6.981233333568601" id="-67607">
		<tag k="name" v="Øygarden" />
		<tag k="place" v="locality" />
		<tag k="ssr:stedsnr" v="880466" />
	</node>
	<node lat="58.33899999724755" lon="7.039897217351933" id="-67619">
		<tag k="name" v="Ytregarden" />
		<tag k="place" v="hamlet" />
		<tag k="ssr:stedsnr" v="881125" />
	</node>
	<node lat="58.72686111035421" lon="6.927327784914134" id="-67651">
		<tag k="alt_name" v="Hoomstøl (neddemt)" />
		<tag k="name" v="Homstøl (neddemt)" />
		<tag k="place" v="locality" />
		<tag k="ssr:stedsnr" v="885156" />
	</node>
	<node lat="58.48327777346942" lon="7.087166658812964" id="-67667">
		<tag k="name" v="Valdrostølen" />
		<tag k="place" v="locality" />
		<tag k="ssr:stedsnr" v="885397" />
	</node>
	<node lat="58.38736666530134" lon="7.034991666140747" id="-67704">
		<tag k="name" v="Haugland" />
		<tag k="place" v="hamlet" />
		<tag k="ssr:stedsnr" v="907114" />
	</node>
	<node lat="58.37312499656987" lon="6.940438896009227" id="-67707">
		<tag k="fixme" v="consider place=hamlet" />
		<tag k="name" v="Bjåstøl" />
		<tag k="place" v="farm" />
		<tag k="ssr:stedsnr" v="910424" />
	</node>
	<node lat="58.67023610924141" lon="6.903594436614809" id="-67733">
		<tag k="name" v="Sandtjødnstøl" />
		<tag k="place" v="locality" />
		<tag k="ssr:stedsnr" v="945186" />
	</node>
	<node lat="58.36706025866444" lon="7.042225529596327" id="-67900">
		<tag k="fixme" v="consider place=hamlet" />
		<tag k="name" v="Nedre Jerstad" />
		<tag k="place" v="farm" />
		<tag k="ssr:stedsnr" v="979789" />
	</node>
	<node lat="58.365847121174504" lon="7.048356512074841" id="-67901">
		<tag k="fixme" v="consider place=hamlet" />
		<tag k="name" v="Øvre Jerstad" />
		<tag k="place" v="farm" />
		<tag k="ssr:stedsnr" v="979790" />
	</node>
	<node lat="58.360677397174285" lon="7.041557154927836" id="-67902">
		<tag k="fixme" v="consider place=hamlet" />
		<tag k="name" v="Lille Jerstad" />
		<tag k="place" v="farm" />
		<tag k="ssr:stedsnr" v="979791" />
	</node>
	<node lat="58.363902324143744" lon="7.04291139412907" id="-67903">
		<tag k="name" v="Jerstad" />
		<tag k="place" v="hamlet" />
		<tag k="ssr:stedsnr" v="979792" />
	</node>
	<node lat="58.38823177661996" lon="7.036058126478237" id="-67904">
		<tag k="name" v="Haugland" />
		<tag k="place" v="hamlet" />
		<tag k="ssr:stedsnr" v="979793" />
	</node>
	<node lat="58.35741014090915" lon="7.043287767355487" id="-67905">
		<tag k="fixme" v="consider place=hamlet" />
		<tag k="name" v="Nordre Espeland" />
		<tag k="place" v="farm" />
		<tag k="ssr:stedsnr" v="979794" />
	</node>
	<node lat="58.326791635113814" lon="6.7825829557153625" id="-67906">
		<tag k="name" v="Gjeiskeli" />
		<tag k="place" v="locality" />
		<tag k="ssr:stedsnr" v="979660" />
	</node>
	<node lat="58.32245626638204" lon="6.797987724290073" id="-67907">
		<tag k="name" v="Meland" />
		<tag k="place" v="hamlet" />
		<tag k="ssr:stedsnr" v="979661" />
	</node>
	<node lat="58.265441662033474" lon="6.819443608409521" id="-67908">
		<tag k="fixme" v="consider place=hamlet" />
		<tag k="name" v="Feda" />
		<tag k="place" v="farm" />
		<tag k="ssr:stedsnr" v="979662" />
	</node>
	<node lat="58.26991439873496" lon="6.8123531031318185" id="-67909">
		<tag k="fixme" v="consider place=hamlet" />
		<tag k="name" v="Lindlandsstrand" />
		<tag k="place" v="farm" />
		<tag k="ssr:stedsnr" v="979664" />
	</node>
	<node lat="58.268394042013256" lon="6.805782328100272" id="-67910">
		<tag k="fixme" v="consider place=hamlet" />
		<tag k="name" v="Lindland" />
		<tag k="place" v="farm" />
		<tag k="ssr:stedsnr" v="979665" />
	</node>
	<node lat="58.276899704708" lon="6.795824439037476" id="-67911">
		<tag k="name" v="Lien" />
		<tag k="place" v="locality" />
		<tag k="ssr:stedsnr" v="979666" />
	</node>
	<node lat="58.24853006822421" lon="6.778269868488381" id="-67913">
		<tag k="fixme" v="consider place=hamlet" />
		<tag k="name" v="Haukeland" />
		<tag k="place" v="farm" />
		<tag k="ssr:stedsnr" v="979668" />
	</node>
	<node lat="58.24311847757473" lon="6.765571373352452" id="-67914">
		<tag k="name" v="Lillehavn" />
		<tag k="place" v="locality" />
		<tag k="ssr:stedsnr" v="979669" />
	</node>
	<node lat="58.236563133666145" lon="6.753617463413308" id="-67915">
		<tag k="name" v="Lunkenskår" />
		<tag k="place" v="locality" />
		<tag k="ssr:stedsnr" v="979670" />
	</node>
	<node lat="58.23684549918458" lon="6.741864526533619" id="-67916">
		<tag k="name" v="Titland" />
		<tag k="place" v="locality" />
		<tag k="ssr:stedsnr" v="979671" />
	</node>
	<node lat="58.23364076141046" lon="6.735087213014846" id="-67917">
		<tag k="fixme" v="consider place=hamlet" />
		<tag k="name" v="Sveigenes" />
		<tag k="place" v="farm" />
		<tag k="ssr:stedsnr" v="979672" />
	</node>
	<node lat="58.22912150338802" lon="6.767064227111432" id="-67918">
		<tag k="name" v="Nygård" />
		<tag k="place" v="locality" />
		<tag k="ssr:stedsnr" v="979673" />
	</node>
	<node lat="58.23751544950353" lon="6.797044365875719" id="-67919">
		<tag k="name" v="Dalen" />
		<tag k="place" v="hamlet" />
		<tag k="ssr:stedsnr" v="979674" />
	</node>
	<node lat="58.2473338958424" lon="6.83521625332698" id="-67920">
		<tag k="name" v="Rørvik" />
		<tag k="place" v="hamlet" />
		<tag k="ssr:stedsnr" v="979675" />
	</node>
	<node lat="58.32154388019564" lon="7.049830865022277" id="-67922">
		<tag k="name" v="Haddeland" />
		<tag k="place" v="locality" />
		<tag k="ssr:stedsnr" v="979698" />
	</node>
	<node lat="58.32447287653878" lon="7.08244404882162" id="-67923">
		<tag k="fixme" v="consider place=hamlet" />
		<tag k="name" v="Stakkeland" />
		<tag k="place" v="farm" />
		<tag k="ssr:stedsnr" v="979699" />
	</node>
	<node lat="58.352406929322" lon="7.068118535031649" id="-67924">
		<tag k="name" v="Eikelia" />
		<tag k="place" v="locality" />
		<tag k="ssr:stedsnr" v="979700" />
	</node>
	<node lat="58.37690467757829" lon="7.079907399124632" id="-67925">
		<tag k="name" v="Berstøl" />
		<tag k="place" v="locality" />
		<tag k="ssr:stedsnr" v="979701" />
	</node>
	<node lat="58.38701609708073" lon="7.081883377435229" id="-67926">
		<tag k="name" v="Nekland" />
		<tag k="place" v="locality" />
		<tag k="ssr:stedsnr" v="979756" />
	</node>
	<node lat="58.73043238017166" lon="6.925753535880511" id="-67927">
		<tag k="name" v="Homstøl" />
		<tag k="place" v="locality" />
		<tag k="ssr:stedsnr" v="979874" />
	</node>
	<node lat="58.4512505264774" lon="7.020114799515276" id="-67928">
		<tag k="name" v="Brulien" />
		<tag k="place" v="hamlet" />
		<tag k="ssr:stedsnr" v="979876" />
	</node>
	<node lat="58.24789999584207" lon="6.775936117632632" id="-67931">
		<tag k="name" v="Haugeland" />
		<tag k="place" v="locality" />
		<tag k="ssr:stedsnr" v="131" />
	</node>
	<node lat="58.48375000152259" lon="7.023250001370954" id="-67939">
		<tag k="alt_name" v="Halleland" />
		<tag k="fixme" v="consider place=hamlet" />
		<tag k="name" v="Haddeland" />
		<tag k="place" v="farm" />
		<tag k="ssr:stedsnr" v="322" />
	</node>
	<node lat="58.38084166988163" lon="6.957213892376572" id="-67946">
		<tag k="name" v="Storekvina" />
		<tag k="place" v="village" />
		<tag k="ssr:stedsnr" v="427" />
	</node>
	<node lat="58.65240555544639" lon="6.946002780592627" id="-67953">
		<tag k="alt_name" v="Storneset" />
		<tag k="name" v="Stornes" />
		<tag k="place" v="farm" />
		<tag k="ssr:stedsnr" v="633" />
	</node>
	<node lat="58.415374999717365" lon="7.011700003904732" id="-67954">
		<tag k="alt_name" v="Under fjellet" />
		<tag k="name" v="Fjellet" />
		<tag k="place" v="farm" />
		<tag k="ssr:stedsnr" v="667" />
	</node>
	<node lat="58.55078610876279" lon="6.8867250003491405" id="-67958">
		<tag k="fixme" v="consider place=hamlet" />
		<tag k="name" v="Lindhommen" />
		<tag k="place" v="farm" />
		<tag k="ssr:stedsnr" v="739" />
	</node>
	<node lat="58.28409722561301" lon="6.910961106071303" id="-67997">
		<tag k="name" v="Stranda" />
		<tag k="place" v="farm" />
		<tag k="ssr:stedsnr" v="31125" />
	</node>
	<node lat="58.526849996111615" lon="7.007994452055316" id="-68039">
		<tag k="name" v="Midbø" />
		<tag k="place" v="farm" />
		<tag k="ssr:stedsnr" v="35081" />
	</node>
	<node lat="58.60436667083052" lon="7.056566671917499" id="-68042">
		<tag k="name" v="Botneløå" />
		<tag k="place" v="locality" />
		<tag k="ssr:stedsnr" v="35136" />
	</node>
	<node lat="58.27763888897095" lon="6.946566663162796" id="-68150">
		<tag k="fixme" v="consider place=hamlet" />
		<tag k="name" v="Braudeland" />
		<tag k="place" v="farm" />
		<tag k="ssr:stedsnr" v="61284" />
	</node>
	<node lat="58.253363887930185" lon="6.871888897108872" id="-68151">
		<tag k="name" v="Guse" />
		<tag k="place" v="farm" />
		<tag k="ssr:stedsnr" v="61290" />
	</node>
	<node lat="58.29782777956068" lon="7.083758338684728" id="-68155">
		<tag k="alt_name" v="Haugan;Heien" />
		<tag k="fixme" v="consider place=hamlet" />
		<tag k="name" v="Hauan" />
		<tag k="place" v="farm" />
		<tag k="ssr:stedsnr" v="60498" />
	</node>
	<node lat="58.29669444860274" lon="6.933247221283731" id="-68159">
		<tag k="alt_name" v="Eikeland, yt;Ytre Eikeland" />
		<tag k="fixme" v="consider place=hamlet" />
		<tag k="name" v="Ytre Egeland" />
		<tag k="place" v="farm" />
		<tag k="ssr:stedsnr" v="61247" />
	</node>
	<node lat="58.28069999860857" lon="6.853327783601269" id="-68160">
		<tag k="fixme" v="consider place=hamlet" />
		<tag k="name" v="Raustad" />
		<tag k="place" v="farm" />
		<tag k="ssr:stedsnr" v="61252" />
	</node>
	<node lat="58.38647499784148" lon="7.033974994532185" id="-68163">
		<tag k="alt_name" v="Haugland, øvre" />
		<tag k="fixme" v="consider place=hamlet" />
		<tag k="name" v="Øvre Haugland" />
		<tag k="place" v="farm" />
		<tag k="ssr:stedsnr" v="61629" />
	</node>
	<node lat="58.39350555242745" lon="6.9814805481975055" id="-68164">
		<tag k="name" v="Rudlend" />
		<tag k="place" v="farm" />
		<tag k="ssr:stedsnr" v="61634" />
	</node>
	<node lat="58.40713333611228" lon="6.971650000627045" id="-68165">
		<tag k="alt_name" v="Biktjønn" />
		<tag k="fixme" v="consider place=hamlet" />
		<tag k="name" v="Biktjørn" />
		<tag k="place" v="farm" />
		<tag k="ssr:stedsnr" v="61650" />
	</node>
	<node lat="58.524407800483026" lon="6.9585261367521865" id="-68169">
		<tag k="alt_name" v="Dalen" />
		<tag k="name" v="Daland" />
		<tag k="place" v="farm" />
		<tag k="ssr:stedsnr" v="61338" />
	</node>
	<node lat="58.41488055459851" lon="6.91033611848625" id="-68174">
		<tag k="fixme" v="consider place=hamlet" />
		<tag k="name" v="Røyseland" />
		<tag k="place" v="farm" />
		<tag k="ssr:stedsnr" v="61367" />
	</node>
	<node lat="58.623905555060674" lon="6.914777783724113" id="-68179">
		<tag k="alt_name" v="Neset" />
		<tag k="fixme" v="consider place=hamlet" />
		<tag k="name" v="Netlandsnes" />
		<tag k="place" v="farm" />
		<tag k="ssr:stedsnr" v="61676" />
	</node>
	<node lat="58.36044444562242" lon="7.028466668406909" id="-68196">
		<tag k="name" v="Voran" />
		<tag k="place" v="farm" />
		<tag k="ssr:stedsnr" v="91292" />
	</node>
	<node lat="58.29356111497772" lon="6.827722229296118" id="-68228">
		<tag k="amenity" v="school" />
		<tag k="name" v="Frøitland skole" />
		<tag k="ssr:stedsnr" v="92085" />
	</node>
	<node lat="58.52864999951532" lon="6.9781222263125455" id="-68271">
		<tag k="name" v="Vigebakken" />
		<tag k="place" v="farm" />
		<tag k="ssr:stedsnr" v="96045" />
	</node>
	<node lat="58.26370555503947" lon="7.021316673077068" id="-68354">
		<tag k="name" v="Førland" />
		<tag k="place" v="hamlet" />
		<tag k="ssr:stedsnr" v="118042" />
	</node>
	<node lat="58.248572224770825" lon="6.918486117358688" id="-68357">
		<tag k="alt_name" v="Stalleland" />
		<tag k="name" v="Staddeland" />
		<tag k="place" v="locality" />
		<tag k="ssr:stedsnr" v="121127" />
	</node>
	<node lat="58.495597226488286" lon="6.958269438507858" id="-68363">
		<tag k="alt_name" v="Saurfiti" />
		<tag k="name" v="Saurfid" />
		<tag k="place" v="locality" />
		<tag k="ssr:stedsnr" v="121102" />
	</node>
	<node lat="58.24666388927588" lon="6.83840000837833" id="-68364">
		<tag k="alt_name" v="Rørvik, midtre;Rørvik" />
		<tag k="fixme" v="consider place=hamlet" />
		<tag k="name" v="Midtre Rørvik" />
		<tag k="place" v="farm" />
		<tag k="ssr:stedsnr" v="121128" />
	</node>
	<node lat="58.245347223093034" lon="6.839124996561654" id="-68365">
		<tag k="alt_name" v="Rørvik, øvre" />
		<tag k="fixme" v="consider place=hamlet" />
		<tag k="name" v="Øvre Rørvik" />
		<tag k="place" v="farm" />
		<tag k="ssr:stedsnr" v="121129" />
	</node>
	<node lat="58.755044447054296" lon="7.00283332720648" id="-68369">
		<tag k="historic" v="shieling" />
		<tag k="name" v="Øysteinsetet" />
		<tag k="place" v="isolated_dwelling" />
		<tag k="ssr:stedsnr" v="121341" />
	</node>
	<node lat="58.52321111257948" lon="6.935499999539124" id="-68370">
		<tag k="fixme" v="consider place=hamlet" />
		<tag k="name" v="Kvinlog" />
		<tag k="place" v="village" />
		<tag k="ssr:stedsnr" v="121347" />
	</node>
	<node lat="58.45333889033959" lon="7.0233916729848795" id="-68372">
		<tag k="alt_name" v="Bruli, øvre" />
		<tag k="name" v="Bruli" />
		<tag k="place" v="farm" />
		<tag k="ssr:stedsnr" v="121350" />
	</node>
	<node lat="58.45765833179282" lon="6.970624993444811" id="-68373">
		<tag k="fixme" v="consider place=hamlet" />
		<tag k="name" v="Årstøl" />
		<tag k="place" v="farm" />
		<tag k="ssr:stedsnr" v="121353" />
	</node>
	<node lat="58.31215555749463" lon="6.961797228211274" id="-68378">
		<tag k="name" v="Liknes" />
		<tag k="place" v="village" />
		<tag k="ssr:stedsnr" v="121480" />
	</node>
	<node lat="58.313513886327705" lon="6.892819450677" id="-68379">
		<tag k="alt_name" v="Tonnåsen" />
		<tag k="name" v="Tunnåsen" />
		<tag k="place" v="locality" />
		<tag k="ssr:stedsnr" v="121494" />
	</node>
	<node lat="58.33086111103424" lon="7.020791661607193" id="-68385">
		<tag k="alt_name" v="Hunsbedt" />
		<tag k="name" v="Hundsbit" />
		<tag k="place" v="hamlet" />
		<tag k="ssr:stedsnr" v="121698" />
	</node>
	<node lat="58.560972222507495" lon="6.8531694450802645" id="-68396">
		<tag k="name" v="Selandstølen" />
		<tag k="place" v="locality" />
		<tag k="ssr:stedsnr" v="121729" />
	</node>
	<node lat="58.32791388846238" lon="6.987908336419072" id="-68435">
		<tag k="name" v="Hamrelia" />
		<tag k="place" v="quarter" />
		<tag k="ssr:stedsnr" v="152049" />
	</node>
	<node lat="58.285216665561784" lon="6.897861105471173" id="-68436">
		<tag k="name" v="Livollen" />
		<tag k="place" v="farm" />
		<tag k="ssr:stedsnr" v="152137" />
	</node>
	<node lat="58.30949722482605" lon="6.959102774717052" id="-68456">
		<tag k="amenity" v="nursing_home" />
		<tag k="name" v="Kvinesdal omsorgsenter" />
		<tag k="ssr:stedsnr" v="152682" />
	</node>
	<node lat="58.274633329960295" lon="6.876733336289381" id="-68477">
		<tag k="building" v="industrial" />
		<tag k="industrial" v="factory" />
		<tag k="name" v="Trælandsfos  A/S" />
		<tag k="ssr:stedsnr" v="153966" />
	</node>
	<node lat="58.22714721765409" lon="6.884258325428145" id="-68607">
		<tag k="alt_name" v="Lande, nedre;Lande" />
		<tag k="fixme" v="consider place=hamlet" />
		<tag k="name" v="Nedre Lande" />
		<tag k="place" v="farm" />
		<tag k="ssr:stedsnr" v="182140" />
	</node>
	<node lat="58.267499996701154" lon="6.806050003023686" id="-68608">
		<tag k="alt_name" v="Linland" />
		<tag k="name" v="Lindland" />
		<tag k="place" v="hamlet" />
		<tag k="ssr:stedsnr" v="182274" />
	</node>
	<node lat="58.2642500031216" lon="6.939463887960319" id="-68609">
		<tag k="name" v="Båstøl" />
		<tag k="place" v="isolated_dwelling" />
		<tag k="ssr:stedsnr" v="182301" />
	</node>
	<node lat="58.47928888551016" lon="7.028277776590504" id="-68612">
		<tag k="name" v="Nyland" />
		<tag k="place" v="farm" />
		<tag k="ssr:stedsnr" v="182332" />
	</node>
	<node lat="58.40775000079987" lon="6.918527771409201" id="-68614">
		<tag k="fixme" v="consider place=hamlet" />
		<tag k="name" v="Oksefjell" />
		<tag k="place" v="farm" />
		<tag k="ssr:stedsnr" v="182379" />
	</node>
	<node lat="58.54457777793373" lon="6.983200000168981" id="-68615">
		<tag k="fixme" v="consider place=hamlet" />
		<tag k="name" v="Røyland" />
		<tag k="place" v="farm" />
		<tag k="ssr:stedsnr" v="182384" />
	</node>
	<node lat="58.35453055586938" lon="7.035875001859062" id="-68617">
		<tag k="name" v="Espeland" />
		<tag k="place" v="farm" />
		<tag k="ssr:stedsnr" v="182718" />
	</node>
	<node lat="58.75270000441195" lon="6.95504999721644" id="-68620">
		<tag k="fixme" v="consider place=hamlet" />
		<tag k="name" v="Salmeli" />
		<tag k="place" v="farm" />
		<tag k="ssr:stedsnr" v="183017" />
	</node>
	<node lat="58.77665555215989" lon="6.964325002898513" id="-68621">
		<tag k="historic" v="shieling" />
		<tag k="name" v="Svoldalsstøl" />
		<tag k="place" v="isolated_dwelling" />
		<tag k="ssr:stedsnr" v="183059" />
	</node>
	<node lat="58.408691670579024" lon="6.967952785330209" id="-68629">
		<tag k="name" v="Kleiva" />
		<tag k="place" v="farm" />
		<tag k="ssr:stedsnr" v="273132" />
	</node>
	<node lat="58.397908337249035" lon="6.947799992086827" id="-68651">
		<tag k="name" v="Sørhom" />
		<tag k="place" v="farm" />
		<tag k="ssr:stedsnr" v="213213" />
	</node>
	<node lat="58.349791667258" lon="7.0290611168780295" id="-68663">
		<tag k="name" v="Evja" />
		<tag k="place" v="farm" />
		<tag k="ssr:stedsnr" v="213483" />
	</node>
	<node lat="58.34296944454294" lon="6.967811112799686" id="-68686">
		<tag k="fixme" v="consider place=hamlet" />
		<tag k="name" v="Svindland" />
		<tag k="place" v="farm" />
		<tag k="ssr:stedsnr" v="213457" />
	</node>
	<node lat="58.59118611278966" lon="7.06712500504884" id="-68791">
		<tag k="name" v="Åkrokstølen" />
		<tag k="place" v="locality" />
		<tag k="ssr:stedsnr" v="218571" />
	</node>
	<node lat="58.4011138855222" lon="7.073869439190126" id="-68818">
		<tag k="name" v="Fjellbakken" />
		<tag k="place" v="farm" />
		<tag k="ssr:stedsnr" v="273220" />
	</node>
	<node lat="58.312377779069884" lon="6.945508328375473" id="-68867">
		<tag k="fixme" v="multiple name tags, choose one and add the other to alt_name" />
		<tag k="name" v="Jomyr;Jonsmyren" />
		<tag k="place" v="locality" />
		<tag k="ssr:stedsnr" v="274637" />
	</node>
	<node lat="58.30769722101739" lon="6.964769442834149" id="-68869">
		<tag k="name" v="Kjelve" />
		<tag k="place" v="farm" />
		<tag k="ssr:stedsnr" v="274652" />
	</node>
	<node lat="58.32527499992274" lon="7.082441675189453" id="-68972">
		<tag k="name" v="Stakkeland" />
		<tag k="place" v="locality" />
		<tag k="ssr:stedsnr" v="303565" />
	</node>
	<node lat="58.23517778002044" lon="6.820513889093311" id="-68973">
		<tag k="fixme" v="consider place=hamlet" />
		<tag k="name" v="Vindskei" />
		<tag k="place" v="farm" />
		<tag k="ssr:stedsnr" v="303131" />
	</node>
	<node lat="58.50310000255248" lon="7.048705557727625" id="-68974">
		<tag k="alt_name" v="Eiåsland" />
		<tag k="fixme" v="consider place=hamlet" />
		<tag k="name" v="Eiesland" />
		<tag k="place" v="farm" />
		<tag k="ssr:stedsnr" v="303057" />
	</node>
	<node lat="58.40054032916638" lon="7.081374146386579" id="-68987">
		<tag k="alt_name" v="Myggedalen;Møgedal" />
		<tag k="fixme" v="consider place=hamlet" />
		<tag k="name" v="Møgjedalen" />
		<tag k="place" v="farm" />
		<tag k="ssr:stedsnr" v="303648" />
	</node>
	<node lat="58.289111108951374" lon="6.922233327618481" id="-68997">
		<tag k="name" v="Vollan" />
		<tag k="place" v="farm" />
		<tag k="ssr:stedsnr" v="334008" />
	</node>
	<node lat="58.40681944165023" lon="6.969836109204594" id="-69007">
		<tag k="name" v="Tupten" />
		<tag k="place" v="locality" />
		<tag k="ssr:stedsnr" v="334172" />
	</node>
	<node lat="58.413611113320414" lon="7.073869439984931" id="-69015">
		<tag k="name" v="Lyngbakken" />
		<tag k="place" v="isolated_dwelling" />
		<tag k="ssr:stedsnr" v="334338" />
	</node>
	<node lat="58.37593888916957" lon="7.082936109794852" id="-69020">
		<tag k="name" v="Berstøl" />
		<tag k="place" v="locality" />
		<tag k="ssr:stedsnr" v="334288" />
	</node>
	<node lat="58.36371111562575" lon="6.9663638910155585" id="-69044">
		<tag k="name" v="Rahommen" />
		<tag k="place" v="farm" />
		<tag k="ssr:stedsnr" v="334489" />
	</node>
	<node lat="58.30635277814169" lon="6.970238894419713" id="-69051">
		<tag k="name" v="Utsikten hotell" />
		<tag k="ssr:stedsnr" v="334697" />
		<tag k="tourism" v="hotel" />
	</node>
	<node lat="58.23393610955967" lon="6.744361116689147" id="-69066">
		<tag k="name" v="Lien" />
		<tag k="place" v="locality" />
		<tag k="ssr:stedsnr" v="335264" />
	</node>
	<node lat="58.26745277549007" lon="6.886177775780563" id="-69080">
		<tag k="name" v="Guse" />
		<tag k="place" v="farm" />
		<tag k="ssr:stedsnr" v="335982" />
	</node>
	<node lat="58.5774694489951" lon="6.882355561350195" id="-69153">
		<tag k="name" v="Hoskuldsbakken" />
		<tag k="place" v="farm" />
		<tag k="ssr:stedsnr" v="339641" />
	</node>
	<node lat="58.47742499913537" lon="6.932402785487666" id="-69162">
		<tag k="amenity" v="school" />
		<tag k="name" v="Helle skule" />
		<tag k="ssr:stedsnr" v="339876" />
	</node>
	<node lat="58.497286113567284" lon="6.936105558562755" id="-69174">
		<tag k="fixme" v="consider place=hamlet" />
		<tag k="name" v="Engedal" />
		<tag k="place" v="farm" />
		<tag k="ssr:stedsnr" v="364043" />
	</node>
	<node lat="58.45334444044902" lon="7.015213883908154" id="-69177">
		<tag k="alt_name" v="Bruli, nedre;Nedre Brulien" />
		<tag k="fixme" v="consider place=hamlet" />
		<tag k="name" v="Nedre Bruli" />
		<tag k="place" v="farm" />
		<tag k="ssr:stedsnr" v="364362" />
	</node>
	<node lat="58.24297499573121" lon="6.943719442913337" id="-69182">
		<tag k="alt_name" v="Londal, øvre" />
		<tag k="name" v="Londal" />
		<tag k="place" v="locality" />
		<tag k="ssr:stedsnr" v="364144" />
	</node>
	<node lat="58.46439722002418" lon="6.9895111156353416" id="-69188">
		<tag k="alt_name" v="Knipestøl" />
		<tag k="fixme" v="consider place=hamlet" />
		<tag k="name" v="Knibestøl" />
		<tag k="place" v="farm" />
		<tag k="ssr:stedsnr" v="364339" />
	</node>
	<node lat="58.41840000129711" lon="7.077038895499819" id="-69191">
		<tag k="fixme" v="consider place=hamlet" />
		<tag k="loc_name" v="Audnestøl" />
		<tag k="name" v="Audalstøl" />
		<tag k="place" v="farm" />
		<tag k="ssr:stedsnr" v="364675" />
	</node>
	<node lat="58.425505556429115" lon="6.996658331136914" id="-69193">
		<tag k="name" v="Lauen" />
		<tag k="place" v="farm" />
		<tag k="ssr:stedsnr" v="364690" />
	</node>
	<node lat="58.68989336334294" lon="6.945884090963445" id="-69201">
		<tag k="alt_name" v="Grådalsslåtta" />
		<tag k="historic" v="shieling" />
		<tag k="name" v="Grådalstøl" />
		<tag k="place" v="isolated_dwelling" />
		<tag k="ssr:stedsnr" v="364622" />
	</node>
	<node lat="58.63712221788093" lon="6.940569447990949" id="-69203">
		<tag k="name" v="Nordbø" />
		<tag k="place" v="farm" />
		<tag k="ssr:stedsnr" v="364637" />
	</node>
	<node lat="58.37943333125724" lon="6.9950999922211174" id="-69205">
		<tag k="alt_name" v="Egebrok" />
		<tag k="fixme" v="consider place=hamlet" />
		<tag k="name" v="Eikebrokk" />
		<tag k="place" v="farm" />
		<tag k="ssr:stedsnr" v="364748" />
	</node>
	<node lat="58.43160277468408" lon="6.924208326873076" id="-69399">
		<tag k="alt_name" v="Saga" />
		<tag k="name" v="Sagen" />
		<tag k="place" v="farm" />
		<tag k="ssr:stedsnr" v="425085" />
	</node>
	<node lat="58.26090000126295" lon="6.811875002079196" id="-69408">
		<tag k="fixme" v="consider place=hamlet" />
		<tag k="name" v="Sande" />
		<tag k="place" v="farm" />
		<tag k="ssr:stedsnr" v="425289" />
	</node>
	<node lat="58.506561107765066" lon="6.858350001495527" id="-69410">
		<tag k="alt_name" v="Kråkeland" />
		<tag k="fixme" v="consider place=hamlet" />
		<tag k="name" v="Krågeland" />
		<tag k="place" v="farm" />
		<tag k="ssr:stedsnr" v="425364" />
	</node>
	<node lat="58.34170555404323" lon="7.025683329774421" id="-69416">
		<tag k="name" v="Litlemoen" />
		<tag k="place" v="farm" />
		<tag k="ssr:stedsnr" v="425731" />
	</node>
	<node lat="58.35495000036273" lon="7.055161111275028" id="-69417">
		<tag k="name" v="Øyrutle" />
		<tag k="place" v="locality" />
		<tag k="ssr:stedsnr" v="425739" />
	</node>
	<node lat="58.54762777442816" lon="6.866505547848663" id="-69418">
		<tag k="fixme" v="consider place=hamlet" />
		<tag k="name" v="Seland" />
		<tag k="place" v="farm" />
		<tag k="ssr:stedsnr" v="425740" />
	</node>
	<node lat="58.25165000135099" lon="6.9917666600313835" id="-69419">
		<tag k="fixme" v="consider place=hamlet" />
		<tag k="name" v="Nordhelle" />
		<tag k="place" v="farm" />
		<tag k="ssr:stedsnr" v="425601" />
	</node>
	<node lat="58.28436666721021" lon="7.085958328680764" id="-69431">
		<tag k="name" v="Nylende" />
		<tag k="place" v="locality" />
		<tag k="ssr:stedsnr" v="516960" />
	</node>
	<node lat="58.72671666968058" lon="6.9653722269543215" id="-69554">
		<tag k="name" v="Kodåstølen" />
		<tag k="place" v="locality" />
		<tag k="ssr:stedsnr" v="521365" />
	</node>
	<node lat="58.62575277962028" lon="6.906613890381439" id="-69595">
		<tag k="fixme" v="consider place=hamlet" />
		<tag k="name" v="Netland" />
		<tag k="place" v="farm" />
		<tag k="ssr:stedsnr" v="546654" />
	</node>
	<node lat="58.34347499763247" lon="7.062099997697075" id="-69596">
		<tag k="alt_name" v="Moisrudlend;Mois-Rudlend" />
		<tag k="name" v="Moisrudland" />
		<tag k="place" v="locality" />
		<tag k="ssr:stedsnr" v="546659" />
	</node>
	<node lat="58.74202626626085" lon="6.975130030304909" id="-69601">
		<tag k="name" v="Knabeneset" />
		<tag k="place" v="farm" />
		<tag k="ssr:stedsnr" v="546333" />
	</node>
	<node lat="58.26630278149573" lon="6.883375003975812" id="-69602">
		<tag k="alt_name" v="Dytte" />
		<tag k="name" v="Rullen" />
		<tag k="place" v="locality" />
		<tag k="ssr:stedsnr" v="546285" />
	</node>
	<node lat="58.33833888711661" lon="7.024127775474302" id="-69607">
		<tag k="name" v="Monan" />
		<tag k="place" v="farm" />
		<tag k="ssr:stedsnr" v="546685" />
	</node>
	<node lat="58.31466111446798" lon="6.92405278199538" id="-69615">
		<tag k="alt_name" v="Kleiva" />
		<tag k="name" v="Kleiven" />
		<tag k="place" v="locality" />
		<tag k="ssr:stedsnr" v="546461" />
	</node>
	<node lat="58.550699997470545" lon="6.9345583254789425" id="-69617">
		<tag k="alt_name" v="Eikjeland" />
		<tag k="fixme" v="consider place=hamlet" />
		<tag k="name" v="Eikeland" />
		<tag k="place" v="farm" />
		<tag k="ssr:stedsnr" v="546698" />
	</node>
	<node lat="58.357594447443255" lon="7.043011105123644" id="-69630">
		<tag k="name" v="Espeland indre" />
		<tag k="place" v="locality" />
		<tag k="ssr:stedsnr" v="576267" />
	</node>
	<node lat="58.27399444072451" lon="6.808619444928092" id="-69661">
		<tag k="name" v="Ravnevollen" />
		<tag k="place" v="farm" />
		<tag k="ssr:stedsnr" v="577153" />
	</node>
	<node lat="58.28827499734758" lon="6.940866672632669" id="-69802">
		<tag k="name" v="Åse" />
		<tag k="place" v="farm" />
		<tag k="ssr:stedsnr" v="606260" />
	</node>
	<node lat="58.29391666485885" lon="6.941424994795839" id="-69804">
		<tag k="fixme" v="consider place=hamlet" />
		<tag k="name" v="Kloster" />
		<tag k="place" v="farm" />
		<tag k="ssr:stedsnr" v="606266" />
	</node>
	<node lat="58.287486112724466" lon="6.8345805575322425" id="-69805">
		<tag k="alt_name" v="Frøitland" />
		<tag k="fixme" v="consider place=hamlet" />
		<tag k="name" v="Frøytland" />
		<tag k="place" v="farm" />
		<tag k="ssr:stedsnr" v="606267" />
	</node>
	<node lat="58.24787777334511" lon="6.832052771416286" id="-69808">
		<tag k="alt_name" v="Rørvik, nedre;Lille Rørvik" />
		<tag k="fixme" v="consider place=hamlet" />
		<tag k="name" v="Nedre Rørvik" />
		<tag k="place" v="farm" />
		<tag k="ssr:stedsnr" v="606123" />
	</node>
	<node lat="58.23593333374549" lon="6.799488894668515" id="-69809">
		<tag k="alt_name" v="Dalen øvre;Dalen" />
		<tag k="fixme" v="consider place=hamlet" />
		<tag k="name" v="Øvre Dalen" />
		<tag k="place" v="farm" />
		<tag k="ssr:stedsnr" v="606128" />
	</node>
	<node lat="58.55347222362888" lon="6.96994999134483" id="-69810">
		<tag k="alt_name" v="Bergesti" />
		<tag k="loc_name" v="Bergsli" />
		<tag k="name" v="Bergesli" />
		<tag k="place" v="farm" />
		<tag k="ssr:stedsnr" v="606362" />
	</node>
	<node lat="58.256152775016375" lon="6.89640554770485" id="-69816">
		<tag k="alt_name" v="Dyrstøl" />
		<tag k="fixme" v="consider place=hamlet" />
		<tag k="name" v="Dyrstad" />
		<tag k="place" v="farm" />
		<tag k="ssr:stedsnr" v="606289" />
	</node>
	<node lat="58.667661108799" lon="6.966280551569737" id="-69820">
		<tag k="alt_name" v="Brulund" />
		<tag k="name" v="Brulunden" />
		<tag k="place" v="farm" />
		<tag k="ssr:stedsnr" v="606591" />
	</node>
	<node lat="58.39776944467324" lon="7.0471777695314275" id="-69821">
		<tag k="fixme" v="consider place=hamlet" />
		<tag k="name" v="Gåseland" />
		<tag k="place" v="farm" />
		<tag k="ssr:stedsnr" v="606630" />
	</node>
	<node lat="58.572650000208625" lon="6.91242500610241" id="-69825">
		<tag k="fixme" v="consider place=hamlet" />
		<tag k="name" v="Solli" />
		<tag k="place" v="farm" />
		<tag k="ssr:stedsnr" v="606689" />
	</node>
	<node lat="58.34823332899709" lon="6.967469436936882" id="-69826">
		<tag k="alt_name" v="Trælland" />
		<tag k="fixme" v="consider place=hamlet" />
		<tag k="name" v="Træland" />
		<tag k="place" v="farm" />
		<tag k="ssr:stedsnr" v="606695" />
	</node>
	<node lat="58.42238333326955" lon="6.9147055622047295" id="-69872">
		<tag k="name" v="Plassen" />
		<tag k="place" v="locality" />
		<tag k="ssr:stedsnr" v="637676" />
	</node>
	<node lat="58.31519166250389" lon="6.957438886021462" id="-69873">
		<tag k="amenity" v="school" />
		<tag k="name" v="Kvinesdal videregående skole" />
		<tag k="ssr:stedsnr" v="637686" />
	</node>
	<node lat="58.31821667075044" lon="6.896002772627974" id="-69888">
		<tag k="name" v="Lauvås" />
		<tag k="place" v="locality" />
		<tag k="ssr:stedsnr" v="637565" />
	</node>
	<node lat="58.26053888733845" lon="6.838616658595497" id="-69901">
		<tag k="building" v="industrial" />
		<tag k="name" v="Kvina verft" />
		<tag k="ssr:stedsnr" v="638914" />
	</node>
	<node lat="58.47774444567879" lon="7.0252444471750035" id="-69979">
		<tag k="name" v="Nesan" />
		<tag k="place" v="farm" />
		<tag k="ssr:stedsnr" v="642482" />
	</node>
	<node lat="58.2376388886687" lon="6.742899991732716" id="-70023">
		<tag k="name" v="Titland" />
		<tag k="place" v="locality" />
		<tag k="ssr:stedsnr" v="667161" />
	</node>
	<node lat="58.41049949416911" lon="7.005077596824813" id="-70027">
		<tag k="fixme" v="consider place=hamlet" />
		<tag k="name" v="Vatland" />
		<tag k="place" v="farm" />
		<tag k="ssr:stedsnr" v="667624" />
	</node>
	<node lat="58.296752774961476" lon="6.924452777193699" id="-70028">
		<tag k="fixme" v="consider place=hamlet" />
		<tag k="name" v="Slimestad" />
		<tag k="place" v="farm" />
		<tag k="ssr:stedsnr" v="667277" />
	</node>
	<node lat="58.358049996541666" lon="7.049744446826897" id="-70032">
		<tag k="fixme" v="consider place=hamlet" />
		<tag k="name" v="Stokkeland" />
		<tag k="place" v="farm" />
		<tag k="ssr:stedsnr" v="667679" />
	</node>
	<node lat="58.258288892503735" lon="7.045941659644291" id="-70058">
		<tag k="alt_name" v="Slettås" />
		<tag k="name" v="Steindør" />
		<tag k="place" v="farm" />
		<tag k="ssr:stedsnr" v="728599" />
	</node>
	<node lat="58.28272777562449" lon="6.82862777699115" id="-70062">
		<tag k="alt_name" v="Høiland" />
		<tag k="fixme" v="consider place=hamlet" />
		<tag k="name" v="Høyland" />
		<tag k="place" v="farm" />
		<tag k="ssr:stedsnr" v="728236" />
	</node>
	<node lat="58.35241110730755" lon="7.0628666651897065" id="-70101">
		<tag k="name" v="Holevollen" />
		<tag k="place" v="locality" />
		<tag k="ssr:stedsnr" v="759262" />
	</node>
	<node lat="58.38079722465038" lon="6.966666662311006" id="-70120">
		<tag k="name" v="Kvivollen" />
		<tag k="place" v="farm" />
		<tag k="ssr:stedsnr" v="759622" />
	</node>
	<node lat="58.52567222510176" lon="7.013094451680265" id="-70169">
		<tag k="name" v="Kjølnes" />
		<tag k="place" v="farm" />
		<tag k="ssr:stedsnr" v="763077" />
	</node>
	<node lat="58.62762777817111" lon="6.923269436847719" id="-70207">
		<tag k="name" v="Straumland" />
		<tag k="place" v="farm" />
		<tag k="ssr:stedsnr" v="763877" />
	</node>
	<node lat="58.588099996230405" lon="7.0260777852157865" id="-70238">
		<tag k="name" v="Listølen" />
		<tag k="place" v="locality" />
		<tag k="ssr:stedsnr" v="764757" />
	</node>
	<node lat="58.31688055446784" lon="6.793797214512705" id="-70252">
		<tag k="alt_name" v="Meland lille;Meland, l" />
		<tag k="fixme" v="consider place=hamlet" />
		<tag k="name" v="Lille Meland" />
		<tag k="place" v="farm" />
		<tag k="ssr:stedsnr" v="788471" />
	</node>
	<node lat="58.4874833334337" lon="6.959363892287509" id="-70263">
		<tag k="alt_name" v="Hommo" />
		<tag k="name" v="Homme" />
		<tag k="place" v="farm" />
		<tag k="ssr:stedsnr" v="789086" />
	</node>
	<node lat="58.28700555415844" lon="6.8997416706057955" id="-70264">
		<tag k="name" v="Lia" />
		<tag k="place" v="farm" />
		<tag k="ssr:stedsnr" v="789281" />
	</node>
	<node lat="58.29208610768702" lon="6.956477783756041" id="-70265">
		<tag k="fixme" v="consider place=hamlet" />
		<tag k="name" v="Motland" />
		<tag k="place" v="farm" />
		<tag k="ssr:stedsnr" v="789291" />
	</node>
	<node lat="58.32698610746356" lon="6.9965333303480595" id="-70273">
		<tag k="alt_name" v="Tørråsen" />
		<tag k="name" v="Tvøråsen" />
		<tag k="place" v="farm" />
		<tag k="ssr:stedsnr" v="789557" />
	</node>
	<node lat="58.65570277584452" lon="6.943830556402477" id="-70281">
		<tag k="name" v="Risnes" />
		<tag k="place" v="hamlet" />
		<tag k="ssr:stedsnr" v="789639" />
	</node>
	<node lat="58.528841670363484" lon="6.969605550755551" id="-70449">
		<tag k="name" v="Solhom" />
		<tag k="place" v="farm" />
		<tag k="ssr:stedsnr" v="849133" />
	</node>
	<node lat="58.47554166424517" lon="6.8977499954110275" id="-70452">
		<tag k="fixme" v="consider place=hamlet" />
		<tag k="name" v="Spikkeland" />
		<tag k="place" v="farm" />
		<tag k="ssr:stedsnr" v="850075" />
	</node>
	<node lat="58.280827773876574" lon="6.794513889720975" id="-70453">
		<tag k="alt_name" v="Svindland" />
		<tag k="fixme" v="consider place=hamlet" />
		<tag k="name" v="Svinland" />
		<tag k="place" v="farm" />
		<tag k="ssr:stedsnr" v="850261" />
	</node>
	<node lat="58.400691665724054" lon="6.956924995255219" id="-70459">
		<tag k="fixme" v="consider place=hamlet" />
		<tag k="name" v="Hompland" />
		<tag k="place" v="farm" />
		<tag k="ssr:stedsnr" v="850423" />
	</node>
	<node lat="58.31583611241946" lon="6.951850005827612" id="-70461">
		<tag k="fixme" v="consider place=hamlet" />
		<tag k="name" v="Gullestad" />
		<tag k="place" v="farm" />
		<tag k="ssr:stedsnr" v="850507" />
	</node>
	<node lat="58.270972222169085" lon="7.00116667095478" id="-70462">
		<tag k="alt_name" v="Førland, øvre" />
		<tag k="fixme" v="consider place=hamlet" />
		<tag k="name" v="Vestre Førland" />
		<tag k="place" v="farm" />
		<tag k="ssr:stedsnr" v="850513" />
	</node>
	<node lat="58.61153727299217" lon="6.8564342788266295" id="-70467">
		<tag k="historic" v="shieling" />
		<tag k="name" v="Hisvasstølen" />
		<tag k="place" v="isolated_dwelling" />
		<tag k="ssr:stedsnr" v="850665" />
	</node>
	<node lat="58.32400833505288" lon="6.781199996989353" id="-70537">
		<tag k="name" v="Geiskeli" />
		<tag k="place" v="locality" />
		<tag k="ssr:stedsnr" v="881445" />
	</node>
	<node lat="58.293044440092665" lon="6.876069441486323" id="-70676">
		<tag k="name" v="Øygarden" />
		<tag k="place" v="locality" />
		<tag k="ssr:stedsnr" v="941017" />
	</node>
	<node lat="58.30733055923449" lon="6.958277781363382" id="-70769">
		<tag k="leisure" v="pitch" />
		<tag k="name" v="Kvinesdal stadion" />
		<tag k="ssr:stedsnr" v="941653" />
	</node>
	<node lat="58.270191669121104" lon="6.818558336411825" id="-70801">
		<tag k="amenity" v="nursing_home" />
		<tag k="name" v="Fedaheimen" />
		<tag k="ssr:stedsnr" v="942916" />
	</node>
	<node lat="58.232883035179775" lon="6.890663360740145" id="-71016">
		<tag k="fixme" v="consider place=hamlet" />
		<tag k="name" v="Øvre Lande" />
		<tag k="place" v="farm" />
		<tag k="ssr:stedsnr" v="979676" />
	</node>
	<node lat="58.23146322495221" lon="6.886683249756848" id="-71017">
		<tag k="name" v="Lande" />
		<tag k="place" v="hamlet" />
		<tag k="ssr:stedsnr" v="979677" />
	</node>
	<node lat="58.257630029192676" lon="6.875149725753431" id="-71018">
		<tag k="fixme" v="consider place=hamlet" />
		<tag k="name" v="Guse" />
		<tag k="place" v="farm" />
		<tag k="ssr:stedsnr" v="979678" />
	</node>
	<node lat="58.26678817763601" lon="6.902223867974308" id="-71019">
		<tag k="name" v="Dyrli" />
		<tag k="place" v="locality" />
		<tag k="ssr:stedsnr" v="979679" />
	</node>
	<node lat="58.24941959586441" lon="6.919258983399901" id="-71020">
		<tag k="name" v="Stalleland" />
		<tag k="place" v="locality" />
		<tag k="ssr:stedsnr" v="979680" />
	</node>
	<node lat="58.28416985668851" lon="7.104935525034898" id="-71024">
		<tag k="fixme" v="consider place=hamlet" />
		<tag k="name" v="Eieland" />
		<tag k="place" v="farm" />
		<tag k="ssr:stedsnr" v="979685" />
	</node>
	<node lat="58.31040674903606" lon="7.058097111219022" id="-71025">
		<tag k="name" v="Stranden" />
		<tag k="place" v="locality" />
		<tag k="ssr:stedsnr" v="979696" />
	</node>
	<node lat="58.35013024266168" lon="7.040149207697697" id="-71026">
		<tag k="fixme" v="consider place=hamlet" />
		<tag k="name" v="Søndre Espeland" />
		<tag k="place" v="farm" />
		<tag k="ssr:stedsnr" v="979795" />
	</node>
	<node lat="58.354682175111705" lon="7.042825707211372" id="-71027">
		<tag k="name" v="Espeland" />
		<tag k="place" v="hamlet" />
		<tag k="ssr:stedsnr" v="979797" />
	</node>
	<node lat="58.34535517852967" lon="7.036643092835786" id="-71028">
		<tag k="fixme" v="consider place=hamlet" />
		<tag k="name" v="Øvre Moi" />
		<tag k="place" v="farm" />
		<tag k="ssr:stedsnr" v="979798" />
	</node>
	<node lat="58.34130589185247" lon="7.039318869958958" id="-71029">
		<tag k="fixme" v="consider place=hamlet" />
		<tag k="name" v="Nedre Moi" />
		<tag k="place" v="farm" />
		<tag k="ssr:stedsnr" v="979799" />
	</node>
	<node lat="58.34247548512324" lon="7.039713659425922" id="-71030">
		<tag k="name" v="Moi" />
		<tag k="place" v="hamlet" />
		<tag k="ssr:stedsnr" v="979800" />
	</node>
	<node lat="58.33303702343585" lon="7.035318423018785" id="-71032">
		<tag k="fixme" v="consider place=hamlet" />
		<tag k="name" v="Ytre Teigen" />
		<tag k="place" v="farm" />
		<tag k="ssr:stedsnr" v="979802" />
	</node>
	<node lat="58.3359149162511" lon="7.0379665827448" id="-71033">
		<tag k="name" v="Teigen" />
		<tag k="place" v="hamlet" />
		<tag k="ssr:stedsnr" v="979804" />
	</node>
	<node lat="58.3305897101904" lon="7.028737787407666" id="-71034">
		<tag k="fixme" v="consider place=hamlet" />
		<tag k="name" v="Teigeli" />
		<tag k="place" v="farm" />
		<tag k="ssr:stedsnr" v="979805" />
	</node>
	<node lat="58.32929618218903" lon="7.010559339262556" id="-71035">
		<tag k="fixme" v="consider place=hamlet" />
		<tag k="name" v="Hunsbedt" />
		<tag k="place" v="farm" />
		<tag k="ssr:stedsnr" v="979806" />
	</node>
	<node lat="58.31599453482156" lon="6.9853690423152885" id="-71036">
		<tag k="fixme" v="consider place=hamlet" />
		<tag k="name" v="Øvre Skaren" />
		<tag k="place" v="farm" />
		<tag k="ssr:stedsnr" v="979807" />
	</node>
	<node lat="58.31238102142657" lon="6.9857299917707545" id="-71037">
		<tag k="fixme" v="consider place=hamlet" />
		<tag k="name" v="Nedre Skaren" />
		<tag k="place" v="farm" />
		<tag k="ssr:stedsnr" v="979808" />
	</node>
	<node lat="58.31391932110225" lon="6.98603105450335" id="-71038">
		<tag k="name" v="Skaren" />
		<tag k="place" v="hamlet" />
		<tag k="ssr:stedsnr" v="979809" />
	</node>
	<node lat="58.316633479641176" lon="6.962134037105522" id="-71039">
		<tag k="name" v="Eljestrøm" />
		<tag k="place" v="locality" />
		<tag k="ssr:stedsnr" v="979810" />
	</node>
	<node lat="58.286986931623474" lon="6.935844392507952" id="-71040">
		<tag k="fixme" v="consider place=hamlet" />
		<tag k="name" v="Store Åse" />
		<tag k="place" v="farm" />
		<tag k="ssr:stedsnr" v="979811" />
	</node>
	<node lat="58.2798096238783" lon="6.9169303490388065" id="-71041">
		<tag k="fixme" v="consider place=hamlet" />
		<tag k="name" v="Store Åse" />
		<tag k="place" v="farm" />
		<tag k="ssr:stedsnr" v="979812" />
	</node>
	<node lat="58.27653260782479" lon="6.8737657557013" id="-71042">
		<tag k="name" v="Lervik" />
		<tag k="place" v="locality" />
		<tag k="ssr:stedsnr" v="979813" />
	</node>
	<node lat="58.28334795530912" lon="6.855008167987668" id="-71043">
		<tag k="fixme" v="consider place=hamlet" />
		<tag k="name" v="Indre Raustad" />
		<tag k="place" v="farm" />
		<tag k="ssr:stedsnr" v="979814" />
	</node>
	<node lat="58.74564812400401" lon="6.974424292372638" id="-71044">
		<tag k="fixme" v="consider place=hamlet" />
		<tag k="name" v="Solhom" />
		<tag k="place" v="farm" />
		<tag k="ssr:stedsnr" v="979872" />
	</node>
	<node lat="58.741306691709205" lon="6.97385205701231" id="-71045">
		<tag k="fixme" v="consider place=hamlet" />
		<tag k="name" v="Knabeneset" />
		<tag k="place" v="farm" />
		<tag k="ssr:stedsnr" v="979873" />
	</node>
	<node lat="58.418878291809364" lon="7.041073255388946" id="-71046">
		<tag k="fixme" v="consider place=hamlet" />
		<tag k="name" v="Østestøl" />
		<tag k="place" v="farm" />
		<tag k="ssr:stedsnr" v="979770" />
	</node>
	<node lat="58.2815051698513" lon="6.897939514056806" id="-71047">
		<tag k="fixme" v="consider place=hamlet" />
		<tag k="name" v="Ytre Øye" />
		<tag k="place" v="farm" />
		<tag k="ssr:stedsnr" v="979815" />
	</node>
	<node lat="58.28755793341491" lon="6.905734466191474" id="-71048">
		<tag k="fixme" v="consider place=hamlet" />
		<tag k="name" v="Øvre Øye" />
		<tag k="place" v="farm" />
		<tag k="ssr:stedsnr" v="979816" />
	</node>
	<node lat="58.29056076794706" lon="6.863231144185848" id="-71049">
		<tag k="name" v="Ytre Øyeheia" />
		<tag k="place" v="locality" />
		<tag k="ssr:stedsnr" v="979817" />
	</node>
	<node lat="58.294700804087555" lon="6.881001376765082" id="-71050">
		<tag k="fixme" v="consider place=hamlet" />
		<tag k="name" v="Hetlestøl" />
		<tag k="place" v="farm" />
		<tag k="ssr:stedsnr" v="979818" />
	</node>
	<node lat="58.32085786169897" lon="6.861750982833553" id="-71051">
		<tag k="name" v="Fundal" />
		<tag k="place" v="locality" />
		<tag k="ssr:stedsnr" v="979819" />
	</node>
	<node lat="58.32731581615467" lon="6.87925526467071" id="-71052">
		<tag k="name" v="Rudlend" />
		<tag k="place" v="locality" />
		<tag k="ssr:stedsnr" v="979820" />
	</node>
	<node lat="58.31884942126479" lon="6.897642623615004" id="-71053">
		<tag k="name" v="Lauvås" />
		<tag k="place" v="locality" />
		<tag k="ssr:stedsnr" v="979821" />
	</node>
	<node lat="58.31570774137617" lon="6.9222196618182394" id="-71054">
		<tag k="fixme" v="consider place=hamlet" />
		<tag k="name" v="Kleven" />
		<tag k="place" v="farm" />
		<tag k="ssr:stedsnr" v="979822" />
	</node>
	<node lat="58.33653360126976" lon="6.903802674395912" id="-71055">
		<tag k="name" v="Våskeland" />
		<tag k="place" v="locality" />
		<tag k="ssr:stedsnr" v="979825" />
	</node>
	<node lat="58.334275515671266" lon="6.940789897381096" id="-71057">
		<tag k="name" v="Røynås" />
		<tag k="place" v="locality" />
		<tag k="ssr:stedsnr" v="979827" />
	</node>
	<node lat="58.317380350052915" lon="6.95955367794296" id="-71058">
		<tag k="name" v="Liknes" />
		<tag k="place" v="locality" />
		<tag k="ssr:stedsnr" v="979828" />
	</node>
	<node lat="58.359474354262844" lon="6.963489889549579" id="-71059">
		<tag k="fixme" v="consider place=hamlet" />
		<tag k="name" v="Lille Rafoss" />
		<tag k="place" v="farm" />
		<tag k="ssr:stedsnr" v="979829" />
	</node>
	<node lat="58.42603937910931" lon="6.913258148060332" id="-71061">
		<tag k="name" v="Ryggesås" />
		<tag k="place" v="locality" />
		<tag k="ssr:stedsnr" v="979832" />
	</node>
	<node lat="58.39509429138663" lon="6.959407077333096" id="-71062">
		<tag k="fixme" v="consider place=hamlet" />
		<tag k="name" v="Homplands-Hellestøl" />
		<tag k="place" v="farm" />
		<tag k="ssr:stedsnr" v="979835" />
	</node>
	<node lat="58.3928874498275" lon="6.982458220718479" id="-71063">
		<tag k="fixme" v="consider place=hamlet" />
		<tag k="name" v="Solbjørum" />
		<tag k="place" v="farm" />
		<tag k="ssr:stedsnr" v="979836" />
	</node>
	<node lat="58.35808461143141" lon="6.996525772959612" id="-71064">
		<tag k="fixme" v="consider place=hamlet" />
		<tag k="name" v="Rafosshei" />
		<tag k="place" v="farm" />
		<tag k="ssr:stedsnr" v="979837" />
	</node>
	<node lat="58.31891906350456" lon="6.957941181614726" id="-71065">
		<tag k="name" v="Åmot" />
		<tag k="place" v="locality" />
		<tag k="ssr:stedsnr" v="979838" />
	</node>
	<node lat="58.33222199139808" lon="6.984905116863416" id="-71066">
		<tag k="fixme" v="consider place=hamlet" />
		<tag k="name" v="Hamre" />
		<tag k="place" v="farm" />
		<tag k="ssr:stedsnr" v="979839" />
	</node>
	<node lat="58.335358823513815" lon="7.009491606975943" id="-71067">
		<tag k="fixme" v="consider place=hamlet" />
		<tag k="name" v="Jerdal" />
		<tag k="place" v="farm" />
		<tag k="ssr:stedsnr" v="979843" />
	</node>
	<node lat="58.496983254375564" lon="6.919611745769095" id="-71069">
		<tag k="name" v="Risøya" />
		<tag k="place" v="locality" />
		<tag k="ssr:stedsnr" v="979846" />
	</node>
	<node lat="58.488140307757305" lon="6.960296924990341" id="-71070">
		<tag k="fixme" v="consider place=hamlet" />
		<tag k="name" v="Ytre Homme" />
		<tag k="place" v="farm" />
		<tag k="ssr:stedsnr" v="979847" />
	</node>
	<node lat="58.5778468460529" lon="6.8748707990122435" id="-71071">
		<tag k="fixme" v="consider place=hamlet" />
		<tag k="name" v="Lindefjeld" />
		<tag k="place" v="farm" />
		<tag k="ssr:stedsnr" v="979850" />
	</node>
	<node lat="58.6571655297822" lon="6.943881524488177" id="-71072">
		<tag k="fixme" v="consider place=hamlet" />
		<tag k="name" v="Risnes" />
		<tag k="place" v="farm" />
		<tag k="ssr:stedsnr" v="979851" />
	</node>
	<node lat="58.57211141887279" lon="6.990409407219097" id="-71073">
		<tag k="fixme" v="consider place=hamlet" />
		<tag k="name" v="Førlandsås" />
		<tag k="place" v="farm" />
		<tag k="ssr:stedsnr" v="979852" />
	</node>
	<node lat="58.546323534314574" lon="7.057564798523371" id="-71074">
		<tag k="name" v="Mjåvatn" />
		<tag k="place" v="locality" />
		<tag k="ssr:stedsnr" v="979853" />
	</node>
	<node lat="58.552869263277074" lon="6.9689742152186165" id="-71075">
		<tag k="fixme" v="consider place=hamlet" />
		<tag k="name" v="Lien" />
		<tag k="place" v="farm" />
		<tag k="ssr:stedsnr" v="979854" />
	</node>
	<node lat="58.528434445552506" lon="6.988844708943441" id="-71079">
		<tag k="fixme" v="consider place=hamlet" />
		<tag k="name" v="Fjotland Prestegård" />
		<tag k="place" v="farm" />
		<tag k="ssr:stedsnr" v="979859" />
	</node>
	<node lat="58.515047088696086" lon="6.981430974118327" id="-71080">
		<tag k="fixme" v="consider place=hamlet" />
		<tag k="name" v="Åsen" />
		<tag k="place" v="farm" />
		<tag k="ssr:stedsnr" v="979860" />
	</node>
	<node lat="58.50047688003573" lon="7.0620789482045465" id="-71081">
		<tag k="name" v="Åsen" />
		<tag k="place" v="hamlet" />
		<tag k="ssr:stedsnr" v="979862" />
	</node>
	<node lat="58.453907159472486" lon="7.024475108096149" id="-71082">
		<tag k="fixme" v="consider place=hamlet" />
		<tag k="name" v="Øvre Brulien" />
		<tag k="place" v="farm" />
		<tag k="ssr:stedsnr" v="979868" />
	</node>
	<node lat="58.46117286422652" lon="6.998036186929083" id="-71083">
		<tag k="fixme" v="consider place=hamlet" />
		<tag k="name" v="Galdal" />
		<tag k="place" v="farm" />
		<tag k="ssr:stedsnr" v="979869" />
	</node>
	<node lat="58.37094946871742" lon="6.979833516424952" id="-71217">
		<tag k="name" v="Omland" />
		<tag k="place" v="hamlet" />
		<tag k="ssr:stedsnr" v="1075793" />
	</node>
</osm>
