<?xml version="1.0" encoding="UTF-8"?>
<<<<<<< HEAD
<osm version="0.6" generator="osmapis">
	<node lat="58.35765277926252" lon="7.080269441284292" id="-24976">
		<tag k="highway" v="path" />
		<tag k="name" v="Normannsvegen" />
		<tag k="ssr:stedsnr" v="31281" />
	</node>
	<node lat="58.58449444663303" lon="6.952547215026278" id="-24998">
=======
<osm generator="osmapis" version="0.6">
	<node id="-580095" lat="58.4189388889" lon="7.00446110991">
		<tag k="ford" v="yes" />
		<tag k="name" v="Frakkevaet" />
		<tag k="place" v="locality" />
		<tag k="ssr:stedsnr" v="702698" />
	</node>
	<node id="-580087" lat="58.5836583353" lon="6.89694166292">
		<tag k="highway" v="path" />
		<tag k="name" v="Kyrkjevegen" />
		<tag k="ssr:stedsnr" v="702450" />
	</node>
	<node id="-583669" lat="58.5392472225" lon="7.03340000208">
		<tag k="ford" v="yes" />
		<tag k="name" v="Røylandsvaet" />
		<tag k="place" v="locality" />
		<tag k="ssr:stedsnr" v="641272" />
	</node>
	<node id="-581087" lat="58.6723555544" lon="6.99008610557">
		<tag k="highway" v="path" />
		<tag k="name" v="Knutsvegen" />
		<tag k="ssr:stedsnr" v="945027" />
	</node>
	<node id="-579029" lat="58.4958999994" lon="7.08631944726">
		<tag k="man_made" v="cairn" />
		<tag k="name" v="Drengvarden" />
		<tag k="place" v="locality" />
		<tag k="ssr:stedsnr" v="278831" />
	</node>
	<node id="-581586" lat="58.5844944466" lon="6.95254721503">
		<tag k="highway" v="path" />
		<tag k="name" v="Møystien" />
		<tag k="ssr:stedsnr" v="35105" />
	</node>
	<node id="-582095" lat="58.3373305568" lon="7.05354167477">
		<tag k="highway" v="path" />
		<tag k="name" v="Elgstien" />
		<tag k="ssr:stedsnr" v="152138" />
	</node>
	<node id="-582089" lat="58.2910027755" lon="6.83363334012">
		<tag k="highway" v="path" />
		<tag k="name" v="Bustien" />
		<tag k="ssr:stedsnr" v="152118" />
	</node>
	<node id="-579012" lat="58.6098749995" lon="6.91446943993">
		<tag k="highway" v="path" />
		<tag k="name" v="Kyrkjevegen" />
		<tag k="ssr:stedsnr" v="278573" />
	</node>
	<node id="-583616" lat="58.3977638874" lon="6.91497778639">
		<tag k="man_made" v="cairn" />
		<tag k="name" v="Sørens varde" />
		<tag k="place" v="locality" />
		<tag k="ssr:stedsnr" v="637742" />
	</node>
	<node id="-580027" lat="58.3116861133" lon="6.96076111316">
		<tag k="alt_name" v="Liknes" />
		<tag k="bridge" v="yes" />
		<tag k="layer" v="1" />
		<tag k="name" v="Faret bru" />
		<tag k="ssr:stedsnr" v="698638" />
	</node>
	<node id="-582073" lat="58.4203305571" lon="6.87611666556">
		<tag k="man_made" v="cairn" />
		<tag k="name" v="Risevarden" />
		<tag k="place" v="locality" />
		<tag k="ssr:stedsnr" v="152668" />
	</node>
	<node id="-582072" lat="58.3183472227" lon="6.95949721555">
		<tag k="alt_name" v="Åmot" />
		<tag k="bridge" v="yes" />
		<tag k="layer" v="1" />
		<tag k="name" v="Åmot bru" />
		<tag k="ssr:stedsnr" v="152660" />
	</node>
	<node id="-582066" lat="58.3730777762" lon="7.02971665974">
		<tag k="alt_name" v="Nygård" />
		<tag k="bridge" v="yes" />
		<tag k="layer" v="1" />
		<tag k="name" v="Nygård bru" />
		<tag k="ssr:stedsnr" v="146745" />
	</node>
	<node id="-581540" lat="58.3758805566" lon="7.0307027793">
		<tag k="ford" v="yes" />
		<tag k="name" v="Oddevaet" />
		<tag k="place" v="locality" />
		<tag k="ssr:stedsnr" v="31543" />
	</node>
	<node id="-581026" lat="58.3546777811" lon="6.95798333572">
		<tag k="highway" v="path" />
		<tag k="name" v="Fredrikstien" />
		<tag k="ssr:stedsnr" v="941484" />
	</node>
	<node id="-582896" lat="58.6718583295" lon="6.99194999269">
		<tag k="highway" v="path" />
		<tag k="name" v="Sandvegen" />
		<tag k="ssr:stedsnr" v="399035" />
	</node>
	<node id="-581524" lat="58.3576527793" lon="7.08026944128">
		<tag k="highway" v="path" />
		<tag k="name" v="Normannsvegen" />
		<tag k="ssr:stedsnr" v="31281" />
	</node>
	<node id="-580493" lat="58.2518388903" lon="6.83054443796">
		<tag k="man_made" v="quay" />
		<tag k="name" v="Rørvikstrand" />
		<tag k="place" v="locality" />
		<tag k="ssr:stedsnr" v="881480" />
	</node>
	<node id="-579969" lat="58.6422805598" lon="6.92769166714">
		<tag k="bridge" v="yes" />
		<tag k="layer" v="1" />
		<tag k="name" v="Einerdalsbekk" />
		<tag k="ssr:stedsnr" v="532419" />
	</node>
	<node id="-579968" lat="58.2624333294" lon="6.82023888948">
		<tag k="bridge" v="yes" />
		<tag k="layer" v="1" />
		<tag k="name" v="Feda" />
		<tag k="ssr:stedsnr" v="532418" />
	</node>
	<node id="-580479" lat="58.3143277793" lon="6.8170499932">
		<tag k="highway" v="path" />
		<tag k="name" v="Melandskarstien" />
		<tag k="ssr:stedsnr" v="881380" />
	</node>
	<node id="-583317" lat="58.3441472259" lon="6.96155833061">
		<tag k="ford" v="yes" />
		<tag k="name" v="Vadet" />
		<tag k="place" v="locality" />
		<tag k="ssr:stedsnr" v="576431" />
	</node>
	<node id="-580471" lat="58.3392472257" lon="6.90068333261">
		<tag k="man_made" v="cairn" />
		<tag k="name" v="Trivaren" />
		<tag k="place" v="locality" />
		<tag k="ssr:stedsnr" v="881233" />
	</node>
	<node id="-579441" lat="58.5494527749" lon="6.86341944243">
		<tag k="ford" v="yes" />
		<tag k="name" v="Høyva" />
		<tag k="place" v="locality" />
		<tag k="ssr:stedsnr" v="460336" />
	</node>
	<node id="-581998" lat="58.4314416671" lon="7.00114167103">
		<tag k="bridge" v="yes" />
		<tag k="layer" v="1" />
		<tag k="name" v="Sagevassbekk" />
		<tag k="ssr:stedsnr" v="108425" />
	</node>
	<node id="-584045" lat="58.5047027817" lon="7.03582777215">
		<tag k="bridge" v="yes" />
		<tag k="layer" v="1" />
		<tag k="name" v="Eiåsland" />
		<tag k="ssr:stedsnr" v="775408" />
	</node>
	<node id="-580972" lat="58.3302361108" lon="7.01012222929">
		<tag k="alt_name" v="Hunsbedt" />
		<tag k="bridge" v="yes" />
		<tag k="layer" v="1" />
		<tag k="name" v="Hunsbedt bru" />
		<tag k="ssr:stedsnr" v="941053" />
	</node>
	<node id="-584043" lat="58.6248944405" lon="6.91269999788">
		<tag k="bridge" v="yes" />
		<tag k="layer" v="1" />
		<tag k="name" v="Netlandsnes" />
		<tag k="ssr:stedsnr" v="775395" />
	</node>
	<node id="-584042" lat="58.3093499991" lon="6.97272500388">
		<tag k="bridge" v="yes" />
		<tag k="layer" v="1" />
		<tag k="name" v="Rødland" />
		<tag k="ssr:stedsnr" v="775379" />
	</node>
	<node id="-579431" lat="58.7191944454" lon="6.90842778279">
		<tag k="highway" v="path" />
		<tag k="name" v="Jordalsvegen" />
		<tag k="ssr:stedsnr" v="460276" />
	</node>
	<node id="-578916" lat="58.2870250024" lon="6.85259167151">
		<tag k="highway" v="path" />
		<tag k="name" v="Øigestien" />
		<tag k="ssr:stedsnr" v="152103" />
	</node>
	<node id="-580958" lat="58.2782138892" lon="7.02754999436">
		<tag k="junction" v="yes" />
		<tag k="name" v="Fossen" />
		<tag k="place" v="locality" />
		<tag k="ssr:stedsnr" v="935756" />
	</node>
	<node id="-583506" lat="58.5437388921" lon="6.92871110638">
		<tag k="bridge" v="yes" />
		<tag k="layer" v="1" />
		<tag k="name" v="Eikjeland" />
		<tag k="ssr:stedsnr" v="593407" />
	</node>
	<node id="-583505" lat="58.3592805581" lon="6.97407778165">
		<tag k="bridge" v="yes" />
		<tag k="layer" v="1" />
		<tag k="name" v="Rafoss" />
		<tag k="ssr:stedsnr" v="593400" />
	</node>
	<node id="-583504" lat="58.6390305561" lon="6.93967777545">
		<tag k="bridge" v="yes" />
		<tag k="layer" v="1" />
		<tag k="name" v="Nordbø" />
		<tag k="ssr:stedsnr" v="593399" />
	</node>
	<node id="-583503" lat="58.4127888931" lon="6.91280000501">
		<tag k="bridge" v="yes" />
		<tag k="layer" v="1" />
		<tag k="name" v="Lauvåstjønnbekk" />
		<tag k="ssr:stedsnr" v="593394" />
	</node>
	<node id="-583502" lat="58.6460611104" lon="6.94801388752">
		<tag k="bridge" v="yes" />
		<tag k="layer" v="1" />
		<tag k="name" v="Kvittjønnbekk" />
		<tag k="ssr:stedsnr" v="593393" />
	</node>
	<node id="-583501" lat="58.5232944482" lon="6.93569722381">
		<tag k="bridge" v="yes" />
		<tag k="layer" v="1" />
		<tag k="name" v="Sløåna bru" />
		<tag k="ssr:stedsnr" v="593390" />
	</node>
	<node id="-583500" lat="58.2933138923" lon="6.92352221446">
		<tag k="bridge" v="yes" />
		<tag k="layer" v="1" />
		<tag k="name" v="Slimestadmyra" />
		<tag k="ssr:stedsnr" v="593389" />
	</node>
	<node id="-579724" lat="58.2706000017" lon="6.86139445115">
		<tag k="bridge" v="yes" />
		<tag k="layer" v="1" />
		<tag k="name" v="Breivik viadukt" />
		<tag k="ssr:stedsnr" v="411412" />
	</node>
	<node id="-581446" lat="58.3463916637" lon="6.96258610461">
		<tag k="landuse" v="industrial" />
		<tag k="name" v="Trælandsfoss" />
		<tag k="power" v="plant" />
		<tag k="ssr:stedsnr" v="472" />
	</node>
	<node id="-584004" lat="58.6208416622" lon="6.98228888167">
		<tag k="highway" v="path" />
		<tag k="name" v="Åsevegen" />
		<tag k="ssr:stedsnr" v="764701" />
	</node>
	<node id="-579906" lat="58.6714194485" lon="7.15880555502">
		<tag k="man_made" v="cairn" />
		<tag k="name" v="Knaberøysi" />
		<tag k="place" v="locality" />
		<tag k="ssr:stedsnr" v="668290" />
	</node>
	<node id="-579723" lat="58.2773611083" lon="6.91217500774">
		<tag k="bridge" v="yes" />
		<tag k="layer" v="1" />
		<tag k="name" v="Dyrlibekk" />
		<tag k="ssr:stedsnr" v="411410" />
	</node>
	<node id="-580414" lat="58.4245277794" lon="6.96045556036">
		<tag k="ford" v="yes" />
		<tag k="name" v="Berva" />
		<tag k="place" v="locality" />
		<tag k="ssr:stedsnr" v="880051" />
	</node>
	<node id="-582457" lat="58.3098750028" lon="7.01682500316">
>>>>>>> e1d4bc35ff8a6074a6f2e91616a996b547c36f15
		<tag k="highway" v="path" />
		<tag k="name" v="Møystien" />
		<tag k="ssr:stedsnr" v="35105" />
	</node>
<<<<<<< HEAD
	<node lat="58.284499999469304" lon="6.905569442783034" id="-25043">
=======
	<node id="-580406" lat="58.3586305543" lon="7.03809444536">
>>>>>>> e1d4bc35ff8a6074a6f2e91616a996b547c36f15
		<tag k="bridge" v="yes" />
		<tag k="layer" v="1" />
		<tag k="name" v="Øyebekk" />
		<tag k="ssr:stedsnr" v="47410" />
	</node>
<<<<<<< HEAD
	<node lat="58.50383055490369" lon="7.042955557294512" id="-25044">
=======
	<node id="-580405" lat="58.4691055582" lon="6.92783611707">
>>>>>>> e1d4bc35ff8a6074a6f2e91616a996b547c36f15
		<tag k="bridge" v="yes" />
		<tag k="layer" v="1" />
		<tag k="name" v="Litlebekk bru" />
		<tag k="ssr:stedsnr" v="47424" />
	</node>
<<<<<<< HEAD
	<node lat="58.296283335413406" lon="6.947738895200441" id="-25045">
=======
	<node id="-580404" lat="58.2869416644" lon="6.910302776">
>>>>>>> e1d4bc35ff8a6074a6f2e91616a996b547c36f15
		<tag k="bridge" v="yes" />
		<tag k="layer" v="1" />
		<tag k="name" v="Motlandsvassbekk" />
		<tag k="ssr:stedsnr" v="47426" />
	</node>
	<node lat="58.3428833331445" lon="7.048908338312008" id="-25107">
		<tag k="name" v="Kvineshei" />
		<tag k="railway" v="station" />
		<tag k="ssr:stedsnr" v="243723" />
		<tag k="train" v="yes" />
	</node>
	<node lat="58.37959166429286" lon="6.958088884801646" id="-25130">
		<tag k="name" v="Storekvina" />
		<tag k="railway" v="station" />
		<tag k="ssr:stedsnr" v="91619" />
		<tag k="train" v="yes" />
	</node>
	<node lat="58.224558336031336" lon="6.811791666742705" id="-25161">
		<tag k="highway" v="path" />
		<tag k="name" v="Jomfrustien" />
		<tag k="ssr:stedsnr" v="93314" />
	</node>
<<<<<<< HEAD
	<node lat="58.46608611417796" lon="6.942863897056297" id="-25195">
=======
	<node id="-579707" lat="58.6593611087" lon="6.93443055078">
		<tag k="man_made" v="cairn" />
		<tag k="name" v="Varen" />
		<tag k="place" v="locality" />
		<tag k="ssr:stedsnr" v="399903" />
	</node>
	<node id="-581927" lat="58.4660861142" lon="6.94286389706">
>>>>>>> e1d4bc35ff8a6074a6f2e91616a996b547c36f15
		<tag k="highway" v="path" />
		<tag k="name" v="Søkkjarstien" />
		<tag k="ssr:stedsnr" v="96487" />
	</node>
<<<<<<< HEAD
	<node lat="58.59833333192928" lon="7.081747222887534" id="-25196">
=======
	<node id="-578825" lat="58.5983333319" lon="7.08174722289">
>>>>>>> e1d4bc35ff8a6074a6f2e91616a996b547c36f15
		<tag k="ford" v="yes" />
		<tag k="name" v="Harsteinsvaet" />
		<tag k="place" v="locality" />
		<tag k="ssr:stedsnr" v="96604" />
	</node>
<<<<<<< HEAD
	<node lat="58.670727782055764" lon="7.159349999295025" id="-25232">
		<tag k="man_made" v="cairn" />
		<tag k="name" v="Knaberøysa" />
		<tag k="place" v="locality" />
		<tag k="ssr:stedsnr" v="98672" />
	</node>
	<node lat="58.43144166711519" lon="7.001141671034486" id="-25233">
=======
	<node id="-581892" lat="58.224558336" lon="6.81179166674">
		<tag k="highway" v="path" />
		<tag k="name" v="Jomfrustien" />
		<tag k="ssr:stedsnr" v="93314" />
	</node>
	<node id="-580355" lat="58.329683336" lon="7.10043888172">
		<tag k="man_made" v="cairn" />
		<tag k="name" v="Mois Høgevarden" />
		<tag k="place" v="locality" />
		<tag k="ssr:stedsnr" v="637124" />
	</node>
	<node id="-579967" lat="58.6663138846" lon="7.01691944379">
		<tag k="bridge" v="yes" />
		<tag k="layer" v="1" />
		<tag k="name" v="Homsbrua" />
		<tag k="ssr:stedsnr" v="532411" />
	</node>
	<node id="-580342" lat="58.5490305599" lon="6.90497499345">
		<tag k="alt_name" v="Lindeland" />
>>>>>>> e1d4bc35ff8a6074a6f2e91616a996b547c36f15
		<tag k="bridge" v="yes" />
		<tag k="layer" v="1" />
		<tag k="name" v="Sagevassbekk" />
		<tag k="ssr:stedsnr" v="108425" />
	</node>
<<<<<<< HEAD
	<node lat="58.287025002402" lon="6.8525916715118305" id="-25257">
		<tag k="highway" v="path" />
		<tag k="name" v="Øigestien" />
		<tag k="ssr:stedsnr" v="152103" />
	</node>
	<node lat="58.291002775470545" lon="6.833633340116399" id="-25260">
		<tag k="highway" v="path" />
		<tag k="name" v="Bustien" />
		<tag k="ssr:stedsnr" v="152118" />
	</node>
	<node lat="58.318347222708965" lon="6.959497215552786" id="-25293">
		<tag k="alt_name" v="Åmot" />
		<tag k="bridge" v="yes" />
		<tag k="layer" v="1" />
		<tag k="name" v="Åmot bru" />
		<tag k="ssr:stedsnr" v="152660" />
	</node>
	<node lat="58.4203305570575" lon="6.876116665556961" id="-25294">
=======
	<node id="-581360" lat="58.2614694475" lon="6.83836944349">
		<tag k="bridge" v="yes" />
		<tag k="layer" v="1" />
		<tag k="name" v="Angholmen" />
		<tag k="ssr:stedsnr" v="957434" />
	</node>
	<node id="-581359" lat="58.6245277783" lon="6.91676388575">
		<tag k="bridge" v="yes" />
		<tag k="layer" v="1" />
		<tag k="name" v="Nestjønnbekk" />
		<tag k="ssr:stedsnr" v="957416" />
	</node>
	<node id="-581358" lat="58.2872055516" lon="6.93943332773">
		<tag k="bridge" v="yes" />
		<tag k="layer" v="1" />
		<tag k="name" v="Stemtjønnbekk" />
		<tag k="ssr:stedsnr" v="957408" />
	</node>
	<node id="-579308" lat="58.2726472183" lon="6.81755278376">
		<tag k="landuse" v="industrial" />
		<tag k="name" v="Feda e-verk" />
		<tag k="power" v="plant" />
		<tag k="ssr:stedsnr" v="457877" />
	</node>
	<node id="-582887" lat="58.622533336" lon="6.90231666947">
		<tag k="highway" v="path" />
		<tag k="name" v="Ytre kleivan" />
		<tag k="ssr:stedsnr" v="398491" />
	</node>
	<node id="-583907" lat="58.27734722" lon="6.88327222443">
		<tag k="man_made" v="quay" />
		<tag k="name" v="Kleven brygger" />
		<tag k="place" v="locality" />
		<tag k="ssr:stedsnr" v="760966" />
	</node>
	<node id="-579809" lat="58.3435944444" lon="6.98729444086">
>>>>>>> e1d4bc35ff8a6074a6f2e91616a996b547c36f15
		<tag k="man_made" v="cairn" />
		<tag k="name" v="Risevarden" />
		<tag k="place" v="locality" />
		<tag k="ssr:stedsnr" v="152668" />
	</node>
<<<<<<< HEAD
	<node lat="58.668611114088066" lon="6.986538887879917" id="-25341">
		<tag k="name" v="Hageleet" />
		<tag k="place" v="locality" />
		<tag k="ssr:stedsnr" v="156752" />
	</node>
	<node lat="58.481202781112714" lon="6.938791674072645" id="-25382">
=======
	<node id="-579296" lat="58.2817555556" lon="7.06778055227">
		<tag k="fixme" v="verify maritime location" />
		<tag k="mooring" v="yes" />
		<tag k="name" v="Pråmstøa" />
		<tag k="place" v="locality" />
		<tag k="ssr:stedsnr" v="456966" />
	</node>
	<node id="-581847" lat="58.2873555585" lon="6.84114166147">
		<tag k="highway" v="path" />
		<tag k="name" v="Gongstien" />
		<tag k="ssr:stedsnr" v="92089" />
	</node>
	<node id="-578766" lat="58.3795916643" lon="6.9580888848">
		<tag k="name" v="Storekvina" />
		<tag k="railway" v="station" />
		<tag k="ssr:stedsnr" v="91619" />
		<tag k="train" v="yes" />
	</node>
	<node id="-584394" lat="58.2613881778" lon="6.84530376674">
>>>>>>> e1d4bc35ff8a6074a6f2e91616a996b547c36f15
		<tag k="bridge" v="yes" />
		<tag k="layer" v="1" />
		<tag k="name" v="Saga" />
		<tag k="ssr:stedsnr" v="168411" />
	</node>
<<<<<<< HEAD
	<node lat="58.381316670878604" lon="6.952016670969658" id="-25383">
=======
	<node id="-583881" lat="58.3730888845" lon="7.02937777401">
>>>>>>> e1d4bc35ff8a6074a6f2e91616a996b547c36f15
		<tag k="bridge" v="yes" />
		<tag k="layer" v="1" />
		<tag k="name" v="Røynestadbrua" />
		<tag k="ssr:stedsnr" v="168413" />
	</node>
<<<<<<< HEAD
	<node lat="58.339127774114395" lon="7.03983611927238" id="-25384">
=======
	<node id="-582344" lat="58.5261472187" lon="6.99204443726">
>>>>>>> e1d4bc35ff8a6074a6f2e91616a996b547c36f15
		<tag k="bridge" v="yes" />
		<tag k="layer" v="1" />
		<tag k="name" v="Muntjønnbekk" />
		<tag k="ssr:stedsnr" v="168421" />
	</node>
<<<<<<< HEAD
	<node lat="58.356902779493446" lon="7.032119440383152" id="-25385">
=======
	<node id="-582343" lat="58.3569027795" lon="7.03211944038">
>>>>>>> e1d4bc35ff8a6074a6f2e91616a996b547c36f15
		<tag k="bridge" v="yes" />
		<tag k="layer" v="1" />
		<tag k="name" v="Gjemlestad" />
		<tag k="ssr:stedsnr" v="168428" />
	</node>
<<<<<<< HEAD
	<node lat="58.30987500281597" lon="7.0168250031606005" id="-25437">
		<tag k="highway" v="path" />
		<tag k="name" v="Espelandsvegen" />
		<tag k="ssr:stedsnr" v="213724" />
	</node>
	<node lat="58.43280555213787" lon="6.922836118199232" id="-25522">
		<tag k="bridge" v="yes" />
		<tag k="layer" v="1" />
		<tag k="name" v="Sagebekk" />
		<tag k="ssr:stedsnr" v="229410" />
	</node>
	<node lat="58.279744443283874" lon="6.91402499264988" id="-25523">
		<tag k="bridge" v="yes" />
		<tag k="layer" v="1" />
		<tag k="name" v="Skjerli bru" />
		<tag k="ssr:stedsnr" v="229411" />
	</node>
	<node lat="58.254155554584955" lon="6.79239165898082" id="-25582">
=======
	<node id="-580294" lat="58.6559472212" lon="6.94565556333">
		<tag k="bridge" v="yes" />
		<tag k="layer" v="1" />
		<tag k="name" v="Risnes" />
		<tag k="ssr:stedsnr" v="715462" />
	</node>
	<node id="-580293" lat="58.4037833309" lon="6.92969166897">
		<tag k="bridge" v="yes" />
		<tag k="layer" v="1" />
		<tag k="name" v="Stemtjønnbekk" />
		<tag k="ssr:stedsnr" v="715455" />
	</node>
	<node id="-579774" lat="58.3962916637" lon="6.94370834119">
		<tag k="alt_name" v="Oksesteinen" />
		<tag k="bridge" v="yes" />
		<tag k="layer" v="1" />
		<tag k="name" v="Oksesteinbrua" />
		<tag k="ssr:stedsnr" v="516208" />
	</node>
	<node id="-578748" lat="58.3428833331" lon="7.04890833831">
		<tag k="name" v="Kvineshei" />
		<tag k="railway" v="station" />
		<tag k="ssr:stedsnr" v="243723" />
		<tag k="train" v="yes" />
	</node>
	<node id="-582345" lat="58.5007750022" lon="7.05285278608">
		<tag k="bridge" v="yes" />
		<tag k="layer" v="1" />
		<tag k="name" v="Eielandsbekk bru" />
		<tag k="ssr:stedsnr" v="168435" />
	</node>
	<node id="-579250" lat="58.2541555546" lon="6.79239165898">
>>>>>>> e1d4bc35ff8a6074a6f2e91616a996b547c36f15
		<tag k="landuse" v="industrial" />
		<tag k="name" v="Sagefoss kraftstasjon" />
		<tag k="power" v="plant" />
		<tag k="ssr:stedsnr" v="456297" />
	</node>
<<<<<<< HEAD
	<node lat="58.28175555560712" lon="7.067780552271233" id="-25612">
		<tag k="fixme" v="verify maritime location" />
		<tag k="mooring" v="yes" />
		<tag k="name" v="Pråmstøa" />
		<tag k="place" v="locality" />
		<tag k="ssr:stedsnr" v="456966" />
	</node>
	<node lat="58.272647218309324" lon="6.817552783759666" id="-25624">
=======
	<node id="-583857" lat="58.2795083317" lon="6.89210278481">
		<tag k="landuse" v="industrial" />
		<tag k="name" v="Øye sekundærstasjon" />
		<tag k="power" v="plant" />
		<tag k="ssr:stedsnr" v="759123" />
	</node>
	<node id="-581661" lat="58.4391027791" lon="6.908897228">
		<tag k="highway" v="path" />
		<tag k="name" v="Kjørestien" />
		<tag k="ssr:stedsnr" v="35752" />
	</node>
	<node id="-582825" lat="58.2812805551" lon="6.81523334016">
>>>>>>> e1d4bc35ff8a6074a6f2e91616a996b547c36f15
		<tag k="landuse" v="industrial" />
		<tag k="name" v="Feda e-verk" />
		<tag k="power" v="plant" />
<<<<<<< HEAD
		<tag k="ssr:stedsnr" v="457877" />
	</node>
	<node lat="58.60987499948153" lon="6.914469439930793" id="-25731">
=======
		<tag k="ssr:stedsnr" v="395186" />
	</node>
	<node id="-578711" lat="58.2962833354" lon="6.9477388952">
		<tag k="bridge" v="yes" />
		<tag k="layer" v="1" />
		<tag k="name" v="Motlandsvassbekk" />
		<tag k="ssr:stedsnr" v="47426" />
	</node>
	<node id="-578710" lat="58.5038305549" lon="7.04295555729">
		<tag k="bridge" v="yes" />
		<tag k="layer" v="1" />
		<tag k="name" v="Litlebekk bru" />
		<tag k="ssr:stedsnr" v="47424" />
	</node>
	<node id="-578709" lat="58.5343583313" lon="6.93976388948">
		<tag k="bridge" v="yes" />
		<tag k="layer" v="1" />
		<tag k="name" v="Røynebu" />
		<tag k="ssr:stedsnr" v="47415" />
	</node>
	<node id="-578708" lat="58.2844999995" lon="6.90556944278">
		<tag k="bridge" v="yes" />
		<tag k="layer" v="1" />
		<tag k="name" v="Øyebekk" />
		<tag k="ssr:stedsnr" v="47410" />
	</node>
	<node id="-583822" lat="58.4075138868" lon="6.97301943921">
>>>>>>> e1d4bc35ff8a6074a6f2e91616a996b547c36f15
		<tag k="highway" v="path" />
		<tag k="name" v="Kyrkjevegen" />
		<tag k="ssr:stedsnr" v="278573" />
	</node>
<<<<<<< HEAD
	<node lat="58.54945277490269" lon="6.86341944242719" id="-25780">
		<tag k="ford" v="yes" />
		<tag k="name" v="Høyva" />
		<tag k="place" v="locality" />
		<tag k="ssr:stedsnr" v="460336" />
	</node>
	<node lat="58.27371388799724" lon="6.780727776051113" id="-25857">
=======
	<node id="-581997" lat="58.6707277821" lon="7.1593499993">
		<tag k="man_made" v="cairn" />
		<tag k="name" v="Knaberøysa" />
		<tag k="place" v="locality" />
		<tag k="ssr:stedsnr" v="98672" />
	</node>
	<node id="-578700" lat="58.2574722202" lon="7.02451388758">
		<tag k="bridge" v="yes" />
		<tag k="layer" v="1" />
		<tag k="name" v="Førland" />
		<tag k="ssr:stedsnr" v="229426" />
	</node>
	<node id="-578699" lat="58.6128333367" lon="6.89936944838">
>>>>>>> e1d4bc35ff8a6074a6f2e91616a996b547c36f15
		<tag k="bridge" v="yes" />
		<tag k="layer" v="1" />
		<tag k="name" v="Fosseland" />
		<tag k="ssr:stedsnr" v="290398" />
	</node>
<<<<<<< HEAD
	<node lat="58.28128055508127" lon="6.815233340159094" id="-26042">
		<tag k="landuse" v="industrial" />
		<tag k="name" v="Høylandsfoss" />
		<tag k="power" v="plant" />
		<tag k="ssr:stedsnr" v="395186" />
	</node>
	<node lat="58.67185832950522" lon="6.991949992687863" id="-26060">
		<tag k="highway" v="path" />
		<tag k="name" v="Sandvegen" />
		<tag k="ssr:stedsnr" v="399035" />
	</node>
	<node lat="58.65936110871106" lon="6.934430550775631" id="-26108">
		<tag k="man_made" v="cairn" />
		<tag k="name" v="Varen" />
		<tag k="place" v="locality" />
		<tag k="ssr:stedsnr" v="399903" />
	</node>
	<node lat="58.70418332925681" lon="6.9962166750012225" id="-26120">
=======
	<node id="-579722" lat="58.270838893" lon="6.81503332659">
		<tag k="bridge" v="yes" />
		<tag k="layer" v="1" />
		<tag k="name" v="Fedeåna" />
		<tag k="ssr:stedsnr" v="411408" />
	</node>
	<node id="-579721" lat="58.666808332" lon="6.96990834159">
		<tag k="bridge" v="yes" />
		<tag k="layer" v="1" />
		<tag k="name" v="Knabenåni" />
		<tag k="ssr:stedsnr" v="411399" />
	</node>
	<node id="-579720" lat="58.5426027764" lon="6.94600555487">
		<tag k="bridge" v="yes" />
		<tag k="layer" v="1" />
		<tag k="name" v="Øvre Røynebu" />
		<tag k="ssr:stedsnr" v="411398" />
	</node>
	<node id="-584044" lat="58.298880551" lon="6.93801110642">
		<tag k="bridge" v="yes" />
		<tag k="layer" v="1" />
		<tag k="name" v="Kattevad" />
		<tag k="ssr:stedsnr" v="775405" />
	</node>
	<node id="-579716" lat="58.7041833293" lon="6.996216675">
>>>>>>> e1d4bc35ff8a6074a6f2e91616a996b547c36f15
		<tag k="ford" v="yes" />
		<tag k="name" v="Vae" />
		<tag k="place" v="locality" />
		<tag k="ssr:stedsnr" v="400037" />
	</node>
<<<<<<< HEAD
	<node lat="58.27083889299696" lon="6.815033326586469" id="-26165">
=======
	<node id="-580735" lat="58.3546888849" lon="7.03435556306">
>>>>>>> e1d4bc35ff8a6074a6f2e91616a996b547c36f15
		<tag k="bridge" v="yes" />
		<tag k="layer" v="1" />
		<tag k="name" v="Fedeåna" />
		<tag k="ssr:stedsnr" v="411408" />
	</node>
<<<<<<< HEAD
	<node lat="58.277361108321486" lon="6.912175007742018" id="-26166">
=======
	<node id="-580734" lat="58.3018055575" lon="6.94474722445">
>>>>>>> e1d4bc35ff8a6074a6f2e91616a996b547c36f15
		<tag k="bridge" v="yes" />
		<tag k="layer" v="1" />
		<tag k="name" v="Dyrlibekk" />
		<tag k="ssr:stedsnr" v="411410" />
	</node>
<<<<<<< HEAD
	<node lat="58.27060000165307" lon="6.861394451152439" id="-26167">
=======
	<node id="-580733" lat="58.3086333358" lon="6.96483334121">
>>>>>>> e1d4bc35ff8a6074a6f2e91616a996b547c36f15
		<tag k="bridge" v="yes" />
		<tag k="layer" v="1" />
		<tag k="name" v="Breivik viadukt" />
		<tag k="ssr:stedsnr" v="411412" />
	</node>
<<<<<<< HEAD
	<node lat="58.5426027764327" lon="6.946005554866935" id="-26168">
=======
	<node id="-580732" lat="58.2347767404" lon="6.86518766411">
>>>>>>> e1d4bc35ff8a6074a6f2e91616a996b547c36f15
		<tag k="bridge" v="yes" />
		<tag k="layer" v="1" />
		<tag k="name" v="Øvre Røynebu" />
		<tag k="ssr:stedsnr" v="411398" />
	</node>
<<<<<<< HEAD
	<node lat="58.66680833199218" lon="6.969908341592305" id="-26169">
=======
	<node id="-580731" lat="58.5175749988" lon="6.91604722066">
>>>>>>> e1d4bc35ff8a6074a6f2e91616a996b547c36f15
		<tag k="bridge" v="yes" />
		<tag k="layer" v="1" />
		<tag k="name" v="Knabenåni" />
		<tag k="ssr:stedsnr" v="411399" />
	</node>
	<node lat="58.71919444537736" lon="6.908427782787574" id="-26253">
		<tag k="highway" v="path" />
		<tag k="name" v="Jordalsvegen" />
		<tag k="ssr:stedsnr" v="460276" />
	</node>
<<<<<<< HEAD
	<node lat="58.52333055671986" lon="6.945847221779718" id="-26314">
=======
	<node id="-580730" lat="58.2951583331" lon="6.92841111662">
>>>>>>> e1d4bc35ff8a6074a6f2e91616a996b547c36f15
		<tag k="bridge" v="yes" />
		<tag k="layer" v="1" />
		<tag k="name" v="Kleiven" />
		<tag k="ssr:stedsnr" v="472412" />
	</node>
<<<<<<< HEAD
	<node lat="58.541736109776835" lon="6.966050001733355" id="-26315">
=======
	<node id="-580729" lat="58.3774249967" lon="6.96369443793">
>>>>>>> e1d4bc35ff8a6074a6f2e91616a996b547c36f15
		<tag k="bridge" v="yes" />
		<tag k="layer" v="1" />
		<tag k="name" v="Harbakk" />
		<tag k="ssr:stedsnr" v="472416" />
	</node>
<<<<<<< HEAD
	<node lat="58.51860555158229" lon="6.937055559683935" id="-26316">
		<tag k="bridge" v="yes" />
		<tag k="layer" v="1" />
		<tag k="name" v="Fjotlandsvassbekk" />
		<tag k="ssr:stedsnr" v="472419" />
	</node>
	<node lat="58.396291663724" lon="6.943708341194908" id="-26351">
		<tag k="alt_name" v="Oksesteinen" />
=======
	<node id="-580727" lat="58.3782638892" lon="6.9665444413">
		<tag k="bridge" v="yes" />
		<tag k="layer" v="1" />
		<tag k="name" v="Solbjørnvassbekk" />
		<tag k="ssr:stedsnr" v="715450" />
	</node>
	<node id="-584309" lat="58.3678138849" lon="7.01738889323">
		<tag k="name" v="Sandvatn" />
		<tag k="railway" v="halt" />
		<tag k="ssr:stedsnr" v="850701" />
		<tag k="train" v="yes" />
	</node>
	<node id="-579188" lat="58.3142944414" lon="6.82637777304">
>>>>>>> e1d4bc35ff8a6074a6f2e91616a996b547c36f15
		<tag k="bridge" v="yes" />
		<tag k="layer" v="1" />
		<tag k="name" v="Oksesteinbrua" />
		<tag k="ssr:stedsnr" v="516208" />
	</node>
<<<<<<< HEAD
	<node lat="58.666313884586714" lon="7.016919443793787" id="-26451">
=======
	<node id="-579187" lat="58.2797444433" lon="6.91402499265">
>>>>>>> e1d4bc35ff8a6074a6f2e91616a996b547c36f15
		<tag k="bridge" v="yes" />
		<tag k="layer" v="1" />
		<tag k="name" v="Homsbrua" />
		<tag k="ssr:stedsnr" v="532411" />
	</node>
<<<<<<< HEAD
	<node lat="58.64228055979288" lon="6.927691667140818" id="-26452">
		<tag k="bridge" v="yes" />
		<tag k="layer" v="1" />
		<tag k="name" v="Einerdalsbekk" />
		<tag k="ssr:stedsnr" v="532419" />
	</node>
	<node lat="58.66726110713205" lon="7.027038897184532" id="-26453">
		<tag k="bridge" v="yes" />
		<tag k="layer" v="1" />
		<tag k="name" v="Berits bru" />
		<tag k="ssr:stedsnr" v="532424" />
	</node>
	<node lat="58.31168611326178" lon="6.960761113159324" id="-26658">
		<tag k="alt_name" v="Liknes" />
=======
	<node id="-579186" lat="58.4328055521" lon="6.9228361182">
		<tag k="bridge" v="yes" />
		<tag k="layer" v="1" />
		<tag k="name" v="Sagebekk" />
		<tag k="ssr:stedsnr" v="229410" />
	</node>
	<node id="-582250" lat="58.499419445" lon="7.05196388567">
		<tag k="highway" v="path" />
		<tag k="name" v="Stien" />
		<tag k="ssr:stedsnr" v="157830" />
	</node>
	<node id="-582247" lat="58.6686111141" lon="6.98653888788">
		<tag k="name" v="Hageleet" />
		<tag k="place" v="locality" />
		<tag k="ssr:stedsnr" v="156752" />
	</node>
	<node id="-581731" lat="58.3836111099" lon="6.95664444858">
		<tag k="bridge" v="yes" />
		<tag k="layer" v="1" />
		<tag k="name" v="Breimoen" />
		<tag k="ssr:stedsnr" v="47442" />
	</node>
	<node id="-580191" lat="58.4807749992" lon="6.94170833546">
		<tag k="highway" v="path" />
		<tag k="name" v="Aksteveien" />
		<tag k="ssr:stedsnr" v="703909" />
	</node>
	<node id="-582734" lat="58.2776777752" lon="6.88558889152">
>>>>>>> e1d4bc35ff8a6074a6f2e91616a996b547c36f15
		<tag k="bridge" v="yes" />
		<tag k="layer" v="1" />
		<tag k="name" v="Faret bru" />
		<tag k="ssr:stedsnr" v="698638" />
	</node>
<<<<<<< HEAD
	<node lat="58.238194440002744" lon="6.856397214694232" id="-26685">
=======
	<node id="-580684" lat="58.23819444" lon="6.85639721469">
>>>>>>> e1d4bc35ff8a6074a6f2e91616a996b547c36f15
		<tag k="man_made" v="cairn" />
		<tag k="name" v="Varen" />
		<tag k="place" v="locality" />
		<tag k="ssr:stedsnr" v="699422" />
	</node>
<<<<<<< HEAD
	<node lat="58.418938888858975" lon="7.004461109909973" id="-26752">
		<tag k="ford" v="yes" />
		<tag k="name" v="Frakkevaet" />
		<tag k="place" v="locality" />
		<tag k="ssr:stedsnr" v="702698" />
	</node>
	<node lat="58.28694166437091" lon="6.910302776001919" id="-26955">
=======
	<node id="-584264" lat="58.5050499966" lon="6.86126389617">
		<tag k="bridge" v="yes" />
		<tag k="layer" v="1" />
		<tag k="name" v="Kråkeland" />
		<tag k="ssr:stedsnr" v="836378" />
	</node>
	<node id="-583239" lat="58.3990305528" lon="7.04827777027">
>>>>>>> e1d4bc35ff8a6074a6f2e91616a996b547c36f15
		<tag k="bridge" v="yes" />
		<tag k="layer" v="1" />
		<tag k="name" v="Øyemyra" />
		<tag k="ssr:stedsnr" v="654414" />
	</node>
<<<<<<< HEAD
	<node lat="58.46910555819481" lon="6.92783611707349" id="-26956">
=======
	<node id="-583238" lat="58.6672611071" lon="7.02703889718">
>>>>>>> e1d4bc35ff8a6074a6f2e91616a996b547c36f15
		<tag k="bridge" v="yes" />
		<tag k="layer" v="1" />
		<tag k="name" v="Helle" />
		<tag k="ssr:stedsnr" v="654439" />
	</node>
<<<<<<< HEAD
	<node lat="58.35863055429508" lon="7.038094445357891" id="-26957">
=======
	<node id="-583237" lat="58.6659472265" lon="7.00484722931">
>>>>>>> e1d4bc35ff8a6074a6f2e91616a996b547c36f15
		<tag k="bridge" v="yes" />
		<tag k="layer" v="1" />
		<tag k="name" v="Dokkebekk" />
		<tag k="ssr:stedsnr" v="654446" />
	</node>
<<<<<<< HEAD
	<node lat="58.67141944848377" lon="7.158805555015553" id="-26978">
		<tag k="man_made" v="cairn" />
		<tag k="name" v="Knaberøysi" />
		<tag k="place" v="locality" />
		<tag k="ssr:stedsnr" v="668290" />
	</node>
	<node lat="58.58365833529687" lon="6.896941662916812" id="-27040">
		<tag k="highway" v="path" />
		<tag k="name" v="Kyrkjevegen" />
		<tag k="ssr:stedsnr" v="702450" />
	</node>
	<node lat="58.48077499921589" lon="6.9417083354588" id="-27091">
		<tag k="highway" v="path" />
		<tag k="name" v="Aksteveien" />
		<tag k="ssr:stedsnr" v="703909" />
	</node>
	<node lat="58.37742499670093" lon="6.963694437927598" id="-27101">
=======
	<node id="-582292" lat="58.4553249973" lon="6.89825832721">
		<tag k="highway" v="path" />
		<tag k="name" v="Fænstien" />
		<tag k="ssr:stedsnr" v="157393" />
	</node>
	<node id="-578612" lat="58.6692805524" lon="6.98722778519">
		<tag k="highway" v="path" />
		<tag k="name" v="Stien" />
		<tag k="ssr:stedsnr" v="217744" />
	</node>
	<node id="-579101" lat="58.273713888" lon="6.78072777605">
>>>>>>> e1d4bc35ff8a6074a6f2e91616a996b547c36f15
		<tag k="bridge" v="yes" />
		<tag k="layer" v="1" />
		<tag k="name" v="Sjekkeland bru" />
		<tag k="ssr:stedsnr" v="897396" />
	</node>
<<<<<<< HEAD
	<node lat="58.295158333092765" lon="6.9284111166226685" id="-27102">
=======
	<node id="-583699" lat="58.4151083363" lon="7.00889167282">
>>>>>>> e1d4bc35ff8a6074a6f2e91616a996b547c36f15
		<tag k="bridge" v="yes" />
		<tag k="layer" v="1" />
		<tag k="name" v="Slimestad" />
		<tag k="ssr:stedsnr" v="897398" />
	</node>
<<<<<<< HEAD
	<node lat="58.51757499882462" lon="6.916047220655129" id="-27103">
=======
	<node id="-579088" lat="58.3391277741" lon="7.03983611927">
>>>>>>> e1d4bc35ff8a6074a6f2e91616a996b547c36f15
		<tag k="bridge" v="yes" />
		<tag k="layer" v="1" />
		<tag k="name" v="Stakkeland" />
		<tag k="ssr:stedsnr" v="897400" />
	</node>
<<<<<<< HEAD
	<node lat="58.27950833174972" lon="6.89210278481252" id="-27142">
		<tag k="landuse" v="industrial" />
		<tag k="name" v="Øye sekundærstasjon" />
		<tag k="power" v="plant" />
		<tag k="ssr:stedsnr" v="759123" />
	</node>
	<node lat="58.29888055103293" lon="6.938011106418482" id="-27263">
		<tag k="bridge" v="yes" />
		<tag k="layer" v="1" />
		<tag k="name" v="Kattevad" />
		<tag k="ssr:stedsnr" v="775405" />
	</node>
	<node lat="58.504702781684244" lon="7.035827772145868" id="-27264">
=======
	<node id="-579087" lat="58.3813166709" lon="6.95201667097">
		<tag k="bridge" v="yes" />
		<tag k="layer" v="1" />
		<tag k="name" v="Røynestadbrua" />
		<tag k="ssr:stedsnr" v="168413" />
	</node>
	<node id="-579086" lat="58.4812027811" lon="6.93879167407">
		<tag k="bridge" v="yes" />
		<tag k="layer" v="1" />
		<tag k="name" v="Saga" />
		<tag k="ssr:stedsnr" v="168411" />
	</node>
	<node id="-582669" lat="58.4978500035" lon="6.94436666609">
		<tag k="highway" v="path" />
		<tag k="name" v="Åmlandsvegen" />
		<tag k="ssr:stedsnr" v="339190" />
	</node>
	<node id="-579591" lat="58.5186055516" lon="6.93705555968">
>>>>>>> e1d4bc35ff8a6074a6f2e91616a996b547c36f15
		<tag k="bridge" v="yes" />
		<tag k="layer" v="1" />
		<tag k="name" v="Eiåsland" />
		<tag k="ssr:stedsnr" v="775408" />
	</node>
<<<<<<< HEAD
	<node lat="58.36781388487174" lon="7.017388893228543" id="-27436">
		<tag k="name" v="Sandvatn" />
		<tag k="railway" v="halt" />
		<tag k="ssr:stedsnr" v="850701" />
		<tag k="train" v="yes" />
	</node>
	<node lat="58.234776740425694" lon="6.8651876641146075" id="-27540">
=======
	<node id="-579590" lat="58.5417361098" lon="6.96605000173">
		<tag k="bridge" v="yes" />
		<tag k="layer" v="1" />
		<tag k="name" v="Harbakk" />
		<tag k="ssr:stedsnr" v="472416" />
	</node>
	<node id="-579589" lat="58.5233305567" lon="6.94584722178">
>>>>>>> e1d4bc35ff8a6074a6f2e91616a996b547c36f15
		<tag k="bridge" v="yes" />
		<tag k="layer" v="1" />
		<tag k="loc_name" v="Oppoftsbrua" />
		<tag k="name" v="Oppofte bru" />
		<tag k="ssr:stedsnr" v="897404" />
	</node>
<<<<<<< HEAD
	<node lat="58.308633335835594" lon="6.964833341212698" id="-27541">
		<tag k="bridge" v="yes" />
		<tag k="layer" v="1" />
		<tag k="name" v="Rødetjønnbekk" />
		<tag k="ssr:stedsnr" v="897405" />
	</node>
	<node lat="58.30180555747041" lon="6.944747224453652" id="-27542">
		<tag k="bridge" v="yes" />
		<tag k="layer" v="1" />
		<tag k="name" v="Kjøle bru" />
		<tag k="ssr:stedsnr" v="897406" />
	</node>
	<node lat="58.35468888485423" lon="7.034355563063334" id="-27543">
		<tag k="bridge" v="yes" />
		<tag k="layer" v="1" />
		<tag k="name" v="Hagavassbekk" />
		<tag k="ssr:stedsnr" v="897408" />
	</node>
	<node lat="58.28720555159733" lon="6.93943332772765" id="-27640">
		<tag k="bridge" v="yes" />
		<tag k="layer" v="1" />
		<tag k="name" v="Stemtjønnbekk" />
		<tag k="ssr:stedsnr" v="957408" />
	</node>
	<node lat="58.62452777826559" lon="6.916763885749949" id="-27641">
		<tag k="bridge" v="yes" />
		<tag k="layer" v="1" />
		<tag k="name" v="Nestjønnbekk" />
		<tag k="ssr:stedsnr" v="957416" />
	</node>
	<node lat="58.26146944754949" lon="6.83836944348928" id="-27642">
		<tag k="bridge" v="yes" />
		<tag k="layer" v="1" />
		<tag k="name" v="Angholmen" />
		<tag k="ssr:stedsnr" v="957434" />
	</node>
	<node lat="58.261388177770776" lon="6.845303766736208" id="-27677">
		<tag k="bridge" v="yes" />
		<tag k="layer" v="1" />
		<tag k="name" v="Fedafjorden bru" />
		<tag k="ssr:stedsnr" v="977285" />
	</node>
	<node lat="58.34639166373082" lon="6.9625861046050455" id="-27714">
		<tag k="landuse" v="industrial" />
		<tag k="name" v="Trælandsfoss" />
		<tag k="power" v="plant" />
		<tag k="ssr:stedsnr" v="472" />
	</node>
	<node lat="58.375880556602425" lon="7.030702779297528" id="-27798">
		<tag k="ford" v="yes" />
		<tag k="name" v="Oddevaet" />
		<tag k="place" v="locality" />
		<tag k="ssr:stedsnr" v="31543" />
	</node>
	<node lat="58.43910277914364" lon="6.908897227997147" id="-27878">
		<tag k="highway" v="path" />
		<tag k="name" v="Kjørestien" />
		<tag k="ssr:stedsnr" v="35752" />
	</node>
	<node lat="58.53435833132066" lon="6.939763889482675" id="-27925">
		<tag k="bridge" v="yes" />
		<tag k="layer" v="1" />
		<tag k="name" v="Røynebu" />
		<tag k="ssr:stedsnr" v="47415" />
	</node>
	<node lat="58.38361110991348" lon="6.956644448580945" id="-27926">
		<tag k="bridge" v="yes" />
		<tag k="layer" v="1" />
		<tag k="name" v="Breimoen" />
		<tag k="ssr:stedsnr" v="47442" />
	</node>
=======
>>>>>>> e1d4bc35ff8a6074a6f2e91616a996b547c36f15
</osm>
