<?xml version="1.0" encoding="UTF-8"?>
<<<<<<< HEAD
<osm version="0.6" generator="osmapis">
	<node lat="58.26545833084541" lon="6.852413896497965" id="-25316">
		<tag k="name" v="Studeliodden" />
=======
<osm generator="osmapis" version="0.6">
	<node id="-579071" lat="58.253022226" lon="6.79143611472">
		<tag k="name" v="Sagebukta" />
		<tag k="natural" v="bay" />
		<tag k="ssr:stedsnr" v="160166" />
	</node>
	<node id="-579965" lat="58.2735888869" lon="6.89704722822">
		<tag k="name" v="Teinevika" />
		<tag k="natural" v="bay" />
		<tag k="ssr:stedsnr" v="524169" />
	</node>
	<node id="-579835" lat="58.2452027819" lon="6.78571943597">
		<tag k="name" v="Avern" />
		<tag k="natural" v="cape" />
		<tag k="ssr:stedsnr" v="517254" />
	</node>
	<node id="-583545" lat="58.2740500002" lon="6.8766361052">
		<tag k="alt_name" v="Leirvika" />
		<tag k="name" v="Lervika" />
		<tag k="natural" v="bay" />
		<tag k="ssr:stedsnr" v="607308" />
	</node>
	<node id="-579832" lat="58.2273333355" lon="6.76489443645">
		<tag k="name" v="Ytre Stuvik" />
		<tag k="natural" v="bay" />
		<tag k="ssr:stedsnr" v="517221" />
	</node>
	<node id="-579307" lat="58.2640305586" lon="6.84548054933">
		<tag k="name" v="Halmodden" />
		<tag k="natural" v="cape" />
		<tag k="ssr:stedsnr" v="457868" />
	</node>
	<node id="-579306" lat="58.2659638905" lon="6.85518332592">
		<tag k="name" v="Skarpnes" />
		<tag k="natural" v="cape" />
		<tag k="ssr:stedsnr" v="457864" />
	</node>
	<node id="-584041" lat="58.2722722262" lon="6.87613332699">
		<tag k="name" v="Litlevika" />
		<tag k="natural" v="bay" />
		<tag k="ssr:stedsnr" v="767182" />
	</node>
	<node id="-583524" lat="58.2603839293" lon="6.84051080939">
		<tag k="alt_name" v="Agnholmen" />
		<tag k="name" v="Angholmen" />
		<tag k="natural" v="cape" />
		<tag k="ssr:stedsnr" v="606295" />
	</node>
	<node id="-584159" lat="58.2623250038" lon="6.84370555618">
		<tag k="name" v="Naudenes" />
		<tag k="natural" v="cape" />
		<tag k="ssr:stedsnr" v="821916" />
	</node>
	<node id="-582878" lat="58.2709388877" lon="6.88736667267">
		<tag k="name" v="Guseneset" />
		<tag k="natural" v="cape" />
		<tag k="ssr:stedsnr" v="396945" />
	</node>
	<node id="-583901" lat="58.234927778" lon="6.75697500016">
		<tag k="name" v="Krågenes" />
		<tag k="natural" v="cape" />
		<tag k="ssr:stedsnr" v="760276" />
	</node>
	<node id="-584155" lat="58.2331583331" lon="6.74182499398">
		<tag k="name" v="Listranda" />
		<tag k="natural" v="bay" />
		<tag k="ssr:stedsnr" v="821249" />
	</node>
	<node id="-582874" lat="58.2667416649" lon="6.85831944574">
		<tag k="name" v="Kallevika" />
		<tag k="natural" v="bay" />
		<tag k="ssr:stedsnr" v="396859" />
	</node>
	<node id="-580052" lat="58.2587333315" lon="6.81432500778">
		<tag k="name" v="Nodevika" />
		<tag k="natural" v="bay" />
		<tag k="ssr:stedsnr" v="699900" />
	</node>
	<node id="-583379" lat="58.2732361142" lon="6.88718334164">
		<tag k="name" v="Laksemannen" />
		<tag k="natural" v="shoal" />
		<tag k="place" v="locality" />
		<tag k="ssr:stedsnr" v="578949" />
	</node>
	<node id="-583633" lat="58.2637527756" lon="6.86230833268">
		<tag k="fixme" v="consider seamark:type=rock or natural=shoal" />
		<tag k="name" v="Ongleskjæret" />
		<tag k="place" v="islet" />
		<tag k="ssr:stedsnr" v="638925" />
	</node>
	<node id="-581072" lat="58.2377416632" lon="6.7834722219">
		<tag k="fixme" v="consider seamark:type=rock or natural=shoal" />
		<tag k="name" v="Kjellingskjær" />
		<tag k="place" v="islet" />
		<tag k="ssr:stedsnr" v="942263" />
	</node>
	<node id="-579278" lat="58.2549638908" lon="6.83643889292">
		<tag k="name" v="Yderstø" />
		<tag k="natural" v="bay" />
		<tag k="ssr:stedsnr" v="456497" />
	</node>
	<node id="-581068" lat="58.2252583338" lon="6.73302778141">
		<tag k="name" v="Jonsnesodden" />
>>>>>>> e1d4bc35ff8a6074a6f2e91616a996b547c36f15
		<tag k="natural" v="cape" />
		<tag k="ssr:stedsnr" v="153899" />
	</node>
<<<<<<< HEAD
	<node lat="58.228927775689" lon="6.765402779906321" id="-25443">
		<tag k="name" v="Tangen" />
		<tag k="natural" v="cape" />
		<tag k="ssr:stedsnr" v="214231" />
	</node>
	<node lat="58.23486388848735" lon="6.774933340629668" id="-25444">
=======
	<node id="-583499" lat="58.2744055539" lon="6.8773194457">
		<tag k="name" v="Skotnesodden" />
		<tag k="natural" v="cape" />
		<tag k="ssr:stedsnr" v="585191" />
	</node>
	<node id="-580042" lat="58.2304083296" lon="6.73586666082">
		<tag k="name" v="Sveigenesstranda" />
		<tag k="natural" v="bay" />
		<tag k="ssr:stedsnr" v="699245" />
	</node>
	<node id="-582473" lat="58.2471916685" lon="6.78429444385">
		<tag k="name" v="Tråsevika" />
		<tag k="natural" v="bay" />
		<tag k="ssr:stedsnr" v="214254" />
	</node>
	<node id="-579784" lat="58.2490694441" lon="6.78721110865">
		<tag k="name" v="Haugelandstranda" />
		<tag k="natural" v="bay" />
		<tag k="ssr:stedsnr" v="516313" />
	</node>
	<node id="-582471" lat="58.2348638885" lon="6.77493334063">
>>>>>>> e1d4bc35ff8a6074a6f2e91616a996b547c36f15
		<tag k="name" v="Odden" />
		<tag k="natural" v="cape" />
		<tag k="ssr:stedsnr" v="214232" />
	</node>
<<<<<<< HEAD
	<node lat="58.252641664993945" lon="6.796822214406592" id="-25583">
		<tag k="name" v="Fornesodden" />
		<tag k="natural" v="cape" />
		<tag k="ssr:stedsnr" v="456301" />
	</node>
	<node lat="58.25496389077767" lon="6.836438892922293" id="-25600">
		<tag k="name" v="Yderstø" />
=======
	<node id="-580806" lat="58.2574388846" lon="6.8160000041">
		<tag k="name" v="Indre Binesodden" />
		<tag k="natural" v="cape" />
		<tag k="ssr:stedsnr" v="760908" />
	</node>
	<node id="-580803" lat="58.2651000027" lon="6.84664722745">
		<tag k="name" v="Hangelandsvika" />
		<tag k="natural" v="bay" />
		<tag k="ssr:stedsnr" v="760870" />
	</node>
	<node id="-582603" lat="58.2592944442" lon="6.83090000108">
		<tag k="name" v="Bremnes" />
		<tag k="natural" v="cape" />
		<tag k="ssr:stedsnr" v="335932" />
	</node>
	<node id="-578879" lat="58.2496000002" lon="6.81830278075">
		<tag k="name" v="Vertonodden" />
		<tag k="natural" v="cape" />
		<tag k="ssr:stedsnr" v="274339" />
	</node>
	<node id="-580917" lat="58.2564722252" lon="6.81503333316">
		<tag k="name" v="Bines" />
		<tag k="natural" v="cape" />
		<tag k="ssr:stedsnr" v="821270" />
	</node>
	<node id="-582879" lat="58.2766249963" lon="6.87788610453">
		<tag k="name" v="Indrevika" />
		<tag k="natural" v="bay" />
		<tag k="ssr:stedsnr" v="396962" />
	</node>
	<node id="-580535" lat="58.2701833328" lon="6.87197778023">
		<tag k="name" v="Diganes" />
		<tag k="natural" v="cape" />
		<tag k="ssr:stedsnr" v="882971" />
	</node>
	<node id="-580533" lat="58.2590805512" lon="6.84424721531">
		<tag k="name" v="Sundsodden" />
		<tag k="natural" v="cape" />
		<tag k="ssr:stedsnr" v="882897" />
	</node>
	<node id="-580531" lat="58.2604722214" lon="6.84860556037">
		<tag k="name" v="Teistedalsstranda" />
		<tag k="natural" v="beach" />
		<tag k="place" v="locality" />
		<tag k="ssr:stedsnr" v="882877" />
	</node>
	<node id="-580530" lat="58.269788888" lon="6.86065556392">
		<tag k="name" v="Breivika" />
>>>>>>> e1d4bc35ff8a6074a6f2e91616a996b547c36f15
		<tag k="natural" v="bay" />
		<tag k="ssr:stedsnr" v="456497" />
	</node>
<<<<<<< HEAD
	<node lat="58.26596389050997" lon="6.855183325917249" id="-25622">
		<tag k="name" v="Skarpnes" />
		<tag k="natural" v="cape" />
		<tag k="ssr:stedsnr" v="457864" />
	</node>
	<node lat="58.26403055864234" lon="6.845480549326855" id="-25623">
		<tag k="name" v="Halmodden" />
=======
	<node id="-581553" lat="58.2717888905" lon="6.87511665972">
		<tag k="name" v="Rallodden" />
		<tag k="natural" v="cape" />
		<tag k="ssr:stedsnr" v="31960" />
	</node>
	<node id="-580525" lat="58.2415527746" lon="6.79822499514">
		<tag k="name" v="Dalestranda" />
		<tag k="natural" v="bay" />
		<tag k="ssr:stedsnr" v="882239" />
	</node>
	<node id="-579882" lat="58.2726833357" lon="6.87651666911">
		<tag k="name" v="Leirvikodden" />
>>>>>>> e1d4bc35ff8a6074a6f2e91616a996b547c36f15
		<tag k="natural" v="cape" />
		<tag k="ssr:stedsnr" v="457868" />
	</node>
<<<<<<< HEAD
	<node lat="58.27669444825882" lon="6.883269448271912" id="-25863">
=======
	<node id="-579880" lat="58.2766944483" lon="6.88326944827">
>>>>>>> e1d4bc35ff8a6074a6f2e91616a996b547c36f15
		<tag k="name" v="Buodden" />
		<tag k="natural" v="cape" />
		<tag k="ssr:stedsnr" v="464219" />
	</node>
<<<<<<< HEAD
	<node lat="58.27268333569845" lon="6.876516669113722" id="-25865">
		<tag k="name" v="Leirvikodden" />
=======
	<node id="-579621" lat="58.2324027783" lon="6.76841667239">
		<tag k="name" v="Hunnerodden" />
		<tag k="natural" v="cape" />
		<tag k="ssr:stedsnr" v="335232" />
	</node>
	<node id="-582470" lat="58.2289277757" lon="6.76540277991">
		<tag k="name" v="Tangen" />
		<tag k="natural" v="cape" />
		<tag k="ssr:stedsnr" v="214231" />
	</node>
	<node id="-582173" lat="58.2654583308" lon="6.8524138965">
		<tag k="name" v="Studeliodden" />
>>>>>>> e1d4bc35ff8a6074a6f2e91616a996b547c36f15
		<tag k="natural" v="cape" />
		<tag k="ssr:stedsnr" v="464223" />
	</node>
<<<<<<< HEAD
	<node lat="58.21627221782128" lon="6.719330548800932" id="-26176">
=======
	<node id="-583068" lat="58.2162722178" lon="6.7193305488">
>>>>>>> e1d4bc35ff8a6074a6f2e91616a996b547c36f15
		<tag k="bay" v="fjord" />
		<tag k="name" v="Fedafjorden" />
		<tag k="natural" v="bay" />
		<tag k="ssr:stedsnr" v="425118" />
	</node>
<<<<<<< HEAD
	<node lat="58.273588886922305" lon="6.897047228221822" id="-26450">
		<tag k="name" v="Teinevika" />
=======
	<node id="-583060" lat="58.2551388869" lon="6.81540555685">
		<tag k="name" v="Binesflua" />
		<tag k="natural" v="shoal" />
		<tag k="place" v="locality" />
		<tag k="ssr:stedsnr" v="403186" />
	</node>
	<node id="-582163" lat="58.2298583292" lon="6.76766666983">
		<tag k="name" v="Indre Stuvik" />
>>>>>>> e1d4bc35ff8a6074a6f2e91616a996b547c36f15
		<tag k="natural" v="bay" />
		<tag k="ssr:stedsnr" v="524169" />
	</node>
<<<<<<< HEAD
	<node lat="58.27323611416667" lon="6.887183341644008" id="-26533">
		<tag k="name" v="Laksemannen" />
		<tag k="natural" v="shoal" />
		<tag k="place" v="locality" />
		<tag k="ssr:stedsnr" v="578949" />
	</node>
	<node lat="58.23040832960914" lon="6.735866660818397" id="-26684">
		<tag k="name" v="Sveigenesstranda" />
		<tag k="natural" v="bay" />
		<tag k="ssr:stedsnr" v="699245" />
	</node>
	<node lat="58.25873333151136" lon="6.814325007776363" id="-26715">
		<tag k="name" v="Nodevika" />
		<tag k="natural" v="bay" />
		<tag k="ssr:stedsnr" v="699900" />
	</node>
	<node lat="58.274050000180374" lon="6.87663610519794" id="-26716">
		<tag k="alt_name" v="Leirvika" />
		<tag k="name" v="Lervika" />
		<tag k="natural" v="bay" />
		<tag k="ssr:stedsnr" v="607308" />
	</node>
	<node lat="58.26375277559392" lon="6.862308332676792" id="-26878">
		<tag k="fixme" v="consider seamark:type=rock or natural=shoal" />
		<tag k="name" v="Ongleskjæret" />
		<tag k="place" v="islet" />
		<tag k="ssr:stedsnr" v="638925" />
	</node>
	<node lat="58.257438884568984" lon="6.816000004100481" id="-27184">
		<tag k="name" v="Indre Binesodden" />
		<tag k="natural" v="cape" />
		<tag k="ssr:stedsnr" v="760908" />
	</node>
	<node lat="58.256472225168125" lon="6.815033333159509" id="-27353">
		<tag k="name" v="Bines" />
		<tag k="natural" v="cape" />
		<tag k="ssr:stedsnr" v="821270" />
	</node>
	<node lat="58.26232500383715" lon="6.84370555618383" id="-27356">
		<tag k="name" v="Naudenes" />
		<tag k="natural" v="cape" />
		<tag k="ssr:stedsnr" v="821916" />
	</node>
	<node lat="58.25908055122182" lon="6.844247215306891" id="-27479">
		<tag k="name" v="Sundsodden" />
		<tag k="natural" v="cape" />
		<tag k="ssr:stedsnr" v="882897" />
	</node>
	<node lat="58.27178889048302" lon="6.875116659718854" id="-27805">
		<tag k="name" v="Rallodden" />
		<tag k="natural" v="cape" />
		<tag k="ssr:stedsnr" v="31960" />
	</node>
=======
	<node id="-579089" lat="58.2508611095" lon="6.79538888943">
		<tag k="name" v="Sageflua" />
		<tag k="natural" v="shoal" />
		<tag k="place" v="locality" />
		<tag k="ssr:stedsnr" v="282190" />
	</node>
	<node id="-579251" lat="58.252641665" lon="6.79682221441">
		<tag k="name" v="Fornesodden" />
		<tag k="natural" v="cape" />
		<tag k="ssr:stedsnr" v="456301" />
	</node>
	<node id="-579844" lat="58.252902776" lon="6.83251110405">
		<tag k="name" v="Kristjerodden" />
		<tag k="natural" v="cape" />
		<tag k="old_name" v="Krstjerodden" />
		<tag k="ssr:stedsnr" v="517494" />
	</node>
>>>>>>> e1d4bc35ff8a6074a6f2e91616a996b547c36f15
</osm>
