<?xml version="1.0" encoding="UTF-8"?>
<<<<<<< HEAD
<osm version="0.6" generator="osmapis">
	<node lat="58.24848610762933" lon="6.937658335139463" id="-24957">
		<tag k="name" v="Slåttemyra" />
		<tag k="natural" v="wetland" />
		<tag k="ssr:stedsnr" v="30006" />
	</node>
	<node lat="58.402661114790426" lon="6.943200003662872" id="-24959">
		<tag k="name" v="Slåta" />
		<tag k="place" v="locality" />
		<tag k="ssr:stedsnr" v="30167" />
	</node>
	<node lat="58.40283888533628" lon="6.95767500528192" id="-24961">
		<tag k="name" v="Dugan" />
		<tag k="place" v="locality" />
		<tag k="ssr:stedsnr" v="30178" />
	</node>
	<node lat="58.42715833291993" lon="6.909652782925837" id="-24965">
		<tag k="name" v="Elgsmyr" />
		<tag k="natural" v="wetland" />
		<tag k="ssr:stedsnr" v="30672" />
	</node>
	<node lat="58.32087499962847" lon="7.006030556892364" id="-24971">
		<tag k="name" v="Torvmyra" />
		<tag k="natural" v="wetland" />
		<tag k="ssr:stedsnr" v="31025" />
	</node>
	<node lat="58.3419638904644" lon="6.974411107379641" id="-24974">
		<tag k="name" v="Skoddemyr" />
		<tag k="natural" v="wetland" />
		<tag k="ssr:stedsnr" v="31327" />
	</node>
	<node lat="58.381897224751" lon="7.073263886040934" id="-24975">
		<tag k="name" v="Høna" />
		<tag k="natural" v="stone" />
		<tag k="ssr:stedsnr" v="31268" />
	</node>
	<node lat="58.31490555275724" lon="7.024927772030283" id="-24979">
		<tag k="name" v="Fuglemyra" />
		<tag k="natural" v="wetland" />
		<tag k="ssr:stedsnr" v="31702" />
	</node>
	<node lat="58.300366666094924" lon="6.969169451563559" id="-24980">
		<tag k="name" v="Langemyr" />
		<tag k="natural" v="wetland" />
		<tag k="ssr:stedsnr" v="31720" />
	</node>
	<node lat="58.23259167056159" lon="6.81070277341337" id="-24987">
		<tag k="name" v="Sævelandsmyra" />
		<tag k="natural" v="wetland" />
		<tag k="ssr:stedsnr" v="32334" />
	</node>
	<node lat="58.23653333446331" lon="6.8578749999194475" id="-24988">
		<tag k="name" v="Sletevollen" />
		<tag k="place" v="locality" />
		<tag k="ssr:stedsnr" v="32404" />
	</node>
	<node lat="58.46275555778042" lon="6.887850006414996" id="-25008">
		<tag k="name" v="Heieslåtten" />
		<tag k="natural" v="wetland" />
		<tag k="ssr:stedsnr" v="35507" />
	</node>
	<node lat="58.597330557057646" lon="6.926852781803485" id="-25015">
		<tag k="name" v="Sjustakkslåta" />
		<tag k="natural" v="wetland" />
		<tag k="ssr:stedsnr" v="35567" />
	</node>
	<node lat="58.48789721838189" lon="6.925494438588102" id="-25025">
		<tag k="name" v="Gaukesteinen" />
		<tag k="natural" v="stone" />
		<tag k="ssr:stedsnr" v="35767" />
	</node>
	<node lat="58.66451111057643" lon="7.010538889045563" id="-25036">
		<tag k="name" v="Langamyr" />
		<tag k="natural" v="wetland" />
		<tag k="ssr:stedsnr" v="36681" />
	</node>
	<node lat="58.37456666867418" lon="7.077152778939583" id="-25124">
		<tag k="name" v="Berstølmyra" />
		<tag k="natural" v="wetland" />
		<tag k="ssr:stedsnr" v="91306" />
	</node>
	<node lat="58.3893666702579" lon="7.08094999859077" id="-25125">
		<tag k="name" v="Myra" />
		<tag k="natural" v="wetland" />
		<tag k="ssr:stedsnr" v="91319" />
	</node>
	<node lat="58.28767778035829" lon="6.900408335334317" id="-25131">
		<tag k="name" v="Dugan" />
		<tag k="place" v="locality" />
		<tag k="ssr:stedsnr" v="92006" />
	</node>
	<node lat="58.22171110949599" lon="6.7935583380728355" id="-25138">
		<tag k="name" v="Myran" />
		<tag k="natural" v="wetland" />
		<tag k="ssr:stedsnr" v="92331" />
	</node>
	<node lat="58.310822225014135" lon="6.892294443649297" id="-25148">
		<tag k="name" v="Øvre Øygardsmyra" />
		<tag k="natural" v="wetland" />
		<tag k="ssr:stedsnr" v="92572" />
	</node>
	<node lat="58.24342777851206" lon="6.843591668508005" id="-25157">
		<tag k="name" v="Myran" />
		<tag k="natural" v="wetland" />
		<tag k="ssr:stedsnr" v="93409" />
	</node>
	<node lat="58.44589722554523" lon="7.052419441225377" id="-25175">
		<tag k="name" v="Såpemyra" />
		<tag k="natural" v="wetland" />
		<tag k="ssr:stedsnr" v="96231" />
	</node>
	<node lat="58.50159722017329" lon="7.001630554477724" id="-25176">
		<tag k="name" v="Øvre Limyra" />
		<tag k="natural" v="wetland" />
		<tag k="ssr:stedsnr" v="96261" />
	</node>
	<node lat="58.5562388875423" lon="6.859194437706286" id="-25178">
		<tag k="name" v="Drotneskjerret" />
		<tag k="natural" v="wetland" />
		<tag k="ssr:stedsnr" v="96279" />
	</node>
	<node lat="58.578930552801665" lon="6.892308341459194" id="-25203">
		<tag k="name" v="Storamyra" />
		<tag k="place" v="locality" />
		<tag k="ssr:stedsnr" v="96578" />
	</node>
	<node lat="58.66674444385147" lon="6.986455556192017" id="-25207">
		<tag k="name" v="Storehagen" />
		<tag k="place" v="locality" />
		<tag k="ssr:stedsnr" v="96765" />
	</node>
	<node lat="58.41481666903102" lon="6.973841671678227" id="-25258">
		<tag k="name" v="Trætingstykket" />
		<tag k="natural" v="wetland" />
		<tag k="ssr:stedsnr" v="152109" />
	</node>
	<node lat="58.297708330925424" lon="6.87378888643457" id="-25269">
		<tag k="name" v="Fænmyra" />
		<tag k="natural" v="wetland" />
		<tag k="ssr:stedsnr" v="152015" />
	</node>
	<node lat="58.28009166985519" lon="6.939944438826679" id="-25271">
		<tag k="name" v="Langemyra" />
		<tag k="natural" v="wetland" />
		<tag k="ssr:stedsnr" v="152023" />
	</node>
	<node lat="58.230819439888265" lon="6.898633326068868" id="-25277">
		<tag k="name" v="Sleten" />
		<tag k="natural" v="wetland" />
		<tag k="ssr:stedsnr" v="152411" />
	</node>
	<node lat="58.31763333466531" lon="6.891705548353213" id="-25296">
		<tag k="name" v="Steggjan" />
		<tag k="natural" v="wetland" />
		<tag k="ssr:stedsnr" v="152556" />
	</node>
	<node lat="58.42473333172415" lon="6.8891083303786065" id="-25300">
		<tag k="name" v="Lieslåtta" />
		<tag k="natural" v="wetland" />
		<tag k="ssr:stedsnr" v="152718" />
	</node>
	<node lat="58.30020832928447" lon="6.99234445257238" id="-25304">
		<tag k="name" v="Stølsmyra" />
		<tag k="natural" v="wetland" />
		<tag k="ssr:stedsnr" v="152760" />
	</node>
	<node lat="58.43180277672681" lon="6.879055561517107" id="-25328">
		<tag k="name" v="Åsestølen" />
		<tag k="natural" v="wetland" />
		<tag k="ssr:stedsnr" v="156251" />
	</node>
	<node lat="58.44528889007819" lon="6.922352785589902" id="-25344">
		<tag k="name" v="Kvæven" />
		<tag k="place" v="locality" />
		<tag k="ssr:stedsnr" v="156938" />
	</node>
	<node lat="58.65062499739246" lon="6.934863887830714" id="-25348">
		<tag k="name" v="Dyrstøl" />
		<tag k="natural" v="wetland" />
		<tag k="ssr:stedsnr" v="156816" />
	</node>
	<node lat="58.50386389288898" lon="7.003322223471997" id="-25354">
		<tag k="name" v="Kvekkjen" />
		<tag k="place" v="locality" />
		<tag k="ssr:stedsnr" v="157207" />
	</node>
	<node lat="58.67595833585207" lon="6.8852027709223655" id="-25355">
		<tag k="name" v="Væding" />
		<tag k="natural" v="wetland" />
		<tag k="ssr:stedsnr" v="157209" />
	</node>
	<node lat="58.505438890808385" lon="6.902891675062773" id="-25361">
		<tag k="name" v="Skuggebotn" />
		<tag k="natural" v="wetland" />
		<tag k="ssr:stedsnr" v="157109" />
	</node>
	<node lat="58.50674166666941" lon="6.847891671342064" id="-25376">
		<tag k="name" v="Rundehommen" />
		<tag k="natural" v="wetland" />
		<tag k="ssr:stedsnr" v="157782" />
	</node>
	<node lat="58.345511115286435" lon="6.985347226081009" id="-25406">
		<tag k="name" v="Torvmyra" />
		<tag k="natural" v="wetland" />
		<tag k="ssr:stedsnr" v="213107" />
	</node>
	<node lat="58.248727780972104" lon="6.955836105005018" id="-25412">
		<tag k="name" v="Lognevatnkartane" />
		<tag k="natural" v="wetland" />
		<tag k="ssr:stedsnr" v="213009" />
	</node>
	<node lat="58.35704166811673" lon="7.0622138971314" id="-25421">
		<tag k="name" v="Stedjan" />
		<tag k="natural" v="wetland" />
		<tag k="ssr:stedsnr" v="213295" />
	</node>
	<node lat="58.3433333372588" lon="7.0561888948352545" id="-25426">
		<tag k="name" v="Hillan" />
		<tag k="place" v="locality" />
		<tag k="ssr:stedsnr" v="213303" />
	</node>
	<node lat="58.30531944686655" lon="6.9365638947435935" id="-25434">
		<tag k="name" v="Stean" />
		<tag k="place" v="locality" />
		<tag k="ssr:stedsnr" v="213696" />
	</node>
	<node lat="58.28471666378317" lon="7.0929416704999015" id="-25439">
		<tag k="name" v="Hellermyra" />
		<tag k="natural" v="wetland" />
		<tag k="ssr:stedsnr" v="213785" />
	</node>
	<node lat="58.23600833292623" lon="6.859752776427718" id="-25448">
		<tag k="name" v="Kvednhusfeda" />
		<tag k="place" v="locality" />
		<tag k="ssr:stedsnr" v="214277" />
	</node>
	<node lat="58.27651666362377" lon="6.820944452192069" id="-25449">
		<tag k="name" v="Refstimonan" />
		<tag k="place" v="locality" />
		<tag k="ssr:stedsnr" v="214903" />
	</node>
	<node lat="58.440441667036225" lon="6.881533329634381" id="-25461">
		<tag k="name" v="Botnan" />
		<tag k="natural" v="wetland" />
		<tag k="ssr:stedsnr" v="217307" />
	</node>
	<node lat="58.56869999564089" lon="6.938636104132098" id="-25463">
		<tag k="name" v="Ulsjemyran" />
		<tag k="natural" v="wetland" />
		<tag k="ssr:stedsnr" v="217515" />
	</node>
	<node lat="58.43771944487128" lon="6.897188882093706" id="-25471">
		<tag k="name" v="Nylømyr" />
		<tag k="natural" v="wetland" />
		<tag k="ssr:stedsnr" v="217709" />
	</node>
	<node lat="58.43587500316389" lon="6.903119445602276" id="-25472">
		<tag k="name" v="Ytre Stølen" />
		<tag k="natural" v="wetland" />
		<tag k="ssr:stedsnr" v="217716" />
	</node>
	<node lat="58.433147225902644" lon="6.901477778077897" id="-25473">
		<tag k="name" v="Brekkemyr" />
		<tag k="natural" v="wetland" />
		<tag k="ssr:stedsnr" v="217721" />
	</node>
	<node lat="58.48322221968051" lon="7.008405553575486" id="-25498">
		<tag k="name" v="Skiljemyr" />
		<tag k="place" v="locality" />
		<tag k="ssr:stedsnr" v="218496" />
	</node>
	<node lat="58.487783329627575" lon="6.977838894196546" id="-25504">
		<tag k="name" v="Kjørformyre" />
		<tag k="natural" v="wetland" />
		<tag k="ssr:stedsnr" v="218585" />
	</node>
	<node lat="58.664963892667714" lon="7.027902769669433" id="-25506">
		<tag k="name" v="Hjelmeslåta" />
		<tag k="natural" v="wetland" />
		<tag k="ssr:stedsnr" v="218703" />
	</node>
	<node lat="58.4988555559769" lon="7.017852783741925" id="-25512">
		<tag k="name" v="Budalsheimyra" />
		<tag k="natural" v="wetland" />
		<tag k="ssr:stedsnr" v="218893" />
	</node>
	<node lat="58.42408055195849" lon="7.073847224198716" id="-25543">
=======
<osm generator="osmapis" version="0.6">
	<node id="-581627" lat="58.4627555578" lon="6.88785000641">
		<tag k="name" v="Heieslåtten" />
		<tag k="natural" v="wetland" />
		<tag k="ssr:stedsnr" v="35507" />
	</node>
	<node id="-583674" lat="58.4547750042" lon="6.93500555702">
		<tag k="name" v="Greimedalsmyran" />
		<tag k="natural" v="wetland" />
		<tag k="ssr:stedsnr" v="641375" />
	</node>
	<node id="-579241" lat="58.3870166658" lon="6.92177776943">
		<tag k="name" v="Stakksteinsmyra" />
		<tag k="natural" v="wetland" />
		<tag k="ssr:stedsnr" v="455697" />
	</node>
	<node id="-583645" lat="58.5330444418" lon="7.03423889566">
		<tag k="name" v="Røyrmyra" />
		<tag k="natural" v="wetland" />
		<tag k="ssr:stedsnr" v="641067" />
	</node>
	<node id="-579546" lat="58.6887611094" lon="7.02728889655">
		<tag k="name" v="Haluskjerret" />
		<tag k="natural" v="wetland" />
		<tag k="ssr:stedsnr" v="461040" />
	</node>
	<node id="-579543" lat="58.6254499977" lon="6.97707499929">
		<tag k="name" v="Øygarden" />
		<tag k="natural" v="wetland" />
		<tag k="ssr:stedsnr" v="460994" />
	</node>
	<node id="-583636" lat="58.2644201328" lon="6.91079677905">
		<tag k="name" v="Dyrlimyra" />
		<tag k="natural" v="wetland" />
		<tag k="ssr:stedsnr" v="639000" />
	</node>
	<node id="-583635" lat="58.2655277769" lon="6.88816111257">
		<tag k="name" v="Skålekjerra" />
		<tag k="natural" v="wetland" />
		<tag k="ssr:stedsnr" v="638976" />
	</node>
	<node id="-581585" lat="58.5896277743" lon="6.98946110549">
		<tag k="name" v="Øygardslåta" />
		<tag k="natural" v="wetland" />
		<tag k="ssr:stedsnr" v="35100" />
	</node>
	<node id="-579526" lat="58.4309861067" lon="6.97886943827">
		<tag k="name" v="Stedjan" />
		<tag k="natural" v="wetland" />
		<tag k="ssr:stedsnr" v="460898" />
	</node>
	<node id="-583615" lat="58.309316664" lon="7.04424167225">
		<tag k="name" v="Espelandsmyra" />
		<tag k="natural" v="wetland" />
		<tag k="ssr:stedsnr" v="637727" />
	</node>
	<node id="-579518" lat="58.675138891" lon="6.93686111647">
		<tag k="name" v="Korsmyr" />
		<tag k="natural" v="wetland" />
		<tag k="ssr:stedsnr" v="460809" />
	</node>
	<node id="-581565" lat="58.2365333345" lon="6.85787499992">
		<tag k="name" v="Sletevollen" />
		<tag k="place" v="locality" />
		<tag k="ssr:stedsnr" v="32404" />
	</node>
	<node id="-581564" lat="58.2325916706" lon="6.81070277341">
		<tag k="name" v="Sævelandsmyra" />
		<tag k="natural" v="wetland" />
		<tag k="ssr:stedsnr" v="32334" />
	</node>
	<node id="-583611" lat="58.318752779" lon="7.02897500687">
		<tag k="name" v="Langemyra" />
		<tag k="natural" v="wetland" />
		<tag k="ssr:stedsnr" v="637696" />
	</node>
	<node id="-581558" lat="58.2516944488" lon="7.04495277751">
		<tag k="name" v="Feda" />
		<tag k="natural" v="wetland" />
		<tag k="ssr:stedsnr" v="32179" />
	</node>
	<node id="-581556" lat="58.2701750013" lon="7.04575832826">
		<tag k="name" v="Stølsbumyra" />
		<tag k="natural" v="wetland" />
		<tag k="ssr:stedsnr" v="32134" />
	</node>
	<node id="-579506" lat="58.5537333298" lon="6.9174055617">
		<tag k="name" v="Salvesmyr" />
		<tag k="natural" v="wetland" />
		<tag k="ssr:stedsnr" v="460716" />
	</node>
	<node id="-583600" lat="58.3560305581" lon="6.97573333707">
		<tag k="name" v="Kringlemyr" />
		<tag k="natural" v="wetland" />
		<tag k="ssr:stedsnr" v="637554" />
	</node>
	<node id="-581550" lat="58.4024083368" lon="6.91167221476">
		<tag k="name" v="Bulimyra" />
		<tag k="natural" v="wetland" />
		<tag k="ssr:stedsnr" v="31746" />
	</node>
	<node id="-581548" lat="58.3003666661" lon="6.96916945156">
		<tag k="name" v="Langemyr" />
		<tag k="natural" v="wetland" />
		<tag k="ssr:stedsnr" v="31720" />
	</node>
	<node id="-581547" lat="58.3149055528" lon="7.02492777203">
		<tag k="name" v="Fuglemyra" />
		<tag k="natural" v="wetland" />
		<tag k="ssr:stedsnr" v="31702" />
	</node>
	<node id="-583590" lat="58.2236972223" lon="6.76938332846">
		<tag k="name" v="Halvvegsmyra" />
		<tag k="natural" v="wetland" />
		<tag k="ssr:stedsnr" v="637426" />
	</node>
	<node id="-581538" lat="58.3243111075" lon="6.91751389729">
		<tag k="name" v="Laubermyra" />
		<tag k="natural" v="wetland" />
		<tag k="ssr:stedsnr" v="31493" />
	</node>
	<node id="-583583" lat="58.2255472244" lon="6.90568888429">
		<tag k="name" v="Kartemyr" />
		<tag k="natural" v="wetland" />
		<tag k="ssr:stedsnr" v="637534" />
	</node>
	<node id="-583580" lat="58.2528416664" lon="6.85994722881">
		<tag k="name" v="Gusemyr" />
		<tag k="natural" v="wetland" />
		<tag k="ssr:stedsnr" v="637522" />
	</node>
	<node id="-581527" lat="58.3419638905" lon="6.97441110738">
		<tag k="name" v="Skoddemyr" />
		<tag k="natural" v="wetland" />
		<tag k="ssr:stedsnr" v="31327" />
	</node>
	<node id="-581523" lat="58.3818972248" lon="7.07326388604">
		<tag k="name" v="Høna" />
		<tag k="natural" v="stone" />
		<tag k="ssr:stedsnr" v="31268" />
	</node>
	<node id="-583570" lat="58.4120083378" lon="7.04603889489">
		<tag k="name" v="Lelauskjerra" />
		<tag k="natural" v="wetland" />
		<tag k="ssr:stedsnr" v="637373" />
	</node>
	<node id="-579473" lat="58.4523333374" lon="6.9693055583">
		<tag k="name" v="Dyblan" />
		<tag k="natural" v="wetland" />
		<tag k="ssr:stedsnr" v="460500" />
	</node>
	<node id="-583563" lat="58.4035666701" lon="7.06567777476">
		<tag k="name" v="Fiddemyr" />
		<tag k="natural" v="wetland" />
		<tag k="ssr:stedsnr" v="637236" />
	</node>
	<node id="-581513" lat="58.3208749996" lon="7.00603055689">
		<tag k="name" v="Torvmyra" />
		<tag k="natural" v="wetland" />
		<tag k="ssr:stedsnr" v="31025" />
	</node>
	<node id="-583554" lat="58.3413055554" lon="6.98842778602">
		<tag k="name" v="Gulingsmyr" />
		<tag k="natural" v="wetland" />
		<tag k="ssr:stedsnr" v="637099" />
	</node>
	<node id="-581496" lat="58.3589638862" lon="7.00797777637">
		<tag k="name" v="Brokkåsmyra" />
		<tag k="natural" v="wetland" />
		<tag k="ssr:stedsnr" v="30357" />
	</node>
	<node id="-581482" lat="58.2484861076" lon="6.93765833514">
		<tag k="name" v="Slåttemyra" />
		<tag k="natural" v="wetland" />
		<tag k="ssr:stedsnr" v="30006" />
	</node>
	<node id="-581480" lat="58.4028388853" lon="6.95767500528">
		<tag k="name" v="Dugan" />
		<tag k="place" v="locality" />
		<tag k="ssr:stedsnr" v="30178" />
	</node>
	<node id="-581478" lat="58.4026611148" lon="6.94320000366">
		<tag k="name" v="Slåta" />
		<tag k="place" v="locality" />
		<tag k="ssr:stedsnr" v="30167" />
	</node>
	<node id="-581466" lat="58.3108083325" lon="7.02162778129">
		<tag k="alt_name" v="Espelandsmyra" />
		<tag k="name" v="Lensmannsmyra" />
		<tag k="natural" v="wetland" />
		<tag k="ssr:stedsnr" v="541" />
	</node>
	<node id="-581263" lat="58.4909944402" lon="7.08216111645">
		<tag k="name" v="Drengsmyran" />
		<tag k="natural" v="wetland" />
		<tag k="ssr:stedsnr" v="885424" />
	</node>
	<node id="-581456" lat="58.4981583356" lon="7.0421361155">
		<tag k="alt_name" v="Stedjan" />
		<tag k="name" v="Steggjan" />
		<tag k="place" v="locality" />
		<tag k="ssr:stedsnr" v="330" />
	</node>
	<node id="-583495" lat="58.5964527745" lon="6.87633611439">
		<tag k="name" v="Divlemyran" />
		<tag k="natural" v="wetland" />
		<tag k="ssr:stedsnr" v="582825" />
	</node>
	<node id="-583494" lat="58.657566667" lon="6.86186943844">
		<tag k="name" v="Fantur" />
		<tag k="natural" v="scree" />
		<tag k="ssr:stedsnr" v="582597" />
	</node>
	<node id="-579382" lat="58.4463611113" lon="7.05626945266">
		<tag k="name" v="Åkrokan" />
		<tag k="natural" v="wetland" />
		<tag k="ssr:stedsnr" v="278214" />
	</node>
	<node id="-581413" lat="58.3443787501" lon="6.94656326065">
		<tag k="name" v="Tjellås" />
		<tag k="place" v="locality" />
		<tag k="ssr:stedsnr" v="979830" />
	</node>
	<node id="-579363" lat="58.2715416668" lon="6.90624444125">
		<tag k="name" v="Ørnemyra" />
		<tag k="natural" v="wetland" />
		<tag k="ssr:stedsnr" v="274919" />
	</node>
	<node id="-581409" lat="58.3323042604" lon="6.91920239246">
		<tag k="name" v="Knarvestøl" />
		<tag k="place" v="locality" />
		<tag k="ssr:stedsnr" v="979826" />
	</node>
	<node id="-579358" lat="58.3226416654" lon="6.88342777813">
		<tag k="name" v="Steige" />
		<tag k="natural" v="wetland" />
		<tag k="ssr:stedsnr" v="274460" />
	</node>
	<node id="-579356" lat="58.370758332" lon="7.07492500706">
		<tag k="name" v="Kringlemyr" />
		<tag k="natural" v="wetland" />
		<tag k="ssr:stedsnr" v="274408" />
	</node>
	<node id="-579355" lat="58.3011027762" lon="6.77998055022">
		<tag k="name" v="Rolsheijorde" />
		<tag k="natural" v="wetland" />
		<tag k="ssr:stedsnr" v="274368" />
	</node>
	<node id="-583450" lat="58.5864250006" lon="7.06281110996">
		<tag k="name" v="Vassgras-slåtå" />
		<tag k="natural" v="wetland" />
		<tag k="ssr:stedsnr" v="581620" />
	</node>
	<node id="-579204" lat="58.424080552" lon="7.0738472242">
>>>>>>> e1d4bc35ff8a6074a6f2e91616a996b547c36f15
		<tag k="name" v="Heddansmyra" />
		<tag k="natural" v="wetland" />
		<tag k="ssr:stedsnr" v="455271" />
	</node>
<<<<<<< HEAD
	<node lat="58.404855553161404" lon="6.9569222276230365" id="-25549">
		<tag k="name" v="Sauehagen" />
		<tag k="natural" v="wetland" />
		<tag k="ssr:stedsnr" v="455174" />
	</node>
	<node lat="58.40875833771457" lon="7.02384444806895" id="-25555">
		<tag k="name" v="Kindvaskjerra" />
		<tag k="natural" v="wetland" />
		<tag k="ssr:stedsnr" v="455037" />
	</node>
	<node lat="58.387016665832725" lon="6.921777769431185" id="-25574">
		<tag k="name" v="Stakksteinsmyra" />
		<tag k="natural" v="wetland" />
		<tag k="ssr:stedsnr" v="455697" />
	</node>
	<node lat="58.3535833341101" lon="7.102527774261092" id="-25613">
		<tag k="name" v="Torborslåten" />
		<tag k="natural" v="wetland" />
		<tag k="ssr:stedsnr" v="456920" />
	</node>
	<node lat="58.338327776629725" lon="6.997502771765856" id="-25630">
		<tag k="name" v="Påskemyra" />
		<tag k="natural" v="wetland" />
		<tag k="ssr:stedsnr" v="273090" />
	</node>
	<node lat="58.35303333131647" lon="6.952886117277402" id="-25640">
		<tag k="name" v="Mørke kjerret" />
		<tag k="natural" v="wetland" />
		<tag k="ssr:stedsnr" v="273483" />
	</node>
	<node lat="58.23822500028574" lon="6.93760832800586" id="-25651">
		<tag k="name" v="Stegjan" />
		<tag k="natural" v="wetland" />
		<tag k="ssr:stedsnr" v="274025" />
	</node>
	<node lat="58.33115555961578" lon="6.948661114985176" id="-25662">
		<tag k="name" v="Hestesteinen" />
		<tag k="natural" v="stone" />
		<tag k="ssr:stedsnr" v="274309" />
	</node>
	<node lat="58.37075833202963" lon="7.074925007057529" id="-25664">
		<tag k="name" v="Kringlemyr" />
		<tag k="natural" v="wetland" />
		<tag k="ssr:stedsnr" v="274408" />
	</node>
	<node lat="58.25705555358946" lon="6.8664833366136255" id="-25672">
		<tag k="name" v="Dyttemyra" />
		<tag k="natural" v="wetland" />
		<tag k="ssr:stedsnr" v="274883" />
	</node>
	<node lat="58.27154166680073" lon="6.906244441247032" id="-25676">
		<tag k="name" v="Ørnemyra" />
		<tag k="natural" v="wetland" />
		<tag k="ssr:stedsnr" v="274919" />
	</node>
	<node lat="58.24045833244379" lon="7.042152776761464" id="-25682">
		<tag k="name" v="Flatan" />
		<tag k="place" v="locality" />
		<tag k="ssr:stedsnr" v="275210" />
	</node>
	<node lat="58.44636111128793" lon="7.056269452661781" id="-25699">
		<tag k="name" v="Åkrokan" />
		<tag k="natural" v="wetland" />
		<tag k="ssr:stedsnr" v="278214" />
	</node>
	<node lat="58.71136388713514" lon="6.986800005972709" id="-25713">
		<tag k="name" v="Skinnarmyre" />
		<tag k="natural" v="wetland" />
		<tag k="ssr:stedsnr" v="278389" />
	</node>
	<node lat="58.47157499812031" lon="6.879147218749337" id="-25718">
		<tag k="name" v="Valbrodsmyra" />
		<tag k="natural" v="wetland" />
		<tag k="ssr:stedsnr" v="278422" />
	</node>
	<node lat="58.43057221908263" lon="7.0336361032273285" id="-25719">
		<tag k="name" v="Stoilan" />
		<tag k="natural" v="wetland" />
		<tag k="ssr:stedsnr" v="278474" />
	</node>
	<node lat="58.458050001138766" lon="6.893819450704268" id="-25729">
		<tag k="name" v="Karislåtten" />
=======
	<node id="-579350" lat="58.3311555596" lon="6.94866111499">
		<tag k="name" v="Hestesteinen" />
		<tag k="natural" v="stone" />
		<tag k="ssr:stedsnr" v="274309" />
	</node>
	<node id="-583444" lat="58.5386666676" lon="6.82756111464">
		<tag k="name" v="Fossmyra" />
		<tag k="natural" v="wetland" />
		<tag k="ssr:stedsnr" v="581711" />
	</node>
	<node id="-579341" lat="58.2382250003" lon="6.93760832801">
		<tag k="name" v="Stegjan" />
		<tag k="natural" v="wetland" />
		<tag k="ssr:stedsnr" v="274025" />
	</node>
	<node id="-581381" lat="58.2903809099" lon="6.77642847503">
		<tag k="name" v="Løgen" />
		<tag k="place" v="locality" />
		<tag k="ssr:stedsnr" v="979667" />
	</node>
	<node id="-581931" lat="58.5789305528" lon="6.89230834146">
		<tag k="name" v="Storamyra" />
		<tag k="place" v="locality" />
		<tag k="ssr:stedsnr" v="96578" />
	</node>
	<node id="-583419" lat="58.4463222227" lon="7.05904166267">
		<tag k="name" v="Triltemonen" />
		<tag k="natural" v="wetland" />
		<tag k="ssr:stedsnr" v="581222" />
	</node>
	<node id="-583418" lat="58.4358027753" lon="7.05506110469">
		<tag k="name" v="Kjørkja i Kvean" />
		<tag k="natural" v="stone" />
		<tag k="ssr:stedsnr" v="581216" />
	</node>
	<node id="-579319" lat="58.3565416682" lon="6.99945556083">
		<tag k="name" v="Stormyr" />
		<tag k="natural" v="wetland" />
		<tag k="ssr:stedsnr" v="273355" />
	</node>
	<node id="-583411" lat="58.5000833365" lon="6.92617500587">
		<tag k="name" v="Lauhom" />
		<tag k="natural" v="wetland" />
		<tag k="ssr:stedsnr" v="581175" />
	</node>
	<node id="-579539" lat="58.443522221" lon="6.88554444808">
		<tag k="name" v="Lavåsmyran" />
		<tag k="natural" v="wetland" />
		<tag k="ssr:stedsnr" v="460964" />
	</node>
	<node id="-579310" lat="58.2639527818" lon="6.83009445146">
		<tag k="name" v="Orresteinen" />
		<tag k="natural" v="stone" />
		<tag k="ssr:stedsnr" v="457910" />
	</node>
	<node id="-579309" lat="58.2575750027" lon="6.85959443821">
		<tag k="name" v="Storamyra" />
		<tag k="natural" v="wetland" />
		<tag k="ssr:stedsnr" v="457907" />
	</node>
	<node id="-581351" lat="58.5315611105" lon="6.84014167069">
		<tag k="name" v="Kjørkjemyran" />
		<tag k="natural" v="wetland" />
		<tag k="ssr:stedsnr" v="946765" />
	</node>
	<node id="-583398" lat="58.5581944432" lon="6.85511666433">
		<tag k="name" v="Stora myra" />
		<tag k="natural" v="wetland" />
		<tag k="ssr:stedsnr" v="581298" />
	</node>
	<node id="-581344" lat="58.5105361155" lon="6.98845556219">
		<tag k="name" v="Ålbormyra" />
		<tag k="natural" v="wetland" />
		<tag k="ssr:stedsnr" v="946840" />
	</node>
	<node id="-582608" lat="58.2688861088" lon="6.89505556107">
		<tag k="name" v="Risbruna" />
		<tag k="natural" v="wetland" />
		<tag k="ssr:stedsnr" v="335989" />
	</node>
	<node id="-579293" lat="58.3535833341" lon="7.10252777426">
		<tag k="name" v="Torborslåten" />
		<tag k="natural" v="wetland" />
		<tag k="ssr:stedsnr" v="456920" />
	</node>
	<node id="-583380" lat="58.2588611092" lon="6.90372777963">
		<tag k="name" v="Torva" />
		<tag k="natural" v="wetland" />
		<tag k="ssr:stedsnr" v="578964" />
	</node>
	<node id="-581328" lat="58.2681999984" lon="7.04590555171">
		<tag k="name" v="Stemmyra" />
		<tag k="natural" v="wetland" />
		<tag k="ssr:stedsnr" v="942122" />
	</node>
	<node id="-581324" lat="58.3743444422" lon="7.05409167304">
		<tag k="name" v="Øyemyra" />
		<tag k="natural" v="wetland" />
		<tag k="ssr:stedsnr" v="941277" />
	</node>
	<node id="-581315" lat="58.5566555539" lon="6.84427499335">
		<tag k="name" v="Digremyra" />
		<tag k="natural" v="wetland" />
		<tag k="ssr:stedsnr" v="217258" />
	</node>
	<node id="-581313" lat="58.5538722248" lon="6.87021944355">
		<tag k="name" v="Torvmyra" />
		<tag k="natural" v="wetland" />
		<tag k="ssr:stedsnr" v="217255" />
	</node>
	<node id="-579264" lat="58.4170055547" lon="6.95778055915">
		<tag k="name" v="Tengstjønnmyra" />
		<tag k="natural" v="wetland" />
		<tag k="ssr:stedsnr" v="456416" />
	</node>
	<node id="-579261" lat="58.301763888" lon="6.86574723046">
		<tag k="name" v="Troåsmyra" />
		<tag k="natural" v="wetland" />
		<tag k="ssr:stedsnr" v="456377" />
	</node>
	<node id="-583356" lat="58.2222861145" lon="6.88679166737">
		<tag k="name" v="Djupemyr" />
		<tag k="natural" v="wetland" />
		<tag k="ssr:stedsnr" v="577493" />
	</node>
	<node id="-583351" lat="58.4198861079" lon="6.95549166597">
		<tag k="name" v="Vottemyr" />
		<tag k="natural" v="wetland" />
		<tag k="ssr:stedsnr" v="577462" />
	</node>
	<node id="-583348" lat="58.2837666696" lon="6.89730000269">
		<tag k="name" v="Hagan" />
		<tag k="place" v="locality" />
		<tag k="ssr:stedsnr" v="577127" />
	</node>
	<node id="-583347" lat="58.2971750033" lon="6.86733055566">
		<tag k="name" v="Dyblan" />
		<tag k="natural" v="wetland" />
		<tag k="ssr:stedsnr" v="577119" />
	</node>
	<node id="-579244" lat="58.238141671" lon="6.94812777024">
		<tag k="name" v="Ytre Myran" />
		<tag k="natural" v="wetland" />
		<tag k="ssr:stedsnr" v="456031" />
	</node>
	<node id="-583337" lat="58.3294444436" lon="7.05825277259">
		<tag k="name" v="Langemyr" />
		<tag k="natural" v="wetland" />
		<tag k="ssr:stedsnr" v="577110" />
	</node>
	<node id="-581280" lat="58.6013277801" lon="6.93041111216">
		<tag k="name" v="Stølsmyra" />
		<tag k="natural" v="wetland" />
		<tag k="ssr:stedsnr" v="885926" />
	</node>
	<node id="-579232" lat="58.376441669" lon="6.97429721697">
		<tag k="name" v="Koven" />
		<tag k="place" v="locality" />
		<tag k="ssr:stedsnr" v="455579" />
	</node>
	<node id="-579222" lat="58.3904333309" lon="6.9760638832">
		<tag k="name" v="Storemyr" />
		<tag k="natural" v="wetland" />
		<tag k="ssr:stedsnr" v="455204" />
	</node>
	<node id="-579221" lat="58.3955888856" lon="6.96966667131">
		<tag k="name" v="Pantestykket" />
		<tag k="place" v="locality" />
		<tag k="ssr:stedsnr" v="455202" />
	</node>
	<node id="-579215" lat="58.4048555532" lon="6.95692222762">
		<tag k="name" v="Sauehagen" />
		<tag k="natural" v="wetland" />
		<tag k="ssr:stedsnr" v="455174" />
	</node>
	<node id="-583310" lat="58.3873527759" lon="7.06894166385">
		<tag k="name" v="Dugeslåtten" />
		<tag k="place" v="locality" />
		<tag k="ssr:stedsnr" v="576291" />
	</node>
	<node id="-583306" lat="58.3933694416" lon="7.05765555539">
		<tag k="name" v="Brendemyran" />
		<tag k="natural" v="wetland" />
		<tag k="ssr:stedsnr" v="576246" />
	</node>
	<node id="-583301" lat="58.3462138878" lon="7.0565250048">
		<tag k="name" v="Stedjekarten" />
		<tag k="natural" v="wetland" />
		<tag k="ssr:stedsnr" v="576283" />
	</node>
	<node id="-583300" lat="58.424772222" lon="6.95506945139">
		<tag k="name" v="Kvævemyr" />
		<tag k="natural" v="wetland" />
		<tag k="ssr:stedsnr" v="576050" />
	</node>
	<node id="-581248" lat="58.7036583332" lon="6.98952777962">
		<tag k="name" v="Diblemyr" />
		<tag k="natural" v="wetland" />
		<tag k="ssr:stedsnr" v="885357" />
	</node>
	<node id="-581241" lat="58.5303694449" lon="6.96994444213">
		<tag k="name" v="Øykjekjerret" />
		<tag k="natural" v="wetland" />
		<tag k="ssr:stedsnr" v="885025" />
	</node>
	<node id="-581231" lat="58.2936888913" lon="7.05763332788">
		<tag k="name" v="Ørnesteinen" />
		<tag k="natural" v="stone" />
		<tag k="ssr:stedsnr" v="881953" />
	</node>
	<node id="-583612" lat="58.4057638928" lon="7.08414721581">
		<tag k="name" v="Deildemyr" />
		<tag k="natural" v="wetland" />
		<tag k="ssr:stedsnr" v="637702" />
	</node>
	<node id="-579168" lat="58.6649638927" lon="7.02790276967">
		<tag k="name" v="Hjelmeslåta" />
		<tag k="natural" v="wetland" />
		<tag k="ssr:stedsnr" v="218703" />
	</node>
	<node id="-579153" lat="58.4377194449" lon="6.89718888209">
		<tag k="name" v="Nylømyr" />
		<tag k="natural" v="wetland" />
		<tag k="ssr:stedsnr" v="217709" />
	</node>
	<node id="-579151" lat="58.5686999956" lon="6.93863610413">
		<tag k="name" v="Ulsjemyran" />
		<tag k="natural" v="wetland" />
		<tag k="ssr:stedsnr" v="217515" />
	</node>
	<node id="-582990" lat="58.553927777" lon="6.91124166149">
		<tag k="name" v="Kvenåsmyra" />
		<tag k="natural" v="wetland" />
		<tag k="ssr:stedsnr" v="399670" />
	</node>
	<node id="-579143" lat="58.440441667" lon="6.88153332963">
		<tag k="name" v="Botnan" />
		<tag k="natural" v="wetland" />
		<tag k="ssr:stedsnr" v="217307" />
	</node>
	<node id="-579135" lat="58.2765166636" lon="6.82094445219">
		<tag k="name" v="Refstimonan" />
		<tag k="place" v="locality" />
		<tag k="ssr:stedsnr" v="214903" />
	</node>
	<node id="-583230" lat="58.4771416643" lon="6.96928055371">
		<tag k="name" v="Vedde" />
		<tag k="natural" v="wetland" />
		<tag k="ssr:stedsnr" v="521882" />
	</node>
	<node id="-579131" lat="58.3453722217" lon="7.10648611281">
		<tag k="name" v="Svomyra" />
		<tag k="natural" v="wetland" />
		<tag k="ssr:stedsnr" v="213934" />
	</node>
	<node id="-583220" lat="58.4782250002" lon="6.91111389633">
		<tag k="name" v="Skarmyr" />
		<tag k="natural" v="wetland" />
		<tag k="ssr:stedsnr" v="521767" />
	</node>
	<node id="-581171" lat="58.4614666637" lon="7.02051389053">
		<tag k="name" v="Monen" />
		<tag k="place" v="locality" />
		<tag k="ssr:stedsnr" v="946371" />
	</node>
	<node id="-581896" lat="58.2434277785" lon="6.84359166851">
		<tag k="name" v="Myran" />
		<tag k="natural" v="wetland" />
		<tag k="ssr:stedsnr" v="93409" />
	</node>
	<node id="-579117" lat="58.3433333373" lon="7.05618889484">
		<tag k="name" v="Hillan" />
		<tag k="place" v="locality" />
		<tag k="ssr:stedsnr" v="213303" />
	</node>
	<node id="-579109" lat="58.2456944486" lon="6.93745277918">
		<tag k="name" v="Henriksmyra" />
		<tag k="natural" v="wetland" />
		<tag k="ssr:stedsnr" v="213021" />
	</node>
	<node id="-579106" lat="58.248727781" lon="6.95583610501">
		<tag k="name" v="Lognevatnkartane" />
		<tag k="natural" v="wetland" />
		<tag k="ssr:stedsnr" v="213009" />
	</node>
	<node id="-579097" lat="58.7029805566" lon="7.08696943885">
		<tag k="landuse" v="quarry" />
		<tag k="name" v="Kvina gruver" />
		<tag k="ssr:stedsnr" v="183266" />
	</node>
	<node id="-583188" lat="58.4509749964" lon="6.9114305504">
		<tag k="name" v="Brosemyr" />
		<tag k="natural" v="wetland" />
		<tag k="ssr:stedsnr" v="521428" />
	</node>
	<node id="-581139" lat="58.6748111134" lon="6.94774722015">
		<tag k="name" v="Drikkesteinen" />
		<tag k="natural" v="stone" />
		<tag k="ssr:stedsnr" v="945738" />
	</node>
	<node id="-581138" lat="58.667888888" lon="6.98450278377">
		<tag k="name" v="Bergegrå" />
		<tag k="place" v="locality" />
		<tag k="ssr:stedsnr" v="945728" />
	</node>
	<node id="-583184" lat="58.6928833325" lon="6.94393332741">
		<tag k="name" v="Ågreslåttå" />
		<tag k="natural" v="wetland" />
		<tag k="ssr:stedsnr" v="521352" />
	</node>
	<node id="-581134" lat="58.440180557" lon="6.91031111132">
		<tag k="name" v="Lyngbakkmyr" />
		<tag k="natural" v="wetland" />
		<tag k="ssr:stedsnr" v="945666" />
	</node>
	<node id="-581130" lat="58.4882250018" lon="6.96226388436">
		<tag k="name" v="Tranland" />
		<tag k="place" v="locality" />
		<tag k="ssr:stedsnr" v="945495" />
	</node>
	<node id="-581129" lat="58.530208337" lon="7.05857222351">
		<tag k="name" v="Sauedrajet" />
		<tag k="natural" v="wetland" />
		<tag k="ssr:stedsnr" v="945486" />
	</node>
	<node id="-583170" lat="58.5065194402" lon="6.93429444743">
		<tag k="name" v="Solbarmyra" />
		<tag k="natural" v="wetland" />
		<tag k="ssr:stedsnr" v="521166" />
	</node>
	<node id="-583595" lat="58.3513166639" lon="7.03268889127">
		<tag k="name" v="Monen" />
		<tag k="place" v="locality" />
		<tag k="ssr:stedsnr" v="637488" />
	</node>
	<node id="-581118" lat="58.5543499996" lon="6.96371666239">
		<tag k="name" v="Krisarsetet" />
		<tag k="natural" v="wetland" />
		<tag k="ssr:stedsnr" v="945291" />
	</node>
	<node id="-581116" lat="58.4400888865" lon="6.88753610761">
		<tag k="name" v="Skogeløa" />
		<tag k="natural" v="wetland" />
		<tag k="ssr:stedsnr" v="945274" />
	</node>
	<node id="-582910" lat="58.5298277806" lon="7.00361110377">
		<tag k="name" v="Surtemyr" />
		<tag k="natural" v="wetland" />
		<tag k="ssr:stedsnr" v="399098" />
	</node>
	<node id="-581106" lat="58.6713499983" lon="6.88967778371">
		<tag k="name" v="Ruggesteinen" />
		<tag k="natural" v="stone" />
		<tag k="ssr:stedsnr" v="945184" />
	</node>
	<node id="-583146" lat="58.4310222178" lon="6.96413055238">
		<tag k="name" v="Solbarmen" />
		<tag k="natural" v="wetland" />
		<tag k="ssr:stedsnr" v="520896" />
	</node>
	<node id="-581201" lat="58.6564388903" lon="7.00845555045">
		<tag k="name" v="Slåteblotte" />
		<tag k="natural" v="wetland" />
		<tag k="ssr:stedsnr" v="946696" />
	</node>
	<node id="-579022" lat="58.4370611072" lon="6.90443056116">
		<tag k="name" v="Moltemyr" />
		<tag k="natural" v="wetland" />
		<tag k="ssr:stedsnr" v="278764" />
	</node>
	<node id="-579019" lat="58.571169442" lon="7.05254166034">
		<tag k="name" v="Monan" />
		<tag k="natural" v="wetland" />
		<tag k="ssr:stedsnr" v="278753" />
	</node>
	<node id="-581063" lat="58.2748805514" lon="7.05845000394">
		<tag k="name" v="Kjimlemyr" />
		<tag k="natural" v="wetland" />
		<tag k="ssr:stedsnr" v="942147" />
	</node>
	<node id="-579011" lat="58.6023305577" lon="6.90157222606">
		<tag k="name" v="Lunnan" />
		<tag k="place" v="locality" />
		<tag k="ssr:stedsnr" v="278565" />
	</node>
	<node id="-581058" lat="58.2937277796" lon="7.10860277319">
		<tag k="name" v="Dyblemyra" />
		<tag k="natural" v="wetland" />
		<tag k="ssr:stedsnr" v="941772" />
	</node>
	<node id="-579003" lat="58.4580500011" lon="6.8938194507">
		<tag k="name" v="Karislåtten" />
		<tag k="natural" v="wetland" />
		<tag k="ssr:stedsnr" v="278522" />
	</node>
	<node id="-581048" lat="58.3118666681" lon="6.9399194509">
		<tag k="name" v="Revskarmonen" />
		<tag k="place" v="locality" />
		<tag k="ssr:stedsnr" v="941657" />
	</node>
	<node id="-581047" lat="58.3116388866" lon="6.94296666127">
		<tag k="name" v="Jonsmyra" />
		<tag k="place" v="locality" />
		<tag k="ssr:stedsnr" v="941656" />
	</node>
	<node id="-579145" lat="58.541286112" lon="7.00685554918">
		<tag k="name" v="Krågedalsmyran" />
		<tag k="natural" v="wetland" />
		<tag k="ssr:stedsnr" v="217319" />
	</node>
	<node id="-578993" lat="58.4305722191" lon="7.03363610323">
		<tag k="name" v="Stoilan" />
		<tag k="natural" v="wetland" />
		<tag k="ssr:stedsnr" v="278474" />
	</node>
	<node id="-581039" lat="58.3188555543" lon="6.92640832965">
		<tag k="name" v="Bjelkemyra" />
		<tag k="natural" v="wetland" />
		<tag k="ssr:stedsnr" v="941570" />
	</node>
	<node id="-578986" lat="58.4715749981" lon="6.87914721875">
		<tag k="name" v="Valbrodsmyra" />
		<tag k="natural" v="wetland" />
		<tag k="ssr:stedsnr" v="278422" />
	</node>
	<node id="-581532" lat="58.32355278" lon="6.92870833424">
		<tag k="name" v="Følsmyr" />
		<tag k="natural" v="wetland" />
		<tag k="ssr:stedsnr" v="31350" />
	</node>
	<node id="-581030" lat="58.2552694422" lon="6.84213611662">
		<tag k="name" v="Tyskemyr" />
		<tag k="natural" v="wetland" />
		<tag k="ssr:stedsnr" v="941492" />
	</node>
	<node id="-581029" lat="58.2556138926" lon="6.84461111897">
		<tag k="name" v="Breiemyra" />
		<tag k="natural" v="wetland" />
		<tag k="ssr:stedsnr" v="941491" />
	</node>
	<node id="-578979" lat="58.7113638871" lon="6.98680000597">
		<tag k="name" v="Skinnarmyre" />
		<tag k="natural" v="wetland" />
		<tag k="ssr:stedsnr" v="278389" />
	</node>
	<node id="-581018" lat="58.3358777755" lon="6.79228333078">
		<tag k="name" v="Nordjordet" />
		<tag k="place" v="locality" />
		<tag k="ssr:stedsnr" v="941443" />
	</node>
	<node id="-581017" lat="58.234852774" lon="6.8171194391">
		<tag k="name" v="Klovsteinmyra" />
		<tag k="natural" v="wetland" />
		<tag k="ssr:stedsnr" v="941416" />
	</node>
	<node id="-581016" lat="58.3996416703" lon="7.00601111417">
		<tag k="name" v="Torjuskjerran" />
		<tag k="natural" v="wetland" />
		<tag k="ssr:stedsnr" v="941410" />
	</node>
	<node id="-581007" lat="58.3573388903" lon="6.99110556283">
		<tag k="name" v="Drittsteinen" />
		<tag k="natural" v="stone" />
		<tag k="ssr:stedsnr" v="941346" />
	</node>
	<node id="-583054" lat="58.6552861066" lon="7.07428888169">
		<tag k="name" v="Steinbenken" />
		<tag k="natural" v="stone" />
		<tag k="ssr:stedsnr" v="400933" />
	</node>
	<node id="-583575" lat="58.378983336" lon="7.08733333914">
		<tag k="name" v="Stemmeslåta" />
		<tag k="natural" v="wetland" />
		<tag k="ssr:stedsnr" v="637265" />
	</node>
	<node id="-580996" lat="58.40679722" lon="6.89855555691">
		<tag k="name" v="Skogelimyr" />
		<tag k="natural" v="wetland" />
		<tag k="ssr:stedsnr" v="941209" />
	</node>
	<node id="-580994" lat="58.3895166711" lon="6.94719444716">
		<tag k="name" v="Stuttemyr" />
		<tag k="natural" v="wetland" />
		<tag k="ssr:stedsnr" v="941205" />
	</node>
	<node id="-580843" lat="58.516833332" lon="7.05015832634">
		<tag k="name" v="Skogelimyra" />
		<tag k="natural" v="wetland" />
		<tag k="ssr:stedsnr" v="764532" />
	</node>
	<node id="-580991" lat="58.3982444427" lon="6.96993889231">
		<tag k="name" v="Krogebrokka" />
		<tag k="place" v="locality" />
		<tag k="ssr:stedsnr" v="941174" />
	</node>
	<node id="-580990" lat="58.4017027742" lon="6.97582777719">
		<tag k="landuse" v="peat_cutting" />
		<tag k="name" v="Torvmyra" />
		<tag k="ssr:stedsnr" v="941172" />
	</node>
	<node id="-583036" lat="58.6203222239" lon="6.97225834108">
		<tag k="name" v="Øygarden" />
		<tag k="natural" v="wetland" />
		<tag k="ssr:stedsnr" v="400697" />
	</node>
	<node id="-581182" lat="58.483722226" lon="7.01738610695">
		<tag k="name" v="Kjerdalsmyra" />
		<tag k="place" v="locality" />
		<tag k="ssr:stedsnr" v="946476" />
	</node>
	<node id="-579475" lat="58.4552750029" lon="6.97255000557">
		<tag k="name" v="Austemyr" />
		<tag k="natural" v="wetland" />
		<tag k="ssr:stedsnr" v="460503" />
	</node>
	<node id="-583392" lat="58.4998361128" lon="6.99919999338">
		<tag k="name" v="Nedre Limyra" />
		<tag k="natural" v="wetland" />
		<tag k="ssr:stedsnr" v="581265" />
	</node>
	<node id="-578923" lat="58.4247333317" lon="6.88910833038">
		<tag k="name" v="Lieslåtta" />
		<tag k="natural" v="wetland" />
		<tag k="ssr:stedsnr" v="152718" />
	</node>
	<node id="-580967" lat="58.2929222213" lon="7.0466305559">
		<tag k="name" v="Skrytemyra" />
		<tag k="natural" v="wetland" />
		<tag k="ssr:stedsnr" v="941029" />
	</node>
	<node id="-580966" lat="58.4147888903" lon="6.9866583293">
		<tag k="name" v="Fribergmyra" />
		<tag k="natural" v="wetland" />
		<tag k="ssr:stedsnr" v="941021" />
	</node>
	<node id="-578917" lat="58.414816669" lon="6.97384167168">
		<tag k="name" v="Trætingstykket" />
		<tag k="natural" v="wetland" />
		<tag k="ssr:stedsnr" v="152109" />
	</node>
	<node id="-578915" lat="58.2404583324" lon="7.04215277676">
		<tag k="name" v="Flatan" />
		<tag k="place" v="locality" />
		<tag k="ssr:stedsnr" v="275210" />
	</node>
	<node id="-578906" lat="58.2800916699" lon="6.93994443883">
		<tag k="name" v="Langemyra" />
		<tag k="natural" v="wetland" />
		<tag k="ssr:stedsnr" v="152023" />
	</node>
	<node id="-578904" lat="58.2977083309" lon="6.87378888643">
		<tag k="name" v="Fænmyra" />
		<tag k="natural" v="wetland" />
		<tag k="ssr:stedsnr" v="152015" />
	</node>
	<node id="-578894" lat="58.2570555536" lon="6.86648333661">
		<tag k="name" v="Dyttemyra" />
		<tag k="natural" v="wetland" />
		<tag k="ssr:stedsnr" v="274883" />
	</node>
	<node id="-580941" lat="58.5396222203" lon="7.06610276989">
		<tag k="name" v="Myrtjødna" />
		<tag k="natural" v="wetland" />
		<tag k="ssr:stedsnr" v="824520" />
	</node>
	<node id="-580939" lat="58.6967277771" lon="6.89828888278">
		<tag k="name" v="Måvreslåtta" />
		<tag k="natural" v="wetland" />
		<tag k="ssr:stedsnr" v="824507" />
	</node>
	<node id="-578887" lat="58.3520277805" lon="6.99776388349">
		<tag k="landuse" v="quarry" />
		<tag k="name" v="Gruve" />
		<tag k="ssr:stedsnr" v="274682" />
	</node>
	<node id="-578881" lat="58.2307555593" lon="6.89194166027">
		<tag k="name" v="Svemyra" />
		<tag k="natural" v="wetland" />
		<tag k="ssr:stedsnr" v="274344" />
	</node>
	<node id="-578876" lat="58.3398388895" lon="6.97776944914">
		<tag k="name" v="Tomyr" />
		<tag k="natural" v="wetland" />
		<tag k="ssr:stedsnr" v="274301" />
	</node>
	<node id="-582958" lat="58.4525083297" lon="6.90889721492">
		<tag k="name" v="Dyblemyr" />
		<tag k="natural" v="wetland" />
		<tag k="ssr:stedsnr" v="399452" />
	</node>
	<node id="-582956" lat="58.4520111098" lon="6.98784721402">
		<tag k="name" v="Torvmyr" />
		<tag k="natural" v="wetland" />
		<tag k="ssr:stedsnr" v="399431" />
	</node>
	<node id="-582951" lat="58.4673166643" lon="6.87806944707">
		<tag k="name" v="Steggemyr" />
		<tag k="natural" v="wetland" />
		<tag k="ssr:stedsnr" v="399414" />
	</node>
	<node id="-578854" lat="58.3530333313" lon="6.95288611728">
		<tag k="name" v="Mørke kjerret" />
		<tag k="natural" v="wetland" />
		<tag k="ssr:stedsnr" v="273483" />
	</node>
	<node id="-582945" lat="58.5491805574" lon="6.97203332541">
		<tag k="name" v="Larsmyr" />
		<tag k="natural" v="wetland" />
		<tag k="ssr:stedsnr" v="399355" />
	</node>
	<node id="-582944" lat="58.5761277787" lon="6.8845222279">
		<tag k="name" v="Tumyra" />
		<tag k="natural" v="wetland" />
		<tag k="ssr:stedsnr" v="399653" />
	</node>
	<node id="-578844" lat="58.3383277766" lon="6.99750277177">
		<tag k="name" v="Påskemyra" />
		<tag k="natural" v="wetland" />
		<tag k="ssr:stedsnr" v="273090" />
	</node>
	<node id="-580891" lat="58.3384000035" lon="7.03818888379">
		<tag k="name" v="Nesan" />
		<tag k="place" v="locality" />
		<tag k="ssr:stedsnr" v="820157" />
	</node>
	<node id="-580885" lat="58.2500249993" lon="6.97392222485">
		<tag k="name" v="Nordhellemyra" />
		<tag k="natural" v="wetland" />
		<tag k="ssr:stedsnr" v="820012" />
	</node>
	<node id="-580881" lat="58.3748444424" lon="6.97423889098">
		<tag k="name" v="Risbakkmyra" />
		<tag k="natural" v="wetland" />
		<tag k="ssr:stedsnr" v="819614" />
	</node>
	<node id="-578814" lat="58.6667444439" lon="6.98645555619">
		<tag k="name" v="Storehagen" />
		<tag k="place" v="locality" />
		<tag k="ssr:stedsnr" v="96765" />
	</node>
	<node id="-582898" lat="58.4363583293" lon="7.04369167358">
		<tag k="name" v="Skremyra" />
		<tag k="natural" v="wetland" />
		<tag k="ssr:stedsnr" v="399046" />
	</node>
	<node id="-578795" lat="58.4321972199" lon="6.91343888804">
		<tag k="name" v="Breimyr" />
		<tag k="natural" v="wetland" />
		<tag k="ssr:stedsnr" v="96357" />
	</node>
	<node id="-578793" lat="58.5015972202" lon="7.00163055448">
		<tag k="name" v="Øvre Limyra" />
		<tag k="natural" v="wetland" />
		<tag k="ssr:stedsnr" v="96261" />
	</node>
	<node id="-582867" lat="58.2276250017" lon="6.80147500514">
		<tag k="name" v="Moltemyr" />
		<tag k="natural" v="wetland" />
		<tag k="ssr:stedsnr" v="396331" />
	</node>
	<node id="-580809" lat="58.524869444" lon="7.02325000693">
		<tag k="name" v="Steggjemyra" />
		<tag k="natural" v="wetland" />
		<tag k="ssr:stedsnr" v="763086" />
	</node>
	<node id="-582855" lat="58.3192555576" lon="7.00274444395">
		<tag k="name" v="Barmedalsmyra" />
		<tag k="natural" v="wetland" />
		<tag k="ssr:stedsnr" v="395737" />
	</node>
	<node id="-582852" lat="58.3152500009" lon="6.94174165954">
		<tag k="name" v="Storåk" />
		<tag k="natural" v="wetland" />
		<tag k="ssr:stedsnr" v="395598" />
	</node>
	<node id="-580794" lat="58.3078888885" lon="6.93732778015">
		<tag k="name" v="Grønnefeda" />
		<tag k="place" v="locality" />
		<tag k="ssr:stedsnr" v="759666" />
	</node>
	<node id="-582831" lat="58.3386055528" lon="6.9719500033">
		<tag k="name" v="Torvmyren" />
		<tag k="natural" v="wetland" />
		<tag k="ssr:stedsnr" v="395345" />
	</node>
	<node id="-580781" lat="58.3880166675" lon="6.97384722029">
		<tag k="name" v="Skaremyr" />
		<tag k="place" v="locality" />
		<tag k="ssr:stedsnr" v="758272" />
	</node>
	<node id="-582827" lat="58.3794194476" lon="7.0604222273">
		<tag k="name" v="Kvæven" />
		<tag k="natural" v="wetland" />
		<tag k="ssr:stedsnr" v="395274" />
	</node>
	<node id="-580772" lat="58.6583472203" lon="7.07703333307">
		<tag k="landuse" v="quarry" />
		<tag k="name" v="Knaben gruver" />
		<tag k="ssr:stedsnr" v="911269" />
	</node>
	<node id="-582807" lat="58.3961833302" lon="7.00626111458">
		<tag k="name" v="Langemyr" />
		<tag k="natural" v="wetland" />
		<tag k="ssr:stedsnr" v="394425" />
	</node>
	<node id="-582803" lat="58.3900444482" lon="6.96398332458">
		<tag k="name" v="Myra" />
		<tag k="natural" v="wetland" />
		<tag k="ssr:stedsnr" v="394198" />
	</node>
	<node id="-582802" lat="58.3913777756" lon="6.94537778474">
		<tag k="name" v="Langemyr" />
		<tag k="natural" v="wetland" />
		<tag k="ssr:stedsnr" v="394196" />
	</node>
	<node id="-578694" lat="58.2418222227" lon="6.83128055058">
		<tag k="name" v="Dyblemyra" />
		<tag k="natural" v="wetland" />
		<tag k="ssr:stedsnr" v="31447" />
	</node>
	<node id="-578688" lat="58.4271583329" lon="6.90965278293">
		<tag k="name" v="Elgsmyr" />
		<tag k="natural" v="wetland" />
		<tag k="ssr:stedsnr" v="30672" />
	</node>
	<node id="-578677" lat="58.498855556" lon="7.01785278374">
		<tag k="name" v="Budalsheimyra" />
		<tag k="natural" v="wetland" />
		<tag k="ssr:stedsnr" v="218893" />
	</node>
	<node id="-580721" lat="58.482450002" lon="7.00852221842">
		<tag k="name" v="Litlevodden" />
		<tag k="place" v="locality" />
		<tag k="ssr:stedsnr" v="703552" />
	</node>
	<node id="-582757" lat="58.4446666653" lon="7.09648055644">
		<tag k="alt_name" v="Grunnfossmoen" />
		<tag k="name" v="Grunnforsmonen" />
		<tag k="natural" v="wetland" />
		<tag k="ssr:stedsnr" v="364387" />
	</node>
	<node id="-578659" lat="58.4877833296" lon="6.9778388942">
		<tag k="name" v="Kjørformyre" />
		<tag k="natural" v="wetland" />
		<tag k="ssr:stedsnr" v="218585" />
	</node>
	<node id="-580706" lat="58.5770499975" lon="6.94267777011">
		<tag k="name" v="Åslåtten" />
		<tag k="natural" v="wetland" />
		<tag k="ssr:stedsnr" v="702467" />
	</node>
	<node id="-578652" lat="58.4832222197" lon="7.00840555358">
		<tag k="name" v="Skiljemyr" />
		<tag k="place" v="locality" />
		<tag k="ssr:stedsnr" v="218496" />
	</node>
	<node id="-581816" lat="58.3893666703" lon="7.08094999859">
		<tag k="name" v="Myra" />
		<tag k="natural" v="wetland" />
		<tag k="ssr:stedsnr" v="91319" />
	</node>
	<node id="-580686" lat="58.2249277802" lon="6.87274443616">
		<tag k="name" v="Røynåsmyra" />
		<tag k="natural" v="wetland" />
		<tag k="ssr:stedsnr" v="699454" />
	</node>
	<node id="-578633" lat="58.546822222" lon="6.93195277268">
		<tag k="name" v="Hagemyr" />
		<tag k="place" v="locality" />
		<tag k="ssr:stedsnr" v="218284" />
	</node>
	<node id="-582727" lat="58.4757166666" lon="6.97010000001">
		<tag k="name" v="Smørbumyra" />
		<tag k="natural" v="wetland" />
		<tag k="ssr:stedsnr" v="339904" />
	</node>
	<node id="-580664" lat="58.3155888857" lon="6.88278334042">
		<tag k="name" v="Moltemyra" />
		<tag k="natural" v="wetland" />
		<tag k="ssr:stedsnr" v="698505" />
	</node>
	<node id="-583586" lat="58.2281777767" lon="6.91371943715">
		<tag k="name" v="Ljosemyr" />
		<tag k="natural" v="wetland" />
		<tag k="ssr:stedsnr" v="637396" />
	</node>
	<node id="-582705" lat="58.3200527761" lon="6.95570278353">
		<tag k="name" v="Gullura" />
		<tag k="natural" v="scree" />
		<tag k="ssr:stedsnr" v="339703" />
	</node>
	<node id="-582702" lat="58.6129305595" lon="6.97010555746">
		<tag k="name" v="Storamyra" />
		<tag k="natural" v="wetland" />
		<tag k="ssr:stedsnr" v="339677" />
	</node>
	<node id="-580653" lat="58.3571611133" lon="7.01971388699">
		<tag k="name" v="Pålsmyra" />
		<tag k="natural" v="wetland" />
		<tag k="ssr:stedsnr" v="698318" />
	</node>
	<node id="-578593" lat="58.4331472259" lon="6.90147777808">
		<tag k="name" v="Brekkemyr" />
		<tag k="natural" v="wetland" />
		<tag k="ssr:stedsnr" v="217721" />
	</node>
	<node id="-578592" lat="58.4358750032" lon="6.9031194456">
		<tag k="name" v="Ytre Stølen" />
		<tag k="natural" v="wetland" />
		<tag k="ssr:stedsnr" v="217716" />
	</node>
	<node id="-580638" lat="58.5693833366" lon="6.82711943657">
		<tag k="name" v="Nora Vide" />
		<tag k="natural" v="wetland" />
		<tag k="ssr:stedsnr" v="886843" />
	</node>
	<node id="-580636" lat="58.5054138925" lon="6.82996944338">
		<tag k="name" v="Daberøysa" />
		<tag k="natural" v="scree" />
		<tag k="ssr:stedsnr" v="886786" />
	</node>
	<node id="-580633" lat="58.6628388872" lon="6.92628055155">
		<tag k="name" v="Kalveplagå" />
		<tag k="natural" v="wetland" />
		<tag k="ssr:stedsnr" v="886552" />
	</node>
	<node id="-580625" lat="58.4344194416" lon="6.91284166554">
		<tag k="name" v="Dunsa" />
		<tag k="natural" v="wetland" />
		<tag k="ssr:stedsnr" v="885991" />
	</node>
	<node id="-578572" lat="58.4601277776" lon="6.95768611044">
		<tag k="name" v="Nedre Heddalsvola" />
		<tag k="natural" v="wetland" />
		<tag k="ssr:stedsnr" v="217448" />
	</node>
	<node id="-580619" lat="58.6641138888" lon="6.95862222865">
		<tag k="name" v="Kvednhuskilen" />
		<tag k="natural" v="wetland" />
		<tag k="ssr:stedsnr" v="885897" />
	</node>
	<node id="-581121" lat="58.4607500004" lon="6.9537111043">
		<tag k="name" v="Øvre Heddalsvola" />
		<tag k="natural" v="wetland" />
		<tag k="ssr:stedsnr" v="945400" />
	</node>
	<node id="-582649" lat="58.6750166628" lon="7.04741944927">
		<tag k="name" v="Hareslåta" />
		<tag k="natural" v="wetland" />
		<tag k="ssr:stedsnr" v="339009" />
	</node>
	<node id="-580599" lat="58.4878833363" lon="6.97120556311">
		<tag k="name" v="Småmyran" />
		<tag k="natural" v="wetland" />
		<tag k="ssr:stedsnr" v="885598" />
	</node>
	<node id="-580598" lat="58.4863222215" lon="6.97114722867">
		<tag k="name" v="Botlemyre" />
		<tag k="natural" v="wetland" />
		<tag k="ssr:stedsnr" v="885594" />
	</node>
	<node id="-582641" lat="58.6687777813" lon="6.9832694428">
		<tag k="name" v="Kalvehagen" />
		<tag k="place" v="locality" />
		<tag k="ssr:stedsnr" v="338743" />
	</node>
	<node id="-582638" lat="58.4354388868" lon="6.9076972217">
		<tag k="name" v="Kringlemyr" />
		<tag k="natural" v="wetland" />
		<tag k="ssr:stedsnr" v="338717" />
	</node>
	<node id="-582636" lat="58.5537611126" lon="6.92558333736">
		<tag k="name" v="Tuemyr" />
		<tag k="natural" v="wetland" />
		<tag k="ssr:stedsnr" v="338642" />
	</node>
	<node id="-580583" lat="58.4884722183" lon="6.94113055353">
		<tag k="name" v="Sirismyr" />
		<tag k="natural" v="wetland" />
		<tag k="ssr:stedsnr" v="885534" />
	</node>
	<node id="-582139" lat="58.3426666693" lon="6.98871943757">
		<tag k="name" v="Rølland" />
		<tag k="natural" v="wetland" />
		<tag k="ssr:stedsnr" v="152500" />
	</node>
	<node id="-582623" lat="58.5438166639" lon="7.0250777845">
		<tag k="name" v="Fjotlandsstølen" />
		<tag k="natural" v="wetland" />
		<tag k="ssr:stedsnr" v="338273" />
	</node>
	<node id="-580560" lat="58.614427782" lon="7.05928055072">
		<tag k="name" v="Burknehommyra" />
		<tag k="natural" v="wetland" />
		<tag k="ssr:stedsnr" v="885190" />
	</node>
	<node id="-580552" lat="58.4315888849" lon="7.04963610447">
		<tag k="name" v="Revemyra" />
		<tag k="natural" v="wetland" />
		<tag k="ssr:stedsnr" v="885042" />
	</node>
	<node id="-582592" lat="58.2406749994" lon="6.85745833637">
		<tag k="name" v="Steggan" />
		<tag k="natural" v="wetland" />
		<tag k="ssr:stedsnr" v="335465" />
	</node>
	<node id="-582591" lat="58.2436555513" lon="6.86585278232">
		<tag k="name" v="Stolpemyr" />
		<tag k="natural" v="wetland" />
		<tag k="ssr:stedsnr" v="335462" />
	</node>
	<node id="-579490" lat="58.5644055554" lon="6.97610833003">
		<tag k="name" v="Stormyra" />
		<tag k="natural" v="wetland" />
		<tag k="ssr:stedsnr" v="460565" />
	</node>
	<node id="-580524" lat="58.2388111106" lon="6.75914721542">
		<tag k="name" v="Gullura" />
		<tag k="natural" v="scree" />
		<tag k="ssr:stedsnr" v="882237" />
	</node>
	<node id="-582565" lat="58.3562999969" lon="6.97319444783">
		<tag k="name" v="Loptsvollen" />
		<tag k="place" v="locality" />
		<tag k="ssr:stedsnr" v="334477" />
	</node>
	<node id="-580515" lat="58.2733861115" lon="6.99027222854">
		<tag k="name" v="Dyblemyra" />
		<tag k="natural" v="wetland" />
		<tag k="ssr:stedsnr" v="881835" />
	</node>
	<node id="-580514" lat="58.2925805589" lon="7.0512583396">
		<tag k="name" v="Torvmyra" />
		<tag k="natural" v="wetland" />
		<tag k="ssr:stedsnr" v="881783" />
	</node>
	<node id="-580506" lat="58.3059083371" lon="7.02139167433">
		<tag k="name" v="Holemyra" />
		<tag k="natural" v="wetland" />
		<tag k="ssr:stedsnr" v="881691" />
	</node>
	<node id="-580500" lat="58.3152166632" lon="6.93728888387">
		<tag k="name" v="Ormeura" />
		<tag k="natural" v="scree" />
		<tag k="ssr:stedsnr" v="881561" />
	</node>
	<node id="-580498" lat="58.305905556" lon="6.88105832794">
		<tag k="name" v="Porsemyra" />
		<tag k="natural" v="wetland" />
		<tag k="ssr:stedsnr" v="881536" />
	</node>
	<node id="-580491" lat="58.4194583307" lon="6.95264166441">
		<tag k="name" v="Kringlemyr" />
		<tag k="natural" v="wetland" />
		<tag k="ssr:stedsnr" v="881450" />
	</node>
	<node id="-582536" lat="58.3290888898" lon="6.87360833695">
		<tag k="name" v="Stora Kartemyra" />
		<tag k="natural" v="wetland" />
		<tag k="ssr:stedsnr" v="334254" />
	</node>
	<node id="-582529" lat="58.3412416666" lon="6.95082777655">
		<tag k="name" v="Mosesteinen" />
		<tag k="natural" v="stone" />
		<tag k="ssr:stedsnr" v="334122" />
	</node>
	<node id="-582526" lat="58.4172388905" lon="6.98165833092">
		<tag k="name" v="Slåtedalen" />
		<tag k="natural" v="wetland" />
		<tag k="ssr:stedsnr" v="334084" />
	</node>
	<node id="-583826" lat="58.407375004" lon="7.04493333247">
		<tag k="name" v="Dyblemyr" />
		<tag k="natural" v="wetland" />
		<tag k="ssr:stedsnr" v="758387" />
	</node>
	<node id="-582079" lat="58.3012944448" lon="6.9354416597">
		<tag k="name" v="Klostermonen" />
		<tag k="place" v="locality" />
		<tag k="ssr:stedsnr" v="152688" />
	</node>
	<node id="-580452" lat="58.4000555556" lon="6.92011389374">
		<tag k="name" v="Myrkjerr" />
		<tag k="natural" v="wetland" />
		<tag k="ssr:stedsnr" v="880766" />
	</node>
	<node id="-580449" lat="58.4157249993" lon="6.90083888659">
		<tag k="name" v="Torvmyra" />
		<tag k="natural" v="wetland" />
		<tag k="ssr:stedsnr" v="880680" />
	</node>
	<node id="-580442" lat="58.3940222205" lon="6.98771667008">
		<tag k="name" v="Torvmyra" />
		<tag k="natural" v="wetland" />
		<tag k="ssr:stedsnr" v="880409" />
	</node>
	<node id="-580440" lat="58.381113885" lon="7.03792499226">
		<tag k="name" v="Spannslåtmyra" />
		<tag k="natural" v="wetland" />
		<tag k="ssr:stedsnr" v="880345" />
	</node>
	<node id="-580432" lat="58.3889416655" lon="7.07237221846">
		<tag k="name" v="Stølen" />
		<tag k="place" v="locality" />
		<tag k="ssr:stedsnr" v="880286" />
	</node>
	<node id="-582477" lat="58.2360083329" lon="6.85975277643">
		<tag k="name" v="Kvednhusfeda" />
		<tag k="place" v="locality" />
		<tag k="ssr:stedsnr" v="214277" />
	</node>
	<node id="-582474" lat="58.2560333322" lon="6.81205277967">
		<tag k="name" v="Revura" />
		<tag k="natural" v="scree" />
		<tag k="ssr:stedsnr" v="214260" />
	</node>
	<node id="-582469" lat="58.2546222196" lon="7.03583611003">
		<tag k="name" v="Sprengsmyra" />
		<tag k="natural" v="wetland" />
		<tag k="ssr:stedsnr" v="214121" />
	</node>
	<node id="-580415" lat="58.4202527758" lon="6.97198333687">
		<tag k="name" v="Stemmemyra" />
		<tag k="natural" v="wetland" />
		<tag k="ssr:stedsnr" v="880075" />
	</node>
	<node id="-582462" lat="58.3053194469" lon="6.93656389474">
		<tag k="name" v="Stean" />
		<tag k="place" v="locality" />
		<tag k="ssr:stedsnr" v="213696" />
	</node>
	<node id="-580413" lat="58.4093472209" lon="6.99174999203">
		<tag k="name" v="Bulistemmen" />
>>>>>>> e1d4bc35ff8a6074a6f2e91616a996b547c36f15
		<tag k="natural" v="wetland" />
		<tag k="ssr:stedsnr" v="880043" />
	</node>
<<<<<<< HEAD
	<node lat="58.45233333736232" lon="6.969305558304154" id="-25811">
		<tag k="name" v="Dyblan" />
		<tag k="natural" v="wetland" />
		<tag k="ssr:stedsnr" v="460500" />
	</node>
	<node lat="58.56440555540944" lon="6.9761083300304" id="-25819">
		<tag k="name" v="Stormyra" />
		<tag k="natural" v="wetland" />
		<tag k="ssr:stedsnr" v="460565" />
	</node>
	<node lat="58.430986106690916" lon="6.978869438269284" id="-25833">
		<tag k="name" v="Stedjan" />
		<tag k="natural" v="wetland" />
		<tag k="ssr:stedsnr" v="460898" />
	</node>
	<node lat="58.625449997738144" lon="6.977074999286833" id="-25841">
		<tag k="name" v="Øygarden" />
		<tag k="natural" v="wetland" />
		<tag k="ssr:stedsnr" v="460994" />
	</node>
	<node lat="58.68876110940673" lon="7.027288896554995" id="-25843">
		<tag k="name" v="Haluskjerret" />
		<tag k="natural" v="wetland" />
		<tag k="ssr:stedsnr" v="461040" />
	</node>
	<node lat="58.392972217848886" lon="6.9574388809442915" id="-25889">
		<tag k="name" v="Litlemonen" />
		<tag k="place" v="locality" />
		<tag k="ssr:stedsnr" v="334204" />
	</node>
	<node lat="58.329088889817875" lon="6.873608336945068" id="-25891">
		<tag k="name" v="Stora Kartemyra" />
		<tag k="natural" v="wetland" />
		<tag k="ssr:stedsnr" v="334254" />
	</node>
	<node lat="58.27644166642899" lon="6.913163885436482" id="-25922">
		<tag k="name" v="Steggjan" />
		<tag k="natural" v="wetland" />
		<tag k="ssr:stedsnr" v="335956" />
	</node>
	<node lat="58.435438886823306" lon="6.907697221704881" id="-25943">
		<tag k="name" v="Kringlemyr" />
		<tag k="natural" v="wetland" />
		<tag k="ssr:stedsnr" v="338717" />
	</node>
	<node lat="58.66877778133491" lon="6.9832694428027535" id="-25946">
		<tag k="name" v="Kalvehagen" />
		<tag k="place" v="locality" />
		<tag k="ssr:stedsnr" v="338743" />
	</node>
	<node lat="58.67501666279588" lon="7.047419449273004" id="-25952">
		<tag k="name" v="Hareslåta" />
		<tag k="natural" v="wetland" />
		<tag k="ssr:stedsnr" v="339009" />
	</node>
	<node lat="58.32005277608062" lon="6.9557027835286425" id="-25974">
		<tag k="name" v="Gullura" />
		<tag k="natural" v="scree" />
		<tag k="ssr:stedsnr" v="339703" />
	</node>
	<node lat="58.47571666662315" lon="6.970100000010362" id="-25985">
		<tag k="name" v="Smørbumyra" />
		<tag k="natural" v="wetland" />
		<tag k="ssr:stedsnr" v="339904" />
	</node>
	<node lat="58.41238055735521" lon="7.099822223998108" id="-26024">
		<tag k="name" v="Solemyran" />
		<tag k="natural" v="wetland" />
		<tag k="ssr:stedsnr" v="394405" />
	</node>
	<node lat="58.421369448058286" lon="6.952622221560073" id="-26040">
		<tag k="name" v="Gloppa" />
		<tag k="natural" v="wetland" />
		<tag k="ssr:stedsnr" v="395434" />
	</node>
	<node lat="58.31525000091997" lon="6.941741659540614" id="-26045">
		<tag k="name" v="Storåk" />
		<tag k="natural" v="wetland" />
		<tag k="ssr:stedsnr" v="395598" />
	</node>
	<node lat="58.31925555763611" lon="7.002744443950043" id="-26046">
		<tag k="name" v="Barmedalsmyra" />
		<tag k="natural" v="wetland" />
		<tag k="ssr:stedsnr" v="395737" />
	</node>
	<node lat="58.22762500168048" lon="6.801475005135944" id="-26050">
		<tag k="name" v="Moltemyr" />
		<tag k="natural" v="wetland" />
		<tag k="ssr:stedsnr" v="396331" />
	</node>
	<node lat="58.52982778056624" lon="7.003611103768558" id="-26065">
		<tag k="name" v="Surtemyr" />
		<tag k="natural" v="wetland" />
		<tag k="ssr:stedsnr" v="399098" />
	</node>
	<node lat="58.452011109754444" lon="6.987847214015548" id="-26088">
		<tag k="name" v="Torvmyr" />
		<tag k="natural" v="wetland" />
		<tag k="ssr:stedsnr" v="399431" />
	</node>
	<node lat="58.66253055193945" lon="6.940936116318064" id="-26109">
		<tag k="name" v="Uran" />
		<tag k="natural" v="scree" />
		<tag k="ssr:stedsnr" v="399904" />
	</node>
	<node lat="58.6552861066412" lon="7.074288881689391" id="-26134">
		<tag k="name" v="Steinbenken" />
		<tag k="natural" v="stone" />
		<tag k="ssr:stedsnr" v="400933" />
	</node>
	<node lat="58.39558888563011" lon="6.969666671306452" id="-26203">
		<tag k="name" v="Pantestykket" />
		<tag k="place" v="locality" />
		<tag k="ssr:stedsnr" v="455202" />
	</node>
	<node lat="58.39043333087561" lon="6.97606388320381" id="-26204">
		<tag k="name" v="Storemyr" />
		<tag k="natural" v="wetland" />
		<tag k="ssr:stedsnr" v="455204" />
	</node>
	<node lat="58.37644166898246" lon="6.974297216969952" id="-26218">
		<tag k="name" v="Koven" />
		<tag k="place" v="locality" />
		<tag k="ssr:stedsnr" v="455579" />
	</node>
	<node lat="58.2381416709857" lon="6.948127770236644" id="-26220">
		<tag k="name" v="Ytre Myran" />
		<tag k="natural" v="wetland" />
		<tag k="ssr:stedsnr" v="456031" />
	</node>
	<node lat="58.41700555470942" lon="6.957780559150439" id="-26222">
		<tag k="name" v="Tengstjønnmyra" />
		<tag k="natural" v="wetland" />
		<tag k="ssr:stedsnr" v="456416" />
	</node>
	<node lat="58.30176388801196" lon="6.86574723046364" id="-26229">
		<tag k="name" v="Troåsmyra" />
		<tag k="natural" v="wetland" />
		<tag k="ssr:stedsnr" v="456377" />
	</node>
	<node lat="58.25757500270254" lon="6.859594438211828" id="-26237">
		<tag k="name" v="Storamyra" />
		<tag k="natural" v="wetland" />
		<tag k="ssr:stedsnr" v="457907" />
	</node>
	<node lat="58.26395278181574" lon="6.830094451460985" id="-26238">
		<tag k="name" v="Orresteinen" />
		<tag k="natural" v="stone" />
		<tag k="ssr:stedsnr" v="457910" />
	</node>
	<node lat="58.455275002948774" lon="6.972550005574399" id="-26267">
		<tag k="name" v="Austemyr" />
		<tag k="natural" v="wetland" />
		<tag k="ssr:stedsnr" v="460503" />
	</node>
	<node lat="58.6751388910413" lon="6.936861116472893" id="-26279">
		<tag k="name" v="Korsmyr" />
		<tag k="natural" v="wetland" />
		<tag k="ssr:stedsnr" v="460809" />
	</node>
	<node lat="58.55373332980829" lon="6.9174055617026236" id="-26285">
		<tag k="name" v="Salvesmyr" />
		<tag k="natural" v="wetland" />
		<tag k="ssr:stedsnr" v="460716" />
	</node>
	<node lat="58.44352222098327" lon="6.8855444480817685" id="-26302">
		<tag k="name" v="Lavåsmyran" />
		<tag k="natural" v="wetland" />
		<tag k="ssr:stedsnr" v="460964" />
	</node>
	<node lat="58.33342500004163" lon="7.040441671144552" id="-26345">
		<tag k="name" v="Karten" />
		<tag k="natural" v="wetland" />
		<tag k="ssr:stedsnr" v="516104" />
	</node>
	<node lat="58.41104166621553" lon="6.950305553148629" id="-26348">
		<tag k="name" v="Storamyra" />
		<tag k="natural" v="wetland" />
		<tag k="ssr:stedsnr" v="516135" />
	</node>
	<node lat="58.35910000415192" lon="7.022244444539982" id="-26364">
		<tag k="name" v="Bjønndalsmyra" />
		<tag k="natural" v="wetland" />
		<tag k="ssr:stedsnr" v="516363" />
	</node>
	<node lat="58.35733889223472" lon="6.954599993184341" id="-26366">
		<tag k="name" v="Ingvaldsmyra" />
=======
	<node id="-582460" lat="58.2847166638" lon="7.0929416705">
		<tag k="name" v="Hellermyra" />
		<tag k="natural" v="wetland" />
		<tag k="ssr:stedsnr" v="213785" />
	</node>
	<node id="-580408" lat="58.2653916706" lon="6.83959167303">
		<tag k="historic" v="shieling" />
		<tag k="name" v="Hangeland" />
		<tag k="place" v="locality" />
		<tag k="ssr:stedsnr" v="667306" />
	</node>
	<node id="-582455" lat="58.3050500042" lon="6.98109443818">
		<tag k="name" v="Sortemyra" />
		<tag k="natural" v="wetland" />
		<tag k="ssr:stedsnr" v="213722" />
	</node>
	<node id="-582426" lat="58.3971000005" lon="7.0098250049">
		<tag k="name" v="Kringlemyr" />
		<tag k="natural" v="wetland" />
		<tag k="ssr:stedsnr" v="213454" />
	</node>
	<node id="-582423" lat="58.3570416681" lon="7.06221389713">
		<tag k="name" v="Stedjan" />
		<tag k="natural" v="wetland" />
		<tag k="ssr:stedsnr" v="213295" />
	</node>
	<node id="-580370" lat="58.36013333" lon="7.08563611913">
		<tag k="name" v="Tyskland" />
		<tag k="natural" v="wetland" />
		<tag k="ssr:stedsnr" v="637314" />
	</node>
	<node id="-580362" lat="58.3491166676" lon="6.95326388192">
		<tag k="name" v="Støa" />
		<tag k="place" v="locality" />
		<tag k="ssr:stedsnr" v="637414" />
	</node>
	<node id="-580354" lat="58.414138893" lon="6.96958055263">
		<tag k="name" v="Stakkslåta" />
		<tag k="natural" v="wetland" />
		<tag k="ssr:stedsnr" v="637115" />
	</node>
	<node id="-580353" lat="58.3330666706" lon="7.0749138899">
		<tag k="name" v="Grasmyran" />
		<tag k="natural" v="wetland" />
		<tag k="ssr:stedsnr" v="637106" />
	</node>
	<node id="-580351" lat="58.3342666685" lon="7.02344444908">
		<tag k="name" v="Monan" />
		<tag k="place" v="locality" />
		<tag k="ssr:stedsnr" v="637064" />
	</node>
	<node id="-582392" lat="58.3267222196" lon="7.11642778189">
		<tag k="name" v="Lutesteinen" />
		<tag k="natural" v="stone" />
		<tag k="ssr:stedsnr" v="213139" />
	</node>
	<node id="-582386" lat="58.3455111153" lon="6.98534722608">
		<tag k="name" v="Torvmyra" />
		<tag k="natural" v="wetland" />
		<tag k="ssr:stedsnr" v="213107" />
	</node>
	<node id="-579708" lat="58.6625305519" lon="6.94093611632">
		<tag k="name" v="Uran" />
		<tag k="natural" v="scree" />
		<tag k="ssr:stedsnr" v="399904" />
	</node>
	<node id="-583118" lat="58.440433329" lon="6.89235555203">
		<tag k="name" v="Inneslåtta" />
		<tag k="natural" v="wetland" />
		<tag k="ssr:stedsnr" v="520292" />
	</node>
	<node id="-580288" lat="58.6759166707" lon="6.87598055629">
		<tag k="name" v="Heddevassteen" />
		<tag k="natural" v="wetland" />
		<tag k="ssr:stedsnr" v="582713" />
	</node>
	<node id="-582322" lat="58.5067416667" lon="6.84789167134">
		<tag k="name" v="Rundehommen" />
		<tag k="natural" v="wetland" />
		<tag k="ssr:stedsnr" v="157782" />
	</node>
	<node id="-580248" lat="58.5184666672" lon="7.02221666654">
		<tag k="name" v="Kvæven" />
		<tag k="place" v="locality" />
		<tag k="ssr:stedsnr" v="580058" />
	</node>
	<node id="-582287" lat="58.7218944442" lon="6.98053888562">
		<tag k="name" v="Tollaksteinen" />
		<tag k="natural" v="stone" />
		<tag k="ssr:stedsnr" v="157336" />
	</node>
	<node id="-580238" lat="58.2509333359" lon="7.04952778578">
		<tag k="name" v="Toftelandsmyra" />
		<tag k="natural" v="wetland" />
		<tag k="ssr:stedsnr" v="578204" />
	</node>
	<node id="-580237" lat="58.3426388879" lon="7.04397499359">
		<tag k="name" v="Myra" />
		<tag k="natural" v="wetland" />
		<tag k="ssr:stedsnr" v="577916" />
	</node>
	<node id="-584330" lat="58.3359440234" lon="7.04220281136">
		<tag k="name" v="Østre Teigen" />
		<tag k="place" v="locality" />
		<tag k="ssr:stedsnr" v="979801" />
	</node>
	<node id="-582278" lat="58.6759583359" lon="6.88520277092">
		<tag k="name" v="Væding" />
		<tag k="natural" v="wetland" />
		<tag k="ssr:stedsnr" v="157209" />
	</node>
	<node id="-582277" lat="58.5038638929" lon="7.00332222347">
		<tag k="name" v="Kvekkjen" />
		<tag k="place" v="locality" />
		<tag k="ssr:stedsnr" v="157207" />
	</node>
	<node id="-580228" lat="58.376780559" lon="7.06730556302">
		<tag k="name" v="Stigmyra" />
		<tag k="natural" v="wetland" />
		<tag k="ssr:stedsnr" v="577278" />
	</node>
	<node id="-584323" lat="58.2662822211" lon="6.93900553758">
		<tag k="name" v="Åseland" />
		<tag k="place" v="locality" />
		<tag k="ssr:stedsnr" v="979684" />
	</node>
	<node id="-584322" lat="58.2418327612" lon="6.943845647">
		<tag k="name" v="Øvre Lohndal" />
		<tag k="place" v="locality" />
		<tag k="ssr:stedsnr" v="979683" />
	</node>
	<node id="-584321" lat="58.2377031281" lon="6.93353116534">
		<tag k="name" v="Nedre Londal" />
		<tag k="place" v="locality" />
		<tag k="ssr:stedsnr" v="979682" />
	</node>
	<node id="-582272" lat="58.5054388908" lon="6.90289167506">
		<tag k="name" v="Skuggebotn" />
		<tag k="natural" v="wetland" />
		<tag k="ssr:stedsnr" v="157109" />
	</node>
	<node id="-580217" lat="58.352424996" lon="6.94995000287">
		<tag k="name" v="Runde holet" />
		<tag k="natural" v="wetland" />
		<tag k="ssr:stedsnr" v="576505" />
	</node>
	<node id="-580216" lat="58.3484222194" lon="6.99379167352">
		<tag k="name" v="Dyblemyr" />
		<tag k="natural" v="wetland" />
		<tag k="ssr:stedsnr" v="576482" />
	</node>
	<node id="-582263" lat="58.4452888901" lon="6.92235278559">
		<tag k="name" v="Kvæven" />
		<tag k="place" v="locality" />
		<tag k="ssr:stedsnr" v="156938" />
	</node>
	<node id="-582253" lat="58.6456833359" lon="6.9379972135">
		<tag k="name" v="Hattefogmyre" />
		<tag k="natural" v="wetland" />
		<tag k="ssr:stedsnr" v="156839" />
	</node>
	<node id="-582252" lat="58.6506249974" lon="6.93486388783">
		<tag k="name" v="Dyrstøl" />
		<tag k="natural" v="wetland" />
		<tag k="ssr:stedsnr" v="156816" />
	</node>
	<node id="-582418" lat="58.3651888907" lon="7.02217223004">
		<tag k="name" v="Tumlemyra" />
		<tag k="natural" v="wetland" />
		<tag k="ssr:stedsnr" v="213363" />
	</node>
	<node id="-582243" lat="58.4368972212" lon="6.90981944457">
		<tag k="name" v="Langemyr" />
		<tag k="natural" v="wetland" />
		<tag k="ssr:stedsnr" v="156723" />
	</node>
	<node id="-580188" lat="58.5065361093" lon="7.03489166168">
		<tag k="name" v="Ærekjerret" />
		<tag k="natural" v="wetland" />
		<tag k="ssr:stedsnr" v="703884" />
	</node>
	<node id="-580187" lat="58.5807583292" lon="6.82977777036">
		<tag k="name" v="Fosseslåten" />
		<tag k="natural" v="wetland" />
		<tag k="ssr:stedsnr" v="703881" />
	</node>
	<node id="-580184" lat="58.5657138879" lon="6.83248611934">
		<tag k="name" v="Heimra Vide" />
		<tag k="natural" v="wetland" />
		<tag k="ssr:stedsnr" v="703854" />
	</node>
	<node id="-582224" lat="58.4554944483" lon="6.9693194372">
		<tag k="name" v="Dugan" />
		<tag k="place" v="locality" />
		<tag k="ssr:stedsnr" v="156442" />
	</node>
	<node id="-582219" lat="58.5280916704" lon="6.93740833737">
		<tag k="name" v="Stinsmyran" />
		<tag k="natural" v="wetland" />
		<tag k="ssr:stedsnr" v="156434" />
	</node>
	<node id="-580170" lat="58.5449638896" lon="6.87873889216">
		<tag k="name" v="Verbekkstean" />
		<tag k="natural" v="wetland" />
		<tag k="ssr:stedsnr" v="703756" />
	</node>
	<node id="-582214" lat="58.4506805591" lon="6.95172222383">
		<tag k="name" v="Lundemyran" />
		<tag k="natural" v="wetland" />
		<tag k="ssr:stedsnr" v="156424" />
	</node>
	<node id="-580160" lat="58.4548472243" lon="6.97699444695">
		<tag k="name" v="Seljestean" />
		<tag k="natural" v="wetland" />
		<tag k="ssr:stedsnr" v="703476" />
	</node>
	<node id="-582203" lat="58.438116664" lon="6.90074166034">
		<tag k="name" v="Hagemyr" />
		<tag k="natural" v="wetland" />
		<tag k="ssr:stedsnr" v="156274" />
	</node>
	<node id="-582198" lat="58.4318027767" lon="6.87905556152">
		<tag k="name" v="Åsestølen" />
		<tag k="natural" v="wetland" />
		<tag k="ssr:stedsnr" v="156251" />
	</node>
	<node id="-584245" lat="58.580741667" lon="6.99053056136">
		<tag k="name" v="Talarfjellmyra" />
		<tag k="natural" v="wetland" />
		<tag k="ssr:stedsnr" v="825731" />
	</node>
	<node id="-584239" lat="58.6126388896" lon="6.96684445017">
		<tag k="name" v="Kløvsteinen" />
		<tag k="natural" v="stone" />
		<tag k="ssr:stedsnr" v="825684" />
	</node>
	<node id="-582188" lat="58.2712000001" lon="6.91685277389">
		<tag k="name" v="Klovsteinen" />
		<tag k="natural" v="stone" />
		<tag k="ssr:stedsnr" v="156136" />
	</node>
	<node id="-584229" lat="58.5211527794" lon="7.04908055272">
		<tag k="name" v="Krossmyra" />
		<tag k="natural" v="wetland" />
		<tag k="ssr:stedsnr" v="825484" />
	</node>
	<node id="-583429" lat="58.4907361135" lon="6.9488000016">
		<tag k="name" v="Stormyr" />
>>>>>>> e1d4bc35ff8a6074a6f2e91616a996b547c36f15
		<tag k="natural" v="wetland" />
		<tag k="ssr:stedsnr" v="516521" />
	</node>
<<<<<<< HEAD
	<node lat="58.24065833237824" lon="6.941174994855699" id="-26380">
		<tag k="name" v="Svartevassmyra" />
		<tag k="natural" v="wetland" />
		<tag k="ssr:stedsnr" v="517020" />
	</node>
	<node lat="58.419699996739425" lon="6.949858332588301" id="-26385">
		<tag k="name" v="Austjordet" />
		<tag k="place" v="locality" />
		<tag k="ssr:stedsnr" v="517463" />
	</node>
	<node lat="58.51820833587947" lon="7.035027777632468" id="-26389">
		<tag k="name" v="Åremyra" />
		<tag k="natural" v="wetland" />
		<tag k="ssr:stedsnr" v="519076" />
	</node>
	<node lat="58.52812777660779" lon="6.910958329488278" id="-26402">
		<tag k="name" v="Hauland" />
		<tag k="place" v="locality" />
		<tag k="ssr:stedsnr" v="520419" />
	</node>
	<node lat="58.50651944018223" lon="6.93429444743186" id="-26421">
		<tag k="name" v="Solbarmyra" />
		<tag k="natural" v="wetland" />
		<tag k="ssr:stedsnr" v="521166" />
	</node>
	<node lat="58.65899166367717" lon="7.022483333653256" id="-26440">
		<tag k="name" v="Bauseslåta" />
		<tag k="natural" v="wetland" />
		<tag k="ssr:stedsnr" v="521714" />
	</node>
	<node lat="58.47714166434558" lon="6.969280553710392" id="-26446">
		<tag k="name" v="Vedde" />
		<tag k="natural" v="wetland" />
		<tag k="ssr:stedsnr" v="521882" />
	</node>
	<node lat="58.4247722220165" lon="6.955069451388689" id="-26490">
		<tag k="name" v="Kvævemyr" />
		<tag k="natural" v="wetland" />
		<tag k="ssr:stedsnr" v="576050" />
	</node>
	<node lat="58.39336944164651" lon="7.057655555393535" id="-26492">
		<tag k="name" v="Brendemyran" />
		<tag k="natural" v="wetland" />
		<tag k="ssr:stedsnr" v="576246" />
	</node>
	<node lat="58.3524249960476" lon="6.9499500028707475" id="-26497">
		<tag k="name" v="Runde holet" />
		<tag k="natural" v="wetland" />
		<tag k="ssr:stedsnr" v="576505" />
	</node>
	<node lat="58.32944444358663" lon="7.0582527725894915" id="-26508">
		<tag k="name" v="Langemyr" />
		<tag k="natural" v="wetland" />
		<tag k="ssr:stedsnr" v="577110" />
	</node>
	<node lat="58.2222861145191" lon="6.886791667370176" id="-26519">
		<tag k="name" v="Djupemyr" />
		<tag k="natural" v="wetland" />
		<tag k="ssr:stedsnr" v="577493" />
	</node>
	<node lat="58.2509333358655" lon="7.049527785783355" id="-26529">
		<tag k="name" v="Toftelandsmyra" />
		<tag k="natural" v="wetland" />
		<tag k="ssr:stedsnr" v="578204" />
	</node>
	<node lat="58.558188890732424" lon="6.842936106123032" id="-26548">
		<tag k="historic" v="shieling" />
		<tag k="name" v="Selandsstølen" />
		<tag k="place" v="locality" />
		<tag k="ssr:stedsnr" v="581295" />
	</node>
	<node lat="58.558194443239586" lon="6.85511666433489" id="-26549">
		<tag k="name" v="Stora myra" />
		<tag k="natural" v="wetland" />
		<tag k="ssr:stedsnr" v="581298" />
	</node>
	<node lat="58.53866666764294" lon="6.8275611146353645" id="-26575">
		<tag k="name" v="Fossmyra" />
		<tag k="natural" v="wetland" />
		<tag k="ssr:stedsnr" v="581711" />
	</node>
	<node lat="58.6759166706955" lon="6.87598055629165" id="-26597">
		<tag k="name" v="Heddevassteen" />
		<tag k="natural" v="wetland" />
		<tag k="ssr:stedsnr" v="582713" />
	</node>
	<node lat="58.33149444013349" lon="7.072822214295319" id="-26629">
		<tag k="name" v="Mannemyra" />
		<tag k="natural" v="wetland" />
		<tag k="ssr:stedsnr" v="698089" />
	</node>
	<node lat="58.39018055349889" lon="7.00468054712122" id="-26639">
		<tag k="name" v="Stora-myr" />
		<tag k="natural" v="wetland" />
		<tag k="ssr:stedsnr" v="698433" />
	</node>
	<node lat="58.349186114315216" lon="6.987405555164628" id="-26641">
		<tag k="name" v="Åsesteinen" />
		<tag k="natural" v="stone" />
		<tag k="ssr:stedsnr" v="698438" />
	</node>
	<node lat="58.36323333055083" lon="6.976688888877735" id="-26650">
		<tag k="name" v="Indramyra" />
		<tag k="natural" v="wetland" />
		<tag k="ssr:stedsnr" v="698492" />
	</node>
	<node lat="58.35909444373728" lon="6.958061106973598" id="-26652">
		<tag k="name" v="Sedan" />
		<tag k="natural" v="wetland" />
		<tag k="ssr:stedsnr" v="698498" />
	</node>
	<node lat="58.371733331984366" lon="6.989452772210977" id="-26657">
		<tag k="name" v="Stegansmyra" />
		<tag k="natural" v="wetland" />
		<tag k="ssr:stedsnr" v="698637" />
	</node>
	<node lat="58.29673333749031" lon="7.106866658233656" id="-26666">
		<tag k="name" v="Gaustadduken" />
		<tag k="natural" v="wetland" />
		<tag k="ssr:stedsnr" v="698736" />
	</node>
	<node lat="58.281136113654284" lon="7.069211103751571" id="-26668">
		<tag k="name" v="Pråmstømyra" />
		<tag k="natural" v="wetland" />
		<tag k="ssr:stedsnr" v="698983" />
	</node>
	<node lat="58.224927780193546" lon="6.872744436157516" id="-26692">
		<tag k="name" v="Røynåsmyra" />
		<tag k="natural" v="wetland" />
		<tag k="ssr:stedsnr" v="699454" />
	</node>
	<node lat="58.26293610904834" lon="6.891575008472434" id="-26721">
		<tag k="name" v="Mikkelsteinen" />
		<tag k="natural" v="stone" />
		<tag k="ssr:stedsnr" v="699987" />
	</node>
	<node lat="58.670966662598445" lon="7.010611111852016" id="-26726">
		<tag k="name" v="Djubedalsmyr" />
		<tag k="natural" v="wetland" />
		<tag k="ssr:stedsnr" v="702042" />
	</node>
	<node lat="58.6790111069749" lon="6.925683332407365" id="-26733">
		<tag k="name" v="Galdemyre" />
		<tag k="natural" v="wetland" />
		<tag k="ssr:stedsnr" v="702211" />
	</node>
	<node lat="58.62144444813117" lon="6.913933332151435" id="-26750">
		<tag k="name" v="Langavodd" />
		<tag k="place" v="locality" />
		<tag k="ssr:stedsnr" v="702501" />
	</node>
	<node lat="58.7065916706454" lon="6.999680560682156" id="-26767">
		<tag k="name" v="Botnan" />
		<tag k="natural" v="wetland" />
		<tag k="ssr:stedsnr" v="703042" />
	</node>
	<node lat="58.48245000195448" lon="7.008522218416083" id="-26795">
		<tag k="name" v="Litlevodden" />
		<tag k="place" v="locality" />
		<tag k="ssr:stedsnr" v="703552" />
	</node>
	<node lat="58.544963889582775" lon="6.878738892162738" id="-26816">
		<tag k="name" v="Verbekkstean" />
		<tag k="natural" v="wetland" />
		<tag k="ssr:stedsnr" v="703756" />
	</node>
	<node lat="58.580758329190644" lon="6.829777770362526" id="-26817">
		<tag k="name" v="Fosseslåten" />
		<tag k="natural" v="wetland" />
		<tag k="ssr:stedsnr" v="703881" />
	</node>
	<node lat="58.50653610926651" lon="7.034891661681662" id="-26818">
		<tag k="name" v="Ærekjerret" />
		<tag k="natural" v="wetland" />
		<tag k="ssr:stedsnr" v="703884" />
	</node>
	<node lat="58.56571388793301" lon="6.832486119340424" id="-26821">
		<tag k="name" v="Heimra Vide" />
		<tag k="natural" v="wetland" />
		<tag k="ssr:stedsnr" v="703854" />
	</node>
	<node lat="58.4035666701297" lon="7.0656777747588215" id="-26833">
		<tag k="name" v="Fiddemyr" />
		<tag k="natural" v="wetland" />
		<tag k="ssr:stedsnr" v="637236" />
	</node>
	<node lat="58.33306667064938" lon="7.074913889903652" id="-26836">
		<tag k="name" v="Grasmyran" />
		<tag k="natural" v="wetland" />
		<tag k="ssr:stedsnr" v="637106" />
	</node>
	<node lat="58.414138892978215" lon="6.969580552634376" id="-26837">
		<tag k="name" v="Stakkslåta" />
		<tag k="natural" v="wetland" />
		<tag k="ssr:stedsnr" v="637115" />
	</node>
	<node lat="58.3601333299843" lon="7.08563611913227" id="-26846">
		<tag k="name" v="Tyskland" />
		<tag k="natural" v="wetland" />
		<tag k="ssr:stedsnr" v="637314" />
	</node>
	<node lat="58.349116667613046" lon="6.9532638819198525" id="-26852">
		<tag k="name" v="Støa" />
		<tag k="place" v="locality" />
		<tag k="ssr:stedsnr" v="637414" />
	</node>
	<node lat="58.223697222344505" lon="6.769383328463914" id="-26855">
		<tag k="name" v="Halvvegsmyra" />
		<tag k="natural" v="wetland" />
		<tag k="ssr:stedsnr" v="637426" />
	</node>
	<node lat="58.2255472243817" lon="6.905688884293464" id="-26867">
		<tag k="name" v="Kartemyr" />
		<tag k="natural" v="wetland" />
		<tag k="ssr:stedsnr" v="637534" />
	</node>
	<node lat="58.309316664002395" lon="7.044241672250657" id="-26870">
		<tag k="name" v="Espelandsmyra" />
		<tag k="natural" v="wetland" />
		<tag k="ssr:stedsnr" v="637727" />
	</node>
	<node lat="58.26552777691195" lon="6.888161112568096" id="-26879">
		<tag k="name" v="Skålekjerra" />
		<tag k="natural" v="wetland" />
		<tag k="ssr:stedsnr" v="638976" />
	</node>
	<node lat="58.26442013278432" lon="6.910796779050098" id="-26880">
		<tag k="name" v="Dyrlimyra" />
		<tag k="natural" v="wetland" />
		<tag k="ssr:stedsnr" v="639000" />
	</node>
	<node lat="58.45477500418075" lon="6.935005557018725" id="-26891">
		<tag k="name" v="Greimedalsmyran" />
		<tag k="natural" v="wetland" />
		<tag k="ssr:stedsnr" v="641375" />
	</node>
	<node lat="58.557550001218566" lon="6.834555563514886" id="-26896">
		<tag k="historic" v="shieling" />
		<tag k="name" v="Ingeborgstølen" />
		<tag k="place" v="locality" />
		<tag k="ssr:stedsnr" v="641244" />
	</node>
	<node lat="58.664430552041615" lon="6.983550000642367" id="-26911">
		<tag k="name" v="Plasse" />
		<tag k="place" v="locality" />
		<tag k="ssr:stedsnr" v="641908" />
	</node>
	<node lat="58.504233329848375" lon="6.858555553345795" id="-26944">
		<tag k="name" v="Stean" />
		<tag k="natural" v="wetland" />
		<tag k="ssr:stedsnr" v="642727" />
	</node>
	<node lat="58.43691667060748" lon="6.947830560787273" id="-26951">
		<tag k="name" v="Hunskjerret" />
		<tag k="natural" v="wetland" />
		<tag k="ssr:stedsnr" v="642884" />
	</node>
	<node lat="58.26539167058854" lon="6.839591673026116" id="-26968">
		<tag k="historic" v="shieling" />
		<tag k="name" v="Hangeland" />
		<tag k="place" v="locality" />
		<tag k="ssr:stedsnr" v="667306" />
	</node>
	<node lat="58.28778888502306" lon="6.917511112253954" id="-26988">
		<tag k="name" v="Øyemyra" />
		<tag k="place" v="locality" />
		<tag k="ssr:stedsnr" v="698008" />
	</node>
	<node lat="58.41043055592741" lon="7.045702769217916" id="-26994">
		<tag k="name" v="Myran" />
		<tag k="natural" v="wetland" />
		<tag k="ssr:stedsnr" v="698286" />
	</node>
	<node lat="58.357161113310575" lon="7.01971388698787" id="-26999">
		<tag k="name" v="Pålsmyra" />
		<tag k="natural" v="wetland" />
		<tag k="ssr:stedsnr" v="698318" />
	</node>
	<node lat="58.23260555164945" lon="6.815774996979819" id="-27002">
		<tag k="name" v="Langemyr" />
		<tag k="natural" v="wetland" />
		<tag k="ssr:stedsnr" v="698380" />
	</node>
	<node lat="58.315588885713815" lon="6.882783340423771" id="-27004">
		<tag k="name" v="Moltemyra" />
		<tag k="natural" v="wetland" />
		<tag k="ssr:stedsnr" v="698505" />
	</node>
	<node lat="58.46651389305941" lon="6.975327773271683" id="-27034">
		<tag k="name" v="Store myran" />
		<tag k="natural" v="wetland" />
		<tag k="ssr:stedsnr" v="702438" />
	</node>
	<node lat="58.57704999747282" lon="6.9426777701072115" id="-27043">
		<tag k="name" v="Åslåtten" />
		<tag k="natural" v="wetland" />
		<tag k="ssr:stedsnr" v="702467" />
	</node>
	<node lat="58.4548472242885" lon="6.976994446950702" id="-27076">
		<tag k="name" v="Seljestean" />
		<tag k="natural" v="wetland" />
		<tag k="ssr:stedsnr" v="703476" />
	</node>
	<node lat="58.365833334794935" lon="6.98490555789414" id="-27135">
		<tag k="name" v="Heddemyra" />
		<tag k="natural" v="wetland" />
		<tag k="ssr:stedsnr" v="758403" />
	</node>
	<node lat="58.2518916704636" lon="6.957961106056773" id="-27146">
		<tag k="name" v="Kartane" />
		<tag k="natural" v="wetland" />
		<tag k="ssr:stedsnr" v="759009" />
	</node>
	<node lat="58.28785278014198" lon="6.962591660574314" id="-27150">
		<tag k="name" v="Lille Motland" />
		<tag k="natural" v="wetland" />
		<tag k="ssr:stedsnr" v="759027" />
	</node>
	<node lat="58.35072777536456" lon="6.997591658832274" id="-27166">
		<tag k="name" v="Krossmyr" />
		<tag k="natural" v="wetland" />
		<tag k="ssr:stedsnr" v="759447" />
	</node>
	<node lat="58.3914861092366" lon="7.021097223742006" id="-27167">
		<tag k="name" v="Bukshellerura" />
		<tag k="natural" v="scree" />
		<tag k="ssr:stedsnr" v="759448" />
	</node>
	<node lat="58.251847226159256" lon="6.84398333903933" id="-27168">
		<tag k="name" v="Randisdalmyr" />
		<tag k="natural" v="wetland" />
		<tag k="ssr:stedsnr" v="759462" />
	</node>
	<node lat="58.25374167115585" lon="6.989075005224647" id="-27178">
		<tag k="name" v="Torvmyra" />
		<tag k="natural" v="wetland" />
		<tag k="ssr:stedsnr" v="760243" />
	</node>
	<node lat="58.673219443797166" lon="7.014155550070949" id="-27188">
		<tag k="name" v="Furulunnen" />
		<tag k="place" v="locality" />
		<tag k="ssr:stedsnr" v="763046" />
	</node>
	<node lat="58.496977778746405" lon="6.885708329294943" id="-27197">
		<tag k="name" v="Radeslåtta" />
		<tag k="natural" v="wetland" />
		<tag k="ssr:stedsnr" v="763123" />
	</node>
	<node lat="58.52745833120514" lon="6.924741667614165" id="-27210">
		<tag k="name" v="Fiskevemyra" />
		<tag k="natural" v="wetland" />
		<tag k="ssr:stedsnr" v="763443" />
	</node>
	<node lat="58.657394440999404" lon="6.945011114280782" id="-27221">
		<tag k="name" v="Ruståkervollen" />
		<tag k="place" v="locality" />
		<tag k="ssr:stedsnr" v="763799" />
	</node>
	<node lat="58.47543611378914" lon="6.905408328321272" id="-27256">
		<tag k="name" v="Stormyr" />
		<tag k="natural" v="wetland" />
		<tag k="ssr:stedsnr" v="764795" />
	</node>
	<node lat="58.374844442409156" lon="6.974238890984658" id="-27321">
		<tag k="name" v="Risbakkmyra" />
		<tag k="natural" v="wetland" />
		<tag k="ssr:stedsnr" v="819614" />
	</node>
	<node lat="58.250024999342656" lon="6.973922224848453" id="-27326">
		<tag k="name" v="Nordhellemyra" />
		<tag k="natural" v="wetland" />
		<tag k="ssr:stedsnr" v="820012" />
	</node>
	<node lat="58.36141667105869" lon="6.968422219777034" id="-27340">
		<tag k="name" v="Skakkesteinen" />
		<tag k="natural" v="stone" />
		<tag k="ssr:stedsnr" v="820515" />
	</node>
	<node lat="58.29394444652811" lon="7.046558339841108" id="-27351">
		<tag k="name" v="Skrubbemyra" />
		<tag k="natural" v="wetland" />
		<tag k="ssr:stedsnr" v="820780" />
	</node>
	<node lat="58.69672777714759" lon="6.89828888278147" id="-27373">
		<tag k="name" v="Måvreslåtta" />
		<tag k="natural" v="wetland" />
		<tag k="ssr:stedsnr" v="824507" />
	</node>
	<node lat="58.51424722454413" lon="6.929630547356954" id="-27385">
		<tag k="name" v="Krossmyra" />
		<tag k="natural" v="wetland" />
		<tag k="ssr:stedsnr" v="825090" />
	</node>
	<node lat="58.52115277944338" lon="7.049080552717012" id="-27391">
		<tag k="name" v="Krossmyra" />
		<tag k="natural" v="wetland" />
		<tag k="ssr:stedsnr" v="825484" />
	</node>
	<node lat="58.61263888959274" lon="6.966844450171154" id="-27392">
		<tag k="name" v="Kløvsteinen" />
		<tag k="natural" v="stone" />
		<tag k="ssr:stedsnr" v="825684" />
	</node>
	<node lat="58.39402222052911" lon="6.987716670078007" id="-27444">
		<tag k="name" v="Torvmyra" />
		<tag k="natural" v="wetland" />
		<tag k="ssr:stedsnr" v="880409" />
	</node>
	<node lat="58.40005555561271" lon="6.920113893739161" id="-27451">
		<tag k="name" v="Myrkjerr" />
		<tag k="natural" v="wetland" />
		<tag k="ssr:stedsnr" v="880766" />
	</node>
	<node lat="58.41945833065357" lon="6.9526416644092395" id="-27463">
		<tag k="name" v="Kringlemyr" />
		<tag k="natural" v="wetland" />
		<tag k="ssr:stedsnr" v="881450" />
	</node>
	<node lat="58.31521666319621" lon="6.937288883871896" id="-27468">
		<tag k="name" v="Ormeura" />
		<tag k="natural" v="scree" />
		<tag k="ssr:stedsnr" v="881561" />
	</node>
	<node lat="58.293688891259045" lon="7.057633327882553" id="-27473">
		<tag k="name" v="Ørnesteinen" />
		<tag k="natural" v="stone" />
		<tag k="ssr:stedsnr" v="881953" />
	</node>
	<node lat="58.49099444017341" lon="7.08216111645375" id="-27507">
		<tag k="name" v="Drengsmyran" />
		<tag k="natural" v="wetland" />
		<tag k="ssr:stedsnr" v="885424" />
	</node>
	<node lat="58.48788333626502" lon="6.971205563114308" id="-27513">
		<tag k="name" v="Småmyran" />
		<tag k="natural" v="wetland" />
		<tag k="ssr:stedsnr" v="885598" />
	</node>
	<node lat="58.60132778009087" lon="6.930411112163191" id="-27522">
		<tag k="name" v="Stølsmyra" />
		<tag k="natural" v="wetland" />
		<tag k="ssr:stedsnr" v="885926" />
	</node>
	<node lat="58.65834722025461" lon="7.077033333070005" id="-27565">
		<tag k="landuse" v="quarry" />
		<tag k="name" v="Knaben gruver" />
		<tag k="ssr:stedsnr" v="911269" />
	</node>
	<node lat="58.67134999834149" lon="6.889677783705571" id="-27573">
		<tag k="name" v="Ruggesteinen" />
		<tag k="natural" v="stone" />
		<tag k="ssr:stedsnr" v="945184" />
	</node>
	<node lat="58.55434999963869" lon="6.963716662394357" id="-27586">
		<tag k="name" v="Krisarsetet" />
		<tag k="natural" v="wetland" />
		<tag k="ssr:stedsnr" v="945291" />
	</node>
	<node lat="58.67481111341879" lon="6.947747220153511" id="-27591">
		<tag k="name" v="Drikkesteinen" />
		<tag k="natural" v="stone" />
		<tag k="ssr:stedsnr" v="945738" />
	</node>
	<node lat="58.53020833698047" lon="7.058572223506032" id="-27592">
		<tag k="name" v="Sauedrajet" />
		<tag k="natural" v="wetland" />
		<tag k="ssr:stedsnr" v="945486" />
	</node>
	<node lat="58.656438890305246" lon="7.008455550451411" id="-27623">
		<tag k="name" v="Slåteblotte" />
		<tag k="natural" v="wetland" />
		<tag k="ssr:stedsnr" v="946696" />
	</node>
	<node lat="58.51053611546586" lon="6.988455562189598" id="-27631">
		<tag k="name" v="Ålbormyra" />
		<tag k="natural" v="wetland" />
		<tag k="ssr:stedsnr" v="946840" />
	</node>
	<node lat="58.290380909882714" lon="6.776428475025906" id="-27690">
		<tag k="name" v="Løgen" />
		<tag k="place" v="locality" />
		<tag k="ssr:stedsnr" v="979667" />
	</node>
	<node lat="58.49815833555233" lon="7.042136115498527" id="-27720">
		<tag k="alt_name" v="Stedjan" />
		<tag k="name" v="Steggjan" />
		<tag k="place" v="locality" />
		<tag k="ssr:stedsnr" v="330" />
	</node>
	<node lat="58.31080833253281" lon="7.0216277812875605" id="-27727">
		<tag k="alt_name" v="Espelandsmyra" />
		<tag k="name" v="Lensmannsmyra" />
		<tag k="natural" v="wetland" />
		<tag k="ssr:stedsnr" v="541" />
	</node>
	<node lat="58.358963886203334" lon="7.007977776366209" id="-27762">
		<tag k="name" v="Brokkåsmyra" />
		<tag k="natural" v="wetland" />
		<tag k="ssr:stedsnr" v="30357" />
	</node>
	<node lat="58.324311107450036" lon="6.917513897293883" id="-27784">
		<tag k="name" v="Laubermyra" />
		<tag k="natural" v="wetland" />
		<tag k="ssr:stedsnr" v="31493" />
	</node>
	<node lat="58.32355278002417" lon="6.928708334243491" id="-27790">
		<tag k="name" v="Følsmyr" />
		<tag k="natural" v="wetland" />
		<tag k="ssr:stedsnr" v="31350" />
	</node>
	<node lat="58.241822222672994" lon="6.8312805505842995" id="-27795">
		<tag k="name" v="Dyblemyra" />
		<tag k="natural" v="wetland" />
		<tag k="ssr:stedsnr" v="31447" />
	</node>
	<node lat="58.402408336828" lon="6.911672214761279" id="-27802">
		<tag k="name" v="Bulimyra" />
		<tag k="natural" v="wetland" />
		<tag k="ssr:stedsnr" v="31746" />
	</node>
	<node lat="58.251694448785216" lon="7.04495277750725" id="-27803">
		<tag k="name" v="Feda" />
		<tag k="natural" v="wetland" />
		<tag k="ssr:stedsnr" v="32179" />
	</node>
	<node lat="58.270175001273856" lon="7.045758328259509" id="-27807">
		<tag k="name" v="Stølsbumyra" />
		<tag k="natural" v="wetland" />
		<tag k="ssr:stedsnr" v="32134" />
	</node>
	<node lat="58.589627774333216" lon="6.989461105486891" id="-27819">
		<tag k="name" v="Øygardslåta" />
		<tag k="natural" v="wetland" />
		<tag k="ssr:stedsnr" v="35100" />
	</node>
	<node lat="58.513802774377886" lon="7.022808334589621" id="-27865">
		<tag k="name" v="Kvæven" />
		<tag k="natural" v="wetland" />
		<tag k="ssr:stedsnr" v="35881" />
	</node>
	<node lat="58.516705551734" lon="6.827797224746768" id="-27911">
		<tag k="name" v="Hella i skaret" />
		<tag k="natural" v="stone" />
		<tag k="ssr:stedsnr" v="36751" />
=======
	<node id="-584219" lat="58.5142472245" lon="6.92963054736">
		<tag k="name" v="Krossmyra" />
		<tag k="natural" v="wetland" />
		<tag k="ssr:stedsnr" v="825090" />
	</node>
	<node id="-578991" lat="58.4577583361" lon="7.01354166323">
		<tag k="name" v="Limonen" />
		<tag k="place" v="locality" />
		<tag k="ssr:stedsnr" v="278444" />
	</node>
	<node id="-584215" lat="58.4982250013" lon="6.99850554715">
		<tag k="name" v="Yste myra" />
		<tag k="natural" v="wetland" />
		<tag k="ssr:stedsnr" v="825172" />
	</node>
	<node id="-580118" lat="58.7065916706" lon="6.99968056068">
		<tag k="name" v="Botnan" />
		<tag k="natural" v="wetland" />
		<tag k="ssr:stedsnr" v="703042" />
	</node>
	<node id="-584210" lat="58.6775555555" lon="7.07150556212">
		<tag k="landuse" v="quarry" />
		<tag k="name" v="Litle Knaben" />
		<tag k="ssr:stedsnr" v="825032" />
	</node>
	<node id="-584206" lat="58.4459722232" lon="6.91570833884">
		<tag k="name" v="Uran" />
		<tag k="natural" v="scree" />
		<tag k="ssr:stedsnr" v="824951" />
	</node>
	<node id="-584201" lat="58.6529694418" lon="6.93983332694">
		<tag k="name" v="Torvmyre" />
		<tag k="natural" v="wetland" />
		<tag k="ssr:stedsnr" v="824830" />
	</node>
	<node id="-582150" lat="58.3002083293" lon="6.99234445257">
		<tag k="name" v="Stølsmyra" />
		<tag k="natural" v="wetland" />
		<tag k="ssr:stedsnr" v="152760" />
	</node>
	<node id="-582143" lat="58.3176333347" lon="6.89170554835">
		<tag k="name" v="Steggjan" />
		<tag k="natural" v="wetland" />
		<tag k="ssr:stedsnr" v="152556" />
	</node>
	<node id="-580091" lat="58.6214444481" lon="6.91393333215">
		<tag k="name" v="Langavodd" />
		<tag k="place" v="locality" />
		<tag k="ssr:stedsnr" v="702501" />
	</node>
	<node id="-580081" lat="58.4665138931" lon="6.97532777327">
		<tag k="name" v="Store myran" />
		<tag k="natural" v="wetland" />
		<tag k="ssr:stedsnr" v="702438" />
	</node>
	<node id="-584176" lat="58.4518083344" lon="6.93529165912">
		<tag k="name" v="Romyra" />
		<tag k="natural" v="wetland" />
		<tag k="ssr:stedsnr" v="824445" />
	</node>
	<node id="-582127" lat="58.2308194399" lon="6.89863332607">
		<tag k="name" v="Sleten" />
		<tag k="natural" v="wetland" />
		<tag k="ssr:stedsnr" v="152411" />
	</node>
	<node id="-580067" lat="58.679011107" lon="6.92568333241">
		<tag k="name" v="Galdemyre" />
		<tag k="natural" v="wetland" />
		<tag k="ssr:stedsnr" v="702211" />
	</node>
	<node id="-584158" lat="58.2401194473" lon="6.83701389157">
		<tag k="name" v="Storamyra" />
		<tag k="natural" v="wetland" />
		<tag k="ssr:stedsnr" v="821437" />
	</node>
	<node id="-584157" lat="58.2697527769" lon="6.991302775">
		<tag k="name" v="Flottorva" />
		<tag k="natural" v="wetland" />
		<tag k="ssr:stedsnr" v="821139" />
	</node>
	<node id="-582107" lat="58.3295555587" lon="6.87937221763">
		<tag k="name" v="Øvre Torvmyra" />
		<tag k="natural" v="wetland" />
		<tag k="ssr:stedsnr" v="152290" />
	</node>
	<node id="-584154" lat="58.2458833324" lon="7.04201389477">
		<tag k="name" v="Navarsteinen" />
		<tag k="natural" v="stone" />
		<tag k="ssr:stedsnr" v="821200" />
	</node>
	<node id="-584153" lat="58.2575388867" lon="6.98525554758">
		<tag k="name" v="Oddremyra" />
		<tag k="natural" v="wetland" />
		<tag k="ssr:stedsnr" v="821166" />
	</node>
	<node id="-580056" lat="58.6709666626" lon="7.01061111185">
		<tag k="name" v="Djubedalsmyr" />
		<tag k="natural" v="wetland" />
		<tag k="ssr:stedsnr" v="702042" />
	</node>
	<node id="-584148" lat="58.3776888861" lon="7.02906110976">
		<tag k="name" v="Piksteinen" />
		<tag k="natural" v="stone" />
		<tag k="ssr:stedsnr" v="820531" />
	</node>
	<node id="-584147" lat="58.3614166711" lon="6.96842221978">
		<tag k="name" v="Skakkesteinen" />
		<tag k="natural" v="stone" />
		<tag k="ssr:stedsnr" v="820515" />
	</node>
	<node id="-580048" lat="58.262936109" lon="6.89157500847">
		<tag k="name" v="Mikkelsteinen" />
		<tag k="natural" v="stone" />
		<tag k="ssr:stedsnr" v="699987" />
	</node>
	<node id="-584143" lat="58.2939444465" lon="7.04655833984">
		<tag k="name" v="Skrubbemyra" />
		<tag k="natural" v="wetland" />
		<tag k="ssr:stedsnr" v="820780" />
	</node>
	<node id="-584138" lat="58.3254361153" lon="6.93564999222">
		<tag k="name" v="Helleråsmyra" />
		<tag k="natural" v="wetland" />
		<tag k="ssr:stedsnr" v="820343" />
	</node>
	<node id="-580031" lat="58.2811361137" lon="7.06921110375">
		<tag k="name" v="Pråmstømyra" />
		<tag k="natural" v="wetland" />
		<tag k="ssr:stedsnr" v="698983" />
	</node>
	<node id="-580026" lat="58.371733332" lon="6.98945277221">
		<tag k="name" v="Stegansmyra" />
		<tag k="natural" v="wetland" />
		<tag k="ssr:stedsnr" v="698637" />
	</node>
	<node id="-580024" lat="58.2967333375" lon="7.10686665823">
		<tag k="name" v="Gaustadduken" />
		<tag k="natural" v="wetland" />
		<tag k="ssr:stedsnr" v="698736" />
	</node>
	<node id="-584118" lat="58.3280194486" lon="7.00393611614">
		<tag k="name" v="Buvollan" />
		<tag k="place" v="locality" />
		<tag k="ssr:stedsnr" v="820046" />
	</node>
	<node id="-580015" lat="58.3491861143" lon="6.98740555516">
		<tag k="name" v="Åsesteinen" />
		<tag k="natural" v="stone" />
		<tag k="ssr:stedsnr" v="698438" />
	</node>
	<node id="-580013" lat="58.3901805535" lon="7.00468054712">
		<tag k="name" v="Stora-myr" />
		<tag k="natural" v="wetland" />
		<tag k="ssr:stedsnr" v="698433" />
	</node>
	<node id="-584105" lat="58.3978666696" lon="6.9825333394">
		<tag k="name" v="Blaudekjerr" />
		<tag k="natural" v="wetland" />
		<tag k="ssr:stedsnr" v="819434" />
	</node>
	<node id="-580008" lat="58.2326055516" lon="6.81577499698">
		<tag k="name" v="Langemyr" />
		<tag k="natural" v="wetland" />
		<tag k="ssr:stedsnr" v="698380" />
	</node>
	<node id="-583409" lat="58.5027888871" lon="6.92708332838">
		<tag k="name" v="Skaremyra" />
		<tag k="natural" v="wetland" />
		<tag k="ssr:stedsnr" v="581172" />
	</node>
	<node id="-580004" lat="58.3590944437" lon="6.95806110697">
		<tag k="name" v="Sedan" />
		<tag k="natural" v="wetland" />
		<tag k="ssr:stedsnr" v="698498" />
	</node>
	<node id="-580002" lat="58.3632333306" lon="6.97668888888">
		<tag k="name" v="Indramyra" />
		<tag k="natural" v="wetland" />
		<tag k="ssr:stedsnr" v="698492" />
	</node>
	<node id="-584096" lat="58.4041999969" lon="6.93092221477">
		<tag k="name" v="Hagjen" />
		<tag k="place" v="locality" />
		<tag k="ssr:stedsnr" v="819186" />
	</node>
	<node id="-584094" lat="58.3953555532" lon="7.0585500039">
		<tag k="name" v="Viamyra" />
		<tag k="natural" v="wetland" />
		<tag k="ssr:stedsnr" v="819294" />
	</node>
	<node id="-579985" lat="58.4104305559" lon="7.04570276922">
		<tag k="name" v="Myran" />
		<tag k="natural" v="wetland" />
		<tag k="ssr:stedsnr" v="698286" />
	</node>
	<node id="-584080" lat="58.3693500016" lon="6.92515000753">
		<tag k="historic" v="shieling" />
		<tag k="name" v="Solbjørstøl" />
		<tag k="place" v="locality" />
		<tag k="ssr:stedsnr" v="789440" />
	</node>
	<node id="-579981" lat="58.3314944401" lon="7.0728222143">
		<tag k="name" v="Mannemyra" />
		<tag k="natural" v="wetland" />
		<tag k="ssr:stedsnr" v="698089" />
	</node>
	<node id="-579975" lat="58.287788885" lon="6.91751111225">
		<tag k="name" v="Øyemyra" />
		<tag k="place" v="locality" />
		<tag k="ssr:stedsnr" v="698008" />
	</node>
	<node id="-581697" lat="58.6645111106" lon="7.01053888905">
		<tag k="name" v="Langamyr" />
		<tag k="natural" v="wetland" />
		<tag k="ssr:stedsnr" v="36681" />
	</node>
	<node id="-579959" lat="58.6589916637" lon="7.02248333365">
		<tag k="name" v="Bauseslåta" />
		<tag k="natural" v="wetland" />
		<tag k="ssr:stedsnr" v="521714" />
	</node>
	<node id="-579957" lat="58.5281277766" lon="6.91095832949">
		<tag k="name" v="Hauland" />
		<tag k="place" v="locality" />
		<tag k="ssr:stedsnr" v="520419" />
	</node>
	<node id="-579952" lat="58.2406583324" lon="6.94117499486">
		<tag k="name" v="Svartevassmyra" />
		<tag k="natural" v="wetland" />
		<tag k="ssr:stedsnr" v="517020" />
	</node>
	<node id="-579949" lat="58.3573388922" lon="6.95459999318">
		<tag k="name" v="Ingvaldsmyra" />
		<tag k="natural" v="wetland" />
		<tag k="ssr:stedsnr" v="516521" />
	</node>
	<node id="-579940" lat="58.4176722234" lon="7.02638055004">
		<tag k="name" v="Øygardsmyra" />
		<tag k="natural" v="wetland" />
		<tag k="ssr:stedsnr" v="516027" />
	</node>
	<node id="-584031" lat="58.4754361138" lon="6.90540832832">
		<tag k="name" v="Stormyr" />
		<tag k="natural" v="wetland" />
		<tag k="ssr:stedsnr" v="764795" />
	</node>
	<node id="-581956" lat="58.5434611079" lon="6.90836111596">
		<tag k="name" v="Robersmyr" />
		<tag k="natural" v="wetland" />
		<tag k="ssr:stedsnr" v="96689" />
	</node>
	<node id="-583999" lat="58.4923388869" lon="7.05863888335">
		<tag k="name" v="Heihommyr" />
		<tag k="natural" v="wetland" />
		<tag k="ssr:stedsnr" v="764420" />
	</node>
	<node id="-581932" lat="58.4458972255" lon="7.05241944123">
		<tag k="name" v="Såpemyra" />
		<tag k="natural" v="wetland" />
		<tag k="ssr:stedsnr" v="96231" />
	</node>
	<node id="-583979" lat="58.4383111104" lon="6.91209722935">
		<tag k="name" v="Smådalen" />
		<tag k="natural" v="wetland" />
		<tag k="ssr:stedsnr" v="763990" />
	</node>
	<node id="-583972" lat="58.657394441" lon="6.94501111428">
		<tag k="name" v="Ruståkervollen" />
		<tag k="place" v="locality" />
		<tag k="ssr:stedsnr" v="763799" />
	</node>
	<node id="-583968" lat="58.6679305586" lon="6.98738333499">
		<tag k="name" v="Øvrehagen" />
		<tag k="place" v="locality" />
		<tag k="ssr:stedsnr" v="763761" />
	</node>
	<node id="-581918" lat="58.5562388875" lon="6.85919443771">
		<tag k="name" v="Drotneskjerret" />
		<tag k="natural" v="wetland" />
		<tag k="ssr:stedsnr" v="96279" />
	</node>
	<node id="-583963" lat="58.5274583312" lon="6.92474166761">
		<tag k="name" v="Fiskevemyra" />
		<tag k="natural" v="wetland" />
		<tag k="ssr:stedsnr" v="763443" />
	</node>
	<node id="-582673" lat="58.49435278" lon="7.03158333666">
		<tag k="name" v="Siristø" />
		<tag k="natural" v="wetland" />
		<tag k="ssr:stedsnr" v="339211" />
	</node>
	<node id="-579858" lat="58.4087583377" lon="7.02384444807">
		<tag k="name" v="Kindvaskjerra" />
		<tag k="natural" v="wetland" />
		<tag k="ssr:stedsnr" v="455037" />
	</node>
	<node id="-579848" lat="58.5182083359" lon="7.03502777763">
		<tag k="name" v="Åremyra" />
		<tag k="natural" v="wetland" />
		<tag k="ssr:stedsnr" v="519076" />
	</node>
	<node id="-579842" lat="58.4196999967" lon="6.94985833259">
		<tag k="name" v="Austjordet" />
		<tag k="place" v="locality" />
		<tag k="ssr:stedsnr" v="517463" />
	</node>
	<node id="-579836" lat="58.2302083297" lon="6.81278056316">
		<tag k="name" v="Steggemyra" />
		<tag k="natural" v="wetland" />
		<tag k="ssr:stedsnr" v="517346" />
	</node>
	<node id="-581879" lat="58.3147388911" lon="7.0026916593">
		<tag k="name" v="Hågansmyra" />
		<tag k="natural" v="wetland" />
		<tag k="ssr:stedsnr" v="92692" />
	</node>
	<node id="-583926" lat="58.6732194438" lon="7.01415555007">
		<tag k="name" v="Furulunnen" />
		<tag k="place" v="locality" />
		<tag k="ssr:stedsnr" v="763046" />
	</node>
	<node id="-579829" lat="58.2694333372" lon="7.0397555568">
		<tag k="name" v="Dyblemyra" />
		<tag k="natural" v="wetland" />
		<tag k="ssr:stedsnr" v="517159" />
	</node>
	<node id="-581876" lat="58.310822225" lon="6.89229444365">
		<tag k="name" v="Øvre Øygardsmyra" />
		<tag k="natural" v="wetland" />
		<tag k="ssr:stedsnr" v="92572" />
	</node>
	<node id="-583915" lat="58.4969777787" lon="6.88570832929">
		<tag k="name" v="Radeslåtta" />
		<tag k="natural" v="wetland" />
		<tag k="ssr:stedsnr" v="763123" />
	</node>
	<node id="-583908" lat="58.2735250019" lon="6.93161667007">
		<tag k="name" v="Langemyra" />
		<tag k="natural" v="wetland" />
		<tag k="ssr:stedsnr" v="760975" />
	</node>
	<node id="-581858" lat="58.2217111095" lon="6.79355833807">
		<tag k="name" v="Myran" />
		<tag k="natural" v="wetland" />
		<tag k="ssr:stedsnr" v="92331" />
	</node>
	<node id="-583903" lat="58.2537416712" lon="6.98907500522">
		<tag k="name" v="Torvmyra" />
		<tag k="natural" v="wetland" />
		<tag k="ssr:stedsnr" v="760243" />
	</node>
	<node id="-581842" lat="58.2480694407" lon="6.94582222107">
		<tag k="name" v="Indre Slettan" />
		<tag k="natural" v="wetland" />
		<tag k="ssr:stedsnr" v="92021" />
	</node>
	<node id="-579793" lat="58.3440166703" lon="6.9521111172">
		<tag k="name" v="Toskesteinen" />
		<tag k="natural" v="stone" />
		<tag k="ssr:stedsnr" v="516369" />
	</node>
	<node id="-579792" lat="58.3591000042" lon="7.02224444454">
		<tag k="name" v="Bjønndalsmyra" />
		<tag k="natural" v="wetland" />
		<tag k="ssr:stedsnr" v="516363" />
	</node>
	<node id="-581839" lat="58.2876777804" lon="6.90040833533">
		<tag k="name" v="Dugan" />
		<tag k="place" v="locality" />
		<tag k="ssr:stedsnr" v="92006" />
	</node>
	<node id="-581832" lat="58.3534527798" lon="7.00061943944">
		<tag k="name" v="Studemyr" />
		<tag k="natural" v="wetland" />
		<tag k="ssr:stedsnr" v="91475" />
	</node>
	<node id="-583878" lat="58.3914861092" lon="7.02109722374">
		<tag k="name" v="Bukshellerura" />
		<tag k="natural" v="scree" />
		<tag k="ssr:stedsnr" v="759448" />
	</node>
	<node id="-583877" lat="58.3507277754" lon="6.99759165883">
		<tag k="name" v="Krossmyr" />
		<tag k="natural" v="wetland" />
		<tag k="ssr:stedsnr" v="759447" />
	</node>
	<node id="-581664" lat="58.4878972184" lon="6.92549443859">
		<tag k="name" v="Gaukesteinen" />
		<tag k="natural" v="stone" />
		<tag k="ssr:stedsnr" v="35767" />
	</node>
	<node id="-579770" lat="58.4062888876" lon="6.95211943632">
		<tag k="name" v="Grønemyr" />
		<tag k="natural" v="wetland" />
		<tag k="ssr:stedsnr" v="516181" />
	</node>
	<node id="-579768" lat="58.4031722208" lon="6.96391111311">
		<tag k="name" v="Moltemyr" />
		<tag k="natural" v="wetland" />
		<tag k="ssr:stedsnr" v="516176" />
	</node>
	<node id="-581815" lat="58.3745666687" lon="7.07715277894">
		<tag k="name" v="Berstølmyra" />
		<tag k="natural" v="wetland" />
		<tag k="ssr:stedsnr" v="91306" />
	</node>
	<node id="-579765" lat="58.4110416662" lon="6.95030555315">
		<tag k="name" v="Storamyra" />
		<tag k="natural" v="wetland" />
		<tag k="ssr:stedsnr" v="516135" />
	</node>
	<node id="-579762" lat="58.333425" lon="7.04044167114">
		<tag k="name" v="Karten" />
		<tag k="natural" v="wetland" />
		<tag k="ssr:stedsnr" v="516104" />
	</node>
	<node id="-579761" lat="58.2841055554" lon="6.85271111496">
		<tag k="name" v="Verda" />
		<tag k="natural" v="wetland" />
		<tag k="ssr:stedsnr" v="516098" />
	</node>
	<node id="-583855" lat="58.3252499998" lon="7.06531944988">
		<tag k="name" v="Skarstøl" />
		<tag k="natural" v="wetland" />
		<tag k="ssr:stedsnr" v="759102" />
	</node>
	<node id="-579755" lat="58.420769445" lon="6.9688472217">
		<tag k="name" v="Stemmen" />
		<tag k="natural" v="wetland" />
		<tag k="ssr:stedsnr" v="516076" />
	</node>
	<node id="-578929" lat="58.3935805591" lon="6.90962777398">
		<tag k="name" v="Stor myra" />
		<tag k="natural" v="wetland" />
		<tag k="ssr:stedsnr" v="152736" />
	</node>
	<node id="-583844" lat="58.2498833365" lon="6.84470556062">
		<tag k="name" v="Sigdalsmyr" />
		<tag k="natural" v="wetland" />
		<tag k="ssr:stedsnr" v="759465" />
	</node>
	<node id="-583843" lat="58.2518472262" lon="6.84398333904">
		<tag k="name" v="Randisdalmyr" />
		<tag k="natural" v="wetland" />
		<tag k="ssr:stedsnr" v="759462" />
	</node>
	<node id="-581794" lat="58.4075222247" lon="7.01958333642">
		<tag k="name" v="Sigmundslåtta" />
		<tag k="natural" v="wetland" />
		<tag k="ssr:stedsnr" v="91047" />
	</node>
	<node id="-583838" lat="58.2878527801" lon="6.96259166057">
		<tag k="name" v="Lille Motland" />
		<tag k="natural" v="wetland" />
		<tag k="ssr:stedsnr" v="759027" />
	</node>
	<node id="-583834" lat="58.2518916705" lon="6.95796110606">
		<tag k="name" v="Kartane" />
		<tag k="natural" v="wetland" />
		<tag k="ssr:stedsnr" v="759009" />
	</node>
	<node id="-583828" lat="58.3658333348" lon="6.98490555789">
		<tag k="name" v="Heddemyra" />
		<tag k="natural" v="wetland" />
		<tag k="ssr:stedsnr" v="758403" />
	</node>
	<node id="-583827" lat="58.379919446" lon="7.05158333238">
		<tag k="name" v="Hunnemyra" />
		<tag k="natural" v="wetland" />
		<tag k="ssr:stedsnr" v="758401" />
	</node>
	<node id="-579730" lat="58.3425249988" lon="6.98480555639">
		<tag k="name" v="Øvre Godmyr" />
		<tag k="natural" v="wetland" />
		<tag k="ssr:stedsnr" v="516465" />
	</node>
	<node id="-583823" lat="58.4059027763" lon="6.94962777156">
		<tag k="name" v="Stedjan" />
		<tag k="place" v="locality" />
		<tag k="ssr:stedsnr" v="758232" />
	</node>
	<node id="-583804" lat="58.4369166706" lon="6.94783056079">
		<tag k="name" v="Hunskjerret" />
		<tag k="natural" v="wetland" />
		<tag k="ssr:stedsnr" v="642884" />
	</node>
	<node id="-579706" lat="58.5234499957" lon="6.9658333338">
		<tag k="name" v="Fiskesteinen" />
		<tag k="natural" v="stone" />
		<tag k="ssr:stedsnr" v="399019" />
	</node>
	<node id="-579704" lat="58.5310666661" lon="6.97270833307">
		<tag k="name" v="Kyrkjemyra" />
		<tag k="natural" v="wetland" />
		<tag k="ssr:stedsnr" v="399015" />
	</node>
	<node id="-579700" lat="58.4213694481" lon="6.95262222156">
		<tag k="name" v="Gloppa" />
		<tag k="natural" v="wetland" />
		<tag k="ssr:stedsnr" v="395434" />
	</node>
	<node id="-583787" lat="58.5042333298" lon="6.85855555335">
		<tag k="name" v="Stean" />
		<tag k="natural" v="wetland" />
		<tag k="ssr:stedsnr" v="642727" />
	</node>
	<node id="-579685" lat="58.4123805574" lon="7.099822224">
		<tag k="name" v="Solemyran" />
		<tag k="natural" v="wetland" />
		<tag k="ssr:stedsnr" v="394405" />
	</node>
	<node id="-583762" lat="58.4845972229" lon="7.01077499438">
		<tag k="name" v="Torvmyra" />
		<tag k="place" v="locality" />
		<tag k="ssr:stedsnr" v="642500" />
	</node>
	<node id="-583759" lat="58.5987055588" lon="6.93048332924">
		<tag k="name" v="Brodeslåtten" />
		<tag k="natural" v="wetland" />
		<tag k="ssr:stedsnr" v="642484" />
	</node>
	<node id="-581709" lat="58.5167055517" lon="6.82779722475">
		<tag k="name" v="Hella i skaret" />
		<tag k="natural" v="stone" />
		<tag k="ssr:stedsnr" v="36751" />
	</node>
	<node id="-582667" lat="58.5108111095" lon="6.902352777">
		<tag k="name" v="Kjerran" />
		<tag k="natural" v="wetland" />
		<tag k="ssr:stedsnr" v="339175" />
	</node>
	<node id="-581674" lat="58.5138027744" lon="7.02280833459">
		<tag k="name" v="Kvæven" />
		<tag k="natural" v="wetland" />
		<tag k="ssr:stedsnr" v="35881" />
	</node>
	<node id="-579623" lat="58.2764416664" lon="6.91316388544">
		<tag k="name" v="Steggjan" />
		<tag k="natural" v="wetland" />
		<tag k="ssr:stedsnr" v="335956" />
	</node>
	<node id="-583713" lat="58.664430552" lon="6.98355000064">
		<tag k="name" v="Plasse" />
		<tag k="place" v="locality" />
		<tag k="ssr:stedsnr" v="641908" />
	</node>
	<node id="-583712" lat="58.6622749983" lon="6.97749444201">
		<tag k="name" v="Treskomyre" />
		<tag k="natural" v="wetland" />
		<tag k="ssr:stedsnr" v="641899" />
	</node>
	<node id="-583701" lat="58.4382249987" lon="6.90591389707">
		<tag k="name" v="Stolpemyr" />
		<tag k="natural" v="wetland" />
		<tag k="ssr:stedsnr" v="641702" />
	</node>
	<node id="-579601" lat="58.4087305575" lon="7.03781944797">
		<tag k="name" v="Åskjerra" />
		<tag k="natural" v="wetland" />
		<tag k="ssr:stedsnr" v="334323" />
	</node>
	<node id="-581642" lat="58.5973305571" lon="6.9268527818">
		<tag k="name" v="Sjustakkslåta" />
		<tag k="natural" v="wetland" />
		<tag k="ssr:stedsnr" v="35567" />
	</node>
	<node id="-579593" lat="58.3929722178" lon="6.95743888094">
		<tag k="name" v="Litlemonen" />
		<tag k="place" v="locality" />
		<tag k="ssr:stedsnr" v="334204" />
>>>>>>> e1d4bc35ff8a6074a6f2e91616a996b547c36f15
	</node>
</osm>
