<?xml version="1.0" encoding="UTF-8"?>
<osm version="0.6" generator="osmapis">
	<node lat="58.24272499864067" lon="6.949044446514805" id="-28974">
		<tag k="alt_name" v="Londalsvatnet" />
		<tag k="name" v="Londalsvatn" />
		<tag k="natural" v="water" />
		<tag k="ssr:stedsnr" v="147" />
	</node>
	<node lat="58.27000555779788" lon="6.761675007908612" id="-28976">
		<tag k="alt_name" v="Hestesprangvatna" />
		<tag k="name" v="Store Hestesprangvann" />
		<tag k="natural" v="water" />
		<tag k="ssr:stedsnr" v="306" />
	</node>
	<node lat="58.530227777747214" lon="6.830138888634736" id="-28977">
		<tag k="alt_name" v="Målmevatnan, øvre" />
		<tag k="name" v="Øvre Målmesvatnet" />
		<tag k="natural" v="water" />
		<tag k="ssr:stedsnr" v="354" />
		<tag k="water" v="lake" />
	</node>
	<node lat="58.302914215490446" lon="6.879166365986178" id="-28982">
		<tag k="alt_name" v="Sibbuvatnet" />
		<tag k="name" v="Sibbuvannet" />
		<tag k="natural" v="water" />
		<tag k="ssr:stedsnr" v="262" />
		<tag k="water" v="lake" />
	</node>
	<node lat="58.31746666411227" lon="6.901852772201038" id="-28985">
		<tag k="name" v="Sandvatn" />
		<tag k="natural" v="water" />
		<tag k="ssr:stedsnr" v="495" />
		<tag k="water" v="lake" />
	</node>
	<node lat="58.69058333505587" lon="6.9547361163550265" id="-28987">
		<tag k="alt_name" v="Austøla" />
		<tag k="loc_name" v="Austdøla" />
		<tag k="name" v="Ausdøla" />
		<tag k="ssr:stedsnr" v="603" />
		<tag k="waterway" v="river" />
	</node>
	<node lat="58.60912499889206" lon="6.911233326882616" id="-28992">
		<tag k="alt_name" v="Kvitingen" />
		<tag k="name" v="Lomstjødna" />
		<tag k="natural" v="water" />
		<tag k="ssr:stedsnr" v="658" />
	</node>
	<node lat="58.33024999878426" lon="7.085638892257536" id="-28993">
		<tag k="alt_name" v="Grunnevatnet" />
		<tag k="name" v="Grunnevatn" />
		<tag k="natural" v="water" />
		<tag k="ssr:stedsnr" v="703" />
		<tag k="water" v="lake" />
	</node>
	<node lat="58.3535555542139" lon="7.092944447075191" id="-28997">
		<tag k="name" v="Årli-Sandvatn" />
		<tag k="natural" v="water" />
		<tag k="ssr:stedsnr" v="711" />
		<tag k="water" v="lake" />
	</node>
	<node lat="58.66958333569723" lon="7.0614333391791595" id="-28999">
		<tag k="alt_name" v="Knabetjørni" />
		<tag k="name" v="Store Knabetjødn" />
		<tag k="natural" v="water" />
		<tag k="ssr:stedsnr" v="1308" />
	</node>
	<node lat="58.378994445827956" lon="6.923461103387076" id="-29008">
		<tag k="name" v="Lomstjødn" />
		<tag k="natural" v="water" />
		<tag k="ssr:stedsnr" v="30630" />
	</node>
	<node lat="58.293216662160994" lon="6.82362221686069" id="-29017">
		<tag k="name" v="Frøitlandsfossen" />
		<tag k="natural" v="waterfall" />
		<tag k="ssr:stedsnr" v="31107" />
	</node>
	<node lat="58.30578611206924" lon="6.895127773572381" id="-29027">
		<tag k="name" v="Poddetjønn" />
		<tag k="natural" v="water" />
		<tag k="ssr:stedsnr" v="31608" />
	</node>
	<node lat="58.28568333168057" lon="7.069563887590132" id="-29030">
		<tag k="name" v="Osen" />
		<tag k="natural" v="bay" />
		<tag k="ssr:stedsnr" v="31964" />
	</node>
	<node lat="58.43930278084146" lon="7.0494749920852104" id="-29038">
		<tag k="name" v="Jentepytten" />
		<tag k="natural" v="water" />
		<tag k="ssr:stedsnr" v="35207" />
		<tag k="water" v="pond" />
	</node>
	<node lat="58.598844440793" lon="6.915316666303231" id="-29058">
		<tag k="name" v="Kvednebekken" />
		<tag k="ssr:stedsnr" v="35563" />
		<tag k="waterway" v="stream" />
	</node>
	<node lat="58.42549999865913" lon="7.0155583358802005" id="-29062">
		<tag k="name" v="Henriksåna" />
		<tag k="ssr:stedsnr" v="35421" />
		<tag k="waterway" v="stream" />
	</node>
	<node lat="58.64488611053189" lon="7.028549994826003" id="-29079">
		<tag k="alt_name" v="Smedsvatnet, litle;Smidsvatnan" />
		<tag k="name" v="Smedsvatnet, l" />
		<tag k="natural" v="water" />
		<tag k="ssr:stedsnr" v="36713" />
		<tag k="water" v="lake" />
	</node>
	<node lat="58.528886113402976" lon="7.04854166338145" id="-29092">
		<tag k="alt_name" v="Stemtjørni" />
		<tag k="name" v="Vordalsstemtjødna" />
		<tag k="natural" v="water" />
		<tag k="ssr:stedsnr" v="60124" />
	</node>
	<node lat="58.259813888511616" lon="6.784197214228214" id="-29093">
		<tag k="alt_name" v="Sagevatnet" />
		<tag k="name" v="Sagevannet" />
		<tag k="natural" v="water" />
		<tag k="ssr:stedsnr" v="60279" />
	</node>
	<node lat="58.26542221873732" lon="6.952800008023185" id="-29095">
		<tag k="alt_name" v="Holevatnet" />
		<tag k="name" v="Holevatn" />
		<tag k="natural" v="water" />
		<tag k="ssr:stedsnr" v="60301" />
	</node>
	<node lat="58.29004721886456" lon="7.078622219950074" id="-29096">
		<tag k="alt_name" v="Gaukdalsvatnet" />
		<tag k="name" v="Gaustadvannet" />
		<tag k="natural" v="water" />
		<tag k="ssr:stedsnr" v="60502" />
		<tag k="water" v="lake" />
	</node>
	<node lat="58.25166666654499" lon="6.912208333728759" id="-29097">
		<tag k="alt_name" v="Stallelandsvatnet" />
		<tag k="name" v="Staddelandsvatn" />
		<tag k="natural" v="water" />
		<tag k="ssr:stedsnr" v="61107" />
	</node>
	<node lat="58.740055557604315" lon="7.1607500065924565" id="-29098">
		<tag k="alt_name" v="Matholvatnet" />
		<tag k="name" v="Matholvatn" />
		<tag k="natural" v="water" />
		<tag k="ssr:stedsnr" v="61307" />
		<tag k="water" v="lake" />
	</node>
	<node lat="58.708766670127225" lon="7.022149998109422" id="-29106">
		<tag k="alt_name" v="Fossetjødn" />
		<tag k="name" v="Skarketjørn" />
		<tag k="natural" v="water" />
		<tag k="ssr:stedsnr" v="61325" />
	</node>
	<node lat="58.58504166865917" lon="6.97549722245139" id="-29108">
		<tag k="alt_name" v="Tjørnan" />
		<tag k="name" v="Tjødnan" />
		<tag k="natural" v="water" />
		<tag k="ssr:stedsnr" v="61392" />
	</node>
	<node lat="58.54311111409451" lon="6.8438527823793684" id="-29111">
		<tag k="name" v="Stemvatnet" />
		<tag k="natural" v="water" />
		<tag k="ssr:stedsnr" v="61721" />
	</node>
	<node lat="58.63795555700373" lon="7.001924996872905" id="-29115">
		<tag k="alt_name" v="Stemtjørni" />
		<tag k="name" v="Stemtjødna" />
		<tag k="natural" v="water" />
		<tag k="ssr:stedsnr" v="62471" />
	</node>
	<node lat="58.68097499963469" lon="6.878338895653548" id="-29118">
		<tag k="alt_name" v="Hellersvatnet" />
		<tag k="name" v="Heddevatn" />
		<tag k="natural" v="water" />
		<tag k="ssr:stedsnr" v="242594" />
		<tag k="water" v="lake" />
	</node>
	<node lat="58.58631944093998" lon="6.923708329201273" id="-29119">
		<tag k="alt_name" v="Stølstjørni" />
		<tag k="name" v="Stølstjødna" />
		<tag k="natural" v="water" />
		<tag k="ssr:stedsnr" v="242668" />
	</node>
	<node lat="58.50914444035491" lon="7.080444444379381" id="-29121">
		<tag k="alt_name" v="Klomretjørni" />
		<tag k="name" v="Klamretjødna" />
		<tag k="natural" v="water" />
		<tag k="ssr:stedsnr" v="243071" />
	</node>
	<node lat="58.42680277809457" lon="6.8915361184831205" id="-29122">
		<tag k="alt_name" v="Lauvåstjørn" />
		<tag k="name" v="Lauvåstjønn" />
		<tag k="natural" v="water" />
		<tag k="ssr:stedsnr" v="243093" />
	</node>
	<node lat="58.24179999913734" lon="6.886566661438166" id="-29124">
		<tag k="alt_name" v="Ålekjervatnet" />
		<tag k="name" v="Åljersvatn" />
		<tag k="natural" v="water" />
		<tag k="ssr:stedsnr" v="243122" />
		<tag k="water" v="lake" />
	</node>
	<node lat="58.23665000219174" lon="6.727916665498498" id="-29125">
		<tag k="name" v="Lona" />
		<tag k="natural" v="water" />
		<tag k="ssr:stedsnr" v="243130" />
	</node>
	<node lat="58.26378888759403" lon="6.778263894267447" id="-29128">
		<tag k="alt_name" v="Langevatnet" />
		<tag k="name" v="Langevann" />
		<tag k="natural" v="water" />
		<tag k="ssr:stedsnr" v="243274" />
	</node>
	<node lat="58.67755277882815" lon="7.152583337961001" id="-29131">
		<tag k="alt_name" v="Kyrevatn, øvre" />
		<tag k="name" v="Øvre Kyrevatn" />
		<tag k="natural" v="water" />
		<tag k="ssr:stedsnr" v="243291" />
		<tag k="water" v="lake" />
	</node>
	<node lat="58.71728888920247" lon="6.9915138860607815" id="-29132">
		<tag k="alt_name" v="Øyevatnet" />
		<tag k="name" v="Øyevatn" />
		<tag k="natural" v="water" />
		<tag k="ssr:stedsnr" v="243335" />
		<tag k="water" v="lake" />
	</node>
	<node lat="58.724833334295646" lon="6.996361110091845" id="-29133">
		<tag k="alt_name" v="Venlivatnet" />
		<tag k="name" v="Venelivatnet" />
		<tag k="natural" v="water" />
		<tag k="ssr:stedsnr" v="243311" />
		<tag k="water" v="lake" />
	</node>
	<node lat="58.49279166895962" lon="7.0907888956951926" id="-29134">
		<tag k="alt_name" v="Grunnetjørnin" />
		<tag k="name" v="Grunnetjødnan" />
		<tag k="natural" v="water" />
		<tag k="ssr:stedsnr" v="243317" />
		<tag k="water" v="lake" />
	</node>
	<node lat="58.43868333340303" lon="7.065569448194458" id="-29136">
		<tag k="alt_name" v="Jotjørn" />
		<tag k="name" v="Jotjødn" />
		<tag k="natural" v="water" />
		<tag k="ssr:stedsnr" v="243358" />
	</node>
	<node lat="58.246136575306025" lon="7.007903613389231" id="-29140">
		<tag k="alt_name" v="Glovatnet" />
		<tag k="name" v="Nordhellelonene" />
		<tag k="natural" v="water" />
		<tag k="ssr:stedsnr" v="243397" />
	</node>
	<node lat="58.544983330352224" lon="7.0169861100437245" id="-29141">
		<tag k="alt_name" v="Sveimelitjørni" />
		<tag k="name" v="Sveimelitjødna" />
		<tag k="natural" v="water" />
		<tag k="ssr:stedsnr" v="243398" />
	</node>
	<node lat="58.37570278140981" lon="6.923141666158375" id="-29145">
		<tag k="alt_name" v="Djupevatnet" />
		<tag k="name" v="Djupevatn" />
		<tag k="natural" v="water" />
		<tag k="ssr:stedsnr" v="243430" />
	</node>
	<node lat="58.62578333382331" lon="6.840086109933451" id="-29150">
		<tag k="alt_name" v="Maretjørni" />
		<tag k="name" v="Maretjødna" />
		<tag k="natural" v="water" />
		<tag k="ssr:stedsnr" v="243697" />
	</node>
	<node lat="58.4216999963638" lon="7.0935250071347635" id="-29151">
		<tag k="alt_name" v="Skylstadvatn" />
		<tag k="name" v="Skyldstadvatnet" />
		<tag k="natural" v="water" />
		<tag k="ssr:stedsnr" v="243672" />
		<tag k="water" v="lake" />
	</node>
	<node lat="58.53828610717548" lon="6.823586106723478" id="-29154">
		<tag k="alt_name" v="Ljostjørni" />
		<tag k="name" v="Jostjødna" />
		<tag k="natural" v="water" />
		<tag k="ssr:stedsnr" v="243731" />
	</node>
	<node lat="58.765263886983945" lon="7.018800003849898" id="-29155">
		<tag k="name" v="Landsløk" />
		<tag k="natural" v="water" />
		<tag k="ssr:stedsnr" v="244326" />
		<tag k="water" v="lake" />
	</node>
	<node lat="58.81652221809761" lon="7.141861109024164" id="-29156">
		<tag k="alt_name" v="Nera Holmevatn;Holmevatnet, l" />
		<tag k="name" v="Holmevatn" />
		<tag k="natural" v="water" />
		<tag k="ssr:stedsnr" v="244351" />
		<tag k="water" v="lake" />
	</node>
	<node lat="58.425830558378244" lon="7.0217972176240195" id="-29159">
		<tag k="name" v="Henrikstjønn" />
		<tag k="natural" v="water" />
		<tag k="ssr:stedsnr" v="91008" />
	</node>
	<node lat="58.32856666642259" lon="7.077463881569494" id="-29164">
		<tag k="name" v="Nordtjønn" />
		<tag k="natural" v="water" />
		<tag k="ssr:stedsnr" v="91083" />
	</node>
	<node lat="58.323699998487456" lon="7.070736104461609" id="-29166">
		<tag k="name" v="Krokevatn" />
		<tag k="natural" v="water" />
		<tag k="ssr:stedsnr" v="91087" />
		<tag k="water" v="lake" />
	</node>
	<node lat="58.41993888663061" lon="7.065238885044746" id="-29171">
		<tag k="name" v="Kjærdalstjønn" />
		<tag k="natural" v="water" />
		<tag k="ssr:stedsnr" v="91376" />
	</node>
	<node lat="58.31561944598149" lon="6.855605559808706" id="-29172">
		<tag k="name" v="Stemvatn" />
		<tag k="natural" v="water" />
		<tag k="ssr:stedsnr" v="91426" />
	</node>
	<node lat="58.29764166485615" lon="6.825252774158216" id="-29177">
		<tag k="name" v="Lonen" />
		<tag k="natural" v="water" />
		<tag k="ssr:stedsnr" v="92102" />
	</node>
	<node lat="58.34180833249732" lon="6.959688896484307" id="-29179">
		<tag k="name" v="Kvednhushølen" />
		<tag k="place" v="locality" />
		<tag k="ssr:stedsnr" v="92122" />
	</node>
	<node lat="58.32280555129952" lon="6.95881111084445" id="-29182">
		<tag k="name" v="Gullestadneset" />
		<tag k="natural" v="cape" />
		<tag k="ssr:stedsnr" v="92324" />
	</node>
	<node lat="58.30972222012095" lon="6.897183330864437" id="-29192">
		<tag k="name" v="Solbjørgtjønn" />
		<tag k="natural" v="water" />
		<tag k="ssr:stedsnr" v="92567" />
	</node>
	<node lat="58.263127780944885" lon="6.793736117930637" id="-29196">
		<tag k="name" v="Paradistjønna" />
		<tag k="natural" v="water" />
		<tag k="ssr:stedsnr" v="92880" />
	</node>
	<node lat="58.28282778155439" lon="7.073127780794077" id="-29198">
		<tag k="name" v="Kilsundet" />
		<tag k="natural" v="strait" />
		<tag k="ssr:stedsnr" v="92961" />
	</node>
	<node lat="58.280583329146346" lon="7.0630416658402995" id="-29199">
		<tag k="name" v="Flottjønna" />
		<tag k="natural" v="water" />
		<tag k="ssr:stedsnr" v="92963" />
	</node>
	<node lat="58.42806666941375" lon="7.063811115935055" id="-29214">
		<tag k="name" v="Kjærdalstjødna" />
		<tag k="natural" v="water" />
		<tag k="ssr:stedsnr" v="96070" />
	</node>
	<node lat="58.430572223696934" lon="7.080813887682342" id="-29215">
		<tag k="name" v="Torstjødn" />
		<tag k="natural" v="water" />
		<tag k="ssr:stedsnr" v="96078" />
	</node>
	<node lat="58.46148333787614" lon="7.007388891110493" id="-29233">
		<tag k="name" v="Ydra Jødelsvatnet" />
		<tag k="natural" v="water" />
		<tag k="ssr:stedsnr" v="96402" />
		<tag k="water" v="lake" />
	</node>
	<node lat="58.4881666641316" lon="6.9679388887838805" id="-29245">
		<tag k="name" v="Aurebekk" />
		<tag k="ssr:stedsnr" v="96571" />
		<tag k="waterway" v="stream" />
	</node>
	<node lat="58.53518332937237" lon="6.842061106120031" id="-29250">
		<tag k="name" v="Litjødnbekken" />
		<tag k="ssr:stedsnr" v="96760" />
		<tag k="waterway" v="stream" />
	</node>
	<node lat="58.51372500242556" lon="6.836536104620738" id="-29253">
		<tag k="name" v="Smalavatnet" />
		<tag k="natural" v="water" />
		<tag k="ssr:stedsnr" v="96769" />
	</node>
	<node lat="58.659658336994184" lon="6.950066672995621" id="-29259">
		<tag k="name" v="Nesan" />
		<tag k="natural" v="cape" />
		<tag k="ssr:stedsnr" v="96903" />
	</node>
	<node lat="58.44813611448358" lon="7.073566661069161" id="-29287">
		<tag k="alt_name" v="Fisketjørn" />
		<tag k="name" v="Fisketjødn" />
		<tag k="natural" v="water" />
		<tag k="ssr:stedsnr" v="121370" />
	</node>
	<node lat="58.29944167088332" lon="6.824900004354126" id="-29288">
		<tag k="alt_name" v="Neset" />
		<tag k="name" v="Nesan" />
		<tag k="natural" v="cape" />
		<tag k="ssr:stedsnr" v="121264" />
	</node>
	<node lat="58.5723611072783" lon="7.029327776086991" id="-29291">
		<tag k="name" v="Midtstemmen" />
		<tag k="natural" v="water" />
		<tag k="ssr:stedsnr" v="121410" />
	</node>
	<node lat="58.584861108419666" lon="6.857944436208685" id="-29296">
		<tag k="alt_name" v="Åneborrvatnet" />
		<tag k="name" v="Åneborvatnet" />
		<tag k="natural" v="water" />
		<tag k="ssr:stedsnr" v="121716" />
		<tag k="water" v="lake" />
	</node>
	<node lat="58.67092499677894" lon="6.875925001410182" id="-29298">
		<tag k="name" v="Vædingsvatnan" />
		<tag k="natural" v="water" />
		<tag k="ssr:stedsnr" v="121604" />
	</node>
	<node lat="58.68343055321638" lon="6.960999993234581" id="-29299">
		<tag k="name" v="Murotjørni" />
		<tag k="natural" v="water" />
		<tag k="ssr:stedsnr" v="121629" />
	</node>
	<node lat="58.42762777643525" lon="7.073419444867523" id="-29300">
		<tag k="alt_name" v="Kjerrdalsvatnet" />
		<tag k="name" v="Kjærdalsvatn" />
		<tag k="natural" v="water" />
		<tag k="ssr:stedsnr" v="121671" />
		<tag k="water" v="lake" />
	</node>
	<node lat="58.2997499961439" lon="6.827294452844034" id="-29307">
		<tag k="name" v="Furuneset" />
		<tag k="natural" v="cape" />
		<tag k="ssr:stedsnr" v="152133" />
	</node>
	<node lat="58.29450833452007" lon="6.825561119205383" id="-29309">
		<tag k="name" v="Steinsvika" />
		<tag k="natural" v="bay" />
		<tag k="ssr:stedsnr" v="152135" />
	</node>
	<node lat="58.31465278045289" lon="6.852391674543811" id="-29321">
		<tag k="name" v="Skrubbetjønn" />
		<tag k="natural" v="water" />
		<tag k="ssr:stedsnr" v="152403" />
	</node>
	<node lat="58.308647225999245" lon="6.777797226692361" id="-29324">
		<tag k="name" v="Oddetjønn" />
		<tag k="natural" v="water" />
		<tag k="ssr:stedsnr" v="152453" />
	</node>
	<node lat="58.265683336352325" lon="6.783344442732205" id="-29327">
		<tag k="name" v="Lonen" />
		<tag k="natural" v="water" />
		<tag k="ssr:stedsnr" v="152152" />
		<tag k="water" v="lake" />
	</node>
	<node lat="58.31639444855925" lon="6.876216673921228" id="-29342">
		<tag k="name" v="Lillemontjønn" />
		<tag k="natural" v="water" />
		<tag k="ssr:stedsnr" v="152559" />
	</node>
	<node lat="58.296402777738855" lon="7.072019436189722" id="-29352">
		<tag k="name" v="Viga" />
		<tag k="natural" v="bay" />
		<tag k="ssr:stedsnr" v="152954" />
	</node>
	<node lat="58.28295277592709" lon="7.056136108450467" id="-29354">
		<tag k="name" v="Svartevannet" />
		<tag k="natural" v="water" />
		<tag k="ssr:stedsnr" v="152971" />
		<tag k="water" v="lake" />
	</node>
	<node lat="58.257038884868486" lon="6.765333335574703" id="-29358">
		<tag k="name" v="Fiskelausvannet" />
		<tag k="natural" v="water" />
		<tag k="ssr:stedsnr" v="153915" />
		<tag k="water" v="lake" />
	</node>
	<node lat="58.258699999721436" lon="6.785861107153285" id="-29359">
		<tag k="name" v="Neset" />
		<tag k="natural" v="cape" />
		<tag k="ssr:stedsnr" v="153918" />
	</node>
	<node lat="58.595677780436006" lon="6.940261103916926" id="-29368">
		<tag k="name" v="Holebekken" />
		<tag k="ssr:stedsnr" v="156067" />
		<tag k="waterway" v="stream" />
	</node>
	<node lat="58.48523333719804" lon="7.044052782865413" id="-29372">
		<tag k="name" v="Haddelandstemmen" />
		<tag k="place" v="locality" />
		<tag k="ssr:stedsnr" v="156354" />
	</node>
	<node lat="58.72544999755666" lon="6.970413893188432" id="-29374">
		<tag k="name" v="Kodåna" />
		<tag k="ssr:stedsnr" v="156255" />
		<tag k="waterway" v="river" />
	</node>
	<node lat="58.46895833739756" lon="7.052919452711943" id="-29377">
		<tag k="name" v="Kovevika" />
		<tag k="natural" v="bay" />
		<tag k="ssr:stedsnr" v="156402" />
	</node>
	<node lat="58.66811388894541" lon="6.961761108624017" id="-29387">
		<tag k="name" v="Tjødnebekkjen" />
		<tag k="ssr:stedsnr" v="156764" />
		<tag k="waterway" v="stream" />
	</node>
	<node lat="58.5394722263016" lon="6.841124993613422" id="-29391">
		<tag k="name" v="Lindhomkilen" />
		<tag k="natural" v="bay" />
		<tag k="ssr:stedsnr" v="156688" />
	</node>
	<node lat="58.72771944232162" lon="7.00786665974141" id="-29396">
		<tag k="name" v="Storhombekkjen" />
		<tag k="ssr:stedsnr" v="157058" />
		<tag k="waterway" v="stream" />
	</node>
	<node lat="58.675461114416414" lon="6.89653333802257" id="-29398">
		<tag k="name" v="Veretjødn" />
		<tag k="natural" v="water" />
		<tag k="ssr:stedsnr" v="157206" />
	</node>
	<node lat="58.566327774186675" lon="6.913761110521294" id="-29413">
		<tag k="name" v="Den ytre tjødna" />
		<tag k="natural" v="water" />
		<tag k="ssr:stedsnr" v="157547" />
	</node>
	<node lat="58.58234444650658" lon="7.078236116512584" id="-29433">
		<tag k="alt_name" v="Tangetjørni" />
		<tag k="name" v="Tangetjødna" />
		<tag k="natural" v="water" />
		<tag k="ssr:stedsnr" v="182402" />
	</node>
	<node lat="58.58709722605822" lon="6.97282222003961" id="-29436">
		<tag k="name" v="Smalavatnet" />
		<tag k="natural" v="water" />
		<tag k="ssr:stedsnr" v="182457" />
	</node>
	<node lat="58.396400001382695" lon="6.8935611179521254" id="-29439">
		<tag k="name" v="Godvatnet" />
		<tag k="natural" v="water" />
		<tag k="ssr:stedsnr" v="182401" />
	</node>
	<node lat="58.6689472225664" lon="6.901666659679696" id="-29443">
		<tag k="alt_name" v="Sandtjørn" />
		<tag k="name" v="Sandtjødn" />
		<tag k="natural" v="water" />
		<tag k="ssr:stedsnr" v="182600" />
	</node>
	<node lat="58.59628333562175" lon="6.947155553790331" id="-29446">
		<tag k="loc_name" v="Langevassåne" />
		<tag k="name" v="Langevassåni" />
		<tag k="ssr:stedsnr" v="182696" />
		<tag k="waterway" v="river" />
	</node>
	<node lat="58.79206116612667" lon="6.949786429921652" id="-29447">
		<tag k="name" v="Sandvatn" />
		<tag k="natural" v="water" />
		<tag k="ssr:stedsnr" v="183047" />
	</node>
	<node lat="58.72987500201184" lon="6.900763890101302" id="-29449">
		<tag k="alt_name" v="Stemvatnet" />
		<tag k="name" v="Stemvatn" />
		<tag k="natural" v="water" />
		<tag k="ssr:stedsnr" v="183500" />
	</node>
	<node lat="58.27564444219594" lon="6.820822222148868" id="-29450">
		<tag k="name" v="Fedaelva" />
		<tag k="ssr:stedsnr" v="213104" />
		<tag k="waterway" v="river" />
	</node>
	<node lat="58.29136111272731" lon="6.894683330098703" id="-29456">
		<tag k="name" v="Kvidefossen" />
		<tag k="natural" v="waterfall" />
		<tag k="ssr:stedsnr" v="213008" />
	</node>
	<node lat="58.29726111039859" lon="7.072519451742757" id="-29459">
		<tag k="name" v="Vigebekken" />
		<tag k="ssr:stedsnr" v="213032" />
		<tag k="waterway" v="stream" />
	</node>
	<node lat="58.38287221927473" lon="7.055391675132232" id="-29463">
		<tag k="name" v="Palltosktjønna" />
		<tag k="natural" v="water" />
		<tag k="ssr:stedsnr" v="213276" />
	</node>
	<node lat="58.330836111686" lon="6.881330557603245" id="-29464">
		<tag k="name" v="Simonspytten" />
		<tag k="natural" v="water" />
		<tag k="ssr:stedsnr" v="213283" />
	</node>
	<node lat="58.331519443883934" lon="6.883941658647514" id="-29465">
		<tag k="name" v="Øvre Lona" />
		<tag k="natural" v="water" />
		<tag k="ssr:stedsnr" v="213284" />
		<tag k="water" v="lake" />
	</node>
	<node lat="58.386911109678685" lon="7.059011119197855" id="-29472">
		<tag k="name" v="Dauslett austre" />
		<tag k="natural" v="water" />
		<tag k="ssr:stedsnr" v="213306" />
	</node>
	<node lat="58.3351194453733" lon="6.940327783578689" id="-29474">
		<tag k="name" v="Sagetjønna" />
		<tag k="natural" v="water" />
		<tag k="ssr:stedsnr" v="213382" />
	</node>
	<node lat="58.31402778048586" lon="7.090950000714171" id="-29483">
		<tag k="name" v="Kjerringtjødna" />
		<tag k="natural" v="water" />
		<tag k="ssr:stedsnr" v="213779" />
	</node>
	<node lat="58.28315278217558" lon="7.108288886741105" id="-29485">
		<tag k="name" v="Austre Eielandstjønna" />
		<tag k="natural" v="water" />
		<tag k="ssr:stedsnr" v="213795" />
	</node>
	<node lat="58.29432778117214" lon="6.989647215872114" id="-29490">
		<tag k="name" v="Svartevatn" />
		<tag k="natural" v="water" />
		<tag k="ssr:stedsnr" v="213988" />
		<tag k="water" v="lake" />
	</node>
	<node lat="58.27100277539835" lon="7.053669452153861" id="-29491">
		<tag k="name" v="Lonetjønna" />
		<tag k="natural" v="water" />
		<tag k="ssr:stedsnr" v="214114" />
	</node>
	<node lat="58.27284166328622" lon="7.022552785130405" id="-29492">
		<tag k="name" v="Lillevatn" />
		<tag k="natural" v="water" />
		<tag k="ssr:stedsnr" v="214134" />
		<tag k="water" v="lake" />
	</node>
	<node lat="58.76706388769378" lon="6.971352779755078" id="-29504">
		<tag k="name" v="Angrovstjødn" />
		<tag k="natural" v="water" />
		<tag k="ssr:stedsnr" v="217211" />
	</node>
	<node lat="58.452675001910755" lon="7.00627778124255" id="-29507">
		<tag k="name" v="Kroknes" />
		<tag k="natural" v="cape" />
		<tag k="ssr:stedsnr" v="217378" />
	</node>
	<node lat="58.75064722638083" lon="6.94545832535252" id="-29512">
		<tag k="name" v="Bakketjødn" />
		<tag k="natural" v="water" />
		<tag k="ssr:stedsnr" v="217293" />
	</node>
	<node lat="58.46532500420062" lon="7.059497220742848" id="-29513">
		<tag k="name" v="Store Odden" />
		<tag k="natural" v="cape" />
		<tag k="ssr:stedsnr" v="217405" />
	</node>
	<node lat="58.46489999686125" lon="7.050558335930682" id="-29514">
		<tag k="name" v="Indre Kneigen" />
		<tag k="natural" v="bay" />
		<tag k="ssr:stedsnr" v="217406" />
	</node>
	<node lat="58.68219444824328" lon="7.039830550365575" id="-29520">
		<tag k="name" v="Hestegrøntjødn" />
		<tag k="natural" v="water" />
		<tag k="ssr:stedsnr" v="217786" />
	</node>
	<node lat="58.646341664003565" lon="6.943766666864303" id="-29523">
		<tag k="name" v="Grasneset" />
		<tag k="natural" v="cape" />
		<tag k="ssr:stedsnr" v="217809" />
	</node>
	<node lat="58.658783329522535" lon="6.944166671727592" id="-29528">
		<tag k="name" v="Åkroken" />
		<tag k="natural" v="bay" />
		<tag k="ssr:stedsnr" v="217897" />
	</node>
	<node lat="58.71466389126963" lon="6.920086111976219" id="-29529">
		<tag k="name" v="Ribjalsbekkjen" />
		<tag k="ssr:stedsnr" v="218214" />
		<tag k="waterway" v="stream" />
	</node>
	<node lat="58.5900305569037" lon="6.901447214864876" id="-29542">
		<tag k="name" v="Bjornes" />
		<tag k="natural" v="cape" />
		<tag k="ssr:stedsnr" v="218486" />
	</node>
	<node lat="58.59861111549174" lon="7.083852786139182" id="-29548">
		<tag k="name" v="Solisbekken" />
		<tag k="ssr:stedsnr" v="218578" />
		<tag k="waterway" v="stream" />
	</node>
	<node lat="58.59101944084939" lon="6.853475006925607" id="-29553">
		<tag k="name" v="Hellerhomtjødna" />
		<tag k="natural" v="water" />
		<tag k="ssr:stedsnr" v="218824" />
	</node>
	<node lat="58.61479722005536" lon="6.875855548084928" id="-29554">
		<tag k="name" v="Indre Hisbekken" />
		<tag k="ssr:stedsnr" v="218865" />
		<tag k="waterway" v="stream" />
	</node>
	<node lat="58.62107221775786" lon="6.838463886384027" id="-29555">
		<tag k="name" v="Nordalstjødna" />
		<tag k="natural" v="water" />
		<tag k="ssr:stedsnr" v="218884" />
	</node>
	<node lat="58.48200833052659" lon="6.93465833181114" id="-29562">
		<tag k="name" v="Oksefossen" />
		<tag k="natural" v="waterfall" />
		<tag k="ssr:stedsnr" v="218917" />
	</node>
	<node lat="58.62617221993037" lon="6.963805563293219" id="-29564">
		<tag k="name" v="Ytre Heievatn" />
		<tag k="natural" v="water" />
		<tag k="ssr:stedsnr" v="218987" />
		<tag k="water" v="lake" />
	</node>
	<node lat="58.55475555647207" lon="6.823000006251503" id="-29578">
		<tag k="name" v="Godvatnet" />
		<tag k="natural" v="water" />
		<tag k="ssr:stedsnr" v="243745" />
		<tag k="water" v="lake" />
	</node>
	<node lat="58.37382777453697" lon="7.0173249931424975" id="-29580">
		<tag k="name" v="Sandvatn" />
		<tag k="natural" v="water" />
		<tag k="ssr:stedsnr" v="243749" />
		<tag k="water" v="lake" />
	</node>
	<node lat="58.63446111004042" lon="7.065794441856376" id="-29586">
		<tag k="alt_name" v="Litladalsvatnet, indre" />
		<tag k="name" v="Indre Litlådalsvatnet" />
		<tag k="natural" v="water" />
		<tag k="ssr:stedsnr" v="244493" />
		<tag k="water" v="lake" />
	</node>
	<node lat="58.72188333565445" lon="6.930800003483493" id="-29587">
		<tag k="name" v="Homstølvatnet" />
		<tag k="natural" v="water" />
		<tag k="ssr:stedsnr" v="244577" />
		<tag k="water" v="lake" />
	</node>
	<node lat="58.397299998404" lon="7.108083328344673" id="-29601">
		<tag k="name" v="Stolstjønn" />
		<tag k="natural" v="water" />
		<tag k="ssr:stedsnr" v="455053" />
	</node>
	<node lat="58.34400277385127" lon="6.966472226360135" id="-29611">
		<tag k="name" v="Storhølen" />
		<tag k="place" v="locality" />
		<tag k="ssr:stedsnr" v="455396" />
	</node>
	<node lat="58.35840555665755" lon="6.956336110813401" id="-29615">
		<tag k="name" v="Migeren" />
		<tag k="ssr:stedsnr" v="455508" />
		<tag k="waterway" v="stream" />
	</node>
	<node lat="58.329797220994195" lon="6.978277772170052" id="-29626">
		<tag k="name" v="Botnetjønna" />
		<tag k="natural" v="water" />
		<tag k="ssr:stedsnr" v="456331" />
	</node>
	<node lat="58.33031666766439" lon="6.956783331139263" id="-29630">
		<tag k="name" v="Kilefossen" />
		<tag k="natural" v="waterfall" />
		<tag k="ssr:stedsnr" v="456336" />
	</node>
	<node lat="58.31480832996086" lon="6.86189999329884" id="-29631">
		<tag k="name" v="Lomtjønn" />
		<tag k="natural" v="water" />
		<tag k="ssr:stedsnr" v="456346" />
	</node>
	<node lat="58.3390611102981" lon="6.795916666853018" id="-29633">
		<tag k="name" v="Melandsvatnet" />
		<tag k="natural" v="water" />
		<tag k="ssr:stedsnr" v="456425" />
		<tag k="water" v="lake" />
	</node>
	<node lat="58.3235055573484" lon="6.804891671316275" id="-29640">
		<tag k="name" v="Langetjødn" />
		<tag k="natural" v="water" />
		<tag k="ssr:stedsnr" v="456449" />
	</node>
	<node lat="58.32717777426568" lon="6.804680550866934" id="-29641">
		<tag k="name" v="Ormetjødn" />
		<tag k="natural" v="water" />
		<tag k="ssr:stedsnr" v="456450" />
	</node>
	<node lat="58.30442221815224" lon="7.121491670872866" id="-29655">
		<tag k="name" v="Bjørnevatnosen" />
		<tag k="natural" v="bay" />
		<tag k="ssr:stedsnr" v="456758" />
	</node>
	<node lat="58.26342499627905" lon="6.940516673870073" id="-29664">
		<tag k="name" v="Båstølvatn" />
		<tag k="natural" v="water" />
		<tag k="ssr:stedsnr" v="457729" />
		<tag k="water" v="lake" />
	</node>
	<node lat="58.324247221910326" lon="7.0209694447480855" id="-29673">
		<tag k="name" v="Steinstjønna" />
		<tag k="natural" v="water" />
		<tag k="ssr:stedsnr" v="273030" />
	</node>
	<node lat="58.36009721780974" lon="7.031649994579854" id="-29681">
		<tag k="name" v="Forøyna" />
		<tag k="place" v="island" />
		<tag k="ssr:stedsnr" v="273273" />
	</node>
	<node lat="58.4013750000568" lon="7.000022216712896" id="-29688">
		<tag k="name" v="Kattetjønna" />
		<tag k="natural" v="water" />
		<tag k="ssr:stedsnr" v="273375" />
	</node>
	<node lat="58.28374866191984" lon="6.968352838126247" id="-29695">
		<tag k="name" v="Motlandsvatn" />
		<tag k="natural" v="water" />
		<tag k="ssr:stedsnr" v="274022" />
		<tag k="water" v="lake" />
	</node>
	<node lat="58.295652775041134" lon="6.8652333252749775" id="-29703">
		<tag k="name" v="Askebutjønn" />
		<tag k="natural" v="water" />
		<tag k="ssr:stedsnr" v="274103" />
	</node>
	<node lat="58.33596944092076" lon="6.958616672875026" id="-29706">
		<tag k="name" v="Svartehølen" />
		<tag k="place" v="locality" />
		<tag k="ssr:stedsnr" v="274126" />
	</node>
	<node lat="58.33085894154861" lon="6.77182179342547" id="-29711">
		<tag k="name" v="Skiftingsholman" />
		<tag k="place" v="island" />
		<tag k="ssr:stedsnr" v="274424" />
	</node>
	<node lat="58.30117221887921" lon="7.1041694394339165" id="-29715">
		<tag k="name" v="Kjerstilona" />
		<tag k="natural" v="water" />
		<tag k="ssr:stedsnr" v="274726" />
		<tag k="water" v="lake" />
	</node>
	<node lat="58.27405000263412" lon="6.914963893469352" id="-29722">
		<tag k="name" v="Risåna" />
		<tag k="ssr:stedsnr" v="274922" />
		<tag k="waterway" v="stream" />
	</node>
	<node lat="58.25635277724939" lon="7.041913886244458" id="-29724">
		<tag k="name" v="Igletjønn" />
		<tag k="natural" v="water" />
		<tag k="ssr:stedsnr" v="275116" />
	</node>
	<node lat="58.265344448654744" lon="6.919897220081306" id="-29733">
		<tag k="name" v="Stemmetjønna" />
		<tag k="natural" v="water" />
		<tag k="ssr:stedsnr" v="276000" />
	</node>
	<node lat="58.6721999963859" lon="6.882888893598294" id="-29743">
		<tag k="name" v="Heddertjødn" />
		<tag k="natural" v="water" />
		<tag k="ssr:stedsnr" v="278208" />
	</node>
	<node lat="58.7649333319914" lon="7.024630560252816" id="-29748">
		<tag k="name" v="Øyetjødn" />
		<tag k="natural" v="water" />
		<tag k="ssr:stedsnr" v="278235" />
	</node>
	<node lat="58.724297225891576" lon="7.121583332855055" id="-29752">
		<tag k="name" v="Rastetjødne" />
		<tag k="natural" v="water" />
		<tag k="ssr:stedsnr" v="278284" />
	</node>
	<node lat="58.73671944087643" lon="7.116333332642162" id="-29754">
		<tag k="name" v="Krokevassfossen" />
		<tag k="natural" v="waterfall" />
		<tag k="ssr:stedsnr" v="278302" />
	</node>
	<node lat="58.694733335288475" lon="6.968297223170835" id="-29756">
		<tag k="name" v="Ausdøla" />
		<tag k="place" v="locality" />
		<tag k="ssr:stedsnr" v="278383" />
	</node>
	<node lat="58.709749997924334" lon="6.971400007668224" id="-29760">
		<tag k="name" v="Langetjødn" />
		<tag k="natural" v="water" />
		<tag k="ssr:stedsnr" v="278393" />
	</node>
	<node lat="58.52815833230669" lon="6.888283327029197" id="-29761">
		<tag k="name" v="Smørbekktjødna" />
		<tag k="natural" v="water" />
		<tag k="ssr:stedsnr" v="278502" />
	</node>
	<node lat="58.52053611089419" lon="6.9142222256104695" id="-29771">
		<tag k="name" v="Stakkelandsfossan" />
		<tag k="natural" v="waterfall" />
		<tag k="ssr:stedsnr" v="278496" />
	</node>
	<node lat="58.60001944142747" lon="6.967822217206126" id="-29787">
		<tag k="name" v="Brusprangbekken" />
		<tag k="ssr:stedsnr" v="460086" />
		<tag k="waterway" v="stream" />
	</node>
	<node lat="58.64385278134148" lon="6.904297220815331" id="-29795">
		<tag k="name" v="Homsbekken" />
		<tag k="ssr:stedsnr" v="278996" />
		<tag k="waterway" v="stream" />
	</node>
	<node lat="58.63719166402251" lon="6.9309638822987" id="-29796">
		<tag k="name" v="Rupeneset" />
		<tag k="natural" v="cape" />
		<tag k="ssr:stedsnr" v="279000" />
	</node>
	<node lat="58.58460833374835" lon="6.85097499377888" id="-29805">
		<tag k="name" v="Langetjødna" />
		<tag k="natural" v="water" />
		<tag k="ssr:stedsnr" v="279819" />
	</node>
	<node lat="58.63395833762968" lon="6.8581388819625655" id="-29814">
		<tag k="name" v="Glesholtjødna" />
		<tag k="natural" v="water" />
		<tag k="ssr:stedsnr" v="279876" />
	</node>
	<node lat="58.442755556103656" lon="7.07635556081155" id="-29817">
		<tag k="name" v="Lille Fisketjødn" />
		<tag k="natural" v="water" />
		<tag k="ssr:stedsnr" v="460247" />
	</node>
	<node lat="58.4454638918493" lon="7.057441666525979" id="-29821">
		<tag k="name" v="Langodden" />
		<tag k="natural" v="cape" />
		<tag k="ssr:stedsnr" v="460254" />
	</node>
	<node lat="58.54953055943584" lon="6.865483334934065" id="-29826">
		<tag k="name" v="Skaddarne" />
		<tag k="place" v="islet" />
		<tag k="ssr:stedsnr" v="460337" />
	</node>
	<node lat="58.55243611305115" lon="6.954955554801856" id="-29836">
		<tag k="name" v="Revedyblen" />
		<tag k="natural" v="water" />
		<tag k="ssr:stedsnr" v="460386" />
	</node>
	<node lat="58.555908331923256" lon="7.014588881555084" id="-29837">
		<tag k="name" v="Anderstjødna" />
		<tag k="natural" v="water" />
		<tag k="ssr:stedsnr" v="460399" />
	</node>
	<node lat="58.456916668139144" lon="6.998769441200541" id="-29843">
		<tag k="name" v="Galdalstjødna" />
		<tag k="natural" v="water" />
		<tag k="ssr:stedsnr" v="460449" />
	</node>
	<node lat="58.4286444412404" lon="7.0033361061357375" id="-29854">
		<tag k="name" v="Sageviga" />
		<tag k="natural" v="bay" />
		<tag k="ssr:stedsnr" v="460496" />
	</node>
	<node lat="58.59969166915866" lon="7.081441670386487" id="-29861">
		<tag k="name" v="Harsteinslona" />
		<tag k="natural" v="water" />
		<tag k="ssr:stedsnr" v="460632" />
		<tag k="water" v="lake" />
	</node>
	<node lat="58.563891664692356" lon="6.997400008182804" id="-29867">
		<tag k="name" v="Teinebekken" />
		<tag k="ssr:stedsnr" v="460698" />
		<tag k="waterway" v="stream" />
	</node>
	<node lat="58.545619448692264" lon="6.881877776816475" id="-29872">
		<tag k="name" v="Verbekktjødna" />
		<tag k="natural" v="water" />
		<tag k="ssr:stedsnr" v="460729" />
	</node>
	<node lat="58.49705277900897" lon="7.076644436415459" id="-29876">
		<tag k="name" v="Hesthomtjødna" />
		<tag k="natural" v="water" />
		<tag k="ssr:stedsnr" v="460856" />
	</node>
	<node lat="58.66219166752926" lon="6.979183339674627" id="-29881">
		<tag k="name" v="Kyremonbekkjen" />
		<tag k="ssr:stedsnr" v="460941" />
		<tag k="waterway" v="stream" />
	</node>
	<node lat="58.66218889272971" lon="6.985558340276512" id="-29882">
		<tag k="name" v="Kyreaua" />
		<tag k="natural" v="water" />
		<tag k="ssr:stedsnr" v="460942" />
		<tag k="water" v="pond" />
	</node>
	<node lat="58.63623889143221" lon="6.955716661484478" id="-29884">
		<tag k="name" v="Bogetjødna" />
		<tag k="natural" v="water" />
		<tag k="ssr:stedsnr" v="460979" />
	</node>
	<node lat="58.65169516232653" lon="7.084953125590043" id="-29905">
		<tag k="name" v="Steintjødnene" />
		<tag k="natural" v="water" />
		<tag k="ssr:stedsnr" v="462641" />
		<tag k="water" v="lake" />
	</node>
	<node lat="58.21326944172899" lon="6.77847776951061" id="-29911">
		<tag k="alt_name" v="Urdevatnet" />
		<tag k="name" v="Urevannet" />
		<tag k="natural" v="water" />
		<tag k="ssr:stedsnr" v="303176" />
	</node>
	<node lat="58.46578332929413" lon="7.006025001759018" id="-29913">
		<tag k="name" v="Jødelsvatnet" />
		<tag k="natural" v="water" />
		<tag k="ssr:stedsnr" v="303327" />
		<tag k="water" v="lake" />
	</node>
	<node lat="58.327761111490986" lon="6.861000005959162" id="-29918">
		<tag k="alt_name" v="Grassvatnet" />
		<tag k="name" v="Grasvatnet" />
		<tag k="natural" v="water" />
		<tag k="ssr:stedsnr" v="303478" />
		<tag k="water" v="lake" />
	</node>
	<node lat="58.25899722507508" lon="7.016536118960523" id="-29920">
		<tag k="alt_name" v="Forvatnet" />
		<tag k="name" v="Forevatn" />
		<tag k="natural" v="water" />
		<tag k="ssr:stedsnr" v="303620" />
	</node>
	<node lat="58.31153610809407" lon="7.078338889835154" id="-29921">
		<tag k="alt_name" v="Florsvatnet" />
		<tag k="name" v="Flåsvatnet" />
		<tag k="natural" v="water" />
		<tag k="ssr:stedsnr" v="303549" />
		<tag k="water" v="lake" />
	</node>
	<node lat="58.68322222641364" lon="6.999480557054563" id="-29922">
		<tag k="alt_name" v="Kjasdalstjørni" />
		<tag k="name" v="Tjasdalstjødne" />
		<tag k="natural" v="water" />
		<tag k="ssr:stedsnr" v="304273" />
	</node>
	<node lat="58.60432777737968" lon="6.963250006412282" id="-29929">
		<tag k="name" v="Langevatnet" />
		<tag k="natural" v="water" />
		<tag k="ssr:stedsnr" v="304674" />
	</node>
	<node lat="58.28528055508847" lon="7.018391667663295" id="-29933">
		<tag k="name" v="Torkelstjønna" />
		<tag k="natural" v="water" />
		<tag k="ssr:stedsnr" v="334054" />
	</node>
	<node lat="58.331869447357086" lon="7.062844445329446" id="-29942">
		<tag k="name" v="Mjauntjønn" />
		<tag k="natural" v="water" />
		<tag k="ssr:stedsnr" v="334105" />
	</node>
	<node lat="58.29584999869016" lon="6.82454999601597" id="-29944">
		<tag k="name" v="Bruvik" />
		<tag k="natural" v="bay" />
		<tag k="ssr:stedsnr" v="334109" />
	</node>
	<node lat="58.32437500010157" lon="6.952586107990204" id="-29950">
		<tag k="name" v="Hunsdalstjønna" />
		<tag k="natural" v="water" />
		<tag k="ssr:stedsnr" v="334297" />
	</node>
	<node lat="58.316133333293074" lon="6.879366668884342" id="-29953">
		<tag k="name" v="Stølstjønn" />
		<tag k="natural" v="water" />
		<tag k="ssr:stedsnr" v="334498" />
	</node>
	<node lat="58.30700555270594" lon="7.086652782650767" id="-29957">
		<tag k="name" v="Rundelitjønnan" />
		<tag k="natural" v="water" />
		<tag k="ssr:stedsnr" v="334708" />
		<tag k="water" v="lake" />
	</node>
	<node lat="58.29743611014192" lon="7.110897223245024" id="-29959">
		<tag k="name" v="Gaustadduktjønna" />
		<tag k="natural" v="water" />
		<tag k="ssr:stedsnr" v="334757" />
	</node>
	<node lat="58.342819441337454" lon="7.111175000573084" id="-29960">
		<tag k="name" v="Litle Hestevatn" />
		<tag k="natural" v="water" />
		<tag k="ssr:stedsnr" v="334919" />
		<tag k="water" v="lake" />
	</node>
	<node lat="58.25428055789796" lon="7.052977775588627" id="-29961">
		<tag k="name" v="Tverrbekken" />
		<tag k="ssr:stedsnr" v="335210" />
		<tag k="waterway" v="stream" />
	</node>
	<node lat="58.266483337370026" lon="6.975336103947148" id="-29965">
		<tag k="name" v="Linnetjønna" />
		<tag k="natural" v="water" />
		<tag k="ssr:stedsnr" v="335808" />
	</node>
	<node lat="58.26800833149869" lon="6.946338895018973" id="-29966">
		<tag k="name" v="Fossevatn" />
		<tag k="natural" v="water" />
		<tag k="ssr:stedsnr" v="335812" />
	</node>
	<node lat="58.27082777364316" lon="6.941247221454756" id="-29968">
		<tag k="name" v="Fiskartjønna" />
		<tag k="natural" v="water" />
		<tag k="ssr:stedsnr" v="335974" />
	</node>
	<node lat="58.428024996336795" lon="7.005869443232672" id="-29978">
		<tag k="name" v="Sinnesodden" />
		<tag k="natural" v="cape" />
		<tag k="ssr:stedsnr" v="338200" />
	</node>
	<node lat="58.45338889319587" lon="7.019144438016495" id="-29981">
		<tag k="name" v="Brulitjødne" />
		<tag k="natural" v="water" />
		<tag k="ssr:stedsnr" v="338347" />
	</node>
	<node lat="58.469333329228846" lon="7.07246389115313" id="-29982">
		<tag k="name" v="Kråkesanden" />
		<tag k="natural" v="beach" />
		<tag k="ssr:stedsnr" v="338352" />
	</node>
	<node lat="58.67045277986796" lon="7.08967221705545" id="-29995">
		<tag k="name" v="Runna-tjødne" />
		<tag k="natural" v="water" />
		<tag k="ssr:stedsnr" v="339003" />
	</node>
	<node lat="58.667388893423606" lon="7.082119449628115" id="-29996">
		<tag k="name" v="Inntaksdammen" />
		<tag k="natural" v="water" />
		<tag k="ssr:stedsnr" v="339005" />
	</node>
	<node lat="58.44780555991257" lon="6.904741659295833" id="-30000">
		<tag k="name" v="Stemtjønn" />
		<tag k="natural" v="water" />
		<tag k="ssr:stedsnr" v="339000" />
	</node>
	<node lat="58.699897221946344" lon="6.936952780565024" id="-30012">
		<tag k="name" v="Homstøldammen" />
		<tag k="ssr:stedsnr" v="339351" />
		<tag k="waterway" v="dam" />
	</node>
	<node lat="58.45683888822341" lon="6.989549992986481" id="-30013">
		<tag k="name" v="Øyetjødna" />
		<tag k="natural" v="water" />
		<tag k="ssr:stedsnr" v="339395" />
	</node>
	<node lat="58.61416667011429" lon="6.892719448582491" id="-30016">
		<tag k="name" v="Hisåna" />
		<tag k="ssr:stedsnr" v="339499" />
		<tag k="waterway" v="river" />
	</node>
	<node lat="58.56702222407612" lon="7.0208888964214" id="-30018">
		<tag k="name" v="Homstjødn" />
		<tag k="natural" v="water" />
		<tag k="ssr:stedsnr" v="339650" />
	</node>
	<node lat="58.576372225591626" lon="7.052225004083392" id="-30020">
		<tag k="name" v="Småhomtjødn" />
		<tag k="natural" v="water" />
		<tag k="ssr:stedsnr" v="339706" />
	</node>
	<node lat="58.54345277881877" lon="6.992783331366841" id="-30041">
		<tag k="name" v="Holtebekken" />
		<tag k="ssr:stedsnr" v="364406" />
		<tag k="waterway" v="stream" />
	</node>
	<node lat="58.38816110916592" lon="7.010613887262257" id="-30046">
		<tag k="alt_name" v="Toskhomtjørna" />
		<tag k="name" v="Toskhomtjønna" />
		<tag k="natural" v="water" />
		<tag k="ssr:stedsnr" v="364648" />
	</node>
	<node lat="58.5986055540632" lon="6.852308335420387" id="-30047">
		<tag k="alt_name" v="Spiletjørni" />
		<tag k="name" v="Spiltjødna" />
		<tag k="natural" v="water" />
		<tag k="ssr:stedsnr" v="364668" />
	</node>
	<node lat="58.71286111495595" lon="6.895502780316647" id="-30049">
		<tag k="alt_name" v="Skrøylevatnet" />
		<tag k="name" v="Skrøyletjødn" />
		<tag k="natural" v="water" />
		<tag k="ssr:stedsnr" v="364599" />
	</node>
	<node lat="58.68821388478337" lon="7.064811108563487" id="-30053">
		<tag k="name" v="Sandtjørn" />
		<tag k="natural" v="water" />
		<tag k="ssr:stedsnr" v="365296" />
	</node>
	<node lat="58.75912222145913" lon="6.973666667329657" id="-30054">
		<tag k="alt_name" v="Åsmundstjørni" />
		<tag k="name" v="Osmundstjødn" />
		<tag k="natural" v="water" />
		<tag k="old_name" v="Osmundstjørni" />
		<tag k="ssr:stedsnr" v="365340" />
	</node>
	<node lat="58.22561111508035" lon="6.84773054927433" id="-30056">
		<tag k="name" v="Oppoftsvann" />
		<tag k="natural" v="water" />
		<tag k="ssr:stedsnr" v="546150" />
		<tag k="water" v="lake" />
	</node>
	<node lat="58.25241667121613" lon="6.947191674498548" id="-30058">
		<tag k="name" v="Lille Skogetjønn" />
		<tag k="natural" v="water" />
		<tag k="ssr:stedsnr" v="394005" />
	</node>
	<node lat="58.41272499686483" lon="6.986533327889496" id="-30059">
		<tag k="name" v="Styggatjønn" />
		<tag k="natural" v="water" />
		<tag k="ssr:stedsnr" v="394018" />
	</node>
	<node lat="58.41065555863931" lon="6.985813890144707" id="-30060">
		<tag k="name" v="Stemtjønn" />
		<tag k="natural" v="water" />
		<tag k="ssr:stedsnr" v="394020" />
	</node>
	<node lat="58.39235000097934" lon="7.080866673854845" id="-30068">
		<tag k="name" v="Krogevatn" />
		<tag k="natural" v="water" />
		<tag k="ssr:stedsnr" v="394297" />
		<tag k="water" v="lake" />
	</node>
	<node lat="58.38624721844635" lon="6.9900250017229695" id="-30072">
		<tag k="name" v="Fændalsodden" />
		<tag k="natural" v="cape" />
		<tag k="ssr:stedsnr" v="394488" />
	</node>
	<node lat="58.42379722543943" lon="6.877241664602201" id="-30075">
		<tag k="name" v="Budrykken" />
		<tag k="natural" v="water" />
		<tag k="ssr:stedsnr" v="394701" />
	</node>
	<node lat="58.290649995715675" lon="6.904349996153195" id="-30077">
		<tag k="name" v="Jentehølen" />
		<tag k="place" v="locality" />
		<tag k="ssr:stedsnr" v="395003" />
	</node>
	<node lat="58.333211111932584" lon="6.880344441361669" id="-30081">
		<tag k="name" v="Krosslibekken" />
		<tag k="ssr:stedsnr" v="395277" />
		<tag k="waterway" v="stream" />
	</node>
	<node lat="58.29256666411817" lon="7.094705551609424" id="-30092">
		<tag k="name" v="Langelilona" />
		<tag k="natural" v="water" />
		<tag k="ssr:stedsnr" v="395777" />
		<tag k="water" v="lake" />
	</node>
	<node lat="58.29018888826806" lon="6.984816674900875" id="-30093">
		<tag k="name" v="Holmelia" />
		<tag k="natural" v="water" />
		<tag k="ssr:stedsnr" v="395997" />
		<tag k="water" v="lake" />
	</node>
	<node lat="58.53239999762084" lon="7.015080547174073" id="-30109">
		<tag k="name" v="Snåsoddtjødna" />
		<tag k="natural" v="water" />
		<tag k="ssr:stedsnr" v="399093" />
	</node>
	<node lat="58.507708330446725" lon="6.8811250015339995" id="-30114">
		<tag k="name" v="Kongen" />
		<tag k="natural" v="water" />
		<tag k="ssr:stedsnr" v="399177" />
	</node>
	<node lat="58.514066669258874" lon="6.913583333472551" id="-30116">
		<tag k="name" v="Pråmstøøy" />
		<tag k="place" v="islet" />
		<tag k="ssr:stedsnr" v="399186" />
	</node>
	<node lat="58.546983330165304" lon="6.846016663066228" id="-30118">
		<tag k="name" v="Måstjødna" />
		<tag k="natural" v="water" />
		<tag k="ssr:stedsnr" v="399302" />
	</node>
	<node lat="58.432283330911" lon="6.8947472145509385" id="-30119">
		<tag k="name" v="Ytre Floden" />
		<tag k="natural" v="water" />
		<tag k="ssr:stedsnr" v="399332" />
		<tag k="water" v="lake" />
	</node>
	<node lat="58.71798055791805" lon="6.962658330663708" id="-30122">
		<tag k="name" v="Langesmalavatnet" />
		<tag k="natural" v="water" />
		<tag k="ssr:stedsnr" v="399389" />
		<tag k="water" v="lake" />
	</node>
	<node lat="58.502791656241776" lon="6.997189333633722" id="-30127">
		<tag k="name" v="Rustelitjødnan" />
		<tag k="natural" v="water" />
		<tag k="ssr:stedsnr" v="399278" />
		<tag k="water" v="lake" />
	</node>
	<node lat="58.54981944679163" lon="6.859461103902697" id="-30130">
		<tag k="name" v="Stemvassåne" />
		<tag k="ssr:stedsnr" v="399299" />
		<tag k="waterway" v="river" />
	</node>
	<node lat="58.46982222032543" lon="7.053988896403551" id="-30137">
		<tag k="name" v="Trinntjødn" />
		<tag k="natural" v="water" />
		<tag k="ssr:stedsnr" v="399482" />
	</node>
	<node lat="58.47253055914853" lon="6.892297221652841" id="-30141">
		<tag k="name" v="Spikkelandstjønna" />
		<tag k="natural" v="water" />
		<tag k="ssr:stedsnr" v="399497" />
	</node>
	<node lat="58.579144442665815" lon="6.962741670649131" id="-30144">
		<tag k="name" v="Stemtjødna" />
		<tag k="natural" v="water" />
		<tag k="ssr:stedsnr" v="399527" />
	</node>
	<node lat="58.59077222226978" lon="7.061577783615971" id="-30147">
		<tag k="name" v="Rona" />
		<tag k="natural" v="strait" />
		<tag k="ssr:stedsnr" v="399598" />
	</node>
	<node lat="58.54355000424331" lon="6.878311116268333" id="-30157">
		<tag k="name" v="Verbekk" />
		<tag k="ssr:stedsnr" v="399688" />
		<tag k="waterway" v="stream" />
	</node>
	<node lat="58.64535832931442" lon="6.9563638866667565" id="-30162">
		<tag k="name" v="Tagdalsbekkjen" />
		<tag k="ssr:stedsnr" v="399834" />
		<tag k="waterway" v="stream" />
	</node>
	<node lat="58.48123888634363" lon="6.942147226601206" id="-30163">
		<tag k="name" v="Sagefossen" />
		<tag k="natural" v="waterfall" />
		<tag k="ssr:stedsnr" v="399896" />
	</node>
	<node lat="58.49220555871102" lon="6.880658326464399" id="-30167">
		<tag k="name" v="Taklitjødn" />
		<tag k="natural" v="water" />
		<tag k="ssr:stedsnr" v="399990" />
	</node>
	<node lat="58.63943055953029" lon="6.907788886603922" id="-30168">
		<tag k="name" v="Raunelibekken" />
		<tag k="ssr:stedsnr" v="399995" />
		<tag k="waterway" v="stream" />
	</node>
	<node lat="58.66245833451701" lon="6.933286113311037" id="-30171">
		<tag k="name" v="Brattalibekkjen" />
		<tag k="ssr:stedsnr" v="400577" />
		<tag k="waterway" v="stream" />
	</node>
	<node lat="58.563811106708755" lon="6.853080556990913" id="-30177">
		<tag k="name" v="Reinsdalsbekken" />
		<tag k="ssr:stedsnr" v="400798" />
		<tag k="waterway" v="stream" />
	</node>
	<node lat="58.27678611457905" lon="7.051430547706319" id="-30195">
		<tag k="alt_name" v="Bjorvatnet" />
		<tag k="name" v="Bjorvannet" />
		<tag k="natural" v="water" />
		<tag k="ssr:stedsnr" v="485460" />
		<tag k="water" v="lake" />
	</node>
	<node lat="58.57277777891646" lon="6.92378610646142" id="-30200">
		<tag k="alt_name" v="Sollisåni" />
		<tag k="name" v="Sollisåna" />
		<tag k="ssr:stedsnr" v="485644" />
		<tag k="waterway" v="river" />
	</node>
	<node lat="58.544383333661294" lon="6.920644439048896" id="-30201">
		<tag k="name" v="Eptevatnet" />
		<tag k="natural" v="water" />
		<tag k="ssr:stedsnr" v="485680" />
	</node>
	<node lat="58.382722220980824" lon="7.081927786083665" id="-30202">
		<tag k="alt_name" v="Neklandsvatn" />
		<tag k="name" v="Nekklandsvatn" />
		<tag k="natural" v="water" />
		<tag k="ssr:stedsnr" v="485688" />
		<tag k="water" v="lake" />
	</node>
	<node lat="58.77490277810155" lon="7.040638884675958" id="-30205">
		<tag k="alt_name" v="Maurholtjørni" />
		<tag k="name" v="Maurholtjødn" />
		<tag k="natural" v="water" />
		<tag k="ssr:stedsnr" v="486362" />
	</node>
	<node lat="58.81486111362154" lon="7.096169437558247" id="-30209">
		<tag k="alt_name" v="Badstogvatnet" />
		<tag k="name" v="Badstogtjødnen" />
		<tag k="natural" v="water" />
		<tag k="ssr:stedsnr" v="486383" />
		<tag k="water" v="lake" />
	</node>
	<node lat="58.49984444168724" lon="6.979888892124532" id="-30218">
		<tag k="name" v="Øvre Åmlandsvannet" />
		<tag k="natural" v="water" />
		<tag k="ssr:stedsnr" v="425067" />
		<tag k="water" v="lake" />
	</node>
	<node lat="58.304333330723715" lon="6.849755563482859" id="-30224">
		<tag k="alt_name" v="Heknesvatnet" />
		<tag k="name" v="Holevatn" />
		<tag k="natural" v="water" />
		<tag k="ssr:stedsnr" v="425264" />
	</node>
	<node lat="58.58153889067955" lon="7.008841662193721" id="-30225">
		<tag k="alt_name" v="Langetjørni" />
		<tag k="name" v="Langetjødna" />
		<tag k="natural" v="water" />
		<tag k="ssr:stedsnr" v="425404" />
	</node>
	<node lat="58.62389999969485" lon="7.003502774035413" id="-30230">
		<tag k="name" v="Øyvatnet" />
		<tag k="natural" v="water" />
		<tag k="ssr:stedsnr" v="425465" />
	</node>
	<node lat="58.242366668913775" lon="6.993969439127363" id="-30232">
		<tag k="alt_name" v="Fiskelausvatnet" />
		<tag k="name" v="Fiskelausvatn" />
		<tag k="natural" v="water" />
		<tag k="ssr:stedsnr" v="425395" />
	</node>
	<node lat="58.30243332927096" lon="6.999719452893156" id="-30234">
		<tag k="alt_name" v="Røydlandsvatnet" />
		<tag k="name" v="Rødlandsvatn" />
		<tag k="natural" v="water" />
		<tag k="ssr:stedsnr" v="425519" />
		<tag k="water" v="lake" />
	</node>
	<node lat="58.66678610840739" lon="6.880502785383166" id="-30236">
		<tag k="alt_name" v="Lettesvatnet" />
		<tag k="name" v="Leidesvatn" />
		<tag k="natural" v="water" />
		<tag k="ssr:stedsnr" v="425650" />
	</node>
	<node lat="58.59651388805361" lon="6.8972861147206945" id="-30237">
		<tag k="alt_name" v="Litjørn" />
		<tag k="name" v="Litjødna" />
		<tag k="natural" v="water" />
		<tag k="ssr:stedsnr" v="425654" />
		<tag k="water" v="lake" />
	</node>
	<node lat="58.60962778162632" lon="6.8454527757413" id="-30238">
		<tag k="alt_name" v="Høydalstjørni" />
		<tag k="name" v="Høydalstjødna" />
		<tag k="natural" v="water" />
		<tag k="ssr:stedsnr" v="425662" />
	</node>
	<node lat="58.62377222169743" lon="6.876166672614266" id="-30239">
		<tag k="alt_name" v="Øyevatnet" />
		<tag k="name" v="Nedre Øyevatnet" />
		<tag k="natural" v="water" />
		<tag k="ssr:stedsnr" v="425694" />
		<tag k="water" v="lake" />
	</node>
	<node lat="58.37678611102626" lon="7.102394439896259" id="-30243">
		<tag k="alt_name" v="Gløvrevatnet" />
		<tag k="name" v="Gløvrevatn" />
		<tag k="natural" v="water" />
		<tag k="ssr:stedsnr" v="425748" />
	</node>
	<node lat="58.76697499764203" lon="6.970913885199638" id="-30245">
		<tag k="name" v="Angrovtjørni" />
		<tag k="natural" v="water" />
		<tag k="ssr:stedsnr" v="426338" />
	</node>
	<node lat="58.42006389062297" lon="7.029474993508488" id="-30246">
		<tag k="name" v="Lomstjønn" />
		<tag k="natural" v="water" />
		<tag k="ssr:stedsnr" v="455004" />
	</node>
	<node lat="58.250036107422936" lon="6.9277166669534" id="-30247">
		<tag k="name" v="Sauevomma" />
		<tag k="natural" v="water" />
		<tag k="ssr:stedsnr" v="455005" />
		<tag k="water" v="lake" />
	</node>
	<node lat="58.41511944675093" lon="7.067258331088505" id="-30255">
		<tag k="name" v="Stora Odden" />
		<tag k="natural" v="cape" />
		<tag k="ssr:stedsnr" v="455315" />
	</node>
	<node lat="58.31358333739233" lon="6.916024996012685" id="-30276">
		<tag k="name" v="Kleivstjønn" />
		<tag k="natural" v="water" />
		<tag k="ssr:stedsnr" v="456506" />
	</node>
	<node lat="58.72795833034964" lon="6.978799995791916" id="-30302">
		<tag k="name" v="Gutomstjødn" />
		<tag k="natural" v="water" />
		<tag k="ssr:stedsnr" v="460420" />
	</node>
	<node lat="58.4988805523272" lon="6.991508334610648" id="-30304">
		<tag k="name" v="Kilen" />
		<tag k="natural" v="bay" />
		<tag k="ssr:stedsnr" v="460302" />
	</node>
	<node lat="58.553561111159944" lon="6.963455557857936" id="-30309">
		<tag k="name" v="Indre Litjødn" />
		<tag k="natural" v="water" />
		<tag k="ssr:stedsnr" v="460378" />
	</node>
	<node lat="58.46454722478531" lon="6.895549999877541" id="-30318">
		<tag k="name" v="Stølstjønna" />
		<tag k="natural" v="water" />
		<tag k="ssr:stedsnr" v="460522" />
	</node>
	<node lat="58.47217778092394" lon="7.078338896994484" id="-30319">
		<tag k="name" v="Perspytten" />
		<tag k="natural" v="water" />
		<tag k="ssr:stedsnr" v="460525" />
	</node>
	<node lat="58.54587500346359" lon="6.90695833204525" id="-30332">
		<tag k="name" v="Tyholmen" />
		<tag k="natural" v="cape" />
		<tag k="ssr:stedsnr" v="460724" />
	</node>
	<node lat="58.64692499984107" lon="6.949205562391775" id="-30344">
		<tag k="name" v="Kvitjødnbekken" />
		<tag k="ssr:stedsnr" v="460868" />
		<tag k="waterway" v="stream" />
	</node>
	<node lat="58.448797225464325" lon="6.90253888358654" id="-30346">
		<tag k="name" v="Nesan" />
		<tag k="natural" v="cape" />
		<tag k="ssr:stedsnr" v="460962" />
	</node>
	<node lat="58.66962500146816" lon="6.872866664595684" id="-30351">
		<tag k="name" v="Indreosan" />
		<tag k="natural" v="bay" />
		<tag k="ssr:stedsnr" v="461707" />
	</node>
	<node lat="58.59015277954142" lon="6.8586305605917" id="-30355">
		<tag k="name" v="Slipetjødna" />
		<tag k="natural" v="water" />
		<tag k="ssr:stedsnr" v="461819" />
	</node>
	<node lat="58.60463055859833" lon="6.8705750051789245" id="-30357">
		<tag k="name" v="Ytre Hisbekken" />
		<tag k="ssr:stedsnr" v="461882" />
		<tag k="waterway" v="stream" />
	</node>
	<node lat="58.23995000408243" lon="6.744441673581042" id="-30362">
		<tag k="alt_name" v="Bjellandsvatnet" />
		<tag k="name" v="Titlandsvann" />
		<tag k="natural" v="water" />
		<tag k="ssr:stedsnr" v="485117" />
		<tag k="water" v="lake" />
	</node>
	<node lat="58.50832778025571" lon="7.010630560983724" id="-30365">
		<tag k="alt_name" v="Myglandstjørni" />
		<tag k="name" v="Myglandstjødna" />
		<tag k="natural" v="water" />
		<tag k="ssr:stedsnr" v="485069" />
	</node>
	<node lat="58.578922221292316" lon="7.022422228697077" id="-30372">
		<tag k="name" v="Hommevatnet" />
		<tag k="natural" v="water" />
		<tag k="ssr:stedsnr" v="485365" />
		<tag k="water" v="lake" />
	</node>
	<node lat="58.43986111136614" lon="7.08099722693881" id="-30375">
		<tag k="alt_name" v="Steinsvatnet" />
		<tag k="name" v="Steinsvatn" />
		<tag k="natural" v="water" />
		<tag k="ssr:stedsnr" v="485295" />
		<tag k="water" v="lake" />
	</node>
	<node lat="58.28264444828157" lon="7.027525002489618" id="-30377">
		<tag k="alt_name" v="Fossevatnet" />
		<tag k="name" v="Store Fossvatn" />
		<tag k="natural" v="water" />
		<tag k="ssr:stedsnr" v="485467" />
		<tag k="water" v="lake" />
	</node>
	<node lat="58.30356944702557" lon="7.034938890453399" id="-30378">
		<tag k="alt_name" v="Mjåvatnet" />
		<tag k="name" v="Mjåvatn" />
		<tag k="natural" v="water" />
		<tag k="ssr:stedsnr" v="485489" />
		<tag k="water" v="lake" />
	</node>
	<node lat="58.58387221916635" lon="6.824291671531736" id="-30381">
		<tag k="alt_name" v="Sandtjørn" />
		<tag k="name" v="Sandtjødna" />
		<tag k="natural" v="water" />
		<tag k="ssr:stedsnr" v="485661" />
	</node>
	<node lat="58.54922170116041" lon="6.887619784278535" id="-30382">
		<tag k="alt_name" v="Lindhomtjørni" />
		<tag k="name" v="Lindhomtjønna" />
		<tag k="natural" v="water" />
		<tag k="ssr:stedsnr" v="485673" />
	</node>
	<node lat="58.42426944202582" lon="7.031355561114645" id="-30387">
		<tag k="name" v="Lonen" />
		<tag k="natural" v="water" />
		<tag k="ssr:stedsnr" v="516003" />
		<tag k="water" v="lake" />
	</node>
	<node lat="58.41128333279373" lon="7.0090805632378155" id="-30388">
		<tag k="name" v="Furøyna" />
		<tag k="place" v="island" />
		<tag k="ssr:stedsnr" v="516019" />
	</node>
	<node lat="58.28848888868175" lon="6.956572226995392" id="-30389">
		<tag k="name" v="Kvennefall" />
		<tag k="natural" v="waterfall" />
		<tag k="ssr:stedsnr" v="516023" />
	</node>
	<node lat="58.27770000433205" lon="6.798299998172483" id="-30394">
		<tag k="name" v="Svindlandstjønna" />
		<tag k="natural" v="water" />
		<tag k="ssr:stedsnr" v="516137" />
	</node>
	<node lat="58.33329722589902" lon="7.0256555554886395" id="-30395">
		<tag k="name" v="Kappsøyna" />
		<tag k="place" v="island" />
		<tag k="ssr:stedsnr" v="516064" />
	</node>
	<node lat="58.32916111213772" lon="6.903805553388668" id="-30401">
		<tag k="name" v="Øksetjønna" />
		<tag k="natural" v="water" />
		<tag k="ssr:stedsnr" v="516274" />
	</node>
	<node lat="58.398461110231715" lon="7.033088896918023" id="-30405">
		<tag k="name" v="Nergardstjønna" />
		<tag k="natural" v="water" />
		<tag k="ssr:stedsnr" v="516417" />
	</node>
	<node lat="58.320733335042746" lon="6.878927771207935" id="-30410">
		<tag k="name" v="Stokketjønn" />
		<tag k="natural" v="water" />
		<tag k="ssr:stedsnr" v="516520" />
	</node>
	<node lat="58.311947225054105" lon="6.8726666704545645" id="-30413">
		<tag k="name" v="Åletjønn" />
		<tag k="natural" v="water" />
		<tag k="ssr:stedsnr" v="516538" />
	</node>
	<node lat="58.313052778939806" lon="7.032436118828383" id="-30418">
		<tag k="name" v="Svarttjønna" />
		<tag k="natural" v="water" />
		<tag k="ssr:stedsnr" v="516675" />
	</node>
	<node lat="58.297177774537396" lon="7.08401111158272" id="-30423">
		<tag k="name" v="Libekken" />
		<tag k="ssr:stedsnr" v="516942" />
		<tag k="waterway" v="stream" />
	</node>
	<node lat="58.28731944724779" lon="7.08191944333049" id="-30424">
		<tag k="name" v="Furnesodden" />
		<tag k="natural" v="cape" />
		<tag k="ssr:stedsnr" v="516944" />
	</node>
	<node lat="58.25330833119102" lon="6.913899998290988" id="-30426">
		<tag k="name" v="Vassbotn" />
		<tag k="natural" v="bay" />
		<tag k="ssr:stedsnr" v="517105" />
	</node>
	<node lat="58.2608388932373" lon="7.039908338756078" id="-30427">
		<tag k="name" v="Haunevannet" />
		<tag k="natural" v="water" />
		<tag k="ssr:stedsnr" v="517113" />
		<tag k="water" v="lake" />
	</node>
	<node lat="58.253786108876454" lon="7.0274666664610805" id="-30429">
		<tag k="name" v="Juvatn" />
		<tag k="natural" v="water" />
		<tag k="ssr:stedsnr" v="517173" />
		<tag k="water" v="lake" />
	</node>
	<node lat="58.52284444757045" lon="7.029766659140778" id="-30436">
		<tag k="name" v="Beitebekken" />
		<tag k="ssr:stedsnr" v="520068" />
		<tag k="waterway" v="stream" />
	</node>
	<node lat="58.534805558907884" lon="7.0402638965451425" id="-30437">
		<tag k="name" v="Lokketødna" />
		<tag k="natural" v="water" />
		<tag k="ssr:stedsnr" v="520073" />
	</node>
	<node lat="58.32579444326333" lon="6.98823888974499" id="-30439">
		<tag k="name" v="Toppåshølen" />
		<tag k="place" v="locality" />
		<tag k="ssr:stedsnr" v="520163" />
	</node>
	<node lat="58.53453611077417" lon="6.921827777672231" id="-30446">
		<tag k="name" v="Litle Neggvatnet" />
		<tag k="natural" v="water" />
		<tag k="ssr:stedsnr" v="520411" />
		<tag k="water" v="lake" />
	</node>
	<node lat="58.67396111257402" lon="7.03751388689528" id="-30449">
		<tag k="name" v="Skrubbedalsbekkjen" />
		<tag k="ssr:stedsnr" v="520820" />
		<tag k="waterway" v="stream" />
	</node>
	<node lat="58.44300555811417" lon="7.0017361064991155" id="-30452">
		<tag k="name" v="Massteinsodden" />
		<tag k="natural" v="cape" />
		<tag k="ssr:stedsnr" v="520762" />
	</node>
	<node lat="58.445211112842124" lon="6.888033329588228" id="-30460">
		<tag k="name" v="Krigetjønn" />
		<tag k="natural" v="water" />
		<tag k="ssr:stedsnr" v="520976" />
	</node>
	<node lat="58.715672222496536" lon="7.02098056265784" id="-30463">
		<tag k="name" v="Urtjødn" />
		<tag k="natural" v="water" />
		<tag k="ssr:stedsnr" v="521083" />
	</node>
	<node lat="58.486513886897356" lon="7.055969450201774" id="-30471">
		<tag k="name" v="Gjengertjødn" />
		<tag k="natural" v="water" />
		<tag k="ssr:stedsnr" v="521309" />
	</node>
	<node lat="58.476130559278" lon="7.002352780528512" id="-30475">
		<tag k="name" v="Brasdalstjødn" />
		<tag k="natural" v="water" />
		<tag k="ssr:stedsnr" v="521476" />
	</node>
	<node lat="58.59173055945353" lon="6.902519437009279" id="-30476">
		<tag k="name" v="Bjortjødna" />
		<tag k="natural" v="water" />
		<tag k="ssr:stedsnr" v="521482" />
	</node>
	<node lat="58.611380557169" lon="6.907088888203222" id="-30480">
		<tag k="name" v="Kvidingen" />
		<tag k="ssr:stedsnr" v="521521" />
		<tag k="waterway" v="river" />
	</node>
	<node lat="58.43290277581388" lon="6.937644443400568" id="-30489">
		<tag k="name" v="Kvennebekken" />
		<tag k="ssr:stedsnr" v="521861" />
		<tag k="waterway" v="stream" />
	</node>
	<node lat="58.3560166699948" lon="6.93820277149072" id="-30504">
		<tag k="alt_name" v="Heptevatnet" />
		<tag k="name" v="Heptevatn" />
		<tag k="natural" v="water" />
		<tag k="ssr:stedsnr" v="546412" />
	</node>
	<node lat="58.285680554536825" lon="7.038944441558169" id="-30507">
		<tag k="alt_name" v="Lonin" />
		<tag k="name" v="Lonan" />
		<tag k="natural" v="water" />
		<tag k="ssr:stedsnr" v="546485" />
		<tag k="water" v="lake" />
	</node>
	<node lat="58.59063055773861" lon="7.064566663136855" id="-30508">
		<tag k="alt_name" v="Litleåna;Litlåna;Litleåni;Litlåne" />
		<tag k="name" v="Litleåne" />
		<tag k="ssr:stedsnr" v="546605" />
		<tag k="waterway" v="river" />
	</node>
	<node lat="58.60717777542068" lon="6.942883325150713" id="-30511">
		<tag k="alt_name" v="Sauetjørni" />
		<tag k="name" v="Sauetjødna" />
		<tag k="natural" v="water" />
		<tag k="ssr:stedsnr" v="546629" />
	</node>
	<node lat="58.75909722538384" lon="6.94372222933166" id="-30520">
		<tag k="alt_name" v="Lonene" />
		<tag k="name" v="Lonen" />
		<tag k="natural" v="water" />
		<tag k="ssr:stedsnr" v="547026" />
		<tag k="water" v="lake" />
	</node>
	<node lat="58.51691666662429" lon="6.844652781579659" id="-30521">
		<tag k="alt_name" v="Stemtjørni" />
		<tag k="name" v="Stemtjødna" />
		<tag k="natural" v="water" />
		<tag k="ssr:stedsnr" v="547188" />
	</node>
	<node lat="58.694072222935034" lon="7.081813882590152" id="-30523">
		<tag k="name" v="Smalavatn" />
		<tag k="natural" v="water" />
		<tag k="ssr:stedsnr" v="547317" />
		<tag k="water" v="lake" />
	</node>
	<node lat="58.42558333135165" lon="7.035586116079017" id="-30526">
		<tag k="name" v="Haugetjønn" />
		<tag k="natural" v="water" />
		<tag k="ssr:stedsnr" v="576005" />
	</node>
	<node lat="58.34976069204943" lon="6.923571562881392" id="-30543">
		<tag k="name" v="Gåsetjødn" />
		<tag k="natural" v="water" />
		<tag k="ssr:stedsnr" v="576551" />
	</node>
	<node lat="58.37543888894082" lon="6.932808336383024" id="-30544">
		<tag k="name" v="Kleivtjønn" />
		<tag k="natural" v="water" />
		<tag k="ssr:stedsnr" v="576596" />
	</node>
	<node lat="58.27904444597039" lon="7.02739166695798" id="-30550">
		<tag k="name" v="Lille Fossvatn" />
		<tag k="natural" v="water" />
		<tag k="ssr:stedsnr" v="577044" />
		<tag k="water" v="lake" />
	</node>
	<node lat="58.28470833577896" lon="7.010941672397348" id="-30552">
		<tag k="name" v="Svartetjønn" />
		<tag k="natural" v="water" />
		<tag k="ssr:stedsnr" v="577052" />
	</node>
	<node lat="58.23853055280805" lon="6.963069437555424" id="-30554">
		<tag k="name" v="Holtjønna" />
		<tag k="natural" v="water" />
		<tag k="ssr:stedsnr" v="577101" />
	</node>
	<node lat="58.315686113005896" lon="6.780977772625451" id="-30555">
		<tag k="name" v="Rundetjønn" />
		<tag k="natural" v="water" />
		<tag k="ssr:stedsnr" v="577412" />
	</node>
	<node lat="58.328886110702214" lon="6.935461107126657" id="-30561">
		<tag k="name" v="Lona" />
		<tag k="natural" v="water" />
		<tag k="ssr:stedsnr" v="577355" />
	</node>
	<node lat="58.307422219737255" lon="6.920583330048578" id="-30563">
		<tag k="name" v="Lindlandsbekken" />
		<tag k="ssr:stedsnr" v="577509" />
		<tag k="waterway" v="stream" />
	</node>
	<node lat="58.293672220962705" lon="7.041263886041234" id="-30566">
		<tag k="name" v="Odden" />
		<tag k="natural" v="cape" />
		<tag k="ssr:stedsnr" v="577805" />
	</node>
	<node lat="58.380288892764106" lon="7.0294749982242015" id="-30567">
		<tag k="name" v="Kyrkjevaet" />
		<tag k="place" v="locality" />
		<tag k="ssr:stedsnr" v="577598" />
	</node>
	<node lat="58.30040555580717" lon="6.985066668692585" id="-30571">
		<tag k="name" v="Rodevannet" />
		<tag k="natural" v="water" />
		<tag k="ssr:stedsnr" v="577715" />
	</node>
	<node lat="58.384627779686575" lon="6.9917611125322345" id="-30573">
		<tag k="name" v="Fendalsbukta" />
		<tag k="natural" v="bay" />
		<tag k="ssr:stedsnr" v="577902" />
	</node>
	<node lat="58.436713892364914" lon="7.12449722633422" id="-30590">
		<tag k="name" v="Herestølstjønn" />
		<tag k="natural" v="water" />
		<tag k="ssr:stedsnr" v="581047" />
	</node>
	<node lat="58.436272220596294" lon="7.040694439360759" id="-30591">
		<tag k="name" v="Stemmen" />
		<tag k="place" v="locality" />
		<tag k="ssr:stedsnr" v="581059" />
	</node>
	<node lat="58.69972777761378" lon="7.140341666568627" id="-30592">
		<tag k="name" v="Blåtjødn" />
		<tag k="natural" v="water" />
		<tag k="ssr:stedsnr" v="581292" />
	</node>
	<node lat="58.54537222233599" lon="6.848452784908815" id="-30595">
		<tag k="name" v="Lille Stemvatnet" />
		<tag k="natural" v="water" />
		<tag k="ssr:stedsnr" v="581300" />
	</node>
	<node lat="58.45025833246073" lon="6.999241666431124" id="-30597">
		<tag k="name" v="Frøysvikodden" />
		<tag k="natural" v="cape" />
		<tag k="ssr:stedsnr" v="581420" />
	</node>
	<node lat="58.463000003257456" lon="7.095361112124956" id="-30604">
		<tag k="name" v="Ytre Stølstjødn" />
		<tag k="natural" v="water" />
		<tag k="ssr:stedsnr" v="581518" />
	</node>
	<node lat="58.54463333573763" lon="6.821955551850951" id="-30621">
		<tag k="name" v="Sandtjødna" />
		<tag k="natural" v="water" />
		<tag k="ssr:stedsnr" v="581713" />
		<tag k="water" v="lake" />
	</node>
	<node lat="58.40935555243997" lon="7.0085833294331294" id="-30623">
		<tag k="name" v="Timrekleivhølen" />
		<tag k="place" v="locality" />
		<tag k="ssr:stedsnr" v="581747" />
	</node>
	<node lat="58.69084166514165" lon="7.032624993084281" id="-30634">
		<tag k="name" v="Suratjødn" />
		<tag k="natural" v="water" />
		<tag k="ssr:stedsnr" v="582042" />
	</node>
	<node lat="58.52133055472078" lon="7.057477772936831" id="-30641">
		<tag k="name" v="Varheitjødna" />
		<tag k="natural" v="water" />
		<tag k="ssr:stedsnr" v="582525" />
	</node>
	<node lat="58.668505558684245" lon="6.8683083305329005" id="-30643">
		<tag k="name" v="Langekilen" />
		<tag k="natural" v="water" />
		<tag k="ssr:stedsnr" v="582715" />
	</node>
	<node lat="58.66347222070484" lon="7.015247223543571" id="-30646">
		<tag k="name" v="Hakkedalsbekkjen" />
		<tag k="ssr:stedsnr" v="582730" />
		<tag k="waterway" v="stream" />
	</node>
	<node lat="58.323458331568574" lon="6.889180547137961" id="-30651">
		<tag k="name" v="Krogetjønna" />
		<tag k="natural" v="water" />
		<tag k="ssr:stedsnr" v="698471" />
	</node>
	<node lat="58.31571666544015" lon="6.915477784393699" id="-30652">
		<tag k="name" v="Husebakktjønn" />
		<tag k="natural" v="water" />
		<tag k="ssr:stedsnr" v="698485" />
	</node>
	<node lat="58.370833336770445" lon="7.092527777284806" id="-30654">
		<tag k="name" v="Graslona" />
		<tag k="natural" v="water" />
		<tag k="ssr:stedsnr" v="698037" />
		<tag k="water" v="lake" />
	</node>
	<node lat="58.39487222129623" lon="7.0685416649925195" id="-30666">
		<tag k="name" v="Støvleodden" />
		<tag k="natural" v="cape" />
		<tag k="ssr:stedsnr" v="698245" />
	</node>
	<node lat="58.32702499806562" lon="6.873680549341474" id="-30667">
		<tag k="name" v="Lauvåsvatn" />
		<tag k="natural" v="water" />
		<tag k="ssr:stedsnr" v="698249" />
		<tag k="water" v="lake" />
	</node>
	<node lat="58.28406667034894" lon="6.8560027816147455" id="-30671">
		<tag k="name" v="Felsåma" />
		<tag k="natural" v="water" />
		<tag k="ssr:stedsnr" v="698076" />
	</node>
	<node lat="58.339888886567735" lon="6.960338882669962" id="-30678">
		<tag k="name" v="Kjerøyna" />
		<tag k="place" v="island" />
		<tag k="ssr:stedsnr" v="698113" />
	</node>
	<node lat="58.34994444561634" lon="6.993027780289191" id="-30690">
		<tag k="name" v="Dyblan" />
		<tag k="natural" v="water" />
		<tag k="ssr:stedsnr" v="698442" />
	</node>
	<node lat="58.322122221504216" lon="6.904113885311017" id="-30691">
		<tag k="name" v="Svævetjønn" />
		<tag k="natural" v="water" />
		<tag k="ssr:stedsnr" v="698463" />
	</node>
	<node lat="58.31887221861501" lon="6.872263884688752" id="-30698">
		<tag k="name" v="Kjerringtjønn" />
		<tag k="natural" v="water" />
		<tag k="ssr:stedsnr" v="698502" />
	</node>
	<node lat="58.30183888939272" lon="6.879341663232951" id="-30699">
		<tag k="name" v="Bukkøyna" />
		<tag k="place" v="island" />
		<tag k="ssr:stedsnr" v="698538" />
	</node>
	<node lat="58.29432777492515" lon="7.075455548320984" id="-30715">
		<tag k="name" v="Nesodden" />
		<tag k="natural" v="cape" />
		<tag k="ssr:stedsnr" v="698955" />
	</node>
	<node lat="58.29120833341809" lon="7.086022216052043" id="-30717">
		<tag k="name" v="Urebekkbukta" />
		<tag k="natural" v="bay" />
		<tag k="ssr:stedsnr" v="698957" />
	</node>
	<node lat="58.25320000122114" lon="7.03623889401701" id="-30725">
		<tag k="name" v="Kleivvannet" />
		<tag k="natural" v="water" />
		<tag k="ssr:stedsnr" v="699126" />
		<tag k="water" v="lake" />
	</node>
	<node lat="58.52311111318525" lon="6.877522228370695" id="-30744">
		<tag k="alt_name" v="Stemtjørni" />
		<tag k="name" v="Stemtjødna" />
		<tag k="natural" v="water" />
		<tag k="ssr:stedsnr" v="606318" />
	</node>
	<node lat="58.68448611426348" lon="6.91700556321828" id="-30750">
		<tag k="name" v="Ausdalstjørni" />
		<tag k="natural" v="water" />
		<tag k="ssr:stedsnr" v="606612" />
	</node>
	<node lat="58.68264444371458" lon="6.939308330143062" id="-30751">
		<tag k="alt_name" v="Brandvatnet" />
		<tag k="name" v="Brandsvatn" />
		<tag k="natural" v="water" />
		<tag k="ssr:stedsnr" v="606614" />
		<tag k="water" v="lake" />
	</node>
	<node lat="58.36934444635068" lon="7.084927783278667" id="-30752">
		<tag k="name" v="Hagavatnet" />
		<tag k="natural" v="water" />
		<tag k="ssr:stedsnr" v="606711" />
	</node>
	<node lat="58.5466416669803" lon="6.909363886223974" id="-30754">
		<tag k="alt_name" v="Kvintjørni" />
		<tag k="name" v="Kvintjødna" />
		<tag k="natural" v="water" />
		<tag k="ssr:stedsnr" v="606720" />
	</node>
	<node lat="58.7987916640647" lon="7.116913881116571" id="-30765">
		<tag k="alt_name" v="Krokevatnet" />
		<tag k="name" v="Krokevatn" />
		<tag k="natural" v="water" />
		<tag k="ssr:stedsnr" v="607363" />
		<tag k="water" v="lake" />
	</node>
	<node lat="58.51767499721741" lon="6.980938883046651" id="-30772">
		<tag k="name" v="Ytre Langøya" />
		<tag k="place" v="islet" />
		<tag k="ssr:stedsnr" v="702001" />
	</node>
	<node lat="58.558038892760734" lon="6.8586166697272235" id="-30782">
		<tag k="name" v="Skartjødna" />
		<tag k="natural" v="water" />
		<tag k="ssr:stedsnr" v="702228" />
	</node>
	<node lat="58.64085278083698" lon="6.931297219104798" id="-30816">
		<tag k="name" v="Storøyna" />
		<tag k="place" v="island" />
		<tag k="ssr:stedsnr" v="702999" />
	</node>
	<node lat="58.45908333617383" lon="6.898847223035065" id="-30825">
		<tag k="name" v="Stølsbekken" />
		<tag k="ssr:stedsnr" v="703500" />
		<tag k="waterway" v="stream" />
	</node>
	<node lat="58.690066666010246" lon="6.940841672473697" id="-30833">
		<tag k="name" v="Grådalstøllone" />
		<tag k="natural" v="water" />
		<tag k="ssr:stedsnr" v="703390" />
		<tag k="water" v="lake" />
	</node>
	<node lat="58.5199083368397" lon="7.065674994715221" id="-30844">
		<tag k="name" v="Oddetjødna" />
		<tag k="natural" v="water" />
		<tag k="ssr:stedsnr" v="703592" />
	</node>
	<node lat="58.66747222640985" lon="6.865441660594752" id="-30850">
		<tag k="name" v="Heimre-osan" />
		<tag k="natural" v="bay" />
		<tag k="ssr:stedsnr" v="703700" />
	</node>
	<node lat="58.51509722438305" lon="6.867022216590668" id="-30857">
		<tag k="name" v="Selandsbekken" />
		<tag k="ssr:stedsnr" v="703787" />
		<tag k="waterway" v="stream" />
	</node>
	<node lat="58.66333888673826" lon="6.918624993159551" id="-30872">
		<tag k="name" v="Klovsteinsbekkjen" />
		<tag k="ssr:stedsnr" v="704535" />
		<tag k="waterway" v="stream" />
	</node>
	<node lat="58.66061388717742" lon="6.911322222545384" id="-30873">
		<tag k="name" v="Ringreispollen" />
		<tag k="natural" v="water" />
		<tag k="ssr:stedsnr" v="704538" />
	</node>
	<node lat="58.29934166761021" lon="6.7898861043707015" id="-30880">
		<tag k="name" v="Tverdalstjødn" />
		<tag k="natural" v="water" />
		<tag k="ssr:stedsnr" v="637103" />
	</node>
	<node lat="58.29928055550299" lon="6.8422916751731355" id="-30884">
		<tag k="name" v="Moltebærtjønna" />
		<tag k="natural" v="water" />
		<tag k="ssr:stedsnr" v="637126" />
	</node>
	<node lat="58.272008334287506" lon="6.780952775598273" id="-30888">
		<tag k="name" v="Fosselandsvannet" />
		<tag k="natural" v="water" />
		<tag k="ssr:stedsnr" v="637191" />
		<tag k="water" v="lake" />
	</node>
	<node lat="58.336402773968814" lon="6.907238896404218" id="-30892">
		<tag k="name" v="Svartetjønn" />
		<tag k="natural" v="water" />
		<tag k="ssr:stedsnr" v="637280" />
	</node>
	<node lat="58.30175278167742" lon="6.827219450896377" id="-30896">
		<tag k="name" v="Eversodden" />
		<tag k="natural" v="cape" />
		<tag k="ssr:stedsnr" v="637410" />
	</node>
	<node lat="58.41625555691834" lon="7.100211108993511" id="-30898">
		<tag k="name" v="Kravletjødn" />
		<tag k="natural" v="water" />
		<tag k="ssr:stedsnr" v="637415" />
	</node>
	<node lat="58.413199997544496" lon="7.054336115612029" id="-30906">
		<tag k="name" v="Troddedalstjønn" />
		<tag k="natural" v="water" />
		<tag k="ssr:stedsnr" v="637375" />
	</node>
	<node lat="58.387477776983346" lon="6.987750003710041" id="-30909">
		<tag k="name" v="Badebukta" />
		<tag k="natural" v="bay" />
		<tag k="ssr:stedsnr" v="637509" />
	</node>
	<node lat="58.33910278027831" lon="7.092538887526943" id="-30918">
		<tag k="name" v="Tjoratjødn" />
		<tag k="natural" v="water" />
		<tag k="ssr:stedsnr" v="637922" />
	</node>
	<node lat="58.263186114532694" lon="6.7641972250854225" id="-30926">
		<tag k="name" v="Litle Geittjønn" />
		<tag k="natural" v="water" />
		<tag k="ssr:stedsnr" v="638877" />
	</node>
	<node lat="58.71015833384406" lon="6.925391666454441" id="-30933">
		<tag k="name" v="Ystelibekkjen" />
		<tag k="ssr:stedsnr" v="641190" />
		<tag k="waterway" v="stream" />
	</node>
	<node lat="58.43015278198501" lon="6.885830559159912" id="-30937">
		<tag k="name" v="Langatjønn" />
		<tag k="natural" v="water" />
		<tag k="ssr:stedsnr" v="641232" />
	</node>
	<node lat="58.45678055877769" lon="7.1028694388748965" id="-30945">
		<tag k="name" v="Gravrosbekken" />
		<tag k="ssr:stedsnr" v="641426" />
		<tag k="waterway" v="stream" />
	</node>
	<node lat="58.49115832928452" lon="6.961413894065973" id="-30947">
		<tag k="name" v="Pråmstrånne" />
		<tag k="natural" v="beach" />
		<tag k="ssr:stedsnr" v="641532" />
	</node>
	<node lat="58.4174222256486" lon="7.004472221696675" id="-30948">
		<tag k="name" v="Nesodden" />
		<tag k="natural" v="cape" />
		<tag k="ssr:stedsnr" v="641706" />
	</node>
	<node lat="58.6429166652943" lon="6.925011112516847" id="-30961">
		<tag k="name" v="Evjebekken" />
		<tag k="ssr:stedsnr" v="641995" />
		<tag k="waterway" v="stream" />
	</node>
	<node lat="58.437866663306245" lon="7.001991665067704" id="-30969">
		<tag k="name" v="Mjåvannsodden" />
		<tag k="natural" v="cape" />
		<tag k="ssr:stedsnr" v="642433" />
	</node>
	<node lat="58.60371666601453" lon="7.019372230138908" id="-30988">
		<tag k="name" v="Daurestjødna" />
		<tag k="natural" v="water" />
		<tag k="ssr:stedsnr" v="642725" />
	</node>
	<node lat="58.500074999942804" lon="7.079358338092816" id="-30990">
		<tag k="name" v="Bukkhomtjødna" />
		<tag k="natural" v="water" />
		<tag k="ssr:stedsnr" v="642788" />
	</node>
	<node lat="58.60991111520144" lon="6.83880000546211" id="-30994">
		<tag k="name" v="Heimedalstjødna" />
		<tag k="natural" v="water" />
		<tag k="ssr:stedsnr" v="642874" />
	</node>
	<node lat="58.48783055627808" lon="6.895044442700991" id="-30997">
		<tag k="name" v="Stemtjødna" />
		<tag k="natural" v="water" />
		<tag k="ssr:stedsnr" v="642980" />
	</node>
	<node lat="58.566786113001555" lon="7.040266664336014" id="-31009">
		<tag k="alt_name" v="Eptetjørni" />
		<tag k="name" v="Eptetjødn" />
		<tag k="natural" v="water" />
		<tag k="ssr:stedsnr" v="667413" />
	</node>
	<node lat="58.45732500042409" lon="7.092197225831992" id="-31014">
		<tag k="alt_name" v="Myrtjørn" />
		<tag k="name" v="Myrtjødn" />
		<tag k="natural" v="water" />
		<tag k="ssr:stedsnr" v="667339" />
	</node>
	<node lat="58.377147225751216" lon="7.055430558006175" id="-31019">
		<tag k="name" v="Stangelivatn" />
		<tag k="natural" v="water" />
		<tag k="ssr:stedsnr" v="667690" />
		<tag k="water" v="lake" />
	</node>
	<node lat="58.62969444169086" lon="6.848091662329323" id="-31021">
		<tag k="alt_name" v="Slåttelivatnet" />
		<tag k="name" v="Nordre Slåtelivatn" />
		<tag k="natural" v="water" />
		<tag k="ssr:stedsnr" v="667587" />
		<tag k="water" v="lake" />
	</node>
	<node lat="58.27425555115955" lon="6.942866662100724" id="-31022">
		<tag k="alt_name" v="Storestemmen" />
		<tag k="name" v="Store stemmen" />
		<tag k="natural" v="water" />
		<tag k="ssr:stedsnr" v="668319" />
	</node>
	<node lat="58.50956666735515" lon="6.829322228417712" id="-31025">
		<tag k="name" v="Dabevatnet" />
		<tag k="natural" v="water" />
		<tag k="ssr:stedsnr" v="668395" />
		<tag k="water" v="lake" />
	</node>
	<node lat="58.605119444139135" lon="6.927305548230414" id="-31028">
		<tag k="alt_name" v="Stemtjørni" />
		<tag k="name" v="Stemtjødna" />
		<tag k="natural" v="water" />
		<tag k="ssr:stedsnr" v="668695" />
	</node>
	<node lat="58.21657222193545" lon="6.774863885391169" id="-31030">
		<tag k="name" v="Tvitjødn" />
		<tag k="natural" v="water" />
		<tag k="ssr:stedsnr" v="689817" />
	</node>
	<node lat="58.298511110582865" lon="6.885983331852046" id="-31034">
		<tag k="name" v="Krabbetjønn" />
		<tag k="natural" v="water" />
		<tag k="ssr:stedsnr" v="698014" />
	</node>
	<node lat="58.28749722308957" lon="6.926097227407946" id="-31035">
		<tag k="name" v="Roben" />
		<tag k="natural" v="beach" />
		<tag k="ssr:stedsnr" v="698023" />
	</node>
	<node lat="58.34258055406705" lon="6.794572216866342" id="-31040">
		<tag k="name" v="Feringsund" />
		<tag k="natural" v="strait" />
		<tag k="ssr:stedsnr" v="698419" />
	</node>
	<node lat="58.342930557062964" lon="6.791286103023345" id="-31041">
		<tag k="name" v="Tydnevika" />
		<tag k="natural" v="bay" />
		<tag k="ssr:stedsnr" v="698420" />
	</node>
	<node lat="58.36443889050254" lon="7.010722220387083" id="-31043">
		<tag k="name" v="Kvednebekken" />
		<tag k="ssr:stedsnr" v="698317" />
		<tag k="waterway" v="stream" />
	</node>
	<node lat="58.34787222228662" lon="6.9423555617576005" id="-31046">
		<tag k="name" v="Krokvatn" />
		<tag k="natural" v="water" />
		<tag k="ssr:stedsnr" v="698374" />
		<tag k="water" v="lake" />
	</node>
	<node lat="58.328952911953344" lon="6.857914943794544" id="-31050">
		<tag k="name" v="Geitespranget" />
		<tag k="natural" v="strait" />
		<tag k="ssr:stedsnr" v="698467" />
	</node>
	<node lat="58.344680557843915" lon="7.102194440639308" id="-31053">
		<tag k="name" v="Einartjødn" />
		<tag k="natural" v="water" />
		<tag k="ssr:stedsnr" v="698923" />
	</node>
	<node lat="58.24534722653271" lon="6.913213892242284" id="-31057">
		<tag k="name" v="Stakkodden" />
		<tag k="natural" v="cape" />
		<tag k="ssr:stedsnr" v="699076" />
	</node>
	<node lat="58.241849996805925" lon="7.045527782470141" id="-31059">
		<tag k="name" v="Slebotntjønna" />
		<tag k="natural" v="water" />
		<tag k="ssr:stedsnr" v="699211" />
	</node>
	<node lat="58.284066662847415" lon="7.063941663448592" id="-31061">
		<tag k="name" v="Ommundslona" />
		<tag k="natural" v="water" />
		<tag k="ssr:stedsnr" v="698973" />
		<tag k="water" v="lake" />
	</node>
	<node lat="58.21966388754435" lon="6.889791665363211" id="-31062">
		<tag k="name" v="Heptetjødn" />
		<tag k="natural" v="water" />
		<tag k="ssr:stedsnr" v="699466" />
	</node>
	<node lat="58.66606944072307" lon="6.91566110510725" id="-31067">
		<tag k="name" v="Dyrlibekkjen" />
		<tag k="ssr:stedsnr" v="702179" />
		<tag k="waterway" v="stream" />
	</node>
	<node lat="58.670102775987075" lon="6.922152785063542" id="-31069">
		<tag k="name" v="Krobekkjen" />
		<tag k="ssr:stedsnr" v="702185" />
		<tag k="waterway" v="stream" />
	</node>
	<node lat="58.70688611354457" lon="6.885111105351997" id="-31086">
		<tag k="name" v="Ribjalsvatn" />
		<tag k="natural" v="water" />
		<tag k="ssr:stedsnr" v="702452" />
		<tag k="water" v="lake" />
	</node>
	<node lat="58.461091667379115" lon="7.055505563663218" id="-31087">
		<tag k="name" v="Øyne" />
		<tag k="place" v="islet" />
		<tag k="ssr:stedsnr" v="702463" />
	</node>
	<node lat="58.488430553461626" lon="6.963797216375831" id="-31093">
		<tag k="name" v="Tjødne" />
		<tag k="natural" v="water" />
		<tag k="ssr:stedsnr" v="702526" />
	</node>
	<node lat="58.659480553691765" lon="6.984022217931841" id="-31097">
		<tag k="name" v="Skovvedbekkjen" />
		<tag k="ssr:stedsnr" v="702931" />
		<tag k="waterway" v="stream" />
	</node>
	<node lat="58.44294100414108" lon="6.879084322501426" id="-31098">
		<tag k="name" v="Kyrkjevatn" />
		<tag k="natural" v="water" />
		<tag k="ssr:stedsnr" v="702961" />
		<tag k="water" v="lake" />
	</node>
	<node lat="58.50420555229495" lon="6.892638881573726" id="-31108">
		<tag k="name" v="Storlibekken" />
		<tag k="ssr:stedsnr" v="703113" />
		<tag k="waterway" v="stream" />
	</node>
	<node lat="58.54569999808111" lon="6.83872221517693" id="-31110">
		<tag k="name" v="Slåtthomtjødna" />
		<tag k="natural" v="water" />
		<tag k="ssr:stedsnr" v="703309" />
	</node>
	<node lat="58.431358329582" lon="6.883838883438064" id="-31113">
		<tag k="name" v="Svartetjønn" />
		<tag k="natural" v="water" />
		<tag k="ssr:stedsnr" v="703321" />
	</node>
	<node lat="58.451541670411196" lon="6.889330558306986" id="-31117">
		<tag k="name" v="Aldalstjønn" />
		<tag k="natural" v="water" />
		<tag k="ssr:stedsnr" v="703462" />
	</node>
	<node lat="58.43454722627724" lon="6.994180554890841" id="-31119">
		<tag k="name" v="Djuphomtjønn" />
		<tag k="natural" v="water" />
		<tag k="ssr:stedsnr" v="703465" />
	</node>
	<node lat="58.47466111013679" lon="7.006597224615049" id="-31126">
		<tag k="name" v="Stigtjødn" />
		<tag k="natural" v="water" />
		<tag k="ssr:stedsnr" v="703527" />
	</node>
	<node lat="58.52177777544216" lon="7.074702783253118" id="-31152">
		<tag k="alt_name" v="Rypelihomtjørni" />
		<tag k="name" v="Rubelihomtjødna" />
		<tag k="natural" v="water" />
		<tag k="ssr:stedsnr" v="728075" />
	</node>
	<node lat="58.43554167115078" lon="6.892238897179509" id="-31153">
		<tag k="alt_name" v="Floten" />
		<tag k="name" v="Floden" />
		<tag k="natural" v="water" />
		<tag k="ssr:stedsnr" v="728078" />
	</node>
	<node lat="58.30075833483116" lon="6.85151666498855" id="-31154">
		<tag k="alt_name" v="Urdevatnet" />
		<tag k="name" v="Urevatn" />
		<tag k="natural" v="water" />
		<tag k="ssr:stedsnr" v="728222" />
	</node>
	<node lat="58.25481245380684" lon="6.9538751355551085" id="-31155">
		<tag k="name" v="Store Skogetjønn" />
		<tag k="natural" v="water" />
		<tag k="ssr:stedsnr" v="728287" />
	</node>
	<node lat="58.35288888654695" lon="6.941575003412623" id="-31158">
		<tag k="alt_name" v="Bjortjørn" />
		<tag k="name" v="Bjortjønn" />
		<tag k="natural" v="water" />
		<tag k="ssr:stedsnr" v="728420" />
	</node>
	<node lat="58.57650277496865" lon="7.007622220645232" id="-31159">
		<tag k="alt_name" v="Svåletjørni" />
		<tag k="name" v="Svåletjødna" />
		<tag k="natural" v="water" />
		<tag k="ssr:stedsnr" v="728388" />
	</node>
	<node lat="58.384863889469344" lon="6.9918500014989995" id="-31162">
		<tag k="name" v="Solbjørgvannet" />
		<tag k="natural" v="water" />
		<tag k="ssr:stedsnr" v="728624" />
	</node>
	<node lat="58.344158334540424" lon="6.998338896256162" id="-31163">
		<tag k="alt_name" v="Jerdalsvatnet" />
		<tag k="name" v="Jertjønn" />
		<tag k="natural" v="water" />
		<tag k="ssr:stedsnr" v="728679" />
	</node>
	<node lat="58.5330194426095" lon="6.871230548129353" id="-31165">
		<tag k="alt_name" v="Surtetjørn" />
		<tag k="name" v="Surtetjødna" />
		<tag k="natural" v="water" />
		<tag k="ssr:stedsnr" v="728688" />
	</node>
	<node lat="58.67055277933767" lon="7.099905560421203" id="-31172">
		<tag k="name" v="Finndalsvatnet" />
		<tag k="natural" v="water" />
		<tag k="ssr:stedsnr" v="729292" />
	</node>
	<node lat="58.327963885139305" lon="7.054899999795879" id="-31183">
		<tag k="name" v="Kleiveskarstøltjønna" />
		<tag k="natural" v="water" />
		<tag k="ssr:stedsnr" v="759106" />
	</node>
	<node lat="58.29618055762754" lon="6.820463881222486" id="-31188">
		<tag k="name" v="Igletjønn" />
		<tag k="natural" v="water" />
		<tag k="ssr:stedsnr" v="759126" />
	</node>
	<node lat="58.291125003698305" lon="6.904583332736511" id="-31190">
		<tag k="name" v="Øyebekken" />
		<tag k="ssr:stedsnr" v="759006" />
		<tag k="waterway" v="stream" />
	</node>
	<node lat="58.28278055659216" lon="7.018988889131779" id="-31198">
		<tag k="name" v="Lykkeriholmsvatn" />
		<tag k="natural" v="water" />
		<tag k="ssr:stedsnr" v="759055" />
		<tag k="water" v="lake" />
	</node>
	<node lat="58.318611111128305" lon="6.9136027732440235" id="-31206">
		<tag k="name" v="Poddetjønn" />
		<tag k="natural" v="water" />
		<tag k="ssr:stedsnr" v="759514" />
	</node>
	<node lat="58.348844442504856" lon="7.101191667014349" id="-31220">
		<tag k="name" v="Spangstjødn" />
		<tag k="natural" v="water" />
		<tag k="ssr:stedsnr" v="759905" />
	</node>
	<node lat="58.3145666702889" lon="6.8996138825487145" id="-31231">
		<tag k="name" v="Litle Sandvatn" />
		<tag k="natural" v="water" />
		<tag k="ssr:stedsnr" v="762451" />
		<tag k="water" v="lake" />
	</node>
	<node lat="58.685141666456836" lon="6.916458335820286" id="-31240">
		<tag k="name" v="Ausdalshylen" />
		<tag k="natural" v="water" />
		<tag k="ssr:stedsnr" v="763259" />
	</node>
	<node lat="58.57801666497265" lon="6.94294444531353" id="-31252">
		<tag k="name" v="Sagehølen" />
		<tag k="place" v="locality" />
		<tag k="ssr:stedsnr" v="763543" />
	</node>
	<node lat="58.67091666370362" lon="6.95019722402861" id="-31264">
		<tag k="name" v="Midtretjødn" />
		<tag k="natural" v="water" />
		<tag k="ssr:stedsnr" v="763750" />
	</node>
	<node lat="58.67931110772734" lon="7.026700001691734" id="-31265">
		<tag k="name" v="Småtjødn" />
		<tag k="natural" v="water" />
		<tag k="ssr:stedsnr" v="763794" />
	</node>
	<node lat="58.78492222517506" lon="6.944258341407365" id="-31272">
		<tag k="name" v="Kroktjødn" />
		<tag k="natural" v="water" />
		<tag k="ssr:stedsnr" v="764012" />
	</node>
	<node lat="58.64019444237641" lon="6.927800000722903" id="-31275">
		<tag k="name" v="Indre Bjelkekilen" />
		<tag k="natural" v="bay" />
		<tag k="ssr:stedsnr" v="763999" />
	</node>
	<node lat="58.47605000358386" lon="6.930002769984386" id="-31304">
		<tag k="name" v="Hunskil" />
		<tag k="place" v="locality" />
		<tag k="ssr:stedsnr" v="764904" />
	</node>
	<node lat="58.42919444378887" lon="6.932486110271611" id="-31316">
		<tag k="alt_name" v="Bukkstjørn" />
		<tag k="name" v="Bukkstjønn" />
		<tag k="natural" v="water" />
		<tag k="ssr:stedsnr" v="910105" />
	</node>
	<node lat="58.411691666192276" lon="6.938380551844928" id="-31320">
		<tag k="alt_name" v="Homstjørna" />
		<tag k="name" v="Homstjønna" />
		<tag k="natural" v="water" />
		<tag k="ssr:stedsnr" v="910380" />
	</node>
	<node lat="58.56729166687798" lon="7.020824993428874" id="-31322">
		<tag k="name" v="Anderstjørni" />
		<tag k="natural" v="water" />
		<tag k="ssr:stedsnr" v="910429" />
	</node>
	<node lat="58.47247222594407" lon="7.024447219150507" id="-31323">
		<tag k="alt_name" v="Kraumsvatnet" />
		<tag k="name" v="Kraunsvatnet" />
		<tag k="natural" v="water" />
		<tag k="ssr:stedsnr" v="910332" />
	</node>
	<node lat="58.5876194425218" lon="7.060438882516443" id="-31326">
		<tag k="alt_name" v="Bjørnvatnet, in;Bjørnvatnet, indre" />
		<tag k="name" v="Ytre Bjørnvatnet" />
		<tag k="natural" v="water" />
		<tag k="ssr:stedsnr" v="910469" />
		<tag k="water" v="lake" />
	</node>
	<node lat="58.58799444152056" lon="7.0410861125080375" id="-31327">
		<tag k="alt_name" v="Lauvhomtjørnan" />
		<tag k="name" v="Lauhomtjødn" />
		<tag k="natural" v="water" />
		<tag k="ssr:stedsnr" v="910472" />
		<tag k="water" v="lake" />
	</node>
	<node lat="58.39515833198647" lon="7.0449250010459075" id="-31328">
		<tag k="alt_name" v="Gåselandstjørna" />
		<tag k="name" v="Gåselandstjønna" />
		<tag k="natural" v="water" />
		<tag k="ssr:stedsnr" v="910626" />
	</node>
	<node lat="58.64622777870774" lon="6.904649994886015" id="-31329">
		<tag k="name" v="Fossen" />
		<tag k="ssr:stedsnr" v="910635" />
		<tag k="waterway" v="stream" />
	</node>
	<node lat="58.573288885975714" lon="6.813336119582102" id="-31331">
		<tag k="name" v="Langevatnet" />
		<tag k="natural" v="water" />
		<tag k="ssr:stedsnr" v="910687" />
		<tag k="water" v="lake" />
	</node>
	<node lat="58.236008336017164" lon="6.920325004367672" id="-31334">
		<tag k="alt_name" v="Busundvatn;Busundvatnet" />
		<tag k="name" v="Busundvannet" />
		<tag k="natural" v="water" />
		<tag k="ssr:stedsnr" v="789129" />
		<tag k="water" v="lake" />
	</node>
	<node lat="58.22539999990922" lon="6.790655563733849" id="-31335">
		<tag k="alt_name" v="Hålandsvatnet" />
		<tag k="name" v="Hålandsvannet" />
		<tag k="natural" v="water" />
		<tag k="ssr:stedsnr" v="789153" />
	</node>
	<node lat="58.77176111350202" lon="6.939624999677171" id="-31336">
		<tag k="name" v="Meljevatnet" />
		<tag k="natural" v="water" />
		<tag k="ssr:stedsnr" v="789006" />
	</node>
	<node lat="58.46976666491211" lon="7.007972226344509" id="-31341">
		<tag k="alt_name" v="Veisetjørni" />
		<tag k="name" v="Veisetjødn" />
		<tag k="natural" v="water" />
		<tag k="ssr:stedsnr" v="789356" />
	</node>
	<node lat="58.46952500035427" lon="6.97095000306562" id="-31342">
		<tag k="alt_name" v="Stemtjødn" />
		<tag k="name" v="Stemtjørn" />
		<tag k="natural" v="water" />
		<tag k="ssr:stedsnr" v="789362" />
	</node>
	<node lat="58.26725555608807" lon="7.023916669372664" id="-31345">
		<tag k="alt_name" v="Førlandsvatnet" />
		<tag k="name" v="Førlandsvatn" />
		<tag k="natural" v="water" />
		<tag k="ssr:stedsnr" v="789505" />
	</node>
	<node lat="58.66947500417225" lon="7.143544445529933" id="-31347">
		<tag k="name" v="Holevoilan" />
		<tag k="natural" v="water" />
		<tag k="ssr:stedsnr" v="789270" />
	</node>
	<node lat="58.732963892539665" lon="6.944780558015096" id="-31356">
		<tag k="alt_name" v="Øyusvatnet;Øyuvsvatn" />
		<tag k="loc_name" v="Øyuvsvatnet" />
		<tag k="name" v="Øyulvsvatnet" />
		<tag k="natural" v="water" />
		<tag k="ssr:stedsnr" v="790571" />
		<tag k="water" v="lake" />
	</node>
	<node lat="58.252116664181216" lon="6.927988882150672" id="-31357">
		<tag k="name" v="Lonene" />
		<tag k="natural" v="water" />
		<tag k="ssr:stedsnr" v="819005" />
		<tag k="water" v="lake" />
	</node>
	<node lat="58.37488055496299" lon="7.015583338116436" id="-31368">
		<tag k="name" v="Øyna" />
		<tag k="place" v="islet" />
		<tag k="ssr:stedsnr" v="819704" />
	</node>
	<node lat="58.239883330071706" lon="6.943216660781497" id="-31373">
		<tag k="name" v="Svartevatn" />
		<tag k="natural" v="water" />
		<tag k="ssr:stedsnr" v="820018" />
		<tag k="water" v="lake" />
	</node>
	<node lat="58.2881160692052" lon="6.813355780095858" id="-31375">
		<tag k="name" v="Prestheitjødn" />
		<tag k="natural" v="water" />
		<tag k="ssr:stedsnr" v="820104" />
	</node>
	<node lat="58.34128333726048" lon="7.082594442807554" id="-31377">
		<tag k="name" v="Råna" />
		<tag k="place" v="locality" />
		<tag k="ssr:stedsnr" v="820114" />
	</node>
	<node lat="58.233652779356305" lon="6.857588895487716" id="-31382">
		<tag k="name" v="Bergås odden" />
		<tag k="natural" v="cape" />
		<tag k="ssr:stedsnr" v="820368" />
	</node>
	<node lat="58.304811113189736" lon="6.910727775034237" id="-31386">
		<tag k="name" v="Øygardstjønna" />
		<tag k="natural" v="water" />
		<tag k="ssr:stedsnr" v="820580" />
	</node>
	<node lat="58.3090361129513" lon="7.035038884650552" id="-31390">
		<tag k="name" v="Espelandstjønna" />
		<tag k="natural" v="water" />
		<tag k="ssr:stedsnr" v="820672" />
	</node>
	<node lat="58.295413891495286" lon="7.042419450836997" id="-31395">
		<tag k="name" v="Kjeråsodden" />
		<tag k="natural" v="cape" />
		<tag k="ssr:stedsnr" v="820771" />
	</node>
	<node lat="58.6322000015379" lon="7.068158333709455" id="-31408">
		<tag k="name" v="Ytre Litlådalsvatnet" />
		<tag k="natural" v="water" />
		<tag k="ssr:stedsnr" v="824204" />
		<tag k="water" v="lake" />
	</node>
	<node lat="58.62372499995102" lon="7.073591666797256" id="-31409">
		<tag k="name" v="Stenulvslona" />
		<tag k="natural" v="water" />
		<tag k="ssr:stedsnr" v="824206" />
		<tag k="water" v="lake" />
	</node>
	<node lat="58.41020833676524" lon="7.004022223383855" id="-31422">
		<tag k="name" v="Libekken" />
		<tag k="ssr:stedsnr" v="824735" />
		<tag k="waterway" v="stream" />
	</node>
	<node lat="58.417288885329334" lon="7.003030548734846" id="-31423">
		<tag k="name" v="Pråmstøa" />
		<tag k="natural" v="bay" />
		<tag k="ssr:stedsnr" v="824738" />
	</node>
	<node lat="58.50356388872722" lon="6.934630561130997" id="-31429">
		<tag k="name" v="Engedalstjødna" />
		<tag k="natural" v="water" />
		<tag k="ssr:stedsnr" v="825123" />
	</node>
	<node lat="58.47085833443699" lon="7.058080560763767" id="-31433">
		<tag k="name" v="Trimtjødn" />
		<tag k="natural" v="water" />
		<tag k="ssr:stedsnr" v="825404" />
	</node>
	<node lat="58.54883611144446" lon="6.884102779457581" id="-31438">
		<tag k="name" v="Uretjødna" />
		<tag k="natural" v="water" />
		<tag k="ssr:stedsnr" v="825687" />
	</node>
	<node lat="58.50021111308852" lon="7.049483326558981" id="-31441">
		<tag k="name" v="Storebekk" />
		<tag k="ssr:stedsnr" v="825816" />
		<tag k="waterway" v="stream" />
	</node>
	<node lat="58.59982222331704" lon="6.867316669497145" id="-31442">
		<tag k="name" v="Djupalaget" />
		<tag k="natural" v="strait" />
		<tag k="ssr:stedsnr" v="825818" />
	</node>
	<node lat="58.59953610690249" lon="7.028822221787613" id="-31449">
		<tag k="name" v="Lirestjødn" />
		<tag k="natural" v="water" />
		<tag k="ssr:stedsnr" v="825724" />
	</node>
	<node lat="58.596008329259895" lon="6.858180550374418" id="-31458">
		<tag k="alt_name" v="Hisvatnet" />
		<tag k="name" v="Lindefjelds Hisvatnet" />
		<tag k="natural" v="water" />
		<tag k="ssr:stedsnr" v="850180" />
		<tag k="water" v="lake" />
	</node>
	<node lat="58.725819445563594" lon="6.976655555380144" id="-31461">
		<tag k="alt_name" v="Kolåvatnet" />
		<tag k="name" v="Kodåvatn" />
		<tag k="natural" v="water" />
		<tag k="ssr:stedsnr" v="850316" />
		<tag k="water" v="lake" />
	</node>
	<node lat="58.697702776671505" lon="6.978672227706204" id="-31468">
		<tag k="alt_name" v="Myrstølloni" />
		<tag k="name" v="Myrstøllone" />
		<tag k="natural" v="water" />
		<tag k="ssr:stedsnr" v="850282" />
	</node>
	<node lat="58.643044446581506" lon="6.883905555205381" id="-31477">
		<tag k="alt_name" v="Uforstjørni" />
		<tag k="name" v="Uforstjødna" />
		<tag k="natural" v="water" />
		<tag k="ssr:stedsnr" v="850627" />
	</node>
	<node lat="58.63176111499082" lon="7.018769448586704" id="-31482">
		<tag k="alt_name" v="Skakketjørni" />
		<tag k="name" v="Skakketjødna" />
		<tag k="natural" v="water" />
		<tag k="ssr:stedsnr" v="851440" />
	</node>
	<node lat="58.25196111210153" lon="6.903102784824005" id="-31500">
		<tag k="name" v="Krosstjønna" />
		<tag k="natural" v="water" />
		<tag k="ssr:stedsnr" v="881106" />
	</node>
	<node lat="58.294444443177234" lon="6.833027773085946" id="-31502">
		<tag k="name" v="Midtontjønn" />
		<tag k="natural" v="water" />
		<tag k="ssr:stedsnr" v="881109" />
	</node>
	<node lat="58.32349780612604" lon="6.791765388240884" id="-31507">
		<tag k="name" v="Melandstjødn" />
		<tag k="natural" v="water" />
		<tag k="ssr:stedsnr" v="881449" />
	</node>
	<node lat="58.338255558066756" lon="7.098386106169508" id="-31516">
		<tag k="name" v="Skuggevatn" />
		<tag k="natural" v="water" />
		<tag k="ssr:stedsnr" v="881919" />
		<tag k="water" v="lake" />
	</node>
	<node lat="58.34219166840138" lon="7.101405560228246" id="-31517">
		<tag k="name" v="Skuggevatn" />
		<tag k="natural" v="water" />
		<tag k="ssr:stedsnr" v="881922" />
		<tag k="water" v="lake" />
	</node>
	<node lat="58.28425278024119" lon="7.049508334487384" id="-31519">
		<tag k="name" v="Øvre Ronevann" />
		<tag k="natural" v="water" />
		<tag k="ssr:stedsnr" v="881970" />
		<tag k="water" v="lake" />
	</node>
	<node lat="58.52087500077361" lon="6.980491671267997" id="-31531">
		<tag k="name" v="Indre Langøyna" />
		<tag k="place" v="islet" />
		<tag k="ssr:stedsnr" v="885020" />
	</node>
	<node lat="58.51593610826253" lon="6.946316667359716" id="-31532">
		<tag k="name" v="Hommetjødna" />
		<tag k="natural" v="water" />
		<tag k="ssr:stedsnr" v="885001" />
	</node>
	<node lat="58.50191944344934" lon="6.8795999986874765" id="-31536">
		<tag k="name" v="Grunntjødna" />
		<tag k="natural" v="water" />
		<tag k="ssr:stedsnr" v="885114" />
	</node>
	<node lat="58.725683331651986" lon="6.921205552556252" id="-31538">
		<tag k="name" v="Holmebekkjen" />
		<tag k="ssr:stedsnr" v="885157" />
		<tag k="waterway" v="stream" />
	</node>
	<node lat="58.76825555707483" lon="6.998175005385532" id="-31545">
		<tag k="name" v="Steinulvstjødn" />
		<tag k="natural" v="water" />
		<tag k="ssr:stedsnr" v="885218" />
	</node>
	<node lat="58.431236115178514" lon="6.909169448839891" id="-31547">
		<tag k="name" v="Skiftingstjønn" />
		<tag k="natural" v="water" />
		<tag k="ssr:stedsnr" v="885300" />
	</node>
	<node lat="58.412094442353364" lon="7.0085722238055475" id="-31559">
		<tag k="name" v="Sagefallet" />
		<tag k="ssr:stedsnr" v="885714" />
		<tag k="waterway" v="rapids" />
	</node>
	<node lat="58.54754721786678" lon="6.882163892864225" id="-31560">
		<tag k="name" v="Storneset" />
		<tag k="natural" v="cape" />
		<tag k="ssr:stedsnr" v="885717" />
	</node>
	<node lat="58.4751694462058" lon="6.9998916596643745" id="-31562">
		<tag k="name" v="Bergvalibekken" />
		<tag k="ssr:stedsnr" v="885498" />
		<tag k="waterway" v="stream" />
	</node>
	<node lat="58.635497225173104" lon="6.9252722161453795" id="-31570">
		<tag k="name" v="Ytre Bjelkekilen" />
		<tag k="natural" v="bay" />
		<tag k="ssr:stedsnr" v="886000" />
	</node>
	<node lat="58.62315055465913" lon="6.851350955841052" id="-31582">
		<tag k="name" v="Mørketjødna" />
		<tag k="natural" v="water" />
		<tag k="ssr:stedsnr" v="886861" />
	</node>
	<node lat="58.61491111141605" lon="7.023450006185347" id="-31594">
		<tag k="alt_name" v="Grunnetjørni" />
		<tag k="name" v="Grunnetjødna" />
		<tag k="natural" v="water" />
		<tag k="ssr:stedsnr" v="910503" />
	</node>
	<node lat="58.608261110581005" lon="7.017030549137358" id="-31595">
		<tag k="name" v="Pråmvatnet" />
		<tag k="natural" v="water" />
		<tag k="ssr:stedsnr" v="910517" />
	</node>
	<node lat="58.30456666791006" lon="7.109402781536388" id="-31596">
		<tag k="alt_name" v="Frøysvatnet, l" />
		<tag k="name" v="Litle Frøysvatn" />
		<tag k="natural" v="water" />
		<tag k="ssr:stedsnr" v="910548" />
	</node>
	<node lat="58.28123888535809" lon="7.001644438321822" id="-31597">
		<tag k="alt_name" v="Tågåsvatnet" />
		<tag k="name" v="Tågåsvatn" />
		<tag k="natural" v="water" />
		<tag k="ssr:stedsnr" v="910531" />
		<tag k="water" v="lake" />
	</node>
	<node lat="58.323313889920556" lon="6.875524993275889" id="-31598">
		<tag k="alt_name" v="Stemtjørn" />
		<tag k="name" v="Stemtjønn" />
		<tag k="natural" v="water" />
		<tag k="ssr:stedsnr" v="910502" />
	</node>
	<node lat="58.65912500048196" lon="6.885399996224485" id="-31599">
		<tag k="name" v="Heptetjørni" />
		<tag k="natural" v="water" />
		<tag k="ssr:stedsnr" v="910652" />
	</node>
	<node lat="58.66639721994792" lon="6.901725000109174" id="-31600">
		<tag k="alt_name" v="Dyrlitjørni" />
		<tag k="name" v="Dyrlitjødn" />
		<tag k="natural" v="water" />
		<tag k="ssr:stedsnr" v="910653" />
	</node>
	<node lat="58.61170000404907" lon="6.869083326142739" id="-31601">
		<tag k="name" v="Hisvatnet" />
		<tag k="natural" v="water" />
		<tag k="ssr:stedsnr" v="910660" />
		<tag k="water" v="lake" />
	</node>
	<node lat="58.72333611169671" lon="7.061397217725397" id="-31604">
		<tag k="alt_name" v="Fiskebulonin" />
		<tag k="name" v="Fiskebulonen" />
		<tag k="natural" v="water" />
		<tag k="ssr:stedsnr" v="911332" />
	</node>
	<node lat="58.76333611229888" lon="6.9704083406459985" id="-31606">
		<tag k="alt_name" v="Hellertjørn" />
		<tag k="name" v="Hellertjødn" />
		<tag k="natural" v="water" />
		<tag k="ssr:stedsnr" v="911342" />
	</node>
	<node lat="58.77302500118852" lon="7.0870333354336" id="-31607">
		<tag k="alt_name" v="Vikevatnet" />
		<tag k="name" v="Vikevatn" />
		<tag k="natural" v="water" />
		<tag k="ssr:stedsnr" v="911345" />
		<tag k="water" v="lake" />
	</node>
	<node lat="58.78488055393743" lon="7.022591660361666" id="-31609">
		<tag k="alt_name" v="Nesjene" />
		<tag k="name" v="Nesjen" />
		<tag k="place" v="locality" />
		<tag k="ssr:stedsnr" v="911366" />
	</node>
	<node lat="58.66951944405549" lon="6.931530547309854" id="-31620">
		<tag k="name" v="Baglidalsbekkjen" />
		<tag k="ssr:stedsnr" v="945187" />
		<tag k="waterway" v="stream" />
	</node>
	<node lat="58.68030833278287" lon="6.916958337022718" id="-31629">
		<tag k="name" v="Hesthomøyren" />
		<tag k="ssr:stedsnr" v="945236" />
		<tag k="waterway" v="river" />
	</node>
	<node lat="58.46470277861344" lon="6.9796833362998205" id="-31632">
		<tag k="name" v="Stemtjødn" />
		<tag k="natural" v="water" />
		<tag k="ssr:stedsnr" v="945408" />
	</node>
	<node lat="58.67425278166907" lon="7.048380551765613" id="-31642">
		<tag k="name" v="Moserinnbekken" />
		<tag k="ssr:stedsnr" v="946006" />
		<tag k="waterway" v="stream" />
	</node>
	<node lat="58.81561111351373" lon="7.143302772040375" id="-31645">
		<tag k="name" v="Holmevatn" />
		<tag k="natural" v="water" />
		<tag k="ssr:stedsnr" v="946040" />
		<tag k="water" v="lake" />
	</node>
	<node lat="58.57549444785117" lon="7.026158326597529" id="-31660">
		<tag k="name" v="Lonen" />
		<tag k="natural" v="water" />
		<tag k="ssr:stedsnr" v="946600" />
		<tag k="water" v="lake" />
	</node>
	<node lat="58.50736666990526" lon="7.085899993894451" id="-31665">
		<tag k="name" v="Hesthomtjødna" />
		<tag k="natural" v="water" />
		<tag k="ssr:stedsnr" v="946801" />
	</node>
	<node lat="58.59791666716801" lon="6.871744441363284" id="-31672">
		<tag k="name" v="Stemtjødna" />
		<tag k="natural" v="water" />
		<tag k="ssr:stedsnr" v="946816" />
	</node>
	<node lat="58.556700004058875" lon="6.870216670122366" id="-31674">
		<tag k="name" v="Dalebekk" />
		<tag k="ssr:stedsnr" v="946826" />
		<tag k="waterway" v="stream" />
	</node>
	<node lat="58.62700278035921" lon="6.859305557935098" id="-31677">
		<tag k="name" v="Ytre Slåtelivatn" />
		<tag k="natural" v="water" />
		<tag k="ssr:stedsnr" v="946887" />
		<tag k="water" v="lake" />
	</node>
	<node lat="58.49724721794866" lon="6.891136115701013" id="-31752">
		<tag k="alt_name" v="Stølstjørn" />
		<tag k="name" v="Stølstjødna" />
		<tag k="natural" v="water" />
		<tag k="ssr:stedsnr" v="45" />
	</node>
	<node lat="58.24141389085183" lon="6.718600006323805" id="-31755">
		<tag k="alt_name" v="Laubervann" />
		<tag k="name" v="Lauvbergvatnet" />
		<tag k="natural" v="water" />
		<tag k="ssr:stedsnr" v="132" />
	</node>
	<node lat="58.541091663694395" lon="7.049352779315023" id="-31756">
		<tag k="alt_name" v="Mjåvatn" />
		<tag k="name" v="Mjåvatnet" />
		<tag k="natural" v="water" />
		<tag k="ssr:stedsnr" v="139" />
		<tag k="water" v="lake" />
	</node>
	<node lat="58.55462777790678" lon="7.043791674646475" id="-31757">
		<tag k="alt_name" v="Gunnarstjørni" />
		<tag k="name" v="Gunnarstjødna" />
		<tag k="natural" v="water" />
		<tag k="ssr:stedsnr" v="394" />
	</node>
	<node lat="58.58965147617208" lon="6.984707672830749" id="-31758">
		<tag k="alt_name" v="Stølstjørni" />
		<tag k="name" v="Stølstjødna" />
		<tag k="natural" v="water" />
		<tag k="ssr:stedsnr" v="469" />
	</node>
	<node lat="58.33157499631995" lon="6.9001583313545805" id="-31760">
		<tag k="alt_name" v="Kråketjørn" />
		<tag k="name" v="Kråketjønn" />
		<tag k="natural" v="water" />
		<tag k="ssr:stedsnr" v="476" />
	</node>
	<node lat="58.26592222048045" lon="6.9324861057307805" id="-31761">
		<tag k="alt_name" v="Holmevatnet" />
		<tag k="name" v="Holmevatn" />
		<tag k="natural" v="water" />
		<tag k="ssr:stedsnr" v="315" />
		<tag k="water" v="lake" />
	</node>
	<node lat="58.49376666544248" lon="6.971908333779804" id="-31766">
		<tag k="name" v="Nedre Åmlandsvannet" />
		<tag k="natural" v="water" />
		<tag k="ssr:stedsnr" v="335" />
		<tag k="water" v="lake" />
	</node>
	<node lat="58.47658055760758" lon="6.982258336982938" id="-31767">
		<tag k="alt_name" v="Krokevatnet" />
		<tag k="name" v="Krokevatn" />
		<tag k="natural" v="water" />
		<tag k="ssr:stedsnr" v="343" />
	</node>
	<node lat="58.75614166905506" lon="6.976058336197119" id="-31768">
		<tag k="alt_name" v="Geithomtjørn" />
		<tag k="name" v="Geithomtjødn" />
		<tag k="natural" v="water" />
		<tag k="ssr:stedsnr" v="344" />
	</node>
	<node lat="58.297133335621176" lon="7.0244083304953016" id="-31771">
		<tag k="alt_name" v="Holmesvatnet" />
		<tag k="name" v="Holmevatn" />
		<tag k="natural" v="water" />
		<tag k="ssr:stedsnr" v="532" />
		<tag k="water" v="lake" />
	</node>
	<node lat="58.395758334361716" lon="7.069733336240995" id="-31775">
		<tag k="name" v="Støvle" />
		<tag k="natural" v="water" />
		<tag k="ssr:stedsnr" v="620" />
	</node>
	<node lat="58.42951944797185" lon="7.023147223264122" id="-31778">
		<tag k="alt_name" v="Nontjørna" />
		<tag k="name" v="Nontjønn" />
		<tag k="natural" v="water" />
		<tag k="ssr:stedsnr" v="674" />
	</node>
	<node lat="58.42731111469791" lon="6.991416666338417" id="-31779">
		<tag k="alt_name" v="Sagetjørna" />
		<tag k="name" v="Sagetjønn" />
		<tag k="natural" v="water" />
		<tag k="ssr:stedsnr" v="682" />
	</node>
	<node lat="58.5321583338861" lon="6.845186111522439" id="-31780">
		<tag k="alt_name" v="Litjørni" />
		<tag k="name" v="Litjødna" />
		<tag k="natural" v="water" />
		<tag k="ssr:stedsnr" v="731" />
	</node>
	<node lat="58.41487777554021" lon="7.032430554880156" id="-31790">
		<tag k="name" v="Åstjønna" />
		<tag k="natural" v="water" />
		<tag k="ssr:stedsnr" v="30038" />
	</node>
	<node lat="58.40882499867103" lon="7.008911106760518" id="-31792">
		<tag k="name" v="Straume" />
		<tag k="ssr:stedsnr" v="30045" />
		<tag k="waterway" v="rapids" />
	</node>
	<node lat="58.42710555924337" lon="6.937413889379857" id="-31795">
		<tag k="name" v="Stedjetjønna" />
		<tag k="natural" v="water" />
		<tag k="ssr:stedsnr" v="30064" />
	</node>
	<node lat="58.399766670854866" lon="7.002577771149606" id="-31801">
		<tag k="name" v="Myrstemmen" />
		<tag k="natural" v="water" />
		<tag k="ssr:stedsnr" v="30419" />
	</node>
	<node lat="58.390941663520394" lon="6.985377770709529" id="-31802">
		<tag k="name" v="Grethebukta" />
		<tag k="natural" v="bay" />
		<tag k="ssr:stedsnr" v="30422" />
	</node>
	<node lat="58.42448610976156" lon="6.923880561896163" id="-31813">
		<tag k="name" v="Ytre Strånnen" />
		<tag k="natural" v="beach" />
		<tag k="ssr:stedsnr" v="30688" />
	</node>
	<node lat="58.29915000195446" lon="6.957080558250536" id="-31816">
		<tag k="name" v="Gloppebekken" />
		<tag k="ssr:stedsnr" v="31034" />
		<tag k="waterway" v="stream" />
	</node>
	<node lat="58.33533888582871" lon="7.071430562808966" id="-31818">
		<tag k="name" v="Moislonen" />
		<tag k="natural" v="water" />
		<tag k="ssr:stedsnr" v="31094" />
		<tag k="water" v="lake" />
	</node>
	<node lat="58.34146388701838" lon="6.955086110059705" id="-31823">
		<tag k="name" v="Øygardstjønna" />
		<tag k="natural" v="water" />
		<tag k="ssr:stedsnr" v="31135" />
	</node>
	<node lat="58.325016663105714" lon="6.9299888948653745" id="-31833">
		<tag k="name" v="Rabetjønna" />
		<tag k="natural" v="water" />
		<tag k="ssr:stedsnr" v="31347" />
	</node>
	<node lat="58.31298888608884" lon="6.865663889161422" id="-31837">
		<tag k="name" v="Sandtjønn" />
		<tag k="natural" v="water" />
		<tag k="ssr:stedsnr" v="31355" />
	</node>
	<node lat="58.33667222026329" lon="7.047483333530213" id="-31861">
		<tag k="name" v="Kleivåna" />
		<tag k="ssr:stedsnr" v="34146" />
		<tag k="waterway" v="river" />
	</node>
	<node lat="58.5187388893524" lon="7.024144447229032" id="-31863">
		<tag k="name" v="Kvævehylen" />
		<tag k="place" v="locality" />
		<tag k="ssr:stedsnr" v="35095" />
	</node>
	<node lat="58.61584999963088" lon="6.888011115257349" id="-31868">
		<tag k="name" v="Pramstø" />
		<tag k="natural" v="bay" />
		<tag k="ssr:stedsnr" v="34480" />
	</node>
	<node lat="58.31320833382248" lon="6.960208330017899" id="-31869">
		<tag k="name" v="Rygrerenna" />
		<tag k="ssr:stedsnr" v="34556" />
		<tag k="waterway" v="rapids" />
	</node>
	<node lat="58.76214166779992" lon="6.950141665726361" id="-31873">
		<tag k="name" v="Tjodnetjødn" />
		<tag k="natural" v="water" />
		<tag k="ssr:stedsnr" v="35240" />
	</node>
	<node lat="58.67364166448037" lon="7.058033336386263" id="-31875">
		<tag k="name" v="Studedalsbekken" />
		<tag k="ssr:stedsnr" v="35020" />
		<tag k="waterway" v="stream" />
	</node>
	<node lat="58.52642500428348" lon="6.980397215914633" id="-31877">
		<tag k="name" v="Kvigenes" />
		<tag k="natural" v="cape" />
		<tag k="ssr:stedsnr" v="35025" />
	</node>
	<node lat="58.5229583291066" lon="6.977938887884079" id="-31878">
		<tag k="name" v="Snorøyna" />
		<tag k="place" v="islet" />
		<tag k="ssr:stedsnr" v="35029" />
	</node>
	<node lat="58.68855833091174" lon="7.128683325884567" id="-31886">
		<tag k="name" v="Atlanterhavet" />
		<tag k="natural" v="water" />
		<tag k="ssr:stedsnr" v="35296" />
	</node>
	<node lat="58.42148888493173" lon="7.0034166694675495" id="-31887">
		<tag k="name" v="Pråmstøa" />
		<tag k="natural" v="bay" />
		<tag k="ssr:stedsnr" v="35308" />
	</node>
	<node lat="58.48975000069338" lon="7.085194451040994" id="-31899">
		<tag k="name" v="Drengstjødn" />
		<tag k="natural" v="water" />
		<tag k="ssr:stedsnr" v="35497" />
	</node>
	<node lat="58.48154444720395" lon="7.023927769853888" id="-31903">
		<tag k="name" v="Haddelandstjødna" />
		<tag k="natural" v="water" />
		<tag k="ssr:stedsnr" v="35580" />
	</node>
	<node lat="58.706138891567576" lon="6.92630833394947" id="-31914">
		<tag k="name" v="Myransbekkjen" />
		<tag k="ssr:stedsnr" v="35559" />
		<tag k="waterway" v="stream" />
	</node>
	<node lat="58.418561110818885" lon="7.0047083307262685" id="-31924">
		<tag k="name" v="Spåmannen" />
		<tag k="place" v="locality" />
		<tag k="ssr:stedsnr" v="35759" />
	</node>
	<node lat="58.449019446161856" lon="6.890522225974408" id="-31926">
		<tag k="name" v="Aldalstjønn" />
		<tag k="natural" v="water" />
		<tag k="ssr:stedsnr" v="35965" />
	</node>
	<node lat="58.524030559795314" lon="7.066941658299194" id="-31937">
		<tag k="name" v="Østenshomtjødna" />
		<tag k="natural" v="water" />
		<tag k="ssr:stedsnr" v="36489" />
	</node>
	<node lat="58.648497221007126" lon="7.010083327217424" id="-31938">
		<tag k="name" v="Smaltjødn" />
		<tag k="natural" v="water" />
		<tag k="ssr:stedsnr" v="36684" />
	</node>
	<node lat="58.6005083371776" lon="6.906824994647804" id="-31947">
		<tag k="name" v="Molandsnes" />
		<tag k="natural" v="cape" />
		<tag k="ssr:stedsnr" v="36932" />
	</node>
	<node lat="58.67942499964994" lon="7.088180555966491" id="-31975">
		<tag k="alt_name" v="Bergetjørni" />
		<tag k="name" v="Bergetjødn" />
		<tag k="natural" v="water" />
		<tag k="ssr:stedsnr" v="61299" />
		<tag k="water" v="lake" />
	</node>
	<node lat="58.22661944166502" lon="6.899605562523683" id="-31979">
		<tag k="alt_name" v="Vatlandsvatnet" />
		<tag k="name" v="Vatlandsvannet" />
		<tag k="natural" v="water" />
		<tag k="ssr:stedsnr" v="61143" />
	</node>
	<node lat="58.64167500077861" lon="6.8748666687406095" id="-31980">
		<tag k="alt_name" v="Øyevatnet" />
		<tag k="name" v="Øvre Øyevatn" />
		<tag k="natural" v="water" />
		<tag k="ssr:stedsnr" v="61168" />
		<tag k="water" v="lake" />
	</node>
	<node lat="58.29280833682715" lon="6.818616674075502" id="-31983">
		<tag k="alt_name" v="Botnen" />
		<tag k="name" v="Høylandsbotnen" />
		<tag k="natural" v="water" />
		<tag k="ssr:stedsnr" v="61263" />
		<tag k="water" v="lake" />
	</node>
	<node lat="58.471777774601264" lon="6.978738894002376" id="-31984">
		<tag k="loc_name" v="Hegretjødn" />
		<tag k="name" v="Hegretjørn" />
		<tag k="natural" v="water" />
		<tag k="ssr:stedsnr" v="61330" />
	</node>
	<node lat="58.72211666447732" lon="7.089497224618033" id="-31988">
		<tag k="name" v="Grunnevatnet" />
		<tag k="natural" v="water" />
		<tag k="ssr:stedsnr" v="61334" />
		<tag k="water" v="lake" />
	</node>
	<node lat="58.53198055228879" lon="6.906552785661313" id="-31992">
		<tag k="alt_name" v="Rjuganfossen" />
		<tag k="name" v="Ruganfossen" />
		<tag k="natural" v="waterfall" />
		<tag k="ssr:stedsnr" v="61339" />
	</node>
	<node lat="58.439850003933" lon="6.978791669824921" id="-31994">
		<tag k="alt_name" v="Husbergtjørna" />
		<tag k="name" v="Hoskeltjønna" />
		<tag k="natural" v="water" />
		<tag k="ssr:stedsnr" v="61356" />
	</node>
	<node lat="58.59813888951001" lon="7.002966670359355" id="-31998">
		<tag k="alt_name" v="Fossevatnet" />
		<tag k="name" v="Fossevatn" />
		<tag k="natural" v="water" />
		<tag k="ssr:stedsnr" v="61439" />
		<tag k="water" v="lake" />
	</node>
	<node lat="58.3362305544946" lon="6.914236105652211" id="-32000">
		<tag k="alt_name" v="Kjeldåsvatnet" />
		<tag k="name" v="Tjellåsvatn" />
		<tag k="natural" v="water" />
		<tag k="ssr:stedsnr" v="61458" />
		<tag k="water" v="lake" />
	</node>
	<node lat="58.34090000278905" lon="7.078880553114725" id="-32002">
		<tag k="alt_name" v="Bjørkelifiskelausvatnet" />
		<tag k="name" v="Fiskelausvatn" />
		<tag k="natural" v="water" />
		<tag k="ssr:stedsnr" v="61680" />
	</node>
	<node lat="58.76320555513653" lon="6.957474995055101" id="-32005">
		<tag k="name" v="Øyevatn" />
		<tag k="natural" v="water" />
		<tag k="ssr:stedsnr" v="62023" />
	</node>
	<node lat="58.78374999612083" lon="6.975958329560744" id="-32007">
		<tag k="alt_name" v="Fiskevotni" />
		<tag k="name" v="Fiskevatnan" />
		<tag k="natural" v="water" />
		<tag k="old_name" v="Fiskevotnan" />
		<tag k="ssr:stedsnr" v="62342" />
		<tag k="water" v="lake" />
	</node>
	<node lat="58.46630555986759" lon="6.9640305524654424" id="-32008">
		<tag k="name" v="Oddan" />
		<tag k="natural" v="cape" />
		<tag k="ssr:stedsnr" v="96495" />
	</node>
	<node lat="58.45857500289773" lon="7.10413889169419" id="-32010">
		<tag k="name" v="Gravrostjødna" />
		<tag k="natural" v="water" />
		<tag k="ssr:stedsnr" v="96508" />
	</node>
	<node lat="58.32408889059282" lon="7.108241671639068" id="-32012">
		<tag k="name" v="Støvlevika" />
		<tag k="natural" v="bay" />
		<tag k="ssr:stedsnr" v="91109" />
	</node>
</osm>
