<?xml version="1.0" encoding="UTF-8"?>
<osm generator="osmapis" version="0.6">
	<node id="-246878" lat="59.4571666683" lon="8.61651389435">
		<tag k="name" v="Listaul" />
		<tag k="place" v="locality" />
		<tag k="ssr:stedsnr" v="245088" />
	</node>
	<node id="-245532" lat="59.627783331" lon="8.50461110831">
		<tag k="alt_name" v="Svartdal kapell" />
		<tag k="amenity" v="place_of_worship" />
		<tag k="denomination" v="lutheran" />
		<tag k="name" v="Svartdal" />
		<tag k="religion" v="christian" />
		<tag k="ssr:stedsnr" v="307762" />
	</node>
	<node id="-247194" lat="59.5742972184" lon="8.43924999885">
		<tag k="alt_name" v="Mandalen" />
		<tag k="amenity" v="place_of_worship" />
		<tag k="denomination" v="lutheran" />
		<tag k="name" v="Mandal" />
		<tag k="religion" v="christian" />
		<tag k="ssr:stedsnr" v="488420" />
	</node>
	<node id="-247482" lat="59.4807805529" lon="8.62421111309">
		<tag k="amenity" v="community_centre" />
		<tag k="name" v="Granvin Kulturhus" />
		<tag k="old_name" v="Granvin ungdomshus" />
		<tag k="ssr:stedsnr" v="582774" />
	</node>
	<node id="-248056" lat="59.5363055544" lon="8.63068054918">
		<tag k="name" v="Fiskesteinen" />
		<tag k="place" v="locality" />
		<tag k="ssr:stedsnr" v="764604" />
	</node>
	<node id="-246933" lat="59.5607083346" lon="8.57204445056">
		<tag k="amenity" v="place_of_worship" />
		<tag k="denomination" v="lutheran" />
		<tag k="name" v="Flatdal" />
		<tag k="religion" v="christian" />
		<tag k="ssr:stedsnr" v="246929" />
	</node>
	<node id="-246674" lat="59.4777500043" lon="8.53365554795">
		<tag k="name" v="Ubystaulan" />
		<tag k="place" v="locality" />
		<tag k="ssr:stedsnr" v="185032" />
	</node>
	<node id="-246992" lat="59.62746111" lon="8.40717776948">
		<tag k="amenity" v="place_of_worship" />
		<tag k="denomination" v="lutheran" />
		<tag k="name" v="Ã…motsdal" />
		<tag k="religion" v="christian" />
		<tag k="ssr:stedsnr" v="428262" />
	</node>
	<node id="-246125" lat="59.460955556" lon="8.80598332774">
		<tag k="alt_name" v="Franskmanshytta" />
		<tag k="name" v="Franskmanstytta" />
		<tag k="place" v="locality" />
		<tag k="ssr:stedsnr" v="36033" />
	</node>
	<node id="-247148" lat="59.4607166659" lon="8.80517222775">
		<tag k="name" v="Ballongfararsteinen" />
		<tag k="ssr:stedsnr" v="487081" />
		<tag k="tourism" v="attraction" />
	</node>
	<node id="-247085" lat="59.5841666643" lon="8.47243333078">
		<tag k="name" v="Sloehella" />
		<tag k="place" v="locality" />
		<tag k="ssr:stedsnr" v="462062" />
	</node>
	<node id="-245959" lat="59.5606999959" lon="8.57214999791">
		<tag k="amenity" v="place_of_worship" />
		<tag k="denomination" v="lutheran" />
		<tag k="name" v="Flatdal kyrkje" />
		<tag k="religion" v="christian" />
		<tag k="ssr:stedsnr" v="887683" />
	</node>
	<node id="-247751" lat="59.4898166657" lon="8.63594166842">
		<tag k="alt_name" v="Seljord" />
		<tag k="amenity" v="place_of_worship" />
		<tag k="denomination" v="lutheran" />
		<tag k="name" v="Seljord kyrkje" />
		<tag k="religion" v="christian" />
		<tag k="ssr:stedsnr" v="669602" />
	</node>
	<node id="-247685" lat="59.5717749962" lon="8.55246389462">
		<tag k="amenity" v="place_of_worship" />
		<tag k="fixme" v="specify religion=*, denomination=*, building=* etc" />
		<tag k="name" v="Brendehaug" />
		<tag k="ssr:stedsnr" v="643831" />
	</node>
	<node id="-247044" lat="59.4363055525" lon="8.83075834106">
		<tag k="name" v="Bruredynnan" />
		<tag k="place" v="locality" />
		<tag k="ssr:stedsnr" v="461002" />
	</node>
	<node id="-248519" lat="59.4215444472" lon="8.69707777089">
		<tag k="amenity" v="place_of_worship" />
		<tag k="fixme" v="specify religion=*, denomination=*, building=* etc" />
		<tag k="name" v="Sion" />
		<tag k="ssr:stedsnr" v="946275" />
	</node>
</osm>
