<?xml version="1.0" encoding="UTF-8"?>
<osm generator="osmapis" version="0.6">
	<node id="-245535" lat="59.3692972236" lon="8.8608750083">
		<tag k="historic" v="boundary_stone" />
		<tag k="man_made" v="cairn" />
		<tag k="name" v="Krossbekkdelet" />
		<tag k="place" v="locality" />
		<tag k="ssr:stedsnr" v="327180" />
	</node>
	<node id="-248570" lat="59.4046388928" lon="8.76085278174">
		<tag k="historic" v="boundary_stone" />
		<tag k="man_made" v="cairn" />
		<tag k="name" v="Neshella" />
		<tag k="place" v="locality" />
		<tag k="ssr:stedsnr" v="947994" />
	</node>
	<node id="-247225" lat="59.3578666647" lon="8.88796944894">
		<tag k="historic" v="boundary_stone" />
		<tag k="man_made" v="cairn" />
		<tag k="name" v="Tverrdelet" />
		<tag k="place" v="locality" />
		<tag k="ssr:stedsnr" v="509168" />
	</node>
	<node id="-246864" lat="59.3776988729" lon="8.67956954446">
		<tag k="historic" v="boundary_stone" />
		<tag k="man_made" v="cairn" />
		<tag k="name" v="Skåptjønndeildi" />
		<tag k="place" v="locality" />
		<tag k="ssr:stedsnr" v="233594" />
	</node>
	<node id="-247247" lat="59.4957388854" lon="8.67625277104">
		<tag k="historic" v="boundary_stone" />
		<tag k="man_made" v="cairn" />
		<tag k="name" v="Svinestein" />
		<tag k="place" v="locality" />
		<tag k="ssr:stedsnr" v="521621" />
	</node>
	<node id="-245800" lat="59.44931111" lon="8.65962221743">
		<tag k="historic" v="boundary_stone" />
		<tag k="man_made" v="cairn" />
		<tag k="name" v="Pengedeila" />
		<tag k="place" v="locality" />
		<tag k="ssr:stedsnr" v="400707" />
	</node>
	<node id="-246856" lat="59.5844249965" lon="8.36274722036">
		<tag k="historic" v="boundary_stone" />
		<tag k="man_made" v="cairn" />
		<tag k="name" v="Svartufs" />
		<tag k="place" v="locality" />
		<tag k="ssr:stedsnr" v="225127" />
	</node>
	<node id="-246629" lat="59.6658916686" lon="8.23231111561">
		<tag k="historic" v="boundary_stone" />
		<tag k="man_made" v="cairn" />
		<tag k="name" v="Dansarstein" />
		<tag k="place" v="locality" />
		<tag k="ssr:stedsnr" v="164148" />
	</node>
</osm>
