<?xml version="1.0" encoding="UTF-8"?>
<osm version="0.6" generator="osmapis">
	<node lat="60.60730833202032" lon="9.828269448858196" id="-22665">
		<tag k="name" v="Gildra" />
		<tag k="ssr:date" v="2019-12-27" />
		<tag k="ssr:gruppe" v="rennendeVann" />
		<tag k="ssr:hovedgruppe" v="ferskvann" />
		<tag k="ssr:stedsnr" v="6905" />
		<tag k="ssr:type" v="bekk" />
		<tag k="waterway" v="stream" />
	</node>
	<node lat="60.665380559930384" lon="9.74764444379951" id="-22666">
		<tag k="alt_name" v="Grimsrud, s" />
		<tag k="name" v="Søre Grimsrud" />
		<tag k="place" v="farm" />
		<tag k="ssr:date" v="2019-12-27" />
		<tag k="ssr:gruppe" v="gardsbebyggelse" />
		<tag k="ssr:hovedgruppe" v="bebyggelse" />
		<tag k="ssr:stedsnr" v="6965" />
		<tag k="ssr:type" v="bruk" />
	</node>
	<node lat="60.71937499732577" lon="9.37389999666377" id="-22667">
		<tag k="alt_name" v="Søkkjimyratn" />
		<tag k="name" v="Søkkemyr" />
		<tag k="natural" v="wetland" />
		<tag k="ssr:date" v="2019-12-27" />
		<tag k="ssr:gruppe" v="våtmark" />
		<tag k="ssr:hovedgruppe" v="markslag" />
		<tag k="ssr:stedsnr" v="7516" />
		<tag k="ssr:type" v="myr" />
	</node>
	<node lat="60.7201305567552" lon="9.584808329770802" id="-22668">
		<tag k="alt_name" v="Øyvassæterhøgde" />
		<tag k="fixme" v="consider natural=peak for the most distinct mountains in the district" />
		<tag k="name" v="Øyvasshøgdi" />
		<tag k="natural" v="hill" />
		<tag k="place" v="locality" />
		<tag k="ssr:date" v="2019-12-27" />
		<tag k="ssr:gruppe" v="høyder" />
		<tag k="ssr:hovedgruppe" v="terreng" />
		<tag k="ssr:stedsnr" v="7519" />
		<tag k="ssr:type" v="ås" />
	</node>
	<node lat="60.72173333349248" lon="9.381511115578755" id="-22669">
		<tag k="name" v="Ormebekken" />
		<tag k="ssr:date" v="2019-12-27" />
		<tag k="ssr:gruppe" v="rennendeVann" />
		<tag k="ssr:hovedgruppe" v="ferskvann" />
		<tag k="ssr:stedsnr" v="7522" />
		<tag k="ssr:type" v="bekk" />
		<tag k="waterway" v="stream" />
	</node>
	<node lat="60.70624721982183" lon="9.539724997697293" id="-22670">
		<tag k="alt_name" v="Gamlesæterhøgda" />
		<tag k="fixme" v="consider natural=peak for the most distinct mountains in the district" />
		<tag k="name" v="Gamlesæterhøgdi" />
		<tag k="natural" v="hill" />
		<tag k="place" v="locality" />
		<tag k="ssr:date" v="2019-12-27" />
		<tag k="ssr:gruppe" v="høyder" />
		<tag k="ssr:hovedgruppe" v="terreng" />
		<tag k="ssr:stedsnr" v="7527" />
		<tag k="ssr:type" v="ås" />
	</node>
	<node lat="60.711949996275344" lon="9.406850005033531" id="-22671">
		<tag k="name" v="Marabrennputten" />
		<tag k="natural" v="water" />
		<tag k="ssr:date" v="2019-12-27" />
		<tag k="ssr:gruppe" v="stilleståendeVann" />
		<tag k="ssr:hovedgruppe" v="ferskvann" />
		<tag k="ssr:stedsnr" v="7528" />
		<tag k="ssr:type" v="tjern" />
	</node>
	<node lat="60.621775000433004" lon="9.59215833564979" id="-22672">
		<tag k="name" v="Skriuåsen" />
		<tag k="place" v="locality" />
		<tag k="ssr:date" v="2019-12-27" />
		<tag k="ssr:gruppe" v="bolighus" />
		<tag k="ssr:hovedgruppe" v="bebyggelse" />
		<tag k="ssr:stedsnr" v="7655" />
		<tag k="ssr:type" v="gammelBosettingsplass" />
	</node>
	<node lat="60.61377222013358" lon="9.40086943864373" id="-22673">
		<tag k="name" v="Strøen" />
		<tag k="natural" v="water" />
		<tag k="ssr:date" v="2019-12-27" />
		<tag k="ssr:gruppe" v="stilleståendeVann" />
		<tag k="ssr:hovedgruppe" v="ferskvann" />
		<tag k="ssr:stedsnr" v="7662" />
		<tag k="ssr:type" v="vann" />
		<tag k="water" v="lake" />
	</node>
	<node lat="60.73497222662011" lon="9.505572220503634" id="-22674">
		<tag k="name" v="Tanterhaug" />
		<tag k="place" v="isolated_dwelling" />
		<tag k="ssr:date" v="2019-12-27" />
		<tag k="ssr:gruppe" v="bolighus" />
		<tag k="ssr:hovedgruppe" v="bebyggelse" />
		<tag k="ssr:stedsnr" v="7548" />
		<tag k="ssr:type" v="fritidsbolig" />
	</node>
	<node lat="60.65940833685717" lon="9.45315000215791" id="-22675">
		<tag k="alt_name" v="Tommasvollen" />
		<tag k="historic" v="shieling" />
		<tag k="name" v="Tomasvollen" />
		<tag k="place" v="isolated_dwelling" />
		<tag k="ssr:date" v="2019-12-27" />
		<tag k="ssr:gruppe" v="gardsbebyggelse" />
		<tag k="ssr:hovedgruppe" v="bebyggelse" />
		<tag k="ssr:stedsnr" v="7705" />
		<tag k="ssr:type" v="seterStøl" />
	</node>
	<node lat="60.670255555515546" lon="9.360936119780558" id="-22676">
		<tag k="name" v="Steintjernet" />
		<tag k="natural" v="water" />
		<tag k="old_name" v="Steintjednet" />
		<tag k="ssr:date" v="2019-12-27" />
		<tag k="ssr:gruppe" v="stilleståendeVann" />
		<tag k="ssr:hovedgruppe" v="ferskvann" />
		<tag k="ssr:stedsnr" v="7727" />
		<tag k="ssr:type" v="tjern" />
	</node>
	<node lat="60.580019446357575" lon="9.77946387998674" id="-22677">
		<tag k="name" v="Pullmyra" />
		<tag k="natural" v="wetland" />
		<tag k="ssr:date" v="2019-12-27" />
		<tag k="ssr:gruppe" v="våtmark" />
		<tag k="ssr:hovedgruppe" v="markslag" />
		<tag k="ssr:stedsnr" v="7805" />
		<tag k="ssr:type" v="myr" />
	</node>
	<node lat="60.533350000823624" lon="9.76017500099673" id="-22678">
		<tag k="alt_name" v="Rakkestadbekken, nordre" />
		<tag k="name" v="Nordre Rakkestadbekken" />
		<tag k="ssr:date" v="2019-12-27" />
		<tag k="ssr:gruppe" v="rennendeVann" />
		<tag k="ssr:hovedgruppe" v="ferskvann" />
		<tag k="ssr:stedsnr" v="7848" />
		<tag k="ssr:type" v="bekk" />
		<tag k="waterway" v="stream" />
	</node>
	<node lat="60.68753333062135" lon="9.706169449587538" id="-22679">
		<tag k="fixme" v="consider natural=peak for the most distinct mountains in the district" />
		<tag k="name" v="Svartfjellkollen" />
		<tag k="natural" v="hill" />
		<tag k="place" v="locality" />
		<tag k="ssr:date" v="2019-12-27" />
		<tag k="ssr:gruppe" v="høyder" />
		<tag k="ssr:hovedgruppe" v="terreng" />
		<tag k="ssr:stedsnr" v="7897" />
		<tag k="ssr:type" v="ås" />
	</node>
	<node lat="60.69527500025463" lon="9.922894446946303" id="-22680">
		<tag k="alt_name" v="Godhaug, nordre" />
		<tag k="name" v="Nordre Godhaug" />
		<tag k="natural" v="hill" />
		<tag k="place" v="locality" />
		<tag k="ssr:date" v="2019-12-27" />
		<tag k="ssr:gruppe" v="høyder" />
		<tag k="ssr:hovedgruppe" v="terreng" />
		<tag k="ssr:stedsnr" v="7900" />
		<tag k="ssr:type" v="haug" />
	</node>
	<node lat="60.735388892006505" lon="9.70778055982734" id="-22681">
		<tag k="alt_name" v="Nedre Helland" />
		<tag k="name" v="Helandshølen" />
		<tag k="place" v="farm" />
		<tag k="ssr:date" v="2019-12-27" />
		<tag k="ssr:gruppe" v="gardsbebyggelse" />
		<tag k="ssr:hovedgruppe" v="bebyggelse" />
		<tag k="ssr:stedsnr" v="7946" />
		<tag k="ssr:type" v="bruk" />
	</node>
	<node lat="60.73367500286215" lon="9.631138881565088" id="-22682">
		<tag k="name" v="Kyrputten" />
		<tag k="natural" v="water" />
		<tag k="ssr:date" v="2019-12-27" />
		<tag k="ssr:gruppe" v="stilleståendeVann" />
		<tag k="ssr:hovedgruppe" v="ferskvann" />
		<tag k="ssr:stedsnr" v="7947" />
		<tag k="ssr:type" v="pytt" />
		<tag k="water" v="pond" />
	</node>
	<node lat="60.64736944667787" lon="9.858480549548231" id="-22683">
		<tag k="alt_name" v="Tronshaugen" />
		<tag k="name" v="Tronsehaugen" />
		<tag k="old_name" v="Tronshaugene" />
		<tag k="place" v="isolated_dwelling" />
		<tag k="ssr:date" v="2019-12-27" />
		<tag k="ssr:gruppe" v="bolighus" />
		<tag k="ssr:hovedgruppe" v="bebyggelse" />
		<tag k="ssr:stedsnr" v="7958" />
		<tag k="ssr:type" v="eneboligMindreBoligbygg" />
	</node>
	<node lat="60.64319166816092" lon="9.706419440069531" id="-22684">
		<tag k="alt_name" v="Berge" />
		<tag k="name" v="Berget" />
		<tag k="place" v="farm" />
		<tag k="ssr:date" v="2019-12-27" />
		<tag k="ssr:gruppe" v="gardsbebyggelse" />
		<tag k="ssr:hovedgruppe" v="bebyggelse" />
		<tag k="ssr:stedsnr" v="7959" />
		<tag k="ssr:type" v="bruk" />
	</node>
	<node lat="60.64495277857323" lon="9.597536108920353" id="-22685">
		<tag k="alt_name" v="Høgeberget" />
		<tag k="name" v="Høgberget" />
		<tag k="natural" v="hill" />
		<tag k="place" v="locality" />
		<tag k="ssr:date" v="2019-12-27" />
		<tag k="ssr:gruppe" v="høyder" />
		<tag k="ssr:hovedgruppe" v="terreng" />
		<tag k="ssr:stedsnr" v="7964" />
		<tag k="ssr:type" v="berg" />
	</node>
	<node lat="60.63697500313678" lon="9.903108328456417" id="-22686">
		<tag k="alt_name" v="Jenserud" />
		<tag k="name" v="Jensrud" />
		<tag k="place" v="farm" />
		<tag k="ssr:date" v="2019-12-27" />
		<tag k="ssr:gruppe" v="gardsbebyggelse" />
		<tag k="ssr:hovedgruppe" v="bebyggelse" />
		<tag k="ssr:stedsnr" v="7994" />
		<tag k="ssr:type" v="bruk" />
	</node>
	<node lat="60.85847499759498" lon="9.39186666550213" id="-22687">
		<tag k="alt_name" v="Nystølen" />
		<tag k="historic" v="shieling" />
		<tag k="name" v="Nyesætri" />
		<tag k="place" v="isolated_dwelling" />
		<tag k="ssr:date" v="2019-12-27" />
		<tag k="ssr:gruppe" v="gardsbebyggelse" />
		<tag k="ssr:hovedgruppe" v="bebyggelse" />
		<tag k="ssr:stedsnr" v="8698" />
		<tag k="ssr:type" v="seterStøl" />
	</node>
	<node lat="60.803741662293774" lon="9.641708337143447" id="-22688">
		<tag k="name" v="Bjørkelund" />
		<tag k="place" v="farm" />
		<tag k="ssr:date" v="2019-12-27" />
		<tag k="ssr:gruppe" v="gardsbebyggelse" />
		<tag k="ssr:hovedgruppe" v="bebyggelse" />
		<tag k="ssr:stedsnr" v="9213" />
		<tag k="ssr:type" v="bruk" />
	</node>
	<node lat="60.77462222596564" lon="9.609199997597294" id="-22689">
		<tag k="alt_name" v="Lundelia" />
		<tag k="name" v="Lii" />
		<tag k="place" v="farm" />
		<tag k="ssr:date" v="2019-12-27" />
		<tag k="ssr:gruppe" v="gardsbebyggelse" />
		<tag k="ssr:hovedgruppe" v="bebyggelse" />
		<tag k="ssr:stedsnr" v="9102" />
		<tag k="ssr:type" v="bruk" />
	</node>
	<node lat="60.76127500168408" lon="9.599658341843192" id="-22690">
		<tag k="name" v="Gråbeinrud" />
		<tag k="place" v="isolated_dwelling" />
		<tag k="ssr:date" v="2019-12-27" />
		<tag k="ssr:gruppe" v="bolighus" />
		<tag k="ssr:hovedgruppe" v="bebyggelse" />
		<tag k="ssr:stedsnr" v="9143" />
		<tag k="ssr:type" v="fritidsbolig" />
	</node>
	<node lat="60.80075833419926" lon="9.599449995297713" id="-22691">
		<tag k="alt_name" v="Finhert" />
		<tag k="name" v="Finnhert" />
		<tag k="place" v="farm" />
		<tag k="ssr:date" v="2019-12-27" />
		<tag k="ssr:gruppe" v="gardsbebyggelse" />
		<tag k="ssr:hovedgruppe" v="bebyggelse" />
		<tag k="ssr:stedsnr" v="9188" />
		<tag k="ssr:type" v="bruk" />
	</node>
	<node lat="60.831899996152345" lon="9.403625003596732" id="-22692">
		<tag k="alt_name" v="Tempelen" />
		<tag k="fixme" v="consider natural=peak for the most distinct mountains in the district" />
		<tag k="name" v="Heimretempelen" />
		<tag k="natural" v="hill" />
		<tag k="place" v="locality" />
		<tag k="ssr:date" v="2019-12-27" />
		<tag k="ssr:gruppe" v="høyder" />
		<tag k="ssr:hovedgruppe" v="terreng" />
		<tag k="ssr:stedsnr" v="9638" />
		<tag k="ssr:type" v="ås" />
	</node>
	<node lat="60.77190695389724" lon="9.421496253232279" id="-22693">
		<tag k="alt_name" v="Ellenslie" />
		<tag k="name" v="Erlandslii" />
		<tag k="place" v="farm" />
		<tag k="ssr:date" v="2019-12-27" />
		<tag k="ssr:gruppe" v="gardsbebyggelse" />
		<tag k="ssr:hovedgruppe" v="bebyggelse" />
		<tag k="ssr:stedsnr" v="9801" />
		<tag k="ssr:type" v="bruk" />
	</node>
	<node lat="60.81293611716735" lon="9.543128885275626" id="-22694">
		<tag k="alt_name" v="Karlsgor" />
		<tag k="fixme" v="consider place=hamlet" />
		<tag k="name" v="Karlsgot" />
		<tag k="place" v="farm" />
		<tag k="ssr:date" v="2019-12-27" />
		<tag k="ssr:gruppe" v="gardsbebyggelse" />
		<tag k="ssr:hovedgruppe" v="bebyggelse" />
		<tag k="ssr:stedsnr" v="9813" />
		<tag k="ssr:type" v="gard" />
	</node>
	<node lat="60.82877221999311" lon="9.505011106798793" id="-22695">
		<tag k="name" v="Haslo" />
		<tag k="place" v="farm" />
		<tag k="ssr:date" v="2019-12-27" />
		<tag k="ssr:gruppe" v="gardsbebyggelse" />
		<tag k="ssr:hovedgruppe" v="bebyggelse" />
		<tag k="ssr:stedsnr" v="9837" />
		<tag k="ssr:type" v="bruk" />
	</node>
	<node lat="60.82248610710573" lon="9.552061102171916" id="-22696">
		<tag k="name" v="Bagn" />
		<tag k="place" v="village" />
		<tag k="ssr:date" v="2019-12-27" />
		<tag k="ssr:gruppe" v="bebyggelsesområder" />
		<tag k="ssr:hovedgruppe" v="bebyggelse" />
		<tag k="ssr:stedsnr" v="9850" />
		<tag k="ssr:type" v="tettsted" />
	</node>
	<node lat="60.766061111375" lon="9.451308332097241" id="-22697">
		<tag k="alt_name" v="Nysætere" />
		<tag k="historic" v="shieling" />
		<tag k="name" v="Nysætri" />
		<tag k="place" v="isolated_dwelling" />
		<tag k="ssr:date" v="2019-12-27" />
		<tag k="ssr:gruppe" v="gardsbebyggelse" />
		<tag k="ssr:hovedgruppe" v="bebyggelse" />
		<tag k="ssr:stedsnr" v="9789" />
		<tag k="ssr:type" v="seterStøl" />
	</node>
	<node lat="60.77098611266063" lon="9.501075001250737" id="-22698">
		<tag k="name" v="Heimtjernet" />
		<tag k="natural" v="water" />
		<tag k="old_name" v="Heimtjednet" />
		<tag k="ssr:date" v="2019-12-27" />
		<tag k="ssr:gruppe" v="stilleståendeVann" />
		<tag k="ssr:hovedgruppe" v="ferskvann" />
		<tag k="ssr:stedsnr" v="9791" />
		<tag k="ssr:type" v="tjern" />
	</node>
	<node lat="60.626719443254174" lon="9.676166661750207" id="-22699">
		<tag k="alt_name" v="Mellom-Grøv" />
		<tag k="loc_name" v="Midt-Grøv" />
		<tag k="name" v="Midtgrøv" />
		<tag k="place" v="farm" />
		<tag k="ssr:date" v="2021-06-15" />
		<tag k="ssr:gruppe" v="gardsbebyggelse" />
		<tag k="ssr:hovedgruppe" v="bebyggelse" />
		<tag k="ssr:stedsnr" v="231691" />
		<tag k="ssr:type" v="bruk" />
	</node>
	<node lat="60.63262777699992" lon="9.520855562234694" id="-22700">
		<tag k="historic" v="shieling" />
		<tag k="name" v="Skinningsrudsætra" />
		<tag k="place" v="isolated_dwelling" />
		<tag k="ssr:date" v="2019-12-27" />
		<tag k="ssr:gruppe" v="gardsbebyggelse" />
		<tag k="ssr:hovedgruppe" v="bebyggelse" />
		<tag k="ssr:stedsnr" v="39209" />
		<tag k="ssr:type" v="seterStøl" />
	</node>
	<node lat="60.79495555859578" lon="9.349961108885879" id="-22701">
		<tag k="name" v="Røvslihallitn" />
		<tag k="natural" v="slope" />
		<tag k="place" v="locality" />
		<tag k="ssr:date" v="2019-12-27" />
		<tag k="ssr:gruppe" v="skråninger" />
		<tag k="ssr:hovedgruppe" v="terreng" />
		<tag k="ssr:stedsnr" v="39522" />
		<tag k="ssr:type" v="li" />
	</node>
	<node lat="60.8472555596915" lon="9.472569453373156" id="-22702">
		<tag k="name" v="Storurdknatten" />
		<tag k="natural" v="hill" />
		<tag k="place" v="locality" />
		<tag k="ssr:date" v="2019-12-27" />
		<tag k="ssr:gruppe" v="høyder" />
		<tag k="ssr:hovedgruppe" v="terreng" />
		<tag k="ssr:stedsnr" v="39704" />
		<tag k="ssr:type" v="haug" />
	</node>
	<node lat="60.84190833719412" lon="9.500030551947301" id="-22703">
		<tag k="name" v="Høgbrenne" />
		<tag k="place" v="isolated_dwelling" />
		<tag k="ssr:date" v="2019-12-27" />
		<tag k="ssr:gruppe" v="bolighus" />
		<tag k="ssr:hovedgruppe" v="bebyggelse" />
		<tag k="ssr:stedsnr" v="39708" />
		<tag k="ssr:type" v="fritidsbolig" />
	</node>
	<node lat="60.650666670731646" lon="9.861241658261292" id="-22704">
		<tag k="name" v="Kolsrud" />
		<tag k="place" v="isolated_dwelling" />
		<tag k="ssr:date" v="2019-12-27" />
		<tag k="ssr:gruppe" v="bolighus" />
		<tag k="ssr:hovedgruppe" v="bebyggelse" />
		<tag k="ssr:stedsnr" v="39625" />
		<tag k="ssr:type" v="eneboligMindreBoligbygg" />
	</node>
	<node lat="60.532874998068976" lon="9.690333330979888" id="-22705">
		<tag k="name" v="Fiskebråten" />
		<tag k="place" v="locality" />
		<tag k="ssr:date" v="2019-12-27" />
		<tag k="ssr:gruppe" v="flater" />
		<tag k="ssr:hovedgruppe" v="terreng" />
		<tag k="ssr:stedsnr" v="39802" />
		<tag k="ssr:type" v="slette" />
	</node>
	<node lat="60.7725055580503" lon="9.635822218996257" id="-22706">
		<tag k="name" v="Øyhusbakkatn" />
		<tag k="natural" v="slope" />
		<tag k="place" v="locality" />
		<tag k="ssr:date" v="2019-12-27" />
		<tag k="ssr:gruppe" v="skråninger" />
		<tag k="ssr:hovedgruppe" v="terreng" />
		<tag k="ssr:stedsnr" v="39870" />
		<tag k="ssr:type" v="bakke" />
	</node>
	<node lat="60.85633055736333" lon="9.493558330574634" id="-22707">
		<tag k="name" v="Høvsrenna" />
		<tag k="natural" v="slope" />
		<tag k="place" v="locality" />
		<tag k="ssr:date" v="2019-12-27" />
		<tag k="ssr:gruppe" v="skråninger" />
		<tag k="ssr:hovedgruppe" v="terreng" />
		<tag k="ssr:stedsnr" v="39907" />
		<tag k="ssr:type" v="li" />
	</node>
	<node lat="60.817938893123376" lon="9.570986113801862" id="-22708">
		<tag k="name" v="Søre Øygarden" />
		<tag k="place" v="farm" />
		<tag k="ssr:date" v="2019-12-27" />
		<tag k="ssr:gruppe" v="gardsbebyggelse" />
		<tag k="ssr:hovedgruppe" v="bebyggelse" />
		<tag k="ssr:stedsnr" v="39982" />
		<tag k="ssr:type" v="bruk" />
	</node>
	<node lat="60.53068333020074" lon="9.48090832574637" id="-22709">
		<tag k="name" v="Vinterstøberget" />
		<tag k="natural" v="hill" />
		<tag k="place" v="locality" />
		<tag k="ssr:date" v="2019-12-27" />
		<tag k="ssr:gruppe" v="høyder" />
		<tag k="ssr:hovedgruppe" v="terreng" />
		<tag k="ssr:stedsnr" v="41205" />
		<tag k="ssr:type" v="haug" />
	</node>
	<node lat="60.785411111542" lon="9.553519442527758" id="-22710">
		<tag k="bridge" v="yes" />
		<tag k="layer" v="1" />
		<tag k="name" v="Sæterbrue" />
		<tag k="ssr:date" v="2019-12-27" />
		<tag k="ssr:gruppe" v="samferdselsanlegg" />
		<tag k="ssr:hovedgruppe" v="infrastruktur" />
		<tag k="ssr:stedsnr" v="240083" />
		<tag k="ssr:type" v="klopp" />
	</node>
	<node lat="60.781016668543685" lon="9.581930554907132" id="-22711">
		<tag k="name" v="Vassteinbekken" />
		<tag k="ssr:date" v="2019-12-27" />
		<tag k="ssr:gruppe" v="rennendeVann" />
		<tag k="ssr:hovedgruppe" v="ferskvann" />
		<tag k="ssr:stedsnr" v="240085" />
		<tag k="ssr:type" v="bekk" />
		<tag k="waterway" v="stream" />
	</node>
	<node lat="60.81240833529891" lon="9.709072228628859" id="-22712">
		<tag k="name" v="Heggjehærin" />
		<tag k="natural" v="hill" />
		<tag k="place" v="locality" />
		<tag k="ssr:date" v="2019-12-27" />
		<tag k="ssr:gruppe" v="høyder" />
		<tag k="ssr:hovedgruppe" v="terreng" />
		<tag k="ssr:stedsnr" v="240087" />
		<tag k="ssr:type" v="haug" />
	</node>
	<node lat="60.716116670323835" lon="9.973694438583998" id="-22713">
		<tag k="name" v="Høgbrenndalen" />
		<tag k="natural" v="valley" />
		<tag k="place" v="locality" />
		<tag k="ssr:date" v="2019-12-27" />
		<tag k="ssr:gruppe" v="senkninger" />
		<tag k="ssr:hovedgruppe" v="terreng" />
		<tag k="ssr:stedsnr" v="240092" />
		<tag k="ssr:type" v="dal" />
	</node>
	<node lat="60.76388611304081" lon="9.575199998894234" id="-22714">
		<tag k="name" v="Fautmyre" />
		<tag k="natural" v="wetland" />
		<tag k="ssr:date" v="2019-12-27" />
		<tag k="ssr:gruppe" v="våtmark" />
		<tag k="ssr:hovedgruppe" v="markslag" />
		<tag k="ssr:stedsnr" v="240097" />
		<tag k="ssr:type" v="myr" />
	</node>
	<node lat="60.791569446497405" lon="9.55553332529802" id="-22715">
		<tag k="name" v="Plassåsen" />
		<tag k="place" v="locality" />
		<tag k="ssr:date" v="2019-12-27" />
		<tag k="ssr:gruppe" v="bolighus" />
		<tag k="ssr:hovedgruppe" v="bebyggelse" />
		<tag k="ssr:stedsnr" v="240107" />
		<tag k="ssr:type" v="gammelBosettingsplass" />
	</node>
	<node lat="60.78814722491642" lon="9.566638897900924" id="-22716">
		<tag k="highway" v="path" />
		<tag k="name" v="Bygdevegen" />
		<tag k="ssr:date" v="2019-12-27" />
		<tag k="ssr:gruppe" v="veg" />
		<tag k="ssr:hovedgruppe" v="infrastruktur" />
		<tag k="ssr:stedsnr" v="240108" />
		<tag k="ssr:type" v="sti" />
	</node>
	<node lat="60.76697499830822" lon="9.767958336779584" id="-22717">
		<tag k="name" v="Fabroputt" />
		<tag k="natural" v="water" />
		<tag k="ssr:date" v="2019-12-27" />
		<tag k="ssr:gruppe" v="stilleståendeVann" />
		<tag k="ssr:hovedgruppe" v="ferskvann" />
		<tag k="ssr:stedsnr" v="240141" />
		<tag k="ssr:type" v="tjern" />
	</node>
	<node lat="60.761050004493946" lon="9.696988883861437" id="-22718">
		<tag k="name" v="Vesldalsrenna" />
		<tag k="natural" v="valley" />
		<tag k="old_name" v="Lilledalsrenna" />
		<tag k="place" v="locality" />
		<tag k="ssr:date" v="2019-12-27" />
		<tag k="ssr:gruppe" v="senkninger" />
		<tag k="ssr:hovedgruppe" v="terreng" />
		<tag k="ssr:stedsnr" v="240158" />
		<tag k="ssr:type" v="dal" />
	</node>
	<node lat="60.759716666121555" lon="9.698755546415443" id="-22719">
		<tag k="name" v="Storurde" />
		<tag k="natural" v="scree" />
		<tag k="ssr:date" v="2019-12-27" />
		<tag k="ssr:gruppe" v="løsmasseavsetninger" />
		<tag k="ssr:hovedgruppe" v="markslag" />
		<tag k="ssr:stedsnr" v="240161" />
		<tag k="ssr:type" v="ur" />
	</node>
	<node lat="60.824797220851366" lon="9.514458338770398" id="-22720">
		<tag k="name" v="Lineikro" />
		<tag k="place" v="locality" />
		<tag k="ssr:date" v="2019-12-27" />
		<tag k="ssr:gruppe" v="dyrkamark" />
		<tag k="ssr:hovedgruppe" v="markslag" />
		<tag k="ssr:stedsnr" v="240836" />
		<tag k="ssr:type" v="jorde" />
	</node>
	<node lat="60.752322224956394" lon="9.593625006598009" id="-22721">
		<tag k="name" v="Lusemyratn" />
		<tag k="natural" v="wetland" />
		<tag k="ssr:date" v="2019-12-27" />
		<tag k="ssr:gruppe" v="våtmark" />
		<tag k="ssr:hovedgruppe" v="markslag" />
		<tag k="ssr:stedsnr" v="58092" />
		<tag k="ssr:type" v="myr" />
	</node>
	<node lat="60.695019442169986" lon="9.576463894080277" id="-22722">
		<tag k="fixme" v="consider natural=peak for the most distinct mountains in the district" />
		<tag k="name" v="Larsbølkollen" />
		<tag k="natural" v="hill" />
		<tag k="place" v="locality" />
		<tag k="ssr:date" v="2019-12-27" />
		<tag k="ssr:gruppe" v="høyder" />
		<tag k="ssr:hovedgruppe" v="terreng" />
		<tag k="ssr:stedsnr" v="58207" />
		<tag k="ssr:type" v="ås" />
	</node>
	<node lat="60.699213888995025" lon="9.613283331128105" id="-22723">
		<tag k="name" v="Fykputtbekken" />
		<tag k="ssr:date" v="2019-12-27" />
		<tag k="ssr:gruppe" v="rennendeVann" />
		<tag k="ssr:hovedgruppe" v="ferskvann" />
		<tag k="ssr:stedsnr" v="58213" />
		<tag k="ssr:type" v="bekk" />
		<tag k="waterway" v="stream" />
	</node>
	<node lat="60.725708331804896" lon="9.612847218577427" id="-22724">
		<tag k="name" v="Liasæterhallitn" />
		<tag k="natural" v="slope" />
		<tag k="place" v="locality" />
		<tag k="ssr:date" v="2019-12-27" />
		<tag k="ssr:gruppe" v="skråninger" />
		<tag k="ssr:hovedgruppe" v="terreng" />
		<tag k="ssr:stedsnr" v="58216" />
		<tag k="ssr:type" v="li" />
	</node>
	<node lat="60.73828333312817" lon="9.648252771791832" id="-22725">
		<tag k="name" v="Høglie" />
		<tag k="natural" v="slope" />
		<tag k="place" v="locality" />
		<tag k="ssr:date" v="2019-12-27" />
		<tag k="ssr:gruppe" v="skråninger" />
		<tag k="ssr:hovedgruppe" v="terreng" />
		<tag k="ssr:stedsnr" v="58226" />
		<tag k="ssr:type" v="li" />
	</node>
	<node lat="60.76529722618913" lon="9.734283341041248" id="-22726">
		<tag k="name" v="Laddelie" />
		<tag k="natural" v="slope" />
		<tag k="place" v="locality" />
		<tag k="ssr:date" v="2019-12-27" />
		<tag k="ssr:gruppe" v="skråninger" />
		<tag k="ssr:hovedgruppe" v="terreng" />
		<tag k="ssr:stedsnr" v="58174" />
		<tag k="ssr:type" v="li" />
	</node>
	<node lat="60.77845000076219" lon="9.76603889592091" id="-22727">
		<tag k="name" v="Mortebekkhøgde" />
		<tag k="natural" v="hill" />
		<tag k="place" v="locality" />
		<tag k="ssr:date" v="2019-12-27" />
		<tag k="ssr:gruppe" v="høyder" />
		<tag k="ssr:hovedgruppe" v="terreng" />
		<tag k="ssr:stedsnr" v="58182" />
		<tag k="ssr:type" v="haug" />
	</node>
	<node lat="60.60678055982846" lon="9.483980557333272" id="-22728">
		<tag k="name" v="Mebekken" />
		<tag k="ssr:date" v="2019-12-27" />
		<tag k="ssr:gruppe" v="rennendeVann" />
		<tag k="ssr:hovedgruppe" v="ferskvann" />
		<tag k="ssr:stedsnr" v="240393" />
		<tag k="ssr:type" v="bekk" />
		<tag k="waterway" v="stream" />
	</node>
	<node lat="60.558038893044404" lon="9.487583328595571" id="-22729">
		<tag k="name" v="Leina" />
		<tag k="place" v="isolated_dwelling" />
		<tag k="ssr:date" v="2019-12-27" />
		<tag k="ssr:gruppe" v="bolighus" />
		<tag k="ssr:hovedgruppe" v="bebyggelse" />
		<tag k="ssr:stedsnr" v="240401" />
		<tag k="ssr:type" v="fritidsbolig" />
	</node>
	<node lat="60.57607499968721" lon="9.467163894605315" id="-22730">
		<tag k="name" v="Idyllvatnet" />
		<tag k="natural" v="water" />
		<tag k="ssr:date" v="2019-12-27" />
		<tag k="ssr:gruppe" v="stilleståendeVann" />
		<tag k="ssr:hovedgruppe" v="ferskvann" />
		<tag k="ssr:stedsnr" v="58403" />
		<tag k="ssr:type" v="tjern" />
	</node>
	<node lat="60.5723166684674" lon="9.507363891225573" id="-22731">
		<tag k="name" v="Vestre Larsputten" />
		<tag k="natural" v="water" />
		<tag k="ssr:date" v="2019-12-27" />
		<tag k="ssr:gruppe" v="stilleståendeVann" />
		<tag k="ssr:hovedgruppe" v="ferskvann" />
		<tag k="ssr:stedsnr" v="58405" />
		<tag k="ssr:type" v="tjern" />
	</node>
	<node lat="60.68331389322684" lon="9.527191667337512" id="-22732">
		<tag k="name" v="Fintoppkollen" />
		<tag k="natural" v="hill" />
		<tag k="place" v="locality" />
		<tag k="ssr:date" v="2019-12-27" />
		<tag k="ssr:gruppe" v="høyder" />
		<tag k="ssr:hovedgruppe" v="terreng" />
		<tag k="ssr:stedsnr" v="58469" />
		<tag k="ssr:type" v="haug" />
	</node>
	<node lat="60.621002777545876" lon="9.697894440886111" id="-22733">
		<tag k="alt_name" v="Jøranby" />
		<tag k="name" v="Øvre Jørandby" />
		<tag k="place" v="farm" />
		<tag k="ssr:date" v="2021-05-20" />
		<tag k="ssr:gruppe" v="gardsbebyggelse" />
		<tag k="ssr:hovedgruppe" v="bebyggelse" />
		<tag k="ssr:stedsnr" v="58470" />
		<tag k="ssr:type" v="bruk" />
	</node>
	<node lat="60.85535555955607" lon="9.442925006503444" id="-22734">
		<tag k="name" v="Gullringbekken" />
		<tag k="ssr:date" v="2019-12-27" />
		<tag k="ssr:gruppe" v="rennendeVann" />
		<tag k="ssr:hovedgruppe" v="ferskvann" />
		<tag k="ssr:stedsnr" v="58369" />
		<tag k="ssr:type" v="bekk" />
		<tag k="waterway" v="stream" />
	</node>
	<node lat="60.86360277768841" lon="9.406738885619218" id="-22735">
		<tag k="historic" v="shieling" />
		<tag k="name" v="Brennahaugen" />
		<tag k="place" v="isolated_dwelling" />
		<tag k="ssr:date" v="2019-12-27" />
		<tag k="ssr:gruppe" v="gardsbebyggelse" />
		<tag k="ssr:hovedgruppe" v="bebyggelse" />
		<tag k="ssr:stedsnr" v="58375" />
		<tag k="ssr:type" v="seterStøl" />
	</node>
	<node lat="60.85748611497297" lon="9.409780557463364" id="-22736">
		<tag k="historic" v="shieling" />
		<tag k="name" v="Høllatrøe" />
		<tag k="place" v="isolated_dwelling" />
		<tag k="ssr:date" v="2019-12-27" />
		<tag k="ssr:gruppe" v="gardsbebyggelse" />
		<tag k="ssr:hovedgruppe" v="bebyggelse" />
		<tag k="ssr:stedsnr" v="58378" />
		<tag k="ssr:type" v="seterStøl" />
	</node>
	<node lat="60.85539444790724" lon="9.426330547117761" id="-22737">
		<tag k="highway" v="path" />
		<tag k="name" v="Kongevegen" />
		<tag k="ssr:date" v="2019-12-27" />
		<tag k="ssr:gruppe" v="veg" />
		<tag k="ssr:hovedgruppe" v="infrastruktur" />
		<tag k="ssr:stedsnr" v="58380" />
		<tag k="ssr:type" v="sti" />
	</node>
	<node lat="60.573298757387676" lon="9.71948874781617" id="-22738">
		<tag k="alt_name" v="Nordre Brenden" />
		<tag k="name" v="Nørdre Brenna" />
		<tag k="place" v="locality" />
		<tag k="ssr:date" v="2021-05-18" />
		<tag k="ssr:gruppe" v="gardsbebyggelse" />
		<tag k="ssr:hovedgruppe" v="bebyggelse" />
		<tag k="ssr:stedsnr" v="58508" />
		<tag k="ssr:type" v="eiendom" />
	</node>
	<node lat="60.65499166615991" lon="9.843113892969773" id="-22739">
		<tag k="name" v="Stamsrud" />
		<tag k="place" v="isolated_dwelling" />
		<tag k="ssr:date" v="2019-12-27" />
		<tag k="ssr:gruppe" v="bolighus" />
		<tag k="ssr:hovedgruppe" v="bebyggelse" />
		<tag k="ssr:stedsnr" v="58719" />
		<tag k="ssr:type" v="eneboligMindreBoligbygg" />
	</node>
	<node lat="60.77313888906792" lon="9.298324994697495" id="-22740">
		<tag k="fixme" v="consider natural=peak for the most distinct mountains in the district" />
		<tag k="name" v="Gamlestølfjellet" />
		<tag k="natural" v="hill" />
		<tag k="place" v="locality" />
		<tag k="ssr:date" v="2019-12-27" />
		<tag k="ssr:gruppe" v="høyder" />
		<tag k="ssr:hovedgruppe" v="terreng" />
		<tag k="ssr:stedsnr" v="58777" />
		<tag k="ssr:type" v="ås" />
	</node>
	<node lat="60.6479666680392" lon="9.366183337350868" id="-22741">
		<tag k="name" v="Vangsoset" />
		<tag k="natural" v="bay" />
		<tag k="ssr:date" v="2019-12-27" />
		<tag k="ssr:gruppe" v="rennendeVann" />
		<tag k="ssr:hovedgruppe" v="ferskvann" />
		<tag k="ssr:stedsnr" v="58781" />
		<tag k="ssr:type" v="os" />
	</node>
	<node lat="60.64764999760647" lon="9.408677774682463" id="-22742">
		<tag k="name" v="Halvegasbekken" />
		<tag k="ssr:date" v="2019-12-27" />
		<tag k="ssr:gruppe" v="rennendeVann" />
		<tag k="ssr:hovedgruppe" v="ferskvann" />
		<tag k="ssr:stedsnr" v="58782" />
		<tag k="ssr:type" v="bekk" />
		<tag k="waterway" v="stream" />
	</node>
	<node lat="60.790211109959486" lon="9.635405561782463" id="-22743">
		<tag k="name" v="Kølskåledalen" />
		<tag k="natural" v="valley" />
		<tag k="place" v="locality" />
		<tag k="ssr:date" v="2019-12-27" />
		<tag k="ssr:gruppe" v="senkninger" />
		<tag k="ssr:hovedgruppe" v="terreng" />
		<tag k="ssr:stedsnr" v="58905" />
		<tag k="ssr:type" v="dal" />
	</node>
	<node lat="60.78664721846188" lon="9.655430550301782" id="-22744">
		<tag k="name" v="Gråbeinmyra" />
		<tag k="natural" v="wetland" />
		<tag k="ssr:date" v="2019-12-27" />
		<tag k="ssr:gruppe" v="våtmark" />
		<tag k="ssr:hovedgruppe" v="markslag" />
		<tag k="ssr:stedsnr" v="58906" />
		<tag k="ssr:type" v="myr" />
	</node>
	<node lat="60.61325833586966" lon="9.73771111839254" id="-22745">
		<tag k="name" v="Grant" />
		<tag k="place" v="isolated_dwelling" />
		<tag k="ssr:date" v="2019-12-27" />
		<tag k="ssr:gruppe" v="bolighus" />
		<tag k="ssr:hovedgruppe" v="bebyggelse" />
		<tag k="ssr:stedsnr" v="240542" />
		<tag k="ssr:type" v="eneboligMindreBoligbygg" />
	</node>
	<node lat="60.7031499959492" lon="9.541847218647684" id="-22746">
		<tag k="name" v="Liasæterhalle" />
		<tag k="natural" v="slope" />
		<tag k="place" v="locality" />
		<tag k="ssr:date" v="2019-12-27" />
		<tag k="ssr:gruppe" v="skråninger" />
		<tag k="ssr:hovedgruppe" v="terreng" />
		<tag k="ssr:stedsnr" v="240462" />
		<tag k="ssr:type" v="li" />
	</node>
	<node lat="60.62003055337587" lon="9.710675006241294" id="-22747">
		<tag k="name" v="Haugtun" />
		<tag k="place" v="farm" />
		<tag k="ssr:date" v="2019-12-27" />
		<tag k="ssr:gruppe" v="gardsbebyggelse" />
		<tag k="ssr:hovedgruppe" v="bebyggelse" />
		<tag k="ssr:stedsnr" v="240465" />
		<tag k="ssr:type" v="bruk" />
	</node>
	<node lat="60.61926111194171" lon="9.706241659135243" id="-22748">
		<tag k="name" v="Skogstad" />
		<tag k="place" v="isolated_dwelling" />
		<tag k="ssr:date" v="2019-12-27" />
		<tag k="ssr:gruppe" v="bolighus" />
		<tag k="ssr:hovedgruppe" v="bebyggelse" />
		<tag k="ssr:stedsnr" v="240471" />
		<tag k="ssr:type" v="eneboligMindreBoligbygg" />
	</node>
	<node lat="60.60819722224938" lon="9.704288894543803" id="-22749">
		<tag k="name" v="Tjærehjellbekken" />
		<tag k="ssr:date" v="2019-12-27" />
		<tag k="ssr:gruppe" v="rennendeVann" />
		<tag k="ssr:hovedgruppe" v="ferskvann" />
		<tag k="ssr:stedsnr" v="240476" />
		<tag k="ssr:type" v="bekk" />
		<tag k="waterway" v="stream" />
	</node>
	<node lat="60.829016669593805" lon="9.356350002563898" id="-22750">
		<tag k="name" v="Rugleiksknatten" />
		<tag k="natural" v="hill" />
		<tag k="place" v="locality" />
		<tag k="ssr:date" v="2019-12-27" />
		<tag k="ssr:gruppe" v="høyder" />
		<tag k="ssr:hovedgruppe" v="terreng" />
		<tag k="ssr:stedsnr" v="240652" />
		<tag k="ssr:type" v="haug" />
	</node>
	<node lat="60.691877779639825" lon="9.896219446483686" id="-22751">
		<tag k="name" v="Hakakrokbakken" />
		<tag k="natural" v="slope" />
		<tag k="place" v="locality" />
		<tag k="ssr:date" v="2019-12-27" />
		<tag k="ssr:gruppe" v="skråninger" />
		<tag k="ssr:hovedgruppe" v="terreng" />
		<tag k="ssr:stedsnr" v="240668" />
		<tag k="ssr:type" v="bakke" />
	</node>
	<node lat="60.69219444675155" lon="9.845669439127201" id="-22752">
		<tag k="name" v="Jørnslia" />
		<tag k="natural" v="slope" />
		<tag k="place" v="locality" />
		<tag k="ssr:date" v="2019-12-27" />
		<tag k="ssr:gruppe" v="skråninger" />
		<tag k="ssr:hovedgruppe" v="terreng" />
		<tag k="ssr:stedsnr" v="240671" />
		<tag k="ssr:type" v="li" />
	</node>
	<node lat="60.789372219432686" lon="9.435580554287133" id="-22753">
		<tag k="name" v="Steintjernet" />
		<tag k="natural" v="water" />
		<tag k="old_name" v="Steintjednet" />
		<tag k="ssr:date" v="2019-12-27" />
		<tag k="ssr:gruppe" v="stilleståendeVann" />
		<tag k="ssr:hovedgruppe" v="ferskvann" />
		<tag k="ssr:stedsnr" v="240672" />
		<tag k="ssr:type" v="tjern" />
	</node>
	<node lat="60.67218888713006" lon="9.84312222550207" id="-22754">
		<tag k="name" v="Skarsætermyra" />
		<tag k="natural" v="slope" />
		<tag k="place" v="locality" />
		<tag k="ssr:date" v="2019-12-27" />
		<tag k="ssr:gruppe" v="skråninger" />
		<tag k="ssr:hovedgruppe" v="terreng" />
		<tag k="ssr:stedsnr" v="240675" />
		<tag k="ssr:type" v="li" />
	</node>
	<node lat="60.67468611420449" lon="9.865630549803457" id="-22755">
		<tag k="name" v="Buvasslia" />
		<tag k="natural" v="slope" />
		<tag k="place" v="locality" />
		<tag k="ssr:date" v="2019-12-27" />
		<tag k="ssr:gruppe" v="skråninger" />
		<tag k="ssr:hovedgruppe" v="terreng" />
		<tag k="ssr:stedsnr" v="240677" />
		<tag k="ssr:type" v="li" />
	</node>
	<node lat="60.68766111185761" lon="9.867666665530514" id="-22756">
		<tag k="name" v="Fredens hjem" />
		<tag k="place" v="isolated_dwelling" />
		<tag k="ssr:date" v="2019-12-27" />
		<tag k="ssr:gruppe" v="bolighus" />
		<tag k="ssr:hovedgruppe" v="bebyggelse" />
		<tag k="ssr:stedsnr" v="240679" />
		<tag k="ssr:type" v="fritidsbolig" />
	</node>
	<node lat="60.68811944616504" lon="9.863572223948585" id="-22757">
		<tag k="name" v="Gruvla" />
		<tag k="ssr:date" v="2019-12-27" />
		<tag k="ssr:gruppe" v="rennendeVann" />
		<tag k="ssr:hovedgruppe" v="ferskvann" />
		<tag k="ssr:stedsnr" v="240680" />
		<tag k="ssr:type" v="elv" />
		<tag k="waterway" v="river" />
	</node>
	<node lat="60.834761107428534" lon="9.393024994895791" id="-22758">
		<tag k="bridge" v="yes" />
		<tag k="layer" v="1" />
		<tag k="name" v="Svartebergbrue" />
		<tag k="ssr:date" v="2019-12-27" />
		<tag k="ssr:gruppe" v="samferdselsanlegg" />
		<tag k="ssr:hovedgruppe" v="infrastruktur" />
		<tag k="ssr:stedsnr" v="240758" />
		<tag k="ssr:type" v="klopp" />
	</node>
	<node lat="60.567811114053235" lon="9.814572225904701" id="-22759">
		<tag k="name" v="Plommetjernbekken" />
		<tag k="ssr:date" v="2019-12-27" />
		<tag k="ssr:gruppe" v="rennendeVann" />
		<tag k="ssr:hovedgruppe" v="ferskvann" />
		<tag k="ssr:stedsnr" v="240759" />
		<tag k="ssr:type" v="bekk" />
		<tag k="waterway" v="stream" />
	</node>
	<node lat="60.82750833015123" lon="9.423808341897743" id="-22760">
		<tag k="name" v="Storstølmyratn" />
		<tag k="natural" v="wetland" />
		<tag k="ssr:date" v="2019-12-27" />
		<tag k="ssr:gruppe" v="våtmark" />
		<tag k="ssr:hovedgruppe" v="markslag" />
		<tag k="ssr:stedsnr" v="240760" />
		<tag k="ssr:type" v="myr" />
	</node>
	<node lat="60.597497225896184" lon="9.660252773200945" id="-22761">
		<tag k="highway" v="path" />
		<tag k="name" v="Brennsætervegen" />
		<tag k="ssr:date" v="2019-12-27" />
		<tag k="ssr:gruppe" v="veg" />
		<tag k="ssr:hovedgruppe" v="infrastruktur" />
		<tag k="ssr:stedsnr" v="240761" />
		<tag k="ssr:type" v="sti" />
	</node>
	<node lat="60.597363889585814" lon="9.65249999409483" id="-22762">
		<tag k="name" v="Ostebekk" />
		<tag k="ssr:date" v="2019-12-27" />
		<tag k="ssr:gruppe" v="rennendeVann" />
		<tag k="ssr:hovedgruppe" v="ferskvann" />
		<tag k="ssr:stedsnr" v="240762" />
		<tag k="ssr:type" v="bekk" />
		<tag k="waterway" v="stream" />
	</node>
	<node lat="60.582200002879716" lon="9.63647221725749" id="-22763">
		<tag k="name" v="Sandpynten" />
		<tag k="natural" v="slope" />
		<tag k="place" v="locality" />
		<tag k="ssr:date" v="2019-12-27" />
		<tag k="ssr:gruppe" v="skråninger" />
		<tag k="ssr:hovedgruppe" v="terreng" />
		<tag k="ssr:stedsnr" v="240765" />
		<tag k="ssr:type" v="li" />
	</node>
	<node lat="60.63174722277818" lon="9.369950006766494" id="-22764">
		<tag k="name" v="Haukehaugen" />
		<tag k="natural" v="hill" />
		<tag k="place" v="locality" />
		<tag k="ssr:date" v="2019-12-27" />
		<tag k="ssr:gruppe" v="høyder" />
		<tag k="ssr:hovedgruppe" v="terreng" />
		<tag k="ssr:stedsnr" v="240782" />
		<tag k="ssr:type" v="haug" />
	</node>
	<node lat="60.787691665509165" lon="9.288272216578331" id="-22765">
		<tag k="name" v="Gråtarmyra" />
		<tag k="natural" v="wetland" />
		<tag k="ssr:date" v="2019-12-27" />
		<tag k="ssr:gruppe" v="våtmark" />
		<tag k="ssr:hovedgruppe" v="markslag" />
		<tag k="ssr:stedsnr" v="240775" />
		<tag k="ssr:type" v="myr" />
	</node>
	<node lat="60.82710277915689" lon="9.447013887925502" id="-22766">
		<tag k="name" v="Øygardsbakken" />
		<tag k="natural" v="slope" />
		<tag k="place" v="locality" />
		<tag k="ssr:date" v="2019-12-27" />
		<tag k="ssr:gruppe" v="skråninger" />
		<tag k="ssr:hovedgruppe" v="terreng" />
		<tag k="ssr:stedsnr" v="240854" />
		<tag k="ssr:type" v="bakke" />
	</node>
	<node lat="60.774325000582245" lon="9.404311109698028" id="-22767">
		<tag k="name" v="Signaltoppen" />
		<tag k="natural" v="hill" />
		<tag k="place" v="locality" />
		<tag k="ssr:date" v="2019-12-27" />
		<tag k="ssr:gruppe" v="høyder" />
		<tag k="ssr:hovedgruppe" v="terreng" />
		<tag k="ssr:stedsnr" v="240952" />
		<tag k="ssr:type" v="haug" />
	</node>
	<node lat="60.77316666770109" lon="9.331744439860564" id="-22768">
		<tag k="alt_name" v="Nordre Bjødalen" />
		<tag k="historic" v="shieling" />
		<tag k="name" v="Nørdre Bjødalen" />
		<tag k="place" v="isolated_dwelling" />
		<tag k="ssr:date" v="2019-12-27" />
		<tag k="ssr:gruppe" v="gardsbebyggelse" />
		<tag k="ssr:hovedgruppe" v="bebyggelse" />
		<tag k="ssr:stedsnr" v="240964" />
		<tag k="ssr:type" v="seterStøl" />
	</node>
	<node lat="60.67888888963297" lon="9.409122213945318" id="-22769">
		<tag k="alt_name" v="Vangslie" />
		<tag k="name" v="Vangslii" />
		<tag k="natural" v="slope" />
		<tag k="place" v="locality" />
		<tag k="ssr:date" v="2019-12-27" />
		<tag k="ssr:gruppe" v="skråninger" />
		<tag k="ssr:hovedgruppe" v="terreng" />
		<tag k="ssr:stedsnr" v="67700" />
		<tag k="ssr:type" v="li" />
	</node>
	<node lat="60.71972499567845" lon="9.416024991913318" id="-22770">
		<tag k="alt_name" v="Bukfyllvatnet, øvre" />
		<tag k="name" v="Øvre Bukfyllvatnet" />
		<tag k="natural" v="water" />
		<tag k="ssr:date" v="2019-12-27" />
		<tag k="ssr:gruppe" v="stilleståendeVann" />
		<tag k="ssr:hovedgruppe" v="ferskvann" />
		<tag k="ssr:stedsnr" v="68545" />
		<tag k="ssr:type" v="vann" />
		<tag k="water" v="lake" />
	</node>
	<node lat="60.7484166649396" lon="9.701230555364798" id="-22771">
		<tag k="fixme" v="multiple name tags, choose one and add the other to alt_name" />
		<tag k="name" v="Storsvei;Holt" />
		<tag k="place" v="farm" />
		<tag k="ssr:date" v="2019-12-27" />
		<tag k="ssr:gruppe" v="gardsbebyggelse" />
		<tag k="ssr:hovedgruppe" v="bebyggelse" />
		<tag k="ssr:stedsnr" v="68794" />
		<tag k="ssr:type" v="bruk" />
	</node>
	<node lat="60.58964999675539" lon="9.537161106321392" id="-22772">
		<tag k="fixme" v="consider natural=peak for the most distinct mountains in the district" />
		<tag k="name" v="Svartvikfjellet" />
		<tag k="natural" v="hill" />
		<tag k="place" v="locality" />
		<tag k="ssr:date" v="2019-12-27" />
		<tag k="ssr:gruppe" v="høyder" />
		<tag k="ssr:hovedgruppe" v="terreng" />
		<tag k="ssr:stedsnr" v="68810" />
		<tag k="ssr:type" v="fjell" />
	</node>
	<node lat="60.62327777667185" lon="9.910377772742448" id="-22773">
		<tag k="name" v="Høneren" />
		<tag k="place" v="farm" />
		<tag k="ssr:date" v="2019-12-27" />
		<tag k="ssr:gruppe" v="gardsbebyggelse" />
		<tag k="ssr:hovedgruppe" v="bebyggelse" />
		<tag k="ssr:stedsnr" v="68886" />
		<tag k="ssr:type" v="bruk" />
	</node>
	<node lat="60.62767777979839" lon="9.740241668313057" id="-22774">
		<tag k="alt_name" v="Stormyra" />
		<tag k="name" v="Storemyr" />
		<tag k="natural" v="wetland" />
		<tag k="ssr:date" v="2019-12-27" />
		<tag k="ssr:gruppe" v="våtmark" />
		<tag k="ssr:hovedgruppe" v="markslag" />
		<tag k="ssr:stedsnr" v="68981" />
		<tag k="ssr:type" v="myr" />
	</node>
	<node lat="60.62729525652919" lon="9.674070463467995" id="-22775">
		<tag k="loc_name" v="Grøv" />
		<tag k="name" v="Grov" />
		<tag k="place" v="hamlet" />
		<tag k="ssr:date" v="2020-12-23" />
		<tag k="ssr:gruppe" v="gardsbebyggelse" />
		<tag k="ssr:hovedgruppe" v="bebyggelse" />
		<tag k="ssr:stedsnr" v="68986" />
		<tag k="ssr:type" v="navnegard" />
	</node>
	<node lat="60.627138891179385" lon="9.69085277441893" id="-22776">
		<tag k="name" v="Bergheim" />
		<tag k="place" v="farm" />
		<tag k="ssr:date" v="2019-12-27" />
		<tag k="ssr:gruppe" v="gardsbebyggelse" />
		<tag k="ssr:hovedgruppe" v="bebyggelse" />
		<tag k="ssr:stedsnr" v="68990" />
		<tag k="ssr:type" v="bruk" />
	</node>
	<node lat="60.635147221696116" lon="9.843144451451414" id="-22777">
		<tag k="alt_name" v="Hola" />
		<tag k="historic" v="shieling" />
		<tag k="name" v="Holoa" />
		<tag k="place" v="isolated_dwelling" />
		<tag k="ssr:date" v="2019-12-27" />
		<tag k="ssr:gruppe" v="gardsbebyggelse" />
		<tag k="ssr:hovedgruppe" v="bebyggelse" />
		<tag k="ssr:stedsnr" v="68996" />
		<tag k="ssr:type" v="seterStøl" />
	</node>
	<node lat="60.86248055610691" lon="9.46901666796172" id="-22778">
		<tag k="alt_name" v="Liabrenne" />
		<tag k="name" v="Liabrenn" />
		<tag k="place" v="farm" />
		<tag k="ssr:date" v="2019-12-27" />
		<tag k="ssr:gruppe" v="gardsbebyggelse" />
		<tag k="ssr:hovedgruppe" v="bebyggelse" />
		<tag k="ssr:stedsnr" v="69706" />
		<tag k="ssr:type" v="bruk" />
	</node>
	<node lat="60.82389999860531" lon="9.49378332948025" id="-22779">
		<tag k="alt_name" v="Pålelie" />
		<tag k="name" v="Pålelii" />
		<tag k="place" v="farm" />
		<tag k="ssr:date" v="2019-12-27" />
		<tag k="ssr:gruppe" v="gardsbebyggelse" />
		<tag k="ssr:hovedgruppe" v="bebyggelse" />
		<tag k="ssr:stedsnr" v="69886" />
		<tag k="ssr:type" v="bruk" />
	</node>
	<node lat="60.83376944351778" lon="9.64017777402248" id="-22780">
		<tag k="alt_name" v="Hølbekken" />
		<tag k="name" v="Holbekken" />
		<tag k="ssr:date" v="2019-12-27" />
		<tag k="ssr:gruppe" v="rennendeVann" />
		<tag k="ssr:hovedgruppe" v="ferskvann" />
		<tag k="ssr:stedsnr" v="70186" />
		<tag k="ssr:type" v="bekk" />
		<tag k="waterway" v="stream" />
	</node>
	<node lat="60.80064722243761" lon="9.748547226978612" id="-22781">
		<tag k="name" v="Melbrenda" />
		<tag k="ssr:date" v="2019-12-27" />
		<tag k="ssr:gruppe" v="rennendeVann" />
		<tag k="ssr:hovedgruppe" v="ferskvann" />
		<tag k="ssr:stedsnr" v="70202" />
		<tag k="ssr:type" v="bekk" />
		<tag k="waterway" v="stream" />
	</node>
	<node lat="60.79416388869085" lon="9.617997223336754" id="-22782">
		<tag k="fixme" v="consider natural=peak for the most distinct mountains in the district" />
		<tag k="name" v="Leiteberget" />
		<tag k="natural" v="hill" />
		<tag k="place" v="locality" />
		<tag k="ssr:date" v="2019-12-27" />
		<tag k="ssr:gruppe" v="høyder" />
		<tag k="ssr:hovedgruppe" v="terreng" />
		<tag k="ssr:stedsnr" v="70212" />
		<tag k="ssr:type" v="ås" />
	</node>
	<node lat="60.79724166661387" lon="9.69873888113448" id="-22783">
		<tag k="alt_name" v="Tomtin, nedre;Nedre Tomten" />
		<tag k="name" v="Nedre Tomtin" />
		<tag k="place" v="farm" />
		<tag k="ssr:date" v="2019-12-27" />
		<tag k="ssr:gruppe" v="gardsbebyggelse" />
		<tag k="ssr:hovedgruppe" v="bebyggelse" />
		<tag k="ssr:stedsnr" v="70215" />
		<tag k="ssr:type" v="bruk" />
	</node>
	<node lat="60.80911110964512" lon="9.608675006872387" id="-22784">
		<tag k="fixme" v="consider natural=peak for the most distinct mountains in the district" />
		<tag k="name" v="Kjeldeknatten" />
		<tag k="natural" v="hill" />
		<tag k="place" v="locality" />
		<tag k="ssr:date" v="2019-12-27" />
		<tag k="ssr:gruppe" v="høyder" />
		<tag k="ssr:hovedgruppe" v="terreng" />
		<tag k="ssr:stedsnr" v="70233" />
		<tag k="ssr:type" v="ås" />
	</node>
	<node lat="60.80229166796231" lon="9.627594442572063" id="-22785">
		<tag k="name" v="Komperud" />
		<tag k="place" v="farm" />
		<tag k="ssr:date" v="2019-12-27" />
		<tag k="ssr:gruppe" v="gardsbebyggelse" />
		<tag k="ssr:hovedgruppe" v="bebyggelse" />
		<tag k="ssr:stedsnr" v="70234" />
		<tag k="ssr:type" v="bruk" />
	</node>
	<node lat="60.79799721865687" lon="9.308433336407095" id="-22786">
		<tag k="alt_name" v="Sangatn" />
		<tag k="historic" v="shieling" />
		<tag k="name" v="Sangan" />
		<tag k="place" v="isolated_dwelling" />
		<tag k="ssr:date" v="2019-12-27" />
		<tag k="ssr:gruppe" v="gardsbebyggelse" />
		<tag k="ssr:hovedgruppe" v="bebyggelse" />
		<tag k="ssr:stedsnr" v="70826" />
		<tag k="ssr:type" v="seterStøl" />
	</node>
	<node lat="60.75746666914511" lon="9.6155833340664" id="-22787">
		<tag k="name" v="Syndalssæterbekken" />
		<tag k="ssr:date" v="2019-12-27" />
		<tag k="ssr:gruppe" v="rennendeVann" />
		<tag k="ssr:hovedgruppe" v="ferskvann" />
		<tag k="ssr:stedsnr" v="71917" />
		<tag k="ssr:type" v="bekk" />
		<tag k="waterway" v="stream" />
	</node>
	<node lat="60.68200000307897" lon="9.753383337415897" id="-22788">
		<tag k="name" v="Rundhaug" />
		<tag k="place" v="isolated_dwelling" />
		<tag k="ssr:date" v="2019-12-27" />
		<tag k="ssr:gruppe" v="bolighus" />
		<tag k="ssr:hovedgruppe" v="bebyggelse" />
		<tag k="ssr:stedsnr" v="86294" />
		<tag k="ssr:type" v="fritidsbolig" />
	</node>
	<node lat="60.64432500379038" lon="9.717261118753012" id="-22789">
		<tag k="name" v="Augensrud" />
		<tag k="place" v="locality" />
		<tag k="ssr:date" v="2019-12-27" />
		<tag k="ssr:gruppe" v="bolighus" />
		<tag k="ssr:hovedgruppe" v="bebyggelse" />
		<tag k="ssr:stedsnr" v="100261" />
		<tag k="ssr:type" v="gammelBosettingsplass" />
	</node>
	<node lat="60.66305833544504" lon="9.733302783988933" id="-22790">
		<tag k="fixme" v="consider natural=peak for the most distinct mountains in the district" />
		<tag k="name" v="Kristiansmokollen" />
		<tag k="natural" v="hill" />
		<tag k="place" v="locality" />
		<tag k="ssr:date" v="2019-12-27" />
		<tag k="ssr:gruppe" v="høyder" />
		<tag k="ssr:hovedgruppe" v="terreng" />
		<tag k="ssr:stedsnr" v="100268" />
		<tag k="ssr:type" v="ås" />
	</node>
	<node lat="60.66623611156028" lon="9.679044447483479" id="-22791">
		<tag k="name" v="Skarsæterdalen" />
		<tag k="natural" v="valley" />
		<tag k="place" v="locality" />
		<tag k="ssr:date" v="2019-12-27" />
		<tag k="ssr:gruppe" v="senkninger" />
		<tag k="ssr:hovedgruppe" v="terreng" />
		<tag k="ssr:stedsnr" v="100271" />
		<tag k="ssr:type" v="dal" />
	</node>
	<node lat="60.66451666673989" lon="9.49206944885423" id="-22792">
		<tag k="name" v="Damtjernbekken" />
		<tag k="ssr:date" v="2019-12-27" />
		<tag k="ssr:gruppe" v="rennendeVann" />
		<tag k="ssr:hovedgruppe" v="ferskvann" />
		<tag k="ssr:stedsnr" v="100284" />
		<tag k="ssr:type" v="bekk" />
		<tag k="waterway" v="stream" />
	</node>
	<node lat="60.544272225515016" lon="9.772355558913748" id="-22793">
		<tag k="name" v="Raudiget" />
		<tag k="natural" v="cape" />
		<tag k="ssr:date" v="2019-12-27" />
		<tag k="ssr:gruppe" v="ferskvannskontur" />
		<tag k="ssr:hovedgruppe" v="ferskvann" />
		<tag k="ssr:stedsnr" v="100666" />
		<tag k="ssr:type" v="nes" />
	</node>
	<node lat="60.48505000066062" lon="9.808427783043115" id="-22794">
		<tag k="name" v="Grojuvet" />
		<tag k="natural" v="gorge" />
		<tag k="ssr:date" v="2019-12-27" />
		<tag k="ssr:gruppe" v="senkninger" />
		<tag k="ssr:hovedgruppe" v="terreng" />
		<tag k="ssr:stedsnr" v="100802" />
		<tag k="ssr:type" v="juv" />
	</node>
	<node lat="60.82279166543971" lon="9.471208329625204" id="-22795">
		<tag k="name" v="Hauststølbekken" />
		<tag k="ssr:date" v="2019-12-27" />
		<tag k="ssr:gruppe" v="rennendeVann" />
		<tag k="ssr:hovedgruppe" v="ferskvann" />
		<tag k="ssr:stedsnr" v="100810" />
		<tag k="ssr:type" v="bekk" />
		<tag k="waterway" v="stream" />
	</node>
	<node lat="60.78730000265652" lon="9.384636107640782" id="-22796">
		<tag k="name" v="Storevieratn" />
		<tag k="place" v="locality" />
		<tag k="ssr:date" v="2019-12-27" />
		<tag k="ssr:gruppe" v="flater" />
		<tag k="ssr:hovedgruppe" v="terreng" />
		<tag k="ssr:stedsnr" v="100560" />
		<tag k="ssr:type" v="slette" />
	</node>
	<node lat="60.84548888526114" lon="9.465925005921394" id="-22797">
		<tag k="highway" v="path" />
		<tag k="name" v="Krøssvegitn" />
		<tag k="ssr:date" v="2019-12-27" />
		<tag k="ssr:gruppe" v="veg" />
		<tag k="ssr:hovedgruppe" v="infrastruktur" />
		<tag k="ssr:stedsnr" v="100717" />
		<tag k="ssr:type" v="sti" />
	</node>
	<node lat="60.52772778009751" lon="9.800305555820525" id="-22798">
		<tag k="name" v="Storrustelia" />
		<tag k="natural" v="slope" />
		<tag k="place" v="locality" />
		<tag k="ssr:date" v="2019-12-27" />
		<tag k="ssr:gruppe" v="skråninger" />
		<tag k="ssr:hovedgruppe" v="terreng" />
		<tag k="ssr:stedsnr" v="100759" />
		<tag k="ssr:type" v="li" />
	</node>
	<node lat="60.798361114185" lon="9.491011118011494" id="-22799">
		<tag k="name" v="Ranangshite" />
		<tag k="place" v="isolated_dwelling" />
		<tag k="ssr:date" v="2019-12-27" />
		<tag k="ssr:gruppe" v="bolighus" />
		<tag k="ssr:hovedgruppe" v="bebyggelse" />
		<tag k="ssr:stedsnr" v="100781" />
		<tag k="ssr:type" v="fritidsbolig" />
	</node>
	<node lat="60.621249998673505" lon="9.579994449012103" id="-22800">
		<tag k="name" v="Eneberghaugen" />
		<tag k="natural" v="hill" />
		<tag k="place" v="locality" />
		<tag k="ssr:date" v="2019-12-27" />
		<tag k="ssr:gruppe" v="høyder" />
		<tag k="ssr:hovedgruppe" v="terreng" />
		<tag k="ssr:stedsnr" v="100869" />
		<tag k="ssr:type" v="haug" />
	</node>
	<node lat="60.81464722032636" lon="9.596886119284942" id="-22801">
		<tag k="name" v="Olavskjelda" />
		<tag k="natural" v="spring" />
		<tag k="ssr:date" v="2019-12-27" />
		<tag k="ssr:gruppe" v="rennendeVann" />
		<tag k="ssr:hovedgruppe" v="ferskvann" />
		<tag k="ssr:stedsnr" v="100968" />
		<tag k="ssr:type" v="kilde" />
	</node>
	<node lat="60.74152831437746" lon="9.726280737846995" id="-22802">
		<tag k="name" v="Bruvatni" />
		<tag k="natural" v="water" />
		<tag k="ssr:date" v="2020-07-10" />
		<tag k="ssr:gruppe" v="stilleståendeVann" />
		<tag k="ssr:hovedgruppe" v="ferskvann" />
		<tag k="ssr:stedsnr" v="249801" />
		<tag k="ssr:type" v="gruppeAvTjern" />
		<tag k="water" v="lake" />
	</node>
	<node lat="60.65334999791481" lon="9.470105550800104" id="-22803">
		<tag k="alt_name" v="Teinevassåsen" />
		<tag k="fixme" v="consider natural=peak for the most distinct mountains in the district" />
		<tag k="name" v="Teinvassåsen" />
		<tag k="natural" v="hill" />
		<tag k="place" v="locality" />
		<tag k="ssr:date" v="2019-12-27" />
		<tag k="ssr:gruppe" v="høyder" />
		<tag k="ssr:hovedgruppe" v="terreng" />
		<tag k="ssr:stedsnr" v="249705" />
		<tag k="ssr:type" v="ås" />
	</node>
	<node lat="60.61394166778467" lon="9.557733324537502" id="-22804">
		<tag k="name" v="Andetjern" />
		<tag k="natural" v="water" />
		<tag k="ssr:date" v="2019-12-27" />
		<tag k="ssr:gruppe" v="stilleståendeVann" />
		<tag k="ssr:hovedgruppe" v="ferskvann" />
		<tag k="ssr:stedsnr" v="249666" />
		<tag k="ssr:type" v="tjern" />
	</node>
	<node lat="60.68892500041971" lon="9.40765278216484" id="-22805">
		<tag k="alt_name" v="Alketjernelva" />
		<tag k="name" v="Alketjernselvi" />
		<tag k="old_name" v="Alketjednelve;Eiketjennselva" />
		<tag k="ssr:date" v="2019-12-27" />
		<tag k="ssr:gruppe" v="rennendeVann" />
		<tag k="ssr:hovedgruppe" v="ferskvann" />
		<tag k="ssr:stedsnr" v="249679" />
		<tag k="ssr:type" v="bekk" />
		<tag k="waterway" v="stream" />
	</node>
	<node lat="60.694822223526224" lon="9.447086111411387" id="-22806">
		<tag k="alt_name" v="Veneslettlie" />
		<tag k="name" v="Veneslettlii" />
		<tag k="natural" v="slope" />
		<tag k="place" v="locality" />
		<tag k="ssr:date" v="2019-12-27" />
		<tag k="ssr:gruppe" v="skråninger" />
		<tag k="ssr:hovedgruppe" v="terreng" />
		<tag k="ssr:stedsnr" v="249687" />
		<tag k="ssr:type" v="li" />
	</node>
	<node lat="60.69772499810242" lon="9.529825003207364" id="-22807">
		<tag k="fixme" v="consider natural=peak for the most distinct mountains in the district" />
		<tag k="name" v="Roparhaugen" />
		<tag k="natural" v="hill" />
		<tag k="place" v="locality" />
		<tag k="ssr:date" v="2019-12-27" />
		<tag k="ssr:gruppe" v="høyder" />
		<tag k="ssr:hovedgruppe" v="terreng" />
		<tag k="ssr:stedsnr" v="249688" />
		<tag k="ssr:type" v="ås" />
	</node>
	<node lat="60.55078611199191" lon="9.469055564208585" id="-22808">
		<tag k="name" v="Fjellbekken" />
		<tag k="ssr:date" v="2019-12-27" />
		<tag k="ssr:gruppe" v="rennendeVann" />
		<tag k="ssr:hovedgruppe" v="ferskvann" />
		<tag k="ssr:stedsnr" v="249858" />
		<tag k="ssr:type" v="bekk" />
		<tag k="waterway" v="stream" />
	</node>
	<node lat="60.51031666730557" lon="9.763713895718501" id="-22809">
		<tag k="alt_name" v="Middagsknatten, s;Middagsknatten" />
		<tag k="name" v="Søre Middagsknatten" />
		<tag k="natural" v="hill" />
		<tag k="place" v="locality" />
		<tag k="ssr:date" v="2019-12-27" />
		<tag k="ssr:gruppe" v="høyder" />
		<tag k="ssr:hovedgruppe" v="terreng" />
		<tag k="ssr:stedsnr" v="249866" />
		<tag k="ssr:type" v="berg" />
	</node>
	<node lat="60.47801666918085" lon="9.730024993074183" id="-22810">
		<tag k="name" v="Fisketjernet" />
		<tag k="natural" v="water" />
		<tag k="ssr:date" v="2019-12-27" />
		<tag k="ssr:gruppe" v="stilleståendeVann" />
		<tag k="ssr:hovedgruppe" v="ferskvann" />
		<tag k="ssr:stedsnr" v="249881" />
		<tag k="ssr:type" v="tjern" />
	</node>
	<node lat="60.68900833468972" lon="9.830636113326005" id="-22811">
		<tag k="alt_name" v="Kapteinshytta" />
		<tag k="name" v="Kapteinskula" />
		<tag k="place" v="isolated_dwelling" />
		<tag k="ssr:date" v="2019-12-27" />
		<tag k="ssr:gruppe" v="bolighus" />
		<tag k="ssr:hovedgruppe" v="bebyggelse" />
		<tag k="ssr:stedsnr" v="249882" />
		<tag k="ssr:type" v="fritidsbolig" />
	</node>
	<node lat="60.60516944172191" lon="9.625580555999251" id="-22812">
		<tag k="historic" v="shieling" />
		<tag k="name" v="Fledda" />
		<tag k="place" v="isolated_dwelling" />
		<tag k="ssr:date" v="2019-12-27" />
		<tag k="ssr:gruppe" v="gardsbebyggelse" />
		<tag k="ssr:hovedgruppe" v="bebyggelse" />
		<tag k="ssr:stedsnr" v="249885" />
		<tag k="ssr:type" v="seterStøl" />
	</node>
	<node lat="60.687445007625165" lon="9.748475406964497" id="-22813">
		<tag k="fixme" v="consider place=hamlet" />
		<tag k="name" v="Steinsrud" />
		<tag k="place" v="farm" />
		<tag k="ssr:date" v="2019-12-27" />
		<tag k="ssr:gruppe" v="gardsbebyggelse" />
		<tag k="ssr:hovedgruppe" v="bebyggelse" />
		<tag k="ssr:stedsnr" v="249888" />
		<tag k="ssr:type" v="gard" />
	</node>
	<node lat="60.69912777378768" lon="9.9331527696298" id="-22814">
		<tag k="alt_name" v="Venetjern" />
		<tag k="name" v="Ventjern" />
		<tag k="natural" v="water" />
		<tag k="ssr:date" v="2019-12-27" />
		<tag k="ssr:gruppe" v="stilleståendeVann" />
		<tag k="ssr:hovedgruppe" v="ferskvann" />
		<tag k="ssr:stedsnr" v="249891" />
		<tag k="ssr:type" v="tjern" />
	</node>
	<node lat="60.735513887861146" lon="9.719950001550268" id="-22815">
		<tag k="alt_name" v="Olavsbrøtakøllin" />
		<tag k="name" v="Olasbråtekollen" />
		<tag k="natural" v="hill" />
		<tag k="place" v="locality" />
		<tag k="ssr:date" v="2019-12-27" />
		<tag k="ssr:gruppe" v="høyder" />
		<tag k="ssr:hovedgruppe" v="terreng" />
		<tag k="ssr:stedsnr" v="249948" />
		<tag k="ssr:type" v="haug" />
	</node>
	<node lat="60.66100278029076" lon="9.806083341192936" id="-22816">
		<tag k="name" v="Skrukkelia" />
		<tag k="natural" v="slope" />
		<tag k="place" v="locality" />
		<tag k="ssr:date" v="2019-12-27" />
		<tag k="ssr:gruppe" v="skråninger" />
		<tag k="ssr:hovedgruppe" v="terreng" />
		<tag k="ssr:stedsnr" v="249952" />
		<tag k="ssr:type" v="li" />
	</node>
	<node lat="60.59502222041874" lon="9.75261388970898" id="-22817">
		<tag k="name" v="Nordhagen" />
		<tag k="place" v="farm" />
		<tag k="ssr:date" v="2019-12-27" />
		<tag k="ssr:gruppe" v="gardsbebyggelse" />
		<tag k="ssr:hovedgruppe" v="bebyggelse" />
		<tag k="ssr:stedsnr" v="249905" />
		<tag k="ssr:type" v="bruk" />
	</node>
	<node lat="60.679899996371915" lon="9.812511113287956" id="-22818">
		<tag k="fixme" v="consider natural=peak for the most distinct mountains in the district" />
		<tag k="name" v="Svarttjernbrenna" />
		<tag k="natural" v="hill" />
		<tag k="place" v="locality" />
		<tag k="ssr:date" v="2019-12-27" />
		<tag k="ssr:gruppe" v="høyder" />
		<tag k="ssr:hovedgruppe" v="terreng" />
		<tag k="ssr:stedsnr" v="249910" />
		<tag k="ssr:type" v="ås" />
	</node>
	<node lat="60.68190000107041" lon="9.842233332085138" id="-22819">
		<tag k="name" v="Sjåberget" />
		<tag k="natural" v="hill" />
		<tag k="place" v="locality" />
		<tag k="ssr:date" v="2019-12-27" />
		<tag k="ssr:gruppe" v="høyder" />
		<tag k="ssr:hovedgruppe" v="terreng" />
		<tag k="ssr:stedsnr" v="249911" />
		<tag k="ssr:type" v="berg" />
	</node>
	<node lat="60.607956671449756" lon="9.869532029474163" id="-22820">
		<tag k="fixme" v="multiple name tags, choose one and add the other to alt_name" />
		<tag k="name" v="Jonsonkula;Solabu" />
		<tag k="place" v="isolated_dwelling" />
		<tag k="ssr:date" v="2019-12-27" />
		<tag k="ssr:gruppe" v="bolighus" />
		<tag k="ssr:hovedgruppe" v="bebyggelse" />
		<tag k="ssr:stedsnr" v="249912" />
		<tag k="ssr:type" v="fritidsbolig" />
	</node>
	<node lat="60.58994999568931" lon="9.75873333998038" id="-22821">
		<tag k="alt_name" v="Teigrud" />
		<tag k="name" v="Teigerud" />
		<tag k="place" v="farm" />
		<tag k="ssr:date" v="2019-12-27" />
		<tag k="ssr:gruppe" v="gardsbebyggelse" />
		<tag k="ssr:hovedgruppe" v="bebyggelse" />
		<tag k="ssr:stedsnr" v="249919" />
		<tag k="ssr:type" v="bruk" />
	</node>
	<node lat="60.581883328951754" lon="9.71272499263129" id="-22822">
		<tag k="name" v="Kulterud" />
		<tag k="place" v="farm" />
		<tag k="ssr:date" v="2019-12-27" />
		<tag k="ssr:gruppe" v="gardsbebyggelse" />
		<tag k="ssr:hovedgruppe" v="bebyggelse" />
		<tag k="ssr:stedsnr" v="249923" />
		<tag k="ssr:type" v="bruk" />
	</node>
	<node lat="60.59395000235524" lon="9.896283341548159" id="-22823">
		<tag k="name" v="Leirdammen" />
		<tag k="place" v="locality" />
		<tag k="ssr:date" v="2019-12-27" />
		<tag k="ssr:gruppe" v="rennendeVann" />
		<tag k="ssr:hovedgruppe" v="ferskvann" />
		<tag k="ssr:stedsnr" v="249928" />
		<tag k="ssr:type" v="høl" />
	</node>
	<node lat="60.58425277829972" lon="9.618108328772806" id="-22824">
		<tag k="name" v="Fledda" />
		<tag k="natural" v="slope" />
		<tag k="place" v="locality" />
		<tag k="ssr:date" v="2019-12-27" />
		<tag k="ssr:gruppe" v="skråninger" />
		<tag k="ssr:hovedgruppe" v="terreng" />
		<tag k="ssr:stedsnr" v="249930" />
		<tag k="ssr:type" v="li" />
	</node>
	<node lat="60.7354944469284" lon="9.638877783670818" id="-22825">
		<tag k="alt_name" v="Kroneputt" />
		<tag k="name" v="Kronputten" />
		<tag k="natural" v="water" />
		<tag k="ssr:date" v="2019-12-27" />
		<tag k="ssr:gruppe" v="stilleståendeVann" />
		<tag k="ssr:hovedgruppe" v="ferskvann" />
		<tag k="ssr:stedsnr" v="249940" />
		<tag k="ssr:type" v="pytt" />
		<tag k="water" v="pond" />
	</node>
	<node lat="60.71616666746243" lon="9.723494447526685" id="-22826">
		<tag k="name" v="Begnadalen" />
		<tag k="natural" v="valley" />
		<tag k="place" v="locality" />
		<tag k="ssr:date" v="2019-12-27" />
		<tag k="ssr:gruppe" v="senkninger" />
		<tag k="ssr:hovedgruppe" v="terreng" />
		<tag k="ssr:stedsnr" v="249957" />
		<tag k="ssr:type" v="dal" />
	</node>
	<node lat="60.63999444296143" lon="9.742188887027472" id="-22827">
		<tag k="name" v="Strandbråtabekken" />
		<tag k="ssr:date" v="2019-12-27" />
		<tag k="ssr:gruppe" v="rennendeVann" />
		<tag k="ssr:hovedgruppe" v="ferskvann" />
		<tag k="ssr:stedsnr" v="249962" />
		<tag k="ssr:type" v="bekk" />
		<tag k="waterway" v="stream" />
	</node>
	<node lat="60.64490000074444" lon="9.684705557963083" id="-22828">
		<tag k="name" v="Solli" />
		<tag k="place" v="farm" />
		<tag k="ssr:date" v="2019-12-27" />
		<tag k="ssr:gruppe" v="gardsbebyggelse" />
		<tag k="ssr:hovedgruppe" v="bebyggelse" />
		<tag k="ssr:stedsnr" v="249964" />
		<tag k="ssr:type" v="bruk" />
	</node>
	<node lat="60.724608876782774" lon="9.760759456576716" id="-22829">
		<tag k="alt_name" v="Vesteråsputten" />
		<tag k="name" v="Vesteråspullen" />
		<tag k="natural" v="water" />
		<tag k="ssr:date" v="2019-12-27" />
		<tag k="ssr:gruppe" v="stilleståendeVann" />
		<tag k="ssr:hovedgruppe" v="ferskvann" />
		<tag k="ssr:stedsnr" v="249965" />
		<tag k="ssr:type" v="tjern" />
	</node>
	<node lat="60.727127775849105" lon="9.735013897080533" id="-22830">
		<tag k="alt_name" v="Bakkeputten" />
		<tag k="name" v="Eidsbakkeputten" />
		<tag k="natural" v="water" />
		<tag k="ssr:date" v="2019-12-27" />
		<tag k="ssr:gruppe" v="stilleståendeVann" />
		<tag k="ssr:hovedgruppe" v="ferskvann" />
		<tag k="ssr:stedsnr" v="249969" />
		<tag k="ssr:type" v="tjern" />
	</node>
	<node lat="60.65210833275396" lon="9.933311117009707" id="-22831">
		<tag k="historic" v="shieling" />
		<tag k="name" v="Skyttland" />
		<tag k="place" v="isolated_dwelling" />
		<tag k="ssr:date" v="2019-12-27" />
		<tag k="ssr:gruppe" v="gardsbebyggelse" />
		<tag k="ssr:hovedgruppe" v="bebyggelse" />
		<tag k="ssr:stedsnr" v="249972" />
		<tag k="ssr:type" v="seterStøl" />
	</node>
	<node lat="60.655091663803425" lon="9.911536119395006" id="-22832">
		<tag k="name" v="Brynjulvstjernet" />
		<tag k="natural" v="water" />
		<tag k="ssr:date" v="2019-12-27" />
		<tag k="ssr:gruppe" v="stilleståendeVann" />
		<tag k="ssr:hovedgruppe" v="ferskvann" />
		<tag k="ssr:stedsnr" v="249977" />
		<tag k="ssr:type" v="tjern" />
	</node>
	<node lat="60.72087499656664" lon="9.864169441245846" id="-22833">
		<tag k="name" v="Høgberget" />
		<tag k="natural" v="hill" />
		<tag k="place" v="locality" />
		<tag k="ssr:date" v="2019-12-27" />
		<tag k="ssr:gruppe" v="høyder" />
		<tag k="ssr:hovedgruppe" v="terreng" />
		<tag k="ssr:stedsnr" v="249986" />
		<tag k="ssr:type" v="berg" />
	</node>
	<node lat="60.70482499602156" lon="9.539374990987318" id="-22834">
		<tag k="historic" v="shieling" />
		<tag k="name" v="Gamlesætri" />
		<tag k="place" v="isolated_dwelling" />
		<tag k="ssr:date" v="2019-12-27" />
		<tag k="ssr:gruppe" v="gardsbebyggelse" />
		<tag k="ssr:hovedgruppe" v="bebyggelse" />
		<tag k="ssr:stedsnr" v="250531" />
		<tag k="ssr:type" v="seterStøl" />
	</node>
	<node lat="60.732425001234" lon="9.350613896762427" id="-22835">
		<tag k="alt_name" v="Skarsputten" />
		<tag k="name" v="Skardsputten" />
		<tag k="natural" v="water" />
		<tag k="ssr:date" v="2019-12-27" />
		<tag k="ssr:gruppe" v="stilleståendeVann" />
		<tag k="ssr:hovedgruppe" v="ferskvann" />
		<tag k="ssr:stedsnr" v="250537" />
		<tag k="ssr:type" v="tjern" />
	</node>
	<node lat="60.6654333330853" lon="9.367505551185499" id="-22836">
		<tag k="name" v="Reidartjern" />
		<tag k="natural" v="water" />
		<tag k="ssr:date" v="2019-12-27" />
		<tag k="ssr:gruppe" v="stilleståendeVann" />
		<tag k="ssr:hovedgruppe" v="ferskvann" />
		<tag k="ssr:stedsnr" v="250735" />
		<tag k="ssr:type" v="tjern" />
	</node>
	<node lat="60.744775002991226" lon="9.63751943907172" id="-22837">
		<tag k="alt_name" v="Vesle sætere" />
		<tag k="historic" v="shieling" />
		<tag k="name" v="Veslesætri" />
		<tag k="place" v="isolated_dwelling" />
		<tag k="ssr:date" v="2019-12-27" />
		<tag k="ssr:gruppe" v="gardsbebyggelse" />
		<tag k="ssr:hovedgruppe" v="bebyggelse" />
		<tag k="ssr:stedsnr" v="250783" />
		<tag k="ssr:type" v="seterStøl" />
	</node>
	<node lat="60.70882382414503" lon="9.683029450235498" id="-22838">
		<tag k="name" v="Storberget" />
		<tag k="natural" v="hill" />
		<tag k="place" v="locality" />
		<tag k="ssr:date" v="2019-12-27" />
		<tag k="ssr:gruppe" v="høyder" />
		<tag k="ssr:hovedgruppe" v="terreng" />
		<tag k="ssr:stedsnr" v="250990" />
		<tag k="ssr:type" v="berg" />
	</node>
	<node lat="60.55994166890404" lon="9.615547229480864" id="-22839">
		<tag k="loc_name" v="Langtjern" />
		<tag k="name" v="Langtjernet" />
		<tag k="natural" v="water" />
		<tag k="ssr:date" v="2019-12-27" />
		<tag k="ssr:gruppe" v="stilleståendeVann" />
		<tag k="ssr:hovedgruppe" v="ferskvann" />
		<tag k="ssr:stedsnr" v="250801" />
		<tag k="ssr:type" v="tjern" />
	</node>
	<node lat="60.581641451560486" lon="9.54814500665735" id="-22840">
		<tag k="name" v="Trevatna" />
		<tag k="natural" v="water" />
		<tag k="ssr:date" v="2020-07-09" />
		<tag k="ssr:gruppe" v="stilleståendeVann" />
		<tag k="ssr:hovedgruppe" v="ferskvann" />
		<tag k="ssr:stedsnr" v="250805" />
		<tag k="ssr:type" v="gruppeAvVann" />
		<tag k="water" v="lake" />
	</node>
	<node lat="60.57684999602302" lon="9.51673055598678" id="-22841">
		<tag k="fixme" v="consider natural=peak for the most distinct mountains in the district" />
		<tag k="name" v="Surtind" />
		<tag k="natural" v="hill" />
		<tag k="place" v="locality" />
		<tag k="ssr:date" v="2019-12-27" />
		<tag k="ssr:gruppe" v="høyder" />
		<tag k="ssr:hovedgruppe" v="terreng" />
		<tag k="ssr:stedsnr" v="250806" />
		<tag k="ssr:type" v="fjell" />
	</node>
	<node lat="60.582116667073386" lon="9.50265276980851" id="-22842">
		<tag k="fixme" v="multiple name tags, choose one and add the other to alt_name" />
		<tag k="name" v="Skjennungvatnet;Østre Krokvatnet" />
		<tag k="natural" v="water" />
		<tag k="ssr:date" v="2019-12-27" />
		<tag k="ssr:gruppe" v="stilleståendeVann" />
		<tag k="ssr:hovedgruppe" v="ferskvann" />
		<tag k="ssr:stedsnr" v="250807" />
		<tag k="ssr:type" v="tjern" />
	</node>
	<node lat="60.55743333102311" lon="9.77414444429873" id="-22843">
		<tag k="alt_name" v="Korpekløvet" />
		<tag k="loc_name" v="Korpeklovet" />
		<tag k="name" v="Korpeklyvet" />
		<tag k="natural" v="hill" />
		<tag k="place" v="locality" />
		<tag k="ssr:date" v="2019-12-27" />
		<tag k="ssr:gruppe" v="høyder" />
		<tag k="ssr:hovedgruppe" v="terreng" />
		<tag k="ssr:stedsnr" v="250813" />
		<tag k="ssr:type" v="haug" />
	</node>
	<node lat="60.5672888904858" lon="9.74175555622865" id="-22844">
		<tag k="name" v="Haugen" />
		<tag k="place" v="farm" />
		<tag k="ssr:date" v="2019-12-27" />
		<tag k="ssr:gruppe" v="gardsbebyggelse" />
		<tag k="ssr:hovedgruppe" v="bebyggelse" />
		<tag k="ssr:stedsnr" v="250815" />
		<tag k="ssr:type" v="bruk" />
	</node>
	<node lat="60.702558334735194" lon="9.889669451974262" id="-22845">
		<tag k="name" v="Triungtjerna" />
		<tag k="natural" v="water" />
		<tag k="ssr:date" v="2019-12-27" />
		<tag k="ssr:gruppe" v="stilleståendeVann" />
		<tag k="ssr:hovedgruppe" v="ferskvann" />
		<tag k="ssr:stedsnr" v="250874" />
		<tag k="ssr:type" v="gruppeAvTjern" />
		<tag k="water" v="lake" />
	</node>
	<node lat="60.6155750040482" lon="9.604952774080036" id="-22846">
		<tag k="alt_name" v="Jøstjern" />
		<tag k="name" v="Ljostjernet" />
		<tag k="natural" v="water" />
		<tag k="ssr:date" v="2019-12-27" />
		<tag k="ssr:gruppe" v="stilleståendeVann" />
		<tag k="ssr:hovedgruppe" v="ferskvann" />
		<tag k="ssr:stedsnr" v="250880" />
		<tag k="ssr:type" v="tjern" />
	</node>
	<node lat="60.62046389015775" lon="9.905899997876633" id="-22847">
		<tag k="name" v="Skogheim" />
		<tag k="place" v="farm" />
		<tag k="ssr:date" v="2019-12-27" />
		<tag k="ssr:gruppe" v="gardsbebyggelse" />
		<tag k="ssr:hovedgruppe" v="bebyggelse" />
		<tag k="ssr:stedsnr" v="250883" />
		<tag k="ssr:type" v="bruk" />
	</node>
	<node lat="60.691488887818196" lon="9.83806944211446" id="-22848">
		<tag k="name" v="Jørnskollen" />
		<tag k="natural" v="hill" />
		<tag k="place" v="locality" />
		<tag k="ssr:date" v="2019-12-27" />
		<tag k="ssr:gruppe" v="høyder" />
		<tag k="ssr:hovedgruppe" v="terreng" />
		<tag k="ssr:stedsnr" v="250890" />
		<tag k="ssr:type" v="haug" />
	</node>
	<node lat="60.69052500008666" lon="9.791625003345176" id="-22849">
		<tag k="fixme" v="consider natural=peak for the most distinct mountains in the district" />
		<tag k="name" v="Heimsætermana" />
		<tag k="natural" v="hill" />
		<tag k="place" v="locality" />
		<tag k="ssr:date" v="2019-12-27" />
		<tag k="ssr:gruppe" v="høyder" />
		<tag k="ssr:hovedgruppe" v="terreng" />
		<tag k="ssr:stedsnr" v="250891" />
		<tag k="ssr:type" v="ås" />
	</node>
	<node lat="60.74766111510578" lon="9.560961107183726" id="-22850">
		<tag k="name" v="Blæstredalen" />
		<tag k="natural" v="hill" />
		<tag k="place" v="locality" />
		<tag k="ssr:date" v="2019-12-27" />
		<tag k="ssr:gruppe" v="høyder" />
		<tag k="ssr:hovedgruppe" v="terreng" />
		<tag k="ssr:stedsnr" v="119069" />
		<tag k="ssr:type" v="haug" />
	</node>
	<node lat="60.781863888652545" lon="9.554216672588897" id="-22851">
		<tag k="highway" v="path" />
		<tag k="name" v="Prestvegen" />
		<tag k="ssr:date" v="2019-12-27" />
		<tag k="ssr:gruppe" v="veg" />
		<tag k="ssr:hovedgruppe" v="infrastruktur" />
		<tag k="ssr:stedsnr" v="119083" />
		<tag k="ssr:type" v="sti" />
	</node>
	<node lat="60.79047778201922" lon="9.578844448295085" id="-22852">
		<tag k="name" v="Kambabygde" />
		<tag k="place" v="hamlet" />
		<tag k="ssr:date" v="2019-12-27" />
		<tag k="ssr:gruppe" v="bebyggelsesområder" />
		<tag k="ssr:hovedgruppe" v="bebyggelse" />
		<tag k="ssr:stedsnr" v="119110" />
		<tag k="ssr:type" v="grend" />
	</node>
	<node lat="60.75095555599134" lon="9.749233335913257" id="-22853">
		<tag k="name" v="Skilnadputten" />
		<tag k="natural" v="water" />
		<tag k="ssr:date" v="2019-12-27" />
		<tag k="ssr:gruppe" v="stilleståendeVann" />
		<tag k="ssr:hovedgruppe" v="ferskvann" />
		<tag k="ssr:stedsnr" v="119147" />
		<tag k="ssr:type" v="tjern" />
	</node>
	<node lat="60.62622500336176" lon="9.727708342251585" id="-22854">
		<tag k="name" v="Gran" />
		<tag k="place" v="farm" />
		<tag k="ssr:date" v="2019-12-27" />
		<tag k="ssr:gruppe" v="gardsbebyggelse" />
		<tag k="ssr:hovedgruppe" v="bebyggelse" />
		<tag k="ssr:stedsnr" v="250979" />
		<tag k="ssr:type" v="bruk" />
	</node>
	<node lat="60.62249444569861" lon="9.70873333124213" id="-22855">
		<tag k="name" v="Skinningsrud" />
		<tag k="place" v="farm" />
		<tag k="ssr:date" v="2019-12-27" />
		<tag k="ssr:gruppe" v="gardsbebyggelse" />
		<tag k="ssr:hovedgruppe" v="bebyggelse" />
		<tag k="ssr:stedsnr" v="119370" />
		<tag k="ssr:type" v="bruk" />
	</node>
	<node lat="60.6150166627431" lon="9.48889722864772" id="-22856">
		<tag k="name" v="Helserbekken" />
		<tag k="ssr:date" v="2019-12-27" />
		<tag k="ssr:gruppe" v="rennendeVann" />
		<tag k="ssr:hovedgruppe" v="ferskvann" />
		<tag k="ssr:stedsnr" v="119392" />
		<tag k="ssr:type" v="bekk" />
		<tag k="waterway" v="stream" />
	</node>
	<node lat="60.599655559194" lon="9.683619439867515" id="-22857">
		<tag k="name" v="Korsgårdbekken" />
		<tag k="ssr:date" v="2019-12-27" />
		<tag k="ssr:gruppe" v="rennendeVann" />
		<tag k="ssr:hovedgruppe" v="ferskvann" />
		<tag k="ssr:stedsnr" v="119505" />
		<tag k="ssr:type" v="bekk" />
		<tag k="waterway" v="stream" />
	</node>
	<node lat="60.58794166737841" lon="9.680127772563937" id="-22858">
		<tag k="name" v="Skardalen" />
		<tag k="natural" v="valley" />
		<tag k="place" v="locality" />
		<tag k="ssr:date" v="2019-12-27" />
		<tag k="ssr:gruppe" v="senkninger" />
		<tag k="ssr:hovedgruppe" v="terreng" />
		<tag k="ssr:stedsnr" v="119513" />
		<tag k="ssr:type" v="dal" />
	</node>
	<node lat="60.58500833019598" lon="9.749319445229663" id="-22859">
		<tag k="name" v="Lund" />
		<tag k="place" v="isolated_dwelling" />
		<tag k="ssr:date" v="2019-12-27" />
		<tag k="ssr:gruppe" v="bolighus" />
		<tag k="ssr:hovedgruppe" v="bebyggelse" />
		<tag k="ssr:stedsnr" v="119493" />
		<tag k="ssr:type" v="eneboligMindreBoligbygg" />
	</node>
	<node lat="60.71060000145489" lon="9.630816658489415" id="-22860">
		<tag k="alt_name" v="Branesætere" />
		<tag k="historic" v="shieling" />
		<tag k="name" v="Branessætra" />
		<tag k="place" v="isolated_dwelling" />
		<tag k="ssr:date" v="2020-02-25" />
		<tag k="ssr:gruppe" v="gardsbebyggelse" />
		<tag k="ssr:hovedgruppe" v="bebyggelse" />
		<tag k="ssr:stedsnr" v="250999" />
		<tag k="ssr:type" v="seterStøl" />
	</node>
	<node lat="60.6476055555372" lon="9.793902784701059" id="-22861">
		<tag k="name" v="Veigård" />
		<tag k="place" v="isolated_dwelling" />
		<tag k="ssr:date" v="2019-12-27" />
		<tag k="ssr:gruppe" v="bolighus" />
		<tag k="ssr:hovedgruppe" v="bebyggelse" />
		<tag k="ssr:stedsnr" v="119717" />
		<tag k="ssr:type" v="eneboligMindreBoligbygg" />
	</node>
	<node lat="60.54239444781524" lon="9.604075000102846" id="-22862">
		<tag k="name" v="Haraldsbråten" />
		<tag k="place" v="locality" />
		<tag k="ssr:date" v="2019-12-27" />
		<tag k="ssr:gruppe" v="gardsbebyggelse" />
		<tag k="ssr:hovedgruppe" v="bebyggelse" />
		<tag k="ssr:stedsnr" v="119770" />
		<tag k="ssr:type" v="eiendom" />
	</node>
	<node lat="60.77968889042254" lon="9.318280556805933" id="-22863">
		<tag k="name" v="Øytjernbekken" />
		<tag k="old_name" v="Øytjednbekken" />
		<tag k="ssr:date" v="2019-12-27" />
		<tag k="ssr:gruppe" v="rennendeVann" />
		<tag k="ssr:hovedgruppe" v="ferskvann" />
		<tag k="ssr:stedsnr" v="119789" />
		<tag k="ssr:type" v="bekk" />
		<tag k="waterway" v="stream" />
	</node>
	<node lat="60.72623889275235" lon="9.433086107143236" id="-22864">
		<tag k="historic" v="shieling" />
		<tag k="name" v="Bukfyllhaugatn" />
		<tag k="place" v="isolated_dwelling" />
		<tag k="ssr:date" v="2019-12-27" />
		<tag k="ssr:gruppe" v="gardsbebyggelse" />
		<tag k="ssr:hovedgruppe" v="bebyggelse" />
		<tag k="ssr:stedsnr" v="119934" />
		<tag k="ssr:type" v="seterStøl" />
	</node>
	<node lat="60.69962500129752" lon="9.835999991293797" id="-22865">
		<tag k="fixme" v="consider natural=peak for the most distinct mountains in the district" />
		<tag k="name" v="Sollihøgda" />
		<tag k="natural" v="hill" />
		<tag k="place" v="locality" />
		<tag k="ssr:date" v="2019-12-27" />
		<tag k="ssr:gruppe" v="høyder" />
		<tag k="ssr:hovedgruppe" v="terreng" />
		<tag k="ssr:stedsnr" v="119669" />
		<tag k="ssr:type" v="ås" />
	</node>
	<node lat="60.705716667930794" lon="9.843688889004813" id="-22866">
		<tag k="name" v="Kjeldlia" />
		<tag k="natural" v="slope" />
		<tag k="place" v="locality" />
		<tag k="ssr:date" v="2019-12-27" />
		<tag k="ssr:gruppe" v="skråninger" />
		<tag k="ssr:hovedgruppe" v="terreng" />
		<tag k="ssr:stedsnr" v="119674" />
		<tag k="ssr:type" v="li" />
	</node>
	<node lat="60.649788889563496" lon="9.380516666619195" id="-22867">
		<tag k="name" v="Gamle Vangsoset" />
		<tag k="ssr:date" v="2019-12-27" />
		<tag k="ssr:gruppe" v="stilleståendeVann" />
		<tag k="ssr:hovedgruppe" v="ferskvann" />
		<tag k="ssr:stedsnr" v="119802" />
		<tag k="ssr:type" v="dam" />
		<tag k="waterway" v="dam" />
	</node>
	<node lat="60.75731111327599" lon="9.3957749945467" id="-22868">
		<tag k="name" v="Tetebrennbekken" />
		<tag k="ssr:date" v="2019-12-27" />
		<tag k="ssr:gruppe" v="rennendeVann" />
		<tag k="ssr:hovedgruppe" v="ferskvann" />
		<tag k="ssr:stedsnr" v="119966" />
		<tag k="ssr:type" v="bekk" />
		<tag k="waterway" v="stream" />
	</node>
	<node lat="60.77412222045809" lon="9.3788666697345" id="-22869">
		<tag k="name" v="Vergesteindokke" />
		<tag k="natural" v="valley" />
		<tag k="place" v="locality" />
		<tag k="ssr:date" v="2019-12-27" />
		<tag k="ssr:gruppe" v="senkninger" />
		<tag k="ssr:hovedgruppe" v="terreng" />
		<tag k="ssr:stedsnr" v="119967" />
		<tag k="ssr:type" v="botn" />
	</node>
	<node lat="60.76564444188509" lon="9.336266657988947" id="-22870">
		<tag k="name" v="Gråberget" />
		<tag k="natural" v="hill" />
		<tag k="place" v="locality" />
		<tag k="ssr:date" v="2019-12-27" />
		<tag k="ssr:gruppe" v="høyder" />
		<tag k="ssr:hovedgruppe" v="terreng" />
		<tag k="ssr:stedsnr" v="119968" />
		<tag k="ssr:type" v="haug" />
	</node>
	<node lat="60.7740583305349" lon="9.628208330390732" id="-22871">
		<tag k="alt_name" v="Øylund" />
		<tag k="name" v="Øyland" />
		<tag k="place" v="farm" />
		<tag k="ssr:date" v="2019-12-27" />
		<tag k="ssr:gruppe" v="gardsbebyggelse" />
		<tag k="ssr:hovedgruppe" v="bebyggelse" />
		<tag k="ssr:stedsnr" v="251140" />
		<tag k="ssr:type" v="bruk" />
	</node>
	<node lat="60.77792500367775" lon="9.597419451068307" id="-22872">
		<tag k="alt_name" v="Brenn, s;Brenn;Søre Brenn" />
		<tag k="name" v="Søre Brenne" />
		<tag k="place" v="farm" />
		<tag k="ssr:date" v="2019-12-27" />
		<tag k="ssr:gruppe" v="gardsbebyggelse" />
		<tag k="ssr:hovedgruppe" v="bebyggelse" />
		<tag k="ssr:stedsnr" v="251143" />
		<tag k="ssr:type" v="bruk" />
	</node>
	<node lat="60.85822777998841" lon="9.39902499158473" id="-22873">
		<tag k="fixme" v="consider natural=peak for the most distinct mountains in the district" />
		<tag k="name" v="Liastølfjellet" />
		<tag k="natural" v="hill" />
		<tag k="place" v="locality" />
		<tag k="ssr:date" v="2019-12-27" />
		<tag k="ssr:gruppe" v="høyder" />
		<tag k="ssr:hovedgruppe" v="terreng" />
		<tag k="ssr:stedsnr" v="251695" />
		<tag k="ssr:type" v="ås" />
	</node>
	<node lat="60.869602782156115" lon="9.462761118415228" id="-22874">
		<tag k="alt_name" v="Dokke" />
		<tag k="name" v="Dokki" />
		<tag k="place" v="farm" />
		<tag k="ssr:date" v="2019-12-27" />
		<tag k="ssr:gruppe" v="gardsbebyggelse" />
		<tag k="ssr:hovedgruppe" v="bebyggelse" />
		<tag k="ssr:stedsnr" v="251714" />
		<tag k="ssr:type" v="bruk" />
	</node>
	<node lat="60.832047224010175" lon="9.562447221891684" id="-22875">
		<tag k="name" v="Dalen" />
		<tag k="place" v="isolated_dwelling" />
		<tag k="ssr:date" v="2019-12-27" />
		<tag k="ssr:gruppe" v="bolighus" />
		<tag k="ssr:hovedgruppe" v="bebyggelse" />
		<tag k="ssr:stedsnr" v="251886" />
		<tag k="ssr:type" v="fritidsbolig" />
	</node>
	<node lat="60.83502777886335" lon="9.46991111897801" id="-22876">
		<tag k="alt_name" v="Hellinge" />
		<tag k="name" v="Hellingi" />
		<tag k="place" v="farm" />
		<tag k="ssr:date" v="2019-12-27" />
		<tag k="ssr:gruppe" v="gardsbebyggelse" />
		<tag k="ssr:hovedgruppe" v="bebyggelse" />
		<tag k="ssr:stedsnr" v="251892" />
		<tag k="ssr:type" v="bruk" />
	</node>
	<node lat="60.811057549378255" lon="9.565449741209983" id="-22877">
		<tag k="alt_name" v="Hestehagen" />
		<tag k="fixme" v="consider place=hamlet" />
		<tag k="name" v="Haga" />
		<tag k="place" v="farm" />
		<tag k="ssr:date" v="2019-12-27" />
		<tag k="ssr:gruppe" v="gardsbebyggelse" />
		<tag k="ssr:hovedgruppe" v="bebyggelse" />
		<tag k="ssr:stedsnr" v="251857" />
		<tag k="ssr:type" v="gard" />
	</node>
	<node lat="60.81536110862212" lon="9.559372213805332" id="-22878">
		<tag k="alt_name" v="Erstad" />
		<tag k="name" v="Øvre Erstad" />
		<tag k="place" v="farm" />
		<tag k="ssr:date" v="2019-12-27" />
		<tag k="ssr:gruppe" v="gardsbebyggelse" />
		<tag k="ssr:hovedgruppe" v="bebyggelse" />
		<tag k="ssr:stedsnr" v="251858" />
		<tag k="ssr:type" v="bruk" />
	</node>
	<node lat="60.8136861133478" lon="9.514577786231639" id="-22879">
		<tag k="name" v="Langeberget" />
		<tag k="place" v="locality" />
		<tag k="ssr:date" v="2019-12-27" />
		<tag k="ssr:gruppe" v="skråninger" />
		<tag k="ssr:hovedgruppe" v="terreng" />
		<tag k="ssr:stedsnr" v="251861" />
		<tag k="ssr:type" v="fjellside" />
	</node>
	<node lat="60.818452775019594" lon="9.51352500469328" id="-22880">
		<tag k="name" v="Raneilii" />
		<tag k="place" v="isolated_dwelling" />
		<tag k="ssr:date" v="2019-12-27" />
		<tag k="ssr:gruppe" v="bolighus" />
		<tag k="ssr:hovedgruppe" v="bebyggelse" />
		<tag k="ssr:stedsnr" v="251864" />
		<tag k="ssr:type" v="fritidsbolig" />
	</node>
	<node lat="60.82756389048403" lon="9.34816388317468" id="-22881">
		<tag k="name" v="Stølstjernet" />
		<tag k="natural" v="water" />
		<tag k="old_name" v="Stølstjednet" />
		<tag k="ssr:date" v="2019-12-27" />
		<tag k="ssr:gruppe" v="stilleståendeVann" />
		<tag k="ssr:hovedgruppe" v="ferskvann" />
		<tag k="ssr:stedsnr" v="251880" />
		<tag k="ssr:type" v="tjern" />
	</node>
	<node lat="60.77177778068867" lon="9.663944446094064" id="-22882">
		<tag k="alt_name" v="Tommasbrøtin" />
		<tag k="name" v="Tomasbråten" />
		<tag k="place" v="isolated_dwelling" />
		<tag k="ssr:date" v="2019-12-27" />
		<tag k="ssr:gruppe" v="bolighus" />
		<tag k="ssr:hovedgruppe" v="bebyggelse" />
		<tag k="ssr:stedsnr" v="252104" />
		<tag k="ssr:type" v="fritidsbolig" />
	</node>
	<node lat="60.7709333344797" lon="9.631269444604602" id="-22883">
		<tag k="alt_name" v="Sveriplassen" />
		<tag k="name" v="Sverreplassen" />
		<tag k="place" v="farm" />
		<tag k="ssr:date" v="2019-12-27" />
		<tag k="ssr:gruppe" v="gardsbebyggelse" />
		<tag k="ssr:hovedgruppe" v="bebyggelse" />
		<tag k="ssr:stedsnr" v="252105" />
		<tag k="ssr:type" v="bruk" />
	</node>
	<node lat="60.80424999843571" lon="9.80297500830611" id="-22884">
		<tag k="name" v="Løken" />
		<tag k="natural" v="water" />
		<tag k="ssr:date" v="2019-12-27" />
		<tag k="ssr:gruppe" v="stilleståendeVann" />
		<tag k="ssr:hovedgruppe" v="ferskvann" />
		<tag k="ssr:stedsnr" v="252190" />
		<tag k="ssr:type" v="tjern" />
	</node>
	<node lat="60.8255972236048" lon="9.601300000043071" id="-22885">
		<tag k="fixme" v="consider natural=peak for the most distinct mountains in the district" />
		<tag k="name" v="Bagnsåsen" />
		<tag k="natural" v="hill" />
		<tag k="place" v="locality" />
		<tag k="ssr:date" v="2019-12-27" />
		<tag k="ssr:gruppe" v="høyder" />
		<tag k="ssr:hovedgruppe" v="terreng" />
		<tag k="ssr:stedsnr" v="252150" />
		<tag k="ssr:type" v="ås" />
	</node>
	<node lat="60.81928333694698" lon="9.594727770698627" id="-22886">
		<tag k="name" v="Breidablikk" />
		<tag k="place" v="farm" />
		<tag k="ssr:date" v="2019-12-27" />
		<tag k="ssr:gruppe" v="gardsbebyggelse" />
		<tag k="ssr:hovedgruppe" v="bebyggelse" />
		<tag k="ssr:stedsnr" v="252152" />
		<tag k="ssr:type" v="bruk" />
	</node>
	<node lat="60.797197224198236" lon="9.737716657782421" id="-22887">
		<tag k="name" v="Brenn" />
		<tag k="place" v="isolated_dwelling" />
		<tag k="ssr:date" v="2019-12-27" />
		<tag k="ssr:gruppe" v="bolighus" />
		<tag k="ssr:hovedgruppe" v="bebyggelse" />
		<tag k="ssr:stedsnr" v="252204" />
		<tag k="ssr:type" v="eneboligMindreBoligbygg" />
	</node>
	<node lat="60.801005551996845" lon="9.72575832900981" id="-22888">
		<tag k="alt_name" v="Braka, nedre" />
		<tag k="name" v="Nedre Braka" />
		<tag k="place" v="farm" />
		<tag k="ssr:date" v="2019-12-27" />
		<tag k="ssr:gruppe" v="gardsbebyggelse" />
		<tag k="ssr:hovedgruppe" v="bebyggelse" />
		<tag k="ssr:stedsnr" v="252205" />
		<tag k="ssr:type" v="bruk" />
	</node>
	<node lat="60.48658333281322" lon="9.825011104512942" id="-22889">
		<tag k="name" v="Vidøla" />
		<tag k="ssr:date" v="2019-12-27" />
		<tag k="ssr:gruppe" v="rennendeVann" />
		<tag k="ssr:hovedgruppe" v="ferskvann" />
		<tag k="ssr:stedsnr" v="127897" />
		<tag k="ssr:type" v="elv" />
		<tag k="waterway" v="river" />
	</node>
	<node lat="60.496462831564045" lon="9.71141533080658" id="-22890">
		<tag k="fixme" v="consider tourism=alpine_hut or tourism=chalet" />
		<tag k="name" v="Storekrakkoia" />
		<tag k="ssr:date" v="2019-12-27" />
		<tag k="ssr:gruppe" v="næring" />
		<tag k="ssr:hovedgruppe" v="bebyggelse" />
		<tag k="ssr:stedsnr" v="127922" />
		<tag k="ssr:type" v="turisthytte" />
		<tag k="tourism" v="wilderness_hut" />
	</node>
	<node lat="60.49438888720064" lon="9.726241665717298" id="-22891">
		<tag k="name" v="Steinhyttbekken" />
		<tag k="ssr:date" v="2019-12-27" />
		<tag k="ssr:gruppe" v="rennendeVann" />
		<tag k="ssr:hovedgruppe" v="ferskvann" />
		<tag k="ssr:stedsnr" v="127938" />
		<tag k="ssr:type" v="bekk" />
		<tag k="waterway" v="stream" />
	</node>
	<node lat="60.48987500229527" lon="9.786961113494423" id="-22892">
		<tag k="alt_name" v="Matapikknatten" />
		<tag k="fixme" v="consider natural=peak for the most distinct mountains in the district" />
		<tag k="name" v="Matapiggknatten" />
		<tag k="natural" v="hill" />
		<tag k="place" v="locality" />
		<tag k="ssr:date" v="2019-12-27" />
		<tag k="ssr:gruppe" v="høyder" />
		<tag k="ssr:hovedgruppe" v="terreng" />
		<tag k="ssr:stedsnr" v="127941" />
		<tag k="ssr:type" v="ås" />
	</node>
	<node lat="60.71442500009658" lon="9.43418054899137" id="-22893">
		<tag k="alt_name" v="Hølervasshøgde" />
		<tag k="fixme" v="consider natural=peak for the most distinct mountains in the district" />
		<tag k="name" v="Hølervassåsen" />
		<tag k="natural" v="hill" />
		<tag k="place" v="locality" />
		<tag k="ssr:date" v="2019-12-27" />
		<tag k="ssr:gruppe" v="høyder" />
		<tag k="ssr:hovedgruppe" v="terreng" />
		<tag k="ssr:stedsnr" v="128515" />
		<tag k="ssr:type" v="ås" />
	</node>
	<node lat="60.746999998904265" lon="9.39910833379056" id="-22894">
		<tag k="name" v="Venelimyri" />
		<tag k="natural" v="wetland" />
		<tag k="ssr:date" v="2019-12-27" />
		<tag k="ssr:gruppe" v="våtmark" />
		<tag k="ssr:hovedgruppe" v="markslag" />
		<tag k="ssr:stedsnr" v="128541" />
		<tag k="ssr:type" v="myr" />
	</node>
	<node lat="60.63187222520818" lon="9.545741660710407" id="-22895">
		<tag k="alt_name" v="Blautmyrsætra" />
		<tag k="historic" v="shieling" />
		<tag k="name" v="Blautemyr" />
		<tag k="place" v="isolated_dwelling" />
		<tag k="ssr:date" v="2019-12-27" />
		<tag k="ssr:gruppe" v="gardsbebyggelse" />
		<tag k="ssr:hovedgruppe" v="bebyggelse" />
		<tag k="ssr:stedsnr" v="128618" />
		<tag k="ssr:type" v="seterStøl" />
	</node>
	<node lat="60.617349996216056" lon="9.50876665834037" id="-22896">
		<tag k="alt_name" v="Helsebua" />
		<tag k="name" v="Helseboden" />
		<tag k="place" v="isolated_dwelling" />
		<tag k="ssr:date" v="2019-12-27" />
		<tag k="ssr:gruppe" v="bolighus" />
		<tag k="ssr:hovedgruppe" v="bebyggelse" />
		<tag k="ssr:stedsnr" v="128658" />
		<tag k="ssr:type" v="fritidsbolig" />
	</node>
	<node lat="60.704758330299754" lon="9.58482500137802" id="-22897">
		<tag k="alt_name" v="Kollsætertinden" />
		<tag k="fixme" v="consider natural=peak for the most distinct mountains in the district" />
		<tag k="name" v="Kollsætertind" />
		<tag k="natural" v="hill" />
		<tag k="place" v="locality" />
		<tag k="ssr:date" v="2019-12-27" />
		<tag k="ssr:gruppe" v="høyder" />
		<tag k="ssr:hovedgruppe" v="terreng" />
		<tag k="ssr:stedsnr" v="128684" />
		<tag k="ssr:type" v="ås" />
	</node>
	<node lat="60.6523500029914" lon="9.438230553160261" id="-22898">
		<tag k="alt_name" v="Åslisæter;Nordre Åslisæter" />
		<tag k="historic" v="shieling" />
		<tag k="name" v="Åslisætra" />
		<tag k="place" v="isolated_dwelling" />
		<tag k="ssr:date" v="2019-12-27" />
		<tag k="ssr:gruppe" v="gardsbebyggelse" />
		<tag k="ssr:hovedgruppe" v="bebyggelse" />
		<tag k="ssr:stedsnr" v="128697" />
		<tag k="ssr:type" v="seterStøl" />
	</node>
	<node lat="60.74234166666256" lon="9.802586111949822" id="-22899">
		<tag k="alt_name" v="Drengsprengsætri, nordre;Drengsprengsætri;Nørdre Drengsprengsæter;Nordre Drengsprengsætri" />
		<tag k="historic" v="shieling" />
		<tag k="name" v="Nørdre Drengsprengsætri" />
		<tag k="place" v="isolated_dwelling" />
		<tag k="ssr:date" v="2019-12-27" />
		<tag k="ssr:gruppe" v="gardsbebyggelse" />
		<tag k="ssr:hovedgruppe" v="bebyggelse" />
		<tag k="ssr:stedsnr" v="128803" />
		<tag k="ssr:type" v="seterStøl" />
	</node>
	<node lat="60.56893611469601" lon="9.715972220312848" id="-22900">
		<tag k="alt_name" v="Søre Skimten" />
		<tag k="name" v="Skimten" />
		<tag k="place" v="farm" />
		<tag k="ssr:date" v="2019-12-27" />
		<tag k="ssr:gruppe" v="gardsbebyggelse" />
		<tag k="ssr:hovedgruppe" v="bebyggelse" />
		<tag k="ssr:stedsnr" v="128804" />
		<tag k="ssr:type" v="bruk" />
	</node>
	<node lat="60.568538892541405" lon="9.690455546791465" id="-22901">
		<tag k="name" v="Saubekken" />
		<tag k="ssr:date" v="2019-12-27" />
		<tag k="ssr:gruppe" v="rennendeVann" />
		<tag k="ssr:hovedgruppe" v="ferskvann" />
		<tag k="ssr:stedsnr" v="128807" />
		<tag k="ssr:type" v="bekk" />
		<tag k="waterway" v="stream" />
	</node>
	<node lat="60.676411115164704" lon="9.78336943597892" id="-22902">
		<tag k="name" v="Varpet" />
		<tag k="natural" v="slope" />
		<tag k="place" v="locality" />
		<tag k="ssr:date" v="2019-12-27" />
		<tag k="ssr:gruppe" v="skråninger" />
		<tag k="ssr:hovedgruppe" v="terreng" />
		<tag k="ssr:stedsnr" v="128902" />
		<tag k="ssr:type" v="li" />
	</node>
	<node lat="60.67773333534245" lon="9.677763881022523" id="-22903">
		<tag k="alt_name" v="Øyvassæter" />
		<tag k="historic" v="shieling" />
		<tag k="name" v="Øyvassætra" />
		<tag k="place" v="isolated_dwelling" />
		<tag k="ssr:date" v="2019-12-27" />
		<tag k="ssr:gruppe" v="gardsbebyggelse" />
		<tag k="ssr:hovedgruppe" v="bebyggelse" />
		<tag k="ssr:stedsnr" v="128905" />
		<tag k="ssr:type" v="seterStøl" />
	</node>
	<node lat="60.68610833496719" lon="9.923433336543907" id="-22904">
		<tag k="name" v="Femvatna" />
		<tag k="natural" v="water" />
		<tag k="ssr:date" v="2019-12-27" />
		<tag k="ssr:gruppe" v="stilleståendeVann" />
		<tag k="ssr:hovedgruppe" v="ferskvann" />
		<tag k="ssr:stedsnr" v="128911" />
		<tag k="ssr:type" v="gruppeAvVann" />
		<tag k="water" v="lake" />
	</node>
	<node lat="60.739083335912845" lon="9.921036109547268" id="-22905">
		<tag k="alt_name" v="Langevatn" />
		<tag k="name" v="Langtjernvatnet" />
		<tag k="natural" v="water" />
		<tag k="ssr:date" v="2019-12-27" />
		<tag k="ssr:gruppe" v="stilleståendeVann" />
		<tag k="ssr:hovedgruppe" v="ferskvann" />
		<tag k="ssr:stedsnr" v="128935" />
		<tag k="ssr:type" v="tjern" />
	</node>
	<node lat="60.657805559188944" lon="9.944836111755581" id="-22906">
		<tag k="name" v="Benkehøgda" />
		<tag k="natural" v="hill" />
		<tag k="place" v="locality" />
		<tag k="ssr:date" v="2019-12-27" />
		<tag k="ssr:gruppe" v="høyder" />
		<tag k="ssr:hovedgruppe" v="terreng" />
		<tag k="ssr:stedsnr" v="128936" />
		<tag k="ssr:type" v="haug" />
	</node>
	<node lat="60.663747220864956" lon="9.844355557545708" id="-22907">
		<tag k="fixme" v="consider natural=peak for the most distinct mountains in the district" />
		<tag k="name" v="Ryggåsen" />
		<tag k="natural" v="hill" />
		<tag k="place" v="locality" />
		<tag k="ssr:date" v="2019-12-27" />
		<tag k="ssr:gruppe" v="høyder" />
		<tag k="ssr:hovedgruppe" v="terreng" />
		<tag k="ssr:stedsnr" v="128940" />
		<tag k="ssr:type" v="ås" />
	</node>
	<node lat="60.73523611376873" lon="9.596674998253015" id="-22908">
		<tag k="name" v="Dytthol" />
		<tag k="place" v="isolated_dwelling" />
		<tag k="ssr:date" v="2019-12-27" />
		<tag k="ssr:gruppe" v="bolighus" />
		<tag k="ssr:hovedgruppe" v="bebyggelse" />
		<tag k="ssr:stedsnr" v="128943" />
		<tag k="ssr:type" v="fritidsbolig" />
	</node>
	<node lat="60.64226939937133" lon="9.870287393520584" id="-22909">
		<tag k="fixme" v="consider place=hamlet" />
		<tag k="name" v="Sørum" />
		<tag k="place" v="farm" />
		<tag k="ssr:date" v="2019-12-27" />
		<tag k="ssr:gruppe" v="gardsbebyggelse" />
		<tag k="ssr:hovedgruppe" v="bebyggelse" />
		<tag k="ssr:stedsnr" v="128944" />
		<tag k="ssr:type" v="gard" />
	</node>
	<node lat="60.64336944489828" lon="9.801563894760916" id="-22910">
		<tag k="name" v="Bakvendt" />
		<tag k="natural" v="slope" />
		<tag k="place" v="locality" />
		<tag k="ssr:date" v="2019-12-27" />
		<tag k="ssr:gruppe" v="skråninger" />
		<tag k="ssr:hovedgruppe" v="terreng" />
		<tag k="ssr:stedsnr" v="128947" />
		<tag k="ssr:type" v="li" />
	</node>
	<node lat="60.72625555875902" lon="9.914688886188774" id="-22911">
		<tag k="alt_name" v="Helgevassfløyten" />
		<tag k="name" v="Helgevassfløten" />
		<tag k="natural" v="water" />
		<tag k="ssr:date" v="2019-12-27" />
		<tag k="ssr:gruppe" v="stilleståendeVann" />
		<tag k="ssr:hovedgruppe" v="ferskvann" />
		<tag k="ssr:stedsnr" v="128982" />
		<tag k="ssr:type" v="tjern" />
	</node>
	<node lat="60.6226222254599" lon="9.780094451260622" id="-22912">
		<tag k="name" v="Skartjern" />
		<tag k="natural" v="water" />
		<tag k="ssr:date" v="2019-12-27" />
		<tag k="ssr:gruppe" v="stilleståendeVann" />
		<tag k="ssr:hovedgruppe" v="ferskvann" />
		<tag k="ssr:stedsnr" v="128985" />
		<tag k="ssr:type" v="tjern" />
	</node>
	<node lat="60.70825555954216" lon="9.662666659026772" id="-22913">
		<tag k="name" v="Storemyr" />
		<tag k="natural" v="wetland" />
		<tag k="ssr:date" v="2019-12-27" />
		<tag k="ssr:gruppe" v="våtmark" />
		<tag k="ssr:hovedgruppe" v="markslag" />
		<tag k="ssr:stedsnr" v="128986" />
		<tag k="ssr:type" v="myr" />
	</node>
	<node lat="60.62364722603997" lon="9.684838881178106" id="-22914">
		<tag k="alt_name" v="Nedre Haugen" />
		<tag k="name" v="Haugen" />
		<tag k="place" v="farm" />
		<tag k="ssr:date" v="2019-12-27" />
		<tag k="ssr:gruppe" v="gardsbebyggelse" />
		<tag k="ssr:hovedgruppe" v="bebyggelse" />
		<tag k="ssr:stedsnr" v="128988" />
		<tag k="ssr:type" v="bruk" />
	</node>
	<node lat="60.70485555404651" lon="9.690463883765881" id="-22915">
		<tag k="alt_name" v="Rundkøllen" />
		<tag k="name" v="Rundekollen" />
		<tag k="natural" v="hill" />
		<tag k="place" v="locality" />
		<tag k="ssr:date" v="2019-12-27" />
		<tag k="ssr:gruppe" v="høyder" />
		<tag k="ssr:hovedgruppe" v="terreng" />
		<tag k="ssr:stedsnr" v="128989" />
		<tag k="ssr:type" v="haug" />
	</node>
	<node lat="60.70888333244556" lon="9.744858341672623" id="-22916">
		<tag k="name" v="Veslesæterhøgda" />
		<tag k="natural" v="hill" />
		<tag k="place" v="locality" />
		<tag k="ssr:date" v="2019-12-27" />
		<tag k="ssr:gruppe" v="høyder" />
		<tag k="ssr:hovedgruppe" v="terreng" />
		<tag k="ssr:stedsnr" v="128993" />
		<tag k="ssr:type" v="haug" />
	</node>
	<node lat="60.632211106906084" lon="9.813347230514278" id="-22917">
		<tag k="name" v="Jugerud" />
		<tag k="place" v="isolated_dwelling" />
		<tag k="ssr:date" v="2019-12-27" />
		<tag k="ssr:gruppe" v="bolighus" />
		<tag k="ssr:hovedgruppe" v="bebyggelse" />
		<tag k="ssr:stedsnr" v="128999" />
		<tag k="ssr:type" v="fritidsbolig" />
	</node>
	<node lat="60.70995832994228" lon="9.60068334088704" id="-22918">
		<tag k="alt_name" v="Vesleøyvatnet;Øyvatnet, vle" />
		<tag k="name" v="Vesle Øyvatnet" />
		<tag k="natural" v="water" />
		<tag k="ssr:date" v="2019-12-27" />
		<tag k="ssr:gruppe" v="stilleståendeVann" />
		<tag k="ssr:hovedgruppe" v="ferskvann" />
		<tag k="ssr:stedsnr" v="129000" />
		<tag k="ssr:type" v="tjern" />
	</node>
	<node lat="60.69171110821125" lon="9.76456667255898" id="-22919">
		<tag k="name" v="Hansebakkberget" />
		<tag k="natural" v="hill" />
		<tag k="place" v="locality" />
		<tag k="ssr:date" v="2019-12-27" />
		<tag k="ssr:gruppe" v="høyder" />
		<tag k="ssr:hovedgruppe" v="terreng" />
		<tag k="ssr:stedsnr" v="128891" />
		<tag k="ssr:type" v="berg" />
	</node>
	<node lat="60.70250000415681" lon="9.754013880168836" id="-22920">
		<tag k="name" v="Bjørkedalen" />
		<tag k="natural" v="valley" />
		<tag k="place" v="locality" />
		<tag k="ssr:date" v="2019-12-27" />
		<tag k="ssr:gruppe" v="senkninger" />
		<tag k="ssr:hovedgruppe" v="terreng" />
		<tag k="ssr:stedsnr" v="128893" />
		<tag k="ssr:type" v="dal" />
	</node>
	<node lat="60.61836111172104" lon="9.870625006940928" id="-22921">
		<tag k="name" v="Primstein" />
		<tag k="natural" v="stone" />
		<tag k="ssr:date" v="2019-12-27" />
		<tag k="ssr:gruppe" v="løsmasseavsetninger" />
		<tag k="ssr:hovedgruppe" v="markslag" />
		<tag k="ssr:stedsnr" v="128894" />
		<tag k="ssr:type" v="stein" />
	</node>
	<node lat="60.675797221054914" lon="9.883013892352" id="-22922">
		<tag k="alt_name" v="Buvatnet, s" />
		<tag k="name" v="Søre Buvatnet" />
		<tag k="natural" v="water" />
		<tag k="ssr:date" v="2019-12-27" />
		<tag k="ssr:gruppe" v="stilleståendeVann" />
		<tag k="ssr:hovedgruppe" v="ferskvann" />
		<tag k="ssr:stedsnr" v="128896" />
		<tag k="ssr:type" v="vann" />
		<tag k="water" v="lake" />
	</node>
	<node lat="60.77777499732964" lon="9.6088499991454" id="-22923">
		<tag k="name" v="Bøle" />
		<tag k="place" v="farm" />
		<tag k="ssr:date" v="2019-12-27" />
		<tag k="ssr:gruppe" v="gardsbebyggelse" />
		<tag k="ssr:hovedgruppe" v="bebyggelse" />
		<tag k="ssr:stedsnr" v="130102" />
		<tag k="ssr:type" v="bruk" />
	</node>
	<node lat="60.779916664726535" lon="9.748577774608448" id="-22924">
		<tag k="historic" v="shieling" />
		<tag k="name" v="Huken" />
		<tag k="place" v="isolated_dwelling" />
		<tag k="ssr:date" v="2019-12-27" />
		<tag k="ssr:gruppe" v="gardsbebyggelse" />
		<tag k="ssr:hovedgruppe" v="bebyggelse" />
		<tag k="ssr:stedsnr" v="130111" />
		<tag k="ssr:type" v="seterStøl" />
	</node>
	<node lat="60.789487146496455" lon="9.64302444679543" id="-22925">
		<tag k="alt_name" v="Skaro" />
		<tag k="fixme" v="consider place=hamlet" />
		<tag k="name" v="Skaran" />
		<tag k="place" v="farm" />
		<tag k="ssr:date" v="2019-12-27" />
		<tag k="ssr:gruppe" v="gardsbebyggelse" />
		<tag k="ssr:hovedgruppe" v="bebyggelse" />
		<tag k="ssr:stedsnr" v="130113" />
		<tag k="ssr:type" v="gard" />
	</node>
	<node lat="60.78556389316278" lon="9.664849991472614" id="-22926">
		<tag k="alt_name" v="Skogstadhøgde" />
		<tag k="fixme" v="consider natural=peak for the most distinct mountains in the district" />
		<tag k="name" v="Skogstadknatten" />
		<tag k="natural" v="hill" />
		<tag k="place" v="locality" />
		<tag k="ssr:date" v="2019-12-27" />
		<tag k="ssr:gruppe" v="høyder" />
		<tag k="ssr:hovedgruppe" v="terreng" />
		<tag k="ssr:stedsnr" v="130130" />
		<tag k="ssr:type" v="ås" />
	</node>
	<node lat="60.77752965668658" lon="9.642625844487421" id="-22927">
		<tag k="fixme" v="consider place=hamlet" />
		<tag k="name" v="Langedrag" />
		<tag k="place" v="farm" />
		<tag k="ssr:date" v="2019-12-27" />
		<tag k="ssr:gruppe" v="gardsbebyggelse" />
		<tag k="ssr:hovedgruppe" v="bebyggelse" />
		<tag k="ssr:stedsnr" v="130095" />
		<tag k="ssr:type" v="gard" />
	</node>
	<node lat="60.777905557895586" lon="9.623377772500787" id="-22928">
		<tag k="alt_name" v="Søre Lundo" />
		<tag k="name" v="Lundo" />
		<tag k="place" v="farm" />
		<tag k="ssr:date" v="2019-12-27" />
		<tag k="ssr:gruppe" v="gardsbebyggelse" />
		<tag k="ssr:hovedgruppe" v="bebyggelse" />
		<tag k="ssr:stedsnr" v="130099" />
		<tag k="ssr:type" v="bruk" />
	</node>
	<node lat="60.813927774006494" lon="9.764172220332846" id="-22929">
		<tag k="name" v="Kolbu" />
		<tag k="place" v="farm" />
		<tag k="ssr:date" v="2019-12-27" />
		<tag k="ssr:gruppe" v="gardsbebyggelse" />
		<tag k="ssr:hovedgruppe" v="bebyggelse" />
		<tag k="ssr:stedsnr" v="130215" />
		<tag k="ssr:type" v="bruk" />
	</node>
	<node lat="60.834875001767735" lon="9.393511110027461" id="-22930">
		<tag k="alt_name" v="Stavedalen" />
		<tag k="name" v="Stavadalen" />
		<tag k="natural" v="valley" />
		<tag k="place" v="locality" />
		<tag k="ssr:date" v="2019-12-27" />
		<tag k="ssr:gruppe" v="senkninger" />
		<tag k="ssr:hovedgruppe" v="terreng" />
		<tag k="ssr:stedsnr" v="130611" />
		<tag k="ssr:type" v="dal" />
	</node>
	<node lat="60.76074722050366" lon="9.438461103419888" id="-22931">
		<tag k="historic" v="shieling" />
		<tag k="name" v="Preststølen" />
		<tag k="place" v="isolated_dwelling" />
		<tag k="ssr:date" v="2019-12-27" />
		<tag k="ssr:gruppe" v="gardsbebyggelse" />
		<tag k="ssr:hovedgruppe" v="bebyggelse" />
		<tag k="ssr:stedsnr" v="130707" />
		<tag k="ssr:type" v="seterStøl" />
	</node>
	<node lat="60.75895277359053" lon="9.36509166373343" id="-22932">
		<tag k="alt_name" v="Tempelhøgde" />
		<tag k="fixme" v="consider natural=peak for the most distinct mountains in the district" />
		<tag k="name" v="Tempelhaugen" />
		<tag k="natural" v="hill" />
		<tag k="place" v="locality" />
		<tag k="ssr:date" v="2019-12-27" />
		<tag k="ssr:gruppe" v="høyder" />
		<tag k="ssr:hovedgruppe" v="terreng" />
		<tag k="ssr:stedsnr" v="130710" />
		<tag k="ssr:type" v="ås" />
	</node>
	<node lat="60.80153732949292" lon="9.532409473242472" id="-22933">
		<tag k="fixme" v="consider place=hamlet" />
		<tag k="name" v="Skard" />
		<tag k="place" v="farm" />
		<tag k="ssr:date" v="2019-12-27" />
		<tag k="ssr:gruppe" v="gardsbebyggelse" />
		<tag k="ssr:hovedgruppe" v="bebyggelse" />
		<tag k="ssr:stedsnr" v="130777" />
		<tag k="ssr:type" v="gard" />
	</node>
	<node lat="60.811622225406865" lon="9.335091664018291" id="-22934">
		<tag k="alt_name" v="Fjellstølen, nordre" />
		<tag k="historic" v="shieling" />
		<tag k="name" v="Nordre Fjellstølen" />
		<tag k="place" v="isolated_dwelling" />
		<tag k="ssr:date" v="2019-12-27" />
		<tag k="ssr:gruppe" v="gardsbebyggelse" />
		<tag k="ssr:hovedgruppe" v="bebyggelse" />
		<tag k="ssr:stedsnr" v="130780" />
		<tag k="ssr:type" v="seterStøl" />
	</node>
	<node lat="60.81804166936107" lon="9.52812222454903" id="-22935">
		<tag k="alt_name" v="Liagardatn" />
		<tag k="name" v="Lii" />
		<tag k="place" v="hamlet" />
		<tag k="ssr:date" v="2019-12-27" />
		<tag k="ssr:gruppe" v="bebyggelsesområder" />
		<tag k="ssr:hovedgruppe" v="bebyggelse" />
		<tag k="ssr:stedsnr" v="130787" />
		<tag k="ssr:type" v="grend" />
	</node>
	<node lat="60.796647287131734" lon="9.316951588700059" id="-22936">
		<tag k="alt_name" v="Sangevatni, store;Store Sangevatnet;Store Sangevatni" />
		<tag k="name" v="Store Sangin" />
		<tag k="natural" v="water" />
		<tag k="ssr:date" v="2019-12-27" />
		<tag k="ssr:gruppe" v="stilleståendeVann" />
		<tag k="ssr:hovedgruppe" v="ferskvann" />
		<tag k="ssr:stedsnr" v="130790" />
		<tag k="ssr:type" v="vann" />
		<tag k="water" v="lake" />
	</node>
	<node lat="60.793699996515066" lon="9.485830563737164" id="-22937">
		<tag k="alt_name" v="Tjuehaugen" />
		<tag k="name" v="Tjuvehaugen" />
		<tag k="natural" v="hill" />
		<tag k="place" v="locality" />
		<tag k="ssr:date" v="2019-12-27" />
		<tag k="ssr:gruppe" v="høyder" />
		<tag k="ssr:hovedgruppe" v="terreng" />
		<tag k="ssr:stedsnr" v="130803" />
		<tag k="ssr:type" v="haug" />
	</node>
	<node lat="60.80417499947207" lon="9.571238888590342" id="-22938">
		<tag k="name" v="Plassen" />
		<tag k="place" v="farm" />
		<tag k="ssr:date" v="2019-12-27" />
		<tag k="ssr:gruppe" v="gardsbebyggelse" />
		<tag k="ssr:hovedgruppe" v="bebyggelse" />
		<tag k="ssr:stedsnr" v="130808" />
		<tag k="ssr:type" v="bruk" />
	</node>
	<node lat="60.818111108788536" lon="9.348463894721558" id="-22939">
		<tag k="name" v="Fjellstølbekken" />
		<tag k="ssr:date" v="2019-12-27" />
		<tag k="ssr:gruppe" v="rennendeVann" />
		<tag k="ssr:hovedgruppe" v="ferskvann" />
		<tag k="ssr:stedsnr" v="130833" />
		<tag k="ssr:type" v="bekk" />
		<tag k="waterway" v="stream" />
	</node>
	<node lat="60.825999999654634" lon="9.569016665553754" id="-22940">
		<tag k="name" v="Erlendshaugen" />
		<tag k="place" v="farm" />
		<tag k="ssr:date" v="2019-12-27" />
		<tag k="ssr:gruppe" v="gardsbebyggelse" />
		<tag k="ssr:hovedgruppe" v="bebyggelse" />
		<tag k="ssr:stedsnr" v="130838" />
		<tag k="ssr:type" v="bruk" />
	</node>
	<node lat="60.82370833216986" lon="9.505022217522017" id="-22941">
		<tag k="alt_name" v="Haslebrøtin" />
		<tag k="name" v="Haslo" />
		<tag k="place" v="farm" />
		<tag k="ssr:date" v="2019-12-27" />
		<tag k="ssr:gruppe" v="gardsbebyggelse" />
		<tag k="ssr:hovedgruppe" v="bebyggelse" />
		<tag k="ssr:stedsnr" v="130844" />
		<tag k="ssr:type" v="bruk" />
	</node>
	<node lat="60.82768906557163" lon="9.454948721563317" id="-22942">
		<tag k="alt_name" v="Øygarden" />
		<tag k="fixme" v="consider place=hamlet" />
		<tag k="name" v="Øygard" />
		<tag k="place" v="farm" />
		<tag k="ssr:date" v="2019-12-27" />
		<tag k="ssr:gruppe" v="gardsbebyggelse" />
		<tag k="ssr:hovedgruppe" v="bebyggelse" />
		<tag k="ssr:stedsnr" v="130846" />
		<tag k="ssr:type" v="gard" />
	</node>
	<node lat="60.75074166313373" lon="9.320130554390516" id="-22943">
		<tag k="fixme" v="consider natural=peak for the most distinct mountains in the district" />
		<tag k="name" v="Rabalsfjellet" />
		<tag k="natural" v="hill" />
		<tag k="place" v="locality" />
		<tag k="ssr:date" v="2019-12-27" />
		<tag k="ssr:gruppe" v="høyder" />
		<tag k="ssr:hovedgruppe" v="terreng" />
		<tag k="ssr:stedsnr" v="252728" />
		<tag k="ssr:type" v="ås" />
	</node>
	<node lat="60.764170167982684" lon="9.419975960829625" id="-22944">
		<tag k="alt_name" v="Brattrudsætrene" />
		<tag k="historic" v="shieling" />
		<tag k="name" v="Brattrudsætrin" />
		<tag k="place" v="isolated_dwelling" />
		<tag k="ssr:date" v="2019-12-27" />
		<tag k="ssr:gruppe" v="gardsbebyggelse" />
		<tag k="ssr:hovedgruppe" v="bebyggelse" />
		<tag k="ssr:stedsnr" v="252735" />
		<tag k="ssr:type" v="seterStøl" />
	</node>
	<node lat="60.794824998906236" lon="9.558447216786018" id="-22945">
		<tag k="alt_name" v="Skørre" />
		<tag k="name" v="Skørri" />
		<tag k="place" v="farm" />
		<tag k="ssr:date" v="2019-12-27" />
		<tag k="ssr:gruppe" v="gardsbebyggelse" />
		<tag k="ssr:hovedgruppe" v="bebyggelse" />
		<tag k="ssr:stedsnr" v="252808" />
		<tag k="ssr:type" v="bruk" />
	</node>
	<node lat="60.797711107719564" lon="9.344752781124285" id="-22946">
		<tag k="fixme" v="consider natural=peak for the most distinct mountains in the district" />
		<tag k="name" v="Fiskebufjellet" />
		<tag k="natural" v="hill" />
		<tag k="place" v="locality" />
		<tag k="ssr:date" v="2019-12-27" />
		<tag k="ssr:gruppe" v="høyder" />
		<tag k="ssr:hovedgruppe" v="terreng" />
		<tag k="ssr:stedsnr" v="252813" />
		<tag k="ssr:type" v="ås" />
	</node>
	<node lat="60.80247222002118" lon="9.578338885821944" id="-22947">
		<tag k="name" v="Nyvegen" />
		<tag k="place" v="farm" />
		<tag k="ssr:date" v="2019-12-27" />
		<tag k="ssr:gruppe" v="gardsbebyggelse" />
		<tag k="ssr:hovedgruppe" v="bebyggelse" />
		<tag k="ssr:stedsnr" v="252814" />
		<tag k="ssr:type" v="bruk" />
	</node>
	<node lat="60.782419422918316" lon="9.580084259570205" id="-22948">
		<tag k="alt_name" v="Dølvi" />
		<tag k="fixme" v="consider place=hamlet" />
		<tag k="name" v="Dølve" />
		<tag k="place" v="farm" />
		<tag k="ssr:date" v="2019-12-27" />
		<tag k="ssr:gruppe" v="gardsbebyggelse" />
		<tag k="ssr:hovedgruppe" v="bebyggelse" />
		<tag k="ssr:stedsnr" v="252768" />
		<tag k="ssr:type" v="gard" />
	</node>
	<node lat="60.6208277807732" lon="9.694041663222034" id="-22949">
		<tag k="name" v="Ildjarntunet" />
		<tag k="ssr:date" v="2019-12-27" />
		<tag k="ssr:gruppe" v="næring" />
		<tag k="ssr:hovedgruppe" v="bebyggelse" />
		<tag k="ssr:stedsnr" v="161587" />
		<tag k="ssr:type" v="pensjonat" />
		<tag k="tourism" v="guest_house" />
	</node>
	<node lat="60.66027499994945" lon="9.968919446824012" id="-22951">
		<tag k="name" v="Skaugum" />
		<tag k="place" v="isolated_dwelling" />
		<tag k="ssr:date" v="2019-12-27" />
		<tag k="ssr:gruppe" v="bolighus" />
		<tag k="ssr:hovedgruppe" v="bebyggelse" />
		<tag k="ssr:stedsnr" v="179007" />
		<tag k="ssr:type" v="fritidsbolig" />
	</node>
	<node lat="60.70834444801112" lon="9.451022231422403" id="-22952">
		<tag k="name" v="Lomvike" />
		<tag k="natural" v="bay" />
		<tag k="ssr:date" v="2019-12-27" />
		<tag k="ssr:gruppe" v="ferskvannskontur" />
		<tag k="ssr:hovedgruppe" v="ferskvann" />
		<tag k="ssr:stedsnr" v="179417" />
		<tag k="ssr:type" v="vik" />
	</node>
	<node lat="60.62514722509652" lon="9.68601666235002" id="-22953">
		<tag k="name" v="Lundberg" />
		<tag k="place" v="farm" />
		<tag k="ssr:date" v="2019-12-27" />
		<tag k="ssr:gruppe" v="gardsbebyggelse" />
		<tag k="ssr:hovedgruppe" v="bebyggelse" />
		<tag k="ssr:stedsnr" v="179420" />
		<tag k="ssr:type" v="bruk" />
	</node>
	<node lat="60.619938892360494" lon="9.712794438410029" id="-22954">
		<tag k="name" v="Bertelrud" />
		<tag k="place" v="farm" />
		<tag k="ssr:date" v="2019-12-27" />
		<tag k="ssr:gruppe" v="gardsbebyggelse" />
		<tag k="ssr:hovedgruppe" v="bebyggelse" />
		<tag k="ssr:stedsnr" v="179426" />
		<tag k="ssr:type" v="bruk" />
	</node>
	<node lat="60.596952775768855" lon="9.707033337751067" id="-22955">
		<tag k="name" v="Sjurskorta" />
		<tag k="place" v="locality" />
		<tag k="ssr:date" v="2019-12-27" />
		<tag k="ssr:gruppe" v="skråninger" />
		<tag k="ssr:hovedgruppe" v="terreng" />
		<tag k="ssr:stedsnr" v="179469" />
		<tag k="ssr:type" v="fjellside" />
	</node>
	<node lat="60.58358333429717" lon="9.713255555458803" id="-22956">
		<tag k="name" v="Nore" />
		<tag k="place" v="farm" />
		<tag k="ssr:date" v="2019-12-27" />
		<tag k="ssr:gruppe" v="gardsbebyggelse" />
		<tag k="ssr:hovedgruppe" v="bebyggelse" />
		<tag k="ssr:stedsnr" v="179476" />
		<tag k="ssr:type" v="bruk" />
	</node>
	<node lat="60.83462222071598" lon="9.3766555512993" id="-22957">
		<tag k="name" v="Heggerustbekken" />
		<tag k="ssr:date" v="2019-12-27" />
		<tag k="ssr:gruppe" v="rennendeVann" />
		<tag k="ssr:hovedgruppe" v="ferskvann" />
		<tag k="ssr:stedsnr" v="179620" />
		<tag k="ssr:type" v="bekk" />
		<tag k="waterway" v="stream" />
	</node>
	<node lat="60.61580833396285" lon="9.75396111172314" id="-22958">
		<tag k="name" v="Bråtågardshøgda" />
		<tag k="natural" v="hill" />
		<tag k="place" v="locality" />
		<tag k="ssr:date" v="2019-12-27" />
		<tag k="ssr:gruppe" v="høyder" />
		<tag k="ssr:hovedgruppe" v="terreng" />
		<tag k="ssr:stedsnr" v="179503" />
		<tag k="ssr:type" v="haug" />
	</node>
	<node lat="60.61120833728503" lon="9.732461113719276" id="-22959">
		<tag k="name" v="Hansrud" />
		<tag k="place" v="farm" />
		<tag k="ssr:date" v="2019-12-27" />
		<tag k="ssr:gruppe" v="gardsbebyggelse" />
		<tag k="ssr:hovedgruppe" v="bebyggelse" />
		<tag k="ssr:stedsnr" v="179507" />
		<tag k="ssr:type" v="bruk" />
	</node>
	<node lat="60.59666111248536" lon="9.6500222238461" id="-22960">
		<tag k="name" v="Storebekk" />
		<tag k="ssr:date" v="2019-12-27" />
		<tag k="ssr:gruppe" v="rennendeVann" />
		<tag k="ssr:hovedgruppe" v="ferskvann" />
		<tag k="ssr:stedsnr" v="179714" />
		<tag k="ssr:type" v="bekk" />
		<tag k="waterway" v="stream" />
	</node>
	<node lat="60.79242222179911" lon="9.288055564160567" id="-22961">
		<tag k="name" v="Langetjernbekken" />
		<tag k="old_name" v="Langetjednbekken" />
		<tag k="ssr:date" v="2019-12-27" />
		<tag k="ssr:gruppe" v="rennendeVann" />
		<tag k="ssr:hovedgruppe" v="ferskvann" />
		<tag k="ssr:stedsnr" v="179757" />
		<tag k="ssr:type" v="bekk" />
		<tag k="waterway" v="stream" />
	</node>
	<node lat="60.775477774643306" lon="9.290977778522569" id="-22962">
		<tag k="fixme" v="consider natural=peak for the most distinct mountains in the district" />
		<tag k="name" v="Rauskreoberget" />
		<tag k="natural" v="hill" />
		<tag k="place" v="locality" />
		<tag k="ssr:date" v="2019-12-27" />
		<tag k="ssr:gruppe" v="høyder" />
		<tag k="ssr:hovedgruppe" v="terreng" />
		<tag k="ssr:stedsnr" v="179762" />
		<tag k="ssr:type" v="ås" />
	</node>
	<node lat="60.77605277538415" lon="9.339980546702499" id="-22963">
		<tag k="name" v="Løypa" />
		<tag k="natural" v="valley" />
		<tag k="place" v="locality" />
		<tag k="ssr:date" v="2019-12-27" />
		<tag k="ssr:gruppe" v="senkninger" />
		<tag k="ssr:hovedgruppe" v="terreng" />
		<tag k="ssr:stedsnr" v="179967" />
		<tag k="ssr:type" v="skar" />
	</node>
	<node lat="60.76981110955528" lon="9.760238887766347" id="-22964">
		<tag k="name" v="Grauthytta" />
		<tag k="place" v="isolated_dwelling" />
		<tag k="ssr:date" v="2019-12-27" />
		<tag k="ssr:gruppe" v="bolighus" />
		<tag k="ssr:hovedgruppe" v="bebyggelse" />
		<tag k="ssr:stedsnr" v="180158" />
		<tag k="ssr:type" v="fritidsbolig" />
	</node>
	<node lat="60.78551944076488" lon="9.762836112664766" id="-22965">
		<tag k="name" v="Mekjelstjernet" />
		<tag k="natural" v="water" />
		<tag k="old_name" v="Mekjelstjednet" />
		<tag k="ssr:date" v="2019-12-27" />
		<tag k="ssr:gruppe" v="stilleståendeVann" />
		<tag k="ssr:hovedgruppe" v="ferskvann" />
		<tag k="ssr:stedsnr" v="180166" />
		<tag k="ssr:type" v="tjern" />
	</node>
	<node lat="60.65695278149026" lon="9.815338882616185" id="-22966">
		<tag k="name" v="Stokkedalen" />
		<tag k="place" v="farm" />
		<tag k="ssr:date" v="2019-12-27" />
		<tag k="ssr:gruppe" v="gardsbebyggelse" />
		<tag k="ssr:hovedgruppe" v="bebyggelse" />
		<tag k="ssr:stedsnr" v="180662" />
		<tag k="ssr:type" v="bruk" />
	</node>
	<node lat="60.59289444093423" lon="9.865752781821094" id="-22967">
		<tag k="historic" v="shieling" />
		<tag k="name" v="Nysætra" />
		<tag k="place" v="locality" />
		<tag k="ssr:date" v="2019-12-27" />
		<tag k="ssr:gruppe" v="dyrkamark" />
		<tag k="ssr:hovedgruppe" v="markslag" />
		<tag k="ssr:stedsnr" v="262720" />
		<tag k="ssr:type" v="setervoll" />
	</node>
	<node lat="60.66267499879173" lon="9.65909999266604" id="-22968">
		<tag k="name" v="Bukkeberget" />
		<tag k="natural" v="hill" />
		<tag k="place" v="locality" />
		<tag k="ssr:date" v="2019-12-27" />
		<tag k="ssr:gruppe" v="høyder" />
		<tag k="ssr:hovedgruppe" v="terreng" />
		<tag k="ssr:stedsnr" v="188929" />
		<tag k="ssr:type" v="berg" />
	</node>
	<node lat="60.661065879266495" lon="9.627168388870484" id="-22969">
		<tag k="name" v="Flåtevatnet" />
		<tag k="natural" v="water" />
		<tag k="ssr:date" v="2020-12-28" />
		<tag k="ssr:gruppe" v="stilleståendeVann" />
		<tag k="ssr:hovedgruppe" v="ferskvann" />
		<tag k="ssr:stedsnr" v="188933" />
		<tag k="ssr:type" v="tjern" />
	</node>
	<node lat="60.65732778075205" lon="9.685549996886143" id="-22970">
		<tag k="alt_name" v="Rålia" />
		<tag k="historic" v="shieling" />
		<tag k="name" v="Rålisætra" />
		<tag k="place" v="locality" />
		<tag k="ssr:date" v="2019-12-27" />
		<tag k="ssr:gruppe" v="dyrkamark" />
		<tag k="ssr:hovedgruppe" v="markslag" />
		<tag k="ssr:stedsnr" v="188934" />
		<tag k="ssr:type" v="setervoll" />
	</node>
	<node lat="60.667691668184816" lon="9.874836103607244" id="-22971">
		<tag k="name" v="Buvasskollen" />
		<tag k="natural" v="hill" />
		<tag k="place" v="locality" />
		<tag k="ssr:date" v="2019-12-27" />
		<tag k="ssr:gruppe" v="høyder" />
		<tag k="ssr:hovedgruppe" v="terreng" />
		<tag k="ssr:stedsnr" v="188938" />
		<tag k="ssr:type" v="haug" />
	</node>
	<node lat="60.6670888930705" lon="9.850024997547797" id="-22972">
		<tag k="name" v="Midtknatten" />
		<tag k="natural" v="hill" />
		<tag k="place" v="locality" />
		<tag k="ssr:date" v="2019-12-27" />
		<tag k="ssr:gruppe" v="høyder" />
		<tag k="ssr:hovedgruppe" v="terreng" />
		<tag k="ssr:stedsnr" v="188940" />
		<tag k="ssr:type" v="berg" />
	</node>
	<node lat="60.66703889210172" lon="9.759774991314679" id="-22973">
		<tag k="name" v="Grimsrudkollen" />
		<tag k="natural" v="hill" />
		<tag k="place" v="locality" />
		<tag k="ssr:date" v="2019-12-27" />
		<tag k="ssr:gruppe" v="høyder" />
		<tag k="ssr:hovedgruppe" v="terreng" />
		<tag k="ssr:stedsnr" v="188942" />
		<tag k="ssr:type" v="haug" />
	</node>
	<node lat="60.672311115594084" lon="9.686344439577985" id="-22974">
		<tag k="name" v="Vesleøyvatnet" />
		<tag k="natural" v="water" />
		<tag k="ssr:date" v="2019-12-27" />
		<tag k="ssr:gruppe" v="stilleståendeVann" />
		<tag k="ssr:hovedgruppe" v="ferskvann" />
		<tag k="ssr:stedsnr" v="188948" />
		<tag k="ssr:type" v="tjern" />
	</node>
	<node lat="60.49405555603992" lon="9.772052784991244" id="-22975">
		<tag k="name" v="Mansæterbekken" />
		<tag k="ssr:date" v="2019-12-27" />
		<tag k="ssr:gruppe" v="rennendeVann" />
		<tag k="ssr:hovedgruppe" v="ferskvann" />
		<tag k="ssr:stedsnr" v="188950" />
		<tag k="ssr:type" v="bekk" />
		<tag k="waterway" v="stream" />
	</node>
	<node lat="60.64323889046705" lon="9.519391674098621" id="-22976">
		<tag k="alt_name" v="Tufsa" />
		<tag k="historic" v="shieling" />
		<tag k="name" v="Tyfsa" />
		<tag k="place" v="isolated_dwelling" />
		<tag k="ssr:date" v="2019-12-27" />
		<tag k="ssr:gruppe" v="gardsbebyggelse" />
		<tag k="ssr:hovedgruppe" v="bebyggelse" />
		<tag k="ssr:stedsnr" v="189604" />
		<tag k="ssr:type" v="seterStøl" />
	</node>
	<node lat="60.69538055932024" lon="9.406177769292102" id="-22977">
		<tag k="alt_name" v="Øylundrødningen" />
		<tag k="historic" v="shieling" />
		<tag k="name" v="Rydningen" />
		<tag k="place" v="isolated_dwelling" />
		<tag k="ssr:date" v="2019-12-27" />
		<tag k="ssr:gruppe" v="gardsbebyggelse" />
		<tag k="ssr:hovedgruppe" v="bebyggelse" />
		<tag k="ssr:stedsnr" v="189665" />
		<tag k="ssr:type" v="seterStøl" />
	</node>
	<node lat="60.697422225116185" lon="9.349463893589528" id="-22978">
		<tag k="name" v="Storeputt" />
		<tag k="natural" v="water" />
		<tag k="ssr:date" v="2019-12-27" />
		<tag k="ssr:gruppe" v="stilleståendeVann" />
		<tag k="ssr:hovedgruppe" v="ferskvann" />
		<tag k="ssr:stedsnr" v="189684" />
		<tag k="ssr:type" v="tjern" />
	</node>
	<node lat="60.55714166666428" lon="9.579202784530853" id="-22979">
		<tag k="fixme" v="consider natural=peak for the most distinct mountains in the district" />
		<tag k="name" v="Sæterknatten" />
		<tag k="natural" v="hill" />
		<tag k="place" v="locality" />
		<tag k="ssr:date" v="2019-12-27" />
		<tag k="ssr:gruppe" v="høyder" />
		<tag k="ssr:hovedgruppe" v="terreng" />
		<tag k="ssr:stedsnr" v="189826" />
		<tag k="ssr:type" v="ås" />
	</node>
	<node lat="60.53685832968119" lon="9.768530554294877" id="-22980">
		<tag k="name" v="Rakkestadbekken" />
		<tag k="ssr:date" v="2019-12-27" />
		<tag k="ssr:gruppe" v="rennendeVann" />
		<tag k="ssr:hovedgruppe" v="ferskvann" />
		<tag k="ssr:stedsnr" v="189827" />
		<tag k="ssr:type" v="bekk" />
		<tag k="waterway" v="stream" />
	</node>
	<node lat="60.53920000189531" lon="9.524258327448214" id="-22981">
		<tag k="name" v="Brennbekken" />
		<tag k="ssr:date" v="2019-12-27" />
		<tag k="ssr:gruppe" v="rennendeVann" />
		<tag k="ssr:hovedgruppe" v="ferskvann" />
		<tag k="ssr:stedsnr" v="189863" />
		<tag k="ssr:type" v="bekk" />
		<tag k="waterway" v="stream" />
	</node>
	<node lat="60.67187205014434" lon="9.527729249899112" id="-22982">
		<tag k="historic" v="shieling" />
		<tag k="name" v="Veslesætra" />
		<tag k="place" v="locality" />
		<tag k="ssr:date" v="2021-03-09" />
		<tag k="ssr:gruppe" v="dyrkamark" />
		<tag k="ssr:hovedgruppe" v="markslag" />
		<tag k="ssr:stedsnr" v="189711" />
		<tag k="ssr:type" v="setervoll" />
	</node>
	<node lat="60.6746972221171" lon="9.520308341970782" id="-22983">
		<tag k="historic" v="shieling" />
		<tag k="name" v="Gamlevollen" />
		<tag k="place" v="isolated_dwelling" />
		<tag k="ssr:date" v="2019-12-27" />
		<tag k="ssr:gruppe" v="gardsbebyggelse" />
		<tag k="ssr:hovedgruppe" v="bebyggelse" />
		<tag k="ssr:stedsnr" v="189712" />
		<tag k="ssr:type" v="seterStøl" />
	</node>
	<node lat="60.66799722587882" lon="9.499047216131535" id="-22984">
		<tag k="historic" v="shieling" />
		<tag k="name" v="Vierlia" />
		<tag k="place" v="isolated_dwelling" />
		<tag k="ssr:date" v="2019-12-27" />
		<tag k="ssr:gruppe" v="gardsbebyggelse" />
		<tag k="ssr:hovedgruppe" v="bebyggelse" />
		<tag k="ssr:stedsnr" v="189721" />
		<tag k="ssr:type" v="seterStøl" />
	</node>
	<node lat="60.743655555844995" lon="9.66197221604435" id="-22985">
		<tag k="alt_name" v="Furuhaugen" />
		<tag k="name" v="Furuberget" />
		<tag k="natural" v="hill" />
		<tag k="place" v="locality" />
		<tag k="ssr:date" v="2019-12-27" />
		<tag k="ssr:gruppe" v="høyder" />
		<tag k="ssr:hovedgruppe" v="terreng" />
		<tag k="ssr:stedsnr" v="189774" />
		<tag k="ssr:type" v="høyde" />
	</node>
	<node lat="60.563119441535356" lon="9.641127776293654" id="-22986">
		<tag k="fixme" v="consider natural=peak for the most distinct mountains in the district" />
		<tag k="name" v="Manfjellet" />
		<tag k="natural" v="hill" />
		<tag k="place" v="locality" />
		<tag k="ssr:date" v="2019-12-27" />
		<tag k="ssr:gruppe" v="høyder" />
		<tag k="ssr:hovedgruppe" v="terreng" />
		<tag k="ssr:stedsnr" v="189788" />
		<tag k="ssr:type" v="fjell" />
	</node>
	<node lat="60.59407499992597" lon="9.856850000452473" id="-22987">
		<tag k="fixme" v="consider natural=peak for the most distinct mountains in the district" />
		<tag k="name" v="Strømsåsen" />
		<tag k="natural" v="hill" />
		<tag k="place" v="locality" />
		<tag k="ssr:date" v="2019-12-27" />
		<tag k="ssr:gruppe" v="høyder" />
		<tag k="ssr:hovedgruppe" v="terreng" />
		<tag k="ssr:stedsnr" v="189902" />
		<tag k="ssr:type" v="ås" />
	</node>
	<node lat="60.73585555627219" lon="9.645833336119667" id="-22988">
		<tag k="alt_name" v="Kattulhøgde" />
		<tag k="name" v="Kattuglehøgdi" />
		<tag k="natural" v="hill" />
		<tag k="place" v="locality" />
		<tag k="ssr:date" v="2019-12-27" />
		<tag k="ssr:gruppe" v="høyder" />
		<tag k="ssr:hovedgruppe" v="terreng" />
		<tag k="ssr:stedsnr" v="189936" />
		<tag k="ssr:type" v="haug" />
	</node>
	<node lat="60.649894443634814" lon="9.805611112575093" id="-22989">
		<tag k="name" v="Enga" />
		<tag k="place" v="farm" />
		<tag k="ssr:date" v="2019-12-27" />
		<tag k="ssr:gruppe" v="gardsbebyggelse" />
		<tag k="ssr:hovedgruppe" v="bebyggelse" />
		<tag k="ssr:stedsnr" v="189961" />
		<tag k="ssr:type" v="bruk" />
	</node>
	<node lat="60.634866663777245" lon="9.690944439549861" id="-22990">
		<tag k="alt_name" v="Østal" />
		<tag k="name" v="Østdal" />
		<tag k="place" v="farm" />
		<tag k="ssr:date" v="2019-12-27" />
		<tag k="ssr:gruppe" v="gardsbebyggelse" />
		<tag k="ssr:hovedgruppe" v="bebyggelse" />
		<tag k="ssr:stedsnr" v="189962" />
		<tag k="ssr:type" v="bruk" />
	</node>
	<node lat="60.62811863236649" lon="9.688195613291068" id="-22991">
		<tag k="fixme" v="consider place=hamlet" />
		<tag k="name" v="Berg" />
		<tag k="place" v="farm" />
		<tag k="ssr:date" v="2019-12-27" />
		<tag k="ssr:gruppe" v="gardsbebyggelse" />
		<tag k="ssr:hovedgruppe" v="bebyggelse" />
		<tag k="ssr:stedsnr" v="189965" />
		<tag k="ssr:type" v="gard" />
	</node>
	<node lat="60.8465500004513" lon="9.468011105837961" id="-22992">
		<tag k="name" v="Brenneknatten" />
		<tag k="natural" v="hill" />
		<tag k="place" v="locality" />
		<tag k="ssr:date" v="2019-12-27" />
		<tag k="ssr:gruppe" v="høyder" />
		<tag k="ssr:hovedgruppe" v="terreng" />
		<tag k="ssr:stedsnr" v="190660" />
		<tag k="ssr:type" v="haug" />
	</node>
	<node lat="60.852886114638835" lon="9.517722227881551" id="-22993">
		<tag k="alt_name" v="Pislabekken" />
		<tag k="name" v="Pisla" />
		<tag k="ssr:date" v="2019-12-27" />
		<tag k="ssr:gruppe" v="rennendeVann" />
		<tag k="ssr:hovedgruppe" v="ferskvann" />
		<tag k="ssr:stedsnr" v="190663" />
		<tag k="ssr:type" v="bekk" />
		<tag k="waterway" v="stream" />
	</node>
	<node lat="60.83085277849804" lon="9.471366672993053" id="-22994">
		<tag k="name" v="Brøtatn" />
		<tag k="place" v="farm" />
		<tag k="ssr:date" v="2019-12-27" />
		<tag k="ssr:gruppe" v="gardsbebyggelse" />
		<tag k="ssr:hovedgruppe" v="bebyggelse" />
		<tag k="ssr:stedsnr" v="190875" />
		<tag k="ssr:type" v="bruk" />
	</node>
	<node lat="60.77142222600348" lon="9.6725611039236" id="-22995">
		<tag k="name" v="Høgeberget" />
		<tag k="natural" v="hill" />
		<tag k="place" v="locality" />
		<tag k="ssr:date" v="2019-12-27" />
		<tag k="ssr:gruppe" v="høyder" />
		<tag k="ssr:hovedgruppe" v="terreng" />
		<tag k="ssr:stedsnr" v="191104" />
		<tag k="ssr:type" v="berg" />
	</node>
	<node lat="60.81768055321734" lon="9.68989167218126" id="-22996">
		<tag k="name" v="Svarttjernbekken" />
		<tag k="ssr:date" v="2019-12-27" />
		<tag k="ssr:gruppe" v="rennendeVann" />
		<tag k="ssr:hovedgruppe" v="ferskvann" />
		<tag k="ssr:stedsnr" v="191167" />
		<tag k="ssr:type" v="bekk" />
		<tag k="waterway" v="stream" />
	</node>
	<node lat="60.81515215409535" lon="9.757036722504255" id="-22997">
		<tag k="alt_name" v="Skjærstein" />
		<tag k="fixme" v="consider place=hamlet" />
		<tag k="name" v="Skjerstein" />
		<tag k="place" v="farm" />
		<tag k="ssr:date" v="2019-12-27" />
		<tag k="ssr:gruppe" v="gardsbebyggelse" />
		<tag k="ssr:hovedgruppe" v="bebyggelse" />
		<tag k="ssr:stedsnr" v="191205" />
		<tag k="ssr:type" v="gard" />
	</node>
	<node lat="60.753086107849974" lon="9.558188889373863" id="-22998">
		<tag k="alt_name" v="Hølersæterbekken" />
		<tag k="name" v="Hølbekken" />
		<tag k="ssr:date" v="2019-12-27" />
		<tag k="ssr:gruppe" v="rennendeVann" />
		<tag k="ssr:hovedgruppe" v="ferskvann" />
		<tag k="ssr:stedsnr" v="191708" />
		<tag k="ssr:type" v="bekk" />
		<tag k="waterway" v="stream" />
	</node>
	<node lat="60.78851111351031" lon="9.498755560440669" id="-22999">
		<tag k="alt_name" v="Skrubblia" />
		<tag k="name" v="Skrubbelii" />
		<tag k="place" v="isolated_dwelling" />
		<tag k="ssr:date" v="2019-12-27" />
		<tag k="ssr:gruppe" v="bolighus" />
		<tag k="ssr:hovedgruppe" v="bebyggelse" />
		<tag k="ssr:stedsnr" v="191752" />
		<tag k="ssr:type" v="fritidsbolig" />
	</node>
	<node lat="60.79872500031553" lon="9.584277773693254" id="-23000">
		<tag k="alt_name" v="Lindelie" />
		<tag k="name" v="Lindelii" />
		<tag k="place" v="isolated_dwelling" />
		<tag k="ssr:date" v="2019-12-27" />
		<tag k="ssr:gruppe" v="bolighus" />
		<tag k="ssr:hovedgruppe" v="bebyggelse" />
		<tag k="ssr:stedsnr" v="191799" />
		<tag k="ssr:type" v="eneboligMindreBoligbygg" />
	</node>
	<node lat="60.62463055551438" lon="9.90703888308294" id="-23001">
		<tag k="name" v="Røvsholoa" />
		<tag k="place" v="locality" />
		<tag k="ssr:date" v="2019-12-27" />
		<tag k="ssr:gruppe" v="dyrkamark" />
		<tag k="ssr:hovedgruppe" v="markslag" />
		<tag k="ssr:stedsnr" v="221479" />
		<tag k="ssr:type" v="jorde" />
	</node>
	<node lat="60.72411388933136" lon="9.783980557125908" id="-23002">
		<tag k="name" v="Hellemyr" />
		<tag k="natural" v="wetland" />
		<tag k="ssr:date" v="2019-12-27" />
		<tag k="ssr:gruppe" v="våtmark" />
		<tag k="ssr:hovedgruppe" v="markslag" />
		<tag k="ssr:stedsnr" v="221513" />
		<tag k="ssr:type" v="myr" />
	</node>
	<node lat="60.8715277807726" lon="9.477919453519085" id="-23003">
		<tag k="name" v="Purkekleive" />
		<tag k="natural" v="slope" />
		<tag k="place" v="locality" />
		<tag k="ssr:date" v="2019-12-27" />
		<tag k="ssr:gruppe" v="skråninger" />
		<tag k="ssr:hovedgruppe" v="terreng" />
		<tag k="ssr:stedsnr" v="221706" />
		<tag k="ssr:type" v="li" />
	</node>
	<node lat="60.53451944070972" lon="9.734658336120768" id="-23004">
		<tag k="name" v="Fjøbekken" />
		<tag k="ssr:date" v="2019-12-27" />
		<tag k="ssr:gruppe" v="rennendeVann" />
		<tag k="ssr:hovedgruppe" v="ferskvann" />
		<tag k="ssr:stedsnr" v="221804" />
		<tag k="ssr:type" v="bekk" />
		<tag k="waterway" v="stream" />
	</node>
	<node lat="60.49866944895581" lon="9.780422218749882" id="-23005">
		<tag k="name" v="Stordalen" />
		<tag k="natural" v="valley" />
		<tag k="place" v="locality" />
		<tag k="ssr:date" v="2019-12-27" />
		<tag k="ssr:gruppe" v="senkninger" />
		<tag k="ssr:hovedgruppe" v="terreng" />
		<tag k="ssr:stedsnr" v="221808" />
		<tag k="ssr:type" v="dal" />
	</node>
	<node lat="60.83008989073745" lon="9.498046663072108" id="-23006">
		<tag k="alt_name" v="Kolsgard;Kollsgard" />
		<tag k="fixme" v="consider place=hamlet" />
		<tag k="name" v="Framgard" />
		<tag k="place" v="farm" />
		<tag k="ssr:date" v="2019-12-27" />
		<tag k="ssr:gruppe" v="gardsbebyggelse" />
		<tag k="ssr:hovedgruppe" v="bebyggelse" />
		<tag k="ssr:stedsnr" v="221816" />
		<tag k="ssr:type" v="gard" />
	</node>
	<node lat="60.7229250034235" lon="9.476258337122225" id="-23007">
		<tag k="name" v="Bukfyllbrenn" />
		<tag k="place" v="locality" />
		<tag k="ssr:date" v="2019-12-27" />
		<tag k="ssr:gruppe" v="vegetasjon" />
		<tag k="ssr:hovedgruppe" v="markslag" />
		<tag k="ssr:stedsnr" v="221881" />
		<tag k="ssr:type" v="skog" />
	</node>
	<node lat="60.78977658613149" lon="9.58668342858348" id="-23008">
		<tag k="alt_name" v="Bergatn" />
		<tag k="loc_name" v="Bergene" />
		<tag k="name" v="Bergan" />
		<tag k="place" v="locality" />
		<tag k="ssr:date" v="2021-09-28" />
		<tag k="ssr:gruppe" v="gardsbebyggelse" />
		<tag k="ssr:hovedgruppe" v="bebyggelse" />
		<tag k="ssr:stedsnr" v="494772" />
		<tag k="ssr:type" v="eiendom" />
	</node>
	<node lat="60.63575277616822" lon="9.657783329332105" id="-23009">
		<tag k="name" v="Søre Flaten" />
		<tag k="place" v="farm" />
		<tag k="ssr:date" v="2019-12-27" />
		<tag k="ssr:gruppe" v="gardsbebyggelse" />
		<tag k="ssr:hovedgruppe" v="bebyggelse" />
		<tag k="ssr:stedsnr" v="232828" />
		<tag k="ssr:type" v="bruk" />
	</node>
	<node lat="60.6676694404525" lon="9.917802779840672" id="-23010">
		<tag k="name" v="Reisenbein" />
		<tag k="place" v="isolated_dwelling" />
		<tag k="ssr:date" v="2019-12-27" />
		<tag k="ssr:gruppe" v="bolighus" />
		<tag k="ssr:hovedgruppe" v="bebyggelse" />
		<tag k="ssr:stedsnr" v="240005" />
		<tag k="ssr:type" v="fritidsbolig" />
	</node>
	<node lat="60.73641666235676" lon="9.478236116502165" id="-23011">
		<tag k="name" v="Kjeldemyrbekken" />
		<tag k="ssr:date" v="2019-12-27" />
		<tag k="ssr:gruppe" v="rennendeVann" />
		<tag k="ssr:hovedgruppe" v="ferskvann" />
		<tag k="ssr:stedsnr" v="240244" />
		<tag k="ssr:type" v="bekk" />
		<tag k="waterway" v="stream" />
	</node>
	<node lat="60.816855554272784" lon="9.544594441672652" id="-23012">
		<tag k="name" v="Torsrudgrenda" />
		<tag k="place" v="hamlet" />
		<tag k="ssr:date" v="2019-12-27" />
		<tag k="ssr:gruppe" v="bebyggelsesområder" />
		<tag k="ssr:hovedgruppe" v="bebyggelse" />
		<tag k="ssr:stedsnr" v="240247" />
		<tag k="ssr:type" v="grend" />
	</node>
	<node lat="60.69255555351057" lon="9.601649993413385" id="-23013">
		<tag k="name" v="Storemyr" />
		<tag k="natural" v="wetland" />
		<tag k="ssr:date" v="2019-12-27" />
		<tag k="ssr:gruppe" v="våtmark" />
		<tag k="ssr:hovedgruppe" v="markslag" />
		<tag k="ssr:stedsnr" v="240180" />
		<tag k="ssr:type" v="myr" />
	</node>
	<node lat="60.76226944647664" lon="9.662222214968567" id="-23014">
		<tag k="name" v="Åmot" />
		<tag k="place" v="isolated_dwelling" />
		<tag k="ssr:date" v="2019-12-27" />
		<tag k="ssr:gruppe" v="bolighus" />
		<tag k="ssr:hovedgruppe" v="bebyggelse" />
		<tag k="ssr:stedsnr" v="240185" />
		<tag k="ssr:type" v="eneboligMindreBoligbygg" />
	</node>
	<node lat="60.76793333117207" lon="9.690052773582218" id="-23015">
		<tag k="name" v="Teinongrenna" />
		<tag k="natural" v="valley" />
		<tag k="place" v="locality" />
		<tag k="ssr:date" v="2019-12-27" />
		<tag k="ssr:gruppe" v="senkninger" />
		<tag k="ssr:hovedgruppe" v="terreng" />
		<tag k="ssr:stedsnr" v="240187" />
		<tag k="ssr:type" v="dal" />
	</node>
	<node lat="60.74345000186503" lon="9.923113888978165" id="-23016">
		<tag k="name" v="Bjørndalstjerna" />
		<tag k="natural" v="water" />
		<tag k="ssr:date" v="2019-12-27" />
		<tag k="ssr:gruppe" v="stilleståendeVann" />
		<tag k="ssr:hovedgruppe" v="ferskvann" />
		<tag k="ssr:stedsnr" v="240193" />
		<tag k="ssr:type" v="gruppeAvTjern" />
		<tag k="water" v="lake" />
	</node>
	<node lat="60.61655277755994" lon="9.464275005386382" id="-23017">
		<tag k="name" v="Helserfjellet" />
		<tag k="natural" v="hill" />
		<tag k="place" v="locality" />
		<tag k="ssr:date" v="2019-12-27" />
		<tag k="ssr:gruppe" v="høyder" />
		<tag k="ssr:hovedgruppe" v="terreng" />
		<tag k="ssr:stedsnr" v="240388" />
		<tag k="ssr:type" v="høyde" />
	</node>
	<node lat="60.60698610950352" lon="9.473944436810495" id="-23018">
		<tag k="loc_name" v="Hellsæøya" />
		<tag k="name" v="Helserøya" />
		<tag k="place" v="island" />
		<tag k="ssr:date" v="2019-12-27" />
		<tag k="ssr:gruppe" v="ferskvannskontur" />
		<tag k="ssr:hovedgruppe" v="ferskvann" />
		<tag k="ssr:stedsnr" v="240391" />
		<tag k="ssr:type" v="øy" />
	</node>
	<node lat="60.74068055568437" lon="9.53842777418185" id="-23019">
		<tag k="name" v="Øddatn" />
		<tag k="natural" v="cape" />
		<tag k="ssr:date" v="2019-12-27" />
		<tag k="ssr:gruppe" v="ferskvannskontur" />
		<tag k="ssr:hovedgruppe" v="ferskvann" />
		<tag k="ssr:stedsnr" v="240477" />
		<tag k="ssr:type" v="nes" />
	</node>
	<node lat="60.752516665836474" lon="9.527294436252003" id="-23020">
		<tag k="name" v="Purkefeten" />
		<tag k="place" v="locality" />
		<tag k="ssr:date" v="2019-12-27" />
		<tag k="ssr:gruppe" v="flater" />
		<tag k="ssr:hovedgruppe" v="terreng" />
		<tag k="ssr:stedsnr" v="240479" />
		<tag k="ssr:type" v="slette" />
	</node>
</osm>
