<?xml version="1.0" encoding="UTF-8"?>
<<<<<<< HEAD
<osm version="0.6" generator="osmapis">
	<node lat="58.625811111897896" lon="8.808047221226298" id="-21475">
		<tag k="alt_name" v="Glytjenn" />
		<tag k="name" v="Glytjern" />
		<tag k="natural" v="water" />
		<tag k="ssr:stedsnr" v="754" />
	</node>
	<node lat="58.641930553605185" lon="9.068530558378503" id="-21478">
		<tag k="alt_name" v="Størdalsvann" />
		<tag k="name" v="Størdalsvannet" />
		<tag k="natural" v="water" />
		<tag k="ssr:stedsnr" v="1386" />
		<tag k="water" v="lake" />
	</node>
	<node lat="58.69716389222187" lon="8.964166660427354" id="-21494">
		<tag k="name" v="Sandvanns-strandene" />
		<tag k="natural" v="beach" />
		<tag k="ssr:stedsnr" v="29322" />
	</node>
	<node lat="58.67948611559562" lon="9.060661113786272" id="-21504">
		<tag k="name" v="Strømvollen" />
		<tag k="natural" v="beach" />
		<tag k="ssr:stedsnr" v="29429" />
	</node>
	<node lat="58.679605552494436" lon="9.037502774483325" id="-21511">
		<tag k="name" v="Øygardstranda" />
		<tag k="natural" v="beach" />
		<tag k="ssr:stedsnr" v="29617" />
	</node>
	<node lat="58.63748055195938" lon="8.945522230813541" id="-21519">
		<tag k="name" v="Pytten" />
		<tag k="natural" v="water" />
		<tag k="ssr:stedsnr" v="29705" />
		<tag k="water" v="pond" />
	</node>
	<node lat="58.59865555691496" lon="8.909297222254265" id="-21535">
		<tag k="name" v="Langtjenn" />
		<tag k="natural" v="water" />
		<tag k="ssr:stedsnr" v="29874" />
	</node>
	<node lat="58.5961638890346" lon="8.922672226673116" id="-21536">
		<tag k="name" v="Midttjenn" />
		<tag k="natural" v="water" />
		<tag k="ssr:stedsnr" v="29879" />
	</node>
	<node lat="58.594461111993084" lon="8.912180560798923" id="-21538">
		<tag k="name" v="Pøddetjenn" />
		<tag k="natural" v="water" />
		<tag k="ssr:stedsnr" v="29888" />
	</node>
	<node lat="58.59911110918559" lon="8.83598334005863" id="-21549">
		<tag k="alt_name" v="Mellomtjenn" />
		<tag k="name" v="Mellomtjern" />
		<tag k="natural" v="water" />
		<tag k="ssr:stedsnr" v="61822" />
	</node>
	<node lat="58.61838611025421" lon="8.786377778416846" id="-21552">
		<tag k="alt_name" v="Stortjenn" />
		<tag k="name" v="Stortjern" />
		<tag k="natural" v="water" />
		<tag k="ssr:stedsnr" v="62805" />
	</node>
	<node lat="58.574619443157154" lon="8.91328333916795" id="-21559">
		<tag k="alt_name" v="Midttjenn" />
		<tag k="name" v="Midttjern" />
		<tag k="natural" v="water" />
		<tag k="ssr:stedsnr" v="243250" />
	</node>
	<node lat="58.68804444551817" lon="8.993066667731409" id="-21571">
		<tag k="alt_name" v="Tvitjennene" />
		<tag k="name" v="Tvitjørnane" />
		<tag k="natural" v="water" />
		<tag k="ssr:stedsnr" v="243465" />
		<tag k="water" v="lake" />
	</node>
	<node lat="58.66344999629719" lon="9.099363889495987" id="-21573">
		<tag k="name" v="Folevann" />
		<tag k="natural" v="water" />
		<tag k="ssr:stedsnr" v="243418" />
		<tag k="water" v="lake" />
	</node>
	<node lat="58.598169444534165" lon="8.798116666548012" id="-21575">
		<tag k="alt_name" v="Sortetjenn" />
		<tag k="name" v="Sortetjern" />
		<tag k="natural" v="water" />
		<tag k="ssr:stedsnr" v="243826" />
	</node>
	<node lat="58.613930552491496" lon="8.979461104037888" id="-21577">
=======
<osm generator="osmapis" version="0.6">
	<node id="-524288" lat="58.6858861152" lon="9.01068611">
		<tag k="name" v="Svinerbukta" />
		<tag k="natural" v="bay" />
		<tag k="ssr:stedsnr" v="272098" />
	</node>
	<node id="-524282" lat="58.6675642888" lon="9.02241686852">
		<tag k="name" v="Stimyrtjenn" />
		<tag k="natural" v="water" />
		<tag k="ssr:stedsnr" v="272043" />
	</node>
	<node id="-526329" lat="58.6624722249" lon="8.84873611054">
		<tag k="name" v="Lisbettjenn" />
		<tag k="natural" v="water" />
		<tag k="ssr:stedsnr" v="393975" />
	</node>
	<node id="-524278" lat="58.5845138852" lon="8.87298888584">
		<tag k="name" v="Nordtjenn" />
		<tag k="natural" v="water" />
		<tag k="ssr:stedsnr" v="272077" />
	</node>
	<node id="-524269" lat="58.6268638851" lon="8.97724999955">
		<tag k="name" v="Bærholmen" />
		<tag k="place" v="islet" />
		<tag k="ssr:stedsnr" v="90710" />
	</node>
	<node id="-524267" lat="58.6441138905" lon="9.03951110706">
		<tag k="name" v="Askedalstjenn" />
		<tag k="natural" v="water" />
		<tag k="ssr:stedsnr" v="90703" />
	</node>
	<node id="-524266" lat="58.6218083371" lon="8.92208333207">
		<tag k="name" v="Lisletjenn" />
		<tag k="natural" v="water" />
		<tag k="ssr:stedsnr" v="90631" />
	</node>
	<node id="-524263" lat="58.6845166637" lon="9.00730555577">
		<tag k="name" v="Nesbakkodden" />
		<tag k="natural" v="cape" />
		<tag k="ssr:stedsnr" v="90611" />
	</node>
	<node id="-526310" lat="58.6251222242" lon="9.03713055012">
		<tag k="name" v="Størdalstjenn" />
		<tag k="natural" v="water" />
		<tag k="ssr:stedsnr" v="393531" />
	</node>
	<node id="-526309" lat="58.6215083366" lon="8.9740972277">
		<tag k="name" v="Løkreistjenn" />
		<tag k="natural" v="water" />
		<tag k="ssr:stedsnr" v="393525" />
	</node>
	<node id="-524258" lat="58.6433388893" lon="8.75774722402">
		<tag k="alt_name" v="Kyllandstjenn" />
		<tag k="name" v="Kyllandstjern" />
		<tag k="natural" v="water" />
		<tag k="ssr:stedsnr" v="244988" />
	</node>
	<node id="-524256" lat="58.6344412235" lon="8.76056271255">
		<tag k="name" v="Markvann" />
		<tag k="natural" v="water" />
		<tag k="ssr:stedsnr" v="244790" />
	</node>
	<node id="-524247" lat="58.6139305525" lon="8.97946110404">
>>>>>>> e1d4bc35ff8a6074a6f2e91616a996b547c36f15
		<tag k="name" v="Stokkebovannet" />
		<tag k="natural" v="water" />
		<tag k="ssr:stedsnr" v="244328" />
		<tag k="water" v="lake" />
	</node>
<<<<<<< HEAD
	<node lat="58.6493083317378" lon="9.11450834067041" id="-21585">
		<tag k="name" v="Gjevingelva" />
		<tag k="ssr:stedsnr" v="90067" />
		<tag k="waterway" v="stream" />
	</node>
	<node lat="58.62523055477638" lon="8.925174998483083" id="-21589">
		<tag k="name" v="Fjæretjenn" />
		<tag k="natural" v="water" />
		<tag k="ssr:stedsnr" v="90079" />
	</node>
	<node lat="58.67031967061922" lon="9.096663448247002" id="-21598">
		<tag k="name" v="Maurnestjenn" />
		<tag k="natural" v="water" />
		<tag k="ssr:stedsnr" v="90385" />
	</node>
	<node lat="58.68451666370053" lon="9.007305555767203" id="-21604">
		<tag k="name" v="Nesbakkodden" />
		<tag k="natural" v="cape" />
		<tag k="ssr:stedsnr" v="90611" />
	</node>
	<node lat="58.64383055940588" lon="9.01828333282757" id="-21614">
		<tag k="name" v="Tretjennene" />
		<tag k="natural" v="water" />
		<tag k="ssr:stedsnr" v="90718" />
		<tag k="water" v="lake" />
	</node>
	<node lat="58.58986388596073" lon="8.841822229888962" id="-21625">
		<tag k="name" v="Skålandsbekken" />
		<tag k="ssr:stedsnr" v="90865" />
		<tag k="waterway" v="stream" />
	</node>
	<node lat="58.59963888559737" lon="8.92320277480562" id="-21636">
		<tag k="name" v="Langvann" />
		<tag k="natural" v="water" />
		<tag k="ssr:stedsnr" v="121331" />
	</node>
	<node lat="58.59583055897721" lon="8.79283055481408" id="-21652">
		<tag k="name" v="Bjorneset" />
		<tag k="natural" v="cape" />
		<tag k="ssr:stedsnr" v="150211" />
	</node>
	<node lat="58.54706110797509" lon="8.882899992373478" id="-21657">
		<tag k="name" v="Vassøya" />
		<tag k="natural" v="cape" />
		<tag k="ssr:stedsnr" v="150115" />
	</node>
	<node lat="58.6739694418155" lon="9.010255561996871" id="-21664">
		<tag k="name" v="Dypbukt" />
		<tag k="natural" v="bay" />
		<tag k="ssr:stedsnr" v="150603" />
	</node>
	<node lat="58.6781916634749" lon="9.009908329813445" id="-21665">
		<tag k="name" v="Nordstrand" />
		<tag k="natural" v="beach" />
		<tag k="ssr:stedsnr" v="150605" />
	</node>
	<node lat="58.682049996064954" lon="9.000894447148399" id="-21666">
		<tag k="name" v="Lindholmen" />
		<tag k="natural" v="cape" />
		<tag k="ssr:stedsnr" v="150607" />
	</node>
	<node lat="58.67037236836828" lon="8.900513822652291" id="-21683">
		<tag k="name" v="Småtjennene" />
		<tag k="natural" v="water" />
		<tag k="ssr:stedsnr" v="150777" />
		<tag k="water" v="lake" />
	</node>
	<node lat="58.60838056001" lon="8.847788882851013" id="-21685">
		<tag k="name" v="Finestjennene" />
		<tag k="natural" v="water" />
		<tag k="ssr:stedsnr" v="150909" />
		<tag k="water" v="lake" />
	</node>
	<node lat="58.67562222421027" lon="9.023391660033518" id="-21702">
		<tag k="name" v="Nævestadholmen" />
		<tag k="place" v="islet" />
		<tag k="ssr:stedsnr" v="272562" />
	</node>
	<node lat="58.654700000849274" lon="9.052683325222747" id="-21710">
		<tag k="name" v="Hofsdalsvannet" />
		<tag k="natural" v="water" />
		<tag k="ssr:stedsnr" v="183368" />
		<tag k="water" v="lake" />
	</node>
	<node lat="58.69624999998867" lon="8.962816660098179" id="-21714">
		<tag k="name" v="Sandvannet" />
		<tag k="natural" v="water" />
		<tag k="ssr:stedsnr" v="183454" />
		<tag k="water" v="lake" />
	</node>
	<node lat="58.67881388998256" lon="9.043197222226995" id="-21715">
		<tag k="name" v="Vellingodden" />
		<tag k="natural" v="cape" />
		<tag k="ssr:stedsnr" v="272567" />
	</node>
	<node lat="58.57957500226026" lon="8.932333328406022" id="-21728">
		<tag k="name" v="Mauren" />
		<tag k="place" v="islet" />
		<tag k="ssr:stedsnr" v="211102" />
	</node>
	<node lat="58.56909444760044" lon="8.860763893997142" id="-21730">
		<tag k="name" v="Styggtjenn" />
		<tag k="natural" v="water" />
		<tag k="ssr:stedsnr" v="211108" />
	</node>
	<node lat="58.57137500427926" lon="8.856750001332774" id="-21732">
		<tag k="name" v="Lille Styggtjenn" />
		<tag k="natural" v="water" />
		<tag k="ssr:stedsnr" v="211116" />
	</node>
	<node lat="58.60019166495951" lon="8.798458337967832" id="-21736">
		<tag k="name" v="Øyneselva" />
		<tag k="ssr:stedsnr" v="211207" />
		<tag k="waterway" v="stream" />
	</node>
	<node lat="58.68993888646775" lon="9.015802778934084" id="-21737">
		<tag k="name" v="Nautvahølen" />
		<tag k="place" v="locality" />
		<tag k="ssr:stedsnr" v="211286" />
	</node>
	<node lat="58.66585000366547" lon="9.042716674094049" id="-21744">
		<tag k="name" v="Orstjenn" />
		<tag k="natural" v="water" />
		<tag k="ssr:stedsnr" v="211361" />
	</node>
	<node lat="58.66570277596429" lon="9.000144445085766" id="-21745">
		<tag k="name" v="Kilbekken" />
		<tag k="ssr:stedsnr" v="211365" />
		<tag k="waterway" v="stream" />
	</node>
	<node lat="58.65106111191011" lon="8.900663890743862" id="-21790">
		<tag k="name" v="Lauvlandstjenn" />
		<tag k="natural" v="water" />
		<tag k="ssr:stedsnr" v="272750" />
	</node>
	<node lat="58.603933329413714" lon="8.808252776116747" id="-21793">
		<tag k="name" v="Bleikvann" />
		<tag k="natural" v="water" />
		<tag k="ssr:stedsnr" v="243783" />
	</node>
	<node lat="58.53916944410457" lon="8.873441666891784" id="-21794">
		<tag k="name" v="Langangsvannet" />
		<tag k="natural" v="water" />
		<tag k="ssr:stedsnr" v="244236" />
	</node>
	<node lat="58.63444122348195" lon="8.760562712553428" id="-21805">
		<tag k="name" v="Markvann" />
		<tag k="natural" v="water" />
		<tag k="ssr:stedsnr" v="244790" />
	</node>
	<node lat="58.64333888929292" lon="8.757747224022795" id="-21807">
		<tag k="alt_name" v="Kyllandstjenn" />
		<tag k="name" v="Kyllandstjern" />
		<tag k="natural" v="water" />
		<tag k="ssr:stedsnr" v="244988" />
	</node>
	<node lat="58.662355556074836" lon="9.091425000550336" id="-21814">
		<tag k="name" v="Folevannskilen" />
		<tag k="natural" v="bay" />
		<tag k="ssr:stedsnr" v="454106" />
	</node>
	<node lat="58.643622224046595" lon="8.883333335709404" id="-21818">
		<tag k="name" v="Stebekk" />
		<tag k="ssr:stedsnr" v="454880" />
		<tag k="waterway" v="stream" />
	</node>
	<node lat="58.65405555256239" lon="9.044855551431256" id="-21823">
		<tag k="name" v="Hofsdalsøya" />
		<tag k="place" v="island" />
		<tag k="ssr:stedsnr" v="454034" />
	</node>
	<node lat="58.65221389319058" lon="9.043300007857415" id="-21825">
		<tag k="name" v="Øysundet" />
		<tag k="natural" v="strait" />
		<tag k="ssr:stedsnr" v="454334" />
	</node>
	<node lat="58.6111611154027" lon="8.745730550910757" id="-21831">
		<tag k="name" v="Beindalstjenn" />
		<tag k="natural" v="water" />
		<tag k="ssr:stedsnr" v="454042" />
	</node>
	<node lat="58.693161111181794" lon="9.025391658260443" id="-21835">
		<tag k="name" v="Løvdalsdammen" />
		<tag k="ssr:stedsnr" v="454287" />
		<tag k="waterway" v="dam" />
	</node>
	<node lat="58.672091667189534" lon="9.047222216118262" id="-21837">
		<tag k="name" v="Lilletjenn" />
		<tag k="natural" v="water" />
		<tag k="ssr:stedsnr" v="454398" />
	</node>
	<node lat="58.63215555499411" lon="9.048852784555013" id="-21844">
		<tag k="name" v="Knutesund" />
		<tag k="natural" v="strait" />
		<tag k="ssr:stedsnr" v="454500" />
	</node>
	<node lat="58.6726277794073" lon="8.998000007199947" id="-21852">
		<tag k="name" v="Hessnesstranda" />
		<tag k="natural" v="beach" />
		<tag k="ssr:stedsnr" v="454636" />
	</node>
	<node lat="58.5961972195806" lon="8.985377781299244" id="-21854">
		<tag k="name" v="Lona" />
		<tag k="natural" v="water" />
		<tag k="ssr:stedsnr" v="454655" />
		<tag k="water" v="lake" />
	</node>
	<node lat="58.62617777516006" lon="8.967175005992372" id="-21861">
		<tag k="name" v="Vaskeholmen" />
		<tag k="place" v="islet" />
		<tag k="ssr:stedsnr" v="454757" />
	</node>
	<node lat="58.676797225325934" lon="8.905688891275288" id="-21862">
		<tag k="name" v="Eidet" />
		<tag k="place" v="locality" />
		<tag k="ssr:stedsnr" v="454831" />
	</node>
	<node lat="58.64876388955294" lon="9.021002779830708" id="-21885">
		<tag k="name" v="Bærtjenn" />
		<tag k="natural" v="water" />
		<tag k="ssr:stedsnr" v="272296" />
	</node>
	<node lat="58.678069444222636" lon="9.053772223072652" id="-21886">
		<tag k="name" v="Strandene" />
		<tag k="natural" v="beach" />
		<tag k="ssr:stedsnr" v="272403" />
	</node>
	<node lat="58.667658334389934" lon="9.075533329186499" id="-21889">
		<tag k="name" v="Igletjenn" />
		<tag k="natural" v="water" />
		<tag k="ssr:stedsnr" v="272382" />
	</node>
	<node lat="58.66996944787619" lon="9.090502784364002" id="-21890">
		<tag k="name" v="Maurnes" />
		<tag k="natural" v="cape" />
		<tag k="ssr:stedsnr" v="272386" />
	</node>
	<node lat="58.6702027765166" lon="9.088055556283859" id="-21891">
		<tag k="name" v="Gulspettholmen" />
		<tag k="natural" v="cape" />
		<tag k="ssr:stedsnr" v="272387" />
	</node>
	<node lat="58.670341664697304" lon="8.983280558893945" id="-21899">
		<tag k="name" v="Huodden" />
		<tag k="natural" v="cape" />
		<tag k="ssr:stedsnr" v="272529" />
	</node>
	<node lat="58.61051666262189" lon="8.912494437617339" id="-21903">
		<tag k="name" v="Heståsmyrtjenn" />
		<tag k="natural" v="water" />
		<tag k="ssr:stedsnr" v="272611" />
	</node>
	<node lat="58.64328055398872" lon="9.025605552934127" id="-21905">
		<tag k="name" v="Haukrotjenn" />
		<tag k="natural" v="water" />
		<tag k="ssr:stedsnr" v="272680" />
		<tag k="water" v="pond" />
	</node>
	<node lat="58.67898055271615" lon="9.020325004381881" id="-21909">
		<tag k="name" v="Vika" />
		<tag k="natural" v="bay" />
		<tag k="ssr:stedsnr" v="272579" />
	</node>
	<node lat="58.65490277779312" lon="8.917391668567117" id="-21910">
		<tag k="name" v="Igletjenn" />
		<tag k="natural" v="water" />
		<tag k="ssr:stedsnr" v="272722" />
	</node>
	<node lat="58.6549238891603" lon="8.998836368356407" id="-21919">
		<tag k="alt_name" v="Bjellandsvann" />
		<tag k="name" v="Bjellandsvannet" />
		<tag k="natural" v="water" />
		<tag k="ssr:stedsnr" v="304404" />
	</node>
	<node lat="58.64914444529198" lon="8.900813884436706" id="-21921">
		<tag k="alt_name" v="Langtjenn" />
		<tag k="name" v="Langtjern" />
=======
	<node id="-524246" lat="58.5391694441" lon="8.87344166689">
		<tag k="name" v="Langangsvannet" />
		<tag k="natural" v="water" />
		<tag k="ssr:stedsnr" v="244236" />
	</node>
	<node id="-524245" lat="58.6039333294" lon="8.80825277612">
		<tag k="name" v="Bleikvann" />
		<tag k="natural" v="water" />
		<tag k="ssr:stedsnr" v="243783" />
	</node>
	<node id="-526286" lat="58.6936666623" lon="8.96274167093">
		<tag k="name" v="Sandvamellom" />
		<tag k="natural" v="strait" />
		<tag k="ssr:stedsnr" v="393292" />
	</node>
	<node id="-526283" lat="58.6891722218" lon="9.03535833796">
		<tag k="name" v="Eikedalsbekken" />
		<tag k="ssr:stedsnr" v="393271" />
		<tag k="waterway" v="stream" />
	</node>
	<node id="-526282" lat="58.6878333337" lon="9.07008610958">
		<tag k="name" v="Mollebekken" />
		<tag k="ssr:stedsnr" v="393404" />
		<tag k="waterway" v="stream" />
	</node>
	<node id="-524230" lat="58.6796055525" lon="9.03750277448">
		<tag k="name" v="Øygardstranda" />
		<tag k="natural" v="beach" />
		<tag k="ssr:stedsnr" v="29617" />
	</node>
	<node id="-524229" lat="58.6787055524" lon="9.04210833693">
		<tag k="name" v="Grautskjær" />
		<tag k="place" v="islet" />
		<tag k="ssr:stedsnr" v="29613" />
	</node>
	<node id="-526275" lat="58.6458416679" lon="9.06305833392">
		<tag k="name" v="Gjøseid-eidet" />
		<tag k="natural" v="strait" />
		<tag k="ssr:stedsnr" v="393137" />
	</node>
	<node id="-526274" lat="58.648274996" lon="9.06004444605">
		<tag k="name" v="Gjøseidholmen" />
		<tag k="place" v="islet" />
		<tag k="ssr:stedsnr" v="393133" />
	</node>
	<node id="-524216" lat="58.6258111119" lon="8.80804722123">
		<tag k="alt_name" v="Glytjenn" />
		<tag k="name" v="Glytjern" />
		<tag k="natural" v="water" />
		<tag k="ssr:stedsnr" v="754" />
	</node>
	<node id="-526261" lat="58.6534055555" lon="9.0394416633">
		<tag k="name" v="Granstøa" />
		<tag k="place" v="locality" />
		<tag k="ssr:stedsnr" v="384060" />
	</node>
	<node id="-526257" lat="58.6717777796" lon="8.933344453">
		<tag k="alt_name" v="Skottjenn" />
		<tag k="name" v="Skottjern" />
		<tag k="natural" v="water" />
		<tag k="ssr:stedsnr" v="365467" />
	</node>
	<node id="-526253" lat="58.6462750025" lon="8.95633889517">
		<tag k="alt_name" v="Feltstykktjenn" />
		<tag k="name" v="Feltstykktjerna" />
		<tag k="natural" v="water" />
		<tag k="ssr:stedsnr" v="365420" />
	</node>
	<node id="-526244" lat="58.5533805514" lon="8.89142499643">
		<tag k="name" v="Langangselva" />
		<tag k="ssr:stedsnr" v="365269" />
		<tag k="waterway" v="stream" />
	</node>
	<node id="-526225" lat="58.6537833346" lon="8.86949166601">
		<tag k="name" v="Saustehølen" />
		<tag k="place" v="locality" />
		<tag k="ssr:stedsnr" v="333962" />
	</node>
	<node id="-526211" lat="58.5921666636" lon="9.0233388945">
		<tag k="name" v="Øygårdstjenn" />
		<tag k="natural" v="water" />
		<tag k="ssr:stedsnr" v="333667" />
	</node>
	<node id="-526194" lat="58.6605333365" lon="8.9661055491">
		<tag k="name" v="Sævtangen" />
		<tag k="natural" v="cape" />
		<tag k="ssr:stedsnr" v="333399" />
	</node>
	<node id="-526188" lat="58.6869277738" lon="9.00563888666">
		<tag k="name" v="Songebekken" />
		<tag k="ssr:stedsnr" v="333616" />
		<tag k="waterway" v="stream" />
	</node>
	<node id="-526186" lat="58.6424249989" lon="9.07224721743">
		<tag k="name" v="Gaupholmen" />
		<tag k="place" v="islet" />
		<tag k="ssr:stedsnr" v="333495" />
	</node>
	<node id="-526175" lat="58.7028611083" lon="8.97550277054">
		<tag k="name" v="Kjerringtjenn" />
		<tag k="natural" v="water" />
		<tag k="ssr:stedsnr" v="333346" />
	</node>
	<node id="-526166" lat="58.6934361067" lon="9.06707222823">
		<tag k="name" v="Vassbotn" />
		<tag k="natural" v="bay" />
		<tag k="ssr:stedsnr" v="333095" />
	</node>
	<node id="-526161" lat="58.5898444474" lon="8.77730000569">
		<tag k="name" v="Skrattereidneset" />
		<tag k="natural" v="cape" />
		<tag k="ssr:stedsnr" v="333061" />
	</node>
	<node id="-526160" lat="58.6040805596" lon="8.76166111695">
		<tag k="name" v="Glomstjenn" />
		<tag k="natural" v="water" />
		<tag k="ssr:stedsnr" v="333052" />
	</node>
	<node id="-526151" lat="58.615002777" lon="8.79277778271">
		<tag k="name" v="Steindammen" />
		<tag k="ssr:stedsnr" v="333032" />
		<tag k="waterway" v="dam" />
	</node>
	<node id="-526149" lat="58.608647219" lon="8.80294444747">
		<tag k="name" v="Vatnebuvann" />
		<tag k="natural" v="water" />
		<tag k="ssr:stedsnr" v="304799" />
	</node>
	<node id="-526147" lat="58.6348055512" lon="8.79983333449">
		<tag k="name" v="Glydalstjenn" />
		<tag k="natural" v="water" />
		<tag k="ssr:stedsnr" v="304784" />
	</node>
	<node id="-526129" lat="58.6099305572" lon="8.85746389488">
		<tag k="alt_name" v="Langetjenn" />
		<tag k="name" v="Langtjern" />
		<tag k="natural" v="water" />
		<tag k="ssr:stedsnr" v="304334" />
	</node>
	<node id="-526128" lat="58.60375" lon="8.90341944264">
		<tag k="name" v="Vennevann" />
		<tag k="natural" v="water" />
		<tag k="ssr:stedsnr" v="304331" />
	</node>
	<node id="-526122" lat="58.5745694698" lon="8.90973225504">
		<tag k="alt_name" v="Alfstjenn" />
		<tag k="name" v="Alfstjern" />
		<tag k="natural" v="water" />
		<tag k="ssr:stedsnr" v="304255" />
	</node>
	<node id="-526107" lat="58.6675944408" lon="8.99984722024">
		<tag k="name" v="Kilbukta" />
		<tag k="natural" v="bay" />
		<tag k="ssr:stedsnr" v="212040" />
	</node>
	<node id="-526639" lat="58.5876083345" lon="9.05451667295">
		<tag k="name" v="Dalen" />
		<tag k="natural" v="water" />
		<tag k="ssr:stedsnr" v="757499" />
	</node>
	<node id="-526088" lat="58.6303722179" lon="8.97315832778">
		<tag k="name" v="Høyåstjenn" />
		<tag k="natural" v="water" />
		<tag k="ssr:stedsnr" v="211692" />
	</node>
	<node id="-526086" lat="58.6314222229" lon="8.94688056268">
		<tag k="name" v="Øvre Svarttjenn" />
		<tag k="natural" v="water" />
		<tag k="ssr:stedsnr" v="211687" />
	</node>
	<node id="-526081" lat="58.6006250042" lon="9.00913611194">
		<tag k="name" v="Hovdansbukta" />
		<tag k="natural" v="bay" />
		<tag k="ssr:stedsnr" v="211673" />
	</node>
	<node id="-526073" lat="58.6728777803" lon="9.00235834035">
		<tag k="name" v="Hessnesodden" />
		<tag k="natural" v="cape" />
		<tag k="ssr:stedsnr" v="211621" />
	</node>
	<node id="-526071" lat="58.6797388878" lon="9.02757778187">
		<tag k="name" v="Kvernnes" />
		<tag k="natural" v="cape" />
		<tag k="ssr:stedsnr" v="211615" />
	</node>
	<node id="-526048" lat="58.6899388865" lon="9.01580277893">
		<tag k="name" v="Nautvahølen" />
		<tag k="place" v="locality" />
		<tag k="ssr:stedsnr" v="211286" />
	</node>
	<node id="-526045" lat="58.665702776" lon="9.00014444509">
		<tag k="name" v="Kilbekken" />
		<tag k="ssr:stedsnr" v="211365" />
		<tag k="waterway" v="stream" />
	</node>
	<node id="-526044" lat="58.6658500037" lon="9.04271667409">
		<tag k="name" v="Orstjenn" />
		<tag k="natural" v="water" />
		<tag k="ssr:stedsnr" v="211361" />
	</node>
	<node id="-524238" lat="58.5746194432" lon="8.91328333917">
		<tag k="alt_name" v="Midttjenn" />
		<tag k="name" v="Midttjern" />
		<tag k="natural" v="water" />
		<tag k="ssr:stedsnr" v="243250" />
	</node>
	<node id="-526026" lat="58.5935555543" lon="8.79211667411">
		<tag k="name" v="Skrovsneset" />
		<tag k="natural" v="cape" />
		<tag k="ssr:stedsnr" v="211067" />
	</node>
	<node id="-526022" lat="58.6328805519" lon="8.75964721646">
		<tag k="name" v="Marktangen" />
		<tag k="natural" v="cape" />
		<tag k="ssr:stedsnr" v="211026" />
	</node>
	<node id="-526020" lat="58.6373611114" lon="8.76729167279">
		<tag k="name" v="Foletjenn" />
		<tag k="natural" v="water" />
		<tag k="ssr:stedsnr" v="211022" />
	</node>
	<node id="-526005" lat="58.6432416626" lon="8.76462222371">
		<tag k="name" v="Sandvann" />
		<tag k="natural" v="water" />
		<tag k="ssr:stedsnr" v="183979" />
		<tag k="water" v="lake" />
	</node>
	<node id="-526003" lat="58.69625" lon="8.9628166601">
		<tag k="name" v="Sandvannet" />
		<tag k="natural" v="water" />
		<tag k="ssr:stedsnr" v="183454" />
		<tag k="water" v="lake" />
	</node>
	<node id="-526000" lat="58.6721527765" lon="8.91018055569">
		<tag k="name" v="Skjerkholtlonene" />
		<tag k="natural" v="water" />
		<tag k="ssr:stedsnr" v="183398" />
		<tag k="water" v="lake" />
	</node>
	<node id="-525999" lat="58.6547000008" lon="9.05268332522">
		<tag k="name" v="Hofsdalsvannet" />
		<tag k="natural" v="water" />
		<tag k="ssr:stedsnr" v="183368" />
		<tag k="water" v="lake" />
	</node>
	<node id="-524227" lat="58.6816999966" lon="8.97738610301">
		<tag k="name" v="Lille Balttjenn" />
>>>>>>> e1d4bc35ff8a6074a6f2e91616a996b547c36f15
		<tag k="natural" v="water" />
		<tag k="ssr:stedsnr" v="29593" />
	</node>
<<<<<<< HEAD
	<node lat="58.65821944444868" lon="9.0662722159913" id="-21922">
		<tag k="alt_name" v="Mjåvann" />
		<tag k="name" v="Mjovann" />
		<tag k="natural" v="water" />
		<tag k="ssr:stedsnr" v="304416" />
		<tag k="water" v="lake" />
	</node>
	<node lat="58.594349998143386" lon="8.920116659573955" id="-21924">
		<tag k="alt_name" v="Rosstjenn" />
		<tag k="name" v="Rosstjern" />
		<tag k="natural" v="water" />
		<tag k="ssr:stedsnr" v="304311" />
	</node>
	<node lat="58.600866899629175" lon="8.88776844908397" id="-21925">
		<tag k="alt_name" v="Butjenna" />
		<tag k="name" v="Butjerna" />
=======
	<node id="-525967" lat="58.60838056" lon="8.84778888285">
		<tag k="name" v="Finestjennene" />
		<tag k="natural" v="water" />
		<tag k="ssr:stedsnr" v="150909" />
	</node>
	<node id="-525966" lat="58.6225833296" lon="8.86238055435">
		<tag k="name" v="Skarkedalsbekken" />
		<tag k="ssr:stedsnr" v="150895" />
		<tag k="waterway" v="stream" />
	</node>
	<node id="-525963" lat="58.6197888931" lon="8.83026666266">
		<tag k="name" v="Marendalselva" />
		<tag k="ssr:stedsnr" v="150885" />
		<tag k="waterway" v="stream" />
	</node>
	<node id="-525961" lat="58.5915250036" lon="8.89429722877">
		<tag k="name" v="Rambergstjenn" />
>>>>>>> e1d4bc35ff8a6074a6f2e91616a996b547c36f15
		<tag k="natural" v="water" />
		<tag k="ssr:stedsnr" v="150878" />
	</node>
<<<<<<< HEAD
	<node lat="58.612733329372325" lon="9.0" id="-21926">
		<tag k="name" v="Ulevågkilen" />
		<tag k="natural" v="water" />
		<tag k="ssr:stedsnr" v="304324" />
	</node>
	<node lat="58.60374999996107" lon="8.903419442638256" id="-21928">
		<tag k="name" v="Vennevann" />
		<tag k="natural" v="water" />
		<tag k="ssr:stedsnr" v="304331" />
	</node>
	<node lat="58.60408055955831" lon="8.761661116951666" id="-21937">
		<tag k="name" v="Glomstjenn" />
		<tag k="natural" v="water" />
		<tag k="ssr:stedsnr" v="333052" />
	</node>
	<node lat="58.58984444741597" lon="8.777300005689284" id="-21938">
		<tag k="name" v="Skrattereidneset" />
		<tag k="natural" v="cape" />
		<tag k="ssr:stedsnr" v="333061" />
	</node>
	<node lat="58.66203611311247" lon="9.058830561695043" id="-21943">
		<tag k="name" v="Vassenden" />
		<tag k="natural" v="beach" />
		<tag k="ssr:stedsnr" v="333109" />
	</node>
	<node lat="58.65902222525717" lon="9.074930551101216" id="-21944">
		<tag k="name" v="Reinsfjellstjenn" />
		<tag k="natural" v="water" />
		<tag k="ssr:stedsnr" v="333112" />
	</node>
	<node lat="58.6627083325455" lon="9.098408341722589" id="-21946">
		<tag k="name" v="Folevannsholmen" />
		<tag k="place" v="islet" />
		<tag k="ssr:stedsnr" v="333118" />
	</node>
	<node lat="58.702861108288566" lon="8.975502770538986" id="-21949">
		<tag k="name" v="Kjerringtjenn" />
		<tag k="natural" v="water" />
		<tag k="ssr:stedsnr" v="333346" />
	</node>
	<node lat="58.6605333365063" lon="8.966105549097161" id="-21950">
		<tag k="name" v="Sævtangen" />
		<tag k="natural" v="cape" />
		<tag k="ssr:stedsnr" v="333399" />
	</node>
	<node lat="58.67512500355917" lon="9.008405560524517" id="-21965">
		<tag k="name" v="Nesodden" />
		<tag k="natural" v="cape" />
		<tag k="ssr:stedsnr" v="333610" />
	</node>
	<node lat="58.684313887807406" lon="9.003777771097024" id="-21966">
		<tag k="name" v="Songestranda" />
		<tag k="natural" v="beach" />
		<tag k="ssr:stedsnr" v="333612" />
	</node>
	<node lat="58.586819444289546" lon="8.915269448759751" id="-21970">
		<tag k="name" v="Røyrvik" />
		<tag k="natural" v="bay" />
		<tag k="ssr:stedsnr" v="333905" />
	</node>
	<node lat="58.64627500250259" lon="8.956338895169466" id="-21996">
		<tag k="alt_name" v="Feltstykktjenn" />
		<tag k="name" v="Feltstykktjerna" />
		<tag k="natural" v="water" />
		<tag k="ssr:stedsnr" v="365420" />
	</node>
	<node lat="58.653405555463145" lon="9.039441663297525" id="-22004">
		<tag k="name" v="Granstøa" />
		<tag k="place" v="locality" />
		<tag k="ssr:stedsnr" v="384060" />
	</node>
	<node lat="58.57420555384307" lon="8.887313885735862" id="-22007">
		<tag k="name" v="Grøvene" />
		<tag k="ssr:stedsnr" v="393105" />
		<tag k="waterway" v="stream" />
	</node>
	<node lat="58.64827499601432" lon="9.060044446046373" id="-22011">
		<tag k="name" v="Gjøseidholmen" />
		<tag k="place" v="islet" />
		<tag k="ssr:stedsnr" v="393133" />
	</node>
	<node lat="58.64584166791957" lon="9.063058333917612" id="-22012">
		<tag k="name" v="Gjøseid-eidet" />
		<tag k="place" v="locality" />
		<tag k="ssr:stedsnr" v="393137" />
	</node>
	<node lat="58.64661389280569" lon="8.777547223190956" id="-22015">
		<tag k="name" v="Sandvasstangen" />
		<tag k="natural" v="cape" />
		<tag k="ssr:stedsnr" v="393009" />
	</node>
	<node lat="58.62512222417425" lon="9.037130550121676" id="-22033">
		<tag k="name" v="Størdalstjenn" />
		<tag k="natural" v="water" />
		<tag k="ssr:stedsnr" v="393531" />
	</node>
	<node lat="58.68783333371538" lon="9.070086109576975" id="-22034">
		<tag k="name" v="Mollebekken" />
		<tag k="ssr:stedsnr" v="393404" />
		<tag k="waterway" v="stream" />
	</node>
	<node lat="58.60459722045207" lon="8.922811107323264" id="-22037">
		<tag k="name" v="Eikåsdalstjenn" />
		<tag k="natural" v="water" />
		<tag k="ssr:stedsnr" v="393625" />
	</node>
	<node lat="58.688938892524355" lon="8.892663887873576" id="-22052">
		<tag k="name" v="Byttefoss" />
		<tag k="natural" v="waterfall" />
		<tag k="ssr:stedsnr" v="395041" />
	</node>
	<node lat="58.584513885207144" lon="8.872988885844013" id="-22054">
		<tag k="name" v="Nordtjenn" />
		<tag k="natural" v="water" />
		<tag k="ssr:stedsnr" v="272077" />
	</node>
	<node lat="58.68588611515518" lon="9.010686109998987" id="-22057">
		<tag k="name" v="Svinerbukta" />
		<tag k="natural" v="bay" />
		<tag k="ssr:stedsnr" v="272098" />
	</node>
	<node lat="58.62551944856576" lon="8.974291659714048" id="-22061">
		<tag k="name" v="Østeråvannet" />
		<tag k="natural" v="water" />
		<tag k="ssr:stedsnr" v="486367" />
		<tag k="water" v="lake" />
	</node>
	<node lat="58.57025032523994" lon="8.858614978365361" id="-22062">
		<tag k="name" v="Styggtjernane" />
		<tag k="natural" v="water" />
		<tag k="ssr:stedsnr" v="486281" />
		<tag k="water" v="lake" />
	</node>
	<node lat="58.57554999880305" lon="8.896841661153188" id="-22084">
		<tag k="alt_name" v="Foletjenn" />
		<tag k="name" v="Foletjern" />
		<tag k="natural" v="water" />
		<tag k="ssr:stedsnr" v="425296" />
	</node>
	<node lat="58.63661666656188" lon="8.803991666467255" id="-22096">
		<tag k="alt_name" v="Støletjenn" />
		<tag k="name" v="Støletjern" />
		<tag k="natural" v="water" />
		<tag k="ssr:stedsnr" v="426785" />
	</node>
	<node lat="58.667564288818184" lon="9.022416868523742" id="-22098">
		<tag k="name" v="Stimyrtjenn" />
		<tag k="natural" v="water" />
		<tag k="ssr:stedsnr" v="272043" />
	</node>
	<node lat="58.60605832986234" lon="8.981780563273068" id="-22105">
		<tag k="name" v="Eidbotjenn" />
		<tag k="natural" v="water" />
		<tag k="ssr:stedsnr" v="272518" />
	</node>
	<node lat="58.686480556432" lon="9.062958335079557" id="-22109">
		<tag k="alt_name" v="Lagtj" />
		<tag k="name" v="Lagtjenn" />
=======
	<node id="-525959" lat="58.6703723684" lon="8.90051382265">
		<tag k="name" v="Småtjennene" />
		<tag k="natural" v="water" />
		<tag k="ssr:stedsnr" v="150777" />
	</node>
	<node id="-525952" lat="58.6878972223" lon="8.89156111201">
		<tag k="name" v="Tørkelsteinrata" />
		<tag k="place" v="locality" />
		<tag k="ssr:stedsnr" v="150747" />
	</node>
	<node id="-525946" lat="58.6333805523" lon="8.88325832531">
		<tag k="name" v="Leirnes" />
		<tag k="natural" v="cape" />
		<tag k="ssr:stedsnr" v="150851" />
	</node>
	<node id="-525935" lat="58.6876166641" lon="8.9613944519">
		<tag k="name" v="Sandvann" />
		<tag k="natural" v="water" />
		<tag k="ssr:stedsnr" v="150547" />
		<tag k="water" v="lake" />
	</node>
	<node id="-525934" lat="58.6380666639" lon="8.98928333534">
		<tag k="name" v="Pøddetjenn" />
		<tag k="natural" v="water" />
		<tag k="ssr:stedsnr" v="150673" />
	</node>
	<node id="-525930" lat="58.6110027758" lon="8.90209721555">
		<tag k="name" v="Øygardstjenn" />
		<tag k="natural" v="water" />
		<tag k="ssr:stedsnr" v="150636" />
	</node>
	<node id="-525927" lat="58.6326749984" lon="9.0493472148">
		<tag k="name" v="Odden" />
		<tag k="natural" v="cape" />
		<tag k="ssr:stedsnr" v="150497" />
	</node>
	<node id="-525926" lat="58.6395055598" lon="9.04658611126">
		<tag k="name" v="Mellomhølen" />
		<tag k="place" v="locality" />
		<tag k="ssr:stedsnr" v="150494" />
	</node>
	<node id="-525925" lat="58.64528889" lon="9.07665556119">
		<tag k="name" v="Størdalstangen" />
		<tag k="natural" v="cape" />
		<tag k="ssr:stedsnr" v="150488" />
	</node>
	<node id="-525915" lat="58.6599888893" lon="8.99956666664">
		<tag k="name" v="Lontjenn" />
		<tag k="natural" v="water" />
		<tag k="ssr:stedsnr" v="150348" />
	</node>
	<node id="-525901" lat="58.6177472199" lon="8.79722500449">
		<tag k="name" v="Lindlandstjenn" />
		<tag k="natural" v="water" />
		<tag k="ssr:stedsnr" v="150041" />
	</node>
	<node id="-525893" lat="58.6939444482" lon="9.07353332591">
		<tag k="name" v="Bjørkholmen" />
		<tag k="place" v="islet" />
		<tag k="ssr:stedsnr" v="150083" />
	</node>
	<node id="-525891" lat="58.6270750044" lon="8.81931388284">
		<tag k="name" v="Djupedalstjenn" />
		<tag k="natural" v="water" />
		<tag k="ssr:stedsnr" v="150001" />
	</node>
	<node id="-525877" lat="58.6087194439" lon="8.96763888655">
		<tag k="alt_name" v="Sagtjenn" />
		<tag k="name" v="Sagtjern" />
		<tag k="natural" v="water" />
		<tag k="ssr:stedsnr" v="122350" />
	</node>
	<node id="-525871" lat="58.5749777792" lon="8.93649722541">
		<tag k="alt_name" v="Åltjenn;Åltjern" />
		<tag k="name" v="Åltjønn" />
		<tag k="natural" v="water" />
		<tag k="ssr:stedsnr" v="122301" />
	</node>
	<node id="-525868" lat="58.5996388856" lon="8.92320277481">
		<tag k="name" v="Langvann" />
		<tag k="natural" v="water" />
		<tag k="ssr:stedsnr" v="121331" />
	</node>
	<node id="-525852" lat="58.6352972214" lon="8.87343333422">
		<tag k="name" v="Rossbekken" />
		<tag k="ssr:stedsnr" v="90931" />
		<tag k="waterway" v="stream" />
	</node>
	<node id="-525847" lat="58.6133361154" lon="8.86253332624">
		<tag k="name" v="Nordre Holtstjenn" />
		<tag k="natural" v="water" />
		<tag k="ssr:stedsnr" v="90899" />
	</node>
	<node id="-525842" lat="58.591149997" lon="8.89373610348">
		<tag k="name" v="Rambergsmyra" />
		<tag k="natural" v="water" />
		<tag k="ssr:stedsnr" v="90886" />
		<tag k="water" v="pond" />
	</node>
	<node id="-525838" lat="58.589863886" lon="8.84182222989">
		<tag k="name" v="Skålandsbekken" />
		<tag k="ssr:stedsnr" v="90865" />
		<tag k="waterway" v="stream" />
	</node>
	<node id="-525834" lat="58.6732111133" lon="8.89142499637">
		<tag k="name" v="Vestre Almedalstjenn" />
		<tag k="natural" v="water" />
		<tag k="ssr:stedsnr" v="90793" />
	</node>
	<node id="-525825" lat="58.6438305594" lon="9.01828333283">
		<tag k="name" v="Tretjennene" />
		<tag k="natural" v="water" />
		<tag k="ssr:stedsnr" v="90718" />
	</node>
	<node id="-525823" lat="58.6781305594" lon="9.02861944245">
		<tag k="name" v="Skrikerodden" />
		<tag k="natural" v="cape" />
		<tag k="ssr:stedsnr" v="90601" />
	</node>
	<node id="-525822" lat="58.6806388884" lon="9.02996665852">
		<tag k="name" v="Langbekk" />
		<tag k="ssr:stedsnr" v="90598" />
		<tag k="waterway" v="stream" />
	</node>
	<node id="-525798" lat="58.6656666697" lon="9.01851667221">
		<tag k="name" v="Kalvetjenn" />
		<tag k="natural" v="water" />
		<tag k="ssr:stedsnr" v="90332" />
	</node>
	<node id="-525797" lat="58.6637194441" lon="9.02191110556">
		<tag k="name" v="Dypdalstjenn" />
		<tag k="natural" v="water" />
		<tag k="ssr:stedsnr" v="90331" />
	</node>
	<node id="-525771" lat="58.6252305548" lon="8.92517499848">
		<tag k="name" v="Fjæretjenn" />
		<tag k="natural" v="water" />
		<tag k="ssr:stedsnr" v="90079" />
	</node>
	<node id="-525767" lat="58.6493083317" lon="9.11450834067">
		<tag k="name" v="Gjevingelva" />
		<tag k="ssr:stedsnr" v="90067" />
		<tag k="waterway" v="stream" />
	</node>
	<node id="-525764" lat="58.5903972239" lon="8.77380554728">
		<tag k="name" v="Gammeltjenn" />
		<tag k="natural" v="water" />
		<tag k="ssr:stedsnr" v="90054" />
	</node>
	<node id="-525746" lat="58.6183861103" lon="8.78637777842">
		<tag k="alt_name" v="Stortjenn" />
		<tag k="name" v="Stortjern" />
>>>>>>> e1d4bc35ff8a6074a6f2e91616a996b547c36f15
		<tag k="natural" v="water" />
		<tag k="ssr:stedsnr" v="62805" />
	</node>
<<<<<<< HEAD
	<node lat="58.65033889095761" lon="9.086419451133203" id="-22116">
		<tag k="name" v="Store Svinebutjenn" />
		<tag k="natural" v="water" />
		<tag k="ssr:stedsnr" v="454071" />
	</node>
	<node lat="58.649586108554594" lon="8.896677775785813" id="-22147">
		<tag k="name" v="Snaristjenn" />
		<tag k="natural" v="water" />
		<tag k="ssr:stedsnr" v="454778" />
	</node>
	<node lat="58.585458329617396" lon="8.929458329926973" id="-22149">
		<tag k="name" v="Hantostranda" />
		<tag k="natural" v="beach" />
		<tag k="ssr:stedsnr" v="454912" />
	</node>
	<node lat="58.654902782064426" lon="9.079550000961161" id="-22155">
		<tag k="name" v="Løvdalsvannet" />
		<tag k="natural" v="water" />
		<tag k="ssr:stedsnr" v="486118" />
		<tag k="water" v="lake" />
	</node>
	<node lat="58.68556389195756" lon="8.90066110967572" id="-22158">
		<tag k="alt_name" v="Haukebekk" />
		<tag k="name" v="Haukbekken" />
		<tag k="ssr:stedsnr" v="486491" />
		<tag k="waterway" v="stream" />
	</node>
	<node lat="58.629327780601045" lon="8.767816674163814" id="-22162">
		<tag k="name" v="Nedre Vølan" />
		<tag k="natural" v="water" />
		<tag k="ssr:stedsnr" v="486780" />
	</node>
	<node lat="58.700469444782456" lon="8.963936106977666" id="-22168">
		<tag k="name" v="Vestre Sandvatjenn" />
		<tag k="natural" v="water" />
		<tag k="ssr:stedsnr" v="272300" />
	</node>
	<node lat="58.5983111113311" lon="8.790236116289801" id="-22189">
		<tag k="name" v="Storneset" />
		<tag k="natural" v="cape" />
		<tag k="ssr:stedsnr" v="515213" />
	</node>
	<node lat="58.65391666658301" lon="8.999105548891542" id="-22194">
		<tag k="name" v="Hellersheftet" />
		<tag k="natural" v="cape" />
		<tag k="ssr:stedsnr" v="515324" />
	</node>
	<node lat="58.66661666461362" lon="9.051847215255103" id="-22200">
		<tag k="name" v="Tussetjenn" />
		<tag k="natural" v="water" />
		<tag k="ssr:stedsnr" v="515412" />
	</node>
	<node lat="58.67846389324375" lon="9.024900003654976" id="-22207">
		<tag k="name" v="Kvitebergholmen" />
		<tag k="place" v="islet" />
		<tag k="ssr:stedsnr" v="515615" />
	</node>
	<node lat="58.63944166929423" lon="8.976708331417981" id="-22210">
		<tag k="name" v="Fagermyrtjenn" />
		<tag k="natural" v="water" />
		<tag k="ssr:stedsnr" v="515702" />
	</node>
	<node lat="58.59867477443016" lon="8.806489050188944" id="-22223">
		<tag k="alt_name" v="Grunnetjenn;Grunrtjern" />
		<tag k="name" v="Grunnetjern" />
=======
	<node id="-525743" lat="58.6381510342" lon="9.01285918113">
		<tag k="alt_name" v="Killingtjenn" />
		<tag k="name" v="Killingtjerna" />
		<tag k="natural" v="water" />
		<tag k="ssr:stedsnr" v="62366" />
	</node>
	<node id="-525741" lat="58.6059500004" lon="8.93110554724">
		<tag k="alt_name" v="Svennskottjenn" />
		<tag k="name" v="Skuggeviktjern" />
		<tag k="natural" v="water" />
		<tag k="ssr:stedsnr" v="62340" />
	</node>
	<node id="-525734" lat="58.5991111092" lon="8.83598334006">
		<tag k="alt_name" v="Mellomtjenn" />
		<tag k="name" v="Mellomtjern" />
		<tag k="natural" v="water" />
		<tag k="ssr:stedsnr" v="61822" />
	</node>
	<node id="-525729" lat="58.6697444437" lon="8.919808331">
		<tag k="alt_name" v="Kråketjenn" />
		<tag k="name" v="Kråketjern" />
		<tag k="natural" v="water" />
		<tag k="ssr:stedsnr" v="61435" />
	</node>
	<node id="-525723" lat="58.5692638887" lon="8.88635555">
		<tag k="alt_name" v="Jordtjenn" />
		<tag k="name" v="Jordtjern" />
		<tag k="natural" v="water" />
		<tag k="ssr:stedsnr" v="61253" />
	</node>
	<node id="-525702" lat="58.617091671" lon="8.86350832534">
		<tag k="name" v="Meldalstjenn" />
		<tag k="natural" v="water" />
		<tag k="ssr:stedsnr" v="29904" />
	</node>
	<node id="-525701" lat="58.6204055575" lon="8.84872222396">
		<tag k="name" v="Kattjenn" />
		<tag k="natural" v="water" />
		<tag k="ssr:stedsnr" v="29898" />
		<tag k="water" v="pond" />
	</node>
	<node id="-525700" lat="58.594461112" lon="8.9121805608">
		<tag k="name" v="Pøddetjenn" />
		<tag k="natural" v="water" />
		<tag k="ssr:stedsnr" v="29888" />
	</node>
	<node id="-525698" lat="58.596163889" lon="8.92267222667">
		<tag k="name" v="Midttjenn" />
		<tag k="natural" v="water" />
		<tag k="ssr:stedsnr" v="29879" />
	</node>
	<node id="-525697" lat="58.5986555569" lon="8.90929722225">
		<tag k="name" v="Langtjenn" />
		<tag k="natural" v="water" />
		<tag k="ssr:stedsnr" v="29874" />
	</node>
	<node id="-525693" lat="58.6904861139" lon="8.8627638803">
		<tag k="name" v="Sandtjenn" />
		<tag k="natural" v="water" />
		<tag k="ssr:stedsnr" v="29846" />
	</node>
	<node id="-525692" lat="58.6387583301" lon="8.92864444511">
		<tag k="name" v="Pytten" />
		<tag k="natural" v="water" />
		<tag k="ssr:stedsnr" v="29838" />
		<tag k="water" v="pond" />
	</node>
	<node id="-525675" lat="58.637480552" lon="8.94552223081">
		<tag k="name" v="Pytten" />
		<tag k="natural" v="water" />
		<tag k="ssr:stedsnr" v="29705" />
		<tag k="water" v="pond" />
	</node>
	<node id="-525644" lat="58.6794861156" lon="9.06066111379">
		<tag k="name" v="Strømvollen" />
		<tag k="natural" v="beach" />
		<tag k="ssr:stedsnr" v="29429" />
	</node>
	<node id="-525634" lat="58.6574111074" lon="9.03258888238">
		<tag k="name" v="Vassbotnen" />
		<tag k="natural" v="beach" />
		<tag k="ssr:stedsnr" v="29346" />
	</node>
	<node id="-525632" lat="58.6971638922" lon="8.96416666043">
		<tag k="name" v="Sandvanns-strandene" />
		<tag k="natural" v="beach" />
		<tag k="ssr:stedsnr" v="29322" />
	</node>
	<node id="-525622" lat="58.5726638908" lon="8.87939166995">
		<tag k="name" v="Paddetjenn" />
		<tag k="natural" v="water" />
		<tag k="ssr:stedsnr" v="29100" />
	</node>
	<node id="-525621" lat="58.5736305542" lon="8.87896388548">
		<tag k="name" v="Paddetjennknatten" />
		<tag k="natural" v="water" />
		<tag k="ssr:stedsnr" v="29099" />
	</node>
	<node id="-525605" lat="58.6052388889" lon="8.79557778314">
		<tag k="name" v="Hauktjenn" />
		<tag k="natural" v="water" />
		<tag k="ssr:stedsnr" v="29020" />
	</node>
	<node id="-525597" lat="58.6477027768" lon="8.83229444346">
		<tag k="name" v="Musråvann" />
		<tag k="natural" v="water" />
		<tag k="ssr:stedsnr" v="2000" />
	</node>
	<node id="-525596" lat="58.6333083302" lon="8.83251667102">
		<tag k="alt_name" v="Svinbutjenn" />
		<tag k="name" v="Svinbutjern" />
		<tag k="natural" v="water" />
		<tag k="ssr:stedsnr" v="1766" />
	</node>
	<node id="-525594" lat="58.6773111089" lon="9.00450277288">
		<tag k="name" v="Songevannet" />
		<tag k="natural" v="water" />
		<tag k="ssr:stedsnr" v="1467" />
		<tag k="water" v="lake" />
	</node>
	<node id="-525589" lat="58.6419305536" lon="9.06853055838">
		<tag k="alt_name" v="Størdalsvann" />
		<tag k="name" v="Størdalsvannet" />
		<tag k="natural" v="water" />
		<tag k="ssr:stedsnr" v="1386" />
		<tag k="water" v="lake" />
	</node>
	<node id="-525582" lat="58.6261333338" lon="8.99094167494">
		<tag k="name" v="Røyvann" />
		<tag k="natural" v="water" />
		<tag k="ssr:stedsnr" v="1343" />
		<tag k="water" v="lake" />
	</node>
	<node id="-525579" lat="58.5614583326" lon="8.87400278631">
		<tag k="alt_name" v="Holtetjenn" />
		<tag k="name" v="Holtetjern" />
		<tag k="natural" v="water" />
		<tag k="ssr:stedsnr" v="1267" />
	</node>
	<node id="-525574" lat="58.599752127" lon="8.98522999106">
		<tag k="name" v="Hovdansvannet" />
>>>>>>> e1d4bc35ff8a6074a6f2e91616a996b547c36f15
		<tag k="natural" v="water" />
		<tag k="ssr:stedsnr" v="311" />
		<tag k="water" v="lake" />
	</node>
<<<<<<< HEAD
	<node lat="58.68708101558819" lon="8.856140252790862" id="-22226">
		<tag k="alt_name" v="Solbutjennene" />
		<tag k="loc_name" v="Solbutjennane" />
		<tag k="name" v="Solbutjernane" />
		<tag k="natural" v="water" />
		<tag k="ssr:stedsnr" v="547520" />
		<tag k="water" v="lake" />
	</node>
	<node lat="58.62872499994854" lon="8.784594439289608" id="-22234">
		<tag k="name" v="Heglandstjenn" />
		<tag k="natural" v="water" />
		<tag k="ssr:stedsnr" v="575004" />
	</node>
	<node lat="58.59988611388294" lon="8.8575861115153" id="-22238">
		<tag k="name" v="Paddetjenn" />
		<tag k="natural" v="water" />
		<tag k="ssr:stedsnr" v="575063" />
	</node>
	<node lat="58.63090277589996" lon="8.782633329190448" id="-22247">
		<tag k="name" v="Heglandstjenn" />
		<tag k="natural" v="water" />
		<tag k="ssr:stedsnr" v="575111" />
	</node>
	<node lat="58.634461114609095" lon="9.047663892810696" id="-22261">
		<tag k="name" v="Ingjerdsstrand" />
		<tag k="natural" v="beach" />
		<tag k="ssr:stedsnr" v="575466" />
	</node>
	<node lat="58.67159722428187" lon="9.003649996013888" id="-22264">
		<tag k="name" v="Lille Hesnes" />
		<tag k="natural" v="cape" />
		<tag k="ssr:stedsnr" v="575605" />
	</node>
	<node lat="58.66110833456769" lon="8.959313896091647" id="-22267">
		<tag k="name" v="Vendalsbekken" />
		<tag k="ssr:stedsnr" v="575346" />
		<tag k="waterway" v="stream" />
	</node>
	<node lat="58.672372223026095" lon="8.984222220001792" id="-22276">
		<tag k="name" v="Østerstrand" />
		<tag k="natural" v="beach" />
		<tag k="ssr:stedsnr" v="575563" />
	</node>
	<node lat="58.63283333330971" lon="9.01873610761571" id="-22277">
		<tag k="name" v="Butangen" />
		<tag k="natural" v="cape" />
		<tag k="ssr:stedsnr" v="575703" />
	</node>
	<node lat="58.63995832989936" lon="8.82790000622499" id="-22279">
		<tag k="name" v="Pøddetjenn" />
		<tag k="natural" v="water" />
		<tag k="ssr:stedsnr" v="575911" />
	</node>
	<node lat="58.63135277461225" lon="8.845022227529917" id="-22281">
		<tag k="name" v="Slettatjenn" />
		<tag k="natural" v="water" />
		<tag k="ssr:stedsnr" v="575921" />
	</node>
	<node lat="58.65161944320425" lon="8.869038889549337" id="-22283">
		<tag k="name" v="Hillbærstehølen" />
		<tag k="place" v="locality" />
		<tag k="ssr:stedsnr" v="575958" />
	</node>
	<node lat="58.65264722526651" lon="8.86936388826589" id="-22284">
		<tag k="name" v="Saustedammen" />
		<tag k="ssr:stedsnr" v="575959" />
		<tag k="waterway" v="dam" />
	</node>
	<node lat="58.65460555127337" lon="9.087575006713116" id="-22320">
		<tag k="name" v="Indre Svinebutjenn" />
		<tag k="natural" v="water" />
		<tag k="ssr:stedsnr" v="697145" />
	</node>
	<node lat="58.69982778016864" lon="8.967147228028626" id="-22325">
		<tag k="name" v="Østre Sandvatjenn" />
		<tag k="natural" v="water" />
		<tag k="ssr:stedsnr" v="697321" />
	</node>
	<node lat="58.59224444821503" lon="9.055216675251879" id="-22339">
		<tag k="name" v="Østertjenn" />
		<tag k="natural" v="water" />
		<tag k="ssr:stedsnr" v="697488" />
	</node>
	<node lat="58.68170277514073" lon="8.959225007214467" id="-22349">
		<tag k="name" v="Sandvannselva" />
		<tag k="ssr:stedsnr" v="697573" />
		<tag k="waterway" v="stream" />
	</node>
	<node lat="58.67565277334908" lon="8.951591662695968" id="-22360">
		<tag k="name" v="Mårråstjenn" />
		<tag k="natural" v="water" />
		<tag k="ssr:stedsnr" v="697560" />
	</node>
	<node lat="58.60118055293262" lon="8.991494438056352" id="-22366">
		<tag k="name" v="Vasstølen" />
		<tag k="natural" v="beach" />
		<tag k="ssr:stedsnr" v="697623" />
	</node>
	<node lat="58.65633611420315" lon="8.8929916704363" id="-22371">
		<tag k="name" v="Ertetjenn" />
		<tag k="natural" v="water" />
		<tag k="ssr:stedsnr" v="697742" />
	</node>
	<node lat="58.65628889171159" lon="8.886358327802942" id="-22373">
		<tag k="name" v="Heitjennene" />
		<tag k="natural" v="water" />
		<tag k="ssr:stedsnr" v="697747" />
		<tag k="water" v="lake" />
	</node>
	<node lat="58.68689444051556" lon="8.921827785966393" id="-22376">
		<tag k="name" v="Byttefoss" />
		<tag k="natural" v="waterfall" />
		<tag k="ssr:stedsnr" v="697786" />
	</node>
	<node lat="58.68732499787041" lon="8.903130558298907" id="-22379">
		<tag k="name" v="Kvernfossen" />
		<tag k="natural" v="waterfall" />
		<tag k="ssr:stedsnr" v="697794" />
	</node>
	<node lat="58.66394339671542" lon="8.883162682481816" id="-22386">
		<tag k="name" v="Ausel-Småtjennene" />
		<tag k="natural" v="water" />
		<tag k="ssr:stedsnr" v="697990" />
		<tag k="water" v="lake" />
	</node>
	<node lat="58.665808330907865" lon="8.890366662787772" id="-22387">
		<tag k="name" v="Dalanskjerrene" />
		<tag k="natural" v="water" />
		<tag k="ssr:stedsnr" v="697991" />
	</node>
	<node lat="58.671408332870065" lon="8.859488883375514" id="-22401">
		<tag k="alt_name" v="Lauvåstjenn" />
		<tag k="name" v="Lauvåstjern" />
		<tag k="natural" v="water" />
		<tag k="ssr:stedsnr" v="607447" />
	</node>
	<node lat="58.692905552397505" lon="9.018561102741229" id="-22407">
		<tag k="name" v="Marisva" />
		<tag k="natural" v="shoal" />
		<tag k="place" v="locality" />
		<tag k="ssr:stedsnr" v="629991" />
	</node>
	<node lat="58.65694166455687" lon="9.079500006663933" id="-22415">
		<tag k="name" v="Løvdalstangen" />
		<tag k="natural" v="cape" />
		<tag k="ssr:stedsnr" v="636106" />
	</node>
	<node lat="58.623877773775206" lon="8.98031389473276" id="-22423">
		<tag k="name" v="Bolletjenn" />
		<tag k="natural" v="water" />
		<tag k="ssr:stedsnr" v="636515" />
	</node>
	<node lat="58.69090277805639" lon="8.970969442070125" id="-22430">
		<tag k="name" v="Stormyrtjenn" />
		<tag k="natural" v="water" />
		<tag k="ssr:stedsnr" v="636299" />
	</node>
	<node lat="58.600463886342254" lon="9.008124996560282" id="-22439">
		<tag k="name" v="Hovdansstranda" />
		<tag k="natural" v="beach" />
		<tag k="ssr:stedsnr" v="636691" />
	</node>
	<node lat="58.63596666699714" lon="8.889972221268792" id="-22466">
		<tag k="name" v="Storelva" />
		<tag k="ssr:stedsnr" v="668419" />
		<tag k="waterway" v="river" />
	</node>
	<node lat="58.61406388707061" lon="8.755058328024155" id="-22475">
		<tag k="alt_name" v="Vålandstjenn" />
		<tag k="name" v="Vålandstjern" />
		<tag k="natural" v="water" />
		<tag k="ssr:stedsnr" v="668813" />
	</node>
	<node lat="58.64340277628529" lon="9.064630553172815" id="-22494">
		<tag k="name" v="Sautangen" />
		<tag k="natural" v="cape" />
		<tag k="ssr:stedsnr" v="697471" />
	</node>
	<node lat="58.67656389275632" lon="9.033958339756847" id="-22501">
		<tag k="name" v="Brunodden" />
		<tag k="natural" v="cape" />
		<tag k="ssr:stedsnr" v="697581" />
	</node>
	<node lat="58.67883888728934" lon="8.995358325230145" id="-22505">
		<tag k="name" v="Nilsesvik" />
		<tag k="natural" v="bay" />
		<tag k="ssr:stedsnr" v="697594" />
	</node>
	<node lat="58.674066666851374" lon="8.894838881621917" id="-22514">
		<tag k="name" v="Østre Almedalstjenn" />
		<tag k="natural" v="water" />
		<tag k="ssr:stedsnr" v="697819" />
	</node>
	<node lat="58.620758337220295" lon="8.838638883435145" id="-22521">
		<tag k="name" v="Lillelv" />
		<tag k="ssr:stedsnr" v="697909" />
		<tag k="waterway" v="stream" />
	</node>
	<node lat="58.61030555168869" lon="8.863705547392971" id="-22522">
		<tag k="name" v="Søre Holtstjenn" />
		<tag k="natural" v="water" />
		<tag k="ssr:stedsnr" v="697912" />
	</node>
	<node lat="58.61295000300928" lon="8.850463888522492" id="-22523">
		<tag k="name" v="Grunnetjennene" />
		<tag k="natural" v="water" />
		<tag k="ssr:stedsnr" v="697915" />
		<tag k="water" v="lake" />
	</node>
	<node lat="58.64981667043428" lon="9.087830560815334" id="-22533">
		<tag k="name" v="Svinebutjern" />
		<tag k="natural" v="water" />
		<tag k="ssr:stedsnr" v="729406" />
	</node>
	<node lat="58.65813678929029" lon="8.930422019610145" id="-22535">
		<tag k="alt_name" v="Åsvann" />
		<tag k="name" v="Åsvannet" />
		<tag k="natural" v="water" />
		<tag k="ssr:stedsnr" v="729425" />
	</node>
	<node lat="58.69739444312839" lon="8.962827777937035" id="-22543">
		<tag k="name" v="Store Sandvann" />
		<tag k="natural" v="water" />
		<tag k="ssr:stedsnr" v="757304" />
		<tag k="water" v="lake" />
	</node>
	<node lat="58.651661113174406" lon="9.023205548496085" id="-22547">
		<tag k="name" v="Skogbråtstjenn" />
		<tag k="natural" v="water" />
		<tag k="ssr:stedsnr" v="757322" />
	</node>
	<node lat="58.58760833454845" lon="9.054516672948942" id="-22563">
		<tag k="name" v="Dalen" />
		<tag k="natural" v="water" />
		<tag k="ssr:stedsnr" v="757499" />
	</node>
	<node lat="58.653091664186555" lon="8.881452770736963" id="-22573">
		<tag k="name" v="Djuptjenn" />
		<tag k="natural" v="water" />
		<tag k="ssr:stedsnr" v="757751" />
	</node>
	<node lat="58.65196666916124" lon="8.921400002791627" id="-22574">
		<tag k="name" v="Kvittjenn" />
		<tag k="natural" v="water" />
		<tag k="ssr:stedsnr" v="757754" />
	</node>
	<node lat="58.60847499597841" lon="8.838930558021715" id="-22576">
		<tag k="name" v="Fjellstjenn" />
		<tag k="natural" v="water" />
		<tag k="ssr:stedsnr" v="757923" />
	</node>
	<node lat="58.57388888933754" lon="8.914461115367791" id="-22583">
		<tag k="name" v="Øya" />
		<tag k="place" v="islet" />
		<tag k="ssr:stedsnr" v="786903" />
	</node>
	<node lat="58.58481666718982" lon="8.848774999082234" id="-22589">
		<tag k="name" v="Jorstadvann" />
		<tag k="natural" v="water" />
		<tag k="ssr:stedsnr" v="789322" />
		<tag k="water" v="lake" />
	</node>
	<node lat="58.65071111246362" lon="9.061658331998041" id="-22595">
		<tag k="name" v="Gjøseidvannet" />
		<tag k="natural" v="water" />
		<tag k="ssr:stedsnr" v="789418" />
	</node>
	<node lat="58.63990277638624" lon="8.943252779004562" id="-22598">
		<tag k="fixme" v="multiple name tags, choose one and add the other to alt_name" />
		<tag k="name" v="Tungetjenn;Tungevann" />
		<tag k="natural" v="water" />
		<tag k="ssr:stedsnr" v="911413" />
	</node>
	<node lat="58.63435832982167" lon="8.76900556368882" id="-22603">
		<tag k="name" v="Øvre Vølan" />
		<tag k="natural" v="water" />
		<tag k="ssr:stedsnr" v="911780" />
	</node>
	<node lat="58.651336109339624" lon="9.075300004588298" id="-22607">
		<tag k="name" v="Larsvika" />
		<tag k="natural" v="bay" />
		<tag k="ssr:stedsnr" v="818100" />
	</node>
	<node lat="58.64941666997242" lon="9.061658341320024" id="-22611">
		<tag k="name" v="Holmen" />
		<tag k="natural" v="cape" />
		<tag k="ssr:stedsnr" v="818105" />
	</node>
	<node lat="58.66544999572059" lon="9.078149995041104" id="-22620">
		<tag k="alt_name" v="Råbergtjenn" />
		<tag k="name" v="Råbergtjern" />
		<tag k="natural" v="water" />
		<tag k="ssr:stedsnr" v="850436" />
	</node>
	<node lat="58.68773889118265" lon="8.987113884750286" id="-22621">
		<tag k="alt_name" v="Gåstjenn" />
		<tag k="name" v="Gåstjern" />
		<tag k="natural" v="water" />
		<tag k="ssr:stedsnr" v="850485" />
	</node>
	<node lat="58.59422777546142" lon="8.847288893695763" id="-22623">
		<tag k="alt_name" v="Øvre Skålandstjenna" />
		<tag k="name" v="Skålandtjerna" />
		<tag k="natural" v="water" />
		<tag k="ssr:stedsnr" v="851307" />
	</node>
	<node lat="58.64109166786794" lon="8.775063893837059" id="-22633">
		<tag k="name" v="Møbøvann" />
		<tag k="natural" v="water" />
		<tag k="ssr:stedsnr" v="879024" />
		<tag k="water" v="lake" />
	</node>
	<node lat="58.657588890645506" lon="8.95755554715723" id="-22640">
		<tag k="name" v="Butjenn" />
		<tag k="natural" v="water" />
		<tag k="ssr:stedsnr" v="879361" />
	</node>
	<node lat="58.63468610800723" lon="9.035627772502982" id="-22653">
		<tag k="name" v="Hudalstjenn" />
		<tag k="natural" v="water" />
		<tag k="ssr:stedsnr" v="879504" />
	</node>
	<node lat="58.62658333042356" lon="8.975769445263225" id="-22658">
		<tag k="name" v="Brenteholmen" />
		<tag k="place" v="islet" />
		<tag k="ssr:stedsnr" v="879722" />
	</node>
	<node lat="58.62793055774186" lon="8.944719440673863" id="-22672">
		<tag k="alt_name" v="Svarttjenn" />
		<tag k="name" v="Svarttjern" />
		<tag k="natural" v="water" />
		<tag k="ssr:stedsnr" v="911356" />
	</node>
	<node lat="58.580088889718986" lon="8.91318333053901" id="-22676">
		<tag k="alt_name" v="Revstjenn" />
		<tag k="name" v="Revstjern" />
		<tag k="natural" v="water" />
		<tag k="ssr:stedsnr" v="911302" />
	</node>
	<node lat="58.680605557160575" lon="8.968627779617757" id="-22680">
		<tag k="alt_name" v="Store Balttjenn" />
		<tag k="name" v="Balttjern" />
		<tag k="natural" v="water" />
		<tag k="ssr:stedsnr" v="911466" />
	</node>
	<node lat="58.5956833374411" lon="8.783741666227096" id="-22687">
		<tag k="name" v="Ommundsholmen" />
		<tag k="place" v="islet" />
		<tag k="ssr:stedsnr" v="939220" />
	</node>
	<node lat="58.60948889146673" lon="8.80179722520911" id="-22690">
		<tag k="name" v="Knausbekk" />
		<tag k="ssr:stedsnr" v="940038" />
		<tag k="waterway" v="stream" />
	</node>
	<node lat="58.598330557903445" lon="8.903947216659317" id="-22693">
		<tag k="name" v="Snarestjenn" />
		<tag k="natural" v="water" />
		<tag k="ssr:stedsnr" v="272867" />
	</node>
	<node lat="58.59975212700741" lon="8.98522999105969" id="-22713">
		<tag k="name" v="Hovdansvannet" />
		<tag k="natural" v="water" />
		<tag k="ssr:stedsnr" v="311" />
		<tag k="water" v="lake" />
	</node>
	<node lat="58.561458332635816" lon="8.874002786311722" id="-22718">
		<tag k="alt_name" v="Holtetjenn" />
		<tag k="name" v="Holtetjern" />
		<tag k="natural" v="water" />
		<tag k="ssr:stedsnr" v="1267" />
	</node>
	<node lat="58.62613333375042" lon="8.990941674942635" id="-22721">
		<tag k="name" v="Røyvann" />
		<tag k="natural" v="water" />
		<tag k="ssr:stedsnr" v="1343" />
		<tag k="water" v="lake" />
	</node>
	<node lat="58.677311108896724" lon="9.004502772878581" id="-22728">
		<tag k="name" v="Songevannet" />
		<tag k="natural" v="water" />
		<tag k="ssr:stedsnr" v="1467" />
		<tag k="water" v="lake" />
	</node>
	<node lat="58.633308330202205" lon="8.832516671024976" id="-22729">
		<tag k="alt_name" v="Svinbutjenn" />
		<tag k="name" v="Svinbutjern" />
		<tag k="natural" v="water" />
		<tag k="ssr:stedsnr" v="1766" />
	</node>
	<node lat="58.64770277682589" lon="8.832294443457233" id="-22730">
		<tag k="name" v="Musråvann" />
		<tag k="natural" v="water" />
		<tag k="ssr:stedsnr" v="2000" />
	</node>
	<node lat="58.605238888894405" lon="8.795577783141052" id="-22735">
		<tag k="name" v="Hauktjenn" />
		<tag k="natural" v="water" />
		<tag k="ssr:stedsnr" v="29020" />
	</node>
	<node lat="58.57363055416241" lon="8.878963885477688" id="-22746">
		<tag k="name" v="Paddetjennknatten" />
		<tag k="natural" v="water" />
		<tag k="ssr:stedsnr" v="29099" />
	</node>
	<node lat="58.57266389083411" lon="8.87939166995321" id="-22747">
		<tag k="name" v="Paddetjenn" />
		<tag k="natural" v="water" />
		<tag k="ssr:stedsnr" v="29100" />
	</node>
	<node lat="58.68169999659176" lon="8.977386103010156" id="-22755">
		<tag k="name" v="Lille Balttjenn" />
		<tag k="natural" v="water" />
		<tag k="ssr:stedsnr" v="29593" />
	</node>
	<node lat="58.678705552394" lon="9.042108336928232" id="-22756">
		<tag k="name" v="Grautskjær" />
		<tag k="place" v="islet" />
		<tag k="ssr:stedsnr" v="29613" />
	</node>
	<node lat="58.65741110739538" lon="9.03258888237903" id="-22763">
		<tag k="name" v="Vassbotnen" />
		<tag k="natural" v="beach" />
		<tag k="ssr:stedsnr" v="29346" />
	</node>
	<node lat="58.638758330129505" lon="8.928644445107489" id="-22787">
		<tag k="name" v="Pytten" />
=======
	<node id="-525542" lat="58.6338666686" lon="8.77499999156">
		<tag k="name" v="Lauvåstjenn" />
		<tag k="natural" v="water" />
		<tag k="ssr:stedsnr" v="940011" />
	</node>
	<node id="-525534" lat="58.634686108" lon="9.0356277725">
		<tag k="name" v="Hudalstjenn" />
		<tag k="natural" v="water" />
		<tag k="ssr:stedsnr" v="879504" />
	</node>
	<node id="-525530" lat="58.58883611" lon="9.05140555714">
		<tag k="name" v="Mellemtjenn" />
		<tag k="natural" v="water" />
		<tag k="ssr:stedsnr" v="879478" />
	</node>
	<node id="-525520" lat="58.6556694478" lon="8.86996388591">
		<tag k="name" v="Svarthøl" />
		<tag k="place" v="locality" />
		<tag k="ssr:stedsnr" v="940986" />
	</node>
	<node id="-525519" lat="58.657194444" lon="8.86919166274">
		<tag k="name" v="Mønetjenn" />
		<tag k="natural" v="water" />
		<tag k="ssr:stedsnr" v="940984" />
	</node>
	<node id="-525510" lat="58.6128166675" lon="8.85643889213">
		<tag k="name" v="Holtjenn" />
		<tag k="natural" v="water" />
		<tag k="ssr:stedsnr" v="940922" />
	</node>
	<node id="-525509" lat="58.5943555535" lon="8.9063972208">
		<tag k="name" v="Vålevasslona" />
		<tag k="natural" v="water" />
		<tag k="ssr:stedsnr" v="940910" />
		<tag k="water" v="lake" />
	</node>
	<node id="-525506" lat="58.5989694441" lon="8.88873610756">
		<tag k="name" v="Lille Butjenn" />
		<tag k="natural" v="water" />
		<tag k="ssr:stedsnr" v="940889" />
	</node>
	<node id="-525500" lat="58.6414694483" lon="8.91883054801">
		<tag k="name" v="Oddersbekk" />
		<tag k="ssr:stedsnr" v="940860" />
		<tag k="waterway" v="stream" />
	</node>
	<node id="-525477" lat="58.6718222265" lon="8.99374444442">
		<tag k="name" v="Jønnvika" />
		<tag k="natural" v="bay" />
		<tag k="ssr:stedsnr" v="940600" />
	</node>
	<node id="-525476" lat="58.6788527743" lon="9.03504999344">
		<tag k="name" v="Tolltangen" />
		<tag k="natural" v="cape" />
		<tag k="ssr:stedsnr" v="940586" />
	</node>
	<node id="-525474" lat="58.6853638927" lon="8.96079722423">
		<tag k="name" v="Lona" />
		<tag k="natural" v="water" />
		<tag k="ssr:stedsnr" v="940575" />
		<tag k="water" v="lake" />
	</node>
	<node id="-525457" lat="58.6415666706" lon="9.08636943959">
		<tag k="name" v="Halvorstjenn" />
		<tag k="natural" v="water" />
		<tag k="ssr:stedsnr" v="940455" />
	</node>
	<node id="-525444" lat="58.6661944448" lon="8.98439722873">
		<tag k="name" v="Hestnestjenn" />
		<tag k="natural" v="water" />
		<tag k="ssr:stedsnr" v="940374" />
	</node>
	<node id="-525440" lat="58.6607916646" lon="9.01068055713">
		<tag k="name" v="Rangleåstjenn" />
		<tag k="natural" v="water" />
		<tag k="ssr:stedsnr" v="940340" />
	</node>
	<node id="-525427" lat="58.653136111" lon="9.08306389275">
		<tag k="name" v="Svinebu-eidet" />
		<tag k="natural" v="strait" />
		<tag k="ssr:stedsnr" v="940121" />
	</node>
	<node id="-525419" lat="58.6452416633" lon="9.07019167138">
		<tag k="name" v="Pråmstøtjenn" />
		<tag k="natural" v="water" />
		<tag k="ssr:stedsnr" v="940048" />
	</node>
	<node id="-525417" lat="58.6094888915" lon="8.80179722521">
		<tag k="name" v="Knausbekk" />
		<tag k="ssr:stedsnr" v="940038" />
		<tag k="waterway" v="stream" />
	</node>
	<node id="-525416" lat="58.6789472224" lon="8.93626943653">
		<tag k="name" v="Øygardstjenn" />
		<tag k="natural" v="water" />
		<tag k="ssr:stedsnr" v="939786" />
	</node>
	<node id="-525415" lat="58.5956833374" lon="8.78374166623">
		<tag k="name" v="Ommundsholmen" />
		<tag k="place" v="islet" />
		<tag k="ssr:stedsnr" v="939220" />
	</node>
	<node id="-525401" lat="58.5917277737" lon="8.88939722625">
		<tag k="name" v="Dibblen" />
		<tag k="natural" v="water" />
		<tag k="ssr:stedsnr" v="818906" />
		<tag k="water" v="pond" />
	</node>
	<node id="-525398" lat="58.6452250041" lon="8.89213055933">
		<tag k="name" v="Sparbutjenn" />
		<tag k="natural" v="water" />
		<tag k="ssr:stedsnr" v="818866" />
	</node>
	<node id="-525392" lat="58.6603055545" lon="8.89877222284">
		<tag k="alt_name" v="Barlindbunnstj." />
		<tag k="name" v="Barlinbunntjenna" />
		<tag k="natural" v="water" />
		<tag k="ssr:stedsnr" v="818770" />
	</node>
	<node id="-525382" lat="58.6786750041" lon="9.04925834098">
		<tag k="name" v="Baneodden" />
		<tag k="natural" v="cape" />
		<tag k="ssr:stedsnr" v="818418" />
	</node>
	<node id="-525380" lat="58.6427666697" lon="9.0509916682">
		<tag k="name" v="Reinsfjelltjenn" />
		<tag k="natural" v="water" />
		<tag k="ssr:stedsnr" v="818505" />
	</node>
	<node id="-525368" lat="58.6005555552" lon="8.82760278415">
		<tag k="name" v="Badstutjenn" />
		<tag k="natural" v="water" />
		<tag k="ssr:stedsnr" v="818069" />
	</node>
	<node id="-525365" lat="58.6959666627" lon="9.06910556167">
		<tag k="name" v="Stokksbekk" />
		<tag k="ssr:stedsnr" v="818059" />
		<tag k="waterway" v="stream" />
	</node>
	<node id="-525363" lat="58.64941667" lon="9.06165834132">
		<tag k="name" v="Holmen" />
		<tag k="natural" v="cape" />
		<tag k="ssr:stedsnr" v="818105" />
	</node>
	<node id="-525361" lat="58.6313888848" lon="9.01975277759">
		<tag k="name" v="Sagvann" />
		<tag k="natural" v="water" />
		<tag k="ssr:stedsnr" v="790357" />
	</node>
	<node id="-525356" lat="58.6343583298" lon="8.76900556369">
		<tag k="name" v="Øvre Vølan" />
		<tag k="natural" v="water" />
		<tag k="ssr:stedsnr" v="911780" />
	</node>
	<node id="-525348" lat="58.608474996" lon="8.83893055802">
		<tag k="name" v="Fjellstjenn" />
		<tag k="natural" v="water" />
		<tag k="ssr:stedsnr" v="757923" />
	</node>
	<node id="-525344" lat="58.6806055572" lon="8.96862777962">
		<tag k="alt_name" v="Store Balttjenn" />
		<tag k="name" v="Balttjern" />
		<tag k="natural" v="water" />
		<tag k="ssr:stedsnr" v="911466" />
	</node>
	<node id="-525337" lat="58.6399027764" lon="8.943252779">
		<tag k="fixme" v="multiple name tags, choose one and add the other to alt_name" />
		<tag k="name" v="Tungetjenn;Tungevann" />
		<tag k="natural" v="water" />
		<tag k="ssr:stedsnr" v="911413" />
	</node>
	<node id="-525329" lat="58.6279305577" lon="8.94471944067">
		<tag k="alt_name" v="Svarttjenn" />
		<tag k="name" v="Svarttjern" />
		<tag k="natural" v="water" />
		<tag k="ssr:stedsnr" v="911356" />
	</node>
	<node id="-525328" lat="58.5800888897" lon="8.91318333054">
		<tag k="alt_name" v="Revstjenn" />
		<tag k="name" v="Revstjern" />
		<tag k="natural" v="water" />
		<tag k="ssr:stedsnr" v="911302" />
	</node>
	<node id="-525312" lat="58.612950003" lon="8.85046388852">
		<tag k="name" v="Grunnetjennene" />
		<tag k="natural" v="water" />
		<tag k="ssr:stedsnr" v="697915" />
	</node>
	<node id="-525311" lat="58.6103055517" lon="8.86370554739">
		<tag k="name" v="Søre Holtstjenn" />
		<tag k="natural" v="water" />
		<tag k="ssr:stedsnr" v="697912" />
	</node>
	<node id="-525310" lat="58.6207583372" lon="8.83863888344">
		<tag k="name" v="Lillelv" />
		<tag k="ssr:stedsnr" v="697909" />
		<tag k="waterway" v="stream" />
	</node>
	<node id="-525300" lat="58.6756527733" lon="8.9515916627">
		<tag k="name" v="Mårråstjenn" />
		<tag k="natural" v="water" />
		<tag k="ssr:stedsnr" v="697560" />
	</node>
	<node id="-525295" lat="58.6434027763" lon="9.06463055317">
		<tag k="name" v="Sautangen" />
		<tag k="natural" v="cape" />
		<tag k="ssr:stedsnr" v="697471" />
	</node>
	<node id="-525285" lat="58.6998277802" lon="8.96714722803">
		<tag k="name" v="Østre Sandvatjenn" />
		<tag k="natural" v="water" />
		<tag k="ssr:stedsnr" v="697321" />
	</node>
	<node id="-525248" lat="58.6367000015" lon="8.9334027854">
		<tag k="name" v="Ytre Pytten" />
		<tag k="natural" v="water" />
		<tag k="ssr:stedsnr" v="879839" />
		<tag k="water" v="pond" />
	</node>
	<node id="-525244" lat="58.6702250031" lon="8.88583056224">
		<tag k="name" v="Østebøtjenn" />
		<tag k="natural" v="water" />
		<tag k="ssr:stedsnr" v="879791" />
	</node>
	<node id="-525242" lat="58.6471333367" lon="8.88177221573">
		<tag k="name" v="Rosselandstjenn" />
		<tag k="natural" v="water" />
		<tag k="ssr:stedsnr" v="879746" />
	</node>
	<node id="-525238" lat="58.6260138854" lon="8.9818611125">
		<tag k="name" v="Vannimellomtjenn" />
		<tag k="natural" v="water" />
		<tag k="ssr:stedsnr" v="879735" />
	</node>
	<node id="-525236" lat="58.6265833304" lon="8.97576944526">
		<tag k="name" v="Brenteholmen" />
		<tag k="place" v="islet" />
		<tag k="ssr:stedsnr" v="879722" />
	</node>
	<node id="-525230" lat="58.6304000012" lon="8.98753611175">
		<tag k="name" v="Toriholmen" />
		<tag k="place" v="islet" />
		<tag k="ssr:stedsnr" v="879682" />
	</node>
	<node id="-525224" lat="58.6758027818" lon="9.01311666045">
		<tag k="name" v="Sørstrand" />
		<tag k="natural" v="beach" />
		<tag k="ssr:stedsnr" v="879590" />
	</node>
	<node id="-525222" lat="58.6734222231" lon="9.01926666947">
		<tag k="name" v="Fiskodden" />
		<tag k="natural" v="cape" />
		<tag k="ssr:stedsnr" v="879572" />
	</node>
	<node id="-525207" lat="58.6575888906" lon="8.95755554716">
		<tag k="name" v="Butjenn" />
		<tag k="natural" v="water" />
		<tag k="ssr:stedsnr" v="879361" />
	</node>
	<node id="-525202" lat="58.6631722247" lon="9.00191110852">
		<tag k="name" v="Øygardstjenn" />
		<tag k="natural" v="water" />
		<tag k="ssr:stedsnr" v="879332" />
	</node>
	<node id="-525187" lat="58.6477305557" lon="9.07290277254">
		<tag k="name" v="Lona" />
		<tag k="natural" v="water" />
		<tag k="ssr:stedsnr" v="879118" />
		<tag k="water" v="lake" />
	</node>
	<node id="-525182" lat="58.65293056" lon="9.08753610479">
		<tag k="name" v="Mellom Svinebutjenn" />
		<tag k="natural" v="water" />
		<tag k="ssr:stedsnr" v="879108" />
	</node>
	<node id="-525180" lat="58.6933388881" lon="9.07069722509">
		<tag k="name" v="Maurtangen" />
		<tag k="natural" v="cape" />
		<tag k="ssr:stedsnr" v="879096" />
	</node>
	<node id="-525173" lat="58.5943750008" lon="8.78590277306">
		<tag k="name" v="Kalvesund" />
		<tag k="natural" v="strait" />
		<tag k="ssr:stedsnr" v="879076" />
	</node>
	<node id="-525170" lat="58.61396111" lon="8.82523056217">
		<tag k="name" v="Lona" />
		<tag k="natural" v="water" />
		<tag k="ssr:stedsnr" v="879047" />
		<tag k="water" v="lake" />
	</node>
	<node id="-525165" lat="58.6359333297" lon="8.75757777174">
		<tag k="name" v="Hessnes" />
		<tag k="natural" v="cape" />
		<tag k="ssr:stedsnr" v="879027" />
	</node>
	<node id="-525164" lat="58.6410916679" lon="8.77506389384">
		<tag k="name" v="Møbøvann" />
		<tag k="natural" v="water" />
		<tag k="ssr:stedsnr" v="879024" />
		<tag k="water" v="lake" />
	</node>
	<node id="-525150" lat="58.6094833333" lon="8.82211389273">
		<tag k="name" v="Heirevann" />
		<tag k="natural" v="water" />
		<tag k="ssr:stedsnr" v="729796" />
		<tag k="water" v="lake" />
	</node>
	<node id="-525144" lat="58.6787999989" lon="8.89562500833">
		<tag k="alt_name" v="Sjøstadvann" />
		<tag k="name" v="Sjøstadvatnet" />
		<tag k="natural" v="water" />
		<tag k="ssr:stedsnr" v="729455" />
		<tag k="water" v="lake" />
	</node>
	<node id="-525143" lat="58.6673055531" lon="8.94455555392">
		<tag k="alt_name" v="Morttjenn" />
		<tag k="name" v="Morttjern" />
		<tag k="natural" v="water" />
		<tag k="ssr:stedsnr" v="729445" />
	</node>
	<node id="-525140" lat="58.6581367893" lon="8.93042201961">
		<tag k="alt_name" v="Åsvann" />
		<tag k="name" v="Åsvannet" />
		<tag k="natural" v="water" />
		<tag k="ssr:stedsnr" v="729425" />
	</node>
	<node id="-525138" lat="58.6498166704" lon="9.08783056082">
		<tag k="name" v="Svinebutjern" />
		<tag k="natural" v="water" />
		<tag k="ssr:stedsnr" v="729406" />
	</node>
	<node id="-525135" lat="58.6399638855" lon="9.03423055122">
		<tag k="name" v="Svartvann" />
		<tag k="natural" v="water" />
		<tag k="ssr:stedsnr" v="729395" />
	</node>
	<node id="-525127" lat="58.5894694415" lon="8.91056944035">
		<tag k="name" v="Vålevann" />
		<tag k="natural" v="water" />
		<tag k="ssr:stedsnr" v="729335" />
	</node>
	<node id="-525110" lat="58.64401667" lon="9.00939999233">
		<tag k="name" v="Skotmyrtjenn" />
		<tag k="natural" v="water" />
		<tag k="ssr:stedsnr" v="636763" />
	</node>
	<node id="-525105" lat="58.6238777738" lon="8.98031389473">
		<tag k="name" v="Bolletjenn" />
		<tag k="natural" v="water" />
		<tag k="ssr:stedsnr" v="636515" />
	</node>
	<node id="-525102" lat="58.6642194422" lon="9.01267222136">
		<tag k="name" v="Tvitjennene" />
		<tag k="natural" v="water" />
		<tag k="ssr:stedsnr" v="636358" />
	</node>
	<node id="-525101" lat="58.6639694425" lon="9.03996388348">
		<tag k="name" v="Kriskjærrtjenn" />
		<tag k="natural" v="water" />
		<tag k="ssr:stedsnr" v="636356" />
	</node>
	<node id="-525099" lat="58.6090944412" lon="8.92520000756">
		<tag k="name" v="Gladstadtjenn" />
		<tag k="natural" v="water" />
		<tag k="ssr:stedsnr" v="636654" />
	</node>
	<node id="-525098" lat="58.6816861071" lon="9.04433333966">
		<tag k="name" v="Styrtbekk" />
		<tag k="ssr:stedsnr" v="636624" />
		<tag k="waterway" v="stream" />
	</node>
	<node id="-525087" lat="58.6569416646" lon="9.07950000666">
		<tag k="name" v="Løvdalstangen" />
		<tag k="natural" v="cape" />
		<tag k="ssr:stedsnr" v="636106" />
	</node>
	<node id="-525081" lat="58.6131666653" lon="8.76835832868">
		<tag k="name" v="Svinstjenn" />
		<tag k="natural" v="water" />
		<tag k="ssr:stedsnr" v="636057" />
	</node>
	<node id="-525072" lat="58.6033555561" lon="8.84050556047">
		<tag k="name" v="Åmbuvann" />
		<tag k="natural" v="water" />
		<tag k="ssr:stedsnr" v="607782" />
	</node>
	<node id="-525067" lat="58.6683194475" lon="9.0871555591">
		<tag k="name" v="Gulspettvannet" />
		<tag k="natural" v="water" />
		<tag k="ssr:stedsnr" v="607440" />
		<tag k="water" v="lake" />
	</node>
	<node id="-525056" lat="58.6313527746" lon="8.84502222753">
		<tag k="name" v="Slettatjenn" />
		<tag k="natural" v="water" />
		<tag k="ssr:stedsnr" v="575921" />
	</node>
	<node id="-524416" lat="58.5981694445" lon="8.79811666655">
		<tag k="alt_name" v="Sortetjenn" />
		<tag k="name" v="Sortetjern" />
		<tag k="natural" v="water" />
		<tag k="ssr:stedsnr" v="243826" />
	</node>
	<node id="-525054" lat="58.6399583299" lon="8.82790000622">
		<tag k="name" v="Pøddetjenn" />
		<tag k="natural" v="water" />
		<tag k="ssr:stedsnr" v="575911" />
	</node>
	<node id="-524415" lat="58.6880444455" lon="8.99306666773">
		<tag k="alt_name" v="Tvitjennene" />
		<tag k="name" v="Tvitjørnane" />
		<tag k="natural" v="water" />
		<tag k="ssr:stedsnr" v="243465" />
	</node>
	<node id="-525048" lat="58.6328333333" lon="9.01873610762">
		<tag k="name" v="Butangen" />
		<tag k="natural" v="cape" />
		<tag k="ssr:stedsnr" v="575703" />
	</node>
	<node id="-525044" lat="58.5895249992" lon="9.05044722461">
		<tag k="name" v="Innertj." />
		<tag k="natural" v="water" />
		<tag k="ssr:stedsnr" v="575485" />
	</node>
	<node id="-525043" lat="58.6360222211" lon="9.05610278317">
		<tag k="name" v="Hollendersund" />
		<tag k="natural" v="strait" />
		<tag k="ssr:stedsnr" v="575472" />
	</node>
	<node id="-525042" lat="58.6344611146" lon="9.04766389281">
		<tag k="name" v="Ingjerdsstrand" />
		<tag k="natural" v="beach" />
		<tag k="ssr:stedsnr" v="575466" />
	</node>
	<node id="-525026" lat="58.6309027759" lon="8.78263332919">
		<tag k="name" v="Heglandstjenn" />
		<tag k="natural" v="water" />
		<tag k="ssr:stedsnr" v="575111" />
	</node>
	<node id="-525018" lat="58.5998861139" lon="8.85758611152">
		<tag k="name" v="Paddetjenn" />
		<tag k="natural" v="water" />
		<tag k="ssr:stedsnr" v="575063" />
	</node>
	<node id="-525015" lat="58.5927083335" lon="8.84394721569">
		<tag k="name" v="Nedre Skålandstjenna" />
		<tag k="natural" v="water" />
		<tag k="ssr:stedsnr" v="575056" />
	</node>
	<node id="-525010" lat="58.6287249999" lon="8.78459443929">
		<tag k="name" v="Heglandstjenn" />
		<tag k="natural" v="water" />
		<tag k="ssr:stedsnr" v="575004" />
	</node>
	<node id="-525002" lat="58.6658083309" lon="8.89036666279">
		<tag k="name" v="Dalanskjerrene" />
		<tag k="natural" v="water" />
		<tag k="ssr:stedsnr" v="697991" />
	</node>
	<node id="-525001" lat="58.6633888923" lon="8.88435554859">
		<tag k="name" v="Ausel-Småtjennene" />
		<tag k="natural" v="water" />
		<tag k="ssr:stedsnr" v="697990" />
	</node>
	<node id="-524988" lat="58.6562888917" lon="8.8863583278">
		<tag k="name" v="Heitjennene" />
		<tag k="natural" v="water" />
		<tag k="ssr:stedsnr" v="697747" />
	</node>
	<node id="-524986" lat="58.6563361142" lon="8.89299167044">
		<tag k="name" v="Ertetjenn" />
		<tag k="natural" v="water" />
		<tag k="ssr:stedsnr" v="697742" />
	</node>
	<node id="-524981" lat="58.6740666669" lon="8.89483888162">
		<tag k="name" v="Østre Almedalstjenn" />
		<tag k="natural" v="water" />
		<tag k="ssr:stedsnr" v="697819" />
	</node>
	<node id="-524977" lat="58.6873249979" lon="8.9031305583">
		<tag k="name" v="Kvernfossen" />
		<tag k="natural" v="waterfall" />
		<tag k="ssr:stedsnr" v="697794" />
	</node>
	<node id="-524974" lat="58.6868944405" lon="8.92182778597">
		<tag k="name" v="Byttefoss" />
		<tag k="natural" v="waterfall" />
		<tag k="ssr:stedsnr" v="697786" />
	</node>
	<node id="-524965" lat="58.5922444482" lon="9.05521667525">
		<tag k="name" v="Østertjenn" />
		<tag k="natural" v="water" />
		<tag k="ssr:stedsnr" v="697488" />
	</node>
	<node id="-524962" lat="58.6011805529" lon="8.99149443806">
		<tag k="name" v="Vasstølen" />
		<tag k="natural" v="beach" />
		<tag k="ssr:stedsnr" v="697623" />
	</node>
	<node id="-524957" lat="58.6788388873" lon="8.99535832523">
		<tag k="name" v="Nilsesvik" />
		<tag k="natural" v="bay" />
		<tag k="ssr:stedsnr" v="697594" />
	</node>
	<node id="-524953" lat="58.6765638928" lon="9.03395833976">
		<tag k="name" v="Brunodden" />
		<tag k="natural" v="cape" />
		<tag k="ssr:stedsnr" v="697581" />
	</node>
	<node id="-524951" lat="58.6817027751" lon="8.95922500721">
		<tag k="name" v="Sandvannselva" />
		<tag k="ssr:stedsnr" v="697573" />
		<tag k="waterway" v="stream" />
	</node>
	<node id="-526786" lat="58.6472055535" lon="8.86154167322">
		<tag k="name" v="Langtjenn" />
		<tag k="natural" v="water" />
		<tag k="ssr:stedsnr" v="818949" />
	</node>
	<node id="-524936" lat="58.6546055513" lon="9.08757500671">
		<tag k="name" v="Indre Svinebutjenn" />
		<tag k="natural" v="water" />
		<tag k="ssr:stedsnr" v="697145" />
	</node>
	<node id="-524916" lat="58.6784638932" lon="9.02490000365">
		<tag k="name" v="Kvitebergholmen" />
		<tag k="place" v="islet" />
		<tag k="ssr:stedsnr" v="515615" />
	</node>
	<node id="-524912" lat="58.6539166666" lon="8.99910554889">
		<tag k="name" v="Hellersheftet" />
		<tag k="natural" v="cape" />
		<tag k="ssr:stedsnr" v="515324" />
	</node>
	<node id="-524904" lat="58.5983111113" lon="8.79023611629">
		<tag k="name" v="Storneset" />
		<tag k="natural" v="cape" />
		<tag k="ssr:stedsnr" v="515213" />
	</node>
	<node id="-524889" lat="58.6255194486" lon="8.97429165971">
		<tag k="name" v="Østeråvannet" />
		<tag k="natural" v="water" />
		<tag k="ssr:stedsnr" v="486367" />
		<tag k="water" v="lake" />
	</node>
	<node id="-524880" lat="58.6140638871" lon="8.75505832802">
		<tag k="alt_name" v="Vålandstjenn" />
		<tag k="name" v="Vålandstjern" />
		<tag k="natural" v="water" />
		<tag k="ssr:stedsnr" v="668813" />
	</node>
	<node id="-524876" lat="58.6724166676" lon="9.06959445027">
		<tag k="alt_name" v="Litjenn" />
		<tag k="name" v="Litjern" />
		<tag k="natural" v="water" />
		<tag k="ssr:stedsnr" v="668446" />
	</node>
	<node id="-524874" lat="58.6538111155" lon="8.95696666057">
		<tag k="alt_name" v="Valletjenn" />
		<tag k="name" v="Valletjern" />
		<tag k="natural" v="water" />
		<tag k="ssr:stedsnr" v="668426" />
	</node>
	<node id="-524873" lat="58.635966667" lon="8.88997222127">
		<tag k="name" v="Storelva" />
		<tag k="ssr:stedsnr" v="668419" />
		<tag k="waterway" v="river" />
	</node>
	<node id="-524862" lat="58.5993277815" lon="8.85396110409">
		<tag k="alt_name" v="Stortjenn" />
		<tag k="name" v="Stortjern" />
		<tag k="natural" v="water" />
		<tag k="ssr:stedsnr" v="668349" />
	</node>
	<node id="-526908" lat="58.6703196706" lon="9.09666344825">
		<tag k="name" v="Maurnestjenn" />
		<tag k="natural" v="water" />
		<tag k="ssr:stedsnr" v="90385" />
	</node>
	<node id="-524851" lat="58.6261777752" lon="8.96717500599">
		<tag k="name" v="Vaskeholmen" />
		<tag k="place" v="islet" />
		<tag k="ssr:stedsnr" v="454757" />
	</node>
	<node id="-524845" lat="58.5961972196" lon="8.9853777813">
		<tag k="name" v="Lona" />
		<tag k="natural" v="water" />
		<tag k="ssr:stedsnr" v="454655" />
		<tag k="water" v="lake" />
	</node>
	<node id="-524826" lat="58.6623555561" lon="9.09142500055">
		<tag k="name" v="Folevannskilen" />
		<tag k="natural" v="bay" />
		<tag k="ssr:stedsnr" v="454106" />
	</node>
	<node id="-524825" lat="58.6111611154" lon="8.74573055091">
		<tag k="name" v="Beindalstjenn" />
		<tag k="natural" v="water" />
		<tag k="ssr:stedsnr" v="454042" />
	</node>
	<node id="-524824" lat="58.6540555526" lon="9.04485555143">
		<tag k="name" v="Hofsdalsøya" />
		<tag k="place" v="island" />
		<tag k="ssr:stedsnr" v="454034" />
	</node>
	<node id="-524797" lat="58.5943500041" lon="8.89410278627">
		<tag k="alt_name" v="Kroktjenn" />
		<tag k="name" v="Kroktjern" />
		<tag k="natural" v="water" />
		<tag k="ssr:stedsnr" v="425324" />
	</node>
	<node id="-524780" lat="58.6453861098" lon="9.02597222706">
		<tag k="name" v="Hontjenn" />
		<tag k="natural" v="water" />
		<tag k="ssr:stedsnr" v="515757" />
	</node>
	<node id="-524779" lat="58.6414638908" lon="9.01408332604">
		<tag k="name" v="Øygardstjenn" />
		<tag k="natural" v="water" />
		<tag k="ssr:stedsnr" v="515755" />
	</node>
	<node id="-524773" lat="58.6394416693" lon="8.97670833142">
		<tag k="name" v="Fagermyrtjenn" />
		<tag k="natural" v="water" />
		<tag k="ssr:stedsnr" v="515702" />
	</node>
	<node id="-524768" lat="58.585544448" lon="9.00728610685">
		<tag k="name" v="Blodkiltjenn" />
>>>>>>> e1d4bc35ff8a6074a6f2e91616a996b547c36f15
		<tag k="natural" v="water" />
		<tag k="ssr:stedsnr" v="515667" />
	</node>
<<<<<<< HEAD
	<node lat="58.69048611393916" lon="8.862763880297514" id="-22788">
		<tag k="name" v="Sandtjenn" />
		<tag k="natural" v="water" />
		<tag k="ssr:stedsnr" v="29846" />
	</node>
	<node lat="58.62040555752231" lon="8.848722223958228" id="-22791">
		<tag k="name" v="Kattjenn" />
		<tag k="natural" v="water" />
		<tag k="ssr:stedsnr" v="29898" />
		<tag k="water" v="pond" />
	</node>
	<node lat="58.617091671036256" lon="8.863508325338008" id="-22792">
		<tag k="name" v="Meldalstjenn" />
		<tag k="natural" v="water" />
		<tag k="ssr:stedsnr" v="29904" />
	</node>
	<node lat="58.56926388872459" lon="8.886355549999454" id="-22810">
		<tag k="alt_name" v="Jordtjenn" />
		<tag k="name" v="Jordtjern" />
		<tag k="natural" v="water" />
		<tag k="ssr:stedsnr" v="61253" />
	</node>
	<node lat="58.66974444370985" lon="8.919808331003944" id="-22812">
		<tag k="alt_name" v="Kråketjenn" />
		<tag k="name" v="Kråketjern" />
		<tag k="natural" v="water" />
		<tag k="ssr:stedsnr" v="61435" />
	</node>
	<node lat="58.60595000038845" lon="8.931105547239458" id="-22821">
		<tag k="alt_name" v="Svennskottjenn" />
		<tag k="name" v="Skuggeviktjern" />
		<tag k="natural" v="water" />
		<tag k="ssr:stedsnr" v="62340" />
	</node>
	<node lat="58.63815103418852" lon="9.012859181128242" id="-22823">
		<tag k="alt_name" v="Killingtjenn" />
		<tag k="name" v="Killingtjerna" />
		<tag k="natural" v="water" />
		<tag k="ssr:stedsnr" v="62366" />
	</node>
	<node lat="58.59039722390325" lon="8.773805547278922" id="-22842">
		<tag k="name" v="Gammeltjenn" />
		<tag k="natural" v="water" />
		<tag k="ssr:stedsnr" v="90054" />
	</node>
	<node lat="58.635297221390815" lon="8.87343333421663" id="-22852">
		<tag k="name" v="Rossbekken" />
		<tag k="ssr:stedsnr" v="90931" />
		<tag k="waterway" v="stream" />
	</node>
	<node lat="58.663719444065215" lon="9.021911105561871" id="-22863">
		<tag k="name" v="Dypdalstjenn" />
		<tag k="natural" v="water" />
		<tag k="ssr:stedsnr" v="90331" />
	</node>
	<node lat="58.665666669718014" lon="9.018516672211874" id="-22864">
		<tag k="name" v="Kalvetjenn" />
		<tag k="natural" v="water" />
		<tag k="ssr:stedsnr" v="90332" />
	</node>
	<node lat="58.68063888840805" lon="9.029966658517584" id="-22874">
		<tag k="name" v="Langbekk" />
		<tag k="ssr:stedsnr" v="90598" />
		<tag k="waterway" v="stream" />
	</node>
	<node lat="58.678130559372775" lon="9.028619442452413" id="-22875">
		<tag k="name" v="Skrikerodden" />
		<tag k="natural" v="cape" />
		<tag k="ssr:stedsnr" v="90601" />
	</node>
	<node lat="58.64411389049541" lon="9.039511107057692" id="-22877">
		<tag k="name" v="Askedalstjenn" />
		<tag k="natural" v="water" />
		<tag k="ssr:stedsnr" v="90703" />
	</node>
	<node lat="58.62686388505102" lon="8.9772499995507" id="-22879">
		<tag k="name" v="Bærholmen" />
		<tag k="place" v="islet" />
		<tag k="ssr:stedsnr" v="90710" />
	</node>
	<node lat="58.591149997028865" lon="8.893736103483953" id="-22882">
		<tag k="name" v="Rambergsmyra" />
		<tag k="natural" v="water" />
		<tag k="ssr:stedsnr" v="90886" />
		<tag k="water" v="pond" />
	</node>
	<node lat="58.62180833714477" lon="8.922083332069041" id="-22885">
		<tag k="name" v="Lisletjenn" />
		<tag k="natural" v="water" />
		<tag k="ssr:stedsnr" v="90631" />
	</node>
	<node lat="58.6732111132635" lon="8.891424996369265" id="-22893">
		<tag k="name" v="Vestre Almedalstjenn" />
		<tag k="natural" v="water" />
		<tag k="ssr:stedsnr" v="90793" />
	</node>
	<node lat="58.61333611540016" lon="8.862533326243412" id="-22899">
		<tag k="name" v="Nordre Holtstjenn" />
		<tag k="natural" v="water" />
		<tag k="ssr:stedsnr" v="90899" />
	</node>
	<node lat="58.60871944393235" lon="8.967638886547295" id="-22909">
		<tag k="alt_name" v="Sagtjenn" />
		<tag k="name" v="Sagtjern" />
		<tag k="natural" v="water" />
		<tag k="ssr:stedsnr" v="122350" />
	</node>
	<node lat="58.57497777920656" lon="8.936497225412142" id="-22914">
		<tag k="alt_name" v="Åltjenn;Åltjern" />
		<tag k="name" v="Åltjønn" />
		<tag k="natural" v="water" />
		<tag k="ssr:stedsnr" v="122301" />
	</node>
	<node lat="58.62707500437842" lon="8.819313882841888" id="-22923">
		<tag k="name" v="Djupedalstjenn" />
		<tag k="natural" v="water" />
		<tag k="ssr:stedsnr" v="150001" />
	</node>
	<node lat="58.69394444824188" lon="9.073533325910558" id="-22925">
		<tag k="name" v="Bjørkholmen" />
		<tag k="place" v="islet" />
		<tag k="ssr:stedsnr" v="150083" />
	</node>
	<node lat="58.61774721986433" lon="8.797225004485028" id="-22931">
		<tag k="name" v="Lindlandstjenn" />
		<tag k="natural" v="water" />
		<tag k="ssr:stedsnr" v="150041" />
	</node>
	<node lat="58.65998888926096" lon="8.999566666635507" id="-22946">
		<tag k="name" v="Lontjenn" />
		<tag k="natural" v="water" />
		<tag k="ssr:stedsnr" v="150348" />
	</node>
	<node lat="58.61100277578719" lon="8.902097215551958" id="-22951">
		<tag k="name" v="Øygardstjenn" />
		<tag k="natural" v="water" />
		<tag k="ssr:stedsnr" v="150636" />
	</node>
	<node lat="58.64528889003549" lon="9.076655561188847" id="-22957">
		<tag k="name" v="Størdalstangen" />
		<tag k="natural" v="cape" />
		<tag k="ssr:stedsnr" v="150488" />
	</node>
	<node lat="58.639505559849916" lon="9.046586111263812" id="-22958">
		<tag k="name" v="Mellomhølen" />
		<tag k="place" v="locality" />
		<tag k="ssr:stedsnr" v="150494" />
	</node>
	<node lat="58.63267499842126" lon="9.049347214799225" id="-22959">
		<tag k="name" v="Odden" />
		<tag k="natural" v="cape" />
		<tag k="ssr:stedsnr" v="150497" />
	</node>
	<node lat="58.63806666390287" lon="8.98928333534369" id="-22964">
		<tag k="name" v="Pøddetjenn" />
		<tag k="natural" v="water" />
		<tag k="ssr:stedsnr" v="150673" />
	</node>
	<node lat="58.68761666406324" lon="8.961394451897156" id="-22968">
		<tag k="name" v="Sandvann" />
		<tag k="natural" v="water" />
		<tag k="ssr:stedsnr" v="150547" />
		<tag k="water" v="lake" />
	</node>
	<node lat="58.625069441303076" lon="8.962961110557167" id="-22971">
		<tag k="name" v="Tranbærlona" />
		<tag k="natural" v="water" />
		<tag k="ssr:stedsnr" v="150711" />
		<tag k="water" v="lake" />
	</node>
	<node lat="58.687897222270806" lon="8.891561112007262" id="-22975">
		<tag k="name" v="Tørkelsteinrata" />
		<tag k="place" v="locality" />
		<tag k="ssr:stedsnr" v="150747" />
	</node>
	<node lat="58.59152500357825" lon="8.89429722877319" id="-22977">
		<tag k="name" v="Rambergstjenn" />
		<tag k="natural" v="water" />
		<tag k="ssr:stedsnr" v="150878" />
	</node>
	<node lat="58.61978889314778" lon="8.830266662661545" id="-22979">
		<tag k="name" v="Marendalselva" />
		<tag k="ssr:stedsnr" v="150885" />
		<tag k="waterway" v="stream" />
	</node>
	<node lat="58.62258332957541" lon="8.86238055434675" id="-22982">
		<tag k="name" v="Skarkedalsbekken" />
		<tag k="ssr:stedsnr" v="150895" />
		<tag k="waterway" v="stream" />
	</node>
	<node lat="58.63338055225079" lon="8.883258325306143" id="-22993">
		<tag k="name" v="Leirnes" />
		<tag k="natural" v="cape" />
		<tag k="ssr:stedsnr" v="150851" />
	</node>
	<node lat="58.656416670311266" lon="8.850647220515631" id="-23004">
		<tag k="name" v="Kolbutjenn" />
		<tag k="natural" v="water" />
		<tag k="ssr:stedsnr" v="272970" />
	</node>
	<node lat="58.67215277651444" lon="8.910180555691777" id="-23015">
		<tag k="name" v="Skjerkholtlonene" />
		<tag k="natural" v="water" />
		<tag k="ssr:stedsnr" v="183398" />
		<tag k="water" v="lake" />
	</node>
	<node lat="58.6432416626059" lon="8.764622223713976" id="-23018">
		<tag k="name" v="Sandvann" />
		<tag k="natural" v="water" />
		<tag k="ssr:stedsnr" v="183979" />
		<tag k="water" v="lake" />
	</node>
	<node lat="58.63736111137695" lon="8.76729167279089" id="-23027">
		<tag k="name" v="Foletjenn" />
		<tag k="natural" v="water" />
		<tag k="ssr:stedsnr" v="211022" />
	</node>
	<node lat="58.632880551945746" lon="8.75964721646179" id="-23029">
		<tag k="name" v="Marktangen" />
		<tag k="natural" v="cape" />
		<tag k="ssr:stedsnr" v="211026" />
	</node>
	<node lat="58.593555554321604" lon="8.79211667411188" id="-23033">
		<tag k="name" v="Skrovsneset" />
		<tag k="natural" v="cape" />
		<tag k="ssr:stedsnr" v="211067" />
	</node>
	<node lat="58.679738887781085" lon="9.02757778187338" id="-23059">
		<tag k="name" v="Kvernnes" />
		<tag k="natural" v="cape" />
		<tag k="ssr:stedsnr" v="211615" />
	</node>
	<node lat="58.67287778033711" lon="9.00235834035401" id="-23061">
		<tag k="name" v="Hessnesodden" />
		<tag k="natural" v="cape" />
		<tag k="ssr:stedsnr" v="211621" />
	</node>
	<node lat="58.63142222292782" lon="8.946880562678095" id="-23062">
		<tag k="name" v="Øvre Svarttjenn" />
		<tag k="natural" v="water" />
		<tag k="ssr:stedsnr" v="211687" />
	</node>
	<node lat="58.60062500418478" lon="9.00913611194003" id="-23068">
		<tag k="name" v="Hovdansbukta" />
		<tag k="natural" v="bay" />
		<tag k="ssr:stedsnr" v="211673" />
	</node>
	<node lat="58.63037221792131" lon="8.973158327780444" id="-23075">
		<tag k="name" v="Høyåstjenn" />
		<tag k="natural" v="water" />
		<tag k="ssr:stedsnr" v="211692" />
	</node>
	<node lat="58.64196944653016" lon="8.944633325480208" id="-23076">
		<tag k="name" v="Øvre Tungetjenn" />
		<tag k="natural" v="water" />
		<tag k="ssr:stedsnr" v="211707" />
	</node>
	<node lat="58.66759444076724" lon="8.999847220235788" id="-23086">
		<tag k="name" v="Kilbukta" />
		<tag k="natural" v="bay" />
		<tag k="ssr:stedsnr" v="212040" />
	</node>
	<node lat="58.574569469777515" lon="8.909732255042336" id="-23105">
		<tag k="name" v="Alvetjenn" />
		<tag k="natural" v="water" />
		<tag k="ssr:stedsnr" v="304255" />
	</node>
	<node lat="58.65571111529029" lon="8.899658326269522" id="-23109">
=======
	<node id="-526812" lat="58.6183138921" lon="8.85417499826">
		<tag k="alt_name" v="Gangdalstjenna" />
		<tag k="name" v="Gangdalstjern" />
		<tag k="natural" v="water" />
		<tag k="ssr:stedsnr" v="851335" />
	</node>
	<node id="-526807" lat="58.5942277755" lon="8.8472888937">
		<tag k="alt_name" v="Øvre Skålandstjenna" />
		<tag k="name" v="Skålandtjerna" />
		<tag k="natural" v="water" />
		<tag k="ssr:stedsnr" v="851307" />
	</node>
	<node id="-526804" lat="58.6870416636" lon="8.92192500219">
		<tag k="name" v="Beindalselva" />
		<tag k="ssr:stedsnr" v="850496" />
		<tag k="waterway" v="stream" />
	</node>
	<node id="-526802" lat="58.6877388912" lon="8.98711388475">
		<tag k="alt_name" v="Gåstjenn" />
		<tag k="name" v="Gåstjern" />
		<tag k="natural" v="water" />
		<tag k="ssr:stedsnr" v="850485" />
	</node>
	<node id="-526800" lat="58.6654499957" lon="9.07814999504">
		<tag k="alt_name" v="Råbergtjenn" />
		<tag k="name" v="Råbergtjern" />
		<tag k="natural" v="water" />
		<tag k="ssr:stedsnr" v="850436" />
	</node>
	<node id="-526789" lat="58.6152166667" lon="8.83738888991">
		<tag k="name" v="Båslandstjenn" />
		<tag k="natural" v="water" />
		<tag k="ssr:stedsnr" v="851801" />
	</node>
	<node id="-524738" lat="58.6666166646" lon="9.05184721526">
		<tag k="name" v="Tussetjenn" />
		<tag k="natural" v="water" />
		<tag k="ssr:stedsnr" v="515412" />
	</node>
	<node id="-526785" lat="58.644241669" lon="8.86387777382">
		<tag k="name" v="Tatertjenn" />
		<tag k="natural" v="water" />
		<tag k="ssr:stedsnr" v="818937" />
	</node>
	<node id="-526782" lat="58.6101416707" lon="8.83175000329">
		<tag k="name" v="Rambergtjenn" />
		<tag k="natural" v="water" />
		<tag k="ssr:stedsnr" v="818926" />
	</node>
	<node id="-526781" lat="58.608974996" lon="8.85222222101">
		<tag k="name" v="Bjortjenn" />
		<tag k="natural" v="water" />
		<tag k="ssr:stedsnr" v="818924" />
	</node>
	<node id="-524730" lat="58.6509750033" lon="8.9368555558">
		<tag k="name" v="Reinene" />
		<tag k="natural" v="beach" />
		<tag k="ssr:stedsnr" v="515358" />
	</node>
	<node id="-524727" lat="58.6625833351" lon="8.99913333789">
		<tag k="name" v="Lona" />
		<tag k="natural" v="water" />
		<tag k="ssr:stedsnr" v="515342" />
		<tag k="water" v="lake" />
	</node>
	<node id="-524712" lat="58.597594447" lon="8.85162778513">
		<tag k="name" v="Lilletjenn" />
		<tag k="natural" v="water" />
		<tag k="ssr:stedsnr" v="515080" />
	</node>
	<node id="-524709" lat="58.6016194404" lon="8.84936110996">
		<tag k="name" v="Skålands Langetjenn" />
		<tag k="natural" v="water" />
		<tag k="ssr:stedsnr" v="515076" />
	</node>
	<node id="-526756" lat="58.677972224" lon="9.01740277039">
		<tag k="name" v="Kyrsvika" />
		<tag k="natural" v="bay" />
		<tag k="ssr:stedsnr" v="818642" />
	</node>
	<node id="-524704" lat="58.6458444473" lon="9.09422778303">
		<tag k="name" v="Ålekartjenn" />
		<tag k="natural" v="water" />
		<tag k="ssr:stedsnr" v="515063" />
	</node>
	<node id="-524700" lat="58.6153611146" lon="8.80017778532">
		<tag k="name" v="Lindlandstjenn" />
		<tag k="natural" v="water" />
		<tag k="ssr:stedsnr" v="515040" />
	</node>
	<node id="-524690" lat="58.6889388925" lon="8.89266388787">
		<tag k="name" v="Byttefoss" />
		<tag k="natural" v="waterfall" />
		<tag k="ssr:stedsnr" v="395041" />
	</node>
	<node id="-524688" lat="58.657544446" lon="8.86511666847">
		<tag k="name" v="Lisletjenn" />
		<tag k="natural" v="water" />
		<tag k="ssr:stedsnr" v="393970" />
	</node>
	<node id="-524680" lat="58.6862888891" lon="8.89335834168">
		<tag k="name" v="Ålekarhølen" />
		<tag k="place" v="locality" />
		<tag k="ssr:stedsnr" v="393752" />
	</node>
	<node id="-524676" lat="58.6045972205" lon="8.92281110732">
		<tag k="name" v="Eikåsdalstjenn" />
		<tag k="natural" v="water" />
		<tag k="ssr:stedsnr" v="393625" />
	</node>
	<node id="-526723" lat="58.6513361093" lon="9.07530000459">
		<tag k="name" v="Larsvika" />
		<tag k="natural" v="bay" />
		<tag k="ssr:stedsnr" v="818100" />
	</node>
	<node id="-526721" lat="58.6618500036" lon="9.09287500337">
		<tag k="name" v="Kveldodden" />
		<tag k="natural" v="cape" />
		<tag k="ssr:stedsnr" v="818091" />
	</node>
	<node id="-524671" lat="58.6258166682" lon="8.97138332666">
		<tag k="name" v="Kjeholmen" />
		<tag k="place" v="islet" />
		<tag k="ssr:stedsnr" v="393717" />
	</node>
	<node id="-526712" lat="58.6026348454" lon="8.73980550617">
		<tag k="name" v="Kroktjern" />
		<tag k="natural" v="water" />
		<tag k="ssr:stedsnr" v="789795" />
	</node>
	<node id="-526711" lat="58.6993194459" lon="9.00033332532">
		<tag k="name" v="Skaftstjenna" />
		<tag k="natural" v="water" />
		<tag k="ssr:stedsnr" v="789497" />
	</node>
	<node id="-526710" lat="58.6749749958" lon="8.93165833364">
		<tag k="alt_name" v="Nordtjenn" />
		<tag k="name" v="Nordtjern" />
		<tag k="natural" v="water" />
		<tag k="ssr:stedsnr" v="789452" />
	</node>
	<node id="-524659" lat="58.6490083323" lon="8.97408611394">
		<tag k="name" v="Steindammen" />
		<tag k="ssr:stedsnr" v="393363" />
		<tag k="waterway" v="dam" />
	</node>
	<node id="-526706" lat="58.6507111125" lon="9.061658332">
		<tag k="name" v="Gjøseidvannet" />
		<tag k="natural" v="water" />
		<tag k="ssr:stedsnr" v="789418" />
	</node>
	<node id="-524656" lat="58.6517000042" lon="9.00827222203">
		<tag k="name" v="Stumstjenn" />
		<tag k="natural" v="water" />
		<tag k="ssr:stedsnr" v="393317" />
	</node>
	<node id="-526703" lat="58.5848166672" lon="8.84877499908">
		<tag k="name" v="Jorstadvann" />
		<tag k="natural" v="water" />
		<tag k="ssr:stedsnr" v="789322" />
		<tag k="water" v="lake" />
	</node>
	<node id="-526701" lat="58.5765932567" lon="8.91695013375">
		<tag k="alt_name" v="Sagtjenn" />
		<tag k="name" v="Sagtjern" />
		<tag k="natural" v="water" />
		<tag k="ssr:stedsnr" v="789301" />
	</node>
	<node id="-526738" lat="58.6507388892" lon="8.99815555071">
		<tag k="name" v="Pøddehåla" />
		<tag k="natural" v="water" />
		<tag k="ssr:stedsnr" v="818329" />
	</node>
	<node id="-526696" lat="58.5738888893" lon="8.91446111537">
		<tag k="name" v="Øya" />
		<tag k="place" v="islet" />
		<tag k="ssr:stedsnr" v="786903" />
	</node>
	<node id="-524646" lat="58.5742055538" lon="8.88731388574">
		<tag k="name" v="Grøvene" />
		<tag k="ssr:stedsnr" v="393105" />
		<tag k="waterway" v="stream" />
	</node>
	<node id="-524645" lat="58.5963250008" lon="8.86601389662">
		<tag k="name" v="Strengselva" />
		<tag k="ssr:stedsnr" v="393076" />
		<tag k="waterway" v="stream" />
	</node>
	<node id="-524642" lat="58.6466138928" lon="8.77754722319">
		<tag k="name" v="Sandvasstangen" />
		<tag k="natural" v="cape" />
		<tag k="ssr:stedsnr" v="393009" />
	</node>
	<node id="-524635" lat="58.6018749978" lon="8.74574722172">
		<tag k="name" v="Vålandsbekken" />
		<tag k="ssr:stedsnr" v="364804" />
		<tag k="waterway" v="stream" />
	</node>
	<node id="-524632" lat="58.6293277806" lon="8.76781667416">
		<tag k="name" v="Nedre Vølan" />
		<tag k="natural" v="water" />
		<tag k="ssr:stedsnr" v="486780" />
	</node>
	<node id="-526678" lat="58.6801859073" lon="8.90352461684">
		<tag k="name" v="Svarttjenn" />
		<tag k="natural" v="water" />
		<tag k="ssr:stedsnr" v="757787" />
	</node>
	<node id="-524628" lat="58.685563892" lon="8.90066110968">
		<tag k="alt_name" v="Haukebekk" />
		<tag k="name" v="Haukbekken" />
		<tag k="ssr:stedsnr" v="486491" />
		<tag k="waterway" v="stream" />
	</node>
	<node id="-526674" lat="58.6519666692" lon="8.92140000279">
		<tag k="name" v="Kvittjenn" />
		<tag k="natural" v="water" />
		<tag k="ssr:stedsnr" v="757754" />
	</node>
	<node id="-526673" lat="58.6530916642" lon="8.88145277074">
		<tag k="name" v="Djuptjenn" />
		<tag k="natural" v="water" />
		<tag k="ssr:stedsnr" v="757751" />
	</node>
	<node id="-526668" lat="58.6481972195" lon="8.89345000467">
		<tag k="name" v="Kroktjenn" />
		<tag k="natural" v="water" />
		<tag k="ssr:stedsnr" v="757729" />
	</node>
	<node id="-524612" lat="58.5693555581" lon="8.85989444152">
		<tag k="name" v="Styggtjernane" />
		<tag k="natural" v="water" />
		<tag k="ssr:stedsnr" v="486281" />
	</node>
	<node id="-524609" lat="58.6549027821" lon="9.07955000096">
		<tag k="name" v="Løvdalsvannet" />
		<tag k="natural" v="water" />
		<tag k="ssr:stedsnr" v="486118" />
		<tag k="water" v="lake" />
	</node>
	<node id="-526653" lat="58.5995972264" lon="8.99293055926">
		<tag k="name" v="Store Vassholmen" />
		<tag k="place" v="islet" />
		<tag k="ssr:stedsnr" v="757625" />
	</node>
	<node id="-524596" lat="58.634633334" lon="8.85005278262">
		<tag k="name" v="Båntjenn" />
		<tag k="natural" v="water" />
		<tag k="ssr:stedsnr" v="333936" />
	</node>
	<node id="-524591" lat="58.5868194443" lon="8.91526944876">
		<tag k="name" v="Røyrvik" />
		<tag k="natural" v="bay" />
		<tag k="ssr:stedsnr" v="333905" />
	</node>
	<node id="-524582" lat="58.6843138878" lon="9.0037777711">
		<tag k="name" v="Songestranda" />
		<tag k="natural" v="beach" />
		<tag k="ssr:stedsnr" v="333612" />
	</node>
	<node id="-524581" lat="58.6751250036" lon="9.00840556052">
		<tag k="name" v="Nesodden" />
		<tag k="natural" v="cape" />
		<tag k="ssr:stedsnr" v="333610" />
	</node>
	<node id="-524578" lat="58.6812333298" lon="9.06589721858">
		<tag k="name" v="Lagelva" />
		<tag k="ssr:stedsnr" v="333425" />
		<tag k="waterway" v="river" />
	</node>
	<node id="-526622" lat="58.6516611132" lon="9.0232055485">
		<tag k="name" v="Skogbråtstjenn" />
		<tag k="natural" v="water" />
		<tag k="ssr:stedsnr" v="757322" />
	</node>
	<node id="-524571" lat="58.6627083325" lon="9.09840834172">
		<tag k="name" v="Folevannsholmen" />
		<tag k="place" v="islet" />
		<tag k="ssr:stedsnr" v="333118" />
	</node>
	<node id="-526618" lat="58.6973944431" lon="8.96282777794">
		<tag k="name" v="Store Sandvann" />
		<tag k="natural" v="water" />
		<tag k="ssr:stedsnr" v="757304" />
		<tag k="water" v="lake" />
	</node>
	<node id="-524569" lat="58.6590222253" lon="9.0749305511">
		<tag k="name" v="Reinsfjellstjenn" />
		<tag k="natural" v="water" />
		<tag k="ssr:stedsnr" v="333112" />
	</node>
	<node id="-524568" lat="58.6620361131" lon="9.0588305617">
		<tag k="name" v="Vassenden" />
		<tag k="natural" v="beach" />
		<tag k="ssr:stedsnr" v="333109" />
	</node>
	<node id="-524553" lat="58.6557111153" lon="8.89965832627">
>>>>>>> e1d4bc35ff8a6074a6f2e91616a996b547c36f15
		<tag k="name" v="Sandvann" />
		<tag k="natural" v="water" />
		<tag k="ssr:stedsnr" v="304420" />
	</node>
<<<<<<< HEAD
	<node lat="58.609930557158194" lon="8.857463894884472" id="-23112">
		<tag k="alt_name" v="Langetjenn" />
		<tag k="name" v="Langtjern" />
		<tag k="natural" v="water" />
		<tag k="ssr:stedsnr" v="304334" />
	</node>
	<node lat="58.634805551244774" lon="8.799833334488607" id="-23126">
		<tag k="name" v="Glydalstjenn" />
		<tag k="natural" v="water" />
		<tag k="ssr:stedsnr" v="304784" />
	</node>
	<node lat="58.608647218991074" lon="8.802944447473573" id="-23128">
		<tag k="name" v="Vatnebuvann" />
		<tag k="natural" v="water" />
		<tag k="ssr:stedsnr" v="304799" />
	</node>
	<node lat="58.69343610674309" lon="9.06707222823008" id="-23137">
		<tag k="name" v="Vassbotn" />
		<tag k="natural" v="bay" />
		<tag k="ssr:stedsnr" v="333095" />
	</node>
	<node lat="58.61500277698405" lon="8.792777782711212" id="-23139">
		<tag k="name" v="Steindammen" />
		<tag k="ssr:stedsnr" v="333032" />
		<tag k="waterway" v="dam" />
	</node>
	<node lat="58.68123332984199" lon="9.065897218575865" id="-23155">
		<tag k="name" v="Lagelva" />
		<tag k="ssr:stedsnr" v="333425" />
		<tag k="waterway" v="river" />
	</node>
	<node lat="58.68692777383765" lon="9.005638886664197" id="-23165">
		<tag k="name" v="Songebekken" />
		<tag k="ssr:stedsnr" v="333616" />
		<tag k="waterway" v="stream" />
	</node>
	<node lat="58.642424998890014" lon="9.072247217432928" id="-23174">
		<tag k="name" v="Gaupholmen" />
		<tag k="place" v="islet" />
		<tag k="ssr:stedsnr" v="333495" />
	</node>
	<node lat="58.592166663629676" lon="9.023338894501945" id="-23180">
		<tag k="name" v="Øygårdstjenn" />
		<tag k="natural" v="water" />
		<tag k="ssr:stedsnr" v="333667" />
	</node>
	<node lat="58.63463333399337" lon="8.850052782619343" id="-23197">
		<tag k="name" v="Båntjenn" />
		<tag k="natural" v="water" />
		<tag k="ssr:stedsnr" v="333936" />
	</node>
	<node lat="58.65378333464765" lon="8.869491666014923" id="-23200">
		<tag k="name" v="Saustehølen" />
		<tag k="place" v="locality" />
		<tag k="ssr:stedsnr" v="333962" />
	</node>
	<node lat="58.601874997765016" lon="8.74574722171689" id="-23214">
		<tag k="name" v="Vålandsbekken" />
		<tag k="ssr:stedsnr" v="364804" />
		<tag k="waterway" v="stream" />
	</node>
	<node lat="58.55338055139475" lon="8.891424996430304" id="-23215">
		<tag k="name" v="Langangselva" />
		<tag k="ssr:stedsnr" v="365269" />
		<tag k="waterway" v="stream" />
	</node>
	<node lat="58.67177777956002" lon="8.933344453002015" id="-23222">
		<tag k="alt_name" v="Skottjenn" />
		<tag k="name" v="Skottjern" />
		<tag k="natural" v="water" />
		<tag k="ssr:stedsnr" v="365467" />
	</node>
	<node lat="58.59632500081654" lon="8.866013896615236" id="-23234">
		<tag k="name" v="Strengselva" />
		<tag k="ssr:stedsnr" v="393076" />
		<tag k="waterway" v="stream" />
	</node>
	<node lat="58.68917222181278" lon="9.035358337955095" id="-23237">
		<tag k="name" v="Eikedalsbekken" />
		<tag k="ssr:stedsnr" v="393271" />
		<tag k="waterway" v="stream" />
	</node>
	<node lat="58.64900833226574" lon="8.974086113940643" id="-23242">
		<tag k="name" v="Steindammen" />
		<tag k="ssr:stedsnr" v="393363" />
		<tag k="waterway" v="dam" />
	</node>
	<node lat="58.69366666227057" lon="8.962741670931502" id="-23249">
		<tag k="name" v="Sandvamellom" />
		<tag k="natural" v="strait" />
		<tag k="ssr:stedsnr" v="393292" />
	</node>
	<node lat="58.70101110706219" lon="8.984380560988786" id="-23253">
		<tag k="name" v="Tritjennene" />
		<tag k="natural" v="water" />
		<tag k="ssr:stedsnr" v="393316" />
		<tag k="water" v="lake" />
	</node>
	<node lat="58.65170000418844" lon="9.008272222033714" id="-23254">
		<tag k="name" v="Stumstjenn" />
		<tag k="natural" v="water" />
		<tag k="ssr:stedsnr" v="393317" />
	</node>
	<node lat="58.686288889120455" lon="8.89335834168466" id="-23263">
		<tag k="name" v="Ålekarhølen" />
		<tag k="place" v="locality" />
		<tag k="ssr:stedsnr" v="393752" />
	</node>
	<node lat="58.62150833656582" lon="8.974097227697069" id="-23273">
		<tag k="name" v="Løkreistjenn" />
		<tag k="natural" v="water" />
		<tag k="ssr:stedsnr" v="393525" />
	</node>
	<node lat="58.62581666816217" lon="8.971383326663691" id="-23288">
		<tag k="name" v="Kjeholmen" />
		<tag k="place" v="islet" />
		<tag k="ssr:stedsnr" v="393717" />
	</node>
	<node lat="58.65754444596813" lon="8.865116668469813" id="-23296">
		<tag k="name" v="Lisletjenn" />
		<tag k="natural" v="water" />
		<tag k="ssr:stedsnr" v="393970" />
	</node>
	<node lat="58.662472224900974" lon="8.84873611054105" id="-23297">
		<tag k="name" v="Lisbettjenn" />
		<tag k="natural" v="water" />
		<tag k="ssr:stedsnr" v="393975" />
	</node>
	<node lat="58.59435000413012" lon="8.894102786268009" id="-23307">
		<tag k="alt_name" v="Kroktjenn" />
		<tag k="name" v="Kroktjern" />
		<tag k="natural" v="water" />
		<tag k="ssr:stedsnr" v="425324" />
	</node>
	<node lat="58.59259444703154" lon="8.788822216504196" id="-23314">
		<tag k="name" v="Øynesvann" />
		<tag k="natural" v="water" />
		<tag k="ssr:stedsnr" v="426817" />
		<tag k="water" v="lake" />
	</node>
	<node lat="58.64146389080325" lon="9.0140833260421" id="-23324">
		<tag k="name" v="Øygardstjenn" />
		<tag k="natural" v="water" />
		<tag k="ssr:stedsnr" v="515755" />
	</node>
	<node lat="58.645386109828195" lon="9.02597222706074" id="-23325">
		<tag k="name" v="Hontjenn" />
		<tag k="natural" v="water" />
		<tag k="ssr:stedsnr" v="515757" />
	</node>
	<node lat="58.61536111455043" lon="8.80017778532453" id="-23337">
		<tag k="name" v="Lindlandstjenn" />
		<tag k="natural" v="water" />
		<tag k="ssr:stedsnr" v="515040" />
	</node>
	<node lat="58.64584444731616" lon="9.094227783031053" id="-23341">
		<tag k="name" v="Ålekartjenn" />
		<tag k="natural" v="water" />
		<tag k="ssr:stedsnr" v="515063" />
	</node>
	<node lat="58.60161944044332" lon="8.849361109959291" id="-23346">
		<tag k="name" v="Skålands Langetjenn" />
		<tag k="natural" v="water" />
		<tag k="ssr:stedsnr" v="515076" />
	</node>
	<node lat="58.59759444704606" lon="8.851627785128997" id="-23349">
		<tag k="name" v="Lilletjenn" />
		<tag k="natural" v="water" />
		<tag k="ssr:stedsnr" v="515080" />
	</node>
	<node lat="58.6625833351081" lon="8.999133337888473" id="-23357">
		<tag k="name" v="Lona" />
		<tag k="natural" v="water" />
		<tag k="ssr:stedsnr" v="515342" />
		<tag k="water" v="lake" />
	</node>
	<node lat="58.650975003279726" lon="8.93685555579678" id="-23360">
		<tag k="name" v="Reinene" />
		<tag k="natural" v="beach" />
		<tag k="ssr:stedsnr" v="515358" />
	</node>
	<node lat="58.58554444798644" lon="9.007286106846774" id="-23385">
		<tag k="name" v="Blodkiltjenn" />
		<tag k="natural" v="water" />
		<tag k="ssr:stedsnr" v="515667" />
	</node>
	<node lat="58.6982027810443" lon="8.955324998427843" id="-23420">
		<tag k="name" v="Nattvann" />
		<tag k="natural" v="water" />
		<tag k="ssr:stedsnr" v="546460" />
	</node>
	<node lat="58.556550003210965" lon="8.87812778346091" id="-23422">
		<tag k="alt_name" v="Kroktjern" />
		<tag k="name" v="Kroktjenn" />
		<tag k="natural" v="water" />
		<tag k="ssr:stedsnr" v="547292" />
	</node>
	<node lat="58.61412499633799" lon="8.919933328675848" id="-23424">
		<tag k="name" v="Mjåvann" />
		<tag k="natural" v="water" />
		<tag k="ssr:stedsnr" v="547389" />
	</node>
	<node lat="58.649550002255104" lon="8.869174993496513" id="-23431">
		<tag k="name" v="Røsbekken" />
		<tag k="ssr:stedsnr" v="547419" />
		<tag k="waterway" v="stream" />
	</node>
	<node lat="58.68236944566172" lon="8.892424992122724" id="-23443">
		<tag k="name" v="Kløvre" />
		<tag k="place" v="locality" />
		<tag k="ssr:stedsnr" v="575774" />
	</node>
	<node lat="58.668258335104895" lon="8.89646389151734" id="-23444">
		<tag k="name" v="Østebø Småtjennene" />
		<tag k="natural" v="water" />
		<tag k="ssr:stedsnr" v="575786" />
		<tag k="water" v="lake" />
	</node>
	<node lat="58.5896277734323" lon="8.780175007691305" id="-23450">
		<tag k="name" v="Grimsåslona" />
		<tag k="natural" v="water" />
		<tag k="ssr:stedsnr" v="575047" />
		<tag k="water" v="lake" />
	</node>
	<node lat="58.59270833352087" lon="8.843947215693342" id="-23452">
		<tag k="name" v="Nedre Skålandstjenna" />
		<tag k="natural" v="water" />
		<tag k="ssr:stedsnr" v="575056" />
	</node>
	<node lat="58.644358335395225" lon="9.105097228236108" id="-23473">
		<tag k="name" v="Paddetjenn" />
		<tag k="natural" v="water" />
		<tag k="ssr:stedsnr" v="575431" />
	</node>
	<node lat="58.63602222105363" lon="9.05610278316537" id="-23493">
		<tag k="name" v="Hollendersund" />
		<tag k="natural" v="strait" />
		<tag k="ssr:stedsnr" v="575472" />
	</node>
	<node lat="58.58952499915219" lon="9.050447224611975" id="-23494">
		<tag k="name" v="Innertjenn" />
		<tag k="natural" v="water" />
		<tag k="ssr:stedsnr" v="575485" />
	</node>
	<node lat="58.66831944753589" lon="9.087155559097313" id="-23527">
		<tag k="name" v="Gulspettvannet" />
		<tag k="natural" v="water" />
		<tag k="ssr:stedsnr" v="607440" />
		<tag k="water" v="lake" />
	</node>
	<node lat="58.66513888832867" lon="8.972883341701875" id="-23528">
		<tag k="name" v="Lundevannet" />
		<tag k="natural" v="water" />
		<tag k="ssr:stedsnr" v="607441" />
		<tag k="water" v="lake" />
	</node>
	<node lat="58.60335555612541" lon="8.840505560471211" id="-23532">
		<tag k="name" v="Åmbuvann" />
		<tag k="natural" v="water" />
		<tag k="ssr:stedsnr" v="607782" />
	</node>
	<node lat="58.61316666526266" lon="8.768358328682458" id="-23548">
		<tag k="name" v="Svinstjenn" />
		<tag k="natural" v="water" />
		<tag k="ssr:stedsnr" v="636057" />
	</node>
	<node lat="58.67122499874311" lon="8.966466666730135" id="-23560">
		<tag k="name" v="Sundsmyrtjenn" />
		<tag k="natural" v="water" />
		<tag k="ssr:stedsnr" v="636584" />
	</node>
	<node lat="58.65327221996145" lon="9.04189167432734" id="-23565">
		<tag k="name" v="Sømodden" />
		<tag k="natural" v="cape" />
		<tag k="ssr:stedsnr" v="636338" />
	</node>
	<node lat="58.66183889039999" lon="9.00230555687174" id="-23568">
		<tag k="name" v="Bjorhusdalstjenn" />
		<tag k="natural" v="water" />
		<tag k="ssr:stedsnr" v="636349" />
	</node>
	<node lat="58.663969442481154" lon="9.03996388348418" id="-23570">
		<tag k="name" v="Kriskjærrtjenn" />
		<tag k="natural" v="water" />
		<tag k="ssr:stedsnr" v="636356" />
	</node>
	<node lat="58.66421944218968" lon="9.01267222136252" id="-23571">
		<tag k="name" v="Tvitjennene" />
		<tag k="natural" v="water" />
		<tag k="ssr:stedsnr" v="636358" />
		<tag k="water" v="lake" />
	</node>
	<node lat="58.681686107061914" lon="9.04433333965578" id="-23581">
		<tag k="name" v="Styrtbekk" />
		<tag k="ssr:stedsnr" v="636624" />
		<tag k="waterway" v="stream" />
	</node>
	<node lat="58.60909444118619" lon="8.925200007560512" id="-23589">
		<tag k="name" v="Gladstadtjenn" />
		<tag k="natural" v="water" />
		<tag k="ssr:stedsnr" v="636654" />
	</node>
	<node lat="58.62556388706728" lon="8.96895556163932" id="-23598">
		<tag k="name" v="Gruveholmen" />
		<tag k="place" v="islet" />
		<tag k="ssr:stedsnr" v="636748" />
	</node>
	<node lat="58.627316668781205" lon="8.966308338552093" id="-23599">
		<tag k="name" v="Tvibolten" />
		<tag k="place" v="islet" />
		<tag k="ssr:stedsnr" v="636751" />
	</node>
	<node lat="58.64401667004298" lon="9.009399992333385" id="-23601">
		<tag k="name" v="Skotmyrtjenn" />
		<tag k="natural" v="water" />
		<tag k="ssr:stedsnr" v="636763" />
	</node>
	<node lat="58.59175833374844" lon="8.910647221754205" id="-23603">
		<tag k="name" v="Lille Røyrvik" />
		<tag k="natural" v="bay" />
		<tag k="ssr:stedsnr" v="636888" />
	</node>
	<node lat="58.599327781472276" lon="8.853961104093381" id="-23611">
		<tag k="alt_name" v="Stortjenn" />
		<tag k="name" v="Stortjern" />
		<tag k="natural" v="water" />
		<tag k="ssr:stedsnr" v="668349" />
	</node>
	<node lat="58.672416667575035" lon="9.06959445027465" id="-23615">
		<tag k="alt_name" v="Litjenn" />
		<tag k="name" v="Litjern" />
=======
	<node id="-524552" lat="58.6582194444" lon="9.06627221599">
		<tag k="alt_name" v="Mjåvann" />
		<tag k="name" v="Mjovann" />
		<tag k="natural" v="water" />
		<tag k="ssr:stedsnr" v="304416" />
		<tag k="water" v="lake" />
	</node>
	<node id="-524551" lat="58.6491444453" lon="8.90081388444">
		<tag k="alt_name" v="Langtjenn" />
		<tag k="name" v="Langtjern" />
		<tag k="natural" v="water" />
		<tag k="ssr:stedsnr" v="304412" />
	</node>
	<node id="-524549" lat="58.6549238892" lon="8.99883636836">
		<tag k="alt_name" v="Bjellandsvann" />
		<tag k="name" v="Bjellandsvannet" />
		<tag k="natural" v="water" />
		<tag k="ssr:stedsnr" v="304404" />
	</node>
	<node id="-524547" lat="58.6127333294" lon="9.0">
		<tag k="name" v="Ulevågkilen" />
		<tag k="natural" v="water" />
		<tag k="ssr:stedsnr" v="304324" />
	</node>
	<node id="-524546" lat="58.6008668996" lon="8.88776844908">
		<tag k="alt_name" v="Butjenna" />
		<tag k="name" v="Butjerna" />
		<tag k="natural" v="water" />
		<tag k="ssr:stedsnr" v="304312" />
	</node>
	<node id="-524545" lat="58.5943499981" lon="8.92011665957">
		<tag k="alt_name" v="Rosstjenn" />
		<tag k="name" v="Rosstjern" />
		<tag k="natural" v="water" />
		<tag k="ssr:stedsnr" v="304311" />
	</node>
	<node id="-524542" lat="58.6564166703" lon="8.85064722052">
		<tag k="name" v="Kolbutjenn" />
		<tag k="natural" v="water" />
		<tag k="ssr:stedsnr" v="272970" />
	</node>
	<node id="-524533" lat="58.5983305579" lon="8.90394721666">
		<tag k="name" v="Snarestjenn" />
		<tag k="natural" v="water" />
		<tag k="ssr:stedsnr" v="272867" />
	</node>
	<node id="-524528" lat="58.6549027778" lon="8.91739166857">
		<tag k="name" v="Igletjenn" />
		<tag k="natural" v="water" />
		<tag k="ssr:stedsnr" v="272722" />
	</node>
	<node id="-524526" lat="58.67881389" lon="9.04319722223">
		<tag k="name" v="Vellingodden" />
		<tag k="natural" v="cape" />
		<tag k="ssr:stedsnr" v="272567" />
	</node>
	<node id="-524525" lat="58.6756222242" lon="9.02339166003">
		<tag k="name" v="Nævestadholmen" />
		<tag k="place" v="islet" />
		<tag k="ssr:stedsnr" v="272562" />
	</node>
	<node id="-526570" lat="58.5917583337" lon="8.91064722175">
		<tag k="name" v="Lille Røyrvik" />
		<tag k="natural" v="bay" />
		<tag k="ssr:stedsnr" v="636888" />
	</node>
	<node id="-524521" lat="58.6060583299" lon="8.98178056327">
		<tag k="name" v="Eidbotjenn" />
		<tag k="natural" v="water" />
		<tag k="ssr:stedsnr" v="272518" />
	</node>
	<node id="-526568" lat="58.6273166688" lon="8.96630833855">
		<tag k="name" v="Tvibolten" />
		<tag k="place" v="islet" />
		<tag k="ssr:stedsnr" v="636751" />
	</node>
	<node id="-526567" lat="58.6255638871" lon="8.96895556164">
		<tag k="name" v="Gruveholmen" />
		<tag k="place" v="islet" />
		<tag k="ssr:stedsnr" v="636748" />
	</node>
	<node id="-524511" lat="58.6780694442" lon="9.05377222307">
		<tag k="name" v="Strandene" />
		<tag k="natural" v="beach" />
		<tag k="ssr:stedsnr" v="272403" />
	</node>
	<node id="-526557" lat="58.6004638863" lon="9.00812499656">
		<tag k="name" v="Hovdansstranda" />
		<tag k="natural" v="beach" />
		<tag k="ssr:stedsnr" v="636691" />
	</node>
	<node id="-526552" lat="58.6712249987" lon="8.96646666673">
		<tag k="name" v="Sundsmyrtjenn" />
		<tag k="natural" v="water" />
		<tag k="ssr:stedsnr" v="636584" />
	</node>
	<node id="-524489" lat="58.5854583296" lon="8.92945832993">
		<tag k="name" v="Hantostranda" />
		<tag k="natural" v="beach" />
		<tag k="ssr:stedsnr" v="454912" />
	</node>
	<node id="-526533" lat="58.6618388904" lon="9.00230555687">
		<tag k="name" v="Bjorhusdalstjenn" />
		<tag k="natural" v="water" />
		<tag k="ssr:stedsnr" v="636349" />
	</node>
	<node id="-524484" lat="58.643622224" lon="8.88333333571">
		<tag k="name" v="Stebekk" />
		<tag k="ssr:stedsnr" v="454880" />
		<tag k="waterway" v="stream" />
	</node>
	<node id="-526530" lat="58.65327222" lon="9.04189167433">
		<tag k="name" v="Sømodden" />
		<tag k="natural" v="cape" />
		<tag k="ssr:stedsnr" v="636338" />
	</node>
	<node id="-526525" lat="58.6909027781" lon="8.97096944207">
		<tag k="name" v="Stormyrtjenn" />
		<tag k="natural" v="water" />
		<tag k="ssr:stedsnr" v="636299" />
	</node>
	<node id="-524469" lat="58.6767972253" lon="8.90568889128">
		<tag k="name" v="Eidet" />
		<tag k="natural" v="strait" />
		<tag k="ssr:stedsnr" v="454831" />
	</node>
	<node id="-524466" lat="58.6495861086" lon="8.89667777579">
		<tag k="name" v="Snaristjenn" />
		<tag k="natural" v="water" />
		<tag k="ssr:stedsnr" v="454778" />
	</node>
	<node id="-524464" lat="58.6726277794" lon="8.9980000072">
		<tag k="name" v="Hessnesstranda" />
		<tag k="natural" v="beach" />
		<tag k="ssr:stedsnr" v="454636" />
	</node>
	<node id="-524463" lat="58.632155555" lon="9.04885278456">
		<tag k="name" v="Knutesund" />
		<tag k="natural" v="strait" />
		<tag k="ssr:stedsnr" v="454500" />
	</node>
	<node id="-526504" lat="58.6929055524" lon="9.01856110274">
		<tag k="name" v="Marisva" />
		<tag k="natural" v="shoal" />
		<tag k="place" v="locality" />
		<tag k="ssr:stedsnr" v="629991" />
	</node>
	<node id="-524453" lat="58.6720916672" lon="9.04722221612">
		<tag k="name" v="Lilletjenn" />
		<tag k="natural" v="water" />
		<tag k="ssr:stedsnr" v="454398" />
	</node>
	<node id="-526499" lat="58.6714083329" lon="8.85948888338">
		<tag k="alt_name" v="Lauvåstjenn" />
		<tag k="name" v="Lauvåstjern" />
		<tag k="natural" v="water" />
		<tag k="ssr:stedsnr" v="607447" />
	</node>
	<node id="-526497" lat="58.6651388883" lon="8.9728833417">
		<tag k="name" v="Lundevannet" />
		<tag k="natural" v="water" />
		<tag k="ssr:stedsnr" v="607441" />
		<tag k="water" v="lake" />
	</node>
	<node id="-524445" lat="58.6931611112" lon="9.02539165826">
		<tag k="name" v="Løvdalsdammen" />
		<tag k="ssr:stedsnr" v="454287" />
		<tag k="waterway" v="dam" />
	</node>
	<node id="-524442" lat="58.6522138932" lon="9.04330000786">
		<tag k="name" v="Øysundet" />
		<tag k="natural" v="strait" />
		<tag k="ssr:stedsnr" v="454334" />
	</node>
	<node id="-524655" lat="58.7010111071" lon="8.98438056099">
		<tag k="name" v="Tritjennene" />
		<tag k="natural" v="water" />
		<tag k="ssr:stedsnr" v="393316" />
	</node>
	<node id="-524433" lat="58.650338891" lon="9.08641945113">
		<tag k="name" v="Store Svinebutjenn" />
		<tag k="natural" v="water" />
		<tag k="ssr:stedsnr" v="454071" />
	</node>
	<node id="-524426" lat="58.6864805564" lon="9.06295833508">
		<tag k="alt_name" v="Lagtj" />
		<tag k="name" v="Lagtjenn" />
		<tag k="natural" v="water" />
		<tag k="ssr:stedsnr" v="453871" />
	</node>
	<node id="-526467" lat="58.6682583351" lon="8.89646389152">
		<tag k="name" v="Østebø Småtjennene" />
		<tag k="natural" v="water" />
		<tag k="ssr:stedsnr" v="575786" />
	</node>
	<node id="-526466" lat="58.6823694457" lon="8.89242499212">
		<tag k="name" v="Kløvre" />
		<tag k="place" v="locality" />
		<tag k="ssr:stedsnr" v="575774" />
	</node>
	<node id="-526464" lat="58.6526472253" lon="8.86936388827">
		<tag k="name" v="Saustedammen" />
		<tag k="ssr:stedsnr" v="575959" />
		<tag k="waterway" v="dam" />
	</node>
	<node id="-526463" lat="58.6516194432" lon="8.86903888955">
		<tag k="name" v="Hillbærstehølen" />
		<tag k="place" v="locality" />
		<tag k="ssr:stedsnr" v="575958" />
	</node>
	<node id="-524411" lat="58.6634499963" lon="9.0993638895">
		<tag k="name" v="Folevann" />
		<tag k="natural" v="water" />
		<tag k="ssr:stedsnr" v="243418" />
		<tag k="water" v="lake" />
	</node>
	<node id="-526444" lat="58.6443583354" lon="9.10509722824">
		<tag k="name" v="Paddetjenn" />
		<tag k="natural" v="water" />
		<tag k="ssr:stedsnr" v="575431" />
	</node>
	<node id="-524393" lat="58.6419694465" lon="8.94463332548">
		<tag k="name" v="Øvre Tungetjenn" />
		<tag k="natural" v="water" />
		<tag k="ssr:stedsnr" v="211707" />
	</node>
	<node id="-524385" lat="58.5713750043" lon="8.85675000133">
		<tag k="name" v="Lille Styggtjenn" />
		<tag k="natural" v="water" />
		<tag k="ssr:stedsnr" v="211116" />
	</node>
	<node id="-524383" lat="58.5690944476" lon="8.860763894">
		<tag k="name" v="Styggtjenn" />
		<tag k="natural" v="water" />
		<tag k="ssr:stedsnr" v="211108" />
	</node>
	<node id="-524381" lat="58.5795750023" lon="8.93233332841">
		<tag k="name" v="Mauren" />
		<tag k="place" v="islet" />
		<tag k="ssr:stedsnr" v="211102" />
	</node>
	<node id="-524380" lat="58.600191665" lon="8.79845833797">
		<tag k="name" v="Øyneselva" />
		<tag k="ssr:stedsnr" v="211207" />
		<tag k="waterway" v="stream" />
	</node>
	<node id="-526426" lat="58.6611083346" lon="8.95931389609">
		<tag k="name" v="Vendalsbekken" />
		<tag k="ssr:stedsnr" v="575346" />
		<tag k="waterway" v="stream" />
	</node>
	<node id="-526417" lat="58.6715972243" lon="9.00364999601">
		<tag k="name" v="Lille Hesnes" />
		<tag k="natural" v="cape" />
		<tag k="ssr:stedsnr" v="575605" />
	</node>
	<node id="-524367" lat="58.6250694413" lon="8.96296111056">
		<tag k="name" v="Tranbærlona" />
		<tag k="natural" v="water" />
		<tag k="ssr:stedsnr" v="150711" />
		<tag k="water" v="lake" />
	</node>
	<node id="-526411" lat="58.672372223" lon="8.98422222">
		<tag k="name" v="Østerstrand" />
		<tag k="natural" v="beach" />
		<tag k="ssr:stedsnr" v="575563" />
	</node>
	<node id="-524361" lat="58.6820499961" lon="9.00089444715">
		<tag k="name" v="Lindholmen" />
		<tag k="natural" v="cape" />
		<tag k="ssr:stedsnr" v="150607" />
	</node>
	<node id="-524360" lat="58.6781916635" lon="9.00990832981">
		<tag k="name" v="Nordstrand" />
		<tag k="natural" v="beach" />
		<tag k="ssr:stedsnr" v="150605" />
	</node>
	<node id="-524359" lat="58.6739694418" lon="9.010255562">
		<tag k="name" v="Dypbukt" />
		<tag k="natural" v="bay" />
		<tag k="ssr:stedsnr" v="150603" />
	</node>
	<node id="-526402" lat="58.5896277734" lon="8.78017500769">
		<tag k="name" v="Grimsåslona" />
		<tag k="natural" v="water" />
		<tag k="ssr:stedsnr" v="575047" />
		<tag k="water" v="lake" />
	</node>
	<node id="-524348" lat="58.595830559" lon="8.79283055481">
		<tag k="name" v="Bjorneset" />
		<tag k="natural" v="cape" />
		<tag k="ssr:stedsnr" v="150211" />
	</node>
	<node id="-526391" lat="58.6870810156" lon="8.85614025279">
		<tag k="alt_name" v="Solbutjennene" />
		<tag k="loc_name" v="Solbutjennane" />
		<tag k="name" v="Solbutjernane" />
		<tag k="natural" v="water" />
		<tag k="ssr:stedsnr" v="547520" />
	</node>
	<node id="-524342" lat="58.547061108" lon="8.88289999237">
		<tag k="name" v="Vassøya" />
		<tag k="natural" v="cape" />
		<tag k="ssr:stedsnr" v="150115" />
	</node>
	<node id="-526383" lat="58.6495500023" lon="8.8691749935">
		<tag k="name" v="Røsbekken" />
		<tag k="ssr:stedsnr" v="547419" />
		<tag k="waterway" v="stream" />
	</node>
	<node id="-526380" lat="58.6141249963" lon="8.91993332868">
		<tag k="name" v="Mjåvann" />
		<tag k="natural" v="water" />
		<tag k="ssr:stedsnr" v="547389" />
	</node>
	<node id="-524328" lat="58.6510611119" lon="8.90066389074">
		<tag k="name" v="Lauvlandstjenn" />
		<tag k="natural" v="water" />
		<tag k="ssr:stedsnr" v="272750" />
	</node>
	<node id="-526374" lat="58.5565500032" lon="8.87812778346">
		<tag k="alt_name" v="Kroktjern" />
		<tag k="name" v="Kroktjenn" />
		<tag k="natural" v="water" />
		<tag k="ssr:stedsnr" v="547292" />
	</node>
	<node id="-526372" lat="58.5986747744" lon="8.80648905019">
		<tag k="alt_name" v="Grunnetjenn;Grunrtjern" />
		<tag k="name" v="Grunnetjern" />
		<tag k="natural" v="water" />
		<tag k="ssr:stedsnr" v="546813" />
	</node>
	<node id="-526368" lat="58.698202781" lon="8.95532499843">
		<tag k="name" v="Nattvann" />
		<tag k="natural" v="water" />
		<tag k="ssr:stedsnr" v="546460" />
	</node>
	<node id="-524316" lat="58.6105166626" lon="8.91249443762">
		<tag k="name" v="Heståsmyrtjenn" />
		<tag k="natural" v="water" />
		<tag k="ssr:stedsnr" v="272611" />
	</node>
	<node id="-524313" lat="58.643280554" lon="9.02560555293">
		<tag k="name" v="Haukrotjenn" />
		<tag k="natural" v="water" />
		<tag k="ssr:stedsnr" v="272680" />
		<tag k="water" v="pond" />
	</node>
	<node id="-524312" lat="58.6703416647" lon="8.98328055889">
		<tag k="name" v="Huodden" />
		<tag k="natural" v="cape" />
		<tag k="ssr:stedsnr" v="272529" />
	</node>
	<node id="-524292" lat="58.6487638896" lon="9.02100277983">
		<tag k="name" v="Bærtjenn" />
		<tag k="natural" v="water" />
		<tag k="ssr:stedsnr" v="272296" />
	</node>
	<node id="-526358" lat="58.6366166666" lon="8.80399166647">
		<tag k="alt_name" v="Støletjenn" />
		<tag k="name" v="Støletjern" />
		<tag k="natural" v="water" />
		<tag k="ssr:stedsnr" v="426785" />
	</node>
	<node id="-526356" lat="58.592594447" lon="8.7888222165">
		<tag k="name" v="Øynesvann" />
		<tag k="natural" v="water" />
		<tag k="ssr:stedsnr" v="426817" />
		<tag k="water" v="lake" />
	</node>
	<node id="-524307" lat="58.6789805527" lon="9.02032500438">
		<tag k="name" v="Vika" />
		<tag k="natural" v="bay" />
		<tag k="ssr:stedsnr" v="272579" />
	</node>
	<node id="-524301" lat="58.6702027765" lon="9.08805555628">
		<tag k="name" v="Gulspettholmen" />
		<tag k="natural" v="cape" />
		<tag k="ssr:stedsnr" v="272387" />
	</node>
	<node id="-524300" lat="58.6699694479" lon="9.09050278436">
		<tag k="name" v="Maurnes" />
		<tag k="natural" v="cape" />
		<tag k="ssr:stedsnr" v="272386" />
	</node>
	<node id="-524299" lat="58.6676583344" lon="9.07553332919">
		<tag k="name" v="Igletjenn" />
>>>>>>> e1d4bc35ff8a6074a6f2e91616a996b547c36f15
		<tag k="natural" v="water" />
		<tag k="ssr:stedsnr" v="272382" />
	</node>
<<<<<<< HEAD
=======
	<node id="-524295" lat="58.7004694448" lon="8.96393610698">
		<tag k="name" v="Vestre Sandvatjenn" />
		<tag k="natural" v="water" />
		<tag k="ssr:stedsnr" v="272300" />
	</node>
	<node id="-526340" lat="58.5755499988" lon="8.89684166115">
		<tag k="alt_name" v="Foletjenn" />
		<tag k="name" v="Foletjern" />
		<tag k="natural" v="water" />
		<tag k="ssr:stedsnr" v="425296" />
	</node>
>>>>>>> e1d4bc35ff8a6074a6f2e91616a996b547c36f15
</osm>
