<?xml version="1.0" encoding="UTF-8"?>
<<<<<<< HEAD
<osm version="0.6" generator="osmapis">
	<node lat="58.65618888666905" lon="9.178194445269927" id="-21480">
		<tag k="name" v="Snerte" />
		<tag k="place" v="islet" />
		<tag k="ssr:stedsnr" v="1393" />
	</node>
	<node lat="58.58914722567111" lon="9.097824996950596" id="-21484">
		<tag k="name" v="Raddet" />
		<tag k="natural" v="shoal" />
		<tag k="place" v="locality" />
		<tag k="ssr:stedsnr" v="28680" />
	</node>
	<node lat="58.60649166752008" lon="8.949058325944451" id="-21486">
		<tag k="fixme" v="consider seamark:type=rock or natural=shoal" />
		<tag k="name" v="Fjerdingskjær" />
		<tag k="place" v="islet" />
		<tag k="ssr:stedsnr" v="28771" />
	</node>
	<node lat="58.59297777567213" lon="9.069658334856125" id="-21499">
		<tag k="name" v="Daumannsvika" />
		<tag k="natural" v="bay" />
		<tag k="ssr:stedsnr" v="29509" />
	</node>
	<node lat="58.63323333451867" lon="9.143444439066355" id="-21505">
		<tag k="name" v="Grantangen" />
		<tag k="natural" v="cape" />
		<tag k="ssr:stedsnr" v="29467" />
	</node>
	<node lat="58.628525001179575" lon="9.07780833825445" id="-21506">
		<tag k="name" v="Gonjevika" />
		<tag k="natural" v="bay" />
		<tag k="ssr:stedsnr" v="29474" />
	</node>
	<node lat="58.62786111376495" lon="9.078000005268361" id="-21507">
		<tag k="name" v="Seltangen" />
		<tag k="natural" v="cape" />
		<tag k="ssr:stedsnr" v="29475" />
	</node>
	<node lat="58.62739166505203" lon="9.07578054856576" id="-21508">
		<tag k="name" v="Størren" />
		<tag k="natural" v="cape" />
		<tag k="ssr:stedsnr" v="29477" />
	</node>
	<node lat="58.62555555420524" lon="9.070552776441941" id="-21509">
		<tag k="name" v="Tyttebærholmen" />
		<tag k="place" v="islet" />
		<tag k="ssr:stedsnr" v="29484" />
	</node>
	<node lat="58.61232499916433" lon="9.0219777759952" id="-21513">
		<tag k="fixme" v="consider seamark:type=rock or natural=shoal" />
		<tag k="name" v="Jammerholmen" />
		<tag k="place" v="islet" />
		<tag k="ssr:stedsnr" v="29566" />
	</node>
	<node lat="58.613619447851086" lon="9.008208331485397" id="-21514">
		<tag k="name" v="Stokken" />
		<tag k="natural" v="strait" />
		<tag k="ssr:stedsnr" v="29568" />
	</node>
	<node lat="58.60610278152254" lon="8.973705554448983" id="-21515">
		<tag k="name" v="Kilen" />
		<tag k="natural" v="bay" />
		<tag k="ssr:stedsnr" v="29570" />
	</node>
	<node lat="58.57896110728824" lon="9.004274994729593" id="-21524">
		<tag k="name" v="Kjeholmen" />
		<tag k="place" v="islet" />
		<tag k="ssr:stedsnr" v="29677" />
	</node>
	<node lat="58.6205944443006" lon="9.117611109016858" id="-21551">
		<tag k="alt_name" v="Askerøy - Gåsholmer" />
		<tag k="name" v="Gåsholmen" />
		<tag k="place" v="islet" />
		<tag k="ssr:stedsnr" v="62327" />
	</node>
	<node lat="58.616350002866966" lon="9.121775003465627" id="-21554">
		<tag k="name" v="Askerøystangholmen" />
		<tag k="place" v="islet" />
		<tag k="ssr:stedsnr" v="240946" />
	</node>
	<node lat="58.58625833388497" lon="9.028775000862046" id="-21563">
		<tag k="bay" v="fjord" />
		<tag k="name" v="Hagefjorden" />
		<tag k="natural" v="bay" />
		<tag k="ssr:stedsnr" v="243275" />
	</node>
	<node lat="58.591744442498225" lon="9.047755553246237" id="-21564">
=======
<osm generator="osmapis" version="0.6">
	<node id="-526336" lat="58.6072083372" lon="9.05233611865">
		<tag k="name" v="Bastholmen, liten" />
		<tag k="place" v="islet" />
		<tag k="ssr:stedsnr" v="421935" />
	</node>
	<node id="-524287" lat="58.6528166624" lon="9.1235416671">
		<tag k="name" v="Gjevingsunda" />
		<tag k="natural" v="bay" />
		<tag k="ssr:stedsnr" v="272093" />
	</node>
	<node id="-526334" lat="58.5812638928" lon="9.06486945259">
		<tag k="name" v="Kvernskjærholmene" />
		<tag k="place" v="islet" />
		<tag k="ssr:stedsnr" v="411968" />
	</node>
	<node id="-524277" lat="58.5796583337" lon="9.06465833441">
		<tag k="fixme" v="multiple name tags, choose one and add the other to alt_name" />
		<tag k="name" v="Ytre Kvernskjær;Store Kvernskjær" />
		<tag k="place" v="islet" />
		<tag k="ssr:stedsnr" v="270677" />
	</node>
	<node id="-524274" lat="58.5982027815" lon="9.09045556377">
		<tag k="name" v="Klåholmene, stor" />
		<tag k="place" v="islet" />
		<tag k="ssr:stedsnr" v="117928" />
	</node>
	<node id="-526317" lat="58.5724222242" lon="9.01987221721">
		<tag k="name" v="Kastellet" />
		<tag k="place" v="islet" />
		<tag k="ssr:stedsnr" v="393692" />
	</node>
	<node id="-526316" lat="58.5719805517" lon="9.01965000721">
		<tag k="name" v="Hesnessund" />
		<tag k="natural" v="strait" />
		<tag k="ssr:stedsnr" v="393690" />
	</node>
	<node id="-524265" lat="58.5988249974" lon="8.9453611088">
		<tag k="fixme" v="consider seamark:type=rock or natural=shoal" />
		<tag k="name" v="Stakkestoskjær" />
		<tag k="place" v="islet" />
		<tag k="ssr:stedsnr" v="90620" />
	</node>
	<node id="-526312" lat="58.6090749969" lon="9.01776943931">
		<tag k="name" v="Tjæreholmen" />
		<tag k="place" v="islet" />
		<tag k="ssr:stedsnr" v="393549" />
	</node>
	<node id="-524261" lat="58.575238889" lon="9.06336111798">
		<tag k="name" v="Østre Hummerbåen" />
		<tag k="place" v="locality" />
		<tag k="seamark:type" v="rock" />
		<tag k="ssr:stedsnr" v="88627" />
	</node>
	<node id="-524260" lat="58.6095000009" lon="9.10965277095">
		<tag k="fixme" v="consider seamark:type=rock or natural=shoal" />
		<tag k="name" v="Loggarskjær" />
		<tag k="place" v="islet" />
		<tag k="ssr:stedsnr" v="88608" />
	</node>
	<node id="-524259" lat="58.625274997" lon="9.13275832926">
		<tag k="name" v="Rundholmen" />
		<tag k="place" v="islet" />
		<tag k="ssr:stedsnr" v="88606" />
	</node>
	<node id="-524255" lat="58.6510388897" lon="9.15752500021">
		<tag k="name" v="Risholmene" />
		<tag k="place" v="islet" />
		<tag k="ssr:stedsnr" v="244401" />
	</node>
	<node id="-526301" lat="58.5916111083" lon="8.98753332527">
		<tag k="name" v="Kilodden" />
		<tag k="natural" v="cape" />
		<tag k="ssr:stedsnr" v="393629" />
	</node>
	<node id="-524251" lat="58.6445722208" lon="9.16734166733">
		<tag k="name" v="Gjevingstangholmen" />
		<tag k="place" v="islet" />
		<tag k="ssr:stedsnr" v="244386" />
	</node>
	<node id="-526297" lat="58.6265277791" lon="9.07226111722">
		<tag k="name" v="Hustangbukta" />
		<tag k="natural" v="bay" />
		<tag k="ssr:stedsnr" v="393449" />
	</node>
	<node id="-526296" lat="58.6373472243" lon="9.15406389225">
		<tag k="fixme" v="consider seamark:type=rock or natural=shoal" />
		<tag k="name" v="Lokkandskjærene" />
		<tag k="place" v="islet" />
		<tag k="ssr:stedsnr" v="393442" />
	</node>
	<node id="-526293" lat="58.6324638873" lon="9.14485832497">
		<tag k="name" v="Åkertangen" />
		<tag k="natural" v="cape" />
		<tag k="ssr:stedsnr" v="393454" />
	</node>
	<node id="-524243" lat="58.5942361152" lon="9.03408055416">
		<tag k="alt_name" v="Ospevik" />
		<tag k="name" v="Ospevika" />
		<tag k="natural" v="bay" />
		<tag k="ssr:stedsnr" v="243297" />
	</node>
	<node id="-524240" lat="58.5917444425" lon="9.04775555325">
>>>>>>> e1d4bc35ff8a6074a6f2e91616a996b547c36f15
		<tag k="name" v="Sandøya" />
		<tag k="place" v="island" />
		<tag k="ssr:stedsnr" v="243276" />
	</node>
<<<<<<< HEAD
	<node lat="58.594236115227645" lon="9.034080554156057" id="-21567">
		<tag k="alt_name" v="Ospevik" />
		<tag k="name" v="Ospevika" />
		<tag k="natural" v="bay" />
		<tag k="ssr:stedsnr" v="243297" />
	</node>
	<node lat="58.624936115479905" lon="9.07428333812409" id="-21578">
		<tag k="name" v="Engholmen" />
		<tag k="place" v="islet" />
		<tag k="ssr:stedsnr" v="244353" />
	</node>
	<node lat="58.62527499697608" lon="9.132758329264833" id="-21581">
		<tag k="name" v="Rundholmen" />
		<tag k="place" v="islet" />
		<tag k="ssr:stedsnr" v="88606" />
	</node>
	<node lat="58.60950000086818" lon="9.109652770953977" id="-21582">
		<tag k="fixme" v="consider seamark:type=rock or natural=shoal" />
		<tag k="name" v="Loggarskjær" />
		<tag k="place" v="islet" />
		<tag k="ssr:stedsnr" v="88608" />
	</node>
	<node lat="58.581216671049525" lon="9.029233335358368" id="-21587">
		<tag k="name" v="Umbertangen" />
		<tag k="natural" v="cape" />
		<tag k="ssr:stedsnr" v="90072" />
	</node>
	<node lat="58.63779999560541" lon="9.158052783635807" id="-21591">
		<tag k="fixme" v="consider seamark:type=rock or natural=shoal" />
		<tag k="name" v="De gule haugene" />
		<tag k="place" v="islet" />
		<tag k="ssr:stedsnr" v="90084" />
	</node>
	<node lat="58.6144305583041" lon="9.09053056360001" id="-21595">
		<tag k="name" v="Fiskekrok" />
		<tag k="natural" v="bay" />
		<tag k="ssr:stedsnr" v="90417" />
	</node>
	<node lat="58.627433332394524" lon="9.109683326597416" id="-21596">
		<tag k="name" v="Håkonsund" />
		<tag k="natural" v="strait" />
		<tag k="ssr:stedsnr" v="90431" />
	</node>
	<node lat="58.62318888737595" lon="9.058405559686491" id="-21597">
		<tag k="name" v="Tjæreholmen" />
		<tag k="place" v="islet" />
		<tag k="ssr:stedsnr" v="90434" />
	</node>
	<node lat="58.62006666672105" lon="8.952983332241358" id="-21601">
		<tag k="name" v="Lille Stamnes" />
		<tag k="natural" v="cape" />
		<tag k="ssr:stedsnr" v="90502" />
	</node>
	<node lat="58.59882499737559" lon="8.94536110879589" id="-21606">
		<tag k="fixme" v="consider seamark:type=rock or natural=shoal" />
		<tag k="name" v="Stakkestoskjær" />
		<tag k="place" v="islet" />
		<tag k="ssr:stedsnr" v="90620" />
	</node>
	<node lat="58.597658334852454" lon="9.059152781774479" id="-21634">
		<tag k="name" v="Sandøykilen" />
		<tag k="natural" v="bay" />
		<tag k="ssr:stedsnr" v="121308" />
	</node>
	<node lat="58.588122225943856" lon="9.072811117593233" id="-21637">
		<tag k="alt_name" v="Østre Håholmene;Håholmane, vestre" />
		<tag k="name" v="Vestre Håholmen" />
		<tag k="place" v="islet" />
		<tag k="ssr:stedsnr" v="122302" />
	</node>
	<node lat="58.56896931909027" lon="9.048030620514115" id="-21646">
		<tag k="fixme" v="consider seamark:type=rock or natural=shoal" />
		<tag k="name" v="Svartskjær" />
		<tag k="place" v="islet" />
		<tag k="ssr:stedsnr" v="149666" />
	</node>
	<node lat="58.61803888699199" lon="9.129063888659994" id="-21647">
		<tag k="fixme" v="consider seamark:type=rock or natural=shoal" />
		<tag k="name" v="Blysteinskjær" />
		<tag k="place" v="islet" />
		<tag k="ssr:stedsnr" v="149754" />
	</node>
	<node lat="58.59970278150611" lon="9.057227784771108" id="-21653">
		<tag k="name" v="Vassingholmen" />
		<tag k="natural" v="cape" />
		<tag k="ssr:stedsnr" v="150263" />
	</node>
	<node lat="58.61930278082431" lon="9.051700002628147" id="-21660">
		<tag k="name" v="Bastnesbukta" />
		<tag k="natural" v="bay" />
		<tag k="ssr:stedsnr" v="150414" />
	</node>
	<node lat="58.623011112881336" lon="9.072924994992174" id="-21661">
		<tag k="name" v="Engholmen" />
		<tag k="natural" v="cape" />
		<tag k="ssr:stedsnr" v="150417" />
	</node>
	<node lat="58.64261944734951" lon="9.121988881511648" id="-21662">
		<tag k="name" v="Mannholmen" />
		<tag k="place" v="islet" />
		<tag k="ssr:stedsnr" v="150457" />
	</node>
	<node lat="58.632961111698684" lon="9.13758334083476" id="-21663">
		<tag k="name" v="Sandbukta" />
		<tag k="natural" v="bay" />
		<tag k="ssr:stedsnr" v="150465" />
	</node>
	<node lat="58.58463888503779" lon="9.063324994909571" id="-21673">
		<tag k="fixme" v="consider seamark:type=rock or natural=shoal" />
		<tag k="name" v="Mauren" />
		<tag k="place" v="islet" />
		<tag k="ssr:stedsnr" v="150519" />
	</node>
	<node lat="58.591558331716456" lon="8.977891658417308" id="-21704">
		<tag k="name" v="Saltnes" />
		<tag k="natural" v="cape" />
		<tag k="ssr:stedsnr" v="182319" />
	</node>
	<node lat="58.58291944188806" lon="9.046091660373575" id="-21705">
		<tag k="name" v="Nyhamn" />
		<tag k="natural" v="bay" />
		<tag k="ssr:stedsnr" v="183246" />
	</node>
	<node lat="58.63799444163139" lon="9.148627780899009" id="-21709">
		<tag k="name" v="Kjeholmen" />
		<tag k="place" v="islet" />
		<tag k="ssr:stedsnr" v="183347" />
	</node>
	<node lat="58.60577499816877" lon="9.06684165855409" id="-21713">
		<tag k="bay" v="fjord" />
		<tag k="name" v="Sandøyfjorden" />
		<tag k="natural" v="bay" />
		<tag k="ssr:stedsnr" v="183295" />
	</node>
	<node lat="58.59569721786697" lon="9.04105000067676" id="-21717">
		<tag k="name" v="Barlindtangen" />
		<tag k="natural" v="cape" />
		<tag k="ssr:stedsnr" v="272632" />
	</node>
	<node lat="58.61396388491926" lon="9.070780548022391" id="-21720">
		<tag k="name" v="Vågsvika" />
		<tag k="natural" v="bay" />
		<tag k="old_name" v="Skolebukta" />
		<tag k="ssr:stedsnr" v="210679" />
	</node>
	<node lat="58.598338887097206" lon="9.044613885109422" id="-21722">
		<tag k="name" v="Kårholmen" />
=======
	<node id="-524239" lat="58.5862583339" lon="9.02877500086">
		<tag k="bay" v="fjord" />
		<tag k="name" v="Hagefjorden" />
		<tag k="natural" v="bay" />
		<tag k="ssr:stedsnr" v="243275" />
	</node>
	<node id="-524234" lat="58.6163500029" lon="9.12177500347">
		<tag k="name" v="Askerøystangholmen" />
		<tag k="place" v="islet" />
		<tag k="ssr:stedsnr" v="240946" />
	</node>
	<node id="-524226" lat="58.6765611104" lon="8.99046388529">
		<tag k="name" v="Fredvikodden" />
		<tag k="natural" v="cape" />
		<tag k="ssr:stedsnr" v="29591" />
	</node>
	<node id="-524224" lat="58.6061027815" lon="8.97370555445">
		<tag k="name" v="Kilen" />
		<tag k="natural" v="bay" />
		<tag k="ssr:stedsnr" v="29570" />
	</node>
	<node id="-524223" lat="58.6136194479" lon="9.00820833149">
		<tag k="name" v="Stokken" />
		<tag k="natural" v="strait" />
		<tag k="ssr:stedsnr" v="29568" />
	</node>
	<node id="-524222" lat="58.6123249992" lon="9.021977776">
		<tag k="fixme" v="consider seamark:type=rock or natural=shoal" />
		<tag k="name" v="Jammerholmen" />
		<tag k="place" v="islet" />
		<tag k="ssr:stedsnr" v="29566" />
	</node>
	<node id="-524217" lat="58.6231055533" lon="9.15411667183">
		<tag k="name" v="Kvarterbåen" />
		<tag k="place" v="locality" />
		<tag k="seamark:type" v="rock" />
		<tag k="ssr:stedsnr" v="28665" />
	</node>
	<node id="-526245" lat="58.6117472256" lon="9.1045138883">
		<tag k="name" v="Mærholmen" />
		<tag k="place" v="islet" />
		<tag k="ssr:stedsnr" v="365328" />
	</node>
	<node id="-526241" lat="58.6031833334" lon="8.95855832887">
		<tag k="alt_name" v="Furøysund" />
		<tag k="name" v="Furesund" />
		<tag k="natural" v="strait" />
		<tag k="ssr:stedsnr" v="364335" />
	</node>
	<node id="-526234" lat="58.5646888865" lon="9.03260832753">
		<tag k="fixme" v="consider seamark:type=rock or natural=shoal" />
		<tag k="name" v="Indre Østre Sandskjær" />
		<tag k="place" v="islet" />
		<tag k="ssr:stedsnr" v="363042" />
	</node>
	<node id="-526233" lat="58.5982027815" lon="9.09045556377">
		<tag k="name" v="Klåholmene, lille" />
		<tag k="place" v="islet" />
		<tag k="ssr:stedsnr" v="360934" />
	</node>
	<node id="-526210" lat="58.5931944452" lon="9.01861666423">
		<tag k="name" v="Sildvika" />
		<tag k="natural" v="bay" />
		<tag k="ssr:stedsnr" v="333666" />
	</node>
	<node id="-526206" lat="58.5786194419" lon="8.99966667059">
		<tag k="name" v="Kalstangen" />
		<tag k="natural" v="cape" />
		<tag k="ssr:stedsnr" v="333654" />
	</node>
	<node id="-526205" lat="58.5859249981" lon="8.99426111573">
		<tag k="name" v="Falkøya" />
		<tag k="place" v="islet" />
		<tag k="ssr:stedsnr" v="333649" />
	</node>
	<node id="-526313" lat="58.5876777797" lon="9.00840833599">
		<tag k="name" v="Blodkil" />
		<tag k="natural" v="bay" />
		<tag k="ssr:stedsnr" v="393678" />
	</node>
	<node id="-526196" lat="58.6094305558" lon="9.02699444638">
		<tag k="name" v="Slåttholmen" />
		<tag k="place" v="islet" />
		<tag k="ssr:stedsnr" v="333552" />
	</node>
	<node id="-526195" lat="58.6090666671" lon="9.02399166253">
		<tag k="name" v="Skutenes" />
		<tag k="natural" v="cape" />
		<tag k="ssr:stedsnr" v="333549" />
	</node>
	<node id="-526185" lat="58.6422500013" lon="9.11667778162">
		<tag k="name" v="Lestholmen" />
		<tag k="place" v="islet" />
		<tag k="ssr:stedsnr" v="333476" />
	</node>
	<node id="-526181" lat="58.6204499986" lon="9.09519999936">
		<tag k="name" v="Askerøybukt" />
		<tag k="natural" v="bay" />
		<tag k="ssr:stedsnr" v="333447" />
	</node>
	<node id="-526180" lat="58.6199777746" lon="9.06876388799">
		<tag k="name" v="Ruholmen" />
		<tag k="place" v="islet" />
		<tag k="ssr:stedsnr" v="333441" />
	</node>
	<node id="-526169" lat="58.6015083347" lon="9.06253610345">
		<tag k="fixme" v="consider seamark:type=rock or natural=shoal" />
		<tag k="name" v="Kjeftholmen" />
		<tag k="place" v="islet" />
		<tag k="ssr:stedsnr" v="333297" />
	</node>
	<node id="-526164" lat="58.5820333329" lon="9.00700555205">
		<tag k="name" v="Storkilen" />
		<tag k="natural" v="bay" />
		<tag k="ssr:stedsnr" v="333080" />
	</node>
	<node id="-526153" lat="58.6251499981" lon="9.10570833353">
		<tag k="name" v="Selviksund" />
		<tag k="natural" v="strait" />
		<tag k="ssr:stedsnr" v="333034" />
	</node>
	<node id="-526136" lat="58.6212499966" lon="9.08061111652">
		<tag k="alt_name" v="Lyktene, østre;Østre Lyktene" />
		<tag k="name" v="Østre Løktene" />
		<tag k="place" v="islet" />
		<tag k="ssr:stedsnr" v="304354" />
	</node>
	<node id="-526125" lat="58.5781166695" lon="8.98921666283">
		<tag k="bay" v="fjord" />
		<tag k="name" v="Oksefjorden" />
		<tag k="natural" v="bay" />
		<tag k="ssr:stedsnr" v="304283" />
	</node>
	<node id="-526124" lat="58.5683944461" lon="9.0180000082">
		<tag k="alt_name" v="Kjølsvin" />
		<tag k="name" v="Kjølsvinet" />
		<tag k="place" v="islet" />
		<tag k="ssr:stedsnr" v="304265" />
	</node>
	<node id="-526119" lat="58.6418111093" lon="9.15938611731">
		<tag k="name" v="Østre Flatskjæra" />
		<tag k="place" v="islet" />
		<tag k="ssr:stedsnr" v="301949" />
	</node>
	<node id="-526114" lat="58.6314499957" lon="9.09166665818">
		<tag k="name" v="Helleholmen" />
		<tag k="place" v="islet" />
		<tag k="ssr:stedsnr" v="212458" />
	</node>
	<node id="-526112" lat="58.6226583352" lon="9.05651111882">
		<tag k="name" v="Skutevika" />
		<tag k="natural" v="bay" />
		<tag k="ssr:stedsnr" v="212437" />
	</node>
	<node id="-526111" lat="58.6300416654" lon="9.11422222421">
		<tag k="name" v="Stenskilden" />
		<tag k="natural" v="bay" />
		<tag k="ssr:stedsnr" v="212430" />
	</node>
	<node id="-526083" lat="58.5908277738" lon="9.01220277393">
		<tag k="name" v="St. Helena" />
		<tag k="place" v="islet" />
		<tag k="ssr:stedsnr" v="211681" />
	</node>
	<node id="-526082" lat="58.5911638907" lon="8.99965555905">
		<tag k="name" v="Nesholmen" />
		<tag k="place" v="islet" />
		<tag k="ssr:stedsnr" v="211680" />
	</node>
	<node id="-526070" lat="58.6291388931" lon="9.0789111196">
		<tag k="name" v="Storholmen" />
		<tag k="old_name" v="Størm" />
		<tag k="place" v="islet" />
		<tag k="ssr:stedsnr" v="211473" />
	</node>
	<node id="-524584" lat="58.5854111123" lon="9.06636388089">
		<tag k="name" v="Lyngholmen" />
>>>>>>> e1d4bc35ff8a6074a6f2e91616a996b547c36f15
		<tag k="place" v="islet" />
		<tag k="ssr:stedsnr" v="210686" />
	</node>
<<<<<<< HEAD
	<node lat="58.594097218007214" lon="9.095447222078825" id="-21723">
		<tag k="name" v="Olasbåene" />
		<tag k="place" v="locality" />
		<tag k="seamark:type" v="rock" />
		<tag k="ssr:stedsnr" v="210689" />
	</node>
	<node lat="58.56759444621385" lon="9.005638895423319" id="-21724">
		<tag k="name" v="Måkeodden" />
		<tag k="natural" v="cape" />
		<tag k="ssr:stedsnr" v="210697" />
	</node>
	<node lat="58.659666666798344" lon="9.15041666481556" id="-21727">
		<tag k="name" v="Store Steinsund" />
		<tag k="natural" v="strait" />
		<tag k="ssr:stedsnr" v="211083" />
	</node>
	<node lat="58.62913889306818" lon="9.078911119599569" id="-21749">
		<tag k="name" v="Storholmen" />
		<tag k="old_name" v="Størm" />
		<tag k="place" v="islet" />
		<tag k="ssr:stedsnr" v="211473" />
	</node>
	<node lat="58.591163890700216" lon="8.999655559054363" id="-21760">
		<tag k="name" v="Nesholmen" />
		<tag k="place" v="islet" />
		<tag k="ssr:stedsnr" v="211680" />
	</node>
	<node lat="58.59082777378345" lon="9.012202773931042" id="-21761">
		<tag k="name" v="St. Helena" />
		<tag k="place" v="islet" />
		<tag k="ssr:stedsnr" v="211681" />
	</node>
	<node lat="58.65594444375073" lon="9.177683326501262" id="-21784">
		<tag k="name" v="Store Snerte" />
		<tag k="place" v="island" />
		<tag k="ssr:stedsnr" v="270659" />
	</node>
	<node lat="58.615972221752195" lon="9.13003889022974" id="-21785">
		<tag k="fixme" v="consider seamark:type=rock or natural=shoal" />
		<tag k="name" v="Jeseskjær" />
		<tag k="place" v="islet" />
		<tag k="ssr:stedsnr" v="270667" />
	</node>
	<node lat="58.65440555533399" lon="9.146052781899185" id="-21795">
		<tag k="name" v="Risøya" />
		<tag k="place" v="island" />
		<tag k="ssr:stedsnr" v="244402" />
	</node>
	<node lat="58.64457222081514" lon="9.167341667329902" id="-21799">
		<tag k="name" v="Gjevingstangholmen" />
		<tag k="place" v="islet" />
		<tag k="ssr:stedsnr" v="244386" />
	</node>
	<node lat="58.651038889683406" lon="9.157525000208507" id="-21803">
		<tag k="name" v="Risholmene" />
		<tag k="place" v="islet" />
		<tag k="ssr:stedsnr" v="244401" />
	</node>
	<node lat="58.559958334266945" lon="9.027861119640917" id="-21808">
		<tag k="name" v="Grunnesund" />
		<tag k="natural" v="strait" />
		<tag k="ssr:stedsnr" v="452736" />
	</node>
	<node lat="58.56879444122463" lon="9.056130559393004" id="-21809">
		<tag k="name" v="Sjursgrunnen" />
		<tag k="natural" v="shoal" />
		<tag k="place" v="locality" />
		<tag k="ssr:stedsnr" v="452739" />
	</node>
	<node lat="58.68386389212748" lon="9.07554721425659" id="-21828">
		<tag k="name" v="Lisanden" />
		<tag k="natural" v="beach" />
		<tag k="ssr:stedsnr" v="454414" />
	</node>
	<node lat="58.61879166246261" lon="9.080633328795594" id="-21830">
		<tag k="name" v="Løktenesund" />
		<tag k="natural" v="strait" />
		<tag k="ssr:stedsnr" v="454432" />
	</node>
	<node lat="58.646363885758106" lon="9.130683333210513" id="-21833">
		<tag k="name" v="Einarsvika" />
		<tag k="natural" v="bay" />
		<tag k="ssr:stedsnr" v="454055" />
	</node>
	<node lat="58.62511944327613" lon="9.059116669358886" id="-21839">
		<tag k="name" v="Dypvågstranda" />
		<tag k="natural" v="beach" />
		<tag k="ssr:stedsnr" v="454480" />
	</node>
	<node lat="58.62721944238526" lon="9.06280555179144" id="-21840">
		<tag k="name" v="Dypvågkilen" />
		<tag k="natural" v="bay" />
		<tag k="ssr:stedsnr" v="454483" />
	</node>
	<node lat="58.64094166489115" lon="9.04874165908115" id="-21842">
		<tag k="name" v="Buvika" />
		<tag k="natural" v="bay" />
		<tag k="ssr:stedsnr" v="454493" />
	</node>
	<node lat="58.64452777574701" lon="9.05408888891341" id="-21843">
		<tag k="name" v="Fløtetangen" />
		<tag k="natural" v="cape" />
		<tag k="ssr:stedsnr" v="454496" />
	</node>
	<node lat="58.626730556984604" lon="9.141302769719404" id="-21846">
		<tag k="fixme" v="consider seamark:type=rock or natural=shoal" />
		<tag k="name" v="Sunniva - bråtene" />
		<tag k="place" v="islet" />
		<tag k="ssr:stedsnr" v="454448" />
	</node>
	<node lat="58.609444441206705" lon="9.03254167523448" id="-21848">
		<tag k="name" v="Eidsbukta" />
		<tag k="natural" v="bay" />
		<tag k="ssr:stedsnr" v="454574" />
	</node>
	<node lat="58.56473611341452" lon="9.02144444970902" id="-21858">
		<tag k="fixme" v="consider seamark:type=rock or natural=shoal" />
		<tag k="name" v="Skytterbenkene" />
		<tag k="place" v="islet" />
		<tag k="ssr:stedsnr" v="454739" />
	</node>
	<node lat="58.57965833367352" lon="9.064658334408222" id="-21871">
		<tag k="fixme" v="multiple name tags, choose one and add the other to alt_name" />
		<tag k="name" v="Ytre Kvernskjær;Store Kvernskjær" />
		<tag k="place" v="islet" />
		<tag k="ssr:stedsnr" v="270677" />
	</node>
	<node lat="58.61195555454887" lon="9.00513888809744" id="-21895">
		<tag k="name" v="Berntsholmen" />
=======
	<node id="-526062" lat="58.6203888857" lon="9.02635000666">
		<tag k="name" v="Rånetangen" />
		<tag k="natural" v="cape" />
		<tag k="ssr:stedsnr" v="211566" />
	</node>
	<node id="-526052" lat="58.6137500001" lon="9.09673611715">
		<tag k="name" v="Refsholmen" />
		<tag k="place" v="islet" />
		<tag k="ssr:stedsnr" v="211440" />
	</node>
	<node id="-526050" lat="58.6192166626" lon="9.08216388514">
		<tag k="fixme" v="consider seamark:type=rock or natural=shoal" />
		<tag k="name" v="Bispen" />
		<tag k="place" v="islet" />
		<tag k="ssr:stedsnr" v="211436" />
	</node>
	<node id="-526033" lat="58.6422805577" lon="9.16523055954">
		<tag k="name" v="Stangholmgapet" />
		<tag k="natural" v="strait" />
		<tag k="ssr:stedsnr" v="211093" />
	</node>
	<node id="-526029" lat="58.6596666668" lon="9.15041666482">
		<tag k="name" v="Store Steinsund" />
		<tag k="natural" v="strait" />
		<tag k="ssr:stedsnr" v="211083" />
	</node>
	<node id="-526018" lat="58.598475002" lon="9.09051944645">
		<tag k="name" v="Indre Klåholmen" />
		<tag k="place" v="islet" />
		<tag k="ssr:stedsnr" v="210765" />
	</node>
	<node id="-526017" lat="58.5675944462" lon="9.00563889542">
		<tag k="name" v="Måkeodden" />
		<tag k="natural" v="cape" />
		<tag k="ssr:stedsnr" v="210697" />
	</node>
	<node id="-526016" lat="58.594097218" lon="9.09544722208">
		<tag k="name" v="Olasbåene" />
		<tag k="place" v="locality" />
		<tag k="seamark:type" v="rock" />
		<tag k="ssr:stedsnr" v="210689" />
	</node>
	<node id="-526015" lat="58.5983388871" lon="9.04461388511">
		<tag k="name" v="Kårholmen" />
		<tag k="place" v="islet" />
		<tag k="ssr:stedsnr" v="210686" />
	</node>
	<node id="-526013" lat="58.6139638849" lon="9.07078054802">
		<tag k="name" v="Vågsvika" />
		<tag k="natural" v="bay" />
		<tag k="old_name" v="Skolebukta" />
		<tag k="ssr:stedsnr" v="210679" />
	</node>
	<node id="-526011" lat="58.6535194431" lon="9.17739722239">
		<tag k="name" v="Lille Snerte" />
		<tag k="place" v="island" />
		<tag k="ssr:stedsnr" v="210667" />
	</node>
	<node id="-526010" lat="58.5963111144" lon="9.08951666651">
		<tag k="name" v="Ytre Klåholmen" />
		<tag k="place" v="islet" />
		<tag k="ssr:stedsnr" v="210663" />
	</node>
	<node id="-526009" lat="58.5950472263" lon="8.94271110453">
		<tag k="name" v="Langesand" />
		<tag k="natural" v="beach" />
		<tag k="place" v="locality" />
		<tag k="ssr:stedsnr" v="210759" />
	</node>
	<node id="-526008" lat="58.5967527761" lon="8.96698333034">
		<tag k="name" v="Nuholmen" />
		<tag k="place" v="islet" />
		<tag k="ssr:stedsnr" v="210758" />
	</node>
	<node id="-526001" lat="58.5829194419" lon="9.04609166037">
		<tag k="name" v="Nyhamn" />
		<tag k="natural" v="bay" />
		<tag k="ssr:stedsnr" v="183246" />
	</node>
	<node id="-525998" lat="58.6379944416" lon="9.1486277809">
		<tag k="name" v="Kjeholmen" />
>>>>>>> e1d4bc35ff8a6074a6f2e91616a996b547c36f15
		<tag k="place" v="islet" />
		<tag k="ssr:stedsnr" v="183347" />
	</node>
<<<<<<< HEAD
	<node lat="58.60941388922543" lon="9.021822218565745" id="-21897">
		<tag k="name" v="Lestrandsholmen" />
		<tag k="place" v="islet" />
		<tag k="ssr:stedsnr" v="272509" />
	</node>
	<node lat="58.58770555350132" lon="9.066211114568919" id="-21902">
		<tag k="name" v="Skauholmen" />
		<tag k="place" v="islet" />
		<tag k="ssr:stedsnr" v="272474" />
	</node>
	<node lat="58.57427222021385" lon="9.02157777337221" id="-21904">
		<tag k="name" v="Gilleren" />
		<tag k="place" v="islet" />
		<tag k="ssr:stedsnr" v="272627" />
	</node>
	<node lat="58.578116669492246" lon="8.989216662826259" id="-21918">
		<tag k="bay" v="fjord" />
		<tag k="name" v="Oksefjorden" />
		<tag k="natural" v="bay" />
		<tag k="ssr:stedsnr" v="304283" />
	</node>
	<node lat="58.606475000785814" lon="9.05908334183397" id="-21923">
		<tag k="name" v="Lamholmen" />
		<tag k="place" v="islet" />
		<tag k="ssr:stedsnr" v="304309" />
	</node>
	<node lat="58.585411112271984" lon="9.066363880892714" id="-21951">
		<tag k="name" v="Lyngholmen" />
		<tag k="place" v="islet" />
		<tag k="ssr:stedsnr" v="333516" />
	</node>
	<node lat="58.60906666713036" lon="9.023991662531776" id="-21954">
		<tag k="name" v="Skutenes" />
		<tag k="natural" v="cape" />
		<tag k="ssr:stedsnr" v="333549" />
	</node>
	<node lat="58.60943055577535" lon="9.026994446378618" id="-21955">
		<tag k="name" v="Slåttholmen" />
		<tag k="place" v="islet" />
		<tag k="ssr:stedsnr" v="333552" />
	</node>
	<node lat="58.60150833470576" lon="9.062536103450226" id="-21958">
		<tag k="fixme" v="consider seamark:type=rock or natural=shoal" />
		<tag k="name" v="Kjeftholmen" />
		<tag k="place" v="islet" />
		<tag k="ssr:stedsnr" v="333297" />
	</node>
	<node lat="58.62044999863472" lon="9.095199999355412" id="-21961">
		<tag k="name" v="Askerøybukt" />
		<tag k="natural" v="bay" />
		<tag k="ssr:stedsnr" v="333447" />
	</node>
	<node lat="58.58592499805395" lon="8.994261115728836" id="-21978">
		<tag k="name" v="Falkøya" />
		<tag k="place" v="islet" />
		<tag k="ssr:stedsnr" v="333649" />
	</node>
	<node lat="58.5786194418997" lon="8.999666670593665" id="-21979">
		<tag k="name" v="Kalstangen" />
		<tag k="natural" v="cape" />
		<tag k="ssr:stedsnr" v="333654" />
	</node>
	<node lat="58.611747225569246" lon="9.104513888304748" id="-21993">
		<tag k="name" v="Mærholmen" />
		<tag k="place" v="islet" />
		<tag k="ssr:stedsnr" v="365328" />
	</node>
	<node lat="58.58425555826361" lon="9.067591671439104" id="-22029">
		<tag k="name" v="Oterholmen" />
		<tag k="place" v="islet" />
		<tag k="ssr:stedsnr" v="393503" />
	</node>
	<node lat="58.6207694444948" lon="8.944466660139215" id="-22030">
		<tag k="name" v="Bertesnes" />
		<tag k="natural" v="cape" />
		<tag k="ssr:stedsnr" v="393516" />
	</node>
	<node lat="58.621050000540485" lon="8.938733331747482" id="-22031">
		<tag k="name" v="Tangen" />
		<tag k="natural" v="cape" />
		<tag k="ssr:stedsnr" v="393518" />
	</node>
	<node lat="58.59161110833405" lon="8.98753332526938" id="-22038">
		<tag k="name" v="Kilodden" />
		<tag k="natural" v="cape" />
		<tag k="ssr:stedsnr" v="393629" />
	</node>
	<node lat="58.593508714559555" lon="9.002716591358073" id="-22053">
		<tag k="alt_name" v="Snarsund" />
		<tag k="name" v="Snaresund" />
		<tag k="natural" v="strait" />
		<tag k="ssr:stedsnr" v="485245" />
	</node>
	<node lat="58.6528166624114" lon="9.123541667097438" id="-22056">
		<tag k="name" v="Gjevingsunda" />
		<tag k="natural" v="bay" />
		<tag k="ssr:stedsnr" v="272093" />
	</node>
	<node lat="58.61733888617243" lon="9.113830557192713" id="-22059">
		<tag k="alt_name" v="Nautholmane" />
		<tag k="name" v="Nautholmene" />
		<tag k="place" v="islet" />
		<tag k="ssr:stedsnr" v="486359" />
	</node>
	<node lat="58.58330555186161" lon="8.9937027853927" id="-22063">
		<tag k="name" v="Bukkholmen" />
		<tag k="place" v="islet" />
		<tag k="ssr:stedsnr" v="486309" />
	</node>
	<node lat="58.579169446476904" lon="8.926999998376271" id="-22064">
		<tag k="name" v="Kvastadkilen" />
		<tag k="natural" v="bay" />
		<tag k="ssr:stedsnr" v="486310" />
	</node>
	<node lat="58.60009999823437" lon="9.083041672278906" id="-22065">
		<tag k="name" v="Øytangen" />
		<tag k="natural" v="cape" />
		<tag k="ssr:stedsnr" v="486318" />
	</node>
	<node lat="58.67588333417432" lon="9.019194446834327" id="-22067">
		<tag k="bay" v="fjord" />
		<tag k="name" v="Nævestadfjorden" />
		<tag k="natural" v="bay" />
		<tag k="ssr:stedsnr" v="486471" />
	</node>
	<node lat="58.63299209587863" lon="9.116774548819489" id="-22073">
		<tag k="name" v="Steinsøya" />
		<tag k="place" v="island" />
		<tag k="ssr:stedsnr" v="486396" />
	</node>
	<node lat="58.631366962294805" lon="9.136114112099776" id="-22074">
		<tag k="alt_name" v="Lyngøya" />
		<tag k="name" v="Lyngørsida" />
		<tag k="place" v="island" />
		<tag k="ssr:stedsnr" v="486397" />
	</node>
	<node lat="58.62941388692458" lon="9.143174996512471" id="-22075">
		<tag k="name" v="Langholmen" />
		<tag k="place" v="islet" />
		<tag k="ssr:stedsnr" v="486399" />
	</node>
	<node lat="58.6139249967651" lon="9.055874999470227" id="-22107">
		<tag k="name" v="Jonsholmene" />
		<tag k="place" v="islet" />
		<tag k="ssr:stedsnr" v="452663" />
	</node>
	<node lat="58.60104722412916" lon="9.053663891037377" id="-22123">
=======
	<node id="-525994" lat="58.6057749982" lon="9.06684165855">
		<tag k="bay" v="fjord" />
		<tag k="name" v="Sandøyfjorden" />
		<tag k="natural" v="bay" />
		<tag k="ssr:stedsnr" v="183295" />
	</node>
	<node id="-525990" lat="58.5915583317" lon="8.97789165842">
		<tag k="name" v="Saltnes" />
		<tag k="natural" v="cape" />
		<tag k="ssr:stedsnr" v="182319" />
	</node>
	<node id="-525987" lat="58.5963528559" lon="9.08639624871">
		<tag k="name" v="Klåholmene" />
		<tag k="old_name" v="Kloholmane" />
		<tag k="place" v="islet" />
		<tag k="ssr:stedsnr" v="182288" />
	</node>
	<node id="-525986" lat="58.5943444458" lon="9.08239166393">
		<tag k="name" v="Risholmen" />
		<tag k="place" v="islet" />
		<tag k="ssr:stedsnr" v="182287" />
	</node>
	<node id="-525984" lat="58.6304583336" lon="9.14774444057">
		<tag k="name" v="Lyngørstangholmen" />
		<tag k="place" v="islet" />
		<tag k="ssr:stedsnr" v="179949" />
	</node>
	<node id="-525931" lat="58.5811305521" lon="8.99455556227">
		<tag k="name" v="Gule og gråholmene" />
		<tag k="place" v="islet" />
		<tag k="ssr:stedsnr" v="150646" />
	</node>
	<node id="-525920" lat="58.6047305593" lon="9.0416694375">
		<tag k="name" v="Pipholmene" />
		<tag k="place" v="islet" />
		<tag k="ssr:stedsnr" v="150543" />
	</node>
	<node id="-524558" lat="58.5714583291" lon="9.07939443988">
		<tag k="name" v="Østre Kjerkegrunnen" />
		<tag k="natural" v="shoal" />
		<tag k="place" v="locality" />
		<tag k="ssr:stedsnr" v="331732" />
	</node>
	<node id="-525904" lat="58.5997027815" lon="9.05722778477">
		<tag k="name" v="Vassingholmen" />
		<tag k="natural" v="cape" />
		<tag k="ssr:stedsnr" v="150263" />
	</node>
	<node id="-525890" lat="58.6077249985" lon="9.11615278459">
		<tag k="name" v="Ingeborggrunnen" />
		<tag k="natural" v="shoal" />
		<tag k="place" v="locality" />
		<tag k="ssr:stedsnr" v="149651" />
	</node>
	<node id="-525889" lat="58.6248055599" lon="9.15200832503">
		<tag k="name" v="Østre Bøsse" />
		<tag k="natural" v="shoal" />
		<tag k="place" v="locality" />
		<tag k="ssr:stedsnr" v="149649" />
	</node>
	<node id="-525888" lat="58.6455653906" lon="9.15419299085">
		<tag k="name" v="Østregapet" />
		<tag k="natural" v="strait" />
		<tag k="ssr:stedsnr" v="149644" />
	</node>
	<node id="-525872" lat="58.5881222259" lon="9.07281111759">
		<tag k="alt_name" v="Østre Håholmene;Håholmane, vestre" />
		<tag k="name" v="Vestre Håholmen" />
		<tag k="place" v="islet" />
		<tag k="ssr:stedsnr" v="122302" />
	</node>
	<node id="-525870" lat="58.5771388928" lon="9.04142500701">
		<tag k="name" v="Fugløya" />
		<tag k="place" v="island" />
		<tag k="ssr:stedsnr" v="122288" />
	</node>
	<node id="-525866" lat="58.5976583349" lon="9.05915278177">
		<tag k="name" v="Sandøykilen" />
		<tag k="natural" v="bay" />
		<tag k="ssr:stedsnr" v="121308" />
	</node>
	<node id="-525865" lat="58.5996583328" lon="8.95486665874">
		<tag k="name" v="Furøya" />
		<tag k="place" v="island" />
		<tag k="ssr:stedsnr" v="119913" />
	</node>
	<node id="-525816" lat="58.6174277804" lon="9.02153056127">
		<tag k="name" v="Vadstengene" />
		<tag k="natural" v="beach" />
		<tag k="place" v="locality" />
		<tag k="ssr:stedsnr" v="90546" />
	</node>
	<node id="-525813" lat="58.6200666667" lon="8.95298333224">
		<tag k="name" v="Lille Stamnes" />
		<tag k="natural" v="cape" />
		<tag k="ssr:stedsnr" v="90502" />
	</node>
	<node id="-525809" lat="58.5813166702" lon="9.04855277661">
		<tag k="name" v="Store Dalsland" />
		<tag k="natural" v="cape" />
		<tag k="ssr:stedsnr" v="90488" />
	</node>
	<node id="-525807" lat="58.6231888874" lon="9.05840555969">
		<tag k="name" v="Tjæreholmen" />
		<tag k="place" v="islet" />
		<tag k="ssr:stedsnr" v="90434" />
	</node>
	<node id="-525806" lat="58.6274333324" lon="9.1096833266">
		<tag k="name" v="Håkonsund" />
		<tag k="natural" v="strait" />
		<tag k="ssr:stedsnr" v="90431" />
	</node>
	<node id="-525805" lat="58.6144305583" lon="9.0905305636">
		<tag k="name" v="Fiskekrok" />
		<tag k="natural" v="bay" />
		<tag k="ssr:stedsnr" v="90417" />
	</node>
	<node id="-525804" lat="58.6160888866" lon="9.07029166488">
		<tag k="name" v="Tangferholmen" />
		<tag k="place" v="islet" />
		<tag k="ssr:stedsnr" v="90410" />
	</node>
	<node id="-525784" lat="58.6010027745" lon="9.06963054893">
		<tag k="name" v="Øyklova" />
		<tag k="natural" v="bay" />
		<tag k="ssr:stedsnr" v="90232" />
	</node>
	<node id="-525773" lat="58.6377999956" lon="9.15805278364">
		<tag k="fixme" v="consider seamark:type=rock or natural=shoal" />
		<tag k="name" v="De gule haugene" />
		<tag k="place" v="islet" />
		<tag k="ssr:stedsnr" v="90084" />
	</node>
	<node id="-525769" lat="58.581216671" lon="9.02923333536">
		<tag k="name" v="Umbertangen" />
		<tag k="natural" v="cape" />
		<tag k="ssr:stedsnr" v="90072" />
	</node>
	<node id="-525754" lat="58.5823527791" lon="9.06449166772">
		<tag k="fixme" v="multiple name tags, choose one and add the other to alt_name" />
		<tag k="name" v="Indre Kvernskjær;Lille Kvernskjær" />
		<tag k="place" v="islet" />
		<tag k="ssr:stedsnr" v="88716" />
	</node>
	<node id="-525753" lat="58.6430472258" lon="9.15089722003">
>>>>>>> e1d4bc35ff8a6074a6f2e91616a996b547c36f15
		<tag k="fixme" v="consider seamark:type=rock or natural=shoal" />
		<tag k="name" v="Terneskjæra" />
		<tag k="place" v="islet" />
		<tag k="ssr:stedsnr" v="88598" />
	</node>
<<<<<<< HEAD
	<node lat="58.6370694415729" lon="9.109780556413192" id="-22126">
		<tag k="name" v="Tøkersholmene" />
		<tag k="place" v="islet" />
		<tag k="ssr:stedsnr" v="454462" />
	</node>
	<node lat="58.582002778736296" lon="9.070466666133715" id="-22131">
		<tag k="fixme" v="consider seamark:type=rock or natural=shoal" />
		<tag k="name" v="Terneskjær" />
		<tag k="place" v="islet" />
		<tag k="ssr:stedsnr" v="454514" />
	</node>
	<node lat="58.5824972217952" lon="9.056683328688118" id="-22132">
		<tag k="name" v="Taterknubben" />
		<tag k="natural" v="cape" />
		<tag k="ssr:stedsnr" v="454515" />
	</node>
	<node lat="58.61627500104042" lon="8.936272217479399" id="-22134">
		<tag k="name" v="Bakkestrand" />
		<tag k="natural" v="beach" />
		<tag k="ssr:stedsnr" v="454518" />
	</node>
	<node lat="58.57965555296802" lon="9.020163895359708" id="-22136">
		<tag k="name" v="Svabukta" />
		<tag k="natural" v="bay" />
		<tag k="ssr:stedsnr" v="454683" />
	</node>
	<node lat="58.57745833726805" lon="9.034222223036565" id="-22137">
		<tag k="name" v="Kobbervika" />
		<tag k="natural" v="bay" />
		<tag k="ssr:stedsnr" v="454686" />
	</node>
	<node lat="58.58926111383444" lon="9.01278611050515" id="-22144">
		<tag k="name" v="Berberkilen" />
		<tag k="natural" v="bay" />
		<tag k="ssr:stedsnr" v="454704" />
	</node>
	<node lat="58.581288891757524" lon="9.044636111213109" id="-22146">
		<tag k="fixme" v="consider seamark:type=rock or natural=shoal" />
		<tag k="name" v="Lille Guleskjær" />
		<tag k="place" v="islet" />
		<tag k="ssr:stedsnr" v="454709" />
	</node>
	<node lat="58.65618836083083" lon="9.192146669139353" id="-22175">
		<tag k="name" v="Hogget" />
		<tag k="natural" v="shoal" />
		<tag k="place" v="locality" />
		<tag k="ssr:stedsnr" v="513667" />
	</node>
	<node lat="58.6400083335258" lon="9.11913611096692" id="-22177">
		<tag k="name" v="Brenningsholmen" />
		<tag k="place" v="islet" />
		<tag k="ssr:stedsnr" v="513684" />
	</node>
	<node lat="58.578655554657345" lon="9.047086114008705" id="-22178">
		<tag k="name" v="Galgeholmene" />
		<tag k="place" v="islet" />
		<tag k="ssr:stedsnr" v="513686" />
	</node>
	<node lat="58.59868610811235" lon="9.051983330297217" id="-22191">
		<tag k="name" v="Hummervika" />
		<tag k="natural" v="bay" />
		<tag k="ssr:stedsnr" v="515262" />
	</node>
	<node lat="58.585938887524904" lon="9.04688332499349" id="-22198">
		<tag k="name" v="Saulekilen" />
		<tag k="natural" v="bay" />
		<tag k="ssr:stedsnr" v="515506" />
	</node>
	<node lat="58.68454166683552" lon="9.074438893845981" id="-22202">
		<tag k="name" v="Lagfjorden" />
		<tag k="natural" v="bay" />
		<tag k="ssr:stedsnr" v="515414" />
	</node>
	<node lat="58.567577779078114" lon="9.008397226192793" id="-22213">
		<tag k="name" v="Neslenes" />
		<tag k="natural" v="cape" />
		<tag k="ssr:stedsnr" v="515711" />
	</node>
	<node lat="58.68535277857219" lon="9.071047227592326" id="-22229">
		<tag k="name" v="Kilen" />
		<tag k="natural" v="cape" />
		<tag k="ssr:stedsnr" v="695659" />
	</node>
	<node lat="58.591527780559545" lon="9.096505555575273" id="-22230">
		<tag k="name" v="Risholmgrunnen" />
		<tag k="natural" v="shoal" />
		<tag k="place" v="locality" />
		<tag k="ssr:stedsnr" v="573645" />
	</node>
	<node lat="58.577413886326084" lon="9.062644452033844" id="-22231">
		<tag k="fixme" v="consider seamark:type=rock or natural=shoal" />
		<tag k="name" v="Knubben" />
		<tag k="place" v="islet" />
		<tag k="ssr:stedsnr" v="573648" />
	</node>
	<node lat="58.65490555170654" lon="9.138847227671864" id="-22237">
		<tag k="name" v="Taterholmen" />
		<tag k="place" v="islet" />
		<tag k="ssr:stedsnr" v="575061" />
	</node>
	<node lat="58.62175277958773" lon="9.095566672300926" id="-22252">
		<tag k="name" v="Bjørnstangen" />
		<tag k="natural" v="cape" />
		<tag k="ssr:stedsnr" v="575404" />
	</node>
	<node lat="58.616494445632185" lon="9.102149999035905" id="-22253">
		<tag k="name" v="Nautholmsund" />
		<tag k="natural" v="strait" />
		<tag k="ssr:stedsnr" v="575412" />
	</node>
	<node lat="58.625113885538376" lon="9.129433338325583" id="-22254">
		<tag k="name" v="Vestergap" />
		<tag k="natural" v="strait" />
		<tag k="ssr:stedsnr" v="575417" />
	</node>
	<node lat="58.627394444714525" lon="9.125033326223116" id="-22255">
		<tag k="name" v="Østpynten" />
		<tag k="natural" v="cape" />
		<tag k="ssr:stedsnr" v="575419" />
	</node>
	<node lat="58.62789166524942" lon="9.113538896233598" id="-22256">
		<tag k="name" v="Strømsund" />
		<tag k="natural" v="strait" />
		<tag k="ssr:stedsnr" v="575422" />
	</node>
	<node lat="58.62333055882798" lon="8.95226944339859" id="-22262">
		<tag k="name" v="Østeråbukta" />
		<tag k="natural" v="bay" />
		<tag k="ssr:stedsnr" v="575494" />
	</node>
	<node lat="58.57755833369159" lon="8.997252780923352" id="-22286">
		<tag k="name" v="Kranholmen" />
		<tag k="place" v="islet" />
		<tag k="ssr:stedsnr" v="575652" />
	</node>
	<node lat="58.56685278197129" lon="9.008172220169529" id="-22287">
		<tag k="name" v="Sildodden" />
		<tag k="natural" v="cape" />
		<tag k="ssr:stedsnr" v="575694" />
	</node>
	<node lat="58.56292222496114" lon="9.017119440026807" id="-22297">
		<tag k="name" v="Østersgrunnen" />
		<tag k="natural" v="shoal" />
		<tag k="place" v="locality" />
		<tag k="ssr:stedsnr" v="695734" />
	</node>
	<node lat="58.56116111004762" lon="9.030902776589693" id="-22298">
		<tag k="fixme" v="consider seamark:type=rock or natural=shoal" />
		<tag k="name" v="Mellom-Sandskjær" />
		<tag k="place" v="islet" />
		<tag k="ssr:stedsnr" v="695745" />
	</node>
	<node lat="58.59604444387232" lon="9.081266673322832" id="-22322">
		<tag k="alt_name" v="Risholmene, indre" />
		<tag k="name" v="Indre Risholmen" />
		<tag k="place" v="islet" />
		<tag k="ssr:stedsnr" v="697283" />
	</node>
	<node lat="58.60139999750396" lon="9.073813881505504" id="-22323">
		<tag k="name" v="Geitnes" />
		<tag k="natural" v="cape" />
		<tag k="ssr:stedsnr" v="697286" />
	</node>
	<node lat="58.62150833366806" lon="9.061855557505694" id="-22335">
		<tag k="name" v="Frierholmen" />
		<tag k="place" v="islet" />
		<tag k="ssr:stedsnr" v="697419" />
	</node>
	<node lat="58.62792222161671" lon="9.13029444362837" id="-22341">
		<tag k="fixme" v="consider seamark:type=rock or natural=shoal" />
		<tag k="name" v="Nilsesskjær" />
		<tag k="place" v="islet" />
		<tag k="ssr:stedsnr" v="697434" />
	</node>
	<node lat="58.62870555227256" lon="9.12734166209676" id="-22342">
		<tag k="name" v="Ringpynten" />
		<tag k="natural" v="cape" />
		<tag k="ssr:stedsnr" v="697436" />
	</node>
	<node lat="58.60446666676057" lon="9.042622215711377" id="-22345">
		<tag k="name" v="Bastholmsundet" />
		<tag k="natural" v="strait" />
		<tag k="ssr:stedsnr" v="697523" />
	</node>
	<node lat="58.61103610923105" lon="9.021061115310728" id="-22348">
		<tag k="name" v="Labakken" />
		<tag k="place" v="islet" />
		<tag k="ssr:stedsnr" v="697532" />
	</node>
	<node lat="58.6104833376919" lon="9.020088886824926" id="-22354">
		<tag k="fixme" v="consider seamark:type=rock or natural=shoal" />
		<tag k="name" v="Pannekaka" />
		<tag k="place" v="islet" />
		<tag k="ssr:stedsnr" v="697535" />
	</node>
	<node lat="58.601858331707106" lon="8.950005557232908" id="-22363">
		<tag k="name" v="Furøyholmen" />
		<tag k="place" v="islet" />
		<tag k="ssr:stedsnr" v="697618" />
	</node>
	<node lat="58.59322222417723" lon="8.942027780167924" id="-22364">
		<tag k="name" v="Høyvikbukta" />
		<tag k="natural" v="bay" />
		<tag k="ssr:stedsnr" v="697621" />
	</node>
	<node lat="58.65712222490512" lon="9.14094445040998" id="-22394">
		<tag k="name" v="Ytre Steinsundet" />
		<tag k="natural" v="strait" />
		<tag k="ssr:stedsnr" v="604925" />
	</node>
	<node lat="58.62222222310801" lon="9.102444448279842" id="-22398">
		<tag k="name" v="Askerøya" />
		<tag k="place" v="island" />
		<tag k="ssr:stedsnr" v="607365" />
	</node>
	<node lat="58.603502587132326" lon="8.976378186325643" id="-22406">
		<tag k="name" v="Eidbostranda" />
		<tag k="natural" v="beach" />
		<tag k="ssr:stedsnr" v="627053" />
	</node>
	<node lat="58.58611666641964" lon="9.065280563182858" id="-22422">
		<tag k="name" v="Vierholmen" />
		<tag k="place" v="islet" />
		<tag k="ssr:stedsnr" v="636512" />
	</node>
	<node lat="58.61044721947591" lon="9.055936112063252" id="-22431">
		<tag k="name" v="Hamdalsbukt" />
		<tag k="natural" v="bay" />
		<tag k="ssr:stedsnr" v="636426" />
	</node>
	<node lat="58.62786389170955" lon="9.134636106412566" id="-22432">
		<tag k="name" v="Spekbukta" />
		<tag k="natural" v="bay" />
		<tag k="ssr:stedsnr" v="636432" />
	</node>
	<node lat="58.58371666316619" lon="8.998036107862617" id="-22438">
		<tag k="name" v="Kalvefjorden" />
		<tag k="natural" v="strait" />
		<tag k="ssr:stedsnr" v="636680" />
	</node>
	<node lat="58.56831111424481" lon="9.01763888446742" id="-22445">
		<tag k="name" v="Bjorholmen" />
		<tag k="place" v="islet" />
		<tag k="ssr:stedsnr" v="636726" />
	</node>
	<node lat="58.570883332005" lon="9.018677785881524" id="-22446">
		<tag k="name" v="Hesnes" />
		<tag k="natural" v="cape" />
		<tag k="ssr:stedsnr" v="636728" />
	</node>
	<node lat="58.65592777940826" lon="9.177855548923771" id="-22460">
		<tag k="name" v="Snerte, st" />
		<tag k="place" v="islet" />
		<tag k="ssr:stedsnr" v="660407" />
	</node>
	<node lat="58.56846944279711" lon="9.005258338386325" id="-22462">
		<tag k="alt_name" v="Utgårdstrand" />
		<tag k="name" v="Utgardsstranda" />
		<tag k="natural" v="beach" />
		<tag k="ssr:stedsnr" v="668303" />
	</node>
	<node lat="58.591352775200875" lon="9.077119451743988" id="-22463">
		<tag k="alt_name" v="Håholmane, østre" />
		<tag k="name" v="Håholmene" />
		<tag k="place" v="islet" />
		<tag k="ssr:stedsnr" v="668311" />
	</node>
	<node lat="58.619033331804594" lon="9.076525003071817" id="-22470">
		<tag k="alt_name" v="Lyktene, vestre;Vestre Lyktene" />
		<tag k="name" v="Vestre Løktene" />
		<tag k="place" v="islet" />
		<tag k="ssr:stedsnr" v="668388" />
	</node>
	<node lat="58.615236109553834" lon="8.943433329091327" id="-22472">
		<tag k="alt_name" v="Tvedestrandsfjorden" />
		<tag k="bay" v="fjord" />
		<tag k="name" v="Tvedestrandfjorden" />
		<tag k="natural" v="bay" />
		<tag k="ssr:stedsnr" v="668391" />
	</node>
	<node lat="58.6306305549444" lon="9.147683341805967" id="-22474">
		<tag k="name" v="Lyngør-Stangholmen" />
		<tag k="place" v="islet" />
		<tag k="ssr:stedsnr" v="668401" />
	</node>
	<node lat="58.59923055589701" lon="9.03281111880211" id="-22479">
		<tag k="name" v="Koddebåen" />
		<tag k="place" v="locality" />
		<tag k="seamark:type" v="rock" />
		<tag k="ssr:stedsnr" v="695677" />
	</node>
	<node lat="58.59147499751805" lon="9.068344437495563" id="-22496">
		<tag k="name" v="Kilsund" />
		<tag k="natural" v="bay" />
		<tag k="ssr:stedsnr" v="697486" />
	</node>
	<node lat="58.5841722252387" lon="9.023536105869717" id="-22498">
		<tag k="name" v="Movik" />
		<tag k="natural" v="bay" />
		<tag k="ssr:stedsnr" v="697670" />
	</node>
	<node lat="58.65306388541288" lon="9.130416658731146" id="-22532">
		<tag k="name" v="Bergøya" />
		<tag k="place" v="island" />
		<tag k="ssr:stedsnr" v="729404" />
	</node>
	<node lat="58.62286075605977" lon="9.028053127521874" id="-22537">
		<tag k="alt_name" v="Kråkvågkilen;Kilen" />
		<tag k="name" v="Krokvågkilen" />
		<tag k="natural" v="bay" />
		<tag k="ssr:stedsnr" v="729367" />
	</node>
	<node lat="58.585377775253356" lon="8.991691662739196" id="-22541">
		<tag k="name" v="Gråvika" />
		<tag k="natural" v="bay" />
		<tag k="ssr:stedsnr" v="906938" />
	</node>
	<node lat="58.609705552526236" lon="9.034266669420125" id="-22555">
		<tag k="name" v="Eidstangen" />
		<tag k="natural" v="cape" />
		<tag k="ssr:stedsnr" v="757547" />
	</node>
	<node lat="58.63136111496239" lon="9.14079722792716" id="-22562">
		<tag k="name" v="Brunheibukt" />
		<tag k="natural" v="bay" />
		<tag k="ssr:stedsnr" v="757453" />
	</node>
	<node lat="58.57586944229181" lon="9.018663882728376" id="-22565">
		<tag k="name" v="Brennvika" />
		<tag k="natural" v="bay" />
		<tag k="ssr:stedsnr" v="757647" />
	</node>
	<node lat="58.59671389339061" lon="9.035619438396798" id="-22567">
		<tag k="name" v="Borøytangen" />
		<tag k="natural" v="cape" />
		<tag k="ssr:stedsnr" v="757654" />
	</node>
	<node lat="58.600647223930366" lon="9.030019452351423" id="-22568">
		<tag k="name" v="Funningsholmene" />
		<tag k="place" v="islet" />
		<tag k="ssr:stedsnr" v="757655" />
	</node>
	<node lat="58.56501667041796" lon="9.068963881330625" id="-22580">
		<tag k="name" v="Vestre Kjerkegrunnen" />
		<tag k="natural" v="shoal" />
		<tag k="place" v="locality" />
		<tag k="ssr:stedsnr" v="906026" />
	</node>
	<node lat="58.588833337551975" lon="9.108091666825192" id="-22582">
		<tag k="name" v="Torskebåen" />
		<tag k="natural" v="shoal" />
		<tag k="place" v="locality" />
		<tag k="ssr:stedsnr" v="909781" />
	</node>
	<node lat="58.630127777405725" lon="9.097816667958504" id="-22584">
		<tag k="bay" v="fjord" />
		<tag k="name" v="Lyngørfjorden" />
		<tag k="natural" v="bay" />
		<tag k="ssr:stedsnr" v="911402" />
	</node>
	<node lat="58.605633944027716" lon="9.046535980285094" id="-22599">
		<tag k="alt_name" v="Bastholmen, store" />
		<tag k="name" v="Store Bastholmen" />
		<tag k="place" v="island" />
		<tag k="ssr:stedsnr" v="790303" />
	</node>
	<node lat="58.60374721915878" lon="9.060555553007871" id="-22606">
		<tag k="fixme" v="consider seamark:type=rock or natural=shoal" />
		<tag k="name" v="Lamholmskjær" />
		<tag k="place" v="islet" />
		<tag k="ssr:stedsnr" v="817657" />
	</node>
	<node lat="58.616961111864676" lon="9.122369443779629" id="-22624">
		<tag k="alt_name" v="Stangholmen" />
		<tag k="name" v="Askerøy-Stangholmen" />
		<tag k="place" v="islet" />
		<tag k="ssr:stedsnr" v="851316" />
	</node>
	<node lat="58.60233889010905" lon="9.111180552704578" id="-22628">
		<tag k="name" v="Langebåen" />
		<tag k="place" v="locality" />
		<tag k="seamark:type" v="rock" />
		<tag k="ssr:stedsnr" v="877770" />
	</node>
	<node lat="58.601711109745324" lon="9.082105551154832" id="-22642">
		<tag k="name" v="Sandvikholmene" />
		<tag k="place" v="islet" />
		<tag k="ssr:stedsnr" v="879261" />
	</node>
	<node lat="58.59989722560699" lon="9.064261110331298" id="-22644">
		<tag k="name" v="Bastvika" />
		<tag k="natural" v="bay" />
		<tag k="ssr:stedsnr" v="879267" />
	</node>
	<node lat="58.600944440866655" lon="9.06012500575429" id="-22645">
		<tag k="name" v="Åsingholmen" />
		<tag k="place" v="islet" />
		<tag k="ssr:stedsnr" v="879272" />
	</node>
	<node lat="58.61520277834922" lon="9.095813892350527" id="-22647">
		<tag k="name" v="Holla" />
		<tag k="natural" v="bay" />
		<tag k="ssr:stedsnr" v="879417" />
	</node>
	<node lat="58.57987777709737" lon="9.050052781083734" id="-22650">
		<tag k="name" v="Åkertangen" />
		<tag k="natural" v="cape" />
		<tag k="ssr:stedsnr" v="879456" />
	</node>
	<node lat="58.58190555712183" lon="9.002266659778744" id="-22668">
		<tag k="name" v="Kalvelandet" />
		<tag k="natural" v="cape" />
		<tag k="ssr:stedsnr" v="911310" />
	</node>
	<node lat="58.62126944732126" lon="9.148169452577385" id="-22683">
		<tag k="name" v="Vestre Bøsse" />
		<tag k="natural" v="shoal" />
		<tag k="place" v="locality" />
		<tag k="ssr:stedsnr" v="938641" />
	</node>
	<node lat="58.61744722650697" lon="9.138116660519792" id="-22684">
		<tag k="name" v="Arvesgrunnen" />
		<tag k="natural" v="shoal" />
		<tag k="place" v="locality" />
		<tag k="ssr:stedsnr" v="938645" />
	</node>
	<node lat="58.61942222326268" lon="8.947111114673755" id="-22685">
		<tag k="fixme" v="consider seamark:type=rock or natural=shoal" />
		<tag k="name" v="Rundskjær" />
		<tag k="place" v="islet" />
		<tag k="ssr:stedsnr" v="938735" />
	</node>
	<node lat="58.58080555240711" lon="9.0321416726696" id="-22709">
		<tag k="name" v="Bukta" />
		<tag k="natural" v="bay" />
		<tag k="ssr:stedsnr" v="282" />
	</node>
	<node lat="58.59519999788549" lon="9.021694451037801" id="-22714">
		<tag k="name" v="Bjørnsekilen" />
		<tag k="natural" v="bay" />
		<tag k="ssr:stedsnr" v="312" />
	</node>
	<node lat="58.561330557252084" lon="9.031430551941353" id="-22719">
		<tag k="alt_name" v="Sandskjera" />
		<tag k="name" v="Sandskjæra" />
		<tag k="place" v="islet" />
		<tag k="ssr:stedsnr" v="1276" />
	</node>
	<node lat="58.56828055534107" lon="9.031408327288363" id="-22720">
		<tag k="alt_name" v="Langebå" />
		<tag k="name" v="Langbåen" />
		<tag k="place" v="islet" />
		<tag k="ssr:stedsnr" v="1282" />
	</node>
	<node lat="58.64640555540814" lon="9.145613893659876" id="-22727">
		<tag k="name" v="Teistholmen" />
		<tag k="place" v="islet" />
		<tag k="ssr:stedsnr" v="1381" />
	</node>
	<node lat="58.567991667049164" lon="9.045124999208705" id="-22733">
=======
	<node id="-525749" lat="58.5753111133" lon="9.03128889716">
		<tag k="name" v="Risholmen" />
		<tag k="place" v="islet" />
		<tag k="ssr:stedsnr" v="90654" />
	</node>
	<node id="-525748" lat="58.5802833319" lon="9.04206110441">
		<tag k="name" v="Skauholmene" />
		<tag k="place" v="islet" />
		<tag k="ssr:stedsnr" v="90651" />
	</node>
	<node id="-525747" lat="58.5793777736" lon="9.03465000159">
		<tag k="name" v="Vestre Sandøya" />
		<tag k="place" v="island" />
		<tag k="ssr:stedsnr" v="90650" />
	</node>
	<node id="-525738" lat="58.6205944443" lon="9.11761110902">
		<tag k="alt_name" v="Askerøy - Gåsholmer" />
		<tag k="name" v="Gåsholmen" />
		<tag k="place" v="islet" />
		<tag k="ssr:stedsnr" v="62327" />
	</node>
	<node id="-525736" lat="58.6052222219" lon="9.02543611404">
		<tag k="name" v="Gjesøya" />
		<tag k="place" v="island" />
		<tag k="ssr:stedsnr" v="62299" />
	</node>
	<node id="-525735" lat="58.6070764359" lon="9.05176761024">
		<tag k="alt_name" v="Bastholmen, l" />
		<tag k="name" v="Lille Bastholmen" />
		<tag k="place" v="island" />
		<tag k="ssr:stedsnr" v="62297" />
	</node>
	<node id="-525724" lat="58.5744277762" lon="9.03423333066">
		<tag k="name" v="Svineholmen" />
		<tag k="place" v="islet" />
		<tag k="ssr:stedsnr" v="61261" />
	</node>
	<node id="-525678" lat="58.5623972207" lon="9.02517221517">
		<tag k="name" v="Store Risholmen" />
		<tag k="place" v="islet" />
		<tag k="ssr:stedsnr" v="29728" />
	</node>
	<node id="-525677" lat="58.5716500005" lon="9.01331943772">
		<tag k="name" v="Innaforkilen" />
		<tag k="natural" v="bay" />
		<tag k="ssr:stedsnr" v="29719" />
	</node>
	<node id="-525672" lat="58.5951000036" lon="9.00616944217">
		<tag k="name" v="Tåkenes" />
		<tag k="natural" v="cape" />
		<tag k="ssr:stedsnr" v="29694" />
	</node>
	<node id="-525669" lat="58.5789611073" lon="9.00427499473">
		<tag k="name" v="Kjeholmen" />
		<tag k="place" v="islet" />
		<tag k="ssr:stedsnr" v="29677" />
	</node>
	<node id="-525659" lat="58.5828083299" lon="9.04780278357">
		<tag k="name" v="Lille Dalsland" />
		<tag k="natural" v="cape" />
		<tag k="ssr:stedsnr" v="29520" />
	</node>
	<node id="-525658" lat="58.5929777757" lon="9.06965833486">
		<tag k="name" v="Daumannsvika" />
		<tag k="natural" v="bay" />
		<tag k="ssr:stedsnr" v="29509" />
	</node>
	<node id="-525656" lat="58.5789194404" lon="9.04815555985">
		<tag k="name" v="Lille Galgeholmen" />
		<tag k="place" v="islet" />
		<tag k="ssr:stedsnr" v="29497" />
	</node>
	<node id="-525654" lat="58.6255555542" lon="9.07055277644">
		<tag k="name" v="Tyttebærholmen" />
		<tag k="place" v="islet" />
		<tag k="ssr:stedsnr" v="29484" />
	</node>
	<node id="-525653" lat="58.6273916651" lon="9.07578054857">
		<tag k="name" v="Størren" />
		<tag k="natural" v="cape" />
		<tag k="ssr:stedsnr" v="29477" />
	</node>
	<node id="-525652" lat="58.6278611138" lon="9.07800000527">
		<tag k="name" v="Seltangen" />
		<tag k="natural" v="cape" />
		<tag k="ssr:stedsnr" v="29475" />
	</node>
	<node id="-525651" lat="58.6285250012" lon="9.07780833825">
		<tag k="name" v="Gonjevika" />
		<tag k="natural" v="bay" />
		<tag k="ssr:stedsnr" v="29474" />
	</node>
	<node id="-525650" lat="58.6332333345" lon="9.14344443907">
		<tag k="name" v="Grantangen" />
		<tag k="natural" v="cape" />
		<tag k="ssr:stedsnr" v="29467" />
	</node>
	<node id="-525649" lat="58.6288333302" lon="9.11307221961">
		<tag k="name" v="Bukkholmen" />
		<tag k="place" v="islet" />
		<tag k="ssr:stedsnr" v="29460" />
	</node>
	<node id="-525648" lat="58.6303055546" lon="9.12608611109">
		<tag k="name" v="Vardevik" />
		<tag k="natural" v="bay" />
		<tag k="ssr:stedsnr" v="29458" />
	</node>
	<node id="-525647" lat="58.6275916625" lon="9.14002222283">
		<tag k="name" v="Krigsholla" />
		<tag k="natural" v="bay" />
		<tag k="ssr:stedsnr" v="29448" />
	</node>
	<node id="-525645" lat="58.620769441" lon="9.09259165892">
		<tag k="name" v="Killingtangen" />
		<tag k="natural" v="cape" />
		<tag k="ssr:stedsnr" v="29436" />
	</node>
	<node id="-525618" lat="58.643194442" lon="9.16365833616">
		<tag k="fixme" v="consider seamark:type=rock or natural=shoal" />
		<tag k="name" v="Smakkeskjær" />
		<tag k="place" v="islet" />
		<tag k="ssr:stedsnr" v="29086" />
	</node>
	<node id="-525616" lat="58.6529972238" lon="9.13787499739">
		<tag k="name" v="Breiungen" />
		<tag k="natural" v="bay" />
		<tag k="ssr:stedsnr" v="29078" />
	</node>
	<node id="-525604" lat="58.567991667" lon="9.04512499921">
		<tag k="fixme" v="consider seamark:type=rock or natural=shoal" />
		<tag k="name" v="Villmennene" />
		<tag k="place" v="islet" />
		<tag k="ssr:stedsnr" v="28778" />
	</node>
	<node id="-525603" lat="58.6064916675" lon="8.94905832594">
		<tag k="fixme" v="consider seamark:type=rock or natural=shoal" />
		<tag k="name" v="Fjerdingskjær" />
		<tag k="place" v="islet" />
		<tag k="ssr:stedsnr" v="28771" />
	</node>
	<node id="-525601" lat="58.5891472257" lon="9.09782499695">
		<tag k="name" v="Raddet" />
		<tag k="natural" v="shoal" />
		<tag k="place" v="locality" />
		<tag k="ssr:stedsnr" v="28680" />
	</node>
	<node id="-525591" lat="58.6561888867" lon="9.17819444527">
		<tag k="name" v="Snerte" />
		<tag k="place" v="islet" />
		<tag k="ssr:stedsnr" v="1393" />
	</node>
	<node id="-525588" lat="58.6464055554" lon="9.14561389366">
		<tag k="name" v="Teistholmen" />
		<tag k="place" v="islet" />
		<tag k="ssr:stedsnr" v="1381" />
	</node>
	<node id="-525581" lat="58.5682805553" lon="9.03140832729">
		<tag k="alt_name" v="Langebå" />
		<tag k="name" v="Langbåen" />
		<tag k="place" v="islet" />
		<tag k="ssr:stedsnr" v="1282" />
	</node>
	<node id="-525580" lat="58.5613305573" lon="9.03143055194">
		<tag k="alt_name" v="Sandskjera" />
		<tag k="name" v="Sandskjæra" />
		<tag k="place" v="islet" />
		<tag k="ssr:stedsnr" v="1276" />
	</node>
	<node id="-525575" lat="58.5951999979" lon="9.02169445104">
		<tag k="name" v="Bjørnsekilen" />
		<tag k="natural" v="bay" />
		<tag k="ssr:stedsnr" v="312" />
	</node>
	<node id="-525570" lat="58.5808055524" lon="9.03214167267">
		<tag k="name" v="Bukta" />
		<tag k="natural" v="bay" />
		<tag k="ssr:stedsnr" v="282" />
	</node>
	<node id="-526549" lat="58.6275194407" lon="9.11515555585">
		<tag k="name" v="Øytangen" />
		<tag k="natural" v="cape" />
		<tag k="ssr:stedsnr" v="636441" />
	</node>
	<node id="-525546" lat="58.5866583361" lon="8.94354721797">
		<tag k="name" v="Røskilen" />
		<tag k="natural" v="bay" />
		<tag k="ssr:stedsnr" v="940621" />
	</node>
	<node id="-525545" lat="58.5846166631" lon="8.98886667521">
		<tag k="name" v="Groviktangen" />
		<tag k="natural" v="cape" />
		<tag k="ssr:stedsnr" v="940616" />
	</node>
	<node id="-525538" lat="58.5819055571" lon="9.00226665978">
		<tag k="name" v="Kalvelandet" />
		<tag k="natural" v="cape" />
		<tag k="ssr:stedsnr" v="911310" />
	</node>
	<node id="-525536" lat="58.5650166704" lon="9.06896388133">
		<tag k="name" v="Vestre Kjerkegrunnen" />
		<tag k="natural" v="shoal" />
		<tag k="place" v="locality" />
		<tag k="ssr:stedsnr" v="906026" />
	</node>
	<node id="-525529" lat="58.5869000005" lon="9.06372222383">
		<tag k="name" v="Fiskevika" />
		<tag k="natural" v="bay" />
		<tag k="ssr:stedsnr" v="879477" />
	</node>
	<node id="-525526" lat="58.5798777771" lon="9.05005278108">
		<tag k="name" v="Åkertangen" />
		<tag k="natural" v="cape" />
		<tag k="ssr:stedsnr" v="879456" />
	</node>
	<node id="-524494" lat="58.6559444438" lon="9.1776833265">
		<tag k="name" v="Store Snerte" />
		<tag k="place" v="island" />
		<tag k="ssr:stedsnr" v="270659" />
	</node>
	<node id="-525482" lat="58.5960305598" lon="9.0314444472">
		<tag k="name" v="Lille Bjørnskil" />
		<tag k="natural" v="bay" />
		<tag k="ssr:stedsnr" v="940667" />
	</node>
	<node id="-525479" lat="58.5805472202" lon="9.02099722716">
		<tag k="name" v="Grunnevika" />
		<tag k="natural" v="bay" />
		<tag k="ssr:stedsnr" v="940656" />
	</node>
	<node id="-525478" lat="58.5857472201" lon="8.99145000671">
		<tag k="name" v="Grovika" />
		<tag k="natural" v="bay" />
		<tag k="ssr:stedsnr" v="940652" />
	</node>
	<node id="-525470" lat="58.6096111111" lon="8.95445833488">
		<tag k="name" v="Saulekilen" />
		<tag k="natural" v="bay" />
		<tag k="ssr:stedsnr" v="940543" />
	</node>
	<node id="-525469" lat="58.6179250018" lon="9.02672222604">
		<tag k="name" v="Knarrestø" />
		<tag k="place" v="locality" />
		<tag k="seamark:type" v="rock" />
		<tag k="ssr:stedsnr" v="940531" />
	</node>
	<node id="-525461" lat="58.5805194421" lon="9.05188611101">
		<tag k="name" v="Seivika" />
		<tag k="natural" v="bay" />
		<tag k="ssr:stedsnr" v="940478" />
	</node>
	<node id="-525460" lat="58.5852944432" lon="9.06948055071">
		<tag k="name" v="Vestre Sandsundholmen" />
		<tag k="place" v="islet" />
		<tag k="ssr:stedsnr" v="940476" />
	</node>
	<node id="-525459" lat="58.5934805552" lon="9.05887223045">
		<tag k="name" v="Vestre Sandøya" />
		<tag k="place" v="island" />
		<tag k="ssr:stedsnr" v="940475" />
	</node>
	<node id="-525458" lat="58.598219445" lon="9.04730555242">
		<tag k="name" v="Bekkvika" />
		<tag k="natural" v="bay" />
		<tag k="ssr:stedsnr" v="940471" />
	</node>
	<node id="-525456" lat="58.6274277789" lon="9.06431388889">
		<tag k="name" v="Skutevika" />
		<tag k="natural" v="bay" />
		<tag k="ssr:stedsnr" v="940452" />
	</node>
	<node id="-525454" lat="58.6321861112" lon="9.13329722583">
		<tag k="name" v="Ytre Lyngør" />
		<tag k="place" v="island" />
		<tag k="ssr:stedsnr" v="940433" />
	</node>
	<node id="-525453" lat="58.6259250013" lon="9.11440278319">
		<tag k="name" v="Øytangbukta" />
		<tag k="natural" v="bay" />
		<tag k="ssr:stedsnr" v="940426" />
	</node>
	<node id="-525428" lat="58.5962999975" lon="9.07527222136">
		<tag k="name" v="Vindodden" />
		<tag k="natural" v="cape" />
		<tag k="ssr:stedsnr" v="940257" />
	</node>
	<node id="-525413" lat="58.6194222233" lon="8.94711111467">
		<tag k="fixme" v="consider seamark:type=rock or natural=shoal" />
		<tag k="name" v="Rundskjær" />
		<tag k="place" v="islet" />
		<tag k="ssr:stedsnr" v="938735" />
	</node>
	<node id="-525412" lat="58.5690222198" lon="9.00044721723">
		<tag k="name" v="Dirnes" />
		<tag k="natural" v="cape" />
		<tag k="ssr:stedsnr" v="938658" />
	</node>
	<node id="-525411" lat="58.5734273353" lon="9.05974257075">
		<tag k="name" v="Midtre Hummerbåen" />
		<tag k="place" v="locality" />
		<tag k="seamark:type" v="rock" />
		<tag k="ssr:stedsnr" v="938656" />
	</node>
	<node id="-525410" lat="58.618086115" lon="9.05188611318">
		<tag k="name" v="Langesand" />
		<tag k="natural" v="beach" />
		<tag k="place" v="locality" />
		<tag k="ssr:stedsnr" v="938652" />
	</node>
	<node id="-525409" lat="58.6270083292" lon="9.09229722356">
		<tag k="fixme" v="consider seamark:type=rock or natural=shoal" />
		<tag k="name" v="Lille Pærene" />
		<tag k="place" v="islet" />
		<tag k="ssr:stedsnr" v="938648" />
	</node>
	<node id="-525408" lat="58.6174472265" lon="9.13811666052">
		<tag k="name" v="Arvesgrunnen" />
		<tag k="natural" v="shoal" />
		<tag k="place" v="locality" />
		<tag k="ssr:stedsnr" v="938645" />
	</node>
	<node id="-525407" lat="58.6212694473" lon="9.14816945258">
		<tag k="name" v="Vestre Bøsse" />
		<tag k="natural" v="shoal" />
		<tag k="place" v="locality" />
		<tag k="ssr:stedsnr" v="938641" />
	</node>
	<node id="-525384" lat="58.625097218" lon="9.07700554755">
		<tag k="name" v="Teinevika" />
		<tag k="natural" v="bay" />
		<tag k="ssr:stedsnr" v="818473" />
	</node>
	<node id="-525383" lat="58.6434888853" lon="9.12485555354">
		<tag k="name" v="Nipholmen" />
		<tag k="place" v="islet" />
		<tag k="ssr:stedsnr" v="818467" />
	</node>
	<node id="-525364" lat="58.6037472192" lon="9.06055555301">
		<tag k="fixme" v="consider seamark:type=rock or natural=shoal" />
		<tag k="name" v="Lamholmskjær" />
		<tag k="place" v="islet" />
		<tag k="ssr:stedsnr" v="817657" />
	</node>
	<node id="-525351" lat="58.6006472239" lon="9.03001945235">
		<tag k="name" v="Funningsholmene" />
		<tag k="place" v="islet" />
		<tag k="ssr:stedsnr" v="757655" />
	</node>
	<node id="-525350" lat="58.5967138934" lon="9.0356194384">
		<tag k="name" v="Borøytangen" />
		<tag k="natural" v="cape" />
		<tag k="ssr:stedsnr" v="757654" />
	</node>
	<node id="-525335" lat="58.6301277774" lon="9.09781666796">
		<tag k="bay" v="fjord" />
		<tag k="name" v="Lyngørfjorden" />
		<tag k="natural" v="bay" />
		<tag k="ssr:stedsnr" v="911402" />
	</node>
	<node id="-525327" lat="58.5888333376" lon="9.10809166683">
		<tag k="name" v="Torskebåen" />
		<tag k="natural" v="shoal" />
		<tag k="place" v="locality" />
		<tag k="ssr:stedsnr" v="909781" />
	</node>
	<node id="-525326" lat="58.5853777753" lon="8.99169166274">
		<tag k="name" v="Gråvika" />
		<tag k="natural" v="bay" />
		<tag k="ssr:stedsnr" v="906938" />
	</node>
	<node id="-525325" lat="58.6005861091" lon="9.07493610415">
		<tag k="name" v="Sandvika" />
		<tag k="natural" v="bay" />
		<tag k="ssr:stedsnr" v="724954" />
	</node>
	<node id="-525324" lat="58.5982027815" lon="9.09045556377">
		<tag k="name" v="Klåholmene, liten" />
		<tag k="place" v="islet" />
		<tag k="ssr:stedsnr" v="724953" />
	</node>
	<node id="-524459" lat="58.6272194424" lon="9.06280555179">
		<tag k="name" v="Dypvågkilen" />
		<tag k="natural" v="bay" />
		<tag k="ssr:stedsnr" v="454483" />
	</node>
	<node id="-525308" lat="58.5841722252" lon="9.02353610587">
		<tag k="name" v="Movik" />
		<tag k="natural" v="bay" />
		<tag k="ssr:stedsnr" v="697670" />
	</node>
	<node id="-524458" lat="58.6251194433" lon="9.05911666936">
		<tag k="name" v="Dypvågstranda" />
		<tag k="natural" v="beach" />
		<tag k="place" v="locality" />
		<tag k="ssr:stedsnr" v="454480" />
	</node>
	<node id="-526505" lat="58.6369472215" lon="9.14311944154">
		<tag k="name" v="Humleholmen" />
		<tag k="place" v="islet" />
		<tag k="ssr:stedsnr" v="634675" />
	</node>
	<node id="-525293" lat="58.6215083337" lon="9.06185555751">
		<tag k="name" v="Frierholmen" />
		<tag k="place" v="islet" />
		<tag k="ssr:stedsnr" v="697419" />
	</node>
	<node id="-525270" lat="58.5992305559" lon="9.0328111188">
		<tag k="name" v="Koddebåen" />
		<tag k="place" v="locality" />
		<tag k="seamark:type" v="rock" />
		<tag k="ssr:stedsnr" v="695677" />
	</node>
	<node id="-525269" lat="58.6853527786" lon="9.07104722759">
		<tag k="name" v="Kilen" />
		<tag k="natural" v="cape" />
		<tag k="ssr:stedsnr" v="695659" />
	</node>
	<node id="-525268" lat="58.5982027815" lon="9.09045556377">
		<tag k="name" v="Klåholmene, store" />
		<tag k="place" v="islet" />
		<tag k="ssr:stedsnr" v="299931" />
	</node>
	<node id="-525232" lat="58.5723999983" lon="9.01703889121">
		<tag k="fixme" v="consider seamark:type=rock or natural=shoal" />
		<tag k="name" v="Lille Lauvholmen" />
		<tag k="place" v="islet" />
		<tag k="ssr:stedsnr" v="879696" />
	</node>
	<node id="-525231" lat="58.5714222232" lon="9.01666389303">
		<tag k="name" v="Store Lauvholmen" />
		<tag k="place" v="islet" />
		<tag k="ssr:stedsnr" v="879692" />
	</node>
	<node id="-525228" lat="58.5947388847" lon="9.02416111885">
		<tag k="name" v="Store Bjørnskil" />
		<tag k="natural" v="bay" />
		<tag k="ssr:stedsnr" v="879667" />
	</node>
	<node id="-525227" lat="58.5930777778" lon="9.03812221548">
		<tag k="name" v="Valsgårdstangen" />
		<tag k="natural" v="cape" />
		<tag k="ssr:stedsnr" v="879663" />
	</node>
	<node id="-525226" lat="58.5990750035" lon="9.01921388248">
		<tag k="name" v="Funningsholmen" />
		<tag k="place" v="islet" />
		<tag k="ssr:stedsnr" v="879659" />
	</node>
	<node id="-525215" lat="58.6350916703" lon="9.14005556002">
		<tag k="name" v="Skåvika" />
		<tag k="natural" v="bay" />
		<tag k="ssr:stedsnr" v="879438" />
	</node>
	<node id="-525212" lat="58.6152027783" lon="9.09581389235">
		<tag k="name" v="Holla" />
		<tag k="natural" v="bay" />
		<tag k="ssr:stedsnr" v="879417" />
	</node>
	<node id="-525195" lat="58.6009444409" lon="9.06012500575">
		<tag k="name" v="Åsingholmen" />
		<tag k="place" v="islet" />
		<tag k="ssr:stedsnr" v="879272" />
	</node>
	<node id="-525194" lat="58.5998972256" lon="9.06426111033">
		<tag k="name" v="Bastvika" />
		<tag k="natural" v="bay" />
		<tag k="ssr:stedsnr" v="879267" />
	</node>
	<node id="-525192" lat="58.6017111097" lon="9.08210555115">
		<tag k="name" v="Sandvikholmene" />
		<tag k="place" v="islet" />
		<tag k="ssr:stedsnr" v="879261" />
	</node>
	<node id="-525159" lat="58.5958694465" lon="9.08113611483">
		<tag k="name" v="Risholmene, indre" />
		<tag k="place" v="islet" />
		<tag k="ssr:stedsnr" v="663932" />
	</node>
	<node id="-525158" lat="58.5965222252" lon="9.10768610339">
		<tag k="name" v="Åkvåggrunnen" />
		<tag k="natural" v="shoal" />
		<tag k="place" v="locality" />
		<tag k="ssr:stedsnr" v="877697" />
	</node>
	<node id="-525157" lat="58.6114083354" lon="9.04006945236">
		<tag k="name" v="Bjørkholmgrunnen" />
		<tag k="natural" v="shoal" />
		<tag k="place" v="locality" />
		<tag k="ssr:stedsnr" v="877691" />
	</node>
	<node id="-525156" lat="58.6176333363" lon="9.05885833285">
		<tag k="name" v="Prestholmene" />
		<tag k="place" v="islet" />
		<tag k="ssr:stedsnr" v="877688" />
	</node>
	<node id="-525155" lat="58.6253805534" lon="9.09343056198">
		<tag k="fixme" v="consider seamark:type=rock or natural=shoal" />
		<tag k="name" v="Store Pærene" />
		<tag k="place" v="islet" />
		<tag k="ssr:stedsnr" v="877684" />
	</node>
	<node id="-525154" lat="58.6089944427" lon="9.09989167119">
		<tag k="name" v="Temsbåen" />
		<tag k="place" v="locality" />
		<tag k="seamark:type" v="rock" />
		<tag k="ssr:stedsnr" v="877681" />
	</node>
	<node id="-525153" lat="58.6023388901" lon="9.1111805527">
		<tag k="name" v="Langebåen" />
		<tag k="place" v="locality" />
		<tag k="seamark:type" v="rock" />
		<tag k="ssr:stedsnr" v="877770" />
	</node>
	<node id="-525137" lat="58.6530638854" lon="9.13041665873">
		<tag k="name" v="Bergøya" />
		<tag k="place" v="island" />
		<tag k="ssr:stedsnr" v="729404" />
	</node>
	<node id="-525136" lat="58.6545944483" lon="9.16782777923">
		<tag k="name" v="Grasholmen" />
		<tag k="place" v="islet" />
		<tag k="ssr:stedsnr" v="729400" />
	</node>
	<node id="-525131" lat="58.6228607561" lon="9.02805312752">
		<tag k="alt_name" v="Kråkvågkilen;Kilen" />
		<tag k="name" v="Krokvågkilen" />
		<tag k="natural" v="bay" />
		<tag k="ssr:stedsnr" v="729367" />
	</node>
	<node id="-525128" lat="58.6098166699" lon="9.08208055953">
		<tag k="name" v="Hengsholmen" />
		<tag k="place" v="islet" />
		<tag k="ssr:stedsnr" v="729339" />
	</node>
	<node id="-525124" lat="58.5844055584" lon="9.00622500461">
		<tag k="name" v="Borøya" />
		<tag k="place" v="island" />
		<tag k="ssr:stedsnr" v="729297" />
	</node>
	<node id="-525120" lat="58.6146611089" lon="9.04260554935">
		<tag k="alt_name" v="Halsholmane" />
		<tag k="name" v="Halsholmene" />
		<tag k="place" v="islet" />
		<tag k="ssr:stedsnr" v="729355" />
	</node>
	<node id="-525108" lat="58.6154222233" lon="9.03303055298">
		<tag k="name" v="Halskilen" />
		<tag k="natural" v="bay" />
		<tag k="ssr:stedsnr" v="636567" />
	</node>
	<node id="-525104" lat="58.5861166664" lon="9.06528056318">
		<tag k="name" v="Vierholmen" />
		<tag k="place" v="islet" />
		<tag k="ssr:stedsnr" v="636512" />
	</node>
	<node id="-525093" lat="58.6329750009" lon="9.14047221648">
		<tag k="name" v="Myrbukta" />
		<tag k="natural" v="bay" />
		<tag k="ssr:stedsnr" v="636461" />
	</node>
	<node id="-525085" lat="58.5974666654" lon="9.05968055963">
		<tag k="fixme" v="consider seamark:type=rock or natural=shoal" />
		<tag k="name" v="Baskjærholmen" />
		<tag k="place" v="islet" />
		<tag k="ssr:stedsnr" v="636266" />
	</node>
	<node id="-525076" lat="58.6035025871" lon="8.97637818633">
		<tag k="name" v="Eidbostranda" />
		<tag k="natural" v="beach" />
		<tag k="place" v="locality" />
		<tag k="ssr:stedsnr" v="627053" />
	</node>
	<node id="-524419" lat="58.6544055553" lon="9.1460527819">
		<tag k="name" v="Risøya" />
		<tag k="place" v="island" />
		<tag k="ssr:stedsnr" v="244402" />
	</node>
	<node id="-525068" lat="58.6222222231" lon="9.10244444828">
		<tag k="name" v="Askerøya" />
		<tag k="place" v="island" />
		<tag k="ssr:stedsnr" v="607365" />
	</node>
	<node id="-525059" lat="58.5628583348" lon="9.02968332865">
		<tag k="fixme" v="consider seamark:type=rock or natural=shoal" />
		<tag k="name" v="Indre Vestre Sandskjær" />
		<tag k="place" v="islet" />
		<tag k="ssr:stedsnr" v="606036" />
	</node>
	<node id="-525052" lat="58.5937194473" lon="8.99716666643">
		<tag k="name" v="Reppersvika" />
		<tag k="natural" v="bay" />
		<tag k="ssr:stedsnr" v="575658" />
	</node>
	<node id="-525051" lat="58.5775583337" lon="8.99725278092">
		<tag k="name" v="Kranholmen" />
		<tag k="place" v="islet" />
		<tag k="ssr:stedsnr" v="575652" />
	</node>
	<node id="-526905" lat="58.6179193922" lon="8.95098645638">
		<tag k="name" v="Stamnes" />
		<tag k="natural" v="cape" />
		<tag k="ssr:stedsnr" v="1075155" />
	</node>
	<node id="-525046" lat="58.6233305588" lon="8.9522694434">
		<tag k="name" v="Østeråbukta" />
		<tag k="natural" v="bay" />
		<tag k="ssr:stedsnr" v="575494" />
	</node>
	<node id="-525036" lat="58.615583331" lon="9.0223305616">
		<tag k="name" v="Ålekarbukta" />
		<tag k="natural" v="bay" />
		<tag k="ssr:stedsnr" v="575533" />
	</node>
	<node id="-525017" lat="58.6549055517" lon="9.13884722767">
		<tag k="name" v="Taterholmen" />
		<tag k="place" v="islet" />
		<tag k="ssr:stedsnr" v="575061" />
	</node>
	<node id="-524970" lat="58.6104833377" lon="9.02008888682">
		<tag k="fixme" v="consider seamark:type=rock or natural=shoal" />
		<tag k="name" v="Pannekaka" />
		<tag k="place" v="islet" />
		<tag k="ssr:stedsnr" v="697535" />
	</node>
	<node id="-524969" lat="58.6110361092" lon="9.02106111531">
		<tag k="name" v="Labakken" />
		<tag k="place" v="islet" />
		<tag k="ssr:stedsnr" v="697532" />
	</node>
	<node id="-524966" lat="58.6044666668" lon="9.04262221571">
		<tag k="name" v="Bastholmsundet" />
		<tag k="natural" v="strait" />
		<tag k="ssr:stedsnr" v="697523" />
	</node>
	<node id="-524964" lat="58.5914749975" lon="9.0683444375">
		<tag k="name" v="Kilsund" />
		<tag k="natural" v="bay" />
		<tag k="ssr:stedsnr" v="697486" />
	</node>
	<node id="-524961" lat="58.5932222242" lon="8.94202778017">
		<tag k="name" v="Høyvikbukta" />
		<tag k="natural" v="bay" />
		<tag k="ssr:stedsnr" v="697621" />
	</node>
	<node id="-524960" lat="58.6018583317" lon="8.95000555723">
		<tag k="name" v="Furøyholmen" />
		<tag k="place" v="islet" />
		<tag k="ssr:stedsnr" v="697618" />
	</node>
	<node id="-524948" lat="58.6287055523" lon="9.1273416621">
		<tag k="name" v="Ringpynten" />
		<tag k="natural" v="cape" />
		<tag k="ssr:stedsnr" v="697436" />
	</node>
	<node id="-524947" lat="58.6279222216" lon="9.13029444363">
		<tag k="fixme" v="consider seamark:type=rock or natural=shoal" />
		<tag k="name" v="Nilsesskjær" />
		<tag k="place" v="islet" />
		<tag k="ssr:stedsnr" v="697434" />
	</node>
	<node id="-524938" lat="58.6013999975" lon="9.07381388151">
		<tag k="name" v="Geitnes" />
		<tag k="natural" v="cape" />
		<tag k="ssr:stedsnr" v="697286" />
	</node>
	<node id="-524937" lat="58.5960444439" lon="9.08126667332">
		<tag k="name" v="Indre Risholmen" />
		<tag k="place" v="islet" />
		<tag k="ssr:stedsnr" v="697283" />
	</node>
	<node id="-524918" lat="58.56116111" lon="9.03090277659">
		<tag k="fixme" v="consider seamark:type=rock or natural=shoal" />
		<tag k="name" v="Mellom-Sandskjær" />
		<tag k="place" v="islet" />
		<tag k="ssr:stedsnr" v="695745" />
	</node>
	<node id="-524917" lat="58.562922225" lon="9.01711944003">
		<tag k="name" v="Østersgrunnen" />
		<tag k="natural" v="shoal" />
		<tag k="place" v="locality" />
		<tag k="ssr:stedsnr" v="695734" />
	</node>
	<node id="-524913" lat="58.5859388875" lon="9.04688332499">
		<tag k="name" v="Saulekilen" />
		<tag k="natural" v="bay" />
		<tag k="ssr:stedsnr" v="515506" />
	</node>
	<node id="-524897" lat="58.5955611135" lon="8.95070832706">
		<tag k="fixme" v="consider seamark:type=rock or natural=shoal" />
		<tag k="name" v="Tvibolten" />
		<tag k="place" v="islet" />
		<tag k="ssr:stedsnr" v="513749" />
	</node>
	<node id="-524896" lat="58.5712749992" lon="9.0540361137">
		<tag k="name" v="Vestre Hummerbåen" />
		<tag k="place" v="locality" />
		<tag k="seamark:type" v="rock" />
		<tag k="ssr:stedsnr" v="513747" />
	</node>
	<node id="-524894" lat="58.5786555547" lon="9.04708611401">
		<tag k="name" v="Galgeholmene" />
		<tag k="place" v="islet" />
		<tag k="ssr:stedsnr" v="513686" />
	</node>
	<node id="-524893" lat="58.6400083335" lon="9.11913611097">
		<tag k="name" v="Brenningsholmen" />
		<tag k="place" v="islet" />
		<tag k="ssr:stedsnr" v="513684" />
	</node>
	<node id="-524891" lat="58.6561883608" lon="9.19214666914">
		<tag k="name" v="Hogget" />
		<tag k="natural" v="shoal" />
		<tag k="place" v="locality" />
		<tag k="ssr:stedsnr" v="513667" />
	</node>
	<node id="-524887" lat="58.6173388862" lon="9.11383055719">
		<tag k="alt_name" v="Nautholmane" />
		<tag k="name" v="Nautholmene" />
		<tag k="place" v="islet" />
		<tag k="ssr:stedsnr" v="486359" />
	</node>
	<node id="-524884" lat="58.6000999982" lon="9.08304167228">
		<tag k="name" v="Øytangen" />
		<tag k="natural" v="cape" />
		<tag k="ssr:stedsnr" v="486318" />
	</node>
	<node id="-524883" lat="58.5791694465" lon="8.92699999838">
		<tag k="name" v="Kvastadkilen" />
		<tag k="natural" v="bay" />
		<tag k="ssr:stedsnr" v="486310" />
	</node>
	<node id="-524882" lat="58.5833055519" lon="8.99370278539">
		<tag k="name" v="Bukkholmen" />
		<tag k="place" v="islet" />
		<tag k="ssr:stedsnr" v="486309" />
	</node>
	<node id="-524871" lat="58.6306305549" lon="9.14768334181">
		<tag k="name" v="Lyngør-Stangholmen" />
		<tag k="place" v="islet" />
		<tag k="ssr:stedsnr" v="668401" />
	</node>
	<node id="-524869" lat="58.6152361096" lon="8.94343332909">
		<tag k="alt_name" v="Tvedestrandsfjorden" />
		<tag k="bay" v="fjord" />
		<tag k="name" v="Tvedestrandfjorden" />
		<tag k="natural" v="bay" />
		<tag k="ssr:stedsnr" v="668391" />
	</node>
	<node id="-524867" lat="58.6190333318" lon="9.07652500307">
		<tag k="alt_name" v="Lyktene, vestre;Vestre Lyktene" />
		<tag k="name" v="Vestre Løktene" />
		<tag k="place" v="islet" />
		<tag k="ssr:stedsnr" v="668388" />
	</node>
	<node id="-524864" lat="58.6120194479" lon="9.11661111067">
		<tag k="fixme" v="consider seamark:type=rock or natural=shoal" />
		<tag k="name" v="Flateskjæra" />
		<tag k="place" v="islet" />
		<tag k="ssr:stedsnr" v="668375" />
	</node>
	<node id="-524861" lat="58.604125004" lon="9.01491945099">
		<tag k="name" v="Gjesøysund" />
		<tag k="natural" v="strait" />
		<tag k="ssr:stedsnr" v="668343" />
	</node>
	<node id="-524858" lat="58.5913527752" lon="9.07711945174">
		<tag k="alt_name" v="Håholmane, østre" />
		<tag k="name" v="Håholmene" />
		<tag k="place" v="islet" />
		<tag k="ssr:stedsnr" v="668311" />
	</node>
	<node id="-524857" lat="58.5684694428" lon="9.00525833839">
		<tag k="alt_name" v="Utgårdstrand" />
		<tag k="name" v="Utgardsstranda" />
		<tag k="natural" v="beach" />
		<tag k="place" v="locality" />
		<tag k="ssr:stedsnr" v="668303" />
	</node>
	<node id="-526902" lat="58.576156777" lon="8.99952469849">
		<tag k="name" v="Dyngøypollen" />
		<tag k="natural" v="bay" />
		<tag k="ssr:stedsnr" v="1075100" />
	</node>
	<node id="-526900" lat="58.5967601709" lon="9.08110235635">
		<tag k="fixme" v="consider seamark:type=rock or natural=shoal" />
		<tag k="name" v="Flatingen" />
		<tag k="place" v="islet" />
		<tag k="ssr:stedsnr" v="1075083" />
	</node>
	<node id="-526899" lat="58.5727389269" lon="9.02224719406">
		<tag k="name" v="Kjølsvinbåen" />
		<tag k="place" v="locality" />
		<tag k="seamark:type" v="rock" />
		<tag k="ssr:stedsnr" v="1075056" />
	</node>
	<node id="-524842" lat="58.5812888918" lon="9.04463611121">
>>>>>>> e1d4bc35ff8a6074a6f2e91616a996b547c36f15
		<tag k="fixme" v="consider seamark:type=rock or natural=shoal" />
		<tag k="name" v="Lille Guleskjær" />
		<tag k="place" v="islet" />
		<tag k="ssr:stedsnr" v="454709" />
	</node>
	<node id="-524840" lat="58.5892611138" lon="9.01278611051">
		<tag k="name" v="Berberkilen" />
		<tag k="natural" v="bay" />
		<tag k="ssr:stedsnr" v="454704" />
	</node>
	<node id="-524838" lat="58.616275001" lon="8.93627221748">
		<tag k="name" v="Bakkestrand" />
		<tag k="natural" v="beach" />
		<tag k="place" v="locality" />
		<tag k="ssr:stedsnr" v="454518" />
	</node>
	<node id="-524837" lat="58.5824972218" lon="9.05668332869">
		<tag k="name" v="Taterknubben" />
		<tag k="natural" v="cape" />
		<tag k="ssr:stedsnr" v="454515" />
	</node>
<<<<<<< HEAD
	<node lat="58.623105553320414" lon="9.154116671828247" id="-22734">
		<tag k="name" v="Kvarterbåen" />
		<tag k="place" v="locality" />
		<tag k="seamark:type" v="rock" />
		<tag k="ssr:stedsnr" v="28665" />
	</node>
	<node lat="58.65299722375268" lon="9.137874997391178" id="-22741">
		<tag k="name" v="Breiungen" />
		<tag k="natural" v="bay" />
		<tag k="ssr:stedsnr" v="29078" />
	</node>
	<node lat="58.64319444200127" lon="9.16365833616486" id="-22743">
		<tag k="fixme" v="consider seamark:type=rock or natural=shoal" />
		<tag k="name" v="Smakkeskjær" />
		<tag k="place" v="islet" />
		<tag k="ssr:stedsnr" v="29086" />
	</node>
	<node lat="58.578919440397456" lon="9.048155559850239" id="-22753">
		<tag k="name" v="Lille Galgeholmen" />
		<tag k="place" v="islet" />
		<tag k="ssr:stedsnr" v="29497" />
	</node>
	<node lat="58.67656111043203" lon="8.990463885294751" id="-22754">
		<tag k="name" v="Fredvikodden" />
		<tag k="natural" v="cape" />
		<tag k="ssr:stedsnr" v="29591" />
	</node>
	<node lat="58.571650000512264" lon="9.01331943772279" id="-22757">
		<tag k="name" v="Innaforkilen" />
		<tag k="natural" v="bay" />
		<tag k="ssr:stedsnr" v="29719" />
	</node>
	<node lat="58.56239722072228" lon="9.025172215170942" id="-22758">
		<tag k="name" v="Store Risholmen" />
		<tag k="place" v="islet" />
		<tag k="ssr:stedsnr" v="29728" />
	</node>
	<node lat="58.62076944102372" lon="9.092591658920924" id="-22766">
		<tag k="name" v="Killingtangen" />
		<tag k="natural" v="cape" />
		<tag k="ssr:stedsnr" v="29436" />
	</node>
	<node lat="58.627591662463395" lon="9.140022222832954" id="-22768">
		<tag k="name" v="Krigsholla" />
		<tag k="natural" v="bay" />
		<tag k="ssr:stedsnr" v="29448" />
	</node>
	<node lat="58.63030555460298" lon="9.12608611109346" id="-22769">
		<tag k="name" v="Vardevik" />
		<tag k="natural" v="bay" />
		<tag k="ssr:stedsnr" v="29458" />
	</node>
	<node lat="58.62883333023223" lon="9.113072219613729" id="-22770">
		<tag k="name" v="Bukkholmen" />
		<tag k="place" v="islet" />
		<tag k="ssr:stedsnr" v="29460" />
	</node>
	<node lat="58.58280832992979" lon="9.047802783574642" id="-22771">
		<tag k="name" v="Lille Dalsland" />
		<tag k="natural" v="cape" />
		<tag k="ssr:stedsnr" v="29520" />
	</node>
	<node lat="58.59510000357694" lon="9.006169442170501" id="-22782">
		<tag k="name" v="Tåkenes" />
		<tag k="natural" v="cape" />
		<tag k="ssr:stedsnr" v="29694" />
	</node>
	<node lat="58.57442777622047" lon="9.034233330656678" id="-22811">
		<tag k="name" v="Svineholmen" />
		<tag k="place" v="islet" />
		<tag k="ssr:stedsnr" v="61261" />
	</node>
	<node lat="58.607076435879506" lon="9.051767610241757" id="-22816">
		<tag k="alt_name" v="Bastholmen, l;Bastholmen, liten" />
		<tag k="name" v="Lille Bastholmen" />
		<tag k="place" v="island" />
		<tag k="ssr:stedsnr" v="62297" />
	</node>
	<node lat="58.60522222185648" lon="9.025436114039053" id="-22817">
		<tag k="name" v="Gjesøya" />
		<tag k="place" v="island" />
		<tag k="ssr:stedsnr" v="62299" />
	</node>
	<node lat="58.64304722577407" lon="9.150897220030778" id="-22824">
		<tag k="fixme" v="consider seamark:type=rock or natural=shoal" />
		<tag k="name" v="Terneskjæra" />
		<tag k="place" v="islet" />
		<tag k="ssr:stedsnr" v="88598" />
	</node>
	<node lat="58.57523888896153" lon="9.06336111798043" id="-22825">
		<tag k="name" v="Østre Hummerbåen" />
		<tag k="place" v="locality" />
		<tag k="seamark:type" v="rock" />
		<tag k="ssr:stedsnr" v="88627" />
	</node>
	<node lat="58.582352779111446" lon="9.06449166772403" id="-22827">
		<tag k="fixme" v="multiple name tags, choose one and add the other to alt_name" />
		<tag k="name" v="Indre Kvernskjær;Lille Kvernskjær" />
		<tag k="place" v="islet" />
		<tag k="ssr:stedsnr" v="88716" />
	</node>
	<node lat="58.60100277451966" lon="9.06963054892666" id="-22856">
		<tag k="name" v="Øyklova" />
		<tag k="natural" v="bay" />
		<tag k="ssr:stedsnr" v="90232" />
	</node>
	<node lat="58.58131667022321" lon="9.048552776614944" id="-22860">
		<tag k="name" v="Store Dalsland" />
		<tag k="natural" v="cape" />
		<tag k="ssr:stedsnr" v="90488" />
	</node>
	<node lat="58.61608888659624" lon="9.070291664877097" id="-22868">
		<tag k="name" v="Tangferholmen" />
		<tag k="place" v="islet" />
		<tag k="ssr:stedsnr" v="90410" />
	</node>
	<node lat="58.61742778036588" lon="9.021530561269605" id="-22883">
		<tag k="name" v="Vadstengene" />
		<tag k="natural" v="beach" />
		<tag k="ssr:stedsnr" v="90546" />
	</node>
	<node lat="58.57937777357808" lon="9.034650001586387" id="-22886">
		<tag k="name" v="Vestre Sandøya" />
		<tag k="place" v="island" />
		<tag k="ssr:stedsnr" v="90650" />
	</node>
	<node lat="58.58028333185526" lon="9.042061104412364" id="-22887">
		<tag k="name" v="Skauholmene" />
		<tag k="place" v="islet" />
		<tag k="ssr:stedsnr" v="90651" />
	</node>
	<node lat="58.575311113327786" lon="9.031288897162918" id="-22888">
		<tag k="name" v="Risholmen" />
		<tag k="place" v="islet" />
		<tag k="ssr:stedsnr" v="90654" />
	</node>
	<node lat="58.5996583328436" lon="8.954866658737094" id="-22905">
		<tag k="name" v="Furøya" />
		<tag k="place" v="island" />
		<tag k="ssr:stedsnr" v="119913" />
	</node>
	<node lat="58.577138892848986" lon="9.041425007014666" id="-22913">
		<tag k="name" v="Fugløya" />
		<tag k="place" v="island" />
		<tag k="ssr:stedsnr" v="122288" />
	</node>
	<node lat="58.64556539057383" lon="9.154192990854229" id="-22918">
		<tag k="name" v="Østregapet" />
		<tag k="natural" v="strait" />
		<tag k="ssr:stedsnr" v="149644" />
	</node>
	<node lat="58.6248055598564" lon="9.152008325034453" id="-22919">
		<tag k="name" v="Østre Bøsse" />
		<tag k="natural" v="shoal" />
		<tag k="place" v="locality" />
		<tag k="ssr:stedsnr" v="149649" />
	</node>
	<node lat="58.60772499847405" lon="9.116152784588516" id="-22920">
		<tag k="name" v="Ingeborggrunnen" />
		<tag k="natural" v="shoal" />
		<tag k="place" v="locality" />
		<tag k="ssr:stedsnr" v="149651" />
	</node>
	<node lat="58.60493333659807" lon="9.102566662260541" id="-22921">
		<tag k="name" v="Ytre Fjordbåen" />
		<tag k="place" v="locality" />
		<tag k="seamark:type" v="rock" />
		<tag k="ssr:stedsnr" v="149652" />
	</node>
	<node lat="58.587958334061675" lon="9.091508333333449" id="-22922">
		<tag k="name" v="Den grunne knatten" />
		<tag k="natural" v="shoal" />
		<tag k="place" v="locality" />
		<tag k="ssr:stedsnr" v="149753" />
	</node>
	<node lat="58.581130552110345" lon="8.994555562274869" id="-22952">
		<tag k="name" v="Gule og gråholmene" />
		<tag k="place" v="islet" />
		<tag k="ssr:stedsnr" v="150646" />
	</node>
	<node lat="58.604730559264354" lon="9.041669437501655" id="-22967">
		<tag k="name" v="Pipholmene" />
		<tag k="place" v="islet" />
		<tag k="ssr:stedsnr" v="150543" />
	</node>
	<node lat="58.63045833360348" lon="9.147744440569944" id="-23009">
		<tag k="name" v="Lyngørstangholmen" />
		<tag k="place" v="islet" />
		<tag k="ssr:stedsnr" v="179949" />
	</node>
	<node lat="58.594344445754174" lon="9.082391663930915" id="-23011">
		<tag k="alt_name" v="Risholmene, ytre" />
		<tag k="fixme" v="multiple name tags, choose one and add the other to alt_name" />
		<tag k="name" v="Risholmen;Ytre Risholmen" />
		<tag k="place" v="islet" />
		<tag k="ssr:stedsnr" v="182287" />
	</node>
	<node lat="58.59635285585633" lon="9.086396248706283" id="-23012">
		<tag k="name" v="Klåholmene" />
		<tag k="old_name" v="Kloholmane" />
		<tag k="place" v="islet" />
		<tag k="ssr:stedsnr" v="182288" />
	</node>
	<node lat="58.59630436957884" lon="9.089529449645367" id="-23021">
		<tag k="fixme" v="multiple name tags, choose one and add the other to alt_name" />
		<tag k="name" v="Ytre Klåholmen;Klåholmen, lille" />
		<tag k="place" v="islet" />
		<tag k="ssr:stedsnr" v="210663" />
	</node>
	<node lat="58.6535194430816" lon="9.177397222392496" id="-23022">
		<tag k="name" v="Lille Snerte" />
		<tag k="place" v="island" />
		<tag k="ssr:stedsnr" v="210667" />
	</node>
	<node lat="58.5967527760953" lon="8.966983330344306" id="-23023">
		<tag k="name" v="Nuholmen" />
		<tag k="place" v="islet" />
		<tag k="ssr:stedsnr" v="210758" />
	</node>
	<node lat="58.59504722625386" lon="8.942711104528332" id="-23024">
		<tag k="name" v="Langesand" />
		<tag k="natural" v="beach" />
		<tag k="ssr:stedsnr" v="210759" />
	</node>
	<node lat="58.598475002036125" lon="9.090519446445" id="-23025">
		<tag k="fixme" v="multiple name tags, choose one and add the other to alt_name" />
		<tag k="name" v="Indre Klåholmen;Klåholmen, store" />
		<tag k="place" v="islet" />
		<tag k="ssr:stedsnr" v="210765" />
	</node>
	<node lat="58.64228055770013" lon="9.165230559536802" id="-23037">
		<tag k="name" v="Stangholmgapet" />
		<tag k="natural" v="strait" />
		<tag k="ssr:stedsnr" v="211093" />
	</node>
	<node lat="58.619216662607116" lon="9.082163885135753" id="-23043">
		<tag k="fixme" v="consider seamark:type=rock or natural=shoal" />
		<tag k="name" v="Bispen" />
		<tag k="place" v="islet" />
		<tag k="ssr:stedsnr" v="211436" />
	</node>
	<node lat="58.613750000067185" lon="9.096736117152158" id="-23045">
		<tag k="name" v="Refsholmen" />
		<tag k="place" v="islet" />
		<tag k="ssr:stedsnr" v="211440" />
	</node>
	<node lat="58.6203888856897" lon="9.02635000665796" id="-23052">
		<tag k="name" v="Rånetangen" />
		<tag k="natural" v="cape" />
		<tag k="ssr:stedsnr" v="211566" />
	</node>
	<node lat="58.630041665384816" lon="9.114222224213004" id="-23090">
		<tag k="name" v="Stenskilden" />
		<tag k="natural" v="bay" />
		<tag k="ssr:stedsnr" v="212430" />
	</node>
	<node lat="58.62265833520335" lon="9.056511118820477" id="-23091">
		<tag k="name" v="Skutevika" />
		<tag k="natural" v="bay" />
		<tag k="ssr:stedsnr" v="212437" />
	</node>
	<node lat="58.63144999569101" lon="9.091666658177218" id="-23093">
		<tag k="name" v="Helleholmen" />
		<tag k="place" v="islet" />
		<tag k="ssr:stedsnr" v="212458" />
	</node>
	<node lat="58.641811109310005" lon="9.159386117305054" id="-23100">
		<tag k="name" v="Østre Flatskjæra" />
		<tag k="place" v="islet" />
		<tag k="ssr:stedsnr" v="301949" />
	</node>
	<node lat="58.568394446113714" lon="9.018000008200117" id="-23111">
		<tag k="alt_name" v="Kjølsvin" />
		<tag k="name" v="Kjølsvinet" />
		<tag k="place" v="islet" />
		<tag k="ssr:stedsnr" v="304265" />
	</node>
	<node lat="58.62124999660795" lon="9.080611116523606" id="-23119">
		<tag k="alt_name" v="Lyktene, østre;Østre Lyktene" />
		<tag k="name" v="Østre Løktene" />
		<tag k="place" v="islet" />
		<tag k="ssr:stedsnr" v="304354" />
	</node>
	<node lat="58.57145832910887" lon="9.07939443988029" id="-23129">
		<tag k="name" v="Østre Kjerkegrunnen" />
		<tag k="natural" v="shoal" />
		<tag k="place" v="locality" />
		<tag k="ssr:stedsnr" v="331732" />
	</node>
	<node lat="58.563872220147296" lon="9.034636114674303" id="-23130">
		<tag k="fixme" v="multiple name tags, choose one and add the other to alt_name; consider seamark:type=rock or natural=shoal" />
		<tag k="name" v="Østre Sandskjær;Tårn-Sandskjær" />
		<tag k="place" v="islet" />
		<tag k="ssr:stedsnr" v="331734" />
	</node>
	<node lat="58.6140083368348" lon="8.94787776960606" id="-23131">
		<tag k="name" v="Epleviktangen" />
		<tag k="natural" v="cape" />
		<tag k="ssr:stedsnr" v="331737" />
	</node>
	<node lat="58.55933888502215" lon="9.025763889367415" id="-23132">
=======
	<node id="-524836" lat="58.5820027787" lon="9.07046666613">
		<tag k="fixme" v="consider seamark:type=rock or natural=shoal" />
		<tag k="name" v="Terneskjær" />
		<tag k="place" v="islet" />
		<tag k="ssr:stedsnr" v="454514" />
	</node>
	<node id="-524834" lat="58.6187916625" lon="9.0806333288">
		<tag k="name" v="Løktenesund" />
		<tag k="natural" v="strait" />
		<tag k="ssr:stedsnr" v="454432" />
	</node>
	<node id="-524832" lat="58.6838638921" lon="9.07554721426">
		<tag k="name" v="Lisanden" />
		<tag k="natural" v="beach" />
		<tag k="place" v="locality" />
		<tag k="ssr:stedsnr" v="454414" />
	</node>
	<node id="-524818" lat="58.5687944412" lon="9.05613055939">
		<tag k="name" v="Sjursgrunnen" />
		<tag k="natural" v="shoal" />
		<tag k="place" v="locality" />
		<tag k="ssr:stedsnr" v="452739" />
	</node>
	<node id="-524817" lat="58.5599583343" lon="9.02786111964">
		<tag k="name" v="Grunnesund" />
		<tag k="natural" v="strait" />
		<tag k="ssr:stedsnr" v="452736" />
	</node>
	<node id="-524816" lat="58.6533222232" lon="9.17708611618">
		<tag k="name" v="Snerte, l" />
		<tag k="place" v="islet" />
		<tag k="ssr:stedsnr" v="660419" />
	</node>
	<node id="-524815" lat="58.6559277794" lon="9.17785554892">
		<tag k="name" v="Snerte, st" />
		<tag k="place" v="islet" />
		<tag k="ssr:stedsnr" v="660407" />
	</node>
	<node id="-526825" lat="58.6223361123" lon="9.1346583375">
		<tag k="fixme" v="consider seamark:type=rock or natural=shoal" />
		<tag k="name" v="Fiskeskjær" />
		<tag k="place" v="islet" />
		<tag k="ssr:stedsnr" v="968947" />
	</node>
	<node id="-524776" lat="58.5675777791" lon="9.00839722619">
		<tag k="name" v="Neslenes" />
		<tag k="natural" v="cape" />
		<tag k="ssr:stedsnr" v="515711" />
	</node>
	<node id="-524770" lat="58.5957888912" lon="9.02360833846">
		<tag k="name" v="Bjørnslappen" />
		<tag k="natural" v="cape" />
		<tag k="ssr:stedsnr" v="515684" />
	</node>
	<node id="-526815" lat="58.6401555598" lon="9.11372777462">
		<tag k="name" v="Hellersøya" />
		<tag k="place" v="island" />
		<tag k="ssr:stedsnr" v="851361" />
	</node>
	<node id="-526808" lat="58.6169611119" lon="9.12236944378">
		<tag k="alt_name" v="Stangholmen" />
		<tag k="name" v="Askerøy-Stangholmen" />
		<tag k="place" v="islet" />
		<tag k="ssr:stedsnr" v="851316" />
	</node>
	<node id="-524756" lat="58.5945944405" lon="9.08165556105">
		<tag k="name" v="Ytre Risholmen" />
		<tag k="place" v="islet" />
		<tag k="ssr:stedsnr" v="515490" />
	</node>
	<node id="-524753" lat="58.642030558" lon="9.05053333153">
		<tag k="name" v="Apalvika" />
		<tag k="natural" v="bay" />
		<tag k="ssr:stedsnr" v="515479" />
	</node>
	<node id="-524750" lat="58.6369361127" lon="9.10161666126">
		<tag k="name" v="Skibvika" />
		<tag k="natural" v="bay" />
		<tag k="ssr:stedsnr" v="515451" />
	</node>
	<node id="-524749" lat="58.6238194482" lon="9.05483055746">
		<tag k="name" v="Asylbukta" />
		<tag k="natural" v="bay" />
		<tag k="ssr:stedsnr" v="515450" />
	</node>
	<node id="-524748" lat="58.6265500037" lon="9.13520555231">
		<tag k="name" v="Speksholmbukta" />
		<tag k="natural" v="bay" />
		<tag k="ssr:stedsnr" v="515444" />
	</node>
	<node id="-524747" lat="58.6295527739" lon="9.14224999653">
		<tag k="name" v="Langholmsund" />
		<tag k="natural" v="strait" />
		<tag k="ssr:stedsnr" v="515443" />
	</node>
	<node id="-526790" lat="58.6370416626" lon="9.13060000535">
		<tag k="name" v="Odden" />
		<tag k="place" v="island" />
		<tag k="ssr:stedsnr" v="847937" />
	</node>
	<node id="-524740" lat="58.6845416668" lon="9.07443889385">
		<tag k="name" v="Lagfjorden" />
		<tag k="natural" v="bay" />
		<tag k="ssr:stedsnr" v="515414" />
	</node>
	<node id="-526775" lat="58.5704055539" lon="8.99820555907">
		<tag k="name" v="Ringen" />
		<tag k="natural" v="cape" />
		<tag k="ssr:stedsnr" v="818728" />
	</node>
	<node id="-524718" lat="58.5986861081" lon="9.0519833303">
		<tag k="name" v="Hummervika" />
		<tag k="natural" v="bay" />
		<tag k="ssr:stedsnr" v="515262" />
	</node>
	<node id="-526764" lat="58.5806111152" lon="8.99804721915">
		<tag k="fixme" v="consider seamark:type=rock or natural=shoal" />
		<tag k="name" v="Støholmen" />
		<tag k="place" v="islet" />
		<tag k="ssr:stedsnr" v="818679" />
	</node>
	<node id="-524714" lat="58.6507944419" lon="9.14201666668">
		<tag k="name" v="Minne" />
		<tag k="natural" v="strait" />
		<tag k="ssr:stedsnr" v="515088" />
	</node>
	<node id="-526759" lat="58.5915416679" lon="8.97829166031">
		<tag k="name" v="Saltnestangen" />
		<tag k="natural" v="cape" />
		<tag k="ssr:stedsnr" v="818657" />
	</node>
	<node id="-526749" lat="58.5868666698" lon="9.07258611166">
		<tag k="name" v="Østre Sandsundholmen" />
		<tag k="place" v="islet" />
		<tag k="ssr:stedsnr" v="818513" />
	</node>
	<node id="-526744" lat="58.625297221" lon="9.06995833652">
		<tag k="name" v="Engholmkilen" />
		<tag k="natural" v="bay" />
		<tag k="ssr:stedsnr" v="818493" />
	</node>
	<node id="-526743" lat="58.6356694428" lon="9.12558888766">
		<tag k="name" v="Holmen" />
		<tag k="place" v="islet" />
		<tag k="ssr:stedsnr" v="818481" />
	</node>
	<node id="-526742" lat="58.6352888862" lon="9.12731388047">
		<tag k="name" v="Lille Svalsund" />
		<tag k="natural" v="strait" />
		<tag k="ssr:stedsnr" v="818480" />
	</node>
	<node id="-526741" lat="58.6346305545" lon="9.13218055915">
		<tag k="name" v="Lyngørsundet" />
		<tag k="natural" v="strait" />
		<tag k="ssr:stedsnr" v="818479" />
	</node>
	<node id="-524691" lat="58.5803111126" lon="9.0331861056">
		<tag k="name" v="Hauketangen" />
		<tag k="natural" v="cape" />
		<tag k="ssr:stedsnr" v="506289" />
	</node>
	<node id="-526735" lat="58.6301416628" lon="9.13606110909">
		<tag k="name" v="Sønnerstrand" />
		<tag k="natural" v="beach" />
		<tag k="place" v="locality" />
		<tag k="ssr:stedsnr" v="818440" />
	</node>
	<node id="-526734" lat="58.6288083337" lon="9.14566111265">
		<tag k="fixme" v="consider seamark:type=rock or natural=shoal" />
		<tag k="name" v="Svartskjær" />
		<tag k="place" v="islet" />
		<tag k="ssr:stedsnr" v="818437" />
	</node>
	<node id="-526732" lat="58.6137694406" lon="9.07935554843">
		<tag k="name" v="Myrbukta" />
		<tag k="natural" v="bay" />
		<tag k="ssr:stedsnr" v="818429" />
	</node>
	<node id="-526731" lat="58.6212861069" lon="9.08814721549">
		<tag k="fixme" v="consider seamark:type=rock or natural=shoal" />
		<tag k="name" v="Storeskjær" />
		<tag k="place" v="islet" />
		<tag k="ssr:stedsnr" v="818423" />
	</node>
	<node id="-524673" lat="58.6350194401" lon="9.14601389469">
		<tag k="name" v="Kjeholmgapet" />
		<tag k="natural" v="strait" />
		<tag k="ssr:stedsnr" v="393452" />
	</node>
	<node id="-524693" lat="58.5698921534" lon="9.04108189587">
		<tag k="fixme" v="consider seamark:type=rock or natural=shoal" />
		<tag k="name" v="Gylteskjær" />
		<tag k="place" v="islet" />
		<tag k="ssr:stedsnr" v="513760" />
	</node>
	<node id="-524666" lat="58.6210500005" lon="8.93873333175">
		<tag k="name" v="Tangen" />
		<tag k="natural" v="cape" />
		<tag k="ssr:stedsnr" v="393518" />
	</node>
	<node id="-526713" lat="58.6058805514" lon="9.04704999408">
		<tag k="alt_name" v="Bastholmen, store" />
		<tag k="name" v="Store Bastholmen" />
		<tag k="place" v="island" />
		<tag k="ssr:stedsnr" v="790303" />
	</node>
	<node id="-524664" lat="58.5842555583" lon="9.06759167144">
		<tag k="name" v="Oterholmen" />
		<tag k="place" v="islet" />
		<tag k="ssr:stedsnr" v="393503" />
	</node>
	<node id="-524663" lat="58.6005750007" lon="9.08991388944">
		<tag k="fixme" v="consider seamark:type=rock or natural=shoal" />
		<tag k="name" v="Skrubbeskjæra" />
		<tag k="place" v="islet" />
		<tag k="ssr:stedsnr" v="393253" />
	</node>
	<node id="-524638" lat="58.5658178501" lon="9.0239459914">
		<tag k="name" v="Kolholmen" />
		<tag k="place" v="islet" />
		<tag k="ssr:stedsnr" v="391759" />
	</node>
	<node id="-524637" lat="58.6135555597" lon="9.02996944444">
		<tag k="name" v="Bringebærnes" />
		<tag k="natural" v="cape" />
		<tag k="ssr:stedsnr" v="391677" />
	</node>
	<node id="-524634" lat="58.6398249963" lon="9.15600000616">
		<tag k="name" v="Vestre Flatskjæra" />
		<tag k="place" v="islet" />
		<tag k="ssr:stedsnr" v="361954" />
	</node>
	<node id="-524626" lat="58.6758833342" lon="9.01919444683">
		<tag k="bay" v="fjord" />
		<tag k="name" v="Nævestadfjorden" />
		<tag k="natural" v="bay" />
		<tag k="ssr:stedsnr" v="486471" />
	</node>
	<node id="-524620" lat="58.6294138869" lon="9.14317499651">
		<tag k="name" v="Langholmen" />
		<tag k="place" v="islet" />
		<tag k="ssr:stedsnr" v="486399" />
	</node>
	<node id="-524619" lat="58.6314722233" lon="9.13149166306">
		<tag k="name" v="Lyngøya" />
		<tag k="place" v="island" />
		<tag k="ssr:stedsnr" v="486397" />
	</node>
	<node id="-524618" lat="58.6325777818" lon="9.1156749993">
		<tag k="name" v="Steinsøya" />
		<tag k="place" v="island" />
		<tag k="ssr:stedsnr" v="486396" />
	</node>
	<node id="-526663" lat="58.5638305529" lon="9.02596389677">
		<tag k="name" v="Lille Risholmen" />
		<tag k="place" v="islet" />
		<tag k="ssr:stedsnr" v="757694" />
	</node>
	<node id="-526658" lat="58.5758694423" lon="9.01866388273">
		<tag k="name" v="Brennvika" />
		<tag k="natural" v="bay" />
		<tag k="ssr:stedsnr" v="757647" />
	</node>
	<node id="-524608" lat="58.5935087146" lon="9.00271659136">
		<tag k="alt_name" v="Snarsund" />
		<tag k="name" v="Snaresund" />
		<tag k="natural" v="strait" />
		<tag k="ssr:stedsnr" v="485245" />
	</node>
	<node id="-526643" lat="58.6097055525" lon="9.03426666942">
		<tag k="name" v="Eidstangen" />
		<tag k="natural" v="cape" />
		<tag k="ssr:stedsnr" v="757547" />
	</node>
	<node id="-526636" lat="58.6342361081" lon="9.12382221425">
		<tag k="name" v="Store Svalsund" />
		<tag k="natural" v="strait" />
		<tag k="ssr:stedsnr" v="757466" />
	</node>
	<node id="-526635" lat="58.631361115" lon="9.14079722793">
		<tag k="name" v="Brunheibukt" />
		<tag k="natural" v="bay" />
		<tag k="ssr:stedsnr" v="757453" />
	</node>
	<node id="-526633" lat="58.6248416641" lon="9.11254999197">
		<tag k="name" v="Vakil" />
		<tag k="natural" v="bay" />
		<tag k="ssr:stedsnr" v="757443" />
	</node>
	<node id="-526632" lat="58.589888893" lon="8.94283888067">
		<tag k="name" v="Hantosundet" />
		<tag k="natural" v="strait" />
		<tag k="ssr:stedsnr" v="757439" />
	</node>
	<node id="-526630" lat="58.6089333369" lon="9.05473333071">
		<tag k="name" v="Tangen" />
		<tag k="natural" v="cape" />
		<tag k="ssr:stedsnr" v="757432" />
	</node>
	<node id="-524561" lat="58.559338885" lon="9.02576388937">
>>>>>>> e1d4bc35ff8a6074a6f2e91616a996b547c36f15
		<tag k="fixme" v="consider seamark:type=rock or natural=shoal" />
		<tag k="name" v="Vestre Sandskjær" />
		<tag k="place" v="islet" />
		<tag k="ssr:stedsnr" v="331746" />
<<<<<<< HEAD
	</node>
	<node lat="58.58203333285876" lon="9.007005552048339" id="-23135">
		<tag k="name" v="Storkilen" />
		<tag k="natural" v="bay" />
		<tag k="ssr:stedsnr" v="333080" />
	</node>
	<node lat="58.6251499981136" lon="9.105708333534526" id="-23141">
		<tag k="name" v="Selviksund" />
		<tag k="natural" v="strait" />
		<tag k="ssr:stedsnr" v="333034" />
	</node>
	<node lat="58.61997777462922" lon="9.068763887992148" id="-23159">
		<tag k="name" v="Ruholmen" />
		<tag k="place" v="islet" />
		<tag k="ssr:stedsnr" v="333441" />
	</node>
	<node lat="58.642250001335384" lon="9.11667778162035" id="-23173">
		<tag k="name" v="Lestholmen" />
		<tag k="place" v="islet" />
		<tag k="ssr:stedsnr" v="333476" />
	</node>
	<node lat="58.59319444515577" lon="9.018616664233596" id="-23179">
		<tag k="name" v="Sildvika" />
		<tag k="natural" v="bay" />
		<tag k="ssr:stedsnr" v="333666" />
	</node>
	<node lat="58.63982499630137" lon="9.156000006156834" id="-23205">
		<tag k="name" v="Vestre Flatskjæra" />
		<tag k="place" v="islet" />
		<tag k="ssr:stedsnr" v="361954" />
	</node>
	<node lat="58.564688886468204" lon="9.03260832752897" id="-23207">
		<tag k="fixme" v="consider seamark:type=rock or natural=shoal" />
		<tag k="name" v="Indre Østre Sandskjær" />
		<tag k="place" v="islet" />
		<tag k="ssr:stedsnr" v="363042" />
	</node>
	<node lat="58.603183333437784" lon="8.958558328873405" id="-23213">
		<tag k="alt_name" v="Furøysund" />
		<tag k="name" v="Furesund" />
		<tag k="natural" v="strait" />
		<tag k="ssr:stedsnr" v="364335" />
	</node>
	<node lat="58.61355555966174" lon="9.02996944444247" id="-23223">
		<tag k="name" v="Bringebærnes" />
		<tag k="natural" v="cape" />
		<tag k="ssr:stedsnr" v="391677" />
	</node>
	<node lat="58.56581785010453" lon="9.023945991398275" id="-23224">
		<tag k="name" v="Kolholmen" />
		<tag k="place" v="islet" />
		<tag k="ssr:stedsnr" v="391759" />
	</node>
	<node lat="58.600575000721406" lon="9.089913889443158" id="-23236">
		<tag k="fixme" v="consider seamark:type=rock or natural=shoal" />
		<tag k="name" v="Skrubbeskjæra" />
		<tag k="place" v="islet" />
		<tag k="ssr:stedsnr" v="393253" />
	</node>
	<node lat="58.637347224267856" lon="9.154063892253246" id="-23248">
		<tag k="fixme" v="consider seamark:type=rock or natural=shoal" />
		<tag k="name" v="Lokkandskjærene" />
		<tag k="place" v="islet" />
		<tag k="ssr:stedsnr" v="393442" />
	</node>
	<node lat="58.626527779051905" lon="9.072261117218412" id="-23258">
		<tag k="name" v="Hustangbukta" />
		<tag k="natural" v="bay" />
		<tag k="ssr:stedsnr" v="393449" />
	</node>
	<node lat="58.63501944012972" lon="9.146013894689505" id="-23259">
		<tag k="name" v="Kjeholmgapet" />
		<tag k="natural" v="strait" />
		<tag k="ssr:stedsnr" v="393452" />
	</node>
	<node lat="58.632463887275904" lon="9.144858324973132" id="-23260">
		<tag k="name" v="Åkertangen" />
		<tag k="natural" v="cape" />
		<tag k="ssr:stedsnr" v="393454" />
	</node>
	<node lat="58.609074996899544" lon="9.017769439313456" id="-23275">
		<tag k="name" v="Tjæreholmen" />
		<tag k="place" v="islet" />
		<tag k="ssr:stedsnr" v="393549" />
	</node>
	<node lat="58.58767777973332" lon="9.008408335986386" id="-23279">
		<tag k="name" v="Blodkil" />
		<tag k="natural" v="bay" />
		<tag k="ssr:stedsnr" v="393678" />
	</node>
	<node lat="58.57198055171129" lon="9.019650007210489" id="-23286">
		<tag k="name" v="Hesnessund" />
		<tag k="natural" v="strait" />
		<tag k="ssr:stedsnr" v="393690" />
	</node>
	<node lat="58.57242222419494" lon="9.019872217211496" id="-23287">
		<tag k="name" v="Kastellet" />
		<tag k="place" v="islet" />
		<tag k="ssr:stedsnr" v="393692" />
	</node>
	<node lat="58.581263892772576" lon="9.0648694525874" id="-23302">
		<tag k="name" v="Kvernskjærholmene" />
		<tag k="place" v="islet" />
		<tag k="ssr:stedsnr" v="411968" />
	</node>
	<node lat="58.5688333357659" lon="9.012894447670613" id="-23305">
		<tag k="name" v="Utgårdsstranda" />
		<tag k="natural" v="beach" />
		<tag k="ssr:stedsnr" v="422897" />
	</node>
	<node lat="58.58031111258124" lon="9.033186105604202" id="-23316">
		<tag k="name" v="Hauketangen" />
		<tag k="natural" v="cape" />
		<tag k="ssr:stedsnr" v="506289" />
	</node>
	<node lat="58.57127499916785" lon="9.054036113703784" id="-23318">
		<tag k="name" v="Vestre Hummerbåen" />
		<tag k="place" v="locality" />
		<tag k="seamark:type" v="rock" />
		<tag k="ssr:stedsnr" v="513747" />
	</node>
	<node lat="58.59556111346728" lon="8.950708327063538" id="-23319">
		<tag k="fixme" v="consider seamark:type=rock or natural=shoal" />
		<tag k="name" v="Tvibolten" />
		<tag k="place" v="islet" />
		<tag k="ssr:stedsnr" v="513749" />
	</node>
	<node lat="58.56989215338946" lon="9.041081895866125" id="-23320">
		<tag k="fixme" v="consider seamark:type=rock or natural=shoal" />
		<tag k="name" v="Gylteskjær" />
		<tag k="place" v="islet" />
		<tag k="ssr:stedsnr" v="513760" />
	</node>
	<node lat="58.65079444193549" lon="9.142016666681718" id="-23351">
		<tag k="name" v="Minne" />
		<tag k="natural" v="strait" />
		<tag k="ssr:stedsnr" v="515088" />
	</node>
	<node lat="58.64203055795584" lon="9.050533331531224" id="-23369">
		<tag k="name" v="Apalvika" />
		<tag k="natural" v="bay" />
		<tag k="ssr:stedsnr" v="515479" />
	</node>
	<node lat="58.62955277393556" lon="9.142249996525095" id="-23375">
		<tag k="name" v="Langholmsund" />
		<tag k="natural" v="strait" />
		<tag k="ssr:stedsnr" v="515443" />
	</node>
	<node lat="58.62655000365377" lon="9.13520555231097" id="-23376">
		<tag k="name" v="Speksholmbukta" />
		<tag k="natural" v="bay" />
		<tag k="ssr:stedsnr" v="515444" />
	</node>
	<node lat="58.62381944824078" lon="9.054830557456603" id="-23377">
		<tag k="name" v="Asylbukta" />
		<tag k="natural" v="bay" />
		<tag k="ssr:stedsnr" v="515450" />
	</node>
	<node lat="58.63693611268021" lon="9.101616661259168" id="-23378">
		<tag k="name" v="Skibvika" />
		<tag k="natural" v="bay" />
		<tag k="ssr:stedsnr" v="515451" />
	</node>
	<node lat="58.595788891200854" lon="9.023608338463024" id="-23389">
		<tag k="name" v="Bjørnslappen" />
		<tag k="natural" v="cape" />
		<tag k="ssr:stedsnr" v="515684" />
	</node>
	<node lat="58.627497226000465" lon="9.108313889093296" id="-23411">
		<tag k="name" v="Bukkholmene" />
		<tag k="place" v="islet" />
		<tag k="ssr:stedsnr" v="543930" />
	</node>
	<node lat="58.611116664713734" lon="9.117747217408299" id="-23412">
		<tag k="name" v="Flatskjæra" />
		<tag k="place" v="islet" />
		<tag k="ssr:stedsnr" v="543937" />
	</node>
	<node lat="58.61123611168979" lon="9.093391671750226" id="-23430">
		<tag k="name" v="Bonden" />
		<tag k="place" v="islet" />
		<tag k="ssr:stedsnr" v="547361" />
	</node>
	<node lat="58.64085555878192" lon="9.133816673183638" id="-23440">
		<tag k="name" v="Gåsholmen" />
		<tag k="place" v="islet" />
		<tag k="ssr:stedsnr" v="573625" />
	</node>
	<node lat="58.64603333404478" lon="9.175616662465286" id="-23441">
		<tag k="name" v="Stangholmgrunnen" />
		<tag k="natural" v="shoal" />
		<tag k="place" v="locality" />
		<tag k="ssr:stedsnr" v="573626" />
	</node>
	<node lat="58.61366111178716" lon="8.938702778612711" id="-23442">
		<tag k="name" v="Bjørnvikhalsen" />
		<tag k="natural" v="cape" />
		<tag k="ssr:stedsnr" v="573731" />
	</node>
	<node lat="58.63991389172388" lon="9.155086118840286" id="-23472">
		<tag k="fixme" v="consider seamark:type=rock or natural=shoal" />
		<tag k="name" v="Lyngør Flateskjær" />
		<tag k="place" v="islet" />
		<tag k="ssr:stedsnr" v="575427" />
	</node>
	<node lat="58.629636109813625" lon="9.083947214164722" id="-23477">
		<tag k="name" v="Bogenes" />
		<tag k="natural" v="cape" />
		<tag k="ssr:stedsnr" v="575442" />
	</node>
	<node lat="58.61558333102239" lon="9.02233056160158" id="-23481">
		<tag k="name" v="Ålekarbukta" />
		<tag k="natural" v="bay" />
		<tag k="ssr:stedsnr" v="575533" />
	</node>
	<node lat="58.684805553255785" lon="9.069413883156203" id="-23489">
		<tag k="name" v="Heimkil" />
		<tag k="natural" v="bay" />
		<tag k="ssr:stedsnr" v="575382" />
	</node>
	<node lat="58.59371944727697" lon="8.99716666643027" id="-23500">
		<tag k="name" v="Reppersvika" />
		<tag k="natural" v="bay" />
		<tag k="ssr:stedsnr" v="575658" />
	</node>
	<node lat="58.56673610692745" lon="9.012238881678426" id="-23501">
		<tag k="name" v="Trollkolholmene" />
		<tag k="place" v="islet" />
		<tag k="ssr:stedsnr" v="575677" />
	</node>
	<node lat="58.60486666488727" lon="9.084066667778217" id="-23513">
		<tag k="name" v="Indre Fjordbåen" />
		<tag k="place" v="locality" />
		<tag k="seamark:type" v="rock" />
		<tag k="ssr:stedsnr" v="602925" />
	</node>
	<node lat="58.562858334789155" lon="9.029683328647993" id="-23514">
		<tag k="fixme" v="consider seamark:type=rock or natural=shoal" />
		<tag k="name" v="Indre Vestre Sandskjær" />
		<tag k="place" v="islet" />
		<tag k="ssr:stedsnr" v="606036" />
	</node>
	<node lat="58.63694722151033" lon="9.14311944154048" id="-23534">
		<tag k="name" v="Humleholmen" />
		<tag k="place" v="islet" />
		<tag k="ssr:stedsnr" v="634675" />
	</node>
	<node lat="58.62816666231823" lon="9.11437777056583" id="-23535">
		<tag k="name" v="Håkonsund" />
		<tag k="natural" v="strait" />
		<tag k="ssr:stedsnr" v="634684" />
	</node>
	<node lat="58.58563889199959" lon="9.08073334050827" id="-23536">
		<tag k="fixme" v="consider seamark:type=rock or natural=shoal" />
		<tag k="name" v="Svartskjær" />
		<tag k="place" v="islet" />
		<tag k="ssr:stedsnr" v="634697" />
	</node>
	<node lat="58.589183329832245" lon="9.068430551227813" id="-23558">
		<tag k="name" v="Brenteholmen" />
		<tag k="place" v="islet" />
		<tag k="ssr:stedsnr" v="636500" />
	</node>
	<node lat="58.59746666544897" lon="9.059680559626472" id="-23563">
		<tag k="fixme" v="consider seamark:type=rock or natural=shoal" />
		<tag k="name" v="Baskjærholmen" />
		<tag k="place" v="islet" />
		<tag k="ssr:stedsnr" v="636266" />
	</node>
	<node lat="58.627519440691" lon="9.115155555848341" id="-23573">
		<tag k="name" v="Øytangen" />
		<tag k="natural" v="cape" />
		<tag k="ssr:stedsnr" v="636441" />
	</node>
	<node lat="58.62585833249669" lon="9.104755557814885" id="-23574">
		<tag k="name" v="Bukkeholmene" />
		<tag k="place" v="islet" />
		<tag k="ssr:stedsnr" v="636443" />
	</node>
	<node lat="58.63297500085833" lon="9.140472216475196" id="-23575">
		<tag k="name" v="Myrbukta" />
		<tag k="natural" v="bay" />
		<tag k="ssr:stedsnr" v="636461" />
	</node>
	<node lat="58.615422223296704" lon="9.033030552976783" id="-23579">
		<tag k="name" v="Halskilen" />
		<tag k="natural" v="bay" />
		<tag k="ssr:stedsnr" v="636567" />
	</node>
	<node lat="58.59281111255996" lon="9.007844446550893" id="-23582">
		<tag k="name" v="Valholmen" />
		<tag k="place" v="islet" />
		<tag k="ssr:stedsnr" v="636702" />
	</node>
	<node lat="58.600763889464716" lon="8.961008332923505" id="-23593">
		<tag k="name" v="Hestøya" />
		<tag k="place" v="island" />
		<tag k="ssr:stedsnr" v="636660" />
	</node>
	<node lat="58.59268055316971" lon="8.949352772757914" id="-23594">
		<tag k="name" v="Holmen" />
		<tag k="natural" v="cape" />
		<tag k="ssr:stedsnr" v="636661" />
	</node>
	<node lat="58.602347221353156" lon="8.973144440597075" id="-23595">
		<tag k="name" v="Gullholmen" />
		<tag k="natural" v="cape" />
		<tag k="ssr:stedsnr" v="636667" />
	</node>
	<node lat="58.65332222324698" lon="9.177086116183037" id="-23607">
		<tag k="name" v="Snerte, l" />
		<tag k="place" v="islet" />
		<tag k="ssr:stedsnr" v="660419" />
	</node>
	<node lat="58.6041250039815" lon="9.014919450988552" id="-23610">
		<tag k="name" v="Gjesøysund" />
		<tag k="natural" v="strait" />
		<tag k="ssr:stedsnr" v="668343" />
=======
	</node>
	<node id="-524560" lat="58.6140083368" lon="8.94787776961">
		<tag k="name" v="Epleviktangen" />
		<tag k="natural" v="cape" />
		<tag k="ssr:stedsnr" v="331737" />
	</node>
	<node id="-524559" lat="58.5638722201" lon="9.03463611467">
		<tag k="fixme" v="multiple name tags, choose one and add the other to alt_name; consider seamark:type=rock or natural=shoal" />
		<tag k="name" v="Tårn-Sandskjær;Østre Sandskjær" />
		<tag k="place" v="islet" />
		<tag k="ssr:stedsnr" v="331734" />
	</node>
	<node id="-526606" lat="58.643749999" lon="9.16758054713">
		<tag k="name" v="Lille Stangholmen" />
		<tag k="place" v="locality" />
		<tag k="ssr:stedsnr" v="757084" />
	</node>
	<node id="-524544" lat="58.6064750008" lon="9.05908334183">
		<tag k="name" v="Lamholmen" />
		<tag k="place" v="islet" />
		<tag k="ssr:stedsnr" v="304309" />
	</node>
	<node id="-526591" lat="58.6007194482" lon="9.10566667106">
		<tag k="fixme" v="consider seamark:type=rock or natural=shoal" />
		<tag k="name" v="Skrubbeskjæra" />
		<tag k="place" v="islet" />
		<tag k="ssr:stedsnr" v="756684" />
	</node>
	<node id="-526590" lat="58.6265083315" lon="9.14719443934">
		<tag k="name" v="Mellombåen" />
		<tag k="place" v="locality" />
		<tag k="seamark:type" v="rock" />
		<tag k="ssr:stedsnr" v="756681" />
	</node>
	<node id="-526589" lat="58.5762527787" lon="8.99738610967">
		<tag k="name" v="Dyngeholmen" />
		<tag k="place" v="islet" />
		<tag k="ssr:stedsnr" v="756675" />
	</node>
	<node id="-524520" lat="58.6094138892" lon="9.02182221857">
		<tag k="name" v="Lestrandsholmen" />
		<tag k="place" v="islet" />
		<tag k="ssr:stedsnr" v="272509" />
	</node>
	<node id="-524518" lat="58.6119555545" lon="9.0051388881">
		<tag k="name" v="Berntsholmen" />
		<tag k="place" v="islet" />
		<tag k="ssr:stedsnr" v="272503" />
	</node>
	<node id="-524517" lat="58.5877055535" lon="9.06621111457">
		<tag k="name" v="Skauholmen" />
		<tag k="place" v="islet" />
		<tag k="ssr:stedsnr" v="272474" />
	</node>
	<node id="-526563" lat="58.570883332" lon="9.01867778588">
		<tag k="name" v="Hesnes" />
		<tag k="natural" v="cape" />
		<tag k="ssr:stedsnr" v="636728" />
	</node>
	<node id="-526562" lat="58.5683111142" lon="9.01763888447">
		<tag k="name" v="Bjorholmen" />
		<tag k="place" v="islet" />
		<tag k="ssr:stedsnr" v="636726" />
	</node>
	<node id="-526558" lat="58.5928111126" lon="9.00784444655">
		<tag k="name" v="Valholmen" />
		<tag k="place" v="islet" />
		<tag k="ssr:stedsnr" v="636702" />
	</node>
	<node id="-526550" lat="58.6258583325" lon="9.10475555781">
		<tag k="name" v="Bukkeholmene" />
		<tag k="place" v="islet" />
		<tag k="ssr:stedsnr" v="636443" />
	</node>
	<node id="-524665" lat="58.6207694445" lon="8.94446666014">
		<tag k="name" v="Bertesnes" />
		<tag k="natural" v="cape" />
		<tag k="ssr:stedsnr" v="393516" />
	</node>
	<node id="-526548" lat="58.6278638917" lon="9.13463610641">
		<tag k="name" v="Spekbukta" />
		<tag k="natural" v="bay" />
		<tag k="ssr:stedsnr" v="636432" />
	</node>
	<node id="-526547" lat="58.6104472195" lon="9.05593611206">
		<tag k="name" v="Hamdalsbukt" />
		<tag k="natural" v="bay" />
		<tag k="ssr:stedsnr" v="636426" />
	</node>
	<node id="-526545" lat="58.5837166632" lon="8.99803610786">
		<tag k="name" v="Kalvefjorden" />
		<tag k="natural" v="strait" />
		<tag k="ssr:stedsnr" v="636680" />
	</node>
	<node id="-524495" lat="58.6159722218" lon="9.13003889023">
		<tag k="fixme" v="consider seamark:type=rock or natural=shoal" />
		<tag k="name" v="Jeseskjær" />
		<tag k="place" v="islet" />
		<tag k="ssr:stedsnr" v="270667" />
	</node>
	<node id="-526542" lat="58.5926805532" lon="8.94935277276">
		<tag k="name" v="Holmen" />
		<tag k="natural" v="cape" />
		<tag k="ssr:stedsnr" v="636661" />
	</node>
	<node id="-526541" lat="58.6007638895" lon="8.96100833292">
		<tag k="name" v="Hestøya" />
		<tag k="place" v="island" />
		<tag k="ssr:stedsnr" v="636660" />
	</node>
	<node id="-526534" lat="58.5891833298" lon="9.06843055123">
		<tag k="name" v="Brenteholmen" />
		<tag k="place" v="islet" />
		<tag k="ssr:stedsnr" v="636500" />
	</node>
	<node id="-524479" lat="58.5647361134" lon="9.02144444971">
		<tag k="fixme" v="consider seamark:type=rock or natural=shoal" />
		<tag k="name" v="Skytterbenkene" />
		<tag k="place" v="islet" />
		<tag k="ssr:stedsnr" v="454739" />
	</node>
	<node id="-524475" lat="58.5774583373" lon="9.03422222304">
		<tag k="name" v="Kobbervika" />
		<tag k="natural" v="bay" />
		<tag k="ssr:stedsnr" v="454686" />
	</node>
	<node id="-524474" lat="58.579655553" lon="9.02016389536">
		<tag k="name" v="Svabukta" />
		<tag k="natural" v="bay" />
		<tag k="ssr:stedsnr" v="454683" />
	</node>
	<node id="-524473" lat="58.6094444412" lon="9.03254167523">
		<tag k="name" v="Eidsbukta" />
		<tag k="natural" v="bay" />
		<tag k="ssr:stedsnr" v="454574" />
	</node>
	<node id="-524462" lat="58.6445277757" lon="9.05408888891">
		<tag k="name" v="Fløtetangen" />
		<tag k="natural" v="cape" />
		<tag k="ssr:stedsnr" v="454496" />
	</node>
	<node id="-524461" lat="58.6409416649" lon="9.04874165908">
		<tag k="name" v="Buvika" />
		<tag k="natural" v="bay" />
		<tag k="ssr:stedsnr" v="454493" />
	</node>
	<node id="-526507" lat="58.585638892" lon="9.08073334051">
		<tag k="fixme" v="consider seamark:type=rock or natural=shoal" />
		<tag k="name" v="Svartskjær" />
		<tag k="place" v="islet" />
		<tag k="ssr:stedsnr" v="634697" />
	</node>
	<node id="-526506" lat="58.6281666623" lon="9.11437777057">
		<tag k="name" v="Håkonsund" />
		<tag k="natural" v="strait" />
		<tag k="ssr:stedsnr" v="634684" />
	</node>
	<node id="-524457" lat="58.6370694416" lon="9.10978055641">
		<tag k="name" v="Tøkersholmene" />
		<tag k="place" v="islet" />
		<tag k="ssr:stedsnr" v="454462" />
	</node>
	<node id="-524447" lat="58.626730557" lon="9.14130276972">
		<tag k="fixme" v="consider seamark:type=rock or natural=shoal" />
		<tag k="name" v="Sunniva - bråtene" />
		<tag k="place" v="islet" />
		<tag k="ssr:stedsnr" v="454448" />
	</node>
	<node id="-524444" lat="58.6010472241" lon="9.05366389104">
		<tag k="fixme" v="consider seamark:type=rock or natural=shoal" />
		<tag k="name" v="Småholmene" />
		<tag k="place" v="islet" />
		<tag k="ssr:stedsnr" v="454279" />
	</node>
	<node id="-526488" lat="58.6571222249" lon="9.14094445041">
		<tag k="name" v="Ytre Steinsundet" />
		<tag k="natural" v="strait" />
		<tag k="ssr:stedsnr" v="604925" />
	</node>
	<node id="-526486" lat="58.6048666649" lon="9.08406666778">
		<tag k="name" v="Indre Fjordbåen" />
		<tag k="place" v="locality" />
		<tag k="seamark:type" v="rock" />
		<tag k="ssr:stedsnr" v="602925" />
	</node>
	<node id="-524428" lat="58.6463638858" lon="9.13068333321">
		<tag k="name" v="Einarsvika" />
		<tag k="natural" v="bay" />
		<tag k="ssr:stedsnr" v="454055" />
	</node>
	<node id="-524424" lat="58.6139249968" lon="9.05587499947">
		<tag k="name" v="Jonsholmene" />
		<tag k="place" v="islet" />
		<tag k="ssr:stedsnr" v="452663" />
	</node>
	<node id="-526543" lat="58.6023472214" lon="8.9731444406">
		<tag k="name" v="Gullholmen" />
		<tag k="natural" v="cape" />
		<tag k="ssr:stedsnr" v="636667" />
	</node>
	<node id="-524417" lat="58.6249361155" lon="9.07428333812">
		<tag k="name" v="Engholmen" />
		<tag k="place" v="islet" />
		<tag k="ssr:stedsnr" v="244353" />
	</node>
	<node id="-526453" lat="58.566852782" lon="9.00817222017">
		<tag k="name" v="Sildodden" />
		<tag k="natural" v="cape" />
		<tag k="ssr:stedsnr" v="575694" />
	</node>
	<node id="-526451" lat="58.5667361069" lon="9.01223888168">
		<tag k="name" v="Trollkolholmene" />
		<tag k="place" v="islet" />
		<tag k="ssr:stedsnr" v="575677" />
	</node>
	<node id="-526448" lat="58.6296361098" lon="9.08394721416">
		<tag k="name" v="Bogenes" />
		<tag k="natural" v="cape" />
		<tag k="ssr:stedsnr" v="575442" />
	</node>
	<node id="-526443" lat="58.6399138917" lon="9.15508611884">
		<tag k="fixme" v="consider seamark:type=rock or natural=shoal" />
		<tag k="name" v="Lyngør Flateskjær" />
		<tag k="place" v="islet" />
		<tag k="ssr:stedsnr" v="575427" />
	</node>
	<node id="-526442" lat="58.6278916652" lon="9.11353889623">
		<tag k="name" v="Strømsund" />
		<tag k="natural" v="strait" />
		<tag k="ssr:stedsnr" v="575422" />
	</node>
	<node id="-526441" lat="58.6273944447" lon="9.12503332622">
		<tag k="name" v="Østpynten" />
		<tag k="natural" v="cape" />
		<tag k="ssr:stedsnr" v="575419" />
	</node>
	<node id="-526440" lat="58.6251138855" lon="9.12943333833">
		<tag k="name" v="Vestergap" />
		<tag k="natural" v="strait" />
		<tag k="ssr:stedsnr" v="575417" />
	</node>
	<node id="-526439" lat="58.6164944456" lon="9.10214999904">
		<tag k="name" v="Nautholmsund" />
		<tag k="natural" v="strait" />
		<tag k="ssr:stedsnr" v="575412" />
	</node>
	<node id="-526438" lat="58.6217527796" lon="9.0955666723">
		<tag k="name" v="Bjørnstangen" />
		<tag k="natural" v="cape" />
		<tag k="ssr:stedsnr" v="575404" />
	</node>
	<node id="-526433" lat="58.6848055533" lon="9.06941388316">
		<tag k="name" v="Heimkil" />
		<tag k="natural" v="bay" />
		<tag k="ssr:stedsnr" v="575382" />
	</node>
	<node id="-524358" lat="58.6329611117" lon="9.13758334083">
		<tag k="name" v="Sandbukta" />
		<tag k="natural" v="bay" />
		<tag k="ssr:stedsnr" v="150465" />
	</node>
	<node id="-524357" lat="58.6426194473" lon="9.12198888151">
		<tag k="name" v="Mannholmen" />
		<tag k="place" v="islet" />
		<tag k="ssr:stedsnr" v="150457" />
	</node>
	<node id="-524356" lat="58.6230111129" lon="9.07292499499">
		<tag k="name" v="Engholmen" />
		<tag k="natural" v="cape" />
		<tag k="ssr:stedsnr" v="150417" />
	</node>
	<node id="-524355" lat="58.6193027808" lon="9.05170000263">
		<tag k="name" v="Bastnesbukta" />
		<tag k="natural" v="bay" />
		<tag k="ssr:stedsnr" v="150414" />
	</node>
	<node id="-524353" lat="58.584638885" lon="9.06332499491">
		<tag k="fixme" v="consider seamark:type=rock or natural=shoal" />
		<tag k="name" v="Mauren" />
		<tag k="place" v="islet" />
		<tag k="ssr:stedsnr" v="150519" />
	</node>
	<node id="-526398" lat="58.6136611118" lon="8.93870277861">
		<tag k="name" v="Bjørnvikhalsen" />
		<tag k="natural" v="cape" />
		<tag k="ssr:stedsnr" v="573731" />
	</node>
	<node id="-526397" lat="58.5774138863" lon="9.06264445203">
		<tag k="fixme" v="consider seamark:type=rock or natural=shoal" />
		<tag k="name" v="Knubben" />
		<tag k="place" v="islet" />
		<tag k="ssr:stedsnr" v="573648" />
	</node>
	<node id="-526396" lat="58.5915277806" lon="9.09650555558">
		<tag k="name" v="Risholmgrunnen" />
		<tag k="natural" v="shoal" />
		<tag k="place" v="locality" />
		<tag k="ssr:stedsnr" v="573645" />
	</node>
	<node id="-526395" lat="58.646033334" lon="9.17561666247">
		<tag k="name" v="Stangholmgrunnen" />
		<tag k="natural" v="shoal" />
		<tag k="place" v="locality" />
		<tag k="ssr:stedsnr" v="573626" />
	</node>
	<node id="-526394" lat="58.6408555588" lon="9.13381667318">
		<tag k="name" v="Gåsholmen" />
		<tag k="place" v="islet" />
		<tag k="ssr:stedsnr" v="573625" />
	</node>
	<node id="-524338" lat="58.618038887" lon="9.12906388866">
		<tag k="fixme" v="consider seamark:type=rock or natural=shoal" />
		<tag k="name" v="Blysteinskjær" />
		<tag k="place" v="islet" />
		<tag k="ssr:stedsnr" v="149754" />
	</node>
	<node id="-524337" lat="58.5879583341" lon="9.09150833333">
		<tag k="name" v="Den grunne knatten" />
		<tag k="natural" v="shoal" />
		<tag k="place" v="locality" />
		<tag k="ssr:stedsnr" v="149753" />
	</node>
	<node id="-524336" lat="58.5689693191" lon="9.04803062051">
		<tag k="fixme" v="consider seamark:type=rock or natural=shoal" />
		<tag k="name" v="Svartskjær" />
		<tag k="place" v="islet" />
		<tag k="ssr:stedsnr" v="149666" />
	</node>
	<node id="-524335" lat="58.6049333366" lon="9.10256666226">
		<tag k="name" v="Ytre Fjordbåen" />
		<tag k="place" v="locality" />
		<tag k="seamark:type" v="rock" />
		<tag k="ssr:stedsnr" v="149652" />
	</node>
	<node id="-526378" lat="58.6112361117" lon="9.09339167175">
		<tag k="name" v="Bonden" />
		<tag k="place" v="islet" />
		<tag k="ssr:stedsnr" v="547361" />
	</node>
	<node id="-524318" lat="58.5956972179" lon="9.04105000068">
		<tag k="name" v="Barlindtangen" />
		<tag k="natural" v="cape" />
		<tag k="ssr:stedsnr" v="272632" />
	</node>
	<node id="-524317" lat="58.5742722202" lon="9.02157777337">
		<tag k="name" v="Gilleren" />
		<tag k="place" v="islet" />
		<tag k="ssr:stedsnr" v="272627" />
	</node>
	<node id="-526360" lat="58.6111166647" lon="9.11774721741">
		<tag k="name" v="Flatskjæra" />
		<tag k="place" v="islet" />
		<tag k="ssr:stedsnr" v="543937" />
	</node>
	<node id="-526359" lat="58.627497226" lon="9.10831388909">
		<tag k="name" v="Bukkholmene" />
		<tag k="place" v="islet" />
		<tag k="ssr:stedsnr" v="543930" />
	</node>
	<node id="-526339" lat="58.5688333358" lon="9.01289444767">
		<tag k="name" v="Utgårdsstranda" />
		<tag k="natural" v="beach" />
		<tag k="place" v="locality" />
		<tag k="ssr:stedsnr" v="422897" />
	</node>
	<node id="-526337" lat="58.5944944431" lon="9.08176944157">
		<tag k="name" v="Risholmene, ytre" />
		<tag k="place" v="islet" />
		<tag k="ssr:stedsnr" v="421938" />
>>>>>>> e1d4bc35ff8a6074a6f2e91616a996b547c36f15
	</node>
	<node lat="58.612019447949166" lon="9.116611110668295" id="-23613">
		<tag k="fixme" v="consider seamark:type=rock or natural=shoal" />
		<tag k="name" v="Flateskjæra" />
		<tag k="place" v="islet" />
		<tag k="ssr:stedsnr" v="668375" />
	</node>
</osm>
