<?xml version="1.0" encoding="UTF-8"?>
<osm version="0.6" generator="osmapis">
	<node lat="58.690330556188385" lon="8.972986105764521" id="-28367">
		<tag k="name" v="Stablestad" />
		<tag k="place" v="locality" />
		<tag k="ssr:stedsnr" v="211305" />
	</node>
	<node lat="58.64006110814293" lon="8.818255557649882" id="-28506">
		<tag k="name" v="Reiersbånn" />
		<tag k="place" v="locality" />
		<tag k="ssr:stedsnr" v="272012" />
	</node>
	<node lat="58.696016668547465" lon="8.968424999197442" id="-28517">
		<tag k="name" v="Plankestillinga" />
		<tag k="place" v="locality" />
		<tag k="ssr:stedsnr" v="272292" />
	</node>
	<node lat="58.672049996621325" lon="8.848455549720805" id="-28541">
		<tag k="name" v="Krestensbånn" />
		<tag k="place" v="locality" />
		<tag k="ssr:stedsnr" v="272808" />
	</node>
	<node lat="58.62817777449777" lon="8.824055552077425" id="-28568">
		<tag k="name" v="Torsbånn" />
		<tag k="place" v="locality" />
		<tag k="ssr:stedsnr" v="333008" />
	</node>
	<node lat="58.672261111141935" lon="8.953188884293455" id="-28590">
		<tag k="name" v="Petras" />
		<tag k="place" v="locality" />
		<tag k="ssr:stedsnr" v="333566" />
	</node>
	<node lat="58.62600832995818" lon="9.13788889558946" id="-28596">
		<tag k="name" v="Ytre Speken" />
		<tag k="place" v="locality" />
		<tag k="ssr:stedsnr" v="333461" />
	</node>
	<node lat="58.61237221988086" lon="8.86749999689207" id="-28606">
		<tag k="name" v="Holtsmyra" />
		<tag k="ssr:stedsnr" v="333914" />
		<tag k="tourism" v="museum" />
	</node>
	<node lat="58.64953611105697" lon="8.84894999351818" id="-28608">
		<tag k="name" v="Tinghaugen" />
		<tag k="place" v="locality" />
		<tag k="ssr:stedsnr" v="333946" />
	</node>
	<node lat="58.64607500445246" lon="8.891624997816344" id="-28621">
		<tag k="name" v="Spranget" />
		<tag k="place" v="locality" />
		<tag k="ssr:stedsnr" v="333858" />
	</node>
	<node lat="58.64142222433549" lon="8.830355559959795" id="-28679">
		<tag k="name" v="Plankestillinga" />
		<tag k="place" v="locality" />
		<tag k="ssr:stedsnr" v="393918" />
	</node>
	<node lat="58.595225001797566" lon="8.801952778832318" id="-28733">
		<tag k="name" v="Fleskomkjeft" />
		<tag k="place" v="locality" />
		<tag k="ssr:stedsnr" v="272061" />
	</node>
	<node lat="58.65714166305276" lon="8.941727773078703" id="-28830">
		<tag k="name" v="Leggeren" />
		<tag k="place" v="locality" />
		<tag k="ssr:stedsnr" v="515376" />
	</node>
	<node lat="58.662558335394266" lon="8.876324992690977" id="-28854">
		<tag k="name" v="Ospestokken" />
		<tag k="place" v="locality" />
		<tag k="ssr:stedsnr" v="515964" />
	</node>
	<node lat="58.586508329908625" lon="9.01458611639905" id="-28865">
		<tag k="name" v="Bjørka" />
		<tag k="place" v="locality" />
		<tag k="ssr:stedsnr" v="573653" />
	</node>
	<node lat="58.65685832954739" lon="9.098480562902527" id="-28952">
		<tag k="name" v="Ørnenebbet" />
		<tag k="place" v="locality" />
		<tag k="ssr:stedsnr" v="697142" />
	</node>
	<node lat="58.68002799745152" lon="9.06291090083471" id="-29035">
		<tag k="alt_name" v="Laget" />
		<tag k="amenity" v="place_of_worship" />
		<tag k="denomination" v="lutheran" />
		<tag k="name" v="Laget kirke" />
		<tag k="religion" v="christian" />
		<tag k="ssr:stedsnr" v="607450" />
	</node>
	<node lat="58.68102777356338" lon="9.012238895719898" id="-29069">
		<tag k="name" v="Kollbotn" />
		<tag k="place" v="locality" />
		<tag k="ssr:stedsnr" v="636630" />
	</node>
	<node lat="58.64941666327694" lon="8.923683334550994" id="-29081">
		<tag k="name" v="Kvitta" />
		<tag k="place" v="locality" />
		<tag k="ssr:stedsnr" v="636777" />
	</node>
	<node lat="58.580347217941245" lon="8.895944449473655" id="-29114">
		<tag k="name" v="Stølebunnen" />
		<tag k="place" v="locality" />
		<tag k="ssr:stedsnr" v="697109" />
	</node>
	<node lat="58.59414444327008" lon="8.917063895144235" id="-29153">
		<tag k="name" v="Bustølen" />
		<tag k="place" v="locality" />
		<tag k="ssr:stedsnr" v="697904" />
	</node>
	<node lat="58.670302774982055" lon="8.847066673763594" id="-29296">
		<tag k="name" v="Stauebånnen" />
		<tag k="place" v="locality" />
		<tag k="ssr:stedsnr" v="879819" />
	</node>
	<node lat="58.61868888732496" lon="8.798113896139474" id="-29474">
		<tag k="name" v="Lindland skole" />
		<tag k="place" v="locality" />
		<tag k="ssr:stedsnr" v="90045" />
	</node>
	<node lat="58.65040000398013" lon="8.856127784438122" id="-29488">
		<tag k="amenity" v="community_centre" />
		<tag k="name" v="Ausel skole" />
		<tag k="ssr:stedsnr" v="90955" />
	</node>
	<node lat="58.62886667085717" lon="8.855313893917028" id="-29548">
		<tag k="name" v="Nes jernverk" />
		<tag k="ssr:stedsnr" v="122378" />
		<tag k="tourism" v="museum" />
	</node>
	<node lat="58.697872218304695" lon="9.001586115471634" id="-29573">
		<tag k="name" v="Kolbotn" />
		<tag k="place" v="locality" />
		<tag k="ssr:stedsnr" v="150301" />
	</node>
	<node lat="58.62631518583818" lon="9.05227388689522" id="-29650">
		<tag k="alt_name" v="Dypvåg" />
		<tag k="amenity" v="place_of_worship" />
		<tag k="denomination" v="lutheran" />
		<tag k="name" v="Dypvåg kirke" />
		<tag k="religion" v="christian" />
		<tag k="ssr:stedsnr" v="183322" />
	</node>
	<node lat="58.606930120841135" lon="8.870541218509727" id="-29747">
		<tag k="alt_name" v="Holt" />
		<tag k="amenity" v="place_of_worship" />
		<tag k="denomination" v="lutheran" />
		<tag k="name" v="Holt kirke" />
		<tag k="religion" v="christian" />
		<tag k="ssr:stedsnr" v="304336" />
	</node>
	<node lat="58.62782777547927" lon="8.87999166229726" id="-29831">
		<tag k="name" v="Kolbonnen" />
		<tag k="place" v="locality" />
		<tag k="ssr:stedsnr" v="333944" />
	</node>
	<node lat="58.67932221907738" lon="8.879538887179288" id="-29959">
		<tag k="name" v="Inkjevetta" />
		<tag k="place" v="locality" />
		<tag k="ssr:stedsnr" v="515831" />
	</node>
	<node lat="58.69350833782402" lon="9.027658325189016" id="-29994">
		<tag k="name" v="Spasservollen" />
		<tag k="place" v="locality" />
		<tag k="ssr:stedsnr" v="515282" />
	</node>
	<node lat="58.61066666704433" lon="8.968294442079495" id="-30005">
		<tag k="name" v="Bekkevoll" />
		<tag k="place" v="locality" />
		<tag k="ssr:stedsnr" v="515509" />
	</node>
	<node lat="58.61626666547438" lon="8.849758333643893" id="-30036">
		<tag k="name" v="Bilitt" />
		<tag k="place" v="locality" />
		<tag k="ssr:stedsnr" v="515925" />
	</node>
	<node lat="58.60431944751183" lon="8.929469450354778" id="-30225">
		<tag k="name" v="Sommerstø" />
		<tag k="place" v="locality" />
		<tag k="ssr:stedsnr" v="636659" />
	</node>
	<node lat="58.68969444454324" lon="9.01640832612931" id="-30271">
		<tag k="amenity" v="community_centre" />
		<tag k="name" v="Stea" />
		<tag k="ssr:stedsnr" v="729465" />
	</node>
	<node lat="58.62332499950714" lon="8.904944441403744" id="-30322">
		<tag k="name" v="Kolbonnen" />
		<tag k="place" v="locality" />
		<tag k="ssr:stedsnr" v="757629" />
	</node>
	<node lat="58.59960555668601" lon="9.062741662010332" id="-30371">
		<tag k="name" v="Vabua" />
		<tag k="place" v="locality" />
		<tag k="ssr:stedsnr" v="818277" />
	</node>
	<node lat="58.65548333508093" lon="8.940494452516035" id="-30376">
		<tag k="name" v="Kvia" />
		<tag k="place" v="locality" />
		<tag k="ssr:stedsnr" v="818376" />
	</node>
	<node lat="58.56926111321751" lon="8.895411115179849" id="-30384">
		<tag k="amenity" v="community_centre" />
		<tag k="name" v="Kvastad grendehus" />
		<tag k="ssr:stedsnr" v="818075" />
	</node>
	<node lat="58.67839167115953" lon="8.86916666380635" id="-30435">
		<tag k="name" v="Stableplassen" />
		<tag k="place" v="locality" />
		<tag k="ssr:stedsnr" v="818827" />
	</node>
	<node lat="58.62954166830072" lon="9.137100001412767" id="-30625">
		<tag k="name" v="Indre Spekene" />
		<tag k="place" v="locality" />
		<tag k="ssr:stedsnr" v="940420" />
	</node>
	<node lat="58.68292500112561" lon="8.98915277361637" id="-30632">
		<tag k="name" v="Gjennstøa" />
		<tag k="place" v="locality" />
		<tag k="ssr:stedsnr" v="940519" />
	</node>
</osm>
