<?xml version="1.0" encoding="UTF-8"?>
<osm generator="osmapis" version="0.6">
	<node id="-518135" lat="58.6619194451" lon="8.86781111165">
		<tag k="name" v="Stea" />
		<tag k="place" v="locality" />
		<tag k="ssr:stedsnr" v="333973" />
	</node>
	<node id="-518131" lat="58.6449694419" lon="9.02532499639">
		<tag k="name" v="Hontjennmyra" />
		<tag k="natural" v="wetland" />
		<tag k="ssr:stedsnr" v="333738" />
	</node>
	<node id="-518130" lat="58.6316499964" lon="8.94320555779">
		<tag k="name" v="Klingermyr" />
		<tag k="place" v="locality" />
		<tag k="ssr:stedsnr" v="333733" />
	</node>
	<node id="-518129" lat="58.5994194403" lon="8.90131388293">
		<tag k="name" v="Mørkekjerr" />
		<tag k="natural" v="wetland" />
		<tag k="ssr:stedsnr" v="333892" />
	</node>
	<node id="-518128" lat="58.6296083374" lon="8.91930555182">
		<tag k="name" v="Langmari" />
		<tag k="natural" v="wetland" />
		<tag k="ssr:stedsnr" v="333873" />
	</node>
	<node id="-518101" lat="58.6534861073" lon="8.98527500653">
		<tag k="name" v="Bjørnkjerr" />
		<tag k="natural" v="wetland" />
		<tag k="ssr:stedsnr" v="333391" />
	</node>
	<node id="-518093" lat="58.6219499966" lon="9.04829166579">
		<tag k="name" v="Prestekjerr" />
		<tag k="natural" v="wetland" />
		<tag k="ssr:stedsnr" v="333469" />
	</node>
	<node id="-518086" lat="58.6514305548" lon="8.94514722708">
		<tag k="name" v="Teglvollen" />
		<tag k="place" v="locality" />
		<tag k="ssr:stedsnr" v="333378" />
	</node>
	<node id="-518083" lat="58.6978833375" lon="8.96912221756">
		<tag k="name" v="Myrunderkleiv" />
		<tag k="natural" v="wetland" />
		<tag k="ssr:stedsnr" v="333336" />
	</node>
	<node id="-518082" lat="58.6981000027" lon="8.97521943876">
		<tag k="name" v="Karpusa" />
		<tag k="natural" v="stone" />
		<tag k="ssr:stedsnr" v="333333" />
	</node>
	<node id="-518081" lat="58.6955166639" lon="8.99336945193">
		<tag k="name" v="Det runde kjerret" />
		<tag k="natural" v="wetland" />
		<tag k="ssr:stedsnr" v="333323" />
	</node>
	<node id="-518079" lat="58.6894888904" lon="9.00138333234">
		<tag k="name" v="Lindhagen" />
		<tag k="place" v="locality" />
		<tag k="ssr:stedsnr" v="333309" />
	</node>
	<node id="-518077" lat="58.6907833332" lon="9.06793889317">
		<tag k="alt_name" v="Trandlebrukjerr" />
		<tag k="name" v="Trandlebukjerr" />
		<tag k="natural" v="wetland" />
		<tag k="ssr:stedsnr" v="333098" />
	</node>
	<node id="-518076" lat="58.5724694447" lon="8.90336666829">
		<tag k="name" v="Alvekjerr" />
		<tag k="natural" v="wetland" />
		<tag k="ssr:stedsnr" v="333096" />
	</node>
	<node id="-518074" lat="58.688861114" lon="9.04840555162">
		<tag k="name" v="Grankjerr" />
		<tag k="natural" v="wetland" />
		<tag k="ssr:stedsnr" v="333090" />
	</node>
	<node id="-516425" lat="58.6422694422" lon="9.09964723033">
		<tag k="name" v="Skulpekjær" />
		<tag k="natural" v="wetland" />
		<tag k="ssr:stedsnr" v="272472" />
	</node>
	<node id="-518067" lat="58.623116666" lon="8.79213611019">
		<tag k="name" v="Snømyr" />
		<tag k="natural" v="wetland" />
		<tag k="ssr:stedsnr" v="333044" />
	</node>
	<node id="-518061" lat="58.6896777774" lon="8.95954999669">
		<tag k="name" v="Saumyra" />
		<tag k="natural" v="wetland" />
		<tag k="ssr:stedsnr" v="333033" />
	</node>
	<node id="-518019" lat="58.6607666708" lon="9.08986666242">
		<tag k="name" v="Fåmyr" />
		<tag k="natural" v="wetland" />
		<tag k="ssr:stedsnr" v="212101" />
	</node>
	<node id="-518018" lat="58.6604472266" lon="9.0944999914">
		<tag k="name" v="Hestehagen" />
		<tag k="place" v="locality" />
		<tag k="ssr:stedsnr" v="212099" />
	</node>
	<node id="-518011" lat="58.6352583291" lon="8.84123611791">
		<tag k="name" v="Snøkjerr" />
		<tag k="natural" v="wetland" />
		<tag k="ssr:stedsnr" v="211933" />
	</node>
	<node id="-518008" lat="58.6844694423" lon="8.91155833352">
		<tag k="name" v="Skjerkholtmyra" />
		<tag k="natural" v="wetland" />
		<tag k="old_name" v="Skjerrkholtmyra" />
		<tag k="ssr:stedsnr" v="211798" />
	</node>
	<node id="-518005" lat="58.6788249981" lon="8.92339445108">
		<tag k="name" v="Bjørnmyra" />
		<tag k="natural" v="wetland" />
		<tag k="ssr:stedsnr" v="211785" />
	</node>
	<node id="-517993" lat="58.6337861071" lon="8.94731110254">
		<tag k="name" v="Risbukjerrene" />
		<tag k="natural" v="wetland" />
		<tag k="ssr:stedsnr" v="211682" />
	</node>
	<node id="-517986" lat="58.6075166688" lon="8.91379167259">
		<tag k="name" v="Kloppemyra" />
		<tag k="natural" v="wetland" />
		<tag k="ssr:stedsnr" v="211653" />
	</node>
	<node id="-517985" lat="58.623283334" lon="8.89941389065">
		<tag k="name" v="Langkjerr" />
		<tag k="natural" v="wetland" />
		<tag k="ssr:stedsnr" v="211646" />
	</node>
	<node id="-517975" lat="58.6814944442" lon="8.98056389537">
		<tag k="name" v="Balttjennhovet" />
		<tag k="place" v="locality" />
		<tag k="ssr:stedsnr" v="211590" />
	</node>
	<node id="-517972" lat="58.6176555588" lon="9.00660278232">
		<tag k="name" v="Vroldsmyr" />
		<tag k="natural" v="wetland" />
		<tag k="ssr:stedsnr" v="211568" />
	</node>
	<node id="-517968" lat="58.6075583291" lon="9.00061110388">
		<tag k="name" v="Bronen" />
		<tag k="place" v="locality" />
		<tag k="ssr:stedsnr" v="211555" />
	</node>
	<node id="-517967" lat="58.68374444" lon="8.98868054902">
		<tag k="name" v="Porskjær" />
		<tag k="natural" v="wetland" />
		<tag k="ssr:stedsnr" v="211552" />
	</node>
	<node id="-517965" lat="58.6299944426" lon="9.00450832496">
		<tag k="name" v="Lyerbakkjærret" />
		<tag k="natural" v="wetland" />
		<tag k="ssr:stedsnr" v="211548" />
	</node>
	<node id="-517963" lat="58.6645555526" lon="8.95625832825">
		<tag k="name" v="Snøkjerr" />
		<tag k="natural" v="wetland" />
		<tag k="ssr:stedsnr" v="211394" />
	</node>
	<node id="-517958" lat="58.6892833363" lon="8.95497221755">
		<tag k="name" v="Trandlekjerr" />
		<tag k="natural" v="wetland" />
		<tag k="ssr:stedsnr" v="211300" />
	</node>
	<node id="-517956" lat="58.6552333355" lon="8.98920277937">
		<tag k="name" v="Varslemyr" />
		<tag k="natural" v="wetland" />
		<tag k="ssr:stedsnr" v="211376" />
	</node>
	<node id="-517949" lat="58.652391665" lon="9.0026138932">
		<tag k="name" v="Vallesteinen" />
		<tag k="natural" v="stone" />
		<tag k="ssr:stedsnr" v="211329" />
	</node>
	<node id="-517947" lat="58.6987166679" lon="8.98444444869">
		<tag k="name" v="Linduken" />
		<tag k="place" v="locality" />
		<tag k="ssr:stedsnr" v="211311" />
	</node>
	<node id="-517943" lat="58.5658472178" lon="8.9018888921">
		<tag k="name" v="Trefsdalen" />
		<tag k="natural" v="wetland" />
		<tag k="ssr:stedsnr" v="211096" />
	</node>
	<node id="-517934" lat="58.6183305563" lon="8.76619165932">
		<tag k="name" v="Skollmyr" />
		<tag k="natural" v="wetland" />
		<tag k="ssr:stedsnr" v="211057" />
	</node>
	<node id="-517933" lat="58.6229416703" lon="8.760372223">
		<tag k="name" v="Stigersmyr" />
		<tag k="natural" v="wetland" />
		<tag k="ssr:stedsnr" v="211055" />
	</node>
	<node id="-517882" lat="58.6529444444" lon="8.87542221525">
		<tag k="name" v="Stormyr" />
		<tag k="natural" v="wetland" />
		<tag k="ssr:stedsnr" v="150961" />
	</node>
	<node id="-517881" lat="58.6515833363" lon="8.86168611269">
		<tag k="name" v="Svartkjerr" />
		<tag k="natural" v="wetland" />
		<tag k="ssr:stedsnr" v="150954" />
	</node>
	<node id="-517878" lat="58.6062722261" lon="8.85010278604">
		<tag k="name" v="Byttingsmyr" />
		<tag k="natural" v="wetland" />
		<tag k="ssr:stedsnr" v="150914" />
	</node>
	<node id="-517877" lat="58.606197226" lon="8.86598888954">
		<tag k="name" v="Kyrekjerr" />
		<tag k="natural" v="wetland" />
		<tag k="ssr:stedsnr" v="150911" />
	</node>
	<node id="-517874" lat="58.6182527752" lon="8.84685555892">
		<tag k="name" v="Kattjennmyra" />
		<tag k="natural" v="wetland" />
		<tag k="ssr:stedsnr" v="150891" />
	</node>
	<node id="-517871" lat="58.5930138881" lon="8.88593611811">
		<tag k="name" v="Byttingsmyr" />
		<tag k="natural" v="wetland" />
		<tag k="ssr:stedsnr" v="150883" />
	</node>
	<node id="-517867" lat="58.6832666622" lon="8.9197805598">
		<tag k="name" v="Øvre Ura" />
		<tag k="natural" v="scree" />
		<tag k="ssr:stedsnr" v="150772" />
	</node>
	<node id="-517864" lat="58.6763305527" lon="8.92383611325">
		<tag k="name" v="Klokkermyra" />
		<tag k="natural" v="wetland" />
		<tag k="ssr:stedsnr" v="150764" />
	</node>
	<node id="-517863" lat="58.6812111105" lon="8.92233888214">
		<tag k="name" v="Venemyr" />
		<tag k="natural" v="wetland" />
		<tag k="ssr:stedsnr" v="150760" />
	</node>
	<node id="-517850" lat="58.6732444473" lon="8.87833056166">
		<tag k="name" v="Nordmyra" />
		<tag k="natural" v="wetland" />
		<tag k="ssr:stedsnr" v="150838" />
	</node>
	<node id="-517848" lat="58.6846555528" lon="9.02614445022">
		<tag k="name" v="Storfjellmyra" />
		<tag k="natural" v="wetland" />
		<tag k="ssr:stedsnr" v="150601" />
	</node>
	<node id="-517847" lat="58.6788749997" lon="8.9509888836">
		<tag k="name" v="Moltekjerr" />
		<tag k="natural" v="wetland" />
		<tag k="ssr:stedsnr" v="150577" />
	</node>
	<node id="-518435" lat="58.6912166675" lon="8.96983889475">
		<tag k="name" v="Stormyr" />
		<tag k="natural" v="wetland" />
		<tag k="ssr:stedsnr" v="636300" />
	</node>
	<node id="-517822" lat="58.6556499993" lon="9.02240833242">
		<tag k="name" v="Kjota" />
		<tag k="natural" v="wetland" />
		<tag k="ssr:stedsnr" v="150340" />
	</node>
	<node id="-517819" lat="58.6592805581" lon="8.97455555098">
		<tag k="name" v="Engelandsmyra" />
		<tag k="place" v="locality" />
		<tag k="ssr:stedsnr" v="150376" />
	</node>
	<node id="-517816" lat="58.6915500025" lon="9.04315554912">
		<tag k="name" v="Kykklingsmyr" />
		<tag k="natural" v="wetland" />
		<tag k="ssr:stedsnr" v="150284" />
	</node>
	<node id="-517805" lat="58.5752916687" lon="8.87159166904">
		<tag k="name" v="Småmyrene" />
		<tag k="natural" v="wetland" />
		<tag k="ssr:stedsnr" v="150096" />
	</node>
	<node id="-517769" lat="58.6866388881" lon="8.91218888889">
		<tag k="name" v="Lyth Ørum" />
		<tag k="natural" v="stone" />
		<tag k="ssr:stedsnr" v="92077" />
	</node>
	<node id="-517768" lat="58.6615361135" lon="8.90994444238">
		<tag k="name" v="Fåmyr" />
		<tag k="natural" v="wetland" />
		<tag k="ssr:stedsnr" v="90992" />
	</node>
	<node id="-517753" lat="58.5835722238" lon="8.89963334073">
		<tag k="name" v="Himmelkjerret" />
		<tag k="natural" v="wetland" />
		<tag k="ssr:stedsnr" v="90889" />
	</node>
	<node id="-517752" lat="58.5929472211" lon="8.88359166536">
		<tag k="name" v="Loftsmyr" />
		<tag k="natural" v="wetland" />
		<tag k="ssr:stedsnr" v="90888" />
	</node>
	<node id="-517749" lat="58.5821416636" lon="8.86540833951">
		<tag k="name" v="Striggelsmyr" />
		<tag k="natural" v="wetland" />
		<tag k="ssr:stedsnr" v="90867" />
	</node>
	<node id="-517748" lat="58.5842361091" lon="8.85972222379">
		<tag k="name" v="Svartkjerr" />
		<tag k="natural" v="wetland" />
		<tag k="ssr:stedsnr" v="90866" />
	</node>
	<node id="-517744" lat="58.6884416639" lon="8.87498889544">
		<tag k="name" v="Lyngkjerr" />
		<tag k="natural" v="wetland" />
		<tag k="ssr:stedsnr" v="90813" />
	</node>
	<node id="-517742" lat="58.6799083316" lon="8.88530000274">
		<tag k="name" v="Bjørkesteene" />
		<tag k="natural" v="wetland" />
		<tag k="ssr:stedsnr" v="90787" />
	</node>
	<node id="-517738" lat="58.6565527743" lon="8.924638883">
		<tag k="name" v="Langekjerr" />
		<tag k="place" v="locality" />
		<tag k="ssr:stedsnr" v="90746" />
	</node>
	<node id="-517736" lat="58.6424722214" lon="8.99741666888">
		<tag k="name" v="Kringlemyr" />
		<tag k="natural" v="wetland" />
		<tag k="ssr:stedsnr" v="90725" />
	</node>
	<node id="-517730" lat="58.6857055564" lon="8.9718833275">
		<tag k="name" v="Ulekjerra" />
		<tag k="natural" v="wetland" />
		<tag k="ssr:stedsnr" v="90590" />
	</node>
	<node id="-517729" lat="58.6803777788" lon="8.94708334193">
		<tag k="name" v="Langmyr" />
		<tag k="natural" v="wetland" />
		<tag k="ssr:stedsnr" v="90580" />
	</node>
	<node id="-517727" lat="58.6738249997" lon="8.95089721801">
		<tag k="name" v="Hulmyr" />
		<tag k="natural" v="wetland" />
		<tag k="ssr:stedsnr" v="90567" />
	</node>
	<node id="-517719" lat="58.6082583302" lon="8.98858332623">
		<tag k="name" v="Kuhagen" />
		<tag k="place" v="locality" />
		<tag k="ssr:stedsnr" v="90496" />
	</node>
	<node id="-517717" lat="58.6393444454" lon="9.09436389569">
		<tag k="name" v="Rundmyr" />
		<tag k="natural" v="wetland" />
		<tag k="ssr:stedsnr" v="90474" />
	</node>
	<node id="-517709" lat="58.6471194422" lon="8.97850278265">
		<tag k="name" v="Sjølvskottmyra" />
		<tag k="natural" v="wetland" />
		<tag k="ssr:stedsnr" v="90340" />
	</node>
	<node id="-517701" lat="58.6519416705" lon="9.00279166095">
		<tag k="name" v="Røysa" />
		<tag k="natural" v="stone" />
		<tag k="ssr:stedsnr" v="90293" />
	</node>
	<node id="-517698" lat="58.6919944427" lon="8.95062499675">
		<tag k="name" v="Songe-Jutemyr" />
		<tag k="natural" v="wetland" />
		<tag k="ssr:stedsnr" v="90280" />
	</node>
	<node id="-517696" lat="58.6895194403" lon="8.96517221797">
		<tag k="name" v="Skarkkjerr" />
		<tag k="natural" v="wetland" />
		<tag k="ssr:stedsnr" v="90268" />
	</node>
	<node id="-517694" lat="58.6916999966" lon="9.01105000433">
		<tag k="name" v="Allmannkjerr" />
		<tag k="place" v="locality" />
		<tag k="ssr:stedsnr" v="90256" />
	</node>
	<node id="-517689" lat="58.5597666683" lon="8.92073332971">
		<tag k="name" v="Store Dyremyr" />
		<tag k="natural" v="wetland" />
		<tag k="ssr:stedsnr" v="90101" />
	</node>
	<node id="-517686" lat="58.5780666663" lon="8.8997666666">
		<tag k="name" v="Tjennbunnen" />
		<tag k="natural" v="wetland" />
		<tag k="ssr:stedsnr" v="90090" />
	</node>
	<node id="-517683" lat="58.5715361141" lon="8.89717500294">
		<tag k="name" v="Hestehagen" />
		<tag k="place" v="locality" />
		<tag k="ssr:stedsnr" v="90087" />
	</node>
	<node id="-517675" lat="58.6957833306" lon="9.061658338">
		<tag k="name" v="Stordalsmyra" />
		<tag k="natural" v="wetland" />
		<tag k="ssr:stedsnr" v="90063" />
	</node>
	<node id="-517661" lat="58.6446833314" lon="8.98039721853">
		<tag k="name" v="Skrubbekjerr" />
		<tag k="natural" v="wetland" />
		<tag k="ssr:stedsnr" v="90688" />
	</node>
	<node id="-517659" lat="58.6348305538" lon="8.94808611336">
		<tag k="name" v="Plankedalstykket" />
		<tag k="place" v="locality" />
		<tag k="ssr:stedsnr" v="90671" />
	</node>
	<node id="-517651" lat="58.6362194472" lon="8.96115833025">
		<tag k="alt_name" v="Steene" />
		<tag k="name" v="Steine" />
		<tag k="natural" v="wetland" />
		<tag k="ssr:stedsnr" v="62360" />
	</node>
	<node id="-517626" lat="58.6827694459" lon="8.85047499865">
		<tag k="name" v="Lyngmyr" />
		<tag k="natural" v="wetland" />
		<tag k="ssr:stedsnr" v="31042" />
	</node>
	<node id="-517623" lat="58.6649277768" lon="8.86008055502">
		<tag k="name" v="Øygardsmyra" />
		<tag k="natural" v="wetland" />
		<tag k="ssr:stedsnr" v="29989" />
	</node>
	<node id="-517621" lat="58.6571416657" lon="8.8571944464">
		<tag k="name" v="Kjøkletjenn" />
		<tag k="natural" v="wetland" />
		<tag k="ssr:stedsnr" v="29976" />
	</node>
	<node id="-517620" lat="58.6561861155" lon="8.87770833634">
		<tag k="name" v="Folekjerra" />
		<tag k="natural" v="wetland" />
		<tag k="ssr:stedsnr" v="29974" />
	</node>
	<node id="-517618" lat="58.6504916668" lon="8.85976665837">
		<tag k="name" v="Øvernesmyra" />
		<tag k="natural" v="wetland" />
		<tag k="ssr:stedsnr" v="29960" />
	</node>
	<node id="-517616" lat="58.6470333293" lon="8.86886388277">
		<tag k="name" v="Svenskedalsstea" />
		<tag k="natural" v="wetland" />
		<tag k="ssr:stedsnr" v="29953" />
	</node>
	<node id="-517612" lat="58.6079750032" lon="8.86318332667">
		<tag k="landuse" v="quarry" />
		<tag k="name" v="Holtsgruva" />
		<tag k="ssr:stedsnr" v="29911" />
	</node>
	<node id="-517605" lat="58.5953111139" lon="8.89748610374">
		<tag k="name" v="Vålevannsmyra" />
		<tag k="natural" v="wetland" />
		<tag k="ssr:stedsnr" v="29869" />
	</node>
	<node id="-517593" lat="58.6740333315" lon="8.87124722328">
		<tag k="name" v="Åskjerr" />
		<tag k="natural" v="wetland" />
		<tag k="ssr:stedsnr" v="29808" />
	</node>
	<node id="-517589" lat="58.6591916701" lon="8.89300833451">
		<tag k="name" v="Luskjerr" />
		<tag k="natural" v="wetland" />
		<tag k="ssr:stedsnr" v="29760" />
	</node>
	<node id="-517588" lat="58.6278222195" lon="8.98306666251">
		<tag k="name" v="Orene" />
		<tag k="place" v="locality" />
		<tag k="ssr:stedsnr" v="29757" />
	</node>
	<node id="-517585" lat="58.6309111102" lon="8.9673500002">
		<tag k="name" v="Skrubbekjerr" />
		<tag k="natural" v="wetland" />
		<tag k="ssr:stedsnr" v="29707" />
	</node>
	<node id="-517582" lat="58.6407722256" lon="8.96580555729">
		<tag k="name" v="Blautmyr" />
		<tag k="natural" v="wetland" />
		<tag k="ssr:stedsnr" v="29702" />
	</node>
	<node id="-517574" lat="58.6862777811" lon="8.93783611019">
		<tag k="name" v="Blautmyr" />
		<tag k="natural" v="wetland" />
		<tag k="ssr:stedsnr" v="29549" />
	</node>
	<node id="-517573" lat="58.6309555515" lon="8.99256110342">
		<tag k="name" v="Hjuringsteinen" />
		<tag k="natural" v="stone" />
		<tag k="ssr:stedsnr" v="29542" />
	</node>
	<node id="-517572" lat="58.6285138928" lon="9.01567499984">
		<tag k="name" v="Hoppelkjærr" />
		<tag k="natural" v="wetland" />
		<tag k="ssr:stedsnr" v="29538" />
	</node>
	<node id="-517571" lat="58.6251555551" lon="9.01404444383">
		<tag k="name" v="Vestermyr" />
		<tag k="natural" v="wetland" />
		<tag k="ssr:stedsnr" v="29534" />
	</node>
	<node id="-517570" lat="58.6089138851" lon="8.98431666506">
		<tag k="name" v="Rødningen" />
		<tag k="place" v="locality" />
		<tag k="ssr:stedsnr" v="29529" />
	</node>
	<node id="-517569" lat="58.6149055576" lon="8.96823333339">
		<tag k="name" v="Lille Stuåsmyr" />
		<tag k="natural" v="wetland" />
		<tag k="ssr:stedsnr" v="29527" />
	</node>
	<node id="-517566" lat="58.6357166636" lon="9.04970277434">
		<tag k="name" v="Bjørnura" />
		<tag k="natural" v="scree" />
		<tag k="ssr:stedsnr" v="29504" />
	</node>
	<node id="-517564" lat="58.6249055595" lon="9.05359444749">
		<tag k="name" v="Prestekjærr" />
		<tag k="natural" v="wetland" />
		<tag k="ssr:stedsnr" v="29486" />
	</node>
	<node id="-517549" lat="58.6676777798" lon="9.04152778526">
		<tag k="name" v="Trandlebrukjerret" />
		<tag k="natural" v="wetland" />
		<tag k="ssr:stedsnr" v="29403" />
	</node>
	<node id="-517547" lat="58.6557777805" lon="8.98453611389">
		<tag k="name" v="Mellommyr" />
		<tag k="natural" v="wetland" />
		<tag k="ssr:stedsnr" v="29380" />
	</node>
	<node id="-517546" lat="58.6491333313" lon="8.98430833218">
		<tag k="name" v="Ellingskjerr" />
		<tag k="natural" v="wetland" />
		<tag k="ssr:stedsnr" v="29374" />
	</node>
	<node id="-517544" lat="58.6616416703" lon="9.03996666881">
		<tag k="name" v="Stemkjærr" />
		<tag k="natural" v="wetland" />
		<tag k="ssr:stedsnr" v="29359" />
	</node>
	<node id="-517540" lat="58.698427782" lon="8.97709721688">
		<tag k="name" v="Vestre Salvesmyr" />
		<tag k="natural" v="wetland" />
		<tag k="ssr:stedsnr" v="29317" />
	</node>
	<node id="-517539" lat="58.6939805552" lon="8.95569166072">
		<tag k="name" v="Langkjerr" />
		<tag k="natural" v="wetland" />
		<tag k="ssr:stedsnr" v="29306" />
	</node>
	<node id="-517533" lat="58.5573777773" lon="8.92823889486">
		<tag k="name" v="Askekjerr" />
		<tag k="natural" v="wetland" />
		<tag k="ssr:stedsnr" v="29110" />
	</node>
	<node id="-517524" lat="58.5858250035" lon="8.86339721409">
		<tag k="name" v="Hønnsmyr" />
		<tag k="natural" v="wetland" />
		<tag k="ssr:stedsnr" v="29068" />
	</node>
	<node id="-517522" lat="58.5961027812" lon="8.84388888153">
		<tag k="name" v="Verkenskjerra" />
		<tag k="natural" v="wetland" />
		<tag k="ssr:stedsnr" v="29064" />
	</node>
	<node id="-517520" lat="58.6120527735" lon="8.76603333903">
		<tag k="name" v="Langkjerr" />
		<tag k="natural" v="wetland" />
		<tag k="ssr:stedsnr" v="29053" />
	</node>
	<node id="-517519" lat="58.6674805516" lon="9.04620278324">
		<tag k="name" v="Trykkekjerr" />
		<tag k="natural" v="wetland" />
		<tag k="ssr:stedsnr" v="29043" />
	</node>
	<node id="-517517" lat="58.6624583353" lon="9.0480749973">
		<tag k="name" v="Dybblemyr" />
		<tag k="natural" v="wetland" />
		<tag k="ssr:stedsnr" v="29037" />
	</node>
	<node id="-517515" lat="58.609877774" lon="8.77244721476">
		<tag k="name" v="Vålands Storemyr" />
		<tag k="natural" v="wetland" />
		<tag k="ssr:stedsnr" v="29030" />
	</node>
	<node id="-517457" lat="58.6715250028" lon="8.94528611835">
		<tag k="name" v="Tomåskjerr" />
		<tag k="natural" v="wetland" />
		<tag k="ssr:stedsnr" v="940553" />
	</node>
	<node id="-517453" lat="58.6845777737" lon="8.998661104">
		<tag k="name" v="Brunåskjerret" />
		<tag k="natural" v="wetland" />
		<tag k="ssr:stedsnr" v="940605" />
	</node>
	<node id="-517420" lat="58.6078611126" lon="8.8563222254">
		<tag k="name" v="Rikholta" />
		<tag k="place" v="locality" />
		<tag k="ssr:stedsnr" v="940929" />
	</node>
	<node id="-517405" lat="58.6685694421" lon="8.88482222047">
		<tag k="name" v="Kjerringholta" />
		<tag k="place" v="locality" />
		<tag k="ssr:stedsnr" v="940808" />
	</node>
	<node id="-517404" lat="58.6848444464" lon="8.90947500179">
		<tag k="name" v="Engmyr" />
		<tag k="natural" v="wetland" />
		<tag k="ssr:stedsnr" v="940790" />
	</node>
	<node id="-517403" lat="58.6786333304" lon="8.93048333959">
		<tag k="name" v="Skillermyra" />
		<tag k="natural" v="wetland" />
		<tag k="ssr:stedsnr" v="940788" />
	</node>
	<node id="-517402" lat="58.6530638898" lon="8.90585278025">
		<tag k="name" v="Sambermyra" />
		<tag k="natural" v="wetland" />
		<tag k="ssr:stedsnr" v="940782" />
	</node>
	<node id="-517398" lat="58.6450083316" lon="8.99177499964">
		<tag k="name" v="Halvfermyra" />
		<tag k="natural" v="wetland" />
		<tag k="ssr:stedsnr" v="940750" />
	</node>
	<node id="-517397" lat="58.6352583342" lon="9.00266388878">
		<tag k="name" v="Gunnarsmyr" />
		<tag k="natural" v="wetland" />
		<tag k="ssr:stedsnr" v="940733" />
	</node>
	<node id="-517396" lat="58.6321277778" lon="8.99765554946">
		<tag k="name" v="Langekjærr" />
		<tag k="natural" v="wetland" />
		<tag k="ssr:stedsnr" v="940729" />
	</node>
	<node id="-517393" lat="58.6381694401" lon="8.99540277222">
		<tag k="name" v="Blautkjærr" />
		<tag k="natural" v="wetland" />
		<tag k="ssr:stedsnr" v="940716" />
	</node>
	<node id="-517382" lat="58.6859777768" lon="8.94229444658">
		<tag k="name" v="Nordre Greinmyra" />
		<tag k="natural" v="wetland" />
		<tag k="ssr:stedsnr" v="940570" />
	</node>
	<node id="-517381" lat="58.6708166712" lon="8.96270555706">
		<tag k="name" v="Sundsmyr" />
		<tag k="natural" v="wetland" />
		<tag k="ssr:stedsnr" v="940549" />
	</node>
	<node id="-517377" lat="58.6054750015" lon="9.01494167525">
		<tag k="name" v="Sønningen" />
		<tag k="place" v="locality" />
		<tag k="ssr:stedsnr" v="940525" />
	</node>
	<node id="-517375" lat="58.6298444476" lon="9.0097166733">
		<tag k="name" v="Talbukjærr" />
		<tag k="natural" v="wetland" />
		<tag k="ssr:stedsnr" v="940510" />
	</node>
	<node id="-517372" lat="58.62751111" lon="9.0100000026">
		<tag k="name" v="Leggekjærr" />
		<tag k="natural" v="wetland" />
		<tag k="ssr:stedsnr" v="940500" />
	</node>
	<node id="-516308" lat="58.6727527773" lon="8.86889722871">
		<tag k="name" v="Midtbøåskjerret" />
		<tag k="natural" v="wetland" />
		<tag k="ssr:stedsnr" v="211828" />
	</node>
	<node id="-517358" lat="58.6710833353" lon="9.0479888803">
		<tag k="name" v="Langekjerr" />
		<tag k="natural" v="wetland" />
		<tag k="ssr:stedsnr" v="940383" />
	</node>
	<node id="-517356" lat="58.6686583367" lon="9.03523332517">
		<tag k="name" v="Fjellmyr" />
		<tag k="natural" v="wetland" />
		<tag k="ssr:stedsnr" v="940380" />
	</node>
	<node id="-517354" lat="58.6649694455" lon="8.98365555136">
		<tag k="name" v="Tjennmyra" />
		<tag k="natural" v="wetland" />
		<tag k="ssr:stedsnr" v="940375" />
	</node>
	<node id="-517351" lat="58.6494055562" lon="8.98916667083">
		<tag k="name" v="Valle-klubbmyr" />
		<tag k="natural" v="wetland" />
		<tag k="ssr:stedsnr" v="940358" />
	</node>
	<node id="-517343" lat="58.6967861091" lon="9.00594167012">
		<tag k="name" v="Bordalskjerret" />
		<tag k="natural" v="wetland" />
		<tag k="ssr:stedsnr" v="940295" />
	</node>
	<node id="-517341" lat="58.6903722183" lon="9.04490554799">
		<tag k="name" v="Småmyrene" />
		<tag k="natural" v="wetland" />
		<tag k="ssr:stedsnr" v="940281" />
	</node>
	<node id="-517338" lat="58.693602776" lon="9.00439721717">
		<tag k="name" v="Hesthagkjerret" />
		<tag k="natural" v="wetland" />
		<tag k="ssr:stedsnr" v="940268" />
	</node>
	<node id="-517335" lat="58.5720583364" lon="8.87457499159">
		<tag k="name" v="Moltemyr" />
		<tag k="natural" v="wetland" />
		<tag k="ssr:stedsnr" v="940117" />
	</node>
	<node id="-517333" lat="58.5795722187" lon="8.89339166257">
		<tag k="name" v="Det runde kjerret" />
		<tag k="natural" v="wetland" />
		<tag k="ssr:stedsnr" v="940101" />
	</node>
	<node id="-517330" lat="58.6949194407" lon="9.05058889512">
		<tag k="name" v="Høystakksmyra" />
		<tag k="natural" v="wetland" />
		<tag k="ssr:stedsnr" v="940069" />
	</node>
	<node id="-517313" lat="58.6397916702" lon="8.80952778119">
		<tag k="name" v="Lyngmyr" />
		<tag k="natural" v="wetland" />
		<tag k="ssr:stedsnr" v="820712" />
	</node>
	<node id="-517312" lat="58.6594500019" lon="8.87279444874">
		<tag k="name" v="Skrubbkjerra" />
		<tag k="natural" v="wetland" />
		<tag k="ssr:stedsnr" v="818962" />
	</node>
	<node id="-517308" lat="58.6254694438" lon="8.90124721461">
		<tag k="name" v="Stangmyra" />
		<tag k="natural" v="wetland" />
		<tag k="ssr:stedsnr" v="818872" />
	</node>
	<node id="-517304" lat="58.677436112" lon="8.87594999938">
		<tag k="name" v="Bronmyra" />
		<tag k="natural" v="wetland" />
		<tag k="ssr:stedsnr" v="818826" />
	</node>
	<node id="-517302" lat="58.6821166689" lon="8.90582500738">
		<tag k="name" v="Røykjerr" />
		<tag k="natural" v="wetland" />
		<tag k="ssr:stedsnr" v="818804" />
	</node>
	<node id="-517300" lat="58.6568555597" lon="8.91899722986">
		<tag k="name" v="Moltemyr" />
		<tag k="natural" v="wetland" />
		<tag k="ssr:stedsnr" v="818767" />
	</node>
	<node id="-517299" lat="58.6469777762" lon="8.89350277294">
		<tag k="name" v="Ribba" />
		<tag k="place" v="locality" />
		<tag k="ssr:stedsnr" v="818765" />
	</node>
	<node id="-517298" lat="58.6362916655" lon="8.94474999796">
		<tag k="name" v="Plankedalsmyra" />
		<tag k="natural" v="wetland" />
		<tag k="ssr:stedsnr" v="818709" />
	</node>
	<node id="-517296" lat="58.6788111128" lon="8.94236666318">
		<tag k="name" v="Øvre Byttingsmyr" />
		<tag k="natural" v="wetland" />
		<tag k="ssr:stedsnr" v="818617" />
	</node>
	<node id="-517294" lat="58.6737194455" lon="8.9663583321">
		<tag k="name" v="Tykkekjerra" />
		<tag k="natural" v="wetland" />
		<tag k="ssr:stedsnr" v="818608" />
	</node>
	<node id="-517288" lat="58.6483694455" lon="8.97437778107">
		<tag k="name" v="Stemkjerr" />
		<tag k="natural" v="wetland" />
		<tag k="ssr:stedsnr" v="818371" />
	</node>
	<node id="-516293" lat="58.5628138856" lon="8.86117222102">
		<tag k="name" v="Flatkjerr" />
		<tag k="natural" v="wetland" />
		<tag k="ssr:stedsnr" v="211114" />
	</node>
	<node id="-517276" lat="58.5623444405" lon="8.91137777592">
		<tag k="name" v="Loftskjerrmyra" />
		<tag k="natural" v="wetland" />
		<tag k="ssr:stedsnr" v="818068" />
	</node>
	<node id="-517275" lat="58.5681222185" lon="8.88097778375">
		<tag k="name" v="Dalstykket" />
		<tag k="place" v="locality" />
		<tag k="ssr:stedsnr" v="818067" />
	</node>
	<node id="-517268" lat="58.6402083327" lon="8.80540278228">
		<tag k="name" v="Stølsmyr" />
		<tag k="natural" v="wetland" />
		<tag k="ssr:stedsnr" v="759723" />
	</node>
	<node id="-517256" lat="58.6349555546" lon="9.01391943998">
		<tag k="name" v="Benkekjærr" />
		<tag k="natural" v="wetland" />
		<tag k="ssr:stedsnr" v="757709" />
	</node>
	<node id="-517255" lat="58.643558335" lon="9.03668889042">
		<tag k="name" v="Askedalsmyra" />
		<tag k="natural" v="wetland" />
		<tag k="ssr:stedsnr" v="757706" />
	</node>
	<node id="-517254" lat="58.6388805571" lon="9.00085834049">
		<tag k="name" v="Fantura" />
		<tag k="natural" v="scree" />
		<tag k="ssr:stedsnr" v="757703" />
	</node>
	<node id="-517226" lat="58.6533027789" lon="8.76700277265">
		<tag k="name" v="Langmyr" />
		<tag k="natural" v="wetland" />
		<tag k="ssr:stedsnr" v="699125" />
	</node>
	<node id="-517216" lat="58.6806388933" lon="8.93043888794">
		<tag k="name" v="Lille Bjellekjerr" />
		<tag k="natural" v="wetland" />
		<tag k="ssr:stedsnr" v="697778" />
	</node>
	<node id="-517212" lat="58.6345638932" lon="9.02023056128">
		<tag k="name" v="Graskjærr" />
		<tag k="natural" v="wetland" />
		<tag k="ssr:stedsnr" v="697721" />
	</node>
	<node id="-517207" lat="58.6704277734" lon="8.95573611816">
		<tag k="name" v="Øvre Tollaugskjerr" />
		<tag k="natural" v="wetland" />
		<tag k="ssr:stedsnr" v="697554" />
	</node>
	<node id="-517206" lat="58.6058805566" lon="8.9229361116">
		<tag k="name" v="Vasstømyra" />
		<tag k="natural" v="wetland" />
		<tag k="ssr:stedsnr" v="697607" />
	</node>
	<node id="-517200" lat="58.6166027774" lon="8.97244166363">
		<tag k="name" v="Store Stuåsmyr" />
		<tag k="natural" v="wetland" />
		<tag k="ssr:stedsnr" v="697504" />
	</node>
	<node id="-517193" lat="58.6962222248" lon="8.97880555171">
		<tag k="name" v="Skrinnmyr" />
		<tag k="natural" v="wetland" />
		<tag k="ssr:stedsnr" v="697316" />
	</node>
	<node id="-517190" lat="58.6081055565" lon="8.76425554806">
		<tag k="name" v="Hårmyr" />
		<tag k="natural" v="wetland" />
		<tag k="ssr:stedsnr" v="697064" />
	</node>
	<node id="-517189" lat="58.6232000004" lon="8.77709722341">
		<tag k="name" v="Hesteveltene" />
		<tag k="place" v="locality" />
		<tag k="ssr:stedsnr" v="697056" />
	</node>
	<node id="-517185" lat="58.6337027797" lon="8.81439999604">
		<tag k="name" v="Råbumyrene" />
		<tag k="natural" v="wetland" />
		<tag k="ssr:stedsnr" v="697016" />
	</node>
	<node id="-517184" lat="58.6293083304" lon="8.81580554942">
		<tag k="name" v="Døblene" />
		<tag k="natural" v="wetland" />
		<tag k="ssr:stedsnr" v="697007" />
	</node>
	<node id="-517183" lat="58.5596527814" lon="8.92373889198">
		<tag k="name" v="Lille Dyremyr" />
		<tag k="natural" v="wetland" />
		<tag k="ssr:stedsnr" v="697128" />
	</node>
	<node id="-517167" lat="58.6424694486" lon="8.8753166737">
		<tag k="name" v="Dalen" />
		<tag k="place" v="locality" />
		<tag k="ssr:stedsnr" v="879934" />
	</node>
	<node id="-517165" lat="58.6148166634" lon="8.83130833086">
		<tag k="name" v="Haugmyr" />
		<tag k="natural" v="wetland" />
		<tag k="ssr:stedsnr" v="879918" />
	</node>
	<node id="-517154" lat="58.6743388862" lon="8.86794722725">
		<tag k="name" v="Diplemyra" />
		<tag k="natural" v="wetland" />
		<tag k="ssr:stedsnr" v="879800" />
	</node>
	<node id="-517150" lat="58.6489555553" lon="8.89440277446">
		<tag k="name" v="Lauvlandsmyra" />
		<tag k="natural" v="wetland" />
		<tag k="ssr:stedsnr" v="879745" />
	</node>
	<node id="-517148" lat="58.6267055581" lon="8.98268611292">
		<tag k="name" v="Vannimellom" />
		<tag k="place" v="locality" />
		<tag k="ssr:stedsnr" v="879737" />
	</node>
	<node id="-517146" lat="58.6438888908" lon="9.00958333483">
		<tag k="name" v="Skotmyr" />
		<tag k="natural" v="wetland" />
		<tag k="ssr:stedsnr" v="879730" />
	</node>
	<node id="-517143" lat="58.6411611081" lon="9.02702499232">
		<tag k="name" v="Haukromyr" />
		<tag k="natural" v="wetland" />
		<tag k="ssr:stedsnr" v="879708" />
	</node>
	<node id="-517142" lat="58.6442277799" lon="8.97727778041">
		<tag k="name" v="Ramleth-klubbmyr" />
		<tag k="natural" v="wetland" />
		<tag k="old_name" v="Ramlet-Klubbyr" />
		<tag k="ssr:stedsnr" v="879698" />
	</node>
	<node id="-517132" lat="58.6868583313" lon="9.03615000132">
		<tag k="name" v="Myra" />
		<tag k="natural" v="wetland" />
		<tag k="ssr:stedsnr" v="879581" />
	</node>
	<node id="-517130" lat="58.6838333348" lon="8.94149722215">
		<tag k="name" v="Greinmyra" />
		<tag k="natural" v="wetland" />
		<tag k="ssr:stedsnr" v="879565" />
	</node>
	<node id="-517127" lat="58.6831166673" lon="8.98473054927">
		<tag k="name" v="Lille Grasåskjerret" />
		<tag k="natural" v="wetland" />
		<tag k="ssr:stedsnr" v="879521" />
	</node>
	<node id="-517115" lat="58.6547444418" lon="8.97942500027">
		<tag k="name" v="Heimemyr" />
		<tag k="natural" v="wetland" />
		<tag k="ssr:stedsnr" v="879356" />
	</node>
	<node id="-517108" lat="58.6511138917" lon="9.02187777205">
		<tag k="name" v="Nordre Skogbråtsmyr" />
		<tag k="natural" v="wetland" />
		<tag k="ssr:stedsnr" v="879323" />
	</node>
	<node id="-517107" lat="58.6522083327" lon="9.01799166263">
		<tag k="name" v="Skarkemyrhollene" />
		<tag k="natural" v="wetland" />
		<tag k="ssr:stedsnr" v="879321" />
	</node>
	<node id="-517106" lat="58.7009250037" lon="8.97861389412">
		<tag k="name" v="Østre Salvesmyr" />
		<tag k="natural" v="wetland" />
		<tag k="ssr:stedsnr" v="879307" />
	</node>
	<node id="-517094" lat="58.5591138895" lon="8.90193332499">
		<tag k="name" v="Teinstadmyra" />
		<tag k="place" v="locality" />
		<tag k="ssr:stedsnr" v="879116" />
	</node>
	<node id="-517090" lat="58.5618249976" lon="8.86804722044">
		<tag k="name" v="Ruskhagen" />
		<tag k="place" v="locality" />
		<tag k="ssr:stedsnr" v="879106" />
	</node>
	<node id="-517088" lat="58.5694194487" lon="8.90973055087">
		<tag k="name" v="Småmyrene" />
		<tag k="natural" v="wetland" />
		<tag k="ssr:stedsnr" v="879094" />
	</node>
	<node id="-517087" lat="58.5994527775" lon="8.8271277739">
		<tag k="name" v="Spøsmyr" />
		<tag k="natural" v="wetland" />
		<tag k="ssr:stedsnr" v="879093" />
	</node>
	<node id="-517086" lat="58.6589055558" lon="8.93840832542">
		<tag k="name" v="Ribbåskjærret" />
		<tag k="natural" v="wetland" />
		<tag k="ssr:stedsnr" v="879091" />
	</node>
	<node id="-517078" lat="58.6101138869" lon="8.81003610761">
		<tag k="name" v="Turtemyr" />
		<tag k="natural" v="wetland" />
		<tag k="ssr:stedsnr" v="879043" />
	</node>
	<node id="-517077" lat="58.6080916704" lon="8.77631388113">
		<tag k="name" v="Rosstøls Storemyr" />
		<tag k="natural" v="wetland" />
		<tag k="ssr:stedsnr" v="879039" />
	</node>
	<node id="-517071" lat="58.6304638901" lon="8.81269167094">
		<tag k="name" v="Pigelsmyr" />
		<tag k="natural" v="wetland" />
		<tag k="ssr:stedsnr" v="879008" />
	</node>
	<node id="-517070" lat="58.6294944441" lon="8.82163611323">
		<tag k="name" v="Ingridsmyr" />
		<tag k="natural" v="wetland" />
		<tag k="ssr:stedsnr" v="879007" />
	</node>
	<node id="-517060" lat="58.6043027779" lon="8.761097222">
		<tag k="name" v="Vinterkjerra" />
		<tag k="natural" v="wetland" />
		<tag k="ssr:stedsnr" v="729799" />
	</node>
	<node id="-517032" lat="58.5507444424" lon="8.88756666458">
		<tag k="name" v="Skogmyra" />
		<tag k="natural" v="wetland" />
		<tag k="ssr:stedsnr" v="729283" />
	</node>
	<node id="-517027" lat="58.5975444454" lon="8.89616388961">
		<tag k="name" v="Lille Kloppemyr" />
		<tag k="natural" v="wetland" />
		<tag k="ssr:stedsnr" v="636874" />
	</node>
	<node id="-517026" lat="58.597011111" lon="8.89881945005">
		<tag k="name" v="Store Kloppemyr" />
		<tag k="natural" v="wetland" />
		<tag k="ssr:stedsnr" v="636872" />
	</node>
	<node id="-517018" lat="58.6296805541" lon="8.93684999895">
		<tag k="name" v="Ramsdalsmyra" />
		<tag k="place" v="locality" />
		<tag k="ssr:stedsnr" v="636755" />
	</node>
	<node id="-517015" lat="58.6134916691" lon="8.96131944065">
		<tag k="name" v="Røsmyr" />
		<tag k="natural" v="wetland" />
		<tag k="ssr:stedsnr" v="636521" />
	</node>
	<node id="-517009" lat="58.6593027754" lon="9.01894443696">
		<tag k="name" v="Barlindene" />
		<tag k="place" v="locality" />
		<tag k="ssr:stedsnr" v="636353" />
	</node>
	<node id="-517006" lat="58.6858777822" lon="8.96333056269">
		<tag k="name" v="Lyngmyr" />
		<tag k="natural" v="wetland" />
		<tag k="ssr:stedsnr" v="636613" />
	</node>
	<node id="-517003" lat="58.6352388869" lon="9.08794999583">
		<tag k="name" v="Krokkjær" />
		<tag k="natural" v="wetland" />
		<tag k="ssr:stedsnr" v="636469" />
	</node>
	<node id="-516999" lat="58.699180552" lon="8.97462499694">
		<tag k="name" v="Den runde myra" />
		<tag k="natural" v="wetland" />
		<tag k="ssr:stedsnr" v="636310" />
	</node>
	<node id="-516998" lat="58.5794416655" lon="8.87227222693">
		<tag k="name" v="Kannemyr" />
		<tag k="natural" v="wetland" />
		<tag k="ssr:stedsnr" v="636124" />
	</node>
	<node id="-516587" lat="58.6779111128" lon="8.90593055553">
		<tag k="name" v="Hesthagen" />
		<tag k="place" v="locality" />
		<tag k="ssr:stedsnr" v="393816" />
	</node>
	<node id="-516189" lat="58.6118944445" lon="8.78806110293">
		<tag k="name" v="Diplemyra" />
		<tag k="natural" v="wetland" />
		<tag k="ssr:stedsnr" v="272036" />
	</node>
	<node id="-516964" lat="58.6377749997" lon="8.87822777141">
		<tag k="name" v="Lislemyr" />
		<tag k="natural" v="wetland" />
		<tag k="ssr:stedsnr" v="575917" />
	</node>
	<node id="-516958" lat="58.6329222187" lon="8.99996944677">
		<tag k="name" v="Røyvannskjærrene" />
		<tag k="natural" v="wetland" />
		<tag k="ssr:stedsnr" v="575710" />
	</node>
	<node id="-516947" lat="58.6071333362" lon="8.98499443907">
		<tag k="name" v="Nordfind" />
		<tag k="place" v="locality" />
		<tag k="ssr:stedsnr" v="575541" />
	</node>
	<node id="-516946" lat="58.6082111095" lon="8.99222777993">
		<tag k="name" v="Østre Kjerrene" />
		<tag k="natural" v="wetland" />
		<tag k="ssr:stedsnr" v="575540" />
	</node>
	<node id="-516943" lat="58.6847249982" lon="8.98841110548">
		<tag k="name" v="Skottmyr" />
		<tag k="natural" v="wetland" />
		<tag k="ssr:stedsnr" v="575526" />
	</node>
	<node id="-516942" lat="58.688747225" lon="8.9839249984">
		<tag k="name" v="Stemkjerr" />
		<tag k="natural" v="wetland" />
		<tag k="ssr:stedsnr" v="575524" />
	</node>
	<node id="-516938" lat="58.6269194453" lon="9.00723332934">
		<tag k="name" v="Klemmetshage" />
		<tag k="natural" v="wetland" />
		<tag k="ssr:stedsnr" v="575504" />
	</node>
	<node id="-516934" lat="58.648166666" lon="8.75863055767">
		<tag k="name" v="Stormyr" />
		<tag k="natural" v="wetland" />
		<tag k="ssr:stedsnr" v="575110" />
	</node>
	<node id="-516912" lat="58.66781111" lon="8.84577499261">
		<tag k="name" v="Eikelikjær" />
		<tag k="natural" v="wetland" />
		<tag k="ssr:stedsnr" v="697996" />
	</node>
	<node id="-516896" lat="58.6543166692" lon="8.89155278403">
		<tag k="name" v="Kobberknattmyra" />
		<tag k="natural" v="wetland" />
		<tag k="ssr:stedsnr" v="697744" />
	</node>
	<node id="-516894" lat="58.6269361132" lon="8.94896944016">
		<tag k="name" v="Holmsmyr" />
		<tag k="natural" v="wetland" />
		<tag k="ssr:stedsnr" v="697731" />
	</node>
	<node id="-516892" lat="58.6360944459" lon="8.98926666341">
		<tag k="name" v="Middagskjerret" />
		<tag k="natural" v="wetland" />
		<tag k="ssr:stedsnr" v="697680" />
	</node>
	<node id="-516887" lat="58.6754861083" lon="8.91037777257">
		<tag k="name" v="Øverste" />
		<tag k="natural" v="wetland" />
		<tag k="ssr:stedsnr" v="697810" />
	</node>
	<node id="-516885" lat="58.6793138882" lon="8.926530555">
		<tag k="name" v="Store Bjellekjerr" />
		<tag k="natural" v="wetland" />
		<tag k="ssr:stedsnr" v="697790" />
	</node>
	<node id="-516882" lat="58.6191305574" lon="8.99670000198">
		<tag k="name" v="Råbumyr" />
		<tag k="natural" v="wetland" />
		<tag k="ssr:stedsnr" v="697546" />
	</node>
	<node id="-516861" lat="58.6828277794" lon="8.9733055534">
		<tag k="name" v="Rondasene" />
		<tag k="natural" v="wetland" />
		<tag k="ssr:stedsnr" v="697576" />
	</node>
	<node id="-516858" lat="58.640008329" lon="9.1070722282">
		<tag k="name" v="Sparsurene" />
		<tag k="natural" v="scree" />
		<tag k="ssr:stedsnr" v="697443" />
	</node>
	<node id="-516849" lat="58.6517027788" lon="8.99751944811">
		<tag k="name" v="Kjergjellskjærr" />
		<tag k="natural" v="wetland" />
		<tag k="ssr:stedsnr" v="697332" />
	</node>
	<node id="-516848" lat="58.6904305571" lon="9.0368777826">
		<tag k="name" v="Hestemyr" />
		<tag k="natural" v="wetland" />
		<tag k="ssr:stedsnr" v="697299" />
	</node>
	<node id="-516843" lat="58.5562111093" lon="8.88243334127">
		<tag k="name" v="Bjåmyr" />
		<tag k="natural" v="wetland" />
		<tag k="ssr:stedsnr" v="697134" />
	</node>
	<node id="-516839" lat="58.6927277755" lon="9.04792222471">
		<tag k="name" v="Øvre Småmyrene" />
		<tag k="natural" v="wetland" />
		<tag k="ssr:stedsnr" v="697101" />
	</node>
	<node id="-516838" lat="58.5603750016" lon="8.8840083297">
		<tag k="name" v="Storemyr" />
		<tag k="natural" v="wetland" />
		<tag k="ssr:stedsnr" v="697095" />
	</node>
	<node id="-516830" lat="58.6121861114" lon="8.77882778272">
		<tag k="name" v="Pålsmyr" />
		<tag k="natural" v="wetland" />
		<tag k="ssr:stedsnr" v="697035" />
	</node>
	<node id="-516824" lat="58.6249805584" lon="9.02594167359">
		<tag k="name" v="Hagane" />
		<tag k="place" v="locality" />
		<tag k="ssr:stedsnr" v="515524" />
	</node>
	<node id="-516820" lat="58.6482666708" lon="9.01171389498">
		<tag k="name" v="Ørnekjærr" />
		<tag k="natural" v="wetland" />
		<tag k="ssr:stedsnr" v="515322" />
	</node>
	<node id="-516819" lat="58.6486666685" lon="8.99794999626">
		<tag k="name" v="Diplemyr" />
		<tag k="natural" v="wetland" />
		<tag k="ssr:stedsnr" v="515320" />
	</node>
	<node id="-516817" lat="58.6592611088" lon="9.0529527862">
		<tag k="name" v="Hesthagen" />
		<tag k="place" v="locality" />
		<tag k="ssr:stedsnr" v="515121" />
	</node>
	<node id="-516816" lat="58.5748555538" lon="8.89350834048">
		<tag k="name" v="Stølemyra" />
		<tag k="place" v="locality" />
		<tag k="ssr:stedsnr" v="515114" />
	</node>
	<node id="-516814" lat="58.6011861138" lon="8.80226666947">
		<tag k="name" v="Kornhagen" />
		<tag k="place" v="locality" />
		<tag k="ssr:stedsnr" v="515214" />
	</node>
	<node id="-516811" lat="58.5958083289" lon="8.74639445079">
		<tag k="name" v="Glomslåtta" />
		<tag k="natural" v="wetland" />
		<tag k="ssr:stedsnr" v="515210" />
	</node>
	<node id="-516810" lat="58.5937083295" lon="8.76735556177">
		<tag k="name" v="Tjennmyr" />
		<tag k="natural" v="wetland" />
		<tag k="ssr:stedsnr" v="515209" />
	</node>
	<node id="-516808" lat="58.6020111114" lon="8.75552221805">
		<tag k="name" v="Lauvkjerr" />
		<tag k="natural" v="wetland" />
		<tag k="ssr:stedsnr" v="515206" />
	</node>
	<node id="-516807" lat="58.6025333306" lon="8.73715555077">
		<tag k="name" v="Kroktjennmyra" />
		<tag k="natural" v="wetland" />
		<tag k="ssr:stedsnr" v="515202" />
	</node>
	<node id="-516758" lat="58.6819944415" lon="8.88871666326">
		<tag k="name" v="Bjørkesteene" />
		<tag k="natural" v="wetland" />
		<tag k="ssr:stedsnr" v="454822" />
	</node>
	<node id="-516757" lat="58.6763833358" lon="8.93067500321">
		<tag k="name" v="Kringlemyr" />
		<tag k="natural" v="wetland" />
		<tag k="ssr:stedsnr" v="454812" />
	</node>
	<node id="-516730" lat="58.6393861154" lon="8.81949721833">
		<tag k="name" v="Lisbetmyr" />
		<tag k="natural" v="wetland" />
		<tag k="ssr:stedsnr" v="454012" />
	</node>
	<node id="-516716" lat="58.6608249963" lon="8.85898332477">
		<tag k="name" v="Kringla" />
		<tag k="natural" v="wetland" />
		<tag k="ssr:stedsnr" v="515974" />
	</node>
	<node id="-516713" lat="58.6316861078" lon="8.82945555714">
		<tag k="name" v="Svinbumyr" />
		<tag k="natural" v="wetland" />
		<tag k="ssr:stedsnr" v="515953" />
	</node>
	<node id="-516701" lat="58.6838916671" lon="8.923730555">
		<tag k="name" v="Store Rullandskjerr" />
		<tag k="natural" v="wetland" />
		<tag k="ssr:stedsnr" v="515860" />
	</node>
	<node id="-516698" lat="58.6386916706" lon="8.93138333641">
		<tag k="name" v="Stemmyrene" />
		<tag k="natural" v="wetland" />
		<tag k="ssr:stedsnr" v="515849" />
	</node>
	<node id="-516697" lat="58.6797583302" lon="8.856641659">
		<tag k="name" v="Øvre Langmyrkjerr" />
		<tag k="natural" v="wetland" />
		<tag k="ssr:stedsnr" v="515845" />
	</node>
	<node id="-516691" lat="58.6531666687" lon="8.93090832734">
		<tag k="name" v="Kvernhuskjerr" />
		<tag k="place" v="locality" />
		<tag k="ssr:stedsnr" v="515774" />
	</node>
	<node id="-516193" lat="58.6012638893" lon="8.74491388468">
		<tag k="name" v="Blåmyra" />
		<tag k="natural" v="wetland" />
		<tag k="ssr:stedsnr" v="272191" />
	</node>
	<node id="-516672" lat="58.6804472202" lon="8.95408056312">
		<tag k="name" v="Djupmyr" />
		<tag k="natural" v="wetland" />
		<tag k="ssr:stedsnr" v="515590" />
	</node>
	<node id="-516670" lat="58.6765861117" lon="8.9790055506">
		<tag k="name" v="Jørn beiters kjerr" />
		<tag k="natural" v="wetland" />
		<tag k="ssr:stedsnr" v="515583" />
	</node>
	<node id="-516667" lat="58.6063277768" lon="8.9944250002">
		<tag k="name" v="Blåbærkjerr" />
		<tag k="natural" v="wetland" />
		<tag k="ssr:stedsnr" v="515540" />
	</node>
	<node id="-516653" lat="58.6796388934" lon="9.07858610282">
		<tag k="name" v="Trollskapsmyra" />
		<tag k="natural" v="wetland" />
		<tag k="ssr:stedsnr" v="515423" />
	</node>
	<node id="-516645" lat="58.669105559" lon="9.07401943762">
		<tag k="name" v="Moskemyra" />
		<tag k="natural" v="wetland" />
		<tag k="ssr:stedsnr" v="515399" />
	</node>
	<node id="-518692" lat="58.644697223" lon="8.83908333752">
		<tag k="name" v="Lyngkjerr" />
		<tag k="natural" v="wetland" />
		<tag k="ssr:stedsnr" v="818934" />
	</node>
	<node id="-516641" lat="58.6591944463" lon="8.94740833448">
		<tag k="name" v="Småmyrene" />
		<tag k="natural" v="wetland" />
		<tag k="ssr:stedsnr" v="515375" />
	</node>
	<node id="-518688" lat="58.6014638921" lon="8.93106111236">
		<tag k="name" v="Moltemyr" />
		<tag k="natural" v="wetland" />
		<tag k="ssr:stedsnr" v="818900" />
	</node>
	<node id="-518686" lat="58.6350388844" lon="8.89122777738">
		<tag k="name" v="Gliddihagen" />
		<tag k="place" v="locality" />
		<tag k="ssr:stedsnr" v="818882" />
	</node>
	<node id="-516637" lat="58.6594972214" lon="9.0187277839">
		<tag k="name" v="Skrubbmyr" />
		<tag k="natural" v="wetland" />
		<tag k="ssr:stedsnr" v="515344" />
	</node>
	<node id="-518678" lat="58.6834722194" lon="8.89081665978">
		<tag k="name" v="Smørbekkstea" />
		<tag k="natural" v="wetland" />
		<tag k="ssr:stedsnr" v="818777" />
	</node>
	<node id="-518675" lat="58.6215555568" lon="8.96140278089">
		<tag k="name" v="Annasmyr" />
		<tag k="natural" v="wetland" />
		<tag k="ssr:stedsnr" v="818541" />
	</node>
	<node id="-518672" lat="58.6034805557" lon="8.91083334151">
		<tag k="name" v="Djupmyr" />
		<tag k="natural" v="wetland" />
		<tag k="ssr:stedsnr" v="818674" />
	</node>
	<node id="-516612" lat="58.6203055566" lon="8.7878000055">
		<tag k="name" v="Lilletjennmyra" />
		<tag k="natural" v="wetland" />
		<tag k="ssr:stedsnr" v="515053" />
	</node>
	<node id="-516606" lat="58.6134638916" lon="8.78981111062">
		<tag k="name" v="Brunkjerr" />
		<tag k="natural" v="wetland" />
		<tag k="ssr:stedsnr" v="515035" />
	</node>
	<node id="-518646" lat="58.6940138933" lon="9.04454165836">
		<tag k="name" v="Moltemyra" />
		<tag k="natural" v="wetland" />
		<tag k="ssr:stedsnr" v="818300" />
	</node>
	<node id="-518645" lat="58.6922305535" lon="8.97644444578">
		<tag k="name" v="Ospehommen" />
		<tag k="place" v="locality" />
		<tag k="ssr:stedsnr" v="818298" />
	</node>
	<node id="-516595" lat="58.6405583359" lon="8.82660276943">
		<tag k="name" v="Bronåsmyr" />
		<tag k="natural" v="wetland" />
		<tag k="ssr:stedsnr" v="393925" />
	</node>
	<node id="-518639" lat="58.6662277818" lon="9.09343055206">
		<tag k="name" v="Moltemyr" />
		<tag k="natural" v="wetland" />
		<tag k="ssr:stedsnr" v="818400" />
	</node>
	<node id="-518635" lat="58.6894750022" lon="9.00700555167">
		<tag k="name" v="Buhagen" />
		<tag k="place" v="locality" />
		<tag k="ssr:stedsnr" v="818278" />
	</node>
	<node id="-516584" lat="58.6704611094" lon="9.01925555393">
		<tag k="name" v="Lillemyr" />
		<tag k="natural" v="wetland" />
		<tag k="ssr:stedsnr" v="393603" />
	</node>
	<node id="-516583" lat="58.6691722265" lon="9.01534166371">
		<tag k="name" v="Tjennmyr" />
		<tag k="natural" v="wetland" />
		<tag k="ssr:stedsnr" v="393602" />
	</node>
	<node id="-518629" lat="58.6185805575" lon="8.8035916698">
		<tag k="name" v="Hestehagen" />
		<tag k="place" v="locality" />
		<tag k="ssr:stedsnr" v="818042" />
	</node>
	<node id="-516579" lat="58.6148222259" lon="9.01850556391">
		<tag k="name" v="Ulevågsmyra" />
		<tag k="natural" v="wetland" />
		<tag k="ssr:stedsnr" v="393555" />
	</node>
	<node id="-516576" lat="58.620122221" lon="8.98649166539">
		<tag k="name" v="Toksurene" />
		<tag k="natural" v="scree" />
		<tag k="ssr:stedsnr" v="393522" />
	</node>
	<node id="-516571" lat="58.6642305533" lon="8.95918611176">
		<tag k="name" v="Klubbåsmyra" />
		<tag k="natural" v="wetland" />
		<tag k="ssr:stedsnr" v="393375" />
	</node>
	<node id="-516558" lat="58.5761277807" lon="8.86444721783">
		<tag k="name" v="Fjellmyr" />
		<tag k="natural" v="wetland" />
		<tag k="ssr:stedsnr" v="393115" />
	</node>
	<node id="-518598" lat="58.6429333361" lon="8.93150555022">
		<tag k="name" v="Grimsmyr" />
		<tag k="natural" v="wetland" />
		<tag k="ssr:stedsnr" v="757838" />
	</node>
	<node id="-518597" lat="58.6370833345" lon="8.92815833129">
		<tag k="name" v="Skuestemkjerr" />
		<tag k="natural" v="wetland" />
		<tag k="ssr:stedsnr" v="757834" />
	</node>
	<node id="-518596" lat="58.6415111087" lon="8.92360833218">
		<tag k="name" v="Hestehagen" />
		<tag k="place" v="locality" />
		<tag k="ssr:stedsnr" v="757830" />
	</node>
	<node id="-518594" lat="58.6830083329" lon="8.86064445171">
		<tag k="name" v="Jarlebrønnkjerret" />
		<tag k="natural" v="wetland" />
		<tag k="ssr:stedsnr" v="757813" />
	</node>
	<node id="-518592" lat="58.6703972223" lon="8.93556945091">
		<tag k="name" v="Nedre Skaftmyr" />
		<tag k="natural" v="wetland" />
		<tag k="ssr:stedsnr" v="757809" />
	</node>
	<node id="-518590" lat="58.6830194413" lon="8.86941944031">
		<tag k="name" v="Megestadkjerrene" />
		<tag k="natural" v="wetland" />
		<tag k="ssr:stedsnr" v="757806" />
	</node>
	<node id="-518588" lat="58.6813472236" lon="8.88080277613">
		<tag k="name" v="Skillerkjerret" />
		<tag k="natural" v="wetland" />
		<tag k="ssr:stedsnr" v="757798" />
	</node>
	<node id="-518558" lat="58.6752750037" lon="9.04346665833">
		<tag k="name" v="Stikjerr" />
		<tag k="natural" v="wetland" />
		<tag k="ssr:stedsnr" v="757585" />
	</node>
	<node id="-518564" lat="58.6130027798" lon="8.89133611323">
		<tag k="name" v="Langemyr" />
		<tag k="natural" v="wetland" />
		<tag k="ssr:stedsnr" v="757632" />
	</node>
	<node id="-518560" lat="58.6803944443" lon="9.01861666053">
		<tag k="name" v="Graskjerr" />
		<tag k="natural" v="wetland" />
		<tag k="ssr:stedsnr" v="757595" />
	</node>
	<node id="-518559" lat="58.6869388852" lon="9.0407166632">
		<tag k="name" v="Klysekjerr" />
		<tag k="natural" v="wetland" />
		<tag k="ssr:stedsnr" v="757588" />
	</node>
	<node id="-516510" lat="58.6785166702" lon="8.91935278379">
		<tag k="name" v="Skrikmyr" />
		<tag k="natural" v="wetland" />
		<tag k="ssr:stedsnr" v="333806" />
	</node>
	<node id="-516508" lat="58.680230555" lon="8.91383888103">
		<tag k="name" v="Nedre Ura" />
		<tag k="natural" v="scree" />
		<tag k="ssr:stedsnr" v="333802" />
	</node>
	<node id="-518554" lat="58.6757333348" lon="8.97102500393">
		<tag k="name" v="Grasåsmyra" />
		<tag k="natural" v="wetland" />
		<tag k="ssr:stedsnr" v="757565" />
	</node>
	<node id="-518550" lat="58.6260555545" lon="9.0185416711">
		<tag k="name" v="Krokvågmyra" />
		<tag k="natural" v="wetland" />
		<tag k="ssr:stedsnr" v="757525" />
	</node>
	<node id="-516499" lat="58.6072055529" lon="8.99344722115">
		<tag k="name" v="Hesthagen" />
		<tag k="place" v="locality" />
		<tag k="ssr:stedsnr" v="333547" />
	</node>
	<node id="-516498" lat="58.6883027747" lon="8.964683339">
		<tag k="name" v="Blåteisen" />
		<tag k="natural" v="wetland" />
		<tag k="ssr:stedsnr" v="333543" />
	</node>
	<node id="-516496" lat="58.6198861102" lon="8.97697221984">
		<tag k="name" v="Kattmyr" />
		<tag k="natural" v="wetland" />
		<tag k="ssr:stedsnr" v="333531" />
	</node>
	<node id="-516494" lat="58.6169388933" lon="8.96032499951">
		<tag k="name" v="Råksmyr" />
		<tag k="natural" v="wetland" />
		<tag k="ssr:stedsnr" v="333519" />
	</node>
	<node id="-518535" lat="58.6659472181" lon="9.06015555494">
		<tag k="name" v="Kvernmyr" />
		<tag k="natural" v="wetland" />
		<tag k="ssr:stedsnr" v="757398" />
	</node>
	<node id="-518533" lat="58.661116667" lon="8.94030277412">
		<tag k="name" v="Krisledalskjerret" />
		<tag k="natural" v="wetland" />
		<tag k="ssr:stedsnr" v="757375" />
	</node>
	<node id="-516482" lat="58.6499111152" lon="8.76830277396">
		<tag k="name" v="Venkjerr" />
		<tag k="natural" v="wetland" />
		<tag k="ssr:stedsnr" v="333129" />
	</node>
	<node id="-518528" lat="58.6999666688" lon="8.99212777193">
		<tag k="name" v="Bjørnekjerr" />
		<tag k="natural" v="wetland" />
		<tag k="ssr:stedsnr" v="757314" />
	</node>
	<node id="-516479" lat="58.5766250018" lon="8.87435833601">
		<tag k="name" v="Stembrumyra" />
		<tag k="natural" v="wetland" />
		<tag k="ssr:stedsnr" v="333115" />
	</node>
	<node id="-518524" lat="58.6929083336" lon="9.00999999329">
		<tag k="name" v="Boråskjerret" />
		<tag k="natural" v="wetland" />
		<tag k="ssr:stedsnr" v="757273" />
	</node>
	<node id="-518521" lat="58.6574611124" lon="9.09972222503">
		<tag k="name" v="Jensemyr" />
		<tag k="natural" v="wetland" />
		<tag k="ssr:stedsnr" v="757121" />
	</node>
	<node id="-518520" lat="58.5739472232" lon="8.87439444153">
		<tag k="name" v="Langemyr" />
		<tag k="natural" v="wetland" />
		<tag k="ssr:stedsnr" v="757108" />
	</node>
	<node id="-518517" lat="58.6569249983" lon="9.08676944553">
		<tag k="name" v="Marekjerr" />
		<tag k="natural" v="wetland" />
		<tag k="ssr:stedsnr" v="757090" />
	</node>
	<node id="-518514" lat="58.5666611126" lon="8.92398333451">
		<tag k="name" v="Eikelandsmyra" />
		<tag k="natural" v="wetland" />
		<tag k="ssr:stedsnr" v="757082" />
	</node>
	<node id="-518511" lat="58.598200002" lon="8.86003611114">
		<tag k="name" v="Moltemyr" />
		<tag k="natural" v="wetland" />
		<tag k="ssr:stedsnr" v="757071" />
	</node>
	<node id="-518508" lat="58.5867916687" lon="8.86845833827">
		<tag k="name" v="Haggelsmyr" />
		<tag k="natural" v="wetland" />
		<tag k="ssr:stedsnr" v="757058" />
	</node>
	<node id="-516445" lat="58.5986194474" lon="8.93312500262">
		<tag k="name" v="Jordsmyra" />
		<tag k="natural" v="wetland" />
		<tag k="ssr:stedsnr" v="272875" />
	</node>
	<node id="-518490" lat="58.6255053153" lon="8.84356702935">
		<tag k="name" v="Revura" />
		<tag k="natural" v="scree" />
		<tag k="ssr:stedsnr" v="636946" />
	</node>
	<node id="-518489" lat="58.6671027771" lon="8.87879166058">
		<tag k="name" v="Bjørkmyr" />
		<tag k="natural" v="wetland" />
		<tag k="ssr:stedsnr" v="636988" />
	</node>
	<node id="-518485" lat="58.6607111149" lon="8.86544443877">
		<tag k="name" v="Hesthagen" />
		<tag k="place" v="locality" />
		<tag k="ssr:stedsnr" v="636974" />
	</node>
	<node id="-518483" lat="58.6850611073" lon="8.87439723069">
		<tag k="name" v="Øvre Rotdalskjerret" />
		<tag k="natural" v="wetland" />
		<tag k="ssr:stedsnr" v="636828" />
	</node>
	<node id="-518481" lat="58.677455557" lon="8.91103888429">
		<tag k="name" v="Øygardstea" />
		<tag k="natural" v="wetland" />
		<tag k="ssr:stedsnr" v="636814" />
	</node>
	<node id="-516432" lat="58.6847499984" lon="8.96990833359">
		<tag k="name" v="Bjørkkjerr" />
		<tag k="natural" v="wetland" />
		<tag k="ssr:stedsnr" v="272558" />
	</node>
	<node id="-516431" lat="58.6788277801" lon="8.95938610731">
		<tag k="name" v="Bjorstemstea" />
		<tag k="natural" v="wetland" />
		<tag k="ssr:stedsnr" v="272553" />
	</node>
	<node id="-518478" lat="58.5977972206" lon="8.9267194401">
		<tag k="name" v="Langkjerr" />
		<tag k="natural" v="wetland" />
		<tag k="ssr:stedsnr" v="636883" />
	</node>
	<node id="-516428" lat="58.6051861136" lon="8.99174721442">
		<tag k="name" v="Eidbomyra" />
		<tag k="natural" v="wetland" />
		<tag k="ssr:stedsnr" v="272506" />
	</node>
	<node id="-518475" lat="58.6330222259" lon="8.99704444047">
		<tag k="name" v="Østerå Gunnarsmyr" />
		<tag k="natural" v="wetland" />
		<tag k="ssr:stedsnr" v="636746" />
	</node>
	<node id="-518473" lat="58.643488887" lon="8.94484444412">
		<tag k="name" v="Hestebakk-kjerret" />
		<tag k="natural" v="wetland" />
		<tag k="ssr:stedsnr" v="636732" />
	</node>
	<node id="-516424" lat="58.6415361118" lon="9.09861110537">
		<tag k="name" v="Albert Olsens kjær" />
		<tag k="natural" v="wetland" />
		<tag k="ssr:stedsnr" v="272471" />
	</node>
	<node id="-516418" lat="58.6543916655" lon="9.03250000446">
		<tag k="name" v="Kyrhagen" />
		<tag k="place" v="locality" />
		<tag k="ssr:stedsnr" v="272314" />
	</node>
	<node id="-518464" lat="58.6813305537" lon="9.02757500295">
		<tag k="name" v="Ospelunden" />
		<tag k="place" v="locality" />
		<tag k="ssr:stedsnr" v="636625" />
	</node>
	<node id="-516411" lat="58.5789055571" lon="8.89557776965">
		<tag k="name" v="Det lange kjerret" />
		<tag k="natural" v="wetland" />
		<tag k="ssr:stedsnr" v="272108" />
	</node>
	<node id="-518455" lat="58.6174500038" lon="9.09535833044">
		<tag k="name" v="Jordene" />
		<tag k="place" v="locality" />
		<tag k="ssr:stedsnr" v="636423" />
	</node>
	<node id="-518453" lat="58.6043861072" lon="8.88971111024">
		<tag k="name" v="Bjellemyr" />
		<tag k="natural" v="wetland" />
		<tag k="ssr:stedsnr" v="636678" />
	</node>
	<node id="-518445" lat="58.6230305584" lon="8.97044166613">
		<tag k="name" v="Kartskjerr" />
		<tag k="natural" v="wetland" />
		<tag k="ssr:stedsnr" v="636534" />
	</node>
	<node id="-516396" lat="58.6021666636" lon="8.90875278428">
		<tag k="name" v="Rundkjerr" />
		<tag k="natural" v="wetland" />
		<tag k="ssr:stedsnr" v="454896" />
	</node>
	<node id="-516395" lat="58.5959444425" lon="8.8831249951">
		<tag k="name" v="Tussemyr" />
		<tag k="natural" v="wetland" />
		<tag k="ssr:stedsnr" v="454892" />
	</node>
	<node id="-518440" lat="58.6543138918" lon="9.02283332878">
		<tag k="name" v="Dypkjærr" />
		<tag k="natural" v="wetland" />
		<tag k="ssr:stedsnr" v="636339" />
	</node>
	<node id="-516390" lat="58.6413583376" lon="8.88567777485">
		<tag k="name" v="Husmyr" />
		<tag k="natural" v="wetland" />
		<tag k="ssr:stedsnr" v="454862" />
	</node>
	<node id="-518436" lat="58.6534138859" lon="8.99251388119">
		<tag k="name" v="Stølkjærrene" />
		<tag k="natural" v="wetland" />
		<tag k="ssr:stedsnr" v="636328" />
	</node>
	<node id="-516387" lat="58.5698722228" lon="9.01263334192">
		<tag k="name" v="Svinhagen" />
		<tag k="place" v="locality" />
		<tag k="ssr:stedsnr" v="454734" />
	</node>
	<node id="-518431" lat="58.6921722195" lon="8.99847221377">
		<tag k="name" v="Moen" />
		<tag k="place" v="locality" />
		<tag k="ssr:stedsnr" v="636278" />
	</node>
	<node id="-518430" lat="58.6480611081" lon="8.76349166442">
		<tag k="name" v="Kartkjerr" />
		<tag k="natural" v="wetland" />
		<tag k="ssr:stedsnr" v="636130" />
	</node>
	<node id="-518428" lat="58.5990388881" lon="8.86316111422">
		<tag k="name" v="Lilleøygardsmyra" />
		<tag k="natural" v="wetland" />
		<tag k="ssr:stedsnr" v="636086" />
	</node>
	<node id="-516379" lat="58.6722805536" lon="8.86305834069">
		<tag k="name" v="Timmeråskjerr" />
		<tag k="natural" v="wetland" />
		<tag k="ssr:stedsnr" v="454843" />
	</node>
	<node id="-518426" lat="58.6585277757" lon="8.95981667466">
		<tag k="name" v="Engene" />
		<tag k="place" v="locality" />
		<tag k="ssr:stedsnr" v="636376" />
	</node>
	<node id="-516374" lat="58.6858805596" lon="8.99852221764">
		<tag k="name" v="Benkhagen" />
		<tag k="place" v="locality" />
		<tag k="ssr:stedsnr" v="454639" />
	</node>
	<node id="-516363" lat="58.6692916657" lon="9.08074443625">
		<tag k="name" v="Lefsekjerr" />
		<tag k="natural" v="wetland" />
		<tag k="ssr:stedsnr" v="454401" />
	</node>
	<node id="-516360" lat="58.6532722262" lon="8.98999721446">
		<tag k="name" v="Langmyr" />
		<tag k="natural" v="wetland" />
		<tag k="ssr:stedsnr" v="454377" />
	</node>
	<node id="-516347" lat="58.5766416684" lon="8.92103054823">
		<tag k="name" v="Skrubbura" />
		<tag k="natural" v="scree" />
		<tag k="ssr:stedsnr" v="454094" />
	</node>
	<node id="-516341" lat="58.565158332" lon="8.90454166648">
		<tag k="name" v="Tøehagen" />
		<tag k="place" v="locality" />
		<tag k="ssr:stedsnr" v="454069" />
	</node>
	<node id="-516339" lat="58.6470888883" lon="9.11402777153">
		<tag k="name" v="Hollmyra" />
		<tag k="place" v="locality" />
		<tag k="ssr:stedsnr" v="454063" />
	</node>
	<node id="-518384" lat="58.6619833341" lon="8.84489167357">
		<tag k="name" v="Ålekarkjærene" />
		<tag k="natural" v="wetland" />
		<tag k="ssr:stedsnr" v="575979" />
	</node>
	<node id="-518382" lat="58.6730805596" lon="8.85566111033">
		<tag k="name" v="Kjørgravmyra" />
		<tag k="natural" v="wetland" />
		<tag k="ssr:stedsnr" v="575820" />
	</node>
	<node id="-518381" lat="58.6690416693" lon="8.85769444619">
		<tag k="name" v="Lauvåsmyra" />
		<tag k="natural" v="wetland" />
		<tag k="ssr:stedsnr" v="575815" />
	</node>
	<node id="-518380" lat="58.6693666692" lon="8.86028611752">
		<tag k="name" v="Størrkjær" />
		<tag k="natural" v="wetland" />
		<tag k="ssr:stedsnr" v="575814" />
	</node>
	<node id="-518379" lat="58.6818777783" lon="8.87515833503">
		<tag k="name" v="Nedre Rotdalskjerret" />
		<tag k="natural" v="wetland" />
		<tag k="ssr:stedsnr" v="575803" />
	</node>
	<node id="-518378" lat="58.6770527813" lon="8.86556111543">
		<tag k="name" v="Djupkjerr" />
		<tag k="natural" v="wetland" />
		<tag k="ssr:stedsnr" v="575802" />
	</node>
	<node id="-518374" lat="58.6613416667" lon="8.88002221482">
		<tag k="name" v="Persbotnkjerra" />
		<tag k="natural" v="wetland" />
		<tag k="ssr:stedsnr" v="575963" />
	</node>
	<node id="-518371" lat="58.6602833295" lon="8.86960277178">
		<tag k="name" v="Karten" />
		<tag k="natural" v="wetland" />
		<tag k="ssr:stedsnr" v="575955" />
	</node>
	<node id="-518365" lat="58.6111916659" lon="8.91413888284">
		<tag k="name" v="Heståsmyra" />
		<tag k="natural" v="wetland" />
		<tag k="ssr:stedsnr" v="575633" />
	</node>
	<node id="-516314" lat="58.6200472236" lon="9.05551110409">
		<tag k="landuse" v="meadow" />
		<tag k="name" v="Karen Amalies åker" />
		<tag k="ssr:stedsnr" v="212410" />
	</node>
	<node id="-516313" lat="58.6463944435" lon="9.07444999851">
		<tag k="name" v="Lonmyra" />
		<tag k="natural" v="wetland" />
		<tag k="ssr:stedsnr" v="212116" />
	</node>
	<node id="-518358" lat="58.633627776" lon="9.0992222158">
		<tag k="name" v="Gullur" />
		<tag k="natural" v="scree" />
		<tag k="ssr:stedsnr" v="575445" />
	</node>
	<node id="-516309" lat="58.6708861132" lon="8.85719167131">
		<tag k="name" v="Larseskjerr" />
		<tag k="natural" v="wetland" />
		<tag k="ssr:stedsnr" v="211833" />
	</node>
	<node id="-518356" lat="58.6278999971" lon="9.07089999744">
		<tag k="name" v="Engene" />
		<tag k="place" v="locality" />
		<tag k="ssr:stedsnr" v="575440" />
	</node>
	<node id="-516306" lat="58.6810583318" lon="8.89681666923">
		<tag k="name" v="Moltekjerr" />
		<tag k="natural" v="wetland" />
		<tag k="ssr:stedsnr" v="211805" />
	</node>
	<node id="-516304" lat="58.6781055515" lon="9.04430554874">
		<tag k="name" v="Strandhagen" />
		<tag k="place" v="locality" />
		<tag k="ssr:stedsnr" v="211605" />
	</node>
	<node id="-516295" lat="58.580211107" lon="8.86935000775">
		<tag k="name" v="Foten" />
		<tag k="natural" v="wetland" />
		<tag k="ssr:stedsnr" v="211124" />
	</node>
	<node id="-518341" lat="58.6701583356" lon="9.05106944678">
		<tag k="name" v="Dragfjellkjerret" />
		<tag k="natural" v="wetland" />
		<tag k="ssr:stedsnr" v="575370" />
	</node>
	<node id="-518340" lat="58.6741472224" lon="9.05638610422">
		<tag k="name" v="Dørfjellvollen" />
		<tag k="place" v="locality" />
		<tag k="ssr:stedsnr" v="575366" />
	</node>
	<node id="-518338" lat="58.6665611087" lon="8.94543889075">
		<tag k="name" v="Midtstykket" />
		<tag k="natural" v="wetland" />
		<tag k="ssr:stedsnr" v="575360" />
	</node>
	<node id="-518334" lat="58.6567972205" lon="8.95933056411">
		<tag k="name" v="Tønna" />
		<tag k="place" v="locality" />
		<tag k="ssr:stedsnr" v="575333" />
	</node>
	<node id="-516285" lat="58.673124998" lon="8.84705556129">
		<tag k="name" v="Askekjær" />
		<tag k="natural" v="wetland" />
		<tag k="ssr:stedsnr" v="150818" />
	</node>
	<node id="-516284" lat="58.6685944427" lon="8.84591666494">
		<tag k="name" v="Dannmyra" />
		<tag k="natural" v="wetland" />
		<tag k="ssr:stedsnr" v="150814" />
	</node>
	<node id="-518331" lat="58.657869442" lon="9.01491389209">
		<tag k="name" v="Rangleåskjærret" />
		<tag k="natural" v="wetland" />
		<tag k="ssr:stedsnr" v="575298" />
	</node>
	<node id="-516280" lat="58.6136027746" lon="8.85854722623">
		<tag k="name" v="Terekjerr" />
		<tag k="natural" v="wetland" />
		<tag k="ssr:stedsnr" v="150906" />
	</node>
	<node id="-516278" lat="58.6425305575" lon="9.00967499209">
		<tag k="name" v="Langekjerr" />
		<tag k="natural" v="wetland" />
		<tag k="ssr:stedsnr" v="150720" />
	</node>
	<node id="-518319" lat="58.6682388918" lon="8.9487249935">
		<tag k="name" v="Geitebrustea" />
		<tag k="place" v="locality" />
		<tag k="ssr:stedsnr" v="575554" />
	</node>
	<node id="-516261" lat="58.5936694466" lon="9.0558972199">
		<tag k="name" v="Steinsvoll" />
		<tag k="place" v="locality" />
		<tag k="ssr:stedsnr" v="150512" />
	</node>
	<node id="-516259" lat="58.6661722229" lon="9.00672500119">
		<tag k="name" v="Rørkjærr" />
		<tag k="natural" v="wetland" />
		<tag k="ssr:stedsnr" v="150353" />
	</node>
	<node id="-516258" lat="58.689619448" lon="8.97844167058">
		<tag k="name" v="Skillerkjerret" />
		<tag k="natural" v="wetland" />
		<tag k="ssr:stedsnr" v="150310" />
	</node>
	<node id="-516253" lat="58.6373555535" lon="8.81930555923">
		<tag k="name" v="Bronmyr" />
		<tag k="natural" v="wetland" />
		<tag k="ssr:stedsnr" v="150007" />
	</node>
	<node id="-516242" lat="58.626688889" lon="8.82961943901">
		<tag k="name" v="Tjøregravmyr" />
		<tag k="natural" v="wetland" />
		<tag k="ssr:stedsnr" v="272945" />
	</node>
	<node id="-516240" lat="58.6320638932" lon="8.87996666377">
		<tag k="name" v="Mule" />
		<tag k="place" v="locality" />
		<tag k="ssr:stedsnr" v="272931" />
	</node>
	<node id="-516229" lat="58.6398111145" lon="8.93912499994">
		<tag k="name" v="Lauvåsbunnkjerrene" />
		<tag k="natural" v="wetland" />
		<tag k="ssr:stedsnr" v="272644" />
	</node>
	<node id="-516220" lat="58.6222194443" lon="8.99867221908">
		<tag k="name" v="Langekjerr" />
		<tag k="natural" v="wetland" />
		<tag k="ssr:stedsnr" v="272525" />
	</node>
	<node id="-516218" lat="58.6254416663" lon="9.03322222008">
		<tag k="name" v="Gardmellom" />
		<tag k="place" v="locality" />
		<tag k="ssr:stedsnr" v="272490" />
	</node>
	<node id="-516215" lat="58.6425111103" lon="9.10530555772">
		<tag k="name" v="Bronsmyr" />
		<tag k="natural" v="wetland" />
		<tag k="ssr:stedsnr" v="272446" />
	</node>
	<node id="-516203" lat="58.7006777782" lon="8.96041665901">
		<tag k="name" v="Byttingsmyra" />
		<tag k="natural" v="wetland" />
		<tag k="ssr:stedsnr" v="272299" />
	</node>
	<node id="-516202" lat="58.7014166686" lon="8.96984165885">
		<tag k="name" v="Kringlemyr" />
		<tag k="natural" v="wetland" />
		<tag k="ssr:stedsnr" v="272298" />
	</node>
	<node id="-516194" lat="58.5996555557" lon="8.7509583339">
		<tag k="name" v="Geitfjellmyrene" />
		<tag k="natural" v="wetland" />
		<tag k="ssr:stedsnr" v="272194" />
	</node>
	<node id="-518241" lat="58.6541944402" lon="8.76220555035">
		<tag k="name" v="Raudhellmyra" />
		<tag k="natural" v="wetland" />
		<tag k="ssr:stedsnr" v="395160" />
	</node>
	<node id="-518240" lat="58.6647694488" lon="8.87361110292">
		<tag k="name" v="Sveinumstadkjerr" />
		<tag k="natural" v="wetland" />
		<tag k="ssr:stedsnr" v="393988" />
	</node>
	<node id="-518237" lat="58.6761416701" lon="8.85537778131">
		<tag k="name" v="Nedre Langmyrkjerr" />
		<tag k="natural" v="wetland" />
		<tag k="ssr:stedsnr" v="393851" />
	</node>
	<node id="-518233" lat="58.6731638924" lon="8.93216667165">
		<tag k="name" v="Øvre Skottmyr" />
		<tag k="natural" v="wetland" />
		<tag k="ssr:stedsnr" v="393777" />
	</node>
	<node id="-518231" lat="58.5964999971" lon="8.92875833445">
		<tag k="name" v="Stormyr" />
		<tag k="natural" v="wetland" />
		<tag k="ssr:stedsnr" v="393886" />
	</node>
	<node id="-518229" lat="58.6592222214" lon="8.90518611346">
		<tag k="name" v="Kjerrgråmyr" />
		<tag k="natural" v="wetland" />
		<tag k="ssr:stedsnr" v="393738" />
	</node>
	<node id="-516173" lat="58.5882111154" lon="8.9708388891">
		<tag k="name" v="Skilsteinen" />
		<tag k="natural" v="stone" />
		<tag k="ssr:stedsnr" v="90619" />
	</node>
	<node id="-518217" lat="58.680544446" lon="8.93333888137">
		<tag k="name" v="Hogstene" />
		<tag k="place" v="locality" />
		<tag k="ssr:stedsnr" v="393771" />
	</node>
	<node id="-518209" lat="58.685791663" lon="8.97816111804">
		<tag k="name" v="Moltemyr" />
		<tag k="natural" v="wetland" />
		<tag k="ssr:stedsnr" v="393598" />
	</node>
	<node id="-518208" lat="58.6830222262" lon="8.98211111081">
		<tag k="name" v="Stuvannskjærrene" />
		<tag k="natural" v="wetland" />
		<tag k="ssr:stedsnr" v="393597" />
	</node>
	<node id="-518199" lat="58.6612222262" lon="9.02688611206">
		<tag k="name" v="Raset" />
		<tag k="natural" v="scree" />
		<tag k="ssr:stedsnr" v="393340" />
	</node>
	<node id="-518197" lat="58.6908555536" lon="8.95553610348">
		<tag k="name" v="Djupmyr" />
		<tag k="natural" v="wetland" />
		<tag k="ssr:stedsnr" v="393296" />
	</node>
	<node id="-518196" lat="58.6896638892" lon="8.97119721634">
		<tag k="name" v="Stormyrkilen" />
		<tag k="natural" v="wetland" />
		<tag k="ssr:stedsnr" v="393294" />
	</node>
	<node id="-518194" lat="58.6927750032" lon="9.0150527765">
		<tag k="name" v="Songemyra" />
		<tag k="place" v="locality" />
		<tag k="ssr:stedsnr" v="393279" />
	</node>
	<node id="-518193" lat="58.6901305553" lon="9.04005832634">
		<tag k="name" v="Kringlemyr" />
		<tag k="natural" v="wetland" />
		<tag k="ssr:stedsnr" v="393272" />
	</node>
	<node id="-516140" lat="58.6806722241" lon="8.9958583286">
		<tag k="name" v="Jeppesjordet" />
		<tag k="place" v="locality" />
		<tag k="ssr:stedsnr" v="29625" />
	</node>
	<node id="-518187" lat="58.6646750032" lon="8.94860555404">
		<tag k="name" v="Rundmyr" />
		<tag k="natural" v="wetland" />
		<tag k="ssr:stedsnr" v="393377" />
	</node>
	<node id="-516137" lat="58.6836305578" lon="8.95362500267">
		<tag k="name" v="Diblemyr" />
		<tag k="natural" v="wetland" />
		<tag k="ssr:stedsnr" v="29601" />
	</node>
	<node id="-516134" lat="58.6761638892" lon="8.95039166133">
		<tag k="name" v="Mårråstjennmyra" />
		<tag k="natural" v="wetland" />
		<tag k="ssr:stedsnr" v="29582" />
	</node>
	<node id="-518180" lat="58.5674499972" lon="8.90137499937">
		<tag k="name" v="Låmyr" />
		<tag k="natural" v="wetland" />
		<tag k="ssr:stedsnr" v="393101" />
	</node>
	<node id="-518174" lat="58.6667055576" lon="9.02293889669">
		<tag k="name" v="Stimyr" />
		<tag k="natural" v="wetland" />
		<tag k="ssr:stedsnr" v="393039" />
	</node>
</osm>
