<?xml version="1.0" encoding="UTF-8"?>
<osm version="0.6" generator="osmapis">
	<node lat="58.68488889294774" lon="8.957216659142192" id="-21477">
		<tag k="fixme" v="consider natural=peak for the most distinct mountains in the district" />
		<tag k="name" v="Hallandsheiane" />
		<tag k="natural" v="hill" />
		<tag k="place" v="locality" />
		<tag k="ssr:stedsnr" v="1493" />
	</node>
	<node lat="58.67486110926189" lon="8.848116660210064" id="-21482">
		<tag k="name" v="Stutåsdalen" />
		<tag k="natural" v="valley" />
		<tag k="place" v="locality" />
		<tag k="ssr:stedsnr" v="272814" />
	</node>
	<node lat="58.661999996091474" lon="9.079863890249742" id="-21487">
		<tag k="name" v="Storfjell" />
		<tag k="natural" v="hill" />
		<tag k="place" v="locality" />
		<tag k="ssr:stedsnr" v="29103" />
	</node>
	<node lat="58.648858336212854" lon="9.079297227119428" id="-21489">
		<tag k="fixme" v="consider natural=peak for the most distinct mountains in the district" />
		<tag k="name" v="Lille Jensesås" />
		<tag k="natural" v="hill" />
		<tag k="place" v="locality" />
		<tag k="ssr:stedsnr" v="29114" />
	</node>
	<node lat="58.65539166296531" lon="8.946550001056423" id="-21497">
		<tag k="fixme" v="consider natural=peak for the most distinct mountains in the district" />
		<tag k="name" v="Vardefjell" />
		<tag k="natural" v="hill" />
		<tag k="place" v="locality" />
		<tag k="ssr:stedsnr" v="29383" />
	</node>
	<node lat="58.67285833732288" lon="9.057838892378665" id="-21501">
		<tag k="fixme" v="consider natural=peak for the most distinct mountains in the district" />
		<tag k="name" v="Dørfjellheia" />
		<tag k="natural" v="hill" />
		<tag k="place" v="locality" />
		<tag k="ssr:stedsnr" v="29406" />
	</node>
	<node lat="58.674255553322126" lon="9.065705554837985" id="-21502">
		<tag k="fixme" v="consider natural=peak for the most distinct mountains in the district" />
		<tag k="name" v="Høgheia" />
		<tag k="natural" v="hill" />
		<tag k="place" v="locality" />
		<tag k="ssr:stedsnr" v="29409" />
	</node>
	<node lat="58.686399998287605" lon="9.067716664667449" id="-21503">
		<tag k="fixme" v="consider natural=peak for the most distinct mountains in the district" />
		<tag k="name" v="Sagåsen" />
		<tag k="natural" v="hill" />
		<tag k="place" v="locality" />
		<tag k="ssr:stedsnr" v="29415" />
	</node>
	<node lat="58.63836110794697" lon="8.962233336610401" id="-21518">
		<tag k="fixme" v="consider natural=peak for the most distinct mountains in the district" />
		<tag k="name" v="Svartfossheia" />
		<tag k="natural" v="hill" />
		<tag k="place" v="locality" />
		<tag k="ssr:stedsnr" v="29704" />
	</node>
	<node lat="58.656536114101414" lon="8.920386117057271" id="-21521">
		<tag k="fixme" v="consider natural=peak for the most distinct mountains in the district" />
		<tag k="name" v="Storrkjerrheia" />
		<tag k="natural" v="hill" />
		<tag k="place" v="locality" />
		<tag k="ssr:stedsnr" v="29766" />
	</node>
	<node lat="58.65989722108056" lon="8.884138894740515" id="-21522">
		<tag k="fixme" v="consider natural=peak for the most distinct mountains in the district" />
		<tag k="name" v="Persbotnheia" />
		<tag k="natural" v="hill" />
		<tag k="place" v="locality" />
		<tag k="ssr:stedsnr" v="29772" />
	</node>
	<node lat="58.60589444167933" lon="8.885794449697416" id="-21523">
		<tag k="name" v="Stutedalen" />
		<tag k="natural" v="valley" />
		<tag k="place" v="locality" />
		<tag k="ssr:stedsnr" v="29670" />
	</node>
	<node lat="58.57441666491975" lon="9.019561103295146" id="-21525">
		<tag k="fixme" v="consider natural=peak for the most distinct mountains in the district" />
		<tag k="name" v="Sørhei" />
		<tag k="natural" v="hill" />
		<tag k="place" v="locality" />
		<tag k="ssr:stedsnr" v="29681" />
	</node>
	<node lat="58.67919722578729" lon="8.899950004103598" id="-21527">
		<tag k="fixme" v="consider natural=peak for the most distinct mountains in the district" />
		<tag k="name" v="Laskheia" />
		<tag k="natural" v="hill" />
		<tag k="place" v="locality" />
		<tag k="ssr:stedsnr" v="29806" />
	</node>
	<node lat="58.67597500239412" lon="8.88070277919201" id="-21529">
		<tag k="fixme" v="consider natural=peak for the most distinct mountains in the district" />
		<tag k="name" v="Eikåsen" />
		<tag k="natural" v="hill" />
		<tag k="place" v="locality" />
		<tag k="ssr:stedsnr" v="29810" />
	</node>
	<node lat="58.68380833723324" lon="8.861522230357549" id="-21530">
		<tag k="fixme" v="consider natural=peak for the most distinct mountains in the district" />
		<tag k="name" v="Saukollen" />
		<tag k="natural" v="hill" />
		<tag k="place" v="locality" />
		<tag k="ssr:stedsnr" v="29811" />
	</node>
	<node lat="58.686955553615476" lon="8.87084722356915" id="-21532">
		<tag k="fixme" v="consider natural=peak for the most distinct mountains in the district" />
		<tag k="name" v="Risebufjell" />
		<tag k="natural" v="hill" />
		<tag k="place" v="locality" />
		<tag k="ssr:stedsnr" v="29815" />
	</node>
	<node lat="58.687052781305866" lon="8.853797230767466" id="-21533">
		<tag k="fixme" v="consider natural=peak for the most distinct mountains in the district" />
		<tag k="name" v="Skrefjell" />
		<tag k="natural" v="hill" />
		<tag k="place" v="locality" />
		<tag k="ssr:stedsnr" v="29821" />
	</node>
	<node lat="58.59728888758748" lon="8.925058335668103" id="-21537">
		<tag k="fixme" v="consider natural=peak for the most distinct mountains in the district" />
		<tag k="name" v="Langvassåsen" />
		<tag k="natural" v="hill" />
		<tag k="place" v="locality" />
		<tag k="ssr:stedsnr" v="29882" />
	</node>
	<node lat="58.65909722318767" lon="8.848263892698176" id="-21541">
		<tag k="fixme" v="consider natural=peak for the most distinct mountains in the district" />
		<tag k="name" v="Bronen" />
		<tag k="natural" v="hill" />
		<tag k="place" v="locality" />
		<tag k="ssr:stedsnr" v="29983" />
	</node>
	<node lat="58.69645555294816" lon="8.972824991414893" id="-21545">
		<tag k="fixme" v="consider natural=peak for the most distinct mountains in the district" />
		<tag k="name" v="Sandvassheia" />
		<tag k="natural" v="hill" />
		<tag k="place" v="locality" />
		<tag k="ssr:stedsnr" v="61474" />
	</node>
	<node lat="58.651224999533376" lon="8.880233331042415" id="-21547">
		<tag k="fixme" v="consider natural=peak for the most distinct mountains in the district" />
		<tag k="name" v="Rosselandsheia" />
		<tag k="natural" v="hill" />
		<tag k="place" v="locality" />
		<tag k="ssr:stedsnr" v="61395" />
	</node>
	<node lat="58.56589999566991" lon="8.86307499867996" id="-21561">
		<tag k="fixme" v="consider natural=peak for the most distinct mountains in the district" />
		<tag k="name" v="Holteknipen" />
		<tag k="natural" v="hill" />
		<tag k="place" v="locality" />
		<tag k="ssr:stedsnr" v="243256" />
	</node>
	<node lat="58.58028611398713" lon="8.876299994862396" id="-21568">
		<tag k="fixme" v="consider natural=peak for the most distinct mountains in the district" />
		<tag k="name" v="Husfjellheia" />
		<tag k="natural" v="hill" />
		<tag k="place" v="locality" />
		<tag k="ssr:stedsnr" v="243304" />
	</node>
	<node lat="58.63635278064214" lon="8.786541666784299" id="-21584">
		<tag k="fixme" v="consider natural=peak for the most distinct mountains in the district" />
		<tag k="name" v="Steeråsen" />
		<tag k="natural" v="hill" />
		<tag k="place" v="locality" />
		<tag k="ssr:stedsnr" v="90017" />
	</node>
	<node lat="58.563886107342846" lon="8.900791673452765" id="-21586">
		<tag k="fixme" v="consider natural=peak for the most distinct mountains in the district" />
		<tag k="name" v="Steinsfjell" />
		<tag k="natural" v="hill" />
		<tag k="place" v="locality" />
		<tag k="ssr:stedsnr" v="90071" />
	</node>
	<node lat="58.564241663342614" lon="8.916574998835124" id="-21588">
		<tag k="fixme" v="consider natural=peak for the most distinct mountains in the district" />
		<tag k="name" v="Eikeflaten" />
		<tag k="natural" v="hill" />
		<tag k="place" v="locality" />
		<tag k="ssr:stedsnr" v="90073" />
	</node>
	<node lat="58.5691416641898" lon="8.912769446062065" id="-21590">
		<tag k="fixme" v="consider natural=peak for the most distinct mountains in the district" />
		<tag k="name" v="Grimsliheia" />
		<tag k="natural" v="hill" />
		<tag k="place" v="locality" />
		<tag k="ssr:stedsnr" v="90083" />
	</node>
	<node lat="58.64998333015856" lon="9.080558327726992" id="-21593">
		<tag k="fixme" v="consider natural=peak for the most distinct mountains in the district" />
		<tag k="name" v="Store Jensesås" />
		<tag k="natural" v="hill" />
		<tag k="place" v="locality" />
		<tag k="ssr:stedsnr" v="90104" />
	</node>
	<node lat="58.559250002546435" lon="8.892675004938488" id="-21594">
		<tag k="fixme" v="consider natural=peak for the most distinct mountains in the district" />
		<tag k="name" v="Loråsen" />
		<tag k="natural" v="hill" />
		<tag k="place" v="locality" />
		<tag k="ssr:stedsnr" v="90106" />
	</node>
	<node lat="58.665772218834164" lon="9.087519448021682" id="-21599">
		<tag k="name" v="Stemmelia" />
		<tag k="natural" v="slope" />
		<tag k="place" v="locality" />
		<tag k="ssr:stedsnr" v="90389" />
	</node>
	<node lat="58.68391388943376" lon="8.999780554589137" id="-21603">
		<tag k="fixme" v="consider natural=peak for the most distinct mountains in the district" />
		<tag k="name" v="Lauvåsen" />
		<tag k="natural" v="hill" />
		<tag k="place" v="locality" />
		<tag k="ssr:stedsnr" v="90608" />
	</node>
	<node lat="58.63021667012376" lon="8.950222219250715" id="-21608">
		<tag k="name" v="Hallandsheia" />
		<tag k="natural" v="hill" />
		<tag k="place" v="locality" />
		<tag k="ssr:stedsnr" v="90676" />
	</node>
	<node lat="58.676958335284894" lon="8.951799994901913" id="-21611">
		<tag k="fixme" v="consider natural=peak for the most distinct mountains in the district" />
		<tag k="name" v="Mårråstjennknuten" />
		<tag k="natural" v="hill" />
		<tag k="place" v="locality" />
		<tag k="ssr:stedsnr" v="90570" />
	</node>
	<node lat="58.62641666981098" lon="8.962002775117904" id="-21613">
		<tag k="fixme" v="consider natural=peak for the most distinct mountains in the district" />
		<tag k="name" v="Husfjell" />
		<tag k="natural" v="hill" />
		<tag k="place" v="locality" />
		<tag k="ssr:stedsnr" v="90716" />
	</node>
	<node lat="58.64383889195875" lon="9.024127785164596" id="-21615">
		<tag k="fixme" v="consider natural=peak for the most distinct mountains in the district" />
		<tag k="name" v="Lauvåsen" />
		<tag k="natural" v="hill" />
		<tag k="place" v="locality" />
		<tag k="ssr:stedsnr" v="90720" />
	</node>
	<node lat="58.63986389174441" lon="8.86144444670405" id="-21619">
		<tag k="fixme" v="consider natural=peak for the most distinct mountains in the district" />
		<tag k="name" v="Daleheia" />
		<tag k="natural" v="hill" />
		<tag k="place" v="locality" />
		<tag k="ssr:stedsnr" v="90914" />
	</node>
	<node lat="58.64331666397005" lon="8.840394446733336" id="-21620">
		<tag k="name" v="Roheiene" />
		<tag k="natural" v="hill" />
		<tag k="place" v="locality" />
		<tag k="ssr:stedsnr" v="90916" />
	</node>
	<node lat="58.664016668550346" lon="8.869736108131178" id="-21622">
		<tag k="fixme" v="consider natural=peak for the most distinct mountains in the district" />
		<tag k="name" v="Bjørnåsen" />
		<tag k="natural" v="hill" />
		<tag k="place" v="locality" />
		<tag k="ssr:stedsnr" v="90981" />
	</node>
	<node lat="58.65829444854101" lon="8.918747224145058" id="-21623">
		<tag k="name" v="Bråtane" />
		<tag k="natural" v="slope" />
		<tag k="place" v="locality" />
		<tag k="ssr:stedsnr" v="90990" />
	</node>
	<node lat="58.66357777574748" lon="8.980194436774523" id="-21643">
		<tag k="fixme" v="consider natural=peak for the most distinct mountains in the district" />
		<tag k="name" v="Høgfjell" />
		<tag k="natural" v="hill" />
		<tag k="place" v="locality" />
		<tag k="ssr:stedsnr" v="122418" />
	</node>
	<node lat="58.589869444055836" lon="8.796455555866016" id="-21649">
		<tag k="fixme" v="consider natural=peak for the most distinct mountains in the district" />
		<tag k="name" v="Byttingsheia" />
		<tag k="natural" v="hill" />
		<tag k="place" v="locality" />
		<tag k="ssr:stedsnr" v="150058" />
	</node>
	<node lat="58.601375000474015" lon="8.867177775567203" id="-21650">
		<tag k="fixme" v="consider natural=peak for the most distinct mountains in the district" />
		<tag k="name" v="Bispeheia" />
		<tag k="natural" v="hill" />
		<tag k="place" v="locality" />
		<tag k="ssr:stedsnr" v="150065" />
	</node>
	<node lat="58.662391670227656" lon="9.10411388219089" id="-21654">
		<tag k="name" v="Fliseskotet" />
		<tag k="natural" v="slope" />
		<tag k="place" v="locality" />
		<tag k="ssr:stedsnr" v="150103" />
	</node>
	<node lat="58.55645000197428" lon="8.904863894838705" id="-21655">
		<tag k="fixme" v="consider natural=peak for the most distinct mountains in the district" />
		<tag k="name" v="Lisleås" />
		<tag k="natural" v="hill" />
		<tag k="place" v="locality" />
		<tag k="ssr:stedsnr" v="150111" />
	</node>
	<node lat="58.556011109251024" lon="8.888597222440877" id="-21656">
		<tag k="fixme" v="consider natural=peak for the most distinct mountains in the district" />
		<tag k="name" v="Lauvåsen" />
		<tag k="natural" v="hill" />
		<tag k="place" v="locality" />
		<tag k="ssr:stedsnr" v="150112" />
	</node>
	<node lat="58.55750277565336" lon="8.871780549969241" id="-21658">
		<tag k="fixme" v="consider natural=peak for the most distinct mountains in the district" />
		<tag k="name" v="Fiskebekkåsen" />
		<tag k="natural" v="hill" />
		<tag k="place" v="locality" />
		<tag k="ssr:stedsnr" v="150121" />
	</node>
	<node lat="58.604324996807456" lon="8.924316662559143" id="-21668">
		<tag k="fixme" v="consider natural=peak for the most distinct mountains in the district" />
		<tag k="name" v="Bronåsen" />
		<tag k="natural" v="hill" />
		<tag k="place" v="locality" />
		<tag k="ssr:stedsnr" v="150611" />
	</node>
	<node lat="58.58345833207299" lon="8.945058338951998" id="-21669">
		<tag k="fixme" v="consider natural=peak for the most distinct mountains in the district" />
		<tag k="name" v="Ørnåsen" />
		<tag k="natural" v="hill" />
		<tag k="place" v="locality" />
		<tag k="ssr:stedsnr" v="150616" />
	</node>
	<node lat="58.61075000387594" lon="8.956791663510042" id="-21674">
		<tag k="name" v="Rolvsdalen" />
		<tag k="natural" v="valley" />
		<tag k="place" v="locality" />
		<tag k="ssr:stedsnr" v="150523" />
	</node>
	<node lat="58.62194722372078" lon="8.9645472259493" id="-21675">
		<tag k="fixme" v="consider natural=peak for the most distinct mountains in the district" />
		<tag k="name" v="Langmyrheia" />
		<tag k="natural" v="hill" />
		<tag k="place" v="locality" />
		<tag k="ssr:stedsnr" v="150524" />
	</node>
	<node lat="58.60811944750904" lon="9.032922226794037" id="-21676">
		<tag k="fixme" v="consider natural=peak for the most distinct mountains in the district" />
		<tag k="name" v="Eidsåsen" />
		<tag k="natural" v="hill" />
		<tag k="place" v="locality" />
		<tag k="ssr:stedsnr" v="150555" />
	</node>
	<node lat="58.668794443071526" lon="8.94780277863975" id="-21677">
		<tag k="fixme" v="consider natural=peak for the most distinct mountains in the district" />
		<tag k="name" v="Lisleås" />
		<tag k="natural" v="hill" />
		<tag k="place" v="locality" />
		<tag k="ssr:stedsnr" v="150566" />
	</node>
	<node lat="58.682763892232224" lon="8.909202781160676" id="-21680">
		<tag k="name" v="Hysåsdalen" />
		<tag k="natural" v="valley" />
		<tag k="place" v="locality" />
		<tag k="ssr:stedsnr" v="150766" />
	</node>
	<node lat="58.68391111510278" lon="8.89323610529213" id="-21681">
		<tag k="name" v="Lyngheia" />
		<tag k="natural" v="ridge" />
		<tag k="place" v="locality" />
		<tag k="ssr:stedsnr" v="150771" />
	</node>
	<node lat="58.65426944888212" lon="8.877272230305412" id="-21690">
		<tag k="name" v="Stykket" />
		<tag k="natural" v="hill" />
		<tag k="place" v="locality" />
		<tag k="ssr:stedsnr" v="150962" />
	</node>
	<node lat="58.683524996234624" lon="8.856722215210302" id="-21691">
		<tag k="name" v="Kløfta" />
		<tag k="natural" v="valley" />
		<tag k="place" v="locality" />
		<tag k="ssr:stedsnr" v="150805" />
	</node>
	<node lat="58.66919166255581" lon="8.862825008188963" id="-21692">
		<tag k="fixme" v="consider natural=peak for the most distinct mountains in the district" />
		<tag k="name" v="Lauvåsen" />
		<tag k="natural" v="hill" />
		<tag k="place" v="locality" />
		<tag k="ssr:stedsnr" v="150809" />
	</node>
	<node lat="58.6702166683976" lon="8.849894451547058" id="-21693">
		<tag k="name" v="Østre Falkomkleiv" />
		<tag k="place" v="locality" />
		<tag k="ssr:stedsnr" v="150812" />
	</node>
	<node lat="58.68102777373027" lon="8.85608611164864" id="-21696">
		<tag k="name" v="Skarkedalen" />
		<tag k="natural" v="valley" />
		<tag k="place" v="locality" />
		<tag k="ssr:stedsnr" v="150822" />
	</node>
	<node lat="58.59931388755152" lon="8.921236104675149" id="-21697">
		<tag k="fixme" v="consider natural=peak for the most distinct mountains in the district" />
		<tag k="name" v="Langvassheia" />
		<tag k="natural" v="hill" />
		<tag k="place" v="locality" />
		<tag k="ssr:stedsnr" v="150865" />
	</node>
	<node lat="58.59133888987062" lon="8.927066669242546" id="-21698">
		<tag k="fixme" v="consider natural=peak for the most distinct mountains in the district" />
		<tag k="name" v="Kjerkeknollen" />
		<tag k="natural" v="hill" />
		<tag k="place" v="locality" />
		<tag k="ssr:stedsnr" v="150875" />
	</node>
	<node lat="58.6846555522692" lon="8.974074999858267" id="-21701">
		<tag k="name" v="Sjølskotbonnen" />
		<tag k="natural" v="valley" />
		<tag k="place" v="locality" />
		<tag k="ssr:stedsnr" v="272561" />
	</node>
	<node lat="58.58588333383057" lon="8.891225004107781" id="-21703">
		<tag k="alt_name" v="Hageheia" />
		<tag k="fixme" v="consider natural=peak for the most distinct mountains in the district" />
		<tag k="name" v="Hagenheia" />
		<tag k="natural" v="hill" />
		<tag k="place" v="locality" />
		<tag k="ssr:stedsnr" v="182305" />
	</node>
	<node lat="58.66289444699427" lon="9.110655555125733" id="-21718">
		<tag k="name" v="Folevannsheiene" />
		<tag k="natural" v="hill" />
		<tag k="place" v="locality" />
		<tag k="ssr:stedsnr" v="205324" />
	</node>
	<node lat="58.630299997628775" lon="9.118777779064892" id="-21719">
		<tag k="name" v="Steinen" />
		<tag k="place" v="locality" />
		<tag k="ssr:stedsnr" v="210674" />
	</node>
	<node lat="58.627733329003" lon="9.044152771014717" id="-21721">
		<tag k="fixme" v="consider natural=peak for the most distinct mountains in the district" />
		<tag k="name" v="Knuten" />
		<tag k="natural" v="hill" />
		<tag k="place" v="locality" />
		<tag k="ssr:stedsnr" v="210682" />
	</node>
	<node lat="58.602086115581784" lon="8.852916665354424" id="-21726">
		<tag k="name" v="Stortjenndalen" />
		<tag k="natural" v="valley" />
		<tag k="place" v="locality" />
		<tag k="ssr:stedsnr" v="211080" />
	</node>
	<node lat="58.5767833331827" lon="8.911130563582017" id="-21729">
		<tag k="name" v="Revstjenndalen" />
		<tag k="natural" v="valley" />
		<tag k="place" v="locality" />
		<tag k="ssr:stedsnr" v="211105" />
	</node>
	<node lat="58.65185833480569" lon="8.995108336800776" id="-21741">
		<tag k="fixme" v="consider natural=peak for the most distinct mountains in the district" />
		<tag k="name" v="Stølkjærrheia" />
		<tag k="natural" v="hill" />
		<tag k="place" v="locality" />
		<tag k="ssr:stedsnr" v="211332" />
	</node>
	<node lat="58.64957499604991" lon="8.99419722301284" id="-21742">
		<tag k="fixme" v="consider natural=peak for the most distinct mountains in the district" />
		<tag k="name" v="Nils Olsens klubbhei" />
		<tag k="natural" v="hill" />
		<tag k="place" v="locality" />
		<tag k="ssr:stedsnr" v="211337" />
	</node>
	<node lat="58.660769446619" lon="9.035572223115134" id="-21743">
		<tag k="name" v="Stemkjærrdalen" />
		<tag k="natural" v="valley" />
		<tag k="place" v="locality" />
		<tag k="ssr:stedsnr" v="211356" />
	</node>
	<node lat="58.61674166920307" lon="8.968591664131548" id="-21750">
		<tag k="fixme" v="consider natural=peak for the most distinct mountains in the district" />
		<tag k="name" v="Stuåsen" />
		<tag k="natural" v="hill" />
		<tag k="place" v="locality" />
		<tag k="ssr:stedsnr" v="211526" />
	</node>
	<node lat="58.63105277622423" lon="9.032661119528278" id="-21751">
		<tag k="name" v="Hudalen" />
		<tag k="natural" v="valley" />
		<tag k="place" v="locality" />
		<tag k="ssr:stedsnr" v="211537" />
	</node>
	<node lat="58.628272220021984" lon="9.00792222229007" id="-21752">
		<tag k="fixme" v="consider natural=peak for the most distinct mountains in the district" />
		<tag k="name" v="Møllskåheia" />
		<tag k="natural" v="hill" />
		<tag k="place" v="locality" />
		<tag k="ssr:stedsnr" v="211545" />
	</node>
	<node lat="58.67631110733219" lon="8.958769450041695" id="-21753">
		<tag k="name" v="Grønskot" />
		<tag k="natural" v="slope" />
		<tag k="place" v="locality" />
		<tag k="ssr:stedsnr" v="211579" />
	</node>
	<node lat="58.67450555602334" lon="8.962780558861748" id="-21754">
		<tag k="fixme" v="consider natural=peak for the most distinct mountains in the district" />
		<tag k="name" v="Lunde Grasåsen" />
		<tag k="natural" v="hill" />
		<tag k="place" v="locality" />
		<tag k="ssr:stedsnr" v="211581" />
	</node>
	<node lat="58.678336110458105" lon="8.955397214091262" id="-21756">
		<tag k="name" v="Ospekleiv" />
		<tag k="natural" v="slope" />
		<tag k="place" v="locality" />
		<tag k="ssr:stedsnr" v="211593" />
	</node>
	<node lat="58.613033331863654" lon="8.926272227390907" id="-21757">
		<tag k="fixme" v="consider natural=peak for the most distinct mountains in the district" />
		<tag k="name" v="Bronsbunapen" />
		<tag k="natural" v="hill" />
		<tag k="place" v="locality" />
		<tag k="ssr:stedsnr" v="211633" />
	</node>
	<node lat="58.59887777465246" lon="8.936930558144375" id="-21758">
		<tag k="name" v="Fløyheia" />
		<tag k="natural" v="hill" />
		<tag k="place" v="locality" />
		<tag k="ssr:stedsnr" v="211638" />
	</node>
	<node lat="58.63839444152502" lon="8.93669722442373" id="-21763">
		<tag k="name" v="Slottet" />
		<tag k="natural" v="hill" />
		<tag k="place" v="locality" />
		<tag k="ssr:stedsnr" v="211685" />
	</node>
	<node lat="58.675463885594716" lon="8.920391663967667" id="-21765">
		<tag k="fixme" v="consider natural=peak for the most distinct mountains in the district" />
		<tag k="name" v="Fantesengheia" />
		<tag k="natural" v="hill" />
		<tag k="place" v="locality" />
		<tag k="ssr:stedsnr" v="211810" />
	</node>
	<node lat="58.59351388711473" lon="8.909636104538752" id="-21768">
		<tag k="fixme" v="consider natural=peak for the most distinct mountains in the district" />
		<tag k="name" v="Bratteberg" />
		<tag k="natural" v="hill" />
		<tag k="place" v="locality" />
		<tag k="ssr:stedsnr" v="211896" />
	</node>
	<node lat="58.594305558349205" lon="8.885349994770694" id="-21769">
		<tag k="fixme" v="consider natural=peak for the most distinct mountains in the district" />
		<tag k="name" v="Loftsmyrheia" />
		<tag k="natural" v="hill" />
		<tag k="place" v="locality" />
		<tag k="ssr:stedsnr" v="211898" />
	</node>
	<node lat="58.64808333548771" lon="9.001991662362785" id="-21770">
		<tag k="name" v="Eikeskalet" />
		<tag k="natural" v="hill" />
		<tag k="place" v="locality" />
		<tag k="ssr:stedsnr" v="212032" />
	</node>
	<node lat="58.68582777637237" lon="8.908280554647142" id="-21772">
		<tag k="fixme" v="consider natural=peak for the most distinct mountains in the district" />
		<tag k="name" v="Lauvheia" />
		<tag k="natural" v="hill" />
		<tag k="place" v="locality" />
		<tag k="ssr:stedsnr" v="211789" />
	</node>
	<node lat="58.62327222230902" lon="8.866022221195596" id="-21775">
		<tag k="name" v="Napefjell" />
		<tag k="natural" v="ridge" />
		<tag k="place" v="locality" />
		<tag k="ssr:stedsnr" v="211902" />
	</node>
	<node lat="58.64119444208736" lon="8.877480555987791" id="-21776">
		<tag k="name" v="Årkjerrdalen" />
		<tag k="natural" v="valley" />
		<tag k="place" v="locality" />
		<tag k="ssr:stedsnr" v="211932" />
	</node>
	<node lat="58.66424722236106" lon="9.093958332412068" id="-21778">
		<tag k="name" v="Hasseldalen" />
		<tag k="natural" v="valley" />
		<tag k="place" v="locality" />
		<tag k="ssr:stedsnr" v="212104" />
	</node>
	<node lat="58.59303055273769" lon="8.991900002689093" id="-21781">
		<tag k="fixme" v="consider natural=peak for the most distinct mountains in the district" />
		<tag k="name" v="Brunåsen" />
		<tag k="natural" v="hill" />
		<tag k="place" v="locality" />
		<tag k="ssr:stedsnr" v="272639" />
	</node>
	<node lat="58.64007499849096" lon="8.97028054921768" id="-21783">
		<tag k="fixme" v="consider natural=peak for the most distinct mountains in the district" />
		<tag k="name" v="Ytre Mellommyrhei" />
		<tag k="natural" v="hill" />
		<tag k="place" v="locality" />
		<tag k="ssr:stedsnr" v="272646" />
	</node>
	<node lat="58.571194448290186" lon="9.001824997922897" id="-21786">
		<tag k="fixme" v="consider natural=peak for the most distinct mountains in the district" />
		<tag k="name" v="Milberghei" />
		<tag k="natural" v="hill" />
		<tag k="place" v="locality" />
		<tag k="ssr:stedsnr" v="272667" />
	</node>
	<node lat="58.644905551217384" lon="8.9713805625439" id="-21787">
		<tag k="name" v="Mellommyrheia" />
		<tag k="natural" v="hill" />
		<tag k="place" v="locality" />
		<tag k="ssr:stedsnr" v="272670" />
	</node>
	<node lat="58.68818611005111" lon="8.89310000639029" id="-21788">
		<tag k="name" v="Byttekjerrkollen" />
		<tag k="natural" v="hill" />
		<tag k="place" v="locality" />
		<tag k="ssr:stedsnr" v="272737" />
	</node>
	<node lat="58.68578056007388" lon="8.896530563238292" id="-21789">
		<tag k="fixme" v="consider natural=peak for the most distinct mountains in the district" />
		<tag k="name" v="Haukåsen" />
		<tag k="natural" v="hill" />
		<tag k="place" v="locality" />
		<tag k="ssr:stedsnr" v="272744" />
	</node>
	<node lat="58.636424998756226" lon="8.881452785479654" id="-21802">
		<tag k="fixme" v="consider natural=peak for the most distinct mountains in the district" />
		<tag k="name" v="Langåsen" />
		<tag k="natural" v="hill" />
		<tag k="place" v="locality" />
		<tag k="ssr:stedsnr" v="244396" />
	</node>
	<node lat="58.63373610838425" lon="8.79322777813885" id="-21806">
		<tag k="fixme" v="consider natural=peak for the most distinct mountains in the district" />
		<tag k="name" v="Brunåsen" />
		<tag k="natural" v="hill" />
		<tag k="place" v="locality" />
		<tag k="ssr:stedsnr" v="244792" />
	</node>
	<node lat="58.6559583374117" lon="9.07353332674868" id="-21810">
		<tag k="name" v="Haredalen" />
		<tag k="natural" v="valley" />
		<tag k="place" v="locality" />
		<tag k="ssr:stedsnr" v="454090" />
	</node>
	<node lat="58.66135277639741" lon="9.063169448148527" id="-21812">
		<tag k="name" v="Bøykersheiene" />
		<tag k="natural" v="hill" />
		<tag k="place" v="locality" />
		<tag k="ssr:stedsnr" v="454100" />
	</node>
	<node lat="58.573408335119716" lon="8.864444437343861" id="-21813">
		<tag k="name" v="Almedalen" />
		<tag k="natural" v="valley" />
		<tag k="place" v="locality" />
		<tag k="ssr:stedsnr" v="454101" />
	</node>
	<node lat="58.57051666275227" lon="8.878363895927405" id="-21815">
		<tag k="fixme" v="consider natural=peak for the most distinct mountains in the district" />
		<tag k="name" v="Kyråsheia" />
		<tag k="natural" v="hill" />
		<tag k="place" v="locality" />
		<tag k="ssr:stedsnr" v="454108" />
	</node>
	<node lat="58.6585999981214" lon="8.89718055588248" id="-21817">
		<tag k="name" v="Heståsdalen" />
		<tag k="natural" v="valley" />
		<tag k="place" v="locality" />
		<tag k="ssr:stedsnr" v="454790" />
	</node>
	<node lat="58.62888332922638" lon="8.921949997650664" id="-21819">
		<tag k="fixme" v="consider natural=peak for the most distinct mountains in the district" />
		<tag k="name" v="Søsterdalsheia" />
		<tag k="natural" v="hill" />
		<tag k="place" v="locality" />
		<tag k="ssr:stedsnr" v="454887" />
	</node>
	<node lat="58.60846666317874" lon="8.77949166736128" id="-21822">
		<tag k="fixme" v="consider natural=peak for the most distinct mountains in the district" />
		<tag k="name" v="Røyåsen" />
		<tag k="natural" v="hill" />
		<tag k="place" v="locality" />
		<tag k="ssr:stedsnr" v="454032" />
	</node>
	<node lat="58.60054722158756" lon="8.74871388839694" id="-21824">
		<tag k="fixme" v="consider natural=peak for the most distinct mountains in the district" />
		<tag k="name" v="Geitfjell" />
		<tag k="natural" v="hill" />
		<tag k="place" v="locality" />
		<tag k="ssr:stedsnr" v="454196" />
	</node>
	<node lat="58.66396667112749" lon="9.017283334637314" id="-21827">
		<tag k="fixme" v="consider natural=peak for the most distinct mountains in the district" />
		<tag k="name" v="Kalvetjennheia" />
		<tag k="natural" v="hill" />
		<tag k="place" v="locality" />
		<tag k="ssr:stedsnr" v="454359" />
	</node>
	<node lat="58.58964722336141" lon="8.8676166672845" id="-21832">
		<tag k="fixme" v="consider natural=peak for the most distinct mountains in the district" />
		<tag k="name" v="Snusheia" />
		<tag k="natural" v="hill" />
		<tag k="place" v="locality" />
		<tag k="ssr:stedsnr" v="454053" />
	</node>
	<node lat="58.69900277458296" lon="9.066516672893147" id="-21834">
		<tag k="fixme" v="consider natural=peak for the most distinct mountains in the district" />
		<tag k="name" v="Lilleåsen" />
		<tag k="natural" v="hill" />
		<tag k="place" v="locality" />
		<tag k="ssr:stedsnr" v="454058" />
	</node>
	<node lat="58.69507499678221" lon="9.01173888126488" id="-21836">
		<tag k="fixme" v="consider natural=peak for the most distinct mountains in the district" />
		<tag k="name" v="Boråsknuten" />
		<tag k="natural" v="hill" />
		<tag k="place" v="locality" />
		<tag k="ssr:stedsnr" v="454293" />
	</node>
	<node lat="58.64465277885244" lon="9.058811105488653" id="-21841">
		<tag k="fixme" v="consider natural=peak for the most distinct mountains in the district" />
		<tag k="name" v="Gjøseidåsen" />
		<tag k="natural" v="hill" />
		<tag k="place" v="locality" />
		<tag k="ssr:stedsnr" v="454490" />
	</node>
	<node lat="58.61815277466085" lon="8.954272229196008" id="-21845">
		<tag k="name" v="Stamnesliene" />
		<tag k="natural" v="slope" />
		<tag k="place" v="locality" />
		<tag k="ssr:stedsnr" v="454519" />
	</node>
	<node lat="58.62927777783806" lon="9.023463881634413" id="-21849">
		<tag k="name" v="Sagvannsliene" />
		<tag k="natural" v="slope" />
		<tag k="place" v="locality" />
		<tag k="ssr:stedsnr" v="454547" />
	</node>
	<node lat="58.67111666338267" lon="9.017719446162294" id="-21850">
		<tag k="name" v="Steinkleiv" />
		<tag k="natural" v="slope" />
		<tag k="place" v="locality" />
		<tag k="ssr:stedsnr" v="454616" />
	</node>
	<node lat="58.68185833721149" lon="9.022997225973091" id="-21851">
		<tag k="name" v="Tåterkleiv" />
		<tag k="natural" v="slope" />
		<tag k="place" v="locality" />
		<tag k="ssr:stedsnr" v="454624" />
	</node>
	<node lat="58.56761111389951" lon="9.010186117101258" id="-21855">
		<tag k="name" v="Langhei" />
		<tag k="natural" v="hill" />
		<tag k="place" v="locality" />
		<tag k="ssr:stedsnr" v="454730" />
	</node>
	<node lat="58.57083889204295" lon="9.005516663978797" id="-21856">
		<tag k="fixme" v="consider natural=peak for the most distinct mountains in the district" />
		<tag k="name" v="Flaufjell" />
		<tag k="natural" v="hill" />
		<tag k="place" v="locality" />
		<tag k="ssr:stedsnr" v="454733" />
	</node>
	<node lat="58.640252782092475" lon="9.00788333355045" id="-21859">
		<tag k="fixme" v="consider natural=peak for the most distinct mountains in the district" />
		<tag k="name" v="Goås" />
		<tag k="natural" v="hill" />
		<tag k="place" v="locality" />
		<tag k="ssr:stedsnr" v="454748" />
	</node>
	<node lat="58.63251944670549" lon="9.003161103129727" id="-21860">
		<tag k="name" v="Gunnarsmyrhompane" />
		<tag k="natural" v="hill" />
		<tag k="place" v="locality" />
		<tag k="ssr:stedsnr" v="454756" />
	</node>
	<node lat="58.67061389109012" lon="8.867016667539449" id="-21864">
		<tag k="fixme" v="consider natural=peak for the most distinct mountains in the district" />
		<tag k="name" v="Høghei" />
		<tag k="natural" v="hill" />
		<tag k="place" v="locality" />
		<tag k="ssr:stedsnr" v="454847" />
	</node>
	<node lat="58.638791670693536" lon="8.845558325987186" id="-21865">
		<tag k="fixme" v="consider natural=peak for the most distinct mountains in the district" />
		<tag k="name" v="Grøåsheia" />
		<tag k="natural" v="hill" />
		<tag k="place" v="locality" />
		<tag k="ssr:stedsnr" v="454933" />
	</node>
	<node lat="58.66302222076244" lon="8.858361109825118" id="-21867">
		<tag k="fixme" v="consider natural=peak for the most distinct mountains in the district" />
		<tag k="name" v="Blauthausen" />
		<tag k="natural" v="hill" />
		<tag k="place" v="locality" />
		<tag k="ssr:stedsnr" v="454980" />
	</node>
	<node lat="58.6609499974578" lon="8.862783340059401" id="-21868">
		<tag k="name" v="Grandalen" />
		<tag k="natural" v="valley" />
		<tag k="place" v="locality" />
		<tag k="ssr:stedsnr" v="454981" />
	</node>
	<node lat="58.65948055905913" lon="8.844005547250527" id="-21869">
		<tag k="name" v="Tollbakken" />
		<tag k="natural" v="slope" />
		<tag k="place" v="locality" />
		<tag k="ssr:stedsnr" v="454988" />
	</node>
	<node lat="58.627466670198004" lon="8.78276666970032" id="-21872">
		<tag k="name" v="Tjenndalen" />
		<tag k="natural" v="valley" />
		<tag k="place" v="locality" />
		<tag k="ssr:stedsnr" v="272004" />
	</node>
	<node lat="58.6056944462001" lon="8.816061110218135" id="-21874">
		<tag k="fixme" v="consider natural=peak for the most distinct mountains in the district" />
		<tag k="name" v="Heirefjell" />
		<tag k="natural" v="hill" />
		<tag k="place" v="locality" />
		<tag k="ssr:stedsnr" v="272031" />
	</node>
	<node lat="58.65719166560334" lon="9.071824992854737" id="-21877">
		<tag k="name" v="Reinsfjelldalen" />
		<tag k="natural" v="valley" />
		<tag k="place" v="locality" />
		<tag k="ssr:stedsnr" v="272114" />
	</node>
	<node lat="58.66039167091718" lon="9.085369446314886" id="-21878">
		<tag k="fixme" v="consider natural=peak for the most distinct mountains in the district" />
		<tag k="name" v="Aunefjell" />
		<tag k="natural" v="hill" />
		<tag k="place" v="locality" />
		<tag k="ssr:stedsnr" v="272116" />
	</node>
	<node lat="58.647266671111105" lon="9.084505547473805" id="-21879">
		<tag k="fixme" v="consider natural=peak for the most distinct mountains in the district" />
		<tag k="name" v="Kvigeåsen" />
		<tag k="natural" v="hill" />
		<tag k="place" v="locality" />
		<tag k="ssr:stedsnr" v="272122" />
	</node>
	<node lat="58.65162500399851" lon="9.093863893984139" id="-21880">
		<tag k="name" v="Orebudalen" />
		<tag k="natural" v="valley" />
		<tag k="place" v="locality" />
		<tag k="ssr:stedsnr" v="272123" />
	</node>
	<node lat="58.65637222471426" lon="9.09461389056788" id="-21881">
		<tag k="name" v="Byttingsdalen" />
		<tag k="natural" v="valley" />
		<tag k="place" v="locality" />
		<tag k="ssr:stedsnr" v="272126" />
	</node>
	<node lat="58.69336388667364" lon="8.968108329085068" id="-21882">
		<tag k="fixme" v="consider natural=peak for the most distinct mountains in the district" />
		<tag k="name" v="Stormyrheia" />
		<tag k="natural" v="hill" />
		<tag k="place" v="locality" />
		<tag k="ssr:stedsnr" v="272284" />
	</node>
	<node lat="58.62324721794343" lon="9.088411113006929" id="-21887">
		<tag k="fixme" v="consider natural=peak for the most distinct mountains in the district" />
		<tag k="name" v="Skallen" />
		<tag k="natural" v="hill" />
		<tag k="place" v="locality" />
		<tag k="ssr:stedsnr" v="272413" />
	</node>
	<node lat="58.671261113895525" lon="9.081033337559147" id="-21893">
		<tag k="name" v="Kolbotn" />
		<tag k="natural" v="valley" />
		<tag k="place" v="locality" />
		<tag k="ssr:stedsnr" v="272391" />
	</node>
	<node lat="58.664180559160116" lon="9.084997219847061" id="-21894">
		<tag k="name" v="Dalen" />
		<tag k="natural" v="valley" />
		<tag k="place" v="locality" />
		<tag k="ssr:stedsnr" v="272393" />
	</node>
	<node lat="58.62708333342584" lon="8.97218888912445" id="-21907">
		<tag k="fixme" v="consider natural=peak for the most distinct mountains in the district" />
		<tag k="name" v="Hestnesheia" />
		<tag k="natural" v="hill" />
		<tag k="place" v="locality" />
		<tag k="ssr:stedsnr" v="272691" />
	</node>
	<node lat="58.67398888966937" lon="8.900430551499706" id="-21911">
		<tag k="fixme" v="consider natural=peak for the most distinct mountains in the district" />
		<tag k="name" v="Vakerknatten" />
		<tag k="natural" v="hill" />
		<tag k="place" v="locality" />
		<tag k="ssr:stedsnr" v="272789" />
	</node>
	<node lat="58.5932916650177" lon="8.930433337047148" id="-21913">
		<tag k="fixme" v="consider natural=peak for the most distinct mountains in the district" />
		<tag k="name" v="Hantovalen" />
		<tag k="natural" v="hill" />
		<tag k="place" v="locality" />
		<tag k="ssr:stedsnr" v="272873" />
	</node>
	<node lat="58.591697219182834" lon="8.903397230812091" id="-21915">
		<tag k="fixme" v="consider natural=peak for the most distinct mountains in the district" />
		<tag k="name" v="Skrubbedalsheia" />
		<tag k="natural" v="hill" />
		<tag k="place" v="locality" />
		<tag k="ssr:stedsnr" v="272881" />
	</node>
	<node lat="58.66213056005175" lon="8.86064444669944" id="-21916">
		<tag k="name" v="Urdalen" />
		<tag k="natural" v="valley" />
		<tag k="place" v="locality" />
		<tag k="ssr:stedsnr" v="272971" />
	</node>
	<node lat="58.68222222287159" lon="9.079044445180356" id="-21933">
		<tag k="fixme" v="consider natural=peak for the most distinct mountains in the district" />
		<tag k="name" v="Laghauet" />
		<tag k="natural" v="hill" />
		<tag k="place" v="locality" />
		<tag k="ssr:stedsnr" v="331651" />
	</node>
	<node lat="58.628138889228" lon="8.80829165955244" id="-21934">
		<tag k="name" v="Glytjennåsen" />
		<tag k="natural" v="hill" />
		<tag k="place" v="locality" />
		<tag k="ssr:stedsnr" v="333002" />
	</node>
	<node lat="58.63264166289438" lon="8.763574999965295" id="-21936">
		<tag k="fixme" v="consider natural=peak for the most distinct mountains in the district" />
		<tag k="name" v="Vølandsåsen" />
		<tag k="natural" v="hill" />
		<tag k="place" v="locality" />
		<tag k="ssr:stedsnr" v="333022" />
	</node>
	<node lat="58.65888611301186" lon="9.048263881260294" id="-21941">
		<tag k="fixme" v="consider natural=peak for the most distinct mountains in the district" />
		<tag k="name" v="Skarkedalsheiene" />
		<tag k="natural" v="hill" />
		<tag k="place" v="locality" />
		<tag k="ssr:stedsnr" v="333106" />
	</node>
	<node lat="58.660786106985164" lon="9.04988611699238" id="-21942">
		<tag k="name" v="Skarkedalen" />
		<tag k="natural" v="valley" />
		<tag k="place" v="locality" />
		<tag k="ssr:stedsnr" v="333107" />
	</node>
	<node lat="58.55992499796216" lon="8.91546111364704" id="-21947">
		<tag k="fixme" v="consider natural=peak for the most distinct mountains in the district" />
		<tag k="name" v="Løvstakkheia" />
		<tag k="natural" v="hill" />
		<tag k="place" v="locality" />
		<tag k="ssr:stedsnr" v="333123" />
	</node>
	<node lat="58.69268611244085" lon="8.995838892012275" id="-21948">
		<tag k="name" v="Skusleskot" />
		<tag k="natural" v="slope" />
		<tag k="place" v="locality" />
		<tag k="ssr:stedsnr" v="333304" />
	</node>
	<node lat="58.6697388845742" lon="8.962955563076887" id="-21956">
		<tag k="fixme" v="consider natural=peak for the most distinct mountains in the district" />
		<tag k="name" v="Bronheia" />
		<tag k="natural" v="hill" />
		<tag k="place" v="locality" />
		<tag k="ssr:stedsnr" v="333565" />
	</node>
	<node lat="58.66146666929131" lon="8.954833327652613" id="-21959">
		<tag k="name" v="Vendalen" />
		<tag k="natural" v="valley" />
		<tag k="place" v="locality" />
		<tag k="ssr:stedsnr" v="333402" />
	</node>
	<node lat="58.66864166272758" lon="9.04458054930038" id="-21960">
		<tag k="fixme" v="consider natural=peak for the most distinct mountains in the district" />
		<tag k="name" v="Røyåsen" />
		<tag k="natural" v="hill" />
		<tag k="place" v="locality" />
		<tag k="ssr:stedsnr" v="333404" />
	</node>
	<node lat="58.61831944405532" lon="9.088511104473975" id="-21962">
		<tag k="name" v="Kloppedalen" />
		<tag k="natural" v="valley" />
		<tag k="place" v="locality" />
		<tag k="ssr:stedsnr" v="333456" />
	</node>
	<node lat="58.633474995561755" lon="9.063663895914091" id="-21964">
		<tag k="fixme" v="consider natural=peak for the most distinct mountains in the district" />
		<tag k="name" v="Bikjeheia" />
		<tag k="natural" v="hill" />
		<tag k="place" v="locality" />
		<tag k="ssr:stedsnr" v="333500" />
	</node>
	<node lat="58.637902776957986" lon="9.007686108988509" id="-21968">
		<tag k="name" v="Dypholet" />
		<tag k="natural" v="valley" />
		<tag k="place" v="locality" />
		<tag k="ssr:stedsnr" v="333708" />
	</node>
	<node lat="58.6770666642521" lon="8.88730277090227" id="-21969">
		<tag k="fixme" v="consider natural=peak for the most distinct mountains in the district" />
		<tag k="name" v="Rotfjellheia" />
		<tag k="natural" v="hill" />
		<tag k="place" v="locality" />
		<tag k="ssr:stedsnr" v="333798" />
	</node>
	<node lat="58.614077778202756" lon="8.864041660480169" id="-21972">
		<tag k="name" v="Gravbergene" />
		<tag k="natural" v="ridge" />
		<tag k="place" v="locality" />
		<tag k="ssr:stedsnr" v="333913" />
	</node>
	<node lat="58.606886109247775" lon="8.867224995843412" id="-21974">
		<tag k="fixme" v="consider natural=peak for the most distinct mountains in the district" />
		<tag k="name" v="Preståsen" />
		<tag k="natural" v="hill" />
		<tag k="place" v="locality" />
		<tag k="ssr:stedsnr" v="333925" />
	</node>
	<node lat="58.650258337725134" lon="8.86854165890694" id="-21976">
		<tag k="name" v="Svenskedalen" />
		<tag k="natural" v="valley" />
		<tag k="place" v="locality" />
		<tag k="ssr:stedsnr" v="333954" />
	</node>
	<node lat="58.580266667607184" lon="9.007219438293347" id="-21980">
		<tag k="name" v="Bærmoen" />
		<tag k="place" v="locality" />
		<tag k="ssr:stedsnr" v="333656" />
	</node>
	<node lat="58.57617777669033" lon="9.002597222871383" id="-21981">
		<tag k="name" v="Dyngeknuten" />
		<tag k="natural" v="hill" />
		<tag k="place" v="locality" />
		<tag k="ssr:stedsnr" v="333659" />
	</node>
	<node lat="58.64270833190039" lon="8.985391661190148" id="-21982">
		<tag k="name" v="Tyttebærheia" />
		<tag k="natural" v="hill" />
		<tag k="place" v="locality" />
		<tag k="ssr:stedsnr" v="333699" />
	</node>
	<node lat="58.6796638877835" lon="8.915855558768726" id="-21984">
		<tag k="fixme" v="consider natural=peak for the most distinct mountains in the district" />
		<tag k="name" v="Maltåsen" />
		<tag k="natural" v="hill" />
		<tag k="place" v="locality" />
		<tag k="ssr:stedsnr" v="333804" />
	</node>
	<node lat="58.66881111558588" lon="8.930397214524607" id="-21986">
		<tag k="fixme" v="consider natural=peak for the most distinct mountains in the district" />
		<tag k="name" v="Bronåsen" />
		<tag k="natural" v="hill" />
		<tag k="place" v="locality" />
		<tag k="ssr:stedsnr" v="333819" />
	</node>
	<node lat="58.693805554364076" lon="8.983833334049248" id="-21992">
		<tag k="fixme" v="consider natural=peak for the most distinct mountains in the district" />
		<tag k="name" v="Langmyrheia" />
		<tag k="natural" v="hill" />
		<tag k="place" v="locality" />
		<tag k="ssr:stedsnr" v="364503" />
	</node>
	<node lat="58.632919445907525" lon="8.81863610968342" id="-22001">
		<tag k="name" v="Klubbåsen" />
		<tag k="natural" v="hill" />
		<tag k="place" v="locality" />
		<tag k="ssr:stedsnr" v="365796" />
	</node>
	<node lat="58.578999995655934" lon="9.01105833685089" id="-22005">
		<tag k="fixme" v="consider natural=peak for the most distinct mountains in the district" />
		<tag k="name" v="Rendalsfjell" />
		<tag k="natural" v="hill" />
		<tag k="place" v="locality" />
		<tag k="ssr:stedsnr" v="391691" />
	</node>
	<node lat="58.627411110586294" lon="8.799830560811863" id="-22006">
		<tag k="name" v="Grandalen" />
		<tag k="natural" v="valley" />
		<tag k="place" v="locality" />
		<tag k="ssr:stedsnr" v="393001" />
	</node>
	<node lat="58.57669722123698" lon="8.891127784036895" id="-22008">
		<tag k="fixme" v="consider natural=peak for the most distinct mountains in the district" />
		<tag k="name" v="Kleppsåsen" />
		<tag k="natural" v="hill" />
		<tag k="place" v="locality" />
		<tag k="ssr:stedsnr" v="393106" />
	</node>
	<node lat="58.663241668034765" lon="9.072541673156069" id="-22009">
		<tag k="fixme" v="consider natural=peak for the most distinct mountains in the district" />
		<tag k="name" v="Hestedalsknuten" />
		<tag k="natural" v="hill" />
		<tag k="place" v="locality" />
		<tag k="ssr:stedsnr" v="393112" />
	</node>
	<node lat="58.65217777660336" lon="9.075300007761724" id="-22010">
		<tag k="name" v="Vierhola" />
		<tag k="natural" v="valley" />
		<tag k="place" v="locality" />
		<tag k="ssr:stedsnr" v="393131" />
	</node>
	<node lat="58.631433332530044" lon="8.774538894699148" id="-22013">
		<tag k="fixme" v="consider natural=peak for the most distinct mountains in the district" />
		<tag k="name" v="Høglauvås" />
		<tag k="natural" v="hill" />
		<tag k="place" v="locality" />
		<tag k="ssr:stedsnr" v="393002" />
	</node>
	<node lat="58.63238888557509" lon="8.820405550274982" id="-22014">
		<tag k="name" v="Klubbdalen" />
		<tag k="natural" v="valley" />
		<tag k="place" v="locality" />
		<tag k="ssr:stedsnr" v="393005" />
	</node>
	<node lat="58.60475556006057" lon="8.804683331357275" id="-22016">
		<tag k="name" v="Kjerkeliene" />
		<tag k="natural" v="slope" />
		<tag k="place" v="locality" />
		<tag k="ssr:stedsnr" v="393031" />
	</node>
	<node lat="58.613963887850176" lon="8.796430561767885" id="-22018">
		<tag k="fixme" v="consider natural=peak for the most distinct mountains in the district" />
		<tag k="name" v="Rønningheia" />
		<tag k="natural" v="hill" />
		<tag k="place" v="locality" />
		<tag k="ssr:stedsnr" v="393042" />
	</node>
	<node lat="58.62705833724588" lon="9.04336944700966" id="-22020">
		<tag k="name" v="Knuten" />
		<tag k="natural" v="hill" />
		<tag k="place" v="locality" />
		<tag k="ssr:stedsnr" v="393093" />
	</node>
	<node lat="58.64646666401444" lon="8.89733333811365" id="-22021">
		<tag k="fixme" v="consider natural=peak for the most distinct mountains in the district" />
		<tag k="name" v="Stokkebuåsen" />
		<tag k="natural" v="hill" />
		<tag k="place" v="locality" />
		<tag k="ssr:stedsnr" v="393098" />
	</node>
	<node lat="58.698374998387486" lon="8.981880548437053" id="-22023">
		<tag k="name" v="Fløyheia" />
		<tag k="natural" v="hill" />
		<tag k="place" v="locality" />
		<tag k="ssr:stedsnr" v="393303" />
	</node>
	<node lat="58.6603722216307" lon="9.041369442563955" id="-22026">
		<tag k="name" v="Timmermannskleiva" />
		<tag k="natural" v="slope" />
		<tag k="place" v="locality" />
		<tag k="ssr:stedsnr" v="393343" />
	</node>
	<node lat="58.66493333572414" lon="9.043125004014243" id="-22027">
		<tag k="name" v="Østre Eikeskaret" />
		<tag k="natural" v="valley" />
		<tag k="place" v="locality" />
		<tag k="ssr:stedsnr" v="393344" />
	</node>
	<node lat="58.67190278172545" lon="9.05482499450021" id="-22028">
		<tag k="fixme" v="consider natural=peak for the most distinct mountains in the district" />
		<tag k="name" v="Hofsdalshei" />
		<tag k="natural" v="hill" />
		<tag k="place" v="locality" />
		<tag k="ssr:stedsnr" v="393394" />
	</node>
	<node lat="58.61971111490048" lon="8.89944999566271" id="-22039">
		<tag k="fixme" v="consider natural=peak for the most distinct mountains in the district" />
		<tag k="name" v="Bjørnsfjell" />
		<tag k="natural" v="hill" />
		<tag k="place" v="locality" />
		<tag k="ssr:stedsnr" v="393636" />
	</node>
	<node lat="58.61723888498648" lon="8.904269451876983" id="-22042">
		<tag k="fixme" v="consider natural=peak for the most distinct mountains in the district" />
		<tag k="name" v="Kalsåsen" />
		<tag k="natural" v="hill" />
		<tag k="place" v="locality" />
		<tag k="ssr:stedsnr" v="393645" />
	</node>
	<node lat="58.605933334659916" lon="8.89863889731719" id="-22043">
		<tag k="name" v="Vennevannsliene" />
		<tag k="natural" v="slope" />
		<tag k="place" v="locality" />
		<tag k="ssr:stedsnr" v="393649" />
	</node>
	<node lat="58.60506110664657" lon="8.82811665824831" id="-22045">
		<tag k="fixme" v="consider natural=peak for the most distinct mountains in the district" />
		<tag k="name" v="Reveheia" />
		<tag k="natural" v="hill" />
		<tag k="place" v="locality" />
		<tag k="ssr:stedsnr" v="393910" />
	</node>
	<node lat="58.6545250011102" lon="8.85901111422125" id="-22048">
		<tag k="name" v="Furuhotten" />
		<tag k="natural" v="hill" />
		<tag k="place" v="locality" />
		<tag k="ssr:stedsnr" v="393951" />
	</node>
	<node lat="58.6745750021512" lon="8.913677775751705" id="-22049">
		<tag k="fixme" v="consider natural=peak for the most distinct mountains in the district" />
		<tag k="name" v="Øversteåsen" />
		<tag k="natural" v="hill" />
		<tag k="place" v="locality" />
		<tag k="ssr:stedsnr" v="393811" />
	</node>
	<node lat="58.60135833589985" lon="8.855991670249212" id="-22055">
		<tag k="name" v="Fiskebekkdalen" />
		<tag k="natural" v="valley" />
		<tag k="place" v="locality" />
		<tag k="ssr:stedsnr" v="272089" />
	</node>
	<node lat="58.64140833165116" lon="8.769027780563087" id="-22058">
		<tag k="fixme" v="consider natural=peak for the most distinct mountains in the district" />
		<tag k="name" v="Heståsen" />
		<tag k="natural" v="hill" />
		<tag k="place" v="locality" />
		<tag k="ssr:stedsnr" v="486133" />
	</node>
	<node lat="58.66821110888531" lon="9.026569442673539" id="-22081">
		<tag k="fixme" v="consider natural=peak for the most distinct mountains in the district" />
		<tag k="name" v="Bjørnåstårnet" />
		<tag k="natural" v="hill" />
		<tag k="place" v="locality" />
		<tag k="ssr:stedsnr" v="486453" />
	</node>
	<node lat="58.62769722597225" lon="8.841824996156102" id="-22087">
		<tag k="fixme" v="consider natural=peak for the most distinct mountains in the district" />
		<tag k="name" v="Fløyheia" />
		<tag k="natural" v="hill" />
		<tag k="place" v="locality" />
		<tag k="ssr:stedsnr" v="425760" />
	</node>
	<node lat="58.60361389287675" lon="8.816911116831887" id="-22088">
		<tag k="name" v="Lomannsringen" />
		<tag k="natural" v="hill" />
		<tag k="place" v="locality" />
		<tag k="ssr:stedsnr" v="425800" />
	</node>
	<node lat="58.60350000407703" lon="8.769536114316606" id="-22089">
		<tag k="fixme" v="consider natural=peak for the most distinct mountains in the district" />
		<tag k="name" v="Rosstølheia" />
		<tag k="natural" v="hill" />
		<tag k="place" v="locality" />
		<tag k="ssr:stedsnr" v="425801" />
	</node>
	<node lat="58.63322222101529" lon="8.994416668512901" id="-22097">
		<tag k="fixme" v="consider natural=peak for the most distinct mountains in the district" />
		<tag k="name" v="Hjemkjærrheia" />
		<tag k="natural" v="hill" />
		<tag k="place" v="locality" />
		<tag k="ssr:stedsnr" v="272040" />
	</node>
	<node lat="58.61855555971376" lon="8.782036113521253" id="-22099">
		<tag k="fixme" v="consider natural=peak for the most distinct mountains in the district" />
		<tag k="name" v="Røyrmyråsen" />
		<tag k="natural" v="hill" />
		<tag k="place" v="locality" />
		<tag k="ssr:stedsnr" v="272049" />
	</node>
	<node lat="58.69575555908357" lon="9.066744446173585" id="-22102">
		<tag k="fixme" v="consider natural=peak for the most distinct mountains in the district" />
		<tag k="name" v="Brunåsen" />
		<tag k="natural" v="hill" />
		<tag k="place" v="locality" />
		<tag k="ssr:stedsnr" v="272065" />
	</node>
	<node lat="58.63279721817815" lon="9.032927771086415" id="-22104">
		<tag k="fixme" v="consider natural=peak for the most distinct mountains in the district" />
		<tag k="name" v="Mauråsen" />
		<tag k="natural" v="hill" />
		<tag k="place" v="locality" />
		<tag k="ssr:stedsnr" v="272497" />
	</node>
	<node lat="58.63745277683974" lon="8.775108339145623" id="-22110">
		<tag k="fixme" v="consider natural=peak for the most distinct mountains in the district" />
		<tag k="name" v="Gorpåsen" />
		<tag k="natural" v="hill" />
		<tag k="place" v="locality" />
		<tag k="ssr:stedsnr" v="454011" />
	</node>
	<node lat="58.643552774721904" lon="8.781266663626077" id="-22112">
		<tag k="name" v="Bjorstemmen" />
		<tag k="place" v="locality" />
		<tag k="ssr:stedsnr" v="454021" />
	</node>
	<node lat="58.59726944826744" lon="8.8645138902416" id="-22114">
		<tag k="fixme" v="consider natural=peak for the most distinct mountains in the district" />
		<tag k="name" v="Heståsen" />
		<tag k="natural" v="hill" />
		<tag k="place" v="locality" />
		<tag k="ssr:stedsnr" v="454066" />
	</node>
	<node lat="58.68987777801709" lon="9.048605553273209" id="-22117">
		<tag k="fixme" v="consider natural=peak for the most distinct mountains in the district" />
		<tag k="name" v="Grankjerråsen" />
		<tag k="natural" v="hill" />
		<tag k="place" v="locality" />
		<tag k="ssr:stedsnr" v="454078" />
	</node>
	<node lat="58.56926111561462" lon="8.92091944762925" id="-22118">
		<tag k="fixme" v="consider natural=peak for the most distinct mountains in the district" />
		<tag k="name" v="Røysefjell" />
		<tag k="natural" v="hill" />
		<tag k="place" v="locality" />
		<tag k="ssr:stedsnr" v="454079" />
	</node>
	<node lat="58.65537499977451" lon="9.083991671448112" id="-22119">
		<tag k="name" v="Slåttekjerrdalen" />
		<tag k="natural" v="valley" />
		<tag k="place" v="locality" />
		<tag k="ssr:stedsnr" v="454084" />
	</node>
	<node lat="58.55411110950523" lon="8.908075002443857" id="-22120">
		<tag k="fixme" v="consider natural=peak for the most distinct mountains in the district" />
		<tag k="name" v="Tiurheia" />
		<tag k="natural" v="hill" />
		<tag k="place" v="locality" />
		<tag k="ssr:stedsnr" v="454114" />
	</node>
	<node lat="58.65333055344172" lon="9.067197227864359" id="-22121">
		<tag k="name" v="Moen" />
		<tag k="place" v="locality" />
		<tag k="ssr:stedsnr" v="454119" />
	</node>
	<node lat="58.6920499993144" lon="8.996722215884038" id="-22122">
		<tag k="name" v="Blindskot" />
		<tag k="natural" v="slope" />
		<tag k="place" v="locality" />
		<tag k="ssr:stedsnr" v="454274" />
	</node>
	<node lat="58.66474444859501" lon="9.088305551788077" id="-22124">
		<tag k="fixme" v="consider natural=peak for the most distinct mountains in the district" />
		<tag k="name" v="Rogersfjell" />
		<tag k="natural" v="hill" />
		<tag k="place" v="locality" />
		<tag k="ssr:stedsnr" v="454408" />
	</node>
	<node lat="58.665524995588" lon="9.036527769194615" id="-22127">
		<tag k="name" v="Eikedalen" />
		<tag k="natural" v="valley" />
		<tag k="place" v="locality" />
		<tag k="ssr:stedsnr" v="454353" />
	</node>
	<node lat="58.59693055780347" lon="9.065230562438682" id="-22130">
		<tag k="fixme" v="consider natural=peak for the most distinct mountains in the district" />
		<tag k="name" v="Fløyheia" />
		<tag k="natural" v="hill" />
		<tag k="place" v="locality" />
		<tag k="ssr:stedsnr" v="454506" />
	</node>
	<node lat="58.60856666400788" lon="8.889380561942477" id="-22135">
		<tag k="name" v="Langtveitheia" />
		<tag k="natural" v="hill" />
		<tag k="place" v="locality" />
		<tag k="ssr:stedsnr" v="454673" />
	</node>
	<node lat="58.68341388961908" lon="8.928827773245628" id="-22138">
		<tag k="name" v="Kinnkjerrliene" />
		<tag k="natural" v="slope" />
		<tag k="place" v="locality" />
		<tag k="ssr:stedsnr" v="454809" />
	</node>
	<node lat="58.639086112428565" lon="8.885011118780943" id="-22142">
		<tag k="name" v="Jerpedalen" />
		<tag k="natural" v="valley" />
		<tag k="place" v="locality" />
		<tag k="ssr:stedsnr" v="454864" />
	</node>
	<node lat="58.642900001481344" lon="8.929041674368804" id="-22143">
		<tag k="fixme" v="consider natural=peak for the most distinct mountains in the district" />
		<tag k="name" v="Bekkeråsen" />
		<tag k="natural" v="hill" />
		<tag k="place" v="locality" />
		<tag k="ssr:stedsnr" v="454868" />
	</node>
	<node lat="58.58231110708527" lon="9.036627772262646" id="-22145">
		<tag k="name" v="Munkeheia" />
		<tag k="natural" v="hill" />
		<tag k="place" v="locality" />
		<tag k="ssr:stedsnr" v="454705" />
	</node>
	<node lat="58.5827972189806" lon="8.919636118673928" id="-22148">
		<tag k="fixme" v="consider natural=peak for the most distinct mountains in the district" />
		<tag k="name" v="Liheia" />
		<tag k="natural" v="hill" />
		<tag k="place" v="locality" />
		<tag k="ssr:stedsnr" v="454910" />
	</node>
	<node lat="58.618694448497145" lon="8.850108328805785" id="-22150">
		<tag k="fixme" v="consider natural=peak for the most distinct mountains in the district" />
		<tag k="name" v="Maigruveåsen" />
		<tag k="natural" v="hill" />
		<tag k="place" v="locality" />
		<tag k="ssr:stedsnr" v="454917" />
	</node>
	<node lat="58.690613891862384" lon="8.994880556609129" id="-22153">
		<tag k="name" v="Kortspellbakken" />
		<tag k="natural" v="slope" />
		<tag k="place" v="locality" />
		<tag k="ssr:stedsnr" v="272265" />
	</node>
	<node lat="58.660358333501506" lon="9.028058326478243" id="-22154">
		<tag k="name" v="Fjellveggen" />
		<tag k="natural" v="cliff" />
		<tag k="ssr:stedsnr" v="272331" />
	</node>
	<node lat="58.64162499679108" lon="8.83404445064349" id="-22156">
		<tag k="fixme" v="consider natural=peak for the most distinct mountains in the district" />
		<tag k="name" v="Høgås" />
		<tag k="natural" v="hill" />
		<tag k="place" v="locality" />
		<tag k="ssr:stedsnr" v="486121" />
	</node>
	<node lat="58.64761666392142" lon="8.88398055854479" id="-22169">
		<tag k="name" v="Svarttjennknatten" />
		<tag k="natural" v="hill" />
		<tag k="place" v="locality" />
		<tag k="ssr:stedsnr" v="272716" />
	</node>
	<node lat="58.68520277710256" lon="8.925566665298721" id="-22170">
		<tag k="name" v="Rullane" />
		<tag k="natural" v="ridge" />
		<tag k="place" v="locality" />
		<tag k="ssr:stedsnr" v="272768" />
	</node>
	<node lat="58.62522222581492" lon="8.93503888921628" id="-22172">
		<tag k="fixme" v="consider natural=peak for the most distinct mountains in the district" />
		<tag k="name" v="Fløyheia" />
		<tag k="natural" v="hill" />
		<tag k="place" v="locality" />
		<tag k="ssr:stedsnr" v="272847" />
	</node>
	<node lat="58.66246666593641" lon="8.905802769736773" id="-22173">
		<tag k="fixme" v="consider natural=peak for the most distinct mountains in the district" />
		<tag k="name" v="Midtbøheia" />
		<tag k="natural" v="hill" />
		<tag k="place" v="locality" />
		<tag k="ssr:stedsnr" v="272365" />
	</node>
	<node lat="58.66028611209457" lon="8.986577772230312" id="-22174">
		<tag k="name" v="Trollskalet" />
		<tag k="natural" v="valley" />
		<tag k="place" v="locality" />
		<tag k="ssr:stedsnr" v="272369" />
	</node>
	<node lat="58.692350004507986" lon="9.05612777142411" id="-22179">
		<tag k="fixme" v="consider natural=peak for the most distinct mountains in the district" />
		<tag k="name" v="Dalåsen" />
		<tag k="natural" v="hill" />
		<tag k="place" v="locality" />
		<tag k="ssr:stedsnr" v="515110" />
	</node>
	<node lat="58.578072223121154" lon="8.876108332400594" id="-22182">
		<tag k="name" v="Nordakleiv" />
		<tag k="natural" v="slope" />
		<tag k="place" v="locality" />
		<tag k="ssr:stedsnr" v="515124" />
	</node>
	<node lat="58.60121666282022" lon="8.768308339646257" id="-22185">
		<tag k="name" v="Askedalen" />
		<tag k="natural" v="valley" />
		<tag k="place" v="locality" />
		<tag k="ssr:stedsnr" v="515207" />
	</node>
	<node lat="58.59719722099193" lon="8.773922213921352" id="-22188">
		<tag k="fixme" v="consider natural=peak for the most distinct mountains in the district" />
		<tag k="name" v="Seljåsen" />
		<tag k="natural" v="hill" />
		<tag k="place" v="locality" />
		<tag k="ssr:stedsnr" v="515211" />
	</node>
	<node lat="58.658294444498836" lon="8.981661102566699" id="-22195">
		<tag k="fixme" v="consider natural=peak for the most distinct mountains in the district" />
		<tag k="name" v="Engelandsheia" />
		<tag k="natural" v="hill" />
		<tag k="place" v="locality" />
		<tag k="ssr:stedsnr" v="515362" />
	</node>
	<node lat="58.66648888921623" lon="9.097263882895824" id="-22199">
		<tag k="fixme" v="consider natural=peak for the most distinct mountains in the district" />
		<tag k="name" v="Bjørndalsknuten" />
		<tag k="natural" v="hill" />
		<tag k="place" v="locality" />
		<tag k="ssr:stedsnr" v="515409" />
	</node>
	<node lat="58.687913890805305" lon="9.075280547542423" id="-22203">
		<tag k="name" v="Åleknuten" />
		<tag k="natural" v="hill" />
		<tag k="place" v="locality" />
		<tag k="ssr:stedsnr" v="515417" />
	</node>
	<node lat="58.67831944565715" lon="9.068333327266538" id="-22204">
		<tag k="fixme" v="consider natural=peak for the most distinct mountains in the district" />
		<tag k="name" v="Toksåsen" />
		<tag k="natural" v="hill" />
		<tag k="place" v="locality" />
		<tag k="ssr:stedsnr" v="515420" />
	</node>
	<node lat="58.67791388885949" lon="9.081213891215226" id="-22205">
		<tag k="name" v="Lidalen" />
		<tag k="natural" v="valley" />
		<tag k="place" v="locality" />
		<tag k="ssr:stedsnr" v="515421" />
	</node>
	<node lat="58.685205557078575" lon="8.9504277858327" id="-22209">
		<tag k="name" v="Vendalen" />
		<tag k="natural" v="valley" />
		<tag k="place" v="locality" />
		<tag k="ssr:stedsnr" v="515597" />
	</node>
	<node lat="58.63129721961577" lon="8.958027772586265" id="-22211">
		<tag k="name" v="Fløyheia" />
		<tag k="natural" v="hill" />
		<tag k="place" v="locality" />
		<tag k="ssr:stedsnr" v="515708" />
	</node>
	<node lat="58.63755277601367" lon="8.997766666570717" id="-22214">
		<tag k="name" v="Bjørndalen" />
		<tag k="natural" v="valley" />
		<tag k="place" v="locality" />
		<tag k="ssr:stedsnr" v="515729" />
	</node>
	<node lat="58.64129166513013" lon="8.998369438594507" id="-22215">
		<tag k="fixme" v="consider natural=peak for the most distinct mountains in the district" />
		<tag k="name" v="Ulfsryggen" />
		<tag k="natural" v="hill" />
		<tag k="place" v="locality" />
		<tag k="ssr:stedsnr" v="515763" />
	</node>
	<node lat="58.67185555966902" lon="8.896230551461779" id="-22217">
		<tag k="name" v="Sorklemyrdalen" />
		<tag k="natural" v="valley" />
		<tag k="place" v="locality" />
		<tag k="ssr:stedsnr" v="515813" />
	</node>
	<node lat="58.675797224777355" lon="8.867208329615224" id="-22218">
		<tag k="name" v="Myrimellom" />
		<tag k="natural" v="hill" />
		<tag k="place" v="locality" />
		<tag k="ssr:stedsnr" v="515825" />
	</node>
	<node lat="58.65101110711196" lon="8.877875007421718" id="-22220">
		<tag k="fixme" v="consider natural=peak for the most distinct mountains in the district" />
		<tag k="name" v="Djuptjennheia" />
		<tag k="natural" v="hill" />
		<tag k="place" v="locality" />
		<tag k="ssr:stedsnr" v="515962" />
	</node>
	<node lat="58.638941664897644" lon="8.822630557322915" id="-22235">
		<tag k="fixme" v="consider natural=peak for the most distinct mountains in the district" />
		<tag k="name" v="Lille Bronås" />
		<tag k="natural" v="hill" />
		<tag k="place" v="locality" />
		<tag k="ssr:stedsnr" v="575006" />
	</node>
	<node lat="58.64955555878548" lon="9.109583325652004" id="-22236">
		<tag k="fixme" v="consider natural=peak for the most distinct mountains in the district" />
		<tag k="name" v="Svaen" />
		<tag k="natural" v="hill" />
		<tag k="place" v="locality" />
		<tag k="ssr:stedsnr" v="575059" />
	</node>
	<node lat="58.62473333539199" lon="8.978716666314131" id="-22239">
		<tag k="fixme" v="consider natural=peak for the most distinct mountains in the district" />
		<tag k="name" v="Ribba" />
		<tag k="natural" v="hill" />
		<tag k="place" v="locality" />
		<tag k="ssr:stedsnr" v="575069" />
	</node>
	<node lat="58.56242777599585" lon="8.909838896374378" id="-22240">
		<tag k="fixme" v="consider natural=peak for the most distinct mountains in the district" />
		<tag k="name" v="Grasås" />
		<tag k="natural" v="hill" />
		<tag k="place" v="locality" />
		<tag k="ssr:stedsnr" v="575070" />
	</node>
	<node lat="58.62488332900707" lon="9.002680559051623" id="-22241">
		<tag k="fixme" v="consider natural=peak for the most distinct mountains in the district" />
		<tag k="name" v="Eikåsen" />
		<tag k="natural" v="hill" />
		<tag k="place" v="locality" />
		<tag k="ssr:stedsnr" v="575071" />
	</node>
	<node lat="58.62683055597615" lon="8.898633334317134" id="-22242">
		<tag k="name" v="Vestigardsheia" />
		<tag k="natural" v="hill" />
		<tag k="place" v="locality" />
		<tag k="ssr:stedsnr" v="575073" />
	</node>
	<node lat="58.6936472224816" lon="9.053141664929687" id="-22243">
		<tag k="name" v="Tereheia" />
		<tag k="natural" v="hill" />
		<tag k="place" v="locality" />
		<tag k="ssr:stedsnr" v="575078" />
	</node>
	<node lat="58.65333888871377" lon="9.093238892663145" id="-22244">
		<tag k="fixme" v="consider natural=peak for the most distinct mountains in the district" />
		<tag k="name" v="Fiskejonsåsen" />
		<tag k="natural" v="hill" />
		<tag k="place" v="locality" />
		<tag k="ssr:stedsnr" v="575105" />
	</node>
	<node lat="58.6526555554666" lon="9.081861110559066" id="-22245">
		<tag k="fixme" v="consider natural=peak for the most distinct mountains in the district" />
		<tag k="name" v="Jordbæråsen" />
		<tag k="natural" v="hill" />
		<tag k="place" v="locality" />
		<tag k="ssr:stedsnr" v="575109" />
	</node>
	<node lat="58.64879444894069" lon="9.070622227375111" id="-22248">
		<tag k="fixme" v="consider natural=peak for the most distinct mountains in the district" />
		<tag k="name" v="Lonheia" />
		<tag k="natural" v="hill" />
		<tag k="place" v="locality" />
		<tag k="ssr:stedsnr" v="575113" />
	</node>
	<node lat="58.60270833603945" lon="8.781552776804961" id="-22249">
		<tag k="fixme" v="consider natural=peak for the most distinct mountains in the district" />
		<tag k="name" v="Lindheia" />
		<tag k="natural" v="hill" />
		<tag k="place" v="locality" />
		<tag k="ssr:stedsnr" v="575195" />
	</node>
	<node lat="58.65323611465421" lon="9.01394444941282" id="-22250">
		<tag k="name" v="Falkeklova" />
		<tag k="natural" v="valley" />
		<tag k="place" v="locality" />
		<tag k="ssr:stedsnr" v="575294" />
	</node>
	<node lat="58.63271944694472" lon="9.07755832537557" id="-22258">
		<tag k="name" v="Brenningskjærheia" />
		<tag k="natural" v="hill" />
		<tag k="place" v="locality" />
		<tag k="ssr:stedsnr" v="575447" />
	</node>
	<node lat="58.6411416687591" lon="9.058480562564538" id="-22259">
		<tag k="name" v="Kufallheia" />
		<tag k="natural" v="hill" />
		<tag k="place" v="locality" />
		<tag k="ssr:stedsnr" v="575456" />
	</node>
	<node lat="58.61499999565893" lon="8.973863886918537" id="-22263">
		<tag k="name" v="Tungbudalen" />
		<tag k="natural" v="valley" />
		<tag k="place" v="locality" />
		<tag k="ssr:stedsnr" v="575497" />
	</node>
	<node lat="58.611786114499516" lon="8.930633325184942" id="-22266">
		<tag k="fixme" v="consider natural=peak for the most distinct mountains in the district" />
		<tag k="name" v="Gladstadheia" />
		<tag k="natural" v="hill" />
		<tag k="place" v="locality" />
		<tag k="ssr:stedsnr" v="575616" />
	</node>
	<node lat="58.62186666235348" lon="9.065841663776318" id="-22269">
		<tag k="fixme" v="consider natural=peak for the most distinct mountains in the district" />
		<tag k="name" v="Sandsheia" />
		<tag k="natural" v="hill" />
		<tag k="place" v="locality" />
		<tag k="ssr:stedsnr" v="575398" />
	</node>
	<node lat="58.62533611286863" lon="9.008775003026807" id="-22271">
		<tag k="name" v="Leggekjærrdalen" />
		<tag k="natural" v="valley" />
		<tag k="place" v="locality" />
		<tag k="ssr:stedsnr" v="575507" />
	</node>
	<node lat="58.62455833546855" lon="9.033999992939997" id="-22272">
		<tag k="fixme" v="consider natural=peak for the most distinct mountains in the district" />
		<tag k="name" v="Ørnefjell" />
		<tag k="natural" v="hill" />
		<tag k="place" v="locality" />
		<tag k="ssr:stedsnr" v="575508" />
	</node>
	<node lat="58.63344722659592" lon="9.040891665987884" id="-22273">
		<tag k="name" v="Geitryggen" />
		<tag k="natural" v="hill" />
		<tag k="place" v="locality" />
		<tag k="ssr:stedsnr" v="575514" />
	</node>
	<node lat="58.670472223003216" lon="8.96014166127982" id="-22274">
		<tag k="name" v="Klemma" />
		<tag k="natural" v="valley" />
		<tag k="place" v="locality" />
		<tag k="ssr:stedsnr" v="575550" />
	</node>
	<node lat="58.676155551561045" lon="8.870086114694521" id="-22278">
		<tag k="fixme" v="consider natural=peak for the most distinct mountains in the district" />
		<tag k="name" v="Bjørkkamåsen" />
		<tag k="natural" v="hill" />
		<tag k="place" v="locality" />
		<tag k="ssr:stedsnr" v="575801" />
	</node>
	<node lat="58.61436666263381" lon="8.847997228250103" id="-22295">
		<tag k="fixme" v="consider natural=peak for the most distinct mountains in the district" />
		<tag k="name" v="Grunnetjennåsen" />
		<tag k="natural" v="hill" />
		<tag k="place" v="locality" />
		<tag k="ssr:stedsnr" v="575900" />
	</node>
	<node lat="58.665974995811005" lon="8.913813883815008" id="-22296">
		<tag k="name" v="Sagåslia" />
		<tag k="natural" v="slope" />
		<tag k="place" v="locality" />
		<tag k="ssr:stedsnr" v="575998" />
	</node>
	<node lat="58.63649722072787" lon="8.79420833399031" id="-22299">
		<tag k="fixme" v="consider natural=peak for the most distinct mountains in the district" />
		<tag k="name" v="Tryturåsen" />
		<tag k="natural" v="hill" />
		<tag k="place" v="locality" />
		<tag k="ssr:stedsnr" v="697018" />
	</node>
	<node lat="58.625841669813376" lon="8.762661108428485" id="-22300">
		<tag k="fixme" v="consider natural=peak for the most distinct mountains in the district" />
		<tag k="name" v="Dåbuheia" />
		<tag k="natural" v="hill" />
		<tag k="place" v="locality" />
		<tag k="ssr:stedsnr" v="697021" />
	</node>
	<node lat="58.60813333504932" lon="8.786838894484925" id="-22301">
		<tag k="fixme" v="consider natural=peak for the most distinct mountains in the district" />
		<tag k="name" v="Ramsåsen" />
		<tag k="natural" v="hill" />
		<tag k="place" v="locality" />
		<tag k="ssr:stedsnr" v="697029" />
	</node>
	<node lat="58.61283333469648" lon="8.78624444504771" id="-22302">
		<tag k="name" v="Fleskekjerrliene" />
		<tag k="natural" v="slope" />
		<tag k="place" v="locality" />
		<tag k="ssr:stedsnr" v="697034" />
	</node>
	<node lat="58.66105555365798" lon="9.048702774491954" id="-22304">
		<tag k="fixme" v="consider natural=peak for the most distinct mountains in the district" />
		<tag k="name" v="Grindåsen" />
		<tag k="natural" v="hill" />
		<tag k="place" v="locality" />
		<tag k="ssr:stedsnr" v="697043" />
	</node>
	<node lat="58.61319444868422" lon="8.81828333322363" id="-22305">
		<tag k="fixme" v="consider natural=peak for the most distinct mountains in the district" />
		<tag k="name" v="Østre Klomrehei" />
		<tag k="natural" v="hill" />
		<tag k="place" v="locality" />
		<tag k="ssr:stedsnr" v="697044" />
	</node>
	<node lat="58.59678889123272" lon="8.858902773150493" id="-22307">
		<tag k="fixme" v="consider natural=peak for the most distinct mountains in the district" />
		<tag k="name" v="Bronåsen" />
		<tag k="natural" v="hill" />
		<tag k="place" v="locality" />
		<tag k="ssr:stedsnr" v="697091" />
	</node>
	<node lat="58.61223333180425" lon="8.815625006552798" id="-22308">
		<tag k="fixme" v="consider natural=peak for the most distinct mountains in the district" />
		<tag k="name" v="Vestre Klomrehei" />
		<tag k="natural" v="hill" />
		<tag k="place" v="locality" />
		<tag k="ssr:stedsnr" v="697045" />
	</node>
	<node lat="58.63023610726779" lon="8.991977775837766" id="-22309">
		<tag k="fixme" v="consider natural=peak for the most distinct mountains in the district" />
		<tag k="name" v="Sjurshei" />
		<tag k="natural" v="hill" />
		<tag k="place" v="locality" />
		<tag k="ssr:stedsnr" v="697048" />
	</node>
	<node lat="58.623747219789955" lon="8.796394452262428" id="-22310">
		<tag k="fixme" v="consider natural=peak for the most distinct mountains in the district" />
		<tag k="name" v="Hampeheia" />
		<tag k="natural" v="hill" />
		<tag k="place" v="locality" />
		<tag k="ssr:stedsnr" v="697052" />
	</node>
	<node lat="58.622969445348446" lon="9.013133325673454" id="-22311">
		<tag k="fixme" v="consider natural=peak for the most distinct mountains in the district" />
		<tag k="name" v="Øygardsåsen" />
		<tag k="natural" v="hill" />
		<tag k="place" v="locality" />
		<tag k="ssr:stedsnr" v="697054" />
	</node>
	<node lat="58.57401667107692" lon="8.900888895982733" id="-22313">
		<tag k="fixme" v="consider natural=peak for the most distinct mountains in the district" />
		<tag k="name" v="Bråten" />
		<tag k="natural" v="hill" />
		<tag k="place" v="locality" />
		<tag k="ssr:stedsnr" v="697116" />
	</node>
	<node lat="58.66268333419536" lon="9.088188886804916" id="-22314">
		<tag k="name" v="Lille Rogersberg" />
		<tag k="natural" v="hill" />
		<tag k="place" v="locality" />
		<tag k="ssr:stedsnr" v="697120" />
	</node>
	<node lat="58.64974722499299" lon="9.019041664241405" id="-22326">
		<tag k="fixme" v="consider natural=peak for the most distinct mountains in the district" />
		<tag k="name" v="Bærtjennåsen" />
		<tag k="natural" v="hill" />
		<tag k="place" v="locality" />
		<tag k="ssr:stedsnr" v="697325" />
	</node>
	<node lat="58.64800555732144" lon="9.008450008234407" id="-22328">
		<tag k="fixme" v="consider natural=peak for the most distinct mountains in the district" />
		<tag k="name" v="Ørnåsen" />
		<tag k="natural" v="hill" />
		<tag k="place" v="locality" />
		<tag k="ssr:stedsnr" v="697333" />
	</node>
	<node lat="58.65173055393539" lon="9.011977775248877" id="-22329">
		<tag k="name" v="Stumstjennberga" />
		<tag k="natural" v="slope" />
		<tag k="place" v="locality" />
		<tag k="ssr:stedsnr" v="697334" />
	</node>
	<node lat="58.65522222408915" lon="9.020938896293515" id="-22330">
		<tag k="name" v="Kollbonnen" />
		<tag k="place" v="locality" />
		<tag k="ssr:stedsnr" v="697337" />
	</node>
	<node lat="58.65853055935847" lon="9.018519441513783" id="-22331">
		<tag k="name" v="Rangleåskleiva" />
		<tag k="natural" v="slope" />
		<tag k="place" v="locality" />
		<tag k="ssr:stedsnr" v="697340" />
	</node>
	<node lat="58.6562388869612" lon="9.002925000978244" id="-22332">
		<tag k="fixme" v="consider natural=peak for the most distinct mountains in the district" />
		<tag k="name" v="Bjellandsvannsheia" />
		<tag k="natural" v="hill" />
		<tag k="place" v="locality" />
		<tag k="ssr:stedsnr" v="697345" />
	</node>
	<node lat="58.66464444046385" lon="9.002211103032396" id="-22336">
		<tag k="fixme" v="consider natural=peak for the most distinct mountains in the district" />
		<tag k="name" v="Lille Øygardsåsen" />
		<tag k="natural" v="hill" />
		<tag k="place" v="locality" />
		<tag k="ssr:stedsnr" v="697355" />
	</node>
	<node lat="58.63069166979986" lon="9.140630549344758" id="-22340">
		<tag k="name" v="Brunheia" />
		<tag k="natural" v="hill" />
		<tag k="place" v="locality" />
		<tag k="ssr:stedsnr" v="697429" />
	</node>
	<node lat="58.68613333220622" lon="8.948824999870425" id="-22346">
		<tag k="name" v="Greinheia" />
		<tag k="natural" v="hill" />
		<tag k="place" v="locality" />
		<tag k="ssr:stedsnr" v="697527" />
	</node>
	<node lat="58.68746944674916" lon="8.97223888942425" id="-22347">
		<tag k="fixme" v="consider natural=peak for the most distinct mountains in the district" />
		<tag k="name" v="Bjørnåsen" />
		<tag k="natural" v="hill" />
		<tag k="place" v="locality" />
		<tag k="ssr:stedsnr" v="697528" />
	</node>
	<node lat="58.67463610930073" lon="8.877358327472795" id="-22351">
		<tag k="fixme" v="consider natural=peak for the most distinct mountains in the district" />
		<tag k="name" v="Høgåsen" />
		<tag k="natural" v="hill" />
		<tag k="place" v="locality" />
		<tag k="ssr:stedsnr" v="697825" />
	</node>
	<node lat="58.68728333176542" lon="8.875280559090957" id="-22352">
		<tag k="name" v="Røykjerrliene" />
		<tag k="natural" v="slope" />
		<tag k="place" v="locality" />
		<tag k="ssr:stedsnr" v="697829" />
	</node>
	<node lat="58.68403055908379" lon="8.866180554047869" id="-22353">
		<tag k="fixme" v="consider natural=peak for the most distinct mountains in the district" />
		<tag k="name" v="Indre Grasåsheia" />
		<tag k="natural" v="hill" />
		<tag k="place" v="locality" />
		<tag k="ssr:stedsnr" v="697834" />
	</node>
	<node lat="58.60599722369747" lon="8.965624992924914" id="-22355">
		<tag k="name" v="Skibolidalen" />
		<tag k="natural" v="valley" />
		<tag k="place" v="locality" />
		<tag k="ssr:stedsnr" v="697542" />
	</node>
	<node lat="58.62073333232255" lon="9.002355549810238" id="-22356">
		<tag k="fixme" v="consider natural=peak for the most distinct mountains in the district" />
		<tag k="name" v="Store Eivindsås" />
		<tag k="natural" v="hill" />
		<tag k="place" v="locality" />
		<tag k="ssr:stedsnr" v="697544" />
	</node>
	<node lat="58.673300002195994" lon="8.975375007839533" id="-22362">
		<tag k="name" v="Flatingane" />
		<tag k="place" v="locality" />
		<tag k="ssr:stedsnr" v="697563" />
	</node>
	<node lat="58.645080559724484" lon="8.988716668266955" id="-22369">
		<tag k="name" v="Halvfermyrdalen" />
		<tag k="natural" v="valley" />
		<tag k="place" v="locality" />
		<tag k="ssr:stedsnr" v="697701" />
	</node>
	<node lat="58.65706389196539" lon="8.912422230236382" id="-22374">
		<tag k="name" v="Angelstaddalen" />
		<tag k="natural" v="valley" />
		<tag k="place" v="locality" />
		<tag k="ssr:stedsnr" v="697756" />
	</node>
	<node lat="58.65741388825451" lon="8.90669722452622" id="-22375">
		<tag k="fixme" v="consider natural=peak for the most distinct mountains in the district" />
		<tag k="name" v="Tverråsen" />
		<tag k="natural" v="hill" />
		<tag k="place" v="locality" />
		<tag k="ssr:stedsnr" v="697757" />
	</node>
	<node lat="58.67321666373507" lon="8.922502785403823" id="-22377">
		<tag k="name" v="Kråketjennhogsten" />
		<tag k="natural" v="slope" />
		<tag k="place" v="locality" />
		<tag k="ssr:stedsnr" v="697789" />
	</node>
	<node lat="58.597883336128646" lon="8.882083337184959" id="-22380">
		<tag k="fixme" v="consider natural=peak for the most distinct mountains in the district" />
		<tag k="name" v="Husefjellheia" />
		<tag k="natural" v="hill" />
		<tag k="place" v="locality" />
		<tag k="ssr:stedsnr" v="697890" />
	</node>
	<node lat="58.676552779729896" lon="8.861722230156449" id="-22381">
		<tag k="name" v="Timmeråsknuten" />
		<tag k="natural" v="hill" />
		<tag k="place" v="locality" />
		<tag k="ssr:stedsnr" v="697847" />
	</node>
	<node lat="58.67966944443112" lon="8.85292222995824" id="-22382">
		<tag k="name" v="Østre Langmyrdalen" />
		<tag k="natural" v="valley" />
		<tag k="place" v="locality" />
		<tag k="ssr:stedsnr" v="697850" />
	</node>
	<node lat="58.59662222018305" lon="8.89291388750786" id="-22384">
		<tag k="name" v="Hovet" />
		<tag k="place" v="locality" />
		<tag k="ssr:stedsnr" v="697895" />
	</node>
	<node lat="58.58709721967608" lon="8.924791658953117" id="-22385">
		<tag k="fixme" v="consider natural=peak for the most distinct mountains in the district" />
		<tag k="name" v="Vesterfjell" />
		<tag k="natural" v="hill" />
		<tag k="place" v="locality" />
		<tag k="ssr:stedsnr" v="697901" />
	</node>
	<node lat="58.6304666667532" lon="8.863830560608635" id="-22389">
		<tag k="fixme" v="consider natural=peak for the most distinct mountains in the district" />
		<tag k="name" v="Nesheia" />
		<tag k="natural" v="hill" />
		<tag k="place" v="locality" />
		<tag k="ssr:stedsnr" v="697937" />
	</node>
	<node lat="58.630202781480506" lon="9.055972214532712" id="-22405">
		<tag k="name" v="Dypvågheia" />
		<tag k="natural" v="hill" />
		<tag k="place" v="locality" />
		<tag k="ssr:stedsnr" v="272462" />
	</node>
	<node lat="58.59760277927459" lon="8.751880548140736" id="-22408">
		<tag k="name" v="Øygardsdalen" />
		<tag k="natural" v="valley" />
		<tag k="place" v="locality" />
		<tag k="ssr:stedsnr" v="635190" />
	</node>
	<node lat="58.62706111437131" lon="8.775555554964416" id="-22409">
		<tag k="name" v="Svaverdalen" />
		<tag k="natural" v="valley" />
		<tag k="place" v="locality" />
		<tag k="ssr:stedsnr" v="636003" />
	</node>
	<node lat="58.63391666493819" lon="8.78388055629165" id="-22410">
		<tag k="name" v="Bjørndalen" />
		<tag k="natural" v="valley" />
		<tag k="place" v="locality" />
		<tag k="ssr:stedsnr" v="636006" />
	</node>
	<node lat="58.584419442068246" lon="8.867894444323426" id="-22411">
		<tag k="fixme" v="consider natural=peak for the most distinct mountains in the district" />
		<tag k="name" v="Haggelsmyråsen" />
		<tag k="natural" v="hill" />
		<tag k="place" v="locality" />
		<tag k="ssr:stedsnr" v="636078" />
	</node>
	<node lat="58.59978611532899" lon="8.860824991774162" id="-22412">
		<tag k="name" v="Skafsåshalsen" />
		<tag k="natural" v="hill" />
		<tag k="place" v="locality" />
		<tag k="ssr:stedsnr" v="636082" />
	</node>
	<node lat="58.62445278189601" lon="8.929922218140623" id="-22414">
		<tag k="fixme" v="consider natural=peak for the most distinct mountains in the district" />
		<tag k="name" v="Smifjell" />
		<tag k="natural" v="hill" />
		<tag k="place" v="locality" />
		<tag k="ssr:stedsnr" v="636087" />
	</node>
	<node lat="58.65824166246027" lon="9.076419452900828" id="-22416">
		<tag k="name" v="Sletteberga" />
		<tag k="natural" v="hill" />
		<tag k="place" v="locality" />
		<tag k="ssr:stedsnr" v="636108" />
	</node>
	<node lat="58.65248888525112" lon="9.000136118929488" id="-22419">
		<tag k="name" v="Ytre Bjellandsvannheia" />
		<tag k="natural" v="slope" />
		<tag k="place" v="locality" />
		<tag k="ssr:stedsnr" v="636329" />
	</node>
	<node lat="58.64768611008259" lon="8.992619452563165" id="-22420">
		<tag k="name" v="Halvferdmyrdalen" />
		<tag k="natural" v="valley" />
		<tag k="place" v="locality" />
		<tag k="ssr:stedsnr" v="636330" />
	</node>
	<node lat="58.62437222599874" lon="8.945116662632623" id="-22424">
		<tag k="name" v="Østeråheia" />
		<tag k="natural" v="hill" />
		<tag k="place" v="locality" />
		<tag k="ssr:stedsnr" v="636529" />
	</node>
	<node lat="58.618641670243655" lon="9.003827770023417" id="-22426">
		<tag k="fixme" v="consider natural=peak for the most distinct mountains in the district" />
		<tag k="name" v="Lille Eivindsås" />
		<tag k="natural" v="hill" />
		<tag k="place" v="locality" />
		<tag k="ssr:stedsnr" v="636578" />
	</node>
	<node lat="58.68985000396923" lon="8.998094452505654" id="-22428">
		<tag k="fixme" v="consider natural=peak for the most distinct mountains in the district" />
		<tag k="name" v="Tereåsen" />
		<tag k="natural" v="hill" />
		<tag k="place" v="locality" />
		<tag k="ssr:stedsnr" v="636279" />
	</node>
	<node lat="58.69216666789773" lon="8.986466663053925" id="-22429">
		<tag k="name" v="Skårliene" />
		<tag k="natural" v="slope" />
		<tag k="place" v="locality" />
		<tag k="ssr:stedsnr" v="636291" />
	</node>
	<node lat="58.62833333596015" lon="9.049291670049154" id="-22433">
		<tag k="name" v="Grandalen" />
		<tag k="natural" v="valley" />
		<tag k="place" v="locality" />
		<tag k="ssr:stedsnr" v="636478" />
	</node>
	<node lat="58.62730555868618" lon="9.066025008087655" id="-22434">
		<tag k="name" v="Kobbervikdalen" />
		<tag k="natural" v="valley" />
		<tag k="place" v="locality" />
		<tag k="ssr:stedsnr" v="636479" />
	</node>
	<node lat="58.59994166288135" lon="8.912586114558165" id="-22442">
		<tag k="fixme" v="consider natural=peak for the most distinct mountains in the district" />
		<tag k="name" v="Eikåsen" />
		<tag k="natural" v="hill" />
		<tag k="place" v="locality" />
		<tag k="ssr:stedsnr" v="636875" />
	</node>
	<node lat="58.58752222604013" lon="8.997161112776235" id="-22443">
		<tag k="fixme" v="consider natural=peak for the most distinct mountains in the district" />
		<tag k="name" v="Bukkeskåra" />
		<tag k="natural" v="hill" />
		<tag k="place" v="locality" />
		<tag k="ssr:stedsnr" v="636708" />
	</node>
	<node lat="58.58901111537455" lon="9.027375000841564" id="-22444">
		<tag k="name" v="Størrfjell" />
		<tag k="natural" v="hill" />
		<tag k="place" v="locality" />
		<tag k="ssr:stedsnr" v="636709" />
	</node>
	<node lat="58.68361944609128" lon="8.882902770936056" id="-22449">
		<tag k="name" v="Smørbekkliene" />
		<tag k="natural" v="slope" />
		<tag k="place" v="locality" />
		<tag k="ssr:stedsnr" v="636779" />
	</node>
	<node lat="58.650458335509825" lon="8.914002785661216" id="-22450">
		<tag k="name" v="Hagelifjell" />
		<tag k="natural" v="hill" />
		<tag k="place" v="locality" />
		<tag k="ssr:stedsnr" v="636791" />
	</node>
	<node lat="58.677294442800516" lon="8.926247230417246" id="-22451">
		<tag k="name" v="Bjellekjerrliene" />
		<tag k="natural" v="slope" />
		<tag k="place" v="locality" />
		<tag k="ssr:stedsnr" v="636799" />
	</node>
	<node lat="58.610338886463545" lon="8.865691665494872" id="-22452">
		<tag k="fixme" v="consider natural=peak for the most distinct mountains in the district" />
		<tag k="name" v="Klokkerkollen" />
		<tag k="natural" v="hill" />
		<tag k="place" v="locality" />
		<tag k="ssr:stedsnr" v="636907" />
	</node>
	<node lat="58.611050003281285" lon="8.872408334119909" id="-22453">
		<tag k="fixme" v="consider natural=peak for the most distinct mountains in the district" />
		<tag k="name" v="Tjuvåsen" />
		<tag k="natural" v="hill" />
		<tag k="place" v="locality" />
		<tag k="ssr:stedsnr" v="636911" />
	</node>
	<node lat="58.64167777890482" lon="8.838391673598286" id="-22454">
		<tag k="fixme" v="consider natural=peak for the most distinct mountains in the district" />
		<tag k="name" v="Lille Høgås" />
		<tag k="natural" v="hill" />
		<tag k="place" v="locality" />
		<tag k="ssr:stedsnr" v="636929" />
	</node>
	<node lat="58.66325277351373" lon="8.866158329129718" id="-22455">
		<tag k="name" v="Svillåsen" />
		<tag k="natural" v="hill" />
		<tag k="place" v="locality" />
		<tag k="ssr:stedsnr" v="636975" />
	</node>
	<node lat="58.62935833591393" lon="8.948905548524243" id="-22461">
		<tag k="fixme" v="consider natural=peak for the most distinct mountains in the district" />
		<tag k="name" v="Heståsen" />
		<tag k="natural" v="hill" />
		<tag k="place" v="locality" />
		<tag k="ssr:stedsnr" v="668144" />
	</node>
	<node lat="58.60728333390509" lon="8.786016667996869" id="-22477">
		<tag k="fixme" v="consider natural=peak for the most distinct mountains in the district" />
		<tag k="name" v="Stutåsen" />
		<tag k="natural" v="hill" />
		<tag k="place" v="locality" />
		<tag k="ssr:stedsnr" v="668799" />
	</node>
	<node lat="58.64551666255462" lon="9.056513882960086" id="-22478">
		<tag k="name" v="Råndalen" />
		<tag k="natural" v="valley" />
		<tag k="place" v="locality" />
		<tag k="ssr:stedsnr" v="272468" />
	</node>
	<node lat="58.59321388800951" lon="8.770511114194681" id="-22485">
		<tag k="fixme" v="consider natural=peak for the most distinct mountains in the district" />
		<tag k="name" v="Høgås" />
		<tag k="natural" v="hill" />
		<tag k="place" v="locality" />
		<tag k="ssr:stedsnr" v="697074" />
	</node>
	<node lat="58.697402781988444" lon="9.059222226671524" id="-22486">
		<tag k="name" v="Eiksetene" />
		<tag k="natural" v="hill" />
		<tag k="place" v="locality" />
		<tag k="ssr:stedsnr" v="697080" />
	</node>
	<node lat="58.69916111352031" lon="9.068161110340132" id="-22487">
		<tag k="fixme" v="consider natural=peak for the most distinct mountains in the district" />
		<tag k="name" v="Lille Taksrås" />
		<tag k="natural" v="hill" />
		<tag k="place" v="locality" />
		<tag k="ssr:stedsnr" v="697083" />
	</node>
	<node lat="58.64813610808172" lon="9.118891663343295" id="-22488">
		<tag k="name" v="Fløyheia" />
		<tag k="natural" v="hill" />
		<tag k="place" v="locality" />
		<tag k="ssr:stedsnr" v="697088" />
	</node>
	<node lat="58.59772222671219" lon="8.739405549723555" id="-22489">
		<tag k="fixme" v="consider natural=peak for the most distinct mountains in the district" />
		<tag k="name" v="Kroktjennheia" />
		<tag k="natural" v="hill" />
		<tag k="place" v="locality" />
		<tag k="ssr:stedsnr" v="697221" />
	</node>
	<node lat="58.65906388721171" lon="8.952149994718688" id="-22490">
		<tag k="name" v="Treskoberga" />
		<tag k="natural" v="slope" />
		<tag k="place" v="locality" />
		<tag k="ssr:stedsnr" v="697375" />
	</node>
	<node lat="58.63325833253755" lon="9.094855559840047" id="-22493">
		<tag k="name" v="Solberg" />
		<tag k="natural" v="hill" />
		<tag k="place" v="locality" />
		<tag k="ssr:stedsnr" v="697464" />
	</node>
	<node lat="58.64168055610852" lon="9.094394436173905" id="-22495">
		<tag k="fixme" v="consider natural=peak for the most distinct mountains in the district" />
		<tag k="name" v="Nordre Ørna" />
		<tag k="natural" v="hill" />
		<tag k="place" v="locality" />
		<tag k="ssr:stedsnr" v="697473" />
	</node>
	<node lat="58.62747500056401" lon="9.026975006966678" id="-22500">
		<tag k="fixme" v="consider natural=peak for the most distinct mountains in the district" />
		<tag k="name" v="Lyngåsen" />
		<tag k="natural" v="hill" />
		<tag k="place" v="locality" />
		<tag k="ssr:stedsnr" v="697514" />
	</node>
	<node lat="58.68380555578857" lon="9.041444440669636" id="-22502">
		<tag k="fixme" v="consider natural=peak for the most distinct mountains in the district" />
		<tag k="name" v="Solingknatten" />
		<tag k="natural" v="hill" />
		<tag k="place" v="locality" />
		<tag k="ssr:stedsnr" v="697583" />
	</node>
	<node lat="58.682972224506806" lon="9.032613887265848" id="-22503">
		<tag k="name" v="Dalen" />
		<tag k="natural" v="valley" />
		<tag k="place" v="locality" />
		<tag k="ssr:stedsnr" v="697584" />
	</node>
	<node lat="58.67668333536714" lon="9.007000002862469" id="-22504">
		<tag k="name" v="Rokse" />
		<tag k="natural" v="cliff" />
		<tag k="ssr:stedsnr" v="697589" />
	</node>
	<node lat="58.682550001254675" lon="8.992511103366743" id="-22506">
		<tag k="name" v="Atmedliene" />
		<tag k="natural" v="slope" />
		<tag k="place" v="locality" />
		<tag k="ssr:stedsnr" v="697598" />
	</node>
	<node lat="58.648736113187255" lon="8.917363883436657" id="-22509">
		<tag k="fixme" v="consider natural=peak for the most distinct mountains in the district" />
		<tag k="name" v="Høyheia" />
		<tag k="natural" v="hill" />
		<tag k="place" v="locality" />
		<tag k="ssr:stedsnr" v="697776" />
	</node>
	<node lat="58.67448055830058" lon="8.918433326573311" id="-22512">
		<tag k="name" v="Børsedalen" />
		<tag k="natural" v="valley" />
		<tag k="place" v="locality" />
		<tag k="ssr:stedsnr" v="697813" />
	</node>
	<node lat="58.68027500136879" lon="8.899383330001335" id="-22513">
		<tag k="name" v="Bubakkene" />
		<tag k="natural" v="slope" />
		<tag k="place" v="locality" />
		<tag k="ssr:stedsnr" v="697817" />
	</node>
	<node lat="58.62428888678471" lon="8.829433331335743" id="-22515">
		<tag k="name" v="Østre Djupedalsheia" />
		<tag k="natural" v="hill" />
		<tag k="place" v="locality" />
		<tag k="ssr:stedsnr" v="697867" />
	</node>
	<node lat="58.63617777836454" lon="8.926230558693527" id="-22517">
		<tag k="fixme" v="consider natural=peak for the most distinct mountains in the district" />
		<tag k="name" v="Lille Øksenåsen" />
		<tag k="natural" v="hill" />
		<tag k="place" v="locality" />
		<tag k="ssr:stedsnr" v="697880" />
	</node>
	<node lat="58.63325555977685" lon="8.930488895731612" id="-22518">
		<tag k="fixme" v="consider natural=peak for the most distinct mountains in the district" />
		<tag k="name" v="Øksenåsen" />
		<tag k="natural" v="hill" />
		<tag k="place" v="locality" />
		<tag k="ssr:stedsnr" v="697883" />
	</node>
	<node lat="58.59005000112482" lon="8.849327784929336" id="-22519">
		<tag k="fixme" v="consider natural=peak for the most distinct mountains in the district" />
		<tag k="name" v="Kattkloheia" />
		<tag k="natural" v="hill" />
		<tag k="place" v="locality" />
		<tag k="ssr:stedsnr" v="697887" />
	</node>
	<node lat="58.659866664924266" lon="8.87560832573397" id="-22524">
		<tag k="name" v="Ospedalen" />
		<tag k="natural" v="valley" />
		<tag k="place" v="locality" />
		<tag k="ssr:stedsnr" v="697968" />
	</node>
	<node lat="58.655511106750346" lon="8.871211108804063" id="-22525">
		<tag k="name" v="Sausteliene" />
		<tag k="natural" v="slope" />
		<tag k="place" v="locality" />
		<tag k="ssr:stedsnr" v="697980" />
	</node>
	<node lat="58.66315277448996" lon="8.85545556157015" id="-22526">
		<tag k="name" v="Nøkkelåsen" />
		<tag k="natural" v="hill" />
		<tag k="place" v="locality" />
		<tag k="ssr:stedsnr" v="697987" />
	</node>
	<node lat="58.628952776296714" lon="8.79490833217075" id="-22540">
		<tag k="alt_name" v="Skibheia" />
		<tag k="fixme" v="consider natural=peak for the most distinct mountains in the district" />
		<tag k="name" v="Skipsheia" />
		<tag k="natural" v="hill" />
		<tag k="place" v="locality" />
		<tag k="ssr:stedsnr" v="729775" />
	</node>
	<node lat="58.64926389188247" lon="9.037130558043412" id="-22546">
		<tag k="fixme" v="consider natural=peak for the most distinct mountains in the district" />
		<tag k="name" v="Skogbråtsmyråsen" />
		<tag k="natural" v="hill" />
		<tag k="place" v="locality" />
		<tag k="ssr:stedsnr" v="757320" />
	</node>
	<node lat="58.59882777369836" lon="8.802591666355086" id="-22548">
		<tag k="name" v="Sorteknuten" />
		<tag k="natural" v="hill" />
		<tag k="place" v="locality" />
		<tag k="ssr:stedsnr" v="757053" />
	</node>
	<node lat="58.647080557661596" lon="9.131930552781157" id="-22549">
		<tag k="fixme" v="consider natural=peak for the most distinct mountains in the district" />
		<tag k="name" v="Måkeheia" />
		<tag k="natural" v="hill" />
		<tag k="place" v="locality" />
		<tag k="ssr:stedsnr" v="757057" />
	</node>
	<node lat="58.69478055973278" lon="9.007563880727526" id="-22551">
		<tag k="fixme" v="consider natural=peak for the most distinct mountains in the district" />
		<tag k="name" v="Åsane" />
		<tag k="natural" v="hill" />
		<tag k="place" v="locality" />
		<tag k="ssr:stedsnr" v="757262" />
	</node>
	<node lat="58.66923055751832" lon="9.084647225107311" id="-22552">
		<tag k="fixme" v="consider natural=peak for the most distinct mountains in the district" />
		<tag k="name" v="Lauvhjellheia" />
		<tag k="natural" v="hill" />
		<tag k="place" v="locality" />
		<tag k="ssr:stedsnr" v="757395" />
	</node>
	<node lat="58.61905000017845" lon="8.966033332402708" id="-22554">
		<tag k="name" v="Ospedalen" />
		<tag k="natural" v="valley" />
		<tag k="place" v="locality" />
		<tag k="ssr:stedsnr" v="757515" />
	</node>
	<node lat="58.67236944602041" lon="8.956880559790646" id="-22556">
		<tag k="name" v="Nedre Tollaugskjerr" />
		<tag k="natural" v="valley" />
		<tag k="place" v="locality" />
		<tag k="ssr:stedsnr" v="757558" />
	</node>
	<node lat="58.62129166528298" lon="9.056027781658301" id="-22561">
		<tag k="fixme" v="consider natural=peak for the most distinct mountains in the district" />
		<tag k="name" v="Bastnesheia" />
		<tag k="natural" v="hill" />
		<tag k="place" v="locality" />
		<tag k="ssr:stedsnr" v="757446" />
	</node>
	<node lat="58.63349722390968" lon="8.922500007561863" id="-22570">
		<tag k="name" v="Vallbakken" />
		<tag k="natural" v="slope" />
		<tag k="place" v="locality" />
		<tag k="ssr:stedsnr" v="757857" />
	</node>
	<node lat="58.629666669405765" lon="8.899933328061337" id="-22571">
		<tag k="fixme" v="consider natural=peak for the most distinct mountains in the district" />
		<tag k="name" v="Fløyheia" />
		<tag k="natural" v="hill" />
		<tag k="place" v="locality" />
		<tag k="ssr:stedsnr" v="757858" />
	</node>
	<node lat="58.65246110938516" lon="8.889249997265969" id="-22572">
		<tag k="fixme" v="consider natural=peak for the most distinct mountains in the district" />
		<tag k="name" v="Kobberknatten" />
		<tag k="natural" v="hill" />
		<tag k="place" v="locality" />
		<tag k="ssr:stedsnr" v="757748" />
	</node>
	<node lat="58.64958055213189" lon="8.917933336838699" id="-22575">
		<tag k="name" v="Øygardsdal" />
		<tag k="natural" v="valley" />
		<tag k="place" v="locality" />
		<tag k="ssr:stedsnr" v="757755" />
	</node>
	<node lat="58.63472500326549" lon="8.879724997754359" id="-22577">
		<tag k="name" v="Fjellsenden" />
		<tag k="natural" v="ridge" />
		<tag k="place" v="locality" />
		<tag k="ssr:stedsnr" v="757948" />
	</node>
	<node lat="58.66434444093336" lon="8.897413887159273" id="-22579">
		<tag k="name" v="Barlinddalen" />
		<tag k="natural" v="valley" />
		<tag k="place" v="locality" />
		<tag k="ssr:stedsnr" v="757999" />
	</node>
	<node lat="58.63758888673116" lon="8.950233330701387" id="-22585">
		<tag k="fixme" v="consider natural=peak for the most distinct mountains in the district" />
		<tag k="name" v="Takseråsen" />
		<tag k="natural" v="hill" />
		<tag k="place" v="locality" />
		<tag k="ssr:stedsnr" v="911409" />
	</node>
	<node lat="58.63217222266047" lon="9.035838891568035" id="-22586">
		<tag k="fixme" v="consider natural=peak for the most distinct mountains in the district" />
		<tag k="name" v="Storfjell" />
		<tag k="natural" v="hill" />
		<tag k="place" v="locality" />
		<tag k="ssr:stedsnr" v="911379" />
	</node>
	<node lat="58.59718055548912" lon="8.770069439764212" id="-22610">
		<tag k="name" v="Hørefjell" />
		<tag k="natural" v="hill" />
		<tag k="place" v="locality" />
		<tag k="ssr:stedsnr" v="818207" />
	</node>
	<node lat="58.692463884981166" lon="8.952588887639502" id="-22612">
		<tag k="name" v="Djupmyrheia" />
		<tag k="natural" v="hill" />
		<tag k="place" v="locality" />
		<tag k="ssr:stedsnr" v="818305" />
	</node>
	<node lat="58.69431944611165" lon="8.967213884972049" id="-22613">
		<tag k="name" v="Eikedalen" />
		<tag k="natural" v="valley" />
		<tag k="place" v="locality" />
		<tag k="ssr:stedsnr" v="818308" />
	</node>
	<node lat="58.66343333210404" lon="8.844938882712324" id="-22614">
		<tag k="name" v="Bekkheia" />
		<tag k="natural" v="hill" />
		<tag k="place" v="locality" />
		<tag k="ssr:stedsnr" v="818980" />
	</node>
	<node lat="58.62628889060004" lon="8.781011107726297" id="-22629">
		<tag k="fixme" v="consider natural=peak for the most distinct mountains in the district" />
		<tag k="name" v="Spetheia" />
		<tag k="natural" v="hill" />
		<tag k="place" v="locality" />
		<tag k="ssr:stedsnr" v="879005" />
	</node>
	<node lat="58.66173055524285" lon="8.936513880656356" id="-22641">
		<tag k="fixme" v="consider natural=peak for the most distinct mountains in the district" />
		<tag k="name" v="Flåstadåsen" />
		<tag k="natural" v="hill" />
		<tag k="place" v="locality" />
		<tag k="ssr:stedsnr" v="879364" />
	</node>
	<node lat="58.680583330260326" lon="9.081458338626302" id="-22646">
		<tag k="fixme" v="consider natural=peak for the most distinct mountains in the district" />
		<tag k="name" v="Merråsen" />
		<tag k="natural" v="hill" />
		<tag k="place" v="locality" />
		<tag k="ssr:stedsnr" v="879406" />
	</node>
	<node lat="58.62639722242547" lon="9.05818888398612" id="-22648">
		<tag k="fixme" v="consider natural=peak for the most distinct mountains in the district" />
		<tag k="name" v="Nesheia" />
		<tag k="natural" v="hill" />
		<tag k="place" v="locality" />
		<tag k="ssr:stedsnr" v="879451" />
	</node>
	<node lat="58.64521666915764" lon="9.085419443368709" id="-22649">
		<tag k="fixme" v="consider natural=peak for the most distinct mountains in the district" />
		<tag k="name" v="Jordbæråsen" />
		<tag k="natural" v="hill" />
		<tag k="place" v="locality" />
		<tag k="ssr:stedsnr" v="879455" />
	</node>
	<node lat="58.637986109058616" lon="9.092669448896718" id="-22651">
		<tag k="fixme" v="consider natural=peak for the most distinct mountains in the district" />
		<tag k="name" v="Langehei" />
		<tag k="natural" v="hill" />
		<tag k="place" v="locality" />
		<tag k="ssr:stedsnr" v="879463" />
	</node>
	<node lat="58.62036944414434" lon="9.104638880975466" id="-22652">
		<tag k="name" v="Hoskuldshei" />
		<tag k="natural" v="hill" />
		<tag k="place" v="locality" />
		<tag k="ssr:stedsnr" v="879400" />
	</node>
	<node lat="58.640266664128454" lon="9.039361112374136" id="-22657">
		<tag k="name" v="Høgfjell" />
		<tag k="natural" v="hill" />
		<tag k="place" v="locality" />
		<tag k="ssr:stedsnr" v="879710" />
	</node>
	<node lat="58.688369440871064" lon="8.999474992271127" id="-22660">
		<tag k="fixme" v="consider natural=peak for the most distinct mountains in the district" />
		<tag k="name" v="Fløyfjell" />
		<tag k="natural" v="hill" />
		<tag k="place" v="locality" />
		<tag k="ssr:stedsnr" v="879603" />
	</node>
	<node lat="58.66938611101962" lon="8.867672214216823" id="-22662">
		<tag k="name" v="Lillehei" />
		<tag k="natural" v="ridge" />
		<tag k="place" v="locality" />
		<tag k="ssr:stedsnr" v="879818" />
	</node>
	<node lat="58.6138777798452" lon="8.834672214310853" id="-22664">
		<tag k="fixme" v="consider natural=peak for the most distinct mountains in the district" />
		<tag k="name" v="Fagerliåsen" />
		<tag k="natural" v="hill" />
		<tag k="place" v="locality" />
		<tag k="ssr:stedsnr" v="879917" />
	</node>
	<node lat="58.63741388588407" lon="8.9219138805056" id="-22675">
		<tag k="name" v="Hasseldalen" />
		<tag k="natural" v="valley" />
		<tag k="place" v="locality" />
		<tag k="ssr:stedsnr" v="911373" />
	</node>
	<node lat="58.613802773756184" lon="8.774994448999475" id="-22681">
		<tag k="fixme" v="consider natural=peak for the most distinct mountains in the district" />
		<tag k="name" v="Ansmyrheia" />
		<tag k="natural" v="hill" />
		<tag k="place" v="locality" />
		<tag k="ssr:stedsnr" v="911811" />
	</node>
	<node lat="58.66326389248136" lon="9.089825007295458" id="-22688">
		<tag k="name" v="Rondtholl" />
		<tag k="natural" v="valley" />
		<tag k="place" v="locality" />
		<tag k="ssr:stedsnr" v="940113" />
	</node>
	<node lat="58.57137500134013" lon="8.920533333637312" id="-22691">
		<tag k="name" v="Kildalen" />
		<tag k="natural" v="valley" />
		<tag k="place" v="locality" />
		<tag k="ssr:stedsnr" v="940093" />
	</node>
	<node lat="58.59746388783955" lon="8.912213880919596" id="-22694">
		<tag k="name" v="Bånjefaret" />
		<tag k="place" v="locality" />
		<tag k="ssr:stedsnr" v="272868" />
	</node>
	<node lat="58.65851944679056" lon="9.010713885558385" id="-22717">
		<tag k="fixme" v="consider natural=peak for the most distinct mountains in the district" />
		<tag k="name" v="Rangleåsen" />
		<tag k="natural" v="hill" />
		<tag k="place" v="locality" />
		<tag k="ssr:stedsnr" v="1425" />
	</node>
	<node lat="58.61711666986044" lon="8.888627782726788" id="-22723">
		<tag k="alt_name" v="Fianheia" />
		<tag k="fixme" v="consider natural=peak for the most distinct mountains in the district" />
		<tag k="name" v="Fianeheia" />
		<tag k="natural" v="hill" />
		<tag k="place" v="locality" />
		<tag k="ssr:stedsnr" v="1354" />
	</node>
	<node lat="58.613822225344656" lon="8.815150001932938" id="-22737">
		<tag k="name" v="Ulvekula" />
		<tag k="place" v="locality" />
		<tag k="ssr:stedsnr" v="29035" />
	</node>
	<node lat="58.59702500102296" lon="8.834655557040353" id="-22742">
		<tag k="fixme" v="consider natural=peak for the most distinct mountains in the district" />
		<tag k="name" v="Kalbergknuten" />
		<tag k="natural" v="hill" />
		<tag k="place" v="locality" />
		<tag k="ssr:stedsnr" v="29084" />
	</node>
	<node lat="58.65664722354145" lon="9.084291660928704" id="-22744">
		<tag k="name" v="Slåttekjerråsen" />
		<tag k="natural" v="hill" />
		<tag k="place" v="locality" />
		<tag k="ssr:stedsnr" v="29092" />
	</node>
	<node lat="58.6537944451381" lon="9.076152769974442" id="-22745">
		<tag k="name" v="Merrhola" />
		<tag k="natural" v="valley" />
		<tag k="place" v="locality" />
		<tag k="ssr:stedsnr" v="29093" />
	</node>
	<node lat="58.6159305537089" lon="8.761191673257168" id="-22749">
		<tag k="fixme" v="consider natural=peak for the most distinct mountains in the district" />
		<tag k="name" v="Toksåsen" />
		<tag k="natural" v="hill" />
		<tag k="place" v="locality" />
		<tag k="ssr:stedsnr" v="29055" />
	</node>
	<node lat="58.596333329412744" lon="8.856477780657604" id="-22751">
		<tag k="name" v="Saumyrdalen" />
		<tag k="natural" v="valley" />
		<tag k="place" v="locality" />
		<tag k="ssr:stedsnr" v="29065" />
	</node>
	<node lat="58.59602777871698" lon="8.762169440147906" id="-22752">
		<tag k="fixme" v="consider natural=peak for the most distinct mountains in the district" />
		<tag k="name" v="Langmyrheia" />
		<tag k="natural" v="hill" />
		<tag k="place" v="locality" />
		<tag k="ssr:stedsnr" v="29215" />
	</node>
	<node lat="58.59928889009538" lon="9.075519443835454" id="-22759">
		<tag k="fixme" v="consider natural=peak for the most distinct mountains in the district" />
		<tag k="name" v="Tårnheia" />
		<tag k="natural" v="hill" />
		<tag k="place" v="locality" />
		<tag k="ssr:stedsnr" v="29283" />
	</node>
	<node lat="58.692408332670325" lon="9.032122218019072" id="-22760">
		<tag k="name" v="Klomra" />
		<tag k="natural" v="gorge" />
		<tag k="ssr:stedsnr" v="29288" />
	</node>
	<node lat="58.690869445148614" lon="8.990177779502917" id="-22761">
		<tag k="name" v="Lastebakkane" />
		<tag k="natural" v="slope" />
		<tag k="place" v="locality" />
		<tag k="ssr:stedsnr" v="29299" />
	</node>
	<node lat="58.654122219103215" lon="9.01386944190281" id="-22762">
		<tag k="fixme" v="consider natural=peak for the most distinct mountains in the district" />
		<tag k="name" v="Bjørnåsen" />
		<tag k="natural" v="hill" />
		<tag k="place" v="locality" />
		<tag k="ssr:stedsnr" v="29339" />
	</node>
	<node lat="58.65895000449538" lon="9.026222223905696" id="-22765">
		<tag k="name" v="Baunefjella" />
		<tag k="natural" v="hill" />
		<tag k="place" v="locality" />
		<tag k="ssr:stedsnr" v="29363" />
	</node>
	<node lat="58.61240555931961" lon="9.069277776063645" id="-22767">
		<tag k="fixme" v="consider natural=peak for the most distinct mountains in the district" />
		<tag k="name" v="Flaufjell" />
		<tag k="natural" v="hill" />
		<tag k="place" v="locality" />
		<tag k="ssr:stedsnr" v="29442" />
	</node>
	<node lat="58.605838889638015" lon="9.023050003954669" id="-22778">
		<tag k="fixme" v="consider natural=peak for the most distinct mountains in the district" />
		<tag k="name" v="Rognåsen" />
		<tag k="natural" v="hill" />
		<tag k="place" v="locality" />
		<tag k="ssr:stedsnr" v="29555" />
	</node>
	<node lat="58.59249166245321" lon="8.940488897129368" id="-22780">
		<tag k="fixme" v="consider natural=peak for the most distinct mountains in the district" />
		<tag k="name" v="Høyvikåsen" />
		<tag k="natural" v="hill" />
		<tag k="place" v="locality" />
		<tag k="ssr:stedsnr" v="29648" />
	</node>
	<node lat="58.59896666497997" lon="8.976919451017059" id="-22781">
		<tag k="fixme" v="consider natural=peak for the most distinct mountains in the district" />
		<tag k="name" v="Heståsen" />
		<tag k="natural" v="hill" />
		<tag k="place" v="locality" />
		<tag k="ssr:stedsnr" v="29654" />
	</node>
	<node lat="58.63685000362021" lon="8.901963887613022" id="-22785">
		<tag k="name" v="Bergehaganeheia" />
		<tag k="natural" v="hill" />
		<tag k="place" v="locality" />
		<tag k="ssr:stedsnr" v="29833" />
	</node>
	<node lat="58.637486111986284" lon="8.91651943867454" id="-22786">
		<tag k="fixme" v="consider natural=peak for the most distinct mountains in the district" />
		<tag k="name" v="Takseråsen" />
		<tag k="natural" v="hill" />
		<tag k="place" v="locality" />
		<tag k="ssr:stedsnr" v="29835" />
	</node>
	<node lat="58.633730554862126" lon="8.911044447235383" id="-22790">
		<tag k="name" v="Gårdalen" />
		<tag k="natural" v="valley" />
		<tag k="place" v="locality" />
		<tag k="ssr:stedsnr" v="29861" />
	</node>
	<node lat="58.63931666408255" lon="8.858280551498734" id="-22794">
		<tag k="fixme" v="consider natural=peak for the most distinct mountains in the district" />
		<tag k="name" v="Heljåsen" />
		<tag k="natural" v="hill" />
		<tag k="place" v="locality" />
		<tag k="ssr:stedsnr" v="29931" />
	</node>
	<node lat="58.62745833227796" lon="8.878705553095472" id="-22795">
		<tag k="fixme" v="consider natural=peak for the most distinct mountains in the district" />
		<tag k="name" v="Fløyheia" />
		<tag k="natural" v="hill" />
		<tag k="place" v="locality" />
		<tag k="ssr:stedsnr" v="29943" />
	</node>
	<node lat="58.651974996946336" lon="8.865441664345662" id="-22798">
		<tag k="fixme" v="consider natural=peak for the most distinct mountains in the district" />
		<tag k="name" v="Dalheia" />
		<tag k="natural" v="hill" />
		<tag k="place" v="locality" />
		<tag k="ssr:stedsnr" v="29958" />
	</node>
	<node lat="58.65738889063653" lon="8.874069452067424" id="-22800">
		<tag k="name" v="Knutsbærliene" />
		<tag k="natural" v="slope" />
		<tag k="place" v="locality" />
		<tag k="ssr:stedsnr" v="29964" />
	</node>
	<node lat="58.667347219813955" lon="8.906513890915543" id="-22803">
		<tag k="name" v="Hestvadlia" />
		<tag k="natural" v="slope" />
		<tag k="place" v="locality" />
		<tag k="ssr:stedsnr" v="29999" />
	</node>
	<node lat="58.68265000415843" lon="8.855324994036732" id="-22815">
		<tag k="fixme" v="consider natural=peak for the most distinct mountains in the district" />
		<tag k="name" v="Solbuheia" />
		<tag k="natural" v="hill" />
		<tag k="place" v="locality" />
		<tag k="ssr:stedsnr" v="61465" />
	</node>
	<node lat="58.60931388780576" lon="8.93471666963728" id="-22826">
		<tag k="name" v="Svensskott" />
		<tag k="natural" v="valley" />
		<tag k="place" v="locality" />
		<tag k="ssr:stedsnr" v="88719" />
	</node>
	<node lat="58.696647218574775" lon="8.971783325562852" id="-22829">
		<tag k="fixme" v="consider natural=peak for the most distinct mountains in the district" />
		<tag k="name" v="Eikedalsheia" />
		<tag k="natural" v="hill" />
		<tag k="place" v="locality" />
		<tag k="ssr:stedsnr" v="90274" />
	</node>
	<node lat="58.6483055568304" lon="9.015175005752955" id="-22831">
		<tag k="fixme" v="consider natural=peak for the most distinct mountains in the district" />
		<tag k="name" v="Løvåsen" />
		<tag k="natural" v="hill" />
		<tag k="place" v="locality" />
		<tag k="ssr:stedsnr" v="90281" />
	</node>
	<node lat="58.70140277383039" lon="8.972994446873836" id="-22832">
		<tag k="name" v="Kringlemyrknattene" />
		<tag k="natural" v="hill" />
		<tag k="place" v="locality" />
		<tag k="ssr:stedsnr" v="90289" />
	</node>
	<node lat="58.65846667106502" lon="9.041224995595611" id="-22834">
		<tag k="fixme" v="consider natural=peak for the most distinct mountains in the district" />
		<tag k="name" v="Mauråsen" />
		<tag k="natural" v="hill" />
		<tag k="place" v="locality" />
		<tag k="ssr:stedsnr" v="90304" />
	</node>
	<node lat="58.65531389339783" lon="8.993780556356782" id="-22835">
		<tag k="fixme" v="consider natural=peak for the most distinct mountains in the district" />
		<tag k="name" v="Heimre Bjellandsvannsheia" />
		<tag k="natural" v="hill" />
		<tag k="place" v="locality" />
		<tag k="ssr:stedsnr" v="90312" />
	</node>
	<node lat="58.64456111415863" lon="8.782541664146988" id="-22837">
		<tag k="name" v="Nybudalen" />
		<tag k="natural" v="valley" />
		<tag k="place" v="locality" />
		<tag k="ssr:stedsnr" v="90021" />
	</node>
	<node lat="58.6520249986124" lon="9.047388888698348" id="-22839">
		<tag k="name" v="Steinåsknatten" />
		<tag k="natural" v="hill" />
		<tag k="place" v="locality" />
		<tag k="ssr:stedsnr" v="90039" />
	</node>
	<node lat="58.62347499594672" lon="8.805238883699584" id="-22840">
		<tag k="name" v="Sagåsliene" />
		<tag k="natural" v="slope" />
		<tag k="place" v="locality" />
		<tag k="ssr:stedsnr" v="90042" />
	</node>
	<node lat="58.591455556328704" lon="8.79597222781475" id="-22843">
		<tag k="name" v="Øynesliene" />
		<tag k="natural" v="slope" />
		<tag k="place" v="locality" />
		<tag k="ssr:stedsnr" v="90056" />
	</node>
	<node lat="58.57034722475678" lon="8.898400001544738" id="-22846">
		<tag k="name" v="Tingvollen" />
		<tag k="place" v="locality" />
		<tag k="ssr:stedsnr" v="90088" />
	</node>
	<node lat="58.69274166655637" lon="9.054988887059265" id="-22847">
		<tag k="name" v="Stordal" />
		<tag k="natural" v="valley" />
		<tag k="place" v="locality" />
		<tag k="ssr:stedsnr" v="90089" />
	</node>
	<node lat="58.65839999581449" lon="9.087036118124857" id="-22849">
		<tag k="fixme" v="consider natural=peak for the most distinct mountains in the district" />
		<tag k="name" v="Øygardsåsen" />
		<tag k="natural" v="hill" />
		<tag k="place" v="locality" />
		<tag k="ssr:stedsnr" v="90091" />
	</node>
	<node lat="58.66550555163389" lon="9.096588882462674" id="-22850">
		<tag k="name" v="Bjørndalen" />
		<tag k="natural" v="valley" />
		<tag k="place" v="locality" />
		<tag k="ssr:stedsnr" v="90097" />
	</node>
	<node lat="58.65413888675398" lon="8.85393888824863" id="-22854">
		<tag k="fixme" v="consider natural=peak for the most distinct mountains in the district" />
		<tag k="name" v="Kolbuheia" />
		<tag k="natural" v="hill" />
		<tag k="place" v="locality" />
		<tag k="ssr:stedsnr" v="90948" />
	</node>
	<node lat="58.69605277495739" lon="9.044155563565706" id="-22858">
		<tag k="name" v="Gjertsdalen" />
		<tag k="natural" v="valley" />
		<tag k="place" v="locality" />
		<tag k="ssr:stedsnr" v="90260" />
	</node>
	<node lat="58.66333333273514" lon="9.007458335845554" id="-22861">
		<tag k="fixme" v="consider natural=peak for the most distinct mountains in the district" />
		<tag k="name" v="Store Øygardsåsen" />
		<tag k="natural" v="hill" />
		<tag k="place" v="locality" />
		<tag k="ssr:stedsnr" v="90318" />
	</node>
	<node lat="58.65932499968593" lon="9.01144444759106" id="-22862">
		<tag k="fixme" v="consider natural=peak for the most distinct mountains in the district" />
		<tag k="name" v="Høyekollen" />
		<tag k="natural" v="hill" />
		<tag k="place" v="locality" />
		<tag k="ssr:stedsnr" v="90322" />
	</node>
	<node lat="58.650161107881914" lon="8.986294447864847" id="-22867">
		<tag k="fixme" v="consider natural=peak for the most distinct mountains in the district" />
		<tag k="name" v="Langmyrheiene" />
		<tag k="natural" v="hill" />
		<tag k="place" v="locality" />
		<tag k="ssr:stedsnr" v="90345" />
	</node>
	<node lat="58.62662222102593" lon="8.997455549950711" id="-22869">
		<tag k="name" v="Røyvannsheia" />
		<tag k="natural" v="hill" />
		<tag k="place" v="locality" />
		<tag k="ssr:stedsnr" v="90525" />
	</node>
	<node lat="58.61079167028175" lon="8.959419439923108" id="-22871">
		<tag k="fixme" v="consider natural=peak for the most distinct mountains in the district" />
		<tag k="name" v="Gurihei" />
		<tag k="natural" v="hill" />
		<tag k="place" v="locality" />
		<tag k="ssr:stedsnr" v="90498" />
	</node>
	<node lat="58.634716667492945" lon="8.99812222361998" id="-22878">
		<tag k="fixme" v="consider natural=peak for the most distinct mountains in the district" />
		<tag k="name" v="Bronåsen" />
		<tag k="natural" v="hill" />
		<tag k="place" v="locality" />
		<tag k="ssr:stedsnr" v="90708" />
	</node>
	<node lat="58.64402500169702" lon="8.886997220788158" id="-22880">
		<tag k="name" v="Gruebakken" />
		<tag k="natural" v="slope" />
		<tag k="place" v="locality" />
		<tag k="ssr:stedsnr" v="90841" />
	</node>
	<node lat="58.65530000176829" lon="8.882847220178153" id="-22889">
		<tag k="fixme" v="consider natural=peak for the most distinct mountains in the district" />
		<tag k="name" v="Foleåsen" />
		<tag k="natural" v="hill" />
		<tag k="place" v="locality" />
		<tag k="ssr:stedsnr" v="90735" />
	</node>
	<node lat="58.65225277331292" lon="8.934777771127635" id="-22891">
		<tag k="name" v="Stubbestad" />
		<tag k="place" v="locality" />
		<tag k="ssr:stedsnr" v="90750" />
	</node>
	<node lat="58.65194166469168" lon="8.883697213981177" id="-22892">
		<tag k="fixme" v="consider natural=peak for the most distinct mountains in the district" />
		<tag k="name" v="Langfjella" />
		<tag k="natural" v="hill" />
		<tag k="place" v="locality" />
		<tag k="ssr:stedsnr" v="90754" />
	</node>
	<node lat="58.58531111175887" lon="8.90698332640417" id="-22897">
		<tag k="fixme" v="consider natural=peak for the most distinct mountains in the district" />
		<tag k="name" v="Vålvannsheia" />
		<tag k="natural" v="hill" />
		<tag k="place" v="locality" />
		<tag k="ssr:stedsnr" v="90890" />
	</node>
	<node lat="58.620947218601806" lon="8.858702771645646" id="-22898">
		<tag k="fixme" v="consider natural=peak for the most distinct mountains in the district" />
		<tag k="name" v="Stokkåsen" />
		<tag k="natural" v="hill" />
		<tag k="place" v="locality" />
		<tag k="ssr:stedsnr" v="90892" />
	</node>
	<node lat="58.612636108433705" lon="8.860552776906049" id="-22900">
		<tag k="fixme" v="consider natural=peak for the most distinct mountains in the district" />
		<tag k="name" v="Kyllingknatten" />
		<tag k="natural" v="hill" />
		<tag k="place" v="locality" />
		<tag k="ssr:stedsnr" v="90905" />
	</node>
	<node lat="58.60502500059431" lon="8.86413332920191" id="-22901">
		<tag k="fixme" v="consider natural=peak for the most distinct mountains in the district" />
		<tag k="name" v="Midtåsen" />
		<tag k="natural" v="hill" />
		<tag k="place" v="locality" />
		<tag k="ssr:stedsnr" v="90909" />
	</node>
	<node lat="58.626127780931" lon="8.903375007929558" id="-22910">
		<tag k="fixme" v="consider natural=peak for the most distinct mountains in the district" />
		<tag k="name" v="Myklebustadheia" />
		<tag k="natural" v="hill" />
		<tag k="place" v="locality" />
		<tag k="ssr:stedsnr" v="122354" />
	</node>
	<node lat="58.670769445739815" lon="8.938136119191116" id="-22912">
		<tag k="fixme" v="consider natural=peak for the most distinct mountains in the district" />
		<tag k="name" v="Liheia" />
		<tag k="natural" v="hill" />
		<tag k="place" v="locality" />
		<tag k="ssr:stedsnr" v="122433" />
	</node>
	<node lat="58.57199999876641" lon="8.913536103092879" id="-22924">
		<tag k="name" v="Midttjenndalen" />
		<tag k="natural" v="valley" />
		<tag k="place" v="locality" />
		<tag k="ssr:stedsnr" v="150080" />
	</node>
	<node lat="58.693716670595464" lon="9.066213889485672" id="-22926">
		<tag k="name" v="Skarmoen" />
		<tag k="place" v="locality" />
		<tag k="ssr:stedsnr" v="150085" />
	</node>
	<node lat="58.66201666224287" lon="8.993311117251471" id="-22927">
		<tag k="fixme" v="consider natural=peak for the most distinct mountains in the district" />
		<tag k="name" v="Sagåsen" />
		<tag k="natural" v="hill" />
		<tag k="place" v="locality" />
		<tag k="ssr:stedsnr" v="150026" />
	</node>
	<node lat="58.612472221485476" lon="8.805577771899637" id="-22928">
		<tag k="fixme" v="consider natural=peak for the most distinct mountains in the district" />
		<tag k="name" v="Horveheia" />
		<tag k="natural" v="hill" />
		<tag k="place" v="locality" />
		<tag k="ssr:stedsnr" v="150029" />
	</node>
	<node lat="58.64804166929011" lon="9.095491666186964" id="-22929">
		<tag k="fixme" v="consider natural=peak for the most distinct mountains in the district" />
		<tag k="name" v="Bergendalsheia" />
		<tag k="natural" v="hill" />
		<tag k="place" v="locality" />
		<tag k="ssr:stedsnr" v="150030" />
	</node>
	<node lat="58.62328333500857" lon="8.813561108389827" id="-22930">
		<tag k="name" v="Orekjerrliene" />
		<tag k="natural" v="slope" />
		<tag k="place" v="locality" />
		<tag k="ssr:stedsnr" v="150036" />
	</node>
	<node lat="58.60824999665685" lon="8.74346666698821" id="-22932">
		<tag k="fixme" v="consider natural=peak for the most distinct mountains in the district" />
		<tag k="name" v="Knuten" />
		<tag k="natural" v="hill" />
		<tag k="place" v="locality" />
		<tag k="ssr:stedsnr" v="150047" />
	</node>
	<node lat="58.60768333300853" lon="8.753838892953299" id="-22933">
		<tag k="fixme" v="consider natural=peak for the most distinct mountains in the district" />
		<tag k="name" v="Sankerheia" />
		<tag k="natural" v="hill" />
		<tag k="place" v="locality" />
		<tag k="ssr:stedsnr" v="150050" />
	</node>
	<node lat="58.57897499620456" lon="8.897436104334327" id="-22934">
		<tag k="fixme" v="consider natural=peak for the most distinct mountains in the district" />
		<tag k="name" v="Foletjennheia" />
		<tag k="natural" v="hill" />
		<tag k="place" v="locality" />
		<tag k="ssr:stedsnr" v="150094" />
	</node>
	<node lat="58.598947223959115" lon="9.064019446298271" id="-22936">
		<tag k="name" v="Basteberg" />
		<tag k="natural" v="hill" />
		<tag k="place" v="locality" />
		<tag k="ssr:stedsnr" v="150265" />
	</node>
	<node lat="58.69169999633367" lon="9.002041661476035" id="-22937">
		<tag k="name" v="Knøllen" />
		<tag k="natural" v="hill" />
		<tag k="place" v="locality" />
		<tag k="ssr:stedsnr" v="150270" />
	</node>
	<node lat="58.66697500421421" lon="8.960516663062325" id="-22943">
		<tag k="name" v="Skarkheia" />
		<tag k="natural" v="hill" />
		<tag k="place" v="locality" />
		<tag k="ssr:stedsnr" v="150383" />
	</node>
	<node lat="58.611663889507916" lon="9.059233340019105" id="-22948">
		<tag k="name" v="Hamdalen" />
		<tag k="natural" v="valley" />
		<tag k="place" v="locality" />
		<tag k="ssr:stedsnr" v="150426" />
	</node>
	<node lat="58.62396944077008" lon="8.918330560070903" id="-22949">
		<tag k="fixme" v="consider natural=peak for the most distinct mountains in the district" />
		<tag k="name" v="Lauvåsen" />
		<tag k="natural" v="hill" />
		<tag k="place" v="locality" />
		<tag k="ssr:stedsnr" v="150628" />
	</node>
	<node lat="58.668827777105406" lon="9.096705560121036" id="-22953">
		<tag k="name" v="Haresnardalen" />
		<tag k="natural" v="valley" />
		<tag k="place" v="locality" />
		<tag k="ssr:stedsnr" v="150397" />
	</node>
	<node lat="58.6344138916216" lon="9.08520555694316" id="-22954">
		<tag k="fixme" v="consider natural=peak for the most distinct mountains in the district" />
		<tag k="name" v="Brukveik" />
		<tag k="natural" v="hill" />
		<tag k="place" v="locality" />
		<tag k="ssr:stedsnr" v="150476" />
	</node>
	<node lat="58.62833888695511" lon="9.06070000792837" id="-22956">
		<tag k="name" v="Slottefjell" />
		<tag k="natural" v="hill" />
		<tag k="place" v="locality" />
		<tag k="ssr:stedsnr" v="150481" />
	</node>
	<node lat="58.57429166460283" lon="9.005186119614699" id="-22962">
		<tag k="fixme" v="consider natural=peak for the most distinct mountains in the district" />
		<tag k="name" v="Flathei" />
		<tag k="natural" v="hill" />
		<tag k="place" v="locality" />
		<tag k="ssr:stedsnr" v="150656" />
	</node>
	<node lat="58.589122224692126" lon="9.011288896324162" id="-22963">
		<tag k="fixme" v="consider natural=peak for the most distinct mountains in the district" />
		<tag k="name" v="Trollåsen" />
		<tag k="natural" v="hill" />
		<tag k="place" v="locality" />
		<tag k="ssr:stedsnr" v="150665" />
	</node>
	<node lat="58.6331972244664" lon="8.96666666596155" id="-22965">
		<tag k="name" v="Heiimellom" />
		<tag k="natural" v="valley" />
		<tag k="place" v="locality" />
		<tag k="ssr:stedsnr" v="150684" />
	</node>
	<node lat="58.63655000339529" lon="9.038855558014903" id="-22969">
		<tag k="name" v="Kvernhusdalen" />
		<tag k="natural" v="valley" />
		<tag k="place" v="locality" />
		<tag k="ssr:stedsnr" v="150705" />
	</node>
	<node lat="58.63627222226063" lon="8.996786109402914" id="-22970">
		<tag k="name" v="Sælen" />
		<tag k="natural" v="hill" />
		<tag k="place" v="locality" />
		<tag k="ssr:stedsnr" v="150708" />
	</node>
	<node lat="58.62640277451352" lon="8.950344443838222" id="-22972">
		<tag k="name" v="Valbergheia" />
		<tag k="natural" v="hill" />
		<tag k="place" v="locality" />
		<tag k="ssr:stedsnr" v="150717" />
	</node>
	<node lat="58.64301944309067" lon="9.020502774706172" id="-22974">
		<tag k="name" v="Dalane" />
		<tag k="natural" v="valley" />
		<tag k="place" v="locality" />
		<tag k="ssr:stedsnr" v="150722" />
	</node>
	<node lat="58.65263889286549" lon="8.912483339914905" id="-22976">
		<tag k="name" v="Føykåsrenna" />
		<tag k="natural" v="valley" />
		<tag k="place" v="locality" />
		<tag k="ssr:stedsnr" v="150750" />
	</node>
	<node lat="58.62020555576355" lon="8.828161105194525" id="-22980">
		<tag k="name" v="Tørrmoen" />
		<tag k="place" v="locality" />
		<tag k="ssr:stedsnr" v="150886" />
	</node>
	<node lat="58.643072226143545" lon="8.94694167144334" id="-22984">
		<tag k="fixme" v="consider natural=peak for the most distinct mountains in the district" />
		<tag k="name" v="Bråtanknuten" />
		<tag k="natural" v="hill" />
		<tag k="place" v="locality" />
		<tag k="ssr:stedsnr" v="150693" />
	</node>
	<node lat="58.64584444295798" lon="8.937883337846898" id="-22985">
		<tag k="fixme" v="consider natural=peak for the most distinct mountains in the district" />
		<tag k="name" v="Kolvedheia" />
		<tag k="natural" v="hill" />
		<tag k="place" v="locality" />
		<tag k="ssr:stedsnr" v="150695" />
	</node>
	<node lat="58.63914444719598" lon="9.030319446320481" id="-22986">
		<tag k="fixme" v="consider natural=peak for the most distinct mountains in the district" />
		<tag k="name" v="Svartvannsåsen" />
		<tag k="natural" v="hill" />
		<tag k="place" v="locality" />
		<tag k="ssr:stedsnr" v="150699" />
	</node>
	<node lat="58.64361388555775" lon="8.903680554282534" id="-22987">
		<tag k="name" v="Bomdalen" />
		<tag k="natural" v="valley" />
		<tag k="place" v="locality" />
		<tag k="ssr:stedsnr" v="150833" />
	</node>
	<node lat="58.62661110820204" lon="8.883216658272243" id="-22989">
		<tag k="fixme" v="consider natural=peak for the most distinct mountains in the district" />
		<tag k="name" v="Leiråsen" />
		<tag k="natural" v="hill" />
		<tag k="place" v="locality" />
		<tag k="ssr:stedsnr" v="150840" />
	</node>
	<node lat="58.631930555323606" lon="8.89119445245487" id="-22990">
		<tag k="fixme" v="consider natural=peak for the most distinct mountains in the district" />
		<tag k="name" v="Bånjåsen" />
		<tag k="natural" v="hill" />
		<tag k="place" v="locality" />
		<tag k="ssr:stedsnr" v="150841" />
	</node>
	<node lat="58.63585832925547" lon="8.919505562259301" id="-22992">
		<tag k="name" v="Bjørnknatten" />
		<tag k="natural" v="hill" />
		<tag k="place" v="locality" />
		<tag k="ssr:stedsnr" v="150848" />
	</node>
	<node lat="58.63663055676305" lon="8.828513881654546" id="-22994">
		<tag k="fixme" v="consider natural=peak for the most distinct mountains in the district" />
		<tag k="name" v="Heståsen" />
		<tag k="natural" v="hill" />
		<tag k="place" v="locality" />
		<tag k="ssr:stedsnr" v="150937" />
	</node>
	<node lat="58.65084722427725" lon="8.873308334898367" id="-22995">
		<tag k="fixme" v="consider natural=peak for the most distinct mountains in the district" />
		<tag k="name" v="Auselheia" />
		<tag k="natural" v="hill" />
		<tag k="place" v="locality" />
		<tag k="ssr:stedsnr" v="150947" />
	</node>
	<node lat="58.667411110850644" lon="8.912811106232049" id="-22996">
		<tag k="fixme" v="consider natural=peak for the most distinct mountains in the district" />
		<tag k="name" v="Sagåsen" />
		<tag k="natural" v="hill" />
		<tag k="place" v="locality" />
		<tag k="ssr:stedsnr" v="150998" />
	</node>
	<node lat="58.66609721988959" lon="8.898497221678568" id="-22997">
		<tag k="fixme" v="consider natural=peak for the most distinct mountains in the district" />
		<tag k="name" v="Røykjerrheia" />
		<tag k="natural" v="hill" />
		<tag k="place" v="locality" />
		<tag k="ssr:stedsnr" v="150999" />
	</node>
	<node lat="58.64912589524863" lon="8.842013181931083" id="-22998">
		<tag k="name" v="Vassendfjell" />
		<tag k="natural" v="hill" />
		<tag k="place" v="locality" />
		<tag k="ssr:stedsnr" v="153084" />
	</node>
	<node lat="58.69025000098727" lon="8.889252769897832" id="-22999">
		<tag k="fixme" v="consider natural=peak for the most distinct mountains in the district" />
		<tag k="name" v="Kobberknatten" />
		<tag k="natural" v="hill" />
		<tag k="place" v="locality" />
		<tag k="ssr:stedsnr" v="153480" />
	</node>
	<node lat="58.64062777769819" lon="8.837575004477113" id="-23000">
		<tag k="name" v="Musrådalen" />
		<tag k="natural" v="valley" />
		<tag k="place" v="locality" />
		<tag k="ssr:stedsnr" v="272919" />
	</node>
	<node lat="58.66133888586275" lon="8.872566667584334" id="-23002">
		<tag k="name" v="Myrdalsknatten" />
		<tag k="natural" v="hill" />
		<tag k="place" v="locality" />
		<tag k="ssr:stedsnr" v="272957" />
	</node>
	<node lat="58.661869443954814" lon="8.873283329406007" id="-23003">
		<tag k="name" v="Myrdalen" />
		<tag k="natural" v="valley" />
		<tag k="place" v="locality" />
		<tag k="ssr:stedsnr" v="272960" />
	</node>
	<node lat="58.634566663145556" lon="8.836566675168513" id="-23019">
		<tag k="fixme" v="consider natural=peak for the most distinct mountains in the district" />
		<tag k="name" v="Østebøheia" />
		<tag k="natural" v="hill" />
		<tag k="place" v="locality" />
		<tag k="ssr:stedsnr" v="183779" />
	</node>
	<node lat="58.64248888873608" lon="8.782494440104625" id="-23026">
		<tag k="name" v="Sagdalen" />
		<tag k="natural" v="valley" />
		<tag k="place" v="locality" />
		<tag k="ssr:stedsnr" v="211020" />
	</node>
	<node lat="58.6378166676066" lon="8.770066664008391" id="-23028">
		<tag k="name" v="Lybakken" />
		<tag k="natural" v="hill" />
		<tag k="place" v="locality" />
		<tag k="ssr:stedsnr" v="211024" />
	</node>
	<node lat="58.61173888569711" lon="8.783208329835674" id="-23030">
		<tag k="fixme" v="consider natural=peak for the most distinct mountains in the district" />
		<tag k="name" v="Trettestykkheia" />
		<tag k="natural" v="hill" />
		<tag k="place" v="locality" />
		<tag k="ssr:stedsnr" v="211029" />
	</node>
	<node lat="58.56745277674446" lon="8.920774996754517" id="-23035">
		<tag k="name" v="Røyseliene" />
		<tag k="natural" v="slope" />
		<tag k="place" v="locality" />
		<tag k="ssr:stedsnr" v="211090" />
	</node>
	<node lat="58.57311944393485" lon="8.911119438486324" id="-23036">
		<tag k="name" v="Tereleiken" />
		<tag k="natural" v="hill" />
		<tag k="place" v="locality" />
		<tag k="ssr:stedsnr" v="211092" />
	</node>
	<node lat="58.57372777944211" lon="8.893563896055623" id="-23039">
		<tag k="name" v="Gjetertangen" />
		<tag k="natural" v="ridge" />
		<tag k="place" v="locality" />
		<tag k="ssr:stedsnr" v="211098" />
	</node>
	<node lat="58.65629166796584" lon="9.070391662341093" id="-23040">
		<tag k="name" v="Bikkjeklova" />
		<tag k="natural" v="valley" />
		<tag k="place" v="locality" />
		<tag k="ssr:stedsnr" v="211101" />
	</node>
	<node lat="58.6461305511963" lon="8.985072230723452" id="-23042">
		<tag k="name" v="Dampbåtfjella" />
		<tag k="natural" v="hill" />
		<tag k="place" v="locality" />
		<tag k="ssr:stedsnr" v="211371" />
	</node>
	<node lat="58.61874999738219" lon="9.093247216621279" id="-23044">
		<tag k="name" v="Fløyhei" />
		<tag k="natural" v="hill" />
		<tag k="place" v="locality" />
		<tag k="ssr:stedsnr" v="211438" />
	</node>
	<node lat="58.60748888773479" lon="8.95921388610971" id="-23051">
		<tag k="fixme" v="consider natural=peak for the most distinct mountains in the district" />
		<tag k="name" v="Kolheia" />
		<tag k="natural" v="hill" />
		<tag k="place" v="locality" />
		<tag k="ssr:stedsnr" v="211563" />
	</node>
	<node lat="58.665072219591956" lon="8.966780556061845" id="-23054">
		<tag k="name" v="Vassklomra" />
		<tag k="natural" v="slope" />
		<tag k="place" v="locality" />
		<tag k="ssr:stedsnr" v="211396" />
	</node>
	<node lat="58.58961388576106" lon="9.062363886282448" id="-23055">
		<tag k="name" v="Helleheiene" />
		<tag k="natural" v="hill" />
		<tag k="place" v="locality" />
		<tag k="ssr:stedsnr" v="211502" />
	</node>
	<node lat="58.59387499786337" lon="9.058997223467706" id="-23056">
		<tag k="fixme" v="consider natural=peak for the most distinct mountains in the district" />
		<tag k="name" v="Brenthei" />
		<tag k="natural" v="hill" />
		<tag k="place" v="locality" />
		<tag k="ssr:stedsnr" v="211507" />
	</node>
	<node lat="58.68480277614288" lon="9.036658338900047" id="-23058">
		<tag k="fixme" v="consider natural=peak for the most distinct mountains in the district" />
		<tag k="name" v="Bjørnåsen" />
		<tag k="natural" v="hill" />
		<tag k="place" v="locality" />
		<tag k="ssr:stedsnr" v="211612" />
	</node>
	<node lat="58.68015832964193" lon="9.013688882516014" id="-23060">
		<tag k="name" v="Nesdalen" />
		<tag k="natural" v="valley" />
		<tag k="place" v="locality" />
		<tag k="ssr:stedsnr" v="211618" />
	</node>
	<node lat="58.62940000425703" lon="8.95459444698643" id="-23063">
		<tag k="name" v="Slettene" />
		<tag k="place" v="locality" />
		<tag k="ssr:stedsnr" v="211689" />
	</node>
	<node lat="58.575797221762016" lon="9.013516671543739" id="-23066">
		<tag k="name" v="Varfjell" />
		<tag k="natural" v="hill" />
		<tag k="place" v="locality" />
		<tag k="ssr:stedsnr" v="211666" />
	</node>
	<node lat="58.57453055393456" lon="9.002611114085054" id="-23067">
		<tag k="fixme" v="consider natural=peak for the most distinct mountains in the district" />
		<tag k="name" v="Dyngehei" />
		<tag k="natural" v="hill" />
		<tag k="place" v="locality" />
		<tag k="ssr:stedsnr" v="211669" />
	</node>
	<node lat="58.64997221786262" lon="8.926711107190187" id="-23069">
		<tag k="name" v="Geitfjell" />
		<tag k="natural" v="hill" />
		<tag k="place" v="locality" />
		<tag k="ssr:stedsnr" v="211754" />
	</node>
	<node lat="58.64995000450594" lon="8.922638891458535" id="-23070">
		<tag k="name" v="Hullfjell" />
		<tag k="natural" v="hill" />
		<tag k="place" v="locality" />
		<tag k="ssr:stedsnr" v="211759" />
	</node>
	<node lat="58.65138888590369" lon="8.886761109397655" id="-23071">
		<tag k="name" v="Lille Kobberknatten" />
		<tag k="natural" v="hill" />
		<tag k="place" v="locality" />
		<tag k="ssr:stedsnr" v="211767" />
	</node>
	<node lat="58.64835555306491" lon="8.903811110112414" id="-23072">
		<tag k="name" v="Askedalen" />
		<tag k="natural" v="valley" />
		<tag k="place" v="locality" />
		<tag k="ssr:stedsnr" v="211770" />
	</node>
	<node lat="58.640149998964716" lon="8.93244444439287" id="-23074">
		<tag k="name" v="Kirkebakkene" />
		<tag k="natural" v="slope" />
		<tag k="place" v="locality" />
		<tag k="ssr:stedsnr" v="211857" />
	</node>
	<node lat="58.676438887022414" lon="8.884447216322211" id="-23078">
		<tag k="name" v="Skarvedalen" />
		<tag k="natural" v="valley" />
		<tag k="place" v="locality" />
		<tag k="ssr:stedsnr" v="211800" />
	</node>
	<node lat="58.662450003506315" lon="8.927352770915885" id="-23079">
		<tag k="fixme" v="consider natural=peak for the most distinct mountains in the district" />
		<tag k="name" v="Revåsen" />
		<tag k="natural" v="hill" />
		<tag k="place" v="locality" />
		<tag k="ssr:stedsnr" v="211996" />
	</node>
	<node lat="58.62659444038008" lon="8.903455547596302" id="-23082">
		<tag k="fixme" v="consider natural=peak for the most distinct mountains in the district" />
		<tag k="name" v="Stangmyrheia" />
		<tag k="natural" v="hill" />
		<tag k="place" v="locality" />
		<tag k="ssr:stedsnr" v="211872" />
	</node>
	<node lat="58.63256388922038" lon="8.840663892604553" id="-23083">
		<tag k="name" v="Tråglia" />
		<tag k="natural" v="slope" />
		<tag k="place" v="locality" />
		<tag k="ssr:stedsnr" v="211938" />
	</node>
	<node lat="58.65401388555009" lon="8.863258332960504" id="-23084">
		<tag k="fixme" v="consider natural=peak for the most distinct mountains in the district" />
		<tag k="name" v="Kråkheia" />
		<tag k="natural" v="hill" />
		<tag k="place" v="locality" />
		<tag k="ssr:stedsnr" v="211955" />
	</node>
	<node lat="58.623124996271315" lon="8.958955547716723" id="-23085">
		<tag k="name" v="Fløyheia" />
		<tag k="natural" v="hill" />
		<tag k="place" v="locality" />
		<tag k="ssr:stedsnr" v="212037" />
	</node>
	<node lat="58.69916666886603" lon="9.060238892394237" id="-23087">
		<tag k="fixme" v="consider natural=peak for the most distinct mountains in the district" />
		<tag k="name" v="Harekjerrheia" />
		<tag k="natural" v="hill" />
		<tag k="place" v="locality" />
		<tag k="ssr:stedsnr" v="212058" />
	</node>
	<node lat="58.68052499642759" lon="9.074052777745866" id="-23089">
		<tag k="name" v="Geitkollen" />
		<tag k="natural" v="hill" />
		<tag k="place" v="locality" />
		<tag k="ssr:stedsnr" v="212400" />
	</node>
	<node lat="58.63581666327483" lon="9.130869435869089" id="-23092">
		<tag k="name" v="Vakthusheia" />
		<tag k="natural" v="hill" />
		<tag k="place" v="locality" />
		<tag k="ssr:stedsnr" v="212449" />
	</node>
	<node lat="58.64251944654226" lon="9.048072225674376" id="-23094">
		<tag k="fixme" v="consider natural=peak for the most distinct mountains in the district" />
		<tag k="name" v="Fløyfjell" />
		<tag k="natural" v="hill" />
		<tag k="place" v="locality" />
		<tag k="ssr:stedsnr" v="212472" />
	</node>
	<node lat="58.630850001468225" lon="8.978644438186645" id="-23102">
		<tag k="alt_name" v="Høyåsen" />
		<tag k="fixme" v="consider natural=peak for the most distinct mountains in the district" />
		<tag k="name" v="Høgåsen" />
		<tag k="natural" v="hill" />
		<tag k="place" v="locality" />
		<tag k="ssr:stedsnr" v="304087" />
	</node>
	<node lat="58.57347500367594" lon="8.881875007350446" id="-23110">
		<tag k="fixme" v="consider natural=peak for the most distinct mountains in the district" />
		<tag k="name" v="Kyråsen" />
		<tag k="natural" v="hill" />
		<tag k="place" v="locality" />
		<tag k="ssr:stedsnr" v="304258" />
	</node>
	<node lat="58.627219448428846" lon="9.00306388257357" id="-23117">
		<tag k="alt_name" v="Røyvannsliene" />
		<tag k="fixme" v="consider natural=peak for the most distinct mountains in the district" />
		<tag k="name" v="Røyvassliene" />
		<tag k="natural" v="hill" />
		<tag k="place" v="locality" />
		<tag k="ssr:stedsnr" v="304346" />
	</node>
	<node lat="58.60494999966026" lon="8.772961114820385" id="-23138">
		<tag k="fixme" v="consider natural=peak for the most distinct mountains in the district" />
		<tag k="name" v="Bjelkåsen" />
		<tag k="natural" v="hill" />
		<tag k="place" v="locality" />
		<tag k="ssr:stedsnr" v="333027" />
	</node>
	<node lat="58.616922218737834" lon="8.811397215456529" id="-23143">
		<tag k="fixme" v="consider natural=peak for the most distinct mountains in the district" />
		<tag k="name" v="Bronheiene" />
		<tag k="natural" v="hill" />
		<tag k="place" v="locality" />
		<tag k="ssr:stedsnr" v="333038" />
	</node>
	<node lat="58.688436110403124" lon="9.00994999792972" id="-23144">
		<tag k="name" v="Rabba" />
		<tag k="natural" v="hill" />
		<tag k="place" v="locality" />
		<tag k="ssr:stedsnr" v="333042" />
	</node>
	<node lat="58.66963333070503" lon="8.967552783629316" id="-23145">
		<tag k="fixme" v="consider natural=peak for the most distinct mountains in the district" />
		<tag k="name" v="Klodvikheia" />
		<tag k="natural" v="hill" />
		<tag k="place" v="locality" />
		<tag k="ssr:stedsnr" v="333043" />
	</node>
	<node lat="58.67441389239999" lon="8.938180550431646" id="-23147">
		<tag k="fixme" v="consider natural=peak for the most distinct mountains in the district" />
		<tag k="name" v="Skibåsen" />
		<tag k="natural" v="hill" />
		<tag k="place" v="locality" />
		<tag k="ssr:stedsnr" v="333045" />
	</node>
	<node lat="58.64786944277602" lon="8.765372225828534" id="-23149">
		<tag k="name" v="Gruvedalen" />
		<tag k="natural" v="valley" />
		<tag k="place" v="locality" />
		<tag k="ssr:stedsnr" v="333131" />
	</node>
	<node lat="58.69266111063224" lon="8.979630559930376" id="-23151">
		<tag k="name" v="Langemyrdalen" />
		<tag k="natural" v="valley" />
		<tag k="place" v="locality" />
		<tag k="ssr:stedsnr" v="333320" />
	</node>
	<node lat="58.6832972234487" lon="9.075955550669336" id="-23156">
		<tag k="name" v="Sagliene" />
		<tag k="natural" v="slope" />
		<tag k="place" v="locality" />
		<tag k="ssr:stedsnr" v="333433" />
	</node>
	<node lat="58.6750888860021" lon="9.083733335731345" id="-23157">
		<tag k="name" v="Hellersfjell" />
		<tag k="natural" v="hill" />
		<tag k="place" v="locality" />
		<tag k="ssr:stedsnr" v="333436" />
	</node>
	<node lat="58.61838055189935" lon="9.052024997680855" id="-23158">
		<tag k="name" v="Bjørnmåle" />
		<tag k="natural" v="hill" />
		<tag k="place" v="locality" />
		<tag k="ssr:stedsnr" v="333439" />
	</node>
	<node lat="58.62004166969638" lon="8.980600002771777" id="-23160">
		<tag k="fixme" v="consider natural=peak for the most distinct mountains in the district" />
		<tag k="name" v="Kattmyråsen" />
		<tag k="natural" v="hill" />
		<tag k="place" v="locality" />
		<tag k="ssr:stedsnr" v="333530" />
	</node>
	<node lat="58.68567222056821" lon="8.995841659705683" id="-23164">
		<tag k="name" v="Benkskotet" />
		<tag k="natural" v="slope" />
		<tag k="place" v="locality" />
		<tag k="ssr:stedsnr" v="333613" />
	</node>
	<node lat="58.59193055345727" lon="8.9557916707011" id="-23166">
		<tag k="name" v="Ramsdalen" />
		<tag k="natural" v="valley" />
		<tag k="place" v="locality" />
		<tag k="ssr:stedsnr" v="333627" />
	</node>
	<node lat="58.655405553921526" lon="9.026636107870296" id="-23167">
		<tag k="fixme" v="consider natural=peak for the most distinct mountains in the district" />
		<tag k="name" v="Broneheia" />
		<tag k="natural" v="hill" />
		<tag k="place" v="locality" />
		<tag k="ssr:stedsnr" v="333367" />
	</node>
	<node lat="58.65766944528667" lon="8.952816673913286" id="-23171">
		<tag k="name" v="Kleivsæten" />
		<tag k="natural" v="slope" />
		<tag k="place" v="locality" />
		<tag k="ssr:stedsnr" v="333393" />
	</node>
	<node lat="58.668972218263626" lon="8.944461103417595" id="-23175">
		<tag k="name" v="Mortenabben" />
		<tag k="natural" v="hill" />
		<tag k="place" v="locality" />
		<tag k="ssr:stedsnr" v="333569" />
	</node>
	<node lat="58.68318055652732" lon="8.964719444008047" id="-23177">
		<tag k="fixme" v="consider natural=peak for the most distinct mountains in the district" />
		<tag k="name" v="Lyngmyrheia" />
		<tag k="natural" v="hill" />
		<tag k="place" v="locality" />
		<tag k="ssr:stedsnr" v="333586" />
	</node>
	<node lat="58.591397226580256" lon="9.01852777105637" id="-23178">
		<tag k="fixme" v="consider natural=peak for the most distinct mountains in the district" />
		<tag k="name" v="Brunåsen" />
		<tag k="natural" v="hill" />
		<tag k="place" v="locality" />
		<tag k="ssr:stedsnr" v="333665" />
	</node>
	<node lat="58.633175001433045" lon="8.951086114776352" id="-23181">
		<tag k="name" v="Hesten" />
		<tag k="natural" v="hill" />
		<tag k="place" v="locality" />
		<tag k="ssr:stedsnr" v="333675" />
	</node>
	<node lat="58.62926111175951" lon="8.974205561623291" id="-23182">
		<tag k="name" v="Revåsen" />
		<tag k="natural" v="hill" />
		<tag k="place" v="locality" />
		<tag k="ssr:stedsnr" v="333689" />
	</node>
	<node lat="58.63249444735166" lon="8.970722219475478" id="-23183">
		<tag k="name" v="Esingdalen" />
		<tag k="natural" v="valley" />
		<tag k="place" v="locality" />
		<tag k="ssr:stedsnr" v="333692" />
	</node>
	<node lat="58.6195222249523" lon="8.893027773076458" id="-23186">
		<tag k="fixme" v="consider natural=peak for the most distinct mountains in the district" />
		<tag k="name" v="Ytteråsen" />
		<tag k="natural" v="hill" />
		<tag k="place" v="locality" />
		<tag k="ssr:stedsnr" v="333638" />
	</node>
	<node lat="58.671936111646524" lon="8.865927783153472" id="-23191">
		<tag k="name" v="Rundfjell" />
		<tag k="natural" v="hill" />
		<tag k="place" v="locality" />
		<tag k="ssr:stedsnr" v="333827" />
	</node>
	<node lat="58.669997222752784" lon="8.853630554893746" id="-23192">
		<tag k="name" v="Tereheia" />
		<tag k="natural" v="hill" />
		<tag k="place" v="locality" />
		<tag k="ssr:stedsnr" v="333832" />
	</node>
	<node lat="58.676855556951736" lon="8.859866664993639" id="-23193">
		<tag k="fixme" v="consider natural=peak for the most distinct mountains in the district" />
		<tag k="name" v="Timmeråsen" />
		<tag k="natural" v="hill" />
		<tag k="place" v="locality" />
		<tag k="ssr:stedsnr" v="333835" />
	</node>
	<node lat="58.68047778023365" lon="8.862894440640249" id="-23194">
		<tag k="fixme" v="consider natural=peak for the most distinct mountains in the district" />
		<tag k="name" v="Nøkkelåsen" />
		<tag k="natural" v="hill" />
		<tag k="place" v="locality" />
		<tag k="ssr:stedsnr" v="333838" />
	</node>
	<node lat="58.67745833683036" lon="8.852463896444767" id="-23195">
		<tag k="name" v="Vestre Langmyrdalen" />
		<tag k="natural" v="valley" />
		<tag k="place" v="locality" />
		<tag k="ssr:stedsnr" v="333840" />
	</node>
	<node lat="58.599219440884845" lon="8.928394451193855" id="-23196">
		<tag k="fixme" v="consider natural=peak for the most distinct mountains in the district" />
		<tag k="name" v="Store Valås" />
		<tag k="natural" v="hill" />
		<tag k="place" v="locality" />
		<tag k="ssr:stedsnr" v="333898" />
	</node>
	<node lat="58.663374996200616" lon="8.839736111615421" id="-23202">
		<tag k="name" v="Bunæshausen" />
		<tag k="natural" v="hill" />
		<tag k="place" v="locality" />
		<tag k="ssr:stedsnr" v="333977" />
	</node>
	<node lat="58.664213892113395" lon="8.849349993523315" id="-23203">
		<tag k="name" v="Lisbetdalen" />
		<tag k="natural" v="valley" />
		<tag k="place" v="locality" />
		<tag k="ssr:stedsnr" v="333985" />
	</node>
	<node lat="58.6674694425025" lon="8.92190555224229" id="-23204">
		<tag k="fixme" v="consider natural=peak for the most distinct mountains in the district" />
		<tag k="name" v="Kattuglefjell" />
		<tag k="natural" v="hill" />
		<tag k="place" v="locality" />
		<tag k="ssr:stedsnr" v="333995" />
	</node>
	<node lat="58.59094721949444" lon="8.88279166349486" id="-23211">
		<tag k="alt_name" v="Støleheia" />
		<tag k="fixme" v="consider natural=peak for the most distinct mountains in the district" />
		<tag k="name" v="Stølsheia" />
		<tag k="natural" v="hill" />
		<tag k="place" v="locality" />
		<tag k="ssr:stedsnr" v="364327" />
	</node>
	<node lat="58.60953333355614" lon="9.07331945054536" id="-23225">
		<tag k="fixme" v="consider natural=peak for the most distinct mountains in the district" />
		<tag k="name" v="Klova" />
		<tag k="natural" v="hill" />
		<tag k="place" v="locality" />
		<tag k="ssr:stedsnr" v="391775" />
	</node>
	<node lat="58.636419446051974" lon="8.77019722811423" id="-23226">
		<tag k="name" v="Skarkheia" />
		<tag k="natural" v="hill" />
		<tag k="place" v="locality" />
		<tag k="ssr:stedsnr" v="393018" />
	</node>
	<node lat="58.65868055480006" lon="9.096105561598765" id="-23228">
		<tag k="fixme" v="consider natural=peak for the most distinct mountains in the district" />
		<tag k="name" v="Folevannsheia" />
		<tag k="natural" v="hill" />
		<tag k="place" v="locality" />
		<tag k="ssr:stedsnr" v="393119" />
	</node>
	<node lat="58.64776666661233" lon="9.08011388825427" id="-23229">
		<tag k="name" v="Grusbekkdalen" />
		<tag k="natural" v="valley" />
		<tag k="place" v="locality" />
		<tag k="ssr:stedsnr" v="393125" />
	</node>
	<node lat="58.65420000442098" lon="9.084352781071136" id="-23230">
		<tag k="fixme" v="consider natural=peak for the most distinct mountains in the district" />
		<tag k="name" v="De ukvilte åsene" />
		<tag k="natural" v="hill" />
		<tag k="place" v="locality" />
		<tag k="ssr:stedsnr" v="393127" />
	</node>
	<node lat="58.63145000166376" lon="8.99258333533199" id="-23232">
		<tag k="name" v="Slurpedalen" />
		<tag k="natural" v="valley" />
		<tag k="place" v="locality" />
		<tag k="ssr:stedsnr" v="393051" />
	</node>
	<node lat="58.61054722070797" lon="8.764888894776263" id="-23233">
		<tag k="name" v="Hårmyrliene" />
		<tag k="natural" v="slope" />
		<tag k="place" v="locality" />
		<tag k="ssr:stedsnr" v="393070" />
	</node>
	<node lat="58.592499999706696" lon="8.855022213957518" id="-23235">
		<tag k="fixme" v="consider natural=peak for the most distinct mountains in the district" />
		<tag k="name" v="Saumyrknuten" />
		<tag k="natural" v="hill" />
		<tag k="place" v="locality" />
		<tag k="ssr:stedsnr" v="393078" />
	</node>
	<node lat="58.65231944303287" lon="8.953541672429056" id="-23240">
		<tag k="fixme" v="consider natural=peak for the most distinct mountains in the district" />
		<tag k="name" v="Bæråsen" />
		<tag k="natural" v="hill" />
		<tag k="place" v="locality" />
		<tag k="ssr:stedsnr" v="393353" />
	</node>
	<node lat="58.66228611166052" lon="8.95194444189042" id="-23243">
		<tag k="fixme" v="consider natural=peak for the most distinct mountains in the district" />
		<tag k="name" v="Mauråsen" />
		<tag k="natural" v="hill" />
		<tag k="place" v="locality" />
		<tag k="ssr:stedsnr" v="393370" />
	</node>
	<node lat="58.659125003590646" lon="8.942936119388683" id="-23244">
		<tag k="fixme" v="consider natural=peak for the most distinct mountains in the district" />
		<tag k="name" v="Mosås" />
		<tag k="natural" v="hill" />
		<tag k="place" v="locality" />
		<tag k="ssr:stedsnr" v="393372" />
	</node>
	<node lat="58.67038889309371" lon="9.037691673115342" id="-23247">
		<tag k="fixme" v="consider natural=peak for the most distinct mountains in the district" />
		<tag k="name" v="Furutoppen" />
		<tag k="natural" v="hill" />
		<tag k="place" v="locality" />
		<tag k="ssr:stedsnr" v="393380" />
	</node>
	<node lat="58.70259166384566" lon="8.966680563685648" id="-23252">
		<tag k="name" v="Sandvadalen" />
		<tag k="natural" v="valley" />
		<tag k="place" v="locality" />
		<tag k="ssr:stedsnr" v="393310" />
	</node>
	<node lat="58.65455833109327" lon="9.021261108797681" id="-23255">
		<tag k="fixme" v="consider natural=peak for the most distinct mountains in the district" />
		<tag k="name" v="Mellomheia" />
		<tag k="natural" v="hill" />
		<tag k="place" v="locality" />
		<tag k="ssr:stedsnr" v="393329" />
	</node>
	<node lat="58.676786114792165" lon="9.05715555019733" id="-23256">
		<tag k="fixme" v="consider natural=peak for the most distinct mountains in the district" />
		<tag k="name" v="Løyteåsen" />
		<tag k="natural" v="hill" />
		<tag k="place" v="locality" />
		<tag k="ssr:stedsnr" v="393390" />
	</node>
	<node lat="58.67949999733917" lon="9.076261113957337" id="-23257">
		<tag k="name" v="Gruveheia" />
		<tag k="natural" v="hill" />
		<tag k="place" v="locality" />
		<tag k="ssr:stedsnr" v="393414" />
	</node>
	<node lat="58.649575000689126" lon="8.92499721432879" id="-23262">
		<tag k="name" v="Glåparfjell" />
		<tag k="natural" v="hill" />
		<tag k="place" v="locality" />
		<tag k="ssr:stedsnr" v="393743" />
	</node>
	<node lat="58.68742499610666" lon="8.888811116815232" id="-23264">
		<tag k="name" v="Kvartsknatten" />
		<tag k="natural" v="hill" />
		<tag k="place" v="locality" />
		<tag k="ssr:stedsnr" v="393755" />
	</node>
	<node lat="58.64895833087018" lon="8.90249721391564" id="-23265">
		<tag k="fixme" v="consider natural=peak for the most distinct mountains in the district" />
		<tag k="name" v="Langåsen" />
		<tag k="natural" v="hill" />
		<tag k="place" v="locality" />
		<tag k="ssr:stedsnr" v="393763" />
	</node>
	<node lat="58.68232222205261" lon="8.930111116264657" id="-23267">
		<tag k="name" v="Venebakke" />
		<tag k="natural" v="hill" />
		<tag k="place" v="locality" />
		<tag k="ssr:stedsnr" v="393769" />
	</node>
	<node lat="58.670144448798276" lon="8.845002772222125" id="-23270">
		<tag k="name" v="Ospedalen" />
		<tag k="natural" v="valley" />
		<tag k="place" v="locality" />
		<tag k="ssr:stedsnr" v="393848" />
	</node>
	<node lat="58.63961944155339" lon="8.927836111381932" id="-23272">
		<tag k="fixme" v="consider natural=peak for the most distinct mountains in the district" />
		<tag k="name" v="Stemåsen" />
		<tag k="natural" v="hill" />
		<tag k="place" v="locality" />
		<tag k="ssr:stedsnr" v="393858" />
	</node>
	<node lat="58.60525277761287" lon="8.993758332659702" id="-23274">
		<tag k="fixme" v="consider natural=peak for the most distinct mountains in the district" />
		<tag k="name" v="Lieråsen" />
		<tag k="natural" v="hill" />
		<tag k="place" v="locality" />
		<tag k="ssr:stedsnr" v="393546" />
	</node>
	<node lat="58.6028222231328" lon="9.029658330696666" id="-23276">
		<tag k="name" v="Østervik" />
		<tag k="natural" v="valley" />
		<tag k="place" v="locality" />
		<tag k="ssr:stedsnr" v="393552" />
	</node>
	<node lat="58.683483336954495" lon="8.94786389049286" id="-23281">
		<tag k="name" v="Venebakke" />
		<tag k="natural" v="slope" />
		<tag k="place" v="locality" />
		<tag k="ssr:stedsnr" v="393593" />
	</node>
	<node lat="58.631605553071424" lon="8.950594446356206" id="-23284">
		<tag k="name" v="Gruveheia" />
		<tag k="natural" v="hill" />
		<tag k="place" v="locality" />
		<tag k="ssr:stedsnr" v="393682" />
	</node>
	<node lat="58.62911944199" lon="8.942974994995408" id="-23289">
		<tag k="fixme" v="consider natural=peak for the most distinct mountains in the district" />
		<tag k="name" v="Svarttjennåsen" />
		<tag k="natural" v="hill" />
		<tag k="place" v="locality" />
		<tag k="ssr:stedsnr" v="393718" />
	</node>
	<node lat="58.626902781386086" lon="8.98565278487665" id="-23290">
		<tag k="fixme" v="consider natural=peak for the most distinct mountains in the district" />
		<tag k="name" v="Rullen" />
		<tag k="natural" v="hill" />
		<tag k="place" v="locality" />
		<tag k="ssr:stedsnr" v="393725" />
	</node>
	<node lat="58.65760000108269" lon="8.897369445070082" id="-23291">
		<tag k="fixme" v="consider natural=peak for the most distinct mountains in the district" />
		<tag k="name" v="Sandvassheia" />
		<tag k="natural" v="hill" />
		<tag k="place" v="locality" />
		<tag k="ssr:stedsnr" v="393728" />
	</node>
	<node lat="58.67462500156782" lon="8.887163889452854" id="-23292">
		<tag k="fixme" v="consider natural=peak for the most distinct mountains in the district" />
		<tag k="name" v="Daleheia" />
		<tag k="natural" v="hill" />
		<tag k="place" v="locality" />
		<tag k="ssr:stedsnr" v="393797" />
	</node>
	<node lat="58.681319446394475" lon="8.9001527817587" id="-23293">
		<tag k="name" v="Gangseldal" />
		<tag k="natural" v="valley" />
		<tag k="place" v="locality" />
		<tag k="ssr:stedsnr" v="393800" />
	</node>
	<node lat="58.682061113040064" lon="8.866727777452136" id="-23294">
		<tag k="fixme" v="consider natural=peak for the most distinct mountains in the district" />
		<tag k="name" v="Framre Grasåsheia" />
		<tag k="natural" v="hill" />
		<tag k="place" v="locality" />
		<tag k="ssr:stedsnr" v="393827" />
	</node>
	<node lat="58.658150002692366" lon="8.85268889579071" id="-23295">
		<tag k="fixme" v="consider natural=peak for the most distinct mountains in the district" />
		<tag k="name" v="Høghei" />
		<tag k="natural" v="hill" />
		<tag k="place" v="locality" />
		<tag k="ssr:stedsnr" v="393963" />
	</node>
	<node lat="58.66092778143996" lon="8.853747220655258" id="-23298">
		<tag k="fixme" v="consider natural=peak for the most distinct mountains in the district" />
		<tag k="name" v="Nøkkelåsheia" />
		<tag k="natural" v="hill" />
		<tag k="place" v="locality" />
		<tag k="ssr:stedsnr" v="393978" />
	</node>
	<node lat="58.59159166814959" lon="8.75977222970302" id="-23315">
		<tag k="fixme" v="consider natural=peak for the most distinct mountains in the district" />
		<tag k="name" v="Skrattereidknuten" />
		<tag k="natural" v="hill" />
		<tag k="place" v="locality" />
		<tag k="ssr:stedsnr" v="426819" />
	</node>
	<node lat="58.62163888739672" lon="8.890597219626109" id="-23321">
		<tag k="fixme" v="consider natural=peak for the most distinct mountains in the district" />
		<tag k="name" v="Middagsheia" />
		<tag k="natural" v="hill" />
		<tag k="place" v="locality" />
		<tag k="ssr:stedsnr" v="515659" />
	</node>
	<node lat="58.632880551418204" lon="9.009047223442677" id="-23323">
		<tag k="fixme" v="consider natural=peak for the most distinct mountains in the district" />
		<tag k="name" v="Fjellheia" />
		<tag k="natural" v="hill" />
		<tag k="place" v="locality" />
		<tag k="ssr:stedsnr" v="515745" />
	</node>
	<node lat="58.66816111342977" lon="8.848094441818255" id="-23327">
		<tag k="name" v="Falkomkleiv" />
		<tag k="place" v="locality" />
		<tag k="ssr:stedsnr" v="515840" />
	</node>
	<node lat="58.676672223488936" lon="8.850380560369722" id="-23328">
		<tag k="fixme" v="consider natural=peak for the most distinct mountains in the district" />
		<tag k="name" v="Stutåsen" />
		<tag k="natural" v="hill" />
		<tag k="place" v="locality" />
		<tag k="ssr:stedsnr" v="515842" />
	</node>
	<node lat="58.64018610665975" lon="8.780563895138862" id="-23331">
		<tag k="fixme" v="consider natural=peak for the most distinct mountains in the district" />
		<tag k="name" v="Brannsåsen" />
		<tag k="natural" v="hill" />
		<tag k="place" v="locality" />
		<tag k="ssr:stedsnr" v="515022" />
	</node>
	<node lat="58.60860555294205" lon="8.791022223799043" id="-23333">
		<tag k="name" v="Hauktjenndalen" />
		<tag k="natural" v="valley" />
		<tag k="place" v="locality" />
		<tag k="ssr:stedsnr" v="515031" />
	</node>
	<node lat="58.68943055199408" lon="9.024972221039672" id="-23335">
		<tag k="fixme" v="consider natural=peak for the most distinct mountains in the district" />
		<tag k="name" v="Timmeråsen" />
		<tag k="natural" v="hill" />
		<tag k="place" v="locality" />
		<tag k="ssr:stedsnr" v="515036" />
	</node>
	<node lat="58.611841665601254" lon="8.801483328440888" id="-23336">
		<tag k="name" v="Knausen" />
		<tag k="natural" v="hill" />
		<tag k="place" v="locality" />
		<tag k="ssr:stedsnr" v="515038" />
	</node>
	<node lat="58.62208055753691" lon="8.816486103457748" id="-23338">
		<tag k="fixme" v="consider natural=peak for the most distinct mountains in the district" />
		<tag k="name" v="Stutåsen" />
		<tag k="natural" v="hill" />
		<tag k="place" v="locality" />
		<tag k="ssr:stedsnr" v="515047" />
	</node>
	<node lat="58.621491663469655" lon="8.80753889422691" id="-23339">
		<tag k="fixme" v="consider natural=peak for the most distinct mountains in the district" />
		<tag k="name" v="Brattkleivåsen" />
		<tag k="natural" v="hill" />
		<tag k="place" v="locality" />
		<tag k="ssr:stedsnr" v="515050" />
	</node>
	<node lat="58.592550000640905" lon="8.773355557365203" id="-23342">
		<tag k="name" v="Høgåsmoen" />
		<tag k="place" v="locality" />
		<tag k="ssr:stedsnr" v="515064" />
	</node>
	<node lat="58.69655833193735" lon="9.04861111165815" id="-23343">
		<tag k="fixme" v="consider natural=peak for the most distinct mountains in the district" />
		<tag k="name" v="Gjertsdalsheia" />
		<tag k="natural" v="hill" />
		<tag k="place" v="locality" />
		<tag k="ssr:stedsnr" v="515068" />
	</node>
	<node lat="58.58806666567975" lon="8.864961110279188" id="-23344">
		<tag k="fixme" v="consider natural=peak for the most distinct mountains in the district" />
		<tag k="name" v="Storøygardsheia" />
		<tag k="natural" v="hill" />
		<tag k="place" v="locality" />
		<tag k="ssr:stedsnr" v="515071" />
	</node>
	<node lat="58.70011388692546" lon="9.069458340146197" id="-23345">
		<tag k="fixme" v="consider natural=peak for the most distinct mountains in the district" />
		<tag k="name" v="Store Taksrås" />
		<tag k="natural" v="hill" />
		<tag k="place" v="locality" />
		<tag k="ssr:stedsnr" v="515073" />
	</node>
	<node lat="58.60125278102917" lon="8.838588884882762" id="-23347">
		<tag k="fixme" v="consider natural=peak for the most distinct mountains in the district" />
		<tag k="name" v="Mellomheia" />
		<tag k="natural" v="hill" />
		<tag k="place" v="locality" />
		<tag k="ssr:stedsnr" v="515078" />
	</node>
	<node lat="58.65126666998687" lon="9.118136110948308" id="-23348">
		<tag k="fixme" v="consider natural=peak for the most distinct mountains in the district" />
		<tag k="name" v="Høysvaen" />
		<tag k="natural" v="hill" />
		<tag k="place" v="locality" />
		<tag k="ssr:stedsnr" v="515079" />
	</node>
	<node lat="58.571102781800505" lon="8.887672224011078" id="-23352">
		<tag k="name" v="Korten" />
		<tag k="place" v="locality" />
		<tag k="ssr:stedsnr" v="515089" />
	</node>
	<node lat="58.56757500352311" lon="8.893394445704342" id="-23354">
		<tag k="name" v="Årdalen" />
		<tag k="natural" v="valley" />
		<tag k="place" v="locality" />
		<tag k="ssr:stedsnr" v="515093" />
	</node>
	<node lat="58.563544447610305" lon="8.91908889255482" id="-23355">
		<tag k="name" v="Barlinddalen" />
		<tag k="natural" v="valley" />
		<tag k="place" v="locality" />
		<tag k="ssr:stedsnr" v="515099" />
	</node>
	<node lat="58.64866389278489" lon="8.76345000775758" id="-23356">
		<tag k="fixme" v="consider natural=peak for the most distinct mountains in the district" />
		<tag k="name" v="Sandvassheia" />
		<tag k="natural" v="hill" />
		<tag k="place" v="locality" />
		<tag k="ssr:stedsnr" v="515143" />
	</node>
	<node lat="58.66237777871083" lon="9.032005548814336" id="-23359">
		<tag k="fixme" v="consider natural=peak for the most distinct mountains in the district" />
		<tag k="name" v="Blåbærheia" />
		<tag k="natural" v="hill" />
		<tag k="place" v="locality" />
		<tag k="ssr:stedsnr" v="515345" />
	</node>
	<node lat="58.68987221935224" lon="8.983130560726515" id="-23362">
		<tag k="name" v="Stemkjerrliene" />
		<tag k="natural" v="slope" />
		<tag k="place" v="locality" />
		<tag k="ssr:stedsnr" v="515284" />
	</node>
	<node lat="58.69455278042223" lon="8.977188889299832" id="-23363">
		<tag k="fixme" v="consider natural=peak for the most distinct mountains in the district" />
		<tag k="name" v="Skrinnmyrheia" />
		<tag k="natural" v="hill" />
		<tag k="place" v="locality" />
		<tag k="ssr:stedsnr" v="515286" />
	</node>
	<node lat="58.69412500250281" lon="8.973005563803444" id="-23364">
		<tag k="name" v="Øygardsdalen" />
		<tag k="natural" v="valley" />
		<tag k="place" v="locality" />
		<tag k="ssr:stedsnr" v="515300" />
	</node>
	<node lat="58.67117499934748" lon="9.042211107413094" id="-23365">
		<tag k="fixme" v="consider natural=peak for the most distinct mountains in the district" />
		<tag k="name" v="Borkebuheia" />
		<tag k="natural" v="hill" />
		<tag k="place" v="locality" />
		<tag k="ssr:stedsnr" v="515390" />
	</node>
	<node lat="58.625097218965216" lon="9.048569444564796" id="-23368">
		<tag k="fixme" v="consider natural=peak for the most distinct mountains in the district" />
		<tag k="name" v="Kirkeåsen" />
		<tag k="natural" v="hill" />
		<tag k="place" v="locality" />
		<tag k="ssr:stedsnr" v="515470" />
	</node>
	<node lat="58.637858334605745" lon="9.052886109608197" id="-23370">
		<tag k="fixme" v="consider natural=peak for the most distinct mountains in the district" />
		<tag k="name" v="Leirpallen" />
		<tag k="natural" v="hill" />
		<tag k="place" v="locality" />
		<tag k="ssr:stedsnr" v="515485" />
	</node>
	<node lat="58.5932222216175" lon="9.067272226800311" id="-23371">
		<tag k="fixme" v="consider natural=peak for the most distinct mountains in the district" />
		<tag k="name" v="Langangshei" />
		<tag k="natural" v="hill" />
		<tag k="place" v="locality" />
		<tag k="ssr:stedsnr" v="515488" />
	</node>
	<node lat="58.6738722182265" lon="9.089161113703867" id="-23373">
		<tag k="fixme" v="consider natural=peak for the most distinct mountains in the district" />
		<tag k="name" v="Gulspettknatten" />
		<tag k="natural" v="hill" />
		<tag k="place" v="locality" />
		<tag k="ssr:stedsnr" v="515425" />
	</node>
	<node lat="58.619719448663524" lon="9.046413889354243" id="-23374">
		<tag k="fixme" v="consider natural=peak for the most distinct mountains in the district" />
		<tag k="name" v="Langesandsheia" />
		<tag k="natural" v="hill" />
		<tag k="place" v="locality" />
		<tag k="ssr:stedsnr" v="515432" />
	</node>
	<node lat="58.61701388670031" lon="8.91325833147358" id="-23384">
		<tag k="name" v="Valbakkene" />
		<tag k="natural" v="hill" />
		<tag k="place" v="locality" />
		<tag k="ssr:stedsnr" v="515665" />
	</node>
	<node lat="58.68202499621769" lon="8.986230549489106" id="-23387">
		<tag k="fixme" v="consider natural=peak for the most distinct mountains in the district" />
		<tag k="name" v="Grasåsen" />
		<tag k="natural" v="hill" />
		<tag k="place" v="locality" />
		<tag k="ssr:stedsnr" v="515587" />
	</node>
	<node lat="58.63512222069667" lon="8.944127771925434" id="-23390">
		<tag k="name" v="Plankedalen" />
		<tag k="natural" v="valley" />
		<tag k="place" v="locality" />
		<tag k="ssr:stedsnr" v="515690" />
	</node>
	<node lat="58.63708611423519" lon="8.987716674914083" id="-23391">
		<tag k="name" v="Pøddeheia" />
		<tag k="natural" v="hill" />
		<tag k="place" v="locality" />
		<tag k="ssr:stedsnr" v="515701" />
	</node>
	<node lat="58.60156111011927" lon="8.921130561608296" id="-23392">
		<tag k="fixme" v="consider natural=peak for the most distinct mountains in the district" />
		<tag k="name" v="Eikåsen" />
		<tag k="natural" v="hill" />
		<tag k="place" v="locality" />
		<tag k="ssr:stedsnr" v="515892" />
	</node>
	<node lat="58.59990832929662" lon="8.929816662794428" id="-23393">
		<tag k="fixme" v="consider natural=peak for the most distinct mountains in the district" />
		<tag k="name" v="Lille Valås" />
		<tag k="natural" v="hill" />
		<tag k="place" v="locality" />
		<tag k="ssr:stedsnr" v="515900" />
	</node>
	<node lat="58.65976944786036" lon="8.857202774054494" id="-23395">
		<tag k="fixme" v="consider natural=peak for the most distinct mountains in the district" />
		<tag k="name" v="Kjøkletjennheia" />
		<tag k="natural" v="hill" />
		<tag k="place" v="locality" />
		<tag k="ssr:stedsnr" v="515988" />
	</node>
	<node lat="58.66614166945099" lon="8.88101388278583" id="-23396">
		<tag k="fixme" v="consider natural=peak for the most distinct mountains in the district" />
		<tag k="name" v="Kleivås" />
		<tag k="natural" v="hill" />
		<tag k="place" v="locality" />
		<tag k="ssr:stedsnr" v="515990" />
	</node>
	<node lat="58.66220555962602" lon="8.898036102906971" id="-23398">
		<tag k="name" v="Barlindbunnen" />
		<tag k="natural" v="valley" />
		<tag k="place" v="locality" />
		<tag k="ssr:stedsnr" v="515999" />
	</node>
	<node lat="58.64539722634295" lon="8.908352783943958" id="-23399">
		<tag k="name" v="Fantheia" />
		<tag k="natural" v="hill" />
		<tag k="place" v="locality" />
		<tag k="ssr:stedsnr" v="515855" />
	</node>
	<node lat="58.61896389003977" lon="8.866702778867097" id="-23401">
		<tag k="fixme" v="consider natural=peak for the most distinct mountains in the district" />
		<tag k="name" v="Solbergheia" />
		<tag k="natural" v="hill" />
		<tag k="place" v="locality" />
		<tag k="ssr:stedsnr" v="515916" />
	</node>
	<node lat="58.616627782101475" lon="8.858388886695623" id="-23402">
		<tag k="fixme" v="consider natural=peak for the most distinct mountains in the district" />
		<tag k="name" v="Lindeknuten" />
		<tag k="natural" v="hill" />
		<tag k="place" v="locality" />
		<tag k="ssr:stedsnr" v="515922" />
	</node>
	<node lat="58.609905559527974" lon="8.827161104882796" id="-23405">
		<tag k="name" v="Ramberget" />
		<tag k="natural" v="hill" />
		<tag k="place" v="locality" />
		<tag k="ssr:stedsnr" v="515929" />
	</node>
	<node lat="58.606677773803845" lon="8.83908056308759" id="-23406">
		<tag k="name" v="Åmbudalen" />
		<tag k="natural" v="valley" />
		<tag k="place" v="locality" />
		<tag k="ssr:stedsnr" v="515932" />
	</node>
	<node lat="58.642352778241815" lon="8.82650000166931" id="-23407">
		<tag k="fixme" v="consider natural=peak for the most distinct mountains in the district" />
		<tag k="name" v="Store Bronås" />
		<tag k="natural" v="hill" />
		<tag k="place" v="locality" />
		<tag k="ssr:stedsnr" v="515937" />
	</node>
	<node lat="58.645719446172116" lon="8.860133339231314" id="-23408">
		<tag k="fixme" v="consider natural=peak for the most distinct mountains in the district" />
		<tag k="name" v="Storfjell" />
		<tag k="natural" v="hill" />
		<tag k="place" v="locality" />
		<tag k="ssr:stedsnr" v="515939" />
	</node>
	<node lat="58.66779722450876" lon="8.84075000656411" id="-23410">
		<tag k="fixme" v="consider natural=peak for the most distinct mountains in the district" />
		<tag k="name" v="Tverrdalsheia" />
		<tag k="natural" v="hill" />
		<tag k="place" v="locality" />
		<tag k="ssr:stedsnr" v="517087" />
	</node>
	<node lat="58.547608333495766" lon="8.896327781611179" id="-23421">
		<tag k="fixme" v="consider natural=peak for the most distinct mountains in the district" />
		<tag k="name" v="Haukeliåsen" />
		<tag k="natural" v="hill" />
		<tag k="place" v="locality" />
		<tag k="ssr:stedsnr" v="547290" />
	</node>
	<node lat="58.609869441935565" lon="8.976641668121287" id="-23423">
		<tag k="fixme" v="consider natural=peak for the most distinct mountains in the district" />
		<tag k="name" v="Mauråsen" />
		<tag k="natural" v="hill" />
		<tag k="place" v="locality" />
		<tag k="ssr:stedsnr" v="547373" />
	</node>
	<node lat="58.626444446252776" lon="8.77325000831079" id="-23426">
		<tag k="fixme" v="consider natural=peak for the most distinct mountains in the district" />
		<tag k="name" v="Gauleråsen" />
		<tag k="natural" v="hill" />
		<tag k="place" v="locality" />
		<tag k="ssr:stedsnr" v="546716" />
	</node>
	<node lat="58.607374998461424" lon="8.836047218849956" id="-23427">
		<tag k="fixme" v="consider natural=peak for the most distinct mountains in the district" />
		<tag k="name" v="Fjellstjennheia" />
		<tag k="natural" v="hill" />
		<tag k="place" v="locality" />
		<tag k="ssr:stedsnr" v="546751" />
	</node>
	<node lat="58.653866668608096" lon="8.910227778040287" id="-23435">
		<tag k="fixme" v="consider natural=peak for the most distinct mountains in the district" />
		<tag k="name" v="Føykåsen" />
		<tag k="natural" v="hill" />
		<tag k="place" v="locality" />
		<tag k="ssr:stedsnr" v="547443" />
	</node>
	<node lat="58.63974166969605" lon="8.803011109775877" id="-23438">
		<tag k="fixme" v="consider natural=peak for the most distinct mountains in the district" />
		<tag k="name" v="Stølsåsen" />
		<tag k="natural" v="hill" />
		<tag k="place" v="locality" />
		<tag k="ssr:stedsnr" v="547988" />
	</node>
	<node lat="58.636305552191374" lon="8.826474992668714" id="-23445">
		<tag k="name" v="Gruvedalen" />
		<tag k="natural" v="valley" />
		<tag k="place" v="locality" />
		<tag k="ssr:stedsnr" v="575925" />
	</node>
	<node lat="58.63391111310036" lon="8.826472227473895" id="-23446">
		<tag k="fixme" v="consider natural=peak for the most distinct mountains in the district" />
		<tag k="name" v="Svinbuåsen" />
		<tag k="natural" v="hill" />
		<tag k="place" v="locality" />
		<tag k="ssr:stedsnr" v="575926" />
	</node>
	<node lat="58.6255416647364" lon="8.870697219773689" id="-23447">
		<tag k="fixme" v="consider natural=peak for the most distinct mountains in the district" />
		<tag k="name" v="Okleheia" />
		<tag k="natural" v="hill" />
		<tag k="place" v="locality" />
		<tag k="ssr:stedsnr" v="575930" />
	</node>
	<node lat="58.654613888734815" lon="8.846805560959998" id="-23448">
		<tag k="name" v="Vassendliene" />
		<tag k="natural" v="slope" />
		<tag k="place" v="locality" />
		<tag k="ssr:stedsnr" v="575931" />
	</node>
	<node lat="58.59669721854168" lon="8.854747221591023" id="-23451">
		<tag k="fixme" v="consider natural=peak for the most distinct mountains in the district" />
		<tag k="name" v="Stortjennheia" />
		<tag k="natural" v="hill" />
		<tag k="place" v="locality" />
		<tag k="ssr:stedsnr" v="575054" />
	</node>
	<node lat="58.68984444111078" lon="9.073297220590327" id="-23453">
		<tag k="fixme" v="consider natural=peak for the most distinct mountains in the district" />
		<tag k="name" v="Klamreåsen" />
		<tag k="natural" v="hill" />
		<tag k="place" v="locality" />
		<tag k="ssr:stedsnr" v="575086" />
	</node>
	<node lat="58.60455833471755" lon="8.784330562102571" id="-23455">
		<tag k="fixme" v="consider natural=peak for the most distinct mountains in the district" />
		<tag k="name" v="Høgås" />
		<tag k="natural" v="hill" />
		<tag k="place" v="locality" />
		<tag k="ssr:stedsnr" v="575021" />
	</node>
	<node lat="58.61462500265931" lon="8.820902774132211" id="-23456">
		<tag k="fixme" v="consider natural=peak for the most distinct mountains in the district" />
		<tag k="name" v="Ålekjærheia" />
		<tag k="natural" v="hill" />
		<tag k="place" v="locality" />
		<tag k="ssr:stedsnr" v="575030" />
	</node>
	<node lat="58.618858333333804" lon="8.991924999548148" id="-23457">
		<tag k="fixme" v="consider natural=peak for the most distinct mountains in the district" />
		<tag k="name" v="Revåsen" />
		<tag k="natural" v="hill" />
		<tag k="place" v="locality" />
		<tag k="ssr:stedsnr" v="575031" />
	</node>
	<node lat="58.61093333266016" lon="8.989858326247727" id="-23458">
		<tag k="name" v="Kildalen" />
		<tag k="natural" v="valley" />
		<tag k="place" v="locality" />
		<tag k="ssr:stedsnr" v="575034" />
	</node>
	<node lat="58.65525832985996" lon="9.089438891823175" id="-23459">
		<tag k="name" v="Slettene" />
		<tag k="place" v="locality" />
		<tag k="ssr:stedsnr" v="575116" />
	</node>
	<node lat="58.665311112523796" lon="8.942861114857125" id="-23460">
		<tag k="name" v="Glufsa" />
		<tag k="natural" v="valley" />
		<tag k="place" v="locality" />
		<tag k="ssr:stedsnr" v="575359" />
	</node>
	<node lat="58.67519444582656" lon="9.047258328214198" id="-23462">
		<tag k="fixme" v="consider natural=peak for the most distinct mountains in the district" />
		<tag k="name" v="Smifjellknuten" />
		<tag k="natural" v="hill" />
		<tag k="place" v="locality" />
		<tag k="ssr:stedsnr" v="575364" />
	</node>
	<node lat="58.634966666098194" lon="8.940286114173" id="-23464">
		<tag k="fixme" v="consider natural=peak for the most distinct mountains in the district" />
		<tag k="name" v="Melåsen" />
		<tag k="natural" v="hill" />
		<tag k="place" v="locality" />
		<tag k="ssr:stedsnr" v="575667" />
	</node>
	<node lat="58.69111388744095" lon="9.00763888933921" id="-23465">
		<tag k="fixme" v="consider natural=peak for the most distinct mountains in the district" />
		<tag k="name" v="Korsåsberga" />
		<tag k="natural" v="hill" />
		<tag k="place" v="locality" />
		<tag k="ssr:stedsnr" v="575251" />
	</node>
	<node lat="58.690619444241754" lon="8.999527781740879" id="-23466">
		<tag k="name" v="Kalvehagslia" />
		<tag k="natural" v="slope" />
		<tag k="place" v="locality" />
		<tag k="ssr:stedsnr" v="575257" />
	</node>
	<node lat="58.69392777477709" lon="8.989991674838302" id="-23467">
		<tag k="name" v="Uleskot" />
		<tag k="natural" v="slope" />
		<tag k="place" v="locality" />
		<tag k="ssr:stedsnr" v="575268" />
	</node>
	<node lat="58.70215277560294" lon="8.977338888944915" id="-23468">
		<tag k="name" v="Kjerringtjenndalen" />
		<tag k="natural" v="valley" />
		<tag k="place" v="locality" />
		<tag k="ssr:stedsnr" v="575285" />
	</node>
	<node lat="58.65749444351011" lon="8.987716674518733" id="-23469">
		<tag k="fixme" v="consider natural=peak for the most distinct mountains in the district" />
		<tag k="name" v="Eikåsen" />
		<tag k="natural" v="hill" />
		<tag k="place" v="locality" />
		<tag k="ssr:stedsnr" v="575329" />
	</node>
	<node lat="58.65467221819734" lon="8.949297225492165" id="-23470">
		<tag k="name" v="Haugane" />
		<tag k="natural" v="hill" />
		<tag k="place" v="locality" />
		<tag k="ssr:stedsnr" v="575331" />
	</node>
	<node lat="58.63211388814285" lon="9.121138893550592" id="-23475">
		<tag k="fixme" v="consider natural=peak for the most distinct mountains in the district" />
		<tag k="name" v="Lille Vardehei" />
		<tag k="natural" v="hill" />
		<tag k="place" v="locality" />
		<tag k="ssr:stedsnr" v="575438" />
	</node>
	<node lat="58.60598055455584" lon="8.997166672911659" id="-23480">
		<tag k="fixme" v="consider natural=peak for the most distinct mountains in the district" />
		<tag k="name" v="Blåbæråsen" />
		<tag k="natural" v="hill" />
		<tag k="place" v="locality" />
		<tag k="ssr:stedsnr" v="575527" />
	</node>
	<node lat="58.68399722602022" lon="9.028411117021932" id="-23484">
		<tag k="name" v="Storfjell" />
		<tag k="natural" v="hill" />
		<tag k="place" v="locality" />
		<tag k="ssr:stedsnr" v="575599" />
	</node>
	<node lat="58.684305553272296" lon="9.055827780735362" id="-23490">
		<tag k="name" v="Kjørsdalen" />
		<tag k="natural" v="valley" />
		<tag k="place" v="locality" />
		<tag k="ssr:stedsnr" v="575387" />
	</node>
	<node lat="58.67720833297185" lon="9.07418889403632" id="-23491">
		<tag k="fixme" v="consider natural=peak for the most distinct mountains in the district" />
		<tag k="name" v="Brunåsen" />
		<tag k="natural" v="hill" />
		<tag k="place" v="locality" />
		<tag k="ssr:stedsnr" v="575391" />
	</node>
	<node lat="58.67285833272039" lon="9.079447216570866" id="-23492">
		<tag k="fixme" v="consider natural=peak for the most distinct mountains in the district" />
		<tag k="name" v="Lille Hellersfjell" />
		<tag k="natural" v="hill" />
		<tag k="place" v="locality" />
		<tag k="ssr:stedsnr" v="575393" />
	</node>
	<node lat="58.61212778141666" lon="8.985819448753752" id="-23495">
		<tag k="name" v="Pederhansenshei" />
		<tag k="natural" v="hill" />
		<tag k="place" v="locality" />
		<tag k="ssr:stedsnr" v="575490" />
	</node>
	<node lat="58.67760833664023" lon="8.98557500437858" id="-23496">
		<tag k="name" v="Fredvikliene" />
		<tag k="natural" v="slope" />
		<tag k="place" v="locality" />
		<tag k="ssr:stedsnr" v="575567" />
	</node>
	<node lat="58.67948333268672" lon="8.978950002458422" id="-23497">
		<tag k="name" v="Gløvre" />
		<tag k="natural" v="valley" />
		<tag k="place" v="locality" />
		<tag k="ssr:stedsnr" v="575570" />
	</node>
	<node lat="58.68530832954583" lon="8.95679167394797" id="-23498">
		<tag k="fixme" v="consider natural=peak for the most distinct mountains in the district" />
		<tag k="name" v="Sveinumshei" />
		<tag k="natural" v="hill" />
		<tag k="place" v="locality" />
		<tag k="ssr:stedsnr" v="575579" />
	</node>
	<node lat="58.68588055929613" lon="9.045605562282557" id="-23499">
		<tag k="fixme" v="consider natural=peak for the most distinct mountains in the district" />
		<tag k="name" v="Storfjell" />
		<tag k="natural" v="hill" />
		<tag k="place" v="locality" />
		<tag k="ssr:stedsnr" v="575590" />
	</node>
	<node lat="58.6431388922546" lon="8.961811109737177" id="-23502">
		<tag k="fixme" v="consider natural=peak for the most distinct mountains in the district" />
		<tag k="name" v="Blautmyråsen" />
		<tag k="natural" v="hill" />
		<tag k="place" v="locality" />
		<tag k="ssr:stedsnr" v="575688" />
	</node>
	<node lat="58.66286389000107" lon="8.846352769546183" id="-23503">
		<tag k="name" v="Lisbetdalsknatten" />
		<tag k="natural" v="hill" />
		<tag k="place" v="locality" />
		<tag k="ssr:stedsnr" v="575975" />
	</node>
	<node lat="58.658547223257926" lon="8.856758335594096" id="-23505">
		<tag k="name" v="Laskheia" />
		<tag k="natural" v="ridge" />
		<tag k="place" v="locality" />
		<tag k="ssr:stedsnr" v="575983" />
	</node>
	<node lat="58.666297224534695" lon="8.863847228294194" id="-23506">
		<tag k="fixme" v="consider natural=peak for the most distinct mountains in the district" />
		<tag k="name" v="Olashei" />
		<tag k="natural" v="hill" />
		<tag k="place" v="locality" />
		<tag k="ssr:stedsnr" v="575991" />
	</node>
	<node lat="58.65301944398446" lon="8.897438896935181" id="-23507">
		<tag k="fixme" v="consider natural=peak for the most distinct mountains in the district" />
		<tag k="name" v="Lauvlandsheia" />
		<tag k="natural" v="hill" />
		<tag k="place" v="locality" />
		<tag k="ssr:stedsnr" v="575723" />
	</node>
	<node lat="58.64949722654204" lon="8.891658330981718" id="-23508">
		<tag k="fixme" v="consider natural=peak for the most distinct mountains in the district" />
		<tag k="name" v="Kroktjennheia" />
		<tag k="natural" v="hill" />
		<tag k="place" v="locality" />
		<tag k="ssr:stedsnr" v="575727" />
	</node>
	<node lat="58.6470416669352" lon="8.985597228336482" id="-23515">
		<tag k="fixme" v="consider natural=peak for the most distinct mountains in the district" />
		<tag k="name" v="Klubbheia" />
		<tag k="natural" v="hill" />
		<tag k="place" v="locality" />
		<tag k="ssr:stedsnr" v="607414" />
	</node>
	<node lat="58.63438889320845" lon="9.071169448509984" id="-23524">
		<tag k="fixme" v="consider natural=peak for the most distinct mountains in the district" />
		<tag k="name" v="Langheia" />
		<tag k="natural" v="hill" />
		<tag k="place" v="locality" />
		<tag k="ssr:stedsnr" v="607388" />
	</node>
	<node lat="58.62886111111824" lon="8.757605562902121" id="-23531">
		<tag k="fixme" v="consider natural=peak for the most distinct mountains in the district" />
		<tag k="name" v="Mårkåsen" />
		<tag k="natural" v="hill" />
		<tag k="place" v="locality" />
		<tag k="ssr:stedsnr" v="607766" />
	</node>
	<node lat="58.60062499599065" lon="8.775688881119095" id="-23538">
		<tag k="name" v="Rydningdalen" />
		<tag k="natural" v="valley" />
		<tag k="place" v="locality" />
		<tag k="ssr:stedsnr" v="635194" />
	</node>
	<node lat="58.63032222021489" lon="8.9202944529281" id="-23539">
		<tag k="fixme" v="consider natural=peak for the most distinct mountains in the district" />
		<tag k="name" v="Ytterhei" />
		<tag k="natural" v="hill" />
		<tag k="place" v="locality" />
		<tag k="ssr:stedsnr" v="635844" />
	</node>
	<node lat="58.66539444130205" lon="8.840438882997265" id="-23542">
		<tag k="name" v="Djupdal" />
		<tag k="natural" v="valley" />
		<tag k="place" v="locality" />
		<tag k="ssr:stedsnr" v="636979" />
	</node>
	<node lat="58.664119443858176" lon="8.845355554018981" id="-23543">
		<tag k="name" v="Kjelldalen" />
		<tag k="natural" v="valley" />
		<tag k="place" v="locality" />
		<tag k="ssr:stedsnr" v="636983" />
	</node>
	<node lat="58.62911389257814" lon="8.924186119524636" id="-23544">
		<tag k="name" v="Søsterdalen" />
		<tag k="natural" v="valley" />
		<tag k="place" v="locality" />
		<tag k="ssr:stedsnr" v="635847" />
	</node>
	<node lat="58.622938892726246" lon="8.820530551676466" id="-23545">
		<tag k="fixme" v="consider natural=peak for the most distinct mountains in the district" />
		<tag k="name" v="Vestre Djupedalsheia" />
		<tag k="natural" v="hill" />
		<tag k="place" v="locality" />
		<tag k="ssr:stedsnr" v="636038" />
	</node>
	<node lat="58.64174444131891" lon="8.993186117963818" id="-23546">
		<tag k="fixme" v="consider natural=peak for the most distinct mountains in the district" />
		<tag k="name" v="Knubben" />
		<tag k="natural" v="hill" />
		<tag k="place" v="locality" />
		<tag k="ssr:stedsnr" v="636040" />
	</node>
	<node lat="58.62343333468042" lon="8.787861109770766" id="-23547">
		<tag k="fixme" v="consider natural=peak for the most distinct mountains in the district" />
		<tag k="name" v="Tjenneråsen" />
		<tag k="natural" v="hill" />
		<tag k="place" v="locality" />
		<tag k="ssr:stedsnr" v="636050" />
	</node>
	<node lat="58.61578611374661" lon="8.751144440302458" id="-23549">
		<tag k="fixme" v="consider natural=peak for the most distinct mountains in the district" />
		<tag k="name" v="Røyåsen" />
		<tag k="natural" v="hill" />
		<tag k="place" v="locality" />
		<tag k="ssr:stedsnr" v="636061" />
	</node>
	<node lat="58.62077777497535" lon="8.759747220847897" id="-23550">
		<tag k="fixme" v="consider natural=peak for the most distinct mountains in the district" />
		<tag k="name" v="Stigersmyråsen" />
		<tag k="natural" v="hill" />
		<tag k="place" v="locality" />
		<tag k="ssr:stedsnr" v="636062" />
	</node>
	<node lat="58.69672499794003" lon="9.069272220892731" id="-23551">
		<tag k="name" v="Stokksbekklia" />
		<tag k="natural" v="slope" />
		<tag k="place" v="locality" />
		<tag k="ssr:stedsnr" v="636070" />
	</node>
	<node lat="58.61686389158482" lon="9.097774997334636" id="-23556">
		<tag k="name" v="Hamdal" />
		<tag k="natural" v="valley" />
		<tag k="place" v="locality" />
		<tag k="ssr:stedsnr" v="636419" />
	</node>
	<node lat="58.67807777543133" lon="8.98277221425894" id="-23561">
		<tag k="name" v="Den lille bonnen" />
		<tag k="natural" v="valley" />
		<tag k="place" v="locality" />
		<tag k="ssr:stedsnr" v="636596" />
	</node>
	<node lat="58.681466668850305" lon="8.989144447973535" id="-23562">
		<tag k="name" v="Gjennstøliene" />
		<tag k="natural" v="slope" />
		<tag k="place" v="locality" />
		<tag k="ssr:stedsnr" v="636598" />
	</node>
	<node lat="58.65465277375635" lon="9.014330562125114" id="-23567">
		<tag k="name" v="Rangleåsklova" />
		<tag k="natural" v="valley" />
		<tag k="place" v="locality" />
		<tag k="ssr:stedsnr" v="636341" />
	</node>
	<node lat="58.65260000004319" lon="8.97960000004081" id="-23572">
		<tag k="fixme" v="consider natural=peak for the most distinct mountains in the district" />
		<tag k="name" v="Laurbærheia" />
		<tag k="natural" v="hill" />
		<tag k="place" v="locality" />
		<tag k="ssr:stedsnr" v="636363" />
	</node>
	<node lat="58.629455553078806" lon="9.00339167498994" id="-23577">
		<tag k="fixme" v="consider natural=peak for the most distinct mountains in the district" />
		<tag k="name" v="Lyerbakken" />
		<tag k="natural" v="hill" />
		<tag k="place" v="locality" />
		<tag k="ssr:stedsnr" v="636545" />
	</node>
	<node lat="58.686050003365274" lon="8.984849992239647" id="-23578">
		<tag k="fixme" v="consider natural=peak for the most distinct mountains in the district" />
		<tag k="name" v="Gåstjennheia" />
		<tag k="natural" v="hill" />
		<tag k="place" v="locality" />
		<tag k="ssr:stedsnr" v="636554" />
	</node>
	<node lat="58.63228333166153" lon="8.96538611544329" id="-23583">
		<tag k="fixme" v="consider natural=peak for the most distinct mountains in the district" />
		<tag k="name" v="Tøgershei" />
		<tag k="natural" v="hill" />
		<tag k="place" v="locality" />
		<tag k="ssr:stedsnr" v="636719" />
	</node>
	<node lat="58.67896667040511" lon="8.852794450984382" id="-23584">
		<tag k="fixme" v="consider natural=peak for the most distinct mountains in the district" />
		<tag k="name" v="Langmyrkollen" />
		<tag k="natural" v="hill" />
		<tag k="place" v="locality" />
		<tag k="ssr:stedsnr" v="636842" />
	</node>
	<node lat="58.59146111410138" lon="8.95831945207239" id="-23591">
		<tag k="fixme" v="consider natural=peak for the most distinct mountains in the district" />
		<tag k="name" v="Ravnåsen" />
		<tag k="natural" v="hill" />
		<tag k="place" v="locality" />
		<tag k="ssr:stedsnr" v="636657" />
	</node>
	<node lat="58.634699996468235" lon="9.023491665217874" id="-23596">
		<tag k="fixme" v="consider natural=peak for the most distinct mountains in the district" />
		<tag k="name" v="Jerikofjell" />
		<tag k="natural" v="hill" />
		<tag k="place" v="locality" />
		<tag k="ssr:stedsnr" v="636743" />
	</node>
</osm>
