<?xml version="1.0" encoding="UTF-8"?>
<osm version="0.6" generator="osmapis">
	<node lat="58.603091662801845" lon="8.788019439214246" id="-25136">
		<tag k="name" v="Liane" />
		<tag k="place" v="farm" />
		<tag k="ssr:stedsnr" v="792" />
	</node>
	<node lat="58.6412361108661" lon="8.871652773485094" id="-25139">
		<tag k="fixme" v="consider place=hamlet" />
		<tag k="name" v="Rosseland" />
		<tag k="place" v="farm" />
		<tag k="ssr:stedsnr" v="1389" />
	</node>
	<node lat="58.648491331320024" lon="9.137989665489476" id="-25141">
		<tag k="name" v="Rota" />
		<tag k="place" v="isolated_dwelling" />
		<tag k="ssr:stedsnr" v="1396" />
	</node>
	<node lat="58.577911114676034" lon="9.030899996112476" id="-25145">
		<tag k="name" v="Vestegården" />
		<tag k="place" v="farm" />
		<tag k="ssr:stedsnr" v="28686" />
	</node>
	<node lat="58.54921944014648" lon="8.893786108616675" id="-25150">
		<tag k="name" v="Eikedalen" />
		<tag k="place" v="locality" />
		<tag k="ssr:stedsnr" v="29120" />
	</node>
	<node lat="58.57381944596132" lon="9.01578888967265" id="-25186">
		<tag k="name" v="Elborg" />
		<tag k="place" v="isolated_dwelling" />
		<tag k="ssr:stedsnr" v="29683" />
	</node>
	<node lat="58.685769445335566" lon="8.867913887031696" id="-25191">
		<tag k="name" v="Grasåsplassen" />
		<tag k="place" v="locality" />
		<tag k="ssr:stedsnr" v="29812" />
	</node>
	<node lat="58.610516669258736" lon="8.932322214746803" id="-25202">
		<tag k="name" v="Glastadheia" />
		<tag k="place" v="quarter" />
		<tag k="ssr:stedsnr" v="239408" />
	</node>
	<node lat="58.586463892708196" lon="8.85631111844741" id="-25203">
		<tag k="name" v="Jorstad" />
		<tag k="place" v="farm" />
		<tag k="ssr:stedsnr" v="61302" />
	</node>
	<node lat="58.6600749992391" lon="8.977952772565445" id="-25204">
		<tag k="name" v="Bråten" />
		<tag k="place" v="farm" />
		<tag k="ssr:stedsnr" v="61405" />
	</node>
	<node lat="58.649100000519226" lon="8.913000004511412" id="-25206">
		<tag k="name" v="Hagelia" />
		<tag k="place" v="farm" />
		<tag k="ssr:stedsnr" v="61390" />
	</node>
	<node lat="58.65203889252164" lon="8.861791667421276" id="-25208">
		<tag k="name" v="Myra" />
		<tag k="place" v="farm" />
		<tag k="ssr:stedsnr" v="61397" />
	</node>
	<node lat="58.61060277797214" lon="9.057091669192053" id="-25210">
		<tag k="alt_name" v="Askerøya vestre" />
		<tag k="fixme" v="consider place=hamlet" />
		<tag k="name" v="Askerøya, vestre" />
		<tag k="place" v="farm" />
		<tag k="ssr:stedsnr" v="62302" />
	</node>
	<node lat="58.630834587500566" lon="8.779968211320725" id="-25213">
		<tag k="alt_name" v="Hegland" />
		<tag k="fixme" v="consider place=hamlet" />
		<tag k="name" v="Heggland" />
		<tag k="place" v="farm" />
		<tag k="ssr:stedsnr" v="62774" />
	</node>
	<node lat="58.6652555547579" lon="8.867616658803511" id="-25215">
		<tag k="fixme" v="consider place=hamlet" />
		<tag k="name" v="Ausel" />
		<tag k="place" v="farm" />
		<tag k="ssr:stedsnr" v="243445" />
	</node>
	<node lat="58.588250001432556" lon="8.931705557753022" id="-25217">
		<tag k="name" v="Hanto" />
		<tag k="place" v="farm" />
		<tag k="ssr:stedsnr" v="243090" />
	</node>
	<node lat="58.645013885911695" lon="8.92706665810963" id="-25218">
		<tag k="name" v="Tveite" />
		<tag k="place" v="farm" />
		<tag k="ssr:stedsnr" v="243134" />
	</node>
	<node lat="58.571719448904354" lon="8.891250001669246" id="-25220">
		<tag k="fixme" v="consider place=hamlet" />
		<tag k="name" v="Kvastad" />
		<tag k="place" v="farm" />
		<tag k="ssr:stedsnr" v="243253" />
	</node>
	<node lat="58.58192454252909" lon="9.018569835410036" id="-25222">
		<tag k="alt_name" v="Nyland" />
		<tag k="name" v="Nylund" />
		<tag k="place" v="farm" />
		<tag k="ssr:stedsnr" v="243257" />
	</node>
	<node lat="58.58539459608724" lon="9.04227887564721" id="-25225">
		<tag k="name" v="Rekvika" />
		<tag k="place" v="farm" />
		<tag k="ssr:stedsnr" v="243277" />
	</node>
	<node lat="58.600974998508924" lon="9.00688056128988" id="-25226">
		<tag k="name" v="Hovdan" />
		<tag k="place" v="farm" />
		<tag k="ssr:stedsnr" v="243294" />
	</node>
	<node lat="58.67701139081478" lon="8.943543708838863" id="-25229">
		<tag k="name" v="Byttingsmyr" />
		<tag k="place" v="farm" />
		<tag k="ssr:stedsnr" v="243453" />
	</node>
	<node lat="58.68071944592213" lon="9.033375003742933" id="-25230">
		<tag k="fixme" v="consider place=hamlet" />
		<tag k="name" v="Kviteberg" />
		<tag k="place" v="farm" />
		<tag k="ssr:stedsnr" v="243457" />
	</node>
	<node lat="58.65335278046401" lon="8.885327781379749" id="-25232">
		<tag k="name" v="Auselheia" />
		<tag k="place" v="farm" />
		<tag k="ssr:stedsnr" v="243415" />
	</node>
	<node lat="58.65730000222075" lon="8.969200003675207" id="-25234">
		<tag k="alt_name" v="Bakkeli" />
		<tag k="name" v="Bakken" />
		<tag k="place" v="farm" />
		<tag k="ssr:stedsnr" v="243420" />
	</node>
	<node lat="58.55052674848075" lon="8.901125533196186" id="-25236">
		<tag k="name" v="Nordli" />
		<tag k="place" v="isolated_dwelling" />
		<tag k="ssr:stedsnr" v="244259" />
	</node>
	<node lat="58.6280194476184" lon="8.891891673258087" id="-25239">
		<tag k="fixme" v="consider place=hamlet" />
		<tag k="name" v="Myklebustad" />
		<tag k="place" v="farm" />
		<tag k="ssr:stedsnr" v="244362" />
	</node>
	<node lat="58.63441667018668" lon="9.120333329147499" id="-25240">
		<tag k="name" v="Steinsodden" />
		<tag k="place" v="isolated_dwelling" />
		<tag k="ssr:stedsnr" v="244372" />
	</node>
	<node lat="58.63702499869459" lon="8.800330561190794" id="-25243">
		<tag k="name" v="Glydalen" />
		<tag k="place" v="locality" />
		<tag k="ssr:stedsnr" v="90013" />
	</node>
	<node lat="58.55185092411545" lon="8.901409292410081" id="-25252">
		<tag k="name" v="Solli" />
		<tag k="place" v="farm" />
		<tag k="ssr:stedsnr" v="90102" />
	</node>
	<node lat="58.68030277550662" lon="9.066899999474352" id="-25260">
		<tag k="name" v="Bakken" />
		<tag k="place" v="farm" />
		<tag k="ssr:stedsnr" v="90399" />
	</node>
	<node lat="58.625230554426885" lon="9.041427771222606" id="-25262">
		<tag k="name" v="Rønningen" />
		<tag k="place" v="farm" />
		<tag k="ssr:stedsnr" v="90514" />
	</node>
	<node lat="58.682230556975405" lon="8.895119436085574" id="-25277">
		<tag k="name" v="Kvernvollen" />
		<tag k="place" v="farm" />
		<tag k="ssr:stedsnr" v="90775" />
	</node>
	<node lat="58.664952775037655" lon="8.843599993813656" id="-25281">
		<tag k="name" v="Fjelltun" />
		<tag k="place" v="farm" />
		<tag k="ssr:stedsnr" v="90968" />
	</node>
	<node lat="58.59741388584374" lon="8.869730562862376" id="-25295">
		<tag k="alt_name" v="Trosserød" />
		<tag k="name" v="Trosrød" />
		<tag k="place" v="farm" />
		<tag k="ssr:stedsnr" v="121326" />
	</node>
	<node lat="58.57967499892166" lon="8.87968333802182" id="-25298">
		<tag k="alt_name" v="Gåstjenn" />
		<tag k="fixme" v="consider place=hamlet" />
		<tag k="name" v="Gåstjern" />
		<tag k="place" v="farm" />
		<tag k="ssr:stedsnr" v="122303" />
	</node>
	<node lat="58.58664171626715" lon="9.01681545264041" id="-25299">
		<tag k="name" v="Øygarden" />
		<tag k="place" v="farm" />
		<tag k="ssr:stedsnr" v="122324" />
	</node>
	<node lat="58.650427776838164" lon="9.032758341094846" id="-25300">
		<tag k="name" v="Skogbråtsmyra" />
		<tag k="place" v="farm" />
		<tag k="ssr:stedsnr" v="122405" />
	</node>
	<node lat="58.64749999909601" lon="8.90971111234582" id="-25301">
		<tag k="fixme" v="consider place=hamlet" />
		<tag k="name" v="Noddeland" />
		<tag k="place" v="farm" />
		<tag k="ssr:stedsnr" v="122408" />
	</node>
	<node lat="58.653049995869914" lon="8.85889165948303" id="-25302">
		<tag k="name" v="Auselmyra" />
		<tag k="place" v="farm" />
		<tag k="ssr:stedsnr" v="122410" />
	</node>
	<node lat="58.66188055892967" lon="8.913536104002306" id="-25304">
		<tag k="fixme" v="consider place=hamlet" />
		<tag k="name" v="Skjerkholt" />
		<tag k="place" v="farm" />
		<tag k="ssr:stedsnr" v="122421" />
	</node>
	<node lat="58.662841668979986" lon="8.974452773997626" id="-25305">
		<tag k="name" v="Solås" />
		<tag k="place" v="farm" />
		<tag k="ssr:stedsnr" v="122424" />
	</node>
	<node lat="58.6540277798601" lon="9.10544445194155" id="-25311">
		<tag k="name" v="Gressmyr" />
		<tag k="place" v="farm" />
		<tag k="ssr:stedsnr" v="150066" />
	</node>
	<node lat="58.604916666904" lon="8.928036112966327" id="-25327">
		<tag k="name" v="Øvre Vasstø" />
		<tag k="place" v="farm" />
		<tag k="ssr:stedsnr" v="150609" />
	</node>
	<node lat="58.65015555427248" lon="8.939547217470018" id="-25331">
		<tag k="name" v="Tuftene" />
		<tag k="place" v="locality" />
		<tag k="ssr:stedsnr" v="150363" />
	</node>
	<node lat="58.636701624927625" lon="9.09735117138383" id="-25366">
		<tag k="alt_name" v="Skibvik" />
		<tag k="name" v="Skipvik" />
		<tag k="place" v="farm" />
		<tag k="ssr:stedsnr" v="183340" />
	</node>
	<node lat="58.634486114052535" lon="8.887213888586041" id="-25367">
		<tag k="fixme" v="consider place=hamlet" />
		<tag k="name" v="Berge" />
		<tag k="place" v="farm" />
		<tag k="ssr:stedsnr" v="183344" />
	</node>
	<node lat="58.634630552253185" lon="8.860566664490262" id="-25368">
		<tag k="alt_name" v="Øvernes" />
		<tag k="fixme" v="consider place=hamlet" />
		<tag k="name" v="Nes" />
		<tag k="place" v="farm" />
		<tag k="ssr:stedsnr" v="183345" />
	</node>
	<node lat="58.60260000238218" lon="8.978850001378937" id="-25371">
		<tag k="name" v="Eidsbustranda" />
		<tag k="place" v="farm" />
		<tag k="ssr:stedsnr" v="183291" />
	</node>
	<node lat="58.605375003351234" lon="8.972397217292947" id="-25372">
		<tag k="fixme" v="consider place=hamlet" />
		<tag k="name" v="Sagesund" />
		<tag k="place" v="village" />
		<tag k="ssr:stedsnr" v="183292" />
	</node>
	<node lat="58.65065278157419" lon="9.119052770845592" id="-25385">
		<tag k="name" v="Gjevinggården" />
		<tag k="place" v="farm" />
		<tag k="ssr:stedsnr" v="211078" />
	</node>
	<node lat="58.66867499943538" lon="9.064655550342163" id="-25398">
		<tag k="name" v="Støle (vestre)" />
		<tag k="place" v="farm" />
		<tag k="ssr:stedsnr" v="211405" />
	</node>
	<node lat="58.66036666235713" lon="8.937594437586013" id="-25407">
		<tag k="name" v="Espenes" />
		<tag k="place" v="farm" />
		<tag k="ssr:stedsnr" v="211382" />
	</node>
	<node lat="58.68555000024526" lon="8.913138893784033" id="-25433">
		<tag k="name" v="Bløyta" />
		<tag k="place" v="locality" />
		<tag k="ssr:stedsnr" v="211796" />
	</node>
	<node lat="58.63455277968428" lon="8.875002772757925" id="-25440">
		<tag k="name" v="Skogjordet" />
		<tag k="place" v="farm" />
		<tag k="ssr:stedsnr" v="272935" />
	</node>
	<node lat="58.64685418457078" lon="8.904366295707444" id="-25451">
		<tag k="name" v="Nordbråten" />
		<tag k="place" v="farm" />
		<tag k="ssr:stedsnr" v="272754" />
	</node>
	<node lat="58.65200833159549" lon="9.073241670693" id="-25456">
		<tag k="name" v="Gjøseid" />
		<tag k="place" v="farm" />
		<tag k="ssr:stedsnr" v="244409" />
	</node>
	<node lat="58.65133333183682" lon="9.034155555787581" id="-25457">
		<tag k="name" v="Hovet" />
		<tag k="place" v="farm" />
		<tag k="ssr:stedsnr" v="244411" />
	</node>
	<node lat="58.615181428705476" lon="9.079353291441059" id="-25458">
		<tag k="alt_name" v="Myra" />
		<tag k="name" v="Myre" />
		<tag k="place" v="farm" />
		<tag k="ssr:stedsnr" v="244336" />
	</node>
	<node lat="58.64094722094415" lon="9.089538889480668" id="-25460">
		<tag k="alt_name" v="Tjernheim" />
		<tag k="name" v="Tjennheim" />
		<tag k="place" v="isolated_dwelling" />
		<tag k="ssr:stedsnr" v="244389" />
	</node>
	<node lat="58.639558332404576" lon="9.08887500783511" id="-25461">
		<tag k="name" v="Gjevingmyra" />
		<tag k="place" v="farm" />
		<tag k="ssr:stedsnr" v="244390" />
	</node>
	<node lat="58.61624496877787" lon="8.829962806546053" id="-25464">
		<tag k="fixme" v="consider place=hamlet" />
		<tag k="name" v="Båsland" />
		<tag k="place" v="farm" />
		<tag k="ssr:stedsnr" v="244813" />
	</node>
	<node lat="58.68586110856872" lon="9.064222217798177" id="-25489">
		<tag k="name" v="Bråten" />
		<tag k="place" v="farm" />
		<tag k="ssr:stedsnr" v="454416" />
	</node>
	<node lat="58.63264721855787" lon="8.85590834141315" id="-25526">
		<tag k="name" v="Bakken" />
		<tag k="place" v="farm" />
		<tag k="ssr:stedsnr" v="454943" />
	</node>
	<node lat="58.56447500401298" lon="8.876686119321526" id="-25536">
		<tag k="name" v="Nedre Holte" />
		<tag k="place" v="farm" />
		<tag k="ssr:stedsnr" v="272113" />
	</node>
	<node lat="58.62889444890576" lon="8.852991670430333" id="-25543">
		<tag k="loc_name" v="Nes Verk hovedgård" />
		<tag k="name" v="Nes verk hovedgård" />
		<tag k="place" v="farm" />
		<tag k="ssr:stedsnr" v="272289" />
	</node>
	<node lat="58.638577777767246" lon="9.043005556303815" id="-25566">
		<tag k="name" v="Kirkemyra" />
		<tag k="place" v="farm" />
		<tag k="ssr:stedsnr" v="272682" />
	</node>
	<node lat="58.61227222351662" lon="8.839275007263788" id="-25572">
		<tag k="name" v="Dyrmyr" />
		<tag k="place" v="locality" />
		<tag k="ssr:stedsnr" v="272911" />
	</node>
	<node lat="58.6182527785528" lon="8.922219449212008" id="-25577">
		<tag k="name" v="Mjåvann" />
		<tag k="place" v="quarter" />
		<tag k="ssr:stedsnr" v="300444" />
	</node>
	<node lat="58.64961111068901" lon="8.941238882775073" id="-25580">
		<tag k="fixme" v="consider place=hamlet" />
		<tag k="name" v="Ramlett" />
		<tag k="place" v="farm" />
		<tag k="ssr:stedsnr" v="304410" />
	</node>
	<node lat="58.612905842282345" lon="9.061119638797452" id="-25587">
		<tag k="name" v="Oksvika" />
		<tag k="place" v="farm" />
		<tag k="ssr:stedsnr" v="304326" />
	</node>
	<node lat="58.638483332780375" lon="9.129386111332764" id="-25589">
		<tag k="name" v="Odden" />
		<tag k="place" v="isolated_dwelling" />
		<tag k="ssr:stedsnr" v="304384" />
	</node>
	<node lat="58.620180559968844" lon="8.797869444540718" id="-25590">
		<tag k="alt_name" v="Øvre Lindland" />
		<tag k="fixme" v="consider place=hamlet" />
		<tag k="name" v="Lindland" />
		<tag k="place" v="farm" />
		<tag k="ssr:stedsnr" v="304814" />
	</node>
	<node lat="58.614822225085184" lon="8.80576666090548" id="-25591">
		<tag k="alt_name" v="Nedre Lindland" />
		<tag k="name" v="Lindland" />
		<tag k="place" v="farm" />
		<tag k="ssr:stedsnr" v="304817" />
	</node>
	<node lat="58.61947778026857" lon="8.832738886250885" id="-25592">
		<tag k="name" v="Ekra" />
		<tag k="place" v="farm" />
		<tag k="ssr:stedsnr" v="304818" />
	</node>
	<node lat="58.6814388919423" lon="9.037311114299964" id="-25627">
		<tag k="name" v="Øygarden" />
		<tag k="place" v="locality" />
		<tag k="ssr:stedsnr" v="333601" />
	</node>
	<node lat="58.62268333731405" lon="8.838816668191448" id="-25631">
		<tag k="fixme" v="consider place=hamlet" />
		<tag k="name" v="Kroken" />
		<tag k="place" v="farm" />
		<tag k="ssr:stedsnr" v="333908" />
	</node>
	<node lat="58.6445888881161" lon="8.905522219362332" id="-25647">
		<tag k="name" v="Modalen" />
		<tag k="place" v="farm" />
		<tag k="ssr:stedsnr" v="333854" />
	</node>
	<node lat="58.59174444106432" lon="8.948494445120184" id="-25649">
		<tag k="name" v="Holmen" />
		<tag k="place" v="neighbourhood" />
		<tag k="ssr:stedsnr" v="343409" />
	</node>
	<node lat="58.597199999589684" lon="9.05146111475636" id="-25651">
		<tag k="name" v="Kjæret" />
		<tag k="place" v="farm" />
		<tag k="ssr:stedsnr" v="364301" />
	</node>
	<node lat="58.638788887095615" lon="8.853091672627388" id="-25654">
		<tag k="alt_name" v="Nedre Flaten" />
		<tag k="name" v="Flaten" />
		<tag k="place" v="locality" />
		<tag k="ssr:stedsnr" v="365407" />
	</node>
	<node lat="58.653716666920154" lon="9.098008334438381" id="-25655">
		<tag k="alt_name" v="Plommekjær" />
		<tag k="name" v="Plommekjerr" />
		<tag k="place" v="farm" />
		<tag k="ssr:stedsnr" v="365415" />
	</node>
	<node lat="58.63938888833708" lon="8.872072216562806" id="-25657">
		<tag k="alt_name" v="Hovrind" />
		<tag k="name" v="Øvre-Hovrinden" />
		<tag k="place" v="farm" />
		<tag k="ssr:stedsnr" v="365392" />
	</node>
	<node lat="58.63908055785879" lon="8.957363887972829" id="-25658">
		<tag k="name" v="Østerådalen" />
		<tag k="place" v="farm" />
		<tag k="ssr:stedsnr" v="365397" />
	</node>
	<node lat="58.6461416630815" lon="8.921724996392808" id="-25659">
		<tag k="fixme" v="consider place=hamlet" />
		<tag k="name" v="Angelstad" />
		<tag k="place" v="farm" />
		<tag k="ssr:stedsnr" v="365400" />
	</node>
	<node lat="58.6928638903292" lon="9.021119449125091" id="-25660">
		<tag k="name" v="Stea" />
		<tag k="place" v="farm" />
		<tag k="ssr:stedsnr" v="365490" />
	</node>
	<node lat="58.69797499884341" lon="9.06632499672211" id="-25662">
		<tag k="name" v="Øvre Bjorhusdalen" />
		<tag k="place" v="farm" />
		<tag k="ssr:stedsnr" v="272074" />
	</node>
	<node lat="58.68335277924568" lon="8.902513882558715" id="-25663">
		<tag k="name" v="Setane" />
		<tag k="place" v="farm" />
		<tag k="ssr:stedsnr" v="384058" />
	</node>
	<node lat="58.647697217857264" lon="9.119830554653914" id="-25679">
		<tag k="amenity" v="school" />
		<tag k="name" v="Gjeving skole" />
		<tag k="ssr:stedsnr" v="393084" />
	</node>
	<node lat="58.621405556429686" lon="8.926963890096017" id="-25700">
		<tag k="name" v="Høyheia" />
		<tag k="place" v="quarter" />
		<tag k="ssr:stedsnr" v="393639" />
	</node>
	<node lat="58.62361666874789" lon="8.935124998331371" id="-25701">
		<tag k="name" v="Solfjell" />
		<tag k="place" v="farm" />
		<tag k="ssr:stedsnr" v="393640" />
	</node>
	<node lat="58.606516990577184" lon="8.925433369431172" id="-25720">
		<tag k="name" v="Vaste" />
		<tag k="place" v="farm" />
		<tag k="ssr:stedsnr" v="486365" />
	</node>
	<node lat="58.59099444003174" lon="8.933541670020274" id="-25726">
		<tag k="fixme" v="consider place=hamlet" />
		<tag k="name" v="Hanto" />
		<tag k="place" v="farm" />
		<tag k="ssr:stedsnr" v="486331" />
	</node>
	<node lat="58.68905555323594" lon="9.058672216053518" id="-25728">
		<tag k="alt_name" v="Skjellbreid" />
		<tag k="name" v="Skjelbreid" />
		<tag k="place" v="farm" />
		<tag k="ssr:stedsnr" v="486485" />
	</node>
	<node lat="58.63216666637051" lon="8.960402786298454" id="-25730">
		<tag k="name" v="Dalen" />
		<tag k="place" v="farm" />
		<tag k="ssr:stedsnr" v="486381" />
	</node>
	<node lat="58.63751111244745" lon="8.966580547463822" id="-25731">
		<tag k="name" v="Mortenskjerr" />
		<tag k="place" v="farm" />
		<tag k="ssr:stedsnr" v="486382" />
	</node>
	<node lat="58.63045555505913" lon="9.015844451527501" id="-25732">
		<tag k="name" v="Dalen" />
		<tag k="place" v="isolated_dwelling" />
		<tag k="ssr:stedsnr" v="486390" />
	</node>
	<node lat="58.632636107396955" lon="8.896933329419143" id="-25736">
		<tag k="alt_name" v="Rømyr" />
		<tag k="name" v="Rødmyr" />
		<tag k="place" v="farm" />
		<tag k="ssr:stedsnr" v="486401" />
	</node>
	<node lat="58.64788055444517" lon="9.123886114443613" id="-25737">
		<tag k="name" v="Gjeving" />
		<tag k="place" v="village" />
		<tag k="ssr:stedsnr" v="486421" />
	</node>
	<node lat="58.61841486926046" lon="9.03864407812516" id="-25738">
		<tag k="name" v="Halsen" />
		<tag k="place" v="farm" />
		<tag k="ssr:stedsnr" v="486355" />
	</node>
	<node lat="58.62010000442403" lon="9.037224993039851" id="-25739">
		<tag k="name" v="Rørkil" />
		<tag k="place" v="farm" />
		<tag k="ssr:stedsnr" v="486356" />
	</node>
	<node lat="58.658788888407834" lon="8.965699999399776" id="-25740">
		<tag k="name" v="Valle" />
		<tag k="place" v="farm" />
		<tag k="ssr:stedsnr" v="486446" />
	</node>
	<node lat="58.586963887097156" lon="8.947075004420741" id="-25743">
		<tag k="name" v="Mauren" />
		<tag k="place" v="farm" />
		<tag k="ssr:stedsnr" v="422902" />
	</node>
	<node lat="58.58019167015419" lon="8.93760277776918" id="-25745">
		<tag k="name" v="Knutsvikmyra" />
		<tag k="place" v="farm" />
		<tag k="ssr:stedsnr" v="425297" />
	</node>
	<node lat="58.59768611046071" lon="9.074086111449043" id="-25746">
		<tag k="name" v="Klåholmen" />
		<tag k="place" v="farm" />
		<tag k="ssr:stedsnr" v="425300" />
	</node>
	<node lat="58.609952782214634" lon="9.005833336115614" id="-25750">
		<tag k="name" v="Frydendal" />
		<tag k="place" v="farm" />
		<tag k="ssr:stedsnr" v="426306" />
	</node>
	<node lat="58.61071388777154" lon="9.07113888859252" id="-25751">
		<tag k="name" v="Kibbevik" />
		<tag k="place" v="isolated_dwelling" />
		<tag k="ssr:stedsnr" v="426311" />
	</node>
	<node lat="58.67016388502585" lon="9.063761110603231" id="-25752">
		<tag k="name" v="Kalstad" />
		<tag k="place" v="farm" />
		<tag k="ssr:stedsnr" v="426413" />
	</node>
	<node lat="58.6686250015294" lon="8.868105554928068" id="-25753">
		<tag k="fixme" v="consider place=hamlet" />
		<tag k="name" v="Midtbø" />
		<tag k="place" v="farm" />
		<tag k="ssr:stedsnr" v="426429" />
	</node>
	<node lat="58.682016671095646" lon="8.996000008434551" id="-25754">
		<tag k="name" v="Dalen" />
		<tag k="place" v="farm" />
		<tag k="ssr:stedsnr" v="426442" />
	</node>
	<node lat="58.69494625994381" lon="9.002961404777404" id="-25755">
		<tag k="name" v="Bordalen" />
		<tag k="place" v="farm" />
		<tag k="ssr:stedsnr" v="426478" />
	</node>
	<node lat="58.595811108113296" lon="8.861841671968094" id="-25761">
		<tag k="name" v="Hesthagen" />
		<tag k="place" v="farm" />
		<tag k="ssr:stedsnr" v="272063" />
	</node>
	<node lat="58.6864138888147" lon="9.007952779124317" id="-25766">
		<tag k="name" v="Øvre Songe" />
		<tag k="place" v="farm" />
		<tag k="ssr:stedsnr" v="272588" />
	</node>
	<node lat="58.61355833722675" lon="9.020019439525067" id="-25768">
		<tag k="name" v="Lindvik" />
		<tag k="place" v="isolated_dwelling" />
		<tag k="ssr:stedsnr" v="452667" />
	</node>
	<node lat="58.662030554573384" lon="8.984086112982379" id="-25789">
		<tag k="name" v="Østre Bråten" />
		<tag k="place" v="farm" />
		<tag k="ssr:stedsnr" v="454384" />
	</node>
	<node lat="58.60800555208005" lon="9.024961110830075" id="-25793">
		<tag k="name" v="Storhagen" />
		<tag k="place" v="farm" />
		<tag k="ssr:stedsnr" v="454566" />
	</node>
	<node lat="58.60921388912547" lon="8.877002774896045" id="-25811">
		<tag k="amenity" v="school" />
		<tag k="name" v="Holt skole" />
		<tag k="ssr:stedsnr" v="454918" />
	</node>
	<node lat="58.64681111052134" lon="8.93000833333185" id="-25817">
		<tag k="fixme" v="consider place=hamlet" />
		<tag k="name" v="Tveite" />
		<tag k="place" v="farm" />
		<tag k="ssr:stedsnr" v="486411" />
	</node>
	<node lat="58.684330556257336" lon="8.93781944793061" id="-25819">
		<tag k="name" v="Varden" />
		<tag k="place" v="isolated_dwelling" />
		<tag k="ssr:stedsnr" v="486493" />
	</node>
	<node lat="58.6925555540101" lon="9.061630554149424" id="-25820">
		<tag k="alt_name" v="Dalevollen" />
		<tag k="name" v="Dalvoll" />
		<tag k="place" v="farm" />
		<tag k="ssr:stedsnr" v="486494" />
	</node>
	<node lat="58.629669448946494" lon="8.828477782111058" id="-25821">
		<tag k="name" v="Myra" />
		<tag k="place" v="locality" />
		<tag k="ssr:stedsnr" v="486761" />
	</node>
	<node lat="58.61764999696813" lon="8.8291833256593" id="-25823">
		<tag k="name" v="Marendal" />
		<tag k="place" v="farm" />
		<tag k="ssr:stedsnr" v="486802" />
	</node>
	<node lat="58.60572221874028" lon="8.874177785029799" id="-25831">
		<tag k="amenity" v="school" />
		<tag k="name" v="Holt landbruksskole" />
		<tag k="ssr:stedsnr" v="272832" />
	</node>
	<node lat="58.656447220395975" lon="9.142063895330544" id="-25836">
		<tag k="name" v="Vollen" />
		<tag k="place" v="isolated_dwelling" />
		<tag k="ssr:stedsnr" v="513671" />
	</node>
	<node lat="58.688399996708455" lon="9.065280561357536" id="-25861">
		<tag k="name" v="Åsheim" />
		<tag k="place" v="farm" />
		<tag k="ssr:stedsnr" v="515413" />
	</node>
	<node lat="58.627480557696245" lon="8.915655556285598" id="-25879">
		<tag k="name" v="Bergsmyr østre" />
		<tag k="place" v="quarter" />
		<tag k="ssr:stedsnr" v="515864" />
	</node>
	<node lat="58.60083889267786" lon="8.793988882660575" id="-25882">
		<tag k="fixme" v="consider place=hamlet" />
		<tag k="name" v="Øynes" />
		<tag k="place" v="farm" />
		<tag k="ssr:stedsnr" v="546810" />
	</node>
	<node lat="58.57301944116374" lon="8.996594441436292" id="-25884">
		<tag k="alt_name" v="Sida" />
		<tag k="name" v="Sia" />
		<tag k="place" v="hamlet" />
		<tag k="ssr:stedsnr" v="547308" />
	</node>
	<node lat="58.635188888710665" lon="8.86922778158944" id="-25885">
		<tag k="alt_name" v="Staursbo" />
		<tag k="name" v="Staursbø" />
		<tag k="place" v="farm" />
		<tag k="ssr:stedsnr" v="547408" />
	</node>
	<node lat="58.68280833581142" lon="9.047174994843852" id="-25887">
		<tag k="name" v="Korten" />
		<tag k="place" v="farm" />
		<tag k="ssr:stedsnr" v="547482" />
	</node>
	<node lat="58.589750000934536" lon="8.950838888453653" id="-25893">
		<tag k="name" v="Haven" />
		<tag k="place" v="farm" />
		<tag k="ssr:stedsnr" v="573656" />
	</node>
	<node lat="58.633638892648726" lon="9.048994449082489" id="-25920">
		<tag k="name" v="Flisebakken" />
		<tag k="place" v="farm" />
		<tag k="ssr:stedsnr" v="575464" />
	</node>
	<node lat="58.67138055184182" lon="8.9994666611879" id="-25925">
		<tag k="name" v="Hessnes" />
		<tag k="place" v="locality" />
		<tag k="ssr:stedsnr" v="575608" />
	</node>
	<node lat="58.661586110447864" lon="8.965758324825996" id="-25928">
		<tag k="name" v="Lundeholmen" />
		<tag k="place" v="isolated_dwelling" />
		<tag k="ssr:stedsnr" v="575352" />
	</node>
	<node lat="58.63703055161845" lon="9.024413896234908" id="-25948">
		<tag k="name" v="Jeriko" />
		<tag k="place" v="farm" />
		<tag k="ssr:stedsnr" v="575696" />
	</node>
	<node lat="58.62651944203842" lon="8.932411105942062" id="-25954">
		<tag k="name" v="Kollåsen" />
		<tag k="place" v="quarter" />
		<tag k="ssr:stedsnr" v="575859" />
	</node>
	<node lat="58.66410555785511" lon="9.003680552534892" id="-25997">
		<tag k="name" v="Øygarden" />
		<tag k="place" v="farm" />
		<tag k="ssr:stedsnr" v="697357" />
	</node>
	<node lat="58.6466194482198" lon="8.963652781959473" id="-25998">
		<tag k="name" v="Heimrebu" />
		<tag k="place" v="isolated_dwelling" />
		<tag k="ssr:stedsnr" v="697360" />
	</node>
	<node lat="58.64203889194248" lon="9.112324998116854" id="-26004">
		<tag k="name" v="Sandvikdalen" />
		<tag k="place" v="locality" />
		<tag k="ssr:stedsnr" v="697447" />
	</node>
	<node lat="58.66976388449453" lon="8.949819452328653" id="-26019">
		<tag k="name" v="Århusplassen" />
		<tag k="place" v="locality" />
		<tag k="ssr:stedsnr" v="697557" />
	</node>
	<node lat="58.602472223954784" lon="8.977872227083385" id="-26027">
		<tag k="name" v="Ekehaugen" />
		<tag k="place" v="farm" />
		<tag k="ssr:stedsnr" v="697625" />
	</node>
	<node lat="58.620181910233605" lon="8.92130463280736" id="-26028">
		<tag k="name" v="Bydal" />
		<tag k="place" v="farm" />
		<tag k="ssr:stedsnr" v="697639" />
	</node>
	<node lat="58.64470277585784" lon="8.93477500121011" id="-26043">
		<tag k="name" v="Tveitedalen" />
		<tag k="place" v="locality" />
		<tag k="ssr:stedsnr" v="697859" />
	</node>
	<node lat="58.645236115322135" lon="8.843080560390463" id="-26048">
		<tag k="name" v="Roa" />
		<tag k="place" v="locality" />
		<tag k="ssr:stedsnr" v="697936" />
	</node>
	<node lat="58.632644446071495" lon="8.878675004395916" id="-26050">
		<tag k="name" v="Sveinungsplass" />
		<tag k="place" v="locality" />
		<tag k="ssr:stedsnr" v="697948" />
	</node>
	<node lat="58.628094445895584" lon="8.959341673859258" id="-26052">
		<tag k="name" v="Østerå" />
		<tag k="place" v="quarter" />
		<tag k="ssr:stedsnr" v="600509" />
	</node>
	<node lat="58.63783611341255" lon="8.898883339345645" id="-26055">
		<tag k="alt_name" v="Bergehagane" />
		<tag k="name" v="Bergehagen" />
		<tag k="place" v="farm" />
		<tag k="ssr:stedsnr" v="607403" />
	</node>
	<node lat="58.576494448003416" lon="9.00199443880541" id="-26056">
		<tag k="alt_name" v="Dynge" />
		<tag k="name" v="Dyngøy" />
		<tag k="place" v="hamlet" />
		<tag k="ssr:stedsnr" v="607302" />
	</node>
	<node lat="58.58021944125773" lon="8.922055560390023" id="-26057">
		<tag k="fixme" v="consider place=hamlet" />
		<tag k="name" v="Kvastadlia" />
		<tag k="place" v="farm" />
		<tag k="ssr:stedsnr" v="607309" />
	</node>
	<node lat="58.62724999961441" lon="8.857247222100268" id="-26059">
		<tag k="fixme" v="consider place=suburb, village or hamlet" />
		<tag k="name" v="Nesgrenda" />
		<tag k="place" v="quarter" />
		<tag k="ssr:stedsnr" v="607397" />
	</node>
	<node lat="58.64643333733441" lon="9.106466658160171" id="-26060">
		<tag k="name" v="Hagen" />
		<tag k="place" v="farm" />
		<tag k="ssr:stedsnr" v="607401" />
	</node>
	<node lat="58.6758083372571" lon="9.074877781907837" id="-26063">
		<tag k="name" v="Lia" />
		<tag k="place" v="farm" />
		<tag k="ssr:stedsnr" v="607453" />
	</node>
	<node lat="58.58108888677481" lon="8.934058325509426" id="-26124">
		<tag k="name" v="Tangen" />
		<tag k="place" v="farm" />
		<tag k="ssr:stedsnr" v="668315" />
	</node>
	<node lat="58.63909444293773" lon="8.979188892310034" id="-26125">
		<tag k="name" v="Fagermyr" />
		<tag k="place" v="isolated_dwelling" />
		<tag k="ssr:stedsnr" v="668416" />
	</node>
	<node lat="58.652749997769526" lon="8.925933335040492" id="-26127">
		<tag k="alt_name" v="Grensen" />
		<tag k="fixme" v="consider place=hamlet" />
		<tag k="name" v="Grændsen" />
		<tag k="place" v="farm" />
		<tag k="ssr:stedsnr" v="668432" />
	</node>
	<node lat="58.59102500440941" lon="8.872919448208036" id="-26128">
		<tag k="alt_name" v="Dalene" />
		<tag k="name" v="Dalane" />
		<tag k="place" v="farm" />
		<tag k="ssr:stedsnr" v="668338" />
	</node>
	<node lat="58.62894166600374" lon="9.042466671127078" id="-26129">
		<tag k="fixme" v="consider place=hamlet" />
		<tag k="name" v="Størdal" />
		<tag k="place" v="farm" />
		<tag k="ssr:stedsnr" v="668386" />
	</node>
	<node lat="58.637433337437955" lon="8.911100005444945" id="-26133">
		<tag k="name" v="Krossen" />
		<tag k="place" v="farm" />
		<tag k="ssr:stedsnr" v="668393" />
	</node>
	<node lat="58.602236114963" lon="8.78000556030989" id="-26136">
		<tag k="fixme" v="consider place=hamlet" />
		<tag k="name" v="Rosstøl" />
		<tag k="place" v="farm" />
		<tag k="ssr:stedsnr" v="668835" />
	</node>
	<node lat="58.66351110669198" lon="8.988136111870565" id="-26151">
		<tag k="name" v="Kjæret" />
		<tag k="place" v="farm" />
		<tag k="ssr:stedsnr" v="697381" />
	</node>
	<node lat="58.688444448527385" lon="9.003183328714744" id="-26167">
		<tag k="name" v="Nedre Songe" />
		<tag k="place" v="farm" />
		<tag k="ssr:stedsnr" v="697601" />
	</node>
	<node lat="58.62246111516782" lon="8.888091667652528" id="-26176">
		<tag k="name" v="Nygård" />
		<tag k="place" v="farm" />
		<tag k="ssr:stedsnr" v="697871" />
	</node>
	<node lat="58.566461107067326" lon="8.88550555045583" id="-26190">
		<tag k="alt_name" v="Jordtjenn" />
		<tag k="fixme" v="consider place=hamlet" />
		<tag k="name" v="Jordtjern" />
		<tag k="place" v="farm" />
		<tag k="ssr:stedsnr" v="729280" />
	</node>
	<node lat="58.65097777864149" lon="8.950111110408894" id="-26194">
		<tag k="name" v="Dokka" />
		<tag k="place" v="farm" />
		<tag k="ssr:stedsnr" v="729408" />
	</node>
	<node lat="58.69357653835194" lon="8.997456313115878" id="-26196">
		<tag k="name" v="Moen" />
		<tag k="place" v="farm" />
		<tag k="ssr:stedsnr" v="729484" />
	</node>
	<node lat="58.61379166402496" lon="8.870830548517032" id="-26198">
		<tag k="name" v="Korsen" />
		<tag k="place" v="isolated_dwelling" />
		<tag k="ssr:stedsnr" v="729370" />
	</node>
	<node lat="58.59599166567447" lon="8.840247217907281" id="-26199">
		<tag k="name" v="Landvik" />
		<tag k="place" v="locality" />
		<tag k="ssr:stedsnr" v="729838" />
	</node>
	<node lat="58.64979999605125" lon="9.000355563758243" id="-26205">
		<tag k="name" v="Vallehytta" />
		<tag k="place" v="isolated_dwelling" />
		<tag k="ssr:stedsnr" v="757317" />
	</node>
	<node lat="58.57381111179726" lon="8.929363893632592" id="-26210">
		<tag k="name" v="Rønningen" />
		<tag k="place" v="locality" />
		<tag k="ssr:stedsnr" v="757096" />
	</node>
	<node lat="58.67064722206423" lon="8.988455550994823" id="-26224">
		<tag k="name" v="Bomodden" />
		<tag k="place" v="farm" />
		<tag k="ssr:stedsnr" v="757607" />
	</node>
	<node lat="58.57733333458004" lon="9.004402782253795" id="-26226">
		<tag k="name" v="Gården" />
		<tag k="place" v="farm" />
		<tag k="ssr:stedsnr" v="757650" />
	</node>
	<node lat="58.65309444878793" lon="8.85985834062848" id="-26238">
		<tag k="name" v="Myrvang" />
		<tag k="place" v="farm" />
		<tag k="ssr:stedsnr" v="757963" />
	</node>
	<node lat="58.62965277788989" lon="8.886058338389974" id="-26247">
		<tag k="name" v="Gliddi" />
		<tag k="place" v="farm" />
		<tag k="ssr:stedsnr" v="911391" />
	</node>
	<node lat="58.5928777810095" lon="8.86023333727244" id="-26248">
		<tag k="name" v="Dalen" />
		<tag k="place" v="farm" />
		<tag k="ssr:stedsnr" v="789317" />
	</node>
	<node lat="58.56019444576699" lon="8.89793332659848" id="-26250">
		<tag k="fixme" v="consider place=hamlet" />
		<tag k="name" v="Torp" />
		<tag k="place" v="farm" />
		<tag k="ssr:stedsnr" v="789260" />
	</node>
	<node lat="58.56407499904199" lon="8.87438889171805" id="-26251">
		<tag k="name" v="Holte" />
		<tag k="place" v="farm" />
		<tag k="ssr:stedsnr" v="789261" />
	</node>
	<node lat="58.55028916863349" lon="8.88992757151796" id="-26252">
		<tag k="name" v="Vasstø" />
		<tag k="place" v="farm" />
		<tag k="ssr:stedsnr" v="789267" />
	</node>
	<node lat="58.64375277870644" lon="8.908530562822754" id="-26253">
		<tag k="fixme" v="consider place=hamlet" />
		<tag k="name" v="Fosstveit" />
		<tag k="place" v="farm" />
		<tag k="ssr:stedsnr" v="789407" />
	</node>
	<node lat="58.65136944644362" lon="9.110411109141989" id="-26254">
		<tag k="name" v="Eikedalen" />
		<tag k="place" v="farm" />
		<tag k="ssr:stedsnr" v="789416" />
	</node>
	<node lat="58.652608333863775" lon="8.94475277162605" id="-26256">
		<tag k="fixme" v="consider place=hamlet" />
		<tag k="name" v="Lunde" />
		<tag k="place" v="farm" />
		<tag k="ssr:stedsnr" v="789420" />
	</node>
	<node lat="58.66060555266888" lon="8.974558326777219" id="-26257">
		<tag k="name" v="Engeland" />
		<tag k="place" v="farm" />
		<tag k="ssr:stedsnr" v="789426" />
	</node>
	<node lat="58.66437500270837" lon="8.855483328330921" id="-26260">
		<tag k="name" v="Vågsmyr" />
		<tag k="place" v="isolated_dwelling" />
		<tag k="ssr:stedsnr" v="911436" />
	</node>
	<node lat="58.670469443433724" lon="8.986885893471607" id="-26261">
		<tag k="name" v="Bjornes" />
		<tag k="place" v="farm" />
		<tag k="ssr:stedsnr" v="911446" />
	</node>
	<node lat="58.66877777860013" lon="8.98103611678686" id="-26262">
		<tag k="name" v="Strømmen" />
		<tag k="place" v="farm" />
		<tag k="ssr:stedsnr" v="911448" />
	</node>
	<node lat="58.6269749996385" lon="9.072255548651688" id="-26265">
		<tag k="name" v="Kobbervika" />
		<tag k="place" v="farm" />
		<tag k="ssr:stedsnr" v="817705" />
	</node>
	<node lat="58.648822224213646" lon="9.064699997317735" id="-26268">
		<tag k="name" v="Ytre Gjøseid" />
		<tag k="place" v="farm" />
		<tag k="ssr:stedsnr" v="818102" />
	</node>
	<node lat="58.60124444149847" lon="8.758883332501116" id="-26269">
		<tag k="name" v="Øygarden" />
		<tag k="place" v="locality" />
		<tag k="ssr:stedsnr" v="818203" />
	</node>
	<node lat="58.590048885299694" lon="9.065659340528388" id="-26276">
		<tag k="name" v="Hella" />
		<tag k="place" v="farm" />
		<tag k="ssr:stedsnr" v="850278" />
	</node>
	<node lat="58.59648751559188" lon="9.005474282485501" id="-26277">
		<tag k="alt_name" v="Nedrejordet" />
		<tag k="name" v="Nerjordet" />
		<tag k="place" v="farm" />
		<tag k="ssr:stedsnr" v="850289" />
	</node>
	<node lat="58.65543610742037" lon="8.953930549544536" id="-26278">
		<tag k="fixme" v="consider place=hamlet" />
		<tag k="name" v="Valle" />
		<tag k="place" v="farm" />
		<tag k="ssr:stedsnr" v="850428" />
	</node>
	<node lat="58.65693333731155" lon="9.044708337507869" id="-26279">
		<tag k="name" v="Gangdalen" />
		<tag k="place" v="farm" />
		<tag k="ssr:stedsnr" v="850433" />
	</node>
	<node lat="58.68539999704774" lon="9.004363894701644" id="-26282">
		<tag k="fixme" v="consider place=suburb, village or hamlet" />
		<tag k="name" v="Songe" />
		<tag k="place" v="quarter" />
		<tag k="ssr:stedsnr" v="850486" />
	</node>
	<node lat="58.60268333329807" lon="8.92538056155598" id="-26285">
		<tag k="name" v="Slåtta" />
		<tag k="place" v="farm" />
		<tag k="ssr:stedsnr" v="851323" />
	</node>
	<node lat="58.62266666402785" lon="8.931061114862617" id="-26286">
		<tag k="name" v="Tvedestrand" />
		<tag k="place" v="town" />
		<tag k="ssr:stedsnr" v="851324" />
	</node>
	<node lat="58.64715833540066" lon="9.100955549466327" id="-26287">
		<tag k="name" v="Bergendal" />
		<tag k="place" v="farm" />
		<tag k="ssr:stedsnr" v="851373" />
	</node>
	<node lat="58.633363889095165" lon="8.796141673181687" id="-26292">
		<tag k="name" v="Øygarden" />
		<tag k="place" v="farm" />
		<tag k="ssr:stedsnr" v="879021" />
	</node>
	<node lat="58.65752222132748" lon="9.030197228863093" id="-26297">
		<tag k="name" v="Plassen" />
		<tag k="place" v="locality" />
		<tag k="ssr:stedsnr" v="879326" />
	</node>
	<node lat="58.598069448073595" lon="9.062774991751024" id="-26303">
		<tag k="name" v="Gården" />
		<tag k="place" v="farm" />
		<tag k="ssr:stedsnr" v="879263" />
	</node>
	<node lat="58.67975277845027" lon="8.945011110047181" id="-26314">
		<tag k="name" v="Laddas" />
		<tag k="place" v="locality" />
		<tag k="ssr:stedsnr" v="879564" />
	</node>
	<node lat="58.62276389281755" lon="8.886019449340585" id="-26321">
		<tag k="name" v="Klepshagen" />
		<tag k="place" v="farm" />
		<tag k="ssr:stedsnr" v="879851" />
	</node>
	<node lat="58.585874997392956" lon="9.03973054971213" id="-26327">
		<tag k="name" v="Kilen" />
		<tag k="place" v="hamlet" />
		<tag k="ssr:stedsnr" v="911308" />
	</node>
	<node lat="58.58719166793161" lon="8.96776389054179" id="-26329">
		<tag k="fixme" v="consider place=hamlet" />
		<tag k="name" v="Skottevik" />
		<tag k="place" v="farm" />
		<tag k="ssr:stedsnr" v="911317" />
	</node>
	<node lat="58.5896444442979" lon="8.861708326923628" id="-26330">
		<tag k="name" v="Storøygard" />
		<tag k="place" v="farm" />
		<tag k="ssr:stedsnr" v="911324" />
	</node>
	<node lat="58.59838888987638" lon="8.956980548406396" id="-26331">
		<tag k="fixme" v="consider place=hamlet" />
		<tag k="name" v="Furøya" />
		<tag k="place" v="farm" />
		<tag k="ssr:stedsnr" v="911340" />
	</node>
	<node lat="58.62268968601538" lon="9.03189368618734" id="-26333">
		<tag k="fixme" v="consider place=hamlet" />
		<tag k="name" v="Krokvåg" />
		<tag k="place" v="farm" />
		<tag k="ssr:stedsnr" v="911359" />
	</node>
	<node lat="58.61807777615093" lon="8.951486103599178" id="-26334">
		<tag k="name" v="Stamnes" />
		<tag k="place" v="farm" />
		<tag k="ssr:stedsnr" v="911369" />
	</node>
	<node lat="58.67070000259795" lon="8.877133332778227" id="-26337">
		<tag k="fixme" v="consider place=hamlet" />
		<tag k="name" v="Østebø" />
		<tag k="place" v="farm" />
		<tag k="ssr:stedsnr" v="911453" />
	</node>
	<node lat="58.67584444113776" lon="9.055649992219696" id="-26338">
		<tag k="fixme" v="consider place=hamlet" />
		<tag k="name" v="Strømsland" />
		<tag k="place" v="farm" />
		<tag k="ssr:stedsnr" v="911456" />
	</node>
	<node lat="58.67741944495587" lon="9.045908334487471" id="-26339">
		<tag k="alt_name" v="Dokkenes" />
		<tag k="fixme" v="consider place=hamlet" />
		<tag k="name" v="Dokknes" />
		<tag k="place" v="farm" />
		<tag k="ssr:stedsnr" v="911458" />
	</node>
	<node lat="58.66414166719917" lon="8.842844436024565" id="-26342">
		<tag k="alt_name" v="Bunæs" />
		<tag k="name" v="Bunes" />
		<tag k="place" v="farm" />
		<tag k="ssr:stedsnr" v="911955" />
	</node>
	<node lat="58.59431111418276" lon="8.751336108205955" id="-26346">
		<tag k="name" v="Tereleikplassen" />
		<tag k="place" v="locality" />
		<tag k="ssr:stedsnr" v="939215" />
	</node>
	<node lat="58.61679444513995" lon="8.862124994663548" id="-26355">
		<tag k="name" v="Nyplass" />
		<tag k="place" v="locality" />
		<tag k="ssr:stedsnr" v="272901" />
	</node>
	<node lat="58.59892112429406" lon="8.873931126195298" id="-26358">
		<tag k="fixme" v="consider place=hamlet" />
		<tag k="name" v="Vestre Godderstad" />
		<tag k="place" v="farm" />
		<tag k="ssr:stedsnr" v="971244" />
	</node>
	<node lat="58.652904876350824" lon="9.143514967184938" id="-26359">
		<tag k="fixme" v="consider place=hamlet" />
		<tag k="name" v="Risøen" />
		<tag k="place" v="farm" />
		<tag k="ssr:stedsnr" v="971267" />
	</node>
	<node lat="58.64698822046038" lon="9.123562135814119" id="-26360">
		<tag k="fixme" v="consider place=hamlet" />
		<tag k="name" v="Gjeving" />
		<tag k="place" v="farm" />
		<tag k="ssr:stedsnr" v="971268" />
	</node>
	<node lat="58.6264901068118" lon="9.05335884687266" id="-26361">
		<tag k="fixme" v="consider place=hamlet" />
		<tag k="name" v="Dypvåg prestegård" />
		<tag k="place" v="farm" />
		<tag k="ssr:stedsnr" v="971269" />
	</node>
	<node lat="58.61944978436435" lon="9.020604714451526" id="-26362">
		<tag k="fixme" v="consider place=hamlet" />
		<tag k="name" v="Ås" />
		<tag k="place" v="farm" />
		<tag k="ssr:stedsnr" v="971271" />
	</node>
	<node lat="58.58851564312358" lon="8.989466008574137" id="-26363">
		<tag k="fixme" v="consider place=hamlet" />
		<tag k="name" v="Skatbunes" />
		<tag k="place" v="farm" />
		<tag k="ssr:stedsnr" v="971272" />
	</node>
	<node lat="58.582966541091665" lon="8.993245321433466" id="-26364">
		<tag k="fixme" v="consider place=hamlet" />
		<tag k="name" v="Bukholmen" />
		<tag k="place" v="farm" />
		<tag k="ssr:stedsnr" v="971273" />
	</node>
	<node lat="58.61693333698902" lon="8.873374999149592" id="-26368">
		<tag k="name" v="Solberg" />
		<tag k="place" v="farm" />
		<tag k="ssr:stedsnr" v="97" />
	</node>
	<node lat="58.577674996690824" lon="8.888908330829915" id="-26370">
		<tag k="name" v="Hagen" />
		<tag k="place" v="farm" />
		<tag k="ssr:stedsnr" v="292" />
	</node>
	<node lat="58.58905277557556" lon="9.03631110668277" id="-26371">
		<tag k="name" v="Haven" />
		<tag k="place" v="farm" />
		<tag k="ssr:stedsnr" v="294" />
	</node>
	<node lat="58.5941500035035" lon="8.983019436276367" id="-26372">
		<tag k="fixme" v="consider place=hamlet" />
		<tag k="name" v="Nes" />
		<tag k="place" v="farm" />
		<tag k="ssr:stedsnr" v="310" />
	</node>
	<node lat="58.590737792415396" lon="8.992662824437993" id="-26375">
		<tag k="name" v="Danielsnes" />
		<tag k="place" v="farm" />
		<tag k="ssr:stedsnr" v="314" />
	</node>
	<node lat="58.59590555364952" lon="8.771269451643828" id="-26376">
		<tag k="name" v="Skrattereid" />
		<tag k="place" v="farm" />
		<tag k="ssr:stedsnr" v="824" />
	</node>
	<node lat="58.627104077250614" lon="9.073287340705116" id="-26382">
		<tag k="name" v="Vinterstø" />
		<tag k="place" v="farm" />
		<tag k="ssr:stedsnr" v="1344" />
	</node>
	<node lat="58.63761388519784" lon="9.046663895744624" id="-26384">
		<tag k="alt_name" v="Seten" />
		<tag k="name" v="Setane" />
		<tag k="place" v="farm" />
		<tag k="ssr:stedsnr" v="1367" />
	</node>
	<node lat="58.63243888687186" lon="9.090522226111744" id="-26385">
		<tag k="alt_name" v="Hella" />
		<tag k="name" v="Heller" />
		<tag k="place" v="farm" />
		<tag k="ssr:stedsnr" v="1368" />
	</node>
	<node lat="58.63295277727905" lon="8.869805559504531" id="-26386">
		<tag k="name" v="Heimnes" />
		<tag k="place" v="farm" />
		<tag k="ssr:stedsnr" v="1378" />
	</node>
	<node lat="58.62171388948145" lon="8.813233333193986" id="-26399">
		<tag k="name" v="Elgsmyr" />
		<tag k="place" v="locality" />
		<tag k="ssr:stedsnr" v="29042" />
	</node>
	<node lat="58.626366663476" lon="8.927975002969342" id="-26449">
		<tag k="building" v="commercial" />
		<tag k="name" v="Ruhagen" />
		<tag k="ssr:stedsnr" v="29855" />
	</node>
	<node lat="58.62758055161383" lon="8.848955559786802" id="-26456">
		<tag k="fixme" v="consider place=hamlet" />
		<tag k="name" v="Sletta" />
		<tag k="place" v="farm" />
		<tag k="ssr:stedsnr" v="29952" />
	</node>
	<node lat="58.65995555230545" lon="8.926627781796975" id="-26462">
		<tag k="name" v="Vestervik" />
		<tag k="place" v="isolated_dwelling" />
		<tag k="ssr:stedsnr" v="29993" />
	</node>
	<node lat="58.55953610849121" lon="8.90847222640589" id="-26469">
		<tag k="name" v="Loftskjær" />
		<tag k="place" v="farm" />
		<tag k="ssr:stedsnr" v="61243" />
	</node>
	<node lat="58.677919441964335" lon="9.072813893121765" id="-26473">
		<tag k="alt_name" v="Håvet" />
		<tag k="name" v="Hove" />
		<tag k="place" v="farm" />
		<tag k="ssr:stedsnr" v="61441" />
	</node>
	<node lat="58.67694722506081" lon="9.01248611429255" id="-26474">
		<tag k="name" v="Nes" />
		<tag k="place" v="farm" />
		<tag k="ssr:stedsnr" v="61451" />
	</node>
	<node lat="58.62176388443547" lon="8.855330561797118" id="-26478">
		<tag k="name" v="Gangdalen" />
		<tag k="place" v="farm" />
		<tag k="ssr:stedsnr" v="62377" />
	</node>
	<node lat="58.60795833658438" lon="8.879605560808352" id="-26479">
		<tag k="name" v="Rønningen" />
		<tag k="place" v="farm" />
		<tag k="ssr:stedsnr" v="62332" />
	</node>
	<node lat="58.61146110793676" lon="8.951836106391854" id="-26480">
		<tag k="fixme" v="consider place=hamlet" />
		<tag k="name" v="Råkenes" />
		<tag k="place" v="farm" />
		<tag k="ssr:stedsnr" v="62337" />
	</node>
	<node lat="58.633930559501955" lon="8.805924996469367" id="-26496">
		<tag k="name" v="Støle" />
		<tag k="place" v="locality" />
		<tag k="ssr:stedsnr" v="90019" />
	</node>
	<node lat="58.613005558088105" lon="8.813008329371007" id="-26498">
		<tag k="name" v="Saumyrplassen" />
		<tag k="place" v="locality" />
		<tag k="ssr:stedsnr" v="90038" />
	</node>
	<node lat="58.62710555608768" lon="8.838036111071764" id="-26513">
		<tag k="name" v="Tollknuten" />
		<tag k="place" v="locality" />
		<tag k="ssr:stedsnr" v="90937" />
	</node>
	<node lat="58.65165372526939" lon="8.939376580678157" id="-26525">
		<tag k="name" v="Lundemoen" />
		<tag k="place" v="farm" />
		<tag k="ssr:stedsnr" v="90338" />
	</node>
	<node lat="58.61328611374518" lon="8.955297222988852" id="-26532">
		<tag k="name" v="Øvre Råknes" />
		<tag k="place" v="farm" />
		<tag k="ssr:stedsnr" v="90501" />
	</node>
	<node lat="58.613494443712035" lon="8.87098611656758" id="-26564">
		<tag k="name" v="Korsen" />
		<tag k="place" v="quarter" />
		<tag k="ssr:stedsnr" v="116638" />
	</node>
	<node lat="58.609530557759655" lon="8.751438884161091" id="-26566">
		<tag k="fixme" v="consider place=hamlet" />
		<tag k="name" v="Våland" />
		<tag k="place" v="farm" />
		<tag k="ssr:stedsnr" v="121784" />
	</node>
	<node lat="58.60616666223264" lon="8.988074998675973" id="-26567">
		<tag k="fixme" v="consider place=hamlet" />
		<tag k="name" v="Eidbo" />
		<tag k="place" v="farm" />
		<tag k="ssr:stedsnr" v="122332" />
	</node>
	<node lat="58.61502777440233" lon="9.006199995947904" id="-26568">
		<tag k="fixme" v="consider place=hamlet" />
		<tag k="name" v="Ulevåg" />
		<tag k="place" v="farm" />
		<tag k="ssr:stedsnr" v="122342" />
	</node>
	<node lat="58.67376111087602" lon="9.023711114920546" id="-26571">
		<tag k="fixme" v="consider place=hamlet" />
		<tag k="name" v="Nævestad" />
		<tag k="place" v="farm" />
		<tag k="ssr:stedsnr" v="122429" />
	</node>
	<node lat="58.68404166675782" lon="8.887591675198749" id="-26576">
		<tag k="name" v="Smørbekk" />
		<tag k="place" v="farm" />
		<tag k="ssr:stedsnr" v="142067" />
	</node>
	<node lat="58.62272499929473" lon="8.923880549624538" id="-26610">
		<tag k="name" v="Strandhagen" />
		<tag k="place" v="quarter" />
		<tag k="ssr:stedsnr" v="150633" />
	</node>
	<node lat="58.62711944372198" lon="9.00214722233947" id="-26626">
		<tag k="name" v="Kolhytta" />
		<tag k="place" v="isolated_dwelling" />
		<tag k="ssr:stedsnr" v="150540" />
	</node>
	<node lat="58.658252773445824" lon="8.858175007675467" id="-26643">
		<tag k="name" v="Hasseldalekra" />
		<tag k="place" v="farm" />
		<tag k="ssr:stedsnr" v="150977" />
	</node>
	<node lat="58.62849444396426" lon="8.935075006173934" id="-26651">
		<tag k="amenity" v="school" />
		<tag k="name" v="Lyngmyr skole" />
		<tag k="ssr:stedsnr" v="150847" />
	</node>
	<node lat="58.626147221865544" lon="8.94372778187818" id="-26666">
		<tag k="name" v="Svarttjenn" />
		<tag k="place" v="quarter" />
		<tag k="ssr:stedsnr" v="179430" />
	</node>
	<node lat="58.64905833745634" lon="9.10097221734259" id="-26667">
		<tag k="name" v="Bergendalshøgda" />
		<tag k="place" v="quarter" />
		<tag k="ssr:stedsnr" v="179437" />
	</node>
	<node lat="58.60003333018946" lon="9.077069438255952" id="-26670">
		<tag k="name" v="Sandvika" />
		<tag k="place" v="isolated_dwelling" />
		<tag k="ssr:stedsnr" v="182284" />
	</node>
	<node lat="58.59058611269548" lon="8.943383338989682" id="-26673">
		<tag k="name" v="Sundet" />
		<tag k="place" v="farm" />
		<tag k="ssr:stedsnr" v="182295" />
	</node>
	<node lat="58.60137500053057" lon="8.938152769993035" id="-26674">
		<tag k="fixme" v="consider place=hamlet" />
		<tag k="name" v="Skuggevik" />
		<tag k="place" v="farm" />
		<tag k="ssr:stedsnr" v="182323" />
	</node>
	<node lat="58.68663055323802" lon="9.052752778300695" id="-26676">
		<tag k="fixme" v="consider place=hamlet" />
		<tag k="name" v="Romundstad" />
		<tag k="place" v="farm" />
		<tag k="ssr:stedsnr" v="183420" />
	</node>
	<node lat="58.65443610722072" lon="9.117830552727948" id="-26694">
		<tag k="name" v="Saltrø" />
		<tag k="place" v="farm" />
		<tag k="ssr:stedsnr" v="211084" />
	</node>
	<node lat="58.623561113455054" lon="9.007888889185562" id="-26707">
		<tag k="name" v="Øygården" />
		<tag k="place" v="farm" />
		<tag k="ssr:stedsnr" v="211549" />
	</node>
	<node lat="58.606811108903344" lon="8.976577776276995" id="-26710">
		<tag k="name" v="Mildal" />
		<tag k="place" v="farm" />
		<tag k="ssr:stedsnr" v="211562" />
	</node>
	<node lat="58.57995277759706" lon="8.999494449520444" id="-26725">
		<tag k="name" v="Kalven" />
		<tag k="place" v="farm" />
		<tag k="ssr:stedsnr" v="211660" />
	</node>
	<node lat="58.63773888909473" lon="9.044936103099708" id="-26737">
		<tag k="name" v="Setane" />
		<tag k="place" v="farm" />
		<tag k="ssr:stedsnr" v="211715" />
	</node>
	<node lat="58.62345555821108" lon="8.914288888279899" id="-26757">
		<tag k="name" v="Vestre Bergsmyr" />
		<tag k="place" v="quarter" />
		<tag k="ssr:stedsnr" v="300441" />
	</node>
	<node lat="58.629829483907606" lon="9.074895831904488" id="-26758">
		<tag k="name" v="Nordmannsvik" />
		<tag k="place" v="farm" />
		<tag k="ssr:stedsnr" v="301945" />
	</node>
	<node lat="58.62691389190394" lon="8.88703055029964" id="-26761">
		<tag k="fixme" v="consider place=hamlet" />
		<tag k="name" v="Gliddi" />
		<tag k="place" v="farm" />
		<tag k="ssr:stedsnr" v="304085" />
	</node>
	<node lat="58.5614388864668" lon="8.90384444216086" id="-26763">
		<tag k="fixme" v="consider place=hamlet" />
		<tag k="name" v="Langang" />
		<tag k="place" v="farm" />
		<tag k="ssr:stedsnr" v="304243" />
	</node>
	<node lat="58.54901998185552" lon="8.89946570230746" id="-26764">
		<tag k="name" v="Dal" />
		<tag k="place" v="farm" />
		<tag k="ssr:stedsnr" v="304246" />
	</node>
	<node lat="58.64330833435514" lon="9.047291662606638" id="-26766">
		<tag k="fixme" v="consider place=hamlet" />
		<tag k="name" v="Reinsfjell" />
		<tag k="place" v="farm" />
		<tag k="ssr:stedsnr" v="304389" />
	</node>
	<node lat="58.6446638930261" lon="9.049399998621071" id="-26767">
		<tag k="name" v="Myra" />
		<tag k="place" v="farm" />
		<tag k="ssr:stedsnr" v="304390" />
	</node>
	<node lat="58.6480000022244" lon="9.049677775548938" id="-26768">
		<tag k="name" v="Rønningen" />
		<tag k="place" v="farm" />
		<tag k="ssr:stedsnr" v="304400" />
	</node>
	<node lat="58.608558336179925" lon="8.875113882644717" id="-26773">
		<tag k="name" v="Blivollen" />
		<tag k="place" v="farm" />
		<tag k="ssr:stedsnr" v="304335" />
	</node>
	<node lat="58.62840555647487" lon="8.877555551621763" id="-26775">
		<tag k="fixme" v="consider place=hamlet" />
		<tag k="name" v="Lilleholt" />
		<tag k="place" v="farm" />
		<tag k="ssr:stedsnr" v="304342" />
	</node>
	<node lat="58.627338888554796" lon="8.959602780864351" id="-26776">
		<tag k="fixme" v="consider place=hamlet" />
		<tag k="name" v="Østerå" />
		<tag k="place" v="farm" />
		<tag k="ssr:stedsnr" v="304345" />
	</node>
	<node lat="58.62139148912455" lon="9.067053148082913" id="-26778">
		<tag k="name" v="Sanden" />
		<tag k="place" v="farm" />
		<tag k="ssr:stedsnr" v="304347" />
	</node>
	<node lat="58.633299998255595" lon="8.916513890725973" id="-26780">
		<tag k="alt_name" v="Bukkebladkjær" />
		<tag k="name" v="Bukkebladkjerret" />
		<tag k="place" v="farm" />
		<tag k="ssr:stedsnr" v="304360" />
	</node>
	<node lat="58.634355558491684" lon="8.984205556309448" id="-26781">
		<tag k="alt_name" v="Dukene" />
		<tag k="name" v="Dukane" />
		<tag k="place" v="farm" />
		<tag k="ssr:stedsnr" v="304363" />
	</node>
	<node lat="58.630010521632386" lon="9.074980931228147" id="-26782">
		<tag k="alt_name" v="Normannvik" />
		<tag k="fixme" v="consider place=hamlet" />
		<tag k="name" v="Nordmannvik" />
		<tag k="place" v="farm" />
		<tag k="ssr:stedsnr" v="304368" />
	</node>
	<node lat="58.632616666153915" lon="9.129669448898929" id="-26783">
		<tag k="name" v="Lyngør" />
		<tag k="place" v="village" />
		<tag k="ssr:stedsnr" v="304371" />
	</node>
	<node lat="58.68128610903591" lon="9.071005548042573" id="-26784">
		<tag k="fixme" v="consider place=hamlet" />
		<tag k="name" v="Laget" />
		<tag k="place" v="village" />
		<tag k="ssr:stedsnr" v="304438" />
	</node>
	<node lat="58.676067425354" lon="9.034737271262777" id="-26785">
		<tag k="name" v="Dalen" />
		<tag k="place" v="farm" />
		<tag k="ssr:stedsnr" v="304446" />
	</node>
	<node lat="58.60622778146764" lon="8.817172224813747" id="-26787">
		<tag k="name" v="Øygarden" />
		<tag k="place" v="locality" />
		<tag k="ssr:stedsnr" v="304797" />
	</node>
	<node lat="58.60106666233635" lon="8.836194437085165" id="-26793">
		<tag k="name" v="Mellom" />
		<tag k="place" v="locality" />
		<tag k="ssr:stedsnr" v="333071" />
	</node>
	<node lat="58.652505559010805" lon="9.142275003716996" id="-26794">
		<tag k="amenity" v="school" />
		<tag k="name" v="Risøy folkehøyskole" />
		<tag k="ssr:stedsnr" v="333077" />
	</node>
	<node lat="58.61158333302828" lon="8.819588883188286" id="-26802">
		<tag k="name" v="Klomra" />
		<tag k="place" v="locality" />
		<tag k="ssr:stedsnr" v="333036" />
	</node>
	<node lat="58.62857222563923" lon="9.029016671750323" id="-26822">
		<tag k="name" v="Nor" />
		<tag k="place" v="farm" />
		<tag k="ssr:stedsnr" v="333538" />
	</node>
	<node lat="58.652043544181915" lon="8.937539157946755" id="-26829">
		<tag k="name" v="Nebba" />
		<tag k="place" v="farm" />
		<tag k="ssr:stedsnr" v="333380" />
	</node>
	<node lat="58.67366227959" lon="8.98522170652542" id="-26836">
		<tag k="name" v="Sundsodden" />
		<tag k="place" v="farm" />
		<tag k="ssr:stedsnr" v="333574" />
	</node>
	<node lat="58.62973333477345" lon="8.91474721799081" id="-26844">
		<tag k="name" v="Nyland" />
		<tag k="place" v="quarter" />
		<tag k="ssr:stedsnr" v="333872" />
	</node>
	<node lat="58.63379722191259" lon="9.015761105858918" id="-26848">
		<tag k="name" v="Eidet" />
		<tag k="place" v="isolated_dwelling" />
		<tag k="ssr:stedsnr" v="333722" />
	</node>
	<node lat="58.58841944221522" lon="9.04250833761178" id="-26869">
		<tag k="alt_name" v="Sanden" />
		<tag k="name" v="Sanda" />
		<tag k="place" v="farm" />
		<tag k="ssr:stedsnr" v="364291" />
	</node>
	<node lat="58.58393231107256" lon="9.015771790505978" id="-26870">
		<tag k="alt_name" v="Dalan" />
		<tag k="name" v="Dalen" />
		<tag k="place" v="farm" />
		<tag k="ssr:stedsnr" v="364310" />
	</node>
	<node lat="58.593666663577785" lon="8.965025005005815" id="-26872">
		<tag k="fixme" v="consider place=hamlet" />
		<tag k="name" v="Knutsvik" />
		<tag k="place" v="farm" />
		<tag k="ssr:stedsnr" v="364334" />
	</node>
	<node lat="58.65284166479258" lon="8.84681944347151" id="-26876">
		<tag k="name" v="Vassenden" />
		<tag k="place" v="hamlet" />
		<tag k="ssr:stedsnr" v="365427" />
	</node>
	<node lat="58.650777774981975" lon="8.897536110117068" id="-26877">
		<tag k="name" v="Lauvland" />
		<tag k="place" v="farm" />
		<tag k="ssr:stedsnr" v="365429" />
	</node>
	<node lat="58.6636138878715" lon="8.988052783396443" id="-26878">
		<tag k="name" v="Salvesvoll" />
		<tag k="place" v="farm" />
		<tag k="ssr:stedsnr" v="365436" />
	</node>
	<node lat="58.62022500336731" lon="8.870111109158481" id="-26879">
		<tag k="name" v="Solberg" />
		<tag k="place" v="hamlet" />
		<tag k="ssr:stedsnr" v="365356" />
	</node>
	<node lat="58.675327779272735" lon="9.063341667558523" id="-26881">
		<tag k="name" v="Hagane" />
		<tag k="place" v="farm" />
		<tag k="ssr:stedsnr" v="365459" />
	</node>
	<node lat="58.64667499704394" lon="8.973255551679443" id="-26901">
		<tag k="name" v="Ytrebu" />
		<tag k="place" v="isolated_dwelling" />
		<tag k="ssr:stedsnr" v="393360" />
	</node>
	<node lat="58.63293672892382" lon="9.087473355180842" id="-26921">
		<tag k="name" v="Stemmekjær" />
		<tag k="place" v="farm" />
		<tag k="ssr:stedsnr" v="393466" />
	</node>
	<node lat="58.6494888916419" lon="8.930405557764068" id="-26926">
		<tag k="fixme" v="consider place=hamlet" />
		<tag k="name" v="Sandvad" />
		<tag k="place" v="farm" />
		<tag k="ssr:stedsnr" v="393767" />
	</node>
	<node lat="58.61471111428843" lon="9.011852772605101" id="-26937">
		<tag k="name" v="Strandhagen" />
		<tag k="place" v="isolated_dwelling" />
		<tag k="ssr:stedsnr" v="393554" />
	</node>
	<node lat="58.6261694412541" lon="8.948961104449511" id="-26964">
		<tag k="name" v="Valbergheia" />
		<tag k="place" v="quarter" />
		<tag k="ssr:stedsnr" v="422427" />
	</node>
	<node lat="58.58776111157474" lon="8.988611107737746" id="-26966">
		<tag k="name" v="Apalen" />
		<tag k="place" v="isolated_dwelling" />
		<tag k="ssr:stedsnr" v="425312" />
	</node>
	<node lat="58.57002777342201" lon="9.00121943855768" id="-26968">
		<tag k="fixme" v="consider place=suburb, village or hamlet" />
		<tag k="name" v="Sandvika" />
		<tag k="place" v="quarter" />
		<tag k="ssr:stedsnr" v="426271" />
	</node>
	<node lat="58.6456297073507" lon="8.904794874264532" id="-26969">
		<tag k="name" v="Modalen" />
		<tag k="place" v="farm" />
		<tag k="ssr:stedsnr" v="426368" />
	</node>
	<node lat="58.65575277947948" lon="8.965755559227597" id="-26970">
		<tag k="name" v="Hagane" />
		<tag k="place" v="farm" />
		<tag k="ssr:stedsnr" v="426375" />
	</node>
	<node lat="58.646900004053194" lon="8.952519450537103" id="-26971">
		<tag k="name" v="Feltstykket" />
		<tag k="place" v="farm" />
		<tag k="ssr:stedsnr" v="426377" />
	</node>
	<node lat="58.68666110854022" lon="9.01431944374158" id="-26972">
		<tag k="name" v="Bråten" />
		<tag k="place" v="farm" />
		<tag k="ssr:stedsnr" v="426453" />
	</node>
	<node lat="58.69199166840167" lon="9.061441667960965" id="-26973">
		<tag k="name" v="Bråtane" />
		<tag k="place" v="farm" />
		<tag k="ssr:stedsnr" v="426454" />
	</node>
	<node lat="58.59232500350427" lon="8.941855549984362" id="-26977">
		<tag k="name" v="Høyvika" />
		<tag k="place" v="isolated_dwelling" />
		<tag k="ssr:stedsnr" v="513691" />
	</node>
	<node lat="58.609697220939054" lon="8.904288895811444" id="-26982">
		<tag k="name" v="Øygarden" />
		<tag k="place" v="locality" />
		<tag k="ssr:stedsnr" v="515661" />
	</node>
	<node lat="58.60431111062384" lon="8.820302778363434" id="-26992">
		<tag k="name" v="Heirefjellplassen" />
		<tag k="place" v="locality" />
		<tag k="ssr:stedsnr" v="515023" />
	</node>
	<node lat="58.64728610918254" lon="9.118341673334477" id="-27010">
		<tag k="name" v="Dalen" />
		<tag k="place" v="locality" />
		<tag k="ssr:stedsnr" v="515082" />
	</node>
	<node lat="58.624086113603454" lon="8.933019448750622" id="-27013">
		<tag k="name" v="Østerkleiv" />
		<tag k="place" v="quarter" />
		<tag k="ssr:stedsnr" v="515090" />
	</node>
	<node lat="58.631574999374116" lon="9.084824993088443" id="-27027">
		<tag k="name" v="Storkjær" />
		<tag k="place" v="farm" />
		<tag k="ssr:stedsnr" v="515463" />
	</node>
	<node lat="58.63048888539116" lon="9.024299992521184" id="-27040">
		<tag k="name" v="Skauhagen" />
		<tag k="place" v="locality" />
		<tag k="ssr:stedsnr" v="515533" />
	</node>
	<node lat="58.602694446737615" lon="9.033155561657097" id="-27042">
		<tag k="name" v="Fredheim" />
		<tag k="place" v="isolated_dwelling" />
		<tag k="ssr:stedsnr" v="515547" />
	</node>
	<node lat="58.610808333665304" lon="9.01362777278008" id="-27043">
		<tag k="name" v="Tangevoll" />
		<tag k="place" v="isolated_dwelling" />
		<tag k="ssr:stedsnr" v="515559" />
	</node>
	<node lat="58.5835416691031" lon="9.000461109645252" id="-27048">
		<tag k="name" v="Kalven" />
		<tag k="place" v="farm" />
		<tag k="ssr:stedsnr" v="515670" />
	</node>
	<node lat="58.66433055864409" lon="8.933238885661261" id="-27057">
		<tag k="name" v="Østerlia" />
		<tag k="place" v="isolated_dwelling" />
		<tag k="ssr:stedsnr" v="515995" />
	</node>
	<node lat="58.604549996772356" lon="8.831477770024899" id="-27064">
		<tag k="name" v="Klovstøl" />
		<tag k="place" v="locality" />
		<tag k="ssr:stedsnr" v="515928" />
	</node>
	<node lat="58.57263610707508" lon="8.932786104316305" id="-27073">
		<tag k="name" v="Lonebakken" />
		<tag k="place" v="farm" />
		<tag k="ssr:stedsnr" v="546255" />
	</node>
	<node lat="58.56893611322878" lon="8.916838897123135" id="-27074">
		<tag k="name" v="Grimslia" />
		<tag k="place" v="farm" />
		<tag k="ssr:stedsnr" v="546257" />
	</node>
	<node lat="58.578466666398405" lon="8.935680561327764" id="-27075">
		<tag k="name" v="Storemyr" />
		<tag k="place" v="farm" />
		<tag k="ssr:stedsnr" v="546276" />
	</node>
	<node lat="58.57797500372072" lon="8.931502780589623" id="-27076">
		<tag k="fixme" v="consider place=hamlet" />
		<tag k="name" v="Buene" />
		<tag k="place" v="farm" />
		<tag k="ssr:stedsnr" v="546277" />
	</node>
	<node lat="58.590849996129336" lon="8.844344447213109" id="-27077">
		<tag k="fixme" v="consider place=hamlet" />
		<tag k="name" v="Skåland" />
		<tag k="place" v="farm" />
		<tag k="ssr:stedsnr" v="546280" />
	</node>
	<node lat="58.58551111261828" lon="8.941188881874398" id="-27078">
		<tag k="name" v="Harbones" />
		<tag k="place" v="farm" />
		<tag k="ssr:stedsnr" v="546284" />
	</node>
	<node lat="58.60028888555543" lon="8.87607777289941" id="-27079">
		<tag k="name" v="Goderstad" />
		<tag k="place" v="farm" />
		<tag k="ssr:stedsnr" v="546299" />
	</node>
	<node lat="58.63120834753678" lon="9.06495767007201" id="-27085">
		<tag k="alt_name" v="Dypvågdalen" />
		<tag k="name" v="Dalen" />
		<tag k="place" v="farm" />
		<tag k="ssr:stedsnr" v="547400" />
	</node>
	<node lat="58.60536111068571" lon="9.029341661899275" id="-27088">
		<tag k="fixme" v="consider place=hamlet" />
		<tag k="name" v="Gjesøya" />
		<tag k="place" v="farm" />
		<tag k="ssr:stedsnr" v="547348" />
	</node>
	<node lat="58.61243055270941" lon="8.992819442683325" id="-27089">
		<tag k="alt_name" v="Kilsend" />
		<tag k="name" v="Kilsenden" />
		<tag k="place" v="farm" />
		<tag k="ssr:stedsnr" v="547360" />
	</node>
	<node lat="58.63811111173867" lon="8.856383341100695" id="-27092">
		<tag k="name" v="Bruvoll" />
		<tag k="place" v="farm" />
		<tag k="ssr:stedsnr" v="547420" />
	</node>
	<node lat="58.64076566395588" lon="8.853718708010827" id="-27093">
		<tag k="name" v="Lillemo" />
		<tag k="place" v="farm" />
		<tag k="ssr:stedsnr" v="547422" />
	</node>
	<node lat="58.64474444124328" lon="8.852944438419241" id="-27094">
		<tag k="name" v="Stormo" />
		<tag k="place" v="farm" />
		<tag k="ssr:stedsnr" v="547424" />
	</node>
	<node lat="58.664219445214265" lon="8.919527769380094" id="-27096">
		<tag k="name" v="Skjerkholtdalen" />
		<tag k="place" v="farm" />
		<tag k="ssr:stedsnr" v="547448" />
	</node>
	<node lat="58.66445555703466" lon="8.941886117412258" id="-27097">
		<tag k="name" v="Lundedalen" />
		<tag k="place" v="farm" />
		<tag k="ssr:stedsnr" v="547451" />
	</node>
	<node lat="58.64810555970475" lon="8.771655559613396" id="-27099">
		<tag k="name" v="Sandnes" />
		<tag k="place" v="isolated_dwelling" />
		<tag k="ssr:stedsnr" v="547996" />
	</node>
	<node lat="58.62574166888422" lon="8.859800001858636" id="-27109">
		<tag k="fixme" v="consider place=hamlet" />
		<tag k="name" v="Nes" />
		<tag k="place" v="farm" />
		<tag k="ssr:stedsnr" v="575935" />
	</node>
	<node lat="58.5734861137466" lon="8.926022215488848" id="-27114">
		<tag k="name" v="Labakken" />
		<tag k="place" v="locality" />
		<tag k="ssr:stedsnr" v="575093" />
	</node>
	<node lat="58.61863055617134" lon="8.92698889174892" id="-27145">
		<tag k="name" v="Skibheia" />
		<tag k="place" v="quarter" />
		<tag k="ssr:stedsnr" v="575631" />
	</node>
	<node lat="58.59381944663675" lon="8.985808329287607" id="-27172">
		<tag k="name" v="Nes" />
		<tag k="place" v="quarter" />
		<tag k="ssr:stedsnr" v="603428" />
	</node>
	<node lat="58.65658819515864" lon="8.933175771924526" id="-27176">
		<tag k="name" v="Fjellstad" />
		<tag k="place" v="farm" />
		<tag k="ssr:stedsnr" v="607415" />
	</node>
	<node lat="58.66175000215909" lon="9.083605557771236" id="-27177">
		<tag k="fixme" v="consider place=hamlet" />
		<tag k="name" v="Løvdal" />
		<tag k="place" v="farm" />
		<tag k="ssr:stedsnr" v="607421" />
	</node>
	<node lat="58.65704999625776" lon="9.024094436270342" id="-27178">
		<tag k="name" v="Stokkebokjær" />
		<tag k="place" v="farm" />
		<tag k="ssr:stedsnr" v="607425" />
	</node>
	<node lat="58.61747499567364" lon="8.931908339975903" id="-27179">
		<tag k="fixme" v="consider place=hamlet" />
		<tag k="name" v="Bakke" />
		<tag k="place" v="farm" />
		<tag k="ssr:stedsnr" v="607371" />
	</node>
	<node lat="58.61325000288604" lon="8.881702776366119" id="-27180">
		<tag k="alt_name" v="Langtveit" />
		<tag k="fixme" v="consider place=hamlet" />
		<tag k="name" v="Langetveit" />
		<tag k="place" v="farm" />
		<tag k="ssr:stedsnr" v="607373" />
	</node>
	<node lat="58.614236108590305" lon="8.92916111567407" id="-27181">
		<tag k="fixme" v="consider place=hamlet" />
		<tag k="name" v="Bronsbu" />
		<tag k="place" v="farm" />
		<tag k="ssr:stedsnr" v="607375" />
	</node>
	<node lat="58.61283333531671" lon="8.927994439038633" id="-27182">
		<tag k="alt_name" v="Glastad" />
		<tag k="name" v="Gladstad" />
		<tag k="place" v="farm" />
		<tag k="ssr:stedsnr" v="607377" />
	</node>
	<node lat="58.63184165851648" lon="9.048102764711492" id="-27183">
		<tag k="alt_name" v="Knutelia" />
		<tag k="name" v="Knutlia" />
		<tag k="place" v="farm" />
		<tag k="ssr:stedsnr" v="607387" />
	</node>
	<node lat="58.688349997975706" lon="9.003038884839228" id="-27185">
		<tag k="fixme" v="consider place=hamlet" />
		<tag k="name" v="Songe" />
		<tag k="place" v="farm" />
		<tag k="ssr:stedsnr" v="607470" />
	</node>
	<node lat="58.66798333338852" lon="9.059308331558517" id="-27186">
		<tag k="fixme" v="consider place=hamlet" />
		<tag k="name" v="Hofsdal" />
		<tag k="place" v="farm" />
		<tag k="ssr:stedsnr" v="607438" />
	</node>
	<node lat="58.67135663999977" lon="8.990311354403822" id="-27189">
		<tag k="name" v="Vik" />
		<tag k="place" v="farm" />
		<tag k="ssr:stedsnr" v="607443" />
	</node>
	<node lat="58.62180518107494" lon="8.765136615350398" id="-27190">
		<tag k="name" v="Dåbu" />
		<tag k="place" v="farm" />
		<tag k="ssr:stedsnr" v="607764" />
	</node>
	<node lat="58.64589166421362" lon="8.847122226391955" id="-27193">
		<tag k="name" v="Øvre Flaten" />
		<tag k="place" v="locality" />
		<tag k="ssr:stedsnr" v="626993" />
	</node>
	<node lat="58.61288610801111" lon="8.951286103864728" id="-27197">
		<tag k="name" v="Eplevika" />
		<tag k="place" v="farm" />
		<tag k="ssr:stedsnr" v="634760" />
	</node>
	<node lat="58.648966664191846" lon="9.125847215543741" id="-27212">
		<tag k="name" v="Eng pensjonat" />
		<tag k="ssr:stedsnr" v="636074" />
		<tag k="tourism" v="guest_house" />
	</node>
	<node lat="58.59946388537042" lon="9.068719443044985" id="-27224">
		<tag k="name" v="Sandvika" />
		<tag k="place" v="isolated_dwelling" />
		<tag k="ssr:stedsnr" v="636267" />
	</node>
	<node lat="58.625841668996024" lon="8.854775001131044" id="-27248">
		<tag k="leisure" v="pitch" />
		<tag k="name" v="Lunden idrettsplass" />
		<tag k="ssr:stedsnr" v="636950" />
	</node>
	<node lat="58.60650299824372" lon="8.9254185299469" id="-27250">
		<tag k="name" v="Nedre Vasstø" />
		<tag k="place" v="farm" />
		<tag k="ssr:stedsnr" v="636656" />
	</node>
	<node lat="58.60669722383177" lon="8.98905555820002" id="-27268">
		<tag k="name" v="Eidbo" />
		<tag k="place" v="quarter" />
		<tag k="ssr:stedsnr" v="661574" />
	</node>
	<node lat="58.59051666779217" lon="8.935252776796315" id="-27269">
		<tag k="name" v="Hantho" />
		<tag k="place" v="quarter" />
		<tag k="ssr:stedsnr" v="664424" />
	</node>
	<node lat="58.608744440429476" lon="8.920944446483569" id="-27272">
		<tag k="name" v="Sveiningen" />
		<tag k="place" v="farm" />
		<tag k="ssr:stedsnr" v="668373" />
	</node>
	<node lat="58.60690555827395" lon="8.955891659126767" id="-27274">
		<tag k="name" v="Grønland" />
		<tag k="place" v="hamlet" />
		<tag k="ssr:stedsnr" v="668377" />
	</node>
	<node lat="58.666340251562" lon="8.996454057563513" id="-27276">
		<tag k="name" v="Kilen" />
		<tag k="place" v="farm" />
		<tag k="ssr:stedsnr" v="668450" />
	</node>
	<node lat="58.678074999356305" lon="9.064625007697497" id="-27277">
		<tag k="name" v="Fuglekjerr" />
		<tag k="place" v="farm" />
		<tag k="ssr:stedsnr" v="668455" />
	</node>
</osm>
