<?xml version="1.0" encoding="UTF-8"?>
<osm generator="osmapis" version="0.6">
	<node id="-100342" lat="62.1116388909" lon="10.3391555619">
		<tag k="name" v="Sjølia" />
		<tag k="natural" v="slope" />
		<tag k="place" v="locality" />
		<tag k="ssr:stedsnr" v="901898" />
	</node>
	<node id="-100341" lat="62.1730666665" lon="10.7074722166">
		<tag k="alt_name" v="Tyldalstoppen" />
		<tag k="fixme" v="consider natural=peak for the most distinct mountains in the district" />
		<tag k="name" v="Tylldalstoppen" />
		<tag k="natural" v="hill" />
		<tag k="old_name" v="Tydalstoppen" />
		<tag k="ssr:stedsnr" v="901840" />
	</node>
	<node id="-100331" lat="62.0763055595" lon="10.7260388939">
		<tag k="name" v="Storfjelltangen" />
		<tag k="place" v="locality" />
		<tag k="ssr:stedsnr" v="901648" />
	</node>
	<node id="-100326" lat="62.086080554" lon="10.6960333273">
		<tag k="alt_name" v="Berget" />
		<tag k="name" v="Kvebergsberget" />
		<tag k="natural" v="hill" />
		<tag k="place" v="locality" />
		<tag k="ssr:stedsnr" v="870324" />
	</node>
	<node id="-100322" lat="62.2180111106" lon="10.624130546">
		<tag k="fixme" v="consider natural=peak for the most distinct mountains in the district" />
		<tag k="name" v="Brennåsen" />
		<tag k="natural" v="hill" />
		<tag k="place" v="locality" />
		<tag k="ssr:stedsnr" v="861070" />
	</node>
	<node id="-100321" lat="62.1457778991" lon="10.5658143655">
		<tag k="name" v="Frankmoen" />
		<tag k="place" v="locality" />
		<tag k="ssr:stedsnr" v="861053" />
	</node>
	<node id="-100318" lat="62.1361472262" lon="10.3302777838">
		<tag k="alt_name" v="Skarvdalsvorda" />
		<tag k="fixme" v="consider natural=peak for the most distinct mountains in the district" />
		<tag k="name" v="Skarvdalsvola" />
		<tag k="natural" v="hill" />
		<tag k="place" v="locality" />
		<tag k="ssr:stedsnr" v="861038" />
	</node>
	<node id="-100314" lat="62.0393972197" lon="10.2175499923">
		<tag k="name" v="Beithaugen" />
		<tag k="natural" v="hill" />
		<tag k="place" v="locality" />
		<tag k="ssr:stedsnr" v="860457" />
	</node>
	<node id="-100305" lat="62.1206361091" lon="10.4465611174">
		<tag k="alt_name" v="Jotåsen" />
		<tag k="fixme" v="consider natural=peak for the most distinct mountains in the district" />
		<tag k="name" v="Gjotåsen" />
		<tag k="natural" v="hill" />
		<tag k="place" v="locality" />
		<tag k="ssr:stedsnr" v="860227" />
	</node>
	<node id="-100302" lat="62.0230500022" lon="10.6700111113">
		<tag k="alt_name" v="Urskardbrotet" />
		<tag k="fixme" v="consider natural=peak for the most distinct mountains in the district" />
		<tag k="name" v="Urdskardbrottet" />
		<tag k="natural" v="hill" />
		<tag k="place" v="locality" />
		<tag k="ssr:stedsnr" v="860190" />
	</node>
	<node id="-100298" lat="62.1907777808" lon="10.5760305483">
		<tag k="fixme" v="consider natural=peak for the most distinct mountains in the district" />
		<tag k="name" v="Gravåsen" />
		<tag k="natural" v="hill" />
		<tag k="place" v="locality" />
		<tag k="ssr:stedsnr" v="860112" />
	</node>
	<node id="-100296" lat="62.2061416686" lon="10.434499993">
		<tag k="alt_name" v="Vesleåsen" />
		<tag k="fixme" v="consider natural=peak for the most distinct mountains in the district" />
		<tag k="name" v="Veslåsen" />
		<tag k="natural" v="hill" />
		<tag k="place" v="locality" />
		<tag k="ssr:stedsnr" v="860074" />
	</node>
	<node id="-100295" lat="62.0387666661" lon="10.8043638848">
		<tag k="alt_name" v="Nordre Bellingen" />
		<tag k="name" v="Veslbellingen" />
		<tag k="natural" v="hill" />
		<tag k="place" v="locality" />
		<tag k="ssr:stedsnr" v="860062" />
	</node>
	<node id="-100289" lat="62.1577055514" lon="10.6556611026">
		<tag k="name" v="Mellomkletten" />
		<tag k="natural" v="hill" />
		<tag k="place" v="locality" />
		<tag k="ssr:stedsnr" v="860001" />
	</node>
	<node id="-100286" lat="61.9770250043" lon="10.1549555523">
		<tag k="fixme" v="consider natural=peak for the most distinct mountains in the district" />
		<tag k="name" v="Bukletten" />
		<tag k="natural" v="hill" />
		<tag k="ssr:stedsnr" v="859472" />
	</node>
	<node id="-100283" lat="61.9374333309" lon="10.6849277791">
		<tag k="fixme" v="consider natural=peak for the most distinct mountains in the district" />
		<tag k="name" v="Skardkampen" />
		<tag k="natural" v="hill" />
		<tag k="place" v="locality" />
		<tag k="ssr:stedsnr" v="859417" />
	</node>
	<node id="-100278" lat="62.0649944414" lon="10.7609222127">
		<tag k="name" v="Fjellrøsta" />
		<tag k="natural" v="slope" />
		<tag k="place" v="locality" />
		<tag k="ssr:stedsnr" v="843694" />
	</node>
	<node id="-100274" lat="61.9780944463" lon="10.7259305598">
		<tag k="name" v="Storriset" />
		<tag k="natural" v="slope" />
		<tag k="place" v="locality" />
		<tag k="ssr:stedsnr" v="843665" />
	</node>
	<node id="-100271" lat="62.0680861144" lon="10.5918972214">
		<tag k="name" v="Klokkerkampen" />
		<tag k="natural" v="hill" />
		<tag k="place" v="locality" />
		<tag k="ssr:stedsnr" v="843194" />
	</node>
	<node id="-100266" lat="62.0091222256" lon="10.7007916654">
		<tag k="name" v="Kjølbekkdalen" />
		<tag k="natural" v="valley" />
		<tag k="place" v="locality" />
		<tag k="ssr:stedsnr" v="842668" />
	</node>
	<node id="-100261" lat="62.1378500044" lon="10.7090055549">
		<tag k="name" v="Svartåsen" />
		<tag k="natural" v="hill" />
		<tag k="place" v="locality" />
		<tag k="ssr:stedsnr" v="841833" />
	</node>
	<node id="-100253" lat="62.1441361101" lon="10.5459916636">
		<tag k="name" v="Løengdalen" />
		<tag k="natural" v="valley" />
		<tag k="place" v="locality" />
		<tag k="ssr:stedsnr" v="841657" />
	</node>
	<node id="-100252" lat="62.2429583317" lon="10.3388583316">
		<tag k="name" v="Langkroken" />
		<tag k="place" v="locality" />
		<tag k="ssr:stedsnr" v="841085" />
	</node>
	<node id="-100249" lat="62.0767583365" lon="10.6105361113">
		<tag k="alt_name" v="Vorda" />
		<tag k="fixme" v="consider natural=peak for the most distinct mountains in the district" />
		<tag k="name" v="Volpiggen" />
		<tag k="natural" v="hill" />
		<tag k="ssr:stedsnr" v="835407" />
	</node>
	<node id="-100246" lat="62.2629638853" lon="10.3769750037">
		<tag k="name" v="Holla" />
		<tag k="natural" v="slope" />
		<tag k="place" v="locality" />
		<tag k="ssr:stedsnr" v="809322" />
	</node>
	<node id="-100244" lat="62.0062722179" lon="10.1763388916">
		<tag k="fixme" v="consider natural=peak for the most distinct mountains in the district" />
		<tag k="name" v="Småklettan" />
		<tag k="natural" v="hill" />
		<tag k="place" v="locality" />
		<tag k="ssr:stedsnr" v="800412" />
	</node>
	<node id="-100243" lat="62.0185250006" lon="10.1837000065">
		<tag k="fixme" v="consider natural=peak for the most distinct mountains in the district" />
		<tag k="name" v="Storkletten" />
		<tag k="natural" v="hill" />
		<tag k="place" v="locality" />
		<tag k="ssr:stedsnr" v="800406" />
	</node>
	<node id="-100242" lat="61.9918694485" lon="10.736697222">
		<tag k="alt_name" v="Skarvvorda" />
		<tag k="fixme" v="consider natural=peak for the most distinct mountains in the district" />
		<tag k="name" v="Skarvvola" />
		<tag k="natural" v="hill" />
		<tag k="place" v="locality" />
		<tag k="ssr:stedsnr" v="800328" />
	</node>
	<node id="-100235" lat="62.0502777759" lon="10.4079472286">
		<tag k="alt_name" v="Veslekampen" />
		<tag k="fixme" v="consider natural=peak for the most distinct mountains in the district" />
		<tag k="name" v="Veslkampen" />
		<tag k="natural" v="hill" />
		<tag k="place" v="locality" />
		<tag k="ssr:stedsnr" v="800184" />
	</node>
	<node id="-100230" lat="62.0870666693" lon="10.4649416702">
		<tag k="name" v="Vardmoan" />
		<tag k="place" v="locality" />
		<tag k="ssr:stedsnr" v="800131" />
	</node>
	<node id="-100227" lat="62.1502472259" lon="10.5438861192">
		<tag k="name" v="Brenna" />
		<tag k="natural" v="hill" />
		<tag k="place" v="locality" />
		<tag k="ssr:stedsnr" v="800057" />
	</node>
	<node id="-100224" lat="62.2522749999" lon="10.4381361198">
		<tag k="alt_name" v="Svarthugu" />
		<tag k="name" v="Svarthuet" />
		<tag k="natural" v="hill" />
		<tag k="place" v="locality" />
		<tag k="ssr:stedsnr" v="800032" />
	</node>
	<node id="-100222" lat="62.0598527753" lon="10.7855027757">
		<tag k="fixme" v="consider natural=peak for the most distinct mountains in the district" />
		<tag k="name" v="Gaupskardkampen" />
		<tag k="natural" v="hill" />
		<tag k="place" v="locality" />
		<tag k="ssr:stedsnr" v="800013" />
	</node>
	<node id="-100214" lat="62.0670166674" lon="10.4458666678">
		<tag k="fixme" v="consider natural=peak for the most distinct mountains in the district" />
		<tag k="name" v="Storskardkampen" />
		<tag k="natural" v="hill" />
		<tag k="place" v="locality" />
		<tag k="ssr:stedsnr" v="799155" />
	</node>
	<node id="-100213" lat="62.0594583349" lon="10.5428000031">
		<tag k="fixme" v="consider natural=peak for the most distinct mountains in the district" />
		<tag k="name" v="Finnbudalskletten" />
		<tag k="natural" v="hill" />
		<tag k="place" v="locality" />
		<tag k="ssr:stedsnr" v="799154" />
	</node>
	<node id="-100203" lat="62.0550138923" lon="10.8060916697">
		<tag k="name" v="Gaupskardet" />
		<tag k="natural" v="valley" />
		<tag k="place" v="locality" />
		<tag k="ssr:stedsnr" v="799009" />
	</node>
	<node id="-100195" lat="62.0598361097" lon="10.7527111045">
		<tag k="name" v="Måna" />
		<tag k="natural" v="hill" />
		<tag k="place" v="locality" />
		<tag k="ssr:stedsnr" v="782639" />
	</node>
	<node id="-100188" lat="62.0781388866" lon="10.6621527769">
		<tag k="name" v="Stormoen" />
		<tag k="place" v="locality" />
		<tag k="ssr:stedsnr" v="781862" />
	</node>
	<node id="-100181" lat="62.1765611078" lon="10.3956722191">
		<tag k="name" v="Sjåarhaugen" />
		<tag k="natural" v="hill" />
		<tag k="place" v="locality" />
		<tag k="ssr:stedsnr" v="780974" />
	</node>
	<node id="-100179" lat="62.1999305547" lon="10.4014333302">
		<tag k="name" v="Follia" />
		<tag k="natural" v="slope" />
		<tag k="place" v="locality" />
		<tag k="ssr:stedsnr" v="780927" />
	</node>
	<node id="-100175" lat="62.2519111121" lon="10.4025944453">
		<tag k="name" v="Grøtberget" />
		<tag k="natural" v="hill" />
		<tag k="place" v="locality" />
		<tag k="ssr:stedsnr" v="780900" />
	</node>
	<node id="-100174" lat="62.1517083378" lon="10.6882444435">
		<tag k="name" v="Kluvan" />
		<tag k="natural" v="valley" />
		<tag k="place" v="locality" />
		<tag k="ssr:stedsnr" v="780816" />
	</node>
	<node id="-100173" lat="62.175472221" lon="10.4822361095">
		<tag k="name" v="Bratthaugan" />
		<tag k="natural" v="slope" />
		<tag k="place" v="locality" />
		<tag k="ssr:stedsnr" v="780769" />
	</node>
	<node id="-100172" lat="62.1855999976" lon="10.5084055462">
		<tag k="name" v="Langsæterlia" />
		<tag k="natural" v="slope" />
		<tag k="place" v="locality" />
		<tag k="ssr:stedsnr" v="780760" />
	</node>
	<node id="-100171" lat="62.0807055577" lon="10.3972555467">
		<tag k="name" v="Rundhaugan" />
		<tag k="natural" v="hill" />
		<tag k="place" v="locality" />
		<tag k="ssr:stedsnr" v="780745" />
	</node>
	<node id="-100149" lat="62.0518749988" lon="10.4582499989">
		<tag k="alt_name" v="Høgkuven" />
		<tag k="fixme" v="consider natural=peak for the most distinct mountains in the district" />
		<tag k="name" v="Høykuven" />
		<tag k="natural" v="hill" />
		<tag k="place" v="locality" />
		<tag k="ssr:stedsnr" v="739175" />
	</node>
	<node id="-100148" lat="62.0550722265" lon="10.5113611071">
		<tag k="fixme" v="consider natural=peak for the most distinct mountains in the district" />
		<tag k="name" v="Vardfjellet" />
		<tag k="natural" v="hill" />
		<tag k="old_name" v="Varafjell" />
		<tag k="place" v="locality" />
		<tag k="ssr:stedsnr" v="739169" />
	</node>
	<node id="-100141" lat="62.068177776" lon="10.4290222179">
		<tag k="fixme" v="consider natural=peak for the most distinct mountains in the district" />
		<tag k="name" v="Veslskardkampen" />
		<tag k="natural" v="hill" />
		<tag k="place" v="locality" />
		<tag k="ssr:stedsnr" v="739121" />
	</node>
	<node id="-100139" lat="62.150372222" lon="10.3987222224">
		<tag k="alt_name" v="Grønvorda" />
		<tag k="fixme" v="consider natural=peak for the most distinct mountains in the district" />
		<tag k="name" v="Grønvola" />
		<tag k="natural" v="hill" />
		<tag k="place" v="locality" />
		<tag k="ssr:stedsnr" v="739064" />
	</node>
	<node id="-100138" lat="62.1525666656" lon="10.5937583324">
		<tag k="alt_name" v="Steinen" />
		<tag k="fixme" v="consider natural=peak for the most distinct mountains in the district" />
		<tag k="name" v="Sten" />
		<tag k="natural" v="hill" />
		<tag k="place" v="locality" />
		<tag k="ssr:stedsnr" v="739061" />
	</node>
	<node id="-100136" lat="62.0116916674" lon="10.7622000076">
		<tag k="name" v="Rundhaugen" />
		<tag k="natural" v="hill" />
		<tag k="place" v="locality" />
		<tag k="ssr:stedsnr" v="739038" />
	</node>
	<node id="-100134" lat="62.0729194423" lon="10.7508750085">
		<tag k="alt_name" v="Veslefjellet" />
		<tag k="fixme" v="consider natural=peak for the most distinct mountains in the district" />
		<tag k="name" v="Veslfjellet" />
		<tag k="natural" v="hill" />
		<tag k="place" v="locality" />
		<tag k="ssr:stedsnr" v="739018" />
	</node>
	<node id="-100133" lat="62.0664555558" lon="10.7379499906">
		<tag k="fixme" v="consider natural=peak for the most distinct mountains in the district" />
		<tag k="name" v="Storfjellet" />
		<tag k="natural" v="hill" />
		<tag k="place" v="locality" />
		<tag k="ssr:stedsnr" v="739016" />
	</node>
	<node id="-100130" lat="61.9292061317" lon="10.3152862889">
		<tag k="fixme" v="multiple name tags, choose one and add the other to alt_name; consider natural=peak for the most distinct mountains in the district" />
		<tag k="name" v="Bogen;Musvola" />
		<tag k="natural" v="hill" />
		<tag k="place" v="locality" />
		<tag k="ssr:stedsnr" v="738612" />
	</node>
	<node id="-100128" lat="61.9713749958" lon="10.3354250004">
		<tag k="fixme" v="consider natural=peak for the most distinct mountains in the district" />
		<tag k="name" v="Gråkampen" />
		<tag k="natural" v="hill" />
		<tag k="place" v="locality" />
		<tag k="ssr:stedsnr" v="738599" />
	</node>
	<node id="-100120" lat="62.1314416639" lon="10.3628249951">
		<tag k="alt_name" v="Veslekampen" />
		<tag k="fixme" v="consider natural=peak for the most distinct mountains in the district" />
		<tag k="name" v="Veslkampen" />
		<tag k="natural" v="hill" />
		<tag k="place" v="locality" />
		<tag k="ssr:stedsnr" v="738217" />
	</node>
	<node id="-100106" lat="62.0419611113" lon="10.5615444372">
		<tag k="name" v="Dølbekkbakkan" />
		<tag k="natural" v="slope" />
		<tag k="place" v="locality" />
		<tag k="ssr:stedsnr" v="721662" />
	</node>
	<node id="-100103" lat="62.0523194485" lon="10.7246388972">
		<tag k="name" v="Tjønnmoen" />
		<tag k="place" v="locality" />
		<tag k="ssr:stedsnr" v="721648" />
	</node>
	<node id="-100102" lat="61.9989111111" lon="10.8113333264">
		<tag k="name" v="Urdliklauva" />
		<tag k="natural" v="valley" />
		<tag k="place" v="locality" />
		<tag k="ssr:stedsnr" v="721647" />
	</node>
	<node id="-100100" lat="62.0811444424" lon="10.5857555498">
		<tag k="name" v="Høgklettrøsta" />
		<tag k="natural" v="ridge" />
		<tag k="place" v="locality" />
		<tag k="ssr:stedsnr" v="721224" />
	</node>
	<node id="-100097" lat="62.2383972195" lon="10.4430166577">
		<tag k="name" v="Knauslia" />
		<tag k="natural" v="slope" />
		<tag k="place" v="locality" />
		<tag k="ssr:stedsnr" v="720951" />
	</node>
	<node id="-100096" lat="62.1394861117" lon="10.641938896">
		<tag k="name" v="Tronslia" />
		<tag k="natural" v="slope" />
		<tag k="place" v="locality" />
		<tag k="ssr:stedsnr" v="720950" />
	</node>
	<node id="-100094" lat="62.063077776" lon="10.3665388931">
		<tag k="name" v="Langhaugen" />
		<tag k="natural" v="hill" />
		<tag k="place" v="locality" />
		<tag k="ssr:stedsnr" v="720814" />
	</node>
	<node id="-100093" lat="62.2149999996" lon="10.5126361051">
		<tag k="name" v="Kletten" />
		<tag k="natural" v="ridge" />
		<tag k="place" v="locality" />
		<tag k="ssr:stedsnr" v="720811" />
	</node>
	<node id="-100086" lat="62.1257138931" lon="10.5011416723">
		<tag k="fixme" v="consider natural=peak for the most distinct mountains in the district" />
		<tag k="name" v="Nysæteråsen" />
		<tag k="natural" v="hill" />
		<tag k="place" v="locality" />
		<tag k="ssr:stedsnr" v="720675" />
	</node>
	<node id="-100084" lat="62.1600861097" lon="10.4152666597">
		<tag k="name" v="Skarvdalen" />
		<tag k="natural" v="valley" />
		<tag k="place" v="locality" />
		<tag k="ssr:stedsnr" v="719971" />
	</node>
	<node id="-100083" lat="62.1459916712" lon="10.4547972246">
		<tag k="name" v="Vesle-Brottåsen" />
		<tag k="natural" v="hill" />
		<tag k="place" v="locality" />
		<tag k="ssr:stedsnr" v="719969" />
	</node>
	<node id="-100080" lat="62.1829249988" lon="10.5468999939">
		<tag k="name" v="Vangåsen" />
		<tag k="natural" v="hill" />
		<tag k="place" v="locality" />
		<tag k="ssr:stedsnr" v="719785" />
	</node>
	<node id="-100078" lat="62.2047694456" lon="10.7094555622">
		<tag k="fixme" v="consider natural=peak for the most distinct mountains in the district" />
		<tag k="name" v="Tovåsen" />
		<tag k="natural" v="hill" />
		<tag k="place" v="locality" />
		<tag k="ssr:stedsnr" v="719733" />
	</node>
	<node id="-100069" lat="62.1514555519" lon="10.3348472164">
		<tag k="fixme" v="consider natural=peak for the most distinct mountains in the district" />
		<tag k="name" v="Kløftåsen" />
		<tag k="natural" v="hill" />
		<tag k="place" v="locality" />
		<tag k="ssr:stedsnr" v="687430" />
	</node>
	<node id="-100061" lat="62.0542555546" lon="10.4254027765">
		<tag k="fixme" v="consider natural=peak for the most distinct mountains in the district" />
		<tag k="name" v="Kampan" />
		<tag k="natural" v="hill" />
		<tag k="place" v="locality" />
		<tag k="ssr:stedsnr" v="678187" />
	</node>
	<node id="-100060" lat="62.014630552" lon="10.4677249952">
		<tag k="fixme" v="consider natural=peak for the most distinct mountains in the district" />
		<tag k="name" v="Dølbekkhøa" />
		<tag k="natural" v="hill" />
		<tag k="place" v="locality" />
		<tag k="ssr:stedsnr" v="678176" />
	</node>
	<node id="-100057" lat="62.0652305588" lon="10.5951083285">
		<tag k="fixme" v="consider natural=peak for the most distinct mountains in the district" />
		<tag k="name" v="Klettan" />
		<tag k="natural" v="hill" />
		<tag k="place" v="locality" />
		<tag k="ssr:stedsnr" v="678143" />
	</node>
	<node id="-100048" lat="62.1429500021" lon="10.4623027763">
		<tag k="fixme" v="consider natural=peak for the most distinct mountains in the district" />
		<tag k="name" v="Brottåsen" />
		<tag k="natural" v="hill" />
		<tag k="place" v="locality" />
		<tag k="ssr:stedsnr" v="678059" />
	</node>
	<node id="-100040" lat="62.1658361079" lon="10.560100009">
		<tag k="name" v="Steivanglia" />
		<tag k="natural" v="slope" />
		<tag k="place" v="locality" />
		<tag k="ssr:stedsnr" v="678003" />
	</node>
	<node id="-100037" lat="61.9891277751" lon="10.7659222269">
		<tag k="alt_name" v="Brennvorda" />
		<tag k="fixme" v="consider natural=peak for the most distinct mountains in the district" />
		<tag k="name" v="Brennvola" />
		<tag k="natural" v="hill" />
		<tag k="place" v="locality" />
		<tag k="ssr:stedsnr" v="678361" />
	</node>
	<node id="-100034" lat="61.9670861125" lon="10.5828499999">
		<tag k="fixme" v="consider natural=peak for the most distinct mountains in the district" />
		<tag k="name" v="Tverråfjellet" />
		<tag k="natural" v="hill" />
		<tag k="place" v="locality" />
		<tag k="ssr:stedsnr" v="677460" />
	</node>
	<node id="-100023" lat="62.0435888884" lon="10.5641944374">
		<tag k="name" v="Aummoen" />
		<tag k="place" v="locality" />
		<tag k="ssr:stedsnr" v="660685" />
	</node>
	<node id="-100012" lat="62.0549416684" lon="10.3956944441">
		<tag k="name" v="Veslekamplia" />
		<tag k="natural" v="slope" />
		<tag k="place" v="locality" />
		<tag k="ssr:stedsnr" v="659785" />
	</node>
	<node id="-100007" lat="62.1160805512" lon="10.4818805622">
		<tag k="name" v="Gruvåsen" />
		<tag k="natural" v="hill" />
		<tag k="place" v="locality" />
		<tag k="ssr:stedsnr" v="659687" />
	</node>
	<node id="-100004" lat="62.176352774" lon="10.376883338">
		<tag k="name" v="Veslevola" />
		<tag k="natural" v="hill" />
		<tag k="place" v="locality" />
		<tag k="ssr:stedsnr" v="658978" />
	</node>
	<node id="-100002" lat="62.1669722233" lon="10.4615194501">
		<tag k="name" v="Kampen" />
		<tag k="natural" v="hill" />
		<tag k="place" v="locality" />
		<tag k="ssr:stedsnr" v="658967" />
	</node>
	<node id="-99999" lat="62.1819444454" lon="10.3889722137">
		<tag k="name" v="Grandalen" />
		<tag k="natural" v="valley" />
		<tag k="place" v="locality" />
		<tag k="ssr:stedsnr" v="658929" />
	</node>
	<node id="-99996" lat="62.1449972225" lon="10.6846666668">
		<tag k="name" v="Bokkhammeren" />
		<tag k="place" v="locality" />
		<tag k="ssr:stedsnr" v="658818" />
	</node>
	<node id="-99992" lat="62.1325000033" lon="10.6993833291">
		<tag k="name" v="Vesleåsen" />
		<tag k="natural" v="hill" />
		<tag k="place" v="locality" />
		<tag k="ssr:stedsnr" v="632989" />
	</node>
	<node id="-99987" lat="62.1235138921" lon="10.5008249941">
		<tag k="fixme" v="consider natural=peak for the most distinct mountains in the district" />
		<tag k="name" v="Svartåsen" />
		<tag k="natural" v="hill" />
		<tag k="place" v="locality" />
		<tag k="ssr:stedsnr" v="617709" />
	</node>
	<node id="-99983" lat="62.0928722193" lon="10.3130777863">
		<tag k="fixme" v="consider natural=peak for the most distinct mountains in the district" />
		<tag k="name" v="Kjemsjøfjellet" />
		<tag k="natural" v="hill" />
		<tag k="place" v="locality" />
		<tag k="ssr:stedsnr" v="617267" />
	</node>
	<node id="-99976" lat="62.0776916627" lon="10.2825055566">
		<tag k="alt_name" v="Kjemsjøvorda" />
		<tag k="fixme" v="consider natural=peak for the most distinct mountains in the district" />
		<tag k="name" v="Kjemsjøvola" />
		<tag k="natural" v="hill" />
		<tag k="place" v="locality" />
		<tag k="ssr:stedsnr" v="617178" />
	</node>
	<node id="-99975" lat="62.065749996" lon="10.2903083299">
		<tag k="alt_name" v="Vorda" />
		<tag k="fixme" v="consider natural=peak for the most distinct mountains in the district" />
		<tag k="name" v="Vola" />
		<tag k="natural" v="hill" />
		<tag k="place" v="locality" />
		<tag k="ssr:stedsnr" v="617172" />
	</node>
	<node id="-99970" lat="62.2168027823" lon="10.5524222187">
		<tag k="loc_name" v="Sivildalen" />
		<tag k="name" v="Sivilldalen" />
		<tag k="natural" v="valley" />
		<tag k="place" v="locality" />
		<tag k="ssr:stedsnr" v="617095" />
	</node>
	<node id="-99969" lat="62.2173416632" lon="10.5748611185">
		<tag k="name" v="Fossmoen" />
		<tag k="place" v="locality" />
		<tag k="ssr:stedsnr" v="617093" />
	</node>
	<node id="-99961" lat="62.174358337" lon="10.6947472309">
		<tag k="alt_name" v="Tronden" />
		<tag k="fixme" v="consider natural=peak for the most distinct mountains in the district" />
		<tag k="loc_name" v="Trondfjell" />
		<tag k="name" v="Tron" />
		<tag k="natural" v="hill" />
		<tag k="place" v="locality" />
		<tag k="ssr:stedsnr" v="617011" />
	</node>
	<node id="-99959" lat="61.9613333332" lon="10.290755559">
		<tag k="alt_name" v="Veslehøa" />
		<tag k="fixme" v="consider natural=peak for the most distinct mountains in the district" />
		<tag k="name" v="Veslhøa" />
		<tag k="natural" v="hill" />
		<tag k="place" v="locality" />
		<tag k="ssr:stedsnr" v="616594" />
	</node>
	<node id="-99958" lat="61.9632861084" lon="10.3549250047">
		<tag k="name" v="Sølnsjødalen" />
		<tag k="natural" v="valley" />
		<tag k="old_name" v="Sølensjødalen" />
		<tag k="place" v="locality" />
		<tag k="ssr:stedsnr" v="616450" />
	</node>
	<node id="-99957" lat="61.9931416706" lon="10.3878055476">
		<tag k="name" v="Tverrdalen" />
		<tag k="natural" v="valley" />
		<tag k="place" v="locality" />
		<tag k="ssr:stedsnr" v="616409" />
	</node>
	<node id="-99951" lat="62.0554222254" lon="10.7475249938">
		<tag k="name" v="Vesletorvet" />
		<tag k="place" v="locality" />
		<tag k="ssr:stedsnr" v="600654" />
	</node>
	<node id="-99949" lat="61.9691638925" lon="10.7804555601">
		<tag k="name" v="Drøppelhaugen" />
		<tag k="natural" v="hill" />
		<tag k="place" v="locality" />
		<tag k="ssr:stedsnr" v="600626" />
	</node>
	<node id="-99946" lat="61.9796388865" lon="10.8076333421">
		<tag k="name" v="Gammelvanghaugen" />
		<tag k="natural" v="hill" />
		<tag k="place" v="locality" />
		<tag k="ssr:stedsnr" v="600621" />
	</node>
	<node id="-99945" lat="62.0808944435" lon="10.5965111038">
		<tag k="name" v="Gråhauan" />
		<tag k="natural" v="hill" />
		<tag k="place" v="locality" />
		<tag k="ssr:stedsnr" v="599867" />
	</node>
	<node id="-99941" lat="62.1100222244" lon="10.6902250027">
		<tag k="name" v="Djupdalen" />
		<tag k="natural" v="valley" />
		<tag k="place" v="locality" />
		<tag k="ssr:stedsnr" v="598991" />
	</node>
	<node id="-99940" lat="62.2118750035" lon="10.5553611054">
		<tag k="fixme" v="consider natural=peak for the most distinct mountains in the district" />
		<tag k="name" v="Fossåsen" />
		<tag k="natural" v="hill" />
		<tag k="place" v="locality" />
		<tag k="ssr:stedsnr" v="598791" />
	</node>
	<node id="-99938" lat="62.060708335" lon="10.3836250093">
		<tag k="name" v="Løpa" />
		<tag k="place" v="locality" />
		<tag k="ssr:stedsnr" v="598758" />
	</node>
	<node id="-99937" lat="62.0590611074" lon="10.3857666731">
		<tag k="name" v="Haugan" />
		<tag k="natural" v="hill" />
		<tag k="place" v="locality" />
		<tag k="ssr:stedsnr" v="598757" />
	</node>
	<node id="-99932" lat="62.1198527759" lon="10.3676388935">
		<tag k="name" v="Knausen" />
		<tag k="natural" v="hill" />
		<tag k="place" v="locality" />
		<tag k="ssr:stedsnr" v="597995" />
	</node>
	<node id="-99928" lat="62.1934555534" lon="10.5003777771">
		<tag k="name" v="Kvitvola" />
		<tag k="natural" v="hill" />
		<tag k="place" v="locality" />
		<tag k="ssr:stedsnr" v="597800" />
	</node>
	<node id="-99927" lat="62.1038833363" lon="10.4465694456">
		<tag k="name" v="Tørråsen" />
		<tag k="natural" v="hill" />
		<tag k="place" v="locality" />
		<tag k="ssr:stedsnr" v="597764" />
	</node>
	<node id="-99926" lat="62.2038555592" lon="10.6265722151">
		<tag k="name" v="Lillestrøm" />
		<tag k="place" v="locality" />
		<tag k="ssr:stedsnr" v="597746" />
	</node>
	<node id="-99922" lat="62.1438277796" lon="10.55147778">
		<tag k="name" v="Løengholmen" />
		<tag k="place" v="locality" />
		<tag k="ssr:stedsnr" v="597700" />
	</node>
	<node id="-99916" lat="62.258722219" lon="10.3657972276">
		<tag k="name" v="Elgtjønnbakken" />
		<tag k="natural" v="slope" />
		<tag k="place" v="locality" />
		<tag k="ssr:stedsnr" v="572957" />
	</node>
	<node id="-99911" lat="62.2133333341" lon="10.4652305488">
		<tag k="alt_name" v="Lomsjøvorda" />
		<tag k="fixme" v="consider natural=peak for the most distinct mountains in the district" />
		<tag k="name" v="Lomsjøvola" />
		<tag k="natural" v="hill" />
		<tag k="place" v="locality" />
		<tag k="ssr:stedsnr" v="557080" />
	</node>
	<node id="-99908" lat="61.9952303628" lon="10.2209168106">
		<tag k="alt_name" v="Borren, nordre" />
		<tag k="fixme" v="consider natural=peak for the most distinct mountains in the district" />
		<tag k="name" v="Nørdre Boren" />
		<tag k="natural" v="hill" />
		<tag k="place" v="locality" />
		<tag k="ssr:stedsnr" v="556568" />
	</node>
	<node id="-99907" lat="61.9797805577" lon="10.2919750051">
		<tag k="alt_name" v="Sølnkletten, store" />
		<tag k="fixme" v="consider natural=peak for the most distinct mountains in the district" />
		<tag k="name" v="Storsølnkletten" />
		<tag k="natural" v="hill" />
		<tag k="place" v="locality" />
		<tag k="ssr:stedsnr" v="556559" />
	</node>
	<node id="-99903" lat="62.0465499994" lon="10.2088194516">
		<tag k="fixme" v="consider natural=peak for the most distinct mountains in the district" />
		<tag k="name" v="Fjordungskollen" />
		<tag k="natural" v="hill" />
		<tag k="place" v="locality" />
		<tag k="ssr:stedsnr" v="556442" />
	</node>
	<node id="-99898" lat="62.1092805512" lon="10.3213055507">
		<tag k="name" v="Haustdalen" />
		<tag k="natural" v="valley" />
		<tag k="place" v="locality" />
		<tag k="ssr:stedsnr" v="556283" />
	</node>
	<node id="-99893" lat="62.0990749971" lon="10.3818749993">
		<tag k="name" v="Lauvhaugen" />
		<tag k="natural" v="hill" />
		<tag k="place" v="locality" />
		<tag k="ssr:stedsnr" v="556250" />
	</node>
	<node id="-99890" lat="62.1216527818" lon="10.3020666631">
		<tag k="alt_name" v="Veselåsen" />
		<tag k="fixme" v="consider natural=peak for the most distinct mountains in the district" />
		<tag k="name" v="Veslåsen" />
		<tag k="natural" v="hill" />
		<tag k="place" v="locality" />
		<tag k="ssr:stedsnr" v="556222" />
	</node>
	<node id="-99887" lat="62.0098611085" lon="10.3464249975">
		<tag k="alt_name" v="Steinvorda" />
		<tag k="fixme" v="consider natural=peak for the most distinct mountains in the district" />
		<tag k="name" v="Steinvola" />
		<tag k="natural" v="hill" />
		<tag k="place" v="locality" />
		<tag k="ssr:stedsnr" v="556208" />
	</node>
	<node id="-99885" lat="62.0383250035" lon="10.6496055618">
		<tag k="alt_name" v="Urskardet" />
		<tag k="name" v="Urdskardet" />
		<tag k="natural" v="valley" />
		<tag k="place" v="locality" />
		<tag k="ssr:stedsnr" v="556200" />
	</node>
	<node id="-99883" lat="62.0252250038" lon="10.5309555604">
		<tag k="fixme" v="consider natural=peak for the most distinct mountains in the district" />
		<tag k="name" v="Svartbekkjølen" />
		<tag k="natural" v="hill" />
		<tag k="place" v="locality" />
		<tag k="ssr:stedsnr" v="556194" />
	</node>
	<node id="-99879" lat="62.0725361092" lon="10.2802444502">
		<tag k="name" v="Storkvolvet" />
		<tag k="natural" v="ridge" />
		<tag k="place" v="locality" />
		<tag k="ssr:stedsnr" v="556169" />
	</node>
	<node id="-99878" lat="62.0687833366" lon="10.3533833285">
		<tag k="alt_name" v="Brennvorda" />
		<tag k="fixme" v="consider natural=peak for the most distinct mountains in the district" />
		<tag k="name" v="Brennvola" />
		<tag k="natural" v="hill" />
		<tag k="place" v="locality" />
		<tag k="ssr:stedsnr" v="556154" />
	</node>
	<node id="-99877" lat="62.2066111129" lon="10.6854861086">
		<tag k="fixme" v="consider natural=peak for the most distinct mountains in the district" />
		<tag k="name" v="Aumåsen" />
		<tag k="natural" v="hill" />
		<tag k="place" v="locality" />
		<tag k="ssr:stedsnr" v="556148" />
	</node>
	<node id="-99875" lat="62.0393361068" lon="10.8239194364">
		<tag k="name" v="Storbellingen" />
		<tag k="natural" v="hill" />
		<tag k="place" v="locality" />
		<tag k="ssr:stedsnr" v="556056" />
	</node>
	<node id="-99869" lat="61.9595527739" lon="10.3278666642">
		<tag k="alt_name" v="Kvolvi, indre" />
		<tag k="name" v="Indre Kvolvet" />
		<tag k="natural" v="valley" />
		<tag k="place" v="locality" />
		<tag k="ssr:stedsnr" v="555556" />
	</node>
	<node id="-99860" lat="62.0955055526" lon="10.7068777778">
		<tag k="name" v="Slettmoen" />
		<tag k="place" v="locality" />
		<tag k="ssr:stedsnr" v="539000" />
	</node>
	<node id="-99858" lat="62.1948416659" lon="10.39305555">
		<tag k="name" v="Nermoen" />
		<tag k="place" v="locality" />
		<tag k="ssr:stedsnr" v="538956" />
	</node>
	<node id="-99853" lat="62.2792777741" lon="10.3447333274">
		<tag k="name" v="Rundhaugan" />
		<tag k="natural" v="hill" />
		<tag k="place" v="locality" />
		<tag k="ssr:stedsnr" v="538129" />
	</node>
	<node id="-99851" lat="62.100330558" lon="10.3006749941">
		<tag k="alt_name" v="Kjemsjøsæterlia" />
		<tag k="name" v="Kjemsjølia" />
		<tag k="natural" v="slope" />
		<tag k="place" v="locality" />
		<tag k="ssr:stedsnr" v="537878" />
	</node>
	<node id="-99850" lat="62.141555556" lon="10.7121083428">
		<tag k="name" v="Øykjekletten" />
		<tag k="natural" v="hill" />
		<tag k="place" v="locality" />
		<tag k="ssr:stedsnr" v="537818" />
	</node>
	<node id="-99847" lat="62.113974999" lon="10.4080888942">
		<tag k="name" v="Rya" />
		<tag k="place" v="locality" />
		<tag k="ssr:stedsnr" v="537748" />
	</node>
	<node id="-99839" lat="62.2066416641" lon="10.5131472271">
		<tag k="alt_name" v="Naustervorda" />
		<tag k="fixme" v="consider natural=peak for the most distinct mountains in the district" />
		<tag k="name" v="Naustervola" />
		<tag k="natural" v="hill" />
		<tag k="place" v="locality" />
		<tag k="ssr:stedsnr" v="508763" />
	</node>
	<node id="-99837" lat="62.1520805554" lon="10.6387888859">
		<tag k="name" v="Heimkletten" />
		<tag k="natural" v="hill" />
		<tag k="place" v="locality" />
		<tag k="ssr:stedsnr" v="505306" />
	</node>
	<node id="-99836" lat="62.2366416677" lon="10.4245361082">
		<tag k="name" v="Svartknausen" />
		<tag k="natural" v="hill" />
		<tag k="place" v="locality" />
		<tag k="ssr:stedsnr" v="496460" />
	</node>
	<node id="-99834" lat="61.9747888885" lon="10.845580556">
		<tag k="alt_name" v="Barkaldvorda" />
		<tag k="fixme" v="consider natural=peak for the most distinct mountains in the district" />
		<tag k="name" v="Barkaldvola" />
		<tag k="natural" v="hill" />
		<tag k="place" v="locality" />
		<tag k="ssr:stedsnr" v="496357" />
	</node>
	<node id="-99832" lat="62.111800003" lon="10.4319750067">
		<tag k="fixme" v="consider natural=peak for the most distinct mountains in the district" />
		<tag k="name" v="Malenaåsen" />
		<tag k="natural" v="hill" />
		<tag k="place" v="locality" />
		<tag k="ssr:stedsnr" v="496256" />
	</node>
	<node id="-99830" lat="62.0070750009" lon="10.2829500017">
		<tag k="name" v="Storfloen" />
		<tag k="natural" v="valley" />
		<tag k="place" v="locality" />
		<tag k="ssr:stedsnr" v="496229" />
	</node>
	<node id="-99829" lat="62.0034861113" lon="10.4433500009">
		<tag k="fixme" v="consider natural=peak for the most distinct mountains in the district" />
		<tag k="name" v="Fjøshøa" />
		<tag k="natural" v="hill" />
		<tag k="place" v="locality" />
		<tag k="ssr:stedsnr" v="496230" />
	</node>
	<node id="-99821" lat="62.0340555569" lon="10.6343499986">
		<tag k="alt_name" v="Urskardkampen" />
		<tag k="fixme" v="consider natural=peak for the most distinct mountains in the district" />
		<tag k="name" v="Urdskardkampen" />
		<tag k="natural" v="hill" />
		<tag k="place" v="locality" />
		<tag k="ssr:stedsnr" v="496168" />
	</node>
	<node id="-99820" lat="62.0782138868" lon="10.5795000057">
		<tag k="fixme" v="consider natural=peak for the most distinct mountains in the district" />
		<tag k="name" v="Høgkletten" />
		<tag k="natural" v="hill" />
		<tag k="place" v="locality" />
		<tag k="ssr:stedsnr" v="496154" />
	</node>
	<node id="-99818" lat="62.1951055592" lon="10.4655138974">
		<tag k="name" v="Djupdalen" />
		<tag k="natural" v="valley" />
		<tag k="place" v="locality" />
		<tag k="ssr:stedsnr" v="496111" />
	</node>
	<node id="-99817" lat="62.2264166672" lon="10.4248416578">
		<tag k="fixme" v="consider natural=peak for the most distinct mountains in the district" />
		<tag k="name" v="Vesltjønnvola" />
		<tag k="natural" v="hill" />
		<tag k="place" v="locality" />
		<tag k="ssr:stedsnr" v="496078" />
	</node>
	<node id="-99807" lat="62.1935083372" lon="10.4949944357">
		<tag k="name" v="Skammelsberget" />
		<tag k="natural" v="hill" />
		<tag k="place" v="locality" />
		<tag k="ssr:stedsnr" v="496094" />
	</node>
	<node id="-99805" lat="61.9631583373" lon="10.2480388964">
		<tag k="name" v="Øya" />
		<tag k="place" v="locality" />
		<tag k="ssr:stedsnr" v="495597" />
	</node>
	<node id="-99804" lat="61.9745000009" lon="10.2392083346">
		<tag k="alt_name" v="Borren, s" />
		<tag k="name" v="Syndre Boren" />
		<tag k="natural" v="hill" />
		<tag k="place" v="locality" />
		<tag k="ssr:stedsnr" v="495504" />
	</node>
	<node id="-99803" lat="61.962786112" lon="10.6717555516">
		<tag k="name" v="Kvolvet" />
		<tag k="natural" v="valley" />
		<tag k="place" v="locality" />
		<tag k="ssr:stedsnr" v="495451" />
	</node>
	<node id="-99802" lat="61.9502166686" lon="10.6297527717">
		<tag k="fixme" v="consider natural=peak for the most distinct mountains in the district" />
		<tag k="name" v="Skarven" />
		<tag k="natural" v="hill" />
		<tag k="place" v="locality" />
		<tag k="ssr:stedsnr" v="495434" />
	</node>
	<node id="-99797" lat="62.2340222243" lon="10.4486999915">
		<tag k="name" v="Slettknausen" />
		<tag k="natural" v="hill" />
		<tag k="place" v="locality" />
		<tag k="ssr:stedsnr" v="436402" />
	</node>
	<node id="-99794" lat="62.006875001" lon="10.3209277775">
		<tag k="fixme" v="consider natural=peak for the most distinct mountains in the district" />
		<tag k="name" v="Veslsølnkletten" />
		<tag k="natural" v="hill" />
		<tag k="place" v="locality" />
		<tag k="ssr:stedsnr" v="436156" />
	</node>
	<node id="-99793" lat="62.0129722229" lon="10.4246000054">
		<tag k="name" v="Kvislådalen" />
		<tag k="natural" v="valley" />
		<tag k="place" v="locality" />
		<tag k="ssr:stedsnr" v="436146" />
	</node>
	<node id="-99791" lat="62.0855833356" lon="10.327508327">
		<tag k="alt_name" v="Stenflåen" />
		<tag k="fixme" v="consider natural=peak for the most distinct mountains in the district" />
		<tag k="name" v="Steinfloen" />
		<tag k="natural" v="hill" />
		<tag k="place" v="locality" />
		<tag k="ssr:stedsnr" v="436125" />
	</node>
	<node id="-99788" lat="62.1620499989" lon="10.6975249949">
		<tag k="name" v="Blåskarven" />
		<tag k="natural" v="hill" />
		<tag k="place" v="locality" />
		<tag k="ssr:stedsnr" v="436059" />
	</node>
	<node id="-99784" lat="62.0731833306" lon="10.7992305597">
		<tag k="alt_name" v="Holsetvorda;Hårsetvola" />
		<tag k="fixme" v="consider natural=peak for the most distinct mountains in the district" />
		<tag k="name" v="Holsetvola" />
		<tag k="natural" v="hill" />
		<tag k="place" v="locality" />
		<tag k="ssr:stedsnr" v="436029" />
	</node>
	<node id="-99783" lat="62.0790555518" lon="10.7828388873">
		<tag k="fixme" v="consider natural=peak for the most distinct mountains in the district" />
		<tag k="name" v="Raudfjellet" />
		<tag k="natural" v="hill" />
		<tag k="place" v="locality" />
		<tag k="ssr:stedsnr" v="436030" />
	</node>
	<node id="-99779" lat="61.9532027822" lon="10.5674083389">
		<tag k="fixme" v="consider natural=peak for the most distinct mountains in the district" />
		<tag k="name" v="Prekstolen" />
		<tag k="natural" v="hill" />
		<tag k="place" v="locality" />
		<tag k="ssr:stedsnr" v="435485" />
	</node>
	<node id="-99778" lat="62.0980388922" lon="10.5895111138">
		<tag k="alt_name" v="Bogsberget" />
		<tag k="name" v="Baugsberget" />
		<tag k="natural" v="hill" />
		<tag k="place" v="locality" />
		<tag k="ssr:stedsnr" v="435256" />
	</node>
	<node id="-99764" lat="62.1709222252" lon="10.4634805563">
		<tag k="name" v="Kletten" />
		<tag k="natural" v="hill" />
		<tag k="place" v="locality" />
		<tag k="ssr:stedsnr" v="435014" />
	</node>
	<node id="-99763" lat="61.9442888934" lon="10.2390499917">
		<tag k="name" v="Buska" />
		<tag k="place" v="locality" />
		<tag k="ssr:stedsnr" v="434614" />
	</node>
	<node id="-99762" lat="62.1285416625" lon="10.6464527845">
		<tag k="name" v="Tronsvanglia" />
		<tag k="natural" v="slope" />
		<tag k="place" v="locality" />
		<tag k="ssr:stedsnr" v="418934" />
	</node>
	<node id="-99758" lat="62.0461250003" lon="10.5877861026">
		<tag k="name" v="Aumdalsbakkan" />
		<tag k="natural" v="hill" />
		<tag k="place" v="locality" />
		<tag k="ssr:stedsnr" v="418887" />
	</node>
	<node id="-99756" lat="62.0394500002" lon="10.548125008">
		<tag k="name" v="Skårhaugen" />
		<tag k="natural" v="hill" />
		<tag k="place" v="locality" />
		<tag k="ssr:stedsnr" v="418885" />
	</node>
	<node id="-99749" lat="62.0893138867" lon="10.6991666594">
		<tag k="name" v="Vesleberget" />
		<tag k="natural" v="hill" />
		<tag k="place" v="locality" />
		<tag k="ssr:stedsnr" v="417885" />
	</node>
	<node id="-99743" lat="62.1547638904" lon="10.4274416613">
		<tag k="name" v="Veslekletten" />
		<tag k="natural" v="hill" />
		<tag k="place" v="locality" />
		<tag k="ssr:stedsnr" v="416972" />
	</node>
	<node id="-99740" lat="62.2736305559" lon="10.3851888831">
		<tag k="name" v="Finnskjeggjota" />
		<tag k="place" v="locality" />
		<tag k="ssr:stedsnr" v="416774" />
	</node>
	<node id="-99736" lat="62.2033277773" lon="10.6261694423">
		<tag k="name" v="Basmoen" />
		<tag k="place" v="locality" />
		<tag k="ssr:stedsnr" v="416700" />
	</node>
	<node id="-99734" lat="62.239219441" lon="10.3399833269">
		<tag k="name" v="Stengrubba" />
		<tag k="natural" v="valley" />
		<tag k="place" v="locality" />
		<tag k="ssr:stedsnr" v="416080" />
	</node>
	<node id="-99730" lat="62.0392138874" lon="10.5375027732">
		<tag k="name" v="Trekantegga" />
		<tag k="natural" v="hill" />
		<tag k="place" v="locality" />
		<tag k="ssr:stedsnr" v="479901" />
	</node>
	<node id="-99729" lat="62.0708916704" lon="10.6935555637">
		<tag k="name" v="Djupdalen" />
		<tag k="natural" v="valley" />
		<tag k="place" v="locality" />
		<tag k="ssr:stedsnr" v="479851" />
	</node>
	<node id="-99728" lat="62.0573777781" lon="10.6983111201">
		<tag k="name" v="Veslenglia" />
		<tag k="natural" v="slope" />
		<tag k="place" v="locality" />
		<tag k="ssr:stedsnr" v="479852" />
	</node>
	<node id="-99726" lat="62.061544447" lon="10.7681638797">
		<tag k="name" v="Innerenglia" />
		<tag k="natural" v="slope" />
		<tag k="place" v="locality" />
		<tag k="ssr:stedsnr" v="479670" />
	</node>
	<node id="-99725" lat="62.0210472201" lon="10.6327000034">
		<tag k="name" v="Bjønnranden" />
		<tag k="natural" v="hill" />
		<tag k="place" v="locality" />
		<tag k="ssr:stedsnr" v="479641" />
	</node>
	<node id="-99719" lat="61.995075001" lon="10.3000305531">
		<tag k="alt_name" v="Veslesølndalen" />
		<tag k="name" v="Veslsølndalen" />
		<tag k="natural" v="valley" />
		<tag k="place" v="locality" />
		<tag k="ssr:stedsnr" v="253550" />
	</node>
	<node id="-99718" lat="61.9578416647" lon="10.8989833268">
		<tag k="fixme" v="consider natural=peak for the most distinct mountains in the district" />
		<tag k="name" v="Brennåsen" />
		<tag k="natural" v="hill" />
		<tag k="place" v="locality" />
		<tag k="ssr:stedsnr" v="253390" />
	</node>
	<node id="-99717" lat="62.1075722178" lon="10.4795722195">
		<tag k="name" v="Gammelsæterlia" />
		<tag k="natural" v="slope" />
		<tag k="place" v="locality" />
		<tag k="ssr:stedsnr" v="253276" />
	</node>
	<node id="-99714" lat="62.1000250021" lon="10.2588833399">
		<tag k="name" v="Skarvdalen" />
		<tag k="natural" v="valley" />
		<tag k="place" v="locality" />
		<tag k="ssr:stedsnr" v="253269" />
	</node>
	<node id="-99712" lat="62.1911388933" lon="10.7209666731">
		<tag k="alt_name" v="Vesletronden" />
		<tag k="name" v="Vesletron" />
		<tag k="natural" v="hill" />
		<tag k="place" v="locality" />
		<tag k="ssr:stedsnr" v="253265" />
	</node>
	<node id="-99709" lat="62.1257750041" lon="10.6864222263">
		<tag k="fixme" v="consider natural=peak for the most distinct mountains in the district" />
		<tag k="name" v="Heimåsen" />
		<tag k="natural" v="hill" />
		<tag k="place" v="locality" />
		<tag k="ssr:stedsnr" v="253232" />
	</node>
	<node id="-99707" lat="62.0468138928" lon="10.5277583287">
		<tag k="fixme" v="consider natural=peak for the most distinct mountains in the district" />
		<tag k="name" v="Illmyrkletten" />
		<tag k="natural" v="hill" />
		<tag k="place" v="locality" />
		<tag k="ssr:stedsnr" v="253222" />
	</node>
	<node id="-99705" lat="62.0428500009" lon="10.3496222303">
		<tag k="name" v="Måsådalen" />
		<tag k="natural" v="valley" />
		<tag k="place" v="locality" />
		<tag k="ssr:stedsnr" v="253213" />
	</node>
	<node id="-99701" lat="62.0759250027" lon="10.6058027686">
		<tag k="alt_name" v="Vorda" />
		<tag k="name" v="Gråvola" />
		<tag k="natural" v="hill" />
		<tag k="place" v="locality" />
		<tag k="ssr:stedsnr" v="253181" />
	</node>
	<node id="-99694" lat="62.1550750005" lon="10.5374361034">
		<tag k="alt_name" v="Nesset" />
		<tag k="name" v="Neset" />
		<tag k="place" v="locality" />
		<tag k="ssr:stedsnr" v="253050" />
	</node>
	<node id="-99693" lat="62.1494750012" lon="10.7101750082">
		<tag k="name" v="Sørkletten" />
		<tag k="natural" v="hill" />
		<tag k="place" v="locality" />
		<tag k="ssr:stedsnr" v="253048" />
	</node>
	<node id="-99691" lat="62.0204138867" lon="10.7590749927">
		<tag k="alt_name" v="Urlia" />
		<tag k="name" v="Urdlia" />
		<tag k="natural" v="slope" />
		<tag k="place" v="locality" />
		<tag k="ssr:stedsnr" v="253038" />
	</node>
	<node id="-99687" lat="62.1617749974" lon="10.4015333381">
		<tag k="alt_name" v="Gjotvorda" />
		<tag k="fixme" v="consider natural=peak for the most distinct mountains in the district" />
		<tag k="name" v="Gjotvola" />
		<tag k="natural" v="hill" />
		<tag k="place" v="locality" />
		<tag k="ssr:stedsnr" v="253004" />
	</node>
	<node id="-99686" lat="61.9597888875" lon="10.1594361035">
		<tag k="alt_name" v="Skjellåkinn" />
		<tag k="fixme" v="consider natural=peak for the most distinct mountains in the district" />
		<tag k="name" v="Skjellåkinna" />
		<tag k="natural" v="hill" />
		<tag k="place" v="locality" />
		<tag k="ssr:stedsnr" v="252568" />
	</node>
	<node id="-99685" lat="61.971713885" lon="10.2639888865">
		<tag k="fixme" v="consider natural=peak for the most distinct mountains in the district" />
		<tag k="name" v="Slågån" />
		<tag k="natural" v="hill" />
		<tag k="place" v="locality" />
		<tag k="ssr:stedsnr" v="252560" />
	</node>
	<node id="-99684" lat="61.9823249979" lon="10.3735916587">
		<tag k="name" v="Fjordungskvolvet" />
		<tag k="natural" v="valley" />
		<tag k="place" v="locality" />
		<tag k="ssr:stedsnr" v="252426" />
	</node>
	<node id="-99682" lat="61.9943805599" lon="10.6147750093">
		<tag k="name" v="Melbekkdalen" />
		<tag k="natural" v="valley" />
		<tag k="place" v="locality" />
		<tag k="ssr:stedsnr" v="252379" />
	</node>
	<node id="-99676" lat="62.0136777773" lon="10.6436222213">
		<tag k="name" v="Styggdalen" />
		<tag k="natural" v="valley" />
		<tag k="place" v="locality" />
		<tag k="ssr:stedsnr" v="236610" />
	</node>
	<node id="-99664" lat="62.0859583348" lon="10.4179472243">
		<tag k="name" v="Stenbakken" />
		<tag k="natural" v="slope" />
		<tag k="place" v="locality" />
		<tag k="ssr:stedsnr" v="234798" />
	</node>
	<node id="-99663" lat="62.1015055579" lon="10.3783444438">
		<tag k="name" v="Lauvhauglia" />
		<tag k="natural" v="slope" />
		<tag k="place" v="locality" />
		<tag k="ssr:stedsnr" v="234782" />
	</node>
	<node id="-99658" lat="62.1548611154" lon="10.5561555579">
		<tag k="name" v="Folløymoan" />
		<tag k="place" v="locality" />
		<tag k="ssr:stedsnr" v="234689" />
	</node>
	<node id="-99656" lat="62.1974194439" lon="10.7201027811">
		<tag k="name" v="Vesletronlia" />
		<tag k="natural" v="slope" />
		<tag k="place" v="locality" />
		<tag k="ssr:stedsnr" v="234907" />
	</node>
	<node id="-99652" lat="62.1434333314" lon="10.3339416747">
		<tag k="name" v="Skarvdalen" />
		<tag k="natural" v="valley" />
		<tag k="place" v="locality" />
		<tag k="ssr:stedsnr" v="234063" />
	</node>
	<node id="-99651" lat="62.1914611123" lon="10.3942055489">
		<tag k="name" v="Bumoen" />
		<tag k="place" v="locality" />
		<tag k="ssr:stedsnr" v="233955" />
	</node>
	<node id="-99650" lat="62.0808972182" lon="10.3387194532">
		<tag k="name" v="Skrabban" />
		<tag k="place" v="locality" />
		<tag k="ssr:stedsnr" v="233912" />
	</node>
	<node id="-99647" lat="62.1512444425" lon="10.6661305538">
		<tag k="name" v="Kløftet" />
		<tag k="natural" v="valley" />
		<tag k="place" v="locality" />
		<tag k="ssr:stedsnr" v="233859" />
	</node>
	<node id="-99642" lat="62.0422527752" lon="10.5864333392">
		<tag k="name" v="Aumdalen" />
		<tag k="natural" v="valley" />
		<tag k="place" v="locality" />
		<tag k="ssr:stedsnr" v="207235" />
	</node>
	<node id="-99640" lat="62.2458555567" lon="10.3561888913">
		<tag k="fixme" v="consider natural=peak for the most distinct mountains in the district" />
		<tag k="name" v="Strålsjøåsen" />
		<tag k="natural" v="hill" />
		<tag k="place" v="locality" />
		<tag k="ssr:stedsnr" v="193451" />
	</node>
	<node id="-99631" lat="62.0155666655" lon="10.2968750014">
		<tag k="alt_name" v="Sølndalen, vesle" />
		<tag k="name" v="Vesle Sølndalen" />
		<tag k="natural" v="valley" />
		<tag k="place" v="locality" />
		<tag k="ssr:stedsnr" v="193159" />
	</node>
	<node id="-99629" lat="62.226708332" lon="10.4592999961">
		<tag k="name" v="Lomsjødalen" />
		<tag k="natural" v="valley" />
		<tag k="place" v="locality" />
		<tag k="ssr:stedsnr" v="193079" />
	</node>
	<node id="-99624" lat="62.073224997" lon="10.7358833267">
		<tag k="alt_name" v="Vesleskardet" />
		<tag k="name" v="Veslskardet" />
		<tag k="natural" v="valley" />
		<tag k="place" v="locality" />
		<tag k="ssr:stedsnr" v="193018" />
	</node>
	<node id="-99622" lat="62.1712972202" lon="10.3406527848">
		<tag k="alt_name" v="Einstakakletten" />
		<tag k="fixme" v="consider natural=peak for the most distinct mountains in the district" />
		<tag k="name" v="Einståkkåkletten" />
		<tag k="natural" v="hill" />
		<tag k="place" v="locality" />
		<tag k="ssr:stedsnr" v="193014" />
	</node>
	<node id="-99619" lat="62.161049997" lon="10.4416249958">
		<tag k="alt_name" v="Vordengvorda" />
		<tag k="fixme" v="consider natural=peak for the most distinct mountains in the district" />
		<tag k="name" v="Volengvola" />
		<tag k="natural" v="hill" />
		<tag k="place" v="locality" />
		<tag k="ssr:stedsnr" v="193005" />
	</node>
	<node id="-99618" lat="61.9539249972" lon="10.1826638978">
		<tag k="alt_name" v="Skjellåbotn" />
		<tag k="name" v="Skjellåbotnen" />
		<tag k="natural" v="valley" />
		<tag k="place" v="locality" />
		<tag k="ssr:stedsnr" v="192629" />
	</node>
	<node id="-99616" lat="61.9682388902" lon="10.4931527748">
		<tag k="name" v="Aumskardet" />
		<tag k="natural" v="valley" />
		<tag k="place" v="locality" />
		<tag k="ssr:stedsnr" v="192489" />
	</node>
	<node id="-99613" lat="61.9824777765" lon="10.4095916757">
		<tag k="name" v="Kvislåkvolvet" />
		<tag k="natural" v="valley" />
		<tag k="place" v="locality" />
		<tag k="ssr:stedsnr" v="192482" />
	</node>
	<node id="-99612" lat="61.9755000022" lon="10.626177772">
		<tag k="fixme" v="consider natural=peak for the most distinct mountains in the district" />
		<tag k="name" v="Smalhøa" />
		<tag k="natural" v="hill" />
		<tag k="place" v="locality" />
		<tag k="ssr:stedsnr" v="192479" />
	</node>
	<node id="-99603" lat="62.0534750038" lon="10.4354333384">
		<tag k="name" v="Storskardet" />
		<tag k="natural" v="valley" />
		<tag k="place" v="locality" />
		<tag k="ssr:stedsnr" v="192201" />
	</node>
	<node id="-99602" lat="62.0572583323" lon="10.6806527842">
		<tag k="fixme" v="consider natural=peak for the most distinct mountains in the district" />
		<tag k="name" v="Kampen" />
		<tag k="natural" v="hill" />
		<tag k="place" v="locality" />
		<tag k="ssr:stedsnr" v="192155" />
	</node>
	<node id="-99593" lat="62.1846944444" lon="10.6077944412">
		<tag k="name" v="Strømsberget" />
		<tag k="natural" v="hill" />
		<tag k="place" v="locality" />
		<tag k="ssr:stedsnr" v="175889" />
	</node>
	<node id="-99592" lat="62.0783305548" lon="10.7009750079">
		<tag k="name" v="Osteregga" />
		<tag k="natural" v="hill" />
		<tag k="place" v="locality" />
		<tag k="ssr:stedsnr" v="175847" />
	</node>
	<node id="-99588" lat="61.9693555523" lon="10.8623416755">
		<tag k="name" v="Rådelshaugen" />
		<tag k="natural" v="hill" />
		<tag k="place" v="locality" />
		<tag k="ssr:stedsnr" v="175689" />
	</node>
	<node id="-99584" lat="61.9985611086" lon="10.6994638813">
		<tag k="name" v="Fjellbekkdalen" />
		<tag k="natural" v="valley" />
		<tag k="place" v="locality" />
		<tag k="ssr:stedsnr" v="175668" />
	</node>
	<node id="-99583" lat="61.971897222" lon="10.764502783">
		<tag k="name" v="Kikkerthaugan" />
		<tag k="natural" v="hill" />
		<tag k="place" v="locality" />
		<tag k="ssr:stedsnr" v="175663" />
	</node>
	<node id="-99582" lat="62.0550138873" lon="10.6145138841">
		<tag k="name" v="Blåryan" />
		<tag k="natural" v="valley" />
		<tag k="place" v="locality" />
		<tag k="ssr:stedsnr" v="175629" />
	</node>
	<node id="-99575" lat="62.254672224" lon="10.3675388941">
		<tag k="name" v="Bjørnsmoen" />
		<tag k="place" v="locality" />
		<tag k="ssr:stedsnr" v="174941" />
	</node>
	<node id="-99572" lat="62.1162583303" lon="10.5151361119">
		<tag k="name" v="Skarddalen" />
		<tag k="natural" v="valley" />
		<tag k="place" v="locality" />
		<tag k="ssr:stedsnr" v="174705" />
	</node>
	<node id="-99570" lat="62.1155222195" lon="10.447305554">
		<tag k="fixme" v="consider natural=peak for the most distinct mountains in the district" />
		<tag k="name" v="Midtsæteråsen" />
		<tag k="natural" v="hill" />
		<tag k="place" v="locality" />
		<tag k="ssr:stedsnr" v="173987" />
	</node>
	<node id="-99569" lat="62.2008611124" lon="10.4339111099">
		<tag k="name" v="Lomsjødalslia" />
		<tag k="natural" v="slope" />
		<tag k="place" v="locality" />
		<tag k="ssr:stedsnr" v="173970" />
	</node>
	<node id="-99567" lat="62.1189611077" lon="10.3142305603">
		<tag k="name" v="Brenna" />
		<tag k="natural" v="hill" />
		<tag k="place" v="locality" />
		<tag k="ssr:stedsnr" v="173882" />
	</node>
	<node id="-99566" lat="62.2234305565" lon="10.5097916645">
		<tag k="name" v="Nausterdalen" />
		<tag k="natural" v="valley" />
		<tag k="place" v="locality" />
		<tag k="ssr:stedsnr" v="173809" />
	</node>
	<node id="-99565" lat="62.0958888902" lon="10.4015166652">
		<tag k="name" v="Middagshaugen" />
		<tag k="natural" v="hill" />
		<tag k="place" v="locality" />
		<tag k="ssr:stedsnr" v="173741" />
	</node>
	<node id="-99562" lat="62.1523666661" lon="10.4988166732">
		<tag k="name" v="Hammermåna" />
		<tag k="natural" v="slope" />
		<tag k="place" v="locality" />
		<tag k="ssr:stedsnr" v="173645" />
	</node>
	<node id="-99560" lat="62.0789166659" lon="10.3991138846">
		<tag k="name" v="Sølnsætermoen" />
		<tag k="place" v="locality" />
		<tag k="ssr:stedsnr" v="173759" />
	</node>
	<node id="-99553" lat="62.1922611093" lon="10.5894249962">
		<tag k="name" v="Vesltjønndalen" />
		<tag k="natural" v="valley" />
		<tag k="place" v="locality" />
		<tag k="ssr:stedsnr" v="145004" />
	</node>
	<node id="-99552" lat="61.96724167" lon="10.4349500086">
		<tag k="fixme" v="consider natural=peak for the most distinct mountains in the district" />
		<tag k="name" v="Kvislåtjønnhøgda" />
		<tag k="natural" v="hill" />
		<tag k="place" v="locality" />
		<tag k="ssr:stedsnr" v="143900" />
	</node>
	<node id="-99551" lat="61.9758277807" lon="10.3930694439">
		<tag k="fixme" v="consider natural=peak for the most distinct mountains in the district" />
		<tag k="name" v="Sølnsjøhøa" />
		<tag k="natural" v="hill" />
		<tag k="place" v="locality" />
		<tag k="ssr:stedsnr" v="143899" />
	</node>
	<node id="-99548" lat="62.1048722237" lon="10.6734749911">
		<tag k="fixme" v="consider natural=peak for the most distinct mountains in the district" />
		<tag k="name" v="Hauståsen" />
		<tag k="natural" v="hill" />
		<tag k="place" v="locality" />
		<tag k="ssr:stedsnr" v="132241" />
	</node>
	<node id="-99541" lat="62.0084583336" lon="10.6342361031">
		<tag k="name" v="Rundhaugen" />
		<tag k="natural" v="hill" />
		<tag k="place" v="locality" />
		<tag k="ssr:stedsnr" v="132160" />
	</node>
	<node id="-99540" lat="62.0621527746" lon="10.5044166713">
		<tag k="alt_name" v="Skrefjellet" />
		<tag k="fixme" v="consider natural=peak for the most distinct mountains in the district" />
		<tag k="name" v="Skredfjellet" />
		<tag k="natural" v="hill" />
		<tag k="place" v="locality" />
		<tag k="ssr:stedsnr" v="132116" />
	</node>
	<node id="-99530" lat="62.0807999993" lon="10.7459861018">
		<tag k="name" v="Hammardalen" />
		<tag k="natural" v="valley" />
		<tag k="place" v="locality" />
		<tag k="ssr:stedsnr" v="132023" />
	</node>
	<node id="-99529" lat="62.1796472197" lon="10.3651722144">
		<tag k="name" v="Svartkletten" />
		<tag k="natural" v="hill" />
		<tag k="place" v="locality" />
		<tag k="ssr:stedsnr" v="132016" />
	</node>
	<node id="-99526" lat="62.1180027811" lon="10.4594750043">
		<tag k="fixme" v="consider natural=peak for the most distinct mountains in the district" />
		<tag k="name" v="Høgåsen" />
		<tag k="natural" v="hill" />
		<tag k="place" v="locality" />
		<tag k="ssr:stedsnr" v="131712" />
	</node>
	<node id="-99524" lat="61.9716111127" lon="10.2128722151">
		<tag k="name" v="Sølndalen" />
		<tag k="natural" v="valley" />
		<tag k="place" v="locality" />
		<tag k="ssr:stedsnr" v="131597" />
	</node>
	<node id="-99523" lat="61.914077782" lon="10.2810861144">
		<tag k="name" v="Skjellåkroken" />
		<tag k="natural" v="valley" />
		<tag k="place" v="locality" />
		<tag k="ssr:stedsnr" v="131555" />
	</node>
	<node id="-99521" lat="61.9688027807" lon="10.4001083285">
		<tag k="name" v="Slettfatet" />
		<tag k="natural" v="valley" />
		<tag k="place" v="locality" />
		<tag k="ssr:stedsnr" v="131436" />
	</node>
	<node id="-99520" lat="61.9715944427" lon="10.4802305522">
		<tag k="fixme" v="consider natural=peak for the most distinct mountains in the district" />
		<tag k="name" v="Korsberghøa" />
		<tag k="natural" v="hill" />
		<tag k="place" v="locality" />
		<tag k="ssr:stedsnr" v="131427" />
	</node>
	<node id="-99519" lat="61.9755583346" lon="10.433961107">
		<tag k="fixme" v="consider natural=peak for the most distinct mountains in the district" />
		<tag k="name" v="Knatten" />
		<tag k="natural" v="hill" />
		<tag k="place" v="locality" />
		<tag k="ssr:stedsnr" v="131425" />
	</node>
	<node id="-99514" lat="62.1282388862" lon="10.5080777733">
		<tag k="alt_name" v="Drivla" />
		<tag k="fixme" v="consider natural=peak for the most distinct mountains in the district" />
		<tag k="name" v="Divlet" />
		<tag k="natural" v="hill" />
		<tag k="place" v="locality" />
		<tag k="ssr:stedsnr" v="131194" />
	</node>
	<node id="-99503" lat="62.128461107" lon="10.6670944465">
		<tag k="name" v="Storbekkhalla" />
		<tag k="natural" v="slope" />
		<tag k="place" v="locality" />
		<tag k="ssr:stedsnr" v="113991" />
	</node>
	<node id="-99498" lat="62.067863889" lon="10.3856888934">
		<tag k="name" v="Sølnmoen" />
		<tag k="place" v="locality" />
		<tag k="ssr:stedsnr" v="113786" />
	</node>
	<node id="-99496" lat="62.2202138924" lon="10.4900138958">
		<tag k="name" v="Tangen" />
		<tag k="natural" v="slope" />
		<tag k="place" v="locality" />
		<tag k="ssr:stedsnr" v="113779" />
	</node>
	<node id="-99495" lat="62.2081583341" lon="10.5219277688">
		<tag k="name" v="Klettlia" />
		<tag k="natural" v="slope" />
		<tag k="place" v="locality" />
		<tag k="ssr:stedsnr" v="113778" />
	</node>
	<node id="-99493" lat="62.1109305555" lon="10.652472224">
		<tag k="name" v="Veslebrekka" />
		<tag k="natural" v="hill" />
		<tag k="place" v="locality" />
		<tag k="ssr:stedsnr" v="113763" />
	</node>
	<node id="-99490" lat="62.13634167" lon="10.5905694407">
		<tag k="name" v="Måna" />
		<tag k="natural" v="slope" />
		<tag k="place" v="locality" />
		<tag k="ssr:stedsnr" v="113730" />
	</node>
	<node id="-99488" lat="62.1280777734" lon="10.3522472168">
		<tag k="name" v="Bjørnhaugen" />
		<tag k="natural" v="hill" />
		<tag k="place" v="locality" />
		<tag k="ssr:stedsnr" v="112979" />
	</node>
	<node id="-99487" lat="62.1451750023" lon="10.399922215">
		<tag k="name" v="Grønvoltangen" />
		<tag k="natural" v="hill" />
		<tag k="place" v="locality" />
		<tag k="ssr:stedsnr" v="112975" />
	</node>
	<node id="-99485" lat="62.1810055518" lon="10.5618666583">
		<tag k="name" v="Brekkbekkdalen" />
		<tag k="natural" v="valley" />
		<tag k="place" v="locality" />
		<tag k="ssr:stedsnr" v="112794" />
	</node>
	<node id="-99475" lat="62.110241668" lon="10.4176250002">
		<tag k="name" v="Haustdalen" />
		<tag k="natural" v="valley" />
		<tag k="place" v="locality" />
		<tag k="ssr:stedsnr" v="81322" />
	</node>
	<node id="-99471" lat="62.1415166693" lon="10.3668166696">
		<tag k="alt_name" v="Kvitvorda" />
		<tag k="fixme" v="consider natural=peak for the most distinct mountains in the district" />
		<tag k="name" v="Kvitvola" />
		<tag k="natural" v="hill" />
		<tag k="place" v="locality" />
		<tag k="ssr:stedsnr" v="72038" />
	</node>
	<node id="-99469" lat="62.0958500026" lon="10.7498194374">
		<tag k="fixme" v="consider natural=peak for the most distinct mountains in the district" />
		<tag k="name" v="Høyåsen" />
		<tag k="natural" v="hill" />
		<tag k="place" v="locality" />
		<tag k="ssr:stedsnr" v="71721" />
	</node>
	<node id="-99468" lat="61.988783329" lon="10.6618972288">
		<tag k="fixme" v="consider natural=peak for the most distinct mountains in the district" />
		<tag k="name" v="Gråhøgda" />
		<tag k="natural" v="hill" />
		<tag k="place" v="locality" />
		<tag k="ssr:stedsnr" v="71481" />
	</node>
	<node id="-99464" lat="62.00275833" lon="10.6826888948">
		<tag k="name" v="Gråhaugen" />
		<tag k="natural" v="hill" />
		<tag k="place" v="locality" />
		<tag k="ssr:stedsnr" v="71193" />
	</node>
	<node id="-99461" lat="62.0652861073" lon="10.2719888942">
		<tag k="name" v="Skarddalen" />
		<tag k="natural" v="valley" />
		<tag k="place" v="locality" />
		<tag k="ssr:stedsnr" v="71158" />
	</node>
	<node id="-99458" lat="62.1141777761" lon="10.5163000031">
		<tag k="fixme" v="consider natural=peak for the most distinct mountains in the district" />
		<tag k="name" v="Brottet" />
		<tag k="natural" v="hill" />
		<tag k="place" v="locality" />
		<tag k="ssr:stedsnr" v="71263" />
	</node>
	<node id="-99453" lat="62.0501888846" lon="10.3874361145">
		<tag k="alt_name" v="Stenmoen" />
		<tag k="name" v="Steinmoen" />
		<tag k="place" v="locality" />
		<tag k="ssr:stedsnr" v="71213" />
	</node>
	<node id="-99451" lat="62.187363885" lon="10.4235222294">
		<tag k="name" v="Gråmoen" />
		<tag k="place" v="locality" />
		<tag k="ssr:stedsnr" v="71096" />
	</node>
	<node id="-99445" lat="62.0396333371" lon="10.5433277728">
		<tag k="name" v="Rundhaugen" />
		<tag k="natural" v="hill" />
		<tag k="place" v="locality" />
		<tag k="ssr:stedsnr" v="54910" />
	</node>
	<node id="-99443" lat="62.0328472218" lon="10.4927194395">
		<tag k="name" v="Skrean" />
		<tag k="natural" v="slope" />
		<tag k="place" v="locality" />
		<tag k="ssr:stedsnr" v="54902" />
	</node>
	<node id="-99442" lat="62.1987944467" lon="10.6760916612">
		<tag k="name" v="Hollia" />
		<tag k="natural" v="slope" />
		<tag k="place" v="locality" />
		<tag k="ssr:stedsnr" v="54895" />
	</node>
	<node id="-99441" lat="62.1958583307" lon="10.7000472224">
		<tag k="fixme" v="consider natural=peak for the most distinct mountains in the district" />
		<tag k="name" v="Fjøsrabben" />
		<tag k="natural" v="hill" />
		<tag k="place" v="locality" />
		<tag k="ssr:stedsnr" v="54894" />
	</node>
	<node id="-99439" lat="62.0836333329" lon="10.6917472141">
		<tag k="name" v="Synsegga" />
		<tag k="natural" v="hill" />
		<tag k="place" v="locality" />
		<tag k="ssr:stedsnr" v="53876" />
	</node>
	<node id="-99437" lat="62.076988887" lon="10.6813833384">
		<tag k="name" v="Stamoen" />
		<tag k="place" v="locality" />
		<tag k="ssr:stedsnr" v="53870" />
	</node>
	<node id="-99435" lat="62.2095666634" lon="10.4872499928">
		<tag k="name" v="Storstrypet" />
		<tag k="place" v="locality" />
		<tag k="ssr:stedsnr" v="53798" />
	</node>
	<node id="-99431" lat="62.1332083365" lon="10.4617333392">
		<tag k="name" v="Haustmoen" />
		<tag k="place" v="locality" />
		<tag k="ssr:stedsnr" v="52977" />
	</node>
	<node id="-99425" lat="62.0966444469" lon="10.3617444382">
		<tag k="name" v="Nysætertangen" />
		<tag k="natural" v="slope" />
		<tag k="place" v="locality" />
		<tag k="ssr:stedsnr" v="52747" />
	</node>
	<node id="-99417" lat="62.1333277743" lon="10.5226305518">
		<tag k="name" v="Skarvhaugen" />
		<tag k="natural" v="hill" />
		<tag k="place" v="locality" />
		<tag k="ssr:stedsnr" v="52633" />
	</node>
	<node id="-99415" lat="62.0968638931" lon="10.420499991">
		<tag k="name" v="Tjønnåssteinlia" />
		<tag k="natural" v="slope" />
		<tag k="place" v="locality" />
		<tag k="ssr:stedsnr" v="25870" />
	</node>
	<node id="-99414" lat="62.0533833352" lon="10.23929723">
		<tag k="name" v="Storkletten" />
		<tag k="natural" v="hill" />
		<tag k="place" v="locality" />
		<tag k="ssr:stedsnr" v="20434" />
	</node>
	<node id="-99413" lat="62.0895861104" lon="10.533547215">
		<tag k="alt_name" v="Brennbakkmoene" />
		<tag k="name" v="Brennbakkmoen" />
		<tag k="place" v="locality" />
		<tag k="ssr:stedsnr" v="20304" />
	</node>
	<node id="-99411" lat="62.0088944465" lon="10.1418638895">
		<tag k="fixme" v="consider natural=peak for the most distinct mountains in the district" />
		<tag k="name" v="Kyrkjekletten" />
		<tag k="natural" v="hill" />
		<tag k="place" v="locality" />
		<tag k="ssr:stedsnr" v="11405" />
	</node>
	<node id="-99408" lat="62.0993304547" lon="10.4146466634">
		<tag k="fixme" v="consider natural=peak for the most distinct mountains in the district" />
		<tag k="name" v="Tjønnåsstein" />
		<tag k="natural" v="hill" />
		<tag k="place" v="locality" />
		<tag k="ssr:stedsnr" v="11211" />
	</node>
	<node id="-99406" lat="62.05896389" lon="10.4084249921">
		<tag k="fixme" v="consider natural=peak for the most distinct mountains in the district" />
		<tag k="name" v="Storkampen" />
		<tag k="natural" v="hill" />
		<tag k="place" v="locality" />
		<tag k="ssr:stedsnr" v="11165" />
	</node>
	<node id="-99405" lat="62.0179083333" lon="10.433505547">
		<tag k="fixme" v="consider natural=peak for the most distinct mountains in the district" />
		<tag k="name" v="Nysæterhøa" />
		<tag k="natural" v="hill" />
		<tag k="place" v="locality" />
		<tag k="ssr:stedsnr" v="11157" />
	</node>
	<node id="-99404" lat="62.0261638865" lon="10.3428055603">
		<tag k="name" v="Kveldshaugen" />
		<tag k="natural" v="hill" />
		<tag k="place" v="locality" />
		<tag k="ssr:stedsnr" v="11151" />
	</node>
	<node id="-99401" lat="62.0610277819" lon="10.5227694507">
		<tag k="name" v="Finnbudalen" />
		<tag k="natural" v="valley" />
		<tag k="place" v="locality" />
		<tag k="ssr:stedsnr" v="11119" />
	</node>
	<node id="-99398" lat="62.1551277766" lon="10.4003388951">
		<tag k="name" v="Vakkerlia" />
		<tag k="natural" v="slope" />
		<tag k="place" v="locality" />
		<tag k="ssr:stedsnr" v="11055" />
	</node>
	<node id="-99397" lat="62.1519277789" lon="10.6776722197">
		<tag k="alt_name" v="Gråvorda" />
		<tag k="name" v="Gråvola" />
		<tag k="natural" v="hill" />
		<tag k="place" v="locality" />
		<tag k="ssr:stedsnr" v="11050" />
	</node>
	<node id="-99391" lat="61.953644443" lon="10.2028444379">
		<tag k="alt_name" v="Breidsjøkinn" />
		<tag k="fixme" v="consider natural=peak for the most distinct mountains in the district" />
		<tag k="loc_name" v="Breisjøfjellet" />
		<tag k="name" v="Breidsjøkinna" />
		<tag k="natural" v="hill" />
		<tag k="place" v="locality" />
		<tag k="ssr:stedsnr" v="10625" />
	</node>
	<node id="-99389" lat="61.9838166633" lon="10.7266777849">
		<tag k="alt_name" v="Fjellrøstvorda" />
		<tag k="fixme" v="consider natural=peak for the most distinct mountains in the district" />
		<tag k="name" v="Fjellrøstvola" />
		<tag k="natural" v="hill" />
		<tag k="place" v="locality" />
		<tag k="ssr:stedsnr" v="10450" />
	</node>
	<node id="-99388" lat="61.9759500015" lon="10.5159305531">
		<tag k="fixme" v="consider natural=peak for the most distinct mountains in the district" />
		<tag k="name" v="Rundsteinhøa" />
		<tag k="natural" v="hill" />
		<tag k="place" v="locality" />
		<tag k="ssr:stedsnr" v="10447" />
	</node>
	<node id="-99387" lat="61.9644416676" lon="10.3907194521">
		<tag k="fixme" v="consider natural=peak for the most distinct mountains in the district" />
		<tag k="name" v="Sølnsjøskrabbane" />
		<tag k="natural" v="hill" />
		<tag k="old_name" v="Sølensjøskrabbane" />
		<tag k="place" v="locality" />
		<tag k="ssr:stedsnr" v="10444" />
	</node>
	<node id="-99384" lat="62.0539722192" lon="10.1870388887">
		<tag k="name" v="Storrøsta" />
		<tag k="natural" v="valley" />
		<tag k="place" v="locality" />
		<tag k="ssr:stedsnr" v="10382" />
	</node>
	<node id="-99371" lat="62.0426333365" lon="10.7523833298">
		<tag k="fixme" v="consider natural=peak for the most distinct mountains in the district" />
		<tag k="name" v="Øykletten" />
		<tag k="natural" v="hill" />
		<tag k="place" v="locality" />
		<tag k="ssr:stedsnr" v="10008" />
	</node>
	<node id="-99364" lat="62.1895250036" lon="10.6529638865">
		<tag k="name" v="Langskrea" />
		<tag k="natural" v="slope" />
		<tag k="place" v="locality" />
		<tag k="ssr:stedsnr" v="478878" />
	</node>
	<node id="-99360" lat="62.0900333375" lon="10.5492916751">
		<tag k="name" v="Dyan" />
		<tag k="place" v="locality" />
		<tag k="ssr:stedsnr" v="478691" />
	</node>
	<node id="-99359" lat="62.0140583353" lon="10.7915194445">
		<tag k="name" v="Kvitranden" />
		<tag k="natural" v="ridge" />
		<tag k="place" v="locality" />
		<tag k="ssr:stedsnr" v="478685" />
	</node>
	<node id="-99357" lat="62.0744583369" lon="10.5834138972">
		<tag k="name" v="Volbekkdalen" />
		<tag k="natural" v="valley" />
		<tag k="place" v="locality" />
		<tag k="ssr:stedsnr" v="478245" />
	</node>
	<node id="-99352" lat="62.0542194433" lon="10.3902166715">
		<tag k="name" v="Storslettbakken" />
		<tag k="natural" v="slope" />
		<tag k="place" v="locality" />
		<tag k="ssr:stedsnr" v="477813" />
	</node>
	<node id="-99344" lat="62.1202861113" lon="10.3904527752">
		<tag k="name" v="Tørrhaugen" />
		<tag k="natural" v="hill" />
		<tag k="place" v="locality" />
		<tag k="ssr:stedsnr" v="476995" />
	</node>
	<node id="-99342" lat="62.1660000007" lon="10.4639277778">
		<tag k="name" v="Ormlia" />
		<tag k="natural" v="slope" />
		<tag k="place" v="locality" />
		<tag k="ssr:stedsnr" v="476970" />
	</node>
	<node id="-99341" lat="62.1700777768" lon="10.4518611143">
		<tag k="name" v="Olbergdalen" />
		<tag k="natural" v="valley" />
		<tag k="place" v="locality" />
		<tag k="ssr:stedsnr" v="476968" />
	</node>
	<node id="-99340" lat="62.1331638866" lon="10.3224944367">
		<tag k="name" v="Skarvdalslia" />
		<tag k="natural" v="slope" />
		<tag k="place" v="locality" />
		<tag k="ssr:stedsnr" v="476886" />
	</node>
	<node id="-99336" lat="62.2160166693" lon="10.6844083247">
		<tag k="name" v="Randegga" />
		<tag k="natural" v="hill" />
		<tag k="place" v="locality" />
		<tag k="ssr:stedsnr" v="476766" />
	</node>
	<node id="-99331" lat="62.2697888884" lon="10.3721027707">
		<tag k="name" v="Skarvdalen" />
		<tag k="natural" v="valley" />
		<tag k="place" v="locality" />
		<tag k="ssr:stedsnr" v="384332" />
	</node>
	<node id="-99327" lat="62.0146388861" lon="10.3905944354">
		<tag k="fixme" v="consider natural=peak for the most distinct mountains in the district" />
		<tag k="name" v="Brenna" />
		<tag k="natural" v="hill" />
		<tag k="place" v="locality" />
		<tag k="ssr:stedsnr" v="375129" />
	</node>
	<node id="-99324" lat="62.2290000004" lon="10.3965666721">
		<tag k="name" v="Svartlia" />
		<tag k="natural" v="slope" />
		<tag k="place" v="locality" />
		<tag k="ssr:stedsnr" v="375075" />
	</node>
	<node id="-99322" lat="61.9795499962" lon="10.4363055552">
		<tag k="name" v="Kvislåskardet" />
		<tag k="natural" v="valley" />
		<tag k="place" v="locality" />
		<tag k="ssr:stedsnr" v="374451" />
	</node>
	<node id="-99320" lat="61.9353777756" lon="10.5725000056">
		<tag k="fixme" v="consider natural=peak for the most distinct mountains in the district" />
		<tag k="name" v="Storhøaksla" />
		<tag k="natural" v="hill" />
		<tag k="place" v="locality" />
		<tag k="ssr:stedsnr" v="374443" />
	</node>
	<node id="-99319" lat="62.0088638872" lon="10.7497583288">
		<tag k="fixme" v="consider natural=peak for the most distinct mountains in the district" />
		<tag k="name" v="Urdlivola" />
		<tag k="natural" v="hill" />
		<tag k="old_name" v="Urdlivorda" />
		<tag k="place" v="locality" />
		<tag k="ssr:stedsnr" v="374439" />
	</node>
	<node id="-99317" lat="61.9927833298" lon="10.5334527761">
		<tag k="fixme" v="consider natural=peak for the most distinct mountains in the district" />
		<tag k="name" v="Geitryggen" />
		<tag k="natural" v="hill" />
		<tag k="place" v="locality" />
		<tag k="ssr:stedsnr" v="374427" />
	</node>
	<node id="-99316" lat="61.9953527774" lon="10.463091664">
		<tag k="name" v="Kjelkedalen" />
		<tag k="natural" v="valley" />
		<tag k="place" v="locality" />
		<tag k="ssr:stedsnr" v="374428" />
	</node>
	<node id="-99309" lat="62.0385472183" lon="10.4937666673">
		<tag k="alt_name" v="Eian" />
		<tag k="name" v="Eggan" />
		<tag k="natural" v="hill" />
		<tag k="place" v="locality" />
		<tag k="ssr:stedsnr" v="374205" />
	</node>
	<node id="-99308" lat="62.0374083296" lon="10.3686777788">
		<tag k="alt_name" v="Kolletvorda" />
		<tag k="fixme" v="consider natural=peak for the most distinct mountains in the district" />
		<tag k="name" v="Kolletvola" />
		<tag k="natural" v="hill" />
		<tag k="place" v="locality" />
		<tag k="ssr:stedsnr" v="374202" />
	</node>
	<node id="-99304" lat="62.0582638855" lon="10.6554333303">
		<tag k="name" v="Lauvhaugen" />
		<tag k="natural" v="hill" />
		<tag k="place" v="locality" />
		<tag k="ssr:stedsnr" v="374155" />
	</node>
	<node id="-99303" lat="62.0621111109" lon="10.6070166729">
		<tag k="fixme" v="consider natural=peak for the most distinct mountains in the district" />
		<tag k="name" v="Valleråkjølen" />
		<tag k="natural" v="hill" />
		<tag k="place" v="locality" />
		<tag k="ssr:stedsnr" v="374153" />
	</node>
	<node id="-99302" lat="62.0718083311" lon="10.5671416585">
		<tag k="alt_name" v="Skarvklettene" />
		<tag k="fixme" v="consider natural=peak for the most distinct mountains in the district" />
		<tag k="name" v="Skarvklettan" />
		<tag k="natural" v="hill" />
		<tag k="place" v="locality" />
		<tag k="ssr:stedsnr" v="374148" />
	</node>
	<node id="-99301" lat="62.0751999983" lon="10.5339527869">
		<tag k="alt_name" v="Dokk-kampen" />
		<tag k="fixme" v="consider natural=peak for the most distinct mountains in the district" />
		<tag k="name" v="Dokkampen" />
		<tag k="natural" v="hill" />
		<tag k="place" v="locality" />
		<tag k="ssr:stedsnr" v="374146" />
	</node>
	<node id="-99296" lat="62.1852277739" lon="10.396124996">
		<tag k="alt_name" v="Skarkletten" />
		<tag k="name" v="Skardkletten" />
		<tag k="natural" v="hill" />
		<tag k="place" v="locality" />
		<tag k="ssr:stedsnr" v="374102" />
	</node>
	<node id="-99294" lat="62.0422972223" lon="10.8251166647">
		<tag k="alt_name" v="Midtre Bellingen" />
		<tag k="fixme" v="consider natural=peak for the most distinct mountains in the district" />
		<tag k="name" v="Bellingan" />
		<tag k="natural" v="hill" />
		<tag k="place" v="locality" />
		<tag k="ssr:stedsnr" v="374064" />
	</node>
	<node id="-99293" lat="62.1827777812" lon="10.5303888892">
		<tag k="fixme" v="consider natural=peak for the most distinct mountains in the district" />
		<tag k="name" v="Brottåsen" />
		<tag k="natural" v="hill" />
		<tag k="place" v="locality" />
		<tag k="ssr:stedsnr" v="374030" />
	</node>
	<node id="-99292" lat="62.1723333371" lon="10.5928333314">
		<tag k="name" v="Brandvålsberget" />
		<tag k="natural" v="hill" />
		<tag k="place" v="locality" />
		<tag k="ssr:stedsnr" v="374024" />
	</node>
	<node id="-99290" lat="62.1705805581" lon="10.3823500026">
		<tag k="fixme" v="consider natural=peak for the most distinct mountains in the district" />
		<tag k="name" v="Langåsen" />
		<tag k="natural" v="hill" />
		<tag k="place" v="locality" />
		<tag k="ssr:stedsnr" v="374015" />
	</node>
	<node id="-99288" lat="61.9509027766" lon="10.2334861074">
		<tag k="alt_name" v="Langrandin" />
		<tag k="name" v="Langranden" />
		<tag k="natural" v="slope" />
		<tag k="place" v="locality" />
		<tag k="ssr:stedsnr" v="373620" />
	</node>
	<node id="-99279" lat="62.0591527756" lon="10.7573388808">
		<tag k="name" v="Stortorvet" />
		<tag k="place" v="locality" />
		<tag k="ssr:stedsnr" v="357666" />
	</node>
	<node id="-99278" lat="62.0611916657" lon="10.7413166748">
		<tag k="name" v="Bråttåvørlet" />
		<tag k="natural" v="slope" />
		<tag k="place" v="locality" />
		<tag k="ssr:stedsnr" v="357665" />
	</node>
	<node id="-99277" lat="62.0348083343" lon="10.8034916741">
		<tag k="name" v="Såttåen" />
		<tag k="natural" v="slope" />
		<tag k="place" v="locality" />
		<tag k="ssr:stedsnr" v="357656" />
	</node>
	<node id="-99274" lat="62.0120305571" lon="10.6103888938">
		<tag k="name" v="Skarven" />
		<tag k="natural" v="hill" />
		<tag k="place" v="locality" />
		<tag k="ssr:stedsnr" v="357627" />
	</node>
	<node id="-99270" lat="62.1431249999" lon="10.6503666618">
		<tag k="name" v="Berget" />
		<tag k="natural" v="hill" />
		<tag k="place" v="locality" />
		<tag k="ssr:stedsnr" v="356936" />
	</node>
	<node id="-99268" lat="62.1644888882" lon="10.6206499904">
		<tag k="name" v="Egga" />
		<tag k="natural" v="hill" />
		<tag k="place" v="locality" />
		<tag k="ssr:stedsnr" v="356891" />
	</node>
	<node id="-99262" lat="62.1088999989" lon="10.6456194509">
		<tag k="name" v="Kattmoen" />
		<tag k="place" v="locality" />
		<tag k="ssr:stedsnr" v="356773" />
	</node>
	<node id="-99258" lat="62.1235944472" lon="10.3676138968">
		<tag k="name" v="Jotvola" />
		<tag k="natural" v="slope" />
		<tag k="place" v="locality" />
		<tag k="ssr:stedsnr" v="355988" />
	</node>
	<node id="-99257" lat="62.1438750015" lon="10.3713638947">
		<tag k="name" v="Storkampen" />
		<tag k="natural" v="hill" />
		<tag k="place" v="locality" />
		<tag k="ssr:stedsnr" v="355981" />
	</node>
	<node id="-99256" lat="62.176197218" lon="10.3938722226">
		<tag k="name" v="Skrabben" />
		<tag k="natural" v="hill" />
		<tag k="place" v="locality" />
		<tag k="ssr:stedsnr" v="355979" />
	</node>
	<node id="-99254" lat="62.1557638892" lon="10.446808331">
		<tag k="name" v="Storkletten" />
		<tag k="natural" v="hill" />
		<tag k="place" v="locality" />
		<tag k="ssr:stedsnr" v="355974" />
	</node>
	<node id="-99251" lat="62.1873861092" lon="10.3905055584">
		<tag k="name" v="Øvre Moen" />
		<tag k="place" v="locality" />
		<tag k="ssr:stedsnr" v="355947" />
	</node>
	<node id="-99250" lat="62.184883331" lon="10.390936116">
		<tag k="name" v="Langegga" />
		<tag k="natural" v="slope" />
		<tag k="place" v="locality" />
		<tag k="ssr:stedsnr" v="355945" />
	</node>
	<node id="-99249" lat="62.2480416665" lon="10.3682527845">
		<tag k="name" v="Oksbakken" />
		<tag k="natural" v="slope" />
		<tag k="place" v="locality" />
		<tag k="ssr:stedsnr" v="355921" />
	</node>
	<node id="-99248" lat="62.0740833334" lon="10.4554277799">
		<tag k="name" v="Vardlia" />
		<tag k="natural" v="slope" />
		<tag k="place" v="locality" />
		<tag k="ssr:stedsnr" v="355759" />
	</node>
	<node id="-99241" lat="62.1195555592" lon="10.5172611054">
		<tag k="name" v="Langbakken" />
		<tag k="natural" v="slope" />
		<tag k="place" v="locality" />
		<tag k="ssr:stedsnr" v="355627" />
	</node>
	<node id="-99239" lat="62.1088750035" lon="10.7196083328">
		<tag k="name" v="Bjørnåsen" />
		<tag k="natural" v="hill" />
		<tag k="place" v="locality" />
		<tag k="ssr:stedsnr" v="354677" />
	</node>
	<node id="-99237" lat="62.1984694431" lon="10.5349722257">
		<tag k="alt_name" v="Veslåsen" />
		<tag k="fixme" v="consider natural=peak for the most distinct mountains in the district" />
		<tag k="name" v="Vesleåsen" />
		<tag k="natural" v="hill" />
		<tag k="place" v="locality" />
		<tag k="ssr:stedsnr" v="314701" />
	</node>
	<node id="-99233" lat="62.0416500011" lon="10.1656765362">
		<tag k="fixme" v="consider natural=peak for the most distinct mountains in the district" />
		<tag k="name" v="Mjovassdalskletten" />
		<tag k="natural" v="hill" />
		<tag k="place" v="locality" />
		<tag k="ssr:stedsnr" v="314424" />
	</node>
	<node id="-99232" lat="62.0647305524" lon="10.2166500034">
		<tag k="fixme" v="consider natural=peak for the most distinct mountains in the district" />
		<tag k="name" v="Småklettan" />
		<tag k="natural" v="hill" />
		<tag k="place" v="locality" />
		<tag k="ssr:stedsnr" v="314419" />
	</node>
	<node id="-99231" lat="62.1060416679" lon="10.6957888872">
		<tag k="fixme" v="consider natural=peak for the most distinct mountains in the district" />
		<tag k="name" v="Juliåsen" />
		<tag k="natural" v="hill" />
		<tag k="place" v="locality" />
		<tag k="ssr:stedsnr" v="314281" />
	</node>
	<node id="-99228" lat="62.0513111139" lon="10.6667666744">
		<tag k="alt_name" v="Veslvorda" />
		<tag k="fixme" v="consider natural=peak for the most distinct mountains in the district" />
		<tag k="name" v="Veslevola" />
		<tag k="natural" v="hill" />
		<tag k="place" v="locality" />
		<tag k="ssr:stedsnr" v="314194" />
	</node>
	<node id="-99225" lat="62.0266611135" lon="10.4615416651">
		<tag k="alt_name" v="Dølbekkhøa, vesle" />
		<tag k="name" v="Vesle Dølbekkhøa" />
		<tag k="natural" v="hill" />
		<tag k="place" v="locality" />
		<tag k="ssr:stedsnr" v="314178" />
	</node>
	<node id="-99214" lat="62.0860611123" lon="10.7419611154">
		<tag k="fixme" v="consider natural=peak for the most distinct mountains in the district" />
		<tag k="name" v="Limåsen" />
		<tag k="natural" v="hill" />
		<tag k="place" v="locality" />
		<tag k="ssr:stedsnr" v="314096" />
	</node>
	<node id="-99210" lat="62.1510333328" lon="10.6512861034">
		<tag k="name" v="Nordkletten" />
		<tag k="natural" v="hill" />
		<tag k="place" v="locality" />
		<tag k="ssr:stedsnr" v="314054" />
	</node>
	<node id="-99209" lat="62.0208527749" lon="10.8807250023">
		<tag k="name" v="Barkaldkjølen" />
		<tag k="natural" v="ridge" />
		<tag k="place" v="locality" />
		<tag k="ssr:stedsnr" v="314050" />
	</node>
	<node id="-99205" lat="62.0143583376" lon="10.7441138821">
		<tag k="alt_name" v="Vordkampen" />
		<tag k="name" v="Volkampen" />
		<tag k="natural" v="hill" />
		<tag k="place" v="locality" />
		<tag k="ssr:stedsnr" v="314036" />
	</node>
	<node id="-99203" lat="62.071902777" lon="10.7859333258">
		<tag k="fixme" v="consider natural=peak for the most distinct mountains in the district" />
		<tag k="name" v="Blanktjønnvola" />
		<tag k="natural" v="hill" />
		<tag k="place" v="locality" />
		<tag k="ssr:stedsnr" v="314018" />
	</node>
	<node id="-99199" lat="62.0527138909" lon="10.4419277814">
		<tag k="name" v="Storskardet" />
		<tag k="natural" v="valley" />
		<tag k="place" v="locality" />
		<tag k="ssr:stedsnr" v="314202" />
	</node>
	<node id="-99198" lat="61.9371333362" lon="10.2101388842">
		<tag k="name" v="Skjellådalen" />
		<tag k="natural" v="valley" />
		<tag k="place" v="locality" />
		<tag k="ssr:stedsnr" v="313629" />
	</node>
	<node id="-99197" lat="61.9595611128" lon="10.6935916633">
		<tag k="fixme" v="consider natural=peak for the most distinct mountains in the district" />
		<tag k="name" v="Tegningshøa" />
		<tag k="natural" v="hill" />
		<tag k="old_name" v="Teiningshøa" />
		<tag k="place" v="locality" />
		<tag k="ssr:stedsnr" v="313446" />
	</node>
	<node id="-99194" lat="61.993969442" lon="10.4028500069">
		<tag k="fixme" v="consider natural=peak for the most distinct mountains in the district" />
		<tag k="name" v="Kampen" />
		<tag k="natural" v="hill" />
		<tag k="place" v="locality" />
		<tag k="ssr:stedsnr" v="313407" />
	</node>
	<node id="-99193" lat="62.0012777752" lon="10.5729194494">
		<tag k="fixme" v="consider natural=peak for the most distinct mountains in the district" />
		<tag k="name" v="Øykjekletten" />
		<tag k="natural" v="hill" />
		<tag k="place" v="locality" />
		<tag k="ssr:stedsnr" v="313403" />
	</node>
	<node id="-99187" lat="62.0526666644" lon="10.7471222183">
		<tag k="name" v="Kletten" />
		<tag k="natural" v="hill" />
		<tag k="place" v="locality" />
		<tag k="ssr:stedsnr" v="297670" />
	</node>
	<node id="-99184" lat="62.0016388898" lon="10.7071138848">
		<tag k="name" v="Bakkan" />
		<tag k="natural" v="slope" />
		<tag k="place" v="locality" />
		<tag k="ssr:stedsnr" v="297641" />
	</node>
	<node id="-99182" lat="62.1139694412" lon="10.6192277719">
		<tag k="name" v="Grimshaugen" />
		<tag k="natural" v="hill" />
		<tag k="place" v="locality" />
		<tag k="ssr:stedsnr" v="296820" />
	</node>
	<node id="-99175" lat="62.0901277779" lon="10.3615138851">
		<tag k="name" v="Vollbakken" />
		<tag k="natural" v="slope" />
		<tag k="place" v="locality" />
		<tag k="ssr:stedsnr" v="295776" />
	</node>
	<node id="-99172" lat="62.1297861146" lon="10.4507416594">
		<tag k="name" v="Jotlia" />
		<tag k="natural" v="slope" />
		<tag k="place" v="locality" />
		<tag k="ssr:stedsnr" v="294983" />
	</node>
	<node id="-99169" lat="62.1280999961" lon="10.3471694425">
		<tag k="name" v="Bjørnhaugen" />
		<tag k="natural" v="hill" />
		<tag k="place" v="locality" />
		<tag k="ssr:stedsnr" v="294893" />
	</node>
	<node id="-99168" lat="62.1480000005" lon="10.6756111196">
		<tag k="name" v="Såttåbakkene" />
		<tag k="natural" v="slope" />
		<tag k="place" v="locality" />
		<tag k="ssr:stedsnr" v="294834" />
	</node>
	<node id="-99167" lat="62.212063888" lon="10.7129499952">
		<tag k="name" v="Tylldalsmoen" />
		<tag k="place" v="locality" />
		<tag k="ssr:stedsnr" v="294752" />
	</node>
	<node id="-99165" lat="62.1723166681" lon="10.5915861103">
		<tag k="name" v="Svartberget" />
		<tag k="natural" v="hill" />
		<tag k="place" v="locality" />
		<tag k="ssr:stedsnr" v="294702" />
	</node>
	<node id="-100442" lat="62.1973194466" lon="10.6677944522">
		<tag k="name" v="Nyskrea" />
		<tag k="natural" v="valley" />
		<tag k="place" v="locality" />
		<tag k="ssr:stedsnr" v="964846" />
	</node>
	<node id="-100440" lat="61.966602779" lon="10.8195305532">
		<tag k="name" v="Heimskardet" />
		<tag k="natural" v="valley" />
		<tag k="place" v="locality" />
		<tag k="ssr:stedsnr" v="964634" />
	</node>
	<node id="-100439" lat="62.0214305572" lon="10.6300638879">
		<tag k="name" v="Bjønndalen" />
		<tag k="natural" v="valley" />
		<tag k="place" v="locality" />
		<tag k="ssr:stedsnr" v="964611" />
	</node>
	<node id="-100431" lat="62.0221722247" lon="10.6136944396">
		<tag k="name" v="Storhaugen" />
		<tag k="natural" v="hill" />
		<tag k="place" v="locality" />
		<tag k="ssr:stedsnr" v="963688" />
	</node>
	<node id="-100430" lat="62.1187805538" lon="10.4676805589">
		<tag k="name" v="Grønåsen" />
		<tag k="natural" v="hill" />
		<tag k="place" v="locality" />
		<tag k="ssr:stedsnr" v="962991" />
	</node>
	<node id="-100429" lat="62.1316500044" lon="10.3629388947">
		<tag k="fixme" v="consider natural=peak for the most distinct mountains in the district" />
		<tag k="name" v="Stenvola" />
		<tag k="natural" v="hill" />
		<tag k="place" v="locality" />
		<tag k="ssr:stedsnr" v="962988" />
	</node>
	<node id="-100427" lat="62.129138891" lon="10.296769439">
		<tag k="name" v="Vissmannlia" />
		<tag k="natural" v="slope" />
		<tag k="place" v="locality" />
		<tag k="ssr:stedsnr" v="962886" />
	</node>
	<node id="-100426" lat="62.1965749985" lon="10.5101333423">
		<tag k="name" v="Geitkletten" />
		<tag k="natural" v="hill" />
		<tag k="place" v="locality" />
		<tag k="ssr:stedsnr" v="962786" />
	</node>
	<node id="-100423" lat="62.1356499984" lon="10.4767222308">
		<tag k="name" v="Svartåsmoen" />
		<tag k="place" v="locality" />
		<tag k="ssr:stedsnr" v="962638" />
	</node>
	<node id="-100422" lat="62.1449361123" lon="10.3194250093">
		<tag k="name" v="Tverrlia" />
		<tag k="natural" v="slope" />
		<tag k="place" v="locality" />
		<tag k="ssr:stedsnr" v="962067" />
	</node>
	<node id="-100420" lat="62.1156499974" lon="10.2914527777">
		<tag k="name" v="Svartåsen" />
		<tag k="natural" v="hill" />
		<tag k="place" v="locality" />
		<tag k="ssr:stedsnr" v="937833" />
	</node>
	<node id="-100404" lat="62.0385027763" lon="10.674594443">
		<tag k="alt_name" v="Blåvorda" />
		<tag k="fixme" v="consider natural=peak for the most distinct mountains in the district" />
		<tag k="name" v="Blåvola" />
		<tag k="natural" v="hill" />
		<tag k="place" v="locality" />
		<tag k="ssr:stedsnr" v="921197" />
	</node>
	<node id="-100402" lat="62.0583555522" lon="10.4927361022">
		<tag k="name" v="Vardtjønnskardet" />
		<tag k="natural" v="valley" />
		<tag k="place" v="locality" />
		<tag k="ssr:stedsnr" v="921183" />
	</node>
	<node id="-100399" lat="62.0408916661" lon="10.4396916725">
		<tag k="fixme" v="consider natural=peak for the most distinct mountains in the district" />
		<tag k="name" v="Røskåsen" />
		<tag k="natural" v="hill" />
		<tag k="place" v="locality" />
		<tag k="ssr:stedsnr" v="921166" />
	</node>
	<node id="-100393" lat="62.1925916689" lon="10.5417999962">
		<tag k="fixme" v="consider natural=peak for the most distinct mountains in the district" />
		<tag k="name" v="Høgåsen" />
		<tag k="natural" v="hill" />
		<tag k="place" v="locality" />
		<tag k="ssr:stedsnr" v="921090" />
	</node>
	<node id="-100392" lat="62.2177472245" lon="10.4085888935">
		<tag k="alt_name" v="Lomnesvorda" />
		<tag k="fixme" v="consider natural=peak for the most distinct mountains in the district" />
		<tag k="name" v="Lomnesvola" />
		<tag k="natural" v="hill" />
		<tag k="place" v="locality" />
		<tag k="ssr:stedsnr" v="921069" />
	</node>
	<node id="-100391" lat="62.1590638906" lon="10.382713881">
		<tag k="alt_name" v="Kolletvorda" />
		<tag k="fixme" v="consider natural=peak for the most distinct mountains in the district" />
		<tag k="name" v="Kolletvola" />
		<tag k="natural" v="hill" />
		<tag k="place" v="locality" />
		<tag k="ssr:stedsnr" v="921060" />
	</node>
	<node id="-100390" lat="62.1512194417" lon="10.4735249947">
		<tag k="fixme" v="consider natural=peak for the most distinct mountains in the district" />
		<tag k="name" v="Tollåsen" />
		<tag k="natural" v="hill" />
		<tag k="place" v="locality" />
		<tag k="ssr:stedsnr" v="921057" />
	</node>
	<node id="-100389" lat="62.1438570556" lon="10.3711888563">
		<tag k="fixme" v="consider natural=peak for the most distinct mountains in the district" />
		<tag k="name" v="Storkampen" />
		<tag k="natural" v="hill" />
		<tag k="ssr:stedsnr" v="921052" />
	</node>
	<node id="-100386" lat="62.1394944474" lon="10.3115361094">
		<tag k="alt_name" v="Tverrlivorda" />
		<tag k="name" v="Tverrlivola" />
		<tag k="natural" v="hill" />
		<tag k="place" v="locality" />
		<tag k="ssr:stedsnr" v="921041" />
	</node>
	<node id="-100385" lat="62.1903500005" lon="10.5971638822">
		<tag k="name" v="Skifthaugen" />
		<tag k="natural" v="hill" />
		<tag k="place" v="locality" />
		<tag k="ssr:stedsnr" v="921032" />
	</node>
	<node id="-100379" lat="61.9132111125" lon="10.5849972283">
		<tag k="alt_name" v="Nehatten, store" />
		<tag k="fixme" v="consider natural=peak for the most distinct mountains in the district" />
		<tag k="name" v="Store Nehatten" />
		<tag k="natural" v="hill" />
		<tag k="place" v="locality" />
		<tag k="ssr:stedsnr" v="920469" />
	</node>
	<node id="-100377" lat="61.9490638869" lon="10.6032861031">
		<tag k="name" v="Storhøfløyet" />
		<tag k="natural" v="plateau" />
		<tag k="ssr:stedsnr" v="920417" />
	</node>
	<node id="-100375" lat="62.1322416698" lon="10.2963722222">
		<tag k="name" v="Vissmannkletten" />
		<tag k="natural" v="hill" />
		<tag k="place" v="locality" />
		<tag k="ssr:stedsnr" v="920198" />
	</node>
	<node id="-100369" lat="62.1837805599" lon="10.6503277853">
		<tag k="name" v="Svartbekkhammeren" />
		<tag k="natural" v="hill" />
		<tag k="place" v="locality" />
		<tag k="ssr:stedsnr" v="904878" />
	</node>
	<node id="-100366" lat="62.0051000039" lon="10.8982388959">
		<tag k="fixme" v="consider natural=peak for the most distinct mountains in the district" />
		<tag k="name" v="Barkaldkjølen" />
		<tag k="natural" v="hill" />
		<tag k="place" v="locality" />
		<tag k="ssr:stedsnr" v="904661" />
	</node>
	<node id="-100353" lat="62.112236114" lon="10.6621027824">
		<tag k="name" v="Storbrekka" />
		<tag k="natural" v="hill" />
		<tag k="place" v="locality" />
		<tag k="ssr:stedsnr" v="903000" />
	</node>
</osm>
